14837KMSN MSN20021101000009611/01/02 00:00:32  5-MIN KMSN 010600Z 28005KT 10SM CLR M03/M08 A3019 610 71 -1400 280/05 RMK AO2
14837KMSN MSN20021101000509611/01/02 00:05:31  5-MIN KMSN 010605Z VRB06KT 10SM CLR M03/M08 A3019 610 71 -1400 VRB/06 RMK AO2
14837KMSN MSN20021101001009611/01/02 00:10:31  5-MIN KMSN 010610Z 28006KT 10SM CLR M03/M08 A3019 610 71 -1400 280/06 RMK AO2
14837KMSN MSN20021101001509611/01/02 00:15:31  5-MIN KMSN 010615Z 27007KT 10SM CLR M03/M08 A3019 610 71 -1400 270/07 RMK AO2
14837KMSN MSN20021101002009611/01/02 00:20:31  5-MIN KMSN 010620Z 28006KT 10SM CLR M03/M08 A3019 610 71 -1400 280/06 RMK AO2
14837KMSN MSN20021101002509611/01/02 00:25:31  5-MIN KMSN 010625Z 28006KT 10SM CLR M03/M08 A3019 610 71 -1400 280/06 RMK AO2
14837KMSN MSN20021101003009611/01/02 00:30:31  5-MIN KMSN 010630Z 28006KT 10SM CLR M03/M08 A3019 610 71 -1400 280/06 RMK AO2
14837KMSN MSN20021101003509611/01/02 00:35:31  5-MIN KMSN 010635Z 28006KT 10SM CLR M03/M08 A3019 620 71 -1400 280/06 RMK AO2
14837KMSN MSN20021101004009611/01/02 00:40:31  5-MIN KMSN 010640Z 28006KT 10SM CLR M03/M08 A3019 610 71 -1400 280/06 RMK AO2
14837KMSN MSN20021101004509611/01/02 00:45:31  5-MIN KMSN 010645Z 28006KT 10SM CLR M03/M08 A3019 620 71 -1400 280/06 RMK AO2
14837KMSN MSN20021101005011311/01/02 00:50:31  5-MIN KMSN 010650Z 28004KT 10SM CLR M03/M08 A3019 610 71 -1400 280/04 RMK AO2 SLP234 T10331078
14837KMSN MSN20021101005509611/01/02 00:55:31  5-MIN KMSN 010655Z 27005KT 10SM CLR M04/M08 A3019 610 74 -1500 270/05 RMK AO2
14837KMSN MSN20021101010009611/01/02 01:00:31  5-MIN KMSN 010700Z 27004KT 10SM CLR M04/M08 A3019 610 74 -1500 270/04 RMK AO2
14837KMSN MSN20021101010509611/01/02 01:05:31  5-MIN KMSN 010705Z 28005KT 10SM CLR M04/M08 A3019 610 74 -1500 280/05 RMK AO2
14837KMSN MSN20021101011009611/01/02 01:10:31  5-MIN KMSN 010710Z 28005KT 10SM CLR M04/M08 A3019 610 74 -1500 280/05 RMK AO2
14837KMSN MSN20021101011509611/01/02 01:15:31  5-MIN KMSN 010715Z VRB05KT 10SM CLR M04/M08 A3020 610 74 -1500 VRB/05 RMK AO2
14837KMSN MSN20021101012009611/01/02 01:20:31  5-MIN KMSN 010720Z 28005KT 10SM CLR M04/M08 A3019 610 74 -1500 280/05 RMK AO2
14837KMSN MSN20021101012509611/01/02 01:25:31  5-MIN KMSN 010725Z 29005KT 10SM CLR M04/M08 A3020 610 74 -1500 290/05 RMK AO2
14837KMSN MSN20021101013009611/01/02 01:30:31  5-MIN KMSN 010730Z 29005KT 10SM CLR M04/M08 A3020 610 74 -1500 280/05 RMK AO2
14837KMSN MSN20021101013509611/01/02 01:35:31  5-MIN KMSN 010735Z 29004KT 10SM CLR M04/M08 A3020 610 74 -1500 280/04 RMK AO2
14837KMSN MSN20021101014009611/01/02 01:40:31  5-MIN KMSN 010740Z 28004KT 10SM CLR M04/M08 A3020 610 74 -1500 280/04 RMK AO2
14837KMSN MSN20021101014509611/01/02 01:45:31  5-MIN KMSN 010745Z 29005KT 10SM CLR M04/M08 A3020 610 78 -1600 290/05 RMK AO2
14837KMSN MSN20021101015011311/01/02 01:50:31  5-MIN KMSN 010750Z VRB04KT 10SM CLR M04/M08 A3020 610 78 -1500 VRB/04 RMK AO2 SLP235 T10441078
14837KMSN MSN20021101015509611/01/02 01:55:31  5-MIN KMSN 010755Z 29004KT 10SM CLR M04/M08 A3019 610 74 -1500 290/04 RMK AO2
14837KMSN MSN20021101020009611/01/02 02:00:31  5-MIN KMSN 010800Z VRB05KT 10SM CLR M04/M08 A3019 610 78 -1500 VRB/05 RMK AO2
14837KMSN MSN20021101020509611/01/02 02:05:31  5-MIN KMSN 010805Z 28005KT 10SM CLR M04/M08 A3019 610 78 -1500 280/05 RMK AO2
14837KMSN MSN20021101021009611/01/02 02:10:31  5-MIN KMSN 010810Z 28006KT 10SM CLR M04/M08 A3019 620 78 -1500 280/06 RMK AO2
14837KMSN MSN20021101021509611/01/02 02:15:31  5-MIN KMSN 010815Z 28005KT 10SM CLR M04/M08 A3019 620 78 -1500 280/05 RMK AO2
14837KMSN MSN20021101022009611/01/02 02:20:31  5-MIN KMSN 010820Z 28005KT 10SM CLR M04/M08 A3019 620 78 -1500 280/05 RMK AO2
14837KMSN MSN20021101022509611/01/02 02:25:31  5-MIN KMSN 010825Z 29007KT 10SM CLR M04/M08 A3019 620 78 -1500 290/07 RMK AO2
14837KMSN MSN20021101023009611/01/02 02:30:31  5-MIN KMSN 010830Z 28008KT 10SM CLR M04/M08 A3019 620 74 -1500 280/08 RMK AO2
14837KMSN MSN20021101023509611/01/02 02:35:31  5-MIN KMSN 010835Z 28007KT 10SM CLR M04/M08 A3019 620 74 -1500 280/07 RMK AO2
14837KMSN MSN20021101024009611/01/02 02:40:31  5-MIN KMSN 010840Z 29008KT 10SM CLR M04/M08 A3019 620 74 -1500 290/08 RMK AO2
14837KMSN MSN20021101024509611/01/02 02:45:31  5-MIN KMSN 010845Z 28007KT 10SM CLR M04/M08 A3019 610 78 -1500 280/07 RMK AO2
14837KMSN MSN20021101025011911/01/02 02:50:31  5-MIN KMSN 010850Z 29007KT 10SM CLR M04/M08 A3019 620 78 -1500 290/07 RMK AO2 SLP233 T10441078 58001
14837KMSN MSN20021101025509611/01/02 02:55:31  5-MIN KMSN 010855Z 28006KT 10SM CLR M04/M08 A3019 620 78 -1500 280/06 RMK AO2
14837KMSN MSN20021101030009611/01/02 03:00:31  5-MIN KMSN 010900Z 28006KT 10SM CLR M04/M08 A3019 620 78 -1500 280/06 RMK AO2
14837KMSN MSN20021101030509611/01/02 03:05:31  5-MIN KMSN 010905Z 28006KT 10SM CLR M04/M08 A3019 620 78 -1500 280/06 RMK AO2
14837KMSN MSN20021101031009611/01/02 03:10:31  5-MIN KMSN 010910Z 27006KT 10SM CLR M04/M08 A3019 620 78 -1500 270/06 RMK AO2
14837KMSN MSN20021101031509611/01/02 03:15:31  5-MIN KMSN 010915Z 28006KT 10SM CLR M04/M08 A3019 620 78 -1500 280/06 RMK AO2
14837KMSN MSN20021101032009611/01/02 03:20:31  5-MIN KMSN 010920Z 28007KT 10SM CLR M04/M08 A3019 620 78 -1500 280/07 RMK AO2
14837KMSN MSN20021101032509611/01/02 03:25:31  5-MIN KMSN 010925Z 29008KT 10SM CLR M04/M08 A3019 620 78 -1500 290/08 RMK AO2
14837KMSN MSN20021101033009611/01/02 03:30:31  5-MIN KMSN 010930Z 29007KT 10SM CLR M04/M08 A3019 610 78 -1500 290/07 RMK AO2
14837KMSN MSN20021101033509611/01/02 03:35:31  5-MIN KMSN 010935Z 28006KT 10SM CLR M04/M08 A3019 610 78 -1500 280/06 RMK AO2
14837KMSN MSN20021101034009611/01/02 03:40:31  5-MIN KMSN 010940Z 28006KT 10SM CLR M04/M08 A3019 610 78 -1500 280/06 RMK AO2
14837KMSN MSN20021101034509611/01/02 03:45:31  5-MIN KMSN 010945Z 28006KT 10SM CLR M04/M08 A3019 610 78 -1500 280/06 RMK AO2
14837KMSN MSN20021101035011311/01/02 03:50:31  5-MIN KMSN 010950Z VRB06KT 10SM CLR M04/M08 A3019 610 78 -1500 VRB/06 RMK AO2 SLP235 T10441078
14837KMSN MSN20021101035509611/01/02 03:55:31  5-MIN KMSN 010955Z VRB05KT 10SM CLR M04/M08 A3020 610 78 -1500 VRB/05 RMK AO2
14837KMSN MSN20021101040009611/01/02 04:00:31  5-MIN KMSN 011000Z 28006KT 10SM CLR M04/M08 A3020 610 78 -1500 280/06 RMK AO2
14837KMSN MSN20021101040509611/01/02 04:05:31  5-MIN KMSN 011005Z 29007KT 10SM CLR M04/M08 A3020 610 78 -1600 280/07 RMK AO2
14837KMSN MSN20021101041009611/01/02 04:10:31  5-MIN KMSN 011010Z 29007KT 10SM CLR M04/M08 A3020 610 78 -1600 290/07 RMK AO2
14837KMSN MSN20021101041509611/01/02 04:15:31  5-MIN KMSN 011015Z 28005KT 10SM CLR M04/M08 A3020 600 78 -1600 280/05 RMK AO2
14837KMSN MSN20021101042009611/01/02 04:20:31  5-MIN KMSN 011020Z 29007KT 10SM CLR M04/M08 A3021 600 78 -1600 290/07 RMK AO2
14837KMSN MSN20021101042509611/01/02 04:25:31  5-MIN KMSN 011025Z 28007KT 10SM CLR M04/M08 A3021 600 78 -1600 280/07 RMK AO2
14837KMSN MSN20021101043009611/01/02 04:30:31  5-MIN KMSN 011030Z 28007KT 10SM CLR M04/M08 A3021 600 78 -1600 280/07 RMK AO2
14837KMSN MSN20021101043509611/01/02 04:35:31  5-MIN KMSN 011035Z 28007KT 10SM CLR M04/M08 A3021 600 78 -1600 280/07 RMK AO2
14837KMSN MSN20021101044009611/01/02 04:40:31  5-MIN KMSN 011040Z 27005KT 10SM CLR M05/M08 A3021 590 81 -1600 270/05 RMK AO2
14837KMSN MSN20021101044509611/01/02 04:45:31  5-MIN KMSN 011045Z 28006KT 10SM CLR M05/M08 A3022 590 81 -1600 280/06 RMK AO2
14837KMSN MSN20021101045011311/01/02 04:50:31  5-MIN KMSN 011050Z 28005KT 10SM CLR M05/M08 A3022 590 81 -1600 280/05 RMK AO2 SLP243 T10501078
14837KMSN MSN20021101045509611/01/02 04:55:31  5-MIN KMSN 011055Z 28007KT 10SM CLR M05/M08 A3022 590 81 -1600 280/07 RMK AO2
14837KMSN MSN20021101050009611/01/02 05:00:31  5-MIN KMSN 011100Z 27007KT 10SM CLR M05/M08 A3022 590 81 -1700 270/07 RMK AO2
14837KMSN MSN20021101050509611/01/02 05:05:31  5-MIN KMSN 011105Z 27006KT 10SM CLR M05/M08 A3022 590 81 -1700 260/06 RMK AO2
14837KMSN MSN20021101051009611/01/02 05:10:31  5-MIN KMSN 011110Z 28005KT 10SM CLR M05/M08 A3023 580 81 -1700 280/05 RMK AO2
14837KMSN MSN20021101051509611/01/02 05:15:31  5-MIN KMSN 011115Z 27006KT 10SM CLR M05/M08 A3023 580 77 -1700 270/06 RMK AO2
14837KMSN MSN20021101052009611/01/02 05:20:31  5-MIN KMSN 011120Z 28007KT 10SM CLR M05/M08 A3023 580 81 -1700 270/07 RMK AO2
14837KMSN MSN20021101052509611/01/02 05:25:31  5-MIN KMSN 011125Z 27007KT 10SM CLR M05/M08 A3023 580 77 -1700 270/07 RMK AO2
14837KMSN MSN20021101053009611/01/02 05:30:31  5-MIN KMSN 011130Z 27005KT 10SM CLR M05/M08 A3023 580 77 -1700 270/05 RMK AO2
14837KMSN MSN20021101053509611/01/02 05:35:31  5-MIN KMSN 011135Z 27006KT 10SM CLR M05/M08 A3023 580 81 -1700 270/06 RMK AO2
14837KMSN MSN20021101054009611/01/02 05:40:31  5-MIN KMSN 011140Z 28007KT 10SM CLR M05/M08 A3023 580 81 -1700 280/07 RMK AO2
14837KMSN MSN20021101054509611/01/02 05:45:31  5-MIN KMSN 011145Z 28006KT 10SM CLR M06/M08 A3023 570 81 -1700 280/06 RMK AO2
14837KMSN MSN20021101055013111/01/02 05:50:31  5-MIN KMSN 011150Z 27006KT 10SM CLR M05/M08 A3023 580 77 -1700 270/06 RMK AO2 SLP250 T10501083 11033 21056 58000
14837KMSN MSN20021101055509611/01/02 05:55:31  5-MIN KMSN 011155Z 28005KT 10SM CLR M06/M08 A3023 580 81 -1700 280/05 RMK AO2
14837KMSN MSN20021101060009611/01/02 06:00:31  5-MIN KMSN 011200Z VRB05KT 10SM CLR M06/M08 A3023 580 81 -1700 VRB/05 RMK AO2
14837KMSN MSN20021101060509611/01/02 06:05:31  5-MIN KMSN 011205Z 28006KT 10SM CLR M06/M08 A3024 570 81 -1700 280/06 RMK AO2
14837KMSN MSN20021101061009611/01/02 06:10:31  5-MIN KMSN 011210Z 27005KT 10SM CLR M06/M08 A3023 580 81 -1700 270/05 RMK AO2
14837KMSN MSN20021101061509611/01/02 06:15:31  5-MIN KMSN 011215Z 27005KT 10SM CLR M06/M08 A3023 570 81 -1700 270/05 RMK AO2
14837KMSN MSN20021101062009611/01/02 06:20:31  5-MIN KMSN 011220Z 27005KT 10SM CLR M06/M08 A3023 580 81 -1700 270/05 RMK AO2
14837KMSN MSN20021101062509611/01/02 06:25:31  5-MIN KMSN 011225Z 28006KT 10SM CLR M06/M08 A3023 580 81 -1700 280/06 RMK AO2
14837KMSN MSN20021101063009611/01/02 06:30:31  5-MIN KMSN 011230Z VRB06KT 10SM CLR M06/M08 A3023 570 81 -1700 VRB/06 RMK AO2
14837KMSN MSN20021101063509611/01/02 06:35:31  5-MIN KMSN 011235Z 28006KT 10SM CLR M06/M08 A3024 570 84 -1700 280/06 RMK AO2
14837KMSN MSN20021101064009611/01/02 06:40:31  5-MIN KMSN 011240Z 27006KT 10SM CLR M06/M08 A3024 570 84 -1700 270/06 RMK AO2
14837KMSN MSN20021101064509611/01/02 06:45:31  5-MIN KMSN 011245Z 28006KT 10SM CLR M06/M08 A3024 570 81 -1700 280/06 RMK AO2
14837KMSN MSN20021101065011311/01/02 06:50:31  5-MIN KMSN 011250Z 28006KT 10SM CLR M06/M08 A3024 570 81 -1700 280/06 RMK AO2 SLP251 T10561083
14837KMSN MSN20021101065511211/01/02 06:55:31  5-MIN KMSN 011255Z 28007KT 250V310 10SM CLR M06/M08 A3024 570 81 -1700 280/07 250V310 RMK AO2
14837KMSN MSN20021101070009611/01/02 07:00:31  5-MIN KMSN 011300Z VRB06KT 10SM CLR M06/M08 A3024 570 84 -1700 VRB/06 RMK AO2
14837KMSN MSN20021101070509611/01/02 07:05:31  5-MIN KMSN 011305Z 28006KT 10SM CLR M05/M08 A3024 570 81 -1700 270/06 RMK AO2
14837KMSN MSN20021101071009611/01/02 07:10:31  5-MIN KMSN 011310Z 27006KT 10SM CLR M05/M08 A3024 570 81 -1700 270/06 RMK AO2
14837KMSN MSN20021101071509611/01/02 07:15:31  5-MIN KMSN 011315Z VRB06KT 10SM CLR M05/M08 A3024 570 81 -1700 VRB/06 RMK AO2
14837KMSN MSN20021101072009611/01/02 07:20:31  5-MIN KMSN 011320Z VRB05KT 10SM CLR M05/M08 A3025 560 81 -1700 VRB/05 RMK AO2
14837KMSN MSN20021101072509611/01/02 07:25:31  5-MIN KMSN 011325Z 28006KT 10SM CLR M05/M08 A3025 560 81 -1700 280/06 RMK AO2
14837KMSN MSN20021101073009611/01/02 07:30:31  5-MIN KMSN 011330Z 28008KT 10SM CLR M04/M08 A3025 560 78 -1600 280/08 RMK AO2
14837KMSN MSN20021101073509611/01/02 07:35:31  5-MIN KMSN 011335Z VRB05KT 10SM CLR M04/M08 A3025 560 78 -1600 VRB/05 RMK AO2
14837KMSN MSN20021101074009611/01/02 07:40:31  5-MIN KMSN 011340Z VRB05KT 10SM CLR M04/M08 A3025 560 78 -1600 VRB/05 RMK AO2
14837KMSN MSN20021101074509611/01/02 07:45:31  5-MIN KMSN 011345Z 28006KT 10SM CLR M04/M08 A3025 560 78 -1600 280/06 RMK AO2
14837KMSN MSN20021101075011311/01/02 07:50:31  5-MIN KMSN 011350Z 28006KT 10SM CLR M04/M08 A3025 560 74 -1500 270/06 RMK AO2 SLP257 T10391078
14837KMSN MSN20021101075511211/01/02 07:55:31  5-MIN KMSN 011355Z 26007KT 230V320 10SM CLR M04/M08 A3025 560 74 -1500 260/07 230V320 RMK AO2
14837KMSN MSN20021101080009911/01/02 08:00:31  5-MIN KMSN 011400Z 28008KT 10SM FEW040 M04/M08 A3026 560 74 -1500 280/08 RMK AO2
14837KMSN MSN20021101080509911/01/02 08:05:31  5-MIN KMSN 011405Z VRB06KT 10SM FEW040 M04/M08 A3026 560 74 -1500 VRB/06 RMK AO2
14837KMSN MSN20021101081009911/01/02 08:10:31  5-MIN KMSN 011410Z 28008KT 10SM FEW040 M04/M07 A3026 550 78 -1500 280/08 RMK AO2
14837KMSN MSN20021101081509911/01/02 08:15:31  5-MIN KMSN 011415Z 28008KT 10SM FEW020 M03/M07 A3026 560 74 -1500 280/08 RMK AO2
14837KMSN MSN20021101082011511/01/02 08:20:31  5-MIN KMSN 011420Z 29007KT 270V330 10SM FEW020 M03/M08 A3025 560 71 -1500 290/07 270V330 RMK AO2
14837KMSN MSN20021101082509911/01/02 08:25:31  5-MIN KMSN 011425Z 29008KT 10SM FEW020 M03/M08 A3026 550 71 -1500 290/08 RMK AO2
14837KMSN MSN20021101083010511/01/02 08:30:31  5-MIN KMSN 011430Z 30007G15KT 10SM FEW020 M03/M08 A3026 550 71 -1500 290/07G15 RMK AO2
14837KMSN MSN20021101083510511/01/02 08:35:31  5-MIN KMSN 011435Z 30009G16KT 10SM FEW020 M03/M08 A3026 550 71 -1500 300/09G16 RMK AO2
14837KMSN MSN20021101084012111/01/02 08:40:31  5-MIN KMSN 011440Z 29010G16KT 250V320 10SM FEW020 M03/M07 A3026 560 71 -1400 290/10G16 250V320 RMK AO2
14837KMSN MSN20021101084509911/01/02 08:45:31  5-MIN KMSN 011445Z 29011KT 10SM FEW020 M03/M08 A3026 550 71 -1500 290/11 RMK AO2
14837KMSN MSN20021101085012811/01/02 08:50:31  5-MIN KMSN 011450Z 30012G17KT 10SM FEW020 M03/M08 A3026 550 68 -1400 300/12G17 RMK AO2 SLP258 T10281078 53014
14837KMSN MSN20021101085512111/01/02 08:55:31  5-MIN KMSN 011455Z 29012G17KT 230V310 10SM FEW020 M03/M08 A3026 550 68 -1400 290/12G17 230V310 RMK AO2
14837KMSN MSN20021101090010511/01/02 09:00:31  5-MIN KMSN 011500Z 31011G16KT 10SM FEW020 M03/M08 A3026 550 68 -1400 310/11G16 RMK AO2
14837KMSN MSN20021101090512111/01/02 09:05:31  5-MIN KMSN 011505Z 31009G16KT 260V340 10SM FEW020 M03/M08 A3026 550 68 -1400 310/09G16 260V340 RMK AO2
14837KMSN MSN20021101091012111/01/02 09:10:31  5-MIN KMSN 011510Z 28009G15KT 260V320 10SM FEW020 M02/M07 A3026 550 69 -1300 280/09G15 260V320 RMK AO2
14837KMSN MSN20021101091511511/01/02 09:15:31  5-MIN KMSN 011515Z 29009KT 260V320 10SM FEW020 M02/M08 A3026 550 66 -1300 290/09 260V320 RMK AO2
14837KMSN MSN20021101092009911/01/02 09:20:31  5-MIN KMSN 011520Z 29010KT 10SM FEW020 M02/M08 A3026 560 66 -1300 280/10 RMK AO2
14837KMSN MSN20021101092510511/01/02 09:25:31  5-MIN KMSN 011525Z 30010G16KT 10SM FEW020 M02/M08 A3026 560 66 -1300 300/10G16 RMK AO2
14837KMSN MSN20021101093012111/01/02 09:30:31  5-MIN KMSN 011530Z 30007G16KT 280V340 10SM FEW020 M02/M08 A3026 560 66 -1300 300/07G16 280V340 RMK AO2
14837KMSN MSN20021101093509911/01/02 09:35:31  5-MIN KMSN 011535Z 29008KT 10SM FEW020 M02/M07 A3026 560 66 -1300 290/08 RMK AO2
14837KMSN MSN20021101094012111/01/02 09:40:31  5-MIN KMSN 011540Z 28008G15KT 250V310 10SM FEW020 M02/M08 A3026 560 66 -1300 280/08G15 250V310 RMK AO2
14837KMSN MSN20021101094509911/01/02 09:45:31  5-MIN KMSN 011545Z 27008KT 10SM FEW020 M02/M07 A3025 560 66 -1300 270/08 RMK AO2
14837KMSN MSN20021101095012211/01/02 09:50:31  5-MIN KMSN 011550Z 29011G16KT 10SM FEW020 M02/M08 A3025 560 63 -1300 290/11G16 RMK AO2 SLP257 T10171078
14837KMSN MSN20021101095510211/01/02 09:55:31  5-MIN KMSN 011555Z 29009G16KT 10SM CLR M02/M08 A3025 560 63 -1300 290/09G16 RMK AO2
14837KMSN MSN20021101100009611/01/02 10:00:31  5-MIN KMSN 011600Z 28010KT 10SM CLR M02/M08 A3025 560 63 -1300 280/10 RMK AO2
14837KMSN MSN20021101100511511/01/02 10:05:31  5-MIN KMSN 011605Z 30011KT 250V320 10SM FEW020 M01/M07 A3025 560 63 -1200 290/11 250V320 RMK AO2
14837KMSN MSN20021101101009911/01/02 10:10:31  5-MIN KMSN 011610Z 27009KT 10SM FEW020 M01/M07 A3025 560 63 -1200 270/09 RMK AO2
14837KMSN MSN20021101101509911/01/02 10:15:31  5-MIN KMSN 011615Z 30008KT 10SM FEW020 M01/M07 A3026 550 61 -1100 300/08 RMK AO2
14837KMSN MSN20021101102009911/01/02 10:20:31  5-MIN KMSN 011620Z 30010KT 10SM FEW020 M01/M07 A3026 560 61 -1100 300/10 RMK AO2
14837KMSN MSN20021101102510511/01/02 10:25:31  5-MIN KMSN 011625Z 30011G15KT 10SM FEW020 M01/M08 A3026 560 58 -1100 300/11G15 RMK AO2
14837KMSN MSN20021101103011511/01/02 10:30:31  5-MIN KMSN 011630Z 29009KT 250V310 10SM FEW020 M01/M08 A3026 560 58 -1100 290/09 250V310 RMK AO2
14837KMSN MSN20021101103510511/01/02 10:35:31  5-MIN KMSN 011635Z 28013G16KT 10SM FEW020 M01/M08 A3025 560 60 -1200 280/13G16 RMK AO2
14837KMSN MSN20021101104012111/01/02 10:40:31  5-MIN KMSN 011640Z 30008G16KT 270V330 10SM FEW020 M01/M08 A3025 560 58 -1100 300/08G16 270V330 RMK AO2
14837KMSN MSN20021101104511411/01/02 10:45:31  5-MIN KMSN 011645Z 31008KT 260V330 10SM FEW020 00/M07 A3025 560 58 -1000 310/08 260V330 RMK AO2
14837KMSN MSN20021101105011511/01/02 10:50:31  5-MIN KMSN 011650Z 27008KT 10SM FEW020 00/M07 A3025 560 58 -1000 270/08 RMK AO2 SLP255 T00001072
14837KMSN MSN20021101105510611/01/02 10:55:31  5-MIN KMSN 011655Z 26011KT 10SM FEW027 SCT050 M01/M08 A3025 560 58 -1100 250/11 RMK AO2
14837KMSN MSN20021101110010611/01/02 11:00:31  5-MIN KMSN 011700Z 29010KT 10SM FEW027 SCT050 M01/M08 A3025 560 58 -1100 290/10 RMK AO2
14837KMSN MSN20021101110509811/01/02 11:05:31  5-MIN KMSN 011705Z 28010KT 10SM FEW028 00/M08 A3025 560 56 -1000 280/10 RMK AO2
14837KMSN MSN20021101111009811/01/02 11:10:31  5-MIN KMSN 011710Z 28008KT 10SM FEW028 00/M08 A3025 570 56 -1000 280/08 RMK AO2
14837KMSN MSN20021101111510411/01/02 11:15:31  5-MIN KMSN 011715Z 29010G15KT 10SM FEW028 00/M08 A3024 570 56 -1000 290/10G15 RMK AO2
14837KMSN MSN20021101112012011/01/02 11:20:31  5-MIN KMSN 011720Z 27009G15KT 240V320 10SM FEW028 00/M08 A3024 570 56 -1000 270/09G15 240V320 RMK AO2
14837KMSN MSN20021101112509811/01/02 11:25:31  5-MIN KMSN 011725Z 27011KT 10SM FEW028 00/M08 A3024 570 56 -1000 270/11 RMK AO2
14837KMSN MSN20021101113009811/01/02 11:30:31  5-MIN KMSN 011730Z 27010KT 10SM FEW028 01/M08 A3024 570 54 -1000 270/10 RMK AO2
14837KMSN MSN20021101113509811/01/02 11:35:31  5-MIN KMSN 011735Z VRB06KT 10SM FEW028 01/M07 A3024 570 56 -1000 VRB/06 RMK AO2
14837KMSN MSN20021101114010411/01/02 11:40:31  5-MIN KMSN 011740Z 24010G15KT 10SM FEW028 01/M08 A3023 580 54 -1000 240/10G15 RMK AO2
14837KMSN MSN20021101114512011/01/02 11:45:31  5-MIN KMSN 011745Z 25007G15KT 220V300 10SM FEW028 01/M08 A3023 580 54 -1000 250/07G15 220V300 RMK AO2
14837KMSN MSN20021101115014911/01/02 11:50:31  5-MIN KMSN 011750Z 27008KT 230V300 10SM FEW028 01/M08 A3023 580 54 -1000 270/08 230V300 RMK AO2 SLP248 T00061078 10006 21056 51008
14837KMSN MSN20021101115509411/01/02 11:55:31  5-MIN KMSN 011755Z 28010KT 10SM CLR 01/M08 A3023 580 54 -900 280/10 RMK AO2
14837KMSN MSN20021101120009511/01/02 12:00:31  5-MIN KMSN 011800Z 25011KT 10SM CLR 01/M08 A3023 580 51 -1000 250/11 RMK AO2
14837KMSN MSN20021101120510011/01/02 12:05:31  5-MIN KMSN 011805Z 28010G15KT 10SM CLR 01/M08 A3022 580 51 -900 280/10G15 RMK AO2
14837KMSN MSN20021101121010011/01/02 12:10:31  5-MIN KMSN 011810Z 27009G18KT 10SM CLR 01/M08 A3022 580 51 -900 270/09G18 RMK AO2
14837KMSN MSN20021101121511611/01/02 12:15:31  5-MIN KMSN 011815Z 26007G18KT 230V300 10SM CLR 02/M08 A3022 590 49 -800 260/07G18 230V300 RMK AO2
14837KMSN MSN20021101122011611/01/02 12:20:31  5-MIN KMSN 011820Z 26010G15KT 230V310 10SM CLR 01/M08 A3022 590 51 -900 260/10G15 230V310 RMK AO2
14837KMSN MSN20021101122511611/01/02 12:25:31  5-MIN KMSN 011825Z 27010G16KT 250V310 10SM CLR 01/M08 A3022 590 49 -900 270/10G16 250V310 RMK AO2
14837KMSN MSN20021101123010011/01/02 12:30:31  5-MIN KMSN 011830Z 24011G16KT 10SM CLR 02/M08 A3022 590 49 -800 240/11G16 RMK AO2
14837KMSN MSN20021101123510011/01/02 12:35:31  5-MIN KMSN 011835Z 25011G16KT 10SM CLR 02/M08 A3021 590 47 -800 250/11G16 RMK AO2
14837KMSN MSN20021101124010011/01/02 12:40:31  5-MIN KMSN 011840Z 27010G16KT 10SM CLR 02/M08 A3021 590 47 -800 270/10G16 RMK AO2
14837KMSN MSN20021101124510011/01/02 12:45:31  5-MIN KMSN 011845Z 25012G17KT 10SM CLR 02/M09 A3021 590 45 -800 250/12G17 RMK AO2
14837KMSN MSN20021101125011711/01/02 12:50:31  5-MIN KMSN 011850Z 27011G17KT 10SM CLR 02/M08 A3021 600 47 -800 270/11G17 RMK AO2 SLP241 T00171083
14837KMSN MSN20021101125511611/01/02 12:55:31  5-MIN KMSN 011855Z 27011G17KT 220V290 10SM CLR 02/M08 A3021 600 47 -800 270/11G17 220V290 RMK AO2
14837KMSN MSN20021101130010011/01/02 13:00:31  5-MIN KMSN 011900Z 28008G17KT 10SM CLR 02/M08 A3021 600 45 -700 280/08G17 RMK AO2
14837KMSN MSN20021101130509411/01/02 13:05:31  5-MIN KMSN 011905Z 27011KT 10SM CLR 02/M08 A3020 600 45 -700 270/11 RMK AO2
14837KMSN MSN20021101131009411/01/02 13:10:31  5-MIN KMSN 011910Z 27010KT 10SM CLR 02/M08 A3020 610 45 -700 270/10 RMK AO2
14837KMSN MSN20021101131511011/01/02 13:15:31  5-MIN KMSN 011915Z 27009KT 240V300 10SM CLR 03/M08 A3020 610 44 -600 270/09 240V300 RMK AO2
14837KMSN MSN20021101132010011/01/02 13:20:31  5-MIN KMSN 011920Z 28012G16KT 10SM CLR 02/M09 A3020 610 44 -700 280/12G16 RMK AO2
14837KMSN MSN20021101132511611/01/02 13:25:31  5-MIN KMSN 011925Z 27009G16KT 240V310 10SM CLR 02/M09 A3020 610 42 -700 270/09G16 240V310 RMK AO2
14837KMSN MSN20021101133011611/01/02 13:30:31  5-MIN KMSN 011930Z 26011G16KT 230V290 10SM CLR 03/M09 A3019 610 42 -600 260/11G16 230V290 RMK AO2
14837KMSN MSN20021101133511611/01/02 13:35:31  5-MIN KMSN 011935Z 27008G17KT 230V310 10SM CLR 03/M09 A3019 620 42 -600 270/08G17 230V310 RMK AO2
14837KMSN MSN20021101134012611/01/02 13:40:31  5-MIN KMSN 011940Z AUTO 24009G17KT 210V270 10SM CLR 03/M09 A3019 610 40 -600 240/09G17 210V270 RMK AO2 TSNO
14837KMSN MSN20021101134511011/01/02 13:45:31  5-MIN KMSN 011945Z AUTO 30009G16KT 10SM CLR 03/M09 A3019 610 42 -600 290/09G16 RMK AO2 TSNO
14837KMSN MSN20021101135013311/01/02 13:50:31  5-MIN KMSN 011950Z 27009G16KT 240V300 10SM CLR 03/M09 A3019 610 40 -600 270/09G16 240V300 RMK AO2 SLP234 T00281094
14837KMSN MSN20021101135509411/01/02 13:55:31  5-MIN KMSN 011955Z 27011KT 10SM CLR 03/M09 A3019 620 40 -600 270/11 RMK AO2
14837KMSN MSN20021101140011011/01/02 14:00:31  5-MIN KMSN 012000Z 27010KT 230V310 10SM CLR 03/M09 A3018 620 40 -600 270/10 230V310 RMK AO2
14837KMSN MSN20021101140509411/01/02 14:05:31  5-MIN KMSN 012005Z 30010KT 10SM CLR 03/M09 A3019 620 40 -600 300/10 RMK AO2
14837KMSN MSN20021101141011011/01/02 14:10:31  5-MIN KMSN 012010Z 27008KT 230V300 10SM CLR 03/M09 A3019 620 40 -600 270/08 230V300 RMK AO2
14837KMSN MSN20021101141511611/01/02 14:15:31  5-MIN KMSN 012015Z 25010G15KT 210V290 10SM CLR 03/M09 A3018 620 40 -600 250/10G15 210V290 RMK AO2
14837KMSN MSN20021101142011611/01/02 14:20:31  5-MIN KMSN 012020Z 26007G15KT 230V300 10SM CLR 03/M09 A3018 620 40 -600 260/07G15 230V300 RMK AO2
14837KMSN MSN20021101142510011/01/02 14:25:31  5-MIN KMSN 012025Z 27011G14KT 10SM CLR 03/M09 A3018 620 40 -600 270/11G14 RMK AO2
14837KMSN MSN20021101143010011/01/02 14:30:31  5-MIN KMSN 012030Z 27008G15KT 10SM CLR 03/M09 A3018 630 40 -600 270/08G15 RMK AO2
14837KMSN MSN20021101143510011/01/02 14:35:31  5-MIN KMSN 012035Z 27010G15KT 10SM CLR 03/M09 A3018 630 39 -500 270/10G15 RMK AO2
14837KMSN MSN20021101144010011/01/02 14:40:31  5-MIN KMSN 012040Z 26010G14KT 10SM CLR 03/M09 A3018 630 40 -600 260/10G14 RMK AO2
14837KMSN MSN20021101144509411/01/02 14:45:31  5-MIN KMSN 012045Z 26009KT 10SM CLR 03/M10 A3018 630 38 -600 260/09 RMK AO2
14837KMSN MSN20021101145012311/01/02 14:50:31  5-MIN KMSN 012050Z 25009G16KT 10SM CLR 03/M10 A3018 630 38 -600 250/09G16 RMK AO2 SLP230 T00281100 58010
14837KMSN MSN20021101145511611/01/02 14:55:31  5-MIN KMSN 012055Z 26010G16KT 240V300 10SM CLR 03/M09 A3018 630 40 -600 260/10G16 240V300 RMK AO2
14837KMSN MSN20021101150011611/01/02 15:00:31  5-MIN KMSN 012100Z 26010G16KT 210V290 10SM CLR 03/M10 A3018 630 38 -600 260/10G16 210V290 RMK AO2
14837KMSN MSN20021101150510011/01/02 15:05:31  5-MIN KMSN 012105Z 26011G17KT 10SM CLR 03/M10 A3018 630 38 -600 260/11G17 RMK AO2
14837KMSN MSN20021101151011611/01/02 15:10:31  5-MIN KMSN 012110Z 28010G17KT 250V310 10SM CLR 03/M10 A3018 630 38 -600 280/10G17 250V310 RMK AO2
14837KMSN MSN20021101151511011/01/02 15:15:31  5-MIN KMSN 012115Z 28007KT 250V310 10SM CLR 03/M10 A3018 630 38 -600 280/07 250V310 RMK AO2
14837KMSN MSN20021101152009411/01/02 15:20:31  5-MIN KMSN 012120Z 26009KT 10SM CLR 03/M10 A3018 630 38 -600 260/09 RMK AO2
14837KMSN MSN20021101152509411/01/02 15:25:31  5-MIN KMSN 012125Z 27009KT 10SM CLR 03/M10 A3017 630 38 -600 270/09 RMK AO2
14837KMSN MSN20021101153009411/01/02 15:30:31  5-MIN KMSN 012130Z 26009KT 10SM CLR 03/M10 A3017 630 38 -600 260/09 RMK AO2
14837KMSN MSN20021101153510011/01/02 15:35:31  5-MIN KMSN 012135Z 25009G17KT 10SM CLR 03/M11 A3017 630 37 -600 250/09G17 RMK AO2
14837KMSN MSN20021101154010011/01/02 15:40:31  5-MIN KMSN 012140Z 27007G17KT 10SM CLR 03/M10 A3017 630 38 -600 270/07G17 RMK AO2
14837KMSN MSN20021101154509411/01/02 15:45:31  5-MIN KMSN 012145Z 26008KT 10SM CLR 03/M10 A3017 630 38 -600 260/08 RMK AO2
14837KMSN MSN20021101155011111/01/02 15:50:31  5-MIN KMSN 012150Z 28007KT 10SM CLR 03/M10 A3017 630 38 -600 280/07 RMK AO2 SLP228 T00281100
14837KMSN MSN20021101155510011/01/02 15:55:31  5-MIN KMSN 012155Z 27011G15KT 10SM CLR 03/M10 A3017 630 38 -600 270/11G15 RMK AO2
14837KMSN MSN20021101160010311/01/02 16:00:31  5-MIN KMSN 012200Z 26007G15KT 10SM FEW110 03/M10 A3017 630 38 -600 260/07G15 RMK AO2
14837KMSN MSN20021101160510311/01/02 16:05:31  5-MIN KMSN 012205Z 25008G14KT 10SM FEW110 03/M10 A3017 640 38 -600 250/08G14 RMK AO2
14837KMSN MSN20021101161010311/01/02 16:10:31  5-MIN KMSN 012210Z 27007G14KT 10SM SCT110 03/M10 A3017 640 38 -600 270/07G14 RMK AO2
14837KMSN MSN20021101161509711/01/02 16:15:31  5-MIN KMSN 012215Z 26006KT 10SM BKN110 03/M10 A3017 640 38 -600 260/06 RMK AO2
14837KMSN MSN20021101162009711/01/02 16:20:31  5-MIN KMSN 012220Z 27010KT 10SM BKN110 03/M10 A3017 640 38 -600 270/10 RMK AO2
14837KMSN MSN20021101162509711/01/02 16:25:31  5-MIN KMSN 012225Z 27009KT 10SM BKN110 02/M10 A3017 630 40 -700 270/09 RMK AO2
14837KMSN MSN20021101163009711/01/02 16:30:31  5-MIN KMSN 012230Z 27009KT 10SM OVC110 02/M11 A3017 630 38 -700 270/09 RMK AO2
14837KMSN MSN20021101163510311/01/02 16:35:31  5-MIN KMSN 012235Z 27011G15KT 10SM BKN100 02/M11 A3017 630 38 -700 270/11G15 RMK AO2
14837KMSN MSN20021101164010311/01/02 16:40:31  5-MIN KMSN 012240Z 27007G17KT 10SM BKN110 02/M11 A3017 630 38 -700 270/07G17 RMK AO2
14837KMSN MSN20021101164510311/01/02 16:45:31  5-MIN KMSN 012245Z 26007G17KT 10SM SCT100 02/M11 A3017 630 40 -700 260/07G17 RMK AO2
14837KMSN MSN20021101165011411/01/02 16:50:31  5-MIN KMSN 012250Z VRB05KT 10SM SCT100 02/M11 A3017 630 40 -700 VRB/05 RMK AO2 SLP227 T00171106
14837KMSN MSN20021101165511311/01/02 16:55:31  5-MIN KMSN 012255Z 27007KT 230V290 10SM SCT100 02/M10 A3017 630 42 -700 270/07 230V290 RMK AO2
14837KMSN MSN20021101170009711/01/02 17:00:31  5-MIN KMSN 012300Z 27007KT 10SM SCT100 02/M11 A3017 630 40 -700 270/07 RMK AO2
14837KMSN MSN20021101170509711/01/02 17:05:31  5-MIN KMSN 012305Z VRB05KT 10SM BKN100 02/M10 A3017 630 42 -700 VRB/05 RMK AO2
14837KMSN MSN20021101171009711/01/02 17:10:31  5-MIN KMSN 012310Z VRB05KT 10SM BKN100 02/M10 A3017 630 42 -700 VRB/05 RMK AO2
14837KMSN MSN20021101171509711/01/02 17:15:31  5-MIN KMSN 012315Z 27007KT 10SM BKN100 02/M10 A3017 630 42 -700 270/07 RMK AO2
14837KMSN MSN20021101172009711/01/02 17:20:31  5-MIN KMSN 012320Z 26007KT 10SM OVC100 02/M10 A3017 640 42 -700 260/07 RMK AO2
14837KMSN MSN20021101172509711/01/02 17:25:31  5-MIN KMSN 012325Z VRB05KT 10SM OVC100 02/M10 A3017 640 42 -700 VRB/05 RMK AO2
14837KMSN MSN20021101173009711/01/02 17:30:31  5-MIN KMSN 012330Z VRB04KT 10SM OVC100 02/M10 A3017 630 42 -700 VRB/04 RMK AO2
14837KMSN MSN20021101173509711/01/02 17:35:31  5-MIN KMSN 012335Z VRB05KT 10SM BKN100 02/M10 A3017 640 42 -700 VRB/05 RMK AO2
14837KMSN MSN20021101174009711/01/02 17:40:31  5-MIN KMSN 012340Z 26005KT 10SM BKN100 02/M10 A3017 640 42 -700 260/05 RMK AO2
14837KMSN MSN20021101174509711/01/02 17:45:31  5-MIN KMSN 012345Z VRB05KT 10SM BKN100 02/M10 A3017 640 42 -700 VRB/05 RMK AO2
14837KMSN MSN20021101175013211/01/02 17:50:31  5-MIN KMSN 012350Z VRB06KT 10SM BKN100 02/M09 A3017 640 43 -700 VRB/06 RMK AO2 SLP227 T00171094 10033 20006 56017
14837KMSN MSN20021101175509711/01/02 17:55:31  5-MIN KMSN 012355Z VRB05KT 10SM OVC095 02/M09 A3017 630 43 -700 VRB/05 RMK AO2
14837KMSN MSN20021101180011311/01/02 18:00:31  5-MIN KMSN 020000Z 27007KT 230V290 10SM OVC095 02/M09 A3017 630 43 -800 270/07 230V290 RMK AO2
14837KMSN MSN20021101180509711/01/02 18:05:31  5-MIN KMSN 020005Z 27007KT 10SM OVC095 02/M09 A3018 630 43 -800 270/07 RMK AO2
14837KMSN MSN20021101181009711/01/02 18:10:31  5-MIN KMSN 020010Z 26007KT 10SM OVC095 02/M09 A3018 630 43 -800 260/07 RMK AO2
14837KMSN MSN20021101181509711/01/02 18:15:31  5-MIN KMSN 020015Z 25005KT 10SM OVC095 02/M09 A3018 630 43 -800 250/05 RMK AO2
14837KMSN MSN20021101182009711/01/02 18:20:31  5-MIN KMSN 020020Z VRB06KT 10SM OVC095 02/M09 A3018 630 43 -800 VRB/06 RMK AO2
14837KMSN MSN20021101182509711/01/02 18:25:31  5-MIN KMSN 020025Z VRB06KT 10SM OVC095 02/M09 A3018 630 43 -800 VRB/06 RMK AO2
14837KMSN MSN20021101183009711/01/02 18:30:31  5-MIN KMSN 020030Z VRB06KT 10SM OVC095 02/M09 A3017 630 43 -700 VRB/06 RMK AO2
14837KMSN MSN20021101183511311/01/02 18:35:31  5-MIN KMSN 020035Z 25007KT 210V290 10SM OVC095 02/M09 A3017 630 43 -700 250/07 210V290 RMK AO2
14837KMSN MSN20021101184009711/01/02 18:40:31  5-MIN KMSN 020040Z VRB06KT 10SM OVC090 02/M09 A3017 630 43 -700 VRB/06 RMK AO2
14837KMSN MSN20021101184509711/01/02 18:45:31  5-MIN KMSN 020045Z VRB06KT 10SM OVC090 01/M09 A3017 630 45 -800 VRB/06 RMK AO2
14837KMSN MSN20021101185011411/01/02 18:50:31  5-MIN KMSN 020050Z VRB06KT 10SM SCT090 01/M09 A3017 630 45 -800 VRB/06 RMK AO2 SLP228 T00111094
14837KMSN MSN20021101185509711/01/02 18:55:31  5-MIN KMSN 020055Z 25006KT 10SM BKN090 01/M09 A3017 630 45 -800 250/06 RMK AO2
14837KMSN MSN20021101190009711/01/02 19:00:31  5-MIN KMSN 020100Z 25006KT 10SM SCT090 01/M09 A3017 640 47 -800 250/06 RMK AO2
14837KMSN MSN20021101190509711/01/02 19:05:31  5-MIN KMSN 020105Z 24007KT 10SM FEW090 01/M09 A3017 640 47 -800 240/07 RMK AO2
14837KMSN MSN20021101191009711/01/02 19:10:31  5-MIN KMSN 020110Z VRB05KT 10SM FEW090 01/M09 A3017 640 47 -800 VRB/05 RMK AO2
14837KMSN MSN20021101191509411/01/02 19:15:31  5-MIN KMSN 020115Z 25005KT 10SM CLR 01/M09 A3017 630 49 -900 250/05 RMK AO2
14837KMSN MSN20021101192009411/01/02 19:20:31  5-MIN KMSN 020120Z 25006KT 10SM CLR 01/M09 A3017 630 49 -900 250/06 RMK AO2
14837KMSN MSN20021101192509411/01/02 19:25:31  5-MIN KMSN 020125Z VRB05KT 10SM CLR 01/M09 A3017 640 49 -900 VRB/05 RMK AO2
14837KMSN MSN20021101193009411/01/02 19:30:31  5-MIN KMSN 020130Z 25007KT 10SM CLR 01/M09 A3017 640 49 -900 250/07 RMK AO2
14837KMSN MSN20021101193509411/01/02 19:35:31  5-MIN KMSN 020135Z VRB06KT 10SM CLR 01/M09 A3016 640 49 -900 VRB/06 RMK AO2
14837KMSN MSN20021101194009411/01/02 19:40:31  5-MIN KMSN 020140Z 26005KT 10SM CLR 01/M09 A3016 640 49 -900 260/05 RMK AO2
14837KMSN MSN20021101194509411/01/02 19:45:31  5-MIN KMSN 020145Z 24007KT 10SM CLR 01/M09 A3016 640 49 -900 240/07 RMK AO2
14837KMSN MSN20021101195011111/01/02 19:50:31  5-MIN KMSN 020150Z VRB06KT 10SM CLR 01/M09 A3016 640 49 -900 VRB/06 RMK AO2 SLP223 T00061089
14837KMSN MSN20021101195509411/01/02 19:55:31  5-MIN KMSN 020155Z 25007KT 10SM CLR 01/M09 A3016 650 49 -900 250/07 RMK AO2
14837KMSN MSN20021101200011011/01/02 20:00:31  5-MIN KMSN 020200Z 26007KT 230V290 10SM CLR 01/M09 A3016 650 49 -900 260/07 230V290 RMK AO2
14837KMSN MSN20021101200509411/01/02 20:05:31  5-MIN KMSN 020205Z 25005KT 10SM CLR 01/M09 A3015 650 49 -900 250/05 RMK AO2
14837KMSN MSN20021101201011011/01/02 20:10:31  5-MIN KMSN 020210Z 25008KT 220V280 10SM CLR 01/M09 A3015 650 49 -900 250/08 220V280 RMK AO2
14837KMSN MSN20021101201509411/01/02 20:15:31  5-MIN KMSN 020215Z 25007KT 10SM CLR 00/M09 A3015 650 51 -900 250/07 RMK AO2
14837KMSN MSN20021101202009411/01/02 20:20:31  5-MIN KMSN 020220Z 26007KT 10SM CLR 01/M09 A3015 650 49 -900 260/07 RMK AO2
14837KMSN MSN20021101202511011/01/02 20:25:31  5-MIN KMSN 020225Z 26008KT 220V290 10SM CLR 01/M09 A3015 650 49 -900 260/08 220V290 RMK AO2
14837KMSN MSN20021101203011011/01/02 20:30:31  5-MIN KMSN 020230Z 26008KT 210V290 10SM CLR 00/M09 A3015 650 51 -900 260/08 210V290 RMK AO2
14837KMSN MSN20021101203509411/01/02 20:35:31  5-MIN KMSN 020235Z 26007KT 10SM CLR 01/M09 A3015 650 49 -900 260/07 RMK AO2
14837KMSN MSN20021101204009411/01/02 20:40:31  5-MIN KMSN 020240Z VRB05KT 10SM CLR 01/M08 A3015 650 51 -900 VRB/05 RMK AO2
14837KMSN MSN20021101204511011/01/02 20:45:31  5-MIN KMSN 020245Z 25008KT 220V290 10SM CLR 01/M08 A3015 650 51 -900 250/08 220V290 RMK AO2
14837KMSN MSN20021101205012011/01/02 20:50:31  5-MIN KMSN 020250Z 26007KT 10SM FEW100 01/M08 A3015 650 51 -900 260/07 RMK AO2 SLP220 T00061083 55002
14837KMSN MSN20021101205511011/01/02 20:55:31  5-MIN KMSN 020255Z 25007KT 220V290 10SM CLR 00/M08 A3015 660 53 -900 250/07 220V290 RMK AO2
14837KMSN MSN20021101210011011/01/02 21:00:31  5-MIN KMSN 020300Z 25008KT 230V290 10SM CLR 01/M08 A3014 660 51 -900 250/08 230V290 RMK AO2
14837KMSN MSN20021101210509411/01/02 21:05:31  5-MIN KMSN 020305Z 26007KT 10SM CLR 01/M08 A3014 660 51 -900 260/07 RMK AO2
14837KMSN MSN20021101211009411/01/02 21:10:31  5-MIN KMSN 020310Z 26008KT 10SM CLR 01/M08 A3014 660 51 -900 260/08 RMK AO2
14837KMSN MSN20021101211509711/01/02 21:15:31  5-MIN KMSN 020315Z 26009KT 10SM FEW100 00/M08 A3014 660 53 -900 260/09 RMK AO2
14837KMSN MSN20021101212009711/01/02 21:20:31  5-MIN KMSN 020320Z 26008KT 10SM FEW100 00/M09 A3014 660 51 -900 260/08 RMK AO2
14837KMSN MSN20021101212511311/01/02 21:25:31  5-MIN KMSN 020325Z 25007KT 220V300 10SM FEW100 00/M09 A3014 660 51 -900 250/07 220V300 RMK AO2
14837KMSN MSN20021101213010311/01/02 21:30:31  5-MIN KMSN 020330Z VRB06G14KT 10SM FEW100 00/M09 A3013 670 51 -900 VRB/06G14 RMK AO2
14837KMSN MSN20021101213510311/01/02 21:35:31  5-MIN KMSN 020335Z 25007G14KT 10SM FEW100 00/M09 A3013 670 51 -900 250/07G14 RMK AO2
14837KMSN MSN20021101214009711/01/02 21:40:31  5-MIN KMSN 020340Z 26009KT 10SM FEW100 00/M09 A3013 670 51 -900 260/09 RMK AO2
14837KMSN MSN20021101214511311/01/02 21:45:31  5-MIN KMSN 020345Z 25008KT 220V290 10SM FEW100 00/M09 A3013 670 51 -900 250/08 220V290 RMK AO2
14837KMSN MSN20021101215011411/01/02 21:50:31  5-MIN KMSN 020350Z 26009KT 10SM FEW110 00/M09 A3013 670 51 -900 260/09 RMK AO2 SLP214 T00001089
14837KMSN MSN20021101215510311/01/02 21:55:31  5-MIN KMSN 020355Z VRB06G14KT 10SM FEW110 00/M09 A3013 670 51 -900 VRB/06G14 RMK AO2
14837KMSN MSN20021101220009711/01/02 22:00:31  5-MIN KMSN 020400Z VRB06KT 10SM SCT110 00/M09 A3012 680 51 -900 VRB/06 RMK AO2
14837KMSN MSN20021101220511311/01/02 22:05:31  5-MIN KMSN 020405Z 26007KT 230V290 10SM SCT110 00/M09 A3013 670 51 -900 260/07 230V290 RMK AO2
14837KMSN MSN20021101221009711/01/02 22:10:31  5-MIN KMSN 020410Z 27007KT 10SM SCT110 00/M09 A3013 680 51 -900 270/07 RMK AO2
14837KMSN MSN20021101221509711/01/02 22:15:31  5-MIN KMSN 020415Z 27007KT 10SM FEW110 00/M09 A3012 680 49 -900 270/07 RMK AO2
14837KMSN MSN20021101222009911/01/02 22:20:31  5-MIN KMSN 020420Z 26008KT 10SM FEW110 M01/M09 A3012 680 51 -1000 260/08 RMK AO2
14837KMSN MSN20021101222509911/01/02 22:25:31  5-MIN KMSN 020425Z 26008KT 10SM FEW110 M01/M09 A3012 680 51 -1000 260/08 RMK AO2
14837KMSN MSN20021101223011211/01/02 22:30:31  5-MIN KMSN 020430Z 27007KT 240V300 10SM CLR M01/M09 A3012 680 51 -1000 260/07 240V300 RMK AO2
14837KMSN MSN20021101223511211/01/02 22:35:31  5-MIN KMSN 020435Z 27009KT 240V300 10SM CLR M01/M09 A3012 680 51 -1000 270/09 240V300 RMK AO2
14837KMSN MSN20021101224009611/01/02 22:40:31  5-MIN KMSN 020440Z 27007KT 10SM CLR M01/M09 A3012 680 51 -1000 270/07 RMK AO2
14837KMSN MSN20021101224511811/01/02 22:45:31  5-MIN KMSN 020445Z 27007G15KT 230V290 10SM CLR M01/M09 A3011 690 51 -1000 270/07G15 230V290 RMK AO2
14837KMSN MSN20021101225012211/01/02 22:50:31  5-MIN KMSN 020450Z 27008G15KT 10SM FEW110 M01/M09 A3011 690 51 -1000 270/08G15 RMK AO2 SLP207 T10061094
14837KMSN MSN20021101225509611/01/02 22:55:31  5-MIN KMSN 020455Z 27008KT 10SM CLR M01/M09 A3011 690 51 -1000 270/08 RMK AO2
14837KMSN MSN20021101230009611/01/02 23:00:31  5-MIN KMSN 020500Z 27007KT 10SM CLR M01/M09 A3011 690 53 -1000 270/07 RMK AO2
14837KMSN MSN20021101230509611/01/02 23:05:31  5-MIN KMSN 020505Z 27007KT 10SM CLR M01/M09 A3011 690 53 -1000 260/07 RMK AO2
14837KMSN MSN20021101231009611/01/02 23:10:31  5-MIN KMSN 020510Z 27009KT 10SM CLR M01/M09 A3011 690 53 -1000 260/09 RMK AO2
14837KMSN MSN20021101231511811/01/02 23:15:31  5-MIN KMSN 020515Z 26007G14KT 230V290 10SM CLR M01/M09 A3011 690 53 -1000 260/07G14 230V290 RMK AO2
14837KMSN MSN20021101232010211/01/02 23:20:31  5-MIN KMSN 020520Z 26007G14KT 10SM CLR M01/M09 A3011 690 53 -1000 260/07G14 RMK AO2
14837KMSN MSN20021101232509611/01/02 23:25:31  5-MIN KMSN 020525Z 26009KT 10SM CLR M01/M09 A3011 690 53 -1000 260/09 RMK AO2
14837KMSN MSN20021101233011211/01/02 23:30:31  5-MIN KMSN 020530Z 25008KT 230V290 10SM CLR M01/M09 A3011 690 53 -1000 250/08 230V290 RMK AO2
14837KMSN MSN20021101233509611/01/02 23:35:31  5-MIN KMSN 020535Z 26007KT 10SM CLR M01/M08 A3011 690 56 -1000 260/07 RMK AO2
14837KMSN MSN20021101234009611/01/02 23:40:31  5-MIN KMSN 020540Z 26006KT 10SM CLR M01/M08 A3011 690 56 -1000 260/06 RMK AO2
14837KMSN MSN20021101234509611/01/02 23:45:31  5-MIN KMSN 020545Z 25006KT 10SM CLR M01/M08 A3011 690 56 -1000 250/06 RMK AO2
14837KMSN MSN20021101235015611/01/02 23:50:31  5-MIN KMSN 020550Z 25007KT 210V280 10SM CLR M01/M08 A3010 690 56 -900 250/07 210V280 RMK AO2 SLP204 T10061083 10017 21006 400331056 58008
14837KMSN MSN20021101235511211/01/02 23:55:31  5-MIN KMSN 020555Z 26007KT 210V280 10SM CLR M01/M08 A3011 690 56 -1000 260/07 210V280 RMK AO2
14837KMSN MSN20021102000009511/02/02 00:00:31  5-MIN KMSN 020600Z 26007KT 10SM CLR M01/M08 A3010 700 56 -900 260/07 RMK AO2
14837KMSN MSN20021102000509511/02/02 00:05:31  5-MIN KMSN 020605Z 26006KT 10SM CLR M01/M08 A3010 700 56 -900 260/06 RMK AO2
14837KMSN MSN20021102001009511/02/02 00:10:31  5-MIN KMSN 020610Z 25008KT 10SM CLR M01/M08 A3010 700 56 -900 250/08 RMK AO2
14837KMSN MSN20021102001510111/02/02 00:15:31  5-MIN KMSN 020615Z 25009G15KT 10SM CLR M01/M08 A3010 700 56 -900 250/09G15 RMK AO2
14837KMSN MSN20021102002011711/02/02 00:20:31  5-MIN KMSN 020620Z 25009G14KT 220V280 10SM CLR M01/M08 A3010 700 58 -900 250/09G14 220V280 RMK AO2
14837KMSN MSN20021102002511711/02/02 00:25:31  5-MIN KMSN 020625Z 24007G14KT 210V280 10SM CLR M01/M08 A3010 700 58 -900 240/07G14 210V280 RMK AO2
14837KMSN MSN20021102003009511/02/02 00:30:31  5-MIN KMSN 020630Z VRB06KT 10SM CLR M01/M08 A3009 700 58 -900 VRB/06 RMK AO2
14837KMSN MSN20021102003511811/02/02 00:35:31  5-MIN KMSN 020635Z 25010G16KT 200V290 10SM CLR M01/M08 A3009 700 60 -1000 250/10G16 200V290 RMK AO2
14837KMSN MSN20021102004010211/02/02 00:40:31  5-MIN KMSN 020640Z 25005G16KT 10SM CLR M01/M08 A3009 700 60 -1000 250/05G16 RMK AO2
14837KMSN MSN20021102004509611/02/02 00:45:31  5-MIN KMSN 020645Z VRB06KT 10SM CLR M01/M08 A3009 710 60 -1000 VRB/06 RMK AO2
14837KMSN MSN20021102005011311/02/02 00:50:31  5-MIN KMSN 020650Z VRB06KT 10SM CLR M01/M08 A3009 710 60 -1000 VRB/06 RMK AO2 SLP200 T10111078
14837KMSN MSN20021102005509611/02/02 00:55:31  5-MIN KMSN 020655Z 24007KT 10SM CLR M01/M08 A3009 710 60 -1000 240/07 RMK AO2
14837KMSN MSN20021102010009611/02/02 01:00:31  5-MIN KMSN 020700Z VRB06KT 10SM CLR M01/M08 A3009 710 60 -1000 VRB/06 RMK AO2
14837KMSN MSN20021102010509611/02/02 01:05:31  5-MIN KMSN 020705Z 26006KT 10SM CLR M01/M08 A3009 710 60 -1000 260/06 RMK AO2
14837KMSN MSN20021102011009611/02/02 01:10:31  5-MIN KMSN 020710Z 26006KT 10SM CLR M01/M08 A3009 710 60 -1000 260/06 RMK AO2
14837KMSN MSN20021102011509611/02/02 01:15:31  5-MIN KMSN 020715Z 25006KT 10SM CLR M01/M08 A3008 710 60 -1000 250/06 RMK AO2
14837KMSN MSN20021102012011211/02/02 01:20:31  5-MIN KMSN 020720Z 25008KT 210V280 10SM CLR M01/M07 A3008 720 63 -1000 250/08 210V280 RMK AO2
14837KMSN MSN20021102012509611/02/02 01:25:31  5-MIN KMSN 020725Z VRB06KT 10SM CLR M01/M07 A3008 720 63 -1000 VRB/06 RMK AO2
14837KMSN MSN20021102013011211/02/02 01:30:31  5-MIN KMSN 020730Z 25008KT 220V300 10SM CLR M01/M07 A3008 720 63 -1000 250/08 220V300 RMK AO2
14837KMSN MSN20021102013511211/02/02 01:35:31  5-MIN KMSN 020735Z 25007KT 220V280 10SM CLR M02/M07 A3008 720 66 -1100 240/07 220V280 RMK AO2
14837KMSN MSN20021102014009611/02/02 01:40:31  5-MIN KMSN 020740Z VRB06KT 10SM CLR M01/M07 A3008 720 63 -1000 VRB/06 RMK AO2
14837KMSN MSN20021102014511211/02/02 01:45:31  5-MIN KMSN 020745Z 26008KT 210V280 10SM CLR M01/M07 A3008 720 63 -1000 260/08 210V280 RMK AO2
14837KMSN MSN20021102015012911/02/02 01:50:31  5-MIN KMSN 020750Z 26007KT 230V310 10SM CLR M01/M07 A3007 720 63 -1000 260/07 230V310 RMK AO2 SLP192 T10111072
14837KMSN MSN20021102015511211/02/02 01:55:31  5-MIN KMSN 020755Z 26008KT 230V300 10SM CLR M02/M07 A3007 720 66 -1100 260/08 230V300 RMK AO2
14837KMSN MSN20021102020011211/02/02 02:00:31  5-MIN KMSN 020800Z 27007KT 250V310 10SM CLR M02/M07 A3007 730 69 -1100 270/07 250V310 RMK AO2
14837KMSN MSN20021102020511811/02/02 02:05:31  5-MIN KMSN 020805Z 27007G14KT 230V310 10SM CLR M01/M07 A3007 730 66 -1000 270/07G14 230V310 RMK AO2
14837KMSN MSN20021102021010211/02/02 02:10:31  5-MIN KMSN 020810Z 27009G14KT 10SM CLR M01/M07 A3007 730 66 -1000 270/09G14 RMK AO2
14837KMSN MSN20021102021509611/02/02 02:15:31  5-MIN KMSN 020815Z 27006KT 10SM CLR M02/M07 A3007 730 69 -1000 270/06 RMK AO2
14837KMSN MSN20021102022011211/02/02 02:20:31  5-MIN KMSN 020820Z 27007KT 230V310 10SM CLR M01/M07 A3007 720 66 -1000 270/07 230V310 RMK AO2
14837KMSN MSN20021102022511211/02/02 02:25:31  5-MIN KMSN 020825Z 26007KT 200V290 10SM CLR M02/M07 A3007 720 69 -1100 260/07 200V290 RMK AO2
14837KMSN MSN20021102023011211/02/02 02:30:31  5-MIN KMSN 020830Z 26007KT 200V300 10SM CLR M02/M07 A3007 730 69 -1100 260/07 200V300 RMK AO2
14837KMSN MSN20021102023509611/02/02 02:35:31  5-MIN KMSN 020835Z 28006KT 10SM CLR M02/M07 A3007 730 69 -1000 280/06 RMK AO2
14837KMSN MSN20021102024011211/02/02 02:40:31  5-MIN KMSN 020840Z 26008KT 200V290 10SM CLR M02/M07 A3007 730 69 -1000 260/08 200V290 RMK AO2
14837KMSN MSN20021102024511811/02/02 02:45:31  5-MIN KMSN 020845Z 27007G15KT 220V310 10SM CLR M01/M07 A3007 730 66 -1000 270/07G15 220V310 RMK AO2
14837KMSN MSN20021102025014111/02/02 02:50:31  5-MIN KMSN 020850Z 27008G15KT 230V300 10SM CLR M02/M07 A3007 730 69 -1100 270/08G15 230V300 RMK AO2 SLP192 T10171067 56014
14837KMSN MSN20021102025509611/02/02 02:55:31  5-MIN KMSN 020855Z 27007KT 10SM CLR M02/M07 A3007 720 69 -1100 270/07 RMK AO2
14837KMSN MSN20021102030009611/02/02 03:00:31  5-MIN KMSN 020900Z VRB06KT 10SM CLR M02/M07 A3007 720 69 -1100 VRB/06 RMK AO2
14837KMSN MSN20021102030509611/02/02 03:05:31  5-MIN KMSN 020905Z 27007KT 10SM CLR M02/M07 A3007 720 69 -1100 270/07 RMK AO2
14837KMSN MSN20021102031009611/02/02 03:10:31  5-MIN KMSN 020910Z 28007KT 10SM CLR M02/M07 A3007 720 69 -1100 280/07 RMK AO2
14837KMSN MSN20021102031509611/02/02 03:15:31  5-MIN KMSN 020915Z 27007KT 10SM CLR M02/M07 A3007 720 69 -1100 270/07 RMK AO2
14837KMSN MSN20021102032009611/02/02 03:20:31  5-MIN KMSN 020920Z 26009KT 10SM CLR M02/M07 A3007 720 69 -1100 260/09 RMK AO2
14837KMSN MSN20021102032509611/02/02 03:25:31  5-MIN KMSN 020925Z VRB05KT 10SM CLR M02/M07 A3007 720 69 -1100 VRB/05 RMK AO2
14837KMSN MSN20021102033009611/02/02 03:30:31  5-MIN KMSN 020930Z 28007KT 10SM CLR M02/M07 A3007 730 69 -1000 280/07 RMK AO2
14837KMSN MSN20021102033509611/02/02 03:35:31  5-MIN KMSN 020935Z 26008KT 10SM CLR M02/M07 A3007 730 69 -1000 260/08 RMK AO2
14837KMSN MSN20021102034009611/02/02 03:40:31  5-MIN KMSN 020940Z 26007KT 10SM CLR M02/M07 A3007 730 69 -1000 260/07 RMK AO2
14837KMSN MSN20021102034509611/02/02 03:45:31  5-MIN KMSN 020945Z 26008KT 10SM CLR M02/M07 A3007 730 69 -1000 260/08 RMK AO2
14837KMSN MSN20021102035011311/02/02 03:50:31  5-MIN KMSN 020950Z 26009KT 10SM CLR M02/M07 A3006 730 69 -1000 260/09 RMK AO2 SLP190 T10171067
14837KMSN MSN20021102035509611/02/02 03:55:31  5-MIN KMSN 020955Z 26010KT 10SM CLR M02/M07 A3006 730 69 -1000 260/10 RMK AO2
14837KMSN MSN20021102040009611/02/02 04:00:31  5-MIN KMSN 021000Z 27009KT 10SM CLR M02/M07 A3007 730 69 -1000 270/09 RMK AO2
14837KMSN MSN20021102040509611/02/02 04:05:31  5-MIN KMSN 021005Z 26008KT 10SM CLR M02/M07 A3007 730 69 -1000 260/08 RMK AO2
14837KMSN MSN20021102041010211/02/02 04:10:31  5-MIN KMSN 021010Z 26009G14KT 10SM CLR M02/M07 A3007 730 69 -1000 260/09G14 RMK AO2
14837KMSN MSN20021102041511811/02/02 04:15:31  5-MIN KMSN 021015Z 26008G15KT 220V280 10SM CLR M02/M07 A3007 730 69 -1000 260/08G15 220V280 RMK AO2
14837KMSN MSN20021102042011811/02/02 04:20:31  5-MIN KMSN 021020Z 26008G15KT 230V290 10SM CLR M02/M07 A3006 730 69 -1000 260/08G15 230V290 RMK AO2
14837KMSN MSN20021102042511211/02/02 04:25:31  5-MIN KMSN 021025Z 27008KT 230V300 10SM CLR M02/M07 A3007 730 69 -1000 270/08 230V300 RMK AO2
14837KMSN MSN20021102043011211/02/02 04:30:31  5-MIN KMSN 021030Z 27007KT 240V310 10SM CLR M02/M07 A3007 730 69 -1000 270/07 240V310 RMK AO2
14837KMSN MSN20021102043509611/02/02 04:35:31  5-MIN KMSN 021035Z 28007KT 10SM CLR M02/M07 A3007 730 69 -1100 280/07 RMK AO2
14837KMSN MSN20021102044009611/02/02 04:40:31  5-MIN KMSN 021040Z VRB06KT 10SM CLR M02/M07 A3007 730 69 -1000 VRB/06 RMK AO2
14837KMSN MSN20021102044511211/02/02 04:45:31  5-MIN KMSN 021045Z 27007KT 240V300 10SM CLR M02/M07 A3007 730 69 -1000 270/07 240V300 RMK AO2
14837KMSN MSN20021102045011311/02/02 04:50:31  5-MIN KMSN 021050Z 26008KT 10SM CLR M02/M07 A3007 730 72 -1100 260/08 RMK AO2 SLP191 T10221067
14837KMSN MSN20021102045509611/02/02 04:55:31  5-MIN KMSN 021055Z 26009KT 10SM CLR M02/M07 A3007 730 72 -1100 260/09 RMK AO2
14837KMSN MSN20021102050009611/02/02 05:00:31  5-MIN KMSN 021100Z 26007KT 10SM CLR M02/M07 A3007 730 72 -1100 260/07 RMK AO2
14837KMSN MSN20021102050509611/02/02 05:05:31  5-MIN KMSN 021105Z VRB06KT 10SM CLR M02/M07 A3007 730 72 -1100 VRB/06 RMK AO2
14837KMSN MSN20021102051009611/02/02 05:10:31  5-MIN KMSN 021110Z 27007KT 10SM CLR M02/M07 A3007 730 72 -1100 270/07 RMK AO2
14837KMSN MSN20021102051509611/02/02 05:15:31  5-MIN KMSN 021115Z 27007KT 10SM CLR M02/M07 A3007 730 72 -1100 270/07 RMK AO2
14837KMSN MSN20021102052009611/02/02 05:20:31  5-MIN KMSN 021120Z 27006KT 10SM CLR M02/M07 A3007 730 72 -1100 270/06 RMK AO2
14837KMSN MSN20021102052509611/02/02 05:25:31  5-MIN KMSN 021125Z 28007KT 10SM CLR M02/M07 A3007 730 72 -1100 280/07 RMK AO2
14837KMSN MSN20021102053009611/02/02 05:30:31  5-MIN KMSN 021130Z 28006KT 10SM CLR M02/M07 A3007 730 72 -1100 280/06 RMK AO2
14837KMSN MSN20021102053509611/02/02 05:35:31  5-MIN KMSN 021135Z 28007KT 10SM CLR M02/M07 A3007 730 72 -1100 280/07 RMK AO2
14837KMSN MSN20021102054009611/02/02 05:40:31  5-MIN KMSN 021140Z VRB05KT 10SM CLR M02/M07 A3007 730 72 -1100 VRB/05 RMK AO2
14837KMSN MSN20021102054509611/02/02 05:45:31  5-MIN KMSN 021145Z 28006KT 10SM CLR M02/M07 A3007 730 72 -1100 280/06 RMK AO2
14837KMSN MSN20021102055013111/02/02 05:50:31  5-MIN KMSN 021150Z VRB06KT 10SM CLR M03/M07 A3007 730 75 -1200 VRB/06 RMK AO2 SLP192 T10281067 11006 21028 56012
14837KMSN MSN20021102055509611/02/02 05:55:31  5-MIN KMSN 021155Z 28005KT 10SM CLR M03/M07 A3007 730 75 -1200 280/05 RMK AO2
14837KMSN MSN20021102060009611/02/02 06:00:31  5-MIN KMSN 021200Z 29005KT 10SM CLR M03/M07 A3007 730 75 -1200 290/05 RMK AO2
14837KMSN MSN20021102060509611/02/02 06:05:31  5-MIN KMSN 021205Z 28005KT 10SM CLR M03/M07 A3007 730 75 -1200 280/05 RMK AO2
14837KMSN MSN20021102061009611/02/02 06:10:31  5-MIN KMSN 021210Z 28005KT 10SM CLR M03/M07 A3007 730 75 -1200 280/05 RMK AO2
14837KMSN MSN20021102061509611/02/02 06:15:31  5-MIN KMSN 021215Z VRB06KT 10SM CLR M03/M07 A3007 730 75 -1200 VRB/06 RMK AO2
14837KMSN MSN20021102062009611/02/02 06:20:31  5-MIN KMSN 021220Z VRB05KT 10SM CLR M03/M07 A3007 730 75 -1200 VRB/05 RMK AO2
14837KMSN MSN20021102062509611/02/02 06:25:31  5-MIN KMSN 021225Z VRB04KT 10SM CLR M03/M07 A3007 730 75 -1200 VRB/04 RMK AO2
14837KMSN MSN20021102063009611/02/02 06:30:31  5-MIN KMSN 021230Z 29006KT 10SM CLR M03/M07 A3007 720 75 -1200 290/06 RMK AO2
14837KMSN MSN20021102063509611/02/02 06:35:31  5-MIN KMSN 021235Z 29005KT 10SM CLR M03/M07 A3007 730 75 -1200 290/05 RMK AO2
14837KMSN MSN20021102064009611/02/02 06:40:31  5-MIN KMSN 021240Z VRB05KT 10SM CLR M03/M07 A3007 730 75 -1200 VRB/05 RMK AO2
14837KMSN MSN20021102064509611/02/02 06:45:31  5-MIN KMSN 021245Z 28004KT 10SM CLR M03/M07 A3007 720 75 -1200 280/04 RMK AO2
14837KMSN MSN20021102065011311/02/02 06:50:31  5-MIN KMSN 021250Z 29005KT 10SM CLR M03/M07 A3007 720 75 -1200 290/05 RMK AO2 SLP194 T10281067
14837KMSN MSN20021102065509611/02/02 06:55:31  5-MIN KMSN 021255Z 29004KT 10SM CLR M03/M07 A3007 720 75 -1200 290/04 RMK AO2
14837KMSN MSN20021102070009611/02/02 07:00:31  5-MIN KMSN 021300Z 28004KT 10SM CLR M03/M07 A3007 720 75 -1200 280/04 RMK AO2
14837KMSN MSN20021102070509611/02/02 07:05:31  5-MIN KMSN 021305Z 28004KT 10SM CLR M03/M07 A3008 720 75 -1200 280/04 RMK AO2
14837KMSN MSN20021102071009611/02/02 07:10:31  5-MIN KMSN 021310Z VRB05KT 10SM CLR M03/M07 A3007 720 75 -1200 VRB/05 RMK AO2
14837KMSN MSN20021102071509611/02/02 07:15:31  5-MIN KMSN 021315Z 27006KT 10SM CLR M03/M07 A3008 720 75 -1200 270/06 RMK AO2
14837KMSN MSN20021102072009611/02/02 07:20:31  5-MIN KMSN 021320Z 26006KT 10SM CLR M03/M07 A3008 720 75 -1200 260/06 RMK AO2
14837KMSN MSN20021102072509611/02/02 07:25:31  5-MIN KMSN 021325Z 28007KT 10SM CLR M02/M07 A3008 720 72 -1100 280/07 RMK AO2
14837KMSN MSN20021102073009611/02/02 07:30:31  5-MIN KMSN 021330Z VRB06KT 10SM CLR M02/M06 A3008 720 75 -1100 VRB/06 RMK AO2
14837KMSN MSN20021102073509611/02/02 07:35:31  5-MIN KMSN 021335Z 27006KT 10SM CLR M02/M06 A3008 720 75 -1100 260/06 RMK AO2
14837KMSN MSN20021102074009611/02/02 07:40:31  5-MIN KMSN 021340Z 27006KT 10SM CLR M02/M06 A3008 710 75 -1100 270/06 RMK AO2
14837KMSN MSN20021102074509611/02/02 07:45:31  5-MIN KMSN 021345Z 27008KT 10SM CLR M02/M06 A3008 710 75 -1100 270/08 RMK AO2
14837KMSN MSN20021102075011311/02/02 07:50:31  5-MIN KMSN 021350Z 27008KT 10SM CLR M02/M06 A3009 710 72 -1100 270/08 RMK AO2 SLP198 T10171061
14837KMSN MSN20021102075509611/02/02 07:55:31  5-MIN KMSN 021355Z 27008KT 10SM CLR M02/M06 A3009 710 72 -1100 270/08 RMK AO2
14837KMSN MSN20021102080009611/02/02 08:00:31  5-MIN KMSN 021400Z 27008KT 10SM CLR M02/M06 A3009 710 72 -1100 260/08 RMK AO2
14837KMSN MSN20021102080509611/02/02 08:05:31  5-MIN KMSN 021405Z 27007KT 10SM CLR M01/M06 A3009 700 69 -1000 260/07 RMK AO2
14837KMSN MSN20021102081009611/02/02 08:10:31  5-MIN KMSN 021410Z 27008KT 10SM CLR M01/M06 A3010 700 69 -1000 270/08 RMK AO2
14837KMSN MSN20021102081509611/02/02 08:15:31  5-MIN KMSN 021415Z 27009KT 10SM CLR M01/M06 A3010 700 69 -1000 270/09 RMK AO2
14837KMSN MSN20021102082010211/02/02 08:20:31  5-MIN KMSN 021420Z 26009G14KT 10SM CLR M01/M06 A3010 700 69 -1000 260/09G14 RMK AO2
14837KMSN MSN20021102082510111/02/02 08:25:31  5-MIN KMSN 021425Z 27009G14KT 10SM CLR M01/M06 A3010 700 66 -900 270/09G14 RMK AO2
14837KMSN MSN20021102083009511/02/02 08:30:31  5-MIN KMSN 021430Z 28011KT 10SM CLR M01/M06 A3010 700 66 -900 270/11 RMK AO2
14837KMSN MSN20021102083510111/02/02 08:35:31  5-MIN KMSN 021435Z 28011G17KT 10SM CLR M01/M06 A3009 700 66 -900 280/11G17 RMK AO2
14837KMSN MSN20021102084010111/02/02 08:40:31  5-MIN KMSN 021440Z 28011G17KT 10SM CLR M01/M06 A3010 700 66 -900 280/11G17 RMK AO2
14837KMSN MSN20021102084509511/02/02 08:45:31  5-MIN KMSN 021445Z 29008KT 10SM CLR M01/M06 A3010 700 66 -900 280/08 RMK AO2
14837KMSN MSN20021102085011711/02/02 08:50:31  5-MIN KMSN 021450Z 29009KT 10SM CLR 00/M06 A3010 700 63 -900 290/09 RMK AO2 SLP202 T00001061 56002
14837KMSN MSN20021102085510011/02/02 08:55:31  5-MIN KMSN 021455Z 28011G14KT 10SM CLR 00/M06 A3010 700 63 -900 280/11G14 RMK AO2
14837KMSN MSN20021102090011011/02/02 09:00:31  5-MIN KMSN 021500Z 28007KT 250V310 10SM CLR 00/M06 A3010 700 63 -900 280/07 250V310 RMK AO2
14837KMSN MSN20021102090509411/02/02 09:05:31  5-MIN KMSN 021505Z 28008KT 10SM CLR 01/M06 A3010 700 63 -800 280/08 RMK AO2
14837KMSN MSN20021102091010011/02/02 09:10:31  5-MIN KMSN 021510Z 28011G14KT 10SM CLR 01/M06 A3010 700 63 -800 280/11G14 RMK AO2
14837KMSN MSN20021102091510011/02/02 09:15:31  5-MIN KMSN 021515Z 27008G14KT 10SM CLR 01/M06 A3010 700 61 -800 270/08G14 RMK AO2
14837KMSN MSN20021102092010011/02/02 09:20:31  5-MIN KMSN 021520Z 27007G15KT 10SM CLR 01/M06 A3010 700 63 -800 270/07G15 RMK AO2
14837KMSN MSN20021102092509411/02/02 09:25:31  5-MIN KMSN 021525Z 27011KT 10SM CLR 01/M06 A3010 700 61 -800 270/11 RMK AO2
14837KMSN MSN20021102093009411/02/02 09:30:31  5-MIN KMSN 021530Z 29010KT 10SM CLR 01/M06 A3010 700 61 -800 280/10 RMK AO2
14837KMSN MSN20021102093510011/02/02 09:35:31  5-MIN KMSN 021535Z 26010G14KT 10SM CLR 01/M06 A3010 700 61 -800 260/10G14 RMK AO2
14837KMSN MSN20021102094010011/02/02 09:40:31  5-MIN KMSN 021540Z 28009G14KT 10SM CLR 01/M06 A3010 700 61 -700 280/09G14 RMK AO2
14837KMSN MSN20021102094509411/02/02 09:45:31  5-MIN KMSN 021545Z 28009KT 10SM CLR 01/M06 A3010 700 61 -700 280/09 RMK AO2
14837KMSN MSN20021102095011111/02/02 09:50:31  5-MIN KMSN 021550Z 27010KT 10SM CLR 01/M06 A3010 700 61 -700 270/10 RMK AO2 SLP203 T00111056
14837KMSN MSN20021102095509411/02/02 09:55:31  5-MIN KMSN 021555Z 28009KT 10SM CLR 01/M06 A3010 700 61 -700 280/09 RMK AO2
14837KMSN MSN20021102100009411/02/02 10:00:31  5-MIN KMSN 021600Z 28007KT 10SM CLR 02/M06 A3010 700 59 -700 270/07 RMK AO2
14837KMSN MSN20021102100509411/02/02 10:05:31  5-MIN KMSN 021605Z 29008KT 10SM CLR 02/M06 A3010 700 59 -700 290/08 RMK AO2
14837KMSN MSN20021102101009411/02/02 10:10:31  5-MIN KMSN 021610Z 27008KT 10SM CLR 02/M06 A3010 700 59 -700 270/08 RMK AO2
14837KMSN MSN20021102101509411/02/02 10:15:31  5-MIN KMSN 021615Z 27009KT 10SM CLR 02/M06 A3010 700 59 -700 270/09 RMK AO2
14837KMSN MSN20021102102011011/02/02 10:20:31  5-MIN KMSN 021620Z 27008KT 220V330 10SM CLR 02/M06 A3010 700 56 -600 270/08 220V330 RMK AO2
14837KMSN MSN20021102102509411/02/02 10:25:31  5-MIN KMSN 021625Z 30010KT 10SM CLR 02/M06 A3010 700 56 -600 300/10 RMK AO2
14837KMSN MSN20021102103009411/02/02 10:30:31  5-MIN KMSN 021630Z 28010KT 10SM CLR 02/M06 A3010 700 56 -600 270/10 RMK AO2
14837KMSN MSN20021102103509411/02/02 10:35:31  5-MIN KMSN 021635Z 26006KT 10SM CLR 02/M05 A3010 700 59 -600 260/06 RMK AO2
14837KMSN MSN20021102104009411/02/02 10:40:31  5-MIN KMSN 021640Z 27008KT 10SM CLR 02/M06 A3010 700 56 -600 270/08 RMK AO2
14837KMSN MSN20021102104509411/02/02 10:45:31  5-MIN KMSN 021645Z VRB06KT 10SM CLR 03/M06 A3009 700 54 -500 VRB/06 RMK AO2
14837KMSN MSN20021102105011111/02/02 10:50:31  5-MIN KMSN 021650Z 29005KT 10SM CLR 03/M05 A3009 710 56 -500 290/05 RMK AO2 SLP199 T00281050
14837KMSN MSN20021102105509411/02/02 10:55:31  5-MIN KMSN 021655Z 26007KT 10SM CLR 02/M06 A3009 710 56 -600 260/07 RMK AO2
14837KMSN MSN20021102110009411/02/02 11:00:31  5-MIN KMSN 021700Z 28008KT 10SM CLR 03/M05 A3009 710 56 -500 280/08 RMK AO2
14837KMSN MSN20021102110509411/02/02 11:05:31  5-MIN KMSN 021705Z 31008KT 10SM CLR 03/M05 A3009 710 56 -500 310/08 RMK AO2
14837KMSN MSN20021102111009411/02/02 11:10:31  5-MIN KMSN 021710Z 27007KT 10SM CLR 03/M05 A3009 710 54 -400 270/07 RMK AO2
14837KMSN MSN20021102111509411/02/02 11:15:31  5-MIN KMSN 021715Z 26009KT 10SM CLR 03/M05 A3008 710 54 -400 260/09 RMK AO2
14837KMSN MSN20021102112009411/02/02 11:20:31  5-MIN KMSN 021720Z 26005KT 10SM CLR 03/M05 A3008 720 54 -400 260/05 RMK AO2
14837KMSN MSN20021102112509411/02/02 11:25:31  5-MIN KMSN 021725Z 26007KT 10SM CLR 04/M05 A3008 720 52 -400 260/07 RMK AO2
14837KMSN MSN20021102113009411/02/02 11:30:31  5-MIN KMSN 021730Z 26007KT 10SM CLR 03/M05 A3008 720 54 -400 260/07 RMK AO2
14837KMSN MSN20021102113509411/02/02 11:35:31  5-MIN KMSN 021735Z 27005KT 10SM CLR 03/M05 A3008 720 54 -400 270/05 RMK AO2
14837KMSN MSN20021102114009411/02/02 11:40:31  5-MIN KMSN 021740Z VRB06KT 10SM CLR 04/M04 A3007 720 52 -300 VRB/06 RMK AO2
14837KMSN MSN20021102114509411/02/02 11:45:31  5-MIN KMSN 021745Z 26007KT 10SM CLR 04/M05 A3007 720 50 -300 260/07 RMK AO2
14837KMSN MSN20021102115012911/02/02 11:50:31  5-MIN KMSN 021750Z 28007KT 10SM CLR 04/M06 A3007 720 48 -300 280/07 RMK AO2 SLP192 T00441056 10044 21028 53011
14837KMSN MSN20021102115511011/02/02 11:55:31  5-MIN KMSN 021755Z 30009KT 260V340 10SM CLR 04/M05 A3007 730 50 -300 300/09 260V340 RMK AO2
14837KMSN MSN20021102120011011/02/02 12:00:31  5-MIN KMSN 021800Z 30007KT 280V340 10SM CLR 05/M06 A3007 730 46 -200 300/07 280V340 RMK AO2
14837KMSN MSN20021102120509411/02/02 12:05:31  5-MIN KMSN 021805Z 32008KT 10SM CLR 05/M06 A3007 730 46 -200 320/08 RMK AO2
14837KMSN MSN20021102121009411/02/02 12:10:31  5-MIN KMSN 021810Z VRB05KT 10SM CLR 06/M06 A3006 730 44 -100 VRB/05 RMK AO2
14837KMSN MSN20021102121510011/02/02 12:15:31  5-MIN KMSN 021815Z 30011G15KT 10SM CLR 05/M06 A3006 730 46 -200 300/11G15 RMK AO2
14837KMSN MSN20021102122011611/02/02 12:20:31  5-MIN KMSN 021820Z 28008G15KT 240V310 10SM CLR 05/M06 A3006 730 44 -200 270/08G15 240V310 RMK AO2
14837KMSN MSN20021102122509411/02/02 12:25:31  5-MIN KMSN 021825Z 30007KT 10SM CLR 05/M06 A3006 740 44 -200 300/07 RMK AO2
14837KMSN MSN20021102123009411/02/02 12:30:31  5-MIN KMSN 021830Z 31010KT 10SM CLR 06/M06 A3006 740 43 -100 310/10 RMK AO2
14837KMSN MSN20021102123509411/02/02 12:35:31  5-MIN KMSN 021835Z 31010KT 10SM CLR 06/M06 A3006 740 44 -100 310/10 RMK AO2
14837KMSN MSN20021102124009411/02/02 12:40:31  5-MIN KMSN 021840Z 31008KT 10SM CLR 06/M06 A3006 740 43 -100 310/08 RMK AO2
14837KMSN MSN20021102124509411/02/02 12:45:31  5-MIN KMSN 021845Z 29008KT 10SM CLR 06/M06 A3005 740 43 -100 290/08 RMK AO2
14837KMSN MSN20021102125011111/02/02 12:50:31  5-MIN KMSN 021850Z 30010KT 10SM CLR 06/M06 A3005 740 43 -100 300/10 RMK AO2 SLP185 T00561061
14837KMSN MSN20021102125511611/02/02 12:55:31  5-MIN KMSN 021855Z 27008G15KT 230V300 10SM CLR 06/M06 A3005 740 43 -100 260/08G15 230V300 RMK AO2
14837KMSN MSN20021102130011611/02/02 13:00:31  5-MIN KMSN 021900Z 26008G15KT 230V290 10SM CLR 06/M07 A3005 750 41 -100 260/08G15 230V290 RMK AO2
14837KMSN MSN20021102130509411/02/02 13:05:31  5-MIN KMSN 021905Z 29009KT 10SM CLR 06/M07 A3005 750 41 -100 280/09 RMK AO2
14837KMSN MSN20021102131009411/02/02 13:10:31  5-MIN KMSN 021910Z 31008KT 10SM CLR 06/M06 A3005 750 43 -100 310/08 RMK AO2
14837KMSN MSN20021102131511011/02/02 13:15:31  5-MIN KMSN 021915Z 30008KT 280V340 10SM CLR 06/M06 A3004 750 41 -100 300/08 280V340 RMK AO2
14837KMSN MSN20021102132009411/02/02 13:20:31  5-MIN KMSN 021920Z 32010KT 10SM CLR 06/M06 A3005 750 41 -100 320/10 RMK AO2
14837KMSN MSN20021102132510711/02/02 13:25:31  5-MIN KMSN 021925Z 29008KT 250V330 10SM CLR 07/M06 A3004 750 41 0 290/08 250V330 RMK AO2
14837KMSN MSN20021102133009111/02/02 13:30:31  5-MIN KMSN 021930Z 30008KT 10SM CLR 06/M06 A3004 750 41 0 300/08 RMK AO2
14837KMSN MSN20021102133510711/02/02 13:35:31  5-MIN KMSN 021935Z 30007KT 270V340 10SM CLR 07/M06 A3004 750 39 0 300/07 270V340 RMK AO2
14837KMSN MSN20021102134009111/02/02 13:40:31  5-MIN KMSN 021940Z 31009KT 10SM CLR 07/M07 A3004 750 38 0 310/09 RMK AO2
14837KMSN MSN20021102134509111/02/02 13:45:31  5-MIN KMSN 021945Z 27007KT 10SM CLR 07/M07 A3004 750 38 0 270/07 RMK AO2
14837KMSN MSN20021102135010811/02/02 13:50:31  5-MIN KMSN 021950Z 31008KT 10SM CLR 07/M07 A3004 750 38 0 310/08 RMK AO2 SLP180 T00671067
14837KMSN MSN20021102135510711/02/02 13:55:31  5-MIN KMSN 021955Z 30009KT 270V330 10SM CLR 07/M06 A3004 750 38 0 300/09 270V330 RMK AO2
14837KMSN MSN20021102140009111/02/02 14:00:31  5-MIN KMSN 022000Z 30008KT 10SM CLR 07/M07 A3004 760 36 0 300/08 RMK AO2
14837KMSN MSN20021102140509111/02/02 14:05:31  5-MIN KMSN 022005Z 32006KT 10SM CLR 07/M07 A3004 760 38 0 320/06 RMK AO2
14837KMSN MSN20021102141009111/02/02 14:10:31  5-MIN KMSN 022010Z 31009KT 10SM CLR 07/M07 A3004 760 36 0 310/09 RMK AO2
14837KMSN MSN20021102141509111/02/02 14:15:31  5-MIN KMSN 022015Z 28005KT 10SM CLR 07/M07 A3004 750 38 0 280/05 RMK AO2
14837KMSN MSN20021102142010711/02/02 14:20:31  5-MIN KMSN 022020Z 29007KT 240V310 10SM CLR 07/M07 A3004 750 36 0 280/07 240V310 RMK AO2
14837KMSN MSN20021102142509111/02/02 14:25:31  5-MIN KMSN 022025Z 28005KT 10SM CLR 07/M06 A3004 750 38 0 280/05 RMK AO2
14837KMSN MSN20021102143010711/02/02 14:30:31  5-MIN KMSN 022030Z 29007KT 240V320 10SM CLR 07/M07 A3004 750 36 0 290/07 240V320 RMK AO2
14837KMSN MSN20021102143509111/02/02 14:35:31  5-MIN KMSN 022035Z 30007KT 10SM CLR 07/M07 A3004 750 36 0 300/07 RMK AO2
14837KMSN MSN20021102144009111/02/02 14:40:31  5-MIN KMSN 022040Z 30008KT 10SM CLR 07/M07 A3004 750 36 0 300/08 RMK AO2
14837KMSN MSN20021102144509111/02/02 14:45:31  5-MIN KMSN 022045Z 31005KT 10SM CLR 07/M07 A3004 750 36 0 310/05 RMK AO2
14837KMSN MSN20021102145011411/02/02 14:50:31  5-MIN KMSN 022050Z 30008KT 10SM CLR 07/M07 A3004 750 36 0 300/08 RMK AO2 SLP181 T00721067 58009
14837KMSN MSN20021102145509111/02/02 14:55:31  5-MIN KMSN 022055Z 30007KT 10SM CLR 07/M07 A3005 750 36 0 300/07 RMK AO2
14837KMSN MSN20021102150009111/02/02 15:00:31  5-MIN KMSN 022100Z 29005KT 10SM CLR 07/M07 A3004 750 36 0 290/05 RMK AO2
14837KMSN MSN20021102150509111/02/02 15:05:31  5-MIN KMSN 022105Z 31007KT 10SM CLR 07/M07 A3005 750 36 0 310/07 RMK AO2
14837KMSN MSN20021102151009111/02/02 15:10:31  5-MIN KMSN 022110Z VRB05KT 10SM CLR 07/M07 A3005 750 35 0 VRB/05 RMK AO2
14837KMSN MSN20021102151509111/02/02 15:15:31  5-MIN KMSN 022115Z 28007KT 10SM CLR 07/M07 A3005 750 35 0 280/07 RMK AO2
14837KMSN MSN20021102152009111/02/02 15:20:31  5-MIN KMSN 022120Z 30009KT 10SM CLR 07/M07 A3005 750 36 0 300/09 RMK AO2
14837KMSN MSN20021102152509111/02/02 15:25:31  5-MIN KMSN 022125Z 29008KT 10SM CLR 07/M07 A3005 750 35 0 290/08 RMK AO2
14837KMSN MSN20021102153009111/02/02 15:30:31  5-MIN KMSN 022130Z 26005KT 10SM CLR 07/M07 A3005 750 35 0 260/05 RMK AO2
14837KMSN MSN20021102153509111/02/02 15:35:31  5-MIN KMSN 022135Z VRB04KT 10SM CLR 07/M07 A3005 750 35 0 VRB/04 RMK AO2
14837KMSN MSN20021102154009111/02/02 15:40:31  5-MIN KMSN 022140Z 28007KT 10SM CLR 07/M07 A3005 740 36 0 280/07 RMK AO2
14837KMSN MSN20021102154509111/02/02 15:45:31  5-MIN KMSN 022145Z 30004KT 10SM CLR 07/M07 A3005 740 35 0 300/04 RMK AO2
14837KMSN MSN20021102155010811/02/02 15:50:31  5-MIN KMSN 022150Z 30006KT 10SM CLR 07/M07 A3005 740 35 0 300/06 RMK AO2 SLP183 T00721072
14837KMSN MSN20021102155509111/02/02 15:55:31  5-MIN KMSN 022155Z 29004KT 10SM CLR 07/M07 A3005 740 36 0 290/04 RMK AO2
14837KMSN MSN20021102160009111/02/02 16:00:31  5-MIN KMSN 022200Z 29005KT 10SM CLR 07/M07 A3005 740 36 0 290/05 RMK AO2
14837KMSN MSN20021102160509111/02/02 16:05:31  5-MIN KMSN 022205Z 29005KT 10SM CLR 07/M07 A3005 740 36 0 290/05 RMK AO2
14837KMSN MSN20021102161009111/02/02 16:10:31  5-MIN KMSN 022210Z 28004KT 10SM CLR 07/M07 A3005 740 36 0 280/04 RMK AO2
14837KMSN MSN20021102161509111/02/02 16:15:31  5-MIN KMSN 022215Z 28003KT 10SM CLR 07/M07 A3005 740 38 0 280/03 RMK AO2
14837KMSN MSN20021102162009411/02/02 16:20:31  5-MIN KMSN 022220Z VRB03KT 10SM CLR 06/M07 A3005 740 39 -100 VRB/03 RMK AO2
14837KMSN MSN20021102162509411/02/02 16:25:31  5-MIN KMSN 022225Z 00000KT 10SM CLR 06/M07 A3005 740 39 -100 000/00 RMK AO2
14837KMSN MSN20021102163009411/02/02 16:30:31  5-MIN KMSN 022230Z 28004KT 10SM CLR 06/M07 A3005 740 39 -100 280/04 RMK AO2
14837KMSN MSN20021102163509411/02/02 16:35:31  5-MIN KMSN 022235Z 27003KT 10SM CLR 06/M07 A3005 740 41 -100 270/03 RMK AO2
14837KMSN MSN20021102164009411/02/02 16:40:31  5-MIN KMSN 022240Z 00000KT 10SM CLR 06/M06 A3006 740 43 -100 000/00 RMK AO2
14837KMSN MSN20021102164509411/02/02 16:45:31  5-MIN KMSN 022245Z 00000KT 10SM CLR 05/M06 A3006 740 44 -200 000/00 RMK AO2
14837KMSN MSN20021102165011111/02/02 16:50:31  5-MIN KMSN 022250Z 00000KT 10SM CLR 04/M06 A3006 740 50 -300 000/00 RMK AO2 SLP186 T00391056
14837KMSN MSN20021102165509411/02/02 16:55:31  5-MIN KMSN 022255Z 00000KT 10SM CLR 03/M06 A3006 740 50 -400 000/00 RMK AO2
14837KMSN MSN20021102170009411/02/02 17:00:31  5-MIN KMSN 022300Z 00000KT 10SM CLR 03/M06 A3006 740 50 -400 000/00 RMK AO2
14837KMSN MSN20021102170509411/02/02 17:05:31  5-MIN KMSN 022305Z 00000KT 10SM CLR 03/M06 A3006 740 52 -500 000/00 RMK AO2
14837KMSN MSN20021102171009411/02/02 17:10:31  5-MIN KMSN 022310Z 00000KT 10SM CLR 03/M06 A3006 740 52 -500 000/00 RMK AO2
14837KMSN MSN20021102171509411/02/02 17:15:31  5-MIN KMSN 022315Z 00000KT 10SM CLR 03/M06 A3006 730 52 -500 000/00 RMK AO2
14837KMSN MSN20021102172009411/02/02 17:20:31  5-MIN KMSN 022320Z 00000KT 10SM CLR 02/M06 A3006 730 54 -600 000/00 RMK AO2
14837KMSN MSN20021102172509411/02/02 17:25:31  5-MIN KMSN 022325Z 00000KT 10SM CLR 03/M06 A3006 730 52 -500 000/00 RMK AO2
14837KMSN MSN20021102173009411/02/02 17:30:31  5-MIN KMSN 022330Z 00000KT 10SM CLR 02/M06 A3006 730 56 -600 000/00 RMK AO2
14837KMSN MSN20021102173509411/02/02 17:35:31  5-MIN KMSN 022335Z 00000KT 10SM CLR 01/M06 A3007 730 58 -700 000/00 RMK AO2
14837KMSN MSN20021102174009411/02/02 17:40:31  5-MIN KMSN 022340Z 00000KT 10SM CLR 01/M06 A3007 730 61 -800 000/00 RMK AO2
14837KMSN MSN20021102174509411/02/02 17:45:31  5-MIN KMSN 022345Z 00000KT 10SM CLR 01/M06 A3007 720 61 -800 000/00 RMK AO2
14837KMSN MSN20021102175012911/02/02 17:50:31  5-MIN KMSN 022350Z 00000KT 10SM CLR 01/M06 A3008 720 61 -800 000/00 RMK AO2 SLP195 T00061061 10072 20006 55009
14837KMSN MSN20021102175509411/02/02 17:55:31  5-MIN KMSN 022355Z 00000KT 10SM CLR 00/M06 A3008 720 63 -800 000/00 RMK AO2
14837KMSN MSN20021102180009511/02/02 18:00:31  5-MIN KMSN 030000Z 00000KT 10SM CLR M01/M06 A3008 720 66 -900 000/00 RMK AO2
14837KMSN MSN20021102180509411/02/02 18:05:31  5-MIN KMSN 030005Z 00000KT 10SM CLR 00/M06 A3008 720 63 -800 000/00 RMK AO2
14837KMSN MSN20021102181009411/02/02 18:10:31  5-MIN KMSN 030010Z 00000KT 10SM CLR 00/M06 A3008 720 63 -900 000/00 RMK AO2
14837KMSN MSN20021102181509411/02/02 18:15:31  5-MIN KMSN 030015Z 00000KT 10SM CLR 00/M06 A3008 720 63 -900 000/00 RMK AO2
14837KMSN MSN20021102182009411/02/02 18:20:31  5-MIN KMSN 030020Z 00000KT 10SM CLR 00/M06 A3008 720 66 -900 000/00 RMK AO2
14837KMSN MSN20021102182509511/02/02 18:25:31  5-MIN KMSN 030025Z 00000KT 10SM CLR M01/M06 A3008 720 69 -900 000/00 RMK AO2
14837KMSN MSN20021102183009411/02/02 18:30:31  5-MIN KMSN 030030Z 00000KT 10SM CLR 00/M06 A3008 710 66 -900 000/00 RMK AO2
14837KMSN MSN20021102183509411/02/02 18:35:31  5-MIN KMSN 030035Z 02003KT 10SM CLR 00/M06 A3008 710 63 -900 020/03 RMK AO2
14837KMSN MSN20021102184009411/02/02 18:40:31  5-MIN KMSN 030040Z 36003KT 10SM CLR 00/M06 A3008 720 63 -900 360/03 RMK AO2
14837KMSN MSN20021102184509611/02/02 18:45:31  5-MIN KMSN 030045Z 00000KT 10SM CLR M02/M07 A3008 710 69 -1100 000/00 RMK AO2
14837KMSN MSN20021102185011311/02/02 18:50:31  5-MIN KMSN 030050Z 00000KT 10SM CLR M02/M06 A3008 710 72 -1100 000/00 RMK AO2 SLP199 T10171061
14837KMSN MSN20021102185509611/02/02 18:55:31  5-MIN KMSN 030055Z 00000KT 10SM CLR M02/M06 A3008 710 75 -1100 000/00 RMK AO2
14837KMSN MSN20021102190009611/02/02 19:00:31  5-MIN KMSN 030100Z 00000KT 10SM CLR M02/M06 A3008 710 75 -1100 000/00 RMK AO2
14837KMSN MSN20021102190509611/02/02 19:05:31  5-MIN KMSN 030105Z 00000KT 10SM CLR M02/M06 A3008 710 75 -1100 000/00 RMK AO2
14837KMSN MSN20021102191009611/02/02 19:10:31  5-MIN KMSN 030110Z 00000KT 10SM CLR M02/M06 A3008 710 75 -1100 000/00 RMK AO2
14837KMSN MSN20021102191509611/02/02 19:15:31  5-MIN KMSN 030115Z 00000KT 10SM CLR M02/M06 A3008 710 75 -1100 000/00 RMK AO2
14837KMSN MSN20021102192009611/02/02 19:20:31  5-MIN KMSN 030120Z 00000KT 10SM CLR M02/M06 A3008 710 75 -1100 000/00 RMK AO2
14837KMSN MSN20021102192509611/02/02 19:25:31  5-MIN KMSN 030125Z 00000KT 10SM CLR M02/M07 A3008 710 72 -1100 000/00 RMK AO2
14837KMSN MSN20021102193009611/02/02 19:30:31  5-MIN KMSN 030130Z 00000KT 10SM CLR M01/M06 A3008 710 69 -1000 000/00 RMK AO2
14837KMSN MSN20021102193509611/02/02 19:35:31  5-MIN KMSN 030135Z 00000KT 10SM CLR M02/M06 A3008 720 72 -1100 000/00 RMK AO2
14837KMSN MSN20021102194009611/02/02 19:40:31  5-MIN KMSN 030140Z 00000KT 10SM CLR M02/M06 A3008 710 72 -1100 000/00 RMK AO2
14837KMSN MSN20021102194509611/02/02 19:45:31  5-MIN KMSN 030145Z 00000KT 10SM CLR M02/M06 A3008 720 72 -1100 000/00 RMK AO2
14837KMSN MSN20021102195011311/02/02 19:50:31  5-MIN KMSN 030150Z 00000KT 10SM CLR M02/M06 A3008 710 75 -1100 000/00 RMK AO2 SLP198 T10221061
14837KMSN MSN20021102195509611/02/02 19:55:31  5-MIN KMSN 030155Z 00000KT 10SM CLR M02/M07 A3008 710 69 -1100 000/00 RMK AO2
14837KMSN MSN20021102200009611/02/02 20:00:31  5-MIN KMSN 030200Z 00000KT 10SM CLR M02/M06 A3009 710 72 -1100 000/00 RMK AO2
14837KMSN MSN20021102200509611/02/02 20:05:31  5-MIN KMSN 030205Z 00000KT 10SM CLR M03/M06 A3009 710 78 -1200 000/00 RMK AO2
14837KMSN MSN20021102201009611/02/02 20:10:31  5-MIN KMSN 030210Z 00000KT 10SM CLR M03/M06 A3009 710 78 -1200 000/00 RMK AO2
14837KMSN MSN20021102201509611/02/02 20:15:31  5-MIN KMSN 030215Z 00000KT 10SM CLR M03/M06 A3009 710 78 -1200 000/00 RMK AO2
14837KMSN MSN20021102202009611/02/02 20:20:31  5-MIN KMSN 030220Z 00000KT 10SM CLR M03/M06 A3009 710 78 -1200 000/00 RMK AO2
14837KMSN MSN20021102202509611/02/02 20:25:31  5-MIN KMSN 030225Z 00000KT 10SM CLR M03/M07 A3009 710 75 -1200 000/00 RMK AO2
14837KMSN MSN20021102203009611/02/02 20:30:31  5-MIN KMSN 030230Z 00000KT 10SM CLR M03/M07 A3009 710 75 -1200 000/00 RMK AO2
14837KMSN MSN20021102203509611/02/02 20:35:31  5-MIN KMSN 030235Z 00000KT 10SM CLR M03/M06 A3009 710 78 -1200 000/00 RMK AO2
14837KMSN MSN20021102204009611/02/02 20:40:31  5-MIN KMSN 030240Z 00000KT 10SM CLR M03/M06 A3009 700 78 -1200 000/00 RMK AO2
14837KMSN MSN20021102204509611/02/02 20:45:31  5-MIN KMSN 030245Z 00000KT 10SM CLR M03/M06 A3009 710 78 -1200 000/00 RMK AO2
14837KMSN MSN20021102205011911/02/02 20:50:31  5-MIN KMSN 030250Z 00000KT 10SM CLR M03/M07 A3009 700 78 -1300 000/00 RMK AO2 SLP201 T10331067 53010
14837KMSN MSN20021102205509611/02/02 20:55:31  5-MIN KMSN 030255Z 00000KT 10SM CLR M03/M07 A3010 700 78 -1300 000/00 RMK AO2
14837KMSN MSN20021102210009611/02/02 21:00:31  5-MIN KMSN 030300Z 00000KT 10SM CLR M03/M07 A3010 700 78 -1300 000/00 RMK AO2
14837KMSN MSN20021102210509611/02/02 21:05:31  5-MIN KMSN 030305Z 00000KT 10SM CLR M03/M06 A3010 700 81 -1200 000/00 RMK AO2
14837KMSN MSN20021102211009611/02/02 21:10:31  5-MIN KMSN 030310Z 00000KT 10SM CLR M03/M06 A3009 700 81 -1200 000/00 RMK AO2
14837KMSN MSN20021102211509611/02/02 21:15:31  5-MIN KMSN 030315Z 00000KT 10SM CLR M03/M06 A3010 700 85 -1300 000/00 RMK AO2
14837KMSN MSN20021102212009611/02/02 21:20:31  5-MIN KMSN 030320Z 00000KT 10SM CLR M03/M07 A3010 700 78 -1300 000/00 RMK AO2
14837KMSN MSN20021102212509611/02/02 21:25:31  5-MIN KMSN 030325Z 00000KT 10SM CLR M03/M07 A3010 700 78 -1300 000/00 RMK AO2
14837KMSN MSN20021102213009611/02/02 21:30:31  5-MIN KMSN 030330Z 00000KT 10SM CLR M04/M07 A3010 700 81 -1400 000/00 RMK AO2
14837KMSN MSN20021102213509611/02/02 21:35:31  5-MIN KMSN 030335Z 00000KT 10SM CLR M04/M07 A3010 700 81 -1400 000/00 RMK AO2
14837KMSN MSN20021102214009611/02/02 21:40:31  5-MIN KMSN 030340Z 00000KT 10SM CLR M04/M07 A3010 700 81 -1400 000/00 RMK AO2
14837KMSN MSN20021102214509611/02/02 21:45:31  5-MIN KMSN 030345Z 00000KT 10SM CLR M04/M07 A3010 700 84 -1400 000/00 RMK AO2
14837KMSN MSN20021102215011311/02/02 21:50:31  5-MIN KMSN 030350Z 00000KT 10SM CLR M04/M07 A3009 700 81 -1400 000/00 RMK AO2 SLP202 T10391067
14837KMSN MSN20021102215509611/02/02 21:55:31  5-MIN KMSN 030355Z 00000KT 10SM CLR M04/M07 A3009 700 81 -1400 000/00 RMK AO2
14837KMSN MSN20021102220009611/02/02 22:00:31  5-MIN KMSN 030400Z 00000KT 10SM CLR M04/M07 A3009 700 81 -1400 000/00 RMK AO2
14837KMSN MSN20021102220509611/02/02 22:05:31  5-MIN KMSN 030405Z 00000KT 10SM CLR M03/M07 A3009 710 78 -1300 000/00 RMK AO2
14837KMSN MSN20021102221009611/02/02 22:10:31  5-MIN KMSN 030410Z 00000KT 10SM CLR M04/M07 A3009 710 78 -1400 000/00 RMK AO2
14837KMSN MSN20021102221509611/02/02 22:15:31  5-MIN KMSN 030415Z 00000KT 10SM CLR M04/M07 A3009 710 78 -1400 000/00 RMK AO2
14837KMSN MSN20021102222009611/02/02 22:20:31  5-MIN KMSN 030420Z 00000KT 10SM CLR M04/M07 A3009 710 81 -1400 000/00 RMK AO2
14837KMSN MSN20021102222509611/02/02 22:25:31  5-MIN KMSN 030425Z 00000KT 10SM CLR M04/M06 A3009 710 88 -1400 000/00 RMK AO2
14837KMSN MSN20021102223009611/02/02 22:30:31  5-MIN KMSN 030430Z 00000KT 10SM CLR M04/M07 A3009 710 84 -1400 000/00 RMK AO2
14837KMSN MSN20021102223509611/02/02 22:35:31  5-MIN KMSN 030435Z 00000KT 10SM CLR M04/M07 A3009 710 84 -1400 000/00 RMK AO2
14837KMSN MSN20021102224009611/02/02 22:40:31  5-MIN KMSN 030440Z 00000KT 10SM CLR M04/M07 A3009 710 84 -1400 000/00 RMK AO2
14837KMSN MSN20021102224509611/02/02 22:45:31  5-MIN KMSN 030445Z 00000KT 10SM CLR M04/M07 A3009 710 81 -1400 000/00 RMK AO2
14837KMSN MSN20021102225011311/02/02 22:50:31  5-MIN KMSN 030450Z 00000KT 10SM CLR M04/M07 A3009 710 84 -1400 000/00 RMK AO2 SLP200 T10441067
14837KMSN MSN20021102225509611/02/02 22:55:31  5-MIN KMSN 030455Z 00000KT 10SM CLR M04/M07 A3009 710 84 -1400 000/00 RMK AO2
14837KMSN MSN20021102230009611/02/02 23:00:31  5-MIN KMSN 030500Z 00000KT 10SM CLR M05/M07 A3009 710 88 -1500 000/00 RMK AO2
14837KMSN MSN20021102230509511/02/02 23:05:31  5-MIN KMSN 030505Z 00000KT 9SM CLR M05/M07 A3009 710 88 -1500 000/00 RMK AO2
14837KMSN MSN20021102231009511/02/02 23:10:31  5-MIN KMSN 030510Z 00000KT 9SM CLR M05/M07 A3009 710 88 -1500 000/00 RMK AO2
14837KMSN MSN20021102231509511/02/02 23:15:31  5-MIN KMSN 030515Z 00000KT 9SM CLR M05/M07 A3009 710 84 -1500 000/00 RMK AO2
14837KMSN MSN20021102232009511/02/02 23:20:31  5-MIN KMSN 030520Z 00000KT 9SM CLR M05/M07 A3009 710 88 -1500 000/00 RMK AO2
14837KMSN MSN20021102232509611/02/02 23:25:31  5-MIN KMSN 030525Z 00000KT 10SM CLR M04/M07 A3009 710 84 -1400 000/00 RMK AO2
14837KMSN MSN20021102233009611/02/02 23:30:31  5-MIN KMSN 030530Z 00000KT 10SM CLR M05/M07 A3009 710 88 -1500 000/00 RMK AO2
14837KMSN MSN20021102233509611/02/02 23:35:31  5-MIN KMSN 030535Z 00000KT 10SM CLR M05/M06 A3009 710 92 -1500 000/00 RMK AO2
14837KMSN MSN20021102234009511/02/02 23:40:31  5-MIN KMSN 030540Z 00000KT 9SM CLR M04/M06 A3009 710 88 -1400 000/00 RMK AO2
14837KMSN MSN20021102234509611/02/02 23:45:31  5-MIN KMSN 030545Z 00000KT 10SM CLR M05/M07 A3009 710 88 -1500 000/00 RMK AO2
14837KMSN MSN20021102235014111/02/02 23:50:31  5-MIN KMSN 030550Z 00000KT 10SM CLR M06/M07 A3009 710 88 -1600 000/00 RMK AO2 SLP200 T10561072 10000 21056 400721056 53006
14837KMSN MSN20021102235509611/02/02 23:55:31  5-MIN KMSN 030555Z 00000KT 10SM CLR M05/M07 A3009 710 88 -1500 000/00 RMK AO2
14837KMSN MSN20021103000009611/03/02 00:00:31  5-MIN KMSN 030600Z 00000KT 10SM CLR M05/M07 A3009 710 88 -1500 000/00 RMK AO2
14837KMSN MSN20021103000509611/03/02 00:05:31  5-MIN KMSN 030605Z 00000KT 10SM CLR M05/M07 A3009 710 88 -1500 000/00 RMK AO2
14837KMSN MSN20021103001009611/03/02 00:10:31  5-MIN KMSN 030610Z 00000KT 10SM CLR M04/M06 A3009 710 88 -1400 000/00 RMK AO2
14837KMSN MSN20021103001509611/03/02 00:15:31  5-MIN KMSN 030615Z 00000KT 10SM CLR M06/M07 A3009 710 88 -1600 000/00 RMK AO2
14837KMSN MSN20021103002009611/03/02 00:20:31  5-MIN KMSN 030620Z 00000KT 10SM CLR M06/M07 A3009 710 88 -1600 000/00 RMK AO2
14837KMSN MSN20021103002509611/03/02 00:25:31  5-MIN KMSN 030625Z 00000KT 10SM CLR M06/M07 A3009 710 92 -1600 000/00 RMK AO2
14837KMSN MSN20021103003009611/03/02 00:30:31  5-MIN KMSN 030630Z 00000KT 10SM CLR M06/M07 A3009 710 92 -1600 000/00 RMK AO2
14837KMSN MSN20021103003509611/03/02 00:35:31  5-MIN KMSN 030635Z 00000KT 10SM CLR M05/M06 A3008 710 92 -1500 000/00 RMK AO2
14837KMSN MSN20021103004009611/03/02 00:40:31  5-MIN KMSN 030640Z 00000KT 10SM CLR M06/M07 A3008 710 92 -1600 000/00 RMK AO2
14837KMSN MSN20021103004509611/03/02 00:45:31  5-MIN KMSN 030645Z 00000KT 10SM CLR M06/M07 A3008 710 92 -1600 000/00 RMK AO2
14837KMSN MSN20021103005011311/03/02 00:50:31  5-MIN KMSN 030650Z 00000KT 10SM CLR M06/M07 A3009 710 92 -1600 000/00 RMK AO2 SLP197 T10561067
14837KMSN MSN20021103005509611/03/02 00:55:31  5-MIN KMSN 030655Z 00000KT 10SM CLR M06/M07 A3008 710 92 -1600 000/00 RMK AO2
14837KMSN MSN20021103010009611/03/02 01:00:31  5-MIN KMSN 030700Z 00000KT 10SM CLR M06/M07 A3009 710 92 -1600 000/00 RMK AO2
14837KMSN MSN20021103010509611/03/02 01:05:31  5-MIN KMSN 030705Z 00000KT 10SM CLR M06/M07 A3009 710 92 -1600 000/00 RMK AO2
14837KMSN MSN20021103011009611/03/02 01:10:31  5-MIN KMSN 030710Z 00000KT 10SM CLR M06/M07 A3008 710 92 -1600 000/00 RMK AO2
14837KMSN MSN20021103011509611/03/02 01:15:31  5-MIN KMSN 030715Z 00000KT 10SM CLR M06/M07 A3009 710 92 -1600 000/00 RMK AO2
14837KMSN MSN20021103012009611/03/02 01:20:31  5-MIN KMSN 030720Z 00000KT 10SM CLR M06/M07 A3009 710 92 -1600 000/00 RMK AO2
14837KMSN MSN20021103012509611/03/02 01:25:31  5-MIN KMSN 030725Z 00000KT 10SM CLR M06/M07 A3008 710 92 -1600 000/00 RMK AO2
14837KMSN MSN20021103013009611/03/02 01:30:31  5-MIN KMSN 030730Z 00000KT 10SM CLR M06/M07 A3008 720 92 -1600 000/00 RMK AO2
14837KMSN MSN20021103013509611/03/02 01:35:31  5-MIN KMSN 030735Z 00000KT 10SM CLR M06/M07 A3008 710 92 -1600 000/00 RMK AO2
14837KMSN MSN20021103014009611/03/02 01:40:31  5-MIN KMSN 030740Z 00000KT 10SM CLR M06/M07 A3008 720 92 -1600 000/00 RMK AO2
14837KMSN MSN20021103014509611/03/02 01:45:31  5-MIN KMSN 030745Z 00000KT 10SM CLR M06/M07 A3008 720 92 -1600 000/00 RMK AO2
14837KMSN MSN20021103015011311/03/02 01:50:31  5-MIN KMSN 030750Z 00000KT 10SM CLR M06/M07 A3008 720 92 -1600 000/00 RMK AO2 SLP196 T10561067
14837KMSN MSN20021103015509611/03/02 01:55:31  5-MIN KMSN 030755Z 00000KT 10SM CLR M05/M06 A3008 720 92 -1500 000/00 RMK AO2
14837KMSN MSN20021103020009611/03/02 02:00:31  5-MIN KMSN 030800Z 00000KT 10SM CLR M06/M06 A3008 720 96 -1600 000/00 RMK AO2
14837KMSN MSN20021103020509611/03/02 02:05:31  5-MIN KMSN 030805Z 00000KT 10SM CLR M06/M07 A3008 720 92 -1600 000/00 RMK AO2
14837KMSN MSN20021103021009611/03/02 02:10:31  5-MIN KMSN 030810Z 00000KT 10SM CLR M06/M07 A3007 720 92 -1500 000/00 RMK AO2
14837KMSN MSN20021103021509611/03/02 02:15:31  5-MIN KMSN 030815Z 00000KT 10SM CLR M06/M07 A3007 730 92 -1500 000/00 RMK AO2
14837KMSN MSN20021103022009611/03/02 02:20:31  5-MIN KMSN 030820Z 00000KT 10SM CLR M06/M07 A3007 730 92 -1500 000/00 RMK AO2
14837KMSN MSN20021103022509611/03/02 02:25:31  5-MIN KMSN 030825Z 00000KT 10SM CLR M06/M07 A3007 730 96 -1600 000/00 RMK AO2
14837KMSN MSN20021103023009611/03/02 02:30:31  5-MIN KMSN 030830Z 00000KT 10SM CLR M06/M07 A3006 730 96 -1600 000/00 RMK AO2
14837KMSN MSN20021103023509611/03/02 02:35:31  5-MIN KMSN 030835Z 00000KT 10SM CLR M06/M07 A3006 730 92 -1600 000/00 RMK AO2
14837KMSN MSN20021103024009611/03/02 02:40:31  5-MIN KMSN 030840Z 00000KT 10SM CLR M06/M07 A3006 730 92 -1600 000/00 RMK AO2
14837KMSN MSN20021103024509611/03/02 02:45:31  5-MIN KMSN 030845Z 00000KT 10SM CLR M06/M07 A3006 740 92 -1600 000/00 RMK AO2
14837KMSN MSN20021103025011911/03/02 02:50:31  5-MIN KMSN 030850Z 00000KT 10SM CLR M06/M07 A3006 740 96 -1600 000/00 RMK AO2 SLP189 T10611067 56002
14837KMSN MSN20021103025509611/03/02 02:55:31  5-MIN KMSN 030855Z 00000KT 10SM CLR M06/M07 A3006 740 92 -1500 000/00 RMK AO2
14837KMSN MSN20021103030009611/03/02 03:00:31  5-MIN KMSN 030900Z 00000KT 10SM CLR M06/M07 A3006 730 92 -1600 000/00 RMK AO2
14837KMSN MSN20021103030509611/03/02 03:05:31  5-MIN KMSN 030905Z 00000KT 10SM CLR M06/M07 A3006 740 92 -1600 000/00 RMK AO2
14837KMSN MSN20021103031009611/03/02 03:10:31  5-MIN KMSN 030910Z 00000KT 10SM CLR M06/M07 A3006 740 92 -1500 000/00 RMK AO2
14837KMSN MSN20021103031509611/03/02 03:15:31  5-MIN KMSN 030915Z 00000KT 10SM CLR M06/M07 A3006 740 92 -1500 000/00 RMK AO2
14837KMSN MSN20021103032009611/03/02 03:20:31  5-MIN KMSN 030920Z 00000KT 10SM CLR M06/M07 A3005 740 88 -1500 000/00 RMK AO2
14837KMSN MSN20021103032509611/03/02 03:25:31  5-MIN KMSN 030925Z 00000KT 10SM CLR M06/M08 A3005 740 84 -1500 000/00 RMK AO2
14837KMSN MSN20021103033009611/03/02 03:30:31  5-MIN KMSN 030930Z 00000KT 10SM CLR M06/M08 A3005 740 84 -1500 000/00 RMK AO2
14837KMSN MSN20021103033509611/03/02 03:35:31  5-MIN KMSN 030935Z 00000KT 10SM CLR M06/M08 A3005 750 84 -1500 000/00 RMK AO2
14837KMSN MSN20021103034009611/03/02 03:40:31  5-MIN KMSN 030940Z 00000KT 10SM CLR M06/M08 A3005 750 84 -1500 000/00 RMK AO2
14837KMSN MSN20021103034509611/03/02 03:45:31  5-MIN KMSN 030945Z 00000KT 10SM CLR M06/M08 A3005 740 88 -1600 000/00 RMK AO2
14837KMSN MSN20021103035011311/03/02 03:50:31  5-MIN KMSN 030950Z 00000KT 10SM CLR M06/M07 A3005 740 92 -1600 000/00 RMK AO2 SLP186 T10611072
14837KMSN MSN20021103035509511/03/02 03:55:31  5-MIN KMSN 030955Z 00000KT 8SM CLR M06/M07 A3005 740 92 -1600 000/00 RMK AO2
14837KMSN MSN20021103040009611/03/02 04:00:31  5-MIN KMSN 031000Z 00000KT 10SM CLR M06/M08 A3005 740 88 -1600 000/00 RMK AO2
14837KMSN MSN20021103040509611/03/02 04:05:31  5-MIN KMSN 031005Z 00000KT 10SM CLR M06/M08 A3005 740 88 -1600 000/00 RMK AO2
14837KMSN MSN20021103041009611/03/02 04:10:31  5-MIN KMSN 031010Z 00000KT 10SM CLR M06/M08 A3005 740 88 -1600 000/00 RMK AO2
14837KMSN MSN20021103041509611/03/02 04:15:31  5-MIN KMSN 031015Z 00000KT 10SM CLR M06/M08 A3005 740 88 -1600 000/00 RMK AO2
14837KMSN MSN20021103042009611/03/02 04:20:31  5-MIN KMSN 031020Z 00000KT 10SM CLR M06/M08 A3005 740 88 -1600 000/00 RMK AO2
14837KMSN MSN20021103042509611/03/02 04:25:31  5-MIN KMSN 031025Z 00000KT 10SM CLR M06/M08 A3006 740 88 -1600 000/00 RMK AO2
14837KMSN MSN20021103043009611/03/02 04:30:31  5-MIN KMSN 031030Z 00000KT 10SM CLR M07/M08 A3006 740 92 -1700 000/00 RMK AO2
14837KMSN MSN20021103043509611/03/02 04:35:31  5-MIN KMSN 031035Z 00000KT 10SM CLR M07/M08 A3006 740 92 -1700 000/00 RMK AO2
14837KMSN MSN20021103044009611/03/02 04:40:31  5-MIN KMSN 031040Z 00000KT 10SM CLR M07/M08 A3006 740 92 -1700 000/00 RMK AO2
14837KMSN MSN20021103044509611/03/02 04:45:31  5-MIN KMSN 031045Z 00000KT 10SM CLR M07/M08 A3006 740 92 -1700 000/00 RMK AO2
14837KMSN MSN20021103045011311/03/02 04:50:31  5-MIN KMSN 031050Z 00000KT 10SM CLR M07/M08 A3006 740 92 -1700 000/00 RMK AO2 SLP189 T10671078
14837KMSN MSN20021103045509611/03/02 04:55:31  5-MIN KMSN 031055Z 00000KT 10SM CLR M06/M08 A3006 740 88 -1600 000/00 RMK AO2
14837KMSN MSN20021103050009611/03/02 05:00:31  5-MIN KMSN 031100Z 00000KT 10SM CLR M06/M08 A3006 740 88 -1600 000/00 RMK AO2
14837KMSN MSN20021103050509611/03/02 05:05:31  5-MIN KMSN 031105Z 00000KT 10SM CLR M06/M08 A3006 740 88 -1600 000/00 RMK AO2
14837KMSN MSN20021103051009611/03/02 05:10:31  5-MIN KMSN 031110Z 00000KT 10SM CLR M06/M07 A3006 740 92 -1600 000/00 RMK AO2
14837KMSN MSN20021103051509611/03/02 05:15:31  5-MIN KMSN 031115Z 00000KT 10SM CLR M07/M08 A3005 740 92 -1700 000/00 RMK AO2
14837KMSN MSN20021103052009611/03/02 05:20:31  5-MIN KMSN 031120Z 00000KT 10SM CLR M07/M08 A3005 740 92 -1700 000/00 RMK AO2
14837KMSN MSN20021103052509611/03/02 05:25:31  5-MIN KMSN 031125Z 00000KT 10SM CLR M07/M08 A3005 740 92 -1700 000/00 RMK AO2
14837KMSN MSN20021103053009611/03/02 05:30:31  5-MIN KMSN 031130Z 18003KT 10SM CLR M07/M08 A3006 740 92 -1700 170/03 RMK AO2
14837KMSN MSN20021103053509611/03/02 05:35:31  5-MIN KMSN 031135Z 00000KT 10SM CLR M07/M08 A3006 740 92 -1700 000/00 RMK AO2
14837KMSN MSN20021103054009611/03/02 05:40:31  5-MIN KMSN 031140Z 00000KT 10SM CLR M06/M07 A3006 740 92 -1600 000/00 RMK AO2
14837KMSN MSN20021103054509611/03/02 05:45:31  5-MIN KMSN 031145Z 00000KT 10SM CLR M06/M08 A3005 740 88 -1600 000/00 RMK AO2
14837KMSN MSN20021103055013111/03/02 05:50:31  5-MIN KMSN 031150Z 00000KT 10SM CLR M06/M07 A3005 740 92 -1600 000/00 RMK AO2 SLP188 T10611072 11044 21067 58010
14837KMSN MSN20021103055509611/03/02 05:55:31  5-MIN KMSN 031155Z 00000KT 10SM CLR M06/M08 A3005 740 84 -1600 000/00 RMK AO2
14837KMSN MSN20021103060009611/03/02 06:00:31  5-MIN KMSN 031200Z 00000KT 10SM CLR M06/M08 A3005 740 84 -1600 000/00 RMK AO2
14837KMSN MSN20021103060509611/03/02 06:05:31  5-MIN KMSN 031205Z 00000KT 10SM CLR M06/M07 A3005 750 88 -1500 000/00 RMK AO2
14837KMSN MSN20021103061009611/03/02 06:10:31  5-MIN KMSN 031210Z 00000KT 10SM CLR M06/M07 A3005 750 88 -1500 000/00 RMK AO2
14837KMSN MSN20021103061509811/03/02 06:15:31  5-MIN KMSN 031215Z 00000KT 6SM BR CLR M06/M08 A3005 750 88 -1600 000/00 RMK AO2
14837KMSN MSN20021103062009811/03/02 06:20:31  5-MIN KMSN 031220Z 00000KT 6SM BR CLR M06/M07 A3005 750 88 -1500 000/00 RMK AO2
14837KMSN MSN20021103062509811/03/02 06:25:31  5-MIN KMSN 031225Z 00000KT 5SM BR CLR M06/M07 A3005 750 92 -1600 000/00 RMK AO2
14837KMSN MSN20021103063009511/03/02 06:30:31  5-MIN KMSN 031230Z 00000KT 9SM CLR M06/M08 A3005 740 88 -1600 000/00 RMK AO2
14837KMSN MSN20021103063509511/03/02 06:35:31  5-MIN KMSN 031235Z 00000KT 8SM CLR M06/M08 A3005 740 88 -1600 000/00 RMK AO2
14837KMSN MSN20021103064009511/03/02 06:40:31  5-MIN KMSN 031240Z 00000KT 8SM CLR M06/M08 A3005 740 88 -1600 000/00 RMK AO2
14837KMSN MSN20021103064509511/03/02 06:45:31  5-MIN KMSN 031245Z 00000KT 8SM CLR M06/M07 A3005 740 88 -1500 000/00 RMK AO2
14837KMSN MSN20021103065011211/03/02 06:50:31  5-MIN KMSN 031250Z 00000KT 8SM CLR M04/M07 A3005 740 84 -1400 000/00 RMK AO2 SLP188 T10441067
14837KMSN MSN20021103065509511/03/02 06:55:31  5-MIN KMSN 031255Z 00000KT 8SM CLR M05/M07 A3005 740 88 -1500 000/00 RMK AO2
14837KMSN MSN20021103070009511/03/02 07:00:31  5-MIN KMSN 031300Z 00000KT 8SM CLR M05/M07 A3005 740 88 -1500 000/00 RMK AO2
14837KMSN MSN20021103070509511/03/02 07:05:31  5-MIN KMSN 031305Z 00000KT 8SM CLR M04/M07 A3005 750 84 -1400 000/00 RMK AO2
14837KMSN MSN20021103071009511/03/02 07:10:31  5-MIN KMSN 031310Z 00000KT 7SM CLR M04/M06 A3005 750 88 -1400 000/00 RMK AO2
14837KMSN MSN20021103071509511/03/02 07:15:31  5-MIN KMSN 031315Z 00000KT 7SM CLR M03/M06 A3005 750 85 -1200 000/00 RMK AO2
14837KMSN MSN20021103072009511/03/02 07:20:31  5-MIN KMSN 031320Z 00000KT 7SM CLR M03/M05 A3005 750 88 -1200 000/00 RMK AO2
14837KMSN MSN20021103072509811/03/02 07:25:31  5-MIN KMSN 031325Z 00000KT 6SM BR CLR M03/M04 A3005 750 88 -1200 000/00 RMK AO2
14837KMSN MSN20021103073009811/03/02 07:30:31  5-MIN KMSN 031330Z 00000KT 6SM BR CLR M03/M04 A3005 750 88 -1200 000/00 RMK AO2
14837KMSN MSN20021103073509511/03/02 07:35:31  5-MIN KMSN 031335Z 00000KT 7SM CLR M03/M04 A3005 750 92 -1200 000/00 RMK AO2
14837KMSN MSN20021103074009511/03/02 07:40:31  5-MIN KMSN 031340Z 00000KT 7SM CLR M03/M04 A3005 750 88 -1200 000/00 RMK AO2
14837KMSN MSN20021103074509511/03/02 07:45:31  5-MIN KMSN 031345Z 00000KT 7SM CLR M03/M04 A3005 750 88 -1200 000/00 RMK AO2
14837KMSN MSN20021103075011511/03/02 07:50:31  5-MIN KMSN 031350Z 00000KT 6SM BR CLR M03/M04 A3005 740 88 -1200 000/00 RMK AO2 SLP188 T10281044
14837KMSN MSN20021103075509811/03/02 07:55:31  5-MIN KMSN 031355Z 00000KT 6SM BR CLR M03/M04 A3005 740 88 -1200 000/00 RMK AO2
14837KMSN MSN20021103080009511/03/02 08:00:31  5-MIN KMSN 031400Z 00000KT 7SM CLR M03/M04 A3005 740 88 -1200 000/00 RMK AO2
14837KMSN MSN20021103080509511/03/02 08:05:31  5-MIN KMSN 031405Z 00000KT 7SM CLR M03/M04 A3006 740 88 -1200 000/00 RMK AO2
14837KMSN MSN20021103081009811/03/02 08:10:31  5-MIN KMSN 031410Z 00000KT 6SM BR CLR M03/M04 A3005 740 88 -1200 000/00 RMK AO2
14837KMSN MSN20021103081509511/03/02 08:15:31  5-MIN KMSN 031415Z 00000KT 7SM CLR M03/M04 A3006 740 88 -1200 000/00 RMK AO2
14837KMSN MSN20021103082009511/03/02 08:20:31  5-MIN KMSN 031420Z 00000KT 8SM CLR M02/M04 A3006 740 88 -1100 000/00 RMK AO2
14837KMSN MSN20021103082509511/03/02 08:25:31  5-MIN KMSN 031425Z 00000KT 8SM CLR M02/M04 A3006 740 85 -1000 000/00 RMK AO2
14837KMSN MSN20021103083009511/03/02 08:30:31  5-MIN KMSN 031430Z 13003KT 8SM CLR M01/M03 A3006 740 85 -1000 130/03 RMK AO2
14837KMSN MSN20021103083509411/03/02 08:35:31  5-MIN KMSN 031435Z 12003KT 8SM CLR M01/M03 A3005 740 85 -900 120/03 RMK AO2
14837KMSN MSN20021103084009311/03/02 08:40:31  5-MIN KMSN 031440Z 16005KT 7SM CLR 00/M02 A3005 740 85 -800 160/05 RMK AO2
14837KMSN MSN20021103084509311/03/02 08:45:31  5-MIN KMSN 031445Z 17005KT 7SM CLR 01/M02 A3005 750 82 -700 170/05 RMK AO2
14837KMSN MSN20021103085011611/03/02 08:50:31  5-MIN KMSN 031450Z 18005KT 8SM CLR 02/M02 A3005 740 78 -600 180/05 RMK AO2 SLP186 T00171017 56002
14837KMSN MSN20021103085509311/03/02 08:55:31  5-MIN KMSN 031455Z 19004KT 8SM CLR 02/M02 A3005 750 75 -500 190/04 RMK AO2
14837KMSN MSN20021103090009311/03/02 09:00:31  5-MIN KMSN 031500Z 19004KT 8SM CLR 03/M02 A3005 750 72 -500 190/04 RMK AO2
14837KMSN MSN20021103090509311/03/02 09:05:31  5-MIN KMSN 031505Z 22003KT 9SM CLR 03/M02 A3004 750 69 -500 220/03 RMK AO2
14837KMSN MSN20021103091009311/03/02 09:10:31  5-MIN KMSN 031510Z 20003KT 9SM CLR 03/M02 A3005 750 69 -500 200/03 RMK AO2
14837KMSN MSN20021103091509311/03/02 09:15:31  5-MIN KMSN 031515Z 20004KT 9SM CLR 03/M02 A3004 750 69 -500 200/04 RMK AO2
14837KMSN MSN20021103092009311/03/02 09:20:31  5-MIN KMSN 031520Z 20004KT 9SM CLR 03/M02 A3004 750 67 -400 200/04 RMK AO2
14837KMSN MSN20021103092509311/03/02 09:25:31  5-MIN KMSN 031525Z 25004KT 9SM CLR 03/M02 A3004 750 67 -400 250/04 RMK AO2
14837KMSN MSN20021103093009411/03/02 09:30:31  5-MIN KMSN 031530Z 24004KT 10SM CLR 03/M03 A3004 750 64 -400 230/04 RMK AO2
14837KMSN MSN20021103093509311/03/02 09:35:31  5-MIN KMSN 031535Z VRB04KT 9SM CLR 03/M02 A3004 760 67 -400 VRB/04 RMK AO2
14837KMSN MSN20021103094009311/03/02 09:40:31  5-MIN KMSN 031540Z VRB04KT 9SM CLR 04/M02 A3003 760 67 -300 VRB/04 RMK AO2
14837KMSN MSN20021103094509411/03/02 09:45:31  5-MIN KMSN 031545Z VRB04KT 10SM CLR 04/M01 A3003 760 67 -200 VRB/04 RMK AO2
14837KMSN MSN20021103095011111/03/02 09:50:31  5-MIN KMSN 031550Z VRB06KT 10SM CLR 04/M02 A3003 760 62 -200 VRB/06 RMK AO2 SLP178 T00441022
14837KMSN MSN20021103095509711/03/02 09:55:31  5-MIN KMSN 031555Z 23006KT 10SM FEW049 05/M02 A3003 760 59 -200 230/06 RMK AO2
14837KMSN MSN20021103100009711/03/02 10:00:31  5-MIN KMSN 031600Z VRB06KT 10SM SCT049 05/M02 A3003 770 59 -200 VRB/06 RMK AO2
14837KMSN MSN20021103100509711/03/02 10:05:31  5-MIN KMSN 031605Z 25008KT 10SM BKN049 05/M03 A3003 770 57 -200 250/08 RMK AO2
14837KMSN MSN20021103101009711/03/02 10:10:31  5-MIN KMSN 031610Z 23007KT 10SM BKN049 04/M02 A3002 770 62 -200 230/07 RMK AO2
14837KMSN MSN20021103101509711/03/02 10:15:31  5-MIN KMSN 031615Z 23007KT 10SM BKN049 05/M03 A3002 770 57 -200 230/07 RMK AO2
14837KMSN MSN20021103102009711/03/02 10:20:31  5-MIN KMSN 031620Z 23007KT 10SM BKN049 05/M02 A3002 770 59 -200 230/07 RMK AO2
14837KMSN MSN20021103102509711/03/02 10:25:31  5-MIN KMSN 031625Z 24007KT 10SM BKN049 05/M02 A3002 770 59 -200 240/07 RMK AO2
14837KMSN MSN20021103103009711/03/02 10:30:31  5-MIN KMSN 031630Z 24006KT 10SM SCT049 05/M02 A3002 770 59 -200 230/06 RMK AO2
14837KMSN MSN20021103103509711/03/02 10:35:31  5-MIN KMSN 031635Z 23004KT 10SM FEW049 05/M02 A3002 780 62 -200 230/04 RMK AO2
14837KMSN MSN20021103104009711/03/02 10:40:31  5-MIN KMSN 031640Z 23004KT 10SM FEW049 06/M02 A3001 780 59 -100 230/04 RMK AO2
14837KMSN MSN20021103104509711/03/02 10:45:31  5-MIN KMSN 031645Z 22007KT 10SM FEW080 06/M02 A3001 780 59 -100 220/07 RMK AO2
14837KMSN MSN20021103105011111/03/02 10:50:31  5-MIN KMSN 031650Z 23006KT 10SM FEW080 06/M02 A3001 780 57 0 230/06 RMK AO2 SLP170 T00611017
14837KMSN MSN20021103105511011/03/02 10:55:31  5-MIN KMSN 031655Z 25007KT 190V260 10SM FEW080 06/M02 A3001 790 57 0 250/07 190V260 RMK AO2
14837KMSN MSN20021103110009411/03/02 11:00:31  5-MIN KMSN 031700Z 24007KT 10SM SCT080 06/M02 A3001 780 57 0 240/07 RMK AO2
14837KMSN MSN20021103110510411/03/02 11:05:31  5-MIN KMSN 031705Z 24006KT 10SM FEW050 SCT080 06/M02 A3001 780 57 -100 240/06 RMK AO2
14837KMSN MSN20021103111010111/03/02 11:10:31  5-MIN KMSN 031710Z 24007KT 10SM SCT050 BKN080 06/M02 A3001 780 55 0 240/07 RMK AO2
14837KMSN MSN20021103111510111/03/02 11:15:31  5-MIN KMSN 031715Z 23004KT 10SM BKN050 BKN080 07/M02 A3000 790 55 0 230/04 RMK AO2
14837KMSN MSN20021103112011911/03/02 11:20:31  5-MIN KMSN 031720Z 23007KT 200V280 10SM BKN050 BKN080 07/M02 A3000 790 53 100 230/07 200V280 RMK AO2
14837KMSN MSN20021103112510111/03/02 11:25:31  5-MIN KMSN 031725Z 22009KT 10SM BKN050 OVC080 07/M02 A3000 790 53 0 220/09 RMK AO2
14837KMSN MSN20021103113009411/03/02 11:30:31  5-MIN KMSN 031730Z 21008KT 10SM OVC050 07/M02 A3000 790 53 0 210/08 RMK AO2
14837KMSN MSN20021103113511011/03/02 11:35:31  5-MIN KMSN 031735Z 22007KT 170V270 10SM OVC050 07/M02 A3000 790 53 0 220/07 170V270 RMK AO2
14837KMSN MSN20021103114009411/03/02 11:40:31  5-MIN KMSN 031740Z 23009KT 10SM OVC050 07/M02 A3000 790 53 0 230/09 RMK AO2
14837KMSN MSN20021103114509411/03/02 11:45:31  5-MIN KMSN 031745Z 22008KT 10SM OVC050 07/M02 A3000 790 53 0 220/08 RMK AO2
14837KMSN MSN20021103115012911/03/02 11:50:31  5-MIN KMSN 031750Z 21006KT 10SM OVC050 07/M02 A2999 800 53 0 200/06 RMK AO2 SLP166 T00671022 10072 21067 58001
14837KMSN MSN20021103115509411/03/02 11:55:31  5-MIN KMSN 031755Z 22008KT 10SM OVC050 07/M02 A2999 800 53 0 220/08 RMK AO2
14837KMSN MSN20021103120009411/03/02 12:00:31  5-MIN KMSN 031800Z 22007KT 10SM OVC050 07/M02 A2999 800 53 0 220/07 RMK AO2
14837KMSN MSN20021103120509611/03/02 12:05:31  5-MIN KMSN 031805Z 23006KT 10SM OVC050 07/M02 A2999 800 51 100 230/06 RMK AO2
14837KMSN MSN20021103121009611/03/02 12:10:31  5-MIN KMSN 031810Z 20006KT 10SM OVC050 07/M02 A2998 810 53 100 200/06 RMK AO2
14837KMSN MSN20021103121509611/03/02 12:15:31  5-MIN KMSN 031815Z VRB05KT 10SM OVC055 07/M02 A2998 810 51 100 VRB/05 RMK AO2
14837KMSN MSN20021103122011211/03/02 12:20:31  5-MIN KMSN 031820Z 24008KT 210V270 10SM OVC050 07/M02 A2998 810 53 100 240/08 210V270 RMK AO2
14837KMSN MSN20021103122509611/03/02 12:25:31  5-MIN KMSN 031825Z 22006KT 10SM OVC050 07/M02 A2997 810 51 100 220/06 RMK AO2
14837KMSN MSN20021103123009611/03/02 12:30:31  5-MIN KMSN 031830Z 23006KT 10SM OVC050 07/M02 A2997 820 51 100 230/06 RMK AO2
14837KMSN MSN20021103123509411/03/02 12:35:31  5-MIN KMSN 031835Z VRB05KT 10SM OVC050 07/M02 A2997 820 53 0 VRB/05 RMK AO2
14837KMSN MSN20021103124009611/03/02 12:40:31  5-MIN KMSN 031840Z VRB05KT 10SM OVC050 07/M02 A2997 820 51 100 VRB/05 RMK AO2
14837KMSN MSN20021103140509611/03/02 14:05:31  5-MIN KMSN 032005Z 22006KT 10SM OVC048 07/M01 A2994 840 57 100 220/06 RMK AO2
14837KMSN MSN20021103141009611/03/02 14:10:31  5-MIN KMSN 032010Z 23009KT 10SM OVC048 07/M02 A2994 850 55 100 230/09 RMK AO2
14837KMSN MSN20021103141509611/03/02 14:15:31  5-MIN KMSN 032015Z 22009KT 10SM OVC048 07/M02 A2994 850 55 100 220/09 RMK AO2
14837KMSN MSN20021103142009611/03/02 14:20:31  5-MIN KMSN 032020Z 22007KT 10SM OVC048 07/M02 A2994 850 55 100 220/07 RMK AO2
14837KMSN MSN20021103142511211/03/02 14:25:31  5-MIN KMSN 032025Z 23007KT 190V260 10SM OVC048 07/M02 A2994 840 55 100 230/07 190V260 RMK AO2
14837KMSN MSN20021103143009611/03/02 14:30:31  5-MIN KMSN 032030Z 23008KT 10SM OVC048 07/M02 A2994 840 55 100 230/08 RMK AO2
14837KMSN MSN20021103143510211/03/02 14:35:31  5-MIN KMSN 032035Z 22007G14KT 10SM OVC048 07/M02 A2994 840 55 100 220/07G14 RMK AO2
14837KMSN MSN20021103144010211/03/02 14:40:31  5-MIN KMSN 032040Z 23007G14KT 10SM OVC046 07/M02 A2994 850 55 100 230/07G14 RMK AO2
14837KMSN MSN20021103144509611/03/02 14:45:31  5-MIN KMSN 032045Z 22004KT 10SM OVC046 07/M02 A2994 850 55 100 210/04 RMK AO2
14837KMSN MSN20021103145011911/03/02 14:50:31  5-MIN KMSN 032050Z 22008KT 10SM OVC046 07/M02 A2994 850 53 100 220/08 RMK AO2 SLP148 T00671022 56019
14837KMSN MSN20021103145509411/03/02 14:55:31  5-MIN KMSN 032055Z 21008KT 10SM OVC046 06/M02 A2994 840 55 0 210/08 RMK AO2
14837KMSN MSN20021103150009411/03/02 15:00:31  5-MIN KMSN 032100Z 22007KT 10SM OVC044 06/M02 A2994 840 55 0 220/07 RMK AO2
14837KMSN MSN20021103150509411/03/02 15:05:31  5-MIN KMSN 032105Z 22010KT 10SM OVC044 06/M02 A2994 840 55 0 220/10 RMK AO2
14837KMSN MSN20021103151009411/03/02 15:10:31  5-MIN KMSN 032110Z 23008KT 10SM OVC044 06/M02 A2994 840 55 0 230/08 RMK AO2
14837KMSN MSN20021103151509411/03/02 15:15:31  5-MIN KMSN 032115Z 22009KT 10SM OVC044 06/M02 A2994 840 55 0 220/09 RMK AO2
14837KMSN MSN20021103152010111/03/02 15:20:31  5-MIN KMSN 032120Z 22008KT 10SM BKN044 OVC050 06/M02 A2994 850 55 0 220/08 RMK AO2
14837KMSN MSN20021103152510111/03/02 15:25:31  5-MIN KMSN 032125Z 23005KT 10SM BKN044 OVC050 06/M02 A2994 840 55 0 230/05 RMK AO2
14837KMSN MSN20021103153010111/03/02 15:30:31  5-MIN KMSN 032130Z 22009KT 10SM SCT044 OVC050 06/M02 A2994 850 57 0 220/09 RMK AO2
14837KMSN MSN20021103153510111/03/02 15:35:31  5-MIN KMSN 032135Z 22009KT 10SM FEW044 OVC050 06/M02 A2994 850 57 0 210/09 RMK AO2
14837KMSN MSN20021103154011011/03/02 15:40:31  5-MIN KMSN 032140Z 22007KT 190V260 10SM OVC050 06/M02 A2994 850 57 0 220/07 190V260 RMK AO2
14837KMSN MSN20021103154509411/03/02 15:45:31  5-MIN KMSN 032145Z 22005KT 10SM OVC050 06/M02 A2994 850 59 0 220/05 RMK AO2
14837KMSN MSN20021103155011111/03/02 15:50:31  5-MIN KMSN 032150Z 22007KT 10SM OVC050 06/M02 A2994 850 59 0 220/07 RMK AO2 SLP148 T00561017
14837KMSN MSN20021103155509411/03/02 15:55:31  5-MIN KMSN 032155Z 22007KT 10SM OVC050 06/M02 A2994 850 57 0 220/07 RMK AO2
14837KMSN MSN20021103160009411/03/02 16:00:31  5-MIN KMSN 032200Z 21007KT 10SM OVC050 06/M02 A2994 850 57 0 210/07 RMK AO2
14837KMSN MSN20021103160509411/03/02 16:05:31  5-MIN KMSN 032205Z 22009KT 10SM OVC050 06/M02 A2994 850 57 0 220/09 RMK AO2
14837KMSN MSN20021103161009411/03/02 16:10:31  5-MIN KMSN 032210Z 22006KT 10SM OVC050 06/M02 A2994 850 59 0 220/06 RMK AO2
14837KMSN MSN20021103161509411/03/02 16:15:31  5-MIN KMSN 032215Z 22007KT 10SM OVC050 06/M02 A2994 850 59 0 220/07 RMK AO2
14837KMSN MSN20021103162009411/03/02 16:20:31  5-MIN KMSN 032220Z 21010KT 10SM OVC050 06/M02 A2993 850 57 0 210/10 RMK AO2
14837KMSN MSN20021103162509411/03/02 16:25:31  5-MIN KMSN 032225Z 22007KT 10SM OVC050 06/M02 A2993 850 57 0 220/07 RMK AO2
14837KMSN MSN20021103163009411/03/02 16:30:31  5-MIN KMSN 032230Z 21010KT 10SM OVC050 06/M02 A2993 850 57 0 210/10 RMK AO2
14837KMSN MSN20021103163509411/03/02 16:35:31  5-MIN KMSN 032235Z 22006KT 10SM OVC050 06/M02 A2993 850 57 0 220/06 RMK AO2
14837KMSN MSN20021103164009411/03/02 16:40:31  5-MIN KMSN 032240Z 22007KT 10SM OVC050 06/M02 A2993 850 57 0 220/07 RMK AO2
14837KMSN MSN20021103164509411/03/02 16:45:31  5-MIN KMSN 032245Z 21010KT 10SM OVC050 06/M02 A2993 850 57 0 210/10 RMK AO2
14837KMSN MSN20021103165011111/03/02 16:50:31  5-MIN KMSN 032250Z 23008KT 10SM OVC050 06/M02 A2993 850 57 0 230/08 RMK AO2 SLP146 T00561022
14837KMSN MSN20021103165509411/03/02 16:55:31  5-MIN KMSN 032255Z 22009KT 10SM OVC050 06/M02 A2993 850 57 0 220/09 RMK AO2
14837KMSN MSN20021103170009411/03/02 17:00:31  5-MIN KMSN 032300Z 22006KT 10SM OVC050 06/M02 A2993 850 57 0 220/06 RMK AO2
14837KMSN MSN20021103170509411/03/02 17:05:31  5-MIN KMSN 032305Z 22007KT 10SM OVC050 06/M02 A2994 850 57 0 220/07 RMK AO2
14837KMSN MSN20021103171009411/03/02 17:10:31  5-MIN KMSN 032310Z 21007KT 10SM OVC050 06/M02 A2994 850 57 0 210/07 RMK AO2
14837KMSN MSN20021103171509411/03/02 17:15:31  5-MIN KMSN 032315Z 23009KT 10SM OVC050 06/M02 A2994 850 57 0 230/09 RMK AO2
14837KMSN MSN20021103172009411/03/02 17:20:31  5-MIN KMSN 032320Z 22008KT 10SM OVC050 06/M02 A2994 850 57 0 220/08 RMK AO2
14837KMSN MSN20021103172509411/03/02 17:25:31  5-MIN KMSN 032325Z 22006KT 10SM OVC050 06/M02 A2994 850 59 0 220/06 RMK AO2
14837KMSN MSN20021103173009411/03/02 17:30:31  5-MIN KMSN 032330Z 22006KT 10SM OVC050 06/M02 A2994 850 57 0 220/06 RMK AO2
14837KMSN MSN20021103173509411/03/02 17:35:31  5-MIN KMSN 032335Z 22007KT 10SM OVC050 06/M02 A2994 850 59 0 220/07 RMK AO2
14837KMSN MSN20021103174009411/03/02 17:40:31  5-MIN KMSN 032340Z 23006KT 10SM OVC050 06/M02 A2994 840 59 0 230/06 RMK AO2
14837KMSN MSN20021103174509711/03/02 17:45:31  5-MIN KMSN 032345Z 22006KT 10SM OVC050 05/M02 A2994 850 62 -100 220/06 RMK AO2
14837KMSN MSN20021103175013211/03/02 17:50:31  5-MIN KMSN 032350Z VRB05KT 10SM SCT050 05/M02 A2994 840 59 -100 VRB/05 RMK AO2 SLP149 T00501022 10072 20050 56017
14837KMSN MSN20021103175509711/03/02 17:55:31  5-MIN KMSN 032355Z 22006KT 10SM SCT048 05/M02 A2994 840 59 -100 220/06 RMK AO2
14837KMSN MSN20021103180009711/03/02 18:00:31  5-MIN KMSN 040000Z 23006KT 10SM SCT048 05/M02 A2994 840 59 -100 220/06 RMK AO2
14837KMSN MSN20021103180509711/03/02 18:05:31  5-MIN KMSN 040005Z 22007KT 10SM SCT048 05/M03 A2994 840 57 -100 220/07 RMK AO2
14837KMSN MSN20021103181009711/03/02 18:10:31  5-MIN KMSN 040010Z 23005KT 10SM SCT048 04/M03 A2995 840 59 -100 230/05 RMK AO2
14837KMSN MSN20021103181509711/03/02 18:15:31  5-MIN KMSN 040015Z 23007KT 10SM FEW048 05/M03 A2995 840 57 -100 230/07 RMK AO2
14837KMSN MSN20021103182009711/03/02 18:20:31  5-MIN KMSN 040020Z 23008KT 10SM FEW048 05/M03 A2995 840 57 -100 230/08 RMK AO2
14837KMSN MSN20021103182509711/03/02 18:25:31  5-MIN KMSN 040025Z VRB06KT 10SM FEW048 04/M03 A2995 840 59 -100 VRB/06 RMK AO2
14837KMSN MSN20021103183009711/03/02 18:30:31  5-MIN KMSN 040030Z 23006KT 10SM FEW048 04/M03 A2995 840 59 -100 230/06 RMK AO2
14837KMSN MSN20021103183509711/03/02 18:35:31  5-MIN KMSN 040035Z 23008KT 10SM FEW048 04/M02 A2995 840 62 -100 230/08 RMK AO2
14837KMSN MSN20021103184009711/03/02 18:40:31  5-MIN KMSN 040040Z 22010KT 10SM FEW048 04/M03 A2995 840 59 -100 220/10 RMK AO2
14837KMSN MSN20021103184509711/03/02 18:45:31  5-MIN KMSN 040045Z 21008KT 10SM FEW048 04/M02 A2995 840 62 -100 210/08 RMK AO2
14837KMSN MSN20021103185011111/03/02 18:50:31  5-MIN KMSN 040050Z 22008KT 10SM CLR 04/M02 A2995 840 62 -100 220/08 RMK AO2 SLP151 T00441022
14837KMSN MSN20021103185510011/03/02 18:55:31  5-MIN KMSN 040055Z 22009G15KT 10SM CLR 04/M03 A2995 840 59 -100 210/09G15 RMK AO2
14837KMSN MSN20021103190010011/03/02 19:00:31  5-MIN KMSN 040100Z 21008G15KT 10SM CLR 04/M02 A2995 840 62 -100 210/08G15 RMK AO2
14837KMSN MSN20021103190509411/03/02 19:05:31  5-MIN KMSN 040105Z 21007KT 10SM CLR 04/M02 A2995 840 62 -100 210/07 RMK AO2
14837KMSN MSN20021103191009411/03/02 19:10:31  5-MIN KMSN 040110Z 22008KT 10SM CLR 04/M02 A2994 840 62 -100 210/08 RMK AO2
14837KMSN MSN20021103191509411/03/02 19:15:31  5-MIN KMSN 040115Z 21008KT 10SM CLR 04/M02 A2994 840 62 -100 210/08 RMK AO2
14837KMSN MSN20021103192009411/03/02 19:20:31  5-MIN KMSN 040120Z 22007KT 10SM CLR 04/M02 A2994 840 64 -200 220/07 RMK AO2
14837KMSN MSN20021103192509411/03/02 19:25:31  5-MIN KMSN 040125Z 21008KT 10SM CLR 04/M02 A2994 850 64 -200 210/08 RMK AO2
14837KMSN MSN20021103193009411/03/02 19:30:31  5-MIN KMSN 040130Z VRB06KT 10SM CLR 04/M02 A2994 850 64 -200 VRB/06 RMK AO2
14837KMSN MSN20021103193509411/03/02 19:35:31  5-MIN KMSN 040135Z 22008KT 10SM CLR 04/M02 A2994 850 64 -200 210/08 RMK AO2
14837KMSN MSN20021103194009411/03/02 19:40:31  5-MIN KMSN 040140Z 22007KT 10SM CLR 04/M02 A2994 850 64 -200 220/07 RMK AO2
14837KMSN MSN20021103194509411/03/02 19:45:31  5-MIN KMSN 040145Z 21008KT 10SM CLR 04/M02 A2994 850 64 -200 210/08 RMK AO2
14837KMSN MSN20021103195011011/03/02 19:50:31  5-MIN KMSN 040150Z 22008KT 9SM CLR 04/M02 A2994 850 64 -200 220/08 RMK AO2 SLP147 T00391022
14837KMSN MSN20021103195509411/03/02 19:55:31  5-MIN KMSN 040155Z 22007KT 10SM CLR 04/M02 A2994 850 64 -200 220/07 RMK AO2
14837KMSN MSN20021103200010011/03/02 20:00:31  5-MIN KMSN 040200Z 21007G15KT 10SM CLR 04/M02 A2994 850 64 -200 210/07G15 RMK AO2
14837KMSN MSN20021103200510011/03/02 20:05:31  5-MIN KMSN 040205Z VRB06G15KT 10SM CLR 03/M02 A2994 840 67 -300 VRB/06G15 RMK AO2
14837KMSN MSN20021103201009411/03/02 20:10:31  5-MIN KMSN 040210Z 21006KT 10SM CLR 03/M02 A2994 850 67 -300 210/06 RMK AO2
14837KMSN MSN20021103201509411/03/02 20:15:31  5-MIN KMSN 040215Z 22008KT 10SM CLR 03/M02 A2994 850 67 -300 220/08 RMK AO2
14837KMSN MSN20021103202009411/03/02 20:20:31  5-MIN KMSN 040220Z 22009KT 10SM CLR 03/M02 A2994 850 67 -300 220/09 RMK AO2
14837KMSN MSN20021103202509411/03/02 20:25:31  5-MIN KMSN 040225Z 22009KT 10SM CLR 03/M02 A2994 850 67 -300 220/09 RMK AO2
14837KMSN MSN20021103203009711/03/02 20:30:31  5-MIN KMSN 040230Z 21008KT 10SM FEW042 03/M02 A2994 850 67 -300 210/08 RMK AO2
14837KMSN MSN20021103203509711/03/02 20:35:31  5-MIN KMSN 040235Z 21007KT 10SM SCT042 03/M02 A2994 850 67 -300 210/07 RMK AO2
14837KMSN MSN20021103204009711/03/02 20:40:31  5-MIN KMSN 040240Z 21009KT 10SM SCT042 03/M02 A2994 850 67 -300 210/09 RMK AO2
14837KMSN MSN20021103204509711/03/02 20:45:31  5-MIN KMSN 040245Z 21008KT 10SM SCT042 03/M02 A2994 850 67 -300 210/08 RMK AO2
14837KMSN MSN20021103205012011/03/02 20:50:31  5-MIN KMSN 040250Z 22009KT 10SM FEW042 03/M02 A2994 850 67 -300 220/09 RMK AO2 SLP144 T00331022 53000
14837KMSN MSN20021103205509611/03/02 20:55:31  5-MIN KMSN 040255Z 21008KT 9SM FEW042 03/M02 A2993 850 67 -300 210/08 RMK AO2
14837KMSN MSN20021103210010311/03/02 21:00:31  5-MIN KMSN 040300Z 21008G16KT 10SM FEW042 03/M02 A2994 850 67 -300 210/08G16 RMK AO2
14837KMSN MSN20021103210510311/03/02 21:05:31  5-MIN KMSN 040305Z 22010G16KT 10SM FEW042 03/M02 A2994 850 72 -300 220/10G16 RMK AO2
14837KMSN MSN20021103211009711/03/02 21:10:31  5-MIN KMSN 040310Z 21008KT 10SM FEW042 03/M02 A2994 850 70 -300 210/08 RMK AO2
14837KMSN MSN20021103211509711/03/02 21:15:31  5-MIN KMSN 040315Z 22009KT 10SM FEW042 03/M02 A2994 850 67 -300 220/09 RMK AO2
14837KMSN MSN20021103212009711/03/02 21:20:31  5-MIN KMSN 040320Z 22009KT 10SM FEW042 03/M02 A2994 850 72 -300 220/09 RMK AO2
14837KMSN MSN20021103212509711/03/02 21:25:31  5-MIN KMSN 040325Z 23008KT 10SM FEW042 03/M02 A2994 850 70 -300 230/08 RMK AO2
14837KMSN MSN20021103213009711/03/02 21:30:31  5-MIN KMSN 040330Z 22007KT 10SM FEW042 03/M01 A2994 850 72 -300 220/07 RMK AO2
14837KMSN MSN20021103213509411/03/02 21:35:31  5-MIN KMSN 040335Z 22007KT 10SM CLR 03/M01 A2994 850 75 -300 210/07 RMK AO2
14837KMSN MSN20021103214009411/03/02 21:40:31  5-MIN KMSN 040340Z 22006KT 10SM CLR 03/M01 A2994 840 72 -300 220/06 RMK AO2
14837KMSN MSN20021103214511011/03/02 21:45:31  5-MIN KMSN 040345Z 24009KT 210V280 10SM CLR 03/M01 A2994 840 72 -300 240/09 210V280 RMK AO2
14837KMSN MSN20021103215011411/03/02 21:50:31  5-MIN KMSN 040350Z 23008KT 10SM FEW042 03/M01 A2994 840 75 -300 230/08 RMK AO2 SLP148 T00281011
14837KMSN MSN20021103215509711/03/02 21:55:31  5-MIN KMSN 040355Z 23006KT 10SM FEW042 03/M01 A2994 840 75 -300 230/06 RMK AO2
14837KMSN MSN20021103220011311/03/02 22:00:31  5-MIN KMSN 040400Z 23007KT 200V260 10SM FEW042 03/M01 A2994 840 75 -300 230/07 200V260 RMK AO2
14837KMSN MSN20021103220509711/03/02 22:05:31  5-MIN KMSN 040405Z 24006KT 10SM FEW042 03/M01 A2994 840 75 -300 240/06 RMK AO2
14837KMSN MSN20021103221009711/03/02 22:10:31  5-MIN KMSN 040410Z 24006KT 10SM FEW042 03/M01 A2995 840 75 -300 240/06 RMK AO2
14837KMSN MSN20021103221509711/03/02 22:15:31  5-MIN KMSN 040415Z VRB05KT 10SM FEW042 03/M01 A2994 840 75 -300 VRB/05 RMK AO2
14837KMSN MSN20021103222009711/03/02 22:20:31  5-MIN KMSN 040420Z 24006KT 10SM FEW042 03/M01 A2994 840 75 -300 240/06 RMK AO2
14837KMSN MSN20021103222509711/03/02 22:25:31  5-MIN KMSN 040425Z 25006KT 10SM FEW042 03/M01 A2994 840 75 -300 250/06 RMK AO2
14837KMSN MSN20021103223011311/03/02 22:30:31  5-MIN KMSN 040430Z 24007KT 210V280 10SM FEW042 03/M01 A2994 840 75 -300 240/07 210V280 RMK AO2
14837KMSN MSN20021103223509711/03/02 22:35:31  5-MIN KMSN 040435Z VRB04KT 10SM FEW042 02/M01 A2994 840 78 -400 VRB/04 RMK AO2
14837KMSN MSN20021103224009311/03/02 22:40:31  5-MIN KMSN 040440Z VRB04KT 8SM CLR 02/M01 A2995 840 78 -400 VRB/04 RMK AO2
14837KMSN MSN20021103224509311/03/02 22:45:31  5-MIN KMSN 040445Z 26005KT 8SM CLR 02/M02 A2995 840 75 -400 260/05 RMK AO2
14837KMSN MSN20021103225011011/03/02 22:50:31  5-MIN KMSN 040450Z 25004KT 8SM CLR 02/M02 A2995 840 75 -400 250/04 RMK AO2 SLP147 T00221017
14837KMSN MSN20021103225509311/03/02 22:55:31  5-MIN KMSN 040455Z VRB05KT 8SM CLR 02/M02 A2995 840 75 -400 VRB/05 RMK AO2
14837KMSN MSN20021103230009311/03/02 23:00:31  5-MIN KMSN 040500Z VRB05KT 8SM CLR 02/M02 A2995 840 75 -400 VRB/05 RMK AO2
14837KMSN MSN20021103230509311/03/02 23:05:31  5-MIN KMSN 040505Z VRB03KT 8SM CLR 02/M02 A2995 840 78 -500 VRB/03 RMK AO2
14837KMSN MSN20021103231009311/03/02 23:10:31  5-MIN KMSN 040510Z VRB04KT 8SM CLR 02/M02 A2995 840 78 -500 VRB/04 RMK AO2
14837KMSN MSN20021103231509311/03/02 23:15:31  5-MIN KMSN 040515Z VRB05KT 8SM CLR 02/M02 A2995 840 78 -500 VRB/05 RMK AO2
14837KMSN MSN20021103232009311/03/02 23:20:31  5-MIN KMSN 040520Z VRB05KT 8SM CLR 02/M02 A2995 840 78 -500 VRB/05 RMK AO2
14837KMSN MSN20021103232509311/03/02 23:25:31  5-MIN KMSN 040525Z VRB05KT 8SM CLR 02/M02 A2995 830 78 -500 VRB/05 RMK AO2
14837KMSN MSN20021103233009311/03/02 23:30:31  5-MIN KMSN 040530Z 24005KT 8SM CLR 02/M02 A2995 830 78 -500 240/05 RMK AO2
14837KMSN MSN20021103233509311/03/02 23:35:31  5-MIN KMSN 040535Z VRB05KT 8SM CLR 02/M02 A2996 830 78 -500 VRB/05 RMK AO2
14837KMSN MSN20021103234009311/03/02 23:40:31  5-MIN KMSN 040540Z 25004KT 8SM CLR 02/M02 A2996 830 78 -500 250/04 RMK AO2
14837KMSN MSN20021103234509311/03/02 23:45:31  5-MIN KMSN 040545Z VRB04KT 8SM CLR 02/M02 A2996 830 78 -500 VRB/04 RMK AO2
14837KMSN MSN20021103235013811/03/02 23:50:31  5-MIN KMSN 040550Z VRB05KT 8SM CLR 02/M02 A2996 830 78 -500 VRB/05 RMK AO2 SLP151 T00171017 10050 20017 400721067 58002
14837KMSN MSN20021103235509311/03/02 23:55:31  5-MIN KMSN 040555Z VRB04KT 8SM CLR 02/M02 A2996 830 78 -500 VRB/04 RMK AO2
14837KMSN MSN20021104000009311/04/02 00:00:31  5-MIN KMSN 040600Z VRB04KT 7SM CLR 02/M02 A2996 830 75 -500 VRB/04 RMK AO2
14837KMSN MSN20021104000509311/04/02 00:05:31  5-MIN KMSN 040605Z 26005KT 7SM CLR 01/M02 A2996 830 78 -600 260/05 RMK AO2
14837KMSN MSN20021104001009311/04/02 00:10:31  5-MIN KMSN 040610Z 25005KT 7SM CLR 01/M02 A2996 820 78 -600 250/05 RMK AO2
14837KMSN MSN20021104001509311/04/02 00:15:31  5-MIN KMSN 040615Z 25005KT 7SM CLR 01/M02 A2996 820 78 -600 250/05 RMK AO2
14837KMSN MSN20021104002009311/04/02 00:20:31  5-MIN KMSN 040620Z VRB04KT 7SM CLR 01/M02 A2997 820 78 -600 VRB/04 RMK AO2
14837KMSN MSN20021104002509311/04/02 00:25:31  5-MIN KMSN 040625Z 27004KT 8SM CLR 01/M02 A2997 820 82 -700 270/04 RMK AO2
14837KMSN MSN20021104003009311/04/02 00:30:31  5-MIN KMSN 040630Z 27003KT 8SM CLR 01/M02 A2997 820 82 -700 270/03 RMK AO2
14837KMSN MSN20021104003509311/04/02 00:35:31  5-MIN KMSN 040635Z VRB03KT 8SM CLR 01/M02 A2997 820 82 -700 VRB/03 RMK AO2
14837KMSN MSN20021104004009311/04/02 00:40:31  5-MIN KMSN 040640Z VRB04KT 7SM CLR 00/M02 A2998 810 85 -700 VRB/04 RMK AO2
14837KMSN MSN20021104004509311/04/02 00:45:31  5-MIN KMSN 040645Z VRB03KT 7SM CLR 00/M02 A2998 810 85 -700 VRB/03 RMK AO2
14837KMSN MSN20021104005011011/04/02 00:50:31  5-MIN KMSN 040650Z VRB03KT 7SM CLR 00/M02 A2997 820 85 -700 VRB/03 RMK AO2 SLP157 T00001022
14837KMSN MSN20021104005509311/04/02 00:55:31  5-MIN KMSN 040655Z VRB04KT 7SM CLR 00/M03 A2997 820 81 -700 VRB/04 RMK AO2
14837KMSN MSN20021104010009311/04/02 01:00:31  5-MIN KMSN 040700Z 28004KT 7SM CLR 00/M03 A2997 810 81 -700 270/04 RMK AO2
14837KMSN MSN20021104010509311/04/02 01:05:31  5-MIN KMSN 040705Z 27004KT 7SM CLR 00/M03 A2998 810 81 -700 270/04 RMK AO2
14837KMSN MSN20021104011009311/04/02 01:10:31  5-MIN KMSN 040710Z VRB04KT 7SM CLR 00/M03 A2999 800 81 -700 VRB/04 RMK AO2
14837KMSN MSN20021104011509311/04/02 01:15:31  5-MIN KMSN 040715Z 27004KT 7SM CLR 00/M03 A2999 800 81 -700 270/04 RMK AO2
14837KMSN MSN20021104012009311/04/02 01:20:31  5-MIN KMSN 040720Z 27004KT 7SM CLR 00/M03 A2999 800 81 -700 270/04 RMK AO2
14837KMSN MSN20021104012509311/04/02 01:25:31  5-MIN KMSN 040725Z 27005KT 7SM CLR 00/M03 A2999 800 81 -700 270/05 RMK AO2
14837KMSN MSN20021104013009411/04/02 01:30:31  5-MIN KMSN 040730Z VRB04KT 8SM CLR M01/M03 A2999 800 81 -800 VRB/04 RMK AO2
14837KMSN MSN20021104013509411/04/02 01:35:31  5-MIN KMSN 040735Z 28005KT 8SM CLR M01/M03 A3000 790 81 -800 280/05 RMK AO2
14837KMSN MSN20021104014009411/04/02 01:40:31  5-MIN KMSN 040740Z VRB04KT 8SM CLR M01/M03 A3000 790 81 -800 VRB/04 RMK AO2
14837KMSN MSN20021104014509411/04/02 01:45:31  5-MIN KMSN 040745Z 28004KT 8SM CLR M01/M03 A3000 790 81 -800 280/04 RMK AO2
14837KMSN MSN20021104015011111/04/02 01:50:31  5-MIN KMSN 040750Z 29004KT 8SM CLR M01/M03 A3000 790 81 -800 290/04 RMK AO2 SLP165 T10061033
14837KMSN MSN20021104015509411/04/02 01:55:31  5-MIN KMSN 040755Z 29004KT 8SM CLR M01/M04 A3000 790 81 -900 290/04 RMK AO2
14837KMSN MSN20021104020009411/04/02 02:00:31  5-MIN KMSN 040800Z 31005KT 8SM CLR M01/M04 A3000 790 81 -900 300/05 RMK AO2
14837KMSN MSN20021104020509411/04/02 02:05:31  5-MIN KMSN 040805Z 31005KT 8SM CLR M01/M04 A3000 790 81 -900 300/05 RMK AO2
14837KMSN MSN20021104021009411/04/02 02:10:31  5-MIN KMSN 040810Z 30005KT 8SM CLR M01/M04 A3000 790 81 -900 300/05 RMK AO2
14837KMSN MSN20021104021509411/04/02 02:15:31  5-MIN KMSN 040815Z 32007KT 8SM CLR M01/M04 A3000 790 78 -800 320/07 RMK AO2
14837KMSN MSN20021104022009411/04/02 02:20:31  5-MIN KMSN 040820Z 33006KT 8SM CLR M01/M04 A3000 790 75 -800 330/06 RMK AO2
14837KMSN MSN20021104022509411/04/02 02:25:31  5-MIN KMSN 040825Z 32008KT 9SM CLR M01/M04 A3001 790 75 -800 320/08 RMK AO2
14837KMSN MSN20021104023009411/04/02 02:30:31  5-MIN KMSN 040830Z 32007KT 9SM CLR M01/M04 A3001 790 75 -800 320/07 RMK AO2
14837KMSN MSN20021104023509411/04/02 02:35:31  5-MIN KMSN 040835Z 31007KT 9SM CLR M01/M04 A3001 780 75 -800 310/07 RMK AO2
14837KMSN MSN20021104024009411/04/02 02:40:31  5-MIN KMSN 040840Z 31005KT 9SM CLR M01/M04 A3001 780 75 -800 310/05 RMK AO2
14837KMSN MSN20021104024509411/04/02 02:45:31  5-MIN KMSN 040845Z 30003KT 9SM CLR M01/M04 A3002 770 75 -900 300/03 RMK AO2
14837KMSN MSN20021104025011811/04/02 02:50:31  5-MIN KMSN 040850Z VRB03KT 10SM CLR M01/M04 A3002 770 75 -900 VRB/03 RMK AO2 SLP174 T10061044 53008
14837KMSN MSN20021104025509411/04/02 02:55:31  5-MIN KMSN 040855Z VRB03KT 9SM CLR M01/M04 A3002 770 75 -900 VRB/03 RMK AO2
14837KMSN MSN20021104030009411/04/02 03:00:31  5-MIN KMSN 040900Z 31005KT 9SM CLR M01/M04 A3002 770 78 -900 300/05 RMK AO2
14837KMSN MSN20021104030509411/04/02 03:05:31  5-MIN KMSN 040905Z 30004KT 8SM CLR M01/M04 A3002 770 78 -900 300/04 RMK AO2
14837KMSN MSN20021104031009411/04/02 03:10:31  5-MIN KMSN 040910Z VRB04KT 8SM CLR M01/M04 A3002 770 78 -900 VRB/04 RMK AO2
14837KMSN MSN20021104031509411/04/02 03:15:31  5-MIN KMSN 040915Z 32003KT 8SM CLR M01/M04 A3002 770 78 -900 320/03 RMK AO2
14837KMSN MSN20021104032009411/04/02 03:20:31  5-MIN KMSN 040920Z VRB03KT 8SM CLR M01/M05 A3003 770 75 -900 VRB/03 RMK AO2
14837KMSN MSN20021104032509411/04/02 03:25:31  5-MIN KMSN 040925Z 31003KT 9SM CLR M01/M05 A3003 760 75 -900 310/03 RMK AO2
14837KMSN MSN20021104033009411/04/02 03:30:31  5-MIN KMSN 040930Z 30003KT 9SM CLR M01/M05 A3003 770 75 -900 300/03 RMK AO2
14837KMSN MSN20021104033509411/04/02 03:35:31  5-MIN KMSN 040935Z 31003KT 9SM CLR M01/M05 A3003 770 75 -900 310/03 RMK AO2
14837KMSN MSN20021104034009511/04/02 03:40:31  5-MIN KMSN 040940Z 30004KT 9SM CLR M02/M05 A3003 760 78 -1000 300/04 RMK AO2
14837KMSN MSN20021104034509511/04/02 03:45:31  5-MIN KMSN 040945Z 29005KT 9SM CLR M02/M05 A3004 760 78 -1000 290/05 RMK AO2
14837KMSN MSN20021104035011211/04/02 03:50:31  5-MIN KMSN 040950Z VRB04KT 9SM CLR M02/M06 A3004 760 75 -1000 VRB/04 RMK AO2 SLP180 T10171056
14837KMSN MSN20021104035509511/04/02 03:55:31  5-MIN KMSN 040955Z 31004KT 9SM CLR M02/M06 A3004 750 75 -1000 300/04 RMK AO2
14837KMSN MSN20021104040009511/04/02 04:00:31  5-MIN KMSN 041000Z 30004KT 9SM CLR M02/M06 A3004 750 75 -1000 300/04 RMK AO2
14837KMSN MSN20021104040509511/04/02 04:05:31  5-MIN KMSN 041005Z 30005KT 9SM CLR M02/M06 A3004 750 75 -1000 300/05 RMK AO2
14837KMSN MSN20021104041009511/04/02 04:10:31  5-MIN KMSN 041010Z 30006KT 9SM CLR M02/M06 A3005 750 75 -1000 290/06 RMK AO2
14837KMSN MSN20021104041509511/04/02 04:15:31  5-MIN KMSN 041015Z 29005KT 9SM CLR M02/M06 A3005 740 75 -1000 290/05 RMK AO2
14837KMSN MSN20021104042009511/04/02 04:20:31  5-MIN KMSN 041020Z 29006KT 9SM CLR M02/M06 A3005 740 75 -1000 290/06 RMK AO2
14837KMSN MSN20021104042509511/04/02 04:25:31  5-MIN KMSN 041025Z 30006KT 9SM CLR M02/M06 A3005 740 75 -1000 300/06 RMK AO2
14837KMSN MSN20021104043009511/04/02 04:30:31  5-MIN KMSN 041030Z 30006KT 9SM CLR M02/M06 A3006 740 75 -1000 300/06 RMK AO2
14837KMSN MSN20021104043509511/04/02 04:35:31  5-MIN KMSN 041035Z 30006KT 9SM CLR M02/M06 A3006 740 75 -1000 300/06 RMK AO2
14837KMSN MSN20021104044009511/04/02 04:40:31  5-MIN KMSN 041040Z 30005KT 9SM CLR M02/M06 A3005 740 78 -1100 300/05 RMK AO2
14837KMSN MSN20021104044509511/04/02 04:45:31  5-MIN KMSN 041045Z 30006KT 9SM CLR M02/M06 A3005 740 72 -1000 300/06 RMK AO2
14837KMSN MSN20021104045011211/04/02 04:50:31  5-MIN KMSN 041050Z 31005KT 9SM CLR M02/M06 A3005 740 75 -1100 310/05 RMK AO2 SLP185 T10221061
14837KMSN MSN20021104045509511/04/02 04:55:31  5-MIN KMSN 041055Z 30006KT 9SM CLR M02/M06 A3006 740 72 -1000 300/06 RMK AO2
14837KMSN MSN20021104050009511/04/02 05:00:31  5-MIN KMSN 041100Z 31006KT 9SM CLR M02/M06 A3006 740 75 -1100 300/06 RMK AO2
14837KMSN MSN20021104050509511/04/02 05:05:31  5-MIN KMSN 041105Z 30005KT 9SM CLR M02/M06 A3006 740 75 -1100 300/05 RMK AO2
14837KMSN MSN20021104051009511/04/02 05:10:31  5-MIN KMSN 041110Z 30004KT 9SM CLR M02/M06 A3006 730 75 -1100 300/04 RMK AO2
14837KMSN MSN20021104051509611/04/02 05:15:31  5-MIN KMSN 041115Z 29004KT 10SM CLR M02/M06 A3006 730 75 -1100 290/04 RMK AO2
14837KMSN MSN20021104052009611/04/02 05:20:31  5-MIN KMSN 041120Z 31004KT 10SM CLR M02/M06 A3006 730 75 -1100 300/04 RMK AO2
14837KMSN MSN20021104052509611/04/02 05:25:31  5-MIN KMSN 041125Z 32005KT 10SM CLR M02/M06 A3006 730 75 -1100 310/05 RMK AO2
14837KMSN MSN20021104053009611/04/02 05:30:31  5-MIN KMSN 041130Z 31005KT 10SM CLR M03/M06 A3006 730 78 -1200 310/05 RMK AO2
14837KMSN MSN20021104053509611/04/02 05:35:31  5-MIN KMSN 041135Z 32004KT 10SM CLR M02/M06 A3006 730 75 -1100 320/04 RMK AO2
14837KMSN MSN20021104054009611/04/02 05:40:31  5-MIN KMSN 041140Z 00000KT 10SM CLR M02/M06 A3006 730 75 -1100 000/00 RMK AO2
14837KMSN MSN20021104054509611/04/02 05:45:31  5-MIN KMSN 041145Z 31004KT 10SM CLR M02/M06 A3006 730 75 -1100 300/04 RMK AO2
14837KMSN MSN20021104055013411/04/02 05:50:31  5-MIN KMSN 041150Z 32005KT 10SM FEW027 M03/M07 A3006 730 75 -1200 320/05 RMK AO2 SLP189 T10281067 10017 21028 53021
14837KMSN MSN20021104055509911/04/02 05:55:31  5-MIN KMSN 041155Z 32005KT 10SM SCT027 M03/M07 A3006 730 75 -1200 320/05 RMK AO2
14837KMSN MSN20021104060009911/04/02 06:00:31  5-MIN KMSN 041200Z 34004KT 10SM SCT027 M02/M06 A3006 730 75 -1100 340/04 RMK AO2
14837KMSN MSN20021104060509911/04/02 06:05:31  5-MIN KMSN 041205Z 31005KT 10SM SCT027 M03/M07 A3007 730 75 -1200 310/05 RMK AO2
14837KMSN MSN20021104061009911/04/02 06:10:31  5-MIN KMSN 041210Z 00000KT 10SM BKN027 M02/M07 A3007 720 72 -1100 000/00 RMK AO2
14837KMSN MSN20021104061509911/04/02 06:15:31  5-MIN KMSN 041215Z 31004KT 10SM BKN027 M03/M07 A3007 730 74 -1300 310/04 RMK AO2
14837KMSN MSN20021104062009911/04/02 06:20:31  5-MIN KMSN 041220Z 32004KT 10SM BKN027 M03/M07 A3007 730 75 -1200 320/04 RMK AO2
14837KMSN MSN20021104062509911/04/02 06:25:31  5-MIN KMSN 041225Z VRB03KT 10SM BKN027 M03/M06 A3007 720 78 -1200 VRB/03 RMK AO2
14837KMSN MSN20021104063009911/04/02 06:30:31  5-MIN KMSN 041230Z 30003KT 10SM BKN027 M03/M07 A3008 720 78 -1300 300/03 RMK AO2
14837KMSN MSN20021104063509911/04/02 06:35:31  5-MIN KMSN 041235Z 30004KT 10SM BKN027 M03/M06 A3008 710 78 -1200 290/04 RMK AO2
14837KMSN MSN20021104064010611/04/02 06:40:31  5-MIN KMSN 041240Z 27003KT 10SM BKN027 M02/M06 A3009 710 75 -1100 270/03 RMK AO2 PRESRR
14837KMSN MSN20021104064509911/04/02 06:45:31  5-MIN KMSN 041245Z 00000KT 10SM BKN027 M02/M06 A3009 710 75 -1100 000/00 RMK AO2
14837KMSN MSN20021104065011611/04/02 06:50:31  5-MIN KMSN 041250Z 00000KT 10SM BKN027 M02/M06 A3009 710 75 -1100 000/00 RMK AO2 SLP198 T10171056
14837KMSN MSN20021104065509911/04/02 06:55:31  5-MIN KMSN 041255Z 00000KT 10SM BKN027 M02/M06 A3009 710 75 -1100 000/00 RMK AO2
14837KMSN MSN20021104070009911/04/02 07:00:31  5-MIN KMSN 041300Z 00000KT 10SM BKN027 M02/M06 A3009 710 78 -1100 000/00 RMK AO2
14837KMSN MSN20021104070509911/04/02 07:05:31  5-MIN KMSN 041305Z 00000KT 10SM BKN027 M02/M06 A3009 700 78 -1100 000/00 RMK AO2
14837KMSN MSN20021104071009911/04/02 07:10:31  5-MIN KMSN 041310Z 00000KT 10SM BKN027 M02/M06 A3010 700 78 -1100 000/00 RMK AO2
14837KMSN MSN20021104071509911/04/02 07:15:31  5-MIN KMSN 041315Z 00000KT 10SM BKN027 M02/M06 A3009 700 78 -1100 000/00 RMK AO2
14837KMSN MSN20021104072009911/04/02 07:20:31  5-MIN KMSN 041320Z 00000KT 10SM BKN027 M02/M06 A3010 700 75 -1100 000/00 RMK AO2
14837KMSN MSN20021104072509911/04/02 07:25:31  5-MIN KMSN 041325Z 31003KT 10SM BKN027 M02/M05 A3009 710 78 -1100 310/03 RMK AO2
14837KMSN MSN20021104073009911/04/02 07:30:31  5-MIN KMSN 041330Z 02003KT 10SM BKN027 M02/M04 A3009 700 81 -1100 020/03 RMK AO2
14837KMSN MSN20021104073509911/04/02 07:35:31  5-MIN KMSN 041335Z VRB03KT 10SM BKN027 M02/M04 A3010 700 81 -1100 VRB/03 RMK AO2
14837KMSN MSN20021104074009911/04/02 07:40:31  5-MIN KMSN 041340Z 00000KT 10SM BKN027 M02/M04 A3010 700 81 -1100 000/00 RMK AO2
14837KMSN MSN20021104074509911/04/02 07:45:31  5-MIN KMSN 041345Z 00000KT 10SM OVC027 M01/M04 A3010 700 78 -1000 000/00 RMK AO2
14837KMSN MSN20021104075011611/04/02 07:50:31  5-MIN KMSN 041350Z 00000KT 10SM OVC027 M01/M04 A3011 690 81 -1000 000/00 RMK AO2 SLP203 T10111039
14837KMSN MSN20021104075509811/04/02 07:55:31  5-MIN KMSN 041355Z VRB03KT 9SM OVC027 M01/M04 A3011 690 81 -1000 VRB/03 RMK AO2
14837KMSN MSN20021104080009911/04/02 08:00:31  5-MIN KMSN 041400Z 00000KT 10SM OVC027 M01/M04 A3011 690 78 -1000 000/00 RMK AO2
14837KMSN MSN20021104080509711/04/02 08:05:31  5-MIN KMSN 041405Z 35005KT 10SM OVC027 00/M04 A3011 690 75 -900 340/05 RMK AO2
14837KMSN MSN20021104081009711/04/02 08:10:31  5-MIN KMSN 041410Z 35003KT 10SM OVC027 00/M04 A3012 680 75 -900 340/03 RMK AO2
14837KMSN MSN20021104081509711/04/02 08:15:31  5-MIN KMSN 041415Z VRB03KT 10SM OVC027 00/M04 A3012 680 72 -900 VRB/03 RMK AO2
14837KMSN MSN20021104082009711/04/02 08:20:31  5-MIN KMSN 041420Z 35003KT 10SM OVC027 01/M04 A3012 680 72 -800 350/03 RMK AO2
14837KMSN MSN20021104082509711/04/02 08:25:31  5-MIN KMSN 041425Z VRB04KT 10SM OVC025 01/M03 A3012 680 75 -800 VRB/04 RMK AO2
14837KMSN MSN20021104083009711/04/02 08:30:31  5-MIN KMSN 041430Z 36005KT 10SM OVC025 01/M04 A3012 680 72 -800 360/05 RMK AO2
14837KMSN MSN20021104083509711/04/02 08:35:31  5-MIN KMSN 041435Z 35005KT 10SM OVC025 01/M04 A3012 680 72 -800 350/05 RMK AO2
14837KMSN MSN20021104084009711/04/02 08:40:31  5-MIN KMSN 041440Z VRB03KT 10SM OVC025 01/M04 A3012 680 72 -800 VRB/03 RMK AO2
14837KMSN MSN20021104084509711/04/02 08:45:31  5-MIN KMSN 041445Z 34004KT 10SM OVC025 01/M03 A3012 680 75 -800 340/04 RMK AO2
14837KMSN MSN20021104085012011/04/02 08:50:31  5-MIN KMSN 041450Z 36006KT 10SM OVC025 01/M03 A3013 670 75 -800 360/06 RMK AO2 SLP210 T00061033 51014
14837KMSN MSN20021104085509711/04/02 08:55:31  5-MIN KMSN 041455Z 36007KT 10SM OVC025 01/M04 A3013 670 72 -800 350/07 RMK AO2
14837KMSN MSN20021104090009711/04/02 09:00:31  5-MIN KMSN 041500Z 36007KT 10SM OVC025 01/M04 A3013 670 69 -800 360/07 RMK AO2
14837KMSN MSN20021104090509711/04/02 09:05:31  5-MIN KMSN 041505Z VRB06KT 10SM OVC025 01/M04 A3013 670 72 -800 VRB/06 RMK AO2
14837KMSN MSN20021104091009711/04/02 09:10:31  5-MIN KMSN 041510Z 35006KT 10SM OVC025 01/M04 A3013 670 66 -800 350/06 RMK AO2
14837KMSN MSN20021104091509711/04/02 09:15:31  5-MIN KMSN 041515Z 33006KT 10SM OVC025 01/M04 A3014 670 69 -800 320/06 RMK AO2
14837KMSN MSN20021104092009711/04/02 09:20:31  5-MIN KMSN 041520Z 35004KT 10SM OVC025 01/M04 A3014 660 66 -800 350/04 RMK AO2
14837KMSN MSN20021104092509711/04/02 09:25:31  5-MIN KMSN 041525Z 30005KT 10SM OVC025 01/M04 A3014 660 66 -800 290/05 RMK AO2
14837KMSN MSN20021104093009711/04/02 09:30:31  5-MIN KMSN 041530Z 31006KT 10SM OVC025 01/M04 A3014 660 66 -800 310/06 RMK AO2
14837KMSN MSN20021104093509711/04/02 09:35:31  5-MIN KMSN 041535Z VRB05KT 10SM OVC025 01/M04 A3014 660 66 -800 VRB/05 RMK AO2
14837KMSN MSN20021104094009711/04/02 09:40:31  5-MIN KMSN 041540Z 28006KT 10SM OVC025 01/M04 A3015 660 66 -800 280/06 RMK AO2
14837KMSN MSN20021104094509711/04/02 09:45:31  5-MIN KMSN 041545Z 31005KT 10SM OVC025 01/M05 A3015 650 64 -800 310/05 RMK AO2
14837KMSN MSN20021104095011411/04/02 09:50:31  5-MIN KMSN 041550Z 32004KT 10SM OVC025 01/M04 A3015 650 66 -800 320/04 RMK AO2 SLP220 T00111044
14837KMSN MSN20021104095509711/04/02 09:55:31  5-MIN KMSN 041555Z 33004KT 10SM OVC025 01/M04 A3015 650 66 -800 330/04 RMK AO2
14837KMSN MSN20021104100009711/04/02 10:00:31  5-MIN KMSN 041600Z VRB06KT 10SM OVC025 02/M04 A3016 650 64 -700 VRB/06 RMK AO2
14837KMSN MSN20021104100509711/04/02 10:05:31  5-MIN KMSN 041605Z 31005KT 10SM OVC025 02/M04 A3016 640 64 -700 310/05 RMK AO2
14837KMSN MSN20021104101009711/04/02 10:10:31  5-MIN KMSN 041610Z 36004KT 10SM OVC025 01/M04 A3016 650 66 -800 360/04 RMK AO2
14837KMSN MSN20021104101509711/04/02 10:15:31  5-MIN KMSN 041615Z VRB04KT 10SM OVC025 02/M04 A3016 650 64 -700 VRB/04 RMK AO2
14837KMSN MSN20021104102009711/04/02 10:20:31  5-MIN KMSN 041620Z 30006KT 10SM OVC025 02/M04 A3016 640 64 -700 300/06 RMK AO2
14837KMSN MSN20021104102509711/04/02 10:25:31  5-MIN KMSN 041625Z VRB05KT 10SM OVC025 01/M04 A3016 650 66 -800 VRB/05 RMK AO2
14837KMSN MSN20021104103009711/04/02 10:30:31  5-MIN KMSN 041630Z 01007KT 10SM OVC025 02/M04 A3016 650 64 -700 010/07 RMK AO2
14837KMSN MSN20021104103509711/04/02 10:35:31  5-MIN KMSN 041635Z 04005KT 10SM OVC025 02/M04 A3015 650 64 -700 040/05 RMK AO2
14837KMSN MSN20021104104009711/04/02 10:40:31  5-MIN KMSN 041640Z VRB06KT 10SM OVC025 02/M04 A3016 650 64 -700 VRB/06 RMK AO2
14837KMSN MSN20021104104509711/04/02 10:45:31  5-MIN KMSN 041645Z 30005KT 10SM BKN025 02/M05 A3016 650 61 -700 300/05 RMK AO2
14837KMSN MSN20021104105011411/04/02 10:50:31  5-MIN KMSN 041650Z 26004KT 10SM BKN025 01/M05 A3016 650 64 -800 260/04 RMK AO2 SLP221 T00111050
14837KMSN MSN20021104105509711/04/02 10:55:31  5-MIN KMSN 041655Z VRB05KT 10SM BKN025 02/M04 A3015 650 64 -700 VRB/05 RMK AO2
14837KMSN MSN20021104110009711/04/02 11:00:31  5-MIN KMSN 041700Z 36004KT 10SM BKN025 02/M04 A3015 650 61 -700 360/04 RMK AO2
14837KMSN MSN20021104110509711/04/02 11:05:31  5-MIN KMSN 041705Z VRB03KT 10SM BKN025 02/M04 A3016 650 64 -700 VRB/03 RMK AO2
14837KMSN MSN20021104111009711/04/02 11:10:31  5-MIN KMSN 041710Z VRB03KT 10SM BKN027 02/M04 A3016 640 64 -700 VRB/03 RMK AO2
14837KMSN MSN20021104111509711/04/02 11:15:31  5-MIN KMSN 041715Z 00000KT 10SM BKN027 02/M05 A3016 640 61 -700 000/00 RMK AO2
14837KMSN MSN20021104112009711/04/02 11:20:31  5-MIN KMSN 041720Z VRB03KT 10SM BKN027 03/M04 A3016 650 59 -600 VRB/03 RMK AO2
14837KMSN MSN20021104112509711/04/02 11:25:31  5-MIN KMSN 041725Z VRB04KT 10SM BKN027 02/M04 A3016 640 61 -700 VRB/04 RMK AO2
14837KMSN MSN20021104113009711/04/02 11:30:31  5-MIN KMSN 041730Z 28005KT 10SM BKN027 03/M04 A3016 650 59 -600 280/05 RMK AO2
14837KMSN MSN20021104113509711/04/02 11:35:31  5-MIN KMSN 041735Z VRB03KT 10SM BKN027 03/M04 A3015 650 59 -600 VRB/03 RMK AO2
14837KMSN MSN20021104114009711/04/02 11:40:31  5-MIN KMSN 041740Z VRB03KT 10SM OVC029 03/M04 A3015 650 59 -600 VRB/03 RMK AO2
14837KMSN MSN20021104114509711/04/02 11:45:31  5-MIN KMSN 041745Z 00000KT 10SM BKN029 03/M04 A3015 660 59 -500 000/00 RMK AO2
14837KMSN MSN20021104115013211/04/02 11:50:31  5-MIN KMSN 041750Z VRB06KT 10SM BKN029 03/M04 A3014 660 59 -500 VRB/06 RMK AO2 SLP215 T00331039 10033 21033 51021
14837KMSN MSN20021104115509711/04/02 11:55:31  5-MIN KMSN 041755Z 31005KT 10SM BKN029 03/M04 A3014 660 59 -600 310/05 RMK AO2
14837KMSN MSN20021104120009711/04/02 12:00:31  5-MIN KMSN 041800Z 27004KT 10SM BKN029 02/M05 A3014 660 59 -600 260/04 RMK AO2
14837KMSN MSN20021104120509711/04/02 12:05:31  5-MIN KMSN 041805Z 25003KT 10SM SCT029 02/M05 A3014 670 59 -600 250/03 RMK AO2
14837KMSN MSN20021104121009711/04/02 12:10:31  5-MIN KMSN 041810Z VRB03KT 10SM FEW029 03/M04 A3013 670 59 -600 VRB/03 RMK AO2
14837KMSN MSN20021104121509711/04/02 12:15:31  5-MIN KMSN 041815Z 00000KT 10SM FEW029 03/M05 A3013 670 56 -600 000/00 RMK AO2
14837KMSN MSN20021104122009711/04/02 12:20:31  5-MIN KMSN 041820Z 00000KT 10SM FEW030 03/M04 A3012 680 57 -500 000/00 RMK AO2
14837KMSN MSN20021104122509711/04/02 12:25:31  5-MIN KMSN 041825Z VRB03KT 10SM FEW030 03/M04 A3012 680 57 -500 VRB/03 RMK AO2
14837KMSN MSN20021104123009711/04/02 12:30:31  5-MIN KMSN 041830Z 26005KT 10SM FEW030 03/M04 A3012 680 59 -600 260/05 RMK AO2
14837KMSN MSN20021104123509711/04/02 12:35:31  5-MIN KMSN 041835Z VRB04KT 10SM FEW030 03/M04 A3012 680 59 -500 VRB/04 RMK AO2
14837KMSN MSN20021104124009411/04/02 12:40:31  5-MIN KMSN 041840Z VRB04KT 10SM CLR 03/M04 A3011 690 59 -500 VRB/04 RMK AO2
14837KMSN MSN20021104124509411/04/02 12:45:31  5-MIN KMSN 041845Z VRB04KT 10SM CLR 03/M04 A3011 690 57 -500 VRB/04 RMK AO2
14837KMSN MSN20021104125011111/04/02 12:50:31  5-MIN KMSN 041850Z 00000KT 10SM CLR 03/M04 A3011 690 57 -500 000/00 RMK AO2 SLP204 T00331044
14837KMSN MSN20021104125509411/04/02 12:55:31  5-MIN KMSN 041855Z VRB03KT 10SM CLR 04/M04 A3011 690 57 -400 VRB/03 RMK AO2
14837KMSN MSN20021104130009411/04/02 13:00:31  5-MIN KMSN 041900Z 00000KT 10SM CLR 03/M04 A3011 690 57 -500 000/00 RMK AO2
14837KMSN MSN20021104130509411/04/02 13:05:31  5-MIN KMSN 041905Z 12004KT 10SM CLR 03/M04 A3011 690 57 -500 120/04 RMK AO2
14837KMSN MSN20021104131009411/04/02 13:10:31  5-MIN KMSN 041910Z VRB03KT 10SM CLR 03/M04 A3011 690 57 -500 VRB/03 RMK AO2
14837KMSN MSN20021104131509411/04/02 13:15:31  5-MIN KMSN 041915Z 13005KT 10SM CLR 03/M04 A3011 690 57 -500 130/05 RMK AO2
14837KMSN MSN20021104132009411/04/02 13:20:31  5-MIN KMSN 041920Z 13005KT 10SM CLR 04/M04 A3011 690 57 -400 130/05 RMK AO2
14837KMSN MSN20021104132509411/04/02 13:25:31  5-MIN KMSN 041925Z VRB03KT 10SM CLR 04/M04 A3011 690 57 -400 VRB/03 RMK AO2
14837KMSN MSN20021104133009411/04/02 13:30:31  5-MIN KMSN 041930Z 00000KT 10SM CLR 03/M04 A3011 690 57 -500 000/00 RMK AO2
14837KMSN MSN20021104133509411/04/02 13:35:31  5-MIN KMSN 041935Z 00000KT 10SM CLR 04/M04 A3010 690 54 -400 000/00 RMK AO2
14837KMSN MSN20021104134009411/04/02 13:40:31  5-MIN KMSN 041940Z VRB05KT 10SM CLR 04/M04 A3010 690 57 -400 VRB/05 RMK AO2
14837KMSN MSN20021104134509411/04/02 13:45:31  5-MIN KMSN 041945Z 23003KT 10SM CLR 03/M04 A3010 700 57 -500 230/03 RMK AO2
14837KMSN MSN20021104135011111/04/02 13:50:31  5-MIN KMSN 041950Z VRB03KT 10SM CLR 03/M04 A3010 700 57 -500 VRB/03 RMK AO2 SLP202 T00331044
14837KMSN MSN20021104135509311/04/02 13:55:31  5-MIN KMSN 041955Z VRB04KT 9SM CLR 04/M04 A3010 700 57 -400 VRB/04 RMK AO2
14837KMSN MSN20021104140009411/04/02 14:00:31  5-MIN KMSN 042000Z 00000KT 10SM CLR 03/M04 A3010 700 57 -500 000/00 RMK AO2
14837KMSN MSN20021104140509411/04/02 14:05:31  5-MIN KMSN 042005Z 00000KT 10SM CLR 03/M04 A3010 700 57 -500 000/00 RMK AO2
14837KMSN MSN20021104141009411/04/02 14:10:31  5-MIN KMSN 042010Z 23004KT 10SM CLR 04/M04 A3010 700 54 -400 230/04 RMK AO2
14837KMSN MSN20021104141509411/04/02 14:15:31  5-MIN KMSN 042015Z 21006KT 10SM CLR 03/M04 A3011 690 57 -500 210/06 RMK AO2
14837KMSN MSN20021104142009411/04/02 14:20:31  5-MIN KMSN 042020Z 21004KT 10SM CLR 03/M04 A3011 690 57 -500 210/04 RMK AO2
14837KMSN MSN20021104142509411/04/02 14:25:31  5-MIN KMSN 042025Z 00000KT 10SM CLR 03/M04 A3010 690 57 -500 000/00 RMK AO2
14837KMSN MSN20021104143009411/04/02 14:30:31  5-MIN KMSN 042030Z 00000KT 10SM CLR 04/M04 A3011 690 57 -400 000/00 RMK AO2
14837KMSN MSN20021104143509411/04/02 14:35:31  5-MIN KMSN 042035Z 24004KT 10SM CLR 04/M04 A3010 700 54 -400 240/04 RMK AO2
14837KMSN MSN20021104144009411/04/02 14:40:31  5-MIN KMSN 042040Z 00000KT 10SM CLR 04/M04 A3010 700 54 -400 000/00 RMK AO2
14837KMSN MSN20021104144509411/04/02 14:45:31  5-MIN KMSN 042045Z 00000KT 10SM CLR 04/M04 A3010 700 54 -400 000/00 RMK AO2
14837KMSN MSN20021104145011711/04/02 14:50:31  5-MIN KMSN 042050Z 00000KT 10SM CLR 04/M04 A3010 700 57 -400 000/00 RMK AO2 SLP202 T00391039 50004
14837KMSN MSN20021104145509411/04/02 14:55:31  5-MIN KMSN 042055Z 19003KT 10SM CLR 03/M04 A3010 700 57 -500 190/03 RMK AO2
14837KMSN MSN20021104150009411/04/02 15:00:31  5-MIN KMSN 042100Z VRB03KT 10SM CLR 03/M04 A3010 700 57 -500 VRB/03 RMK AO2
14837KMSN MSN20021104150509411/04/02 15:05:31  5-MIN KMSN 042105Z 00000KT 10SM CLR 03/M04 A3010 700 57 -500 000/00 RMK AO2
14837KMSN MSN20021104151009411/04/02 15:10:31  5-MIN KMSN 042110Z 00000KT 10SM CLR 04/M04 A3010 700 54 -400 000/00 RMK AO2
14837KMSN MSN20021104151509411/04/02 15:15:31  5-MIN KMSN 042115Z 00000KT 10SM CLR 03/M04 A3010 700 57 -500 000/00 RMK AO2
14837KMSN MSN20021104152009411/04/02 15:20:31  5-MIN KMSN 042120Z 00000KT 10SM CLR 04/M04 A3010 700 54 -400 000/00 RMK AO2
14837KMSN MSN20021104152509411/04/02 15:25:31  5-MIN KMSN 042125Z 14004KT 10SM CLR 04/M04 A3009 700 54 -400 140/04 RMK AO2
14837KMSN MSN20021104153009411/04/02 15:30:31  5-MIN KMSN 042130Z 15003KT 10SM CLR 04/M04 A3009 700 54 -400 150/03 RMK AO2
14837KMSN MSN20021104153509411/04/02 15:35:31  5-MIN KMSN 042135Z 17003KT 10SM CLR 03/M04 A3009 700 57 -500 170/03 RMK AO2
14837KMSN MSN20021104154009411/04/02 15:40:31  5-MIN KMSN 042140Z 00000KT 10SM CLR 04/M04 A3009 700 54 -400 000/00 RMK AO2
14837KMSN MSN20021104154509411/04/02 15:45:31  5-MIN KMSN 042145Z 00000KT 10SM CLR 04/M04 A3009 710 54 -400 000/00 RMK AO2
14837KMSN MSN20021104155011111/04/02 15:50:31  5-MIN KMSN 042150Z 00000KT 10SM CLR 03/M04 A3009 710 57 -400 000/00 RMK AO2 SLP199 T00331044
14837KMSN MSN20021104155509411/04/02 15:55:31  5-MIN KMSN 042155Z 00000KT 10SM CLR 04/M04 A3009 710 54 -400 000/00 RMK AO2
14837KMSN MSN20021104160009411/04/02 16:00:31  5-MIN KMSN 042200Z 00000KT 10SM CLR 04/M05 A3009 710 52 -400 000/00 RMK AO2
14837KMSN MSN20021104160509411/04/02 16:05:31  5-MIN KMSN 042205Z 00000KT 10SM CLR 03/M04 A3009 710 57 -400 000/00 RMK AO2
14837KMSN MSN20021104161009411/04/02 16:10:31  5-MIN KMSN 042210Z 00000KT 10SM CLR 03/M04 A3009 710 57 -400 000/00 RMK AO2
14837KMSN MSN20021104161509411/04/02 16:15:31  5-MIN KMSN 042215Z 00000KT 10SM CLR 03/M05 A3009 710 54 -400 000/00 RMK AO2
14837KMSN MSN20021104162009411/04/02 16:20:31  5-MIN KMSN 042220Z 00000KT 10SM CLR 03/M05 A3009 710 54 -400 000/00 RMK AO2
14837KMSN MSN20021104162509411/04/02 16:25:31  5-MIN KMSN 042225Z 00000KT 10SM CLR 03/M04 A3009 710 59 -500 000/00 RMK AO2
14837KMSN MSN20021104163009411/04/02 16:30:31  5-MIN KMSN 042230Z 00000KT 10SM CLR 03/M05 A3009 710 56 -500 000/00 RMK AO2
14837KMSN MSN20021104163509411/04/02 16:35:31  5-MIN KMSN 042235Z 00000KT 10SM CLR 02/M04 A3009 710 61 -600 000/00 RMK AO2
14837KMSN MSN20021104164009411/04/02 16:40:31  5-MIN KMSN 042240Z 00000KT 10SM CLR 02/M04 A3009 710 64 -700 000/00 RMK AO2
14837KMSN MSN20021104164509411/04/02 16:45:31  5-MIN KMSN 042245Z 00000KT 10SM CLR 02/M04 A3009 710 64 -700 000/00 RMK AO2
14837KMSN MSN20021104165011111/04/02 16:50:31  5-MIN KMSN 042250Z 00000KT 10SM CLR 01/M05 A3009 700 64 -700 000/00 RMK AO2 SLP201 T00111050
14837KMSN MSN20021104165509411/04/02 16:55:31  5-MIN KMSN 042255Z 00000KT 10SM CLR 01/M05 A3009 700 66 -800 000/00 RMK AO2
14837KMSN MSN20021104170009411/04/02 17:00:31  5-MIN KMSN 042300Z 00000KT 10SM CLR 01/M05 A3009 700 64 -700 000/00 RMK AO2
14837KMSN MSN20021104170509411/04/02 17:05:31  5-MIN KMSN 042305Z 00000KT 10SM CLR 00/M06 A3009 700 66 -900 000/00 RMK AO2
14837KMSN MSN20021104171009411/04/02 17:10:31  5-MIN KMSN 042310Z 00000KT 10SM CLR 00/M06 A3010 700 66 -900 000/00 RMK AO2
14837KMSN MSN20021104171509511/04/02 17:15:31  5-MIN KMSN 042315Z 00000KT 10SM CLR M01/M06 A3010 700 69 -900 000/00 RMK AO2
14837KMSN MSN20021104172009511/04/02 17:20:31  5-MIN KMSN 042320Z 00000KT 10SM CLR M01/M05 A3010 700 72 -900 000/00 RMK AO2
14837KMSN MSN20021104172509611/04/02 17:25:31  5-MIN KMSN 042325Z 00000KT 10SM CLR M01/M06 A3011 690 69 -1000 000/00 RMK AO2
14837KMSN MSN20021104173009611/04/02 17:30:31  5-MIN KMSN 042330Z 00000KT 10SM CLR M01/M05 A3011 690 75 -1000 000/00 RMK AO2
14837KMSN MSN20021104173509611/04/02 17:35:31  5-MIN KMSN 042335Z 00000KT 10SM CLR M01/M06 A3011 690 72 -1000 000/00 RMK AO2
14837KMSN MSN20021104174009611/04/02 17:40:31  5-MIN KMSN 042340Z 00000KT 10SM CLR M01/M06 A3011 690 72 -1000 000/00 RMK AO2
14837KMSN MSN20021104174509611/04/02 17:45:31  5-MIN KMSN 042345Z 00000KT 10SM CLR M02/M06 A3011 690 75 -1100 000/00 RMK AO2
14837KMSN MSN20021104175013111/04/02 17:50:31  5-MIN KMSN 042350Z 00000KT 10SM CLR M02/M06 A3011 690 75 -1100 000/00 RMK AO2 SLP208 T10171056 10044 21017 55013
14837KMSN MSN20021104175509611/04/02 17:55:31  5-MIN KMSN 042355Z 00000KT 10SM CLR M02/M06 A3011 690 75 -1100 000/00 RMK AO2
14837KMSN MSN20021104180009611/04/02 18:00:31  5-MIN KMSN 050000Z 00000KT 10SM CLR M02/M06 A3011 690 75 -1100 000/00 RMK AO2
14837KMSN MSN20021104180509611/04/02 18:05:31  5-MIN KMSN 050005Z 00000KT 10SM CLR M02/M05 A3012 680 78 -1100 000/00 RMK AO2
14837KMSN MSN20021104181009611/04/02 18:10:31  5-MIN KMSN 050010Z 00000KT 10SM CLR M02/M05 A3012 680 78 -1100 000/00 RMK AO2
14837KMSN MSN20021104181509611/04/02 18:15:31  5-MIN KMSN 050015Z 00000KT 10SM CLR M02/M05 A3011 690 78 -1100 000/00 RMK AO2
14837KMSN MSN20021104182009611/04/02 18:20:31  5-MIN KMSN 050020Z 00000KT 10SM CLR M01/M06 A3012 680 72 -1000 000/00 RMK AO2
14837KMSN MSN20021104182509611/04/02 18:25:31  5-MIN KMSN 050025Z 00000KT 10SM CLR M01/M05 A3011 680 75 -1000 000/00 RMK AO2
14837KMSN MSN20021104183009611/04/02 18:30:31  5-MIN KMSN 050030Z 00000KT 10SM CLR M01/M05 A3012 680 75 -1000 000/00 RMK AO2
14837KMSN MSN20021104183509611/04/02 18:35:31  5-MIN KMSN 050035Z 00000KT 10SM CLR M01/M05 A3011 690 75 -1000 000/00 RMK AO2
14837KMSN MSN20021104184009611/04/02 18:40:31  5-MIN KMSN 050040Z 00000KT 10SM CLR M01/M05 A3011 690 75 -1000 000/00 RMK AO2
14837KMSN MSN20021104184509611/04/02 18:45:31  5-MIN KMSN 050045Z 04003KT 10SM CLR M01/M06 A3011 690 72 -1000 040/03 RMK AO2
14837KMSN MSN20021104185011311/04/02 18:50:31  5-MIN KMSN 050050Z 05003KT 10SM CLR M01/M05 A3011 690 75 -1000 050/03 RMK AO2 SLP206 T10111050
14837KMSN MSN20021104185509611/04/02 18:55:31  5-MIN KMSN 050055Z 00000KT 10SM CLR M02/M05 A3010 690 78 -1100 000/00 RMK AO2
14837KMSN MSN20021104190009611/04/02 19:00:31  5-MIN KMSN 050100Z 00000KT 10SM CLR M02/M05 A3010 700 78 -1100 000/00 RMK AO2
14837KMSN MSN20021104190509611/04/02 19:05:31  5-MIN KMSN 050105Z 00000KT 10SM CLR M03/M06 A3010 700 81 -1200 000/00 RMK AO2
14837KMSN MSN20021104191009611/04/02 19:10:31  5-MIN KMSN 050110Z 00000KT 10SM CLR M03/M06 A3010 700 81 -1200 000/00 RMK AO2
14837KMSN MSN20021104191509611/04/02 19:15:31  5-MIN KMSN 050115Z 00000KT 10SM CLR M03/M06 A3009 700 81 -1200 000/00 RMK AO2
14837KMSN MSN20021104192009611/04/02 19:20:31  5-MIN KMSN 050120Z 00000KT 10SM CLR M02/M06 A3009 710 78 -1100 000/00 RMK AO2
14837KMSN MSN20021104192509611/04/02 19:25:31  5-MIN KMSN 050125Z 00000KT 10SM CLR M02/M06 A3009 700 78 -1100 000/00 RMK AO2
14837KMSN MSN20021104193009611/04/02 19:30:31  5-MIN KMSN 050130Z 00000KT 10SM CLR M03/M06 A3009 700 81 -1200 000/00 RMK AO2
14837KMSN MSN20021104193509611/04/02 19:35:31  5-MIN KMSN 050135Z 00000KT 10SM CLR M03/M06 A3009 700 81 -1200 000/00 RMK AO2
14837KMSN MSN20021104194009611/04/02 19:40:31  5-MIN KMSN 050140Z 00000KT 10SM CLR M03/M06 A3009 700 85 -1300 000/00 RMK AO2
14837KMSN MSN20021104194509611/04/02 19:45:31  5-MIN KMSN 050145Z 00000KT 10SM CLR M03/M06 A3010 700 85 -1300 000/00 RMK AO2
14837KMSN MSN20021104195011311/04/02 19:50:31  5-MIN KMSN 050150Z 00000KT 10SM CLR M03/M06 A3009 700 81 -1200 000/00 RMK AO2 SLP202 T10281056
14837KMSN MSN20021104195509611/04/02 19:55:31  5-MIN KMSN 050155Z 00000KT 10SM CLR M02/M05 A3009 700 81 -1100 000/00 RMK AO2
14837KMSN MSN20021104200009611/04/02 20:00:31  5-MIN KMSN 050200Z 00000KT 10SM CLR M03/M06 A3009 710 81 -1200 000/00 RMK AO2
14837KMSN MSN20021104200509611/04/02 20:05:31  5-MIN KMSN 050205Z 00000KT 10SM CLR M02/M05 A3009 710 81 -1100 000/00 RMK AO2
14837KMSN MSN20021104201009611/04/02 20:10:31  5-MIN KMSN 050210Z 06003KT 10SM CLR M02/M05 A3008 710 81 -1100 050/03 RMK AO2
14837KMSN MSN20021104201509611/04/02 20:15:31  5-MIN KMSN 050215Z 05003KT 10SM CLR M02/M06 A3008 710 78 -1100 050/03 RMK AO2
14837KMSN MSN20021104202009611/04/02 20:20:31  5-MIN KMSN 050220Z 05003KT 10SM CLR M02/M06 A3009 710 78 -1100 050/03 RMK AO2
14837KMSN MSN20021104202509611/04/02 20:25:31  5-MIN KMSN 050225Z 04003KT 10SM CLR M03/M06 A3009 710 81 -1200 040/03 RMK AO2
14837KMSN MSN20021104203009611/04/02 20:30:31  5-MIN KMSN 050230Z 00000KT 10SM CLR M02/M06 A3008 710 78 -1100 000/00 RMK AO2
14837KMSN MSN20021104203509611/04/02 20:35:31  5-MIN KMSN 050235Z 00000KT 10SM CLR M02/M06 A3008 720 78 -1100 000/00 RMK AO2
14837KMSN MSN20021104204009611/04/02 20:40:31  5-MIN KMSN 050240Z 05003KT 10SM CLR M02/M06 A3008 720 78 -1100 050/03 RMK AO2
14837KMSN MSN20021104204509611/04/02 20:45:31  5-MIN KMSN 050245Z 06003KT 10SM CLR M03/M06 A3008 720 81 -1200 060/03 RMK AO2
14837KMSN MSN20021104205011911/04/02 20:50:31  5-MIN KMSN 050250Z 00000KT 10SM CLR M03/M06 A3008 720 81 -1200 000/00 RMK AO2 SLP196 T10281056 53003
14837KMSN MSN20021104205509611/04/02 20:55:31  5-MIN KMSN 050255Z 00000KT 10SM CLR M03/M06 A3008 720 81 -1200 000/00 RMK AO2
14837KMSN MSN20021104210009611/04/02 21:00:31  5-MIN KMSN 050300Z 00000KT 10SM CLR M03/M06 A3008 720 81 -1200 000/00 RMK AO2
14837KMSN MSN20021104210509611/04/02 21:05:31  5-MIN KMSN 050305Z 00000KT 10SM CLR M03/M06 A3008 720 81 -1200 000/00 RMK AO2
14837KMSN MSN20021104211009611/04/02 21:10:31  5-MIN KMSN 050310Z 00000KT 10SM CLR M03/M06 A3008 720 85 -1300 000/00 RMK AO2
14837KMSN MSN20021104211509611/04/02 21:15:31  5-MIN KMSN 050315Z 00000KT 10SM CLR M02/M06 A3008 720 78 -1100 000/00 RMK AO2
14837KMSN MSN20021104212009611/04/02 21:20:31  5-MIN KMSN 050320Z 12006KT 10SM CLR M02/M06 A3008 720 75 -1100 120/06 RMK AO2
14837KMSN MSN20021104212509611/04/02 21:25:31  5-MIN KMSN 050325Z 11007KT 10SM CLR M01/M05 A3008 720 75 -1000 110/07 RMK AO2
14837KMSN MSN20021104213009611/04/02 21:30:31  5-MIN KMSN 050330Z 11007KT 10SM CLR M01/M04 A3007 720 78 -1000 110/07 RMK AO2
14837KMSN MSN20021104213509611/04/02 21:35:31  5-MIN KMSN 050335Z 11008KT 10SM CLR M01/M04 A3007 720 78 -1000 110/08 RMK AO2
14837KMSN MSN20021104214009611/04/02 21:40:31  5-MIN KMSN 050340Z 11007KT 10SM CLR M01/M04 A3007 720 81 -1000 110/07 RMK AO2
14837KMSN MSN20021104214509511/04/02 21:45:31  5-MIN KMSN 050345Z 12008KT 9SM CLR M01/M04 A3007 730 81 -1000 120/08 RMK AO2
14837KMSN MSN20021104215011111/04/02 21:50:31  5-MIN KMSN 050350Z 12007KT 9SM CLR M01/M04 A3007 730 78 -900 120/07 RMK AO2 SLP191 T10061039
14837KMSN MSN20021104215509411/04/02 21:55:31  5-MIN KMSN 050355Z 12008KT 9SM CLR M01/M03 A3007 730 81 -900 120/08 RMK AO2
14837KMSN MSN20021104220009311/04/02 22:00:31  5-MIN KMSN 050400Z 13007KT 8SM CLR 00/M03 A3007 720 78 -800 130/07 RMK AO2
14837KMSN MSN20021104220509311/04/02 22:05:31  5-MIN KMSN 050405Z 14007KT 8SM CLR 00/M03 A3007 720 78 -800 140/07 RMK AO2
14837KMSN MSN20021104221009311/04/02 22:10:31  5-MIN KMSN 050410Z 14006KT 8SM CLR 00/M03 A3007 720 78 -800 140/06 RMK AO2
14837KMSN MSN20021104221509311/04/02 22:15:31  5-MIN KMSN 050415Z 13005KT 8SM CLR 00/M03 A3007 730 78 -800 130/05 RMK AO2
14837KMSN MSN20021104222009311/04/02 22:20:31  5-MIN KMSN 050420Z 13005KT 8SM CLR 00/M03 A3007 730 78 -800 130/05 RMK AO2
14837KMSN MSN20021104222509311/04/02 22:25:31  5-MIN KMSN 050425Z 12006KT 8SM CLR 00/M03 A3007 730 78 -800 120/06 RMK AO2
14837KMSN MSN20021104223009311/04/02 22:30:31  5-MIN KMSN 050430Z 13005KT 8SM CLR 00/M03 A3007 730 78 -800 130/05 RMK AO2
14837KMSN MSN20021104223509311/04/02 22:35:31  5-MIN KMSN 050435Z 12006KT 8SM CLR 00/M03 A3006 730 78 -800 120/06 RMK AO2
14837KMSN MSN20021104224009311/04/02 22:40:31  5-MIN KMSN 050440Z 12006KT 8SM CLR 00/M03 A3006 740 78 -800 120/06 RMK AO2
14837KMSN MSN20021104224509411/04/02 22:45:31  5-MIN KMSN 050445Z 11006KT 8SM CLR M01/M03 A3005 740 85 -900 110/06 RMK AO2
14837KMSN MSN20021104225011111/04/02 22:50:31  5-MIN KMSN 050450Z 12005KT 7SM CLR M01/M03 A3006 740 85 -900 120/05 RMK AO2 SLP188 T10061028
14837KMSN MSN20021104225509411/04/02 22:55:31  5-MIN KMSN 050455Z 14005KT 7SM CLR M01/M03 A3006 740 85 -900 140/05 RMK AO2
14837KMSN MSN20021104230009311/04/02 23:00:31  5-MIN KMSN 050500Z 13004KT 7SM CLR 00/M03 A3006 740 81 -800 120/04 RMK AO2
14837KMSN MSN20021104230509411/04/02 23:05:31  5-MIN KMSN 050505Z 11005KT 7SM CLR M01/M03 A3005 740 81 -900 110/05 RMK AO2
14837KMSN MSN20021104231009411/04/02 23:10:31  5-MIN KMSN 050510Z 12006KT 7SM CLR M01/M03 A3005 740 81 -900 120/06 RMK AO2
14837KMSN MSN20021104231509411/04/02 23:15:31  5-MIN KMSN 050515Z 12005KT 7SM CLR M01/M03 A3005 740 81 -900 120/05 RMK AO2
14837KMSN MSN20021104232009411/04/02 23:20:31  5-MIN KMSN 050520Z 12005KT 7SM CLR M01/M03 A3005 740 81 -900 120/05 RMK AO2
14837KMSN MSN20021104232509411/04/02 23:25:31  5-MIN KMSN 050525Z 12005KT 7SM CLR M01/M03 A3005 740 81 -900 120/05 RMK AO2
14837KMSN MSN20021104233009411/04/02 23:30:31  5-MIN KMSN 050530Z 12006KT 7SM CLR M01/M03 A3005 750 81 -900 120/06 RMK AO2
14837KMSN MSN20021104233509411/04/02 23:35:31  5-MIN KMSN 050535Z 13005KT 7SM CLR M01/M03 A3005 740 81 -900 130/05 RMK AO2
14837KMSN MSN20021104234009411/04/02 23:40:31  5-MIN KMSN 050540Z 13004KT 7SM CLR M01/M03 A3006 740 85 -900 130/04 RMK AO2
14837KMSN MSN20021104234509411/04/02 23:45:31  5-MIN KMSN 050545Z 12005KT 7SM CLR M01/M03 A3005 740 81 -900 120/05 RMK AO2
14837KMSN MSN20021104235014011/04/02 23:50:31  5-MIN KMSN 050550Z 12005KT 10SM CLR M01/M03 A3005 740 85 -900 120/05 RMK AO2 SLP186 T10061028 10000 21033 400441033 58012
14837KMSN MSN20021104235509411/04/02 23:55:31  5-MIN KMSN 050555Z 12005KT 7SM CLR M01/M03 A3005 740 85 -900 120/05 RMK AO2
14837KMSN MSN20021105000009411/05/02 00:00:31  5-MIN KMSN 050600Z 13006KT 7SM CLR M01/M03 A3006 740 85 -900 130/06 RMK AO2
14837KMSN MSN20021105000509511/05/02 00:05:31  5-MIN KMSN 050605Z 13005KT 10SM CLR M01/M03 A3005 740 85 -900 120/05 RMK AO2
14837KMSN MSN20021105001009511/05/02 00:10:31  5-MIN KMSN 050610Z 12004KT 10SM CLR M01/M03 A3006 740 85 -900 120/04 RMK AO2
14837KMSN MSN20021105001509511/05/02 00:15:31  5-MIN KMSN 050615Z 12004KT 10SM CLR M01/M03 A3006 740 85 -900 120/04 RMK AO2
14837KMSN MSN20021105002009511/05/02 00:20:31  5-MIN KMSN 050620Z 12005KT 10SM CLR M01/M03 A3006 740 85 -900 120/05 RMK AO2
14837KMSN MSN20021105002509511/05/02 00:25:31  5-MIN KMSN 050625Z 13007KT 10SM CLR M01/M03 A3005 740 85 -900 130/07 RMK AO2
14837KMSN MSN20021105003009411/05/02 00:30:31  5-MIN KMSN 050630Z 13005KT 10SM CLR 00/M03 A3005 740 81 -800 130/05 RMK AO2
14837KMSN MSN20021105003509411/05/02 00:35:31  5-MIN KMSN 050635Z 13006KT 10SM CLR 00/M03 A3006 740 81 -800 130/06 RMK AO2
14837KMSN MSN20021105004009411/05/02 00:40:31  5-MIN KMSN 050640Z 13005KT 10SM CLR 00/M02 A3006 740 85 -800 130/05 RMK AO2
14837KMSN MSN20021105004509411/05/02 00:45:31  5-MIN KMSN 050645Z 12006KT 10SM CLR 00/M02 A3005 750 85 -800 120/06 RMK AO2
14837KMSN MSN20021105005011011/05/02 00:50:31  5-MIN KMSN 050650Z 12006KT 8SM CLR 00/M02 A3004 750 85 -800 110/06 RMK AO2 SLP182 T00001022
14837KMSN MSN20021105005509611/05/02 00:55:31  5-MIN KMSN 050655Z 13006KT 6SM BR CLR 00/M02 A3005 750 85 -800 130/06 RMK AO2
14837KMSN MSN20021105010009611/05/02 01:00:31  5-MIN KMSN 050700Z 13006KT 6SM HZ CLR 01/M02 A3005 750 82 -700 130/06 RMK AO2
14837KMSN MSN20021105010509611/05/02 01:05:31  5-MIN KMSN 050705Z 13007KT 6SM HZ CLR 01/M02 A3005 750 82 -700 130/07 RMK AO2
14837KMSN MSN20021105011009311/05/02 01:10:31  5-MIN KMSN 050710Z 13008KT 8SM CLR 01/M02 A3004 750 82 -700 130/08 RMK AO2
14837KMSN MSN20021105011509311/05/02 01:15:31  5-MIN KMSN 050715Z 13007KT 8SM CLR 01/M02 A3003 760 82 -700 130/07 RMK AO2
14837KMSN MSN20021105012009311/05/02 01:20:31  5-MIN KMSN 050720Z 13007KT 7SM CLR 01/M02 A3003 760 82 -700 130/07 RMK AO2
14837KMSN MSN20021105012509311/05/02 01:25:31  5-MIN KMSN 050725Z 14007KT 7SM CLR 01/M02 A3004 750 85 -700 140/07 RMK AO2
14837KMSN MSN20021105013009311/05/02 01:30:31  5-MIN KMSN 050730Z 14006KT 7SM CLR 01/M02 A3004 750 85 -700 140/06 RMK AO2
14837KMSN MSN20021105013509311/05/02 01:35:31  5-MIN KMSN 050735Z 14006KT 7SM CLR 01/M02 A3004 750 85 -700 140/06 RMK AO2
14837KMSN MSN20021105014009311/05/02 01:40:31  5-MIN KMSN 050740Z 14006KT 7SM CLR 01/M02 A3004 750 85 -700 140/06 RMK AO2
14837KMSN MSN20021105014509611/05/02 01:45:31  5-MIN KMSN 050745Z 14006KT 7SM FEW031 01/M02 A3004 750 85 -700 140/06 RMK AO2
14837KMSN MSN20021105015011311/05/02 01:50:31  5-MIN KMSN 050750Z 14005KT 7SM SCT031 01/M02 A3004 750 85 -700 140/05 RMK AO2 SLP182 T00061017
14837KMSN MSN20021105015509611/05/02 01:55:31  5-MIN KMSN 050755Z 14004KT 7SM BKN031 01/M02 A3004 750 82 -700 140/04 RMK AO2
14837KMSN MSN20021105020009611/05/02 02:00:31  5-MIN KMSN 050800Z 13004KT 7SM BKN031 01/M01 A3003 760 85 -700 130/04 RMK AO2
14837KMSN MSN20021105020509611/05/02 02:05:31  5-MIN KMSN 050805Z 12005KT 7SM BKN031 01/M02 A3003 760 82 -700 120/05 RMK AO2
14837KMSN MSN20021105021009611/05/02 02:10:31  5-MIN KMSN 050810Z 13004KT 7SM BKN031 01/M01 A3003 760 85 -700 130/04 RMK AO2
14837KMSN MSN20021105021509611/05/02 02:15:31  5-MIN KMSN 050815Z 13003KT 7SM BKN031 01/M01 A3003 760 85 -700 130/03 RMK AO2
14837KMSN MSN20021105022009611/05/02 02:20:31  5-MIN KMSN 050820Z 13004KT 7SM BKN029 01/M01 A3003 770 85 -700 130/04 RMK AO2
14837KMSN MSN20021105022509611/05/02 02:25:31  5-MIN KMSN 050825Z 14005KT 7SM BKN029 01/M01 A3003 770 85 -700 140/05 RMK AO2
14837KMSN MSN20021105023009611/05/02 02:30:31  5-MIN KMSN 050830Z 14005KT 7SM BKN027 02/M01 A3003 770 82 -600 140/05 RMK AO2
14837KMSN MSN20021105023509611/05/02 02:35:31  5-MIN KMSN 050835Z 14006KT 7SM BKN027 02/M01 A3002 770 82 -600 140/06 RMK AO2
14837KMSN MSN20021105024009611/05/02 02:40:31  5-MIN KMSN 050840Z 14007KT 7SM OVC027 02/M01 A3002 770 82 -600 140/07 RMK AO2
14837KMSN MSN20021105024509911/05/02 02:45:31  5-MIN KMSN 050845Z 13007KT 6SM HZ OVC027 02/M01 A3001 780 82 -600 130/07 RMK AO2
14837KMSN MSN20021105025012611/05/02 02:50:31  5-MIN KMSN 050850Z 11006KT 7SM BKN027 01/M01 A3000 790 85 -600 110/06 RMK AO2 PRESFR SLP166 T00111011 57008
14837KMSN MSN20021105025509911/05/02 02:55:31  5-MIN KMSN 050855Z 11005KT 6SM BR BKN027 01/M01 A3000 790 85 -600 110/05 RMK AO2
14837KMSN MSN20021105030009911/05/02 03:00:31  5-MIN KMSN 050900Z 10005KT 6SM BR SCT027 01/M01 A2999 800 89 -700 100/05 RMK AO2
14837KMSN MSN20021105030509911/05/02 03:05:31  5-MIN KMSN 050905Z 11004KT 6SM BR BKN027 01/M01 A2999 800 89 -700 110/04 RMK AO2
14837KMSN MSN20021105031009911/05/02 03:10:31  5-MIN KMSN 050910Z 10003KT 6SM BR BKN027 01/M01 A2999 800 85 -600 100/03 RMK AO2
14837KMSN MSN20021105031509911/05/02 03:15:31  5-MIN KMSN 050915Z 09004KT 5SM BR SCT027 01/M01 A2999 800 85 -600 090/04 RMK AO2
14837KMSN MSN20021105032009911/05/02 03:20:31  5-MIN KMSN 050920Z 09003KT 5SM BR SCT027 01/M01 A2998 810 85 -600 090/03 RMK AO2
14837KMSN MSN20021105032509911/05/02 03:25:31  5-MIN KMSN 050925Z 00000KT 5SM BR SCT027 01/M01 A2999 800 85 -600 000/00 RMK AO2
14837KMSN MSN20021105033010611/05/02 03:30:31  5-MIN KMSN 050930Z 00000KT 5SM BR SCT031 BKN110 01/M01 A2998 810 89 -700 000/00 RMK AO2
14837KMSN MSN20021105033510611/05/02 03:35:31  5-MIN KMSN 050935Z 00000KT 5SM BR BKN031 BKN110 01/M01 A2998 810 89 -700 000/00 RMK AO2
14837KMSN MSN20021105034010611/05/02 03:40:31  5-MIN KMSN 050940Z 00000KT 5SM BR BKN029 BKN110 01/M01 A2998 810 89 -700 000/00 RMK AO2
14837KMSN MSN20021105034510611/05/02 03:45:31  5-MIN KMSN 050945Z 01004KT 5SM BR BKN029 OVC110 01/M01 A2997 820 89 -700 010/04 RMK AO2
14837KMSN MSN20021105035011611/05/02 03:50:31  5-MIN KMSN 050950Z 01004KT 5SM BR OVC029 01/M01 A2997 810 89 -700 010/04 RMK AO2 SLP159 T00061011
14837KMSN MSN20021105035509911/05/02 03:55:31  5-MIN KMSN 050955Z 36004KT 5SM BR OVC029 01/M01 A2997 820 89 -700 360/04 RMK AO2
14837KMSN MSN20021105040009911/05/02 04:00:31  5-MIN KMSN 051000Z 34004KT 5SM BR OVC027 01/M01 A2997 820 89 -700 340/04 RMK AO2
14837KMSN MSN20021105040509911/05/02 04:05:31  5-MIN KMSN 051005Z 36003KT 5SM BR OVC027 01/M01 A2997 820 89 -700 360/03 RMK AO2
14837KMSN MSN20021105041009911/05/02 04:10:31  5-MIN KMSN 051010Z 33003KT 5SM BR OVC025 01/M01 A2998 810 89 -700 330/03 RMK AO2
14837KMSN MSN20021105041509911/05/02 04:15:31  5-MIN KMSN 051015Z 00000KT 5SM BR OVC025 01/M01 A2997 820 89 -700 000/00 RMK AO2
14837KMSN MSN20021105042009911/05/02 04:20:31  5-MIN KMSN 051020Z 00000KT 5SM BR OVC025 01/M01 A2997 810 89 -700 000/00 RMK AO2
14837KMSN MSN20021105042510611/05/02 04:25:31  5-MIN KMSN 051025Z 00000KT 5SM BR BKN025 OVC031 01/M02 A2997 820 85 -700 000/00 RMK AO2
14837KMSN MSN20021105043010611/05/02 04:30:31  5-MIN KMSN 051030Z 00000KT 5SM BR BKN025 OVC031 01/M01 A2997 820 89 -700 000/00 RMK AO2
14837KMSN MSN20021105043510611/05/02 04:35:31  5-MIN KMSN 051035Z 00000KT 5SM BR BKN025 OVC031 01/M01 A2997 820 89 -700 000/00 RMK AO2
14837KMSN MSN20021105044010611/05/02 04:40:31  5-MIN KMSN 051040Z 09003KT 5SM BR SCT025 OVC031 01/M01 A2996 830 85 -600 090/03 RMK AO2
14837KMSN MSN20021105044510611/05/02 04:45:31  5-MIN KMSN 051045Z 07003KT 5SM BR SCT025 OVC031 01/M01 A2996 830 85 -600 060/03 RMK AO2
14837KMSN MSN20021105045012311/05/02 04:50:31  5-MIN KMSN 051050Z 06003KT 5SM BR SCT025 OVC031 01/M01 A2996 830 89 -600 060/03 RMK AO2 SLP153 T00061011
14837KMSN MSN20021105045510611/05/02 04:55:31  5-MIN KMSN 051055Z 08004KT 5SM BR BKN025 OVC031 01/M01 A2995 840 85 -600 080/04 RMK AO2
14837KMSN MSN20021105050010611/05/02 05:00:31  5-MIN KMSN 051100Z 07005KT 5SM BR BKN025 OVC031 01/M01 A2994 850 89 -600 060/05 RMK AO2
14837KMSN MSN20021105050510611/05/02 05:05:31  5-MIN KMSN 051105Z 08005KT 5SM BR BKN025 OVC031 01/M01 A2994 850 89 -600 080/05 RMK AO2
14837KMSN MSN20021105051010611/05/02 05:10:31  5-MIN KMSN 051110Z 11005KT 5SM BR BKN025 OVC031 01/M01 A2994 850 89 -600 110/05 RMK AO2
14837KMSN MSN20021105051510611/05/02 05:15:31  5-MIN KMSN 051115Z 12005KT 5SM BR BKN025 OVC031 01/M01 A2994 850 89 -600 120/05 RMK AO2
14837KMSN MSN20021105052010611/05/02 05:20:31  5-MIN KMSN 051120Z 13005KT 5SM BR BKN025 OVC031 01/M01 A2993 850 89 -600 120/05 RMK AO2
14837KMSN MSN20021105052509911/05/02 05:25:31  5-MIN KMSN 051125Z 13006KT 4SM BR OVC029 01/M01 A2993 850 85 -500 130/06 RMK AO2
14837KMSN MSN20021105053009911/05/02 05:30:31  5-MIN KMSN 051130Z 13007KT 4SM BR OVC029 01/M01 A2992 860 85 -500 130/07 RMK AO2
14837KMSN MSN20021105053509911/05/02 05:35:31  5-MIN KMSN 051135Z 12005KT 4SM BR OVC027 01/M01 A2992 860 85 -500 120/05 RMK AO2
14837KMSN MSN20021105054009911/05/02 05:40:31  5-MIN KMSN 051140Z 13007KT 4SM BR OVC027 01/M01 A2992 860 85 -500 130/07 RMK AO2
14837KMSN MSN20021105054509911/05/02 05:45:31  5-MIN KMSN 051145Z 13008KT 4SM BR OVC027 02/M01 A2992 870 85 -500 130/08 RMK AO2
14837KMSN MSN20021105055013411/05/02 05:50:31  5-MIN KMSN 051150Z 13008KT 4SM BR OVC029 02/M01 A2992 870 85 -500 130/08 RMK AO2 SLP141 T00171006 10017 21006 58018
14837KMSN MSN20021105055510611/05/02 05:55:31  5-MIN KMSN 051155Z 13007KT 4SM HZ BKN026 OVC032 02/M01 A2991 870 82 -500 130/07 RMK AO2
14837KMSN MSN20021105060010611/05/02 06:00:31  5-MIN KMSN 051200Z 13005KT 4SM BR BKN026 OVC032 02/M01 A2991 870 85 -500 130/05 RMK AO2
14837KMSN MSN20021105060510611/05/02 06:05:31  5-MIN KMSN 051205Z VRB04KT 4SM BR BKN026 OVC032 02/M01 A2991 870 85 -400 VRB/04 RMK AO2
14837KMSN MSN20021105061010611/05/02 06:10:31  5-MIN KMSN 051210Z 12005KT 4SM BR BKN026 OVC032 02/M01 A2991 880 85 -400 120/05 RMK AO2
14837KMSN MSN20021105061510611/05/02 06:15:31  5-MIN KMSN 051215Z 11004KT 4SM BR BKN026 OVC032 02/M01 A2990 880 85 -400 110/04 RMK AO2
14837KMSN MSN20021105062009911/05/02 06:20:31  5-MIN KMSN 051220Z VRB04KT 4SM BR OVC032 02/M01 A2990 890 85 -400 VRB/04 RMK AO2
14837KMSN MSN20021105062509911/05/02 06:25:31  5-MIN KMSN 051225Z 12003KT 4SM BR OVC032 02/M01 A2990 890 85 -400 120/03 RMK AO2
14837KMSN MSN20021105063009911/05/02 06:30:31  5-MIN KMSN 051230Z 14004KT 4SM BR OVC032 02/M01 A2990 890 85 -400 140/04 RMK AO2
14837KMSN MSN20021105063510611/05/02 06:35:31  5-MIN KMSN 051235Z 14005KT 4SM BR FEW020 OVC032 02/M01 A2990 890 85 -400 140/05 RMK AO2
14837KMSN MSN20021105064011611/05/02 06:40:31  5-MIN KMSN 051240Z 14006KT 3SM BR FEW020 OVC032 02/M01 A2989 890 85 -400 140/06 RMK AO2 TWR VIS 4
14837KMSN MSN20021105064511611/05/02 06:45:31  5-MIN KMSN 051245Z 14005KT 3SM BR FEW020 OVC034 02/M01 A2989 890 85 -400 140/05 RMK AO2 TWR VIS 4
14837KMSN MSN20021105065012311/05/02 06:50:31  5-MIN KMSN 051250Z 13006KT 3SM BR FEW020 OVC034 02/M01 A2989 890 85 -400 130/06 RMK AO2 SLP131 T00171006
14837KMSN MSN20021105065510611/05/02 06:55:31  5-MIN KMSN 051255Z 14007KT 3SM BR FEW020 OVC034 02/M01 A2989 890 85 -400 140/07 RMK AO2
14837KMSN MSN20021105070010611/05/02 07:00:31  5-MIN KMSN 051300Z 14007KT 3SM BR FEW020 OVC034 02/M01 A2989 890 85 -400 140/07 RMK AO2
14837KMSN MSN20021105070509911/05/02 07:05:31  5-MIN KMSN 051305Z 14008KT 3SM BR OVC032 02/M01 A2989 890 85 -400 140/08 RMK AO2
14837KMSN MSN20021105071010611/05/02 07:10:31  5-MIN KMSN 051310Z 14009KT 3SM BR BKN030 OVC035 02/M01 A2988 900 85 -400 140/09 RMK AO2
14837KMSN MSN20021105071509911/05/02 07:15:31  5-MIN KMSN 051315Z 14011KT 3SM BR OVC030 02/M01 A2988 900 85 -400 140/11 RMK AO2
14837KMSN MSN20021105072009911/05/02 07:20:31  5-MIN KMSN 051320Z 14010KT 3SM BR OVC030 02/M01 A2988 900 85 -400 140/10 RMK AO2
14837KMSN MSN20021105072509911/05/02 07:25:31  5-MIN KMSN 051325Z 14011KT 3SM BR OVC030 02/M01 A2988 900 85 -400 130/11 RMK AO2
14837KMSN MSN20021105073010611/05/02 07:30:31  5-MIN KMSN 051330Z 14010KT 3SM BR BKN030 BKN038 02/M01 A2988 900 85 -400 140/10 RMK AO2
14837KMSN MSN20021105073510611/05/02 07:35:31  5-MIN KMSN 051335Z 14009KT 3SM HZ BKN030 BKN038 02/M01 A2987 910 82 -300 130/09 RMK AO2
14837KMSN MSN20021105074010611/05/02 07:40:31  5-MIN KMSN 051340Z 14008KT 3SM HZ SCT030 BKN038 02/M01 A2988 900 82 -300 140/08 RMK AO2
14837KMSN MSN20021105074509911/05/02 07:45:31  5-MIN KMSN 051345Z 14010KT 3SM HZ BKN034 02/M01 A2988 900 82 -300 140/10 RMK AO2
14837KMSN MSN20021105075011611/05/02 07:50:31  5-MIN KMSN 051350Z 14010KT 3SM HZ BKN036 02/M01 A2987 910 82 -300 130/10 RMK AO2 SLP126 T00221006
14837KMSN MSN20021105075510911/05/02 07:55:31  5-MIN KMSN 051355Z 14011KT 3SM HZ BKN036 02/M01 A2987 910 82 -300 130/11 RMK AO2 SFC VIS 3
14837KMSN MSN20021105080010911/05/02 08:00:31  5-MIN KMSN 051400Z 13010KT 3SM HZ BKN036 02/M01 A2987 910 82 -300 130/10 RMK AO2 SFC VIS 3
14837KMSN MSN20021105080509911/05/02 08:05:31  5-MIN KMSN 051405Z 13010KT 3SM HZ OVC036 02/M01 A2987 910 82 -300 130/10 RMK AO2
14837KMSN MSN20021105081010611/05/02 08:10:31  5-MIN KMSN 051410Z 14009KT 3SM HZ FEW019 OVC036 02/M01 A2987 910 82 -300 140/09 RMK AO2
14837KMSN MSN20021105081511311/05/02 08:15:31  5-MIN KMSN 051415Z 14008KT 3SM HZ SCT019 BKN026 OVC036 02/M01 A2987 910 82 -300 140/08 RMK AO2
14837KMSN MSN20021105082011311/05/02 08:20:31  5-MIN KMSN 051420Z 14007KT 3SM HZ SCT021 BKN026 OVC036 02/M01 A2987 910 82 -300 140/07 RMK AO2
14837KMSN MSN20021105082511311/05/02 08:25:31  5-MIN KMSN 051425Z 14007KT 3SM HZ BKN021 BKN026 OVC038 02/M01 A2987 910 82 -300 140/07 RMK AO2
14837KMSN MSN20021105083011311/05/02 08:30:31  5-MIN KMSN 051430Z 15007KT 3SM HZ BKN019 BKN024 OVC034 02/M01 A2987 910 82 -300 140/07 RMK AO2
14837KMSN MSN20021105083510511/05/02 08:35:31  5-MIN KMSN 051435Z 15007KT 3SM BR BKN019 OVC024 02/00 A2988 910 85 -300 150/07 RMK AO2
14837KMSN MSN20021105084010511/05/02 08:40:31  5-MIN KMSN 051440Z 15006KT 3SM BR BKN017 OVC024 02/00 A2987 910 85 -300 150/06 RMK AO2
14837KMSN MSN20021105084509811/05/02 08:45:31  5-MIN KMSN 051445Z 15007KT 3SM BR OVC017 02/00 A2987 910 85 -300 150/07 RMK AO2
14837KMSN MSN20021105085012111/05/02 08:50:31  5-MIN KMSN 051450Z 14005KT 3SM BR OVC017 02/00 A2986 920 85 -300 140/05 RMK AO2 SLP122 T00220000 58027
14837KMSN MSN20021105085511211/05/02 08:55:31  5-MIN KMSN 051455Z 12006KT 3SM BR BKN017 OVC023 02/00 A2985 930 85 -300 120/06 RMK AO2 PRESFR
14837KMSN MSN20021105090010511/05/02 09:00:31  5-MIN KMSN 051500Z 12005KT 3SM BR BKN017 OVC023 02/00 A2985 930 85 -300 120/05 RMK AO2
14837KMSN MSN20021105090510511/05/02 09:05:31  5-MIN KMSN 051505Z 12005KT 3SM BR SCT017 OVC025 02/00 A2985 930 85 -300 120/05 RMK AO2
14837KMSN MSN20021105091010511/05/02 09:10:31  5-MIN KMSN 051510Z 11004KT 3SM BR FEW017 BKN025 02/00 A2984 940 85 -300 110/04 RMK AO2
14837KMSN MSN20021105091509811/05/02 09:15:31  5-MIN KMSN 051515Z 12005KT 3SM HZ BKN023 03/00 A2984 940 82 -200 120/05 RMK AO2
14837KMSN MSN20021105092009811/05/02 09:20:31  5-MIN KMSN 051520Z 12005KT 3SM HZ BKN023 03/00 A2984 940 82 -200 120/05 RMK AO2
14837KMSN MSN20021105092510511/05/02 09:25:31  5-MIN KMSN 051525Z 14005KT 3SM HZ FEW012 BKN023 03/00 A2985 930 82 -200 140/05 RMK AO2
14837KMSN MSN20021105093010511/05/02 09:30:31  5-MIN KMSN 051530Z 13005KT 3SM HZ BKN012 BKN025 03/00 A2985 930 82 -200 130/05 RMK AO2
14837KMSN MSN20021105093512111/05/02 09:35:31  5-MIN KMSN 051535Z 14006KT 3SM -RA HZ BKN012 OVC025 03/00 A2985 930 82 -200 140/06 RMK AO2 RAB34 P0000
14837KMSN MSN20021105094012111/05/02 09:40:31  5-MIN KMSN 051540Z 15006KT 3SM -RA HZ BKN012 OVC025 03/00 A2984 940 82 -200 150/06 RMK AO2 RAB34 P0000
14837KMSN MSN20021105094512811/05/02 09:45:31  5-MIN KMSN 051545Z 14005KT 2SM -RA BR OVC012 02/00 A2984 940 85 -300 140/05 RMK AO2 SFC VIS 2 1/2 RAB34 P0000
14837KMSN MSN20021105095014511/05/02 09:50:31  5-MIN KMSN 051550Z 15007KT 2SM -RA BR OVC012 02/01 A2984 940 89 -300 140/07 RMK AO2 SFC VIS 2 1/2 RAB34 SLP114 P0000 T00220006
14837KMSN MSN20021105095512211/05/02 09:55:31  5-MIN KMSN 051555Z 14005KT 2SM -RA BR OVC012 02/01 A2984 940 89 -300 140/05 RMK AO2 SFC VIS 2 1/2 P0000
14837KMSN MSN20021105100012211/05/02 10:00:31  5-MIN KMSN 051600Z 14005KT 2SM -RA BR OVC012 02/01 A2984 940 89 -300 140/05 RMK AO2 SFC VIS 2 1/2 P0000
14837KMSN MSN20021105100510811/05/02 10:05:31  5-MIN KMSN 051605Z 15005KT 2SM -RA BR OVC012 02/01 A2984 940 89 -300 150/05 RMK AO2 P0000
14837KMSN MSN20021105101010811/05/02 10:10:31  5-MIN KMSN 051610Z 14004KT 2SM -RA BR OVC012 02/01 A2983 950 89 -300 140/04 RMK AO2 P0000
14837KMSN MSN20021105101510811/05/02 10:15:31  5-MIN KMSN 051615Z 13005KT 2SM -RA BR OVC010 02/01 A2983 950 89 -300 130/05 RMK AO2 P0001
14837KMSN MSN20021105102010811/05/02 10:20:31  5-MIN KMSN 051620Z 12005KT 2SM -RA BR OVC010 02/01 A2983 950 89 -300 120/05 RMK AO2 P0001
14837KMSN MSN20021105102512011/05/02 10:25:31  5-MIN KMSN 051625Z 11005KT 2SM -RA BR OVC010 02/01 A2983 950 89 -300 110/05 RMK AO2 CIG 007V011 P0001
14837KMSN MSN20021105103012011/05/02 10:30:31  5-MIN KMSN 051630Z 11005KT 2SM -RA BR OVC010 02/01 A2982 950 89 -300 110/05 RMK AO2 CIG 007V011 P0002
14837KMSN MSN20021105103512011/05/02 10:35:31  5-MIN KMSN 051635Z 11005KT 2SM -RA BR OVC010 02/01 A2982 960 89 -300 110/05 RMK AO2 CIG 007V011 P0002
14837KMSN MSN20021105104012011/05/02 10:40:31  5-MIN KMSN 051640Z 11005KT 2SM -RA BR OVC010 02/01 A2982 960 92 -300 110/05 RMK AO2 CIG 007V011 P0002
14837KMSN MSN20021105104512011/05/02 10:45:31  5-MIN KMSN 051645Z 12004KT 2SM -RA BR OVC010 02/01 A2982 960 92 -300 120/04 RMK AO2 CIG 007V011 P0002
14837KMSN MSN20021105105013711/05/02 10:50:31  5-MIN KMSN 051650Z 12004KT 2SM -RA BR OVC008 02/01 A2982 960 92 -300 120/04 RMK AO2 CIG 006V011 SLP106 P0003 T00220011
14837KMSN MSN20021105105512011/05/02 10:55:31  5-MIN KMSN 051655Z 13005KT 2SM -RA BR OVC008 02/01 A2982 960 92 -300 130/05 RMK AO2 CIG 006V011 P0000
14837KMSN MSN20021105110012711/05/02 11:00:31  5-MIN KMSN 051700Z 12006KT 2SM -RA BR BKN006 OVC010 02/01 A2981 960 92 -300 120/06 RMK AO2 CIG 006V009 P0000
14837KMSN MSN20021105110511511/05/02 11:05:31  5-MIN KMSN 051705Z 12005KT 2SM -RA BR BKN006 OVC010 02/01 A2981 970 92 -300 120/05 RMK AO2 P0000
14837KMSN MSN20021105111010811/05/02 11:10:31  5-MIN KMSN 051710Z 13006KT 2SM -RA BR OVC006 02/01 A2981 970 92 -300 130/06 RMK AO2 P0001
14837KMSN MSN20021105111510811/05/02 11:15:31  5-MIN KMSN 051715Z 12004KT 2SM -RA BR OVC006 02/01 A2981 970 92 -300 120/04 RMK AO2 P0001
14837KMSN MSN20021105112010811/05/02 11:20:31  5-MIN KMSN 051720Z 15005KT 2SM -RA BR OVC006 03/01 A2981 970 89 -200 150/05 RMK AO2 P0001
14837KMSN MSN20021105112510811/05/02 11:25:31  5-MIN KMSN 051725Z 14005KT 2SM -RA BR OVC006 02/01 A2980 970 92 -300 140/05 RMK AO2 P0001
14837KMSN MSN20021105113012011/05/02 11:30:31  5-MIN KMSN 051730Z 15004KT 2SM -RA BR OVC006 02/01 A2980 980 92 -200 150/04 RMK AO2 CIG 006V009 P0001
14837KMSN MSN20021105113512011/05/02 11:35:31  5-MIN KMSN 051735Z 16005KT 2SM -RA BR OVC006 02/01 A2980 980 92 -200 160/05 RMK AO2 CIG 006V011 P0002
14837KMSN MSN20021105114012011/05/02 11:40:31  5-MIN KMSN 051740Z 15005KT 2SM -RA BR OVC006 02/01 A2979 980 92 -200 150/05 RMK AO2 CIG 006V011 P0002
14837KMSN MSN20021105114512011/05/02 11:45:31  5-MIN KMSN 051745Z 16004KT 2SM -RA BR OVC006 02/01 A2979 990 92 -200 160/04 RMK AO2 CIG 006V011 P0002
14837KMSN MSN20021105115016111/05/02 11:50:31  5-MIN KMSN 051750Z 16005KT 2SM -RA BR OVC006 02/01 A2979 990 92 -200 160/05 RMK AO2 CIG 006V011 SLP095 P0002 60005 T00220011 10028 20017 56018
14837KMSN MSN20021105115512011/05/02 11:55:31  5-MIN KMSN 051755Z 15005KT 2SM -RA BR OVC006 02/01 A2978 990 92 -200 150/05 RMK AO2 CIG 006V009 P0000
14837KMSN MSN20021105120012011/05/02 12:00:31  5-MIN KMSN 051800Z 16006KT 2SM -RA BR OVC006 02/01 A2978 990 92 -200 160/06 RMK AO2 CIG 006V011 P0001
14837KMSN MSN20021105120512111/05/02 12:05:31  5-MIN KMSN 051805Z 17004KT 2SM -RA BR OVC006 02/01 A2978 1000 92 -200 170/04 RMK AO2 CIG 006V010 P0001
14837KMSN MSN20021105121010911/05/02 12:10:31  5-MIN KMSN 051810Z 16004KT 2SM -RA BR OVC006 02/01 A2978 1000 92 -200 160/04 RMK AO2 P0001
14837KMSN MSN20021105121510911/05/02 12:15:31  5-MIN KMSN 051815Z 17004KT 2SM -RA BR OVC006 02/01 A2977 1000 92 -200 160/04 RMK AO2 P0001
14837KMSN MSN20021105122010911/05/02 12:20:31  5-MIN KMSN 051820Z 18005KT 2SM -RA BR OVC006 02/01 A2977 1000 92 -200 180/05 RMK AO2 P0001
14837KMSN MSN20021105122510911/05/02 12:25:31  5-MIN KMSN 051825Z 16005KT 2SM -RA BR OVC006 02/01 A2977 1000 92 -200 160/05 RMK AO2 P0002
14837KMSN MSN20021105123010911/05/02 12:30:31  5-MIN KMSN 051830Z 17005KT 2SM -RA BR OVC006 02/01 A2977 1010 92 -200 170/05 RMK AO2 P0002
14837KMSN MSN20021105123510911/05/02 12:35:31  5-MIN KMSN 051835Z 17006KT 2SM -RA BR OVC006 02/01 A2976 1010 92 -200 160/06 RMK AO2 P0002
14837KMSN MSN20021105124010911/05/02 12:40:31  5-MIN KMSN 051840Z 16006KT 2SM -RA BR OVC006 02/01 A2976 1010 92 -200 160/06 RMK AO2 P0003
14837KMSN MSN20021105124510911/05/02 12:45:31  5-MIN KMSN 051845Z 16005KT 2SM -RA BR OVC006 02/01 A2976 1010 92 -200 160/05 RMK AO2 P0003
14837KMSN MSN20021105125012611/05/02 12:50:31  5-MIN KMSN 051850Z VRB03KT 2SM -RA BR OVC006 02/01 A2976 1020 92 -200 VRB/03 RMK AO2 SLP085 P0003 T00220011
14837KMSN MSN20021105125512111/05/02 12:55:31  5-MIN KMSN 051855Z 16004KT 2SM -RA BR OVC006 02/01 A2975 1020 92 -200 160/04 RMK AO2 CIG 006V009 P0000
14837KMSN MSN20021105130012311/05/02 13:00:31  5-MIN KMSN 051900Z 17004KT 2SM -RA BR OVC006 02/01 A2975 1020 92 -200 170/04 RMK AO2 SFC VIS 2 1/2 P0000
14837KMSN MSN20021105130512311/05/02 13:05:31  5-MIN KMSN 051905Z 16003KT 2SM -RA BR OVC006 02/01 A2975 1020 92 -200 160/03 RMK AO2 SFC VIS 2 1/2 P0000
14837KMSN MSN20021105131012311/05/02 13:10:31  5-MIN KMSN 051910Z 15004KT 2SM -RA BR OVC006 02/01 A2975 1030 92 -200 140/04 RMK AO2 SFC VIS 2 1/2 P0001
14837KMSN MSN20021105131513511/05/02 13:15:31  5-MIN KMSN 051915Z 17003KT 2SM -RA BR OVC006 03/01 A2974 1030 89 -100 170/03 RMK AO2 SFC VIS 2 1/2 CIG 006V009 P0001
14837KMSN MSN20021105132012311/05/02 13:20:31  5-MIN KMSN 051920Z 16004KT 2SM -RA BR OVC006 02/01 A2974 1030 92 -200 160/04 RMK AO2 SFC VIS 2 1/2 P0001
14837KMSN MSN20021105132512311/05/02 13:25:31  5-MIN KMSN 051925Z 19004KT 2SM -RA BR OVC006 03/01 A2974 1030 89 -100 190/04 RMK AO2 SFC VIS 2 1/2 P0001
14837KMSN MSN20021105133012311/05/02 13:30:31  5-MIN KMSN 051930Z 19004KT 2SM -RA BR OVC006 02/01 A2974 1030 92 -200 190/04 RMK AO2 SFC VIS 2 1/2 P0001
14837KMSN MSN20021105133513511/05/02 13:35:31  5-MIN KMSN 051935Z 15004KT 2SM -RA BR OVC006 03/01 A2974 1030 89 -100 150/04 RMK AO2 SFC VIS 2 1/2 CIG 006V011 P0001
14837KMSN MSN20021105134013511/05/02 13:40:31  5-MIN KMSN 051940Z 16004KT 2SM -RA BR OVC006 03/01 A2974 1040 89 -100 150/04 RMK AO2 SFC VIS 2 1/2 CIG 006V011 P0001
14837KMSN MSN20021105134512311/05/02 13:45:31  5-MIN KMSN 051945Z 15005KT 2SM -RA BR OVC006 03/01 A2973 1040 89 -100 150/05 RMK AO2 SFC VIS 2 1/2 P0001
14837KMSN MSN20021105135015211/05/02 13:50:31  5-MIN KMSN 051950Z 17003KT 2SM -RA BR OVC008 03/02 A2973 1040 92 -100 170/03 RMK AO2 SFC VIS 2 1/2 CIG 006V010 SLP076 P0001 T00280017
14837KMSN MSN20021105135513111/05/02 13:55:31  5-MIN KMSN 051955Z 18004KT 2SM -RA BR OVC008 03/01 A2973 1040 89 -100 180/04 RMK AO2 SFC VIS 3 CIG 006V010 P0000
14837KMSN MSN20021105140013111/05/02 14:00:31  5-MIN KMSN 052000Z 20003KT 2SM -RA BR OVC008 03/01 A2973 1040 89 -100 200/03 RMK AO2 SFC VIS 4 CIG 006V013 P0000
14837KMSN MSN20021105140513111/05/02 14:05:31  5-MIN KMSN 052005Z 19004KT 2SM -RA BR OVC008 03/01 A2973 1040 89 -100 190/04 RMK AO2 SFC VIS 3 CIG 006V013 P0000
14837KMSN MSN20021105141013111/05/02 14:10:31  5-MIN KMSN 052010Z 00000KT 2SM -RA BR OVC008 03/01 A2973 1040 89 -100 000/00 RMK AO2 SFC VIS 3 CIG 006V013 P0000
14837KMSN MSN20021105141513111/05/02 14:15:31  5-MIN KMSN 052015Z 00000KT 2SM -RA BR OVC008 03/01 A2973 1040 89 -100 000/00 RMK AO2 SFC VIS 3 CIG 006V010 P0000
14837KMSN MSN20021105142013111/05/02 14:20:31  5-MIN KMSN 052020Z 19003KT 2SM -RA BR OVC008 03/01 A2973 1050 89 -100 190/03 RMK AO2 SFC VIS 3 CIG 007V010 P0000
14837KMSN MSN20021105142511911/05/02 14:25:31  5-MIN KMSN 052025Z 00000KT 2SM -RA BR OVC008 03/01 A2972 1050 89 -100 000/00 RMK AO2 SFC VIS 3 P0000
14837KMSN MSN20021105143011911/05/02 14:30:31  5-MIN KMSN 052030Z 23003KT 2SM -RA BR OVC008 03/01 A2973 1040 89 -100 230/03 RMK AO2 SFC VIS 3 P0000
14837KMSN MSN20021105143511911/05/02 14:35:31  5-MIN KMSN 052035Z 00000KT 2SM -RA BR OVC008 03/01 A2973 1040 89 -100 000/00 RMK AO2 SFC VIS 3 P0000
14837KMSN MSN20021105144011911/05/02 14:40:31  5-MIN KMSN 052040Z 00000KT 2SM -RA BR OVC008 03/01 A2973 1050 89 -100 000/00 RMK AO2 SFC VIS 3 P0000
14837KMSN MSN20021105144512111/05/02 14:45:31  5-MIN KMSN 052045Z 00000KT 2SM BR OVC008 03/01 A2973 1040 89 -100 000/00 RMK AO2 SFC VIS 3 RAE41 P0000
14837KMSN MSN20021105145015011/05/02 14:50:31  5-MIN KMSN 052050Z 00000KT 2SM BR OVC008 03/01 A2973 1040 89 -100 000/00 RMK AO2 SFC VIS 3 RAE41 SLP074 P0000 60004 T00280011 58025
14837KMSN MSN20021105145510911/05/02 14:55:31  5-MIN KMSN 052055Z 00000KT 2SM BR OVC008 03/01 A2973 1040 89 -100 000/00 RMK AO2 SFC VIS 3
14837KMSN MSN20021105150010911/05/02 15:00:31  5-MIN KMSN 052100Z 00000KT 2SM BR OVC008 03/01 A2973 1040 89 -100 000/00 RMK AO2 SFC VIS 3
14837KMSN MSN20021105150510911/05/02 15:05:31  5-MIN KMSN 052105Z 00000KT 2SM BR OVC008 03/01 A2973 1040 89 -100 000/00 RMK AO2 SFC VIS 3
14837KMSN MSN20021105151010911/05/02 15:10:31  5-MIN KMSN 052110Z 00000KT 2SM BR OVC008 03/02 A2973 1040 92 -100 000/00 RMK AO2 SFC VIS 3
14837KMSN MSN20021105151512111/05/02 15:15:31  5-MIN KMSN 052115Z 00000KT 2SM BR OVC008 03/02 A2973 1040 92 -100 000/00 RMK AO2 SFC VIS 3 CIG 006V010
14837KMSN MSN20021105152012111/05/02 15:20:31  5-MIN KMSN 052120Z 00000KT 2SM BR OVC008 03/02 A2973 1040 92 -100 000/00 RMK AO2 SFC VIS 3 CIG 006V010
14837KMSN MSN20021105152512111/05/02 15:25:31  5-MIN KMSN 052125Z 00000KT 2SM BR OVC008 03/02 A2973 1040 92 -100 000/00 RMK AO2 SFC VIS 3 CIG 006V010
14837KMSN MSN20021105153012111/05/02 15:30:31  5-MIN KMSN 052130Z 00000KT 2SM BR OVC008 03/02 A2973 1040 92 -100 000/00 RMK AO2 SFC VIS 3 CIG 006V010
14837KMSN MSN20021105153512111/05/02 15:35:31  5-MIN KMSN 052135Z 33003KT 2SM BR OVC008 03/02 A2973 1040 92 -100 330/03 RMK AO2 SFC VIS 3 CIG 006V010
14837KMSN MSN20021105154010911/05/02 15:40:31  5-MIN KMSN 052140Z 00000KT 2SM BR OVC008 03/02 A2973 1040 92 -100 000/00 RMK AO2 SFC VIS 3
14837KMSN MSN20021105154510911/05/02 15:45:31  5-MIN KMSN 052145Z 00000KT 2SM BR OVC008 03/02 A2973 1040 92 -100 000/00 RMK AO2 SFC VIS 3
14837KMSN MSN20021105155014211/05/02 15:50:31  5-MIN KMSN 052150Z 00000KT 2 1/2SM BR OVC008 03/02 A2973 1040 92 -100 000/00 RMK AO2 SFC VIS 3 CIG 007V010 SLP077 T00280017
14837KMSN MSN20021105155512511/05/02 15:55:31  5-MIN KMSN 052155Z 00000KT 2 1/2SM BR OVC008 03/02 A2974 1030 92 -100 000/00 RMK AO2 SFC VIS 3 CIG 007V011
14837KMSN MSN20021105160012511/05/02 16:00:31  5-MIN KMSN 052200Z 00000KT 2 1/2SM BR OVC010 03/02 A2974 1030 92 -100 000/00 RMK AO2 SFC VIS 3 CIG 007V011
14837KMSN MSN20021105160512511/05/02 16:05:31  5-MIN KMSN 052205Z 00000KT 2 1/2SM BR OVC010 03/02 A2974 1030 92 -100 000/00 RMK AO2 SFC VIS 3 CIG 007V012
14837KMSN MSN20021105161011311/05/02 16:10:31  5-MIN KMSN 052210Z 00000KT 2 1/2SM BR OVC010 03/02 A2974 1030 92 -100 000/00 RMK AO2 SFC VIS 3
14837KMSN MSN20021105161511311/05/02 16:15:31  5-MIN KMSN 052215Z 00000KT 2 1/2SM BR OVC010 03/02 A2974 1030 92 -100 000/00 RMK AO2 SFC VIS 3
14837KMSN MSN20021105162011311/05/02 16:20:31  5-MIN KMSN 052220Z 29003KT 2 1/2SM BR OVC010 03/02 A2974 1030 92 -100 290/03 RMK AO2 SFC VIS 3
14837KMSN MSN20021105162511011/05/02 16:25:31  5-MIN KMSN 052225Z 29003KT 2 1/2SM BR BKN012 OVC017 03/02 A2974 1030 92 -100 290/03 RMK AO2
14837KMSN MSN20021105163011011/05/02 16:30:31  5-MIN KMSN 052230Z 29004KT 2 1/2SM BR BKN010 OVC017 03/02 A2975 1030 92 -100 290/04 RMK AO2
14837KMSN MSN20021105163512211/05/02 16:35:31  5-MIN KMSN 052235Z VRB04KT 2 1/2SM BR BKN010 OVC017 03/02 A2974 1030 92 -100 VRB/04 RMK AO2 CIG 008V014
14837KMSN MSN20021105164012211/05/02 16:40:31  5-MIN KMSN 052240Z 27004KT 2 1/2SM BR BKN010 OVC017 03/02 A2975 1030 92 -100 270/04 RMK AO2 CIG 008V014
14837KMSN MSN20021105164512211/05/02 16:45:31  5-MIN KMSN 052245Z 27004KT 2 1/2SM BR BKN010 OVC017 03/02 A2974 1030 92 -100 260/04 RMK AO2 CIG 008V014
14837KMSN MSN20021105165012011/05/02 16:50:31  5-MIN KMSN 052250Z 27004KT 2 1/2SM BR OVC010 03/02 A2974 1030 92 -100 260/04 RMK AO2 SLP080 T00280017
14837KMSN MSN20021105165512511/05/02 16:55:31  5-MIN KMSN 052255Z 27004KT 2 1/2SM BR OVC010 03/02 A2975 1030 92 -100 270/04 RMK AO2 SFC VIS 5 CIG 008V014
14837KMSN MSN20021105170011311/05/02 17:00:31  5-MIN KMSN 052300Z 00000KT 2SM BR OVC010 03/02 A2975 1030 92 -100 000/00 RMK AO2 TWR VIS 2 1/2
14837KMSN MSN20021105170511311/05/02 17:05:31  5-MIN KMSN 052305Z VRB03KT 2SM BR OVC010 03/02 A2974 1030 92 -100 VRB/03 RMK AO2 TWR VIS 2 1/2
14837KMSN MSN20021105171011311/05/02 17:10:31  5-MIN KMSN 052310Z 00000KT 2SM BR OVC010 03/02 A2974 1030 92 -100 000/00 RMK AO2 TWR VIS 2 1/2
14837KMSN MSN20021105171512511/05/02 17:15:31  5-MIN KMSN 052315Z 00000KT 2SM BR OVC010 03/02 A2974 1030 92 -100 000/00 RMK AO2 TWR VIS 2 1/2 CIG 009V013
14837KMSN MSN20021105172011311/05/02 17:20:31  5-MIN KMSN 052320Z 28003KT 2SM BR OVC010 03/02 A2974 1030 92 -100 280/03 RMK AO2 TWR VIS 2 1/2
14837KMSN MSN20021105172512111/05/02 17:25:31  5-MIN KMSN 052325Z 00000KT 3SM BR OVC010 03/02 A2974 1030 92 -100 000/00 RMK AO2 TWR VIS 4 CIG 009V013
14837KMSN MSN20021105173010911/05/02 17:30:31  5-MIN KMSN 052330Z 00000KT 3SM BR OVC010 03/02 A2974 1030 92 -100 000/00 RMK AO2 TWR VIS 4
14837KMSN MSN20021105173510911/05/02 17:35:31  5-MIN KMSN 052335Z 32003KT 3SM BR OVC010 03/02 A2974 1030 92 -100 320/03 RMK AO2 TWR VIS 4
14837KMSN MSN20021105174011611/05/02 17:40:31  5-MIN KMSN 052340Z 00000KT 3SM BR BKN012 OVC032 03/02 A2974 1030 92 -100 000/00 RMK AO2 TWR VIS 4
14837KMSN MSN20021105174510611/05/02 17:45:31  5-MIN KMSN 052345Z 00000KT 4SM BR BKN012 OVC032 03/02 A2974 1030 92 -100 000/00 RMK AO2
14837KMSN MSN20021105175014711/05/02 17:50:31  5-MIN KMSN 052350Z 00000KT 4SM BR SCT012 OVC030 03/02 A2974 1030 92 -100 000/00 RMK AO2 SLP079 60004 T00280017 10028 20022 56019
14837KMSN MSN20021105175511311/05/02 17:55:31  5-MIN KMSN 052355Z 00000KT 4SM BR FEW012 SCT025 OVC032 03/02 A2974 1030 92 -100 000/00 RMK AO2
14837KMSN MSN20021105180011311/05/02 18:00:31  5-MIN KMSN 060000Z 00000KT 4SM BR FEW012 SCT025 OVC032 03/02 A2974 1030 92 -100 000/00 RMK AO2
14837KMSN MSN20021105180511311/05/02 18:05:31  5-MIN KMSN 060005Z 00000KT 4SM BR FEW019 SCT025 OVC032 02/02 A2974 1030 96 -200 000/00 RMK AO2
14837KMSN MSN20021105181011311/05/02 18:10:31  5-MIN KMSN 060010Z 00000KT 4SM BR SCT019 BKN025 OVC032 02/02 A2974 1030 96 -200 000/00 RMK AO2
14837KMSN MSN20021105181512311/05/02 18:15:31  5-MIN KMSN 060015Z 00000KT 3SM BR SCT019 BKN025 OVC032 02/02 A2974 1030 96 -200 000/00 RMK AO2 TWR VIS 4
14837KMSN MSN20021105182011611/05/02 18:20:31  5-MIN KMSN 060020Z 00000KT 3SM BR BKN019 OVC025 02/02 A2974 1030 96 -200 000/00 RMK AO2 TWR VIS 4
14837KMSN MSN20021105182511611/05/02 18:25:31  5-MIN KMSN 060025Z 00000KT 3SM BR BKN019 OVC025 02/02 A2974 1030 96 -200 000/00 RMK AO2 TWR VIS 4
14837KMSN MSN20021105183010911/05/02 18:30:31  5-MIN KMSN 060030Z 00000KT 3SM BR OVC019 02/02 A2975 1030 96 -200 000/00 RMK AO2 TWR VIS 4
14837KMSN MSN20021105183510911/05/02 18:35:31  5-MIN KMSN 060035Z 00000KT 3SM BR OVC019 02/02 A2975 1020 96 -200 000/00 RMK AO2 TWR VIS 4
14837KMSN MSN20021105184010911/05/02 18:40:31  5-MIN KMSN 060040Z 00000KT 3SM BR OVC019 03/02 A2975 1020 92 -100 000/00 RMK AO2 TWR VIS 4
14837KMSN MSN20021105184510911/05/02 18:45:31  5-MIN KMSN 060045Z 00000KT 3SM BR OVC019 03/02 A2975 1020 92 -100 000/00 RMK AO2 TWR VIS 4
14837KMSN MSN20021105185012611/05/02 18:50:31  5-MIN KMSN 060050Z 00000KT 3SM BR OVC019 02/02 A2975 1020 96 -200 000/00 RMK AO2 TWR VIS 4 SLP083 T00220017
14837KMSN MSN20021105185510911/05/02 18:55:31  5-MIN KMSN 060055Z 00000KT 3SM BR OVC019 02/02 A2975 1020 96 -200 000/00 RMK AO2 TWR VIS 4
14837KMSN MSN20021105190009911/05/02 19:00:31  5-MIN KMSN 060100Z 31003KT 4SM BR OVC019 02/02 A2975 1020 96 -200 310/03 RMK AO2
14837KMSN MSN20021105190509911/05/02 19:05:31  5-MIN KMSN 060105Z 31003KT 4SM BR OVC019 03/02 A2975 1020 92 -100 310/03 RMK AO2
14837KMSN MSN20021105191009911/05/02 19:10:31  5-MIN KMSN 060110Z 00000KT 4SM BR OVC019 03/02 A2975 1020 92 -100 000/00 RMK AO2
14837KMSN MSN20021105191510911/05/02 19:15:31  5-MIN KMSN 060115Z VRB03KT 3SM BR OVC019 03/02 A2976 1020 92 -100 VRB/03 RMK AO2 TWR VIS 4
14837KMSN MSN20021105192011611/05/02 19:20:31  5-MIN KMSN 060120Z 30004KT 3SM BR FEW008 OVC019 03/02 A2976 1020 92 -100 300/04 RMK AO2 TWR VIS 4
14837KMSN MSN20021105192511611/05/02 19:25:31  5-MIN KMSN 060125Z 31004KT 3SM BR FEW008 OVC019 03/02 A2976 1020 92 -100 310/04 RMK AO2 TWR VIS 4
14837KMSN MSN20021105193011611/05/02 19:30:31  5-MIN KMSN 060130Z 31004KT 3SM BR SCT008 OVC019 03/02 A2976 1010 92 -100 310/04 RMK AO2 TWR VIS 4
14837KMSN MSN20021105193512811/05/02 19:35:31  5-MIN KMSN 060135Z 32004KT 3SM BR BKN008 OVC019 03/02 A2976 1010 92 -100 320/04 RMK AO2 TWR VIS 4 CIG 006V010
14837KMSN MSN20021105194011611/05/02 19:40:31  5-MIN KMSN 060140Z 31005KT 3SM BR SCT008 OVC015 03/02 A2976 1010 92 -100 310/05 RMK AO2 TWR VIS 4
14837KMSN MSN20021105194511611/05/02 19:45:31  5-MIN KMSN 060145Z 32006KT 3SM BR SCT008 OVC013 03/01 A2976 1010 89 -100 310/06 RMK AO2 TWR VIS 4
14837KMSN MSN20021105195013311/05/02 19:50:31  5-MIN KMSN 060150Z 31007KT 3SM BR SCT008 OVC013 02/01 A2977 1010 92 -200 310/07 RMK AO2 TWR VIS 4 SLP087 T00220011
14837KMSN MSN20021105195510611/05/02 19:55:31  5-MIN KMSN 060155Z 31006KT 4SM BR FEW008 OVC015 02/01 A2977 1010 92 -200 310/06 RMK AO2
14837KMSN MSN20021105200010611/05/02 20:00:31  5-MIN KMSN 060200Z 31006KT 4SM BR FEW008 OVC015 02/01 A2977 1000 92 -200 310/06 RMK AO2
14837KMSN MSN20021105200509911/05/02 20:05:31  5-MIN KMSN 060205Z 31005KT 4SM BR OVC013 02/01 A2977 1000 92 -200 310/05 RMK AO2
14837KMSN MSN20021105201009911/05/02 20:10:31  5-MIN KMSN 060210Z 31006KT 4SM BR OVC013 02/01 A2978 1000 89 -200 310/06 RMK AO2
14837KMSN MSN20021105201509911/05/02 20:15:31  5-MIN KMSN 060215Z 32006KT 4SM BR OVC013 02/01 A2977 1000 89 -200 320/06 RMK AO2
14837KMSN MSN20021105202010611/05/02 20:20:31  5-MIN KMSN 060220Z 32005KT 4SM BR BKN013 OVC018 02/01 A2978 1000 89 -200 320/05 RMK AO2
14837KMSN MSN20021105202509911/05/02 20:25:31  5-MIN KMSN 060225Z 31004KT 4SM BR OVC016 02/01 A2977 1000 89 -200 310/04 RMK AO2
14837KMSN MSN20021105203010611/05/02 20:30:31  5-MIN KMSN 060230Z 29004KT 4SM BR SCT012 OVC016 02/01 A2977 1000 89 -200 290/04 RMK AO2
14837KMSN MSN20021105203509911/05/02 20:35:31  5-MIN KMSN 060235Z 30003KT 4SM BR OVC016 02/01 A2977 1000 89 -200 290/03 RMK AO2
14837KMSN MSN20021105204009911/05/02 20:40:31  5-MIN KMSN 060240Z 29004KT 4SM BR OVC016 02/01 A2977 1000 92 -200 290/04 RMK AO2
14837KMSN MSN20021105204509911/05/02 20:45:31  5-MIN KMSN 060245Z 30004KT 4SM BR OVC016 02/01 A2977 1000 89 -200 300/04 RMK AO2
14837KMSN MSN20021105205012211/05/02 20:50:31  5-MIN KMSN 060250Z 30004KT 4SM BR OVC014 02/01 A2977 1000 89 -200 300/04 RMK AO2 SLP090 T00220006 50005
14837KMSN MSN20021105205509911/05/02 20:55:31  5-MIN KMSN 060255Z 29005KT 4SM BR OVC014 02/01 A2978 1000 89 -200 290/05 RMK AO2
14837KMSN MSN20021105210009911/05/02 21:00:31  5-MIN KMSN 060300Z 29006KT 4SM BR OVC012 02/01 A2977 1000 89 -200 290/06 RMK AO2
14837KMSN MSN20021105210509911/05/02 21:05:31  5-MIN KMSN 060305Z 30004KT 4SM BR OVC012 02/01 A2977 1000 89 -200 300/04 RMK AO2
14837KMSN MSN20021105211009911/05/02 21:10:31  5-MIN KMSN 060310Z VRB06KT 4SM BR OVC012 02/01 A2977 1000 89 -200 VRB/06 RMK AO2
14837KMSN MSN20021105211509911/05/02 21:15:31  5-MIN KMSN 060315Z 32006KT 4SM BR OVC012 02/01 A2977 1000 89 -200 320/06 RMK AO2
14837KMSN MSN20021105212009911/05/02 21:20:31  5-MIN KMSN 060320Z 31006KT 4SM BR OVC012 02/01 A2977 1000 89 -200 310/06 RMK AO2
14837KMSN MSN20021105212509911/05/02 21:25:31  5-MIN KMSN 060325Z 31006KT 4SM BR OVC012 02/01 A2977 1000 89 -200 310/06 RMK AO2
14837KMSN MSN20021105213009911/05/02 21:30:31  5-MIN KMSN 060330Z VRB05KT 5SM BR OVC012 02/01 A2977 1000 89 -200 VRB/05 RMK AO2
14837KMSN MSN20021105213509911/05/02 21:35:31  5-MIN KMSN 060335Z 31007KT 5SM BR OVC012 02/01 A2978 1000 89 -200 310/07 RMK AO2
14837KMSN MSN20021105214011111/05/02 21:40:31  5-MIN KMSN 060340Z 32005KT 5SM BR OVC010 02/01 A2978 1000 89 -200 320/05 RMK AO2 CIG 009V013
14837KMSN MSN20021105214511111/05/02 21:45:31  5-MIN KMSN 060345Z 31007KT 4SM BR OVC010 02/01 A2978 1000 89 -200 300/07 RMK AO2 CIG 009V013
14837KMSN MSN20021105215012811/05/02 21:50:31  5-MIN KMSN 060350Z 31007KT 5SM BR OVC010 02/01 A2978 1000 89 -200 310/07 RMK AO2 CIG 009V013 SLP092 T00220006
14837KMSN MSN20021105215511111/05/02 21:55:31  5-MIN KMSN 060355Z 31008KT 5SM BR OVC010 02/01 A2978 1000 89 -200 310/08 RMK AO2 CIG 009V013
14837KMSN MSN20021105220011111/05/02 22:00:31  5-MIN KMSN 060400Z 31006KT 5SM BR OVC010 02/00 A2978 1000 85 -200 310/06 RMK AO2 CIG 009V013
14837KMSN MSN20021105220511111/05/02 22:05:31  5-MIN KMSN 060405Z 30005KT 5SM BR OVC010 02/01 A2978 1000 89 -200 300/05 RMK AO2 CIG 009V013
14837KMSN MSN20021105221009911/05/02 22:10:31  5-MIN KMSN 060410Z 30007KT 5SM BR OVC010 02/00 A2978 1000 85 -200 300/07 RMK AO2
14837KMSN MSN20021105221509911/05/02 22:15:31  5-MIN KMSN 060415Z 30005KT 5SM BR OVC010 02/01 A2978 1000 89 -200 300/05 RMK AO2
14837KMSN MSN20021105222009811/05/02 22:20:31  5-MIN KMSN 060420Z 30006KT 5SM BR OVC010 02/00 A2978 990 85 -200 300/06 RMK AO2
14837KMSN MSN20021105222509811/05/02 22:25:31  5-MIN KMSN 060425Z 31008KT 5SM BR OVC010 02/00 A2978 990 85 -200 300/08 RMK AO2
14837KMSN MSN20021105223009811/05/02 22:30:31  5-MIN KMSN 060430Z 31008KT 5SM BR OVC010 02/00 A2978 990 89 -300 300/08 RMK AO2
14837KMSN MSN20021105223509811/05/02 22:35:31  5-MIN KMSN 060435Z 30008KT 5SM BR OVC010 02/00 A2979 990 89 -300 300/08 RMK AO2
14837KMSN MSN20021105224009811/05/02 22:40:31  5-MIN KMSN 060440Z 29006KT 5SM BR OVC010 02/00 A2979 990 89 -300 290/06 RMK AO2
14837KMSN MSN20021105224509811/05/02 22:45:31  5-MIN KMSN 060445Z 29007KT 5SM BR OVC010 02/00 A2979 990 89 -300 290/07 RMK AO2
14837KMSN MSN20021105225011511/05/02 22:50:31  5-MIN KMSN 060450Z 29006KT 5SM BR OVC010 02/00 A2979 990 89 -300 290/06 RMK AO2 SLP096 T00170000
14837KMSN MSN20021105225509811/05/02 22:55:31  5-MIN KMSN 060455Z 29006KT 5SM BR OVC008 02/00 A2979 980 89 -300 290/06 RMK AO2
14837KMSN MSN20021105230009811/05/02 23:00:31  5-MIN KMSN 060500Z 32007KT 4SM BR OVC008 02/00 A2979 980 89 -300 320/07 RMK AO2
14837KMSN MSN20021105230509811/05/02 23:05:31  5-MIN KMSN 060505Z 32007KT 5SM BR OVC008 01/00 A2979 980 92 -400 320/07 RMK AO2
14837KMSN MSN20021105231009811/05/02 23:10:31  5-MIN KMSN 060510Z 31006KT 5SM BR OVC008 01/00 A2979 980 92 -400 310/06 RMK AO2
14837KMSN MSN20021105231509911/05/02 23:15:31  5-MIN KMSN 060515Z 32008KT 5SM BR OVC008 01/M01 A2980 980 89 -400 320/08 RMK AO2
14837KMSN MSN20021105232009911/05/02 23:20:31  5-MIN KMSN 060520Z 32008KT 5SM BR OVC008 01/M01 A2980 980 89 -400 310/08 RMK AO2
14837KMSN MSN20021105232509911/05/02 23:25:31  5-MIN KMSN 060525Z 32009KT 5SM BR OVC008 01/M01 A2980 980 89 -400 320/09 RMK AO2
14837KMSN MSN20021105233011111/05/02 23:30:31  5-MIN KMSN 060530Z 32007KT 5SM BR OVC008 01/M01 A2980 970 89 -400 320/07 RMK AO2 CIG 007V012
14837KMSN MSN20021105233511111/05/02 23:35:31  5-MIN KMSN 060535Z 31005KT 6SM BR OVC008 01/M01 A2980 970 85 -400 310/05 RMK AO2 CIG 007V012
14837KMSN MSN20021105234011111/05/02 23:40:31  5-MIN KMSN 060540Z 31005KT 6SM BR OVC008 01/M01 A2981 970 89 -400 310/05 RMK AO2 CIG 007V012
14837KMSN MSN20021105234511111/05/02 23:45:31  5-MIN KMSN 060545Z 29007KT 5SM BR OVC008 01/M01 A2981 970 89 -400 290/07 RMK AO2 CIG 007V012
14837KMSN MSN20021105235016311/05/02 23:50:31  5-MIN KMSN 060550Z 31008KT 5SM BR BKN010 OVC015 01/M01 A2981 960 89 -400 300/08 RMK AO2 CIG 007V012 SLP103 T00111006 10028 20011 400281006 51011
14837KMSN MSN20021105235509911/05/02 23:55:31  5-MIN KMSN 060555Z 30006KT 6SM BR OVC013 01/M01 A2981 960 85 -400 300/06 RMK AO2
14837KMSN MSN20021106000010611/06/02 00:00:31  5-MIN KMSN 060600Z VRB04KT 6SM BR SCT009 OVC013 01/M01 A2981 960 85 -400 VRB/04 RMK AO2
14837KMSN MSN20021106000509911/06/02 00:05:31  5-MIN KMSN 060605Z VRB06KT 6SM BR OVC013 01/M01 A2981 960 85 -400 VRB/06 RMK AO2
14837KMSN MSN20021106001009911/06/02 00:10:31  5-MIN KMSN 060610Z 30008KT 6SM BR OVC013 01/M01 A2981 960 85 -400 300/08 RMK AO2
14837KMSN MSN20021106001509911/06/02 00:15:31  5-MIN KMSN 060615Z 31006KT 6SM BR OVC013 01/M01 A2981 960 85 -400 310/06 RMK AO2
14837KMSN MSN20021106002009911/06/02 00:20:31  5-MIN KMSN 060620Z 30006KT 6SM BR OVC013 01/M01 A2981 960 85 -400 300/06 RMK AO2
14837KMSN MSN20021106002509911/06/02 00:25:31  5-MIN KMSN 060625Z 29005KT 6SM BR OVC013 01/M01 A2981 960 85 -400 290/05 RMK AO2
14837KMSN MSN20021106003009911/06/02 00:30:31  5-MIN KMSN 060630Z 30006KT 6SM BR OVC013 01/M01 A2981 960 85 -400 300/06 RMK AO2
14837KMSN MSN20021106003509911/06/02 00:35:31  5-MIN KMSN 060635Z 31005KT 6SM BR OVC013 01/M01 A2982 960 85 -400 310/05 RMK AO2
14837KMSN MSN20021106004009911/06/02 00:40:31  5-MIN KMSN 060640Z 31007KT 6SM BR OVC013 01/M01 A2982 960 85 -400 310/07 RMK AO2
14837KMSN MSN20021106004509911/06/02 00:45:31  5-MIN KMSN 060645Z 30007KT 6SM BR OVC013 01/M01 A2981 960 85 -400 290/07 RMK AO2
14837KMSN MSN20021106005011611/06/02 00:50:31  5-MIN KMSN 060650Z VRB05KT 6SM BR OVC013 01/M01 A2982 960 85 -400 VRB/05 RMK AO2 SLP105 T00111011
14837KMSN MSN20021106005509911/06/02 00:55:31  5-MIN KMSN 060655Z VRB06KT 6SM BR OVC013 01/M01 A2982 960 85 -400 VRB/06 RMK AO2
14837KMSN MSN20021106010009911/06/02 01:00:31  5-MIN KMSN 060700Z 29008KT 6SM BR OVC013 01/M01 A2981 960 85 -400 290/08 RMK AO2
14837KMSN MSN20021106010509911/06/02 01:05:31  5-MIN KMSN 060705Z 30007KT 6SM BR OVC013 01/M01 A2982 960 85 -400 300/07 RMK AO2
14837KMSN MSN20021106011009911/06/02 01:10:31  5-MIN KMSN 060710Z 31005KT 6SM BR OVC013 01/M01 A2981 960 85 -400 300/05 RMK AO2
14837KMSN MSN20021106011509911/06/02 01:15:31  5-MIN KMSN 060715Z 29007KT 6SM BR OVC013 01/M01 A2982 960 85 -400 290/07 RMK AO2
14837KMSN MSN20021106012009911/06/02 01:20:31  5-MIN KMSN 060720Z 31006KT 6SM BR OVC013 01/M01 A2982 960 85 -400 300/06 RMK AO2
14837KMSN MSN20021106012509911/06/02 01:25:31  5-MIN KMSN 060725Z 30006KT 5SM BR OVC013 01/M01 A2982 960 85 -400 300/06 RMK AO2
14837KMSN MSN20021106013009911/06/02 01:30:31  5-MIN KMSN 060730Z 31006KT 4SM BR OVC013 01/M01 A2982 960 85 -400 310/06 RMK AO2
14837KMSN MSN20021106013509911/06/02 01:35:31  5-MIN KMSN 060735Z 31005KT 4SM BR OVC013 01/M01 A2982 960 85 -400 310/05 RMK AO2
14837KMSN MSN20021106014009911/06/02 01:40:31  5-MIN KMSN 060740Z 30007KT 4SM BR OVC013 01/M01 A2982 950 85 -400 300/07 RMK AO2
14837KMSN MSN20021106014509911/06/02 01:45:31  5-MIN KMSN 060745Z VRB05KT 4SM BR OVC013 01/M01 A2983 950 89 -400 VRB/05 RMK AO2
14837KMSN MSN20021106015011611/06/02 01:50:31  5-MIN KMSN 060750Z 31007KT 4SM BR OVC013 01/M01 A2983 950 89 -400 310/07 RMK AO2 SLP109 T00111006
14837KMSN MSN20021106015509911/06/02 01:55:31  5-MIN KMSN 060755Z 31006KT 4SM BR OVC013 01/M01 A2983 950 85 -400 310/06 RMK AO2
14837KMSN MSN20021106020009911/06/02 02:00:31  5-MIN KMSN 060800Z 29010KT 4SM BR OVC013 01/M01 A2983 950 85 -400 290/10 RMK AO2
14837KMSN MSN20021106020509911/06/02 02:05:31  5-MIN KMSN 060805Z 31008KT 4SM BR OVC013 01/M01 A2983 950 85 -400 310/08 RMK AO2
14837KMSN MSN20021106021009911/06/02 02:10:31  5-MIN KMSN 060810Z 31007KT 4SM BR OVC013 01/M01 A2983 950 85 -400 300/07 RMK AO2
14837KMSN MSN20021106021509911/06/02 02:15:31  5-MIN KMSN 060815Z 31009KT 4SM BR OVC013 01/M01 A2983 950 89 -400 310/09 RMK AO2
14837KMSN MSN20021106022009911/06/02 02:20:31  5-MIN KMSN 060820Z 31007KT 4SM BR OVC013 01/M01 A2983 950 89 -400 310/07 RMK AO2
14837KMSN MSN20021106022509911/06/02 02:25:31  5-MIN KMSN 060825Z 30006KT 4SM BR OVC013 01/M01 A2983 950 89 -400 300/06 RMK AO2
14837KMSN MSN20021106023009911/06/02 02:30:31  5-MIN KMSN 060830Z 31004KT 4SM BR OVC013 01/M01 A2983 950 89 -400 310/04 RMK AO2
14837KMSN MSN20021106023509911/06/02 02:35:31  5-MIN KMSN 060835Z 31004KT 4SM BR OVC013 01/M01 A2983 950 89 -400 300/04 RMK AO2
14837KMSN MSN20021106024009911/06/02 02:40:31  5-MIN KMSN 060840Z VRB04KT 4SM BR OVC013 01/M01 A2983 950 89 -400 VRB/04 RMK AO2
14837KMSN MSN20021106024509911/06/02 02:45:31  5-MIN KMSN 060845Z 30005KT 4SM BR OVC013 01/M01 A2983 950 89 -400 300/05 RMK AO2
14837KMSN MSN20021106025012911/06/02 02:50:31  5-MIN KMSN 060850Z 28006KT 4SM BR BKN013 OVC017 01/M01 A2983 950 89 -400 280/06 RMK AO2 SLP108 T00111006 53013
14837KMSN MSN20021106025510611/06/02 02:55:31  5-MIN KMSN 060855Z 30005KT 5SM BR BKN013 OVC017 01/M01 A2982 950 89 -400 300/05 RMK AO2
14837KMSN MSN20021106030010611/06/02 03:00:31  5-MIN KMSN 060900Z 28004KT 4SM BR SCT013 OVC019 01/M01 A2982 950 89 -400 270/04 RMK AO2
14837KMSN MSN20021106030510611/06/02 03:05:31  5-MIN KMSN 060905Z 29004KT 4SM BR SCT013 OVC019 01/M01 A2983 950 89 -400 290/04 RMK AO2
14837KMSN MSN20021106031010611/06/02 03:10:31  5-MIN KMSN 060910Z 28004KT 4SM BR SCT011 OVC019 01/M01 A2983 950 89 -400 280/04 RMK AO2
14837KMSN MSN20021106031510611/06/02 03:15:31  5-MIN KMSN 060915Z VRB04KT 4SM BR FEW011 OVC019 01/M01 A2982 950 89 -400 VRB/04 RMK AO2
14837KMSN MSN20021106032010611/06/02 03:20:31  5-MIN KMSN 060920Z 29005KT 4SM BR FEW011 OVC021 01/M01 A2983 950 89 -400 290/05 RMK AO2
14837KMSN MSN20021106032510611/06/02 03:25:31  5-MIN KMSN 060925Z 29004KT 4SM BR SCT011 OVC021 01/M01 A2983 950 89 -400 280/04 RMK AO2
14837KMSN MSN20021106033010611/06/02 03:30:31  5-MIN KMSN 060930Z 28005KT 4SM BR BKN009 OVC021 01/M01 A2983 950 89 -400 280/05 RMK AO2
14837KMSN MSN20021106033510611/06/02 03:35:31  5-MIN KMSN 060935Z VRB05KT 4SM BR BKN009 OVC021 01/M01 A2983 940 89 -400 VRB/05 RMK AO2
14837KMSN MSN20021106034010611/06/02 03:40:31  5-MIN KMSN 060940Z VRB05KT 4SM BR BKN009 OVC021 01/M01 A2984 940 89 -400 VRB/05 RMK AO2
14837KMSN MSN20021106034509911/06/02 03:45:31  5-MIN KMSN 060945Z VRB05KT 4SM BR OVC009 01/M01 A2984 940 89 -400 VRB/05 RMK AO2
14837KMSN MSN20021106035011611/06/02 03:50:31  5-MIN KMSN 060950Z VRB03KT 4SM BR OVC009 01/M01 A2983 940 89 -400 VRB/03 RMK AO2 SLP111 T00111006
14837KMSN MSN20021106035509911/06/02 03:55:31  5-MIN KMSN 060955Z 28003KT 4SM BR OVC009 01/M01 A2983 940 89 -400 280/03 RMK AO2
14837KMSN MSN20021106040009911/06/02 04:00:31  5-MIN KMSN 061000Z 28004KT 4SM BR OVC009 01/M01 A2983 950 89 -400 280/04 RMK AO2
14837KMSN MSN20021106040509911/06/02 04:05:31  5-MIN KMSN 061005Z 28005KT 4SM BR OVC009 01/M01 A2983 940 89 -400 280/05 RMK AO2
14837KMSN MSN20021106041009911/06/02 04:10:31  5-MIN KMSN 061010Z 28006KT 4SM BR OVC009 01/M01 A2984 940 89 -400 280/06 RMK AO2
14837KMSN MSN20021106041509911/06/02 04:15:31  5-MIN KMSN 061015Z 29004KT 4SM BR OVC009 01/M01 A2984 940 89 -400 290/04 RMK AO2
14837KMSN MSN20021106042011111/06/02 04:20:31  5-MIN KMSN 061020Z VRB03KT 4SM BR OVC009 02/M01 A2984 940 85 -400 VRB/03 RMK AO2 CIG 009V012
14837KMSN MSN20021106042511111/06/02 04:25:31  5-MIN KMSN 061025Z 00000KT 4SM BR OVC009 02/M01 A2984 940 85 -400 000/00 RMK AO2 CIG 009V012
14837KMSN MSN20021106043011011/06/02 04:30:31  5-MIN KMSN 061030Z VRB04KT 4SM BR OVC009 02/00 A2984 940 89 -400 VRB/04 RMK AO2 CIG 009V012
14837KMSN MSN20021106043509811/06/02 04:35:31  5-MIN KMSN 061035Z 28004KT 4SM BR OVC011 02/00 A2984 940 89 -400 280/04 RMK AO2
14837KMSN MSN20021106044009811/06/02 04:40:31  5-MIN KMSN 061040Z VRB06KT 4SM BR OVC011 02/00 A2985 930 89 -400 VRB/06 RMK AO2
14837KMSN MSN20021106044509811/06/02 04:45:31  5-MIN KMSN 061045Z 29006KT 4SM BR OVC011 02/00 A2985 930 89 -400 290/06 RMK AO2
14837KMSN MSN20021106045011511/06/02 04:50:31  5-MIN KMSN 061050Z 27005KT 4SM BR OVC011 02/00 A2985 930 89 -400 270/05 RMK AO2 SLP116 T00170000
14837KMSN MSN20021106045509811/06/02 04:55:31  5-MIN KMSN 061055Z 26005KT 4SM BR OVC011 02/00 A2985 930 89 -400 260/05 RMK AO2
14837KMSN MSN20021106050009811/06/02 05:00:31  5-MIN KMSN 061100Z VRB05KT 4SM BR OVC011 02/00 A2985 930 89 -400 VRB/05 RMK AO2
14837KMSN MSN20021106050509811/06/02 05:05:31  5-MIN KMSN 061105Z VRB06KT 4SM BR OVC011 02/00 A2985 930 89 -400 VRB/06 RMK AO2
14837KMSN MSN20021106051009811/06/02 05:10:31  5-MIN KMSN 061110Z VRB05KT 4SM BR OVC011 02/00 A2986 920 89 -400 VRB/05 RMK AO2
14837KMSN MSN20021106051509811/06/02 05:15:31  5-MIN KMSN 061115Z VRB05KT 4SM BR OVC011 02/00 A2985 930 89 -400 VRB/05 RMK AO2
14837KMSN MSN20021106052009811/06/02 05:20:31  5-MIN KMSN 061120Z VRB05KT 4SM BR OVC011 02/00 A2985 930 89 -400 VRB/05 RMK AO2
14837KMSN MSN20021106052509811/06/02 05:25:31  5-MIN KMSN 061125Z 26005KT 4SM BR OVC011 02/00 A2985 930 89 -400 250/05 RMK AO2
14837KMSN MSN20021106053009811/06/02 05:30:31  5-MIN KMSN 061130Z VRB06KT 4SM BR OVC011 02/00 A2986 920 89 -400 VRB/06 RMK AO2
14837KMSN MSN20021106053509811/06/02 05:35:31  5-MIN KMSN 061135Z 26004KT 4SM BR OVC011 02/00 A2986 920 89 -400 260/04 RMK AO2
14837KMSN MSN20021106054009811/06/02 05:40:31  5-MIN KMSN 061140Z VRB05KT 4SM BR OVC011 02/00 A2986 920 89 -400 VRB/05 RMK AO2
14837KMSN MSN20021106054509811/06/02 05:45:31  5-MIN KMSN 061145Z 26005KT 4SM BR OVC011 02/00 A2986 920 89 -400 260/05 RMK AO2
14837KMSN MSN20021106055013911/06/02 05:50:31  5-MIN KMSN 061150Z VRB04KT 4SM BR OVC011 02/00 A2986 920 85 -300 VRB/04 RMK AO2 SLP119 70009 T00220000 10022 20011 50004
14837KMSN MSN20021106055509811/06/02 05:55:31  5-MIN KMSN 061155Z 27007KT 4SM BR OVC011 02/00 A2987 920 85 -300 270/07 RMK AO2
14837KMSN MSN20021106060009811/06/02 06:00:31  5-MIN KMSN 061200Z VRB06KT 4SM BR OVC011 02/00 A2987 910 85 -300 VRB/06 RMK AO2
14837KMSN MSN20021106060509811/06/02 06:05:31  5-MIN KMSN 061205Z VRB05KT 4SM BR OVC011 02/00 A2987 910 85 -300 VRB/05 RMK AO2
14837KMSN MSN20021106061009811/06/02 06:10:31  5-MIN KMSN 061210Z VRB06KT 4SM BR OVC011 02/01 A2987 910 89 -300 VRB/06 RMK AO2
14837KMSN MSN20021106061509811/06/02 06:15:31  5-MIN KMSN 061215Z 27006KT 3SM BR OVC011 02/01 A2988 910 89 -300 260/06 RMK AO2
14837KMSN MSN20021106062009811/06/02 06:20:31  5-MIN KMSN 061220Z 27006KT 3SM BR OVC011 02/01 A2988 900 89 -300 270/06 RMK AO2
14837KMSN MSN20021106062509811/06/02 06:25:31  5-MIN KMSN 061225Z VRB06KT 3SM BR OVC011 02/01 A2988 900 89 -300 VRB/06 RMK AO2
14837KMSN MSN20021106063009811/06/02 06:30:31  5-MIN KMSN 061230Z 27006KT 3SM BR OVC011 02/01 A2988 900 89 -300 270/06 RMK AO2
14837KMSN MSN20021106063509811/06/02 06:35:31  5-MIN KMSN 061235Z 27006KT 3SM BR OVC011 02/01 A2988 900 89 -300 270/06 RMK AO2
14837KMSN MSN20021106064009811/06/02 06:40:31  5-MIN KMSN 061240Z 28006KT 3SM BR OVC011 02/01 A2988 900 89 -300 280/06 RMK AO2
14837KMSN MSN20021106064509811/06/02 06:45:31  5-MIN KMSN 061245Z 26007KT 3SM BR OVC011 02/01 A2988 900 89 -300 260/07 RMK AO2
14837KMSN MSN20021106065011511/06/02 06:50:31  5-MIN KMSN 061250Z 27008KT 3SM BR OVC013 02/01 A2989 900 89 -300 270/08 RMK AO2 SLP128 T00220006
14837KMSN MSN20021106065511211/06/02 06:55:31  5-MIN KMSN 061255Z VRB05KT 2 1/2SM BR OVC013 02/01 A2989 900 89 -300 VRB/05 RMK AO2 SFC VIS 3
14837KMSN MSN20021106070011211/06/02 07:00:31  5-MIN KMSN 061300Z 28006KT 2 1/2SM BR OVC013 02/01 A2989 890 89 -400 280/06 RMK AO2 SFC VIS 3
14837KMSN MSN20021106070511911/06/02 07:05:31  5-MIN KMSN 061305Z VRB05KT 2 1/2SM BR BKN013 OVC030 02/01 A2989 890 89 -400 VRB/05 RMK AO2 SFC VIS 3
14837KMSN MSN20021106071011911/06/02 07:10:31  5-MIN KMSN 061310Z VRB05KT 2 1/2SM BR BKN013 OVC030 02/01 A2989 890 89 -400 VRB/05 RMK AO2 SFC VIS 3
14837KMSN MSN20021106071511911/06/02 07:15:31  5-MIN KMSN 061315Z 27006KT 2 1/2SM BR SCT013 OVC028 02/01 A2989 890 89 -400 270/06 RMK AO2 SFC VIS 3
14837KMSN MSN20021106072011911/06/02 07:20:31  5-MIN KMSN 061320Z 27004KT 2 1/2SM BR SCT013 OVC028 02/01 A2989 890 89 -400 270/04 RMK AO2 SFC VIS 3
14837KMSN MSN20021106072511911/06/02 07:25:31  5-MIN KMSN 061325Z VRB05KT 2 1/2SM BR FEW013 OVC028 02/01 A2989 890 89 -400 VRB/05 RMK AO2 SFC VIS 3
14837KMSN MSN20021106073011211/06/02 07:30:31  5-MIN KMSN 061330Z 27006KT 2 1/2SM BR OVC028 02/01 A2989 890 89 -400 270/06 RMK AO2 SFC VIS 3
14837KMSN MSN20021106073511211/06/02 07:35:31  5-MIN KMSN 061335Z 25006KT 2 1/2SM BR OVC026 02/01 A2990 890 89 -400 250/06 RMK AO2 SFC VIS 3
14837KMSN MSN20021106074011211/06/02 07:40:31  5-MIN KMSN 061340Z VRB04KT 2 1/2SM BR OVC026 02/00 A2989 890 85 -400 VRB/04 RMK AO2 SFC VIS 3
14837KMSN MSN20021106074511211/06/02 07:45:31  5-MIN KMSN 061345Z VRB05KT 2 1/2SM BR OVC026 02/00 A2989 890 85 -400 VRB/05 RMK AO2 SFC VIS 3
14837KMSN MSN20021106075012911/06/02 07:50:31  5-MIN KMSN 061350Z 26005KT 2 1/2SM HZ OVC026 03/00 A2990 890 82 -300 260/05 RMK AO2 SFC VIS 3 SLP131 T00280000
14837KMSN MSN20021106075509811/06/02 07:55:31  5-MIN KMSN 061355Z 26005KT 4SM HZ OVC026 03/00 A2990 880 82 -300 260/05 RMK AO2
14837KMSN MSN20021106080009811/06/02 08:00:31  5-MIN KMSN 061400Z 27008KT 4SM HZ OVC026 03/00 A2990 880 82 -300 270/08 RMK AO2
14837KMSN MSN20021106080509811/06/02 08:05:31  5-MIN KMSN 061405Z VRB06KT 4SM HZ OVC026 03/00 A2990 880 82 -300 VRB/06 RMK AO2
14837KMSN MSN20021106081009811/06/02 08:10:31  5-MIN KMSN 061410Z 27006KT 6SM HZ OVC028 03/00 A2990 880 82 -300 260/06 RMK AO2
14837KMSN MSN20021106081509811/06/02 08:15:31  5-MIN KMSN 061415Z VRB05KT 6SM HZ OVC028 03/00 A2990 880 82 -300 VRB/05 RMK AO2
14837KMSN MSN20021106082009811/06/02 08:20:31  5-MIN KMSN 061420Z 27006KT 6SM HZ OVC028 03/00 A2991 880 82 -300 270/06 RMK AO2
14837KMSN MSN20021106082509811/06/02 08:25:31  5-MIN KMSN 061425Z 27006KT 6SM HZ OVC028 03/00 A2991 870 82 -300 270/06 RMK AO2
14837KMSN MSN20021106083009811/06/02 08:30:31  5-MIN KMSN 061430Z 26006KT 6SM HZ OVC028 03/00 A2991 870 82 -300 260/06 RMK AO2
14837KMSN MSN20021106083509511/06/02 08:35:31  5-MIN KMSN 061435Z 27008KT 7SM OVC028 03/00 A2992 870 82 -300 270/08 RMK AO2
14837KMSN MSN20021106084009611/06/02 08:40:31  5-MIN KMSN 061440Z 26007KT 7SM OVC028 03/M01 A2992 870 79 -300 260/07 RMK AO2
14837KMSN MSN20021106084509611/06/02 08:45:31  5-MIN KMSN 061445Z 27008KT 7SM OVC028 03/M01 A2992 870 79 -300 270/08 RMK AO2
14837KMSN MSN20021106085011911/06/02 08:50:31  5-MIN KMSN 061450Z VRB05KT 7SM OVC026 03/M01 A2992 870 79 -300 VRB/05 RMK AO2 SLP139 T00281006 53013
14837KMSN MSN20021106085509611/06/02 08:55:31  5-MIN KMSN 061455Z 25006KT 7SM OVC026 03/M01 A2992 860 79 -300 250/06 RMK AO2
14837KMSN MSN20021106090011211/06/02 09:00:31  5-MIN KMSN 061500Z 27008KT 240V310 7SM OVC026 03/M01 A2992 860 76 -300 270/08 240V310 RMK AO2
14837KMSN MSN20021106090509611/06/02 09:05:31  5-MIN KMSN 061505Z 26008KT 7SM OVC026 03/M01 A2992 860 76 -300 260/08 RMK AO2
14837KMSN MSN20021106091011211/06/02 09:10:31  5-MIN KMSN 061510Z 27008KT 230V300 7SM OVC026 03/M01 A2993 860 76 -300 270/08 230V300 RMK AO2
14837KMSN MSN20021106091511211/06/02 09:15:31  5-MIN KMSN 061515Z 29007KT 250V310 7SM OVC026 03/M01 A2993 860 76 -300 290/07 250V310 RMK AO2
14837KMSN MSN20021106092009611/06/02 09:20:31  5-MIN KMSN 061520Z VRB06KT 7SM OVC026 03/M01 A2993 860 72 -300 VRB/06 RMK AO2
14837KMSN MSN20021106092509611/06/02 09:25:31  5-MIN KMSN 061525Z 28010KT 7SM OVC026 03/M01 A2993 860 72 -300 280/10 RMK AO2
14837KMSN MSN20021106093009611/06/02 09:30:31  5-MIN KMSN 061530Z 29009KT 7SM OVC026 03/M01 A2993 860 72 -300 290/09 RMK AO2
14837KMSN MSN20021106093509611/06/02 09:35:31  5-MIN KMSN 061535Z VRB06KT 7SM OVC026 03/M01 A2993 860 72 -300 VRB/06 RMK AO2
14837KMSN MSN20021106094009611/06/02 09:40:31  5-MIN KMSN 061540Z 28007KT 7SM OVC024 03/M01 A2993 860 72 -300 280/07 RMK AO2
14837KMSN MSN20021106094511211/06/02 09:45:31  5-MIN KMSN 061545Z 27008KT 240V310 7SM OVC024 03/M01 A2993 850 72 -300 270/08 240V310 RMK AO2
14837KMSN MSN20021106095011311/06/02 09:50:31  5-MIN KMSN 061550Z 28009KT 7SM OVC024 03/M01 A2993 850 72 -300 280/09 RMK AO2 SLP143 T00331011
14837KMSN MSN20021106095511811/06/02 09:55:31  5-MIN KMSN 061555Z 29009G14KT 250V330 8SM OVC022 03/M01 A2993 850 72 -300 290/09G14 250V330 RMK AO2
14837KMSN MSN20021106100010211/06/02 10:00:31  5-MIN KMSN 061600Z 28010G14KT 8SM OVC022 03/M01 A2994 850 72 -300 280/10G14 RMK AO2
14837KMSN MSN20021106100509611/06/02 10:05:31  5-MIN KMSN 061605Z 29010KT 8SM OVC022 03/M01 A2994 850 72 -300 290/10 RMK AO2
14837KMSN MSN20021106101009611/06/02 10:10:31  5-MIN KMSN 061610Z 29009KT 8SM OVC022 03/M01 A2994 850 72 -300 290/09 RMK AO2
14837KMSN MSN20021106101509611/06/02 10:15:31  5-MIN KMSN 061615Z 29009KT 8SM OVC022 04/M01 A2994 850 70 -200 290/09 RMK AO2
14837KMSN MSN20021106102009711/06/02 10:20:31  5-MIN KMSN 061620Z 28009KT 10SM OVC022 03/M01 A2994 850 72 -300 270/09 RMK AO2
14837KMSN MSN20021106102509711/06/02 10:25:31  5-MIN KMSN 061625Z 28007KT 10SM OVC022 04/M01 A2994 850 70 -200 280/07 RMK AO2
14837KMSN MSN20021106103009711/06/02 10:30:31  5-MIN KMSN 061630Z VRB06KT 10SM OVC022 04/M01 A2994 840 70 -200 VRB/06 RMK AO2
14837KMSN MSN20021106103510311/06/02 10:35:31  5-MIN KMSN 061635Z 28009G14KT 10SM OVC022 04/M01 A2995 840 70 -200 280/09G14 RMK AO2
14837KMSN MSN20021106104010311/06/02 10:40:31  5-MIN KMSN 061640Z 29010G16KT 10SM OVC022 04/M01 A2995 840 70 -200 290/10G16 RMK AO2
14837KMSN MSN20021106104510311/06/02 10:45:31  5-MIN KMSN 061645Z 27010G16KT 10SM OVC022 04/M01 A2995 840 70 -200 270/10G16 RMK AO2
14837KMSN MSN20021106105012011/06/02 10:50:31  5-MIN KMSN 061650Z 27009G14KT 10SM OVC022 04/M01 A2995 840 70 -200 270/09G14 RMK AO2 SLP148 T00391011
14837KMSN MSN20021106105511211/06/02 10:55:31  5-MIN KMSN 061655Z 28007KT 220V300 8SM OVC022 04/M01 A2995 840 70 -200 280/07 220V300 RMK AO2
14837KMSN MSN20021106110010211/06/02 11:00:31  5-MIN KMSN 061700Z 28010G14KT 8SM OVC022 04/M01 A2995 840 73 -200 270/10G14 RMK AO2
14837KMSN MSN20021106110511911/06/02 11:05:31  5-MIN KMSN 061705Z 28010G14KT 240V310 10SM OVC022 04/M01 A2994 840 70 -200 280/10G14 240V310 RMK AO2
14837KMSN MSN20021106111009711/06/02 11:10:31  5-MIN KMSN 061710Z 29011KT 10SM OVC022 04/M01 A2995 840 70 -200 290/11 RMK AO2
14837KMSN MSN20021106111511311/06/02 11:15:31  5-MIN KMSN 061715Z 27008KT 240V310 10SM OVC022 04/M01 A2995 840 70 -200 270/08 240V310 RMK AO2
14837KMSN MSN20021106112009711/06/02 11:20:31  5-MIN KMSN 061720Z 30008KT 10SM OVC024 04/M01 A2995 840 70 -200 290/08 RMK AO2
14837KMSN MSN20021106112509711/06/02 11:25:31  5-MIN KMSN 061725Z VRB06KT 10SM OVC024 04/M01 A2995 840 70 -200 VRB/06 RMK AO2
14837KMSN MSN20021106113011311/06/02 11:30:31  5-MIN KMSN 061730Z 26007KT 240V300 10SM OVC024 04/M01 A2995 830 70 -200 260/07 240V300 RMK AO2
14837KMSN MSN20021106113510311/06/02 11:35:31  5-MIN KMSN 061735Z 26010G15KT 10SM OVC024 04/M01 A2995 840 70 -200 260/10G15 RMK AO2
14837KMSN MSN20021106114011911/06/02 11:40:31  5-MIN KMSN 061740Z 27008G15KT 230V300 10SM OVC022 04/M01 A2995 840 73 -200 270/08G15 230V300 RMK AO2
14837KMSN MSN20021106114509711/06/02 11:45:31  5-MIN KMSN 061745Z 28009KT 10SM OVC022 04/M01 A2995 840 73 -200 280/09 RMK AO2
14837KMSN MSN20021106115014811/06/02 11:50:31  5-MIN KMSN 061750Z 26008KT 220V290 10SM OVC022 04/M01 A2995 840 70 -200 260/08 220V290 RMK AO2 SLP148 T00391011 10039 20022 51019
14837KMSN MSN20021106115509611/06/02 11:55:31  5-MIN KMSN 061755Z 27008KT 8SM OVC022 04/M01 A2994 840 70 -200 270/08 RMK AO2
14837KMSN MSN20021106120011311/06/02 12:00:31  5-MIN KMSN 061800Z 26007KT 220V290 10SM BKN022 04/M01 A2994 850 73 -200 260/07 220V290 RMK AO2
14837KMSN MSN20021106120510311/06/02 12:05:31  5-MIN KMSN 061805Z VRB06G14KT 10SM BKN022 04/M01 A2994 850 70 -100 VRB/06G14 RMK AO2
14837KMSN MSN20021106121011311/06/02 12:10:31  5-MIN KMSN 061810Z 28007KT 250V320 10SM BKN022 04/M01 A2994 840 67 -100 280/07 250V320 RMK AO2
14837KMSN MSN20021106121509711/06/02 12:15:31  5-MIN KMSN 061815Z 27009KT 10SM BKN022 04/M01 A2994 850 67 -100 270/09 RMK AO2
14837KMSN MSN20021106122011311/06/02 12:20:31  5-MIN KMSN 061820Z 28007KT 240V310 10SM BKN022 04/M01 A2994 850 70 -100 280/07 240V310 RMK AO2
14837KMSN MSN20021106122511311/06/02 12:25:31  5-MIN KMSN 061825Z 27008KT 240V310 10SM BKN022 04/M01 A2994 850 70 -100 270/08 240V310 RMK AO2
14837KMSN MSN20021106123009711/06/02 12:30:31  5-MIN KMSN 061830Z 29009KT 10SM BKN022 05/M01 A2994 840 67 -100 290/09 RMK AO2
14837KMSN MSN20021106123510311/06/02 12:35:31  5-MIN KMSN 061835Z 28011G16KT 10SM BKN022 04/M01 A2994 850 67 -100 280/11G16 RMK AO2
14837KMSN MSN20021106124011911/06/02 12:40:31  5-MIN KMSN 061840Z 25008G16KT 220V280 10SM BKN022 05/M01 A2994 850 67 -100 250/08G16 220V280 RMK AO2
14837KMSN MSN20021106124509711/06/02 12:45:31  5-MIN KMSN 061845Z 24009KT 10SM BKN022 05/M01 A2993 850 64 -100 240/09 RMK AO2
14837KMSN MSN20021106125011411/06/02 12:50:31  5-MIN KMSN 061850Z 25010KT 10SM BKN022 05/M01 A2993 850 64 -100 250/10 RMK AO2 SLP144 T00501011
14837KMSN MSN20021106125510311/06/02 12:55:31  5-MIN KMSN 061855Z VRB05G15KT 10SM BKN022 04/M01 A2994 850 67 -100 VRB/05G15 RMK AO2
14837KMSN MSN20021106130010211/06/02 13:00:31  5-MIN KMSN 061900Z 27010G15KT 9SM BKN022 04/M01 A2994 850 70 -200 270/10G15 RMK AO2
14837KMSN MSN20021106130511911/06/02 13:05:31  5-MIN KMSN 061905Z 26009G14KT 210V300 10SM SCT022 04/M01 A2994 850 67 -100 260/09G14 210V300 RMK AO2
14837KMSN MSN20021106131011911/06/02 13:10:31  5-MIN KMSN 061910Z 24008G14KT 220V280 10SM FEW022 05/M01 A2993 850 64 -100 240/08G14 220V280 RMK AO2
14837KMSN MSN20021106131510311/06/02 13:15:31  5-MIN KMSN 061915Z 27009G15KT 10SM FEW022 04/M01 A2993 850 67 -100 270/09G15 RMK AO2
14837KMSN MSN20021106132010311/06/02 13:20:31  5-MIN KMSN 061920Z 25008G15KT 10SM FEW022 04/M01 A2994 850 67 -100 240/08G15 RMK AO2
14837KMSN MSN20021106132511311/06/02 13:25:31  5-MIN KMSN 061925Z 25008KT 220V290 10SM SCT022 04/M01 A2994 850 67 -100 250/08 220V290 RMK AO2
14837KMSN MSN20021106133011311/06/02 13:30:31  5-MIN KMSN 061930Z 24008KT 190V290 10SM SCT022 04/M01 A2994 850 67 -100 240/08 190V290 RMK AO2
14837KMSN MSN20021106133511011/06/02 13:35:31  5-MIN KMSN 061935Z 28011G15KT 10SM FEW022 BKN075 04/M01 A2994 850 67 -100 280/11G15 RMK AO2
14837KMSN MSN20021106134012611/06/02 13:40:31  5-MIN KMSN 061940Z 25007G15KT 210V300 10SM FEW022 BKN075 04/M01 A2993 850 67 -100 250/07G15 210V300 RMK AO2
14837KMSN MSN20021106134510411/06/02 13:45:31  5-MIN KMSN 061945Z 26008KT 10SM FEW022 BKN075 05/M01 A2993 860 64 -100 260/08 RMK AO2
14837KMSN MSN20021106135013711/06/02 13:50:31  5-MIN KMSN 061950Z 28008KT 240V330 10SM FEW022 OVC075 05/M01 A2994 850 64 -100 280/08 240V330 RMK AO2 SLP144 T00501011
14837KMSN MSN20021106135509711/06/02 13:55:31  5-MIN KMSN 061955Z 27009KT 10SM OVC070 05/M01 A2994 850 64 -100 270/09 RMK AO2
14837KMSN MSN20021106140009711/06/02 14:00:31  5-MIN KMSN 062000Z VRB06KT 10SM BKN070 05/M01 A2994 850 64 -100 VRB/06 RMK AO2
14837KMSN MSN20021106140509411/06/02 14:05:31  5-MIN KMSN 062005Z 28008KT 10SM BKN070 06/M01 A2994 850 62 0 280/08 RMK AO2
14837KMSN MSN20021106141009711/06/02 14:10:31  5-MIN KMSN 062010Z 29007KT 10SM BKN070 05/M01 A2994 850 64 -100 290/07 RMK AO2
14837KMSN MSN20021106141509411/06/02 14:15:31  5-MIN KMSN 062015Z 27009KT 10SM BKN070 06/M01 A2994 840 62 0 270/09 RMK AO2
14837KMSN MSN20021106142009411/06/02 14:20:31  5-MIN KMSN 062020Z 28008KT 10SM BKN070 06/M01 A2994 850 62 0 280/08 RMK AO2
14837KMSN MSN20021106142509411/06/02 14:25:31  5-MIN KMSN 062025Z 29006KT 10SM BKN070 06/M01 A2994 850 62 0 290/06 RMK AO2
14837KMSN MSN20021106143009411/06/02 14:30:31  5-MIN KMSN 062030Z 26008KT 10SM BKN070 06/M01 A2994 850 60 0 260/08 RMK AO2
14837KMSN MSN20021106143509411/06/02 14:35:31  5-MIN KMSN 062035Z VRB06KT 10SM BKN070 06/M01 A2994 850 62 0 VRB/06 RMK AO2
14837KMSN MSN20021106144009411/06/02 14:40:31  5-MIN KMSN 062040Z 27007KT 10SM SCT070 06/M01 A2994 850 60 0 270/07 RMK AO2
14837KMSN MSN20021106144509411/06/02 14:45:31  5-MIN KMSN 062045Z 28007KT 10SM SCT070 06/M01 A2994 850 60 0 280/07 RMK AO2
14837KMSN MSN20021106145011711/06/02 14:50:31  5-MIN KMSN 062050Z VRB05KT 10SM SCT070 06/M01 A2994 850 60 0 VRB/05 RMK AO2 SLP145 T00611011 50008
14837KMSN MSN20021106145509411/06/02 14:55:31  5-MIN KMSN 062055Z 23008KT 10SM FEW075 06/M01 A2994 850 60 0 230/08 RMK AO2
14837KMSN MSN20021106150009111/06/02 15:00:31  5-MIN KMSN 062100Z VRB05KT 10SM CLR 06/M01 A2994 850 60 0 VRB/05 RMK AO2
14837KMSN MSN20021106150509411/06/02 15:05:31  5-MIN KMSN 062105Z 27008KT 10SM FEW070 06/M01 A2994 850 60 0 270/08 RMK AO2
14837KMSN MSN20021106151009411/06/02 15:10:31  5-MIN KMSN 062110Z 26010KT 10SM FEW070 06/M02 A2994 850 57 0 260/10 RMK AO2
14837KMSN MSN20021106151509411/06/02 15:15:31  5-MIN KMSN 062115Z 28007KT 10SM FEW070 06/M01 A2994 850 60 0 280/07 RMK AO2
14837KMSN MSN20021106152009411/06/02 15:20:31  5-MIN KMSN 062120Z VRB06KT 10SM FEW070 06/M01 A2994 850 60 0 VRB/06 RMK AO2
14837KMSN MSN20021106152509411/06/02 15:25:31  5-MIN KMSN 062125Z 29007KT 10SM FEW070 06/M01 A2994 840 60 0 290/07 RMK AO2
14837KMSN MSN20021106153009411/06/02 15:30:31  5-MIN KMSN 062130Z VRB03KT 10SM FEW070 06/M01 A2994 840 60 0 VRB/03 RMK AO2
14837KMSN MSN20021106153509411/06/02 15:35:31  5-MIN KMSN 062135Z VRB03KT 10SM FEW070 06/M01 A2995 840 60 0 VRB/03 RMK AO2
14837KMSN MSN20021106154009611/06/02 15:40:31  5-MIN KMSN 062140Z VRB04KT 10SM FEW070 07/M01 A2995 840 57 100 VRB/04 RMK AO2
14837KMSN MSN20021106154509411/06/02 15:45:31  5-MIN KMSN 062145Z 27008KT 10SM FEW070 06/M02 A2995 830 57 0 270/08 RMK AO2
14837KMSN MSN20021106155011111/06/02 15:50:31  5-MIN KMSN 062150Z 27008KT 10SM FEW070 06/M02 A2996 830 57 0 270/08 RMK AO2 SLP151 T00611017
14837KMSN MSN20021106155509411/06/02 15:55:31  5-MIN KMSN 062155Z 27008KT 10SM FEW075 06/M02 A2996 830 57 0 270/08 RMK AO2
14837KMSN MSN20021106160009411/06/02 16:00:31  5-MIN KMSN 062200Z 29005KT 10SM SCT075 06/M01 A2997 820 60 0 290/05 RMK AO2
14837KMSN MSN20021106160509411/06/02 16:05:31  5-MIN KMSN 062205Z VRB03KT 10SM SCT075 06/M01 A2997 820 60 0 VRB/03 RMK AO2
14837KMSN MSN20021106161009411/06/02 16:10:31  5-MIN KMSN 062210Z 27005KT 10SM SCT075 06/M01 A2997 820 60 0 270/05 RMK AO2
14837KMSN MSN20021106161509411/06/02 16:15:31  5-MIN KMSN 062215Z VRB05KT 10SM SCT075 06/M01 A2997 820 60 0 VRB/05 RMK AO2
14837KMSN MSN20021106162009411/06/02 16:20:31  5-MIN KMSN 062220Z 27009KT 10SM SCT075 06/M01 A2997 820 60 0 270/09 RMK AO2
14837KMSN MSN20021106162509411/06/02 16:25:31  5-MIN KMSN 062225Z 29008KT 10SM SCT075 06/M01 A2997 810 60 0 290/08 RMK AO2
14837KMSN MSN20021106163009411/06/02 16:30:31  5-MIN KMSN 062230Z 27007KT 10SM SCT075 06/M01 A2998 810 60 0 270/07 RMK AO2
14837KMSN MSN20021106163509411/06/02 16:35:31  5-MIN KMSN 062235Z 29006KT 10SM SCT075 06/M01 A2998 810 60 0 290/06 RMK AO2
14837KMSN MSN20021106164009411/06/02 16:40:31  5-MIN KMSN 062240Z VRB05KT 10SM SCT075 06/M01 A2998 810 60 0 VRB/05 RMK AO2
14837KMSN MSN20021106164509411/06/02 16:45:31  5-MIN KMSN 062245Z 27005KT 10SM SCT075 06/M01 A2998 810 60 0 270/05 RMK AO2
14837KMSN MSN20021106165011111/06/02 16:50:31  5-MIN KMSN 062250Z 26005KT 10SM BKN075 06/M01 A2998 810 60 0 260/05 RMK AO2 SLP159 T00611011
14837KMSN MSN20021106165509411/06/02 16:55:31  5-MIN KMSN 062255Z VRB05KT 10SM OVC065 06/M01 A2998 810 60 0 VRB/05 RMK AO2
14837KMSN MSN20021106170009411/06/02 17:00:31  5-MIN KMSN 062300Z 26006KT 10SM OVC065 06/M01 A2998 810 60 0 260/06 RMK AO2
14837KMSN MSN20021106170509411/06/02 17:05:31  5-MIN KMSN 062305Z 28006KT 10SM OVC065 06/M01 A2999 800 60 0 280/06 RMK AO2
14837KMSN MSN20021106171009411/06/02 17:10:31  5-MIN KMSN 062310Z 28006KT 10SM OVC065 06/M01 A2999 800 60 0 280/06 RMK AO2
14837KMSN MSN20021106171509411/06/02 17:15:31  5-MIN KMSN 062315Z 27005KT 10SM OVC065 06/M01 A2999 800 60 0 270/05 RMK AO2
14837KMSN MSN20021106172009411/06/02 17:20:31  5-MIN KMSN 062320Z VRB05KT 10SM OVC065 06/M01 A2999 800 60 0 VRB/05 RMK AO2
14837KMSN MSN20021106172509411/06/02 17:25:31  5-MIN KMSN 062325Z VRB04KT 10SM OVC065 06/M01 A2999 800 60 0 VRB/04 RMK AO2
14837KMSN MSN20021106173009711/06/02 17:30:31  5-MIN KMSN 062330Z 28005KT 10SM OVC065 06/M01 A3000 790 62 -100 280/05 RMK AO2
14837KMSN MSN20021106173509711/06/02 17:35:31  5-MIN KMSN 062335Z 28005KT 10SM BKN065 06/M01 A3000 790 62 -100 280/05 RMK AO2
14837KMSN MSN20021106174009711/06/02 17:40:31  5-MIN KMSN 062340Z 28005KT 10SM BKN065 05/M01 A3000 790 64 -100 280/05 RMK AO2
14837KMSN MSN20021106174509711/06/02 17:45:31  5-MIN KMSN 062345Z 28003KT 10SM SCT065 06/M01 A3001 790 62 -100 280/03 RMK AO2
14837KMSN MSN20021106175013911/06/02 17:50:31  5-MIN KMSN 062350Z 27003KT 10SM FEW041 SCT070 05/M01 A3001 790 64 -100 270/03 RMK AO2 SLP168 T00501011 10067 20039 55002
14837KMSN MSN20021106175510411/06/02 17:55:31  5-MIN KMSN 062355Z VRB03KT 10SM SCT041 SCT070 05/M01 A3001 790 64 -100 VRB/03 RMK AO2
14837KMSN MSN20021106180009711/06/02 18:00:31  5-MIN KMSN 070000Z 00000KT 10SM BKN041 05/M01 A3001 780 64 -100 000/00 RMK AO2
14837KMSN MSN20021106180509711/06/02 18:05:31  5-MIN KMSN 070005Z 00000KT 10SM BKN041 04/M01 A3001 780 70 -200 000/00 RMK AO2
14837KMSN MSN20021106181009711/06/02 18:10:31  5-MIN KMSN 070010Z 26003KT 10SM BKN041 04/M01 A3001 780 70 -200 260/03 RMK AO2
14837KMSN MSN20021106181509711/06/02 18:15:31  5-MIN KMSN 070015Z 00000KT 10SM OVC041 05/M01 A3002 780 67 -200 000/00 RMK AO2
14837KMSN MSN20021106182009711/06/02 18:20:31  5-MIN KMSN 070020Z 00000KT 10SM OVC041 05/M01 A3002 780 67 -200 000/00 RMK AO2
14837KMSN MSN20021106182509711/06/02 18:25:31  5-MIN KMSN 070025Z VRB04KT 10SM OVC039 05/M01 A3002 770 67 -200 VRB/04 RMK AO2
14837KMSN MSN20021106183009711/06/02 18:30:31  5-MIN KMSN 070030Z 28004KT 10SM OVC039 05/M01 A3002 770 67 -200 280/04 RMK AO2
14837KMSN MSN20021106183509711/06/02 18:35:31  5-MIN KMSN 070035Z VRB04KT 10SM OVC037 06/M01 A3002 770 65 -100 VRB/04 RMK AO2
14837KMSN MSN20021106184009711/06/02 18:40:31  5-MIN KMSN 070040Z 28005KT 10SM OVC037 06/M01 A3003 770 65 -100 280/05 RMK AO2
14837KMSN MSN20021106184509711/06/02 18:45:31  5-MIN KMSN 070045Z 28005KT 10SM OVC037 06/M01 A3003 770 65 -100 280/05 RMK AO2
14837KMSN MSN20021106185011411/06/02 18:50:31  5-MIN KMSN 070050Z 28004KT 10SM OVC035 06/M01 A3003 760 65 -100 280/04 RMK AO2 SLP177 T00561006
14837KMSN MSN20021106185509711/06/02 18:55:31  5-MIN KMSN 070055Z 29003KT 10SM OVC035 06/M01 A3003 760 65 -100 290/03 RMK AO2
14837KMSN MSN20021106190009711/06/02 19:00:31  5-MIN KMSN 070100Z 28004KT 10SM OVC035 06/M01 A3003 760 65 -100 280/04 RMK AO2
14837KMSN MSN20021106190509711/06/02 19:05:31  5-MIN KMSN 070105Z 27003KT 10SM OVC035 06/M01 A3003 760 65 -100 270/03 RMK AO2
14837KMSN MSN20021106191009711/06/02 19:10:31  5-MIN KMSN 070110Z 00000KT 10SM OVC035 06/M01 A3003 760 65 -100 000/00 RMK AO2
14837KMSN MSN20021106191509711/06/02 19:15:31  5-MIN KMSN 070115Z 28003KT 10SM OVC035 06/M01 A3003 760 65 -100 280/03 RMK AO2
14837KMSN MSN20021106192009711/06/02 19:20:31  5-MIN KMSN 070120Z 29003KT 10SM OVC035 06/M01 A3003 760 65 -100 290/03 RMK AO2
14837KMSN MSN20021106192510411/06/02 19:25:31  5-MIN KMSN 070125Z 00000KT 10SM BKN035 OVC042 06/M01 A3003 760 65 -100 000/00 RMK AO2
14837KMSN MSN20021106193009711/06/02 19:30:31  5-MIN KMSN 070130Z 00000KT 10SM OVC037 06/M01 A3003 760 65 -100 000/00 RMK AO2
14837KMSN MSN20021106193509611/06/02 19:35:31  5-MIN KMSN 070135Z 00000KT 10SM OVC037 05/00 A3004 760 70 -200 000/00 RMK AO2
14837KMSN MSN20021106194009611/06/02 19:40:31  5-MIN KMSN 070140Z 28003KT 10SM OVC037 06/00 A3003 760 67 -100 280/03 RMK AO2
14837KMSN MSN20021106194509611/06/02 19:45:31  5-MIN KMSN 070145Z 30003KT 10SM OVC037 05/00 A3003 760 70 -200 300/03 RMK AO2
14837KMSN MSN20021106195011311/06/02 19:50:31  5-MIN KMSN 070150Z 31003KT 10SM OVC037 05/00 A3003 760 70 -200 310/03 RMK AO2 SLP178 T00500000
14837KMSN MSN20021106195509611/06/02 19:55:31  5-MIN KMSN 070155Z 33003KT 10SM OVC035 05/00 A3003 760 70 -200 330/03 RMK AO2
14837KMSN MSN20021106200009611/06/02 20:00:31  5-MIN KMSN 070200Z 01005KT 10SM OVC035 06/00 A3004 760 67 -100 010/05 RMK AO2
14837KMSN MSN20021106200509511/06/02 20:05:31  5-MIN KMSN 070205Z 01007KT 9SM OVC035 04/01 A3004 750 76 -300 010/07 RMK AO2
14837KMSN MSN20021106201009511/06/02 20:10:31  5-MIN KMSN 070210Z 01007KT 9SM OVC035 05/01 A3005 750 73 -200 010/07 RMK AO2
14837KMSN MSN20021106201509511/06/02 20:15:31  5-MIN KMSN 070215Z 02008KT 9SM OVC035 05/01 A3005 740 73 -200 020/08 RMK AO2
14837KMSN MSN20021106202010311/06/02 20:20:31  5-MIN KMSN 070220Z 01005KT 10SM BKN030 OVC035 05/00 A3006 740 70 -200 010/05 RMK AO2
14837KMSN MSN20021106202509611/06/02 20:25:31  5-MIN KMSN 070225Z 01006KT 10SM OVC032 05/01 A3006 740 73 -200 010/06 RMK AO2
14837KMSN MSN20021106203010311/06/02 20:30:31  5-MIN KMSN 070230Z 01007KT 10SM BKN030 OVC036 04/01 A3006 740 76 -300 010/07 RMK AO2
14837KMSN MSN20021106203509511/06/02 20:35:31  5-MIN KMSN 070235Z 01008KT 9SM OVC030 04/00 A3006 730 73 -300 010/08 RMK AO2
14837KMSN MSN20021106204009511/06/02 20:40:31  5-MIN KMSN 070240Z 01010KT 9SM OVC030 04/01 A3006 730 76 -300 010/10 RMK AO2
14837KMSN MSN20021106204509511/06/02 20:45:31  5-MIN KMSN 070245Z 01013KT 9SM OVC030 04/00 A3006 730 73 -300 010/13 RMK AO2
14837KMSN MSN20021106205011911/06/02 20:50:31  5-MIN KMSN 070250Z 01010KT 10SM OVC030 04/00 A3007 730 73 -300 010/10 RMK AO2 SLP189 T00440000 53022
14837KMSN MSN20021106205509511/06/02 20:55:31  5-MIN KMSN 070255Z 01008KT 7SM OVC030 04/00 A3007 730 73 -300 010/08 RMK AO2
14837KMSN MSN20021106210009511/06/02 21:00:31  5-MIN KMSN 070300Z 36008KT 7SM OVC030 04/00 A3007 720 76 -400 360/08 RMK AO2
14837KMSN MSN20021106210509511/06/02 21:05:31  5-MIN KMSN 070305Z 36008KT 7SM OVC030 04/00 A3007 730 76 -400 360/08 RMK AO2
14837KMSN MSN20021106211009511/06/02 21:10:31  5-MIN KMSN 070310Z 01007KT 7SM OVC030 04/00 A3007 720 76 -400 010/07 RMK AO2
14837KMSN MSN20021106211509911/06/02 21:15:31  5-MIN KMSN 070315Z 36008KT 6SM HZ OVC030 04/M01 A3007 720 73 -400 360/08 RMK AO2
14837KMSN MSN20021106212009911/06/02 21:20:31  5-MIN KMSN 070320Z 36005KT 6SM HZ OVC030 04/M01 A3007 720 73 -400 360/05 RMK AO2
14837KMSN MSN20021106212509911/06/02 21:25:31  5-MIN KMSN 070325Z 01006KT 6SM HZ OVC032 04/M01 A3007 720 73 -400 010/06 RMK AO2
14837KMSN MSN20021106213009911/06/02 21:30:31  5-MIN KMSN 070330Z 02009KT 6SM HZ OVC032 04/M01 A3007 730 73 -400 020/09 RMK AO2
14837KMSN MSN20021106213509911/06/02 21:35:31  5-MIN KMSN 070335Z 01009KT 6SM HZ OVC032 03/M01 A3007 730 72 -400 010/09 RMK AO2
14837KMSN MSN20021106214009911/06/02 21:40:31  5-MIN KMSN 070340Z 36008KT 6SM HZ OVC032 03/M01 A3007 720 72 -400 360/08 RMK AO2
14837KMSN MSN20021106214510611/06/02 21:45:31  5-MIN KMSN 070345Z 36005KT 6SM HZ BKN032 OVC049 03/M01 A3007 720 75 -500 360/05 RMK AO2
14837KMSN MSN20021106215012311/06/02 21:50:31  5-MIN KMSN 070350Z 35004KT 6SM HZ BKN032 OVC049 03/M01 A3008 720 75 -500 350/04 RMK AO2 SLP193 T00281011
14837KMSN MSN20021106215510611/06/02 21:55:31  5-MIN KMSN 070355Z 00000KT 6SM HZ BKN032 OVC049 03/M01 A3008 720 72 -400 000/00 RMK AO2
14837KMSN MSN20021106220010611/06/02 22:00:31  5-MIN KMSN 070400Z 35003KT 6SM HZ BKN030 OVC049 03/M01 A3008 710 72 -400 350/03 RMK AO2
14837KMSN MSN20021106220510611/06/02 22:05:31  5-MIN KMSN 070405Z 34003KT 6SM HZ BKN030 OVC049 03/M01 A3009 710 72 -400 340/03 RMK AO2
14837KMSN MSN20021106221010611/06/02 22:10:31  5-MIN KMSN 070410Z 35003KT 6SM HZ BKN030 OVC049 03/M01 A3009 710 72 -400 350/03 RMK AO2
14837KMSN MSN20021106221509911/06/02 22:15:31  5-MIN KMSN 070415Z 36003KT 6SM HZ OVC028 03/M01 A3009 710 75 -500 360/03 RMK AO2
14837KMSN MSN20021106222009911/06/02 22:20:31  5-MIN KMSN 070420Z 00000KT 6SM HZ OVC028 03/M01 A3009 710 75 -500 000/00 RMK AO2
14837KMSN MSN20021106222509911/06/02 22:25:31  5-MIN KMSN 070425Z 00000KT 6SM HZ OVC028 03/M01 A3009 710 72 -400 000/00 RMK AO2
14837KMSN MSN20021106223009911/06/02 22:30:31  5-MIN KMSN 070430Z 00000KT 6SM HZ OVC028 03/M01 A3009 710 75 -500 000/00 RMK AO2
14837KMSN MSN20021106223510611/06/02 22:35:31  5-MIN KMSN 070435Z 00000KT 6SM HZ BKN028 OVC045 03/M01 A3010 700 75 -500 000/00 RMK AO2
14837KMSN MSN20021106224010611/06/02 22:40:31  5-MIN KMSN 070440Z 00000KT 6SM HZ BKN028 OVC045 03/M01 A3010 700 75 -500 000/00 RMK AO2
14837KMSN MSN20021106224510611/06/02 22:45:31  5-MIN KMSN 070445Z 00000KT 6SM HZ SCT028 OVC045 03/M01 A3010 700 75 -500 000/00 RMK AO2
14837KMSN MSN20021106225012311/06/02 22:50:31  5-MIN KMSN 070450Z 30003KT 6SM HZ FEW030 OVC043 03/M01 A3010 700 75 -500 300/03 RMK AO2 SLP200 T00281011
14837KMSN MSN20021106225510611/06/02 22:55:31  5-MIN KMSN 070455Z 33003KT 6SM HZ FEW030 OVC043 03/M01 A3010 700 75 -500 330/03 RMK AO2
14837KMSN MSN20021106230009911/06/02 23:00:31  5-MIN KMSN 070500Z 33003KT 6SM HZ OVC043 03/M01 A3010 700 75 -500 330/03 RMK AO2
14837KMSN MSN20021106230509611/06/02 23:05:31  5-MIN KMSN 070505Z 00000KT 7SM OVC043 03/M01 A3010 700 75 -500 000/00 RMK AO2
14837KMSN MSN20021106231009611/06/02 23:10:31  5-MIN KMSN 070510Z 00000KT 7SM OVC041 03/M01 A3010 700 75 -500 000/00 RMK AO2
14837KMSN MSN20021106231509611/06/02 23:15:31  5-MIN KMSN 070515Z 29003KT 7SM OVC041 03/M01 A3010 700 75 -500 280/03 RMK AO2
14837KMSN MSN20021106232009611/06/02 23:20:31  5-MIN KMSN 070520Z 00000KT 7SM OVC041 03/M01 A3009 700 75 -500 000/00 RMK AO2
14837KMSN MSN20021106232509611/06/02 23:25:31  5-MIN KMSN 070525Z 00000KT 7SM OVC039 03/M01 A3009 710 75 -500 000/00 RMK AO2
14837KMSN MSN20021106233009611/06/02 23:30:31  5-MIN KMSN 070530Z 00000KT 7SM OVC039 03/M01 A3009 710 75 -500 000/00 RMK AO2
14837KMSN MSN20021106233509611/06/02 23:35:31  5-MIN KMSN 070535Z 00000KT 7SM OVC039 02/M01 A3009 710 82 -600 000/00 RMK AO2
14837KMSN MSN20021106234009911/06/02 23:40:31  5-MIN KMSN 070540Z 00000KT 6SM HZ OVC039 03/M01 A3009 710 75 -500 000/00 RMK AO2
14837KMSN MSN20021106234509911/06/02 23:45:31  5-MIN KMSN 070545Z 00000KT 6SM HZ OVC039 02/M01 A3009 710 78 -600 000/00 RMK AO2
14837KMSN MSN20021106235014411/06/02 23:50:31  5-MIN KMSN 070550Z 00000KT 6SM HZ BKN039 02/M01 A3008 710 82 -600 000/00 RMK AO2 SLP195 T00171011 10056 20017 400670011 53021
14837KMSN MSN20021106235509911/06/02 23:55:31  5-MIN KMSN 070555Z 00000KT 6SM HZ BKN039 01/M02 A3009 710 82 -700 000/00 RMK AO2
14837KMSN MSN20021107000009911/07/02 00:00:31  5-MIN KMSN 070600Z 00000KT 6SM BR SCT039 01/M02 A3009 710 85 -800 000/00 RMK AO2
14837KMSN MSN20021107000509911/07/02 00:05:31  5-MIN KMSN 070605Z 00000KT 6SM BR FEW039 00/M02 A3009 710 85 -900 000/00 RMK AO2
14837KMSN MSN20021107001009911/07/02 00:10:31  5-MIN KMSN 070610Z 00000KT 6SM BR FEW039 00/M02 A3009 710 85 -900 000/00 RMK AO2
14837KMSN MSN20021107001509711/07/02 00:15:31  5-MIN KMSN 070615Z 00000KT 6SM BR CLR M01/M02 A3009 710 88 -900 000/00 RMK AO2
14837KMSN MSN20021107002010011/07/02 00:20:31  5-MIN KMSN 070620Z 00000KT 6SM BR FEW040 M01/M02 A3009 710 88 -900 000/00 RMK AO2
14837KMSN MSN20021107002510011/07/02 00:25:31  5-MIN KMSN 070625Z 27003KT 6SM BR FEW040 M01/M03 A3009 700 85 -900 260/03 RMK AO2
14837KMSN MSN20021107003010011/07/02 00:30:31  5-MIN KMSN 070630Z 00000KT 5SM BR FEW040 M01/M03 A3010 700 85 -900 000/00 RMK AO2
14837KMSN MSN20021107003510111/07/02 00:35:31  5-MIN KMSN 070635Z 00000KT 5SM BR FEW040 M01/M03 A3010 700 88 -1000 000/00 RMK AO2
14837KMSN MSN20021107004010111/07/02 00:40:31  5-MIN KMSN 070640Z 00000KT 5SM BR FEW040 M01/M03 A3009 700 88 -1000 000/00 RMK AO2
14837KMSN MSN20021107004510111/07/02 00:45:31  5-MIN KMSN 070645Z 00000KT 5SM BR FEW040 M01/M03 A3009 700 88 -1000 000/00 RMK AO2
14837KMSN MSN20021107005011511/07/02 00:50:31  5-MIN KMSN 070650Z 00000KT 6SM BR CLR M02/M03 A3010 700 92 -1100 000/00 RMK AO2 SLP201 T10171028
14837KMSN MSN20021107005509811/07/02 00:55:31  5-MIN KMSN 070655Z 00000KT 6SM BR CLR M01/M03 A3010 700 88 -1000 000/00 RMK AO2
14837KMSN MSN20021107010009811/07/02 01:00:31  5-MIN KMSN 070700Z 00000KT 6SM BR CLR M01/M03 A3010 700 88 -1000 000/00 RMK AO2
14837KMSN MSN20021107010509811/07/02 01:05:31  5-MIN KMSN 070705Z 00000KT 6SM BR CLR M02/M03 A3010 700 92 -1100 000/00 RMK AO2
14837KMSN MSN20021107011009811/07/02 01:10:31  5-MIN KMSN 070710Z 00000KT 6SM BR CLR M02/M03 A3009 710 92 -1100 000/00 RMK AO2
14837KMSN MSN20021107011509811/07/02 01:15:31  5-MIN KMSN 070715Z 00000KT 6SM BR CLR M02/M03 A3009 710 88 -1100 000/00 RMK AO2
14837KMSN MSN20021107012009811/07/02 01:20:31  5-MIN KMSN 070720Z 00000KT 6SM BR CLR M01/M03 A3010 700 88 -1000 000/00 RMK AO2
14837KMSN MSN20021107012509811/07/02 01:25:31  5-MIN KMSN 070725Z 00000KT 5SM BR CLR M01/M02 A3010 700 92 -1000 000/00 RMK AO2
14837KMSN MSN20021107013009811/07/02 01:30:31  5-MIN KMSN 070730Z 00000KT 5SM BR CLR M02/M03 A3010 700 92 -1100 000/00 RMK AO2
14837KMSN MSN20021107013509811/07/02 01:35:31  5-MIN KMSN 070735Z 00000KT 5SM BR CLR M02/M03 A3010 700 96 -1200 000/00 RMK AO2
14837KMSN MSN20021107014009811/07/02 01:40:31  5-MIN KMSN 070740Z 00000KT 5SM BR CLR M02/M03 A3010 700 92 -1200 000/00 RMK AO2
14837KMSN MSN20021107014509811/07/02 01:45:31  5-MIN KMSN 070745Z 00000KT 4SM BR CLR M02/M04 A3010 700 88 -1200 000/00 RMK AO2
14837KMSN MSN20021107015011511/07/02 01:50:31  5-MIN KMSN 070750Z 00000KT 4SM BR CLR M02/M04 A3009 700 88 -1100 000/00 RMK AO2 SLP200 T10221039
14837KMSN MSN20021107015509811/07/02 01:55:31  5-MIN KMSN 070755Z 00000KT 4SM BR CLR M02/M03 A3009 710 92 -1100 000/00 RMK AO2
14837KMSN MSN20021107020009811/07/02 02:00:31  5-MIN KMSN 070800Z 14003KT 4SM BR CLR M02/M03 A3008 720 92 -1100 140/03 RMK AO2
14837KMSN MSN20021107020509811/07/02 02:05:31  5-MIN KMSN 070805Z 15003KT 4SM BR CLR M03/M04 A3008 720 88 -1200 150/03 RMK AO2
14837KMSN MSN20021107021009811/07/02 02:10:31  5-MIN KMSN 070810Z 00000KT 5SM BR CLR M02/M04 A3008 720 88 -1100 000/00 RMK AO2
14837KMSN MSN20021107021509811/07/02 02:15:31  5-MIN KMSN 070815Z 00000KT 5SM BR CLR M02/M04 A3008 720 88 -1100 000/00 RMK AO2
14837KMSN MSN20021107022009811/07/02 02:20:31  5-MIN KMSN 070820Z 00000KT 5SM BR CLR M03/M04 A3009 710 88 -1200 000/00 RMK AO2
14837KMSN MSN20021107022509811/07/02 02:25:31  5-MIN KMSN 070825Z 00000KT 5SM BR CLR M02/M04 A3009 710 85 -1100 000/00 RMK AO2
14837KMSN MSN20021107023009811/07/02 02:30:31  5-MIN KMSN 070830Z 00000KT 5SM BR CLR M02/M04 A3009 710 88 -1100 000/00 RMK AO2
14837KMSN MSN20021107023509811/07/02 02:35:31  5-MIN KMSN 070835Z 00000KT 4SM BR CLR M03/M04 A3009 710 92 -1200 000/00 RMK AO2
14837KMSN MSN20021107024009811/07/02 02:40:31  5-MIN KMSN 070840Z 00000KT 4SM BR CLR M03/M04 A3009 710 88 -1200 000/00 RMK AO2
14837KMSN MSN20021107024509811/07/02 02:45:31  5-MIN KMSN 070845Z 00000KT 4SM BR CLR M03/M04 A3009 700 88 -1200 000/00 RMK AO2
14837KMSN MSN20021107025012111/07/02 02:50:31  5-MIN KMSN 070850Z 00000KT 4SM BR CLR M03/M04 A3010 700 92 -1200 000/00 RMK AO2 SLP201 T10281039 50005
14837KMSN MSN20021107025509811/07/02 02:55:31  5-MIN KMSN 070855Z 00000KT 4SM BR CLR M03/M04 A3010 700 88 -1200 000/00 RMK AO2
14837KMSN MSN20021107030009811/07/02 03:00:31  5-MIN KMSN 070900Z 00000KT 4SM BR CLR M03/M04 A3009 700 92 -1200 000/00 RMK AO2
14837KMSN MSN20021107030509811/07/02 03:05:31  5-MIN KMSN 070905Z 00000KT 4SM BR CLR M03/M04 A3010 700 92 -1200 000/00 RMK AO2
14837KMSN MSN20021107031009811/07/02 03:10:31  5-MIN KMSN 070910Z 00000KT 4SM BR CLR M02/M04 A3009 710 88 -1100 000/00 RMK AO2
14837KMSN MSN20021107031509811/07/02 03:15:31  5-MIN KMSN 070915Z 00000KT 4SM BR CLR M03/M04 A3009 710 92 -1200 000/00 RMK AO2
14837KMSN MSN20021107032009811/07/02 03:20:31  5-MIN KMSN 070920Z 00000KT 4SM BR CLR M03/M05 A3009 710 88 -1300 000/00 RMK AO2
14837KMSN MSN20021107032509811/07/02 03:25:31  5-MIN KMSN 070925Z 07003KT 4SM BR CLR M03/M06 A3009 710 85 -1300 070/03 RMK AO2
14837KMSN MSN20021107033009811/07/02 03:30:31  5-MIN KMSN 070930Z 00000KT 4SM BR CLR M03/M05 A3009 700 88 -1300 000/00 RMK AO2
14837KMSN MSN20021107033509811/07/02 03:35:31  5-MIN KMSN 070935Z 00000KT 4SM BR CLR M03/M05 A3010 700 88 -1300 000/00 RMK AO2
14837KMSN MSN20021107034009811/07/02 03:40:31  5-MIN KMSN 070940Z 00000KT 4SM BR CLR M03/M05 A3010 700 88 -1300 000/00 RMK AO2
14837KMSN MSN20021107034509811/07/02 03:45:31  5-MIN KMSN 070945Z 00000KT 4SM BR CLR M03/M05 A3010 700 88 -1300 000/00 RMK AO2
14837KMSN MSN20021107035011511/07/02 03:50:31  5-MIN KMSN 070950Z 00000KT 4SM BR CLR M03/M05 A3010 700 88 -1300 000/00 RMK AO2 SLP202 T10331050
14837KMSN MSN20021107035509811/07/02 03:55:31  5-MIN KMSN 070955Z 00000KT 3SM BR CLR M03/M04 A3010 690 92 -1300 000/00 RMK AO2
14837KMSN MSN20021107040009811/07/02 04:00:31  5-MIN KMSN 071000Z 00000KT 4SM BR CLR M03/M04 A3010 700 88 -1200 000/00 RMK AO2
14837KMSN MSN20021107040509811/07/02 04:05:31  5-MIN KMSN 071005Z 00000KT 4SM BR CLR M03/M04 A3010 700 92 -1200 000/00 RMK AO2
14837KMSN MSN20021107041009811/07/02 04:10:31  5-MIN KMSN 071010Z 00000KT 4SM BR CLR M03/M04 A3010 700 92 -1200 000/00 RMK AO2
14837KMSN MSN20021107041509811/07/02 04:15:31  5-MIN KMSN 071015Z 00000KT 4SM BR CLR M02/M03 A3009 700 92 -1100 000/00 RMK AO2
14837KMSN MSN20021107042009811/07/02 04:20:31  5-MIN KMSN 071020Z 00000KT 4SM BR CLR M03/M04 A3009 700 92 -1300 000/00 RMK AO2
14837KMSN MSN20021107042509811/07/02 04:25:31  5-MIN KMSN 071025Z 00000KT 4SM BR CLR M03/M04 A3009 700 88 -1200 000/00 RMK AO2
14837KMSN MSN20021107043009811/07/02 04:30:31  5-MIN KMSN 071030Z 00000KT 4SM BR CLR M03/M04 A3009 710 88 -1200 000/00 RMK AO2
14837KMSN MSN20021107043509811/07/02 04:35:31  5-MIN KMSN 071035Z 00000KT 4SM BR CLR M03/M04 A3009 710 92 -1200 000/00 RMK AO2
14837KMSN MSN20021107044009811/07/02 04:40:31  5-MIN KMSN 071040Z 00000KT 4SM BR CLR M03/M04 A3009 710 88 -1200 000/00 RMK AO2
14837KMSN MSN20021107044509811/07/02 04:45:31  5-MIN KMSN 071045Z 00000KT 4SM BR CLR M03/M04 A3008 710 88 -1200 000/00 RMK AO2
14837KMSN MSN20021107045011511/07/02 04:50:31  5-MIN KMSN 071050Z 00000KT 4SM BR CLR M02/M04 A3008 720 88 -1100 000/00 RMK AO2 SLP195 T10221039
14837KMSN MSN20021107045509811/07/02 04:55:31  5-MIN KMSN 071055Z 00000KT 4SM BR CLR M02/M04 A3008 720 88 -1100 000/00 RMK AO2
14837KMSN MSN20021107050009811/07/02 05:00:31  5-MIN KMSN 071100Z 00000KT 4SM BR CLR M02/M04 A3009 710 85 -1100 000/00 RMK AO2
14837KMSN MSN20021107050509811/07/02 05:05:31  5-MIN KMSN 071105Z 00000KT 4SM BR CLR M02/M03 A3008 720 92 -1100 000/00 RMK AO2
14837KMSN MSN20021113222009911/13/02 22:20:31  5-MIN KMSN 140420Z 23010G16KT 10SM CLR 11/01 A2978 1000 50 700 220/10G16 RMK AO2
14837KMSN MSN20021113222509911/13/02 22:25:31  5-MIN KMSN 140425Z 23007G16KT 10SM CLR 11/01 A2978 1000 52 700 230/07G16 RMK AO2
14837KMSN MSN20021113223009311/13/02 22:30:31  5-MIN KMSN 140430Z 24008KT 10SM CLR 11/01 A2978 1000 52 700 240/08 RMK AO2
14837KMSN MSN20021113223509911/13/02 22:35:31  5-MIN KMSN 140435Z 24009G14KT 10SM CLR 10/01 A2978 1000 54 700 240/09G14 RMK AO2
14837KMSN MSN20021113224009911/13/02 22:40:31  5-MIN KMSN 140440Z 23009G14KT 10SM CLR 10/01 A2978 1000 54 700 230/09G14 RMK AO2
14837KMSN MSN20021113224509311/13/02 22:45:31  5-MIN KMSN 140445Z 23009KT 10SM CLR 10/01 A2978 1000 54 700 230/09 RMK AO2
14837KMSN MSN20021113225011011/13/02 22:50:31  5-MIN KMSN 140450Z 24009KT 10SM CLR 10/01 A2978 1000 54 700 240/09 RMK AO2 SLP088 T01000011
14837KMSN MSN20021113225509311/13/02 22:55:31  5-MIN KMSN 140455Z 24008KT 10SM CLR 10/01 A2978 1000 54 700 240/08 RMK AO2
14837KMSN MSN20021113230009811/13/02 23:00:31  5-MIN KMSN 140500Z 24009G14KT 10SM CLR 10/01 A2978 990 54 700 240/09G14 RMK AO2
14837KMSN MSN20021113230509811/13/02 23:05:31  5-MIN KMSN 140505Z 23009G14KT 10SM CLR 10/01 A2978 990 54 700 230/09G14 RMK AO2
14837KMSN MSN20021113231009211/13/02 23:10:31  5-MIN KMSN 140510Z 23007KT 10SM CLR 10/01 A2978 990 54 700 230/07 RMK AO2
14837KMSN MSN20021113231510811/13/02 23:15:31  5-MIN KMSN 140515Z 23007KT 200V270 10SM CLR 10/01 A2979 990 54 700 230/07 200V270 RMK AO2
14837KMSN MSN20021113232009211/13/02 23:20:31  5-MIN KMSN 140520Z VRB05KT 10SM CLR 10/01 A2979 990 54 700 VRB/05 RMK AO2
14837KMSN MSN20021113232509211/13/02 23:25:31  5-MIN KMSN 140525Z 23006KT 10SM CLR 09/01 A2979 990 56 600 230/06 RMK AO2
14837KMSN MSN20021113233009211/13/02 23:30:31  5-MIN KMSN 140530Z 23008KT 10SM CLR 09/01 A2979 990 56 600 230/08 RMK AO2
14837KMSN MSN20021113233509211/13/02 23:35:31  5-MIN KMSN 140535Z 23007KT 10SM CLR 09/01 A2979 990 56 600 230/07 RMK AO2
14837KMSN MSN20021113234009211/13/02 23:40:31  5-MIN KMSN 140540Z VRB06KT 10SM CLR 09/02 A2979 990 58 600 VRB/06 RMK AO2
14837KMSN MSN20021113234509211/13/02 23:45:31  5-MIN KMSN 140545Z 23006KT 10SM CLR 09/02 A2979 990 58 600 230/06 RMK AO2
14837KMSN MSN20021113235013711/13/02 23:50:31  5-MIN KMSN 140550Z 22007KT 10SM CLR 09/02 A2979 990 58 600 220/07 RMK AO2 SLP092 T00940017 10111 20094 401111033 56012
14837KMSN MSN20021113235509211/13/02 23:55:31  5-MIN KMSN 140555Z 23008KT 10SM CLR 09/02 A2979 980 58 600 230/08 RMK AO2
14837KMSN MSN20021114000009211/14/02 00:00:31  5-MIN KMSN 140600Z 23009KT 10SM CLR 09/02 A2979 980 58 600 230/09 RMK AO2
14837KMSN MSN20021114000509211/14/02 00:05:31  5-MIN KMSN 140605Z 23007KT 10SM CLR 09/02 A2979 980 58 600 230/07 RMK AO2
14837KMSN MSN20021114001009211/14/02 00:10:31  5-MIN KMSN 140610Z 23008KT 10SM CLR 09/01 A2979 980 56 600 230/08 RMK AO2
14837KMSN MSN20021114001509211/14/02 00:15:31  5-MIN KMSN 140615Z 23006KT 10SM CLR 09/01 A2979 980 58 500 230/06 RMK AO2
14837KMSN MSN20021114002009211/14/02 00:20:31  5-MIN KMSN 140620Z 23007KT 10SM CLR 09/01 A2979 990 58 500 230/07 RMK AO2
14837KMSN MSN20021114002509211/14/02 00:25:31  5-MIN KMSN 140625Z 22007KT 10SM CLR 09/01 A2979 990 58 500 220/07 RMK AO2
14837KMSN MSN20021114003009211/14/02 00:30:31  5-MIN KMSN 140630Z 23009KT 10SM CLR 09/01 A2979 990 58 500 230/09 RMK AO2
14837KMSN MSN20021114003509211/14/02 00:35:31  5-MIN KMSN 140635Z 22008KT 10SM CLR 09/02 A2978 990 60 500 220/08 RMK AO2
14837KMSN MSN20021114004009211/14/02 00:40:31  5-MIN KMSN 140640Z 22007KT 10SM CLR 09/02 A2978 990 60 500 220/07 RMK AO2
14837KMSN MSN20021114004509311/14/02 00:45:31  5-MIN KMSN 140645Z 22006KT 10SM CLR 09/02 A2978 1000 60 500 220/06 RMK AO2
14837KMSN MSN20021114005011011/14/02 00:50:31  5-MIN KMSN 140650Z 23004KT 10SM CLR 08/02 A2978 1000 63 500 230/04 RMK AO2 SLP086 T00830017
14837KMSN MSN20021114005509311/14/02 00:55:31  5-MIN KMSN 140655Z 23005KT 10SM CLR 08/02 A2977 1000 63 500 230/05 RMK AO2
14837KMSN MSN20021114010009311/14/02 01:00:31  5-MIN KMSN 140700Z 23005KT 10SM CLR 08/02 A2977 1000 63 500 220/05 RMK AO2
14837KMSN MSN20021114010509311/14/02 01:05:31  5-MIN KMSN 140705Z 23006KT 10SM CLR 08/02 A2977 1000 63 500 230/06 RMK AO2
14837KMSN MSN20021114011009311/14/02 01:10:31  5-MIN KMSN 140710Z 23006KT 10SM CLR 08/02 A2977 1000 63 500 230/06 RMK AO2
14837KMSN MSN20021114011509311/14/02 01:15:31  5-MIN KMSN 140715Z 23006KT 10SM CLR 08/02 A2977 1000 63 500 220/06 RMK AO2
14837KMSN MSN20021114012009311/14/02 01:20:31  5-MIN KMSN 140720Z 22005KT 10SM CLR 08/02 A2977 1000 63 500 220/05 RMK AO2
14837KMSN MSN20021114012509311/14/02 01:25:31  5-MIN KMSN 140725Z 23006KT 10SM CLR 08/02 A2977 1000 63 500 230/06 RMK AO2
14837KMSN MSN20021114013009311/14/02 01:30:31  5-MIN KMSN 140730Z 23004KT 10SM CLR 08/02 A2977 1000 65 400 230/04 RMK AO2
14837KMSN MSN20021114013509311/14/02 01:35:31  5-MIN KMSN 140735Z VRB05KT 10SM CLR 08/02 A2977 1000 63 500 VRB/05 RMK AO2
14837KMSN MSN20021114014009311/14/02 01:40:31  5-MIN KMSN 140740Z 23005KT 10SM CLR 08/02 A2977 1000 65 400 230/05 RMK AO2
14837KMSN MSN20021114014509311/14/02 01:45:31  5-MIN KMSN 140745Z 22005KT 10SM CLR 08/02 A2977 1000 65 400 220/05 RMK AO2
14837KMSN MSN20021114015011011/14/02 01:50:31  5-MIN KMSN 140750Z 21005KT 10SM CLR 08/02 A2978 1000 65 400 210/05 RMK AO2 SLP086 T00780017
14837KMSN MSN20021114015509311/14/02 01:55:31  5-MIN KMSN 140755Z 21007KT 10SM CLR 08/02 A2977 1000 65 400 210/07 RMK AO2
14837KMSN MSN20021114020009311/14/02 02:00:31  5-MIN KMSN 140800Z 22005KT 10SM CLR 08/02 A2977 1000 68 400 220/05 RMK AO2
14837KMSN MSN20021114020509311/14/02 02:05:31  5-MIN KMSN 140805Z 21005KT 10SM CLR 08/02 A2978 1000 65 400 210/05 RMK AO2
14837KMSN MSN20021114021009311/14/02 02:10:31  5-MIN KMSN 140810Z 21006KT 10SM CLR 08/02 A2978 1000 65 400 210/06 RMK AO2
14837KMSN MSN20021114021509311/14/02 02:15:31  5-MIN KMSN 140815Z 22006KT 10SM CLR 07/02 A2978 1000 68 300 220/06 RMK AO2
14837KMSN MSN20021114022009311/14/02 02:20:31  5-MIN KMSN 140820Z 22005KT 10SM CLR 08/02 A2978 1000 65 400 220/05 RMK AO2
14837KMSN MSN20021114022509311/14/02 02:25:31  5-MIN KMSN 140825Z 21005KT 10SM CLR 08/02 A2978 1000 65 400 210/05 RMK AO2
14837KMSN MSN20021114023009311/14/02 02:30:31  5-MIN KMSN 140830Z 22005KT 10SM CLR 08/02 A2978 1000 68 400 220/05 RMK AO2
14837KMSN MSN20021114023509311/14/02 02:35:31  5-MIN KMSN 140835Z 22005KT 10SM CLR 07/02 A2978 1000 68 300 220/05 RMK AO2
14837KMSN MSN20021114024009311/14/02 02:40:31  5-MIN KMSN 140840Z 23006KT 10SM CLR 07/02 A2978 1000 68 300 220/06 RMK AO2
14837KMSN MSN20021114024509311/14/02 02:45:31  5-MIN KMSN 140845Z 22005KT 10SM CLR 07/02 A2978 1000 68 300 220/05 RMK AO2
14837KMSN MSN20021114025011511/14/02 02:50:31  5-MIN KMSN 140850Z 22006KT 10SM CLR 07/02 A2978 990 68 300 220/06 RMK AO2 SLP087 T00720017 53007
14837KMSN MSN20021114025509211/14/02 02:55:31  5-MIN KMSN 140855Z 22005KT 10SM CLR 07/02 A2978 990 68 300 220/05 RMK AO2
14837KMSN MSN20021114030009211/14/02 03:00:31  5-MIN KMSN 140900Z 22004KT 10SM CLR 07/02 A2978 990 68 300 220/04 RMK AO2
14837KMSN MSN20021114030509211/14/02 03:05:31  5-MIN KMSN 140905Z 23004KT 10SM CLR 07/02 A2978 990 70 300 230/04 RMK AO2
14837KMSN MSN20021114031009211/14/02 03:10:31  5-MIN KMSN 140910Z 23003KT 10SM CLR 06/02 A2978 990 73 200 220/03 RMK AO2
14837KMSN MSN20021114031509211/14/02 03:15:31  5-MIN KMSN 140915Z VRB03KT 10SM CLR 06/02 A2978 990 73 200 VRB/03 RMK AO2
14837KMSN MSN20021114032009211/14/02 03:20:31  5-MIN KMSN 140920Z VRB04KT 10SM CLR 06/02 A2978 990 73 200 VRB/04 RMK AO2
14837KMSN MSN20021114032509211/14/02 03:25:31  5-MIN KMSN 140925Z 23005KT 10SM CLR 06/02 A2978 990 73 200 230/05 RMK AO2
14837KMSN MSN20021114033009211/14/02 03:30:31  5-MIN KMSN 140930Z 23004KT 10SM CLR 07/01 A2978 990 67 300 230/04 RMK AO2
14837KMSN MSN20021114033509211/14/02 03:35:31  5-MIN KMSN 140935Z VRB05KT 10SM CLR 07/01 A2979 990 67 300 VRB/05 RMK AO2
14837KMSN MSN20021114034009211/14/02 03:40:31  5-MIN KMSN 140940Z 00000KT 10SM CLR 07/01 A2979 990 67 300 000/00 RMK AO2
14837KMSN MSN20021114034509211/14/02 03:45:31  5-MIN KMSN 140945Z 27003KT 10SM CLR 06/01 A2979 990 70 200 270/03 RMK AO2
14837KMSN MSN20021114035010911/14/02 03:50:31  5-MIN KMSN 140950Z 29003KT 10SM CLR 06/01 A2979 990 70 200 290/03 RMK AO2 SLP092 T00610011
14837KMSN MSN20021114035509211/14/02 03:55:31  5-MIN KMSN 140955Z 00000KT 10SM CLR 06/01 A2979 980 70 200 000/00 RMK AO2
14837KMSN MSN20021114040009011/14/02 04:00:31  5-MIN KMSN 141000Z 00000KT 10SM CLR 04/01 A2979 980 76 0 000/00 RMK AO2
14837KMSN MSN20021114040509011/14/02 04:05:31  5-MIN KMSN 141005Z 31003KT 10SM CLR 04/01 A2979 980 76 0 310/03 RMK AO2
14837KMSN MSN20021114041009011/14/02 04:10:31  5-MIN KMSN 141010Z 29003KT 10SM CLR 05/01 A2979 980 76 0 290/03 RMK AO2
14837KMSN MSN20021114041509011/14/02 04:15:31  5-MIN KMSN 141015Z 30003KT 10SM CLR 05/01 A2980 980 76 0 300/03 RMK AO2
14837KMSN MSN20021114042009011/14/02 04:20:31  5-MIN KMSN 141020Z 00000KT 10SM CLR 04/01 A2980 980 76 0 000/00 RMK AO2
14837KMSN MSN20021114042509311/14/02 04:25:31  5-MIN KMSN 141025Z 00000KT 10SM CLR 03/01 A2980 980 82 -100 000/00 RMK AO2
14837KMSN MSN20021114043009011/14/02 04:30:31  5-MIN KMSN 141030Z 27003KT 10SM CLR 04/01 A2980 970 79 0 270/03 RMK AO2
14837KMSN MSN20021114043509011/14/02 04:35:31  5-MIN KMSN 141035Z 29003KT 10SM CLR 04/01 A2980 970 79 0 290/03 RMK AO2
14837KMSN MSN20021114044009011/14/02 04:40:31  5-MIN KMSN 141040Z 28004KT 10SM CLR 04/01 A2981 970 76 0 280/04 RMK AO2
14837KMSN MSN20021114044509311/14/02 04:45:31  5-MIN KMSN 141045Z 29004KT 10SM CLR 04/01 A2981 970 79 -100 290/04 RMK AO2
14837KMSN MSN20021114045011011/14/02 04:50:31  5-MIN KMSN 141050Z 29004KT 10SM CLR 04/01 A2981 970 79 -100 290/04 RMK AO2 SLP098 T00390006
14837KMSN MSN20021114045509311/14/02 04:55:31  5-MIN KMSN 141055Z 29003KT 10SM CLR 04/01 A2981 970 79 -100 290/03 RMK AO2
14837KMSN MSN20021114050009311/14/02 05:00:31  5-MIN KMSN 141100Z 30003KT 10SM CLR 04/01 A2981 970 79 -100 300/03 RMK AO2
14837KMSN MSN20021114050509311/14/02 05:05:31  5-MIN KMSN 141105Z 29004KT 10SM CLR 03/01 A2981 970 82 -100 290/04 RMK AO2
14837KMSN MSN20021114051009311/14/02 05:10:31  5-MIN KMSN 141110Z 30004KT 10SM CLR 03/01 A2981 970 82 -100 300/04 RMK AO2
14837KMSN MSN20021114051509311/14/02 05:15:31  5-MIN KMSN 141115Z 29004KT 10SM CLR 03/01 A2981 970 82 -100 290/04 RMK AO2
14837KMSN MSN20021114052009311/14/02 05:20:31  5-MIN KMSN 141120Z 29004KT 10SM CLR 03/01 A2981 970 85 -200 290/04 RMK AO2
14837KMSN MSN20021114052509311/14/02 05:25:31  5-MIN KMSN 141125Z 30004KT 10SM CLR 03/01 A2981 960 82 -100 300/04 RMK AO2
14837KMSN MSN20021114053009311/14/02 05:30:31  5-MIN KMSN 141130Z 31003KT 10SM CLR 04/01 A2981 960 79 -100 310/03 RMK AO2
14837KMSN MSN20021114053509311/14/02 05:35:31  5-MIN KMSN 141135Z 31003KT 10SM CLR 03/01 A2981 960 82 -100 310/03 RMK AO2
14837KMSN MSN20021114054009311/14/02 05:40:31  5-MIN KMSN 141140Z 31003KT 10SM CLR 03/01 A2981 960 82 -100 310/03 RMK AO2
14837KMSN MSN20021114054509311/14/02 05:45:31  5-MIN KMSN 141145Z 32003KT 10SM CLR 04/01 A2981 960 79 -100 320/03 RMK AO2
14837KMSN MSN20021114055012811/14/02 05:50:31  5-MIN KMSN 141150Z 33003KT 10SM CLR 04/01 A2981 960 79 -100 330/03 RMK AO2 SLP100 T00390006 10094 20028 55003
14837KMSN MSN20021114055509311/14/02 05:55:31  5-MIN KMSN 141155Z 32003KT 10SM CLR 03/01 A2981 960 82 -100 310/03 RMK AO2
14837KMSN MSN20021114060009311/14/02 06:00:31  5-MIN KMSN 141200Z 31003KT 10SM CLR 03/00 A2982 960 79 -100 310/03 RMK AO2
14837KMSN MSN20021114060509311/14/02 06:05:31  5-MIN KMSN 141205Z 32003KT 10SM CLR 02/00 A2982 960 85 -300 320/03 RMK AO2
14837KMSN MSN20021114061009311/14/02 06:10:31  5-MIN KMSN 141210Z 00000KT 10SM CLR 01/00 A2982 960 92 -400 000/00 RMK AO2
14837KMSN MSN20021114061509411/14/02 06:15:31  5-MIN KMSN 141215Z 00000KT 10SM CLR 01/M01 A2982 960 89 -400 000/00 RMK AO2
14837KMSN MSN20021114062009411/14/02 06:20:31  5-MIN KMSN 141220Z 00000KT 10SM CLR 01/M01 A2982 960 89 -400 000/00 RMK AO2
14837KMSN MSN20021114062509311/14/02 06:25:31  5-MIN KMSN 141225Z 00000KT 10SM CLR 02/00 A2982 950 89 -300 000/00 RMK AO2
14837KMSN MSN20021114063009311/14/02 06:30:31  5-MIN KMSN 141230Z 00000KT 10SM CLR 02/00 A2983 950 89 -300 000/00 RMK AO2
14837KMSN MSN20021114063509311/14/02 06:35:31  5-MIN KMSN 141235Z 00000KT 10SM CLR 02/00 A2983 950 85 -300 000/00 RMK AO2
14837KMSN MSN20021114064009311/14/02 06:40:31  5-MIN KMSN 141240Z 00000KT 10SM CLR 02/00 A2983 950 85 -300 000/00 RMK AO2
14837KMSN MSN20021114064509411/14/02 06:45:31  5-MIN KMSN 141245Z 00000KT 10SM CLR 02/M01 A2983 940 85 -400 000/00 RMK AO2
14837KMSN MSN20021114065011111/14/02 06:50:31  5-MIN KMSN 141250Z 00000KT 10SM CLR 02/M01 A2983 940 85 -400 000/00 RMK AO2 SLP108 T00171006
14837KMSN MSN20021114065509311/14/02 06:55:31  5-MIN KMSN 141255Z 00000KT 10SM CLR 02/00 A2983 940 85 -300 000/00 RMK AO2
14837KMSN MSN20021114070009311/14/02 07:00:31  5-MIN KMSN 141300Z 36003KT 10SM CLR 02/00 A2984 940 89 -400 360/03 RMK AO2
14837KMSN MSN20021114070509411/14/02 07:05:31  5-MIN KMSN 141305Z 01003KT 10SM CLR 02/M01 A2984 940 85 -400 010/03 RMK AO2
14837KMSN MSN20021114071009411/14/02 07:10:31  5-MIN KMSN 141310Z 00000KT 10SM CLR 01/M01 A2984 940 89 -400 000/00 RMK AO2
14837KMSN MSN20021114071509411/14/02 07:15:31  5-MIN KMSN 141315Z 00000KT 10SM CLR 01/M01 A2984 940 89 -400 000/00 RMK AO2
14837KMSN MSN20021114072009311/14/02 07:20:31  5-MIN KMSN 141320Z 00000KT 10SM CLR 02/00 A2984 930 89 -400 000/00 RMK AO2
14837KMSN MSN20021114072509311/14/02 07:25:31  5-MIN KMSN 141325Z 00000KT 10SM CLR 02/00 A2985 930 85 -300 000/00 RMK AO2
14837KMSN MSN20021114073009311/14/02 07:30:31  5-MIN KMSN 141330Z 00000KT 10SM CLR 03/00 A2985 930 82 -200 000/00 RMK AO2
14837KMSN MSN20021114073509311/14/02 07:35:31  5-MIN KMSN 141335Z 00000KT 10SM CLR 02/00 A2985 930 85 -300 000/00 RMK AO2
14837KMSN MSN20021114074009311/14/02 07:40:31  5-MIN KMSN 141340Z 00000KT 10SM CLR 02/00 A2986 920 85 -300 000/00 RMK AO2
14837KMSN MSN20021114074509611/14/02 07:45:31  5-MIN KMSN 141345Z 33004KT 10SM FEW021 03/01 A2986 920 85 -200 330/04 RMK AO2
14837KMSN MSN20021114075011311/14/02 07:50:31  5-MIN KMSN 141350Z 35003KT 10SM SCT021 03/01 A2986 920 85 -200 350/03 RMK AO2 SLP116 T00330011
14837KMSN MSN20021114075509611/14/02 07:55:31  5-MIN KMSN 141355Z 34003KT 10SM BKN021 03/01 A2986 920 85 -200 340/03 RMK AO2
14837KMSN MSN20021114080009611/14/02 08:00:31  5-MIN KMSN 141400Z 34004KT 10SM BKN021 04/01 A2986 920 82 -100 340/04 RMK AO2
14837KMSN MSN20021114080509611/14/02 08:05:31  5-MIN KMSN 141405Z 35004KT 10SM BKN021 04/01 A2987 910 82 -100 350/04 RMK AO2
14837KMSN MSN20021114081009511/14/02 08:10:31  5-MIN KMSN 141410Z 36005KT 9SM OVC021 04/02 A2987 910 85 -100 360/05 RMK AO2
14837KMSN MSN20021114081509611/14/02 08:15:31  5-MIN KMSN 141415Z 01006KT 10SM OVC021 04/02 A2987 910 85 -100 360/06 RMK AO2
14837KMSN MSN20021114082009511/14/02 08:20:31  5-MIN KMSN 141420Z 36008KT 8SM OVC021 04/02 A2988 910 82 -100 360/08 RMK AO2
14837KMSN MSN20021114082509511/14/02 08:25:31  5-MIN KMSN 141425Z 35006KT 7SM OVC021 04/02 A2988 900 82 -100 350/06 RMK AO2
14837KMSN MSN20021114083009511/14/02 08:30:31  5-MIN KMSN 141430Z 35008KT 7SM OVC021 04/01 A2988 900 79 -100 350/08 RMK AO2
14837KMSN MSN20021114083509811/14/02 08:35:31  5-MIN KMSN 141435Z 35005KT 6SM HZ OVC021 04/01 A2988 900 79 -100 350/05 RMK AO2
14837KMSN MSN20021114084009811/14/02 08:40:31  5-MIN KMSN 141440Z 35007KT 6SM HZ OVC021 04/01 A2989 900 79 -100 350/07 RMK AO2
14837KMSN MSN20021114084509811/14/02 08:45:31  5-MIN KMSN 141445Z 34006KT 6SM HZ OVC021 04/01 A2989 890 76 -100 340/06 RMK AO2
14837KMSN MSN20021114085012111/14/02 08:50:31  5-MIN KMSN 141450Z 35009KT 5SM HZ OVC021 04/01 A2989 890 76 -100 350/09 RMK AO2 SLP126 T00440006 51011
14837KMSN MSN20021114085509811/14/02 08:55:31  5-MIN KMSN 141455Z 34007KT 6SM HZ OVC019 04/01 A2989 890 76 -100 340/07 RMK AO2
14837KMSN MSN20021114090009811/14/02 09:00:31  5-MIN KMSN 141500Z 35007KT 6SM HZ OVC019 04/01 A2989 890 76 -100 350/07 RMK AO2
14837KMSN MSN20021114090509811/14/02 09:05:31  5-MIN KMSN 141505Z 35007KT 6SM HZ OVC019 04/01 A2989 890 76 -100 350/07 RMK AO2
14837KMSN MSN20021114091009811/14/02 09:10:31  5-MIN KMSN 141510Z 36006KT 6SM HZ OVC019 04/00 A2990 890 73 -100 360/06 RMK AO2
14837KMSN MSN20021114091509811/14/02 09:15:31  5-MIN KMSN 141515Z 35007KT 6SM HZ OVC019 04/01 A2990 890 76 -100 350/07 RMK AO2
14837KMSN MSN20021114092009811/14/02 09:20:31  5-MIN KMSN 141520Z 36009KT 6SM HZ OVC019 04/00 A2990 880 73 -100 360/09 RMK AO2
14837KMSN MSN20021114092509811/14/02 09:25:31  5-MIN KMSN 141525Z 36009KT 6SM HZ OVC019 04/00 A2990 880 76 -200 360/09 RMK AO2
14837KMSN MSN20021114093009911/14/02 09:30:31  5-MIN KMSN 141530Z 34008KT 6SM HZ OVC019 04/M01 A2990 880 73 -200 340/08 RMK AO2
14837KMSN MSN20021114093509911/14/02 09:35:31  5-MIN KMSN 141535Z 34008KT 6SM HZ OVC021 03/M01 A2991 880 76 -200 340/08 RMK AO2
14837KMSN MSN20021114094009911/14/02 09:40:31  5-MIN KMSN 141540Z 34007KT 6SM HZ OVC021 03/M01 A2991 870 76 -200 340/07 RMK AO2
14837KMSN MSN20021114094509911/14/02 09:45:31  5-MIN KMSN 141545Z 34008KT 5SM HZ OVC021 03/M01 A2991 870 76 -200 340/08 RMK AO2
14837KMSN MSN20021114095011611/14/02 09:50:31  5-MIN KMSN 141550Z 35009KT 5SM HZ OVC021 03/M01 A2992 870 76 -200 350/09 RMK AO2 SLP137 T00331006
14837KMSN MSN20021114095509911/14/02 09:55:31  5-MIN KMSN 141555Z 36010KT 5SM HZ OVC021 03/M01 A2992 860 76 -300 360/10 RMK AO2
14837KMSN MSN20021114100009911/14/02 10:00:31  5-MIN KMSN 141600Z 33009KT 6SM HZ OVC021 03/M01 A2992 860 72 -300 330/09 RMK AO2
14837KMSN MSN20021114100509911/14/02 10:05:31  5-MIN KMSN 141605Z 34008KT 6SM HZ OVC021 03/M01 A2992 860 72 -300 340/08 RMK AO2
14837KMSN MSN20021114101009911/14/02 10:10:31  5-MIN KMSN 141610Z 33009KT 6SM HZ OVC021 03/M01 A2992 860 72 -300 330/09 RMK AO2
14837KMSN MSN20021114101509911/14/02 10:15:31  5-MIN KMSN 141615Z 34008KT 6SM HZ OVC021 03/M01 A2992 860 72 -300 340/08 RMK AO2
14837KMSN MSN20021114102009911/14/02 10:20:31  5-MIN KMSN 141620Z 34009KT 6SM HZ OVC021 03/M01 A2993 860 72 -300 340/09 RMK AO2
14837KMSN MSN20021114102509911/14/02 10:25:31  5-MIN KMSN 141625Z 34008KT 6SM HZ OVC021 03/M01 A2993 860 72 -300 340/08 RMK AO2
14837KMSN MSN20021114103009911/14/02 10:30:31  5-MIN KMSN 141630Z 35008KT 6SM HZ OVC021 03/M01 A2993 860 72 -300 350/08 RMK AO2
14837KMSN MSN20021114103509911/14/02 10:35:31  5-MIN KMSN 141635Z 36008KT 6SM HZ OVC021 03/M01 A2993 850 72 -300 360/08 RMK AO2
14837KMSN MSN20021114104009911/14/02 10:40:31  5-MIN KMSN 141640Z 36008KT 6SM HZ OVC021 03/M01 A2993 860 72 -300 360/08 RMK AO2
14837KMSN MSN20021114104509911/14/02 10:45:31  5-MIN KMSN 141645Z 36008KT 6SM HZ OVC021 03/M01 A2993 860 76 -300 360/08 RMK AO2
14837KMSN MSN20021114105011611/14/02 10:50:31  5-MIN KMSN 141650Z 33008KT 6SM HZ OVC021 03/M01 A2993 860 72 -300 330/08 RMK AO2 SLP139 T00331011
14837KMSN MSN20021114105509911/14/02 10:55:31  5-MIN KMSN 141655Z 33007KT 6SM HZ OVC021 03/M01 A2992 860 72 -300 330/07 RMK AO2
14837KMSN MSN20021114110009911/14/02 11:00:31  5-MIN KMSN 141700Z 34006KT 6SM HZ OVC021 03/M01 A2992 860 72 -300 340/06 RMK AO2
14837KMSN MSN20021114110509911/14/02 11:05:31  5-MIN KMSN 141705Z 33008KT 5SM HZ OVC021 03/M01 A2992 860 72 -300 330/08 RMK AO2
14837KMSN MSN20021114111011511/14/02 11:10:31  5-MIN KMSN 141710Z 35008KT 310V010 5SM HZ OVC021 04/M01 A2991 870 70 -200 350/08 310V010 RMK AO2
14837KMSN MSN20021114111509911/14/02 11:15:31  5-MIN KMSN 141715Z 35006KT 5SM HZ OVC021 03/M01 A2991 870 72 -200 350/06 RMK AO2
14837KMSN MSN20021114112009911/14/02 11:20:31  5-MIN KMSN 141720Z 35008KT 5SM HZ OVC021 03/M01 A2991 870 72 -200 350/08 RMK AO2
14837KMSN MSN20021114112509911/14/02 11:25:31  5-MIN KMSN 141725Z 36008KT 5SM HZ OVC021 03/M01 A2991 870 72 -200 360/08 RMK AO2
14837KMSN MSN20021114113009911/14/02 11:30:31  5-MIN KMSN 141730Z VRB06KT 5SM HZ OVC019 03/M01 A2991 870 72 -200 VRB/06 RMK AO2
14837KMSN MSN20021114113509911/14/02 11:35:31  5-MIN KMSN 141735Z 34007KT 5SM HZ OVC019 03/M01 A2991 870 72 -200 340/07 RMK AO2
14837KMSN MSN20021114114009911/14/02 11:40:31  5-MIN KMSN 141740Z 36006KT 5SM HZ OVC019 03/M01 A2991 870 72 -200 360/06 RMK AO2
14837KMSN MSN20021114114509911/14/02 11:45:31  5-MIN KMSN 141745Z 36008KT 5SM HZ OVC019 03/M01 A2991 880 72 -200 350/08 RMK AO2
14837KMSN MSN20021114115013411/14/02 11:50:31  5-MIN KMSN 141750Z 34007KT 5SM HZ OVC019 03/M01 A2991 880 72 -200 340/07 RMK AO2 SLP132 T00331011 10044 20011 53025
14837KMSN MSN20021114115509911/14/02 11:55:31  5-MIN KMSN 141755Z 34006KT 6SM HZ OVC019 03/M01 A2990 880 72 -200 340/06 RMK AO2
14837KMSN MSN20021114120009911/14/02 12:00:31  5-MIN KMSN 141800Z 01009KT 6SM HZ OVC019 03/M01 A2990 880 75 -300 010/09 RMK AO2
14837KMSN MSN20021114120509911/14/02 12:05:31  5-MIN KMSN 141805Z 35005KT 6SM HZ OVC019 03/M01 A2990 890 75 -300 350/05 RMK AO2
14837KMSN MSN20021114121009911/14/02 12:10:31  5-MIN KMSN 141810Z 35008KT 6SM HZ OVC019 03/M01 A2989 890 72 -200 350/08 RMK AO2
14837KMSN MSN20021114121509611/14/02 12:15:31  5-MIN KMSN 141815Z 01010KT 7SM OVC019 03/M01 A2989 890 72 -200 010/10 RMK AO2
14837KMSN MSN20021114122009611/14/02 12:20:31  5-MIN KMSN 141820Z 01010KT 7SM OVC019 03/M01 A2989 890 72 -200 010/10 RMK AO2
14837KMSN MSN20021114122509611/14/02 12:25:31  5-MIN KMSN 141825Z 01011KT 7SM OVC019 03/M01 A2989 890 72 -200 010/11 RMK AO2
14837KMSN MSN20021114123009611/14/02 12:30:31  5-MIN KMSN 141830Z 01009KT 8SM OVC019 03/M01 A2989 890 72 -200 010/09 RMK AO2
14837KMSN MSN20021114123509611/14/02 12:35:31  5-MIN KMSN 141835Z 36008KT 8SM OVC019 03/M01 A2989 890 72 -200 360/08 RMK AO2
14837KMSN MSN20021114124009611/14/02 12:40:31  5-MIN KMSN 141840Z 36006KT 8SM OVC019 03/M02 A2989 890 70 -200 360/06 RMK AO2
14837KMSN MSN20021114124509611/14/02 12:45:31  5-MIN KMSN 141845Z 35009KT 8SM OVC019 03/M02 A2989 890 70 -200 350/09 RMK AO2
14837KMSN MSN20021114125011411/14/02 12:50:31  5-MIN KMSN 141850Z 01009KT 10SM OVC019 03/M02 A2989 890 72 -300 010/09 RMK AO2 SLP128 T00281017
14837KMSN MSN20021114125509611/14/02 12:55:31  5-MIN KMSN 141855Z 36010KT 9SM OVC021 03/M02 A2989 890 70 -200 360/10 RMK AO2
14837KMSN MSN20021114130009711/14/02 13:00:31  5-MIN KMSN 141900Z 34008KT 10SM OVC021 03/M02 A2990 880 70 -200 340/08 RMK AO2
14837KMSN MSN20021114130509711/14/02 13:05:31  5-MIN KMSN 141905Z 35007KT 10SM OVC021 03/M02 A2990 880 67 -200 350/07 RMK AO2
14837KMSN MSN20021114131009711/14/02 13:10:31  5-MIN KMSN 141910Z 01008KT 10SM OVC021 03/M02 A2990 880 70 -200 010/08 RMK AO2
14837KMSN MSN20021114131509711/14/02 13:15:31  5-MIN KMSN 141915Z 01009KT 10SM OVC021 03/M02 A2990 890 70 -200 010/09 RMK AO2
14837KMSN MSN20021114132009711/14/02 13:20:31  5-MIN KMSN 141920Z 36009KT 10SM OVC021 03/M02 A2990 880 70 -200 360/09 RMK AO2
14837KMSN MSN20021114132509711/14/02 13:25:31  5-MIN KMSN 141925Z 35008KT 10SM OVC021 03/M02 A2990 880 70 -200 350/08 RMK AO2
14837KMSN MSN20021114133009711/14/02 13:30:31  5-MIN KMSN 141930Z 36007KT 10SM BKN021 03/M02 A2990 890 67 -200 360/07 RMK AO2
14837KMSN MSN20021114133509711/14/02 13:35:31  5-MIN KMSN 141935Z 35008KT 10SM BKN021 03/M02 A2990 880 70 -200 350/08 RMK AO2
14837KMSN MSN20021114134009711/14/02 13:40:31  5-MIN KMSN 141940Z 34007KT 10SM BKN021 03/M02 A2990 890 67 -200 340/07 RMK AO2
14837KMSN MSN20021114134510411/14/02 13:45:31  5-MIN KMSN 141945Z 01006KT 10SM BKN021 BKN110 03/M02 A2989 890 67 -200 010/06 RMK AO2
14837KMSN MSN20021114135012111/14/02 13:50:31  5-MIN KMSN 141950Z 35007KT 10SM BKN021 BKN110 03/M02 A2989 890 67 -200 350/07 RMK AO2 SLP129 T00331022
14837KMSN MSN20021114135510411/14/02 13:55:31  5-MIN KMSN 141955Z 35008KT 10SM BKN021 BKN110 03/M02 A2990 890 67 -200 350/08 RMK AO2
14837KMSN MSN20021114140010411/14/02 14:00:31  5-MIN KMSN 142000Z 35007KT 10SM BKN023 BKN110 03/M02 A2990 880 69 -300 350/07 RMK AO2
14837KMSN MSN20021114140510411/14/02 14:05:31  5-MIN KMSN 142005Z 36006KT 10SM BKN023 OVC110 03/M02 A2990 880 69 -300 350/06 RMK AO2
14837KMSN MSN20021114141010411/14/02 14:10:31  5-MIN KMSN 142010Z 35006KT 10SM BKN023 OVC110 03/M02 A2990 880 67 -200 350/06 RMK AO2
14837KMSN MSN20021114141509711/14/02 14:15:31  5-MIN KMSN 142015Z 01006KT 10SM OVC023 03/M02 A2990 880 67 -200 360/06 RMK AO2
14837KMSN MSN20021114142010411/14/02 14:20:31  5-MIN KMSN 142020Z 34006KT 10SM BKN023 OVC110 03/M02 A2990 880 70 -200 340/06 RMK AO2
14837KMSN MSN20021114142509711/14/02 14:25:31  5-MIN KMSN 142025Z 36008KT 10SM OVC023 03/M02 A2990 880 67 -200 360/08 RMK AO2
14837KMSN MSN20021114143009711/14/02 14:30:31  5-MIN KMSN 142030Z 36009KT 10SM OVC023 03/M02 A2990 880 70 -200 360/09 RMK AO2
14837KMSN MSN20021114143509711/14/02 14:35:31  5-MIN KMSN 142035Z 35006KT 10SM OVC023 03/M02 A2990 880 70 -200 340/06 RMK AO2
14837KMSN MSN20021114144009711/14/02 14:40:31  5-MIN KMSN 142040Z 36007KT 10SM OVC023 03/M02 A2990 880 67 -200 360/07 RMK AO2
14837KMSN MSN20021114144509711/14/02 14:45:31  5-MIN KMSN 142045Z 36008KT 10SM OVC023 03/M02 A2990 880 67 -200 360/08 RMK AO2
14837KMSN MSN20021114145012011/14/02 14:50:31  5-MIN KMSN 142050Z 36008KT 10SM OVC023 03/M02 A2991 880 69 -300 360/08 RMK AO2 SLP133 T00281022 50004
14837KMSN MSN20021114145509711/14/02 14:55:31  5-MIN KMSN 142055Z 35007KT 10SM OVC023 03/M02 A2991 870 69 -300 350/07 RMK AO2
14837KMSN MSN20021114150009711/14/02 15:00:31  5-MIN KMSN 142100Z 36006KT 10SM OVC023 03/M02 A2991 870 69 -300 360/06 RMK AO2
14837KMSN MSN20021114150509711/14/02 15:05:31  5-MIN KMSN 142105Z 35006KT 10SM OVC023 03/M02 A2991 870 69 -300 350/06 RMK AO2
14837KMSN MSN20021114151009711/14/02 15:10:31  5-MIN KMSN 142110Z 36007KT 10SM OVC023 03/M02 A2991 870 69 -300 350/07 RMK AO2
14837KMSN MSN20021114151509711/14/02 15:15:31  5-MIN KMSN 142115Z 36006KT 10SM OVC023 03/M02 A2992 870 69 -300 360/06 RMK AO2
14837KMSN MSN20021114152009711/14/02 15:20:31  5-MIN KMSN 142120Z 36008KT 10SM OVC023 03/M02 A2992 860 69 -300 360/08 RMK AO2
14837KMSN MSN20021114152509711/14/02 15:25:31  5-MIN KMSN 142125Z 36008KT 10SM OVC023 03/M02 A2992 860 69 -300 360/08 RMK AO2
14837KMSN MSN20021114153009711/14/02 15:30:31  5-MIN KMSN 142130Z 36006KT 10SM OVC025 03/M02 A2992 860 69 -300 360/06 RMK AO2
14837KMSN MSN20021114153509711/14/02 15:35:31  5-MIN KMSN 142135Z 01007KT 10SM OVC025 03/M02 A2992 860 69 -300 010/07 RMK AO2
14837KMSN MSN20021114154009711/14/02 15:40:31  5-MIN KMSN 142140Z 01008KT 10SM OVC025 03/M02 A2992 860 69 -300 010/08 RMK AO2
14837KMSN MSN20021114154509711/14/02 15:45:31  5-MIN KMSN 142145Z 02007KT 10SM OVC025 03/M02 A2992 860 69 -300 020/07 RMK AO2
14837KMSN MSN20021114155011411/14/02 15:50:31  5-MIN KMSN 142150Z 36006KT 10SM OVC025 03/M02 A2992 860 69 -300 360/06 RMK AO2 SLP139 T00281022
14837KMSN MSN20021114155509711/14/02 15:55:31  5-MIN KMSN 142155Z 35006KT 10SM OVC025 03/M02 A2992 860 69 -300 350/06 RMK AO2
14837KMSN MSN20021114160009711/14/02 16:00:31  5-MIN KMSN 142200Z 36006KT 10SM OVC025 03/M02 A2992 860 69 -300 360/06 RMK AO2
14837KMSN MSN20021114160509711/14/02 16:05:31  5-MIN KMSN 142205Z 01009KT 10SM OVC025 03/M02 A2992 860 69 -300 010/09 RMK AO2
14837KMSN MSN20021114161009711/14/02 16:10:31  5-MIN KMSN 142210Z 36007KT 10SM OVC025 03/M02 A2993 860 69 -300 360/07 RMK AO2
14837KMSN MSN20021114161509711/14/02 16:15:31  5-MIN KMSN 142215Z 01008KT 10SM OVC025 03/M02 A2993 860 69 -300 010/08 RMK AO2
14837KMSN MSN20021114162009711/14/02 16:20:31  5-MIN KMSN 142220Z 36007KT 10SM OVC025 03/M02 A2993 860 69 -300 360/07 RMK AO2
14837KMSN MSN20021114162509711/14/02 16:25:31  5-MIN KMSN 142225Z 36007KT 10SM OVC025 03/M02 A2993 860 69 -300 360/07 RMK AO2
14837KMSN MSN20021114163009711/14/02 16:30:31  5-MIN KMSN 142230Z 36006KT 10SM OVC025 03/M02 A2993 860 69 -300 360/06 RMK AO2
14837KMSN MSN20021114163509711/14/02 16:35:31  5-MIN KMSN 142235Z 36006KT 10SM OVC025 02/M02 A2993 850 72 -400 360/06 RMK AO2
14837KMSN MSN20021114164009711/14/02 16:40:31  5-MIN KMSN 142240Z 01007KT 10SM OVC025 02/M02 A2993 850 72 -400 010/07 RMK AO2
14837KMSN MSN20021114164509711/14/02 16:45:31  5-MIN KMSN 142245Z 02006KT 10SM OVC025 02/M02 A2993 850 72 -400 020/06 RMK AO2
14837KMSN MSN20021114165012111/14/02 16:50:31  5-MIN KMSN 142250Z 03006KT 10SM BKN025 OVC030 02/M02 A2993 850 72 -400 030/06 RMK AO2 SLP144 T00221022
14837KMSN MSN20021114165510411/14/02 16:55:31  5-MIN KMSN 142255Z 01007KT 10SM BKN025 OVC090 02/M02 A2993 850 72 -400 010/07 RMK AO2
14837KMSN MSN20021114170010411/14/02 17:00:31  5-MIN KMSN 142300Z 02008KT 10SM BKN025 OVC090 02/M02 A2993 850 72 -400 020/08 RMK AO2
14837KMSN MSN20021114170511111/14/02 17:05:31  5-MIN KMSN 142305Z 03007KT 10SM BKN025 BKN065 OVC080 02/M02 A2993 850 72 -400 030/07 RMK AO2
14837KMSN MSN20021114171011111/14/02 17:10:31  5-MIN KMSN 142310Z 04005KT 10SM SCT025 BKN065 OVC095 02/M02 A2993 850 72 -400 040/05 RMK AO2
14837KMSN MSN20021114171511111/14/02 17:15:31  5-MIN KMSN 142315Z 03006KT 10SM SCT025 BKN075 OVC090 02/M02 A2993 850 72 -400 030/06 RMK AO2
14837KMSN MSN20021114172011111/14/02 17:20:31  5-MIN KMSN 142320Z 03006KT 10SM SCT025 BKN065 OVC090 02/M02 A2993 850 72 -400 030/06 RMK AO2
14837KMSN MSN20021114172511111/14/02 17:25:31  5-MIN KMSN 142325Z 02007KT 10SM FEW025 SCT065 OVC090 02/M02 A2994 850 72 -400 020/07 RMK AO2
14837KMSN MSN20021114173011111/14/02 17:30:31  5-MIN KMSN 142330Z 01010KT 10SM SCT025 SCT065 OVC090 02/M02 A2994 850 72 -400 010/10 RMK AO2
14837KMSN MSN20021114173511111/14/02 17:35:31  5-MIN KMSN 142335Z 02008KT 10SM BKN025 BKN075 OVC090 02/M02 A2994 850 72 -400 020/08 RMK AO2
14837KMSN MSN20021114174010411/14/02 17:40:31  5-MIN KMSN 142340Z 01006KT 10SM BKN027 OVC090 02/M02 A2994 850 72 -400 010/06 RMK AO2
14837KMSN MSN20021114174510411/14/02 17:45:31  5-MIN KMSN 142345Z 01008KT 10SM BKN027 OVC090 02/M02 A2994 850 75 -500 010/08 RMK AO2
14837KMSN MSN20021114175013911/14/02 17:50:31  5-MIN KMSN 142350Z 02007KT 10SM BKN027 OVC085 02/M02 A2994 850 75 -500 020/07 RMK AO2 SLP145 T00171022 10033 20017 53001
14837KMSN MSN20021114175510411/14/02 17:55:31  5-MIN KMSN 142355Z 02008KT 10SM BKN027 OVC080 02/M02 A2994 850 75 -500 020/08 RMK AO2
14837KMSN MSN20021114180010411/14/02 18:00:31  5-MIN KMSN 150000Z 02006KT 10SM BKN029 OVC080 02/M02 A2994 840 75 -500 020/06 RMK AO2
14837KMSN MSN20021114180510411/14/02 18:05:31  5-MIN KMSN 150005Z 02006KT 10SM BKN029 OVC080 02/M02 A2994 840 75 -500 020/06 RMK AO2
14837KMSN MSN20021114181010411/14/02 18:10:31  5-MIN KMSN 150010Z 02007KT 10SM BKN029 OVC080 02/M02 A2994 840 75 -500 020/07 RMK AO2
14837KMSN MSN20021114181510411/14/02 18:15:31  5-MIN KMSN 150015Z 02006KT 10SM BKN029 OVC080 02/M02 A2995 840 75 -500 020/06 RMK AO2
14837KMSN MSN20021114182010411/14/02 18:20:31  5-MIN KMSN 150020Z 02007KT 10SM BKN029 OVC080 02/M02 A2995 840 75 -500 020/07 RMK AO2
14837KMSN MSN20021114182510411/14/02 18:25:31  5-MIN KMSN 150025Z 01006KT 10SM BKN029 OVC080 02/M02 A2995 840 75 -500 010/06 RMK AO2
14837KMSN MSN20021114183009711/14/02 18:30:31  5-MIN KMSN 150030Z 02006KT 10SM OVC029 02/M02 A2995 840 75 -500 020/06 RMK AO2
14837KMSN MSN20021114183509711/14/02 18:35:31  5-MIN KMSN 150035Z 02006KT 10SM OVC029 02/M02 A2995 840 75 -500 020/06 RMK AO2
14837KMSN MSN20021114184009711/14/02 18:40:31  5-MIN KMSN 150040Z 02007KT 10SM OVC029 02/M02 A2995 840 75 -500 020/07 RMK AO2
14837KMSN MSN20021114184509711/14/02 18:45:31  5-MIN KMSN 150045Z 02005KT 10SM OVC029 02/M02 A2995 840 75 -500 020/05 RMK AO2
14837KMSN MSN20021114185011411/14/02 18:50:31  5-MIN KMSN 150050Z 02006KT 10SM OVC029 02/M02 A2995 840 75 -500 020/06 RMK AO2 SLP149 T00171022
14837KMSN MSN20021114185509711/14/02 18:55:31  5-MIN KMSN 150055Z 02005KT 10SM OVC029 02/M02 A2995 840 75 -500 010/05 RMK AO2
14837KMSN MSN20021114190009711/14/02 19:00:31  5-MIN KMSN 150100Z 02005KT 10SM OVC029 02/M02 A2995 840 75 -500 020/05 RMK AO2
14837KMSN MSN20021114190509711/14/02 19:05:31  5-MIN KMSN 150105Z 02007KT 10SM OVC029 02/M02 A2995 840 75 -500 010/07 RMK AO2
14837KMSN MSN20021114191009711/14/02 19:10:31  5-MIN KMSN 150110Z 36005KT 10SM OVC029 02/M02 A2995 840 75 -500 360/05 RMK AO2
14837KMSN MSN20021114191509711/14/02 19:15:31  5-MIN KMSN 150115Z 36004KT 10SM OVC029 02/M02 A2995 840 75 -500 360/04 RMK AO2
14837KMSN MSN20021114192009711/14/02 19:20:31  5-MIN KMSN 150120Z 36004KT 10SM OVC029 02/M02 A2995 840 75 -500 360/04 RMK AO2
14837KMSN MSN20021114192509711/14/02 19:25:31  5-MIN KMSN 150125Z 01004KT 10SM OVC029 02/M02 A2995 840 75 -500 360/04 RMK AO2
14837KMSN MSN20021114193009711/14/02 19:30:31  5-MIN KMSN 150130Z 03004KT 10SM OVC029 02/M02 A2995 840 75 -500 030/04 RMK AO2
14837KMSN MSN20021114193509711/14/02 19:35:31  5-MIN KMSN 150135Z 03004KT 10SM OVC031 02/M02 A2995 840 75 -500 030/04 RMK AO2
14837KMSN MSN20021114194009711/14/02 19:40:31  5-MIN KMSN 150140Z 01005KT 10SM OVC031 02/M02 A2995 840 75 -500 010/05 RMK AO2
14837KMSN MSN20021114194509711/14/02 19:45:31  5-MIN KMSN 150145Z 02005KT 10SM OVC031 02/M02 A2995 840 75 -500 020/05 RMK AO2
14837KMSN MSN20021114195011411/14/02 19:50:31  5-MIN KMSN 150150Z 02006KT 10SM OVC031 02/M02 A2995 840 75 -500 020/06 RMK AO2 SLP149 T00171022
14837KMSN MSN20021114195509711/14/02 19:55:31  5-MIN KMSN 150155Z 02006KT 10SM OVC033 02/M02 A2995 840 75 -500 020/06 RMK AO2
14837KMSN MSN20021114200009711/14/02 20:00:31  5-MIN KMSN 150200Z 03005KT 10SM OVC033 02/M02 A2995 840 75 -500 030/05 RMK AO2
14837KMSN MSN20021114200509711/14/02 20:05:31  5-MIN KMSN 150205Z 03006KT 10SM OVC033 02/M02 A2995 840 75 -500 030/06 RMK AO2
14837KMSN MSN20021114201009711/14/02 20:10:31  5-MIN KMSN 150210Z 03005KT 10SM OVC033 02/M02 A2995 840 75 -500 020/05 RMK AO2
14837KMSN MSN20021114201509711/14/02 20:15:31  5-MIN KMSN 150215Z 03006KT 10SM OVC033 02/M02 A2995 840 75 -500 030/06 RMK AO2
14837KMSN MSN20021114202009711/14/02 20:20:31  5-MIN KMSN 150220Z 03006KT 10SM OVC033 02/M02 A2995 840 75 -500 030/06 RMK AO2
14837KMSN MSN20021114202509711/14/02 20:25:31  5-MIN KMSN 150225Z 04005KT 10SM OVC033 02/M02 A2995 830 75 -500 040/05 RMK AO2
14837KMSN MSN20021114203009711/14/02 20:30:31  5-MIN KMSN 150230Z 03005KT 10SM OVC033 02/M02 A2996 830 75 -500 030/05 RMK AO2
14837KMSN MSN20021114203510411/14/02 20:35:31  5-MIN KMSN 150235Z 03004KT 10SM FEW028 OVC033 02/M02 A2996 830 75 -500 030/04 RMK AO2
14837KMSN MSN20021114204010411/14/02 20:40:31  5-MIN KMSN 150240Z 03006KT 10SM SCT028 OVC033 02/M02 A2996 830 75 -500 030/06 RMK AO2
14837KMSN MSN20021114204510411/14/02 20:45:31  5-MIN KMSN 150245Z 03005KT 10SM SCT028 OVC033 02/M02 A2996 830 75 -500 030/05 RMK AO2
14837KMSN MSN20021114205012711/14/02 20:50:31  5-MIN KMSN 150250Z 03006KT 10SM BKN028 OVC033 02/M02 A2996 830 75 -500 030/06 RMK AO2 SLP153 T00171022 51010
14837KMSN MSN20021114205510411/14/02 20:55:31  5-MIN KMSN 150255Z 02006KT 10SM BKN028 OVC033 02/M02 A2996 830 75 -500 020/06 RMK AO2
14837KMSN MSN20021114210010411/14/02 21:00:31  5-MIN KMSN 150300Z 03006KT 10SM BKN028 OVC035 02/M02 A2996 820 75 -500 030/06 RMK AO2
14837KMSN MSN20021114210510411/14/02 21:05:31  5-MIN KMSN 150305Z 03005KT 10SM BKN028 OVC035 02/M01 A2996 820 82 -500 030/05 RMK AO2
14837KMSN MSN20021114211010411/14/02 21:10:31  5-MIN KMSN 150310Z 03005KT 10SM BKN028 OVC035 02/M01 A2997 820 82 -500 030/05 RMK AO2
14837KMSN MSN20021114211509711/14/02 21:15:31  5-MIN KMSN 150315Z 03004KT 10SM OVC028 02/M02 A2997 820 75 -500 030/04 RMK AO2
14837KMSN MSN20021114212009711/14/02 21:20:31  5-MIN KMSN 150320Z 03005KT 10SM OVC028 02/M02 A2997 820 75 -500 030/05 RMK AO2
14837KMSN MSN20021114212509711/14/02 21:25:31  5-MIN KMSN 150325Z 04005KT 10SM OVC028 02/M02 A2997 820 75 -500 040/05 RMK AO2
14837KMSN MSN20021114213009711/14/02 21:30:31  5-MIN KMSN 150330Z 04005KT 10SM OVC028 01/M02 A2997 820 78 -600 030/05 RMK AO2
14837KMSN MSN20021114213509711/14/02 21:35:31  5-MIN KMSN 150335Z 04004KT 10SM OVC028 01/M02 A2997 820 78 -600 040/04 RMK AO2
14837KMSN MSN20021114214009711/14/02 21:40:31  5-MIN KMSN 150340Z 05004KT 10SM OVC028 01/M02 A2997 820 78 -600 050/04 RMK AO2
14837KMSN MSN20021114214509711/14/02 21:45:31  5-MIN KMSN 150345Z 05004KT 10SM OVC028 01/M02 A2997 820 78 -600 050/04 RMK AO2
14837KMSN MSN20021114215011411/14/02 21:50:31  5-MIN KMSN 150350Z 05005KT 10SM OVC030 01/M02 A2997 820 78 -600 050/05 RMK AO2 SLP158 T00111022
14837KMSN MSN20021114215509711/14/02 21:55:31  5-MIN KMSN 150355Z 03004KT 10SM OVC030 01/M02 A2997 820 78 -600 030/04 RMK AO2
14837KMSN MSN20021114220009711/14/02 22:00:31  5-MIN KMSN 150400Z 04004KT 10SM OVC030 01/M02 A2997 820 78 -600 040/04 RMK AO2
14837KMSN MSN20021114220509711/14/02 22:05:31  5-MIN KMSN 150405Z 04005KT 10SM OVC030 01/M02 A2997 810 78 -600 040/05 RMK AO2
14837KMSN MSN20021114221009711/14/02 22:10:31  5-MIN KMSN 150410Z 04004KT 10SM OVC030 01/M02 A2998 810 78 -600 040/04 RMK AO2
14837KMSN MSN20021114221509711/14/02 22:15:31  5-MIN KMSN 150415Z 04006KT 10SM OVC030 01/M02 A2998 810 78 -600 040/06 RMK AO2
14837KMSN MSN20021114222009711/14/02 22:20:31  5-MIN KMSN 150420Z 03005KT 10SM OVC030 01/M02 A2998 810 78 -600 030/05 RMK AO2
14837KMSN MSN20021114222509711/14/02 22:25:31  5-MIN KMSN 150425Z 03006KT 10SM OVC030 01/M02 A2998 810 78 -600 030/06 RMK AO2
14837KMSN MSN20021114223009711/14/02 22:30:31  5-MIN KMSN 150430Z 02005KT 10SM OVC030 01/M03 A2998 810 75 -600 020/05 RMK AO2
14837KMSN MSN20021114223509711/14/02 22:35:31  5-MIN KMSN 150435Z 01005KT 10SM OVC030 01/M02 A2998 810 78 -600 360/05 RMK AO2
14837KMSN MSN20021114224009711/14/02 22:40:31  5-MIN KMSN 150440Z 01007KT 10SM OVC032 01/M02 A2999 800 78 -600 010/07 RMK AO2
14837KMSN MSN20021114224509711/14/02 22:45:31  5-MIN KMSN 150445Z 02007KT 10SM OVC032 01/M03 A2999 800 75 -600 020/07 RMK AO2
14837KMSN MSN20021114225011411/14/02 22:50:31  5-MIN KMSN 150450Z 03008KT 10SM OVC032 01/M03 A2999 800 75 -600 030/08 RMK AO2 SLP163 T00111028
14837KMSN MSN20021114225509711/14/02 22:55:31  5-MIN KMSN 150455Z 03007KT 10SM OVC032 01/M03 A2999 800 75 -600 030/07 RMK AO2
14837KMSN MSN20021114230009711/14/02 23:00:31  5-MIN KMSN 150500Z 02008KT 10SM OVC032 01/M03 A2999 800 75 -600 020/08 RMK AO2
14837KMSN MSN20021114230509711/14/02 23:05:31  5-MIN KMSN 150505Z 03008KT 10SM OVC032 01/M03 A2999 800 75 -600 030/08 RMK AO2
14837KMSN MSN20021114231009711/14/02 23:10:31  5-MIN KMSN 150510Z 04007KT 10SM OVC032 01/M03 A2999 800 75 -600 030/07 RMK AO2
14837KMSN MSN20021114231509711/14/02 23:15:31  5-MIN KMSN 150515Z 04008KT 10SM OVC032 01/M03 A2999 800 75 -600 040/08 RMK AO2
14837KMSN MSN20021114232009711/14/02 23:20:31  5-MIN KMSN 150520Z 04008KT 10SM OVC032 01/M03 A2999 800 75 -600 040/08 RMK AO2
14837KMSN MSN20021114232510411/14/02 23:25:31  5-MIN KMSN 150525Z 04009KT 10SM FEW025 OVC032 01/M03 A3000 790 78 -700 040/09 RMK AO2
14837KMSN MSN20021114233010411/14/02 23:30:31  5-MIN KMSN 150530Z 02008KT 10SM SCT025 OVC032 01/M03 A3000 790 78 -700 020/08 RMK AO2
14837KMSN MSN20021114233510411/14/02 23:35:31  5-MIN KMSN 150535Z 03009KT 10SM BKN025 OVC032 01/M03 A3000 790 78 -700 030/09 RMK AO2
14837KMSN MSN20021114234010411/14/02 23:40:31  5-MIN KMSN 150540Z 03009KT 10SM BKN025 OVC032 01/M03 A3000 790 78 -700 030/09 RMK AO2
14837KMSN MSN20021114234510411/14/02 23:45:31  5-MIN KMSN 150545Z 03011KT 10SM BKN025 OVC032 01/M03 A3000 790 78 -700 030/11 RMK AO2
14837KMSN MSN20021114235014211/14/02 23:50:31  5-MIN KMSN 150550Z 03010KT 10SM OVC025 01/M03 A3000 790 78 -700 030/10 RMK AO2 SLP168 T00061028 10017 20006 400940006 53007
14837KMSN MSN20021114235509711/14/02 23:55:31  5-MIN KMSN 150555Z 04010KT 10SM OVC025 01/M03 A3000 790 78 -700 040/10 RMK AO2
14837KMSN MSN20021115000009711/15/02 00:00:31  5-MIN KMSN 150600Z 03009KT 10SM OVC025 01/M03 A3000 790 78 -700 030/09 RMK AO2
14837KMSN MSN20021115000511311/15/02 00:05:31  5-MIN KMSN 150605Z 04009KT 10SM -SN OVC025 01/M03 A3001 790 78 -700 040/09 RMK AO2 SNB05 P0000
14837KMSN MSN20021115001011211/15/02 00:10:31  5-MIN KMSN 150610Z 03011KT 9SM -SN OVC025 01/M03 A3001 780 78 -700 030/11 RMK AO2 SNB05 P0000
14837KMSN MSN20021115001511211/15/02 00:15:31  5-MIN KMSN 150615Z 03011KT 9SM -SN OVC025 00/M03 A3001 780 78 -800 030/11 RMK AO2 SNB05 P0000
14837KMSN MSN20021115002011211/15/02 00:20:31  5-MIN KMSN 150620Z 02012KT 9SM -SN OVC025 00/M03 A3001 780 78 -800 020/12 RMK AO2 SNB05 P0000
14837KMSN MSN20021115002511211/15/02 00:25:31  5-MIN KMSN 150625Z 04012KT 9SM -SN OVC025 00/M04 A3001 780 75 -800 040/12 RMK AO2 SNB05 P0000
14837KMSN MSN20021115003011211/15/02 00:30:31  5-MIN KMSN 150630Z 03013KT 9SM -SN OVC025 00/M04 A3001 780 72 -800 030/13 RMK AO2 SNB05 P0000
14837KMSN MSN20021115003511111/15/02 00:35:31  5-MIN KMSN 150635Z 04013KT 9SM OVC025 00/M04 A3001 780 72 -800 040/13 RMK AO2 SNB05E34 P0000
14837KMSN MSN20021115004011211/15/02 00:40:31  5-MIN KMSN 150640Z 04011KT 10SM OVC025 00/M04 A3001 780 75 -800 030/11 RMK AO2 SNB05E34 P0000
14837KMSN MSN20021115004511211/15/02 00:45:31  5-MIN KMSN 150645Z 03010KT 10SM OVC025 00/M04 A3001 780 75 -800 030/10 RMK AO2 SNB05E34 P0000
14837KMSN MSN20021115005013611/15/02 00:50:31  5-MIN KMSN 150650Z 03008KT 10SM BKN025 OVC031 00/M04 A3001 780 75 -800 030/08 RMK AO2 SNB05E34 SLP170 P0000 T00001039
14837KMSN MSN20021115005510411/15/02 00:55:31  5-MIN KMSN 150655Z 02012KT 10SM BKN025 OVC031 00/M04 A3001 780 75 -800 020/12 RMK AO2
14837KMSN MSN20021115010010511/15/02 01:00:31  5-MIN KMSN 150700Z 03010KT 10SM BKN025 OVC031 M01/M04 A3001 780 75 -800 030/10 RMK AO2
14837KMSN MSN20021115010510511/15/02 01:05:31  5-MIN KMSN 150705Z 03011KT 10SM SCT025 OVC031 M01/M05 A3001 780 72 -800 030/11 RMK AO2
14837KMSN MSN20021115011010511/15/02 01:10:31  5-MIN KMSN 150710Z 02010KT 10SM FEW025 OVC031 M01/M06 A3001 780 69 -800 020/10 RMK AO2
14837KMSN MSN20021115011510511/15/02 01:15:31  5-MIN KMSN 150715Z 03011KT 10SM FEW025 OVC031 M01/M06 A3001 780 69 -800 020/11 RMK AO2
14837KMSN MSN20021115012010511/15/02 01:20:31  5-MIN KMSN 150720Z 03010KT 10SM FEW025 OVC031 M01/M06 A3001 780 69 -800 030/10 RMK AO2
14837KMSN MSN20021115012509811/15/02 01:25:31  5-MIN KMSN 150725Z 04009KT 10SM OVC031 M01/M06 A3001 780 66 -800 030/09 RMK AO2
14837KMSN MSN20021115013009811/15/02 01:30:31  5-MIN KMSN 150730Z 03008KT 10SM OVC031 M01/M06 A3002 780 69 -800 030/08 RMK AO2
14837KMSN MSN20021115013509811/15/02 01:35:31  5-MIN KMSN 150735Z 03011KT 10SM OVC031 M01/M06 A3002 770 66 -800 020/11 RMK AO2
14837KMSN MSN20021115014009811/15/02 01:40:31  5-MIN KMSN 150740Z 02010KT 10SM OVC031 M01/M06 A3002 770 66 -900 020/10 RMK AO2
14837KMSN MSN20021115014509811/15/02 01:45:31  5-MIN KMSN 150745Z 03010KT 10SM OVC031 M01/M06 A3002 770 69 -900 030/10 RMK AO2
14837KMSN MSN20021115015011511/15/02 01:50:31  5-MIN KMSN 150750Z 03010KT 10SM OVC031 M01/M06 A3002 770 69 -900 030/10 RMK AO2 SLP175 T10111061
14837KMSN MSN20021115015509811/15/02 01:55:31  5-MIN KMSN 150755Z 03009KT 10SM OVC033 M01/M06 A3002 770 69 -900 030/09 RMK AO2
14837KMSN MSN20021115020009811/15/02 02:00:31  5-MIN KMSN 150800Z 02007KT 10SM OVC033 M01/M06 A3002 770 69 -900 020/07 RMK AO2
14837KMSN MSN20021115020509811/15/02 02:05:31  5-MIN KMSN 150805Z 03010KT 10SM OVC033 M01/M06 A3003 770 69 -900 030/10 RMK AO2
14837KMSN MSN20021115021009811/15/02 02:10:31  5-MIN KMSN 150810Z 02009KT 10SM OVC033 M01/M06 A3003 770 69 -900 020/09 RMK AO2
14837KMSN MSN20021115021509811/15/02 02:15:31  5-MIN KMSN 150815Z 03010KT 10SM OVC033 M01/M06 A3003 760 69 -900 030/10 RMK AO2
14837KMSN MSN20021115022009811/15/02 02:20:31  5-MIN KMSN 150820Z 02007KT 10SM OVC033 M01/M06 A3003 760 69 -900 020/07 RMK AO2
14837KMSN MSN20021115022509811/15/02 02:25:31  5-MIN KMSN 150825Z 03010KT 10SM OVC033 M01/M06 A3003 760 69 -900 030/10 RMK AO2
14837KMSN MSN20021115023009811/15/02 02:30:31  5-MIN KMSN 150830Z 03009KT 10SM OVC033 M01/M06 A3003 760 69 -900 030/09 RMK AO2
14837KMSN MSN20021115023509811/15/02 02:35:31  5-MIN KMSN 150835Z 03011KT 10SM OVC033 M01/M06 A3003 760 72 -900 030/11 RMK AO2
14837KMSN MSN20021115024009811/15/02 02:40:31  5-MIN KMSN 150840Z 03010KT 10SM OVC033 M01/M06 A3004 760 69 -900 030/10 RMK AO2
14837KMSN MSN20021115024509811/15/02 02:45:31  5-MIN KMSN 150845Z 03009KT 10SM OVC033 M01/M06 A3004 760 72 -900 030/09 RMK AO2
14837KMSN MSN20021115025012711/15/02 02:50:31  5-MIN KMSN 150850Z 03006KT 10SM OVC033 M01/M06 A3004 760 72 -900 030/06 RMK AO2 SLP180 60000 T10111056 53014
14837KMSN MSN20021115025509811/15/02 02:55:31  5-MIN KMSN 150855Z 04007KT 10SM OVC033 M01/M06 A3004 760 72 -900 040/07 RMK AO2
14837KMSN MSN20021115030009811/15/02 03:00:31  5-MIN KMSN 150900Z 03008KT 10SM OVC033 M01/M06 A3004 760 72 -900 030/08 RMK AO2
14837KMSN MSN20021115030509811/15/02 03:05:31  5-MIN KMSN 150905Z 02010KT 10SM OVC033 M01/M06 A3004 760 69 -900 020/10 RMK AO2
14837KMSN MSN20021115031009811/15/02 03:10:31  5-MIN KMSN 150910Z 03010KT 10SM OVC033 M01/M06 A3004 760 69 -900 030/10 RMK AO2
14837KMSN MSN20021115031509911/15/02 03:15:31  5-MIN KMSN 150915Z 03010KT 10SM OVC033 M02/M06 A3004 750 72 -1000 030/10 RMK AO2
14837KMSN MSN20021115032009911/15/02 03:20:31  5-MIN KMSN 150920Z 03009KT 10SM OVC033 M02/M06 A3004 750 72 -1000 030/09 RMK AO2
14837KMSN MSN20021115032509911/15/02 03:25:31  5-MIN KMSN 150925Z 02009KT 10SM OVC033 M02/M06 A3004 750 72 -1000 020/09 RMK AO2
14837KMSN MSN20021115033009911/15/02 03:30:31  5-MIN KMSN 150930Z 03007KT 10SM OVC035 M02/M06 A3004 750 72 -1000 030/07 RMK AO2
14837KMSN MSN20021115033509911/15/02 03:35:31  5-MIN KMSN 150935Z 02008KT 10SM OVC035 M02/M06 A3004 750 72 -1000 020/08 RMK AO2
14837KMSN MSN20021115034009911/15/02 03:40:31  5-MIN KMSN 150940Z 03009KT 10SM OVC035 M02/M06 A3004 750 72 -1000 030/09 RMK AO2
14837KMSN MSN20021115034509911/15/02 03:45:31  5-MIN KMSN 150945Z 03011KT 10SM OVC035 M02/M06 A3004 750 75 -1100 030/11 RMK AO2
14837KMSN MSN20021115035011611/15/02 03:50:31  5-MIN KMSN 150950Z 03011KT 10SM OVC035 M02/M06 A3004 750 78 -1100 030/11 RMK AO2 SLP184 T10221056
14837KMSN MSN20021115035509911/15/02 03:55:31  5-MIN KMSN 150955Z 04010KT 10SM OVC035 M02/M06 A3004 750 75 -1100 040/10 RMK AO2
14837KMSN MSN20021115040009911/15/02 04:00:31  5-MIN KMSN 151000Z 04011KT 10SM OVC035 M02/M06 A3005 750 75 -1100 040/11 RMK AO2
14837KMSN MSN20021115040509911/15/02 04:05:31  5-MIN KMSN 151005Z 04011KT 10SM OVC035 M02/M06 A3005 750 75 -1100 040/11 RMK AO2
14837KMSN MSN20021115041009911/15/02 04:10:31  5-MIN KMSN 151010Z 04010KT 10SM OVC035 M02/M06 A3005 750 75 -1100 040/10 RMK AO2
14837KMSN MSN20021115041509911/15/02 04:15:31  5-MIN KMSN 151015Z 04007KT 10SM OVC035 M02/M06 A3005 740 75 -1100 040/07 RMK AO2
14837KMSN MSN20021115042009911/15/02 04:20:31  5-MIN KMSN 151020Z 04008KT 10SM OVC035 M02/M06 A3005 740 75 -1100 040/08 RMK AO2
14837KMSN MSN20021115042509911/15/02 04:25:31  5-MIN KMSN 151025Z 05009KT 10SM OVC035 M02/M06 A3005 740 75 -1100 050/09 RMK AO2
14837KMSN MSN20021115043009911/15/02 04:30:31  5-MIN KMSN 151030Z 04008KT 10SM OVC035 M02/M06 A3005 740 75 -1100 040/08 RMK AO2
14837KMSN MSN20021115043509911/15/02 04:35:31  5-MIN KMSN 151035Z 04009KT 10SM OVC035 M03/M06 A3006 740 78 -1200 040/09 RMK AO2
14837KMSN MSN20021115044009911/15/02 04:40:31  5-MIN KMSN 151040Z 04010KT 10SM OVC035 M02/M06 A3006 730 75 -1100 040/10 RMK AO2
14837KMSN MSN20021115044509911/15/02 04:45:31  5-MIN KMSN 151045Z 04011KT 10SM OVC035 M03/M06 A3006 730 78 -1200 040/11 RMK AO2
14837KMSN MSN20021115045011611/15/02 04:50:31  5-MIN KMSN 151050Z 03011KT 10SM OVC035 M03/M06 A3006 730 78 -1200 030/11 RMK AO2 SLP190 T10281061
14837KMSN MSN20021115045509911/15/02 04:55:31  5-MIN KMSN 151055Z 03009KT 10SM OVC035 M03/M07 A3006 730 75 -1200 030/09 RMK AO2
14837KMSN MSN20021115050009911/15/02 05:00:31  5-MIN KMSN 151100Z 03008KT 10SM OVC035 M03/M06 A3007 730 78 -1200 030/08 RMK AO2
14837KMSN MSN20021115050509911/15/02 05:05:31  5-MIN KMSN 151105Z 03010KT 10SM OVC035 M03/M06 A3007 730 78 -1200 030/10 RMK AO2
14837KMSN MSN20021115051009911/15/02 05:10:31  5-MIN KMSN 151110Z 02010KT 10SM OVC035 M03/M06 A3007 730 78 -1200 020/10 RMK AO2
14837KMSN MSN20021115051509911/15/02 05:15:31  5-MIN KMSN 151115Z 01010KT 10SM OVC035 M03/M06 A3007 730 78 -1200 010/10 RMK AO2
14837KMSN MSN20021115052009911/15/02 05:20:31  5-MIN KMSN 151120Z 01010KT 10SM OVC035 M03/M07 A3007 730 75 -1200 010/10 RMK AO2
14837KMSN MSN20021115052509911/15/02 05:25:31  5-MIN KMSN 151125Z 02009KT 10SM OVC035 M03/M07 A3007 720 78 -1300 020/09 RMK AO2
14837KMSN MSN20021115053009911/15/02 05:30:31  5-MIN KMSN 151130Z 03011KT 10SM OVC035 M03/M07 A3007 720 78 -1300 030/11 RMK AO2
14837KMSN MSN20021115053509911/15/02 05:35:31  5-MIN KMSN 151135Z 03009KT 10SM OVC035 M03/M07 A3007 720 78 -1300 030/09 RMK AO2
14837KMSN MSN20021115054009911/15/02 05:40:31  5-MIN KMSN 151140Z 03007KT 10SM OVC035 M03/M07 A3007 720 78 -1300 030/07 RMK AO2
14837KMSN MSN20021115054509911/15/02 05:45:31  5-MIN KMSN 151145Z 01008KT 10SM OVC035 M03/M07 A3007 720 78 -1300 010/08 RMK AO2
14837KMSN MSN20021115055014011/15/02 05:50:31  5-MIN KMSN 151150Z 01008KT 10SM OVC035 M03/M07 A3008 720 78 -1300 360/08 RMK AO2 SLP196 60000 T10331067 10006 21033 53012
14837KMSN MSN20021115055509911/15/02 05:55:31  5-MIN KMSN 151155Z 02009KT 10SM OVC035 M03/M07 A3008 720 78 -1300 020/09 RMK AO2
14837KMSN MSN20021115060009911/15/02 06:00:31  5-MIN KMSN 151200Z 02009KT 10SM OVC035 M03/M07 A3008 720 78 -1300 020/09 RMK AO2
14837KMSN MSN20021115060509911/15/02 06:05:31  5-MIN KMSN 151205Z 02009KT 10SM OVC035 M03/M07 A3009 710 78 -1300 010/09 RMK AO2
14837KMSN MSN20021115061009911/15/02 06:10:31  5-MIN KMSN 151210Z 02008KT 10SM OVC035 M03/M07 A3008 710 78 -1300 020/08 RMK AO2
14837KMSN MSN20021115061509911/15/02 06:15:31  5-MIN KMSN 151215Z 03011KT 10SM OVC035 M04/M07 A3009 710 81 -1400 030/11 RMK AO2
14837KMSN MSN20021115062009911/15/02 06:20:31  5-MIN KMSN 151220Z 02008KT 10SM OVC035 M04/M07 A3009 710 81 -1400 020/08 RMK AO2
14837KMSN MSN20021115062509911/15/02 06:25:31  5-MIN KMSN 151225Z 36008KT 10SM OVC035 M03/M07 A3009 710 78 -1300 360/08 RMK AO2
14837KMSN MSN20021115063009911/15/02 06:30:31  5-MIN KMSN 151230Z 01009KT 10SM OVC035 M04/M07 A3009 710 81 -1400 010/09 RMK AO2
14837KMSN MSN20021115063509911/15/02 06:35:31  5-MIN KMSN 151235Z 01012KT 10SM BKN035 M04/M07 A3009 710 81 -1400 010/12 RMK AO2
14837KMSN MSN20021115064009911/15/02 06:40:31  5-MIN KMSN 151240Z 01010KT 10SM BKN035 M04/M07 A3009 710 78 -1400 010/10 RMK AO2
14837KMSN MSN20021115064509911/15/02 06:45:31  5-MIN KMSN 151245Z 01010KT 10SM BKN035 M04/M07 A3009 710 81 -1400 010/10 RMK AO2
14837KMSN MSN20021115065011611/15/02 06:50:31  5-MIN KMSN 151250Z 02009KT 10SM BKN035 M04/M07 A3010 700 78 -1400 020/09 RMK AO2 SLP202 T10391072
14837KMSN MSN20021115065509911/15/02 06:55:31  5-MIN KMSN 151255Z 03007KT 10SM OVC035 M04/M07 A3010 700 81 -1400 030/07 RMK AO2
14837KMSN MSN20021115070009911/15/02 07:00:31  5-MIN KMSN 151300Z 01005KT 10SM OVC035 M04/M07 A3010 700 81 -1400 010/05 RMK AO2
14837KMSN MSN20021115070509911/15/02 07:05:31  5-MIN KMSN 151305Z 02006KT 10SM OVC035 M04/M07 A3010 700 81 -1400 020/06 RMK AO2
14837KMSN MSN20021115071009911/15/02 07:10:31  5-MIN KMSN 151310Z 02007KT 10SM OVC035 M04/M07 A3011 690 84 -1400 020/07 RMK AO2
14837KMSN MSN20021115071509911/15/02 07:15:31  5-MIN KMSN 151315Z 02007KT 10SM OVC035 M04/M07 A3011 690 78 -1400 020/07 RMK AO2
14837KMSN MSN20021115072009911/15/02 07:20:31  5-MIN KMSN 151320Z 03005KT 10SM OVC035 M04/M07 A3011 690 81 -1500 020/05 RMK AO2
14837KMSN MSN20021115072509911/15/02 07:25:31  5-MIN KMSN 151325Z 03008KT 10SM OVC035 M04/M07 A3011 690 81 -1400 030/08 RMK AO2
14837KMSN MSN20021115073009911/15/02 07:30:31  5-MIN KMSN 151330Z 03006KT 10SM OVC035 M04/M07 A3012 680 78 -1400 030/06 RMK AO2
14837KMSN MSN20021115073509911/15/02 07:35:31  5-MIN KMSN 151335Z 03007KT 10SM OVC035 M04/M07 A3012 680 81 -1400 030/07 RMK AO2
14837KMSN MSN20021115074009911/15/02 07:40:31  5-MIN KMSN 151340Z 03007KT 10SM OVC035 M04/M07 A3012 680 81 -1400 030/07 RMK AO2
14837KMSN MSN20021115074509911/15/02 07:45:31  5-MIN KMSN 151345Z 01007KT 10SM BKN035 M04/M07 A3012 680 78 -1400 010/07 RMK AO2
14837KMSN MSN20021115075011611/15/02 07:50:31  5-MIN KMSN 151350Z 02007KT 10SM BKN035 M04/M07 A3012 680 78 -1400 020/07 RMK AO2 SLP212 T10391072
14837KMSN MSN20021115075509911/15/02 07:55:31  5-MIN KMSN 151355Z 02008KT 10SM OVC035 M04/M07 A3013 680 78 -1400 020/08 RMK AO2
14837KMSN MSN20021115080009911/15/02 08:00:31  5-MIN KMSN 151400Z 01010KT 10SM OVC035 M03/M07 A3013 670 74 -1300 010/10 RMK AO2
14837KMSN MSN20021115080509911/15/02 08:05:31  5-MIN KMSN 151405Z 01009KT 10SM OVC035 M03/M07 A3013 670 74 -1300 360/09 RMK AO2
14837KMSN MSN20021115081009911/15/02 08:10:31  5-MIN KMSN 151410Z 01010KT 10SM OVC035 M03/M07 A3013 670 74 -1300 010/10 RMK AO2
14837KMSN MSN20021115081509911/15/02 08:15:31  5-MIN KMSN 151415Z 01010KT 10SM OVC035 M03/M07 A3013 670 74 -1300 360/10 RMK AO2
14837KMSN MSN20021115082009911/15/02 08:20:31  5-MIN KMSN 151420Z 36008KT 10SM OVC035 M03/M07 A3014 670 74 -1300 360/08 RMK AO2
14837KMSN MSN20021115082509911/15/02 08:25:31  5-MIN KMSN 151425Z 01009KT 10SM OVC035 M03/M07 A3014 670 74 -1300 010/09 RMK AO2
14837KMSN MSN20021115083009911/15/02 08:30:31  5-MIN KMSN 151430Z 01010KT 10SM OVC035 M03/M07 A3014 660 74 -1300 010/10 RMK AO2
14837KMSN MSN20021115083509911/15/02 08:35:31  5-MIN KMSN 151435Z 01008KT 10SM OVC035 M03/M07 A3014 660 78 -1300 010/08 RMK AO2
14837KMSN MSN20021115084010611/15/02 08:40:31  5-MIN KMSN 151440Z 01008KT 10SM BKN035 OVC042 M03/M07 A3014 660 75 -1300 010/08 RMK AO2
14837KMSN MSN20021115084510611/15/02 08:45:31  5-MIN KMSN 151445Z 01009KT 10SM BKN035 OVC042 M03/M07 A3014 660 75 -1300 010/09 RMK AO2
14837KMSN MSN20021115085013611/15/02 08:50:31  5-MIN KMSN 151450Z 02009KT 10SM FEW027 BKN035 OVC042 M03/M07 A3014 660 75 -1300 010/09 RMK AO2 SLP219 T10281067 53014
14837KMSN MSN20021115085511311/15/02 08:55:31  5-MIN KMSN 151455Z 02009KT 10SM SCT027 BKN035 OVC042 M03/M07 A3015 660 75 -1300 020/09 RMK AO2
14837KMSN MSN20021115090011311/15/02 09:00:31  5-MIN KMSN 151500Z 02009KT 10SM FEW025 BKN035 OVC042 M03/M07 A3014 660 75 -1300 020/09 RMK AO2
14837KMSN MSN20021115090511311/15/02 09:05:31  5-MIN KMSN 151505Z 02011KT 10SM FEW025 SCT035 OVC042 M03/M07 A3014 660 75 -1300 020/11 RMK AO2
14837KMSN MSN20021115091010611/15/02 09:10:31  5-MIN KMSN 151510Z 02009KT 10SM FEW025 OVC042 M03/M07 A3015 660 75 -1300 020/09 RMK AO2
14837KMSN MSN20021115091511311/15/02 09:15:31  5-MIN KMSN 151515Z 01007KT 10SM FEW025 SCT033 OVC042 M03/M07 A3015 650 75 -1300 010/07 RMK AO2
14837KMSN MSN20021115092011311/15/02 09:20:31  5-MIN KMSN 151520Z 02011KT 10SM FEW025 SCT033 OVC042 M03/M07 A3015 650 75 -1300 010/11 RMK AO2
14837KMSN MSN20021115092511311/15/02 09:25:31  5-MIN KMSN 151525Z 02009KT 10SM FEW025 SCT033 OVC042 M02/M07 A3015 650 72 -1200 020/09 RMK AO2
14837KMSN MSN20021115093011311/15/02 09:30:31  5-MIN KMSN 151530Z 02008KT 10SM SCT025 BKN033 OVC042 M02/M07 A3015 650 72 -1200 020/08 RMK AO2
14837KMSN MSN20021115093511311/15/02 09:35:31  5-MIN KMSN 151535Z 02009KT 10SM BKN025 BKN033 OVC042 M02/M07 A3015 650 72 -1200 020/09 RMK AO2
14837KMSN MSN20021115094010611/15/02 09:40:31  5-MIN KMSN 151540Z 36008KT 10SM BKN025 OVC033 M02/M07 A3016 650 72 -1200 360/08 RMK AO2
14837KMSN MSN20021115094510611/15/02 09:45:31  5-MIN KMSN 151545Z 01010KT 10SM BKN027 OVC033 M02/M07 A3016 650 72 -1200 010/10 RMK AO2
14837KMSN MSN20021115095011611/15/02 09:50:31  5-MIN KMSN 151550Z 36009KT 10SM OVC027 M02/M07 A3016 640 72 -1200 360/09 RMK AO2 SLP224 T10221067
14837KMSN MSN20021115095509911/15/02 09:55:31  5-MIN KMSN 151555Z 01009KT 10SM OVC027 M02/M07 A3016 640 72 -1200 010/09 RMK AO2
14837KMSN MSN20021115100009911/15/02 10:00:31  5-MIN KMSN 151600Z 35008KT 10SM OVC027 M02/M07 A3016 640 72 -1200 350/08 RMK AO2
14837KMSN MSN20021115100509911/15/02 10:05:31  5-MIN KMSN 151605Z 36009KT 10SM OVC027 M02/M07 A3016 640 72 -1200 360/09 RMK AO2
14837KMSN MSN20021115101009911/15/02 10:10:31  5-MIN KMSN 151610Z 36009KT 10SM OVC029 M02/M07 A3016 640 69 -1200 360/09 RMK AO2
14837KMSN MSN20021115101509911/15/02 10:15:31  5-MIN KMSN 151615Z 01009KT 10SM OVC029 M02/M06 A3016 640 72 -1200 010/09 RMK AO2
14837KMSN MSN20021115102009911/15/02 10:20:31  5-MIN KMSN 151620Z 35007KT 10SM OVC029 M02/M06 A3017 640 72 -1200 350/07 RMK AO2
14837KMSN MSN20021115102509911/15/02 10:25:31  5-MIN KMSN 151625Z 01011KT 10SM OVC029 M02/M06 A3017 640 72 -1200 010/11 RMK AO2
14837KMSN MSN20021115103009911/15/02 10:30:31  5-MIN KMSN 151630Z 36010KT 10SM OVC029 M02/M06 A3017 630 72 -1200 360/10 RMK AO2
14837KMSN MSN20021115103509911/15/02 10:35:31  5-MIN KMSN 151635Z 01011KT 10SM OVC029 M02/M06 A3017 630 72 -1200 360/11 RMK AO2
14837KMSN MSN20021115104009911/15/02 10:40:31  5-MIN KMSN 151640Z 36008KT 10SM OVC029 M02/M06 A3017 630 72 -1200 360/08 RMK AO2
14837KMSN MSN20021115104509911/15/02 10:45:31  5-MIN KMSN 151645Z 36010KT 10SM OVC029 M02/M06 A3017 630 72 -1200 360/10 RMK AO2
14837KMSN MSN20021115105011611/15/02 10:50:31  5-MIN KMSN 151650Z 01010KT 10SM OVC029 M02/M07 A3017 630 69 -1200 010/10 RMK AO2 SLP226 T10171067
14837KMSN MSN20021115105509911/15/02 10:55:31  5-MIN KMSN 151655Z 01012KT 10SM OVC029 M01/M07 A3017 630 66 -1100 010/12 RMK AO2
14837KMSN MSN20021115110009911/15/02 11:00:31  5-MIN KMSN 151700Z 01010KT 10SM OVC031 M01/M07 A3017 630 66 -1100 010/10 RMK AO2
14837KMSN MSN20021115110509911/15/02 11:05:31  5-MIN KMSN 151705Z 36010KT 10SM OVC031 M01/M06 A3017 630 69 -1100 360/10 RMK AO2
14837KMSN MSN20021115111009911/15/02 11:10:31  5-MIN KMSN 151710Z 36010KT 10SM OVC031 M01/M07 A3017 630 66 -1100 360/10 RMK AO2
14837KMSN MSN20021115111509911/15/02 11:15:31  5-MIN KMSN 151715Z 01010KT 10SM OVC031 M01/M07 A3017 630 66 -1100 010/10 RMK AO2
14837KMSN MSN20021115112009911/15/02 11:20:31  5-MIN KMSN 151720Z 02011KT 10SM OVC031 M01/M07 A3017 640 66 -1100 020/11 RMK AO2
14837KMSN MSN20021115112509911/15/02 11:25:31  5-MIN KMSN 151725Z 02010KT 10SM OVC033 M01/M06 A3017 640 69 -1100 020/10 RMK AO2
14837KMSN MSN20021115113009911/15/02 11:30:31  5-MIN KMSN 151730Z 03011KT 10SM OVC033 M01/M06 A3017 640 69 -1100 030/11 RMK AO2
14837KMSN MSN20021115113509911/15/02 11:35:31  5-MIN KMSN 151735Z 01012KT 10SM OVC033 M01/M07 A3017 640 63 -1000 010/12 RMK AO2
14837KMSN MSN20021115114009911/15/02 11:40:31  5-MIN KMSN 151740Z 01012KT 10SM OVC033 M01/M06 A3017 640 66 -1000 010/12 RMK AO2
14837KMSN MSN20021115114509911/15/02 11:45:31  5-MIN KMSN 151745Z 36009KT 10SM OVC033 M01/M06 A3016 640 66 -1000 360/09 RMK AO2
14837KMSN MSN20021115115013211/15/02 11:50:31  5-MIN KMSN 151750Z 01011KT 10SM OVC035 00/M06 A3016 640 63 -900 010/11 RMK AO2 SLP224 T00001061 10000 21044 52022
14837KMSN MSN20021115115510611/15/02 11:55:31  5-MIN KMSN 151755Z 02011KT 10SM BKN035 OVC047 M01/M06 A3017 640 66 -1000 020/11 RMK AO2
14837KMSN MSN20021115120010611/15/02 12:00:31  5-MIN KMSN 151800Z 02008KT 10SM BKN035 OVC047 M01/M06 A3017 640 66 -1000 020/08 RMK AO2
14837KMSN MSN20021115120510411/15/02 12:05:31  5-MIN KMSN 151805Z 02009KT 10SM BKN035 OVC045 00/M06 A3017 640 63 -900 020/09 RMK AO2
14837KMSN MSN20021115121010411/15/02 12:10:31  5-MIN KMSN 151810Z 01010KT 10SM BKN038 OVC045 00/M06 A3017 640 66 -900 010/10 RMK AO2
14837KMSN MSN20021115121510411/15/02 12:15:31  5-MIN KMSN 151815Z 01009KT 10SM BKN038 OVC045 00/M06 A3017 640 63 -900 010/09 RMK AO2
14837KMSN MSN20021115122010511/15/02 12:20:31  5-MIN KMSN 151820Z 02009KT 10SM SCT038 OVC047 00/M06 A3017 640 63 -1000 020/09 RMK AO2
14837KMSN MSN20021115122510511/15/02 12:25:31  5-MIN KMSN 151825Z 36009KT 10SM SCT036 OVC047 00/M06 A3017 640 63 -1000 360/09 RMK AO2
14837KMSN MSN20021115123010511/15/02 12:30:31  5-MIN KMSN 151830Z 36010KT 10SM BKN036 OVC047 00/M06 A3017 640 63 -1000 360/10 RMK AO2
14837KMSN MSN20021115123510411/15/02 12:35:31  5-MIN KMSN 151835Z 03008KT 10SM SCT036 OVC047 01/M06 A3017 640 61 -900 030/08 RMK AO2
14837KMSN MSN20021115124010411/15/02 12:40:31  5-MIN KMSN 151840Z 04009KT 10SM SCT036 OVC047 01/M06 A3017 640 61 -800 040/09 RMK AO2
14837KMSN MSN20021115124510411/15/02 12:45:31  5-MIN KMSN 151845Z 02010KT 10SM SCT036 BKN049 01/M06 A3017 640 63 -900 020/10 RMK AO2
14837KMSN MSN20021115125012111/15/02 12:50:31  5-MIN KMSN 151850Z 01009KT 10SM SCT036 BKN049 01/M06 A3017 640 61 -900 010/09 RMK AO2 SLP225 T00061061
14837KMSN MSN20021115125510411/15/02 12:55:31  5-MIN KMSN 151855Z 03008KT 10SM BKN036 OVC049 01/M06 A3017 640 61 -900 020/08 RMK AO2
14837KMSN MSN20021115130010411/15/02 13:00:31  5-MIN KMSN 151900Z 02009KT 10SM BKN036 BKN049 01/M06 A3017 640 61 -800 020/09 RMK AO2
14837KMSN MSN20021115130510411/15/02 13:05:31  5-MIN KMSN 151905Z 03009KT 10SM BKN036 BKN049 01/M06 A3017 640 63 -900 030/09 RMK AO2
14837KMSN MSN20021115131010411/15/02 13:10:31  5-MIN KMSN 151910Z 02008KT 10SM BKN036 BKN049 01/M06 A3017 640 61 -800 020/08 RMK AO2
14837KMSN MSN20021115131510411/15/02 13:15:31  5-MIN KMSN 151915Z 01008KT 10SM BKN036 BKN049 01/M06 A3017 640 61 -800 010/08 RMK AO2
14837KMSN MSN20021115132010411/15/02 13:20:31  5-MIN KMSN 151920Z 36011KT 10SM BKN036 OVC049 01/M06 A3017 640 61 -800 360/11 RMK AO2
14837KMSN MSN20021115132510411/15/02 13:25:31  5-MIN KMSN 151925Z 01010KT 10SM SCT036 OVC049 01/M06 A3017 630 61 -900 010/10 RMK AO2
14837KMSN MSN20021115133010411/15/02 13:30:31  5-MIN KMSN 151930Z 01011KT 10SM SCT036 OVC049 01/M06 A3017 630 61 -800 010/11 RMK AO2
14837KMSN MSN20021115133510411/15/02 13:35:31  5-MIN KMSN 151935Z 36008KT 10SM BKN036 OVC049 01/M06 A3017 630 61 -900 360/08 RMK AO2
14837KMSN MSN20021115134010411/15/02 13:40:31  5-MIN KMSN 151940Z 03008KT 10SM BKN036 OVC049 01/M06 A3017 630 61 -800 030/08 RMK AO2
14837KMSN MSN20021115134510411/15/02 13:45:31  5-MIN KMSN 151945Z 03009KT 10SM BKN038 OVC049 01/M06 A3017 630 61 -800 030/09 RMK AO2
14837KMSN MSN20021115135012111/15/02 13:50:31  5-MIN KMSN 151950Z 03010KT 10SM BKN036 OVC049 01/M06 A3017 630 61 -800 030/10 RMK AO2 SLP226 T00111056
14837KMSN MSN20021115135510411/15/02 13:55:31  5-MIN KMSN 151955Z 02009KT 10SM BKN036 OVC049 01/M06 A3017 640 61 -800 020/09 RMK AO2
14837KMSN MSN20021115140010411/15/02 14:00:31  5-MIN KMSN 152000Z 36010KT 10SM BKN036 OVC050 01/M06 A3017 630 61 -800 360/10 RMK AO2
14837KMSN MSN20021115140510411/15/02 14:05:31  5-MIN KMSN 152005Z 02010KT 10SM BKN038 BKN050 01/M06 A3017 630 61 -800 010/10 RMK AO2
14837KMSN MSN20021115141010411/15/02 14:10:31  5-MIN KMSN 152010Z 02011KT 10SM BKN038 BKN050 01/M06 A3017 630 58 -800 020/11 RMK AO2
14837KMSN MSN20021115141510411/15/02 14:15:31  5-MIN KMSN 152015Z 02009KT 10SM BKN038 BKN050 01/M06 A3017 630 61 -800 020/09 RMK AO2
14837KMSN MSN20021115142010411/15/02 14:20:31  5-MIN KMSN 152020Z 04011KT 10SM BKN038 BKN050 01/M06 A3017 630 61 -800 040/11 RMK AO2
14837KMSN MSN20021115142510411/15/02 14:25:31  5-MIN KMSN 152025Z 02010KT 10SM BKN038 BKN050 01/M06 A3017 630 58 -800 020/10 RMK AO2
14837KMSN MSN20021115143010411/15/02 14:30:31  5-MIN KMSN 152030Z 03011KT 10SM BKN038 BKN050 01/M06 A3017 630 61 -800 020/11 RMK AO2
14837KMSN MSN20021115143510411/15/02 14:35:31  5-MIN KMSN 152035Z 01010KT 10SM BKN038 BKN050 01/M06 A3017 630 61 -800 010/10 RMK AO2
14837KMSN MSN20021115144010411/15/02 14:40:31  5-MIN KMSN 152040Z 01009KT 10SM BKN038 BKN050 01/M06 A3017 630 61 -800 010/09 RMK AO2
14837KMSN MSN20021115144510411/15/02 14:45:31  5-MIN KMSN 152045Z 02009KT 10SM BKN038 BKN050 01/M06 A3017 630 61 -800 010/09 RMK AO2
14837KMSN MSN20021115145012711/15/02 14:50:31  5-MIN KMSN 152050Z 04008KT 10SM BKN038 BKN050 01/M06 A3018 630 61 -800 040/08 RMK AO2 SLP228 T00111056 50007
14837KMSN MSN20021115145510411/15/02 14:55:31  5-MIN KMSN 152055Z 03011KT 10SM BKN038 OVC055 01/M06 A3018 630 61 -800 030/11 RMK AO2
14837KMSN MSN20021115150010411/15/02 15:00:31  5-MIN KMSN 152100Z 01012KT 10SM BKN038 OVC055 01/M06 A3017 630 61 -800 010/12 RMK AO2
14837KMSN MSN20021115150510411/15/02 15:05:31  5-MIN KMSN 152105Z 03011KT 10SM BKN030 BKN055 01/M06 A3018 630 58 -800 030/11 RMK AO2
14837KMSN MSN20021115151010411/15/02 15:10:31  5-MIN KMSN 152110Z 02009KT 10SM BKN030 BKN055 01/M06 A3018 630 58 -800 020/09 RMK AO2
14837KMSN MSN20021115151510411/15/02 15:15:31  5-MIN KMSN 152115Z 03008KT 10SM BKN030 BKN055 01/M06 A3018 630 61 -800 030/08 RMK AO2
14837KMSN MSN20021115152010411/15/02 15:20:31  5-MIN KMSN 152120Z 04010KT 10SM BKN030 BKN055 01/M06 A3018 630 58 -800 040/10 RMK AO2
14837KMSN MSN20021115152510411/15/02 15:25:31  5-MIN KMSN 152125Z 03010KT 10SM BKN030 BKN055 01/M06 A3018 630 61 -800 030/10 RMK AO2
14837KMSN MSN20021115153010411/15/02 15:30:31  5-MIN KMSN 152130Z 03009KT 10SM BKN040 BKN055 01/M06 A3018 620 61 -900 030/09 RMK AO2
14837KMSN MSN20021115153510411/15/02 15:35:31  5-MIN KMSN 152135Z 02010KT 10SM BKN040 BKN055 01/M06 A3018 620 61 -900 020/10 RMK AO2
14837KMSN MSN20021115154010411/15/02 15:40:31  5-MIN KMSN 152140Z 01009KT 10SM BKN040 BKN055 01/M06 A3018 620 61 -800 010/09 RMK AO2
14837KMSN MSN20021115154510411/15/02 15:45:31  5-MIN KMSN 152145Z 03010KT 10SM BKN040 BKN055 01/M06 A3019 620 61 -900 030/10 RMK AO2
14837KMSN MSN20021115155012111/15/02 15:50:31  5-MIN KMSN 152150Z 02009KT 10SM BKN040 BKN055 01/M06 A3019 620 61 -900 020/09 RMK AO2 SLP233 T00061061
14837KMSN MSN20021115155510411/15/02 15:55:31  5-MIN KMSN 152155Z 03007KT 10SM BKN043 OVC055 01/M06 A3019 620 63 -900 030/07 RMK AO2
14837KMSN MSN20021115160010411/15/02 16:00:31  5-MIN KMSN 152200Z 01009KT 10SM BKN043 OVC055 01/M06 A3019 610 63 -900 010/09 RMK AO2
14837KMSN MSN20021115160510411/15/02 16:05:31  5-MIN KMSN 152205Z 02008KT 10SM BKN043 OVC055 01/M06 A3020 610 61 -900 020/08 RMK AO2
14837KMSN MSN20021115161010411/15/02 16:10:31  5-MIN KMSN 152210Z 02009KT 10SM BKN041 OVC055 01/M06 A3020 610 61 -900 020/09 RMK AO2
14837KMSN MSN20021115161510411/15/02 16:15:31  5-MIN KMSN 152215Z 03008KT 10SM BKN041 OVC055 01/M06 A3020 610 61 -900 030/08 RMK AO2
14837KMSN MSN20021115162010411/15/02 16:20:31  5-MIN KMSN 152220Z 02007KT 10SM BKN041 OVC050 01/M06 A3020 610 61 -900 020/07 RMK AO2
14837KMSN MSN20021115162510411/15/02 16:25:31  5-MIN KMSN 152225Z 02008KT 10SM BKN041 OVC050 01/M06 A3020 610 61 -900 020/08 RMK AO2
14837KMSN MSN20021115163010411/15/02 16:30:31  5-MIN KMSN 152230Z 03010KT 10SM BKN041 OVC050 01/M06 A3020 610 61 -900 030/10 RMK AO2
14837KMSN MSN20021115163510411/15/02 16:35:31  5-MIN KMSN 152235Z 04010KT 10SM SCT041 OVC050 01/M06 A3020 610 61 -900 030/10 RMK AO2
14837KMSN MSN20021115164010411/15/02 16:40:31  5-MIN KMSN 152240Z 03008KT 10SM SCT041 OVC050 01/M06 A3020 610 61 -900 030/08 RMK AO2
14837KMSN MSN20021115164509711/15/02 16:45:31  5-MIN KMSN 152245Z 03008KT 10SM OVC048 01/M06 A3020 610 61 -900 030/08 RMK AO2
14837KMSN MSN20021115165011411/15/02 16:50:31  5-MIN KMSN 152250Z 03009KT 10SM OVC048 01/M06 A3020 610 61 -900 030/09 RMK AO2 SLP238 T00061061
14837KMSN MSN20021115165509711/15/02 16:55:31  5-MIN KMSN 152255Z 03008KT 10SM OVC048 01/M06 A3020 610 61 -900 030/08 RMK AO2
14837KMSN MSN20021115170009711/15/02 17:00:31  5-MIN KMSN 152300Z 03008KT 10SM OVC048 01/M06 A3020 600 61 -900 030/08 RMK AO2
14837KMSN MSN20021115170509711/15/02 17:05:31  5-MIN KMSN 152305Z 03007KT 10SM OVC048 01/M06 A3020 600 61 -900 020/07 RMK AO2
14837KMSN MSN20021115171009711/15/02 17:10:31  5-MIN KMSN 152310Z 03009KT 10SM OVC048 01/M06 A3021 600 61 -900 030/09 RMK AO2
14837KMSN MSN20021115171509711/15/02 17:15:31  5-MIN KMSN 152315Z 03009KT 10SM OVC048 01/M06 A3021 600 61 -900 020/09 RMK AO2
14837KMSN MSN20021115172009711/15/02 17:20:31  5-MIN KMSN 152320Z 03007KT 10SM OVC048 01/M06 A3021 600 61 -900 020/07 RMK AO2
14837KMSN MSN20021115172509811/15/02 17:25:31  5-MIN KMSN 152325Z 02008KT 10SM OVC048 00/M06 A3021 600 63 -1000 020/08 RMK AO2
14837KMSN MSN20021115173009811/15/02 17:30:31  5-MIN KMSN 152330Z 03008KT 10SM OVC050 00/M06 A3021 600 66 -1000 030/08 RMK AO2
14837KMSN MSN20021115173509811/15/02 17:35:31  5-MIN KMSN 152335Z 02008KT 10SM OVC050 00/M06 A3021 600 66 -1000 020/08 RMK AO2
14837KMSN MSN20021115174009811/15/02 17:40:31  5-MIN KMSN 152340Z 03008KT 10SM OVC050 00/M06 A3021 600 66 -1000 020/08 RMK AO2
14837KMSN MSN20021115174509811/15/02 17:45:31  5-MIN KMSN 152345Z 03009KT 10SM OVC050 00/M06 A3021 600 66 -1000 020/09 RMK AO2
14837KMSN MSN20021115175013311/15/02 17:50:31  5-MIN KMSN 152350Z 02010KT 10SM OVC050 00/M06 A3021 600 66 -1000 020/10 RMK AO2 SLP241 T00001056 10011 21006 53004
14837KMSN MSN20021115175509811/15/02 17:55:31  5-MIN KMSN 152355Z 02008KT 10SM OVC050 00/M06 A3021 600 63 -1000 020/08 RMK AO2
14837KMSN MSN20021115180009811/15/02 18:00:31  5-MIN KMSN 160000Z 02009KT 10SM OVC050 00/M06 A3021 590 66 -1000 020/09 RMK AO2
14837KMSN MSN20021115180509811/15/02 18:05:31  5-MIN KMSN 160005Z 02010KT 10SM OVC050 00/M06 A3021 600 63 -1000 020/10 RMK AO2
14837KMSN MSN20021115181009811/15/02 18:10:31  5-MIN KMSN 160010Z 02009KT 10SM OVC055 00/M06 A3022 590 63 -1000 020/09 RMK AO2
14837KMSN MSN20021115181509811/15/02 18:15:31  5-MIN KMSN 160015Z 02008KT 10SM OVC055 00/M06 A3022 590 63 -1000 010/08 RMK AO2
14837KMSN MSN20021115182009811/15/02 18:20:31  5-MIN KMSN 160020Z 01008KT 10SM OVC055 00/M06 A3022 590 63 -1000 010/08 RMK AO2
14837KMSN MSN20021115182509811/15/02 18:25:31  5-MIN KMSN 160025Z 36006KT 10SM OVC055 00/M06 A3022 590 63 -1000 360/06 RMK AO2
14837KMSN MSN20021115183009711/15/02 18:30:31  5-MIN KMSN 160030Z 36007KT 8SM OVC055 00/M06 A3022 590 63 -1000 360/07 RMK AO2
14837KMSN MSN20021115183510011/15/02 18:35:31  5-MIN KMSN 160035Z 36007KT 6SM HZ OVC055 00/M06 A3022 590 63 -1000 360/07 RMK AO2
14837KMSN MSN20021115184009811/15/02 18:40:31  5-MIN KMSN 160040Z 35006KT 10SM OVC055 00/M06 A3022 590 63 -1000 350/06 RMK AO2
14837KMSN MSN20021115184509811/15/02 18:45:31  5-MIN KMSN 160045Z 36007KT 10SM OVC055 00/M06 A3022 590 63 -1000 360/07 RMK AO2
14837KMSN MSN20021115185011511/15/02 18:50:31  5-MIN KMSN 160050Z 01008KT 10SM OVC055 00/M06 A3022 590 63 -1000 010/08 RMK AO2 SLP245 T00001061
14837KMSN MSN20021115185509811/15/02 18:55:31  5-MIN KMSN 160055Z 01007KT 10SM OVC055 00/M06 A3022 590 63 -1000 010/07 RMK AO2
14837KMSN MSN20021115190009811/15/02 19:00:31  5-MIN KMSN 160100Z 01007KT 10SM OVC055 00/M06 A3022 580 63 -1000 010/07 RMK AO2
14837KMSN MSN20021115190509811/15/02 19:05:31  5-MIN KMSN 160105Z 01006KT 10SM OVC055 00/M06 A3023 580 63 -1000 360/06 RMK AO2
14837KMSN MSN20021115191009911/15/02 19:10:31  5-MIN KMSN 160110Z 01008KT 10SM OVC055 M01/M06 A3022 580 66 -1100 010/08 RMK AO2
14837KMSN MSN20021115191509911/15/02 19:15:31  5-MIN KMSN 160115Z 02007KT 10SM OVC060 M01/M06 A3022 590 66 -1100 020/07 RMK AO2
14837KMSN MSN20021115192009911/15/02 19:20:31  5-MIN KMSN 160120Z 01006KT 10SM OVC060 M01/M06 A3022 580 66 -1100 010/06 RMK AO2
14837KMSN MSN20021115192509911/15/02 19:25:31  5-MIN KMSN 160125Z 01006KT 10SM OVC060 M01/M06 A3023 580 66 -1100 010/06 RMK AO2
14837KMSN MSN20021115193009911/15/02 19:30:31  5-MIN KMSN 160130Z 02008KT 10SM OVC060 M01/M06 A3023 580 66 -1100 020/08 RMK AO2
14837KMSN MSN20021115193509911/15/02 19:35:31  5-MIN KMSN 160135Z 02007KT 10SM OVC060 M01/M06 A3023 580 66 -1100 020/07 RMK AO2
14837KMSN MSN20021115194009911/15/02 19:40:31  5-MIN KMSN 160140Z 02006KT 10SM OVC060 M01/M06 A3023 580 66 -1100 020/06 RMK AO2
14837KMSN MSN20021115194509911/15/02 19:45:31  5-MIN KMSN 160145Z 03008KT 10SM OVC060 M01/M06 A3023 580 66 -1100 030/08 RMK AO2
14837KMSN MSN20021115195011611/15/02 19:50:31  5-MIN KMSN 160150Z 03008KT 10SM OVC060 M01/M06 A3023 580 66 -1100 030/08 RMK AO2 SLP248 T10061061
14837KMSN MSN20021115195509911/15/02 19:55:31  5-MIN KMSN 160155Z 04007KT 10SM OVC060 M01/M06 A3023 580 69 -1200 040/07 RMK AO2
14837KMSN MSN20021115200009911/15/02 20:00:31  5-MIN KMSN 160200Z 04008KT 10SM OVC060 M01/M06 A3023 580 69 -1200 040/08 RMK AO2
14837KMSN MSN20021115200509911/15/02 20:05:31  5-MIN KMSN 160205Z 04006KT 10SM OVC060 M01/M06 A3023 580 72 -1200 040/06 RMK AO2
14837KMSN MSN20021115201009911/15/02 20:10:31  5-MIN KMSN 160210Z 04006KT 10SM OVC060 M01/M06 A3023 580 72 -1200 040/06 RMK AO2
14837KMSN MSN20021115201509911/15/02 20:15:31  5-MIN KMSN 160215Z 04006KT 10SM OVC060 M01/M06 A3024 570 72 -1200 040/06 RMK AO2
14837KMSN MSN20021115202009911/15/02 20:20:31  5-MIN KMSN 160220Z 04006KT 10SM OVC060 M01/M06 A3024 570 72 -1200 040/06 RMK AO2
14837KMSN MSN20021115202509911/15/02 20:25:31  5-MIN KMSN 160225Z 04005KT 10SM OVC060 M01/M06 A3024 570 72 -1200 040/05 RMK AO2
14837KMSN MSN20021115203009911/15/02 20:30:31  5-MIN KMSN 160230Z 04003KT 10SM OVC060 M02/M06 A3024 570 75 -1200 040/03 RMK AO2
14837KMSN MSN20021115203509911/15/02 20:35:31  5-MIN KMSN 160235Z 01004KT 10SM OVC060 M02/M06 A3024 570 75 -1200 010/04 RMK AO2
14837KMSN MSN20021115204009911/15/02 20:40:31  5-MIN KMSN 160240Z 03005KT 10SM OVC060 M02/M06 A3024 570 75 -1200 030/05 RMK AO2
14837KMSN MSN20021115204509911/15/02 20:45:31  5-MIN KMSN 160245Z 03005KT 10SM OVC060 M02/M06 A3024 570 75 -1200 030/05 RMK AO2
14837KMSN MSN20021115205012211/15/02 20:50:31  5-MIN KMSN 160250Z 04005KT 10SM OVC060 M02/M05 A3024 570 78 -1200 040/05 RMK AO2 SLP252 T10171050 51012
14837KMSN MSN20021115205509911/15/02 20:55:31  5-MIN KMSN 160255Z 04004KT 10SM OVC060 M02/M05 A3024 570 81 -1300 040/04 RMK AO2
14837KMSN MSN20021115210009911/15/02 21:00:31  5-MIN KMSN 160300Z 04004KT 10SM OVC060 M02/M05 A3025 560 78 -1300 040/04 RMK AO2
14837KMSN MSN20021115210509911/15/02 21:05:31  5-MIN KMSN 160305Z 04005KT 10SM OVC060 M02/M05 A3024 570 78 -1300 040/05 RMK AO2
14837KMSN MSN20021115211009911/15/02 21:10:31  5-MIN KMSN 160310Z 04004KT 10SM OVC060 M02/M05 A3024 570 78 -1300 040/04 RMK AO2
14837KMSN MSN20021115211509911/15/02 21:15:31  5-MIN KMSN 160315Z 05005KT 10SM OVC060 M01/M05 A3025 560 75 -1200 050/05 RMK AO2
14837KMSN MSN20021115212009911/15/02 21:20:31  5-MIN KMSN 160320Z 06005KT 10SM OVC060 M01/M05 A3024 570 75 -1200 060/05 RMK AO2
14837KMSN MSN20021115212509911/15/02 21:25:31  5-MIN KMSN 160325Z 06006KT 10SM OVC060 M02/M05 A3025 560 78 -1300 060/06 RMK AO2
14837KMSN MSN20021115213009911/15/02 21:30:31  5-MIN KMSN 160330Z 06005KT 10SM OVC060 M01/M05 A3025 560 75 -1200 060/05 RMK AO2
14837KMSN MSN20021115213509911/15/02 21:35:31  5-MIN KMSN 160335Z 06005KT 10SM OVC065 M01/M04 A3025 560 78 -1200 060/05 RMK AO2
14837KMSN MSN20021115214009911/15/02 21:40:31  5-MIN KMSN 160340Z 05004KT 10SM OVC065 M02/M04 A3025 560 81 -1300 050/04 RMK AO2
14837KMSN MSN20021115214509911/15/02 21:45:31  5-MIN KMSN 160345Z 05005KT 10SM OVC065 M01/M04 A3025 560 78 -1200 050/05 RMK AO2
14837KMSN MSN20021115215011611/15/02 21:50:31  5-MIN KMSN 160350Z 05005KT 10SM BKN065 M02/M04 A3025 560 81 -1300 050/05 RMK AO2 SLP253 T10171044
14837KMSN MSN20021115215509911/15/02 21:55:31  5-MIN KMSN 160355Z 04004KT 10SM OVC065 M02/M04 A3025 560 81 -1300 040/04 RMK AO2
14837KMSN MSN20021115220009911/15/02 22:00:31  5-MIN KMSN 160400Z 04005KT 10SM OVC065 M02/M04 A3025 560 81 -1300 040/05 RMK AO2
14837KMSN MSN20021115220509911/15/02 22:05:31  5-MIN KMSN 160405Z 04005KT 10SM OVC065 M01/M04 A3025 560 78 -1200 040/05 RMK AO2
14837KMSN MSN20021115221009911/15/02 22:10:31  5-MIN KMSN 160410Z 04003KT 10SM OVC065 M02/M04 A3025 560 81 -1300 040/03 RMK AO2
14837KMSN MSN20021115221509911/15/02 22:15:31  5-MIN KMSN 160415Z 04005KT 10SM OVC065 M02/M04 A3025 560 81 -1300 040/05 RMK AO2
14837KMSN MSN20021115222009911/15/02 22:20:31  5-MIN KMSN 160420Z 03005KT 10SM OVC065 M02/M04 A3025 560 81 -1300 030/05 RMK AO2
14837KMSN MSN20021115222509911/15/02 22:25:31  5-MIN KMSN 160425Z 03005KT 10SM OVC065 M02/M04 A3025 560 81 -1300 030/05 RMK AO2
14837KMSN MSN20021115223009911/15/02 22:30:31  5-MIN KMSN 160430Z 03006KT 10SM OVC060 M02/M04 A3025 560 81 -1300 030/06 RMK AO2
14837KMSN MSN20021115223509911/15/02 22:35:31  5-MIN KMSN 160435Z 02006KT 10SM OVC060 M01/M04 A3025 560 81 -1200 020/06 RMK AO2
14837KMSN MSN20021115224009911/15/02 22:40:31  5-MIN KMSN 160440Z 04006KT 10SM OVC060 M02/M04 A3025 560 85 -1300 040/06 RMK AO2
14837KMSN MSN20021115224509911/15/02 22:45:31  5-MIN KMSN 160445Z 05006KT 10SM OVC060 M02/M04 A3025 560 85 -1300 050/06 RMK AO2
14837KMSN MSN20021115225011611/15/02 22:50:31  5-MIN KMSN 160450Z 04007KT 10SM OVC060 M02/M04 A3025 560 85 -1300 040/07 RMK AO2 SLP255 T10171039
14837KMSN MSN20021115225509911/15/02 22:55:31  5-MIN KMSN 160455Z 03006KT 10SM OVC065 M02/M04 A3025 560 85 -1300 030/06 RMK AO2
14837KMSN MSN20021115230009911/15/02 23:00:31  5-MIN KMSN 160500Z 03006KT 10SM OVC065 M02/M04 A3026 560 85 -1300 020/06 RMK AO2
14837KMSN MSN20021115230510611/15/02 23:05:31  5-MIN KMSN 160505Z 02006KT 10SM FEW016 OVC065 M01/M04 A3026 560 81 -1200 020/06 RMK AO2
14837KMSN MSN20021115231010611/15/02 23:10:31  5-MIN KMSN 160510Z 04006KT 10SM FEW016 OVC065 M01/M04 A3026 550 81 -1200 030/06 RMK AO2
14837KMSN MSN20021115231509911/15/02 23:15:31  5-MIN KMSN 160515Z 04006KT 10SM OVC065 M02/M04 A3026 550 85 -1300 040/06 RMK AO2
14837KMSN MSN20021115232009911/15/02 23:20:31  5-MIN KMSN 160520Z 04007KT 10SM OVC065 M02/M04 A3026 550 85 -1300 040/07 RMK AO2
14837KMSN MSN20021115232509911/15/02 23:25:31  5-MIN KMSN 160525Z 04006KT 10SM OVC065 M02/M04 A3026 550 85 -1300 030/06 RMK AO2
14837KMSN MSN20021115233009911/15/02 23:30:31  5-MIN KMSN 160530Z 03005KT 10SM OVC065 M02/M04 A3026 550 85 -1300 030/05 RMK AO2
14837KMSN MSN20021115233509911/15/02 23:35:31  5-MIN KMSN 160535Z 03006KT 10SM OVC065 M02/M04 A3026 550 85 -1300 030/06 RMK AO2
14837KMSN MSN20021115234009911/15/02 23:40:31  5-MIN KMSN 160540Z 03006KT 10SM OVC065 M02/M04 A3026 550 85 -1300 020/06 RMK AO2
14837KMSN MSN20021115234509911/15/02 23:45:31  5-MIN KMSN 160545Z 03008KT 10SM OVC065 M02/M04 A3026 550 85 -1300 030/08 RMK AO2
14837KMSN MSN20021115235015111/15/02 23:50:31  5-MIN KMSN 160550Z 03007KT 10SM FEW020 BKN065 M02/M04 A3026 550 85 -1300 030/07 RMK AO2 SLP258 T10171039 10000 21022 400111044 53010
14837KMSN MSN20021115235509911/15/02 23:55:31  5-MIN KMSN 160555Z 03005KT 10SM OVC065 M02/M04 A3026 550 81 -1300 030/05 RMK AO2
14837KMSN MSN20021116000009911/16/02 00:00:31  5-MIN KMSN 160600Z 01004KT 10SM BKN065 M02/M04 A3026 550 85 -1300 010/04 RMK AO2
14837KMSN MSN20021116000509911/16/02 00:05:31  5-MIN KMSN 160605Z 01005KT 10SM BKN065 M02/M04 A3026 550 85 -1300 010/05 RMK AO2
14837KMSN MSN20021116001009911/16/02 00:10:31  5-MIN KMSN 160610Z 01005KT 10SM BKN065 M02/M04 A3026 550 85 -1300 010/05 RMK AO2
14837KMSN MSN20021116001509911/16/02 00:15:31  5-MIN KMSN 160615Z 36005KT 10SM BKN065 M02/M04 A3026 550 85 -1300 360/05 RMK AO2
14837KMSN MSN20021116002009911/16/02 00:20:31  5-MIN KMSN 160620Z 36005KT 10SM BKN065 M02/M04 A3026 550 85 -1300 360/05 RMK AO2
14837KMSN MSN20021116002509911/16/02 00:25:31  5-MIN KMSN 160625Z 36005KT 10SM BKN065 M02/M04 A3026 550 85 -1300 360/05 RMK AO2
14837KMSN MSN20021116003009911/16/02 00:30:31  5-MIN KMSN 160630Z 36005KT 10SM BKN065 M02/M04 A3026 550 85 -1300 360/05 RMK AO2
14837KMSN MSN20021116003509911/16/02 00:35:31  5-MIN KMSN 160635Z 36006KT 10SM BKN060 M02/M04 A3026 560 85 -1300 360/06 RMK AO2
14837KMSN MSN20021116004009911/16/02 00:40:31  5-MIN KMSN 160640Z 01006KT 10SM BKN060 M02/M04 A3025 560 85 -1300 010/06 RMK AO2
14837KMSN MSN20021116004509911/16/02 00:45:31  5-MIN KMSN 160645Z 36006KT 10SM OVC060 M02/M04 A3025 560 85 -1300 360/06 RMK AO2
14837KMSN MSN20021116005011611/16/02 00:50:31  5-MIN KMSN 160650Z 36005KT 10SM OVC060 M02/M04 A3025 560 85 -1300 360/05 RMK AO2 SLP255 T10221044
14837KMSN MSN20021116005509911/16/02 00:55:31  5-MIN KMSN 160655Z 36005KT 10SM OVC060 M02/M04 A3025 560 85 -1300 350/05 RMK AO2
14837KMSN MSN20021116010009911/16/02 01:00:31  5-MIN KMSN 160700Z 36005KT 10SM OVC060 M02/M04 A3025 560 85 -1300 360/05 RMK AO2
14837KMSN MSN20021116010509911/16/02 01:05:31  5-MIN KMSN 160705Z 36005KT 10SM OVC060 M02/M04 A3025 560 85 -1300 360/05 RMK AO2
14837KMSN MSN20021116011009911/16/02 01:10:31  5-MIN KMSN 160710Z 36005KT 10SM OVC060 M02/M04 A3025 560 85 -1300 360/05 RMK AO2
14837KMSN MSN20021116011509911/16/02 01:15:31  5-MIN KMSN 160715Z 36005KT 10SM OVC060 M02/M04 A3025 560 85 -1300 360/05 RMK AO2
14837KMSN MSN20021116012009911/16/02 01:20:31  5-MIN KMSN 160720Z 35005KT 10SM OVC060 M02/M05 A3025 560 81 -1300 350/05 RMK AO2
14837KMSN MSN20021116012509911/16/02 01:25:31  5-MIN KMSN 160725Z 35005KT 10SM OVC060 M02/M05 A3025 560 81 -1300 350/05 RMK AO2
14837KMSN MSN20021116013009911/16/02 01:30:31  5-MIN KMSN 160730Z 35005KT 10SM OVC065 M02/M05 A3025 560 81 -1300 350/05 RMK AO2
14837KMSN MSN20021116013509911/16/02 01:35:31  5-MIN KMSN 160735Z 35004KT 10SM OVC065 M02/M05 A3025 560 81 -1300 350/04 RMK AO2
14837KMSN MSN20021116014009911/16/02 01:40:31  5-MIN KMSN 160740Z 35004KT 10SM OVC065 M02/M05 A3025 560 81 -1300 350/04 RMK AO2
14837KMSN MSN20021116014509911/16/02 01:45:31  5-MIN KMSN 160745Z 35005KT 10SM OVC065 M02/M05 A3025 560 81 -1300 350/05 RMK AO2
14837KMSN MSN20021116015011611/16/02 01:50:31  5-MIN KMSN 160750Z 35004KT 10SM OVC065 M02/M05 A3025 560 81 -1300 350/04 RMK AO2 SLP256 T10221050
14837KMSN MSN20021116015509911/16/02 01:55:31  5-MIN KMSN 160755Z 34004KT 10SM OVC065 M02/M05 A3025 560 81 -1300 340/04 RMK AO2
14837KMSN MSN20021116020009911/16/02 02:00:31  5-MIN KMSN 160800Z 35004KT 10SM OVC065 M02/M05 A3025 560 81 -1300 350/04 RMK AO2
14837KMSN MSN20021116020509911/16/02 02:05:31  5-MIN KMSN 160805Z 35004KT 10SM OVC065 M02/M06 A3025 560 78 -1300 350/04 RMK AO2
14837KMSN MSN20021116021009911/16/02 02:10:31  5-MIN KMSN 160810Z 36005KT 10SM OVC065 M02/M06 A3026 560 78 -1300 360/05 RMK AO2
14837KMSN MSN20021116021509911/16/02 02:15:31  5-MIN KMSN 160815Z 36005KT 10SM OVC065 M02/M06 A3026 550 78 -1300 350/05 RMK AO2
14837KMSN MSN20021116022009911/16/02 02:20:31  5-MIN KMSN 160820Z 35005KT 10SM OVC065 M02/M06 A3026 560 78 -1300 350/05 RMK AO2
14837KMSN MSN20021116022509911/16/02 02:25:31  5-MIN KMSN 160825Z 35005KT 10SM OVC065 M02/M06 A3025 560 78 -1300 350/05 RMK AO2
14837KMSN MSN20021116023009911/16/02 02:30:31  5-MIN KMSN 160830Z 36005KT 10SM OVC065 M03/M06 A3025 560 81 -1400 360/05 RMK AO2
14837KMSN MSN20021116023509911/16/02 02:35:31  5-MIN KMSN 160835Z 35005KT 10SM OVC065 M02/M06 A3025 560 78 -1300 350/05 RMK AO2
14837KMSN MSN20021116024009911/16/02 02:40:31  5-MIN KMSN 160840Z 35005KT 10SM BKN065 M03/M06 A3025 560 81 -1400 350/05 RMK AO2
14837KMSN MSN20021116024509911/16/02 02:45:31  5-MIN KMSN 160845Z 35004KT 10SM BKN065 M03/M06 A3025 560 81 -1400 350/04 RMK AO2
14837KMSN MSN20021116025012211/16/02 02:50:31  5-MIN KMSN 160850Z 34003KT 10SM BKN065 M03/M06 A3025 560 81 -1400 340/03 RMK AO2 SLP256 T10281056 53006
14837KMSN MSN20021116025509911/16/02 02:55:31  5-MIN KMSN 160855Z 34004KT 10SM OVC070 M03/M06 A3025 560 81 -1400 340/04 RMK AO2
14837KMSN MSN20021116030009911/16/02 03:00:31  5-MIN KMSN 160900Z 35004KT 10SM OVC070 M03/M06 A3025 560 81 -1400 350/04 RMK AO2
14837KMSN MSN20021116030509911/16/02 03:05:31  5-MIN KMSN 160905Z 35004KT 10SM OVC070 M03/M06 A3025 560 81 -1400 350/04 RMK AO2
14837KMSN MSN20021116031009911/16/02 03:10:31  5-MIN KMSN 160910Z 36004KT 10SM OVC070 M03/M06 A3025 560 81 -1400 360/04 RMK AO2
14837KMSN MSN20021116031509911/16/02 03:15:31  5-MIN KMSN 160915Z 35004KT 10SM OVC070 M03/M06 A3025 560 81 -1400 350/04 RMK AO2
14837KMSN MSN20021116032009911/16/02 03:20:31  5-MIN KMSN 160920Z 35004KT 10SM OVC070 M03/M06 A3026 560 81 -1400 340/04 RMK AO2
14837KMSN MSN20021116032509911/16/02 03:25:31  5-MIN KMSN 160925Z 35004KT 10SM OVC070 M03/M06 A3026 560 81 -1400 350/04 RMK AO2
14837KMSN MSN20021116033009911/16/02 03:30:31  5-MIN KMSN 160930Z 35004KT 10SM OVC070 M03/M06 A3025 560 81 -1400 350/04 RMK AO2
14837KMSN MSN20021116033509911/16/02 03:35:31  5-MIN KMSN 160935Z 34003KT 10SM OVC070 M03/M06 A3025 560 81 -1400 340/03 RMK AO2
14837KMSN MSN20021116034009911/16/02 03:40:31  5-MIN KMSN 160940Z 34004KT 10SM OVC070 M03/M06 A3025 560 81 -1400 340/04 RMK AO2
14837KMSN MSN20021116034509911/16/02 03:45:31  5-MIN KMSN 160945Z 35003KT 10SM OVC070 M03/M06 A3025 560 81 -1400 340/03 RMK AO2
14837KMSN MSN20021116035011611/16/02 03:50:31  5-MIN KMSN 160950Z VRB03KT 10SM BKN070 M03/M06 A3025 560 81 -1400 VRB/03 RMK AO2 SLP256 T10281056
14837KMSN MSN20021116035509911/16/02 03:55:31  5-MIN KMSN 160955Z 34004KT 10SM BKN065 M03/M06 A3025 560 81 -1400 340/04 RMK AO2
14837KMSN MSN20021116040009911/16/02 04:00:31  5-MIN KMSN 161000Z 34005KT 10SM BKN065 M03/M06 A3025 560 81 -1400 340/05 RMK AO2
14837KMSN MSN20021116040509911/16/02 04:05:31  5-MIN KMSN 161005Z 34004KT 10SM BKN065 M03/M06 A3025 560 81 -1400 340/04 RMK AO2
14837KMSN MSN20021116041009911/16/02 04:10:31  5-MIN KMSN 161010Z 34004KT 10SM OVC070 M03/M06 A3025 560 81 -1400 340/04 RMK AO2
14837KMSN MSN20021116041509911/16/02 04:15:31  5-MIN KMSN 161015Z 33003KT 10SM OVC070 M03/M06 A3026 560 81 -1400 330/03 RMK AO2
14837KMSN MSN20021116042009911/16/02 04:20:31  5-MIN KMSN 161020Z 34003KT 10SM OVC070 M03/M06 A3026 560 85 -1500 330/03 RMK AO2
14837KMSN MSN20021116042509911/16/02 04:25:31  5-MIN KMSN 161025Z 33004KT 10SM OVC070 M03/M06 A3026 560 85 -1500 330/04 RMK AO2
14837KMSN MSN20021116043009911/16/02 04:30:31  5-MIN KMSN 161030Z 34003KT 10SM OVC070 M03/M06 A3026 560 85 -1500 330/03 RMK AO2
14837KMSN MSN20021116043509911/16/02 04:35:31  5-MIN KMSN 161035Z 00000KT 10SM OVC070 M03/M06 A3026 560 85 -1500 000/00 RMK AO2
14837KMSN MSN20021116044009911/16/02 04:40:31  5-MIN KMSN 161040Z 34004KT 10SM BKN070 M03/M06 A3026 550 85 -1500 340/04 RMK AO2
14837KMSN MSN20021116044509911/16/02 04:45:31  5-MIN KMSN 161045Z 35004KT 10SM BKN070 M03/M06 A3025 560 85 -1500 350/04 RMK AO2
14837KMSN MSN20021116045011611/16/02 04:50:31  5-MIN KMSN 161050Z 35004KT 10SM BKN070 M03/M06 A3025 560 85 -1500 350/04 RMK AO2 SLP256 T10331056
14837KMSN MSN20021116045509911/16/02 04:55:31  5-MIN KMSN 161055Z 36005KT 10SM BKN070 M03/M06 A3025 560 85 -1500 360/05 RMK AO2
14837KMSN MSN20021116050009911/16/02 05:00:31  5-MIN KMSN 161100Z 01006KT 10SM BKN070 M03/M06 A3025 560 85 -1500 010/06 RMK AO2
14837KMSN MSN20021116050509911/16/02 05:05:31  5-MIN KMSN 161105Z 01006KT 10SM BKN070 M04/M06 A3025 560 88 -1500 010/06 RMK AO2
14837KMSN MSN20021116051009911/16/02 05:10:31  5-MIN KMSN 161110Z 01006KT 10SM BKN070 M04/M06 A3025 560 88 -1500 010/06 RMK AO2
14837KMSN MSN20021116051509911/16/02 05:15:31  5-MIN KMSN 161115Z 02005KT 10SM BKN070 M04/M06 A3026 560 88 -1500 020/05 RMK AO2
14837KMSN MSN20021116052009911/16/02 05:20:31  5-MIN KMSN 161120Z 02004KT 10SM BKN070 M04/M06 A3026 560 88 -1500 020/04 RMK AO2
14837KMSN MSN20021116052509911/16/02 05:25:31  5-MIN KMSN 161125Z 02004KT 10SM BKN070 M04/M06 A3026 550 88 -1500 020/04 RMK AO2
14837KMSN MSN20021116053009911/16/02 05:30:31  5-MIN KMSN 161130Z 02004KT 10SM BKN070 M04/M06 A3026 550 88 -1500 020/04 RMK AO2
14837KMSN MSN20021116053509911/16/02 05:35:31  5-MIN KMSN 161135Z 01005KT 10SM BKN070 M04/M06 A3026 550 88 -1500 010/05 RMK AO2
14837KMSN MSN20021116054009911/16/02 05:40:31  5-MIN KMSN 161140Z 02005KT 10SM BKN065 M04/M06 A3026 550 85 -1500 010/05 RMK AO2
14837KMSN MSN20021116054509911/16/02 05:45:31  5-MIN KMSN 161145Z 02005KT 10SM BKN065 M04/M06 A3026 560 85 -1500 020/05 RMK AO2
14837KMSN MSN20021116055013411/16/02 05:50:31  5-MIN KMSN 161150Z 02005KT 10SM BKN065 M04/M06 A3026 560 85 -1500 010/05 RMK AO2 SLP257 T10391061 11017 21039 56002
14837KMSN MSN20021116055509911/16/02 05:55:31  5-MIN KMSN 161155Z 02006KT 10SM OVC070 M04/M06 A3025 560 85 -1500 020/06 RMK AO2
14837KMSN MSN20021116060009911/16/02 06:00:31  5-MIN KMSN 161200Z 03006KT 10SM BKN070 M04/M06 A3025 560 85 -1500 030/06 RMK AO2
14837KMSN MSN20021116060509911/16/02 06:05:31  5-MIN KMSN 161205Z 03006KT 10SM BKN070 M04/M06 A3025 560 85 -1500 020/06 RMK AO2
14837KMSN MSN20021116061009911/16/02 06:10:31  5-MIN KMSN 161210Z 02006KT 10SM BKN070 M03/M06 A3026 560 81 -1500 020/06 RMK AO2
14837KMSN MSN20021116061509911/16/02 06:15:31  5-MIN KMSN 161215Z 02006KT 10SM BKN070 M04/M06 A3026 550 85 -1500 020/06 RMK AO2
14837KMSN MSN20021116062009911/16/02 06:20:31  5-MIN KMSN 161220Z 02005KT 10SM BKN070 M04/M06 A3026 550 85 -1500 010/05 RMK AO2
14837KMSN MSN20021116062509911/16/02 06:25:31  5-MIN KMSN 161225Z 01005KT 10SM BKN070 M04/M06 A3026 550 85 -1600 010/05 RMK AO2
14837KMSN MSN20021116063009911/16/02 06:30:31  5-MIN KMSN 161230Z 01005KT 10SM BKN070 M04/M06 A3026 550 85 -1600 010/05 RMK AO2
14837KMSN MSN20021116063509911/16/02 06:35:31  5-MIN KMSN 161235Z 01005KT 10SM BKN070 M04/M06 A3026 550 85 -1600 010/05 RMK AO2
14837KMSN MSN20021116064009911/16/02 06:40:31  5-MIN KMSN 161240Z 01005KT 10SM BKN070 M04/M06 A3026 550 85 -1600 010/05 RMK AO2
14837KMSN MSN20021116064509911/16/02 06:45:31  5-MIN KMSN 161245Z 02005KT 10SM BKN070 M04/M06 A3026 550 85 -1600 020/05 RMK AO2
14837KMSN MSN20021116065011611/16/02 06:50:31  5-MIN KMSN 161250Z 02005KT 10SM BKN070 M04/M06 A3026 550 85 -1600 020/05 RMK AO2 SLP258 T10391061
14837KMSN MSN20021116065509911/16/02 06:55:31  5-MIN KMSN 161255Z 01005KT 10SM BKN065 M04/M06 A3026 550 85 -1600 010/05 RMK AO2
14837KMSN MSN20021116070009911/16/02 07:00:31  5-MIN KMSN 161300Z 01005KT 10SM BKN065 M04/M06 A3026 550 85 -1600 010/05 RMK AO2
14837KMSN MSN20021116070509911/16/02 07:05:31  5-MIN KMSN 161305Z 36005KT 10SM BKN065 M04/M06 A3026 550 85 -1600 360/05 RMK AO2
14837KMSN MSN20021116071009911/16/02 07:10:31  5-MIN KMSN 161310Z 36005KT 10SM BKN065 M03/M06 A3026 550 81 -1500 360/05 RMK AO2
14837KMSN MSN20021116071509911/16/02 07:15:31  5-MIN KMSN 161315Z 36006KT 10SM BKN065 M03/M06 A3026 550 81 -1500 360/06 RMK AO2
14837KMSN MSN20021116072009911/16/02 07:20:31  5-MIN KMSN 161320Z 36005KT 10SM BKN065 M03/M06 A3026 550 81 -1500 360/05 RMK AO2
14837KMSN MSN20021116072509911/16/02 07:25:31  5-MIN KMSN 161325Z 36005KT 10SM BKN065 M03/M06 A3026 550 81 -1500 360/05 RMK AO2
14837KMSN MSN20021116073009911/16/02 07:30:31  5-MIN KMSN 161330Z 36006KT 10SM BKN065 M03/M06 A3026 550 81 -1500 360/06 RMK AO2
14837KMSN MSN20021116073509911/16/02 07:35:31  5-MIN KMSN 161335Z 01006KT 10SM BKN065 M03/M06 A3026 550 78 -1400 010/06 RMK AO2
14837KMSN MSN20021116074009911/16/02 07:40:31  5-MIN KMSN 161340Z 01007KT 10SM SCT065 M03/M06 A3027 550 78 -1400 010/07 RMK AO2
14837KMSN MSN20021116074509911/16/02 07:45:31  5-MIN KMSN 161345Z 01007KT 10SM SCT065 M03/M06 A3027 550 78 -1400 010/07 RMK AO2
14837KMSN MSN20021116075011611/16/02 07:50:31  5-MIN KMSN 161350Z 01008KT 10SM SCT070 M02/M06 A3027 550 75 -1300 010/08 RMK AO2 SLP260 T10221061
14837KMSN MSN20021116075509911/16/02 07:55:31  5-MIN KMSN 161355Z 01007KT 10SM OVC065 M02/M06 A3027 550 75 -1300 010/07 RMK AO2
14837KMSN MSN20021116080009911/16/02 08:00:31  5-MIN KMSN 161400Z 02008KT 10SM OVC065 M02/M06 A3027 540 75 -1300 020/08 RMK AO2
14837KMSN MSN20021116080509911/16/02 08:05:31  5-MIN KMSN 161405Z 02006KT 10SM SCT065 M02/M06 A3027 540 75 -1300 020/06 RMK AO2
14837KMSN MSN20021116081009911/16/02 08:10:31  5-MIN KMSN 161410Z 04007KT 10SM SCT065 M02/M06 A3027 550 72 -1300 040/07 RMK AO2
14837KMSN MSN20021116081509911/16/02 08:15:31  5-MIN KMSN 161415Z 04007KT 10SM SCT065 M02/M07 A3027 550 69 -1300 040/07 RMK AO2
14837KMSN MSN20021116082009911/16/02 08:20:31  5-MIN KMSN 161420Z 03007KT 10SM SCT065 M02/M06 A3027 540 72 -1300 030/07 RMK AO2
14837KMSN MSN20021116082509911/16/02 08:25:31  5-MIN KMSN 161425Z 04008KT 10SM SCT065 M02/M06 A3027 540 72 -1300 040/08 RMK AO2
14837KMSN MSN20021116083009911/16/02 08:30:31  5-MIN KMSN 161430Z 05008KT 10SM SCT065 M02/M07 A3027 540 69 -1300 050/08 RMK AO2
14837KMSN MSN20021116083509911/16/02 08:35:31  5-MIN KMSN 161435Z 07008KT 10SM SCT065 M02/M07 A3027 540 69 -1300 060/08 RMK AO2
14837KMSN MSN20021116084009911/16/02 08:40:31  5-MIN KMSN 161440Z 06009KT 10SM SCT065 M02/M07 A3027 540 69 -1300 060/09 RMK AO2
14837KMSN MSN20021116084509911/16/02 08:45:31  5-MIN KMSN 161445Z 04007KT 10SM SCT065 M02/M07 A3027 540 69 -1300 040/07 RMK AO2
14837KMSN MSN20021116085012211/16/02 08:50:31  5-MIN KMSN 161450Z 05008KT 10SM SCT065 M01/M06 A3027 540 69 -1200 050/08 RMK AO2 SLP261 T10111061 54000
14837KMSN MSN20021116085509911/16/02 08:55:31  5-MIN KMSN 161455Z 05008KT 10SM OVC065 M01/M07 A3027 540 66 -1200 050/08 RMK AO2
14837KMSN MSN20021116090009911/16/02 09:00:31  5-MIN KMSN 161500Z 06008KT 10SM SCT065 M01/M06 A3027 540 69 -1200 060/08 RMK AO2
14837KMSN MSN20021116090509911/16/02 09:05:31  5-MIN KMSN 161505Z 05007KT 10SM SCT065 M01/M07 A3027 540 66 -1200 050/07 RMK AO2
14837KMSN MSN20021116091009911/16/02 09:10:31  5-MIN KMSN 161510Z 06010KT 10SM SCT065 M01/M07 A3027 540 63 -1100 060/10 RMK AO2
14837KMSN MSN20021116091509911/16/02 09:15:31  5-MIN KMSN 161515Z 05007KT 10SM SCT065 M01/M07 A3027 540 63 -1100 050/07 RMK AO2
14837KMSN MSN20021116092009911/16/02 09:20:31  5-MIN KMSN 161520Z 08009KT 10SM SCT065 M01/M07 A3027 540 61 -1100 080/09 RMK AO2
14837KMSN MSN20021116092509911/16/02 09:25:31  5-MIN KMSN 161525Z 05008KT 10SM SCT065 M01/M07 A3027 550 61 -1100 050/08 RMK AO2
14837KMSN MSN20021116093009911/16/02 09:30:31  5-MIN KMSN 161530Z 07007KT 10SM SCT065 M01/M07 A3027 550 61 -1100 070/07 RMK AO2
14837KMSN MSN20021116093509911/16/02 09:35:31  5-MIN KMSN 161535Z 06009KT 10SM SCT065 M01/M07 A3027 550 61 -1100 050/09 RMK AO2
14837KMSN MSN20021116094009911/16/02 09:40:31  5-MIN KMSN 161540Z 07008KT 10SM SCT065 M01/M07 A3027 550 61 -1100 060/08 RMK AO2
14837KMSN MSN20021116094509811/16/02 09:45:31  5-MIN KMSN 161545Z 07007KT 10SM SCT065 00/M07 A3027 550 58 -1100 070/07 RMK AO2
14837KMSN MSN20021116095011511/16/02 09:50:31  5-MIN KMSN 161550Z 06008KT 10SM FEW065 00/M07 A3026 550 58 -1100 060/08 RMK AO2 SLP259 T00001072
14837KMSN MSN20021116095509811/16/02 09:55:31  5-MIN KMSN 161555Z 04008KT 10SM SCT060 00/M07 A3026 550 58 -1100 030/08 RMK AO2
14837KMSN MSN20021116100010511/16/02 10:00:31  5-MIN KMSN 161600Z 05008KT 10SM FEW020 SCT060 00/M07 A3026 550 58 -1100 050/08 RMK AO2
14837KMSN MSN20021116100510511/16/02 10:05:31  5-MIN KMSN 161605Z 07008KT 10SM FEW020 SCT060 00/M08 A3026 550 56 -1100 070/08 RMK AO2
14837KMSN MSN20021116101010511/16/02 10:10:31  5-MIN KMSN 161610Z 04009KT 10SM FEW020 SCT060 00/M07 A3026 550 58 -1100 040/09 RMK AO2
14837KMSN MSN20021116101512111/16/02 10:15:31  5-MIN KMSN 161615Z 06008KT 030V090 10SM FEW020 SCT060 00/M08 A3026 550 56 -1100 050/08 030V090 RMK AO2
14837KMSN MSN20021116102010511/16/02 10:20:31  5-MIN KMSN 161620Z 05009KT 10SM FEW020 SCT060 00/M08 A3026 550 56 -1100 050/09 RMK AO2
14837KMSN MSN20021116102510511/16/02 10:25:31  5-MIN KMSN 161625Z 04010KT 10SM FEW020 SCT060 01/M08 A3026 550 51 -1000 040/10 RMK AO2
14837KMSN MSN20021116103010511/16/02 10:30:31  5-MIN KMSN 161630Z 05009KT 10SM FEW020 SCT060 00/M08 A3026 550 53 -1100 050/09 RMK AO2
14837KMSN MSN20021116103510511/16/02 10:35:31  5-MIN KMSN 161635Z 04011KT 10SM FEW020 SCT060 01/M08 A3026 550 54 -1000 040/11 RMK AO2
14837KMSN MSN20021116104010511/16/02 10:40:31  5-MIN KMSN 161640Z 05011KT 10SM FEW020 SCT060 01/M08 A3026 550 51 -1000 050/11 RMK AO2
14837KMSN MSN20021116104510511/16/02 10:45:31  5-MIN KMSN 161645Z 05010KT 10SM FEW020 SCT060 01/M08 A3026 550 51 -1000 050/10 RMK AO2
14837KMSN MSN20021116123009411/16/02 12:30:31  5-MIN KMSN 161830Z 03011KT 10SM CLR 02/M09 A3022 590 45 -800 030/11 RMK AO2
14837KMSN MSN20021116123509711/16/02 12:35:31  5-MIN KMSN 161835Z 05013KT 10SM FEW040 02/M09 A3021 590 45 -800 050/13 RMK AO2
14837KMSN MSN20021116124009711/16/02 12:40:31  5-MIN KMSN 161840Z 04009KT 10SM FEW040 02/M09 A3021 590 43 -800 040/09 RMK AO2
14837KMSN MSN20021116124509711/16/02 12:45:31  5-MIN KMSN 161845Z 03009KT 10SM FEW040 02/M09 A3021 590 44 -700 030/09 RMK AO2
14837KMSN MSN20021116125011411/16/02 12:50:31  5-MIN KMSN 161850Z 03011KT 10SM FEW040 02/M09 A3021 600 43 -800 030/11 RMK AO2 SLP240 T00171094
14837KMSN MSN20021116125509711/16/02 12:55:31  5-MIN KMSN 161855Z 02008KT 10SM FEW065 02/M09 A3021 600 43 -800 020/08 RMK AO2
14837KMSN MSN20021116130009711/16/02 13:00:31  5-MIN KMSN 161900Z 06011KT 10SM FEW065 02/M09 A3021 600 43 -800 050/11 RMK AO2
14837KMSN MSN20021116130509711/16/02 13:05:31  5-MIN KMSN 161905Z 04008KT 10SM FEW047 02/M09 A3021 600 43 -800 040/08 RMK AO2
14837KMSN MSN20021116131010411/16/02 13:10:31  5-MIN KMSN 161910Z 01009KT 10SM SCT049 SCT065 02/M09 A3020 600 42 -700 010/09 RMK AO2
14837KMSN MSN20021116131510411/16/02 13:15:31  5-MIN KMSN 161915Z 03011KT 10SM FEW049 SCT065 02/M09 A3020 600 43 -800 030/11 RMK AO2
14837KMSN MSN20021116132010411/16/02 13:20:31  5-MIN KMSN 161920Z 04011KT 10SM FEW049 SCT065 02/M09 A3020 610 43 -800 040/11 RMK AO2
14837KMSN MSN20021116132511311/16/02 13:25:31  5-MIN KMSN 161925Z 05008KT 030V090 10SM SCT049 01/M10 A3020 610 43 -800 050/08 030V090 RMK AO2
14837KMSN MSN20021116133009711/16/02 13:30:31  5-MIN KMSN 161930Z 05011KT 10SM BKN049 02/M09 A3020 610 43 -800 050/11 RMK AO2
14837KMSN MSN20021116133509711/16/02 13:35:31  5-MIN KMSN 161935Z 06008KT 10SM SCT049 02/M09 A3020 610 43 -800 060/08 RMK AO2
14837KMSN MSN20021116134009711/16/02 13:40:31  5-MIN KMSN 161940Z 05010KT 10SM SCT047 02/M09 A3020 610 43 -800 050/10 RMK AO2
14837KMSN MSN20021116134509711/16/02 13:45:31  5-MIN KMSN 161945Z 06011KT 10SM SCT047 02/M10 A3019 610 42 -800 060/11 RMK AO2
14837KMSN MSN20021116135011411/16/02 13:50:31  5-MIN KMSN 161950Z 04011KT 10SM SCT047 02/M11 A3019 610 40 -800 040/11 RMK AO2 SLP234 T00171106
14837KMSN MSN20021116135509711/16/02 13:55:31  5-MIN KMSN 161955Z 04008KT 10SM FEW047 02/M09 A3019 610 43 -800 040/08 RMK AO2
14837KMSN MSN20021116140009711/16/02 14:00:31  5-MIN KMSN 162000Z 03004KT 10SM FEW047 01/M09 A3019 620 45 -800 030/04 RMK AO2
14837KMSN MSN20021116140509711/16/02 14:05:31  5-MIN KMSN 162005Z 05008KT 10SM BKN049 01/M09 A3019 620 45 -800 050/08 RMK AO2
14837KMSN MSN20021116141009711/16/02 14:10:31  5-MIN KMSN 162010Z 01007KT 10SM BKN049 02/M09 A3019 620 44 -700 010/07 RMK AO2
14837KMSN MSN20021116141509711/16/02 14:15:31  5-MIN KMSN 162015Z 03010KT 10SM BKN049 02/M09 A3019 620 45 -800 030/10 RMK AO2
14837KMSN MSN20021116142009711/16/02 14:20:31  5-MIN KMSN 162020Z 05007KT 10SM BKN049 01/M09 A3019 620 47 -800 040/07 RMK AO2
14837KMSN MSN20021116142509711/16/02 14:25:31  5-MIN KMSN 162025Z 04009KT 10SM BKN049 02/M09 A3019 620 45 -800 030/09 RMK AO2
14837KMSN MSN20021116143009711/16/02 14:30:31  5-MIN KMSN 162030Z 03011KT 10SM OVC049 02/M09 A3019 620 45 -800 030/11 RMK AO2
14837KMSN MSN20021116143509711/16/02 14:35:31  5-MIN KMSN 162035Z 03010KT 10SM OVC049 02/M08 A3018 620 47 -800 020/10 RMK AO2
14837KMSN MSN20021116144009711/16/02 14:40:31  5-MIN KMSN 162040Z 03009KT 10SM OVC049 01/M09 A3018 620 47 -800 030/09 RMK AO2
14837KMSN MSN20021116144509711/16/02 14:45:31  5-MIN KMSN 162045Z 04008KT 10SM OVC049 01/M09 A3018 620 49 -900 040/08 RMK AO2
14837KMSN MSN20021116145012111/16/02 14:50:31  5-MIN KMSN 162050Z 02007KT 10SM BKN049 00/M09 A3019 620 51 -1000 020/07 RMK AO2 SLP233 T00001089 58012
14837KMSN MSN20021116145509811/16/02 14:55:31  5-MIN KMSN 162055Z 03006KT 10SM BKN049 00/M09 A3019 620 51 -1000 030/06 RMK AO2
14837KMSN MSN20021116150010511/16/02 15:00:31  5-MIN KMSN 162100Z 02007KT 10SM BKN047 BKN055 00/M08 A3019 620 53 -1000 020/07 RMK AO2
14837KMSN MSN20021116150510411/16/02 15:05:31  5-MIN KMSN 162105Z 01009KT 10SM BKN047 BKN055 01/M09 A3019 620 49 -900 010/09 RMK AO2
14837KMSN MSN20021116151010411/16/02 15:10:31  5-MIN KMSN 162110Z 01008KT 10SM FEW045 BKN049 01/M09 A3019 620 45 -800 010/08 RMK AO2
14837KMSN MSN20021116151511311/16/02 15:15:31  5-MIN KMSN 162115Z 01008KT 10SM FEW045 SCT049 01/M09 A3019 620 47 -800 010/08 RMK AO2 VIRGA NE
14837KMSN MSN20021116152010611/16/02 15:20:31  5-MIN KMSN 162120Z 02006KT 10SM SCT047 01/M09 A3018 620 47 -800 020/06 RMK AO2 VIRGA NE
14837KMSN MSN20021116152510611/16/02 15:25:31  5-MIN KMSN 162125Z 01006KT 10SM BKN047 01/M09 A3018 620 47 -800 010/06 RMK AO2 VIRGA NE
14837KMSN MSN20021116153010611/16/02 15:30:31  5-MIN KMSN 162130Z 03005KT 10SM BKN049 01/M09 A3018 620 47 -800 020/05 RMK AO2 VIRGA NE
14837KMSN MSN20021116153510611/16/02 15:35:31  5-MIN KMSN 162135Z 05008KT 10SM SCT049 01/M09 A3018 620 49 -900 050/08 RMK AO2 VIRGA NE
14837KMSN MSN20021116154010611/16/02 15:40:31  5-MIN KMSN 162140Z 05007KT 10SM FEW049 01/M09 A3018 620 47 -900 040/07 RMK AO2 VIRGA NE
14837KMSN MSN20021116154510611/16/02 15:45:31  5-MIN KMSN 162145Z 04006KT 10SM SCT049 01/M08 A3018 620 51 -900 040/06 RMK AO2 VIRGA NE
14837KMSN MSN20021116155012311/16/02 15:50:31  5-MIN KMSN 162150Z 04009KT 10SM SCT049 01/M08 A3018 620 51 -900 040/09 RMK AO2 SLP232 VIRGA NE T00061083
14837KMSN MSN20021116155511311/16/02 15:55:31  5-MIN KMSN 162155Z 03004KT 10SM -SN SCT049 01/M09 A3018 620 49 -900 030/04 RMK AO2 SNB54 P0000
14837KMSN MSN20021116160011411/16/02 16:00:31  5-MIN KMSN 162200Z 06006KT 9SM -SN SCT049 01/M09 A3018 620 49 -900 060/06 RMK AO2 SNB2154 P0000
14837KMSN MSN20021116160511411/16/02 16:05:31  5-MIN KMSN 162205Z 04010KT 9SM -SN SCT049 01/M08 A3018 620 54 -900 040/10 RMK AO2 SNB2154 P0000
14837KMSN MSN20021116161012611/16/02 16:10:31  5-MIN KMSN 162210Z 06009KT 10SM BKN049 00/M07 A3018 620 58 -1000 060/09 RMK AO2 SNB2154E09 VIRGA N SE P0000
14837KMSN MSN20021116161512711/16/02 16:15:31  5-MIN KMSN 162215Z 06008KT 10SM -SN BKN049 00/M08 A3018 620 56 -1000 060/08 RMK AO2 SNB2154 VIRGA N SE P0000
14837KMSN MSN20021116162013111/16/02 16:20:31  5-MIN KMSN 162220Z 05007KT 10SM -SN BKN049 M01/M08 A3018 620 58 -1000 050/07 RMK AO2 SNB2154 VIRGA NE SE P0000 $
14837KMSN MSN20021116162512911/16/02 16:25:31  5-MIN KMSN 162225Z 05007KT 10SM BKN049 M01/M08 A3018 620 60 -1100 050/07 RMK AO2 SNB2154E22 VIRGA NE S P0000 $
14837KMSN MSN20021116163012411/16/02 16:30:31  5-MIN KMSN 162230Z 05007KT 10SM BKN049 M01/M08 A3018 620 60 -1100 050/07 RMK AO2 SNB2154E22 VIRGA P0000 $
14837KMSN MSN20021116163512411/16/02 16:35:31  5-MIN KMSN 162235Z 04005KT 10SM BKN049 M02/M07 A3018 620 66 -1200 040/05 RMK AO2 SNB2154E22 VIRGA P0000 $
14837KMSN MSN20021116164012411/16/02 16:40:31  5-MIN KMSN 162240Z 03005KT 10SM BKN049 M02/M07 A3018 620 69 -1200 030/05 RMK AO2 SNB2154E22 VIRGA P0000 $
14837KMSN MSN20021116164512411/16/02 16:45:31  5-MIN KMSN 162245Z 03006KT 10SM SCT049 M02/M07 A3018 620 69 -1200 030/06 RMK AO2 SNB2154E22 VIRGA P0000 $
14837KMSN MSN20021116165014111/16/02 16:50:31  5-MIN KMSN 162250Z 03006KT 10SM SCT049 M02/M08 A3018 620 63 -1200 030/06 RMK AO2 SNB2154E22 SLP232 VIRGA P0000 T10171078 $
14837KMSN MSN20021116165510111/16/02 16:55:31  5-MIN KMSN 162255Z 03004KT 10SM SCT047 M02/M08 A3018 620 66 -1200 030/04 RMK AO2 $
14837KMSN MSN20021116170010711/16/02 17:00:31  5-MIN KMSN 162300Z 04004KT 10SM SCT047 M02/M07 A3018 630 69 -1200 040/04 RMK AO2 VIRGA $
14837KMSN MSN20021116170510711/16/02 17:05:31  5-MIN KMSN 162305Z 04006KT 10SM SCT047 M03/M07 A3018 620 71 -1300 040/06 RMK AO2 VIRGA $
14837KMSN MSN20021116171010711/16/02 17:10:31  5-MIN KMSN 162310Z 03006KT 10SM SCT047 M03/M07 A3018 620 71 -1300 030/06 RMK AO2 VIRGA $
14837KMSN MSN20021116171510711/16/02 17:15:31  5-MIN KMSN 162315Z 03006KT 10SM SCT047 M02/M07 A3018 620 72 -1200 030/06 RMK AO2 VIRGA $
14837KMSN MSN20021116172010711/16/02 17:20:31  5-MIN KMSN 162320Z 03005KT 10SM SCT047 M02/M07 A3018 620 72 -1300 030/05 RMK AO2 VIRGA $
14837KMSN MSN20021116172510711/16/02 17:25:31  5-MIN KMSN 162325Z 04005KT 10SM FEW047 M03/M07 A3018 620 75 -1300 040/05 RMK AO2 VIRGA $
14837KMSN MSN20021116173009911/16/02 17:30:31  5-MIN KMSN 162330Z 04005KT 10SM FEW047 M03/M07 A3018 620 71 -1300 040/05 RMK AO2
14837KMSN MSN20021116173509911/16/02 17:35:31  5-MIN KMSN 162335Z 05006KT 10SM FEW047 M03/M07 A3018 620 78 -1400 050/06 RMK AO2
14837KMSN MSN20021116174009911/16/02 17:40:31  5-MIN KMSN 162340Z 04007KT 10SM FEW047 M03/M07 A3019 620 74 -1400 040/07 RMK AO2
14837KMSN MSN20021116174509911/16/02 17:45:31  5-MIN KMSN 162345Z 04006KT 10SM FEW047 M04/M07 A3019 620 81 -1500 030/06 RMK AO2
14837KMSN MSN20021116175014011/16/02 17:50:31  5-MIN KMSN 162350Z 03005KT 10SM FEW047 M03/M07 A3019 620 78 -1400 030/05 RMK AO2 SLP236 60000 T10331067 10022 21039 56015
14837KMSN MSN20021116175509911/16/02 17:55:31  5-MIN KMSN 162355Z 03005KT 10SM FEW055 M03/M07 A3019 620 78 -1400 030/05 RMK AO2
14837KMSN MSN20021116180009611/16/02 18:00:31  5-MIN KMSN 170000Z 03004KT 10SM CLR M03/M07 A3019 620 78 -1400 020/04 RMK AO2
14837KMSN MSN20021116180509911/16/02 18:05:31  5-MIN KMSN 170005Z 02005KT 10SM FEW055 M03/M06 A3019 620 81 -1400 020/05 RMK AO2
14837KMSN MSN20021116181009911/16/02 18:10:31  5-MIN KMSN 170010Z 03006KT 10SM FEW055 M04/M07 A3019 620 81 -1500 030/06 RMK AO2
14837KMSN MSN20021116181509811/16/02 18:15:31  5-MIN KMSN 170015Z 03005KT 9SM FEW055 M04/M07 A3019 610 81 -1500 020/05 RMK AO2
14837KMSN MSN20021116182009911/16/02 18:20:31  5-MIN KMSN 170020Z 04005KT 10SM FEW055 M04/M07 A3019 620 81 -1500 040/05 RMK AO2
14837KMSN MSN20021116182509911/16/02 18:25:31  5-MIN KMSN 170025Z 04005KT 10SM FEW055 M04/M07 A3019 610 81 -1500 040/05 RMK AO2
14837KMSN MSN20021116183009911/16/02 18:30:31  5-MIN KMSN 170030Z 03005KT 10SM FEW055 M04/M07 A3019 610 81 -1500 030/05 RMK AO2
14837KMSN MSN20021116183509911/16/02 18:35:31  5-MIN KMSN 170035Z 02005KT 10SM FEW055 M04/M07 A3019 620 81 -1500 020/05 RMK AO2
14837KMSN MSN20021116184009911/16/02 18:40:31  5-MIN KMSN 170040Z 36004KT 10SM FEW055 M04/M06 A3019 620 85 -1500 360/04 RMK AO2
14837KMSN MSN20021116184509911/16/02 18:45:31  5-MIN KMSN 170045Z 01005KT 10SM FEW055 M03/M06 A3019 620 81 -1400 010/05 RMK AO2
14837KMSN MSN20021116185011611/16/02 18:50:31  5-MIN KMSN 170050Z 02005KT 10SM FEW055 M04/M07 A3019 620 81 -1500 020/05 RMK AO2 SLP235 T10391067
14837KMSN MSN20021116185509911/16/02 18:55:31  5-MIN KMSN 170055Z 02004KT 10SM FEW050 M04/M07 A3019 620 84 -1500 020/04 RMK AO2
14837KMSN MSN20021116190009611/16/02 19:00:31  5-MIN KMSN 170100Z 04005KT 10SM CLR M04/M07 A3019 620 84 -1500 030/05 RMK AO2
14837KMSN MSN20021116190509911/16/02 19:05:31  5-MIN KMSN 170105Z 04005KT 10SM FEW055 M04/M07 A3019 620 84 -1500 040/05 RMK AO2
14837KMSN MSN20021116191009911/16/02 19:10:31  5-MIN KMSN 170110Z 04005KT 10SM FEW055 M04/M06 A3019 620 88 -1500 040/05 RMK AO2
14837KMSN MSN20021116191509911/16/02 19:15:31  5-MIN KMSN 170115Z 03005KT 10SM FEW055 M04/M06 A3019 620 88 -1500 030/05 RMK AO2
14837KMSN MSN20021116192009911/16/02 19:20:31  5-MIN KMSN 170120Z 03005KT 10SM FEW055 M04/M06 A3019 620 88 -1500 030/05 RMK AO2
14837KMSN MSN20021116192509911/16/02 19:25:31  5-MIN KMSN 170125Z 03005KT 10SM FEW055 M04/M06 A3019 610 88 -1500 030/05 RMK AO2
14837KMSN MSN20021116193009911/16/02 19:30:31  5-MIN KMSN 170130Z 04004KT 10SM FEW055 M04/M06 A3019 610 85 -1500 040/04 RMK AO2
14837KMSN MSN20021116193509911/16/02 19:35:31  5-MIN KMSN 170135Z 01003KT 10SM FEW055 M04/M06 A3019 610 88 -1500 010/03 RMK AO2
14837KMSN MSN20021116194009911/16/02 19:40:31  5-MIN KMSN 170140Z 35003KT 10SM FEW055 M04/M06 A3019 610 88 -1500 350/03 RMK AO2
14837KMSN MSN20021116194509911/16/02 19:45:31  5-MIN KMSN 170145Z 36003KT 10SM FEW055 M04/M06 A3019 610 88 -1500 360/03 RMK AO2
14837KMSN MSN20021116195013111/16/02 19:50:31  5-MIN KMSN 170150Z 03003KT 9SM -SN BKN055 M04/M06 A3019 620 88 -1500 030/03 RMK AO2 SNB49 SLP235 P0000 T10391056
14837KMSN MSN20021116195510811/16/02 19:55:31  5-MIN KMSN 170155Z 03003KT 8SM -SN BKN055 M04/M06 A3019 620 88 -1500 030/03 RMK AO2 P0000
14837KMSN MSN20021116200010811/16/02 20:00:31  5-MIN KMSN 170200Z 01003KT 8SM -SN BKN055 M04/M06 A3019 620 88 -1500 010/03 RMK AO2 P0000
14837KMSN MSN20021116200510811/16/02 20:05:31  5-MIN KMSN 170205Z 35003KT 8SM -SN BKN050 M04/M06 A3018 620 88 -1500 350/03 RMK AO2 P0000
14837KMSN MSN20021116201010811/16/02 20:10:31  5-MIN KMSN 170210Z 00000KT 8SM -SN BKN050 M04/M07 A3018 620 84 -1500 000/00 RMK AO2 P0000
14837KMSN MSN20021116201510811/16/02 20:15:31  5-MIN KMSN 170215Z 34003KT 8SM -SN BKN050 M04/M06 A3018 620 88 -1500 340/03 RMK AO2 P0000
14837KMSN MSN20021116202010811/16/02 20:20:31  5-MIN KMSN 170220Z 33003KT 8SM -SN BKN050 M05/M06 A3018 620 92 -1600 330/03 RMK AO2 P0000
14837KMSN MSN20021116202510811/16/02 20:25:31  5-MIN KMSN 170225Z 34003KT 8SM -SN BKN050 M04/M06 A3018 620 88 -1500 340/03 RMK AO2 P0000
14837KMSN MSN20021116203010811/16/02 20:30:31  5-MIN KMSN 170230Z 00000KT 8SM -SN SCT047 M04/M06 A3018 630 92 -1500 000/00 RMK AO2 P0000
14837KMSN MSN20021116203510811/16/02 20:35:31  5-MIN KMSN 170235Z 35003KT 8SM -SN BKN047 M04/M06 A3018 630 88 -1500 350/03 RMK AO2 P0000
14837KMSN MSN20021116204010811/16/02 20:40:31  5-MIN KMSN 170240Z 34003KT 8SM -SN BKN047 M04/M06 A3018 630 88 -1500 340/03 RMK AO2 P0000
14837KMSN MSN20021116204510811/16/02 20:45:31  5-MIN KMSN 170245Z 33003KT 8SM -SN BKN047 M05/M06 A3018 630 92 -1600 330/03 RMK AO2 P0000
14837KMSN MSN20021116205013711/16/02 20:50:31  5-MIN KMSN 170250Z 32004KT 8SM -SN SCT047 M06/M07 A3018 630 92 -1700 320/04 RMK AO2 SLP232 P0000 60000 T10561067 55000
14837KMSN MSN20021116205510811/16/02 20:55:31  5-MIN KMSN 170255Z 32004KT 7SM -SN SCT047 M06/M07 A3018 630 88 -1700 310/04 RMK AO2 P0000
14837KMSN MSN20021116210010811/16/02 21:00:31  5-MIN KMSN 170300Z 32004KT 7SM -SN SCT047 M06/M07 A3018 630 92 -1700 310/04 RMK AO2 P0000
14837KMSN MSN20021116210510811/16/02 21:05:31  5-MIN KMSN 170305Z 32003KT 7SM -SN SCT047 M05/M07 A3017 630 88 -1600 320/03 RMK AO2 P0000
14837KMSN MSN20021116211010811/16/02 21:10:31  5-MIN KMSN 170310Z 33003KT 7SM -SN SCT047 M05/M07 A3018 630 88 -1600 330/03 RMK AO2 P0000
14837KMSN MSN20021116211510811/16/02 21:15:31  5-MIN KMSN 170315Z 33004KT 7SM -SN SCT047 M05/M07 A3018 630 84 -1600 330/04 RMK AO2 P0000
14837KMSN MSN20021116212010811/16/02 21:20:31  5-MIN KMSN 170320Z 33004KT 7SM -SN SCT047 M05/M07 A3018 630 88 -1600 330/04 RMK AO2 P0000
14837KMSN MSN20021116212511511/16/02 21:25:31  5-MIN KMSN 170325Z 33004KT 7SM -SN FEW029 BKN050 M04/M06 A3018 630 88 -1500 330/04 RMK AO2 P0000
14837KMSN MSN20021116213011511/16/02 21:30:31  5-MIN KMSN 170330Z 34004KT 8SM -SN FEW029 BKN050 M04/M06 A3018 630 88 -1500 340/04 RMK AO2 P0000
14837KMSN MSN20021116213511511/16/02 21:35:31  5-MIN KMSN 170335Z 33003KT 8SM -SN FEW029 SCT050 M04/M06 A3018 630 88 -1500 330/03 RMK AO2 P0000
14837KMSN MSN20021116214010811/16/02 21:40:31  5-MIN KMSN 170340Z 33003KT 8SM -SN FEW050 M05/M07 A3017 630 88 -1600 330/03 RMK AO2 P0000
14837KMSN MSN20021116214511111/16/02 21:45:31  5-MIN KMSN 170345Z 31003KT 10SM FEW050 M06/M07 A3017 630 92 -1700 300/03 RMK AO2 SNE41 P0000
14837KMSN MSN20021116215012511/16/02 21:50:31  5-MIN KMSN 170350Z 32004KT 10SM CLR M06/M07 A3017 630 92 -1700 320/04 RMK AO2 SNE41 SLP230 P0000 T10561067
14837KMSN MSN20021116215509911/16/02 21:55:31  5-MIN KMSN 170355Z 33003KT 10SM FEW050 M05/M07 A3017 630 88 -1600 330/03 RMK AO2
14837KMSN MSN20021116220009911/16/02 22:00:31  5-MIN KMSN 170400Z 00000KT 10SM FEW050 M06/M07 A3017 630 92 -1700 000/00 RMK AO2
14837KMSN MSN20021116220509911/16/02 22:05:31  5-MIN KMSN 170405Z 32003KT 10SM FEW050 M06/M07 A3017 640 92 -1700 310/03 RMK AO2
14837KMSN MSN20021116221009911/16/02 22:10:31  5-MIN KMSN 170410Z 31003KT 10SM FEW050 M06/M07 A3017 640 88 -1700 300/03 RMK AO2
14837KMSN MSN20021116221509911/16/02 22:15:31  5-MIN KMSN 170415Z 31003KT 10SM FEW050 M06/M07 A3017 640 88 -1700 310/03 RMK AO2
14837KMSN MSN20021116222009911/16/02 22:20:31  5-MIN KMSN 170420Z 32003KT 10SM FEW050 M06/M07 A3017 640 92 -1700 320/03 RMK AO2
14837KMSN MSN20021116222509911/16/02 22:25:31  5-MIN KMSN 170425Z 32004KT 10SM FEW050 M06/M07 A3017 640 92 -1700 320/04 RMK AO2
14837KMSN MSN20021116223009911/16/02 22:30:31  5-MIN KMSN 170430Z 31005KT 10SM FEW050 M05/M07 A3017 640 88 -1600 310/05 RMK AO2
14837KMSN MSN20021116223509911/16/02 22:35:31  5-MIN KMSN 170435Z 32005KT 10SM FEW050 M05/M07 A3016 640 88 -1600 320/05 RMK AO2
14837KMSN MSN20021116224009911/16/02 22:40:31  5-MIN KMSN 170440Z 31005KT 10SM BKN055 M05/M07 A3016 640 88 -1600 310/05 RMK AO2
14837KMSN MSN20021116224509911/16/02 22:45:31  5-MIN KMSN 170445Z 32004KT 10SM BKN055 M05/M07 A3016 640 88 -1600 320/04 RMK AO2
14837KMSN MSN20021116225011611/16/02 22:50:31  5-MIN KMSN 170450Z 33005KT 10SM SCT055 M06/M07 A3016 640 92 -1600 320/05 RMK AO2 SLP224 T10561067
14837KMSN MSN20021116225509911/16/02 22:55:31  5-MIN KMSN 170455Z 33004KT 10SM SCT050 M06/M07 A3016 650 92 -1600 330/04 RMK AO2
14837KMSN MSN20021116230009911/16/02 23:00:31  5-MIN KMSN 170500Z 33004KT 10SM SCT050 M06/M07 A3015 650 92 -1600 330/04 RMK AO2
14837KMSN MSN20021116230509911/16/02 23:05:31  5-MIN KMSN 170505Z 32004KT 10SM SCT050 M06/M07 A3015 650 92 -1600 320/04 RMK AO2
14837KMSN MSN20021116231009911/16/02 23:10:31  5-MIN KMSN 170510Z 33005KT 10SM SCT050 M06/M07 A3015 650 92 -1600 330/05 RMK AO2
14837KMSN MSN20021116231509811/16/02 23:15:31  5-MIN KMSN 170515Z 33005KT 8SM FEW048 M06/M07 A3015 650 92 -1600 320/05 RMK AO2
14837KMSN MSN20021116232009511/16/02 23:20:31  5-MIN KMSN 170520Z 33005KT 8SM CLR M06/M07 A3015 650 92 -1600 330/05 RMK AO2
14837KMSN MSN20021116232509511/16/02 23:25:31  5-MIN KMSN 170525Z 33005KT 8SM CLR M06/M07 A3015 650 92 -1600 330/05 RMK AO2
14837KMSN MSN20021116233009511/16/02 23:30:31  5-MIN KMSN 170530Z 33005KT 8SM CLR M06/M07 A3015 660 92 -1600 330/05 RMK AO2
14837KMSN MSN20021116233509511/16/02 23:35:31  5-MIN KMSN 170535Z 33005KT 8SM CLR M06/M07 A3015 660 92 -1600 320/05 RMK AO2
14837KMSN MSN20021116234009511/16/02 23:40:31  5-MIN KMSN 170540Z 33005KT 8SM CLR M06/M07 A3015 660 88 -1600 330/05 RMK AO2
14837KMSN MSN20021116234509511/16/02 23:45:31  5-MIN KMSN 170545Z 33005KT 7SM CLR M06/M07 A3014 660 92 -1600 330/05 RMK AO2
14837KMSN MSN20021116235014611/16/02 23:50:31  5-MIN KMSN 170550Z 34005KT 7SM CLR M06/M07 A3014 660 92 -1600 340/05 RMK AO2 SLP219 60000 T10561067 11033 21061 400221061 58003
14837KMSN MSN20021116235509811/16/02 23:55:31  5-MIN KMSN 170555Z 35004KT 6SM BR CLR M06/M07 A3014 660 88 -1600 350/04 RMK AO2
14837KMSN MSN20021117000009811/17/02 00:00:31  5-MIN KMSN 170600Z 00000KT 6SM BR CLR M06/M07 A3014 660 92 -1700 000/00 RMK AO2
14837KMSN MSN20021117000509811/17/02 00:05:31  5-MIN KMSN 170605Z 00000KT 6SM BR CLR M07/M08 A3014 660 88 -1800 000/00 RMK AO2
14837KMSN MSN20021117001009811/17/02 00:10:31  5-MIN KMSN 170610Z 00000KT 6SM BR CLR M07/M08 A3014 660 92 -1800 000/00 RMK AO2
14837KMSN MSN20021117001509811/17/02 00:15:31  5-MIN KMSN 170615Z 00000KT 6SM BR CLR M06/M08 A3014 660 88 -1700 000/00 RMK AO2
14837KMSN MSN20021117002009811/17/02 00:20:31  5-MIN KMSN 170620Z VRB03KT 6SM BR CLR M06/M07 A3014 670 96 -1700 VRB/03 RMK AO2
14837KMSN MSN20021117002509811/17/02 00:25:31  5-MIN KMSN 170625Z 36003KT 6SM BR CLR M06/M07 A3014 670 92 -1700 360/03 RMK AO2
14837KMSN MSN20021117003009811/17/02 00:30:31  5-MIN KMSN 170630Z VRB03KT 6SM BR CLR M06/M07 A3013 670 92 -1700 VRB/03 RMK AO2
14837KMSN MSN20021117003509811/17/02 00:35:31  5-MIN KMSN 170635Z VRB03KT 6SM BR CLR M06/M07 A3013 670 96 -1700 VRB/03 RMK AO2
14837KMSN MSN20021117004009511/17/02 00:40:31  5-MIN KMSN 170640Z 33003KT 7SM CLR M06/M07 A3013 670 92 -1700 330/03 RMK AO2
14837KMSN MSN20021117004509511/17/02 00:45:31  5-MIN KMSN 170645Z 33004KT 7SM CLR M06/M07 A3013 670 92 -1700 330/04 RMK AO2
14837KMSN MSN20021117005011211/17/02 00:50:31  5-MIN KMSN 170650Z 33005KT 7SM CLR M06/M07 A3013 670 92 -1700 330/05 RMK AO2 SLP214 T10611072
14837KMSN MSN20021117005509811/17/02 00:55:31  5-MIN KMSN 170655Z 32005KT 6SM BR CLR M06/M07 A3013 680 92 -1700 320/05 RMK AO2
14837KMSN MSN20021117010009811/17/02 01:00:31  5-MIN KMSN 170700Z 33004KT 6SM BR CLR M06/M07 A3012 680 92 -1700 320/04 RMK AO2
14837KMSN MSN20021117010509811/17/02 01:05:31  5-MIN KMSN 170705Z 32005KT 6SM BR CLR M06/M07 A3012 680 92 -1700 320/05 RMK AO2
14837KMSN MSN20021117011009811/17/02 01:10:31  5-MIN KMSN 170710Z 33004KT 6SM BR CLR M06/M07 A3012 680 92 -1700 330/04 RMK AO2
14837KMSN MSN20021117011509811/17/02 01:15:31  5-MIN KMSN 170715Z 33005KT 6SM BR CLR M06/M07 A3013 670 92 -1700 330/05 RMK AO2
14837KMSN MSN20021117012009811/17/02 01:20:31  5-MIN KMSN 170720Z 34004KT 6SM BR CLR M06/M07 A3013 670 92 -1700 340/04 RMK AO2
14837KMSN MSN20021117012509811/17/02 01:25:31  5-MIN KMSN 170725Z 34004KT 6SM BR CLR M06/M07 A3013 670 92 -1700 340/04 RMK AO2
14837KMSN MSN20021117013009811/17/02 01:30:31  5-MIN KMSN 170730Z 35003KT 6SM BR CLR M06/M07 A3013 670 92 -1700 350/03 RMK AO2
14837KMSN MSN20021117013509511/17/02 01:35:31  5-MIN KMSN 170735Z 34003KT 7SM CLR M06/M07 A3013 670 92 -1700 340/03 RMK AO2
14837KMSN MSN20021117014009511/17/02 01:40:31  5-MIN KMSN 170740Z 35004KT 7SM CLR M06/M07 A3013 670 92 -1700 350/04 RMK AO2
14837KMSN MSN20021117014509511/17/02 01:45:31  5-MIN KMSN 170745Z VRB03KT 7SM CLR M06/M07 A3013 670 92 -1700 VRB/03 RMK AO2
14837KMSN MSN20021117015011211/17/02 01:50:31  5-MIN KMSN 170750Z VRB04KT 7SM CLR M06/M07 A3013 670 92 -1700 VRB/04 RMK AO2 SLP214 T10611072
14837KMSN MSN20021117015509511/17/02 01:55:31  5-MIN KMSN 170755Z 35004KT 7SM CLR M06/M07 A3013 670 92 -1700 350/04 RMK AO2
14837KMSN MSN20021117020009511/17/02 02:00:31  5-MIN KMSN 170800Z 35005KT 7SM CLR M06/M07 A3013 670 92 -1700 350/05 RMK AO2
14837KMSN MSN20021117020509511/17/02 02:05:31  5-MIN KMSN 170805Z 33005KT 7SM CLR M06/M07 A3013 670 92 -1700 330/05 RMK AO2
14837KMSN MSN20021117021009511/17/02 02:10:31  5-MIN KMSN 170810Z 33005KT 7SM CLR M06/M07 A3013 670 92 -1700 330/05 RMK AO2
14837KMSN MSN20021117021509511/17/02 02:15:31  5-MIN KMSN 170815Z 34005KT 7SM CLR M06/M07 A3013 670 92 -1700 340/05 RMK AO2
14837KMSN MSN20021117022009511/17/02 02:20:31  5-MIN KMSN 170820Z 33004KT 7SM CLR M06/M07 A3012 680 92 -1700 320/04 RMK AO2
14837KMSN MSN20021117022509511/17/02 02:25:31  5-MIN KMSN 170825Z 32004KT 7SM CLR M07/M08 A3013 680 92 -1800 310/04 RMK AO2
14837KMSN MSN20021117023009511/17/02 02:30:31  5-MIN KMSN 170830Z 32005KT 7SM CLR M07/M08 A3012 680 92 -1800 320/05 RMK AO2
14837KMSN MSN20021117023509511/17/02 02:35:31  5-MIN KMSN 170835Z 31004KT 7SM CLR M07/M08 A3012 680 92 -1800 310/04 RMK AO2
14837KMSN MSN20021117024009511/17/02 02:40:31  5-MIN KMSN 170840Z 32004KT 7SM CLR M07/M08 A3012 680 92 -1800 320/04 RMK AO2
14837KMSN MSN20021117024509511/17/02 02:45:31  5-MIN KMSN 170845Z 33004KT 7SM CLR M07/M08 A3012 680 92 -1700 330/04 RMK AO2
14837KMSN MSN20021117025011811/17/02 02:50:31  5-MIN KMSN 170850Z 33003KT 7SM CLR M07/M07 A3012 680 96 -1800 330/03 RMK AO2 SLP213 T10671072 58011
14837KMSN MSN20021117025509811/17/02 02:55:31  5-MIN KMSN 170855Z 32004KT 6SM BR CLR M07/M08 A3012 680 92 -1800 320/04 RMK AO2
14837KMSN MSN20021117030009511/17/02 03:00:31  5-MIN KMSN 170900Z 32004KT 7SM CLR M07/M08 A3012 680 92 -1800 320/04 RMK AO2
14837KMSN MSN20021117030509511/17/02 03:05:31  5-MIN KMSN 170905Z 33004KT 7SM CLR M07/M08 A3012 680 92 -1700 330/04 RMK AO2
14837KMSN MSN20021117031009511/17/02 03:10:31  5-MIN KMSN 170910Z 34004KT 7SM CLR M07/M08 A3012 680 92 -1700 330/04 RMK AO2
14837KMSN MSN20021117031509511/17/02 03:15:31  5-MIN KMSN 170915Z 33004KT 7SM CLR M07/M08 A3012 680 92 -1700 330/04 RMK AO2
14837KMSN MSN20021117032009511/17/02 03:20:31  5-MIN KMSN 170920Z 33004KT 7SM CLR M07/M08 A3012 680 92 -1700 330/04 RMK AO2
14837KMSN MSN20021117032509511/17/02 03:25:31  5-MIN KMSN 170925Z 33004KT 7SM CLR M07/M08 A3012 680 92 -1700 330/04 RMK AO2
14837KMSN MSN20021117033009811/17/02 03:30:31  5-MIN KMSN 170930Z 34004KT 6SM BR CLR M07/M08 A3011 690 92 -1700 340/04 RMK AO2
14837KMSN MSN20021117033509811/17/02 03:35:31  5-MIN KMSN 170935Z 33004KT 6SM BR CLR M07/M08 A3011 690 92 -1700 330/04 RMK AO2
14837KMSN MSN20021117034009811/17/02 03:40:31  5-MIN KMSN 170940Z 32004KT 6SM BR CLR M07/M08 A3012 680 92 -1800 320/04 RMK AO2
14837KMSN MSN20021117034509811/17/02 03:45:31  5-MIN KMSN 170945Z 33005KT 6SM BR CLR M07/M08 A3011 690 92 -1700 330/05 RMK AO2
14837KMSN MSN20021117035011511/17/02 03:50:31  5-MIN KMSN 170950Z 33005KT 6SM BR CLR M07/M08 A3011 690 92 -1700 320/05 RMK AO2 SLP209 T10671078
14837KMSN MSN20021117035509811/17/02 03:55:31  5-MIN KMSN 170955Z 33004KT 6SM BR CLR M07/M08 A3011 690 92 -1700 320/04 RMK AO2
14837KMSN MSN20021117040009811/17/02 04:00:31  5-MIN KMSN 171000Z 32005KT 6SM BR CLR M07/M08 A3011 680 92 -1700 310/05 RMK AO2
14837KMSN MSN20021117040509811/17/02 04:05:31  5-MIN KMSN 171005Z 32005KT 6SM BR CLR M07/M08 A3012 680 92 -1700 320/05 RMK AO2
14837KMSN MSN20021117041009811/17/02 04:10:31  5-MIN KMSN 171010Z 33005KT 6SM BR CLR M07/M08 A3012 680 92 -1700 330/05 RMK AO2
14837KMSN MSN20021117041509811/17/02 04:15:31  5-MIN KMSN 171015Z 33006KT 6SM BR CLR M07/M08 A3012 680 92 -1700 330/06 RMK AO2
14837KMSN MSN20021117042009811/17/02 04:20:31  5-MIN KMSN 171020Z 33006KT 6SM BR CLR M07/M08 A3012 680 92 -1700 330/06 RMK AO2
14837KMSN MSN20021117042509811/17/02 04:25:31  5-MIN KMSN 171025Z 33005KT 5SM BR CLR M07/M08 A3012 680 92 -1700 330/05 RMK AO2
14837KMSN MSN20021117043009811/17/02 04:30:31  5-MIN KMSN 171030Z 33005KT 5SM BR CLR M07/M08 A3012 680 92 -1700 330/05 RMK AO2
14837KMSN MSN20021117043509811/17/02 04:35:31  5-MIN KMSN 171035Z 34006KT 5SM BR CLR M07/M08 A3011 690 92 -1700 340/06 RMK AO2
14837KMSN MSN20021117044009811/17/02 04:40:31  5-MIN KMSN 171040Z 33005KT 4SM BR CLR M07/M08 A3011 690 92 -1700 330/05 RMK AO2
14837KMSN MSN20021117044509811/17/02 04:45:31  5-MIN KMSN 171045Z 33004KT 5SM BR CLR M07/M08 A3011 690 92 -1700 330/04 RMK AO2
14837KMSN MSN20021117045011511/17/02 04:50:31  5-MIN KMSN 171050Z 34004KT 5SM BR CLR M07/M08 A3011 690 92 -1700 340/04 RMK AO2 SLP209 T10671078
14837KMSN MSN20021117045509811/17/02 04:55:31  5-MIN KMSN 171055Z 34004KT 5SM BR CLR M07/M08 A3011 690 92 -1700 340/04 RMK AO2
14837KMSN MSN20021117050009811/17/02 05:00:31  5-MIN KMSN 171100Z 33004KT 5SM BR CLR M07/M08 A3011 690 96 -1800 330/04 RMK AO2
14837KMSN MSN20021117050509811/17/02 05:05:31  5-MIN KMSN 171105Z 33003KT 5SM BR CLR M07/M08 A3011 690 96 -1800 330/03 RMK AO2
14837KMSN MSN20021117051009811/17/02 05:10:31  5-MIN KMSN 171110Z 32004KT 5SM BR CLR M07/M08 A3011 690 96 -1800 320/04 RMK AO2
14837KMSN MSN20021117051509811/17/02 05:15:31  5-MIN KMSN 171115Z 33004KT 5SM BR CLR M07/M08 A3011 690 96 -1800 320/04 RMK AO2
14837KMSN MSN20021117052009811/17/02 05:20:31  5-MIN KMSN 171120Z 32005KT 5SM BR CLR M07/M08 A3011 690 92 -1800 320/05 RMK AO2
14837KMSN MSN20021117052509811/17/02 05:25:31  5-MIN KMSN 171125Z 32006KT 5SM BR CLR M07/M08 A3012 680 92 -1800 320/06 RMK AO2
14837KMSN MSN20021117053009811/17/02 05:30:31  5-MIN KMSN 171130Z 32006KT 6SM BR CLR M07/M08 A3011 680 92 -1700 320/06 RMK AO2
14837KMSN MSN20021117053509511/17/02 05:35:31  5-MIN KMSN 171135Z 33004KT 7SM CLR M07/M08 A3011 690 96 -1800 330/04 RMK AO2
14837KMSN MSN20021117054009511/17/02 05:40:31  5-MIN KMSN 171140Z 32004KT 7SM CLR M07/M08 A3012 680 96 -1800 320/04 RMK AO2
14837KMSN MSN20021117054509511/17/02 05:45:31  5-MIN KMSN 171145Z 33004KT 7SM CLR M07/M08 A3012 680 96 -1800 330/04 RMK AO2
14837KMSN MSN20021117055013011/17/02 05:50:31  5-MIN KMSN 171150Z 33004KT 7SM CLR M07/M08 A3012 680 96 -1800 330/04 RMK AO2 SLP212 T10721078 11056 21072 56007
14837KMSN MSN20021117055509511/17/02 05:55:31  5-MIN KMSN 171155Z 33005KT 7SM CLR M07/M08 A3012 680 92 -1700 330/05 RMK AO2
14837KMSN MSN20021117060009511/17/02 06:00:31  5-MIN KMSN 171200Z 33005KT 7SM CLR M07/M08 A3012 680 92 -1800 330/05 RMK AO2
14837KMSN MSN20021117060509511/17/02 06:05:31  5-MIN KMSN 171205Z 32005KT 7SM CLR M07/M08 A3012 680 92 -1800 320/05 RMK AO2
14837KMSN MSN20021117061009511/17/02 06:10:31  5-MIN KMSN 171210Z 33004KT 7SM CLR M07/M08 A3012 680 92 -1800 330/04 RMK AO2
14837KMSN MSN20021117061509511/17/02 06:15:31  5-MIN KMSN 171215Z 33004KT 7SM CLR M07/M08 A3012 680 92 -1800 330/04 RMK AO2
14837KMSN MSN20021117062009811/17/02 06:20:31  5-MIN KMSN 171220Z 33003KT 6SM BR CLR M07/M08 A3012 680 92 -1800 320/03 RMK AO2
14837KMSN MSN20021117062509811/17/02 06:25:31  5-MIN KMSN 171225Z 33004KT 6SM BR CLR M07/M08 A3012 680 92 -1800 330/04 RMK AO2
14837KMSN MSN20021117063009811/17/02 06:30:31  5-MIN KMSN 171230Z 34004KT 6SM BR CLR M07/M08 A3012 680 92 -1800 340/04 RMK AO2
14837KMSN MSN20021117063509811/17/02 06:35:31  5-MIN KMSN 171235Z 35004KT 5SM BR CLR M07/M08 A3012 680 92 -1800 350/04 RMK AO2
14837KMSN MSN20021117064009811/17/02 06:40:31  5-MIN KMSN 171240Z 35003KT 5SM BR CLR M08/M09 A3012 680 92 -1900 350/03 RMK AO2
14837KMSN MSN20021117064509811/17/02 06:45:31  5-MIN KMSN 171245Z 33003KT 5SM BR CLR M08/M09 A3012 680 88 -1900 330/03 RMK AO2
14837KMSN MSN20021117065011211/17/02 06:50:31  5-MIN KMSN 171250Z VRB03KT 7SM CLR M07/M08 A3012 680 92 -1800 VRB/03 RMK AO2 SLP212 T10721083
14837KMSN MSN20021117065509511/17/02 06:55:31  5-MIN KMSN 171255Z 00000KT 7SM CLR M07/M08 A3012 680 92 -1800 000/00 RMK AO2
14837KMSN MSN20021117070009511/17/02 07:00:31  5-MIN KMSN 171300Z 00000KT 7SM CLR M07/M08 A3012 680 92 -1800 000/00 RMK AO2
14837KMSN MSN20021117070509511/17/02 07:05:31  5-MIN KMSN 171305Z 00000KT 7SM CLR M08/M09 A3012 680 92 -1900 000/00 RMK AO2
14837KMSN MSN20021117071009511/17/02 07:10:31  5-MIN KMSN 171310Z 00000KT 7SM CLR M07/M08 A3012 680 92 -1800 000/00 RMK AO2
14837KMSN MSN20021117071509511/17/02 07:15:31  5-MIN KMSN 171315Z 30003KT 7SM CLR M07/M08 A3012 680 92 -1800 300/03 RMK AO2
14837KMSN MSN20021117072009511/17/02 07:20:31  5-MIN KMSN 171320Z 31003KT 7SM CLR M07/M08 A3012 680 92 -1800 310/03 RMK AO2
14837KMSN MSN20021117072509511/17/02 07:25:31  5-MIN KMSN 171325Z 32003KT 7SM CLR M07/M08 A3012 680 92 -1800 310/03 RMK AO2
14837KMSN MSN20021117073009511/17/02 07:30:31  5-MIN KMSN 171330Z 33004KT 7SM CLR M07/M08 A3012 680 92 -1800 320/04 RMK AO2
14837KMSN MSN20021117073509511/17/02 07:35:31  5-MIN KMSN 171335Z 33005KT 7SM CLR M07/M08 A3012 680 92 -1800 330/05 RMK AO2
14837KMSN MSN20021117074009511/17/02 07:40:31  5-MIN KMSN 171340Z 33004KT 7SM CLR M07/M08 A3012 680 92 -1700 330/04 RMK AO2
14837KMSN MSN20021117074509511/17/02 07:45:31  5-MIN KMSN 171345Z 33004KT 7SM CLR M07/M08 A3012 680 92 -1700 330/04 RMK AO2
14837KMSN MSN20021117075011211/17/02 07:50:31  5-MIN KMSN 171350Z 33005KT 7SM CLR M06/M08 A3012 680 88 -1700 330/05 RMK AO2 SLP213 T10611078
14837KMSN MSN20021117075509511/17/02 07:55:31  5-MIN KMSN 171355Z VRB04KT 8SM CLR M06/M08 A3012 680 88 -1700 VRB/04 RMK AO2
14837KMSN MSN20021117080009511/17/02 08:00:31  5-MIN KMSN 171400Z 34004KT 8SM CLR M06/M08 A3012 680 84 -1600 340/04 RMK AO2
14837KMSN MSN20021117080509511/17/02 08:05:31  5-MIN KMSN 171405Z 35003KT 8SM CLR M06/M07 A3012 680 88 -1600 350/03 RMK AO2
14837KMSN MSN20021117081009511/17/02 08:10:31  5-MIN KMSN 171410Z 01004KT 8SM CLR M06/M07 A3012 680 88 -1600 010/04 RMK AO2
14837KMSN MSN20021117081509511/17/02 08:15:31  5-MIN KMSN 171415Z 36004KT 8SM CLR M06/M07 A3012 680 88 -1600 360/04 RMK AO2
14837KMSN MSN20021117082009511/17/02 08:20:31  5-MIN KMSN 171420Z 36004KT 8SM CLR M05/M07 A3012 680 88 -1500 360/04 RMK AO2
14837KMSN MSN20021117082509511/17/02 08:25:31  5-MIN KMSN 171425Z 36006KT 8SM CLR M05/M07 A3012 680 88 -1500 360/06 RMK AO2
14837KMSN MSN20021117083009511/17/02 08:30:31  5-MIN KMSN 171430Z 34006KT 9SM CLR M05/M07 A3012 680 84 -1500 340/06 RMK AO2
14837KMSN MSN20021117083509611/17/02 08:35:31  5-MIN KMSN 171435Z 35005KT 10SM CLR M04/M07 A3012 680 81 -1500 350/05 RMK AO2
14837KMSN MSN20021117084009611/17/02 08:40:31  5-MIN KMSN 171440Z 36004KT 10SM CLR M04/M07 A3012 680 81 -1500 360/04 RMK AO2
14837KMSN MSN20021117084509611/17/02 08:45:31  5-MIN KMSN 171445Z 36005KT 10SM CLR M04/M07 A3012 680 84 -1500 360/05 RMK AO2
14837KMSN MSN20021117085011911/17/02 08:50:31  5-MIN KMSN 171450Z 36007KT 10SM CLR M04/M06 A3012 680 85 -1400 360/07 RMK AO2 SLP213 T10391061 55001
14837KMSN MSN20021117085509611/17/02 08:55:31  5-MIN KMSN 171455Z 02007KT 10SM CLR M04/M06 A3012 680 85 -1400 010/07 RMK AO2
14837KMSN MSN20021117090009611/17/02 09:00:31  5-MIN KMSN 171500Z 35005KT 10SM CLR M04/M06 A3012 680 85 -1400 350/05 RMK AO2
14837KMSN MSN20021117090509611/17/02 09:05:31  5-MIN KMSN 171505Z 36005KT 10SM CLR M03/M06 A3012 680 81 -1300 350/05 RMK AO2
14837KMSN MSN20021117091009611/17/02 09:10:31  5-MIN KMSN 171510Z 36005KT 10SM CLR M03/M06 A3012 680 81 -1300 350/05 RMK AO2
14837KMSN MSN20021117091509611/17/02 09:15:31  5-MIN KMSN 171515Z 35005KT 10SM CLR M03/M06 A3012 680 85 -1300 350/05 RMK AO2
14837KMSN MSN20021117092009611/17/02 09:20:31  5-MIN KMSN 171520Z 36005KT 10SM CLR M03/M06 A3012 680 81 -1300 360/05 RMK AO2
14837KMSN MSN20021117092509611/17/02 09:25:31  5-MIN KMSN 171525Z 35006KT 10SM CLR M03/M06 A3012 680 81 -1200 350/06 RMK AO2
14837KMSN MSN20021117093009611/17/02 09:30:31  5-MIN KMSN 171530Z 36005KT 10SM CLR M03/M06 A3012 680 81 -1300 360/05 RMK AO2
14837KMSN MSN20021117093509611/17/02 09:35:31  5-MIN KMSN 171535Z 36005KT 10SM CLR M03/M06 A3012 680 81 -1200 360/05 RMK AO2
14837KMSN MSN20021117094009611/17/02 09:40:31  5-MIN KMSN 171540Z 34006KT 10SM CLR M03/M06 A3012 680 81 -1200 340/06 RMK AO2
14837KMSN MSN20021117094509611/17/02 09:45:31  5-MIN KMSN 171545Z 01006KT 10SM CLR M02/M06 A3012 680 78 -1200 010/06 RMK AO2
14837KMSN MSN20021117095011311/17/02 09:50:31  5-MIN KMSN 171550Z 36006KT 10SM CLR M02/M06 A3012 680 78 -1200 360/06 RMK AO2 SLP211 T10221056
14837KMSN MSN20021117095509611/17/02 09:55:31  5-MIN KMSN 171555Z 02005KT 10SM CLR M02/M05 A3012 680 78 -1100 020/05 RMK AO2
14837KMSN MSN20021117100009611/17/02 10:00:31  5-MIN KMSN 171600Z 01007KT 10SM CLR M02/M04 A3012 680 81 -1100 010/07 RMK AO2
14837KMSN MSN20021117100509611/17/02 10:05:31  5-MIN KMSN 171605Z 01007KT 10SM CLR M02/M05 A3012 680 78 -1100 010/07 RMK AO2
14837KMSN MSN20021117101009611/17/02 10:10:31  5-MIN KMSN 171610Z 02006KT 10SM CLR M02/M05 A3012 680 78 -1100 020/06 RMK AO2
14837KMSN MSN20021117101509611/17/02 10:15:31  5-MIN KMSN 171615Z 01006KT 10SM CLR M02/M04 A3012 680 81 -1100 010/06 RMK AO2
14837KMSN MSN20021117102009611/17/02 10:20:31  5-MIN KMSN 171620Z 01006KT 10SM CLR M01/M05 A3012 680 75 -1000 010/06 RMK AO2
14837KMSN MSN20021117102509611/17/02 10:25:31  5-MIN KMSN 171625Z 01007KT 10SM CLR M01/M05 A3011 680 75 -1000 010/07 RMK AO2
14837KMSN MSN20021117103009611/17/02 10:30:31  5-MIN KMSN 171630Z VRB05KT 10SM CLR M01/M05 A3011 690 75 -1000 VRB/05 RMK AO2
14837KMSN MSN20021117103509611/17/02 10:35:31  5-MIN KMSN 171635Z VRB04KT 10SM CLR M02/M06 A3011 690 75 -1100 VRB/04 RMK AO2
14837KMSN MSN20021117104011211/17/02 10:40:31  5-MIN KMSN 171640Z 03007KT 010V080 10SM CLR M01/M04 A3011 690 75 -1000 030/07 010V080 RMK AO2
14837KMSN MSN20021117104509611/17/02 10:45:31  5-MIN KMSN 171645Z 02006KT 10SM CLR M01/M05 A3011 690 72 -1000 020/06 RMK AO2
14837KMSN MSN20021117105011211/17/02 10:50:31  5-MIN KMSN 171650Z 02008KT 10SM CLR M01/M05 A3011 690 72 -900 020/08 RMK AO2 SLP206 T10061050
14837KMSN MSN20021117105509511/17/02 10:55:31  5-MIN KMSN 171655Z 03007KT 10SM CLR M01/M06 A3010 700 69 -900 030/07 RMK AO2
14837KMSN MSN20021117110009511/17/02 11:00:31  5-MIN KMSN 171700Z 06007KT 10SM CLR M01/M06 A3010 700 66 -900 060/07 RMK AO2
14837KMSN MSN20021117110509511/17/02 11:05:31  5-MIN KMSN 171705Z 06004KT 10SM CLR M01/M06 A3010 700 66 -900 060/04 RMK AO2
14837KMSN MSN20021117111011011/17/02 11:10:31  5-MIN KMSN 171710Z 02007KT 340V040 10SM CLR 00/M06 A3010 700 63 -900 020/07 340V040 RMK AO2
14837KMSN MSN20021117111509511/17/02 11:15:31  5-MIN KMSN 171715Z 02005KT 10SM CLR M01/M07 A3009 710 63 -900 020/05 RMK AO2
14837KMSN MSN20021117112009411/17/02 11:20:31  5-MIN KMSN 171720Z 05006KT 10SM CLR 00/M06 A3009 710 63 -900 050/06 RMK AO2
14837KMSN MSN20021117112509411/17/02 11:25:31  5-MIN KMSN 171725Z 05006KT 10SM CLR 00/M07 A3009 710 61 -900 050/06 RMK AO2
14837KMSN MSN20021117113009411/17/02 11:30:31  5-MIN KMSN 171730Z 07006KT 10SM CLR 00/M07 A3009 710 61 -900 070/06 RMK AO2
14837KMSN MSN20021117113509411/17/02 11:35:31  5-MIN KMSN 171735Z 04007KT 10SM CLR 00/M07 A3009 710 61 -900 040/07 RMK AO2
14837KMSN MSN20021117114009411/17/02 11:40:31  5-MIN KMSN 171740Z VRB04KT 10SM CLR 00/M07 A3008 710 58 -900 VRB/04 RMK AO2
14837KMSN MSN20021117114509411/17/02 11:45:31  5-MIN KMSN 171745Z VRB04KT 10SM CLR 00/M07 A3008 710 58 -900 VRB/04 RMK AO2
14837KMSN MSN20021117115012911/17/02 11:50:31  5-MIN KMSN 171750Z VRB05KT 10SM CLR 00/M07 A3008 710 58 -900 VRB/05 RMK AO2 SLP199 T00001072 10006 21083 52001
14837KMSN MSN20021117115509411/17/02 11:55:31  5-MIN KMSN 171755Z 36003KT 10SM CLR 01/M07 A3008 710 58 -800 360/03 RMK AO2
14837KMSN MSN20021117120009411/17/02 12:00:31  5-MIN KMSN 171800Z VRB03KT 10SM CLR 01/M07 A3008 720 56 -800 VRB/03 RMK AO2
14837KMSN MSN20021117120509711/17/02 12:05:31  5-MIN KMSN 171805Z 09005KT 10SM SCT040 01/M07 A3008 720 58 -800 090/05 RMK AO2
14837KMSN MSN20021117121009711/17/02 12:10:31  5-MIN KMSN 171810Z VRB04KT 10SM SCT040 01/M07 A3007 720 56 -700 VRB/04 RMK AO2
14837KMSN MSN20021117121509711/17/02 12:15:31  5-MIN KMSN 171815Z 35006KT 10SM SCT040 01/M07 A3007 730 54 -700 350/06 RMK AO2
14837KMSN MSN20021117122009711/17/02 12:20:31  5-MIN KMSN 171820Z 01005KT 10SM SCT031 01/M07 A3007 730 56 -800 010/05 RMK AO2
14837KMSN MSN20021117122509711/17/02 12:25:31  5-MIN KMSN 171825Z 33005KT 10SM BKN031 01/M07 A3007 730 56 -700 330/05 RMK AO2
14837KMSN MSN20021117123009711/17/02 12:30:31  5-MIN KMSN 171830Z 33004KT 10SM BKN031 00/M08 A3007 730 56 -800 330/04 RMK AO2
14837KMSN MSN20021117123509711/17/02 12:35:31  5-MIN KMSN 171835Z 36003KT 10SM SCT031 00/M08 A3006 730 56 -800 360/03 RMK AO2
14837KMSN MSN20021117124009711/17/02 12:40:31  5-MIN KMSN 171840Z 02003KT 10SM FEW031 00/M08 A3006 740 56 -800 020/03 RMK AO2
14837KMSN MSN20021117124509711/17/02 12:45:31  5-MIN KMSN 171845Z VRB03KT 10SM FEW031 00/M08 A3005 740 56 -800 VRB/03 RMK AO2
14837KMSN MSN20021117125011411/17/02 12:50:31  5-MIN KMSN 171850Z 07003KT 10SM FEW031 01/M07 A3005 740 56 -700 070/03 RMK AO2 SLP188 T00061072
14837KMSN MSN20021117125509711/17/02 12:55:31  5-MIN KMSN 171855Z VRB05KT 10SM FEW033 01/M07 A3005 750 54 -700 VRB/05 RMK AO2
14837KMSN MSN20021117130009711/17/02 13:00:31  5-MIN KMSN 171900Z VRB04KT 10SM FEW033 01/M07 A3005 750 54 -700 VRB/04 RMK AO2
14837KMSN MSN20021117130509711/17/02 13:05:31  5-MIN KMSN 171905Z VRB04KT 10SM FEW033 01/M08 A3004 750 51 -700 VRB/04 RMK AO2
14837KMSN MSN20021117131009711/17/02 13:10:31  5-MIN KMSN 171910Z 02004KT 10SM FEW033 01/M08 A3005 750 51 -700 020/04 RMK AO2
14837KMSN MSN20021117131509711/17/02 13:15:31  5-MIN KMSN 171915Z 00000KT 10SM FEW033 01/M08 A3005 750 51 -700 000/00 RMK AO2
14837KMSN MSN20021117132009411/17/02 13:20:31  5-MIN KMSN 171920Z VRB03KT 10SM CLR 01/M08 A3004 750 51 -700 VRB/03 RMK AO2
14837KMSN MSN20021117132509411/17/02 13:25:31  5-MIN KMSN 171925Z VRB03KT 10SM CLR 01/M08 A3004 750 51 -700 VRB/03 RMK AO2
14837KMSN MSN20021117133009411/17/02 13:30:31  5-MIN KMSN 171930Z 30004KT 10SM CLR 01/M08 A3005 750 54 -700 300/04 RMK AO2
14837KMSN MSN20021117133509411/17/02 13:35:31  5-MIN KMSN 171935Z 31005KT 10SM CLR 01/M08 A3005 750 54 -700 310/05 RMK AO2
14837KMSN MSN20021117134009411/17/02 13:40:31  5-MIN KMSN 171940Z VRB03KT 10SM CLR 01/M08 A3004 750 54 -700 VRB/03 RMK AO2
14837KMSN MSN20021117134509411/17/02 13:45:31  5-MIN KMSN 171945Z 00000KT 10SM CLR 01/M08 A3004 750 54 -700 000/00 RMK AO2
14837KMSN MSN20021117135011411/17/02 13:50:31  5-MIN KMSN 171950Z 25003KT 10SM FEW033 01/M08 A3004 750 51 -700 250/03 RMK AO2 SLP185 T00111078
14837KMSN MSN20021117135509411/17/02 13:55:31  5-MIN KMSN 171955Z 00000KT 10SM CLR 01/M08 A3005 750 54 -700 000/00 RMK AO2
14837KMSN MSN20021117140009411/17/02 14:00:31  5-MIN KMSN 172000Z VRB04KT 10SM CLR 01/M08 A3005 750 54 -700 VRB/04 RMK AO2
14837KMSN MSN20021117140509411/17/02 14:05:31  5-MIN KMSN 172005Z 27007KT 10SM CLR 01/M08 A3005 750 49 -700 270/07 RMK AO2
14837KMSN MSN20021117141009411/17/02 14:10:31  5-MIN KMSN 172010Z 27005KT 10SM CLR 01/M08 A3005 750 51 -700 270/05 RMK AO2
14837KMSN MSN20021117141509411/17/02 14:15:31  5-MIN KMSN 172015Z 31004KT 10SM CLR 01/M08 A3004 750 51 -700 310/04 RMK AO2
14837KMSN MSN20021117142009411/17/02 14:20:31  5-MIN KMSN 172020Z VRB03KT 10SM CLR 01/M08 A3004 750 49 -700 VRB/03 RMK AO2
14837KMSN MSN20021117142509411/17/02 14:25:31  5-MIN KMSN 172025Z VRB04KT 10SM CLR 01/M08 A3004 760 51 -700 VRB/04 RMK AO2
14837KMSN MSN20021117143009711/17/02 14:30:31  5-MIN KMSN 172030Z VRB04KT 10SM FEW036 01/M08 A3004 760 51 -700 VRB/04 RMK AO2
14837KMSN MSN20021117143509711/17/02 14:35:31  5-MIN KMSN 172035Z 00000KT 10SM FEW036 01/M08 A3004 750 51 -700 000/00 RMK AO2
14837KMSN MSN20021117144009711/17/02 14:40:31  5-MIN KMSN 172040Z VRB04KT 10SM SCT036 01/M08 A3004 750 51 -700 VRB/04 RMK AO2
14837KMSN MSN20021117144509711/17/02 14:45:31  5-MIN KMSN 172045Z 26005KT 10SM BKN036 01/M08 A3004 750 51 -700 260/05 RMK AO2
14837KMSN MSN20021117145012011/17/02 14:50:31  5-MIN KMSN 172050Z 30006KT 10SM SCT036 01/M08 A3004 750 51 -700 300/06 RMK AO2 SLP184 T00061083 58012
14837KMSN MSN20021117145509711/17/02 14:55:31  5-MIN KMSN 172055Z 28004KT 10SM SCT036 01/M08 A3004 760 51 -700 280/04 RMK AO2
14837KMSN MSN20021117150009711/17/02 15:00:31  5-MIN KMSN 172100Z VRB05KT 10SM SCT036 01/M08 A3004 760 51 -700 VRB/05 RMK AO2
14837KMSN MSN20021117150509711/17/02 15:05:31  5-MIN KMSN 172105Z 33004KT 10SM FEW036 01/M08 A3003 760 51 -700 330/04 RMK AO2
14837KMSN MSN20021117151009711/17/02 15:10:31  5-MIN KMSN 172110Z 36005KT 10SM FEW036 01/M08 A3003 760 51 -700 360/05 RMK AO2
14837KMSN MSN20021117151509411/17/02 15:15:31  5-MIN KMSN 172115Z 34003KT 10SM CLR 01/M08 A3003 760 54 -700 340/03 RMK AO2
14837KMSN MSN20021117152009411/17/02 15:20:31  5-MIN KMSN 172120Z VRB03KT 10SM CLR 00/M08 A3003 760 53 -800 VRB/03 RMK AO2
14837KMSN MSN20021117152509411/17/02 15:25:31  5-MIN KMSN 172125Z 35003KT 10SM CLR 00/M08 A3003 760 53 -800 340/03 RMK AO2
14837KMSN MSN20021117153009411/17/02 15:30:31  5-MIN KMSN 172130Z 00000KT 10SM CLR 00/M08 A3004 760 53 -800 000/00 RMK AO2
14837KMSN MSN20021117153509411/17/02 15:35:31  5-MIN KMSN 172135Z 00000KT 10SM CLR 00/M08 A3004 760 53 -800 000/00 RMK AO2
14837KMSN MSN20021117154009411/17/02 15:40:31  5-MIN KMSN 172140Z 00000KT 10SM CLR 00/M08 A3004 760 53 -800 000/00 RMK AO2
14837KMSN MSN20021117154509411/17/02 15:45:31  5-MIN KMSN 172145Z 00000KT 10SM CLR 00/M08 A3004 750 53 -800 000/00 RMK AO2
14837KMSN MSN20021117155011111/17/02 15:50:31  5-MIN KMSN 172150Z 00000KT 10SM CLR 00/M08 A3004 750 53 -800 000/00 RMK AO2 SLP185 T00001083
14837KMSN MSN20021117155509411/17/02 15:55:31  5-MIN KMSN 172155Z 00000KT 10SM CLR 01/M08 A3004 750 51 -700 000/00 RMK AO2
14837KMSN MSN20021117160009711/17/02 16:00:31  5-MIN KMSN 172200Z 29003KT 10SM FEW040 00/M08 A3004 750 53 -800 290/03 RMK AO2
14837KMSN MSN20021117160509711/17/02 16:05:31  5-MIN KMSN 172205Z 00000KT 10SM FEW040 00/M09 A3004 750 51 -800 000/00 RMK AO2
14837KMSN MSN20021117161009711/17/02 16:10:31  5-MIN KMSN 172210Z 00000KT 10SM FEW040 00/M09 A3004 750 51 -800 000/00 RMK AO2
14837KMSN MSN20021117161509711/17/02 16:15:31  5-MIN KMSN 172215Z 00000KT 10SM FEW040 00/M09 A3004 750 51 -800 000/00 RMK AO2
14837KMSN MSN20021117162009711/17/02 16:20:31  5-MIN KMSN 172220Z 00000KT 10SM FEW040 00/M09 A3004 750 51 -800 000/00 RMK AO2
14837KMSN MSN20021117162509811/17/02 16:25:31  5-MIN KMSN 172225Z 00000KT 10SM FEW040 M01/M08 A3004 750 56 -900 000/00 RMK AO2
14837KMSN MSN20021117163009811/17/02 16:30:31  5-MIN KMSN 172230Z 00000KT 10SM FEW040 M01/M08 A3004 760 56 -900 000/00 RMK AO2
14837KMSN MSN20021117163509811/17/02 16:35:31  5-MIN KMSN 172235Z 00000KT 10SM FEW040 M01/M08 A3004 760 58 -900 000/00 RMK AO2
14837KMSN MSN20021117164009611/17/02 16:40:31  5-MIN KMSN 172240Z 00000KT 10SM CLR M02/M09 A3004 760 58 -1000 000/00 RMK AO2
14837KMSN MSN20021117164509511/17/02 16:45:31  5-MIN KMSN 172245Z 00000KT 10SM CLR M01/M09 A3003 760 53 -900 000/00 RMK AO2
14837KMSN MSN20021117165011211/17/02 16:50:31  5-MIN KMSN 172250Z 00000KT 10SM CLR M01/M09 A3003 760 55 -900 000/00 RMK AO2 SLP183 T10111089
14837KMSN MSN20021117165509611/17/02 16:55:31  5-MIN KMSN 172255Z 00000KT 10SM CLR M02/M08 A3004 760 60 -1000 000/00 RMK AO2
14837KMSN MSN20021117170009611/17/02 17:00:31  5-MIN KMSN 172300Z 00000KT 10SM CLR M02/M09 A3004 760 58 -1000 000/00 RMK AO2
14837KMSN MSN20021117170509611/17/02 17:05:31  5-MIN KMSN 172305Z 00000KT 10SM CLR M02/M09 A3004 760 60 -1100 000/00 RMK AO2
14837KMSN MSN20021117171009611/17/02 17:10:31  5-MIN KMSN 172310Z 00000KT 10SM CLR M03/M09 A3004 760 63 -1200 000/00 RMK AO2
14837KMSN MSN20021117171509611/17/02 17:15:31  5-MIN KMSN 172315Z 00000KT 10SM CLR M02/M09 A3003 760 58 -1100 000/00 RMK AO2
14837KMSN MSN20021117172009611/17/02 17:20:31  5-MIN KMSN 172320Z 00000KT 10SM CLR M02/M09 A3004 760 58 -1100 000/00 RMK AO2
14837KMSN MSN20021117172509611/17/02 17:25:31  5-MIN KMSN 172325Z 00000KT 10SM CLR M03/M09 A3004 760 60 -1200 000/00 RMK AO2
14837KMSN MSN20021117173009611/17/02 17:30:31  5-MIN KMSN 172330Z 00000KT 10SM CLR M03/M09 A3004 760 60 -1200 000/00 RMK AO2
14837KMSN MSN20021117173509611/17/02 17:35:31  5-MIN KMSN 172335Z 00000KT 10SM CLR M03/M08 A3004 750 68 -1200 000/00 RMK AO2
14837KMSN MSN20021117174009611/17/02 17:40:31  5-MIN KMSN 172340Z 00000KT 10SM CLR M03/M08 A3004 750 68 -1200 000/00 RMK AO2
14837KMSN MSN20021117174509611/17/02 17:45:31  5-MIN KMSN 172345Z 00000KT 10SM CLR M03/M09 A3004 760 65 -1200 000/00 RMK AO2
14837KMSN MSN20021117175013111/17/02 17:50:31  5-MIN KMSN 172350Z 00000KT 10SM CLR M03/M09 A3004 750 65 -1200 000/00 RMK AO2 SLP186 T10331089 10017 21033 56015
14837KMSN MSN20021117175509611/17/02 17:55:31  5-MIN KMSN 172355Z 00000KT 10SM CLR M03/M09 A3004 750 65 -1200 000/00 RMK AO2
14837KMSN MSN20021117180009611/17/02 18:00:31  5-MIN KMSN 180000Z 00000KT 10SM CLR M04/M08 A3004 750 71 -1300 000/00 RMK AO2
14837KMSN MSN20021117180509611/17/02 18:05:31  5-MIN KMSN 180005Z 00000KT 10SM CLR M03/M08 A3004 750 68 -1200 000/00 RMK AO2
14837KMSN MSN20021117181009611/17/02 18:10:31  5-MIN KMSN 180010Z 00000KT 10SM CLR M03/M08 A3004 750 68 -1200 000/00 RMK AO2
14837KMSN MSN20021117181509611/17/02 18:15:31  5-MIN KMSN 180015Z 00000KT 10SM CLR M03/M08 A3004 750 68 -1200 000/00 RMK AO2
14837KMSN MSN20021117182009611/17/02 18:20:31  5-MIN KMSN 180020Z 00000KT 10SM CLR M03/M08 A3004 750 68 -1200 000/00 RMK AO2
14837KMSN MSN20021117182509611/17/02 18:25:31  5-MIN KMSN 180025Z 00000KT 10SM CLR M03/M08 A3004 750 68 -1200 000/00 RMK AO2
14837KMSN MSN20021117183009611/17/02 18:30:31  5-MIN KMSN 180030Z 00000KT 10SM CLR M03/M08 A3005 750 68 -1200 000/00 RMK AO2
14837KMSN MSN20021117183509611/17/02 18:35:31  5-MIN KMSN 180035Z 00000KT 10SM CLR M03/M08 A3005 750 68 -1200 000/00 RMK AO2
14837KMSN MSN20021117184009611/17/02 18:40:31  5-MIN KMSN 180040Z 00000KT 10SM CLR M03/M08 A3005 750 68 -1200 000/00 RMK AO2
14837KMSN MSN20021117184509611/17/02 18:45:31  5-MIN KMSN 180045Z 00000KT 10SM CLR M03/M08 A3004 750 68 -1200 000/00 RMK AO2
14837KMSN MSN20021117185011311/17/02 18:50:31  5-MIN KMSN 180050Z 00000KT 10SM CLR M03/M08 A3005 750 68 -1200 000/00 RMK AO2 SLP188 T10331083
14837KMSN MSN20021117185509611/17/02 18:55:31  5-MIN KMSN 180055Z 00000KT 10SM CLR M04/M08 A3005 750 71 -1300 000/00 RMK AO2
14837KMSN MSN20021117190009611/17/02 19:00:31  5-MIN KMSN 180100Z 00000KT 10SM CLR M04/M08 A3005 750 74 -1300 000/00 RMK AO2
14837KMSN MSN20021117190509611/17/02 19:05:31  5-MIN KMSN 180105Z 00000KT 10SM CLR M04/M08 A3005 750 74 -1300 000/00 RMK AO2
14837KMSN MSN20021117191009611/17/02 19:10:31  5-MIN KMSN 180110Z 00000KT 10SM CLR M04/M08 A3005 750 74 -1300 000/00 RMK AO2
14837KMSN MSN20021117191509611/17/02 19:15:31  5-MIN KMSN 180115Z 00000KT 10SM CLR M05/M08 A3005 750 77 -1400 000/00 RMK AO2
14837KMSN MSN20021117192009611/17/02 19:20:31  5-MIN KMSN 180120Z 00000KT 10SM CLR M05/M09 A3005 750 74 -1400 000/00 RMK AO2
14837KMSN MSN20021117192509611/17/02 19:25:31  5-MIN KMSN 180125Z 00000KT 10SM CLR M05/M08 A3005 750 77 -1400 000/00 RMK AO2
14837KMSN MSN20021117193009611/17/02 19:30:31  5-MIN KMSN 180130Z 00000KT 10SM CLR M05/M08 A3005 750 77 -1400 000/00 RMK AO2
14837KMSN MSN20021117193509611/17/02 19:35:31  5-MIN KMSN 180135Z 00000KT 10SM CLR M04/M08 A3004 750 74 -1400 000/00 RMK AO2
14837KMSN MSN20021117194009611/17/02 19:40:31  5-MIN KMSN 180140Z 00000KT 10SM CLR M04/M08 A3004 750 74 -1400 000/00 RMK AO2
14837KMSN MSN20021117194509611/17/02 19:45:31  5-MIN KMSN 180145Z 00000KT 10SM CLR M05/M08 A3004 750 77 -1400 000/00 RMK AO2
14837KMSN MSN20021117195011311/17/02 19:50:31  5-MIN KMSN 180150Z 00000KT 10SM CLR M06/M08 A3004 750 84 -1500 000/00 RMK AO2 SLP187 T10561078
14837KMSN MSN20021117195509611/17/02 19:55:31  5-MIN KMSN 180155Z 00000KT 10SM CLR M06/M08 A3005 750 84 -1500 000/00 RMK AO2
14837KMSN MSN20021117200009611/17/02 20:00:31  5-MIN KMSN 180200Z 00000KT 10SM CLR M05/M08 A3005 750 81 -1400 000/00 RMK AO2
14837KMSN MSN20021117200509611/17/02 20:05:31  5-MIN KMSN 180205Z 00000KT 10SM CLR M05/M08 A3004 750 77 -1400 000/00 RMK AO2
14837KMSN MSN20021117201009611/17/02 20:10:31  5-MIN KMSN 180210Z 00000KT 10SM CLR M05/M08 A3004 750 77 -1400 000/00 RMK AO2
14837KMSN MSN20021117201509611/17/02 20:15:31  5-MIN KMSN 180215Z 00000KT 10SM CLR M05/M09 A3004 750 74 -1400 000/00 RMK AO2
14837KMSN MSN20021117202009611/17/02 20:20:31  5-MIN KMSN 180220Z 00000KT 10SM CLR M05/M08 A3004 750 77 -1400 000/00 RMK AO2
14837KMSN MSN20021117202509611/17/02 20:25:31  5-MIN KMSN 180225Z 00000KT 10SM CLR M06/M09 A3005 750 77 -1500 000/00 RMK AO2
14837KMSN MSN20021117203009611/17/02 20:30:31  5-MIN KMSN 180230Z 00000KT 10SM CLR M06/M08 A3005 750 81 -1500 000/00 RMK AO2
14837KMSN MSN20021117203509611/17/02 20:35:31  5-MIN KMSN 180235Z 00000KT 10SM CLR M06/M08 A3005 750 81 -1500 000/00 RMK AO2
14837KMSN MSN20021117204009611/17/02 20:40:31  5-MIN KMSN 180240Z 00000KT 10SM CLR M06/M08 A3005 750 84 -1600 000/00 RMK AO2
14837KMSN MSN20021117204509611/17/02 20:45:31  5-MIN KMSN 180245Z 00000KT 10SM CLR M06/M09 A3005 750 81 -1600 000/00 RMK AO2
14837KMSN MSN20021117205011911/17/02 20:50:31  5-MIN KMSN 180250Z 00000KT 10SM CLR M06/M09 A3005 750 81 -1600 000/00 RMK AO2 SLP188 T10611089 52001
14837KMSN MSN20021117205509611/17/02 20:55:31  5-MIN KMSN 180255Z 00000KT 10SM CLR M06/M08 A3005 750 81 -1500 000/00 RMK AO2
14837KMSN MSN20021117210009611/17/02 21:00:31  5-MIN KMSN 180300Z 00000KT 10SM CLR M06/M08 A3005 750 84 -1600 000/00 RMK AO2
14837KMSN MSN20021117210509611/17/02 21:05:31  5-MIN KMSN 180305Z 00000KT 10SM CLR M06/M08 A3004 750 81 -1500 000/00 RMK AO2
14837KMSN MSN20021117211009611/17/02 21:10:31  5-MIN KMSN 180310Z 00000KT 10SM CLR M06/M09 A3004 750 74 -1500 000/00 RMK AO2
14837KMSN MSN20021117211509611/17/02 21:15:31  5-MIN KMSN 180315Z 00000KT 10SM CLR M06/M09 A3005 750 77 -1500 000/00 RMK AO2
14837KMSN MSN20021117212009611/17/02 21:20:31  5-MIN KMSN 180320Z 00000KT 10SM CLR M06/M09 A3004 750 77 -1500 000/00 RMK AO2
14837KMSN MSN20021117212509611/17/02 21:25:31  5-MIN KMSN 180325Z 00000KT 10SM CLR M06/M09 A3005 750 77 -1500 000/00 RMK AO2
14837KMSN MSN20021117213009611/17/02 21:30:31  5-MIN KMSN 180330Z 15003KT 10SM CLR M06/M08 A3004 750 81 -1500 150/03 RMK AO2
14837KMSN MSN20021117213509611/17/02 21:35:31  5-MIN KMSN 180335Z 14003KT 10SM CLR M06/M09 A3004 760 77 -1500 140/03 RMK AO2
14837KMSN MSN20021117214009611/17/02 21:40:31  5-MIN KMSN 180340Z 00000KT 10SM CLR M06/M08 A3004 760 81 -1500 000/00 RMK AO2
14837KMSN MSN20021117214509611/17/02 21:45:31  5-MIN KMSN 180345Z 00000KT 10SM CLR M06/M09 A3004 760 77 -1500 000/00 RMK AO2
14837KMSN MSN20021117215011311/17/02 21:50:31  5-MIN KMSN 180350Z 00000KT 10SM CLR M06/M09 A3004 760 77 -1600 000/00 RMK AO2 SLP184 T10611094
14837KMSN MSN20021117215509611/17/02 21:55:31  5-MIN KMSN 180355Z 00000KT 10SM CLR M06/M09 A3004 750 77 -1600 000/00 RMK AO2
14837KMSN MSN20021117220009611/17/02 22:00:31  5-MIN KMSN 180400Z 00000KT 10SM CLR M06/M09 A3004 760 81 -1600 000/00 RMK AO2
14837KMSN MSN20021117220509611/17/02 22:05:31  5-MIN KMSN 180405Z 00000KT 10SM CLR M06/M09 A3004 750 77 -1500 000/00 RMK AO2
14837KMSN MSN20021117221009611/17/02 22:10:31  5-MIN KMSN 180410Z 00000KT 10SM CLR M06/M08 A3004 750 84 -1600 000/00 RMK AO2
14837KMSN MSN20021117221509611/17/02 22:15:31  5-MIN KMSN 180415Z 20003KT 10SM CLR M07/M09 A3005 750 84 -1700 200/03 RMK AO2
14837KMSN MSN20021117222009611/17/02 22:20:31  5-MIN KMSN 180420Z 00000KT 10SM CLR M07/M09 A3005 750 84 -1700 000/00 RMK AO2
14837KMSN MSN20021117222509611/17/02 22:25:31  5-MIN KMSN 180425Z 00000KT 10SM CLR M07/M09 A3004 750 84 -1700 000/00 RMK AO2
14837KMSN MSN20021117223009611/17/02 22:30:31  5-MIN KMSN 180430Z 00000KT 10SM CLR M06/M08 A3004 760 84 -1600 000/00 RMK AO2
14837KMSN MSN20021117223509611/17/02 22:35:31  5-MIN KMSN 180435Z 00000KT 10SM CLR M06/M08 A3004 760 81 -1500 000/00 RMK AO2
14837KMSN MSN20021117224009611/17/02 22:40:31  5-MIN KMSN 180440Z 00000KT 10SM CLR M06/M08 A3004 760 84 -1600 000/00 RMK AO2
14837KMSN MSN20021117224509611/17/02 22:45:31  5-MIN KMSN 180445Z 00000KT 10SM CLR M07/M09 A3004 760 81 -1700 000/00 RMK AO2
14837KMSN MSN20021117225011311/17/02 22:50:31  5-MIN KMSN 180450Z 00000KT 10SM CLR M06/M09 A3004 760 81 -1600 000/00 RMK AO2 SLP184 T10611089
14837KMSN MSN20021117225509611/17/02 22:55:31  5-MIN KMSN 180455Z 00000KT 10SM CLR M06/M10 A3004 750 74 -1600 000/00 RMK AO2
14837KMSN MSN20021117230009611/17/02 23:00:31  5-MIN KMSN 180500Z 00000KT 10SM CLR M07/M09 A3004 750 81 -1700 000/00 RMK AO2
14837KMSN MSN20021117230509611/17/02 23:05:31  5-MIN KMSN 180505Z 00000KT 10SM CLR M06/M09 A3004 750 81 -1600 000/00 RMK AO2
14837KMSN MSN20021117231009611/17/02 23:10:31  5-MIN KMSN 180510Z 00000KT 10SM CLR M07/M09 A3004 750 84 -1700 000/00 RMK AO2
14837KMSN MSN20021117231509611/17/02 23:15:31  5-MIN KMSN 180515Z 00000KT 10SM CLR M07/M09 A3004 750 84 -1700 000/00 RMK AO2
14837KMSN MSN20021117232009611/17/02 23:20:31  5-MIN KMSN 180520Z 00000KT 10SM CLR M06/M09 A3004 750 81 -1600 000/00 RMK AO2
14837KMSN MSN20021117232509611/17/02 23:25:31  5-MIN KMSN 180525Z 00000KT 10SM CLR M06/M09 A3004 750 81 -1600 000/00 RMK AO2
14837KMSN MSN20021117233009611/17/02 23:30:31  5-MIN KMSN 180530Z 00000KT 10SM CLR M07/M08 A3004 750 88 -1700 000/00 RMK AO2
14837KMSN MSN20021117233509611/17/02 23:35:31  5-MIN KMSN 180535Z 00000KT 10SM CLR M07/M08 A3004 750 88 -1700 000/00 RMK AO2
14837KMSN MSN20021117234009611/17/02 23:40:31  5-MIN KMSN 180540Z 00000KT 10SM CLR M06/M08 A3004 750 84 -1600 000/00 RMK AO2
14837KMSN MSN20021117234509611/17/02 23:45:31  5-MIN KMSN 180545Z 00000KT 10SM CLR M06/M08 A3005 750 84 -1600 000/00 RMK AO2
14837KMSN MSN20021117235014111/17/02 23:50:31  5-MIN KMSN 180550Z 00000KT 10SM CLR M06/M08 A3005 750 84 -1600 000/00 RMK AO2 SLP186 T10611083 11028 21072 400171083 51002
14837KMSN MSN20021117235509611/17/02 23:55:31  5-MIN KMSN 180555Z 00000KT 10SM CLR M07/M09 A3004 750 84 -1700 000/00 RMK AO2
14837KMSN MSN20021118000009611/18/02 00:00:31  5-MIN KMSN 180600Z 00000KT 10SM CLR M07/M09 A3004 750 84 -1700 000/00 RMK AO2
14837KMSN MSN20021118000509611/18/02 00:05:31  5-MIN KMSN 180605Z 00000KT 10SM CLR M07/M08 A3004 750 88 -1700 000/00 RMK AO2
14837KMSN MSN20021118001009611/18/02 00:10:31  5-MIN KMSN 180610Z 00000KT 10SM CLR M07/M09 A3004 750 84 -1700 000/00 RMK AO2
14837KMSN MSN20021118001509611/18/02 00:15:31  5-MIN KMSN 180615Z 00000KT 10SM CLR M07/M09 A3004 750 88 -1700 000/00 RMK AO2
14837KMSN MSN20021118002009611/18/02 00:20:31  5-MIN KMSN 180620Z 00000KT 10SM CLR M07/M09 A3004 750 84 -1700 000/00 RMK AO2
14837KMSN MSN20021118002509611/18/02 00:25:31  5-MIN KMSN 180625Z 00000KT 10SM CLR M06/M08 A3004 750 84 -1600 000/00 RMK AO2
14837KMSN MSN20021118003009611/18/02 00:30:31  5-MIN KMSN 180630Z 16003KT 10SM CLR M06/M08 A3004 750 84 -1600 160/03 RMK AO2
14837KMSN MSN20021118003509611/18/02 00:35:31  5-MIN KMSN 180635Z 00000KT 10SM CLR M06/M08 A3004 750 84 -1600 000/00 RMK AO2
14837KMSN MSN20021118004009611/18/02 00:40:31  5-MIN KMSN 180640Z 00000KT 10SM CLR M06/M08 A3004 760 84 -1600 000/00 RMK AO2
14837KMSN MSN20021118004509611/18/02 00:45:31  5-MIN KMSN 180645Z 14003KT 10SM CLR M06/M08 A3003 760 84 -1600 140/03 RMK AO2
14837KMSN MSN20021118005011311/18/02 00:50:31  5-MIN KMSN 180650Z 00000KT 10SM CLR M07/M09 A3004 760 84 -1700 000/00 RMK AO2 SLP183 T10671089
14837KMSN MSN20021118005509611/18/02 00:55:31  5-MIN KMSN 180655Z 00000KT 10SM CLR M06/M08 A3004 760 84 -1600 000/00 RMK AO2
14837KMSN MSN20021118010009611/18/02 01:00:31  5-MIN KMSN 180700Z 00000KT 10SM CLR M07/M09 A3004 750 88 -1700 000/00 RMK AO2
14837KMSN MSN20021118010509511/18/02 01:05:31  5-MIN KMSN 180705Z 00000KT 9SM CLR M08/M09 A3004 750 88 -1800 000/00 RMK AO2
14837KMSN MSN20021118011009511/18/02 01:10:31  5-MIN KMSN 180710Z 00000KT 9SM CLR M07/M08 A3004 750 92 -1700 000/00 RMK AO2
14837KMSN MSN20021118011509511/18/02 01:15:31  5-MIN KMSN 180715Z 00000KT 9SM CLR M07/M08 A3004 750 92 -1700 000/00 RMK AO2
14837KMSN MSN20021118012009511/18/02 01:20:31  5-MIN KMSN 180720Z 00000KT 9SM CLR M06/M08 A3004 760 88 -1600 000/00 RMK AO2
14837KMSN MSN20021118012509611/18/02 01:25:31  5-MIN KMSN 180725Z 00000KT 10SM CLR M05/M07 A3003 760 84 -1400 000/00 RMK AO2
14837KMSN MSN20021118013009611/18/02 01:30:31  5-MIN KMSN 180730Z 00000KT 10SM CLR M05/M08 A3004 760 81 -1400 000/00 RMK AO2
14837KMSN MSN20021118013509511/18/02 01:35:31  5-MIN KMSN 180735Z 00000KT 9SM CLR M07/M09 A3004 760 84 -1700 000/00 RMK AO2
14837KMSN MSN20021118014009511/18/02 01:40:31  5-MIN KMSN 180740Z 00000KT 9SM CLR M07/M09 A3004 760 84 -1700 000/00 RMK AO2
14837KMSN MSN20021118014509511/18/02 01:45:31  5-MIN KMSN 180745Z 00000KT 9SM CLR M06/M08 A3004 760 84 -1600 000/00 RMK AO2
14837KMSN MSN20021118015011311/18/02 01:50:31  5-MIN KMSN 180750Z 00000KT 10SM CLR M06/M09 A3004 760 77 -1500 000/00 RMK AO2 SLP183 T10561089
14837KMSN MSN20021118015509611/18/02 01:55:31  5-MIN KMSN 180755Z 00000KT 10SM CLR M07/M09 A3004 760 81 -1700 000/00 RMK AO2
14837KMSN MSN20021118020009611/18/02 02:00:31  5-MIN KMSN 180800Z 00000KT 10SM CLR M07/M09 A3003 760 81 -1600 000/00 RMK AO2
14837KMSN MSN20021118020509611/18/02 02:05:31  5-MIN KMSN 180805Z 09003KT 10SM CLR M06/M09 A3003 760 81 -1600 090/03 RMK AO2
14837KMSN MSN20021118021009611/18/02 02:10:31  5-MIN KMSN 180810Z 10003KT 10SM CLR M07/M09 A3003 760 81 -1600 100/03 RMK AO2
14837KMSN MSN20021118021509611/18/02 02:15:31  5-MIN KMSN 180815Z 00000KT 10SM CLR M07/M09 A3003 760 84 -1600 000/00 RMK AO2
14837KMSN MSN20021118022009611/18/02 02:20:31  5-MIN KMSN 180820Z 00000KT 10SM CLR M06/M08 A3003 760 84 -1600 000/00 RMK AO2
14837KMSN MSN20021118022509611/18/02 02:25:31  5-MIN KMSN 180825Z 00000KT 10SM CLR M07/M09 A3003 760 84 -1700 000/00 RMK AO2
14837KMSN MSN20021118023009511/18/02 02:30:31  5-MIN KMSN 180830Z 20004KT 9SM CLR M07/M09 A3004 760 88 -1700 200/04 RMK AO2
14837KMSN MSN20021118023509511/18/02 02:35:31  5-MIN KMSN 180835Z 18004KT 9SM CLR M07/M08 A3003 760 92 -1600 180/04 RMK AO2
14837KMSN MSN20021118024009511/18/02 02:40:31  5-MIN KMSN 180840Z 16003KT 9SM CLR M06/M08 A3003 760 88 -1600 160/03 RMK AO2
14837KMSN MSN20021118024509511/18/02 02:45:31  5-MIN KMSN 180845Z 16003KT 9SM CLR M06/M08 A3003 760 88 -1600 160/03 RMK AO2
14837KMSN MSN20021118025011811/18/02 02:50:31  5-MIN KMSN 180850Z 16004KT 9SM CLR M05/M08 A3003 760 81 -1400 160/04 RMK AO2 SLP181 T10501078 55001
14837KMSN MSN20021118025509611/18/02 02:55:31  5-MIN KMSN 180855Z 16003KT 10SM CLR M04/M07 A3003 770 81 -1400 160/03 RMK AO2
14837KMSN MSN20021118030009611/18/02 03:00:31  5-MIN KMSN 180900Z 16003KT 10SM CLR M04/M07 A3002 770 81 -1400 160/03 RMK AO2
14837KMSN MSN20021118030509611/18/02 03:05:31  5-MIN KMSN 180905Z 17003KT 10SM CLR M04/M08 A3003 770 78 -1400 170/03 RMK AO2
14837KMSN MSN20021118031009611/18/02 03:10:31  5-MIN KMSN 180910Z 00000KT 10SM CLR M05/M08 A3003 770 81 -1400 000/00 RMK AO2
14837KMSN MSN20021118031509611/18/02 03:15:31  5-MIN KMSN 180915Z 16003KT 10SM CLR M05/M08 A3003 770 81 -1400 150/03 RMK AO2
14837KMSN MSN20021118032009611/18/02 03:20:31  5-MIN KMSN 180920Z 16003KT 10SM CLR M06/M08 A3002 770 81 -1500 160/03 RMK AO2
14837KMSN MSN20021118032509611/18/02 03:25:31  5-MIN KMSN 180925Z 16004KT 10SM CLR M05/M08 A3003 760 81 -1400 160/04 RMK AO2
14837KMSN MSN20021118033009611/18/02 03:30:31  5-MIN KMSN 180930Z 00000KT 10SM CLR M06/M08 A3003 760 84 -1600 000/00 RMK AO2
14837KMSN MSN20021118033509611/18/02 03:35:31  5-MIN KMSN 180935Z 16003KT 10SM CLR M06/M08 A3003 760 84 -1600 160/03 RMK AO2
14837KMSN MSN20021118034009611/18/02 03:40:31  5-MIN KMSN 180940Z 15003KT 10SM CLR M06/M08 A3003 760 88 -1600 150/03 RMK AO2
14837KMSN MSN20021118034509611/18/02 03:45:31  5-MIN KMSN 180945Z 16003KT 10SM CLR M06/M08 A3003 760 84 -1500 160/03 RMK AO2
14837KMSN MSN20021118035011311/18/02 03:50:31  5-MIN KMSN 180950Z 00000KT 10SM CLR M06/M08 A3003 760 84 -1500 000/00 RMK AO2 SLP180 T10561078
14837KMSN MSN20021118035509611/18/02 03:55:31  5-MIN KMSN 180955Z 00000KT 10SM CLR M05/M08 A3002 770 81 -1400 000/00 RMK AO2
14837KMSN MSN20021118040009611/18/02 04:00:31  5-MIN KMSN 181000Z 16003KT 10SM CLR M05/M08 A3002 770 81 -1400 160/03 RMK AO2
14837KMSN MSN20021118040509611/18/02 04:05:31  5-MIN KMSN 181005Z 15004KT 10SM CLR M05/M08 A3002 770 81 -1400 150/04 RMK AO2
14837KMSN MSN20021118041009611/18/02 04:10:31  5-MIN KMSN 181010Z 16004KT 10SM CLR M04/M08 A3002 770 78 -1300 160/04 RMK AO2
14837KMSN MSN20021118041509611/18/02 04:15:31  5-MIN KMSN 181015Z 16004KT 10SM CLR M04/M08 A3002 770 78 -1300 160/04 RMK AO2
14837KMSN MSN20021118042009611/18/02 04:20:31  5-MIN KMSN 181020Z 15004KT 10SM CLR M04/M08 A3002 770 78 -1300 150/04 RMK AO2
14837KMSN MSN20021118042509611/18/02 04:25:31  5-MIN KMSN 181025Z 17005KT 10SM CLR M05/M08 A3002 770 81 -1400 160/05 RMK AO2
14837KMSN MSN20021118043009611/18/02 04:30:31  5-MIN KMSN 181030Z 17004KT 10SM CLR M04/M08 A3002 770 78 -1300 170/04 RMK AO2
14837KMSN MSN20021118043509611/18/02 04:35:31  5-MIN KMSN 181035Z 16004KT 10SM CLR M04/M08 A3002 770 78 -1400 160/04 RMK AO2
14837KMSN MSN20021118044009611/18/02 04:40:31  5-MIN KMSN 181040Z 16004KT 10SM CLR M04/M08 A3003 770 78 -1400 160/04 RMK AO2
14837KMSN MSN20021118044509611/18/02 04:45:31  5-MIN KMSN 181045Z 16005KT 10SM CLR M04/M08 A3003 770 78 -1400 160/05 RMK AO2
14837KMSN MSN20021118045011211/18/02 04:50:31  5-MIN KMSN 181050Z 17005KT 9SM CLR M05/M08 A3003 770 81 -1400 160/05 RMK AO2 SLP179 T10501078
14837KMSN MSN20021118045509511/18/02 04:55:31  5-MIN KMSN 181055Z 17005KT 9SM CLR M04/M07 A3003 770 81 -1400 170/05 RMK AO2
14837KMSN MSN20021118050009511/18/02 05:00:31  5-MIN KMSN 181100Z 16006KT 9SM CLR M04/M07 A3003 760 78 -1300 160/06 RMK AO2
14837KMSN MSN20021118050509511/18/02 05:05:31  5-MIN KMSN 181105Z 16006KT 9SM CLR M04/M07 A3002 770 81 -1400 150/06 RMK AO2
14837KMSN MSN20021118051009611/18/02 05:10:31  5-MIN KMSN 181110Z 15005KT 10SM CLR M05/M08 A3002 770 81 -1400 150/05 RMK AO2
14837KMSN MSN20021118051509611/18/02 05:15:31  5-MIN KMSN 181115Z 16005KT 10SM CLR M04/M08 A3002 770 78 -1400 160/05 RMK AO2
14837KMSN MSN20021118052009611/18/02 05:20:31  5-MIN KMSN 181120Z 17004KT 10SM CLR M04/M07 A3002 770 81 -1400 170/04 RMK AO2
14837KMSN MSN20021118052509511/18/02 05:25:31  5-MIN KMSN 181125Z 18004KT 9SM CLR M04/M07 A3002 770 81 -1400 180/04 RMK AO2
14837KMSN MSN20021118053009511/18/02 05:30:31  5-MIN KMSN 181130Z 18005KT 9SM CLR M04/M07 A3002 770 81 -1300 180/05 RMK AO2
14837KMSN MSN20021118053509611/18/02 05:35:31  5-MIN KMSN 181135Z 19004KT 10SM CLR M03/M06 A3002 770 81 -1200 180/04 RMK AO2
14837KMSN MSN20021118054009611/18/02 05:40:31  5-MIN KMSN 181140Z 18006KT 10SM CLR M03/M06 A3002 770 78 -1100 180/06 RMK AO2
14837KMSN MSN20021118054509611/18/02 05:45:31  5-MIN KMSN 181145Z 17006KT 10SM CLR M03/M06 A3002 770 78 -1100 170/06 RMK AO2
14837KMSN MSN20021118055013011/18/02 05:50:31  5-MIN KMSN 181150Z 16007KT 9SM CLR M04/M07 A3002 780 81 -1300 160/07 RMK AO2 SLP177 T10391067 11028 21078 58006
14837KMSN MSN20021118055509511/18/02 05:55:31  5-MIN KMSN 181155Z 16008KT 9SM CLR M04/M07 A3001 780 81 -1300 160/08 RMK AO2
14837KMSN MSN20021118060009611/18/02 06:00:31  5-MIN KMSN 181200Z 15007KT 10SM CLR M04/M07 A3001 780 81 -1300 150/07 RMK AO2
14837KMSN MSN20021118060509611/18/02 06:05:31  5-MIN KMSN 181205Z 16007KT 10SM CLR M04/M07 A3001 780 81 -1300 160/07 RMK AO2
14837KMSN MSN20021118061009611/18/02 06:10:31  5-MIN KMSN 181210Z 15008KT 10SM CLR M03/M07 A3001 780 78 -1200 150/08 RMK AO2
14837KMSN MSN20021118061509611/18/02 06:15:31  5-MIN KMSN 181215Z 16007KT 10SM CLR M03/M07 A3002 780 78 -1200 160/07 RMK AO2
14837KMSN MSN20021118062009611/18/02 06:20:31  5-MIN KMSN 181220Z 16007KT 10SM CLR M03/M07 A3002 770 78 -1200 160/07 RMK AO2
14837KMSN MSN20021118062509611/18/02 06:25:31  5-MIN KMSN 181225Z 16006KT 10SM CLR M03/M07 A3002 770 78 -1200 160/06 RMK AO2
14837KMSN MSN20021118063009511/18/02 06:30:31  5-MIN KMSN 181230Z 14005KT 9SM CLR M04/M07 A3001 780 81 -1300 140/05 RMK AO2
14837KMSN MSN20021118063509511/18/02 06:35:31  5-MIN KMSN 181235Z 15008KT 9SM CLR M04/M07 A3000 790 81 -1300 150/08 RMK AO2
14837KMSN MSN20021118064009511/18/02 06:40:31  5-MIN KMSN 181240Z 15007KT 9SM CLR M03/M07 A3000 790 78 -1200 150/07 RMK AO2
14837KMSN MSN20021118064509511/18/02 06:45:31  5-MIN KMSN 181245Z 15008KT 9SM CLR M03/M06 A3000 790 81 -1200 150/08 RMK AO2
14837KMSN MSN20021118065011211/18/02 06:50:31  5-MIN KMSN 181250Z 15007KT 9SM CLR M03/M06 A3000 790 81 -1200 150/07 RMK AO2 SLP172 T10331061
14837KMSN MSN20021118065509511/18/02 06:55:31  5-MIN KMSN 181255Z 15007KT 9SM CLR M03/M06 A3001 780 81 -1200 150/07 RMK AO2
14837KMSN MSN20021118070009511/18/02 07:00:31  5-MIN KMSN 181300Z 15007KT 9SM CLR M03/M07 A3000 790 78 -1200 150/07 RMK AO2
14837KMSN MSN20021118070509511/18/02 07:05:31  5-MIN KMSN 181305Z 14006KT 8SM CLR M03/M07 A3000 790 78 -1200 140/06 RMK AO2
14837KMSN MSN20021118071009511/18/02 07:10:31  5-MIN KMSN 181310Z 14005KT 7SM CLR M03/M07 A3000 790 78 -1200 140/05 RMK AO2
14837KMSN MSN20021118071509511/18/02 07:15:31  5-MIN KMSN 181315Z 13005KT 7SM CLR M04/M07 A3000 790 81 -1300 130/05 RMK AO2
14837KMSN MSN20021118072009511/18/02 07:20:31  5-MIN KMSN 181320Z 13005KT 7SM CLR M03/M06 A3000 790 81 -1200 130/05 RMK AO2
14837KMSN MSN20021118072509511/18/02 07:25:31  5-MIN KMSN 181325Z 14006KT 7SM CLR M03/M06 A3001 790 78 -1100 140/06 RMK AO2
14837KMSN MSN20021118073009811/18/02 07:30:31  5-MIN KMSN 181330Z 15006KT 7SM FEW120 M03/M06 A3001 790 78 -1100 150/06 RMK AO2
14837KMSN MSN20021118073509811/18/02 07:35:31  5-MIN KMSN 181335Z 14006KT 7SM SCT120 M03/M06 A3000 790 81 -1100 140/06 RMK AO2
14837KMSN MSN20021118074010111/18/02 07:40:31  5-MIN KMSN 181340Z 15007KT 6SM HZ SCT120 M03/M06 A3000 790 81 -1100 140/07 RMK AO2
14837KMSN MSN20021118074510111/18/02 07:45:31  5-MIN KMSN 181345Z 16007KT 6SM HZ SCT120 M03/M06 A3001 790 81 -1100 160/07 RMK AO2
14837KMSN MSN20021118075011511/18/02 07:50:31  5-MIN KMSN 181350Z 16007KT 7SM BKN120 M03/M06 A3000 790 81 -1100 160/07 RMK AO2 SLP173 T10281056
14837KMSN MSN20021118075510111/18/02 07:55:31  5-MIN KMSN 181355Z 15007KT 6SM HZ BKN120 M02/M06 A3000 790 78 -1000 150/07 RMK AO2
14837KMSN MSN20021118080010111/18/02 08:00:31  5-MIN KMSN 181400Z 15007KT 6SM HZ BKN120 M02/M05 A3000 790 81 -1000 150/07 RMK AO2
14837KMSN MSN20021118080509811/18/02 08:05:31  5-MIN KMSN 181405Z 14007KT 7SM BKN120 M02/M05 A3000 790 81 -1000 140/07 RMK AO2
14837KMSN MSN20021118081009811/18/02 08:10:31  5-MIN KMSN 181410Z 15007KT 7SM OVC120 M02/M05 A3000 790 78 -1000 150/07 RMK AO2
14837KMSN MSN20021118081509811/18/02 08:15:31  5-MIN KMSN 181415Z 15008KT 7SM OVC120 M02/M05 A3000 790 78 -1000 150/08 RMK AO2
14837KMSN MSN20021118082009811/18/02 08:20:31  5-MIN KMSN 181420Z 16009KT 7SM OVC120 M02/M05 A3000 790 78 -1000 160/09 RMK AO2
14837KMSN MSN20021118082509711/18/02 08:25:31  5-MIN KMSN 181425Z 16010KT 7SM OVC120 M01/M05 A3000 790 75 -900 160/10 RMK AO2
14837KMSN MSN20021118083009711/18/02 08:30:31  5-MIN KMSN 181430Z 16009KT 7SM BKN120 M01/M05 A3000 790 75 -900 160/09 RMK AO2
14837KMSN MSN20021118083509711/18/02 08:35:31  5-MIN KMSN 181435Z 16009KT 8SM BKN120 M01/M05 A3000 790 75 -900 160/09 RMK AO2
14837KMSN MSN20021118084009711/18/02 08:40:31  5-MIN KMSN 181440Z 16009KT 8SM BKN120 M01/M04 A3000 790 78 -900 160/09 RMK AO2
14837KMSN MSN20021118084509711/18/02 08:45:31  5-MIN KMSN 181445Z 16006KT 8SM BKN120 M01/M04 A3001 790 78 -900 160/06 RMK AO2
14837KMSN MSN20021118085012011/18/02 08:50:31  5-MIN KMSN 181450Z 17006KT 8SM BKN120 M01/M04 A3001 780 75 -800 160/06 RMK AO2 SLP174 T10061044 58004
14837KMSN MSN20021118085509711/18/02 08:55:31  5-MIN KMSN 181455Z 17009KT 8SM BKN120 M01/M04 A3001 780 75 -800 160/09 RMK AO2
14837KMSN MSN20021118090009711/18/02 09:00:31  5-MIN KMSN 181500Z 16008KT 8SM BKN120 M01/M04 A3001 790 78 -800 160/08 RMK AO2
14837KMSN MSN20021118090509611/18/02 09:05:31  5-MIN KMSN 181505Z 15009KT 8SM BKN120 00/M04 A3000 790 75 -800 150/09 RMK AO2
14837KMSN MSN20021118091009611/18/02 09:10:31  5-MIN KMSN 181510Z 15007KT 8SM SCT120 00/M04 A3001 790 72 -800 150/07 RMK AO2
14837KMSN MSN20021118091509611/18/02 09:15:31  5-MIN KMSN 181515Z 15008KT 8SM SCT120 00/M04 A3000 790 75 -800 150/08 RMK AO2
14837KMSN MSN20021118092009611/18/02 09:20:31  5-MIN KMSN 181520Z 14008KT 8SM FEW110 00/M04 A3000 790 75 -800 140/08 RMK AO2
14837KMSN MSN20021118092509311/18/02 09:25:31  5-MIN KMSN 181525Z 14007KT 8SM CLR 00/M04 A3000 790 75 -800 140/07 RMK AO2
14837KMSN MSN20021118093009311/18/02 09:30:31  5-MIN KMSN 181530Z 13006KT 8SM CLR 00/M04 A3000 790 75 -800 130/06 RMK AO2
14837KMSN MSN20021118093509311/18/02 09:35:31  5-MIN KMSN 181535Z 13006KT 8SM CLR 00/M04 A3000 790 72 -800 130/06 RMK AO2
14837KMSN MSN20021118094009611/18/02 09:40:31  5-MIN KMSN 181540Z 12006KT 8SM FEW120 00/M04 A3000 790 75 -800 120/06 RMK AO2
14837KMSN MSN20021118094509611/18/02 09:45:31  5-MIN KMSN 181545Z 15005KT 8SM SCT120 01/M04 A3001 780 72 -700 140/05 RMK AO2
14837KMSN MSN20021118095011311/18/02 09:50:31  5-MIN KMSN 181550Z 14007KT 8SM SCT120 01/M04 A3001 780 69 -700 140/07 RMK AO2 SLP174 T00061044
14837KMSN MSN20021118095509611/18/02 09:55:31  5-MIN KMSN 181555Z 14005KT 8SM SCT110 01/M04 A3001 780 72 -700 130/05 RMK AO2
14837KMSN MSN20021118100009611/18/02 10:00:31  5-MIN KMSN 181600Z VRB05KT 8SM SCT110 01/M04 A3001 780 69 -700 VRB/05 RMK AO2
14837KMSN MSN20021118100509611/18/02 10:05:31  5-MIN KMSN 181605Z 15005KT 8SM SCT110 01/M04 A3001 780 72 -700 150/05 RMK AO2
14837KMSN MSN20021118101009611/18/02 10:10:31  5-MIN KMSN 181610Z 15007KT 8SM SCT110 01/M04 A3001 780 69 -600 150/07 RMK AO2
14837KMSN MSN20021118101509611/18/02 10:15:31  5-MIN KMSN 181615Z 16006KT 8SM SCT110 01/M04 A3002 780 69 -600 150/06 RMK AO2
14837KMSN MSN20021118102009611/18/02 10:20:31  5-MIN KMSN 181620Z 15006KT 8SM SCT110 01/M03 A3001 780 72 -600 150/06 RMK AO2
14837KMSN MSN20021118102509611/18/02 10:25:31  5-MIN KMSN 181625Z 15006KT 8SM SCT110 01/M04 A3001 780 69 -600 140/06 RMK AO2
14837KMSN MSN20021118103009611/18/02 10:30:31  5-MIN KMSN 181630Z 15006KT 8SM SCT110 01/M04 A3001 780 69 -600 150/06 RMK AO2
14837KMSN MSN20021118103509611/18/02 10:35:31  5-MIN KMSN 181635Z 14006KT 8SM SCT110 01/M03 A3001 780 72 -600 140/06 RMK AO2
14837KMSN MSN20021118104009611/18/02 10:40:31  5-MIN KMSN 181640Z 16007KT 8SM SCT110 02/M03 A3001 780 69 -600 160/07 RMK AO2
14837KMSN MSN20021118104509611/18/02 10:45:31  5-MIN KMSN 181645Z 16006KT 8SM SCT110 02/M03 A3001 790 69 -600 160/06 RMK AO2
14837KMSN MSN20021118105011311/18/02 10:50:31  5-MIN KMSN 181650Z 16008KT 8SM SCT110 02/M03 A3000 790 69 -600 160/08 RMK AO2 SLP171 T00171033
14837KMSN MSN20021118105509611/18/02 10:55:31  5-MIN KMSN 181655Z 16007KT 6SM HZ CLR 02/M03 A3000 790 69 -600 150/07 RMK AO2
14837KMSN MSN20021118110009311/18/02 11:00:31  5-MIN KMSN 181700Z 16006KT 8SM CLR 02/M03 A3000 790 69 -500 160/06 RMK AO2
14837KMSN MSN20021118110509311/18/02 11:05:31  5-MIN KMSN 181705Z 16007KT 8SM CLR 02/M03 A3000 790 67 -500 160/07 RMK AO2
14837KMSN MSN20021118111009311/18/02 11:10:31  5-MIN KMSN 181710Z 16008KT 8SM CLR 02/M03 A3000 790 67 -500 160/08 RMK AO2
14837KMSN MSN20021118111509611/18/02 11:15:31  5-MIN KMSN 181715Z 15008KT 8SM FEW100 02/M03 A3000 790 69 -500 150/08 RMK AO2
14837KMSN MSN20021118112009611/18/02 11:20:31  5-MIN KMSN 181720Z 16009KT 8SM BKN100 02/M03 A3000 790 67 -500 160/09 RMK AO2
14837KMSN MSN20021118112509611/18/02 11:25:31  5-MIN KMSN 181725Z 16011KT 8SM BKN100 02/M03 A2999 800 67 -500 160/11 RMK AO2
14837KMSN MSN20021118113009611/18/02 11:30:31  5-MIN KMSN 181730Z 16009KT 8SM BKN100 02/M03 A2999 800 67 -500 160/09 RMK AO2
14837KMSN MSN20021118113509611/18/02 11:35:31  5-MIN KMSN 181735Z 14008KT 8SM BKN100 02/M03 A2998 810 69 -500 140/08 RMK AO2
14837KMSN MSN20021118114009611/18/02 11:40:31  5-MIN KMSN 181740Z 16009KT 8SM BKN100 03/M03 A2998 810 67 -400 150/09 RMK AO2
14837KMSN MSN20021118114509611/18/02 11:45:31  5-MIN KMSN 181745Z 15009KT 8SM BKN070 03/M03 A2998 810 67 -400 150/09 RMK AO2
14837KMSN MSN20021118115013111/18/02 11:50:31  5-MIN KMSN 181750Z 15010KT 8SM BKN070 03/M03 A2998 810 67 -400 150/10 RMK AO2 SLP162 T00281028 10028 21039 55003
14837KMSN MSN20021118115509611/18/02 11:55:31  5-MIN KMSN 181755Z 15011KT 8SM BKN065 03/M03 A2997 820 67 -400 150/11 RMK AO2
14837KMSN MSN20021118120009611/18/02 12:00:31  5-MIN KMSN 181800Z 15010KT 8SM BKN065 03/M03 A2997 820 67 -400 150/10 RMK AO2
14837KMSN MSN20021118120509611/18/02 12:05:31  5-MIN KMSN 181805Z 14010KT 8SM BKN065 03/M03 A2996 830 67 -400 140/10 RMK AO2
14837KMSN MSN20021118121009611/18/02 12:10:31  5-MIN KMSN 181810Z 14008KT 8SM BKN065 03/M03 A2996 830 67 -400 140/08 RMK AO2
14837KMSN MSN20021118121509611/18/02 12:15:31  5-MIN KMSN 181815Z 16008KT 8SM BKN065 03/M02 A2996 830 69 -400 160/08 RMK AO2
14837KMSN MSN20021118122012611/18/02 12:20:31  5-MIN KMSN 181820Z 17009KT 7SM -RA SCT048 BKN060 BKN070 03/M02 A2996 830 72 -400 170/09 RMK AO2 RAB16 P0000
14837KMSN MSN20021118122511811/18/02 12:25:31  5-MIN KMSN 181825Z 16011KT 7SM SCT048 BKN065 03/M01 A2995 830 75 -400 160/11 RMK AO2 RAB16E25 P0000
14837KMSN MSN20021118123011811/18/02 12:30:31  5-MIN KMSN 181830Z 16010KT 7SM SCT048 OVC065 02/M01 A2995 840 78 -400 150/10 RMK AO2 RAB16E25 P0000
14837KMSN MSN20021118123511911/18/02 12:35:31  5-MIN KMSN 181835Z 15010KT 5SM -RA BKN048 OVC065 02/M01 A2994 840 78 -400 150/10 RMK AO2 RAB16 P0000
14837KMSN MSN20021118124011911/18/02 12:40:31  5-MIN KMSN 181840Z 16008KT 6SM -RA BKN046 OVC065 03/M01 A2995 840 75 -400 160/08 RMK AO2 RAB16 P0000
14837KMSN MSN20021118124512611/18/02 12:45:31  5-MIN KMSN 181845Z 16007KT 5SM -RA BKN046 BKN050 OVC065 03/M01 A2995 840 79 -400 160/07 RMK AO2 RAB16 P0000
14837KMSN MSN20021118125013611/18/02 12:50:31  5-MIN KMSN 181850Z 15008KT 5SM -RA BKN048 OVC060 03/M01 A2994 840 79 -300 150/08 RMK AO2 RAB16 SLP149 P0000 T00281006
14837KMSN MSN20021118125511311/18/02 12:55:31  5-MIN KMSN 181855Z 15008KT 5SM -RA BKN046 OVC060 03/M01 A2994 850 79 -300 150/08 RMK AO2 P0000
14837KMSN MSN20021118130012011/18/02 13:00:31  5-MIN KMSN 181900Z 16008KT 6SM HZ BKN048 BKN060 03/M01 A2994 840 79 -300 160/08 RMK AO2 RAE1857 P0000
14837KMSN MSN20021118130512011/18/02 13:05:31  5-MIN KMSN 181905Z 16010KT 6SM HZ SCT048 BKN060 03/M01 A2994 850 79 -300 160/10 RMK AO2 RAE1857 P0000
14837KMSN MSN20021118131012011/18/02 13:10:31  5-MIN KMSN 181910Z 14009KT 6SM HZ SCT048 BKN060 03/M01 A2993 850 79 -300 140/09 RMK AO2 RAE1857 P0000
14837KMSN MSN20021118131512011/18/02 13:15:31  5-MIN KMSN 181915Z 14008KT 6SM HZ FEW048 BKN060 03/M01 A2992 860 79 -300 130/08 RMK AO2 RAE1857 P0000
14837KMSN MSN20021118132012311/18/02 13:20:31  5-MIN KMSN 181920Z 16007KT 5SM -RA FEW046 BKN060 03/00 A2994 850 82 -300 160/07 RMK AO2 RAE1857B16 P0000
14837KMSN MSN20021118132511911/18/02 13:25:31  5-MIN KMSN 181925Z 17009KT 6SM HZ BKN060 03/M01 A2994 840 79 -300 170/09 RMK AO2 RAE1857B16E24 P0000
14837KMSN MSN20021118133011911/18/02 13:30:31  5-MIN KMSN 181930Z 18008KT 6SM HZ BKN060 03/M01 A2994 850 79 -300 170/08 RMK AO2 RAE1857B16E24 P0000
14837KMSN MSN20021118133511811/18/02 13:35:31  5-MIN KMSN 181935Z 16008KT 6SM HZ BKN060 03/00 A2993 850 82 -300 160/08 RMK AO2 RAE1857B16E24 P0000
14837KMSN MSN20021118134011811/18/02 13:40:31  5-MIN KMSN 181940Z 16009KT 6SM HZ BKN060 03/00 A2993 860 82 -300 160/09 RMK AO2 RAE1857B16E24 P0000
14837KMSN MSN20021118134511811/18/02 13:45:31  5-MIN KMSN 181945Z 16008KT 5SM HZ BKN060 03/00 A2993 860 82 -300 160/08 RMK AO2 RAE1857B16E24 P0000
14837KMSN MSN20021118135013511/18/02 13:50:31  5-MIN KMSN 181950Z 16009KT 5SM HZ SCT060 03/00 A2993 860 82 -300 160/09 RMK AO2 RAE1857B16E24 SLP145 P0000 T00280000
14837KMSN MSN20021118135509811/18/02 13:55:31  5-MIN KMSN 181955Z 16008KT 5SM HZ SCT060 03/00 A2993 860 82 -300 160/08 RMK AO2
14837KMSN MSN20021118140010511/18/02 14:00:31  5-MIN KMSN 182000Z 17007KT 5SM HZ FEW048 BKN060 03/00 A2993 860 82 -300 170/07 RMK AO2
14837KMSN MSN20021118140510511/18/02 14:05:31  5-MIN KMSN 182005Z 16008KT 5SM HZ FEW043 BKN060 03/00 A2993 850 82 -300 160/08 RMK AO2
14837KMSN MSN20021118141009811/18/02 14:10:31  5-MIN KMSN 182010Z 16008KT 5SM HZ FEW043 03/00 A2993 860 82 -300 160/08 RMK AO2
14837KMSN MSN20021118141509811/18/02 14:15:31  5-MIN KMSN 182015Z 15006KT 5SM HZ SCT045 03/00 A2992 860 82 -300 150/06 RMK AO2
14837KMSN MSN20021118142009811/18/02 14:20:31  5-MIN KMSN 182020Z 16008KT 5SM HZ SCT045 03/00 A2992 860 82 -300 160/08 RMK AO2
14837KMSN MSN20021118142509811/18/02 14:25:31  5-MIN KMSN 182025Z 16006KT 5SM BR SCT045 03/01 A2992 870 85 -300 160/06 RMK AO2
14837KMSN MSN20021118143009811/18/02 14:30:31  5-MIN KMSN 182030Z 16007KT 6SM BR SCT060 03/01 A2991 870 85 -300 160/07 RMK AO2
14837KMSN MSN20021118143509811/18/02 14:35:31  5-MIN KMSN 182035Z 16007KT 6SM HZ SCT060 03/00 A2991 870 82 -300 160/07 RMK AO2
14837KMSN MSN20021118144011111/18/02 14:40:31  5-MIN KMSN 182040Z 15007KT 5SM -RA BKN055 03/01 A2991 880 85 -300 150/07 RMK AO2 RAB37 P0000
14837KMSN MSN20021118144511811/18/02 14:45:31  5-MIN KMSN 182045Z 14006KT 5SM -RA SCT042 BKN055 03/01 A2990 880 85 -300 140/06 RMK AO2 RAB37 P0000
14837KMSN MSN20021118145014711/18/02 14:50:31  5-MIN KMSN 182050Z 17007KT 5SM -RA SCT045 BKN055 03/01 A2991 870 85 -300 170/07 RMK AO2 RAB37 SLP140 P0000 60000 T00280006 58011
14837KMSN MSN20021118145511211/18/02 14:55:31  5-MIN KMSN 182055Z 17004KT 4SM -RA FEW043 OVC050 03/01 A2991 870 85 -300 170/04 RMK AO2 P0000
14837KMSN MSN20021118150011211/18/02 15:00:31  5-MIN KMSN 182100Z 19003KT 4SM -RA SCT041 OVC050 03/01 A2992 870 85 -300 190/03 RMK AO2 P0000
14837KMSN MSN20021118150511211/18/02 15:05:31  5-MIN KMSN 182105Z 18004KT 4SM -RA SCT039 OVC050 03/01 A2992 870 85 -300 180/04 RMK AO2 P0000
14837KMSN MSN20021118151011211/18/02 15:10:31  5-MIN KMSN 182110Z 17004KT 4SM -RA SCT039 OVC050 03/01 A2992 870 89 -300 160/04 RMK AO2 P0001
14837KMSN MSN20021118151511511/18/02 15:15:31  5-MIN KMSN 182115Z 19004KT 4SM -RA BR SCT039 OVC050 03/01 A2993 860 89 -300 190/04 RMK AO2 P0001
14837KMSN MSN20021118152012411/18/02 15:20:31  5-MIN KMSN 182120Z 19003KT 4SM -RA BR SCT037 OVC050 03/01 A2993 860 89 -300 190/03 RMK AO2 UPB18E20 P0001
14837KMSN MSN20021118152512211/18/02 15:25:31  5-MIN KMSN 182125Z 18003KT 4SM -RA BR SCT013 BKN035 OVC050 03/01 A2993 860 89 -300 180/03 RMK AO2 P0001
14837KMSN MSN20021118153013611/18/02 15:30:31  5-MIN KMSN 182130Z 16004KT 2 1/2SM -RA BR FEW013 BKN035 OVC050 03/01 A2992 860 89 -300 160/04 RMK AO2 SFC VIS 3 P0001
14837KMSN MSN20021118153512211/18/02 15:35:31  5-MIN KMSN 182135Z 17004KT 3SM -RA BR SCT013 BKN033 OVC050 03/01 A2993 860 89 -300 160/04 RMK AO2 P0001
14837KMSN MSN20021118154012211/18/02 15:40:31  5-MIN KMSN 182140Z 17005KT 3SM -RA BR SCT013 BKN033 BKN050 03/01 A2993 860 89 -300 170/05 RMK AO2 P0001
14837KMSN MSN20021118154512211/18/02 15:45:31  5-MIN KMSN 182145Z 15007KT 3SM -RA BR FEW013 SCT030 BKN050 03/01 A2992 860 89 -300 150/07 RMK AO2 P0001
14837KMSN MSN20021118155013911/18/02 15:50:31  5-MIN KMSN 182150Z 16008KT 3SM -RA BR FEW013 SCT030 SCT050 03/01 A2992 860 89 -300 150/08 RMK AO2 SLP143 P0001 T00280011
14837KMSN MSN20021118155511511/18/02 15:55:31  5-MIN KMSN 182155Z 16008KT 3SM BR FEW013 SCT070 03/01 A2992 860 89 -300 150/08 RMK AO2 SFC VIS 3
14837KMSN MSN20021118160013311/18/02 16:00:31  5-MIN KMSN 182200Z 15007KT 3SM -RA BR SCT013 BKN070 03/01 A2993 860 89 -300 150/07 RMK AO2 SFC VIS 4 RAB2159 P0000
14837KMSN MSN20021118160512511/18/02 16:05:31  5-MIN KMSN 182205Z 16007KT 3SM -RA BR SCT013 BKN070 03/01 A2992 860 89 -300 160/07 RMK AO2 SFC VIS 4 P0000
14837KMSN MSN20021118161012511/18/02 16:10:31  5-MIN KMSN 182210Z 16006KT 3SM -RA BR SCT013 BKN070 03/01 A2992 860 89 -300 160/06 RMK AO2 SFC VIS 4 P0000
14837KMSN MSN20021118161512511/18/02 16:15:31  5-MIN KMSN 182215Z 16005KT 3SM -RA BR SCT013 BKN070 03/01 A2993 860 89 -300 160/05 RMK AO2 SFC VIS 4 P0000
14837KMSN MSN20021118162012511/18/02 16:20:31  5-MIN KMSN 182220Z 16005KT 3SM -RA BR SCT013 BKN070 03/01 A2993 860 89 -300 160/05 RMK AO2 SFC VIS 4 P0000
14837KMSN MSN20021118162512511/18/02 16:25:31  5-MIN KMSN 182225Z 16005KT 3SM -RA BR SCT013 BKN070 03/01 A2993 860 89 -300 160/05 RMK AO2 SFC VIS 4 P0001
14837KMSN MSN20021118163012511/18/02 16:30:31  5-MIN KMSN 182230Z 16003KT 3SM -RA BR SCT013 BKN070 03/01 A2993 850 89 -300 160/03 RMK AO2 SFC VIS 4 P0001
14837KMSN MSN20021118163512511/18/02 16:35:31  5-MIN KMSN 182235Z 00000KT 3SM -RA BR SCT013 BKN070 03/01 A2993 860 89 -300 000/00 RMK AO2 SFC VIS 4 P0001
14837KMSN MSN20021118164012511/18/02 16:40:31  5-MIN KMSN 182240Z 00000KT 3SM -RA BR SCT013 BKN070 03/01 A2993 850 89 -300 000/00 RMK AO2 SFC VIS 4 P0001
14837KMSN MSN20021118164512511/18/02 16:45:31  5-MIN KMSN 182245Z 00000KT 3SM -RA BR SCT013 BKN070 03/01 A2993 850 89 -300 000/00 RMK AO2 SFC VIS 4 P0001
14837KMSN MSN20021118165014211/18/02 16:50:31  5-MIN KMSN 182250Z 00000KT 3SM -RA BR FEW026 OVC050 03/01 A2993 850 89 -300 000/00 RMK AO2 SFC VIS 4 SLP146 P0001 T00280011
14837KMSN MSN20021118165512511/18/02 16:55:31  5-MIN KMSN 182255Z 00000KT 3SM -RA BR SCT026 OVC050 03/01 A2993 850 89 -300 000/00 RMK AO2 SFC VIS 4 P0000
14837KMSN MSN20021118170012511/18/02 17:00:31  5-MIN KMSN 182300Z 00000KT 3SM -RA BR SCT026 OVC050 03/01 A2993 850 89 -300 000/00 RMK AO2 SFC VIS 4 P0000
14837KMSN MSN20021118170512511/18/02 17:05:31  5-MIN KMSN 182305Z 00000KT 3SM -RA BR SCT026 OVC050 02/01 A2993 850 92 -400 000/00 RMK AO2 SFC VIS 4 P0000
14837KMSN MSN20021118171011511/18/02 17:10:31  5-MIN KMSN 182310Z 00000KT 3SM -RA BR SCT026 OVC050 02/01 A2994 850 92 -400 000/00 RMK AO2 P0000
14837KMSN MSN20021118171511511/18/02 17:15:31  5-MIN KMSN 182315Z 00000KT 3SM -RA BR SCT026 OVC050 02/01 A2994 850 92 -400 000/00 RMK AO2 P0001
14837KMSN MSN20021118172011511/18/02 17:20:31  5-MIN KMSN 182320Z 00000KT 3SM -RA BR BKN026 OVC050 02/02 A2994 850 96 -400 000/00 RMK AO2 P0001
14837KMSN MSN20021118172511511/18/02 17:25:31  5-MIN KMSN 182325Z 00000KT 3SM -RA BR BKN026 OVC050 02/02 A2994 840 96 -400 000/00 RMK AO2 P0001
14837KMSN MSN20021118173012211/18/02 17:30:31  5-MIN KMSN 182330Z 00000KT 3SM -RA BR FEW021 BKN026 OVC050 02/02 A2994 840 96 -400 000/00 RMK AO2 P0002
14837KMSN MSN20021118173512211/18/02 17:35:31  5-MIN KMSN 182335Z 00000KT 3SM -RA BR FEW021 BKN026 OVC050 02/02 A2994 840 96 -400 000/00 RMK AO2 P0002
14837KMSN MSN20021118174011511/18/02 17:40:31  5-MIN KMSN 182340Z 00000KT 3SM -RA BR SCT021 OVC026 02/02 A2994 840 96 -400 000/00 RMK AO2 P0002
14837KMSN MSN20021118174512211/18/02 17:45:31  5-MIN KMSN 182345Z 00000KT 3SM -RA BR FEW013 BKN021 OVC026 02/02 A2994 840 96 -400 000/00 RMK AO2 P0003
14837KMSN MSN20021118175016311/18/02 17:50:31  5-MIN KMSN 182350Z 00000KT 3SM -RA BR FEW013 BKN021 OVC026 02/02 A2994 840 96 -400 000/00 RMK AO2 SLP150 P0003 60005 T00220017 10028 20022 56019
14837KMSN MSN20021118175511511/18/02 17:55:31  5-MIN KMSN 182355Z 00000KT 3SM -RA BR BKN021 OVC028 02/02 A2995 840 96 -400 000/00 RMK AO2 P0001
14837KMSN MSN20021118180011511/18/02 18:00:31  5-MIN KMSN 190000Z 00000KT 3SM -RA BR BKN021 OVC025 02/02 A2995 840 96 -400 000/00 RMK AO2 P0001
14837KMSN MSN20021118180511511/18/02 18:05:31  5-MIN KMSN 190005Z 00000KT 3SM -RA BR FEW013 OVC021 02/02 A2995 840 96 -400 000/00 RMK AO2 P0002
14837KMSN MSN20021118181011511/18/02 18:10:31  5-MIN KMSN 190010Z 00000KT 3SM -RA BR FEW013 OVC019 02/02 A2995 840 96 -400 000/00 RMK AO2 P0002
14837KMSN MSN20021118181510811/18/02 18:15:31  5-MIN KMSN 190015Z 00000KT 3SM -RA BR OVC019 02/02 A2995 840 96 -400 000/00 RMK AO2 P0002
14837KMSN MSN20021118182010811/18/02 18:20:31  5-MIN KMSN 190020Z 00000KT 3SM -RA BR OVC019 02/01 A2995 840 96 -500 000/00 RMK AO2 P0003
14837KMSN MSN20021118182510811/18/02 18:25:31  5-MIN KMSN 190025Z 00000KT 3SM -RA BR OVC019 02/02 A2995 840 96 -400 000/00 RMK AO2 P0003
14837KMSN MSN20021118183011511/18/02 18:30:31  5-MIN KMSN 190030Z 00000KT 3SM -RA BR SCT013 OVC019 02/01 A2995 840 96 -500 000/00 RMK AO2 P0004
14837KMSN MSN20021118183512211/18/02 18:35:31  5-MIN KMSN 190035Z 00000KT 3SM -RA BR FEW006 BKN013 OVC019 02/01 A2995 840 96 -500 000/00 RMK AO2 P0004
14837KMSN MSN20021118184012211/18/02 18:40:31  5-MIN KMSN 190040Z 00000KT 3SM -RA BR FEW006 BKN011 OVC019 02/01 A2995 840 96 -500 000/00 RMK AO2 P0005
14837KMSN MSN20021118184512211/18/02 18:45:31  5-MIN KMSN 190045Z 00000KT 3SM -RA BR FEW006 BKN011 OVC019 02/01 A2995 840 96 -500 000/00 RMK AO2 P0005
14837KMSN MSN20021118185013211/18/02 18:50:31  5-MIN KMSN 190050Z 30003KT 3SM -RA BR BKN011 OVC017 02/01 A2995 840 92 -500 300/03 RMK AO2 SLP152 P0006 T00170006
14837KMSN MSN20021118185511511/18/02 18:55:31  5-MIN KMSN 190055Z 30003KT 3SM -RA BR BKN008 OVC013 02/01 A2995 840 96 -500 300/03 RMK AO2 P0000
14837KMSN MSN20021118190011411/18/02 19:00:31  5-MIN KMSN 190100Z 00000KT 3SM RA BR BKN008 OVC013 02/01 A2995 840 96 -500 000/00 RMK AO2 P0001
14837KMSN MSN20021118190511511/18/02 19:05:31  5-MIN KMSN 190105Z 00000KT 3SM -RA BR BKN008 OVC013 02/01 A2995 840 96 -500 000/00 RMK AO2 P0002
14837KMSN MSN20021118191013711/18/02 19:10:31  5-MIN KMSN 190110Z 00000KT 2 1/2SM -RASN BR BKN008 OVC013 02/01 A2995 840 96 -500 000/00 RMK AO2 TWR VIS 3 SNB07 P0003
14837KMSN MSN20021118191513711/18/02 19:15:31  5-MIN KMSN 190115Z 00000KT 2 1/2SM -RASN BR BKN010 OVC013 02/01 A2995 840 96 -500 000/00 RMK AO2 TWR VIS 3 SNB07 P0003
14837KMSN MSN20021118192012511/18/02 19:20:31  5-MIN KMSN 190120Z 00000KT 3SM -RA BR BKN010 OVC015 01/01 A2995 840 100 -600 000/00 RMK AO2 SNB07E19 P0003
14837KMSN MSN20021118192512411/18/02 19:25:31  5-MIN KMSN 190125Z 00000KT 3SM -RA BR BKN010 OVC015 01/01 A2995 840 96 -600 000/00 RMK AO2 SNB07E19 P0004
14837KMSN MSN20021118193012411/18/02 19:30:31  5-MIN KMSN 190130Z 00000KT 3SM -RA BR BKN012 OVC018 02/01 A2995 840 96 -500 000/00 RMK AO2 SNB07E19 P0004
14837KMSN MSN20021118193513111/18/02 19:35:31  5-MIN KMSN 190135Z 00000KT 3SM -RA BR BKN010 BKN014 OVC018 01/01 A2995 840 96 -600 000/00 RMK AO2 SNB07E19 P0004
14837KMSN MSN20021118194012411/18/02 19:40:31  5-MIN KMSN 190140Z 00000KT 3SM -RA BR BKN010 OVC018 01/01 A2995 840 96 -600 000/00 RMK AO2 SNB07E19 P0004
14837KMSN MSN20021118194512411/18/02 19:45:31  5-MIN KMSN 190145Z 00000KT 3SM -RA BR BKN012 OVC018 01/01 A2994 840 96 -600 000/00 RMK AO2 SNB07E19 P0004
14837KMSN MSN20021118195013511/18/02 19:50:31  5-MIN KMSN 190150Z 00000KT 3SM -RA BR OVC012 01/01 A2994 840 100 -600 000/00 RMK AO2 SNB07E19 SLP150 P0005 T00110011
14837KMSN MSN20021118195511511/18/02 19:55:31  5-MIN KMSN 190155Z 00000KT 3SM -RA BR BKN012 OVC019 01/01 A2994 840 96 -600 000/00 RMK AO2 P0000
14837KMSN MSN20021118200011511/18/02 20:00:31  5-MIN KMSN 190200Z 00000KT 3SM -RA BR BKN012 OVC030 01/01 A2994 840 96 -600 000/00 RMK AO2 P0000
14837KMSN MSN20021118200511511/18/02 20:05:31  5-MIN KMSN 190205Z 00000KT 3SM -RA BR BKN012 OVC030 01/01 A2994 850 96 -600 000/00 RMK AO2 P0001
14837KMSN MSN20021118201011511/18/02 20:10:31  5-MIN KMSN 190210Z 29003KT 3SM -RA BR BKN012 OVC028 01/01 A2994 840 96 -600 280/03 RMK AO2 P0001
14837KMSN MSN20021118201512211/18/02 20:15:31  5-MIN KMSN 190215Z 29003KT 3SM -RA BR SCT014 BKN018 OVC028 01/01 A2994 840 96 -600 290/03 RMK AO2 P0001
14837KMSN MSN20021118202012211/18/02 20:20:31  5-MIN KMSN 190220Z 30003KT 3SM -RA BR SCT014 BKN018 OVC028 01/01 A2994 840 96 -600 300/03 RMK AO2 P0002
14837KMSN MSN20021118202512211/18/02 20:25:31  5-MIN KMSN 190225Z VRB03KT 3SM -RA BR FEW012 BKN018 OVC028 01/01 A2994 840 96 -600 VRB/03 RMK AO2 P0002
14837KMSN MSN20021118203012211/18/02 20:30:31  5-MIN KMSN 190230Z 29003KT 3SM -RA BR SCT012 BKN020 OVC028 01/01 A2994 840 96 -600 290/03 RMK AO2 P0002
14837KMSN MSN20021118203511511/18/02 20:35:31  5-MIN KMSN 190235Z 29004KT 3SM -RA BR BKN017 OVC028 01/01 A2994 840 96 -600 290/04 RMK AO2 P0002
14837KMSN MSN20021118204011511/18/02 20:40:31  5-MIN KMSN 190240Z 29004KT 3SM -RA BR BKN019 OVC028 01/01 A2994 840 96 -600 290/04 RMK AO2 P0002
14837KMSN MSN20021118204512211/18/02 20:45:31  5-MIN KMSN 190245Z 28004KT 3SM -RA BR BKN021 BKN028 OVC060 01/01 A2994 850 96 -600 280/04 RMK AO2 P0002
14837KMSN MSN20021118205015111/18/02 20:50:31  5-MIN KMSN 190250Z VRB03KT 3SM -RA BR SCT023 BKN029 OVC060 01/01 A2994 850 96 -600 VRB/03 RMK AO2 SLP148 P0002 60013 T00110006 53010
14837KMSN MSN20021118205512911/18/02 20:55:31  5-MIN KMSN 190255Z 28004KT 2 1/2SM -RA BR SCT027 OVC065 01/01 A2994 850 96 -500 280/04 RMK AO2 TWR VIS 3 P0000
14837KMSN MSN20021118210012211/18/02 21:00:31  5-MIN KMSN 190300Z 30004KT 3SM -RA BR FEW020 BKN027 OVC060 01/01 A2994 850 96 -500 300/04 RMK AO2 P0000
14837KMSN MSN20021118210512211/18/02 21:05:31  5-MIN KMSN 190305Z 30004KT 3SM -RA BR FEW020 BKN027 OVC060 01/01 A2993 850 96 -500 300/04 RMK AO2 P0000
14837KMSN MSN20021118211012211/18/02 21:10:31  5-MIN KMSN 190310Z 29006KT 3SM -RA BR FEW020 BKN027 OVC060 01/00 A2993 850 92 -500 290/06 RMK AO2 P0000
14837KMSN MSN20021118211512211/18/02 21:15:31  5-MIN KMSN 190315Z 29005KT 3SM -RA BR FEW020 BKN027 OVC060 01/01 A2993 850 96 -500 290/05 RMK AO2 P0000
14837KMSN MSN20021118212012211/18/02 21:20:31  5-MIN KMSN 190320Z 29006KT 3SM -RA BR FEW020 BKN027 OVC060 01/01 A2993 850 96 -500 290/06 RMK AO2 P0000
14837KMSN MSN20021118212512211/18/02 21:25:31  5-MIN KMSN 190325Z 29005KT 3SM -RA BR FEW020 BKN027 OVC060 01/01 A2993 850 96 -500 290/05 RMK AO2 P0000
14837KMSN MSN20021118213012211/18/02 21:30:31  5-MIN KMSN 190330Z 29006KT 3SM -RA BR FEW020 BKN027 OVC060 01/01 A2993 850 96 -500 290/06 RMK AO2 P0000
14837KMSN MSN20021118213512211/18/02 21:35:31  5-MIN KMSN 190335Z 29005KT 3SM -RA BR SCT048 BKN060 OVC095 01/01 A2993 860 96 -500 290/05 RMK AO2 P0000
14837KMSN MSN20021118214013311/18/02 21:40:31  5-MIN KMSN 190340Z 29007KT 3SM -DZ BR FEW048 BKN055 BKN095 01/01 A2993 860 96 -500 290/07 RMK AO2 RAE36DZB36 P0000
14837KMSN MSN20021118214513311/18/02 21:45:31  5-MIN KMSN 190345Z 29006KT 3SM -DZ BR FEW048 BKN065 OVC100 01/01 A2993 860 96 -500 290/06 RMK AO2 RAE36DZB36 P0000
14837KMSN MSN20021118215015011/18/02 21:50:31  5-MIN KMSN 190350Z 29006KT 3SM -DZ BR FEW048 BKN070 OVC100 01/01 A2993 860 96 -500 290/06 RMK AO2 RAE36DZB36 SLP143 P0000 T00110006
14837KMSN MSN20021118215512211/18/02 21:55:31  5-MIN KMSN 190355Z 29006KT 3SM -DZ BR FEW048 SCT090 BKN110 01/01 A2993 860 96 -500 290/06 RMK AO2 P0000
14837KMSN MSN20021118220011511/18/02 22:00:31  5-MIN KMSN 190400Z 29007KT 3SM -DZ BR SCT090 BKN110 01/01 A2993 860 96 -500 290/07 RMK AO2 P0000
14837KMSN MSN20021118220512211/18/02 22:05:31  5-MIN KMSN 190405Z 30005KT 3SM -DZ BR FEW060 SCT080 BKN110 01/00 A2993 860 92 -500 290/05 RMK AO2 P0000
14837KMSN MSN20021118221011511/18/02 22:10:31  5-MIN KMSN 190410Z 29004KT 3SM -DZ BR SCT060 BKN110 01/00 A2992 860 92 -500 280/04 RMK AO2 P0000
14837KMSN MSN20021118221511511/18/02 22:15:31  5-MIN KMSN 190415Z 29004KT 3SM -DZ BR FEW060 BKN110 01/00 A2992 860 96 -600 290/04 RMK AO2 P0000
14837KMSN MSN20021118222011511/18/02 22:20:31  5-MIN KMSN 190420Z 30004KT 3SM -DZ BR FEW060 BKN120 01/00 A2992 860 96 -600 290/04 RMK AO2 P0000
14837KMSN MSN20021118222511511/18/02 22:25:31  5-MIN KMSN 190425Z 30004KT 3SM -DZ BR FEW060 SCT120 01/00 A2992 860 96 -600 290/04 RMK AO2 P0000
14837KMSN MSN20021118223010811/18/02 22:30:31  5-MIN KMSN 190430Z 29003KT 3SM -DZ BR FEW060 01/00 A2992 860 96 -600 290/03 RMK AO2 P0000
14837KMSN MSN20021118223510811/18/02 22:35:31  5-MIN KMSN 190435Z 29004KT 3SM -DZ BR FEW060 01/00 A2992 860 96 -600 290/04 RMK AO2 P0000
14837KMSN MSN20021118224011511/18/02 22:40:31  5-MIN KMSN 190440Z VRB03KT 3SM -DZ BR FEW039 SCT120 01/00 A2992 860 96 -600 VRB/03 RMK AO2 P0000
14837KMSN MSN20021118224510811/18/02 22:45:31  5-MIN KMSN 190445Z 29003KT 3SM -DZ BR BKN039 01/00 A2993 860 96 -600 290/03 RMK AO2 P0000
14837KMSN MSN20021118225012711/18/02 22:50:31  5-MIN KMSN 190450Z 29003KT 3SM BR BKN039 01/00 A2993 860 96 -600 290/03 RMK AO2 DZE49 SLP142 P0000 T00060000
14837KMSN MSN20021118225509811/18/02 22:55:31  5-MIN KMSN 190455Z 29004KT 3SM BR BKN039 01/00 A2993 860 96 -600 290/04 RMK AO2
14837KMSN MSN20021118230009911/18/02 23:00:31  5-MIN KMSN 190500Z 30003KT 3SM BR SCT039 01/M01 A2993 860 92 -600 300/03 RMK AO2
14837KMSN MSN20021118230509911/18/02 23:05:31  5-MIN KMSN 190505Z 30003KT 3SM BR SCT039 01/M01 A2993 860 92 -600 300/03 RMK AO2
14837KMSN MSN20021118231009911/18/02 23:10:31  5-MIN KMSN 190510Z 29003KT 3SM BR FEW039 01/M01 A2993 860 92 -600 290/03 RMK AO2
14837KMSN MSN20021118231510611/18/02 23:15:31  5-MIN KMSN 190515Z 29004KT 3SM BR FEW039 SCT050 01/M01 A2993 860 92 -600 290/04 RMK AO2
14837KMSN MSN20021118232009911/18/02 23:20:31  5-MIN KMSN 190520Z 30003KT 3SM BR SCT050 01/M01 A2993 860 92 -600 300/03 RMK AO2
14837KMSN MSN20021118232509911/18/02 23:25:31  5-MIN KMSN 190525Z VRB03KT 3SM BR BKN055 01/M01 A2993 860 92 -600 VRB/03 RMK AO2
14837KMSN MSN20021118233009911/18/02 23:30:31  5-MIN KMSN 190530Z 28003KT 3SM BR BKN055 01/M01 A2993 860 92 -600 280/03 RMK AO2
14837KMSN MSN20021118233509911/18/02 23:35:31  5-MIN KMSN 190535Z 28004KT 3SM BR BKN055 01/M01 A2993 850 92 -600 280/04 RMK AO2
14837KMSN MSN20021118234009911/18/02 23:40:31  5-MIN KMSN 190540Z 28004KT 3SM BR BKN055 01/M01 A2993 850 92 -600 280/04 RMK AO2
14837KMSN MSN20021118234509911/18/02 23:45:31  5-MIN KMSN 190545Z 28004KT 4SM BR SCT055 01/M01 A2993 860 92 -600 280/04 RMK AO2
14837KMSN MSN20021118235015011/18/02 23:50:31  5-MIN KMSN 190550Z VRB03KT 4SM BR FEW055 01/M01 A2993 850 92 -600 VRB/03 RMK AO2 SLP144 60013 T00061006 10022 20006 400501078 58002
14837KMSN MSN20021118235509911/18/02 23:55:31  5-MIN KMSN 190555Z 27004KT 4SM BR FEW055 00/M01 A2993 860 96 -700 270/04 RMK AO2
14837KMSN MSN20021119000009611/19/02 00:00:31  5-MIN KMSN 190600Z 28004KT 4SM BR CLR 00/M01 A2993 850 96 -700 270/04 RMK AO2
14837KMSN MSN20021119000509611/19/02 00:05:31  5-MIN KMSN 190605Z 28005KT 4SM BR CLR 00/M01 A2993 860 96 -700 280/05 RMK AO2
14837KMSN MSN20021119001009611/19/02 00:10:31  5-MIN KMSN 190610Z 29005KT 4SM BR CLR 00/M01 A2993 850 92 -700 290/05 RMK AO2
14837KMSN MSN20021119001509611/19/02 00:15:31  5-MIN KMSN 190615Z 29005KT 4SM BR CLR 00/M01 A2994 850 92 -700 290/05 RMK AO2
14837KMSN MSN20021119002009611/19/02 00:20:31  5-MIN KMSN 190620Z 29005KT 4SM BR CLR 00/M01 A2994 850 92 -700 280/05 RMK AO2
14837KMSN MSN20021119002509611/19/02 00:25:31  5-MIN KMSN 190625Z 29005KT 4SM BR CLR 01/M01 A2993 850 89 -600 290/05 RMK AO2
14837KMSN MSN20021119003009611/19/02 00:30:31  5-MIN KMSN 190630Z 29003KT 4SM BR CLR 00/M01 A2993 850 92 -700 290/03 RMK AO2
14837KMSN MSN20021119003509611/19/02 00:35:31  5-MIN KMSN 190635Z 28004KT 4SM BR CLR 00/M01 A2994 850 92 -700 280/04 RMK AO2
14837KMSN MSN20021119004009611/19/02 00:40:31  5-MIN KMSN 190640Z 28005KT 4SM BR CLR 00/M01 A2994 850 92 -700 280/05 RMK AO2
14837KMSN MSN20021119004509611/19/02 00:45:31  5-MIN KMSN 190645Z 28005KT 4SM BR CLR 00/M01 A2994 850 92 -700 280/05 RMK AO2
14837KMSN MSN20021119005011311/19/02 00:50:31  5-MIN KMSN 190650Z 28005KT 4SM BR CLR 00/M01 A2994 850 92 -700 280/05 RMK AO2 SLP146 T00001011
14837KMSN MSN20021119005509611/19/02 00:55:31  5-MIN KMSN 190655Z 29004KT 4SM BR CLR 00/M01 A2994 850 92 -700 280/04 RMK AO2
14837KMSN MSN20021119010009611/19/02 01:00:31  5-MIN KMSN 190700Z 28004KT 4SM BR CLR 00/M01 A2994 850 92 -700 280/04 RMK AO2
14837KMSN MSN20021119010509611/19/02 01:05:31  5-MIN KMSN 190705Z 28004KT 4SM BR CLR 00/M01 A2994 850 92 -700 270/04 RMK AO2
14837KMSN MSN20021119011009611/19/02 01:10:31  5-MIN KMSN 190710Z 28003KT 4SM BR CLR 00/M01 A2993 850 92 -700 280/03 RMK AO2
14837KMSN MSN20021119011509711/19/02 01:15:31  5-MIN KMSN 190715Z 28003KT 3SM BR CLR M01/M01 A2994 850 96 -800 280/03 RMK AO2
14837KMSN MSN20021119012009711/19/02 01:20:31  5-MIN KMSN 190720Z 27003KT 3SM BR CLR M01/M02 A2994 850 92 -800 270/03 RMK AO2
14837KMSN MSN20021119012509711/19/02 01:25:31  5-MIN KMSN 190725Z 28003KT 3SM BR CLR M01/M02 A2994 850 92 -800 270/03 RMK AO2
14837KMSN MSN20021119013009711/19/02 01:30:31  5-MIN KMSN 190730Z 28004KT 3SM BR CLR M01/M02 A2994 850 92 -800 270/04 RMK AO2
14837KMSN MSN20021119013509711/19/02 01:35:31  5-MIN KMSN 190735Z 28003KT 3SM BR CLR M01/M02 A2994 840 92 -800 270/03 RMK AO2
14837KMSN MSN20021119014009711/19/02 01:40:31  5-MIN KMSN 190740Z 28003KT 3SM BR CLR M01/M02 A2994 850 92 -800 270/03 RMK AO2
14837KMSN MSN20021119014509711/19/02 01:45:31  5-MIN KMSN 190745Z 28003KT 3SM BR CLR M01/M02 A2994 840 92 -800 270/03 RMK AO2
14837KMSN MSN20021119015011411/19/02 01:50:31  5-MIN KMSN 190750Z 28003KT 4SM BR CLR M01/M02 A2994 840 96 -800 270/03 RMK AO2 SLP148 T10111017
14837KMSN MSN20021119015509711/19/02 01:55:31  5-MIN KMSN 190755Z 00000KT 3SM BR CLR M01/M02 A2995 840 92 -800 000/00 RMK AO2
14837KMSN MSN20021119020009711/19/02 02:00:31  5-MIN KMSN 190800Z 00000KT 3SM BR CLR M01/M02 A2994 840 92 -800 000/00 RMK AO2
14837KMSN MSN20021119020509711/19/02 02:05:31  5-MIN KMSN 190805Z 00000KT 3SM BR CLR M01/M02 A2995 840 96 -800 000/00 RMK AO2
14837KMSN MSN20021119021009711/19/02 02:10:31  5-MIN KMSN 190810Z 00000KT 3SM BR CLR M01/M02 A2995 840 96 -800 000/00 RMK AO2
14837KMSN MSN20021119021509711/19/02 02:15:31  5-MIN KMSN 190815Z 00000KT 3SM BR CLR M01/M02 A2995 840 96 -800 000/00 RMK AO2
14837KMSN MSN20021119022009711/19/02 02:20:31  5-MIN KMSN 190820Z 00000KT 3SM BR CLR M01/M02 A2995 840 92 -800 000/00 RMK AO2
14837KMSN MSN20021119022509711/19/02 02:25:31  5-MIN KMSN 190825Z 28003KT 3SM BR CLR M01/M02 A2995 840 92 -800 270/03 RMK AO2
14837KMSN MSN20021119023009711/19/02 02:30:31  5-MIN KMSN 190830Z 28003KT 3SM BR CLR M01/M02 A2995 830 92 -800 270/03 RMK AO2
14837KMSN MSN20021119023509711/19/02 02:35:31  5-MIN KMSN 190835Z 28003KT 3SM BR CLR M01/M02 A2996 830 92 -800 270/03 RMK AO2
14837KMSN MSN20021119024009711/19/02 02:40:31  5-MIN KMSN 190840Z 00000KT 3SM BR CLR M01/M02 A2995 830 92 -800 000/00 RMK AO2
14837KMSN MSN20021119024509711/19/02 02:45:31  5-MIN KMSN 190845Z 28003KT 3SM BR CLR M01/M02 A2995 830 92 -800 270/03 RMK AO2
14837KMSN MSN20021119025012011/19/02 02:50:31  5-MIN KMSN 190850Z 00000KT 4SM BR CLR M01/M02 A2995 830 92 -800 000/00 RMK AO2 SLP151 T10111022 55003
14837KMSN MSN20021119025509711/19/02 02:55:31  5-MIN KMSN 190855Z 00000KT 4SM BR CLR M01/M02 A2995 840 92 -800 000/00 RMK AO2
14837KMSN MSN20021119030009711/19/02 03:00:31  5-MIN KMSN 190900Z 00000KT 4SM BR CLR M01/M02 A2995 840 88 -800 000/00 RMK AO2
14837KMSN MSN20021119030509711/19/02 03:05:31  5-MIN KMSN 190905Z 00000KT 4SM BR CLR M01/M02 A2995 830 88 -800 000/00 RMK AO2
14837KMSN MSN20021119031009711/19/02 03:10:31  5-MIN KMSN 190910Z 00000KT 4SM BR CLR M01/M02 A2995 830 88 -800 000/00 RMK AO2
14837KMSN MSN20021119031509711/19/02 03:15:31  5-MIN KMSN 190915Z 00000KT 4SM BR CLR M01/M02 A2995 830 88 -800 000/00 RMK AO2
14837KMSN MSN20021119032009711/19/02 03:20:31  5-MIN KMSN 190920Z 00000KT 4SM BR CLR M01/M02 A2995 830 88 -800 000/00 RMK AO2
14837KMSN MSN20021119032509711/19/02 03:25:31  5-MIN KMSN 190925Z 00000KT 4SM BR CLR M01/M02 A2995 830 88 -800 000/00 RMK AO2
14837KMSN MSN20021119033009711/19/02 03:30:31  5-MIN KMSN 190930Z 00000KT 4SM BR CLR M01/M02 A2995 830 88 -800 000/00 RMK AO2
14837KMSN MSN20021119033509711/19/02 03:35:31  5-MIN KMSN 190935Z 00000KT 4SM BR CLR M01/M02 A2995 840 88 -800 000/00 RMK AO2
14837KMSN MSN20021119034009711/19/02 03:40:31  5-MIN KMSN 190940Z 00000KT 4SM BR CLR M01/M02 A2995 840 88 -800 000/00 RMK AO2
14837KMSN MSN20021119034509711/19/02 03:45:31  5-MIN KMSN 190945Z 00000KT 4SM BR CLR M01/M02 A2995 840 88 -800 000/00 RMK AO2
14837KMSN MSN20021119035011411/19/02 03:50:31  5-MIN KMSN 190950Z 00000KT 4SM BR CLR M01/M02 A2995 840 88 -800 000/00 RMK AO2 SLP149 T10061022
14837KMSN MSN20021119035509711/19/02 03:55:31  5-MIN KMSN 190955Z 00000KT 4SM BR CLR M01/M02 A2995 840 88 -800 000/00 RMK AO2
14837KMSN MSN20021119040009711/19/02 04:00:31  5-MIN KMSN 191000Z 00000KT 4SM BR CLR M01/M02 A2995 840 92 -800 000/00 RMK AO2
14837KMSN MSN20021119040509711/19/02 04:05:31  5-MIN KMSN 191005Z 28003KT 4SM BR CLR M02/M03 A2995 840 92 -900 270/03 RMK AO2
14837KMSN MSN20021119041009711/19/02 04:10:31  5-MIN KMSN 191010Z 28003KT 4SM BR CLR M02/M03 A2995 840 88 -900 270/03 RMK AO2
14837KMSN MSN20021119041509711/19/02 04:15:31  5-MIN KMSN 191015Z 28003KT 4SM BR CLR M01/M03 A2995 840 88 -800 270/03 RMK AO2
14837KMSN MSN20021119042009711/19/02 04:20:31  5-MIN KMSN 191020Z 00000KT 4SM BR CLR M02/M03 A2995 840 92 -900 000/00 RMK AO2
14837KMSN MSN20021119042509711/19/02 04:25:31  5-MIN KMSN 191025Z 00000KT 4SM BR CLR M01/M02 A2995 840 92 -800 000/00 RMK AO2
14837KMSN MSN20021119043009711/19/02 04:30:31  5-MIN KMSN 191030Z 00000KT 3SM BR CLR M02/M03 A2995 840 92 -900 000/00 RMK AO2
14837KMSN MSN20021119043510211/19/02 04:35:31  5-MIN KMSN 191035Z 00000KT 2 1/2SM BR CLR M03/M03 A2995 840 96 -1000 000/00 RMK AO2
14837KMSN MSN20021119044009811/19/02 04:40:31  5-MIN KMSN 191040Z 00000KT 4SM BR CLR M02/M03 A2995 840 92 -1000 000/00 RMK AO2
14837KMSN MSN20021119044509811/19/02 04:45:31  5-MIN KMSN 191045Z 00000KT 4SM BR CLR M02/M03 A2995 840 96 -1000 000/00 RMK AO2
14837KMSN MSN20021119045011511/19/02 04:50:31  5-MIN KMSN 191050Z 28003KT 4SM BR CLR M03/M03 A2994 840 96 -1000 270/03 RMK AO2 SLP149 T10281033
14837KMSN MSN20021119045509811/19/02 04:55:31  5-MIN KMSN 191055Z 28003KT 4SM BR CLR M03/M03 A2995 840 96 -1000 270/03 RMK AO2
14837KMSN MSN20021119050009811/19/02 05:00:31  5-MIN KMSN 191100Z 28004KT 4SM BR CLR M03/M04 A2994 840 92 -1000 270/04 RMK AO2
14837KMSN MSN20021119050509811/19/02 05:05:31  5-MIN KMSN 191105Z 28004KT 4SM BR CLR M03/M03 A2994 840 96 -1000 270/04 RMK AO2
14837KMSN MSN20021119051009811/19/02 05:10:31  5-MIN KMSN 191110Z 28003KT 4SM BR CLR M03/M04 A2995 840 92 -1000 270/03 RMK AO2
14837KMSN MSN20021119051509811/19/02 05:15:31  5-MIN KMSN 191115Z 00000KT 4SM BR CLR M03/M04 A2995 840 92 -1000 000/00 RMK AO2
14837KMSN MSN20021119052009811/19/02 05:20:31  5-MIN KMSN 191120Z 00000KT 4SM BR CLR M03/M04 A2995 840 92 -1000 000/00 RMK AO2
14837KMSN MSN20021119052509811/19/02 05:25:31  5-MIN KMSN 191125Z 00000KT 4SM BR CLR M03/M04 A2994 840 92 -1000 000/00 RMK AO2
14837KMSN MSN20021119053009811/19/02 05:30:31  5-MIN KMSN 191130Z 28003KT 4SM BR CLR M03/M04 A2994 840 92 -1100 270/03 RMK AO2
14837KMSN MSN20021119053509811/19/02 05:35:31  5-MIN KMSN 191135Z 00000KT 4SM BR CLR M03/M04 A2995 840 92 -1100 000/00 RMK AO2
14837KMSN MSN20021119054009811/19/02 05:40:31  5-MIN KMSN 191140Z 00000KT 4SM BR CLR M03/M04 A2994 840 92 -1100 000/00 RMK AO2
14837KMSN MSN20021119054509811/19/02 05:45:31  5-MIN KMSN 191145Z 00000KT 4SM BR CLR M03/M04 A2994 840 88 -1000 000/00 RMK AO2
14837KMSN MSN20021119055013911/19/02 05:50:31  5-MIN KMSN 191150Z 28003KT 4SM BR CLR M03/M04 A2994 840 92 -1000 270/03 RMK AO2 SLP149 70018 T10281039 10006 21033 51007
14837KMSN MSN20021119055509811/19/02 05:55:31  5-MIN KMSN 191155Z 28005KT 5SM BR CLR M02/M04 A2994 840 88 -1000 270/05 RMK AO2
14837KMSN MSN20021119060009811/19/02 06:00:31  5-MIN KMSN 191200Z 28005KT 5SM BR CLR M02/M03 A2994 840 92 -1000 270/05 RMK AO2
14837KMSN MSN20021119060509711/19/02 06:05:31  5-MIN KMSN 191205Z 28003KT 5SM BR CLR M02/M03 A2994 840 88 -900 270/03 RMK AO2
14837KMSN MSN20021119061009711/19/02 06:10:31  5-MIN KMSN 191210Z 28003KT 5SM BR CLR M02/M03 A2995 840 92 -900 270/03 RMK AO2
14837KMSN MSN20021119061509811/19/02 06:15:31  5-MIN KMSN 191215Z 00000KT 5SM BR CLR M02/M04 A2995 840 88 -1000 000/00 RMK AO2
14837KMSN MSN20021119062009811/19/02 06:20:31  5-MIN KMSN 191220Z 00000KT 5SM BR CLR M02/M04 A2995 840 88 -1000 000/00 RMK AO2
14837KMSN MSN20021119062509711/19/02 06:25:31  5-MIN KMSN 191225Z 00000KT 6SM BR CLR M01/M03 A2995 840 88 -800 000/00 RMK AO2
14837KMSN MSN20021119063009711/19/02 06:30:31  5-MIN KMSN 191230Z 00000KT 6SM BR CLR M02/M03 A2995 830 88 -900 000/00 RMK AO2
14837KMSN MSN20021119063509811/19/02 06:35:31  5-MIN KMSN 191235Z 00000KT 6SM BR CLR M02/M04 A2995 830 88 -1000 000/00 RMK AO2
14837KMSN MSN20021119064009711/19/02 06:40:31  5-MIN KMSN 191240Z 00000KT 6SM BR CLR M02/M03 A2995 830 88 -900 000/00 RMK AO2
14837KMSN MSN20021119064509711/19/02 06:45:31  5-MIN KMSN 191245Z 00000KT 6SM BR CLR M02/M03 A2995 830 88 -900 000/00 RMK AO2
14837KMSN MSN20021119065011411/19/02 06:50:31  5-MIN KMSN 191250Z 28003KT 5SM BR CLR M01/M03 A2995 830 88 -800 280/03 RMK AO2 SLP153 T10111028
14837KMSN MSN20021119065509711/19/02 06:55:31  5-MIN KMSN 191255Z 28003KT 5SM BR CLR M02/M03 A2995 830 88 -900 280/03 RMK AO2
14837KMSN MSN20021119070009711/19/02 07:00:31  5-MIN KMSN 191300Z 21008KT 5SM BR CLR M02/M03 A2995 830 88 -900 210/08 RMK AO2
14837KMSN MSN20021119070509611/19/02 07:05:31  5-MIN KMSN 191305Z 21008KT 5SM BR CLR 00/M02 A2996 830 85 -700 210/08 RMK AO2
14837KMSN MSN20021119071009611/19/02 07:10:31  5-MIN KMSN 191310Z 21008KT 6SM HZ CLR 01/M02 A2996 830 82 -600 210/08 RMK AO2
14837KMSN MSN20021119071509311/19/02 07:15:31  5-MIN KMSN 191315Z 21008KT 7SM CLR 01/M02 A2996 830 82 -600 210/08 RMK AO2
14837KMSN MSN20021119072009311/19/02 07:20:31  5-MIN KMSN 191320Z 21008KT 7SM CLR 01/M02 A2996 830 85 -600 210/08 RMK AO2
14837KMSN MSN20021119072509311/19/02 07:25:31  5-MIN KMSN 191325Z 22003KT 7SM CLR 01/M02 A2996 830 82 -600 220/03 RMK AO2
14837KMSN MSN20021119073009311/19/02 07:30:31  5-MIN KMSN 191330Z 21003KT 7SM CLR 01/M01 A2996 830 85 -600 210/03 RMK AO2
14837KMSN MSN20021119073509311/19/02 07:35:31  5-MIN KMSN 191335Z 20003KT 7SM CLR 01/M01 A2996 830 85 -600 200/03 RMK AO2
14837KMSN MSN20021119074009311/19/02 07:40:31  5-MIN KMSN 191340Z VRB03KT 7SM CLR 01/M01 A2996 830 85 -600 VRB/03 RMK AO2
14837KMSN MSN20021119074509311/19/02 07:45:31  5-MIN KMSN 191345Z 00000KT 7SM CLR 02/M01 A2996 830 82 -500 000/00 RMK AO2
14837KMSN MSN20021119075011011/19/02 07:50:31  5-MIN KMSN 191350Z VRB03KT 8SM CLR 02/M01 A2996 830 82 -500 VRB/03 RMK AO2 SLP154 T00171011
14837KMSN MSN20021119075509311/19/02 07:55:31  5-MIN KMSN 191355Z 22004KT 8SM CLR 02/M01 A2996 830 78 -400 220/04 RMK AO2
14837KMSN MSN20021119080009411/19/02 08:00:31  5-MIN KMSN 191400Z 22005KT 10SM CLR 02/M01 A2996 830 78 -400 220/05 RMK AO2
14837KMSN MSN20021119080509411/19/02 08:05:31  5-MIN KMSN 191405Z VRB04KT 10SM CLR 02/M01 A2996 830 78 -400 VRB/04 RMK AO2
14837KMSN MSN20021119081009411/19/02 08:10:31  5-MIN KMSN 191410Z VRB05KT 10SM CLR 02/M01 A2996 830 78 -400 VRB/05 RMK AO2
14837KMSN MSN20021119081509411/19/02 08:15:31  5-MIN KMSN 191415Z 22004KT 10SM CLR 02/M01 A2996 830 78 -400 220/04 RMK AO2
14837KMSN MSN20021119082009411/19/02 08:20:31  5-MIN KMSN 191420Z 22004KT 10SM CLR 03/M01 A2996 830 75 -400 220/04 RMK AO2
14837KMSN MSN20021119082509411/19/02 08:25:31  5-MIN KMSN 191425Z 22007KT 10SM CLR 03/M01 A2996 830 75 -400 220/07 RMK AO2
14837KMSN MSN20021119083009411/19/02 08:30:31  5-MIN KMSN 191430Z 21007KT 10SM CLR 03/M01 A2996 830 75 -400 210/07 RMK AO2
14837KMSN MSN20021119083509411/19/02 08:35:31  5-MIN KMSN 191435Z 21007KT 10SM CLR 03/M01 A2996 830 75 -400 210/07 RMK AO2
14837KMSN MSN20021119084009411/19/02 08:40:31  5-MIN KMSN 191440Z 22009KT 10SM CLR 03/M01 A2997 820 72 -300 220/09 RMK AO2
14837KMSN MSN20021119084509411/19/02 08:45:31  5-MIN KMSN 191445Z 22009KT 10SM CLR 03/M01 A2997 820 72 -300 220/09 RMK AO2
14837KMSN MSN20021119085011711/19/02 08:50:31  5-MIN KMSN 191450Z 22009KT 10SM CLR 03/M01 A2997 820 72 -300 220/09 RMK AO2 SLP157 T00331011 56003
14837KMSN MSN20021119085509411/19/02 08:55:31  5-MIN KMSN 191455Z 23008KT 10SM CLR 03/M01 A2997 820 72 -300 230/08 RMK AO2
14837KMSN MSN20021119090011011/19/02 09:00:31  5-MIN KMSN 191500Z 23007KT 190V260 10SM CLR 03/M01 A2997 820 72 -300 230/07 190V260 RMK AO2
14837KMSN MSN20021119090509411/19/02 09:05:31  5-MIN KMSN 191505Z 22010KT 10SM CLR 04/M01 A2997 820 70 -200 220/10 RMK AO2
14837KMSN MSN20021119091009411/19/02 09:10:31  5-MIN KMSN 191510Z 23005KT 10SM CLR 04/M01 A2997 820 70 -200 230/05 RMK AO2
14837KMSN MSN20021119091509411/19/02 09:15:31  5-MIN KMSN 191515Z 23007KT 10SM CLR 04/M01 A2997 820 70 -200 230/07 RMK AO2
14837KMSN MSN20021119092009411/19/02 09:20:31  5-MIN KMSN 191520Z 22008KT 10SM CLR 04/M01 A2996 820 73 -200 220/08 RMK AO2
14837KMSN MSN20021119092509411/19/02 09:25:31  5-MIN KMSN 191525Z 22008KT 10SM CLR 04/M01 A2996 820 67 -200 220/08 RMK AO2
14837KMSN MSN20021119093009411/19/02 09:30:31  5-MIN KMSN 191530Z VRB05KT 10SM CLR 04/M01 A2996 820 67 -200 VRB/05 RMK AO2
14837KMSN MSN20021119093509411/19/02 09:35:31  5-MIN KMSN 191535Z 23006KT 10SM CLR 04/M01 A2997 820 70 -200 230/06 RMK AO2
14837KMSN MSN20021119094010011/19/02 09:40:31  5-MIN KMSN 191540Z 23008G14KT 10SM CLR 04/M01 A2997 820 67 -200 230/08G14 RMK AO2
14837KMSN MSN20021119094509411/19/02 09:45:31  5-MIN KMSN 191545Z 24007KT 10SM CLR 05/M01 A2997 820 64 -100 240/07 RMK AO2
14837KMSN MSN20021119095011111/19/02 09:50:31  5-MIN KMSN 191550Z VRB06KT 10SM CLR 05/M01 A2996 820 67 -100 VRB/06 RMK AO2 SLP154 T00501006
14837KMSN MSN20021119095509111/19/02 09:55:31  5-MIN KMSN 191555Z VRB05KT 10SM CLR 06/M01 A2996 830 65 0 VRB/05 RMK AO2
14837KMSN MSN20021119100009111/19/02 10:00:31  5-MIN KMSN 191600Z 23006KT 10SM CLR 06/M01 A2996 830 65 0 230/06 RMK AO2
14837KMSN MSN20021119100509011/19/02 10:05:31  5-MIN KMSN 191605Z 22009KT 10SM CLR 06/00 A2996 820 67 0 220/09 RMK AO2
14837KMSN MSN20021119101009111/19/02 10:10:31  5-MIN KMSN 191610Z 23007KT 10SM CLR 06/M01 A2996 820 65 0 230/07 RMK AO2
14837KMSN MSN20021119101510711/19/02 10:15:31  5-MIN KMSN 191615Z 24007KT 200V270 10SM CLR 06/M01 A2996 820 65 0 240/07 200V270 RMK AO2
14837KMSN MSN20021119102010711/19/02 10:20:31  5-MIN KMSN 191620Z 24008KT 210V270 10SM CLR 06/M01 A2996 830 65 0 240/08 210V270 RMK AO2
14837KMSN MSN20021119102509111/19/02 10:25:31  5-MIN KMSN 191625Z 22010KT 10SM CLR 06/M01 A2996 830 65 0 220/10 RMK AO2
14837KMSN MSN20021119103010711/19/02 10:30:31  5-MIN KMSN 191630Z 23008KT 210V270 10SM CLR 06/M01 A2996 830 65 0 230/08 210V270 RMK AO2
14837KMSN MSN20021119103509111/19/02 10:35:31  5-MIN KMSN 191635Z 23007KT 10SM CLR 06/M01 A2996 830 62 0 220/07 RMK AO2
14837KMSN MSN20021119104009111/19/02 10:40:31  5-MIN KMSN 191640Z 23009KT 10SM CLR 06/M01 A2996 830 62 0 230/09 RMK AO2
14837KMSN MSN20021119104509111/19/02 10:45:31  5-MIN KMSN 191645Z 22008KT 10SM CLR 06/M01 A2995 840 62 0 220/08 RMK AO2
14837KMSN MSN20021119105010811/19/02 10:50:31  5-MIN KMSN 191650Z 23006KT 10SM CLR 06/M01 A2995 840 62 0 230/06 RMK AO2 SLP149 T00611006
14837KMSN MSN20021119105509311/19/02 10:55:31  5-MIN KMSN 191655Z 22011KT 10SM CLR 07/M01 A2995 840 60 100 220/11 RMK AO2
14837KMSN MSN20021119110009311/19/02 11:00:31  5-MIN KMSN 191700Z 23010KT 10SM CLR 07/M01 A2995 840 60 100 220/10 RMK AO2
14837KMSN MSN20021119110509211/19/02 11:05:31  5-MIN KMSN 191705Z 23009KT 10SM CLR 07/00 A2994 840 62 100 230/09 RMK AO2
14837KMSN MSN20021119111009211/19/02 11:10:31  5-MIN KMSN 191710Z 23009KT 10SM CLR 07/00 A2994 840 62 100 230/09 RMK AO2
14837KMSN MSN20021119111509211/19/02 11:15:31  5-MIN KMSN 191715Z 22007KT 10SM CLR 07/00 A2994 850 60 200 220/07 RMK AO2
14837KMSN MSN20021119112009211/19/02 11:20:31  5-MIN KMSN 191720Z 22007KT 10SM CLR 07/00 A2994 850 60 200 220/07 RMK AO2
14837KMSN MSN20021119112509211/19/02 11:25:31  5-MIN KMSN 191725Z 22009KT 10SM CLR 08/01 A2993 850 60 200 220/09 RMK AO2
14837KMSN MSN20021119113009211/19/02 11:30:31  5-MIN KMSN 191730Z 22008KT 10SM CLR 08/00 A2993 850 58 200 220/08 RMK AO2
14837KMSN MSN20021119113509211/19/02 11:35:31  5-MIN KMSN 191735Z 22009KT 10SM CLR 08/01 A2993 850 60 200 220/09 RMK AO2
14837KMSN MSN20021119114010811/19/02 11:40:31  5-MIN KMSN 191740Z 22007KT 190V260 10SM CLR 08/01 A2993 860 58 300 220/07 190V260 RMK AO2
14837KMSN MSN20021119114510811/19/02 11:45:31  5-MIN KMSN 191745Z 22007KT 190V260 10SM CLR 08/00 A2993 860 55 300 220/07 190V260 RMK AO2
14837KMSN MSN20021119115012711/19/02 11:50:31  5-MIN KMSN 191750Z 22007KT 10SM CLR 09/01 A2993 860 56 400 220/07 RMK AO2 SLP140 T00890006 10089 21022 51008
14837KMSN MSN20021119115509811/19/02 11:55:31  5-MIN KMSN 191755Z 21010G14KT 10SM CLR 09/00 A2993 860 53 400 210/10G14 RMK AO2
14837KMSN MSN20021119120009811/19/02 12:00:31  5-MIN KMSN 191800Z 23009G14KT 10SM CLR 09/00 A2992 860 53 400 230/09G14 RMK AO2
14837KMSN MSN20021119120509211/19/02 12:05:31  5-MIN KMSN 191805Z 22009KT 10SM CLR 09/01 A2993 860 53 400 220/09 RMK AO2
14837KMSN MSN20021119121009211/19/02 12:10:31  5-MIN KMSN 191810Z 22008KT 10SM CLR 09/01 A2992 860 53 400 220/08 RMK AO2
14837KMSN MSN20021119121510811/19/02 12:15:31  5-MIN KMSN 191815Z 22008KT 200V260 10SM CLR 09/01 A2992 860 53 400 220/08 200V260 RMK AO2
14837KMSN MSN20021119122009211/19/02 12:20:31  5-MIN KMSN 191820Z 23009KT 10SM CLR 09/01 A2992 860 53 400 220/09 RMK AO2
14837KMSN MSN20021119122509211/19/02 12:25:31  5-MIN KMSN 191825Z 23009KT 10SM CLR 09/01 A2992 860 53 400 230/09 RMK AO2
14837KMSN MSN20021119123009211/19/02 12:30:31  5-MIN KMSN 191830Z 24008KT 10SM CLR 10/01 A2992 870 52 500 240/08 RMK AO2
14837KMSN MSN20021119123509211/19/02 12:35:31  5-MIN KMSN 191835Z 23009KT 10SM CLR 10/01 A2992 860 52 500 230/09 RMK AO2
14837KMSN MSN20021119124009211/19/02 12:40:31  5-MIN KMSN 191840Z 22010KT 10SM CLR 10/01 A2992 860 52 500 220/10 RMK AO2
14837KMSN MSN20021119124511411/19/02 12:45:31  5-MIN KMSN 191845Z 22007G15KT 190V260 10SM CLR 10/01 A2992 870 52 500 220/07G15 190V260 RMK AO2
14837KMSN MSN20021119125011511/19/02 12:50:31  5-MIN KMSN 191850Z 21008G15KT 10SM CLR 10/01 A2992 870 52 500 210/08G15 RMK AO2 SLP137 T01000006
14837KMSN MSN20021119125509211/19/02 12:55:31  5-MIN KMSN 191855Z 22011KT 10SM CLR 10/01 A2992 870 52 500 220/11 RMK AO2
14837KMSN MSN20021119130009211/19/02 13:00:31  5-MIN KMSN 191900Z 22009KT 10SM CLR 10/01 A2991 870 52 500 220/09 RMK AO2
14837KMSN MSN20021119130509211/19/02 13:05:31  5-MIN KMSN 191905Z 24007KT 10SM CLR 10/01 A2991 870 54 500 230/07 RMK AO2
14837KMSN MSN20021119131009211/19/02 13:10:31  5-MIN KMSN 191910Z 22007KT 10SM CLR 10/01 A2992 870 54 500 220/07 RMK AO2
14837KMSN MSN20021119131509211/19/02 13:15:31  5-MIN KMSN 191915Z 22008KT 10SM CLR 11/01 A2991 870 52 600 220/08 RMK AO2
14837KMSN MSN20021119132010811/19/02 13:20:31  5-MIN KMSN 191920Z 22007KT 190V270 10SM CLR 11/02 A2991 870 54 600 220/07 190V270 RMK AO2
14837KMSN MSN20021119132509211/19/02 13:25:31  5-MIN KMSN 191925Z 22006KT 10SM CLR 11/01 A2991 870 52 600 220/06 RMK AO2
14837KMSN MSN20021119133009211/19/02 13:30:31  5-MIN KMSN 191930Z 23009KT 10SM CLR 11/01 A2991 870 52 600 230/09 RMK AO2
14837KMSN MSN20021119133509211/19/02 13:35:31  5-MIN KMSN 191935Z 22007KT 10SM CLR 11/01 A2991 870 52 600 220/07 RMK AO2
14837KMSN MSN20021119134009211/19/02 13:40:31  5-MIN KMSN 191940Z 22008KT 10SM CLR 10/01 A2991 870 54 500 220/08 RMK AO2
14837KMSN MSN20021119134509211/19/02 13:45:31  5-MIN KMSN 191945Z 23007KT 10SM CLR 11/01 A2991 870 52 600 230/07 RMK AO2
14837KMSN MSN20021119135010911/19/02 13:50:31  5-MIN KMSN 191950Z 22008KT 10SM CLR 11/01 A2991 880 50 600 220/08 RMK AO2 SLP134 T01060006
14837KMSN MSN20021119135509211/19/02 13:55:31  5-MIN KMSN 191955Z 22009KT 10SM CLR 10/01 A2991 880 52 500 220/09 RMK AO2
14837KMSN MSN20021119140009211/19/02 14:00:31  5-MIN KMSN 192000Z 22010KT 10SM CLR 10/01 A2991 880 52 500 220/10 RMK AO2
14837KMSN MSN20021119140509211/19/02 14:05:31  5-MIN KMSN 192005Z 22008KT 10SM CLR 10/01 A2991 880 52 500 220/08 RMK AO2
14837KMSN MSN20021119141010811/19/02 14:10:31  5-MIN KMSN 192010Z 23007KT 200V260 10SM CLR 10/01 A2991 880 52 500 230/07 200V260 RMK AO2
14837KMSN MSN20021119141509211/19/02 14:15:31  5-MIN KMSN 192015Z 23006KT 10SM CLR 10/01 A2990 880 52 500 230/06 RMK AO2
14837KMSN MSN20021119142009211/19/02 14:20:31  5-MIN KMSN 192020Z 23007KT 10SM CLR 10/01 A2990 880 52 500 230/07 RMK AO2
14837KMSN MSN20021119142510811/19/02 14:25:31  5-MIN KMSN 192025Z 24007KT 190V270 10SM CLR 10/01 A2990 880 54 500 240/07 190V270 RMK AO2
14837KMSN MSN20021119143009211/19/02 14:30:31  5-MIN KMSN 192030Z 23007KT 10SM CLR 10/01 A2990 880 52 500 230/07 RMK AO2
14837KMSN MSN20021119143509211/19/02 14:35:31  5-MIN KMSN 192035Z 22007KT 10SM CLR 10/01 A2990 880 54 500 220/07 RMK AO2
14837KMSN MSN20021119144009211/19/02 14:40:31  5-MIN KMSN 192040Z 22008KT 10SM CLR 10/01 A2990 880 52 500 220/08 RMK AO2
14837KMSN MSN20021119144509211/19/02 14:45:31  5-MIN KMSN 192045Z 22008KT 10SM CLR 10/01 A2991 880 52 500 220/08 RMK AO2
14837KMSN MSN20021119145012111/19/02 14:50:31  5-MIN KMSN 192050Z 22010G15KT 10SM CLR 10/01 A2990 880 52 500 220/10G15 RMK AO2 SLP133 T01000006 58014
14837KMSN MSN20021119145509811/19/02 14:55:31  5-MIN KMSN 192055Z 22010G15KT 10SM CLR 10/01 A2991 880 52 500 220/10G15 RMK AO2
14837KMSN MSN20021119150009811/19/02 15:00:31  5-MIN KMSN 192100Z 23009G15KT 10SM CLR 10/00 A2991 880 49 500 230/09G15 RMK AO2
14837KMSN MSN20021119150509211/19/02 15:05:31  5-MIN KMSN 192105Z 22007KT 10SM CLR 10/00 A2991 870 49 500 220/07 RMK AO2
14837KMSN MSN20021119151009211/19/02 15:10:31  5-MIN KMSN 192110Z 22006KT 10SM CLR 10/00 A2991 870 49 500 220/06 RMK AO2
14837KMSN MSN20021119151509211/19/02 15:15:31  5-MIN KMSN 192115Z 22007KT 10SM CLR 09/01 A2991 870 53 500 220/07 RMK AO2
14837KMSN MSN20021119152009211/19/02 15:20:31  5-MIN KMSN 192120Z 22008KT 10SM CLR 10/01 A2991 870 52 500 220/08 RMK AO2
14837KMSN MSN20021119152509811/19/02 15:25:31  5-MIN KMSN 192125Z 22011G16KT 10SM CLR 10/01 A2991 870 52 500 220/11G16 RMK AO2
14837KMSN MSN20021119153009811/19/02 15:30:31  5-MIN KMSN 192130Z 23008G16KT 10SM CLR 10/00 A2992 870 49 500 230/08G16 RMK AO2
14837KMSN MSN20021119153509811/19/02 15:35:31  5-MIN KMSN 192135Z 22008G15KT 10SM CLR 09/00 A2992 870 51 400 220/08G15 RMK AO2
14837KMSN MSN20021119154009211/19/02 15:40:31  5-MIN KMSN 192140Z 23008KT 10SM CLR 09/01 A2992 870 53 400 220/08 RMK AO2
14837KMSN MSN20021119154509211/19/02 15:45:31  5-MIN KMSN 192145Z 22007KT 10SM CLR 09/01 A2992 870 53 400 220/07 RMK AO2
14837KMSN MSN20021119155010911/19/02 15:50:31  5-MIN KMSN 192150Z 23008KT 10SM CLR 09/01 A2992 860 53 400 230/08 RMK AO2 SLP138 T00940006
14837KMSN MSN20021119155509211/19/02 15:55:31  5-MIN KMSN 192155Z 22009KT 10SM CLR 09/01 A2992 860 53 400 220/09 RMK AO2
14837KMSN MSN20021119160009211/19/02 16:00:31  5-MIN KMSN 192200Z 22008KT 10SM CLR 09/01 A2992 860 53 400 220/08 RMK AO2
14837KMSN MSN20021119160509211/19/02 16:05:31  5-MIN KMSN 192205Z 23008KT 10SM CLR 09/01 A2992 860 53 400 220/08 RMK AO2
14837KMSN MSN20021119161009211/19/02 16:10:31  5-MIN KMSN 192210Z 23007KT 10SM CLR 09/01 A2993 860 56 400 230/07 RMK AO2
14837KMSN MSN20021119161509211/19/02 16:15:31  5-MIN KMSN 192215Z 22006KT 10SM CLR 09/01 A2993 860 56 400 220/06 RMK AO2
14837KMSN MSN20021119162009211/19/02 16:20:31  5-MIN KMSN 192220Z 23007KT 10SM CLR 09/01 A2993 860 56 400 230/07 RMK AO2
14837KMSN MSN20021119162509211/19/02 16:25:31  5-MIN KMSN 192225Z 23006KT 10SM CLR 09/01 A2993 850 58 400 230/06 RMK AO2
14837KMSN MSN20021119163009211/19/02 16:30:31  5-MIN KMSN 192230Z 22008KT 10SM CLR 08/01 A2993 850 60 300 220/08 RMK AO2
14837KMSN MSN20021119163509211/19/02 16:35:31  5-MIN KMSN 192235Z 23007KT 10SM CLR 08/01 A2993 850 60 300 230/07 RMK AO2
14837KMSN MSN20021119164009211/19/02 16:40:31  5-MIN KMSN 192240Z 23009KT 10SM CLR 08/01 A2993 850 60 300 230/09 RMK AO2
14837KMSN MSN20021119164510811/19/02 16:45:31  5-MIN KMSN 192245Z 23008KT 200V260 10SM CLR 08/01 A2994 850 60 300 230/08 200V260 RMK AO2
14837KMSN MSN20021119165010911/19/02 16:50:31  5-MIN KMSN 192250Z 23009KT 10SM CLR 08/01 A2994 850 60 300 230/09 RMK AO2 SLP146 T00830011
14837KMSN MSN20021119165509211/19/02 16:55:31  5-MIN KMSN 192255Z 23008KT 10SM CLR 08/01 A2994 840 60 300 230/08 RMK AO2
14837KMSN MSN20021119170009211/19/02 17:00:31  5-MIN KMSN 192300Z 23009KT 10SM CLR 08/01 A2994 840 60 300 230/09 RMK AO2
14837KMSN MSN20021119170509211/19/02 17:05:31  5-MIN KMSN 192305Z 24008KT 10SM CLR 08/01 A2995 840 60 300 230/08 RMK AO2
14837KMSN MSN20021119171009211/19/02 17:10:31  5-MIN KMSN 192310Z 23007KT 10SM CLR 08/01 A2995 840 62 200 230/07 RMK AO2
14837KMSN MSN20021119171509211/19/02 17:15:31  5-MIN KMSN 192315Z 23008KT 10SM CLR 08/01 A2995 830 62 200 230/08 RMK AO2
14837KMSN MSN20021119172009211/19/02 17:20:31  5-MIN KMSN 192320Z 23007KT 10SM CLR 08/01 A2995 830 62 200 230/07 RMK AO2
14837KMSN MSN20021119172509211/19/02 17:25:31  5-MIN KMSN 192325Z 22007KT 10SM CLR 08/01 A2996 830 62 200 220/07 RMK AO2
14837KMSN MSN20021119173009211/19/02 17:30:31  5-MIN KMSN 192330Z 23008KT 10SM CLR 08/01 A2996 830 62 200 230/08 RMK AO2
14837KMSN MSN20021119173509211/19/02 17:35:31  5-MIN KMSN 192335Z 23007KT 10SM CLR 08/01 A2996 830 62 200 230/07 RMK AO2
14837KMSN MSN20021119174009211/19/02 17:40:31  5-MIN KMSN 192340Z 22007KT 10SM CLR 07/01 A2996 830 65 100 220/07 RMK AO2
14837KMSN MSN20021119174509211/19/02 17:45:31  5-MIN KMSN 192345Z 23008KT 10SM CLR 07/01 A2996 820 65 100 230/08 RMK AO2
14837KMSN MSN20021119175014311/19/02 17:50:31  5-MIN KMSN 192350Z 23007KT 190V260 10SM CLR 07/01 A2997 820 65 100 230/07 190V260 RMK AO2 SLP156 T00720011 10106 20072 56007
14837KMSN MSN20021119175509211/19/02 17:55:31  5-MIN KMSN 192355Z 23006KT 10SM CLR 07/01 A2997 820 65 100 230/06 RMK AO2
14837KMSN MSN20021119180010811/19/02 18:00:31  5-MIN KMSN 200000Z 23007KT 200V260 10SM CLR 07/01 A2997 820 65 100 230/07 200V260 RMK AO2
14837KMSN MSN20021119180509211/19/02 18:05:31  5-MIN KMSN 200005Z 23006KT 10SM CLR 07/01 A2997 820 65 100 230/06 RMK AO2
14837KMSN MSN20021119181009211/19/02 18:10:31  5-MIN KMSN 200010Z VRB06KT 10SM CLR 07/01 A2997 820 65 100 VRB/06 RMK AO2
14837KMSN MSN20021119181509211/19/02 18:15:31  5-MIN KMSN 200015Z 24006KT 10SM CLR 07/01 A2997 810 65 100 240/06 RMK AO2
14837KMSN MSN20021119182009211/19/02 18:20:31  5-MIN KMSN 200020Z 24006KT 10SM CLR 07/01 A2998 810 65 100 240/06 RMK AO2
14837KMSN MSN20021119182509011/19/02 18:25:31  5-MIN KMSN 200025Z VRB05KT 10SM CLR 07/01 A2998 810 67 0 VRB/05 RMK AO2
14837KMSN MSN20021119183009011/19/02 18:30:31  5-MIN KMSN 200030Z 23005KT 10SM CLR 07/01 A2998 810 67 0 230/05 RMK AO2
14837KMSN MSN20021119183509011/19/02 18:35:31  5-MIN KMSN 200035Z 24004KT 10SM CLR 07/01 A2998 810 67 0 230/04 RMK AO2
14837KMSN MSN20021119184009011/19/02 18:40:31  5-MIN KMSN 200040Z VRB04KT 10SM CLR 07/01 A2998 810 67 0 VRB/04 RMK AO2
14837KMSN MSN20021119184509011/19/02 18:45:31  5-MIN KMSN 200045Z 24003KT 10SM CLR 06/01 A2998 810 70 0 230/03 RMK AO2
14837KMSN MSN20021119185010711/19/02 18:50:31  5-MIN KMSN 200050Z 00000KT 10SM CLR 06/01 A2998 810 67 0 000/00 RMK AO2 SLP160 T00610006
14837KMSN MSN20021119185509011/19/02 18:55:31  5-MIN KMSN 200055Z 00000KT 10SM CLR 06/01 A2998 810 67 0 000/00 RMK AO2
14837KMSN MSN20021119190009011/19/02 19:00:31  5-MIN KMSN 200100Z 00000KT 10SM CLR 06/01 A2998 810 70 0 000/00 RMK AO2
14837KMSN MSN20021119190509311/19/02 19:05:31  5-MIN KMSN 200105Z 00000KT 10SM CLR 06/01 A2998 810 70 -100 000/00 RMK AO2
14837KMSN MSN20021119191009311/19/02 19:10:31  5-MIN KMSN 200110Z 00000KT 10SM CLR 06/01 A2998 810 70 -100 000/00 RMK AO2
14837KMSN MSN20021119191509311/19/02 19:15:31  5-MIN KMSN 200115Z 24003KT 10SM CLR 06/00 A2998 800 67 -100 230/03 RMK AO2
14837KMSN MSN20021119192009311/19/02 19:20:31  5-MIN KMSN 200120Z 23003KT 10SM CLR 06/00 A2999 800 67 -100 230/03 RMK AO2
14837KMSN MSN20021119192509311/19/02 19:25:31  5-MIN KMSN 200125Z 23004KT 10SM CLR 05/00 A2998 810 70 -100 230/04 RMK AO2
14837KMSN MSN20021119193009311/19/02 19:30:31  5-MIN KMSN 200130Z VRB03KT 10SM CLR 05/00 A2998 810 70 -100 VRB/03 RMK AO2
14837KMSN MSN20021119193509311/19/02 19:35:31  5-MIN KMSN 200135Z 22003KT 10SM CLR 05/00 A2998 810 70 -100 220/03 RMK AO2
14837KMSN MSN20021119194009311/19/02 19:40:31  5-MIN KMSN 200140Z 22003KT 10SM CLR 05/00 A2999 800 70 -100 210/03 RMK AO2
14837KMSN MSN20021119194509311/19/02 19:45:31  5-MIN KMSN 200145Z 00000KT 10SM CLR 04/00 A2999 800 73 -200 000/00 RMK AO2
14837KMSN MSN20021119195011011/19/02 19:50:31  5-MIN KMSN 200150Z 00000KT 10SM CLR 03/00 A2999 800 79 -300 000/00 RMK AO2 SLP162 T00330000
14837KMSN MSN20021119195509311/19/02 19:55:31  5-MIN KMSN 200155Z 00000KT 10SM CLR 03/00 A2999 800 79 -300 000/00 RMK AO2
14837KMSN MSN20021119200009311/19/02 20:00:31  5-MIN KMSN 200200Z 22003KT 10SM CLR 03/00 A2999 800 79 -300 220/03 RMK AO2
14837KMSN MSN20021119200509311/19/02 20:05:31  5-MIN KMSN 200205Z 00000KT 10SM CLR 03/00 A2999 800 82 -400 000/00 RMK AO2
14837KMSN MSN20021119201009311/19/02 20:10:31  5-MIN KMSN 200210Z 00000KT 10SM CLR 03/00 A2999 800 82 -400 000/00 RMK AO2
14837KMSN MSN20021119201509411/19/02 20:15:31  5-MIN KMSN 200215Z 00000KT 10SM CLR 02/M01 A2999 800 85 -500 000/00 RMK AO2
14837KMSN MSN20021119202009411/19/02 20:20:31  5-MIN KMSN 200220Z 00000KT 10SM CLR 02/M01 A2999 800 85 -500 000/00 RMK AO2
14837KMSN MSN20021119202509411/19/02 20:25:31  5-MIN KMSN 200225Z 00000KT 10SM CLR 01/M02 A2999 800 85 -700 000/00 RMK AO2
14837KMSN MSN20021119203009411/19/02 20:30:31  5-MIN KMSN 200230Z 00000KT 10SM CLR 01/M01 A2999 800 85 -600 000/00 RMK AO2
14837KMSN MSN20021119203509411/19/02 20:35:31  5-MIN KMSN 200235Z 21003KT 10SM CLR 01/M01 A2999 800 85 -600 210/03 RMK AO2
14837KMSN MSN20021119204009411/19/02 20:40:31  5-MIN KMSN 200240Z 00000KT 10SM CLR 01/M01 A2999 800 85 -600 000/00 RMK AO2
14837KMSN MSN20021119204509411/19/02 20:45:31  5-MIN KMSN 200245Z 00000KT 10SM CLR 01/M01 A2999 800 92 -700 000/00 RMK AO2
14837KMSN MSN20021119205011711/19/02 20:50:31  5-MIN KMSN 200250Z 00000KT 10SM CLR 01/M01 A2999 800 89 -700 000/00 RMK AO2 SLP165 T00061011 53021
14837KMSN MSN20021119205509411/19/02 20:55:31  5-MIN KMSN 200255Z 00000KT 10SM CLR 01/M01 A2999 800 89 -600 000/00 RMK AO2
14837KMSN MSN20021119210009411/19/02 21:00:31  5-MIN KMSN 200300Z 00000KT 10SM CLR 00/M01 A3000 790 96 -800 000/00 RMK AO2
14837KMSN MSN20021119210509411/19/02 21:05:31  5-MIN KMSN 200305Z 00000KT 10SM CLR 00/M01 A3000 790 96 -800 000/00 RMK AO2
14837KMSN MSN20021119211009511/19/02 21:10:31  5-MIN KMSN 200310Z 00000KT 10SM CLR M01/M03 A3000 790 85 -800 000/00 RMK AO2
14837KMSN MSN20021119211509511/19/02 21:15:31  5-MIN KMSN 200315Z 00000KT 10SM CLR M01/M03 A3000 790 85 -800 000/00 RMK AO2
14837KMSN MSN20021119212009511/19/02 21:20:31  5-MIN KMSN 200320Z 00000KT 10SM CLR M01/M02 A3000 790 88 -800 000/00 RMK AO2
14837KMSN MSN20021119212509411/19/02 21:25:31  5-MIN KMSN 200325Z 00000KT 10SM CLR 00/M02 A3000 790 85 -800 000/00 RMK AO2
14837KMSN MSN20021119213009411/19/02 21:30:31  5-MIN KMSN 200330Z 00000KT 10SM CLR 01/M02 A3000 790 85 -700 000/00 RMK AO2
14837KMSN MSN20021119213509411/19/02 21:35:31  5-MIN KMSN 200335Z 00000KT 10SM CLR 01/M02 A3000 790 85 -700 000/00 RMK AO2
14837KMSN MSN20021119214009411/19/02 21:40:31  5-MIN KMSN 200340Z 00000KT 10SM CLR 00/M02 A3000 790 88 -800 000/00 RMK AO2
14837KMSN MSN20021119214509511/19/02 21:45:31  5-MIN KMSN 200345Z 00000KT 10SM CLR M01/M02 A3000 790 88 -800 000/00 RMK AO2
14837KMSN MSN20021119215011211/19/02 21:50:31  5-MIN KMSN 200350Z 00000KT 10SM CLR M01/M02 A3000 790 88 -800 000/00 RMK AO2 SLP169 T10061022
14837KMSN MSN20021119215509511/19/02 21:55:31  5-MIN KMSN 200355Z 17003KT 10SM CLR M01/M02 A3001 780 88 -800 170/03 RMK AO2
14837KMSN MSN20021119220009511/19/02 22:00:31  5-MIN KMSN 200400Z 17003KT 10SM CLR M01/M02 A3001 780 88 -800 170/03 RMK AO2
14837KMSN MSN20021119220509411/19/02 22:05:31  5-MIN KMSN 200405Z 17003KT 10SM CLR 00/M02 A3001 780 88 -800 170/03 RMK AO2
14837KMSN MSN20021119221009411/19/02 22:10:31  5-MIN KMSN 200410Z 18003KT 10SM CLR 00/M01 A3001 780 92 -800 180/03 RMK AO2
14837KMSN MSN20021119221509411/19/02 22:15:31  5-MIN KMSN 200415Z 00000KT 10SM CLR 00/M02 A3001 780 88 -800 000/00 RMK AO2
14837KMSN MSN20021119222009511/19/02 22:20:31  5-MIN KMSN 200420Z 00000KT 10SM CLR M01/M02 A3001 780 92 -800 000/00 RMK AO2
14837KMSN MSN20021119222509511/19/02 22:25:31  5-MIN KMSN 200425Z 00000KT 10SM CLR M01/M02 A3001 780 92 -900 000/00 RMK AO2
14837KMSN MSN20021119223009511/19/02 22:30:31  5-MIN KMSN 200430Z 00000KT 10SM CLR M01/M02 A3001 780 92 -900 000/00 RMK AO2
14837KMSN MSN20021119223509411/19/02 22:35:31  5-MIN KMSN 200435Z 00000KT 10SM CLR 00/M01 A3001 780 92 -800 000/00 RMK AO2
14837KMSN MSN20021119224009411/19/02 22:40:31  5-MIN KMSN 200440Z 19003KT 10SM CLR 00/M01 A3001 780 92 -800 190/03 RMK AO2
14837KMSN MSN20021119224509511/19/02 22:45:31  5-MIN KMSN 200445Z 00000KT 10SM CLR M01/M02 A3001 780 92 -800 000/00 RMK AO2
14837KMSN MSN20021119225011111/19/02 22:50:31  5-MIN KMSN 200450Z 00000KT 10SM CLR 00/M02 A3001 780 88 -800 000/00 RMK AO2 SLP170 T00001017
14837KMSN MSN20021119225509511/19/02 22:55:31  5-MIN KMSN 200455Z 00000KT 10SM CLR M01/M02 A3001 780 88 -800 000/00 RMK AO2
14837KMSN MSN20021119230009511/19/02 23:00:31  5-MIN KMSN 200500Z 00000KT 10SM CLR M01/M02 A3001 780 88 -800 000/00 RMK AO2
14837KMSN MSN20021119230509411/19/02 23:05:31  5-MIN KMSN 200505Z 00000KT 10SM CLR 00/M02 A3001 780 88 -800 000/00 RMK AO2
14837KMSN MSN20021119231009411/19/02 23:10:31  5-MIN KMSN 200510Z 00000KT 10SM CLR 00/M02 A3001 780 88 -800 000/00 RMK AO2
14837KMSN MSN20021119231509411/19/02 23:15:31  5-MIN KMSN 200515Z 00000KT 10SM CLR 00/M02 A3001 780 88 -800 000/00 RMK AO2
14837KMSN MSN20021119232009411/19/02 23:20:31  5-MIN KMSN 200520Z 00000KT 10SM CLR 00/M01 A3001 780 92 -800 000/00 RMK AO2
14837KMSN MSN20021119232509411/19/02 23:25:31  5-MIN KMSN 200525Z 00000KT 10SM CLR 00/M01 A3000 790 92 -800 000/00 RMK AO2
14837KMSN MSN20021119233009511/19/02 23:30:31  5-MIN KMSN 200530Z 00000KT 10SM CLR M01/M02 A3000 790 92 -800 000/00 RMK AO2
14837KMSN MSN20021119233509611/19/02 23:35:31  5-MIN KMSN 200535Z 00000KT 10SM CLR M02/M03 A3000 790 92 -1000 000/00 RMK AO2
14837KMSN MSN20021119234009611/19/02 23:40:31  5-MIN KMSN 200540Z 00000KT 10SM CLR M02/M03 A3000 790 92 -1000 000/00 RMK AO2
14837KMSN MSN20021119234509511/19/02 23:45:31  5-MIN KMSN 200545Z 00000KT 9SM CLR M02/M03 A3000 790 92 -1000 000/00 RMK AO2
14837KMSN MSN20021119235014111/19/02 23:50:31  5-MIN KMSN 200550Z 00000KT 10SM CLR M02/M04 A3000 790 88 -1000 000/00 RMK AO2 SLP166 T10221039 10072 21022 401061033 51008
14837KMSN MSN20021119235509611/19/02 23:55:31  5-MIN KMSN 200555Z 00000KT 10SM CLR M02/M03 A3000 790 92 -1000 000/00 RMK AO2
14837KMSN MSN20021120000009611/20/02 00:00:31  5-MIN KMSN 200600Z 00000KT 10SM CLR M03/M04 A3000 790 92 -1100 000/00 RMK AO2
14837KMSN MSN20021120000509611/20/02 00:05:31  5-MIN KMSN 200605Z 00000KT 10SM CLR M02/M04 A3000 790 88 -1000 000/00 RMK AO2
14837KMSN MSN20021120001009511/20/02 00:10:31  5-MIN KMSN 200610Z 00000KT 9SM CLR M02/M03 A3000 790 92 -1000 000/00 RMK AO2
14837KMSN MSN20021120001509511/20/02 00:15:31  5-MIN KMSN 200615Z 00000KT 8SM CLR M02/M03 A3000 790 92 -1000 000/00 RMK AO2
14837KMSN MSN20021120002009511/20/02 00:20:31  5-MIN KMSN 200620Z 00000KT 7SM CLR M02/M03 A3000 790 92 -1000 000/00 RMK AO2
14837KMSN MSN20021120002509411/20/02 00:25:31  5-MIN KMSN 200625Z 00000KT 8SM CLR M01/M02 A2999 800 92 -900 000/00 RMK AO2
14837KMSN MSN20021120003009511/20/02 00:30:31  5-MIN KMSN 200630Z 00000KT 10SM CLR M01/M02 A2999 800 96 -900 000/00 RMK AO2
14837KMSN MSN20021120003509511/20/02 00:35:31  5-MIN KMSN 200635Z 00000KT 8SM CLR M02/M03 A3000 790 96 -1000 000/00 RMK AO2
14837KMSN MSN20021120004009511/20/02 00:40:31  5-MIN KMSN 200640Z 00000KT 7SM CLR M02/M02 A2999 800 96 -1000 000/00 RMK AO2
14837KMSN MSN20021120004509411/20/02 00:45:31  5-MIN KMSN 200645Z 00000KT 9SM CLR M01/M02 A2999 800 96 -900 000/00 RMK AO2
14837KMSN MSN20021120005011311/20/02 00:50:31  5-MIN KMSN 200650Z 00000KT 10SM CLR M02/M03 A2999 800 92 -1000 000/00 RMK AO2 SLP163 T10171028
14837KMSN MSN20021120005509611/20/02 00:55:31  5-MIN KMSN 200655Z 00000KT 10SM CLR M02/M03 A2999 800 92 -1000 000/00 RMK AO2
14837KMSN MSN20021120010009611/20/02 01:00:31  5-MIN KMSN 200700Z 16003KT 10SM CLR M02/M03 A2999 800 92 -1000 160/03 RMK AO2
14837KMSN MSN20021120010509611/20/02 01:05:31  5-MIN KMSN 200705Z 00000KT 10SM CLR M03/M04 A2999 800 88 -1100 000/00 RMK AO2
14837KMSN MSN20021120011009611/20/02 01:10:31  5-MIN KMSN 200710Z 00000KT 10SM CLR M03/M04 A2999 800 88 -1100 000/00 RMK AO2
14837KMSN MSN20021120011509611/20/02 01:15:31  5-MIN KMSN 200715Z 00000KT 10SM CLR M02/M04 A2999 800 88 -1000 000/00 RMK AO2
14837KMSN MSN20021120012009611/20/02 01:20:31  5-MIN KMSN 200720Z 00000KT 10SM CLR M02/M04 A3000 800 88 -1000 000/00 RMK AO2
14837KMSN MSN20021120012509611/20/02 01:25:31  5-MIN KMSN 200725Z 00000KT 10SM CLR M02/M04 A2999 800 88 -1000 000/00 RMK AO2
14837KMSN MSN20021120013009611/20/02 01:30:31  5-MIN KMSN 200730Z 00000KT 10SM CLR M02/M04 A2999 800 88 -1000 000/00 RMK AO2
14837KMSN MSN20021120013509511/20/02 01:35:31  5-MIN KMSN 200735Z 00000KT 9SM CLR M02/M04 A2999 800 88 -1000 000/00 RMK AO2
14837KMSN MSN20021120014009511/20/02 01:40:31  5-MIN KMSN 200740Z 00000KT 8SM CLR M02/M03 A2999 800 92 -1000 000/00 RMK AO2
14837KMSN MSN20021120014509511/20/02 01:45:31  5-MIN KMSN 200745Z 00000KT 7SM CLR M02/M03 A2999 800 92 -1000 000/00 RMK AO2
14837KMSN MSN20021120015011311/20/02 01:50:31  5-MIN KMSN 200750Z 00000KT 10SM CLR M03/M04 A2999 800 92 -1100 000/00 RMK AO2 SLP164 T10281039
14837KMSN MSN20021120015509511/20/02 01:55:31  5-MIN KMSN 200755Z 00000KT 8SM CLR M03/M04 A2999 800 92 -1100 000/00 RMK AO2
14837KMSN MSN20021120020009511/20/02 02:00:31  5-MIN KMSN 200800Z 00000KT 8SM CLR M03/M04 A2999 800 92 -1200 000/00 RMK AO2
14837KMSN MSN20021120020509511/20/02 02:05:31  5-MIN KMSN 200805Z 00000KT 7SM CLR M03/M04 A2999 800 92 -1200 000/00 RMK AO2
14837KMSN MSN20021120021009511/20/02 02:10:31  5-MIN KMSN 200810Z 00000KT 7SM CLR M03/M04 A2999 800 96 -1200 000/00 RMK AO2
14837KMSN MSN20021120021509511/20/02 02:15:31  5-MIN KMSN 200815Z 00000KT 7SM CLR M03/M04 A2999 800 96 -1200 000/00 RMK AO2
14837KMSN MSN20021120022009511/20/02 02:20:31  5-MIN KMSN 200820Z 00000KT 7SM CLR M03/M04 A2999 800 92 -1100 000/00 RMK AO2
14837KMSN MSN20021120022509511/20/02 02:25:31  5-MIN KMSN 200825Z 00000KT 8SM CLR M03/M04 A2999 800 92 -1100 000/00 RMK AO2
14837KMSN MSN20021120023009511/20/02 02:30:31  5-MIN KMSN 200830Z 00000KT 9SM CLR M03/M04 A2999 800 92 -1200 000/00 RMK AO2
14837KMSN MSN20021120023509511/20/02 02:35:31  5-MIN KMSN 200835Z 00000KT 9SM CLR M03/M04 A2999 800 92 -1100 000/00 RMK AO2
14837KMSN MSN20021120024009811/20/02 02:40:31  5-MIN KMSN 200840Z 00000KT 6SM BR CLR M03/M04 A2999 800 96 -1200 000/00 RMK AO2
14837KMSN MSN20021120024509811/20/02 02:45:31  5-MIN KMSN 200845Z 00000KT 5SM BR CLR M03/M04 A2999 800 92 -1200 000/00 RMK AO2
14837KMSN MSN20021120025012111/20/02 02:50:31  5-MIN KMSN 200850Z 00000KT 5SM BR CLR M03/M04 A2999 800 92 -1200 000/00 RMK AO2 SLP162 T10331044 50002
14837KMSN MSN20021120025509811/20/02 02:55:31  5-MIN KMSN 200855Z 00000KT 6SM BR CLR M03/M04 A2999 800 92 -1200 000/00 RMK AO2
14837KMSN MSN20021120030009811/20/02 03:00:31  5-MIN KMSN 200900Z 00000KT 6SM BR CLR M03/M04 A2999 800 92 -1200 000/00 RMK AO2
14837KMSN MSN20021120030509811/20/02 03:05:31  5-MIN KMSN 200905Z 00000KT 6SM BR CLR M03/M04 A2999 800 96 -1200 000/00 RMK AO2
14837KMSN MSN20021120031009811/20/02 03:10:31  5-MIN KMSN 200910Z 00000KT 5SM BR CLR M03/M04 A2998 810 96 -1200 000/00 RMK AO2
14837KMSN MSN20021120031509811/20/02 03:15:31  5-MIN KMSN 200915Z 00000KT 5SM BR CLR M03/M04 A2998 810 96 -1200 000/00 RMK AO2
14837KMSN MSN20021120032009811/20/02 03:20:31  5-MIN KMSN 200920Z 00000KT 6SM BR CLR M03/M04 A2998 810 92 -1100 000/00 RMK AO2
14837KMSN MSN20021120032509811/20/02 03:25:31  5-MIN KMSN 200925Z 00000KT 6SM BR CLR M03/M04 A2998 810 92 -1100 000/00 RMK AO2
14837KMSN MSN20021120033009811/20/02 03:30:31  5-MIN KMSN 200930Z 00000KT 6SM BR CLR M03/M03 A2998 810 96 -1100 000/00 RMK AO2
14837KMSN MSN20021120033509811/20/02 03:35:31  5-MIN KMSN 200935Z 00000KT 6SM BR CLR M03/M03 A2998 810 96 -1100 000/00 RMK AO2
14837KMSN MSN20021120034009811/20/02 03:40:31  5-MIN KMSN 200940Z 00000KT 6SM BR CLR M03/M04 A2998 810 96 -1200 000/00 RMK AO2
14837KMSN MSN20021120034509811/20/02 03:45:31  5-MIN KMSN 200945Z 00000KT 6SM BR CLR M04/M04 A2998 810 96 -1200 000/00 RMK AO2
14837KMSN MSN20021120035011511/20/02 03:50:31  5-MIN KMSN 200950Z 00000KT 6SM BR CLR M03/M04 A2998 810 96 -1200 000/00 RMK AO2 SLP159 T10331039
14837KMSN MSN20021120035509811/20/02 03:55:31  5-MIN KMSN 200955Z 00000KT 6SM BR CLR M03/M04 A2998 810 96 -1200 000/00 RMK AO2
14837KMSN MSN20021120040009811/20/02 04:00:31  5-MIN KMSN 201000Z 00000KT 6SM BR CLR M03/M04 A2998 810 96 -1200 000/00 RMK AO2
14837KMSN MSN20021120040510111/20/02 04:05:31  5-MIN KMSN 201005Z 00000KT 6SM BR FEW100 M03/M04 A2998 810 96 -1200 000/00 RMK AO2
14837KMSN MSN20021120041010111/20/02 04:10:31  5-MIN KMSN 201010Z 00000KT 6SM BR FEW100 M03/M04 A2998 810 96 -1200 000/00 RMK AO2
14837KMSN MSN20021120041510111/20/02 04:15:31  5-MIN KMSN 201015Z 00000KT 6SM BR SCT100 M03/M04 A2998 810 96 -1200 000/00 RMK AO2
14837KMSN MSN20021120042009811/20/02 04:20:31  5-MIN KMSN 201020Z 00000KT 7SM BKN110 M04/M04 A2998 810 96 -1200 000/00 RMK AO2
14837KMSN MSN20021120042509811/20/02 04:25:31  5-MIN KMSN 201025Z 00000KT 7SM BKN110 M03/M04 A2998 810 96 -1200 000/00 RMK AO2
14837KMSN MSN20021120043009811/20/02 04:30:31  5-MIN KMSN 201030Z 00000KT 7SM BKN110 M03/M04 A2998 810 96 -1200 000/00 RMK AO2
14837KMSN MSN20021120043509811/20/02 04:35:31  5-MIN KMSN 201035Z 00000KT 7SM OVC110 M03/M04 A2998 810 92 -1200 000/00 RMK AO2
14837KMSN MSN20021120044009811/20/02 04:40:31  5-MIN KMSN 201040Z 00000KT 7SM OVC110 M03/M04 A2998 810 92 -1200 000/00 RMK AO2
14837KMSN MSN20021120044509811/20/02 04:45:31  5-MIN KMSN 201045Z 00000KT 7SM OVC110 M03/M04 A2998 810 92 -1200 000/00 RMK AO2
14837KMSN MSN20021120045011511/20/02 04:50:31  5-MIN KMSN 201050Z 00000KT 7SM OVC110 M03/M04 A2998 810 96 -1200 000/00 RMK AO2 SLP160 T10331039
14837KMSN MSN20021120045509811/20/02 04:55:31  5-MIN KMSN 201055Z 00000KT 7SM OVC110 M03/M03 A2998 810 96 -1100 000/00 RMK AO2
14837KMSN MSN20021120050009811/20/02 05:00:31  5-MIN KMSN 201100Z 00000KT 7SM BKN110 M03/M03 A2998 810 96 -1100 000/00 RMK AO2
14837KMSN MSN20021120050509811/20/02 05:05:31  5-MIN KMSN 201105Z 00000KT 9SM BKN110 M03/M04 A2998 810 92 -1100 000/00 RMK AO2
14837KMSN MSN20021120051009911/20/02 05:10:31  5-MIN KMSN 201110Z 00000KT 10SM SCT110 M03/M04 A2998 810 92 -1100 000/00 RMK AO2
14837KMSN MSN20021120051509911/20/02 05:15:31  5-MIN KMSN 201115Z 00000KT 10SM SCT110 M02/M04 A2998 810 88 -1000 000/00 RMK AO2
14837KMSN MSN20021120052009911/20/02 05:20:31  5-MIN KMSN 201120Z 00000KT 10SM SCT100 M02/M04 A2998 810 88 -1000 000/00 RMK AO2
14837KMSN MSN20021120052509911/20/02 05:25:31  5-MIN KMSN 201125Z 00000KT 10SM SCT095 M02/M03 A2998 810 92 -1000 000/00 RMK AO2
14837KMSN MSN20021120053009811/20/02 05:30:31  5-MIN KMSN 201130Z 00000KT 10SM BKN095 M02/M03 A2998 810 92 -900 000/00 RMK AO2
14837KMSN MSN20021120053509811/20/02 05:35:31  5-MIN KMSN 201135Z 00000KT 10SM BKN095 M02/M03 A2998 810 92 -900 000/00 RMK AO2
14837KMSN MSN20021120054009711/20/02 05:40:31  5-MIN KMSN 201140Z 00000KT 9SM BKN100 M02/M03 A2998 810 92 -900 000/00 RMK AO2
14837KMSN MSN20021120054509811/20/02 05:45:31  5-MIN KMSN 201145Z 00000KT 10SM OVC100 M02/M03 A2998 810 92 -900 000/00 RMK AO2
14837KMSN MSN20021120055013311/20/02 05:50:31  5-MIN KMSN 201150Z 00000KT 10SM OVC100 M02/M03 A2998 810 92 -900 000/00 RMK AO2 SLP158 T10171028 11011 21039 56004
14837KMSN MSN20021120055509811/20/02 05:55:31  5-MIN KMSN 201155Z 00000KT 10SM OVC100 M02/M03 A2998 810 92 -900 000/00 RMK AO2
14837KMSN MSN20021120060009911/20/02 06:00:31  5-MIN KMSN 201200Z 00000KT 10SM OVC100 M02/M03 A2998 810 92 -1000 000/00 RMK AO2
14837KMSN MSN20021120060509911/20/02 06:05:31  5-MIN KMSN 201205Z 00000KT 10SM OVC100 M02/M03 A2998 810 88 -1000 000/00 RMK AO2
14837KMSN MSN20021120061009811/20/02 06:10:31  5-MIN KMSN 201210Z 00000KT 9SM OVC100 M02/M03 A2999 800 92 -1000 000/00 RMK AO2
14837KMSN MSN20021120061509811/20/02 06:15:31  5-MIN KMSN 201215Z 20003KT 9SM OVC100 M02/M03 A2999 800 92 -1000 200/03 RMK AO2
14837KMSN MSN20021120062009811/20/02 06:20:31  5-MIN KMSN 201220Z 00000KT 9SM OVC100 M02/M02 A2999 800 96 -1000 000/00 RMK AO2
14837KMSN MSN20021120062509911/20/02 06:25:31  5-MIN KMSN 201225Z 00000KT 10SM OVC100 M02/M02 A2999 800 96 -1000 000/00 RMK AO2
14837KMSN MSN20021120063009811/20/02 06:30:31  5-MIN KMSN 201230Z 15003KT 10SM OVC100 M01/M02 A2999 800 92 -800 150/03 RMK AO2
14837KMSN MSN20021120063509811/20/02 06:35:31  5-MIN KMSN 201235Z 15004KT 10SM OVC100 M01/M02 A2998 810 92 -900 150/04 RMK AO2
14837KMSN MSN20021120064009811/20/02 06:40:31  5-MIN KMSN 201240Z 13004KT 10SM OVC100 M01/M01 A2998 810 96 -800 130/04 RMK AO2
14837KMSN MSN20021120064509711/20/02 06:45:31  5-MIN KMSN 201245Z 15003KT 9SM OVC100 M01/M02 A2999 800 92 -900 150/03 RMK AO2
14837KMSN MSN20021120065011511/20/02 06:50:31  5-MIN KMSN 201250Z VRB03KT 10SM BKN100 M01/M02 A2999 800 88 -800 VRB/03 RMK AO2 SLP162 T10061022
14837KMSN MSN20021120065509611/20/02 06:55:31  5-MIN KMSN 201255Z 00000KT 9SM OVC110 00/M01 A2999 800 92 -700 000/00 RMK AO2
14837KMSN MSN20021120070009711/20/02 07:00:31  5-MIN KMSN 201300Z 00000KT 9SM OVC110 M01/M02 A2998 800 92 -800 000/00 RMK AO2
14837KMSN MSN20021120070509611/20/02 07:05:31  5-MIN KMSN 201305Z 15003KT 9SM OVC110 00/M01 A2998 810 92 -700 150/03 RMK AO2
14837KMSN MSN20021120071009611/20/02 07:10:31  5-MIN KMSN 201310Z 14003KT 9SM OVC100 00/M01 A2998 810 92 -700 140/03 RMK AO2
14837KMSN MSN20021120071509711/20/02 07:15:31  5-MIN KMSN 201315Z 00000KT 8SM OVC110 M01/M02 A2998 810 92 -800 000/00 RMK AO2
14837KMSN MSN20021120072010411/20/02 07:20:31  5-MIN KMSN 201320Z 00000KT 7SM BKN100 OVC120 M01/M02 A2998 810 92 -900 000/00 RMK AO2
14837KMSN MSN20021120072510411/20/02 07:25:31  5-MIN KMSN 201325Z 00000KT 7SM BKN090 OVC110 M01/M02 A2998 810 92 -800 000/00 RMK AO2
14837KMSN MSN20021120073010311/20/02 07:30:31  5-MIN KMSN 201330Z 14003KT 7SM BKN085 OVC110 00/M01 A2998 810 92 -700 130/03 RMK AO2
14837KMSN MSN20021120073510311/20/02 07:35:31  5-MIN KMSN 201335Z 00000KT 7SM BKN085 OVC110 00/M01 A2997 810 92 -700 000/00 RMK AO2
14837KMSN MSN20021120074011011/20/02 07:40:31  5-MIN KMSN 201340Z 11003KT 7SM FEW070 BKN080 OVC120 00/M01 A2997 820 92 -700 110/03 RMK AO2
14837KMSN MSN20021120074511011/20/02 07:45:31  5-MIN KMSN 201345Z 00000KT 7SM FEW070 BKN080 OVC095 01/M01 A2997 820 92 -700 000/00 RMK AO2
14837KMSN MSN20021120075013011/20/02 07:50:31  5-MIN KMSN 201350Z 00000KT 6SM BR FEW070 BKN085 OVC100 01/M01 A2997 820 92 -700 000/00 RMK AO2 SLP157 T00061006
14837KMSN MSN20021120075511311/20/02 07:55:31  5-MIN KMSN 201355Z 00000KT 6SM BR FEW070 BKN090 OVC100 00/M01 A2997 820 96 -700 000/00 RMK AO2
14837KMSN MSN20021120080011311/20/02 08:00:31  5-MIN KMSN 201400Z 00000KT 6SM BR FEW070 BKN090 BKN100 00/M01 A2997 820 96 -700 000/00 RMK AO2
14837KMSN MSN20021120080510611/20/02 08:05:31  5-MIN KMSN 201405Z 00000KT 6SM BR FEW070 BKN090 00/M01 A2997 820 96 -700 000/00 RMK AO2
14837KMSN MSN20021120081009611/20/02 08:10:31  5-MIN KMSN 201410Z 00000KT 8SM BKN095 00/M01 A2997 820 96 -700 000/00 RMK AO2
14837KMSN MSN20021120081509611/20/02 08:15:31  5-MIN KMSN 201415Z 00000KT 8SM BKN090 00/M01 A2997 820 96 -700 000/00 RMK AO2
14837KMSN MSN20021120082009611/20/02 08:20:31  5-MIN KMSN 201420Z 00000KT 8SM BKN090 00/M01 A2997 820 96 -700 000/00 RMK AO2
14837KMSN MSN20021120082509511/20/02 08:25:31  5-MIN KMSN 201425Z 00000KT 8SM BKN085 01/00 A2997 820 96 -700 000/00 RMK AO2
14837KMSN MSN20021120083009511/20/02 08:30:31  5-MIN KMSN 201430Z 00000KT 8SM BKN085 01/00 A2997 820 92 -600 000/00 RMK AO2
14837KMSN MSN20021120083510211/20/02 08:35:31  5-MIN KMSN 201435Z 35003KT 8SM SCT080 SCT095 01/01 A2997 820 96 -600 350/03 RMK AO2
14837KMSN MSN20021120084009511/20/02 08:40:31  5-MIN KMSN 201440Z 00000KT 8SM SCT080 01/00 A2997 820 92 -600 000/00 RMK AO2
14837KMSN MSN20021120084510211/20/02 08:45:31  5-MIN KMSN 201445Z 00000KT 8SM FEW075 SCT090 01/01 A2996 820 96 -600 000/00 RMK AO2
14837KMSN MSN20021120085011811/20/02 08:50:31  5-MIN KMSN 201450Z 00000KT 7SM BKN080 01/01 A2996 820 96 -600 000/00 RMK AO2 SLP155 T00110006 56004
14837KMSN MSN20021120085509511/20/02 08:55:31  5-MIN KMSN 201455Z 00000KT 7SM SCT080 01/01 A2996 830 96 -600 000/00 RMK AO2
14837KMSN MSN20021120090009511/20/02 09:00:31  5-MIN KMSN 201500Z 00000KT 7SM BKN080 01/01 A2996 820 96 -600 000/00 RMK AO2
14837KMSN MSN20021120090509511/20/02 09:05:31  5-MIN KMSN 201505Z 00000KT 7SM BKN080 02/01 A2996 820 92 -500 000/00 RMK AO2
14837KMSN MSN20021120091009511/20/02 09:10:31  5-MIN KMSN 201510Z 00000KT 7SM BKN080 02/01 A2996 820 92 -500 000/00 RMK AO2
14837KMSN MSN20021120091509511/20/02 09:15:31  5-MIN KMSN 201515Z 00000KT 7SM BKN080 02/01 A2996 820 92 -500 000/00 RMK AO2
14837KMSN MSN20021120092009511/20/02 09:20:31  5-MIN KMSN 201520Z 00000KT 7SM BKN080 02/01 A2996 830 92 -400 000/00 RMK AO2
14837KMSN MSN20021120092509511/20/02 09:25:31  5-MIN KMSN 201525Z 15003KT 7SM BKN080 02/01 A2996 830 92 -400 150/03 RMK AO2
14837KMSN MSN20021120093009511/20/02 09:30:31  5-MIN KMSN 201530Z 00000KT 7SM BKN080 03/01 A2996 830 89 -400 000/00 RMK AO2
14837KMSN MSN20021120093509511/20/02 09:35:31  5-MIN KMSN 201535Z 00000KT 7SM BKN080 03/01 A2996 830 85 -300 000/00 RMK AO2
14837KMSN MSN20021120094009511/20/02 09:40:31  5-MIN KMSN 201540Z 00000KT 7SM BKN080 03/01 A2996 830 85 -300 000/00 RMK AO2
14837KMSN MSN20021120094509511/20/02 09:45:31  5-MIN KMSN 201545Z 00000KT 7SM BKN080 03/01 A2996 830 85 -300 000/00 RMK AO2
14837KMSN MSN20021120095011211/20/02 09:50:31  5-MIN KMSN 201550Z 00000KT 9SM BKN080 03/01 A2996 830 85 -300 000/00 RMK AO2 SLP154 T00330011
14837KMSN MSN20021120095510211/20/02 09:55:31  5-MIN KMSN 201555Z 00000KT 9SM BKN075 OVC110 04/02 A2996 830 85 -200 000/00 RMK AO2
14837KMSN MSN20021120100010911/20/02 10:00:31  5-MIN KMSN 201600Z 00000KT 9SM SCT075 SCT090 OVC110 04/02 A2996 830 85 -200 000/00 RMK AO2
14837KMSN MSN20021120100510311/20/02 10:05:31  5-MIN KMSN 201605Z 00000KT 10SM SCT075 BKN110 04/02 A2996 830 85 -200 000/00 RMK AO2
14837KMSN MSN20021120101010211/20/02 10:10:31  5-MIN KMSN 201610Z 00000KT 9SM FEW075 SCT100 04/02 A2996 830 85 -200 000/00 RMK AO2
14837KMSN MSN20021120101510311/20/02 10:15:31  5-MIN KMSN 201615Z 00000KT 10SM FEW075 SCT100 04/02 A2996 830 82 -200 000/00 RMK AO2
14837KMSN MSN20021120102010311/20/02 10:20:31  5-MIN KMSN 201620Z 00000KT 10SM FEW075 SCT100 04/02 A2995 830 82 -200 000/00 RMK AO2
14837KMSN MSN20021120102510311/20/02 10:25:31  5-MIN KMSN 201625Z 00000KT 10SM FEW075 SCT100 04/02 A2995 830 85 -200 000/00 RMK AO2
14837KMSN MSN20021120103010311/20/02 10:30:31  5-MIN KMSN 201630Z 00000KT 10SM FEW075 SCT100 05/02 A2995 830 82 -100 000/00 RMK AO2
14837KMSN MSN20021120103510011/20/02 10:35:31  5-MIN KMSN 201635Z 00000KT 10SM FEW075 SCT100 06/02 A2995 840 79 0 000/00 RMK AO2
14837KMSN MSN20021120104010011/20/02 10:40:31  5-MIN KMSN 201640Z 16003KT 10SM FEW075 SCT100 06/02 A2995 840 79 0 160/03 RMK AO2
14837KMSN MSN20021120104510011/20/02 10:45:31  5-MIN KMSN 201645Z 15003KT 10SM FEW075 SCT095 06/02 A2994 840 79 0 150/03 RMK AO2
14837KMSN MSN20021120105011711/20/02 10:50:31  5-MIN KMSN 201650Z VRB03KT 10SM FEW070 SCT090 06/03 A2994 850 79 0 VRB/03 RMK AO2 SLP146 T00610028
14837KMSN MSN20021120105510211/20/02 10:55:31  5-MIN KMSN 201655Z 17003KT 10SM FEW070 BKN090 07/03 A2994 850 76 100 170/03 RMK AO2
14837KMSN MSN20021120110009511/20/02 11:00:31  5-MIN KMSN 201700Z 16005KT 10SM BKN085 07/03 A2993 850 73 200 160/05 RMK AO2
14837KMSN MSN20021120110509511/20/02 11:05:31  5-MIN KMSN 201705Z 16006KT 10SM SCT085 07/03 A2993 850 73 200 160/06 RMK AO2
14837KMSN MSN20021120111009511/20/02 11:10:31  5-MIN KMSN 201710Z 18007KT 10SM BKN085 08/02 A2993 850 68 200 170/07 RMK AO2
14837KMSN MSN20021120111509511/20/02 11:15:31  5-MIN KMSN 201715Z 17007KT 10SM BKN085 08/02 A2993 860 65 300 170/07 RMK AO2
14837KMSN MSN20021120112009511/20/02 11:20:31  5-MIN KMSN 201720Z 18007KT 10SM BKN085 08/02 A2993 860 63 300 170/07 RMK AO2
14837KMSN MSN20021120112509511/20/02 11:25:31  5-MIN KMSN 201725Z 17006KT 10SM BKN085 08/02 A2993 860 63 300 170/06 RMK AO2
14837KMSN MSN20021120113009511/20/02 11:30:31  5-MIN KMSN 201730Z 18007KT 10SM BKN085 08/01 A2993 860 60 300 180/07 RMK AO2
14837KMSN MSN20021120113509511/20/02 11:35:31  5-MIN KMSN 201735Z 18006KT 10SM BKN085 08/01 A2992 860 60 300 180/06 RMK AO2
14837KMSN MSN20021120114009511/20/02 11:40:31  5-MIN KMSN 201740Z 17006KT 10SM BKN085 08/02 A2992 860 63 300 170/06 RMK AO2
14837KMSN MSN20021120114509511/20/02 11:45:31  5-MIN KMSN 201745Z 18004KT 10SM BKN085 08/01 A2992 860 60 300 180/04 RMK AO2
14837KMSN MSN20021120115013011/20/02 11:50:31  5-MIN KMSN 201750Z 19005KT 10SM OVC080 08/01 A2992 860 60 300 190/05 RMK AO2 SLP139 T00830011 10089 21022 58004
14837KMSN MSN20021120115509511/20/02 11:55:31  5-MIN KMSN 201755Z 19005KT 10SM OVC085 09/01 A2992 870 58 400 190/05 RMK AO2
14837KMSN MSN20021120120010211/20/02 12:00:31  5-MIN KMSN 201800Z 19007KT 10SM BKN080 OVC090 09/01 A2992 870 58 400 190/07 RMK AO2
14837KMSN MSN20021120120509511/20/02 12:05:31  5-MIN KMSN 201805Z 19004KT 10SM OVC080 09/01 A2992 870 56 400 190/04 RMK AO2
14837KMSN MSN20021120121010211/20/02 12:10:31  5-MIN KMSN 201810Z 19004KT 10SM BKN070 OVC085 09/01 A2991 870 58 400 190/04 RMK AO2
14837KMSN MSN20021120121510211/20/02 12:15:31  5-MIN KMSN 201815Z 18003KT 10SM BKN070 OVC085 09/01 A2991 870 58 400 180/03 RMK AO2
14837KMSN MSN20021120122009511/20/02 12:20:31  5-MIN KMSN 201820Z 17005KT 10SM OVC070 09/01 A2991 880 58 400 170/05 RMK AO2
14837KMSN MSN20021120122509511/20/02 12:25:31  5-MIN KMSN 201825Z 17006KT 10SM OVC070 09/02 A2991 880 60 400 170/06 RMK AO2
14837KMSN MSN20021120123009511/20/02 12:30:31  5-MIN KMSN 201830Z 17007KT 10SM OVC070 09/02 A2991 880 60 400 170/07 RMK AO2
14837KMSN MSN20021120123509511/20/02 12:35:31  5-MIN KMSN 201835Z 17008KT 10SM OVC065 08/02 A2990 880 63 300 170/08 RMK AO2
14837KMSN MSN20021120124009511/20/02 12:40:31  5-MIN KMSN 201840Z 17007KT 10SM OVC065 08/02 A2990 880 63 300 170/07 RMK AO2
14837KMSN MSN20021120124509511/20/02 12:45:31  5-MIN KMSN 201845Z 17008KT 10SM OVC065 08/01 A2990 880 60 300 170/08 RMK AO2
14837KMSN MSN20021120125011211/20/02 12:50:31  5-MIN KMSN 201850Z 18007KT 10SM OVC065 08/01 A2990 880 60 300 180/07 RMK AO2 SLP133 T00830011
14837KMSN MSN20021120125509511/20/02 12:55:31  5-MIN KMSN 201855Z 17006KT 10SM OVC060 08/02 A2990 880 63 300 170/06 RMK AO2
14837KMSN MSN20021120130009511/20/02 13:00:31  5-MIN KMSN 201900Z 18006KT 10SM OVC060 08/02 A2990 890 63 300 180/06 RMK AO2
14837KMSN MSN20021120130509511/20/02 13:05:31  5-MIN KMSN 201905Z 19007KT 10SM OVC060 08/01 A2990 890 60 300 190/07 RMK AO2
14837KMSN MSN20021120131009511/20/02 13:10:31  5-MIN KMSN 201910Z 19007KT 10SM OVC060 08/01 A2990 890 60 300 190/07 RMK AO2
14837KMSN MSN20021120131509511/20/02 13:15:31  5-MIN KMSN 201915Z 19006KT 10SM BKN060 08/01 A2989 890 60 300 190/06 RMK AO2
14837KMSN MSN20021120132009511/20/02 13:20:31  5-MIN KMSN 201920Z 19007KT 10SM BKN060 09/01 A2989 890 58 400 190/07 RMK AO2
14837KMSN MSN20021120132509511/20/02 13:25:31  5-MIN KMSN 201925Z 18007KT 10SM BKN060 09/01 A2989 890 58 400 180/07 RMK AO2
14837KMSN MSN20021120133009511/20/02 13:30:31  5-MIN KMSN 201930Z 19007KT 10SM BKN060 09/01 A2989 900 58 400 190/07 RMK AO2
14837KMSN MSN20021120133509511/20/02 13:35:31  5-MIN KMSN 201935Z 18006KT 10SM BKN060 09/02 A2989 900 58 500 180/06 RMK AO2
14837KMSN MSN20021120134009511/20/02 13:40:31  5-MIN KMSN 201940Z 19005KT 10SM BKN065 09/01 A2989 900 56 500 190/05 RMK AO2
14837KMSN MSN20021120134509511/20/02 13:45:31  5-MIN KMSN 201945Z 20004KT 10SM BKN065 09/01 A2988 900 56 500 200/04 RMK AO2
14837KMSN MSN20021120135011211/20/02 13:50:31  5-MIN KMSN 201950Z 20005KT 10SM BKN065 09/01 A2988 900 56 500 200/05 RMK AO2 SLP127 T00940011
14837KMSN MSN20021120135509511/20/02 13:55:31  5-MIN KMSN 201955Z 20005KT 10SM BKN060 09/01 A2988 900 56 500 190/05 RMK AO2
14837KMSN MSN20021120140009511/20/02 14:00:31  5-MIN KMSN 202000Z VRB04KT 10SM BKN060 09/01 A2988 900 56 500 VRB/04 RMK AO2
14837KMSN MSN20021120140509511/20/02 14:05:31  5-MIN KMSN 202005Z 21003KT 10SM BKN060 09/01 A2988 900 56 500 210/03 RMK AO2
14837KMSN MSN20021120141009511/20/02 14:10:31  5-MIN KMSN 202010Z 20003KT 10SM BKN060 09/01 A2988 900 56 500 200/03 RMK AO2
14837KMSN MSN20021120141509511/20/02 14:15:31  5-MIN KMSN 202015Z 21004KT 10SM BKN060 09/01 A2988 900 56 500 210/04 RMK AO2
14837KMSN MSN20021120142009511/20/02 14:20:31  5-MIN KMSN 202020Z 20003KT 10SM BKN060 09/01 A2988 900 56 500 200/03 RMK AO2
14837KMSN MSN20021120142509511/20/02 14:25:31  5-MIN KMSN 202025Z VRB03KT 10SM BKN060 09/01 A2988 900 56 500 VRB/03 RMK AO2
14837KMSN MSN20021120143009511/20/02 14:30:31  5-MIN KMSN 202030Z 21004KT 10SM BKN060 10/02 A2988 900 56 600 210/04 RMK AO2
14837KMSN MSN20021120143509511/20/02 14:35:31  5-MIN KMSN 202035Z 19004KT 10SM BKN060 10/01 A2988 900 54 600 190/04 RMK AO2
14837KMSN MSN20021120144010211/20/02 14:40:31  5-MIN KMSN 202040Z 00000KT 10SM SCT060 BKN100 10/01 A2988 900 54 600 000/00 RMK AO2
14837KMSN MSN20021120144510211/20/02 14:45:31  5-MIN KMSN 202045Z VRB04KT 10SM FEW060 SCT100 10/02 A2988 900 56 600 VRB/04 RMK AO2
14837KMSN MSN20021120145012511/20/02 14:50:31  5-MIN KMSN 202050Z VRB03KT 10SM FEW060 SCT100 10/01 A2988 900 54 600 VRB/03 RMK AO2 SLP127 T01000011 58015
14837KMSN MSN20021120145509511/20/02 14:55:31  5-MIN KMSN 202055Z 24004KT 10SM SCT100 10/01 A2988 900 54 600 240/04 RMK AO2
14837KMSN MSN20021120150009511/20/02 15:00:31  5-MIN KMSN 202100Z 22004KT 10SM SCT100 10/01 A2988 900 54 600 220/04 RMK AO2
14837KMSN MSN20021120150509511/20/02 15:05:31  5-MIN KMSN 202105Z 21003KT 10SM SCT100 10/01 A2988 900 54 600 210/03 RMK AO2
14837KMSN MSN20021120151009511/20/02 15:10:31  5-MIN KMSN 202110Z 21004KT 10SM SCT100 10/01 A2988 900 54 600 210/04 RMK AO2
14837KMSN MSN20021120151509511/20/02 15:15:31  5-MIN KMSN 202115Z 20005KT 10SM SCT100 10/02 A2988 900 56 600 200/05 RMK AO2
14837KMSN MSN20021120152009511/20/02 15:20:31  5-MIN KMSN 202120Z 19006KT 10SM SCT100 10/01 A2988 900 54 600 190/06 RMK AO2
14837KMSN MSN20021120152509511/20/02 15:25:31  5-MIN KMSN 202125Z 19005KT 10SM SCT100 10/02 A2988 900 56 600 180/05 RMK AO2
14837KMSN MSN20021120153009511/20/02 15:30:31  5-MIN KMSN 202130Z 19005KT 10SM SCT100 09/02 A2988 900 58 500 190/05 RMK AO2
14837KMSN MSN20021120153509511/20/02 15:35:31  5-MIN KMSN 202135Z 18006KT 10SM SCT100 09/02 A2988 900 58 500 180/06 RMK AO2
14837KMSN MSN20021120154009511/20/02 15:40:31  5-MIN KMSN 202140Z 19006KT 10SM SCT100 09/01 A2988 900 56 500 190/06 RMK AO2
14837KMSN MSN20021120154509511/20/02 15:45:31  5-MIN KMSN 202145Z 18006KT 10SM SCT100 09/02 A2988 900 58 500 180/06 RMK AO2
14837KMSN MSN20021120155011211/20/02 15:50:31  5-MIN KMSN 202150Z 18005KT 10SM SCT100 09/02 A2988 900 60 400 180/05 RMK AO2 SLP125 T00890017
14837KMSN MSN20021120155509511/20/02 15:55:31  5-MIN KMSN 202155Z 18005KT 10SM SCT100 08/02 A2988 900 63 400 180/05 RMK AO2
14837KMSN MSN20021120160009511/20/02 16:00:31  5-MIN KMSN 202200Z 18005KT 10SM SCT100 09/02 A2988 900 60 400 180/05 RMK AO2
14837KMSN MSN20021120160509511/20/02 16:05:31  5-MIN KMSN 202205Z 18005KT 10SM BKN100 08/02 A2988 910 63 400 180/05 RMK AO2
14837KMSN MSN20021120161009511/20/02 16:10:31  5-MIN KMSN 202210Z 19005KT 10SM BKN100 09/02 A2988 900 60 400 190/05 RMK AO2
14837KMSN MSN20021120161509511/20/02 16:15:31  5-MIN KMSN 202215Z 19005KT 10SM OVC100 09/02 A2988 900 60 400 190/05 RMK AO2
14837KMSN MSN20021120162009511/20/02 16:20:31  5-MIN KMSN 202220Z 19004KT 10SM BKN100 09/02 A2988 900 60 400 190/04 RMK AO2
14837KMSN MSN20021120162509511/20/02 16:25:31  5-MIN KMSN 202225Z 18005KT 10SM BKN100 08/02 A2988 900 63 400 180/05 RMK AO2
14837KMSN MSN20021120163009511/20/02 16:30:31  5-MIN KMSN 202230Z 19006KT 10SM BKN100 09/02 A2988 900 63 400 190/06 RMK AO2
14837KMSN MSN20021120163509511/20/02 16:35:31  5-MIN KMSN 202235Z 19006KT 10SM BKN100 09/02 A2988 900 63 400 180/06 RMK AO2
14837KMSN MSN20021120164009511/20/02 16:40:31  5-MIN KMSN 202240Z 19005KT 10SM BKN100 08/02 A2988 900 65 400 180/05 RMK AO2
14837KMSN MSN20021120164509511/20/02 16:45:31  5-MIN KMSN 202245Z 18005KT 10SM BKN100 08/02 A2988 900 65 400 180/05 RMK AO2
14837KMSN MSN20021120165011211/20/02 16:50:31  5-MIN KMSN 202250Z 18005KT 10SM OVC110 08/02 A2988 900 65 400 180/05 RMK AO2 SLP127 T00830022
14837KMSN MSN20021120165509511/20/02 16:55:31  5-MIN KMSN 202255Z 19006KT 10SM OVC110 08/02 A2988 900 65 400 190/06 RMK AO2
14837KMSN MSN20021120170009511/20/02 17:00:31  5-MIN KMSN 202300Z 19006KT 10SM OVC110 08/02 A2988 900 65 400 190/06 RMK AO2
14837KMSN MSN20021120170509511/20/02 17:05:31  5-MIN KMSN 202305Z 19006KT 10SM OVC110 08/02 A2988 900 65 400 190/06 RMK AO2
14837KMSN MSN20021120171009511/20/02 17:10:31  5-MIN KMSN 202310Z 19005KT 10SM OVC110 08/02 A2989 900 65 400 190/05 RMK AO2
14837KMSN MSN20021120171509511/20/02 17:15:31  5-MIN KMSN 202315Z 19005KT 10SM OVC110 08/02 A2989 900 65 300 190/05 RMK AO2
14837KMSN MSN20021120172009511/20/02 17:20:31  5-MIN KMSN 202320Z 20004KT 10SM OVC110 08/02 A2989 890 63 300 200/04 RMK AO2
14837KMSN MSN20021120172509511/20/02 17:25:31  5-MIN KMSN 202325Z 21004KT 10SM OVC110 08/02 A2989 900 63 300 210/04 RMK AO2
14837KMSN MSN20021120173009511/20/02 17:30:31  5-MIN KMSN 202330Z 20003KT 10SM OVC110 08/02 A2989 900 63 300 200/03 RMK AO2
14837KMSN MSN20021120173509511/20/02 17:35:31  5-MIN KMSN 202335Z 21003KT 10SM OVC110 08/02 A2989 890 63 300 200/03 RMK AO2
14837KMSN MSN20021120174009511/20/02 17:40:31  5-MIN KMSN 202340Z 20004KT 10SM OVC110 08/02 A2989 890 63 300 200/04 RMK AO2
14837KMSN MSN20021120174509511/20/02 17:45:31  5-MIN KMSN 202345Z 21004KT 10SM OVC110 08/02 A2989 890 63 300 210/04 RMK AO2
14837KMSN MSN20021120175013011/20/02 17:50:31  5-MIN KMSN 202350Z 21004KT 10SM OVC110 08/02 A2989 890 63 300 210/04 RMK AO2 SLP129 T00830017 10100 20083 56012
14837KMSN MSN20021120175509511/20/02 17:55:31  5-MIN KMSN 202355Z 21004KT 10SM OVC110 08/02 A2989 890 63 300 210/04 RMK AO2
14837KMSN MSN20021120180009511/20/02 18:00:31  5-MIN KMSN 210000Z 21004KT 10SM OVC110 08/02 A2989 890 65 300 210/04 RMK AO2
14837KMSN MSN20021120180509511/20/02 18:05:31  5-MIN KMSN 210005Z 21004KT 10SM OVC110 08/02 A2989 890 68 300 210/04 RMK AO2
14837KMSN MSN20021120181009511/20/02 18:10:31  5-MIN KMSN 210010Z 21003KT 10SM OVC110 08/02 A2989 900 65 300 210/03 RMK AO2
14837KMSN MSN20021120181509511/20/02 18:15:31  5-MIN KMSN 210015Z 20003KT 10SM OVC110 08/02 A2989 900 68 300 200/03 RMK AO2
14837KMSN MSN20021120182010211/20/02 18:20:31  5-MIN KMSN 210020Z 21004KT 10SM FEW085 OVC110 08/02 A2989 890 68 300 200/04 RMK AO2
14837KMSN MSN20021120182510211/20/02 18:25:31  5-MIN KMSN 210025Z 22003KT 10SM SCT085 OVC110 07/02 A2989 900 70 200 210/03 RMK AO2
14837KMSN MSN20021120183010211/20/02 18:30:31  5-MIN KMSN 210030Z 21003KT 10SM FEW085 OVC110 07/02 A2989 900 70 200 210/03 RMK AO2
14837KMSN MSN20021120183510211/20/02 18:35:31  5-MIN KMSN 210035Z 26003KT 10SM FEW085 OVC110 06/02 A2989 900 76 100 260/03 RMK AO2
14837KMSN MSN20021120184010211/20/02 18:40:31  5-MIN KMSN 210040Z 22003KT 10SM FEW085 OVC110 07/02 A2988 900 70 100 210/03 RMK AO2
14837KMSN MSN20021120184510211/20/02 18:45:31  5-MIN KMSN 210045Z 21003KT 10SM FEW085 OVC120 07/02 A2988 900 70 200 210/03 RMK AO2
14837KMSN MSN20021120185011911/20/02 18:50:31  5-MIN KMSN 210050Z 21004KT 10SM SCT090 OVC120 07/02 A2988 900 70 200 210/04 RMK AO2 SLP126 T00720022
14837KMSN MSN20021120185510211/20/02 18:55:31  5-MIN KMSN 210055Z 21003KT 10SM SCT095 OVC110 07/02 A2988 900 73 200 210/03 RMK AO2
14837KMSN MSN20021120190010211/20/02 19:00:31  5-MIN KMSN 210100Z 23003KT 10SM SCT095 OVC110 07/02 A2988 900 70 200 230/03 RMK AO2
14837KMSN MSN20021120190510211/20/02 19:05:31  5-MIN KMSN 210105Z 24003KT 10SM SCT095 OVC110 07/02 A2988 900 70 200 240/03 RMK AO2
14837KMSN MSN20021120191010911/20/02 19:10:31  5-MIN KMSN 210110Z 22003KT 10SM FEW070 SCT090 OVC110 07/02 A2988 900 73 200 220/03 RMK AO2
14837KMSN MSN20021120191510911/20/02 19:15:31  5-MIN KMSN 210115Z 00000KT 10SM FEW070 SCT090 OVC110 07/02 A2988 900 73 200 000/00 RMK AO2
14837KMSN MSN20021120192010211/20/02 19:20:31  5-MIN KMSN 210120Z 22003KT 10SM FEW065 BKN110 07/02 A2988 900 73 200 220/03 RMK AO2
14837KMSN MSN20021120192510211/20/02 19:25:31  5-MIN KMSN 210125Z 21003KT 10SM FEW065 BKN110 07/02 A2988 900 73 200 210/03 RMK AO2
14837KMSN MSN20021120193010211/20/02 19:30:31  5-MIN KMSN 210130Z 20003KT 10SM FEW065 BKN110 07/02 A2988 900 70 200 200/03 RMK AO2
14837KMSN MSN20021120193510211/20/02 19:35:31  5-MIN KMSN 210135Z 00000KT 10SM FEW065 BKN110 07/02 A2988 900 70 200 000/00 RMK AO2
14837KMSN MSN20021120194010211/20/02 19:40:31  5-MIN KMSN 210140Z 00000KT 10SM FEW065 BKN110 07/02 A2988 900 70 200 000/00 RMK AO2
14837KMSN MSN20021120194509511/20/02 19:45:31  5-MIN KMSN 210145Z 00000KT 10SM BKN110 07/02 A2988 910 70 200 000/00 RMK AO2
14837KMSN MSN20021120195011211/20/02 19:50:31  5-MIN KMSN 210150Z 00000KT 10SM BKN110 06/02 A2988 900 73 100 000/00 RMK AO2 SLP124 T00610017
14837KMSN MSN20021120195509611/20/02 19:55:31  5-MIN KMSN 210155Z 00000KT 10SM BKN110 04/01 A2988 910 79 -100 000/00 RMK AO2
14837KMSN MSN20021120200009611/20/02 20:00:31  5-MIN KMSN 210200Z 00000KT 10SM BKN110 04/02 A2988 910 82 -100 000/00 RMK AO2
14837KMSN MSN20021120200509611/20/02 20:05:31  5-MIN KMSN 210205Z 10003KT 10SM SCT110 04/01 A2988 900 82 -100 100/03 RMK AO2
14837KMSN MSN20021120201010311/20/02 20:10:31  5-MIN KMSN 210210Z 36008KT 10SM FEW050 SCT110 03/01 A2988 900 85 -200 360/08 RMK AO2
14837KMSN MSN20021120201511011/20/02 20:15:31  5-MIN KMSN 210215Z 01004KT 10SM FEW050 SCT085 SCT110 04/02 A2988 900 82 -100 010/04 RMK AO2
14837KMSN MSN20021120202010711/20/02 20:20:31  5-MIN KMSN 210220Z 35003KT 10SM FEW050 SCT085 SCT110 05/01 A2988 900 76 0 350/03 RMK AO2
14837KMSN MSN20021120202510311/20/02 20:25:31  5-MIN KMSN 210225Z 31004KT 10SM FEW050 SCT110 03/01 A2989 900 85 -200 310/04 RMK AO2
14837KMSN MSN20021120203010311/20/02 20:30:31  5-MIN KMSN 210230Z 32004KT 10SM FEW050 BKN100 04/01 A2989 900 82 -100 320/04 RMK AO2
14837KMSN MSN20021120203510311/20/02 20:35:31  5-MIN KMSN 210235Z 34004KT 10SM FEW050 BKN100 04/02 A2988 900 82 -100 340/04 RMK AO2
14837KMSN MSN20021120204010011/20/02 20:40:31  5-MIN KMSN 210240Z 34005KT 10SM FEW085 BKN100 06/01 A2988 900 73 0 340/05 RMK AO2
14837KMSN MSN20021120204509311/20/02 20:45:31  5-MIN KMSN 210245Z 33005KT 10SM BKN100 05/01 A2989 900 76 0 330/05 RMK AO2
14837KMSN MSN20021120205011611/20/02 20:50:31  5-MIN KMSN 210250Z 33006KT 10SM OVC100 05/01 A2989 900 76 0 330/06 RMK AO2 SLP128 T00500011 53002
14837KMSN MSN20021120205509611/20/02 20:55:31  5-MIN KMSN 210255Z 33005KT 10SM OVC100 04/01 A2989 900 79 -100 330/05 RMK AO2
14837KMSN MSN20021120210009611/20/02 21:00:31  5-MIN KMSN 210300Z 34005KT 10SM OVC100 04/01 A2989 900 79 -100 340/05 RMK AO2
14837KMSN MSN20021120210509611/20/02 21:05:31  5-MIN KMSN 210305Z 34005KT 10SM BKN100 04/01 A2988 900 79 -100 340/05 RMK AO2
14837KMSN MSN20021120211009611/20/02 21:10:31  5-MIN KMSN 210310Z 33005KT 10SM BKN100 04/01 A2988 900 76 -100 330/05 RMK AO2
14837KMSN MSN20021120211509611/20/02 21:15:31  5-MIN KMSN 210315Z 34005KT 10SM SCT100 04/01 A2988 900 79 -100 340/05 RMK AO2
14837KMSN MSN20021120212009611/20/02 21:20:31  5-MIN KMSN 210320Z 34005KT 10SM FEW100 04/01 A2988 900 76 -100 340/05 RMK AO2
14837KMSN MSN20021120212510311/20/02 21:25:31  5-MIN KMSN 210325Z 34005KT 10SM FEW075 SCT100 04/01 A2988 900 79 -100 340/05 RMK AO2
14837KMSN MSN20021120213009611/20/02 21:30:31  5-MIN KMSN 210330Z 33005KT 10SM FEW075 04/01 A2988 900 79 -100 330/05 RMK AO2
14837KMSN MSN20021120213509611/20/02 21:35:31  5-MIN KMSN 210335Z 33004KT 10SM FEW075 03/01 A2988 900 82 -200 330/04 RMK AO2
14837KMSN MSN20021120214010311/20/02 21:40:31  5-MIN KMSN 210340Z 32005KT 10SM FEW060 SCT075 03/01 A2988 910 82 -200 320/05 RMK AO2
14837KMSN MSN20021120214510311/20/02 21:45:31  5-MIN KMSN 210345Z 32004KT 10SM FEW060 SCT075 03/00 A2988 910 79 -200 320/04 RMK AO2
14837KMSN MSN20021120215012011/20/02 21:50:31  5-MIN KMSN 210350Z 00000KT 10SM FEW060 SCT075 03/00 A2987 910 82 -300 000/00 RMK AO2 SLP124 T00280000
14837KMSN MSN20021120215509611/20/02 21:55:31  5-MIN KMSN 210355Z 00000KT 10SM FEW060 03/00 A2987 910 79 -200 000/00 RMK AO2
14837KMSN MSN20021120220009611/20/02 22:00:31  5-MIN KMSN 210400Z 33003KT 10SM FEW060 03/00 A2988 900 82 -300 330/03 RMK AO2
14837KMSN MSN20021120220509611/20/02 22:05:31  5-MIN KMSN 210405Z 00000KT 10SM FEW060 03/00 A2988 900 82 -300 000/00 RMK AO2
14837KMSN MSN20021120221009611/20/02 22:10:31  5-MIN KMSN 210410Z 01003KT 10SM FEW090 03/00 A2988 900 82 -300 010/03 RMK AO2
14837KMSN MSN20021120221509711/20/02 22:15:31  5-MIN KMSN 210415Z 36003KT 10SM FEW090 02/M01 A2988 900 82 -300 360/03 RMK AO2
14837KMSN MSN20021120222009611/20/02 22:20:31  5-MIN KMSN 210420Z 01003KT 10SM FEW090 02/00 A2988 910 89 -400 010/03 RMK AO2
14837KMSN MSN20021120222509611/20/02 22:25:31  5-MIN KMSN 210425Z 35003KT 10SM FEW090 02/00 A2988 900 85 -300 350/03 RMK AO2
14837KMSN MSN20021120223009711/20/02 22:30:31  5-MIN KMSN 210430Z 35004KT 10SM FEW090 02/M01 A2988 910 85 -400 350/04 RMK AO2
14837KMSN MSN20021120223509611/20/02 22:35:31  5-MIN KMSN 210435Z 36005KT 10SM FEW090 02/00 A2987 910 85 -300 360/05 RMK AO2
14837KMSN MSN20021120224009311/20/02 22:40:31  5-MIN KMSN 210440Z 35004KT 10SM CLR 02/00 A2987 910 85 -300 350/04 RMK AO2
14837KMSN MSN20021120224509311/20/02 22:45:31  5-MIN KMSN 210445Z 33004KT 10SM CLR 02/00 A2987 910 85 -300 330/04 RMK AO2
14837KMSN MSN20021120225011311/20/02 22:50:31  5-MIN KMSN 210450Z 34005KT 10SM FEW090 02/00 A2987 910 85 -300 340/05 RMK AO2 SLP121 T00220000
14837KMSN MSN20021120225509711/20/02 22:55:31  5-MIN KMSN 210455Z 34004KT 10SM FEW090 02/M01 A2987 910 82 -300 340/04 RMK AO2
14837KMSN MSN20021120230009611/20/02 23:00:31  5-MIN KMSN 210500Z 33004KT 10SM FEW090 02/00 A2987 910 85 -300 330/04 RMK AO2
14837KMSN MSN20021120230509611/20/02 23:05:31  5-MIN KMSN 210505Z 33004KT 10SM FEW090 02/00 A2987 910 85 -300 330/04 RMK AO2
14837KMSN MSN20021120231009711/20/02 23:10:31  5-MIN KMSN 210510Z 32005KT 10SM FEW090 02/M01 A2988 910 85 -400 320/05 RMK AO2
14837KMSN MSN20021120231509611/20/02 23:15:31  5-MIN KMSN 210515Z 34006KT 10SM FEW090 02/00 A2987 910 85 -300 340/06 RMK AO2
14837KMSN MSN20021120232009611/20/02 23:20:31  5-MIN KMSN 210520Z 34004KT 10SM FEW090 02/00 A2987 910 85 -300 330/04 RMK AO2
14837KMSN MSN20021120232509611/20/02 23:25:31  5-MIN KMSN 210525Z 34004KT 10SM FEW055 02/00 A2987 910 85 -300 340/04 RMK AO2
14837KMSN MSN20021120233009611/20/02 23:30:31  5-MIN KMSN 210530Z 34005KT 10SM FEW055 02/00 A2987 910 85 -300 340/05 RMK AO2
14837KMSN MSN20021120233509711/20/02 23:35:31  5-MIN KMSN 210535Z 33004KT 10SM FEW055 02/M01 A2987 910 85 -400 330/04 RMK AO2
14837KMSN MSN20021120234009711/20/02 23:40:31  5-MIN KMSN 210540Z 32004KT 10SM FEW055 01/M01 A2987 910 89 -500 320/04 RMK AO2
14837KMSN MSN20021120234509711/20/02 23:45:31  5-MIN KMSN 210545Z 32004KT 10SM FEW055 01/M01 A2987 910 89 -500 320/04 RMK AO2
14837KMSN MSN20021120235014211/20/02 23:50:31  5-MIN KMSN 210550Z 33005KT 10SM FEW055 01/M01 A2987 910 89 -500 320/05 RMK AO2 SLP121 T00061011 10083 20006 401001039 55001
14837KMSN MSN20021120235509411/20/02 23:55:31  5-MIN KMSN 210555Z 32005KT 10SM CLR 02/M01 A2987 910 85 -400 320/05 RMK AO2
14837KMSN MSN20021121000009411/21/02 00:00:31  5-MIN KMSN 210600Z 32005KT 10SM CLR 02/M01 A2987 910 85 -400 320/05 RMK AO2
14837KMSN MSN20021121000509411/21/02 00:05:31  5-MIN KMSN 210605Z 33005KT 10SM CLR 02/M01 A2987 910 85 -400 330/05 RMK AO2
14837KMSN MSN20021121001009411/21/02 00:10:31  5-MIN KMSN 210610Z 33005KT 10SM CLR 02/M01 A2986 920 85 -400 330/05 RMK AO2
14837KMSN MSN20021121001509411/21/02 00:15:31  5-MIN KMSN 210615Z 33005KT 10SM CLR 02/M01 A2986 920 85 -400 330/05 RMK AO2
14837KMSN MSN20021121002009411/21/02 00:20:31  5-MIN KMSN 210620Z 33004KT 10SM CLR 02/M01 A2986 920 85 -400 330/04 RMK AO2
14837KMSN MSN20021121002509411/21/02 00:25:31  5-MIN KMSN 210625Z 32003KT 10SM CLR 02/M01 A2986 920 85 -400 320/03 RMK AO2
14837KMSN MSN20021121003009411/21/02 00:30:31  5-MIN KMSN 210630Z VRB04KT 10SM CLR 02/M01 A2986 920 85 -400 VRB/04 RMK AO2
14837KMSN MSN20021121003509411/21/02 00:35:31  5-MIN KMSN 210635Z VRB04KT 10SM CLR 02/M01 A2986 920 85 -400 VRB/04 RMK AO2
14837KMSN MSN20021121004009411/21/02 00:40:31  5-MIN KMSN 210640Z 35005KT 10SM CLR 02/M01 A2986 920 85 -400 350/05 RMK AO2
14837KMSN MSN20021121004509411/21/02 00:45:31  5-MIN KMSN 210645Z 34005KT 10SM CLR 01/M02 A2986 920 82 -500 340/05 RMK AO2
14837KMSN MSN20021121005011011/21/02 00:50:31  5-MIN KMSN 210650Z 35005KT 9SM CLR 01/M01 A2986 920 89 -500 350/05 RMK AO2 SLP117 T00061011
14837KMSN MSN20021121005509311/21/02 00:55:31  5-MIN KMSN 210655Z 35005KT 9SM CLR 01/M01 A2986 920 89 -500 350/05 RMK AO2
14837KMSN MSN20021121010009311/21/02 01:00:31  5-MIN KMSN 210700Z 34004KT 9SM CLR 02/M01 A2986 920 82 -400 340/04 RMK AO2
14837KMSN MSN20021121010509311/21/02 01:05:31  5-MIN KMSN 210705Z 33005KT 9SM CLR 02/M01 A2986 920 85 -400 330/05 RMK AO2
14837KMSN MSN20021121011009311/21/02 01:10:31  5-MIN KMSN 210710Z 32004KT 9SM CLR 02/M01 A2986 920 85 -400 320/04 RMK AO2
14837KMSN MSN20021121011509311/21/02 01:15:31  5-MIN KMSN 210715Z 33003KT 8SM CLR 01/M01 A2985 930 85 -500 330/03 RMK AO2
14837KMSN MSN20021121012009311/21/02 01:20:31  5-MIN KMSN 210720Z 35003KT 8SM CLR 02/M01 A2985 930 82 -400 350/03 RMK AO2
14837KMSN MSN20021121012509311/21/02 01:25:31  5-MIN KMSN 210725Z 35004KT 8SM CLR 01/M01 A2985 930 85 -400 350/04 RMK AO2
14837KMSN MSN20021121013009311/21/02 01:30:31  5-MIN KMSN 210730Z 33004KT 8SM CLR 01/M01 A2985 930 85 -400 330/04 RMK AO2
14837KMSN MSN20021121013509611/21/02 01:35:31  5-MIN KMSN 210735Z 34004KT 8SM FEW055 02/M01 A2985 930 82 -400 340/04 RMK AO2
14837KMSN MSN20021121014009611/21/02 01:40:31  5-MIN KMSN 210740Z 36004KT 8SM FEW055 01/M01 A2985 930 85 -400 360/04 RMK AO2
14837KMSN MSN20021121014509611/21/02 01:45:31  5-MIN KMSN 210745Z 01005KT 8SM FEW055 01/M01 A2984 940 89 -500 010/05 RMK AO2
14837KMSN MSN20021121015011311/21/02 01:50:31  5-MIN KMSN 210750Z 01004KT 7SM FEW055 01/M01 A2984 940 89 -500 010/04 RMK AO2 SLP111 T00061011
14837KMSN MSN20021121015509611/21/02 01:55:31  5-MIN KMSN 210755Z 36004KT 7SM FEW055 01/M01 A2984 940 89 -500 360/04 RMK AO2
14837KMSN MSN20021121020009611/21/02 02:00:31  5-MIN KMSN 210800Z 36004KT 7SM FEW055 01/M01 A2984 940 89 -400 360/04 RMK AO2
14837KMSN MSN20021121020509611/21/02 02:05:31  5-MIN KMSN 210805Z 35004KT 7SM SCT120 01/M01 A2984 940 89 -400 350/04 RMK AO2
14837KMSN MSN20021121021009611/21/02 02:10:31  5-MIN KMSN 210810Z 36005KT 7SM BKN120 01/M01 A2984 940 89 -400 360/05 RMK AO2
14837KMSN MSN20021121021509911/21/02 02:15:31  5-MIN KMSN 210815Z 36006KT 6SM BR BKN120 01/M01 A2983 950 89 -400 360/06 RMK AO2
14837KMSN MSN20021121022009911/21/02 02:20:31  5-MIN KMSN 210820Z 01005KT 6SM BR BKN120 01/M01 A2983 950 92 -500 010/05 RMK AO2
14837KMSN MSN20021121022509911/21/02 02:25:31  5-MIN KMSN 210825Z 35005KT 6SM BR OVC120 01/M01 A2983 940 92 -500 340/05 RMK AO2
14837KMSN MSN20021121023009911/21/02 02:30:31  5-MIN KMSN 210830Z 34004KT 6SM BR OVC110 01/M01 A2983 950 89 -400 340/04 RMK AO2
14837KMSN MSN20021121023509911/21/02 02:35:31  5-MIN KMSN 210835Z 36006KT 6SM BR OVC110 01/M01 A2983 950 89 -400 360/06 RMK AO2
14837KMSN MSN20021121024010611/21/02 02:40:31  5-MIN KMSN 210840Z 33007KT 6SM BR FEW048 OVC110 01/M01 A2984 940 89 -400 330/07 RMK AO2
14837KMSN MSN20021121024511311/21/02 02:45:31  5-MIN KMSN 210845Z 33006KT 6SM BR FEW011 SCT048 OVC110 01/M01 A2984 940 89 -400 330/06 RMK AO2
14837KMSN MSN20021121025013611/21/02 02:50:31  5-MIN KMSN 210850Z 34005KT 6SM BR SCT011 BKN050 OVC110 02/M01 A2984 940 85 -400 340/05 RMK AO2 SLP108 T00171006 56006
14837KMSN MSN20021121025511011/21/02 02:55:31  5-MIN KMSN 210855Z 34005KT 7SM BKN011 BKN048 OVC110 02/M01 A2983 950 85 -400 340/05 RMK AO2
14837KMSN MSN20021121030011011/21/02 03:00:31  5-MIN KMSN 210900Z 34004KT 7SM SCT011 BKN048 OVC110 02/M01 A2983 950 85 -400 340/04 RMK AO2
14837KMSN MSN20021121030510311/21/02 03:05:31  5-MIN KMSN 210905Z 34005KT 7SM SCT011 OVC048 02/M01 A2983 950 85 -400 340/05 RMK AO2
14837KMSN MSN20021121031010311/21/02 03:10:31  5-MIN KMSN 210910Z 32006KT 7SM SCT011 OVC048 02/M01 A2983 940 85 -400 320/06 RMK AO2
14837KMSN MSN20021121031510311/21/02 03:15:31  5-MIN KMSN 210915Z 33006KT 7SM BKN013 OVC048 02/M01 A2984 940 85 -400 330/06 RMK AO2
14837KMSN MSN20021121032010311/21/02 03:20:31  5-MIN KMSN 210920Z 33005KT 7SM BKN013 OVC048 02/M01 A2983 940 85 -400 330/05 RMK AO2
14837KMSN MSN20021121032510311/21/02 03:25:31  5-MIN KMSN 210925Z 33005KT 8SM BKN015 OVC048 02/M01 A2983 950 85 -400 330/05 RMK AO2
14837KMSN MSN20021121033010311/21/02 03:30:31  5-MIN KMSN 210930Z 35004KT 8SM BKN015 OVC048 02/M01 A2983 950 85 -400 350/04 RMK AO2
14837KMSN MSN20021121033510311/21/02 03:35:31  5-MIN KMSN 210935Z 35005KT 8SM BKN015 OVC048 02/M01 A2983 950 85 -300 350/05 RMK AO2
14837KMSN MSN20021121034009611/21/02 03:40:31  5-MIN KMSN 210940Z 35004KT 7SM OVC015 02/M01 A2983 950 85 -300 350/04 RMK AO2
14837KMSN MSN20021121034509611/21/02 03:45:31  5-MIN KMSN 210945Z 35005KT 7SM OVC015 01/M01 A2982 950 89 -400 350/05 RMK AO2
14837KMSN MSN20021121035011311/21/02 03:50:31  5-MIN KMSN 210950Z 34005KT 7SM OVC015 01/M01 A2982 950 89 -400 340/05 RMK AO2 SLP106 T00111006
14837KMSN MSN20021121035509611/21/02 03:55:31  5-MIN KMSN 210955Z 34003KT 7SM OVC015 02/M01 A2982 950 85 -300 340/03 RMK AO2
14837KMSN MSN20021121040009611/21/02 04:00:31  5-MIN KMSN 211000Z 32004KT 7SM OVC013 02/M01 A2983 950 85 -300 320/04 RMK AO2
14837KMSN MSN20021121040509611/21/02 04:05:31  5-MIN KMSN 211005Z 33005KT 7SM OVC013 02/M01 A2983 950 85 -300 330/05 RMK AO2
14837KMSN MSN20021121041009611/21/02 04:10:31  5-MIN KMSN 211010Z 34006KT 7SM OVC013 02/M01 A2983 950 85 -400 340/06 RMK AO2
14837KMSN MSN20021121041509611/21/02 04:15:31  5-MIN KMSN 211015Z 34006KT 7SM OVC013 02/M01 A2983 950 85 -400 340/06 RMK AO2
14837KMSN MSN20021121042009511/21/02 04:20:31  5-MIN KMSN 211020Z 35006KT 7SM OVC013 02/00 A2983 950 89 -400 350/06 RMK AO2
14837KMSN MSN20021121042509511/21/02 04:25:31  5-MIN KMSN 211025Z 36007KT 7SM OVC013 02/00 A2983 950 89 -400 360/07 RMK AO2
14837KMSN MSN20021121043009511/21/02 04:30:31  5-MIN KMSN 211030Z 36006KT 7SM OVC011 02/00 A2983 950 89 -300 360/06 RMK AO2
14837KMSN MSN20021121043509511/21/02 04:35:31  5-MIN KMSN 211035Z 36005KT 7SM OVC011 01/00 A2983 950 92 -400 350/05 RMK AO2
14837KMSN MSN20021121044009611/21/02 04:40:31  5-MIN KMSN 211040Z 35003KT 7SM OVC011 01/M01 A2983 950 89 -400 350/03 RMK AO2
14837KMSN MSN20021121044509611/21/02 04:45:31  5-MIN KMSN 211045Z 36005KT 7SM OVC011 01/M01 A2982 950 89 -400 350/05 RMK AO2
14837KMSN MSN20021121045012711/21/02 04:50:31  5-MIN KMSN 211050Z 35006KT 7SM BKN011 BKN043 OVC050 01/M01 A2983 950 89 -400 350/06 RMK AO2 SLP106 T00111006
14837KMSN MSN20021121045510311/21/02 04:55:31  5-MIN KMSN 211055Z 35006KT 7SM BKN011 OVC043 01/M01 A2982 950 89 -400 350/06 RMK AO2
14837KMSN MSN20021121050010311/21/02 05:00:31  5-MIN KMSN 211100Z 35005KT 7SM BKN011 OVC043 02/M01 A2982 950 85 -300 350/05 RMK AO2
14837KMSN MSN20021121050510311/21/02 05:05:31  5-MIN KMSN 211105Z 34005KT 7SM BKN011 OVC046 01/M01 A2982 950 89 -400 340/05 RMK AO2
14837KMSN MSN20021121051012611/21/02 05:10:31  5-MIN KMSN 211110Z 34005KT 7SM -SN BKN011 BKN021 OVC046 01/M01 A2982 950 89 -400 340/05 RMK AO2 SNB10 P0000
14837KMSN MSN20021121051512911/21/02 05:15:31  5-MIN KMSN 211115Z 35005KT 6SM -SN BR BKN011 BKN021 OVC046 01/M01 A2982 960 89 -400 350/05 RMK AO2 SNB10 P0000
14837KMSN MSN20021121052012911/21/02 05:20:31  5-MIN KMSN 211120Z 36005KT 6SM -SN BR BKN011 BKN019 OVC039 01/M01 A2982 960 89 -400 360/05 RMK AO2 SNB10 P0000
14837KMSN MSN20021121052512911/21/02 05:25:31  5-MIN KMSN 211125Z 35007KT 5SM -SN BR SCT011 BKN019 OVC042 01/M01 A2982 960 89 -400 350/07 RMK AO2 SNB10 P0000
14837KMSN MSN20021121053012211/21/02 05:30:31  5-MIN KMSN 211130Z 36007KT 3SM -SN BR BKN014 OVC042 01/M01 A2982 960 89 -400 360/07 RMK AO2 SNB10 P0000
14837KMSN MSN20021121053512211/21/02 05:35:31  5-MIN KMSN 211135Z 36007KT 3SM -SN BR BKN010 OVC040 01/M01 A2982 960 92 -500 360/07 RMK AO2 SNB10 P0000
14837KMSN MSN20021121054011511/21/02 05:40:31  5-MIN KMSN 211140Z 36006KT 3SM -SN BR OVC010 01/M01 A2982 960 92 -500 360/06 RMK AO2 SNB10 P0001
14837KMSN MSN20021121054511511/21/02 05:45:31  5-MIN KMSN 211145Z 36005KT 3SM -SN BR OVC010 01/M01 A2982 960 92 -500 350/05 RMK AO2 SNB10 P0001
14837KMSN MSN20021121055016611/21/02 05:50:31  5-MIN KMSN 211150Z 35005KT 1 1/2SM -SN BR OVC008 01/M01 A2982 960 92 -500 350/05 RMK AO2 SNB10 SLP103 P0001 60001 70001 T00061006 10017 20006 56012
14837KMSN MSN20021121055512011/21/02 05:55:31  5-MIN KMSN 211155Z 35005KT 1 1/2SM -SN BR BKN008 OVC020 01/M01 A2982 960 92 -500 350/05 RMK AO2 P0000
14837KMSN MSN20021121060012011/21/02 06:00:31  5-MIN KMSN 211200Z VRB04KT 1 1/4SM -SN BR BKN006 OVC020 00/M01 A2982 960 96 -600 VRB/04 RMK AO2 P0000
14837KMSN MSN20021121060512711/21/02 06:05:31  5-MIN KMSN 211205Z 34004KT 1 1/4SM -SN BR FEW002 BKN006 OVC020 00/M01 A2982 950 96 -600 340/04 RMK AO2 P0001
14837KMSN MSN20021121061011611/21/02 06:10:31  5-MIN KMSN 211210Z 35004KT 1SM -SN BR BKN006 OVC020 00/M01 A2982 950 96 -600 340/04 RMK AO2 P0001
14837KMSN MSN20021121061511811/21/02 06:15:31  5-MIN KMSN 211215Z 35004KT 3/4SM -SN BR BKN006 OVC020 00/M01 A2982 950 96 -600 350/04 RMK AO2 P0002
14837KMSN MSN20021121062011811/21/02 06:20:31  5-MIN KMSN 211220Z 35005KT 3/4SM -SN BR BKN006 OVC020 00/M01 A2982 950 96 -600 350/05 RMK AO2 P0002
14837KMSN MSN20021121062511111/21/02 06:25:31  5-MIN KMSN 211225Z 35005KT 3/4SM -SN BR OVC006 00/M01 A2982 950 96 -600 350/05 RMK AO2 P0002
14837KMSN MSN20021121063012111/21/02 06:30:31  5-MIN KMSN 211230Z 35005KT 3/4SM -SN BR OVC004 00/M01 A2983 950 96 -600 350/05 RMK AO2 SFC VIS 1 P0003
14837KMSN MSN20021121063512111/21/02 06:35:31  5-MIN KMSN 211235Z 35006KT 3/4SM -SN BR OVC004 00/M01 A2983 950 96 -600 350/06 RMK AO2 SFC VIS 1 P0003
14837KMSN MSN20021121064012111/21/02 06:40:31  5-MIN KMSN 211240Z 34005KT 3/4SM -SN BR OVC004 00/M01 A2983 950 96 -600 340/05 RMK AO2 SFC VIS 1 P0003
14837KMSN MSN20021121064512811/21/02 06:45:31  5-MIN KMSN 211245Z 35005KT 3/4SM -SN BR BKN004 OVC007 00/M01 A2983 950 96 -600 350/05 RMK AO2 SFC VIS 1 P0004
14837KMSN MSN20021121065013811/21/02 06:50:31  5-MIN KMSN 211250Z 34006KT 3/4SM -SN BR OVC004 00/M01 A2983 950 96 -600 330/06 RMK AO2 SFC VIS 1 SLP108 P0004 T00001006
14837KMSN MSN20021121065512111/21/02 06:55:31  5-MIN KMSN 211255Z 33005KT 3/4SM -SN BR OVC004 00/M01 A2983 950 96 -600 330/05 RMK AO2 SFC VIS 1 P0001
14837KMSN MSN20021121070013211/21/02 07:00:31  5-MIN KMSN 211300Z 34006KT 3/4SM -SN BR BKN004 OVC010 00/M01 A2983 950 96 -600 340/06 RMK AO2 SFC VIS 1 1/4 P0001
14837KMSN MSN20021121070512811/21/02 07:05:31  5-MIN KMSN 211305Z 33005KT 3/4SM -SN BR FEW002 OVC008 00/M01 A2983 950 96 -600 330/05 RMK AO2 SFC VIS 1 P0001
14837KMSN MSN20021121071012811/21/02 07:10:31  5-MIN KMSN 211310Z 34004KT 3/4SM -SN BR FEW002 OVC008 00/M01 A2983 950 96 -600 340/04 RMK AO2 SFC VIS 1 P0001
14837KMSN MSN20021121071512811/21/02 07:15:31  5-MIN KMSN 211315Z 35004KT 3/4SM -SN BR FEW002 OVC008 00/M01 A2983 950 96 -600 350/04 RMK AO2 SFC VIS 1 P0001
14837KMSN MSN20021121072012811/21/02 07:20:31  5-MIN KMSN 211320Z 34003KT 3/4SM -SN BR BKN008 OVC019 00/M01 A2983 950 96 -600 330/03 RMK AO2 SFC VIS 1 P0001
14837KMSN MSN20021121072513511/21/02 07:25:31  5-MIN KMSN 211325Z 34004KT 3/4SM -SN BR BKN008 BKN019 OVC031 00/M01 A2983 950 96 -600 340/04 RMK AO2 SFC VIS 1 P0001
14837KMSN MSN20021121073013911/21/02 07:30:31  5-MIN KMSN 211330Z 34003KT 3/4SM -SN BR SCT008 BKN019 OVC031 00/M01 A2983 950 96 -600 340/03 RMK AO2 SFC VIS 1 1/2 P0001
14837KMSN MSN20021121073513311/21/02 07:35:31  5-MIN KMSN 211335Z VRB04KT 1SM -SN BR SCT010 SCT019 OVC031 00/M01 A2983 950 96 -600 VRB/04 RMK AO2 SFC VIS 2 P0001
14837KMSN MSN20021121074012611/21/02 07:40:31  5-MIN KMSN 211340Z 35005KT 2SM -SN BR FEW010 OVC031 01/M01 A2983 950 92 -500 350/05 RMK AO2 SFC VIS 3 P0001
14837KMSN MSN20021121074512611/21/02 07:45:31  5-MIN KMSN 211345Z 35006KT 2SM -SN BR FEW012 OVC031 01/M01 A2983 950 92 -500 350/06 RMK AO2 SFC VIS 3 P0001
14837KMSN MSN20021121075012611/21/02 07:50:31  5-MIN KMSN 211350Z 35007KT 3SM -SN BR OVC031 01/M01 A2983 940 92 -500 350/07 RMK AO2 SLP110 P0002 T00061006
14837KMSN MSN20021121075510911/21/02 07:55:31  5-MIN KMSN 211355Z 35005KT 3SM -SN BR OVC031 01/M01 A2984 940 92 -500 350/05 RMK AO2 P0000
14837KMSN MSN20021121080012011/21/02 08:00:31  5-MIN KMSN 211400Z 35006KT 2 1/2SM -SN BR FEW014 OVC031 01/M01 A2984 940 92 -500 350/06 RMK AO2 P0000
14837KMSN MSN20021121080511611/21/02 08:05:31  5-MIN KMSN 211405Z 36008KT 3SM -SN BR FEW014 OVC031 01/M01 A2984 940 92 -500 360/08 RMK AO2 P0000
14837KMSN MSN20021121081011611/21/02 08:10:31  5-MIN KMSN 211410Z 35007KT 3SM -SN BR FEW014 OVC033 01/M01 A2984 940 92 -500 350/07 RMK AO2 P0000
14837KMSN MSN20021121081510911/21/02 08:15:31  5-MIN KMSN 211415Z 35007KT 3SM -SN BR OVC033 01/M01 A2984 940 92 -500 350/07 RMK AO2 P0000
14837KMSN MSN20021121082011611/21/02 08:20:31  5-MIN KMSN 211420Z 35005KT 3SM -SN BR FEW012 OVC033 01/M01 A2984 940 92 -500 350/05 RMK AO2 P0000
14837KMSN MSN20021121082511611/21/02 08:25:31  5-MIN KMSN 211425Z 36007KT 4SM -SN BR FEW010 OVC033 01/M01 A2984 940 92 -500 360/07 RMK AO2 P0000
14837KMSN MSN20021121083011611/21/02 08:30:31  5-MIN KMSN 211430Z 36008KT 6SM -SN BR FEW010 OVC033 01/M01 A2984 930 92 -500 350/08 RMK AO2 P0000
14837KMSN MSN20021121083511811/21/02 08:35:31  5-MIN KMSN 211435Z 36010KT 6SM BR FEW010 OVC035 01/M01 A2984 930 92 -500 360/10 RMK AO2 SNE31 P0000
14837KMSN MSN20021121084011811/21/02 08:40:31  5-MIN KMSN 211440Z 36009KT 6SM BR FEW010 OVC035 01/M01 A2985 930 92 -500 360/09 RMK AO2 SNE31 P0000
14837KMSN MSN20021121084511811/21/02 08:45:31  5-MIN KMSN 211445Z 36008KT 6SM BR FEW010 OVC037 01/M01 A2985 930 92 -500 360/08 RMK AO2 SNE31 P0000
14837KMSN MSN20021121085014411/21/02 08:50:31  5-MIN KMSN 211450Z 36007KT 7SM FEW010 OVC037 01/M01 A2985 930 92 -500 360/07 RMK AO2 SNE31 SLP114 P0000 60006 T00061006 56004
14837KMSN MSN20021121085510311/21/02 08:55:31  5-MIN KMSN 211455Z 36008KT 7SM SCT010 OVC039 01/M01 A2985 930 92 -500 350/08 RMK AO2
14837KMSN MSN20021121090010311/21/02 09:00:31  5-MIN KMSN 211500Z 36008KT 7SM SCT010 OVC039 01/M01 A2985 930 92 -500 360/08 RMK AO2
14837KMSN MSN20021121090512211/21/02 09:05:31  5-MIN KMSN 211505Z 36010KT 4SM -SN BR SCT010 OVC041 01/M01 A2985 930 92 -500 360/10 RMK AO2 SNB01 P0000
14837KMSN MSN20021121091012211/21/02 09:10:31  5-MIN KMSN 211510Z 36010KT 5SM -SN BR FEW010 BKN041 01/M01 A2985 930 92 -500 360/10 RMK AO2 SNB01 P0000
14837KMSN MSN20021121091512211/21/02 09:15:31  5-MIN KMSN 211515Z 36010KT 5SM -SN BR FEW010 BKN041 01/M01 A2985 930 92 -500 360/10 RMK AO2 SNB01 P0000
14837KMSN MSN20021121092012611/21/02 09:20:31  5-MIN KMSN 211520Z 36010KT 7SM -SN FEW010 SCT041 SCT060 01/M01 A2985 930 92 -500 360/10 RMK AO2 SNB01 P0000
14837KMSN MSN20021121092512511/21/02 09:25:31  5-MIN KMSN 211525Z 36010KT 8SM FEW010 SCT032 BKN060 01/M01 A2985 930 89 -500 360/10 RMK AO2 SNB01E25 P0000
14837KMSN MSN20021121093011811/21/02 09:30:31  5-MIN KMSN 211530Z 36011KT 8SM SCT030 SCT043 01/M01 A2985 930 89 -500 360/11 RMK AO2 SNB01E25 P0000
14837KMSN MSN20021121093512511/21/02 09:35:31  5-MIN KMSN 211535Z 36011KT 8SM FEW017 BKN030 BKN041 01/M01 A2985 930 89 -500 360/11 RMK AO2 SNB01E25 P0000
14837KMSN MSN20021121094013211/21/02 09:40:31  5-MIN KMSN 211540Z 36013G18KT 10SM FEW017 BKN030 BKN041 01/M01 A2985 920 89 -500 360/13G18 RMK AO2 SNB01E25 P0000
14837KMSN MSN20021121094512511/21/02 09:45:31  5-MIN KMSN 211545Z 36013G18KT 10SM FEW017 BKN030 01/M01 A2986 920 89 -500 360/13G18 RMK AO2 SNB01E25 P0000
14837KMSN MSN20021121095014211/21/02 09:50:31  5-MIN KMSN 211550Z 01012G19KT 10SM FEW017 OVC030 01/M01 A2986 920 89 -500 010/12G19 RMK AO2 SNB01E25 SLP119 P0000 T00061011
14837KMSN MSN20021121095511011/21/02 09:55:31  5-MIN KMSN 211555Z 36013G19KT 10SM FEW017 OVC030 01/M01 A2986 920 85 -500 360/13G19 RMK AO2
14837KMSN MSN20021121100011111/21/02 10:00:31  5-MIN KMSN 211600Z 36016KT 10SM BKN030 BKN038 OVC080 01/M02 A2986 920 82 -500 360/16 RMK AO2
14837KMSN MSN20021121100511011/21/02 10:05:31  5-MIN KMSN 211605Z 36018G22KT 10SM BKN032 OVC080 01/M02 A2986 920 82 -500 360/18G22 RMK AO2
14837KMSN MSN20021121101010311/21/02 10:10:31  5-MIN KMSN 211610Z 01016G22KT 10SM OVC032 01/M02 A2986 920 82 -500 010/16G22 RMK AO2
14837KMSN MSN20021121101510311/21/02 10:15:31  5-MIN KMSN 211615Z 01015G21KT 10SM OVC032 01/M02 A2986 920 82 -500 010/15G21 RMK AO2
14837KMSN MSN20021121102009711/21/02 10:20:31  5-MIN KMSN 211620Z 01013KT 10SM OVC032 01/M01 A2987 920 85 -500 360/13 RMK AO2
14837KMSN MSN20021121102509711/21/02 10:25:31  5-MIN KMSN 211625Z 36013KT 10SM OVC034 01/M01 A2987 920 85 -500 360/13 RMK AO2
14837KMSN MSN20021121103009711/21/02 10:30:31  5-MIN KMSN 211630Z 01014KT 10SM OVC034 01/M01 A2986 920 85 -500 010/14 RMK AO2
14837KMSN MSN20021121103509711/21/02 10:35:31  5-MIN KMSN 211635Z 36011KT 10SM OVC034 01/M01 A2986 920 85 -500 360/11 RMK AO2
14837KMSN MSN20021121104010411/21/02 10:40:31  5-MIN KMSN 211640Z 36010KT 10SM FEW018 OVC037 01/M01 A2986 920 85 -500 360/10 RMK AO2
14837KMSN MSN20021121104510411/21/02 10:45:31  5-MIN KMSN 211645Z 36010KT 10SM FEW017 OVC037 01/M01 A2986 920 85 -500 360/10 RMK AO2
14837KMSN MSN20021121105012811/21/02 10:50:31  5-MIN KMSN 211650Z 36015KT 10SM FEW017 BKN035 OVC043 01/M01 A2986 920 85 -500 360/15 RMK AO2 SLP121 T00111011
14837KMSN MSN20021121120511711/21/02 12:05:31  5-MIN KMSN 211805Z 36012G18KT 10SM SCT025 BKN032 OVC041 02/M03 A2987 910 72 -400 360/12G18 RMK AO2
14837KMSN MSN20021121121011711/21/02 12:10:31  5-MIN KMSN 211810Z 36016G21KT 10SM SCT025 BKN031 OVC041 02/M03 A2987 910 72 -400 360/16G21 RMK AO2
14837KMSN MSN20021121121511711/21/02 12:15:31  5-MIN KMSN 211815Z 36014G21KT 10SM FEW025 SCT031 OVC043 02/M03 A2987 910 72 -400 360/14G21 RMK AO2
14837KMSN MSN20021121122011111/21/02 12:20:31  5-MIN KMSN 211820Z 36013KT 10SM FEW025 SCT031 OVC043 02/M03 A2987 910 69 -400 360/13 RMK AO2
14837KMSN MSN20021121122511111/21/02 12:25:31  5-MIN KMSN 211825Z 01013KT 10SM FEW025 SCT034 OVC043 02/M03 A2988 910 69 -400 010/13 RMK AO2
14837KMSN MSN20021121123011011/21/02 12:30:31  5-MIN KMSN 211830Z 01015G19KT 10SM FEW025 OVC043 02/M04 A2988 900 66 -400 010/15G19 RMK AO2
14837KMSN MSN20021121123510411/21/02 12:35:31  5-MIN KMSN 211835Z 36009KT 10SM FEW036 OVC043 02/M03 A2988 900 67 -300 360/09 RMK AO2
14837KMSN MSN20021121124010411/21/02 12:40:31  5-MIN KMSN 211840Z 36011KT 10SM SCT033 BKN043 02/M03 A2988 900 67 -300 360/11 RMK AO2
14837KMSN MSN20021121124511011/21/02 12:45:31  5-MIN KMSN 211845Z 35012G17KT 10SM SCT033 BKN043 03/M03 A2988 900 64 -300 350/12G17 RMK AO2
14837KMSN MSN20021121125012711/21/02 12:50:31  5-MIN KMSN 211850Z 02015G20KT 10SM SCT033 BKN043 03/M04 A2988 900 61 -300 010/15G20 RMK AO2 SLP125 T00281039
14837KMSN MSN20021121125511011/21/02 12:55:31  5-MIN KMSN 211855Z 36012G20KT 10SM FEW033 OVC045 03/M04 A2988 900 61 -300 360/12G20 RMK AO2
14837KMSN MSN20021121130011011/21/02 13:00:31  5-MIN KMSN 211900Z 36012G19KT 10SM FEW033 OVC045 03/M04 A2988 900 61 -300 360/12G19 RMK AO2
14837KMSN MSN20021121130510411/21/02 13:05:31  5-MIN KMSN 211905Z 36016KT 10SM FEW032 OVC045 03/M04 A2988 900 59 -300 360/16 RMK AO2
14837KMSN MSN20021121131010311/21/02 13:10:31  5-MIN KMSN 211910Z 01016G20KT 10SM BKN045 03/M04 A2988 900 59 -300 360/16G20 RMK AO2
14837KMSN MSN20021121131510311/21/02 13:15:31  5-MIN KMSN 211915Z 36011G20KT 10SM BKN045 03/M04 A2988 900 57 -200 350/11G20 RMK AO2
14837KMSN MSN20021121132010311/21/02 13:20:31  5-MIN KMSN 211920Z 36014G17KT 10SM BKN045 03/M04 A2988 900 59 -200 360/14G17 RMK AO2
14837KMSN MSN20021121132510311/21/02 13:25:31  5-MIN KMSN 211925Z 36013G20KT 10SM BKN045 03/M04 A2988 900 57 -200 360/13G20 RMK AO2
14837KMSN MSN20021121133010311/21/02 13:30:31  5-MIN KMSN 211930Z 36013G20KT 10SM BKN045 03/M04 A2988 900 59 -300 360/13G20 RMK AO2
14837KMSN MSN20021121133510311/21/02 13:35:31  5-MIN KMSN 211935Z 01016G19KT 10SM BKN045 03/M06 A2988 900 54 -300 010/16G19 RMK AO2
14837KMSN MSN20021121134010311/21/02 13:40:31  5-MIN KMSN 211940Z 01015G21KT 10SM BKN045 03/M06 A2988 900 54 -300 010/15G21 RMK AO2
14837KMSN MSN20021121134509711/21/02 13:45:31  5-MIN KMSN 211945Z 01017KT 10SM BKN045 03/M06 A2988 900 54 -300 010/17 RMK AO2
14837KMSN MSN20021121135012011/21/02 13:50:31  5-MIN KMSN 211950Z 36013G19KT 10SM BKN045 03/M05 A2988 900 54 -200 360/13G19 RMK AO2 SLP127 T00331050
14837KMSN MSN20021121135509711/21/02 13:55:31  5-MIN KMSN 211955Z 36012KT 10SM OVC047 03/M05 A2988 900 54 -200 360/12 RMK AO2
14837KMSN MSN20021121140009711/21/02 14:00:31  5-MIN KMSN 212000Z 36014KT 10SM OVC047 03/M06 A2989 900 52 -200 360/14 RMK AO2
14837KMSN MSN20021121140509711/21/02 14:05:31  5-MIN KMSN 212005Z 35012KT 10SM OVC047 03/M06 A2989 890 50 -200 350/12 RMK AO2
14837KMSN MSN20021121141009711/21/02 14:10:31  5-MIN KMSN 212010Z 34012KT 10SM OVC047 03/M06 A2989 890 50 -200 340/12 RMK AO2
14837KMSN MSN20021121141510311/21/02 14:15:31  5-MIN KMSN 212015Z 34010G16KT 10SM OVC047 03/M06 A2989 890 52 -300 340/10G16 RMK AO2
14837KMSN MSN20021121142010311/21/02 14:20:31  5-MIN KMSN 212020Z 34010G16KT 10SM OVC049 03/M06 A2989 890 54 -300 340/10G16 RMK AO2
14837KMSN MSN20021121142511011/21/02 14:25:31  5-MIN KMSN 212025Z 34010G16KT 10SM BKN047 BKN055 03/M06 A2989 890 54 -300 340/10G16 RMK AO2
14837KMSN MSN20021121143010411/21/02 14:30:31  5-MIN KMSN 212030Z 33009KT 10SM BKN047 BKN055 03/M05 A2990 890 54 -200 330/09 RMK AO2
14837KMSN MSN20021121143510411/21/02 14:35:31  5-MIN KMSN 212035Z 34009KT 10SM BKN047 BKN055 03/M05 A2990 880 54 -200 340/09 RMK AO2
14837KMSN MSN20021121144010411/21/02 14:40:31  5-MIN KMSN 212040Z 33012KT 10SM BKN047 BKN055 03/M05 A2990 880 54 -200 330/12 RMK AO2
14837KMSN MSN20021121144511011/21/02 14:45:31  5-MIN KMSN 212045Z 35010G16KT 10SM BKN047 BKN055 03/M05 A2990 880 56 -300 350/10G16 RMK AO2
14837KMSN MSN20021121145013311/21/02 14:50:31  5-MIN KMSN 212050Z 34010G17KT 10SM BKN047 BKN055 03/M05 A2990 880 56 -300 340/10G17 RMK AO2 SLP135 T00281050 51008
14837KMSN MSN20021121145510311/21/02 14:55:31  5-MIN KMSN 212055Z 34013G18KT 10SM OVC047 03/M05 A2991 880 54 -200 340/13G18 RMK AO2
14837KMSN MSN20021121150011011/21/02 15:00:31  5-MIN KMSN 212100Z 34014G18KT 10SM BKN047 OVC055 03/M04 A2991 870 57 -200 340/14G18 RMK AO2
14837KMSN MSN20021121150511011/21/02 15:05:31  5-MIN KMSN 212105Z 34012G18KT 10SM BKN047 OVC060 03/M04 A2991 870 57 -200 340/12G18 RMK AO2
14837KMSN MSN20021121151010411/21/02 15:10:31  5-MIN KMSN 212110Z 33010KT 10SM SCT047 BKN060 03/M04 A2992 870 57 -200 330/10 RMK AO2
14837KMSN MSN20021121151511011/21/02 15:15:31  5-MIN KMSN 212115Z 34010G16KT 10SM SCT047 BKN060 03/M04 A2992 860 59 -300 340/10G16 RMK AO2
14837KMSN MSN20021121152011011/21/02 15:20:31  5-MIN KMSN 212120Z 33012G18KT 10SM SCT047 BKN060 03/M04 A2992 860 59 -300 330/12G18 RMK AO2
14837KMSN MSN20021121152512611/21/02 15:25:31  5-MIN KMSN 212125Z 33010G18KT 290V360 10SM SCT047 BKN060 03/M04 A2992 860 61 -300 330/10G18 290V360 RMK AO2
14837KMSN MSN20021121153011911/21/02 15:30:31  5-MIN KMSN 212130Z 33010G17KT 300V010 10SM BKN060 03/M03 A2993 860 64 -300 330/10G17 300V010 RMK AO2
14837KMSN MSN20021121153510311/21/02 15:35:31  5-MIN KMSN 212135Z 33010G16KT 10SM BKN060 03/M03 A2993 860 64 -300 330/10G16 RMK AO2
14837KMSN MSN20021121154010311/21/02 15:40:31  5-MIN KMSN 212140Z 33013G20KT 10SM OVC060 03/M04 A2993 860 61 -300 330/13G20 RMK AO2
14837KMSN MSN20021121154510311/21/02 15:45:31  5-MIN KMSN 212145Z 32013G20KT 10SM OVC060 03/M04 A2993 850 61 -300 320/13G20 RMK AO2
14837KMSN MSN20021121155012011/21/02 15:50:31  5-MIN KMSN 212150Z 34010G20KT 10SM OVC055 03/M04 A2993 850 61 -300 330/10G20 RMK AO2 SLP145 T00281039
14837KMSN MSN20021121155510311/21/02 15:55:31  5-MIN KMSN 212155Z 33014G20KT 10SM OVC055 03/M04 A2993 850 61 -300 320/14G20 RMK AO2
14837KMSN MSN20021121160010311/21/02 16:00:31  5-MIN KMSN 212200Z 33012G17KT 10SM OVC060 03/M04 A2994 850 61 -300 330/12G17 RMK AO2
14837KMSN MSN20021121160510311/21/02 16:05:31  5-MIN KMSN 212205Z 33010G18KT 10SM OVC060 02/M03 A2994 850 67 -400 330/10G18 RMK AO2
14837KMSN MSN20021121161010311/21/02 16:10:31  5-MIN KMSN 212210Z 33008G18KT 10SM OVC060 02/M03 A2994 850 67 -400 330/08G18 RMK AO2
14837KMSN MSN20021121161509711/21/02 16:15:31  5-MIN KMSN 212215Z 33008KT 10SM OVC060 02/M03 A2994 840 67 -400 330/08 RMK AO2
14837KMSN MSN20021121162009711/21/02 16:20:31  5-MIN KMSN 212220Z 32007KT 10SM OVC060 02/M03 A2994 840 67 -400 320/07 RMK AO2
14837KMSN MSN20021121162509711/21/02 16:25:31  5-MIN KMSN 212225Z 33009KT 10SM OVC060 02/M03 A2994 840 67 -400 330/09 RMK AO2
14837KMSN MSN20021121163009711/21/02 16:30:31  5-MIN KMSN 212230Z 33007KT 10SM OVC060 02/M03 A2995 840 67 -400 330/07 RMK AO2
14837KMSN MSN20021121163510411/21/02 16:35:31  5-MIN KMSN 212235Z 32007KT 10SM FEW030 BKN060 02/M03 A2995 840 67 -400 320/07 RMK AO2
14837KMSN MSN20021121164010411/21/02 16:40:31  5-MIN KMSN 212240Z 33009KT 10SM FEW030 BKN060 02/M03 A2995 840 67 -400 330/09 RMK AO2
14837KMSN MSN20021121164510411/21/02 16:45:31  5-MIN KMSN 212245Z 33008KT 10SM FEW030 BKN060 02/M03 A2995 840 67 -400 330/08 RMK AO2
14837KMSN MSN20021121165011411/21/02 16:50:31  5-MIN KMSN 212250Z 33008KT 10SM BKN060 02/M03 A2995 830 69 -500 330/08 RMK AO2 SLP151 T00171033
14837KMSN MSN20021121165509711/21/02 16:55:31  5-MIN KMSN 212255Z 32008KT 10SM BKN060 02/M03 A2995 830 69 -500 320/08 RMK AO2
14837KMSN MSN20021121170009711/21/02 17:00:31  5-MIN KMSN 212300Z 33008KT 10SM BKN060 02/M03 A2995 830 69 -500 330/08 RMK AO2
14837KMSN MSN20021121170509711/21/02 17:05:31  5-MIN KMSN 212305Z 33008KT 10SM BKN060 02/M03 A2996 830 67 -400 330/08 RMK AO2
14837KMSN MSN20021121171009711/21/02 17:10:31  5-MIN KMSN 212310Z 32008KT 10SM BKN060 02/M03 A2996 830 67 -400 320/08 RMK AO2
14837KMSN MSN20021121171509711/21/02 17:15:31  5-MIN KMSN 212315Z 32008KT 10SM BKN060 02/M03 A2996 830 67 -400 320/08 RMK AO2
14837KMSN MSN20021121172009711/21/02 17:20:31  5-MIN KMSN 212320Z 32006KT 10SM OVC060 02/M03 A2996 820 67 -400 320/06 RMK AO2
14837KMSN MSN20021121172509711/21/02 17:25:31  5-MIN KMSN 212325Z 32008KT 10SM OVC060 02/M03 A2997 820 67 -400 320/08 RMK AO2
14837KMSN MSN20021121173009711/21/02 17:30:31  5-MIN KMSN 212330Z 33007KT 10SM OVC060 02/M03 A2997 820 67 -400 330/07 RMK AO2
14837KMSN MSN20021121173509711/21/02 17:35:31  5-MIN KMSN 212335Z 32007KT 10SM OVC060 02/M03 A2996 830 67 -400 320/07 RMK AO2
14837KMSN MSN20021121174009711/21/02 17:40:31  5-MIN KMSN 212340Z 32008KT 10SM OVC060 02/M03 A2996 830 67 -400 320/08 RMK AO2
14837KMSN MSN20021121174511311/21/02 17:45:31  5-MIN KMSN 212345Z 32008KT 280V350 10SM OVC060 02/M03 A2996 830 67 -400 320/08 280V350 RMK AO2
14837KMSN MSN20021121175013211/21/02 17:50:31  5-MIN KMSN 212350Z 34006KT 10SM OVC060 02/M03 A2996 820 67 -400 340/06 RMK AO2 SLP155 T00221033 10033 20017 53012
14837KMSN MSN20021121175509711/21/02 17:55:31  5-MIN KMSN 212355Z VRB06KT 10SM OVC065 02/M03 A2997 820 69 -500 VRB/06 RMK AO2
14837KMSN MSN20021121180009711/21/02 18:00:31  5-MIN KMSN 220000Z 33007KT 10SM OVC065 02/M03 A2997 820 69 -500 330/07 RMK AO2
14837KMSN MSN20021121180509711/21/02 18:05:31  5-MIN KMSN 220005Z 33007KT 10SM OVC065 02/M03 A2997 820 69 -500 330/07 RMK AO2
14837KMSN MSN20021121181009711/21/02 18:10:31  5-MIN KMSN 220010Z 32008KT 10SM OVC065 02/M03 A2997 820 69 -500 320/08 RMK AO2
14837KMSN MSN20021121181509711/21/02 18:15:31  5-MIN KMSN 220015Z 32007KT 10SM OVC065 02/M03 A2997 820 67 -400 320/07 RMK AO2
14837KMSN MSN20021121182009711/21/02 18:20:31  5-MIN KMSN 220020Z 32006KT 10SM OVC060 02/M03 A2997 820 67 -400 320/06 RMK AO2
14837KMSN MSN20021121182509711/21/02 18:25:31  5-MIN KMSN 220025Z 32006KT 10SM OVC060 02/M03 A2997 820 69 -500 320/06 RMK AO2
14837KMSN MSN20021121183009711/21/02 18:30:31  5-MIN KMSN 220030Z 32006KT 10SM OVC060 02/M03 A2997 820 69 -500 320/06 RMK AO2
14837KMSN MSN20021121183509711/21/02 18:35:31  5-MIN KMSN 220035Z 32007KT 10SM OVC060 02/M03 A2998 810 67 -500 320/07 RMK AO2
14837KMSN MSN20021121184009711/21/02 18:40:31  5-MIN KMSN 220040Z 32008KT 10SM OVC055 02/M03 A2998 810 67 -500 320/08 RMK AO2
14837KMSN MSN20021121184509711/21/02 18:45:31  5-MIN KMSN 220045Z 33008KT 10SM OVC055 02/M03 A2998 810 67 -500 320/08 RMK AO2
14837KMSN MSN20021121185011411/21/02 18:50:31  5-MIN KMSN 220050Z 32007KT 10SM OVC060 02/M03 A2998 810 67 -500 320/07 RMK AO2 SLP160 T00221033
14837KMSN MSN20021121185509711/21/02 18:55:31  5-MIN KMSN 220055Z 33009KT 10SM OVC055 02/M03 A2998 810 67 -500 330/09 RMK AO2
14837KMSN MSN20021121190009711/21/02 19:00:31  5-MIN KMSN 220100Z 33007KT 10SM OVC055 02/M03 A2998 810 67 -500 330/07 RMK AO2
14837KMSN MSN20021121190509711/21/02 19:05:31  5-MIN KMSN 220105Z 32008KT 10SM OVC055 02/M03 A2998 810 67 -500 320/08 RMK AO2
14837KMSN MSN20021121191009711/21/02 19:10:31  5-MIN KMSN 220110Z 32009KT 10SM OVC055 02/M03 A2998 810 67 -500 320/09 RMK AO2
14837KMSN MSN20021121191509711/21/02 19:15:31  5-MIN KMSN 220115Z 31009KT 10SM OVC055 02/M03 A2998 810 67 -500 310/09 RMK AO2
14837KMSN MSN20021121192011311/21/02 19:20:31  5-MIN KMSN 220120Z 33008KT 300V360 10SM OVC055 02/M03 A2998 810 69 -500 330/08 300V360 RMK AO2
14837KMSN MSN20021121192509711/21/02 19:25:31  5-MIN KMSN 220125Z 33008KT 10SM OVC060 02/M03 A2998 810 69 -500 320/08 RMK AO2
14837KMSN MSN20021121193009711/21/02 19:30:31  5-MIN KMSN 220130Z 33007KT 10SM OVC060 02/M03 A2998 810 69 -500 330/07 RMK AO2
14837KMSN MSN20021121193509711/21/02 19:35:31  5-MIN KMSN 220135Z 33007KT 10SM OVC055 02/M03 A2998 810 69 -500 330/07 RMK AO2
14837KMSN MSN20021121194009711/21/02 19:40:31  5-MIN KMSN 220140Z 32006KT 10SM OVC055 02/M03 A2999 800 69 -500 320/06 RMK AO2
14837KMSN MSN20021121194510411/21/02 19:45:31  5-MIN KMSN 220145Z 33008KT 10SM SCT047 OVC060 02/M03 A2999 800 69 -500 330/08 RMK AO2
14837KMSN MSN20021121195013711/21/02 19:50:31  5-MIN KMSN 220150Z 33009KT 10SM -SN BKN047 OVC060 02/M03 A2999 800 69 -500 330/09 RMK AO2 SNB49 SLP164 P0000 T00171033
14837KMSN MSN20021121195511311/21/02 19:55:31  5-MIN KMSN 220155Z 33008KT 9SM -SN BKN045 OVC055 02/M03 A2999 800 69 -500 330/08 RMK AO2 P0000
14837KMSN MSN20021121200011311/21/02 20:00:31  5-MIN KMSN 220200Z 33008KT 9SM -SN BKN045 OVC055 02/M03 A2999 800 69 -500 330/08 RMK AO2 P0000
14837KMSN MSN20021121200510611/21/02 20:05:31  5-MIN KMSN 220205Z 34009KT 9SM -SN OVC047 02/M03 A2999 800 69 -500 340/09 RMK AO2 P0000
14837KMSN MSN20021121201010611/21/02 20:10:31  5-MIN KMSN 220210Z 33011KT 9SM -SN OVC045 02/M04 A2999 800 66 -500 320/11 RMK AO2 P0000
14837KMSN MSN20021121201510611/21/02 20:15:31  5-MIN KMSN 220215Z 33009KT 9SM -SN OVC047 02/M04 A2999 800 66 -500 330/09 RMK AO2 P0000
14837KMSN MSN20021121202011211/21/02 20:20:31  5-MIN KMSN 220220Z 33008G15KT 9SM -SN OVC047 02/M03 A2999 800 69 -500 330/08G15 RMK AO2 P0000
14837KMSN MSN20021121202511211/21/02 20:25:31  5-MIN KMSN 220225Z 34008G15KT 9SM -SN OVC047 02/M04 A2999 800 66 -500 340/08G15 RMK AO2 P0000
14837KMSN MSN20021121203010611/21/02 20:30:31  5-MIN KMSN 220230Z 33009KT 9SM -SN OVC049 02/M04 A2999 800 66 -500 330/09 RMK AO2 P0000
14837KMSN MSN20021121203510611/21/02 20:35:31  5-MIN KMSN 220235Z 33009KT 9SM -SN OVC049 02/M04 A2999 800 66 -500 330/09 RMK AO2 P0000
14837KMSN MSN20021121204010611/21/02 20:40:31  5-MIN KMSN 220240Z 33008KT 9SM -SN OVC049 02/M04 A2999 800 66 -500 330/08 RMK AO2 P0000
14837KMSN MSN20021121204510811/21/02 20:45:31  5-MIN KMSN 220245Z 32009KT 9SM OVC049 02/M04 A2999 800 66 -500 320/09 RMK AO2 SNE44 P0000
14837KMSN MSN20021121205013811/21/02 20:50:31  5-MIN KMSN 220250Z 33010KT 10SM OVC049 02/M04 A2999 800 66 -500 330/10 RMK AO2 SNE44 SLP164 P0000 60000 T00171039 51019
14837KMSN MSN20021121205509711/21/02 20:55:31  5-MIN KMSN 220255Z 33007KT 10SM OVC049 02/M04 A2999 800 66 -500 330/07 RMK AO2
14837KMSN MSN20021121210009711/21/02 21:00:31  5-MIN KMSN 220300Z 33008KT 10SM OVC049 02/M03 A2999 800 69 -500 330/08 RMK AO2
14837KMSN MSN20021121210509711/21/02 21:05:31  5-MIN KMSN 220305Z 33008KT 10SM OVC049 02/M03 A2998 800 69 -500 330/08 RMK AO2
14837KMSN MSN20021121211009711/21/02 21:10:31  5-MIN KMSN 220310Z 32007KT 10SM OVC055 02/M04 A2998 810 66 -500 320/07 RMK AO2
14837KMSN MSN20021121211509711/21/02 21:15:31  5-MIN KMSN 220315Z 32009KT 10SM OVC055 02/M04 A2998 810 66 -500 320/09 RMK AO2
14837KMSN MSN20021121212009711/21/02 21:20:31  5-MIN KMSN 220320Z 31008KT 10SM OVC055 02/M04 A2998 810 66 -500 310/08 RMK AO2
14837KMSN MSN20021121212509711/21/02 21:25:31  5-MIN KMSN 220325Z VRB06KT 10SM OVC055 01/M04 A2998 810 69 -600 VRB/06 RMK AO2
14837KMSN MSN20021121213009711/21/02 21:30:31  5-MIN KMSN 220330Z 32006KT 10SM OVC055 01/M04 A2998 810 69 -600 320/06 RMK AO2
14837KMSN MSN20021121213509711/21/02 21:35:31  5-MIN KMSN 220335Z 32008KT 10SM OVC055 02/M04 A2998 810 66 -500 320/08 RMK AO2
14837KMSN MSN20021121214009711/21/02 21:40:31  5-MIN KMSN 220340Z 31006KT 10SM OVC055 01/M04 A2998 810 69 -600 310/06 RMK AO2
14837KMSN MSN20021121214509711/21/02 21:45:31  5-MIN KMSN 220345Z 32009KT 10SM OVC055 01/M04 A2998 810 69 -600 320/09 RMK AO2
14837KMSN MSN20021121215011411/21/02 21:50:31  5-MIN KMSN 220350Z 32008KT 10SM OVC055 01/M04 A2998 810 69 -600 320/08 RMK AO2 SLP160 T00111039
14837KMSN MSN20021121215509711/21/02 21:55:31  5-MIN KMSN 220355Z 31007KT 10SM OVC050 01/M04 A2998 810 69 -600 310/07 RMK AO2
14837KMSN MSN20021121220009711/21/02 22:00:31  5-MIN KMSN 220400Z 32007KT 10SM OVC050 01/M04 A2998 810 69 -600 320/07 RMK AO2
14837KMSN MSN20021121220509711/21/02 22:05:31  5-MIN KMSN 220405Z 31007KT 10SM OVC050 01/M04 A2998 810 69 -600 310/07 RMK AO2
14837KMSN MSN20021121221009711/21/02 22:10:31  5-MIN KMSN 220410Z 32008KT 10SM OVC050 01/M03 A2998 810 72 -600 320/08 RMK AO2
14837KMSN MSN20021121221509711/21/02 22:15:31  5-MIN KMSN 220415Z 33007KT 10SM OVC050 01/M03 A2998 810 72 -600 330/07 RMK AO2
14837KMSN MSN20021121222011311/21/02 22:20:31  5-MIN KMSN 220420Z 33007KT 10SM -SN OVC050 01/M03 A2998 810 72 -600 330/07 RMK AO2 SNB16 P0000
14837KMSN MSN20021121222511211/21/02 22:25:31  5-MIN KMSN 220425Z 32008KT 9SM -SN OVC050 01/M03 A2998 810 72 -600 320/08 RMK AO2 SNB16 P0000
14837KMSN MSN20021121223011211/21/02 22:30:31  5-MIN KMSN 220430Z 32008KT 9SM -SN OVC055 01/M03 A2998 810 72 -600 320/08 RMK AO2 SNB16 P0000
14837KMSN MSN20021121223511211/21/02 22:35:31  5-MIN KMSN 220435Z 33007KT 9SM -SN OVC055 01/M03 A2998 800 72 -600 330/07 RMK AO2 SNB16 P0000
14837KMSN MSN20021121224011211/21/02 22:40:31  5-MIN KMSN 220440Z 32006KT 9SM -SN OVC055 01/M03 A2998 800 72 -600 320/06 RMK AO2 SNB16 P0000
14837KMSN MSN20021121224511211/21/02 22:45:31  5-MIN KMSN 220445Z 33006KT 9SM -SN OVC055 01/M03 A2999 800 72 -600 330/06 RMK AO2 SNB16 P0000
14837KMSN MSN20021121225012911/21/02 22:50:31  5-MIN KMSN 220450Z 33007KT 9SM -SN OVC055 01/M03 A2999 800 72 -600 330/07 RMK AO2 SNB16 SLP163 P0000 T00111033
14837KMSN MSN20021121225510611/21/02 22:55:31  5-MIN KMSN 220455Z 32007KT 9SM -SN OVC055 01/M03 A2999 800 72 -600 320/07 RMK AO2 P0000
14837KMSN MSN20021121230010611/21/02 23:00:31  5-MIN KMSN 220500Z 32008KT 9SM -SN OVC055 01/M03 A2999 800 72 -600 320/08 RMK AO2 P0000
14837KMSN MSN20021121230510611/21/02 23:05:31  5-MIN KMSN 220505Z 32008KT 9SM -SN OVC055 01/M03 A2999 800 72 -600 320/08 RMK AO2 P0000
14837KMSN MSN20021121231010611/21/02 23:10:31  5-MIN KMSN 220510Z 33008KT 9SM -SN OVC055 01/M03 A2999 800 72 -600 330/08 RMK AO2 P0000
14837KMSN MSN20021121231511311/21/02 23:15:31  5-MIN KMSN 220515Z 33008KT 9SM -SN FEW027 OVC055 01/M03 A2999 800 72 -600 330/08 RMK AO2 P0000
14837KMSN MSN20021121232011311/21/02 23:20:31  5-MIN KMSN 220520Z 33009KT 9SM -SN FEW027 OVC060 01/M03 A2999 800 75 -600 330/09 RMK AO2 P0000
14837KMSN MSN20021121232511911/21/02 23:25:31  5-MIN KMSN 220525Z 33012G17KT 8SM -SN FEW027 OVC060 01/M03 A3000 790 75 -600 330/12G17 RMK AO2 P0000
14837KMSN MSN20021121233011911/21/02 23:30:31  5-MIN KMSN 220530Z 32010G17KT 8SM -SN FEW022 OVC060 01/M03 A3000 790 78 -700 320/10G17 RMK AO2 P0000
14837KMSN MSN20021121233512011/21/02 23:35:31  5-MIN KMSN 220535Z 32010KT 8SM -SN FEW022 SCT035 OVC060 01/M03 A3000 790 78 -700 320/10 RMK AO2 P0000
14837KMSN MSN20021121234011311/21/02 23:40:31  5-MIN KMSN 220540Z 33012KT 9SM -SN SCT035 OVC060 01/M03 A3000 790 78 -700 330/12 RMK AO2 P0000
14837KMSN MSN20021121234511311/21/02 23:45:31  5-MIN KMSN 220545Z 32010KT 9SM -SN FEW035 OVC060 01/M03 A3000 790 75 -700 320/10 RMK AO2 P0000
14837KMSN MSN20021121235016411/21/02 23:50:31  5-MIN KMSN 220550Z 33009KT 9SM -SN FEW035 OVC060 01/M03 A3000 790 75 -700 330/09 RMK AO2 SLP168 P0000 60000 T00061033 10022 20006 400330000 51008
14837KMSN MSN20021121235511911/21/02 23:55:31  5-MIN KMSN 220555Z 33011G16KT 9SM -SN FEW035 OVC060 01/M03 A3000 790 75 -700 330/11G16 RMK AO2 P0000
14837KMSN MSN20021122000011311/22/02 00:00:31  5-MIN KMSN 220600Z 33011KT 9SM -SN FEW035 OVC060 01/M04 A3000 790 72 -700 330/11 RMK AO2 P0000
14837KMSN MSN20021122000511311/22/02 00:05:31  5-MIN KMSN 220605Z 33010KT 9SM -SN FEW035 OVC060 01/M04 A3000 790 72 -700 320/10 RMK AO2 P0000
14837KMSN MSN20021122001011911/22/02 00:10:31  5-MIN KMSN 220610Z 33011G15KT 9SM -SN FEW037 OVC060 01/M04 A3000 790 72 -700 330/11G15 RMK AO2 P0000
14837KMSN MSN20021122001511311/22/02 00:15:31  5-MIN KMSN 220615Z 34010KT 9SM -SN FEW037 OVC060 01/M04 A3000 790 72 -700 340/10 RMK AO2 P0000
14837KMSN MSN20021122002011311/22/02 00:20:31  5-MIN KMSN 220620Z 33009KT 9SM -SN FEW037 OVC060 01/M04 A3000 790 72 -700 330/09 RMK AO2 P0000
14837KMSN MSN20021122002511311/22/02 00:25:31  5-MIN KMSN 220625Z 34009KT 9SM -SN FEW037 OVC060 01/M04 A3000 790 72 -700 340/09 RMK AO2 P0000
14837KMSN MSN20021122003011311/22/02 00:30:31  5-MIN KMSN 220630Z 33010KT 9SM -SN FEW037 OVC060 01/M04 A3001 780 72 -700 320/10 RMK AO2 P0000
14837KMSN MSN20021122003511311/22/02 00:35:31  5-MIN KMSN 220635Z 33011KT 9SM -SN FEW037 OVC060 01/M04 A3001 780 72 -700 330/11 RMK AO2 P0000
14837KMSN MSN20021122004010611/22/02 00:40:31  5-MIN KMSN 220640Z 34010KT 9SM -SN OVC060 01/M04 A3001 780 69 -700 340/10 RMK AO2 P0000
14837KMSN MSN20021122004510611/22/02 00:45:31  5-MIN KMSN 220645Z 32009KT 9SM -SN OVC060 01/M04 A3001 780 69 -700 320/09 RMK AO2 P0000
14837KMSN MSN20021122005012311/22/02 00:50:31  5-MIN KMSN 220650Z 34008KT 9SM -SN OVC060 01/M04 A3001 780 69 -700 340/08 RMK AO2 SLP171 P0000 T00061044
14837KMSN MSN20021122005511911/22/02 00:55:31  5-MIN KMSN 220655Z 33011G16KT 9SM -SN FEW030 OVC060 01/M05 A3001 780 66 -700 330/11G16 RMK AO2 P0000
14837KMSN MSN20021122010011911/22/02 01:00:31  5-MIN KMSN 220700Z 34010G16KT 9SM -SN FEW030 OVC060 00/M05 A3002 780 69 -800 340/10G16 RMK AO2 P0000
14837KMSN MSN20021122010511911/22/02 01:05:31  5-MIN KMSN 220705Z 34009G16KT 9SM -SN FEW030 OVC060 00/M05 A3002 780 69 -800 340/09G16 RMK AO2 P0000
14837KMSN MSN20021122011011311/22/02 01:10:31  5-MIN KMSN 220710Z 33011KT 9SM -SN SCT030 OVC060 00/M05 A3001 780 69 -800 330/11 RMK AO2 P0000
14837KMSN MSN20021122011511311/22/02 01:15:31  5-MIN KMSN 220715Z 34008KT 9SM -SN BKN030 OVC060 00/M05 A3001 780 69 -800 340/08 RMK AO2 P0000
14837KMSN MSN20021122012011311/22/02 01:20:31  5-MIN KMSN 220720Z 33008KT 9SM -SN BKN030 OVC060 00/M05 A3001 780 69 -800 330/08 RMK AO2 P0000
14837KMSN MSN20021122012511311/22/02 01:25:31  5-MIN KMSN 220725Z 33007KT 9SM -SN BKN030 OVC060 00/M05 A3001 780 69 -800 330/07 RMK AO2 P0000
14837KMSN MSN20021122013011311/22/02 01:30:31  5-MIN KMSN 220730Z 33006KT 9SM -SN BKN030 OVC060 00/M04 A3001 780 72 -800 330/06 RMK AO2 P0000
14837KMSN MSN20021122013511311/22/02 01:35:31  5-MIN KMSN 220735Z 33007KT 9SM -SN BKN030 OVC060 00/M04 A3001 780 72 -800 330/07 RMK AO2 P0000
14837KMSN MSN20021122014011311/22/02 01:40:31  5-MIN KMSN 220740Z 33007KT 9SM -SN BKN030 OVC060 00/M04 A3001 780 72 -800 330/07 RMK AO2 P0000
14837KMSN MSN20021122014511611/22/02 01:45:31  5-MIN KMSN 220745Z 32008KT 10SM SCT030 OVC060 00/M04 A3001 780 72 -800 320/08 RMK AO2 SNE41 P0000
14837KMSN MSN20021122015013311/22/02 01:50:31  5-MIN KMSN 220750Z 33007KT 10SM SCT030 OVC060 00/M05 A3001 780 69 -800 330/07 RMK AO2 SNE41 SLP172 P0000 T00001050
14837KMSN MSN20021122015510411/22/02 01:55:31  5-MIN KMSN 220755Z 32008KT 10SM FEW028 OVC060 00/M05 A3002 780 69 -800 320/08 RMK AO2
14837KMSN MSN20021122020010411/22/02 02:00:31  5-MIN KMSN 220800Z 33010KT 10SM FEW028 OVC060 00/M05 A3002 770 69 -800 330/10 RMK AO2
14837KMSN MSN20021122020509711/22/02 02:05:31  5-MIN KMSN 220805Z 33010KT 10SM OVC060 00/M05 A3002 770 69 -800 330/10 RMK AO2
14837KMSN MSN20021122021009711/22/02 02:10:31  5-MIN KMSN 220810Z 32010KT 10SM OVC060 00/M05 A3002 770 69 -800 320/10 RMK AO2
14837KMSN MSN20021122021509711/22/02 02:15:31  5-MIN KMSN 220815Z 33008KT 10SM OVC060 00/M05 A3003 770 69 -800 330/08 RMK AO2
14837KMSN MSN20021122022009711/22/02 02:20:31  5-MIN KMSN 220820Z 32010KT 10SM OVC060 00/M05 A3003 770 69 -800 320/10 RMK AO2
14837KMSN MSN20021122022511311/22/02 02:25:31  5-MIN KMSN 220825Z 33011KT 310V020 10SM OVC060 00/M05 A3003 770 69 -800 330/11 310V020 RMK AO2
14837KMSN MSN20021122023009811/22/02 02:30:31  5-MIN KMSN 220830Z 33009KT 10SM OVC060 M01/M05 A3003 770 72 -900 330/09 RMK AO2
14837KMSN MSN20021122023509811/22/02 02:35:31  5-MIN KMSN 220835Z 33009KT 10SM OVC060 M01/M05 A3003 770 72 -900 330/09 RMK AO2
14837KMSN MSN20021122024009811/22/02 02:40:31  5-MIN KMSN 220840Z 34007KT 10SM OVC060 M01/M05 A3003 770 72 -900 340/07 RMK AO2
14837KMSN MSN20021122024509811/22/02 02:45:31  5-MIN KMSN 220845Z 32011KT 10SM OVC060 M01/M05 A3003 760 72 -900 320/11 RMK AO2
14837KMSN MSN20021122025012711/22/02 02:50:31  5-MIN KMSN 220850Z 33008KT 10SM OVC060 M01/M05 A3003 760 72 -900 330/08 RMK AO2 SLP178 60000 T10061050 53004
14837KMSN MSN20021122025509811/22/02 02:55:31  5-MIN KMSN 220855Z 33008KT 10SM OVC060 M01/M05 A3003 760 72 -900 330/08 RMK AO2
14837KMSN MSN20021122030009811/22/02 03:00:31  5-MIN KMSN 220900Z 33009KT 10SM OVC060 M01/M05 A3003 760 72 -900 330/09 RMK AO2
14837KMSN MSN20021122030509811/22/02 03:05:31  5-MIN KMSN 220905Z 34009KT 10SM OVC060 M01/M05 A3003 760 72 -900 330/09 RMK AO2
14837KMSN MSN20021122031009811/22/02 03:10:31  5-MIN KMSN 220910Z 34008KT 10SM OVC060 M01/M05 A3003 760 72 -900 330/08 RMK AO2
14837KMSN MSN20021122031509811/22/02 03:15:31  5-MIN KMSN 220915Z 33008KT 10SM OVC060 M01/M05 A3003 760 72 -900 330/08 RMK AO2
14837KMSN MSN20021122032009811/22/02 03:20:31  5-MIN KMSN 220920Z 33009KT 10SM OVC060 M01/M05 A3003 760 72 -900 330/09 RMK AO2
14837KMSN MSN20021122032509811/22/02 03:25:31  5-MIN KMSN 220925Z 32008KT 10SM OVC060 M01/M05 A3003 760 72 -900 320/08 RMK AO2
14837KMSN MSN20021122033009811/22/02 03:30:31  5-MIN KMSN 220930Z 33008KT 10SM OVC060 M01/M05 A3004 760 72 -900 320/08 RMK AO2
14837KMSN MSN20021122033509811/22/02 03:35:31  5-MIN KMSN 220935Z 32009KT 10SM OVC060 M01/M05 A3004 760 72 -900 320/09 RMK AO2
14837KMSN MSN20021122034011311/22/02 03:40:31  5-MIN KMSN 220940Z 33008KT 7SM -SN OVC060 M01/M04 A3004 760 75 -900 330/08 RMK AO2 SNB38 P0000
14837KMSN MSN20021122034511311/22/02 03:45:31  5-MIN KMSN 220945Z 32009KT 7SM -SN OVC060 M01/M04 A3004 750 75 -900 320/09 RMK AO2 SNB38 P0000
14837KMSN MSN20021122035013511/22/02 03:50:31  5-MIN KMSN 220950Z 33010G15KT 9SM OVC060 M01/M04 A3004 750 75 -900 330/10G15 RMK AO2 SNB38E50 SLP183 P0000 T10061044
14837KMSN MSN20021122035510711/22/02 03:55:31  5-MIN KMSN 220955Z 32008KT 9SM -SN OVC060 M01/M04 A3004 750 75 -900 320/08 RMK AO2 P0000
14837KMSN MSN20021122040010711/22/02 04:00:31  5-MIN KMSN 221000Z 32008KT 9SM -SN OVC060 M01/M04 A3004 750 75 -900 320/08 RMK AO2 P0000
14837KMSN MSN20021122040510711/22/02 04:05:31  5-MIN KMSN 221005Z 32009KT 9SM -SN OVC060 M01/M04 A3005 750 75 -900 320/09 RMK AO2 P0000
14837KMSN MSN20021122041010711/22/02 04:10:31  5-MIN KMSN 221010Z 33009KT 9SM -SN OVC060 M01/M04 A3005 750 75 -900 330/09 RMK AO2 P0000
14837KMSN MSN20021122041510711/22/02 04:15:31  5-MIN KMSN 221015Z 32009KT 9SM -SN OVC060 M01/M04 A3005 750 75 -900 320/09 RMK AO2 P0000
14837KMSN MSN20021122042010711/22/02 04:20:31  5-MIN KMSN 221020Z 33009KT 9SM -SN OVC060 M01/M05 A3004 750 72 -900 330/09 RMK AO2 P0000
14837KMSN MSN20021122042510711/22/02 04:25:31  5-MIN KMSN 221025Z 33010KT 9SM -SN OVC060 M01/M05 A3004 750 72 -900 330/10 RMK AO2 P0000
14837KMSN MSN20021122043010811/22/02 04:30:31  5-MIN KMSN 221030Z 33010KT 9SM -SN OVC060 M01/M05 A3005 750 75 -1000 330/10 RMK AO2 P0000
14837KMSN MSN20021122043510711/22/02 04:35:31  5-MIN KMSN 221035Z 32007KT 9SM -SN OVC060 M01/M05 A3004 750 72 -900 320/07 RMK AO2 P0000
14837KMSN MSN20021122044010811/22/02 04:40:31  5-MIN KMSN 221040Z 32008KT 9SM -SN OVC060 M01/M04 A3005 750 78 -1000 320/08 RMK AO2 P0000
14837KMSN MSN20021122044510811/22/02 04:45:31  5-MIN KMSN 221045Z 33008KT 9SM -SN OVC060 M01/M04 A3005 740 78 -1000 330/08 RMK AO2 P0000
14837KMSN MSN20021122045012511/22/02 04:50:31  5-MIN KMSN 221050Z 33010KT 9SM -SN OVC060 M01/M04 A3005 750 78 -1000 330/10 RMK AO2 SLP185 P0000 T10111044
14837KMSN MSN20021122045510811/22/02 04:55:31  5-MIN KMSN 221055Z 33007KT 9SM -SN OVC060 M01/M05 A3005 740 75 -1000 330/07 RMK AO2 P0000
14837KMSN MSN20021122050010811/22/02 05:00:31  5-MIN KMSN 221100Z 33007KT 9SM -SN OVC060 M01/M05 A3005 740 75 -1000 330/07 RMK AO2 P0000
14837KMSN MSN20021122050510811/22/02 05:05:31  5-MIN KMSN 221105Z 33006KT 9SM -SN OVC060 M01/M05 A3005 740 75 -1000 320/06 RMK AO2 P0000
14837KMSN MSN20021122051010811/22/02 05:10:31  5-MIN KMSN 221110Z 33009KT 9SM -SN OVC060 M01/M05 A3006 740 75 -1000 330/09 RMK AO2 P0000
14837KMSN MSN20021122051510811/22/02 05:15:31  5-MIN KMSN 221115Z 33008KT 9SM -SN OVC060 M01/M05 A3006 740 75 -1000 330/08 RMK AO2 P0000
14837KMSN MSN20021122052010811/22/02 05:20:31  5-MIN KMSN 221120Z 33008KT 9SM -SN OVC055 M01/M05 A3006 740 75 -1000 330/08 RMK AO2 P0000
14837KMSN MSN20021122052510811/22/02 05:25:31  5-MIN KMSN 221125Z 33008KT 9SM -SN OVC055 M01/M05 A3006 730 75 -1000 330/08 RMK AO2 P0000
14837KMSN MSN20021122053010811/22/02 05:30:31  5-MIN KMSN 221130Z 33008KT 9SM -SN OVC055 M01/M05 A3006 730 75 -1000 330/08 RMK AO2 P0000
14837KMSN MSN20021122053511511/22/02 05:35:31  5-MIN KMSN 221135Z 32008KT 9SM -SN FEW027 OVC055 M01/M05 A3006 730 75 -1000 320/08 RMK AO2 P0000
14837KMSN MSN20021122054011511/22/02 05:40:31  5-MIN KMSN 221140Z 33009KT 9SM -SN SCT027 OVC055 M01/M06 A3006 730 72 -1000 330/09 RMK AO2 P0000
14837KMSN MSN20021122054511511/22/02 05:45:31  5-MIN KMSN 221145Z 34008KT 9SM -SN SCT025 OVC050 M01/M06 A3006 730 72 -1000 340/08 RMK AO2 P0000
14837KMSN MSN20021122055016511/22/02 05:50:31  5-MIN KMSN 221150Z 33009KT 10SM BKN025 OVC050 M01/M06 A3006 730 72 -1000 330/09 RMK AO2 SNE48 SLP190 P0000 60000 70006 T10111056 10006 21011 53009
14837KMSN MSN20021122055510611/22/02 05:55:31  5-MIN KMSN 221155Z 33010KT 10SM SCT027 OVC050 M01/M06 A3007 730 72 -1000 330/10 RMK AO2
14837KMSN MSN20021122060010611/22/02 06:00:31  5-MIN KMSN 221200Z 33010KT 10SM SCT027 OVC050 M01/M06 A3007 720 72 -1000 330/10 RMK AO2
14837KMSN MSN20021122060510611/22/02 06:05:31  5-MIN KMSN 221205Z 34011KT 10SM SCT027 BKN050 M01/M06 A3007 720 72 -1000 330/11 RMK AO2
14837KMSN MSN20021122061010611/22/02 06:10:31  5-MIN KMSN 221210Z 33012KT 10SM BKN027 BKN050 M01/M06 A3007 720 69 -1000 330/12 RMK AO2
14837KMSN MSN20021122061510611/22/02 06:15:31  5-MIN KMSN 221215Z 34008KT 10SM BKN027 OVC050 M02/M06 A3007 720 75 -1100 330/08 RMK AO2
14837KMSN MSN20021122062011211/22/02 06:20:31  5-MIN KMSN 221220Z 33009G15KT 10SM BKN027 OVC050 M01/M06 A3007 730 72 -1000 330/09G15 RMK AO2
14837KMSN MSN20021122062510611/22/02 06:25:31  5-MIN KMSN 221225Z 34008KT 10SM BKN027 BKN050 M02/M06 A3007 730 72 -1000 340/08 RMK AO2
14837KMSN MSN20021122063009911/22/02 06:30:31  5-MIN KMSN 221230Z 34009KT 10SM BKN027 M02/M06 A3007 730 72 -1000 340/09 RMK AO2
14837KMSN MSN20021122063509911/22/02 06:35:31  5-MIN KMSN 221235Z 34009KT 10SM BKN027 M02/M06 A3007 720 72 -1100 330/09 RMK AO2
14837KMSN MSN20021122064009911/22/02 06:40:31  5-MIN KMSN 221240Z 34009KT 10SM SCT027 M02/M06 A3007 720 72 -1100 340/09 RMK AO2
14837KMSN MSN20021122064509911/22/02 06:45:31  5-MIN KMSN 221245Z 34008KT 10SM FEW027 M02/M06 A3008 720 75 -1100 340/08 RMK AO2
14837KMSN MSN20021122065011611/22/02 06:50:31  5-MIN KMSN 221250Z 34008KT 10SM FEW027 M02/M06 A3008 720 75 -1100 340/08 RMK AO2 SLP195 T10221061
14837KMSN MSN20021122065509911/22/02 06:55:31  5-MIN KMSN 221255Z 34007KT 10SM FEW027 M02/M06 A3008 720 75 -1100 340/07 RMK AO2
14837KMSN MSN20021122070009911/22/02 07:00:31  5-MIN KMSN 221300Z 34007KT 10SM FEW027 M02/M06 A3008 720 75 -1100 340/07 RMK AO2
14837KMSN MSN20021122070509911/22/02 07:05:31  5-MIN KMSN 221305Z 34007KT 10SM FEW027 M02/M06 A3008 720 75 -1100 340/07 RMK AO2
14837KMSN MSN20021122071009911/22/02 07:10:31  5-MIN KMSN 221310Z 34007KT 10SM FEW027 M02/M06 A3008 720 75 -1100 340/07 RMK AO2
14837KMSN MSN20021122071509911/22/02 07:15:31  5-MIN KMSN 221315Z 34007KT 10SM FEW027 M02/M06 A3008 720 75 -1100 330/07 RMK AO2
14837KMSN MSN20021122072009911/22/02 07:20:31  5-MIN KMSN 221320Z 33008KT 10SM FEW027 M03/M06 A3008 710 78 -1200 330/08 RMK AO2
14837KMSN MSN20021122072509911/22/02 07:25:31  5-MIN KMSN 221325Z 33008KT 10SM FEW027 M03/M06 A3009 710 78 -1200 320/08 RMK AO2
14837KMSN MSN20021122073009911/22/02 07:30:31  5-MIN KMSN 221330Z 33009KT 10SM FEW027 M03/M06 A3009 710 78 -1200 330/09 RMK AO2
14837KMSN MSN20021122073509911/22/02 07:35:31  5-MIN KMSN 221335Z 33007KT 10SM FEW027 M02/M06 A3009 710 75 -1100 330/07 RMK AO2
14837KMSN MSN20021122074009911/22/02 07:40:31  5-MIN KMSN 221340Z 34008KT 10SM FEW025 M02/M06 A3009 710 75 -1100 340/08 RMK AO2
14837KMSN MSN20021122074509911/22/02 07:45:31  5-MIN KMSN 221345Z 34008KT 10SM FEW025 M02/M06 A3009 710 75 -1100 340/08 RMK AO2
14837KMSN MSN20021122075011611/22/02 07:50:31  5-MIN KMSN 221350Z 33006KT 10SM SCT025 M03/M06 A3009 700 78 -1200 330/06 RMK AO2 SLP201 T10281061
14837KMSN MSN20021122075509911/22/02 07:55:31  5-MIN KMSN 221355Z 32005KT 10SM FEW031 M02/M06 A3009 700 75 -1100 320/05 RMK AO2
14837KMSN MSN20021122080009911/22/02 08:00:31  5-MIN KMSN 221400Z 32005KT 10SM SCT031 M02/M06 A3009 700 75 -1100 320/05 RMK AO2
14837KMSN MSN20021122080509911/22/02 08:05:31  5-MIN KMSN 221405Z 33007KT 10SM SCT031 M02/M06 A3010 700 75 -1200 320/07 RMK AO2
14837KMSN MSN20021122081009911/22/02 08:10:31  5-MIN KMSN 221410Z 34006KT 10SM BKN031 M02/M06 A3010 700 78 -1200 330/06 RMK AO2
14837KMSN MSN20021122081509911/22/02 08:15:31  5-MIN KMSN 221415Z 33008KT 10SM BKN031 M02/M06 A3010 700 75 -1200 330/08 RMK AO2
14837KMSN MSN20021122082009911/22/02 08:20:31  5-MIN KMSN 221420Z 34006KT 10SM OVC031 M02/M06 A3010 700 72 -1100 330/06 RMK AO2
14837KMSN MSN20021122082509911/22/02 08:25:31  5-MIN KMSN 221425Z 34006KT 10SM BKN031 M02/M06 A3009 700 72 -1100 330/06 RMK AO2
14837KMSN MSN20021122083009911/22/02 08:30:31  5-MIN KMSN 221430Z 34005KT 10SM BKN031 M02/M06 A3010 700 75 -1100 340/05 RMK AO2
14837KMSN MSN20021122083509911/22/02 08:35:31  5-MIN KMSN 221435Z 34007KT 10SM BKN031 M02/M06 A3010 700 75 -1100 340/07 RMK AO2
14837KMSN MSN20021122084009911/22/02 08:40:31  5-MIN KMSN 221440Z 34006KT 10SM BKN031 M02/M06 A3010 700 75 -1100 340/06 RMK AO2
14837KMSN MSN20021122084509911/22/02 08:45:31  5-MIN KMSN 221445Z 35007KT 10SM BKN031 M02/M06 A3010 700 75 -1100 350/07 RMK AO2
14837KMSN MSN20021122085012211/22/02 08:50:31  5-MIN KMSN 221450Z 34007KT 10SM BKN031 M01/M06 A3010 700 72 -1000 340/07 RMK AO2 SLP202 T10111056 52012
14837KMSN MSN20021122085509911/22/02 08:55:31  5-MIN KMSN 221455Z 35008KT 10SM OVC033 M01/M06 A3010 700 72 -1000 340/08 RMK AO2
14837KMSN MSN20021122090009911/22/02 09:00:31  5-MIN KMSN 221500Z 36008KT 10SM BKN033 M01/M06 A3010 700 72 -1000 360/08 RMK AO2
14837KMSN MSN20021122090509911/22/02 09:05:31  5-MIN KMSN 221505Z 01011KT 10SM OVC033 M01/M06 A3010 700 72 -1000 010/11 RMK AO2
14837KMSN MSN20021122091009911/22/02 09:10:31  5-MIN KMSN 221510Z 34008KT 10SM OVC031 M01/M06 A3010 700 72 -1000 340/08 RMK AO2
14837KMSN MSN20021122091509911/22/02 09:15:31  5-MIN KMSN 221515Z 01013KT 10SM OVC031 M01/M06 A3010 700 69 -1000 010/13 RMK AO2
14837KMSN MSN20021122092009811/22/02 09:20:31  5-MIN KMSN 221520Z 36010KT 10SM OVC031 M01/M06 A3011 690 66 -900 360/10 RMK AO2
14837KMSN MSN20021122092509911/22/02 09:25:31  5-MIN KMSN 221525Z 35009KT 10SM OVC031 M01/M06 A3011 690 69 -1000 350/09 RMK AO2
14837KMSN MSN20021122093009811/22/02 09:30:31  5-MIN KMSN 221530Z 01010KT 10SM OVC029 M01/M06 A3010 690 66 -900 010/10 RMK AO2
14837KMSN MSN20021122093509911/22/02 09:35:31  5-MIN KMSN 221535Z 35009KT 10SM BKN031 M01/M06 A3011 690 66 -1000 350/09 RMK AO2
14837KMSN MSN20021122094010511/22/02 09:40:31  5-MIN KMSN 221540Z 01009G15KT 10SM BKN031 M01/M07 A3011 690 63 -1000 010/09G15 RMK AO2
14837KMSN MSN20021122094509911/22/02 09:45:31  5-MIN KMSN 221545Z 02013KT 10SM BKN031 M01/M07 A3011 690 63 -1000 020/13 RMK AO2
14837KMSN MSN20021122095012211/22/02 09:50:31  5-MIN KMSN 221550Z 02015G18KT 10SM BKN031 M01/M07 A3011 690 61 -1000 020/15G18 RMK AO2 SLP206 T10061072
14837KMSN MSN20021122095510511/22/02 09:55:31  5-MIN KMSN 221555Z 35010G18KT 10SM OVC029 M01/M07 A3011 690 61 -1000 350/10G18 RMK AO2
14837KMSN MSN20021122100009911/22/02 10:00:31  5-MIN KMSN 221600Z 35013KT 10SM OVC029 M01/M07 A3011 690 61 -1000 350/13 RMK AO2
14837KMSN MSN20021122100509911/22/02 10:05:31  5-MIN KMSN 221605Z 36011KT 10SM OVC029 M01/M07 A3011 690 61 -1000 360/11 RMK AO2
14837KMSN MSN20021122101009911/22/02 10:10:31  5-MIN KMSN 221610Z 34010KT 10SM OVC029 M01/M07 A3011 690 63 -1000 340/10 RMK AO2
14837KMSN MSN20021122101509911/22/02 10:15:31  5-MIN KMSN 221615Z 34010KT 10SM OVC029 M01/M07 A3011 690 61 -1000 340/10 RMK AO2
14837KMSN MSN20021122102009911/22/02 10:20:31  5-MIN KMSN 221620Z 36011KT 10SM OVC029 M01/M07 A3011 690 61 -1000 360/11 RMK AO2
14837KMSN MSN20021122102509911/22/02 10:25:31  5-MIN KMSN 221625Z 02012KT 10SM OVC029 M01/M07 A3011 690 63 -1000 020/12 RMK AO2
14837KMSN MSN20021122103009911/22/02 10:30:31  5-MIN KMSN 221630Z 01009KT 10SM OVC029 M01/M07 A3011 690 63 -1000 010/09 RMK AO2
14837KMSN MSN20021122103510311/22/02 10:35:31  5-MIN KMSN 221635Z 01010G16KT 10SM OVC029 00/M06 A3011 690 63 -900 010/10G16 RMK AO2
14837KMSN MSN20021122104009811/22/02 10:40:31  5-MIN KMSN 221640Z 02009KT 10SM BKN029 M01/M07 A3010 700 63 -900 020/09 RMK AO2
14837KMSN MSN20021122104509711/22/02 10:45:31  5-MIN KMSN 221645Z 35011KT 10SM BKN029 00/M07 A3010 700 61 -900 350/11 RMK AO2
14837KMSN MSN20021122105012111/22/02 10:50:31  5-MIN KMSN 221650Z 36008G15KT 10SM BKN029 M01/M07 A3010 700 61 -900 360/08G15 RMK AO2 SLP203 T10061072
14837KMSN MSN20021122105509811/22/02 10:55:31  5-MIN KMSN 221655Z 35008KT 10SM OVC029 M01/M07 A3010 700 61 -900 350/08 RMK AO2
14837KMSN MSN20021122110009711/22/02 11:00:31  5-MIN KMSN 221700Z 33008KT 10SM OVC029 01/M07 A3010 700 58 -800 330/08 RMK AO2
14837KMSN MSN20021122110509811/22/02 11:05:31  5-MIN KMSN 221705Z 34007KT 10SM BKN029 M01/M07 A3010 700 61 -900 340/07 RMK AO2
14837KMSN MSN20021122111009711/22/02 11:10:31  5-MIN KMSN 221710Z 36008KT 10SM BKN029 00/M07 A3010 700 61 -900 360/08 RMK AO2
14837KMSN MSN20021122111509711/22/02 11:15:31  5-MIN KMSN 221715Z 01007KT 10SM BKN029 00/M07 A3010 700 61 -900 360/07 RMK AO2
14837KMSN MSN20021122112011311/22/02 11:20:31  5-MIN KMSN 221720Z 02007KT 320V080 10SM BKN029 01/M07 A3010 700 58 -800 020/07 320V080 RMK AO2
14837KMSN MSN20021122112509711/22/02 11:25:31  5-MIN KMSN 221725Z 34008KT 10SM BKN029 01/M07 A3009 700 58 -800 340/08 RMK AO2
14837KMSN MSN20021122113009711/22/02 11:30:31  5-MIN KMSN 221730Z 33007KT 10SM BKN029 00/M07 A3009 710 61 -900 330/07 RMK AO2
14837KMSN MSN20021122113511311/22/02 11:35:31  5-MIN KMSN 221735Z 31007KT 290V350 10SM BKN029 01/M07 A3009 710 58 -800 310/07 290V350 RMK AO2
14837KMSN MSN20021122114009711/22/02 11:40:31  5-MIN KMSN 221740Z 33007KT 10SM BKN029 01/M07 A3009 710 58 -800 330/07 RMK AO2
14837KMSN MSN20021122114509711/22/02 11:45:31  5-MIN KMSN 221745Z 35007KT 10SM BKN029 01/M07 A3009 710 58 -800 350/07 RMK AO2
14837KMSN MSN20021122115013211/22/02 11:50:31  5-MIN KMSN 221750Z VRB06KT 10SM BKN029 01/M07 A3009 710 58 -800 VRB/06 RMK AO2 SLP200 T00061067 10011 21028 51012
14837KMSN MSN20021122115509711/22/02 11:55:31  5-MIN KMSN 221755Z 35009KT 10SM SCT029 01/M06 A3009 710 58 -700 350/09 RMK AO2
14837KMSN MSN20021122120009711/22/02 12:00:31  5-MIN KMSN 221800Z 36006KT 10SM SCT029 01/M07 A3009 710 56 -700 360/06 RMK AO2
14837KMSN MSN20021122120509711/22/02 12:05:31  5-MIN KMSN 221805Z 32008KT 10SM SCT029 01/M07 A3009 710 58 -800 320/08 RMK AO2
14837KMSN MSN20021122121009711/22/02 12:10:31  5-MIN KMSN 221810Z 31006KT 10SM SCT029 01/M07 A3009 710 58 -800 310/06 RMK AO2
14837KMSN MSN20021122121509711/22/02 12:15:31  5-MIN KMSN 221815Z VRB04KT 10SM SCT029 01/M06 A3009 710 58 -700 VRB/04 RMK AO2
14837KMSN MSN20021122122011311/22/02 12:20:31  5-MIN KMSN 221820Z 33008KT 290V360 10SM SCT029 01/M06 A3009 710 58 -700 330/08 290V360 RMK AO2
14837KMSN MSN20021122122509711/22/02 12:25:31  5-MIN KMSN 221825Z 34008KT 10SM BKN029 01/M07 A3009 710 58 -800 340/08 RMK AO2
14837KMSN MSN20021122123009711/22/02 12:30:31  5-MIN KMSN 221830Z 32007KT 10SM OVC029 01/M07 A3009 710 58 -800 320/07 RMK AO2
14837KMSN MSN20021122123509711/22/02 12:35:31  5-MIN KMSN 221835Z 31007KT 10SM OVC029 00/M07 A3009 710 61 -900 310/07 RMK AO2
14837KMSN MSN20021122124009711/22/02 12:40:31  5-MIN KMSN 221840Z 30006KT 10SM BKN029 01/M07 A3009 710 58 -800 290/06 RMK AO2
14837KMSN MSN20021122124509711/22/02 12:45:31  5-MIN KMSN 221845Z VRB05KT 10SM BKN029 01/M06 A3009 710 61 -800 VRB/05 RMK AO2
14837KMSN MSN20021122125013011/22/02 12:50:31  5-MIN KMSN 221850Z 32008KT 270V350 10SM BKN029 01/M06 A3009 710 58 -700 310/08 270V350 RMK AO2 SLP197 T00111061
14837KMSN MSN20021122125509711/22/02 12:55:31  5-MIN KMSN 221855Z VRB06KT 10SM OVC029 01/M07 A3009 710 58 -800 VRB/06 RMK AO2
14837KMSN MSN20021122130009711/22/02 13:00:31  5-MIN KMSN 221900Z VRB05KT 10SM BKN029 00/M07 A3009 710 61 -900 VRB/05 RMK AO2
14837KMSN MSN20021122130509711/22/02 13:05:31  5-MIN KMSN 221905Z 29007KT 10SM BKN029 01/M06 A3009 710 61 -800 290/07 RMK AO2
14837KMSN MSN20021122131009711/22/02 13:10:31  5-MIN KMSN 221910Z 29007KT 10SM BKN029 01/M07 A3008 710 58 -800 280/07 RMK AO2
14837KMSN MSN20021122131509711/22/02 13:15:31  5-MIN KMSN 221915Z 32008KT 10SM BKN029 01/M07 A3008 720 58 -800 320/08 RMK AO2
14837KMSN MSN20021122132009711/22/02 13:20:31  5-MIN KMSN 221920Z 32007KT 10SM BKN029 01/M06 A3008 720 61 -800 320/07 RMK AO2
14837KMSN MSN20021122132509711/22/02 13:25:31  5-MIN KMSN 221925Z 31007KT 10SM BKN029 00/M07 A3008 720 61 -900 300/07 RMK AO2
14837KMSN MSN20021122133009711/22/02 13:30:31  5-MIN KMSN 221930Z VRB05KT 10SM BKN029 01/M07 A3008 720 58 -800 VRB/05 RMK AO2
14837KMSN MSN20021122133509711/22/02 13:35:31  5-MIN KMSN 221935Z 29006KT 10SM BKN029 01/M06 A3008 720 61 -800 290/06 RMK AO2
14837KMSN MSN20021122134009711/22/02 13:40:31  5-MIN KMSN 221940Z 33006KT 10SM SCT029 01/M06 A3008 720 61 -800 320/06 RMK AO2
14837KMSN MSN20021122134509711/22/02 13:45:31  5-MIN KMSN 221945Z 28005KT 10SM FEW029 01/M06 A3008 720 61 -800 280/05 RMK AO2
14837KMSN MSN20021122135011411/22/02 13:50:31  5-MIN KMSN 221950Z VRB05KT 10SM SCT029 01/M06 A3008 720 61 -800 VRB/05 RMK AO2 SLP195 T00061061
14837KMSN MSN20021122135509711/22/02 13:55:31  5-MIN KMSN 221955Z 30007KT 10SM SCT027 01/M07 A3008 720 58 -800 300/07 RMK AO2
14837KMSN MSN20021122140009711/22/02 14:00:31  5-MIN KMSN 222000Z 29005KT 10SM SCT027 01/M06 A3007 720 61 -800 290/05 RMK AO2
14837KMSN MSN20021122140509711/22/02 14:05:31  5-MIN KMSN 222005Z 28004KT 10SM FEW027 00/M07 A3007 720 61 -800 280/04 RMK AO2
14837KMSN MSN20021122141009711/22/02 14:10:31  5-MIN KMSN 222010Z 28006KT 10SM SCT027 01/M06 A3007 720 61 -800 280/06 RMK AO2
14837KMSN MSN20021122141509711/22/02 14:15:31  5-MIN KMSN 222015Z 28006KT 10SM SCT027 01/M06 A3007 730 61 -800 280/06 RMK AO2
14837KMSN MSN20021122142009711/22/02 14:20:31  5-MIN KMSN 222020Z VRB05KT 10SM SCT027 01/M06 A3007 730 61 -800 VRB/05 RMK AO2
14837KMSN MSN20021122142509711/22/02 14:25:31  5-MIN KMSN 222025Z 27004KT 10SM SCT027 01/M06 A3007 720 58 -700 270/04 RMK AO2
14837KMSN MSN20021122143009711/22/02 14:30:31  5-MIN KMSN 222030Z VRB05KT 10SM SCT027 01/M06 A3007 730 58 -700 VRB/05 RMK AO2
14837KMSN MSN20021122143509711/22/02 14:35:31  5-MIN KMSN 222035Z 31004KT 10SM FEW027 01/M07 A3007 730 58 -800 310/04 RMK AO2
14837KMSN MSN20021122144009711/22/02 14:40:31  5-MIN KMSN 222040Z 30003KT 10SM FEW027 01/M06 A3007 720 58 -700 300/03 RMK AO2
14837KMSN MSN20021122144509711/22/02 14:45:31  5-MIN KMSN 222045Z VRB04KT 10SM FEW027 01/M06 A3007 730 58 -700 VRB/04 RMK AO2
14837KMSN MSN20021122145012011/22/02 14:50:31  5-MIN KMSN 222050Z 00000KT 10SM FEW027 01/M07 A3007 730 56 -700 000/00 RMK AO2 SLP192 T00111067 58003
14837KMSN MSN20021122145509411/22/02 14:55:31  5-MIN KMSN 222055Z 00000KT 10SM CLR 01/M06 A3007 730 58 -700 000/00 RMK AO2
14837KMSN MSN20021122150009411/22/02 15:00:31  5-MIN KMSN 222100Z 00000KT 10SM CLR 01/M06 A3007 730 58 -700 000/00 RMK AO2
14837KMSN MSN20021122150509411/22/02 15:05:31  5-MIN KMSN 222105Z 26003KT 10SM CLR 01/M06 A3007 730 58 -700 260/03 RMK AO2
14837KMSN MSN20021122151009411/22/02 15:10:31  5-MIN KMSN 222110Z 28003KT 10SM CLR 01/M06 A3007 730 58 -700 280/03 RMK AO2
14837KMSN MSN20021122151509411/22/02 15:15:31  5-MIN KMSN 222115Z VRB03KT 10SM CLR 01/M06 A3007 730 58 -700 VRB/03 RMK AO2
14837KMSN MSN20021122152009411/22/02 15:20:31  5-MIN KMSN 222120Z VRB03KT 10SM CLR 01/M06 A3007 730 58 -700 VRB/03 RMK AO2
14837KMSN MSN20021122152509411/22/02 15:25:31  5-MIN KMSN 222125Z 00000KT 10SM CLR 01/M06 A3007 730 58 -700 000/00 RMK AO2
14837KMSN MSN20021122153009411/22/02 15:30:31  5-MIN KMSN 222130Z VRB03KT 10SM CLR 01/M06 A3007 730 58 -700 VRB/03 RMK AO2
14837KMSN MSN20021122153509411/22/02 15:35:31  5-MIN KMSN 222135Z 00000KT 10SM CLR 01/M06 A3007 730 58 -700 000/00 RMK AO2
14837KMSN MSN20021122154009411/22/02 15:40:31  5-MIN KMSN 222140Z 26003KT 10SM CLR 01/M06 A3007 730 58 -700 260/03 RMK AO2
14837KMSN MSN20021122154509411/22/02 15:45:31  5-MIN KMSN 222145Z VRB04KT 10SM CLR 01/M06 A3007 730 61 -800 VRB/04 RMK AO2
14837KMSN MSN20021122155011111/22/02 15:50:31  5-MIN KMSN 222150Z 29004KT 10SM CLR 01/M07 A3007 730 58 -800 280/04 RMK AO2 SLP191 T00061067
14837KMSN MSN20021122155509411/22/02 15:55:31  5-MIN KMSN 222155Z 00000KT 10SM CLR 01/M07 A3007 730 58 -800 000/00 RMK AO2
14837KMSN MSN20021122160009411/22/02 16:00:31  5-MIN KMSN 222200Z VRB03KT 10SM CLR 01/M07 A3006 730 58 -800 VRB/03 RMK AO2
14837KMSN MSN20021122160509411/22/02 16:05:31  5-MIN KMSN 222205Z 00000KT 10SM CLR 01/M07 A3006 730 58 -800 000/00 RMK AO2
14837KMSN MSN20021122161009411/22/02 16:10:31  5-MIN KMSN 222210Z 00000KT 10SM CLR 01/M07 A3006 730 58 -800 000/00 RMK AO2
14837KMSN MSN20021122161509411/22/02 16:15:31  5-MIN KMSN 222215Z 24003KT 10SM CLR 00/M06 A3007 730 63 -800 240/03 RMK AO2
14837KMSN MSN20021122162009411/22/02 16:20:31  5-MIN KMSN 222220Z 00000KT 10SM CLR 00/M07 A3007 730 61 -800 000/00 RMK AO2
14837KMSN MSN20021122162509411/22/02 16:25:31  5-MIN KMSN 222225Z 00000KT 10SM CLR 00/M06 A3007 730 63 -800 000/00 RMK AO2
14837KMSN MSN20021122163009411/22/02 16:30:31  5-MIN KMSN 222230Z 00000KT 10SM CLR 00/M06 A3007 730 63 -800 000/00 RMK AO2
14837KMSN MSN20021122163509511/22/02 16:35:31  5-MIN KMSN 222235Z 00000KT 10SM CLR M01/M07 A3007 730 63 -900 000/00 RMK AO2
14837KMSN MSN20021122164009511/22/02 16:40:31  5-MIN KMSN 222240Z 00000KT 10SM CLR M01/M07 A3007 730 63 -900 000/00 RMK AO2
14837KMSN MSN20021122164509611/22/02 16:45:31  5-MIN KMSN 222245Z 28003KT 10SM CLR M01/M07 A3007 730 66 -1000 280/03 RMK AO2
14837KMSN MSN20021122165011311/22/02 16:50:31  5-MIN KMSN 222250Z 00000KT 10SM CLR M01/M07 A3007 730 66 -1000 000/00 RMK AO2 SLP193 T10111067
14837KMSN MSN20021122165509611/22/02 16:55:31  5-MIN KMSN 222255Z 00000KT 10SM CLR M02/M07 A3007 730 69 -1000 000/00 RMK AO2
14837KMSN MSN20021122170009611/22/02 17:00:31  5-MIN KMSN 222300Z 00000KT 10SM CLR M02/M07 A3007 730 69 -1000 000/00 RMK AO2
14837KMSN MSN20021122170509611/22/02 17:05:31  5-MIN KMSN 222305Z 00000KT 10SM CLR M02/M06 A3007 730 72 -1000 000/00 RMK AO2
14837KMSN MSN20021122171009611/22/02 17:10:31  5-MIN KMSN 222310Z 00000KT 10SM CLR M02/M06 A3007 730 72 -1000 000/00 RMK AO2
14837KMSN MSN20021122171509611/22/02 17:15:31  5-MIN KMSN 222315Z 00000KT 10SM CLR M02/M06 A3007 730 72 -1000 000/00 RMK AO2
14837KMSN MSN20021122172009611/22/02 17:20:31  5-MIN KMSN 222320Z 00000KT 10SM CLR M02/M06 A3007 730 75 -1100 000/00 RMK AO2
14837KMSN MSN20021122172509611/22/02 17:25:31  5-MIN KMSN 222325Z 00000KT 10SM CLR M02/M07 A3007 730 72 -1100 000/00 RMK AO2
14837KMSN MSN20021122173009611/22/02 17:30:31  5-MIN KMSN 222330Z 00000KT 10SM CLR M02/M07 A3006 730 72 -1100 000/00 RMK AO2
14837KMSN MSN20021122173509611/22/02 17:35:31  5-MIN KMSN 222335Z 00000KT 10SM CLR M02/M07 A3006 730 72 -1100 000/00 RMK AO2
14837KMSN MSN20021122174009611/22/02 17:40:31  5-MIN KMSN 222340Z 00000KT 10SM CLR M01/M06 A3006 740 69 -1000 000/00 RMK AO2
14837KMSN MSN20021122174509611/22/02 17:45:31  5-MIN KMSN 222345Z 00000KT 10SM CLR M02/M06 A3006 740 72 -1000 000/00 RMK AO2
14837KMSN MSN20021122175013111/22/02 17:50:31  5-MIN KMSN 222350Z 00000KT 10SM CLR M02/M06 A3006 740 75 -1100 000/00 RMK AO2 SLP189 T10221061 10011 21022 58007
14837KMSN MSN20021122175509611/22/02 17:55:31  5-MIN KMSN 222355Z 00000KT 10SM CLR M02/M06 A3006 740 72 -1000 000/00 RMK AO2
14837KMSN MSN20021122180009611/22/02 18:00:31  5-MIN KMSN 230000Z 00000KT 10SM CLR M02/M06 A3006 740 72 -1000 000/00 RMK AO2
14837KMSN MSN20021122180509611/22/02 18:05:31  5-MIN KMSN 230005Z 00000KT 10SM CLR M02/M06 A3005 740 72 -1000 000/00 RMK AO2
14837KMSN MSN20021122181009611/22/02 18:10:31  5-MIN KMSN 230010Z 00000KT 10SM CLR M02/M06 A3006 740 72 -1000 000/00 RMK AO2
14837KMSN MSN20021122181509611/22/02 18:15:31  5-MIN KMSN 230015Z 00000KT 10SM CLR M02/M06 A3006 740 72 -1000 000/00 RMK AO2
14837KMSN MSN20021122182009611/22/02 18:20:31  5-MIN KMSN 230020Z 00000KT 10SM CLR M03/M06 A3005 740 78 -1200 000/00 RMK AO2
14837KMSN MSN20021122182509611/22/02 18:25:31  5-MIN KMSN 230025Z 00000KT 10SM CLR M03/M06 A3005 740 78 -1200 000/00 RMK AO2
14837KMSN MSN20021122183009611/22/02 18:30:31  5-MIN KMSN 230030Z 00000KT 10SM CLR M02/M06 A3005 740 75 -1100 000/00 RMK AO2
14837KMSN MSN20021122183509611/22/02 18:35:31  5-MIN KMSN 230035Z 00000KT 10SM CLR M03/M07 A3005 740 78 -1200 000/00 RMK AO2
14837KMSN MSN20021122184009611/22/02 18:40:31  5-MIN KMSN 230040Z 00000KT 10SM CLR M03/M07 A3005 740 75 -1200 000/00 RMK AO2
14837KMSN MSN20021122184509611/22/02 18:45:31  5-MIN KMSN 230045Z 00000KT 10SM CLR M03/M07 A3005 750 75 -1200 000/00 RMK AO2
14837KMSN MSN20021122185011311/22/02 18:50:31  5-MIN KMSN 230050Z 00000KT 10SM CLR M03/M07 A3005 750 78 -1200 000/00 RMK AO2 SLP186 T10331067
14837KMSN MSN20021122185509611/22/02 18:55:31  5-MIN KMSN 230055Z 17003KT 10SM CLR M03/M07 A3004 750 78 -1200 170/03 RMK AO2
14837KMSN MSN20021122190009611/22/02 19:00:31  5-MIN KMSN 230100Z 00000KT 10SM CLR M03/M07 A3004 750 78 -1200 000/00 RMK AO2
14837KMSN MSN20021122190509611/22/02 19:05:31  5-MIN KMSN 230105Z 00000KT 10SM CLR M03/M07 A3004 750 78 -1200 000/00 RMK AO2
14837KMSN MSN20021122191009611/22/02 19:10:31  5-MIN KMSN 230110Z 19004KT 10SM CLR M03/M06 A3004 760 78 -1200 190/04 RMK AO2
14837KMSN MSN20021122191509611/22/02 19:15:31  5-MIN KMSN 230115Z 17003KT 10SM CLR M03/M06 A3004 760 81 -1200 170/03 RMK AO2
14837KMSN MSN20021122192009611/22/02 19:20:31  5-MIN KMSN 230120Z 19004KT 10SM CLR M02/M06 A3004 760 75 -1100 190/04 RMK AO2
14837KMSN MSN20021122192509611/22/02 19:25:31  5-MIN KMSN 230125Z 19004KT 10SM CLR M03/M06 A3004 760 78 -1200 190/04 RMK AO2
14837KMSN MSN20021122193009611/22/02 19:30:31  5-MIN KMSN 230130Z 00000KT 10SM CLR M03/M06 A3004 760 78 -1200 000/00 RMK AO2
14837KMSN MSN20021122193509611/22/02 19:35:31  5-MIN KMSN 230135Z 16003KT 10SM CLR M03/M07 A3003 760 75 -1100 160/03 RMK AO2
14837KMSN MSN20021122194009611/22/02 19:40:31  5-MIN KMSN 230140Z 17003KT 10SM CLR M02/M06 A3003 760 75 -1100 170/03 RMK AO2
14837KMSN MSN20021122194509611/22/02 19:45:31  5-MIN KMSN 230145Z 00000KT 10SM CLR M02/M06 A3003 760 75 -1100 000/00 RMK AO2
14837KMSN MSN20021122195011311/22/02 19:50:31  5-MIN KMSN 230150Z 16003KT 10SM CLR M02/M06 A3003 760 75 -1000 160/03 RMK AO2 SLP181 T10171056
14837KMSN MSN20021122195509611/22/02 19:55:31  5-MIN KMSN 230155Z 16003KT 10SM CLR M02/M06 A3003 760 78 -1100 160/03 RMK AO2
14837KMSN MSN20021122200009611/22/02 20:00:31  5-MIN KMSN 230200Z 00000KT 10SM CLR M02/M06 A3004 760 75 -1000 000/00 RMK AO2
14837KMSN MSN20021122200509611/22/02 20:05:31  5-MIN KMSN 230205Z 00000KT 10SM CLR M02/M06 A3004 760 78 -1100 000/00 RMK AO2
14837KMSN MSN20021122201009611/22/02 20:10:31  5-MIN KMSN 230210Z 00000KT 10SM CLR M02/M06 A3004 760 75 -1000 000/00 RMK AO2
14837KMSN MSN20021122201509611/22/02 20:15:31  5-MIN KMSN 230215Z 00000KT 10SM CLR M03/M06 A3004 760 78 -1200 000/00 RMK AO2
14837KMSN MSN20021122202009611/22/02 20:20:31  5-MIN KMSN 230220Z 15003KT 10SM CLR M02/M06 A3004 760 78 -1100 150/03 RMK AO2
14837KMSN MSN20021122202509611/22/02 20:25:31  5-MIN KMSN 230225Z 16003KT 10SM CLR M02/M06 A3004 760 78 -1100 160/03 RMK AO2
14837KMSN MSN20021122203009611/22/02 20:30:31  5-MIN KMSN 230230Z 16003KT 10SM CLR M02/M06 A3004 760 78 -1100 160/03 RMK AO2
14837KMSN MSN20021122203509611/22/02 20:35:31  5-MIN KMSN 230235Z 17004KT 10SM CLR M02/M06 A3004 760 75 -1000 170/04 RMK AO2
14837KMSN MSN20021122204009611/22/02 20:40:31  5-MIN KMSN 230240Z 17004KT 10SM CLR M02/M06 A3003 760 75 -1000 170/04 RMK AO2
14837KMSN MSN20021122204509611/22/02 20:45:31  5-MIN KMSN 230245Z 17004KT 10SM CLR M02/M06 A3003 760 75 -1000 170/04 RMK AO2
14837KMSN MSN20021122205011911/22/02 20:50:31  5-MIN KMSN 230250Z 16004KT 10SM CLR M02/M05 A3003 760 78 -1000 160/04 RMK AO2 SLP179 T10171050 58004
14837KMSN MSN20021122205509611/22/02 20:55:31  5-MIN KMSN 230255Z 16004KT 10SM CLR M02/M04 A3003 760 81 -1000 160/04 RMK AO2
14837KMSN MSN20021122210009611/22/02 21:00:31  5-MIN KMSN 230300Z 18003KT 10SM CLR M02/M04 A3003 760 85 -1000 180/03 RMK AO2
14837KMSN MSN20021122210509511/22/02 21:05:31  5-MIN KMSN 230305Z 18003KT 10SM CLR M01/M04 A3003 760 81 -900 180/03 RMK AO2
14837KMSN MSN20021122211009511/22/02 21:10:31  5-MIN KMSN 230310Z 17004KT 10SM CLR M01/M05 A3003 760 75 -900 170/04 RMK AO2
14837KMSN MSN20021122211509611/22/02 21:15:31  5-MIN KMSN 230315Z 16005KT 10SM CLR M02/M05 A3003 770 78 -1000 160/05 RMK AO2
14837KMSN MSN20021122212009911/22/02 21:20:31  5-MIN KMSN 230320Z 17005KT 10SM FEW120 M02/M04 A3003 770 81 -1000 170/05 RMK AO2
14837KMSN MSN20021122212509811/22/02 21:25:31  5-MIN KMSN 230325Z 17007KT 10SM SCT120 M01/M05 A3002 770 75 -900 170/07 RMK AO2
14837KMSN MSN20021122213010511/22/02 21:30:31  5-MIN KMSN 230330Z 17007KT 10SM FEW080 BKN120 M01/M04 A3002 780 78 -900 170/07 RMK AO2
14837KMSN MSN20021122213510511/22/02 21:35:31  5-MIN KMSN 230335Z 18008KT 10SM SCT090 BKN120 M01/M04 A3001 780 78 -900 170/08 RMK AO2
14837KMSN MSN20021122214010511/22/02 21:40:31  5-MIN KMSN 230340Z 18007KT 10SM BKN100 BKN120 M01/M04 A3002 770 75 -800 180/07 RMK AO2
14837KMSN MSN20021122214510511/22/02 21:45:31  5-MIN KMSN 230345Z 18006KT 10SM BKN100 BKN120 M01/M04 A3002 770 75 -800 180/06 RMK AO2
14837KMSN MSN20021122215012211/22/02 21:50:31  5-MIN KMSN 230350Z 18006KT 10SM SCT100 BKN120 M01/M05 A3002 780 72 -800 180/06 RMK AO2 SLP175 T10061050
14837KMSN MSN20021122215509811/22/02 21:55:31  5-MIN KMSN 230355Z 18005KT 10SM BKN100 M01/M05 A3002 770 72 -900 180/05 RMK AO2
14837KMSN MSN20021122220009811/22/02 22:00:31  5-MIN KMSN 230400Z 17006KT 10SM BKN100 M01/M05 A3001 780 72 -800 170/06 RMK AO2
14837KMSN MSN20021122220510511/22/02 22:05:31  5-MIN KMSN 230405Z 18007KT 10SM SCT075 BKN100 M01/M05 A3001 780 72 -800 170/07 RMK AO2
14837KMSN MSN20021122221010511/22/02 22:10:31  5-MIN KMSN 230410Z 18006KT 10SM SCT070 BKN095 M01/M05 A3001 780 72 -800 180/06 RMK AO2
14837KMSN MSN20021122221511211/22/02 22:15:31  5-MIN KMSN 230415Z 18008KT 10SM SCT070 BKN095 BKN120 M01/M05 A3001 780 72 -800 180/08 RMK AO2
14837KMSN MSN20021122222011211/22/02 22:20:31  5-MIN KMSN 230420Z 17007KT 10SM BKN070 BKN095 OVC120 M01/M05 A3001 780 72 -800 170/07 RMK AO2
14837KMSN MSN20021122222511211/22/02 22:25:31  5-MIN KMSN 230425Z 17008KT 10SM BKN070 BKN090 OVC110 M01/M05 A3000 790 72 -800 170/08 RMK AO2
14837KMSN MSN20021122223010511/22/02 22:30:31  5-MIN KMSN 230430Z 17007KT 10SM BKN070 BKN110 M01/M05 A3000 790 72 -800 170/07 RMK AO2
14837KMSN MSN20021122223510511/22/02 22:35:31  5-MIN KMSN 230435Z 17007KT 10SM SCT070 BKN110 M01/M05 A3000 790 72 -800 170/07 RMK AO2
14837KMSN MSN20021122224010511/22/02 22:40:31  5-MIN KMSN 230440Z 18008KT 10SM FEW070 BKN110 M01/M05 A3000 790 72 -800 170/08 RMK AO2
14837KMSN MSN20021122224510511/22/02 22:45:31  5-MIN KMSN 230445Z 18008KT 10SM FEW070 BKN110 M01/M05 A3000 790 72 -800 170/08 RMK AO2
14837KMSN MSN20021122225012211/22/02 22:50:31  5-MIN KMSN 230450Z 17008KT 10SM FEW070 BKN110 M01/M05 A3000 790 72 -800 170/08 RMK AO2 SLP170 T10061050
14837KMSN MSN20021122225509811/22/02 22:55:31  5-MIN KMSN 230455Z 16008KT 10SM SCT100 M01/M05 A3000 790 72 -800 160/08 RMK AO2
14837KMSN MSN20021122230009811/22/02 23:00:31  5-MIN KMSN 230500Z 16008KT 10SM FEW100 M01/M04 A2999 800 78 -900 160/08 RMK AO2
14837KMSN MSN20021122230509811/22/02 23:05:31  5-MIN KMSN 230505Z 17008KT 10SM FEW100 M01/M05 A2999 800 75 -900 160/08 RMK AO2
14837KMSN MSN20021122231009811/22/02 23:10:31  5-MIN KMSN 230510Z 17008KT 10SM FEW110 M01/M05 A2999 800 75 -900 170/08 RMK AO2
14837KMSN MSN20021122231509811/22/02 23:15:31  5-MIN KMSN 230515Z 17009KT 10SM SCT110 M01/M05 A2999 800 75 -900 170/09 RMK AO2
14837KMSN MSN20021122232009811/22/02 23:20:31  5-MIN KMSN 230520Z 16009KT 10SM BKN110 M01/M05 A2998 810 75 -900 160/09 RMK AO2
14837KMSN MSN20021122232510511/22/02 23:25:31  5-MIN KMSN 230525Z 17007KT 10SM SCT095 BKN110 M01/M05 A2999 800 72 -800 170/07 RMK AO2
14837KMSN MSN20021122233010511/22/02 23:30:31  5-MIN KMSN 230530Z 19008KT 10SM BKN090 BKN110 M01/M05 A2999 800 72 -800 190/08 RMK AO2
14837KMSN MSN20021122233510511/22/02 23:35:31  5-MIN KMSN 230535Z 19009KT 10SM BKN085 BKN110 M01/M05 A2999 800 72 -800 190/09 RMK AO2
14837KMSN MSN20021122234010511/22/02 23:40:31  5-MIN KMSN 230540Z 18008KT 10SM SCT090 BKN110 M01/M05 A2999 800 72 -800 180/08 RMK AO2
14837KMSN MSN20021122234510511/22/02 23:45:31  5-MIN KMSN 230545Z 19006KT 10SM BKN095 BKN110 M01/M05 A3000 790 72 -800 190/06 RMK AO2
14837KMSN MSN20021122235015011/22/02 23:50:31  5-MIN KMSN 230550Z 20006KT 10SM BKN095 BKN110 M01/M05 A3000 790 72 -800 200/06 RMK AO2 SLP170 T10061050 11006 21033 400111033 56009
14837KMSN MSN20021122235510511/22/02 23:55:31  5-MIN KMSN 230555Z 20005KT 10SM BKN085 BKN100 M01/M05 A3001 780 72 -800 200/05 RMK AO2
14837KMSN MSN20021123000010411/23/02 00:00:31  5-MIN KMSN 230600Z 19007KT 10SM BKN090 BKN110 00/M05 A3000 790 69 -800 190/07 RMK AO2
14837KMSN MSN20021123000509711/23/02 00:05:31  5-MIN KMSN 230605Z 19008KT 10SM BKN090 00/M06 A3000 790 66 -800 190/08 RMK AO2
14837KMSN MSN20021123001009711/23/02 00:10:31  5-MIN KMSN 230610Z 20007KT 10SM OVC090 00/M06 A3000 790 66 -800 200/07 RMK AO2
14837KMSN MSN20021123001510411/23/02 00:15:31  5-MIN KMSN 230615Z 20006KT 10SM BKN090 OVC110 00/M06 A3000 790 66 -800 200/06 RMK AO2
14837KMSN MSN20021123002010411/23/02 00:20:31  5-MIN KMSN 230620Z 19005KT 10SM BKN090 OVC110 00/M06 A2999 800 66 -800 190/05 RMK AO2
14837KMSN MSN20021123002511311/23/02 00:25:31  5-MIN KMSN 230625Z 19007KT 170V230 10SM OVC090 00/M06 A2999 800 66 -700 190/07 170V230 RMK AO2
14837KMSN MSN20021123003009711/23/02 00:30:31  5-MIN KMSN 230630Z 19007KT 10SM OVC090 00/M06 A2999 800 66 -700 190/07 RMK AO2
14837KMSN MSN20021123003510411/23/02 00:35:31  5-MIN KMSN 230635Z 19006KT 10SM BKN080 OVC100 00/M06 A2999 800 66 -700 190/06 RMK AO2
14837KMSN MSN20021123004010411/23/02 00:40:31  5-MIN KMSN 230640Z 19007KT 10SM BKN075 OVC100 00/M06 A2999 800 66 -700 190/07 RMK AO2
14837KMSN MSN20021123004509711/23/02 00:45:31  5-MIN KMSN 230645Z 19006KT 10SM OVC075 00/M06 A2998 800 66 -700 190/06 RMK AO2
14837KMSN MSN20021123005011411/23/02 00:50:31  5-MIN KMSN 230650Z 19007KT 10SM OVC075 00/M06 A2998 810 66 -700 180/07 RMK AO2 SLP162 T00001056
14837KMSN MSN20021123005509711/23/02 00:55:31  5-MIN KMSN 230655Z 19008KT 10SM OVC075 00/M06 A2998 810 66 -700 190/08 RMK AO2
14837KMSN MSN20021123010009711/23/02 01:00:31  5-MIN KMSN 230700Z 18006KT 10SM OVC075 00/M06 A2997 820 66 -700 180/06 RMK AO2
14837KMSN MSN20021123010509711/23/02 01:05:31  5-MIN KMSN 230705Z 19007KT 10SM OVC075 00/M06 A2997 810 66 -700 190/07 RMK AO2
14837KMSN MSN20021123011009711/23/02 01:10:31  5-MIN KMSN 230710Z 18007KT 10SM OVC080 00/M06 A2997 820 66 -700 180/07 RMK AO2
14837KMSN MSN20021123011509711/23/02 01:15:31  5-MIN KMSN 230715Z 17007KT 10SM OVC080 01/M06 A2997 820 63 -700 170/07 RMK AO2
14837KMSN MSN20021123012009711/23/02 01:20:31  5-MIN KMSN 230720Z 18010KT 10SM OVC080 00/M06 A2996 820 66 -700 180/10 RMK AO2
14837KMSN MSN20021123012509711/23/02 01:25:31  5-MIN KMSN 230725Z 18008KT 10SM OVC080 00/M05 A2997 820 69 -700 180/08 RMK AO2
14837KMSN MSN20021123013009711/23/02 01:30:31  5-MIN KMSN 230730Z 19008KT 10SM OVC080 00/M05 A2997 820 69 -700 180/08 RMK AO2
14837KMSN MSN20021123013509711/23/02 01:35:31  5-MIN KMSN 230735Z 18007KT 10SM OVC080 00/M06 A2996 820 66 -700 180/07 RMK AO2
14837KMSN MSN20021123014009711/23/02 01:40:31  5-MIN KMSN 230740Z 19007KT 10SM OVC080 00/M06 A2996 830 66 -700 190/07 RMK AO2
14837KMSN MSN20021123014509711/23/02 01:45:31  5-MIN KMSN 230745Z 18007KT 10SM OVC080 00/M06 A2996 830 66 -700 180/07 RMK AO2
14837KMSN MSN20021123015011411/23/02 01:50:31  5-MIN KMSN 230750Z 19008KT 10SM OVC075 00/M06 A2996 830 66 -700 190/08 RMK AO2 SLP155 T00001056
14837KMSN MSN20021123015509711/23/02 01:55:31  5-MIN KMSN 230755Z 19008KT 10SM OVC075 00/M06 A2996 830 66 -700 190/08 RMK AO2
14837KMSN MSN20021123020009711/23/02 02:00:31  5-MIN KMSN 230800Z 18008KT 10SM OVC075 00/M06 A2995 840 66 -700 180/08 RMK AO2
14837KMSN MSN20021123020509711/23/02 02:05:31  5-MIN KMSN 230805Z 18010KT 10SM OVC075 00/M06 A2994 850 66 -700 180/10 RMK AO2
14837KMSN MSN20021123021009711/23/02 02:10:31  5-MIN KMSN 230810Z 19009KT 10SM OVC075 00/M06 A2994 850 66 -700 190/09 RMK AO2
14837KMSN MSN20021123021510411/23/02 02:15:31  5-MIN KMSN 230815Z 19009KT 10SM BKN065 OVC080 01/M06 A2994 850 63 -600 190/09 RMK AO2
14837KMSN MSN20021123022010411/23/02 02:20:31  5-MIN KMSN 230820Z 19008KT 10SM BKN065 OVC080 01/M06 A2993 850 63 -600 190/08 RMK AO2
14837KMSN MSN20021123022510411/23/02 02:25:31  5-MIN KMSN 230825Z 19009KT 10SM BKN065 OVC080 01/M05 A2993 850 66 -600 190/09 RMK AO2
14837KMSN MSN20021123023010411/23/02 02:30:31  5-MIN KMSN 230830Z 19008KT 10SM BKN065 OVC080 01/M05 A2993 850 66 -600 190/08 RMK AO2
14837KMSN MSN20021123023509711/23/02 02:35:31  5-MIN KMSN 230835Z 19009KT 10SM OVC065 01/M06 A2993 850 63 -600 190/09 RMK AO2
14837KMSN MSN20021123024009711/23/02 02:40:31  5-MIN KMSN 230840Z 19009KT 10SM OVC065 01/M05 A2993 860 66 -600 190/09 RMK AO2
14837KMSN MSN20021123024509711/23/02 02:45:31  5-MIN KMSN 230845Z 18010KT 10SM OVC065 01/M05 A2992 860 66 -600 180/10 RMK AO2
14837KMSN MSN20021123025012011/23/02 02:50:31  5-MIN KMSN 230850Z 19011KT 10SM OVC065 01/M06 A2992 870 63 -600 190/11 RMK AO2 SLP140 T00061056 55008
14837KMSN MSN20021123025509711/23/02 02:55:31  5-MIN KMSN 230855Z 19013KT 10SM OVC065 01/M06 A2991 870 63 -600 180/13 RMK AO2
14837KMSN MSN20021123030010411/23/02 03:00:31  5-MIN KMSN 230900Z 18012KT 10SM OVC065 01/M05 A2991 880 66 -600 180/12 RMK AO2 PRESFR
14837KMSN MSN20021123030509711/23/02 03:05:31  5-MIN KMSN 230905Z 18011KT 10SM OVC070 01/M05 A2990 880 66 -600 180/11 RMK AO2
14837KMSN MSN20021123031009711/23/02 03:10:31  5-MIN KMSN 230910Z 18008KT 10SM OVC070 01/M05 A2990 880 66 -600 170/08 RMK AO2
14837KMSN MSN20021123031509711/23/02 03:15:31  5-MIN KMSN 230915Z 18010KT 10SM OVC065 01/M05 A2990 890 66 -600 170/10 RMK AO2
14837KMSN MSN20021123032009711/23/02 03:20:31  5-MIN KMSN 230920Z 17010KT 10SM OVC070 01/M05 A2989 890 66 -600 170/10 RMK AO2
14837KMSN MSN20021123032509711/23/02 03:25:31  5-MIN KMSN 230925Z 18009KT 10SM OVC070 01/M05 A2989 890 66 -600 180/09 RMK AO2
14837KMSN MSN20021123033009711/23/02 03:30:31  5-MIN KMSN 230930Z 18008KT 10SM OVC070 01/M05 A2989 890 66 -600 180/08 RMK AO2
14837KMSN MSN20021123033509711/23/02 03:35:31  5-MIN KMSN 230935Z 18010KT 10SM OVC065 01/M05 A2989 890 66 -600 180/10 RMK AO2
14837KMSN MSN20021123034009711/23/02 03:40:31  5-MIN KMSN 230940Z 18009KT 10SM OVC065 01/M05 A2989 890 66 -600 180/09 RMK AO2
14837KMSN MSN20021123034509711/23/02 03:45:31  5-MIN KMSN 230945Z 18010KT 10SM OVC065 01/M05 A2989 900 66 -600 180/10 RMK AO2
14837KMSN MSN20021123035011411/23/02 03:50:31  5-MIN KMSN 230950Z 17011KT 10SM OVC065 01/M05 A2988 900 66 -600 170/11 RMK AO2 SLP128 T00061050
14837KMSN MSN20021123035509711/23/02 03:55:31  5-MIN KMSN 230955Z 18009KT 10SM OVC065 01/M05 A2988 900 66 -600 180/09 RMK AO2
14837KMSN MSN20021123040009711/23/02 04:00:31  5-MIN KMSN 231000Z 18008KT 10SM OVC065 01/M04 A2988 900 69 -600 180/08 RMK AO2
14837KMSN MSN20021123040509711/23/02 04:05:31  5-MIN KMSN 231005Z 17009KT 10SM OVC065 01/M04 A2988 900 69 -600 170/09 RMK AO2
14837KMSN MSN20021123041010411/23/02 04:10:31  5-MIN KMSN 231010Z 18009KT 10SM BKN065 OVC110 01/M04 A2988 900 69 -500 180/09 RMK AO2
14837KMSN MSN20021123041510411/23/02 04:15:31  5-MIN KMSN 231015Z 18009KT 10SM BKN065 BKN090 01/M04 A2988 910 69 -500 180/09 RMK AO2
14837KMSN MSN20021123042010411/23/02 04:20:31  5-MIN KMSN 231020Z 18009KT 10SM SCT065 OVC090 01/M04 A2987 910 69 -500 180/09 RMK AO2
14837KMSN MSN20021123042510411/23/02 04:25:31  5-MIN KMSN 231025Z 18009KT 10SM SCT065 OVC085 01/M04 A2987 910 69 -500 180/09 RMK AO2
14837KMSN MSN20021123043010411/23/02 04:30:31  5-MIN KMSN 231030Z 18008KT 10SM FEW065 OVC085 01/M04 A2987 910 66 -500 180/08 RMK AO2
14837KMSN MSN20021123043509711/23/02 04:35:31  5-MIN KMSN 231035Z 18010KT 10SM BKN085 01/M04 A2987 910 66 -500 180/10 RMK AO2
14837KMSN MSN20021123044009711/23/02 04:40:31  5-MIN KMSN 231040Z 19009KT 10SM OVC085 01/M04 A2987 910 66 -500 180/09 RMK AO2
14837KMSN MSN20021123044509711/23/02 04:45:31  5-MIN KMSN 231045Z 19008KT 10SM OVC080 01/M04 A2987 910 66 -500 190/08 RMK AO2
14837KMSN MSN20021123045011411/23/02 04:50:31  5-MIN KMSN 231050Z 20010KT 10SM OVC080 01/M05 A2986 920 64 -500 200/10 RMK AO2 SLP122 T00111050
14837KMSN MSN20021123045509711/23/02 04:55:31  5-MIN KMSN 231055Z 20010KT 10SM OVC080 01/M05 A2987 920 64 -500 200/10 RMK AO2
14837KMSN MSN20021123050009711/23/02 05:00:31  5-MIN KMSN 231100Z 20010KT 10SM OVC080 01/M05 A2986 920 64 -500 200/10 RMK AO2
14837KMSN MSN20021123050509711/23/02 05:05:31  5-MIN KMSN 231105Z 19008KT 10SM OVC080 01/M05 A2986 920 64 -500 190/08 RMK AO2
14837KMSN MSN20021123051009711/23/02 05:10:31  5-MIN KMSN 231110Z 20010KT 10SM OVC075 01/M05 A2986 920 64 -500 200/10 RMK AO2
14837KMSN MSN20021123051509711/23/02 05:15:31  5-MIN KMSN 231115Z 19010KT 10SM OVC075 01/M05 A2986 920 64 -500 190/10 RMK AO2
14837KMSN MSN20021123052009711/23/02 05:20:31  5-MIN KMSN 231120Z 19008KT 10SM OVC075 01/M05 A2986 920 64 -500 190/08 RMK AO2
14837KMSN MSN20021123052509711/23/02 05:25:31  5-MIN KMSN 231125Z 20009KT 10SM OVC070 01/M05 A2985 930 64 -500 200/09 RMK AO2
14837KMSN MSN20021123053009711/23/02 05:30:31  5-MIN KMSN 231130Z 19008KT 10SM OVC070 01/M05 A2985 930 64 -400 190/08 RMK AO2
14837KMSN MSN20021123053509711/23/02 05:35:31  5-MIN KMSN 231135Z 21006KT 10SM OVC070 01/M05 A2985 930 64 -500 200/06 RMK AO2
14837KMSN MSN20021123054009711/23/02 05:40:31  5-MIN KMSN 231140Z 20008KT 10SM OVC070 01/M05 A2985 930 64 -500 200/08 RMK AO2
14837KMSN MSN20021123054509711/23/02 05:45:31  5-MIN KMSN 231145Z 20009KT 10SM OVC075 01/M05 A2985 930 64 -400 190/09 RMK AO2
14837KMSN MSN20021123055013211/23/02 05:50:31  5-MIN KMSN 231150Z 19010KT 10SM OVC075 01/M04 A2985 930 66 -400 190/10 RMK AO2 SLP118 T00111044 10011 21006 58030
14837KMSN MSN20021123055509711/23/02 05:55:31  5-MIN KMSN 231155Z 20009KT 10SM OVC075 01/M04 A2985 930 66 -400 200/09 RMK AO2
14837KMSN MSN20021123060009711/23/02 06:00:31  5-MIN KMSN 231200Z 20009KT 10SM BKN075 01/M04 A2985 930 66 -400 200/09 RMK AO2
14837KMSN MSN20021123060509711/23/02 06:05:31  5-MIN KMSN 231205Z 19008KT 10SM BKN075 01/M04 A2985 930 66 -400 190/08 RMK AO2
14837KMSN MSN20021123061009711/23/02 06:10:31  5-MIN KMSN 231210Z 20008KT 10SM SCT075 01/M04 A2985 930 66 -400 200/08 RMK AO2
14837KMSN MSN20021123061509711/23/02 06:15:31  5-MIN KMSN 231215Z 21006KT 10SM SCT075 01/M04 A2985 930 66 -400 200/06 RMK AO2
14837KMSN MSN20021123062009711/23/02 06:20:31  5-MIN KMSN 231220Z 21006KT 10SM FEW075 01/M04 A2985 930 66 -400 200/06 RMK AO2
14837KMSN MSN20021123062509711/23/02 06:25:31  5-MIN KMSN 231225Z 21007KT 10SM FEW075 01/M04 A2985 930 66 -400 210/07 RMK AO2
14837KMSN MSN20021123063009711/23/02 06:30:31  5-MIN KMSN 231230Z VRB06KT 10SM FEW075 01/M04 A2985 930 66 -400 VRB/06 RMK AO2
14837KMSN MSN20021123063509711/23/02 06:35:31  5-MIN KMSN 231235Z 21008KT 10SM FEW075 01/M04 A2985 930 66 -400 210/08 RMK AO2
14837KMSN MSN20021123064009711/23/02 06:40:31  5-MIN KMSN 231240Z 20005KT 10SM FEW075 01/M04 A2985 930 66 -400 200/05 RMK AO2
14837KMSN MSN20021123064509711/23/02 06:45:31  5-MIN KMSN 231245Z 22007KT 10SM FEW075 01/M04 A2985 930 66 -400 220/07 RMK AO2
14837KMSN MSN20021123065011411/23/02 06:50:31  5-MIN KMSN 231250Z 20007KT 10SM FEW075 01/M04 A2985 930 66 -400 200/07 RMK AO2 SLP118 T00111044
14837KMSN MSN20021123065509711/23/02 06:55:31  5-MIN KMSN 231255Z 21008KT 10SM FEW075 01/M04 A2985 930 69 -500 210/08 RMK AO2
14837KMSN MSN20021123070009711/23/02 07:00:31  5-MIN KMSN 231300Z 20008KT 10SM FEW075 01/M04 A2985 930 66 -400 200/08 RMK AO2
14837KMSN MSN20021123070509711/23/02 07:05:31  5-MIN KMSN 231305Z 21008KT 10SM FEW075 01/M04 A2985 930 69 -500 210/08 RMK AO2
14837KMSN MSN20021123071009711/23/02 07:10:31  5-MIN KMSN 231310Z 21008KT 10SM FEW075 01/M04 A2985 930 69 -500 210/08 RMK AO2
14837KMSN MSN20021123071509711/23/02 07:15:31  5-MIN KMSN 231315Z 21008KT 10SM FEW075 01/M04 A2985 930 66 -400 210/08 RMK AO2
14837KMSN MSN20021123072009411/23/02 07:20:31  5-MIN KMSN 231320Z 21010KT 10SM CLR 01/M04 A2985 930 66 -400 210/10 RMK AO2
14837KMSN MSN20021123072511011/23/02 07:25:31  5-MIN KMSN 231325Z 22008KT 180V250 10SM CLR 01/M04 A2985 930 66 -400 220/08 180V250 RMK AO2
14837KMSN MSN20021123073009411/23/02 07:30:31  5-MIN KMSN 231330Z 21007KT 10SM CLR 01/M04 A2985 930 66 -400 210/07 RMK AO2
14837KMSN MSN20021123073509411/23/02 07:35:31  5-MIN KMSN 231335Z 21007KT 10SM CLR 01/M04 A2984 930 69 -400 210/07 RMK AO2
14837KMSN MSN20021123074009411/23/02 07:40:31  5-MIN KMSN 231340Z 22008KT 10SM CLR 01/M04 A2985 930 69 -400 220/08 RMK AO2
14837KMSN MSN20021123074509411/23/02 07:45:31  5-MIN KMSN 231345Z 22009KT 10SM CLR 01/M04 A2985 930 69 -400 220/09 RMK AO2
14837KMSN MSN20021123075011111/23/02 07:50:31  5-MIN KMSN 231350Z 22008KT 10SM CLR 01/M04 A2985 930 69 -400 220/08 RMK AO2 SLP118 T00111039
14837KMSN MSN20021123075509411/23/02 07:55:31  5-MIN KMSN 231355Z 21009KT 10SM CLR 01/M04 A2985 930 69 -400 210/09 RMK AO2
14837KMSN MSN20021123080009411/23/02 08:00:31  5-MIN KMSN 231400Z 22007KT 10SM CLR 01/M04 A2985 930 69 -400 220/07 RMK AO2
14837KMSN MSN20021123080509411/23/02 08:05:31  5-MIN KMSN 231405Z 22008KT 10SM CLR 01/M04 A2985 930 69 -400 220/08 RMK AO2
14837KMSN MSN20021123081009411/23/02 08:10:31  5-MIN KMSN 231410Z 21009KT 10SM CLR 01/M04 A2985 930 69 -400 210/09 RMK AO2
14837KMSN MSN20021123081509711/23/02 08:15:31  5-MIN KMSN 231415Z 22009KT 10SM SCT050 02/M04 A2985 930 66 -400 220/09 RMK AO2
14837KMSN MSN20021123082009711/23/02 08:20:31  5-MIN KMSN 231420Z 22009KT 10SM BKN050 02/M04 A2985 930 66 -400 220/09 RMK AO2
14837KMSN MSN20021123082509711/23/02 08:25:31  5-MIN KMSN 231425Z 23009KT 10SM BKN050 02/M04 A2985 930 66 -400 230/09 RMK AO2
14837KMSN MSN20021123083009711/23/02 08:30:31  5-MIN KMSN 231430Z 22009KT 10SM BKN050 02/M04 A2985 930 66 -400 220/09 RMK AO2
14837KMSN MSN20021123083509711/23/02 08:35:31  5-MIN KMSN 231435Z 23006KT 10SM OVC050 02/M03 A2985 930 69 -400 230/06 RMK AO2
14837KMSN MSN20021123084009711/23/02 08:40:31  5-MIN KMSN 231440Z 24008KT 10SM BKN050 02/M03 A2985 930 69 -400 240/08 RMK AO2
14837KMSN MSN20021123084509711/23/02 08:45:31  5-MIN KMSN 231445Z 22008KT 10SM BKN050 02/M03 A2985 930 67 -300 220/08 RMK AO2
14837KMSN MSN20021123085012011/23/02 08:50:31  5-MIN KMSN 231450Z 24010KT 10SM FEW050 02/M03 A2985 930 69 -400 230/10 RMK AO2 SLP118 T00171033 56021
14837KMSN MSN20021123085509711/23/02 08:55:31  5-MIN KMSN 231455Z 24008KT 10SM SCT049 02/M03 A2985 930 67 -300 240/08 RMK AO2
14837KMSN MSN20021123090011311/23/02 09:00:31  5-MIN KMSN 231500Z 25009KT 210V270 10SM SCT049 02/M03 A2985 930 67 -300 240/09 210V270 RMK AO2
14837KMSN MSN20021123090509711/23/02 09:05:31  5-MIN KMSN 231505Z 23007KT 10SM FEW049 02/M03 A2985 930 67 -300 220/07 RMK AO2
14837KMSN MSN20021123091009411/23/02 09:10:31  5-MIN KMSN 231510Z 23009KT 10SM CLR 02/M03 A2985 930 67 -300 230/09 RMK AO2
14837KMSN MSN20021123091511011/23/02 09:15:31  5-MIN KMSN 231515Z 25007KT 210V280 10SM CLR 02/M03 A2985 930 69 -300 250/07 210V280 RMK AO2
14837KMSN MSN20021123092011611/23/02 09:20:31  5-MIN KMSN 231520Z 26010G15KT 240V300 10SM CLR 03/M03 A2985 920 64 -200 260/10G15 240V300 RMK AO2
14837KMSN MSN20021123092510011/23/02 09:25:31  5-MIN KMSN 231525Z 26008G15KT 10SM CLR 03/M03 A2986 920 64 -200 260/08G15 RMK AO2
14837KMSN MSN20021123093010311/23/02 09:30:31  5-MIN KMSN 231530Z 26009G15KT 10SM FEW042 03/M03 A2986 920 64 -200 260/09G15 RMK AO2
14837KMSN MSN20021123093511911/23/02 09:35:31  5-MIN KMSN 231535Z 27008G15KT 250V310 10SM SCT042 03/M03 A2986 920 64 -200 270/08G15 250V310 RMK AO2
14837KMSN MSN20021123094011311/23/02 09:40:31  5-MIN KMSN 231540Z 26009KT 230V290 10SM SCT042 03/M03 A2986 920 64 -200 260/09 230V290 RMK AO2
14837KMSN MSN20021123094510311/23/02 09:45:31  5-MIN KMSN 231545Z 27012G16KT 10SM BKN042 03/M03 A2986 920 61 -200 270/12G16 RMK AO2
14837KMSN MSN20021123095012011/23/02 09:50:31  5-MIN KMSN 231550Z 28008G16KT 10SM SCT042 03/M03 A2986 920 61 -200 280/08G16 RMK AO2 SLP119 T00331033
14837KMSN MSN20021123095510311/23/02 09:55:31  5-MIN KMSN 231555Z 27010G14KT 10SM BKN040 04/M03 A2986 920 62 -100 270/10G14 RMK AO2
14837KMSN MSN20021123100010311/23/02 10:00:31  5-MIN KMSN 231600Z 29008G14KT 10SM BKN038 03/M03 A2986 920 64 -200 290/08G14 RMK AO2
14837KMSN MSN20021123100510411/23/02 10:05:31  5-MIN KMSN 231605Z 28011KT 10SM BKN034 BKN041 03/M03 A2986 920 61 -200 280/11 RMK AO2
14837KMSN MSN20021123101010411/23/02 10:10:31  5-MIN KMSN 231610Z 26010KT 10SM BKN034 BKN041 03/M03 A2986 920 64 -200 260/10 RMK AO2
14837KMSN MSN20021123101510311/23/02 10:15:31  5-MIN KMSN 231615Z 29012G17KT 10SM BKN034 03/M03 A2986 920 64 -200 290/12G17 RMK AO2
14837KMSN MSN20021123102010311/23/02 10:20:31  5-MIN KMSN 231620Z 27009G17KT 10SM OVC034 03/M03 A2986 920 64 -200 270/09G17 RMK AO2
14837KMSN MSN20021123102509711/23/02 10:25:31  5-MIN KMSN 231625Z 28008KT 10SM OVC034 03/M03 A2986 920 64 -200 280/08 RMK AO2
14837KMSN MSN20021123103011311/23/02 10:30:31  5-MIN KMSN 231630Z 29008KT 250V320 10SM OVC034 04/M03 A2986 920 62 -100 280/08 250V320 RMK AO2
14837KMSN MSN20021123103509711/23/02 10:35:31  5-MIN KMSN 231635Z 27008KT 10SM OVC034 03/M03 A2986 920 64 -200 270/08 RMK AO2
14837KMSN MSN20021123104009711/23/02 10:40:31  5-MIN KMSN 231640Z VRB06KT 10SM BKN034 04/M03 A2986 920 62 -100 VRB/06 RMK AO2
14837KMSN MSN20021123104509411/23/02 10:45:31  5-MIN KMSN 231645Z 27008KT 10SM BKN034 04/M02 A2986 920 62 0 270/08 RMK AO2
14837KMSN MSN20021123105011711/23/02 10:50:31  5-MIN KMSN 231650Z 28009G14KT 10SM FEW034 04/M02 A2986 920 62 0 280/09G14 RMK AO2 SLP118 T00441022
14837KMSN MSN20021123105510011/23/02 10:55:31  5-MIN KMSN 231655Z 29010G14KT 10SM FEW034 04/M02 A2986 920 62 0 290/10G14 RMK AO2
14837KMSN MSN20021123110011011/23/02 11:00:31  5-MIN KMSN 231700Z 28009KT 250V310 10SM FEW034 04/M02 A2985 930 62 0 280/09 250V310 RMK AO2
14837KMSN MSN20021123110509111/23/02 11:05:31  5-MIN KMSN 231705Z 27008KT 10SM CLR 04/M02 A2985 930 62 0 270/08 RMK AO2
14837KMSN MSN20021123111009111/23/02 11:10:31  5-MIN KMSN 231710Z 28009KT 10SM CLR 04/M02 A2985 930 62 0 270/09 RMK AO2
14837KMSN MSN20021123111509711/23/02 11:15:31  5-MIN KMSN 231715Z 28009G14KT 10SM CLR 05/M02 A2985 930 59 0 280/09G14 RMK AO2
14837KMSN MSN20021123112009711/23/02 11:20:31  5-MIN KMSN 231720Z 28008G14KT 10SM CLR 05/M02 A2985 930 59 0 280/08G14 RMK AO2
14837KMSN MSN20021123112509311/23/02 11:25:31  5-MIN KMSN 231725Z 30008KT 10SM CLR 06/M02 A2985 930 57 100 300/08 RMK AO2
14837KMSN MSN20021123113009311/23/02 11:30:31  5-MIN KMSN 231730Z 29007KT 10SM CLR 06/M02 A2985 930 57 100 290/07 RMK AO2
14837KMSN MSN20021123113509311/23/02 11:35:31  5-MIN KMSN 231735Z 30009KT 10SM CLR 06/M02 A2985 930 57 100 300/09 RMK AO2
14837KMSN MSN20021123114009911/23/02 11:40:31  5-MIN KMSN 231740Z 30013G16KT 10SM CLR 06/M02 A2985 930 57 100 300/13G16 RMK AO2
14837KMSN MSN20021123114509911/23/02 11:45:31  5-MIN KMSN 231745Z 28009G16KT 10SM CLR 06/M02 A2985 930 57 100 280/09G16 RMK AO2
14837KMSN MSN20021123115013111/23/02 11:50:31  5-MIN KMSN 231750Z 29006KT 10SM FEW033 06/M02 A2985 930 57 100 290/06 RMK AO2 SLP115 T00561022 10056 20006 53000
14837KMSN MSN20021123115509311/23/02 11:55:31  5-MIN KMSN 231755Z 28010KT 10SM CLR 06/M02 A2985 930 55 100 280/10 RMK AO2
14837KMSN MSN20021123120010911/23/02 12:00:31  5-MIN KMSN 231800Z 28007KT 240V320 10SM CLR 06/M02 A2985 930 55 100 270/07 240V320 RMK AO2
14837KMSN MSN20021123120509311/23/02 12:05:31  5-MIN KMSN 231805Z 27010KT 10SM CLR 06/M02 A2985 930 55 100 270/10 RMK AO2
14837KMSN MSN20021123121009911/23/02 12:10:31  5-MIN KMSN 231810Z 26010G16KT 10SM CLR 06/M02 A2985 930 55 100 260/10G16 RMK AO2
14837KMSN MSN20021123121509911/23/02 12:15:31  5-MIN KMSN 231815Z 29011G16KT 10SM CLR 06/M02 A2985 930 55 100 290/11G16 RMK AO2
14837KMSN MSN20021123122009911/23/02 12:20:31  5-MIN KMSN 231820Z 27010G16KT 10SM CLR 06/M02 A2985 930 55 100 270/10G16 RMK AO2
14837KMSN MSN20021123122509911/23/02 12:25:31  5-MIN KMSN 231825Z 28010G16KT 10SM CLR 07/M02 A2984 940 53 200 280/10G16 RMK AO2
14837KMSN MSN20021123123009311/23/02 12:30:31  5-MIN KMSN 231830Z 30013KT 10SM CLR 06/M02 A2984 930 55 100 300/13 RMK AO2
14837KMSN MSN20021123123509911/23/02 12:35:31  5-MIN KMSN 231835Z 29010G17KT 10SM CLR 07/M02 A2984 940 53 200 280/10G17 RMK AO2
14837KMSN MSN20021123124011511/23/02 12:40:31  5-MIN KMSN 231840Z 28008G17KT 240V310 10SM CLR 07/M02 A2984 940 53 200 280/08G17 240V310 RMK AO2
14837KMSN MSN20021123124509611/23/02 12:45:31  5-MIN KMSN 231845Z 29008KT 10SM FEW035 07/M02 A2984 940 53 300 290/08 RMK AO2
14837KMSN MSN20021123125012911/23/02 12:50:31  5-MIN KMSN 231850Z 29009KT 260V320 10SM SCT035 07/M02 A2984 940 51 300 290/09 260V320 RMK AO2 SLP111 T00721022
14837KMSN MSN20021123125511811/23/02 12:55:31  5-MIN KMSN 231855Z 28011G15KT 250V310 10SM SCT035 07/M02 A2984 940 51 300 280/11G15 250V310 RMK AO2
14837KMSN MSN20021123130010211/23/02 13:00:31  5-MIN KMSN 231900Z 31011G15KT 10SM FEW035 07/M02 A2984 940 51 300 310/11G15 RMK AO2
14837KMSN MSN20021123130509611/23/02 13:05:31  5-MIN KMSN 231905Z 27008KT 10SM FEW035 07/M02 A2984 940 51 300 270/08 RMK AO2
14837KMSN MSN20021123131011811/23/02 13:10:31  5-MIN KMSN 231910Z 29012G16KT 250V310 10SM FEW035 07/M02 A2984 940 51 300 290/12G16 250V310 RMK AO2
14837KMSN MSN20021123131510211/23/02 13:15:31  5-MIN KMSN 231915Z 28010G16KT 10SM FEW037 07/M02 A2984 940 51 300 280/10G16 RMK AO2
14837KMSN MSN20021123132011811/23/02 13:20:31  5-MIN KMSN 231920Z 27009G14KT 240V300 10SM FEW037 07/M02 A2984 940 51 300 270/09G14 240V300 RMK AO2
14837KMSN MSN20021123132509911/23/02 13:25:31  5-MIN KMSN 231925Z 28009G15KT 10SM CLR 07/M02 A2984 940 51 300 280/09G15 RMK AO2
14837KMSN MSN20021123133011511/23/02 13:30:31  5-MIN KMSN 231930Z 29009G15KT 250V310 10SM CLR 07/M02 A2984 940 51 300 280/09G15 250V310 RMK AO2
14837KMSN MSN20021123133509911/23/02 13:35:31  5-MIN KMSN 231935Z 27012G18KT 10SM CLR 07/M02 A2984 940 51 300 270/12G18 RMK AO2
14837KMSN MSN20021123134011511/23/02 13:40:31  5-MIN KMSN 231940Z 28012G18KT 240V300 10SM CLR 07/M03 A2984 940 49 300 280/12G18 240V300 RMK AO2
14837KMSN MSN20021123134511811/23/02 13:45:31  5-MIN KMSN 231945Z 26009G16KT 230V300 10SM SCT036 08/M03 A2984 940 47 300 260/09G16 230V300 RMK AO2
14837KMSN MSN20021123135011911/23/02 13:50:31  5-MIN KMSN 231950Z 26011G16KT 10SM FEW036 07/M03 A2984 940 47 300 260/11G16 RMK AO2 SLP112 T00721033
14837KMSN MSN20021123135509911/23/02 13:55:31  5-MIN KMSN 231955Z 28010G18KT 10SM CLR 07/M03 A2984 940 49 300 280/10G18 RMK AO2
14837KMSN MSN20021123140011511/23/02 14:00:31  5-MIN KMSN 232000Z 28011G18KT 260V320 10SM CLR 07/M03 A2984 940 47 300 280/11G18 260V320 RMK AO2
14837KMSN MSN20021123140509911/23/02 14:05:31  5-MIN KMSN 232005Z 28011G17KT 10SM CLR 07/M03 A2984 940 49 300 280/11G17 RMK AO2
14837KMSN MSN20021123141011511/23/02 14:10:31  5-MIN KMSN 232010Z 27008G15KT 240V310 10SM CLR 07/M03 A2984 940 49 300 270/08G15 240V310 RMK AO2
14837KMSN MSN20021123141509911/23/02 14:15:31  5-MIN KMSN 232015Z 28011G15KT 10SM CLR 07/M03 A2984 940 47 300 280/11G15 RMK AO2
14837KMSN MSN20021123142011511/23/02 14:20:31  5-MIN KMSN 232020Z 28013G17KT 240V310 10SM CLR 07/M04 A2984 940 45 300 280/13G17 240V310 RMK AO2
14837KMSN MSN20021123142509911/23/02 14:25:31  5-MIN KMSN 232025Z 28011G18KT 10SM CLR 07/M04 A2985 930 45 300 280/11G18 RMK AO2
14837KMSN MSN20021123143009911/23/02 14:30:31  5-MIN KMSN 232030Z 28011G18KT 10SM CLR 07/M04 A2984 940 45 300 280/11G18 RMK AO2
14837KMSN MSN20021123143509911/23/02 14:35:31  5-MIN KMSN 232035Z 27011G17KT 10SM CLR 07/M04 A2985 930 45 300 270/11G17 RMK AO2
14837KMSN MSN20021123144009911/23/02 14:40:31  5-MIN KMSN 232040Z 28010G17KT 10SM CLR 07/M04 A2985 930 45 300 280/10G17 RMK AO2
14837KMSN MSN20021123144509911/23/02 14:45:31  5-MIN KMSN 232045Z 28009G17KT 10SM CLR 07/M04 A2985 930 45 300 280/09G17 RMK AO2
14837KMSN MSN20021123145013511/23/02 14:50:31  5-MIN KMSN 232050Z 28011KT 240V300 10SM FEW035 07/M04 A2984 930 45 300 280/11 240V300 RMK AO2 SLP114 T00721039 58001
14837KMSN MSN20021123145511511/23/02 14:55:31  5-MIN KMSN 232055Z 26009G18KT 230V300 10SM CLR 07/M04 A2985 930 43 300 260/09G18 230V300 RMK AO2
14837KMSN MSN20021123150009911/23/02 15:00:31  5-MIN KMSN 232100Z VRB06G18KT 10SM CLR 07/M04 A2985 930 45 300 VRB/06G18 RMK AO2
14837KMSN MSN20021123150509911/23/02 15:05:31  5-MIN KMSN 232105Z 27010G15KT 10SM CLR 07/M04 A2985 930 43 300 270/10G15 RMK AO2
14837KMSN MSN20021123151009911/23/02 15:10:31  5-MIN KMSN 232110Z 28008G15KT 10SM CLR 07/M04 A2985 930 45 300 270/08G15 RMK AO2
14837KMSN MSN20021123151509311/23/02 15:15:31  5-MIN KMSN 232115Z 28008KT 10SM CLR 07/M04 A2985 930 45 300 280/08 RMK AO2
14837KMSN MSN20021123152010911/23/02 15:20:31  5-MIN KMSN 232120Z 28008KT 240V320 10SM CLR 07/M04 A2985 930 45 300 270/08 240V320 RMK AO2
14837KMSN MSN20021123152509311/23/02 15:25:31  5-MIN KMSN 232125Z 28010KT 10SM CLR 07/M04 A2985 930 45 300 280/10 RMK AO2
14837KMSN MSN20021123153009311/23/02 15:30:31  5-MIN KMSN 232130Z 28009KT 10SM CLR 07/M04 A2985 930 45 300 270/09 RMK AO2
14837KMSN MSN20021123153509311/23/02 15:35:31  5-MIN KMSN 232135Z 26009KT 10SM CLR 07/M04 A2986 920 45 300 260/09 RMK AO2
14837KMSN MSN20021123154010911/23/02 15:40:31  5-MIN KMSN 232140Z 27008KT 240V310 10SM CLR 07/M04 A2986 920 45 200 270/08 240V310 RMK AO2
14837KMSN MSN20021123154509311/23/02 15:45:31  5-MIN KMSN 232145Z VRB06KT 10SM CLR 07/M04 A2986 920 47 200 VRB/06 RMK AO2
14837KMSN MSN20021123155011011/23/02 15:50:31  5-MIN KMSN 232150Z 28007KT 10SM CLR 07/M04 A2986 920 47 200 270/07 RMK AO2 SLP119 T00671039
14837KMSN MSN20021123155509311/23/02 15:55:31  5-MIN KMSN 232155Z 27008KT 10SM CLR 07/M04 A2987 910 47 200 270/08 RMK AO2
14837KMSN MSN20021123160009311/23/02 16:00:31  5-MIN KMSN 232200Z 27007KT 10SM CLR 07/M04 A2987 910 45 200 270/07 RMK AO2
14837KMSN MSN20021123160509311/23/02 16:05:31  5-MIN KMSN 232205Z 27006KT 10SM CLR 06/M04 A2987 910 46 100 270/06 RMK AO2
14837KMSN MSN20021123161009311/23/02 16:10:31  5-MIN KMSN 232210Z 27006KT 10SM CLR 06/M04 A2988 910 46 100 270/06 RMK AO2
14837KMSN MSN20021123161509311/23/02 16:15:31  5-MIN KMSN 232215Z 26005KT 10SM CLR 06/M04 A2988 900 46 100 260/05 RMK AO2
14837KMSN MSN20021123162009111/23/02 16:20:31  5-MIN KMSN 232220Z 25005KT 10SM CLR 06/M04 A2988 900 50 0 250/05 RMK AO2
14837KMSN MSN20021123162509111/23/02 16:25:31  5-MIN KMSN 232225Z 26005KT 10SM CLR 06/M04 A2988 900 50 0 260/05 RMK AO2
14837KMSN MSN20021123163009111/23/02 16:30:31  5-MIN KMSN 232230Z VRB04KT 10SM CLR 06/M04 A2988 900 50 0 VRB/04 RMK AO2
14837KMSN MSN20021123163509111/23/02 16:35:31  5-MIN KMSN 232235Z VRB05KT 10SM CLR 06/M04 A2988 900 50 0 VRB/05 RMK AO2
14837KMSN MSN20021123164009111/23/02 16:40:31  5-MIN KMSN 232240Z VRB06KT 10SM CLR 05/M04 A2988 900 52 0 VRB/06 RMK AO2
14837KMSN MSN20021123164509111/23/02 16:45:31  5-MIN KMSN 232245Z 26005KT 10SM CLR 05/M04 A2988 900 52 0 260/05 RMK AO2
14837KMSN MSN20021123165010811/23/02 16:50:31  5-MIN KMSN 232250Z VRB04KT 10SM CLR 05/M04 A2989 890 52 0 VRB/04 RMK AO2 SLP129 T00501039
14837KMSN MSN20021123165509111/23/02 16:55:31  5-MIN KMSN 232255Z 25004KT 10SM CLR 05/M04 A2989 890 52 0 250/04 RMK AO2
14837KMSN MSN20021123170009411/23/02 17:00:31  5-MIN KMSN 232300Z VRB05KT 10SM CLR 04/M04 A2989 890 55 -100 VRB/05 RMK AO2
14837KMSN MSN20021123170509411/23/02 17:05:31  5-MIN KMSN 232305Z 25004KT 10SM CLR 04/M04 A2990 890 55 -100 250/04 RMK AO2
14837KMSN MSN20021123171009411/23/02 17:10:31  5-MIN KMSN 232310Z 26004KT 10SM CLR 04/M04 A2990 880 52 -100 260/04 RMK AO2
14837KMSN MSN20021123171509411/23/02 17:15:31  5-MIN KMSN 232315Z 25005KT 10SM CLR 04/M04 A2990 880 52 -100 250/05 RMK AO2
14837KMSN MSN20021123172009411/23/02 17:20:31  5-MIN KMSN 232320Z 26006KT 10SM CLR 04/M04 A2991 880 52 -100 260/06 RMK AO2
14837KMSN MSN20021123172509411/23/02 17:25:31  5-MIN KMSN 232325Z VRB04KT 10SM CLR 04/M04 A2991 880 54 -200 VRB/04 RMK AO2
14837KMSN MSN20021123173009411/23/02 17:30:31  5-MIN KMSN 232330Z 29006KT 10SM CLR 04/M04 A2991 870 54 -200 280/06 RMK AO2
14837KMSN MSN20021123173509411/23/02 17:35:31  5-MIN KMSN 232335Z 28005KT 10SM CLR 04/M04 A2992 870 54 -200 280/05 RMK AO2
14837KMSN MSN20021123174009411/23/02 17:40:31  5-MIN KMSN 232340Z 27005KT 10SM CLR 04/M04 A2992 870 54 -200 270/05 RMK AO2
14837KMSN MSN20021123174509411/23/02 17:45:31  5-MIN KMSN 232345Z 28005KT 10SM CLR 03/M04 A2992 860 59 -300 280/05 RMK AO2
14837KMSN MSN20021123175012911/23/02 17:50:31  5-MIN KMSN 232350Z 28005KT 10SM CLR 03/M04 A2992 860 57 -300 280/05 RMK AO2 SLP141 T00331044 10078 20028 55001
14837KMSN MSN20021123175509411/23/02 17:55:31  5-MIN KMSN 232355Z 28004KT 10SM CLR 03/M04 A2993 860 59 -300 280/04 RMK AO2
14837KMSN MSN20021123183509411/23/02 18:35:31  5-MIN KMSN 240035Z 29006KT 10SM CLR 03/M04 A2994 840 59 -300 280/06 RMK AO2
14837KMSN MSN20021123184009411/23/02 18:40:31  5-MIN KMSN 240040Z 29006KT 10SM CLR 03/M05 A2994 840 56 -300 280/06 RMK AO2
14837KMSN MSN20021123184509411/23/02 18:45:31  5-MIN KMSN 240045Z 29005KT 10SM CLR 03/M05 A2994 840 56 -300 290/05 RMK AO2
14837KMSN MSN20021123185011111/23/02 18:50:31  5-MIN KMSN 240050Z 28006KT 10SM CLR 03/M05 A2995 840 56 -300 280/06 RMK AO2 SLP149 T00281050
14837KMSN MSN20021123185509411/23/02 18:55:31  5-MIN KMSN 240055Z 28005KT 10SM CLR 02/M05 A2995 840 59 -400 280/05 RMK AO2
14837KMSN MSN20021123190009411/23/02 19:00:31  5-MIN KMSN 240100Z 28004KT 10SM CLR 02/M05 A2995 840 59 -400 280/04 RMK AO2
14837KMSN MSN20021123190509411/23/02 19:05:31  5-MIN KMSN 240105Z 29005KT 10SM CLR 02/M05 A2995 840 59 -400 290/05 RMK AO2
14837KMSN MSN20021123191009411/23/02 19:10:31  5-MIN KMSN 240110Z 28006KT 10SM CLR 02/M05 A2995 840 59 -400 280/06 RMK AO2
14837KMSN MSN20021123191509411/23/02 19:15:31  5-MIN KMSN 240115Z 28004KT 10SM CLR 02/M05 A2995 840 59 -400 280/04 RMK AO2
14837KMSN MSN20021123192009411/23/02 19:20:31  5-MIN KMSN 240120Z 28006KT 10SM CLR 02/M05 A2995 840 59 -400 270/06 RMK AO2
14837KMSN MSN20021123192509411/23/02 19:25:31  5-MIN KMSN 240125Z 28004KT 10SM CLR 02/M05 A2995 840 59 -400 280/04 RMK AO2
14837KMSN MSN20021123193009411/23/02 19:30:31  5-MIN KMSN 240130Z 27005KT 10SM CLR 02/M05 A2995 840 61 -500 270/05 RMK AO2
14837KMSN MSN20021123193509411/23/02 19:35:31  5-MIN KMSN 240135Z 27004KT 10SM CLR 02/M05 A2995 840 61 -500 270/04 RMK AO2
14837KMSN MSN20021123194009711/23/02 19:40:31  5-MIN KMSN 240140Z 26005KT 10SM FEW110 02/M05 A2995 830 61 -500 260/05 RMK AO2
14837KMSN MSN20021123194509711/23/02 19:45:31  5-MIN KMSN 240145Z 27004KT 10SM FEW110 02/M05 A2995 830 61 -500 270/04 RMK AO2
14837KMSN MSN20021123195011411/23/02 19:50:31  5-MIN KMSN 240150Z 27005KT 10SM FEW110 02/M05 A2996 830 61 -500 270/05 RMK AO2 SLP153 T00171050
14837KMSN MSN20021123195509411/23/02 19:55:31  5-MIN KMSN 240155Z 27005KT 10SM CLR 02/M05 A2996 830 61 -500 270/05 RMK AO2
14837KMSN MSN20021123200009411/23/02 20:00:31  5-MIN KMSN 240200Z 28005KT 10SM CLR 02/M05 A2996 830 61 -500 270/05 RMK AO2
14837KMSN MSN20021123200509411/23/02 20:05:31  5-MIN KMSN 240205Z 27005KT 10SM CLR 02/M05 A2996 830 61 -500 270/05 RMK AO2
14837KMSN MSN20021123201009411/23/02 20:10:31  5-MIN KMSN 240210Z 27005KT 10SM CLR 02/M05 A2996 830 59 -400 270/05 RMK AO2
14837KMSN MSN20021123201509411/23/02 20:15:31  5-MIN KMSN 240215Z 27005KT 10SM CLR 02/M05 A2996 820 61 -500 260/05 RMK AO2
14837KMSN MSN20021123202009411/23/02 20:20:31  5-MIN KMSN 240220Z 27005KT 10SM CLR 02/M05 A2997 820 61 -500 260/05 RMK AO2
14837KMSN MSN20021123202509411/23/02 20:25:31  5-MIN KMSN 240225Z 26005KT 10SM CLR 02/M05 A2997 820 61 -500 260/05 RMK AO2
14837KMSN MSN20021123203009411/23/02 20:30:31  5-MIN KMSN 240230Z 27004KT 10SM CLR 02/M05 A2997 820 61 -500 260/04 RMK AO2
14837KMSN MSN20021123203509411/23/02 20:35:31  5-MIN KMSN 240235Z VRB05KT 10SM CLR 02/M04 A2998 810 64 -500 VRB/05 RMK AO2
14837KMSN MSN20021123204009411/23/02 20:40:31  5-MIN KMSN 240240Z 27006KT 10SM CLR 02/M04 A2997 810 64 -500 260/06 RMK AO2
14837KMSN MSN20021123204509711/23/02 20:45:31  5-MIN KMSN 240245Z VRB05KT 10SM FEW046 02/M04 A2998 810 64 -500 VRB/05 RMK AO2
14837KMSN MSN20021123205012011/23/02 20:50:31  5-MIN KMSN 240250Z VRB03KT 10SM FEW046 02/M04 A2998 810 64 -500 VRB/03 RMK AO2 SLP160 T00171044 53026
14837KMSN MSN20021123205509711/23/02 20:55:31  5-MIN KMSN 240255Z VRB04KT 10SM FEW046 02/M04 A2998 810 64 -500 VRB/04 RMK AO2
14837KMSN MSN20021123210009711/23/02 21:00:31  5-MIN KMSN 240300Z 24005KT 10SM FEW046 02/M04 A2998 810 61 -500 230/05 RMK AO2
14837KMSN MSN20021123210509711/23/02 21:05:31  5-MIN KMSN 240305Z VRB04KT 10SM FEW046 02/M04 A2998 810 64 -500 VRB/04 RMK AO2
14837KMSN MSN20021123211009711/23/02 21:10:31  5-MIN KMSN 240310Z VRB05KT 10SM FEW046 02/M05 A2998 810 61 -500 VRB/05 RMK AO2
14837KMSN MSN20021123211509411/23/02 21:15:31  5-MIN KMSN 240315Z VRB05KT 10SM CLR 02/M05 A2997 810 61 -500 VRB/05 RMK AO2
14837KMSN MSN20021123212009411/23/02 21:20:31  5-MIN KMSN 240320Z 26005KT 10SM CLR 02/M05 A2998 810 61 -500 260/05 RMK AO2
14837KMSN MSN20021123212509411/23/02 21:25:31  5-MIN KMSN 240325Z VRB04KT 10SM CLR 02/M05 A2997 820 61 -500 VRB/04 RMK AO2
14837KMSN MSN20021123213009411/23/02 21:30:31  5-MIN KMSN 240330Z 25005KT 10SM CLR 02/M05 A2997 820 61 -500 250/05 RMK AO2
14837KMSN MSN20021123213509411/23/02 21:35:31  5-MIN KMSN 240335Z VRB04KT 10SM CLR 02/M05 A2997 820 61 -500 VRB/04 RMK AO2
14837KMSN MSN20021123214009411/23/02 21:40:31  5-MIN KMSN 240340Z 26005KT 10SM CLR 02/M05 A2997 810 61 -500 260/05 RMK AO2
14837KMSN MSN20021123214509411/23/02 21:45:31  5-MIN KMSN 240345Z VRB05KT 10SM CLR 02/M05 A2998 810 61 -500 VRB/05 RMK AO2
14837KMSN MSN20021123215011111/23/02 21:50:31  5-MIN KMSN 240350Z 26005KT 10SM CLR 02/M05 A2998 810 61 -500 260/05 RMK AO2 SLP161 T00171050
14837KMSN MSN20021123215509411/23/02 21:55:31  5-MIN KMSN 240355Z VRB06KT 10SM CLR 02/M05 A2998 810 61 -500 VRB/06 RMK AO2
14837KMSN MSN20021123220009411/23/02 22:00:31  5-MIN KMSN 240400Z VRB04KT 10SM CLR 02/M05 A2998 810 61 -500 VRB/04 RMK AO2
14837KMSN MSN20021123220509411/23/02 22:05:31  5-MIN KMSN 240405Z VRB04KT 10SM CLR 01/M05 A2998 810 64 -600 VRB/04 RMK AO2
14837KMSN MSN20021123221009411/23/02 22:10:31  5-MIN KMSN 240410Z VRB04KT 10SM CLR 02/M05 A2999 800 61 -500 VRB/04 RMK AO2
14837KMSN MSN20021123221509411/23/02 22:15:31  5-MIN KMSN 240415Z 26006KT 10SM CLR 02/M05 A2998 800 61 -500 260/06 RMK AO2
14837KMSN MSN20021123222009711/23/02 22:20:31  5-MIN KMSN 240420Z 27004KT 10SM FEW110 02/M05 A2998 810 61 -500 270/04 RMK AO2
14837KMSN MSN20021123222509711/23/02 22:25:31  5-MIN KMSN 240425Z 28004KT 10SM SCT110 02/M05 A2997 820 61 -500 280/04 RMK AO2
14837KMSN MSN20021123223009711/23/02 22:30:31  5-MIN KMSN 240430Z 27004KT 10SM BKN110 01/M05 A2998 810 64 -600 270/04 RMK AO2
14837KMSN MSN20021123223509711/23/02 22:35:31  5-MIN KMSN 240435Z VRB04KT 10SM SCT110 01/M05 A2999 800 64 -600 VRB/04 RMK AO2
14837KMSN MSN20021123224009711/23/02 22:40:31  5-MIN KMSN 240440Z 27004KT 10SM SCT110 01/M05 A2999 800 64 -600 270/04 RMK AO2
14837KMSN MSN20021123224509711/23/02 22:45:31  5-MIN KMSN 240445Z 27005KT 10SM SCT110 01/M05 A2999 800 64 -600 270/05 RMK AO2
14837KMSN MSN20021123225011411/23/02 22:50:31  5-MIN KMSN 240450Z VRB05KT 10SM FEW110 01/M05 A2999 800 64 -600 VRB/05 RMK AO2 SLP163 T00111050
14837KMSN MSN20021123225509711/23/02 22:55:31  5-MIN KMSN 240455Z 27005KT 10SM FEW110 01/M05 A2999 800 64 -600 270/05 RMK AO2
14837KMSN MSN20021123230009411/23/02 23:00:31  5-MIN KMSN 240500Z 26005KT 10SM CLR 01/M05 A2999 800 64 -600 260/05 RMK AO2
14837KMSN MSN20021123230509411/23/02 23:05:31  5-MIN KMSN 240505Z VRB04KT 10SM CLR 01/M05 A3000 800 64 -600 VRB/04 RMK AO2
14837KMSN MSN20021123231009411/23/02 23:10:31  5-MIN KMSN 240510Z VRB05KT 10SM CLR 01/M05 A3000 790 66 -700 VRB/05 RMK AO2
14837KMSN MSN20021123231509411/23/02 23:15:31  5-MIN KMSN 240515Z 26006KT 10SM CLR 01/M05 A3000 790 64 -600 260/06 RMK AO2
14837KMSN MSN20021123232009411/23/02 23:20:31  5-MIN KMSN 240520Z 27006KT 10SM CLR 01/M05 A3000 790 64 -600 260/06 RMK AO2
14837KMSN MSN20021123232509411/23/02 23:25:31  5-MIN KMSN 240525Z 27005KT 10SM CLR 01/M05 A3000 790 64 -600 260/05 RMK AO2
14837KMSN MSN20021123233009411/23/02 23:30:31  5-MIN KMSN 240530Z 27006KT 10SM CLR 01/M05 A3000 790 64 -600 260/06 RMK AO2
14837KMSN MSN20021123233509411/23/02 23:35:31  5-MIN KMSN 240535Z 26005KT 10SM CLR 01/M05 A3000 790 64 -600 260/05 RMK AO2
14837KMSN MSN20021123234009411/23/02 23:40:31  5-MIN KMSN 240540Z 27005KT 10SM CLR 01/M05 A3000 790 64 -600 270/05 RMK AO2
14837KMSN MSN20021123234509411/23/02 23:45:31  5-MIN KMSN 240545Z 27006KT 10SM CLR 01/M05 A3000 790 64 -600 270/06 RMK AO2
14837KMSN MSN20021123235013911/23/02 23:50:31  5-MIN KMSN 240550Z 27005KT 10SM CLR 01/M06 A3000 790 61 -600 270/05 RMK AO2 SLP167 T00111056 10028 20006 400780000 51018
14837KMSN MSN20021123235509411/23/02 23:55:31  5-MIN KMSN 240555Z 26005KT 10SM CLR 01/M06 A3001 780 63 -700 260/05 RMK AO2
14837KMSN MSN20021124000009411/24/02 00:00:31  5-MIN KMSN 240600Z 26005KT 10SM CLR 01/M06 A3001 790 63 -700 260/05 RMK AO2
14837KMSN MSN20021124000509411/24/02 00:05:31  5-MIN KMSN 240605Z VRB04KT 10SM CLR 01/M06 A3001 780 63 -700 VRB/04 RMK AO2
14837KMSN MSN20021124001009411/24/02 00:10:31  5-MIN KMSN 240610Z 26004KT 10SM CLR 01/M06 A3001 780 63 -700 260/04 RMK AO2
14837KMSN MSN20021124001509411/24/02 00:15:31  5-MIN KMSN 240615Z 26003KT 10SM CLR 01/M06 A3001 780 63 -700 260/03 RMK AO2
14837KMSN MSN20021124002009411/24/02 00:20:31  5-MIN KMSN 240620Z 25004KT 10SM CLR 01/M06 A3001 780 63 -700 250/04 RMK AO2
14837KMSN MSN20021124002509411/24/02 00:25:31  5-MIN KMSN 240625Z VRB04KT 10SM CLR 00/M06 A3001 780 66 -800 VRB/04 RMK AO2
14837KMSN MSN20021124003009411/24/02 00:30:31  5-MIN KMSN 240630Z 25005KT 10SM CLR 01/M05 A3001 780 66 -700 250/05 RMK AO2
14837KMSN MSN20021124003509411/24/02 00:35:31  5-MIN KMSN 240635Z 25005KT 10SM CLR 01/M05 A3001 780 66 -700 250/05 RMK AO2
14837KMSN MSN20021124004009411/24/02 00:40:31  5-MIN KMSN 240640Z 26005KT 10SM CLR 01/M05 A3001 780 66 -700 260/05 RMK AO2
14837KMSN MSN20021124004509411/24/02 00:45:31  5-MIN KMSN 240645Z VRB06KT 10SM CLR 01/M05 A3001 780 66 -700 VRB/06 RMK AO2
14837KMSN MSN20021124005011411/24/02 00:50:31  5-MIN KMSN 240650Z 27006KT 10SM FEW040 01/M06 A3001 780 63 -700 260/06 RMK AO2 SLP169 T00061056
14837KMSN MSN20021124005509411/24/02 00:55:31  5-MIN KMSN 240655Z 26006KT 10SM CLR 01/M06 A3002 780 63 -700 260/06 RMK AO2
14837KMSN MSN20021124010009411/24/02 01:00:31  5-MIN KMSN 240700Z 26007KT 10SM CLR 01/M06 A3002 780 63 -700 260/07 RMK AO2
14837KMSN MSN20021124010509411/24/02 01:05:31  5-MIN KMSN 240705Z VRB05KT 10SM CLR 01/M06 A3002 770 63 -700 VRB/05 RMK AO2
14837KMSN MSN20021124011009411/24/02 01:10:31  5-MIN KMSN 240710Z 26006KT 10SM CLR 01/M06 A3002 770 63 -700 260/06 RMK AO2
14837KMSN MSN20021124011509411/24/02 01:15:31  5-MIN KMSN 240715Z VRB06KT 10SM CLR 01/M06 A3002 770 63 -700 VRB/06 RMK AO2
14837KMSN MSN20021124012009411/24/02 01:20:31  5-MIN KMSN 240720Z 27004KT 10SM CLR 00/M06 A3002 770 66 -800 260/04 RMK AO2
14837KMSN MSN20021124012509411/24/02 01:25:31  5-MIN KMSN 240725Z 26005KT 10SM CLR 00/M06 A3002 770 66 -800 260/05 RMK AO2
14837KMSN MSN20021124013009411/24/02 01:30:31  5-MIN KMSN 240730Z 26006KT 10SM CLR 00/M06 A3003 770 66 -800 260/06 RMK AO2
14837KMSN MSN20021124013509711/24/02 01:35:31  5-MIN KMSN 240735Z 27005KT 10SM FEW120 00/M06 A3003 760 66 -800 270/05 RMK AO2
14837KMSN MSN20021124014009711/24/02 01:40:31  5-MIN KMSN 240740Z 27005KT 10SM FEW120 00/M06 A3003 770 66 -800 270/05 RMK AO2
14837KMSN MSN20021124014509711/24/02 01:45:31  5-MIN KMSN 240745Z 27005KT 10SM FEW120 00/M06 A3003 760 66 -800 270/05 RMK AO2
14837KMSN MSN20021124015011411/24/02 01:50:31  5-MIN KMSN 240750Z 27005KT 10SM FEW120 00/M06 A3004 760 66 -800 270/05 RMK AO2 SLP179 T00001056
14837KMSN MSN20021124015509711/24/02 01:55:31  5-MIN KMSN 240755Z 27005KT 10SM FEW120 00/M06 A3004 760 66 -800 270/05 RMK AO2
14837KMSN MSN20021124020009711/24/02 02:00:31  5-MIN KMSN 240800Z 27005KT 10SM SCT120 00/M06 A3004 760 66 -800 270/05 RMK AO2
14837KMSN MSN20021124020509711/24/02 02:05:31  5-MIN KMSN 240805Z 27005KT 10SM SCT120 00/M06 A3004 750 66 -800 270/05 RMK AO2
14837KMSN MSN20021124021009711/24/02 02:10:31  5-MIN KMSN 240810Z 27005KT 10SM FEW120 00/M06 A3004 750 66 -800 270/05 RMK AO2
14837KMSN MSN20021124021509711/24/02 02:15:31  5-MIN KMSN 240815Z 28005KT 10SM SCT120 00/M06 A3005 750 66 -800 270/05 RMK AO2
14837KMSN MSN20021124022009711/24/02 02:20:31  5-MIN KMSN 240820Z 28004KT 10SM SCT120 00/M06 A3005 750 66 -800 280/04 RMK AO2
14837KMSN MSN20021124022509811/24/02 02:25:31  5-MIN KMSN 240825Z 29005KT 10SM FEW120 M01/M06 A3005 750 69 -900 290/05 RMK AO2
14837KMSN MSN20021124023009711/24/02 02:30:31  5-MIN KMSN 240830Z 29006KT 10SM FEW120 00/M06 A3005 740 66 -800 290/06 RMK AO2
14837KMSN MSN20021124023509511/24/02 02:35:31  5-MIN KMSN 240835Z VRB04KT 10SM CLR M01/M06 A3006 740 69 -900 VRB/04 RMK AO2
14837KMSN MSN20021124024009511/24/02 02:40:31  5-MIN KMSN 240840Z VRB04KT 10SM CLR M01/M06 A3006 730 69 -900 VRB/04 RMK AO2
14837KMSN MSN20021124024509511/24/02 02:45:31  5-MIN KMSN 240845Z 29005KT 10SM CLR M01/M06 A3007 730 69 -900 290/05 RMK AO2
14837KMSN MSN20021124025012111/24/02 02:50:31  5-MIN KMSN 240850Z 29005KT 10SM SCT120 M01/M05 A3007 730 72 -900 290/05 RMK AO2 SLP189 T10061050 53008
14837KMSN MSN20021124025509511/24/02 02:55:31  5-MIN KMSN 240855Z 29005KT 10SM CLR M01/M06 A3007 730 69 -900 290/05 RMK AO2
14837KMSN MSN20021124030009511/24/02 03:00:31  5-MIN KMSN 240900Z 29005KT 10SM CLR M01/M06 A3007 730 69 -900 290/05 RMK AO2
14837KMSN MSN20021124030509511/24/02 03:05:31  5-MIN KMSN 240905Z 30005KT 10SM CLR M01/M06 A3007 730 69 -900 300/05 RMK AO2
14837KMSN MSN20021124031009511/24/02 03:10:31  5-MIN KMSN 240910Z 29004KT 10SM CLR M01/M05 A3007 730 72 -900 290/04 RMK AO2
14837KMSN MSN20021124031509411/24/02 03:15:31  5-MIN KMSN 240915Z 30004KT 10SM CLR 00/M06 A3007 730 66 -800 300/04 RMK AO2
14837KMSN MSN20021124032009411/24/02 03:20:31  5-MIN KMSN 240920Z 31005KT 10SM CLR 00/M05 A3007 730 69 -800 310/05 RMK AO2
14837KMSN MSN20021124032509411/24/02 03:25:31  5-MIN KMSN 240925Z 33004KT 10SM CLR 00/M06 A3007 730 66 -800 330/04 RMK AO2
14837KMSN MSN20021124033009511/24/02 03:30:31  5-MIN KMSN 240930Z 32005KT 10SM CLR M01/M06 A3006 730 69 -900 320/05 RMK AO2
14837KMSN MSN20021124033509511/24/02 03:35:31  5-MIN KMSN 240935Z 32008KT 10SM CLR M01/M06 A3006 730 69 -900 320/08 RMK AO2
14837KMSN MSN20021124034009411/24/02 03:40:31  5-MIN KMSN 240940Z 30008KT 10SM CLR 00/M07 A3008 720 61 -800 300/08 RMK AO2
14837KMSN MSN20021124034509411/24/02 03:45:31  5-MIN KMSN 240945Z 31007KT 10SM CLR 00/M07 A3008 720 61 -800 310/07 RMK AO2
14837KMSN MSN20021124035011211/24/02 03:50:31  5-MIN KMSN 240950Z 33008KT 10SM CLR M01/M07 A3007 720 61 -900 330/08 RMK AO2 SLP191 T10061072
14837KMSN MSN20021124035509811/24/02 03:55:31  5-MIN KMSN 240955Z 33007KT 10SM FEW120 M01/M07 A3007 730 61 -900 330/07 RMK AO2
14837KMSN MSN20021124040009811/24/02 04:00:31  5-MIN KMSN 241000Z 31005KT 10SM SCT120 M01/M07 A3007 730 61 -900 310/05 RMK AO2
14837KMSN MSN20021124040509811/24/02 04:05:31  5-MIN KMSN 241005Z 32005KT 10SM SCT120 M01/M07 A3006 730 61 -900 320/05 RMK AO2
14837KMSN MSN20021124041009911/24/02 04:10:31  5-MIN KMSN 241010Z 33005KT 10SM SCT120 M01/M07 A3007 730 63 -1000 330/05 RMK AO2
14837KMSN MSN20021124041509911/24/02 04:15:31  5-MIN KMSN 241015Z 32005KT 10SM FEW120 M01/M08 A3008 720 60 -1000 320/05 RMK AO2
14837KMSN MSN20021124042009911/24/02 04:20:31  5-MIN KMSN 241020Z 30004KT 10SM SCT120 M01/M08 A3008 720 60 -1000 300/04 RMK AO2
14837KMSN MSN20021124042509911/24/02 04:25:31  5-MIN KMSN 241025Z 32005KT 10SM SCT120 M01/M08 A3008 720 60 -1000 320/05 RMK AO2
14837KMSN MSN20021124043009911/24/02 04:30:31  5-MIN KMSN 241030Z VRB05KT 10SM SCT120 M01/M08 A3009 710 60 -1000 VRB/05 RMK AO2
14837KMSN MSN20021124043509911/24/02 04:35:31  5-MIN KMSN 241035Z 31004KT 10SM BKN120 M01/M08 A3009 710 60 -1000 310/04 RMK AO2
14837KMSN MSN20021124044009911/24/02 04:40:31  5-MIN KMSN 241040Z 31005KT 10SM BKN120 M01/M08 A3009 710 60 -1000 310/05 RMK AO2
14837KMSN MSN20021124044509911/24/02 04:45:31  5-MIN KMSN 241045Z 30006KT 10SM BKN120 M01/M08 A3009 710 60 -1000 300/06 RMK AO2
14837KMSN MSN20021124045011611/24/02 04:50:31  5-MIN KMSN 241050Z 31006KT 10SM BKN120 M01/M08 A3009 710 60 -1000 310/06 RMK AO2 SLP199 T10111078
14837KMSN MSN20021124045509911/24/02 04:55:31  5-MIN KMSN 241055Z 31007KT 10SM OVC120 M01/M08 A3009 710 60 -1000 310/07 RMK AO2
14837KMSN MSN20021124050009911/24/02 05:00:31  5-MIN KMSN 241100Z 32006KT 10SM OVC120 M01/M08 A3009 700 60 -1000 320/06 RMK AO2
14837KMSN MSN20021124050509911/24/02 05:05:31  5-MIN KMSN 241105Z 31007KT 10SM OVC120 M01/M08 A3010 700 60 -1000 310/07 RMK AO2
14837KMSN MSN20021124051009911/24/02 05:10:31  5-MIN KMSN 241110Z 31006KT 10SM OVC120 M01/M08 A3010 700 60 -1000 310/06 RMK AO2
14837KMSN MSN20021124051509911/24/02 05:15:31  5-MIN KMSN 241115Z 31007KT 10SM OVC120 M01/M08 A3009 700 60 -1000 310/07 RMK AO2
14837KMSN MSN20021124052009911/24/02 05:20:31  5-MIN KMSN 241120Z 31006KT 10SM OVC120 M01/M08 A3010 700 60 -1000 310/06 RMK AO2
14837KMSN MSN20021124052509911/24/02 05:25:31  5-MIN KMSN 241125Z 31006KT 10SM OVC120 M01/M08 A3010 700 60 -1000 310/06 RMK AO2
14837KMSN MSN20021124053009911/24/02 05:30:31  5-MIN KMSN 241130Z 30007KT 10SM OVC120 M01/M08 A3010 700 60 -1000 300/07 RMK AO2
14837KMSN MSN20021124053509911/24/02 05:35:31  5-MIN KMSN 241135Z 30006KT 10SM OVC120 M01/M08 A3009 700 60 -1000 300/06 RMK AO2
14837KMSN MSN20021124054009911/24/02 05:40:31  5-MIN KMSN 241140Z 31008KT 10SM OVC120 M01/M08 A3010 700 58 -1000 310/08 RMK AO2
14837KMSN MSN20021124054509911/24/02 05:45:31  5-MIN KMSN 241145Z 31006KT 10SM OVC120 M01/M08 A3010 700 58 -1000 310/06 RMK AO2
14837KMSN MSN20021124055013411/24/02 05:50:31  5-MIN KMSN 241150Z 31007KT 10SM OVC120 M01/M08 A3010 700 58 -1000 310/07 RMK AO2 SLP202 T10111083 10006 21011 53020
14837KMSN MSN20021124055509911/24/02 05:55:31  5-MIN KMSN 241155Z 31008KT 10SM OVC120 M01/M08 A3011 690 58 -1000 310/08 RMK AO2
14837KMSN MSN20021124060009911/24/02 06:00:31  5-MIN KMSN 241200Z 32008KT 10SM OVC120 M01/M08 A3011 690 58 -1000 320/08 RMK AO2
14837KMSN MSN20021124060509911/24/02 06:05:31  5-MIN KMSN 241205Z 32008KT 10SM OVC120 M01/M08 A3011 690 58 -1000 320/08 RMK AO2
14837KMSN MSN20021124061009911/24/02 06:10:31  5-MIN KMSN 241210Z 30006KT 10SM OVC120 M01/M08 A3011 690 60 -1000 300/06 RMK AO2
14837KMSN MSN20021124061509911/24/02 06:15:31  5-MIN KMSN 241215Z 31005KT 10SM OVC120 M01/M08 A3011 690 58 -1000 310/05 RMK AO2
14837KMSN MSN20021124062009911/24/02 06:20:31  5-MIN KMSN 241220Z 32005KT 10SM BKN120 M02/M08 A3011 690 63 -1100 320/05 RMK AO2
14837KMSN MSN20021124062509911/24/02 06:25:31  5-MIN KMSN 241225Z 32005KT 10SM BKN120 M02/M08 A3011 690 60 -1100 320/05 RMK AO2
14837KMSN MSN20021124063009911/24/02 06:30:31  5-MIN KMSN 241230Z 32006KT 10SM BKN120 M02/M08 A3011 690 60 -1100 310/06 RMK AO2
14837KMSN MSN20021124063509911/24/02 06:35:31  5-MIN KMSN 241235Z 31007KT 10SM BKN120 M02/M08 A3011 690 60 -1100 310/07 RMK AO2
14837KMSN MSN20021124064009911/24/02 06:40:31  5-MIN KMSN 241240Z 31006KT 10SM BKN120 M02/M08 A3011 690 60 -1100 310/06 RMK AO2
14837KMSN MSN20021124064509911/24/02 06:45:31  5-MIN KMSN 241245Z 30007KT 10SM BKN120 M02/M08 A3011 690 63 -1100 300/07 RMK AO2
14837KMSN MSN20021124065011611/24/02 06:50:31  5-MIN KMSN 241250Z 31006KT 10SM OVC120 M02/M08 A3011 690 60 -1100 310/06 RMK AO2 SLP206 T10171083
14837KMSN MSN20021124065509911/24/02 06:55:31  5-MIN KMSN 241255Z 32006KT 10SM BKN120 M02/M08 A3011 690 60 -1100 320/06 RMK AO2
14837KMSN MSN20021124070009911/24/02 07:00:31  5-MIN KMSN 241300Z 31007KT 10SM BKN120 M02/M08 A3011 690 60 -1100 310/07 RMK AO2
14837KMSN MSN20021124070509911/24/02 07:05:31  5-MIN KMSN 241305Z 31005KT 10SM BKN120 M02/M08 A3012 680 63 -1100 300/05 RMK AO2
14837KMSN MSN20021124071009911/24/02 07:10:31  5-MIN KMSN 241310Z 32005KT 10SM OVC120 M02/M08 A3012 680 63 -1100 310/05 RMK AO2
14837KMSN MSN20021124071509911/24/02 07:15:31  5-MIN KMSN 241315Z 31006KT 10SM BKN120 M02/M08 A3012 680 63 -1100 310/06 RMK AO2
14837KMSN MSN20021124072009911/24/02 07:20:31  5-MIN KMSN 241320Z 30005KT 10SM BKN120 M02/M08 A3012 680 63 -1100 300/05 RMK AO2
14837KMSN MSN20021124072509911/24/02 07:25:31  5-MIN KMSN 241325Z 31007KT 10SM BKN120 M02/M08 A3012 680 63 -1100 310/07 RMK AO2
14837KMSN MSN20021124073009911/24/02 07:30:31  5-MIN KMSN 241330Z 32007KT 10SM BKN110 M02/M08 A3012 680 63 -1100 320/07 RMK AO2
14837KMSN MSN20021124073509911/24/02 07:35:31  5-MIN KMSN 241335Z 32006KT 10SM BKN110 M02/M08 A3012 680 63 -1100 320/06 RMK AO2
14837KMSN MSN20021124074009911/24/02 07:40:31  5-MIN KMSN 241340Z 31007KT 10SM BKN110 M02/M08 A3013 670 63 -1100 310/07 RMK AO2
14837KMSN MSN20021124074509911/24/02 07:45:31  5-MIN KMSN 241345Z 32008KT 10SM BKN100 M02/M08 A3013 670 60 -1100 320/08 RMK AO2
14837KMSN MSN20021124075011611/24/02 07:50:31  5-MIN KMSN 241350Z 31008KT 10SM BKN100 M02/M08 A3013 670 60 -1100 310/08 RMK AO2 SLP213 T10171083
14837KMSN MSN20021124075509911/24/02 07:55:31  5-MIN KMSN 241355Z 32009KT 10SM BKN100 M02/M08 A3013 670 60 -1100 320/09 RMK AO2
14837KMSN MSN20021124080010611/24/02 08:00:31  5-MIN KMSN 241400Z 33008KT 10SM BKN100 BKN110 M02/M08 A3013 670 60 -1100 330/08 RMK AO2
14837KMSN MSN20021124080509911/24/02 08:05:31  5-MIN KMSN 241405Z 32007KT 10SM SCT100 M02/M08 A3013 670 60 -1100 320/07 RMK AO2
14837KMSN MSN20021124081009911/24/02 08:10:31  5-MIN KMSN 241410Z 32009KT 10SM SCT100 M02/M08 A3014 670 60 -1100 320/09 RMK AO2
14837KMSN MSN20021124081509911/24/02 08:15:31  5-MIN KMSN 241415Z 33008KT 10SM SCT090 M02/M08 A3014 660 60 -1100 330/08 RMK AO2
14837KMSN MSN20021124082009911/24/02 08:20:31  5-MIN KMSN 241420Z 31007KT 10SM FEW090 M01/M08 A3014 660 58 -1100 310/07 RMK AO2
14837KMSN MSN20021124082509911/24/02 08:25:31  5-MIN KMSN 241425Z 32006KT 10SM SCT090 M01/M08 A3014 660 58 -1100 310/06 RMK AO2
14837KMSN MSN20021124083009911/24/02 08:30:31  5-MIN KMSN 241430Z 31010KT 10SM BKN090 M01/M08 A3014 660 58 -1100 310/10 RMK AO2
14837KMSN MSN20021124083509911/24/02 08:35:31  5-MIN KMSN 241435Z 32009KT 10SM BKN095 M01/M08 A3014 660 58 -1100 320/09 RMK AO2
14837KMSN MSN20021124084011511/24/02 08:40:31  5-MIN KMSN 241440Z 32007KT 280V350 10SM BKN100 M01/M08 A3015 650 58 -1100 320/07 280V350 RMK AO2
14837KMSN MSN20021124084510611/24/02 08:45:31  5-MIN KMSN 241445Z 32007KT 10SM BKN100 BKN110 M01/M08 A3015 650 58 -1100 320/07 RMK AO2
14837KMSN MSN20021124085012911/24/02 08:50:31  5-MIN KMSN 241450Z 33006KT 10SM FEW070 OVC100 M01/M08 A3015 650 58 -1100 330/06 RMK AO2 SLP221 T10111083 53013
14837KMSN MSN20021124085512211/24/02 08:55:31  5-MIN KMSN 241455Z 34007KT 300V360 10SM BKN090 BKN110 M01/M08 A3016 650 58 -1100 340/07 300V360 RMK AO2
14837KMSN MSN20021124090009911/24/02 09:00:31  5-MIN KMSN 241500Z 33008KT 10SM BKN100 M02/M08 A3016 640 60 -1200 330/08 RMK AO2
14837KMSN MSN20021124090510611/24/02 09:05:31  5-MIN KMSN 241505Z 32005KT 10SM BKN100 OVC110 M02/M08 A3016 640 60 -1200 320/05 RMK AO2
14837KMSN MSN20021124091010611/24/02 09:10:31  5-MIN KMSN 241510Z 34007KT 10SM BKN100 OVC120 M02/M08 A3016 640 60 -1200 340/07 RMK AO2
14837KMSN MSN20021124091509911/24/02 09:15:31  5-MIN KMSN 241515Z 34009KT 10SM OVC095 M02/M08 A3017 640 60 -1200 340/09 RMK AO2
14837KMSN MSN20021124092009911/24/02 09:20:31  5-MIN KMSN 241520Z 33008KT 10SM BKN095 M02/M09 A3017 640 58 -1200 330/08 RMK AO2
14837KMSN MSN20021124092509911/24/02 09:25:31  5-MIN KMSN 241525Z 33007KT 10SM BKN100 M01/M09 A3017 630 55 -1100 330/07 RMK AO2
14837KMSN MSN20021124093009911/24/02 09:30:31  5-MIN KMSN 241530Z 33008KT 10SM BKN100 M01/M08 A3018 630 58 -1100 330/08 RMK AO2
14837KMSN MSN20021124093511511/24/02 09:35:31  5-MIN KMSN 241535Z 34009KT 300V360 10SM BKN100 M01/M09 A3018 630 55 -1100 330/09 300V360 RMK AO2
14837KMSN MSN20021124094009911/24/02 09:40:31  5-MIN KMSN 241540Z 32012KT 10SM BKN100 M01/M09 A3018 630 55 -1100 320/12 RMK AO2
14837KMSN MSN20021124094510511/24/02 09:45:31  5-MIN KMSN 241545Z 33012G16KT 10SM BKN100 M02/M09 A3018 630 58 -1200 330/12G16 RMK AO2
14837KMSN MSN20021124095011611/24/02 09:50:31  5-MIN KMSN 241550Z 34011KT 10SM OVC100 M01/M09 A3018 630 55 -1100 340/11 RMK AO2 SLP229 T10111089
14837KMSN MSN20021124095509911/24/02 09:55:31  5-MIN KMSN 241555Z 34009KT 10SM BKN100 M02/M09 A3017 630 55 -1200 340/09 RMK AO2
14837KMSN MSN20021124100009911/24/02 10:00:31  5-MIN KMSN 241600Z 32010KT 10SM BKN100 M02/M09 A3017 630 55 -1200 310/10 RMK AO2
14837KMSN MSN20021124100511511/24/02 10:05:31  5-MIN KMSN 241605Z 32007KT 290V350 10SM SCT100 M02/M09 A3018 630 55 -1200 310/07 290V350 RMK AO2
14837KMSN MSN20021124101009911/24/02 10:10:31  5-MIN KMSN 241610Z 33007KT 10SM SCT100 M02/M09 A3018 620 58 -1200 330/07 RMK AO2
14837KMSN MSN20021124101511511/24/02 10:15:31  5-MIN KMSN 241615Z 32007KT 290V360 10SM FEW100 M01/M09 A3019 620 55 -1100 320/07 290V360 RMK AO2
14837KMSN MSN20021124102009911/24/02 10:20:31  5-MIN KMSN 241620Z 34007KT 10SM FEW100 M02/M09 A3019 620 55 -1200 340/07 RMK AO2
14837KMSN MSN20021124102511511/24/02 10:25:31  5-MIN KMSN 241625Z 33007KT 300V360 10SM FEW095 M02/M09 A3019 620 55 -1200 330/07 300V360 RMK AO2
14837KMSN MSN20021124103009911/24/02 10:30:31  5-MIN KMSN 241630Z 34007KT 10SM FEW095 M02/M09 A3018 620 55 -1200 340/07 RMK AO2
14837KMSN MSN20021124103509911/24/02 10:35:31  5-MIN KMSN 241635Z 32007KT 10SM FEW095 M02/M09 A3018 620 55 -1200 310/07 RMK AO2
14837KMSN MSN20021124104011511/24/02 10:40:31  5-MIN KMSN 241640Z 32008KT 290V350 10SM SCT095 M02/M09 A3018 630 55 -1200 320/08 290V350 RMK AO2
14837KMSN MSN20021124104511511/24/02 10:45:31  5-MIN KMSN 241645Z 32007KT 290V360 10SM SCT095 M02/M09 A3018 630 55 -1200 320/07 290V360 RMK AO2
14837KMSN MSN20021124105011611/24/02 10:50:31  5-MIN KMSN 241650Z 34008KT 10SM SCT095 M02/M09 A3018 620 55 -1200 340/08 RMK AO2 SLP230 T10171094
14837KMSN MSN20021124105509911/24/02 10:55:31  5-MIN KMSN 241655Z 31007KT 10SM BKN095 M02/M09 A3018 620 55 -1200 310/07 RMK AO2
14837KMSN MSN20021124110009911/24/02 11:00:31  5-MIN KMSN 241700Z VRB05KT 10SM BKN095 M02/M09 A3018 630 55 -1200 VRB/05 RMK AO2
14837KMSN MSN20021124110509911/24/02 11:05:31  5-MIN KMSN 241705Z 32008KT 10SM BKN095 M02/M09 A3018 620 55 -1200 320/08 RMK AO2
14837KMSN MSN20021124111009911/24/02 11:10:31  5-MIN KMSN 241710Z 29007KT 10SM BKN090 M02/M09 A3018 630 55 -1200 290/07 RMK AO2
14837KMSN MSN20021124111509911/24/02 11:15:31  5-MIN KMSN 241715Z 31007KT 10SM BKN090 M02/M09 A3018 630 55 -1200 310/07 RMK AO2
14837KMSN MSN20021124112009911/24/02 11:20:31  5-MIN KMSN 241720Z 31007KT 10SM BKN090 M02/M10 A3018 630 53 -1200 310/07 RMK AO2
14837KMSN MSN20021124112510611/24/02 11:25:31  5-MIN KMSN 241725Z 32007KT 10SM SCT090 SCT110 M02/M10 A3018 630 53 -1200 310/07 RMK AO2
14837KMSN MSN20021124113009911/24/02 11:30:31  5-MIN KMSN 241730Z 31006KT 10SM FEW085 M02/M09 A3018 620 55 -1200 310/06 RMK AO2
14837KMSN MSN20021124113509911/24/02 11:35:31  5-MIN KMSN 241735Z 33006KT 10SM FEW085 M02/M09 A3018 630 55 -1200 330/06 RMK AO2
14837KMSN MSN20021124114009611/24/02 11:40:31  5-MIN KMSN 241740Z 33007KT 10SM CLR M02/M09 A3018 630 55 -1200 320/07 RMK AO2
14837KMSN MSN20021124114511211/24/02 11:45:31  5-MIN KMSN 241745Z 30007KT 280V340 10SM CLR M02/M10 A3017 630 55 -1200 300/07 280V340 RMK AO2
14837KMSN MSN20021124115013111/24/02 11:50:31  5-MIN KMSN 241750Z 31007KT 10SM CLR M02/M09 A3017 630 55 -1200 310/07 RMK AO2 SLP227 T10171094 11011 21022 53017
14837KMSN MSN20021124115509911/24/02 11:55:31  5-MIN KMSN 241755Z 30008KT 10SM FEW065 M02/M10 A3017 630 55 -1200 300/08 RMK AO2
14837KMSN MSN20021124120009911/24/02 12:00:31  5-MIN KMSN 241800Z 30006KT 10SM FEW065 M02/M10 A3017 640 53 -1200 300/06 RMK AO2
14837KMSN MSN20021124120509911/24/02 12:05:31  5-MIN KMSN 241805Z 32007KT 10SM FEW070 M02/M09 A3017 630 55 -1200 320/07 RMK AO2
14837KMSN MSN20021124121009911/24/02 12:10:31  5-MIN KMSN 241810Z 32008KT 10SM FEW065 M02/M09 A3017 640 55 -1200 310/08 RMK AO2
14837KMSN MSN20021124121511511/24/02 12:15:31  5-MIN KMSN 241815Z 33008KT 300V360 10SM FEW065 M02/M10 A3016 640 53 -1200 330/08 300V360 RMK AO2
14837KMSN MSN20021124122009911/24/02 12:20:31  5-MIN KMSN 241820Z 31009KT 10SM FEW070 M02/M10 A3016 650 53 -1200 310/09 RMK AO2
14837KMSN MSN20021124122509911/24/02 12:25:31  5-MIN KMSN 241825Z VRB05KT 10SM SCT070 M02/M10 A3015 650 53 -1100 VRB/05 RMK AO2
14837KMSN MSN20021124123009911/24/02 12:30:31  5-MIN KMSN 241830Z 31006KT 10SM SCT070 M02/M10 A3016 650 53 -1100 310/06 RMK AO2
14837KMSN MSN20021124123509911/24/02 12:35:31  5-MIN KMSN 241835Z 32006KT 10SM FEW070 M02/M10 A3015 650 53 -1100 320/06 RMK AO2
14837KMSN MSN20021124124009911/24/02 12:40:31  5-MIN KMSN 241840Z 33007KT 10SM FEW065 M02/M10 A3015 650 53 -1100 330/07 RMK AO2
14837KMSN MSN20021124124509911/24/02 12:45:31  5-MIN KMSN 241845Z 35006KT 10SM SCT060 M02/M10 A3015 650 53 -1100 350/06 RMK AO2
14837KMSN MSN20021124125011611/24/02 12:50:31  5-MIN KMSN 241850Z VRB06KT 10SM BKN060 M02/M09 A3016 650 55 -1200 VRB/06 RMK AO2 SLP223 T10171094
14837KMSN MSN20021124125509911/24/02 12:55:31  5-MIN KMSN 241855Z 31007KT 10SM SCT055 M02/M10 A3016 650 53 -1100 310/07 RMK AO2
14837KMSN MSN20021124130009911/24/02 13:00:31  5-MIN KMSN 241900Z 32006KT 10SM SCT060 M02/M10 A3015 650 55 -1200 320/06 RMK AO2
14837KMSN MSN20021124130509911/24/02 13:05:31  5-MIN KMSN 241905Z 34005KT 10SM SCT060 M02/M09 A3015 650 55 -1100 340/05 RMK AO2
14837KMSN MSN20021124131009911/24/02 13:10:31  5-MIN KMSN 241910Z 32004KT 10SM SCT060 M02/M09 A3015 650 55 -1100 320/04 RMK AO2
14837KMSN MSN20021124131509911/24/02 13:15:31  5-MIN KMSN 241915Z 32007KT 10SM FEW060 M02/M09 A3015 650 55 -1100 320/07 RMK AO2
14837KMSN MSN20021124132009911/24/02 13:20:31  5-MIN KMSN 241920Z 31008KT 10SM FEW070 M02/M10 A3016 640 53 -1200 310/08 RMK AO2
14837KMSN MSN20021124132510611/24/02 13:25:31  5-MIN KMSN 241925Z 34007KT 10SM FEW075 SCT090 M02/M10 A3016 640 53 -1200 340/07 RMK AO2
14837KMSN MSN20021124133010611/24/02 13:30:31  5-MIN KMSN 241930Z 33007KT 10SM FEW075 SCT090 M02/M10 A3016 640 53 -1200 330/07 RMK AO2
14837KMSN MSN20021124133510611/24/02 13:35:31  5-MIN KMSN 241935Z 31008KT 10SM FEW075 SCT090 M02/M10 A3016 640 55 -1200 310/08 RMK AO2
14837KMSN MSN20021124134010611/24/02 13:40:31  5-MIN KMSN 241940Z 32006KT 10SM SCT075 BKN090 M02/M10 A3016 640 53 -1200 320/06 RMK AO2
14837KMSN MSN20021124134510611/24/02 13:45:31  5-MIN KMSN 241945Z 30007KT 10SM BKN075 BKN090 M02/M10 A3016 640 53 -1200 300/07 RMK AO2
14837KMSN MSN20021124135012311/24/02 13:50:31  5-MIN KMSN 241950Z 31007KT 10SM BKN080 OVC090 M02/M10 A3016 650 55 -1200 310/07 RMK AO2 SLP223 T10221100
14837KMSN MSN20021124135510611/24/02 13:55:31  5-MIN KMSN 241955Z 30008KT 10SM BKN075 OVC100 M02/M11 A3016 650 53 -1200 300/08 RMK AO2
14837KMSN MSN20021124140010611/24/02 14:00:31  5-MIN KMSN 242000Z 30007KT 10SM BKN080 OVC100 M02/M10 A3016 640 53 -1200 300/07 RMK AO2
14837KMSN MSN20021124140510611/24/02 14:05:31  5-MIN KMSN 242005Z 30007KT 10SM BKN085 OVC100 M02/M10 A3016 640 53 -1200 300/07 RMK AO2
14837KMSN MSN20021124141009911/24/02 14:10:31  5-MIN KMSN 242010Z 32008KT 10SM BKN095 M02/M10 A3017 640 55 -1200 310/08 RMK AO2
14837KMSN MSN20021124141510611/24/02 14:15:31  5-MIN KMSN 242015Z 30006KT 10SM BKN090 BKN100 M02/M10 A3017 640 55 -1200 300/06 RMK AO2
14837KMSN MSN20021124142010611/24/02 14:20:31  5-MIN KMSN 242020Z 30007KT 10SM SCT090 BKN100 M02/M11 A3017 630 53 -1200 300/07 RMK AO2
14837KMSN MSN20021124142510611/24/02 14:25:31  5-MIN KMSN 242025Z 30006KT 10SM SCT080 BKN100 M02/M11 A3017 630 53 -1200 300/06 RMK AO2
14837KMSN MSN20021124143010611/24/02 14:30:31  5-MIN KMSN 242030Z 30007KT 10SM SCT070 BKN095 M02/M11 A3018 630 53 -1200 300/07 RMK AO2
14837KMSN MSN20021124143509911/24/02 14:35:31  5-MIN KMSN 242035Z 30006KT 10SM BKN070 M02/M11 A3017 630 53 -1200 300/06 RMK AO2
14837KMSN MSN20021124144009911/24/02 14:40:31  5-MIN KMSN 242040Z 31007KT 10SM BKN065 M02/M11 A3017 630 53 -1200 310/07 RMK AO2
14837KMSN MSN20021124144509911/24/02 14:45:31  5-MIN KMSN 242045Z 31006KT 10SM BKN060 M02/M11 A3017 630 53 -1200 310/06 RMK AO2
14837KMSN MSN20021124145012211/24/02 14:50:31  5-MIN KMSN 242050Z 30005KT 10SM BKN060 M02/M11 A3017 640 53 -1200 300/05 RMK AO2 SLP227 T10221106 50006
14837KMSN MSN20021124145509911/24/02 14:55:31  5-MIN KMSN 242055Z 32008KT 10SM OVC065 M02/M11 A3017 630 53 -1200 320/08 RMK AO2
14837KMSN MSN20021124150009911/24/02 15:00:31  5-MIN KMSN 242100Z 31007KT 10SM OVC065 M02/M11 A3017 640 53 -1200 310/07 RMK AO2
14837KMSN MSN20021124150509911/24/02 15:05:31  5-MIN KMSN 242105Z 32007KT 10SM OVC065 M02/M11 A3016 640 53 -1200 320/07 RMK AO2
14837KMSN MSN20021124151009911/24/02 15:10:31  5-MIN KMSN 242110Z 31006KT 10SM OVC065 M02/M11 A3016 640 51 -1200 310/06 RMK AO2
14837KMSN MSN20021124151509911/24/02 15:15:31  5-MIN KMSN 242115Z 32008KT 10SM BKN070 M02/M11 A3017 640 51 -1200 310/08 RMK AO2
14837KMSN MSN20021124152009911/24/02 15:20:31  5-MIN KMSN 242120Z 32008KT 10SM BKN070 M02/M11 A3017 640 51 -1200 320/08 RMK AO2
14837KMSN MSN20021124152510611/24/02 15:25:31  5-MIN KMSN 242125Z 33007KT 10SM BKN080 OVC110 M02/M11 A3017 640 51 -1200 330/07 RMK AO2
14837KMSN MSN20021124153010611/24/02 15:30:31  5-MIN KMSN 242130Z 31005KT 10SM BKN085 OVC110 M02/M11 A3017 640 51 -1200 310/05 RMK AO2
14837KMSN MSN20021124153512211/24/02 15:35:31  5-MIN KMSN 242135Z 32007KT 290V350 10SM SCT090 BKN110 M02/M11 A3017 630 51 -1200 320/07 290V350 RMK AO2
14837KMSN MSN20021124154009911/24/02 15:40:31  5-MIN KMSN 242140Z 32007KT 10SM BKN100 M02/M11 A3017 640 51 -1200 320/07 RMK AO2
14837KMSN MSN20021124154509911/24/02 15:45:31  5-MIN KMSN 242145Z 33007KT 10SM BKN100 M02/M11 A3017 630 51 -1200 330/07 RMK AO2
14837KMSN MSN20021124155011611/24/02 15:50:31  5-MIN KMSN 242150Z 32007KT 10SM OVC110 M02/M11 A3017 630 51 -1200 320/07 RMK AO2 SLP228 T10221111
14837KMSN MSN20021124155509911/24/02 15:55:31  5-MIN KMSN 242155Z 31008KT 10SM OVC110 M02/M11 A3018 630 51 -1200 310/08 RMK AO2
14837KMSN MSN20021124160009911/24/02 16:00:31  5-MIN KMSN 242200Z 31007KT 10SM OVC110 M02/M11 A3018 630 53 -1200 310/07 RMK AO2
14837KMSN MSN20021124160509911/24/02 16:05:31  5-MIN KMSN 242205Z 31006KT 10SM BKN110 M02/M11 A3018 620 53 -1200 310/06 RMK AO2
14837KMSN MSN20021124161009911/24/02 16:10:31  5-MIN KMSN 242210Z 31008KT 10SM BKN110 M02/M11 A3018 630 51 -1200 310/08 RMK AO2
14837KMSN MSN20021124161509911/24/02 16:15:31  5-MIN KMSN 242215Z 32007KT 10SM BKN110 M02/M11 A3018 630 53 -1200 320/07 RMK AO2
14837KMSN MSN20021124165509911/24/02 16:55:31  5-MIN KMSN 242255Z 32007KT 10SM OVC110 M02/M11 A3019 620 53 -1300 310/07 RMK AO2
14837KMSN MSN20021124170009911/24/02 17:00:31  5-MIN KMSN 242300Z 31008KT 10SM OVC110 M02/M11 A3019 620 53 -1300 300/08 RMK AO2
14837KMSN MSN20021124170509911/24/02 17:05:31  5-MIN KMSN 242305Z 31005KT 10SM OVC110 M03/M11 A3019 610 55 -1300 310/05 RMK AO2
14837KMSN MSN20021124171009911/24/02 17:10:31  5-MIN KMSN 242310Z 32005KT 10SM OVC110 M03/M11 A3019 620 55 -1300 320/05 RMK AO2
14837KMSN MSN20021124171509911/24/02 17:15:31  5-MIN KMSN 242315Z 32008KT 10SM OVC110 M03/M11 A3019 620 55 -1300 320/08 RMK AO2
14837KMSN MSN20021124172009911/24/02 17:20:31  5-MIN KMSN 242320Z 31007KT 10SM OVC110 M03/M11 A3019 620 55 -1300 310/07 RMK AO2
14837KMSN MSN20021124172509911/24/02 17:25:31  5-MIN KMSN 242325Z 32008KT 10SM OVC110 M03/M11 A3019 620 55 -1300 320/08 RMK AO2
14837KMSN MSN20021124173009911/24/02 17:30:31  5-MIN KMSN 242330Z 31006KT 10SM OVC110 M03/M10 A3019 610 58 -1300 310/06 RMK AO2
14837KMSN MSN20021124173509911/24/02 17:35:31  5-MIN KMSN 242335Z 31006KT 10SM OVC110 M03/M10 A3019 610 58 -1300 310/06 RMK AO2
14837KMSN MSN20021124174009911/24/02 17:40:31  5-MIN KMSN 242340Z 31005KT 10SM OVC110 M03/M10 A3019 610 58 -1300 310/05 RMK AO2
14837KMSN MSN20021124174509911/24/02 17:45:31  5-MIN KMSN 242345Z 31007KT 10SM OVC120 M03/M10 A3019 610 58 -1300 310/07 RMK AO2
14837KMSN MSN20021124175013411/24/02 17:50:31  5-MIN KMSN 242350Z VRB05KT 10SM OVC110 M03/M10 A3019 610 58 -1300 VRB/05 RMK AO2 SLP236 T10281100 11017 21028 55001
14837KMSN MSN20021124175509911/24/02 17:55:31  5-MIN KMSN 242355Z 31007KT 10SM OVC110 M03/M10 A3020 610 58 -1300 310/07 RMK AO2
14837KMSN MSN20021124180009911/24/02 18:00:31  5-MIN KMSN 250000Z 31006KT 10SM OVC110 M03/M10 A3020 610 58 -1300 310/06 RMK AO2
14837KMSN MSN20021124180509911/24/02 18:05:31  5-MIN KMSN 250005Z 31005KT 10SM OVC110 M03/M10 A3020 610 58 -1300 310/05 RMK AO2
14837KMSN MSN20021124181009911/24/02 18:10:31  5-MIN KMSN 250010Z 31005KT 10SM OVC110 M03/M10 A3020 600 58 -1300 310/05 RMK AO2
14837KMSN MSN20021124181509911/24/02 18:15:31  5-MIN KMSN 250015Z 31006KT 10SM OVC110 M03/M10 A3021 600 58 -1300 310/06 RMK AO2
14837KMSN MSN20021124182009911/24/02 18:20:31  5-MIN KMSN 250020Z 31007KT 10SM OVC110 M03/M10 A3021 600 58 -1400 310/07 RMK AO2
14837KMSN MSN20021124182509911/24/02 18:25:31  5-MIN KMSN 250025Z 31005KT 10SM OVC110 M03/M10 A3021 600 58 -1400 310/05 RMK AO2
14837KMSN MSN20021124183009911/24/02 18:30:31  5-MIN KMSN 250030Z 32006KT 10SM OVC100 M03/M10 A3021 600 58 -1300 320/06 RMK AO2
14837KMSN MSN20021124183509911/24/02 18:35:31  5-MIN KMSN 250035Z 31006KT 10SM OVC100 M03/M10 A3021 600 60 -1400 310/06 RMK AO2
14837KMSN MSN20021124184009911/24/02 18:40:31  5-MIN KMSN 250040Z 31007KT 10SM OVC100 M03/M10 A3021 600 60 -1400 310/07 RMK AO2
14837KMSN MSN20021124184509911/24/02 18:45:31  5-MIN KMSN 250045Z 32005KT 10SM OVC100 M03/M10 A3021 600 60 -1400 320/05 RMK AO2
14837KMSN MSN20021124185011611/24/02 18:50:31  5-MIN KMSN 250050Z 32006KT 10SM OVC110 M03/M10 A3021 590 60 -1400 320/06 RMK AO2 SLP243 T10331100
14837KMSN MSN20021124185509911/24/02 18:55:31  5-MIN KMSN 250055Z 31006KT 10SM OVC110 M03/M10 A3022 590 60 -1400 310/06 RMK AO2
14837KMSN MSN20021124190009911/24/02 19:00:31  5-MIN KMSN 250100Z 32006KT 10SM OVC110 M03/M10 A3022 590 60 -1400 320/06 RMK AO2
14837KMSN MSN20021124190509911/24/02 19:05:31  5-MIN KMSN 250105Z 31005KT 10SM OVC110 M03/M10 A3022 590 60 -1400 310/05 RMK AO2
14837KMSN MSN20021124191009911/24/02 19:10:31  5-MIN KMSN 250110Z 32005KT 10SM OVC110 M03/M10 A3022 590 60 -1400 320/05 RMK AO2
14837KMSN MSN20021124191510611/24/02 19:15:31  5-MIN KMSN 250115Z 31005KT 10SM FEW038 OVC110 M03/M10 A3022 580 60 -1400 310/05 RMK AO2
14837KMSN MSN20021124192010611/24/02 19:20:31  5-MIN KMSN 250120Z 32005KT 10SM SCT038 OVC110 M03/M10 A3023 580 60 -1400 320/05 RMK AO2
14837KMSN MSN20021124192510611/24/02 19:25:31  5-MIN KMSN 250125Z 31005KT 10SM BKN038 OVC110 M03/M10 A3023 580 60 -1400 310/05 RMK AO2
14837KMSN MSN20021124193010611/24/02 19:30:31  5-MIN KMSN 250130Z VRB04KT 10SM BKN038 OVC110 M03/M10 A3023 580 60 -1400 VRB/04 RMK AO2
14837KMSN MSN20021124193509911/24/02 19:35:31  5-MIN KMSN 250135Z 32005KT 10SM OVC038 M03/M10 A3022 580 60 -1400 320/05 RMK AO2
14837KMSN MSN20021124194010611/24/02 19:40:31  5-MIN KMSN 250140Z 33004KT 10SM BKN038 OVC110 M03/M10 A3022 590 60 -1400 320/04 RMK AO2
14837KMSN MSN20021124194510611/24/02 19:45:31  5-MIN KMSN 250145Z 32005KT 10SM BKN038 OVC110 M03/M10 A3022 590 60 -1400 320/05 RMK AO2
14837KMSN MSN20021124195012311/24/02 19:50:31  5-MIN KMSN 250150Z 32005KT 10SM BKN038 OVC110 M03/M10 A3022 590 60 -1400 320/05 RMK AO2 SLP246 T10331100
14837KMSN MSN20021124195510611/24/02 19:55:31  5-MIN KMSN 250155Z 33005KT 10SM BKN038 OVC110 M03/M10 A3022 580 60 -1400 320/05 RMK AO2
14837KMSN MSN20021124200010611/24/02 20:00:31  5-MIN KMSN 250200Z 32005KT 10SM BKN038 OVC110 M03/M09 A3022 580 63 -1400 310/05 RMK AO2
14837KMSN MSN20021124200510611/24/02 20:05:31  5-MIN KMSN 250205Z 32005KT 10SM BKN038 BKN110 M03/M09 A3022 590 63 -1400 320/05 RMK AO2
14837KMSN MSN20021124201010611/24/02 20:10:31  5-MIN KMSN 250210Z 33005KT 10SM SCT038 BKN110 M03/M10 A3022 590 60 -1400 320/05 RMK AO2
14837KMSN MSN20021124201509911/24/02 20:15:31  5-MIN KMSN 250215Z 32008KT 10SM SCT038 M03/M10 A3022 590 60 -1400 320/08 RMK AO2
14837KMSN MSN20021124202010611/24/02 20:20:31  5-MIN KMSN 250220Z 33007KT 10SM FEW038 SCT120 M03/M10 A3022 590 60 -1400 330/07 RMK AO2
14837KMSN MSN20021124202510611/24/02 20:25:31  5-MIN KMSN 250225Z 33006KT 10SM FEW038 BKN120 M03/M10 A3022 590 60 -1400 330/06 RMK AO2
14837KMSN MSN20021124203010611/24/02 20:30:31  5-MIN KMSN 250230Z 33006KT 10SM FEW038 BKN120 M03/M10 A3023 580 60 -1400 330/06 RMK AO2
14837KMSN MSN20021124203510611/24/02 20:35:31  5-MIN KMSN 250235Z 34006KT 10SM FEW038 BKN120 M03/M10 A3023 580 60 -1400 340/06 RMK AO2
14837KMSN MSN20021124204010611/24/02 20:40:31  5-MIN KMSN 250240Z 33005KT 10SM FEW038 BKN120 M03/M10 A3023 580 60 -1400 320/05 RMK AO2
14837KMSN MSN20021124204510611/24/02 20:45:31  5-MIN KMSN 250245Z 33005KT 10SM FEW038 BKN120 M04/M10 A3023 580 63 -1500 330/05 RMK AO2
14837KMSN MSN20021124205012911/24/02 20:50:31  5-MIN KMSN 250250Z 33004KT 10SM FEW038 SCT100 M03/M10 A3023 580 60 -1400 330/04 RMK AO2 SLP248 T10331100 52009
14837KMSN MSN20021124205510611/24/02 20:55:31  5-MIN KMSN 250255Z 32004KT 10SM SCT038 SCT100 M04/M10 A3023 580 63 -1500 320/04 RMK AO2
14837KMSN MSN20021124210009911/24/02 21:00:31  5-MIN KMSN 250300Z 32004KT 10SM BKN038 M04/M10 A3023 580 63 -1500 320/04 RMK AO2
14837KMSN MSN20021124210509911/24/02 21:05:31  5-MIN KMSN 250305Z 31003KT 10SM BKN038 M04/M10 A3023 580 63 -1500 310/03 RMK AO2
14837KMSN MSN20021124211009911/24/02 21:10:31  5-MIN KMSN 250310Z 31005KT 10SM BKN038 M04/M11 A3023 580 60 -1500 310/05 RMK AO2
14837KMSN MSN20021124211509911/24/02 21:15:31  5-MIN KMSN 250315Z 31004KT 10SM OVC038 M04/M10 A3023 580 63 -1500 310/04 RMK AO2
14837KMSN MSN20021124212009911/24/02 21:20:31  5-MIN KMSN 250320Z 31005KT 10SM OVC038 M03/M10 A3023 580 60 -1400 310/05 RMK AO2
14837KMSN MSN20021124212509911/24/02 21:25:31  5-MIN KMSN 250325Z 31005KT 10SM OVC038 M03/M10 A3023 580 60 -1400 310/05 RMK AO2
14837KMSN MSN20021124213009911/24/02 21:30:31  5-MIN KMSN 250330Z 30004KT 10SM OVC038 M03/M10 A3023 580 60 -1500 300/04 RMK AO2
14837KMSN MSN20021124213509911/24/02 21:35:31  5-MIN KMSN 250335Z 31005KT 10SM OVC038 M03/M10 A3023 580 60 -1400 310/05 RMK AO2
14837KMSN MSN20021124214009911/24/02 21:40:31  5-MIN KMSN 250340Z 31005KT 10SM OVC038 M03/M10 A3023 580 60 -1400 310/05 RMK AO2
14837KMSN MSN20021124214509911/24/02 21:45:31  5-MIN KMSN 250345Z 30006KT 10SM OVC038 M03/M10 A3024 570 60 -1500 300/06 RMK AO2
14837KMSN MSN20021124215011611/24/02 21:50:31  5-MIN KMSN 250350Z 30004KT 10SM OVC038 M03/M10 A3023 570 60 -1500 300/04 RMK AO2 SLP250 T10331100
14837KMSN MSN20021124215509911/24/02 21:55:31  5-MIN KMSN 250355Z 30005KT 10SM OVC038 M04/M10 A3024 570 63 -1500 300/05 RMK AO2
14837KMSN MSN20021124220009911/24/02 22:00:31  5-MIN KMSN 250400Z 31005KT 10SM OVC038 M04/M10 A3024 570 63 -1500 300/05 RMK AO2
14837KMSN MSN20021124220509911/24/02 22:05:31  5-MIN KMSN 250405Z 31005KT 10SM OVC038 M04/M10 A3023 580 63 -1500 310/05 RMK AO2
14837KMSN MSN20021124221009911/24/02 22:10:31  5-MIN KMSN 250410Z 31006KT 10SM SCT038 M04/M10 A3023 570 63 -1500 310/06 RMK AO2
14837KMSN MSN20021124221509911/24/02 22:15:31  5-MIN KMSN 250415Z 30005KT 10SM SCT038 M04/M10 A3024 570 63 -1500 300/05 RMK AO2
14837KMSN MSN20021124222009911/24/02 22:20:31  5-MIN KMSN 250420Z 31005KT 10SM SCT038 M04/M10 A3024 570 63 -1500 310/05 RMK AO2
14837KMSN MSN20021124222509911/24/02 22:25:31  5-MIN KMSN 250425Z 31005KT 10SM SCT038 M04/M10 A3024 570 63 -1500 310/05 RMK AO2
14837KMSN MSN20021124223009911/24/02 22:30:31  5-MIN KMSN 250430Z 31006KT 10SM SCT038 M04/M10 A3024 570 63 -1500 310/06 RMK AO2
14837KMSN MSN20021124223509911/24/02 22:35:31  5-MIN KMSN 250435Z 30005KT 10SM SCT038 M04/M10 A3024 570 63 -1500 300/05 RMK AO2
14837KMSN MSN20021124224009911/24/02 22:40:31  5-MIN KMSN 250440Z 30004KT 10SM SCT038 M04/M10 A3024 570 63 -1500 300/04 RMK AO2
14837KMSN MSN20021124224509911/24/02 22:45:31  5-MIN KMSN 250445Z 31005KT 10SM SCT038 M04/M10 A3024 570 65 -1600 310/05 RMK AO2
14837KMSN MSN20021124225011611/24/02 22:50:31  5-MIN KMSN 250450Z 31005KT 10SM SCT038 M04/M09 A3024 570 68 -1600 310/05 RMK AO2 SLP252 T10441094
14837KMSN MSN20021124225509911/24/02 22:55:31  5-MIN KMSN 250455Z 31006KT 10SM SCT038 M04/M09 A3024 570 68 -1600 310/06 RMK AO2
14837KMSN MSN20021124230009911/24/02 23:00:31  5-MIN KMSN 250500Z 31005KT 10SM SCT038 M04/M09 A3024 570 65 -1500 310/05 RMK AO2
14837KMSN MSN20021124230509911/24/02 23:05:31  5-MIN KMSN 250505Z 32006KT 10SM SCT038 M04/M09 A3024 570 65 -1500 320/06 RMK AO2
14837KMSN MSN20021124231009911/24/02 23:10:31  5-MIN KMSN 250510Z 32005KT 10SM SCT038 M04/M09 A3024 570 65 -1500 320/05 RMK AO2
14837KMSN MSN20021124231509911/24/02 23:15:31  5-MIN KMSN 250515Z 31005KT 10SM OVC035 M04/M09 A3024 570 65 -1500 310/05 RMK AO2
14837KMSN MSN20021124232009911/24/02 23:20:31  5-MIN KMSN 250520Z 31006KT 10SM OVC035 M04/M09 A3024 570 65 -1500 310/06 RMK AO2
14837KMSN MSN20021124232509911/24/02 23:25:31  5-MIN KMSN 250525Z 31006KT 10SM OVC035 M04/M09 A3024 570 65 -1500 310/06 RMK AO2
14837KMSN MSN20021124233009911/24/02 23:30:31  5-MIN KMSN 250530Z 31006KT 10SM OVC035 M04/M09 A3024 570 68 -1600 310/06 RMK AO2
14837KMSN MSN20021124233509911/24/02 23:35:31  5-MIN KMSN 250535Z 31006KT 10SM BKN035 M04/M09 A3024 570 68 -1600 310/06 RMK AO2
14837KMSN MSN20021124234009911/24/02 23:40:31  5-MIN KMSN 250540Z 31007KT 10SM BKN035 M04/M09 A3024 570 68 -1600 310/07 RMK AO2
14837KMSN MSN20021124234509911/24/02 23:45:31  5-MIN KMSN 250545Z 32006KT 10SM SCT035 M04/M09 A3024 570 68 -1600 310/06 RMK AO2
14837KMSN MSN20021124235014411/24/02 23:50:31  5-MIN KMSN 250550Z 32006KT 10SM FEW035 M05/M10 A3024 570 68 -1700 320/06 RMK AO2 SLP252 T10501100 11028 21050 400061050 51010
14837KMSN MSN20021124235509911/24/02 23:55:31  5-MIN KMSN 250555Z 32005KT 10SM FEW035 M05/M10 A3024 570 68 -1700 310/05 RMK AO2
14837KMSN MSN20021125000009611/25/02 00:00:31  5-MIN KMSN 250600Z 31005KT 10SM CLR M05/M09 A3024 570 71 -1700 300/05 RMK AO2
14837KMSN MSN20021125000509611/25/02 00:05:31  5-MIN KMSN 250605Z 30005KT 10SM CLR M05/M10 A3024 570 68 -1700 300/05 RMK AO2
14837KMSN MSN20021125001009611/25/02 00:10:31  5-MIN KMSN 250610Z 31005KT 10SM CLR M05/M10 A3024 570 68 -1700 300/05 RMK AO2
14837KMSN MSN20021125001509611/25/02 00:15:31  5-MIN KMSN 250615Z 31005KT 10SM CLR M06/M10 A3024 570 71 -1700 310/05 RMK AO2
14837KMSN MSN20021125002009611/25/02 00:20:31  5-MIN KMSN 250620Z 31006KT 10SM CLR M05/M09 A3024 570 71 -1700 310/06 RMK AO2
14837KMSN MSN20021125002509611/25/02 00:25:31  5-MIN KMSN 250625Z 31005KT 10SM CLR M06/M09 A3024 570 74 -1700 310/05 RMK AO2
14837KMSN MSN20021125003009611/25/02 00:30:31  5-MIN KMSN 250630Z 32005KT 10SM CLR M06/M09 A3024 570 74 -1700 320/05 RMK AO2
14837KMSN MSN20021125003509611/25/02 00:35:31  5-MIN KMSN 250635Z 31005KT 10SM CLR M06/M09 A3024 570 74 -1700 310/05 RMK AO2
14837KMSN MSN20021125004009611/25/02 00:40:31  5-MIN KMSN 250640Z VRB06KT 10SM CLR M06/M09 A3024 570 74 -1700 VRB/06 RMK AO2
14837KMSN MSN20021125004509611/25/02 00:45:31  5-MIN KMSN 250645Z 31006KT 10SM CLR M06/M09 A3024 570 74 -1700 310/06 RMK AO2
14837KMSN MSN20021125005011311/25/02 00:50:31  5-MIN KMSN 250650Z 31005KT 10SM CLR M06/M09 A3024 570 74 -1700 310/05 RMK AO2 SLP252 T10561094
14837KMSN MSN20021125005509611/25/02 00:55:31  5-MIN KMSN 250655Z 31005KT 10SM CLR M06/M09 A3024 570 74 -1700 310/05 RMK AO2
14837KMSN MSN20021125010009611/25/02 01:00:31  5-MIN KMSN 250700Z 31007KT 10SM CLR M06/M09 A3024 570 74 -1700 310/07 RMK AO2
14837KMSN MSN20021125010509611/25/02 01:05:31  5-MIN KMSN 250705Z 31006KT 10SM CLR M06/M09 A3024 570 74 -1700 310/06 RMK AO2
14837KMSN MSN20021125011009611/25/02 01:10:31  5-MIN KMSN 250710Z 32005KT 10SM CLR M06/M10 A3024 570 71 -1700 320/05 RMK AO2
14837KMSN MSN20021125011509611/25/02 01:15:31  5-MIN KMSN 250715Z 32007KT 10SM CLR M06/M09 A3024 570 74 -1700 320/07 RMK AO2
14837KMSN MSN20021125012009611/25/02 01:20:31  5-MIN KMSN 250720Z 31006KT 10SM CLR M06/M09 A3024 570 74 -1700 310/06 RMK AO2
14837KMSN MSN20021125012509611/25/02 01:25:31  5-MIN KMSN 250725Z 31006KT 10SM CLR M06/M09 A3024 570 74 -1700 310/06 RMK AO2
14837KMSN MSN20021125013009611/25/02 01:30:31  5-MIN KMSN 250730Z 31006KT 10SM CLR M06/M09 A3024 570 74 -1700 310/06 RMK AO2
14837KMSN MSN20021125013509611/25/02 01:35:31  5-MIN KMSN 250735Z 32005KT 10SM CLR M06/M09 A3024 570 74 -1700 320/05 RMK AO2
14837KMSN MSN20021125014009611/25/02 01:40:31  5-MIN KMSN 250740Z 32005KT 10SM CLR M06/M09 A3024 570 77 -1800 320/05 RMK AO2
14837KMSN MSN20021125014509611/25/02 01:45:31  5-MIN KMSN 250745Z 32006KT 10SM CLR M06/M09 A3024 570 77 -1800 320/06 RMK AO2
14837KMSN MSN20021125015011311/25/02 01:50:31  5-MIN KMSN 250750Z 32005KT 10SM CLR M06/M09 A3024 570 77 -1800 310/05 RMK AO2 SLP254 T10611094
14837KMSN MSN20021125015509611/25/02 01:55:31  5-MIN KMSN 250755Z 31005KT 10SM CLR M06/M09 A3025 570 77 -1800 310/05 RMK AO2
14837KMSN MSN20021125020009611/25/02 02:00:31  5-MIN KMSN 250800Z 31005KT 10SM CLR M06/M09 A3025 560 77 -1800 310/05 RMK AO2
14837KMSN MSN20021125020509611/25/02 02:05:31  5-MIN KMSN 250805Z 31005KT 10SM CLR M06/M09 A3025 560 77 -1800 310/05 RMK AO2
14837KMSN MSN20021125021009611/25/02 02:10:31  5-MIN KMSN 250810Z 31005KT 10SM CLR M06/M09 A3025 560 77 -1800 310/05 RMK AO2
14837KMSN MSN20021125021509611/25/02 02:15:31  5-MIN KMSN 250815Z 31004KT 10SM CLR M06/M09 A3025 560 77 -1800 300/04 RMK AO2
14837KMSN MSN20021125022009611/25/02 02:20:31  5-MIN KMSN 250820Z 31005KT 10SM CLR M06/M09 A3025 560 77 -1800 310/05 RMK AO2
14837KMSN MSN20021125022509611/25/02 02:25:31  5-MIN KMSN 250825Z 31005KT 10SM CLR M06/M09 A3026 560 77 -1800 310/05 RMK AO2
14837KMSN MSN20021125023009611/25/02 02:30:31  5-MIN KMSN 250830Z 32004KT 10SM CLR M06/M09 A3025 560 77 -1800 320/04 RMK AO2
14837KMSN MSN20021125023509611/25/02 02:35:31  5-MIN KMSN 250835Z 32003KT 10SM CLR M06/M09 A3025 560 77 -1800 310/03 RMK AO2
14837KMSN MSN20021125024009611/25/02 02:40:31  5-MIN KMSN 250840Z 31003KT 10SM CLR M06/M10 A3026 560 74 -1800 310/03 RMK AO2
14837KMSN MSN20021125024509611/25/02 02:45:31  5-MIN KMSN 250845Z 31004KT 10SM CLR M06/M09 A3025 560 77 -1800 310/04 RMK AO2
14837KMSN MSN20021125025011911/25/02 02:50:31  5-MIN KMSN 250850Z VRB03KT 10SM CLR M06/M09 A3025 560 77 -1800 VRB/03 RMK AO2 SLP258 T10611094 50003
14837KMSN MSN20021125025509611/25/02 02:55:31  5-MIN KMSN 250855Z 31004KT 10SM CLR M07/M10 A3026 560 77 -1900 310/04 RMK AO2
14837KMSN MSN20021125030009611/25/02 03:00:31  5-MIN KMSN 250900Z 31004KT 10SM CLR M07/M09 A3026 560 81 -1900 310/04 RMK AO2
14837KMSN MSN20021125030509611/25/02 03:05:31  5-MIN KMSN 250905Z 31004KT 10SM CLR M07/M10 A3026 550 77 -1900 310/04 RMK AO2
14837KMSN MSN20021125031009611/25/02 03:10:31  5-MIN KMSN 250910Z 31005KT 10SM CLR M07/M09 A3026 550 81 -1900 310/05 RMK AO2
14837KMSN MSN20021125031509611/25/02 03:15:31  5-MIN KMSN 250915Z 31003KT 10SM CLR M07/M10 A3026 550 77 -1900 310/03 RMK AO2
14837KMSN MSN20021125032009611/25/02 03:20:31  5-MIN KMSN 250920Z 32004KT 10SM CLR M07/M09 A3026 550 81 -1900 310/04 RMK AO2
14837KMSN MSN20021125032509611/25/02 03:25:31  5-MIN KMSN 250925Z 31003KT 10SM CLR M07/M10 A3026 550 77 -1900 310/03 RMK AO2
14837KMSN MSN20021125033009611/25/02 03:30:31  5-MIN KMSN 250930Z 31004KT 10SM CLR M07/M10 A3026 550 77 -1900 310/04 RMK AO2
14837KMSN MSN20021125033509611/25/02 03:35:31  5-MIN KMSN 250935Z 31004KT 10SM CLR M07/M09 A3026 550 81 -1900 310/04 RMK AO2
14837KMSN MSN20021125034009611/25/02 03:40:31  5-MIN KMSN 250940Z 31003KT 10SM CLR M07/M09 A3026 550 81 -1900 310/03 RMK AO2
14837KMSN MSN20021125034509611/25/02 03:45:31  5-MIN KMSN 250945Z 30003KT 10SM CLR M07/M09 A3026 550 81 -1900 300/03 RMK AO2
14837KMSN MSN20021125035011311/25/02 03:50:31  5-MIN KMSN 250950Z VRB03KT 10SM CLR M07/M09 A3027 550 81 -1900 VRB/03 RMK AO2 SLP263 T10671094
14837KMSN MSN20021125035509611/25/02 03:55:31  5-MIN KMSN 250955Z VRB03KT 10SM CLR M07/M09 A3027 550 81 -1900 VRB/03 RMK AO2
14837KMSN MSN20021125040009611/25/02 04:00:31  5-MIN KMSN 251000Z 00000KT 10SM CLR M07/M09 A3027 540 81 -1900 000/00 RMK AO2
14837KMSN MSN20021125040509611/25/02 04:05:31  5-MIN KMSN 251005Z 30003KT 10SM CLR M07/M09 A3027 540 81 -1900 300/03 RMK AO2
14837KMSN MSN20021125041009611/25/02 04:10:31  5-MIN KMSN 251010Z VRB03KT 10SM CLR M07/M09 A3027 540 81 -1900 VRB/03 RMK AO2
14837KMSN MSN20021125041509611/25/02 04:15:31  5-MIN KMSN 251015Z 30003KT 10SM CLR M07/M09 A3027 540 81 -1900 300/03 RMK AO2
14837KMSN MSN20021125042009611/25/02 04:20:31  5-MIN KMSN 251020Z 31004KT 10SM CLR M07/M09 A3027 540 81 -1900 310/04 RMK AO2
14837KMSN MSN20021125042509611/25/02 04:25:31  5-MIN KMSN 251025Z 00000KT 10SM CLR M07/M09 A3027 540 81 -1900 000/00 RMK AO2
14837KMSN MSN20021125043009611/25/02 04:30:31  5-MIN KMSN 251030Z 00000KT 10SM CLR M07/M09 A3027 540 81 -1900 000/00 RMK AO2
14837KMSN MSN20021125043509611/25/02 04:35:31  5-MIN KMSN 251035Z VRB03KT 10SM CLR M07/M09 A3027 540 81 -1900 VRB/03 RMK AO2
14837KMSN MSN20021125044009611/25/02 04:40:31  5-MIN KMSN 251040Z 29003KT 10SM CLR M07/M09 A3027 540 81 -1900 290/03 RMK AO2
14837KMSN MSN20021125044509611/25/02 04:45:31  5-MIN KMSN 251045Z 30003KT 10SM CLR M07/M09 A3027 540 81 -1900 300/03 RMK AO2
14837KMSN MSN20021125045011311/25/02 04:50:31  5-MIN KMSN 251050Z 28003KT 10SM CLR M07/M09 A3028 530 84 -1900 280/03 RMK AO2 SLP267 T10671089
14837KMSN MSN20021125045509611/25/02 04:55:31  5-MIN KMSN 251055Z 28003KT 10SM CLR M07/M09 A3028 530 81 -1900 280/03 RMK AO2
14837KMSN MSN20021125050009611/25/02 05:00:31  5-MIN KMSN 251100Z 00000KT 10SM CLR M07/M09 A3028 530 81 -1900 000/00 RMK AO2
14837KMSN MSN20021125050509611/25/02 05:05:31  5-MIN KMSN 251105Z VRB03KT 10SM CLR M07/M09 A3028 530 81 -1900 VRB/03 RMK AO2
14837KMSN MSN20021125051009611/25/02 05:10:31  5-MIN KMSN 251110Z 00000KT 10SM CLR M07/M09 A3028 530 84 -2000 000/00 RMK AO2
14837KMSN MSN20021125051509611/25/02 05:15:31  5-MIN KMSN 251115Z 29003KT 10SM CLR M07/M09 A3028 530 84 -2000 290/03 RMK AO2
14837KMSN MSN20021125052009611/25/02 05:20:31  5-MIN KMSN 251120Z 29003KT 10SM CLR M07/M09 A3028 540 84 -2000 290/03 RMK AO2
14837KMSN MSN20021125052509611/25/02 05:25:31  5-MIN KMSN 251125Z 00000KT 10SM CLR M07/M09 A3028 530 84 -2000 000/00 RMK AO2
14837KMSN MSN20021125053009611/25/02 05:30:31  5-MIN KMSN 251130Z 00000KT 10SM CLR M07/M09 A3028 540 84 -2000 000/00 RMK AO2
14837KMSN MSN20021125053509611/25/02 05:35:31  5-MIN KMSN 251135Z 00000KT 10SM CLR M07/M09 A3028 530 84 -2000 000/00 RMK AO2
14837KMSN MSN20021125054009611/25/02 05:40:31  5-MIN KMSN 251140Z 00000KT 10SM CLR M08/M10 A3028 530 84 -2100 000/00 RMK AO2
14837KMSN MSN20021125054509611/25/02 05:45:31  5-MIN KMSN 251145Z 32003KT 10SM CLR M08/M09 A3028 540 88 -2100 320/03 RMK AO2
14837KMSN MSN20021125055013111/25/02 05:50:31  5-MIN KMSN 251150Z 00000KT 10SM CLR M08/M10 A3028 530 84 -2100 000/00 RMK AO2 SLP268 T10781100 11050 21078 53006
14837KMSN MSN20021125055509611/25/02 05:55:31  5-MIN KMSN 251155Z 00000KT 10SM CLR M08/M09 A3028 530 88 -2100 000/00 RMK AO2
14837KMSN MSN20021125060009611/25/02 06:00:31  5-MIN KMSN 251200Z 00000KT 10SM CLR M08/M09 A3028 530 88 -2100 000/00 RMK AO2
14837KMSN MSN20021125060509611/25/02 06:05:31  5-MIN KMSN 251205Z 31004KT 10SM CLR M08/M09 A3028 530 88 -2100 310/04 RMK AO2
14837KMSN MSN20021125061009611/25/02 06:10:31  5-MIN KMSN 251210Z 31004KT 10SM CLR M08/M10 A3029 530 84 -2100 300/04 RMK AO2
14837KMSN MSN20021125061509611/25/02 06:15:31  5-MIN KMSN 251215Z 31005KT 10SM CLR M08/M10 A3029 530 84 -2100 310/05 RMK AO2
14837KMSN MSN20021125062009611/25/02 06:20:31  5-MIN KMSN 251220Z 32005KT 10SM CLR M07/M09 A3029 530 84 -2000 320/05 RMK AO2
14837KMSN MSN20021125062509611/25/02 06:25:31  5-MIN KMSN 251225Z 32005KT 10SM CLR M07/M09 A3029 530 84 -2000 320/05 RMK AO2
14837KMSN MSN20021125063009611/25/02 06:30:31  5-MIN KMSN 251230Z 32005KT 10SM CLR M07/M09 A3029 530 84 -2000 320/05 RMK AO2
14837KMSN MSN20021125063509611/25/02 06:35:31  5-MIN KMSN 251235Z VRB04KT 10SM CLR M07/M09 A3029 520 84 -2000 VRB/04 RMK AO2
14837KMSN MSN20021125064009611/25/02 06:40:31  5-MIN KMSN 251240Z 32006KT 10SM CLR M07/M09 A3029 520 84 -2000 320/06 RMK AO2
14837KMSN MSN20021125064509611/25/02 06:45:31  5-MIN KMSN 251245Z 32006KT 10SM CLR M07/M09 A3029 520 84 -2000 320/06 RMK AO2
14837KMSN MSN20021125065011311/25/02 06:50:31  5-MIN KMSN 251250Z 30005KT 10SM CLR M07/M09 A3030 520 84 -2000 300/05 RMK AO2 SLP273 T10721094
14837KMSN MSN20021125065509611/25/02 06:55:31  5-MIN KMSN 251255Z 31006KT 10SM CLR M07/M09 A3030 520 84 -2000 310/06 RMK AO2
14837KMSN MSN20021125070009611/25/02 07:00:31  5-MIN KMSN 251300Z 31005KT 10SM CLR M07/M10 A3030 520 81 -2000 310/05 RMK AO2
14837KMSN MSN20021125070509611/25/02 07:05:31  5-MIN KMSN 251305Z 31006KT 10SM CLR M07/M10 A3030 510 81 -2000 310/06 RMK AO2
14837KMSN MSN20021125071009611/25/02 07:10:31  5-MIN KMSN 251310Z 31004KT 10SM CLR M07/M10 A3030 510 81 -2000 310/04 RMK AO2
14837KMSN MSN20021125071509611/25/02 07:15:31  5-MIN KMSN 251315Z 31006KT 10SM CLR M07/M10 A3030 510 81 -2000 310/06 RMK AO2
14837KMSN MSN20021125072009611/25/02 07:20:31  5-MIN KMSN 251320Z 31006KT 10SM CLR M07/M10 A3030 510 81 -2000 310/06 RMK AO2
14837KMSN MSN20021125072509611/25/02 07:25:31  5-MIN KMSN 251325Z 31007KT 10SM CLR M07/M10 A3031 510 81 -2000 310/07 RMK AO2
14837KMSN MSN20021125073009611/25/02 07:30:31  5-MIN KMSN 251330Z 31006KT 10SM CLR M07/M10 A3031 510 77 -2000 310/06 RMK AO2
14837KMSN MSN20021125073509611/25/02 07:35:31  5-MIN KMSN 251335Z 31006KT 10SM CLR M07/M10 A3031 500 77 -2000 310/06 RMK AO2
14837KMSN MSN20021125074009611/25/02 07:40:31  5-MIN KMSN 251340Z 30004KT 10SM CLR M07/M09 A3031 500 81 -2000 300/04 RMK AO2
14837KMSN MSN20021125074509611/25/02 07:45:31  5-MIN KMSN 251345Z 31007KT 10SM CLR M07/M10 A3031 500 77 -2000 310/07 RMK AO2
14837KMSN MSN20021125075011311/25/02 07:50:31  5-MIN KMSN 251350Z 30005KT 10SM CLR M07/M10 A3032 500 77 -2000 300/05 RMK AO2 SLP280 T10671100
14837KMSN MSN20021125075509611/25/02 07:55:31  5-MIN KMSN 251355Z 31006KT 10SM CLR M06/M10 A3032 500 74 -1900 310/06 RMK AO2
14837KMSN MSN20021125080009611/25/02 08:00:31  5-MIN KMSN 251400Z 32007KT 10SM CLR M06/M09 A3032 490 77 -1900 320/07 RMK AO2
14837KMSN MSN20021125080509611/25/02 08:05:31  5-MIN KMSN 251405Z 31005KT 10SM CLR M06/M09 A3032 490 77 -1900 310/05 RMK AO2
14837KMSN MSN20021125081009611/25/02 08:10:31  5-MIN KMSN 251410Z 31007KT 10SM CLR M06/M09 A3032 490 77 -1900 310/07 RMK AO2
14837KMSN MSN20021125081509611/25/02 08:15:31  5-MIN KMSN 251415Z 31007KT 10SM CLR M06/M09 A3032 490 77 -1900 310/07 RMK AO2
14837KMSN MSN20021125082009611/25/02 08:20:31  5-MIN KMSN 251420Z 32007KT 10SM CLR M06/M09 A3033 490 77 -1900 310/07 RMK AO2
14837KMSN MSN20021125082510211/25/02 08:25:31  5-MIN KMSN 251425Z 31009G14KT 10SM CLR M06/M09 A3033 490 74 -1800 310/09G14 RMK AO2
14837KMSN MSN20021125083009611/25/02 08:30:31  5-MIN KMSN 251430Z 30007KT 10SM CLR M06/M09 A3033 490 74 -1800 300/07 RMK AO2
14837KMSN MSN20021125083509911/25/02 08:35:31  5-MIN KMSN 251435Z 32009KT 10SM FEW020 M06/M09 A3033 490 74 -1800 320/09 RMK AO2
14837KMSN MSN20021125084009911/25/02 08:40:31  5-MIN KMSN 251440Z 32009KT 10SM FEW020 M06/M09 A3033 490 74 -1800 310/09 RMK AO2
14837KMSN MSN20021125084509911/25/02 08:45:31  5-MIN KMSN 251445Z 32007KT 10SM FEW020 M06/M09 A3033 490 74 -1800 320/07 RMK AO2
14837KMSN MSN20021125085012211/25/02 08:50:31  5-MIN KMSN 251450Z 31008KT 10SM FEW020 M05/M09 A3033 480 74 -1800 310/08 RMK AO2 SLP285 T10501089 51008
14837KMSN MSN20021125085509911/25/02 08:55:31  5-MIN KMSN 251455Z 31006KT 10SM FEW020 M05/M09 A3033 480 71 -1800 310/06 RMK AO2
14837KMSN MSN20021125090010511/25/02 09:00:31  5-MIN KMSN 251500Z 31011G15KT 10SM FEW020 M05/M09 A3033 480 71 -1800 310/11G15 RMK AO2
14837KMSN MSN20021125090510511/25/02 09:05:31  5-MIN KMSN 251505Z 31010G15KT 10SM FEW020 M05/M09 A3033 490 71 -1800 310/10G15 RMK AO2
14837KMSN MSN20021125091010511/25/02 09:10:31  5-MIN KMSN 251510Z 33011G14KT 10SM FEW020 M05/M09 A3033 490 71 -1800 320/11G14 RMK AO2
14837KMSN MSN20021125091509911/25/02 09:15:31  5-MIN KMSN 251515Z 33011KT 10SM FEW020 M04/M09 A3033 490 68 -1700 330/11 RMK AO2
14837KMSN MSN20021125092009911/25/02 09:20:31  5-MIN KMSN 251520Z 33011KT 10SM FEW020 M04/M09 A3033 490 68 -1700 320/11 RMK AO2
14837KMSN MSN20021125092510511/25/02 09:25:31  5-MIN KMSN 251525Z 33013G17KT 10SM FEW020 M04/M10 A3033 490 65 -1700 330/13G17 RMK AO2
14837KMSN MSN20021125093010511/25/02 09:30:31  5-MIN KMSN 251530Z 33008G17KT 10SM FEW020 M04/M09 A3033 480 68 -1700 320/08G17 RMK AO2
14837KMSN MSN20021125093509911/25/02 09:35:31  5-MIN KMSN 251535Z 32009KT 10SM FEW020 M04/M09 A3033 480 68 -1700 320/09 RMK AO2
14837KMSN MSN20021125094009911/25/02 09:40:31  5-MIN KMSN 251540Z 31008KT 10SM FEW020 M04/M09 A3033 490 68 -1700 310/08 RMK AO2
14837KMSN MSN20021125094509911/25/02 09:45:31  5-MIN KMSN 251545Z 32010KT 10SM FEW020 M04/M09 A3034 480 65 -1600 320/10 RMK AO2
14837KMSN MSN20021125095011611/25/02 09:50:31  5-MIN KMSN 251550Z 34010KT 10SM FEW024 M04/M10 A3034 480 65 -1700 340/10 RMK AO2 SLP287 T10441100
14837KMSN MSN20021125095510511/25/02 09:55:31  5-MIN KMSN 251555Z 33006G15KT 10SM FEW024 M04/M10 A3034 480 63 -1600 330/06G15 RMK AO2
14837KMSN MSN20021125100009911/25/02 10:00:31  5-MIN KMSN 251600Z 32011KT 10SM SCT024 M04/M09 A3034 480 65 -1600 320/11 RMK AO2
14837KMSN MSN20021125100509911/25/02 10:05:31  5-MIN KMSN 251605Z 31009KT 10SM SCT024 M04/M10 A3034 470 65 -1700 310/09 RMK AO2
14837KMSN MSN20021125101009911/25/02 10:10:31  5-MIN KMSN 251610Z 31007KT 10SM SCT024 M04/M10 A3035 470 63 -1700 310/07 RMK AO2
14837KMSN MSN20021125101509911/25/02 10:15:31  5-MIN KMSN 251615Z 31009KT 10SM SCT024 M04/M09 A3035 470 65 -1600 310/09 RMK AO2
14837KMSN MSN20021125102010511/25/02 10:20:31  5-MIN KMSN 251620Z 31008G14KT 10SM SCT024 M04/M10 A3035 470 63 -1600 310/08G14 RMK AO2
14837KMSN MSN20021125102509911/25/02 10:25:31  5-MIN KMSN 251625Z 32010KT 10SM BKN024 M04/M11 A3035 470 60 -1700 320/10 RMK AO2
14837KMSN MSN20021125103009911/25/02 10:30:31  5-MIN KMSN 251630Z 34009KT 10SM SCT024 M03/M10 A3035 470 60 -1600 340/09 RMK AO2
14837KMSN MSN20021125103509911/25/02 10:35:31  5-MIN KMSN 251635Z 32008KT 10SM BKN026 M04/M11 A3035 470 60 -1700 320/08 RMK AO2
14837KMSN MSN20021125104009911/25/02 10:40:31  5-MIN KMSN 251640Z 32008KT 10SM SCT026 M04/M10 A3035 470 63 -1700 320/08 RMK AO2
14837KMSN MSN20021125104509911/25/02 10:45:31  5-MIN KMSN 251645Z 33008KT 10SM SCT026 M03/M10 A3035 470 60 -1600 330/08 RMK AO2
14837KMSN MSN20021125105011611/25/02 10:50:31  5-MIN KMSN 251650Z 29009KT 10SM BKN026 M03/M11 A3035 470 57 -1600 290/09 RMK AO2 SLP290 T10331106
14837KMSN MSN20021125105509911/25/02 10:55:31  5-MIN KMSN 251655Z 31010KT 10SM OVC028 M03/M10 A3035 470 60 -1600 310/10 RMK AO2
14837KMSN MSN20021125110009911/25/02 11:00:31  5-MIN KMSN 251700Z 33009KT 10SM OVC028 M03/M10 A3035 470 58 -1500 330/09 RMK AO2
14837KMSN MSN20021125110511511/25/02 11:05:31  5-MIN KMSN 251705Z 34007KT 320V020 10SM BKN028 M03/M11 A3035 470 57 -1600 340/07 320V020 RMK AO2
14837KMSN MSN20021125111009911/25/02 11:10:31  5-MIN KMSN 251710Z 31009KT 10SM BKN028 M03/M11 A3035 470 57 -1600 300/09 RMK AO2
14837KMSN MSN20021125111509911/25/02 11:15:31  5-MIN KMSN 251715Z 30006KT 10SM BKN028 M04/M11 A3035 470 57 -1600 300/06 RMK AO2
14837KMSN MSN20021125112009911/25/02 11:20:31  5-MIN KMSN 251720Z 31010KT 10SM BKN028 M03/M11 A3035 470 57 -1600 310/10 RMK AO2
14837KMSN MSN20021125112509911/25/02 11:25:31  5-MIN KMSN 251725Z 30008KT 10SM BKN028 M03/M11 A3034 470 55 -1600 300/08 RMK AO2
14837KMSN MSN20021125113009911/25/02 11:30:31  5-MIN KMSN 251730Z 29009KT 10SM BKN028 M03/M11 A3034 470 55 -1500 290/09 RMK AO2
14837KMSN MSN20021125113509911/25/02 11:35:31  5-MIN KMSN 251735Z VRB05KT 10SM BKN028 M04/M11 A3034 480 57 -1600 VRB/05 RMK AO2
14837KMSN MSN20021125114009911/25/02 11:40:31  5-MIN KMSN 251740Z 32006KT 10SM BKN028 M03/M11 A3034 480 57 -1600 320/06 RMK AO2
14837KMSN MSN20021125114509911/25/02 11:45:31  5-MIN KMSN 251745Z 34008KT 10SM BKN028 M03/M11 A3034 480 57 -1600 340/08 RMK AO2
14837KMSN MSN20021125115013411/25/02 11:50:31  5-MIN KMSN 251750Z 32008KT 10SM BKN028 M03/M11 A3034 480 57 -1600 320/08 RMK AO2 SLP287 T10331106 11028 21078 51017
14837KMSN MSN20021125115509911/25/02 11:55:31  5-MIN KMSN 251755Z 30006KT 10SM BKN028 M03/M11 A3034 480 55 -1600 300/06 RMK AO2
14837KMSN MSN20021125120011511/25/02 12:00:31  5-MIN KMSN 251800Z 34007KT 320V020 10SM BKN030 M03/M11 A3034 480 57 -1600 340/07 320V020 RMK AO2
14837KMSN MSN20021125120509911/25/02 12:05:31  5-MIN KMSN 251805Z 33007KT 10SM BKN030 M03/M11 A3034 480 57 -1600 330/07 RMK AO2
14837KMSN MSN20021125121009911/25/02 12:10:31  5-MIN KMSN 251810Z 32007KT 10SM SCT030 M03/M11 A3033 480 55 -1600 320/07 RMK AO2
14837KMSN MSN20021125121509911/25/02 12:15:31  5-MIN KMSN 251815Z 31008KT 10SM SCT030 M03/M11 A3033 490 57 -1600 310/08 RMK AO2
14837KMSN MSN20021125122009911/25/02 12:20:31  5-MIN KMSN 251820Z 31007KT 10SM SCT030 M03/M11 A3033 490 55 -1500 310/07 RMK AO2
14837KMSN MSN20021125122509911/25/02 12:25:31  5-MIN KMSN 251825Z 30006KT 10SM SCT030 M03/M11 A3033 490 55 -1500 300/06 RMK AO2
14837KMSN MSN20021125123009911/25/02 12:30:31  5-MIN KMSN 251830Z 31006KT 10SM SCT030 M03/M11 A3033 490 55 -1500 310/06 RMK AO2
14837KMSN MSN20021125123509911/25/02 12:35:31  5-MIN KMSN 251835Z 30005KT 10SM SCT030 M02/M10 A3033 490 55 -1400 300/05 RMK AO2
14837KMSN MSN20021125124009911/25/02 12:40:31  5-MIN KMSN 251840Z 28010KT 10SM SCT030 M02/M10 A3033 490 55 -1400 280/10 RMK AO2
14837KMSN MSN20021125124509911/25/02 12:45:31  5-MIN KMSN 251845Z 30006KT 10SM SCT030 M03/M11 A3032 490 53 -1500 300/06 RMK AO2
14837KMSN MSN20021125125011611/25/02 12:50:31  5-MIN KMSN 251850Z 27005KT 10SM SCT030 M03/M11 A3032 490 55 -1600 270/05 RMK AO2 SLP282 T10331111
14837KMSN MSN20021125125509911/25/02 12:55:31  5-MIN KMSN 251855Z 28007KT 10SM SCT032 M03/M11 A3032 490 53 -1500 280/07 RMK AO2
14837KMSN MSN20021125130009911/25/02 13:00:31  5-MIN KMSN 251900Z 30008KT 10SM SCT032 M03/M11 A3032 500 55 -1500 300/08 RMK AO2
14837KMSN MSN20021125130509911/25/02 13:05:31  5-MIN KMSN 251905Z 30007KT 10SM SCT032 M03/M11 A3032 500 55 -1500 300/07 RMK AO2
14837KMSN MSN20021125131009911/25/02 13:10:31  5-MIN KMSN 251910Z VRB03KT 10SM SCT032 M03/M11 A3032 490 55 -1500 VRB/03 RMK AO2
14837KMSN MSN20021125131509911/25/02 13:15:31  5-MIN KMSN 251915Z 29007KT 10SM SCT032 M02/M10 A3032 500 55 -1400 290/07 RMK AO2
14837KMSN MSN20021125132009911/25/02 13:20:31  5-MIN KMSN 251920Z 29008KT 10SM BKN032 M02/M10 A3032 500 55 -1400 290/08 RMK AO2
14837KMSN MSN20021125132511511/25/02 13:25:31  5-MIN KMSN 251925Z 31008KT 280V350 10SM BKN032 M02/M10 A3032 500 53 -1300 310/08 280V350 RMK AO2
14837KMSN MSN20021125133009911/25/02 13:30:31  5-MIN KMSN 251930Z VRB04KT 10SM SCT032 M02/M11 A3032 500 53 -1400 VRB/04 RMK AO2
14837KMSN MSN20021125133509911/25/02 13:35:31  5-MIN KMSN 251935Z VRB03KT 10SM SCT032 M02/M10 A3031 500 53 -1300 VRB/03 RMK AO2
14837KMSN MSN20021125134009911/25/02 13:40:31  5-MIN KMSN 251940Z VRB05KT 10SM SCT032 M02/M10 A3032 500 55 -1400 VRB/05 RMK AO2
14837KMSN MSN20021125134509911/25/02 13:45:31  5-MIN KMSN 251945Z 26008KT 10SM SCT032 M02/M11 A3032 500 53 -1400 260/08 RMK AO2
14837KMSN MSN20021125135011611/25/02 13:50:31  5-MIN KMSN 251950Z 26006KT 10SM SCT032 M03/M11 A3032 500 55 -1500 260/06 RMK AO2 SLP280 T10281106
14837KMSN MSN20021125135511511/25/02 13:55:31  5-MIN KMSN 251955Z 28007KT 240V310 10SM SCT030 M03/M11 A3032 500 55 -1500 280/07 240V310 RMK AO2
14837KMSN MSN20021125140011511/25/02 14:00:31  5-MIN KMSN 252000Z 27008KT 240V300 10SM SCT030 M02/M11 A3031 500 53 -1400 270/08 240V300 RMK AO2
14837KMSN MSN20021125140509911/25/02 14:05:31  5-MIN KMSN 252005Z 30008KT 10SM SCT030 M03/M11 A3031 500 55 -1500 300/08 RMK AO2
14837KMSN MSN20021125141009911/25/02 14:10:31  5-MIN KMSN 252010Z 28007KT 10SM SCT030 M02/M11 A3031 500 53 -1400 280/07 RMK AO2
14837KMSN MSN20021125141509911/25/02 14:15:31  5-MIN KMSN 252015Z 29005KT 10SM SCT030 M03/M11 A3032 500 55 -1500 290/05 RMK AO2
14837KMSN MSN20021125142009911/25/02 14:20:31  5-MIN KMSN 252020Z 27006KT 10SM SCT030 M03/M11 A3032 500 53 -1500 270/06 RMK AO2
14837KMSN MSN20021125142509911/25/02 14:25:31  5-MIN KMSN 252025Z VRB04KT 10SM SCT030 M03/M11 A3031 500 55 -1500 VRB/04 RMK AO2
14837KMSN MSN20021125143009911/25/02 14:30:31  5-MIN KMSN 252030Z VRB04KT 10SM SCT030 M02/M11 A3031 500 53 -1400 VRB/04 RMK AO2
14837KMSN MSN20021125143509911/25/02 14:35:31  5-MIN KMSN 252035Z VRB05KT 10SM FEW030 M03/M11 A3032 500 55 -1500 VRB/05 RMK AO2
14837KMSN MSN20021125144009911/25/02 14:40:31  5-MIN KMSN 252040Z VRB05KT 10SM FEW030 M03/M11 A3032 500 53 -1500 VRB/05 RMK AO2
14837KMSN MSN20021125144509911/25/02 14:45:31  5-MIN KMSN 252045Z 29005KT 10SM FEW030 M02/M11 A3031 500 53 -1400 290/05 RMK AO2
14837KMSN MSN20021125145012211/25/02 14:50:31  5-MIN KMSN 252050Z 29006KT 10SM FEW030 M02/M11 A3031 500 53 -1400 290/06 RMK AO2 SLP278 T10221106 50002
14837KMSN MSN20021125145509911/25/02 14:55:31  5-MIN KMSN 252055Z 30007KT 10SM FEW030 M02/M11 A3032 500 53 -1400 290/07 RMK AO2
14837KMSN MSN20021125150009911/25/02 15:00:31  5-MIN KMSN 252100Z 30006KT 10SM FEW030 M02/M11 A3032 500 53 -1400 300/06 RMK AO2
14837KMSN MSN20021125150509911/25/02 15:05:31  5-MIN KMSN 252105Z 29006KT 10SM FEW030 M03/M11 A3032 500 53 -1500 290/06 RMK AO2
14837KMSN MSN20021125151009911/25/02 15:10:31  5-MIN KMSN 252110Z 29004KT 10SM FEW030 M02/M11 A3032 500 51 -1400 290/04 RMK AO2
14837KMSN MSN20021125151509911/25/02 15:15:31  5-MIN KMSN 252115Z 35005KT 10SM FEW030 M02/M11 A3032 500 53 -1400 350/05 RMK AO2
14837KMSN MSN20021125152009911/25/02 15:20:31  5-MIN KMSN 252120Z 33005KT 10SM FEW030 M02/M11 A3032 490 53 -1400 330/05 RMK AO2
14837KMSN MSN20021125152509911/25/02 15:25:31  5-MIN KMSN 252125Z 34005KT 10SM FEW030 M02/M11 A3032 490 53 -1400 340/05 RMK AO2
14837KMSN MSN20021125153009911/25/02 15:30:31  5-MIN KMSN 252130Z 33006KT 10SM FEW030 M02/M11 A3032 490 53 -1400 330/06 RMK AO2
14837KMSN MSN20021125153509911/25/02 15:35:31  5-MIN KMSN 252135Z 33006KT 10SM FEW030 M02/M11 A3033 490 53 -1400 330/06 RMK AO2
14837KMSN MSN20021125154009911/25/02 15:40:31  5-MIN KMSN 252140Z 33005KT 10SM FEW030 M03/M11 A3033 490 53 -1500 330/05 RMK AO2
14837KMSN MSN20021125154509911/25/02 15:45:31  5-MIN KMSN 252145Z 30006KT 10SM FEW030 M03/M11 A3033 490 53 -1500 300/06 RMK AO2
14837KMSN MSN20021125155011611/25/02 15:50:31  5-MIN KMSN 252150Z 35003KT 10SM FEW030 M03/M11 A3033 490 53 -1500 350/03 RMK AO2 SLP284 T10281111
14837KMSN MSN20021125155509611/25/02 15:55:31  5-MIN KMSN 252155Z 35004KT 10SM CLR M03/M11 A3033 490 55 -1500 350/04 RMK AO2
14837KMSN MSN20021125160009611/25/02 16:00:31  5-MIN KMSN 252200Z VRB04KT 10SM CLR M03/M11 A3033 480 55 -1600 VRB/04 RMK AO2
14837KMSN MSN20021125160509611/25/02 16:05:31  5-MIN KMSN 252205Z 34004KT 10SM CLR M03/M11 A3034 480 55 -1600 340/04 RMK AO2
14837KMSN MSN20021125161009611/25/02 16:10:31  5-MIN KMSN 252210Z 33004KT 10SM CLR M03/M11 A3034 480 55 -1600 330/04 RMK AO2
14837KMSN MSN20021125161509611/25/02 16:15:31  5-MIN KMSN 252215Z 32004KT 10SM CLR M03/M11 A3034 480 55 -1600 320/04 RMK AO2
14837KMSN MSN20021125162009611/25/02 16:20:31  5-MIN KMSN 252220Z 33004KT 10SM CLR M04/M11 A3034 480 57 -1600 330/04 RMK AO2
14837KMSN MSN20021125162509611/25/02 16:25:31  5-MIN KMSN 252225Z 33003KT 10SM CLR M03/M11 A3034 480 55 -1600 330/03 RMK AO2
14837KMSN MSN20021125163009611/25/02 16:30:31  5-MIN KMSN 252230Z 34003KT 10SM CLR M03/M11 A3034 470 55 -1600 340/03 RMK AO2
14837KMSN MSN20021125163509611/25/02 16:35:31  5-MIN KMSN 252235Z 34003KT 10SM CLR M04/M11 A3035 470 57 -1600 340/03 RMK AO2
14837KMSN MSN20021125164009611/25/02 16:40:31  5-MIN KMSN 252240Z 34003KT 10SM CLR M04/M11 A3035 470 57 -1700 340/03 RMK AO2
14837KMSN MSN20021125164509611/25/02 16:45:31  5-MIN KMSN 252245Z 34003KT 10SM CLR M04/M11 A3035 470 57 -1700 330/03 RMK AO2
14837KMSN MSN20021125165011311/25/02 16:50:31  5-MIN KMSN 252250Z 33004KT 10SM CLR M04/M11 A3035 470 57 -1700 330/04 RMK AO2 SLP292 T10391111
14837KMSN MSN20021125165509611/25/02 16:55:31  5-MIN KMSN 252255Z 33003KT 10SM CLR M04/M11 A3035 470 60 -1700 330/03 RMK AO2
14837KMSN MSN20021125170009611/25/02 17:00:31  5-MIN KMSN 252300Z 00000KT 10SM CLR M04/M11 A3035 470 60 -1700 000/00 RMK AO2
14837KMSN MSN20021125170509611/25/02 17:05:31  5-MIN KMSN 252305Z 00000KT 10SM CLR M05/M11 A3036 460 65 -1800 000/00 RMK AO2
14837KMSN MSN20021125171009611/25/02 17:10:31  5-MIN KMSN 252310Z 00000KT 10SM CLR M05/M11 A3036 460 65 -1800 000/00 RMK AO2
14837KMSN MSN20021125171509611/25/02 17:15:31  5-MIN KMSN 252315Z 00000KT 10SM CLR M05/M11 A3036 460 65 -1800 000/00 RMK AO2
14837KMSN MSN20021125172009611/25/02 17:20:31  5-MIN KMSN 252320Z 00000KT 10SM CLR M05/M11 A3036 460 62 -1800 000/00 RMK AO2
14837KMSN MSN20021125172509611/25/02 17:25:31  5-MIN KMSN 252325Z 00000KT 10SM CLR M06/M11 A3036 460 65 -1900 000/00 RMK AO2
14837KMSN MSN20021125173009611/25/02 17:30:31  5-MIN KMSN 252330Z 35003KT 10SM CLR M06/M11 A3036 460 65 -1900 350/03 RMK AO2
14837KMSN MSN20021125173509611/25/02 17:35:31  5-MIN KMSN 252335Z 00000KT 10SM CLR M06/M11 A3036 460 65 -1900 000/00 RMK AO2
14837KMSN MSN20021125174009611/25/02 17:40:31  5-MIN KMSN 252340Z 35003KT 10SM CLR M06/M11 A3036 460 65 -1900 350/03 RMK AO2
14837KMSN MSN20021125174509611/25/02 17:45:31  5-MIN KMSN 252345Z 36003KT 10SM CLR M06/M11 A3036 460 65 -1900 350/03 RMK AO2
14837KMSN MSN20021125175013111/25/02 17:50:31  5-MIN KMSN 252350Z 36003KT 10SM CLR M06/M11 A3036 460 68 -1900 360/03 RMK AO2 SLP297 T10561106 11017 21056 56008
14837KMSN MSN20021125175509611/25/02 17:55:31  5-MIN KMSN 252355Z 35003KT 10SM CLR M05/M11 A3036 460 65 -1800 350/03 RMK AO2
14837KMSN MSN20021125180009611/25/02 18:00:31  5-MIN KMSN 260000Z 00000KT 10SM CLR M06/M11 A3036 460 68 -1900 000/00 RMK AO2
14837KMSN MSN20021125180509611/25/02 18:05:31  5-MIN KMSN 260005Z 35003KT 10SM CLR M06/M11 A3036 460 65 -1900 350/03 RMK AO2
14837KMSN MSN20021125181009611/25/02 18:10:31  5-MIN KMSN 260010Z 35003KT 10SM CLR M06/M11 A3037 450 68 -1900 350/03 RMK AO2
14837KMSN MSN20021125181509611/25/02 18:15:31  5-MIN KMSN 260015Z 35003KT 10SM CLR M06/M11 A3036 460 71 -2000 350/03 RMK AO2
14837KMSN MSN20021125182009611/25/02 18:20:31  5-MIN KMSN 260020Z 35004KT 10SM CLR M06/M11 A3036 460 71 -2000 350/04 RMK AO2
14837KMSN MSN20021125182509611/25/02 18:25:31  5-MIN KMSN 260025Z 35003KT 10SM CLR M06/M11 A3036 460 71 -2000 350/03 RMK AO2
14837KMSN MSN20021125183009611/25/02 18:30:31  5-MIN KMSN 260030Z 34003KT 10SM CLR M06/M11 A3037 450 71 -2000 340/03 RMK AO2
14837KMSN MSN20021125183509611/25/02 18:35:31  5-MIN KMSN 260035Z 35003KT 10SM CLR M07/M11 A3037 450 71 -2000 350/03 RMK AO2
14837KMSN MSN20021125184009611/25/02 18:40:31  5-MIN KMSN 260040Z 00000KT 10SM CLR M07/M11 A3037 450 74 -2100 000/00 RMK AO2
14837KMSN MSN20021125184509611/25/02 18:45:31  5-MIN KMSN 260045Z 35003KT 10SM CLR M08/M11 A3037 450 77 -2200 340/03 RMK AO2
14837KMSN MSN20021125185011311/25/02 18:50:31  5-MIN KMSN 260050Z 00000KT 10SM CLR M07/M11 A3037 450 71 -2000 000/00 RMK AO2 SLP300 T10671111
14837KMSN MSN20021125185509611/25/02 18:55:31  5-MIN KMSN 260055Z 00000KT 10SM CLR M07/M11 A3037 450 74 -2100 000/00 RMK AO2
14837KMSN MSN20021125190009611/25/02 19:00:31  5-MIN KMSN 260100Z 00000KT 10SM CLR M08/M11 A3038 450 77 -2200 000/00 RMK AO2
14837KMSN MSN20021125190509611/25/02 19:05:31  5-MIN KMSN 260105Z 00000KT 10SM CLR M07/M11 A3038 440 71 -2000 000/00 RMK AO2
14837KMSN MSN20021125191009611/25/02 19:10:31  5-MIN KMSN 260110Z 00000KT 10SM CLR M07/M11 A3038 440 74 -2100 000/00 RMK AO2
14837KMSN MSN20021125191509611/25/02 19:15:31  5-MIN KMSN 260115Z 35003KT 10SM CLR M08/M11 A3038 440 80 -2200 350/03 RMK AO2
14837KMSN MSN20021125192009611/25/02 19:20:31  5-MIN KMSN 260120Z 36003KT 10SM CLR M08/M11 A3037 450 77 -2200 360/03 RMK AO2
14837KMSN MSN20021125192509611/25/02 19:25:31  5-MIN KMSN 260125Z 00000KT 10SM CLR M08/M11 A3038 450 77 -2200 000/00 RMK AO2
14837KMSN MSN20021125193009611/25/02 19:30:31  5-MIN KMSN 260130Z 00000KT 10SM CLR M08/M11 A3038 450 80 -2300 000/00 RMK AO2
14837KMSN MSN20021125193509611/25/02 19:35:31  5-MIN KMSN 260135Z 34003KT 10SM CLR M08/M11 A3038 440 80 -2300 340/03 RMK AO2
14837KMSN MSN20021125194009611/25/02 19:40:31  5-MIN KMSN 260140Z 34003KT 10SM CLR M08/M11 A3038 440 80 -2300 340/03 RMK AO2
14837KMSN MSN20021125194509611/25/02 19:45:31  5-MIN KMSN 260145Z 34004KT 10SM CLR M08/M11 A3038 450 80 -2300 340/04 RMK AO2
14837KMSN MSN20021125195011311/25/02 19:50:31  5-MIN KMSN 260150Z 34004KT 10SM CLR M08/M11 A3038 450 77 -2200 340/04 RMK AO2 SLP302 T10781111
14837KMSN MSN20021125195509611/25/02 19:55:31  5-MIN KMSN 260155Z 33003KT 10SM CLR M08/M11 A3038 450 77 -2200 330/03 RMK AO2
14837KMSN MSN20021125200009611/25/02 20:00:31  5-MIN KMSN 260200Z 00000KT 10SM CLR M08/M11 A3038 450 77 -2200 000/00 RMK AO2
14837KMSN MSN20021125200509611/25/02 20:05:31  5-MIN KMSN 260205Z 00000KT 10SM CLR M08/M11 A3038 450 77 -2200 000/00 RMK AO2
14837KMSN MSN20021125201009611/25/02 20:10:31  5-MIN KMSN 260210Z 00000KT 10SM CLR M08/M11 A3038 440 80 -2300 000/00 RMK AO2
14837KMSN MSN20021125201509611/25/02 20:15:31  5-MIN KMSN 260215Z 00000KT 10SM CLR M08/M11 A3038 440 80 -2300 000/00 RMK AO2
14837KMSN MSN20021125202009611/25/02 20:20:31  5-MIN KMSN 260220Z 00000KT 10SM CLR M09/M12 A3038 440 80 -2300 000/00 RMK AO2
14837KMSN MSN20021125202509611/25/02 20:25:31  5-MIN KMSN 260225Z 00000KT 10SM CLR M08/M11 A3038 440 80 -2300 000/00 RMK AO2
14837KMSN MSN20021125203009611/25/02 20:30:31  5-MIN KMSN 260230Z 00000KT 10SM CLR M08/M11 A3039 440 80 -2300 000/00 RMK AO2
14837KMSN MSN20021125203509611/25/02 20:35:31  5-MIN KMSN 260235Z 00000KT 10SM CLR M08/M11 A3039 430 80 -2300 000/00 RMK AO2
14837KMSN MSN20021125204009611/25/02 20:40:31  5-MIN KMSN 260240Z 00000KT 10SM CLR M08/M11 A3039 430 80 -2200 000/00 RMK AO2
14837KMSN MSN20021125204509611/25/02 20:45:31  5-MIN KMSN 260245Z 00000KT 10SM CLR M08/M11 A3039 430 80 -2200 000/00 RMK AO2
14837KMSN MSN20021125205011911/25/02 20:50:31  5-MIN KMSN 260250Z 00000KT 10SM CLR M09/M11 A3039 430 84 -2300 000/00 RMK AO2 SLP305 T10891111 51016
14837KMSN MSN20021125205509611/25/02 20:55:31  5-MIN KMSN 260255Z 34003KT 10SM CLR M08/M11 A3039 430 80 -2300 340/03 RMK AO2
14837KMSN MSN20021125210009611/25/02 21:00:31  5-MIN KMSN 260300Z 00000KT 10SM CLR M08/M11 A3039 430 84 -2300 000/00 RMK AO2
14837KMSN MSN20021125210509611/25/02 21:05:31  5-MIN KMSN 260305Z 00000KT 10SM CLR M09/M11 A3039 430 88 -2300 000/00 RMK AO2
14837KMSN MSN20021125211009611/25/02 21:10:31  5-MIN KMSN 260310Z 00000KT 10SM CLR M09/M12 A3039 430 80 -2300 000/00 RMK AO2
14837KMSN MSN20021125211509611/25/02 21:15:31  5-MIN KMSN 260315Z 00000KT 10SM CLR M08/M11 A3039 430 80 -2300 000/00 RMK AO2
14837KMSN MSN20021125212009611/25/02 21:20:31  5-MIN KMSN 260320Z 00000KT 10SM CLR M08/M11 A3039 430 80 -2300 000/00 RMK AO2
14837KMSN MSN20021125212509611/25/02 21:25:31  5-MIN KMSN 260325Z 00000KT 10SM CLR M08/M11 A3039 430 80 -2300 000/00 RMK AO2
14837KMSN MSN20021125213009611/25/02 21:30:31  5-MIN KMSN 260330Z 00000KT 10SM CLR M08/M11 A3039 430 80 -2300 000/00 RMK AO2
14837KMSN MSN20021125213509611/25/02 21:35:31  5-MIN KMSN 260335Z 00000KT 10SM CLR M08/M11 A3039 430 80 -2300 000/00 RMK AO2
14837KMSN MSN20021125214009611/25/02 21:40:31  5-MIN KMSN 260340Z 00000KT 10SM CLR M08/M11 A3039 430 84 -2300 000/00 RMK AO2
14837KMSN MSN20021125214509611/25/02 21:45:31  5-MIN KMSN 260345Z 00000KT 10SM CLR M08/M11 A3039 430 84 -2300 000/00 RMK AO2
14837KMSN MSN20021125215011311/25/02 21:50:31  5-MIN KMSN 260350Z 00000KT 10SM CLR M08/M11 A3039 430 80 -2300 000/00 RMK AO2 SLP308 T10831111
14837KMSN MSN20021125215509611/25/02 21:55:31  5-MIN KMSN 260355Z 00000KT 10SM CLR M08/M11 A3040 430 80 -2300 000/00 RMK AO2
14837KMSN MSN20021125220009611/25/02 22:00:31  5-MIN KMSN 260400Z 00000KT 10SM CLR M08/M11 A3040 430 80 -2300 000/00 RMK AO2
14837KMSN MSN20021125220509611/25/02 22:05:31  5-MIN KMSN 260405Z 00000KT 10SM CLR M08/M11 A3040 430 80 -2300 000/00 RMK AO2
14837KMSN MSN20021125221009611/25/02 22:10:31  5-MIN KMSN 260410Z 00000KT 10SM CLR M08/M11 A3040 420 80 -2300 000/00 RMK AO2
14837KMSN MSN20021125221509611/25/02 22:15:31  5-MIN KMSN 260415Z 00000KT 10SM CLR M09/M11 A3040 420 84 -2400 000/00 RMK AO2
14837KMSN MSN20021125222009611/25/02 22:20:31  5-MIN KMSN 260420Z 00000KT 10SM CLR M09/M11 A3040 420 84 -2400 000/00 RMK AO2
14837KMSN MSN20021125222509611/25/02 22:25:31  5-MIN KMSN 260425Z 00000KT 10SM CLR M09/M11 A3040 420 84 -2400 000/00 RMK AO2
14837KMSN MSN20021125223009611/25/02 22:30:31  5-MIN KMSN 260430Z 00000KT 10SM CLR M09/M11 A3040 420 84 -2400 000/00 RMK AO2
14837KMSN MSN20021125223509611/25/02 22:35:31  5-MIN KMSN 260435Z 00000KT 10SM CLR M08/M11 A3040 420 84 -2300 000/00 RMK AO2
14837KMSN MSN20021125224009611/25/02 22:40:31  5-MIN KMSN 260440Z 00000KT 10SM CLR M09/M11 A3040 420 84 -2400 000/00 RMK AO2
14837KMSN MSN20021125224509611/25/02 22:45:31  5-MIN KMSN 260445Z 00000KT 10SM CLR M09/M11 A3041 420 84 -2400 000/00 RMK AO2
14837KMSN MSN20021125225011311/25/02 22:50:31  5-MIN KMSN 260450Z 00000KT 10SM CLR M09/M11 A3041 420 84 -2400 000/00 RMK AO2 SLP312 T10891111
14837KMSN MSN20021125225509611/25/02 22:55:31  5-MIN KMSN 260455Z 00000KT 10SM CLR M09/M11 A3041 420 88 -2400 000/00 RMK AO2
14837KMSN MSN20021125230009611/25/02 23:00:31  5-MIN KMSN 260500Z 00000KT 10SM CLR M09/M11 A3041 420 88 -2400 000/00 RMK AO2
14837KMSN MSN20021125230509611/25/02 23:05:31  5-MIN KMSN 260505Z 00000KT 10SM CLR M09/M11 A3040 420 84 -2400 000/00 RMK AO2
14837KMSN MSN20021125231009611/25/02 23:10:31  5-MIN KMSN 260510Z 00000KT 10SM CLR M09/M11 A3040 420 88 -2400 000/00 RMK AO2
14837KMSN MSN20021125231509611/25/02 23:15:31  5-MIN KMSN 260515Z 00000KT 10SM CLR M09/M11 A3041 420 88 -2400 000/00 RMK AO2
14837KMSN MSN20021125232009611/25/02 23:20:31  5-MIN KMSN 260520Z 00000KT 10SM CLR M09/M11 A3041 420 88 -2400 000/00 RMK AO2
14837KMSN MSN20021125232509611/25/02 23:25:31  5-MIN KMSN 260525Z 00000KT 10SM CLR M10/M11 A3041 410 92 -2500 000/00 RMK AO2
14837KMSN MSN20021125233009611/25/02 23:30:31  5-MIN KMSN 260530Z 36003KT 10SM CLR M09/M11 A3041 420 88 -2400 360/03 RMK AO2
14837KMSN MSN20021125233509611/25/02 23:35:31  5-MIN KMSN 260535Z 00000KT 10SM CLR M09/M11 A3041 420 88 -2400 000/00 RMK AO2
14837KMSN MSN20021125234009611/25/02 23:40:31  5-MIN KMSN 260540Z 00000KT 10SM CLR M09/M11 A3041 410 88 -2400 000/00 RMK AO2
14837KMSN MSN20021125234509611/25/02 23:45:31  5-MIN KMSN 260545Z 00000KT 10SM CLR M09/M11 A3042 410 88 -2500 000/00 RMK AO2
14837KMSN MSN20021125235014111/25/02 23:50:31  5-MIN KMSN 260550Z 00000KT 10SM CLR M10/M12 A3042 410 88 -2500 000/00 RMK AO2 SLP315 T11001117 11050 21100 410171100 52008
14837KMSN MSN20021125235509511/25/02 23:55:31  5-MIN KMSN 260555Z 00000KT 9SM CLR M10/M12 A3041 410 88 -2500 000/00 RMK AO2
14837KMSN MSN20021126000009511/26/02 00:00:31  5-MIN KMSN 260600Z 00000KT 9SM CLR M10/M12 A3042 410 88 -2500 000/00 RMK AO2
14837KMSN MSN20021126000509611/26/02 00:05:31  5-MIN KMSN 260605Z 00000KT 10SM CLR M10/M12 A3041 410 88 -2500 000/00 RMK AO2
14837KMSN MSN20021126001009611/26/02 00:10:31  5-MIN KMSN 260610Z 00000KT 10SM CLR M11/M12 A3041 410 92 -2600 000/00 RMK AO2
14837KMSN MSN20021126001509611/26/02 00:15:31  5-MIN KMSN 260615Z 00000KT 10SM CLR M10/M12 A3041 410 88 -2500 000/00 RMK AO2
14837KMSN MSN20021126002009611/26/02 00:20:31  5-MIN KMSN 260620Z 35003KT 10SM CLR M10/M12 A3041 420 88 -2500 350/03 RMK AO2
14837KMSN MSN20021126002509611/26/02 00:25:31  5-MIN KMSN 260625Z 00000KT 10SM CLR M10/M12 A3040 420 88 -2500 000/00 RMK AO2
14837KMSN MSN20021126003009611/26/02 00:30:31  5-MIN KMSN 260630Z 00000KT 10SM CLR M11/M12 A3040 420 92 -2600 000/00 RMK AO2
14837KMSN MSN20021126003509611/26/02 00:35:31  5-MIN KMSN 260635Z 00000KT 10SM CLR M10/M11 A3041 420 92 -2500 000/00 RMK AO2
14837KMSN MSN20021126004009611/26/02 00:40:31  5-MIN KMSN 260640Z 00000KT 10SM CLR M11/M12 A3041 410 92 -2600 000/00 RMK AO2
14837KMSN MSN20021126004509611/26/02 00:45:31  5-MIN KMSN 260645Z 00000KT 10SM CLR M11/M12 A3040 420 92 -2600 000/00 RMK AO2
14837KMSN MSN20021126005011311/26/02 00:50:31  5-MIN KMSN 260650Z 00000KT 10SM CLR M10/M11 A3041 420 92 -2500 000/00 RMK AO2 SLP312 T11001111
14837KMSN MSN20021126005509611/26/02 00:55:31  5-MIN KMSN 260655Z 00000KT 10SM CLR M10/M12 A3041 420 88 -2500 000/00 RMK AO2
14837KMSN MSN20021126010009611/26/02 01:00:31  5-MIN KMSN 260700Z 00000KT 10SM CLR M11/M12 A3040 420 92 -2600 000/00 RMK AO2
14837KMSN MSN20021126010509611/26/02 01:05:31  5-MIN KMSN 260705Z 00000KT 10SM CLR M11/M12 A3041 420 92 -2600 000/00 RMK AO2
14837KMSN MSN20021126011009611/26/02 01:10:31  5-MIN KMSN 260710Z 00000KT 10SM CLR M11/M12 A3041 420 92 -2600 000/00 RMK AO2
14837KMSN MSN20021126011509611/26/02 01:15:31  5-MIN KMSN 260715Z 00000KT 10SM CLR M11/M12 A3040 420 92 -2600 000/00 RMK AO2
14837KMSN MSN20021126012009611/26/02 01:20:31  5-MIN KMSN 260720Z 00000KT 10SM CLR M09/M11 A3040 420 88 -2400 000/00 RMK AO2
14837KMSN MSN20021126012509611/26/02 01:25:31  5-MIN KMSN 260725Z 00000KT 10SM CLR M09/M11 A3040 430 88 -2400 000/00 RMK AO2
14837KMSN MSN20021126013009611/26/02 01:30:31  5-MIN KMSN 260730Z 00000KT 10SM CLR M10/M11 A3040 430 92 -2500 000/00 RMK AO2
14837KMSN MSN20021126013509611/26/02 01:35:31  5-MIN KMSN 260735Z 00000KT 10SM CLR M11/M12 A3040 420 88 -2600 000/00 RMK AO2
14837KMSN MSN20021126014009611/26/02 01:40:31  5-MIN KMSN 260740Z 00000KT 10SM CLR M11/M12 A3040 430 88 -2600 000/00 RMK AO2
14837KMSN MSN20021126014509611/26/02 01:45:31  5-MIN KMSN 260745Z 00000KT 10SM CLR M11/M13 A3040 430 88 -2600 000/00 RMK AO2
14837KMSN MSN20021126015011311/26/02 01:50:31  5-MIN KMSN 260750Z 00000KT 10SM CLR M11/M12 A3040 430 92 -2600 000/00 RMK AO2 SLP308 T11111122
14837KMSN MSN20021126015509611/26/02 01:55:31  5-MIN KMSN 260755Z 00000KT 10SM CLR M11/M13 A3040 430 88 -2600 000/00 RMK AO2
14837KMSN MSN20021126020009611/26/02 02:00:31  5-MIN KMSN 260800Z 00000KT 10SM CLR M11/M12 A3040 430 92 -2600 000/00 RMK AO2
14837KMSN MSN20021126020509611/26/02 02:05:31  5-MIN KMSN 260805Z 00000KT 10SM CLR M11/M12 A3040 420 92 -2600 000/00 RMK AO2
14837KMSN MSN20021126021009611/26/02 02:10:31  5-MIN KMSN 260810Z 00000KT 10SM CLR M11/M12 A3041 420 92 -2600 000/00 RMK AO2
14837KMSN MSN20021126021509611/26/02 02:15:31  5-MIN KMSN 260815Z 00000KT 10SM CLR M11/M12 A3041 420 92 -2700 000/00 RMK AO2
14837KMSN MSN20021126022009611/26/02 02:20:31  5-MIN KMSN 260820Z 00000KT 10SM CLR M12/M13 A3041 420 91 -2700 000/00 RMK AO2
14837KMSN MSN20021126022509611/26/02 02:25:31  5-MIN KMSN 260825Z 00000KT 10SM CLR M11/M12 A3041 420 92 -2700 000/00 RMK AO2
14837KMSN MSN20021126023009611/26/02 02:30:31  5-MIN KMSN 260830Z 00000KT 10SM CLR M11/M12 A3041 420 88 -2600 000/00 RMK AO2
14837KMSN MSN20021126023509611/26/02 02:35:31  5-MIN KMSN 260835Z 00000KT 10SM CLR M11/M13 A3041 420 88 -2700 000/00 RMK AO2
14837KMSN MSN20021126024009611/26/02 02:40:31  5-MIN KMSN 260840Z 00000KT 10SM CLR M11/M12 A3041 420 92 -2700 000/00 RMK AO2
14837KMSN MSN20021126024509611/26/02 02:45:31  5-MIN KMSN 260845Z 00000KT 10SM CLR M11/M13 A3041 420 88 -2700 000/00 RMK AO2
14837KMSN MSN20021126025011911/26/02 02:50:31  5-MIN KMSN 260850Z 00000KT 10SM CLR M11/M13 A3041 420 88 -2700 000/00 RMK AO2 SLP312 T11111128 51009
14837KMSN MSN20021126025509611/26/02 02:55:31  5-MIN KMSN 260855Z 00000KT 10SM CLR M11/M12 A3041 420 92 -2600 000/00 RMK AO2
14837KMSN MSN20021126030009611/26/02 03:00:31  5-MIN KMSN 260900Z 33004KT 10SM CLR M11/M12 A3040 420 92 -2700 330/04 RMK AO2
14837KMSN MSN20021126030509611/26/02 03:05:31  5-MIN KMSN 260905Z 33003KT 10SM CLR M11/M13 A3040 420 88 -2700 330/03 RMK AO2
14837KMSN MSN20021126031009611/26/02 03:10:31  5-MIN KMSN 260910Z 00000KT 10SM CLR M11/M13 A3040 420 88 -2700 000/00 RMK AO2
14837KMSN MSN20021126031509611/26/02 03:15:31  5-MIN KMSN 260915Z 00000KT 10SM CLR M12/M13 A3040 430 87 -2700 000/00 RMK AO2
14837KMSN MSN20021126032009611/26/02 03:20:31  5-MIN KMSN 260920Z 00000KT 10SM CLR M11/M13 A3040 430 88 -2700 000/00 RMK AO2
14837KMSN MSN20021126032509611/26/02 03:25:31  5-MIN KMSN 260925Z 01003KT 10SM CLR M11/M13 A3040 430 88 -2600 010/03 RMK AO2
14837KMSN MSN20021126033009611/26/02 03:30:31  5-MIN KMSN 260930Z 34003KT 10SM CLR M11/M13 A3039 430 88 -2600 340/03 RMK AO2
14837KMSN MSN20021126033509611/26/02 03:35:31  5-MIN KMSN 260935Z 00000KT 10SM CLR M11/M13 A3039 430 88 -2600 000/00 RMK AO2
14837KMSN MSN20021126034009611/26/02 03:40:31  5-MIN KMSN 260940Z 00000KT 10SM CLR M11/M12 A3040 430 88 -2600 000/00 RMK AO2
14837KMSN MSN20021126034509611/26/02 03:45:31  5-MIN KMSN 260945Z 33003KT 10SM CLR M11/M12 A3040 430 88 -2600 330/03 RMK AO2
14837KMSN MSN20021126035011311/26/02 03:50:31  5-MIN KMSN 260950Z 00000KT 10SM CLR M11/M12 A3039 430 88 -2600 000/00 RMK AO2 SLP308 T11061122
14837KMSN MSN20021126035509611/26/02 03:55:31  5-MIN KMSN 260955Z 00000KT 10SM CLR M11/M13 A3040 430 88 -2700 000/00 RMK AO2
14837KMSN MSN20021126040009611/26/02 04:00:31  5-MIN KMSN 261000Z 00000KT 10SM CLR M11/M12 A3040 430 88 -2600 000/00 RMK AO2
14837KMSN MSN20021126040509611/26/02 04:05:31  5-MIN KMSN 261005Z 00000KT 10SM CLR M10/M12 A3040 420 88 -2500 000/00 RMK AO2
14837KMSN MSN20021126041009611/26/02 04:10:31  5-MIN KMSN 261010Z 00000KT 10SM CLR M09/M12 A3040 420 84 -2400 000/00 RMK AO2
14837KMSN MSN20021126041509611/26/02 04:15:31  5-MIN KMSN 261015Z 00000KT 10SM CLR M10/M12 A3040 420 88 -2500 000/00 RMK AO2
14837KMSN MSN20021126042009611/26/02 04:20:31  5-MIN KMSN 261020Z 31003KT 10SM CLR M10/M12 A3040 420 88 -2500 310/03 RMK AO2
14837KMSN MSN20021126042509611/26/02 04:25:31  5-MIN KMSN 261025Z 31003KT 10SM CLR M10/M12 A3040 420 88 -2500 310/03 RMK AO2
14837KMSN MSN20021126043009611/26/02 04:30:31  5-MIN KMSN 261030Z 32004KT 10SM CLR M11/M12 A3040 420 92 -2600 320/04 RMK AO2
14837KMSN MSN20021126043509611/26/02 04:35:31  5-MIN KMSN 261035Z 32003KT 10SM CLR M10/M12 A3040 420 88 -2500 320/03 RMK AO2
14837KMSN MSN20021126044009611/26/02 04:40:31  5-MIN KMSN 261040Z 32003KT 10SM CLR M09/M11 A3040 420 88 -2400 320/03 RMK AO2
14837KMSN MSN20021126044509611/26/02 04:45:31  5-MIN KMSN 261045Z 33003KT 10SM CLR M09/M11 A3040 420 88 -2400 320/03 RMK AO2
14837KMSN MSN20021126045011311/26/02 04:50:31  5-MIN KMSN 261050Z 33003KT 10SM CLR M09/M11 A3040 430 88 -2400 330/03 RMK AO2 SLP308 T10941111
14837KMSN MSN20021126045509611/26/02 04:55:31  5-MIN KMSN 261055Z VRB03KT 10SM CLR M09/M11 A3040 430 84 -2400 VRB/03 RMK AO2
14837KMSN MSN20021126050009611/26/02 05:00:31  5-MIN KMSN 261100Z 00000KT 10SM CLR M09/M11 A3039 430 84 -2400 000/00 RMK AO2
14837KMSN MSN20021126050509611/26/02 05:05:31  5-MIN KMSN 261105Z 33003KT 10SM CLR M09/M11 A3040 430 84 -2400 330/03 RMK AO2
14837KMSN MSN20021126051009611/26/02 05:10:31  5-MIN KMSN 261110Z 00000KT 10SM CLR M09/M11 A3040 430 84 -2400 000/00 RMK AO2
14837KMSN MSN20021126051509611/26/02 05:15:31  5-MIN KMSN 261115Z 00000KT 10SM CLR M09/M11 A3039 430 84 -2400 000/00 RMK AO2
14837KMSN MSN20021126052009611/26/02 05:20:31  5-MIN KMSN 261120Z 00000KT 10SM CLR M09/M11 A3039 430 84 -2300 000/00 RMK AO2
14837KMSN MSN20021126052509611/26/02 05:25:31  5-MIN KMSN 261125Z 00000KT 10SM CLR M09/M11 A3039 430 84 -2300 000/00 RMK AO2
14837KMSN MSN20021126053009611/26/02 05:30:31  5-MIN KMSN 261130Z 34003KT 10SM CLR M09/M11 A3039 430 84 -2300 340/03 RMK AO2
14837KMSN MSN20021126053509611/26/02 05:35:31  5-MIN KMSN 261135Z 34003KT 10SM CLR M09/M11 A3039 430 84 -2400 340/03 RMK AO2
14837KMSN MSN20021126054009611/26/02 05:40:31  5-MIN KMSN 261140Z 35003KT 10SM CLR M09/M11 A3039 430 84 -2400 350/03 RMK AO2
14837KMSN MSN20021126054509611/26/02 05:45:31  5-MIN KMSN 261145Z 00000KT 10SM CLR M09/M11 A3039 430 84 -2400 000/00 RMK AO2
14837KMSN MSN20021126055013111/26/02 05:50:31  5-MIN KMSN 261150Z 34003KT 10SM CLR M09/M11 A3039 430 88 -2400 340/03 RMK AO2 SLP308 T10891106 11089 21117 55002
14837KMSN MSN20021126055509611/26/02 05:55:31  5-MIN KMSN 261155Z 33003KT 10SM CLR M09/M11 A3039 430 88 -2400 330/03 RMK AO2
14837KMSN MSN20021126060009611/26/02 06:00:31  5-MIN KMSN 261200Z 34003KT 10SM CLR M09/M11 A3039 430 88 -2400 340/03 RMK AO2
14837KMSN MSN20021126060509611/26/02 06:05:31  5-MIN KMSN 261205Z 00000KT 10SM CLR M09/M11 A3039 430 84 -2400 000/00 RMK AO2
14837KMSN MSN20021126061009611/26/02 06:10:31  5-MIN KMSN 261210Z 34003KT 10SM CLR M09/M11 A3039 430 88 -2400 340/03 RMK AO2
14837KMSN MSN20021126061509611/26/02 06:15:31  5-MIN KMSN 261215Z 35003KT 10SM CLR M08/M11 A3039 430 84 -2300 350/03 RMK AO2
14837KMSN MSN20021126062009611/26/02 06:20:31  5-MIN KMSN 261220Z 34003KT 10SM CLR M09/M11 A3039 430 88 -2400 340/03 RMK AO2
14837KMSN MSN20021126062509611/26/02 06:25:31  5-MIN KMSN 261225Z 34003KT 10SM CLR M08/M11 A3039 430 84 -2300 340/03 RMK AO2
14837KMSN MSN20021126063009611/26/02 06:30:31  5-MIN KMSN 261230Z 34003KT 10SM CLR M08/M11 A3039 430 84 -2300 340/03 RMK AO2
14837KMSN MSN20021126063509611/26/02 06:35:31  5-MIN KMSN 261235Z 35003KT 10SM CLR M08/M11 A3039 430 84 -2300 350/03 RMK AO2
14837KMSN MSN20021126064009611/26/02 06:40:31  5-MIN KMSN 261240Z 34003KT 10SM CLR M08/M10 A3039 430 88 -2300 340/03 RMK AO2
14837KMSN MSN20021126064509611/26/02 06:45:31  5-MIN KMSN 261245Z 35003KT 10SM CLR M08/M11 A3039 430 84 -2300 340/03 RMK AO2
14837KMSN MSN20021126065011311/26/02 06:50:31  5-MIN KMSN 261250Z 35003KT 10SM CLR M08/M11 A3039 430 84 -2300 340/03 RMK AO2 SLP306 T10831106
14837KMSN MSN20021126065509611/26/02 06:55:31  5-MIN KMSN 261255Z 34003KT 10SM CLR M08/M11 A3039 430 84 -2300 340/03 RMK AO2
14837KMSN MSN20021126070009611/26/02 07:00:31  5-MIN KMSN 261300Z 33003KT 10SM CLR M08/M11 A3039 430 84 -2300 330/03 RMK AO2
14837KMSN MSN20021126070509611/26/02 07:05:31  5-MIN KMSN 261305Z 33003KT 10SM CLR M08/M11 A3039 430 84 -2300 330/03 RMK AO2
14837KMSN MSN20021126071009611/26/02 07:10:31  5-MIN KMSN 261310Z 34003KT 10SM CLR M08/M11 A3039 430 84 -2300 340/03 RMK AO2
14837KMSN MSN20021126071509611/26/02 07:15:31  5-MIN KMSN 261315Z 32003KT 10SM CLR M08/M10 A3039 430 88 -2300 320/03 RMK AO2
14837KMSN MSN20021126072009511/26/02 07:20:31  5-MIN KMSN 261320Z 33003KT 9SM CLR M08/M10 A3039 430 88 -2300 320/03 RMK AO2
14837KMSN MSN20021126072509511/26/02 07:25:31  5-MIN KMSN 261325Z 33004KT 9SM CLR M08/M10 A3040 430 88 -2300 330/04 RMK AO2
14837KMSN MSN20021126073009511/26/02 07:30:31  5-MIN KMSN 261330Z 32003KT 9SM CLR M08/M10 A3040 430 88 -2300 320/03 RMK AO2
14837KMSN MSN20021126073509511/26/02 07:35:31  5-MIN KMSN 261335Z 31004KT 9SM CLR M08/M10 A3040 420 88 -2300 310/04 RMK AO2
14837KMSN MSN20021126074009511/26/02 07:40:31  5-MIN KMSN 261340Z 31003KT 9SM CLR M08/M10 A3040 420 84 -2200 310/03 RMK AO2
14837KMSN MSN20021126074509611/26/02 07:45:31  5-MIN KMSN 261345Z 32004KT 10SM CLR M08/M10 A3040 420 84 -2200 320/04 RMK AO2
14837KMSN MSN20021126075011311/26/02 07:50:31  5-MIN KMSN 261350Z 32003KT 10SM CLR M08/M09 A3040 420 88 -2200 320/03 RMK AO2 SLP312 T10781094
14837KMSN MSN20021126075509611/26/02 07:55:31  5-MIN KMSN 261355Z 33004KT 10SM CLR M08/M10 A3041 420 84 -2200 330/04 RMK AO2
14837KMSN MSN20021126080009611/26/02 08:00:31  5-MIN KMSN 261400Z 32004KT 10SM CLR M08/M09 A3041 420 88 -2200 320/04 RMK AO2
14837KMSN MSN20021126080509611/26/02 08:05:31  5-MIN KMSN 261405Z 33003KT 10SM CLR M08/M09 A3041 410 88 -2200 330/03 RMK AO2
14837KMSN MSN20021126081009611/26/02 08:10:31  5-MIN KMSN 261410Z 33003KT 10SM CLR M07/M09 A3041 410 84 -2200 330/03 RMK AO2
14837KMSN MSN20021126081509611/26/02 08:15:31  5-MIN KMSN 261415Z 00000KT 10SM CLR M07/M09 A3041 410 84 -2200 000/00 RMK AO2
14837KMSN MSN20021126082009611/26/02 08:20:31  5-MIN KMSN 261420Z 35003KT 10SM CLR M07/M09 A3041 410 84 -2200 340/03 RMK AO2
14837KMSN MSN20021126082509611/26/02 08:25:31  5-MIN KMSN 261425Z 00000KT 10SM CLR M07/M09 A3042 410 84 -2200 000/00 RMK AO2
14837KMSN MSN20021126083009611/26/02 08:30:31  5-MIN KMSN 261430Z 33004KT 10SM CLR M07/M09 A3042 410 88 -2200 330/04 RMK AO2
14837KMSN MSN20021126083509611/26/02 08:35:31  5-MIN KMSN 261435Z 32003KT 10SM CLR M07/M09 A3042 410 88 -2200 320/03 RMK AO2
14837KMSN MSN20021126084009611/26/02 08:40:31  5-MIN KMSN 261440Z 32004KT 10SM CLR M07/M09 A3042 410 84 -2100 310/04 RMK AO2
14837KMSN MSN20021126084509611/26/02 08:45:31  5-MIN KMSN 261445Z 33003KT 10SM CLR M07/M08 A3042 410 88 -2100 330/03 RMK AO2
14837KMSN MSN20021126085011911/26/02 08:50:31  5-MIN KMSN 261450Z 34003KT 10SM CLR M07/M08 A3041 410 88 -2100 340/03 RMK AO2 SLP316 T10671083 56005
14837KMSN MSN20021126085509611/26/02 08:55:31  5-MIN KMSN 261455Z 00000KT 10SM CLR M07/M08 A3042 410 88 -2100 000/00 RMK AO2
14837KMSN MSN20021126090009611/26/02 09:00:31  5-MIN KMSN 261500Z 33003KT 10SM CLR M06/M08 A3042 410 88 -2000 330/03 RMK AO2
14837KMSN MSN20021126090509611/26/02 09:05:31  5-MIN KMSN 261505Z VRB03KT 10SM CLR M06/M08 A3042 410 88 -2000 VRB/03 RMK AO2
14837KMSN MSN20021126091009611/26/02 09:10:31  5-MIN KMSN 261510Z 00000KT 10SM CLR M06/M08 A3042 410 88 -2000 000/00 RMK AO2
14837KMSN MSN20021126091509611/26/02 09:15:31  5-MIN KMSN 261515Z 34003KT 10SM CLR M06/M08 A3042 410 88 -2000 340/03 RMK AO2
14837KMSN MSN20021126092009611/26/02 09:20:31  5-MIN KMSN 261520Z 01004KT 10SM CLR M06/M08 A3041 410 84 -1900 010/04 RMK AO2
14837KMSN MSN20021126092509611/26/02 09:25:31  5-MIN KMSN 261525Z 01005KT 10SM CLR M06/M07 A3041 410 88 -1900 010/05 RMK AO2
14837KMSN MSN20021126093009611/26/02 09:30:31  5-MIN KMSN 261530Z 01005KT 10SM CLR M05/M07 A3042 410 84 -1900 010/05 RMK AO2
14837KMSN MSN20021126093509611/26/02 09:35:31  5-MIN KMSN 261535Z 02006KT 10SM CLR M05/M07 A3042 410 88 -1900 020/06 RMK AO2
14837KMSN MSN20021126094009611/26/02 09:40:31  5-MIN KMSN 261540Z 03006KT 10SM CLR M05/M07 A3042 410 88 -1900 030/06 RMK AO2
14837KMSN MSN20021126094509611/26/02 09:45:31  5-MIN KMSN 261545Z 36005KT 10SM CLR M05/M07 A3042 410 88 -1900 360/05 RMK AO2
14837KMSN MSN20021126095011311/26/02 09:50:31  5-MIN KMSN 261550Z 36006KT 10SM CLR M04/M07 A3042 410 84 -1800 360/06 RMK AO2 SLP315 T10441067
14837KMSN MSN20021126095509611/26/02 09:55:31  5-MIN KMSN 261555Z 01007KT 10SM CLR M04/M07 A3042 410 84 -1800 010/07 RMK AO2
14837KMSN MSN20021126100009611/26/02 10:00:31  5-MIN KMSN 261600Z 01006KT 10SM CLR M04/M06 A3042 410 88 -1800 010/06 RMK AO2
14837KMSN MSN20021126100509611/26/02 10:05:31  5-MIN KMSN 261605Z 02007KT 10SM CLR M04/M07 A3041 410 84 -1800 020/07 RMK AO2
14837KMSN MSN20021126101009611/26/02 10:10:31  5-MIN KMSN 261610Z 02006KT 10SM CLR M04/M06 A3041 410 88 -1800 020/06 RMK AO2
14837KMSN MSN20021126101509611/26/02 10:15:31  5-MIN KMSN 261615Z 01007KT 10SM CLR M04/M06 A3041 410 85 -1700 010/07 RMK AO2
14837KMSN MSN20021126102009911/26/02 10:20:31  5-MIN KMSN 261620Z 01006KT 10SM FEW015 M04/M06 A3042 410 85 -1700 010/06 RMK AO2
14837KMSN MSN20021126102509911/26/02 10:25:31  5-MIN KMSN 261625Z 01006KT 10SM FEW015 M04/M06 A3041 410 88 -1700 010/06 RMK AO2
14837KMSN MSN20021126103009911/26/02 10:30:31  5-MIN KMSN 261630Z 01006KT 10SM FEW015 M04/M06 A3041 410 88 -1700 010/06 RMK AO2
14837KMSN MSN20021126103509911/26/02 10:35:31  5-MIN KMSN 261635Z 02008KT 10SM FEW015 M03/M06 A3041 410 85 -1700 020/08 RMK AO2
14837KMSN MSN20021126104009911/26/02 10:40:31  5-MIN KMSN 261640Z 01007KT 10SM FEW015 M03/M05 A3041 420 88 -1700 010/07 RMK AO2
14837KMSN MSN20021126104509911/26/02 10:45:31  5-MIN KMSN 261645Z 02008KT 10SM FEW015 M03/M06 A3041 420 85 -1600 020/08 RMK AO2
14837KMSN MSN20021126105011611/26/02 10:50:31  5-MIN KMSN 261650Z 01008KT 10SM FEW015 M03/M06 A3041 420 85 -1600 010/08 RMK AO2 SLP312 T10331056
14837KMSN MSN20021126105509911/26/02 10:55:31  5-MIN KMSN 261655Z 36008KT 10SM FEW012 M03/M06 A3041 420 81 -1600 360/08 RMK AO2
14837KMSN MSN20021126110009611/26/02 11:00:31  5-MIN KMSN 261700Z 36007KT 10SM CLR M03/M05 A3040 420 85 -1600 360/07 RMK AO2
14837KMSN MSN20021126110509911/26/02 11:05:31  5-MIN KMSN 261705Z 01009KT 10SM FEW011 M03/M06 A3040 420 81 -1600 360/09 RMK AO2
14837KMSN MSN20021126111009911/26/02 11:10:31  5-MIN KMSN 261710Z 36007KT 10SM FEW011 M03/M06 A3040 430 81 -1600 360/07 RMK AO2
14837KMSN MSN20021126111509911/26/02 11:15:31  5-MIN KMSN 261715Z 01006KT 10SM FEW011 M03/M06 A3040 430 81 -1600 360/06 RMK AO2
14837KMSN MSN20021126112009911/26/02 11:20:31  5-MIN KMSN 261720Z 35006KT 10SM FEW011 M03/M06 A3040 430 81 -1600 350/06 RMK AO2
14837KMSN MSN20021126112509611/26/02 11:25:31  5-MIN KMSN 261725Z 01007KT 10SM CLR M03/M06 A3039 430 81 -1600 010/07 RMK AO2
14837KMSN MSN20021126113009911/26/02 11:30:31  5-MIN KMSN 261730Z 01009KT 10SM FEW012 M02/M06 A3039 430 78 -1500 010/09 RMK AO2
14837KMSN MSN20021126113509911/26/02 11:35:31  5-MIN KMSN 261735Z 03007KT 10SM FEW012 M02/M06 A3039 430 75 -1500 020/07 RMK AO2
14837KMSN MSN20021126114009911/26/02 11:40:31  5-MIN KMSN 261740Z 35007KT 10SM FEW012 M02/M06 A3039 430 75 -1400 350/07 RMK AO2
14837KMSN MSN20021126114509911/26/02 11:45:31  5-MIN KMSN 261745Z 36006KT 10SM FEW012 M02/M06 A3039 430 75 -1400 360/06 RMK AO2
14837KMSN MSN20021126115013411/26/02 11:50:31  5-MIN KMSN 261750Z 02008KT 10SM FEW012 M02/M06 A3039 440 72 -1400 020/08 RMK AO2 SLP304 T10171061 11017 21089 53008
14837KMSN MSN20021126115509911/26/02 11:55:31  5-MIN KMSN 261755Z 01008KT 10SM FEW012 M02/M06 A3038 440 72 -1400 010/08 RMK AO2
14837KMSN MSN20021126120009911/26/02 12:00:31  5-MIN KMSN 261800Z 01009KT 10SM FEW012 M02/M06 A3038 440 72 -1400 010/09 RMK AO2
14837KMSN MSN20021126120509911/26/02 12:05:31  5-MIN KMSN 261805Z 01008KT 10SM FEW012 M02/M06 A3038 440 72 -1400 010/08 RMK AO2
14837KMSN MSN20021126121009911/26/02 12:10:31  5-MIN KMSN 261810Z 03009KT 10SM FEW012 M01/M06 A3038 440 72 -1300 020/09 RMK AO2
14837KMSN MSN20021126121509911/26/02 12:15:31  5-MIN KMSN 261815Z 03008KT 10SM FEW012 M01/M06 A3038 440 69 -1300 030/08 RMK AO2
14837KMSN MSN20021126122009911/26/02 12:20:31  5-MIN KMSN 261820Z 35009KT 10SM FEW012 M01/M06 A3038 440 69 -1300 350/09 RMK AO2
14837KMSN MSN20021126122509911/26/02 12:25:31  5-MIN KMSN 261825Z 36008KT 10SM SCT017 M02/M07 A3038 440 69 -1400 360/08 RMK AO2
14837KMSN MSN20021126123009911/26/02 12:30:31  5-MIN KMSN 261830Z 03007KT 10SM SCT017 M01/M07 A3038 440 66 -1300 030/07 RMK AO2
14837KMSN MSN20021126123509911/26/02 12:35:31  5-MIN KMSN 261835Z 36009KT 10SM SCT017 M01/M07 A3038 450 66 -1300 360/09 RMK AO2
14837KMSN MSN20021126124009911/26/02 12:40:31  5-MIN KMSN 261840Z 02010KT 10SM SCT019 M01/M07 A3037 450 66 -1300 020/10 RMK AO2
14837KMSN MSN20021126124509911/26/02 12:45:31  5-MIN KMSN 261845Z 04008KT 10SM SCT019 M02/M07 A3037 450 69 -1400 040/08 RMK AO2
14837KMSN MSN20021126125011611/26/02 12:50:31  5-MIN KMSN 261850Z 36007KT 10SM FEW019 M01/M07 A3037 450 66 -1300 360/07 RMK AO2 SLP298 T10111067
14837KMSN MSN20021126125509911/26/02 12:55:31  5-MIN KMSN 261855Z 35006KT 10SM SCT019 M01/M07 A3037 450 66 -1300 350/06 RMK AO2
14837KMSN MSN20021126130009911/26/02 13:00:31  5-MIN KMSN 261900Z 01011KT 10SM SCT019 M01/M07 A3036 460 63 -1200 010/11 RMK AO2
14837KMSN MSN20021126130509911/26/02 13:05:31  5-MIN KMSN 261905Z 01007KT 10SM SCT019 M01/M07 A3036 460 63 -1300 010/07 RMK AO2
14837KMSN MSN20021126131009911/26/02 13:10:31  5-MIN KMSN 261910Z VRB06KT 10SM SCT019 M01/M07 A3036 460 63 -1300 VRB/06 RMK AO2
14837KMSN MSN20021126131509911/26/02 13:15:31  5-MIN KMSN 261915Z 02008KT 10SM SCT019 M01/M07 A3036 460 61 -1200 020/08 RMK AO2
14837KMSN MSN20021126132009911/26/02 13:20:31  5-MIN KMSN 261920Z 01010KT 10SM SCT019 M01/M07 A3036 460 61 -1200 010/10 RMK AO2
14837KMSN MSN20021126132509911/26/02 13:25:31  5-MIN KMSN 261925Z 34006KT 10SM SCT019 M01/M08 A3036 460 60 -1300 340/06 RMK AO2
14837KMSN MSN20021126133009911/26/02 13:30:31  5-MIN KMSN 261930Z 35006KT 10SM BKN025 M01/M07 A3036 460 61 -1200 350/06 RMK AO2
14837KMSN MSN20021126133509911/26/02 13:35:31  5-MIN KMSN 261935Z 36007KT 10SM BKN025 M01/M07 A3036 460 61 -1200 360/07 RMK AO2
14837KMSN MSN20021126134009911/26/02 13:40:31  5-MIN KMSN 261940Z 35007KT 10SM BKN025 M01/M07 A3036 460 63 -1300 350/07 RMK AO2
14837KMSN MSN20021126134509911/26/02 13:45:31  5-MIN KMSN 261945Z 35007KT 10SM BKN025 M01/M07 A3036 460 61 -1200 350/07 RMK AO2
14837KMSN MSN20021126135012311/26/02 13:50:31  5-MIN KMSN 261950Z 36007KT 10SM BKN027 BKN032 M01/M07 A3035 460 63 -1300 360/07 RMK AO2 SLP294 T10111072
14837KMSN MSN20021126135510611/26/02 13:55:31  5-MIN KMSN 261955Z 36006KT 10SM SCT027 SCT032 M01/M08 A3035 470 60 -1300 360/06 RMK AO2
14837KMSN MSN20021126140009911/26/02 14:00:31  5-MIN KMSN 262000Z 01010KT 10SM SCT029 M01/M08 A3035 470 58 -1200 010/10 RMK AO2
14837KMSN MSN20021126140509911/26/02 14:05:31  5-MIN KMSN 262005Z 01008KT 10SM SCT029 M01/M08 A3035 470 56 -1200 010/08 RMK AO2
14837KMSN MSN20021126141009911/26/02 14:10:31  5-MIN KMSN 262010Z 36007KT 10SM FEW027 M01/M08 A3035 460 58 -1300 360/07 RMK AO2
14837KMSN MSN20021126141509911/26/02 14:15:31  5-MIN KMSN 262015Z 02007KT 10SM FEW029 M01/M08 A3036 460 56 -1200 020/07 RMK AO2
14837KMSN MSN20021126142009911/26/02 14:20:31  5-MIN KMSN 262020Z 02009KT 10SM SCT029 M01/M08 A3036 460 56 -1200 020/09 RMK AO2
14837KMSN MSN20021126142509911/26/02 14:25:31  5-MIN KMSN 262025Z 36005KT 10SM SCT029 M01/M08 A3036 460 56 -1200 360/05 RMK AO2
14837KMSN MSN20021126143009911/26/02 14:30:31  5-MIN KMSN 262030Z 01009KT 10SM SCT029 M01/M08 A3036 460 58 -1300 010/09 RMK AO2
14837KMSN MSN20021126143509911/26/02 14:35:31  5-MIN KMSN 262035Z 01009KT 10SM SCT029 M01/M08 A3036 460 58 -1300 010/09 RMK AO2
14837KMSN MSN20021126144009911/26/02 14:40:31  5-MIN KMSN 262040Z 01008KT 10SM SCT029 M01/M09 A3036 460 55 -1300 010/08 RMK AO2
14837KMSN MSN20021126144509911/26/02 14:45:31  5-MIN KMSN 262045Z 35009KT 10SM SCT029 M01/M09 A3036 460 53 -1200 350/09 RMK AO2
14837KMSN MSN20021126145012211/26/02 14:50:31  5-MIN KMSN 262050Z 01008KT 10SM FEW033 M01/M09 A3036 460 53 -1200 010/08 RMK AO2 SLP294 T10061089 58010
14837KMSN MSN20021126145509911/26/02 14:55:31  5-MIN KMSN 262055Z 01008KT 10SM FEW033 M01/M09 A3036 460 53 -1200 010/08 RMK AO2
14837KMSN MSN20021126150009911/26/02 15:00:31  5-MIN KMSN 262100Z 01008KT 10SM FEW033 M01/M09 A3036 460 53 -1200 010/08 RMK AO2
14837KMSN MSN20021126150509911/26/02 15:05:31  5-MIN KMSN 262105Z 01008KT 10SM FEW033 M01/M09 A3036 460 51 -1200 010/08 RMK AO2
14837KMSN MSN20021126151009611/26/02 15:10:31  5-MIN KMSN 262110Z 02009KT 10SM CLR M01/M09 A3036 460 53 -1300 020/09 RMK AO2
14837KMSN MSN20021126151509611/26/02 15:15:31  5-MIN KMSN 262115Z 35005KT 10SM CLR M01/M09 A3036 460 53 -1300 350/05 RMK AO2
14837KMSN MSN20021126152009911/26/02 15:20:31  5-MIN KMSN 262120Z 01006KT 10SM FEW033 M01/M09 A3036 460 53 -1300 360/06 RMK AO2
14837KMSN MSN20021126152509911/26/02 15:25:31  5-MIN KMSN 262125Z 36010KT 10SM FEW033 M02/M09 A3036 460 55 -1400 360/10 RMK AO2
14837KMSN MSN20021126153009911/26/02 15:30:31  5-MIN KMSN 262130Z 36009KT 10SM FEW033 M01/M09 A3036 460 53 -1300 360/09 RMK AO2
14837KMSN MSN20021126153509911/26/02 15:35:31  5-MIN KMSN 262135Z 36009KT 10SM FEW033 M01/M10 A3036 460 51 -1300 360/09 RMK AO2
14837KMSN MSN20021126154009911/26/02 15:40:31  5-MIN KMSN 262140Z 36006KT 10SM FEW033 M01/M10 A3036 460 51 -1300 360/06 RMK AO2
14837KMSN MSN20021126154509911/26/02 15:45:31  5-MIN KMSN 262145Z 35005KT 10SM FEW033 M02/M10 A3036 460 53 -1400 350/05 RMK AO2
14837KMSN MSN20021126155011611/26/02 15:50:31  5-MIN KMSN 262150Z 35008KT 10SM FEW033 M02/M10 A3036 460 53 -1400 350/08 RMK AO2 SLP298 T10171100
14837KMSN MSN20021126155509911/26/02 15:55:31  5-MIN KMSN 262155Z 36007KT 10SM FEW033 M02/M10 A3037 460 53 -1400 360/07 RMK AO2
14837KMSN MSN20021126160009911/26/02 16:00:31  5-MIN KMSN 262200Z 36007KT 10SM FEW033 M02/M10 A3036 460 55 -1500 360/07 RMK AO2
14837KMSN MSN20021126160509911/26/02 16:05:31  5-MIN KMSN 262205Z 36006KT 10SM FEW033 M02/M10 A3036 460 55 -1500 360/06 RMK AO2
14837KMSN MSN20021126161009911/26/02 16:10:31  5-MIN KMSN 262210Z 36006KT 10SM FEW033 M03/M10 A3036 460 58 -1500 360/06 RMK AO2
14837KMSN MSN20021126161509911/26/02 16:15:31  5-MIN KMSN 262215Z 36005KT 10SM FEW033 M03/M10 A3036 460 58 -1500 360/05 RMK AO2
14837KMSN MSN20021126162009911/26/02 16:20:31  5-MIN KMSN 262220Z 36004KT 10SM FEW033 M03/M11 A3037 460 55 -1500 350/04 RMK AO2
14837KMSN MSN20021126162509911/26/02 16:25:31  5-MIN KMSN 262225Z 36004KT 10SM FEW033 M02/M11 A3037 460 53 -1500 360/04 RMK AO2
14837KMSN MSN20021126163009911/26/02 16:30:31  5-MIN KMSN 262230Z 35003KT 10SM FEW033 M03/M11 A3037 460 55 -1500 350/03 RMK AO2
14837KMSN MSN20021126163510611/26/02 16:35:31  5-MIN KMSN 262235Z 00000KT 10SM SCT033 SCT120 M02/M11 A3037 460 53 -1500 000/00 RMK AO2
14837KMSN MSN20021126164010611/26/02 16:40:31  5-MIN KMSN 262240Z 00000KT 10SM SCT033 SCT120 M02/M11 A3037 460 53 -1500 000/00 RMK AO2
14837KMSN MSN20021126164510611/26/02 16:45:31  5-MIN KMSN 262245Z 34003KT 10SM SCT033 SCT120 M03/M11 A3036 460 55 -1500 340/03 RMK AO2
14837KMSN MSN20021126165011611/26/02 16:50:31  5-MIN KMSN 262250Z 36006KT 10SM BKN041 M03/M11 A3036 460 55 -1500 360/06 RMK AO2 SLP298 T10281106
14837KMSN MSN20021126165509911/26/02 16:55:31  5-MIN KMSN 262255Z 36006KT 10SM BKN041 M03/M10 A3036 460 60 -1600 360/06 RMK AO2
14837KMSN MSN20021126170009911/26/02 17:00:31  5-MIN KMSN 262300Z 01006KT 10SM BKN041 M03/M09 A3037 460 63 -1600 010/06 RMK AO2
14837KMSN MSN20021126170509911/26/02 17:05:31  5-MIN KMSN 262305Z 36005KT 10SM BKN043 M04/M09 A3037 450 65 -1700 360/05 RMK AO2
14837KMSN MSN20021126171009911/26/02 17:10:31  5-MIN KMSN 262310Z 36005KT 10SM OVC043 M04/M09 A3037 460 65 -1700 360/05 RMK AO2
14837KMSN MSN20021126171509911/26/02 17:15:31  5-MIN KMSN 262315Z 01005KT 10SM BKN043 M04/M09 A3036 460 65 -1700 360/05 RMK AO2
14837KMSN MSN20021126172009911/26/02 17:20:31  5-MIN KMSN 262320Z 36005KT 10SM BKN043 M04/M10 A3036 460 63 -1700 360/05 RMK AO2
14837KMSN MSN20021126172509911/26/02 17:25:31  5-MIN KMSN 262325Z 35004KT 10SM SCT043 M04/M10 A3036 460 63 -1700 350/04 RMK AO2
14837KMSN MSN20021126173009911/26/02 17:30:31  5-MIN KMSN 262330Z 35004KT 10SM FEW043 M04/M10 A3037 460 63 -1700 350/04 RMK AO2
14837KMSN MSN20021126173509911/26/02 17:35:31  5-MIN KMSN 262335Z 35003KT 10SM FEW043 M04/M10 A3036 460 63 -1700 350/03 RMK AO2
14837KMSN MSN20021126174009611/26/02 17:40:31  5-MIN KMSN 262340Z 34003KT 10SM CLR M03/M10 A3037 460 60 -1600 340/03 RMK AO2
14837KMSN MSN20021126174509611/26/02 17:45:31  5-MIN KMSN 262345Z 34004KT 10SM CLR M04/M10 A3036 460 63 -1700 340/04 RMK AO2
14837KMSN MSN20021126175013111/26/02 17:50:31  5-MIN KMSN 262350Z 34003KT 10SM CLR M04/M10 A3036 460 63 -1700 340/03 RMK AO2 SLP297 T10391100 11006 21039 55009
14837KMSN MSN20021126175509611/26/02 17:55:31  5-MIN KMSN 262355Z 34004KT 10SM CLR M04/M10 A3036 460 63 -1700 340/04 RMK AO2
14837KMSN MSN20021126180009611/26/02 18:00:31  5-MIN KMSN 270000Z 33004KT 10SM CLR M04/M10 A3037 450 63 -1700 330/04 RMK AO2
14837KMSN MSN20021126180509611/26/02 18:05:31  5-MIN KMSN 270005Z 32003KT 10SM CLR M04/M11 A3037 450 62 -1700 320/03 RMK AO2
14837KMSN MSN20021126181009611/26/02 18:10:31  5-MIN KMSN 270010Z 33003KT 10SM CLR M06/M11 A3037 450 68 -1900 330/03 RMK AO2
14837KMSN MSN20021126181509611/26/02 18:15:31  5-MIN KMSN 270015Z 33004KT 10SM CLR M05/M11 A3037 450 65 -1800 330/04 RMK AO2
14837KMSN MSN20021126182009611/26/02 18:20:31  5-MIN KMSN 270020Z 33004KT 10SM CLR M04/M10 A3037 450 65 -1700 330/04 RMK AO2
14837KMSN MSN20021126182509911/26/02 18:25:31  5-MIN KMSN 270025Z 33004KT 10SM FEW045 M06/M11 A3037 450 68 -1900 320/04 RMK AO2
14837KMSN MSN20021126183009911/26/02 18:30:31  5-MIN KMSN 270030Z 34003KT 10SM SCT045 M04/M10 A3037 450 65 -1700 340/03 RMK AO2
14837KMSN MSN20021126183509911/26/02 18:35:31  5-MIN KMSN 270035Z 34003KT 10SM SCT045 M05/M10 A3037 450 68 -1800 330/03 RMK AO2
14837KMSN MSN20021126184009911/26/02 18:40:31  5-MIN KMSN 270040Z 00000KT 10SM SCT045 M06/M10 A3037 450 71 -1900 000/00 RMK AO2
14837KMSN MSN20021126184509911/26/02 18:45:31  5-MIN KMSN 270045Z 00000KT 10SM SCT045 M06/M10 A3037 450 74 -2000 000/00 RMK AO2
14837KMSN MSN20021126185011611/26/02 18:50:31  5-MIN KMSN 270050Z 30004KT 10SM BKN045 M07/M10 A3038 450 77 -2000 300/04 RMK AO2 SLP302 T10671100
14837KMSN MSN20021126185509911/26/02 18:55:31  5-MIN KMSN 270055Z 31005KT 10SM BKN045 M06/M10 A3038 450 74 -2000 310/05 RMK AO2
14837KMSN MSN20021126190009911/26/02 19:00:31  5-MIN KMSN 270100Z 31004KT 10SM BKN045 M06/M10 A3038 450 74 -2000 310/04 RMK AO2
14837KMSN MSN20021126190509911/26/02 19:05:31  5-MIN KMSN 270105Z 31005KT 10SM BKN045 M06/M10 A3038 450 71 -1900 310/05 RMK AO2
14837KMSN MSN20021126191009911/26/02 19:10:31  5-MIN KMSN 270110Z 32005KT 10SM BKN045 M06/M10 A3038 450 71 -1900 320/05 RMK AO2
14837KMSN MSN20021126191509911/26/02 19:15:31  5-MIN KMSN 270115Z 31005KT 10SM BKN045 M05/M11 A3037 450 65 -1800 310/05 RMK AO2
14837KMSN MSN20021126192009911/26/02 19:20:31  5-MIN KMSN 270120Z 31005KT 10SM SCT045 M05/M11 A3037 450 65 -1800 310/05 RMK AO2
14837KMSN MSN20021126192509911/26/02 19:25:31  5-MIN KMSN 270125Z 31005KT 10SM FEW045 M05/M11 A3037 450 62 -1800 310/05 RMK AO2
14837KMSN MSN20021126193009911/26/02 19:30:31  5-MIN KMSN 270130Z 32006KT 10SM FEW045 M05/M11 A3037 450 65 -1800 320/06 RMK AO2
14837KMSN MSN20021126193509911/26/02 19:35:31  5-MIN KMSN 270135Z VRB05KT 10SM FEW045 M05/M11 A3037 450 65 -1800 VRB/05 RMK AO2
14837KMSN MSN20021126194009611/26/02 19:40:31  5-MIN KMSN 270140Z 33004KT 10SM CLR M05/M11 A3037 450 65 -1800 330/04 RMK AO2
14837KMSN MSN20021126194509611/26/02 19:45:31  5-MIN KMSN 270145Z 34004KT 10SM CLR M06/M11 A3037 450 65 -1900 340/04 RMK AO2
14837KMSN MSN20021126195011311/26/02 19:50:31  5-MIN KMSN 270150Z 32003KT 10SM CLR M06/M11 A3037 450 68 -2000 310/03 RMK AO2 SLP301 T10611111
14837KMSN MSN20021126195509611/26/02 19:55:31  5-MIN KMSN 270155Z 31004KT 10SM CLR M06/M11 A3038 440 68 -1900 310/04 RMK AO2
14837KMSN MSN20021126200009611/26/02 20:00:31  5-MIN KMSN 270200Z 32004KT 10SM CLR M06/M11 A3038 450 68 -1900 320/04 RMK AO2
14837KMSN MSN20021126200509611/26/02 20:05:31  5-MIN KMSN 270205Z 32004KT 10SM CLR M06/M11 A3038 450 68 -1900 320/04 RMK AO2
14837KMSN MSN20021126201009611/26/02 20:10:31  5-MIN KMSN 270210Z 33004KT 10SM CLR M06/M11 A3038 450 68 -1900 330/04 RMK AO2
14837KMSN MSN20021126201509611/26/02 20:15:31  5-MIN KMSN 270215Z 33004KT 10SM CLR M06/M11 A3038 440 71 -2000 320/04 RMK AO2
14837KMSN MSN20021126202009611/26/02 20:20:31  5-MIN KMSN 270220Z 32004KT 10SM CLR M06/M11 A3038 440 68 -1900 320/04 RMK AO2
14837KMSN MSN20021126202509611/26/02 20:25:31  5-MIN KMSN 270225Z 31004KT 10SM CLR M06/M11 A3038 440 71 -2000 310/04 RMK AO2
14837KMSN MSN20021126203009611/26/02 20:30:31  5-MIN KMSN 270230Z 31005KT 10SM CLR M06/M11 A3038 440 71 -2000 310/05 RMK AO2
14837KMSN MSN20021126203509611/26/02 20:35:31  5-MIN KMSN 270235Z 32005KT 10SM CLR M06/M11 A3038 440 71 -2000 320/05 RMK AO2
14837KMSN MSN20021126204009611/26/02 20:40:31  5-MIN KMSN 270240Z 32004KT 10SM CLR M06/M11 A3038 440 68 -2000 320/04 RMK AO2
14837KMSN MSN20021126204509611/26/02 20:45:31  5-MIN KMSN 270245Z 30004KT 10SM CLR M06/M11 A3038 440 71 -2000 300/04 RMK AO2
14837KMSN MSN20021126205011911/26/02 20:50:31  5-MIN KMSN 270250Z 30004KT 10SM CLR M06/M11 A3038 440 68 -2000 300/04 RMK AO2 SLP304 T10611111 50002
14837KMSN MSN20021126205509611/26/02 20:55:31  5-MIN KMSN 270255Z 31004KT 10SM CLR M06/M11 A3038 440 71 -2000 310/04 RMK AO2
14837KMSN MSN20021126210009611/26/02 21:00:31  5-MIN KMSN 270300Z 32004KT 10SM CLR M06/M11 A3038 440 71 -2000 320/04 RMK AO2
14837KMSN MSN20021126210509611/26/02 21:05:31  5-MIN KMSN 270305Z 31003KT 10SM CLR M07/M11 A3038 440 74 -2000 300/03 RMK AO2
14837KMSN MSN20021126211009611/26/02 21:10:31  5-MIN KMSN 270310Z 00000KT 10SM CLR M07/M11 A3038 440 71 -2000 000/00 RMK AO2
14837KMSN MSN20021126211509611/26/02 21:15:31  5-MIN KMSN 270315Z 00000KT 10SM CLR M07/M11 A3038 440 71 -2000 000/00 RMK AO2
14837KMSN MSN20021126212009611/26/02 21:20:31  5-MIN KMSN 270320Z 29003KT 10SM CLR M07/M11 A3038 440 77 -2100 290/03 RMK AO2
14837KMSN MSN20021126212509611/26/02 21:25:31  5-MIN KMSN 270325Z 30003KT 10SM CLR M08/M11 A3038 440 80 -2300 300/03 RMK AO2
14837KMSN MSN20021126213009611/26/02 21:30:31  5-MIN KMSN 270330Z 00000KT 10SM CLR M08/M11 A3038 440 77 -2200 000/00 RMK AO2
14837KMSN MSN20021126213509611/26/02 21:35:31  5-MIN KMSN 270335Z 00000KT 10SM CLR M08/M12 A3038 440 77 -2300 000/00 RMK AO2
14837KMSN MSN20021126214009611/26/02 21:40:31  5-MIN KMSN 270340Z 00000KT 10SM CLR M07/M11 A3038 440 77 -2100 000/00 RMK AO2
14837KMSN MSN20021126214509611/26/02 21:45:31  5-MIN KMSN 270345Z 00000KT 10SM CLR M08/M11 A3038 440 80 -2200 000/00 RMK AO2
14837KMSN MSN20021126215011311/26/02 21:50:31  5-MIN KMSN 270350Z 00000KT 10SM CLR M08/M11 A3038 440 80 -2200 000/00 RMK AO2 SLP302 T10781106
14837KMSN MSN20021126215509611/26/02 21:55:31  5-MIN KMSN 270355Z 33003KT 10SM CLR M08/M11 A3038 450 77 -2200 330/03 RMK AO2
14837KMSN MSN20021126220009611/26/02 22:00:31  5-MIN KMSN 270400Z 32003KT 10SM CLR M08/M11 A3038 450 80 -2300 320/03 RMK AO2
14837KMSN MSN20021126220509611/26/02 22:05:31  5-MIN KMSN 270405Z 32003KT 10SM CLR M08/M11 A3037 450 80 -2300 320/03 RMK AO2
14837KMSN MSN20021126221009611/26/02 22:10:31  5-MIN KMSN 270410Z 32003KT 10SM CLR M09/M11 A3037 450 84 -2300 320/03 RMK AO2
14837KMSN MSN20021126221509611/26/02 22:15:31  5-MIN KMSN 270415Z 33003KT 10SM CLR M08/M11 A3037 450 80 -2300 330/03 RMK AO2
14837KMSN MSN20021126222009611/26/02 22:20:31  5-MIN KMSN 270420Z 31004KT 10SM CLR M08/M11 A3037 450 80 -2300 310/04 RMK AO2
14837KMSN MSN20021126222509611/26/02 22:25:31  5-MIN KMSN 270425Z 31004KT 10SM CLR M09/M11 A3037 450 84 -2300 300/04 RMK AO2
14837KMSN MSN20021126223009611/26/02 22:30:31  5-MIN KMSN 270430Z 30003KT 10SM CLR M09/M12 A3037 450 80 -2300 300/03 RMK AO2
14837KMSN MSN20021126223509611/26/02 22:35:31  5-MIN KMSN 270435Z 30004KT 10SM CLR M09/M12 A3037 450 84 -2400 300/04 RMK AO2
14837KMSN MSN20021126224009611/26/02 22:40:31  5-MIN KMSN 270440Z 31004KT 10SM CLR M09/M11 A3037 450 84 -2300 310/04 RMK AO2
14837KMSN MSN20021126224509611/26/02 22:45:31  5-MIN KMSN 270445Z 31004KT 10SM CLR M08/M11 A3038 450 80 -2300 310/04 RMK AO2
14837KMSN MSN20021126225011311/26/02 22:50:31  5-MIN KMSN 270450Z 31004KT 10SM CLR M08/M11 A3037 450 77 -2200 300/04 RMK AO2 SLP300 T10781111
14837KMSN MSN20021126225509611/26/02 22:55:31  5-MIN KMSN 270455Z 30003KT 10SM CLR M08/M11 A3037 450 80 -2300 300/03 RMK AO2
14837KMSN MSN20021126230009611/26/02 23:00:31  5-MIN KMSN 270500Z 30004KT 10SM CLR M08/M11 A3037 450 77 -2200 300/04 RMK AO2
14837KMSN MSN20021126230509611/26/02 23:05:31  5-MIN KMSN 270505Z 31004KT 10SM CLR M08/M11 A3037 450 77 -2200 300/04 RMK AO2
14837KMSN MSN20021126231009611/26/02 23:10:31  5-MIN KMSN 270510Z 30004KT 10SM CLR M08/M11 A3037 450 80 -2300 300/04 RMK AO2
14837KMSN MSN20021126231509611/26/02 23:15:31  5-MIN KMSN 270515Z 31004KT 10SM CLR M08/M11 A3037 450 80 -2300 310/04 RMK AO2
14837KMSN MSN20021126232009611/26/02 23:20:31  5-MIN KMSN 270520Z 30004KT 10SM CLR M08/M11 A3037 450 80 -2300 300/04 RMK AO2
14837KMSN MSN20021126232509611/26/02 23:25:31  5-MIN KMSN 270525Z 31004KT 10SM CLR M08/M11 A3037 450 77 -2200 310/04 RMK AO2
14837KMSN MSN20021126233009611/26/02 23:30:31  5-MIN KMSN 270530Z 31003KT 10SM CLR M08/M11 A3037 450 80 -2200 310/03 RMK AO2
14837KMSN MSN20021126233509611/26/02 23:35:31  5-MIN KMSN 270535Z 30003KT 10SM CLR M08/M11 A3037 450 77 -2200 300/03 RMK AO2
14837KMSN MSN20021126234009611/26/02 23:40:31  5-MIN KMSN 270540Z 30003KT 10SM CLR M08/M11 A3037 450 80 -2300 300/03 RMK AO2
14837KMSN MSN20021126234509611/26/02 23:45:31  5-MIN KMSN 270545Z 29003KT 10SM CLR M08/M11 A3038 450 80 -2300 290/03 RMK AO2
14837KMSN MSN20021126235014111/26/02 23:50:31  5-MIN KMSN 270550Z 29003KT 10SM CLR M09/M11 A3037 450 84 -2300 290/03 RMK AO2 SLP300 T10891111 11039 21094 410061117 51006
14837KMSN MSN20021126235509611/26/02 23:55:31  5-MIN KMSN 270555Z 30003KT 10SM CLR M09/M12 A3037 450 84 -2400 300/03 RMK AO2
14837KMSN MSN20021127000009611/27/02 00:00:31  5-MIN KMSN 270600Z 00000KT 10SM CLR M09/M12 A3037 450 80 -2300 000/00 RMK AO2
14837KMSN MSN20021127000509611/27/02 00:05:31  5-MIN KMSN 270605Z 01003KT 10SM CLR M09/M11 A3037 450 84 -2300 010/03 RMK AO2
14837KMSN MSN20021127001009611/27/02 00:10:31  5-MIN KMSN 270610Z 01003KT 10SM CLR M09/M12 A3037 460 80 -2400 360/03 RMK AO2
14837KMSN MSN20021127001509611/27/02 00:15:31  5-MIN KMSN 270615Z 01003KT 10SM CLR M11/M13 A3036 460 84 -2500 360/03 RMK AO2
14837KMSN MSN20021127002009611/27/02 00:20:31  5-MIN KMSN 270620Z 00000KT 10SM CLR M11/M13 A3037 460 84 -2500 000/00 RMK AO2
14837KMSN MSN20021127002509611/27/02 00:25:31  5-MIN KMSN 270625Z 00000KT 10SM CLR M09/M12 A3036 460 80 -2300 000/00 RMK AO2
14837KMSN MSN20021127003009611/27/02 00:30:31  5-MIN KMSN 270630Z 00000KT 10SM CLR M09/M12 A3036 460 80 -2300 000/00 RMK AO2
14837KMSN MSN20021127003509611/27/02 00:35:31  5-MIN KMSN 270635Z 34003KT 10SM CLR M10/M12 A3036 460 84 -2500 340/03 RMK AO2
14837KMSN MSN20021127004009611/27/02 00:40:31  5-MIN KMSN 270640Z 32003KT 10SM CLR M10/M12 A3036 460 84 -2500 320/03 RMK AO2
14837KMSN MSN20021127004509611/27/02 00:45:31  5-MIN KMSN 270645Z 32003KT 10SM CLR M11/M12 A3036 460 88 -2500 320/03 RMK AO2
14837KMSN MSN20021127005011311/27/02 00:50:31  5-MIN KMSN 270650Z 34003KT 10SM CLR M10/M12 A3036 460 88 -2500 340/03 RMK AO2 SLP293 T11001117
14837KMSN MSN20021127005509611/27/02 00:55:31  5-MIN KMSN 270655Z 00000KT 10SM CLR M10/M12 A3036 460 88 -2500 000/00 RMK AO2
14837KMSN MSN20021127010009611/27/02 01:00:31  5-MIN KMSN 270700Z 00000KT 10SM CLR M11/M12 A3036 460 88 -2500 000/00 RMK AO2
14837KMSN MSN20021127010509611/27/02 01:05:31  5-MIN KMSN 270705Z 00000KT 10SM CLR M11/M12 A3036 460 88 -2500 000/00 RMK AO2
14837KMSN MSN20021127011009611/27/02 01:10:31  5-MIN KMSN 270710Z 29003KT 10SM CLR M11/M12 A3036 460 88 -2500 290/03 RMK AO2
14837KMSN MSN20021127011509611/27/02 01:15:31  5-MIN KMSN 270715Z 29003KT 10SM CLR M11/M12 A3036 460 88 -2500 290/03 RMK AO2
14837KMSN MSN20021127012009611/27/02 01:20:31  5-MIN KMSN 270720Z 29004KT 10SM CLR M11/M12 A3036 460 92 -2600 290/04 RMK AO2
14837KMSN MSN20021127012509611/27/02 01:25:31  5-MIN KMSN 270725Z 30004KT 10SM CLR M11/M12 A3036 460 92 -2600 300/04 RMK AO2
14837KMSN MSN20021127013009611/27/02 01:30:31  5-MIN KMSN 270730Z 30004KT 10SM CLR M11/M12 A3036 460 92 -2500 300/04 RMK AO2
14837KMSN MSN20021127013509611/27/02 01:35:31  5-MIN KMSN 270735Z 30004KT 10SM CLR M10/M12 A3036 460 88 -2500 300/04 RMK AO2
14837KMSN MSN20021127014009611/27/02 01:40:31  5-MIN KMSN 270740Z 30005KT 10SM CLR M09/M11 A3036 460 88 -2400 300/05 RMK AO2
14837KMSN MSN20021127014509611/27/02 01:45:31  5-MIN KMSN 270745Z 30004KT 10SM CLR M09/M11 A3036 460 84 -2300 300/04 RMK AO2
14837KMSN MSN20021127015011311/27/02 01:50:31  5-MIN KMSN 270750Z 30004KT 10SM CLR M09/M11 A3036 460 84 -2300 300/04 RMK AO2 SLP295 T10891111
14837KMSN MSN20021127015509611/27/02 01:55:31  5-MIN KMSN 270755Z 30003KT 10SM CLR M09/M11 A3036 460 84 -2300 300/03 RMK AO2
14837KMSN MSN20021127020009611/27/02 02:00:31  5-MIN KMSN 270800Z 31003KT 10SM CLR M08/M11 A3036 460 80 -2200 310/03 RMK AO2
14837KMSN MSN20021127020509611/27/02 02:05:31  5-MIN KMSN 270805Z 32003KT 10SM CLR M09/M12 A3035 460 80 -2300 320/03 RMK AO2
14837KMSN MSN20021127021009611/27/02 02:10:31  5-MIN KMSN 270810Z 00000KT 10SM CLR M09/M12 A3036 460 84 -2400 000/00 RMK AO2
14837KMSN MSN20021127021509611/27/02 02:15:31  5-MIN KMSN 270815Z 00000KT 10SM CLR M09/M11 A3036 460 88 -2400 000/00 RMK AO2
14837KMSN MSN20021127022009611/27/02 02:20:31  5-MIN KMSN 270820Z 00000KT 10SM CLR M10/M12 A3036 460 84 -2500 000/00 RMK AO2
14837KMSN MSN20021127022509611/27/02 02:25:31  5-MIN KMSN 270825Z 00000KT 10SM CLR M10/M12 A3036 460 88 -2500 000/00 RMK AO2
14837KMSN MSN20021127023009611/27/02 02:30:31  5-MIN KMSN 270830Z 29003KT 10SM CLR M10/M12 A3036 460 88 -2500 290/03 RMK AO2
14837KMSN MSN20021127023509611/27/02 02:35:31  5-MIN KMSN 270835Z 30004KT 10SM CLR M10/M12 A3036 460 88 -2500 300/04 RMK AO2
14837KMSN MSN20021127024009611/27/02 02:40:31  5-MIN KMSN 270840Z 29005KT 10SM CLR M10/M12 A3036 460 88 -2500 290/05 RMK AO2
14837KMSN MSN20021127024509611/27/02 02:45:31  5-MIN KMSN 270845Z 29005KT 10SM CLR M09/M11 A3036 460 84 -2300 290/05 RMK AO2
14837KMSN MSN20021127025011911/27/02 02:50:31  5-MIN KMSN 270850Z 30006KT 10SM CLR M08/M11 A3036 460 80 -2200 300/06 RMK AO2 SLP295 T10831111 55002
14837KMSN MSN20021127025509611/27/02 02:55:31  5-MIN KMSN 270855Z 30005KT 10SM CLR M08/M11 A3036 460 80 -2200 300/05 RMK AO2
14837KMSN MSN20021127030009611/27/02 03:00:31  5-MIN KMSN 270900Z 30003KT 10SM CLR M08/M11 A3036 460 80 -2200 300/03 RMK AO2
14837KMSN MSN20021127030509611/27/02 03:05:31  5-MIN KMSN 270905Z 00000KT 10SM CLR M08/M11 A3036 460 80 -2200 000/00 RMK AO2
14837KMSN MSN20021127031009611/27/02 03:10:31  5-MIN KMSN 270910Z 00000KT 10SM CLR M08/M11 A3036 460 80 -2200 000/00 RMK AO2
14837KMSN MSN20021127031509611/27/02 03:15:31  5-MIN KMSN 270915Z 00000KT 10SM CLR M08/M11 A3036 460 80 -2200 000/00 RMK AO2
14837KMSN MSN20021127032009611/27/02 03:20:31  5-MIN KMSN 270920Z 00000KT 10SM CLR M09/M12 A3036 460 80 -2300 000/00 RMK AO2
14837KMSN MSN20021127032509611/27/02 03:25:31  5-MIN KMSN 270925Z 00000KT 10SM CLR M09/M12 A3035 470 84 -2400 000/00 RMK AO2
14837KMSN MSN20021127033009611/27/02 03:30:31  5-MIN KMSN 270930Z 00000KT 10SM CLR M09/M12 A3035 470 80 -2400 000/00 RMK AO2
14837KMSN MSN20021127033509611/27/02 03:35:31  5-MIN KMSN 270935Z 00000KT 10SM CLR M09/M12 A3035 470 84 -2400 000/00 RMK AO2
14837KMSN MSN20021127034009611/27/02 03:40:31  5-MIN KMSN 270940Z 00000KT 10SM CLR M09/M12 A3035 470 84 -2400 000/00 RMK AO2
14837KMSN MSN20021127034509611/27/02 03:45:31  5-MIN KMSN 270945Z 00000KT 10SM CLR M10/M12 A3035 470 88 -2500 000/00 RMK AO2
14837KMSN MSN20021127035011311/27/02 03:50:31  5-MIN KMSN 270950Z 00000KT 10SM CLR M10/M12 A3035 470 84 -2400 000/00 RMK AO2 SLP291 T11001122
14837KMSN MSN20021127035509611/27/02 03:55:31  5-MIN KMSN 270955Z 00000KT 10SM CLR M11/M13 A3035 470 88 -2600 000/00 RMK AO2
14837KMSN MSN20021127040009611/27/02 04:00:31  5-MIN KMSN 271000Z 00000KT 10SM CLR M11/M13 A3035 470 84 -2500 000/00 RMK AO2
14837KMSN MSN20021127040509611/27/02 04:05:31  5-MIN KMSN 271005Z 00000KT 10SM CLR M11/M13 A3035 470 84 -2500 000/00 RMK AO2
14837KMSN MSN20021127041009611/27/02 04:10:31  5-MIN KMSN 271010Z 00000KT 10SM CLR M11/M13 A3035 470 84 -2500 000/00 RMK AO2
14837KMSN MSN20021127041509611/27/02 04:15:31  5-MIN KMSN 271015Z 00000KT 10SM CLR M11/M13 A3035 470 84 -2500 000/00 RMK AO2
14837KMSN MSN20021127042009611/27/02 04:20:31  5-MIN KMSN 271020Z 00000KT 10SM CLR M11/M13 A3035 470 84 -2500 000/00 RMK AO2
14837KMSN MSN20021127042509611/27/02 04:25:31  5-MIN KMSN 271025Z 00000KT 10SM CLR M11/M13 A3035 470 88 -2600 000/00 RMK AO2
14837KMSN MSN20021127043009611/27/02 04:30:31  5-MIN KMSN 271030Z 00000KT 10SM CLR M11/M12 A3035 470 88 -2500 000/00 RMK AO2
14837KMSN MSN20021127043509611/27/02 04:35:31  5-MIN KMSN 271035Z 00000KT 10SM CLR M11/M12 A3035 470 88 -2500 000/00 RMK AO2
14837KMSN MSN20021127044009611/27/02 04:40:31  5-MIN KMSN 271040Z 00000KT 10SM CLR M11/M12 A3035 470 88 -2500 000/00 RMK AO2
14837KMSN MSN20021127044509611/27/02 04:45:31  5-MIN KMSN 271045Z 00000KT 10SM CLR M10/M12 A3035 470 88 -2500 000/00 RMK AO2
14837KMSN MSN20021127045011311/27/02 04:50:31  5-MIN KMSN 271050Z 00000KT 10SM CLR M11/M12 A3035 470 92 -2500 000/00 RMK AO2 SLP294 T11061117
14837KMSN MSN20021127045509611/27/02 04:55:31  5-MIN KMSN 271055Z 00000KT 10SM CLR M11/M12 A3035 470 88 -2500 000/00 RMK AO2
14837KMSN MSN20021127050009611/27/02 05:00:31  5-MIN KMSN 271100Z 00000KT 10SM CLR M11/M12 A3035 470 88 -2500 000/00 RMK AO2
14837KMSN MSN20021127050509611/27/02 05:05:31  5-MIN KMSN 271105Z 00000KT 10SM CLR M11/M12 A3035 470 92 -2600 000/00 RMK AO2
14837KMSN MSN20021127051009611/27/02 05:10:31  5-MIN KMSN 271110Z 00000KT 10SM CLR M11/M12 A3036 460 92 -2600 000/00 RMK AO2
14837KMSN MSN20021127051509611/27/02 05:15:31  5-MIN KMSN 271115Z 00000KT 10SM CLR M11/M12 A3036 460 92 -2600 000/00 RMK AO2
14837KMSN MSN20021127052009611/27/02 05:20:31  5-MIN KMSN 271120Z 00000KT 10SM CLR M11/M12 A3036 460 92 -2500 000/00 RMK AO2
14837KMSN MSN20021127052509611/27/02 05:25:31  5-MIN KMSN 271125Z 00000KT 10SM CLR M11/M12 A3036 460 92 -2500 000/00 RMK AO2
14837KMSN MSN20021127053009611/27/02 05:30:31  5-MIN KMSN 271130Z 00000KT 10SM CLR M11/M12 A3036 460 92 -2600 000/00 RMK AO2
14837KMSN MSN20021127053509611/27/02 05:35:31  5-MIN KMSN 271135Z 00000KT 10SM CLR M11/M13 A3036 460 88 -2600 000/00 RMK AO2
14837KMSN MSN20021127054009611/27/02 05:40:31  5-MIN KMSN 271140Z 00000KT 10SM CLR M11/M12 A3037 450 92 -2600 000/00 RMK AO2
14837KMSN MSN20021127054509611/27/02 05:45:31  5-MIN KMSN 271145Z 26003KT 10SM CLR M11/M12 A3037 450 92 -2600 260/03 RMK AO2
14837KMSN MSN20021127055013111/27/02 05:50:31  5-MIN KMSN 271150Z 00000KT 10SM CLR M11/M13 A3037 460 88 -2600 000/00 RMK AO2 SLP299 T11111128 11083 21111 56004
14837KMSN MSN20021127055509611/27/02 05:55:31  5-MIN KMSN 271155Z 00000KT 10SM CLR M11/M12 A3036 460 88 -2500 000/00 RMK AO2
14837KMSN MSN20021127060009611/27/02 06:00:31  5-MIN KMSN 271200Z 00000KT 10SM CLR M11/M12 A3036 460 92 -2600 000/00 RMK AO2
14837KMSN MSN20021127060509611/27/02 06:05:31  5-MIN KMSN 271205Z 00000KT 10SM CLR M11/M12 A3037 450 92 -2600 000/00 RMK AO2
14837KMSN MSN20021127061009611/27/02 06:10:31  5-MIN KMSN 271210Z 00000KT 10SM CLR M11/M12 A3037 450 92 -2600 000/00 RMK AO2
14837KMSN MSN20021127061509611/27/02 06:15:31  5-MIN KMSN 271215Z 29003KT 10SM CLR M11/M12 A3037 450 92 -2500 280/03 RMK AO2
14837KMSN MSN20021127062009611/27/02 06:20:31  5-MIN KMSN 271220Z 00000KT 10SM CLR M11/M12 A3037 450 92 -2500 000/00 RMK AO2
14837KMSN MSN20021127062509611/27/02 06:25:31  5-MIN KMSN 271225Z 00000KT 10SM CLR M11/M12 A3037 450 92 -2500 000/00 RMK AO2
14837KMSN MSN20021127063009911/27/02 06:30:31  5-MIN KMSN 271230Z VRB03KT 10SM FEW042 M09/M11 A3037 450 88 -2400 VRB/03 RMK AO2
14837KMSN MSN20021127063509911/27/02 06:35:31  5-MIN KMSN 271235Z 27004KT 10SM SCT042 M09/M11 A3037 450 88 -2400 270/04 RMK AO2
14837KMSN MSN20021127064009911/27/02 06:40:31  5-MIN KMSN 271240Z 28004KT 10SM SCT042 M09/M11 A3037 450 88 -2400 270/04 RMK AO2
14837KMSN MSN20021127064509911/27/02 06:45:31  5-MIN KMSN 271245Z 28004KT 10SM FEW042 M09/M11 A3037 450 88 -2400 280/04 RMK AO2
14837KMSN MSN20021127065011611/27/02 06:50:31  5-MIN KMSN 271250Z VRB03KT 10SM BKN042 M09/M12 A3037 450 84 -2400 VRB/03 RMK AO2 SLP299 T10941117
14837KMSN MSN20021127065509911/27/02 06:55:31  5-MIN KMSN 271255Z VRB03KT 10SM BKN042 M09/M11 A3037 450 88 -2400 VRB/03 RMK AO2
14837KMSN MSN20021127070009911/27/02 07:00:31  5-MIN KMSN 271300Z VRB03KT 10SM BKN042 M09/M11 A3037 460 88 -2400 VRB/03 RMK AO2
14837KMSN MSN20021127070509911/27/02 07:05:31  5-MIN KMSN 271305Z VRB03KT 10SM BKN042 M09/M11 A3036 460 88 -2400 VRB/03 RMK AO2
14837KMSN MSN20021127071009911/27/02 07:10:31  5-MIN KMSN 271310Z VRB03KT 10SM OVC042 M09/M11 A3036 460 84 -2300 VRB/03 RMK AO2
14837KMSN MSN20021127071509911/27/02 07:15:31  5-MIN KMSN 271315Z VRB03KT 10SM BKN042 M09/M11 A3036 460 84 -2300 VRB/03 RMK AO2
14837KMSN MSN20021127072009911/27/02 07:20:31  5-MIN KMSN 271320Z VRB03KT 10SM BKN042 M09/M11 A3036 460 84 -2300 VRB/03 RMK AO2
14837KMSN MSN20021127072509911/27/02 07:25:31  5-MIN KMSN 271325Z 00000KT 10SM BKN042 M08/M11 A3036 460 84 -2200 000/00 RMK AO2
14837KMSN MSN20021127073009911/27/02 07:30:31  5-MIN KMSN 271330Z 00000KT 10SM BKN042 M09/M11 A3037 460 84 -2300 000/00 RMK AO2
14837KMSN MSN20021127073509911/27/02 07:35:31  5-MIN KMSN 271335Z 00000KT 10SM BKN042 M08/M11 A3036 460 84 -2200 000/00 RMK AO2
14837KMSN MSN20021127074009911/27/02 07:40:31  5-MIN KMSN 271340Z 00000KT 10SM BKN042 M08/M11 A3036 460 84 -2200 000/00 RMK AO2
14837KMSN MSN20021127074509911/27/02 07:45:31  5-MIN KMSN 271345Z 00000KT 10SM BKN042 M08/M11 A3036 460 84 -2200 000/00 RMK AO2
14837KMSN MSN20021127075011611/27/02 07:50:31  5-MIN KMSN 271350Z 00000KT 10SM BKN042 M08/M11 A3036 460 84 -2200 000/00 RMK AO2 SLP299 T10831106
14837KMSN MSN20021127075509911/27/02 07:55:31  5-MIN KMSN 271355Z 00000KT 10SM OVC040 M08/M11 A3036 460 80 -2200 000/00 RMK AO2
14837KMSN MSN20021127080009911/27/02 08:00:31  5-MIN KMSN 271400Z 00000KT 10SM OVC040 M08/M11 A3036 460 80 -2200 000/00 RMK AO2
14837KMSN MSN20021127080509911/27/02 08:05:31  5-MIN KMSN 271405Z 00000KT 10SM OVC040 M08/M10 A3036 460 84 -2200 000/00 RMK AO2
14837KMSN MSN20021127081009911/27/02 08:10:31  5-MIN KMSN 271410Z 00000KT 10SM BKN040 M08/M10 A3036 460 84 -2200 000/00 RMK AO2
14837KMSN MSN20021127081509911/27/02 08:15:31  5-MIN KMSN 271415Z 00000KT 10SM BKN040 M08/M10 A3037 450 84 -2200 000/00 RMK AO2
14837KMSN MSN20021127082009911/27/02 08:20:31  5-MIN KMSN 271420Z VRB03KT 10SM BKN040 M07/M09 A3037 450 84 -2100 VRB/03 RMK AO2
14837KMSN MSN20021127082509911/27/02 08:25:31  5-MIN KMSN 271425Z 00000KT 10SM BKN040 M07/M09 A3037 450 84 -2100 000/00 RMK AO2
14837KMSN MSN20021127083009911/27/02 08:30:31  5-MIN KMSN 271430Z 00000KT 10SM BKN040 M07/M09 A3037 450 84 -2100 000/00 RMK AO2
14837KMSN MSN20021127083509911/27/02 08:35:31  5-MIN KMSN 271435Z 00000KT 10SM BKN040 M07/M09 A3037 450 81 -2000 000/00 RMK AO2
14837KMSN MSN20021127084009911/27/02 08:40:31  5-MIN KMSN 271440Z 33003KT 10SM OVC038 M07/M09 A3037 450 84 -2000 330/03 RMK AO2
14837KMSN MSN20021127084509911/27/02 08:45:31  5-MIN KMSN 271445Z VRB03KT 10SM OVC038 M07/M09 A3036 460 81 -2000 VRB/03 RMK AO2
14837KMSN MSN20021127085012211/27/02 08:50:31  5-MIN KMSN 271450Z 32003KT 10SM BKN038 M07/M09 A3036 460 81 -2000 310/03 RMK AO2 SLP298 T10671094 53001
14837KMSN MSN20021127085509911/27/02 08:55:31  5-MIN KMSN 271455Z 31003KT 10SM BKN038 M07/M09 A3037 450 84 -2000 310/03 RMK AO2
14837KMSN MSN20021127090009911/27/02 09:00:31  5-MIN KMSN 271500Z 30003KT 10SM BKN038 M07/M08 A3036 460 88 -2000 300/03 RMK AO2
14837KMSN MSN20021127090509911/27/02 09:05:31  5-MIN KMSN 271505Z 00000KT 10SM BKN038 M06/M09 A3036 460 81 -2000 000/00 RMK AO2
14837KMSN MSN20021127091009911/27/02 09:10:31  5-MIN KMSN 271510Z 31003KT 10SM BKN038 M06/M09 A3036 460 81 -2000 310/03 RMK AO2
14837KMSN MSN20021127091509911/27/02 09:15:31  5-MIN KMSN 271515Z 00000KT 10SM BKN038 M06/M09 A3036 460 81 -2000 000/00 RMK AO2
14837KMSN MSN20021127092009911/27/02 09:20:31  5-MIN KMSN 271520Z VRB04KT 10SM BKN038 M06/M08 A3036 460 84 -2000 VRB/04 RMK AO2
14837KMSN MSN20021127092509911/27/02 09:25:31  5-MIN KMSN 271525Z 31004KT 10SM BKN038 M06/M08 A3037 450 81 -1900 310/04 RMK AO2
14837KMSN MSN20021127093009911/27/02 09:30:31  5-MIN KMSN 271530Z 31005KT 10SM BKN038 M06/M08 A3037 460 81 -1900 310/05 RMK AO2
14837KMSN MSN20021127093509911/27/02 09:35:31  5-MIN KMSN 271535Z 32004KT 10SM BKN038 M06/M08 A3036 460 81 -1900 320/04 RMK AO2
14837KMSN MSN20021127094009911/27/02 09:40:31  5-MIN KMSN 271540Z 33005KT 10SM BKN038 M05/M08 A3036 460 77 -1800 330/05 RMK AO2
14837KMSN MSN20021127094509911/27/02 09:45:31  5-MIN KMSN 271545Z VRB05KT 10SM BKN038 M04/M08 A3037 460 78 -1700 VRB/05 RMK AO2
14837KMSN MSN20021127095011611/27/02 09:50:31  5-MIN KMSN 271550Z 33005KT 10SM BKN038 M04/M08 A3037 450 78 -1700 330/05 RMK AO2 SLP299 T10441078
14837KMSN MSN20021127095509911/27/02 09:55:31  5-MIN KMSN 271555Z VRB06KT 10SM OVC038 M04/M08 A3037 450 74 -1700 VRB/06 RMK AO2
14837KMSN MSN20021127100009911/27/02 10:00:31  5-MIN KMSN 271600Z VRB05KT 10SM OVC038 M04/M08 A3037 450 71 -1700 VRB/05 RMK AO2
14837KMSN MSN20021127100509911/27/02 10:05:31  5-MIN KMSN 271605Z 28006KT 10SM BKN038 M04/M08 A3037 450 74 -1800 280/06 RMK AO2
14837KMSN MSN20021127101009911/27/02 10:10:31  5-MIN KMSN 271610Z 31005KT 10SM BKN038 M04/M08 A3037 450 71 -1700 310/05 RMK AO2
14837KMSN MSN20021127101509911/27/02 10:15:31  5-MIN KMSN 271615Z 30006KT 10SM BKN038 M04/M09 A3037 450 71 -1700 300/06 RMK AO2
14837KMSN MSN20021127102009911/27/02 10:20:31  5-MIN KMSN 271620Z 29007KT 10SM BKN038 M04/M09 A3037 450 68 -1700 290/07 RMK AO2
14837KMSN MSN20021127102509911/27/02 10:25:31  5-MIN KMSN 271625Z 30005KT 10SM BKN038 M04/M09 A3036 460 71 -1700 300/05 RMK AO2
14837KMSN MSN20021127103009911/27/02 10:30:31  5-MIN KMSN 271630Z VRB05KT 10SM BKN038 M04/M09 A3036 460 71 -1700 VRB/05 RMK AO2
14837KMSN MSN20021127103509911/27/02 10:35:31  5-MIN KMSN 271635Z 29006KT 10SM BKN038 M04/M09 A3036 460 68 -1700 290/06 RMK AO2
14837KMSN MSN20021127104009911/27/02 10:40:31  5-MIN KMSN 271640Z 28005KT 10SM BKN038 M04/M09 A3036 460 68 -1700 280/05 RMK AO2
14837KMSN MSN20021127104509911/27/02 10:45:31  5-MIN KMSN 271645Z 29005KT 10SM BKN038 M04/M09 A3036 460 68 -1700 290/05 RMK AO2
14837KMSN MSN20021127105012311/27/02 10:50:31  5-MIN KMSN 271650Z 31006KT 10SM FEW015 BKN038 M04/M09 A3035 460 68 -1700 310/06 RMK AO2 SLP293 T10391089
14837KMSN MSN20021127105510611/27/02 10:55:31  5-MIN KMSN 271655Z 29007KT 10SM FEW015 BKN038 M04/M09 A3035 470 68 -1700 290/07 RMK AO2
14837KMSN MSN20021127110010611/27/02 11:00:31  5-MIN KMSN 271700Z 32006KT 10SM FEW015 BKN038 M04/M09 A3035 470 65 -1700 320/06 RMK AO2
14837KMSN MSN20021127110510611/27/02 11:05:31  5-MIN KMSN 271705Z 32005KT 10SM FEW015 BKN038 M03/M09 A3035 470 63 -1600 320/05 RMK AO2
14837KMSN MSN20021127111010611/27/02 11:10:31  5-MIN KMSN 271710Z 28005KT 10SM FEW015 BKN038 M03/M09 A3035 470 63 -1600 280/05 RMK AO2
14837KMSN MSN20021127111509911/27/02 11:15:31  5-MIN KMSN 271715Z VRB04KT 10SM BKN038 M04/M10 A3035 470 63 -1600 VRB/04 RMK AO2
14837KMSN MSN20021127112009911/27/02 11:20:31  5-MIN KMSN 271720Z 24005KT 10SM BKN038 M03/M10 A3034 480 60 -1600 240/05 RMK AO2
14837KMSN MSN20021127112509911/27/02 11:25:31  5-MIN KMSN 271725Z 27005KT 10SM BKN038 M04/M11 A3034 480 60 -1600 270/05 RMK AO2
14837KMSN MSN20021127113009911/27/02 11:30:31  5-MIN KMSN 271730Z 29006KT 10SM BKN038 M03/M11 A3034 480 57 -1600 290/06 RMK AO2
14837KMSN MSN20021127113509911/27/02 11:35:31  5-MIN KMSN 271735Z 23005KT 10SM BKN038 M04/M11 A3034 480 57 -1600 230/05 RMK AO2
14837KMSN MSN20021127114009911/27/02 11:40:31  5-MIN KMSN 271740Z VRB04KT 10SM OVC032 M04/M11 A3034 480 57 -1600 VRB/04 RMK AO2
14837KMSN MSN20021127114511511/27/02 11:45:31  5-MIN KMSN 271745Z 25007KT 210V290 10SM OVC032 M03/M11 A3034 480 55 -1600 250/07 210V290 RMK AO2
14837KMSN MSN20021127115013411/27/02 11:50:31  5-MIN KMSN 271750Z VRB03KT 10SM BKN032 M04/M11 A3033 480 57 -1600 VRB/03 RMK AO2 SLP287 T10391111 11033 21111 50000
14837KMSN MSN20021127115509911/27/02 11:55:31  5-MIN KMSN 271755Z VRB05KT 10SM OVC032 M03/M11 A3033 480 55 -1600 VRB/05 RMK AO2
14837KMSN MSN20021127120009911/27/02 12:00:31  5-MIN KMSN 271800Z 25006KT 10SM BKN032 M03/M11 A3033 490 55 -1600 250/06 RMK AO2
14837KMSN MSN20021127120509911/27/02 12:05:31  5-MIN KMSN 271805Z VRB05KT 10SM BKN032 M03/M11 A3033 490 53 -1500 VRB/05 RMK AO2
14837KMSN MSN20021127121009911/27/02 12:10:31  5-MIN KMSN 271810Z VRB06KT 10SM BKN032 M03/M11 A3032 490 53 -1500 VRB/06 RMK AO2
14837KMSN MSN20021127121509911/27/02 12:15:31  5-MIN KMSN 271815Z 27006KT 10SM BKN032 M03/M11 A3032 500 53 -1500 270/06 RMK AO2
14837KMSN MSN20021127122009911/27/02 12:20:31  5-MIN KMSN 271820Z 29006KT 10SM BKN032 M03/M12 A3032 500 53 -1500 290/06 RMK AO2
14837KMSN MSN20021127122509911/27/02 12:25:31  5-MIN KMSN 271825Z VRB06KT 10SM BKN032 M03/M12 A3032 500 50 -1500 VRB/06 RMK AO2
14837KMSN MSN20021127123009911/27/02 12:30:31  5-MIN KMSN 271830Z 28007KT 10SM BKN032 M02/M11 A3032 500 51 -1400 280/07 RMK AO2
14837KMSN MSN20021127123509911/27/02 12:35:31  5-MIN KMSN 271835Z 24005KT 10SM SCT034 M03/M11 A3032 500 53 -1500 240/05 RMK AO2
14837KMSN MSN20021127124009911/27/02 12:40:31  5-MIN KMSN 271840Z VRB04KT 10SM BKN034 M03/M12 A3031 500 53 -1500 VRB/04 RMK AO2
14837KMSN MSN20021127124509911/27/02 12:45:31  5-MIN KMSN 271845Z 18004KT 10SM BKN034 M03/M12 A3031 500 50 -1500 180/04 RMK AO2
14837KMSN MSN20021127125011611/27/02 12:50:31  5-MIN KMSN 271850Z VRB03KT 10SM BKN034 M02/M11 A3031 500 51 -1400 VRB/03 RMK AO2 SLP279 T10221111
14837KMSN MSN20021127125509911/27/02 12:55:31  5-MIN KMSN 271855Z VRB06KT 10SM BKN034 M02/M11 A3031 510 51 -1400 VRB/06 RMK AO2
14837KMSN MSN20021127130009911/27/02 13:00:31  5-MIN KMSN 271900Z 22007KT 10SM BKN034 M02/M11 A3031 510 51 -1400 220/07 RMK AO2
14837KMSN MSN20021127130509911/27/02 13:05:31  5-MIN KMSN 271905Z 23005KT 10SM BKN034 M02/M11 A3031 510 51 -1400 230/05 RMK AO2
14837KMSN MSN20021127131009911/27/02 13:10:31  5-MIN KMSN 271910Z 23007KT 10SM BKN034 M03/M12 A3031 510 50 -1500 230/07 RMK AO2
14837KMSN MSN20021127131509911/27/02 13:15:31  5-MIN KMSN 271915Z 25006KT 10SM BKN034 M03/M12 A3030 510 50 -1500 240/06 RMK AO2
14837KMSN MSN20021127132009911/27/02 13:20:31  5-MIN KMSN 271920Z VRB05KT 10SM SCT034 M03/M12 A3031 510 50 -1500 VRB/05 RMK AO2
14837KMSN MSN20021127132509911/27/02 13:25:31  5-MIN KMSN 271925Z 23006KT 10SM SCT034 M02/M11 A3030 510 51 -1400 230/06 RMK AO2
14837KMSN MSN20021127133009911/27/02 13:30:31  5-MIN KMSN 271930Z 21004KT 10SM SCT034 M03/M12 A3030 510 50 -1500 210/04 RMK AO2
14837KMSN MSN20021127133509911/27/02 13:35:31  5-MIN KMSN 271935Z 24004KT 10SM SCT034 M03/M12 A3030 520 53 -1500 240/04 RMK AO2
14837KMSN MSN20021127134009911/27/02 13:40:31  5-MIN KMSN 271940Z VRB05KT 10SM SCT034 M03/M12 A3030 520 53 -1500 VRB/05 RMK AO2
14837KMSN MSN20021127134509911/27/02 13:45:31  5-MIN KMSN 271945Z 00000KT 10SM SCT034 M03/M11 A3029 520 53 -1400 000/00 RMK AO2
14837KMSN MSN20021127135011611/27/02 13:50:31  5-MIN KMSN 271950Z VRB04KT 10SM SCT034 M03/M11 A3029 520 53 -1400 VRB/04 RMK AO2 SLP272 T10281111
14837KMSN MSN20021127135509911/27/02 13:55:31  5-MIN KMSN 271955Z 28006KT 10SM SCT038 M03/M11 A3029 520 53 -1400 270/06 RMK AO2
14837KMSN MSN20021127140009911/27/02 14:00:31  5-MIN KMSN 272000Z VRB04KT 10SM SCT038 M02/M11 A3029 520 49 -1300 VRB/04 RMK AO2
14837KMSN MSN20021127140509911/27/02 14:05:31  5-MIN KMSN 272005Z VRB05KT 10SM SCT038 M02/M11 A3029 530 49 -1300 VRB/05 RMK AO2
14837KMSN MSN20021127141009911/27/02 14:10:31  5-MIN KMSN 272010Z 20005KT 10SM SCT038 M02/M11 A3028 530 51 -1400 200/05 RMK AO2
14837KMSN MSN20021127141509911/27/02 14:15:31  5-MIN KMSN 272015Z 23008KT 10SM SCT038 M02/M11 A3028 530 51 -1400 230/08 RMK AO2
14837KMSN MSN20021127142009911/27/02 14:20:31  5-MIN KMSN 272020Z 25006KT 10SM SCT038 M02/M12 A3028 530 48 -1400 250/06 RMK AO2
14837KMSN MSN20021127142509911/27/02 14:25:31  5-MIN KMSN 272025Z VRB06KT 10SM SCT038 M02/M12 A3028 530 48 -1400 VRB/06 RMK AO2
14837KMSN MSN20021127143009911/27/02 14:30:31  5-MIN KMSN 272030Z VRB06KT 10SM SCT038 M02/M12 A3028 530 48 -1400 VRB/06 RMK AO2
14837KMSN MSN20021127143509911/27/02 14:35:31  5-MIN KMSN 272035Z VRB05KT 10SM SCT038 M02/M11 A3028 530 51 -1400 VRB/05 RMK AO2
14837KMSN MSN20021127144009911/27/02 14:40:31  5-MIN KMSN 272040Z 25007KT 10SM SCT038 M02/M11 A3028 530 51 -1400 250/07 RMK AO2
14837KMSN MSN20021127144509911/27/02 14:45:31  5-MIN KMSN 272045Z VRB05KT 10SM SCT038 M02/M11 A3028 530 51 -1400 VRB/05 RMK AO2
14837KMSN MSN20021127145012211/27/02 14:50:31  5-MIN KMSN 272050Z 24005KT 10SM SCT038 M02/M11 A3028 530 51 -1400 240/05 RMK AO2 SLP268 T10221111 58010
14837KMSN MSN20021127145509911/27/02 14:55:31  5-MIN KMSN 272055Z VRB03KT 10SM SCT038 M02/M11 A3028 530 51 -1400 VRB/03 RMK AO2
14837KMSN MSN20021127150009911/27/02 15:00:31  5-MIN KMSN 272100Z VRB04KT 10SM SCT038 M02/M11 A3028 530 49 -1300 VRB/04 RMK AO2
14837KMSN MSN20021127150509911/27/02 15:05:31  5-MIN KMSN 272105Z 26008KT 10SM SCT038 M02/M12 A3028 530 46 -1300 260/08 RMK AO2
14837KMSN MSN20021127151009911/27/02 15:10:31  5-MIN KMSN 272110Z 26005KT 10SM SCT038 M02/M12 A3028 530 48 -1400 260/05 RMK AO2
14837KMSN MSN20021127151509911/27/02 15:15:31  5-MIN KMSN 272115Z 24005KT 10SM SCT038 M02/M11 A3028 540 51 -1400 240/05 RMK AO2
14837KMSN MSN20021127152009911/27/02 15:20:31  5-MIN KMSN 272120Z 24007KT 10SM SCT038 M02/M11 A3028 540 51 -1400 240/07 RMK AO2
14837KMSN MSN20021127152509911/27/02 15:25:31  5-MIN KMSN 272125Z 22007KT 10SM SCT038 M02/M11 A3028 540 51 -1400 220/07 RMK AO2
14837KMSN MSN20021127153009911/27/02 15:30:31  5-MIN KMSN 272130Z 25008KT 10SM SCT038 M03/M11 A3028 540 53 -1400 250/08 RMK AO2
14837KMSN MSN20021127153509911/27/02 15:35:31  5-MIN KMSN 272135Z 24005KT 10SM FEW038 M03/M11 A3028 540 53 -1400 240/05 RMK AO2
14837KMSN MSN20021127154009911/27/02 15:40:31  5-MIN KMSN 272140Z 26004KT 10SM FEW038 M03/M11 A3027 540 53 -1400 260/04 RMK AO2
14837KMSN MSN20021127154509911/27/02 15:45:31  5-MIN KMSN 272145Z 26005KT 10SM FEW038 M03/M11 A3027 540 53 -1400 260/05 RMK AO2
14837KMSN MSN20021127155011611/27/02 15:50:31  5-MIN KMSN 272150Z 23006KT 10SM FEW038 M03/M11 A3027 540 53 -1400 230/06 RMK AO2 SLP267 T10281111
14837KMSN MSN20021127155509611/27/02 15:55:31  5-MIN KMSN 272155Z 23006KT 10SM CLR M03/M11 A3028 540 55 -1500 230/06 RMK AO2
14837KMSN MSN20021127160009611/27/02 16:00:31  5-MIN KMSN 272200Z VRB06KT 10SM CLR M03/M11 A3027 540 55 -1500 VRB/06 RMK AO2
14837KMSN MSN20021127160509911/27/02 16:05:31  5-MIN KMSN 272205Z 22005KT 10SM FEW040 M03/M11 A3027 540 55 -1500 220/05 RMK AO2
14837KMSN MSN20021127161009911/27/02 16:10:31  5-MIN KMSN 272210Z 22006KT 10SM FEW040 M03/M11 A3027 540 55 -1500 220/06 RMK AO2
14837KMSN MSN20021127161509911/27/02 16:15:31  5-MIN KMSN 272215Z 23005KT 10SM FEW040 M03/M12 A3028 530 53 -1500 230/05 RMK AO2
14837KMSN MSN20021127162009911/27/02 16:20:31  5-MIN KMSN 272220Z 23003KT 10SM FEW040 M04/M12 A3028 540 55 -1600 230/03 RMK AO2
14837KMSN MSN20021127162509911/27/02 16:25:31  5-MIN KMSN 272225Z VRB05KT 10SM FEW034 M04/M12 A3028 530 55 -1600 VRB/05 RMK AO2
14837KMSN MSN20021127163009911/27/02 16:30:31  5-MIN KMSN 272230Z 27006KT 10SM FEW034 M04/M12 A3028 530 55 -1600 260/06 RMK AO2
14837KMSN MSN20021127163509911/27/02 16:35:31  5-MIN KMSN 272235Z VRB04KT 10SM FEW034 M04/M11 A3028 530 57 -1600 VRB/04 RMK AO2
14837KMSN MSN20021127164009911/27/02 16:40:31  5-MIN KMSN 272240Z 26005KT 10SM FEW034 M04/M11 A3028 540 57 -1600 260/05 RMK AO2
14837KMSN MSN20021127164509911/27/02 16:45:31  5-MIN KMSN 272245Z VRB03KT 10SM FEW034 M04/M11 A3028 540 57 -1600 VRB/03 RMK AO2
14837KMSN MSN20021127165011611/27/02 16:50:31  5-MIN KMSN 272250Z 26005KT 10SM FEW034 M04/M12 A3028 540 55 -1600 250/05 RMK AO2 SLP268 T10391117
14837KMSN MSN20021127165509911/27/02 16:55:31  5-MIN KMSN 272255Z VRB04KT 10SM FEW034 M04/M11 A3028 540 60 -1600 VRB/04 RMK AO2
14837KMSN MSN20021127170009911/27/02 17:00:31  5-MIN KMSN 272300Z 26005KT 10SM FEW034 M04/M12 A3028 540 57 -1600 260/05 RMK AO2
14837KMSN MSN20021127170509911/27/02 17:05:31  5-MIN KMSN 272305Z VRB05KT 10SM FEW034 M04/M11 A3027 540 60 -1600 VRB/05 RMK AO2
14837KMSN MSN20021127171009911/27/02 17:10:31  5-MIN KMSN 272310Z 23004KT 10SM FEW034 M04/M11 A3027 540 60 -1600 230/04 RMK AO2
14837KMSN MSN20021127171509911/27/02 17:15:31  5-MIN KMSN 272315Z 24005KT 10SM FEW034 M04/M11 A3027 550 60 -1600 230/05 RMK AO2
14837KMSN MSN20021127172009911/27/02 17:20:31  5-MIN KMSN 272320Z 23006KT 10SM FEW034 M04/M11 A3027 540 57 -1600 230/06 RMK AO2
14837KMSN MSN20021127172509611/27/02 17:25:31  5-MIN KMSN 272325Z 23005KT 10SM CLR M04/M12 A3027 550 57 -1600 230/05 RMK AO2
14837KMSN MSN20021127173009911/27/02 17:30:31  5-MIN KMSN 272330Z 23005KT 10SM FEW032 M04/M11 A3027 550 60 -1600 230/05 RMK AO2
14837KMSN MSN20021127173509911/27/02 17:35:31  5-MIN KMSN 272335Z VRB04KT 10SM FEW032 M04/M11 A3026 550 60 -1600 VRB/04 RMK AO2
14837KMSN MSN20021127174009911/27/02 17:40:31  5-MIN KMSN 272340Z 21005KT 10SM FEW032 M04/M11 A3026 550 60 -1600 200/05 RMK AO2
14837KMSN MSN20021127174509611/27/02 17:45:31  5-MIN KMSN 272345Z 22007KT 10SM CLR M04/M11 A3026 550 60 -1600 220/07 RMK AO2
14837KMSN MSN20021127175013411/27/02 17:50:31  5-MIN KMSN 272350Z VRB06KT 10SM FEW032 M04/M11 A3026 550 60 -1600 VRB/06 RMK AO2 SLP263 T10441111 11017 21044 56018
14837KMSN MSN20021127175509911/27/02 17:55:31  5-MIN KMSN 272355Z 22005KT 10SM FEW032 M04/M11 A3026 550 60 -1600 210/05 RMK AO2
14837KMSN MSN20021127180009911/27/02 18:00:31  5-MIN KMSN 280000Z 22006KT 10SM FEW032 M04/M11 A3026 550 60 -1600 220/06 RMK AO2
14837KMSN MSN20021127180509911/27/02 18:05:31  5-MIN KMSN 280005Z 22005KT 10SM FEW032 M04/M11 A3026 550 60 -1600 220/05 RMK AO2
14837KMSN MSN20021127181009911/27/02 18:10:31  5-MIN KMSN 280010Z 22007KT 10SM FEW032 M04/M11 A3026 550 60 -1600 220/07 RMK AO2
14837KMSN MSN20021127181509911/27/02 18:15:31  5-MIN KMSN 280015Z 22006KT 10SM FEW032 M04/M11 A3025 560 60 -1600 220/06 RMK AO2
14837KMSN MSN20021127182009911/27/02 18:20:31  5-MIN KMSN 280020Z 22005KT 10SM FEW032 M04/M11 A3025 560 60 -1600 220/05 RMK AO2
14837KMSN MSN20021127182509611/27/02 18:25:31  5-MIN KMSN 280025Z 22004KT 10SM CLR M04/M11 A3025 560 60 -1600 210/04 RMK AO2
14837KMSN MSN20021127183009611/27/02 18:30:31  5-MIN KMSN 280030Z 22006KT 10SM CLR M04/M11 A3025 560 60 -1600 220/06 RMK AO2
14837KMSN MSN20021127183509611/27/02 18:35:31  5-MIN KMSN 280035Z 22005KT 10SM CLR M04/M11 A3025 560 60 -1600 220/05 RMK AO2
14837KMSN MSN20021127184009611/27/02 18:40:31  5-MIN KMSN 280040Z 21006KT 10SM CLR M04/M11 A3025 560 60 -1600 210/06 RMK AO2
14837KMSN MSN20021127184509611/27/02 18:45:31  5-MIN KMSN 280045Z 22007KT 10SM CLR M04/M11 A3025 560 60 -1600 220/07 RMK AO2
14837KMSN MSN20021127185011611/27/02 18:50:31  5-MIN KMSN 280050Z 22006KT 10SM FEW032 M04/M11 A3025 560 60 -1600 220/06 RMK AO2 SLP260 T10441111
14837KMSN MSN20021127185509911/27/02 18:55:31  5-MIN KMSN 280055Z 22004KT 10SM FEW032 M04/M11 A3025 560 60 -1600 220/04 RMK AO2
14837KMSN MSN20021127190009911/27/02 19:00:31  5-MIN KMSN 280100Z 22004KT 10SM FEW032 M04/M11 A3025 560 62 -1600 220/04 RMK AO2
14837KMSN MSN20021127190509911/27/02 19:05:31  5-MIN KMSN 280105Z 23005KT 10SM FEW032 M04/M11 A3026 560 62 -1600 230/05 RMK AO2
14837KMSN MSN20021127191009911/27/02 19:10:31  5-MIN KMSN 280110Z VRB03KT 10SM FEW032 M04/M11 A3026 550 62 -1600 VRB/03 RMK AO2
14837KMSN MSN20021127191509911/27/02 19:15:31  5-MIN KMSN 280115Z 24003KT 10SM FEW032 M04/M11 A3026 550 62 -1600 240/03 RMK AO2
14837KMSN MSN20021127192009911/27/02 19:20:31  5-MIN KMSN 280120Z VRB04KT 10SM FEW032 M05/M11 A3026 550 62 -1700 VRB/04 RMK AO2
14837KMSN MSN20021127192509911/27/02 19:25:31  5-MIN KMSN 280125Z VRB05KT 10SM FEW032 M05/M11 A3026 550 62 -1700 VRB/05 RMK AO2
14837KMSN MSN20021127193009811/27/02 19:30:31  5-MIN KMSN 280130Z VRB05KT 9SM FEW032 M05/M11 A3026 550 62 -1700 VRB/05 RMK AO2
14837KMSN MSN20021127193509611/27/02 19:35:31  5-MIN KMSN 280135Z VRB04KT 10SM CLR M05/M11 A3026 550 62 -1700 VRB/04 RMK AO2
14837KMSN MSN20021127194009611/27/02 19:40:31  5-MIN KMSN 280140Z 26005KT 10SM CLR M06/M11 A3026 550 65 -1800 260/05 RMK AO2
14837KMSN MSN20021127194509611/27/02 19:45:31  5-MIN KMSN 280145Z 27004KT 10SM CLR M06/M11 A3027 550 65 -1800 270/04 RMK AO2
14837KMSN MSN20021127195011311/27/02 19:50:31  5-MIN KMSN 280150Z VRB03KT 10SM CLR M06/M11 A3027 550 65 -1800 VRB/03 RMK AO2 SLP264 T10561111
14837KMSN MSN20021127195509611/27/02 19:55:31  5-MIN KMSN 280155Z VRB03KT 10SM CLR M06/M11 A3027 550 65 -1800 VRB/03 RMK AO2
14837KMSN MSN20021127200009611/27/02 20:00:31  5-MIN KMSN 280200Z VRB04KT 10SM CLR M06/M11 A3027 540 65 -1800 VRB/04 RMK AO2
14837KMSN MSN20021127200509611/27/02 20:05:31  5-MIN KMSN 280205Z VRB04KT 10SM CLR M06/M11 A3027 550 65 -1800 VRB/04 RMK AO2
14837KMSN MSN20021127201009611/27/02 20:10:31  5-MIN KMSN 280210Z VRB03KT 10SM CLR M06/M11 A3027 550 68 -1800 VRB/03 RMK AO2
14837KMSN MSN20021127201509611/27/02 20:15:31  5-MIN KMSN 280215Z VRB06KT 10SM CLR M06/M11 A3027 550 65 -1800 VRB/06 RMK AO2
14837KMSN MSN20021127202009611/27/02 20:20:31  5-MIN KMSN 280220Z 27005KT 10SM CLR M06/M11 A3027 550 65 -1800 270/05 RMK AO2
14837KMSN MSN20021127202509611/27/02 20:25:31  5-MIN KMSN 280225Z VRB05KT 10SM CLR M06/M11 A3027 540 65 -1800 VRB/05 RMK AO2
14837KMSN MSN20021127203009611/27/02 20:30:31  5-MIN KMSN 280230Z 26004KT 10SM CLR M06/M11 A3027 540 68 -1800 260/04 RMK AO2
14837KMSN MSN20021127203509611/27/02 20:35:31  5-MIN KMSN 280235Z 27005KT 10SM CLR M06/M11 A3027 540 68 -1800 260/05 RMK AO2
14837KMSN MSN20021127204009611/27/02 20:40:31  5-MIN KMSN 280240Z VRB05KT 10SM CLR M06/M11 A3028 540 68 -1800 VRB/05 RMK AO2
14837KMSN MSN20021127204509611/27/02 20:45:31  5-MIN KMSN 280245Z VRB03KT 10SM CLR M06/M11 A3028 540 68 -1800 VRB/03 RMK AO2
14837KMSN MSN20021127205011911/27/02 20:50:31  5-MIN KMSN 280250Z VRB04KT 10SM CLR M06/M11 A3028 540 68 -1800 VRB/04 RMK AO2 SLP267 T10561106 58007
14837KMSN MSN20021127205509611/27/02 20:55:31  5-MIN KMSN 280255Z VRB04KT 10SM CLR M06/M11 A3028 540 65 -1800 VRB/04 RMK AO2
14837KMSN MSN20021127210009611/27/02 21:00:31  5-MIN KMSN 280300Z VRB05KT 10SM CLR M06/M11 A3028 540 68 -1900 VRB/05 RMK AO2
14837KMSN MSN20021127210509611/27/02 21:05:31  5-MIN KMSN 280305Z VRB04KT 10SM CLR M06/M11 A3028 540 68 -1900 VRB/04 RMK AO2
14837KMSN MSN20021127211009611/27/02 21:10:31  5-MIN KMSN 280310Z VRB05KT 10SM CLR M06/M12 A3028 540 65 -1900 VRB/05 RMK AO2
14837KMSN MSN20021127211509611/27/02 21:15:31  5-MIN KMSN 280315Z VRB05KT 10SM CLR M06/M11 A3028 540 65 -1800 VRB/05 RMK AO2
14837KMSN MSN20021127212009611/27/02 21:20:31  5-MIN KMSN 280320Z 24006KT 10SM CLR M06/M11 A3028 540 65 -1800 240/06 RMK AO2
14837KMSN MSN20021127212509911/27/02 21:25:31  5-MIN KMSN 280325Z 25005KT 10SM SCT120 M06/M11 A3027 540 65 -1800 250/05 RMK AO2
14837KMSN MSN20021127213009911/27/02 21:30:31  5-MIN KMSN 280330Z VRB05KT 10SM BKN120 M06/M11 A3028 540 68 -1800 VRB/05 RMK AO2
14837KMSN MSN20021127213509911/27/02 21:35:31  5-MIN KMSN 280335Z 24006KT 10SM BKN120 M06/M10 A3028 540 71 -1800 240/06 RMK AO2
14837KMSN MSN20021127214009911/27/02 21:40:31  5-MIN KMSN 280340Z 24008KT 10SM BKN120 M06/M10 A3028 540 71 -1800 240/08 RMK AO2
14837KMSN MSN20021127214509911/27/02 21:45:31  5-MIN KMSN 280345Z VRB06KT 10SM OVC120 M06/M10 A3028 530 71 -1800 VRB/06 RMK AO2
14837KMSN MSN20021127215011611/27/02 21:50:31  5-MIN KMSN 280350Z 25005KT 10SM OVC120 M06/M10 A3028 540 71 -1800 250/05 RMK AO2 SLP267 T10561100
14837KMSN MSN20021127215511511/27/02 21:55:31  5-MIN KMSN 280355Z 25007KT 220V280 10SM OVC120 M06/M10 A3028 540 71 -1800 250/07 220V280 RMK AO2
14837KMSN MSN20021127220009911/27/02 22:00:31  5-MIN KMSN 280400Z VRB05KT 10SM OVC120 M06/M10 A3027 540 71 -1800 VRB/05 RMK AO2
14837KMSN MSN20021127220509911/27/02 22:05:31  5-MIN KMSN 280405Z VRB06KT 10SM OVC120 M06/M10 A3028 540 71 -1800 VRB/06 RMK AO2
14837KMSN MSN20021127221011511/27/02 22:10:31  5-MIN KMSN 280410Z 24008KT 200V270 10SM OVC120 M06/M10 A3027 540 71 -1800 240/08 200V270 RMK AO2
14837KMSN MSN20021127221509911/27/02 22:15:31  5-MIN KMSN 280415Z 24007KT 10SM OVC110 M06/M10 A3027 540 71 -1800 240/07 RMK AO2
14837KMSN MSN20021127222011511/27/02 22:20:31  5-MIN KMSN 280420Z 24007KT 200V260 10SM OVC110 M06/M10 A3027 540 71 -1800 240/07 200V260 RMK AO2
14837KMSN MSN20021127222509911/27/02 22:25:31  5-MIN KMSN 280425Z VRB05KT 10SM OVC110 M05/M10 A3027 540 68 -1700 VRB/05 RMK AO2
14837KMSN MSN20021127223009911/27/02 22:30:31  5-MIN KMSN 280430Z VRB06KT 10SM OVC110 M05/M10 A3027 540 68 -1700 VRB/06 RMK AO2
14837KMSN MSN20021127223509811/27/02 22:35:31  5-MIN KMSN 280435Z 24008KT 8SM OVC110 M05/M10 A3027 540 68 -1700 240/08 RMK AO2
14837KMSN MSN20021127224009811/27/02 22:40:31  5-MIN KMSN 280440Z 24008KT 8SM OVC110 M05/M10 A3027 550 68 -1700 240/08 RMK AO2
14837KMSN MSN20021127224509811/27/02 22:45:31  5-MIN KMSN 280445Z VRB05KT 8SM OVC110 M05/M10 A3026 550 68 -1700 VRB/05 RMK AO2
14837KMSN MSN20021127225011511/27/02 22:50:31  5-MIN KMSN 280450Z 25006KT 8SM OVC110 M05/M10 A3026 550 68 -1700 250/06 RMK AO2 SLP262 T10501100
14837KMSN MSN20021127225509811/27/02 22:55:31  5-MIN KMSN 280455Z VRB04KT 8SM OVC110 M05/M10 A3026 550 68 -1700 VRB/04 RMK AO2
14837KMSN MSN20021127230009811/27/02 23:00:31  5-MIN KMSN 280500Z 23004KT 8SM OVC110 M05/M10 A3026 550 68 -1700 230/04 RMK AO2
14837KMSN MSN20021127230509811/27/02 23:05:31  5-MIN KMSN 280505Z 25004KT 8SM OVC110 M05/M10 A3025 560 68 -1700 250/04 RMK AO2
14837KMSN MSN20021127231009811/27/02 23:10:31  5-MIN KMSN 280510Z VRB04KT 8SM OVC110 M05/M10 A3025 560 68 -1700 VRB/04 RMK AO2
14837KMSN MSN20021127231509811/27/02 23:15:31  5-MIN KMSN 280515Z VRB03KT 8SM OVC110 M06/M11 A3025 560 68 -1800 VRB/03 RMK AO2
14837KMSN MSN20021127232010511/27/02 23:20:31  5-MIN KMSN 280520Z 24004KT 8SM FEW095 BKN120 M06/M11 A3025 560 68 -1800 240/04 RMK AO2
14837KMSN MSN20021127232510511/27/02 23:25:31  5-MIN KMSN 280525Z 25004KT 8SM FEW095 BKN120 M06/M11 A3025 560 68 -1800 250/04 RMK AO2
14837KMSN MSN20021127233010511/27/02 23:30:31  5-MIN KMSN 280530Z 25005KT 8SM FEW095 BKN120 M06/M10 A3025 560 71 -1800 250/05 RMK AO2
14837KMSN MSN20021127233510511/27/02 23:35:31  5-MIN KMSN 280535Z VRB05KT 8SM SCT100 OVC120 M06/M10 A3025 560 71 -1800 VRB/05 RMK AO2
14837KMSN MSN20021127234010511/27/02 23:40:31  5-MIN KMSN 280540Z 24004KT 8SM BKN100 BKN120 M06/M10 A3025 560 71 -1800 240/04 RMK AO2
14837KMSN MSN20021127234510511/27/02 23:45:31  5-MIN KMSN 280545Z VRB05KT 8SM SCT100 BKN120 M06/M10 A3024 570 71 -1700 VRB/05 RMK AO2
14837KMSN MSN20021127235015011/27/02 23:50:31  5-MIN KMSN 280550Z VRB06KT 8SM FEW100 BKN120 M06/M10 A3024 570 71 -1700 VRB/06 RMK AO2 SLP255 T10561100 11044 21061 410171111 53006
14837KMSN MSN20021127235510511/27/02 23:55:31  5-MIN KMSN 280555Z 23004KT 7SM FEW100 BKN120 M06/M10 A3024 570 71 -1700 230/04 RMK AO2
14837KMSN MSN20021128000010511/28/02 00:00:31  5-MIN KMSN 280600Z VRB04KT 7SM FEW100 SCT120 M06/M10 A3024 570 71 -1700 VRB/04 RMK AO2
14837KMSN MSN20021128000510511/28/02 00:05:31  5-MIN KMSN 280605Z VRB04KT 7SM FEW095 SCT120 M06/M10 A3024 570 71 -1700 VRB/04 RMK AO2
14837KMSN MSN20021128001009811/28/02 00:10:31  5-MIN KMSN 280610Z 24005KT 7SM FEW120 M06/M10 A3024 570 71 -1700 240/05 RMK AO2
14837KMSN MSN20021128001509811/28/02 00:15:31  5-MIN KMSN 280615Z VRB05KT 7SM FEW120 M06/M10 A3024 570 71 -1700 VRB/05 RMK AO2
14837KMSN MSN20021128002009811/28/02 00:20:31  5-MIN KMSN 280620Z VRB04KT 7SM FEW033 M06/M10 A3024 570 71 -1700 VRB/04 RMK AO2
14837KMSN MSN20021128002509811/28/02 00:25:31  5-MIN KMSN 280625Z 24006KT 7SM FEW033 M06/M10 A3024 570 71 -1700 240/06 RMK AO2
14837KMSN MSN20021128003009811/28/02 00:30:31  5-MIN KMSN 280630Z 24005KT 7SM FEW033 M06/M11 A3023 580 68 -1700 240/05 RMK AO2
14837KMSN MSN20021128003510111/28/02 00:35:31  5-MIN KMSN 280635Z VRB04KT 6SM HZ FEW033 M06/M11 A3023 580 68 -1700 VRB/04 RMK AO2
14837KMSN MSN20021128004010111/28/02 00:40:31  5-MIN KMSN 280640Z 24005KT 6SM HZ FEW033 M06/M11 A3023 580 68 -1700 240/05 RMK AO2
14837KMSN MSN20021128004510111/28/02 00:45:31  5-MIN KMSN 280645Z VRB03KT 6SM HZ FEW033 M06/M11 A3023 580 71 -1800 VRB/03 RMK AO2
14837KMSN MSN20021128005011811/28/02 00:50:31  5-MIN KMSN 280650Z 24005KT 6SM HZ FEW110 M06/M11 A3023 580 68 -1700 240/05 RMK AO2 SLP249 T10561106
14837KMSN MSN20021128005510111/28/02 00:55:31  5-MIN KMSN 280655Z VRB06KT 6SM HZ FEW100 M06/M11 A3023 580 68 -1800 VRB/06 RMK AO2
14837KMSN MSN20021128010010111/28/02 01:00:31  5-MIN KMSN 280700Z 24005KT 6SM HZ SCT100 M06/M11 A3022 580 68 -1700 240/05 RMK AO2
14837KMSN MSN20021128010510111/28/02 01:05:31  5-MIN KMSN 280705Z VRB05KT 6SM HZ SCT100 M06/M11 A3022 590 68 -1700 VRB/05 RMK AO2
14837KMSN MSN20021128011010111/28/02 01:10:31  5-MIN KMSN 280710Z 22005KT 6SM HZ FEW100 M06/M10 A3022 590 71 -1700 220/05 RMK AO2
14837KMSN MSN20021128011510111/28/02 01:15:31  5-MIN KMSN 280715Z VRB05KT 6SM HZ FEW100 M06/M10 A3022 590 74 -1800 VRB/05 RMK AO2
14837KMSN MSN20021128012010111/28/02 01:20:31  5-MIN KMSN 280720Z 22005KT 6SM HZ FEW100 M06/M10 A3022 590 71 -1700 220/05 RMK AO2
14837KMSN MSN20021128012509811/28/02 01:25:31  5-MIN KMSN 280725Z 22005KT 7SM FEW100 M06/M10 A3022 590 71 -1700 220/05 RMK AO2
14837KMSN MSN20021128013009511/28/02 01:30:31  5-MIN KMSN 280730Z 22004KT 7SM CLR M06/M11 A3022 590 68 -1700 220/04 RMK AO2
14837KMSN MSN20021128013509511/28/02 01:35:31  5-MIN KMSN 280735Z 22004KT 7SM CLR M06/M11 A3022 590 71 -1800 220/04 RMK AO2
14837KMSN MSN20021128014009811/28/02 01:40:31  5-MIN KMSN 280740Z VRB04KT 6SM HZ CLR M06/M10 A3022 590 71 -1700 VRB/04 RMK AO2
14837KMSN MSN20021128014509811/28/02 01:45:31  5-MIN KMSN 280745Z 21005KT 6SM HZ CLR M06/M10 A3021 590 71 -1700 210/05 RMK AO2
14837KMSN MSN20021128015011511/28/02 01:50:31  5-MIN KMSN 280750Z 21005KT 6SM HZ CLR M06/M10 A3021 590 71 -1700 210/05 RMK AO2 SLP244 T10561100
14837KMSN MSN20021128015509811/28/02 01:55:31  5-MIN KMSN 280755Z VRB05KT 6SM HZ CLR M06/M10 A3021 600 74 -1800 VRB/05 RMK AO2
14837KMSN MSN20021128020009811/28/02 02:00:31  5-MIN KMSN 280800Z 22005KT 6SM HZ CLR M06/M10 A3021 600 74 -1800 220/05 RMK AO2
14837KMSN MSN20021128020509811/28/02 02:05:31  5-MIN KMSN 280805Z 22005KT 6SM HZ CLR M06/M10 A3021 600 74 -1800 220/05 RMK AO2
14837KMSN MSN20021128021009811/28/02 02:10:31  5-MIN KMSN 280810Z 22005KT 6SM HZ CLR M06/M10 A3021 600 71 -1700 220/05 RMK AO2
14837KMSN MSN20021128021509811/28/02 02:15:31  5-MIN KMSN 280815Z 22004KT 6SM HZ CLR M06/M10 A3021 600 71 -1700 210/04 RMK AO2
14837KMSN MSN20021128022009811/28/02 02:20:31  5-MIN KMSN 280820Z 22006KT 6SM HZ CLR M06/M10 A3021 600 74 -1800 220/06 RMK AO2
14837KMSN MSN20021128022509811/28/02 02:25:31  5-MIN KMSN 280825Z 21005KT 6SM HZ CLR M06/M11 A3021 600 71 -1800 210/05 RMK AO2
14837KMSN MSN20021128023010111/28/02 02:30:31  5-MIN KMSN 280830Z 22006KT 6SM HZ FEW120 M06/M11 A3021 600 71 -1800 220/06 RMK AO2
14837KMSN MSN20021128023510111/28/02 02:35:31  5-MIN KMSN 280835Z 22005KT 6SM HZ SCT120 M06/M10 A3021 600 74 -1800 210/05 RMK AO2
14837KMSN MSN20021128024010111/28/02 02:40:31  5-MIN KMSN 280840Z 22005KT 6SM HZ FEW120 M06/M10 A3020 600 74 -1800 220/05 RMK AO2
14837KMSN MSN20021128024510111/28/02 02:45:31  5-MIN KMSN 280845Z 22006KT 6SM HZ SCT120 M06/M10 A3020 600 74 -1800 220/06 RMK AO2
14837KMSN MSN20021128025012411/28/02 02:50:31  5-MIN KMSN 280850Z 21006KT 6SM HZ SCT110 M06/M10 A3020 610 74 -1800 210/06 RMK AO2 SLP240 T10611100 58011
14837KMSN MSN20021128025510111/28/02 02:55:31  5-MIN KMSN 280855Z 21005KT 6SM HZ BKN110 M06/M10 A3020 600 74 -1800 210/05 RMK AO2
14837KMSN MSN20021128030010111/28/02 03:00:31  5-MIN KMSN 280900Z 21005KT 6SM HZ BKN110 M06/M10 A3020 610 74 -1800 210/05 RMK AO2
14837KMSN MSN20021128030510111/28/02 03:05:31  5-MIN KMSN 280905Z VRB05KT 6SM HZ BKN110 M06/M10 A3020 610 74 -1800 VRB/05 RMK AO2
14837KMSN MSN20021128031010111/28/02 03:10:31  5-MIN KMSN 280910Z 22005KT 6SM HZ BKN110 M06/M10 A3020 610 74 -1800 220/05 RMK AO2
14837KMSN MSN20021128031510111/28/02 03:15:31  5-MIN KMSN 280915Z 22006KT 6SM HZ OVC110 M06/M10 A3020 610 74 -1800 220/06 RMK AO2
14837KMSN MSN20021128032010111/28/02 03:20:31  5-MIN KMSN 280920Z 22005KT 5SM HZ BKN110 M06/M10 A3019 610 74 -1800 220/05 RMK AO2
14837KMSN MSN20021128032510111/28/02 03:25:31  5-MIN KMSN 280925Z 24005KT 5SM HZ BKN110 M06/M10 A3019 610 74 -1800 240/05 RMK AO2
14837KMSN MSN20021128033010111/28/02 03:30:31  5-MIN KMSN 280930Z 23006KT 5SM HZ SCT110 M07/M10 A3019 610 77 -1800 230/06 RMK AO2
14837KMSN MSN20021128033510111/28/02 03:35:31  5-MIN KMSN 280935Z 23005KT 5SM HZ SCT110 M07/M10 A3019 610 77 -1800 230/05 RMK AO2
14837KMSN MSN20021128034010111/28/02 03:40:31  5-MIN KMSN 280940Z 24003KT 5SM HZ FEW110 M07/M10 A3019 610 77 -1800 240/03 RMK AO2
14837KMSN MSN20021128034510111/28/02 03:45:31  5-MIN KMSN 280945Z 23006KT 5SM HZ FEW110 M07/M10 A3019 610 77 -1800 230/06 RMK AO2
14837KMSN MSN20021128035011511/28/02 03:50:31  5-MIN KMSN 280950Z 23005KT 5SM HZ CLR M07/M10 A3019 610 77 -1800 230/05 RMK AO2 SLP238 T10671100
14837KMSN MSN20021128035509811/28/02 03:55:31  5-MIN KMSN 280955Z 24005KT 5SM HZ CLR M07/M10 A3019 610 77 -1800 240/05 RMK AO2
14837KMSN MSN20021128040009811/28/02 04:00:31  5-MIN KMSN 281000Z 25005KT 5SM HZ CLR M07/M10 A3019 620 77 -1800 250/05 RMK AO2
14837KMSN MSN20021128040509811/28/02 04:05:31  5-MIN KMSN 281005Z 24004KT 5SM HZ CLR M07/M10 A3019 620 81 -1900 240/04 RMK AO2
14837KMSN MSN20021128041009811/28/02 04:10:31  5-MIN KMSN 281010Z VRB06KT 5SM HZ CLR M07/M10 A3018 620 77 -1800 VRB/06 RMK AO2
14837KMSN MSN20021128041509811/28/02 04:15:31  5-MIN KMSN 281015Z 23005KT 5SM HZ CLR M07/M10 A3018 620 77 -1800 230/05 RMK AO2
14837KMSN MSN20021128042009811/28/02 04:20:31  5-MIN KMSN 281020Z VRB04KT 5SM HZ CLR M07/M10 A3018 620 77 -1800 VRB/04 RMK AO2
14837KMSN MSN20021128042509811/28/02 04:25:31  5-MIN KMSN 281025Z VRB05KT 5SM HZ CLR M07/M10 A3018 620 77 -1800 VRB/05 RMK AO2
14837KMSN MSN20021128043009811/28/02 04:30:31  5-MIN KMSN 281030Z VRB05KT 5SM HZ CLR M07/M10 A3018 620 77 -1800 VRB/05 RMK AO2
14837KMSN MSN20021128043509811/28/02 04:35:31  5-MIN KMSN 281035Z VRB03KT 5SM HZ CLR M07/M11 A3018 620 77 -1900 VRB/03 RMK AO2
14837KMSN MSN20021128044009811/28/02 04:40:31  5-MIN KMSN 281040Z VRB03KT 5SM HZ CLR M07/M10 A3018 620 77 -1800 VRB/03 RMK AO2
14837KMSN MSN20021128044509811/28/02 04:45:31  5-MIN KMSN 281045Z VRB03KT 5SM HZ CLR M07/M11 A3018 620 77 -1900 VRB/03 RMK AO2
14837KMSN MSN20021128045011511/28/02 04:50:31  5-MIN KMSN 281050Z 00000KT 5SM HZ CLR M07/M10 A3018 620 81 -1900 000/00 RMK AO2 SLP235 T10721100
14837KMSN MSN20021128045509811/28/02 04:55:31  5-MIN KMSN 281055Z 00000KT 5SM HZ CLR M07/M10 A3018 620 81 -1900 000/00 RMK AO2
14837KMSN MSN20021128050009811/28/02 05:00:31  5-MIN KMSN 281100Z 23004KT 5SM HZ CLR M07/M10 A3018 620 81 -1900 230/04 RMK AO2
14837KMSN MSN20021128050510111/28/02 05:05:31  5-MIN KMSN 281105Z 23006KT 5SM HZ FEW026 M07/M10 A3018 630 81 -1900 230/06 RMK AO2
14837KMSN MSN20021128051010111/28/02 05:10:31  5-MIN KMSN 281110Z 22005KT 5SM HZ FEW026 M07/M10 A3017 630 77 -1800 220/05 RMK AO2
14837KMSN MSN20021128051510111/28/02 05:15:31  5-MIN KMSN 281115Z 22005KT 5SM HZ FEW026 M07/M10 A3017 630 81 -1900 220/05 RMK AO2
14837KMSN MSN20021128052010111/28/02 05:20:31  5-MIN KMSN 281120Z 22005KT 5SM HZ FEW026 M07/M09 A3017 630 81 -1800 220/05 RMK AO2
14837KMSN MSN20021128052510111/28/02 05:25:31  5-MIN KMSN 281125Z 22005KT 5SM HZ FEW026 M07/M09 A3017 640 81 -1800 220/05 RMK AO2
14837KMSN MSN20021128053010111/28/02 05:30:31  5-MIN KMSN 281130Z 22007KT 5SM HZ FEW026 M07/M09 A3017 640 81 -1800 220/07 RMK AO2
14837KMSN MSN20021128053509811/28/02 05:35:31  5-MIN KMSN 281135Z 21005KT 5SM HZ CLR M07/M09 A3016 640 81 -1800 210/05 RMK AO2
14837KMSN MSN20021128054009811/28/02 05:40:31  5-MIN KMSN 281140Z 24004KT 5SM HZ CLR M07/M09 A3017 640 81 -1800 230/04 RMK AO2
14837KMSN MSN20021128054509811/28/02 05:45:31  5-MIN KMSN 281145Z 23006KT 5SM HZ CLR M07/M09 A3017 640 81 -1800 230/06 RMK AO2
14837KMSN MSN20021128055013611/28/02 05:50:31  5-MIN KMSN 281150Z 23004KT 5SM HZ FEW025 M07/M09 A3017 630 81 -1800 230/04 RMK AO2 SLP230 T10671094 11056 21072 56014
14837KMSN MSN20021128055509811/28/02 05:55:31  5-MIN KMSN 281155Z 24006KT 5SM HZ CLR M07/M09 A3017 640 81 -1800 240/06 RMK AO2
14837KMSN MSN20021128060009811/28/02 06:00:31  5-MIN KMSN 281200Z 23005KT 5SM HZ CLR M07/M09 A3017 640 81 -1800 230/05 RMK AO2
14837KMSN MSN20021128060509811/28/02 06:05:31  5-MIN KMSN 281205Z 25005KT 5SM HZ CLR M07/M09 A3017 640 81 -1800 250/05 RMK AO2
14837KMSN MSN20021128061010111/28/02 06:10:31  5-MIN KMSN 281210Z VRB03KT 5SM HZ FEW027 M07/M09 A3016 640 81 -1800 VRB/03 RMK AO2
14837KMSN MSN20021128061510111/28/02 06:15:31  5-MIN KMSN 281215Z VRB04KT 5SM HZ FEW027 M06/M09 A3017 640 77 -1700 VRB/04 RMK AO2
14837KMSN MSN20021128062010111/28/02 06:20:31  5-MIN KMSN 281220Z 25006KT 5SM HZ SCT027 M06/M09 A3017 640 81 -1700 250/06 RMK AO2
14837KMSN MSN20021128062510111/28/02 06:25:31  5-MIN KMSN 281225Z VRB05KT 5SM HZ BKN027 M06/M09 A3017 640 81 -1700 VRB/05 RMK AO2
14837KMSN MSN20021128063010111/28/02 06:30:31  5-MIN KMSN 281230Z VRB04KT 5SM HZ BKN027 M06/M09 A3017 640 81 -1700 VRB/04 RMK AO2
14837KMSN MSN20021128063510111/28/02 06:35:31  5-MIN KMSN 281235Z VRB06KT 5SM HZ BKN027 M06/M09 A3017 640 81 -1700 VRB/06 RMK AO2
14837KMSN MSN20021128064010111/28/02 06:40:31  5-MIN KMSN 281240Z VRB06KT 5SM HZ OVC027 M06/M09 A3016 640 81 -1700 VRB/06 RMK AO2
14837KMSN MSN20021128064510111/28/02 06:45:31  5-MIN KMSN 281245Z VRB05KT 5SM HZ OVC027 M06/M09 A3017 640 77 -1700 VRB/05 RMK AO2
14837KMSN MSN20021128065011811/28/02 06:50:31  5-MIN KMSN 281250Z VRB04KT 5SM HZ OVC025 M06/M09 A3016 640 77 -1700 VRB/04 RMK AO2 SLP229 T10561089
14837KMSN MSN20021128065510111/28/02 06:55:31  5-MIN KMSN 281255Z VRB04KT 5SM HZ OVC025 M06/M08 A3016 640 81 -1700 VRB/04 RMK AO2
14837KMSN MSN20021128070010111/28/02 07:00:31  5-MIN KMSN 281300Z VRB04KT 5SM HZ OVC025 M06/M08 A3016 640 81 -1700 VRB/04 RMK AO2
14837KMSN MSN20021128070510111/28/02 07:05:31  5-MIN KMSN 281305Z VRB04KT 5SM HZ OVC025 M06/M08 A3016 650 81 -1600 VRB/04 RMK AO2
14837KMSN MSN20021128071010111/28/02 07:10:31  5-MIN KMSN 281310Z VRB04KT 5SM HZ OVC025 M06/M08 A3015 650 81 -1600 VRB/04 RMK AO2
14837KMSN MSN20021128071510111/28/02 07:15:31  5-MIN KMSN 281315Z 23005KT 5SM HZ OVC025 M05/M08 A3015 650 77 -1600 230/05 RMK AO2
14837KMSN MSN20021128072010111/28/02 07:20:31  5-MIN KMSN 281320Z 22006KT 4SM HZ OVC025 M05/M08 A3015 660 81 -1600 220/06 RMK AO2
14837KMSN MSN20021128072510111/28/02 07:25:31  5-MIN KMSN 281325Z 22005KT 4SM HZ OVC025 M04/M08 A3014 660 78 -1500 220/05 RMK AO2
14837KMSN MSN20021128073010111/28/02 07:30:31  5-MIN KMSN 281330Z 19003KT 4SM HZ OVC025 M04/M08 A3014 660 78 -1500 190/03 RMK AO2
14837KMSN MSN20021128073510111/28/02 07:35:31  5-MIN KMSN 281335Z 19005KT 4SM HZ OVC025 M04/M08 A3014 660 78 -1500 190/05 RMK AO2
14837KMSN MSN20021128074010111/28/02 07:40:31  5-MIN KMSN 281340Z 21006KT 5SM HZ OVC025 M04/M08 A3014 660 78 -1500 210/06 RMK AO2
14837KMSN MSN20021128074510111/28/02 07:45:31  5-MIN KMSN 281345Z 22007KT 5SM HZ OVC027 M04/M08 A3014 660 78 -1500 220/07 RMK AO2
14837KMSN MSN20021128075011811/28/02 07:50:31  5-MIN KMSN 281350Z 21006KT 5SM HZ OVC027 M04/M08 A3014 670 74 -1500 210/06 RMK AO2 SLP219 T10441083
14837KMSN MSN20021128075510111/28/02 07:55:31  5-MIN KMSN 281355Z 20006KT 5SM HZ OVC027 M04/M08 A3014 660 74 -1500 200/06 RMK AO2
14837KMSN MSN20021128080010111/28/02 08:00:31  5-MIN KMSN 281400Z 21004KT 5SM HZ OVC027 M04/M08 A3014 660 78 -1500 210/04 RMK AO2
14837KMSN MSN20021128080510111/28/02 08:05:31  5-MIN KMSN 281405Z VRB06KT 5SM HZ OVC027 M04/M08 A3014 660 78 -1500 VRB/06 RMK AO2
14837KMSN MSN20021128081010111/28/02 08:10:31  5-MIN KMSN 281410Z 22007KT 5SM HZ OVC027 M04/M08 A3014 660 74 -1500 220/07 RMK AO2
14837KMSN MSN20021128081510111/28/02 08:15:31  5-MIN KMSN 281415Z 22006KT 5SM HZ OVC027 M04/M08 A3014 660 78 -1500 220/06 RMK AO2
14837KMSN MSN20021128082010111/28/02 08:20:31  5-MIN KMSN 281420Z 23006KT 6SM HZ OVC027 M04/M08 A3015 660 78 -1500 230/06 RMK AO2
14837KMSN MSN20021128082510111/28/02 08:25:31  5-MIN KMSN 281425Z 22008KT 6SM HZ OVC027 M04/M08 A3014 660 74 -1500 220/08 RMK AO2
14837KMSN MSN20021128083010111/28/02 08:30:31  5-MIN KMSN 281430Z 20007KT 6SM HZ OVC027 M04/M08 A3014 660 74 -1500 200/07 RMK AO2
14837KMSN MSN20021128083510111/28/02 08:35:31  5-MIN KMSN 281435Z 21005KT 6SM HZ OVC027 M04/M08 A3014 670 74 -1500 210/05 RMK AO2
14837KMSN MSN20021128084010111/28/02 08:40:31  5-MIN KMSN 281440Z 20006KT 6SM HZ OVC027 M04/M08 A3014 670 74 -1500 200/06 RMK AO2
14837KMSN MSN20021128084510111/28/02 08:45:31  5-MIN KMSN 281445Z 21007KT 6SM HZ OVC029 M04/M08 A3014 660 74 -1500 210/07 RMK AO2
14837KMSN MSN20021128085012411/28/02 08:50:31  5-MIN KMSN 281450Z 21007KT 6SM HZ OVC029 M04/M08 A3013 670 74 -1500 210/07 RMK AO2 SLP218 T10441083 58010
14837KMSN MSN20021128085510111/28/02 08:55:31  5-MIN KMSN 281455Z 19007KT 4SM HZ OVC029 M04/M08 A3013 670 78 -1500 190/07 RMK AO2
14837KMSN MSN20021128090010111/28/02 09:00:31  5-MIN KMSN 281500Z 19009KT 6SM HZ OVC029 M04/M08 A3013 670 78 -1500 190/09 RMK AO2
14837KMSN MSN20021128090510111/28/02 09:05:31  5-MIN KMSN 281505Z 20007KT 6SM HZ OVC029 M04/M08 A3013 670 74 -1500 200/07 RMK AO2
14837KMSN MSN20021128091010111/28/02 09:10:31  5-MIN KMSN 281510Z 20006KT 6SM HZ OVC029 M04/M08 A3013 670 78 -1500 200/06 RMK AO2
14837KMSN MSN20021128091510111/28/02 09:15:31  5-MIN KMSN 281515Z 19007KT 6SM HZ OVC029 M04/M08 A3013 670 78 -1500 190/07 RMK AO2
14837KMSN MSN20021128092010111/28/02 09:20:31  5-MIN KMSN 281520Z 21007KT 6SM HZ OVC029 M04/M08 A3013 670 74 -1400 210/07 RMK AO2
14837KMSN MSN20021128092510111/28/02 09:25:31  5-MIN KMSN 281525Z 21008KT 6SM HZ OVC029 M04/M08 A3013 670 74 -1400 210/08 RMK AO2
14837KMSN MSN20021128093010111/28/02 09:30:31  5-MIN KMSN 281530Z 21007KT 6SM HZ OVC029 M04/M08 A3013 670 74 -1400 210/07 RMK AO2
14837KMSN MSN20021128093510111/28/02 09:35:31  5-MIN KMSN 281535Z 22008KT 6SM HZ OVC029 M04/M08 A3013 670 74 -1400 220/08 RMK AO2
14837KMSN MSN20021128094010111/28/02 09:40:31  5-MIN KMSN 281540Z 20008KT 6SM HZ OVC029 M04/M08 A3013 670 74 -1400 200/08 RMK AO2
14837KMSN MSN20021128094510111/28/02 09:45:31  5-MIN KMSN 281545Z 21009KT 6SM HZ OVC029 M03/M08 A3013 670 71 -1300 210/09 RMK AO2
14837KMSN MSN20021128095011811/28/02 09:50:31  5-MIN KMSN 281550Z 21006KT 6SM HZ OVC031 M03/M08 A3012 680 71 -1300 210/06 RMK AO2 SLP215 T10331078
14837KMSN MSN20021128095510111/28/02 09:55:31  5-MIN KMSN 281555Z 21008KT 5SM HZ OVC031 M03/M08 A3012 680 71 -1300 210/08 RMK AO2
14837KMSN MSN20021128100010111/28/02 10:00:31  5-MIN KMSN 281600Z 21008KT 6SM HZ OVC031 M03/M08 A3013 670 71 -1300 210/08 RMK AO2
14837KMSN MSN20021128100511711/28/02 10:05:31  5-MIN KMSN 281605Z 22007KT 200V260 6SM HZ OVC031 M03/M08 A3013 680 71 -1300 220/07 200V260 RMK AO2
14837KMSN MSN20021128101011711/28/02 10:10:31  5-MIN KMSN 281610Z 21008KT 180V250 6SM HZ OVC031 M03/M08 A3012 680 68 -1200 210/08 180V250 RMK AO2
14837KMSN MSN20021128101510111/28/02 10:15:31  5-MIN KMSN 281615Z 21010KT 6SM HZ OVC031 M03/M08 A3011 690 68 -1200 210/10 RMK AO2
14837KMSN MSN20021128102009811/28/02 10:20:31  5-MIN KMSN 281620Z 22006KT 7SM BKN031 M03/M07 A3011 690 71 -1200 220/06 RMK AO2
14837KMSN MSN20021128102509811/28/02 10:25:31  5-MIN KMSN 281625Z 20008KT 7SM BKN031 M02/M07 A3010 700 69 -1200 200/08 RMK AO2
14837KMSN MSN20021128103011411/28/02 10:30:31  5-MIN KMSN 281630Z 21009KT 170V250 7SM BKN031 M02/M07 A3010 700 69 -1200 210/09 170V250 RMK AO2
14837KMSN MSN20021128103509811/28/02 10:35:31  5-MIN KMSN 281635Z 22009KT 8SM FEW031 M02/M08 A3010 700 66 -1200 220/09 RMK AO2
14837KMSN MSN20021128104009811/28/02 10:40:31  5-MIN KMSN 281640Z 23009KT 8SM FEW031 M02/M07 A3009 700 69 -1100 230/09 RMK AO2
14837KMSN MSN20021128104509611/28/02 10:45:31  5-MIN KMSN 281645Z 21010KT 10SM CLR M02/M07 A3009 710 69 -1100 200/10 RMK AO2
14837KMSN MSN20021128105011311/28/02 10:50:31  5-MIN KMSN 281650Z 20008KT 10SM CLR M02/M07 A3009 710 66 -1100 200/08 RMK AO2 SLP201 T10171072
14837KMSN MSN20021128105509611/28/02 10:55:31  5-MIN KMSN 281655Z 21008KT 10SM CLR M02/M07 A3009 710 66 -1100 200/08 RMK AO2
14837KMSN MSN20021128110011211/28/02 11:00:31  5-MIN KMSN 281700Z 23008KT 200V260 10SM CLR M02/M07 A3009 710 66 -1100 230/08 200V260 RMK AO2
14837KMSN MSN20021128110511211/28/02 11:05:31  5-MIN KMSN 281705Z 22007KT 190V260 10SM CLR M01/M07 A3008 720 63 -1000 220/07 190V260 RMK AO2
14837KMSN MSN20021128111011211/28/02 11:10:31  5-MIN KMSN 281710Z 21007KT 180V270 10SM CLR M01/M07 A3008 720 63 -1000 210/07 180V270 RMK AO2
14837KMSN MSN20021128111509611/28/02 11:15:31  5-MIN KMSN 281715Z 21007KT 10SM CLR M01/M07 A3007 730 63 -1000 210/07 RMK AO2
14837KMSN MSN20021128112009511/28/02 11:20:31  5-MIN KMSN 281720Z VRB06KT 10SM CLR M01/M07 A3007 730 61 -900 VRB/06 RMK AO2
14837KMSN MSN20021128112511111/28/02 11:25:31  5-MIN KMSN 281725Z 20007KT 050V250 10SM CLR M01/M07 A3006 730 61 -900 200/07 050V250 RMK AO2
14837KMSN MSN20021128113009511/28/02 11:30:31  5-MIN KMSN 281730Z 22007KT 10SM CLR M01/M07 A3006 730 61 -900 220/07 RMK AO2
14837KMSN MSN20021128113509511/28/02 11:35:31  5-MIN KMSN 281735Z 21007KT 10SM CLR M01/M07 A3006 730 63 -900 200/07 RMK AO2
14837KMSN MSN20021128114009511/28/02 11:40:31  5-MIN KMSN 281740Z 20009KT 10SM CLR M01/M07 A3006 740 61 -900 190/09 RMK AO2
14837KMSN MSN20021128114509511/28/02 11:45:31  5-MIN KMSN 281745Z 22010KT 10SM CLR M01/M07 A3006 740 61 -900 220/10 RMK AO2
14837KMSN MSN20021128115013011/28/02 11:50:31  5-MIN KMSN 281750Z 21008KT 10SM CLR M01/M07 A3005 740 61 -900 210/08 RMK AO2 SLP189 T10061072 11006 21067 57013
14837KMSN MSN20021128115509711/28/02 11:55:31  5-MIN KMSN 281755Z 21008KT 6SM HZ CLR M01/M07 A3005 740 63 -900 210/08 RMK AO2
14837KMSN MSN20021128120009411/28/02 12:00:31  5-MIN KMSN 281800Z 21009KT 10SM CLR 00/M07 A3005 750 61 -800 200/09 RMK AO2
14837KMSN MSN20021128120509411/28/02 12:05:31  5-MIN KMSN 281805Z 23008KT 10SM CLR 00/M07 A3004 750 61 -800 230/08 RMK AO2
14837KMSN MSN20021128121009411/28/02 12:10:31  5-MIN KMSN 281810Z 22008KT 10SM CLR 00/M07 A3004 760 61 -800 220/08 RMK AO2
14837KMSN MSN20021128121510011/28/02 12:15:31  5-MIN KMSN 281815Z 22009G14KT 10SM CLR 01/M07 A3004 760 58 -700 220/09G14 RMK AO2
14837KMSN MSN20021128122009411/28/02 12:20:31  5-MIN KMSN 281820Z 21010KT 10SM CLR 00/M07 A3003 760 61 -800 210/10 RMK AO2
14837KMSN MSN20021128122509411/28/02 12:25:31  5-MIN KMSN 281825Z 21008KT 10SM CLR 00/M07 A3003 760 61 -800 210/08 RMK AO2
14837KMSN MSN20021128123009411/28/02 12:30:31  5-MIN KMSN 281830Z 21008KT 10SM CLR 01/M07 A3003 770 58 -700 210/08 RMK AO2
14837KMSN MSN20021128123509411/28/02 12:35:31  5-MIN KMSN 281835Z 21010KT 10SM CLR 01/M07 A3002 770 58 -700 210/10 RMK AO2
14837KMSN MSN20021128124009411/28/02 12:40:31  5-MIN KMSN 281840Z 21008KT 10SM CLR 01/M07 A3002 770 58 -700 210/08 RMK AO2
14837KMSN MSN20021128124509411/28/02 12:45:31  5-MIN KMSN 281845Z 19008KT 10SM CLR 01/M06 A3002 770 58 -600 190/08 RMK AO2
14837KMSN MSN20021128125011111/28/02 12:50:31  5-MIN KMSN 281850Z 20010KT 10SM CLR 01/M07 A3002 780 56 -600 200/10 RMK AO2 SLP176 T00111067
14837KMSN MSN20021128125509411/28/02 12:55:31  5-MIN KMSN 281855Z 20009KT 10SM CLR 01/M07 A3002 780 56 -600 200/09 RMK AO2
14837KMSN MSN20021128130009411/28/02 13:00:31  5-MIN KMSN 281900Z 21008KT 10SM CLR 01/M07 A3002 780 56 -600 210/08 RMK AO2
14837KMSN MSN20021128130509411/28/02 13:05:31  5-MIN KMSN 281905Z 21010KT 10SM CLR 01/M07 A3001 780 56 -600 210/10 RMK AO2
14837KMSN MSN20021128131011011/28/02 13:10:31  5-MIN KMSN 281910Z 21008KT 180V250 10SM CLR 01/M06 A3001 780 58 -600 210/08 180V250 RMK AO2
14837KMSN MSN20021128131511011/28/02 13:15:31  5-MIN KMSN 281915Z 23008KT 200V260 10SM CLR 02/M06 A3001 780 56 -600 230/08 200V260 RMK AO2
14837KMSN MSN20021128132011011/28/02 13:20:31  5-MIN KMSN 281920Z 23009KT 200V270 10SM CLR 02/M06 A3000 790 56 -600 220/09 200V270 RMK AO2
14837KMSN MSN20021128132511911/28/02 13:25:31  5-MIN KMSN 281925Z 23009G15KT 190V270 10SM FEW035 02/M07 A3000 790 54 -600 230/09G15 190V270 RMK AO2
14837KMSN MSN20021128133010311/28/02 13:30:31  5-MIN KMSN 281930Z 23011G15KT 10SM FEW035 02/M06 A3000 790 56 -500 230/11G15 RMK AO2
14837KMSN MSN20021128133511911/28/02 13:35:31  5-MIN KMSN 281935Z 22010G14KT 190V250 10SM FEW035 02/M06 A2999 800 56 -500 220/10G14 190V250 RMK AO2
14837KMSN MSN20021128134010311/28/02 13:40:31  5-MIN KMSN 281940Z 22010G14KT 10SM FEW035 02/M06 A2999 800 56 -500 220/10G14 RMK AO2
14837KMSN MSN20021128134509711/28/02 13:45:31  5-MIN KMSN 281945Z 22010KT 10SM FEW035 02/M07 A2999 800 54 -500 220/10 RMK AO2
14837KMSN MSN20021128135011411/28/02 13:50:31  5-MIN KMSN 281950Z 22007KT 10SM FEW035 02/M07 A2998 810 54 -500 220/07 RMK AO2 SLP164 T00171067
14837KMSN MSN20021128135511611/28/02 13:55:31  5-MIN KMSN 281955Z 23008G15KT 200V280 10SM CLR 02/M07 A2998 810 54 -500 230/08G15 200V280 RMK AO2
14837KMSN MSN20021128140011611/28/02 14:00:31  5-MIN KMSN 282000Z 23009G15KT 200V260 10SM CLR 02/M07 A2998 810 54 -500 230/09G15 200V260 RMK AO2
14837KMSN MSN20021128140510011/28/02 14:05:31  5-MIN KMSN 282005Z 24008G15KT 10SM CLR 02/M07 A2998 810 54 -500 240/08G15 RMK AO2
14837KMSN MSN20021128141011011/28/02 14:10:31  5-MIN KMSN 282010Z 23007KT 210V270 10SM CLR 02/M07 A2998 810 54 -500 230/07 210V270 RMK AO2
14837KMSN MSN20021128141511011/28/02 14:15:31  5-MIN KMSN 282015Z 22007KT 180V250 10SM CLR 02/M07 A2998 810 54 -500 220/07 180V250 RMK AO2
14837KMSN MSN20021128142010011/28/02 14:20:31  5-MIN KMSN 282020Z 23011G16KT 10SM CLR 02/M07 A2998 810 54 -500 230/11G16 RMK AO2
14837KMSN MSN20021128142510011/28/02 14:25:31  5-MIN KMSN 282025Z 24008G16KT 10SM CLR 02/M07 A2997 820 54 -500 240/08G16 RMK AO2
14837KMSN MSN20021128143009411/28/02 14:30:31  5-MIN KMSN 282030Z 22009KT 10SM CLR 02/M07 A2996 830 54 -500 220/09 RMK AO2
14837KMSN MSN20021128143509411/28/02 14:35:31  5-MIN KMSN 282035Z 23010KT 10SM CLR 02/M07 A2996 830 54 -500 230/10 RMK AO2
14837KMSN MSN20021128144010011/28/02 14:40:31  5-MIN KMSN 282040Z 21010G16KT 10SM CLR 02/M07 A2996 830 54 -500 210/10G16 RMK AO2
14837KMSN MSN20021128144510011/28/02 14:45:31  5-MIN KMSN 282045Z 21012G16KT 10SM CLR 02/M07 A2996 830 54 -500 210/12G16 RMK AO2
14837KMSN MSN20021128145012311/28/02 14:50:31  5-MIN KMSN 282050Z 23008G17KT 10SM CLR 01/M07 A2996 830 56 -600 220/08G17 RMK AO2 SLP156 T00111067 58026
14837KMSN MSN20021128145509911/28/02 14:55:31  5-MIN KMSN 282055Z 22011G17KT 7SM CLR 01/M07 A2996 830 56 -600 220/11G17 RMK AO2
14837KMSN MSN20021128150010011/28/02 15:00:31  5-MIN KMSN 282100Z 21012G16KT 10SM CLR 02/M07 A2996 830 54 -500 210/12G16 RMK AO2
14837KMSN MSN20021128150510011/28/02 15:05:31  5-MIN KMSN 282105Z 22010G16KT 10SM CLR 02/M07 A2996 830 54 -500 220/10G16 RMK AO2
14837KMSN MSN20021128151010011/28/02 15:10:31  5-MIN KMSN 282110Z 22009G15KT 10SM CLR 02/M07 A2996 830 54 -500 220/09G15 RMK AO2
14837KMSN MSN20021128151510011/28/02 15:15:31  5-MIN KMSN 282115Z 23010G15KT 10SM CLR 01/M07 A2995 840 56 -600 230/10G15 RMK AO2
14837KMSN MSN20021128152010011/28/02 15:20:31  5-MIN KMSN 282120Z 22011G17KT 10SM CLR 01/M07 A2995 840 56 -600 220/11G17 RMK AO2
14837KMSN MSN20021128152510011/28/02 15:25:31  5-MIN KMSN 282125Z 23010G17KT 10SM CLR 01/M07 A2994 840 56 -600 230/10G17 RMK AO2
14837KMSN MSN20021128153009411/28/02 15:30:31  5-MIN KMSN 282130Z 24010KT 10SM CLR 01/M07 A2995 840 56 -600 230/10 RMK AO2
14837KMSN MSN20021128153510011/28/02 15:35:31  5-MIN KMSN 282135Z 23010G16KT 10SM CLR 01/M07 A2994 840 56 -600 230/10G16 RMK AO2
14837KMSN MSN20021128154010011/28/02 15:40:31  5-MIN KMSN 282140Z 22011G18KT 10SM CLR 01/M07 A2994 850 56 -500 220/11G18 RMK AO2
14837KMSN MSN20021128154510011/28/02 15:45:31  5-MIN KMSN 282145Z 23011G18KT 10SM CLR 01/M07 A2994 840 56 -600 230/11G18 RMK AO2
14837KMSN MSN20021128155011711/28/02 15:50:31  5-MIN KMSN 282150Z 23010G17KT 10SM CLR 01/M07 A2994 850 56 -500 230/10G17 RMK AO2 SLP149 T00111067
14837KMSN MSN20021128155509311/28/02 15:55:31  5-MIN KMSN 282155Z 22010KT 9SM CLR 01/M07 A2994 850 56 -500 220/10 RMK AO2
14837KMSN MSN20021128160010211/28/02 16:00:31  5-MIN KMSN 282200Z 22009G15KT 9SM FEW120 01/M07 A2993 850 56 -500 220/09G15 RMK AO2
14837KMSN MSN20021128160510211/28/02 16:05:31  5-MIN KMSN 282205Z 23008G15KT 9SM FEW120 01/M07 A2994 850 56 -500 220/08G15 RMK AO2
14837KMSN MSN20021128161009611/28/02 16:10:31  5-MIN KMSN 282210Z VRB06KT 9SM FEW120 01/M06 A2995 840 58 -600 VRB/06 RMK AO2
14837KMSN MSN20021128161510211/28/02 16:15:31  5-MIN KMSN 282215Z 24010G14KT 9SM SCT120 01/M06 A2995 840 58 -600 240/10G14 RMK AO2
14837KMSN MSN20021128162011811/28/02 16:20:31  5-MIN KMSN 282220Z 23007G14KT 190V270 9SM BKN110 01/M06 A2995 840 58 -600 230/07G14 190V270 RMK AO2
14837KMSN MSN20021128162510211/28/02 16:25:31  5-MIN KMSN 282225Z 23008G14KT 9SM BKN110 01/M06 A2994 840 61 -600 230/08G14 RMK AO2
14837KMSN MSN20021128163009611/28/02 16:30:31  5-MIN KMSN 282230Z 22010KT 9SM SCT110 01/M06 A2994 850 61 -600 220/10 RMK AO2
14837KMSN MSN20021128163509611/28/02 16:35:31  5-MIN KMSN 282235Z 22008KT 9SM FEW110 01/M06 A2993 860 61 -600 220/08 RMK AO2
14837KMSN MSN20021128164009611/28/02 16:40:31  5-MIN KMSN 282240Z 23007KT 8SM FEW110 01/M06 A2993 860 61 -600 230/07 RMK AO2
14837KMSN MSN20021128164509611/28/02 16:45:31  5-MIN KMSN 282245Z 22008KT 8SM FEW110 01/M06 A2993 860 61 -600 220/08 RMK AO2
14837KMSN MSN20021128165011311/28/02 16:50:31  5-MIN KMSN 282250Z 22007KT 9SM FEW110 01/M06 A2993 860 61 -600 220/07 RMK AO2 SLP147 T00061061
14837KMSN MSN20021128165509611/28/02 16:55:31  5-MIN KMSN 282255Z 22008KT 9SM FEW110 01/M06 A2993 850 61 -600 220/08 RMK AO2
14837KMSN MSN20021128170010211/28/02 17:00:31  5-MIN KMSN 282300Z 22009G14KT 9SM FEW110 01/M06 A2993 850 61 -600 220/09G14 RMK AO2
14837KMSN MSN20021128170509611/28/02 17:05:31  5-MIN KMSN 282305Z 22007KT 9SM FEW110 01/M06 A2993 860 61 -600 220/07 RMK AO2
14837KMSN MSN20021128171009611/28/02 17:10:31  5-MIN KMSN 282310Z 22009KT 9SM FEW110 01/M06 A2992 860 61 -600 220/09 RMK AO2
14837KMSN MSN20021128171509611/28/02 17:15:31  5-MIN KMSN 282315Z 23008KT 9SM FEW110 01/M06 A2992 860 61 -600 230/08 RMK AO2
14837KMSN MSN20021128172009611/28/02 17:20:31  5-MIN KMSN 282320Z 22009KT 9SM FEW110 01/M06 A2992 870 61 -600 220/09 RMK AO2
14837KMSN MSN20021128172509611/28/02 17:25:31  5-MIN KMSN 282325Z 22008KT 8SM FEW110 01/M06 A2991 870 61 -600 210/08 RMK AO2
14837KMSN MSN20021128173009611/28/02 17:30:31  5-MIN KMSN 282330Z 22008KT 8SM FEW110 00/M06 A2991 870 63 -700 220/08 RMK AO2
14837KMSN MSN20021128173509611/28/02 17:35:31  5-MIN KMSN 282335Z 21008KT 8SM FEW110 00/M06 A2990 880 63 -600 210/08 RMK AO2
14837KMSN MSN20021128174009611/28/02 17:40:31  5-MIN KMSN 282340Z 22009KT 8SM FEW110 00/M06 A2990 890 63 -600 220/09 RMK AO2
14837KMSN MSN20021128174509611/28/02 17:45:31  5-MIN KMSN 282345Z 22011KT 8SM FEW110 01/M06 A2990 880 61 -600 220/11 RMK AO2
14837KMSN MSN20021128175013411/28/02 17:50:31  5-MIN KMSN 282350Z 22008G15KT 8SM CLR 00/M06 A2990 880 63 -600 220/08G15 RMK AO2 SLP138 T00001061 10017 21006 56030
14837KMSN MSN20021128175509311/28/02 17:55:31  5-MIN KMSN 282355Z 22009KT 8SM CLR 01/M06 A2990 880 61 -600 220/09 RMK AO2
14837KMSN MSN20021128180009311/28/02 18:00:31  5-MIN KMSN 290000Z 21010KT 8SM CLR 00/M06 A2989 890 63 -600 210/10 RMK AO2
14837KMSN MSN20021128180509911/28/02 18:05:31  5-MIN KMSN 290005Z 22008G15KT 8SM CLR 00/M06 A2989 890 63 -600 220/08G15 RMK AO2
14837KMSN MSN20021128181009311/28/02 18:10:31  5-MIN KMSN 290010Z 22008KT 8SM CLR 00/M06 A2989 890 63 -600 210/08 RMK AO2
14837KMSN MSN20021128181509311/28/02 18:15:31  5-MIN KMSN 290015Z 21007KT 8SM CLR 00/M06 A2989 890 63 -600 200/07 RMK AO2
14837KMSN MSN20021128182009911/28/02 18:20:31  5-MIN KMSN 290020Z 22008G15KT 8SM CLR 00/M06 A2989 900 63 -600 220/08G15 RMK AO2
14837KMSN MSN20021128182509911/28/02 18:25:31  5-MIN KMSN 290025Z 21007G15KT 8SM CLR 00/M06 A2988 900 63 -600 210/07G15 RMK AO2
14837KMSN MSN20021128183009911/28/02 18:30:31  5-MIN KMSN 290030Z 21007G15KT 8SM CLR 00/M06 A2987 910 63 -600 210/07G15 RMK AO2
14837KMSN MSN20021128183510611/28/02 18:35:31  5-MIN KMSN 290035Z 20008G15KT 8SM CLR 00/M06 A2986 920 63 -600 200/08G15 RMK AO2 PRESFR
14837KMSN MSN20021128184009411/28/02 18:40:31  5-MIN KMSN 290040Z 21008KT 8SM CLR M01/M06 A2986 920 66 -700 210/08 RMK AO2
14837KMSN MSN20021128184509411/28/02 18:45:31  5-MIN KMSN 290045Z 21009KT 8SM CLR M01/M06 A2986 920 66 -700 210/09 RMK AO2
14837KMSN MSN20021128185011111/28/02 18:50:31  5-MIN KMSN 290050Z 21009KT 8SM CLR M01/M06 A2986 920 66 -700 210/09 RMK AO2 SLP121 T10061061
14837KMSN MSN20021128185509411/28/02 18:55:31  5-MIN KMSN 290055Z 21008KT 7SM CLR M01/M06 A2986 920 66 -700 210/08 RMK AO2
14837KMSN MSN20021128190010011/28/02 19:00:31  5-MIN KMSN 290100Z 21008G15KT 7SM CLR M01/M06 A2985 930 66 -700 210/08G15 RMK AO2
14837KMSN MSN20021128190510011/28/02 19:05:31  5-MIN KMSN 290105Z 22010G15KT 7SM CLR M01/M06 A2985 930 66 -700 220/10G15 RMK AO2
14837KMSN MSN20021128191009311/28/02 19:10:31  5-MIN KMSN 290110Z 22009KT 7SM CLR 00/M06 A2985 930 63 -600 210/09 RMK AO2
14837KMSN MSN20021128191509911/28/02 19:15:31  5-MIN KMSN 290115Z 21010G16KT 7SM CLR 00/M06 A2984 940 63 -600 210/10G16 RMK AO2
14837KMSN MSN20021128192009911/28/02 19:20:31  5-MIN KMSN 290120Z 22009G16KT 7SM CLR 00/M06 A2984 940 63 -600 220/09G16 RMK AO2
14837KMSN MSN20021128192509311/28/02 19:25:31  5-MIN KMSN 290125Z 21009KT 7SM CLR 00/M06 A2984 940 63 -600 210/09 RMK AO2
14837KMSN MSN20021128193009311/28/02 19:30:31  5-MIN KMSN 290130Z 22009KT 7SM CLR 00/M06 A2984 940 63 -600 220/09 RMK AO2
14837KMSN MSN20021128193509311/28/02 19:35:31  5-MIN KMSN 290135Z 21011KT 7SM CLR 00/M06 A2983 940 63 -600 210/11 RMK AO2
14837KMSN MSN20021128194009911/28/02 19:40:31  5-MIN KMSN 290140Z 22010G18KT 7SM CLR 00/M06 A2983 940 63 -600 210/10G18 RMK AO2
14837KMSN MSN20021128194509911/28/02 19:45:31  5-MIN KMSN 290145Z 22009G18KT 7SM CLR 00/M06 A2983 950 63 -600 220/09G18 RMK AO2
14837KMSN MSN20021128195011611/28/02 19:50:31  5-MIN KMSN 290150Z 22011G16KT 7SM CLR 00/M06 A2983 950 63 -600 210/11G16 RMK AO2 SLP112 T00001061
14837KMSN MSN20021128195509911/28/02 19:55:31  5-MIN KMSN 290155Z 21011G16KT 7SM CLR 00/M06 A2982 960 63 -600 210/11G16 RMK AO2
14837KMSN MSN20021128200010611/28/02 20:00:31  5-MIN KMSN 290200Z 22012G17KT 7SM CLR 00/M06 A2981 960 63 -500 220/12G17 RMK AO2 PRESFR
14837KMSN MSN20021128200510611/28/02 20:05:31  5-MIN KMSN 290205Z 22010G17KT 7SM CLR 00/M06 A2980 970 66 -500 220/10G17 RMK AO2 PRESFR
14837KMSN MSN20021128201009311/28/02 20:10:31  5-MIN KMSN 290210Z 21010KT 7SM CLR 00/M06 A2980 980 66 -500 210/10 RMK AO2
14837KMSN MSN20021128201511511/28/02 20:15:31  5-MIN KMSN 290215Z 21008G14KT 190V260 7SM CLR 00/M06 A2980 980 66 -500 210/08G14 190V260 RMK AO2
14837KMSN MSN20021128202009911/28/02 20:20:31  5-MIN KMSN 290220Z 21008G14KT 7SM CLR 00/M06 A2979 990 66 -500 210/08G14 RMK AO2
14837KMSN MSN20021128202510011/28/02 20:25:31  5-MIN KMSN 290225Z 21008KT 7SM CLR 00/M06 A2978 990 66 -500 210/08 RMK AO2 PRESFR
14837KMSN MSN20021128203009411/28/02 20:30:31  5-MIN KMSN 290230Z 20009KT 7SM CLR 00/M06 A2978 1000 66 -500 200/09 RMK AO2
14837KMSN MSN20021128203509311/28/02 20:35:31  5-MIN KMSN 290235Z 22010KT 7SM CLR 00/M06 A2978 990 66 -500 220/10 RMK AO2
14837KMSN MSN20021128204009311/28/02 20:40:31  5-MIN KMSN 290240Z 21009KT 7SM CLR 00/M06 A2978 990 66 -500 210/09 RMK AO2
14837KMSN MSN20021128204510011/28/02 20:45:31  5-MIN KMSN 290245Z 21010G18KT 7SM CLR 00/M06 A2978 1000 66 -500 210/10G18 RMK AO2
14837KMSN MSN20021128205012311/28/02 20:50:31  5-MIN KMSN 290250Z 21010G18KT 7SM CLR 00/M06 A2977 1000 66 -500 200/10G18 RMK AO2 SLP093 T00001056 58019
14837KMSN MSN20021128205509411/28/02 20:55:31  5-MIN KMSN 290255Z 21009KT 7SM CLR 00/M05 A2977 1000 69 -500 210/09 RMK AO2
14837KMSN MSN20021128210009411/28/02 21:00:31  5-MIN KMSN 290300Z 21011KT 7SM CLR 01/M04 A2977 1010 69 -400 210/11 RMK AO2
14837KMSN MSN20021128210510011/28/02 21:05:31  5-MIN KMSN 290305Z 20008G17KT 7SM CLR 01/M04 A2976 1010 69 -400 200/08G17 RMK AO2
14837KMSN MSN20021128211011911/28/02 21:10:31  5-MIN KMSN 290310Z 22008G17KT 180V240 7SM BKN038 01/M06 A2976 1010 63 -400 220/08G17 180V240 RMK AO2
14837KMSN MSN20021128211510311/28/02 21:15:31  5-MIN KMSN 290315Z 22009G17KT 8SM BKN038 01/M06 A2976 1010 63 -400 220/09G17 RMK AO2
14837KMSN MSN20021128212010311/28/02 21:20:31  5-MIN KMSN 290320Z 22010G17KT 8SM BKN038 01/M06 A2976 1020 61 -300 210/10G17 RMK AO2
14837KMSN MSN20021128212509711/28/02 21:25:31  5-MIN KMSN 290325Z 22009KT 8SM SCT038 01/M06 A2975 1020 61 -300 210/09 RMK AO2
14837KMSN MSN20021128213010411/28/02 21:30:31  5-MIN KMSN 290330Z 21009KT 8SM SCT038 01/M06 A2974 1030 61 -300 210/09 RMK AO2 PRESFR
14837KMSN MSN20021128213510311/28/02 21:35:31  5-MIN KMSN 290335Z 22008G15KT 8SM SCT038 01/M06 A2974 1030 61 -300 220/08G15 RMK AO2
14837KMSN MSN20021128214011911/28/02 21:40:31  5-MIN KMSN 290340Z 22011G18KT 190V260 9SM FEW038 01/M06 A2974 1040 61 -300 220/11G18 190V260 RMK AO2
14837KMSN MSN20021128214510311/28/02 21:45:31  5-MIN KMSN 290345Z 22009G18KT 9SM FEW038 01/M06 A2973 1040 61 -300 210/09G18 RMK AO2
14837KMSN MSN20021128215011711/28/02 21:50:31  5-MIN KMSN 290350Z 21012G17KT 9SM CLR 01/M06 A2973 1050 61 -300 210/12G17 RMK AO2 SLP076 T00111056
14837KMSN MSN20021128215511611/28/02 21:55:31  5-MIN KMSN 290355Z 22010G17KT 180V240 9SM CLR 01/M06 A2972 1050 61 -300 220/10G17 180V240 RMK AO2
14837KMSN MSN20021128220010011/28/02 22:00:31  5-MIN KMSN 290400Z 22012G19KT 9SM CLR 01/M05 A2972 1050 64 -300 220/12G19 RMK AO2
14837KMSN MSN20021128220510011/28/02 22:05:31  5-MIN KMSN 290405Z 22014G20KT 9SM CLR 02/M05 A2971 1060 61 -200 220/14G20 RMK AO2
14837KMSN MSN20021128221010011/28/02 22:10:31  5-MIN KMSN 290410Z 22013G20KT 9SM CLR 02/M05 A2971 1060 61 -200 220/13G20 RMK AO2
14837KMSN MSN20021128221510111/28/02 22:15:31  5-MIN KMSN 290415Z 21011G18KT 10SM CLR 02/M05 A2971 1060 61 -200 210/11G18 RMK AO2
14837KMSN MSN20021128222010111/28/02 22:20:31  5-MIN KMSN 290420Z 21012G18KT 10SM CLR 02/M05 A2971 1060 61 -200 210/12G18 RMK AO2
14837KMSN MSN20021128222510111/28/02 22:25:31  5-MIN KMSN 290425Z 22013G20KT 10SM CLR 02/M05 A2970 1070 61 -200 220/13G20 RMK AO2
14837KMSN MSN20021128223010111/28/02 22:30:31  5-MIN KMSN 290430Z 22010G20KT 10SM CLR 02/M05 A2970 1070 61 -200 220/10G20 RMK AO2
14837KMSN MSN20021128223510811/28/02 22:35:31  5-MIN KMSN 290435Z 21010G18KT 10SM CLR 02/M05 A2969 1080 61 -200 210/10G18 RMK AO2 PRESFR
14837KMSN MSN20021128224010111/28/02 22:40:31  5-MIN KMSN 290440Z 22012G17KT 10SM CLR 02/M05 A2969 1080 61 -200 220/12G17 RMK AO2
14837KMSN MSN20021128224510111/28/02 22:45:31  5-MIN KMSN 290445Z 22012G18KT 10SM CLR 02/M05 A2969 1080 61 -200 220/12G18 RMK AO2
14837KMSN MSN20021128225012511/28/02 22:50:31  5-MIN KMSN 290450Z 21012G18KT 10SM CLR 02/M05 A2967 1100 61 -200 200/12G18 RMK AO2 PRESFR SLP055 T00171050
14837KMSN MSN20021128225510111/28/02 22:55:31  5-MIN KMSN 290455Z 21012G18KT 10SM CLR 02/M04 A2967 1100 61 -100 210/12G18 RMK AO2
14837KMSN MSN20021128230010111/28/02 23:00:31  5-MIN KMSN 290500Z 22012G18KT 10SM CLR 02/M04 A2966 1100 61 -100 210/12G18 RMK AO2
14837KMSN MSN20021128230510111/28/02 23:05:31  5-MIN KMSN 290505Z 21015G20KT 10SM CLR 02/M04 A2966 1100 61 -100 210/15G20 RMK AO2
14837KMSN MSN20021128231010111/28/02 23:10:31  5-MIN KMSN 290510Z 22011G20KT 10SM CLR 02/M04 A2966 1110 61 -100 220/11G20 RMK AO2
14837KMSN MSN20021128231510111/28/02 23:15:31  5-MIN KMSN 290515Z 22012G19KT 10SM CLR 02/M04 A2965 1110 61 -100 220/12G19 RMK AO2
14837KMSN MSN20021128232010111/28/02 23:20:31  5-MIN KMSN 290520Z 22011G18KT 10SM CLR 02/M04 A2965 1110 61 -100 220/11G18 RMK AO2
14837KMSN MSN20021128232509511/28/02 23:25:31  5-MIN KMSN 290525Z 22009KT 10SM CLR 02/M04 A2964 1120 61 -100 220/09 RMK AO2
14837KMSN MSN20021128233011411/28/02 23:30:31  5-MIN KMSN 290530Z 22011G20KT 190V260 10SM CLR 03/M04 A2964 1130 59 0 220/11G20 190V260 RMK AO2
14837KMSN MSN20021128233510511/28/02 23:35:31  5-MIN KMSN 290535Z 21009G20KT 10SM CLR 03/M04 A2963 1130 59 0 210/09G20 RMK AO2 PRESFR
14837KMSN MSN20021128234009911/28/02 23:40:31  5-MIN KMSN 290540Z 22010KT 10SM CLR 03/M04 A2962 1140 59 0 220/10 RMK AO2 PRESFR
14837KMSN MSN20021128234509911/28/02 23:45:31  5-MIN KMSN 290545Z 21011KT 10SM CLR 03/M04 A2961 1150 59 0 210/11 RMK AO2 PRESFR
14837KMSN MSN20021128235015011/28/02 23:50:31  5-MIN KMSN 290550Z 21011G18KT 10SM CLR 03/M04 A2960 1160 59 0 210/11G18 RMK AO2 PRESFR SLP033 T00281044 10028 21006 400281072 58044
14837KMSN MSN20021128235510511/28/02 23:55:31  5-MIN KMSN 290555Z 21014G20KT 10SM CLR 03/M04 A2960 1160 59 0 210/14G20 RMK AO2 PRESFR
14837KMSN MSN20021129000009811/29/02 00:00:31  5-MIN KMSN 290600Z 21010G20KT 10SM CLR 03/M04 A2960 1170 61 0 210/10G20 RMK AO2
14837KMSN MSN20021129000510511/29/02 00:05:31  5-MIN KMSN 290605Z 21012G19KT 10SM CLR 03/M04 A2958 1180 61 0 210/12G19 RMK AO2 PRESFR
14837KMSN MSN20021129001010511/29/02 00:10:31  5-MIN KMSN 290610Z 21012G19KT 10SM CLR 03/M04 A2957 1190 61 0 210/12G19 RMK AO2 PRESFR
14837KMSN MSN20021129001509811/29/02 00:15:31  5-MIN KMSN 290615Z 21015G20KT 10SM CLR 03/M04 A2957 1190 61 0 210/15G20 RMK AO2
14837KMSN MSN20021129002009811/29/02 00:20:31  5-MIN KMSN 290620Z 22010G20KT 10SM CLR 03/M04 A2956 1200 61 0 220/10G20 RMK AO2
14837KMSN MSN20021129002510011/29/02 00:25:31  5-MIN KMSN 290625Z 22015G22KT 10SM CLR 03/M04 A2956 1200 61 100 220/15G22 RMK AO2
14837KMSN MSN20021129003010011/29/02 00:30:31  5-MIN KMSN 290630Z 22015G22KT 10SM CLR 03/M04 A2955 1210 59 100 220/15G22 RMK AO2
14837KMSN MSN20021129003510011/29/02 00:35:31  5-MIN KMSN 290635Z 22014G21KT 10SM CLR 03/M03 A2955 1210 61 100 220/14G21 RMK AO2
14837KMSN MSN20021129004010011/29/02 00:40:31  5-MIN KMSN 290640Z 22013G18KT 10SM CLR 03/M03 A2954 1210 61 100 220/13G18 RMK AO2
14837KMSN MSN20021129004510011/29/02 00:45:31  5-MIN KMSN 290645Z 22011G18KT 10SM CLR 03/M03 A2954 1220 61 100 220/11G18 RMK AO2
14837KMSN MSN20021129005011711/29/02 00:50:31  5-MIN KMSN 290650Z 22012G18KT 10SM CLR 03/M03 A2953 1230 61 100 220/12G18 RMK AO2 SLP007 T00331033
14837KMSN MSN20021129005510711/29/02 00:55:31  5-MIN KMSN 290655Z 22013G19KT 10SM CLR 03/M03 A2952 1240 61 200 220/13G19 RMK AO2 PRESFR
14837KMSN MSN20021129010010711/29/02 01:00:31  5-MIN KMSN 290700Z 21013G19KT 10SM CLR 04/M03 A2951 1240 59 200 210/13G19 RMK AO2 PRESFR
14837KMSN MSN20021129010510711/29/02 01:05:31  5-MIN KMSN 290705Z 21012G18KT 10SM CLR 04/M03 A2951 1250 59 200 210/12G18 RMK AO2 PRESFR
14837KMSN MSN20021129011009411/29/02 01:10:31  5-MIN KMSN 290710Z 21014KT 10SM CLR 04/M03 A2951 1250 59 200 210/14 RMK AO2
14837KMSN MSN20021129011510011/29/02 01:15:31  5-MIN KMSN 290715Z 22014G20KT 10SM CLR 04/M03 A2950 1260 59 300 210/14G20 RMK AO2
14837KMSN MSN20021129012010011/29/02 01:20:31  5-MIN KMSN 290720Z 22013G21KT 10SM CLR 04/M03 A2949 1260 59 300 220/13G21 RMK AO2
14837KMSN MSN20021129012510011/29/02 01:25:31  5-MIN KMSN 290725Z 22012G21KT 10SM CLR 04/M03 A2949 1260 62 300 220/12G21 RMK AO2
14837KMSN MSN20021129013010011/29/02 01:30:31  5-MIN KMSN 290730Z 22011G19KT 10SM CLR 04/M03 A2949 1260 62 300 220/11G19 RMK AO2
14837KMSN MSN20021129013510011/29/02 01:35:31  5-MIN KMSN 290735Z 22012G17KT 10SM CLR 04/M03 A2949 1260 62 300 220/12G17 RMK AO2
14837KMSN MSN20021129014010011/29/02 01:40:31  5-MIN KMSN 290740Z 23012G18KT 10SM CLR 04/M03 A2949 1260 62 300 220/12G18 RMK AO2
14837KMSN MSN20021129014510011/29/02 01:45:31  5-MIN KMSN 290745Z 22011G18KT 10SM CLR 04/M03 A2949 1260 62 300 220/11G18 RMK AO2
14837KMSN MSN20021129015011711/29/02 01:50:31  5-MIN KMSN 290750Z 23011G20KT 10SM CLR 04/M03 A2949 1270 62 300 230/11G20 RMK AO2 SLP991 T00391028
14837KMSN MSN20021129015510011/29/02 01:55:31  5-MIN KMSN 290755Z 22012G20KT 10SM CLR 04/M03 A2949 1270 62 300 220/12G20 RMK AO2
14837KMSN MSN20021129020010011/29/02 02:00:31  5-MIN KMSN 290800Z 22012G17KT 10SM CLR 04/M03 A2948 1270 62 300 220/12G17 RMK AO2
14837KMSN MSN20021129020510011/29/02 02:05:31  5-MIN KMSN 290805Z 22013G18KT 10SM CLR 04/M02 A2947 1280 64 300 220/13G18 RMK AO2
14837KMSN MSN20021129021010011/29/02 02:10:31  5-MIN KMSN 290810Z 22012G19KT 10SM CLR 04/M02 A2947 1280 64 300 220/12G19 RMK AO2
14837KMSN MSN20021129021510011/29/02 02:15:31  5-MIN KMSN 290815Z 23010G19KT 10SM CLR 04/M02 A2947 1280 64 300 230/10G19 RMK AO2
14837KMSN MSN20021129022009411/29/02 02:20:31  5-MIN KMSN 290820Z 23011KT 10SM CLR 04/M02 A2947 1280 64 300 230/11 RMK AO2
14837KMSN MSN20021129022511011/29/02 02:25:31  5-MIN KMSN 290825Z 23009KT 190V260 10SM CLR 04/M02 A2947 1280 64 300 230/09 190V260 RMK AO2
14837KMSN MSN20021129023010011/29/02 02:30:31  5-MIN KMSN 290830Z 23013G18KT 10SM CLR 04/M02 A2947 1290 64 300 230/13G18 RMK AO2
14837KMSN MSN20021129023510011/29/02 02:35:31  5-MIN KMSN 290835Z 23014G22KT 10SM CLR 04/M02 A2947 1290 64 300 230/14G22 RMK AO2
14837KMSN MSN20021129024010011/29/02 02:40:31  5-MIN KMSN 290840Z 23012G22KT 10SM CLR 04/M02 A2947 1280 64 300 230/12G22 RMK AO2
14837KMSN MSN20021129024510011/29/02 02:45:31  5-MIN KMSN 290845Z 24008G18KT 10SM CLR 04/M02 A2947 1280 64 300 240/08G18 RMK AO2
14837KMSN MSN20021129025012311/29/02 02:50:31  5-MIN KMSN 290850Z 23010G18KT 10SM CLR 04/M02 A2947 1280 64 300 230/10G18 RMK AO2 SLP986 T00391022 58055
14837KMSN MSN20021129025510011/29/02 02:55:31  5-MIN KMSN 290855Z 23010G18KT 10SM CLR 04/M02 A2947 1290 64 300 230/10G18 RMK AO2
14837KMSN MSN20021129030009411/29/02 03:00:31  5-MIN KMSN 290900Z 24010KT 10SM CLR 04/M02 A2946 1290 64 300 240/10 RMK AO2
14837KMSN MSN20021129030509411/29/02 03:05:31  5-MIN KMSN 290905Z 23010KT 10SM CLR 04/M02 A2946 1290 64 300 230/10 RMK AO2
14837KMSN MSN20021129031009411/29/02 03:10:31  5-MIN KMSN 290910Z 24011KT 10SM CLR 04/M02 A2946 1290 67 300 230/11 RMK AO2
14837KMSN MSN20021129031510011/29/02 03:15:31  5-MIN KMSN 290915Z 24012G18KT 10SM CLR 04/M02 A2946 1290 67 300 240/12G18 RMK AO2
14837KMSN MSN20021129032010011/29/02 03:20:31  5-MIN KMSN 290920Z 24009G18KT 10SM CLR 04/M02 A2945 1300 67 300 240/09G18 RMK AO2
14837KMSN MSN20021129032510011/29/02 03:25:31  5-MIN KMSN 290925Z 24007G16KT 10SM CLR 04/M02 A2945 1300 67 300 240/07G16 RMK AO2
14837KMSN MSN20021129033011611/29/02 03:30:31  5-MIN KMSN 290930Z 24010G16KT 190V260 10SM CLR 04/M02 A2944 1310 67 300 240/10G16 190V260 RMK AO2
14837KMSN MSN20021129033510011/29/02 03:35:31  5-MIN KMSN 290935Z 24011G17KT 10SM CLR 04/M02 A2944 1310 67 300 240/11G17 RMK AO2
14837KMSN MSN20021129034010011/29/02 03:40:31  5-MIN KMSN 290940Z 24010G17KT 10SM CLR 04/M02 A2944 1310 67 300 240/10G17 RMK AO2
14837KMSN MSN20021129034509411/29/02 03:45:31  5-MIN KMSN 290945Z 24009KT 10SM CLR 04/M01 A2944 1310 70 300 240/09 RMK AO2
14837KMSN MSN20021129035011111/29/02 03:50:31  5-MIN KMSN 290950Z 24009KT 10SM CLR 04/M01 A2943 1320 70 300 240/09 RMK AO2 SLP974 T00391011
14837KMSN MSN20021129035509411/29/02 03:55:31  5-MIN KMSN 290955Z 24008KT 10SM CLR 04/M01 A2943 1320 70 300 240/08 RMK AO2
14837KMSN MSN20021129040010011/29/02 04:00:31  5-MIN KMSN 291000Z 24011G17KT 10SM CLR 04/M01 A2944 1320 70 300 240/11G17 RMK AO2
14837KMSN MSN20021129040510011/29/02 04:05:31  5-MIN KMSN 291005Z 25009G17KT 10SM CLR 04/M01 A2944 1310 70 300 250/09G17 RMK AO2
14837KMSN MSN20021129041011011/29/02 04:10:31  5-MIN KMSN 291010Z 26007KT 230V300 10SM CLR 04/M01 A2944 1310 70 300 250/07 230V300 RMK AO2
14837KMSN MSN20021129041510011/29/02 04:15:31  5-MIN KMSN 291015Z 24009G15KT 10SM CLR 04/M01 A2943 1320 70 300 240/09G15 RMK AO2
14837KMSN MSN20021129042010011/29/02 04:20:31  5-MIN KMSN 291020Z 25011G17KT 10SM CLR 04/M01 A2944 1320 67 400 250/11G17 RMK AO2
14837KMSN MSN20021129042510011/29/02 04:25:31  5-MIN KMSN 291025Z 25011G18KT 10SM CLR 04/M01 A2943 1320 67 400 250/11G18 RMK AO2
14837KMSN MSN20021129043011611/29/02 04:30:31  5-MIN KMSN 291030Z 25011G18KT 210V270 10SM CLR 05/M01 A2943 1320 67 500 250/11G18 210V270 RMK AO2
14837KMSN MSN20021129043511011/29/02 04:35:31  5-MIN KMSN 291035Z 26008KT 230V300 10SM CLR 05/M01 A2943 1320 67 500 250/08 230V300 RMK AO2
14837KMSN MSN20021129044009411/29/02 04:40:31  5-MIN KMSN 291040Z 25009KT 10SM CLR 04/M01 A2944 1320 70 400 250/09 RMK AO2
14837KMSN MSN20021129044509411/29/02 04:45:31  5-MIN KMSN 291045Z 25008KT 10SM CLR 04/M01 A2944 1310 70 400 250/08 RMK AO2
14837KMSN MSN20021129045013311/29/02 04:50:31  5-MIN KMSN 291050Z 25010G16KT 220V280 10SM CLR 04/M01 A2944 1310 70 400 250/10G16 220V280 RMK AO2 SLP976 T00441006
14837KMSN MSN20021129045510011/29/02 04:55:31  5-MIN KMSN 291055Z 24009G16KT 10SM CLR 04/M01 A2944 1310 70 400 240/09G16 RMK AO2
14837KMSN MSN20021129050011611/29/02 05:00:31  5-MIN KMSN 291100Z 26010G15KT 210V280 10SM CLR 04/M01 A2944 1310 70 400 250/10G15 210V280 RMK AO2
14837KMSN MSN20021129050511011/29/02 05:05:31  5-MIN KMSN 291105Z 26007KT 230V290 10SM CLR 04/M01 A2943 1320 70 400 260/07 230V290 RMK AO2
14837KMSN MSN20021129051009411/29/02 05:10:31  5-MIN KMSN 291110Z 25008KT 10SM CLR 04/M01 A2943 1320 70 400 250/08 RMK AO2
14837KMSN MSN20021129051509411/29/02 05:15:31  5-MIN KMSN 291115Z 26008KT 10SM CLR 04/M01 A2943 1320 70 400 250/08 RMK AO2
14837KMSN MSN20021129052009411/29/02 05:20:31  5-MIN KMSN 291120Z 25008KT 10SM CLR 04/M01 A2943 1320 70 400 250/08 RMK AO2
14837KMSN MSN20021129052509411/29/02 05:25:31  5-MIN KMSN 291125Z 25007KT 10SM CLR 04/M01 A2944 1310 70 400 250/07 RMK AO2
14837KMSN MSN20021129053011011/29/02 05:30:31  5-MIN KMSN 291130Z 26008KT 230V290 10SM CLR 04/M01 A2944 1320 70 400 260/08 230V290 RMK AO2
14837KMSN MSN20021129053509411/29/02 05:35:31  5-MIN KMSN 291135Z 25007KT 10SM CLR 04/M01 A2944 1310 70 400 250/07 RMK AO2
14837KMSN MSN20021129054009411/29/02 05:40:31  5-MIN KMSN 291140Z 25007KT 10SM CLR 04/M01 A2944 1310 73 300 250/07 RMK AO2
14837KMSN MSN20021129054511011/29/02 05:45:31  5-MIN KMSN 291145Z 25007KT 190V270 10SM CLR 04/M01 A2944 1310 70 400 250/07 190V270 RMK AO2
14837KMSN MSN20021129055012911/29/02 05:50:31  5-MIN KMSN 291150Z 25008KT 10SM CLR 04/M01 A2944 1310 73 300 250/08 RMK AO2 SLP977 T00391006 10050 20028 56045
14837KMSN MSN20021129055509411/29/02 05:55:31  5-MIN KMSN 291155Z VRB06KT 10SM CLR 04/M01 A2944 1310 73 300 VRB/06 RMK AO2
14837KMSN MSN20021129060011011/29/02 06:00:31  5-MIN KMSN 291200Z 26007KT 230V320 10SM CLR 04/M01 A2944 1310 73 300 250/07 230V320 RMK AO2
14837KMSN MSN20021129060509411/29/02 06:05:31  5-MIN KMSN 291205Z VRB06KT 10SM CLR 04/M01 A2944 1310 73 300 VRB/06 RMK AO2
14837KMSN MSN20021129061009411/29/02 06:10:31  5-MIN KMSN 291210Z 24008KT 10SM CLR 04/M01 A2944 1310 73 300 240/08 RMK AO2
14837KMSN MSN20021129061509411/29/02 06:15:31  5-MIN KMSN 291215Z 25007KT 10SM CLR 04/M01 A2944 1310 73 300 240/07 RMK AO2
14837KMSN MSN20021129062009411/29/02 06:20:31  5-MIN KMSN 291220Z 24007KT 10SM CLR 04/M01 A2944 1310 73 300 240/07 RMK AO2
14837KMSN MSN20021129062509411/29/02 06:25:31  5-MIN KMSN 291225Z 24007KT 10SM CLR 04/M01 A2944 1310 73 300 240/07 RMK AO2
14837KMSN MSN20021129063009411/29/02 06:30:31  5-MIN KMSN 291230Z 24008KT 10SM CLR 04/M01 A2944 1310 73 300 240/08 RMK AO2
14837KMSN MSN20021129063509411/29/02 06:35:31  5-MIN KMSN 291235Z 24008KT 10SM CLR 04/M01 A2944 1310 73 300 240/08 RMK AO2
14837KMSN MSN20021129064011011/29/02 06:40:31  5-MIN KMSN 291240Z 25008KT 220V290 10SM CLR 04/M01 A2943 1320 73 300 250/08 220V290 RMK AO2
14837KMSN MSN20021129064509411/29/02 06:45:31  5-MIN KMSN 291245Z 24007KT 10SM CLR 04/M01 A2943 1320 73 300 240/07 RMK AO2
14837KMSN MSN20021129065011111/29/02 06:50:31  5-MIN KMSN 291250Z VRB06KT 10SM CLR 04/M01 A2943 1320 73 300 VRB/06 RMK AO2 SLP973 T00391006
14837KMSN MSN20021129065509411/29/02 06:55:31  5-MIN KMSN 291255Z 24008KT 10SM CLR 04/M01 A2943 1320 73 300 240/08 RMK AO2
14837KMSN MSN20021129070011011/29/02 07:00:31  5-MIN KMSN 291300Z 24008KT 200V260 10SM CLR 04/M01 A2944 1320 73 300 240/08 200V260 RMK AO2
14837KMSN MSN20021129070509311/29/02 07:05:31  5-MIN KMSN 291305Z 24007KT 10SM CLR 04/00 A2944 1320 76 300 240/07 RMK AO2
14837KMSN MSN20021129071009411/29/02 07:10:31  5-MIN KMSN 291310Z 24008KT 10SM CLR 04/M01 A2943 1320 73 300 240/08 RMK AO2
14837KMSN MSN20021129071509411/29/02 07:15:31  5-MIN KMSN 291315Z 25007KT 10SM CLR 04/M01 A2943 1320 73 300 250/07 RMK AO2
14837KMSN MSN20021129072011011/29/02 07:20:31  5-MIN KMSN 291320Z 25007KT 220V280 10SM CLR 04/M01 A2943 1320 73 300 240/07 220V280 RMK AO2
14837KMSN MSN20021129072509411/29/02 07:25:31  5-MIN KMSN 291325Z 24006KT 10SM CLR 03/M01 A2943 1320 76 300 240/06 RMK AO2
14837KMSN MSN20021129073009411/29/02 07:30:31  5-MIN KMSN 291330Z 24006KT 10SM CLR 04/M01 A2943 1320 73 300 240/06 RMK AO2
14837KMSN MSN20021129073509311/29/02 07:35:31  5-MIN KMSN 291335Z 24006KT 10SM CLR 03/00 A2943 1320 79 300 230/06 RMK AO2
14837KMSN MSN20021129074009311/29/02 07:40:31  5-MIN KMSN 291340Z 23007KT 10SM CLR 03/00 A2943 1320 79 300 230/07 RMK AO2
14837KMSN MSN20021129074509311/29/02 07:45:31  5-MIN KMSN 291345Z 23006KT 10SM CLR 03/00 A2944 1310 79 300 230/06 RMK AO2
14837KMSN MSN20021129075011011/29/02 07:50:31  5-MIN KMSN 291350Z 24007KT 10SM CLR 04/00 A2944 1310 76 300 230/07 RMK AO2 SLP976 T00390000
14837KMSN MSN20021129075509311/29/02 07:55:31  5-MIN KMSN 291355Z 24008KT 10SM CLR 04/00 A2944 1320 76 300 240/08 RMK AO2
14837KMSN MSN20021129080009311/29/02 08:00:31  5-MIN KMSN 291400Z 24006KT 10SM CLR 04/00 A2944 1310 76 300 230/06 RMK AO2
14837KMSN MSN20021129080509311/29/02 08:05:31  5-MIN KMSN 291405Z 24005KT 10SM CLR 04/00 A2944 1310 76 300 240/05 RMK AO2
14837KMSN MSN20021129081009311/29/02 08:10:31  5-MIN KMSN 291410Z VRB06KT 10SM CLR 04/00 A2944 1310 76 300 VRB/06 RMK AO2
14837KMSN MSN20021129081509311/29/02 08:15:31  5-MIN KMSN 291415Z 25006KT 10SM CLR 04/00 A2944 1320 76 300 240/06 RMK AO2
14837KMSN MSN20021129082009311/29/02 08:20:31  5-MIN KMSN 291420Z 25007KT 10SM CLR 04/00 A2943 1320 73 400 250/07 RMK AO2
14837KMSN MSN20021129082509311/29/02 08:25:31  5-MIN KMSN 291425Z VRB06KT 10SM CLR 04/00 A2944 1310 73 400 VRB/06 RMK AO2
14837KMSN MSN20021129083009411/29/02 08:30:31  5-MIN KMSN 291430Z VRB06KT 10SM CLR 05/M01 A2944 1310 67 500 VRB/06 RMK AO2
14837KMSN MSN20021129083511011/29/02 08:35:31  5-MIN KMSN 291435Z 26007KT 210V280 10SM CLR 05/M01 A2944 1310 67 500 260/07 210V280 RMK AO2
14837KMSN MSN20021129084009411/29/02 08:40:31  5-MIN KMSN 291440Z 26007KT 10SM CLR 05/M01 A2944 1310 67 500 260/07 RMK AO2
14837KMSN MSN20021129084510011/29/02 08:45:31  5-MIN KMSN 291445Z 26010G15KT 10SM CLR 05/M01 A2944 1310 67 500 260/10G15 RMK AO2
14837KMSN MSN20021129085012311/29/02 08:50:31  5-MIN KMSN 291450Z 26009G15KT 10SM CLR 05/M01 A2944 1320 67 500 260/09G15 RMK AO2 SLP974 T00501006 56009
14837KMSN MSN20021129085510011/29/02 08:55:31  5-MIN KMSN 291455Z 26011G16KT 10SM CLR 05/M01 A2943 1320 67 500 260/11G16 RMK AO2
14837KMSN MSN20021129090010011/29/02 09:00:31  5-MIN KMSN 291500Z 26009G16KT 10SM CLR 06/M01 A2943 1320 65 500 260/09G16 RMK AO2
14837KMSN MSN20021129090509411/29/02 09:05:31  5-MIN KMSN 291505Z 26008KT 10SM CLR 06/M01 A2943 1320 65 500 260/08 RMK AO2
14837KMSN MSN20021129091010011/29/02 09:10:31  5-MIN KMSN 291510Z 26010G16KT 10SM CLR 06/M01 A2943 1330 65 500 260/10G16 RMK AO2
14837KMSN MSN20021129091509411/29/02 09:15:31  5-MIN KMSN 291515Z 26009KT 10SM CLR 06/M01 A2942 1330 60 600 260/09 RMK AO2
14837KMSN MSN20021129092009411/29/02 09:20:31  5-MIN KMSN 291520Z 27010KT 10SM CLR 06/M01 A2942 1330 60 600 270/10 RMK AO2
14837KMSN MSN20021129092509411/29/02 09:25:31  5-MIN KMSN 291525Z 27012KT 10SM CLR 06/M01 A2942 1330 60 600 270/12 RMK AO2
14837KMSN MSN20021129093011611/29/02 09:30:31  5-MIN KMSN 291530Z 25010G17KT 220V280 10SM CLR 06/M01 A2942 1330 60 600 250/10G17 220V280 RMK AO2
14837KMSN MSN20021129093510011/29/02 09:35:31  5-MIN KMSN 291535Z 26011G17KT 10SM CLR 06/M01 A2942 1330 60 600 260/11G17 RMK AO2
14837KMSN MSN20021129094009411/29/02 09:40:31  5-MIN KMSN 291540Z 26010KT 10SM CLR 06/M01 A2941 1340 60 600 260/10 RMK AO2
14837KMSN MSN20021129094509411/29/02 09:45:31  5-MIN KMSN 291545Z 26010KT 10SM CLR 06/M02 A2942 1330 57 600 250/10 RMK AO2
14837KMSN MSN20021129095011711/29/02 09:50:31  5-MIN KMSN 291550Z 27009G16KT 10SM CLR 06/M02 A2943 1330 57 600 270/09G16 RMK AO2 SLP970 T00611017
14837KMSN MSN20021129095510011/29/02 09:55:31  5-MIN KMSN 291555Z 26010G16KT 10SM CLR 06/M02 A2942 1330 57 600 260/10G16 RMK AO2
14837KMSN MSN20021129100010011/29/02 10:00:31  5-MIN KMSN 291600Z 25009G15KT 10SM CLR 07/M02 A2943 1320 55 700 250/09G15 RMK AO2
14837KMSN MSN20021129100511011/29/02 10:05:31  5-MIN KMSN 291605Z 27007KT 230V290 10SM CLR 07/M02 A2942 1330 55 700 270/07 230V290 RMK AO2
14837KMSN MSN20021129101011011/29/02 10:10:31  5-MIN KMSN 291610Z 25009KT 220V290 10SM CLR 07/M02 A2943 1320 55 700 250/09 220V290 RMK AO2
14837KMSN MSN20021129101509411/29/02 10:15:31  5-MIN KMSN 291615Z 26008KT 10SM CLR 07/M02 A2943 1320 55 700 260/08 RMK AO2
14837KMSN MSN20021129102011011/29/02 10:20:31  5-MIN KMSN 291620Z 26007KT 210V300 10SM CLR 07/M02 A2943 1320 55 700 260/07 210V300 RMK AO2
14837KMSN MSN20021129102509411/29/02 10:25:31  5-MIN KMSN 291625Z 25008KT 10SM CLR 07/M02 A2942 1330 53 700 250/08 RMK AO2
14837KMSN MSN20021129103011011/29/02 10:30:31  5-MIN KMSN 291630Z 24007KT 210V280 10SM CLR 07/M02 A2942 1330 53 700 240/07 210V280 RMK AO2
14837KMSN MSN20021129103509411/29/02 10:35:31  5-MIN KMSN 291635Z 24008KT 10SM CLR 07/M02 A2942 1330 53 700 230/08 RMK AO2
14837KMSN MSN20021129104011011/29/02 10:40:31  5-MIN KMSN 291640Z 24007KT 220V290 10SM CLR 07/M02 A2942 1330 53 700 240/07 220V290 RMK AO2
14837KMSN MSN20021129104510011/29/02 10:45:31  5-MIN KMSN 291645Z 25009G17KT 10SM CLR 07/M02 A2941 1340 53 700 250/09G17 RMK AO2
14837KMSN MSN20021129105011711/29/02 10:50:31  5-MIN KMSN 291650Z 24008G17KT 10SM CLR 07/M02 A2941 1340 53 700 240/08G17 RMK AO2 SLP963 T00671022
14837KMSN MSN20021129105510011/29/02 10:55:31  5-MIN KMSN 291655Z 25011G16KT 10SM CLR 07/M02 A2941 1340 51 800 250/11G16 RMK AO2
14837KMSN MSN20021129110011611/29/02 11:00:31  5-MIN KMSN 291700Z 25009G16KT 210V280 10SM CLR 07/M02 A2941 1340 51 800 250/09G16 210V280 RMK AO2
14837KMSN MSN20021129110509411/29/02 11:05:31  5-MIN KMSN 291705Z 25008KT 10SM CLR 07/M02 A2940 1350 51 800 250/08 RMK AO2
14837KMSN MSN20021129111010011/29/02 11:10:31  5-MIN KMSN 291710Z 26007G14KT 10SM CLR 07/M02 A2940 1350 51 800 260/07G14 RMK AO2
14837KMSN MSN20021129111511611/29/02 11:15:31  5-MIN KMSN 291715Z 26009G14KT 230V300 10SM CLR 07/M02 A2940 1350 51 800 260/09G14 230V300 RMK AO2
14837KMSN MSN20021129112009411/29/02 11:20:31  5-MIN KMSN 291720Z 26009KT 10SM CLR 07/M02 A2941 1340 51 800 260/09 RMK AO2
14837KMSN MSN20021129112509411/29/02 11:25:31  5-MIN KMSN 291725Z 26010KT 10SM CLR 07/M03 A2941 1340 49 800 260/10 RMK AO2
14837KMSN MSN20021129113010011/29/02 11:30:31  5-MIN KMSN 291730Z 26012G20KT 10SM CLR 07/M03 A2941 1340 49 800 260/12G20 RMK AO2
14837KMSN MSN20021129113510011/29/02 11:35:31  5-MIN KMSN 291735Z 25010G20KT 10SM CLR 07/M03 A2941 1340 49 800 250/10G20 RMK AO2
14837KMSN MSN20021129114010011/29/02 11:40:31  5-MIN KMSN 291740Z 25011G16KT 10SM CLR 07/M03 A2941 1340 49 800 250/11G16 RMK AO2
14837KMSN MSN20021129114510011/29/02 11:45:31  5-MIN KMSN 291745Z 25009G16KT 10SM CLR 07/M03 A2940 1350 49 800 250/09G16 RMK AO2
14837KMSN MSN20021129115015111/29/02 11:50:31  5-MIN KMSN 291750Z 25012G16KT 220V280 10SM CLR 07/M03 A2941 1340 49 800 240/12G16 220V280 RMK AO2 SLP963 T00721028 10072 20033 56002
14837KMSN MSN20021129115511611/29/02 11:55:31  5-MIN KMSN 291755Z 26010G16KT 220V310 10SM CLR 07/M03 A2941 1340 49 800 250/10G16 220V310 RMK AO2
14837KMSN MSN20021129120010011/29/02 12:00:31  5-MIN KMSN 291800Z 25012G18KT 10SM CLR 07/M03 A2941 1340 49 800 250/12G18 RMK AO2
14837KMSN MSN20021129120510011/29/02 12:05:31  5-MIN KMSN 291805Z 25011G18KT 10SM CLR 08/M03 A2941 1340 47 800 250/11G18 RMK AO2
14837KMSN MSN20021129121010011/29/02 12:10:31  5-MIN KMSN 291810Z 26009G16KT 10SM CLR 08/M03 A2940 1350 47 800 250/09G16 RMK AO2
14837KMSN MSN20021129121510011/29/02 12:15:31  5-MIN KMSN 291815Z 26014G17KT 10SM CLR 08/M03 A2941 1340 45 800 260/14G17 RMK AO2
14837KMSN MSN20021129122011611/29/02 12:20:31  5-MIN KMSN 291820Z 27009G17KT 240V300 10SM CLR 08/M03 A2941 1340 47 800 270/09G17 240V300 RMK AO2
14837KMSN MSN20021129122511611/29/02 12:25:31  5-MIN KMSN 291825Z 26011G14KT 240V300 10SM CLR 08/M03 A2941 1340 45 800 260/11G14 240V300 RMK AO2
14837KMSN MSN20021129123010011/29/02 12:30:31  5-MIN KMSN 291830Z 26013G21KT 10SM CLR 08/M03 A2941 1340 47 800 260/13G21 RMK AO2
14837KMSN MSN20021129123510011/29/02 12:35:31  5-MIN KMSN 291835Z 26009G21KT 10SM CLR 08/M03 A2941 1340 45 800 250/09G21 RMK AO2
14837KMSN MSN20021129124010011/29/02 12:40:31  5-MIN KMSN 291840Z 26010G16KT 10SM CLR 08/M03 A2941 1340 47 800 260/10G16 RMK AO2
14837KMSN MSN20021129124510011/29/02 12:45:31  5-MIN KMSN 291845Z 26011G16KT 10SM CLR 08/M03 A2940 1340 45 800 260/11G16 RMK AO2
14837KMSN MSN20021129125011711/29/02 12:50:31  5-MIN KMSN 291850Z 25011G16KT 10SM CLR 08/M03 A2940 1350 45 800 250/11G16 RMK AO2 SLP960 T00781033
14837KMSN MSN20021129125510011/29/02 12:55:31  5-MIN KMSN 291855Z 26010G16KT 10SM CLR 08/M03 A2940 1350 45 800 250/10G16 RMK AO2
14837KMSN MSN20021129130010011/29/02 13:00:31  5-MIN KMSN 291900Z 25012G16KT 10SM CLR 08/M03 A2940 1350 45 800 250/12G16 RMK AO2
14837KMSN MSN20021129130510011/29/02 13:05:31  5-MIN KMSN 291905Z 26009G17KT 10SM CLR 08/M03 A2940 1350 45 800 260/09G17 RMK AO2
14837KMSN MSN20021129131011611/29/02 13:10:31  5-MIN KMSN 291910Z 24007G17KT 200V260 10SM CLR 08/M03 A2940 1350 45 800 240/07G17 200V260 RMK AO2
14837KMSN MSN20021129131510011/29/02 13:15:31  5-MIN KMSN 291915Z 25009G15KT 10SM CLR 08/M03 A2939 1360 45 900 250/09G15 RMK AO2
14837KMSN MSN20021129132011611/29/02 13:20:31  5-MIN KMSN 291920Z 27008G14KT 220V290 10SM CLR 08/M03 A2939 1360 45 900 270/08G14 220V290 RMK AO2
14837KMSN MSN20021129132510011/29/02 13:25:31  5-MIN KMSN 291925Z 26009G15KT 10SM CLR 08/M03 A2939 1350 45 900 260/09G15 RMK AO2
14837KMSN MSN20021129133010011/29/02 13:30:31  5-MIN KMSN 291930Z 26013G19KT 10SM CLR 08/M04 A2939 1350 43 800 260/13G19 RMK AO2
14837KMSN MSN20021129133510011/29/02 13:35:31  5-MIN KMSN 291935Z 26010G19KT 10SM CLR 08/M04 A2940 1350 43 800 250/10G19 RMK AO2
14837KMSN MSN20021129134010011/29/02 13:40:31  5-MIN KMSN 291940Z 26010G16KT 10SM CLR 08/M03 A2940 1350 45 800 260/10G16 RMK AO2
14837KMSN MSN20021129134510011/29/02 13:45:31  5-MIN KMSN 291945Z 26009G16KT 10SM CLR 08/M04 A2940 1350 43 800 260/09G16 RMK AO2
14837KMSN MSN20021129135013311/29/02 13:50:31  5-MIN KMSN 291950Z 26009G16KT 220V290 10SM CLR 08/M04 A2940 1350 43 800 250/09G16 220V290 RMK AO2 SLP961 T00781039
14837KMSN MSN20021129135510011/29/02 13:55:31  5-MIN KMSN 291955Z 27012G16KT 10SM CLR 08/M04 A2940 1350 43 800 270/12G16 RMK AO2
14837KMSN MSN20021129140010011/29/02 14:00:31  5-MIN KMSN 292000Z 27012G17KT 10SM CLR 08/M04 A2941 1340 43 800 270/12G17 RMK AO2
14837KMSN MSN20021129140511611/29/02 14:05:31  5-MIN KMSN 292005Z 26007G17KT 230V330 10SM CLR 08/M04 A2940 1350 43 800 260/07G17 230V330 RMK AO2
14837KMSN MSN20021129141010011/29/02 14:10:31  5-MIN KMSN 292010Z 26011G17KT 10SM CLR 08/M04 A2940 1350 43 800 260/11G17 RMK AO2
14837KMSN MSN20021129141510011/29/02 14:15:31  5-MIN KMSN 292015Z 26009G17KT 10SM CLR 08/M04 A2940 1350 43 800 260/09G17 RMK AO2
14837KMSN MSN20021129142010011/29/02 14:20:31  5-MIN KMSN 292020Z 27009G18KT 10SM CLR 08/M04 A2941 1340 43 800 270/09G18 RMK AO2
14837KMSN MSN20021129142511611/29/02 14:25:31  5-MIN KMSN 292025Z 26011G18KT 210V290 10SM CLR 08/M04 A2941 1340 43 800 260/11G18 210V290 RMK AO2
14837KMSN MSN20021129143011611/29/02 14:30:31  5-MIN KMSN 292030Z 27010G18KT 250V320 10SM CLR 08/M04 A2941 1340 43 800 270/10G18 250V320 RMK AO2
14837KMSN MSN20021129143510011/29/02 14:35:31  5-MIN KMSN 292035Z 26012G21KT 10SM CLR 08/M04 A2941 1340 41 800 260/12G21 RMK AO2
14837KMSN MSN20021129144010011/29/02 14:40:31  5-MIN KMSN 292040Z 26010G21KT 10SM CLR 08/M04 A2941 1340 41 800 250/10G21 RMK AO2
14837KMSN MSN20021129144510011/29/02 14:45:31  5-MIN KMSN 292045Z 26011G18KT 10SM CLR 08/M04 A2941 1340 41 800 260/11G18 RMK AO2
14837KMSN MSN20021129145012311/29/02 14:50:31  5-MIN KMSN 292050Z 27012G17KT 10SM CLR 07/M04 A2942 1330 43 800 260/12G17 RMK AO2 SLP965 T00721044 56008
14837KMSN MSN20021129145510011/29/02 14:55:31  5-MIN KMSN 292055Z 27014G18KT 10SM CLR 07/M04 A2942 1330 43 800 260/14G18 RMK AO2
14837KMSN MSN20021129150010011/29/02 15:00:31  5-MIN KMSN 292100Z 27010G18KT 10SM CLR 07/M05 A2942 1330 41 800 270/10G18 RMK AO2
14837KMSN MSN20021129150510011/29/02 15:05:31  5-MIN KMSN 292105Z 26013G18KT 10SM CLR 07/M05 A2942 1330 41 700 260/13G18 RMK AO2
14837KMSN MSN20021129151010011/29/02 15:10:31  5-MIN KMSN 292110Z 26013G20KT 10SM CLR 07/M05 A2942 1330 41 700 260/13G20 RMK AO2
14837KMSN MSN20021129151510011/29/02 15:15:31  5-MIN KMSN 292115Z 27014G22KT 10SM CLR 07/M06 A2942 1330 40 700 270/14G22 RMK AO2
14837KMSN MSN20021129152010011/29/02 15:20:31  5-MIN KMSN 292120Z 27015G23KT 10SM CLR 07/M06 A2943 1320 40 700 270/15G23 RMK AO2
14837KMSN MSN20021129152510011/29/02 15:25:31  5-MIN KMSN 292125Z 27011G23KT 10SM CLR 07/M06 A2943 1320 40 700 270/11G23 RMK AO2
14837KMSN MSN20021129153011611/29/02 15:30:31  5-MIN KMSN 292130Z 27012G18KT 230V290 10SM CLR 07/M06 A2943 1320 40 700 270/12G18 230V290 RMK AO2
14837KMSN MSN20021129153510011/29/02 15:35:31  5-MIN KMSN 292135Z 27013G21KT 10SM CLR 07/M06 A2942 1330 41 700 270/13G21 RMK AO2
14837KMSN MSN20021129154010011/29/02 15:40:31  5-MIN KMSN 292140Z 27014G21KT 10SM CLR 07/M06 A2942 1330 41 700 270/14G21 RMK AO2
14837KMSN MSN20021129154510011/29/02 15:45:31  5-MIN KMSN 292145Z 26014G21KT 10SM CLR 07/M06 A2942 1330 41 700 260/14G21 RMK AO2
14837KMSN MSN20021129155011711/29/02 15:50:31  5-MIN KMSN 292150Z 27010G19KT 10SM CLR 07/M06 A2943 1320 41 700 270/10G19 RMK AO2 SLP969 T00671056
14837KMSN MSN20021129155511611/29/02 15:55:31  5-MIN KMSN 292155Z 27012G20KT 230V300 10SM CLR 07/M06 A2942 1330 41 700 270/12G20 230V300 RMK AO2
14837KMSN MSN20021129160010011/29/02 16:00:31  5-MIN KMSN 292200Z 26012G20KT 10SM CLR 07/M06 A2943 1320 41 700 260/12G20 RMK AO2
14837KMSN MSN20021129160510011/29/02 16:05:31  5-MIN KMSN 292205Z 27010G18KT 10SM CLR 06/M06 A2943 1320 43 600 270/10G18 RMK AO2
14837KMSN MSN20021129161010011/29/02 16:10:31  5-MIN KMSN 292210Z 27009G16KT 10SM CLR 06/M06 A2943 1320 43 600 270/09G16 RMK AO2
14837KMSN MSN20021129161510011/29/02 16:15:31  5-MIN KMSN 292215Z 27010G18KT 10SM CLR 06/M06 A2943 1320 43 600 270/10G18 RMK AO2
14837KMSN MSN20021129162010011/29/02 16:20:31  5-MIN KMSN 292220Z 28012G18KT 10SM CLR 06/M06 A2943 1320 43 600 270/12G18 RMK AO2
14837KMSN MSN20021129162510011/29/02 16:25:31  5-MIN KMSN 292225Z 27010G17KT 10SM CLR 06/M06 A2943 1320 43 600 270/10G17 RMK AO2
14837KMSN MSN20021129163010011/29/02 16:30:31  5-MIN KMSN 292230Z 27009G17KT 10SM CLR 06/M06 A2943 1320 44 500 270/09G17 RMK AO2
14837KMSN MSN20021129163510011/29/02 16:35:31  5-MIN KMSN 292235Z 27009G16KT 10SM CLR 06/M06 A2943 1320 44 500 270/09G16 RMK AO2
14837KMSN MSN20021129164010011/29/02 16:40:31  5-MIN KMSN 292240Z 26011G17KT 10SM CLR 06/M06 A2943 1320 44 500 260/11G17 RMK AO2
14837KMSN MSN20021129164510011/29/02 16:45:31  5-MIN KMSN 292245Z 26010G17KT 10SM CLR 06/M06 A2943 1320 44 500 260/10G17 RMK AO2
14837KMSN MSN20021129165013611/29/02 16:50:31  5-MIN KMSN 292250Z 26010G17KT 230V290 10SM FEW080 06/M06 A2943 1320 44 500 260/10G17 230V290 RMK AO2 SLP972 T00561056
14837KMSN MSN20021129165509411/29/02 16:55:31  5-MIN KMSN 292255Z 27010KT 10SM CLR 06/M06 A2943 1320 44 500 270/10 RMK AO2
14837KMSN MSN20021129170009411/29/02 17:00:31  5-MIN KMSN 292300Z 26008KT 10SM CLR 06/M06 A2944 1320 44 500 260/08 RMK AO2
14837KMSN MSN20021129170510011/29/02 17:05:31  5-MIN KMSN 292305Z 27008G15KT 10SM CLR 06/M06 A2944 1310 44 500 270/08G15 RMK AO2
14837KMSN MSN20021129171010311/29/02 17:10:31  5-MIN KMSN 292310Z 26009G15KT 10SM FEW060 06/M06 A2944 1310 44 500 260/09G15 RMK AO2
14837KMSN MSN20021129171509711/29/02 17:15:31  5-MIN KMSN 292315Z 26009KT 10SM SCT060 06/M06 A2944 1310 44 500 260/09 RMK AO2
14837KMSN MSN20021129172010311/29/02 17:20:31  5-MIN KMSN 292320Z 25007G14KT 10SM BKN060 06/M06 A2944 1310 44 500 250/07G14 RMK AO2
14837KMSN MSN20021129172509711/29/02 17:25:31  5-MIN KMSN 292325Z 25008KT 10SM BKN060 06/M06 A2944 1310 44 500 250/08 RMK AO2
14837KMSN MSN20021129173011311/29/02 17:30:31  5-MIN KMSN 292330Z 25007KT 220V290 10SM BKN060 06/M06 A2944 1320 44 500 250/07 220V290 RMK AO2
14837KMSN MSN20021129173509711/29/02 17:35:31  5-MIN KMSN 292335Z 26007KT 10SM OVC060 05/M06 A2944 1320 46 500 260/07 RMK AO2
14837KMSN MSN20021129174009711/29/02 17:40:31  5-MIN KMSN 292340Z 27005KT 10SM OVC065 05/M06 A2944 1320 46 500 270/05 RMK AO2
14837KMSN MSN20021129174509711/29/02 17:45:31  5-MIN KMSN 292345Z VRB05KT 10SM OVC065 05/M06 A2943 1320 46 500 VRB/05 RMK AO2
14837KMSN MSN20021129175013211/29/02 17:50:31  5-MIN KMSN 292350Z 25006KT 10SM OVC065 06/M06 A2943 1320 44 500 250/06 RMK AO2 SLP972 T00561056 10078 20050 53004
14837KMSN MSN20021129175509711/29/02 17:55:31  5-MIN KMSN 292355Z 25007KT 10SM OVC065 06/M06 A2943 1320 44 500 250/07 RMK AO2
14837KMSN MSN20021129180009711/29/02 18:00:31  5-MIN KMSN 300000Z 25006KT 10SM OVC065 06/M06 A2943 1320 44 500 250/06 RMK AO2
14837KMSN MSN20021129180509711/29/02 18:05:31  5-MIN KMSN 300005Z VRB06KT 10SM OVC065 06/M06 A2943 1320 44 500 VRB/06 RMK AO2
14837KMSN MSN20021129181011311/29/02 18:10:31  5-MIN KMSN 300010Z 24007KT 200V270 10SM OVC065 06/M06 A2943 1320 44 500 240/07 200V270 RMK AO2
14837KMSN MSN20021129181509711/29/02 18:15:31  5-MIN KMSN 300015Z 24006KT 10SM OVC065 06/M06 A2943 1320 44 500 230/06 RMK AO2
14837KMSN MSN20021129182011311/29/02 18:20:31  5-MIN KMSN 300020Z 24007KT 200V270 10SM OVC065 06/M06 A2943 1320 44 500 240/07 200V270 RMK AO2
14837KMSN MSN20021129182509711/29/02 18:25:31  5-MIN KMSN 300025Z 25007KT 10SM OVC065 06/M06 A2943 1320 43 600 250/07 RMK AO2
14837KMSN MSN20021129183011911/29/02 18:30:31  5-MIN KMSN 300030Z 25007G14KT 220V310 10SM BKN065 06/M06 A2943 1320 44 500 250/07G14 220V310 RMK AO2
14837KMSN MSN20021129183511311/29/02 18:35:31  5-MIN KMSN 300035Z 25007KT 220V300 10SM BKN065 06/M06 A2943 1320 44 500 250/07 220V300 RMK AO2
14837KMSN MSN20021129184009711/29/02 18:40:31  5-MIN KMSN 300040Z VRB06KT 10SM SCT065 06/M06 A2943 1320 44 500 VRB/06 RMK AO2
14837KMSN MSN20021129184511311/29/02 18:45:31  5-MIN KMSN 300045Z 27007KT 240V310 10SM SCT065 05/M06 A2943 1320 46 500 270/07 240V310 RMK AO2
14837KMSN MSN20021129185011411/29/02 18:50:31  5-MIN KMSN 300050Z 27008KT 10SM FEW065 06/M06 A2944 1310 44 500 270/08 RMK AO2 SLP973 T00561056
14837KMSN MSN20021129185509711/29/02 18:55:31  5-MIN KMSN 300055Z 27008KT 10SM SCT080 06/M06 A2944 1310 44 500 270/08 RMK AO2
14837KMSN MSN20021129190009711/29/02 19:00:31  5-MIN KMSN 300100Z 27009KT 10SM BKN080 06/M06 A2944 1310 44 500 270/09 RMK AO2
14837KMSN MSN20021129190510311/29/02 19:05:31  5-MIN KMSN 300105Z 27007G14KT 10SM BKN080 06/M06 A2944 1310 44 500 270/07G14 RMK AO2
14837KMSN MSN20021129191011011/29/02 19:10:31  5-MIN KMSN 300110Z VRB06G14KT 10SM FEW060 BKN080 06/M06 A2944 1310 44 500 VRB/06G14 RMK AO2
14837KMSN MSN20021129191510411/29/02 19:15:31  5-MIN KMSN 300115Z 26006KT 10SM FEW060 OVC080 06/M06 A2945 1310 44 500 260/06 RMK AO2
14837KMSN MSN20021129192009711/29/02 19:20:31  5-MIN KMSN 300120Z VRB06KT 10SM OVC080 06/M06 A2944 1310 44 500 VRB/06 RMK AO2
14837KMSN MSN20021129192511311/29/02 19:25:31  5-MIN KMSN 300125Z 26007KT 220V280 10SM OVC080 06/M06 A2944 1310 44 500 260/07 220V280 RMK AO2
14837KMSN MSN20021129193011311/29/02 19:30:31  5-MIN KMSN 300130Z 26008KT 230V290 10SM OVC080 05/M06 A2945 1310 46 500 260/08 230V290 RMK AO2
14837KMSN MSN20021129193509711/29/02 19:35:31  5-MIN KMSN 300135Z VRB06KT 10SM OVC080 05/M06 A2945 1310 44 500 VRB/06 RMK AO2
14837KMSN MSN20021129194009711/29/02 19:40:31  5-MIN KMSN 300140Z 27007KT 10SM OVC075 05/M06 A2945 1310 44 500 270/07 RMK AO2
14837KMSN MSN20021129194509711/29/02 19:45:31  5-MIN KMSN 300145Z 27008KT 10SM OVC075 06/M06 A2945 1310 43 500 270/08 RMK AO2
14837KMSN MSN20021129195011411/29/02 19:50:31  5-MIN KMSN 300150Z 28007KT 10SM BKN075 05/M06 A2945 1300 44 400 280/07 RMK AO2 SLP978 T00501061
14837KMSN MSN20021129195510311/29/02 19:55:31  5-MIN KMSN 300155Z 29009G14KT 10SM OVC075 05/M06 A2945 1300 44 400 290/09G14 RMK AO2
14837KMSN MSN20021129200010311/29/02 20:00:31  5-MIN KMSN 300200Z 28007G14KT 10SM OVC075 06/M06 A2945 1300 43 500 270/07G14 RMK AO2
14837KMSN MSN20021129200511311/29/02 20:05:31  5-MIN KMSN 300205Z 28008KT 240V300 10SM BKN075 06/M06 A2945 1300 43 500 280/08 240V300 RMK AO2
14837KMSN MSN20021129201009711/29/02 20:10:31  5-MIN KMSN 300210Z 29007KT 10SM BKN075 06/M06 A2945 1300 43 500 290/07 RMK AO2
14837KMSN MSN20021129201509711/29/02 20:15:31  5-MIN KMSN 300215Z 28009KT 10SM BKN075 06/M06 A2945 1300 43 500 280/09 RMK AO2
14837KMSN MSN20021129202009711/29/02 20:20:31  5-MIN KMSN 300220Z 28008KT 10SM BKN075 06/M06 A2945 1300 43 500 280/08 RMK AO2
14837KMSN MSN20021129202509711/29/02 20:25:31  5-MIN KMSN 300225Z 28010KT 10SM BKN070 06/M06 A2945 1300 43 500 280/10 RMK AO2
14837KMSN MSN20021129203009711/29/02 20:30:31  5-MIN KMSN 300230Z 28009KT 10SM BKN070 06/M06 A2945 1310 43 500 280/09 RMK AO2
14837KMSN MSN20021129203509711/29/02 20:35:31  5-MIN KMSN 300235Z 28006KT 10SM BKN070 05/M06 A2945 1310 44 500 280/06 RMK AO2
14837KMSN MSN20021129204011911/29/02 20:40:31  5-MIN KMSN 300240Z 29012G18KT 250V310 10SM BKN070 05/M06 A2945 1310 44 500 290/12G18 250V310 RMK AO2
14837KMSN MSN20021129204510311/29/02 20:45:31  5-MIN KMSN 300245Z 29013G18KT 10SM BKN070 05/M06 A2945 1310 44 500 290/13G18 RMK AO2
14837KMSN MSN20021129205012611/29/02 20:50:31  5-MIN KMSN 300250Z 29009G17KT 10SM SCT065 05/M06 A2945 1300 44 500 280/09G17 RMK AO2 SLP977 T00501061 51005
14837KMSN MSN20021129205509711/29/02 20:55:31  5-MIN KMSN 300255Z 28008KT 10SM FEW065 04/M06 A2945 1300 46 400 280/08 RMK AO2
14837KMSN MSN20021129210010311/29/02 21:00:31  5-MIN KMSN 300300Z 28009G17KT 10SM FEW070 04/M06 A2945 1300 46 400 280/09G17 RMK AO2
14837KMSN MSN20021129210510311/29/02 21:05:31  5-MIN KMSN 300305Z 28010G17KT 10SM FEW070 05/M06 A2945 1300 44 400 280/10G17 RMK AO2
14837KMSN MSN20021129211010011/29/02 21:10:31  5-MIN KMSN 300310Z 29008G16KT 10SM CLR 04/M06 A2945 1300 48 400 290/08G16 RMK AO2
14837KMSN MSN20021129211509411/29/02 21:15:31  5-MIN KMSN 300315Z VRB05KT 10SM CLR 04/M06 A2945 1300 48 400 VRB/05 RMK AO2
14837KMSN MSN20021129212011611/29/02 21:20:31  5-MIN KMSN 300320Z 27009G14KT 230V300 10SM CLR 04/M06 A2945 1300 48 400 270/09G14 230V300 RMK AO2
14837KMSN MSN20021129212510011/29/02 21:25:31  5-MIN KMSN 300325Z 28009G14KT 10SM CLR 04/M05 A2945 1300 50 400 280/09G14 RMK AO2
14837KMSN MSN20021129213009711/29/02 21:30:31  5-MIN KMSN 300330Z 28007KT 10SM FEW085 04/M05 A2945 1300 50 400 280/07 RMK AO2
14837KMSN MSN20021129213509711/29/02 21:35:31  5-MIN KMSN 300335Z 27007KT 10SM FEW090 04/M05 A2945 1300 50 400 270/07 RMK AO2
14837KMSN MSN20021129214011011/29/02 21:40:31  5-MIN KMSN 300340Z VRB06G15KT 10SM SCT090 SCT110 04/M05 A2945 1300 52 300 VRB/06G15 RMK AO2
14837KMSN MSN20021129214511011/29/02 21:45:31  5-MIN KMSN 300345Z 27008G15KT 10SM BKN090 BKN110 04/M05 A2945 1300 50 400 270/08G15 RMK AO2
14837KMSN MSN20021129215012711/29/02 21:50:31  5-MIN KMSN 300350Z 27011G16KT 10SM BKN090 BKN110 04/M05 A2945 1310 50 400 270/11G16 RMK AO2 SLP976 T00441050
14837KMSN MSN20021129215511011/29/02 21:55:31  5-MIN KMSN 300355Z 26009G16KT 10SM BKN090 BKN110 04/M05 A2944 1310 50 400 260/09G16 RMK AO2
14837KMSN MSN20021129220011011/29/02 22:00:31  5-MIN KMSN 300400Z 27009G16KT 10SM BKN090 BKN110 04/M05 A2944 1310 52 300 270/09G16 RMK AO2
14837KMSN MSN20021129220510411/29/02 22:05:31  5-MIN KMSN 300405Z 26009KT 10SM FEW070 OVC095 04/M05 A2944 1310 52 300 260/09 RMK AO2
14837KMSN MSN20021129221012611/29/02 22:10:31  5-MIN KMSN 300410Z 27008G15KT 240V300 10SM SCT070 OVC090 04/M05 A2944 1310 52 300 270/08G15 240V300 RMK AO2
14837KMSN MSN20021129221511011/29/02 22:15:31  5-MIN KMSN 300415Z 26010G16KT 10SM BKN070 OVC095 04/M04 A2944 1310 52 400 260/10G16 RMK AO2
14837KMSN MSN20021129222011011/29/02 22:20:31  5-MIN KMSN 300420Z 27008G16KT 10SM BKN070 OVC095 04/M04 A2944 1310 52 400 260/08G16 RMK AO2
14837KMSN MSN20021129222511011/29/02 22:25:31  5-MIN KMSN 300425Z 26011G16KT 10SM BKN065 OVC095 04/M04 A2944 1310 52 400 260/11G16 RMK AO2
14837KMSN MSN20021129223010311/29/02 22:30:31  5-MIN KMSN 300430Z 28010G16KT 10SM OVC065 04/M04 A2944 1310 52 400 270/10G16 RMK AO2
14837KMSN MSN20021129223510311/29/02 22:35:31  5-MIN KMSN 300435Z 27011G17KT 10SM OVC065 04/M04 A2944 1310 52 400 270/11G17 RMK AO2
14837KMSN MSN20021129224010311/29/02 22:40:31  5-MIN KMSN 300440Z 27009G17KT 10SM OVC060 04/M04 A2944 1310 52 400 270/09G17 RMK AO2
14837KMSN MSN20021129224511011/29/02 22:45:31  5-MIN KMSN 300445Z 27009G16KT 10SM FEW048 OVC060 04/M04 A2944 1310 52 400 270/09G16 RMK AO2
14837KMSN MSN20021129225012711/29/02 22:50:31  5-MIN KMSN 300450Z 27011G19KT 10SM SCT046 OVC060 04/M04 A2944 1310 52 400 270/11G19 RMK AO2 SLP973 T00441044
14837KMSN MSN20021129225511011/29/02 22:55:31  5-MIN KMSN 300455Z 28008G19KT 10SM BKN046 OVC060 04/M04 A2944 1310 52 400 280/08G19 RMK AO2
14837KMSN MSN20021129230010411/29/02 23:00:31  5-MIN KMSN 300500Z 28007KT 10SM BKN046 OVC060 04/M04 A2944 1310 52 400 280/07 RMK AO2
14837KMSN MSN20021129230511011/29/02 23:05:31  5-MIN KMSN 300505Z 27013G19KT 10SM BKN046 OVC060 04/M04 A2944 1310 52 400 270/13G19 RMK AO2
14837KMSN MSN20021129231011011/29/02 23:10:31  5-MIN KMSN 300510Z 28011G19KT 10SM BKN046 OVC060 04/M04 A2944 1310 52 400 280/11G19 RMK AO2
14837KMSN MSN20021129231512611/29/02 23:15:31  5-MIN KMSN 300515Z 29012G19KT 260V320 10SM BKN046 OVC050 04/M04 A2944 1310 52 400 290/12G19 260V320 RMK AO2
14837KMSN MSN20021129232009711/29/02 23:20:31  5-MIN KMSN 300520Z 30011KT 10SM OVC046 04/M04 A2945 1310 52 400 300/11 RMK AO2
14837KMSN MSN20021129232510311/29/02 23:25:31  5-MIN KMSN 300525Z 30012G18KT 10SM OVC043 04/M04 A2945 1310 52 400 300/12G18 RMK AO2
14837KMSN MSN20021129233010311/29/02 23:30:31  5-MIN KMSN 300530Z 31012G18KT 10SM OVC043 04/M04 A2945 1300 57 300 310/12G18 RMK AO2
14837KMSN MSN20021129233511811/29/02 23:35:31  5-MIN KMSN 300535Z 31012G18KT 9SM -SN OVC043 03/M03 A2945 1300 61 200 310/12G18 RMK AO2 SNB31 P0000
14837KMSN MSN20021129234011811/29/02 23:40:31  5-MIN KMSN 300540Z 31014G20KT 9SM -SN OVC043 03/M03 A2945 1300 64 200 310/14G20 RMK AO2 SNB31 P0000
14837KMSN MSN20021129234511811/29/02 23:45:31  5-MIN KMSN 300545Z 30013G20KT 9SM -SN OVC041 03/M03 A2946 1300 67 200 300/13G20 RMK AO2 SNB31 P0000
14837KMSN MSN20021129235016911/29/02 23:50:31  5-MIN KMSN 300550Z 31012G19KT 9SM -SN OVC041 03/M03 A2946 1300 67 200 310/12G19 RMK AO2 SNB31 SLP980 P0000 60000 T00281028 10061 20028 400780028 51005
14837KMSN MSN20021129235511211/29/02 23:55:31  5-MIN KMSN 300555Z 31013G23KT 8SM -SN OVC041 03/M03 A2946 1290 67 200 310/13G23 RMK AO2 P0000
14837KMSN MSN20021130000013011/30/02 00:00:31  5-MIN KMSN 300600Z 32015G26KT 7SM -SN OVC041 02/M03 A2946 1290 69 100 320/15G26 RMK AO2 PK WND 33026/0557 P0000
14837KMSN MSN20021130000513011/30/02 00:05:31  5-MIN KMSN 300605Z 32015G26KT 8SM -SN OVC041 02/M04 A2947 1290 64 100 320/15G26 RMK AO2 PK WND 33026/0557 P0000
14837KMSN MSN20021130001013511/30/02 00:10:31  5-MIN KMSN 300610Z 32012G22KT 9SM GSSN OVC041 02/M04 A2947 1290 64 0 320/12G22 RMK AO2 PK WND 33026/0557 GSB10 P0000
14837KMSN MSN20021130001513511/30/02 00:15:31  5-MIN KMSN 300615Z 32014G19KT 9SM GSSN OVC041 02/M04 A2947 1280 64 0 320/14G19 RMK AO2 PK WND 33026/0557 GSB10 P0000
14837KMSN MSN20021130002013511/30/02 00:20:31  5-MIN KMSN 300620Z 32011G20KT 9SM GSSN OVC041 02/M04 A2947 1280 64 0 310/11G20 RMK AO2 PK WND 33026/0557 GSB10 P0000
14837KMSN MSN20021130002514211/30/02 00:25:31  5-MIN KMSN 300625Z 32011G20KT 9SM GSSN FEW027 OVC039 02/M04 A2948 1280 66 0 320/11G20 RMK AO2 PK WND 33026/0557 GSB10 P0000
14837KMSN MSN20021130003014211/30/02 00:30:31  5-MIN KMSN 300630Z 34008G16KT 8SM GSSN SCT025 OVC039 01/M04 A2948 1270 69 0 330/08G16 RMK AO2 PK WND 33026/0557 GSB10 P0000
14837KMSN MSN20021130003514911/30/02 00:35:31  5-MIN KMSN 300635Z 33012G20KT 5SM GSSN SCT025 SCT029 OVC039 01/M03 A2948 1270 72 0 330/12G20 RMK AO2 PK WND 33026/0557 GSB10 P0000
14837KMSN MSN20021130004015211/30/02 00:40:31  5-MIN KMSN 300640Z 33013G22KT 5SM GSSN FEW025 BKN030 OVC037 01/M04 A2949 1270 72 -100 330/13G22 RMK AO2 PK WND 33026/0557 GSB10 P0000
14837KMSN MSN20021130004515211/30/02 00:45:31  5-MIN KMSN 300645Z 33011G22KT 5SM GSSN FEW023 BKN030 OVC039 01/M04 A2949 1270 72 -100 330/11G22 RMK AO2 PK WND 33026/0557 GSB10 P0000
14837KMSN MSN20021130005015611/30/02 00:50:31  5-MIN KMSN 300650Z 32016KT 5SM GSSN SCT026 OVC032 01/M04 A2949 1260 69 -100 320/16 RMK AO2 PK WND 33026/0557 GSB10 SLP993 P0000 T00061044
14837KMSN MSN20021130005512111/30/02 00:55:31  5-MIN KMSN 300655Z 32012G21KT 5SM GSSN FEW024 OVC032 00/M04 A2950 1260 72 -200 320/12G21 RMK AO2 P0000
14837KMSN MSN20021130010012811/30/02 01:00:31  5-MIN KMSN 300700Z 32014G21KT 6SM GSSN FEW024 BKN030 OVC041 00/M04 A2949 1260 72 -200 320/14G21 RMK AO2 P0000
14837KMSN MSN20021130010512811/30/02 01:05:31  5-MIN KMSN 300705Z 32009G19KT 7SM GSSN FEW024 BKN032 OVC045 00/M04 A2950 1260 75 -200 320/09G19 RMK AO2 P0000
14837KMSN MSN20021130011012711/30/02 01:10:31  5-MIN KMSN 300710Z 32012KT 7SM -SN SCT024 BKN030 OVC047 00/M04 A2950 1250 75 -200 320/12 RMK AO2 GSE06 P0000
14837KMSN MSN20021130011513311/30/02 01:15:31  5-MIN KMSN 300715Z 31013G18KT 7SM -SN BKN024 BKN030 OVC047 00/M04 A2951 1250 75 -200 310/13G18 RMK AO2 GSE06 P0000
14837KMSN MSN20021130012013311/30/02 01:20:31  5-MIN KMSN 300720Z 31014G21KT 8SM -SN BKN024 BKN029 OVC047 00/M04 A2951 1250 75 -200 310/14G21 RMK AO2 GSE06 P0000
14837KMSN MSN20021130012513411/30/02 01:25:31  5-MIN KMSN 300725Z 31012G21KT 8SM -SN FEW021 BKN027 OVC047 M01/M05 A2951 1240 72 -300 310/12G21 RMK AO2 GSE06 P0000
14837KMSN MSN20021130013012811/30/02 01:30:31  5-MIN KMSN 300730Z 31012KT 8SM -SN FEW021 BKN034 OVC049 M01/M06 A2951 1240 69 -300 310/12 RMK AO2 GSE06 P0000
14837KMSN MSN20021130013513411/30/02 01:35:31  5-MIN KMSN 300735Z 32012G21KT 8SM -SN FEW021 BKN040 OVC055 M01/M06 A2952 1240 66 -300 320/12G21 RMK AO2 GSE06 P0000
14837KMSN MSN20021130014013411/30/02 01:40:31  5-MIN KMSN 300740Z 33012G21KT 7SM -SN FEW025 BKN042 OVC055 M01/M06 A2952 1240 66 -300 320/12G21 RMK AO2 GSE06 P0000
14837KMSN MSN20021130014513411/30/02 01:45:31  5-MIN KMSN 300745Z 32010G20KT 7SM -SN FEW027 SCT034 OVC055 M01/M06 A2952 1240 66 -300 320/10G20 RMK AO2 GSE06 P0000
14837KMSN MSN20021130015015211/30/02 01:50:31  5-MIN KMSN 300750Z 32015G21KT 7SM SCT036 SCT046 OVC060 M01/M07 A2952 1230 63 -300 320/15G21 RMK AO2 GSE06SNE50 SLP004 P0000 T10061067
14837KMSN MSN20021130015511811/30/02 01:55:31  5-MIN KMSN 300755Z 32016G21KT 9SM FEW036 SCT046 OVC060 M01/M08 A2953 1230 58 -300 320/16G21 RMK AO2
14837KMSN MSN20021130020011811/30/02 02:00:31  5-MIN KMSN 300800Z 32017G23KT 9SM SCT039 BKN046 OVC055 M01/M08 A2953 1230 58 -300 320/17G23 RMK AO2
14837KMSN MSN20021130020511911/30/02 02:05:31  5-MIN KMSN 300805Z 33017G25KT 10SM BKN037 BKN046 OVC060 M01/M08 A2954 1220 58 -300 330/17G25 RMK AO2
14837KMSN MSN20021130021011211/30/02 02:10:31  5-MIN KMSN 300810Z 32016G25KT 10SM BKN035 OVC046 M01/M08 A2954 1220 58 -300 320/16G25 RMK AO2
14837KMSN MSN20021130021512711/30/02 02:15:31  5-MIN KMSN 300815Z 33012G25KT 9SM -SN BKN033 OVC046 M01/M07 A2954 1220 63 -400 330/12G25 RMK AO2 SNB12 P0000
14837KMSN MSN20021130022012711/30/02 02:20:31  5-MIN KMSN 300820Z 32015G23KT 8SM -SN BKN031 OVC044 M01/M07 A2955 1210 66 -400 320/15G23 RMK AO2 SNB12 P0000
14837KMSN MSN20021130022512711/30/02 02:25:31  5-MIN KMSN 300825Z 32015G22KT 5SM -SN BKN031 OVC038 M02/M06 A2955 1210 72 -400 320/15G22 RMK AO2 SNB12 P0000
14837KMSN MSN20021130023012711/30/02 02:30:31  5-MIN KMSN 300830Z 31016G23KT 4SM -SN BKN033 OVC042 M02/M06 A2955 1210 75 -400 310/16G23 RMK AO2 SNB12 P0000
14837KMSN MSN20021130023515611/30/02 02:35:31  5-MIN KMSN 300835Z 32017G27KT 2 1/2SM -SN FEW018 BKN030 OVC039 M02/M06 A2956 1200 78 -500 320/17G27 RMK AO2 PK WND 33027/0835 SNB12 P0000
14837KMSN MSN20021130024015611/30/02 02:40:31  5-MIN KMSN 300840Z 32017G27KT 2 1/2SM -SN FEW018 BKN030 OVC050 M02/M06 A2956 1200 78 -500 310/17G27 RMK AO2 PK WND 33027/0835 SNB12 P0000
14837KMSN MSN20021130024515611/30/02 02:45:31  5-MIN KMSN 300845Z 32014G22KT 2 1/2SM -SN SCT027 BKN039 OVC050 M03/M06 A2956 1200 81 -600 320/14G22 RMK AO2 PK WND 33027/0835 SNB12 P0000
14837KMSN MSN20021130025018511/30/02 02:50:31  5-MIN KMSN 300850Z 32014G23KT 2 1/2SM -SN BKN029 BKN042 OVC050 M03/M06 A2957 1190 78 -600 320/14G23 RMK AO2 PK WND 33027/0835 SNB12 SLP020 P0000 60000 T10281061 53003
14837KMSN MSN20021130025512511/30/02 02:55:31  5-MIN KMSN 300855Z 33016G23KT 2 1/2SM -SN BKN025 OVC047 M03/M06 A2957 1190 81 -600 330/16G23 RMK AO2 P0000
14837KMSN MSN20021130030012511/30/02 03:00:31  5-MIN KMSN 300900Z 33011G20KT 1 3/4SM -SN BKN022 OVC049 M03/M06 A2957 1190 81 -600 330/11G20 RMK AO2 P0000
14837KMSN MSN20021130030513211/30/02 03:05:31  5-MIN KMSN 300905Z 32014G20KT 1 1/2SM -SN BKN022 BKN031 OVC049 M03/M06 A2957 1190 81 -600 320/14G20 RMK AO2 P0000
14837KMSN MSN20021130031013411/30/02 03:10:31  5-MIN KMSN 300910Z 32013G20KT 1 1/4SM -SN BR BKN018 OVC031 M03/M05 A2958 1180 85 -600 320/13G20 RMK AO2 60001 P0000
14837KMSN MSN20021130031513011/30/02 03:15:31  5-MIN KMSN 300915Z 33010G19KT 1SM -SN BR BKN014 OVC031 M03/M05 A2958 1180 88 -700 330/10G19 RMK AO2 60001 P0000
14837KMSN MSN20021130032010811/30/02 03:20:31  5-MIN KMSN 300920Z 32013KT 1/2SM SN VV011 M03/M05 A2958 1180 88 -700 320/13 RMK AO2 P0000
14837KMSN MSN20021130032512911/30/02 03:25:31  5-MIN KMSN 300925Z 31014G23KT 1/2SM SN BKN010 BKN015 OVC020 M03/M05 A2959 1170 88 -700 310/14G23 RMK AO2 P0000
14837KMSN MSN20021130033012911/30/02 03:30:31  5-MIN KMSN 300930Z 32015G23KT 1/2SM SN BKN010 BKN015 OVC023 M03/M05 A2960 1170 88 -700 320/15G23 RMK AO2 P0000
14837KMSN MSN20021130033514811/30/02 03:35:31  5-MIN KMSN 300935Z 32017G27KT 1/4SM +SN BKN006 BKN010 OVC021 M04/M06 A2960 1160 92 -900 320/17G27 RMK AO2 PK WND 31027/0933 P0000
14837KMSN MSN20021130034015311/30/02 03:40:31  5-MIN KMSN 300940Z 33015G27KT 1SM -SN BKN006 BKN010 OVC022 M04/M06 A2961 1150 88 -900 330/15G27 RMK AO2 PK WND 31027/0933 PRESRR P0000
14837KMSN MSN20021130034514611/30/02 03:45:31  5-MIN KMSN 300945Z 32015G20KT 2SM -SN BKN012 BKN023 OVC040 M04/M07 A2961 1150 84 -900 320/15G20 RMK AO2 PK WND 31027/0933 P0000
14837KMSN MSN20021130035016311/30/02 03:50:31  5-MIN KMSN 300950Z 33015G21KT 2SM -SN FEW010 BKN016 OVC023 M04/M07 A2962 1150 81 -900 330/15G21 RMK AO2 PK WND 31027/0933 SLP036 P0000 T10441072
14837KMSN MSN20021130035511811/30/02 03:55:31  5-MIN KMSN 300955Z 33016G21KT 2 1/2SM -SN BKN016 M04/M07 A2962 1140 81 -900 330/16G21 RMK AO2 P0000
14837KMSN MSN20021130040012511/30/02 04:00:31  5-MIN KMSN 301000Z 32012G21KT 2 1/2SM -SN BKN018 OVC039 M04/M07 A2963 1140 81 -900 320/12G21 RMK AO2 P0000
14837KMSN MSN20021130040512111/30/02 04:05:31  5-MIN KMSN 301005Z 31014G21KT 2SM -SN BKN020 OVC039 M04/M07 A2963 1130 84 -900 310/14G21 RMK AO2 P0000
14837KMSN MSN20021130041013211/30/02 04:10:31  5-MIN KMSN 301010Z 32014G22KT 2 1/2SM -SN BKN022 BKN033 OVC049 M04/M07 A2963 1130 81 -900 320/14G22 RMK AO2 P0001
14837KMSN MSN20021130041512111/30/02 04:15:31  5-MIN KMSN 301015Z 32013G22KT 4SM -SN BKN030 OVC075 M04/M08 A2964 1130 78 -900 320/13G22 RMK AO2 P0001
14837KMSN MSN20021130042011511/30/02 04:20:31  5-MIN KMSN 301020Z 31012KT 4SM -SN FEW021 OVC032 M04/M08 A2964 1120 78 -900 310/12 RMK AO2 P0001
14837KMSN MSN20021130042512611/30/02 04:25:31  5-MIN KMSN 301025Z 31012KT 2 1/2SM -SN FEW019 BKN035 OVC075 M04/M07 A2964 1120 84 -900 310/12 RMK AO2 P0001
14837KMSN MSN20021130043012811/30/02 04:30:31  5-MIN KMSN 301030Z 32012G21KT 2SM -SN FEW024 BKN042 OVC055 M04/M07 A2965 1120 81 -900 320/12G21 RMK AO2 P0001
14837KMSN MSN20021130043513911/30/02 04:35:31  5-MIN KMSN 301035Z 31012G21KT 1 3/4SM -SN FEW022 BKN046 OVC070 M04/M07 A2966 1110 81 -900 310/12G21 RMK AO2 PRESRR P0001
14837KMSN MSN20021130044013211/30/02 04:40:31  5-MIN KMSN 301040Z 31015G20KT 1 3/4SM -SN FEW017 SCT030 OVC046 M04/M07 A2966 1110 81 -900 310/15G20 RMK AO2 P0001
14837KMSN MSN20021130044512911/30/02 04:45:31  5-MIN KMSN 301045Z 32014G20KT 2SM -SN FEW017 BKN039 OVC046 M05/M08 A2966 1100 81 -1000 320/14G20 RMK AO2 P0001
14837KMSN MSN20021130045016211/30/02 04:50:31  5-MIN KMSN 301050Z 31011G20KT 280V340 2SM -SN FEW026 BKN037 OVC046 M05/M08 A2967 1100 81 -1000 310/11G20 280V340 RMK AO2 SLP055 P0001 T10501078
14837KMSN MSN20021130045513311/30/02 04:55:31  5-MIN KMSN 301055Z 31012G21KT 2 1/2SM -SN FEW016 SCT037 OVC047 M05/M08 A2967 1100 81 -1000 310/12G21 RMK AO2 P0000
14837KMSN MSN20021130050012911/30/02 05:00:31  5-MIN KMSN 301100Z 32013G23KT 4SM -SN FEW016 BKN036 OVC048 M05/M08 A2967 1090 77 -1000 310/13G23 RMK AO2 P0000
14837KMSN MSN20021130050516311/30/02 05:05:31  5-MIN KMSN 301105Z 31011G26KT 270V330 4SM -SN FEW023 BKN036 OVC050 M05/M08 A2968 1090 81 -1000 310/11G26 270V330 RMK AO2 PK WND 31026/1101 P0000
14837KMSN MSN20021130051014011/30/02 05:10:31  5-MIN KMSN 301110Z 31013G26KT 4SM -SN BKN036 OVC046 M05/M08 A2968 1090 77 -1000 310/13G26 RMK AO2 PK WND 31026/1101 P0000
14837KMSN MSN20021130051514011/30/02 05:15:31  5-MIN KMSN 301115Z 31014G19KT 3SM -SN BKN038 OVC048 M05/M08 A2968 1080 81 -1000 310/14G19 RMK AO2 PK WND 31026/1101 P0000
14837KMSN MSN20021130052014011/30/02 05:20:31  5-MIN KMSN 301120Z 31011G19KT 3SM -SN BKN034 OVC046 M05/M08 A2969 1080 81 -1000 310/11G19 RMK AO2 PK WND 31026/1101 P0000
14837KMSN MSN20021130052514711/30/02 05:25:31  5-MIN KMSN 301125Z 31015G21KT 3SM -SN FEW026 BKN032 OVC046 M05/M08 A2969 1080 81 -1000 300/15G21 RMK AO2 PK WND 31026/1101 P0000
14837KMSN MSN20021130053014011/30/02 05:30:31  5-MIN KMSN 301130Z 30011G21KT 5SM -SN BKN032 OVC041 M05/M08 A2969 1070 77 -1000 300/11G21 RMK AO2 PK WND 31026/1101 P0000
