14837KMSN MSN20030602000009106/02/03 00:00:31  5-MIN KMSN 020600Z 00000KT 8SM CLR 08/07 A3004 750 89 200 000/00 RMK AO2
14837KMSN MSN20030602000509106/02/03 00:05:31  5-MIN KMSN 020605Z 00000KT 8SM CLR 08/06 A3004 760 86 200 000/00 RMK AO2
14837KMSN MSN20030602001009106/02/03 00:10:31  5-MIN KMSN 020610Z 00000KT 9SM CLR 08/06 A3004 760 82 200 000/00 RMK AO2
14837KMSN MSN20030602001509106/02/03 00:15:31  5-MIN KMSN 020615Z 00000KT 9SM CLR 08/06 A3004 760 82 200 000/00 RMK AO2
14837KMSN MSN20030602002009106/02/03 00:20:31  5-MIN KMSN 020620Z 00000KT 9SM CLR 08/06 A3003 760 86 200 000/00 RMK AO2
14837KMSN MSN20030602002509106/02/03 00:25:31  5-MIN KMSN 020625Z 00000KT 9SM CLR 08/06 A3003 760 89 100 000/00 RMK AO2
14837KMSN MSN20030602003009106/02/03 00:30:31  5-MIN KMSN 020630Z 00000KT 8SM CLR 07/06 A3003 760 93 100 000/00 RMK AO2
14837KMSN MSN20030602003509106/02/03 00:35:31  5-MIN KMSN 020635Z 00000KT 8SM CLR 07/06 A3003 760 93 100 000/00 RMK AO2
14837KMSN MSN20030602004009106/02/03 00:40:31  5-MIN KMSN 020640Z 00000KT 8SM CLR 08/06 A3003 760 89 100 000/00 RMK AO2
14837KMSN MSN20030602004509106/02/03 00:45:31  5-MIN KMSN 020645Z 00000KT 8SM CLR 07/06 A3003 760 93 100 000/00 RMK AO2
14837KMSN MSN20030602005010606/02/03 00:50:31  5-MIN KMSN 020650Z 00000KT 7SM CLR 07/06 A3003 760 93 0 000/00 RMK AO2 SLP171 T00670056
14837KMSN MSN20030602005508906/02/03 00:55:31  5-MIN KMSN 020655Z 00000KT 7SM CLR 07/06 A3003 760 93 0 000/00 RMK AO2
14837KMSN MSN20030602010008906/02/03 01:00:31  5-MIN KMSN 020700Z 00000KT 7SM CLR 07/06 A3003 760 93 0 000/00 RMK AO2
14837KMSN MSN20030602010508906/02/03 01:05:31  5-MIN KMSN 020705Z 00000KT 7SM CLR 07/06 A3003 760 96 0 000/00 RMK AO2
14837KMSN MSN20030602011008906/02/03 01:10:31  5-MIN KMSN 020710Z 00000KT 7SM CLR 07/06 A3003 760 96 0 000/00 RMK AO2
14837KMSN MSN20030602011508906/02/03 01:15:31  5-MIN KMSN 020715Z 00000KT 7SM CLR 07/06 A3003 760 93 0 000/00 RMK AO2
14837KMSN MSN20030602012008906/02/03 01:20:31  5-MIN KMSN 020720Z 00000KT 8SM CLR 07/06 A3003 760 93 0 000/00 RMK AO2
14837KMSN MSN20030602012508906/02/03 01:25:31  5-MIN KMSN 020725Z 00000KT 8SM CLR 07/05 A3003 760 89 0 000/00 RMK AO2
14837KMSN MSN20030602013008906/02/03 01:30:31  5-MIN KMSN 020730Z 00000KT 8SM CLR 07/06 A3003 760 93 0 000/00 RMK AO2
14837KMSN MSN20030602013508906/02/03 01:35:31  5-MIN KMSN 020735Z 00000KT 7SM CLR 07/06 A3003 760 96 0 000/00 RMK AO2
14837KMSN MSN20030602014009206/02/03 01:40:31  5-MIN KMSN 020740Z 00000KT 6SM BR CLR 06/06 A3003 770 96 0 000/00 RMK AO2
14837KMSN MSN20030602014509206/02/03 01:45:31  5-MIN KMSN 020745Z 00000KT 6SM BR CLR 07/06 A3003 770 93 0 000/00 RMK AO2
14837KMSN MSN20030602015010906/02/03 01:50:31  5-MIN KMSN 020750Z 00000KT 6SM BR CLR 06/06 A3003 770 96 0 000/00 RMK AO2 SLP169 T00610056
14837KMSN MSN20030602015509206/02/03 01:55:31  5-MIN KMSN 020755Z 00000KT 6SM BR CLR 07/06 A3002 770 93 0 000/00 RMK AO2
14837KMSN MSN20030602020009206/02/03 02:00:31  5-MIN KMSN 020800Z 00000KT 6SM BR CLR 06/06 A3002 770 96 0 000/00 RMK AO2
14837KMSN MSN20030602020508906/02/03 02:05:31  5-MIN KMSN 020805Z 00000KT 7SM CLR 07/06 A3002 770 93 0 000/00 RMK AO2
14837KMSN MSN20030602021008906/02/03 02:10:31  5-MIN KMSN 020810Z 00000KT 7SM CLR 07/06 A3002 770 93 0 000/00 RMK AO2
14837KMSN MSN20030602021508906/02/03 02:15:31  5-MIN KMSN 020815Z 00000KT 7SM CLR 06/06 A3002 770 96 0 000/00 RMK AO2
14837KMSN MSN20030602022008906/02/03 02:20:31  5-MIN KMSN 020820Z 00000KT 7SM CLR 06/06 A3002 770 96 0 000/00 RMK AO2
14837KMSN MSN20030602022509506/02/03 02:25:31  5-MIN KMSN 020825Z 00000KT 6SM BR CLR 06/05 A3002 770 96 -100 000/00 RMK AO2
14837KMSN MSN20030602023009606/02/03 02:30:31  5-MIN KMSN 020830Z 00000KT 6SM BR CLR 06/06 A3002 770 100 -100 000/00 RMK AO2
14837KMSN MSN20030602023509506/02/03 02:35:31  5-MIN KMSN 020835Z 00000KT 6SM BR CLR 06/05 A3002 770 96 -100 000/00 RMK AO2
14837KMSN MSN20030602024009206/02/03 02:40:31  5-MIN KMSN 020840Z 00000KT 6SM BR CLR 06/06 A3002 770 96 0 000/00 RMK AO2
14837KMSN MSN20030602024508906/02/03 02:45:31  5-MIN KMSN 020845Z 00000KT 7SM CLR 06/06 A3002 770 96 0 000/00 RMK AO2
14837KMSN MSN20030602025011206/02/03 02:50:31  5-MIN KMSN 020850Z 00000KT 7SM CLR 06/06 A3002 770 96 0 000/00 RMK AO2 SLP168 T00610056 51003
14837KMSN MSN20030602025509206/02/03 02:55:31  5-MIN KMSN 020855Z 00000KT 6SM BR CLR 06/05 A3002 770 93 0 000/00 RMK AO2
14837KMSN MSN20030602030008906/02/03 03:00:31  5-MIN KMSN 020900Z 00000KT 7SM CLR 06/06 A3002 770 96 0 000/00 RMK AO2
14837KMSN MSN20030602030509506/02/03 03:05:31  5-MIN KMSN 020905Z 00000KT 6SM BR CLR 06/05 A3002 770 96 -100 000/00 RMK AO2
14837KMSN MSN20030602031009206/02/03 03:10:31  5-MIN KMSN 020910Z 00000KT 6SM BR CLR 06/06 A3003 770 96 0 000/00 RMK AO2
14837KMSN MSN20030602031509506/02/03 03:15:31  5-MIN KMSN 020915Z 00000KT 6SM BR CLR 06/05 A3003 770 96 -100 000/00 RMK AO2
14837KMSN MSN20030602032009206/02/03 03:20:31  5-MIN KMSN 020920Z 00000KT 6SM BR CLR 06/06 A3003 770 96 0 000/00 RMK AO2
14837KMSN MSN20030602032509206/02/03 03:25:31  5-MIN KMSN 020925Z 00000KT 7SM CLR 06/05 A3003 760 96 -100 000/00 RMK AO2
14837KMSN MSN20030602033009206/02/03 03:30:31  5-MIN KMSN 020930Z 00000KT 8SM CLR 06/05 A3003 760 96 -100 000/00 RMK AO2
14837KMSN MSN20030602033509506/02/03 03:35:31  5-MIN KMSN 020935Z 00000KT 6SM BR CLR 06/05 A3003 760 96 -100 000/00 RMK AO2
14837KMSN MSN20030602034009506/02/03 03:40:31  5-MIN KMSN 020940Z 00000KT 6SM BR CLR 06/05 A3003 760 96 -100 000/00 RMK AO2
14837KMSN MSN20030602034509506/02/03 03:45:31  5-MIN KMSN 020945Z 00000KT 6SM BR CLR 06/05 A3003 770 96 -100 000/00 RMK AO2
14837KMSN MSN20030602035011206/02/03 03:50:31  5-MIN KMSN 020950Z 00000KT 5SM BR CLR 06/05 A3002 770 96 -100 000/00 RMK AO2 SLP168 T00560050
14837KMSN MSN20030602035509506/02/03 03:55:31  5-MIN KMSN 020955Z 00000KT 5SM BR CLR 06/05 A3002 770 96 -100 000/00 RMK AO2
14837KMSN MSN20030602040009506/02/03 04:00:31  5-MIN KMSN 021000Z 00000KT 6SM BR CLR 06/05 A3002 770 96 -100 000/00 RMK AO2
14837KMSN MSN20030602040509506/02/03 04:05:31  5-MIN KMSN 021005Z 00000KT 5SM BR CLR 06/05 A3002 770 96 -100 000/00 RMK AO2
14837KMSN MSN20030602041009506/02/03 04:10:31  5-MIN KMSN 021010Z 00000KT 6SM BR CLR 06/05 A3002 770 96 -100 000/00 RMK AO2
14837KMSN MSN20030602041509506/02/03 04:15:31  5-MIN KMSN 021015Z 00000KT 4SM BR CLR 06/05 A3002 770 96 -100 000/00 RMK AO2
14837KMSN MSN20030602042009506/02/03 04:20:31  5-MIN KMSN 021020Z 00000KT 3SM BR CLR 05/04 A3002 770 96 -200 000/00 RMK AO2
14837KMSN MSN20030602042509606/02/03 04:25:31  5-MIN KMSN 021025Z 00000KT 5SM BR CLR 05/05 A3003 770 100 -200 000/00 RMK AO2
14837KMSN MSN20030602043009506/02/03 04:30:31  5-MIN KMSN 021030Z 00000KT 6SM BR CLR 06/05 A3003 760 96 -100 000/00 RMK AO2
14837KMSN MSN20030602043509506/02/03 04:35:31  5-MIN KMSN 021035Z 00000KT 5SM BR CLR 06/05 A3003 760 96 -100 000/00 RMK AO2
14837KMSN MSN20030602044009506/02/03 04:40:31  5-MIN KMSN 021040Z 00000KT 5SM BR CLR 06/05 A3003 760 96 -100 000/00 RMK AO2
14837KMSN MSN20030602044509506/02/03 04:45:31  5-MIN KMSN 021045Z 00000KT 5SM BR CLR 06/05 A3004 760 96 -100 000/00 RMK AO2
14837KMSN MSN20030602045011206/02/03 04:50:31  5-MIN KMSN 021050Z 00000KT 4SM BR CLR 06/05 A3004 760 96 -100 000/00 RMK AO2 SLP173 T00560050
14837KMSN MSN20030602045509506/02/03 04:55:31  5-MIN KMSN 021055Z 00000KT 4SM BR CLR 06/05 A3004 760 96 -100 000/00 RMK AO2
14837KMSN MSN20030602050010606/02/03 05:00:31  5-MIN KMSN 021100Z 00000KT 3SM BR CLR 06/04 A3004 760 92 -100 000/00 RMK AO2 TWR VIS 10
14837KMSN MSN20030602050510606/02/03 05:05:31  5-MIN KMSN 021105Z 00000KT 3SM BR CLR 06/05 A3004 760 96 -100 000/00 RMK AO2 TWR VIS 10
14837KMSN MSN20030602051009506/02/03 05:10:31  5-MIN KMSN 021110Z 00000KT 5SM BR CLR 06/05 A3004 750 96 -100 000/00 RMK AO2
14837KMSN MSN20030602051509506/02/03 05:15:31  5-MIN KMSN 021115Z 00000KT 5SM BR CLR 06/05 A3004 750 96 -100 000/00 RMK AO2
14837KMSN MSN20030602052009506/02/03 05:20:31  5-MIN KMSN 021120Z 00000KT 5SM BR CLR 06/05 A3004 750 96 -100 000/00 RMK AO2
14837KMSN MSN20030602052509206/02/03 05:25:31  5-MIN KMSN 021125Z 00000KT 5SM BR CLR 06/05 A3004 750 93 0 000/00 RMK AO2
14837KMSN MSN20030602053009506/02/03 05:30:31  5-MIN KMSN 021130Z 00000KT 5SM BR CLR 06/06 A3004 750 96 -100 000/00 RMK AO2
14837KMSN MSN20030602053509206/02/03 05:35:31  5-MIN KMSN 021135Z 00000KT 5SM BR CLR 07/06 A3004 750 93 0 000/00 RMK AO2
14837KMSN MSN20030602054009206/02/03 05:40:31  5-MIN KMSN 021140Z 00000KT 5SM BR CLR 07/06 A3005 750 93 0 000/00 RMK AO2
14837KMSN MSN20030602054509206/02/03 05:45:31  5-MIN KMSN 021145Z 00000KT 5SM BR CLR 07/06 A3005 750 93 0 000/00 RMK AO2
14837KMSN MSN20030602055012606/02/03 05:50:31  5-MIN KMSN 021150Z 00000KT 7SM CLR 08/07 A3005 750 93 100 000/00 RMK AO2 SLP175 T00780067 10083 20050 56006
14837KMSN MSN20030602055509106/02/03 05:55:31  5-MIN KMSN 021155Z 00000KT 7SM CLR 08/07 A3005 750 96 100 000/00 RMK AO2
14837KMSN MSN20030602060009106/02/03 06:00:31  5-MIN KMSN 021200Z 00000KT 7SM CLR 08/07 A3005 750 93 200 000/00 RMK AO2
14837KMSN MSN20030602060509106/02/03 06:05:31  5-MIN KMSN 021205Z 00000KT 7SM CLR 08/07 A3005 750 93 200 000/00 RMK AO2
14837KMSN MSN20030602061009106/02/03 06:10:31  5-MIN KMSN 021210Z 00000KT 7SM CLR 09/07 A3004 750 89 200 000/00 RMK AO2
14837KMSN MSN20030602061509106/02/03 06:15:31  5-MIN KMSN 021215Z 00000KT 7SM CLR 09/08 A3004 750 89 300 000/00 RMK AO2
14837KMSN MSN20030602062009106/02/03 06:20:31  5-MIN KMSN 021220Z 00000KT 7SM CLR 09/07 A3004 750 86 300 000/00 RMK AO2
14837KMSN MSN20030602062509106/02/03 06:25:31  5-MIN KMSN 021225Z 00000KT 8SM CLR 09/07 A3004 750 86 300 000/00 RMK AO2
14837KMSN MSN20030602063009106/02/03 06:30:31  5-MIN KMSN 021230Z 00000KT 9SM CLR 10/07 A3004 760 83 400 000/00 RMK AO2
14837KMSN MSN20030602063509106/02/03 06:35:31  5-MIN KMSN 021235Z 00000KT 9SM CLR 10/07 A3004 760 83 400 000/00 RMK AO2
14837KMSN MSN20030602064009106/02/03 06:40:31  5-MIN KMSN 021240Z 00000KT 9SM CLR 11/08 A3004 760 83 400 000/00 RMK AO2
14837KMSN MSN20030602064509106/02/03 06:45:31  5-MIN KMSN 021245Z 00000KT 9SM CLR 11/08 A3003 760 80 500 000/00 RMK AO2
14837KMSN MSN20030602065010906/02/03 06:50:31  5-MIN KMSN 021250Z 00000KT 10SM CLR 11/08 A3003 760 80 500 000/00 RMK AO2 SLP171 T01110078
14837KMSN MSN20030602065509106/02/03 06:55:31  5-MIN KMSN 021255Z 00000KT 8SM CLR 12/08 A3004 760 80 600 000/00 RMK AO2
14837KMSN MSN20030602070009106/02/03 07:00:31  5-MIN KMSN 021300Z 00000KT 8SM CLR 12/08 A3003 760 80 600 000/00 RMK AO2
14837KMSN MSN20030602070509106/02/03 07:05:31  5-MIN KMSN 021305Z 00000KT 7SM CLR 12/08 A3003 760 77 600 000/00 RMK AO2
14837KMSN MSN20030602071009106/02/03 07:10:31  5-MIN KMSN 021310Z 00000KT 7SM CLR 12/08 A3003 760 77 600 000/00 RMK AO2
14837KMSN MSN20030602071509106/02/03 07:15:31  5-MIN KMSN 021315Z 16003KT 7SM CLR 13/08 A3003 760 71 700 160/03 RMK AO2
14837KMSN MSN20030602072009106/02/03 07:20:31  5-MIN KMSN 021320Z 16004KT 7SM CLR 13/08 A3003 760 71 700 160/04 RMK AO2
14837KMSN MSN20030602072509106/02/03 07:25:31  5-MIN KMSN 021325Z 17003KT 7SM CLR 13/07 A3003 760 69 700 170/03 RMK AO2
14837KMSN MSN20030602073009106/02/03 07:30:31  5-MIN KMSN 021330Z 16004KT 7SM CLR 13/07 A3003 760 66 700 150/04 RMK AO2
14837KMSN MSN20030602073509106/02/03 07:35:31  5-MIN KMSN 021335Z 15004KT 7SM CLR 13/07 A3003 760 64 800 150/04 RMK AO2
14837KMSN MSN20030602074009106/02/03 07:40:31  5-MIN KMSN 021340Z 16003KT 7SM CLR 13/07 A3003 760 64 800 160/03 RMK AO2
14837KMSN MSN20030602074509106/02/03 07:45:31  5-MIN KMSN 021345Z 16005KT 7SM CLR 14/07 A3003 760 64 800 160/05 RMK AO2
14837KMSN MSN20030602075010806/02/03 07:50:31  5-MIN KMSN 021350Z 16004KT 7SM CLR 14/07 A3003 760 64 800 160/04 RMK AO2 SLP171 T01390072
14837KMSN MSN20030602075509106/02/03 07:55:31  5-MIN KMSN 021355Z 16003KT 7SM CLR 14/07 A3003 760 64 800 160/03 RMK AO2
14837KMSN MSN20030602080009106/02/03 08:00:31  5-MIN KMSN 021400Z 15004KT 7SM CLR 14/07 A3004 760 64 800 150/04 RMK AO2
14837KMSN MSN20030602080509106/02/03 08:05:31  5-MIN KMSN 021405Z 17004KT 7SM CLR 14/07 A3004 760 61 900 170/04 RMK AO2
14837KMSN MSN20030602081009106/02/03 08:10:31  5-MIN KMSN 021410Z 15005KT 7SM CLR 14/07 A3004 760 61 900 150/05 RMK AO2
14837KMSN MSN20030602081509206/02/03 08:15:31  5-MIN KMSN 021415Z 16004KT 7SM CLR 15/07 A3004 760 59 1000 160/04 RMK AO2
14837KMSN MSN20030602082009206/02/03 08:20:31  5-MIN KMSN 021420Z VRB03KT 7SM CLR 15/07 A3004 760 59 1000 VRB/03 RMK AO2
14837KMSN MSN20030602082509206/02/03 08:25:31  5-MIN KMSN 021425Z 20004KT 7SM CLR 15/07 A3004 760 57 1000 190/04 RMK AO2
14837KMSN MSN20030602083009206/02/03 08:30:31  5-MIN KMSN 021430Z 15004KT 7SM CLR 15/07 A3003 760 57 1000 140/04 RMK AO2
14837KMSN MSN20030602083509206/02/03 08:35:31  5-MIN KMSN 021435Z 00000KT 7SM CLR 15/07 A3003 760 57 1000 000/00 RMK AO2
14837KMSN MSN20030602084009206/02/03 08:40:31  5-MIN KMSN 021440Z 00000KT 7SM CLR 16/07 A3004 760 57 1000 000/00 RMK AO2
14837KMSN MSN20030602084509206/02/03 08:45:31  5-MIN KMSN 021445Z 16004KT 8SM CLR 16/07 A3004 760 55 1100 160/04 RMK AO2
14837KMSN MSN20030602085011506/02/03 08:50:31  5-MIN KMSN 021450Z 16005KT 8SM CLR 16/06 A3004 760 51 1100 160/05 RMK AO2 SLP172 T01610061 53008
14837KMSN MSN20030602085509206/02/03 08:55:31  5-MIN KMSN 021455Z 18006KT 9SM CLR 16/06 A3003 760 51 1100 180/06 RMK AO2
14837KMSN MSN20030602090009206/02/03 09:00:31  5-MIN KMSN 021500Z 18007KT 9SM CLR 17/06 A3003 760 47 1200 180/07 RMK AO2
14837KMSN MSN20030602090509306/02/03 09:05:31  5-MIN KMSN 021505Z 16005KT 10SM CLR 17/06 A3003 760 49 1200 160/05 RMK AO2
14837KMSN MSN20030602091009306/02/03 09:10:31  5-MIN KMSN 021510Z 17005KT 10SM CLR 17/06 A3003 760 49 1200 170/05 RMK AO2
14837KMSN MSN20030602091509306/02/03 09:15:31  5-MIN KMSN 021515Z 17006KT 10SM CLR 17/06 A3003 760 47 1200 170/06 RMK AO2
14837KMSN MSN20030602092009306/02/03 09:20:31  5-MIN KMSN 021520Z 17005KT 10SM CLR 17/06 A3003 760 47 1200 170/05 RMK AO2
14837KMSN MSN20030602092509206/02/03 09:25:31  5-MIN KMSN 021525Z 17004KT 9SM CLR 17/06 A3003 760 47 1200 170/04 RMK AO2
14837KMSN MSN20030602093009306/02/03 09:30:31  5-MIN KMSN 021530Z 17006KT 10SM CLR 17/06 A3003 760 47 1200 170/06 RMK AO2
14837KMSN MSN20030602093509306/02/03 09:35:31  5-MIN KMSN 021535Z 17004KT 10SM CLR 17/06 A3003 760 49 1200 160/04 RMK AO2
14837KMSN MSN20030602094009306/02/03 09:40:31  5-MIN KMSN 021540Z 17007KT 10SM CLR 17/06 A3003 760 46 1200 170/07 RMK AO2
14837KMSN MSN20030602094509306/02/03 09:45:31  5-MIN KMSN 021545Z 17008KT 10SM CLR 17/05 A3004 760 44 1200 170/08 RMK AO2
14837KMSN MSN20030602095011006/02/03 09:50:31  5-MIN KMSN 021550Z 16008KT 10SM CLR 17/06 A3004 760 46 1200 160/08 RMK AO2 SLP172 T01720056
14837KMSN MSN20030602095509306/02/03 09:55:31  5-MIN KMSN 021555Z 17007KT 10SM CLR 17/06 A3004 760 47 1200 170/07 RMK AO2
14837KMSN MSN20030602100009306/02/03 10:00:31  5-MIN KMSN 021600Z 17006KT 10SM CLR 17/06 A3004 760 47 1200 170/06 RMK AO2
14837KMSN MSN20030602100509306/02/03 10:05:31  5-MIN KMSN 021605Z 17008KT 10SM CLR 17/06 A3003 760 47 1200 160/08 RMK AO2
14837KMSN MSN20030602101009206/02/03 10:10:31  5-MIN KMSN 021610Z 18006KT 9SM CLR 17/06 A3003 760 46 1200 180/06 RMK AO2
14837KMSN MSN20030602101509206/02/03 10:15:31  5-MIN KMSN 021615Z 19006KT 9SM CLR 17/06 A3003 760 46 1200 180/06 RMK AO2
14837KMSN MSN20030602102009206/02/03 10:20:31  5-MIN KMSN 021620Z 18006KT 9SM CLR 17/06 A3003 760 46 1200 180/06 RMK AO2
14837KMSN MSN20030602102509206/02/03 10:25:31  5-MIN KMSN 021625Z 19008KT 9SM CLR 17/06 A3003 760 47 1200 180/08 RMK AO2
14837KMSN MSN20030602103009306/02/03 10:30:31  5-MIN KMSN 021630Z 18008KT 10SM CLR 18/06 A3003 770 46 1300 180/08 RMK AO2
14837KMSN MSN20030602103509306/02/03 10:35:31  5-MIN KMSN 021635Z 19008KT 10SM CLR 17/06 A3003 770 47 1200 180/08 RMK AO2
14837KMSN MSN20030602104009206/02/03 10:40:31  5-MIN KMSN 021640Z 17007KT 9SM CLR 17/06 A3003 770 47 1200 170/07 RMK AO2
14837KMSN MSN20030602104509206/02/03 10:45:31  5-MIN KMSN 021645Z 18006KT 9SM CLR 18/06 A3002 770 46 1300 180/06 RMK AO2
14837KMSN MSN20030602105010906/02/03 10:50:31  5-MIN KMSN 021650Z 17006KT 9SM CLR 17/06 A3002 770 47 1300 170/06 RMK AO2 SLP167 T01720061
14837KMSN MSN20030602105509206/02/03 10:55:31  5-MIN KMSN 021655Z 20005KT 9SM CLR 18/06 A3002 770 46 1300 200/05 RMK AO2
14837KMSN MSN20030602110009206/02/03 11:00:31  5-MIN KMSN 021700Z 19006KT 9SM CLR 18/07 A3002 770 48 1300 180/06 RMK AO2
14837KMSN MSN20030602110509306/02/03 11:05:31  5-MIN KMSN 021705Z 18005KT 10SM CLR 18/06 A3002 770 46 1300 180/05 RMK AO2
14837KMSN MSN20030602111009206/02/03 11:10:31  5-MIN KMSN 021710Z VRB04KT 9SM CLR 18/07 A3002 780 48 1300 VRB/04 RMK AO2
14837KMSN MSN20030602111509206/02/03 11:15:31  5-MIN KMSN 021715Z 16008KT 9SM CLR 18/06 A3001 780 46 1300 160/08 RMK AO2
14837KMSN MSN20030602112009306/02/03 11:20:31  5-MIN KMSN 021720Z 17007KT 10SM CLR 18/06 A3001 780 44 1300 170/07 RMK AO2
14837KMSN MSN20030602112509306/02/03 11:25:31  5-MIN KMSN 021725Z 17006KT 10SM CLR 17/06 A3001 780 46 1300 170/06 RMK AO2
14837KMSN MSN20030602113009306/02/03 11:30:31  5-MIN KMSN 021730Z 16005KT 10SM CLR 18/06 A3001 780 44 1300 160/05 RMK AO2
14837KMSN MSN20030602113509206/02/03 11:35:31  5-MIN KMSN 021735Z 16005KT 9SM CLR 18/06 A3001 780 46 1300 160/05 RMK AO2
14837KMSN MSN20030602114009206/02/03 11:40:31  5-MIN KMSN 021740Z 19006KT 9SM CLR 18/06 A3001 790 44 1300 180/06 RMK AO2
14837KMSN MSN20030602114509306/02/03 11:45:31  5-MIN KMSN 021745Z 18007KT 10SM CLR 18/06 A3000 790 44 1300 180/07 RMK AO2
14837KMSN MSN20030602115012806/02/03 11:50:31  5-MIN KMSN 021750Z 17005KT 10SM CLR 18/06 A3000 790 44 1300 170/05 RMK AO2 SLP161 T01780056 10178 20078 55003
14837KMSN MSN20030602115509306/02/03 11:55:31  5-MIN KMSN 021755Z 14006KT 10SM CLR 18/06 A3000 790 44 1300 140/06 RMK AO2
14837KMSN MSN20030602120009306/02/03 12:00:31  5-MIN KMSN 021800Z 17006KT 10SM CLR 18/06 A3000 790 46 1300 170/06 RMK AO2
14837KMSN MSN20030602120509306/02/03 12:05:31  5-MIN KMSN 021805Z 15006KT 10SM CLR 18/05 A3000 790 42 1300 150/06 RMK AO2
14837KMSN MSN20030602121009306/02/03 12:10:31  5-MIN KMSN 021810Z 13008KT 10SM CLR 18/07 A3000 790 46 1400 130/08 RMK AO2
14837KMSN MSN20030602121509306/02/03 12:15:31  5-MIN KMSN 021815Z 13006KT 10SM CLR 18/06 A3000 790 44 1300 130/06 RMK AO2
14837KMSN MSN20030602122009306/02/03 12:20:31  5-MIN KMSN 021820Z 13006KT 10SM CLR 18/06 A3000 790 44 1400 130/06 RMK AO2
14837KMSN MSN20030602122509306/02/03 12:25:31  5-MIN KMSN 021825Z VRB04KT 10SM CLR 18/06 A3000 790 42 1400 VRB/04 RMK AO2
14837KMSN MSN20030602123009306/02/03 12:30:31  5-MIN KMSN 021830Z VRB06KT 10SM CLR 18/06 A2999 800 42 1400 VRB/06 RMK AO2
14837KMSN MSN20030602123509306/02/03 12:35:31  5-MIN KMSN 021835Z 19006KT 10SM CLR 18/06 A2999 800 44 1400 190/06 RMK AO2
14837KMSN MSN20030602124009306/02/03 12:40:31  5-MIN KMSN 021840Z 20003KT 10SM CLR 18/06 A2999 800 42 1400 200/03 RMK AO2
14837KMSN MSN20030602124509306/02/03 12:45:31  5-MIN KMSN 021845Z 16005KT 10SM CLR 18/06 A2999 800 44 1400 160/05 RMK AO2
14837KMSN MSN20030602125011006/02/03 12:50:31  5-MIN KMSN 021850Z 11008KT 10SM CLR 18/06 A2999 800 44 1400 110/08 RMK AO2 SLP157 T01830061
14837KMSN MSN20030602125509306/02/03 12:55:31  5-MIN KMSN 021855Z 09005KT 10SM CLR 18/06 A2999 800 44 1400 090/05 RMK AO2
14837KMSN MSN20030602130009306/02/03 13:00:31  5-MIN KMSN 021900Z 11008KT 10SM CLR 18/06 A2999 800 44 1400 110/08 RMK AO2
14837KMSN MSN20030602130509306/02/03 13:05:31  5-MIN KMSN 021905Z 13005KT 10SM CLR 18/06 A2999 800 44 1400 120/05 RMK AO2
14837KMSN MSN20030602131009206/02/03 13:10:31  5-MIN KMSN 021910Z 00000KT 9SM CLR 18/07 A2999 800 46 1400 000/00 RMK AO2
14837KMSN MSN20030602131509306/02/03 13:15:31  5-MIN KMSN 021915Z 13008KT 10SM CLR 19/07 A2998 810 44 1500 130/08 RMK AO2
14837KMSN MSN20030602132009306/02/03 13:20:31  5-MIN KMSN 021920Z VRB04KT 10SM CLR 18/06 A2998 810 42 1400 VRB/04 RMK AO2
14837KMSN MSN20030602132509306/02/03 13:25:31  5-MIN KMSN 021925Z 13006KT 10SM CLR 18/07 A2998 810 46 1400 130/06 RMK AO2
14837KMSN MSN20030602133009206/02/03 13:30:31  5-MIN KMSN 021930Z 13007KT 9SM CLR 18/07 A2998 810 46 1400 130/07 RMK AO2
14837KMSN MSN20030602133509206/02/03 13:35:31  5-MIN KMSN 021935Z 10008KT 9SM CLR 18/07 A2998 810 46 1400 100/08 RMK AO2
14837KMSN MSN20030602134009306/02/03 13:40:31  5-MIN KMSN 021940Z 12006KT 10SM CLR 18/06 A2998 810 44 1400 110/06 RMK AO2
14837KMSN MSN20030602134509306/02/03 13:45:31  5-MIN KMSN 021945Z 10007KT 10SM CLR 18/06 A2997 810 44 1400 100/07 RMK AO2
14837KMSN MSN20030602135011006/02/03 13:50:31  5-MIN KMSN 021950Z 11008KT 10SM CLR 18/06 A2997 820 44 1400 110/08 RMK AO2 SLP152 T01830061
14837KMSN MSN20030602135509306/02/03 13:55:31  5-MIN KMSN 021955Z 12005KT 10SM CLR 18/06 A2997 820 44 1400 120/05 RMK AO2
14837KMSN MSN20030602140009306/02/03 14:00:31  5-MIN KMSN 022000Z 11008KT 10SM CLR 18/06 A2997 820 44 1400 110/08 RMK AO2
14837KMSN MSN20030602140509306/02/03 14:05:31  5-MIN KMSN 022005Z 12007KT 10SM CLR 18/06 A2997 820 44 1400 110/07 RMK AO2
14837KMSN MSN20030602141009306/02/03 14:10:31  5-MIN KMSN 022010Z 12006KT 10SM CLR 18/06 A2997 820 44 1400 120/06 RMK AO2
14837KMSN MSN20030602141509306/02/03 14:15:31  5-MIN KMSN 022015Z 13007KT 10SM CLR 18/06 A2997 820 46 1400 130/07 RMK AO2
14837KMSN MSN20030602142009306/02/03 14:20:31  5-MIN KMSN 022020Z 13006KT 10SM CLR 18/06 A2997 820 46 1400 130/06 RMK AO2
14837KMSN MSN20030602142509306/02/03 14:25:31  5-MIN KMSN 022025Z 16006KT 10SM CLR 18/06 A2997 820 46 1400 160/06 RMK AO2
14837KMSN MSN20030602143009306/02/03 14:30:31  5-MIN KMSN 022030Z 14006KT 10SM CLR 18/06 A2997 820 42 1400 140/06 RMK AO2
14837KMSN MSN20030602143509306/02/03 14:35:31  5-MIN KMSN 022035Z 14006KT 10SM CLR 18/06 A2997 820 44 1400 140/06 RMK AO2
14837KMSN MSN20030602144009306/02/03 14:40:31  5-MIN KMSN 022040Z 13004KT 10SM CLR 18/07 A2997 820 46 1400 120/04 RMK AO2
14837KMSN MSN20030602144509306/02/03 14:45:31  5-MIN KMSN 022045Z 13006KT 10SM CLR 18/06 A2997 820 44 1400 130/06 RMK AO2
14837KMSN MSN20030602145011606/02/03 14:50:31  5-MIN KMSN 022050Z 13007KT 10SM CLR 18/06 A2997 820 42 1400 130/07 RMK AO2 SLP149 T01830056 58012
14837KMSN MSN20030602145509306/02/03 14:55:31  5-MIN KMSN 022055Z 13007KT 10SM CLR 18/06 A2997 820 44 1400 130/07 RMK AO2
14837KMSN MSN20030602150009306/02/03 15:00:31  5-MIN KMSN 022100Z 12004KT 10SM CLR 18/06 A2996 820 46 1400 120/04 RMK AO2
14837KMSN MSN20030602150509306/02/03 15:05:31  5-MIN KMSN 022105Z 11006KT 10SM CLR 18/06 A2996 820 44 1400 110/06 RMK AO2
14837KMSN MSN20030602151009306/02/03 15:10:31  5-MIN KMSN 022110Z 13006KT 10SM CLR 18/06 A2996 820 46 1400 130/06 RMK AO2
14837KMSN MSN20030602151509306/02/03 15:15:31  5-MIN KMSN 022115Z 12008KT 10SM CLR 18/06 A2996 820 42 1400 120/08 RMK AO2
14837KMSN MSN20030602152009306/02/03 15:20:31  5-MIN KMSN 022120Z 13007KT 10SM CLR 18/06 A2996 820 44 1400 130/07 RMK AO2
14837KMSN MSN20030602152509306/02/03 15:25:31  5-MIN KMSN 022125Z 13005KT 10SM CLR 18/06 A2996 820 46 1400 130/05 RMK AO2
14837KMSN MSN20030602153009306/02/03 15:30:31  5-MIN KMSN 022130Z 11004KT 10SM CLR 18/06 A2996 820 46 1400 110/04 RMK AO2
14837KMSN MSN20030602153509306/02/03 15:35:31  5-MIN KMSN 022135Z 11007KT 10SM CLR 18/06 A2996 830 46 1400 110/07 RMK AO2
14837KMSN MSN20030602154009306/02/03 15:40:31  5-MIN KMSN 022140Z 11005KT 10SM CLR 18/06 A2996 830 44 1400 100/05 RMK AO2
14837KMSN MSN20030602154509306/02/03 15:45:31  5-MIN KMSN 022145Z 11005KT 10SM CLR 18/06 A2996 830 46 1400 110/05 RMK AO2
14837KMSN MSN20030602155011006/02/03 15:50:31  5-MIN KMSN 022150Z 11005KT 10SM CLR 18/06 A2996 830 46 1400 110/05 RMK AO2 SLP146 T01780061
14837KMSN MSN20030602155509306/02/03 15:55:31  5-MIN KMSN 022155Z 12006KT 10SM CLR 18/06 A2996 830 46 1400 120/06 RMK AO2
14837KMSN MSN20030602160009306/02/03 16:00:31  5-MIN KMSN 022200Z 13004KT 10SM CLR 18/06 A2996 830 46 1400 130/04 RMK AO2
14837KMSN MSN20030602160509306/02/03 16:05:31  5-MIN KMSN 022205Z 12004KT 10SM CLR 18/07 A2996 830 49 1400 120/04 RMK AO2
14837KMSN MSN20030602161009306/02/03 16:10:31  5-MIN KMSN 022210Z 13004KT 10SM CLR 18/07 A2996 830 48 1400 130/04 RMK AO2
14837KMSN MSN20030602161509306/02/03 16:15:31  5-MIN KMSN 022215Z 11005KT 10SM CLR 18/07 A2996 830 48 1400 110/05 RMK AO2
14837KMSN MSN20030602162009306/02/03 16:20:31  5-MIN KMSN 022220Z 13004KT 10SM CLR 18/07 A2995 830 48 1400 130/04 RMK AO2
14837KMSN MSN20030602162509306/02/03 16:25:31  5-MIN KMSN 022225Z 13005KT 10SM CLR 18/06 A2995 830 46 1400 130/05 RMK AO2
14837KMSN MSN20030602163009306/02/03 16:30:31  5-MIN KMSN 022230Z 12004KT 10SM CLR 18/06 A2995 830 44 1400 110/04 RMK AO2
14837KMSN MSN20030602163509206/02/03 16:35:31  5-MIN KMSN 022235Z 11006KT 9SM CLR 18/06 A2995 840 46 1400 100/06 RMK AO2
14837KMSN MSN20030602164009306/02/03 16:40:31  5-MIN KMSN 022240Z 11004KT 10SM CLR 17/07 A2995 840 51 1300 110/04 RMK AO2
14837KMSN MSN20030602164509306/02/03 16:45:31  5-MIN KMSN 022245Z 13006KT 10SM CLR 17/06 A2995 840 47 1300 130/06 RMK AO2
14837KMSN MSN20030602165011006/02/03 16:50:31  5-MIN KMSN 022250Z 13006KT 10SM CLR 17/06 A2995 840 46 1300 130/06 RMK AO2 SLP142 T01720056
14837KMSN MSN20030602165509306/02/03 16:55:31  5-MIN KMSN 022255Z 12005KT 10SM CLR 17/06 A2995 840 46 1300 120/05 RMK AO2
14837KMSN MSN20030602170009306/02/03 17:00:31  5-MIN KMSN 022300Z 11004KT 10SM CLR 17/06 A2994 840 47 1300 110/04 RMK AO2
14837KMSN MSN20030602170509306/02/03 17:05:31  5-MIN KMSN 022305Z 11003KT 10SM CLR 17/07 A2994 840 49 1300 110/03 RMK AO2
14837KMSN MSN20030602171009306/02/03 17:10:31  5-MIN KMSN 022310Z 00000KT 10SM CLR 18/06 A2994 840 46 1400 000/00 RMK AO2
14837KMSN MSN20030602171509306/02/03 17:15:31  5-MIN KMSN 022315Z 11003KT 10SM CLR 18/07 A2994 840 48 1400 110/03 RMK AO2
14837KMSN MSN20030602172009306/02/03 17:20:31  5-MIN KMSN 022320Z 00000KT 10SM CLR 18/07 A2994 840 49 1400 000/00 RMK AO2
14837KMSN MSN20030602172509306/02/03 17:25:31  5-MIN KMSN 022325Z 00000KT 10SM CLR 18/07 A2994 840 48 1400 000/00 RMK AO2
14837KMSN MSN20030602173009306/02/03 17:30:31  5-MIN KMSN 022330Z 00000KT 10SM CLR 18/07 A2994 840 48 1400 000/00 RMK AO2
14837KMSN MSN20030602173509306/02/03 17:35:31  5-MIN KMSN 022335Z 06003KT 10SM CLR 17/08 A2994 840 55 1300 060/03 RMK AO2
14837KMSN MSN20030602174009306/02/03 17:40:31  5-MIN KMSN 022340Z 00000KT 10SM CLR 17/09 A2994 850 60 1300 000/00 RMK AO2
14837KMSN MSN20030602174509306/02/03 17:45:31  5-MIN KMSN 022345Z 00000KT 10SM CLR 17/09 A2994 850 62 1300 000/00 RMK AO2
14837KMSN MSN20030602175012806/02/03 17:50:31  5-MIN KMSN 022350Z 00000KT 10SM CLR 17/09 A2994 850 60 1300 000/00 RMK AO2 SLP141 T01670089 10189 20167 56012
14837KMSN MSN20030602175509306/02/03 17:55:31  5-MIN KMSN 022355Z 00000KT 10SM CLR 17/09 A2994 850 60 1300 000/00 RMK AO2
14837KMSN MSN20030602180009306/02/03 18:00:31  5-MIN KMSN 030000Z 00000KT 10SM CLR 17/10 A2994 850 64 1300 000/00 RMK AO2
14837KMSN MSN20030602180509306/02/03 18:05:31  5-MIN KMSN 030005Z 00000KT 10SM CLR 17/09 A2994 850 60 1300 000/00 RMK AO2
14837KMSN MSN20030602181009306/02/03 18:10:31  5-MIN KMSN 030010Z 00000KT 10SM CLR 16/09 A2994 850 62 1200 000/00 RMK AO2
14837KMSN MSN20030602181509306/02/03 18:15:31  5-MIN KMSN 030015Z 00000KT 10SM CLR 16/09 A2994 850 62 1200 000/00 RMK AO2
14837KMSN MSN20030602182009306/02/03 18:20:31  5-MIN KMSN 030020Z 00000KT 10SM CLR 16/10 A2994 850 67 1200 000/00 RMK AO2
14837KMSN MSN20030602182509306/02/03 18:25:31  5-MIN KMSN 030025Z 00000KT 10SM CLR 16/10 A2994 850 69 1200 000/00 RMK AO2
14837KMSN MSN20030602183009306/02/03 18:30:31  5-MIN KMSN 030030Z 00000KT 10SM CLR 16/09 A2994 850 64 1200 000/00 RMK AO2
14837KMSN MSN20030602183509306/02/03 18:35:31  5-MIN KMSN 030035Z 00000KT 10SM CLR 16/08 A2994 850 57 1200 000/00 RMK AO2
14837KMSN MSN20030602184009306/02/03 18:40:31  5-MIN KMSN 030040Z 00000KT 10SM CLR 17/06 A2994 850 49 1300 000/00 RMK AO2
14837KMSN MSN20030602184509306/02/03 18:45:31  5-MIN KMSN 030045Z 00000KT 10SM CLR 16/07 A2994 850 55 1200 000/00 RMK AO2
14837KMSN MSN20030602185011006/02/03 18:50:31  5-MIN KMSN 030050Z 02003KT 10SM CLR 16/08 A2994 850 59 1200 020/03 RMK AO2 SLP137 T01560078
14837KMSN MSN20030602185509606/02/03 18:55:31  5-MIN KMSN 030055Z 02003KT 10SM FEW110 16/07 A2993 850 57 1200 020/03 RMK AO2
14837KMSN MSN20030602190009606/02/03 19:00:31  5-MIN KMSN 030100Z 02003KT 10SM FEW110 16/07 A2993 850 55 1200 020/03 RMK AO2
14837KMSN MSN20030602190509606/02/03 19:05:31  5-MIN KMSN 030105Z 00000KT 10SM FEW110 15/08 A2993 850 62 1100 000/00 RMK AO2
14837KMSN MSN20030602191009606/02/03 19:10:31  5-MIN KMSN 030110Z 02003KT 10SM FEW110 15/07 A2993 850 59 1100 020/03 RMK AO2
14837KMSN MSN20030602191509606/02/03 19:15:31  5-MIN KMSN 030115Z 36003KT 10SM FEW110 14/07 A2993 850 61 1000 360/03 RMK AO2
14837KMSN MSN20030602192009606/02/03 19:20:31  5-MIN KMSN 030120Z 00000KT 10SM FEW110 14/07 A2993 850 61 1000 000/00 RMK AO2
14837KMSN MSN20030602192509606/02/03 19:25:31  5-MIN KMSN 030125Z 00000KT 10SM FEW110 14/08 A2993 850 66 1000 000/00 RMK AO2
14837KMSN MSN20030602193009306/02/03 19:30:31  5-MIN KMSN 030130Z VRB06KT 10SM CLR 14/08 A2994 850 66 1000 VRB/06 RMK AO2
14837KMSN MSN20030602193511106/02/03 19:35:31  5-MIN KMSN 030135Z 23009KT 200V260 9SM FEW080 15/08 A2994 840 64 1100 230/09 200V260 RMK AO2
14837KMSN MSN20030602194009606/02/03 19:40:31  5-MIN KMSN 030140Z 21010KT 10SM SCT080 15/06 A2994 840 55 1100 210/10 RMK AO2
14837KMSN MSN20030602194509606/02/03 19:45:31  5-MIN KMSN 030145Z 22009KT 10SM BKN080 14/06 A2994 840 57 1000 220/09 RMK AO2
14837KMSN MSN20030602195011206/02/03 19:50:31  5-MIN KMSN 030150Z 23008KT 8SM BKN080 14/06 A2994 840 57 1000 220/08 RMK AO2 SLP140 T01440061
14837KMSN MSN20030602195509506/02/03 19:55:31  5-MIN KMSN 030155Z 23008KT 7SM BKN080 14/06 A2994 840 57 1000 220/08 RMK AO2
14837KMSN MSN20030602200011006/02/03 20:00:31  5-MIN KMSN 030200Z 23008KT 190V260 7SM SCT080 14/07 A2995 840 61 900 230/08 190V260 RMK AO2
14837KMSN MSN20030602200511706/02/03 20:05:31  5-MIN KMSN 030205Z 23007KT 200V280 7SM SCT080 SCT120 14/07 A2995 840 61 900 230/07 200V280 RMK AO2
14837KMSN MSN20030602201010106/02/03 20:10:31  5-MIN KMSN 030210Z 22007KT 7SM FEW080 SCT120 14/07 A2995 840 61 900 210/07 RMK AO2
14837KMSN MSN20030602201509406/02/03 20:15:31  5-MIN KMSN 030215Z 22009KT 7SM FEW080 14/07 A2996 830 61 900 220/09 RMK AO2
14837KMSN MSN20030602202009406/02/03 20:20:31  5-MIN KMSN 030220Z 22006KT 7SM FEW120 14/07 A2996 830 61 900 220/06 RMK AO2
14837KMSN MSN20030602202509406/02/03 20:25:31  5-MIN KMSN 030225Z 22006KT 7SM FEW120 14/07 A2996 830 64 900 210/06 RMK AO2
14837KMSN MSN20030602203009406/02/03 20:30:31  5-MIN KMSN 030230Z 21005KT 7SM FEW120 14/07 A2996 830 64 900 210/05 RMK AO2
14837KMSN MSN20030602203509106/02/03 20:35:31  5-MIN KMSN 030235Z 22006KT 7SM CLR 14/07 A2996 830 64 900 220/06 RMK AO2
14837KMSN MSN20030602204009106/02/03 20:40:31  5-MIN KMSN 030240Z VRB06KT 8SM CLR 14/07 A2996 830 64 900 VRB/06 RMK AO2
14837KMSN MSN20030602204509106/02/03 20:45:31  5-MIN KMSN 030245Z 23006KT 8SM CLR 14/07 A2996 830 64 900 230/06 RMK AO2
14837KMSN MSN20030602205011406/02/03 20:50:31  5-MIN KMSN 030250Z 22006KT 8SM CLR 14/07 A2996 820 64 900 220/06 RMK AO2 SLP147 T01390072 56008
14837KMSN MSN20030602205509406/02/03 20:55:31  5-MIN KMSN 030255Z 22006KT 7SM FEW085 14/07 A2997 820 64 900 220/06 RMK AO2
14837KMSN MSN20030602210009406/02/03 21:00:31  5-MIN KMSN 030300Z 21004KT 7SM FEW085 13/07 A2996 820 66 900 210/04 RMK AO2
14837KMSN MSN20030602210509406/02/03 21:05:31  5-MIN KMSN 030305Z VRB04KT 7SM FEW085 13/07 A2996 820 66 900 VRB/04 RMK AO2
14837KMSN MSN20030602211009406/02/03 21:10:31  5-MIN KMSN 030310Z VRB05KT 7SM FEW085 13/07 A2996 820 66 900 VRB/05 RMK AO2
14837KMSN MSN20030602211509406/02/03 21:15:31  5-MIN KMSN 030315Z VRB05KT 7SM FEW085 13/07 A2997 820 66 900 VRB/05 RMK AO2
14837KMSN MSN20030602212009406/02/03 21:20:31  5-MIN KMSN 030320Z VRB05KT 7SM FEW085 13/07 A2997 820 64 900 VRB/05 RMK AO2
14837KMSN MSN20030602212509106/02/03 21:25:31  5-MIN KMSN 030325Z VRB04KT 7SM CLR 13/07 A2997 820 64 900 VRB/04 RMK AO2
14837KMSN MSN20030602213009106/02/03 21:30:31  5-MIN KMSN 030330Z 00000KT 7SM CLR 13/07 A2997 820 66 900 000/00 RMK AO2
14837KMSN MSN20030602213509106/02/03 21:35:31  5-MIN KMSN 030335Z VRB04KT 7SM CLR 13/07 A2997 820 66 900 VRB/04 RMK AO2
14837KMSN MSN20030602214009106/02/03 21:40:31  5-MIN KMSN 030340Z 27004KT 7SM CLR 13/07 A2996 820 64 900 260/04 RMK AO2
14837KMSN MSN20030602214509106/02/03 21:45:31  5-MIN KMSN 030345Z VRB04KT 7SM CLR 13/07 A2996 820 66 800 VRB/04 RMK AO2
14837KMSN MSN20030602215010806/02/03 21:50:31  5-MIN KMSN 030350Z VRB04KT 7SM CLR 13/07 A2996 830 66 800 VRB/04 RMK AO2 SLP146 T01280067
14837KMSN MSN20030602215509106/02/03 21:55:31  5-MIN KMSN 030355Z VRB03KT 7SM CLR 13/07 A2996 820 69 800 VRB/03 RMK AO2
14837KMSN MSN20030602220009106/02/03 22:00:31  5-MIN KMSN 030400Z VRB05KT 7SM CLR 13/07 A2996 820 69 800 VRB/05 RMK AO2
14837KMSN MSN20030602220509406/02/03 22:05:31  5-MIN KMSN 030405Z VRB03KT 6SM HZ CLR 13/07 A2996 820 69 800 VRB/03 RMK AO2
14837KMSN MSN20030602221009106/02/03 22:10:31  5-MIN KMSN 030410Z 00000KT 7SM CLR 13/07 A2996 820 69 800 000/00 RMK AO2
14837KMSN MSN20030602221509106/02/03 22:15:31  5-MIN KMSN 030415Z 00000KT 7SM CLR 13/07 A2996 820 69 800 000/00 RMK AO2
14837KMSN MSN20030602222009106/02/03 22:20:31  5-MIN KMSN 030420Z 00000KT 7SM CLR 13/07 A2997 820 69 800 000/00 RMK AO2
14837KMSN MSN20030602222509106/02/03 22:25:31  5-MIN KMSN 030425Z 21004KT 7SM CLR 13/07 A2997 820 69 800 210/04 RMK AO2
14837KMSN MSN20030602223009106/02/03 22:30:31  5-MIN KMSN 030430Z 22004KT 7SM CLR 13/07 A2997 820 69 800 220/04 RMK AO2
14837KMSN MSN20030602223509106/02/03 22:35:31  5-MIN KMSN 030435Z VRB04KT 7SM CLR 13/07 A2996 820 69 800 VRB/04 RMK AO2
14837KMSN MSN20030602224009106/02/03 22:40:31  5-MIN KMSN 030440Z VRB04KT 7SM CLR 13/07 A2997 820 69 800 VRB/04 RMK AO2
14837KMSN MSN20030602224509106/02/03 22:45:31  5-MIN KMSN 030445Z 00000KT 7SM CLR 13/07 A2997 820 69 800 000/00 RMK AO2
14837KMSN MSN20030602225010806/02/03 22:50:31  5-MIN KMSN 030450Z 00000KT 7SM CLR 12/07 A2997 820 71 700 000/00 RMK AO2 SLP147 T01220072
14837KMSN MSN20030602225509406/02/03 22:55:31  5-MIN KMSN 030455Z VRB04KT 6SM HZ CLR 12/07 A2996 820 71 700 VRB/04 RMK AO2
14837KMSN MSN20030602230009406/02/03 23:00:31  5-MIN KMSN 030500Z VRB03KT 6SM HZ CLR 12/07 A2996 830 71 700 VRB/03 RMK AO2
14837KMSN MSN20030602230509706/02/03 23:05:31  5-MIN KMSN 030505Z VRB03KT 6SM HZ FEW110 12/07 A2996 830 71 700 VRB/03 RMK AO2
14837KMSN MSN20030602231009706/02/03 23:10:31  5-MIN KMSN 030510Z 29004KT 6SM HZ SCT110 12/07 A2996 830 71 700 290/04 RMK AO2
14837KMSN MSN20030602231509706/02/03 23:15:31  5-MIN KMSN 030515Z VRB04KT 6SM HZ SCT110 12/07 A2996 830 71 700 VRB/04 RMK AO2
14837KMSN MSN20030602232009706/02/03 23:20:31  5-MIN KMSN 030520Z 29005KT 6SM HZ SCT110 12/08 A2996 830 74 700 280/05 RMK AO2
14837KMSN MSN20030602232509706/02/03 23:25:31  5-MIN KMSN 030525Z VRB03KT 6SM HZ SCT110 12/08 A2997 820 74 700 VRB/03 RMK AO2
14837KMSN MSN20030602233009706/02/03 23:30:31  5-MIN KMSN 030530Z 19005KT 6SM HZ SCT110 12/08 A2997 810 74 700 190/05 RMK AO2
14837KMSN MSN20030602233509706/02/03 23:35:31  5-MIN KMSN 030535Z 22005KT 6SM HZ SCT110 13/08 A2997 810 71 800 220/05 RMK AO2
14837KMSN MSN20030602234009706/02/03 23:40:31  5-MIN KMSN 030540Z 24003KT 6SM HZ FEW110 12/08 A2997 820 74 700 240/03 RMK AO2
14837KMSN MSN20030602234509706/02/03 23:45:31  5-MIN KMSN 030545Z 00000KT 6SM HZ FEW110 12/08 A2997 820 74 700 000/00 RMK AO2
14837KMSN MSN20030602235014206/02/03 23:50:31  5-MIN KMSN 030550Z 00000KT 6SM HZ FEW120 12/08 A2997 820 74 700 000/00 RMK AO2 SLP147 T01220078 10167 20122 401890050 53008
14837KMSN MSN20030602235509706/02/03 23:55:31  5-MIN KMSN 030555Z 29004KT 6SM HZ FEW120 12/08 A2996 830 74 700 290/04 RMK AO2
14837KMSN MSN20030603000009706/03/03 00:00:31  5-MIN KMSN 030600Z 29005KT 6SM HZ FEW120 12/08 A2996 830 74 700 290/05 RMK AO2
14837KMSN MSN20030603000509706/03/03 00:05:31  5-MIN KMSN 030605Z VRB04KT 6SM HZ SCT120 12/08 A2996 830 74 700 VRB/04 RMK AO2
14837KMSN MSN20030603001009706/03/03 00:10:31  5-MIN KMSN 030610Z VRB03KT 6SM HZ FEW120 12/08 A2996 830 74 700 VRB/03 RMK AO2
14837KMSN MSN20030603001509706/03/03 00:15:31  5-MIN KMSN 030615Z 29003KT 6SM HZ FEW120 12/08 A2996 830 74 700 290/03 RMK AO2
14837KMSN MSN20030603002009706/03/03 00:20:31  5-MIN KMSN 030620Z 28005KT 6SM HZ SCT120 12/08 A2995 830 77 700 280/05 RMK AO2
14837KMSN MSN20030603002509706/03/03 00:25:31  5-MIN KMSN 030625Z VRB03KT 6SM HZ BKN120 12/08 A2995 830 74 700 VRB/03 RMK AO2
14837KMSN MSN20030603003009706/03/03 00:30:31  5-MIN KMSN 030630Z 28005KT 6SM HZ BKN120 12/08 A2995 830 74 700 280/05 RMK AO2
14837KMSN MSN20030603003509706/03/03 00:35:31  5-MIN KMSN 030635Z 28005KT 6SM HZ BKN120 12/08 A2995 840 77 700 280/05 RMK AO2
14837KMSN MSN20030603004009706/03/03 00:40:31  5-MIN KMSN 030640Z 29005KT 6SM HZ BKN120 12/08 A2995 840 74 700 290/05 RMK AO2
14837KMSN MSN20030603004509706/03/03 00:45:31  5-MIN KMSN 030645Z 30005KT 6SM HZ BKN120 12/08 A2995 840 77 700 290/05 RMK AO2
14837KMSN MSN20030603005012106/03/03 00:50:31  5-MIN KMSN 030650Z 28005KT 6SM HZ FEW080 BKN110 12/08 A2995 840 77 700 280/05 RMK AO2 SLP141 T01170078
14837KMSN MSN20030603005510406/03/03 00:55:31  5-MIN KMSN 030655Z 27004KT 6SM HZ FEW080 BKN110 12/08 A2994 840 77 700 270/04 RMK AO2
14837KMSN MSN20030603010010406/03/03 01:00:31  5-MIN KMSN 030700Z VRB05KT 6SM HZ FEW080 SCT110 12/08 A2994 850 77 700 VRB/05 RMK AO2
14837KMSN MSN20030603010510406/03/03 01:05:31  5-MIN KMSN 030705Z VRB05KT 6SM HZ FEW080 SCT110 12/08 A2994 850 77 700 VRB/05 RMK AO2
14837KMSN MSN20030603011009706/03/03 01:10:31  5-MIN KMSN 030710Z VRB04KT 6SM HZ FEW080 12/08 A2994 840 77 700 VRB/04 RMK AO2
14837KMSN MSN20030603011509706/03/03 01:15:31  5-MIN KMSN 030715Z VRB04KT 6SM HZ FEW090 12/08 A2994 840 77 700 VRB/04 RMK AO2
14837KMSN MSN20030603012009706/03/03 01:20:31  5-MIN KMSN 030720Z VRB04KT 6SM HZ FEW090 12/08 A2994 840 77 700 VRB/04 RMK AO2
14837KMSN MSN20030603012510406/03/03 01:25:31  5-MIN KMSN 030725Z VRB04KT 6SM HZ FEW095 SCT120 12/08 A2994 850 77 700 VRB/04 RMK AO2
14837KMSN MSN20030603013010406/03/03 01:30:31  5-MIN KMSN 030730Z 28004KT 6SM HZ FEW090 SCT120 12/08 A2994 850 77 700 280/04 RMK AO2
14837KMSN MSN20030603013510406/03/03 01:35:31  5-MIN KMSN 030735Z VRB03KT 6SM HZ FEW090 SCT120 12/08 A2994 850 77 700 VRB/03 RMK AO2
14837KMSN MSN20030603014010406/03/03 01:40:31  5-MIN KMSN 030740Z VRB03KT 6SM HZ FEW090 SCT120 12/08 A2995 840 77 700 VRB/03 RMK AO2
14837KMSN MSN20030603014509706/03/03 01:45:31  5-MIN KMSN 030745Z 23004KT 6SM HZ FEW120 12/08 A2995 840 77 700 230/04 RMK AO2
14837KMSN MSN20030603015011406/03/03 01:50:31  5-MIN KMSN 030750Z VRB03KT 6SM HZ FEW120 12/08 A2995 840 77 700 VRB/03 RMK AO2 SLP140 T01170078
14837KMSN MSN20030603015509706/03/03 01:55:31  5-MIN KMSN 030755Z 22005KT 6SM HZ FEW120 12/08 A2995 840 77 700 220/05 RMK AO2
14837KMSN MSN20030603020009706/03/03 02:00:31  5-MIN KMSN 030800Z 23003KT 6SM HZ SCT120 12/08 A2995 840 77 700 220/03 RMK AO2
14837KMSN MSN20030603020509706/03/03 02:05:31  5-MIN KMSN 030805Z 21005KT 6SM HZ BKN120 12/08 A2994 840 77 700 210/05 RMK AO2
14837KMSN MSN20030603021009706/03/03 02:10:31  5-MIN KMSN 030810Z 22004KT 6SM HZ BKN120 12/08 A2994 840 77 700 220/04 RMK AO2
14837KMSN MSN20030603021509706/03/03 02:15:31  5-MIN KMSN 030815Z 22005KT 6SM HZ BKN120 12/08 A2994 840 74 800 220/05 RMK AO2
14837KMSN MSN20030603022009706/03/03 02:20:31  5-MIN KMSN 030820Z VRB03KT 6SM HZ BKN120 12/08 A2994 840 74 800 VRB/03 RMK AO2
14837KMSN MSN20030603022509706/03/03 02:25:31  5-MIN KMSN 030825Z 25003KT 6SM HZ BKN120 12/08 A2994 850 74 800 250/03 RMK AO2
14837KMSN MSN20030603023009706/03/03 02:30:31  5-MIN KMSN 030830Z 00000KT 6SM HZ BKN120 12/08 A2994 840 74 800 000/00 RMK AO2
14837KMSN MSN20030603023509706/03/03 02:35:31  5-MIN KMSN 030835Z 00000KT 6SM HZ BKN120 12/08 A2994 840 77 700 000/00 RMK AO2
14837KMSN MSN20030603024009706/03/03 02:40:31  5-MIN KMSN 030840Z 00000KT 6SM HZ BKN120 12/08 A2994 850 77 700 000/00 RMK AO2
14837KMSN MSN20030603024509706/03/03 02:45:31  5-MIN KMSN 030845Z 00000KT 6SM HZ BKN120 12/08 A2994 850 77 700 000/00 RMK AO2
14837KMSN MSN20030603025012006/03/03 02:50:31  5-MIN KMSN 030850Z 00000KT 6SM HZ BKN120 12/08 A2994 850 77 700 000/00 RMK AO2 SLP139 T01170078 56001
14837KMSN MSN20030603025509706/03/03 02:55:31  5-MIN KMSN 030855Z 00000KT 6SM HZ BKN120 12/08 A2994 850 77 700 000/00 RMK AO2
14837KMSN MSN20030603030009706/03/03 03:00:31  5-MIN KMSN 030900Z 00000KT 6SM HZ OVC120 12/08 A2994 850 77 700 000/00 RMK AO2
14837KMSN MSN20030603030509706/03/03 03:05:31  5-MIN KMSN 030905Z 00000KT 6SM HZ OVC120 12/08 A2994 850 77 700 000/00 RMK AO2
14837KMSN MSN20030603031009706/03/03 03:10:31  5-MIN KMSN 030910Z 00000KT 6SM HZ OVC120 12/08 A2994 850 77 700 000/00 RMK AO2
14837KMSN MSN20030603031509706/03/03 03:15:31  5-MIN KMSN 030915Z 27003KT 6SM HZ OVC120 12/08 A2994 850 77 700 270/03 RMK AO2
14837KMSN MSN20030603032009706/03/03 03:20:31  5-MIN KMSN 030920Z 00000KT 6SM HZ BKN120 12/08 A2994 850 77 700 000/00 RMK AO2
14837KMSN MSN20030603032509706/03/03 03:25:31  5-MIN KMSN 030925Z 00000KT 5SM HZ BKN120 11/08 A2994 850 80 600 000/00 RMK AO2
14837KMSN MSN20030603033009706/03/03 03:30:31  5-MIN KMSN 030930Z 28003KT 6SM HZ BKN120 11/08 A2993 850 80 600 280/03 RMK AO2
14837KMSN MSN20030603033509706/03/03 03:35:31  5-MIN KMSN 030935Z 00000KT 6SM HZ SCT120 11/08 A2993 850 80 600 000/00 RMK AO2
14837KMSN MSN20030603034009706/03/03 03:40:31  5-MIN KMSN 030940Z VRB03KT 6SM HZ FEW120 11/08 A2993 850 80 600 VRB/03 RMK AO2
14837KMSN MSN20030603034509706/03/03 03:45:31  5-MIN KMSN 030945Z 00000KT 6SM HZ SCT120 11/08 A2994 850 80 600 000/00 RMK AO2
14837KMSN MSN20030603035011406/03/03 03:50:31  5-MIN KMSN 030950Z 29003KT 6SM HZ SCT120 11/08 A2994 850 80 600 290/03 RMK AO2 SLP138 T01110078
14837KMSN MSN20030603035509706/03/03 03:55:31  5-MIN KMSN 030955Z VRB03KT 5SM HZ SCT120 11/08 A2993 850 80 600 VRB/03 RMK AO2
14837KMSN MSN20030603040009706/03/03 04:00:31  5-MIN KMSN 031000Z VRB05KT 5SM HZ SCT120 11/08 A2993 850 80 600 VRB/05 RMK AO2
14837KMSN MSN20030603040509706/03/03 04:05:31  5-MIN KMSN 031005Z VRB03KT 5SM HZ BKN120 11/08 A2993 850 80 600 VRB/03 RMK AO2
14837KMSN MSN20030603041009706/03/03 04:10:31  5-MIN KMSN 031010Z 29004KT 5SM HZ BKN120 11/08 A2993 850 80 600 290/04 RMK AO2
14837KMSN MSN20030603041510406/03/03 04:15:31  5-MIN KMSN 031015Z 28004KT 5SM HZ FEW095 BKN120 11/08 A2994 850 80 600 270/04 RMK AO2
14837KMSN MSN20030603042009706/03/03 04:20:31  5-MIN KMSN 031020Z 27003KT 5SM HZ OVC110 11/08 A2994 850 80 600 270/03 RMK AO2
14837KMSN MSN20030603042509706/03/03 04:25:31  5-MIN KMSN 031025Z 27003KT 5SM HZ OVC120 11/08 A2994 850 80 600 270/03 RMK AO2
14837KMSN MSN20030603043009706/03/03 04:30:31  5-MIN KMSN 031030Z 00000KT 5SM HZ OVC120 11/08 A2994 850 83 600 000/00 RMK AO2
14837KMSN MSN20030603043509706/03/03 04:35:31  5-MIN KMSN 031035Z 28004KT 5SM HZ OVC120 11/08 A2994 850 83 600 280/04 RMK AO2
14837KMSN MSN20030603044010406/03/03 04:40:31  5-MIN KMSN 031040Z 28003KT 4SM HZ FEW100 OVC120 11/08 A2994 850 83 600 280/03 RMK AO2
14837KMSN MSN20030603044510406/03/03 04:45:31  5-MIN KMSN 031045Z 28004KT 4SM HZ FEW090 OVC120 11/08 A2994 840 83 600 270/04 RMK AO2
14837KMSN MSN20030603045012106/03/03 04:50:31  5-MIN KMSN 031050Z 00000KT 4SM BR SCT090 OVC120 11/08 A2994 840 86 600 000/00 RMK AO2 SLP140 T01060083
14837KMSN MSN20030603045510406/03/03 04:55:31  5-MIN KMSN 031055Z 30004KT 4SM BR FEW090 OVC120 11/08 A2994 840 86 600 300/04 RMK AO2
14837KMSN MSN20030603050010406/03/03 05:00:31  5-MIN KMSN 031100Z 28003KT 4SM BR SCT090 OVC120 11/08 A2994 840 86 600 280/03 RMK AO2
14837KMSN MSN20030603050511106/03/03 05:05:31  5-MIN KMSN 031105Z 26003KT 4SM BR FEW070 BKN090 OVC120 11/08 A2995 840 86 500 260/03 RMK AO2
14837KMSN MSN20030603051011106/03/03 05:10:31  5-MIN KMSN 031110Z VRB03KT 4SM HZ FEW070 BKN090 OVC120 11/08 A2995 840 83 600 VRB/03 RMK AO2
14837KMSN MSN20030603051511106/03/03 05:15:31  5-MIN KMSN 031115Z 00000KT 4SM BR SCT070 BKN090 OVC120 11/08 A2995 840 86 500 000/00 RMK AO2
14837KMSN MSN20030603052010406/03/03 05:20:31  5-MIN KMSN 031120Z 00000KT 4SM BR BKN070 OVC090 11/08 A2995 840 86 500 000/00 RMK AO2
14837KMSN MSN20030603052510406/03/03 05:25:31  5-MIN KMSN 031125Z VRB03KT 4SM BR BKN070 OVC090 11/08 A2995 840 86 500 VRB/03 RMK AO2
14837KMSN MSN20030603053010406/03/03 05:30:31  5-MIN KMSN 031130Z 00000KT 4SM BR BKN070 OVC090 11/08 A2995 840 86 500 000/00 RMK AO2
14837KMSN MSN20030603053510406/03/03 05:35:31  5-MIN KMSN 031135Z 00000KT 4SM BR BKN070 OVC085 11/08 A2995 840 86 500 000/00 RMK AO2
14837KMSN MSN20030603054010406/03/03 05:40:31  5-MIN KMSN 031140Z 00000KT 4SM BR BKN070 OVC090 11/08 A2995 840 86 500 000/00 RMK AO2
14837KMSN MSN20030603054510406/03/03 05:45:31  5-MIN KMSN 031145Z 00000KT 4SM BR BKN070 OVC080 11/08 A2995 840 86 500 000/00 RMK AO2
14837KMSN MSN20030603055013206/03/03 05:50:31  5-MIN KMSN 031150Z 00000KT 4SM BR OVC065 11/08 A2995 830 86 500 000/00 RMK AO2 SLP144 T01060083 10122 20106 56008
14837KMSN MSN20030603055510406/03/03 05:55:31  5-MIN KMSN 031155Z 00000KT 4SM BR BKN070 OVC085 11/08 A2995 830 86 500 000/00 RMK AO2
14837KMSN MSN20030603060010406/03/03 06:00:31  5-MIN KMSN 031200Z 00000KT 4SM BR BKN070 OVC085 11/09 A2995 830 89 500 000/00 RMK AO2
14837KMSN MSN20030603060510406/03/03 06:05:31  5-MIN KMSN 031205Z 00000KT 3SM BR SCT065 OVC085 11/09 A2995 830 89 500 000/00 RMK AO2
14837KMSN MSN20030603061010406/03/03 06:10:31  5-MIN KMSN 031210Z 00000KT 3SM BR SCT070 OVC085 11/09 A2995 840 89 500 000/00 RMK AO2
14837KMSN MSN20030603061510406/03/03 06:15:31  5-MIN KMSN 031215Z 00000KT 3SM BR FEW065 OVC085 11/09 A2995 840 89 500 000/00 RMK AO2
14837KMSN MSN20030603062010406/03/03 06:20:31  5-MIN KMSN 031220Z 00000KT 3SM BR FEW070 OVC085 11/09 A2994 840 89 600 000/00 RMK AO2
14837KMSN MSN20030603062510406/03/03 06:25:31  5-MIN KMSN 031225Z 36003KT 3SM BR FEW070 OVC085 11/09 A2994 840 86 600 360/03 RMK AO2
14837KMSN MSN20030603063010406/03/03 06:30:31  5-MIN KMSN 031230Z 01003KT 3SM BR FEW070 OVC085 11/09 A2994 840 86 600 010/03 RMK AO2
14837KMSN MSN20030603063510406/03/03 06:35:31  5-MIN KMSN 031235Z 00000KT 3SM BR FEW070 OVC090 11/09 A2994 840 86 600 000/00 RMK AO2
14837KMSN MSN20030603064009706/03/03 06:40:31  5-MIN KMSN 031240Z 00000KT 3SM BR BKN090 11/09 A2995 840 86 600 000/00 RMK AO2
14837KMSN MSN20030603064511706/03/03 06:45:31  5-MIN KMSN 031245Z 35003KT 4SM -RA FEW065 OVC090 11/08 A2995 840 83 600 350/03 RMK AO2 RAB41 P0000
14837KMSN MSN20030603065013406/03/03 06:50:31  5-MIN KMSN 031250Z 35003KT 4SM -RA FEW065 OVC095 11/08 A2995 830 83 600 350/03 RMK AO2 RAB41 SLP144 P0000 T01110083
14837KMSN MSN20030603065510406/03/03 06:55:31  5-MIN KMSN 031255Z 34003KT 4SM BR SCT065 BKN095 11/09 A2995 830 86 600 340/03 RMK AO2
14837KMSN MSN20030603070011106/03/03 07:00:31  5-MIN KMSN 031300Z 00000KT 4SM BR BKN065 BKN085 BKN100 11/09 A2996 830 86 600 000/00 RMK AO2
14837KMSN MSN20030603070511106/03/03 07:05:31  5-MIN KMSN 031305Z 00000KT 4SM BR BKN060 BKN090 BKN100 11/09 A2996 830 86 600 000/00 RMK AO2
14837KMSN MSN20030603071010406/03/03 07:10:31  5-MIN KMSN 031310Z 00000KT 4SM BR BKN060 OVC100 11/09 A2996 830 86 600 000/00 RMK AO2
14837KMSN MSN20030603071510406/03/03 07:15:31  5-MIN KMSN 031315Z 00000KT 4SM BR BKN060 BKN100 11/09 A2996 830 86 600 000/00 RMK AO2
14837KMSN MSN20030603072010406/03/03 07:20:31  5-MIN KMSN 031320Z 33003KT 4SM BR SCT060 BKN100 11/09 A2996 830 86 600 330/03 RMK AO2
14837KMSN MSN20030603072510406/03/03 07:25:31  5-MIN KMSN 031325Z 00000KT 4SM BR SCT060 BKN100 12/09 A2996 830 86 700 000/00 RMK AO2
14837KMSN MSN20030603073010406/03/03 07:30:31  5-MIN KMSN 031330Z 00000KT 4SM HZ SCT060 BKN100 12/09 A2996 830 83 700 000/00 RMK AO2
14837KMSN MSN20030603073510406/03/03 07:35:31  5-MIN KMSN 031335Z 00000KT 4SM BR FEW065 SCT100 12/09 A2996 830 86 700 000/00 RMK AO2
14837KMSN MSN20030603074009706/03/03 07:40:31  5-MIN KMSN 031340Z 00000KT 4SM HZ FEW065 12/09 A2996 830 83 700 000/00 RMK AO2
14837KMSN MSN20030603074510406/03/03 07:45:31  5-MIN KMSN 031345Z 00000KT 4SM HZ FEW065 SCT100 12/09 A2996 830 83 700 000/00 RMK AO2
14837KMSN MSN20030603075011406/03/03 07:50:31  5-MIN KMSN 031350Z 00000KT 4SM HZ FEW070 12/09 A2996 830 83 700 000/00 RMK AO2 SLP145 T01220094
14837KMSN MSN20030603075511106/03/03 07:55:31  5-MIN KMSN 031355Z 00000KT 4SM -RA SCT070 OVC120 13/09 A2996 830 80 800 000/00 RMK AO2 P0000
14837KMSN MSN20030603080011106/03/03 08:00:31  5-MIN KMSN 031400Z 00000KT 4SM -RA SCT070 OVC120 13/10 A2996 830 83 800 000/00 RMK AO2 P0000
14837KMSN MSN20030603080511106/03/03 08:05:31  5-MIN KMSN 031405Z 00000KT 4SM -RA SCT070 OVC120 13/09 A2996 830 80 800 000/00 RMK AO2 P0000
14837KMSN MSN20030603081010406/03/03 08:10:31  5-MIN KMSN 031410Z 00000KT 4SM -RA FEW070 13/09 A2996 820 80 800 000/00 RMK AO2 P0000
14837KMSN MSN20030603081510406/03/03 08:15:31  5-MIN KMSN 031415Z 00000KT 4SM -RA FEW070 13/10 A2996 830 80 900 000/00 RMK AO2 P0000
14837KMSN MSN20030603082010406/03/03 08:20:31  5-MIN KMSN 031420Z 00000KT 4SM -RA SCT070 13/09 A2996 830 77 900 000/00 RMK AO2 P0000
14837KMSN MSN20030603082510406/03/03 08:25:31  5-MIN KMSN 031425Z 08004KT 5SM -RA FEW065 14/09 A2996 830 74 900 080/04 RMK AO2 P0000
14837KMSN MSN20030603083010406/03/03 08:30:31  5-MIN KMSN 031430Z 07004KT 5SM -RA FEW065 14/09 A2996 820 74 900 070/04 RMK AO2 P0000
14837KMSN MSN20030603083510406/03/03 08:35:31  5-MIN KMSN 031435Z 09005KT 5SM -RA FEW065 14/09 A2996 830 71 900 090/05 RMK AO2 P0000
14837KMSN MSN20030603084010406/03/03 08:40:31  5-MIN KMSN 031440Z 09006KT 6SM -RA FEW065 14/09 A2996 820 71 900 090/06 RMK AO2 P0000
14837KMSN MSN20030603084510406/03/03 08:45:31  5-MIN KMSN 031445Z 10004KT 6SM -RA FEW060 14/09 A2996 830 71 900 100/04 RMK AO2 P0000
14837KMSN MSN20030603085013106/03/03 08:50:31  5-MIN KMSN 031450Z 08006KT 7SM -RA CLR 14/09 A2996 830 69 1000 080/06 RMK AO2 SLP146 P0000 60000 T01440089 53004
14837KMSN MSN20030603085511206/03/03 08:55:31  5-MIN KMSN 031455Z 08006KT 7SM -RA FEW070 OVC120 14/09 A2996 830 69 1000 080/06 RMK AO2 P0000
14837KMSN MSN20030603090011206/03/03 09:00:31  5-MIN KMSN 031500Z 09005KT 7SM -RA FEW070 OVC120 14/09 A2996 830 69 1000 090/05 RMK AO2 P0000
14837KMSN MSN20030603090510206/03/03 09:05:31  5-MIN KMSN 031505Z 08005KT 7SM -RA CLR 14/09 A2996 830 69 1000 080/05 RMK AO2 P0000
14837KMSN MSN20030603091010406/03/03 09:10:31  5-MIN KMSN 031510Z 10003KT 7SM CLR 14/09 A2996 830 69 1000 100/03 RMK AO2 RAE08 P0000
14837KMSN MSN20030603091510706/03/03 09:15:31  5-MIN KMSN 031515Z 07005KT 6SM HZ CLR 15/09 A2996 830 66 1100 070/05 RMK AO2 RAE08 P0000
14837KMSN MSN20030603092010406/03/03 09:20:31  5-MIN KMSN 031520Z 06005KT 7SM CLR 16/09 A2996 830 67 1100 060/05 RMK AO2 RAE08 P0000
14837KMSN MSN20030603092510406/03/03 09:25:31  5-MIN KMSN 031525Z 09007KT 7SM CLR 16/09 A2996 830 67 1100 090/07 RMK AO2 RAE08 P0000
14837KMSN MSN20030603093010406/03/03 09:30:31  5-MIN KMSN 031530Z 08007KT 7SM CLR 16/09 A2996 830 64 1100 080/07 RMK AO2 RAE08 P0000
14837KMSN MSN20030603093510406/03/03 09:35:31  5-MIN KMSN 031535Z 08007KT 7SM CLR 16/09 A2996 830 64 1200 080/07 RMK AO2 RAE08 P0000
14837KMSN MSN20030603094010406/03/03 09:40:31  5-MIN KMSN 031540Z 07008KT 8SM CLR 16/08 A2996 830 59 1200 070/08 RMK AO2 RAE08 P0000
14837KMSN MSN20030603094510706/03/03 09:45:31  5-MIN KMSN 031545Z 12005KT 8SM FEW085 16/09 A2996 830 62 1200 120/05 RMK AO2 RAE08 P0000
14837KMSN MSN20030603095012406/03/03 09:50:31  5-MIN KMSN 031550Z 08006KT 8SM FEW085 17/09 A2996 830 60 1300 080/06 RMK AO2 RAE08 SLP144 P0000 T01670089
14837KMSN MSN20030603095510206/03/03 09:55:31  5-MIN KMSN 031555Z 08006KT 8SM FEW085 BKN120 17/09 A2996 830 60 1300 080/06 RMK AO2
14837KMSN MSN20030603100009506/03/03 10:00:31  5-MIN KMSN 031600Z 11008KT 8SM FEW080 17/09 A2996 830 60 1300 110/08 RMK AO2
14837KMSN MSN20030603100509506/03/03 10:05:31  5-MIN KMSN 031605Z 07007KT 8SM FEW080 17/09 A2995 830 60 1300 070/07 RMK AO2
14837KMSN MSN20030603101010206/03/03 10:10:31  5-MIN KMSN 031610Z 08008KT 8SM FEW070 SCT085 17/08 A2995 830 57 1300 080/08 RMK AO2
14837KMSN MSN20030603101510206/03/03 10:15:31  5-MIN KMSN 031615Z 08008KT 8SM SCT070 BKN085 17/08 A2995 830 57 1300 080/08 RMK AO2
14837KMSN MSN20030603102009506/03/03 10:20:31  5-MIN KMSN 031620Z 07007KT 9SM BKN065 17/08 A2995 830 57 1300 070/07 RMK AO2
14837KMSN MSN20030603102509506/03/03 10:25:31  5-MIN KMSN 031625Z 06005KT 8SM BKN065 17/08 A2995 830 57 1300 060/05 RMK AO2
14837KMSN MSN20030603103009506/03/03 10:30:31  5-MIN KMSN 031630Z 07008KT 8SM BKN065 17/08 A2995 840 57 1300 070/08 RMK AO2
14837KMSN MSN20030603103509506/03/03 10:35:31  5-MIN KMSN 031635Z 08009KT 9SM BKN065 17/08 A2995 840 55 1300 080/09 RMK AO2
14837KMSN MSN20030603104009506/03/03 10:40:31  5-MIN KMSN 031640Z 08010KT 9SM BKN065 17/08 A2995 840 55 1300 080/10 RMK AO2
14837KMSN MSN20030603104509506/03/03 10:45:31  5-MIN KMSN 031645Z 06010KT 9SM SCT065 18/08 A2995 840 53 1400 060/10 RMK AO2
14837KMSN MSN20030603105012006/03/03 10:50:31  5-MIN KMSN 031650Z 05010KT 10SM SCT065 SCT090 18/08 A2995 840 53 1400 050/10 RMK AO2 SLP140 T01780083
14837KMSN MSN20030603105510906/03/03 10:55:31  5-MIN KMSN 031655Z 07007KT 9SM FEW060 SCT090 BKN120 17/08 A2995 840 55 1300 070/07 RMK AO2
14837KMSN MSN20030603110012506/03/03 11:00:31  5-MIN KMSN 031700Z 05007KT 030V090 9SM FEW060 SCT090 BKN120 17/08 A2994 840 55 1300 050/07 030V090 RMK AO2
14837KMSN MSN20030603110509606/03/03 11:05:31  5-MIN KMSN 031705Z 04008KT 10SM FEW080 18/09 A2994 840 55 1400 040/08 RMK AO2
14837KMSN MSN20030603111009506/03/03 11:10:31  5-MIN KMSN 031710Z 04010KT 9SM FEW070 18/09 A2994 840 55 1400 040/10 RMK AO2
14837KMSN MSN20030603111509506/03/03 11:15:31  5-MIN KMSN 031715Z 04009KT 9SM FEW070 18/08 A2994 840 53 1400 040/09 RMK AO2
14837KMSN MSN20030603112009506/03/03 11:20:31  5-MIN KMSN 031720Z 07008KT 9SM FEW070 18/08 A2994 840 53 1400 060/08 RMK AO2
14837KMSN MSN20030603112510106/03/03 11:25:31  5-MIN KMSN 031725Z 07011G15KT 9SM FEW070 18/09 A2994 850 54 1500 060/11G15 RMK AO2
14837KMSN MSN20030603113010206/03/03 11:30:31  5-MIN KMSN 031730Z 04008G15KT 10SM FEW070 18/08 A2994 850 53 1400 040/08G15 RMK AO2
14837KMSN MSN20030603113509606/03/03 11:35:31  5-MIN KMSN 031735Z 08008KT 10SM FEW075 18/09 A2994 840 54 1500 080/08 RMK AO2
14837KMSN MSN20030603114009606/03/03 11:40:31  5-MIN KMSN 031740Z 08009KT 10SM FEW075 19/09 A2994 840 52 1500 080/09 RMK AO2
14837KMSN MSN20030603114509606/03/03 11:45:31  5-MIN KMSN 031745Z 04009KT 10SM SCT075 18/08 A2994 840 53 1400 040/09 RMK AO2
14837KMSN MSN20030603115014406/03/03 11:50:31  5-MIN KMSN 031750Z 04008KT 10SM SCT075 BKN120 18/08 A2994 840 53 1400 040/08 RMK AO2 SLP139 60000 T01780083 10189 20106 53003
14837KMSN MSN20030603115510906/03/03 11:55:31  5-MIN KMSN 031755Z 05006KT 9SM FEW065 SCT080 BKN110 18/09 A2994 840 55 1400 050/06 RMK AO2
14837KMSN MSN20030603120009506/03/03 12:00:31  5-MIN KMSN 031800Z 05011KT 9SM BKN080 18/08 A2994 840 53 1400 050/11 RMK AO2
14837KMSN MSN20030603120509506/03/03 12:05:31  5-MIN KMSN 031805Z 05007KT 9SM BKN085 17/08 A2994 850 53 1300 050/07 RMK AO2
14837KMSN MSN20030603121009606/03/03 12:10:31  5-MIN KMSN 031810Z 04009KT 10SM BKN085 17/08 A2994 850 55 1300 040/09 RMK AO2
14837KMSN MSN20030603121509606/03/03 12:15:31  5-MIN KMSN 031815Z 05007KT 10SM BKN085 17/08 A2994 850 55 1300 050/07 RMK AO2
14837KMSN MSN20030603122009506/03/03 12:20:31  5-MIN KMSN 031820Z 05008KT 9SM OVC085 17/08 A2994 850 55 1300 050/08 RMK AO2
14837KMSN MSN20030603122509506/03/03 12:25:31  5-MIN KMSN 031825Z 06010KT 9SM OVC085 17/08 A2994 850 55 1300 060/10 RMK AO2
14837KMSN MSN20030603123009506/03/03 12:30:31  5-MIN KMSN 031830Z 06008KT 9SM OVC080 17/08 A2993 850 55 1300 060/08 RMK AO2
14837KMSN MSN20030603123509506/03/03 12:35:31  5-MIN KMSN 031835Z 03007KT 9SM OVC080 17/08 A2993 850 55 1400 030/07 RMK AO2
14837KMSN MSN20030603124009506/03/03 12:40:31  5-MIN KMSN 031840Z 05008KT 9SM OVC080 17/08 A2993 860 55 1400 050/08 RMK AO2
14837KMSN MSN20030603124509506/03/03 12:45:31  5-MIN KMSN 031845Z 05010KT 9SM OVC080 17/08 A2993 860 55 1400 050/10 RMK AO2
14837KMSN MSN20030603125011206/03/03 12:50:31  5-MIN KMSN 031850Z 04009KT 9SM OVC080 17/08 A2992 860 53 1400 040/09 RMK AO2 SLP134 T01720078
14837KMSN MSN20030603125509506/03/03 12:55:31  5-MIN KMSN 031855Z 05006KT 9SM OVC080 17/09 A2992 860 57 1400 050/06 RMK AO2
14837KMSN MSN20030603130009506/03/03 13:00:31  5-MIN KMSN 031900Z 01009KT 9SM OVC080 17/08 A2992 860 55 1400 010/09 RMK AO2
14837KMSN MSN20030603130509506/03/03 13:05:31  5-MIN KMSN 031905Z 03005KT 9SM OVC080 17/08 A2992 860 55 1400 030/05 RMK AO2
14837KMSN MSN20030603131009506/03/03 13:10:31  5-MIN KMSN 031910Z 03007KT 8SM OVC085 18/09 A2992 860 55 1400 030/07 RMK AO2
14837KMSN MSN20030603131509506/03/03 13:15:31  5-MIN KMSN 031915Z 02009KT 8SM OVC085 18/09 A2992 860 55 1400 020/09 RMK AO2
14837KMSN MSN20030603132009506/03/03 13:20:31  5-MIN KMSN 031920Z 02008KT 9SM BKN085 18/09 A2992 860 54 1500 020/08 RMK AO2
14837KMSN MSN20030603132510206/03/03 13:25:31  5-MIN KMSN 031925Z 03007KT 9SM BKN090 BKN110 18/09 A2992 860 54 1500 020/07 RMK AO2
14837KMSN MSN20030603133010206/03/03 13:30:31  5-MIN KMSN 031930Z 06009KT 9SM SCT090 BKN110 18/08 A2992 860 52 1500 060/09 RMK AO2
14837KMSN MSN20030603133509506/03/03 13:35:31  5-MIN KMSN 031935Z 03010KT 9SM SCT090 18/08 A2992 870 50 1500 030/10 RMK AO2
14837KMSN MSN20030603134009606/03/03 13:40:31  5-MIN KMSN 031940Z 03010KT 10SM FEW090 18/08 A2992 870 52 1500 030/10 RMK AO2
14837KMSN MSN20030603134509606/03/03 13:45:31  5-MIN KMSN 031945Z 05009KT 10SM FEW110 19/08 A2992 870 50 1600 050/09 RMK AO2
14837KMSN MSN20030603135011206/03/03 13:50:31  5-MIN KMSN 031950Z 04009KT 9SM FEW090 18/08 A2991 870 52 1500 030/09 RMK AO2 SLP129 T01830083
14837KMSN MSN20030603135510206/03/03 13:55:31  5-MIN KMSN 031955Z 03012KT 9SM FEW080 BKN120 19/09 A2991 870 52 1600 030/12 RMK AO2
14837KMSN MSN20030603140009506/03/03 14:00:31  5-MIN KMSN 032000Z 03009KT 9SM SCT090 19/09 A2991 870 50 1600 020/09 RMK AO2
14837KMSN MSN20030603140509506/03/03 14:05:31  5-MIN KMSN 032005Z 03011KT 9SM SCT090 19/09 A2991 870 50 1600 030/11 RMK AO2
14837KMSN MSN20030603141009506/03/03 14:10:31  5-MIN KMSN 032010Z 03010KT 9SM SCT090 19/08 A2991 880 48 1600 030/10 RMK AO2
14837KMSN MSN20030603141509506/03/03 14:15:31  5-MIN KMSN 032015Z 04011KT 9SM SCT090 19/09 A2991 880 50 1600 040/11 RMK AO2
14837KMSN MSN20030603142010206/03/03 14:20:31  5-MIN KMSN 032020Z 04009KT 9SM FEW050 SCT090 19/08 A2991 880 48 1600 040/09 RMK AO2
14837KMSN MSN20030603142510806/03/03 14:25:31  5-MIN KMSN 032025Z 06009G16KT 9SM FEW050 BKN090 19/08 A2991 870 48 1600 060/09G16 RMK AO2
14837KMSN MSN20030603143010806/03/03 14:30:31  5-MIN KMSN 032030Z 04009G16KT 9SM FEW050 BKN090 19/08 A2991 870 48 1600 040/09G16 RMK AO2
14837KMSN MSN20030603143510906/03/03 14:35:31  5-MIN KMSN 032035Z 04010G15KT 10SM FEW050 BKN090 19/08 A2991 880 46 1600 040/10G15 RMK AO2
14837KMSN MSN20030603144010306/03/03 14:40:31  5-MIN KMSN 032040Z 08010KT 10SM FEW050 BKN090 19/07 A2991 870 46 1600 070/10 RMK AO2
14837KMSN MSN20030603144509606/03/03 14:45:31  5-MIN KMSN 032045Z 06013KT 10SM BKN090 19/07 A2991 880 46 1600 050/13 RMK AO2
14837KMSN MSN20030603145011906/03/03 14:50:31  5-MIN KMSN 032050Z 07011KT 10SM BKN090 19/06 A2991 870 43 1600 070/11 RMK AO2 SLP128 T01890061 58007
14837KMSN MSN20030603145509606/03/03 14:55:31  5-MIN KMSN 032055Z 06008KT 10SM BKN090 18/07 A2991 870 48 1500 060/08 RMK AO2
14837KMSN MSN20030603150009606/03/03 15:00:31  5-MIN KMSN 032100Z 06010KT 10SM BKN090 18/07 A2991 870 48 1500 060/10 RMK AO2
14837KMSN MSN20030603150509606/03/03 15:05:31  5-MIN KMSN 032105Z 05010KT 10SM BKN090 18/07 A2991 880 48 1400 050/10 RMK AO2
14837KMSN MSN20030603151009606/03/03 15:10:31  5-MIN KMSN 032110Z 08010KT 10SM BKN085 18/07 A2991 870 48 1400 070/10 RMK AO2
14837KMSN MSN20030603151509606/03/03 15:15:31  5-MIN KMSN 032115Z 07008KT 10SM BKN085 18/07 A2991 870 48 1400 070/08 RMK AO2
14837KMSN MSN20030603152009606/03/03 15:20:31  5-MIN KMSN 032120Z 08009KT 10SM OVC085 18/07 A2991 870 49 1400 080/09 RMK AO2
14837KMSN MSN20030603152509606/03/03 15:25:31  5-MIN KMSN 032125Z 07008KT 10SM OVC085 18/07 A2991 870 48 1400 070/08 RMK AO2
14837KMSN MSN20030603153009606/03/03 15:30:31  5-MIN KMSN 032130Z 08008KT 10SM OVC085 18/07 A2991 870 48 1400 080/08 RMK AO2
14837KMSN MSN20030603153509606/03/03 15:35:31  5-MIN KMSN 032135Z 08006KT 10SM BKN085 18/07 A2991 870 49 1400 080/06 RMK AO2
14837KMSN MSN20030603154009606/03/03 15:40:31  5-MIN KMSN 032140Z 07005KT 10SM BKN085 17/08 A2991 870 53 1400 070/05 RMK AO2
14837KMSN MSN20030603154509606/03/03 15:45:31  5-MIN KMSN 032145Z 08005KT 10SM OVC080 17/08 A2991 870 53 1400 080/05 RMK AO2
14837KMSN MSN20030603155011306/03/03 15:50:31  5-MIN KMSN 032150Z 08006KT 10SM OVC085 18/08 A2991 870 51 1400 070/06 RMK AO2 SLP130 T01780078
14837KMSN MSN20030603155509506/03/03 15:55:31  5-MIN KMSN 032155Z 07009KT 9SM OVC085 18/07 A2991 870 49 1400 070/09 RMK AO2
14837KMSN MSN20030603160009606/03/03 16:00:31  5-MIN KMSN 032200Z 08006KT 10SM OVC085 18/07 A2991 870 48 1400 080/06 RMK AO2
14837KMSN MSN20030603160509606/03/03 16:05:31  5-MIN KMSN 032205Z 08004KT 10SM OVC090 18/07 A2991 870 49 1400 080/04 RMK AO2
14837KMSN MSN20030603161009506/03/03 16:10:31  5-MIN KMSN 032210Z 08005KT 9SM OVC090 17/07 A2991 870 51 1400 080/05 RMK AO2
14837KMSN MSN20030603161509506/03/03 16:15:31  5-MIN KMSN 032215Z 07004KT 9SM BKN090 17/08 A2991 870 53 1400 070/04 RMK AO2
14837KMSN MSN20030603162009506/03/03 16:20:31  5-MIN KMSN 032220Z 07004KT 9SM BKN095 18/08 A2991 870 53 1400 070/04 RMK AO2
14837KMSN MSN20030603162509606/03/03 16:25:31  5-MIN KMSN 032225Z 04004KT 10SM BKN100 18/08 A2991 870 53 1400 040/04 RMK AO2
14837KMSN MSN20030603163009606/03/03 16:30:31  5-MIN KMSN 032230Z 03003KT 10SM SCT100 18/08 A2991 870 52 1500 030/03 RMK AO2
14837KMSN MSN20030603163509606/03/03 16:35:31  5-MIN KMSN 032235Z 05003KT 10SM SCT100 18/08 A2991 870 50 1500 050/03 RMK AO2
14837KMSN MSN20030603164009606/03/03 16:40:31  5-MIN KMSN 032240Z 05004KT 10SM FEW110 18/08 A2991 870 50 1500 050/04 RMK AO2
14837KMSN MSN20030603164509606/03/03 16:45:31  5-MIN KMSN 032245Z 05004KT 10SM FEW110 18/08 A2991 870 52 1500 050/04 RMK AO2
14837KMSN MSN20030603165011306/03/03 16:50:31  5-MIN KMSN 032250Z 05004KT 10SM FEW110 18/08 A2991 870 50 1500 040/04 RMK AO2 SLP129 T01830078
14837KMSN MSN20030603165509606/03/03 16:55:31  5-MIN KMSN 032255Z 04005KT 10SM FEW110 19/08 A2991 880 48 1600 040/05 RMK AO2
14837KMSN MSN20030603170009606/03/03 17:00:31  5-MIN KMSN 032300Z 03003KT 10SM FEW110 19/08 A2991 880 48 1600 030/03 RMK AO2
14837KMSN MSN20030603170509506/03/03 17:05:31  5-MIN KMSN 032305Z 07003KT 9SM FEW110 19/08 A2991 880 48 1600 070/03 RMK AO2
14837KMSN MSN20030603171009306/03/03 17:10:31  5-MIN KMSN 032310Z 07004KT 10SM CLR 19/07 A2991 880 46 1600 070/04 RMK AO2
14837KMSN MSN20030603171509306/03/03 17:15:31  5-MIN KMSN 032315Z 07005KT 10SM CLR 19/07 A2991 880 46 1600 070/05 RMK AO2
14837KMSN MSN20030603172009306/03/03 17:20:31  5-MIN KMSN 032320Z 08007KT 10SM CLR 19/07 A2991 880 44 1600 080/07 RMK AO2
14837KMSN MSN20030603172509306/03/03 17:25:31  5-MIN KMSN 032325Z 09006KT 10SM CLR 19/07 A2991 870 46 1600 080/06 RMK AO2
14837KMSN MSN20030603173009606/03/03 17:30:31  5-MIN KMSN 032330Z 09007KT 10SM SCT120 19/08 A2991 870 46 1600 090/07 RMK AO2
14837KMSN MSN20030603173509606/03/03 17:35:31  5-MIN KMSN 032335Z 09006KT 10SM BKN120 19/07 A2991 870 44 1600 080/06 RMK AO2
14837KMSN MSN20030603174009606/03/03 17:40:31  5-MIN KMSN 032340Z 09006KT 10SM SCT120 19/07 A2991 870 46 1600 080/06 RMK AO2
14837KMSN MSN20030603174509606/03/03 17:45:31  5-MIN KMSN 032345Z 08006KT 10SM FEW120 19/07 A2991 870 46 1600 070/06 RMK AO2
14837KMSN MSN20030603175013106/03/03 17:50:31  5-MIN KMSN 032350Z 05004KT 10SM FEW120 19/07 A2991 870 46 1600 050/04 RMK AO2 SLP129 T01890072 10194 20167 56010
14837KMSN MSN20030603175509606/03/03 17:55:31  5-MIN KMSN 032355Z 08005KT 10SM FEW120 18/08 A2991 870 52 1500 080/05 RMK AO2
14837KMSN MSN20030603180009606/03/03 18:00:31  5-MIN KMSN 040000Z 05005KT 10SM FEW060 18/08 A2991 870 50 1500 050/05 RMK AO2
14837KMSN MSN20030603180509606/03/03 18:05:31  5-MIN KMSN 040005Z 06006KT 10SM SCT060 18/08 A2991 870 51 1400 060/06 RMK AO2
14837KMSN MSN20030603181009606/03/03 18:10:31  5-MIN KMSN 040010Z 03005KT 10SM BKN060 18/08 A2991 870 51 1400 030/05 RMK AO2
14837KMSN MSN20030603181509606/03/03 18:15:31  5-MIN KMSN 040015Z 36008KT 10SM BKN060 18/08 A2992 870 53 1400 360/08 RMK AO2
14837KMSN MSN20030603182009606/03/03 18:20:31  5-MIN KMSN 040020Z 35009KT 10SM BKN060 17/08 A2992 870 55 1400 350/09 RMK AO2
14837KMSN MSN20030603182509606/03/03 18:25:31  5-MIN KMSN 040025Z 36006KT 10SM BKN060 17/08 A2992 870 57 1300 360/06 RMK AO2
14837KMSN MSN20030603183009606/03/03 18:30:31  5-MIN KMSN 040030Z 34005KT 10SM BKN060 17/08 A2992 870 57 1300 340/05 RMK AO2
14837KMSN MSN20030603183509606/03/03 18:35:31  5-MIN KMSN 040035Z 36003KT 10SM SCT060 17/08 A2992 870 57 1300 360/03 RMK AO2
14837KMSN MSN20030603184009606/03/03 18:40:31  5-MIN KMSN 040040Z 00000KT 10SM FEW060 16/08 A2992 870 59 1200 000/00 RMK AO2
14837KMSN MSN20030603184509606/03/03 18:45:31  5-MIN KMSN 040045Z 34003KT 10SM FEW065 16/09 A2992 870 62 1200 340/03 RMK AO2
14837KMSN MSN20030603185011006/03/03 18:50:31  5-MIN KMSN 040050Z 35003KT 10SM CLR 16/09 A2991 870 64 1200 350/03 RMK AO2 SLP130 T01560089
14837KMSN MSN20030603185509606/03/03 18:55:31  5-MIN KMSN 040055Z 00000KT 10SM FEW100 16/09 A2991 870 67 1200 000/00 RMK AO2
14837KMSN MSN20030603190009606/03/03 19:00:31  5-MIN KMSN 040100Z 00000KT 10SM FEW100 16/09 A2991 870 64 1200 000/00 RMK AO2
14837KMSN MSN20030603190509606/03/03 19:05:31  5-MIN KMSN 040105Z 00000KT 10SM FEW100 16/09 A2991 870 64 1200 000/00 RMK AO2
14837KMSN MSN20030603191009506/03/03 19:10:31  5-MIN KMSN 040110Z 00000KT 9SM FEW100 16/09 A2991 870 62 1200 000/00 RMK AO2
14837KMSN MSN20030603191509606/03/03 19:15:31  5-MIN KMSN 040115Z 36004KT 10SM FEW120 15/09 A2991 870 69 1100 360/04 RMK AO2
14837KMSN MSN20030603192009606/03/03 19:20:31  5-MIN KMSN 040120Z 02003KT 10SM FEW120 16/09 A2991 870 64 1200 020/03 RMK AO2
14837KMSN MSN20030603192509606/03/03 19:25:31  5-MIN KMSN 040125Z 00000KT 10SM SCT120 16/09 A2991 870 64 1200 000/00 RMK AO2
14837KMSN MSN20030603193009606/03/03 19:30:31  5-MIN KMSN 040130Z 00000KT 10SM SCT120 16/09 A2991 870 62 1200 000/00 RMK AO2
14837KMSN MSN20030603193509606/03/03 19:35:31  5-MIN KMSN 040135Z 00000KT 10SM BKN120 15/09 A2991 870 66 1100 000/00 RMK AO2
14837KMSN MSN20030603194009606/03/03 19:40:31  5-MIN KMSN 040140Z 00000KT 10SM BKN120 15/09 A2991 870 66 1100 000/00 RMK AO2
14837KMSN MSN20030603194509606/03/03 19:45:31  5-MIN KMSN 040145Z 00000KT 10SM BKN110 14/09 A2991 870 74 1000 000/00 RMK AO2
14837KMSN MSN20030603195011306/03/03 19:50:31  5-MIN KMSN 040150Z 00000KT 10SM OVC110 14/09 A2992 870 69 1000 000/00 RMK AO2 SLP131 T01440089
14837KMSN MSN20030603195509606/03/03 19:55:31  5-MIN KMSN 040155Z 00000KT 10SM OVC110 14/09 A2991 870 69 1000 000/00 RMK AO2
14837KMSN MSN20030603200009606/03/03 20:00:31  5-MIN KMSN 040200Z 00000KT 10SM OVC120 14/09 A2992 870 72 1000 000/00 RMK AO2
14837KMSN MSN20030603200509606/03/03 20:05:31  5-MIN KMSN 040205Z 00000KT 10SM BKN120 14/09 A2992 870 72 1000 000/00 RMK AO2
14837KMSN MSN20030603201009606/03/03 20:10:31  5-MIN KMSN 040210Z 00000KT 10SM BKN110 14/09 A2992 860 72 1000 000/00 RMK AO2
14837KMSN MSN20030603201509606/03/03 20:15:31  5-MIN KMSN 040215Z 00000KT 10SM BKN120 14/09 A2992 860 74 1000 000/00 RMK AO2
14837KMSN MSN20030603202009606/03/03 20:20:31  5-MIN KMSN 040220Z 00000KT 10SM SCT120 14/09 A2992 860 74 1000 000/00 RMK AO2
14837KMSN MSN20030603202509506/03/03 20:25:31  5-MIN KMSN 040225Z 00000KT 10SM SCT120 13/09 A2992 860 77 900 000/00 RMK AO2
14837KMSN MSN20030603203009506/03/03 20:30:31  5-MIN KMSN 040230Z 00000KT 10SM SCT120 13/09 A2992 860 77 900 000/00 RMK AO2
14837KMSN MSN20030603203509506/03/03 20:35:31  5-MIN KMSN 040235Z 00000KT 10SM BKN120 13/09 A2992 860 77 900 000/00 RMK AO2
14837KMSN MSN20030603204009506/03/03 20:40:31  5-MIN KMSN 040240Z 00000KT 10SM BKN120 13/09 A2992 860 77 900 000/00 RMK AO2
14837KMSN MSN20030603204509506/03/03 20:45:31  5-MIN KMSN 040245Z 00000KT 10SM SCT120 13/09 A2992 860 77 900 000/00 RMK AO2
14837KMSN MSN20030603205011806/03/03 20:50:31  5-MIN KMSN 040250Z 00000KT 10SM SCT120 13/09 A2992 860 77 900 000/00 RMK AO2 SLP134 T01330094 53001
14837KMSN MSN20030603205509506/03/03 20:55:31  5-MIN KMSN 040255Z 00000KT 10SM FEW120 13/09 A2993 860 74 900 000/00 RMK AO2
14837KMSN MSN20030603210009506/03/03 21:00:31  5-MIN KMSN 040300Z 00000KT 10SM SCT120 13/09 A2993 860 77 900 000/00 RMK AO2
14837KMSN MSN20030603210509506/03/03 21:05:31  5-MIN KMSN 040305Z 00000KT 10SM FEW120 13/09 A2993 860 77 900 000/00 RMK AO2
14837KMSN MSN20030603211009506/03/03 21:10:31  5-MIN KMSN 040310Z 00000KT 10SM SCT120 13/09 A2993 860 77 900 000/00 RMK AO2
14837KMSN MSN20030603211509506/03/03 21:15:31  5-MIN KMSN 040315Z 00000KT 10SM BKN120 13/09 A2993 860 77 900 000/00 RMK AO2
14837KMSN MSN20030603212009506/03/03 21:20:31  5-MIN KMSN 040320Z 00000KT 10SM BKN120 13/09 A2993 860 80 800 000/00 RMK AO2
14837KMSN MSN20030603212509506/03/03 21:25:31  5-MIN KMSN 040325Z 00000KT 10SM SCT120 13/09 A2993 860 77 900 000/00 RMK AO2
14837KMSN MSN20030603213009506/03/03 21:30:31  5-MIN KMSN 040330Z 00000KT 10SM SCT120 13/09 A2993 860 77 900 000/00 RMK AO2
14837KMSN MSN20030603213509506/03/03 21:35:31  5-MIN KMSN 040335Z 00000KT 10SM SCT120 13/09 A2993 860 77 900 000/00 RMK AO2
14837KMSN MSN20030603214009506/03/03 21:40:31  5-MIN KMSN 040340Z 00000KT 10SM BKN120 13/09 A2993 860 80 800 000/00 RMK AO2
14837KMSN MSN20030603214509406/03/03 21:45:31  5-MIN KMSN 040345Z 00000KT 9SM BKN120 13/09 A2993 860 80 800 000/00 RMK AO2
14837KMSN MSN20030603215011206/03/03 21:50:31  5-MIN KMSN 040350Z 00000KT 10SM BKN120 13/09 A2993 860 80 800 000/00 RMK AO2 SLP135 T01280094
14837KMSN MSN20030603215509406/03/03 21:55:31  5-MIN KMSN 040355Z 00000KT 9SM BKN120 13/09 A2993 860 77 900 000/00 RMK AO2
14837KMSN MSN20030603220009406/03/03 22:00:31  5-MIN KMSN 040400Z 00000KT 9SM BKN110 13/09 A2993 860 80 800 000/00 RMK AO2
14837KMSN MSN20030603220509406/03/03 22:05:31  5-MIN KMSN 040405Z 00000KT 9SM OVC110 13/09 A2993 860 80 800 000/00 RMK AO2
14837KMSN MSN20030603221009406/03/03 22:10:31  5-MIN KMSN 040410Z 00000KT 9SM OVC110 13/09 A2993 860 80 800 000/00 RMK AO2
14837KMSN MSN20030603221509406/03/03 22:15:31  5-MIN KMSN 040415Z 00000KT 9SM OVC110 13/09 A2993 860 80 800 000/00 RMK AO2
14837KMSN MSN20030603222009406/03/03 22:20:31  5-MIN KMSN 040420Z 00000KT 8SM OVC110 13/09 A2993 860 80 800 000/00 RMK AO2
14837KMSN MSN20030603222509406/03/03 22:25:31  5-MIN KMSN 040425Z 00000KT 8SM OVC110 13/09 A2993 860 80 800 000/00 RMK AO2
14837KMSN MSN20030603223009406/03/03 22:30:31  5-MIN KMSN 040430Z 00000KT 9SM BKN110 13/09 A2993 860 80 800 000/00 RMK AO2
14837KMSN MSN20030603223509406/03/03 22:35:31  5-MIN KMSN 040435Z 00000KT 9SM BKN110 13/09 A2993 860 80 800 000/00 RMK AO2
14837KMSN MSN20030603224009406/03/03 22:40:31  5-MIN KMSN 040440Z 00000KT 9SM SCT110 13/09 A2993 850 80 800 000/00 RMK AO2
14837KMSN MSN20030603224509406/03/03 22:45:31  5-MIN KMSN 040445Z 00000KT 9SM FEW110 13/09 A2993 850 80 800 000/00 RMK AO2
14837KMSN MSN20030603225011206/03/03 22:50:31  5-MIN KMSN 040450Z 00000KT 10SM FEW120 13/09 A2993 850 80 800 000/00 RMK AO2 SLP135 T01280094
14837KMSN MSN20030603225509106/03/03 22:55:31  5-MIN KMSN 040455Z 00000KT 9SM CLR 13/09 A2993 860 80 800 000/00 RMK AO2
14837KMSN MSN20030603230009106/03/03 23:00:31  5-MIN KMSN 040500Z 00000KT 9SM CLR 12/09 A2993 860 83 800 000/00 RMK AO2
14837KMSN MSN20030603230509106/03/03 23:05:31  5-MIN KMSN 040505Z 33003KT 8SM CLR 12/09 A2993 860 83 800 330/03 RMK AO2
14837KMSN MSN20030603231009106/03/03 23:10:31  5-MIN KMSN 040510Z 34003KT 8SM CLR 12/09 A2993 860 83 800 340/03 RMK AO2
14837KMSN MSN20030603231509106/03/03 23:15:31  5-MIN KMSN 040515Z 00000KT 8SM CLR 12/09 A2993 860 83 800 000/00 RMK AO2
14837KMSN MSN20030603232009106/03/03 23:20:31  5-MIN KMSN 040520Z 32003KT 8SM CLR 12/09 A2993 850 83 800 310/03 RMK AO2
14837KMSN MSN20030603232509406/03/03 23:25:31  5-MIN KMSN 040525Z 00000KT 8SM FEW120 12/09 A2993 850 83 800 000/00 RMK AO2
14837KMSN MSN20030603233009406/03/03 23:30:31  5-MIN KMSN 040530Z 00000KT 8SM FEW120 12/09 A2993 850 83 800 000/00 RMK AO2
14837KMSN MSN20030603233509406/03/03 23:35:31  5-MIN KMSN 040535Z 00000KT 8SM FEW120 12/09 A2993 850 83 800 000/00 RMK AO2
14837KMSN MSN20030603234009406/03/03 23:40:31  5-MIN KMSN 040540Z 00000KT 8SM FEW120 12/09 A2993 850 83 800 000/00 RMK AO2
14837KMSN MSN20030603234509406/03/03 23:45:31  5-MIN KMSN 040545Z 00000KT 8SM FEW120 12/09 A2993 860 83 800 000/00 RMK AO2
14837KMSN MSN20030603235014006/03/03 23:50:31  5-MIN KMSN 040550Z 00000KT 10SM BKN120 12/09 A2993 860 83 800 000/00 RMK AO2 SLP134 T01220094 10189 20117 401940106 53004
14837KMSN MSN20030603235509406/03/03 23:55:31  5-MIN KMSN 040555Z 00000KT 8SM FEW120 12/09 A2993 860 83 800 000/00 RMK AO2
14837KMSN MSN20030604000009106/04/03 00:00:31  5-MIN KMSN 040600Z 00000KT 8SM CLR 12/09 A2993 860 86 700 000/00 RMK AO2
14837KMSN MSN20030604000509106/04/03 00:05:31  5-MIN KMSN 040605Z 00000KT 8SM CLR 12/09 A2993 860 86 700 000/00 RMK AO2
14837KMSN MSN20030604001009106/04/03 00:10:31  5-MIN KMSN 040610Z 00000KT 8SM CLR 12/09 A2993 860 86 700 000/00 RMK AO2
14837KMSN MSN20030604001509106/04/03 00:15:31  5-MIN KMSN 040615Z 00000KT 8SM CLR 12/09 A2993 860 86 700 000/00 RMK AO2
14837KMSN MSN20030604002009106/04/03 00:20:31  5-MIN KMSN 040620Z 00000KT 8SM CLR 12/09 A2993 860 86 700 000/00 RMK AO2
14837KMSN MSN20030604002509106/04/03 00:25:31  5-MIN KMSN 040625Z 00000KT 8SM CLR 12/09 A2993 860 86 700 000/00 RMK AO2
14837KMSN MSN20030604003009106/04/03 00:30:31  5-MIN KMSN 040630Z 35003KT 8SM CLR 12/09 A2993 860 86 700 350/03 RMK AO2
14837KMSN MSN20030604003509106/04/03 00:35:31  5-MIN KMSN 040635Z 35003KT 8SM CLR 12/09 A2993 860 86 700 350/03 RMK AO2
14837KMSN MSN20030604004009106/04/03 00:40:31  5-MIN KMSN 040640Z 34003KT 8SM CLR 12/09 A2993 860 83 800 340/03 RMK AO2
14837KMSN MSN20030604004509106/04/03 00:45:31  5-MIN KMSN 040645Z 33003KT 8SM CLR 12/09 A2993 860 83 800 330/03 RMK AO2
14837KMSN MSN20030604005011106/04/03 00:50:31  5-MIN KMSN 040650Z 31003KT 8SM FEW100 12/09 A2992 860 83 700 310/03 RMK AO2 SLP134 T01170089
14837KMSN MSN20030604005509406/04/03 00:55:31  5-MIN KMSN 040655Z 30003KT 7SM FEW100 11/09 A2992 860 89 600 300/03 RMK AO2
14837KMSN MSN20030604010009406/04/03 01:00:31  5-MIN KMSN 040700Z 30003KT 7SM SCT095 12/09 A2992 860 86 700 300/03 RMK AO2
14837KMSN MSN20030604010509406/04/03 01:05:31  5-MIN KMSN 040705Z 31003KT 7SM BKN095 12/09 A2992 860 86 700 300/03 RMK AO2
14837KMSN MSN20030604011009406/04/03 01:10:31  5-MIN KMSN 040710Z 31003KT 7SM BKN095 12/09 A2992 860 86 700 310/03 RMK AO2
14837KMSN MSN20030604011509406/04/03 01:15:31  5-MIN KMSN 040715Z 31003KT 7SM BKN095 11/09 A2992 860 89 600 310/03 RMK AO2
14837KMSN MSN20030604012009406/04/03 01:20:31  5-MIN KMSN 040720Z 32003KT 7SM BKN095 12/09 A2992 860 86 700 320/03 RMK AO2
14837KMSN MSN20030604012509406/04/03 01:25:31  5-MIN KMSN 040725Z 32003KT 7SM OVC095 12/09 A2992 860 86 700 320/03 RMK AO2
14837KMSN MSN20030604013009406/04/03 01:30:31  5-MIN KMSN 040730Z 32003KT 7SM OVC095 12/09 A2992 860 86 700 320/03 RMK AO2
14837KMSN MSN20030604013509406/04/03 01:35:31  5-MIN KMSN 040735Z 31003KT 7SM OVC090 11/09 A2992 860 89 600 310/03 RMK AO2
14837KMSN MSN20030604014009406/04/03 01:40:31  5-MIN KMSN 040740Z 30003KT 7SM BKN090 12/09 A2992 860 86 700 300/03 RMK AO2
14837KMSN MSN20030604014509406/04/03 01:45:31  5-MIN KMSN 040745Z 32003KT 7SM BKN090 12/09 A2992 860 86 700 310/03 RMK AO2
14837KMSN MSN20030604015011106/04/03 01:50:31  5-MIN KMSN 040750Z 36003KT 7SM BKN090 12/09 A2992 860 83 800 350/03 RMK AO2 SLP132 T01220094
14837KMSN MSN20030604015509406/04/03 01:55:31  5-MIN KMSN 040755Z 34004KT 7SM BKN090 11/09 A2992 860 89 600 330/04 RMK AO2
14837KMSN MSN20030604020009706/04/03 02:00:31  5-MIN KMSN 040800Z 32004KT 6SM BR SCT090 11/09 A2992 860 89 600 320/04 RMK AO2
14837KMSN MSN20030604020509406/04/03 02:05:31  5-MIN KMSN 040805Z 31003KT 7SM FEW090 12/09 A2992 870 86 700 310/03 RMK AO2
14837KMSN MSN20030604021009406/04/03 02:10:31  5-MIN KMSN 040810Z 31003KT 7SM SCT090 12/09 A2992 870 86 700 310/03 RMK AO2
14837KMSN MSN20030604021509406/04/03 02:15:31  5-MIN KMSN 040815Z 31003KT 7SM BKN095 12/09 A2992 870 86 700 310/03 RMK AO2
14837KMSN MSN20030604022010406/04/03 02:20:31  5-MIN KMSN 040820Z 00000KT 6SM HZ SCT095 BKN120 12/09 A2991 870 83 800 000/00 RMK AO2
14837KMSN MSN20030604022509706/04/03 02:25:31  5-MIN KMSN 040825Z 00000KT 6SM BR SCT095 12/09 A2991 870 86 700 000/00 RMK AO2
14837KMSN MSN20030604023009706/04/03 02:30:31  5-MIN KMSN 040830Z 00000KT 6SM BR SCT095 11/09 A2991 870 89 700 000/00 RMK AO2
14837KMSN MSN20030604023509706/04/03 02:35:31  5-MIN KMSN 040835Z 00000KT 6SM BR SCT095 11/09 A2991 870 93 600 000/00 RMK AO2
14837KMSN MSN20030604024009706/04/03 02:40:31  5-MIN KMSN 040840Z 00000KT 6SM BR FEW095 11/09 A2991 870 93 600 000/00 RMK AO2
14837KMSN MSN20030604024509706/04/03 02:45:31  5-MIN KMSN 040845Z 02004KT 6SM BR FEW095 11/09 A2991 870 93 600 020/04 RMK AO2
14837KMSN MSN20030604025012006/04/03 02:50:31  5-MIN KMSN 040850Z 01005KT 6SM BR FEW095 11/09 A2991 870 89 700 010/05 RMK AO2 SLP129 T01110094 50001
14837KMSN MSN20030604025509706/04/03 02:55:31  5-MIN KMSN 040855Z 36004KT 6SM BR FEW090 11/09 A2991 870 93 600 360/04 RMK AO2
14837KMSN MSN20030604030009706/04/03 03:00:31  5-MIN KMSN 040900Z 35003KT 6SM BR FEW090 11/09 A2991 870 89 700 350/03 RMK AO2
14837KMSN MSN20030604030509706/04/03 03:05:31  5-MIN KMSN 040905Z 35004KT 6SM BR SCT090 12/09 A2991 870 86 700 340/04 RMK AO2
14837KMSN MSN20030604031009706/04/03 03:10:31  5-MIN KMSN 040910Z 34004KT 6SM HZ FEW090 12/09 A2991 870 83 700 340/04 RMK AO2
14837KMSN MSN20030604031509706/04/03 03:15:31  5-MIN KMSN 040915Z 33004KT 6SM HZ SCT090 12/09 A2991 870 83 700 330/04 RMK AO2
14837KMSN MSN20030604032009706/04/03 03:20:31  5-MIN KMSN 040920Z 33004KT 6SM HZ SCT090 12/09 A2991 870 83 700 330/04 RMK AO2
14837KMSN MSN20030604032509706/04/03 03:25:31  5-MIN KMSN 040925Z 33004KT 6SM HZ SCT090 12/09 A2991 870 83 700 330/04 RMK AO2
14837KMSN MSN20030604033009706/04/03 03:30:31  5-MIN KMSN 040930Z 33004KT 6SM HZ FEW090 12/09 A2991 870 83 700 330/04 RMK AO2
14837KMSN MSN20030604033509706/04/03 03:35:31  5-MIN KMSN 040935Z 33005KT 6SM HZ FEW090 12/09 A2991 870 83 700 330/05 RMK AO2
14837KMSN MSN20030604034009406/04/03 03:40:31  5-MIN KMSN 040940Z 34005KT 7SM FEW090 12/09 A2991 870 83 700 340/05 RMK AO2
14837KMSN MSN20030604034509406/04/03 03:45:31  5-MIN KMSN 040945Z 34004KT 7SM FEW090 12/09 A2991 870 83 700 340/04 RMK AO2
14837KMSN MSN20030604035011106/04/03 03:50:31  5-MIN KMSN 040950Z 33005KT 7SM FEW090 12/09 A2991 880 83 700 330/05 RMK AO2 SLP127 T01170089
14837KMSN MSN20030604035509106/04/03 03:55:31  5-MIN KMSN 040955Z 33004KT 7SM CLR 12/09 A2991 880 83 700 330/04 RMK AO2
14837KMSN MSN20030604040009406/04/03 04:00:31  5-MIN KMSN 041000Z 33004KT 7SM FEW110 12/09 A2991 880 83 700 330/04 RMK AO2
14837KMSN MSN20030604040509406/04/03 04:05:31  5-MIN KMSN 041005Z 32004KT 7SM FEW120 12/09 A2991 880 83 700 320/04 RMK AO2
14837KMSN MSN20030604041009406/04/03 04:10:31  5-MIN KMSN 041010Z 33005KT 7SM FEW120 12/08 A2991 880 80 700 330/05 RMK AO2
14837KMSN MSN20030604041509406/04/03 04:15:31  5-MIN KMSN 041015Z 33005KT 7SM SCT120 12/08 A2990 880 80 700 330/05 RMK AO2
14837KMSN MSN20030604042009406/04/03 04:20:31  5-MIN KMSN 041020Z 32005KT 7SM SCT120 12/08 A2990 880 80 700 320/05 RMK AO2
14837KMSN MSN20030604042509406/04/03 04:25:31  5-MIN KMSN 041025Z 32004KT 7SM BKN120 12/08 A2990 880 80 700 320/04 RMK AO2
14837KMSN MSN20030604043009406/04/03 04:30:31  5-MIN KMSN 041030Z 32004KT 7SM SCT120 12/08 A2990 880 77 700 320/04 RMK AO2
14837KMSN MSN20030604043509406/04/03 04:35:31  5-MIN KMSN 041035Z 33003KT 8SM SCT120 12/08 A2990 880 77 700 330/03 RMK AO2
14837KMSN MSN20030604044009406/04/03 04:40:31  5-MIN KMSN 041040Z 35003KT 7SM SCT120 12/08 A2991 880 77 700 350/03 RMK AO2
14837KMSN MSN20030604044509406/04/03 04:45:31  5-MIN KMSN 041045Z 34003KT 7SM SCT120 12/08 A2990 880 77 700 340/03 RMK AO2
14837KMSN MSN20030604045011106/04/03 04:50:31  5-MIN KMSN 041050Z 00000KT 7SM BKN120 12/08 A2990 880 77 700 000/00 RMK AO2 SLP125 T01170078
14837KMSN MSN20030604045509406/04/03 04:55:31  5-MIN KMSN 041055Z 33003KT 7SM FEW120 12/08 A2990 880 77 700 330/03 RMK AO2
14837KMSN MSN20030604050009406/04/03 05:00:31  5-MIN KMSN 041100Z 00000KT 7SM FEW120 12/08 A2990 880 74 800 000/00 RMK AO2
14837KMSN MSN20030604050509406/04/03 05:05:31  5-MIN KMSN 041105Z 00000KT 7SM FEW120 12/08 A2990 880 74 800 000/00 RMK AO2
14837KMSN MSN20030604051009106/04/03 05:10:31  5-MIN KMSN 041110Z 00000KT 7SM CLR 12/08 A2991 880 77 700 000/00 RMK AO2
14837KMSN MSN20030604051509106/04/03 05:15:31  5-MIN KMSN 041115Z 00000KT 7SM CLR 12/08 A2991 880 77 700 000/00 RMK AO2
14837KMSN MSN20030604052009106/04/03 05:20:31  5-MIN KMSN 041120Z 00000KT 7SM CLR 12/08 A2991 880 77 700 000/00 RMK AO2
14837KMSN MSN20030604052509106/04/03 05:25:31  5-MIN KMSN 041125Z 35003KT 7SM CLR 12/08 A2991 880 77 700 350/03 RMK AO2
14837KMSN MSN20030604053009106/04/03 05:30:31  5-MIN KMSN 041130Z 36003KT 7SM CLR 12/08 A2991 870 77 700 360/03 RMK AO2
14837KMSN MSN20030604053509106/04/03 05:35:31  5-MIN KMSN 041135Z 01004KT 7SM CLR 12/08 A2991 870 80 700 360/04 RMK AO2
14837KMSN MSN20030604054009106/04/03 05:40:31  5-MIN KMSN 041140Z 35003KT 7SM CLR 12/08 A2991 870 74 800 350/03 RMK AO2
14837KMSN MSN20030604054509406/04/03 05:45:31  5-MIN KMSN 041145Z 01003KT 8SM SCT120 12/08 A2992 870 74 800 010/03 RMK AO2
14837KMSN MSN20030604055012906/04/03 05:50:31  5-MIN KMSN 041150Z 03004KT 8SM SCT120 12/08 A2992 860 80 700 030/04 RMK AO2 SLP132 T01170083 10122 20106 58005
14837KMSN MSN20030604055509406/04/03 05:55:31  5-MIN KMSN 041155Z 01004KT 8SM SCT075 12/08 A2992 860 77 800 360/04 RMK AO2
14837KMSN MSN20030604060009406/04/03 06:00:31  5-MIN KMSN 041200Z 36005KT 7SM SCT075 12/08 A2992 860 77 800 360/05 RMK AO2
14837KMSN MSN20030604060509406/04/03 06:05:31  5-MIN KMSN 041205Z 36005KT 7SM FEW075 12/08 A2992 860 77 800 360/05 RMK AO2
14837KMSN MSN20030604061009406/04/03 06:10:31  5-MIN KMSN 041210Z 35005KT 8SM FEW075 12/08 A2992 860 77 800 350/05 RMK AO2
14837KMSN MSN20030604061509406/04/03 06:15:31  5-MIN KMSN 041215Z 35005KT 8SM FEW075 12/08 A2992 860 77 800 350/05 RMK AO2
14837KMSN MSN20030604062009406/04/03 06:20:31  5-MIN KMSN 041220Z 35005KT 8SM FEW075 12/08 A2992 860 77 800 350/05 RMK AO2
14837KMSN MSN20030604062509106/04/03 06:25:31  5-MIN KMSN 041225Z 34004KT 8SM CLR 12/08 A2992 860 77 800 340/04 RMK AO2
14837KMSN MSN20030604063009106/04/03 06:30:31  5-MIN KMSN 041230Z 00000KT 8SM CLR 12/08 A2992 860 77 800 000/00 RMK AO2
14837KMSN MSN20030604063509106/04/03 06:35:31  5-MIN KMSN 041235Z 32004KT 8SM CLR 12/08 A2992 860 77 800 320/04 RMK AO2
14837KMSN MSN20030604064009106/04/03 06:40:31  5-MIN KMSN 041240Z 33004KT 8SM CLR 12/08 A2992 860 77 800 330/04 RMK AO2
14837KMSN MSN20030604064509106/04/03 06:45:31  5-MIN KMSN 041245Z 33004KT 8SM CLR 12/08 A2993 860 77 800 330/04 RMK AO2
14837KMSN MSN20030604065010806/04/03 06:50:31  5-MIN KMSN 041250Z 34004KT 8SM CLR 13/08 A2993 860 74 800 340/04 RMK AO2 SLP136 T01280083
14837KMSN MSN20030604065509106/04/03 06:55:31  5-MIN KMSN 041255Z VRB04KT 8SM CLR 13/08 A2993 860 74 800 VRB/04 RMK AO2
14837KMSN MSN20030604070009106/04/03 07:00:31  5-MIN KMSN 041300Z 36005KT 8SM CLR 13/08 A2993 850 74 800 360/05 RMK AO2
14837KMSN MSN20030604070509106/04/03 07:05:31  5-MIN KMSN 041305Z 36005KT 8SM CLR 13/09 A2993 850 77 800 360/05 RMK AO2
14837KMSN MSN20030604071009106/04/03 07:10:31  5-MIN KMSN 041310Z 36005KT 8SM CLR 13/09 A2993 860 77 800 350/05 RMK AO2
14837KMSN MSN20030604071509106/04/03 07:15:31  5-MIN KMSN 041315Z 36006KT 8SM CLR 13/08 A2993 860 74 800 360/06 RMK AO2
14837KMSN MSN20030604072009106/04/03 07:20:31  5-MIN KMSN 041320Z 01007KT 8SM CLR 13/08 A2993 860 74 800 010/07 RMK AO2
14837KMSN MSN20030604072509106/04/03 07:25:31  5-MIN KMSN 041325Z 36006KT 8SM CLR 13/09 A2993 860 77 800 360/06 RMK AO2
14837KMSN MSN20030604073009106/04/03 07:30:31  5-MIN KMSN 041330Z 36007KT 8SM CLR 13/08 A2993 860 71 900 360/07 RMK AO2
14837KMSN MSN20030604073509106/04/03 07:35:31  5-MIN KMSN 041335Z 01007KT 8SM CLR 13/08 A2993 860 71 900 010/07 RMK AO2
14837KMSN MSN20030604074009106/04/03 07:40:31  5-MIN KMSN 041340Z 01008KT 8SM CLR 13/08 A2993 850 71 900 010/08 RMK AO2
14837KMSN MSN20030604074509106/04/03 07:45:31  5-MIN KMSN 041345Z 36006KT 8SM CLR 13/09 A2993 850 74 900 360/06 RMK AO2
14837KMSN MSN20030604082509206/04/03 08:25:31  5-MIN KMSN 041425Z 36004KT 9SM CLR 14/08 A2993 850 66 1000 360/04 RMK AO2
14837KMSN MSN20030604083009206/04/03 08:30:31  5-MIN KMSN 041430Z 36005KT 9SM CLR 14/08 A2993 850 66 1000 360/05 RMK AO2
14837KMSN MSN20030604083509206/04/03 08:35:31  5-MIN KMSN 041435Z 01004KT 9SM CLR 14/08 A2993 850 64 1000 010/04 RMK AO2
14837KMSN MSN20030604084009306/04/03 08:40:31  5-MIN KMSN 041440Z 01005KT 10SM CLR 15/08 A2993 850 64 1100 010/05 RMK AO2
14837KMSN MSN20030604084509306/04/03 08:45:31  5-MIN KMSN 041445Z 02004KT 10SM CLR 15/08 A2993 850 62 1100 010/04 RMK AO2
14837KMSN MSN20030604085011806/04/03 08:50:31  5-MIN KMSN 041450Z 36005KT 9SM OVC120 15/08 A2993 850 62 1100 360/05 RMK AO2 SLP136 T01500078 53003
14837KMSN MSN20030604085509506/04/03 08:55:31  5-MIN KMSN 041455Z 02005KT 9SM OVC120 15/08 A2993 850 62 1100 020/05 RMK AO2
14837KMSN MSN20030604090009606/04/03 09:00:31  5-MIN KMSN 041500Z 01005KT 10SM OVC120 15/08 A2993 860 62 1100 010/05 RMK AO2
14837KMSN MSN20030604090509606/04/03 09:05:31  5-MIN KMSN 041505Z 01005KT 10SM OVC120 16/08 A2993 850 59 1200 010/05 RMK AO2
14837KMSN MSN20030604091009606/04/03 09:10:31  5-MIN KMSN 041510Z 04006KT 10SM OVC120 16/08 A2993 850 59 1200 030/06 RMK AO2
14837KMSN MSN20030604091509606/04/03 09:15:31  5-MIN KMSN 041515Z 01008KT 10SM OVC120 16/08 A2993 850 59 1200 360/08 RMK AO2
14837KMSN MSN20030604092009606/04/03 09:20:31  5-MIN KMSN 041520Z 02008KT 10SM OVC120 16/08 A2993 860 59 1200 020/08 RMK AO2
14837KMSN MSN20030604092509606/04/03 09:25:31  5-MIN KMSN 041525Z 01007KT 10SM OVC120 16/08 A2993 860 59 1200 010/07 RMK AO2
14837KMSN MSN20030604093009606/04/03 09:30:31  5-MIN KMSN 041530Z 02006KT 10SM OVC120 16/08 A2993 860 57 1200 020/06 RMK AO2
14837KMSN MSN20030604093509606/04/03 09:35:31  5-MIN KMSN 041535Z 02008KT 10SM OVC120 16/07 A2993 860 55 1200 020/08 RMK AO2
14837KMSN MSN20030604094009606/04/03 09:40:31  5-MIN KMSN 041540Z 04008KT 10SM OVC120 16/07 A2993 860 55 1200 040/08 RMK AO2
14837KMSN MSN20030604094509306/04/03 09:45:31  5-MIN KMSN 041545Z 02007KT 10SM CLR 16/07 A2993 860 55 1200 020/07 RMK AO2
14837KMSN MSN20030604095011006/04/03 09:50:31  5-MIN KMSN 041550Z 36007KT 10SM CLR 16/07 A2993 860 55 1200 360/07 RMK AO2 SLP134 T01610072
14837KMSN MSN20030604095509606/04/03 09:55:31  5-MIN KMSN 041555Z 02007KT 10SM BKN120 17/08 A2993 860 55 1300 020/07 RMK AO2
14837KMSN MSN20030604100009606/04/03 10:00:31  5-MIN KMSN 041600Z 01008KT 10SM BKN120 17/08 A2993 860 55 1300 010/08 RMK AO2
14837KMSN MSN20030604100509606/04/03 10:05:31  5-MIN KMSN 041605Z 03006KT 10SM BKN120 17/08 A2992 860 55 1300 030/06 RMK AO2
14837KMSN MSN20030604101009606/04/03 10:10:31  5-MIN KMSN 041610Z 35006KT 10SM BKN120 17/08 A2992 860 55 1400 350/06 RMK AO2
14837KMSN MSN20030604101509606/04/03 10:15:31  5-MIN KMSN 041615Z 01008KT 10SM BKN120 18/09 A2992 860 55 1400 010/08 RMK AO2
14837KMSN MSN20030604102009606/04/03 10:20:31  5-MIN KMSN 041620Z 01007KT 10SM BKN120 18/08 A2992 860 53 1400 010/07 RMK AO2
14837KMSN MSN20030604102509606/04/03 10:25:31  5-MIN KMSN 041625Z 36004KT 10SM BKN120 18/09 A2992 860 54 1500 350/04 RMK AO2
14837KMSN MSN20030604103009606/04/03 10:30:31  5-MIN KMSN 041630Z 01008KT 10SM BKN120 18/08 A2992 860 52 1500 010/08 RMK AO2
14837KMSN MSN20030604103509606/04/03 10:35:31  5-MIN KMSN 041635Z 01009KT 10SM BKN120 18/08 A2992 870 52 1500 010/09 RMK AO2
14837KMSN MSN20030604104009606/04/03 10:40:31  5-MIN KMSN 041640Z 01008KT 10SM BKN120 18/08 A2992 860 50 1500 010/08 RMK AO2
14837KMSN MSN20030604104509606/04/03 10:45:31  5-MIN KMSN 041645Z 03007KT 10SM BKN120 19/07 A2992 860 46 1600 030/07 RMK AO2
14837KMSN MSN20030604105011006/04/03 10:50:31  5-MIN KMSN 041650Z VRB05KT 10SM CLR 19/07 A2992 870 46 1600 VRB/05 RMK AO2 SLP130 T01890072
14837KMSN MSN20030604105509306/04/03 10:55:31  5-MIN KMSN 041655Z 36009KT 10SM CLR 19/07 A2992 870 43 1600 360/09 RMK AO2
14837KMSN MSN20030604110009306/04/03 11:00:31  5-MIN KMSN 041700Z 05010KT 10SM CLR 19/06 A2992 870 43 1600 040/10 RMK AO2
14837KMSN MSN20030604110509906/04/03 11:05:31  5-MIN KMSN 041705Z 01009G14KT 10SM CLR 19/06 A2992 870 41 1600 010/09G14 RMK AO2
14837KMSN MSN20030604111009306/04/03 11:10:31  5-MIN KMSN 041710Z 02010KT 10SM CLR 19/06 A2992 870 41 1600 020/10 RMK AO2
14837KMSN MSN20030604111509306/04/03 11:15:31  5-MIN KMSN 041715Z 03007KT 10SM CLR 19/06 A2992 870 41 1600 030/07 RMK AO2
14837KMSN MSN20030604112009906/04/03 11:20:31  5-MIN KMSN 041720Z 04011G16KT 10SM CLR 19/07 A2992 870 44 1600 040/11G16 RMK AO2
14837KMSN MSN20030604112509906/04/03 11:25:31  5-MIN KMSN 041725Z 03012G16KT 10SM CLR 19/07 A2992 870 46 1600 030/12G16 RMK AO2
14837KMSN MSN20030604113009906/04/03 11:30:31  5-MIN KMSN 041730Z 04009G15KT 10SM CLR 19/07 A2991 870 46 1600 040/09G15 RMK AO2
14837KMSN MSN20030604113509306/04/03 11:35:31  5-MIN KMSN 041735Z 06011KT 10SM CLR 19/07 A2991 870 44 1600 050/11 RMK AO2
14837KMSN MSN20030604114009906/04/03 11:40:31  5-MIN KMSN 041740Z 03011G15KT 10SM CLR 19/06 A2991 870 41 1600 030/11G15 RMK AO2
14837KMSN MSN20030604114509906/04/03 11:45:31  5-MIN KMSN 041745Z 04012G15KT 10SM CLR 19/06 A2991 870 41 1600 040/12G15 RMK AO2
14837KMSN MSN20030604115012806/04/03 11:50:31  5-MIN KMSN 041750Z 36007KT 10SM CLR 19/06 A2991 870 43 1600 360/07 RMK AO2 SLP128 T01890061 10194 20122 51003
14837KMSN MSN20030604115509306/04/03 11:55:31  5-MIN KMSN 041755Z 05009KT 10SM CLR 19/06 A2991 880 41 1600 050/09 RMK AO2
14837KMSN MSN20030604120009306/04/03 12:00:31  5-MIN KMSN 041800Z 03009KT 10SM CLR 19/05 A2990 880 38 1600 030/09 RMK AO2
14837KMSN MSN20030604120509306/04/03 12:05:31  5-MIN KMSN 041805Z 04012KT 10SM CLR 19/03 A2991 880 35 1600 040/12 RMK AO2
14837KMSN MSN20030604121009306/04/03 12:10:31  5-MIN KMSN 041810Z 05011KT 10SM CLR 19/02 A2990 880 31 1600 040/11 RMK AO2
14837KMSN MSN20030604121509306/04/03 12:15:31  5-MIN KMSN 041815Z 05011KT 10SM CLR 19/03 A2990 880 34 1600 050/11 RMK AO2
14837KMSN MSN20030604122009306/04/03 12:20:31  5-MIN KMSN 041820Z 05014KT 10SM CLR 19/03 A2990 880 34 1600 050/14 RMK AO2
14837KMSN MSN20030604122509306/04/03 12:25:31  5-MIN KMSN 041825Z 02011KT 10SM CLR 19/01 A2990 880 29 1600 020/11 RMK AO2
14837KMSN MSN20030604123009306/04/03 12:30:31  5-MIN KMSN 041830Z 35008KT 10SM CLR 19/02 A2990 880 31 1600 350/08 RMK AO2
14837KMSN MSN20030604123509306/04/03 12:35:31  5-MIN KMSN 041835Z 05009KT 10SM CLR 20/00 A2990 880 26 1700 050/09 RMK AO2
14837KMSN MSN20030604124011006/04/03 12:40:31  5-MIN KMSN 041840Z 05010KT 010V070 10SM CLR 20/M01 A2990 880 24 1700 050/10 010V070 RMK AO2
14837KMSN MSN20030604124509406/04/03 12:45:31  5-MIN KMSN 041845Z 07008KT 10SM CLR 20/M01 A2990 880 25 1700 060/08 RMK AO2
14837KMSN MSN20030604125011006/04/03 12:50:31  5-MIN KMSN 041850Z 02009KT 10SM CLR 20/01 A2990 880 27 1700 020/09 RMK AO2 SLP124 T02000006
14837KMSN MSN20030604125509306/04/03 12:55:31  5-MIN KMSN 041855Z 03013KT 10SM CLR 20/02 A2990 880 29 1700 030/13 RMK AO2
14837KMSN MSN20030604130011506/04/03 13:00:31  5-MIN KMSN 041900Z 01008G15KT 350V050 10SM CLR 20/01 A2990 880 27 1700 010/08G15 350V050 RMK AO2
14837KMSN MSN20030604130509306/04/03 13:05:31  5-MIN KMSN 041905Z 06010KT 10SM CLR 20/02 A2990 880 29 1700 060/10 RMK AO2
14837KMSN MSN20030604131009306/04/03 13:10:31  5-MIN KMSN 041910Z 06008KT 10SM CLR 19/03 A2990 880 33 1600 060/08 RMK AO2
14837KMSN MSN20030604131509306/04/03 13:15:31  5-MIN KMSN 041915Z 03010KT 10SM CLR 20/03 A2990 880 31 1700 030/10 RMK AO2
14837KMSN MSN20030604132009306/04/03 13:20:31  5-MIN KMSN 041920Z 03009KT 10SM CLR 19/04 A2990 880 35 1600 030/09 RMK AO2
14837KMSN MSN20030604132509306/04/03 13:25:31  5-MIN KMSN 041925Z 04013KT 10SM CLR 20/03 A2990 880 33 1700 040/13 RMK AO2
14837KMSN MSN20030604133009306/04/03 13:30:31  5-MIN KMSN 041930Z 04007KT 10SM CLR 19/03 A2990 880 34 1600 030/07 RMK AO2
14837KMSN MSN20030604133509306/04/03 13:35:31  5-MIN KMSN 041935Z 04008KT 10SM CLR 20/04 A2990 880 34 1700 040/08 RMK AO2
14837KMSN MSN20030604134009306/04/03 13:40:31  5-MIN KMSN 041940Z 04008KT 10SM CLR 20/04 A2990 880 34 1700 030/08 RMK AO2
14837KMSN MSN20030604134509306/04/03 13:45:31  5-MIN KMSN 041945Z 06006KT 10SM CLR 19/03 A2990 880 34 1600 050/06 RMK AO2
14837KMSN MSN20030604135011006/04/03 13:50:31  5-MIN KMSN 041950Z 03005KT 10SM CLR 19/04 A2990 890 35 1600 030/05 RMK AO2 SLP123 T01940039
14837KMSN MSN20030604135509606/04/03 13:55:31  5-MIN KMSN 041955Z 01010KT 10SM FEW060 20/04 A2990 890 34 1700 010/10 RMK AO2
14837KMSN MSN20030604140009606/04/03 14:00:31  5-MIN KMSN 042000Z 03007KT 10SM FEW060 20/04 A2990 880 34 1700 030/07 RMK AO2
14837KMSN MSN20030604140509606/04/03 14:05:31  5-MIN KMSN 042005Z 03009KT 10SM FEW060 20/04 A2990 890 35 1700 030/09 RMK AO2
14837KMSN MSN20030604141009306/04/03 14:10:31  5-MIN KMSN 042010Z 03009KT 10SM CLR 21/06 A2990 890 37 1800 030/09 RMK AO2
14837KMSN MSN20030604141509306/04/03 14:15:31  5-MIN KMSN 042015Z 36010KT 10SM CLR 21/05 A2990 890 35 1800 350/10 RMK AO2
14837KMSN MSN20030604142009306/04/03 14:20:31  5-MIN KMSN 042020Z 36009KT 10SM CLR 21/04 A2990 890 33 1800 360/09 RMK AO2
14837KMSN MSN20030604142509306/04/03 14:25:31  5-MIN KMSN 042025Z 03012KT 10SM CLR 21/04 A2990 890 33 1800 030/12 RMK AO2
14837KMSN MSN20030604143009306/04/03 14:30:31  5-MIN KMSN 042030Z 02009KT 10SM CLR 21/04 A2990 890 34 1800 020/09 RMK AO2
14837KMSN MSN20030604143509306/04/03 14:35:31  5-MIN KMSN 042035Z 05007KT 10SM CLR 21/04 A2990 880 34 1800 050/07 RMK AO2
14837KMSN MSN20030604144009306/04/03 14:40:31  5-MIN KMSN 042040Z VRB06KT 10SM CLR 21/04 A2990 880 33 1800 VRB/06 RMK AO2
14837KMSN MSN20030604144509306/04/03 14:45:31  5-MIN KMSN 042045Z 01009KT 10SM CLR 21/04 A2990 880 32 1800 010/09 RMK AO2
14837KMSN MSN20030604145011906/04/03 14:50:31  5-MIN KMSN 042050Z 07009KT 10SM FEW060 21/03 A2990 880 32 1800 070/09 RMK AO2 SLP123 T02060033 58008
14837KMSN MSN20030604145510206/04/03 14:55:31  5-MIN KMSN 042055Z 02011G15KT 10SM FEW060 20/04 A2990 880 34 1700 020/11G15 RMK AO2
14837KMSN MSN20030604150009606/04/03 15:00:31  5-MIN KMSN 042100Z 04008KT 10SM FEW060 20/04 A2990 880 35 1700 040/08 RMK AO2
14837KMSN MSN20030604150509606/04/03 15:05:31  5-MIN KMSN 042105Z 05010KT 10SM FEW060 20/03 A2990 880 31 1700 050/10 RMK AO2
14837KMSN MSN20030604151009606/04/03 15:10:31  5-MIN KMSN 042110Z 05012KT 10SM FEW060 20/04 A2990 880 34 1700 050/12 RMK AO2
14837KMSN MSN20030604151509606/04/03 15:15:31  5-MIN KMSN 042115Z 05011KT 10SM FEW060 20/03 A2990 880 31 1700 040/11 RMK AO2
14837KMSN MSN20030604152009606/04/03 15:20:31  5-MIN KMSN 042120Z 04009KT 10SM FEW060 19/03 A2990 880 33 1600 040/09 RMK AO2
14837KMSN MSN20030604152509606/04/03 15:25:31  5-MIN KMSN 042125Z 06009KT 10SM FEW060 19/03 A2991 880 33 1600 060/09 RMK AO2
14837KMSN MSN20030604153009606/04/03 15:30:31  5-MIN KMSN 042130Z 05008KT 10SM FEW060 19/03 A2991 880 34 1600 050/08 RMK AO2
14837KMSN MSN20030604153509606/04/03 15:35:31  5-MIN KMSN 042135Z 03005KT 10SM FEW060 19/02 A2991 870 31 1600 030/05 RMK AO2
14837KMSN MSN20030604154009606/04/03 15:40:31  5-MIN KMSN 042140Z 06008KT 10SM FEW060 19/03 A2991 870 33 1600 060/08 RMK AO2
14837KMSN MSN20030604154509606/04/03 15:45:31  5-MIN KMSN 042145Z 04004KT 10SM FEW060 19/03 A2991 880 33 1600 040/04 RMK AO2
14837KMSN MSN20030604155011306/04/03 15:50:31  5-MIN KMSN 042150Z 05004KT 10SM FEW060 19/03 A2991 880 33 1600 050/04 RMK AO2 SLP127 T01940028
14837KMSN MSN20030604155509606/04/03 15:55:31  5-MIN KMSN 042155Z 03005KT 10SM FEW060 20/04 A2991 880 35 1700 030/05 RMK AO2
14837KMSN MSN20030604160009606/04/03 16:00:31  5-MIN KMSN 042200Z VRB05KT 10SM FEW060 20/04 A2991 880 34 1700 VRB/05 RMK AO2
14837KMSN MSN20030604160509606/04/03 16:05:31  5-MIN KMSN 042205Z 06004KT 10SM FEW060 20/03 A2991 880 31 1700 060/04 RMK AO2
14837KMSN MSN20030604161009606/04/03 16:10:31  5-MIN KMSN 042210Z 36005KT 10SM FEW060 20/04 A2991 880 34 1700 350/05 RMK AO2
14837KMSN MSN20030604161509606/04/03 16:15:31  5-MIN KMSN 042215Z 36004KT 10SM FEW060 20/04 A2991 880 34 1700 360/04 RMK AO2
14837KMSN MSN20030604162009606/04/03 16:20:31  5-MIN KMSN 042220Z 05007KT 10SM FEW060 20/04 A2991 880 35 1700 050/07 RMK AO2
14837KMSN MSN20030604162509606/04/03 16:25:31  5-MIN KMSN 042225Z 35006KT 10SM FEW060 20/04 A2991 880 34 1700 350/06 RMK AO2
14837KMSN MSN20030604163009606/04/03 16:30:31  5-MIN KMSN 042230Z 34007KT 10SM FEW060 20/04 A2991 880 34 1700 340/07 RMK AO2
14837KMSN MSN20030604163509606/04/03 16:35:31  5-MIN KMSN 042235Z VRB04KT 10SM FEW060 21/04 A2991 880 34 1800 VRB/04 RMK AO2
14837KMSN MSN20030604164009606/04/03 16:40:31  5-MIN KMSN 042240Z VRB06KT 10SM FEW060 21/04 A2991 870 34 1800 VRB/06 RMK AO2
14837KMSN MSN20030604164509606/04/03 16:45:31  5-MIN KMSN 042245Z 03007KT 10SM FEW060 21/04 A2991 870 34 1800 030/07 RMK AO2
14837KMSN MSN20030604165011306/04/03 16:50:31  5-MIN KMSN 042250Z VRB04KT 10SM FEW060 20/04 A2991 870 35 1700 VRB/04 RMK AO2 SLP128 T02000044
14837KMSN MSN20030604165509606/04/03 16:55:31  5-MIN KMSN 042255Z 36009KT 10SM FEW060 20/04 A2991 870 35 1700 360/09 RMK AO2
14837KMSN MSN20030604170009606/04/03 17:00:31  5-MIN KMSN 042300Z 01007KT 10SM FEW060 19/04 A2991 870 37 1600 010/07 RMK AO2
14837KMSN MSN20030604170509606/04/03 17:05:31  5-MIN KMSN 042305Z 02009KT 10SM FEW060 19/04 A2991 870 37 1600 020/09 RMK AO2
14837KMSN MSN20030604171009606/04/03 17:10:31  5-MIN KMSN 042310Z 02009KT 10SM FEW060 19/04 A2991 870 37 1600 020/09 RMK AO2
14837KMSN MSN20030604171509606/04/03 17:15:31  5-MIN KMSN 042315Z 03007KT 10SM FEW060 19/04 A2991 870 35 1600 030/07 RMK AO2
14837KMSN MSN20030604172009606/04/03 17:20:31  5-MIN KMSN 042320Z 36008KT 10SM FEW060 19/04 A2991 870 38 1600 360/08 RMK AO2
14837KMSN MSN20030604172509606/04/03 17:25:31  5-MIN KMSN 042325Z 36008KT 10SM FEW060 19/04 A2991 870 38 1600 360/08 RMK AO2
14837KMSN MSN20030604173009606/04/03 17:30:31  5-MIN KMSN 042330Z 36006KT 10SM FEW060 19/04 A2991 870 38 1600 360/06 RMK AO2
14837KMSN MSN20030604173509606/04/03 17:35:31  5-MIN KMSN 042335Z 01006KT 10SM FEW060 19/05 A2991 870 39 1600 010/06 RMK AO2
14837KMSN MSN20030604174009606/04/03 17:40:31  5-MIN KMSN 042340Z 01006KT 10SM FEW060 19/06 A2991 870 41 1600 010/06 RMK AO2
14837KMSN MSN20030604174509606/04/03 17:45:31  5-MIN KMSN 042345Z VRB03KT 10SM FEW060 19/05 A2991 870 39 1600 VRB/03 RMK AO2
14837KMSN MSN20030604175013106/04/03 17:50:31  5-MIN KMSN 042350Z 34005KT 10SM FEW060 19/04 A2991 870 38 1600 340/05 RMK AO2 SLP129 T01890044 10211 20183 55002
14837KMSN MSN20030604175509606/04/03 17:55:31  5-MIN KMSN 042355Z 35005KT 10SM FEW060 19/05 A2991 870 39 1600 350/05 RMK AO2
14837KMSN MSN20030604180009606/04/03 18:00:31  5-MIN KMSN 050000Z 33005KT 10SM FEW060 19/04 A2991 870 38 1600 330/05 RMK AO2
14837KMSN MSN20030604180509606/04/03 18:05:31  5-MIN KMSN 050005Z 35005KT 10SM FEW060 19/04 A2991 870 38 1600 340/05 RMK AO2
14837KMSN MSN20030604181009606/04/03 18:10:31  5-MIN KMSN 050010Z 33005KT 10SM FEW060 19/04 A2991 870 36 1600 330/05 RMK AO2
14837KMSN MSN20030604181509606/04/03 18:15:31  5-MIN KMSN 050015Z 34004KT 10SM FEW060 19/04 A2991 870 38 1600 340/04 RMK AO2
14837KMSN MSN20030604182009606/04/03 18:20:31  5-MIN KMSN 050020Z 35005KT 10SM FEW120 19/04 A2991 870 38 1600 350/05 RMK AO2
14837KMSN MSN20030604182509606/04/03 18:25:31  5-MIN KMSN 050025Z 35005KT 10SM FEW120 19/04 A2991 870 38 1600 350/05 RMK AO2
14837KMSN MSN20030604183009306/04/03 18:30:31  5-MIN KMSN 050030Z 36005KT 10SM CLR 18/05 A2991 870 42 1400 360/05 RMK AO2
14837KMSN MSN20030604183509306/04/03 18:35:31  5-MIN KMSN 050035Z 36005KT 10SM CLR 17/06 A2991 870 46 1400 360/05 RMK AO2
14837KMSN MSN20030604184009606/04/03 18:40:31  5-MIN KMSN 050040Z 36005KT 10SM FEW120 17/04 A2991 870 42 1400 360/05 RMK AO2
14837KMSN MSN20030604184509606/04/03 18:45:31  5-MIN KMSN 050045Z 35004KT 10SM FEW120 18/04 A2991 870 41 1400 350/04 RMK AO2
14837KMSN MSN20030604185011306/04/03 18:50:31  5-MIN KMSN 050050Z 35004KT 10SM FEW120 18/04 A2991 870 39 1400 350/04 RMK AO2 SLP129 T01780039
14837KMSN MSN20030604185509606/04/03 18:55:31  5-MIN KMSN 050055Z 36004KT 10SM FEW120 17/04 A2991 870 41 1400 360/04 RMK AO2
14837KMSN MSN20030604190009606/04/03 19:00:31  5-MIN KMSN 050100Z 01004KT 10SM FEW120 17/04 A2991 870 42 1400 360/04 RMK AO2
14837KMSN MSN20030604190509606/04/03 19:05:31  5-MIN KMSN 050105Z 02004KT 10SM FEW120 17/04 A2991 870 42 1400 020/04 RMK AO2
14837KMSN MSN20030604191009606/04/03 19:10:31  5-MIN KMSN 050110Z 02003KT 10SM FEW120 17/04 A2992 870 42 1300 020/03 RMK AO2
14837KMSN MSN20030604191509606/04/03 19:15:31  5-MIN KMSN 050115Z 02003KT 10SM FEW120 17/04 A2992 870 42 1300 020/03 RMK AO2
14837KMSN MSN20030604192009606/04/03 19:20:31  5-MIN KMSN 050120Z 01003KT 10SM FEW120 16/04 A2992 870 45 1200 010/03 RMK AO2
14837KMSN MSN20030604192509606/04/03 19:25:31  5-MIN KMSN 050125Z 00000KT 10SM FEW120 16/04 A2992 870 45 1200 000/00 RMK AO2
14837KMSN MSN20030604193009606/04/03 19:30:31  5-MIN KMSN 050130Z 00000KT 10SM FEW120 15/04 A2992 870 47 1100 000/00 RMK AO2
14837KMSN MSN20030604193509606/04/03 19:35:31  5-MIN KMSN 050135Z 00000KT 10SM FEW120 14/05 A2992 870 55 1000 000/00 RMK AO2
14837KMSN MSN20030604194009506/04/03 19:40:31  5-MIN KMSN 050140Z 00000KT 10SM FEW120 13/04 A2992 870 54 900 000/00 RMK AO2
14837KMSN MSN20030604194509506/04/03 19:45:31  5-MIN KMSN 050145Z 00000KT 10SM FEW120 13/04 A2992 870 54 900 000/00 RMK AO2
14837KMSN MSN20030604195011206/04/03 19:50:31  5-MIN KMSN 050150Z 00000KT 10SM FEW120 13/04 A2992 870 54 900 000/00 RMK AO2 SLP132 T01330044
14837KMSN MSN20030604195509506/04/03 19:55:31  5-MIN KMSN 050155Z 00000KT 10SM FEW120 13/04 A2992 870 56 800 000/00 RMK AO2
14837KMSN MSN20030604200009506/04/03 20:00:31  5-MIN KMSN 050200Z 00000KT 10SM FEW120 12/04 A2992 870 59 800 000/00 RMK AO2
14837KMSN MSN20030604200509506/04/03 20:05:31  5-MIN KMSN 050205Z 00000KT 10SM FEW120 12/06 A2992 870 63 800 000/00 RMK AO2
14837KMSN MSN20030604201009206/04/03 20:10:31  5-MIN KMSN 050210Z 00000KT 10SM CLR 12/05 A2992 870 63 700 000/00 RMK AO2
14837KMSN MSN20030604201509206/04/03 20:15:31  5-MIN KMSN 050215Z 00000KT 10SM CLR 12/05 A2992 870 63 700 000/00 RMK AO2
14837KMSN MSN20030604202009206/04/03 20:20:31  5-MIN KMSN 050220Z 00000KT 10SM CLR 12/05 A2992 870 63 700 000/00 RMK AO2
14837KMSN MSN20030605052009406/05/03 05:20:31  5-MIN KMSN 051120Z 21006KT 9SM FEW100 13/06 A2997 820 59 800 210/06 RMK AO2
14837KMSN MSN20030605052509106/05/03 05:25:31  5-MIN KMSN 051125Z 21004KT 9SM CLR 13/06 A2997 820 59 800 210/04 RMK AO2
14837KMSN MSN20030605053009406/05/03 05:30:31  5-MIN KMSN 051130Z 21003KT 9SM FEW110 13/06 A2997 810 59 800 210/03 RMK AO2
14837KMSN MSN20030605053509406/05/03 05:35:31  5-MIN KMSN 051135Z 21004KT 9SM FEW110 13/06 A2997 820 59 900 210/04 RMK AO2
14837KMSN MSN20030605054009406/05/03 05:40:31  5-MIN KMSN 051140Z 22005KT 9SM FEW120 13/06 A2997 820 61 900 220/05 RMK AO2
14837KMSN MSN20030605054509506/05/03 05:45:31  5-MIN KMSN 051145Z 22005KT 10SM SCT120 14/06 A2997 820 59 900 220/05 RMK AO2
14837KMSN MSN20030605055013006/05/03 05:50:31  5-MIN KMSN 051150Z 22006KT 10SM SCT120 14/06 A2997 820 59 900 220/06 RMK AO2 SLP147 T01390061 10139 20111 51004
14837KMSN MSN20030605055509506/05/03 05:55:31  5-MIN KMSN 051155Z 22005KT 9SM SCT120 14/06 A2997 820 57 1000 220/05 RMK AO2
14837KMSN MSN20030605060009606/05/03 06:00:31  5-MIN KMSN 051200Z 22006KT 10SM SCT120 14/06 A2997 820 57 1000 220/06 RMK AO2
14837KMSN MSN20030605060509506/05/03 06:05:31  5-MIN KMSN 051205Z 22006KT 9SM FEW120 14/06 A2997 820 57 1000 220/06 RMK AO2
14837KMSN MSN20030605061009506/05/03 06:10:31  5-MIN KMSN 051210Z 23006KT 9SM FEW120 14/06 A2997 820 57 1000 230/06 RMK AO2
14837KMSN MSN20030605061509406/05/03 06:15:31  5-MIN KMSN 051215Z 23006KT 9SM FEW120 14/06 A2996 820 59 900 230/06 RMK AO2
14837KMSN MSN20030605062009106/05/03 06:20:31  5-MIN KMSN 051220Z 22006KT 9SM CLR 14/06 A2997 820 59 900 220/06 RMK AO2
14837KMSN MSN20030605062509106/05/03 06:25:31  5-MIN KMSN 051225Z 22007KT 9SM CLR 14/06 A2997 820 59 900 220/07 RMK AO2
14837KMSN MSN20030605063009106/05/03 06:30:31  5-MIN KMSN 051230Z 21006KT 9SM CLR 14/06 A2997 820 59 900 210/06 RMK AO2
14837KMSN MSN20030605063509206/05/03 06:35:31  5-MIN KMSN 051235Z 20004KT 10SM CLR 14/06 A2997 820 59 900 200/04 RMK AO2
14837KMSN MSN20030605064009306/05/03 06:40:31  5-MIN KMSN 051240Z 22003KT 10SM CLR 14/06 A2997 820 57 1000 220/03 RMK AO2
14837KMSN MSN20030605064509306/05/03 06:45:31  5-MIN KMSN 051245Z 00000KT 10SM CLR 14/06 A2997 810 57 1000 000/00 RMK AO2
14837KMSN MSN20030605065011306/05/03 06:50:31  5-MIN KMSN 051250Z 00000KT 10SM FEW035 14/06 A2998 810 57 1000 000/00 RMK AO2 SLP150 T01440061
14837KMSN MSN20030605065509206/05/03 06:55:31  5-MIN KMSN 051255Z 00000KT 9SM CLR 14/06 A2998 810 57 1000 000/00 RMK AO2
14837KMSN MSN20030605070009206/05/03 07:00:31  5-MIN KMSN 051300Z 23003KT 9SM CLR 14/07 A2998 810 59 1000 230/03 RMK AO2
14837KMSN MSN20030605070509206/05/03 07:05:31  5-MIN KMSN 051305Z 22003KT 9SM CLR 14/07 A2998 810 59 1000 220/03 RMK AO2
14837KMSN MSN20030605071009106/05/03 07:10:31  5-MIN KMSN 051310Z 23003KT 9SM CLR 14/07 A2998 810 61 900 230/03 RMK AO2
14837KMSN MSN20030605071509206/05/03 07:15:31  5-MIN KMSN 051315Z 23003KT 9SM CLR 14/07 A2998 810 59 1000 230/03 RMK AO2
14837KMSN MSN20030605072009106/05/03 07:20:31  5-MIN KMSN 051320Z 23003KT 9SM CLR 14/07 A2998 810 64 900 230/03 RMK AO2
14837KMSN MSN20030605072509206/05/03 07:25:31  5-MIN KMSN 051325Z 00000KT 9SM CLR 14/07 A2998 810 59 1000 000/00 RMK AO2
14837KMSN MSN20030605073009206/05/03 07:30:31  5-MIN KMSN 051330Z 00000KT 9SM CLR 14/07 A2998 810 59 1000 000/00 RMK AO2
14837KMSN MSN20030605073509206/05/03 07:35:31  5-MIN KMSN 051335Z 00000KT 9SM CLR 14/08 A2998 810 64 1000 000/00 RMK AO2
14837KMSN MSN20030605074009206/05/03 07:40:31  5-MIN KMSN 051340Z 00000KT 9SM CLR 16/08 A2999 800 59 1100 000/00 RMK AO2
14837KMSN MSN20030605074509206/05/03 07:45:31  5-MIN KMSN 051345Z 00000KT 9SM CLR 16/07 A2999 800 57 1100 000/00 RMK AO2
14837KMSN MSN20030605075010906/05/03 07:50:31  5-MIN KMSN 051350Z 00000KT 9SM CLR 16/07 A2999 800 55 1200 000/00 RMK AO2 SLP155 T01610072
14837KMSN MSN20030605075509506/05/03 07:55:31  5-MIN KMSN 051355Z VRB04KT 9SM SCT100 17/07 A2999 800 51 1300 VRB/04 RMK AO2
14837KMSN MSN20030605080009606/05/03 08:00:31  5-MIN KMSN 051400Z VRB03KT 10SM SCT100 17/07 A2999 800 49 1300 VRB/03 RMK AO2
14837KMSN MSN20030605080509606/05/03 08:05:31  5-MIN KMSN 051405Z VRB04KT 10SM SCT100 17/07 A2999 800 49 1300 VRB/04 RMK AO2
14837KMSN MSN20030605081009306/05/03 08:10:31  5-MIN KMSN 051410Z 22006KT 10SM CLR 17/06 A2999 800 47 1300 220/06 RMK AO2
14837KMSN MSN20030605081509306/05/03 08:15:31  5-MIN KMSN 051415Z VRB06KT 10SM CLR 18/07 A2999 800 48 1300 VRB/06 RMK AO2
14837KMSN MSN20030605082009306/05/03 08:20:31  5-MIN KMSN 051420Z VRB06KT 10SM CLR 18/06 A2999 800 46 1300 VRB/06 RMK AO2
14837KMSN MSN20030605082509306/05/03 08:25:31  5-MIN KMSN 051425Z VRB05KT 10SM CLR 18/06 A3000 790 46 1300 VRB/05 RMK AO2
14837KMSN MSN20030605083009306/05/03 08:30:31  5-MIN KMSN 051430Z 21007KT 10SM CLR 18/06 A2999 800 44 1400 210/07 RMK AO2
14837KMSN MSN20030605083509306/05/03 08:35:31  5-MIN KMSN 051435Z 21005KT 10SM CLR 18/06 A2999 800 44 1400 210/05 RMK AO2
14837KMSN MSN20030605084010906/05/03 08:40:31  5-MIN KMSN 051440Z 23008KT 210V280 10SM CLR 18/06 A2999 800 44 1400 230/08 210V280 RMK AO2
14837KMSN MSN20030605084509306/05/03 08:45:31  5-MIN KMSN 051445Z VRB06KT 10SM CLR 18/06 A3000 790 44 1400 VRB/06 RMK AO2
14837KMSN MSN20030605085011606/05/03 08:50:31  5-MIN KMSN 051450Z VRB05KT 10SM CLR 19/07 A2999 800 44 1500 VRB/05 RMK AO2 SLP157 T01890067 50001
14837KMSN MSN20030605085509606/05/03 08:55:31  5-MIN KMSN 051455Z 23008KT 10SM FEW100 19/07 A2999 800 44 1500 230/08 RMK AO2
14837KMSN MSN20030605090009606/05/03 09:00:31  5-MIN KMSN 051500Z 22007KT 10SM FEW100 19/07 A3000 790 44 1500 220/07 RMK AO2
14837KMSN MSN20030605090509606/05/03 09:05:31  5-MIN KMSN 051505Z 24007KT 10SM FEW100 19/07 A3000 790 44 1500 240/07 RMK AO2
14837KMSN MSN20030605091009606/05/03 09:10:31  5-MIN KMSN 051510Z 23008KT 10SM FEW085 19/07 A2999 800 43 1500 230/08 RMK AO2
14837KMSN MSN20030605091509606/05/03 09:15:31  5-MIN KMSN 051515Z 23007KT 10SM SCT085 19/07 A2999 800 43 1500 230/07 RMK AO2
14837KMSN MSN20030605092009606/05/03 09:20:31  5-MIN KMSN 051520Z 21008KT 10SM SCT090 19/07 A2999 800 44 1500 210/08 RMK AO2
14837KMSN MSN20030605092509606/05/03 09:25:31  5-MIN KMSN 051525Z VRB06KT 10SM FEW085 19/07 A2999 800 44 1500 VRB/06 RMK AO2
14837KMSN MSN20030605093009606/05/03 09:30:31  5-MIN KMSN 051530Z 22008KT 10SM FEW085 19/07 A2999 800 43 1500 220/08 RMK AO2
14837KMSN MSN20030605093511206/05/03 09:35:31  5-MIN KMSN 051535Z 22010KT 190V270 10SM FEW085 19/07 A2999 800 43 1500 220/10 190V270 RMK AO2
14837KMSN MSN20030605094011206/05/03 09:40:31  5-MIN KMSN 051540Z 23009KT 190V260 10SM FEW090 19/07 A2999 800 43 1500 230/09 190V260 RMK AO2
14837KMSN MSN20030605094509306/05/03 09:45:31  5-MIN KMSN 051545Z 21011KT 10SM CLR 20/07 A2999 800 41 1600 210/11 RMK AO2
14837KMSN MSN20030605095011006/05/03 09:50:31  5-MIN KMSN 051550Z 21009KT 10SM CLR 20/07 A2999 800 41 1600 210/09 RMK AO2 SLP156 T02000067
14837KMSN MSN20030605095511206/05/03 09:55:31  5-MIN KMSN 051555Z 23007KT 190V260 10SM FEW090 21/07 A2999 800 41 1700 230/07 190V260 RMK AO2
14837KMSN MSN20030605100009306/05/03 10:00:31  5-MIN KMSN 051600Z 21008KT 10SM CLR 21/07 A2999 800 41 1700 210/08 RMK AO2
14837KMSN MSN20030605100509306/05/03 10:05:31  5-MIN KMSN 051605Z 22008KT 10SM CLR 21/07 A2999 800 40 1700 210/08 RMK AO2
14837KMSN MSN20030605101011506/05/03 10:10:31  5-MIN KMSN 051610Z 23008G14KT 200V270 10SM CLR 21/07 A2999 800 41 1700 230/08G14 200V270 RMK AO2
14837KMSN MSN20030605101509306/05/03 10:15:31  5-MIN KMSN 051615Z 22009KT 10SM CLR 21/07 A2999 800 40 1700 220/09 RMK AO2
14837KMSN MSN20030605102009306/05/03 10:20:31  5-MIN KMSN 051620Z 21009KT 10SM CLR 21/07 A2999 800 40 1700 210/09 RMK AO2
14837KMSN MSN20030605102509606/05/03 10:25:31  5-MIN KMSN 051625Z 23007KT 10SM FEW100 21/07 A2999 800 41 1700 230/07 RMK AO2
14837KMSN MSN20030605103009606/05/03 10:30:31  5-MIN KMSN 051630Z VRB05KT 10SM FEW090 20/07 A2999 800 43 1600 VRB/05 RMK AO2
14837KMSN MSN20030605103509606/05/03 10:35:31  5-MIN KMSN 051635Z 23006KT 10SM SCT095 20/07 A2999 800 43 1600 230/06 RMK AO2
14837KMSN MSN20030605104009606/05/03 10:40:31  5-MIN KMSN 051640Z 21004KT 10SM SCT095 20/07 A2999 800 43 1600 210/04 RMK AO2
14837KMSN MSN20030605104509606/05/03 10:45:31  5-MIN KMSN 051645Z 23005KT 10SM SCT095 20/07 A2999 800 43 1600 230/05 RMK AO2
14837KMSN MSN20030605105011306/05/03 10:50:31  5-MIN KMSN 051650Z 22007KT 10SM SCT095 21/07 A2999 800 41 1700 220/07 RMK AO2 SLP155 T02060072
14837KMSN MSN20030605105509606/05/03 10:55:31  5-MIN KMSN 051655Z 23007KT 10SM SCT095 22/08 A2999 800 40 1800 230/07 RMK AO2
14837KMSN MSN20030605110009606/05/03 11:00:31  5-MIN KMSN 051700Z VRB05KT 10SM FEW095 22/08 A2998 810 40 1800 VRB/05 RMK AO2
14837KMSN MSN20030605110509606/05/03 11:05:31  5-MIN KMSN 051705Z 21007KT 10SM FEW090 22/08 A2998 810 39 1900 210/07 RMK AO2
14837KMSN MSN20030605111009306/05/03 11:10:31  5-MIN KMSN 051710Z 23005KT 10SM CLR 22/08 A2998 810 39 1900 230/05 RMK AO2
14837KMSN MSN20030605111510906/05/03 11:15:31  5-MIN KMSN 051715Z 20008KT 180V240 10SM CLR 22/07 A2998 810 37 1900 200/08 180V240 RMK AO2
14837KMSN MSN20030605112009306/05/03 11:20:31  5-MIN KMSN 051720Z VRB04KT 10SM CLR 22/08 A2998 810 39 1900 VRB/04 RMK AO2
14837KMSN MSN20030605112509306/05/03 11:25:31  5-MIN KMSN 051725Z 22007KT 10SM CLR 23/08 A2998 810 37 1900 220/07 RMK AO2
14837KMSN MSN20030605113009306/05/03 11:30:31  5-MIN KMSN 051730Z 22007KT 10SM CLR 23/07 A2998 810 36 1900 220/07 RMK AO2
14837KMSN MSN20030605113509306/05/03 11:35:31  5-MIN KMSN 051735Z 20006KT 10SM CLR 23/07 A2998 810 36 1900 200/06 RMK AO2
14837KMSN MSN20030605114009306/05/03 11:40:31  5-MIN KMSN 051740Z 20007KT 10SM CLR 23/07 A2998 810 35 2000 200/07 RMK AO2
14837KMSN MSN20030605114509306/05/03 11:45:31  5-MIN KMSN 051745Z VRB06KT 10SM CLR 23/07 A2998 810 35 2000 VRB/06 RMK AO2
14837KMSN MSN20030605115012806/05/03 11:50:31  5-MIN KMSN 051750Z 20007KT 10SM CLR 23/07 A2998 810 33 2000 200/07 RMK AO2 SLP149 T02330067 10233 20139 51008
14837KMSN MSN20030605115511206/05/03 11:55:31  5-MIN KMSN 051755Z 22007KT 190V260 10SM FEW095 23/07 A2997 820 33 2000 220/07 190V260 RMK AO2
14837KMSN MSN20030605120009306/05/03 12:00:31  5-MIN KMSN 051800Z 19007KT 10SM CLR 23/06 A2997 820 32 2000 190/07 RMK AO2
14837KMSN MSN20030605120509306/05/03 12:05:31  5-MIN KMSN 051805Z 23009KT 10SM CLR 23/06 A2997 820 32 2000 230/09 RMK AO2
14837KMSN MSN20030605121010906/05/03 12:10:31  5-MIN KMSN 051810Z 23007KT 200V260 10SM CLR 23/06 A2997 820 32 2000 230/07 200V260 RMK AO2
14837KMSN MSN20030605121509306/05/03 12:15:31  5-MIN KMSN 051815Z VRB06KT 10SM CLR 24/07 A2997 820 34 2100 VRB/06 RMK AO2
14837KMSN MSN20030605122009306/05/03 12:20:31  5-MIN KMSN 051820Z 21009KT 10SM CLR 24/07 A2997 820 32 2100 210/09 RMK AO2
14837KMSN MSN20030605122509306/05/03 12:25:31  5-MIN KMSN 051825Z 23009KT 10SM CLR 23/06 A2997 820 32 2000 220/09 RMK AO2
14837KMSN MSN20030605123009306/05/03 12:30:31  5-MIN KMSN 051830Z 20009KT 10SM CLR 23/06 A2997 820 32 2000 200/09 RMK AO2
14837KMSN MSN20030605123510906/05/03 12:35:31  5-MIN KMSN 051835Z 22008KT 180V260 10SM CLR 24/07 A2997 820 32 2100 220/08 180V260 RMK AO2
14837KMSN MSN20030605124009606/05/03 12:40:31  5-MIN KMSN 051840Z 19007KT 10SM FEW075 24/07 A2996 820 33 2100 190/07 RMK AO2
14837KMSN MSN20030605124510206/05/03 12:45:31  5-MIN KMSN 051845Z 19009G15KT 10SM FEW075 24/06 A2996 830 31 2100 190/09G15 RMK AO2
14837KMSN MSN20030605125011906/05/03 12:50:31  5-MIN KMSN 051850Z 21008G15KT 10SM FEW100 24/07 A2996 830 32 2100 210/08G15 RMK AO2 SLP143 T02390067
14837KMSN MSN20030605125509606/05/03 12:55:31  5-MIN KMSN 051855Z 22009KT 10SM SCT075 23/06 A2996 830 32 2000 220/09 RMK AO2
14837KMSN MSN20030605130009606/05/03 13:00:31  5-MIN KMSN 051900Z 20007KT 10SM SCT075 24/06 A2995 830 31 2100 200/07 RMK AO2
14837KMSN MSN20030605130511206/05/03 13:05:31  5-MIN KMSN 051905Z 22008KT 180V250 10SM SCT075 24/06 A2995 830 30 2100 220/08 180V250 RMK AO2
14837KMSN MSN20030605131011206/05/03 13:10:31  5-MIN KMSN 051910Z 21008KT 180V240 10SM SCT075 24/06 A2995 840 29 2200 210/08 180V240 RMK AO2
14837KMSN MSN20030605131509606/05/03 13:15:31  5-MIN KMSN 051915Z VRB06KT 10SM SCT075 24/06 A2995 830 31 2100 VRB/06 RMK AO2
14837KMSN MSN20030605132009306/05/03 13:20:31  5-MIN KMSN 051920Z 21010KT 10SM CLR 24/06 A2996 830 31 2100 210/10 RMK AO2
14837KMSN MSN20030605132509306/05/03 13:25:31  5-MIN KMSN 051925Z 22006KT 10SM CLR 24/06 A2995 830 31 2100 220/06 RMK AO2
14837KMSN MSN20030605133010906/05/03 13:30:31  5-MIN KMSN 051930Z 22008KT 190V270 10SM CLR 24/06 A2995 830 30 2100 220/08 190V270 RMK AO2
14837KMSN MSN20030605133509306/05/03 13:35:31  5-MIN KMSN 051935Z 23007KT 10SM CLR 24/05 A2995 840 29 2100 230/07 RMK AO2
14837KMSN MSN20030605134010906/05/03 13:40:31  5-MIN KMSN 051940Z 21007KT 170V230 10SM CLR 24/06 A2995 840 29 2200 210/07 170V230 RMK AO2
14837KMSN MSN20030605134509306/05/03 13:45:31  5-MIN KMSN 051945Z 24007KT 10SM CLR 24/06 A2995 840 29 2200 240/07 RMK AO2
14837KMSN MSN20030605135011006/05/03 13:50:31  5-MIN KMSN 051950Z 22009KT 10SM CLR 24/05 A2995 840 29 2100 220/09 RMK AO2 SLP139 T02390050
14837KMSN MSN20030605135509606/05/03 13:55:31  5-MIN KMSN 051955Z 22007KT 10SM SCT075 24/06 A2995 840 30 2100 220/07 RMK AO2
14837KMSN MSN20030605140009306/05/03 14:00:31  5-MIN KMSN 052000Z 23006KT 10SM CLR 24/06 A2995 840 29 2200 220/06 RMK AO2
14837KMSN MSN20030605140509306/05/03 14:05:31  5-MIN KMSN 052005Z VRB05KT 10SM CLR 24/05 A2995 840 29 2100 VRB/05 RMK AO2
14837KMSN MSN20030605141009606/05/03 14:10:31  5-MIN KMSN 052010Z VRB05KT 10SM FEW100 24/05 A2995 840 29 2100 VRB/05 RMK AO2
14837KMSN MSN20030605141509606/05/03 14:15:31  5-MIN KMSN 052015Z 00000KT 10SM FEW095 24/04 A2994 840 28 2100 000/00 RMK AO2
14837KMSN MSN20030605142011206/05/03 14:20:31  5-MIN KMSN 052020Z 24007KT 210V280 10SM FEW095 25/05 A2994 840 27 2200 240/07 210V280 RMK AO2
14837KMSN MSN20030605142509606/05/03 14:25:31  5-MIN KMSN 052025Z VRB06KT 10SM FEW095 24/05 A2994 840 28 2200 VRB/06 RMK AO2
14837KMSN MSN20030605143009606/05/03 14:30:31  5-MIN KMSN 052030Z 23005KT 10SM FEW095 24/05 A2994 840 28 2200 230/05 RMK AO2
14837KMSN MSN20030605143509606/05/03 14:35:31  5-MIN KMSN 052035Z VRB04KT 10SM FEW095 24/05 A2994 850 28 2200 VRB/04 RMK AO2
14837KMSN MSN20030605144009306/05/03 14:40:31  5-MIN KMSN 052040Z 22007KT 10SM CLR 24/04 A2994 850 27 2200 220/07 RMK AO2
14837KMSN MSN20030605144509306/05/03 14:45:31  5-MIN KMSN 052045Z VRB06KT 10SM CLR 24/04 A2994 850 26 2200 VRB/06 RMK AO2
14837KMSN MSN20030605145011606/05/03 14:50:31  5-MIN KMSN 052050Z VRB06KT 10SM CLR 24/04 A2994 850 27 2100 VRB/06 RMK AO2 SLP135 T02390039 58006
14837KMSN MSN20030605145509606/05/03 14:55:31  5-MIN KMSN 052055Z 21006KT 10SM SCT075 24/04 A2993 850 27 2200 210/06 RMK AO2
14837KMSN MSN20030605150009606/05/03 15:00:31  5-MIN KMSN 052100Z 21007KT 10SM SCT085 24/04 A2993 850 27 2200 210/07 RMK AO2
14837KMSN MSN20030605150509606/05/03 15:05:31  5-MIN KMSN 052105Z 28003KT 10SM SCT085 24/04 A2993 850 27 2200 280/03 RMK AO2
14837KMSN MSN20030605151009606/05/03 15:10:31  5-MIN KMSN 052110Z VRB06KT 10SM SCT085 24/04 A2993 850 27 2200 VRB/06 RMK AO2
14837KMSN MSN20030605151511206/05/03 15:15:31  5-MIN KMSN 052115Z 24007KT 200V300 10SM SCT085 24/04 A2993 850 27 2200 230/07 200V300 RMK AO2
14837KMSN MSN20030605152009606/05/03 15:20:31  5-MIN KMSN 052120Z 25006KT 10SM SCT085 24/03 A2993 850 26 2100 250/06 RMK AO2
14837KMSN MSN20030605152509606/05/03 15:25:31  5-MIN KMSN 052125Z 23005KT 10SM SCT085 23/04 A2993 850 28 2100 230/05 RMK AO2
14837KMSN MSN20030605153009606/05/03 15:30:31  5-MIN KMSN 052130Z 21005KT 10SM SCT085 24/04 A2993 850 28 2100 210/05 RMK AO2
14837KMSN MSN20030605153509606/05/03 15:35:31  5-MIN KMSN 052135Z 23004KT 10SM SCT085 24/04 A2993 850 27 2200 230/04 RMK AO2
14837KMSN MSN20030605154009606/05/03 15:40:31  5-MIN KMSN 052140Z VRB04KT 10SM SCT085 24/04 A2993 850 28 2100 VRB/04 RMK AO2
14837KMSN MSN20030605154509606/05/03 15:45:31  5-MIN KMSN 052145Z 21006KT 10SM SCT085 24/04 A2993 850 27 2200 200/06 RMK AO2
14837KMSN MSN20030605155011306/05/03 15:50:31  5-MIN KMSN 052150Z VRB05KT 10SM SCT085 24/05 A2993 850 28 2200 VRB/05 RMK AO2 SLP133 T02440050
14837KMSN MSN20030605155509306/05/03 15:55:31  5-MIN KMSN 052155Z 22006KT 10SM CLR 24/05 A2993 850 28 2200 220/06 RMK AO2
14837KMSN MSN20030605160009606/05/03 16:00:31  5-MIN KMSN 052200Z 22008KT 10SM SCT090 24/06 A2993 860 29 2200 220/08 RMK AO2
14837KMSN MSN20030605160509606/05/03 16:05:31  5-MIN KMSN 052205Z 22005KT 10SM SCT090 24/06 A2993 860 29 2200 220/05 RMK AO2
14837KMSN MSN20030605161009606/05/03 16:10:31  5-MIN KMSN 052210Z 22005KT 10SM SCT090 24/06 A2993 860 29 2200 220/05 RMK AO2
14837KMSN MSN20030605161509606/05/03 16:15:31  5-MIN KMSN 052215Z 23004KT 10SM SCT090 24/06 A2993 860 30 2200 230/04 RMK AO2
14837KMSN MSN20030605162009606/05/03 16:20:31  5-MIN KMSN 052220Z 20004KT 10SM SCT090 24/06 A2992 860 29 2200 200/04 RMK AO2
14837KMSN MSN20030605162509606/05/03 16:25:31  5-MIN KMSN 052225Z 21005KT 10SM SCT090 24/05 A2992 860 28 2200 210/05 RMK AO2
14837KMSN MSN20030605163009606/05/03 16:30:31  5-MIN KMSN 052230Z 20004KT 10SM SCT090 24/05 A2992 870 28 2200 200/04 RMK AO2
14837KMSN MSN20030605163509606/05/03 16:35:31  5-MIN KMSN 052235Z VRB06KT 10SM SCT095 24/06 A2992 870 29 2200 VRB/06 RMK AO2
14837KMSN MSN20030605164009606/05/03 16:40:31  5-MIN KMSN 052240Z 23006KT 10SM SCT095 24/06 A2992 870 31 2100 230/06 RMK AO2
14837KMSN MSN20030605164509606/05/03 16:45:31  5-MIN KMSN 052245Z 20006KT 10SM SCT095 24/06 A2992 870 29 2200 190/06 RMK AO2
14837KMSN MSN20030605165011306/05/03 16:50:31  5-MIN KMSN 052250Z 21007KT 10SM SCT095 24/06 A2992 870 30 2100 210/07 RMK AO2 SLP128 T02390056
14837KMSN MSN20030605165509606/05/03 16:55:31  5-MIN KMSN 052255Z VRB05KT 10SM SCT095 24/06 A2992 870 30 2100 VRB/05 RMK AO2
14837KMSN MSN20030605170009606/05/03 17:00:31  5-MIN KMSN 052300Z VRB05KT 10SM SCT095 24/06 A2992 860 30 2100 VRB/05 RMK AO2
14837KMSN MSN20030605170509606/05/03 17:05:31  5-MIN KMSN 052305Z 23004KT 10SM SCT095 23/06 A2992 870 31 2100 230/04 RMK AO2
14837KMSN MSN20030605171009606/05/03 17:10:31  5-MIN KMSN 052310Z VRB03KT 10SM SCT095 24/06 A2992 870 30 2100 VRB/03 RMK AO2
14837KMSN MSN20030605171509606/05/03 17:15:31  5-MIN KMSN 052315Z VRB04KT 10SM SCT095 24/06 A2992 870 30 2100 VRB/04 RMK AO2
14837KMSN MSN20030605195509306/05/03 19:55:31  5-MIN KMSN 060155Z 22004KT 10SM CLR 19/10 A2993 860 56 1600 220/04 RMK AO2
14837KMSN MSN20030605200009306/05/03 20:00:31  5-MIN KMSN 060200Z 22004KT 10SM CLR 19/09 A2993 860 54 1600 220/04 RMK AO2
14837KMSN MSN20030605200509306/05/03 20:05:31  5-MIN KMSN 060205Z 22004KT 10SM CLR 18/10 A2993 860 60 1400 220/04 RMK AO2
14837KMSN MSN20030605201009306/05/03 20:10:31  5-MIN KMSN 060210Z 23003KT 10SM CLR 18/10 A2993 860 60 1400 230/03 RMK AO2
14837KMSN MSN20030605201509306/05/03 20:15:31  5-MIN KMSN 060215Z 24003KT 10SM CLR 17/11 A2993 860 67 1300 230/03 RMK AO2
14837KMSN MSN20030605202009306/05/03 20:20:31  5-MIN KMSN 060220Z 28004KT 10SM CLR 16/10 A2993 850 67 1200 280/04 RMK AO2
14837KMSN MSN20030605202509306/05/03 20:25:31  5-MIN KMSN 060225Z 27004KT 10SM CLR 19/09 A2993 850 54 1500 270/04 RMK AO2
14837KMSN MSN20030605203009306/05/03 20:30:31  5-MIN KMSN 060230Z 23003KT 10SM CLR 18/09 A2994 850 56 1500 230/03 RMK AO2
14837KMSN MSN20030605203509306/05/03 20:35:31  5-MIN KMSN 060235Z 22004KT 10SM CLR 17/10 A2994 850 62 1300 220/04 RMK AO2
14837KMSN MSN20030605204009306/05/03 20:40:31  5-MIN KMSN 060240Z 22004KT 10SM CLR 19/09 A2994 850 54 1500 220/04 RMK AO2
14837KMSN MSN20030605204509306/05/03 20:45:31  5-MIN KMSN 060245Z 23004KT 10SM CLR 18/09 A2994 850 56 1500 230/04 RMK AO2
14837KMSN MSN20030605205011606/05/03 20:50:31  5-MIN KMSN 060250Z 22004KT 10SM CLR 17/10 A2994 850 62 1300 220/04 RMK AO2 SLP136 T01720100 57007
14837KMSN MSN20030605205509306/05/03 20:55:31  5-MIN KMSN 060255Z 22003KT 10SM CLR 17/10 A2994 850 62 1300 220/03 RMK AO2
14837KMSN MSN20030605210009306/05/03 21:00:31  5-MIN KMSN 060300Z 22003KT 10SM CLR 16/10 A2994 850 67 1200 220/03 RMK AO2
14837KMSN MSN20030605210509306/05/03 21:05:31  5-MIN KMSN 060305Z 00000KT 10SM CLR 16/10 A2994 850 69 1100 000/00 RMK AO2
14837KMSN MSN20030605211009306/05/03 21:10:31  5-MIN KMSN 060310Z 00000KT 10SM CLR 16/10 A2994 840 67 1200 000/00 RMK AO2
14837KMSN MSN20030605211509306/05/03 21:15:31  5-MIN KMSN 060315Z 21003KT 10SM CLR 16/10 A2994 840 67 1200 210/03 RMK AO2
14837KMSN MSN20030605212009306/05/03 21:20:31  5-MIN KMSN 060320Z 21003KT 10SM CLR 16/10 A2994 840 69 1100 210/03 RMK AO2
14837KMSN MSN20030605212509306/05/03 21:25:31  5-MIN KMSN 060325Z 00000KT 10SM CLR 16/09 A2994 840 67 1100 000/00 RMK AO2
14837KMSN MSN20030605213009306/05/03 21:30:31  5-MIN KMSN 060330Z 00000KT 10SM CLR 15/09 A2994 840 69 1100 000/00 RMK AO2
14837KMSN MSN20030605213509306/05/03 21:35:31  5-MIN KMSN 060335Z 00000KT 10SM CLR 14/09 A2994 840 72 1000 000/00 RMK AO2
14837KMSN MSN20030605214009306/05/03 21:40:31  5-MIN KMSN 060340Z 00000KT 10SM CLR 14/10 A2994 840 74 1000 000/00 RMK AO2
14837KMSN MSN20030605214509306/05/03 21:45:31  5-MIN KMSN 060345Z 00000KT 10SM CLR 15/10 A2994 840 72 1100 000/00 RMK AO2
14837KMSN MSN20030605215011006/05/03 21:50:31  5-MIN KMSN 060350Z 00000KT 10SM CLR 15/09 A2994 840 69 1100 000/00 RMK AO2 SLP137 T01500094
14837KMSN MSN20030605215509206/05/03 21:55:31  5-MIN KMSN 060355Z 00000KT 8SM CLR 14/09 A2994 850 72 1000 000/00 RMK AO2
14837KMSN MSN20030605220009206/05/03 22:00:31  5-MIN KMSN 060400Z 00000KT 8SM CLR 14/09 A2994 850 72 1000 000/00 RMK AO2
14837KMSN MSN20030605220509206/05/03 22:05:31  5-MIN KMSN 060405Z 00000KT 8SM CLR 14/09 A2994 840 72 1000 000/00 RMK AO2
14837KMSN MSN20030605221009306/05/03 22:10:31  5-MIN KMSN 060410Z 00000KT 10SM CLR 14/09 A2994 840 72 1000 000/00 RMK AO2
14837KMSN MSN20030605221509306/05/03 22:15:31  5-MIN KMSN 060415Z 00000KT 10SM CLR 15/10 A2994 840 72 1100 000/00 RMK AO2
14837KMSN MSN20030605222009306/05/03 22:20:31  5-MIN KMSN 060420Z 00000KT 10SM CLR 15/09 A2994 840 69 1100 000/00 RMK AO2
14837KMSN MSN20030605222509306/05/03 22:25:31  5-MIN KMSN 060425Z 00000KT 10SM CLR 14/10 A2994 840 74 1000 000/00 RMK AO2
14837KMSN MSN20030605223009206/05/03 22:30:31  5-MIN KMSN 060430Z 00000KT 10SM CLR 14/09 A2994 840 74 900 000/00 RMK AO2
14837KMSN MSN20030605223509206/05/03 22:35:31  5-MIN KMSN 060435Z 00000KT 10SM CLR 14/09 A2995 840 74 900 000/00 RMK AO2
14837KMSN MSN20030605224009206/05/03 22:40:31  5-MIN KMSN 060440Z 00000KT 10SM CLR 14/09 A2995 840 74 900 000/00 RMK AO2
14837KMSN MSN20030605224509206/05/03 22:45:31  5-MIN KMSN 060445Z 00000KT 10SM CLR 13/10 A2995 840 80 900 000/00 RMK AO2
14837KMSN MSN20030605225010906/05/03 22:50:31  5-MIN KMSN 060450Z 00000KT 10SM CLR 13/09 A2995 840 80 800 000/00 RMK AO2 SLP140 T01280094
14837KMSN MSN20030605225509106/05/03 22:55:31  5-MIN KMSN 060455Z 00000KT 8SM CLR 13/09 A2995 840 80 800 000/00 RMK AO2
14837KMSN MSN20030605230009106/05/03 23:00:31  5-MIN KMSN 060500Z 00000KT 8SM CLR 13/10 A2995 840 80 900 000/00 RMK AO2
14837KMSN MSN20030605230509106/05/03 23:05:31  5-MIN KMSN 060505Z 00000KT 7SM CLR 14/10 A2995 840 77 900 000/00 RMK AO2
14837KMSN MSN20030605231009106/05/03 23:10:31  5-MIN KMSN 060510Z 00000KT 7SM CLR 13/10 A2995 840 80 900 000/00 RMK AO2
14837KMSN MSN20030605231509106/05/03 23:15:31  5-MIN KMSN 060515Z 00000KT 7SM CLR 13/09 A2995 840 77 900 000/00 RMK AO2
14837KMSN MSN20030605232009106/05/03 23:20:31  5-MIN KMSN 060520Z 00000KT 7SM CLR 13/09 A2995 840 77 900 000/00 RMK AO2
14837KMSN MSN20030605232509106/05/03 23:25:31  5-MIN KMSN 060525Z 00000KT 7SM CLR 13/09 A2995 840 77 900 000/00 RMK AO2
14837KMSN MSN20030605233009106/05/03 23:30:31  5-MIN KMSN 060530Z 00000KT 8SM CLR 13/10 A2994 840 83 800 000/00 RMK AO2
14837KMSN MSN20030605233509106/05/03 23:35:31  5-MIN KMSN 060535Z 00000KT 7SM CLR 13/10 A2994 840 80 900 000/00 RMK AO2
14837KMSN MSN20030605234009106/05/03 23:40:31  5-MIN KMSN 060540Z 00000KT 7SM CLR 13/10 A2994 840 83 800 000/00 RMK AO2
14837KMSN MSN20030605234509106/05/03 23:45:31  5-MIN KMSN 060545Z 00000KT 7SM CLR 12/10 A2994 840 86 800 000/00 RMK AO2
14837KMSN MSN20030605235013606/05/03 23:50:31  5-MIN KMSN 060550Z 00000KT 7SM CLR 13/10 A2994 850 83 800 000/00 RMK AO2 SLP137 T01280100 10228 20122 402500111 53009
14837KMSN MSN20030605235509106/05/03 23:55:31  5-MIN KMSN 060555Z 00000KT 7SM CLR 13/10 A2994 840 83 800 000/00 RMK AO2
14837KMSN MSN20030606000009106/06/03 00:00:31  5-MIN KMSN 060600Z 00000KT 7SM CLR 13/10 A2994 840 83 800 000/00 RMK AO2
14837KMSN MSN20030606000509106/06/03 00:05:31  5-MIN KMSN 060605Z 00000KT 7SM CLR 13/10 A2994 840 80 900 000/00 RMK AO2
14837KMSN MSN20030606001009106/06/03 00:10:31  5-MIN KMSN 060610Z 00000KT 7SM CLR 13/10 A2994 840 80 900 000/00 RMK AO2
14837KMSN MSN20030606001509106/06/03 00:15:31  5-MIN KMSN 060615Z 00000KT 7SM CLR 13/10 A2994 850 83 800 000/00 RMK AO2
14837KMSN MSN20030606002009106/06/03 00:20:31  5-MIN KMSN 060620Z 00000KT 7SM CLR 13/10 A2994 850 80 900 000/00 RMK AO2
14837KMSN MSN20030606002509106/06/03 00:25:31  5-MIN KMSN 060625Z 00000KT 7SM CLR 13/10 A2994 850 80 900 000/00 RMK AO2
14837KMSN MSN20030606003009106/06/03 00:30:31  5-MIN KMSN 060630Z 00000KT 7SM CLR 12/10 A2994 850 86 800 000/00 RMK AO2
14837KMSN MSN20030606003509106/06/03 00:35:31  5-MIN KMSN 060635Z 00000KT 7SM CLR 13/10 A2993 850 83 800 000/00 RMK AO2
14837KMSN MSN20030606004009106/06/03 00:40:31  5-MIN KMSN 060640Z 13003KT 7SM CLR 13/09 A2993 850 80 800 130/03 RMK AO2
14837KMSN MSN20030606004509106/06/03 00:45:31  5-MIN KMSN 060645Z 00000KT 7SM CLR 12/09 A2993 850 83 700 000/00 RMK AO2
14837KMSN MSN20030606005010806/06/03 00:50:31  5-MIN KMSN 060650Z 00000KT 7SM CLR 12/09 A2994 850 86 700 000/00 RMK AO2 SLP135 T01170094
14837KMSN MSN20030606005509406/06/03 00:55:31  5-MIN KMSN 060655Z 00000KT 6SM HZ CLR 12/09 A2994 850 83 800 000/00 RMK AO2
14837KMSN MSN20030606010009106/06/03 01:00:31  5-MIN KMSN 060700Z 00000KT 7SM CLR 13/09 A2994 850 80 800 000/00 RMK AO2
14837KMSN MSN20030606010509106/06/03 01:05:31  5-MIN KMSN 060705Z 00000KT 7SM CLR 13/09 A2993 850 80 800 000/00 RMK AO2
14837KMSN MSN20030606011009106/06/03 01:10:31  5-MIN KMSN 060710Z 00000KT 7SM CLR 12/10 A2993 850 86 800 000/00 RMK AO2
14837KMSN MSN20030606011509406/06/03 01:15:31  5-MIN KMSN 060715Z 00000KT 6SM BR CLR 12/10 A2993 850 89 700 000/00 RMK AO2
14837KMSN MSN20030606012009406/06/03 01:20:31  5-MIN KMSN 060720Z 00000KT 6SM BR CLR 12/10 A2993 860 89 700 000/00 RMK AO2
14837KMSN MSN20030606012509406/06/03 01:25:31  5-MIN KMSN 060725Z 00000KT 6SM BR CLR 12/10 A2993 860 89 700 000/00 RMK AO2
14837KMSN MSN20030606013009406/06/03 01:30:31  5-MIN KMSN 060730Z 00000KT 6SM HZ CLR 13/10 A2993 860 83 800 000/00 RMK AO2
14837KMSN MSN20030606013509406/06/03 01:35:31  5-MIN KMSN 060735Z 00000KT 6SM HZ CLR 13/09 A2993 850 80 800 000/00 RMK AO2
14837KMSN MSN20030606014009106/06/03 01:40:31  5-MIN KMSN 060740Z 00000KT 7SM CLR 12/09 A2993 850 83 800 000/00 RMK AO2
14837KMSN MSN20030606014509406/06/03 01:45:31  5-MIN KMSN 060745Z 00000KT 6SM HZ CLR 12/09 A2993 850 83 800 000/00 RMK AO2
14837KMSN MSN20030606015011106/06/03 01:50:31  5-MIN KMSN 060750Z 00000KT 6SM HZ CLR 12/09 A2993 860 83 800 000/00 RMK AO2 SLP133 T01220094
14837KMSN MSN20030606015509406/06/03 01:55:31  5-MIN KMSN 060755Z 00000KT 6SM HZ CLR 12/09 A2993 860 83 800 000/00 RMK AO2
14837KMSN MSN20030606020009406/06/03 02:00:31  5-MIN KMSN 060800Z 00000KT 6SM HZ CLR 12/09 A2993 850 83 800 000/00 RMK AO2
14837KMSN MSN20030606020509406/06/03 02:05:31  5-MIN KMSN 060805Z 00000KT 6SM BR CLR 12/10 A2993 850 86 800 000/00 RMK AO2
14837KMSN MSN20030606021009406/06/03 02:10:31  5-MIN KMSN 060810Z 00000KT 6SM HZ CLR 13/10 A2993 860 83 800 000/00 RMK AO2
14837KMSN MSN20030606021509706/06/03 02:15:31  5-MIN KMSN 060815Z 00000KT 6SM BR FEW090 12/10 A2993 860 89 700 000/00 RMK AO2
14837KMSN MSN20030606022009706/06/03 02:20:31  5-MIN KMSN 060820Z 19003KT 6SM BR FEW090 12/10 A2993 860 86 800 190/03 RMK AO2
14837KMSN MSN20030606022509406/06/03 02:25:31  5-MIN KMSN 060825Z 00000KT 6SM BR CLR 12/10 A2992 860 86 800 000/00 RMK AO2
14837KMSN MSN20030606023009406/06/03 02:30:31  5-MIN KMSN 060830Z 18003KT 6SM HZ CLR 13/10 A2993 860 83 800 180/03 RMK AO2
14837KMSN MSN20030606023509406/06/03 02:35:31  5-MIN KMSN 060835Z 17004KT 6SM HZ CLR 13/10 A2993 860 80 900 170/04 RMK AO2
14837KMSN MSN20030606024009506/06/03 02:40:31  5-MIN KMSN 060840Z 17004KT 6SM HZ CLR 14/10 A2993 860 74 1000 170/04 RMK AO2
14837KMSN MSN20030606024509506/06/03 02:45:31  5-MIN KMSN 060845Z 18003KT 6SM HZ CLR 15/10 A2993 860 72 1100 180/03 RMK AO2
14837KMSN MSN20030606025011806/06/03 02:50:31  5-MIN KMSN 060850Z 00000KT 6SM HZ CLR 15/10 A2993 860 72 1100 000/00 RMK AO2 SLP131 T01500100 50001
14837KMSN MSN20030606025509506/06/03 02:55:31  5-MIN KMSN 060855Z 00000KT 6SM HZ CLR 14/10 A2993 860 77 1000 000/00 RMK AO2
14837KMSN MSN20030606030009506/06/03 03:00:31  5-MIN KMSN 060900Z 00000KT 6SM HZ CLR 14/10 A2993 860 77 1000 000/00 RMK AO2
14837KMSN MSN20030606030509406/06/03 03:05:31  5-MIN KMSN 060905Z 00000KT 6SM HZ CLR 13/10 A2993 860 83 800 000/00 RMK AO2
14837KMSN MSN20030606031009406/06/03 03:10:31  5-MIN KMSN 060910Z 00000KT 6SM HZ CLR 13/10 A2993 860 80 900 000/00 RMK AO2
14837KMSN MSN20030606031509406/06/03 03:15:31  5-MIN KMSN 060915Z 00000KT 6SM HZ CLR 13/10 A2993 860 83 800 000/00 RMK AO2
14837KMSN MSN20030606032009406/06/03 03:20:31  5-MIN KMSN 060920Z 00000KT 6SM HZ CLR 13/10 A2993 860 83 800 000/00 RMK AO2
14837KMSN MSN20030606032509406/06/03 03:25:31  5-MIN KMSN 060925Z 00000KT 6SM BR CLR 12/10 A2993 860 86 800 000/00 RMK AO2
14837KMSN MSN20030606033009406/06/03 03:30:31  5-MIN KMSN 060930Z 00000KT 6SM HZ CLR 13/10 A2993 860 80 900 000/00 RMK AO2
14837KMSN MSN20030606033509406/06/03 03:35:31  5-MIN KMSN 060935Z 00000KT 6SM HZ CLR 13/10 A2993 860 80 900 000/00 RMK AO2
14837KMSN MSN20030606034009406/06/03 03:40:31  5-MIN KMSN 060940Z 00000KT 6SM HZ CLR 13/10 A2993 860 83 800 000/00 RMK AO2
14837KMSN MSN20030606034509406/06/03 03:45:31  5-MIN KMSN 060945Z 00000KT 6SM HZ CLR 13/10 A2993 860 80 900 000/00 RMK AO2
14837KMSN MSN20030606035011106/06/03 03:50:31  5-MIN KMSN 060950Z 15003KT 6SM HZ CLR 13/10 A2992 860 83 800 150/03 RMK AO2 SLP131 T01280100
14837KMSN MSN20030606035509406/06/03 03:55:31  5-MIN KMSN 060955Z 00000KT 6SM HZ CLR 13/09 A2992 860 80 800 000/00 RMK AO2
14837KMSN MSN20030606040009406/06/03 04:00:31  5-MIN KMSN 061000Z 00000KT 6SM HZ CLR 13/09 A2992 860 80 800 000/00 RMK AO2
14837KMSN MSN20030606040509406/06/03 04:05:31  5-MIN KMSN 061005Z 00000KT 6SM HZ CLR 12/09 A2992 860 83 800 000/00 RMK AO2
14837KMSN MSN20030606041009406/06/03 04:10:31  5-MIN KMSN 061010Z 00000KT 6SM HZ CLR 12/09 A2992 860 83 800 000/00 RMK AO2
14837KMSN MSN20030606041509406/06/03 04:15:31  5-MIN KMSN 061015Z 00000KT 6SM HZ CLR 12/09 A2992 860 83 800 000/00 RMK AO2
14837KMSN MSN20030606042009406/06/03 04:20:31  5-MIN KMSN 061020Z 00000KT 6SM BR CLR 12/09 A2992 860 86 700 000/00 RMK AO2
14837KMSN MSN20030606042509406/06/03 04:25:31  5-MIN KMSN 061025Z 00000KT 6SM BR CLR 12/10 A2992 870 86 800 000/00 RMK AO2
14837KMSN MSN20030606043009406/06/03 04:30:31  5-MIN KMSN 061030Z 00000KT 6SM BR CLR 12/10 A2992 860 86 800 000/00 RMK AO2
14837KMSN MSN20030606043509406/06/03 04:35:31  5-MIN KMSN 061035Z 00000KT 5SM BR CLR 12/10 A2992 870 86 800 000/00 RMK AO2
14837KMSN MSN20030606044009406/06/03 04:40:31  5-MIN KMSN 061040Z 00000KT 5SM HZ CLR 13/10 A2992 870 83 800 000/00 RMK AO2
14837KMSN MSN20030606044509406/06/03 04:45:31  5-MIN KMSN 061045Z 00000KT 5SM HZ CLR 13/09 A2991 870 80 900 000/00 RMK AO2
14837KMSN MSN20030606045010806/06/03 04:50:31  5-MIN KMSN 061050Z 00000KT 7SM CLR 12/09 A2991 870 83 800 000/00 RMK AO2 SLP127 T01220094
14837KMSN MSN20030606045509406/06/03 04:55:31  5-MIN KMSN 061055Z 00000KT 5SM HZ CLR 13/10 A2992 870 83 800 000/00 RMK AO2
14837KMSN MSN20030606050009406/06/03 05:00:31  5-MIN KMSN 061100Z 16003KT 5SM HZ CLR 13/10 A2992 870 83 800 160/03 RMK AO2
14837KMSN MSN20030606050509406/06/03 05:05:31  5-MIN KMSN 061105Z 19004KT 5SM HZ CLR 13/10 A2992 870 80 900 190/04 RMK AO2
14837KMSN MSN20030606051009506/06/03 05:10:31  5-MIN KMSN 061110Z 17004KT 5SM HZ CLR 14/10 A2991 870 77 1000 170/04 RMK AO2
14837KMSN MSN20030606051509506/06/03 05:15:31  5-MIN KMSN 061115Z 17004KT 5SM HZ CLR 15/10 A2992 870 72 1100 170/04 RMK AO2
14837KMSN MSN20030606052009506/06/03 05:20:31  5-MIN KMSN 061120Z 17005KT 5SM HZ CLR 14/10 A2992 870 74 1000 170/05 RMK AO2
14837KMSN MSN20030606052509506/06/03 05:25:31  5-MIN KMSN 061125Z 18005KT 5SM HZ CLR 15/10 A2992 870 72 1100 180/05 RMK AO2
14837KMSN MSN20030606053009506/06/03 05:30:31  5-MIN KMSN 061130Z 18005KT 5SM HZ CLR 15/10 A2992 860 72 1100 180/05 RMK AO2
14837KMSN MSN20030606053509506/06/03 05:35:31  5-MIN KMSN 061135Z 17005KT 5SM HZ CLR 15/10 A2992 860 72 1100 170/05 RMK AO2
14837KMSN MSN20030606054009506/06/03 05:40:31  5-MIN KMSN 061140Z 16005KT 5SM HZ CLR 15/10 A2992 860 72 1100 160/05 RMK AO2
14837KMSN MSN20030606054509506/06/03 05:45:31  5-MIN KMSN 061145Z 18006KT 5SM HZ CLR 15/10 A2992 860 72 1100 180/06 RMK AO2
14837KMSN MSN20030606055013006/06/03 05:50:31  5-MIN KMSN 061150Z 17006KT 5SM HZ CLR 16/10 A2992 860 69 1200 170/06 RMK AO2 SLP129 T01560100 10156 20117 56004
14837KMSN MSN20030606055509506/06/03 05:55:31  5-MIN KMSN 061155Z 17007KT 5SM HZ CLR 16/10 A2992 860 69 1200 170/07 RMK AO2
14837KMSN MSN20030606060009506/06/03 06:00:31  5-MIN KMSN 061200Z 17006KT 5SM HZ CLR 16/11 A2992 860 72 1200 170/06 RMK AO2
14837KMSN MSN20030606060509506/06/03 06:05:31  5-MIN KMSN 061205Z 18007KT 5SM HZ CLR 15/11 A2992 860 74 1100 180/07 RMK AO2
14837KMSN MSN20030606061009506/06/03 06:10:31  5-MIN KMSN 061210Z 17006KT 5SM HZ CLR 16/11 A2992 860 72 1200 170/06 RMK AO2
14837KMSN MSN20030606061509506/06/03 06:15:31  5-MIN KMSN 061215Z 17005KT 5SM HZ CLR 15/11 A2992 870 74 1100 170/05 RMK AO2
14837KMSN MSN20030606062009506/06/03 06:20:31  5-MIN KMSN 061220Z 17006KT 5SM HZ CLR 16/11 A2992 870 72 1200 170/06 RMK AO2
14837KMSN MSN20030606062509506/06/03 06:25:31  5-MIN KMSN 061225Z 17006KT 5SM HZ CLR 16/11 A2992 870 72 1200 170/06 RMK AO2
14837KMSN MSN20030606063009506/06/03 06:30:31  5-MIN KMSN 061230Z 17006KT 5SM HZ CLR 16/11 A2992 870 72 1200 170/06 RMK AO2
14837KMSN MSN20030606063509506/06/03 06:35:31  5-MIN KMSN 061235Z 17006KT 5SM HZ CLR 16/11 A2992 870 72 1200 170/06 RMK AO2
14837KMSN MSN20030606064009506/06/03 06:40:31  5-MIN KMSN 061240Z 17006KT 5SM HZ CLR 16/11 A2991 870 72 1200 170/06 RMK AO2
14837KMSN MSN20030606064509506/06/03 06:45:31  5-MIN KMSN 061245Z 17006KT 5SM HZ CLR 16/11 A2991 870 72 1200 170/06 RMK AO2
14837KMSN MSN20030606065011206/06/03 06:50:31  5-MIN KMSN 061250Z 17006KT 5SM HZ CLR 16/11 A2992 870 69 1200 170/06 RMK AO2 SLP128 T01610106
14837KMSN MSN20030606065509506/06/03 06:55:31  5-MIN KMSN 061255Z 18006KT 5SM HZ CLR 16/11 A2992 870 69 1200 170/06 RMK AO2
14837KMSN MSN20030606070009806/06/03 07:00:31  5-MIN KMSN 061300Z 18006KT 5SM HZ FEW080 16/11 A2992 870 69 1200 180/06 RMK AO2
14837KMSN MSN20030606070509806/06/03 07:05:31  5-MIN KMSN 061305Z 19005KT 4SM HZ SCT075 16/11 A2992 870 69 1200 190/05 RMK AO2
14837KMSN MSN20030606071009806/06/03 07:10:31  5-MIN KMSN 061310Z 18005KT 4SM HZ BKN075 17/11 A2992 870 67 1300 180/05 RMK AO2
14837KMSN MSN20030606071509806/06/03 07:15:31  5-MIN KMSN 061315Z 18006KT 4SM HZ BKN075 17/10 A2992 870 64 1300 180/06 RMK AO2
14837KMSN MSN20030606072009806/06/03 07:20:31  5-MIN KMSN 061320Z 18006KT 4SM HZ BKN075 17/11 A2992 870 67 1300 180/06 RMK AO2
14837KMSN MSN20030606072509806/06/03 07:25:31  5-MIN KMSN 061325Z 18006KT 5SM HZ BKN075 17/10 A2992 870 64 1300 180/06 RMK AO2
14837KMSN MSN20030606073011806/06/03 07:30:31  5-MIN KMSN 061330Z 18008KT 4SM -RA FEW050 BKN075 17/11 A2992 860 67 1300 180/08 RMK AO2 RAB30 P0000
14837KMSN MSN20030606073511806/06/03 07:35:31  5-MIN KMSN 061335Z 19008KT 4SM -RA FEW042 BKN075 16/11 A2992 860 72 1200 190/08 RMK AO2 RAB30 P0000
14837KMSN MSN20030606074012406/06/03 07:40:31  5-MIN KMSN 061340Z 19009G14KT 5SM -RA SCT040 BKN075 16/11 A2993 860 72 1200 190/09G14 RMK AO2 RAB30 P0000
14837KMSN MSN20030606074513106/06/03 07:45:31  5-MIN KMSN 061345Z 22006G14KT 4SM -RA SCT040 BKN060 BKN075 16/11 A2993 860 72 1200 220/06G14 RMK AO2 RAB30 P0000
14837KMSN MSN20030606075014206/06/03 07:50:31  5-MIN KMSN 061350Z 23005KT 4SM -RA SCT040 BKN060 BKN075 16/11 A2993 860 72 1200 230/05 RMK AO2 RAB30 SLP133 P0000 T01610111
14837KMSN MSN20030606075510506/06/03 07:55:31  5-MIN KMSN 061355Z 21006KT 5SM HZ SCT040 BKN060 16/12 A2993 860 75 1200 210/06 RMK AO2
14837KMSN MSN20030606080011206/06/03 08:00:31  5-MIN KMSN 061400Z 21005KT 5SM HZ FEW037 BKN060 BKN075 17/12 A2993 860 72 1300 210/05 RMK AO2
14837KMSN MSN20030606080511206/06/03 08:05:31  5-MIN KMSN 061405Z 21005KT 5SM HZ FEW040 BKN060 BKN075 17/12 A2993 860 72 1300 210/05 RMK AO2
14837KMSN MSN20030606081011206/06/03 08:10:31  5-MIN KMSN 061410Z 21004KT 5SM HZ FEW038 BKN060 BKN080 17/12 A2993 860 72 1300 210/04 RMK AO2
14837KMSN MSN20030606081510506/06/03 08:15:31  5-MIN KMSN 061415Z 22004KT 5SM HZ SCT060 SCT080 17/12 A2993 860 72 1300 210/04 RMK AO2
14837KMSN MSN20030606082010506/06/03 08:20:31  5-MIN KMSN 061420Z 22006KT 5SM HZ SCT060 BKN080 17/12 A2993 860 75 1300 220/06 RMK AO2
14837KMSN MSN20030606082510506/06/03 08:25:31  5-MIN KMSN 061425Z 22004KT 5SM HZ SCT060 SCT080 17/12 A2993 860 72 1300 220/04 RMK AO2
14837KMSN MSN20030606083009806/06/03 08:30:31  5-MIN KMSN 061430Z 21006KT 5SM HZ FEW060 17/12 A2993 860 72 1300 210/06 RMK AO2
14837KMSN MSN20030606083509806/06/03 08:35:31  5-MIN KMSN 061435Z 22006KT 5SM HZ FEW060 17/12 A2993 860 72 1400 220/06 RMK AO2
14837KMSN MSN20030606084009806/06/03 08:40:31  5-MIN KMSN 061440Z 22005KT 4SM HZ FEW060 17/12 A2992 860 75 1300 220/05 RMK AO2
14837KMSN MSN20030606084509806/06/03 08:45:31  5-MIN KMSN 061445Z 22006KT 4SM HZ FEW060 17/12 A2992 860 72 1400 220/06 RMK AO2
14837KMSN MSN20030606085012706/06/03 08:50:31  5-MIN KMSN 061450Z 21007KT 4SM HZ FEW085 17/12 A2992 860 75 1300 210/07 RMK AO2 SLP131 60000 T01670122 55002
14837KMSN MSN20030606085510506/06/03 08:55:31  5-MIN KMSN 061455Z 22006KT 4SM HZ SCT085 OVC120 17/12 A2992 860 72 1400 220/06 RMK AO2
14837KMSN MSN20030606090010506/06/03 09:00:31  5-MIN KMSN 061500Z 22006KT 4SM HZ SCT085 OVC120 17/12 A2992 870 72 1400 220/06 RMK AO2
14837KMSN MSN20030606090510506/06/03 09:05:31  5-MIN KMSN 061505Z VRB05KT 4SM HZ SCT085 OVC120 17/12 A2992 870 72 1400 VRB/05 RMK AO2
14837KMSN MSN20030606091009806/06/03 09:10:31  5-MIN KMSN 061510Z 20005KT 5SM HZ FEW090 17/12 A2992 870 72 1400 190/05 RMK AO2
14837KMSN MSN20030606091509506/06/03 09:15:31  5-MIN KMSN 061515Z 20005KT 5SM HZ CLR 18/12 A2992 870 69 1400 200/05 RMK AO2
14837KMSN MSN20030606092009806/06/03 09:20:31  5-MIN KMSN 061520Z 18007KT 5SM HZ FEW085 18/12 A2992 860 69 1400 180/07 RMK AO2
14837KMSN MSN20030606092509806/06/03 09:25:31  5-MIN KMSN 061525Z 18007KT 5SM HZ FEW045 18/12 A2992 860 69 1400 180/07 RMK AO2
14837KMSN MSN20030606093012506/06/03 09:30:31  5-MIN KMSN 061530Z 18008KT 5SM -RA FEW043 SCT070 SCT085 18/12 A2992 860 69 1400 180/08 RMK AO2 RAB26 P0000
14837KMSN MSN20030606093512506/06/03 09:35:31  5-MIN KMSN 061535Z 18006KT 5SM -RA FEW043 SCT075 SCT090 17/12 A2992 860 72 1400 180/06 RMK AO2 RAB26 P0000
14837KMSN MSN20030606094011806/06/03 09:40:31  5-MIN KMSN 061540Z 18006KT 5SM -RA FEW043 BKN080 18/12 A2992 860 69 1400 180/06 RMK AO2 RAB26 P0000
14837KMSN MSN20030606094511806/06/03 09:45:31  5-MIN KMSN 061545Z 17008KT 6SM -RA FEW045 BKN080 18/12 A2992 860 69 1400 170/08 RMK AO2 RAB26 P0000
14837KMSN MSN20030606095014206/06/03 09:50:31  5-MIN KMSN 061550Z 17008KT 5SM -RA SCT041 SCT055 BKN075 18/12 A2993 860 69 1400 170/08 RMK AO2 RAB26 SLP132 P0000 T01780122
14837KMSN MSN20030606095511906/06/03 09:55:31  5-MIN KMSN 061555Z 17009KT 5SM -RA FEW041 SCT055 OVC075 17/13 A2993 860 75 1400 170/09 RMK AO2 P0000
14837KMSN MSN20030606100011206/06/03 10:00:31  5-MIN KMSN 061600Z 19008KT 5SM -RA SCT042 BKN080 17/13 A2993 860 75 1400 190/08 RMK AO2 P0000
14837KMSN MSN20030606100511906/06/03 10:05:31  5-MIN KMSN 061605Z 19009KT 5SM -RA SCT042 BKN060 BKN080 17/12 A2993 860 72 1400 190/09 RMK AO2 P0000
14837KMSN MSN20030606101011206/06/03 10:10:31  5-MIN KMSN 061610Z 18007KT 5SM -RA BKN040 BKN060 17/12 A2993 860 72 1400 180/07 RMK AO2 P0000
14837KMSN MSN20030606101511206/06/03 10:15:31  5-MIN KMSN 061615Z 19009KT 5SM -RA BKN040 BKN050 17/12 A2993 860 72 1400 190/09 RMK AO2 P0000
14837KMSN MSN20030606102011206/06/03 10:20:31  5-MIN KMSN 061620Z 18007KT 5SM -RA BKN037 BKN055 17/13 A2993 860 75 1400 180/07 RMK AO2 P0000
14837KMSN MSN20030606102510506/06/03 10:25:31  5-MIN KMSN 061625Z 19008KT 4SM -RA BKN033 17/13 A2993 850 77 1300 180/08 RMK AO2 P0000
14837KMSN MSN20030606103011906/06/03 10:30:31  5-MIN KMSN 061630Z 18008KT 4SM -RA BKN028 BKN036 BKN060 17/12 A2993 860 75 1300 180/08 RMK AO2 P0000
14837KMSN MSN20030606103511206/06/03 10:35:31  5-MIN KMSN 061635Z 18009KT 3SM -RA BKN028 BKN060 17/12 A2993 860 75 1300 180/09 RMK AO2 P0000
14837KMSN MSN20030606104012206/06/03 10:40:31  5-MIN KMSN 061640Z 18007KT 3SM -RA BKN028 OVC060 16/13 A2993 860 80 1200 180/07 RMK AO2 TWR VIS 4 P0001
14837KMSN MSN20030606104511206/06/03 10:45:31  5-MIN KMSN 061645Z 18006KT 4SM -RA BKN028 OVC060 16/13 A2992 860 80 1200 180/06 RMK AO2 P0001
14837KMSN MSN20030606105013606/06/03 10:50:31  5-MIN KMSN 061650Z 00000KT 4SM -RA BKN030 BKN039 OVC055 16/13 A2992 860 80 1200 000/00 RMK AO2 SLP132 P0001 T01610128
14837KMSN MSN20030606105511906/06/03 10:55:31  5-MIN KMSN 061655Z 00000KT 4SM -RA BKN032 BKN040 OVC055 16/13 A2992 870 80 1200 000/00 RMK AO2 P0001
14837KMSN MSN20030606110011906/06/03 11:00:31  5-MIN KMSN 061700Z 23003KT 4SM -RA BKN030 BKN055 OVC065 16/12 A2991 870 80 1200 230/03 RMK AO2 P0001
14837KMSN MSN20030606110511906/06/03 11:05:31  5-MIN KMSN 061705Z 00000KT 4SM -RA BKN030 BKN055 OVC070 16/13 A2991 870 83 1200 000/00 RMK AO2 P0001
14837KMSN MSN20030606111011906/06/03 11:10:31  5-MIN KMSN 061710Z 00000KT 4SM -RA BKN030 BKN039 OVC070 16/13 A2991 870 80 1200 000/00 RMK AO2 P0002
14837KMSN MSN20030606111511206/06/03 11:15:31  5-MIN KMSN 061715Z 00000KT 4SM -RA BKN030 OVC070 16/12 A2991 880 80 1200 000/00 RMK AO2 P0002
14837KMSN MSN20030606112011206/06/03 11:20:31  5-MIN KMSN 061720Z 00000KT 4SM -RA BKN032 OVC070 16/13 A2990 880 80 1300 000/00 RMK AO2 P0002
14837KMSN MSN20030606112511906/06/03 11:25:31  5-MIN KMSN 061725Z 01003KT 4SM -RA BKN030 BKN055 OVC070 16/13 A2990 880 83 1200 010/03 RMK AO2 P0003
14837KMSN MSN20030606113011906/06/03 11:30:31  5-MIN KMSN 061730Z 00000KT 4SM -RA BKN030 BKN050 OVC070 16/13 A2990 880 83 1200 000/00 RMK AO2 P0003
14837KMSN MSN20030606113511206/06/03 11:35:31  5-MIN KMSN 061735Z 02003KT 4SM -RA BKN030 OVC070 16/12 A2991 880 80 1200 020/03 RMK AO2 P0003
14837KMSN MSN20030606114011906/06/03 11:40:31  5-MIN KMSN 061740Z 00000KT 4SM -RA BKN030 BKN055 OVC070 16/12 A2991 880 80 1200 000/00 RMK AO2 P0003
14837KMSN MSN20030606114511906/06/03 11:45:31  5-MIN KMSN 061745Z 00000KT 4SM -RA BKN027 BKN040 OVC070 16/12 A2991 880 77 1300 000/00 RMK AO2 P0003
14837KMSN MSN20030606115016006/06/03 11:50:31  5-MIN KMSN 061750Z 00000KT 4SM -RA BKN027 BKN040 OVC070 16/12 A2991 880 77 1300 000/00 RMK AO2 SLP127 P0004 60005 T01610122 10178 20150 58000
14837KMSN MSN20030606115511906/06/03 11:55:31  5-MIN KMSN 061755Z 00000KT 4SM -RA BKN027 BKN037 OVC065 16/12 A2991 880 77 1300 000/00 RMK AO2 P0000
14837KMSN MSN20030606120011906/06/03 12:00:31  5-MIN KMSN 061800Z 00000KT 4SM -RA BKN025 BKN045 OVC065 16/13 A2991 880 80 1300 000/00 RMK AO2 P0000
14837KMSN MSN20030606120511206/06/03 12:05:31  5-MIN KMSN 061805Z 00000KT 4SM -RA BKN025 BKN045 16/12 A2990 880 80 1200 000/00 RMK AO2 P0000
14837KMSN MSN20030606121010506/06/03 12:10:31  5-MIN KMSN 061810Z 14005KT 4SM -RA BKN025 16/13 A2990 880 80 1300 140/05 RMK AO2 P0000
14837KMSN MSN20030606121511706/06/03 12:15:31  5-MIN KMSN 061815Z 15005KT 5SM HZ BKN027 BKN038 16/12 A2990 880 77 1300 150/05 RMK AO2 RAE15 P0000
14837KMSN MSN20030606122011206/06/03 12:20:31  5-MIN KMSN 061820Z 15007KT 5SM -RA BKN029 BKN038 16/12 A2990 890 77 1300 150/07 RMK AO2 P0000
14837KMSN MSN20030606122510506/06/03 12:25:31  5-MIN KMSN 061825Z 16006KT 5SM -RA BKN029 16/12 A2989 890 75 1300 160/06 RMK AO2 P0000
14837KMSN MSN20030606123012106/06/03 12:30:31  5-MIN KMSN 061830Z 17006KT 5SM -RA FEW029 SCT050 OVC120 16/12 A2989 890 75 1300 170/06 RMK AO2 P0000 $
14837KMSN MSN20030606123510706/06/03 12:35:31  5-MIN KMSN 061835Z 16006KT 5SM -RA FEW037 16/12 A2989 890 77 1300 160/06 RMK AO2 P0000 $
14837KMSN MSN20030606124010706/06/03 12:40:31  5-MIN KMSN 061840Z 16006KT 5SM -RA FEW039 16/13 A2989 890 80 1300 160/06 RMK AO2 P0000 $
14837KMSN MSN20030606124510706/06/03 12:45:31  5-MIN KMSN 061845Z 15006KT 5SM -RA FEW045 16/13 A2989 890 80 1300 150/06 RMK AO2 P0000 $
14837KMSN MSN20030606125012406/06/03 12:50:31  5-MIN KMSN 061850Z 16008KT 5SM -RA FEW042 16/13 A2989 890 80 1300 150/08 RMK AO2 SLP121 P0000 T01610128 $
14837KMSN MSN20030606125510706/06/03 12:55:31  5-MIN KMSN 061855Z 16007KT 5SM -RA FEW038 16/13 A2988 900 83 1300 160/07 RMK AO2 P0000 $
14837KMSN MSN20030606130010506/06/03 13:00:31  5-MIN KMSN 061900Z 16008KT 5SM -RA FEW070 16/13 A2988 900 80 1300 160/08 RMK AO2 P0000
14837KMSN MSN20030606130510506/06/03 13:05:31  5-MIN KMSN 061905Z 16008KT 5SM -RA SCT065 16/13 A2988 900 80 1300 160/08 RMK AO2 P0000
14837KMSN MSN20030606131010506/06/03 13:10:31  5-MIN KMSN 061910Z 15007KT 5SM -RA SCT065 16/13 A2988 900 80 1300 150/07 RMK AO2 P0000
14837KMSN MSN20030606131510506/06/03 13:15:31  5-MIN KMSN 061915Z 14008KT 5SM -RA SCT065 16/13 A2987 910 80 1300 140/08 RMK AO2 P0000
14837KMSN MSN20030606132011906/06/03 13:20:31  5-MIN KMSN 061920Z 12009KT 5SM HZ FEW065 SCT100 16/13 A2987 910 80 1300 120/09 RMK AO2 RAE16 P0000 $
14837KMSN MSN20030606132511906/06/03 13:25:31  5-MIN KMSN 061925Z 12010KT 5SM HZ FEW065 SCT095 17/13 A2987 910 77 1400 120/10 RMK AO2 RAE16 P0000 $
14837KMSN MSN20030606133011906/06/03 13:30:31  5-MIN KMSN 061930Z 14009KT 5SM HZ FEW065 SCT095 17/13 A2987 910 78 1400 140/09 RMK AO2 RAE16 P0000 $
14837KMSN MSN20030606133511206/06/03 13:35:31  5-MIN KMSN 061935Z 14010KT 5SM HZ FEW065 17/14 A2986 920 80 1400 140/10 RMK AO2 RAE16 P0000 $
14837KMSN MSN20030606134011006/06/03 13:40:31  5-MIN KMSN 061940Z 13011KT 5SM HZ FEW027 17/13 A2986 920 78 1400 130/11 RMK AO2 RAE16 P0000
14837KMSN MSN20030606134511006/06/03 13:45:31  5-MIN KMSN 061945Z 14009KT 5SM HZ FEW021 17/13 A2986 920 78 1400 140/09 RMK AO2 RAE16 P0000
14837KMSN MSN20030606135013406/06/03 13:50:31  5-MIN KMSN 061950Z 15007KT 5SM HZ FEW024 SCT031 18/13 A2985 930 75 1500 150/07 RMK AO2 RAE16 SLP109 P0000 T01780133
14837KMSN MSN20030606135511206/06/03 13:55:31  5-MIN KMSN 061955Z 13011KT 5SM HZ FEW024 BKN030 BKN100 18/13 A2986 920 72 1500 120/11 RMK AO2
14837KMSN MSN20030606140011206/06/03 14:00:31  5-MIN KMSN 062000Z 13014KT 5SM HZ FEW024 SCT035 BKN100 18/13 A2985 930 72 1500 130/14 RMK AO2
14837KMSN MSN20030606140511206/06/03 14:05:31  5-MIN KMSN 062005Z 14011KT 5SM HZ FEW024 SCT029 BKN100 18/12 A2985 930 69 1500 140/11 RMK AO2
14837KMSN MSN20030606141011806/06/03 14:10:31  5-MIN KMSN 062010Z 15016G20KT 5SM HZ FEW024 SCT029 BKN035 18/12 A2984 930 67 1600 140/16G20 RMK AO2
14837KMSN MSN20030606141511806/06/03 14:15:31  5-MIN KMSN 062015Z 14013G20KT 6SM HZ FEW024 SCT034 BKN090 18/12 A2984 940 65 1600 140/13G20 RMK AO2
14837KMSN MSN20030606142011106/06/03 14:20:31  5-MIN KMSN 062020Z 14013G20KT 6SM HZ SCT029 BKN095 18/11 A2984 940 64 1500 140/13G20 RMK AO2
14837KMSN MSN20030606142511806/06/03 14:25:31  5-MIN KMSN 062025Z 14011G19KT 6SM HZ SCT031 SCT038 BKN095 18/11 A2984 940 64 1500 140/11G19 RMK AO2
14837KMSN MSN20030606143011806/06/03 14:30:31  5-MIN KMSN 062030Z 14014G18KT 6SM HZ BKN031 BKN038 BKN090 18/12 A2984 940 67 1500 140/14G18 RMK AO2
14837KMSN MSN20030606143511806/06/03 14:35:31  5-MIN KMSN 062035Z 13013G18KT 6SM HZ SCT031 BKN038 BKN090 18/11 A2983 940 62 1500 130/13G18 RMK AO2
14837KMSN MSN20030606144011106/06/03 14:40:31  5-MIN KMSN 062040Z 15017G22KT 6SM HZ SCT034 OVC085 17/11 A2983 950 64 1500 150/17G22 RMK AO2
14837KMSN MSN20030606144511806/06/03 14:45:31  5-MIN KMSN 062045Z 14010G22KT 6SM HZ FEW032 SCT039 OVC085 17/11 A2983 940 64 1500 140/10G22 RMK AO2
14837KMSN MSN20030606145014006/06/03 14:50:31  5-MIN KMSN 062050Z 13014G17KT 6SM HZ FEW032 OVC080 17/11 A2983 950 64 1500 130/14G17 RMK AO2 SLP101 60000 T01720106 58005
14837KMSN MSN20030606145510206/06/03 14:55:31  5-MIN KMSN 062055Z 14015KT 7SM FEW034 OVC080 17/10 A2983 950 62 1500 140/15 RMK AO2
14837KMSN MSN20030606150010206/06/03 15:00:31  5-MIN KMSN 062100Z 14014KT 7SM FEW037 OVC080 17/10 A2983 950 62 1500 140/14 RMK AO2
14837KMSN MSN20030606150510106/06/03 15:05:31  5-MIN KMSN 062105Z 14012G20KT 7SM OVC075 17/10 A2983 950 62 1500 140/12G20 RMK AO2
14837KMSN MSN20030606151010206/06/03 15:10:31  5-MIN KMSN 062110Z 14012KT 7SM FEW040 OVC075 17/11 A2983 950 64 1500 140/12 RMK AO2
14837KMSN MSN20030606151510806/06/03 15:15:31  5-MIN KMSN 062115Z 13017G21KT 7SM FEW040 OVC075 17/10 A2983 950 62 1500 130/17G21 RMK AO2
14837KMSN MSN20030606152010806/06/03 15:20:31  5-MIN KMSN 062120Z 13015G21KT 7SM FEW038 OVC070 17/10 A2982 950 62 1500 130/15G21 RMK AO2
14837KMSN MSN20030606152510206/06/03 15:25:31  5-MIN KMSN 062125Z 14016KT 7SM FEW038 OVC070 17/10 A2982 960 62 1500 140/16 RMK AO2
14837KMSN MSN20030606153010806/06/03 15:30:31  5-MIN KMSN 062130Z 14015G21KT 7SM FEW038 OVC070 17/10 A2982 960 62 1500 130/15G21 RMK AO2
14837KMSN MSN20030606153510806/06/03 15:35:31  5-MIN KMSN 062135Z 15013G21KT 7SM FEW040 OVC070 17/10 A2982 960 64 1400 150/13G21 RMK AO2
14837KMSN MSN20030606154009506/06/03 15:40:31  5-MIN KMSN 062140Z 14014KT 7SM OVC070 17/11 A2981 960 67 1400 140/14 RMK AO2
14837KMSN MSN20030606154510406/06/03 15:45:31  5-MIN KMSN 062145Z 14014G19KT 6SM HZ OVC070 17/11 A2981 970 67 1400 140/14G19 RMK AO2
14837KMSN MSN20030606155011206/06/03 15:50:31  5-MIN KMSN 062150Z 13014KT 7SM OVC065 17/11 A2981 970 67 1400 130/14 RMK AO2 SLP094 T01670106
14837KMSN MSN20030606155509506/06/03 15:55:31  5-MIN KMSN 062155Z 14011KT 7SM OVC065 17/11 A2981 970 67 1400 140/11 RMK AO2
14837KMSN MSN20030606160010106/06/03 16:00:31  5-MIN KMSN 062200Z 14012G19KT 7SM OVC065 17/11 A2981 970 67 1400 140/12G19 RMK AO2
14837KMSN MSN20030606160510406/06/03 16:05:31  5-MIN KMSN 062205Z 14013G19KT 6SM HZ OVC065 17/11 A2981 970 67 1400 140/13G19 RMK AO2
14837KMSN MSN20030606161009506/06/03 16:10:31  5-MIN KMSN 062210Z 14012KT 7SM OVC065 17/11 A2980 970 67 1400 140/12 RMK AO2
14837KMSN MSN20030606161509506/06/03 16:15:31  5-MIN KMSN 062215Z 13012KT 7SM OVC060 17/11 A2980 970 67 1400 130/12 RMK AO2
14837KMSN MSN20030606162010106/06/03 16:20:31  5-MIN KMSN 062220Z 14013G18KT 7SM OVC060 17/11 A2980 970 67 1400 140/13G18 RMK AO2
14837KMSN MSN20030606162509506/06/03 16:25:31  5-MIN KMSN 062225Z 14013KT 7SM OVC060 17/11 A2980 980 67 1400 140/13 RMK AO2
14837KMSN MSN20030606163009506/06/03 16:30:31  5-MIN KMSN 062230Z 13013KT 7SM OVC060 17/11 A2980 980 67 1400 130/13 RMK AO2
14837KMSN MSN20030606163510206/06/03 16:35:31  5-MIN KMSN 062235Z 14013KT 7SM FEW049 OVC060 17/11 A2980 980 67 1400 140/13 RMK AO2
14837KMSN MSN20030606164009506/06/03 16:40:31  5-MIN KMSN 062240Z 15013KT 7SM OVC060 16/11 A2980 980 72 1400 140/13 RMK AO2
14837KMSN MSN20030606164511106/06/03 16:45:31  5-MIN KMSN 062245Z 15013KT 5SM -RA OVC060 16/11 A2980 980 72 1400 150/13 RMK AO2 RAB44 P0000
14837KMSN MSN20030606165013506/06/03 16:50:31  5-MIN KMSN 062250Z 14013KT 7SM -RA FEW048 OVC060 16/11 A2980 980 74 1300 140/13 RMK AO2 RAB44 SLP090 P0000 T01560111
14837KMSN MSN20030606165511206/06/03 16:55:31  5-MIN KMSN 062255Z 14015KT 5SM -RA SCT050 OVC060 16/11 A2980 980 74 1300 140/15 RMK AO2 P0000
14837KMSN MSN20030606170011906/06/03 17:00:31  5-MIN KMSN 062300Z 13012KT 4SM -RA FEW033 SCT050 OVC060 16/12 A2980 980 77 1300 130/12 RMK AO2 P0001
14837KMSN MSN20030606170511906/06/03 17:05:31  5-MIN KMSN 062305Z 13011KT 4SM -RA SCT035 BKN050 OVC060 16/12 A2979 980 77 1300 130/11 RMK AO2 P0001
14837KMSN MSN20030606171011906/06/03 17:10:31  5-MIN KMSN 062310Z 13010KT 4SM -RA SCT033 BKN050 OVC060 15/12 A2979 980 80 1200 130/10 RMK AO2 P0001
14837KMSN MSN20030606171511906/06/03 17:15:31  5-MIN KMSN 062315Z 14009KT 4SM -RA SCT030 BKN036 OVC060 15/12 A2979 980 80 1200 140/09 RMK AO2 P0001
14837KMSN MSN20030606172011906/06/03 17:20:31  5-MIN KMSN 062320Z 13012KT 4SM -RA SCT027 BKN034 OVC050 15/12 A2979 980 83 1300 130/12 RMK AO2 P0001
14837KMSN MSN20030606172511206/06/03 17:25:31  5-MIN KMSN 062325Z 14010KT 3SM -RA SCT025 OVC034 15/12 A2980 980 83 1200 130/10 RMK AO2 P0001
14837KMSN MSN20030606173011506/06/03 17:30:31  5-MIN KMSN 062330Z 14010KT 3SM -RA BR BKN025 OVC034 14/12 A2980 980 86 1200 140/10 RMK AO2 P0001
14837KMSN MSN20030606173511506/06/03 17:35:31  5-MIN KMSN 062335Z 15010KT 3SM -RA BR BKN023 OVC030 14/12 A2980 980 86 1200 150/10 RMK AO2 P0002
14837KMSN MSN20030606174012106/06/03 17:40:31  5-MIN KMSN 062340Z 14011KT 3SM RA BR SCT023 BKN029 OVC035 14/12 A2980 980 86 1200 140/11 RMK AO2 P0003
14837KMSN MSN20030606174512806/06/03 17:45:31  5-MIN KMSN 062345Z 15011KT 2 1/2SM RA BR BKN023 OVC032 14/12 A2980 980 90 1100 150/11 RMK AO2 SFC VIS 3 P0004
14837KMSN MSN20030606175016906/06/03 17:50:31  5-MIN KMSN 062350Z 15009KT 2SM RA BR BKN023 OVC032 14/12 A2980 980 90 1100 150/09 RMK AO2 TWR VIS 2 1/2 SLP089 P0005 60005 T01390122 10183 20139 56024
14837KMSN MSN20030606175513606/06/03 17:55:31  5-MIN KMSN 062355Z 15008KT 2SM -RA BR SCT021 BKN027 OVC032 14/13 A2980 980 93 1100 150/08 RMK AO2 TWR VIS 2 1/2 P0000
14837KMSN MSN20030606180013606/06/03 18:00:31  5-MIN KMSN 070000Z 15008KT 2SM -RA BR FEW016 BKN028 OVC034 14/13 A2980 980 93 1100 150/08 RMK AO2 TWR VIS 2 1/2 P0000
14837KMSN MSN20030606180514006/06/03 18:05:31  5-MIN KMSN 070005Z 15007KT 1 1/2SM -RA BR SCT014 BKN024 OVC034 14/13 A2980 980 93 1100 150/07 RMK AO2 TWR VIS 2 1/2 P0001
14837KMSN MSN20030606181012606/06/03 18:10:31  5-MIN KMSN 070010Z 15007KT 1 1/2SM -RA BR BKN014 BKN021 OVC028 14/13 A2980 980 93 1100 150/07 RMK AO2 P0001
14837KMSN MSN20030606181512606/06/03 18:15:31  5-MIN KMSN 070015Z 15007KT 1 1/2SM -RA BR BKN014 BKN020 OVC027 14/13 A2980 980 93 1100 150/07 RMK AO2 P0002
14837KMSN MSN20030606182013606/06/03 18:20:31  5-MIN KMSN 070020Z 15008KT 1SM -RA BR FEW006 BKN015 OVC027 14/13 A2980 980 93 1100 150/08 RMK AO2 TWR VIS 1 1/2 P0003
14837KMSN MSN20030606182512206/06/03 18:25:31  5-MIN KMSN 070025Z 15008KT 1SM -RA BR FEW006 BKN019 OVC025 14/13 A2979 980 93 1100 140/08 RMK AO2 P0003
14837KMSN MSN20030606183012206/06/03 18:30:31  5-MIN KMSN 070030Z 14013KT 1SM -RA BR FEW006 BKN015 OVC027 14/13 A2979 980 93 1100 140/13 RMK AO2 P0004
14837KMSN MSN20030606183512206/06/03 18:35:31  5-MIN KMSN 070035Z 14012KT 1SM -RA BR FEW006 BKN017 OVC024 14/13 A2979 980 93 1100 140/12 RMK AO2 P0004
14837KMSN MSN20030606184012206/06/03 18:40:31  5-MIN KMSN 070040Z 15011KT 1SM -RA BR FEW006 SCT012 OVC019 14/13 A2979 980 93 1100 150/11 RMK AO2 P0004
14837KMSN MSN20030606184513606/06/03 18:45:31  5-MIN KMSN 070045Z 15009KT 1SM -RA BR SCT008 BKN014 OVC021 14/13 A2979 980 93 1100 150/09 RMK AO2 SFC VIS 1 1/2 P0004
14837KMSN MSN20030606185016506/06/03 18:50:31  5-MIN KMSN 070050Z 15009KT 1SM -RA BR FEW006 BKN010 OVC024 14/13 A2979 990 93 1100 150/09 RMK AO2 SFC VIS 1 1/2 CIG 008V011 SLP087 P0004 T01390128
14837KMSN MSN20030606185511506/06/03 18:55:31  5-MIN KMSN 070055Z 15010KT 2SM -RA BR SCT006 OVC013 14/13 A2979 990 93 1100 150/10 RMK AO2 P0000
14837KMSN MSN20030606190013406/06/03 19:00:31  5-MIN KMSN 070100Z 14013KT 2SM -RA BR BKN006 BKN013 OVC017 14/13 A2979 990 93 1100 140/13 RMK AO2 CIG 005V009 P0001
14837KMSN MSN20030606190513306/06/03 19:05:31  5-MIN KMSN 070105Z 14011G17KT 2SM -RA BR BKN006 OVC013 14/13 A2978 990 93 1100 140/11G17 RMK AO2 CIG 005V010 P0001
14837KMSN MSN20030606191012806/06/03 19:10:31  5-MIN KMSN 070110Z 14013KT 2SM -RA BR BKN006 OVC013 13/13 A2978 1000 96 1100 140/13 RMK AO2 CIG 005V009 P0001
14837KMSN MSN20030606191513406/06/03 19:15:31  5-MIN KMSN 070115Z 14012KT 2SM -RA BR BKN006 BKN011 OVC017 13/13 A2978 990 96 1100 140/12 RMK AO2 CIG 005V009 P0001
14837KMSN MSN20030606192013006/06/03 19:20:31  5-MIN KMSN 070120Z 14012KT 2SM BR BKN008 OVC014 13/13 A2978 1000 96 1100 140/12 RMK AO2 RAE18 CIG 005V009 P0001
14837KMSN MSN20030606192511706/06/03 19:25:31  5-MIN KMSN 070125Z 14010KT 2SM BR BKN008 OVC014 13/13 A2978 990 96 1100 140/10 RMK AO2 RAE18 P0001
14837KMSN MSN20030606193012906/06/03 19:30:31  5-MIN KMSN 070130Z 14011KT 2SM BR BKN008 OVC014 13/13 A2978 990 96 1100 140/11 RMK AO2 RAE18 CIG 006V010 P0001
14837KMSN MSN20030606193512906/06/03 19:35:31  5-MIN KMSN 070135Z 14010KT 2SM BR BKN008 OVC014 13/12 A2978 990 93 1100 140/10 RMK AO2 RAE18 CIG 006V013 P0001
14837KMSN MSN20030606194014306/06/03 19:40:31  5-MIN KMSN 070140Z 14009KT 2SM BR BKN008 OVC014 14/12 A2978 990 90 1100 140/09 RMK AO2 SFC VIS 2 1/2 RAE18 CIG 005V009 P0001
14837KMSN MSN20030606194514306/06/03 19:45:31  5-MIN KMSN 070145Z 15009KT 2SM BR BKN008 OVC014 14/13 A2978 990 93 1100 150/09 RMK AO2 SFC VIS 2 1/2 RAE18 CIG 005V009 P0001
14837KMSN MSN20030606195016206/06/03 19:50:31  5-MIN KMSN 070150Z 16010KT 2 1/2SM -DZ BR OVC008 14/13 A2978 990 93 1100 160/10 RMK AO2 TWR VIS 3 RAE18DZB47 CIG 005V013 SLP085 P0001 T01390128
14837KMSN MSN20030606195513006/06/03 19:55:31  5-MIN KMSN 070155Z 16011KT 3SM -DZ BR OVC008 14/13 A2978 990 93 1100 160/11 RMK AO2 SFC VIS 3 CIG 005V013 P0000
14837KMSN MSN20030606200013006/06/03 20:00:31  5-MIN KMSN 070200Z 17009KT 3SM -DZ BR OVC008 14/13 A2979 990 93 1100 170/09 RMK AO2 SFC VIS 3 CIG 005V010 P0000
14837KMSN MSN20030606200513006/06/03 20:05:31  5-MIN KMSN 070205Z 17009KT 3SM -DZ BR OVC008 14/13 A2979 990 93 1100 170/09 RMK AO2 SFC VIS 3 CIG 005V014 P0000
14837KMSN MSN20030606201012006/06/03 20:10:31  5-MIN KMSN 070210Z 17010KT 3SM -DZ BR OVC008 14/13 A2979 990 93 1100 170/10 RMK AO2 CIG 006V011 P0000
14837KMSN MSN20030606201512006/06/03 20:15:31  5-MIN KMSN 070215Z 17008KT 3SM -DZ BR OVC008 14/13 A2979 990 93 1100 170/08 RMK AO2 CIG 006V011 P0000
14837KMSN MSN20030606202012206/06/03 20:20:31  5-MIN KMSN 070220Z 18009KT 3SM BR OVC008 14/13 A2979 990 93 1100 180/09 RMK AO2 DZE16 CIG 006V011 P0000
14837KMSN MSN20030606202512806/06/03 20:25:31  5-MIN KMSN 070225Z 17014G17KT 3SM BR OVC008 14/13 A2979 990 93 1100 170/14G17 RMK AO2 DZE16 CIG 006V011 P0000
14837KMSN MSN20030606203011606/06/03 20:30:31  5-MIN KMSN 070230Z 18012G17KT 3SM BR OVC008 14/13 A2979 980 93 1100 180/12G17 RMK AO2 DZE16 P0000
14837KMSN MSN20030606203511006/06/03 20:35:31  5-MIN KMSN 070235Z 18010KT 3SM BR OVC008 14/13 A2979 980 90 1200 180/10 RMK AO2 DZE16 P0000
14837KMSN MSN20030606204012006/06/03 20:40:31  5-MIN KMSN 070240Z 18009KT 3SM BR OVC008 14/13 A2979 980 90 1200 180/09 RMK AO2 SFC VIS 4 DZE16 P0000
14837KMSN MSN20030606204512006/06/03 20:45:31  5-MIN KMSN 070245Z 18009KT 3SM BR OVC008 14/13 A2979 980 90 1200 180/09 RMK AO2 SFC VIS 4 DZE16 P0000
14837KMSN MSN20030606205014806/06/03 20:50:31  5-MIN KMSN 070250Z 18009KT 3SM -RA BR OVC008 14/13 A2979 980 90 1200 180/09 RMK AO2 DZE16RAB50 SLP088 P0000 60005 T01440128 55012
14837KMSN MSN20030606205510806/06/03 20:55:31  5-MIN KMSN 070255Z 17011KT 3SM -RA BR OVC008 14/13 A2979 990 93 1100 170/11 RMK AO2 P0001
14837KMSN MSN20030606210010806/06/03 21:00:31  5-MIN KMSN 070300Z 16012KT 3SM -RA BR OVC008 14/13 A2978 990 90 1200 160/12 RMK AO2 P0001
14837KMSN MSN20030606210510806/06/03 21:05:31  5-MIN KMSN 070305Z 16013KT 3SM -RA BR OVC008 14/13 A2978 990 96 1100 160/13 RMK AO2 P0001
14837KMSN MSN20030606211012006/06/03 21:10:31  5-MIN KMSN 070310Z 18011KT 3SM -RA BR OVC008 14/13 A2979 990 96 1100 180/11 RMK AO2 CIG 006V010 P0001
14837KMSN MSN20030606211512006/06/03 21:15:31  5-MIN KMSN 070315Z 18011KT 3SM -RA BR OVC008 14/13 A2979 990 96 1100 180/11 RMK AO2 CIG 006V011 P0001
14837KMSN MSN20030606212013106/06/03 21:20:31  5-MIN KMSN 070320Z 18010KT 3SM -DZ BR OVC008 14/13 A2979 990 93 1200 180/10 RMK AO2 RAE17DZB17 CIG 006V011 P0001
14837KMSN MSN20030606212513106/06/03 21:25:31  5-MIN KMSN 070325Z 19007KT 3SM -DZ BR OVC008 14/13 A2979 980 93 1200 190/07 RMK AO2 RAE17DZB17 CIG 006V011 P0001
14837KMSN MSN20030606213013106/06/03 21:30:31  5-MIN KMSN 070330Z 19009KT 3SM -DZ BR OVC006 14/13 A2979 980 93 1200 190/09 RMK AO2 RAE17DZB17 CIG 006V011 P0001
14837KMSN MSN20030606213513106/06/03 21:35:31  5-MIN KMSN 070335Z 19009KT 3SM -DZ BR OVC008 14/13 A2979 990 93 1200 190/09 RMK AO2 RAE17DZB17 CIG 006V011 P0001
14837KMSN MSN20030606214013706/06/03 21:40:31  5-MIN KMSN 070340Z 19009KT 3SM BR BKN008 OVC013 14/13 A2979 990 93 1200 190/09 RMK AO2 RAE17DZB17E40 CIG 006V011 P0001
14837KMSN MSN20030606214513706/06/03 21:45:31  5-MIN KMSN 070345Z 19007KT 3SM BR BKN008 OVC013 14/13 A2979 990 93 1200 190/07 RMK AO2 RAE17DZB17E40 CIG 006V011 P0001
14837KMSN MSN20030606215014206/06/03 21:50:31  5-MIN KMSN 070350Z 19007KT 3SM BR BKN008 OVC013 14/13 A2979 990 93 1200 190/07 RMK AO2 RAE17DZB17E40 SLP086 P0001 T01440133
14837KMSN MSN20030606215511706/06/03 21:55:31  5-MIN KMSN 070355Z 19006KT 3SM BR BKN008 OVC015 14/13 A2979 990 93 1200 190/06 RMK AO2 CIG 006V011
14837KMSN MSN20030606220011006/06/03 22:00:31  5-MIN KMSN 070400Z 19008KT 3SM BR OVC008 14/13 A2979 990 93 1200 190/08 RMK AO2 CIG 006V012
14837KMSN MSN20030606220511006/06/03 22:05:31  5-MIN KMSN 070405Z 19006KT 3SM BR OVC008 14/13 A2979 990 93 1200 190/06 RMK AO2 CIG 006V012
14837KMSN MSN20030606221011006/06/03 22:10:31  5-MIN KMSN 070410Z 19006KT 3SM BR OVC008 14/13 A2979 990 93 1200 190/06 RMK AO2 CIG 006V011
14837KMSN MSN20030606221511006/06/03 22:15:31  5-MIN KMSN 070415Z 18005KT 3SM BR OVC008 14/13 A2979 990 93 1200 180/05 RMK AO2 CIG 006V012
14837KMSN MSN20030606222011706/06/03 22:20:31  5-MIN KMSN 070420Z 19005KT 3SM BR BKN008 OVC014 14/13 A2979 990 93 1200 190/05 RMK AO2 CIG 006V011
14837KMSN MSN20030606222512406/06/03 22:25:31  5-MIN KMSN 070425Z 20005KT 3SM BR BKN008 BKN014 OVC023 14/13 A2979 990 93 1200 200/05 RMK AO2 CIG 006V011
14837KMSN MSN20030606223012406/06/03 22:30:31  5-MIN KMSN 070430Z 21005KT 3SM BR BKN008 BKN023 OVC045 14/13 A2979 990 93 1200 210/05 RMK AO2 CIG 006V013
14837KMSN MSN20030606223511206/06/03 22:35:31  5-MIN KMSN 070435Z 20003KT 3SM BR SCT008 BKN023 OVC043 14/13 A2979 990 93 1200 200/03 RMK AO2
14837KMSN MSN20030606224011206/06/03 22:40:31  5-MIN KMSN 070440Z VRB03KT 3SM BR SCT008 BKN023 OVC044 14/13 A2979 990 93 1200 VRB/03 RMK AO2
14837KMSN MSN20030606224511206/06/03 22:45:31  5-MIN KMSN 070445Z 20003KT 3SM BR FEW008 BKN037 OVC044 14/13 A2979 990 93 1200 200/03 RMK AO2
14837KMSN MSN20030606225012906/06/03 22:50:31  5-MIN KMSN 070450Z 20005KT 3SM BR FEW008 BKN037 BKN044 14/13 A2979 990 93 1200 200/05 RMK AO2 SLP087 T01440133
14837KMSN MSN20030606225511206/06/03 22:55:31  5-MIN KMSN 070455Z 21006KT 3SM BR FEW008 SCT022 OVC044 14/13 A2979 980 93 1200 210/06 RMK AO2
14837KMSN MSN20030606230011206/06/03 23:00:31  5-MIN KMSN 070500Z 21005KT 3SM BR FEW008 SCT022 OVC044 14/13 A2979 990 93 1200 210/05 RMK AO2
14837KMSN MSN20030606230511206/06/03 23:05:31  5-MIN KMSN 070505Z 21005KT 3SM BR FEW016 BKN022 OVC046 14/13 A2979 980 93 1200 210/05 RMK AO2
14837KMSN MSN20030606231011206/06/03 23:10:31  5-MIN KMSN 070510Z VRB05KT 3SM BR SCT015 BKN022 OVC044 14/13 A2979 990 93 1200 VRB/05 RMK AO2
14837KMSN MSN20030606231511206/06/03 23:15:31  5-MIN KMSN 070515Z 21004KT 3SM BR BKN015 BKN022 OVC044 14/13 A2979 990 93 1200 210/04 RMK AO2
14837KMSN MSN20030606232010506/06/03 23:20:31  5-MIN KMSN 070520Z 22005KT 3SM BR BKN017 OVC022 14/13 A2979 990 93 1200 220/05 RMK AO2
14837KMSN MSN20030606232510506/06/03 23:25:31  5-MIN KMSN 070525Z VRB04KT 3SM BR BKN015 OVC022 14/13 A2979 990 93 1200 VRB/04 RMK AO2
14837KMSN MSN20030606233009806/06/03 23:30:31  5-MIN KMSN 070530Z 20004KT 3SM BR OVC015 14/13 A2979 990 90 1200 200/04 RMK AO2
14837KMSN MSN20030606233509806/06/03 23:35:31  5-MIN KMSN 070535Z 21005KT 4SM BR OVC015 14/13 A2978 990 90 1200 210/05 RMK AO2
14837KMSN MSN20030606234009806/06/03 23:40:31  5-MIN KMSN 070540Z 20005KT 4SM BR OVC013 14/13 A2978 990 90 1200 200/05 RMK AO2
14837KMSN MSN20030606234509806/06/03 23:45:31  5-MIN KMSN 070545Z 20004KT 4SM BR OVC013 14/13 A2978 990 90 1200 200/04 RMK AO2
14837KMSN MSN20030606235014906/06/03 23:50:31  5-MIN KMSN 070550Z 21005KT 4SM BR OVC013 14/13 A2978 990 90 1200 210/05 RMK AO2 SLP084 60006 T01440128 10144 20133 401830117 55002
14837KMSN MSN20030606235509806/06/03 23:55:31  5-MIN KMSN 070555Z 21006KT 4SM BR OVC013 14/13 A2978 990 90 1200 210/06 RMK AO2
14837KMSN MSN20030607000009806/07/03 00:00:31  5-MIN KMSN 070600Z 20005KT 4SM BR OVC011 14/13 A2978 990 90 1200 200/05 RMK AO2
14837KMSN MSN20030607000509806/07/03 00:05:31  5-MIN KMSN 070605Z 20003KT 4SM BR BKN011 14/13 A2978 990 93 1100 200/03 RMK AO2
14837KMSN MSN20030607001011106/07/03 00:10:31  5-MIN KMSN 070610Z 21005KT 4SM BR BKN011 14/12 A2978 1000 90 1100 200/05 RMK AO2 CIG 008V013
14837KMSN MSN20030607001511106/07/03 00:15:31  5-MIN KMSN 070615Z VRB05KT 3SM BR BKN011 14/13 A2978 1000 93 1100 VRB/05 RMK AO2 CIG 008V013
14837KMSN MSN20030607002011106/07/03 00:20:31  5-MIN KMSN 070620Z 21006KT 4SM BR BKN009 14/12 A2978 1000 90 1100 210/06 RMK AO2 CIG 008V013
14837KMSN MSN20030607002509906/07/03 00:25:31  5-MIN KMSN 070625Z 22006KT 5SM BR SCT009 14/12 A2978 1000 90 1100 220/06 RMK AO2
14837KMSN MSN20030607003009906/07/03 00:30:31  5-MIN KMSN 070630Z 20005KT 5SM BR SCT009 14/12 A2977 1000 90 1100 200/05 RMK AO2
14837KMSN MSN20030607003509906/07/03 00:35:31  5-MIN KMSN 070635Z 21004KT 5SM BR SCT009 14/12 A2977 1000 90 1100 210/04 RMK AO2
14837KMSN MSN20030607004009906/07/03 00:40:31  5-MIN KMSN 070640Z 22004KT 5SM BR SCT009 14/12 A2978 1000 90 1100 220/04 RMK AO2
14837KMSN MSN20030607004509906/07/03 00:45:31  5-MIN KMSN 070645Z 23004KT 4SM BR BKN009 14/12 A2978 1000 90 1100 220/04 RMK AO2
14837KMSN MSN20030607005011606/07/03 00:50:31  5-MIN KMSN 070650Z 22005KT 4SM BR BKN009 14/12 A2977 1000 90 1100 220/05 RMK AO2 SLP082 T01390122
14837KMSN MSN20030607005511106/07/03 00:55:31  5-MIN KMSN 070655Z VRB05KT 3SM BR BKN009 14/12 A2978 1000 90 1100 VRB/05 RMK AO2 CIG 007V011
14837KMSN MSN20030607010011806/07/03 01:00:31  5-MIN KMSN 070700Z VRB05KT 3SM BR BKN009 OVC013 14/12 A2978 1000 90 1100 VRB/05 RMK AO2 CIG 007V012
14837KMSN MSN20030607010511106/07/03 01:05:31  5-MIN KMSN 070705Z VRB03KT 3SM BR OVC009 14/12 A2978 1000 90 1100 VRB/03 RMK AO2 CIG 007V012
14837KMSN MSN20030607011011106/07/03 01:10:31  5-MIN KMSN 070710Z VRB03KT 3SM BR OVC009 14/12 A2977 1000 90 1100 VRB/03 RMK AO2 CIG 007V012
14837KMSN MSN20030607011511106/07/03 01:15:31  5-MIN KMSN 070715Z VRB04KT 3SM BR OVC009 14/12 A2977 1000 90 1100 VRB/04 RMK AO2 CIG 007V011
14837KMSN MSN20030607012011106/07/03 01:20:31  5-MIN KMSN 070720Z VRB04KT 3SM BR OVC009 14/12 A2977 1000 90 1100 VRB/04 RMK AO2 CIG 007V012
14837KMSN MSN20030607012511106/07/03 01:25:31  5-MIN KMSN 070725Z VRB04KT 4SM BR OVC009 14/12 A2977 1000 90 1100 VRB/04 RMK AO2 CIG 007V011
14837KMSN MSN20030607013009906/07/03 01:30:31  5-MIN KMSN 070730Z 22006KT 4SM BR OVC009 14/12 A2977 1000 90 1100 220/06 RMK AO2
14837KMSN MSN20030607013509906/07/03 01:35:31  5-MIN KMSN 070735Z 22005KT 4SM BR OVC009 14/12 A2978 1000 90 1100 210/05 RMK AO2
14837KMSN MSN20030607014009906/07/03 01:40:31  5-MIN KMSN 070740Z 22004KT 4SM BR OVC009 14/12 A2978 1000 90 1100 210/04 RMK AO2
14837KMSN MSN20030607014509906/07/03 01:45:31  5-MIN KMSN 070745Z 22006KT 4SM BR OVC009 14/12 A2977 1000 90 1100 220/06 RMK AO2
14837KMSN MSN20030607015011606/07/03 01:50:31  5-MIN KMSN 070750Z 21005KT 4SM BR BKN009 14/12 A2977 1000 90 1100 210/05 RMK AO2 SLP079 T01390122
14837KMSN MSN20030607015509906/07/03 01:55:31  5-MIN KMSN 070755Z 21004KT 4SM BR OVC009 14/12 A2977 1000 90 1100 210/04 RMK AO2
14837KMSN MSN20030607020009906/07/03 02:00:31  5-MIN KMSN 070800Z 22005KT 4SM BR OVC009 13/12 A2977 1000 93 1100 220/05 RMK AO2
14837KMSN MSN20030607020509906/07/03 02:05:31  5-MIN KMSN 070805Z 23003KT 4SM BR BKN009 13/12 A2977 1000 93 1100 230/03 RMK AO2
14837KMSN MSN20030607021009906/07/03 02:10:31  5-MIN KMSN 070810Z 21003KT 4SM BR BKN009 13/12 A2977 1000 89 1100 210/03 RMK AO2
14837KMSN MSN20030607021509906/07/03 02:15:31  5-MIN KMSN 070815Z 00000KT 4SM BR BKN009 13/12 A2977 1000 89 1100 000/00 RMK AO2
14837KMSN MSN20030607022009906/07/03 02:20:31  5-MIN KMSN 070820Z 00000KT 4SM BR SCT009 13/12 A2977 1000 89 1100 000/00 RMK AO2
14837KMSN MSN20030607022509906/07/03 02:25:31  5-MIN KMSN 070825Z 00000KT 4SM BR SCT009 13/12 A2977 1000 93 1000 000/00 RMK AO2
14837KMSN MSN20030607023010606/07/03 02:30:31  5-MIN KMSN 070830Z 00000KT 4SM BR FEW009 SCT025 13/12 A2977 1000 93 1000 000/00 RMK AO2
14837KMSN MSN20030607023510606/07/03 02:35:31  5-MIN KMSN 070835Z 21003KT 3SM BR FEW009 BKN023 13/12 A2977 1000 93 1000 210/03 RMK AO2
14837KMSN MSN20030607024010606/07/03 02:40:31  5-MIN KMSN 070840Z 22003KT 3SM BR SCT009 BKN023 13/12 A2978 1000 93 1000 220/03 RMK AO2
14837KMSN MSN20030607024510606/07/03 02:45:31  5-MIN KMSN 070845Z 22003KT 3SM BR SCT009 BKN023 13/12 A2978 1000 96 1000 210/03 RMK AO2
14837KMSN MSN20030607025013206/07/03 02:50:31  5-MIN KMSN 070850Z 00000KT 2 1/2SM BR BKN009 BKN023 12/12 A2978 1000 96 900 000/00 RMK AO2 SLP083 T01220117 58003
14837KMSN MSN20030607025512206/07/03 02:55:31  5-MIN KMSN 070855Z 00000KT 2 1/2SM BR BKN009 BKN023 13/12 A2978 1000 93 1000 000/00 RMK AO2 CIG 006V010
14837KMSN MSN20030607030012206/07/03 03:00:31  5-MIN KMSN 070900Z 00000KT 2 1/2SM BR BKN009 BKN014 13/12 A2978 1000 96 1000 000/00 RMK AO2 CIG 006V010
14837KMSN MSN20030607030511006/07/03 03:05:31  5-MIN KMSN 070905Z 00000KT 2 1/2SM BR SCT009 BKN014 13/12 A2978 1000 96 1000 000/00 RMK AO2
14837KMSN MSN20030607031010606/07/03 03:10:31  5-MIN KMSN 070910Z 00000KT 3SM BR SCT009 OVC014 13/12 A2978 1000 93 1100 000/00 RMK AO2
14837KMSN MSN20030607031510606/07/03 03:15:31  5-MIN KMSN 070915Z 00000KT 3SM BR SCT009 OVC014 13/12 A2977 1000 93 1000 000/00 RMK AO2
14837KMSN MSN20030607032010606/07/03 03:20:31  5-MIN KMSN 070920Z 00000KT 3SM BR FEW009 OVC014 13/12 A2977 1000 96 1000 000/00 RMK AO2
14837KMSN MSN20030607032509906/07/03 03:25:31  5-MIN KMSN 070925Z 00000KT 3SM BR OVC014 13/12 A2977 1000 93 1000 000/00 RMK AO2
14837KMSN MSN20030607033009906/07/03 03:30:31  5-MIN KMSN 070930Z 00000KT 3SM BR OVC014 13/12 A2978 1000 93 1000 000/00 RMK AO2
14837KMSN MSN20030607033509906/07/03 03:35:31  5-MIN KMSN 070935Z 00000KT 3SM BR OVC012 13/12 A2978 1000 93 1000 000/00 RMK AO2
14837KMSN MSN20030607034009806/07/03 03:40:31  5-MIN KMSN 070940Z 00000KT 3SM BR OVC012 13/12 A2978 990 93 1100 000/00 RMK AO2
14837KMSN MSN20030607034509906/07/03 03:45:31  5-MIN KMSN 070945Z 00000KT 3SM BR OVC012 13/12 A2978 1000 93 1100 000/00 RMK AO2
14837KMSN MSN20030607035011606/07/03 03:50:31  5-MIN KMSN 070950Z 00000KT 3SM BR OVC012 13/12 A2977 1000 93 1100 000/00 RMK AO2 SLP082 T01330122
14837KMSN MSN20030607035509906/07/03 03:55:31  5-MIN KMSN 070955Z 00000KT 3SM BR OVC012 13/12 A2978 1000 89 1100 000/00 RMK AO2
14837KMSN MSN20030607040009906/07/03 04:00:31  5-MIN KMSN 071000Z 00000KT 3SM BR OVC012 13/12 A2977 1000 93 1000 000/00 RMK AO2
14837KMSN MSN20030607040510306/07/03 04:05:31  5-MIN KMSN 071005Z 00000KT 2 1/2SM BR OVC010 13/12 A2978 1000 93 1000 000/00 RMK AO2
14837KMSN MSN20030607041010306/07/03 04:10:31  5-MIN KMSN 071010Z 00000KT 2 1/2SM BR OVC010 13/12 A2978 1000 93 1000 000/00 RMK AO2
14837KMSN MSN20030607041510306/07/03 04:15:31  5-MIN KMSN 071015Z 00000KT 2 1/2SM BR OVC010 13/12 A2978 1000 96 1000 000/00 RMK AO2
14837KMSN MSN20030607042010306/07/03 04:20:31  5-MIN KMSN 071020Z 00000KT 2 1/2SM BR OVC010 13/12 A2978 1000 93 1000 000/00 RMK AO2
14837KMSN MSN20030607042510306/07/03 04:25:31  5-MIN KMSN 071025Z 00000KT 2 1/2SM BR OVC010 13/12 A2978 1000 93 1000 000/00 RMK AO2
14837KMSN MSN20030607043010106/07/03 04:30:31  5-MIN KMSN 071030Z 00000KT 1 1/2SM BR OVC010 12/12 A2978 990 96 900 000/00 RMK AO2
14837KMSN MSN20030607043510106/07/03 04:35:31  5-MIN KMSN 071035Z 00000KT 1 1/4SM BR BKN010 12/12 A2979 990 96 900 000/00 RMK AO2
14837KMSN MSN20030607044009706/07/03 04:40:31  5-MIN KMSN 071040Z 00000KT 1SM BR BKN010 12/12 A2979 980 96 900 000/00 RMK AO2
14837KMSN MSN20030607044510106/07/03 04:45:31  5-MIN KMSN 071045Z 00000KT 1 1/2SM BR BKN010 12/11 A2979 990 96 900 000/00 RMK AO2
14837KMSN MSN20030607045011906/07/03 04:50:31  5-MIN KMSN 071050Z 00000KT 1 1/4SM BR BKN010 13/12 A2979 990 93 1000 000/00 RMK AO2 SLP087 T01280117
14837KMSN MSN20030607045510106/07/03 04:55:31  5-MIN KMSN 071055Z 00000KT 1 3/4SM BR BKN010 12/12 A2979 990 96 900 000/00 RMK AO2
14837KMSN MSN20030607050013006/07/03 05:00:31  5-MIN KMSN 071100Z 00000KT 1 3/4SM BR BKN010 BKN080 12/12 A2979 980 96 900 000/00 RMK AO2 TWR VIS 4 CIG 008V012
14837KMSN MSN20030607050513606/07/03 05:05:31  5-MIN KMSN 071105Z 24003KT 1 1/2SM BCFG BR BKN010 BKN080 12/12 A2980 980 100 900 240/03 RMK AO2 TWR VIS 4 CIG 008V012
14837KMSN MSN20030607051012306/07/03 05:10:31  5-MIN KMSN 071110Z 00000KT 1 1/2SM BCFG BR SCT010 BKN080 12/12 A2980 980 96 900 000/00 RMK AO2 TWR VIS 4
14837KMSN MSN20030607051512006/07/03 05:15:31  5-MIN KMSN 071115Z 00000KT 2SM BCFG BR FEW010 BKN080 13/12 A2980 980 96 1000 000/00 RMK AO2 TWR VIS 4
14837KMSN MSN20030607052012006/07/03 05:20:31  5-MIN KMSN 071120Z 00000KT 2SM BCFG BR SCT010 OVC080 13/12 A2980 980 93 1000 000/00 RMK AO2 TWR VIS 4
14837KMSN MSN20030607052512006/07/03 05:25:31  5-MIN KMSN 071125Z 00000KT 2SM BCFG BR SCT008 BKN080 13/12 A2980 980 93 1000 000/00 RMK AO2 TWR VIS 4
14837KMSN MSN20030607053012006/07/03 05:30:31  5-MIN KMSN 071130Z 18003KT 2SM BCFG BR SCT008 BKN080 13/12 A2980 970 93 1000 180/03 RMK AO2 TWR VIS 4
14837KMSN MSN20030607053511906/07/03 05:35:31  5-MIN KMSN 071135Z 00000KT 2 1/2SM BR SCT008 BKN075 13/12 A2980 970 93 1000 000/00 RMK AO2 TWR VIS 4
14837KMSN MSN20030607054011906/07/03 05:40:31  5-MIN KMSN 071140Z 20003KT 2 1/2SM BR BKN008 BKN075 13/12 A2980 980 93 1000 200/03 RMK AO2 TWR VIS 4
14837KMSN MSN20030607054511506/07/03 05:45:31  5-MIN KMSN 071145Z 20004KT 3SM BR BKN008 BKN075 13/12 A2980 980 93 1000 200/04 RMK AO2 TWR VIS 4
14837KMSN MSN20030607055016506/07/03 05:50:31  5-MIN KMSN 071150Z 21004KT 2 1/2SM BCFG BR BKN008 BKN075 13/12 A2979 980 93 1100 210/04 RMK AO2 TWR VIS 4 SLP089 70017 T01330122 10144 20117 55001
14837KMSN MSN20030607055513606/07/03 05:55:31  5-MIN KMSN 071155Z VRB04KT 2 1/2SM BCFG BR BKN008 OVC075 14/12 A2979 980 90 1100 VRB/04 RMK AO2 TWR VIS 4 CIG 007V012
14837KMSN MSN20030607060012406/07/03 06:00:31  5-MIN KMSN 071200Z 18005KT 1 1/2SM BCFG BR BKN008 BKN075 13/12 A2979 980 93 1100 180/05 RMK AO2 TWR VIS 4
14837KMSN MSN20030607060512406/07/03 06:05:31  5-MIN KMSN 071205Z 18006KT 1 1/2SM BCFG BR BKN008 BKN075 14/12 A2979 980 90 1100 170/06 RMK AO2 TWR VIS 2
14837KMSN MSN20030607061012406/07/03 06:10:31  5-MIN KMSN 071210Z 18007KT 1 1/2SM BCFG BR BKN008 BKN075 14/12 A2979 980 90 1100 180/07 RMK AO2 TWR VIS 2
14837KMSN MSN20030607061510306/07/03 06:15:31  5-MIN KMSN 071215Z 18007KT 2SM BCFG BR OVC008 14/12 A2980 980 90 1100 180/07 RMK AO2
14837KMSN MSN20030607062010306/07/03 06:20:31  5-MIN KMSN 071220Z 19007KT 2SM BCFG BR OVC008 14/12 A2980 980 90 1100 180/07 RMK AO2
14837KMSN MSN20030607062511706/07/03 06:25:31  5-MIN KMSN 071225Z 21004KT 2SM BCFG BR OVC008 14/12 A2980 980 90 1100 200/04 RMK AO2 SFC VIS 2 1/2
14837KMSN MSN20030607063010306/07/03 06:30:31  5-MIN KMSN 071230Z 21005KT 2SM BCFG BR BKN008 13/12 A2980 970 89 1000 210/05 RMK AO2
14837KMSN MSN20030607063510306/07/03 06:35:31  5-MIN KMSN 071235Z 19006KT 2SM BCFG BR BKN008 14/12 A2981 970 90 1100 190/06 RMK AO2
14837KMSN MSN20030607064009806/07/03 06:40:31  5-MIN KMSN 071240Z 19007KT 2SM BR BKN008 14/12 A2981 970 90 1100 190/07 RMK AO2
14837KMSN MSN20030607064509806/07/03 06:45:31  5-MIN KMSN 071245Z 18007KT 2SM BR BKN008 14/12 A2981 970 90 1100 180/07 RMK AO2
14837KMSN MSN20030607065012506/07/03 06:50:31  5-MIN KMSN 071250Z 19006KT 2SM BR BKN008 14/12 A2981 970 90 1100 190/06 RMK AO2 TWR VIS 3 SLP094 T01390122
14837KMSN MSN20030607065511206/07/03 06:55:31  5-MIN KMSN 071255Z 19005KT 2 1/2SM BR BKN008 14/12 A2981 970 90 1100 190/05 RMK AO2 TWR VIS 3
14837KMSN MSN20030607070011206/07/03 07:00:31  5-MIN KMSN 071300Z 19006KT 2 1/2SM BR OVC008 14/12 A2981 970 86 1200 190/06 RMK AO2 TWR VIS 3
14837KMSN MSN20030607070511206/07/03 07:05:31  5-MIN KMSN 071305Z 19006KT 2 1/2SM BR BKN008 14/12 A2981 970 86 1200 190/06 RMK AO2 TWR VIS 3
14837KMSN MSN20030607071011206/07/03 07:10:31  5-MIN KMSN 071310Z 20005KT 2 1/2SM BR BKN008 14/12 A2981 970 86 1200 200/05 RMK AO2 TWR VIS 3
14837KMSN MSN20030607071511206/07/03 07:15:31  5-MIN KMSN 071315Z 18006KT 2 1/2SM BR BKN008 14/12 A2981 970 86 1200 180/06 RMK AO2 TWR VIS 3
14837KMSN MSN20030607072009806/07/03 07:20:31  5-MIN KMSN 071320Z VRB06KT 3SM BR BKN008 15/13 A2981 970 86 1200 VRB/06 RMK AO2
14837KMSN MSN20030607072509806/07/03 07:25:31  5-MIN KMSN 071325Z 19005KT 3SM BR BKN008 14/12 A2981 970 86 1200 180/05 RMK AO2
14837KMSN MSN20030607073009806/07/03 07:30:31  5-MIN KMSN 071330Z 19005KT 3SM BR BKN008 14/13 A2980 970 90 1200 190/05 RMK AO2
14837KMSN MSN20030607073509806/07/03 07:35:31  5-MIN KMSN 071335Z 22005KT 3SM BR BKN008 14/12 A2980 970 86 1200 220/05 RMK AO2
14837KMSN MSN20030607074009806/07/03 07:40:31  5-MIN KMSN 071340Z VRB03KT 3SM HZ BKN008 15/12 A2980 970 83 1200 VRB/03 RMK AO2
14837KMSN MSN20030607074509806/07/03 07:45:31  5-MIN KMSN 071345Z VRB05KT 3SM HZ BKN008 15/12 A2980 970 83 1200 VRB/05 RMK AO2
14837KMSN MSN20030607075012706/07/03 07:50:31  5-MIN KMSN 071350Z VRB03KT 4SM HZ BKN010 14/12 A2980 970 83 1200 VRB/03 RMK AO2 CIG 009V013 SLP092 T01440117
14837KMSN MSN20030607075509806/07/03 07:55:31  5-MIN KMSN 071355Z 27005KT 4SM HZ BKN010 15/12 A2980 980 83 1200 270/05 RMK AO2
14837KMSN MSN20030607080009806/07/03 08:00:31  5-MIN KMSN 071400Z 00000KT 4SM HZ BKN010 15/12 A2980 980 83 1200 000/00 RMK AO2
14837KMSN MSN20030607080509806/07/03 08:05:31  5-MIN KMSN 071405Z 00000KT 4SM HZ BKN012 16/12 A2979 980 80 1300 000/00 RMK AO2
14837KMSN MSN20030607081009806/07/03 08:10:31  5-MIN KMSN 071410Z 21003KT 5SM HZ BKN012 16/13 A2979 980 83 1300 210/03 RMK AO2
14837KMSN MSN20030607081509806/07/03 08:15:31  5-MIN KMSN 071415Z 24005KT 4SM HZ BKN012 16/13 A2980 980 83 1300 240/05 RMK AO2
14837KMSN MSN20030607082009806/07/03 08:20:31  5-MIN KMSN 071420Z VRB03KT 4SM HZ OVC012 15/12 A2980 980 83 1200 VRB/03 RMK AO2
14837KMSN MSN20030607082509806/07/03 08:25:31  5-MIN KMSN 071425Z 00000KT 4SM HZ BKN012 16/12 A2979 980 80 1300 000/00 RMK AO2
14837KMSN MSN20030607083009806/07/03 08:30:31  5-MIN KMSN 071430Z 17006KT 5SM HZ BKN012 16/13 A2980 980 80 1400 170/06 RMK AO2
14837KMSN MSN20030607083509806/07/03 08:35:31  5-MIN KMSN 071435Z VRB04KT 5SM HZ BKN012 16/12 A2980 980 77 1400 VRB/04 RMK AO2
14837KMSN MSN20030607084009806/07/03 08:40:31  5-MIN KMSN 071440Z 00000KT 5SM HZ BKN012 16/12 A2980 980 77 1400 000/00 RMK AO2
14837KMSN MSN20030607084509806/07/03 08:45:31  5-MIN KMSN 071445Z VRB05KT 5SM HZ BKN014 16/13 A2979 980 80 1400 VRB/05 RMK AO2
14837KMSN MSN20030607085012106/07/03 08:50:31  5-MIN KMSN 071450Z VRB03KT 5SM HZ SCT014 17/13 A2979 980 77 1400 VRB/03 RMK AO2 SLP088 T01670128 53006
14837KMSN MSN20030607085509806/07/03 08:55:31  5-MIN KMSN 071455Z 00000KT 5SM HZ SCT014 16/12 A2980 980 77 1400 000/00 RMK AO2
14837KMSN MSN20030607090009806/07/03 09:00:31  5-MIN KMSN 071500Z 17005KT 5SM HZ SCT016 17/13 A2980 980 75 1500 170/05 RMK AO2
14837KMSN MSN20030607090509806/07/03 09:05:31  5-MIN KMSN 071505Z VRB04KT 5SM HZ BKN016 17/13 A2980 980 77 1400 VRB/04 RMK AO2
14837KMSN MSN20030607091009806/07/03 09:10:31  5-MIN KMSN 071510Z 22006KT 5SM HZ BKN017 17/13 A2980 980 75 1500 220/06 RMK AO2
14837KMSN MSN20030607091509806/07/03 09:15:31  5-MIN KMSN 071515Z VRB05KT 5SM HZ BKN017 17/13 A2980 980 77 1400 VRB/05 RMK AO2
14837KMSN MSN20030607092009806/07/03 09:20:31  5-MIN KMSN 071520Z VRB05KT 5SM HZ BKN017 17/13 A2979 980 75 1500 VRB/05 RMK AO2
14837KMSN MSN20030607092509806/07/03 09:25:31  5-MIN KMSN 071525Z 20006KT 5SM HZ BKN017 17/13 A2979 980 77 1400 200/06 RMK AO2
14837KMSN MSN20030607093009806/07/03 09:30:31  5-MIN KMSN 071530Z 20005KT 5SM HZ BKN017 17/12 A2979 990 75 1500 200/05 RMK AO2
14837KMSN MSN20030607093509806/07/03 09:35:31  5-MIN KMSN 071535Z 17005KT 5SM HZ BKN017 17/13 A2979 990 77 1500 170/05 RMK AO2
14837KMSN MSN20030607094009806/07/03 09:40:31  5-MIN KMSN 071540Z 15006KT 6SM HZ BKN017 17/13 A2978 990 78 1500 150/06 RMK AO2
14837KMSN MSN20030607094509806/07/03 09:45:31  5-MIN KMSN 071545Z 15004KT 6SM HZ BKN017 18/13 A2978 990 72 1600 140/04 RMK AO2
14837KMSN MSN20030607095011606/07/03 09:50:31  5-MIN KMSN 071550Z 17006KT 6SM HZ BKN019 18/13 A2978 1000 72 1600 170/06 RMK AO2 SLP082 T01780128
14837KMSN MSN20030607095509906/07/03 09:55:31  5-MIN KMSN 071555Z 19004KT 6SM HZ BKN020 18/13 A2978 1000 72 1600 190/04 RMK AO2
14837KMSN MSN20030607100009906/07/03 10:00:31  5-MIN KMSN 071600Z 17005KT 6SM HZ BKN020 18/13 A2978 1000 72 1600 170/05 RMK AO2
14837KMSN MSN20030607100509906/07/03 10:05:31  5-MIN KMSN 071605Z 18005KT 6SM HZ BKN020 18/13 A2977 1000 72 1600 180/05 RMK AO2
14837KMSN MSN20030607101010306/07/03 10:10:31  5-MIN KMSN 071610Z 18006KT 7SM BKN020 BKN025 18/13 A2978 1000 70 1700 180/06 RMK AO2
14837KMSN MSN20030607101510206/07/03 10:15:31  5-MIN KMSN 071615Z VRB04KT 7SM BKN020 BKN025 19/13 A2978 990 70 1700 VRB/04 RMK AO2
14837KMSN MSN20030607102010306/07/03 10:20:31  5-MIN KMSN 071620Z 19009KT 7SM BKN020 BKN025 18/13 A2978 1000 70 1700 180/09 RMK AO2
14837KMSN MSN20030607102510306/07/03 10:25:31  5-MIN KMSN 071625Z VRB05KT 7SM BKN020 BKN025 18/13 A2978 1000 72 1600 VRB/05 RMK AO2
14837KMSN MSN20030607103009606/07/03 10:30:31  5-MIN KMSN 071630Z 19007KT 7SM BKN022 19/13 A2978 1000 67 1700 190/07 RMK AO2
14837KMSN MSN20030607103510306/07/03 10:35:31  5-MIN KMSN 071635Z 16006KT 7SM SCT024 BKN030 18/13 A2978 1000 70 1700 160/06 RMK AO2
14837KMSN MSN20030607104010306/07/03 10:40:31  5-MIN KMSN 071640Z VRB06KT 7SM SCT024 BKN030 19/13 A2978 1000 67 1700 VRB/06 RMK AO2
14837KMSN MSN20030607104510306/07/03 10:45:31  5-MIN KMSN 071645Z VRB04KT 7SM SCT024 BKN030 19/13 A2978 1000 67 1700 VRB/04 RMK AO2
14837KMSN MSN20030607105012006/07/03 10:50:31  5-MIN KMSN 071650Z 18006KT 7SM FEW024 BKN030 19/13 A2978 1000 67 1800 180/06 RMK AO2 SLP082 T01940133
14837KMSN MSN20030607105509606/07/03 10:55:31  5-MIN KMSN 071655Z 17005KT 7SM BKN030 19/13 A2978 1000 67 1700 170/05 RMK AO2
14837KMSN MSN20030607110009606/07/03 11:00:31  5-MIN KMSN 071700Z VRB06KT 7SM BKN030 19/13 A2978 1000 67 1700 VRB/06 RMK AO2
14837KMSN MSN20030607110509606/07/03 11:05:31  5-MIN KMSN 071705Z VRB05KT 7SM BKN030 19/13 A2978 1000 67 1700 VRB/05 RMK AO2
14837KMSN MSN20030607111010306/07/03 11:10:31  5-MIN KMSN 071710Z 17004KT 7SM SCT024 BKN030 19/12 A2978 1000 65 1700 170/04 RMK AO2
14837KMSN MSN20030607111510306/07/03 11:15:31  5-MIN KMSN 071715Z 16006KT 8SM SCT024 BKN030 19/12 A2977 1000 65 1700 160/06 RMK AO2
14837KMSN MSN20030607112010306/07/03 11:20:31  5-MIN KMSN 071720Z 20005KT 7SM SCT024 BKN030 19/13 A2978 1000 67 1700 200/05 RMK AO2
14837KMSN MSN20030607112510306/07/03 11:25:31  5-MIN KMSN 071725Z 22006KT 7SM FEW024 BKN030 19/12 A2978 1000 65 1700 220/06 RMK AO2
14837KMSN MSN20030607113009606/07/03 11:30:31  5-MIN KMSN 071730Z 21005KT 8SM SCT025 19/12 A2978 1000 62 1800 210/05 RMK AO2
14837KMSN MSN20030607113509606/07/03 11:35:31  5-MIN KMSN 071735Z VRB06KT 9SM SCT025 19/12 A2978 1000 62 1700 VRB/06 RMK AO2
14837KMSN MSN20030607114009606/07/03 11:40:31  5-MIN KMSN 071740Z VRB06KT 9SM SCT025 19/12 A2978 1000 60 1800 VRB/06 RMK AO2
14837KMSN MSN20030607114509506/07/03 11:45:31  5-MIN KMSN 071745Z 23006KT 9SM SCT025 19/12 A2978 990 62 1800 230/06 RMK AO2
14837KMSN MSN20030607115013106/07/03 11:50:31  5-MIN KMSN 071750Z VRB04KT 9SM SCT025 19/12 A2978 1000 60 1800 VRB/04 RMK AO2 SLP082 T01940117 10194 20133 50000
14837KMSN MSN20030607115509606/07/03 11:55:31  5-MIN KMSN 071755Z 18006KT 9SM SCT025 20/12 A2978 1000 60 1800 180/06 RMK AO2
14837KMSN MSN20030607120009506/07/03 12:00:31  5-MIN KMSN 071800Z VRB04KT 9SM SCT025 19/12 A2978 990 62 1800 VRB/04 RMK AO2
14837KMSN MSN20030607120509506/07/03 12:05:31  5-MIN KMSN 071805Z VRB06KT 8SM SCT025 20/12 A2978 990 60 1800 VRB/06 RMK AO2
14837KMSN MSN20030607121009506/07/03 12:10:31  5-MIN KMSN 071810Z VRB06KT 8SM SCT030 20/13 A2978 990 63 1800 VRB/06 RMK AO2
14837KMSN MSN20030607121509506/07/03 12:15:31  5-MIN KMSN 071815Z VRB04KT 8SM SCT030 19/12 A2978 990 60 1800 VRB/04 RMK AO2
14837KMSN MSN20030607122009506/07/03 12:20:31  5-MIN KMSN 071820Z 22006KT 9SM SCT030 20/12 A2978 990 60 1800 220/06 RMK AO2
14837KMSN MSN20030607122509606/07/03 12:25:31  5-MIN KMSN 071825Z VRB05KT 9SM SCT030 19/12 A2977 1000 60 1800 VRB/05 RMK AO2
14837KMSN MSN20030607123009606/07/03 12:30:31  5-MIN KMSN 071830Z 17006KT 9SM SCT035 20/13 A2977 1000 63 1900 170/06 RMK AO2
14837KMSN MSN20030607123509606/07/03 12:35:31  5-MIN KMSN 071835Z VRB06KT 9SM SCT035 21/14 A2978 1000 65 1900 VRB/06 RMK AO2
14837KMSN MSN20030607124009606/07/03 12:40:31  5-MIN KMSN 071840Z 16009KT 8SM SCT035 21/14 A2977 1000 65 1900 160/09 RMK AO2
14837KMSN MSN20030607124509606/07/03 12:45:31  5-MIN KMSN 071845Z 17010KT 8SM SCT035 20/13 A2977 1000 63 1900 170/10 RMK AO2
14837KMSN MSN20030607125011306/07/03 12:50:31  5-MIN KMSN 071850Z 15009KT 9SM SCT035 21/13 A2977 1000 63 1900 150/09 RMK AO2 SLP079 T02060133
14837KMSN MSN20030607125509606/07/03 12:55:31  5-MIN KMSN 071855Z 15009KT 9SM SCT030 21/13 A2977 1000 63 1900 150/09 RMK AO2
14837KMSN MSN20030607130009606/07/03 13:00:31  5-MIN KMSN 071900Z 15008KT 9SM SCT030 21/13 A2977 1000 60 1900 150/08 RMK AO2
14837KMSN MSN20030607130509606/07/03 13:05:31  5-MIN KMSN 071905Z 15007KT 9SM SCT030 21/13 A2977 1010 63 1900 150/07 RMK AO2
14837KMSN MSN20030607131009606/07/03 13:10:31  5-MIN KMSN 071910Z VRB06KT 9SM SCT032 21/13 A2977 1000 63 1900 VRB/06 RMK AO2
14837KMSN MSN20030607131509606/07/03 13:15:31  5-MIN KMSN 071915Z VRB05KT 9SM SCT032 21/13 A2977 1000 60 1900 VRB/05 RMK AO2
14837KMSN MSN20030607132009606/07/03 13:20:31  5-MIN KMSN 071920Z 18005KT 9SM SCT032 21/13 A2977 1000 58 2000 180/05 RMK AO2
14837KMSN MSN20030607132509606/07/03 13:25:31  5-MIN KMSN 071925Z 21005KT 9SM SCT032 21/13 A2977 1000 58 2000 210/05 RMK AO2
14837KMSN MSN20030607133012006/07/03 13:30:31  5-MIN KMSN 071930Z 23007KT 180V250 10SM FEW032 SCT070 21/13 A2977 1000 58 2000 220/07 180V250 RMK AO2
14837KMSN MSN20030607133510406/07/03 13:35:31  5-MIN KMSN 071935Z 22006KT 10SM SCT032 BKN070 21/12 A2977 1000 58 1900 220/06 RMK AO2
14837KMSN MSN20030607134010406/07/03 13:40:31  5-MIN KMSN 071940Z 22007KT 10SM SCT032 BKN070 21/12 A2977 1000 58 1900 220/07 RMK AO2
14837KMSN MSN20030607134510406/07/03 13:45:31  5-MIN KMSN 071945Z 22007KT 10SM SCT032 BKN070 21/12 A2977 1010 58 1900 220/07 RMK AO2
14837KMSN MSN20030607135012106/07/03 13:50:31  5-MIN KMSN 071950Z 25006KT 10SM SCT032 SCT070 21/12 A2976 1010 56 2000 250/06 RMK AO2 SLP076 T02110122
14837KMSN MSN20030607135511006/07/03 13:55:31  5-MIN KMSN 071955Z 19009G14KT 10SM SCT032 BKN070 21/12 A2977 1010 56 2000 190/09G14 RMK AO2
14837KMSN MSN20030607140011006/07/03 14:00:31  5-MIN KMSN 072000Z VRB06G14KT 10SM SCT032 BKN070 21/12 A2976 1010 56 1900 VRB/06G14 RMK AO2
14837KMSN MSN20030607140510406/07/03 14:05:31  5-MIN KMSN 072005Z 19006KT 10SM SCT032 BKN070 21/11 A2976 1010 54 1900 190/06 RMK AO2
14837KMSN MSN20030607141010406/07/03 14:10:31  5-MIN KMSN 072010Z 24006KT 10SM SCT032 BKN070 21/11 A2977 1010 54 1900 240/06 RMK AO2
14837KMSN MSN20030607141510406/07/03 14:15:31  5-MIN KMSN 072015Z 23005KT 10SM SCT032 BKN070 21/11 A2976 1010 54 1900 230/05 RMK AO2
14837KMSN MSN20030607142010406/07/03 14:20:31  5-MIN KMSN 072020Z VRB05KT 10SM SCT032 BKN070 21/11 A2976 1010 54 1900 VRB/05 RMK AO2
14837KMSN MSN20030607142510406/07/03 14:25:31  5-MIN KMSN 072025Z VRB05KT 10SM SCT032 BKN070 21/11 A2976 1010 52 2000 VRB/05 RMK AO2
14837KMSN MSN20030607143010406/07/03 14:30:31  5-MIN KMSN 072030Z VRB06KT 10SM SCT032 BKN070 21/11 A2976 1010 52 2000 VRB/06 RMK AO2
14837KMSN MSN20030607143510406/07/03 14:35:31  5-MIN KMSN 072035Z VRB04KT 10SM SCT032 BKN070 21/11 A2976 1010 52 2000 VRB/04 RMK AO2
14837KMSN MSN20030607144010406/07/03 14:40:31  5-MIN KMSN 072040Z 27006KT 10SM SCT032 BKN070 21/11 A2976 1010 52 2000 270/06 RMK AO2
14837KMSN MSN20030607144510406/07/03 14:45:31  5-MIN KMSN 072045Z 21005KT 10SM FEW035 BKN075 21/11 A2976 1010 54 1900 210/05 RMK AO2
14837KMSN MSN20030607145012706/07/03 14:50:31  5-MIN KMSN 072050Z 24006KT 10SM SCT035 BKN075 21/11 A2976 1010 54 1900 230/06 RMK AO2 SLP076 T02060111 55005
14837KMSN MSN20030607145510406/07/03 14:55:31  5-MIN KMSN 072055Z VRB03KT 10SM SCT035 BKN075 21/12 A2976 1010 56 1900 VRB/03 RMK AO2
14837KMSN MSN20030607150010406/07/03 15:00:31  5-MIN KMSN 072100Z 26005KT 10SM SCT035 BKN075 21/12 A2976 1010 54 2000 260/05 RMK AO2
14837KMSN MSN20030607150510406/07/03 15:05:31  5-MIN KMSN 072105Z 28006KT 10SM SCT035 BKN075 21/12 A2976 1020 54 2000 280/06 RMK AO2
14837KMSN MSN20030607151010406/07/03 15:10:31  5-MIN KMSN 072110Z VRB04KT 10SM SCT035 BKN075 21/11 A2976 1020 52 2000 VRB/04 RMK AO2
14837KMSN MSN20030607151510406/07/03 15:15:31  5-MIN KMSN 072115Z VRB05KT 10SM SCT035 BKN075 21/11 A2976 1020 52 2000 VRB/05 RMK AO2
14837KMSN MSN20030607152010406/07/03 15:20:31  5-MIN KMSN 072120Z VRB06KT 10SM SCT035 BKN075 21/11 A2976 1020 52 2000 VRB/06 RMK AO2
14837KMSN MSN20030607152511106/07/03 15:25:31  5-MIN KMSN 072125Z 24005KT 10SM FEW040 SCT075 BKN080 21/12 A2976 1020 54 2000 240/05 RMK AO2
14837KMSN MSN20030607153011106/07/03 15:30:31  5-MIN KMSN 072130Z 22006KT 10SM FEW040 SCT075 BKN080 21/12 A2975 1020 54 2000 220/06 RMK AO2
14837KMSN MSN20030607153511106/07/03 15:35:31  5-MIN KMSN 072135Z 23006KT 10SM FEW040 SCT075 BKN080 22/12 A2975 1020 52 2100 230/06 RMK AO2
14837KMSN MSN20030607154011106/07/03 15:40:31  5-MIN KMSN 072140Z 22005KT 10SM FEW040 SCT075 BKN080 22/11 A2975 1020 50 2100 220/05 RMK AO2
14837KMSN MSN20030607154511106/07/03 15:45:31  5-MIN KMSN 072145Z 24007KT 10SM FEW040 SCT075 BKN085 22/11 A2976 1020 49 2100 240/07 RMK AO2
14837KMSN MSN20030607155012806/07/03 15:50:31  5-MIN KMSN 072150Z 23005KT 10SM FEW040 SCT075 BKN085 21/11 A2975 1020 52 2000 230/05 RMK AO2 SLP074 T02110111
14837KMSN MSN20030607155509706/07/03 15:55:31  5-MIN KMSN 072155Z 22003KT 10SM BKN090 21/11 A2975 1020 52 2000 220/03 RMK AO2
14837KMSN MSN20030607160009706/07/03 16:00:31  5-MIN KMSN 072200Z VRB03KT 10SM BKN090 22/12 A2975 1020 52 2100 VRB/03 RMK AO2
14837KMSN MSN20030607160509706/07/03 16:05:31  5-MIN KMSN 072205Z 23006KT 10SM BKN090 22/12 A2975 1030 52 2100 230/06 RMK AO2
14837KMSN MSN20030607161009706/07/03 16:10:31  5-MIN KMSN 072210Z VRB03KT 10SM BKN090 22/12 A2975 1020 52 2100 VRB/03 RMK AO2
14837KMSN MSN20030607161509706/07/03 16:15:31  5-MIN KMSN 072215Z VRB03KT 10SM SCT090 22/12 A2975 1030 52 2100 VRB/03 RMK AO2
14837KMSN MSN20030607162009706/07/03 16:20:31  5-MIN KMSN 072220Z VRB03KT 10SM SCT090 22/12 A2975 1030 51 2100 VRB/03 RMK AO2
14837KMSN MSN20030607162509706/07/03 16:25:31  5-MIN KMSN 072225Z 27005KT 10SM FEW090 22/11 A2975 1030 49 2100 270/05 RMK AO2
14837KMSN MSN20030607163009706/07/03 16:30:31  5-MIN KMSN 072230Z 22005KT 10SM FEW090 22/11 A2975 1030 49 2100 220/05 RMK AO2
14837KMSN MSN20030607163509406/07/03 16:35:31  5-MIN KMSN 072235Z VRB04KT 10SM CLR 22/11 A2975 1030 49 2100 VRB/04 RMK AO2
14837KMSN MSN20030607164010406/07/03 16:40:31  5-MIN KMSN 072240Z 00000KT 10SM FEW040 SCT085 22/11 A2974 1030 49 2100 000/00 RMK AO2
14837KMSN MSN20030607164510406/07/03 16:45:31  5-MIN KMSN 072245Z 22005KT 10SM FEW040 SCT085 22/11 A2974 1030 49 2100 220/05 RMK AO2
14837KMSN MSN20030607165012106/07/03 16:50:31  5-MIN KMSN 072250Z VRB03KT 10SM FEW040 SCT085 22/11 A2974 1030 49 2100 VRB/03 RMK AO2 SLP070 T02170106
14837KMSN MSN20030607165509706/07/03 16:55:31  5-MIN KMSN 072255Z VRB05KT 10SM SCT090 22/11 A2974 1030 47 2100 VRB/05 RMK AO2
14837KMSN MSN20030607170010406/07/03 17:00:31  5-MIN KMSN 072300Z VRB04KT 10SM FEW065 SCT090 22/11 A2974 1030 47 2100 VRB/04 RMK AO2
14837KMSN MSN20030607170510406/07/03 17:05:31  5-MIN KMSN 072305Z 23004KT 10SM FEW075 BKN090 22/10 A2974 1030 47 2100 230/04 RMK AO2
14837KMSN MSN20030607171010406/07/03 17:10:31  5-MIN KMSN 072310Z VRB04KT 10SM FEW075 BKN090 21/11 A2974 1030 50 2000 VRB/04 RMK AO2
14837KMSN MSN20030607171510406/07/03 17:15:31  5-MIN KMSN 072315Z VRB04KT 10SM FEW075 BKN090 21/11 A2974 1030 50 2000 VRB/04 RMK AO2
14837KMSN MSN20030607172010406/07/03 17:20:31  5-MIN KMSN 072320Z 23003KT 10SM FEW075 SCT090 21/11 A2974 1030 52 2000 230/03 RMK AO2
14837KMSN MSN20030607172510406/07/03 17:25:31  5-MIN KMSN 072325Z VRB03KT 10SM FEW075 SCT090 21/11 A2974 1030 50 2000 VRB/03 RMK AO2
14837KMSN MSN20030607173010406/07/03 17:30:31  5-MIN KMSN 072330Z VRB03KT 10SM FEW075 SCT090 21/11 A2974 1030 52 2000 VRB/03 RMK AO2
14837KMSN MSN20030607173509706/07/03 17:35:31  5-MIN KMSN 072335Z 26003KT 10SM FEW090 21/11 A2974 1030 52 2000 260/03 RMK AO2
14837KMSN MSN20030607174009706/07/03 17:40:31  5-MIN KMSN 072340Z 00000KT 10SM SCT095 21/11 A2974 1030 52 2000 000/00 RMK AO2
14837KMSN MSN20030607174509906/07/03 17:45:31  5-MIN KMSN 072345Z 00000KT 4SM HZ SCT100 22/12 A2974 1030 52 2100 000/00 RMK AO2
14837KMSN MSN20030607175013906/07/03 17:50:31  5-MIN KMSN 072350Z 00000KT 10SM FEW070 SCT100 22/12 A2974 1030 52 2100 000/00 RMK AO2 SLP068 T02170117 10222 20194 56006
14837KMSN MSN20030607175509906/07/03 17:55:31  5-MIN KMSN 072355Z 23004KT 5SM HZ BKN100 22/11 A2974 1030 50 2100 230/04 RMK AO2
14837KMSN MSN20030607180010406/07/03 18:00:31  5-MIN KMSN 080000Z VRB03KT 10SM FEW047 BKN100 22/11 A2974 1030 50 2100 VRB/03 RMK AO2
14837KMSN MSN20030607180510406/07/03 18:05:31  5-MIN KMSN 080005Z 22003KT 10SM FEW047 BKN100 21/12 A2974 1030 54 2000 220/03 RMK AO2
14837KMSN MSN20030607181010406/07/03 18:10:31  5-MIN KMSN 080010Z 23003KT 10SM FEW047 BKN100 21/12 A2974 1030 54 2000 220/03 RMK AO2
14837KMSN MSN20030607181510406/07/03 18:15:31  5-MIN KMSN 080015Z 22003KT 10SM FEW047 SCT100 21/12 A2974 1030 54 2000 220/03 RMK AO2
14837KMSN MSN20030607182010406/07/03 18:20:31  5-MIN KMSN 080020Z 22003KT 10SM FEW047 SCT100 21/12 A2974 1030 56 2000 220/03 RMK AO2
14837KMSN MSN20030607182509706/07/03 18:25:31  5-MIN KMSN 080025Z 00000KT 10SM FEW047 21/12 A2974 1030 56 2000 000/00 RMK AO2
14837KMSN MSN20030607183009706/07/03 18:30:31  5-MIN KMSN 080030Z 23004KT 10SM FEW049 21/12 A2974 1030 56 2000 230/04 RMK AO2
14837KMSN MSN20030607183509406/07/03 18:35:31  5-MIN KMSN 080035Z 00000KT 10SM CLR 21/12 A2974 1030 56 2000 000/00 RMK AO2
14837KMSN MSN20030607184009406/07/03 18:40:31  5-MIN KMSN 080040Z 00000KT 10SM CLR 21/12 A2974 1030 56 2000 000/00 RMK AO2
14837KMSN MSN20030607184509406/07/03 18:45:31  5-MIN KMSN 080045Z 00000KT 10SM CLR 20/12 A2974 1030 60 1900 000/00 RMK AO2
14837KMSN MSN20030607185012106/07/03 18:50:31  5-MIN KMSN 080050Z 23003KT 10SM FEW050 SCT095 21/12 A2974 1030 58 2000 230/03 RMK AO2 SLP069 T02060122
14837KMSN MSN20030607185509406/07/03 18:55:31  5-MIN KMSN 080055Z 23003KT 10SM CLR 20/12 A2974 1030 60 1900 230/03 RMK AO2
14837KMSN MSN20030607190009406/07/03 19:00:31  5-MIN KMSN 080100Z 24003KT 10SM CLR 20/12 A2974 1040 60 1900 240/03 RMK AO2
14837KMSN MSN20030607190509406/07/03 19:05:31  5-MIN KMSN 080105Z 00000KT 10SM CLR 20/12 A2974 1030 60 1900 000/00 RMK AO2
14837KMSN MSN20030607191009406/07/03 19:10:31  5-MIN KMSN 080110Z 00000KT 10SM CLR 19/13 A2973 1040 65 1800 000/00 RMK AO2
14837KMSN MSN20030607191509706/07/03 19:15:31  5-MIN KMSN 080115Z 00000KT 10SM FEW100 18/13 A2973 1040 75 1600 000/00 RMK AO2
14837KMSN MSN20030607192009706/07/03 19:20:31  5-MIN KMSN 080120Z 00000KT 10SM FEW100 18/13 A2973 1040 75 1600 000/00 RMK AO2
14837KMSN MSN20030607192509706/07/03 19:25:31  5-MIN KMSN 080125Z 24003KT 10SM FEW100 17/13 A2973 1040 78 1600 240/03 RMK AO2
14837KMSN MSN20030607193009706/07/03 19:30:31  5-MIN KMSN 080130Z 24003KT 10SM FEW100 19/13 A2973 1040 70 1800 240/03 RMK AO2
14837KMSN MSN20030607193509706/07/03 19:35:31  5-MIN KMSN 080135Z 00000KT 10SM FEW100 18/13 A2973 1040 72 1600 000/00 RMK AO2
14837KMSN MSN20030607194009706/07/03 19:40:31  5-MIN KMSN 080140Z 00000KT 10SM FEW100 17/13 A2973 1040 77 1500 000/00 RMK AO2
14837KMSN MSN20030607194509406/07/03 19:45:31  5-MIN KMSN 080145Z 00000KT 10SM CLR 16/13 A2973 1040 80 1500 000/00 RMK AO2
14837KMSN MSN20030607195011106/07/03 19:50:31  5-MIN KMSN 080150Z 00000KT 10SM CLR 16/13 A2973 1040 83 1400 000/00 RMK AO2 SLP067 T01560128
14837KMSN MSN20030607195509406/07/03 19:55:31  5-MIN KMSN 080155Z 00000KT 10SM CLR 16/13 A2973 1040 80 1500 000/00 RMK AO2
14837KMSN MSN20030607200009406/07/03 20:00:31  5-MIN KMSN 080200Z 00000KT 10SM CLR 16/13 A2973 1040 80 1500 000/00 RMK AO2
14837KMSN MSN20030607200509406/07/03 20:05:31  5-MIN KMSN 080205Z 00000KT 10SM CLR 16/13 A2973 1040 80 1500 000/00 RMK AO2
14837KMSN MSN20030607201009406/07/03 20:10:31  5-MIN KMSN 080210Z 06003KT 10SM CLR 16/12 A2973 1040 80 1400 060/03 RMK AO2
14837KMSN MSN20030607201509406/07/03 20:15:31  5-MIN KMSN 080215Z 04003KT 10SM CLR 16/12 A2973 1040 77 1500 040/03 RMK AO2
14837KMSN MSN20030607202009406/07/03 20:20:31  5-MIN KMSN 080220Z 00000KT 10SM CLR 16/13 A2973 1040 83 1400 000/00 RMK AO2
14837KMSN MSN20030607202509406/07/03 20:25:31  5-MIN KMSN 080225Z 00000KT 10SM CLR 16/13 A2973 1040 83 1400 000/00 RMK AO2
14837KMSN MSN20030607203009406/07/03 20:30:31  5-MIN KMSN 080230Z 00000KT 10SM CLR 15/13 A2973 1040 86 1300 000/00 RMK AO2
14837KMSN MSN20030607203509406/07/03 20:35:31  5-MIN KMSN 080235Z 00000KT 10SM CLR 15/13 A2973 1040 86 1300 000/00 RMK AO2
14837KMSN MSN20030607204009406/07/03 20:40:31  5-MIN KMSN 080240Z 00000KT 10SM CLR 15/13 A2974 1040 86 1300 000/00 RMK AO2
14837KMSN MSN20030607204509406/07/03 20:45:31  5-MIN KMSN 080245Z 00000KT 10SM CLR 16/13 A2974 1030 83 1400 000/00 RMK AO2
14837KMSN MSN20030607205011706/07/03 20:50:31  5-MIN KMSN 080250Z 00000KT 10SM CLR 15/13 A2974 1030 86 1300 000/00 RMK AO2 SLP068 T01500128 56006
14837KMSN MSN20030607205509406/07/03 20:55:31  5-MIN KMSN 080255Z 00000KT 10SM CLR 14/12 A2974 1030 86 1200 000/00 RMK AO2
14837KMSN MSN20030607210009406/07/03 21:00:31  5-MIN KMSN 080300Z 00000KT 10SM CLR 14/12 A2974 1030 90 1200 000/00 RMK AO2
14837KMSN MSN20030607210509406/07/03 21:05:31  5-MIN KMSN 080305Z 00000KT 10SM CLR 14/12 A2974 1030 86 1200 000/00 RMK AO2
14837KMSN MSN20030607211009406/07/03 21:10:31  5-MIN KMSN 080310Z 00000KT 10SM CLR 14/12 A2974 1030 90 1200 000/00 RMK AO2
14837KMSN MSN20030607211509406/07/03 21:15:31  5-MIN KMSN 080315Z 00000KT 10SM CLR 14/12 A2974 1030 90 1200 000/00 RMK AO2
14837KMSN MSN20030607212009406/07/03 21:20:31  5-MIN KMSN 080320Z 00000KT 10SM CLR 14/12 A2974 1030 90 1200 000/00 RMK AO2
14837KMSN MSN20030607212509706/07/03 21:25:31  5-MIN KMSN 080325Z 00000KT 10SM FEW110 14/12 A2974 1030 90 1200 000/00 RMK AO2
14837KMSN MSN20030607213009706/07/03 21:30:31  5-MIN KMSN 080330Z 00000KT 10SM SCT110 14/12 A2974 1030 90 1200 000/00 RMK AO2
14837KMSN MSN20030607213509706/07/03 21:35:31  5-MIN KMSN 080335Z 00000KT 10SM BKN110 14/12 A2974 1030 90 1200 000/00 RMK AO2
14837KMSN MSN20030607214010406/07/03 21:40:31  5-MIN KMSN 080340Z 00000KT 10SM FEW050 BKN110 14/12 A2974 1030 90 1200 000/00 RMK AO2
14837KMSN MSN20030607214511106/07/03 21:45:31  5-MIN KMSN 080345Z 02003KT 10SM SCT050 SCT075 BKN100 14/12 A2974 1040 90 1200 020/03 RMK AO2
14837KMSN MSN20030607215012806/07/03 21:50:31  5-MIN KMSN 080350Z 04004KT 10SM SCT055 BKN075 OVC110 14/12 A2973 1040 86 1300 030/04 RMK AO2 SLP067 T01440122
14837KMSN MSN20030607215511106/07/03 21:55:31  5-MIN KMSN 080355Z 05003KT 10SM BKN055 BKN075 OVC100 14/12 A2973 1040 86 1300 050/03 RMK AO2
14837KMSN MSN20030607220011106/07/03 22:00:31  5-MIN KMSN 080400Z 06003KT 10SM BKN050 BKN075 OVC100 15/13 A2973 1040 86 1300 060/03 RMK AO2
14837KMSN MSN20030607220510406/07/03 22:05:31  5-MIN KMSN 080405Z 00000KT 10SM BKN050 OVC075 16/12 A2973 1040 80 1400 000/00 RMK AO2
14837KMSN MSN20030607221009706/07/03 22:10:31  5-MIN KMSN 080410Z 07003KT 10SM OVC050 16/13 A2973 1040 83 1400 060/03 RMK AO2
14837KMSN MSN20030607221510406/07/03 22:15:31  5-MIN KMSN 080415Z 00000KT 10SM BKN050 OVC070 16/13 A2973 1040 83 1400 000/00 RMK AO2
14837KMSN MSN20030607222010306/07/03 22:20:31  5-MIN KMSN 080420Z 00000KT 9SM BKN050 OVC070 16/13 A2972 1050 83 1400 000/00 RMK AO2
14837KMSN MSN20030607222509606/07/03 22:25:31  5-MIN KMSN 080425Z 00000KT 9SM OVC050 15/13 A2972 1050 86 1300 000/00 RMK AO2
14837KMSN MSN20030607223009606/07/03 22:30:31  5-MIN KMSN 080430Z 00000KT 9SM BKN050 16/13 A2972 1050 83 1400 000/00 RMK AO2
14837KMSN MSN20030607223509606/07/03 22:35:31  5-MIN KMSN 080435Z 00000KT 8SM BKN050 15/13 A2972 1050 86 1300 000/00 RMK AO2
14837KMSN MSN20030607224010306/07/03 22:40:31  5-MIN KMSN 080440Z 00000KT 8SM BKN050 OVC060 16/13 A2971 1060 83 1400 000/00 RMK AO2
14837KMSN MSN20030607224510306/07/03 22:45:31  5-MIN KMSN 080445Z 00000KT 8SM BKN050 BKN060 15/13 A2971 1060 86 1300 000/00 RMK AO2
14837KMSN MSN20030607225012106/07/03 22:50:31  5-MIN KMSN 080450Z 04003KT 10SM SCT050 SCT060 16/13 A2971 1060 83 1400 040/03 RMK AO2 SLP058 T01560128
14837KMSN MSN20030607225510306/07/03 22:55:31  5-MIN KMSN 080455Z 07003KT 7SM SCT050 SCT060 16/13 A2971 1060 83 1400 070/03 RMK AO2
14837KMSN MSN20030607230010306/07/03 23:00:31  5-MIN KMSN 080500Z 07003KT 7SM FEW050 SCT060 16/13 A2971 1060 83 1400 070/03 RMK AO2
14837KMSN MSN20030607230509606/07/03 23:05:31  5-MIN KMSN 080505Z 00000KT 7SM FEW055 16/13 A2970 1070 83 1400 000/00 RMK AO2
14837KMSN MSN20030607231009606/07/03 23:10:31  5-MIN KMSN 080510Z 00000KT 7SM FEW060 16/13 A2970 1070 83 1400 000/00 RMK AO2
14837KMSN MSN20030607231509306/07/03 23:15:31  5-MIN KMSN 080515Z 00000KT 7SM CLR 15/13 A2970 1070 86 1400 000/00 RMK AO2
14837KMSN MSN20030607232009606/07/03 23:20:31  5-MIN KMSN 080520Z 00000KT 7SM SCT060 15/13 A2970 1070 86 1400 000/00 RMK AO2
14837KMSN MSN20030607232509606/07/03 23:25:31  5-MIN KMSN 080525Z 00000KT 7SM SCT060 14/13 A2970 1070 90 1300 000/00 RMK AO2
14837KMSN MSN20030607233009606/07/03 23:30:31  5-MIN KMSN 080530Z VRB04KT 7SM BKN100 15/13 A2970 1070 86 1400 VRB/04 RMK AO2
14837KMSN MSN20030607233509606/07/03 23:35:31  5-MIN KMSN 080535Z 10007KT 7SM BKN095 16/13 A2969 1080 83 1400 100/07 RMK AO2
14837KMSN MSN20030607234009606/07/03 23:40:31  5-MIN KMSN 080540Z 10007KT 8SM BKN095 16/13 A2969 1080 80 1500 100/07 RMK AO2
14837KMSN MSN20030607234509606/07/03 23:45:31  5-MIN KMSN 080545Z 10006KT 8SM OVC090 16/13 A2968 1080 80 1500 100/06 RMK AO2
14837KMSN MSN20030607235014106/07/03 23:50:31  5-MIN KMSN 080550Z 11006KT 8SM OVC095 16/13 A2968 1090 80 1500 110/06 RMK AO2 SLP048 T01610128 10217 20139 402220117 55001
14837KMSN MSN20030607235509606/07/03 23:55:31  5-MIN KMSN 080555Z 11006KT 8SM OVC095 16/13 A2968 1090 83 1400 110/06 RMK AO2
14837KMSN MSN20030608000010306/08/03 00:00:31  5-MIN KMSN 080600Z 11006KT 8SM BKN095 BKN120 16/12 A2968 1090 80 1400 110/06 RMK AO2
14837KMSN MSN20030608000510306/08/03 00:05:31  5-MIN KMSN 080605Z 11006KT 8SM BKN095 BKN120 16/12 A2968 1090 80 1400 110/06 RMK AO2
14837KMSN MSN20030608001010306/08/03 00:10:31  5-MIN KMSN 080610Z 11005KT 8SM SCT100 BKN120 16/12 A2968 1090 80 1500 110/05 RMK AO2
14837KMSN MSN20030608001509606/08/03 00:15:31  5-MIN KMSN 080615Z 12007KT 9SM SCT110 16/12 A2967 1090 80 1500 120/07 RMK AO2
14837KMSN MSN20030608002010306/08/03 00:20:31  5-MIN KMSN 080620Z 14004KT 8SM FEW055 BKN110 16/12 A2967 1090 77 1500 140/04 RMK AO2
14837KMSN MSN20030608002511006/08/03 00:25:31  5-MIN KMSN 080625Z VRB05KT 8SM FEW050 SCT090 BKN110 16/12 A2968 1080 77 1500 VRB/05 RMK AO2
14837KMSN MSN20030608003012606/08/03 00:30:31  5-MIN KMSN 080630Z 21007KT 170V240 8SM FEW033 SCT050 BKN095 17/12 A2969 1080 75 1600 210/07 170V240 RMK AO2
14837KMSN MSN20030608003514806/08/03 00:35:31  5-MIN KMSN 080635Z 26010G17KT 220V290 8SM -RA FEW033 SCT050 BKN090 17/12 A2969 1080 75 1600 260/10G17 220V290 RMK AO2 RAB34 P0000
14837KMSN MSN20030608004013206/08/03 00:40:31  5-MIN KMSN 080640Z 27007G17KT 6SM -RA SCT055 BKN090 OVC110 16/13 A2968 1090 80 1500 270/07G17 RMK AO2 RAB34 P0000
14837KMSN MSN20030608004512806/08/03 00:45:31  5-MIN KMSN 080645Z VRB06G15KT 5SM -RA BR SCT055 OVC090 16/13 A2968 1090 86 1400 VRB/06G15 RMK AO2 RAB34 P0000
14837KMSN MSN20030608005014606/08/03 00:50:31  5-MIN KMSN 080650Z VRB05KT 6SM -RA BR FEW048 BKN080 OVC090 16/13 A2968 1090 86 1400 VRB/05 RMK AO2 RAB34 SLP047 P0000 T01560133
14837KMSN MSN20030608005512006/08/03 00:55:31  5-MIN KMSN 080655Z 32006KT 8SM -RA FEW038 BKN075 OVC090 15/13 A2967 1090 90 1400 320/06 RMK AO2 P0000
14837KMSN MSN20030608010012006/08/03 01:00:31  5-MIN KMSN 080700Z VRB05KT 8SM -RA FEW045 BKN070 OVC090 15/13 A2969 1080 90 1400 VRB/05 RMK AO2 P0000
14837KMSN MSN20030608010512006/08/03 01:05:31  5-MIN KMSN 080705Z 00000KT 9SM -RA SCT045 BKN065 OVC080 15/13 A2968 1080 90 1400 000/00 RMK AO2 P0000
14837KMSN MSN20030608011012306/08/03 01:10:31  5-MIN KMSN 080710Z 00000KT 10SM FEW038 BKN046 OVC080 15/13 A2968 1090 90 1400 000/00 RMK AO2 RAE07 P0000
14837KMSN MSN20030608011512306/08/03 01:15:31  5-MIN KMSN 080715Z 00000KT 10SM SCT040 BKN060 OVC090 15/13 A2968 1090 90 1400 000/00 RMK AO2 RAE07 P0000
14837KMSN MSN20030608012012306/08/03 01:20:31  5-MIN KMSN 080720Z 00000KT 10SM SCT043 BKN065 OVC090 15/13 A2969 1080 86 1400 000/00 RMK AO2 RAE07 P0000
14837KMSN MSN20030608012511606/08/03 01:25:31  5-MIN KMSN 080725Z 19003KT 10SM SCT043 OVC060 15/13 A2969 1080 90 1400 190/03 RMK AO2 RAE07 P0000
14837KMSN MSN20030608013013006/08/03 01:30:31  5-MIN KMSN 080730Z 21004KT 10SM -RA FEW043 BKN060 OVC085 15/13 A2969 1070 90 1400 210/04 RMK AO2 RAE07B28 P0000
14837KMSN MSN20030608013512906/08/03 01:35:31  5-MIN KMSN 080735Z 21003KT 8SM -RA FEW039 BKN060 OVC085 15/13 A2969 1080 90 1400 210/03 RMK AO2 RAE07B28 P0000
14837KMSN MSN20030608014013206/08/03 01:40:31  5-MIN KMSN 080740Z VRB04KT 5SM -RA BR SCT055 BKN070 OVC080 15/13 A2969 1080 90 1400 VRB/04 RMK AO2 RAE07B28 P0001
14837KMSN MSN20030608014513206/08/03 01:45:31  5-MIN KMSN 080745Z 00000KT 4SM -RA BR FEW016 BKN055 OVC080 15/13 A2969 1080 90 1400 000/00 RMK AO2 RAE07B28 P0001
14837KMSN MSN20030608015014906/08/03 01:50:31  5-MIN KMSN 080750Z 20003KT 3SM -RA BR FEW016 BKN039 OVC060 15/13 A2969 1080 90 1400 200/03 RMK AO2 RAE07B28 SLP049 P0003 T01500133
14837KMSN MSN20030608015512306/08/03 01:55:31  5-MIN KMSN 080755Z 17003KT 3SM -RA BR FEW016 BKN039 OVC080 15/13 A2968 1090 90 1400 170/03 RMK AO2 P0001
14837KMSN MSN20030608020012306/08/03 02:00:31  5-MIN KMSN 080800Z 00000KT 4SM -RA BR FEW016 BKN046 OVC085 15/13 A2968 1090 90 1400 000/00 RMK AO2 P0001
14837KMSN MSN20030608020512306/08/03 02:05:31  5-MIN KMSN 080805Z 16003KT 6SM -RA BR FEW016 BKN048 OVC080 14/13 A2968 1090 93 1300 160/03 RMK AO2 P0001
14837KMSN MSN20030608021012006/08/03 02:10:31  5-MIN KMSN 080810Z 19003KT 7SM -RA FEW016 SCT048 OVC080 14/13 A2968 1090 93 1300 180/03 RMK AO2 P0001
14837KMSN MSN20030608021511306/08/03 02:15:31  5-MIN KMSN 080815Z VRB03KT 8SM -RA FEW044 OVC075 15/13 A2967 1090 90 1400 VRB/03 RMK AO2 P0001
14837KMSN MSN20030608022011306/08/03 02:20:31  5-MIN KMSN 080820Z 00000KT 8SM -RA FEW060 OVC075 15/13 A2967 1100 90 1400 000/00 RMK AO2 P0001
14837KMSN MSN20030608022511606/08/03 02:25:31  5-MIN KMSN 080825Z 00000KT 4SM -RA BR SCT050 OVC075 14/13 A2967 1100 93 1300 000/00 RMK AO2 P0002
14837KMSN MSN20030608023011606/08/03 02:30:31  5-MIN KMSN 080830Z 00000KT 3SM -RA BR SCT050 OVC075 14/13 A2966 1100 93 1300 000/00 RMK AO2 P0003
14837KMSN MSN20030608023511606/08/03 02:35:31  5-MIN KMSN 080835Z 00000KT 5SM -RA BR BKN060 OVC075 14/13 A2966 1110 93 1300 000/00 RMK AO2 P0003
14837KMSN MSN20030608024010906/08/03 02:40:31  5-MIN KMSN 080840Z 13003KT 6SM -RA BR OVC070 14/13 A2965 1110 93 1300 130/03 RMK AO2 P0003
14837KMSN MSN20030608024511306/08/03 02:45:31  5-MIN KMSN 080845Z 00000KT 7SM -RA BKN065 OVC090 14/13 A2965 1120 93 1400 000/00 RMK AO2 P0003
14837KMSN MSN20030608025014406/08/03 02:50:31  5-MIN KMSN 080850Z 00000KT 7SM SCT060 OVC090 14/13 A2965 1120 93 1400 000/00 RMK AO2 RAE49 SLP036 P0003 60006 T01440133 58019
14837KMSN MSN20030608025511306/08/03 02:55:31  5-MIN KMSN 080855Z 00000KT 5SM BR SCT070 OVC090 14/13 A2964 1130 96 1300 000/00 RMK AO2 PRESFR
14837KMSN MSN20030608030011306/08/03 03:00:31  5-MIN KMSN 080900Z 10005KT 5SM BR BKN080 OVC095 14/13 A2963 1140 96 1300 100/05 RMK AO2 PRESFR
14837KMSN MSN20030608030511506/08/03 03:05:31  5-MIN KMSN 080905Z 09006KT 6SM -RA BR OVC085 14/13 A2963 1140 93 1400 090/06 RMK AO2 RAB03 P0000
14837KMSN MSN20030608031011206/08/03 03:10:31  5-MIN KMSN 080910Z 12005KT 7SM -RA OVC090 14/13 A2963 1130 93 1400 120/05 RMK AO2 RAB03 P0000
14837KMSN MSN20030608031511106/08/03 03:15:31  5-MIN KMSN 080915Z 15006KT 7SM OVC090 14/13 A2963 1130 96 1300 140/06 RMK AO2 RAB03E13 P0000
14837KMSN MSN20030608032011106/08/03 03:20:31  5-MIN KMSN 080920Z 14006KT 7SM BKN090 14/13 A2963 1130 96 1300 130/06 RMK AO2 RAB03E13 P0000
14837KMSN MSN20030608032511806/08/03 03:25:31  5-MIN KMSN 080925Z 17005KT 8SM SCT080 OVC095 14/13 A2964 1120 93 1400 170/05 RMK AO2 RAB03E13 P0000
14837KMSN MSN20030608033011106/08/03 03:30:31  5-MIN KMSN 080930Z 18005KT 8SM BKN090 14/13 A2964 1120 93 1400 180/05 RMK AO2 RAB03E13 P0000
14837KMSN MSN20030608033511106/08/03 03:35:31  5-MIN KMSN 080935Z 16005KT 8SM BKN090 14/13 A2964 1130 96 1300 160/05 RMK AO2 RAB03E13 P0000
14837KMSN MSN20030608034011106/08/03 03:40:31  5-MIN KMSN 080940Z 17006KT 8SM BKN095 14/13 A2964 1120 96 1300 160/06 RMK AO2 RAB03E13 P0000
14837KMSN MSN20030608034511106/08/03 03:45:31  5-MIN KMSN 080945Z 16006KT 7SM SCT095 14/13 A2964 1120 96 1300 160/06 RMK AO2 RAB03E13 P0000
14837KMSN MSN20030608035012806/08/03 03:50:31  5-MIN KMSN 080950Z 16007KT 7SM FEW090 14/13 A2964 1120 96 1300 150/07 RMK AO2 RAB03E13 SLP036 P0000 T01390133
14837KMSN MSN20030608035509606/08/03 03:55:31  5-MIN KMSN 080955Z 16007KT 7SM FEW095 14/13 A2964 1120 96 1300 160/07 RMK AO2
14837KMSN MSN20030608040009606/08/03 04:00:31  5-MIN KMSN 081000Z 16008KT 7SM FEW075 14/13 A2965 1120 93 1300 160/08 RMK AO2
14837KMSN MSN20030608040509606/08/03 04:05:31  5-MIN KMSN 081005Z 15007KT 8SM FEW075 14/13 A2965 1120 93 1300 150/07 RMK AO2
14837KMSN MSN20030608041009606/08/03 04:10:31  5-MIN KMSN 081010Z 16006KT 9SM SCT070 14/13 A2965 1120 93 1300 160/06 RMK AO2
14837KMSN MSN20030608041509606/08/03 04:15:31  5-MIN KMSN 081015Z 16007KT 9SM SCT070 14/13 A2965 1120 93 1300 160/07 RMK AO2
14837KMSN MSN20030608042009606/08/03 04:20:31  5-MIN KMSN 081020Z 17006KT 9SM FEW070 14/13 A2965 1120 93 1300 170/06 RMK AO2
14837KMSN MSN20030608042509606/08/03 04:25:31  5-MIN KMSN 081025Z 18006KT 9SM FEW070 14/13 A2965 1120 93 1300 180/06 RMK AO2
14837KMSN MSN20030608043009606/08/03 04:30:31  5-MIN KMSN 081030Z 18005KT 9SM FEW048 14/13 A2965 1120 93 1300 180/05 RMK AO2
14837KMSN MSN20030608043510306/08/03 04:35:31  5-MIN KMSN 081035Z 18005KT 9SM SCT048 SCT070 14/13 A2965 1120 93 1300 180/05 RMK AO2
14837KMSN MSN20030608044009606/08/03 04:40:31  5-MIN KMSN 081040Z 20004KT 8SM BKN048 14/13 A2965 1120 93 1300 200/04 RMK AO2
14837KMSN MSN20030608044509606/08/03 04:45:31  5-MIN KMSN 081045Z 18005KT 8SM BKN046 14/13 A2965 1120 93 1300 180/05 RMK AO2
14837KMSN MSN20030608045011306/08/03 04:50:31  5-MIN KMSN 081050Z 18005KT 7SM BKN046 14/13 A2965 1120 93 1300 180/05 RMK AO2 SLP036 T01390128
14837KMSN MSN20030608045509606/08/03 04:55:31  5-MIN KMSN 081055Z 18005KT 8SM OVC046 14/13 A2965 1120 90 1400 180/05 RMK AO2
14837KMSN MSN20030608050009606/08/03 05:00:31  5-MIN KMSN 081100Z 17006KT 8SM OVC046 14/13 A2965 1120 93 1300 170/06 RMK AO2
14837KMSN MSN20030608050509606/08/03 05:05:31  5-MIN KMSN 081105Z 18006KT 8SM OVC044 14/13 A2965 1120 90 1400 180/06 RMK AO2
14837KMSN MSN20030608051009606/08/03 05:10:31  5-MIN KMSN 081110Z 18005KT 8SM OVC044 14/13 A2965 1120 93 1400 180/05 RMK AO2
14837KMSN MSN20030608051509606/08/03 05:15:31  5-MIN KMSN 081115Z 18007KT 8SM BKN044 14/13 A2965 1120 93 1400 180/07 RMK AO2
14837KMSN MSN20030608052009606/08/03 05:20:31  5-MIN KMSN 081120Z 18007KT 8SM BKN044 14/13 A2965 1120 93 1400 180/07 RMK AO2
14837KMSN MSN20030608052509606/08/03 05:25:31  5-MIN KMSN 081125Z 18007KT 7SM BKN044 14/13 A2965 1120 93 1400 180/07 RMK AO2
14837KMSN MSN20030608053009606/08/03 05:30:31  5-MIN KMSN 081130Z 17007KT 7SM BKN044 14/13 A2965 1120 93 1400 170/07 RMK AO2
14837KMSN MSN20030608053509606/08/03 05:35:31  5-MIN KMSN 081135Z 17007KT 7SM BKN044 14/13 A2964 1120 93 1400 170/07 RMK AO2
14837KMSN MSN20030608054009606/08/03 05:40:31  5-MIN KMSN 081140Z 17008KT 7SM BKN044 14/13 A2964 1120 93 1400 170/08 RMK AO2
14837KMSN MSN20030608054509606/08/03 05:45:31  5-MIN KMSN 081145Z 17008KT 7SM BKN044 14/13 A2965 1120 93 1400 170/08 RMK AO2
14837KMSN MSN20030608055015006/08/03 05:50:31  5-MIN KMSN 081150Z 18009KT 8SM FEW009 BKN050 14/13 A2965 1120 93 1400 180/09 RMK AO2 SLP037 60006 70006 T01440133 10167 20139 58013
14837KMSN MSN20030608055510306/08/03 05:55:31  5-MIN KMSN 081155Z 18009KT 8SM SCT009 OVC050 14/13 A2965 1120 90 1400 180/09 RMK AO2
14837KMSN MSN20030608060010306/08/03 06:00:31  5-MIN KMSN 081200Z 19007KT 9SM SCT009 OVC050 14/13 A2965 1120 90 1400 190/07 RMK AO2
14837KMSN MSN20030608060510306/08/03 06:05:31  5-MIN KMSN 081205Z 19007KT 9SM SCT009 BKN050 14/13 A2965 1120 90 1400 190/07 RMK AO2
14837KMSN MSN20030608061010306/08/03 06:10:31  5-MIN KMSN 081210Z 18010KT 9SM SCT009 BKN050 14/12 A2965 1120 86 1400 180/10 RMK AO2
14837KMSN MSN20030608061510306/08/03 06:15:31  5-MIN KMSN 081215Z 18007KT 9SM SCT009 BKN050 14/12 A2965 1120 86 1400 180/07 RMK AO2
14837KMSN MSN20030608062010306/08/03 06:20:31  5-MIN KMSN 081220Z 20007KT 9SM SCT009 BKN050 14/12 A2965 1120 86 1400 200/07 RMK AO2
14837KMSN MSN20030608062511006/08/03 06:25:31  5-MIN KMSN 081225Z 19008KT 9SM SCT009 BKN014 OVC050 14/12 A2965 1120 86 1400 190/08 RMK AO2
14837KMSN MSN20030608063010306/08/03 06:30:31  5-MIN KMSN 081230Z 19009KT 9SM BKN012 OVC020 14/12 A2965 1120 86 1400 190/09 RMK AO2
14837KMSN MSN20030608063511006/08/03 06:35:31  5-MIN KMSN 081235Z 21006KT 8SM BKN012 BKN017 OVC050 14/12 A2965 1120 86 1400 200/06 RMK AO2
14837KMSN MSN20030608064011006/08/03 06:40:31  5-MIN KMSN 081240Z 21008KT 7SM SCT012 BKN017 BKN034 14/12 A2965 1120 83 1400 210/08 RMK AO2
14837KMSN MSN20030608064511006/08/03 06:45:31  5-MIN KMSN 081245Z 22005KT 7SM SCT012 BKN017 BKN034 14/12 A2965 1120 86 1400 220/05 RMK AO2
14837KMSN MSN20030608065012706/08/03 06:50:31  5-MIN KMSN 081250Z 21005KT 8SM SCT012 BKN019 BKN034 14/12 A2964 1120 86 1400 210/05 RMK AO2 SLP035 T01440122
14837KMSN MSN20030608065511006/08/03 06:55:31  5-MIN KMSN 081255Z 20007KT 8SM SCT012 BKN019 OVC080 14/12 A2964 1120 86 1400 200/07 RMK AO2
14837KMSN MSN20030608070011006/08/03 07:00:31  5-MIN KMSN 081300Z 21006KT 8SM SCT012 BKN021 OVC034 14/12 A2964 1120 83 1400 210/06 RMK AO2
14837KMSN MSN20030608070511006/08/03 07:05:31  5-MIN KMSN 081305Z 22006KT 9SM SCT012 BKN024 OVC037 14/12 A2964 1120 83 1400 220/06 RMK AO2
14837KMSN MSN20030608071011006/08/03 07:10:31  5-MIN KMSN 081310Z 22005KT 9SM SCT012 BKN020 OVC025 14/12 A2964 1120 86 1400 220/05 RMK AO2
14837KMSN MSN20030608071511006/08/03 07:15:31  5-MIN KMSN 081315Z 21005KT 9SM SCT012 BKN018 OVC025 14/12 A2964 1120 83 1400 210/05 RMK AO2
14837KMSN MSN20030608072011006/08/03 07:20:31  5-MIN KMSN 081320Z 19006KT 8SM BKN012 BKN018 OVC025 14/12 A2964 1130 86 1400 190/06 RMK AO2
14837KMSN MSN20030608072511006/08/03 07:25:31  5-MIN KMSN 081325Z 22003KT 8SM BKN012 BKN018 OVC025 14/12 A2964 1130 86 1400 220/03 RMK AO2
14837KMSN MSN20030608073011006/08/03 07:30:31  5-MIN KMSN 081330Z 20006KT 8SM BKN013 BKN016 OVC025 14/12 A2964 1130 86 1400 200/06 RMK AO2
14837KMSN MSN20030608073511006/08/03 07:35:31  5-MIN KMSN 081335Z VRB05KT 9SM BKN011 BKN018 OVC025 14/12 A2964 1130 83 1400 VRB/05 RMK AO2
14837KMSN MSN20030608074011006/08/03 07:40:31  5-MIN KMSN 081340Z VRB04KT 9SM BKN011 BKN018 OVC025 15/12 A2964 1130 80 1400 VRB/04 RMK AO2
14837KMSN MSN20030608074511006/08/03 07:45:31  5-MIN KMSN 081345Z VRB04KT 9SM BKN011 BKN018 OVC025 15/12 A2963 1130 83 1400 VRB/04 RMK AO2
14837KMSN MSN20030608075012706/08/03 07:50:31  5-MIN KMSN 081350Z 22005KT 9SM BKN011 BKN018 BKN065 15/12 A2964 1130 80 1400 210/05 RMK AO2 SLP034 T01500117
14837KMSN MSN20030608075511006/08/03 07:55:31  5-MIN KMSN 081355Z 22005KT 8SM BKN013 BKN018 BKN065 15/12 A2963 1130 80 1400 220/05 RMK AO2
14837KMSN MSN20030608080011006/08/03 08:00:31  5-MIN KMSN 081400Z 18005KT 8SM BKN013 BKN018 BKN065 16/12 A2963 1130 80 1500 180/05 RMK AO2
14837KMSN MSN20030608080511006/08/03 08:05:31  5-MIN KMSN 081405Z 21005KT 8SM BKN013 BKN018 BKN065 16/12 A2963 1130 80 1500 200/05 RMK AO2
14837KMSN MSN20030608081011006/08/03 08:10:31  5-MIN KMSN 081410Z 22004KT 8SM BKN012 BKN018 BKN040 16/12 A2963 1140 77 1500 220/04 RMK AO2
14837KMSN MSN20030608081511006/08/03 08:15:31  5-MIN KMSN 081415Z 20006KT 8SM BKN012 BKN018 BKN040 16/12 A2963 1140 77 1500 200/06 RMK AO2
14837KMSN MSN20030608082011006/08/03 08:20:31  5-MIN KMSN 081420Z 19009KT 8SM BKN018 BKN025 BKN065 16/12 A2963 1140 77 1500 190/09 RMK AO2
14837KMSN MSN20030608082511106/08/03 08:25:31  5-MIN KMSN 081425Z 19008KT 10SM BKN018 BKN025 BKN065 16/12 A2963 1140 77 1500 190/08 RMK AO2
14837KMSN MSN20030608083012606/08/03 08:30:31  5-MIN KMSN 081430Z 24008KT 210V270 9SM BKN018 BKN025 BKN065 16/12 A2963 1140 75 1600 230/08 210V270 RMK AO2
14837KMSN MSN20030608083512606/08/03 08:35:31  5-MIN KMSN 081435Z 23005KT 9SM -RA BKN018 BKN025 BKN065 16/12 A2963 1140 77 1500 220/05 RMK AO2 RAB31 P0000
14837KMSN MSN20030608084012606/08/03 08:40:31  5-MIN KMSN 081440Z 23007KT 7SM -RA BKN018 BKN025 BKN065 15/12 A2962 1140 80 1400 230/07 RMK AO2 RAB31 P0001
14837KMSN MSN20030608084512606/08/03 08:45:31  5-MIN KMSN 081445Z 22005KT 5SM -RA BKN018 BKN025 BKN065 14/12 A2962 1140 83 1400 220/05 RMK AO2 RAB31 P0001
14837KMSN MSN20030608085015806/08/03 08:50:31  5-MIN KMSN 081450Z 21005KT 5SM -RA BR BKN021 BKN036 BKN047 14/12 A2962 1140 86 1400 210/05 RMK AO2 RAB31 SLP030 P0001 60001 T01440122 52003
14837KMSN MSN20030608085512306/08/03 08:55:31  5-MIN KMSN 081455Z 22006KT 6SM -RA BR BKN021 BKN039 BKN047 14/12 A2962 1140 86 1400 220/06 RMK AO2 P0000
14837KMSN MSN20030608090012206/08/03 09:00:31  5-MIN KMSN 081500Z 20004KT 7SM BKN021 BKN039 BKN047 15/13 A2962 1140 86 1400 200/04 RMK AO2 RAE00 P0000
14837KMSN MSN20030608090512206/08/03 09:05:31  5-MIN KMSN 081505Z 19005KT 7SM BKN021 BKN039 BKN047 15/13 A2962 1140 86 1400 190/05 RMK AO2 RAE00 P0000
14837KMSN MSN20030608091012206/08/03 09:10:31  5-MIN KMSN 081510Z 16006KT 8SM BKN018 BKN039 BKN047 16/13 A2962 1150 83 1500 150/06 RMK AO2 RAE00 P0000
14837KMSN MSN20030608091512206/08/03 09:15:31  5-MIN KMSN 081515Z 16007KT 8SM SCT018 BKN025 BKN060 16/13 A2961 1150 83 1500 160/07 RMK AO2 RAE00 P0000
14837KMSN MSN20030608092012206/08/03 09:20:31  5-MIN KMSN 081520Z 16005KT 8SM SCT018 BKN025 BKN060 16/12 A2961 1150 80 1500 160/05 RMK AO2 RAE00 P0000
14837KMSN MSN20030608092512206/08/03 09:25:31  5-MIN KMSN 081525Z 18006KT 8SM SCT018 BKN025 BKN060 16/12 A2961 1150 80 1500 180/06 RMK AO2 RAE00 P0000
14837KMSN MSN20030608093012206/08/03 09:30:31  5-MIN KMSN 081530Z 18007KT 8SM SCT018 BKN025 BKN060 16/12 A2961 1150 77 1500 180/07 RMK AO2 RAE00 P0000
14837KMSN MSN20030608093512306/08/03 09:35:31  5-MIN KMSN 081535Z 14005KT 10SM SCT018 BKN025 BKN060 16/13 A2961 1150 83 1500 140/05 RMK AO2 RAE00 P0000
14837KMSN MSN20030608094012906/08/03 09:40:31  5-MIN KMSN 081540Z 14007KT 10SM SCT018 BKN025 BKN060 16/12 A2961 1160 80 1500 140/07 RMK AO2 RAE00B39E40 P0000
14837KMSN MSN20030608094511706/08/03 09:45:31  5-MIN KMSN 081545Z 17005KT 10SM SCT018 BKN025 BKN060 16/12 A2961 1160 80 1500 170/05 RMK AO2 P0000
14837KMSN MSN20030608095013306/08/03 09:50:31  5-MIN KMSN 081550Z 18005KT 10SM BKN018 OVC028 15/12 A2960 1160 83 1500 180/05 RMK AO2 SLP024 RAE00 P0000 T01500122
14837KMSN MSN20030608095510406/08/03 09:55:31  5-MIN KMSN 081555Z VRB05KT 10SM BKN018 OVC026 16/13 A2960 1160 80 1600 VRB/05 RMK AO2
14837KMSN MSN20030608100011106/08/03 10:00:31  5-MIN KMSN 081600Z 00000KT 10SM BKN018 BKN026 BKN080 16/13 A2961 1160 83 1600 000/00 RMK AO2
14837KMSN MSN20030608100513206/08/03 10:05:31  5-MIN KMSN 081605Z 21009G14KT 7SM -RA BKN018 BKN026 BKN080 15/12 A2961 1150 80 1500 210/09G14 RMK AO2 RAB05 P0000
14837KMSN MSN20030608101016806/08/03 10:10:31  5-MIN KMSN 081610Z 22008G14KT 5SM -TSRA BKN018 BKN026 BKN080 14/11 A2961 1150 80 1300 220/08G14 RMK AO2 TSB06RAB05 OCNL LTGIC OHD TS OHD MOV NE P0003
14837KMSN MSN20030608101517606/08/03 10:15:31  5-MIN KMSN 081615Z 22007KT 2SM +TSRA BKN017 BKN022 OVC050 13/11 A2961 1150 86 1200 220/07 RMK AO2 TWR VIS 2 1/2 TSB06RAB05 OCNL LTGIC OHD TS OHD MOV NE P0010
14837KMSN MSN20030608102017006/08/03 10:20:31  5-MIN KMSN 081620Z 22005KT 2 1/2SM TSRA BR SCT017 BKN028 OVC050 12/11 A2961 1150 89 1100 220/05 RMK AO2 TSB06RAB05 OCNL LTGIC OHD TS OHD MOV NE P0010 $
14837KMSN MSN20030608102513906/08/03 10:25:31  5-MIN KMSN 081625Z 22004KT 6SM -RA BR FEW017 BKN028 OVC050 13/11 A2961 1150 89 1200 220/04 RMK AO2 TSB06E24RAB05 P0010 $
14837KMSN MSN20030608103013606/08/03 10:30:31  5-MIN KMSN 081630Z 21003KT 10SM FEW017 BKN028 OVC050 13/12 A2961 1150 93 1200 210/03 RMK AO2 TSB06E24RAB05E29 P0010 $
14837KMSN MSN20030608103513606/08/03 10:35:31  5-MIN KMSN 081635Z 22003KT 10SM FEW017 BKN028 OVC050 13/12 A2961 1150 89 1300 220/03 RMK AO2 TSB06E24RAB05E29 P0010 $
14837KMSN MSN20030608104014106/08/03 10:40:31  5-MIN KMSN 081640Z 24003KT 10SM FEW017 BKN028 OVC050 14/12 A2961 1150 90 1300 240/03 RMK AO2 TSB06E24RAB05E29 VCSH P0010 $
14837KMSN MSN20030608104514106/08/03 10:45:31  5-MIN KMSN 081645Z VRB04KT 10SM FEW017 BKN028 OVC050 14/12 A2961 1150 86 1400 VRB/04 RMK AO2 TSB06E24RAB05E29 VCSH P0010 $
14837KMSN MSN20030608105015806/08/03 10:50:31  5-MIN KMSN 081650Z VRB04KT 10SM SCT017 BKN050 BKN090 14/12 A2961 1150 86 1400 VRB/04 RMK AO2 TSB06E24RAB05E29 SLP025 VCSH P0010 T01440122 $
14837KMSN MSN20030608105511606/08/03 10:55:31  5-MIN KMSN 081655Z VRB03KT 10SM -RA BKN070 OVC090 14/12 A2961 1160 83 1400 VRB/03 RMK AO2 P0000 $
14837KMSN MSN20030608110012306/08/03 11:00:31  5-MIN KMSN 081700Z 20003KT 10SM -RA FEW017 BKN050 BKN090 14/12 A2961 1150 86 1400 200/03 RMK AO2 P0000 $
14837KMSN MSN20030608110511606/08/03 11:05:31  5-MIN KMSN 081705Z 24005KT 10SM -RA FEW024 BKN070 14/12 A2961 1150 83 1400 240/05 RMK AO2 P0000 $
14837KMSN MSN20030608111013906/08/03 11:10:31  5-MIN KMSN 081710Z 24008KT 200V280 10SM -RA FEW014 BKN024 OVC070 14/11 A2962 1150 83 1300 230/08 200V280 RMK AO2 P0001 $
14837KMSN MSN20030608111514706/08/03 11:15:31  5-MIN KMSN 081715Z 26007G14KT 240V300 4SM -RA BR FEW014 BKN024 OVC070 13/11 A2962 1140 86 1200 260/07G14 240V300 RMK AO2 P0001 $
14837KMSN MSN20030608112013106/08/03 11:20:31  5-MIN KMSN 081720Z VRB05G14KT 4SM -RA BR FEW014 BKN024 OVC070 13/11 A2962 1150 86 1200 VRB/05G14 RMK AO2 P0002 $
14837KMSN MSN20030608112512506/08/03 11:25:31  5-MIN KMSN 081725Z VRB06KT 5SM -RA BR FEW014 BKN024 OVC070 13/11 A2962 1150 86 1200 VRB/06 RMK AO2 P0002 $
14837KMSN MSN20030608113012506/08/03 11:30:31  5-MIN KMSN 081730Z 29005KT 5SM -RA BR FEW014 BKN024 OVC070 13/11 A2962 1150 89 1200 290/05 RMK AO2 P0002 $
14837KMSN MSN20030608113512406/08/03 11:35:31  5-MIN KMSN 081735Z 00000KT 7SM FEW014 BKN024 OVC070 13/11 A2961 1150 89 1200 000/00 RMK AO2 RAE35 P0002 $
14837KMSN MSN20030608114012406/08/03 11:40:31  5-MIN KMSN 081740Z 00000KT 7SM FEW014 BKN024 OVC070 13/12 A2961 1150 89 1300 000/00 RMK AO2 RAE35 P0002 $
14837KMSN MSN20030608114512506/08/03 11:45:31  5-MIN KMSN 081745Z 00000KT 10SM FEW014 BKN024 OVC070 13/12 A2961 1150 89 1300 000/00 RMK AO2 RAE35 P0002 $
14837KMSN MSN20030608115016306/08/03 11:50:31  5-MIN KMSN 081750Z 00000KT 8SM -RA FEW018 SCT034 OVC065 14/12 A2961 1150 86 1300 000/00 RMK AO2 SLP026 P0002 60013 T01390117 10167 20122 58009 $
14837KMSN MSN20030608115512506/08/03 11:55:31  5-MIN KMSN 081755Z 00000KT 6SM -RA BR FEW018 SCT034 OVC070 14/12 A2961 1150 90 1300 000/00 RMK AO2 P0000 $
14837KMSN MSN20030608120012206/08/03 12:00:31  5-MIN KMSN 081800Z 21003KT 7SM -RA FEW018 SCT034 OVC070 14/12 A2961 1160 86 1300 210/03 RMK AO2 P0000 $
14837KMSN MSN20030608120512206/08/03 12:05:31  5-MIN KMSN 081805Z 20004KT 7SM -RA FEW018 SCT034 OVC070 14/12 A2961 1150 86 1400 200/04 RMK AO2 P0000 $
14837KMSN MSN20030608121012206/08/03 12:10:31  5-MIN KMSN 081810Z 21004KT 7SM -RA FEW018 SCT034 OVC070 14/12 A2961 1160 86 1400 210/04 RMK AO2 P0001 $
14837KMSN MSN20030608121512206/08/03 12:15:31  5-MIN KMSN 081815Z 22004KT 8SM -RA FEW018 SCT034 OVC070 14/12 A2961 1160 86 1400 220/04 RMK AO2 P0001 $
14837KMSN MSN20030608122012006/08/03 12:20:31  5-MIN KMSN 081820Z VRB05KT 8SM -RA FEW018 SCT034 BKN070 15/12 A2960 1160 83 1500 VRB/05 RMK AO2 P0001
14837KMSN MSN20030608122512006/08/03 12:25:31  5-MIN KMSN 081825Z 23005KT 9SM -RA FEW018 SCT034 BKN070 15/12 A2960 1160 83 1500 230/05 RMK AO2 P0001
14837KMSN MSN20030608123012006/08/03 12:30:31  5-MIN KMSN 081830Z VRB05KT 9SM -RA FEW018 SCT034 BKN070 16/13 A2960 1160 83 1500 VRB/05 RMK AO2 P0001
14837KMSN MSN20030608123512006/08/03 12:35:31  5-MIN KMSN 081835Z VRB05KT 9SM -RA FEW018 SCT034 BKN070 15/12 A2960 1160 83 1500 VRB/05 RMK AO2 P0001
14837KMSN MSN20030608124012306/08/03 12:40:31  5-MIN KMSN 081840Z 21006KT 10SM FEW034 SCT044 BKN060 16/13 A2960 1170 83 1500 210/06 RMK AO2 RAE39 P0001
14837KMSN MSN20030608124512106/08/03 12:45:31  5-MIN KMSN 081845Z 22007KT 10SM -RA FEW034 SCT044 BKN060 16/12 A2959 1170 80 1500 220/07 RMK AO2 P0001
14837KMSN MSN20030608125013706/08/03 12:50:31  5-MIN KMSN 081850Z 23008KT 7SM -RA FEW034 SCT044 BKN060 16/12 A2959 1170 77 1500 230/08 RMK AO2 SLP021 P0001 T01560117
14837KMSN MSN20030608125512006/08/03 12:55:31  5-MIN KMSN 081855Z 22006KT 5SM -RA FEW020 SCT034 BKN060 15/11 A2959 1170 77 1500 220/06 RMK AO2 P0000
14837KMSN MSN20030608130012006/08/03 13:00:31  5-MIN KMSN 081900Z 22005KT 7SM -RA FEW020 SCT034 BKN060 16/12 A2959 1170 77 1500 220/05 RMK AO2 P0000
14837KMSN MSN20030608130512006/08/03 13:05:31  5-MIN KMSN 081905Z 21007KT 7SM -RA FEW020 SCT034 BKN060 16/12 A2959 1170 77 1500 210/07 RMK AO2 P0000
14837KMSN MSN20030608131012306/08/03 13:10:31  5-MIN KMSN 081910Z VRB04KT 10SM FEW020 SCT034 BKN060 17/13 A2959 1170 77 1700 VRB/04 RMK AO2 RAE10 P0000
14837KMSN MSN20030608131512306/08/03 13:15:31  5-MIN KMSN 081915Z VRB04KT 10SM FEW020 SCT034 BKN060 16/12 A2959 1170 77 1600 VRB/04 RMK AO2 RAE10 P0000
14837KMSN MSN20030608132012306/08/03 13:20:31  5-MIN KMSN 081920Z 24008KT 10SM FEW020 SCT034 BKN060 17/13 A2959 1170 80 1700 240/08 RMK AO2 RAE10 P0000
14837KMSN MSN20030608132513906/08/03 13:25:31  5-MIN KMSN 081925Z 26008KT 210V300 10SM FEW020 SCT034 BKN060 16/12 A2959 1170 77 1600 260/08 210V300 RMK AO2 RAE10 P0000
14837KMSN MSN20030608133015006/08/03 13:30:31  5-MIN KMSN 081930Z 23008G14KT 190V270 10SM SCT034 BKN060 BKN070 16/12 A2959 1170 77 1600 230/08G14 190V270 RMK AO2 RAE10 VCSH P0000
14837KMSN MSN20030608133512806/08/03 13:35:31  5-MIN KMSN 081935Z 23007KT 10SM SCT034 BKN060 BKN070 15/11 A2959 1170 77 1500 230/07 RMK AO2 RAE10 VCSH P0000
14837KMSN MSN20030608134012806/08/03 13:40:31  5-MIN KMSN 081940Z 23006KT 10SM SCT034 BKN046 BKN070 16/11 A2959 1170 74 1500 230/06 RMK AO2 RAE10 VCSH P0000
14837KMSN MSN20030608134512806/08/03 13:45:31  5-MIN KMSN 081945Z VRB06KT 10SM SCT034 BKN046 BKN070 16/11 A2959 1170 72 1500 VRB/06 RMK AO2 RAE10 VCSH P0000
14837KMSN MSN20030608135015506/08/03 13:50:31  5-MIN KMSN 081950Z 22007KT 10SM SCT034 BKN046 BKN070 16/11 A2959 1170 72 1600 220/07 RMK AO2 RAE10 SLP020 TCU ALQDS VCSH P0000 T01610111
14837KMSN MSN20030608135511106/08/03 13:55:31  5-MIN KMSN 081955Z VRB05KT 10SM SCT034 BKN046 BKN070 17/11 A2959 1170 67 1700 VRB/05 RMK AO2
14837KMSN MSN20030608140011106/08/03 14:00:31  5-MIN KMSN 082000Z 22007KT 10SM SCT034 BKN046 BKN070 17/11 A2959 1170 67 1700 220/07 RMK AO2
14837KMSN MSN20030608140511106/08/03 14:05:31  5-MIN KMSN 082005Z 23007KT 10SM SCT034 BKN046 BKN070 17/11 A2959 1170 69 1700 230/07 RMK AO2
14837KMSN MSN20030608141011106/08/03 14:10:31  5-MIN KMSN 082010Z 23006KT 10SM SCT034 BKN046 BKN070 16/11 A2959 1170 72 1600 220/06 RMK AO2
14837KMSN MSN20030608141511106/08/03 14:15:31  5-MIN KMSN 082015Z 22006KT 10SM SCT034 BKN046 BKN070 16/11 A2959 1170 72 1600 220/06 RMK AO2
14837KMSN MSN20030608142011106/08/03 14:20:31  5-MIN KMSN 082020Z VRB05KT 10SM SCT034 BKN046 BKN070 16/11 A2959 1170 72 1600 VRB/05 RMK AO2
14837KMSN MSN20030608142511106/08/03 14:25:31  5-MIN KMSN 082025Z VRB06KT 10SM SCT034 BKN046 BKN070 18/12 A2959 1170 67 1800 VRB/06 RMK AO2
14837KMSN MSN20030608143011106/08/03 14:30:31  5-MIN KMSN 082030Z 23009KT 10SM SCT034 BKN046 BKN070 17/11 A2959 1170 67 1700 230/09 RMK AO2
14837KMSN MSN20030608143511106/08/03 14:35:31  5-MIN KMSN 082035Z VRB05KT 10SM SCT034 BKN046 BKN070 17/11 A2959 1170 67 1700 VRB/05 RMK AO2
14837KMSN MSN20030608144012706/08/03 14:40:31  5-MIN KMSN 082040Z 25008KT 200V290 10SM SCT034 BKN046 BKN070 18/12 A2959 1170 65 1900 250/08 200V290 RMK AO2
14837KMSN MSN20030608144512106/08/03 14:45:31  5-MIN KMSN 082045Z 22010KT 10SM SCT027 BKN070 18/11 A2959 1170 62 1900 220/10 RMK AO2 TCU W-NE SE VCSH
14837KMSN MSN20030608145014806/08/03 14:50:31  5-MIN KMSN 082050Z 23008KT 10SM SCT027 BKN070 18/11 A2959 1170 64 1800 220/08 RMK AO2 SLP018 TCU ALQDS VCSH 60001 T01780111 55004
14837KMSN MSN20030608145510406/08/03 14:55:31  5-MIN KMSN 082055Z VRB05KT 10SM SCT027 BKN070 18/11 A2959 1170 64 1800 VRB/05 RMK AO2
14837KMSN MSN20030608150010406/08/03 15:00:31  5-MIN KMSN 082100Z VRB06KT 10SM SCT027 BKN070 18/11 A2959 1170 62 1800 VRB/06 RMK AO2
14837KMSN MSN20030608150512006/08/03 15:05:31  5-MIN KMSN 082105Z 29007KT 220V310 10SM SCT027 BKN070 19/11 A2959 1170 58 1900 280/07 220V310 RMK AO2
14837KMSN MSN20030608151012006/08/03 15:10:31  5-MIN KMSN 082110Z 25008KT 230V290 10SM SCT027 BKN070 18/11 A2959 1170 60 1900 250/08 230V290 RMK AO2
14837KMSN MSN20030608151510406/08/03 15:15:31  5-MIN KMSN 082115Z 27010KT 10SM SCT027 BKN070 17/10 A2960 1170 62 1700 270/10 RMK AO2
14837KMSN MSN20030608152010406/08/03 15:20:31  5-MIN KMSN 082120Z 30012KT 10SM SCT027 BKN070 16/11 A2960 1160 69 1600 300/12 RMK AO2
14837KMSN MSN20030608152513306/08/03 15:25:31  5-MIN KMSN 082125Z 29012G18KT 10SM -RA SCT029 BKN045 BKN060 16/11 A2960 1160 72 1500 290/12G18 RMK AO2 RAB22 P0000
14837KMSN MSN20030608153013206/08/03 15:30:31  5-MIN KMSN 082130Z 28008G18KT 9SM -RA SCT029 BKN045 BKN060 15/11 A2960 1160 74 1500 280/08G18 RMK AO2 RAB22 P0000
14837KMSN MSN20030608153512606/08/03 15:35:31  5-MIN KMSN 082135Z VRB05KT 6SM -RA SCT029 BKN045 BKN060 15/11 A2961 1160 74 1500 VRB/05 RMK AO2 RAB22 P0000
14837KMSN MSN20030608154012606/08/03 15:40:31  5-MIN KMSN 082140Z 28005KT 5SM -RA SCT029 BKN045 BKN060 15/11 A2961 1160 77 1500 270/05 RMK AO2 RAB22 P0000
14837KMSN MSN20030608154512606/08/03 15:45:31  5-MIN KMSN 082145Z 29004KT 8SM -RA SCT029 BKN045 BKN060 16/12 A2961 1160 77 1600 290/04 RMK AO2 RAB22 P0000
14837KMSN MSN20030608155014306/08/03 15:50:31  5-MIN KMSN 082150Z 27005KT 10SM SCT030 BKN045 BKN090 16/12 A2961 1150 77 1600 270/05 RMK AO2 RAB22E49 SLP025 P0000 T01610122
14837KMSN MSN20030608155510406/08/03 15:55:31  5-MIN KMSN 082155Z 29006KT 10SM BKN038 BKN090 17/12 A2961 1150 75 1700 290/06 RMK AO2
14837KMSN MSN20030608160009706/08/03 16:00:31  5-MIN KMSN 082200Z VRB04KT 10SM SCT040 17/12 A2961 1150 75 1700 VRB/04 RMK AO2
14837KMSN MSN20030608160510306/08/03 16:05:31  5-MIN KMSN 082205Z 29005KT 10SM FEW047 17/12 A2961 1150 72 1700 280/05 RMK AO2 P0001
14837KMSN MSN20030608161010306/08/03 16:10:31  5-MIN KMSN 082210Z VRB05KT 10SM FEW055 18/13 A2961 1150 75 1800 VRB/05 RMK AO2 P0001
14837KMSN MSN20030608161511906/08/03 16:15:31  5-MIN KMSN 082215Z 29007KT 260V340 10SM FEW070 17/12 A2962 1150 72 1700 290/07 260V340 RMK AO2 P0001
14837KMSN MSN20030608162010306/08/03 16:20:31  5-MIN KMSN 082220Z VRB05KT 10SM FEW070 18/13 A2962 1140 70 1800 VRB/05 RMK AO2 P0001
14837KMSN MSN20030608162510006/08/03 16:25:31  5-MIN KMSN 082225Z VRB03KT 10SM CLR 18/13 A2962 1150 70 1800 VRB/03 RMK AO2 P0001
14837KMSN MSN20030608163010006/08/03 16:30:31  5-MIN KMSN 082230Z 31007KT 10SM CLR 19/13 A2962 1150 67 1900 310/07 RMK AO2 P0001
14837KMSN MSN20030608163510006/08/03 16:35:31  5-MIN KMSN 082235Z 29006KT 10SM CLR 18/12 A2962 1150 67 1800 290/06 RMK AO2 P0001
14837KMSN MSN20030608164011606/08/03 16:40:31  5-MIN KMSN 082240Z 30007KT 270V340 10SM CLR 18/12 A2962 1150 67 1800 300/07 270V340 RMK AO2 P0001
14837KMSN MSN20030608164511606/08/03 16:45:31  5-MIN KMSN 082245Z 29007KT 250V330 10SM CLR 19/12 A2962 1140 65 1900 290/07 250V330 RMK AO2 P0001
14837KMSN MSN20030608165012106/08/03 16:50:31  5-MIN KMSN 082250Z 30007KT 10SM SCT040 SCT065 18/12 A2962 1140 65 1800 300/07 RMK AO2 SLP028 T01830117
14837KMSN MSN20030608165509406/08/03 16:55:31  5-MIN KMSN 082255Z 28008KT 10SM CLR 18/12 A2962 1140 67 1800 280/08 RMK AO2
14837KMSN MSN20030608170010406/08/03 17:00:31  5-MIN KMSN 082300Z 29005KT 10SM FEW036 SCT060 18/12 A2962 1140 67 1800 280/05 RMK AO2
14837KMSN MSN20030608170510406/08/03 17:05:31  5-MIN KMSN 082305Z 30004KT 10SM FEW036 SCT060 18/12 A2962 1140 67 1800 300/04 RMK AO2
14837KMSN MSN20030608171010406/08/03 17:10:31  5-MIN KMSN 082310Z VRB05KT 10SM FEW033 SCT065 18/12 A2962 1140 67 1800 VRB/05 RMK AO2
14837KMSN MSN20030608171510406/08/03 17:15:31  5-MIN KMSN 082315Z 30007KT 10SM FEW033 SCT060 18/12 A2963 1130 67 1800 300/07 RMK AO2
14837KMSN MSN20030608172013306/08/03 17:20:31  5-MIN KMSN 082320Z 30011G15KT 10SM -RA FEW031 SCT060 SCT080 17/12 A2963 1130 69 1700 300/11G15 RMK AO2 RAB19 P0000
14837KMSN MSN20030608172512706/08/03 17:25:31  5-MIN KMSN 082325Z 32009KT 10SM -RA FEW031 SCT060 BKN080 16/13 A2964 1130 80 1600 320/09 RMK AO2 RAB19 P0000
14837KMSN MSN20030608173012606/08/03 17:30:31  5-MIN KMSN 082330Z 31006KT 10SM FEW031 BKN080 BKN090 16/13 A2964 1130 80 1600 310/06 RMK AO2 RAB19E27 P0000
14837KMSN MSN20030608173512606/08/03 17:35:31  5-MIN KMSN 082335Z 31004KT 10SM FEW034 BKN080 BKN100 16/13 A2964 1130 80 1600 310/04 RMK AO2 RAB19E27 P0000
14837KMSN MSN20030608174011906/08/03 17:40:31  5-MIN KMSN 082340Z VRB05KT 10SM SCT085 BKN100 16/12 A2964 1120 77 1600 VRB/05 RMK AO2 RAB19E27 P0000
14837KMSN MSN20030608174513306/08/03 17:45:31  5-MIN KMSN 082345Z 32006KT 10SM -RA FEW037 BKN080 BKN100 16/12 A2964 1120 77 1600 310/06 RMK AO2 RAB19E27B43 P0000
14837KMSN MSN20030608175017606/08/03 17:50:31  5-MIN KMSN 082350Z 30005KT 10SM -RA FEW035 SCT065 BKN085 16/12 A2964 1120 75 1600 300/05 RMK AO2 RAB19E27B43 SLP038 P0000 60001 T01610117 10189 20139 55006 $
14837KMSN MSN20030608175512506/08/03 17:55:31  5-MIN KMSN 082355Z 33005KT 10SM FEW046 SCT080 BKN095 16/12 A2965 1120 75 1500 330/05 RMK AO2 RAE55 P0000 $
14837KMSN MSN20030608180012706/08/03 18:00:31  5-MIN KMSN 090000Z 31004KT 10SM FEW049 SCT080 BKN095 16/12 A2965 1120 75 1500 310/04 RMK AO2 RAE2355 P0000 $
14837KMSN MSN20030608180512706/08/03 18:05:31  5-MIN KMSN 090005Z 32005KT 10SM FEW039 BKN075 BKN090 16/12 A2965 1110 75 1500 310/05 RMK AO2 RAE2355 P0000 $
14837KMSN MSN20030608181012706/08/03 18:10:31  5-MIN KMSN 090010Z 31004KT 10SM FEW039 BKN075 BKN090 16/12 A2966 1110 77 1500 310/04 RMK AO2 RAE2355 P0000 $
14837KMSN MSN20030608181512006/08/03 18:15:31  5-MIN KMSN 090015Z VRB05KT 10SM BKN075 BKN090 16/12 A2966 1110 75 1500 VRB/05 RMK AO2 RAE2355 P0000 $
14837KMSN MSN20030608182012006/08/03 18:20:31  5-MIN KMSN 090020Z 31003KT 10SM BKN075 OVC090 16/12 A2966 1110 77 1500 310/03 RMK AO2 RAE2355 P0000 $
14837KMSN MSN20030608182512006/08/03 18:25:31  5-MIN KMSN 090025Z 30005KT 10SM BKN075 OVC090 16/12 A2966 1100 80 1500 300/05 RMK AO2 RAE2355 P0000 $
14837KMSN MSN20030608183011106/08/03 18:30:31  5-MIN KMSN 090030Z 31006KT 10SM OVC080 16/12 A2967 1100 80 1500 310/06 RMK AO2 RAE2355 P0000
14837KMSN MSN20030608183511106/08/03 18:35:31  5-MIN KMSN 090035Z 30004KT 10SM OVC080 16/12 A2967 1100 80 1500 300/04 RMK AO2 RAE2355 P0000
14837KMSN MSN20030608184011106/08/03 18:40:31  5-MIN KMSN 090040Z VRB05KT 10SM OVC075 16/12 A2967 1100 80 1500 VRB/05 RMK AO2 RAE2355 P0000
14837KMSN MSN20030608184511806/08/03 18:45:31  5-MIN KMSN 090045Z 29005KT 10SM BKN080 BKN095 16/12 A2967 1100 80 1500 290/05 RMK AO2 RAE2355 P0000
14837KMSN MSN20030608185013506/08/03 18:50:31  5-MIN KMSN 090050Z VRB04KT 10SM BKN080 BKN110 16/12 A2967 1100 80 1500 VRB/04 RMK AO2 RAE2355 SLP046 P0000 T01560122
14837KMSN MSN20030608185510406/08/03 18:55:31  5-MIN KMSN 090055Z VRB04KT 10SM SCT080 BKN110 16/12 A2967 1100 80 1500 VRB/04 RMK AO2
14837KMSN MSN20030608190010406/08/03 19:00:31  5-MIN KMSN 090100Z 29005KT 10SM FEW080 BKN110 15/12 A2967 1090 83 1400 290/05 RMK AO2
14837KMSN MSN20030608190510406/08/03 19:05:31  5-MIN KMSN 090105Z VRB04KT 10SM SCT085 BKN110 15/12 A2967 1090 83 1400 VRB/04 RMK AO2
14837KMSN MSN20030608191010406/08/03 19:10:31  5-MIN KMSN 090110Z 30004KT 10SM SCT090 BKN110 15/12 A2967 1090 83 1400 300/04 RMK AO2
14837KMSN MSN20030608191510406/08/03 19:15:31  5-MIN KMSN 090115Z 29003KT 10SM SCT090 BKN110 15/12 A2968 1090 83 1400 290/03 RMK AO2
14837KMSN MSN20030608192010406/08/03 19:20:31  5-MIN KMSN 090120Z VRB04KT 10SM FEW090 SCT110 15/12 A2968 1090 83 1400 VRB/04 RMK AO2
14837KMSN MSN20030608192509706/08/03 19:25:31  5-MIN KMSN 090125Z 28004KT 10SM FEW090 15/12 A2968 1090 83 1400 280/04 RMK AO2
14837KMSN MSN20030608193009706/08/03 19:30:31  5-MIN KMSN 090130Z 25003KT 10SM SCT090 14/12 A2968 1090 90 1300 250/03 RMK AO2
14837KMSN MSN20030608193509706/08/03 19:35:31  5-MIN KMSN 090135Z 27004KT 10SM SCT090 14/12 A2968 1090 86 1300 270/04 RMK AO2
14837KMSN MSN20030608194009706/08/03 19:40:31  5-MIN KMSN 090140Z 28004KT 10SM FEW090 14/12 A2968 1080 86 1300 280/04 RMK AO2
14837KMSN MSN20030608194509706/08/03 19:45:31  5-MIN KMSN 090145Z 27003KT 10SM FEW090 14/12 A2969 1080 86 1300 270/03 RMK AO2
14837KMSN MSN20030608195011406/08/03 19:50:31  5-MIN KMSN 090150Z VRB03KT 10SM FEW090 14/12 A2969 1080 90 1200 VRB/03 RMK AO2 SLP054 T01390122
14837KMSN MSN20030608195509706/08/03 19:55:31  5-MIN KMSN 090155Z 00000KT 10SM FEW090 14/12 A2969 1080 90 1200 000/00 RMK AO2
14837KMSN MSN20030608200009406/08/03 20:00:31  5-MIN KMSN 090200Z 26003KT 10SM CLR 14/12 A2969 1080 90 1200 260/03 RMK AO2
14837KMSN MSN20030608200509406/08/03 20:05:31  5-MIN KMSN 090205Z 26003KT 10SM CLR 14/12 A2969 1080 86 1200 260/03 RMK AO2
14837KMSN MSN20030608201009406/08/03 20:10:31  5-MIN KMSN 090210Z VRB04KT 10SM CLR 14/12 A2969 1070 86 1200 VRB/04 RMK AO2
14837KMSN MSN20030608201509406/08/03 20:15:31  5-MIN KMSN 090215Z VRB03KT 10SM CLR 14/12 A2970 1070 86 1200 VRB/03 RMK AO2
14837KMSN MSN20030608202009406/08/03 20:20:31  5-MIN KMSN 090220Z 00000KT 10SM CLR 13/12 A2970 1070 89 1200 000/00 RMK AO2
14837KMSN MSN20030608202509406/08/03 20:25:31  5-MIN KMSN 090225Z VRB03KT 10SM CLR 13/12 A2970 1070 89 1200 VRB/03 RMK AO2
14837KMSN MSN20030608203009406/08/03 20:30:31  5-MIN KMSN 090230Z VRB03KT 10SM CLR 13/12 A2970 1070 89 1200 VRB/03 RMK AO2
14837KMSN MSN20030608203509406/08/03 20:35:31  5-MIN KMSN 090235Z VRB03KT 10SM CLR 13/12 A2970 1060 89 1200 VRB/03 RMK AO2
14837KMSN MSN20030608204009406/08/03 20:40:31  5-MIN KMSN 090240Z 25004KT 10SM CLR 13/12 A2971 1060 89 1200 240/04 RMK AO2
14837KMSN MSN20030608204509406/08/03 20:45:31  5-MIN KMSN 090245Z 25004KT 10SM CLR 13/12 A2971 1060 89 1200 250/04 RMK AO2
14837KMSN MSN20030608205012306/08/03 20:50:31  5-MIN KMSN 090250Z 24004KT 10SM CLR 13/12 A2971 1060 89 1100 240/04 RMK AO2 SLP061 60000 T01330117 53017
14837KMSN MSN20030608205509406/08/03 20:55:31  5-MIN KMSN 090255Z VRB04KT 10SM CLR 13/12 A2971 1060 89 1100 VRB/04 RMK AO2
14837KMSN MSN20030608210009406/08/03 21:00:31  5-MIN KMSN 090300Z 00000KT 10SM CLR 13/12 A2971 1060 89 1100 000/00 RMK AO2
14837KMSN MSN20030608210509406/08/03 21:05:31  5-MIN KMSN 090305Z VRB03KT 10SM CLR 13/12 A2972 1050 93 1100 VRB/03 RMK AO2
14837KMSN MSN20030608211009406/08/03 21:10:31  5-MIN KMSN 090310Z VRB03KT 10SM CLR 13/12 A2972 1050 89 1100 VRB/03 RMK AO2
14837KMSN MSN20030608211509406/08/03 21:15:31  5-MIN KMSN 090315Z VRB03KT 10SM CLR 13/12 A2971 1060 89 1100 VRB/03 RMK AO2
14837KMSN MSN20030608212009406/08/03 21:20:31  5-MIN KMSN 090320Z VRB04KT 10SM CLR 13/12 A2972 1050 89 1100 VRB/04 RMK AO2
14837KMSN MSN20030608212509406/08/03 21:25:31  5-MIN KMSN 090325Z VRB03KT 10SM CLR 13/12 A2971 1050 89 1100 VRB/03 RMK AO2
14837KMSN MSN20030608213009406/08/03 21:30:31  5-MIN KMSN 090330Z VRB03KT 10SM CLR 13/12 A2971 1050 89 1100 VRB/03 RMK AO2
14837KMSN MSN20030608213509406/08/03 21:35:31  5-MIN KMSN 090335Z VRB03KT 10SM CLR 13/12 A2971 1060 89 1100 VRB/03 RMK AO2
14837KMSN MSN20030608214009406/08/03 21:40:31  5-MIN KMSN 090340Z VRB03KT 10SM CLR 13/12 A2971 1060 89 1100 VRB/03 RMK AO2
14837KMSN MSN20030608214509406/08/03 21:45:31  5-MIN KMSN 090345Z VRB03KT 10SM CLR 13/12 A2972 1050 89 1100 VRB/03 RMK AO2
14837KMSN MSN20030608215011106/08/03 21:50:31  5-MIN KMSN 090350Z 00000KT 10SM CLR 13/12 A2972 1050 93 1100 000/00 RMK AO2 SLP063 T01280117
14837KMSN MSN20030608215509406/08/03 21:55:31  5-MIN KMSN 090355Z VRB03KT 10SM CLR 13/12 A2971 1060 93 1100 VRB/03 RMK AO2
14837KMSN MSN20030608220009406/08/03 22:00:31  5-MIN KMSN 090400Z VRB03KT 10SM CLR 13/12 A2971 1060 93 1100 VRB/03 RMK AO2
14837KMSN MSN20030608220509406/08/03 22:05:31  5-MIN KMSN 090405Z 00000KT 10SM CLR 13/12 A2971 1060 93 1100 000/00 RMK AO2
14837KMSN MSN20030608221009406/08/03 22:10:31  5-MIN KMSN 090410Z VRB03KT 10SM CLR 13/12 A2971 1060 93 1100 VRB/03 RMK AO2
14837KMSN MSN20030608221509406/08/03 22:15:31  5-MIN KMSN 090415Z VRB03KT 10SM CLR 13/12 A2972 1050 93 1100 VRB/03 RMK AO2
14837KMSN MSN20030608222009406/08/03 22:20:31  5-MIN KMSN 090420Z VRB03KT 10SM CLR 13/12 A2972 1050 93 1100 VRB/03 RMK AO2
14837KMSN MSN20030608222509406/08/03 22:25:31  5-MIN KMSN 090425Z VRB03KT 10SM CLR 13/12 A2972 1050 93 1100 VRB/03 RMK AO2
14837KMSN MSN20030608223009406/08/03 22:30:31  5-MIN KMSN 090430Z VRB03KT 10SM CLR 13/12 A2972 1050 93 1100 VRB/03 RMK AO2
14837KMSN MSN20030608223509406/08/03 22:35:31  5-MIN KMSN 090435Z VRB03KT 10SM CLR 13/12 A2972 1050 93 1100 VRB/03 RMK AO2
14837KMSN MSN20030608224009406/08/03 22:40:31  5-MIN KMSN 090440Z VRB04KT 10SM CLR 13/12 A2972 1050 93 1100 VRB/04 RMK AO2
14837KMSN MSN20030608224509406/08/03 22:45:31  5-MIN KMSN 090445Z 00000KT 10SM CLR 13/12 A2971 1060 93 1100 000/00 RMK AO2
14837KMSN MSN20030608225011106/08/03 22:50:31  5-MIN KMSN 090450Z 28003KT 10SM CLR 13/12 A2971 1060 93 1100 280/03 RMK AO2 SLP062 T01280117
14837KMSN MSN20030608225509406/08/03 22:55:31  5-MIN KMSN 090455Z VRB03KT 10SM CLR 13/12 A2972 1050 93 1100 VRB/03 RMK AO2
14837KMSN MSN20030608230009406/08/03 23:00:31  5-MIN KMSN 090500Z 00000KT 10SM CLR 13/12 A2972 1050 93 1100 000/00 RMK AO2
14837KMSN MSN20030608230509406/08/03 23:05:31  5-MIN KMSN 090505Z 00000KT 10SM CLR 13/12 A2972 1050 93 1100 000/00 RMK AO2
14837KMSN MSN20030608231009406/08/03 23:10:31  5-MIN KMSN 090510Z 00000KT 10SM CLR 13/12 A2972 1050 93 1100 000/00 RMK AO2
14837KMSN MSN20030608231509406/08/03 23:15:31  5-MIN KMSN 090515Z 00000KT 10SM CLR 13/12 A2972 1050 93 1100 000/00 RMK AO2
14837KMSN MSN20030608232009406/08/03 23:20:31  5-MIN KMSN 090520Z 00000KT 10SM CLR 13/12 A2972 1050 93 1100 000/00 RMK AO2
14837KMSN MSN20030608232509406/08/03 23:25:31  5-MIN KMSN 090525Z 00000KT 10SM CLR 13/12 A2972 1050 93 1100 000/00 RMK AO2
14837KMSN MSN20030608233009406/08/03 23:30:31  5-MIN KMSN 090530Z VRB03KT 10SM CLR 13/11 A2972 1050 89 1100 VRB/03 RMK AO2
14837KMSN MSN20030608233509406/08/03 23:35:31  5-MIN KMSN 090535Z VRB04KT 10SM CLR 13/12 A2972 1050 93 1100 VRB/04 RMK AO2
14837KMSN MSN20030608234009406/08/03 23:40:31  5-MIN KMSN 090540Z VRB03KT 10SM CLR 13/12 A2972 1050 93 1100 VRB/03 RMK AO2
14837KMSN MSN20030608234509406/08/03 23:45:31  5-MIN KMSN 090545Z 28003KT 10SM CLR 13/12 A2972 1050 93 1100 280/03 RMK AO2
14837KMSN MSN20030608235014506/08/03 23:50:31  5-MIN KMSN 090550Z 28004KT 10SM CLR 13/12 A2972 1050 93 1100 280/04 RMK AO2 SLP064 60000 T01280117 10161 20128 401890122 51022
14837KMSN MSN20030608235509406/08/03 23:55:31  5-MIN KMSN 090555Z VRB03KT 10SM CLR 13/12 A2972 1050 93 1100 VRB/03 RMK AO2
14837KMSN MSN20030609000009406/09/03 00:00:31  5-MIN KMSN 090600Z 30004KT 10SM CLR 13/12 A2972 1050 93 1100 300/04 RMK AO2
14837KMSN MSN20030609000509406/09/03 00:05:31  5-MIN KMSN 090605Z VRB04KT 10SM CLR 13/12 A2972 1050 93 1100 VRB/04 RMK AO2
14837KMSN MSN20030609001009406/09/03 00:10:31  5-MIN KMSN 090610Z 29004KT 10SM CLR 13/12 A2972 1050 93 1100 290/04 RMK AO2
14837KMSN MSN20030609001509706/09/03 00:15:31  5-MIN KMSN 090615Z 28004KT 10SM FEW055 13/12 A2972 1050 93 1100 280/04 RMK AO2
14837KMSN MSN20030609002009706/09/03 00:20:31  5-MIN KMSN 090620Z 28004KT 10SM SCT055 13/12 A2972 1050 93 1100 280/04 RMK AO2
14837KMSN MSN20030609002509706/09/03 00:25:31  5-MIN KMSN 090625Z 29004KT 10SM FEW055 13/12 A2972 1050 93 1100 290/04 RMK AO2
14837KMSN MSN20030609003009706/09/03 00:30:31  5-MIN KMSN 090630Z 29004KT 10SM FEW055 13/12 A2972 1050 93 1100 280/04 RMK AO2
14837KMSN MSN20030609003509706/09/03 00:35:31  5-MIN KMSN 090635Z 27004KT 10SM FEW055 13/12 A2972 1050 93 1100 270/04 RMK AO2
14837KMSN MSN20030609004009706/09/03 00:40:31  5-MIN KMSN 090640Z 29004KT 10SM FEW055 13/12 A2972 1050 93 1100 290/04 RMK AO2
14837KMSN MSN20030609004509406/09/03 00:45:31  5-MIN KMSN 090645Z 28004KT 10SM CLR 13/12 A2972 1050 93 1100 280/04 RMK AO2
14837KMSN MSN20030609005011106/09/03 00:50:31  5-MIN KMSN 090650Z 29005KT 10SM CLR 13/12 A2972 1050 93 1100 290/05 RMK AO2 SLP065 T01280117
14837KMSN MSN20030609005509406/09/03 00:55:31  5-MIN KMSN 090655Z 28005KT 10SM CLR 13/12 A2972 1050 93 1100 280/05 RMK AO2
14837KMSN MSN20030609010009406/09/03 01:00:31  5-MIN KMSN 090700Z 28004KT 10SM CLR 13/12 A2972 1050 93 1100 280/04 RMK AO2
14837KMSN MSN20030609010509406/09/03 01:05:31  5-MIN KMSN 090705Z VRB04KT 10SM CLR 13/12 A2972 1050 93 1100 VRB/04 RMK AO2
14837KMSN MSN20030609011009406/09/03 01:10:31  5-MIN KMSN 090710Z 27004KT 10SM CLR 13/12 A2972 1050 93 1100 270/04 RMK AO2
14837KMSN MSN20030609011509406/09/03 01:15:31  5-MIN KMSN 090715Z VRB03KT 10SM CLR 13/11 A2972 1050 89 1100 VRB/03 RMK AO2
14837KMSN MSN20030609012009406/09/03 01:20:31  5-MIN KMSN 090720Z 28005KT 10SM CLR 13/11 A2973 1050 89 1100 280/05 RMK AO2
14837KMSN MSN20030609012509406/09/03 01:25:31  5-MIN KMSN 090725Z 28004KT 10SM CLR 13/12 A2973 1040 93 1100 280/04 RMK AO2
14837KMSN MSN20030609013009406/09/03 01:30:31  5-MIN KMSN 090730Z 28004KT 10SM CLR 13/11 A2973 1040 89 1100 280/04 RMK AO2
14837KMSN MSN20030609013509406/09/03 01:35:31  5-MIN KMSN 090735Z 27003KT 10SM CLR 12/11 A2973 1040 93 1000 270/03 RMK AO2
14837KMSN MSN20030609014009406/09/03 01:40:31  5-MIN KMSN 090740Z 28003KT 10SM CLR 12/11 A2973 1040 93 1000 280/03 RMK AO2
14837KMSN MSN20030609014509406/09/03 01:45:31  5-MIN KMSN 090745Z VRB03KT 10SM CLR 12/11 A2973 1040 93 1000 VRB/03 RMK AO2
14837KMSN MSN20030609015011106/09/03 01:50:31  5-MIN KMSN 090750Z VRB03KT 10SM CLR 12/11 A2973 1040 93 1000 VRB/03 RMK AO2 SLP067 T01220111
14837KMSN MSN20030609015509306/09/03 01:55:31  5-MIN KMSN 090755Z VRB04KT 9SM CLR 12/11 A2973 1040 93 1000 VRB/04 RMK AO2
14837KMSN MSN20030609020009306/09/03 02:00:31  5-MIN KMSN 090800Z VRB03KT 9SM CLR 12/11 A2973 1040 93 1000 VRB/03 RMK AO2
14837KMSN MSN20030609020509306/09/03 02:05:31  5-MIN KMSN 090805Z VRB03KT 9SM CLR 12/11 A2973 1040 93 1000 VRB/03 RMK AO2
14837KMSN MSN20030609021009306/09/03 02:10:31  5-MIN KMSN 090810Z 00000KT 9SM CLR 12/11 A2973 1040 93 1000 000/00 RMK AO2
14837KMSN MSN20030609021509306/09/03 02:15:31  5-MIN KMSN 090815Z 00000KT 9SM CLR 12/11 A2973 1040 93 1000 000/00 RMK AO2
14837KMSN MSN20030609022009306/09/03 02:20:31  5-MIN KMSN 090820Z VRB03KT 8SM CLR 12/11 A2974 1040 93 1000 VRB/03 RMK AO2
14837KMSN MSN20030609022509306/09/03 02:25:31  5-MIN KMSN 090825Z 27003KT 8SM CLR 12/11 A2974 1040 93 1000 270/03 RMK AO2
14837KMSN MSN20030609023009306/09/03 02:30:31  5-MIN KMSN 090830Z VRB04KT 8SM CLR 12/11 A2974 1030 93 1000 VRB/04 RMK AO2
14837KMSN MSN20030609023509306/09/03 02:35:31  5-MIN KMSN 090835Z 27004KT 8SM CLR 12/11 A2974 1030 93 1000 270/04 RMK AO2
14837KMSN MSN20030609024009306/09/03 02:40:31  5-MIN KMSN 090840Z 28004KT 8SM CLR 12/11 A2974 1030 93 1000 270/04 RMK AO2
14837KMSN MSN20030609024509306/09/03 02:45:31  5-MIN KMSN 090845Z 26004KT 8SM CLR 12/11 A2974 1030 93 1000 260/04 RMK AO2
14837KMSN MSN20030609025011706/09/03 02:50:31  5-MIN KMSN 090850Z 27003KT 10SM CLR 12/11 A2974 1030 93 1000 270/03 RMK AO2 SLP071 T01220111 53003
14837KMSN MSN20030609025509306/09/03 02:55:31  5-MIN KMSN 090855Z 28004KT 8SM CLR 12/11 A2974 1030 93 1000 280/04 RMK AO2
14837KMSN MSN20030609030009306/09/03 03:00:31  5-MIN KMSN 090900Z VRB04KT 8SM CLR 12/11 A2975 1030 93 1000 VRB/04 RMK AO2
14837KMSN MSN20030609030509306/09/03 03:05:31  5-MIN KMSN 090905Z 00000KT 8SM CLR 12/11 A2975 1020 93 1000 000/00 RMK AO2
14837KMSN MSN20030609031009306/09/03 03:10:31  5-MIN KMSN 090910Z VRB03KT 8SM CLR 12/11 A2975 1020 93 1000 VRB/03 RMK AO2
14837KMSN MSN20030609031509306/09/03 03:15:31  5-MIN KMSN 090915Z 27003KT 8SM CLR 12/11 A2975 1020 93 1000 270/03 RMK AO2
14837KMSN MSN20030609032009206/09/03 03:20:31  5-MIN KMSN 090920Z 28004KT 8SM CLR 12/11 A2975 1020 96 900 280/04 RMK AO2
14837KMSN MSN20030609032509206/09/03 03:25:31  5-MIN KMSN 090925Z VRB03KT 8SM CLR 12/11 A2975 1020 96 900 VRB/03 RMK AO2
14837KMSN MSN20030609033009206/09/03 03:30:31  5-MIN KMSN 090930Z VRB03KT 8SM CLR 12/11 A2976 1020 96 900 VRB/03 RMK AO2
14837KMSN MSN20030609033509206/09/03 03:35:31  5-MIN KMSN 090935Z VRB03KT 8SM CLR 12/11 A2976 1020 96 900 VRB/03 RMK AO2
14837KMSN MSN20030609034009206/09/03 03:40:31  5-MIN KMSN 090940Z 28003KT 8SM CLR 12/11 A2976 1010 96 900 280/03 RMK AO2
14837KMSN MSN20030609034509206/09/03 03:45:31  5-MIN KMSN 090945Z 29003KT 8SM CLR 12/11 A2976 1010 96 900 290/03 RMK AO2
14837KMSN MSN20030609035011006/09/03 03:50:31  5-MIN KMSN 090950Z 29003KT 10SM CLR 12/11 A2976 1010 96 900 280/03 RMK AO2 SLP079 T01170111
14837KMSN MSN20030609035509206/09/03 03:55:31  5-MIN KMSN 090955Z 28004KT 8SM CLR 12/11 A2977 1010 96 900 280/04 RMK AO2
14837KMSN MSN20030609040009206/09/03 04:00:31  5-MIN KMSN 091000Z 27004KT 9SM CLR 12/11 A2977 1010 93 900 270/04 RMK AO2
14837KMSN MSN20030609040509206/09/03 04:05:31  5-MIN KMSN 091005Z 26003KT 9SM CLR 12/11 A2977 1000 96 900 260/03 RMK AO2
14837KMSN MSN20030609041009206/09/03 04:10:31  5-MIN KMSN 091010Z VRB03KT 9SM CLR 12/11 A2977 1000 96 900 VRB/03 RMK AO2
14837KMSN MSN20030609041509206/09/03 04:15:31  5-MIN KMSN 091015Z 00000KT 8SM CLR 12/11 A2978 1000 93 900 000/00 RMK AO2
14837KMSN MSN20030609042009206/09/03 04:20:31  5-MIN KMSN 091020Z 00000KT 7SM CLR 12/11 A2978 1000 93 900 000/00 RMK AO2
14837KMSN MSN20030609042509206/09/03 04:25:31  5-MIN KMSN 091025Z 29003KT 7SM CLR 12/11 A2978 1000 93 900 290/03 RMK AO2
14837KMSN MSN20030609043009106/09/03 04:30:31  5-MIN KMSN 091030Z 27003KT 7SM CLR 12/11 A2978 990 93 900 270/03 RMK AO2
14837KMSN MSN20030609043509106/09/03 04:35:31  5-MIN KMSN 091035Z 27004KT 7SM CLR 12/11 A2978 990 93 900 270/04 RMK AO2
14837KMSN MSN20030609044009206/09/03 04:40:31  5-MIN KMSN 091040Z 28003KT 10SM CLR 12/11 A2978 990 93 900 270/03 RMK AO2
14837KMSN MSN20030609044509206/09/03 04:45:31  5-MIN KMSN 091045Z 28004KT 10SM CLR 12/11 A2979 990 93 900 270/04 RMK AO2
14837KMSN MSN20030609045010906/09/03 04:50:31  5-MIN KMSN 091050Z 28003KT 10SM CLR 12/11 A2979 990 93 900 280/03 RMK AO2 SLP086 T01170106
14837KMSN MSN20030609045509106/09/03 04:55:31  5-MIN KMSN 091055Z 28003KT 7SM CLR 12/11 A2979 990 93 900 280/03 RMK AO2
14837KMSN MSN20030609050009106/09/03 05:00:31  5-MIN KMSN 091100Z 28004KT 7SM CLR 12/11 A2979 980 93 900 280/04 RMK AO2
14837KMSN MSN20030609050509106/09/03 05:05:31  5-MIN KMSN 091105Z 29004KT 7SM CLR 12/11 A2979 980 96 900 290/04 RMK AO2
14837KMSN MSN20030609051009106/09/03 05:10:31  5-MIN KMSN 091110Z 27004KT 7SM CLR 12/11 A2980 980 96 900 270/04 RMK AO2
14837KMSN MSN20030609051509106/09/03 05:15:31  5-MIN KMSN 091115Z 28005KT 7SM CLR 12/11 A2980 980 93 900 280/05 RMK AO2
14837KMSN MSN20030609052009106/09/03 05:20:31  5-MIN KMSN 091120Z 27003KT 7SM CLR 12/11 A2980 980 93 900 270/03 RMK AO2
14837KMSN MSN20030609052509106/09/03 05:25:31  5-MIN KMSN 091125Z VRB04KT 7SM CLR 12/11 A2980 980 93 900 VRB/04 RMK AO2
14837KMSN MSN20030609053009106/09/03 05:30:31  5-MIN KMSN 091130Z VRB03KT 7SM CLR 12/11 A2980 970 93 900 VRB/03 RMK AO2
14837KMSN MSN20030609053509206/09/03 05:35:31  5-MIN KMSN 091135Z 00000KT 8SM CLR 13/11 A2980 970 89 1000 000/00 RMK AO2
14837KMSN MSN20030609054009206/09/03 05:40:31  5-MIN KMSN 091140Z VRB03KT 7SM CLR 13/12 A2981 970 93 1000 VRB/03 RMK AO2
14837KMSN MSN20030609054509206/09/03 05:45:31  5-MIN KMSN 091145Z VRB03KT 7SM CLR 13/12 A2981 970 93 1000 VRB/03 RMK AO2
14837KMSN MSN20030609055013306/09/03 05:50:31  5-MIN KMSN 091150Z VRB05KT 8SM CLR 13/12 A2981 960 93 1000 VRB/05 RMK AO2 SLP095 70014 T01280117 10128 20117 53007
14837KMSN MSN20030609055509206/09/03 05:55:31  5-MIN KMSN 091155Z VRB04KT 8SM CLR 13/12 A2981 960 89 1000 VRB/04 RMK AO2
14837KMSN MSN20030609060009206/09/03 06:00:31  5-MIN KMSN 091200Z 27004KT 8SM CLR 13/12 A2982 960 89 1000 270/04 RMK AO2
14837KMSN MSN20030609060509206/09/03 06:05:31  5-MIN KMSN 091205Z 27005KT 8SM CLR 13/12 A2982 960 89 1000 270/05 RMK AO2
14837KMSN MSN20030609061009206/09/03 06:10:31  5-MIN KMSN 091210Z VRB04KT 8SM CLR 14/12 A2982 960 86 1100 VRB/04 RMK AO2
14837KMSN MSN20030609061509206/09/03 06:15:31  5-MIN KMSN 091215Z 28006KT 8SM CLR 14/12 A2982 950 86 1100 280/06 RMK AO2
14837KMSN MSN20030609062009206/09/03 06:20:31  5-MIN KMSN 091220Z 27005KT 8SM CLR 14/12 A2982 950 86 1100 270/05 RMK AO2
14837KMSN MSN20030609062509206/09/03 06:25:31  5-MIN KMSN 091225Z 28006KT 8SM CLR 14/12 A2983 950 86 1100 280/06 RMK AO2
14837KMSN MSN20030609063009206/09/03 06:30:31  5-MIN KMSN 091230Z 27005KT 8SM CLR 14/12 A2983 950 86 1100 270/05 RMK AO2
14837KMSN MSN20030609063509206/09/03 06:35:31  5-MIN KMSN 091235Z 28005KT 8SM CLR 14/12 A2983 950 86 1100 280/05 RMK AO2
14837KMSN MSN20030609064009206/09/03 06:40:31  5-MIN KMSN 091240Z 30004KT 8SM CLR 14/12 A2983 950 86 1100 300/04 RMK AO2
14837KMSN MSN20030609064509206/09/03 06:45:31  5-MIN KMSN 091245Z VRB05KT 8SM CLR 14/12 A2983 950 86 1100 VRB/05 RMK AO2
14837KMSN MSN20030609065010906/09/03 06:50:31  5-MIN KMSN 091250Z 29005KT 8SM CLR 14/12 A2983 940 86 1100 290/05 RMK AO2 SLP102 T01440122
14837KMSN MSN20030609065509206/09/03 06:55:31  5-MIN KMSN 091255Z 29006KT 8SM CLR 15/12 A2983 940 83 1200 290/06 RMK AO2
14837KMSN MSN20030609070009206/09/03 07:00:31  5-MIN KMSN 091300Z 31005KT 8SM CLR 15/12 A2984 940 83 1200 310/05 RMK AO2
14837KMSN MSN20030609070509206/09/03 07:05:31  5-MIN KMSN 091305Z 29005KT 8SM CLR 15/12 A2984 940 83 1200 290/05 RMK AO2
14837KMSN MSN20030609071009206/09/03 07:10:31  5-MIN KMSN 091310Z 32006KT 8SM CLR 16/12 A2984 940 80 1300 320/06 RMK AO2
14837KMSN MSN20030609071509206/09/03 07:15:31  5-MIN KMSN 091315Z VRB05KT 9SM CLR 16/12 A2984 940 80 1300 VRB/05 RMK AO2
14837KMSN MSN20030609072009206/09/03 07:20:31  5-MIN KMSN 091320Z 32005KT 9SM CLR 16/12 A2984 940 80 1300 320/05 RMK AO2
14837KMSN MSN20030609072509206/09/03 07:25:31  5-MIN KMSN 091325Z VRB05KT 9SM CLR 16/12 A2985 930 80 1300 VRB/05 RMK AO2
14837KMSN MSN20030609073009206/09/03 07:30:31  5-MIN KMSN 091330Z VRB06KT 9SM CLR 16/12 A2985 930 77 1300 VRB/06 RMK AO2
14837KMSN MSN20030609073509506/09/03 07:35:31  5-MIN KMSN 091335Z 32007KT 9SM FEW050 16/12 A2985 930 77 1300 320/07 RMK AO2
14837KMSN MSN20030609074009506/09/03 07:40:31  5-MIN KMSN 091340Z 30006KT 9SM SCT050 16/12 A2985 930 77 1300 300/06 RMK AO2
14837KMSN MSN20030609074509506/09/03 07:45:31  5-MIN KMSN 091345Z 33006KT 9SM SCT050 16/12 A2985 930 77 1300 330/06 RMK AO2
14837KMSN MSN20030609075011206/09/03 07:50:31  5-MIN KMSN 091350Z 29005KT 9SM SCT050 17/12 A2985 930 75 1400 290/05 RMK AO2 SLP108 T01670122
14837KMSN MSN20030609075509506/09/03 07:55:31  5-MIN KMSN 091355Z 28005KT 9SM SCT050 17/12 A2985 930 75 1400 280/05 RMK AO2
14837KMSN MSN20030609080009506/09/03 08:00:31  5-MIN KMSN 091400Z 30005KT 9SM FEW050 17/12 A2985 930 75 1400 300/05 RMK AO2
14837KMSN MSN20030609080509506/09/03 08:05:31  5-MIN KMSN 091405Z 29006KT 9SM FEW050 17/12 A2985 930 72 1400 290/06 RMK AO2
14837KMSN MSN20030609081009206/09/03 08:10:31  5-MIN KMSN 091410Z VRB04KT 9SM CLR 17/12 A2986 920 75 1400 VRB/04 RMK AO2
14837KMSN MSN20030609081509206/09/03 08:15:31  5-MIN KMSN 091415Z VRB05KT 9SM CLR 17/12 A2986 920 75 1400 VRB/05 RMK AO2
14837KMSN MSN20030609082009206/09/03 08:20:31  5-MIN KMSN 091420Z 31006KT 9SM CLR 17/12 A2986 920 72 1400 310/06 RMK AO2
14837KMSN MSN20030609082509306/09/03 08:25:31  5-MIN KMSN 091425Z VRB04KT 10SM CLR 17/12 A2986 920 72 1400 VRB/04 RMK AO2
14837KMSN MSN20030609083009306/09/03 08:30:31  5-MIN KMSN 091430Z 27006KT 10SM CLR 18/13 A2986 920 72 1500 270/06 RMK AO2
14837KMSN MSN20030609083509306/09/03 08:35:31  5-MIN KMSN 091435Z 26006KT 10SM CLR 17/12 A2986 920 72 1400 260/06 RMK AO2
14837KMSN MSN20030609084009206/09/03 08:40:31  5-MIN KMSN 091440Z 29006KT 9SM CLR 18/13 A2986 920 72 1500 290/06 RMK AO2
14837KMSN MSN20030609084509306/09/03 08:45:31  5-MIN KMSN 091445Z 27006KT 10SM CLR 18/12 A2986 920 69 1500 270/06 RMK AO2
14837KMSN MSN20030609085011606/09/03 08:50:31  5-MIN KMSN 091450Z 24007KT 10SM CLR 17/12 A2986 920 72 1400 240/07 RMK AO2 SLP112 T01720122 53023
14837KMSN MSN20030609085509306/09/03 08:55:31  5-MIN KMSN 091455Z VRB05KT 10SM CLR 18/12 A2986 920 69 1500 VRB/05 RMK AO2
14837KMSN MSN20030609090009306/09/03 09:00:31  5-MIN KMSN 091500Z VRB03KT 10SM CLR 18/13 A2986 920 72 1500 VRB/03 RMK AO2
14837KMSN MSN20030609090509306/09/03 09:05:31  5-MIN KMSN 091505Z 26006KT 10SM CLR 18/13 A2986 920 72 1500 260/06 RMK AO2
14837KMSN MSN20030609091009306/09/03 09:10:31  5-MIN KMSN 091510Z VRB06KT 10SM CLR 18/12 A2987 910 69 1500 VRB/06 RMK AO2
14837KMSN MSN20030609091511206/09/03 09:15:31  5-MIN KMSN 091515Z 25008KT 220V290 10SM BKN024 17/12 A2987 920 72 1400 250/08 220V290 RMK AO2
14837KMSN MSN20030609092009506/09/03 09:20:31  5-MIN KMSN 091520Z 27007KT 9SM BKN024 18/13 A2986 920 72 1500 270/07 RMK AO2
14837KMSN MSN20030609092509506/09/03 09:25:31  5-MIN KMSN 091525Z VRB05KT 9SM BKN024 18/13 A2986 920 72 1600 VRB/05 RMK AO2
14837KMSN MSN20030609093009506/09/03 09:30:31  5-MIN KMSN 091530Z 29008KT 9SM BKN024 18/13 A2987 910 72 1600 290/08 RMK AO2
14837KMSN MSN20030609093511106/09/03 09:35:31  5-MIN KMSN 091535Z 31007KT 280V340 9SM BKN024 18/13 A2987 920 72 1600 310/07 280V340 RMK AO2
14837KMSN MSN20030609094009506/09/03 09:40:31  5-MIN KMSN 091540Z 29008KT 9SM BKN024 18/13 A2987 910 72 1600 290/08 RMK AO2
14837KMSN MSN20030609094509506/09/03 09:45:31  5-MIN KMSN 091545Z VRB05KT 9SM BKN024 18/13 A2987 910 70 1600 VRB/05 RMK AO2
14837KMSN MSN20030609095011206/09/03 09:50:31  5-MIN KMSN 091550Z 28007KT 9SM BKN024 18/13 A2987 910 72 1500 280/07 RMK AO2 SLP114 T01780128
14837KMSN MSN20030609095509506/09/03 09:55:31  5-MIN KMSN 091555Z 32007KT 9SM BKN023 18/13 A2987 910 70 1600 320/07 RMK AO2
14837KMSN MSN20030609100009506/09/03 10:00:31  5-MIN KMSN 091600Z VRB05KT 9SM BKN021 18/13 A2987 910 72 1500 VRB/05 RMK AO2
14837KMSN MSN20030609100509606/09/03 10:05:31  5-MIN KMSN 091605Z 27007KT 10SM BKN023 19/13 A2987 910 70 1600 270/07 RMK AO2
14837KMSN MSN20030609101009606/09/03 10:10:31  5-MIN KMSN 091610Z 29008KT 10SM BKN025 19/13 A2988 910 70 1600 290/08 RMK AO2
14837KMSN MSN20030609101510206/09/03 10:15:31  5-MIN KMSN 091615Z 30010KT 9SM SCT021 BKN027 19/13 A2988 900 67 1600 300/10 RMK AO2
14837KMSN MSN20030609102010206/09/03 10:20:31  5-MIN KMSN 091620Z 32009KT 9SM FEW021 BKN029 18/13 A2988 910 70 1500 310/09 RMK AO2
14837KMSN MSN20030609102510206/09/03 10:25:31  5-MIN KMSN 091625Z 28009KT 9SM SCT021 BKN029 19/13 A2988 900 67 1600 280/09 RMK AO2
14837KMSN MSN20030609103010306/09/03 10:30:31  5-MIN KMSN 091630Z 27011KT 10SM FEW021 BKN029 19/12 A2988 900 65 1600 270/11 RMK AO2
14837KMSN MSN20030609103511806/09/03 10:35:31  5-MIN KMSN 091635Z 28009KT 260V320 9SM FEW021 BKN027 19/13 A2988 900 70 1600 280/09 260V320 RMK AO2
14837KMSN MSN20030609104010206/09/03 10:40:31  5-MIN KMSN 091640Z 32010KT 9SM FEW021 BKN030 18/13 A2988 900 70 1500 320/10 RMK AO2
14837KMSN MSN20030609104510306/09/03 10:45:31  5-MIN KMSN 091645Z 29008KT 10SM FEW023 SCT033 18/12 A2988 900 65 1500 290/08 RMK AO2
14837KMSN MSN20030609105012906/09/03 10:50:31  5-MIN KMSN 091650Z 31009KT 270V340 10SM FEW023 18/12 A2988 900 67 1500 310/09 270V340 RMK AO2 SLP118 T01830122
14837KMSN MSN20030609105509606/09/03 10:55:31  5-MIN KMSN 091655Z VRB06KT 10SM FEW025 19/12 A2988 900 65 1600 VRB/06 RMK AO2
14837KMSN MSN20030609110011206/09/03 11:00:31  5-MIN KMSN 091700Z 31007KT 280V340 10SM FEW025 19/13 A2988 900 65 1700 310/07 280V340 RMK AO2
14837KMSN MSN20030609110509606/09/03 11:05:31  5-MIN KMSN 091705Z VRB03KT 10SM FEW025 19/12 A2988 900 65 1600 VRB/03 RMK AO2
14837KMSN MSN20030609111011206/09/03 11:10:31  5-MIN KMSN 091710Z 30007KT 250V330 10SM SCT025 19/12 A2988 900 65 1600 300/07 250V330 RMK AO2
14837KMSN MSN20030609111509606/09/03 11:15:31  5-MIN KMSN 091715Z 28006KT 10SM FEW025 19/12 A2988 910 62 1600 280/06 RMK AO2
14837KMSN MSN20030609112009606/09/03 11:20:31  5-MIN KMSN 091720Z VRB06KT 10SM FEW025 19/12 A2988 910 60 1700 VRB/06 RMK AO2
14837KMSN MSN20030609112511206/09/03 11:25:31  5-MIN KMSN 091725Z 27008KT 250V310 10SM FEW027 19/12 A2988 900 60 1700 270/08 250V310 RMK AO2
14837KMSN MSN20030609113009606/09/03 11:30:31  5-MIN KMSN 091730Z 29006KT 10SM FEW027 20/12 A2988 900 60 1700 290/06 RMK AO2
14837KMSN MSN20030609113509606/09/03 11:35:31  5-MIN KMSN 091735Z 33008KT 10SM FEW027 19/13 A2988 900 67 1600 330/08 RMK AO2
14837KMSN MSN20030609114009606/09/03 11:40:31  5-MIN KMSN 091740Z VRB05KT 10SM SCT027 19/13 A2988 900 67 1600 VRB/05 RMK AO2
14837KMSN MSN20030609114509606/09/03 11:45:31  5-MIN KMSN 091745Z 30006KT 10SM SCT027 19/12 A2988 900 65 1600 300/06 RMK AO2
14837KMSN MSN20030609115014706/09/03 11:50:31  5-MIN KMSN 091750Z 29007KT 250V310 10SM SCT027 19/13 A2988 900 65 1700 290/07 250V310 RMK AO2 SLP116 T01940128 10200 20133 51017
14837KMSN MSN20030609115511206/09/03 11:55:31  5-MIN KMSN 091755Z 32007KT 290V360 10SM SCT030 19/12 A2988 900 60 1700 320/07 290V360 RMK AO2
14837KMSN MSN20030609120009606/09/03 12:00:31  5-MIN KMSN 091800Z 29005KT 10SM SCT030 20/12 A2988 900 58 1700 290/05 RMK AO2
14837KMSN MSN20030609120509606/09/03 12:05:31  5-MIN KMSN 091805Z 25006KT 10SM SCT030 20/12 A2988 900 58 1700 250/06 RMK AO2
14837KMSN MSN20030609121009606/09/03 12:10:31  5-MIN KMSN 091810Z 34009KT 10SM FEW030 21/12 A2988 910 58 1800 330/09 RMK AO2
14837KMSN MSN20030609121509606/09/03 12:15:31  5-MIN KMSN 091815Z VRB06KT 10SM SCT035 20/12 A2988 910 58 1700 VRB/06 RMK AO2
14837KMSN MSN20030609122009606/09/03 12:20:31  5-MIN KMSN 091820Z 32007KT 10SM SCT035 20/12 A2988 900 58 1700 320/07 RMK AO2
14837KMSN MSN20030609122509606/09/03 12:25:31  5-MIN KMSN 091825Z 31007KT 10SM BKN035 19/12 A2988 910 60 1700 310/07 RMK AO2
14837KMSN MSN20030609123009606/09/03 12:30:31  5-MIN KMSN 091830Z 33004KT 10SM SCT035 21/12 A2988 910 56 1800 330/04 RMK AO2
14837KMSN MSN20030609123509606/09/03 12:35:31  5-MIN KMSN 091835Z VRB06KT 10SM SCT035 21/12 A2988 910 56 1900 VRB/06 RMK AO2
14837KMSN MSN20030609124009606/09/03 12:40:31  5-MIN KMSN 091840Z VRB05KT 10SM SCT035 21/12 A2988 910 56 1800 VRB/05 RMK AO2
14837KMSN MSN20030609124510306/09/03 12:45:31  5-MIN KMSN 091845Z 32007KT 10SM SCT035 SCT049 21/12 A2987 910 56 1800 320/07 RMK AO2
14837KMSN MSN20030609125012006/09/03 12:50:31  5-MIN KMSN 091850Z VRB04KT 10SM SCT037 SCT049 20/12 A2988 910 58 1700 VRB/04 RMK AO2 SLP115 T02000117
14837KMSN MSN20030609125510306/09/03 12:55:31  5-MIN KMSN 091855Z VRB06KT 10SM SCT037 SCT048 20/12 A2987 910 58 1700 VRB/06 RMK AO2
14837KMSN MSN20030609130010306/09/03 13:00:31  5-MIN KMSN 091900Z VRB06KT 10SM SCT037 BKN048 21/12 A2988 910 56 1800 VRB/06 RMK AO2
14837KMSN MSN20030609130509606/09/03 13:05:31  5-MIN KMSN 091905Z VRB06KT 10SM SCT037 21/12 A2988 910 54 1900 VRB/06 RMK AO2
14837KMSN MSN20030609131010306/09/03 13:10:31  5-MIN KMSN 091910Z VRB05KT 10SM SCT039 BKN050 21/12 A2987 910 56 1800 VRB/05 RMK AO2
14837KMSN MSN20030609131511006/09/03 13:15:31  5-MIN KMSN 091915Z VRB05KT 10SM SCT039 BKN047 BKN060 21/12 A2987 910 54 1900 VRB/05 RMK AO2
14837KMSN MSN20030609132011006/09/03 13:20:31  5-MIN KMSN 091920Z VRB04KT 10SM FEW039 BKN047 BKN060 21/12 A2987 910 54 1900 VRB/04 RMK AO2
14837KMSN MSN20030609132510306/09/03 13:25:31  5-MIN KMSN 091925Z 21010KT 10SM FEW039 SCT050 21/12 A2987 910 54 1900 210/10 RMK AO2
14837KMSN MSN20030609133010306/09/03 13:30:31  5-MIN KMSN 091930Z 22008KT 10SM SCT042 SCT055 21/11 A2988 910 52 1900 220/08 RMK AO2
14837KMSN MSN20030609133510306/09/03 13:35:31  5-MIN KMSN 091935Z VRB05KT 10SM SCT045 BKN055 21/11 A2987 910 54 1800 VRB/05 RMK AO2
14837KMSN MSN20030609134009606/09/03 13:40:31  5-MIN KMSN 091940Z VRB06KT 10SM SCT045 22/11 A2987 910 50 1900 VRB/06 RMK AO2
14837KMSN MSN20030609134511206/09/03 13:45:31  5-MIN KMSN 091945Z 27007KT 220V340 10SM FEW045 22/11 A2987 910 49 2000 270/07 220V340 RMK AO2
14837KMSN MSN20030609135011306/09/03 13:50:31  5-MIN KMSN 091950Z VRB06KT 10SM FEW045 22/11 A2987 910 49 2000 VRB/06 RMK AO2 SLP113 T02220111
14837KMSN MSN20030609135509606/09/03 13:55:31  5-MIN KMSN 091955Z VRB05KT 10SM FEW047 22/11 A2987 910 50 1900 VRB/05 RMK AO2
14837KMSN MSN20030609140011206/09/03 14:00:31  5-MIN KMSN 092000Z 22007KT 190V270 10SM FEW047 22/11 A2987 910 47 2000 220/07 190V270 RMK AO2
14837KMSN MSN20030609140509306/09/03 14:05:31  5-MIN KMSN 092005Z VRB06KT 10SM CLR 22/10 A2987 910 45 2000 VRB/06 RMK AO2
14837KMSN MSN20030609141009606/09/03 14:10:31  5-MIN KMSN 092010Z VRB06KT 10SM SCT055 22/11 A2987 910 49 1900 VRB/06 RMK AO2
14837KMSN MSN20030609141509606/09/03 14:15:31  5-MIN KMSN 092015Z 24006KT 10SM SCT050 22/11 A2987 910 49 1900 230/06 RMK AO2
14837KMSN MSN20030609142009606/09/03 14:20:31  5-MIN KMSN 092020Z VRB05KT 10SM SCT050 22/11 A2987 910 50 1900 VRB/05 RMK AO2
14837KMSN MSN20030609142509606/09/03 14:25:31  5-MIN KMSN 092025Z VRB06KT 10SM SCT055 22/10 A2987 910 47 1900 VRB/06 RMK AO2
14837KMSN MSN20030609143009606/09/03 14:30:31  5-MIN KMSN 092030Z VRB05KT 10SM BKN055 22/10 A2987 910 47 1900 VRB/05 RMK AO2
14837KMSN MSN20030609143509606/09/03 14:35:31  5-MIN KMSN 092035Z VRB06KT 10SM BKN050 22/10 A2986 920 47 1900 VRB/06 RMK AO2
14837KMSN MSN20030609144011806/09/03 14:40:31  5-MIN KMSN 092040Z 26010G14KT 220V310 10SM BKN055 23/10 A2986 920 44 2100 260/10G14 220V310 RMK AO2
14837KMSN MSN20030609144510906/09/03 14:45:31  5-MIN KMSN 092045Z 22007G14KT 10SM BKN055 BKN065 22/09 A2986 920 45 1900 220/07G14 RMK AO2
14837KMSN MSN20030609145011906/09/03 14:50:31  5-MIN KMSN 092050Z 28007KT 10SM BKN055 23/10 A2986 920 44 2100 280/07 RMK AO2 SLP110 T02280100 50004
14837KMSN MSN20030609145511106/09/03 14:55:31  5-MIN KMSN 092055Z 27007KT 250V320 8SM BKN055 23/10 A2987 920 42 2100 270/07 250V320 RMK AO2
14837KMSN MSN20030609150009606/09/03 15:00:31  5-MIN KMSN 092100Z 26006KT 10SM SCT060 23/09 A2987 920 42 2100 260/06 RMK AO2
14837KMSN MSN20030609150509606/09/03 15:05:31  5-MIN KMSN 092105Z VRB06KT 10SM FEW060 23/09 A2986 920 40 2100 VRB/06 RMK AO2
14837KMSN MSN20030609151009606/09/03 15:10:31  5-MIN KMSN 092110Z VRB06KT 10SM FEW060 23/09 A2986 920 42 2100 VRB/06 RMK AO2
14837KMSN MSN20030609151509606/09/03 15:15:31  5-MIN KMSN 092115Z VRB05KT 10SM FEW060 22/09 A2986 920 43 2000 VRB/05 RMK AO2
14837KMSN MSN20030609152009606/09/03 15:20:31  5-MIN KMSN 092120Z VRB06KT 10SM SCT055 23/09 A2986 920 41 2100 VRB/06 RMK AO2
14837KMSN MSN20030609152511206/09/03 15:25:31  5-MIN KMSN 092125Z 27008KT 200V300 10SM SCT055 23/10 A2987 920 42 2100 270/08 200V300 RMK AO2
14837KMSN MSN20030609153009606/09/03 15:30:31  5-MIN KMSN 092130Z 29008KT 10SM FEW060 23/09 A2986 920 42 2100 290/08 RMK AO2
14837KMSN MSN20030609153509606/09/03 15:35:31  5-MIN KMSN 092135Z 25008KT 10SM FEW055 23/09 A2986 920 42 2100 250/08 RMK AO2
14837KMSN MSN20030609154011206/09/03 15:40:31  5-MIN KMSN 092140Z 25007KT 180V280 10SM FEW055 23/09 A2986 920 42 2100 250/07 180V280 RMK AO2
14837KMSN MSN20030609154509606/09/03 15:45:31  5-MIN KMSN 092145Z VRB05KT 10SM FEW055 23/09 A2986 920 42 2100 VRB/05 RMK AO2
14837KMSN MSN20030609155011306/09/03 15:50:31  5-MIN KMSN 092150Z VRB05KT 10SM FEW080 22/09 A2986 920 42 2000 VRB/05 RMK AO2 SLP109 T02220089
14837KMSN MSN20030609155509606/09/03 15:55:31  5-MIN KMSN 092155Z 27005KT 10SM FEW080 22/09 A2986 920 42 2000 270/05 RMK AO2
14837KMSN MSN20030609160009606/09/03 16:00:31  5-MIN KMSN 092200Z 30005KT 10SM FEW075 22/09 A2986 920 45 1900 300/05 RMK AO2
14837KMSN MSN20030609160509606/09/03 16:05:31  5-MIN KMSN 092205Z VRB03KT 10SM SCT075 22/10 A2986 920 45 2000 VRB/03 RMK AO2
14837KMSN MSN20030609161009606/09/03 16:10:31  5-MIN KMSN 092210Z 33004KT 10SM SCT070 23/11 A2986 920 45 2100 330/04 RMK AO2
14837KMSN MSN20030609161509606/09/03 16:15:31  5-MIN KMSN 092215Z VRB03KT 10SM SCT070 23/10 A2986 920 44 2100 VRB/03 RMK AO2
14837KMSN MSN20030609162009606/09/03 16:20:31  5-MIN KMSN 092220Z VRB05KT 10SM SCT070 22/10 A2986 920 45 2000 VRB/05 RMK AO2
14837KMSN MSN20030609162509606/09/03 16:25:31  5-MIN KMSN 092225Z 22005KT 10SM SCT070 22/10 A2986 920 45 2000 220/05 RMK AO2
14837KMSN MSN20030609163009606/09/03 16:30:31  5-MIN KMSN 092230Z 22006KT 10SM SCT070 22/10 A2986 920 45 2000 220/06 RMK AO2
14837KMSN MSN20030609163509606/09/03 16:35:31  5-MIN KMSN 092235Z VRB03KT 10SM SCT070 22/10 A2986 920 45 2000 VRB/03 RMK AO2
14837KMSN MSN20030609164009606/09/03 16:40:31  5-MIN KMSN 092240Z VRB05KT 10SM SCT070 22/10 A2986 920 45 2000 VRB/05 RMK AO2
14837KMSN MSN20030609164509606/09/03 16:45:31  5-MIN KMSN 092245Z VRB04KT 10SM SCT070 22/10 A2986 920 45 2000 VRB/04 RMK AO2
14837KMSN MSN20030609165011306/09/03 16:50:31  5-MIN KMSN 092250Z VRB04KT 10SM SCT070 22/10 A2986 920 45 2000 VRB/04 RMK AO2 SLP110 T02220100
14837KMSN MSN20030609165509606/09/03 16:55:31  5-MIN KMSN 092255Z VRB03KT 10SM BKN075 22/10 A2986 920 45 2000 VRB/03 RMK AO2
14837KMSN MSN20030609170009506/09/03 17:00:31  5-MIN KMSN 092300Z 23007KT 9SM BKN075 23/10 A2986 920 44 2100 230/07 RMK AO2
14837KMSN MSN20030609170509506/09/03 17:05:31  5-MIN KMSN 092305Z VRB05KT 9SM BKN075 23/09 A2986 920 42 2100 VRB/05 RMK AO2
14837KMSN MSN20030609171009606/09/03 17:10:31  5-MIN KMSN 092310Z 28005KT 10SM SCT075 23/09 A2986 920 40 2100 280/05 RMK AO2
14837KMSN MSN20030609171510306/09/03 17:15:31  5-MIN KMSN 092315Z 23005KT 10SM FEW065 SCT080 23/09 A2986 920 42 2100 230/05 RMK AO2
14837KMSN MSN20030609172010306/09/03 17:20:31  5-MIN KMSN 092320Z VRB03KT 10SM FEW065 BKN080 23/09 A2986 920 42 2100 VRB/03 RMK AO2
14837KMSN MSN20030609172509606/09/03 17:25:31  5-MIN KMSN 092325Z 21004KT 10SM SCT080 23/10 A2986 920 44 2100 210/04 RMK AO2
14837KMSN MSN20030609173009606/09/03 17:30:31  5-MIN KMSN 092330Z VRB05KT 10SM SCT080 23/09 A2986 920 42 2100 VRB/05 RMK AO2
14837KMSN MSN20030609173509606/09/03 17:35:31  5-MIN KMSN 092335Z VRB05KT 10SM FEW080 23/09 A2986 920 42 2100 VRB/05 RMK AO2
14837KMSN MSN20030609174009606/09/03 17:40:31  5-MIN KMSN 092340Z VRB05KT 10SM FEW080 23/09 A2986 920 42 2100 VRB/05 RMK AO2
14837KMSN MSN20030609174509606/09/03 17:45:31  5-MIN KMSN 092345Z 26005KT 10SM FEW080 23/09 A2986 920 42 2100 260/05 RMK AO2
14837KMSN MSN20030609175013006/09/03 17:50:31  5-MIN KMSN 092350Z 30005KT 7SM FEW080 22/09 A2986 920 43 2000 300/05 RMK AO2 SLP109 T02220094 10233 20194 58004
14837KMSN MSN20030609175509606/09/03 17:55:31  5-MIN KMSN 092355Z 00000KT 10SM FEW075 23/10 A2986 920 44 2100 000/00 RMK AO2
14837KMSN MSN20030609180009606/09/03 18:00:31  5-MIN KMSN 100000Z 00000KT 10SM FEW075 22/09 A2986 920 43 2000 000/00 RMK AO2
14837KMSN MSN20030609180509606/09/03 18:05:31  5-MIN KMSN 100005Z 00000KT 10SM FEW075 22/10 A2986 920 45 2000 000/00 RMK AO2
14837KMSN MSN20030609181009606/09/03 18:10:31  5-MIN KMSN 100010Z 00000KT 10SM FEW075 22/09 A2986 920 43 2000 000/00 RMK AO2
14837KMSN MSN20030609181509606/09/03 18:15:31  5-MIN KMSN 100015Z 00000KT 10SM FEW075 22/09 A2986 920 43 2000 000/00 RMK AO2
14837KMSN MSN20030609182009606/09/03 18:20:31  5-MIN KMSN 100020Z 22004KT 10SM FEW075 22/09 A2986 920 45 1900 220/04 RMK AO2
14837KMSN MSN20030609182509606/09/03 18:25:31  5-MIN KMSN 100025Z 00000KT 10SM FEW075 22/10 A2986 920 47 2000 000/00 RMK AO2
14837KMSN MSN20030609183009606/09/03 18:30:31  5-MIN KMSN 100030Z 22003KT 10SM FEW075 22/09 A2985 930 43 2000 220/03 RMK AO2
14837KMSN MSN20030609183509606/09/03 18:35:31  5-MIN KMSN 100035Z 22003KT 10SM FEW075 22/09 A2985 930 45 2000 220/03 RMK AO2
14837KMSN MSN20030609184009606/09/03 18:40:31  5-MIN KMSN 100040Z 23003KT 10SM FEW075 22/09 A2985 930 45 2000 230/03 RMK AO2
14837KMSN MSN20030609184509606/09/03 18:45:31  5-MIN KMSN 100045Z 00000KT 10SM FEW075 22/09 A2985 930 45 2000 000/00 RMK AO2
14837KMSN MSN20030609185011306/09/03 18:50:31  5-MIN KMSN 100050Z 23003KT 10SM FEW075 21/10 A2985 930 48 1900 230/03 RMK AO2 SLP106 T02110100
14837KMSN MSN20030609185509306/09/03 18:55:31  5-MIN KMSN 100055Z 00000KT 10SM CLR 21/10 A2985 930 48 1900 000/00 RMK AO2
14837KMSN MSN20030609190009306/09/03 19:00:31  5-MIN KMSN 100100Z 00000KT 10SM CLR 20/11 A2985 930 56 1800 000/00 RMK AO2
14837KMSN MSN20030609190509306/09/03 19:05:31  5-MIN KMSN 100105Z 00000KT 10SM CLR 19/11 A2985 930 58 1700 000/00 RMK AO2
14837KMSN MSN20030609191009306/09/03 19:10:31  5-MIN KMSN 100110Z 00000KT 10SM CLR 20/11 A2985 930 54 1800 000/00 RMK AO2
14837KMSN MSN20030609191509306/09/03 19:15:31  5-MIN KMSN 100115Z 21003KT 10SM CLR 19/11 A2985 930 58 1700 210/03 RMK AO2
14837KMSN MSN20030609192009306/09/03 19:20:31  5-MIN KMSN 100120Z 21003KT 10SM CLR 20/11 A2985 930 54 1800 210/03 RMK AO2
14837KMSN MSN20030609192509306/09/03 19:25:31  5-MIN KMSN 100125Z 21003KT 10SM CLR 19/11 A2985 930 58 1700 210/03 RMK AO2
14837KMSN MSN20030609193009306/09/03 19:30:31  5-MIN KMSN 100130Z 21003KT 10SM CLR 19/11 A2985 930 60 1600 210/03 RMK AO2
14837KMSN MSN20030609193509306/09/03 19:35:31  5-MIN KMSN 100135Z 20003KT 10SM CLR 19/11 A2985 930 56 1700 200/03 RMK AO2
14837KMSN MSN20030609194009306/09/03 19:40:31  5-MIN KMSN 100140Z 00000KT 10SM CLR 18/11 A2985 930 62 1600 000/00 RMK AO2
14837KMSN MSN20030609194509306/09/03 19:45:31  5-MIN KMSN 100145Z 00000KT 10SM CLR 18/11 A2985 930 64 1500 000/00 RMK AO2
14837KMSN MSN20030609195011306/09/03 19:50:31  5-MIN KMSN 100150Z 00000KT 10SM FEW080 17/11 A2985 930 67 1400 000/00 RMK AO2 SLP106 T01720111
14837KMSN MSN20030609195509306/09/03 19:55:31  5-MIN KMSN 100155Z 00000KT 10SM CLR 17/11 A2985 930 69 1400 000/00 RMK AO2
14837KMSN MSN20030609200009306/09/03 20:00:31  5-MIN KMSN 100200Z 00000KT 10SM CLR 17/11 A2985 930 67 1400 000/00 RMK AO2
14837KMSN MSN20030609200509306/09/03 20:05:31  5-MIN KMSN 100205Z 00000KT 10SM CLR 17/11 A2985 930 69 1400 000/00 RMK AO2
14837KMSN MSN20030609201009306/09/03 20:10:31  5-MIN KMSN 100210Z 00000KT 10SM CLR 17/11 A2984 940 69 1400 000/00 RMK AO2
14837KMSN MSN20030609201509306/09/03 20:15:31  5-MIN KMSN 100215Z 08003KT 10SM CLR 17/11 A2983 940 67 1400 080/03 RMK AO2
14837KMSN MSN20030609202009306/09/03 20:20:31  5-MIN KMSN 100220Z 09003KT 10SM CLR 17/11 A2983 950 67 1400 090/03 RMK AO2
14837KMSN MSN20030609202509306/09/03 20:25:31  5-MIN KMSN 100225Z 09003KT 10SM CLR 16/11 A2983 950 69 1300 090/03 RMK AO2
14837KMSN MSN20030609203009306/09/03 20:30:31  5-MIN KMSN 100230Z 00000KT 10SM CLR 16/11 A2983 940 72 1300 000/00 RMK AO2
14837KMSN MSN20030609203509306/09/03 20:35:31  5-MIN KMSN 100235Z 00000KT 10SM CLR 16/11 A2984 940 69 1300 000/00 RMK AO2
14837KMSN MSN20030609204010006/09/03 20:40:31  5-MIN KMSN 100240Z 00000KT 10SM CLR 16/11 A2986 920 74 1200 000/00 RMK AO2 PRESRR
14837KMSN MSN20030609204509306/09/03 20:45:31  5-MIN KMSN 100245Z 22003KT 10SM CLR 14/11 A2986 920 83 1000 220/03 RMK AO2
14837KMSN MSN20030609205012306/09/03 20:50:31  5-MIN KMSN 100250Z 00000KT 10SM CLR 15/11 A2987 910 77 1200 000/00 RMK AO2 PRESRR SLP113 T01500111 55001
14837KMSN MSN20030609205509306/09/03 20:55:31  5-MIN KMSN 100255Z 00000KT 10SM CLR 15/11 A2987 910 74 1200 000/00 RMK AO2
14837KMSN MSN20030609210009306/09/03 21:00:31  5-MIN KMSN 100300Z 00000KT 10SM CLR 14/11 A2987 910 80 1100 000/00 RMK AO2
14837KMSN MSN20030609210509306/09/03 21:05:31  5-MIN KMSN 100305Z 00000KT 10SM CLR 15/11 A2987 910 74 1200 000/00 RMK AO2
14837KMSN MSN20030609211009306/09/03 21:10:31  5-MIN KMSN 100310Z 00000KT 10SM CLR 15/11 A2988 900 77 1200 000/00 RMK AO2
14837KMSN MSN20030609211509306/09/03 21:15:31  5-MIN KMSN 100315Z 00000KT 10SM CLR 15/11 A2987 910 77 1200 000/00 RMK AO2
14837KMSN MSN20030609212009306/09/03 21:20:31  5-MIN KMSN 100320Z 00000KT 10SM CLR 15/11 A2987 910 77 1200 000/00 RMK AO2
14837KMSN MSN20030609212509306/09/03 21:25:31  5-MIN KMSN 100325Z 00000KT 10SM CLR 16/11 A2987 910 74 1200 000/00 RMK AO2
14837KMSN MSN20030609213009306/09/03 21:30:31  5-MIN KMSN 100330Z 00000KT 10SM CLR 15/11 A2987 910 77 1200 000/00 RMK AO2
14837KMSN MSN20030609213509306/09/03 21:35:31  5-MIN KMSN 100335Z 00000KT 10SM CLR 15/11 A2987 910 77 1200 000/00 RMK AO2
14837KMSN MSN20030609214009306/09/03 21:40:31  5-MIN KMSN 100340Z 00000KT 10SM CLR 15/11 A2987 910 77 1200 000/00 RMK AO2
14837KMSN MSN20030609214509306/09/03 21:45:31  5-MIN KMSN 100345Z 00000KT 10SM CLR 15/11 A2987 910 77 1200 000/00 RMK AO2
14837KMSN MSN20030609215011006/09/03 21:50:31  5-MIN KMSN 100350Z 00000KT 10SM CLR 15/11 A2987 910 77 1200 000/00 RMK AO2 SLP114 T01500111
14837KMSN MSN20030609215509306/09/03 21:55:31  5-MIN KMSN 100355Z 00000KT 10SM CLR 14/12 A2987 910 86 1000 000/00 RMK AO2
14837KMSN MSN20030609220009306/09/03 22:00:31  5-MIN KMSN 100400Z 00000KT 10SM CLR 14/11 A2987 910 83 1000 000/00 RMK AO2
14837KMSN MSN20030609220509306/09/03 22:05:31  5-MIN KMSN 100405Z 00000KT 10SM CLR 14/11 A2987 910 83 1000 000/00 RMK AO2
14837KMSN MSN20030609221009306/09/03 22:10:31  5-MIN KMSN 100410Z 00000KT 10SM CLR 14/11 A2987 910 83 1000 000/00 RMK AO2
14837KMSN MSN20030609221509306/09/03 22:15:31  5-MIN KMSN 100415Z 00000KT 10SM CLR 14/11 A2987 910 80 1100 000/00 RMK AO2
14837KMSN MSN20030609222009306/09/03 22:20:31  5-MIN KMSN 100420Z 00000KT 10SM CLR 15/11 A2987 910 77 1200 000/00 RMK AO2
14837KMSN MSN20030609222509306/09/03 22:25:31  5-MIN KMSN 100425Z 00000KT 10SM CLR 16/11 A2987 910 74 1200 000/00 RMK AO2
14837KMSN MSN20030609223009306/09/03 22:30:31  5-MIN KMSN 100430Z 00000KT 10SM CLR 15/11 A2987 920 77 1200 000/00 RMK AO2
14837KMSN MSN20030609223509306/09/03 22:35:31  5-MIN KMSN 100435Z 00000KT 10SM CLR 16/11 A2986 920 74 1200 000/00 RMK AO2
14837KMSN MSN20030609224009306/09/03 22:40:31  5-MIN KMSN 100440Z 09005KT 10SM CLR 15/11 A2986 920 77 1200 090/05 RMK AO2
14837KMSN MSN20030609224509306/09/03 22:45:31  5-MIN KMSN 100445Z 10005KT 10SM CLR 15/11 A2986 920 77 1200 100/05 RMK AO2
14837KMSN MSN20030609225011006/09/03 22:50:31  5-MIN KMSN 100450Z 13005KT 10SM CLR 15/11 A2986 920 77 1200 130/05 RMK AO2 SLP109 T01500111
14837KMSN MSN20030609225509306/09/03 22:55:31  5-MIN KMSN 100455Z 13005KT 10SM CLR 16/11 A2985 930 74 1200 130/05 RMK AO2
14837KMSN MSN20030609230009306/09/03 23:00:31  5-MIN KMSN 100500Z 13004KT 10SM CLR 16/11 A2986 920 72 1300 130/04 RMK AO2
14837KMSN MSN20030609230509306/09/03 23:05:31  5-MIN KMSN 100505Z 14004KT 10SM CLR 16/12 A2986 920 75 1300 140/04 RMK AO2
14837KMSN MSN20030609231009306/09/03 23:10:31  5-MIN KMSN 100510Z 15003KT 10SM CLR 16/12 A2986 920 75 1300 150/03 RMK AO2
14837KMSN MSN20030609231509306/09/03 23:15:31  5-MIN KMSN 100515Z 14003KT 10SM CLR 16/12 A2986 920 75 1300 140/03 RMK AO2
14837KMSN MSN20030609232009306/09/03 23:20:31  5-MIN KMSN 100520Z 14004KT 10SM CLR 16/12 A2986 920 75 1300 140/04 RMK AO2
14837KMSN MSN20030609232509306/09/03 23:25:31  5-MIN KMSN 100525Z 14004KT 10SM CLR 16/12 A2985 930 77 1200 140/04 RMK AO2
14837KMSN MSN20030609233009306/09/03 23:30:31  5-MIN KMSN 100530Z 14004KT 10SM CLR 16/12 A2985 930 77 1200 140/04 RMK AO2
14837KMSN MSN20030609233509606/09/03 23:35:31  5-MIN KMSN 100535Z 14004KT 10SM FEW070 16/12 A2985 930 77 1200 140/04 RMK AO2
14837KMSN MSN20030609234009606/09/03 23:40:31  5-MIN KMSN 100540Z 14006KT 10SM FEW070 16/12 A2985 930 77 1200 140/06 RMK AO2
14837KMSN MSN20030609234509606/09/03 23:45:31  5-MIN KMSN 100545Z 13005KT 10SM FEW070 16/12 A2985 930 80 1300 130/05 RMK AO2
14837KMSN MSN20030609235014106/09/03 23:50:31  5-MIN KMSN 100550Z 14006KT 10SM FEW070 16/12 A2984 930 80 1300 140/06 RMK AO2 SLP104 T01560122 10228 20139 402330117 53003
14837KMSN MSN20030609235509506/09/03 23:55:31  5-MIN KMSN 100555Z 15006KT 9SM FEW070 16/12 A2984 940 80 1300 140/06 RMK AO2
14837KMSN MSN20030610000009506/10/03 00:00:31  5-MIN KMSN 100600Z 15005KT 9SM FEW070 16/12 A2984 940 80 1300 150/05 RMK AO2
14837KMSN MSN20030610000510206/10/03 00:05:31  5-MIN KMSN 100605Z 14006KT 9SM FEW070 SCT085 16/12 A2984 940 77 1300 140/06 RMK AO2
14837KMSN MSN20030610001010206/10/03 00:10:31  5-MIN KMSN 100610Z 15005KT 9SM SCT070 BKN085 16/13 A2984 940 80 1300 150/05 RMK AO2
14837KMSN MSN20030610001510206/10/03 00:15:31  5-MIN KMSN 100615Z 13005KT 8SM BKN070 BKN085 16/13 A2983 950 80 1300 130/05 RMK AO2
14837KMSN MSN20030610002010206/10/03 00:20:31  5-MIN KMSN 100620Z 13005KT 8SM BKN070 BKN085 16/13 A2983 950 80 1300 130/05 RMK AO2
14837KMSN MSN20030610002510206/10/03 00:25:31  5-MIN KMSN 100625Z 14005KT 8SM BKN070 BKN085 16/13 A2982 960 80 1300 140/05 RMK AO2
14837KMSN MSN20030610003010206/10/03 00:30:31  5-MIN KMSN 100630Z 14006KT 7SM BKN070 BKN085 16/13 A2982 960 80 1300 130/06 RMK AO2
14837KMSN MSN20030610003509506/10/03 00:35:31  5-MIN KMSN 100635Z 13004KT 7SM BKN070 16/13 A2982 960 80 1400 130/04 RMK AO2
14837KMSN MSN20030610004010906/10/03 00:40:31  5-MIN KMSN 100640Z 14004KT 7SM FEW065 BKN075 BKN095 16/13 A2981 960 80 1400 140/04 RMK AO2
14837KMSN MSN20030610004510206/10/03 00:45:31  5-MIN KMSN 100645Z 14006KT 7SM BKN075 BKN095 16/13 A2981 960 80 1400 140/06 RMK AO2
14837KMSN MSN20030610005012206/10/03 00:50:31  5-MIN KMSN 100650Z 14006KT 6SM HZ BKN075 BKN090 16/13 A2981 960 80 1400 140/06 RMK AO2 SLP093 T01610128
14837KMSN MSN20030610005511206/10/03 00:55:31  5-MIN KMSN 100655Z 14007KT 6SM HZ SCT065 BKN075 OVC090 16/13 A2981 970 80 1400 140/07 RMK AO2
14837KMSN MSN20030610010011206/10/03 01:00:31  5-MIN KMSN 100700Z 14007KT 6SM HZ SCT065 BKN075 OVC090 16/13 A2981 970 80 1400 140/07 RMK AO2
14837KMSN MSN20030610010510506/10/03 01:05:31  5-MIN KMSN 100705Z 14007KT 6SM HZ BKN070 OVC095 16/13 A2981 970 80 1400 140/07 RMK AO2
14837KMSN MSN20030610011009806/10/03 01:10:31  5-MIN KMSN 100710Z 14008KT 6SM HZ OVC065 16/13 A2981 970 80 1400 140/08 RMK AO2
14837KMSN MSN20030610011509806/10/03 01:15:31  5-MIN KMSN 100715Z 14008KT 6SM HZ OVC065 16/13 A2980 970 80 1400 140/08 RMK AO2
14837KMSN MSN20030610012009806/10/03 01:20:31  5-MIN KMSN 100720Z 14009KT 6SM HZ OVC065 16/12 A2980 980 77 1400 140/09 RMK AO2
14837KMSN MSN20030610012509806/10/03 01:25:31  5-MIN KMSN 100725Z 14009KT 6SM HZ OVC065 16/12 A2980 980 77 1400 140/09 RMK AO2
14837KMSN MSN20030610013009806/10/03 01:30:31  5-MIN KMSN 100730Z 14008KT 6SM HZ OVC065 16/12 A2979 980 77 1400 140/08 RMK AO2
14837KMSN MSN20030610013511606/10/03 01:35:31  5-MIN KMSN 100735Z 14008KT 6SM HZ OVC065 16/12 A2979 980 77 1400 140/08 RMK AO2 FRQ LTG DSNT W-NW
14837KMSN MSN20030610014013006/10/03 01:40:31  5-MIN KMSN 100740Z 15008KT 6SM HZ BKN065 BKN080 OVC110 16/12 A2979 980 77 1400 140/08 RMK AO2 FRQ LTG DSNT W-NW
14837KMSN MSN20030610014513506/10/03 01:45:31  5-MIN KMSN 100745Z 14007KT 4SM RA BKN070 OVC100 16/13 A2979 990 83 1300 130/07 RMK AO2 RAB41 FRQ LTG DSNT W-NW P0001
14837KMSN MSN20030610015015306/10/03 01:50:31  5-MIN KMSN 100750Z 13006KT 4SM -RA BKN065 OVC075 16/13 A2978 990 83 1300 130/06 RMK AO2 RAB41 SLP083 FRQ LTG DSNT W-NW P0001 T01560128
14837KMSN MSN20030610015511606/10/03 01:55:31  5-MIN KMSN 100755Z 13006KT 4SM -RA BR BKN065 OVC080 16/13 A2978 1000 86 1300 130/06 RMK AO2 P0000
14837KMSN MSN20030610020011606/10/03 02:00:31  5-MIN KMSN 100800Z 14009KT 4SM -RA BR BKN065 OVC080 16/13 A2977 1000 86 1300 140/09 RMK AO2 P0000
14837KMSN MSN20030610020511306/10/03 02:05:31  5-MIN KMSN 100805Z 14010KT 5SM -RA BKN065 OVC080 16/13 A2977 1000 83 1300 140/10 RMK AO2 P0001
14837KMSN MSN20030610021011306/10/03 02:10:31  5-MIN KMSN 100810Z 13008KT 5SM -RA BKN065 OVC075 16/13 A2977 1010 83 1300 130/08 RMK AO2 P0001
14837KMSN MSN20030610021511306/10/03 02:15:31  5-MIN KMSN 100815Z 13008KT 6SM -RA BKN060 OVC075 16/13 A2977 1010 83 1300 130/08 RMK AO2 P0001
14837KMSN MSN20030610022010606/10/03 02:20:31  5-MIN KMSN 100820Z 13007KT 6SM -RA OVC060 16/13 A2976 1010 83 1300 130/07 RMK AO2 P0001
14837KMSN MSN20030610022512506/10/03 02:25:31  5-MIN KMSN 100825Z 13007KT 6SM HZ BKN060 BKN070 OVC090 16/13 A2976 1020 83 1400 130/07 RMK AO2 RAE23 P0001
14837KMSN MSN20030610023011806/10/03 02:30:31  5-MIN KMSN 100830Z 13005KT 6SM HZ BKN060 OVC090 16/13 A2976 1020 83 1400 130/05 RMK AO2 RAE23 P0001
14837KMSN MSN20030610023511806/10/03 02:35:31  5-MIN KMSN 100835Z 13006KT 6SM HZ SCT060 OVC095 16/13 A2975 1020 83 1400 130/06 RMK AO2 RAE23 P0001
14837KMSN MSN20030610024011806/10/03 02:40:31  5-MIN KMSN 100840Z 12006KT 6SM HZ SCT060 OVC095 16/13 A2975 1020 83 1400 120/06 RMK AO2 RAE23 P0001
14837KMSN MSN20030610024511806/10/03 02:45:31  5-MIN KMSN 100845Z 12006KT 6SM HZ FEW060 OVC095 16/13 A2974 1030 83 1400 120/06 RMK AO2 RAE23 P0001
14837KMSN MSN20030610025014706/10/03 02:50:31  5-MIN KMSN 100850Z 13006KT 6SM HZ FEW060 OVC095 16/13 A2975 1030 83 1400 130/06 RMK AO2 RAE23 SLP069 P0001 60002 T01560128 58010
14837KMSN MSN20030610025509906/10/03 02:55:31  5-MIN KMSN 100855Z 14007KT 6SM HZ OVC100 16/13 A2975 1030 83 1400 140/07 RMK AO2
14837KMSN MSN20030610030009906/10/03 03:00:31  5-MIN KMSN 100900Z 14006KT 6SM HZ OVC100 16/13 A2975 1030 83 1400 140/06 RMK AO2
14837KMSN MSN20030610030509906/10/03 03:05:31  5-MIN KMSN 100905Z 14007KT 6SM HZ OVC100 16/13 A2974 1030 83 1400 140/07 RMK AO2
14837KMSN MSN20030610031010306/10/03 03:10:31  5-MIN KMSN 100910Z 14009KT 7SM FEW060 OVC100 16/13 A2974 1030 80 1400 140/09 RMK AO2
14837KMSN MSN20030610031511006/10/03 03:15:31  5-MIN KMSN 100915Z 15008KT 7SM SCT060 SCT075 OVC100 16/12 A2974 1030 77 1400 150/08 RMK AO2
14837KMSN MSN20030610032010306/10/03 03:20:31  5-MIN KMSN 100920Z 15010KT 7SM BKN060 OVC100 16/12 A2974 1030 77 1400 150/10 RMK AO2
14837KMSN MSN20030610032510306/10/03 03:25:31  5-MIN KMSN 100925Z 15009KT 7SM BKN060 OVC110 16/12 A2974 1040 77 1400 150/09 RMK AO2
14837KMSN MSN20030610033010306/10/03 03:30:31  5-MIN KMSN 100930Z 14009KT 7SM BKN060 OVC075 16/12 A2974 1040 77 1400 140/09 RMK AO2
14837KMSN MSN20030610033510306/10/03 03:35:31  5-MIN KMSN 100935Z 15009KT 7SM BKN060 OVC075 16/12 A2974 1030 77 1400 150/09 RMK AO2
14837KMSN MSN20030610034010306/10/03 03:40:31  5-MIN KMSN 100940Z 15008KT 7SM BKN060 OVC075 16/12 A2974 1040 77 1400 140/08 RMK AO2
14837KMSN MSN20030610034510306/10/03 03:45:31  5-MIN KMSN 100945Z 14009KT 7SM BKN060 OVC075 16/12 A2974 1040 77 1400 140/09 RMK AO2
14837KMSN MSN20030610035012006/10/03 03:50:31  5-MIN KMSN 100950Z 15010KT 7SM BKN060 OVC075 16/12 A2973 1040 77 1500 150/10 RMK AO2 SLP064 T01610122
14837KMSN MSN20030610035510306/10/03 03:55:31  5-MIN KMSN 100955Z 15010KT 7SM BKN065 OVC080 17/12 A2973 1040 75 1500 140/10 RMK AO2
14837KMSN MSN20030610040010306/10/03 04:00:31  5-MIN KMSN 101000Z 15008KT 7SM BKN065 OVC075 17/12 A2973 1040 75 1500 150/08 RMK AO2
14837KMSN MSN20030610040509606/10/03 04:05:31  5-MIN KMSN 101005Z 15010KT 7SM BKN070 16/12 A2972 1050 77 1500 150/10 RMK AO2
14837KMSN MSN20030610041010306/10/03 04:10:31  5-MIN KMSN 101010Z 15009KT 7SM SCT060 BKN075 17/12 A2973 1040 75 1500 150/09 RMK AO2
14837KMSN MSN20030610041511006/10/03 04:15:31  5-MIN KMSN 101015Z 15009KT 7SM SCT060 BKN075 BKN090 17/12 A2973 1040 75 1500 150/09 RMK AO2
14837KMSN MSN20030610042011906/10/03 04:20:31  5-MIN KMSN 101020Z 16010KT 6SM -RA BKN070 BKN095 17/12 A2973 1040 75 1500 160/10 RMK AO2 RAB18 P0000
14837KMSN MSN20030610042512606/10/03 04:25:31  5-MIN KMSN 101025Z 15010KT 6SM -RA SCT044 BKN070 BKN095 16/13 A2973 1040 80 1500 150/10 RMK AO2 RAB18 P0000
14837KMSN MSN20030610043012606/10/03 04:30:31  5-MIN KMSN 101030Z 15009KT 6SM -RA BKN047 BKN070 BKN090 16/13 A2973 1050 80 1500 150/09 RMK AO2 RAB18 P0000
14837KMSN MSN20030610043512606/10/03 04:35:31  5-MIN KMSN 101035Z 15009KT 5SM -RA BKN047 BKN070 OVC095 16/13 A2972 1050 80 1500 150/09 RMK AO2 RAB18 P0001
14837KMSN MSN20030610044012606/10/03 04:40:31  5-MIN KMSN 101040Z 14008KT 5SM -RA BKN047 BKN080 OVC095 16/13 A2971 1060 80 1500 140/08 RMK AO2 RAB18 P0001
14837KMSN MSN20030610044511906/10/03 04:45:31  5-MIN KMSN 101045Z 14007KT 6SM -RA BKN045 OVC100 16/13 A2971 1060 83 1500 140/07 RMK AO2 RAB18 P0001
14837KMSN MSN20030610045013606/10/03 04:50:31  5-MIN KMSN 101050Z 14007KT 6SM -RA BKN050 OVC100 16/13 A2971 1060 80 1500 140/07 RMK AO2 RAB18 SLP056 P0001 T01610128
14837KMSN MSN20030610045511806/10/03 04:55:31  5-MIN KMSN 101055Z 14007KT 5SM HZ BKN065 OVC100 16/13 A2971 1060 80 1500 140/07 RMK AO2 RAE55 P0000
14837KMSN MSN20030610050012006/10/03 05:00:31  5-MIN KMSN 101100Z 14006KT 5SM HZ BKN065 OVC100 16/13 A2970 1070 83 1500 140/06 RMK AO2 RAE1055 P0000
14837KMSN MSN20030610050512006/10/03 05:05:31  5-MIN KMSN 101105Z 14006KT 5SM HZ BKN070 OVC095 16/13 A2970 1070 83 1500 140/06 RMK AO2 RAE1055 P0000
14837KMSN MSN20030610051012006/10/03 05:10:31  5-MIN KMSN 101110Z 14007KT 5SM HZ BKN070 OVC100 16/13 A2970 1070 83 1500 130/07 RMK AO2 RAE1055 P0000
14837KMSN MSN20030610051512006/10/03 05:15:31  5-MIN KMSN 101115Z 13005KT 5SM HZ BKN070 OVC095 16/13 A2970 1070 83 1500 130/05 RMK AO2 RAE1055 P0000
14837KMSN MSN20030610052012006/10/03 05:20:31  5-MIN KMSN 101120Z 13005KT 5SM HZ BKN070 OVC095 16/13 A2969 1070 83 1500 120/05 RMK AO2 RAE1055 P0000
14837KMSN MSN20030610052512006/10/03 05:25:31  5-MIN KMSN 101125Z 12005KT 5SM HZ SCT070 OVC095 16/13 A2969 1080 83 1500 120/05 RMK AO2 RAE1055 P0000
14837KMSN MSN20030610053012006/10/03 05:30:31  5-MIN KMSN 101130Z 12005KT 5SM HZ SCT065 OVC095 16/13 A2969 1080 83 1500 120/05 RMK AO2 RAE1055 P0000
14837KMSN MSN20030610053512006/10/03 05:35:31  5-MIN KMSN 101135Z 12007KT 5SM HZ FEW060 OVC095 16/13 A2969 1080 83 1500 120/07 RMK AO2 RAE1055 P0000
14837KMSN MSN20030610054012006/10/03 05:40:31  5-MIN KMSN 101140Z 13006KT 5SM HZ FEW065 OVC095 16/13 A2969 1080 83 1500 130/06 RMK AO2 RAE1055 P0000
14837KMSN MSN20030610054512006/10/03 05:45:31  5-MIN KMSN 101145Z 14006KT 6SM HZ FEW060 OVC100 16/13 A2969 1070 83 1500 140/06 RMK AO2 RAE1055 P0000
14837KMSN MSN20030610055017406/10/03 05:50:31  5-MIN KMSN 101150Z 15005KT 6SM HZ FEW049 SCT060 OVC100 17/13 A2970 1070 80 1600 150/05 RMK AO2 RAE1055 SLP053 P0000 60003 70003 T01670133 10167 20156 58031
14837KMSN MSN20030610055511306/10/03 05:55:31  5-MIN KMSN 101155Z 17005KT 6SM HZ SCT049 BKN060 OVC100 17/13 A2970 1070 80 1600 170/05 RMK AO2
14837KMSN MSN20030610060011306/10/03 06:00:31  5-MIN KMSN 101200Z 16006KT 6SM HZ SCT049 BKN055 OVC100 17/13 A2970 1070 80 1500 160/06 RMK AO2
14837KMSN MSN20030610060511306/10/03 06:05:31  5-MIN KMSN 101205Z 15009KT 6SM HZ SCT049 BKN055 OVC100 17/13 A2970 1070 80 1600 150/09 RMK AO2
14837KMSN MSN20030610061011306/10/03 06:10:31  5-MIN KMSN 101210Z 16007KT 6SM HZ SCT049 BKN055 OVC100 17/13 A2970 1070 80 1500 160/07 RMK AO2
14837KMSN MSN20030610061510306/10/03 06:15:31  5-MIN KMSN 101215Z 15006KT 7SM SCT049 OVC100 17/13 A2970 1070 80 1600 150/06 RMK AO2
14837KMSN MSN20030610062010306/10/03 06:20:31  5-MIN KMSN 101220Z 16007KT 7SM FEW049 OVC095 17/13 A2970 1070 80 1600 160/07 RMK AO2
14837KMSN MSN20030610062510306/10/03 06:25:31  5-MIN KMSN 101225Z 17006KT 7SM FEW049 OVC095 17/14 A2970 1070 80 1600 170/06 RMK AO2
14837KMSN MSN20030610063010306/10/03 06:30:31  5-MIN KMSN 101230Z 16009KT 7SM FEW049 OVC095 17/14 A2970 1070 80 1600 160/09 RMK AO2
14837KMSN MSN20030610063509606/10/03 06:35:31  5-MIN KMSN 101235Z 17007KT 7SM OVC095 17/14 A2970 1070 80 1600 160/07 RMK AO2
14837KMSN MSN20030610064009606/10/03 06:40:31  5-MIN KMSN 101240Z 17006KT 7SM OVC095 17/14 A2970 1070 80 1600 160/06 RMK AO2
14837KMSN MSN20030610064509606/10/03 06:45:31  5-MIN KMSN 101245Z 16007KT 7SM OVC095 17/14 A2970 1070 80 1600 160/07 RMK AO2
14837KMSN MSN20030610065011306/10/03 06:50:31  5-MIN KMSN 101250Z 16006KT 7SM OVC090 17/14 A2970 1070 80 1600 160/06 RMK AO2 SLP052 T01720139
14837KMSN MSN20030610065509606/10/03 06:55:31  5-MIN KMSN 101255Z 16006KT 7SM OVC090 17/14 A2969 1080 83 1600 160/06 RMK AO2
14837KMSN MSN20030610070009606/10/03 07:00:31  5-MIN KMSN 101300Z 16007KT 8SM OVC090 17/14 A2969 1080 80 1600 160/07 RMK AO2
14837KMSN MSN20030610070509606/10/03 07:05:31  5-MIN KMSN 101305Z 16006KT 8SM OVC090 17/14 A2969 1080 80 1600 160/06 RMK AO2
14837KMSN MSN20030610071009606/10/03 07:10:31  5-MIN KMSN 101310Z 17006KT 9SM OVC090 17/14 A2969 1080 83 1600 170/06 RMK AO2
14837KMSN MSN20030610071511206/10/03 07:15:31  5-MIN KMSN 101315Z 16007KT 8SM -RA OVC085 17/14 A2968 1080 83 1600 160/07 RMK AO2 RAB14 P0000
14837KMSN MSN20030610072011206/10/03 07:20:31  5-MIN KMSN 101320Z 18008KT 8SM -RA OVC090 18/14 A2968 1080 81 1700 170/08 RMK AO2 RAB14 P0000
14837KMSN MSN20030610072511306/10/03 07:25:31  5-MIN KMSN 101325Z 17008KT 10SM -RA OVC090 18/14 A2968 1090 81 1700 160/08 RMK AO2 RAB14 P0000
14837KMSN MSN20030610073011206/10/03 07:30:31  5-MIN KMSN 101330Z 18009KT 10SM OVC090 18/14 A2968 1090 81 1700 170/09 RMK AO2 RAB14E29 P0000
14837KMSN MSN20030610073511206/10/03 07:35:31  5-MIN KMSN 101335Z 19010KT 10SM OVC085 18/14 A2969 1080 78 1800 190/10 RMK AO2 RAB14E29 P0000
14837KMSN MSN20030610074011806/10/03 07:40:31  5-MIN KMSN 101340Z 19009G16KT 10SM OVC085 18/14 A2969 1080 78 1800 190/09G16 RMK AO2 RAB14E29 P0000
14837KMSN MSN20030610074511806/10/03 07:45:31  5-MIN KMSN 101345Z 19008G15KT 10SM OVC085 18/14 A2969 1080 78 1800 190/08G15 RMK AO2 RAB14E29 P0000
14837KMSN MSN20030610075013506/10/03 07:50:31  5-MIN KMSN 101350Z 19011G15KT 10SM OVC085 18/14 A2968 1080 78 1800 190/11G15 RMK AO2 RAB14E29 SLP049 P0000 T01830144
14837KMSN MSN20030610075510306/10/03 07:55:31  5-MIN KMSN 101355Z 19011G15KT 10SM OVC085 19/14 A2968 1090 75 1800 190/11G15 RMK AO2
14837KMSN MSN20030610080010306/10/03 08:00:31  5-MIN KMSN 101400Z 18012G17KT 10SM OVC085 19/14 A2968 1090 75 1800 180/12G17 RMK AO2
14837KMSN MSN20030610080511006/10/03 08:05:31  5-MIN KMSN 101405Z 18011G17KT 10SM FEW024 OVC085 19/14 A2968 1090 75 1800 180/11G17 RMK AO2
14837KMSN MSN20030610081011006/10/03 08:10:31  5-MIN KMSN 101410Z 18012G17KT 10SM FEW024 OVC080 19/14 A2968 1090 72 1900 180/12G17 RMK AO2
14837KMSN MSN20030610081511006/10/03 08:15:31  5-MIN KMSN 101415Z 19013G18KT 10SM FEW024 OVC080 19/14 A2967 1090 72 1900 190/13G18 RMK AO2
14837KMSN MSN20030610082011006/10/03 08:20:31  5-MIN KMSN 101420Z 18010G18KT 10SM FEW024 OVC080 19/14 A2967 1090 72 1900 180/10G18 RMK AO2
14837KMSN MSN20030610082511006/10/03 08:25:31  5-MIN KMSN 101425Z 18012G18KT 10SM SCT027 OVC080 19/14 A2967 1100 72 1900 180/12G18 RMK AO2
14837KMSN MSN20030610083011006/10/03 08:30:31  5-MIN KMSN 101430Z 18013G19KT 10SM SCT027 OVC085 19/14 A2967 1100 72 1900 180/13G19 RMK AO2
14837KMSN MSN20030610083511006/10/03 08:35:31  5-MIN KMSN 101435Z 18017G22KT 10SM SCT027 OVC085 19/14 A2966 1100 72 1900 180/17G22 RMK AO2
14837KMSN MSN20030610084011006/10/03 08:40:31  5-MIN KMSN 101440Z 19014G22KT 10SM FEW027 OVC090 20/14 A2966 1100 67 2000 190/14G22 RMK AO2
14837KMSN MSN20030610084511006/10/03 08:45:31  5-MIN KMSN 101445Z 19012G22KT 10SM SCT027 OVC090 20/14 A2967 1100 70 2000 190/12G22 RMK AO2
14837KMSN MSN20030610085015506/10/03 08:50:31  5-MIN KMSN 101450Z 19011G20KT 170V240 10SM SCT027 OVC090 20/14 A2967 1100 70 2000 190/11G20 170V240 RMK AO2 SLP043 60000 T02000144 56015
14837KMSN MSN20030610085511006/10/03 08:55:31  5-MIN KMSN 101455Z 20010G15KT 10SM SCT027 OVC090 20/14 A2966 1100 70 2000 200/10G15 RMK AO2
14837KMSN MSN20030610090011006/10/03 09:00:31  5-MIN KMSN 101500Z 19011G15KT 10SM SCT027 OVC090 20/14 A2966 1100 70 2000 190/11G15 RMK AO2
14837KMSN MSN20030610090511006/10/03 09:05:31  5-MIN KMSN 101505Z 22008G15KT 10SM BKN027 OVC090 19/14 A2967 1100 72 1900 220/08G15 RMK AO2
14837KMSN MSN20030610091011006/10/03 09:10:31  5-MIN KMSN 101510Z 20011G18KT 10SM BKN027 OVC085 19/14 A2967 1100 70 1900 200/11G18 RMK AO2
14837KMSN MSN20030610091511006/10/03 09:15:31  5-MIN KMSN 101515Z 19009G18KT 10SM BKN025 OVC085 19/14 A2967 1100 72 1900 190/09G18 RMK AO2
14837KMSN MSN20030610092011006/10/03 09:20:31  5-MIN KMSN 101520Z 20011G16KT 10SM BKN025 OVC030 19/14 A2966 1100 72 1900 200/11G16 RMK AO2
14837KMSN MSN20030610092509706/10/03 09:25:31  5-MIN KMSN 101525Z 20012KT 10SM OVC025 19/14 A2966 1110 72 1900 200/12 RMK AO2
14837KMSN MSN20030610093009706/10/03 09:30:31  5-MIN KMSN 101530Z 19009KT 10SM OVC023 19/14 A2966 1110 72 1900 190/09 RMK AO2
14837KMSN MSN20030610093509706/10/03 09:35:31  5-MIN KMSN 101535Z 19009KT 10SM OVC023 19/14 A2965 1110 72 1900 190/09 RMK AO2
14837KMSN MSN20030610094011306/10/03 09:40:31  5-MIN KMSN 101540Z 19008KT 160V220 10SM OVC023 19/15 A2965 1110 75 1900 190/08 160V220 RMK AO2
14837KMSN MSN20030610094509706/10/03 09:45:31  5-MIN KMSN 101545Z 18012KT 10SM OVC023 20/15 A2965 1110 72 2000 170/12 RMK AO2
14837KMSN MSN20030610095011406/10/03 09:50:31  5-MIN KMSN 101550Z 19009KT 10SM OVC023 20/15 A2965 1120 72 2000 190/09 RMK AO2 SLP037 T02000150
14837KMSN MSN20030610095511306/10/03 09:55:31  5-MIN KMSN 101555Z 20008KT 170V230 10SM OVC022 20/15 A2965 1120 72 2000 200/08 170V230 RMK AO2
14837KMSN MSN20030610100011906/10/03 10:00:31  5-MIN KMSN 101600Z 21008G14KT 160V230 10SM OVC022 20/15 A2965 1120 72 2000 210/08G14 160V230 RMK AO2
14837KMSN MSN20030610100510306/10/03 10:05:31  5-MIN KMSN 101605Z 20008G14KT 10SM OVC022 20/15 A2964 1120 72 2000 200/08G14 RMK AO2
14837KMSN MSN20030610101009706/10/03 10:10:31  5-MIN KMSN 101610Z 20010KT 10SM OVC022 20/15 A2964 1120 72 2000 200/10 RMK AO2
14837KMSN MSN20030610101512006/10/03 10:15:31  5-MIN KMSN 101615Z 20010KT 170V240 10SM BKN022 OVC030 21/16 A2964 1130 73 2100 200/10 170V240 RMK AO2
14837KMSN MSN20030610102011006/10/03 10:20:31  5-MIN KMSN 101620Z 20012G15KT 10SM BKN024 OVC030 21/16 A2964 1130 73 2100 200/12G15 RMK AO2
14837KMSN MSN20030610102511006/10/03 10:25:31  5-MIN KMSN 101625Z 20010G15KT 10SM BKN024 OVC030 20/16 A2964 1130 75 2000 200/10G15 RMK AO2
14837KMSN MSN20030610103010406/10/03 10:30:31  5-MIN KMSN 101630Z 21009KT 10SM BKN024 OVC030 20/16 A2963 1130 75 2000 210/09 RMK AO2
14837KMSN MSN20030610103510306/10/03 10:35:31  5-MIN KMSN 101635Z 21007G16KT 10SM OVC027 20/16 A2963 1130 75 2000 210/07G16 RMK AO2
14837KMSN MSN20030610104010406/10/03 10:40:31  5-MIN KMSN 101640Z 19011KT 10SM SCT023 OVC029 20/16 A2963 1130 75 2000 190/11 RMK AO2
14837KMSN MSN20030610104509706/10/03 10:45:31  5-MIN KMSN 101645Z 19009KT 10SM OVC025 20/16 A2963 1130 75 2000 190/09 RMK AO2
14837KMSN MSN20030610105012106/10/03 10:50:31  5-MIN KMSN 101650Z 20008KT 10SM BKN023 OVC030 20/16 A2963 1140 75 2000 200/08 RMK AO2 SLP030 T02000156
14837KMSN MSN20030610105510406/10/03 10:55:31  5-MIN KMSN 101655Z 20006KT 10SM BKN022 OVC030 20/16 A2963 1140 75 2000 200/06 RMK AO2
14837KMSN MSN20030610110010406/10/03 11:00:31  5-MIN KMSN 101700Z VRB05KT 10SM BKN022 OVC028 20/16 A2963 1140 75 2000 VRB/05 RMK AO2
14837KMSN MSN20030610110509706/10/03 11:05:31  5-MIN KMSN 101705Z 21008KT 10SM OVC022 20/16 A2963 1130 75 2000 210/08 RMK AO2
14837KMSN MSN20030610111009706/10/03 11:10:31  5-MIN KMSN 101710Z 20008KT 10SM OVC020 20/16 A2963 1130 75 2000 200/08 RMK AO2
14837KMSN MSN20030610111509706/10/03 11:15:31  5-MIN KMSN 101715Z 21007KT 10SM OVC020 20/16 A2963 1130 75 2000 210/07 RMK AO2
14837KMSN MSN20030610112009706/10/03 11:20:31  5-MIN KMSN 101720Z 22007KT 10SM OVC020 19/16 A2963 1130 78 2000 220/07 RMK AO2
14837KMSN MSN20030610112509706/10/03 11:25:31  5-MIN KMSN 101725Z 21006KT 10SM OVC020 19/16 A2963 1130 78 2000 210/06 RMK AO2
14837KMSN MSN20030610113009706/10/03 11:30:31  5-MIN KMSN 101730Z 21006KT 10SM OVC020 20/16 A2963 1140 75 2000 210/06 RMK AO2
14837KMSN MSN20030610113509706/10/03 11:35:31  5-MIN KMSN 101735Z 21008KT 10SM OVC018 19/16 A2963 1140 81 2000 210/08 RMK AO2
14837KMSN MSN20030610114009706/10/03 11:40:31  5-MIN KMSN 101740Z 20010KT 10SM OVC018 19/16 A2963 1140 81 2000 200/10 RMK AO2
14837KMSN MSN20030610114509706/10/03 11:45:31  5-MIN KMSN 101745Z 21009KT 10SM OVC018 19/16 A2962 1140 81 2000 210/09 RMK AO2
14837KMSN MSN20030610115016006/10/03 11:50:31  5-MIN KMSN 101750Z 21010G16KT 180V240 10SM OVC018 19/16 A2962 1140 81 2000 210/10G16 180V240 RMK AO2 SLP029 60000 T01940161 10206 20167 58012
14837KMSN MSN20030610115510206/10/03 11:55:31  5-MIN KMSN 101755Z 21008G16KT 9SM OVC016 19/16 A2963 1140 81 2000 210/08G16 RMK AO2
14837KMSN MSN20030610120009606/10/03 12:00:31  5-MIN KMSN 101800Z 21008KT 8SM OVC016 19/16 A2963 1140 81 2000 200/08 RMK AO2
14837KMSN MSN20030610120509606/10/03 12:05:31  5-MIN KMSN 101805Z 22010KT 8SM OVC016 19/16 A2963 1140 81 2000 220/10 RMK AO2
14837KMSN MSN20030610121009606/10/03 12:10:31  5-MIN KMSN 101810Z 20009KT 8SM OVC016 19/17 A2963 1140 84 2000 200/09 RMK AO2
14837KMSN MSN20030610121511206/10/03 12:15:31  5-MIN KMSN 101815Z 21008KT 180V250 8SM OVC014 19/17 A2963 1130 84 2000 210/08 180V250 RMK AO2
14837KMSN MSN20030610122009606/10/03 12:20:31  5-MIN KMSN 101820Z 22009KT 7SM OVC014 19/17 A2963 1130 84 2000 220/09 RMK AO2
14837KMSN MSN20030610122510206/10/03 12:25:31  5-MIN KMSN 101825Z 22009G14KT 8SM OVC014 19/17 A2963 1130 84 2000 220/09G14 RMK AO2
14837KMSN MSN20030610123010206/10/03 12:30:31  5-MIN KMSN 101830Z 23008G14KT 9SM OVC014 19/17 A2963 1130 84 2000 220/08G14 RMK AO2
14837KMSN MSN20030610123509706/10/03 12:35:31  5-MIN KMSN 101835Z 22008KT 10SM OVC014 19/17 A2963 1130 84 2000 210/08 RMK AO2
14837KMSN MSN20030610124009706/10/03 12:40:31  5-MIN KMSN 101840Z 22009KT 10SM OVC014 19/17 A2963 1130 84 2000 220/09 RMK AO2
14837KMSN MSN20030610124511306/10/03 12:45:31  5-MIN KMSN 101845Z 22009KT 180V240 10SM OVC014 20/17 A2963 1130 84 2000 210/09 180V240 RMK AO2
14837KMSN MSN20030610125013706/10/03 12:50:31  5-MIN KMSN 101850Z 22010KT 180V260 10SM BKN014 OVC033 21/17 A2963 1140 81 2100 220/10 180V260 RMK AO2 SLP030 T02060172
14837KMSN MSN20030610125510406/10/03 12:55:31  5-MIN KMSN 101855Z 23010KT 10SM BKN016 BKN033 21/17 A2963 1140 81 2100 230/10 RMK AO2
14837KMSN MSN20030610130010406/10/03 13:00:31  5-MIN KMSN 101900Z 22009KT 10SM BKN016 OVC033 21/17 A2963 1140 81 2100 210/09 RMK AO2
14837KMSN MSN20030610130511006/10/03 13:05:31  5-MIN KMSN 101905Z 23011G16KT 10SM BKN016 OVC023 21/17 A2963 1140 81 2100 220/11G16 RMK AO2
14837KMSN MSN20030610131011006/10/03 13:10:31  5-MIN KMSN 101910Z 23010G16KT 10SM BKN016 OVC033 21/17 A2963 1140 78 2200 220/10G16 RMK AO2
14837KMSN MSN20030610131512006/10/03 13:15:31  5-MIN KMSN 101915Z 23010KT 200V270 10SM BKN016 OVC033 21/17 A2963 1140 78 2100 230/10 200V270 RMK AO2
14837KMSN MSN20030610132010406/10/03 13:20:31  5-MIN KMSN 101920Z 22008KT 10SM BKN016 OVC033 21/17 A2963 1140 78 2100 220/08 RMK AO2
14837KMSN MSN20030610132511906/10/03 13:25:31  5-MIN KMSN 101925Z 22009G16KT 180V250 10SM OVC016 21/17 A2963 1140 78 2200 220/09G16 180V250 RMK AO2
14837KMSN MSN20030610133011006/10/03 13:30:31  5-MIN KMSN 101930Z 21008G16KT 10SM BKN018 OVC023 21/17 A2962 1140 78 2200 210/08G16 RMK AO2
14837KMSN MSN20030610133510406/10/03 13:35:31  5-MIN KMSN 101935Z 23011KT 10SM BKN018 OVC023 21/17 A2962 1140 78 2200 230/11 RMK AO2
14837KMSN MSN20030610134009706/10/03 13:40:31  5-MIN KMSN 101940Z 23008KT 10SM OVC018 21/17 A2962 1140 78 2200 230/08 RMK AO2
14837KMSN MSN20030610134509706/10/03 13:45:31  5-MIN KMSN 101945Z 23008KT 10SM OVC018 21/17 A2962 1140 78 2200 230/08 RMK AO2
14837KMSN MSN20030610135012106/10/03 13:50:31  5-MIN KMSN 101950Z 21008KT 10SM BKN018 OVC025 21/17 A2962 1140 78 2200 210/08 RMK AO2 SLP028 T02110172
14837KMSN MSN20030610135510406/10/03 13:55:31  5-MIN KMSN 101955Z 22010KT 10SM BKN018 OVC025 21/17 A2963 1140 81 2100 220/10 RMK AO2
14837KMSN MSN20030610140010406/10/03 14:00:31  5-MIN KMSN 102000Z 21010KT 10SM BKN018 OVC025 21/17 A2963 1140 81 2100 210/10 RMK AO2
14837KMSN MSN20030610140512606/10/03 14:05:31  5-MIN KMSN 102005Z 23008G14KT 200V260 10SM BKN020 OVC025 21/17 A2963 1140 81 2100 230/08G14 200V260 RMK AO2
14837KMSN MSN20030610141012006/10/03 14:10:31  5-MIN KMSN 102010Z 24007KT 220V280 10SM BKN020 OVC025 21/17 A2963 1130 81 2100 240/07 220V280 RMK AO2
14837KMSN MSN20030610141510406/10/03 14:15:31  5-MIN KMSN 102015Z 22009KT 10SM BKN020 OVC026 21/17 A2963 1130 81 2100 220/09 RMK AO2
14837KMSN MSN20030610142011306/10/03 14:20:31  5-MIN KMSN 102020Z 23008KT 210V280 10SM OVC022 21/17 A2963 1130 81 2100 230/08 210V280 RMK AO2
14837KMSN MSN20030610142511306/10/03 14:25:31  5-MIN KMSN 102025Z 23008KT 160V270 10SM OVC022 21/17 A2964 1130 81 2100 230/08 160V270 RMK AO2
14837KMSN MSN20030610143009706/10/03 14:30:31  5-MIN KMSN 102030Z 22008KT 10SM OVC022 21/17 A2964 1130 81 2100 220/08 RMK AO2
14837KMSN MSN20030610143510306/10/03 14:35:31  5-MIN KMSN 102035Z 23009G14KT 10SM OVC022 21/17 A2964 1130 81 2100 230/09G14 RMK AO2
14837KMSN MSN20030610144011906/10/03 14:40:31  5-MIN KMSN 102040Z 23009G14KT 200V270 10SM OVC022 21/17 A2964 1120 81 2100 230/09G14 200V270 RMK AO2
14837KMSN MSN20030610144511306/10/03 14:45:31  5-MIN KMSN 102045Z 23009KT 210V280 10SM OVC022 21/17 A2964 1120 78 2100 230/09 210V280 RMK AO2
14837KMSN MSN20030610145012006/10/03 14:50:31  5-MIN KMSN 102050Z VRB05KT 10SM OVC022 21/17 A2964 1120 81 2100 VRB/05 RMK AO2 SLP036 T02060172 56013
14837KMSN MSN20030610145510406/10/03 14:55:31  5-MIN KMSN 102055Z VRB06KT 10SM BKN022 OVC034 21/17 A2965 1120 81 2100 VRB/06 RMK AO2
14837KMSN MSN20030610150010406/10/03 15:00:31  5-MIN KMSN 102100Z VRB06KT 10SM BKN022 OVC034 21/17 A2965 1120 81 2100 VRB/06 RMK AO2
14837KMSN MSN20030610150512006/10/03 15:05:31  5-MIN KMSN 102105Z 22008KT 190V260 10SM SCT022 OVC036 21/17 A2965 1120 81 2100 220/08 190V260 RMK AO2
14837KMSN MSN20030610151011106/10/03 15:10:31  5-MIN KMSN 102110Z 21008KT 10SM FEW022 BKN036 OVC045 21/17 A2965 1120 78 2100 210/08 RMK AO2
14837KMSN MSN20030610151511106/10/03 15:15:31  5-MIN KMSN 102115Z 22008KT 10SM FEW022 SCT037 OVC050 21/17 A2965 1120 78 2100 220/08 RMK AO2
14837KMSN MSN20030610152010406/10/03 15:20:31  5-MIN KMSN 102120Z 22008KT 10SM SCT037 OVC050 21/17 A2964 1120 78 2100 220/08 RMK AO2
14837KMSN MSN20030610152510406/10/03 15:25:31  5-MIN KMSN 102125Z 21008KT 10SM SCT039 BKN050 22/17 A2964 1130 75 2200 210/08 RMK AO2
14837KMSN MSN20030610153010406/10/03 15:30:31  5-MIN KMSN 102130Z 20010KT 10SM FEW041 SCT050 22/17 A2963 1130 75 2200 200/10 RMK AO2
14837KMSN MSN20030610153510306/10/03 15:35:31  5-MIN KMSN 102135Z 22007KT 9SM FEW041 SCT050 22/17 A2963 1130 75 2200 220/07 RMK AO2
14837KMSN MSN20030610154011306/10/03 15:40:31  5-MIN KMSN 102140Z 23007KT 190V260 10SM FEW050 22/17 A2963 1130 73 2300 230/07 190V260 RMK AO2
14837KMSN MSN20030610154509706/10/03 15:45:31  5-MIN KMSN 102145Z 22007KT 10SM FEW050 22/17 A2963 1130 73 2300 220/07 RMK AO2
14837KMSN MSN20030610155011406/10/03 15:50:31  5-MIN KMSN 102150Z 24008KT 10SM FEW050 22/17 A2963 1130 73 2300 230/08 RMK AO2 SLP031 T02220172
14837KMSN MSN20030610155509406/10/03 15:55:31  5-MIN KMSN 102155Z VRB06KT 10SM CLR 22/17 A2964 1130 73 2300 VRB/06 RMK AO2
14837KMSN MSN20030610160011306/10/03 16:00:31  5-MIN KMSN 102200Z 23007KT 210V290 10SM FEW050 23/17 A2964 1130 70 2300 230/07 210V290 RMK AO2
14837KMSN MSN20030610160511306/10/03 16:05:31  5-MIN KMSN 102205Z 24007KT 210V280 10SM FEW050 23/17 A2963 1130 70 2300 240/07 210V280 RMK AO2
14837KMSN MSN20030610161011306/10/03 16:10:31  5-MIN KMSN 102210Z 22007KT 180V250 10SM FEW050 23/18 A2963 1130 73 2300 220/07 180V250 RMK AO2
14837KMSN MSN20030610161509706/10/03 16:15:31  5-MIN KMSN 102215Z 22008KT 10SM FEW050 23/17 A2963 1140 70 2300 220/08 RMK AO2
14837KMSN MSN20030610162009706/10/03 16:20:31  5-MIN KMSN 102220Z 22006KT 10SM FEW050 23/18 A2962 1140 70 2400 220/06 RMK AO2
14837KMSN MSN20030610162509706/10/03 16:25:31  5-MIN KMSN 102225Z 21009KT 10SM FEW050 23/18 A2962 1140 70 2400 210/09 RMK AO2
14837KMSN MSN20030610163009706/10/03 16:30:31  5-MIN KMSN 102230Z 22008KT 10SM FEW050 23/17 A2962 1140 68 2400 220/08 RMK AO2
14837KMSN MSN20030610163509706/10/03 16:35:31  5-MIN KMSN 102235Z 23008KT 10SM FEW050 23/17 A2962 1140 70 2300 220/08 RMK AO2
14837KMSN MSN20030610164009706/10/03 16:40:31  5-MIN KMSN 102240Z 24007KT 10SM FEW050 23/17 A2962 1140 68 2400 240/07 RMK AO2
14837KMSN MSN20030610164509706/10/03 16:45:31  5-MIN KMSN 102245Z VRB06KT 10SM FEW050 23/17 A2962 1140 68 2400 VRB/06 RMK AO2
14837KMSN MSN20030610165011406/10/03 16:50:31  5-MIN KMSN 102250Z VRB05KT 10SM FEW050 23/17 A2962 1140 68 2400 VRB/05 RMK AO2 SLP026 T02330172
14837KMSN MSN20030610165509706/10/03 16:55:31  5-MIN KMSN 102255Z VRB05KT 10SM FEW050 23/18 A2962 1140 70 2400 VRB/05 RMK AO2
14837KMSN MSN20030610170009706/10/03 17:00:31  5-MIN KMSN 102300Z 21006KT 10SM FEW050 23/17 A2962 1140 68 2400 210/06 RMK AO2
14837KMSN MSN20030610170509706/10/03 17:05:31  5-MIN KMSN 102305Z VRB05KT 10SM FEW050 23/17 A2962 1140 68 2400 VRB/05 RMK AO2
14837KMSN MSN20030610171009706/10/03 17:10:31  5-MIN KMSN 102310Z VRB06KT 10SM FEW050 23/18 A2962 1150 70 2400 VRB/06 RMK AO2
14837KMSN MSN20030610171509706/10/03 17:15:31  5-MIN KMSN 102315Z 22007KT 10SM FEW050 24/17 A2961 1150 66 2500 220/07 RMK AO2
14837KMSN MSN20030610172009706/10/03 17:20:31  5-MIN KMSN 102320Z 21006KT 10SM FEW050 24/17 A2961 1150 66 2500 210/06 RMK AO2
14837KMSN MSN20030610172509706/10/03 17:25:31  5-MIN KMSN 102325Z VRB05KT 10SM FEW050 24/17 A2961 1150 66 2500 VRB/05 RMK AO2
14837KMSN MSN20030610173009706/10/03 17:30:31  5-MIN KMSN 102330Z 23005KT 10SM FEW040 24/17 A2962 1140 66 2500 230/05 RMK AO2
14837KMSN MSN20030610173511306/10/03 17:35:31  5-MIN KMSN 102335Z 23007KT 200V260 10SM FEW040 23/17 A2962 1140 68 2400 230/07 200V260 RMK AO2
14837KMSN MSN20030610174009706/10/03 17:40:31  5-MIN KMSN 102340Z 23007KT 10SM FEW040 24/18 A2962 1140 68 2500 230/07 RMK AO2
14837KMSN MSN20030610174509706/10/03 17:45:31  5-MIN KMSN 102345Z 22006KT 10SM FEW040 24/17 A2962 1140 66 2500 220/06 RMK AO2
14837KMSN MSN20030610175013206/10/03 17:50:31  5-MIN KMSN 102350Z VRB06KT 10SM FEW040 23/17 A2962 1140 68 2400 VRB/06 RMK AO2 SLP027 T02330172 10239 20194 53007
14837KMSN MSN20030610175509706/10/03 17:55:31  5-MIN KMSN 102355Z 22007KT 10SM FEW038 23/17 A2963 1140 68 2400 220/07 RMK AO2
14837KMSN MSN20030610180009706/10/03 18:00:31  5-MIN KMSN 110000Z 21007KT 10SM FEW038 24/17 A2963 1140 66 2500 210/07 RMK AO2
14837KMSN MSN20030610180509406/10/03 18:05:31  5-MIN KMSN 110005Z 21007KT 10SM CLR 23/17 A2963 1140 68 2400 210/07 RMK AO2
14837KMSN MSN20030610181009706/10/03 18:10:31  5-MIN KMSN 110010Z 22007KT 10SM FEW041 23/17 A2963 1130 68 2400 210/07 RMK AO2
14837KMSN MSN20030610181509706/10/03 18:15:31  5-MIN KMSN 110015Z VRB04KT 10SM SCT041 24/17 A2964 1130 66 2500 VRB/04 RMK AO2
14837KMSN MSN20030610182009706/10/03 18:20:31  5-MIN KMSN 110020Z 21006KT 10SM BKN039 24/17 A2964 1130 66 2500 210/06 RMK AO2
14837KMSN MSN20030610182509706/10/03 18:25:31  5-MIN KMSN 110025Z 23006KT 10SM BKN039 24/18 A2963 1130 68 2500 230/06 RMK AO2
14837KMSN MSN20030610183009706/10/03 18:30:31  5-MIN KMSN 110030Z 22004KT 10SM BKN039 23/18 A2963 1130 70 2400 220/04 RMK AO2
14837KMSN MSN20030610183510406/10/03 18:35:31  5-MIN KMSN 110035Z VRB05KT 10SM SCT039 BKN055 23/18 A2963 1130 70 2400 VRB/05 RMK AO2
14837KMSN MSN20030610184010406/10/03 18:40:31  5-MIN KMSN 110040Z 23006KT 10SM SCT039 BKN055 23/18 A2963 1130 70 2400 230/06 RMK AO2
14837KMSN MSN20030610184510406/10/03 18:45:31  5-MIN KMSN 110045Z 23006KT 10SM SCT039 BKN055 23/18 A2963 1130 70 2400 230/06 RMK AO2
14837KMSN MSN20030610185012106/10/03 18:50:31  5-MIN KMSN 110050Z VRB04KT 10SM SCT039 BKN110 23/18 A2964 1130 73 2300 VRB/04 RMK AO2 SLP033 T02280178
14837KMSN MSN20030610185509706/10/03 18:55:31  5-MIN KMSN 110055Z 23004KT 10SM FEW050 23/17 A2964 1130 70 2300 230/04 RMK AO2
14837KMSN MSN20030610190010406/10/03 19:00:31  5-MIN KMSN 110100Z 22005KT 10SM SCT050 BKN110 23/17 A2964 1120 70 2300 210/05 RMK AO2
14837KMSN MSN20030610190510406/10/03 19:05:31  5-MIN KMSN 110105Z 22004KT 10SM SCT050 SCT060 23/17 A2964 1120 70 2300 220/04 RMK AO2
14837KMSN MSN20030610191010406/10/03 19:10:31  5-MIN KMSN 110110Z VRB04KT 10SM SCT050 SCT060 23/17 A2964 1120 70 2300 VRB/04 RMK AO2
14837KMSN MSN20030610191510406/10/03 19:15:31  5-MIN KMSN 110115Z 22004KT 10SM SCT050 SCT060 23/17 A2964 1120 70 2300 220/04 RMK AO2
14837KMSN MSN20030610192010406/10/03 19:20:31  5-MIN KMSN 110120Z VRB04KT 10SM SCT050 SCT060 23/17 A2965 1120 70 2300 VRB/04 RMK AO2
14837KMSN MSN20030610192510406/10/03 19:25:31  5-MIN KMSN 110125Z 35008KT 10SM SCT050 SCT060 23/18 A2966 1110 73 2300 340/08 RMK AO2
14837KMSN MSN20030610193010406/10/03 19:30:31  5-MIN KMSN 110130Z 31005KT 10SM SCT050 SCT060 22/18 A2966 1110 75 2200 310/05 RMK AO2
14837KMSN MSN20030610193511106/10/03 19:35:31  5-MIN KMSN 110135Z VRB04KT 10SM SCT028 BKN044 OVC055 22/17 A2966 1100 75 2200 VRB/04 RMK AO2
14837KMSN MSN20030610194011106/10/03 19:40:31  5-MIN KMSN 110140Z VRB04KT 10SM SCT028 BKN044 BKN055 22/17 A2966 1100 75 2200 VRB/04 RMK AO2
14837KMSN MSN20030610194511106/10/03 19:45:31  5-MIN KMSN 110145Z 31004KT 10SM SCT028 BKN044 BKN060 22/17 A2966 1100 75 2200 310/04 RMK AO2
14837KMSN MSN20030610195012806/10/03 19:50:31  5-MIN KMSN 110150Z 33005KT 10SM SCT028 BKN044 BKN060 21/17 A2967 1100 78 2100 330/05 RMK AO2 SLP042 T02110172
14837KMSN MSN20030610195511106/10/03 19:55:31  5-MIN KMSN 110155Z 33003KT 10SM SCT028 BKN033 BKN095 21/17 A2967 1100 78 2100 330/03 RMK AO2
14837KMSN MSN20030610200011106/10/03 20:00:31  5-MIN KMSN 110200Z 32004KT 10SM SCT028 BKN033 BKN095 21/17 A2967 1090 78 2100 310/04 RMK AO2
14837KMSN MSN20030610200511106/10/03 20:05:31  5-MIN KMSN 110205Z 32005KT 10SM SCT028 BKN033 BKN095 21/17 A2968 1090 78 2100 310/05 RMK AO2
14837KMSN MSN20030610201011106/10/03 20:10:31  5-MIN KMSN 110210Z VRB04KT 10SM FEW030 BKN035 OVC060 21/17 A2968 1090 78 2100 VRB/04 RMK AO2
14837KMSN MSN20030610201511106/10/03 20:15:31  5-MIN KMSN 110215Z 34006KT 10SM BKN033 BKN045 OVC095 21/17 A2968 1090 78 2100 340/06 RMK AO2
14837KMSN MSN20030610202011106/10/03 20:20:31  5-MIN KMSN 110220Z 34004KT 10SM BKN036 BKN050 OVC100 21/17 A2968 1080 78 2100 340/04 RMK AO2
14837KMSN MSN20030610202511106/10/03 20:25:31  5-MIN KMSN 110225Z 33006KT 10SM SCT036 BKN048 OVC100 21/17 A2969 1080 78 2100 330/06 RMK AO2
14837KMSN MSN20030610203012706/10/03 20:30:31  5-MIN KMSN 110230Z 34005KT 10SM -RA SCT036 BKN044 BKN100 21/17 A2969 1080 78 2100 340/05 RMK AO2 RAB29 P0000
14837KMSN MSN20030610203512706/10/03 20:35:31  5-MIN KMSN 110235Z 33005KT 10SM -RA SCT036 BKN044 BKN100 21/17 A2969 1080 81 2000 330/05 RMK AO2 RAB29 P0000
14837KMSN MSN20030610204012706/10/03 20:40:31  5-MIN KMSN 110240Z 33005KT 10SM -RA SCT036 BKN044 BKN100 21/17 A2969 1080 81 2000 330/05 RMK AO2 RAB29 P0000
14837KMSN MSN20030610204512706/10/03 20:45:31  5-MIN KMSN 110245Z 33005KT 10SM -RA SCT036 BKN044 BKN100 21/17 A2970 1070 81 2000 330/05 RMK AO2 RAB29 P0000
14837KMSN MSN20030610205015506/10/03 20:50:31  5-MIN KMSN 110250Z 34004KT 10SM FEW019 BKN040 BKN055 21/17 A2970 1070 81 2000 340/04 RMK AO2 RAB29E49 SLP052 P0000 60000 T02060172 55007
14837KMSN MSN20030610205511106/10/03 20:55:31  5-MIN KMSN 110255Z 34004KT 10SM FEW017 SCT025 BKN038 21/17 A2970 1070 81 2000 340/04 RMK AO2
14837KMSN MSN20030610210011106/10/03 21:00:31  5-MIN KMSN 110300Z 36004KT 10SM SCT017 SCT025 BKN039 20/17 A2969 1070 84 1900 360/04 RMK AO2
14837KMSN MSN20030610210510306/10/03 21:05:31  5-MIN KMSN 110305Z 36006KT 9SM SCT017 BKN039 19/17 A2970 1070 87 1900 360/06 RMK AO2
14837KMSN MSN20030610211010406/10/03 21:10:31  5-MIN KMSN 110310Z 35004KT 10SM SCT017 OVC039 19/17 A2970 1070 87 1900 350/04 RMK AO2
14837KMSN MSN20030610211510406/10/03 21:15:31  5-MIN KMSN 110315Z 35006KT 10SM SCT017 OVC039 19/17 A2970 1070 87 1900 350/06 RMK AO2
14837KMSN MSN20030610212011106/10/03 21:20:31  5-MIN KMSN 110320Z 36010KT 10SM SCT017 SCT026 OVC041 19/17 A2970 1070 87 1900 360/10 RMK AO2
14837KMSN MSN20030610212511106/10/03 21:25:31  5-MIN KMSN 110325Z 36009KT 10SM FEW017 BKN039 OVC048 19/17 A2970 1070 87 1900 360/09 RMK AO2
14837KMSN MSN20030610213011106/10/03 21:30:31  5-MIN KMSN 110330Z 36009KT 10SM FEW012 BKN039 OVC048 19/17 A2971 1060 87 1900 360/09 RMK AO2
14837KMSN MSN20030610213511106/10/03 21:35:31  5-MIN KMSN 110335Z 01013KT 10SM SCT012 BKN021 OVC048 19/17 A2971 1060 87 1900 010/13 RMK AO2
14837KMSN MSN20030610214011106/10/03 21:40:31  5-MIN KMSN 110340Z 01013KT 10SM BKN012 BKN023 OVC048 19/16 A2972 1050 84 1800 010/13 RMK AO2
14837KMSN MSN20030610214511106/10/03 21:45:31  5-MIN KMSN 110345Z 01013KT 10SM BKN014 BKN023 OVC048 18/16 A2972 1050 87 1700 360/13 RMK AO2
14837KMSN MSN20030610215012806/10/03 21:50:31  5-MIN KMSN 110350Z 36011KT 10SM BKN014 BKN023 BKN048 18/16 A2972 1050 84 1700 360/11 RMK AO2 SLP059 T01830156
14837KMSN MSN20030610215510306/10/03 21:55:31  5-MIN KMSN 110355Z 36011KT 8SM BKN014 OVC026 18/16 A2972 1050 84 1700 360/11 RMK AO2
14837KMSN MSN20030610220010406/10/03 22:00:31  5-MIN KMSN 110400Z 36010KT 10SM BKN014 OVC026 18/16 A2972 1050 87 1700 360/10 RMK AO2
14837KMSN MSN20030610220510306/10/03 22:05:31  5-MIN KMSN 110405Z 36008KT 8SM SCT014 OVC026 18/16 A2972 1050 87 1700 360/08 RMK AO2
14837KMSN MSN20030610221010306/10/03 22:10:31  5-MIN KMSN 110410Z 01010KT 8SM FEW016 OVC026 18/16 A2972 1050 87 1700 360/10 RMK AO2
14837KMSN MSN20030610221510306/10/03 22:15:31  5-MIN KMSN 110415Z 01009KT 8SM FEW016 BKN026 18/16 A2973 1040 87 1600 010/09 RMK AO2
14837KMSN MSN20030610222010306/10/03 22:20:31  5-MIN KMSN 110420Z 01009KT 8SM FEW016 BKN026 18/16 A2973 1040 87 1600 010/09 RMK AO2
14837KMSN MSN20030610222510306/10/03 22:25:31  5-MIN KMSN 110425Z 36008KT 8SM FEW016 BKN026 18/16 A2974 1030 87 1600 360/08 RMK AO2
14837KMSN MSN20030610223010306/10/03 22:30:31  5-MIN KMSN 110430Z 36009KT 8SM FEW016 BKN026 18/16 A2974 1030 87 1600 360/09 RMK AO2
14837KMSN MSN20030610223510306/10/03 22:35:31  5-MIN KMSN 110435Z 01009KT 8SM FEW016 BKN026 18/16 A2974 1030 87 1600 360/09 RMK AO2
14837KMSN MSN20030610224010306/10/03 22:40:31  5-MIN KMSN 110440Z 36008KT 7SM BKN021 OVC028 17/16 A2974 1030 90 1600 360/08 RMK AO2
14837KMSN MSN20030610224510306/10/03 22:45:31  5-MIN KMSN 110445Z 35007KT 7SM BKN021 OVC028 17/16 A2974 1030 90 1600 350/07 RMK AO2
14837KMSN MSN20030610225012006/10/03 22:50:31  5-MIN KMSN 110450Z 36006KT 7SM BKN021 OVC030 17/16 A2974 1030 90 1600 360/06 RMK AO2 SLP068 T01720156
14837KMSN MSN20030610225510606/10/03 22:55:31  5-MIN KMSN 110455Z 35006KT 6SM BR SCT021 OVC034 17/16 A2974 1030 90 1600 350/06 RMK AO2
14837KMSN MSN20030610230011306/10/03 23:00:31  5-MIN KMSN 110500Z 36006KT 6SM BR FEW011 SCT021 OVC034 17/16 A2974 1030 90 1600 350/06 RMK AO2
14837KMSN MSN20030610230511306/10/03 23:05:31  5-MIN KMSN 110505Z 35005KT 6SM BR SCT011 SCT021 OVC034 17/16 A2974 1030 90 1600 350/05 RMK AO2
14837KMSN MSN20030610231011306/10/03 23:10:31  5-MIN KMSN 110510Z 35005KT 6SM BR SCT009 BKN013 OVC034 17/16 A2974 1030 90 1600 350/05 RMK AO2
14837KMSN MSN20030610231511306/10/03 23:15:31  5-MIN KMSN 110515Z 36004KT 6SM BR SCT009 BKN013 OVC034 17/16 A2974 1030 90 1600 360/04 RMK AO2
14837KMSN MSN20030610232011306/10/03 23:20:31  5-MIN KMSN 110520Z 02006KT 6SM BR SCT009 BKN013 OVC034 17/16 A2974 1030 90 1600 020/06 RMK AO2
14837KMSN MSN20030610232511306/10/03 23:25:31  5-MIN KMSN 110525Z 04006KT 6SM BR SCT009 BKN013 OVC034 17/15 A2974 1030 87 1600 040/06 RMK AO2
14837KMSN MSN20030610233011306/10/03 23:30:31  5-MIN KMSN 110530Z 02007KT 6SM BR SCT009 BKN013 OVC034 17/15 A2974 1030 87 1600 020/07 RMK AO2
14837KMSN MSN20030610233511306/10/03 23:35:31  5-MIN KMSN 110535Z 02008KT 6SM BR SCT009 BKN013 OVC034 17/15 A2974 1030 87 1600 020/08 RMK AO2
14837KMSN MSN20030610234011306/10/03 23:40:31  5-MIN KMSN 110540Z 02007KT 6SM BR SCT009 BKN013 OVC034 17/15 A2975 1030 90 1500 020/07 RMK AO2
14837KMSN MSN20030610234511006/10/03 23:45:31  5-MIN KMSN 110545Z 02010KT 7SM SCT009 BKN013 OVC034 17/15 A2975 1020 90 1500 020/10 RMK AO2
14837KMSN MSN20030610235014706/10/03 23:50:31  5-MIN KMSN 110550Z 02009KT 7SM OVC013 17/14 A2975 1020 86 1500 020/09 RMK AO2 SLP073 60000 T01670144 10239 20167 402390156 53024
14837KMSN MSN20030610235509606/10/03 23:55:31  5-MIN KMSN 110555Z 03008KT 8SM OVC013 17/14 A2976 1020 86 1500 030/08 RMK AO2
14837KMSN MSN20030611000009606/11/03 00:00:31  5-MIN KMSN 110600Z 03007KT 8SM OVC015 17/14 A2976 1020 86 1500 030/07 RMK AO2
14837KMSN MSN20030611000509606/11/03 00:05:31  5-MIN KMSN 110605Z 03008KT 8SM OVC015 17/14 A2976 1010 86 1500 030/08 RMK AO2
14837KMSN MSN20030611001009606/11/03 00:10:31  5-MIN KMSN 110610Z 02010KT 8SM OVC013 17/14 A2977 1000 86 1500 020/10 RMK AO2
14837KMSN MSN20030611001510306/11/03 00:15:31  5-MIN KMSN 110615Z 03013KT 8SM SCT009 OVC015 16/14 A2977 1000 90 1400 030/13 RMK AO2
14837KMSN MSN20030611002010306/11/03 00:20:31  5-MIN KMSN 110620Z 04012KT 8SM BKN009 OVC015 16/14 A2978 1000 90 1300 040/12 RMK AO2
14837KMSN MSN20030611002510306/11/03 00:25:31  5-MIN KMSN 110625Z 04010KT 9SM BKN009 OVC015 16/13 A2978 1000 86 1300 040/10 RMK AO2
14837KMSN MSN20030611003010806/11/03 00:30:31  5-MIN KMSN 110630Z 03008KT 9SM OVC009 16/13 A2978 1000 86 1300 030/08 RMK AO2 CIG 008V014
14837KMSN MSN20030611003510906/11/03 00:35:31  5-MIN KMSN 110635Z 04008KT 10SM OVC009 16/13 A2978 1000 86 1300 040/08 RMK AO2 CIG 008V012
14837KMSN MSN20030611004010906/11/03 00:40:31  5-MIN KMSN 110640Z 04009KT 10SM OVC009 16/13 A2978 1000 86 1300 040/09 RMK AO2 CIG 008V013
14837KMSN MSN20030611004509706/11/03 00:45:31  5-MIN KMSN 110645Z 05010KT 10SM OVC011 16/13 A2978 1000 86 1300 050/10 RMK AO2
14837KMSN MSN20030611005011306/11/03 00:50:31  5-MIN KMSN 110650Z 04012KT 10SM OVC011 15/13 A2978 990 86 1300 040/12 RMK AO2 SLP083 T01500128
14837KMSN MSN20030611005509606/11/03 00:55:31  5-MIN KMSN 110655Z 03012KT 10SM OVC011 15/12 A2978 990 83 1300 030/12 RMK AO2
14837KMSN MSN20030611010009606/11/03 01:00:31  5-MIN KMSN 110700Z 03010KT 10SM OVC013 15/12 A2978 990 83 1300 030/10 RMK AO2
14837KMSN MSN20030611010510306/11/03 01:05:31  5-MIN KMSN 110705Z 03008KT 10SM BKN012 OVC017 15/12 A2978 990 83 1300 030/08 RMK AO2
14837KMSN MSN20030611011010306/11/03 01:10:31  5-MIN KMSN 110710Z 04009KT 10SM SCT012 OVC019 15/12 A2978 990 83 1300 040/09 RMK AO2
14837KMSN MSN20030611011510306/11/03 01:15:31  5-MIN KMSN 110715Z 03009KT 10SM FEW012 OVC019 15/12 A2978 990 83 1300 030/09 RMK AO2
14837KMSN MSN20030611012010306/11/03 01:20:31  5-MIN KMSN 110720Z 03007KT 10SM SCT017 OVC022 15/12 A2979 990 83 1300 030/07 RMK AO2
14837KMSN MSN20030611012509606/11/03 01:25:31  5-MIN KMSN 110725Z 03008KT 10SM OVC022 15/12 A2979 990 83 1300 030/08 RMK AO2
14837KMSN MSN20030611013009606/11/03 01:30:31  5-MIN KMSN 110730Z 04007KT 10SM OVC022 15/12 A2979 980 83 1300 040/07 RMK AO2
14837KMSN MSN20030611013509606/11/03 01:35:31  5-MIN KMSN 110735Z 03008KT 10SM OVC022 15/12 A2980 980 83 1200 030/08 RMK AO2
14837KMSN MSN20030611014009606/11/03 01:40:31  5-MIN KMSN 110740Z 03009KT 10SM OVC022 15/12 A2980 980 83 1200 020/09 RMK AO2
14837KMSN MSN20030611014509606/11/03 01:45:31  5-MIN KMSN 110745Z 03007KT 10SM OVC022 15/12 A2979 980 83 1300 030/07 RMK AO2
14837KMSN MSN20030611015011306/11/03 01:50:31  5-MIN KMSN 110750Z 02008KT 10SM OVC022 15/12 A2979 980 80 1200 020/08 RMK AO2 SLP087 T01500117
14837KMSN MSN20030611015509606/11/03 01:55:31  5-MIN KMSN 110755Z 02006KT 10SM OVC022 15/12 A2979 980 83 1200 020/06 RMK AO2
14837KMSN MSN20030611020009606/11/03 02:00:31  5-MIN KMSN 110800Z 01006KT 10SM OVC022 15/12 A2980 980 83 1200 010/06 RMK AO2
14837KMSN MSN20030611020509606/11/03 02:05:31  5-MIN KMSN 110805Z 01007KT 10SM OVC022 15/12 A2980 970 83 1200 010/07 RMK AO2
14837KMSN MSN20030611021009606/11/03 02:10:31  5-MIN KMSN 110810Z 02005KT 10SM OVC022 15/12 A2981 970 83 1200 020/05 RMK AO2
14837KMSN MSN20030611021509606/11/03 02:15:31  5-MIN KMSN 110815Z 02008KT 10SM OVC022 15/12 A2980 970 83 1200 020/08 RMK AO2
14837KMSN MSN20030611022009606/11/03 02:20:31  5-MIN KMSN 110820Z 01009KT 10SM OVC022 15/12 A2980 970 83 1200 010/09 RMK AO2
14837KMSN MSN20030611022509606/11/03 02:25:31  5-MIN KMSN 110825Z 01010KT 10SM OVC022 14/12 A2980 980 86 1200 010/10 RMK AO2
14837KMSN MSN20030611023009606/11/03 02:30:31  5-MIN KMSN 110830Z 01008KT 10SM OVC022 14/12 A2980 980 86 1200 010/08 RMK AO2
14837KMSN MSN20030611023509606/11/03 02:35:31  5-MIN KMSN 110835Z 01008KT 10SM OVC022 14/12 A2980 980 86 1200 010/08 RMK AO2
14837KMSN MSN20030611024009606/11/03 02:40:31  5-MIN KMSN 110840Z 01009KT 10SM OVC020 14/12 A2980 980 86 1200 010/09 RMK AO2
14837KMSN MSN20030611024509606/11/03 02:45:31  5-MIN KMSN 110845Z 01007KT 10SM OVC020 14/12 A2980 970 86 1200 010/07 RMK AO2
14837KMSN MSN20030611025011906/11/03 02:50:31  5-MIN KMSN 110850Z 02005KT 10SM OVC020 14/12 A2980 970 86 1200 020/05 RMK AO2 SLP089 T01440122 51019
14837KMSN MSN20030611025509606/11/03 02:55:31  5-MIN KMSN 110855Z 03006KT 10SM OVC018 14/12 A2980 970 86 1200 030/06 RMK AO2
14837KMSN MSN20030611030009606/11/03 03:00:31  5-MIN KMSN 110900Z 04004KT 10SM OVC018 14/12 A2980 970 86 1200 040/04 RMK AO2
14837KMSN MSN20030611030509606/11/03 03:05:31  5-MIN KMSN 110905Z 04005KT 10SM OVC018 14/12 A2981 970 86 1200 040/05 RMK AO2
14837KMSN MSN20030611031009606/11/03 03:10:31  5-MIN KMSN 110910Z 03005KT 10SM OVC018 14/12 A2980 970 86 1200 030/05 RMK AO2
14837KMSN MSN20030611031509606/11/03 03:15:31  5-MIN KMSN 110915Z 03006KT 10SM OVC018 14/12 A2981 970 86 1200 030/06 RMK AO2
14837KMSN MSN20030611032009606/11/03 03:20:31  5-MIN KMSN 110920Z 03005KT 10SM OVC018 14/12 A2981 960 86 1200 030/05 RMK AO2
14837KMSN MSN20030611032509606/11/03 03:25:31  5-MIN KMSN 110925Z 04005KT 10SM OVC018 14/12 A2981 960 86 1200 040/05 RMK AO2
14837KMSN MSN20030611033009606/11/03 03:30:31  5-MIN KMSN 110930Z 04006KT 10SM OVC016 14/12 A2981 970 86 1200 040/06 RMK AO2
14837KMSN MSN20030611033509606/11/03 03:35:31  5-MIN KMSN 110935Z 04005KT 10SM OVC016 14/12 A2981 960 86 1200 040/05 RMK AO2
14837KMSN MSN20030611034009606/11/03 03:40:31  5-MIN KMSN 110940Z 05007KT 10SM OVC016 14/12 A2981 960 86 1200 050/07 RMK AO2
14837KMSN MSN20030611034509606/11/03 03:45:31  5-MIN KMSN 110945Z 05008KT 10SM OVC016 14/12 A2981 970 83 1200 050/08 RMK AO2
14837KMSN MSN20030611035011306/11/03 03:50:31  5-MIN KMSN 110950Z 05008KT 10SM OVC014 14/12 A2981 970 83 1200 050/08 RMK AO2 SLP092 T01440117
14837KMSN MSN20030611035509606/11/03 03:55:31  5-MIN KMSN 110955Z 05010KT 10SM OVC014 14/12 A2981 960 83 1200 050/10 RMK AO2
14837KMSN MSN20030611040009606/11/03 04:00:31  5-MIN KMSN 111000Z 05010KT 10SM OVC014 14/12 A2981 960 83 1200 050/10 RMK AO2
14837KMSN MSN20030611040509606/11/03 04:05:31  5-MIN KMSN 111005Z 04007KT 10SM OVC014 14/12 A2982 960 83 1200 040/07 RMK AO2
14837KMSN MSN20030611041009606/11/03 04:10:31  5-MIN KMSN 111010Z 04008KT 10SM OVC014 14/12 A2982 960 83 1200 040/08 RMK AO2
14837KMSN MSN20030611041509606/11/03 04:15:31  5-MIN KMSN 111015Z 05006KT 10SM OVC014 14/12 A2982 960 83 1200 050/06 RMK AO2
14837KMSN MSN20030611042009606/11/03 04:20:31  5-MIN KMSN 111020Z 04008KT 10SM OVC014 14/12 A2982 960 83 1200 040/08 RMK AO2
14837KMSN MSN20030611042509606/11/03 04:25:31  5-MIN KMSN 111025Z 05008KT 10SM OVC014 14/12 A2982 950 83 1200 050/08 RMK AO2
14837KMSN MSN20030611043009606/11/03 04:30:31  5-MIN KMSN 111030Z 05008KT 10SM OVC014 14/12 A2983 950 83 1100 050/08 RMK AO2
14837KMSN MSN20030611043509606/11/03 04:35:31  5-MIN KMSN 111035Z 06011KT 10SM OVC014 14/11 A2983 950 80 1100 060/11 RMK AO2
14837KMSN MSN20030611044009606/11/03 04:40:31  5-MIN KMSN 111040Z 05008KT 10SM OVC014 14/11 A2984 940 80 1100 050/08 RMK AO2
14837KMSN MSN20030611044509606/11/03 04:45:31  5-MIN KMSN 111045Z 05009KT 10SM OVC014 14/11 A2984 940 80 1100 050/09 RMK AO2
14837KMSN MSN20030611045011306/11/03 04:50:31  5-MIN KMSN 111050Z 05007KT 10SM OVC014 14/11 A2984 940 80 1100 050/07 RMK AO2 SLP101 T01440111
14837KMSN MSN20030611045509606/11/03 04:55:31  5-MIN KMSN 111055Z 04007KT 10SM OVC014 14/11 A2984 940 80 1100 040/07 RMK AO2
14837KMSN MSN20030611050009606/11/03 05:00:31  5-MIN KMSN 111100Z 04006KT 10SM OVC014 14/11 A2984 940 80 1100 040/06 RMK AO2
14837KMSN MSN20030611050509606/11/03 05:05:31  5-MIN KMSN 111105Z 04007KT 10SM OVC014 14/11 A2984 940 80 1100 040/07 RMK AO2
14837KMSN MSN20030611051009606/11/03 05:10:31  5-MIN KMSN 111110Z 04009KT 10SM OVC014 14/12 A2985 930 83 1100 040/09 RMK AO2
14837KMSN MSN20030611051509606/11/03 05:15:31  5-MIN KMSN 111115Z 04008KT 10SM OVC014 14/12 A2985 930 83 1100 040/08 RMK AO2
14837KMSN MSN20030611052009606/11/03 05:20:31  5-MIN KMSN 111120Z 04007KT 10SM OVC014 14/12 A2984 940 83 1100 040/07 RMK AO2
14837KMSN MSN20030611052509606/11/03 05:25:31  5-MIN KMSN 111125Z 06007KT 10SM OVC014 14/12 A2985 930 83 1100 060/07 RMK AO2
14837KMSN MSN20030611053009606/11/03 05:30:31  5-MIN KMSN 111130Z 05008KT 10SM OVC016 14/12 A2984 940 83 1100 050/08 RMK AO2
14837KMSN MSN20030611053509506/11/03 05:35:31  5-MIN KMSN 111135Z 05007KT 9SM OVC016 14/12 A2985 930 83 1100 050/07 RMK AO2
14837KMSN MSN20030611054009506/11/03 05:40:31  5-MIN KMSN 111140Z 06007KT 9SM OVC016 14/12 A2985 930 83 1100 060/07 RMK AO2
14837KMSN MSN20030611054509506/11/03 05:45:31  5-MIN KMSN 111145Z 07008KT 9SM OVC014 14/12 A2985 930 83 1100 070/08 RMK AO2
14837KMSN MSN20030611055013006/11/03 05:50:31  5-MIN KMSN 111150Z 07009KT 8SM OVC014 14/12 A2985 930 83 1100 070/09 RMK AO2 SLP104 T01440117 10167 20144 51015
14837KMSN MSN20030611055509506/11/03 05:55:31  5-MIN KMSN 111155Z 06009KT 8SM OVC014 14/12 A2984 930 83 1100 060/09 RMK AO2
14837KMSN MSN20030611060009506/11/03 06:00:31  5-MIN KMSN 111200Z 08011KT 8SM OVC014 14/12 A2985 930 83 1100 080/11 RMK AO2
14837KMSN MSN20030611060509506/11/03 06:05:31  5-MIN KMSN 111205Z 06009KT 9SM OVC014 14/12 A2985 930 83 1100 060/09 RMK AO2
14837KMSN MSN20030611061009506/11/03 06:10:31  5-MIN KMSN 111210Z 06009KT 9SM OVC014 14/12 A2985 930 83 1100 060/09 RMK AO2
14837KMSN MSN20030611061509606/11/03 06:15:31  5-MIN KMSN 111215Z 07010KT 10SM OVC016 14/12 A2985 930 83 1100 070/10 RMK AO2
14837KMSN MSN20030611062009606/11/03 06:20:31  5-MIN KMSN 111220Z 08009KT 10SM OVC016 14/11 A2985 930 80 1100 080/09 RMK AO2
14837KMSN MSN20030611062509606/11/03 06:25:31  5-MIN KMSN 111225Z 07008KT 10SM OVC016 14/12 A2986 920 83 1100 070/08 RMK AO2
14837KMSN MSN20030611063009606/11/03 06:30:31  5-MIN KMSN 111230Z 07011KT 10SM OVC014 14/12 A2986 920 83 1100 070/11 RMK AO2
14837KMSN MSN20030611063510206/11/03 06:35:31  5-MIN KMSN 111235Z 07009G15KT 10SM OVC014 14/11 A2986 920 83 1000 070/09G15 RMK AO2
14837KMSN MSN20030611064009606/11/03 06:40:31  5-MIN KMSN 111240Z 07010KT 10SM OVC014 14/11 A2986 920 83 1000 070/10 RMK AO2
14837KMSN MSN20030611064509606/11/03 06:45:31  5-MIN KMSN 111245Z 06009KT 10SM OVC014 14/11 A2985 930 80 1100 060/09 RMK AO2
14837KMSN MSN20030611065011306/11/03 06:50:31  5-MIN KMSN 111250Z 07012KT 10SM OVC014 14/11 A2985 930 80 1100 070/12 RMK AO2 SLP107 T01440111
14837KMSN MSN20030611065509606/11/03 06:55:31  5-MIN KMSN 111255Z 07010KT 10SM OVC016 14/11 A2986 920 80 1100 070/10 RMK AO2
14837KMSN MSN20030611070009606/11/03 07:00:31  5-MIN KMSN 111300Z 07010KT 10SM OVC016 14/11 A2986 920 80 1100 070/10 RMK AO2
14837KMSN MSN20030611070509606/11/03 07:05:31  5-MIN KMSN 111305Z 06009KT 10SM OVC016 14/11 A2986 920 80 1100 050/09 RMK AO2
14837KMSN MSN20030611071009606/11/03 07:10:31  5-MIN KMSN 111310Z 05010KT 10SM OVC016 14/11 A2986 920 80 1100 050/10 RMK AO2
14837KMSN MSN20030611071509606/11/03 07:15:31  5-MIN KMSN 111315Z 07010KT 10SM OVC016 14/11 A2986 920 80 1100 070/10 RMK AO2
14837KMSN MSN20030611072009606/11/03 07:20:31  5-MIN KMSN 111320Z 07008KT 10SM OVC016 14/11 A2986 920 80 1100 070/08 RMK AO2
14837KMSN MSN20030611072509606/11/03 07:25:31  5-MIN KMSN 111325Z 06010KT 10SM OVC016 14/11 A2986 920 80 1100 060/10 RMK AO2
14837KMSN MSN20030611073009606/11/03 07:30:31  5-MIN KMSN 111330Z 06010KT 10SM OVC016 14/11 A2986 920 77 1100 060/10 RMK AO2
14837KMSN MSN20030611073509606/11/03 07:35:31  5-MIN KMSN 111335Z 07009KT 10SM OVC016 14/11 A2986 920 80 1100 070/09 RMK AO2
14837KMSN MSN20030611074009606/11/03 07:40:31  5-MIN KMSN 111340Z 07008KT 10SM OVC016 14/11 A2986 920 80 1100 070/08 RMK AO2
14837KMSN MSN20030611074509606/11/03 07:45:31  5-MIN KMSN 111345Z 06009KT 10SM OVC016 14/11 A2987 920 80 1100 060/09 RMK AO2
14837KMSN MSN20030611075011306/11/03 07:50:31  5-MIN KMSN 111350Z 06009KT 10SM OVC016 15/11 A2987 910 77 1200 060/09 RMK AO2 SLP111 T01500111
14837KMSN MSN20030611075509606/11/03 07:55:31  5-MIN KMSN 111355Z 06012KT 10SM OVC016 14/11 A2987 910 80 1100 060/12 RMK AO2
14837KMSN MSN20030611080009606/11/03 08:00:31  5-MIN KMSN 111400Z 07010KT 10SM OVC016 14/11 A2987 910 80 1100 070/10 RMK AO2
14837KMSN MSN20030611080509606/11/03 08:05:31  5-MIN KMSN 111405Z 06011KT 10SM OVC016 14/11 A2987 910 80 1100 060/11 RMK AO2
14837KMSN MSN20030611081009606/11/03 08:10:31  5-MIN KMSN 111410Z 06009KT 10SM OVC016 14/11 A2987 910 80 1100 060/09 RMK AO2
14837KMSN MSN20030611081509606/11/03 08:15:31  5-MIN KMSN 111415Z 07011KT 10SM OVC016 14/11 A2987 910 80 1100 070/11 RMK AO2
14837KMSN MSN20030611082009606/11/03 08:20:31  5-MIN KMSN 111420Z 07011KT 10SM OVC016 14/11 A2987 910 80 1100 070/11 RMK AO2
14837KMSN MSN20030611082509606/11/03 08:25:31  5-MIN KMSN 111425Z 07009KT 10SM OVC016 14/11 A2987 910 80 1100 070/09 RMK AO2
14837KMSN MSN20030611083009606/11/03 08:30:31  5-MIN KMSN 111430Z 07008KT 10SM OVC016 14/11 A2988 910 80 1100 060/08 RMK AO2
14837KMSN MSN20030611083509606/11/03 08:35:31  5-MIN KMSN 111435Z 07008KT 10SM OVC016 14/11 A2988 900 80 1100 070/08 RMK AO2
14837KMSN MSN20030611084009606/11/03 08:40:31  5-MIN KMSN 111440Z 07010KT 10SM OVC016 14/11 A2988 900 80 1100 070/10 RMK AO2
14837KMSN MSN20030611084509606/11/03 08:45:31  5-MIN KMSN 111445Z 06008KT 10SM OVC016 14/11 A2989 900 80 1100 060/08 RMK AO2
14837KMSN MSN20030611085012106/11/03 08:50:31  5-MIN KMSN 111450Z 07009KT 10SM OVC016 14/11 A2989 890 80 1100 070/09 RMK AO2 SLP119 T01440111 51014 $
14837KMSN MSN20030611085509806/11/03 08:55:31  5-MIN KMSN 111455Z 06009KT 10SM OVC016 14/11 A2989 900 80 1100 060/09 RMK AO2 $
14837KMSN MSN20030611090009806/11/03 09:00:31  5-MIN KMSN 111500Z 09009KT 10SM OVC016 14/11 A2989 900 80 1100 080/09 RMK AO2 $
14837KMSN MSN20030611090509806/11/03 09:05:31  5-MIN KMSN 111505Z 08009KT 10SM OVC016 14/11 A2988 900 80 1100 080/09 RMK AO2 $
14837KMSN MSN20030611091009806/11/03 09:10:31  5-MIN KMSN 111510Z 08009KT 10SM OVC016 14/11 A2989 900 80 1100 080/09 RMK AO2 $
14837KMSN MSN20030611091509806/11/03 09:15:31  5-MIN KMSN 111515Z 07008KT 10SM OVC016 14/11 A2989 900 80 1100 070/08 RMK AO2 $
14837KMSN MSN20030611092009806/11/03 09:20:31  5-MIN KMSN 111520Z 09009KT 10SM OVC016 15/11 A2989 900 77 1100 090/09 RMK AO2 $
14837KMSN MSN20030611092509806/11/03 09:25:31  5-MIN KMSN 111525Z 07008KT 10SM OVC016 15/12 A2988 900 80 1100 070/08 RMK AO2 $
14837KMSN MSN20030611093009806/11/03 09:30:31  5-MIN KMSN 111530Z 08009KT 10SM OVC015 15/11 A2989 900 77 1100 080/09 RMK AO2 $
14837KMSN MSN20030611093509806/11/03 09:35:31  5-MIN KMSN 111535Z 07010KT 10SM OVC015 14/11 A2989 900 80 1100 070/10 RMK AO2 $
14837KMSN MSN20030611094009806/11/03 09:40:31  5-MIN KMSN 111540Z 09009KT 10SM OVC015 15/11 A2988 900 77 1100 090/09 RMK AO2 $
14837KMSN MSN20030611094509806/11/03 09:45:31  5-MIN KMSN 111545Z 08009KT 10SM OVC015 14/11 A2989 900 80 1100 080/09 RMK AO2 $
14837KMSN MSN20030611095011506/11/03 09:50:31  5-MIN KMSN 111550Z 08009KT 10SM OVC015 15/11 A2989 900 77 1100 080/09 RMK AO2 SLP119 T01500111 $
14837KMSN MSN20030611095509806/11/03 09:55:31  5-MIN KMSN 111555Z 09009KT 10SM OVC015 14/11 A2989 890 80 1100 090/09 RMK AO2 $
14837KMSN MSN20030611100009806/11/03 10:00:31  5-MIN KMSN 111600Z 09008KT 10SM OVC015 15/12 A2989 890 80 1100 090/08 RMK AO2 $
14837KMSN MSN20030611100509806/11/03 10:05:31  5-MIN KMSN 111605Z 09007KT 10SM OVC015 15/11 A2989 890 77 1100 090/07 RMK AO2 $
14837KMSN MSN20030611101009806/11/03 10:10:31  5-MIN KMSN 111610Z 07007KT 10SM OVC015 15/11 A2989 890 77 1100 070/07 RMK AO2 $
14837KMSN MSN20030611101509806/11/03 10:15:31  5-MIN KMSN 111615Z 08007KT 10SM OVC015 15/12 A2989 890 80 1100 080/07 RMK AO2 $
14837KMSN MSN20030611102009806/11/03 10:20:31  5-MIN KMSN 111620Z 09010KT 10SM OVC015 15/12 A2990 890 80 1100 090/10 RMK AO2 $
14837KMSN MSN20030611102509806/11/03 10:25:31  5-MIN KMSN 111625Z 09010KT 10SM OVC015 15/11 A2990 890 77 1100 080/10 RMK AO2 $
14837KMSN MSN20030611103009806/11/03 10:30:31  5-MIN KMSN 111630Z 06010KT 10SM OVC015 15/12 A2989 890 80 1100 060/10 RMK AO2 $
14837KMSN MSN20030611103509806/11/03 10:35:31  5-MIN KMSN 111635Z 06008KT 10SM OVC015 15/11 A2989 890 77 1100 060/08 RMK AO2 $
14837KMSN MSN20030611104009806/11/03 10:40:31  5-MIN KMSN 111640Z 07010KT 10SM OVC015 15/12 A2989 890 80 1100 070/10 RMK AO2 $
14837KMSN MSN20030611104509806/11/03 10:45:31  5-MIN KMSN 111645Z 07010KT 10SM OVC015 15/11 A2990 890 77 1100 070/10 RMK AO2 $
14837KMSN MSN20030611105011506/11/03 10:50:31  5-MIN KMSN 111650Z 09009KT 10SM OVC015 15/12 A2990 890 80 1100 080/09 RMK AO2 SLP123 T01500117 $
14837KMSN MSN20030611105509806/11/03 10:55:31  5-MIN KMSN 111655Z 08010KT 10SM OVC015 15/12 A2990 880 80 1100 080/10 RMK AO2 $
14837KMSN MSN20030611110009806/11/03 11:00:31  5-MIN KMSN 111700Z 08008KT 10SM OVC015 15/12 A2990 890 80 1100 080/08 RMK AO2 $
14837KMSN MSN20030611110509806/11/03 11:05:31  5-MIN KMSN 111705Z 09010KT 10SM OVC015 15/12 A2990 890 80 1100 090/10 RMK AO2 $
14837KMSN MSN20030611111009806/11/03 11:10:31  5-MIN KMSN 111710Z 09011KT 10SM OVC015 15/11 A2990 890 77 1100 090/11 RMK AO2 $
14837KMSN MSN20030611111509806/11/03 11:15:31  5-MIN KMSN 111715Z 09009KT 10SM OVC015 15/12 A2990 880 80 1100 080/09 RMK AO2 $
14837KMSN MSN20030611112009806/11/03 11:20:31  5-MIN KMSN 111720Z 07008KT 10SM OVC015 15/11 A2990 890 77 1100 070/08 RMK AO2 $
14837KMSN MSN20030611112509706/11/03 11:25:31  5-MIN KMSN 111725Z 07007KT 9SM OVC015 15/12 A2989 890 80 1100 070/07 RMK AO2 $
14837KMSN MSN20030611113009706/11/03 11:30:31  5-MIN KMSN 111730Z 09009KT 9SM OVC015 16/12 A2989 890 77 1200 080/09 RMK AO2 $
14837KMSN MSN20030611113509706/11/03 11:35:31  5-MIN KMSN 111735Z 08008KT 9SM OVC015 16/12 A2989 890 77 1200 080/08 RMK AO2 $
14837KMSN MSN20030611114009706/11/03 11:40:31  5-MIN KMSN 111740Z 08008KT 9SM OVC015 15/12 A2990 890 80 1100 080/08 RMK AO2 $
14837KMSN MSN20030611114509706/11/03 11:45:31  5-MIN KMSN 111745Z 07008KT 9SM OVC015 16/12 A2990 890 77 1200 070/08 RMK AO2 $
14837KMSN MSN20030611115013206/11/03 11:50:31  5-MIN KMSN 111750Z 07009KT 9SM OVC015 16/12 A2989 890 77 1200 070/09 RMK AO2 SLP122 T01560117 10156 20139 53014 $
14837KMSN MSN20030611115509706/11/03 11:55:31  5-MIN KMSN 111755Z 07008KT 9SM OVC015 16/12 A2989 890 77 1200 070/08 RMK AO2 $
14837KMSN MSN20030611120009706/11/03 12:00:31  5-MIN KMSN 111800Z 07009KT 9SM OVC015 16/12 A2989 890 77 1200 070/09 RMK AO2 $
14837KMSN MSN20030611120509706/11/03 12:05:31  5-MIN KMSN 111805Z 07010KT 9SM OVC015 16/12 A2989 890 77 1200 070/10 RMK AO2 $
14837KMSN MSN20030611121010006/11/03 12:10:31  5-MIN KMSN 111810Z 09010KT 3SM HZ OVC015 16/12 A2989 890 77 1200 090/10 RMK AO2 $
14837KMSN MSN20030611121509706/11/03 12:15:31  5-MIN KMSN 111815Z 09010KT 9SM OVC017 16/12 A2989 890 77 1200 090/10 RMK AO2 $
14837KMSN MSN20030611122009706/11/03 12:20:31  5-MIN KMSN 111820Z 08011KT 9SM OVC017 16/12 A2989 900 77 1200 080/11 RMK AO2 $
14837KMSN MSN20030611122509706/11/03 12:25:31  5-MIN KMSN 111825Z 07010KT 9SM OVC017 16/12 A2988 900 77 1200 070/10 RMK AO2 $
14837KMSN MSN20030611123009506/11/03 12:30:31  5-MIN KMSN 111830Z 08008KT 9SM OVC017 16/12 A2988 900 77 1200 080/08 RMK AO2
14837KMSN MSN20030611123509506/11/03 12:35:31  5-MIN KMSN 111835Z 06009KT 9SM OVC017 16/12 A2988 900 75 1300 060/09 RMK AO2
14837KMSN MSN20030611124009506/11/03 12:40:31  5-MIN KMSN 111840Z 06007KT 8SM OVC017 16/12 A2988 900 75 1300 060/07 RMK AO2
14837KMSN MSN20030611124510206/11/03 12:45:31  5-MIN KMSN 111845Z 09010KT 8SM BKN017 OVC023 17/12 A2988 900 75 1300 090/10 RMK AO2
14837KMSN MSN20030611125011206/11/03 12:50:31  5-MIN KMSN 111850Z 09007KT 7SM OVC019 16/12 A2988 900 75 1300 090/07 RMK AO2 SLP119 T01610117
14837KMSN MSN20030611125509506/11/03 12:55:31  5-MIN KMSN 111855Z 07009KT 7SM OVC019 16/12 A2988 900 75 1300 070/09 RMK AO2
14837KMSN MSN20030611130009506/11/03 13:00:31  5-MIN KMSN 111900Z 08010KT 7SM OVC021 17/12 A2988 900 72 1300 080/10 RMK AO2
14837KMSN MSN20030611130509506/11/03 13:05:31  5-MIN KMSN 111905Z 09010KT 8SM OVC021 17/12 A2988 900 72 1300 090/10 RMK AO2
14837KMSN MSN20030611131009506/11/03 13:10:31  5-MIN KMSN 111910Z 07010KT 9SM OVC021 17/12 A2988 900 72 1300 070/10 RMK AO2
14837KMSN MSN20030611131509506/11/03 13:15:31  5-MIN KMSN 111915Z 09009KT 9SM OVC021 17/12 A2988 900 72 1300 090/09 RMK AO2
14837KMSN MSN20030611132009506/11/03 13:20:31  5-MIN KMSN 111920Z 10009KT 8SM OVC021 17/12 A2988 900 72 1300 100/09 RMK AO2
14837KMSN MSN20030611132509506/11/03 13:25:31  5-MIN KMSN 111925Z 10008KT 8SM OVC021 17/12 A2989 900 75 1300 100/08 RMK AO2
14837KMSN MSN20030611133009506/11/03 13:30:31  5-MIN KMSN 111930Z 09008KT 8SM OVC021 17/12 A2989 900 72 1300 090/08 RMK AO2
14837KMSN MSN20030611133509506/11/03 13:35:31  5-MIN KMSN 111935Z 10008KT 8SM OVC021 17/12 A2989 900 72 1300 100/08 RMK AO2
14837KMSN MSN20030611134009506/11/03 13:40:31  5-MIN KMSN 111940Z 09008KT 8SM OVC021 17/12 A2989 890 72 1300 090/08 RMK AO2
14837KMSN MSN20030611134509506/11/03 13:45:31  5-MIN KMSN 111945Z 09009KT 9SM OVC021 17/12 A2989 900 72 1300 080/09 RMK AO2
14837KMSN MSN20030611135011206/11/03 13:50:31  5-MIN KMSN 111950Z 10010KT 9SM BKN021 17/12 A2989 900 72 1300 100/10 RMK AO2 SLP119 T01670117
14837KMSN MSN20030611135509506/11/03 13:55:31  5-MIN KMSN 111955Z 10010KT 9SM OVC021 17/12 A2989 900 72 1300 100/10 RMK AO2
14837KMSN MSN20030611140009506/11/03 14:00:31  5-MIN KMSN 112000Z 09009KT 9SM OVC021 17/12 A2988 900 72 1300 080/09 RMK AO2
14837KMSN MSN20030611140510306/11/03 14:05:31  5-MIN KMSN 112005Z 10010KT 10SM BKN021 OVC029 17/12 A2988 900 69 1400 100/10 RMK AO2
14837KMSN MSN20030611141010306/11/03 14:10:31  5-MIN KMSN 112010Z 09007KT 10SM BKN021 OVC029 17/12 A2988 900 72 1400 090/07 RMK AO2
14837KMSN MSN20030611141510306/11/03 14:15:31  5-MIN KMSN 112015Z 09006KT 10SM BKN023 OVC029 17/12 A2988 900 69 1400 090/06 RMK AO2
14837KMSN MSN20030611142010306/11/03 14:20:31  5-MIN KMSN 112020Z 10008KT 10SM BKN023 OVC029 18/12 A2988 900 67 1500 100/08 RMK AO2
14837KMSN MSN20030611142510306/11/03 14:25:31  5-MIN KMSN 112025Z 09009KT 10SM BKN023 OVC031 18/13 A2988 900 72 1500 090/09 RMK AO2
14837KMSN MSN20030611143009606/11/03 14:30:31  5-MIN KMSN 112030Z 10011KT 10SM BKN023 18/12 A2988 900 69 1500 100/11 RMK AO2
14837KMSN MSN20030611143509606/11/03 14:35:31  5-MIN KMSN 112035Z 10010KT 10SM OVC027 17/12 A2988 900 72 1400 100/10 RMK AO2
14837KMSN MSN20030611144010306/11/03 14:40:31  5-MIN KMSN 112040Z 10009KT 10SM FEW024 OVC031 17/12 A2988 900 72 1400 100/09 RMK AO2
14837KMSN MSN20030611144510306/11/03 14:45:31  5-MIN KMSN 112045Z 10009KT 10SM FEW024 OVC029 18/12 A2988 900 67 1500 100/09 RMK AO2
14837KMSN MSN20030611145011906/11/03 14:50:31  5-MIN KMSN 112050Z 10009KT 10SM OVC029 18/12 A2988 900 69 1500 100/09 RMK AO2 SLP117 T01780122 50002
14837KMSN MSN20030611145509606/11/03 14:55:31  5-MIN KMSN 112055Z 10009KT 10SM BKN029 18/12 A2988 900 69 1500 100/09 RMK AO2
14837KMSN MSN20030611150009606/11/03 15:00:31  5-MIN KMSN 112100Z 10011KT 10SM BKN029 18/12 A2988 900 65 1500 100/11 RMK AO2
14837KMSN MSN20030611150509606/11/03 15:05:31  5-MIN KMSN 112105Z 10010KT 10SM BKN029 18/12 A2988 900 67 1500 100/10 RMK AO2
14837KMSN MSN20030611151009606/11/03 15:10:31  5-MIN KMSN 112110Z 10010KT 10SM BKN029 18/12 A2988 900 67 1500 100/10 RMK AO2
14837KMSN MSN20030611151509606/11/03 15:15:31  5-MIN KMSN 112115Z 10010KT 10SM BKN029 18/12 A2988 900 67 1500 100/10 RMK AO2
14837KMSN MSN20030611152009606/11/03 15:20:31  5-MIN KMSN 112120Z 09010KT 10SM BKN029 18/12 A2988 900 67 1500 090/10 RMK AO2
14837KMSN MSN20030611152509606/11/03 15:25:31  5-MIN KMSN 112125Z 09007KT 10SM BKN029 18/12 A2988 900 67 1500 090/07 RMK AO2
14837KMSN MSN20030611153009606/11/03 15:30:31  5-MIN KMSN 112130Z 10007KT 10SM BKN029 18/12 A2988 900 67 1500 100/07 RMK AO2
14837KMSN MSN20030611153509606/11/03 15:35:31  5-MIN KMSN 112135Z 09010KT 10SM BKN029 18/12 A2988 900 67 1500 090/10 RMK AO2
14837KMSN MSN20030611154009606/11/03 15:40:31  5-MIN KMSN 112140Z 10011KT 10SM BKN029 18/12 A2988 900 67 1500 090/11 RMK AO2
14837KMSN MSN20030611154509606/11/03 15:45:31  5-MIN KMSN 112145Z 09008KT 10SM BKN029 18/12 A2988 900 67 1500 090/08 RMK AO2
14837KMSN MSN20030611155011306/11/03 15:50:31  5-MIN KMSN 112150Z 11008KT 10SM SCT029 18/12 A2988 910 67 1500 110/08 RMK AO2 SLP115 T01830122
14837KMSN MSN20030611155509606/11/03 15:55:31  5-MIN KMSN 112155Z 10010KT 10SM SCT031 18/12 A2988 910 67 1500 100/10 RMK AO2
14837KMSN MSN20030611160011206/11/03 16:00:31  5-MIN KMSN 112200Z 09007KT 050V120 10SM SCT031 18/12 A2987 910 67 1500 090/07 050V120 RMK AO2
14837KMSN MSN20030611160509606/11/03 16:05:31  5-MIN KMSN 112205Z 09009KT 10SM SCT031 18/12 A2987 910 67 1500 090/09 RMK AO2
14837KMSN MSN20030611161009606/11/03 16:10:31  5-MIN KMSN 112210Z 10009KT 10SM SCT029 18/12 A2987 910 67 1500 100/09 RMK AO2
14837KMSN MSN20030611161509606/11/03 16:15:31  5-MIN KMSN 112215Z 09009KT 10SM FEW029 18/12 A2988 910 67 1500 090/09 RMK AO2
14837KMSN MSN20030611162009606/11/03 16:20:31  5-MIN KMSN 112220Z 08008KT 10SM SCT029 18/12 A2987 910 67 1500 080/08 RMK AO2
14837KMSN MSN20030611162509606/11/03 16:25:31  5-MIN KMSN 112225Z 09009KT 10SM BKN029 18/12 A2987 910 67 1500 090/09 RMK AO2
14837KMSN MSN20030611163009606/11/03 16:30:31  5-MIN KMSN 112230Z 08006KT 10SM SCT029 18/12 A2987 910 67 1600 080/06 RMK AO2
14837KMSN MSN20030611163509606/11/03 16:35:31  5-MIN KMSN 112235Z 08008KT 10SM SCT029 18/12 A2987 910 67 1600 080/08 RMK AO2
14837KMSN MSN20030611164009606/11/03 16:40:31  5-MIN KMSN 112240Z 08007KT 10SM SCT029 18/12 A2987 910 67 1500 070/07 RMK AO2
14837KMSN MSN20030611164509606/11/03 16:45:31  5-MIN KMSN 112245Z 08008KT 10SM SCT029 18/12 A2987 910 67 1500 080/08 RMK AO2
14837KMSN MSN20030611165011306/11/03 16:50:31  5-MIN KMSN 112250Z 07007KT 10SM SCT027 18/12 A2987 910 69 1500 070/07 RMK AO2 SLP114 T01780122
14837KMSN MSN20030611165509606/11/03 16:55:31  5-MIN KMSN 112255Z 07010KT 10SM SCT027 18/12 A2987 910 69 1500 070/10 RMK AO2
14837KMSN MSN20030611170009606/11/03 17:00:31  5-MIN KMSN 112300Z 07007KT 10SM SCT027 18/12 A2987 910 69 1500 070/07 RMK AO2
14837KMSN MSN20030611170509606/11/03 17:05:31  5-MIN KMSN 112305Z 07008KT 10SM SCT027 18/12 A2987 910 67 1600 060/08 RMK AO2
14837KMSN MSN20030611171009606/11/03 17:10:31  5-MIN KMSN 112310Z 07011KT 10SM BKN027 18/12 A2987 910 67 1600 070/11 RMK AO2
14837KMSN MSN20030611171509606/11/03 17:15:31  5-MIN KMSN 112315Z 06010KT 10SM BKN027 18/12 A2987 910 69 1500 060/10 RMK AO2
14837KMSN MSN20030611172009606/11/03 17:20:31  5-MIN KMSN 112320Z 05008KT 10SM BKN027 18/12 A2987 910 69 1500 050/08 RMK AO2
14837KMSN MSN20030611172509606/11/03 17:25:31  5-MIN KMSN 112325Z 06006KT 10SM BKN027 18/12 A2987 910 69 1500 060/06 RMK AO2
14837KMSN MSN20030611173009606/11/03 17:30:31  5-MIN KMSN 112330Z 05009KT 10SM BKN027 18/12 A2987 910 69 1500 050/09 RMK AO2
14837KMSN MSN20030611173509606/11/03 17:35:31  5-MIN KMSN 112335Z 06009KT 10SM BKN027 18/12 A2986 920 69 1500 060/09 RMK AO2
14837KMSN MSN20030611174009606/11/03 17:40:31  5-MIN KMSN 112340Z 04008KT 10SM BKN029 18/12 A2986 920 69 1500 040/08 RMK AO2
14837KMSN MSN20030611174509606/11/03 17:45:31  5-MIN KMSN 112345Z 03010KT 10SM BKN029 18/12 A2986 920 69 1500 030/10 RMK AO2
14837KMSN MSN20030611175013106/11/03 17:50:31  5-MIN KMSN 112350Z 04008KT 10SM OVC029 18/12 A2986 920 69 1500 040/08 RMK AO2 SLP111 T01780122 10183 20156 56003
14837KMSN MSN20030611175509606/11/03 17:55:31  5-MIN KMSN 112355Z 05007KT 10SM OVC029 17/12 A2986 920 72 1400 050/07 RMK AO2
14837KMSN MSN20030611180009606/11/03 18:00:31  5-MIN KMSN 120000Z 05008KT 10SM BKN029 17/12 A2986 920 72 1400 040/08 RMK AO2
14837KMSN MSN20030611180509606/11/03 18:05:31  5-MIN KMSN 120005Z 05010KT 10SM BKN029 17/12 A2986 920 72 1400 040/10 RMK AO2
14837KMSN MSN20030611181009606/11/03 18:10:31  5-MIN KMSN 120010Z 04007KT 10SM BKN029 17/12 A2986 920 72 1400 040/07 RMK AO2
14837KMSN MSN20030611181509606/11/03 18:15:31  5-MIN KMSN 120015Z 03009KT 10SM BKN029 17/12 A2986 920 72 1400 030/09 RMK AO2
14837KMSN MSN20030611182009606/11/03 18:20:31  5-MIN KMSN 120020Z 03008KT 10SM BKN029 17/12 A2986 920 72 1400 030/08 RMK AO2
14837KMSN MSN20030611182509606/11/03 18:25:31  5-MIN KMSN 120025Z 02009KT 10SM BKN029 17/12 A2986 920 72 1400 020/09 RMK AO2
14837KMSN MSN20030611183009606/11/03 18:30:31  5-MIN KMSN 120030Z 03010KT 10SM BKN029 17/12 A2986 920 69 1400 030/10 RMK AO2
14837KMSN MSN20030611183509606/11/03 18:35:31  5-MIN KMSN 120035Z 02010KT 10SM BKN029 17/12 A2986 920 72 1400 020/10 RMK AO2
14837KMSN MSN20030611184009606/11/03 18:40:31  5-MIN KMSN 120040Z 03008KT 10SM BKN029 17/12 A2986 920 75 1400 020/08 RMK AO2
14837KMSN MSN20030611184509606/11/03 18:45:31  5-MIN KMSN 120045Z 02008KT 10SM SCT027 17/12 A2986 920 75 1400 020/08 RMK AO2
14837KMSN MSN20030611185011306/11/03 18:50:31  5-MIN KMSN 120050Z 02008KT 10SM FEW027 17/12 A2986 920 75 1400 020/08 RMK AO2 SLP112 T01670122
14837KMSN MSN20030611185509606/11/03 18:55:31  5-MIN KMSN 120055Z 02007KT 10SM FEW027 17/12 A2987 910 75 1400 020/07 RMK AO2
14837KMSN MSN20030611190009606/11/03 19:00:31  5-MIN KMSN 120100Z 03008KT 10SM FEW027 17/12 A2987 910 75 1400 030/08 RMK AO2
14837KMSN MSN20030611190509606/11/03 19:05:31  5-MIN KMSN 120105Z 03008KT 10SM FEW027 17/12 A2987 920 75 1400 020/08 RMK AO2
14837KMSN MSN20030611191009306/11/03 19:10:31  5-MIN KMSN 120110Z 02006KT 10SM CLR 16/12 A2986 920 77 1300 020/06 RMK AO2
14837KMSN MSN20030611191509306/11/03 19:15:31  5-MIN KMSN 120115Z 02006KT 10SM CLR 16/12 A2987 920 77 1300 020/06 RMK AO2
14837KMSN MSN20030611192009306/11/03 19:20:31  5-MIN KMSN 120120Z 02004KT 10SM CLR 16/12 A2987 920 80 1200 020/04 RMK AO2
14837KMSN MSN20030611192509306/11/03 19:25:31  5-MIN KMSN 120125Z 03005KT 10SM CLR 16/12 A2986 920 80 1200 020/05 RMK AO2
14837KMSN MSN20030611193009306/11/03 19:30:31  5-MIN KMSN 120130Z 04005KT 10SM CLR 15/12 A2987 910 83 1200 030/05 RMK AO2
14837KMSN MSN20030611193509306/11/03 19:35:31  5-MIN KMSN 120135Z 04004KT 10SM CLR 16/12 A2987 910 77 1200 040/04 RMK AO2
14837KMSN MSN20030611194009306/11/03 19:40:31  5-MIN KMSN 120140Z 05004KT 10SM CLR 15/12 A2987 910 80 1200 050/04 RMK AO2
14837KMSN MSN20030611194509306/11/03 19:45:31  5-MIN KMSN 120145Z 07004KT 10SM CLR 15/12 A2987 910 80 1200 060/04 RMK AO2
14837KMSN MSN20030611195011006/11/03 19:50:31  5-MIN KMSN 120150Z 08004KT 10SM CLR 15/12 A2987 910 80 1200 070/04 RMK AO2 SLP114 T01500117
14837KMSN MSN20030611195509306/11/03 19:55:31  5-MIN KMSN 120155Z 08004KT 10SM CLR 15/12 A2987 910 80 1200 080/04 RMK AO2
14837KMSN MSN20030611200009306/11/03 20:00:31  5-MIN KMSN 120200Z 09004KT 10SM CLR 14/12 A2987 910 83 1100 080/04 RMK AO2
14837KMSN MSN20030611200509306/11/03 20:05:31  5-MIN KMSN 120205Z 10004KT 10SM CLR 14/12 A2987 910 83 1100 100/04 RMK AO2
14837KMSN MSN20030611201009306/11/03 20:10:31  5-MIN KMSN 120210Z 09006KT 10SM CLR 15/12 A2987 910 80 1200 090/06 RMK AO2
14837KMSN MSN20030611201509306/11/03 20:15:31  5-MIN KMSN 120215Z 10005KT 10SM CLR 15/12 A2987 910 80 1200 090/05 RMK AO2
14837KMSN MSN20030611202009306/11/03 20:20:31  5-MIN KMSN 120220Z 10007KT 10SM CLR 15/12 A2988 900 80 1200 100/07 RMK AO2
14837KMSN MSN20030611202509306/11/03 20:25:31  5-MIN KMSN 120225Z 09006KT 10SM CLR 15/12 A2988 910 80 1200 090/06 RMK AO2
14837KMSN MSN20030611203009306/11/03 20:30:31  5-MIN KMSN 120230Z 10006KT 10SM CLR 15/12 A2988 910 80 1200 100/06 RMK AO2
14837KMSN MSN20030611203509306/11/03 20:35:31  5-MIN KMSN 120235Z 10007KT 10SM CLR 15/12 A2988 900 80 1200 100/07 RMK AO2
14837KMSN MSN20030611204009306/11/03 20:40:31  5-MIN KMSN 120240Z 09006KT 10SM CLR 15/12 A2988 900 80 1200 080/06 RMK AO2
14837KMSN MSN20030611204509306/11/03 20:45:31  5-MIN KMSN 120245Z 08005KT 10SM CLR 14/12 A2988 900 83 1100 070/05 RMK AO2
14837KMSN MSN20030611205011606/11/03 20:50:31  5-MIN KMSN 120250Z 08005KT 10SM CLR 14/12 A2988 900 86 1000 080/05 RMK AO2 SLP118 T01390117 56006
14837KMSN MSN20030611205509306/11/03 20:55:31  5-MIN KMSN 120255Z 07005KT 10SM CLR 14/11 A2988 900 83 1000 070/05 RMK AO2
14837KMSN MSN20030611210009306/11/03 21:00:31  5-MIN KMSN 120300Z 07005KT 10SM CLR 14/11 A2987 910 83 1000 070/05 RMK AO2
14837KMSN MSN20030611210509306/11/03 21:05:31  5-MIN KMSN 120305Z 06005KT 10SM CLR 13/11 A2987 910 86 1000 060/05 RMK AO2
14837KMSN MSN20030611211009306/11/03 21:10:31  5-MIN KMSN 120310Z 06005KT 10SM CLR 13/11 A2987 910 86 1000 060/05 RMK AO2
14837KMSN MSN20030611211509306/11/03 21:15:31  5-MIN KMSN 120315Z 06006KT 10SM CLR 13/11 A2987 910 83 1000 060/06 RMK AO2
14837KMSN MSN20030611212009206/11/03 21:20:31  5-MIN KMSN 120320Z 06006KT 10SM CLR 13/11 A2987 910 86 900 060/06 RMK AO2
14837KMSN MSN20030611212509206/11/03 21:25:31  5-MIN KMSN 120325Z 06006KT 10SM CLR 13/11 A2987 910 86 900 060/06 RMK AO2
14837KMSN MSN20030611213009206/11/03 21:30:31  5-MIN KMSN 120330Z 07006KT 10SM CLR 13/11 A2987 910 86 900 070/06 RMK AO2
14837KMSN MSN20030611213509206/11/03 21:35:31  5-MIN KMSN 120335Z 07005KT 10SM CLR 13/11 A2987 910 86 900 070/05 RMK AO2
14837KMSN MSN20030611214009206/11/03 21:40:31  5-MIN KMSN 120340Z 07005KT 10SM CLR 13/11 A2987 910 86 900 070/05 RMK AO2
14837KMSN MSN20030611214509206/11/03 21:45:31  5-MIN KMSN 120345Z 07005KT 10SM CLR 13/11 A2987 910 86 900 070/05 RMK AO2
14837KMSN MSN20030611215010906/11/03 21:50:31  5-MIN KMSN 120350Z 08004KT 10SM CLR 13/11 A2987 910 86 900 080/04 RMK AO2 SLP115 T01280106
14837KMSN MSN20030611215509206/11/03 21:55:31  5-MIN KMSN 120355Z 08005KT 10SM CLR 13/11 A2987 910 86 900 080/05 RMK AO2
14837KMSN MSN20030611220009206/11/03 22:00:31  5-MIN KMSN 120400Z 08004KT 10SM CLR 13/11 A2987 910 86 900 080/04 RMK AO2
14837KMSN MSN20030611220509206/11/03 22:05:31  5-MIN KMSN 120405Z 08005KT 10SM CLR 13/11 A2987 910 86 900 080/05 RMK AO2
14837KMSN MSN20030611221009206/11/03 22:10:31  5-MIN KMSN 120410Z 08004KT 10SM CLR 13/11 A2987 910 86 900 080/04 RMK AO2
14837KMSN MSN20030611221509206/11/03 22:15:31  5-MIN KMSN 120415Z 07005KT 10SM CLR 13/11 A2987 920 86 900 070/05 RMK AO2
14837KMSN MSN20030611222009506/11/03 22:20:31  5-MIN KMSN 120420Z 07005KT 10SM FEW021 13/11 A2986 920 86 900 070/05 RMK AO2
14837KMSN MSN20030611222509506/11/03 22:25:31  5-MIN KMSN 120425Z 06004KT 10SM FEW021 13/11 A2986 920 86 900 060/04 RMK AO2
14837KMSN MSN20030611223009506/11/03 22:30:31  5-MIN KMSN 120430Z 06004KT 10SM FEW021 12/11 A2986 920 89 800 060/04 RMK AO2
14837KMSN MSN20030611223509506/11/03 22:35:31  5-MIN KMSN 120435Z 06004KT 10SM FEW021 12/11 A2986 920 89 900 060/04 RMK AO2
14837KMSN MSN20030611224009506/11/03 22:40:31  5-MIN KMSN 120440Z 06004KT 10SM FEW021 12/11 A2985 920 89 900 060/04 RMK AO2
14837KMSN MSN20030611224509506/11/03 22:45:31  5-MIN KMSN 120445Z 07004KT 10SM FEW021 12/11 A2985 930 89 900 070/04 RMK AO2
14837KMSN MSN20030611225011206/11/03 22:50:31  5-MIN KMSN 120450Z 05003KT 10SM FEW021 12/11 A2985 930 89 900 050/03 RMK AO2 SLP110 T01220106
14837KMSN MSN20030611225509206/11/03 22:55:31  5-MIN KMSN 120455Z 05003KT 10SM CLR 12/11 A2985 930 89 900 050/03 RMK AO2
14837KMSN MSN20030611230009206/11/03 23:00:31  5-MIN KMSN 120500Z 06004KT 10SM CLR 12/11 A2985 930 89 900 060/04 RMK AO2
14837KMSN MSN20030611230509106/11/03 23:05:31  5-MIN KMSN 120505Z 06004KT 9SM CLR 12/11 A2985 930 89 900 060/04 RMK AO2
14837KMSN MSN20030611231009106/11/03 23:10:31  5-MIN KMSN 120510Z 07005KT 9SM CLR 12/11 A2985 930 89 900 070/05 RMK AO2
14837KMSN MSN20030611231509106/11/03 23:15:31  5-MIN KMSN 120515Z 06004KT 9SM CLR 12/11 A2985 930 89 900 060/04 RMK AO2
14837KMSN MSN20030611232009106/11/03 23:20:31  5-MIN KMSN 120520Z 06004KT 8SM CLR 12/11 A2985 930 89 900 060/04 RMK AO2
14837KMSN MSN20030611232509106/11/03 23:25:31  5-MIN KMSN 120525Z 05003KT 8SM CLR 12/11 A2985 930 89 900 050/03 RMK AO2
14837KMSN MSN20030611233009106/11/03 23:30:31  5-MIN KMSN 120530Z 05004KT 8SM CLR 12/11 A2985 930 89 900 050/04 RMK AO2
14837KMSN MSN20030611233509106/11/03 23:35:31  5-MIN KMSN 120535Z 05004KT 8SM CLR 12/11 A2985 930 89 900 050/04 RMK AO2
14837KMSN MSN20030611234009406/11/03 23:40:31  5-MIN KMSN 120540Z 05004KT 7SM FEW024 12/11 A2985 930 89 900 050/04 RMK AO2
14837KMSN MSN20030611234509406/11/03 23:45:31  5-MIN KMSN 120545Z 05004KT 7SM SCT024 12/11 A2985 930 89 900 050/04 RMK AO2
14837KMSN MSN20030611235013906/11/03 23:50:31  5-MIN KMSN 120550Z 05004KT 7SM BKN024 12/11 A2985 930 89 900 050/04 RMK AO2 SLP108 T01220106 10172 20122 401830122 53005
14837KMSN MSN20030611235509406/11/03 23:55:31  5-MIN KMSN 120555Z 05004KT 7SM BKN024 12/11 A2985 930 93 900 050/04 RMK AO2
14837KMSN MSN20030612000009406/12/03 00:00:31  5-MIN KMSN 120600Z 05004KT 7SM BKN024 12/11 A2985 930 93 900 050/04 RMK AO2
14837KMSN MSN20030612000509706/12/03 00:05:31  5-MIN KMSN 120605Z 05004KT 6SM BR BKN026 12/11 A2985 930 93 900 050/04 RMK AO2
14837KMSN MSN20030612001010406/12/03 00:10:31  5-MIN KMSN 120610Z 04003KT 6SM BR BKN026 OVC060 12/11 A2985 930 93 900 040/03 RMK AO2
14837KMSN MSN20030612001509706/12/03 00:15:31  5-MIN KMSN 120615Z 04003KT 6SM BR OVC026 12/11 A2985 930 93 900 040/03 RMK AO2
14837KMSN MSN20030612002009706/12/03 00:20:31  5-MIN KMSN 120620Z 03003KT 6SM BR OVC026 13/11 A2984 940 89 900 030/03 RMK AO2
14837KMSN MSN20030612002509706/12/03 00:25:31  5-MIN KMSN 120625Z 03004KT 6SM BR OVC026 13/11 A2984 940 89 900 030/04 RMK AO2
14837KMSN MSN20030612003009706/12/03 00:30:31  5-MIN KMSN 120630Z 03005KT 6SM BR OVC026 13/11 A2984 940 89 900 030/05 RMK AO2
14837KMSN MSN20030612003509706/12/03 00:35:31  5-MIN KMSN 120635Z 03003KT 6SM BR OVC026 13/11 A2984 940 89 900 030/03 RMK AO2
14837KMSN MSN20030612004009806/12/03 00:40:31  5-MIN KMSN 120640Z 03004KT 6SM BR OVC026 13/11 A2984 940 86 1000 030/04 RMK AO2
14837KMSN MSN20030612004509706/12/03 00:45:31  5-MIN KMSN 120645Z 01004KT 6SM BR OVC026 13/11 A2984 940 89 900 010/04 RMK AO2
14837KMSN MSN20030612005011406/12/03 00:50:31  5-MIN KMSN 120650Z 03005KT 6SM BR OVC026 13/11 A2984 930 89 900 030/05 RMK AO2 SLP107 T01280111
14837KMSN MSN20030612005509706/12/03 00:55:31  5-MIN KMSN 120655Z 03006KT 6SM BR OVC026 13/12 A2984 940 93 900 030/06 RMK AO2
14837KMSN MSN20030612010009706/12/03 01:00:31  5-MIN KMSN 120700Z 03006KT 6SM BR OVC026 13/12 A2984 940 93 900 030/06 RMK AO2
14837KMSN MSN20030612010509706/12/03 01:05:31  5-MIN KMSN 120705Z 02005KT 6SM BR OVC026 13/11 A2984 940 89 900 020/05 RMK AO2
14837KMSN MSN20030612011009706/12/03 01:10:31  5-MIN KMSN 120710Z 02005KT 6SM BR OVC026 13/11 A2984 940 89 900 020/05 RMK AO2
14837KMSN MSN20030612011509706/12/03 01:15:31  5-MIN KMSN 120715Z 01005KT 6SM BR OVC026 12/11 A2984 940 93 900 010/05 RMK AO2
14837KMSN MSN20030612012009706/12/03 01:20:31  5-MIN KMSN 120720Z 02005KT 6SM BR OVC026 12/11 A2984 940 93 900 020/05 RMK AO2
14837KMSN MSN20030612012509706/12/03 01:25:31  5-MIN KMSN 120725Z 36005KT 6SM BR OVC026 13/11 A2984 940 89 900 360/05 RMK AO2
14837KMSN MSN20030612013009706/12/03 01:30:31  5-MIN KMSN 120730Z 34004KT 6SM BR OVC026 13/11 A2984 940 89 900 340/04 RMK AO2
14837KMSN MSN20030612013509706/12/03 01:35:31  5-MIN KMSN 120735Z 35004KT 6SM BR OVC026 13/11 A2984 940 89 900 350/04 RMK AO2
14837KMSN MSN20030612014009706/12/03 01:40:31  5-MIN KMSN 120740Z 35005KT 6SM BR OVC026 13/11 A2984 940 89 900 350/05 RMK AO2
14837KMSN MSN20030612014509706/12/03 01:45:31  5-MIN KMSN 120745Z 01005KT 6SM BR OVC026 13/11 A2983 950 89 900 010/05 RMK AO2
14837KMSN MSN20030612015011406/12/03 01:50:31  5-MIN KMSN 120750Z 03004KT 6SM BR OVC026 12/11 A2983 950 93 900 020/04 RMK AO2 SLP102 T01220111
14837KMSN MSN20030612015509706/12/03 01:55:31  5-MIN KMSN 120755Z 03005KT 6SM BR OVC026 12/11 A2983 950 93 900 030/05 RMK AO2
14837KMSN MSN20030612020009706/12/03 02:00:31  5-MIN KMSN 120800Z 03004KT 6SM BR BKN024 12/11 A2983 950 93 900 030/04 RMK AO2
14837KMSN MSN20030612020509706/12/03 02:05:31  5-MIN KMSN 120805Z 03004KT 6SM BR BKN024 12/11 A2983 950 89 900 030/04 RMK AO2
14837KMSN MSN20030612021010406/12/03 02:10:31  5-MIN KMSN 120810Z 03004KT 6SM BR SCT024 BKN050 12/11 A2983 950 89 900 020/04 RMK AO2
14837KMSN MSN20030612021510406/12/03 02:15:31  5-MIN KMSN 120815Z 36003KT 6SM BR SCT024 BKN050 12/11 A2983 950 93 800 360/03 RMK AO2
14837KMSN MSN20030612022010406/12/03 02:20:31  5-MIN KMSN 120820Z 33004KT 6SM BR FEW024 BKN050 12/11 A2984 940 93 800 330/04 RMK AO2
14837KMSN MSN20030612022510406/12/03 02:25:31  5-MIN KMSN 120825Z 34004KT 6SM BR FEW024 BKN050 12/11 A2984 940 93 800 340/04 RMK AO2
14837KMSN MSN20030612023010406/12/03 02:30:31  5-MIN KMSN 120830Z 36004KT 6SM BR FEW026 BKN050 12/11 A2984 940 93 900 360/04 RMK AO2
14837KMSN MSN20030612023510406/12/03 02:35:31  5-MIN KMSN 120835Z 36005KT 6SM BR SCT026 OVC050 12/11 A2983 940 93 900 360/05 RMK AO2
14837KMSN MSN20030612024010406/12/03 02:40:31  5-MIN KMSN 120840Z 36005KT 6SM BR BKN026 OVC050 13/11 A2984 940 89 900 360/05 RMK AO2
14837KMSN MSN20030612024510406/12/03 02:45:31  5-MIN KMSN 120845Z 36004KT 6SM BR BKN026 OVC050 13/11 A2983 940 89 900 360/04 RMK AO2
14837KMSN MSN20030612025012706/12/03 02:50:31  5-MIN KMSN 120850Z 02005KT 6SM BR BKN026 OVC050 12/11 A2983 950 93 900 020/05 RMK AO2 SLP102 T01220111 56009
14837KMSN MSN20030612025509706/12/03 02:55:31  5-MIN KMSN 120855Z 03006KT 6SM BR OVC026 13/11 A2983 950 89 900 030/06 RMK AO2
14837KMSN MSN20030612030009406/12/03 03:00:31  5-MIN KMSN 120900Z 04004KT 7SM OVC026 13/11 A2983 950 89 900 040/04 RMK AO2
14837KMSN MSN20030612030509406/12/03 03:05:31  5-MIN KMSN 120905Z 04004KT 7SM OVC026 12/11 A2983 950 93 900 040/04 RMK AO2
14837KMSN MSN20030612031009706/12/03 03:10:31  5-MIN KMSN 120910Z 03004KT 6SM BR OVC026 12/11 A2983 950 93 900 030/04 RMK AO2
14837KMSN MSN20030612031509706/12/03 03:15:31  5-MIN KMSN 120915Z 03005KT 6SM BR OVC026 12/11 A2983 950 93 900 030/05 RMK AO2
14837KMSN MSN20030612032009406/12/03 03:20:31  5-MIN KMSN 120920Z 04005KT 7SM OVC026 13/11 A2983 950 89 900 040/05 RMK AO2
14837KMSN MSN20030612032509406/12/03 03:25:31  5-MIN KMSN 120925Z 05004KT 7SM OVC026 13/11 A2983 950 89 900 050/04 RMK AO2
14837KMSN MSN20030612033009406/12/03 03:30:31  5-MIN KMSN 120930Z 05004KT 7SM OVC026 13/11 A2983 950 89 900 050/04 RMK AO2
14837KMSN MSN20030612033509406/12/03 03:35:31  5-MIN KMSN 120935Z 00000KT 7SM OVC026 13/11 A2983 950 89 900 000/00 RMK AO2
14837KMSN MSN20030612034009406/12/03 03:40:31  5-MIN KMSN 120940Z 00000KT 7SM OVC024 13/11 A2984 940 89 900 000/00 RMK AO2
14837KMSN MSN20030612034509406/12/03 03:45:31  5-MIN KMSN 120945Z 01003KT 7SM OVC024 13/11 A2984 940 89 900 010/03 RMK AO2
14837KMSN MSN20030612035011106/12/03 03:50:31  5-MIN KMSN 120950Z VRB03KT 7SM OVC024 13/11 A2984 940 89 900 VRB/03 RMK AO2 SLP104 T01280111
14837KMSN MSN20030612035509406/12/03 03:55:31  5-MIN KMSN 120955Z 01003KT 7SM OVC024 13/11 A2984 940 89 900 010/03 RMK AO2
14837KMSN MSN20030612040009406/12/03 04:00:31  5-MIN KMSN 121000Z 36004KT 7SM OVC024 13/11 A2984 940 89 900 360/04 RMK AO2
14837KMSN MSN20030612040509406/12/03 04:05:31  5-MIN KMSN 121005Z 36005KT 7SM OVC024 13/11 A2984 940 89 900 360/05 RMK AO2
14837KMSN MSN20030612041009406/12/03 04:10:31  5-MIN KMSN 121010Z 36005KT 7SM OVC024 13/11 A2984 940 89 900 360/05 RMK AO2
14837KMSN MSN20030612041509706/12/03 04:15:31  5-MIN KMSN 121015Z 35005KT 6SM BR OVC024 13/11 A2984 940 89 900 350/05 RMK AO2
14837KMSN MSN20030612042009706/12/03 04:20:31  5-MIN KMSN 121020Z 01004KT 6SM BR OVC024 13/11 A2984 940 89 900 360/04 RMK AO2
14837KMSN MSN20030612042509706/12/03 04:25:31  5-MIN KMSN 121025Z 01005KT 6SM BR OVC024 13/11 A2984 940 89 900 010/05 RMK AO2
14837KMSN MSN20030612043009706/12/03 04:30:31  5-MIN KMSN 121030Z 36004KT 6SM BR OVC024 13/11 A2984 940 89 900 360/04 RMK AO2
14837KMSN MSN20030612043509706/12/03 04:35:31  5-MIN KMSN 121035Z 33003KT 6SM BR OVC024 13/11 A2984 940 89 900 330/03 RMK AO2
14837KMSN MSN20030612044010406/12/03 04:40:31  5-MIN KMSN 121040Z 34003KT 5SM BR BKN024 OVC030 13/11 A2984 940 89 900 340/03 RMK AO2
14837KMSN MSN20030612044510406/12/03 04:45:31  5-MIN KMSN 121045Z 01004KT 5SM BR BKN024 OVC030 13/11 A2984 940 89 900 010/04 RMK AO2
14837KMSN MSN20030612045012106/12/03 04:50:31  5-MIN KMSN 121050Z 03005KT 5SM BR SCT024 OVC030 13/11 A2984 940 89 900 030/05 RMK AO2 SLP103 T01280111
14837KMSN MSN20030612045510406/12/03 04:55:31  5-MIN KMSN 121055Z 03006KT 5SM BR SCT024 OVC030 13/11 A2984 940 89 900 030/06 RMK AO2
14837KMSN MSN20030612050010406/12/03 05:00:31  5-MIN KMSN 121100Z 04005KT 6SM BR FEW024 OVC030 13/11 A2984 940 89 900 040/05 RMK AO2
14837KMSN MSN20030612050509706/12/03 05:05:31  5-MIN KMSN 121105Z 03004KT 6SM BR OVC030 13/11 A2984 940 89 900 020/04 RMK AO2
14837KMSN MSN20030612051009706/12/03 05:10:31  5-MIN KMSN 121110Z 04004KT 6SM BR OVC030 13/11 A2983 940 89 900 040/04 RMK AO2
14837KMSN MSN20030612051509706/12/03 05:15:31  5-MIN KMSN 121115Z 05004KT 6SM BR BKN030 13/11 A2983 950 89 900 050/04 RMK AO2
14837KMSN MSN20030612052010406/12/03 05:20:31  5-MIN KMSN 121120Z 04003KT 6SM BR BKN030 BKN047 13/11 A2983 950 89 900 040/03 RMK AO2
14837KMSN MSN20030612052510406/12/03 05:25:31  5-MIN KMSN 121125Z 00000KT 6SM BR BKN030 BKN047 13/11 A2984 940 89 900 000/00 RMK AO2
14837KMSN MSN20030612053009806/12/03 05:30:31  5-MIN KMSN 121130Z 01003KT 6SM BR BKN030 13/11 A2984 940 86 1000 010/03 RMK AO2
14837KMSN MSN20030612053509806/12/03 05:35:31  5-MIN KMSN 121135Z 03004KT 6SM BR BKN030 13/11 A2983 940 86 1000 030/04 RMK AO2
14837KMSN MSN20030612054009806/12/03 05:40:31  5-MIN KMSN 121140Z 03004KT 6SM BR OVC030 13/11 A2984 940 86 1000 030/04 RMK AO2
14837KMSN MSN20030612054509806/12/03 05:45:31  5-MIN KMSN 121145Z 03004KT 6SM BR OVC030 13/11 A2983 950 86 1000 020/04 RMK AO2
14837KMSN MSN20030612055013306/12/03 05:50:31  5-MIN KMSN 121150Z 03004KT 6SM BR OVC032 13/11 A2983 950 86 1000 030/04 RMK AO2 SLP101 T01330111 10133 20117 55006
14837KMSN MSN20030612055510506/12/03 05:55:31  5-MIN KMSN 121155Z 03003KT 6SM BR SCT030 OVC035 13/12 A2984 940 89 1000 030/03 RMK AO2
14837KMSN MSN20030612060010206/12/03 06:00:31  5-MIN KMSN 121200Z 05005KT 7SM SCT030 OVC035 13/12 A2983 950 89 1000 050/05 RMK AO2
14837KMSN MSN20030612060510206/12/03 06:05:31  5-MIN KMSN 121205Z 04005KT 7SM FEW019 OVC035 14/12 A2983 940 86 1100 040/05 RMK AO2
14837KMSN MSN20030612061010906/12/03 06:10:31  5-MIN KMSN 121210Z 07005KT 7SM SCT019 SCT028 OVC035 14/12 A2983 950 86 1100 070/05 RMK AO2
14837KMSN MSN20030612061510206/12/03 06:15:31  5-MIN KMSN 121215Z 05004KT 8SM BKN019 OVC035 14/12 A2983 940 86 1100 050/04 RMK AO2
14837KMSN MSN20030612062010206/12/03 06:20:31  5-MIN KMSN 121220Z 08007KT 8SM BKN019 OVC035 14/12 A2984 940 86 1100 080/07 RMK AO2
14837KMSN MSN20030612062510206/12/03 06:25:31  5-MIN KMSN 121225Z 05005KT 8SM BKN019 OVC035 14/12 A2984 940 86 1100 050/05 RMK AO2
14837KMSN MSN20030612063009506/12/03 06:30:31  5-MIN KMSN 121230Z 06006KT 9SM OVC019 14/11 A2984 940 83 1100 060/06 RMK AO2
14837KMSN MSN20030612063509506/12/03 06:35:31  5-MIN KMSN 121235Z 07008KT 9SM OVC017 14/11 A2984 940 83 1100 070/08 RMK AO2
14837KMSN MSN20030612064009506/12/03 06:40:31  5-MIN KMSN 121240Z 06006KT 9SM OVC017 14/11 A2985 930 83 1100 060/06 RMK AO2
14837KMSN MSN20030612064509506/12/03 06:45:31  5-MIN KMSN 121245Z 08006KT 9SM OVC015 14/11 A2984 930 83 1100 070/06 RMK AO2
14837KMSN MSN20030612065011206/12/03 06:50:31  5-MIN KMSN 121250Z 07007KT 9SM OVC015 14/11 A2984 940 83 1100 070/07 RMK AO2 SLP105 T01390111
14837KMSN MSN20030612084009506/12/03 08:40:31  5-MIN KMSN 121440Z 05007KT 7SM OVC015 15/12 A2985 930 83 1200 050/07 RMK AO2
14837KMSN MSN20030612084509506/12/03 08:45:31  5-MIN KMSN 121445Z 05006KT 7SM OVC015 15/12 A2985 930 83 1200 040/06 RMK AO2
14837KMSN MSN20030612085012106/12/03 08:50:31  5-MIN KMSN 121450Z 06006KT 6SM HZ OVC015 15/12 A2985 930 83 1200 060/06 RMK AO2 SLP109 T01500122 50001
14837KMSN MSN20030612085509806/12/03 08:55:31  5-MIN KMSN 121455Z 06006KT 6SM HZ OVC015 16/12 A2985 930 80 1300 060/06 RMK AO2
14837KMSN MSN20030612090009806/12/03 09:00:31  5-MIN KMSN 121500Z 07007KT 6SM HZ OVC013 16/12 A2985 930 80 1300 060/07 RMK AO2
14837KMSN MSN20030612090509806/12/03 09:05:31  5-MIN KMSN 121505Z 06007KT 6SM HZ OVC013 16/13 A2985 930 83 1300 060/07 RMK AO2
14837KMSN MSN20030612091009806/12/03 09:10:31  5-MIN KMSN 121510Z 05007KT 6SM HZ OVC013 16/13 A2985 930 83 1300 050/07 RMK AO2
14837KMSN MSN20030612091509806/12/03 09:15:31  5-MIN KMSN 121515Z 07007KT 6SM HZ OVC013 16/12 A2984 930 80 1300 070/07 RMK AO2
14837KMSN MSN20030612092009806/12/03 09:20:31  5-MIN KMSN 121520Z 05006KT 6SM HZ OVC013 16/13 A2984 940 83 1300 050/06 RMK AO2
14837KMSN MSN20030612092509806/12/03 09:25:31  5-MIN KMSN 121525Z 05007KT 6SM HZ OVC013 16/13 A2984 940 80 1300 050/07 RMK AO2
14837KMSN MSN20030612093009806/12/03 09:30:31  5-MIN KMSN 121530Z 07006KT 6SM HZ OVC013 16/13 A2984 940 80 1300 070/06 RMK AO2
14837KMSN MSN20030612093509806/12/03 09:35:31  5-MIN KMSN 121535Z 06007KT 5SM HZ OVC013 17/13 A2984 940 80 1400 060/07 RMK AO2
14837KMSN MSN20030612094009806/12/03 09:40:31  5-MIN KMSN 121540Z 06006KT 5SM HZ OVC013 17/13 A2984 940 80 1400 060/06 RMK AO2
14837KMSN MSN20030612094509806/12/03 09:45:31  5-MIN KMSN 121545Z 04006KT 5SM HZ OVC013 17/13 A2984 940 80 1400 040/06 RMK AO2
14837KMSN MSN20030612095011506/12/03 09:50:31  5-MIN KMSN 121550Z 09004KT 5SM HZ OVC013 17/13 A2984 940 80 1400 090/04 RMK AO2 SLP104 T01670133
14837KMSN MSN20030612095509806/12/03 09:55:31  5-MIN KMSN 121555Z 09005KT 4SM HZ OVC013 17/13 A2984 940 80 1400 090/05 RMK AO2
14837KMSN MSN20030612100009806/12/03 10:00:31  5-MIN KMSN 121600Z 10006KT 4SM HZ OVC013 17/14 A2984 940 83 1400 100/06 RMK AO2
14837KMSN MSN20030612100509806/12/03 10:05:31  5-MIN KMSN 121605Z 09004KT 4SM HZ OVC013 17/13 A2984 940 78 1500 090/04 RMK AO2
14837KMSN MSN20030612101009806/12/03 10:10:31  5-MIN KMSN 121610Z 08007KT 4SM HZ OVC013 17/14 A2984 940 80 1500 080/07 RMK AO2
14837KMSN MSN20030612101509806/12/03 10:15:31  5-MIN KMSN 121615Z 08006KT 4SM HZ OVC013 17/13 A2984 940 78 1500 080/06 RMK AO2
14837KMSN MSN20030612102009806/12/03 10:20:31  5-MIN KMSN 121620Z 07006KT 4SM HZ OVC013 17/14 A2984 940 80 1500 060/06 RMK AO2
14837KMSN MSN20030612102509806/12/03 10:25:31  5-MIN KMSN 121625Z 08005KT 5SM HZ OVC013 17/14 A2984 940 80 1500 080/05 RMK AO2
14837KMSN MSN20030612103009806/12/03 10:30:31  5-MIN KMSN 121630Z 08005KT 5SM HZ OVC013 18/14 A2985 930 78 1500 080/05 RMK AO2
14837KMSN MSN20030612103509806/12/03 10:35:31  5-MIN KMSN 121635Z 08003KT 5SM HZ OVC013 17/14 A2985 930 80 1400 070/03 RMK AO2
14837KMSN MSN20030612104009806/12/03 10:40:31  5-MIN KMSN 121640Z 06005KT 5SM HZ OVC013 17/14 A2985 930 80 1400 060/05 RMK AO2
14837KMSN MSN20030612104509806/12/03 10:45:31  5-MIN KMSN 121645Z 08004KT 5SM HZ OVC013 17/14 A2985 930 80 1400 080/04 RMK AO2
14837KMSN MSN20030612105011506/12/03 10:50:31  5-MIN KMSN 121650Z 09005KT 5SM HZ OVC013 17/14 A2985 930 80 1500 090/05 RMK AO2 SLP106 T01720139
14837KMSN MSN20030612105509806/12/03 10:55:31  5-MIN KMSN 121655Z 10005KT 5SM HZ OVC013 18/14 A2985 930 78 1500 100/05 RMK AO2
14837KMSN MSN20030612110009806/12/03 11:00:31  5-MIN KMSN 121700Z 09005KT 5SM HZ OVC013 18/14 A2984 940 81 1500 090/05 RMK AO2
14837KMSN MSN20030612110509806/12/03 11:05:31  5-MIN KMSN 121705Z 07004KT 5SM HZ OVC013 18/14 A2984 940 78 1600 070/04 RMK AO2
14837KMSN MSN20030612111009806/12/03 11:10:31  5-MIN KMSN 121710Z 11006KT 5SM HZ OVC013 18/14 A2984 940 78 1600 110/06 RMK AO2
14837KMSN MSN20030612111509806/12/03 11:15:31  5-MIN KMSN 121715Z VRB04KT 5SM HZ OVC013 19/15 A2984 940 78 1600 VRB/04 RMK AO2
14837KMSN MSN20030612112009806/12/03 11:20:31  5-MIN KMSN 121720Z 05006KT 5SM HZ OVC015 19/15 A2984 940 78 1700 050/06 RMK AO2
14837KMSN MSN20030612112509806/12/03 11:25:31  5-MIN KMSN 121725Z 05004KT 5SM HZ OVC015 19/14 A2984 940 75 1700 050/04 RMK AO2
14837KMSN MSN20030612113009806/12/03 11:30:31  5-MIN KMSN 121730Z VRB04KT 5SM HZ OVC015 19/15 A2984 940 75 1700 VRB/04 RMK AO2
14837KMSN MSN20030612113509806/12/03 11:35:31  5-MIN KMSN 121735Z VRB03KT 5SM HZ OVC015 19/15 A2984 940 75 1700 VRB/03 RMK AO2
14837KMSN MSN20030612114009806/12/03 11:40:31  5-MIN KMSN 121740Z 09005KT 5SM HZ OVC015 19/15 A2984 940 75 1700 080/05 RMK AO2
14837KMSN MSN20030612114509806/12/03 11:45:31  5-MIN KMSN 121745Z VRB05KT 5SM HZ OVC015 20/16 A2984 940 75 1800 VRB/05 RMK AO2
14837KMSN MSN20030612115013306/12/03 11:50:31  5-MIN KMSN 121750Z 05004KT 5SM HZ BKN015 20/16 A2983 940 75 1800 040/04 RMK AO2 SLP101 T02000156 10200 20133 51005
14837KMSN MSN20030612115509806/12/03 11:55:31  5-MIN KMSN 121755Z 03005KT 5SM HZ BKN017 20/15 A2983 940 72 1800 030/05 RMK AO2
14837KMSN MSN20030612120009806/12/03 12:00:31  5-MIN KMSN 121800Z 08004KT 5SM HZ BKN017 20/16 A2983 940 75 1800 080/04 RMK AO2
14837KMSN MSN20030612120509806/12/03 12:05:31  5-MIN KMSN 121805Z 06004KT 5SM HZ OVC017 20/15 A2983 940 72 1800 060/04 RMK AO2
14837KMSN MSN20030612121009806/12/03 12:10:31  5-MIN KMSN 121810Z VRB05KT 5SM HZ OVC019 20/15 A2983 950 72 1800 VRB/05 RMK AO2
14837KMSN MSN20030612121509806/12/03 12:15:31  5-MIN KMSN 121815Z 07004KT 5SM HZ OVC019 21/15 A2983 950 70 1900 060/04 RMK AO2
14837KMSN MSN20030612122009806/12/03 12:20:31  5-MIN KMSN 121820Z 03005KT 5SM HZ OVC019 21/16 A2983 950 73 1900 030/05 RMK AO2
14837KMSN MSN20030612122509806/12/03 12:25:31  5-MIN KMSN 121825Z 07004KT 6SM HZ OVC019 21/16 A2983 950 70 1900 070/04 RMK AO2
14837KMSN MSN20030612123009806/12/03 12:30:31  5-MIN KMSN 121830Z VRB03KT 6SM HZ OVC021 21/15 A2983 950 70 1900 VRB/03 RMK AO2
14837KMSN MSN20030612123509806/12/03 12:35:31  5-MIN KMSN 121835Z 05006KT 6SM HZ OVC021 21/15 A2982 960 70 1900 040/06 RMK AO2
14837KMSN MSN20030612124009806/12/03 12:40:31  5-MIN KMSN 121840Z 00000KT 6SM HZ OVC021 21/15 A2982 950 70 1900 000/00 RMK AO2
14837KMSN MSN20030612124509806/12/03 12:45:31  5-MIN KMSN 121845Z VRB04KT 6SM HZ OVC021 21/15 A2982 950 70 1900 VRB/04 RMK AO2
14837KMSN MSN20030612125012806/12/03 12:50:31  5-MIN KMSN 121850Z 00000KT 6SM HZ OVC022 21/15 A2983 950 70 1900 000/00 RMK AO2 SLP098 OVC022 V BKN T02060150
14837KMSN MSN20030612125509806/12/03 12:55:31  5-MIN KMSN 121855Z 05005KT 6SM HZ OVC024 21/16 A2982 950 70 1900 050/05 RMK AO2
14837KMSN MSN20030612130009806/12/03 13:00:31  5-MIN KMSN 121900Z 03003KT 6SM HZ OVC024 21/16 A2982 950 70 1900 030/03 RMK AO2
14837KMSN MSN20030612130509806/12/03 13:05:31  5-MIN KMSN 121905Z 00000KT 6SM HZ OVC026 22/16 A2982 960 68 2000 000/00 RMK AO2
14837KMSN MSN20030612131010206/12/03 13:10:31  5-MIN KMSN 121910Z 00000KT 7SM BKN026 OVC030 22/16 A2982 960 68 2000 000/00 RMK AO2
14837KMSN MSN20030612131510206/12/03 13:15:31  5-MIN KMSN 121915Z VRB03KT 7SM SCT026 OVC030 22/16 A2982 960 68 2000 VRB/03 RMK AO2
14837KMSN MSN20030612132010206/12/03 13:20:31  5-MIN KMSN 121920Z VRB03KT 7SM SCT023 BKN030 22/16 A2982 960 68 2000 VRB/03 RMK AO2
14837KMSN MSN20030612132510206/12/03 13:25:31  5-MIN KMSN 121925Z 00000KT 7SM FEW023 BKN030 22/16 A2982 960 68 2000 000/00 RMK AO2
14837KMSN MSN20030612133009506/12/03 13:30:31  5-MIN KMSN 121930Z 00000KT 7SM OVC032 22/16 A2982 960 68 2000 000/00 RMK AO2
14837KMSN MSN20030612133509506/12/03 13:35:31  5-MIN KMSN 121935Z 00000KT 7SM OVC032 22/16 A2982 960 65 2100 000/00 RMK AO2
14837KMSN MSN20030612134010206/12/03 13:40:31  5-MIN KMSN 121940Z VRB03KT 7SM FEW025 OVC034 22/16 A2982 960 65 2100 VRB/03 RMK AO2
14837KMSN MSN20030612134510206/12/03 13:45:31  5-MIN KMSN 121945Z 04006KT 7SM SCT025 BKN034 22/16 A2982 960 68 2100 040/06 RMK AO2
14837KMSN MSN20030612135011906/12/03 13:50:31  5-MIN KMSN 121950Z 00000KT 7SM FEW025 BKN034 22/16 A2981 960 65 2100 000/00 RMK AO2 SLP094 T02220156
14837KMSN MSN20030612135510206/12/03 13:55:31  5-MIN KMSN 121955Z 04004KT 7SM FEW025 OVC036 22/16 A2981 960 65 2100 040/04 RMK AO2
14837KMSN MSN20030612140010206/12/03 14:00:31  5-MIN KMSN 122000Z 00000KT 7SM SCT025 OVC036 22/16 A2981 960 68 2100 000/00 RMK AO2
14837KMSN MSN20030612140510206/12/03 14:05:31  5-MIN KMSN 122005Z VRB04KT 7SM BKN027 BKN036 22/16 A2981 960 65 2100 VRB/04 RMK AO2
14837KMSN MSN20030612141010206/12/03 14:10:31  5-MIN KMSN 122010Z 06005KT 7SM BKN027 BKN036 22/16 A2981 960 68 2100 060/05 RMK AO2
14837KMSN MSN20030612141510206/12/03 14:15:31  5-MIN KMSN 122015Z 07004KT 7SM SCT027 OVC036 22/16 A2981 960 68 2100 070/04 RMK AO2
14837KMSN MSN20030612142010206/12/03 14:20:31  5-MIN KMSN 122020Z 08007KT 7SM BKN027 OVC036 22/16 A2982 960 70 2000 080/07 RMK AO2
14837KMSN MSN20030612142510206/12/03 14:25:31  5-MIN KMSN 122025Z 08006KT 7SM BKN027 OVC036 22/16 A2982 960 70 2000 080/06 RMK AO2
14837KMSN MSN20030612143010206/12/03 14:30:31  5-MIN KMSN 122030Z 08007KT 8SM BKN027 OVC038 22/16 A2982 960 70 2000 080/07 RMK AO2
14837KMSN MSN20030612143510206/12/03 14:35:31  5-MIN KMSN 122035Z 10007KT 8SM BKN029 OVC040 22/16 A2982 960 70 2000 100/07 RMK AO2
14837KMSN MSN20030612144010206/12/03 14:40:31  5-MIN KMSN 122040Z 07006KT 8SM BKN029 OVC040 22/16 A2982 960 70 2000 070/06 RMK AO2
14837KMSN MSN20030612144510206/12/03 14:45:31  5-MIN KMSN 122045Z 09007KT 8SM BKN029 OVC042 22/16 A2982 960 68 2100 090/07 RMK AO2
14837KMSN MSN20030612145013206/12/03 14:50:31  5-MIN KMSN 122050Z 10006KT 8SM SCT032 BKN044 OVC050 22/16 A2982 960 68 2100 090/06 RMK AO2 SLP095 T02220161 58004
14837KMSN MSN20030612145510206/12/03 14:55:31  5-MIN KMSN 122055Z 12006KT 8SM BKN032 BKN044 22/16 A2982 960 68 2100 120/06 RMK AO2
14837KMSN MSN20030612150010206/12/03 15:00:31  5-MIN KMSN 122100Z 09007KT 8SM SCT034 BKN047 22/16 A2982 960 68 2100 090/07 RMK AO2
14837KMSN MSN20030612150510206/12/03 15:05:31  5-MIN KMSN 122105Z 11007KT 9SM FEW036 BKN046 22/16 A2981 960 68 2100 110/07 RMK AO2
14837KMSN MSN20030612151010206/12/03 15:10:31  5-MIN KMSN 122110Z 11006KT 9SM FEW036 BKN050 22/16 A2981 970 68 2100 110/06 RMK AO2
14837KMSN MSN20030612151510206/12/03 15:15:31  5-MIN KMSN 122115Z 07008KT 9SM FEW026 BKN050 23/16 A2981 970 63 2200 070/08 RMK AO2
14837KMSN MSN20030612152010306/12/03 15:20:31  5-MIN KMSN 122120Z 08006KT 10SM FEW026 SCT050 22/16 A2981 970 65 2100 080/06 RMK AO2
14837KMSN MSN20030612152510206/12/03 15:25:31  5-MIN KMSN 122125Z 08005KT 9SM FEW026 BKN050 22/16 A2981 970 68 2100 080/05 RMK AO2
14837KMSN MSN20030612153010306/12/03 15:30:31  5-MIN KMSN 122130Z 08009KT 10SM FEW026 BKN050 23/17 A2981 970 68 2100 080/09 RMK AO2
14837KMSN MSN20030612153510306/12/03 15:35:31  5-MIN KMSN 122135Z 07009KT 10SM FEW026 BKN050 22/16 A2981 970 68 2100 070/09 RMK AO2
14837KMSN MSN20030612154010306/12/03 15:40:31  5-MIN KMSN 122140Z 09008KT 10SM SCT028 BKN050 22/16 A2981 960 70 2000 090/08 RMK AO2
14837KMSN MSN20030612154510306/12/03 15:45:31  5-MIN KMSN 122145Z 10005KT 10SM SCT028 BKN050 22/17 A2981 960 70 2100 100/05 RMK AO2
14837KMSN MSN20030612155012006/12/03 15:50:31  5-MIN KMSN 122150Z 10007KT 10SM SCT028 BKN050 22/16 A2981 960 68 2100 100/07 RMK AO2 SLP093 T02220161
14837KMSN MSN20030612155510306/12/03 15:55:31  5-MIN KMSN 122155Z 09006KT 10SM SCT028 BKN050 22/16 A2981 970 68 2100 090/06 RMK AO2
14837KMSN MSN20030612160010206/12/03 16:00:31  5-MIN KMSN 122200Z 09009KT 9SM SCT028 BKN050 23/16 A2981 970 65 2100 090/09 RMK AO2
14837KMSN MSN20030612160510306/12/03 16:05:31  5-MIN KMSN 122205Z 09008KT 10SM SCT028 BKN050 23/16 A2981 970 65 2100 080/08 RMK AO2
14837KMSN MSN20030612161009606/12/03 16:10:31  5-MIN KMSN 122210Z 08006KT 10SM SCT050 22/16 A2980 970 65 2100 080/06 RMK AO2
14837KMSN MSN20030612161509606/12/03 16:15:31  5-MIN KMSN 122215Z 08006KT 10SM SCT050 23/16 A2980 980 65 2100 080/06 RMK AO2
14837KMSN MSN20030612162009606/12/03 16:20:31  5-MIN KMSN 122220Z 09006KT 10SM SCT050 23/16 A2980 980 65 2100 090/06 RMK AO2
14837KMSN MSN20030612162509606/12/03 16:25:31  5-MIN KMSN 122225Z 08009KT 10SM SCT050 23/16 A2980 980 65 2100 080/09 RMK AO2
14837KMSN MSN20030612163009606/12/03 16:30:31  5-MIN KMSN 122230Z 08009KT 10SM SCT050 22/16 A2980 980 65 2100 080/09 RMK AO2
14837KMSN MSN20030612163509606/12/03 16:35:31  5-MIN KMSN 122235Z 08008KT 10SM SCT050 22/16 A2979 980 65 2100 080/08 RMK AO2
14837KMSN MSN20030612164009606/12/03 16:40:31  5-MIN KMSN 122240Z 10006KT 10SM SCT029 22/16 A2979 980 68 2100 100/06 RMK AO2
14837KMSN MSN20030612164509606/12/03 16:45:31  5-MIN KMSN 122245Z 10005KT 10SM SCT029 22/16 A2979 980 65 2100 100/05 RMK AO2
14837KMSN MSN20030612165011306/12/03 16:50:31  5-MIN KMSN 122250Z 13005KT 10SM SCT029 22/16 A2979 980 68 2100 130/05 RMK AO2 SLP086 T02220161
14837KMSN MSN20030612165509506/12/03 16:55:31  5-MIN KMSN 122255Z 11007KT 9SM FEW029 23/16 A2979 980 63 2100 100/07 RMK AO2
14837KMSN MSN20030612170009606/12/03 17:00:31  5-MIN KMSN 122300Z 11006KT 10SM SCT029 22/16 A2980 980 65 2100 110/06 RMK AO2
14837KMSN MSN20030612170509606/12/03 17:05:31  5-MIN KMSN 122305Z 14008KT 10SM SCT029 23/16 A2979 980 65 2100 130/08 RMK AO2
14837KMSN MSN20030612171009606/12/03 17:10:31  5-MIN KMSN 122310Z 10010KT 10SM BKN031 22/16 A2979 980 68 2100 100/10 RMK AO2
14837KMSN MSN20030612171509606/12/03 17:15:31  5-MIN KMSN 122315Z 09010KT 10SM SCT031 22/16 A2979 990 65 2100 090/10 RMK AO2
14837KMSN MSN20030612172009606/12/03 17:20:31  5-MIN KMSN 122320Z 09010KT 10SM SCT031 22/16 A2978 990 68 2000 080/10 RMK AO2
14837KMSN MSN20030612172509606/12/03 17:25:31  5-MIN KMSN 122325Z 07010KT 10SM SCT031 22/16 A2978 990 68 2000 070/10 RMK AO2
14837KMSN MSN20030612173009706/12/03 17:30:31  5-MIN KMSN 122330Z 08009KT 10SM SCT031 22/16 A2978 1000 70 2000 080/09 RMK AO2
14837KMSN MSN20030612173509706/12/03 17:35:31  5-MIN KMSN 122335Z 07011KT 10SM FEW031 22/16 A2977 1000 70 2000 070/11 RMK AO2
14837KMSN MSN20030612174009706/12/03 17:40:31  5-MIN KMSN 122340Z 07009KT 10SM FEW035 22/16 A2977 1000 70 2000 070/09 RMK AO2
14837KMSN MSN20030612174509406/12/03 17:45:31  5-MIN KMSN 122345Z 08011KT 10SM CLR 22/16 A2977 1000 70 2000 080/11 RMK AO2
14837KMSN MSN20030612175012806/12/03 17:50:31  5-MIN KMSN 122350Z 09010KT 10SM CLR 22/16 A2978 990 70 2000 090/10 RMK AO2 SLP082 T02170161 10233 20200 55006
14837KMSN MSN20030612175509206/12/03 17:55:31  5-MIN KMSN 122355Z 10010KT 9SM CLR 22/16 A2979 990 70 2000 100/10 RMK AO2
14837KMSN MSN20030612180010006/12/03 18:00:31  5-MIN KMSN 130000Z 12009KT 10SM CLR 21/16 A2979 980 73 2000 120/09 RMK AO2 PRESRR
14837KMSN MSN20030612180509306/12/03 18:05:31  5-MIN KMSN 130005Z 10010KT 10SM CLR 21/16 A2979 980 73 2000 100/10 RMK AO2
14837KMSN MSN20030612181009306/12/03 18:10:31  5-MIN KMSN 130010Z 12008KT 10SM CLR 21/16 A2980 980 73 2000 110/08 RMK AO2
14837KMSN MSN20030612181509306/12/03 18:15:31  5-MIN KMSN 130015Z 11009KT 10SM CLR 21/16 A2980 980 73 2000 110/09 RMK AO2
14837KMSN MSN20030612182009306/12/03 18:20:31  5-MIN KMSN 130020Z 11008KT 10SM CLR 21/16 A2980 980 73 2000 110/08 RMK AO2
14837KMSN MSN20030612182509306/12/03 18:25:31  5-MIN KMSN 130025Z 10008KT 10SM CLR 21/16 A2980 980 73 2000 100/08 RMK AO2
14837KMSN MSN20030612183009306/12/03 18:30:31  5-MIN KMSN 130030Z 11008KT 10SM CLR 21/16 A2980 970 73 1900 110/08 RMK AO2
14837KMSN MSN20030612183509306/12/03 18:35:31  5-MIN KMSN 130035Z 12008KT 10SM CLR 21/16 A2981 970 75 1900 120/08 RMK AO2
14837KMSN MSN20030612184009306/12/03 18:40:31  5-MIN KMSN 130040Z 13007KT 10SM CLR 21/16 A2981 970 73 1900 130/07 RMK AO2
14837KMSN MSN20030612184509306/12/03 18:45:31  5-MIN KMSN 130045Z 11008KT 10SM CLR 20/16 A2981 970 75 1800 110/08 RMK AO2
14837KMSN MSN20030612185011006/12/03 18:50:31  5-MIN KMSN 130050Z 13006KT 10SM CLR 20/16 A2981 970 75 1800 120/06 RMK AO2 SLP093 T02000156
14837KMSN MSN20030612185509306/12/03 18:55:31  5-MIN KMSN 130055Z 13006KT 10SM CLR 20/15 A2981 960 72 1800 130/06 RMK AO2
14837KMSN MSN20030612190009306/12/03 19:00:31  5-MIN KMSN 130100Z 13006KT 10SM CLR 20/15 A2982 960 72 1800 130/06 RMK AO2
14837KMSN MSN20030612190509306/12/03 19:05:31  5-MIN KMSN 130105Z 14006KT 10SM CLR 19/15 A2982 960 75 1700 140/06 RMK AO2
14837KMSN MSN20030612191009306/12/03 19:10:31  5-MIN KMSN 130110Z 13007KT 10SM CLR 19/15 A2982 960 75 1700 130/07 RMK AO2
14837KMSN MSN20030612191509306/12/03 19:15:31  5-MIN KMSN 130115Z 13005KT 10SM CLR 19/15 A2982 960 75 1700 130/05 RMK AO2
14837KMSN MSN20030612192009306/12/03 19:20:31  5-MIN KMSN 130120Z 12005KT 10SM CLR 19/15 A2982 960 78 1700 120/05 RMK AO2
14837KMSN MSN20030612192509306/12/03 19:25:31  5-MIN KMSN 130125Z 12006KT 10SM CLR 19/15 A2981 960 78 1700 120/06 RMK AO2
14837KMSN MSN20030612193009206/12/03 19:30:31  5-MIN KMSN 130130Z 12006KT 8SM CLR 19/15 A2982 960 78 1700 120/06 RMK AO2
14837KMSN MSN20030612193509206/12/03 19:35:31  5-MIN KMSN 130135Z 11006KT 8SM CLR 18/14 A2981 960 78 1600 110/06 RMK AO2
14837KMSN MSN20030612194009206/12/03 19:40:31  5-MIN KMSN 130140Z 11007KT 8SM CLR 18/14 A2982 960 78 1600 110/07 RMK AO2
14837KMSN MSN20030612194509206/12/03 19:45:31  5-MIN KMSN 130145Z 11006KT 8SM CLR 18/14 A2982 960 81 1500 110/06 RMK AO2
14837KMSN MSN20030612195010906/12/03 19:50:31  5-MIN KMSN 130150Z 11006KT 7SM CLR 18/14 A2982 960 81 1500 110/06 RMK AO2 SLP096 T01780144
14837KMSN MSN20030612195509506/12/03 19:55:31  5-MIN KMSN 130155Z 11005KT 6SM HZ CLR 18/14 A2982 960 81 1500 110/05 RMK AO2
14837KMSN MSN20030612200009206/12/03 20:00:31  5-MIN KMSN 130200Z 12003KT 7SM CLR 18/14 A2982 960 81 1500 120/03 RMK AO2
14837KMSN MSN20030612200509206/12/03 20:05:31  5-MIN KMSN 130205Z 12004KT 8SM CLR 18/14 A2982 960 78 1600 110/04 RMK AO2
14837KMSN MSN20030612201009206/12/03 20:10:31  5-MIN KMSN 130210Z 12005KT 8SM CLR 18/14 A2982 950 78 1500 120/05 RMK AO2
14837KMSN MSN20030612201509206/12/03 20:15:31  5-MIN KMSN 130215Z 13003KT 8SM CLR 18/14 A2982 950 78 1500 130/03 RMK AO2
14837KMSN MSN20030612202009206/12/03 20:20:31  5-MIN KMSN 130220Z 11003KT 8SM CLR 18/14 A2983 950 78 1500 110/03 RMK AO2
14837KMSN MSN20030612202509206/12/03 20:25:31  5-MIN KMSN 130225Z 00000KT 8SM CLR 17/14 A2983 950 80 1500 000/00 RMK AO2
14837KMSN MSN20030612203009206/12/03 20:30:31  5-MIN KMSN 130230Z 00000KT 7SM CLR 16/14 A2983 950 86 1300 000/00 RMK AO2
14837KMSN MSN20030612203509206/12/03 20:35:31  5-MIN KMSN 130235Z 00000KT 7SM CLR 16/14 A2983 950 86 1300 000/00 RMK AO2
14837KMSN MSN20030612204009206/12/03 20:40:31  5-MIN KMSN 130240Z 00000KT 7SM CLR 17/14 A2983 950 86 1400 000/00 RMK AO2
14837KMSN MSN20030612204509206/12/03 20:45:31  5-MIN KMSN 130245Z 00000KT 7SM CLR 16/14 A2983 950 86 1300 000/00 RMK AO2
14837KMSN MSN20030612205011506/12/03 20:50:31  5-MIN KMSN 130250Z 00000KT 7SM CLR 16/14 A2983 950 90 1300 000/00 RMK AO2 SLP101 T01560139 58010
14837KMSN MSN20030612205509206/12/03 20:55:31  5-MIN KMSN 130255Z 00000KT 7SM CLR 16/14 A2983 950 90 1300 000/00 RMK AO2
14837KMSN MSN20030612210009206/12/03 21:00:31  5-MIN KMSN 130300Z 00000KT 7SM CLR 16/14 A2983 950 86 1300 000/00 RMK AO2
14837KMSN MSN20030612210509506/12/03 21:05:31  5-MIN KMSN 130305Z 02003KT 6SM BR CLR 16/14 A2983 950 90 1300 020/03 RMK AO2
14837KMSN MSN20030612211009506/12/03 21:10:31  5-MIN KMSN 130310Z 36003KT 6SM BR CLR 16/14 A2983 950 90 1300 360/03 RMK AO2
14837KMSN MSN20030612211509506/12/03 21:15:31  5-MIN KMSN 130315Z 00000KT 6SM BR CLR 16/14 A2983 950 90 1300 000/00 RMK AO2
14837KMSN MSN20030612212009206/12/03 21:20:31  5-MIN KMSN 130320Z 00000KT 7SM CLR 16/14 A2983 950 90 1300 000/00 RMK AO2
14837KMSN MSN20030612212509206/12/03 21:25:31  5-MIN KMSN 130325Z 00000KT 7SM CLR 15/14 A2983 950 93 1200 000/00 RMK AO2
14837KMSN MSN20030612213009206/12/03 21:30:31  5-MIN KMSN 130330Z 00000KT 7SM CLR 15/14 A2983 950 93 1200 000/00 RMK AO2
14837KMSN MSN20030612213509206/12/03 21:35:31  5-MIN KMSN 130335Z 00000KT 7SM CLR 15/14 A2983 950 93 1200 000/00 RMK AO2
14837KMSN MSN20030612214009206/12/03 21:40:31  5-MIN KMSN 130340Z 00000KT 7SM CLR 15/14 A2983 950 93 1200 000/00 RMK AO2
14837KMSN MSN20030612214509206/12/03 21:45:31  5-MIN KMSN 130345Z 00000KT 7SM CLR 15/14 A2983 950 93 1200 000/00 RMK AO2
14837KMSN MSN20030612215011206/12/03 21:50:31  5-MIN KMSN 130350Z 00000KT 6SM BR CLR 15/14 A2983 950 93 1200 000/00 RMK AO2 SLP100 T01500139
14837KMSN MSN20030612215509506/12/03 21:55:31  5-MIN KMSN 130355Z 00000KT 6SM BR CLR 15/14 A2983 950 93 1200 000/00 RMK AO2
14837KMSN MSN20030612220009506/12/03 22:00:31  5-MIN KMSN 130400Z 00000KT 6SM BR CLR 15/14 A2983 950 93 1200 000/00 RMK AO2
14837KMSN MSN20030612220509506/12/03 22:05:31  5-MIN KMSN 130405Z 00000KT 6SM BR CLR 15/14 A2983 950 93 1200 000/00 RMK AO2
14837KMSN MSN20030612221009506/12/03 22:10:31  5-MIN KMSN 130410Z 00000KT 6SM BR CLR 14/14 A2983 950 96 1100 000/00 RMK AO2
14837KMSN MSN20030612221509506/12/03 22:15:31  5-MIN KMSN 130415Z 00000KT 6SM BR CLR 14/14 A2983 950 96 1100 000/00 RMK AO2
14837KMSN MSN20030612222009506/12/03 22:20:31  5-MIN KMSN 130420Z 00000KT 6SM BR CLR 14/13 A2983 950 93 1100 000/00 RMK AO2
14837KMSN MSN20030612222509506/12/03 22:25:31  5-MIN KMSN 130425Z 00000KT 6SM BR CLR 14/13 A2983 950 93 1100 000/00 RMK AO2
14837KMSN MSN20030612223009506/12/03 22:30:31  5-MIN KMSN 130430Z 00000KT 6SM BR CLR 14/13 A2983 950 93 1100 000/00 RMK AO2
14837KMSN MSN20030612223509506/12/03 22:35:31  5-MIN KMSN 130435Z 00000KT 5SM BR CLR 14/14 A2983 950 96 1100 000/00 RMK AO2
14837KMSN MSN20030612224009506/12/03 22:40:31  5-MIN KMSN 130440Z 00000KT 5SM BR CLR 14/14 A2983 950 96 1100 000/00 RMK AO2
14837KMSN MSN20030612224509506/12/03 22:45:31  5-MIN KMSN 130445Z 00000KT 5SM BR CLR 14/14 A2983 950 96 1100 000/00 RMK AO2
14837KMSN MSN20030612225011506/12/03 22:50:31  5-MIN KMSN 130450Z 00000KT 5SM BR FEW050 14/14 A2983 950 96 1100 000/00 RMK AO2 SLP100 T01440139
14837KMSN MSN20030612225509506/12/03 22:55:31  5-MIN KMSN 130455Z 00000KT 4SM BR CLR 15/14 A2983 950 93 1200 000/00 RMK AO2
14837KMSN MSN20030612230009506/12/03 23:00:31  5-MIN KMSN 130500Z 00000KT 4SM BR CLR 15/14 A2983 950 93 1200 000/00 RMK AO2
14837KMSN MSN20030612230509506/12/03 23:05:31  5-MIN KMSN 130505Z 00000KT 4SM BR CLR 14/13 A2983 950 93 1100 000/00 RMK AO2
14837KMSN MSN20030612231009506/12/03 23:10:31  5-MIN KMSN 130510Z 00000KT 4SM BR CLR 14/14 A2983 950 96 1100 000/00 RMK AO2
14837KMSN MSN20030612231509506/12/03 23:15:31  5-MIN KMSN 130515Z 00000KT 4SM BR CLR 15/14 A2983 950 93 1200 000/00 RMK AO2
14837KMSN MSN20030612232009506/12/03 23:20:31  5-MIN KMSN 130520Z 00000KT 4SM BR CLR 15/14 A2983 950 93 1200 000/00 RMK AO2
14837KMSN MSN20030612232509506/12/03 23:25:31  5-MIN KMSN 130525Z 00000KT 4SM BR CLR 14/13 A2983 950 93 1100 000/00 RMK AO2
14837KMSN MSN20030612233009506/12/03 23:30:31  5-MIN KMSN 130530Z 00000KT 4SM BR CLR 14/13 A2983 950 93 1100 000/00 RMK AO2
14837KMSN MSN20030612233509506/12/03 23:35:31  5-MIN KMSN 130535Z 00000KT 4SM BR CLR 14/14 A2983 950 96 1100 000/00 RMK AO2
14837KMSN MSN20030612234009506/12/03 23:40:31  5-MIN KMSN 130540Z 00000KT 4SM BR CLR 15/13 A2983 950 90 1200 000/00 RMK AO2
14837KMSN MSN20030612234509506/12/03 23:45:31  5-MIN KMSN 130545Z 00000KT 4SM BR CLR 15/13 A2983 950 90 1200 000/00 RMK AO2
14837KMSN MSN20030612235014006/12/03 23:50:31  5-MIN KMSN 130550Z 00000KT 4SM BR CLR 14/13 A2983 950 93 1100 000/00 RMK AO2 SLP100 T01440133 10217 20144 402330117 51015
14837KMSN MSN20030612235509506/12/03 23:55:31  5-MIN KMSN 130555Z 00000KT 3SM BR CLR 14/13 A2983 950 93 1100 000/00 RMK AO2
14837KMSN MSN20030613000009506/13/03 00:00:31  5-MIN KMSN 130600Z 00000KT 4SM BR CLR 14/13 A2983 950 93 1100 000/00 RMK AO2
14837KMSN MSN20030613000509506/13/03 00:05:31  5-MIN KMSN 130605Z 00000KT 4SM BR CLR 14/13 A2983 950 93 1100 000/00 RMK AO2
14837KMSN MSN20030613001009506/13/03 00:10:31  5-MIN KMSN 130610Z 00000KT 4SM BR CLR 14/13 A2983 950 96 1100 000/00 RMK AO2
14837KMSN MSN20030613001509506/13/03 00:15:31  5-MIN KMSN 130615Z 00000KT 4SM BR CLR 14/13 A2983 950 93 1100 000/00 RMK AO2
14837KMSN MSN20030613002009506/13/03 00:20:31  5-MIN KMSN 130620Z 06003KT 4SM BR CLR 14/13 A2983 950 93 1100 060/03 RMK AO2
14837KMSN MSN20030613002509506/13/03 00:25:31  5-MIN KMSN 130625Z 00000KT 4SM BR CLR 14/13 A2983 950 93 1100 000/00 RMK AO2
14837KMSN MSN20030613003009506/13/03 00:30:31  5-MIN KMSN 130630Z 00000KT 4SM BR CLR 14/13 A2983 950 93 1100 000/00 RMK AO2
14837KMSN MSN20030613003509506/13/03 00:35:31  5-MIN KMSN 130635Z 13003KT 4SM BR CLR 15/14 A2983 950 93 1200 130/03 RMK AO2
14837KMSN MSN20030613004009506/13/03 00:40:31  5-MIN KMSN 130640Z 14004KT 4SM BR CLR 15/13 A2983 950 90 1200 130/04 RMK AO2
14837KMSN MSN20030613004509506/13/03 00:45:31  5-MIN KMSN 130645Z 14005KT 4SM BR CLR 16/14 A2982 950 90 1300 130/05 RMK AO2
14837KMSN MSN20030613005011206/13/03 00:50:31  5-MIN KMSN 130650Z 13005KT 4SM BR CLR 16/14 A2982 950 90 1300 130/05 RMK AO2 SLP097 T01560139
14837KMSN MSN20030613005509506/13/03 00:55:31  5-MIN KMSN 130655Z 14005KT 3SM BR CLR 16/14 A2983 950 90 1300 130/05 RMK AO2
14837KMSN MSN20030613010009506/13/03 01:00:31  5-MIN KMSN 130700Z 13006KT 3SM BR CLR 16/14 A2982 950 90 1300 130/06 RMK AO2
14837KMSN MSN20030613010509506/13/03 01:05:31  5-MIN KMSN 130705Z 13006KT 3SM BR CLR 16/14 A2982 950 90 1300 130/06 RMK AO2
14837KMSN MSN20030613011009506/13/03 01:10:31  5-MIN KMSN 130710Z 13005KT 3SM BR CLR 16/14 A2982 950 90 1300 130/05 RMK AO2
14837KMSN MSN20030613011509506/13/03 01:15:31  5-MIN KMSN 130715Z 13005KT 3SM BR CLR 15/14 A2982 960 93 1200 130/05 RMK AO2
14837KMSN MSN20030613012009506/13/03 01:20:31  5-MIN KMSN 130720Z 13005KT 3SM BR CLR 15/14 A2982 960 93 1200 130/05 RMK AO2
14837KMSN MSN20030613012509506/13/03 01:25:31  5-MIN KMSN 130725Z 13004KT 3SM BR CLR 15/14 A2982 960 93 1200 130/04 RMK AO2
14837KMSN MSN20030613013009506/13/03 01:30:31  5-MIN KMSN 130730Z 12004KT 3SM BR CLR 15/14 A2982 960 93 1200 120/04 RMK AO2
14837KMSN MSN20030613013509506/13/03 01:35:31  5-MIN KMSN 130735Z 13004KT 3SM BR CLR 15/14 A2982 960 93 1200 130/04 RMK AO2
14837KMSN MSN20030613014009506/13/03 01:40:31  5-MIN KMSN 130740Z 14004KT 3SM BR CLR 15/14 A2982 960 93 1200 140/04 RMK AO2
14837KMSN MSN20030613014509506/13/03 01:45:31  5-MIN KMSN 130745Z 13005KT 3SM BR CLR 15/14 A2982 960 93 1200 130/05 RMK AO2
14837KMSN MSN20030613015011206/13/03 01:50:31  5-MIN KMSN 130750Z 15004KT 3SM BR CLR 15/14 A2982 960 93 1200 150/04 RMK AO2 SLP094 T01500139
14837KMSN MSN20030613015509506/13/03 01:55:31  5-MIN KMSN 130755Z 16004KT 3SM BR CLR 15/14 A2982 960 93 1200 160/04 RMK AO2
14837KMSN MSN20030613020009506/13/03 02:00:31  5-MIN KMSN 130800Z 17003KT 3SM BR CLR 15/14 A2982 960 93 1200 170/03 RMK AO2
14837KMSN MSN20030613020509506/13/03 02:05:31  5-MIN KMSN 130805Z 00000KT 3SM BR CLR 15/14 A2982 960 93 1200 000/00 RMK AO2
14837KMSN MSN20030613021009506/13/03 02:10:31  5-MIN KMSN 130810Z 00000KT 3SM BR CLR 15/13 A2981 960 90 1200 000/00 RMK AO2
14837KMSN MSN20030613021509506/13/03 02:15:31  5-MIN KMSN 130815Z 16003KT 3SM BR CLR 15/13 A2981 960 90 1200 150/03 RMK AO2
14837KMSN MSN20030613022009506/13/03 02:20:31  5-MIN KMSN 130820Z 17003KT 3SM BR CLR 15/13 A2981 960 90 1200 160/03 RMK AO2
14837KMSN MSN20030613022509506/13/03 02:25:31  5-MIN KMSN 130825Z 00000KT 3SM BR CLR 14/13 A2982 960 93 1100 000/00 RMK AO2
14837KMSN MSN20030613023009506/13/03 02:30:31  5-MIN KMSN 130830Z 00000KT 3SM BR CLR 14/13 A2982 960 96 1100 000/00 RMK AO2
14837KMSN MSN20030613023509506/13/03 02:35:31  5-MIN KMSN 130835Z 00000KT 3SM BR CLR 14/13 A2982 960 96 1100 000/00 RMK AO2
14837KMSN MSN20030613024009506/13/03 02:40:31  5-MIN KMSN 130840Z 00000KT 3SM BR CLR 14/13 A2982 960 96 1100 000/00 RMK AO2
14837KMSN MSN20030613024509506/13/03 02:45:31  5-MIN KMSN 130845Z 00000KT 3SM BR CLR 14/13 A2982 960 96 1100 000/00 RMK AO2
14837KMSN MSN20030613025011806/13/03 02:50:31  5-MIN KMSN 130850Z 00000KT 3SM BR CLR 14/13 A2982 960 96 1100 000/00 RMK AO2 SLP096 T01390133 53000
14837KMSN MSN20030613025509506/13/03 02:55:31  5-MIN KMSN 130855Z 00000KT 3SM BR CLR 13/13 A2982 960 96 1000 000/00 RMK AO2
14837KMSN MSN20030613030009506/13/03 03:00:31  5-MIN KMSN 130900Z 18003KT 3SM BR CLR 14/13 A2982 960 96 1100 180/03 RMK AO2
14837KMSN MSN20030613030509506/13/03 03:05:31  5-MIN KMSN 130905Z 17003KT 3SM BR CLR 14/13 A2982 960 93 1200 170/03 RMK AO2
14837KMSN MSN20030613031009506/13/03 03:10:31  5-MIN KMSN 130910Z 16003KT 3SM BR CLR 14/13 A2982 960 93 1200 160/03 RMK AO2
14837KMSN MSN20030613031509506/13/03 03:15:31  5-MIN KMSN 130915Z 00000KT 3SM BR CLR 14/13 A2982 960 93 1200 000/00 RMK AO2
14837KMSN MSN20030613032009506/13/03 03:20:31  5-MIN KMSN 130920Z 00000KT 3SM BR CLR 14/13 A2982 960 93 1200 000/00 RMK AO2
14837KMSN MSN20030613032509506/13/03 03:25:31  5-MIN KMSN 130925Z 00000KT 3SM BR CLR 14/13 A2982 960 93 1200 000/00 RMK AO2
14837KMSN MSN20030613033009506/13/03 03:30:31  5-MIN KMSN 130930Z 00000KT 3SM BR CLR 14/13 A2982 960 93 1200 000/00 RMK AO2
14837KMSN MSN20030613033509506/13/03 03:35:31  5-MIN KMSN 130935Z 00000KT 3SM BR CLR 14/13 A2982 960 93 1200 000/00 RMK AO2
14837KMSN MSN20030613034009706/13/03 03:40:31  5-MIN KMSN 130940Z 00000KT 3/4SM BR CLR 14/13 A2982 960 93 1100 000/00 RMK AO2
14837KMSN MSN20030613034509706/13/03 03:45:31  5-MIN KMSN 130945Z 00000KT 1/2SM FG CLR 14/13 A2982 950 93 1100 000/00 RMK AO2
14837KMSN MSN20030613035011206/13/03 03:50:31  5-MIN KMSN 130950Z 00000KT 1SM BR CLR 13/12 A2982 950 93 1000 000/00 RMK AO2 SLP097 T01330122
14837KMSN MSN20030613035509506/13/03 03:55:31  5-MIN KMSN 130955Z 00000KT 1SM BR CLR 13/12 A2982 950 96 1000 000/00 RMK AO2
14837KMSN MSN20030613040009506/13/03 04:00:31  5-MIN KMSN 131000Z 00000KT 1SM BR CLR 13/13 A2983 950 96 1000 000/00 RMK AO2
14837KMSN MSN20030613040509506/13/03 04:05:31  5-MIN KMSN 131005Z 00000KT 1SM BR CLR 13/13 A2983 950 96 1000 000/00 RMK AO2
14837KMSN MSN20030613041009406/13/03 04:10:31  5-MIN KMSN 131010Z 00000KT 1SM BR CLR 13/12 A2983 950 96 900 000/00 RMK AO2
14837KMSN MSN20030613041509406/13/03 04:15:31  5-MIN KMSN 131015Z 00000KT 1SM BR CLR 13/12 A2983 950 96 900 000/00 RMK AO2
14837KMSN MSN20030613042009406/13/03 04:20:31  5-MIN KMSN 131020Z 00000KT 1SM BR CLR 12/12 A2984 940 96 900 000/00 RMK AO2
14837KMSN MSN20030613042509406/13/03 04:25:31  5-MIN KMSN 131025Z 00000KT 1SM BR CLR 12/12 A2984 940 96 900 000/00 RMK AO2
14837KMSN MSN20030613043009406/13/03 04:30:31  5-MIN KMSN 131030Z 00000KT 1SM BR CLR 12/12 A2984 940 96 900 000/00 RMK AO2
14837KMSN MSN20030613043509906/13/03 04:35:31  5-MIN KMSN 131035Z 00000KT 3/4SM BR VV002 12/12 A2984 940 100 900 000/00 RMK AO2
14837KMSN MSN20030613044009806/13/03 04:40:31  5-MIN KMSN 131040Z 00000KT 3/4SM BR VV002 13/12 A2984 940 96 900 000/00 RMK AO2
14837KMSN MSN20030613044509506/13/03 04:45:31  5-MIN KMSN 131045Z 00000KT 1SM BR CLR 12/12 A2984 940 100 900 000/00 RMK AO2
14837KMSN MSN20030613045011106/13/03 04:50:31  5-MIN KMSN 131050Z 00000KT 1SM BR CLR 12/12 A2983 940 96 900 000/00 RMK AO2 SLP101 T01220117
14837KMSN MSN20030613045509406/13/03 04:55:31  5-MIN KMSN 131055Z 00000KT 1SM BR CLR 12/11 A2984 940 96 800 000/00 RMK AO2
14837KMSN MSN20030613050010406/13/03 05:00:31  5-MIN KMSN 131100Z 00000KT 1SM BR CLR 12/11 A2984 940 96 800 000/00 RMK AO2 TWR VIS 2
14837KMSN MSN20030613050510406/13/03 05:05:31  5-MIN KMSN 131105Z 00000KT 1SM BR CLR 13/12 A2984 940 96 900 000/00 RMK AO2 TWR VIS 2
14837KMSN MSN20030613051010506/13/03 05:10:31  5-MIN KMSN 131110Z 01004KT 1SM BR CLR 12/12 A2984 940 100 900 010/04 RMK AO2 TWR VIS 2
14837KMSN MSN20030613051510606/13/03 05:15:31  5-MIN KMSN 131115Z 01004KT 1SM BR CLR 13/13 A2984 940 100 1000 010/04 RMK AO2 TWR VIS 2
14837KMSN MSN20030613052010506/13/03 05:20:31  5-MIN KMSN 131120Z 00000KT 1SM BR CLR 14/13 A2984 940 96 1100 000/00 RMK AO2 TWR VIS 2
14837KMSN MSN20030613052510606/13/03 05:25:31  5-MIN KMSN 131125Z 00000KT 1SM BR CLR 13/13 A2984 940 100 1000 000/00 RMK AO2 TWR VIS 2
14837KMSN MSN20030613053010606/13/03 05:30:31  5-MIN KMSN 131130Z 00000KT 1SM BR CLR 13/13 A2984 940 100 1000 000/00 RMK AO2 TWR VIS 2
14837KMSN MSN20030613053510606/13/03 05:35:31  5-MIN KMSN 131135Z 00000KT 1SM BR CLR 13/13 A2984 940 100 1000 000/00 RMK AO2 TWR VIS 2
14837KMSN MSN20030613054010506/13/03 05:40:31  5-MIN KMSN 131140Z 00000KT 1SM BR CLR 14/13 A2984 940 96 1100 000/00 RMK AO2 TWR VIS 2
14837KMSN MSN20030613054510506/13/03 05:45:31  5-MIN KMSN 131145Z 00000KT 1SM BR CLR 14/13 A2984 940 96 1100 000/00 RMK AO2 TWR VIS 2
14837KMSN MSN20030613055014006/13/03 05:50:31  5-MIN KMSN 131150Z 00000KT 1SM BR CLR 14/14 A2984 930 96 1100 000/00 RMK AO2 TWR VIS 2 SLP104 T01440139 10156 20117 55004
14837KMSN MSN20030613055510506/13/03 05:55:31  5-MIN KMSN 131155Z 00000KT 1SM BR CLR 14/14 A2985 930 96 1100 000/00 RMK AO2 TWR VIS 2
14837KMSN MSN20030613060010906/13/03 06:00:31  5-MIN KMSN 131200Z 00000KT 1 1/4SM BR CLR 14/14 A2985 930 96 1100 000/00 RMK AO2 TWR VIS 2
14837KMSN MSN20030613060510906/13/03 06:05:31  5-MIN KMSN 131205Z 00000KT 1 1/2SM BR CLR 14/14 A2985 930 96 1100 000/00 RMK AO2 TWR VIS 2
14837KMSN MSN20030613061010906/13/03 06:10:31  5-MIN KMSN 131210Z 00000KT 1 1/2SM BR CLR 15/14 A2985 930 96 1200 000/00 RMK AO2 TWR VIS 2
14837KMSN MSN20030613061510906/13/03 06:15:31  5-MIN KMSN 131215Z 00000KT 1 1/2SM BR CLR 16/14 A2985 930 93 1200 000/00 RMK AO2 TWR VIS 2
14837KMSN MSN20030613062010906/13/03 06:20:31  5-MIN KMSN 131220Z 31003KT 1 1/2SM BR CLR 16/15 A2985 930 93 1300 310/03 RMK AO2 TWR VIS 2
14837KMSN MSN20030613062511206/13/03 06:25:31  5-MIN KMSN 131225Z 00000KT 1 3/4SM BR FEW043 16/14 A2986 920 90 1300 000/00 RMK AO2 TWR VIS 2
14837KMSN MSN20030613063009806/13/03 06:30:31  5-MIN KMSN 131230Z 00000KT 2SM BR FEW043 16/15 A2986 920 93 1300 000/00 RMK AO2
14837KMSN MSN20030613063509806/13/03 06:35:31  5-MIN KMSN 131235Z 00000KT 2SM BR FEW043 17/15 A2986 920 90 1400 000/00 RMK AO2
14837KMSN MSN20030613064011206/13/03 06:40:31  5-MIN KMSN 131240Z 00000KT 2SM BR FEW043 17/15 A2985 930 90 1400 000/00 RMK AO2 SFC VIS 2 1/2
14837KMSN MSN20030613064511206/13/03 06:45:31  5-MIN KMSN 131245Z 00000KT 2SM BR FEW043 17/15 A2986 920 90 1400 000/00 RMK AO2 SFC VIS 2 1/2
14837KMSN MSN20030613065012906/13/03 06:50:31  5-MIN KMSN 131250Z 14003KT 2 1/2SM BR FEW043 17/15 A2986 920 90 1400 140/03 RMK AO2 TWR VIS 3 SLP108 T01670150
14837KMSN MSN20030613065511206/13/03 06:55:31  5-MIN KMSN 131255Z 16005KT 2 1/2SM BR FEW043 17/15 A2986 920 87 1400 160/05 RMK AO2 TWR VIS 3
14837KMSN MSN20030613070009506/13/03 07:00:31  5-MIN KMSN 131300Z 16005KT 3SM BR CLR 17/15 A2986 920 87 1400 160/05 RMK AO2
14837KMSN MSN20030613070509506/13/03 07:05:31  5-MIN KMSN 131305Z 17004KT 3SM BR CLR 17/15 A2985 930 87 1400 170/04 RMK AO2
14837KMSN MSN20030613071009506/13/03 07:10:31  5-MIN KMSN 131310Z 12003KT 3SM BR CLR 17/15 A2985 930 87 1400 120/03 RMK AO2
14837KMSN MSN20030613071510506/13/03 07:15:31  5-MIN KMSN 131315Z 13003KT 3SM BR CLR 17/15 A2985 930 87 1400 130/03 RMK AO2 SFC VIS 3
14837KMSN MSN20030613072010506/13/03 07:20:31  5-MIN KMSN 131320Z 00000KT 3SM HZ CLR 18/15 A2985 930 83 1500 000/00 RMK AO2 SFC VIS 4
14837KMSN MSN20030613072510506/13/03 07:25:31  5-MIN KMSN 131325Z 10004KT 3SM HZ CLR 18/15 A2985 930 83 1500 100/04 RMK AO2 SFC VIS 4
14837KMSN MSN20030613073010506/13/03 07:30:31  5-MIN KMSN 131330Z 00000KT 3SM HZ CLR 18/15 A2985 930 83 1500 000/00 RMK AO2 SFC VIS 4
14837KMSN MSN20030613073510506/13/03 07:35:31  5-MIN KMSN 131335Z 09003KT 3SM HZ CLR 18/15 A2985 930 81 1600 090/03 RMK AO2 SFC VIS 4
14837KMSN MSN20030613074010506/13/03 07:40:31  5-MIN KMSN 131340Z 11003KT 3SM HZ CLR 18/15 A2986 920 81 1600 110/03 RMK AO2 SFC VIS 4
14837KMSN MSN20030613074510506/13/03 07:45:31  5-MIN KMSN 131345Z 00000KT 3SM HZ CLR 18/15 A2986 920 81 1600 000/00 RMK AO2 SFC VIS 4
14837KMSN MSN20030613075012206/13/03 07:50:31  5-MIN KMSN 131350Z 00000KT 3SM HZ CLR 19/15 A2986 920 78 1600 000/00 RMK AO2 SFC VIS 4 SLP110 T01890150
14837KMSN MSN20030613075510506/13/03 07:55:31  5-MIN KMSN 131355Z 00000KT 3SM HZ CLR 19/15 A2987 910 78 1600 000/00 RMK AO2 SFC VIS 4
14837KMSN MSN20030613080010806/13/03 08:00:31  5-MIN KMSN 131400Z 00000KT 3SM HZ SCT060 19/15 A2987 910 78 1600 000/00 RMK AO2 SFC VIS 4
14837KMSN MSN20030613080510806/13/03 08:05:31  5-MIN KMSN 131405Z 00000KT 3SM HZ BKN060 19/15 A2987 910 75 1700 000/00 RMK AO2 SFC VIS 5
14837KMSN MSN20030613081010806/13/03 08:10:31  5-MIN KMSN 131410Z 00000KT 3SM HZ BKN060 19/15 A2987 910 75 1700 000/00 RMK AO2 SFC VIS 5
14837KMSN MSN20030613081511506/13/03 08:15:31  5-MIN KMSN 131415Z 00000KT 3SM HZ BKN060 BKN075 19/15 A2987 910 75 1700 000/00 RMK AO2 SFC VIS 5
14837KMSN MSN20030613082010506/13/03 08:20:31  5-MIN KMSN 131420Z 14004KT 5SM HZ BKN060 OVC075 19/15 A2987 910 75 1700 140/04 RMK AO2
14837KMSN MSN20030613082510506/13/03 08:25:31  5-MIN KMSN 131425Z VRB03KT 5SM HZ SCT060 OVC075 19/15 A2987 920 75 1700 VRB/03 RMK AO2
14837KMSN MSN20030613083010506/13/03 08:30:31  5-MIN KMSN 131430Z 11004KT 5SM HZ SCT060 OVC075 19/15 A2986 920 75 1700 110/04 RMK AO2
14837KMSN MSN20030613083510506/13/03 08:35:31  5-MIN KMSN 131435Z 11004KT 6SM HZ FEW060 OVC075 19/15 A2986 920 75 1700 110/04 RMK AO2
14837KMSN MSN20030613084009806/13/03 08:40:31  5-MIN KMSN 131440Z 09003KT 6SM HZ OVC075 19/15 A2986 920 75 1700 090/03 RMK AO2
14837KMSN MSN20030613084509806/13/03 08:45:31  5-MIN KMSN 131445Z 00000KT 6SM HZ OVC075 20/15 A2987 910 72 1700 000/00 RMK AO2
14837KMSN MSN20030613085011806/13/03 08:50:31  5-MIN KMSN 131450Z 00000KT 7SM BKN075 20/15 A2987 910 72 1700 000/00 RMK AO2 SLP111 T02000150 53008
14837KMSN MSN20030613085510206/13/03 08:55:31  5-MIN KMSN 131455Z 00000KT 7SM FEW060 BKN075 21/15 A2987 910 70 1800 000/00 RMK AO2
14837KMSN MSN20030613090010206/13/03 09:00:31  5-MIN KMSN 131500Z 00000KT 7SM FEW060 BKN075 21/15 A2987 910 70 1800 000/00 RMK AO2
14837KMSN MSN20030613090510206/13/03 09:05:31  5-MIN KMSN 131505Z 17003KT 7SM SCT060 BKN075 21/16 A2987 910 70 1900 170/03 RMK AO2
14837KMSN MSN20030613091010206/13/03 09:10:31  5-MIN KMSN 131510Z VRB03KT 7SM SCT060 BKN075 21/15 A2987 910 70 1800 VRB/03 RMK AO2
14837KMSN MSN20030613091509506/13/03 09:15:31  5-MIN KMSN 131515Z 00000KT 7SM SCT060 21/15 A2987 910 70 1800 000/00 RMK AO2
14837KMSN MSN20030613092009506/13/03 09:20:31  5-MIN KMSN 131520Z 00000KT 7SM SCT060 21/15 A2987 910 68 1900 000/00 RMK AO2
14837KMSN MSN20030613092509506/13/03 09:25:31  5-MIN KMSN 131525Z 00000KT 7SM BKN060 21/15 A2987 920 68 1900 000/00 RMK AO2
14837KMSN MSN20030613093009506/13/03 09:30:31  5-MIN KMSN 131530Z 16004KT 7SM BKN065 21/15 A2986 920 68 1900 160/04 RMK AO2
14837KMSN MSN20030613093509506/13/03 09:35:31  5-MIN KMSN 131535Z 00000KT 7SM SCT065 21/15 A2987 920 68 1900 000/00 RMK AO2
14837KMSN MSN20030613094009506/13/03 09:40:31  5-MIN KMSN 131540Z VRB04KT 7SM SCT065 22/15 A2987 910 65 1900 VRB/04 RMK AO2
14837KMSN MSN20030613094509506/13/03 09:45:31  5-MIN KMSN 131545Z 10004KT 8SM FEW070 22/15 A2986 920 65 1900 100/04 RMK AO2
14837KMSN MSN20030613095011206/13/03 09:50:31  5-MIN KMSN 131550Z 10005KT 8SM FEW070 22/16 A2986 920 65 2000 100/05 RMK AO2 SLP110 T02220156
14837KMSN MSN20030613095510206/13/03 09:55:31  5-MIN KMSN 131555Z 09003KT 8SM FEW035 SCT070 22/15 A2986 920 63 2000 090/03 RMK AO2
14837KMSN MSN20030613100009206/13/03 10:00:31  5-MIN KMSN 131600Z 00000KT 8SM CLR 22/15 A2986 920 63 2000 000/00 RMK AO2
14837KMSN MSN20030613100509506/13/03 10:05:31  5-MIN KMSN 131605Z 00000KT 8SM SCT060 22/15 A2986 920 63 2000 000/00 RMK AO2
14837KMSN MSN20030613101009506/13/03 10:10:31  5-MIN KMSN 131610Z 00000KT 8SM BKN055 22/15 A2986 920 65 1900 000/00 RMK AO2
14837KMSN MSN20030613101509506/13/03 10:15:31  5-MIN KMSN 131615Z 24003KT 8SM SCT055 22/16 A2986 920 65 2000 240/03 RMK AO2
14837KMSN MSN20030613102009506/13/03 10:20:31  5-MIN KMSN 131620Z VRB03KT 8SM SCT055 23/16 A2986 920 63 2100 VRB/03 RMK AO2
14837KMSN MSN20030613102509506/13/03 10:25:31  5-MIN KMSN 131625Z VRB04KT 8SM SCT055 23/16 A2986 920 63 2100 VRB/04 RMK AO2
14837KMSN MSN20030613103009506/13/03 10:30:31  5-MIN KMSN 131630Z 05004KT 8SM FEW055 23/16 A2986 920 61 2100 050/04 RMK AO2
14837KMSN MSN20030613103509506/13/03 10:35:31  5-MIN KMSN 131635Z VRB03KT 8SM FEW055 23/16 A2986 920 61 2100 VRB/03 RMK AO2
14837KMSN MSN20030613104009206/13/03 10:40:31  5-MIN KMSN 131640Z 03006KT 8SM CLR 23/16 A2986 920 61 2100 030/06 RMK AO2
14837KMSN MSN20030613104509206/13/03 10:45:31  5-MIN KMSN 131645Z VRB04KT 8SM CLR 23/16 A2986 920 61 2100 VRB/04 RMK AO2
14837KMSN MSN20030613105010906/13/03 10:50:31  5-MIN KMSN 131650Z VRB03KT 8SM CLR 23/16 A2986 920 61 2100 VRB/03 RMK AO2 SLP108 T02330156
14837KMSN MSN20030613105509506/13/03 10:55:31  5-MIN KMSN 131655Z 00000KT 8SM FEW035 23/16 A2986 920 61 2100 000/00 RMK AO2
14837KMSN MSN20030613110009206/13/03 11:00:31  5-MIN KMSN 131700Z VRB04KT 9SM CLR 24/16 A2985 920 61 2200 VRB/04 RMK AO2
14837KMSN MSN20030613110509206/13/03 11:05:31  5-MIN KMSN 131705Z VRB03KT 9SM CLR 24/16 A2985 930 59 2200 VRB/03 RMK AO2
14837KMSN MSN20030613111009206/13/03 11:10:31  5-MIN KMSN 131710Z 06005KT 9SM CLR 24/16 A2985 930 59 2200 060/05 RMK AO2
14837KMSN MSN20030613111509206/13/03 11:15:31  5-MIN KMSN 131715Z VRB03KT 9SM CLR 24/16 A2985 930 59 2300 VRB/03 RMK AO2
14837KMSN MSN20030613112009506/13/03 11:20:31  5-MIN KMSN 131720Z 00000KT 8SM FEW035 24/15 A2985 930 57 2200 000/00 RMK AO2
14837KMSN MSN20030613112509506/13/03 11:25:31  5-MIN KMSN 131725Z VRB04KT 8SM FEW035 24/16 A2985 930 57 2300 VRB/04 RMK AO2
14837KMSN MSN20030613113009506/13/03 11:30:31  5-MIN KMSN 131730Z 07006KT 8SM FEW035 24/16 A2985 930 57 2300 070/06 RMK AO2
14837KMSN MSN20030613113509506/13/03 11:35:31  5-MIN KMSN 131735Z VRB03KT 9SM FEW037 24/16 A2985 930 57 2300 VRB/03 RMK AO2
14837KMSN MSN20030613114009506/13/03 11:40:31  5-MIN KMSN 131740Z VRB04KT 9SM SCT037 25/15 A2985 930 53 2300 VRB/04 RMK AO2
14837KMSN MSN20030613114509506/13/03 11:45:31  5-MIN KMSN 131745Z VRB04KT 9SM SCT037 24/15 A2985 930 55 2300 VRB/04 RMK AO2
14837KMSN MSN20030613115013006/13/03 11:50:31  5-MIN KMSN 131750Z VRB03KT 9SM SCT037 25/16 A2985 930 55 2300 VRB/03 RMK AO2 SLP103 T02500156 10250 20144 51007
14837KMSN MSN20030613115509506/13/03 11:55:31  5-MIN KMSN 131755Z 01006KT 9SM BKN037 25/15 A2984 940 53 2300 010/06 RMK AO2
14837KMSN MSN20030613120010206/13/03 12:00:31  5-MIN KMSN 131800Z 36006KT 8SM SCT037 BKN050 26/16 A2984 940 53 2400 360/06 RMK AO2
14837KMSN MSN20030613120510206/13/03 12:05:31  5-MIN KMSN 131805Z 00000KT 8SM SCT037 BKN050 24/15 A2984 940 55 2300 000/00 RMK AO2
14837KMSN MSN20030613121010206/13/03 12:10:31  5-MIN KMSN 131810Z 06004KT 8SM FEW037 BKN050 24/15 A2984 930 55 2300 050/04 RMK AO2
14837KMSN MSN20030613121510206/13/03 12:15:31  5-MIN KMSN 131815Z 04006KT 9SM FEW039 BKN055 25/15 A2985 930 53 2300 040/06 RMK AO2
14837KMSN MSN20030613122010306/13/03 12:20:31  5-MIN KMSN 131820Z VRB03KT 10SM FEW039 BKN050 26/15 A2985 930 50 2500 VRB/03 RMK AO2
14837KMSN MSN20030613122509606/13/03 12:25:31  5-MIN KMSN 131825Z VRB03KT 10SM BKN050 26/14 A2984 940 49 2400 VRB/03 RMK AO2
14837KMSN MSN20030613123010306/13/03 12:30:31  5-MIN KMSN 131830Z 00000KT 10SM BKN045 BKN055 25/15 A2984 940 53 2300 000/00 RMK AO2
14837KMSN MSN20030613123510206/13/03 12:35:31  5-MIN KMSN 131835Z VRB04KT 9SM BKN045 BKN055 24/14 A2984 940 53 2300 VRB/04 RMK AO2
14837KMSN MSN20030613124009506/13/03 12:40:31  5-MIN KMSN 131840Z VRB04KT 9SM BKN047 25/15 A2984 940 53 2400 VRB/04 RMK AO2
14837KMSN MSN20030613124510306/13/03 12:45:31  5-MIN KMSN 131845Z 08007KT 10SM BKN045 BKN050 26/15 A2984 940 50 2500 080/07 RMK AO2
14837KMSN MSN20030613125011306/13/03 12:50:31  5-MIN KMSN 131850Z 10005KT 10SM BKN047 25/14 A2984 940 51 2300 090/05 RMK AO2 SLP101 T02500144
14837KMSN MSN20030613125509606/13/03 12:55:31  5-MIN KMSN 131855Z 08003KT 10SM BKN045 25/14 A2984 940 51 2300 080/03 RMK AO2
14837KMSN MSN20030613130009606/13/03 13:00:31  5-MIN KMSN 131900Z VRB03KT 10SM BKN045 26/14 A2984 940 49 2400 VRB/03 RMK AO2
14837KMSN MSN20030613130509606/13/03 13:05:31  5-MIN KMSN 131905Z 00000KT 10SM SCT047 26/14 A2984 940 49 2400 000/00 RMK AO2
14837KMSN MSN20030613131009606/13/03 13:10:31  5-MIN KMSN 131910Z VRB03KT 10SM SCT047 26/15 A2984 940 50 2500 VRB/03 RMK AO2
14837KMSN MSN20030613131509506/13/03 13:15:31  5-MIN KMSN 131915Z 05004KT 9SM BKN047 25/14 A2984 940 51 2300 050/04 RMK AO2
14837KMSN MSN20030613132009506/13/03 13:20:31  5-MIN KMSN 131920Z VRB04KT 9SM BKN047 26/15 A2984 940 51 2400 VRB/04 RMK AO2
14837KMSN MSN20030613132509506/13/03 13:25:31  5-MIN KMSN 131925Z VRB05KT 9SM BKN047 26/15 A2984 940 51 2400 VRB/05 RMK AO2
14837KMSN MSN20030613133010206/13/03 13:30:31  5-MIN KMSN 131930Z 00000KT 9SM BKN047 BKN060 25/15 A2984 940 53 2300 000/00 RMK AO2
14837KMSN MSN20030613133510206/13/03 13:35:31  5-MIN KMSN 131935Z 09005KT 9SM BKN047 BKN060 25/15 A2984 930 53 2300 090/05 RMK AO2
14837KMSN MSN20030613134009506/13/03 13:40:31  5-MIN KMSN 131940Z 10006KT 9SM BKN047 26/15 A2984 940 51 2400 100/06 RMK AO2
14837KMSN MSN20030613134510206/13/03 13:45:31  5-MIN KMSN 131945Z 00000KT 9SM SCT047 SCT060 26/15 A2984 940 50 2500 000/00 RMK AO2
14837KMSN MSN20030613135012006/13/03 13:50:31  5-MIN KMSN 131950Z VRB04KT 10SM FEW047 SCT060 26/15 A2984 940 50 2500 VRB/04 RMK AO2 SLP102 T02610150
14837KMSN MSN20030613135509606/13/03 13:55:31  5-MIN KMSN 131955Z 00000KT 10SM BKN047 26/15 A2984 940 50 2500 000/00 RMK AO2
14837KMSN MSN20030613140011106/13/03 14:00:31  5-MIN KMSN 132000Z 09007KT 040V130 9SM BKN047 26/16 A2984 940 51 2500 090/07 040V130 RMK AO2
14837KMSN MSN20030613140509506/13/03 14:05:31  5-MIN KMSN 132005Z 06007KT 9SM BKN047 26/16 A2984 940 51 2500 060/07 RMK AO2
14837KMSN MSN20030613141009506/13/03 14:10:31  5-MIN KMSN 132010Z 08003KT 9SM BKN047 25/15 A2984 940 53 2300 080/03 RMK AO2
14837KMSN MSN20030613141509506/13/03 14:15:31  5-MIN KMSN 132015Z VRB03KT 9SM SCT050 26/15 A2984 940 51 2400 VRB/03 RMK AO2
14837KMSN MSN20030613142009506/13/03 14:20:31  5-MIN KMSN 132020Z 00000KT 9SM FEW050 26/14 A2984 940 48 2500 000/00 RMK AO2
14837KMSN MSN20030613142509506/13/03 14:25:31  5-MIN KMSN 132025Z 18003KT 9SM FEW050 26/15 A2984 940 51 2400 180/03 RMK AO2
14837KMSN MSN20030613143009606/13/03 14:30:31  5-MIN KMSN 132030Z 00000KT 10SM FEW055 26/15 A2984 940 50 2500 000/00 RMK AO2
14837KMSN MSN20030613143509606/13/03 14:35:31  5-MIN KMSN 132035Z VRB03KT 10SM SCT055 27/15 A2984 940 48 2500 VRB/03 RMK AO2
14837KMSN MSN20030613144010206/13/03 14:40:31  5-MIN KMSN 132040Z 06005KT 9SM SCT048 BKN065 27/16 A2983 940 50 2500 060/05 RMK AO2
14837KMSN MSN20030613144511806/13/03 14:45:31  5-MIN KMSN 132045Z 06008KT 030V100 9SM SCT048 BKN060 26/15 A2983 950 51 2400 060/08 030V100 RMK AO2
14837KMSN MSN20030613145012506/13/03 14:50:31  5-MIN KMSN 132050Z 07005KT 9SM SCT048 BKN060 26/15 A2983 950 51 2400 070/05 RMK AO2 SLP099 T02560150 58008
14837KMSN MSN20030613145509606/13/03 14:55:31  5-MIN KMSN 132055Z 05005KT 10SM SCT048 26/15 A2983 940 50 2500 040/05 RMK AO2
14837KMSN MSN20030613150010206/13/03 15:00:31  5-MIN KMSN 132100Z 00000KT 9SM FEW048 SCT055 27/15 A2983 950 48 2500 000/00 RMK AO2
14837KMSN MSN20030613150509606/13/03 15:05:31  5-MIN KMSN 132105Z VRB03KT 10SM SCT048 27/15 A2983 950 48 2500 VRB/03 RMK AO2
14837KMSN MSN20030613151009606/13/03 15:10:31  5-MIN KMSN 132110Z 11006KT 10SM SCT048 27/16 A2983 950 50 2500 110/06 RMK AO2
14837KMSN MSN20030613151509606/13/03 15:15:31  5-MIN KMSN 132115Z 08004KT 10SM SCT048 27/15 A2983 950 48 2500 080/04 RMK AO2
14837KMSN MSN20030613152009606/13/03 15:20:31  5-MIN KMSN 132120Z 00000KT 10SM SCT048 27/14 A2983 950 46 2500 000/00 RMK AO2
14837KMSN MSN20030613152509606/13/03 15:25:31  5-MIN KMSN 132125Z 00000KT 10SM SCT048 27/14 A2983 950 46 2500 000/00 RMK AO2
14837KMSN MSN20030613153009606/13/03 15:30:31  5-MIN KMSN 132130Z 14003KT 10SM SCT048 27/15 A2983 950 48 2500 130/03 RMK AO2
14837KMSN MSN20030613153509606/13/03 15:35:31  5-MIN KMSN 132135Z 00000KT 10SM SCT048 26/14 A2983 950 48 2500 000/00 RMK AO2
14837KMSN MSN20030613154009606/13/03 15:40:31  5-MIN KMSN 132140Z 08006KT 10SM SCT048 27/15 A2983 950 48 2500 080/06 RMK AO2
14837KMSN MSN20030613154510306/13/03 15:45:31  5-MIN KMSN 132145Z VRB03KT 10SM FEW048 SCT060 26/15 A2983 950 50 2500 VRB/03 RMK AO2
14837KMSN MSN20030613155012006/13/03 15:50:31  5-MIN KMSN 132150Z 00000KT 10SM FEW048 SCT060 27/15 A2982 950 48 2600 000/00 RMK AO2 SLP096 T02670150
14837KMSN MSN20030613155509606/13/03 15:55:31  5-MIN KMSN 132155Z 00000KT 10SM SCT060 27/14 A2982 950 46 2600 000/00 RMK AO2
14837KMSN MSN20030613160009606/13/03 16:00:31  5-MIN KMSN 132200Z 00000KT 10SM SCT060 27/14 A2982 950 46 2600 000/00 RMK AO2
14837KMSN MSN20030613160509606/13/03 16:05:31  5-MIN KMSN 132205Z VRB03KT 10SM SCT060 27/14 A2982 950 46 2600 VRB/03 RMK AO2
14837KMSN MSN20030613161009606/13/03 16:10:31  5-MIN KMSN 132210Z 00000KT 10SM SCT060 27/14 A2982 950 46 2600 000/00 RMK AO2
14837KMSN MSN20030613161509606/13/03 16:15:31  5-MIN KMSN 132215Z 00000KT 10SM SCT060 27/14 A2982 960 45 2600 000/00 RMK AO2
14837KMSN MSN20030613162009606/13/03 16:20:31  5-MIN KMSN 132220Z 00000KT 10SM SCT060 27/15 A2982 960 46 2600 000/00 RMK AO2
14837KMSN MSN20030613162509606/13/03 16:25:31  5-MIN KMSN 132225Z VRB03KT 10SM SCT060 26/14 A2982 950 48 2500 VRB/03 RMK AO2
14837KMSN MSN20030613163009606/13/03 16:30:31  5-MIN KMSN 132230Z 00000KT 10SM SCT060 26/14 A2983 950 48 2500 000/00 RMK AO2
14837KMSN MSN20030613163509606/13/03 16:35:31  5-MIN KMSN 132235Z 00000KT 10SM SCT060 26/14 A2983 950 48 2500 000/00 RMK AO2
14837KMSN MSN20030613164009606/13/03 16:40:31  5-MIN KMSN 132240Z 00000KT 10SM SCT060 26/14 A2983 950 48 2500 000/00 RMK AO2
14837KMSN MSN20030613164509606/13/03 16:45:31  5-MIN KMSN 132245Z VRB03KT 10SM SCT050 26/15 A2983 950 50 2500 VRB/03 RMK AO2
14837KMSN MSN20030613165011306/13/03 16:50:31  5-MIN KMSN 132250Z 30003KT 10SM SCT050 27/15 A2983 950 48 2600 300/03 RMK AO2 SLP096 T02670150
14837KMSN MSN20030613165510306/13/03 16:55:31  5-MIN KMSN 132255Z 00000KT 10SM BKN055 BKN065 27/15 A2983 950 48 2600 000/00 RMK AO2
14837KMSN MSN20030613170010306/13/03 17:00:31  5-MIN KMSN 132300Z 00000KT 10SM BKN055 BKN065 27/15 A2983 950 48 2600 000/00 RMK AO2
14837KMSN MSN20030613170510306/13/03 17:05:31  5-MIN KMSN 132305Z 00000KT 10SM BKN055 BKN065 27/15 A2982 950 48 2600 000/00 RMK AO2
14837KMSN MSN20030613171010306/13/03 17:10:31  5-MIN KMSN 132310Z 09004KT 10SM BKN055 BKN065 27/15 A2983 950 48 2600 090/04 RMK AO2
14837KMSN MSN20030613171510306/13/03 17:15:31  5-MIN KMSN 132315Z 07004KT 10SM BKN055 BKN065 26/15 A2983 950 50 2500 070/04 RMK AO2
14837KMSN MSN20030613172009606/13/03 17:20:31  5-MIN KMSN 132320Z 06004KT 10SM SCT060 26/15 A2983 950 51 2400 050/04 RMK AO2
14837KMSN MSN20030613172509606/13/03 17:25:31  5-MIN KMSN 132325Z 00000KT 10SM SCT060 26/15 A2983 950 51 2400 000/00 RMK AO2
14837KMSN MSN20030613173009606/13/03 17:30:31  5-MIN KMSN 132330Z 00000KT 10SM SCT060 26/16 A2983 950 53 2400 000/00 RMK AO2
14837KMSN MSN20030613173509606/13/03 17:35:31  5-MIN KMSN 132335Z 00000KT 10SM SCT060 25/16 A2983 950 57 2400 000/00 RMK AO2
14837KMSN MSN20030613174009606/13/03 17:40:31  5-MIN KMSN 132340Z 00000KT 10SM SCT060 24/17 A2983 950 61 2300 000/00 RMK AO2
14837KMSN MSN20030613174509606/13/03 17:45:31  5-MIN KMSN 132345Z 00000KT 10SM SCT060 24/17 A2983 950 66 2200 000/00 RMK AO2
14837KMSN MSN20030613175013106/13/03 17:50:31  5-MIN KMSN 132350Z 00000KT 10SM SCT060 24/17 A2983 950 63 2200 000/00 RMK AO2 SLP099 T02390167 10272 20239 58004
14837KMSN MSN20030613175509606/13/03 17:55:31  5-MIN KMSN 132355Z 00000KT 10SM FEW060 24/16 A2983 950 61 2200 000/00 RMK AO2
14837KMSN MSN20030613180009606/13/03 18:00:31  5-MIN KMSN 140000Z 00000KT 10SM FEW060 23/17 A2983 950 66 2200 000/00 RMK AO2
14837KMSN MSN20030613180509606/13/03 18:05:31  5-MIN KMSN 140005Z 00000KT 10SM FEW060 23/17 A2984 940 66 2200 000/00 RMK AO2
14837KMSN MSN20030613181009506/13/03 18:10:31  5-MIN KMSN 140010Z 00000KT 9SM FEW060 23/16 A2983 940 63 2200 000/00 RMK AO2
14837KMSN MSN20030613181509606/13/03 18:15:31  5-MIN KMSN 140015Z 00000KT 10SM FEW060 23/16 A2983 940 63 2200 000/00 RMK AO2
14837KMSN MSN20030613182009606/13/03 18:20:31  5-MIN KMSN 140020Z 00000KT 10SM FEW060 23/17 A2983 940 68 2100 000/00 RMK AO2
14837KMSN MSN20030613182509606/13/03 18:25:31  5-MIN KMSN 140025Z 00000KT 10SM SCT060 23/17 A2983 940 70 2100 000/00 RMK AO2
14837KMSN MSN20030613183009606/13/03 18:30:31  5-MIN KMSN 140030Z 00000KT 10SM SCT060 23/17 A2984 940 70 2100 000/00 RMK AO2
14837KMSN MSN20030613183509606/13/03 18:35:31  5-MIN KMSN 140035Z 27003KT 10SM SCT060 23/17 A2984 940 70 2100 270/03 RMK AO2
14837KMSN MSN20030613184009606/13/03 18:40:31  5-MIN KMSN 140040Z 00000KT 10SM SCT060 24/16 A2984 940 61 2200 000/00 RMK AO2
14837KMSN MSN20030613184509606/13/03 18:45:31  5-MIN KMSN 140045Z 00000KT 10SM SCT050 24/16 A2984 940 61 2200 000/00 RMK AO2
14837KMSN MSN20030613185011306/13/03 18:50:31  5-MIN KMSN 140050Z 00000KT 10SM SCT050 23/16 A2984 940 63 2200 000/00 RMK AO2 SLP100 T02330161
14837KMSN MSN20030613185509606/13/03 18:55:31  5-MIN KMSN 140055Z 00000KT 10SM SCT060 23/17 A2984 940 70 2100 000/00 RMK AO2
14837KMSN MSN20030613190009606/13/03 19:00:31  5-MIN KMSN 140100Z 00000KT 10SM BKN055 23/17 A2984 940 68 2100 000/00 RMK AO2
14837KMSN MSN20030613190509606/13/03 19:05:31  5-MIN KMSN 140105Z 00000KT 10SM SCT060 23/17 A2984 940 68 2100 000/00 RMK AO2
14837KMSN MSN20030613191009606/13/03 19:10:31  5-MIN KMSN 140110Z 00000KT 10SM SCT060 22/17 A2984 940 70 2000 000/00 RMK AO2
14837KMSN MSN20030613191509506/13/03 19:15:31  5-MIN KMSN 140115Z 00000KT 8SM SCT055 22/17 A2984 940 70 2000 000/00 RMK AO2
14837KMSN MSN20030613192009506/13/03 19:20:31  5-MIN KMSN 140120Z 06003KT 8SM FEW055 23/16 A2984 940 63 2200 060/03 RMK AO2
14837KMSN MSN20030613192509506/13/03 19:25:31  5-MIN KMSN 140125Z 00000KT 8SM FEW055 23/17 A2984 940 68 2100 000/00 RMK AO2
14837KMSN MSN20030613193009506/13/03 19:30:31  5-MIN KMSN 140130Z 00000KT 8SM FEW055 21/17 A2984 940 75 1900 000/00 RMK AO2
14837KMSN MSN20030613193509506/13/03 19:35:31  5-MIN KMSN 140135Z 00000KT 8SM FEW055 22/16 A2984 940 70 2000 000/00 RMK AO2
14837KMSN MSN20030613194009206/13/03 19:40:31  5-MIN KMSN 140140Z 00000KT 8SM CLR 21/16 A2984 940 73 1900 000/00 RMK AO2
14837KMSN MSN20030613194509206/13/03 19:45:31  5-MIN KMSN 140145Z 00000KT 8SM CLR 20/16 A2984 940 78 1800 000/00 RMK AO2
14837KMSN MSN20030613195011206/13/03 19:50:31  5-MIN KMSN 140150Z 00000KT 6SM HZ CLR 20/16 A2984 940 78 1800 000/00 RMK AO2 SLP102 T02000161
14837KMSN MSN20030613195509506/13/03 19:55:31  5-MIN KMSN 140155Z 00000KT 6SM HZ CLR 21/16 A2985 930 75 1800 000/00 RMK AO2
14837KMSN MSN20030613200009506/13/03 20:00:31  5-MIN KMSN 140200Z 00000KT 6SM HZ CLR 20/16 A2985 930 78 1800 000/00 RMK AO2
14837KMSN MSN20030613200509506/13/03 20:05:31  5-MIN KMSN 140205Z 00000KT 5SM HZ CLR 19/16 A2985 930 81 1700 000/00 RMK AO2
14837KMSN MSN20030613201009506/13/03 20:10:31  5-MIN KMSN 140210Z 00000KT 5SM HZ CLR 19/16 A2985 930 81 1700 000/00 RMK AO2
14837KMSN MSN20030613201509506/13/03 20:15:31  5-MIN KMSN 140215Z 00000KT 5SM HZ CLR 19/16 A2985 930 81 1700 000/00 RMK AO2
14837KMSN MSN20030613202009506/13/03 20:20:31  5-MIN KMSN 140220Z 09003KT 5SM HZ CLR 20/16 A2985 930 75 1800 090/03 RMK AO2
14837KMSN MSN20030613202509506/13/03 20:25:31  5-MIN KMSN 140225Z 00000KT 5SM HZ CLR 19/16 A2986 920 78 1700 000/00 RMK AO2
14837KMSN MSN20030613203009506/13/03 20:30:31  5-MIN KMSN 140230Z 00000KT 5SM HZ CLR 20/16 A2986 920 75 1800 000/00 RMK AO2
14837KMSN MSN20030613203509506/13/03 20:35:31  5-MIN KMSN 140235Z 00000KT 5SM HZ CLR 20/16 A2986 920 75 1800 000/00 RMK AO2
14837KMSN MSN20030613204009506/13/03 20:40:31  5-MIN KMSN 140240Z 00000KT 5SM HZ CLR 20/16 A2987 910 75 1700 000/00 RMK AO2
14837KMSN MSN20030613204509506/13/03 20:45:31  5-MIN KMSN 140245Z 00000KT 8SM FEW050 19/16 A2987 910 81 1600 000/00 RMK AO2
14837KMSN MSN20030613205011806/13/03 20:50:31  5-MIN KMSN 140250Z 00000KT 8SM FEW050 19/16 A2987 910 81 1600 000/00 RMK AO2 SLP113 T01890156 55000
14837KMSN MSN20030613205509506/13/03 20:55:31  5-MIN KMSN 140255Z 00000KT 8SM FEW050 19/16 A2988 900 81 1600 000/00 RMK AO2
14837KMSN MSN20030613210009506/13/03 21:00:31  5-MIN KMSN 140300Z 00000KT 8SM FEW050 18/16 A2988 900 84 1500 000/00 RMK AO2
14837KMSN MSN20030613210509506/13/03 21:05:31  5-MIN KMSN 140305Z 00000KT 8SM FEW050 18/16 A2988 900 84 1500 000/00 RMK AO2
14837KMSN MSN20030613211009506/13/03 21:10:31  5-MIN KMSN 140310Z 00000KT 8SM FEW050 19/16 A2988 900 78 1700 000/00 RMK AO2
14837KMSN MSN20030613211509506/13/03 21:15:31  5-MIN KMSN 140315Z 19003KT 8SM FEW050 19/15 A2988 900 78 1600 190/03 RMK AO2
14837KMSN MSN20030613212009506/13/03 21:20:31  5-MIN KMSN 140320Z 00000KT 8SM FEW050 19/15 A2988 900 78 1600 000/00 RMK AO2
14837KMSN MSN20030613212509506/13/03 21:25:31  5-MIN KMSN 140325Z 00000KT 8SM FEW050 19/15 A2988 900 78 1600 000/00 RMK AO2
14837KMSN MSN20030613213009206/13/03 21:30:31  5-MIN KMSN 140330Z 00000KT 8SM CLR 19/15 A2988 900 78 1600 000/00 RMK AO2
14837KMSN MSN20030613213509206/13/03 21:35:31  5-MIN KMSN 140335Z 00000KT 8SM CLR 18/16 A2989 900 84 1500 000/00 RMK AO2
14837KMSN MSN20030613214009206/13/03 21:40:31  5-MIN KMSN 140340Z 00000KT 8SM CLR 19/16 A2989 890 81 1600 000/00 RMK AO2
14837KMSN MSN20030613214509206/13/03 21:45:31  5-MIN KMSN 140345Z 00000KT 8SM CLR 19/15 A2989 890 75 1700 000/00 RMK AO2
14837KMSN MSN20030613215010906/13/03 21:50:31  5-MIN KMSN 140350Z 00000KT 7SM CLR 19/15 A2990 890 78 1600 000/00 RMK AO2 SLP120 T01890150
14837KMSN MSN20030613215509206/13/03 21:55:31  5-MIN KMSN 140355Z 00000KT 8SM CLR 18/16 A2990 890 87 1500 000/00 RMK AO2
14837KMSN MSN20030613220009206/13/03 22:00:31  5-MIN KMSN 140400Z 00000KT 8SM CLR 18/16 A2990 890 84 1500 000/00 RMK AO2
14837KMSN MSN20030613220509206/13/03 22:05:31  5-MIN KMSN 140405Z 00000KT 7SM CLR 19/16 A2990 880 81 1600 000/00 RMK AO2
14837KMSN MSN20030613221009206/13/03 22:10:31  5-MIN KMSN 140410Z 00000KT 7SM CLR 18/16 A2990 880 84 1500 000/00 RMK AO2
14837KMSN MSN20030613221509206/13/03 22:15:31  5-MIN KMSN 140415Z 00000KT 7SM CLR 18/16 A2990 880 84 1500 000/00 RMK AO2
14837KMSN MSN20030613222009206/13/03 22:20:31  5-MIN KMSN 140420Z 00000KT 7SM CLR 18/16 A2990 880 84 1500 000/00 RMK AO2
14837KMSN MSN20030613222509206/13/03 22:25:31  5-MIN KMSN 140425Z 00000KT 7SM CLR 19/15 A2990 880 78 1600 000/00 RMK AO2
14837KMSN MSN20030613223009206/13/03 22:30:31  5-MIN KMSN 140430Z 00000KT 7SM CLR 17/14 A2990 880 83 1400 000/00 RMK AO2
14837KMSN MSN20030613223509206/13/03 22:35:31  5-MIN KMSN 140435Z 10005KT 7SM CLR 17/14 A2990 880 83 1400 100/05 RMK AO2
14837KMSN MSN20030613224009506/13/03 22:40:31  5-MIN KMSN 140440Z 12003KT 6SM BR CLR 16/14 A2990 880 86 1300 120/03 RMK AO2
14837KMSN MSN20030613224509506/13/03 22:45:31  5-MIN KMSN 140445Z 00000KT 6SM BR CLR 17/14 A2990 880 86 1300 000/00 RMK AO2
14837KMSN MSN20030613225011206/13/03 22:50:31  5-MIN KMSN 140450Z 00000KT 6SM HZ CLR 17/14 A2990 880 83 1400 000/00 RMK AO2 SLP122 T01720144
14837KMSN MSN20030613225509506/13/03 22:55:31  5-MIN KMSN 140455Z 00000KT 6SM HZ CLR 17/14 A2990 880 83 1400 000/00 RMK AO2
14837KMSN MSN20030613230009506/13/03 23:00:31  5-MIN KMSN 140500Z 00000KT 6SM BR CLR 17/14 A2990 880 86 1300 000/00 RMK AO2
14837KMSN MSN20030613230509506/13/03 23:05:31  5-MIN KMSN 140505Z 00000KT 6SM BR CLR 16/14 A2990 880 90 1300 000/00 RMK AO2
14837KMSN MSN20030613231009506/13/03 23:10:31  5-MIN KMSN 140510Z 00000KT 6SM BR CLR 16/14 A2990 880 90 1300 000/00 RMK AO2
14837KMSN MSN20030613231509506/13/03 23:15:31  5-MIN KMSN 140515Z 00000KT 6SM BR CLR 17/15 A2990 880 90 1300 000/00 RMK AO2
14837KMSN MSN20030613232009506/13/03 23:20:31  5-MIN KMSN 140520Z 00000KT 6SM BR CLR 17/15 A2990 880 90 1300 000/00 RMK AO2
14837KMSN MSN20030613232509506/13/03 23:25:31  5-MIN KMSN 140525Z 00000KT 6SM BR CLR 17/15 A2990 880 90 1300 000/00 RMK AO2
14837KMSN MSN20030613233009506/13/03 23:30:31  5-MIN KMSN 140530Z 16003KT 6SM BR CLR 17/15 A2990 880 87 1400 160/03 RMK AO2
14837KMSN MSN20030613233509506/13/03 23:35:31  5-MIN KMSN 140535Z 17004KT 6SM HZ CLR 18/15 A2991 880 83 1400 160/04 RMK AO2
14837KMSN MSN20030613234009506/13/03 23:40:31  5-MIN KMSN 140540Z 18003KT 6SM HZ CLR 18/15 A2991 880 83 1400 180/03 RMK AO2
14837KMSN MSN20030613234509506/13/03 23:45:31  5-MIN KMSN 140545Z 00000KT 6SM BR CLR 17/15 A2991 880 87 1400 000/00 RMK AO2
14837KMSN MSN20030613235014006/13/03 23:50:31  5-MIN KMSN 140550Z 00000KT 6SM BR CLR 17/16 A2991 880 90 1400 000/00 RMK AO2 SLP123 T01720156 10239 20161 402720117 53014
14837KMSN MSN20030613235509506/13/03 23:55:31  5-MIN KMSN 140555Z 00000KT 6SM BR CLR 18/16 A2991 880 87 1400 000/00 RMK AO2
14837KMSN MSN20030614000009506/14/03 00:00:31  5-MIN KMSN 140600Z 00000KT 6SM BR CLR 17/16 A2991 880 90 1400 000/00 RMK AO2
14837KMSN MSN20030614000509506/14/03 00:05:31  5-MIN KMSN 140605Z 00000KT 5SM BR CLR 17/15 A2991 870 90 1300 000/00 RMK AO2
14837KMSN MSN20030614001009506/14/03 00:10:31  5-MIN KMSN 140610Z 00000KT 5SM BR CLR 16/15 A2991 870 93 1200 000/00 RMK AO2
14837KMSN MSN20030614001509506/14/03 00:15:31  5-MIN KMSN 140615Z 00000KT 5SM BR CLR 16/15 A2991 870 93 1200 000/00 RMK AO2
14837KMSN MSN20030614002009506/14/03 00:20:31  5-MIN KMSN 140620Z 00000KT 5SM BR CLR 17/15 A2991 870 90 1300 000/00 RMK AO2
14837KMSN MSN20030614002509506/14/03 00:25:31  5-MIN KMSN 140625Z 00000KT 5SM BR CLR 16/15 A2991 870 93 1200 000/00 RMK AO2
14837KMSN MSN20030614003009506/14/03 00:30:31  5-MIN KMSN 140630Z 00000KT 5SM BR CLR 17/16 A2991 870 93 1300 000/00 RMK AO2
14837KMSN MSN20030614003509506/14/03 00:35:31  5-MIN KMSN 140635Z 00000KT 5SM BR CLR 17/16 A2991 870 93 1300 000/00 RMK AO2
14837KMSN MSN20030614004009506/14/03 00:40:31  5-MIN KMSN 140640Z 00000KT 5SM BR CLR 16/14 A2992 870 90 1200 000/00 RMK AO2
14837KMSN MSN20030614004509506/14/03 00:45:31  5-MIN KMSN 140645Z 00000KT 5SM BR CLR 17/15 A2991 870 90 1300 000/00 RMK AO2
14837KMSN MSN20030614005011206/14/03 00:50:31  5-MIN KMSN 140650Z 00000KT 5SM BR CLR 17/15 A2991 870 90 1300 000/00 RMK AO2 SLP125 T01670150
14837KMSN MSN20030614005509506/14/03 00:55:31  5-MIN KMSN 140655Z 00000KT 5SM BR CLR 16/15 A2991 870 93 1200 000/00 RMK AO2
14837KMSN MSN20030614010009506/14/03 01:00:31  5-MIN KMSN 140700Z 00000KT 5SM BR CLR 16/15 A2991 870 93 1200 000/00 RMK AO2
14837KMSN MSN20030614010509806/14/03 01:05:31  5-MIN KMSN 140705Z 00000KT 5SM BR FEW100 16/14 A2991 870 90 1200 000/00 RMK AO2
14837KMSN MSN20030614011009806/14/03 01:10:31  5-MIN KMSN 140710Z 00000KT 5SM BR FEW100 16/15 A2991 870 93 1200 000/00 RMK AO2
14837KMSN MSN20030614011509806/14/03 01:15:31  5-MIN KMSN 140715Z 00000KT 5SM BR SCT100 16/15 A2992 870 93 1200 000/00 RMK AO2
14837KMSN MSN20030614012009806/14/03 01:20:31  5-MIN KMSN 140720Z 00000KT 4SM BR BKN100 16/15 A2992 870 93 1200 000/00 RMK AO2
14837KMSN MSN20030614012509806/14/03 01:25:31  5-MIN KMSN 140725Z 00000KT 5SM BR BKN100 16/15 A2991 870 93 1200 000/00 RMK AO2
14837KMSN MSN20030614013009806/14/03 01:30:31  5-MIN KMSN 140730Z 00000KT 5SM BR SCT100 16/15 A2991 870 96 1200 000/00 RMK AO2
14837KMSN MSN20030614013509806/14/03 01:35:31  5-MIN KMSN 140735Z 00000KT 5SM BR SCT100 16/15 A2991 870 93 1200 000/00 RMK AO2
14837KMSN MSN20030614014009806/14/03 01:40:31  5-MIN KMSN 140740Z 00000KT 5SM BR SCT100 16/15 A2991 870 96 1200 000/00 RMK AO2
14837KMSN MSN20030614014509806/14/03 01:45:31  5-MIN KMSN 140745Z 00000KT 5SM BR FEW100 16/14 A2991 870 93 1200 000/00 RMK AO2
14837KMSN MSN20030614015011506/14/03 01:50:31  5-MIN KMSN 140750Z 00000KT 5SM BR FEW100 16/14 A2991 870 93 1200 000/00 RMK AO2 SLP124 T01560144
14837KMSN MSN20030614015509506/14/03 01:55:31  5-MIN KMSN 140755Z 00000KT 3SM BR CLR 16/15 A2991 870 93 1200 000/00 RMK AO2
14837KMSN MSN20030614020009506/14/03 02:00:31  5-MIN KMSN 140800Z 00000KT 3SM BR CLR 16/15 A2991 870 96 1200 000/00 RMK AO2
14837KMSN MSN20030614020509506/14/03 02:05:31  5-MIN KMSN 140805Z 00000KT 3SM BR CLR 16/15 A2991 870 96 1200 000/00 RMK AO2
14837KMSN MSN20030614021009506/14/03 02:10:31  5-MIN KMSN 140810Z 00000KT 4SM BR CLR 16/14 A2991 870 93 1200 000/00 RMK AO2
14837KMSN MSN20030614021509506/14/03 02:15:31  5-MIN KMSN 140815Z 00000KT 4SM BR CLR 15/14 A2991 870 96 1100 000/00 RMK AO2
14837KMSN MSN20030614022009506/14/03 02:20:31  5-MIN KMSN 140820Z 00000KT 4SM BR CLR 15/14 A2991 870 96 1100 000/00 RMK AO2
14837KMSN MSN20030614022509506/14/03 02:25:31  5-MIN KMSN 140825Z 00000KT 4SM BR CLR 15/14 A2991 870 96 1100 000/00 RMK AO2
14837KMSN MSN20030614023009506/14/03 02:30:31  5-MIN KMSN 140830Z 00000KT 4SM BR CLR 15/14 A2991 870 96 1100 000/00 RMK AO2
14837KMSN MSN20030614023509506/14/03 02:35:31  5-MIN KMSN 140835Z 00000KT 4SM BR CLR 14/14 A2992 870 96 1000 000/00 RMK AO2
14837KMSN MSN20030614024009506/14/03 02:40:31  5-MIN KMSN 140840Z 00000KT 4SM BR CLR 14/14 A2992 870 96 1000 000/00 RMK AO2
14837KMSN MSN20030614024509506/14/03 02:45:31  5-MIN KMSN 140845Z 00000KT 4SM BR CLR 15/14 A2992 860 96 1100 000/00 RMK AO2
14837KMSN MSN20030614025011806/14/03 02:50:31  5-MIN KMSN 140850Z 00000KT 4SM BR CLR 15/14 A2992 860 96 1100 000/00 RMK AO2 SLP129 T01500144 51010
14837KMSN MSN20030614025509506/14/03 02:55:31  5-MIN KMSN 140855Z 00000KT 4SM BR CLR 15/14 A2992 860 96 1100 000/00 RMK AO2
14837KMSN MSN20030614030009506/14/03 03:00:31  5-MIN KMSN 140900Z 00000KT 4SM BR CLR 15/14 A2992 860 93 1100 000/00 RMK AO2
14837KMSN MSN20030614030509506/14/03 03:05:31  5-MIN KMSN 140905Z 00000KT 4SM BR CLR 15/14 A2992 860 96 1100 000/00 RMK AO2
14837KMSN MSN20030614031009506/14/03 03:10:31  5-MIN KMSN 140910Z 00000KT 4SM BR CLR 15/14 A2993 860 96 1100 000/00 RMK AO2
14837KMSN MSN20030614031509506/14/03 03:15:31  5-MIN KMSN 140915Z 16003KT 4SM BR CLR 16/14 A2993 860 93 1200 160/03 RMK AO2
14837KMSN MSN20030614032009506/14/03 03:20:31  5-MIN KMSN 140920Z 18003KT 4SM BR CLR 16/14 A2993 860 93 1200 180/03 RMK AO2
14837KMSN MSN20030614032509506/14/03 03:25:31  5-MIN KMSN 140925Z 18003KT 4SM BR CLR 16/15 A2993 860 93 1200 180/03 RMK AO2
14837KMSN MSN20030614033009506/14/03 03:30:31  5-MIN KMSN 140930Z 00000KT 4SM BR CLR 16/15 A2993 860 93 1200 000/00 RMK AO2
14837KMSN MSN20030614033509506/14/03 03:35:31  5-MIN KMSN 140935Z 18004KT 3SM BR CLR 16/14 A2993 850 93 1200 180/04 RMK AO2
14837KMSN MSN20030614034009506/14/03 03:40:31  5-MIN KMSN 140940Z 00000KT 3SM BR CLR 16/15 A2993 850 93 1200 000/00 RMK AO2
14837KMSN MSN20030614034509906/14/03 03:45:31  5-MIN KMSN 140945Z 00000KT 2 1/2SM BR CLR 14/13 A2994 850 93 1000 000/00 RMK AO2
14837KMSN MSN20030614035011206/14/03 03:50:31  5-MIN KMSN 140950Z 00000KT 3SM BR CLR 14/14 A2994 850 96 1000 000/00 RMK AO2 SLP135 T01440139
14837KMSN MSN20030614035509506/14/03 03:55:31  5-MIN KMSN 140955Z 00000KT 3SM BR CLR 14/14 A2994 850 96 1000 000/00 RMK AO2
14837KMSN MSN20030614040009506/14/03 04:00:31  5-MIN KMSN 141000Z 00000KT 3SM BR CLR 15/14 A2994 840 93 1100 000/00 RMK AO2
14837KMSN MSN20030614040509506/14/03 04:05:31  5-MIN KMSN 141005Z 00000KT 3SM BR CLR 14/14 A2994 840 96 1000 000/00 RMK AO2
14837KMSN MSN20030614041009506/14/03 04:10:31  5-MIN KMSN 141010Z 00000KT 3SM BR CLR 14/14 A2994 840 96 1000 000/00 RMK AO2
14837KMSN MSN20030614041509506/14/03 04:15:31  5-MIN KMSN 141015Z 00000KT 3SM BR CLR 14/14 A2995 840 96 1000 000/00 RMK AO2
14837KMSN MSN20030614042010006/14/03 04:20:31  5-MIN KMSN 141020Z 00000KT 3SM MIFG BR CLR 15/14 A2995 840 93 1100 000/00 RMK AO2
14837KMSN MSN20030614042509906/14/03 04:25:31  5-MIN KMSN 141025Z 00000KT 3SM MIFG BR CLR 14/13 A2995 840 96 900 000/00 RMK AO2
14837KMSN MSN20030614043010306/14/03 04:30:31  5-MIN KMSN 141030Z 00000KT 2 1/2SM BCFG BR CLR 14/13 A2995 840 96 900 000/00 RMK AO2
14837KMSN MSN20030614043510306/14/03 04:35:31  5-MIN KMSN 141035Z 00000KT 2 1/2SM BCFG BR CLR 14/13 A2995 840 96 900 000/00 RMK AO2
14837KMSN MSN20030614044010406/14/03 04:40:31  5-MIN KMSN 141040Z 00000KT 2 1/2SM BCFG BR CLR 14/13 A2995 830 93 1000 000/00 RMK AO2
14837KMSN MSN20030614044510306/14/03 04:45:31  5-MIN KMSN 141045Z 32003KT 2 1/2SM BCFG BR CLR 14/13 A2995 840 96 900 320/03 RMK AO2
14837KMSN MSN20030614045012006/14/03 04:50:31  5-MIN KMSN 141050Z 00000KT 1 3/4SM BCFG BR CLR 14/13 A2995 830 96 900 000/00 RMK AO2 SLP140 T01390133
14837KMSN MSN20030614045511306/14/03 04:55:31  5-MIN KMSN 141055Z 00000KT 1 1/2SM BCFG BR CLR 14/13 A2995 830 96 900 000/00 RMK AO2 TWR VIS 2
14837KMSN MSN20030614050011406/14/03 05:00:31  5-MIN KMSN 141100Z 00000KT 1 1/2SM BCFG BR CLR 14/14 A2996 830 96 1000 000/00 RMK AO2 TWR VIS 2
14837KMSN MSN20030614050511306/14/03 05:05:31  5-MIN KMSN 141105Z 00000KT 1 3/4SM BCFG BR CLR 14/13 A2996 830 96 900 000/00 RMK AO2 TWR VIS 2
14837KMSN MSN20030614051011306/14/03 05:10:31  5-MIN KMSN 141110Z 00000KT 1 3/4SM BCFG BR CLR 14/13 A2996 830 96 900 000/00 RMK AO2 TWR VIS 2
14837KMSN MSN20030614051511006/14/03 05:15:31  5-MIN KMSN 141115Z 00000KT 1SM BCFG BR CLR 14/14 A2996 830 96 1000 000/00 RMK AO2 TWR VIS 2
14837KMSN MSN20030614052011006/14/03 05:20:31  5-MIN KMSN 141120Z 00000KT 1SM BCFG BR CLR 14/14 A2996 830 96 1000 000/00 RMK AO2 TWR VIS 2
14837KMSN MSN20030614052511006/14/03 05:25:31  5-MIN KMSN 141125Z 00000KT 1SM BCFG BR CLR 15/14 A2997 820 93 1100 000/00 RMK AO2 TWR VIS 2
14837KMSN MSN20030614053011006/14/03 05:30:31  5-MIN KMSN 141130Z 00000KT 1SM BCFG BR CLR 15/14 A2997 820 96 1000 000/00 RMK AO2 TWR VIS 2
14837KMSN MSN20030614053511406/14/03 05:35:31  5-MIN KMSN 141135Z 00000KT 1 1/2SM BCFG BR CLR 15/14 A2997 820 96 1000 000/00 RMK AO2 TWR VIS 2
14837KMSN MSN20030614054011706/14/03 05:40:31  5-MIN KMSN 141140Z 00000KT 1 1/2SM BCFG BR FEW110 15/14 A2997 820 96 1000 000/00 RMK AO2 TWR VIS 2
14837KMSN MSN20030614054511706/14/03 05:45:31  5-MIN KMSN 141145Z 00000KT 1 1/2SM BCFG BR FEW110 15/14 A2997 820 96 1000 000/00 RMK AO2 TWR VIS 2
14837KMSN MSN20030614055013806/14/03 05:50:31  5-MIN KMSN 141150Z 00000KT 2SM BCFG BR FEW110 16/15 A2997 810 96 1100 000/00 RMK AO2 SLP147 T01560150 10178 20139 53005
14837KMSN MSN20030614055511706/14/03 05:55:31  5-MIN KMSN 141155Z 00000KT 1 1/2SM BCFG BR SCT110 16/15 A2997 810 93 1200 000/00 RMK AO2 TWR VIS 3
14837KMSN MSN20030614060010306/14/03 06:00:31  5-MIN KMSN 141200Z 33003KT 3SM BCFG BR BKN110 16/16 A2998 810 96 1200 330/03 RMK AO2
14837KMSN MSN20030614060510306/14/03 06:05:31  5-MIN KMSN 141205Z 33004KT 3SM BCFG BR BKN110 17/16 A2998 810 93 1300 330/04 RMK AO2
14837KMSN MSN20030614061010306/14/03 06:10:31  5-MIN KMSN 141210Z 35005KT 3SM BCFG BR BKN110 17/16 A2998 810 93 1300 350/05 RMK AO2
14837KMSN MSN20030614061509806/14/03 06:15:31  5-MIN KMSN 141215Z 34005KT 3SM BR BKN110 18/16 A2998 810 90 1400 340/05 RMK AO2
14837KMSN MSN20030614062009806/14/03 06:20:31  5-MIN KMSN 141220Z 34006KT 3SM BR BKN110 18/16 A2998 810 90 1400 340/06 RMK AO2
14837KMSN MSN20030614062509806/14/03 06:25:31  5-MIN KMSN 141225Z 35005KT 3SM BR BKN110 18/16 A2998 810 90 1400 350/05 RMK AO2
14837KMSN MSN20030614063009806/14/03 06:30:31  5-MIN KMSN 141230Z 35004KT 3SM BR BKN110 18/16 A2998 810 90 1400 350/04 RMK AO2
14837KMSN MSN20030614063509806/14/03 06:35:31  5-MIN KMSN 141235Z 35004KT 3SM BR BKN110 18/16 A2999 800 90 1400 350/04 RMK AO2
14837KMSN MSN20030614064009806/14/03 06:40:31  5-MIN KMSN 141240Z 34005KT 3SM BR BKN110 18/16 A2999 800 90 1400 340/05 RMK AO2
14837KMSN MSN20030614064509806/14/03 06:45:31  5-MIN KMSN 141245Z 35004KT 3SM BR BKN110 18/17 A2999 800 90 1400 350/04 RMK AO2
14837KMSN MSN20030614065011506/14/03 06:50:31  5-MIN KMSN 141250Z 34004KT 3SM BR BKN110 18/17 A2999 800 90 1400 340/04 RMK AO2 SLP152 T01830167
14837KMSN MSN20030614065509806/14/03 06:55:31  5-MIN KMSN 141255Z 36005KT 3SM BR BKN110 19/17 A2999 800 87 1500 360/05 RMK AO2
14837KMSN MSN20030614070009806/14/03 07:00:31  5-MIN KMSN 141300Z 01004KT 3SM BR BKN110 19/17 A2999 800 87 1500 010/04 RMK AO2
14837KMSN MSN20030614070509806/14/03 07:05:31  5-MIN KMSN 141305Z 34004KT 3SM BR SCT110 19/17 A2999 800 87 1500 330/04 RMK AO2
14837KMSN MSN20030614071009806/14/03 07:10:31  5-MIN KMSN 141310Z 34004KT 3SM BR SCT110 19/17 A2999 800 90 1500 340/04 RMK AO2
14837KMSN MSN20030614071509806/14/03 07:15:31  5-MIN KMSN 141315Z 34004KT 3SM BR FEW110 19/17 A2999 800 87 1500 340/04 RMK AO2
14837KMSN MSN20030614072010806/14/03 07:20:31  5-MIN KMSN 141320Z 33004KT 3SM BR FEW110 19/17 A2999 800 87 1500 330/04 RMK AO2 SFC VIS 3
14837KMSN MSN20030614072510506/14/03 07:25:31  5-MIN KMSN 141325Z 01004KT 3SM HZ CLR 20/17 A2999 800 84 1600 360/04 RMK AO2 SFC VIS 3
14837KMSN MSN20030614073010506/14/03 07:30:31  5-MIN KMSN 141330Z VRB04KT 3SM HZ CLR 20/17 A2999 800 84 1600 VRB/04 RMK AO2 SFC VIS 3
14837KMSN MSN20030614073510506/14/03 07:35:31  5-MIN KMSN 141335Z 35005KT 3SM HZ CLR 20/17 A2999 800 84 1600 350/05 RMK AO2 SFC VIS 3
14837KMSN MSN20030614074010506/14/03 07:40:31  5-MIN KMSN 141340Z 36004KT 3SM HZ CLR 20/17 A2999 800 84 1600 360/04 RMK AO2 SFC VIS 3
14837KMSN MSN20030614074510506/14/03 07:45:31  5-MIN KMSN 141345Z VRB04KT 3SM HZ CLR 21/17 A2999 800 81 1700 VRB/04 RMK AO2 SFC VIS 3
14837KMSN MSN20030614075012206/14/03 07:50:31  5-MIN KMSN 141350Z 35004KT 3SM HZ CLR 21/17 A3000 790 81 1700 350/04 RMK AO2 SFC VIS 3 SLP154 T02060172
14837KMSN MSN20030614075510506/14/03 07:55:31  5-MIN KMSN 141355Z 01005KT 3SM HZ CLR 21/17 A3000 790 81 1700 010/05 RMK AO2 SFC VIS 3
14837KMSN MSN20030614080010506/14/03 08:00:31  5-MIN KMSN 141400Z VRB04KT 3SM HZ CLR 21/17 A3000 790 81 1700 VRB/04 RMK AO2 SFC VIS 4
14837KMSN MSN20030614080510506/14/03 08:05:31  5-MIN KMSN 141405Z 36005KT 3SM HZ CLR 21/17 A3000 790 78 1700 360/05 RMK AO2 SFC VIS 4
14837KMSN MSN20030614081010506/14/03 08:10:31  5-MIN KMSN 141410Z 01004KT 3SM HZ CLR 21/17 A3000 790 78 1700 360/04 RMK AO2 SFC VIS 4
14837KMSN MSN20030614081510506/14/03 08:15:31  5-MIN KMSN 141415Z VRB05KT 3SM HZ CLR 22/18 A3000 790 78 1800 VRB/05 RMK AO2 SFC VIS 4
14837KMSN MSN20030614082010506/14/03 08:20:31  5-MIN KMSN 141420Z 01006KT 3SM HZ CLR 22/17 A3000 790 75 1800 010/06 RMK AO2 SFC VIS 3
14837KMSN MSN20030614082509506/14/03 08:25:31  5-MIN KMSN 141425Z 01007KT 3SM HZ CLR 22/17 A3000 790 75 1800 010/07 RMK AO2
14837KMSN MSN20030614083009506/14/03 08:30:31  5-MIN KMSN 141430Z 01006KT 3SM HZ CLR 22/17 A3000 790 75 1800 010/06 RMK AO2
14837KMSN MSN20030614083510506/14/03 08:35:31  5-MIN KMSN 141435Z 01004KT 3SM HZ CLR 22/17 A3000 790 75 1800 010/04 RMK AO2 SFC VIS 3
14837KMSN MSN20030614084010506/14/03 08:40:31  5-MIN KMSN 141440Z 36006KT 3SM HZ CLR 22/17 A3000 790 73 1800 350/06 RMK AO2 SFC VIS 3
14837KMSN MSN20030614084510506/14/03 08:45:31  5-MIN KMSN 141445Z 35006KT 3SM HZ CLR 22/17 A3001 790 73 1800 350/06 RMK AO2 SFC VIS 3
14837KMSN MSN20030614085012806/14/03 08:50:31  5-MIN KMSN 141450Z 01004KT 3SM HZ CLR 22/17 A3001 780 73 1800 010/04 RMK AO2 SFC VIS 3 SLP159 T02220172 53018
14837KMSN MSN20030614085510506/14/03 08:55:31  5-MIN KMSN 141455Z 36005KT 3SM HZ CLR 22/17 A3001 780 73 1800 360/05 RMK AO2 SFC VIS 3
14837KMSN MSN20030614090010506/14/03 09:00:31  5-MIN KMSN 141500Z 04006KT 3SM HZ CLR 23/18 A3001 780 73 1900 040/06 RMK AO2 SFC VIS 3
14837KMSN MSN20030614090510506/14/03 09:05:31  5-MIN KMSN 141505Z 36006KT 3SM HZ CLR 23/18 A3001 780 73 1900 360/06 RMK AO2 SFC VIS 4
14837KMSN MSN20030614091009506/14/03 09:10:31  5-MIN KMSN 141510Z 01008KT 4SM HZ CLR 23/18 A3001 780 73 1900 010/08 RMK AO2
14837KMSN MSN20030614091509506/14/03 09:15:31  5-MIN KMSN 141515Z 36006KT 4SM HZ CLR 23/18 A3001 780 70 2000 360/06 RMK AO2
14837KMSN MSN20030614092009506/14/03 09:20:31  5-MIN KMSN 141520Z 01008KT 4SM HZ CLR 23/18 A3001 780 70 2000 010/08 RMK AO2
14837KMSN MSN20030614092509506/14/03 09:25:31  5-MIN KMSN 141525Z 03008KT 4SM HZ CLR 23/18 A3001 780 70 2000 030/08 RMK AO2
14837KMSN MSN20030614093009506/14/03 09:30:31  5-MIN KMSN 141530Z 05005KT 4SM HZ CLR 23/18 A3001 780 70 2000 050/05 RMK AO2
14837KMSN MSN20030614093509506/14/03 09:35:31  5-MIN KMSN 141535Z 01007KT 4SM HZ CLR 23/18 A3001 780 73 1900 010/07 RMK AO2
14837KMSN MSN20030614094009506/14/03 09:40:31  5-MIN KMSN 141540Z 35006KT 4SM HZ CLR 23/17 A3002 780 70 1900 350/06 RMK AO2
14837KMSN MSN20030614094509506/14/03 09:45:31  5-MIN KMSN 141545Z 02008KT 4SM HZ CLR 23/18 A3002 770 73 1900 010/08 RMK AO2
14837KMSN MSN20030614095011506/14/03 09:50:31  5-MIN KMSN 141550Z 02006KT 4SM HZ FEW020 23/18 A3002 770 73 1900 020/06 RMK AO2 SLP161 T02280178
14837KMSN MSN20030614095509806/14/03 09:55:31  5-MIN KMSN 141555Z 04008KT 4SM HZ FEW020 23/18 A3002 770 70 2000 040/08 RMK AO2
14837KMSN MSN20030614100009806/14/03 10:00:31  5-MIN KMSN 141600Z 03007KT 4SM HZ FEW020 23/18 A3002 770 73 1900 030/07 RMK AO2
14837KMSN MSN20030614100509806/14/03 10:05:31  5-MIN KMSN 141605Z 02008KT 4SM HZ FEW020 23/18 A3002 770 70 2000 020/08 RMK AO2
14837KMSN MSN20030614101009806/14/03 10:10:31  5-MIN KMSN 141610Z 03007KT 4SM HZ FEW020 23/18 A3002 770 70 2000 030/07 RMK AO2
14837KMSN MSN20030614101509806/14/03 10:15:31  5-MIN KMSN 141615Z 04008KT 4SM HZ FEW020 23/18 A3002 770 70 2000 040/08 RMK AO2
14837KMSN MSN20030614102009506/14/03 10:20:31  5-MIN KMSN 141620Z 04009KT 4SM HZ CLR 23/18 A3002 770 70 2000 040/09 RMK AO2
14837KMSN MSN20030614102509506/14/03 10:25:31  5-MIN KMSN 141625Z 04010KT 4SM HZ CLR 23/18 A3002 770 70 2000 040/10 RMK AO2
14837KMSN MSN20030614103009506/14/03 10:30:31  5-MIN KMSN 141630Z 04008KT 4SM HZ CLR 24/18 A3002 770 68 2000 040/08 RMK AO2
14837KMSN MSN20030614103509506/14/03 10:35:31  5-MIN KMSN 141635Z 01007KT 4SM HZ CLR 24/18 A3003 770 68 2000 010/07 RMK AO2
14837KMSN MSN20030614104009506/14/03 10:40:31  5-MIN KMSN 141640Z 03007KT 4SM HZ CLR 24/18 A3003 770 68 2100 030/07 RMK AO2
14837KMSN MSN20030614104509506/14/03 10:45:31  5-MIN KMSN 141645Z 05008KT 4SM HZ CLR 24/18 A3003 770 68 2100 040/08 RMK AO2
14837KMSN MSN20030614105011206/14/03 10:50:31  5-MIN KMSN 141650Z 04009KT 4SM HZ CLR 24/18 A3002 770 68 2100 030/09 RMK AO2 SLP163 T02440183
14837KMSN MSN20030614105511106/14/03 10:55:31  5-MIN KMSN 141655Z 05007KT 020V080 4SM HZ CLR 24/18 A3003 770 68 2000 050/07 020V080 RMK AO2
14837KMSN MSN20030614110009506/14/03 11:00:31  5-MIN KMSN 141700Z 06010KT 4SM HZ CLR 24/18 A3003 770 68 2100 060/10 RMK AO2
14837KMSN MSN20030614110509506/14/03 11:05:31  5-MIN KMSN 141705Z 02008KT 4SM HZ CLR 24/18 A3003 770 68 2100 020/08 RMK AO2
14837KMSN MSN20030614111009806/14/03 11:10:31  5-MIN KMSN 141710Z 04006KT 4SM HZ FEW025 24/18 A3003 770 68 2100 040/06 RMK AO2
14837KMSN MSN20030614111509806/14/03 11:15:31  5-MIN KMSN 141715Z 05006KT 4SM HZ FEW025 24/18 A3003 770 68 2100 050/06 RMK AO2
14837KMSN MSN20030614112009806/14/03 11:20:31  5-MIN KMSN 141720Z 04008KT 4SM HZ SCT025 24/18 A3003 760 68 2000 040/08 RMK AO2
14837KMSN MSN20030614112509806/14/03 11:25:31  5-MIN KMSN 141725Z 06008KT 5SM HZ SCT025 24/18 A3003 760 68 2100 060/08 RMK AO2
14837KMSN MSN20030614113009806/14/03 11:30:31  5-MIN KMSN 141730Z 04009KT 5SM HZ SCT025 24/18 A3003 760 66 2100 040/09 RMK AO2
14837KMSN MSN20030614113509806/14/03 11:35:31  5-MIN KMSN 141735Z 05007KT 5SM HZ FEW025 24/18 A3003 760 66 2100 050/07 RMK AO2
14837KMSN MSN20030614114009806/14/03 11:40:31  5-MIN KMSN 141740Z 05007KT 5SM HZ FEW025 24/18 A3003 760 66 2100 050/07 RMK AO2
14837KMSN MSN20030614114509806/14/03 11:45:31  5-MIN KMSN 141745Z 03006KT 5SM HZ FEW025 24/18 A3003 760 66 2100 030/06 RMK AO2
14837KMSN MSN20030614115013006/14/03 11:50:31  5-MIN KMSN 141750Z 04007KT 5SM HZ CLR 25/18 A3003 760 64 2100 040/07 RMK AO2 SLP166 T02500178 10250 20161 51011
14837KMSN MSN20030614115509506/14/03 11:55:31  5-MIN KMSN 141755Z 03007KT 5SM HZ CLR 25/18 A3003 760 64 2100 030/07 RMK AO2
14837KMSN MSN20030614120009806/14/03 12:00:31  5-MIN KMSN 141800Z 05009KT 5SM HZ FEW029 25/18 A3003 760 64 2100 050/09 RMK AO2
14837KMSN MSN20030614120509806/14/03 12:05:31  5-MIN KMSN 141805Z 06008KT 5SM HZ FEW029 25/18 A3003 760 64 2100 060/08 RMK AO2
14837KMSN MSN20030614121009506/14/03 12:10:31  5-MIN KMSN 141810Z 05009KT 6SM HZ CLR 26/18 A3003 760 61 2200 050/09 RMK AO2
14837KMSN MSN20030614121509506/14/03 12:15:31  5-MIN KMSN 141815Z 04006KT 6SM HZ CLR 26/18 A3003 760 61 2200 040/06 RMK AO2
14837KMSN MSN20030614122009506/14/03 12:20:31  5-MIN KMSN 141820Z 05006KT 6SM HZ CLR 26/18 A3003 760 61 2200 050/06 RMK AO2
14837KMSN MSN20030614122509806/14/03 12:25:31  5-MIN KMSN 141825Z VRB06KT 6SM HZ FEW029 26/18 A3003 760 61 2200 VRB/06 RMK AO2
14837KMSN MSN20030614123009806/14/03 12:30:31  5-MIN KMSN 141830Z 04006KT 6SM HZ FEW029 26/18 A3003 760 61 2200 040/06 RMK AO2
14837KMSN MSN20030614123509506/14/03 12:35:31  5-MIN KMSN 141835Z 03007KT 7SM FEW029 26/18 A3003 760 59 2300 030/07 RMK AO2
14837KMSN MSN20030614124009506/14/03 12:40:31  5-MIN KMSN 141840Z 03006KT 7SM FEW029 27/18 A3003 760 57 2300 030/06 RMK AO2
14837KMSN MSN20030614124509506/14/03 12:45:31  5-MIN KMSN 141845Z 02007KT 7SM FEW032 27/18 A3003 760 57 2300 010/07 RMK AO2
14837KMSN MSN20030614125011206/14/03 12:50:31  5-MIN KMSN 141850Z 03007KT 7SM SCT032 27/18 A3003 760 57 2300 030/07 RMK AO2 SLP165 T02670178
14837KMSN MSN20030614125509506/14/03 12:55:31  5-MIN KMSN 141855Z VRB06KT 8SM FEW032 27/18 A3003 760 57 2300 VRB/06 RMK AO2
14837KMSN MSN20030614130009506/14/03 13:00:31  5-MIN KMSN 141900Z VRB05KT 8SM FEW036 27/18 A3003 770 57 2300 VRB/05 RMK AO2
14837KMSN MSN20030614130509506/14/03 13:05:31  5-MIN KMSN 141905Z 08005KT 7SM SCT036 26/17 A3003 760 59 2200 080/05 RMK AO2
14837KMSN MSN20030614131009506/14/03 13:10:31  5-MIN KMSN 141910Z 08008KT 7SM SCT036 26/18 A3003 760 61 2200 070/08 RMK AO2
14837KMSN MSN20030614131510206/14/03 13:15:31  5-MIN KMSN 141915Z 08008KT 8SM SCT036 SCT048 26/17 A3003 770 59 2200 080/08 RMK AO2
14837KMSN MSN20030614132010906/14/03 13:20:31  5-MIN KMSN 141920Z 06007KT 8SM SCT036 SCT048 BKN065 26/17 A3003 770 59 2200 060/07 RMK AO2
14837KMSN MSN20030614132510206/14/03 13:25:31  5-MIN KMSN 141925Z 02010KT 8SM SCT036 SCT065 26/17 A3003 770 57 2300 020/10 RMK AO2
14837KMSN MSN20030614133009506/14/03 13:30:31  5-MIN KMSN 141930Z 05007KT 8SM FEW036 27/17 A3003 770 55 2300 050/07 RMK AO2
14837KMSN MSN20030614133509506/14/03 13:35:31  5-MIN KMSN 141935Z 03010KT 8SM SCT038 27/17 A3003 770 55 2300 030/10 RMK AO2
14837KMSN MSN20030614134010206/14/03 13:40:31  5-MIN KMSN 141940Z 03010KT 8SM SCT040 BKN100 26/17 A3003 770 57 2200 030/10 RMK AO2
14837KMSN MSN20030614134510206/14/03 13:45:31  5-MIN KMSN 141945Z 04009KT 8SM FEW040 SCT100 26/17 A3003 770 59 2200 040/09 RMK AO2
14837KMSN MSN20030614135011206/14/03 13:50:31  5-MIN KMSN 141950Z 04009KT 9SM FEW040 27/17 A3003 770 55 2300 040/09 RMK AO2 SLP163 T02670172
14837KMSN MSN20030614135509506/14/03 13:55:31  5-MIN KMSN 141955Z 07009KT 9SM FEW040 27/17 A3002 770 55 2300 070/09 RMK AO2
14837KMSN MSN20030614140009506/14/03 14:00:31  5-MIN KMSN 142000Z 07011KT 8SM FEW040 26/18 A3002 770 59 2300 070/11 RMK AO2
14837KMSN MSN20030614140509506/14/03 14:05:31  5-MIN KMSN 142005Z 07011KT 8SM SCT040 26/17 A3003 770 59 2200 070/11 RMK AO2
14837KMSN MSN20030614154509606/14/03 15:45:31  5-MIN KMSN 142145Z 07012KT 10SM SCT040 26/17 A3002 770 57 2200 070/12 RMK AO2
14837KMSN MSN20030614155011306/14/03 15:50:31  5-MIN KMSN 142150Z 07011KT 10SM SCT043 26/17 A3002 770 57 2200 070/11 RMK AO2 SLP163 T02560167
14837KMSN MSN20030614155509606/14/03 15:55:31  5-MIN KMSN 142155Z 07010KT 10SM SCT043 26/17 A3002 770 57 2200 060/10 RMK AO2
14837KMSN MSN20030614160009606/14/03 16:00:31  5-MIN KMSN 142200Z 08008KT 10SM SCT043 26/17 A3002 770 57 2200 070/08 RMK AO2
14837KMSN MSN20030614160509606/14/03 16:05:31  5-MIN KMSN 142205Z 09012KT 10SM SCT043 25/17 A3002 770 59 2100 080/12 RMK AO2
14837KMSN MSN20030614161009606/14/03 16:10:31  5-MIN KMSN 142210Z 07011KT 10SM SCT043 25/17 A3002 770 59 2100 070/11 RMK AO2
14837KMSN MSN20030614161509606/14/03 16:15:31  5-MIN KMSN 142215Z 08008KT 10SM SCT043 24/17 A3002 770 61 2100 080/08 RMK AO2
14837KMSN MSN20030614162009606/14/03 16:20:31  5-MIN KMSN 142220Z 06006KT 10SM SCT043 24/17 A3002 770 61 2100 060/06 RMK AO2
14837KMSN MSN20030614162509606/14/03 16:25:31  5-MIN KMSN 142225Z 07008KT 10SM SCT043 24/17 A3002 770 61 2100 060/08 RMK AO2
14837KMSN MSN20030614163009606/14/03 16:30:31  5-MIN KMSN 142230Z 06008KT 10SM SCT043 24/17 A3002 770 61 2100 060/08 RMK AO2
14837KMSN MSN20030614163510306/14/03 16:35:31  5-MIN KMSN 142235Z 07010KT 10SM SCT046 BKN055 24/17 A3002 770 61 2100 070/10 RMK AO2
14837KMSN MSN20030614164009606/14/03 16:40:31  5-MIN KMSN 142240Z 08010KT 10SM SCT049 24/17 A3002 770 61 2100 080/10 RMK AO2
14837KMSN MSN20030614164509606/14/03 16:45:31  5-MIN KMSN 142245Z 08008KT 10SM SCT049 24/17 A3002 770 61 2100 080/08 RMK AO2
14837KMSN MSN20030614165011306/14/03 16:50:31  5-MIN KMSN 142250Z 08007KT 10SM SCT049 24/17 A3002 770 61 2100 080/07 RMK AO2 SLP163 T02440167
14837KMSN MSN20030614165509506/14/03 16:55:31  5-MIN KMSN 142255Z 07008KT 9SM FEW047 24/17 A3002 770 61 2100 070/08 RMK AO2
14837KMSN MSN20030614170009306/14/03 17:00:31  5-MIN KMSN 142300Z 08007KT 10SM CLR 24/17 A3002 770 61 2100 080/07 RMK AO2
14837KMSN MSN20030614170509606/14/03 17:05:31  5-MIN KMSN 142305Z 07009KT 10SM FEW049 25/17 A3002 770 59 2100 070/09 RMK AO2
14837KMSN MSN20030614171009606/14/03 17:10:31  5-MIN KMSN 142310Z 08010KT 10SM FEW049 24/17 A3002 770 61 2100 080/10 RMK AO2
14837KMSN MSN20030614171509606/14/03 17:15:31  5-MIN KMSN 142315Z 08008KT 10SM FEW049 24/17 A3002 770 61 2100 070/08 RMK AO2
14837KMSN MSN20030614172009606/14/03 17:20:31  5-MIN KMSN 142320Z 07008KT 10SM FEW049 24/17 A3002 770 61 2100 070/08 RMK AO2
14837KMSN MSN20030614172509606/14/03 17:25:31  5-MIN KMSN 142325Z 08009KT 10SM FEW044 25/17 A3002 770 61 2100 080/09 RMK AO2
14837KMSN MSN20030614173009606/14/03 17:30:31  5-MIN KMSN 142330Z 08009KT 10SM FEW044 24/17 A3003 770 61 2100 080/09 RMK AO2
14837KMSN MSN20030614173509606/14/03 17:35:31  5-MIN KMSN 142335Z 09010KT 10SM FEW044 24/16 A3003 770 59 2100 090/10 RMK AO2
14837KMSN MSN20030614174009606/14/03 17:40:31  5-MIN KMSN 142340Z 09009KT 10SM FEW044 24/16 A3003 770 59 2100 090/09 RMK AO2
14837KMSN MSN20030614174509606/14/03 17:45:31  5-MIN KMSN 142345Z 09007KT 10SM FEW044 24/17 A3003 770 61 2100 090/07 RMK AO2
14837KMSN MSN20030614175013106/14/03 17:50:31  5-MIN KMSN 142350Z 10009KT 10SM FEW041 24/17 A3003 770 61 2100 100/09 RMK AO2 SLP164 T02440167 10272 20244 56003
14837KMSN MSN20030614175509606/14/03 17:55:31  5-MIN KMSN 142355Z 10008KT 10SM FEW041 24/17 A3003 770 63 2000 100/08 RMK AO2
14837KMSN MSN20030614180009606/14/03 18:00:31  5-MIN KMSN 150000Z 10008KT 10SM FEW041 24/16 A3003 760 61 2000 100/08 RMK AO2
14837KMSN MSN20030614180509606/14/03 18:05:31  5-MIN KMSN 150005Z 10010KT 10SM FEW041 24/17 A3003 770 63 2000 100/10 RMK AO2
14837KMSN MSN20030614181009606/14/03 18:10:31  5-MIN KMSN 150010Z 08008KT 10SM FEW041 24/16 A3003 770 61 2000 080/08 RMK AO2
14837KMSN MSN20030614181509606/14/03 18:15:31  5-MIN KMSN 150015Z 10009KT 10SM FEW041 24/16 A3003 770 61 2000 090/09 RMK AO2
14837KMSN MSN20030614182009606/14/03 18:20:31  5-MIN KMSN 150020Z 10008KT 10SM FEW041 24/16 A3003 760 61 2000 100/08 RMK AO2
14837KMSN MSN20030614182509306/14/03 18:25:31  5-MIN KMSN 150025Z 09008KT 10SM CLR 24/16 A3003 760 61 2000 090/08 RMK AO2
14837KMSN MSN20030614183009306/14/03 18:30:31  5-MIN KMSN 150030Z 10006KT 10SM CLR 23/16 A3003 760 63 1900 100/06 RMK AO2
14837KMSN MSN20030614183509306/14/03 18:35:31  5-MIN KMSN 150035Z 10007KT 10SM CLR 23/16 A3003 760 61 1900 100/07 RMK AO2
14837KMSN MSN20030614184009306/14/03 18:40:31  5-MIN KMSN 150040Z 10006KT 10SM CLR 23/16 A3003 760 63 1900 100/06 RMK AO2
14837KMSN MSN20030614184509306/14/03 18:45:31  5-MIN KMSN 150045Z 10007KT 10SM CLR 23/16 A3003 760 65 1900 100/07 RMK AO2
14837KMSN MSN20030614185011006/14/03 18:50:31  5-MIN KMSN 150050Z 10007KT 10SM CLR 23/16 A3003 760 65 1900 100/07 RMK AO2 SLP167 T02280161
14837KMSN MSN20030614185509306/14/03 18:55:31  5-MIN KMSN 150055Z 12008KT 10SM CLR 22/16 A3003 760 65 1800 120/08 RMK AO2
14837KMSN MSN20030614190009306/14/03 19:00:31  5-MIN KMSN 150100Z 12007KT 10SM CLR 22/15 A3004 760 63 1800 120/07 RMK AO2
14837KMSN MSN20030614190509306/14/03 19:05:31  5-MIN KMSN 150105Z 11007KT 10SM CLR 22/15 A3004 760 63 1800 110/07 RMK AO2
14837KMSN MSN20030614191009306/14/03 19:10:31  5-MIN KMSN 150110Z 11008KT 10SM CLR 22/15 A3004 760 65 1700 110/08 RMK AO2
14837KMSN MSN20030614191509306/14/03 19:15:31  5-MIN KMSN 150115Z 11008KT 10SM CLR 22/15 A3004 760 65 1700 110/08 RMK AO2
14837KMSN MSN20030614192009306/14/03 19:20:31  5-MIN KMSN 150120Z 11008KT 10SM CLR 22/14 A3004 760 63 1700 110/08 RMK AO2
14837KMSN MSN20030614192509306/14/03 19:25:31  5-MIN KMSN 150125Z 10007KT 10SM CLR 21/14 A3004 750 65 1700 100/07 RMK AO2
14837KMSN MSN20030614193009306/14/03 19:30:31  5-MIN KMSN 150130Z 11006KT 10SM CLR 20/14 A3004 750 70 1500 110/06 RMK AO2
14837KMSN MSN20030614193509306/14/03 19:35:31  5-MIN KMSN 150135Z 12007KT 10SM CLR 21/14 A3004 750 65 1700 120/07 RMK AO2
14837KMSN MSN20030614194009306/14/03 19:40:31  5-MIN KMSN 150140Z 11007KT 10SM CLR 21/14 A3005 750 65 1700 110/07 RMK AO2
14837KMSN MSN20030614194509306/14/03 19:45:31  5-MIN KMSN 150145Z 11008KT 10SM CLR 21/14 A3005 750 67 1600 110/08 RMK AO2
14837KMSN MSN20030614195011006/14/03 19:50:31  5-MIN KMSN 150150Z 11007KT 10SM CLR 20/14 A3005 750 70 1500 100/07 RMK AO2 SLP172 T02000144
14837KMSN MSN20030614195509306/14/03 19:55:31  5-MIN KMSN 150155Z 11006KT 10SM CLR 20/14 A3005 740 70 1500 110/06 RMK AO2
14837KMSN MSN20030614200009306/14/03 20:00:31  5-MIN KMSN 150200Z 11007KT 10SM CLR 20/14 A3006 740 70 1500 110/07 RMK AO2
14837KMSN MSN20030614200509306/14/03 20:05:31  5-MIN KMSN 150205Z 11006KT 10SM CLR 19/14 A3006 740 72 1500 110/06 RMK AO2
14837KMSN MSN20030614201009306/14/03 20:10:31  5-MIN KMSN 150210Z 11006KT 10SM CLR 20/14 A3006 740 70 1500 110/06 RMK AO2
14837KMSN MSN20030614201509306/14/03 20:15:31  5-MIN KMSN 150215Z 11008KT 10SM CLR 19/14 A3006 730 72 1500 110/08 RMK AO2
14837KMSN MSN20030614202009306/14/03 20:20:31  5-MIN KMSN 150220Z 11007KT 10SM CLR 19/14 A3007 730 72 1500 110/07 RMK AO2
14837KMSN MSN20030614202509306/14/03 20:25:31  5-MIN KMSN 150225Z 11007KT 10SM CLR 19/14 A3007 730 72 1500 110/07 RMK AO2
14837KMSN MSN20030614203009306/14/03 20:30:31  5-MIN KMSN 150230Z 10006KT 10SM CLR 19/14 A3007 730 75 1400 100/06 RMK AO2
14837KMSN MSN20030614203509306/14/03 20:35:31  5-MIN KMSN 150235Z 10007KT 10SM CLR 19/14 A3007 720 72 1400 100/07 RMK AO2
14837KMSN MSN20030614204009306/14/03 20:40:31  5-MIN KMSN 150240Z 11007KT 10SM CLR 19/14 A3007 720 70 1400 100/07 RMK AO2
14837KMSN MSN20030614204509306/14/03 20:45:31  5-MIN KMSN 150245Z 10008KT 10SM CLR 19/14 A3007 720 72 1400 100/08 RMK AO2
14837KMSN MSN20030614205011606/14/03 20:50:31  5-MIN KMSN 150250Z 11006KT 10SM CLR 19/14 A3007 720 72 1400 110/06 RMK AO2 SLP181 T01890139 53000
14837KMSN MSN20030614205509306/14/03 20:55:31  5-MIN KMSN 150255Z 10006KT 10SM CLR 19/14 A3008 720 72 1400 100/06 RMK AO2
14837KMSN MSN20030614210009306/14/03 21:00:31  5-MIN KMSN 150300Z 10007KT 10SM CLR 19/13 A3008 720 70 1400 100/07 RMK AO2
14837KMSN MSN20030614210509306/14/03 21:05:31  5-MIN KMSN 150305Z 11006KT 10SM CLR 19/13 A3008 720 70 1400 110/06 RMK AO2
14837KMSN MSN20030614211009306/14/03 21:10:31  5-MIN KMSN 150310Z 11006KT 10SM CLR 18/13 A3008 710 72 1300 110/06 RMK AO2
14837KMSN MSN20030614211509306/14/03 21:15:31  5-MIN KMSN 150315Z 11005KT 10SM CLR 18/13 A3009 710 72 1300 100/05 RMK AO2
14837KMSN MSN20030614212009306/14/03 21:20:31  5-MIN KMSN 150320Z 11005KT 10SM CLR 18/13 A3009 710 72 1300 110/05 RMK AO2
14837KMSN MSN20030614212509306/14/03 21:25:31  5-MIN KMSN 150325Z 10005KT 10SM CLR 18/13 A3009 710 70 1300 100/05 RMK AO2
14837KMSN MSN20030614213009306/14/03 21:30:31  5-MIN KMSN 150330Z 11005KT 10SM CLR 18/13 A3009 710 70 1300 100/05 RMK AO2
14837KMSN MSN20030614213509306/14/03 21:35:31  5-MIN KMSN 150335Z 11006KT 10SM CLR 18/13 A3009 710 72 1200 110/06 RMK AO2
14837KMSN MSN20030614214009306/14/03 21:40:31  5-MIN KMSN 150340Z 11006KT 10SM CLR 18/13 A3009 710 72 1200 100/06 RMK AO2
14837KMSN MSN20030614214509306/14/03 21:45:31  5-MIN KMSN 150345Z 11006KT 10SM CLR 18/13 A3009 710 72 1200 110/06 RMK AO2
14837KMSN MSN20030614215011006/14/03 21:50:31  5-MIN KMSN 150350Z 10005KT 10SM CLR 18/13 A3009 710 72 1200 100/05 RMK AO2 SLP186 T01780128
14837KMSN MSN20030614215509306/14/03 21:55:31  5-MIN KMSN 150355Z 00000KT 10SM CLR 17/13 A3009 710 75 1200 000/00 RMK AO2
14837KMSN MSN20030614220009306/14/03 22:00:31  5-MIN KMSN 150400Z 00000KT 10SM CLR 17/13 A3009 710 77 1100 000/00 RMK AO2
14837KMSN MSN20030614220509306/14/03 22:05:31  5-MIN KMSN 150405Z 00000KT 10SM CLR 16/13 A3009 710 80 1000 000/00 RMK AO2
14837KMSN MSN20030614221009306/14/03 22:10:31  5-MIN KMSN 150410Z 00000KT 10SM CLR 17/13 A3009 700 77 1100 000/00 RMK AO2
14837KMSN MSN20030614221509306/14/03 22:15:31  5-MIN KMSN 150415Z 02003KT 10SM CLR 16/13 A3009 700 80 1000 020/03 RMK AO2
14837KMSN MSN20030614222009306/14/03 22:20:31  5-MIN KMSN 150420Z 04004KT 10SM CLR 16/13 A3009 700 80 1000 040/04 RMK AO2
14837KMSN MSN20030614222509306/14/03 22:25:31  5-MIN KMSN 150425Z 03004KT 10SM CLR 16/13 A3010 700 80 1000 030/04 RMK AO2
14837KMSN MSN20030614223009306/14/03 22:30:31  5-MIN KMSN 150430Z 02003KT 10SM CLR 16/13 A3010 700 83 1000 020/03 RMK AO2
14837KMSN MSN20030614223509306/14/03 22:35:31  5-MIN KMSN 150435Z 00000KT 10SM CLR 16/13 A3010 700 80 1000 000/00 RMK AO2
14837KMSN MSN20030614224009306/14/03 22:40:31  5-MIN KMSN 150440Z 00000KT 10SM CLR 16/13 A3010 700 80 1000 000/00 RMK AO2
14837KMSN MSN20030614224509306/14/03 22:45:31  5-MIN KMSN 150445Z 00000KT 10SM CLR 16/13 A3010 700 83 1000 000/00 RMK AO2
14837KMSN MSN20030614225010906/14/03 22:50:31  5-MIN KMSN 150450Z 00000KT 10SM CLR 15/13 A3010 700 86 900 000/00 RMK AO2 SLP191 T01500128
14837KMSN MSN20030614225509206/14/03 22:55:31  5-MIN KMSN 150455Z 00000KT 10SM CLR 15/13 A3010 700 86 900 000/00 RMK AO2
14837KMSN MSN20030614230009306/14/03 23:00:31  5-MIN KMSN 150500Z 00000KT 10SM CLR 16/13 A3010 700 83 1000 000/00 RMK AO2
14837KMSN MSN20030614230509206/14/03 23:05:31  5-MIN KMSN 150505Z 00000KT 10SM CLR 15/13 A3010 700 86 900 000/00 RMK AO2
14837KMSN MSN20030614231009206/14/03 23:10:31  5-MIN KMSN 150510Z 00000KT 10SM CLR 15/13 A3010 700 86 900 000/00 RMK AO2
14837KMSN MSN20030614231509206/14/03 23:15:31  5-MIN KMSN 150515Z 00000KT 10SM CLR 14/13 A3010 700 90 800 000/00 RMK AO2
14837KMSN MSN20030614232009206/14/03 23:20:31  5-MIN KMSN 150520Z 00000KT 10SM CLR 14/13 A3011 690 93 800 000/00 RMK AO2
14837KMSN MSN20030614232509206/14/03 23:25:31  5-MIN KMSN 150525Z 00000KT 10SM CLR 14/13 A3011 690 93 800 000/00 RMK AO2
14837KMSN MSN20030614233009106/14/03 23:30:31  5-MIN KMSN 150530Z 00000KT 9SM CLR 14/13 A3011 690 93 800 000/00 RMK AO2
14837KMSN MSN20030614233509106/14/03 23:35:31  5-MIN KMSN 150535Z 00000KT 9SM CLR 14/13 A3011 690 90 800 000/00 RMK AO2
14837KMSN MSN20030614234009106/14/03 23:40:31  5-MIN KMSN 150540Z 00000KT 9SM CLR 14/13 A3011 690 93 800 000/00 RMK AO2
14837KMSN MSN20030614234509106/14/03 23:45:31  5-MIN KMSN 150545Z 00000KT 9SM CLR 14/13 A3011 690 90 800 000/00 RMK AO2
14837KMSN MSN20030614235013606/14/03 23:50:31  5-MIN KMSN 150550Z 00000KT 9SM CLR 14/13 A3011 690 93 800 000/00 RMK AO2 SLP193 T01390128 10239 20139 402720139 53017
14837KMSN MSN20030614235509106/14/03 23:55:31  5-MIN KMSN 150555Z 00000KT 8SM CLR 14/13 A3011 690 93 800 000/00 RMK AO2
14837KMSN MSN20030615000009106/15/03 00:00:31  5-MIN KMSN 150600Z 00000KT 7SM CLR 14/13 A3011 690 93 800 000/00 RMK AO2
14837KMSN MSN20030615000509106/15/03 00:05:31  5-MIN KMSN 150605Z 00000KT 7SM CLR 13/12 A3011 690 93 700 000/00 RMK AO2
14837KMSN MSN20030615001009106/15/03 00:10:31  5-MIN KMSN 150610Z 00000KT 7SM CLR 13/13 A3011 690 96 700 000/00 RMK AO2
14837KMSN MSN20030615001509106/15/03 00:15:31  5-MIN KMSN 150615Z 00000KT 7SM CLR 13/13 A3011 690 96 700 000/00 RMK AO2
14837KMSN MSN20030615002009106/15/03 00:20:31  5-MIN KMSN 150620Z 33003KT 7SM CLR 13/12 A3011 690 93 700 330/03 RMK AO2
14837KMSN MSN20030615002509106/15/03 00:25:31  5-MIN KMSN 150625Z 33003KT 7SM CLR 13/12 A3011 690 93 700 330/03 RMK AO2
14837KMSN MSN20030615003009106/15/03 00:30:31  5-MIN KMSN 150630Z 33003KT 7SM CLR 13/12 A3012 680 93 700 330/03 RMK AO2
14837KMSN MSN20030615003509106/15/03 00:35:31  5-MIN KMSN 150635Z 33004KT 7SM CLR 13/12 A3012 680 93 700 330/04 RMK AO2
14837KMSN MSN20030615004009406/15/03 00:40:31  5-MIN KMSN 150640Z 34005KT 6SM BR CLR 13/12 A3012 680 93 700 340/05 RMK AO2
14837KMSN MSN20030615004509106/15/03 00:45:31  5-MIN KMSN 150645Z 35004KT 7SM CLR 14/13 A3012 680 93 700 340/04 RMK AO2
14837KMSN MSN20030615005010806/15/03 00:50:31  5-MIN KMSN 150650Z 34003KT 7SM CLR 14/12 A3012 680 90 700 340/03 RMK AO2 SLP196 T01390122
14837KMSN MSN20030615005509406/15/03 00:55:31  5-MIN KMSN 150655Z 33003KT 6SM BR CLR 13/12 A3012 680 93 700 330/03 RMK AO2
14837KMSN MSN20030615010009406/15/03 01:00:31  5-MIN KMSN 150700Z 33003KT 6SM BR CLR 13/12 A3012 680 93 700 330/03 RMK AO2
14837KMSN MSN20030615010509406/15/03 01:05:31  5-MIN KMSN 150705Z 35003KT 6SM BR CLR 14/13 A3012 680 93 700 350/03 RMK AO2
14837KMSN MSN20030615011009406/15/03 01:10:31  5-MIN KMSN 150710Z 34004KT 6SM BR CLR 14/12 A3012 680 90 700 340/04 RMK AO2
14837KMSN MSN20030615011509406/15/03 01:15:31  5-MIN KMSN 150715Z 34003KT 6SM BR CLR 14/13 A3012 680 93 700 340/03 RMK AO2
14837KMSN MSN20030615012009406/15/03 01:20:31  5-MIN KMSN 150720Z 35004KT 6SM BR CLR 14/13 A3013 670 90 800 350/04 RMK AO2
14837KMSN MSN20030615012509406/15/03 01:25:31  5-MIN KMSN 150725Z 35003KT 6SM BR CLR 14/13 A3013 670 90 800 350/03 RMK AO2
14837KMSN MSN20030615013009406/15/03 01:30:31  5-MIN KMSN 150730Z 34003KT 6SM BR CLR 14/13 A3013 670 90 800 340/03 RMK AO2
14837KMSN MSN20030615013509106/15/03 01:35:31  5-MIN KMSN 150735Z 35003KT 7SM CLR 14/12 A3013 680 90 700 350/03 RMK AO2
14837KMSN MSN20030615014009106/15/03 01:40:31  5-MIN KMSN 150740Z 36003KT 7SM CLR 14/13 A3013 680 90 800 360/03 RMK AO2
14837KMSN MSN20030615014509406/15/03 01:45:31  5-MIN KMSN 150745Z 02003KT 6SM BR CLR 14/12 A3012 680 90 700 020/03 RMK AO2
14837KMSN MSN20030615015011106/15/03 01:50:31  5-MIN KMSN 150750Z 02003KT 6SM BR CLR 13/12 A3013 670 89 700 020/03 RMK AO2 SLP199 T01330117
14837KMSN MSN20030615015509406/15/03 01:55:31  5-MIN KMSN 150755Z 00000KT 5SM BR CLR 14/13 A3013 670 93 700 000/00 RMK AO2
14837KMSN MSN20030615020009406/15/03 02:00:31  5-MIN KMSN 150800Z 02003KT 5SM BR CLR 13/12 A3012 680 93 700 020/03 RMK AO2
14837KMSN MSN20030615020509406/15/03 02:05:31  5-MIN KMSN 150805Z 04003KT 6SM BR CLR 13/12 A3012 680 93 600 040/03 RMK AO2
14837KMSN MSN20030615021009406/15/03 02:10:31  5-MIN KMSN 150810Z 00000KT 6SM BR CLR 13/12 A3012 680 89 700 000/00 RMK AO2
14837KMSN MSN20030615021509406/15/03 02:15:31  5-MIN KMSN 150815Z 03003KT 6SM BR CLR 13/12 A3012 680 93 700 030/03 RMK AO2
14837KMSN MSN20030615022009406/15/03 02:20:31  5-MIN KMSN 150820Z 02004KT 6SM BR CLR 13/12 A3012 680 93 600 020/04 RMK AO2
14837KMSN MSN20030615022509106/15/03 02:25:31  5-MIN KMSN 150825Z 02004KT 7SM CLR 13/12 A3013 670 93 600 020/04 RMK AO2
14837KMSN MSN20030615023009106/15/03 02:30:31  5-MIN KMSN 150830Z 03004KT 8SM CLR 13/12 A3013 670 89 700 030/04 RMK AO2
14837KMSN MSN20030615023509106/15/03 02:35:31  5-MIN KMSN 150835Z 05004KT 9SM CLR 14/12 A3013 670 86 700 040/04 RMK AO2
14837KMSN MSN20030615024009106/15/03 02:40:31  5-MIN KMSN 150840Z 05004KT 9SM CLR 14/12 A3013 680 86 700 040/04 RMK AO2
14837KMSN MSN20030615024509206/15/03 02:45:31  5-MIN KMSN 150845Z 04004KT 10SM CLR 14/12 A3013 680 83 800 040/04 RMK AO2
14837KMSN MSN20030615025011506/15/03 02:50:31  5-MIN KMSN 150850Z 04004KT 10SM CLR 14/12 A3012 680 86 700 030/04 RMK AO2 SLP198 T01390117 51012
14837KMSN MSN20030615025509206/15/03 02:55:31  5-MIN KMSN 150855Z 03004KT 10SM CLR 14/12 A3012 680 86 700 030/04 RMK AO2
14837KMSN MSN20030615030009106/15/03 03:00:31  5-MIN KMSN 150900Z 02005KT 9SM CLR 13/12 A3012 680 89 700 020/05 RMK AO2
14837KMSN MSN20030615030509106/15/03 03:05:31  5-MIN KMSN 150905Z 01005KT 9SM CLR 13/12 A3012 680 89 700 010/05 RMK AO2
14837KMSN MSN20030615031009206/15/03 03:10:31  5-MIN KMSN 150910Z 01005KT 10SM CLR 13/12 A3013 670 89 700 010/05 RMK AO2
14837KMSN MSN20030615031509206/15/03 03:15:31  5-MIN KMSN 150915Z 02005KT 10SM CLR 14/12 A3013 670 86 700 020/05 RMK AO2
14837KMSN MSN20030615032009206/15/03 03:20:31  5-MIN KMSN 150920Z 02005KT 10SM CLR 14/12 A3012 680 86 700 020/05 RMK AO2
14837KMSN MSN20030615032509206/15/03 03:25:31  5-MIN KMSN 150925Z 01005KT 10SM CLR 14/12 A3013 670 86 700 010/05 RMK AO2
14837KMSN MSN20030615033009206/15/03 03:30:31  5-MIN KMSN 150930Z 01005KT 10SM CLR 14/12 A3013 670 86 700 010/05 RMK AO2
14837KMSN MSN20030615033509206/15/03 03:35:31  5-MIN KMSN 150935Z 01005KT 10SM CLR 14/12 A3013 670 86 700 010/05 RMK AO2
14837KMSN MSN20030615034009106/15/03 03:40:31  5-MIN KMSN 150940Z 01004KT 9SM CLR 14/12 A3012 680 86 700 010/04 RMK AO2
14837KMSN MSN20030615034509106/15/03 03:45:31  5-MIN KMSN 150945Z 02005KT 9SM CLR 13/12 A3012 680 89 700 020/05 RMK AO2
14837KMSN MSN20030615035010806/15/03 03:50:31  5-MIN KMSN 150950Z 03004KT 8SM CLR 13/12 A3012 680 89 700 030/04 RMK AO2 SLP197 T01330117
14837KMSN MSN20030615035509106/15/03 03:55:31  5-MIN KMSN 150955Z 02003KT 8SM CLR 13/11 A3012 680 86 700 020/03 RMK AO2
14837KMSN MSN20030615040009106/15/03 04:00:31  5-MIN KMSN 151000Z 36003KT 9SM CLR 13/12 A3012 680 89 700 360/03 RMK AO2
14837KMSN MSN20030615040509106/15/03 04:05:31  5-MIN KMSN 151005Z 01004KT 9SM CLR 13/11 A3013 680 89 600 360/04 RMK AO2
14837KMSN MSN20030615041009106/15/03 04:10:31  5-MIN KMSN 151010Z 01005KT 8SM CLR 13/12 A3013 680 93 600 010/05 RMK AO2
14837KMSN MSN20030615041509106/15/03 04:15:31  5-MIN KMSN 151015Z 01005KT 7SM CLR 13/12 A3012 680 89 700 010/05 RMK AO2
14837KMSN MSN20030615042009106/15/03 04:20:31  5-MIN KMSN 151020Z 01004KT 7SM CLR 13/12 A3012 680 89 700 010/04 RMK AO2
14837KMSN MSN20030615042509106/15/03 04:25:31  5-MIN KMSN 151025Z 01004KT 7SM CLR 13/12 A3013 670 89 700 010/04 RMK AO2
14837KMSN MSN20030615043009106/15/03 04:30:31  5-MIN KMSN 151030Z 01004KT 7SM CLR 13/12 A3013 670 89 700 010/04 RMK AO2
14837KMSN MSN20030615043509106/15/03 04:35:31  5-MIN KMSN 151035Z 04003KT 7SM CLR 13/11 A3013 670 89 600 040/03 RMK AO2
14837KMSN MSN20030615044009106/15/03 04:40:31  5-MIN KMSN 151040Z 04004KT 7SM CLR 13/11 A3013 670 89 600 040/04 RMK AO2
14837KMSN MSN20030615044509106/15/03 04:45:31  5-MIN KMSN 151045Z 04005KT 7SM CLR 13/11 A3013 670 89 600 040/05 RMK AO2
14837KMSN MSN20030615045010806/15/03 04:50:31  5-MIN KMSN 151050Z 05005KT 7SM CLR 13/11 A3013 670 89 600 050/05 RMK AO2 SLP200 T01280111
14837KMSN MSN20030615045509106/15/03 04:55:31  5-MIN KMSN 151055Z 05005KT 8SM CLR 13/11 A3013 670 89 600 050/05 RMK AO2
14837KMSN MSN20030615050009106/15/03 05:00:31  5-MIN KMSN 151100Z 05004KT 8SM CLR 13/12 A3013 670 89 700 040/04 RMK AO2
14837KMSN MSN20030615050509106/15/03 05:05:31  5-MIN KMSN 151105Z 03005KT 8SM CLR 14/12 A3013 670 86 700 030/05 RMK AO2
14837KMSN MSN20030615051009106/15/03 05:10:31  5-MIN KMSN 151110Z 02006KT 9SM CLR 14/12 A3013 670 90 700 020/06 RMK AO2
14837KMSN MSN20030615051509106/15/03 05:15:31  5-MIN KMSN 151115Z 03006KT 9SM CLR 14/12 A3013 670 86 800 030/06 RMK AO2
14837KMSN MSN20030615052009106/15/03 05:20:31  5-MIN KMSN 151120Z 02004KT 9SM CLR 14/12 A3013 670 86 800 010/04 RMK AO2
14837KMSN MSN20030615052509106/15/03 05:25:31  5-MIN KMSN 151125Z 02005KT 9SM CLR 15/13 A3013 670 86 900 020/05 RMK AO2
14837KMSN MSN20030615053009106/15/03 05:30:31  5-MIN KMSN 151130Z 01005KT 9SM CLR 16/13 A3014 670 83 900 010/05 RMK AO2
14837KMSN MSN20030615053509106/15/03 05:35:31  5-MIN KMSN 151135Z 36003KT 9SM CLR 16/13 A3014 660 83 900 360/03 RMK AO2
14837KMSN MSN20030615054009106/15/03 05:40:31  5-MIN KMSN 151140Z 02004KT 9SM CLR 16/13 A3014 660 83 900 020/04 RMK AO2
14837KMSN MSN20030615054509106/15/03 05:45:31  5-MIN KMSN 151145Z 01005KT 9SM CLR 16/13 A3014 660 83 900 010/05 RMK AO2
14837KMSN MSN20030615055012706/15/03 05:50:31  5-MIN KMSN 151150Z 03005KT 10SM CLR 16/12 A3015 660 80 900 020/05 RMK AO2 SLP205 T01560122 10156 20128 50004
14837KMSN MSN20030615055509306/15/03 05:55:31  5-MIN KMSN 151155Z 01005KT 10SM CLR 16/13 A3015 660 80 1000 010/05 RMK AO2
14837KMSN MSN20030615060009306/15/03 06:00:31  5-MIN KMSN 151200Z 01005KT 10SM CLR 16/13 A3015 650 80 1000 010/05 RMK AO2
14837KMSN MSN20030615060509306/15/03 06:05:31  5-MIN KMSN 151205Z 02004KT 10SM CLR 16/13 A3015 660 80 1000 020/04 RMK AO2
14837KMSN MSN20030615061009306/15/03 06:10:31  5-MIN KMSN 151210Z 04004KT 10SM CLR 16/13 A3015 660 80 1000 040/04 RMK AO2
14837KMSN MSN20030615061509306/15/03 06:15:31  5-MIN KMSN 151215Z 03004KT 10SM CLR 16/13 A3015 650 80 1000 030/04 RMK AO2
14837KMSN MSN20030615062009306/15/03 06:20:31  5-MIN KMSN 151220Z 04005KT 10SM CLR 17/13 A3015 650 77 1000 030/05 RMK AO2
14837KMSN MSN20030615062509306/15/03 06:25:31  5-MIN KMSN 151225Z 03007KT 10SM CLR 17/13 A3015 650 77 1000 030/07 RMK AO2
14837KMSN MSN20030615063009306/15/03 06:30:31  5-MIN KMSN 151230Z 04007KT 10SM CLR 17/13 A3015 650 77 1000 040/07 RMK AO2
14837KMSN MSN20030615063509306/15/03 06:35:31  5-MIN KMSN 151235Z 04007KT 10SM CLR 17/13 A3015 650 77 1000 040/07 RMK AO2
14837KMSN MSN20030615064009306/15/03 06:40:31  5-MIN KMSN 151240Z 03006KT 10SM CLR 17/13 A3015 650 75 1100 030/06 RMK AO2
14837KMSN MSN20030615064509306/15/03 06:45:31  5-MIN KMSN 151245Z 04006KT 10SM CLR 17/13 A3015 650 78 1100 040/06 RMK AO2
14837KMSN MSN20030615065011006/15/03 06:50:31  5-MIN KMSN 151250Z 04006KT 10SM CLR 17/13 A3015 650 75 1100 040/06 RMK AO2 SLP208 T01720128
14837KMSN MSN20030615065509306/15/03 06:55:31  5-MIN KMSN 151255Z 04007KT 10SM CLR 17/13 A3016 650 75 1100 040/07 RMK AO2
14837KMSN MSN20030615070009306/15/03 07:00:31  5-MIN KMSN 151300Z 03006KT 10SM CLR 17/13 A3016 650 75 1100 030/06 RMK AO2
14837KMSN MSN20030615070509306/15/03 07:05:31  5-MIN KMSN 151305Z 03005KT 10SM CLR 18/13 A3016 650 75 1200 030/05 RMK AO2
14837KMSN MSN20030615071009306/15/03 07:10:31  5-MIN KMSN 151310Z 03006KT 10SM CLR 18/13 A3016 650 72 1200 030/06 RMK AO2
14837KMSN MSN20030615071509306/15/03 07:15:31  5-MIN KMSN 151315Z 02007KT 10SM CLR 18/13 A3016 640 72 1200 020/07 RMK AO2
14837KMSN MSN20030615072009306/15/03 07:20:31  5-MIN KMSN 151320Z 04005KT 10SM CLR 18/13 A3016 650 72 1200 040/05 RMK AO2
14837KMSN MSN20030615072509306/15/03 07:25:31  5-MIN KMSN 151325Z 04007KT 10SM CLR 19/13 A3016 650 70 1300 040/07 RMK AO2
14837KMSN MSN20030615073009306/15/03 07:30:31  5-MIN KMSN 151330Z 04007KT 10SM CLR 19/13 A3016 640 70 1300 040/07 RMK AO2
14837KMSN MSN20030615073509306/15/03 07:35:31  5-MIN KMSN 151335Z 03006KT 10SM CLR 19/13 A3016 640 70 1300 030/06 RMK AO2
14837KMSN MSN20030615074009306/15/03 07:40:31  5-MIN KMSN 151340Z 06006KT 10SM CLR 19/13 A3016 640 67 1400 060/06 RMK AO2
14837KMSN MSN20030615074509306/15/03 07:45:31  5-MIN KMSN 151345Z 01004KT 10SM CLR 19/13 A3016 650 67 1400 010/04 RMK AO2
14837KMSN MSN20030615075011006/15/03 07:50:31  5-MIN KMSN 151350Z 05006KT 10SM CLR 19/13 A3016 650 67 1400 050/06 RMK AO2 SLP209 T01940133
14837KMSN MSN20030615075509306/15/03 07:55:31  5-MIN KMSN 151355Z 03004KT 10SM CLR 19/13 A3016 640 70 1300 030/04 RMK AO2
14837KMSN MSN20030615080009306/15/03 08:00:31  5-MIN KMSN 151400Z 03005KT 10SM CLR 19/13 A3016 650 67 1400 030/05 RMK AO2
14837KMSN MSN20030615080509306/15/03 08:05:31  5-MIN KMSN 151405Z 35004KT 10SM CLR 20/14 A3016 650 67 1400 350/04 RMK AO2
14837KMSN MSN20030615081009306/15/03 08:10:31  5-MIN KMSN 151410Z 01006KT 10SM CLR 21/14 A3016 650 65 1500 010/06 RMK AO2
14837KMSN MSN20030615081509306/15/03 08:15:31  5-MIN KMSN 151415Z 01006KT 10SM CLR 21/13 A3016 650 63 1500 010/06 RMK AO2
14837KMSN MSN20030615082009306/15/03 08:20:31  5-MIN KMSN 151420Z 02008KT 10SM CLR 21/14 A3015 650 63 1600 020/08 RMK AO2
14837KMSN MSN20030615082509306/15/03 08:25:31  5-MIN KMSN 151425Z 01008KT 10SM CLR 21/14 A3015 650 63 1600 010/08 RMK AO2
14837KMSN MSN20030615083009306/15/03 08:30:31  5-MIN KMSN 151430Z 01008KT 10SM CLR 22/14 A3016 650 61 1600 010/08 RMK AO2
14837KMSN MSN20030615083509306/15/03 08:35:31  5-MIN KMSN 151435Z 02008KT 10SM CLR 22/13 A3016 650 58 1600 020/08 RMK AO2
14837KMSN MSN20030615084009306/15/03 08:40:31  5-MIN KMSN 151440Z 04008KT 10SM CLR 22/13 A3015 650 56 1700 040/08 RMK AO2
14837KMSN MSN20030615084509306/15/03 08:45:31  5-MIN KMSN 151445Z 04009KT 10SM CLR 22/13 A3016 650 54 1700 040/09 RMK AO2
14837KMSN MSN20030615085011606/15/03 08:50:31  5-MIN KMSN 151450Z 01008KT 10SM CLR 22/13 A3016 650 56 1700 010/08 RMK AO2 SLP209 T02220133 53007
14837KMSN MSN20030615085509306/15/03 08:55:31  5-MIN KMSN 151455Z 03007KT 10SM CLR 22/13 A3016 650 54 1700 030/07 RMK AO2
14837KMSN MSN20030615090009306/15/03 09:00:31  5-MIN KMSN 151500Z 04009KT 10SM CLR 21/12 A3016 650 54 1500 040/09 RMK AO2
14837KMSN MSN20030615090509306/15/03 09:05:31  5-MIN KMSN 151505Z 06007KT 10SM CLR 21/12 A3016 650 54 1500 060/07 RMK AO2
14837KMSN MSN20030615091010906/15/03 09:10:31  5-MIN KMSN 151510Z 02007KT 350V050 10SM CLR 22/13 A3015 650 56 1600 020/07 350V050 RMK AO2
14837KMSN MSN20030615091509306/15/03 09:15:31  5-MIN KMSN 151515Z 02009KT 10SM CLR 22/13 A3015 650 54 1700 020/09 RMK AO2
14837KMSN MSN20030615092009306/15/03 09:20:31  5-MIN KMSN 151520Z 02008KT 10SM CLR 22/13 A3015 650 54 1700 010/08 RMK AO2
14837KMSN MSN20030615092509306/15/03 09:25:31  5-MIN KMSN 151525Z 02008KT 10SM CLR 22/13 A3015 650 56 1600 020/08 RMK AO2
14837KMSN MSN20030615093009306/15/03 09:30:31  5-MIN KMSN 151530Z 02009KT 10SM CLR 22/12 A3015 650 54 1600 020/09 RMK AO2
14837KMSN MSN20030615093509306/15/03 09:35:31  5-MIN KMSN 151535Z 02009KT 10SM CLR 22/13 A3015 650 54 1700 020/09 RMK AO2
14837KMSN MSN20030615094009306/15/03 09:40:31  5-MIN KMSN 151540Z 02009KT 10SM CLR 22/13 A3015 650 54 1700 010/09 RMK AO2
14837KMSN MSN20030615094509306/15/03 09:45:31  5-MIN KMSN 151545Z 04007KT 10SM CLR 22/12 A3015 650 54 1600 040/07 RMK AO2
14837KMSN MSN20030615095011006/15/03 09:50:31  5-MIN KMSN 151550Z 04009KT 10SM CLR 22/12 A3015 650 52 1700 030/09 RMK AO2 SLP208 T02220122
14837KMSN MSN20030615095509306/15/03 09:55:31  5-MIN KMSN 151555Z 03008KT 10SM CLR 22/12 A3016 650 52 1700 020/08 RMK AO2
14837KMSN MSN20030615100009306/15/03 10:00:31  5-MIN KMSN 151600Z 04009KT 10SM CLR 22/12 A3016 650 52 1700 040/09 RMK AO2
14837KMSN MSN20030615100509306/15/03 10:05:31  5-MIN KMSN 151605Z 03010KT 10SM CLR 22/12 A3016 650 51 1700 030/10 RMK AO2
14837KMSN MSN20030615101009306/15/03 10:10:31  5-MIN KMSN 151610Z 02011KT 10SM CLR 22/12 A3016 650 51 1700 020/11 RMK AO2
14837KMSN MSN20030615101509306/15/03 10:15:31  5-MIN KMSN 151615Z 05009KT 10SM CLR 23/12 A3015 650 49 1800 050/09 RMK AO2
14837KMSN MSN20030615102009306/15/03 10:20:31  5-MIN KMSN 151620Z 02012KT 10SM CLR 24/12 A3015 650 46 1900 020/12 RMK AO2
14837KMSN MSN20030615102509306/15/03 10:25:31  5-MIN KMSN 151625Z 02011KT 10SM CLR 24/12 A3015 650 46 1900 010/11 RMK AO2
14837KMSN MSN20030615103009306/15/03 10:30:31  5-MIN KMSN 151630Z 05008KT 10SM CLR 23/12 A3015 650 49 1800 050/08 RMK AO2
14837KMSN MSN20030615103509906/15/03 10:35:31  5-MIN KMSN 151635Z 02009G16KT 10SM CLR 24/12 A3015 650 47 1900 020/09G16 RMK AO2
14837KMSN MSN20030615104009906/15/03 10:40:31  5-MIN KMSN 151640Z 04012G16KT 10SM CLR 24/12 A3015 650 47 1900 040/12G16 RMK AO2
14837KMSN MSN20030615104509306/15/03 10:45:31  5-MIN KMSN 151645Z 04011KT 10SM CLR 23/12 A3015 650 47 1800 030/11 RMK AO2
14837KMSN MSN20030615105011006/15/03 10:50:31  5-MIN KMSN 151650Z 03010KT 10SM CLR 24/11 A3015 650 44 1900 030/10 RMK AO2 SLP207 T02390111
14837KMSN MSN20030615105509306/15/03 10:55:31  5-MIN KMSN 151655Z 04010KT 10SM CLR 24/11 A3015 650 44 1900 040/10 RMK AO2
14837KMSN MSN20030615110009306/15/03 11:00:31  5-MIN KMSN 151700Z 05011KT 10SM CLR 24/12 A3015 660 46 1900 040/11 RMK AO2
14837KMSN MSN20030615110509306/15/03 11:05:31  5-MIN KMSN 151705Z 04010KT 10SM CLR 24/12 A3014 660 46 1900 040/10 RMK AO2
14837KMSN MSN20030615111010906/15/03 11:10:31  5-MIN KMSN 151710Z 02008KT 350V060 10SM CLR 24/12 A3014 660 44 1900 020/08 350V060 RMK AO2
14837KMSN MSN20030615111509306/15/03 11:15:31  5-MIN KMSN 151715Z 03010KT 10SM CLR 24/12 A3014 660 44 1900 030/10 RMK AO2
14837KMSN MSN20030615112009306/15/03 11:20:31  5-MIN KMSN 151720Z 02012KT 10SM CLR 24/12 A3014 660 44 1900 020/12 RMK AO2
14837KMSN MSN20030615112510906/15/03 11:25:31  5-MIN KMSN 151725Z 01009KT 350V050 10SM CLR 25/13 A3014 660 46 2000 010/09 350V050 RMK AO2
14837KMSN MSN20030615113009306/15/03 11:30:31  5-MIN KMSN 151730Z 04011KT 10SM CLR 25/12 A3014 660 43 2000 040/11 RMK AO2
14837KMSN MSN20030615113509306/15/03 11:35:31  5-MIN KMSN 151735Z 01007KT 10SM CLR 25/11 A3014 660 41 2000 010/07 RMK AO2
14837KMSN MSN20030615114009306/15/03 11:40:31  5-MIN KMSN 151740Z 07010KT 10SM CLR 25/12 A3014 660 43 2000 070/10 RMK AO2
14837KMSN MSN20030615114509306/15/03 11:45:31  5-MIN KMSN 151745Z 36008KT 10SM CLR 24/12 A3014 660 46 1900 360/08 RMK AO2
14837KMSN MSN20030615115012806/15/03 11:50:31  5-MIN KMSN 151750Z 03010KT 10SM CLR 25/12 A3014 660 44 2000 030/10 RMK AO2 SLP204 T02500122 10250 20161 50004
14837KMSN MSN20030615115509306/15/03 11:55:31  5-MIN KMSN 151755Z 36010KT 10SM CLR 25/12 A3014 660 43 2000 360/10 RMK AO2
14837KMSN MSN20030615120009306/15/03 12:00:31  5-MIN KMSN 151800Z 02010KT 10SM CLR 25/12 A3014 660 43 2000 010/10 RMK AO2
14837KMSN MSN20030615120509306/15/03 12:05:31  5-MIN KMSN 151805Z 05007KT 10SM CLR 25/12 A3014 670 43 2000 040/07 RMK AO2
14837KMSN MSN20030615121009306/15/03 12:10:31  5-MIN KMSN 151810Z 05012KT 10SM CLR 26/11 A3014 670 38 2100 050/12 RMK AO2
14837KMSN MSN20030615121510906/15/03 12:15:31  5-MIN KMSN 151815Z 05009KT 010V070 10SM CLR 26/09 A3014 670 35 2100 050/09 010V070 RMK AO2
14837KMSN MSN20030615122009306/15/03 12:20:31  5-MIN KMSN 151820Z VRB06KT 10SM CLR 26/11 A3013 670 40 2100 VRB/06 RMK AO2
14837KMSN MSN20030615122509306/15/03 12:25:31  5-MIN KMSN 151825Z 01007KT 10SM CLR 25/11 A3013 670 41 2000 010/07 RMK AO2
14837KMSN MSN20030615123009306/15/03 12:30:31  5-MIN KMSN 151830Z 03008KT 10SM CLR 25/12 A3013 670 43 2000 030/08 RMK AO2
14837KMSN MSN20030615123509306/15/03 12:35:31  5-MIN KMSN 151835Z 02012KT 10SM CLR 26/12 A3013 670 43 2100 020/12 RMK AO2
14837KMSN MSN20030615124009306/15/03 12:40:31  5-MIN KMSN 151840Z 01010KT 10SM CLR 26/12 A3013 670 41 2100 010/10 RMK AO2
14837KMSN MSN20030615124509306/15/03 12:45:31  5-MIN KMSN 151845Z 01008KT 10SM CLR 26/11 A3014 660 38 2100 010/08 RMK AO2
14837KMSN MSN20030615125012906/15/03 12:50:31  5-MIN KMSN 151850Z 05007KT 020V080 10SM FEW040 26/11 A3014 660 38 2100 050/07 020V080 RMK AO2 SLP202 T02560106
14837KMSN MSN20030615125509906/15/03 12:55:31  5-MIN KMSN 151855Z 05011G16KT 10SM CLR 26/11 A3014 660 37 2100 050/11G16 RMK AO2
14837KMSN MSN20030615130009906/15/03 13:00:31  5-MIN KMSN 151900Z 06008G16KT 10SM CLR 26/11 A3014 660 38 2100 060/08G16 RMK AO2
14837KMSN MSN20030615130509306/15/03 13:05:31  5-MIN KMSN 151905Z 03008KT 10SM CLR 26/11 A3013 670 40 2100 030/08 RMK AO2
14837KMSN MSN20030615131009306/15/03 13:10:31  5-MIN KMSN 151910Z 06012KT 10SM CLR 26/11 A3013 670 37 2100 050/12 RMK AO2
14837KMSN MSN20030615131509306/15/03 13:15:31  5-MIN KMSN 151915Z 07009KT 10SM CLR 26/11 A3013 670 38 2100 070/09 RMK AO2
14837KMSN MSN20030615132009306/15/03 13:20:31  5-MIN KMSN 151920Z 36010KT 10SM CLR 26/11 A3013 670 38 2100 360/10 RMK AO2
14837KMSN MSN20030615132509306/15/03 13:25:31  5-MIN KMSN 151925Z 03010KT 10SM CLR 26/11 A3013 670 37 2100 030/10 RMK AO2
14837KMSN MSN20030615133009306/15/03 13:30:31  5-MIN KMSN 151930Z 02008KT 10SM CLR 27/11 A3013 670 36 2200 020/08 RMK AO2
14837KMSN MSN20030615133509306/15/03 13:35:31  5-MIN KMSN 151935Z 05008KT 10SM CLR 26/11 A3013 670 37 2100 050/08 RMK AO2
14837KMSN MSN20030615134009306/15/03 13:40:31  5-MIN KMSN 151940Z 03008KT 10SM CLR 26/10 A3013 670 36 2100 020/08 RMK AO2
14837KMSN MSN20030615134509606/15/03 13:45:31  5-MIN KMSN 151945Z 05012KT 10SM FEW040 27/09 A3013 670 33 2200 050/12 RMK AO2
14837KMSN MSN20030615135011306/15/03 13:50:31  5-MIN KMSN 151950Z 05007KT 10SM FEW040 26/08 A3013 670 32 2100 050/07 RMK AO2 SLP201 T02610083
14837KMSN MSN20030615135509306/15/03 13:55:31  5-MIN KMSN 151955Z 05009KT 10SM CLR 27/09 A3013 670 33 2200 050/09 RMK AO2
14837KMSN MSN20030615140011206/15/03 14:00:31  5-MIN KMSN 152000Z 05007KT 010V110 10SM FEW045 26/09 A3013 670 34 2100 050/07 010V110 RMK AO2
14837KMSN MSN20030615140509606/15/03 14:05:31  5-MIN KMSN 152005Z 02009KT 10SM FEW045 27/09 A3013 670 33 2200 020/09 RMK AO2
14837KMSN MSN20030615141009606/15/03 14:10:31  5-MIN KMSN 152010Z 06010KT 10SM FEW045 27/09 A3013 670 33 2200 060/10 RMK AO2
14837KMSN MSN20030615141509606/15/03 14:15:31  5-MIN KMSN 152015Z 05006KT 10SM FEW045 26/09 A3013 670 34 2100 050/06 RMK AO2
14837KMSN MSN20030615180509606/15/03 18:05:31  5-MIN KMSN 160005Z 05008KT 10SM SCT055 25/13 A3010 700 48 2100 050/08 RMK AO2
14837KMSN MSN20030615181009606/15/03 18:10:31  5-MIN KMSN 160010Z 07008KT 10SM BKN050 25/14 A3010 700 49 2100 070/08 RMK AO2
14837KMSN MSN20030615181510306/15/03 18:15:31  5-MIN KMSN 160015Z 08008KT 10SM BKN050 BKN060 25/14 A3010 700 49 2000 080/08 RMK AO2
14837KMSN MSN20030615182009606/15/03 18:20:31  5-MIN KMSN 160020Z 08006KT 10SM BKN050 25/14 A3010 700 49 2100 070/06 RMK AO2
14837KMSN MSN20030615182510306/15/03 18:25:31  5-MIN KMSN 160025Z 08007KT 10SM BKN050 BKN060 25/13 A3010 700 48 2100 080/07 RMK AO2
14837KMSN MSN20030615183009606/15/03 18:30:31  5-MIN KMSN 160030Z 08007KT 10SM BKN050 24/14 A3010 700 51 2000 080/07 RMK AO2
14837KMSN MSN20030615183509606/15/03 18:35:31  5-MIN KMSN 160035Z 07007KT 10SM SCT050 24/14 A3010 700 53 1900 070/07 RMK AO2
14837KMSN MSN20030615184009606/15/03 18:40:31  5-MIN KMSN 160040Z 07008KT 10SM FEW050 24/14 A3010 700 53 1900 070/08 RMK AO2
14837KMSN MSN20030615184509606/15/03 18:45:31  5-MIN KMSN 160045Z 07007KT 10SM FEW050 23/14 A3010 700 55 1900 060/07 RMK AO2
14837KMSN MSN20030615185011306/15/03 18:50:31  5-MIN KMSN 160050Z 06007KT 10SM FEW050 23/14 A3010 700 55 1900 060/07 RMK AO2 SLP190 T02330139
14837KMSN MSN20030615185509306/15/03 18:55:31  5-MIN KMSN 160055Z 07006KT 10SM CLR 23/14 A3010 700 57 1800 060/06 RMK AO2
14837KMSN MSN20030615190009306/15/03 19:00:31  5-MIN KMSN 160100Z 07006KT 10SM CLR 23/14 A3010 700 57 1800 070/06 RMK AO2
14837KMSN MSN20030615190509306/15/03 19:05:31  5-MIN KMSN 160105Z 06005KT 10SM CLR 22/14 A3010 700 59 1700 060/05 RMK AO2
14837KMSN MSN20030615191009306/15/03 19:10:31  5-MIN KMSN 160110Z 05004KT 10SM CLR 22/14 A3010 700 61 1700 050/04 RMK AO2
14837KMSN MSN20030615191509306/15/03 19:15:31  5-MIN KMSN 160115Z 05004KT 10SM CLR 22/13 A3010 690 58 1700 040/04 RMK AO2
14837KMSN MSN20030615192009306/15/03 19:20:31  5-MIN KMSN 160120Z 04005KT 10SM CLR 22/13 A3011 690 56 1700 040/05 RMK AO2
14837KMSN MSN20030615192509306/15/03 19:25:31  5-MIN KMSN 160125Z 04005KT 10SM CLR 22/13 A3011 690 56 1700 040/05 RMK AO2
14837KMSN MSN20030615193009306/15/03 19:30:31  5-MIN KMSN 160130Z 03005KT 10SM CLR 21/13 A3011 690 58 1600 030/05 RMK AO2
14837KMSN MSN20030615193509306/15/03 19:35:31  5-MIN KMSN 160135Z 03005KT 10SM CLR 21/12 A3011 690 56 1600 030/05 RMK AO2
14837KMSN MSN20030615194009306/15/03 19:40:31  5-MIN KMSN 160140Z 36005KT 10SM CLR 21/13 A3011 690 58 1600 360/05 RMK AO2
14837KMSN MSN20030615194509306/15/03 19:45:31  5-MIN KMSN 160145Z 36006KT 10SM CLR 21/13 A3011 690 58 1600 360/06 RMK AO2
14837KMSN MSN20030615195011306/15/03 19:50:31  5-MIN KMSN 160150Z 36006KT 10SM FEW055 21/13 A3011 690 58 1600 360/06 RMK AO2 SLP194 T02110128
14837KMSN MSN20030615195509306/15/03 19:55:31  5-MIN KMSN 160155Z 01006KT 10SM CLR 21/13 A3011 680 63 1500 360/06 RMK AO2
14837KMSN MSN20030615200009306/15/03 20:00:31  5-MIN KMSN 160200Z 36006KT 10SM CLR 21/13 A3012 680 63 1500 360/06 RMK AO2
14837KMSN MSN20030615200509306/15/03 20:05:31  5-MIN KMSN 160205Z 36005KT 10SM CLR 21/13 A3012 680 63 1500 360/05 RMK AO2
14837KMSN MSN20030615201009306/15/03 20:10:31  5-MIN KMSN 160210Z 01005KT 10SM CLR 20/13 A3012 680 65 1500 010/05 RMK AO2
14837KMSN MSN20030615201509306/15/03 20:15:31  5-MIN KMSN 160215Z 02005KT 10SM CLR 19/13 A3012 680 70 1300 020/05 RMK AO2
14837KMSN MSN20030615202009306/15/03 20:20:31  5-MIN KMSN 160220Z 05004KT 10SM CLR 19/13 A3012 680 67 1400 050/04 RMK AO2
14837KMSN MSN20030615202509306/15/03 20:25:31  5-MIN KMSN 160225Z 04006KT 10SM CLR 18/13 A3012 680 70 1300 030/06 RMK AO2
14837KMSN MSN20030615203009306/15/03 20:30:31  5-MIN KMSN 160230Z 03005KT 10SM CLR 19/13 A3012 680 67 1400 030/05 RMK AO2
14837KMSN MSN20030615203509306/15/03 20:35:31  5-MIN KMSN 160235Z 03006KT 10SM CLR 19/13 A3013 670 67 1400 030/06 RMK AO2
14837KMSN MSN20030615204009306/15/03 20:40:31  5-MIN KMSN 160240Z 03006KT 10SM CLR 19/13 A3013 670 70 1300 030/06 RMK AO2
14837KMSN MSN20030615204509306/15/03 20:45:31  5-MIN KMSN 160245Z 03007KT 10SM CLR 19/13 A3013 670 67 1400 030/07 RMK AO2
14837KMSN MSN20030615205011606/15/03 20:50:31  5-MIN KMSN 160250Z 03007KT 10SM CLR 19/13 A3013 670 67 1400 030/07 RMK AO2 SLP199 T01940133 56006
14837KMSN MSN20030615205509306/15/03 20:55:31  5-MIN KMSN 160255Z 04007KT 10SM CLR 20/13 A3013 670 65 1400 040/07 RMK AO2
14837KMSN MSN20030615210009306/15/03 21:00:31  5-MIN KMSN 160300Z 04007KT 10SM CLR 19/13 A3013 670 67 1400 040/07 RMK AO2
14837KMSN MSN20030615210509306/15/03 21:05:31  5-MIN KMSN 160305Z 04006KT 10SM CLR 19/13 A3013 670 70 1300 040/06 RMK AO2
14837KMSN MSN20030615211009306/15/03 21:10:31  5-MIN KMSN 160310Z 04006KT 10SM CLR 19/13 A3013 670 70 1300 040/06 RMK AO2
14837KMSN MSN20030615211509306/15/03 21:15:31  5-MIN KMSN 160315Z 05005KT 10SM CLR 18/13 A3014 670 72 1300 040/05 RMK AO2
14837KMSN MSN20030615212009306/15/03 21:20:31  5-MIN KMSN 160320Z 05005KT 10SM CLR 18/13 A3013 670 72 1300 040/05 RMK AO2
14837KMSN MSN20030615212509306/15/03 21:25:31  5-MIN KMSN 160325Z 05005KT 10SM CLR 18/13 A3014 670 75 1200 050/05 RMK AO2
14837KMSN MSN20030615213009306/15/03 21:30:31  5-MIN KMSN 160330Z 06006KT 10SM CLR 18/13 A3014 660 75 1200 060/06 RMK AO2
14837KMSN MSN20030615213509306/15/03 21:35:31  5-MIN KMSN 160335Z 07007KT 10SM CLR 17/13 A3014 660 78 1100 070/07 RMK AO2
14837KMSN MSN20030615214009306/15/03 21:40:31  5-MIN KMSN 160340Z 08008KT 10SM CLR 18/13 A3014 660 75 1200 080/08 RMK AO2
14837KMSN MSN20030615214509306/15/03 21:45:31  5-MIN KMSN 160345Z 09006KT 10SM CLR 18/13 A3014 660 75 1200 090/06 RMK AO2
14837KMSN MSN20030615215011006/15/03 21:50:31  5-MIN KMSN 160350Z 10007KT 10SM CLR 18/13 A3014 660 75 1200 100/07 RMK AO2 SLP204 T01780133
14837KMSN MSN20030615215509306/15/03 21:55:31  5-MIN KMSN 160355Z 10008KT 10SM CLR 19/13 A3014 660 70 1300 100/08 RMK AO2
14837KMSN MSN20030615220009306/15/03 22:00:31  5-MIN KMSN 160400Z 10007KT 10SM CLR 18/13 A3014 660 72 1200 100/07 RMK AO2
14837KMSN MSN20030615220509306/15/03 22:05:31  5-MIN KMSN 160405Z 10007KT 10SM CLR 18/13 A3014 660 72 1200 100/07 RMK AO2
14837KMSN MSN20030615221009306/15/03 22:10:31  5-MIN KMSN 160410Z 09006KT 10SM CLR 18/13 A3014 660 75 1200 090/06 RMK AO2
14837KMSN MSN20030615221509306/15/03 22:15:31  5-MIN KMSN 160415Z 10007KT 10SM CLR 18/13 A3014 660 75 1200 100/07 RMK AO2
14837KMSN MSN20030615222009306/15/03 22:20:31  5-MIN KMSN 160420Z 10006KT 10SM CLR 18/13 A3014 660 75 1200 090/06 RMK AO2
14837KMSN MSN20030615222509306/15/03 22:25:31  5-MIN KMSN 160425Z 09003KT 10SM CLR 17/13 A3015 660 78 1100 090/03 RMK AO2
14837KMSN MSN20030615223009306/15/03 22:30:31  5-MIN KMSN 160430Z 10004KT 10SM CLR 17/13 A3015 660 75 1100 090/04 RMK AO2
14837KMSN MSN20030615223509306/15/03 22:35:31  5-MIN KMSN 160435Z 10004KT 10SM CLR 17/13 A3014 660 75 1100 100/04 RMK AO2
14837KMSN MSN20030615224009306/15/03 22:40:31  5-MIN KMSN 160440Z 10004KT 10SM CLR 17/13 A3014 660 77 1000 090/04 RMK AO2
14837KMSN MSN20030615224509306/15/03 22:45:31  5-MIN KMSN 160445Z 10003KT 10SM CLR 17/13 A3014 660 77 1000 090/03 RMK AO2
14837KMSN MSN20030615225011006/15/03 22:50:31  5-MIN KMSN 160450Z 09004KT 10SM CLR 17/13 A3014 660 77 1100 090/04 RMK AO2 SLP204 T01670128
14837KMSN MSN20030615225509206/15/03 22:55:31  5-MIN KMSN 160455Z 07004KT 10SM CLR 16/12 A3014 660 80 900 070/04 RMK AO2
14837KMSN MSN20030615230009206/15/03 23:00:31  5-MIN KMSN 160500Z 07003KT 10SM CLR 16/12 A3014 660 80 900 060/03 RMK AO2
14837KMSN MSN20030615230509306/15/03 23:05:31  5-MIN KMSN 160505Z 05003KT 10SM CLR 16/13 A3014 660 80 1000 050/03 RMK AO2
14837KMSN MSN20030615231009206/15/03 23:10:31  5-MIN KMSN 160510Z 00000KT 10SM CLR 15/12 A3014 660 83 900 000/00 RMK AO2
14837KMSN MSN20030615231509206/15/03 23:15:31  5-MIN KMSN 160515Z 00000KT 10SM CLR 14/12 A3014 660 86 800 000/00 RMK AO2
14837KMSN MSN20030615232009206/15/03 23:20:31  5-MIN KMSN 160520Z 00000KT 10SM CLR 14/13 A3014 660 90 800 000/00 RMK AO2
14837KMSN MSN20030615232509206/15/03 23:25:31  5-MIN KMSN 160525Z 00000KT 10SM CLR 14/13 A3014 660 90 800 000/00 RMK AO2
14837KMSN MSN20030615233009206/15/03 23:30:31  5-MIN KMSN 160530Z 00000KT 10SM CLR 14/13 A3014 660 90 800 000/00 RMK AO2
14837KMSN MSN20030615233509206/15/03 23:35:31  5-MIN KMSN 160535Z 00000KT 10SM CLR 14/13 A3014 660 90 800 000/00 RMK AO2
14837KMSN MSN20030615234009206/15/03 23:40:31  5-MIN KMSN 160540Z 00000KT 10SM CLR 14/13 A3014 660 90 800 000/00 RMK AO2
14837KMSN MSN20030615234509206/15/03 23:45:31  5-MIN KMSN 160545Z 00000KT 10SM CLR 14/13 A3014 660 93 700 000/00 RMK AO2
14837KMSN MSN20030615235013706/15/03 23:50:31  5-MIN KMSN 160550Z 00000KT 10SM CLR 14/12 A3014 660 90 700 000/00 RMK AO2 SLP204 T01390122 10256 20139 402670128 53009
14837KMSN MSN20030615235509206/15/03 23:55:31  5-MIN KMSN 160555Z 00000KT 10SM CLR 14/12 A3014 660 90 700 000/00 RMK AO2
14837KMSN MSN20030616000009206/16/03 00:00:31  5-MIN KMSN 160600Z 00000KT 10SM CLR 14/12 A3014 660 90 700 000/00 RMK AO2
14837KMSN MSN20030616000509206/16/03 00:05:31  5-MIN KMSN 160605Z 00000KT 10SM CLR 14/12 A3014 660 90 700 000/00 RMK AO2
14837KMSN MSN20030616001009206/16/03 00:10:31  5-MIN KMSN 160610Z 34003KT 10SM CLR 13/12 A3014 660 89 700 340/03 RMK AO2
14837KMSN MSN20030616001509206/16/03 00:15:31  5-MIN KMSN 160615Z 35003KT 10SM CLR 13/12 A3014 660 93 600 350/03 RMK AO2
14837KMSN MSN20030616002009206/16/03 00:20:31  5-MIN KMSN 160620Z 01003KT 10SM CLR 13/12 A3014 660 93 700 010/03 RMK AO2
14837KMSN MSN20030616002509206/16/03 00:25:31  5-MIN KMSN 160625Z 00000KT 10SM CLR 14/12 A3014 660 90 700 000/00 RMK AO2
14837KMSN MSN20030616003009206/16/03 00:30:31  5-MIN KMSN 160630Z 00000KT 10SM CLR 13/12 A3015 660 93 700 000/00 RMK AO2
14837KMSN MSN20030616003509206/16/03 00:35:31  5-MIN KMSN 160635Z 00000KT 10SM CLR 13/12 A3015 660 89 700 000/00 RMK AO2
14837KMSN MSN20030616004009206/16/03 00:40:31  5-MIN KMSN 160640Z 00000KT 10SM CLR 13/12 A3015 650 93 600 000/00 RMK AO2
14837KMSN MSN20030616004509206/16/03 00:45:31  5-MIN KMSN 160645Z 00000KT 10SM CLR 13/12 A3015 650 89 700 000/00 RMK AO2
14837KMSN MSN20030616005010906/16/03 00:50:31  5-MIN KMSN 160650Z 00000KT 10SM CLR 13/12 A3014 660 89 700 000/00 RMK AO2 SLP205 T01330117
14837KMSN MSN20030616005509206/16/03 00:55:31  5-MIN KMSN 160655Z 00000KT 10SM CLR 13/12 A3014 660 89 700 000/00 RMK AO2
14837KMSN MSN20030616010009206/16/03 01:00:31  5-MIN KMSN 160700Z 00000KT 10SM CLR 13/11 A3014 660 89 600 000/00 RMK AO2
14837KMSN MSN20030616010509206/16/03 01:05:31  5-MIN KMSN 160705Z 00000KT 10SM CLR 12/11 A3014 660 93 500 000/00 RMK AO2
14837KMSN MSN20030616011009206/16/03 01:10:31  5-MIN KMSN 160710Z 00000KT 10SM CLR 13/11 A3014 660 89 600 000/00 RMK AO2
14837KMSN MSN20030616011509206/16/03 01:15:31  5-MIN KMSN 160715Z 00000KT 10SM CLR 13/11 A3014 660 89 600 000/00 RMK AO2
14837KMSN MSN20030616012009206/16/03 01:20:31  5-MIN KMSN 160720Z 00000KT 10SM CLR 12/11 A3014 660 93 500 000/00 RMK AO2
14837KMSN MSN20030616012509206/16/03 01:25:31  5-MIN KMSN 160725Z 00000KT 10SM CLR 13/12 A3015 660 93 600 000/00 RMK AO2
14837KMSN MSN20030616013009206/16/03 01:30:31  5-MIN KMSN 160730Z 00000KT 10SM CLR 12/11 A3014 660 93 500 000/00 RMK AO2
14837KMSN MSN20030616013509206/16/03 01:35:31  5-MIN KMSN 160735Z 00000KT 10SM CLR 12/11 A3015 660 93 500 000/00 RMK AO2
14837KMSN MSN20030616014009206/16/03 01:40:31  5-MIN KMSN 160740Z 00000KT 10SM CLR 13/12 A3015 660 93 600 000/00 RMK AO2
14837KMSN MSN20030616014509206/16/03 01:45:31  5-MIN KMSN 160745Z 00000KT 10SM CLR 13/11 A3014 660 89 600 000/00 RMK AO2
14837KMSN MSN20030616015010906/16/03 01:50:31  5-MIN KMSN 160750Z 00000KT 10SM CLR 12/11 A3014 660 93 500 000/00 RMK AO2 SLP205 T01220111
14837KMSN MSN20030616015509206/16/03 01:55:31  5-MIN KMSN 160755Z 00000KT 10SM CLR 12/11 A3014 660 93 500 000/00 RMK AO2
14837KMSN MSN20030616020009206/16/03 02:00:31  5-MIN KMSN 160800Z 00000KT 10SM CLR 12/11 A3014 660 96 500 000/00 RMK AO2
14837KMSN MSN20030616020509206/16/03 02:05:31  5-MIN KMSN 160805Z 00000KT 10SM CLR 12/11 A3014 660 96 500 000/00 RMK AO2
14837KMSN MSN20030616021009206/16/03 02:10:31  5-MIN KMSN 160810Z 00000KT 10SM CLR 12/11 A3014 660 93 500 000/00 RMK AO2
14837KMSN MSN20030616021509106/16/03 02:15:31  5-MIN KMSN 160815Z 00000KT 9SM CLR 11/11 A3015 660 96 400 000/00 RMK AO2
14837KMSN MSN20030616022009106/16/03 02:20:31  5-MIN KMSN 160820Z 32003KT 9SM CLR 11/11 A3015 650 96 400 320/03 RMK AO2
14837KMSN MSN20030616022509106/16/03 02:25:31  5-MIN KMSN 160825Z 00000KT 9SM CLR 12/11 A3015 650 93 500 000/00 RMK AO2
14837KMSN MSN20030616023009206/16/03 02:30:31  5-MIN KMSN 160830Z 00000KT 10SM CLR 11/11 A3015 650 96 400 000/00 RMK AO2
14837KMSN MSN20030616023509106/16/03 02:35:31  5-MIN KMSN 160835Z 00000KT 9SM CLR 11/10 A3015 650 93 400 000/00 RMK AO2
14837KMSN MSN20030616024009106/16/03 02:40:31  5-MIN KMSN 160840Z 00000KT 9SM CLR 11/11 A3015 650 96 400 000/00 RMK AO2
14837KMSN MSN20030616024509106/16/03 02:45:31  5-MIN KMSN 160845Z 00000KT 9SM CLR 11/11 A3015 650 96 400 000/00 RMK AO2
14837KMSN MSN20030616025011506/16/03 02:50:31  5-MIN KMSN 160850Z 00000KT 10SM CLR 11/11 A3015 650 96 400 000/00 RMK AO2 SLP208 T01110106 51003
14837KMSN MSN20030616025509106/16/03 02:55:31  5-MIN KMSN 160855Z 00000KT 8SM CLR 11/10 A3015 650 96 300 000/00 RMK AO2
14837KMSN MSN20030616030009106/16/03 03:00:31  5-MIN KMSN 160900Z 00000KT 7SM CLR 11/10 A3015 650 96 300 000/00 RMK AO2
14837KMSN MSN20030616030509106/16/03 03:05:31  5-MIN KMSN 160905Z 00000KT 7SM CLR 11/10 A3015 650 96 300 000/00 RMK AO2
14837KMSN MSN20030616031009106/16/03 03:10:31  5-MIN KMSN 160910Z 33003KT 7SM CLR 11/10 A3015 650 93 400 330/03 RMK AO2
14837KMSN MSN20030616031509106/16/03 03:15:31  5-MIN KMSN 160915Z 35003KT 8SM CLR 11/11 A3015 650 96 400 350/03 RMK AO2
14837KMSN MSN20030616032009106/16/03 03:20:31  5-MIN KMSN 160920Z 30003KT 9SM CLR 11/11 A3015 650 96 400 300/03 RMK AO2
14837KMSN MSN20030616032509106/16/03 03:25:31  5-MIN KMSN 160925Z 31004KT 9SM CLR 11/10 A3015 650 96 300 310/04 RMK AO2
14837KMSN MSN20030616033009106/16/03 03:30:31  5-MIN KMSN 160930Z 00000KT 8SM CLR 11/10 A3015 650 96 300 000/00 RMK AO2
14837KMSN MSN20030616033509106/16/03 03:35:31  5-MIN KMSN 160935Z 00000KT 7SM CLR 11/11 A3015 650 96 400 000/00 RMK AO2
14837KMSN MSN20030616034009106/16/03 03:40:31  5-MIN KMSN 160940Z 00000KT 8SM CLR 11/10 A3015 650 93 400 000/00 RMK AO2
14837KMSN MSN20030616034509106/16/03 03:45:31  5-MIN KMSN 160945Z 00000KT 9SM CLR 12/11 A3015 650 93 400 000/00 RMK AO2
14837KMSN MSN20030616035010906/16/03 03:50:31  5-MIN KMSN 160950Z 00000KT 10SM CLR 12/11 A3016 650 93 400 000/00 RMK AO2 SLP210 T01170106
14837KMSN MSN20030616035509106/16/03 03:55:31  5-MIN KMSN 160955Z 00000KT 8SM CLR 11/11 A3016 650 96 400 000/00 RMK AO2
14837KMSN MSN20030616040009106/16/03 04:00:31  5-MIN KMSN 161000Z 00000KT 8SM CLR 11/11 A3016 640 96 400 000/00 RMK AO2
14837KMSN MSN20030616040509106/16/03 04:05:31  5-MIN KMSN 161005Z 00000KT 8SM CLR 12/11 A3016 640 93 400 000/00 RMK AO2
14837KMSN MSN20030616041009106/16/03 04:10:31  5-MIN KMSN 161010Z 02004KT 8SM CLR 12/11 A3016 640 93 400 010/04 RMK AO2
14837KMSN MSN20030616041509106/16/03 04:15:31  5-MIN KMSN 161015Z 01003KT 7SM CLR 11/10 A3017 640 93 400 010/03 RMK AO2
14837KMSN MSN20030616042009406/16/03 04:20:31  5-MIN KMSN 161020Z 00000KT 6SM BR CLR 11/10 A3017 640 96 300 000/00 RMK AO2
14837KMSN MSN20030616042509406/16/03 04:25:31  5-MIN KMSN 161025Z 36003KT 6SM BR CLR 11/10 A3017 640 96 300 350/03 RMK AO2
14837KMSN MSN20030616043009406/16/03 04:30:31  5-MIN KMSN 161030Z 00000KT 6SM BR CLR 11/10 A3017 630 96 300 000/00 RMK AO2
14837KMSN MSN20030616043509106/16/03 04:35:31  5-MIN KMSN 161035Z 34003KT 7SM CLR 11/10 A3017 630 93 400 340/03 RMK AO2
14837KMSN MSN20030616044009106/16/03 04:40:31  5-MIN KMSN 161040Z 34003KT 7SM CLR 11/10 A3017 630 93 400 340/03 RMK AO2
14837KMSN MSN20030616044509106/16/03 04:45:31  5-MIN KMSN 161045Z 34003KT 7SM CLR 11/10 A3017 630 93 400 340/03 RMK AO2
14837KMSN MSN20030616045010806/16/03 04:50:31  5-MIN KMSN 161050Z 34003KT 7SM CLR 11/10 A3017 630 93 400 340/03 RMK AO2 SLP215 T01110100
14837KMSN MSN20030616045509106/16/03 04:55:31  5-MIN KMSN 161055Z 34003KT 8SM CLR 11/10 A3017 630 93 400 340/03 RMK AO2
14837KMSN MSN20030616050009106/16/03 05:00:31  5-MIN KMSN 161100Z 33003KT 8SM CLR 11/10 A3017 630 93 400 330/03 RMK AO2
14837KMSN MSN20030616050509106/16/03 05:05:31  5-MIN KMSN 161105Z 33004KT 8SM CLR 12/10 A3017 630 89 400 330/04 RMK AO2
14837KMSN MSN20030616051009106/16/03 05:10:31  5-MIN KMSN 161110Z 33004KT 8SM CLR 12/11 A3017 630 93 400 330/04 RMK AO2
14837KMSN MSN20030616051509106/16/03 05:15:31  5-MIN KMSN 161115Z 34004KT 8SM CLR 12/11 A3017 630 89 500 340/04 RMK AO2
14837KMSN MSN20030616052009106/16/03 05:20:31  5-MIN KMSN 161120Z 33005KT 8SM CLR 13/11 A3017 630 86 600 330/05 RMK AO2
14837KMSN MSN20030616052509106/16/03 05:25:31  5-MIN KMSN 161125Z 33005KT 8SM CLR 13/11 A3017 630 86 600 330/05 RMK AO2
14837KMSN MSN20030616053009106/16/03 05:30:31  5-MIN KMSN 161130Z 33004KT 8SM CLR 13/11 A3017 630 86 600 330/04 RMK AO2
14837KMSN MSN20030616053509106/16/03 05:35:31  5-MIN KMSN 161135Z 34004KT 8SM CLR 13/11 A3017 630 86 600 340/04 RMK AO2
14837KMSN MSN20030616054009106/16/03 05:40:31  5-MIN KMSN 161140Z 01004KT 8SM CLR 14/11 A3018 630 83 700 010/04 RMK AO2
14837KMSN MSN20030616054509106/16/03 05:45:31  5-MIN KMSN 161145Z 36004KT 8SM CLR 14/12 A3018 630 86 700 360/04 RMK AO2
14837KMSN MSN20030616055012706/16/03 05:50:31  5-MIN KMSN 161150Z 35003KT 10SM CLR 14/12 A3018 630 86 700 350/03 RMK AO2 SLP216 T01390117 10139 20106 53003
14837KMSN MSN20030616055509106/16/03 05:55:31  5-MIN KMSN 161155Z 00000KT 8SM CLR 14/12 A3018 630 83 700 000/00 RMK AO2
14837KMSN MSN20030616060009106/16/03 06:00:31  5-MIN KMSN 161200Z 00000KT 8SM CLR 14/12 A3018 630 86 700 000/00 RMK AO2
14837KMSN MSN20030618021509606/18/03 02:15:31  5-MIN KMSN 180815Z 18005KT 10SM SCT070 20/13 A2990 890 63 1700 170/05 RMK AO2
14837KMSN MSN20030618022009606/18/03 02:20:31  5-MIN KMSN 180820Z 16006KT 10SM FEW070 20/13 A2990 880 63 1700 160/06 RMK AO2
14837KMSN MSN20030618022509606/18/03 02:25:31  5-MIN KMSN 180825Z 17006KT 10SM FEW070 19/13 A2990 890 65 1600 170/06 RMK AO2
14837KMSN MSN20030618023009606/18/03 02:30:31  5-MIN KMSN 180830Z 17006KT 10SM FEW070 20/13 A2990 890 63 1700 170/06 RMK AO2
14837KMSN MSN20030618023509606/18/03 02:35:31  5-MIN KMSN 180835Z 16006KT 10SM FEW070 20/13 A2990 890 63 1700 160/06 RMK AO2
14837KMSN MSN20030618024009306/18/03 02:40:31  5-MIN KMSN 180840Z 17006KT 10SM CLR 20/13 A2990 880 63 1700 170/06 RMK AO2
14837KMSN MSN20030618024509306/18/03 02:45:31  5-MIN KMSN 180845Z 16005KT 10SM CLR 20/13 A2990 890 63 1700 160/05 RMK AO2
14837KMSN MSN20030618025011906/18/03 02:50:31  5-MIN KMSN 180850Z 18004KT 10SM SCT070 20/13 A2990 880 63 1700 180/04 RMK AO2 SLP119 T02000128 58004
14837KMSN MSN20030618025509306/18/03 02:55:31  5-MIN KMSN 180855Z 17005KT 10SM CLR 19/13 A2989 890 65 1700 170/05 RMK AO2
14837KMSN MSN20030618030009306/18/03 03:00:31  5-MIN KMSN 180900Z 18006KT 10SM CLR 19/13 A2989 890 65 1700 180/06 RMK AO2
14837KMSN MSN20030618030509306/18/03 03:05:31  5-MIN KMSN 180905Z 17005KT 10SM CLR 19/13 A2989 890 65 1700 170/05 RMK AO2
14837KMSN MSN20030618031009306/18/03 03:10:31  5-MIN KMSN 180910Z 17005KT 10SM CLR 19/13 A2989 890 65 1700 170/05 RMK AO2
14837KMSN MSN20030618031509306/18/03 03:15:31  5-MIN KMSN 180915Z 17004KT 10SM CLR 19/13 A2989 890 65 1700 170/04 RMK AO2
14837KMSN MSN20030618032009306/18/03 03:20:31  5-MIN KMSN 180920Z 18005KT 10SM CLR 19/13 A2989 890 67 1600 180/05 RMK AO2
14837KMSN MSN20030618032509306/18/03 03:25:31  5-MIN KMSN 180925Z 18006KT 10SM CLR 19/13 A2989 890 67 1700 180/06 RMK AO2
14837KMSN MSN20030618033009606/18/03 03:30:31  5-MIN KMSN 180930Z 18005KT 10SM FEW075 19/13 A2989 890 67 1700 180/05 RMK AO2
14837KMSN MSN20030618033510306/18/03 03:35:31  5-MIN KMSN 180935Z 18005KT 10SM SCT075 SCT110 19/13 A2989 890 67 1700 180/05 RMK AO2
14837KMSN MSN20030618034010306/18/03 03:40:31  5-MIN KMSN 180940Z 18005KT 10SM SCT075 SCT120 20/13 A2989 890 65 1700 180/05 RMK AO2
14837KMSN MSN20030618034510306/18/03 03:45:31  5-MIN KMSN 180945Z 18004KT 10SM FEW075 BKN120 20/13 A2989 890 65 1700 180/04 RMK AO2
14837KMSN MSN20030618035012006/18/03 03:50:31  5-MIN KMSN 180950Z 18004KT 10SM SCT075 BKN120 20/13 A2989 890 65 1700 180/04 RMK AO2 SLP116 T02000133
14837KMSN MSN20030618035510306/18/03 03:55:31  5-MIN KMSN 180955Z 19004KT 10SM SCT075 BKN120 21/13 A2989 890 63 1800 190/04 RMK AO2
14837KMSN MSN20030618040010306/18/03 04:00:31  5-MIN KMSN 181000Z 19003KT 10SM SCT075 BKN120 21/13 A2989 890 63 1800 190/03 RMK AO2
14837KMSN MSN20030618040511006/18/03 04:05:31  5-MIN KMSN 181005Z 00000KT 10SM FEW060 SCT080 BKN120 21/13 A2989 890 60 1800 000/00 RMK AO2
14837KMSN MSN20030618041011006/18/03 04:10:31  5-MIN KMSN 181010Z 00000KT 10SM SCT060 BKN075 BKN120 21/13 A2989 890 60 1800 000/00 RMK AO2
14837KMSN MSN20030618041510306/18/03 04:15:31  5-MIN KMSN 181015Z 00000KT 10SM BKN060 BKN080 21/13 A2989 890 60 1800 000/00 RMK AO2
14837KMSN MSN20030618042011006/18/03 04:20:31  5-MIN KMSN 181020Z 00000KT 10SM SCT060 BKN085 BKN110 20/14 A2989 890 67 1700 000/00 RMK AO2
14837KMSN MSN20030618042511006/18/03 04:25:31  5-MIN KMSN 181025Z 00000KT 10SM SCT060 SCT070 BKN095 19/14 A2989 890 70 1700 000/00 RMK AO2
14837KMSN MSN20030618043010306/18/03 04:30:31  5-MIN KMSN 181030Z 15003KT 10SM BKN060 BKN100 19/14 A2989 890 72 1600 150/03 RMK AO2
14837KMSN MSN20030618043510206/18/03 04:35:31  5-MIN KMSN 181035Z 16004KT 9SM BKN060 OVC100 19/14 A2989 890 70 1700 160/04 RMK AO2
14837KMSN MSN20030618044010306/18/03 04:40:31  5-MIN KMSN 181040Z 17004KT 10SM BKN060 OVC100 20/13 A2989 890 65 1700 170/04 RMK AO2
14837KMSN MSN20030618044510306/18/03 04:45:31  5-MIN KMSN 181045Z 00000KT 10SM BKN060 BKN100 21/13 A2989 890 63 1800 000/00 RMK AO2
14837KMSN MSN20030618045012006/18/03 04:50:31  5-MIN KMSN 181050Z 00000KT 10SM BKN060 BKN100 21/13 A2989 890 63 1800 000/00 RMK AO2 SLP117 T02060133
14837KMSN MSN20030618045510306/18/03 04:55:31  5-MIN KMSN 181055Z 00000KT 10SM BKN060 BKN085 21/13 A2989 890 63 1800 000/00 RMK AO2
14837KMSN MSN20030618050011006/18/03 05:00:31  5-MIN KMSN 181100Z 00000KT 10SM SCT060 BKN080 BKN100 20/14 A2989 890 67 1700 000/00 RMK AO2
14837KMSN MSN20030618050510306/18/03 05:05:31  5-MIN KMSN 181105Z 00000KT 10SM SCT060 SCT085 20/14 A2989 890 67 1700 000/00 RMK AO2
14837KMSN MSN20030618051010306/18/03 05:10:31  5-MIN KMSN 181110Z 00000KT 10SM FEW060 SCT090 21/14 A2989 890 65 1800 000/00 RMK AO2
14837KMSN MSN20030618051509506/18/03 05:15:31  5-MIN KMSN 181115Z 00000KT 9SM FEW070 21/14 A2990 890 67 1800 000/00 RMK AO2
14837KMSN MSN20030618052010206/18/03 05:20:31  5-MIN KMSN 181120Z 00000KT 9SM FEW070 BKN100 21/14 A2990 890 63 1800 000/00 RMK AO2
14837KMSN MSN20030618052510206/18/03 05:25:31  5-MIN KMSN 181125Z 00000KT 9SM FEW070 BKN100 21/14 A2990 890 63 1800 000/00 RMK AO2
14837KMSN MSN20030618053010206/18/03 05:30:31  5-MIN KMSN 181130Z 00000KT 9SM FEW070 BKN100 21/14 A2990 890 67 1800 000/00 RMK AO2
14837KMSN MSN20030618053510206/18/03 05:35:31  5-MIN KMSN 181135Z 00000KT 9SM FEW070 BKN100 21/14 A2990 890 67 1800 000/00 RMK AO2
14837KMSN MSN20030618054010306/18/03 05:40:31  5-MIN KMSN 181140Z 00000KT 10SM FEW070 BKN100 21/14 A2990 890 65 1800 000/00 RMK AO2
14837KMSN MSN20030618054510306/18/03 05:45:31  5-MIN KMSN 181145Z 00000KT 10SM FEW070 BKN100 21/14 A2990 890 63 1800 000/00 RMK AO2
14837KMSN MSN20030618055013706/18/03 05:50:31  5-MIN KMSN 181150Z 18003KT 9SM FEW070 SCT100 21/15 A2990 890 70 1800 180/03 RMK AO2 SLP118 T02060150 10211 20178 56010
14837KMSN MSN20030618055509206/18/03 05:55:31  5-MIN KMSN 181155Z 19003KT 9SM CLR 21/14 A2990 890 65 1800 190/03 RMK AO2
14837KMSN MSN20030618060010206/18/03 06:00:31  5-MIN KMSN 181200Z 00000KT 9SM FEW065 SCT100 21/14 A2990 880 65 1800 000/00 RMK AO2
14837KMSN MSN20030618060510206/18/03 06:05:31  5-MIN KMSN 181205Z 19003KT 9SM FEW065 SCT100 21/15 A2990 880 68 1800 190/03 RMK AO2
14837KMSN MSN20030618061010206/18/03 06:10:31  5-MIN KMSN 181210Z 00000KT 9SM SCT065 BKN080 21/14 A2990 880 65 1800 000/00 RMK AO2
14837KMSN MSN20030618061510206/18/03 06:15:31  5-MIN KMSN 181215Z 00000KT 9SM BKN065 BKN080 22/15 A2990 890 65 1900 000/00 RMK AO2
14837KMSN MSN20030618062010206/18/03 06:20:31  5-MIN KMSN 181220Z 00000KT 9SM BKN065 BKN080 22/15 A2990 890 65 1900 000/00 RMK AO2
14837KMSN MSN20030618062510206/18/03 06:25:31  5-MIN KMSN 181225Z 00000KT 9SM BKN065 BKN080 22/15 A2990 880 65 1900 000/00 RMK AO2
14837KMSN MSN20030618063009506/18/03 06:30:31  5-MIN KMSN 181230Z 22003KT 9SM BKN070 22/16 A2990 880 68 1900 220/03 RMK AO2
14837KMSN MSN20030618063509606/18/03 06:35:31  5-MIN KMSN 181235Z 00000KT 10SM BKN070 22/15 A2990 880 65 1900 000/00 RMK AO2
14837KMSN MSN20030618064009606/18/03 06:40:31  5-MIN KMSN 181240Z 22003KT 10SM SCT070 22/16 A2990 880 65 2000 220/03 RMK AO2
14837KMSN MSN20030618064510306/18/03 06:45:31  5-MIN KMSN 181245Z 21003KT 10SM SCT070 BKN080 23/15 A2990 880 61 2000 210/03 RMK AO2
14837KMSN MSN20030618065012006/18/03 06:50:31  5-MIN KMSN 181250Z VRB04KT 10SM FEW070 BKN080 23/15 A2990 880 61 2000 VRB/04 RMK AO2 SLP120 T02280150
14837KMSN MSN20030618065509606/18/03 06:55:31  5-MIN KMSN 181255Z VRB03KT 10SM FEW070 23/15 A2990 880 61 2000 VRB/03 RMK AO2
14837KMSN MSN20030618070010306/18/03 07:00:31  5-MIN KMSN 181300Z VRB04KT 10SM FEW070 SCT080 23/16 A2990 890 61 2100 VRB/04 RMK AO2
14837KMSN MSN20030618070510306/18/03 07:05:31  5-MIN KMSN 181305Z VRB03KT 10SM FEW070 SCT080 23/15 A2990 890 61 2000 VRB/03 RMK AO2
14837KMSN MSN20030618071009606/18/03 07:10:31  5-MIN KMSN 181310Z 00000KT 10SM FEW080 23/15 A2990 890 61 2000 000/00 RMK AO2
14837KMSN MSN20030618071509306/18/03 07:15:31  5-MIN KMSN 181315Z 26004KT 10SM CLR 23/16 A2990 880 61 2100 260/04 RMK AO2
14837KMSN MSN20030618072009306/18/03 07:20:31  5-MIN KMSN 181320Z 24004KT 10SM CLR 23/16 A2990 890 61 2100 240/04 RMK AO2
14837KMSN MSN20030618072509206/18/03 07:25:31  5-MIN KMSN 181325Z 00000KT 9SM CLR 24/16 A2989 890 59 2200 000/00 RMK AO2
14837KMSN MSN20030618073009206/18/03 07:30:31  5-MIN KMSN 181330Z VRB05KT 9SM CLR 24/16 A2989 890 61 2200 VRB/05 RMK AO2
14837KMSN MSN20030618073509206/18/03 07:35:31  5-MIN KMSN 181335Z VRB04KT 9SM CLR 24/16 A2989 890 61 2200 VRB/04 RMK AO2
14837KMSN MSN20030618074009206/18/03 07:40:31  5-MIN KMSN 181340Z 22005KT 9SM CLR 24/16 A2989 890 61 2200 220/05 RMK AO2
14837KMSN MSN20030618074509206/18/03 07:45:31  5-MIN KMSN 181345Z 00000KT 9SM CLR 24/16 A2989 890 61 2200 000/00 RMK AO2
14837KMSN MSN20030618075010906/18/03 07:50:31  5-MIN KMSN 181350Z VRB03KT 9SM CLR 24/16 A2989 890 61 2200 VRB/03 RMK AO2 SLP119 T02390161
14837KMSN MSN20030618075509206/18/03 07:55:31  5-MIN KMSN 181355Z VRB05KT 9SM CLR 24/17 A2990 880 61 2200 VRB/05 RMK AO2
14837KMSN MSN20030618080009306/18/03 08:00:31  5-MIN KMSN 181400Z 30008KT 10SM CLR 24/17 A2990 880 61 2200 300/08 RMK AO2
14837KMSN MSN20030618080509306/18/03 08:05:31  5-MIN KMSN 181405Z 29007KT 10SM CLR 24/17 A2990 890 61 2200 290/07 RMK AO2
14837KMSN MSN20030618081009306/18/03 08:10:31  5-MIN KMSN 181410Z 30006KT 10SM CLR 24/17 A2990 890 61 2200 300/06 RMK AO2
14837KMSN MSN20030618081509206/18/03 08:15:31  5-MIN KMSN 181415Z 30007KT 9SM CLR 25/17 A2990 890 61 2300 300/07 RMK AO2
14837KMSN MSN20030618082009306/18/03 08:20:31  5-MIN KMSN 181420Z 30005KT 10SM CLR 26/17 A2990 890 59 2300 300/05 RMK AO2
14837KMSN MSN20030618082509306/18/03 08:25:31  5-MIN KMSN 181425Z VRB05KT 10SM CLR 26/17 A2989 890 57 2300 VRB/05 RMK AO2
14837KMSN MSN20030618083009306/18/03 08:30:31  5-MIN KMSN 181430Z 27005KT 10SM CLR 25/17 A2989 890 61 2300 270/05 RMK AO2
14837KMSN MSN20030618083509306/18/03 08:35:31  5-MIN KMSN 181435Z VRB05KT 10SM CLR 25/17 A2989 890 61 2300 VRB/05 RMK AO2
14837KMSN MSN20030618084009306/18/03 08:40:31  5-MIN KMSN 181440Z VRB04KT 10SM CLR 26/17 A2989 890 59 2300 VRB/04 RMK AO2
14837KMSN MSN20030618084509306/18/03 08:45:31  5-MIN KMSN 181445Z 29005KT 10SM CLR 27/18 A2989 890 57 2500 290/05 RMK AO2
14837KMSN MSN20030618085011606/18/03 08:50:31  5-MIN KMSN 181450Z 28007KT 10SM CLR 27/18 A2989 890 57 2500 270/07 RMK AO2 SLP117 T02670178 55000
14837KMSN MSN20030618085509606/18/03 08:55:31  5-MIN KMSN 181455Z 31006KT 10SM FEW110 26/17 A2989 890 57 2400 310/06 RMK AO2
14837KMSN MSN20030618090009606/18/03 09:00:31  5-MIN KMSN 181500Z 33007KT 10SM FEW110 26/17 A2989 890 59 2400 330/07 RMK AO2
14837KMSN MSN20030618090509606/18/03 09:05:31  5-MIN KMSN 181505Z 33006KT 10SM FEW110 26/17 A2989 890 57 2400 330/06 RMK AO2
14837KMSN MSN20030618091009606/18/03 09:10:31  5-MIN KMSN 181510Z 31005KT 10SM FEW110 26/17 A2989 890 59 2400 310/05 RMK AO2
14837KMSN MSN20030618091509606/18/03 09:15:31  5-MIN KMSN 181515Z 35006KT 10SM FEW110 27/18 A2988 900 57 2500 340/06 RMK AO2
14837KMSN MSN20030618092009606/18/03 09:20:31  5-MIN KMSN 181520Z 34007KT 10SM FEW110 27/18 A2989 900 56 2500 340/07 RMK AO2
14837KMSN MSN20030618092509306/18/03 09:25:31  5-MIN KMSN 181525Z 35007KT 10SM CLR 27/18 A2988 900 56 2500 340/07 RMK AO2
14837KMSN MSN20030618093009306/18/03 09:30:31  5-MIN KMSN 181530Z 35006KT 10SM CLR 27/17 A2988 900 55 2500 350/06 RMK AO2
14837KMSN MSN20030618093509306/18/03 09:35:31  5-MIN KMSN 181535Z VRB03KT 10SM CLR 27/17 A2988 900 54 2500 VRB/03 RMK AO2
14837KMSN MSN20030618094009206/18/03 09:40:31  5-MIN KMSN 181540Z 32006KT 9SM CLR 26/17 A2989 900 59 2400 320/06 RMK AO2
14837KMSN MSN20030618094509206/18/03 09:45:31  5-MIN KMSN 181545Z 31005KT 9SM CLR 26/18 A2989 900 59 2400 310/05 RMK AO2
14837KMSN MSN20030618095011006/18/03 09:50:31  5-MIN KMSN 181550Z 32006KT 10SM CLR 27/18 A2989 900 60 2500 320/06 RMK AO2 SLP115 T02670183
14837KMSN MSN20030618095510906/18/03 09:55:31  5-MIN KMSN 181555Z 31007KT 280V340 10SM CLR 27/18 A2989 900 58 2500 310/07 280V340 RMK AO2
14837KMSN MSN20030618100009306/18/03 10:00:31  5-MIN KMSN 181600Z VRB05KT 10SM CLR 27/18 A2989 900 60 2500 VRB/05 RMK AO2
14837KMSN MSN20030618100509206/18/03 10:05:31  5-MIN KMSN 181605Z VRB05KT 9SM CLR 27/18 A2989 890 56 2500 VRB/05 RMK AO2
14837KMSN MSN20030618101009306/18/03 10:10:31  5-MIN KMSN 181610Z 31006KT 10SM CLR 27/18 A2989 890 57 2500 310/06 RMK AO2
14837KMSN MSN20030618101509306/18/03 10:15:31  5-MIN KMSN 181615Z 35005KT 10SM CLR 27/18 A2988 900 57 2500 350/05 RMK AO2
14837KMSN MSN20030618102009306/18/03 10:20:31  5-MIN KMSN 181620Z 31005KT 10SM CLR 27/18 A2988 900 58 2500 310/05 RMK AO2
14837KMSN MSN20030618102509306/18/03 10:25:31  5-MIN KMSN 181625Z 33006KT 10SM CLR 27/18 A2988 900 58 2500 330/06 RMK AO2
14837KMSN MSN20030618103009306/18/03 10:30:31  5-MIN KMSN 181630Z VRB05KT 10SM CLR 27/18 A2988 900 56 2500 VRB/05 RMK AO2
14837KMSN MSN20030618103509306/18/03 10:35:31  5-MIN KMSN 181635Z VRB04KT 10SM CLR 28/18 A2988 900 56 2600 VRB/04 RMK AO2
14837KMSN MSN20030618104009306/18/03 10:40:31  5-MIN KMSN 181640Z VRB05KT 10SM CLR 27/18 A2988 900 56 2600 VRB/05 RMK AO2
14837KMSN MSN20030618104509306/18/03 10:45:31  5-MIN KMSN 181645Z 29005KT 10SM CLR 27/18 A2988 900 60 2500 290/05 RMK AO2
14837KMSN MSN20030618105011306/18/03 10:50:31  5-MIN KMSN 181650Z 31004KT 10SM FEW110 27/18 A2988 900 60 2500 310/04 RMK AO2 SLP113 T02670183
14837KMSN MSN20030618105509606/18/03 10:55:31  5-MIN KMSN 181655Z VRB04KT 10SM FEW110 27/18 A2988 900 60 2500 VRB/04 RMK AO2
14837KMSN MSN20030618110009606/18/03 11:00:31  5-MIN KMSN 181700Z 00000KT 10SM FEW110 27/18 A2988 900 57 2500 000/00 RMK AO2
14837KMSN MSN20030618110509606/18/03 11:05:31  5-MIN KMSN 181705Z VRB03KT 10SM FEW110 27/17 A2988 900 55 2500 VRB/03 RMK AO2
14837KMSN MSN20030618111009606/18/03 11:10:31  5-MIN KMSN 181710Z 32004KT 10SM FEW110 27/17 A2988 900 54 2600 320/04 RMK AO2
14837KMSN MSN20030618111509606/18/03 11:15:31  5-MIN KMSN 181715Z 33005KT 10SM FEW110 28/18 A2988 900 54 2600 330/05 RMK AO2
14837KMSN MSN20030618112009606/18/03 11:20:31  5-MIN KMSN 181720Z 00000KT 10SM FEW110 27/17 A2988 900 54 2600 000/00 RMK AO2
14837KMSN MSN20030618112509606/18/03 11:25:31  5-MIN KMSN 181725Z VRB05KT 10SM FEW110 28/18 A2988 910 54 2600 VRB/05 RMK AO2
14837KMSN MSN20030618113009606/18/03 11:30:31  5-MIN KMSN 181730Z 27005KT 10SM FEW110 28/18 A2988 910 54 2600 270/05 RMK AO2
14837KMSN MSN20030618113509206/18/03 11:35:31  5-MIN KMSN 181735Z VRB03KT 9SM CLR 28/17 A2987 910 52 2600 VRB/03 RMK AO2
14837KMSN MSN20030618114009206/18/03 11:40:31  5-MIN KMSN 181740Z VRB06KT 9SM CLR 28/18 A2987 910 54 2700 VRB/06 RMK AO2
14837KMSN MSN20030618114509306/18/03 11:45:31  5-MIN KMSN 181745Z VRB04KT 10SM CLR 28/18 A2987 910 52 2700 VRB/04 RMK AO2
14837KMSN MSN20030618115012806/18/03 11:50:31  5-MIN KMSN 181750Z 30004KT 10SM CLR 28/18 A2987 910 52 2700 300/04 RMK AO2 SLP109 T02830178 10289 20211 58001
14837KMSN MSN20030618115509306/18/03 11:55:31  5-MIN KMSN 181755Z 33004KT 10SM CLR 28/18 A2986 920 52 2700 330/04 RMK AO2
14837KMSN MSN20030618120009306/18/03 12:00:31  5-MIN KMSN 181800Z VRB06KT 10SM CLR 28/17 A2986 920 50 2700 VRB/06 RMK AO2
14837KMSN MSN20030618120511206/18/03 12:05:31  5-MIN KMSN 181805Z 30007KT 250V350 10SM FEW045 29/18 A2986 920 49 2800 290/07 250V350 RMK AO2
14837KMSN MSN20030618121009606/18/03 12:10:31  5-MIN KMSN 181810Z VRB04KT 10SM SCT045 29/18 A2985 930 49 2800 VRB/04 RMK AO2
14837KMSN MSN20030618121509606/18/03 12:15:31  5-MIN KMSN 181815Z 32006KT 10SM SCT047 29/18 A2985 930 49 2800 320/06 RMK AO2
14837KMSN MSN20030618122009606/18/03 12:20:31  5-MIN KMSN 181820Z 32007KT 10SM FEW047 30/18 A2985 930 49 2900 320/07 RMK AO2
14837KMSN MSN20030618122509606/18/03 12:25:31  5-MIN KMSN 181825Z 34008KT 10SM FEW047 29/18 A2985 930 49 2800 330/08 RMK AO2
14837KMSN MSN20030618123011206/18/03 12:30:31  5-MIN KMSN 181830Z 32007KT 280V340 10SM FEW047 29/18 A2984 940 49 2800 320/07 280V340 RMK AO2
14837KMSN MSN20030618123509606/18/03 12:35:31  5-MIN KMSN 181835Z 01007KT 10SM FEW047 30/17 A2984 940 45 2900 010/07 RMK AO2
14837KMSN MSN20030618124009306/18/03 12:40:31  5-MIN KMSN 181840Z 35007KT 10SM CLR 29/17 A2984 940 48 2800 340/07 RMK AO2
14837KMSN MSN20030618124509306/18/03 12:45:31  5-MIN KMSN 181845Z VRB06KT 10SM CLR 29/17 A2984 940 47 2800 VRB/06 RMK AO2
14837KMSN MSN20030618125011006/18/03 12:50:31  5-MIN KMSN 181850Z 33008KT 10SM CLR 29/17 A2983 950 47 2800 330/08 RMK AO2 SLP097 T02890167
14837KMSN MSN20030618125509606/18/03 12:55:31  5-MIN KMSN 181855Z VRB05KT 10SM FEW049 30/17 A2983 950 45 2900 VRB/05 RMK AO2
14837KMSN MSN20030618130010206/18/03 13:00:31  5-MIN KMSN 181900Z 36010G18KT 10SM FEW049 30/17 A2983 950 44 2900 360/10G18 RMK AO2
14837KMSN MSN20030618130510206/18/03 13:05:31  5-MIN KMSN 181905Z VRB06G18KT 10SM FEW049 29/16 A2983 950 44 2900 VRB/06G18 RMK AO2
14837KMSN MSN20030618131009606/18/03 13:10:31  5-MIN KMSN 181910Z 35008KT 10SM SCT055 30/16 A2982 950 41 2900 350/08 RMK AO2
14837KMSN MSN20030618131509606/18/03 13:15:31  5-MIN KMSN 181915Z 35008KT 10SM FEW055 29/16 A2982 960 44 2900 350/08 RMK AO2
14837KMSN MSN20030618132010206/18/03 13:20:31  5-MIN KMSN 181920Z 36010G15KT 10SM FEW050 29/15 A2982 960 41 2900 360/10G15 RMK AO2
14837KMSN MSN20030618132509606/18/03 13:25:31  5-MIN KMSN 181925Z 35007KT 10SM FEW055 29/15 A2982 960 41 2900 340/07 RMK AO2
14837KMSN MSN20030618133009606/18/03 13:30:31  5-MIN KMSN 181930Z 01008KT 10SM FEW055 29/16 A2982 960 42 2900 360/08 RMK AO2
14837KMSN MSN20030618133509606/18/03 13:35:31  5-MIN KMSN 181935Z 01008KT 10SM FEW060 29/16 A2982 960 42 2900 360/08 RMK AO2
14837KMSN MSN20030618134009306/18/03 13:40:31  5-MIN KMSN 181940Z 33009KT 10SM CLR 29/16 A2982 960 45 2800 330/09 RMK AO2
14837KMSN MSN20030618134509306/18/03 13:45:31  5-MIN KMSN 181945Z 32007KT 10SM CLR 29/16 A2982 960 44 2800 320/07 RMK AO2
14837KMSN MSN20030618135011006/18/03 13:50:31  5-MIN KMSN 181950Z 34008KT 10SM CLR 29/16 A2981 960 44 2800 340/08 RMK AO2 SLP090 T02890156
14837KMSN MSN20030618135509306/18/03 13:55:31  5-MIN KMSN 181955Z VRB06KT 10SM CLR 29/16 A2982 960 42 2900 VRB/06 RMK AO2
14837KMSN MSN20030618140011506/18/03 14:00:31  5-MIN KMSN 182000Z 33011G14KT 310V010 10SM CLR 30/16 A2982 960 41 2900 330/11G14 310V010 RMK AO2
14837KMSN MSN20030618140509906/18/03 14:05:31  5-MIN KMSN 182005Z 32006G14KT 10SM CLR 29/14 A2982 960 38 2900 320/06G14 RMK AO2
14837KMSN MSN20030618141010906/18/03 14:10:31  5-MIN KMSN 182010Z 34007KT 300V010 10SM CLR 29/14 A2982 960 39 2900 340/07 300V010 RMK AO2
14837KMSN MSN20030618141509306/18/03 14:15:31  5-MIN KMSN 182015Z 30006KT 10SM CLR 30/14 A2983 950 36 2900 300/06 RMK AO2
14837KMSN MSN20030618142009306/18/03 14:20:31  5-MIN KMSN 182020Z 33006KT 10SM CLR 31/14 A2982 950 37 3000 330/06 RMK AO2
14837KMSN MSN20030618142511206/18/03 14:25:31  5-MIN KMSN 182025Z 33008KT 290V360 10SM FEW065 31/15 A2982 960 38 3000 330/08 290V360 RMK AO2
14837KMSN MSN20030618143009606/18/03 14:30:31  5-MIN KMSN 182030Z 01009KT 10SM SCT060 30/16 A2982 960 42 2900 010/09 RMK AO2
14837KMSN MSN20030618143509606/18/03 14:35:31  5-MIN KMSN 182035Z 36010KT 10SM FEW060 29/16 A2982 960 44 2900 350/10 RMK AO2
14837KMSN MSN20030618144009606/18/03 14:40:31  5-MIN KMSN 182040Z 36010KT 10SM SCT065 29/16 A2982 960 45 2800 360/10 RMK AO2
14837KMSN MSN20030618144509606/18/03 14:45:31  5-MIN KMSN 182045Z 01010KT 10SM SCT065 29/16 A2982 960 45 2800 010/10 RMK AO2
14837KMSN MSN20030618145011906/18/03 14:50:31  5-MIN KMSN 182050Z 03013KT 10SM SCT065 29/15 A2983 950 42 2800 030/13 RMK AO2 SLP095 T02890150 58009
14837KMSN MSN20030618145510306/18/03 14:55:31  5-MIN KMSN 182055Z 04012KT 10SM SCT065 SCT085 28/17 A2983 950 50 2700 040/12 RMK AO2
14837KMSN MSN20030618150010306/18/03 15:00:31  5-MIN KMSN 182100Z 04011KT 10SM FEW065 SCT090 28/17 A2983 950 50 2700 040/11 RMK AO2
14837KMSN MSN20030618150510306/18/03 15:05:31  5-MIN KMSN 182105Z 04011KT 10SM FEW065 SCT090 28/17 A2982 950 50 2700 040/11 RMK AO2
14837KMSN MSN20030618151009606/18/03 15:10:31  5-MIN KMSN 182110Z 04009KT 10SM FEW065 28/17 A2982 960 52 2700 040/09 RMK AO2
14837KMSN MSN20030618151509606/18/03 15:15:31  5-MIN KMSN 182115Z 03012KT 10SM FEW065 28/17 A2982 960 52 2700 030/12 RMK AO2
14837KMSN MSN20030618152009606/18/03 15:20:31  5-MIN KMSN 182120Z 03011KT 10SM FEW090 28/17 A2982 960 50 2700 030/11 RMK AO2
14837KMSN MSN20030618152509306/18/03 15:25:31  5-MIN KMSN 182125Z 03010KT 10SM CLR 28/17 A2982 950 50 2700 030/10 RMK AO2
14837KMSN MSN20030618153009606/18/03 15:30:31  5-MIN KMSN 182130Z 02008KT 10SM FEW060 28/17 A2982 950 50 2700 020/08 RMK AO2
14837KMSN MSN20030618153509606/18/03 15:35:31  5-MIN KMSN 182135Z 03008KT 10SM FEW060 29/17 A2982 950 48 2800 020/08 RMK AO2
14837KMSN MSN20030618154009606/18/03 15:40:31  5-MIN KMSN 182140Z 04006KT 10SM FEW060 29/17 A2982 950 48 2800 040/06 RMK AO2
14837KMSN MSN20030618154509606/18/03 15:45:31  5-MIN KMSN 182145Z 36006KT 10SM FEW060 29/17 A2982 950 45 2900 360/06 RMK AO2
14837KMSN MSN20030618155011306/18/03 15:50:31  5-MIN KMSN 182150Z 03007KT 10SM FEW055 29/17 A2982 950 47 2800 030/07 RMK AO2 SLP094 T02890167
14837KMSN MSN20030618155509306/18/03 15:55:31  5-MIN KMSN 182155Z 06007KT 10SM CLR 29/17 A2982 960 45 2900 060/07 RMK AO2
14837KMSN MSN20030618160009306/18/03 16:00:31  5-MIN KMSN 182200Z 05007KT 10SM CLR 29/16 A2982 960 44 2900 050/07 RMK AO2
14837KMSN MSN20030618160509306/18/03 16:05:31  5-MIN KMSN 182205Z 03008KT 10SM CLR 29/17 A2982 960 45 2900 030/08 RMK AO2
14837KMSN MSN20030618161009606/18/03 16:10:31  5-MIN KMSN 182210Z 06008KT 10SM FEW050 29/16 A2982 960 45 2800 060/08 RMK AO2
14837KMSN MSN20030618161509606/18/03 16:15:31  5-MIN KMSN 182215Z 02007KT 10SM FEW050 28/16 A2982 960 47 2700 020/07 RMK AO2
14837KMSN MSN20030618162009606/18/03 16:20:31  5-MIN KMSN 182220Z VRB06KT 10SM FEW050 28/16 A2981 960 45 2800 VRB/06 RMK AO2
14837KMSN MSN20030618162509606/18/03 16:25:31  5-MIN KMSN 182225Z 05008KT 10SM FEW060 28/16 A2981 970 48 2700 050/08 RMK AO2
14837KMSN MSN20030618163009606/18/03 16:30:31  5-MIN KMSN 182230Z 04015KT 10SM SCT065 28/16 A2981 960 46 2700 040/15 RMK AO2
14837KMSN MSN20030618163511806/18/03 16:35:31  5-MIN KMSN 182235Z 03015G20KT 10SM -RA BKN065 27/16 A2982 960 52 2600 030/15G20 RMK AO2 RAB31 P0000
14837KMSN MSN20030618164012406/18/03 16:40:31  5-MIN KMSN 182240Z 04011G20KT 5SM -RA SCT025 BKN065 24/18 A2982 960 68 2300 040/11G20 RMK AO2 RAB31 P0002
14837KMSN MSN20030618164511806/18/03 16:45:31  5-MIN KMSN 182245Z 04009KT 5SM -RA SCT023 BKN065 24/19 A2982 960 73 2200 030/09 RMK AO2 RAB31 P0002
14837KMSN MSN20030618165013606/18/03 16:50:31  5-MIN KMSN 182250Z 04008KT 10SM -RA FEW031 BKN070 24/19 A2982 960 71 2300 040/08 RMK AO2 RAB31 SLP092 P0002 T02440189
14837KMSN MSN20030618165510306/18/03 16:55:31  5-MIN KMSN 182255Z 03011KT 10SM FEW031 BKN065 26/19 A2982 960 66 2400 030/11 RMK AO2
14837KMSN MSN20030618170010306/18/03 17:00:31  5-MIN KMSN 182300Z 01013KT 10SM FEW028 BKN065 26/18 A2983 950 62 2500 010/13 RMK AO2
14837KMSN MSN20030618170510306/18/03 17:05:31  5-MIN KMSN 182305Z 02016KT 10SM FEW028 BKN065 26/19 A2983 950 64 2500 020/16 RMK AO2
14837KMSN MSN20030618171010206/18/03 17:10:31  5-MIN KMSN 182310Z 03018G21KT 10SM SCT065 26/17 A2983 950 57 2500 030/18G21 RMK AO2
14837KMSN MSN20030618171510206/18/03 17:15:31  5-MIN KMSN 182315Z 03018G25KT 10SM SCT065 26/17 A2983 950 57 2400 030/18G25 RMK AO2
14837KMSN MSN20030618172010206/18/03 17:20:31  5-MIN KMSN 182320Z 02016G25KT 10SM SCT065 25/17 A2983 950 61 2400 020/16G25 RMK AO2
14837KMSN MSN20030618172509606/18/03 17:25:31  5-MIN KMSN 182325Z 02015KT 10SM FEW060 25/16 A2984 940 57 2400 020/15 RMK AO2
14837KMSN MSN20030618173009606/18/03 17:30:31  5-MIN KMSN 182330Z 02012KT 10SM FEW060 24/16 A2984 940 59 2300 010/12 RMK AO2
14837KMSN MSN20030618173509606/18/03 17:35:31  5-MIN KMSN 182335Z 02014KT 10SM SCT060 24/16 A2984 940 57 2300 020/14 RMK AO2
14837KMSN MSN20030618174010206/18/03 17:40:31  5-MIN KMSN 182340Z 02012G19KT 10SM BKN060 24/16 A2984 940 59 2300 020/12G19 RMK AO2
14837KMSN MSN20030618174509606/18/03 17:45:31  5-MIN KMSN 182345Z 02010KT 10SM BKN060 24/16 A2984 940 59 2300 020/10 RMK AO2
14837KMSN MSN20030618175013706/18/03 17:50:31  5-MIN KMSN 182350Z 02010KT 10SM SCT060 24/16 A2984 940 57 2300 020/10 RMK AO2 SLP100 60002 T02440156 10306 20239 55013
14837KMSN MSN20030618175509606/18/03 17:55:31  5-MIN KMSN 182355Z 03011KT 10SM BKN060 25/16 A2984 930 57 2300 030/11 RMK AO2
14837KMSN MSN20030618180009606/18/03 18:00:31  5-MIN KMSN 190000Z 04014KT 10SM OVC060 25/16 A2985 930 55 2300 040/14 RMK AO2
14837KMSN MSN20030618180509606/18/03 18:05:31  5-MIN KMSN 190005Z 08013KT 10SM OVC060 24/16 A2985 930 57 2300 080/13 RMK AO2
14837KMSN MSN20030618181012006/18/03 18:10:31  5-MIN KMSN 190010Z 08016G20KT 10SM BKN060 OVC075 23/16 A2985 930 61 2100 080/16G20 RMK AO2 WSHFT 2355
14837KMSN MSN20030618181511406/18/03 18:15:31  5-MIN KMSN 190015Z 07013KT 10SM BKN060 BKN080 23/14 A2986 920 59 2100 070/13 RMK AO2 WSHFT 2355
14837KMSN MSN20030618182011406/18/03 18:20:31  5-MIN KMSN 190020Z 06009KT 10SM SCT065 BKN080 22/15 A2985 920 63 2000 060/09 RMK AO2 WSHFT 2355
14837KMSN MSN20030618182511406/18/03 18:25:31  5-MIN KMSN 190025Z 06009KT 10SM SCT065 BKN080 23/15 A2986 920 61 2100 060/09 RMK AO2 WSHFT 2355
14837KMSN MSN20030618183011406/18/03 18:30:31  5-MIN KMSN 190030Z 06008KT 10SM SCT065 BKN080 22/15 A2986 920 63 2000 060/08 RMK AO2 WSHFT 2355
14837KMSN MSN20030618183511406/18/03 18:35:31  5-MIN KMSN 190035Z 06007KT 10SM BKN070 BKN080 22/15 A2986 920 63 2000 060/07 RMK AO2 WSHFT 2355
14837KMSN MSN20030618184010706/18/03 18:40:31  5-MIN KMSN 190040Z 06006KT 10SM BKN070 22/15 A2986 920 63 2000 060/06 RMK AO2 WSHFT 2355
14837KMSN MSN20030618184511406/18/03 18:45:31  5-MIN KMSN 190045Z 07005KT 10SM BKN070 BKN100 22/15 A2987 920 63 2000 070/05 RMK AO2 WSHFT 2355
14837KMSN MSN20030618185013106/18/03 18:50:31  5-MIN KMSN 190050Z 07007KT 10SM SCT070 BKN100 22/15 A2987 910 63 2000 070/07 RMK AO2 WSHFT 2355 SLP108 T02220150
14837KMSN MSN20030618185509606/18/03 18:55:31  5-MIN KMSN 190055Z 08007KT 10SM SCT070 22/15 A2987 910 65 1900 080/07 RMK AO2
14837KMSN MSN20030618190010306/18/03 19:00:31  5-MIN KMSN 190100Z 07008KT 10SM FEW070 SCT120 22/16 A2987 910 68 1900 070/08 RMK AO2
14837KMSN MSN20030618190510306/18/03 19:05:31  5-MIN KMSN 190105Z 07007KT 10SM FEW070 SCT120 22/16 A2987 910 68 1900 070/07 RMK AO2
14837KMSN MSN20030618191009606/18/03 19:10:31  5-MIN KMSN 190110Z 09007KT 10SM SCT120 22/16 A2988 900 70 1900 090/07 RMK AO2
14837KMSN MSN20030618191509606/18/03 19:15:31  5-MIN KMSN 190115Z 10008KT 10SM BKN120 22/16 A2988 900 70 1900 100/08 RMK AO2
14837KMSN MSN20030618192009606/18/03 19:20:31  5-MIN KMSN 190120Z 10008KT 10SM BKN110 21/16 A2988 900 73 1900 100/08 RMK AO2
14837KMSN MSN20030618192509606/18/03 19:25:31  5-MIN KMSN 190125Z 10007KT 10SM BKN110 21/16 A2989 900 73 1900 100/07 RMK AO2
14837KMSN MSN20030618193009606/18/03 19:30:31  5-MIN KMSN 190130Z 11007KT 10SM OVC110 21/16 A2989 890 73 1900 110/07 RMK AO2
14837KMSN MSN20030618193509606/18/03 19:35:31  5-MIN KMSN 190135Z 11007KT 10SM OVC110 21/16 A2989 890 73 1800 110/07 RMK AO2
14837KMSN MSN20030618194009606/18/03 19:40:31  5-MIN KMSN 190140Z 10007KT 10SM BKN110 21/16 A2989 890 73 1800 100/07 RMK AO2
14837KMSN MSN20030618194509606/18/03 19:45:31  5-MIN KMSN 190145Z 11007KT 10SM BKN110 21/16 A2990 890 75 1800 100/07 RMK AO2
14837KMSN MSN20030618195011306/18/03 19:50:31  5-MIN KMSN 190150Z 11009KT 10SM BKN110 21/16 A2990 890 75 1800 110/09 RMK AO2 SLP119 T02060161
14837KMSN MSN20030618195509606/18/03 19:55:31  5-MIN KMSN 190155Z 11008KT 10SM SCT110 21/16 A2990 890 75 1800 110/08 RMK AO2
14837KMSN MSN20030618200010306/18/03 20:00:31  5-MIN KMSN 190200Z 10009KT 10SM FEW080 SCT110 20/16 A2990 880 78 1700 100/09 RMK AO2
14837KMSN MSN20030618200510306/18/03 20:05:31  5-MIN KMSN 190205Z 10008KT 10SM SCT085 SCT110 20/16 A2991 880 78 1700 100/08 RMK AO2
14837KMSN MSN20030618201011006/18/03 20:10:31  5-MIN KMSN 190210Z 09011KT 10SM FEW038 SCT085 SCT110 21/16 A2991 870 75 1800 090/11 RMK AO2
14837KMSN MSN20030618201511006/18/03 20:15:31  5-MIN KMSN 190215Z 10011KT 10SM FEW038 SCT065 SCT085 21/16 A2992 870 75 1800 100/11 RMK AO2
14837KMSN MSN20030618202011006/18/03 20:20:31  5-MIN KMSN 190220Z 10008KT 10SM SCT040 SCT065 BKN085 20/16 A2992 870 78 1700 100/08 RMK AO2
14837KMSN MSN20030618202511006/18/03 20:25:31  5-MIN KMSN 190225Z 10011KT 10SM SCT040 SCT060 BKN085 20/16 A2992 860 78 1700 100/11 RMK AO2
14837KMSN MSN20030618203011006/18/03 20:30:31  5-MIN KMSN 190230Z 08011KT 10SM SCT040 BKN065 BKN090 20/16 A2993 860 78 1700 080/11 RMK AO2
14837KMSN MSN20030618203510306/18/03 20:35:31  5-MIN KMSN 190235Z 08009KT 10SM BKN042 BKN065 20/16 A2992 860 78 1700 080/09 RMK AO2
14837KMSN MSN20030618204010206/18/03 20:40:31  5-MIN KMSN 190240Z 11012KT 9SM BKN042 BKN065 20/16 A2992 870 78 1700 110/12 RMK AO2
14837KMSN MSN20030618204510206/18/03 20:45:31  5-MIN KMSN 190245Z 10011KT 9SM BKN044 OVC070 20/16 A2992 860 75 1700 100/11 RMK AO2
14837KMSN MSN20030618205015106/18/03 20:50:31  5-MIN KMSN 190250Z 08011KT 10SM SCT042 BKN055 OVC070 20/16 A2993 860 75 1700 080/11 RMK AO2 SLP129 OCNL LTGCC DSNT N T02000156 53006
14837KMSN MSN20030618205510206/18/03 20:55:31  5-MIN KMSN 190255Z 07008KT 9SM SCT045 OVC055 20/16 A2993 850 75 1700 070/08 RMK AO2
14837KMSN MSN20030618210010206/18/03 21:00:31  5-MIN KMSN 190300Z 07006KT 9SM FEW045 OVC055 20/16 A2993 850 75 1700 070/06 RMK AO2
14837KMSN MSN20030618210510206/18/03 21:05:31  5-MIN KMSN 190305Z 04008KT 9SM FEW045 OVC055 19/16 A2994 850 78 1600 040/08 RMK AO2
14837KMSN MSN20030618211012106/18/03 21:10:31  5-MIN KMSN 190310Z 03007KT 9SM OVC060 19/16 A2995 840 78 1600 030/07 RMK AO2 PRESRR OCNL LTG DSNT NW-N
14837KMSN MSN20030618211512806/18/03 21:15:31  5-MIN KMSN 190315Z 02009KT 9SM BKN060 OVC070 20/15 A2996 830 72 1600 020/09 RMK AO2 PRESRR OCNL LTG DSNT NW-N
14837KMSN MSN20030618212014406/18/03 21:20:31  5-MIN KMSN 190320Z 04013KT 8SM -RA FEW028 BKN060 OVC070 19/15 A2996 830 75 1600 040/13 RMK AO2 RAB16 OCNL LTG DSNT NW-N P0001
14837KMSN MSN20030618212511806/18/03 21:25:31  5-MIN KMSN 190325Z 06012KT 5SM -RA FEW028 OVC060 18/15 A2996 830 81 1500 060/12 RMK AO2 RAB16 P0003
14837KMSN MSN20030618213011806/18/03 21:30:31  5-MIN KMSN 190330Z 06012KT 4SM -RA FEW026 OVC065 18/15 A2996 830 81 1500 060/12 RMK AO2 RAB16 P0004
14837KMSN MSN20030618213512106/18/03 21:35:31  5-MIN KMSN 190335Z 07013KT 3SM -RA BR FEW031 OVC065 18/16 A2995 840 87 1400 070/13 RMK AO2 RAB16 P0006
14837KMSN MSN20030618214012106/18/03 21:40:31  5-MIN KMSN 190340Z 07012KT 3SM -RA BR SCT032 OVC065 18/16 A2995 830 87 1400 070/12 RMK AO2 RAB16 P0007
14837KMSN MSN20030618214512106/18/03 21:45:31  5-MIN KMSN 190345Z 07010KT 3SM -RA BR BKN030 OVC065 17/16 A2995 830 93 1300 070/10 RMK AO2 RAB16 P0009
14837KMSN MSN20030618215013806/18/03 21:50:31  5-MIN KMSN 190350Z 08008KT 4SM -RA BR BKN032 OVC060 17/16 A2995 830 90 1300 080/08 RMK AO2 RAB16 SLP139 P0010 T01720156
14837KMSN MSN20030618215511506/18/03 21:55:31  5-MIN KMSN 190355Z 07007KT 4SM -RA BR BKN034 OVC060 17/16 A2996 830 90 1300 070/07 RMK AO2 P0000
14837KMSN MSN20030618220011506/18/03 22:00:31  5-MIN KMSN 190400Z 03005KT 4SM -RA BR BKN034 OVC060 17/16 A2997 820 90 1300 020/05 RMK AO2 P0001
14837KMSN MSN20030618220510806/18/03 22:05:31  5-MIN KMSN 190405Z 01003KT 3SM -RA BR OVC034 17/16 A2997 820 90 1300 010/03 RMK AO2 P0002
14837KMSN MSN20030618221011506/18/03 22:10:31  5-MIN KMSN 190410Z 06003KT 3SM -RA BR BKN032 OVC095 17/16 A2997 820 90 1300 060/03 RMK AO2 P0004
14837KMSN MSN20030618221511506/18/03 22:15:31  5-MIN KMSN 190415Z 00000KT 4SM -RA BR BKN030 OVC100 17/16 A2998 810 90 1300 000/00 RMK AO2 P0005
14837KMSN MSN20030618222011506/18/03 22:20:31  5-MIN KMSN 190420Z 00000KT 5SM -RA BR BKN030 OVC100 17/16 A2998 810 90 1300 000/00 RMK AO2 P0005
14837KMSN MSN20030618222512206/18/03 22:25:31  5-MIN KMSN 190425Z 05005KT 6SM -RA BR SCT030 BKN065 OVC100 17/16 A2998 810 90 1300 050/05 RMK AO2 P0005
14837KMSN MSN20030618223011906/18/03 22:30:31  5-MIN KMSN 190430Z 07004KT 7SM -RA SCT040 BKN065 OVC100 17/16 A2998 810 90 1300 070/04 RMK AO2 P0005
14837KMSN MSN20030618223511906/18/03 22:35:31  5-MIN KMSN 190435Z 06006KT 7SM -RA SCT049 BKN065 OVC100 17/16 A2998 810 90 1300 060/06 RMK AO2 P0005
14837KMSN MSN20030618224011206/18/03 22:40:31  5-MIN KMSN 190440Z 06008KT 7SM -RA BKN060 OVC100 17/16 A2998 810 90 1300 060/08 RMK AO2 P0005
14837KMSN MSN20030618224511206/18/03 22:45:31  5-MIN KMSN 190445Z 06006KT 7SM -RA BKN060 OVC100 17/16 A2999 800 90 1300 060/06 RMK AO2 P0005
14837KMSN MSN20030618225013606/18/03 22:50:31  5-MIN KMSN 190450Z 07006KT 7SM -RA SCT060 BKN070 OVC100 17/16 A2999 800 90 1300 070/06 RMK AO2 SLP150 P0005 T01720156
14837KMSN MSN20030618225511906/18/03 22:55:31  5-MIN KMSN 190455Z 07006KT 7SM -RA FEW060 SCT075 OVC095 17/16 A2999 800 90 1300 060/06 RMK AO2 P0000
14837KMSN MSN20030618230011906/18/03 23:00:31  5-MIN KMSN 190500Z 06005KT 7SM -RA FEW060 SCT075 OVC095 17/16 A2999 800 90 1300 060/05 RMK AO2 P0000
14837KMSN MSN20030618230511906/18/03 23:05:31  5-MIN KMSN 190505Z 06003KT 7SM -RA FEW055 BKN070 OVC100 17/16 A3000 790 90 1300 060/03 RMK AO2 P0000
14837KMSN MSN20030618231011206/18/03 23:10:31  5-MIN KMSN 190510Z 00000KT 8SM -RA BKN070 OVC095 17/16 A3000 790 90 1300 000/00 RMK AO2 P0000
14837KMSN MSN20030618231511206/18/03 23:15:31  5-MIN KMSN 190515Z 00000KT 9SM -RA BKN070 OVC095 17/16 A3000 790 90 1300 000/00 RMK AO2 P0001
14837KMSN MSN20030618232011206/18/03 23:20:31  5-MIN KMSN 190520Z VRB03KT 7SM -RA BKN070 OVC090 17/15 A3000 790 87 1300 VRB/03 RMK AO2 P0001
14837KMSN MSN20030618232511506/18/03 23:25:31  5-MIN KMSN 190525Z 07003KT 5SM -RA BR SCT070 OVC090 17/15 A2999 800 87 1300 060/03 RMK AO2 P0002
14837KMSN MSN20030618233012206/18/03 23:30:31  5-MIN KMSN 190530Z VRB04KT 6SM -RA BR FEW060 BKN075 OVC100 17/15 A3000 790 87 1300 VRB/04 RMK AO2 P0002
14837KMSN MSN20030618233511906/18/03 23:35:31  5-MIN KMSN 190535Z 06004KT 8SM -RA FEW070 BKN090 OVC110 17/15 A3000 790 87 1300 050/04 RMK AO2 P0002
14837KMSN MSN20030618234011906/18/03 23:40:31  5-MIN KMSN 190540Z 07004KT 9SM -RA FEW070 BKN095 OVC110 17/15 A3000 790 87 1300 070/04 RMK AO2 P0002
14837KMSN MSN20030618234511206/18/03 23:45:31  5-MIN KMSN 190545Z 00000KT 9SM -RA BKN095 OVC110 17/15 A3000 790 90 1200 000/00 RMK AO2 P0002
14837KMSN MSN20030618235015706/18/03 23:50:31  5-MIN KMSN 190550Z 04003KT 10SM -RA OVC095 17/15 A3000 790 90 1200 040/03 RMK AO2 SLP154 P0002 60017 T01670150 10250 20167 403060167 53028
14837KMSN MSN20030618235510606/18/03 23:55:31  5-MIN KMSN 190555Z 04004KT 10SM -RA OVC100 17/15 A3000 790 90 1200 040/04 RMK AO2 P0000
14837KMSN MSN20030619000011706/19/03 00:00:31  5-MIN KMSN 190600Z 04004KT 10SM BKN100 OVC110 17/15 A3000 790 90 1200 040/04 RMK AO2 RAE0559 P0000
14837KMSN MSN20030619000511006/19/03 00:05:31  5-MIN KMSN 190605Z 05004KT 10SM BKN095 17/14 A3000 790 86 1200 050/04 RMK AO2 RAE0559 P0000
14837KMSN MSN20030619001011006/19/03 00:10:31  5-MIN KMSN 190610Z 05005KT 10SM BKN095 16/14 A3000 790 86 1100 050/05 RMK AO2 RAE0559 P0000
14837KMSN MSN20030619001511006/19/03 00:15:31  5-MIN KMSN 190615Z 05005KT 10SM SCT095 16/14 A3000 790 86 1100 040/05 RMK AO2 RAE0559 P0000
14837KMSN MSN20030619002011006/19/03 00:20:31  5-MIN KMSN 190620Z 04005KT 10SM SCT095 16/14 A3000 790 90 1100 040/05 RMK AO2 RAE0559 P0000
14837KMSN MSN20030619002511006/19/03 00:25:31  5-MIN KMSN 190625Z 05007KT 10SM FEW090 16/13 A3000 790 86 1100 050/07 RMK AO2 RAE0559 P0000
14837KMSN MSN20030619003011006/19/03 00:30:31  5-MIN KMSN 190630Z 04006KT 10SM FEW090 16/13 A3000 790 83 1100 040/06 RMK AO2 RAE0559 P0000
14837KMSN MSN20030619003510706/19/03 00:35:31  5-MIN KMSN 190635Z 04006KT 10SM CLR 15/13 A3001 780 86 1000 040/06 RMK AO2 RAE0559 P0000
14837KMSN MSN20030619004010706/19/03 00:40:31  5-MIN KMSN 190640Z 04005KT 10SM CLR 15/13 A3001 780 86 1000 040/05 RMK AO2 RAE0559 P0000
14837KMSN MSN20030619004510706/19/03 00:45:31  5-MIN KMSN 190645Z 04005KT 10SM CLR 15/12 A3001 780 83 1000 040/05 RMK AO2 RAE0559 P0000
14837KMSN MSN20030619005012406/19/03 00:50:31  5-MIN KMSN 190650Z 02005KT 10SM CLR 15/12 A3001 780 83 1000 020/05 RMK AO2 RAE0559 SLP157 P0000 T01500122
14837KMSN MSN20030619005509306/19/03 00:55:31  5-MIN KMSN 190655Z 02005KT 10SM CLR 15/12 A3001 780 83 1000 020/05 RMK AO2
14837KMSN MSN20030619010009306/19/03 01:00:31  5-MIN KMSN 190700Z 03005KT 10SM CLR 15/12 A3001 790 83 1000 030/05 RMK AO2
14837KMSN MSN20030619010509206/19/03 01:05:31  5-MIN KMSN 190705Z 02004KT 10SM CLR 14/12 A3001 780 83 900 020/04 RMK AO2
14837KMSN MSN20030619011009206/19/03 01:10:31  5-MIN KMSN 190710Z 03004KT 10SM CLR 14/12 A3001 780 86 900 030/04 RMK AO2
14837KMSN MSN20030619011509206/19/03 01:15:31  5-MIN KMSN 190715Z 03003KT 10SM CLR 14/12 A3001 780 86 900 030/03 RMK AO2
14837KMSN MSN20030619012009206/19/03 01:20:31  5-MIN KMSN 190720Z 02004KT 10SM CLR 14/12 A3001 780 86 900 020/04 RMK AO2
14837KMSN MSN20030619012509206/19/03 01:25:31  5-MIN KMSN 190725Z 02004KT 10SM CLR 14/12 A3001 780 86 900 020/04 RMK AO2
14837KMSN MSN20030619013009206/19/03 01:30:31  5-MIN KMSN 190730Z 02006KT 10SM CLR 14/12 A3001 780 86 900 010/06 RMK AO2
14837KMSN MSN20030619013509206/19/03 01:35:31  5-MIN KMSN 190735Z 02005KT 10SM CLR 14/12 A3001 780 86 900 020/05 RMK AO2
14837KMSN MSN20030619014009206/19/03 01:40:31  5-MIN KMSN 190740Z 02006KT 10SM CLR 14/12 A3001 780 86 900 020/06 RMK AO2
14837KMSN MSN20030619014509206/19/03 01:45:31  5-MIN KMSN 190745Z 02007KT 10SM CLR 14/11 A3001 780 83 900 020/07 RMK AO2
14837KMSN MSN20030619015010906/19/03 01:50:31  5-MIN KMSN 190750Z 36006KT 10SM CLR 14/11 A3001 780 83 900 360/06 RMK AO2 SLP160 T01390111
14837KMSN MSN20030619015509206/19/03 01:55:31  5-MIN KMSN 190755Z 34005KT 10SM CLR 14/12 A3002 780 83 900 340/05 RMK AO2
14837KMSN MSN20030619020009206/19/03 02:00:31  5-MIN KMSN 190800Z 34005KT 10SM CLR 14/12 A3002 780 86 900 340/05 RMK AO2
14837KMSN MSN20030619020509206/19/03 02:05:31  5-MIN KMSN 190805Z 36005KT 10SM CLR 14/12 A3002 770 86 900 360/05 RMK AO2
14837KMSN MSN20030619021009206/19/03 02:10:31  5-MIN KMSN 190810Z 36005KT 10SM CLR 14/11 A3002 770 83 900 360/05 RMK AO2
14837KMSN MSN20030619021509206/19/03 02:15:31  5-MIN KMSN 190815Z 02005KT 10SM CLR 14/11 A3002 770 83 900 020/05 RMK AO2
14837KMSN MSN20030619022009206/19/03 02:20:31  5-MIN KMSN 190820Z 03006KT 10SM CLR 14/11 A3002 770 80 900 030/06 RMK AO2
14837KMSN MSN20030619022509206/19/03 02:25:31  5-MIN KMSN 190825Z 02004KT 10SM CLR 13/11 A3002 770 83 800 020/04 RMK AO2
14837KMSN MSN20030619023009206/19/03 02:30:31  5-MIN KMSN 190830Z 01004KT 10SM CLR 13/11 A3002 770 83 800 010/04 RMK AO2
14837KMSN MSN20030619023509206/19/03 02:35:31  5-MIN KMSN 190835Z 01004KT 10SM CLR 13/11 A3002 770 86 700 010/04 RMK AO2
14837KMSN MSN20030619024009206/19/03 02:40:31  5-MIN KMSN 190840Z 02005KT 10SM CLR 13/11 A3002 770 83 800 010/05 RMK AO2
14837KMSN MSN20030619024509206/19/03 02:45:31  5-MIN KMSN 190845Z 01005KT 10SM CLR 13/11 A3002 770 86 700 360/05 RMK AO2
14837KMSN MSN20030619025012106/19/03 02:50:31  5-MIN KMSN 190850Z 36005KT 10SM CLR 13/11 A3003 770 86 700 360/05 RMK AO2 SLP164 60000 T01280106 51023
14837KMSN MSN20030619025509206/19/03 02:55:31  5-MIN KMSN 190855Z 36005KT 10SM CLR 13/11 A3003 760 83 800 360/05 RMK AO2
14837KMSN MSN20030619030009206/19/03 03:00:31  5-MIN KMSN 190900Z 01005KT 10SM CLR 13/10 A3003 760 83 700 010/05 RMK AO2
14837KMSN MSN20030619030509206/19/03 03:05:31  5-MIN KMSN 190905Z 01005KT 10SM CLR 13/10 A3003 760 83 700 010/05 RMK AO2
14837KMSN MSN20030619031009206/19/03 03:10:31  5-MIN KMSN 190910Z 36005KT 10SM CLR 13/10 A3003 760 83 700 360/05 RMK AO2
14837KMSN MSN20030619031509206/19/03 03:15:31  5-MIN KMSN 190915Z 36004KT 10SM CLR 13/10 A3003 760 83 700 360/04 RMK AO2
14837KMSN MSN20030619032009206/19/03 03:20:31  5-MIN KMSN 190920Z 01005KT 10SM CLR 13/10 A3003 760 83 700 010/05 RMK AO2
14837KMSN MSN20030619032509206/19/03 03:25:31  5-MIN KMSN 190925Z 36005KT 10SM CLR 13/10 A3004 760 83 700 360/05 RMK AO2
14837KMSN MSN20030619033009206/19/03 03:30:31  5-MIN KMSN 190930Z 36005KT 10SM CLR 12/10 A3004 760 86 600 360/05 RMK AO2
14837KMSN MSN20030619033509206/19/03 03:35:31  5-MIN KMSN 190935Z 01006KT 10SM CLR 12/10 A3004 750 86 600 010/06 RMK AO2
14837KMSN MSN20030619034009206/19/03 03:40:31  5-MIN KMSN 190940Z 36006KT 10SM CLR 12/10 A3004 750 86 600 360/06 RMK AO2
14837KMSN MSN20030619034509206/19/03 03:45:31  5-MIN KMSN 190945Z 36006KT 10SM CLR 12/10 A3004 750 86 600 360/06 RMK AO2
14837KMSN MSN20030619035010906/19/03 03:50:31  5-MIN KMSN 190950Z 36006KT 10SM CLR 12/10 A3005 750 86 600 360/06 RMK AO2 SLP171 T01220100
14837KMSN MSN20030619035509206/19/03 03:55:31  5-MIN KMSN 190955Z 01006KT 10SM CLR 12/09 A3005 750 86 600 010/06 RMK AO2
14837KMSN MSN20030619040009206/19/03 04:00:31  5-MIN KMSN 191000Z 02006KT 10SM CLR 12/09 A3005 750 86 600 010/06 RMK AO2
14837KMSN MSN20030619040509206/19/03 04:05:31  5-MIN KMSN 191005Z 02005KT 10SM CLR 12/09 A3005 750 83 600 020/05 RMK AO2
14837KMSN MSN20030619041009206/19/03 04:10:31  5-MIN KMSN 191010Z 02005KT 10SM CLR 12/09 A3005 740 83 600 020/05 RMK AO2
14837KMSN MSN20030619041509206/19/03 04:15:31  5-MIN KMSN 191015Z 01005KT 10SM CLR 11/09 A3005 740 86 500 010/05 RMK AO2
14837KMSN MSN20030619042009206/19/03 04:20:31  5-MIN KMSN 191020Z 01005KT 10SM CLR 12/09 A3005 740 83 600 010/05 RMK AO2
14837KMSN MSN20030619042509206/19/03 04:25:31  5-MIN KMSN 191025Z 36005KT 10SM CLR 12/09 A3006 740 83 600 360/05 RMK AO2
14837KMSN MSN20030619043009206/19/03 04:30:31  5-MIN KMSN 191030Z 36005KT 10SM CLR 12/09 A3006 740 83 600 360/05 RMK AO2
14837KMSN MSN20030619043509206/19/03 04:35:31  5-MIN KMSN 191035Z 01005KT 10SM CLR 12/09 A3006 740 83 600 010/05 RMK AO2
14837KMSN MSN20030619044009206/19/03 04:40:31  5-MIN KMSN 191040Z 01006KT 10SM CLR 11/08 A3006 730 83 500 010/06 RMK AO2
14837KMSN MSN20030619044509206/19/03 04:45:31  5-MIN KMSN 191045Z 01006KT 10SM CLR 11/08 A3006 730 83 500 010/06 RMK AO2
14837KMSN MSN20030619045010906/19/03 04:50:31  5-MIN KMSN 191050Z 36005KT 10SM CLR 12/09 A3007 730 83 500 360/05 RMK AO2 SLP179 T01170089
14837KMSN MSN20030619045509206/19/03 04:55:31  5-MIN KMSN 191055Z 36006KT 10SM CLR 12/09 A3007 730 83 500 360/06 RMK AO2
14837KMSN MSN20030619050009206/19/03 05:00:31  5-MIN KMSN 191100Z 35005KT 10SM CLR 12/09 A3007 730 80 600 350/05 RMK AO2
14837KMSN MSN20030619050509206/19/03 05:05:31  5-MIN KMSN 191105Z 35003KT 10SM CLR 12/09 A3007 730 80 600 350/03 RMK AO2
14837KMSN MSN20030619051009206/19/03 05:10:31  5-MIN KMSN 191110Z 35004KT 10SM CLR 12/09 A3007 720 80 600 350/04 RMK AO2
14837KMSN MSN20030619051509206/19/03 05:15:31  5-MIN KMSN 191115Z 36005KT 10SM CLR 12/09 A3007 720 80 600 360/05 RMK AO2
14837KMSN MSN20030619052009206/19/03 05:20:31  5-MIN KMSN 191120Z 36004KT 10SM CLR 12/09 A3008 720 83 600 350/04 RMK AO2
14837KMSN MSN20030619052509206/19/03 05:25:31  5-MIN KMSN 191125Z 36005KT 10SM CLR 13/09 A3008 720 80 700 360/05 RMK AO2
14837KMSN MSN20030619053009206/19/03 05:30:31  5-MIN KMSN 191130Z 35005KT 10SM CLR 13/09 A3008 720 80 700 350/05 RMK AO2
14837KMSN MSN20030619053509206/19/03 05:35:31  5-MIN KMSN 191135Z 35004KT 10SM CLR 13/10 A3008 720 83 700 350/04 RMK AO2
14837KMSN MSN20030619054009206/19/03 05:40:31  5-MIN KMSN 191140Z 35004KT 10SM CLR 13/10 A3008 720 80 700 350/04 RMK AO2
14837KMSN MSN20030619054509206/19/03 05:45:31  5-MIN KMSN 191145Z 35004KT 10SM CLR 13/10 A3008 720 80 700 350/04 RMK AO2
14837KMSN MSN20030619055013906/19/03 05:50:31  5-MIN KMSN 191150Z 35005KT 10SM CLR 13/11 A3008 720 83 700 350/05 RMK AO2 SLP185 60000 70019 T01330106 10167 20111 53008
14837KMSN MSN20030619055509206/19/03 05:55:31  5-MIN KMSN 191155Z 35006KT 10SM CLR 14/11 A3008 710 80 800 350/06 RMK AO2
14837KMSN MSN20030619060009206/19/03 06:00:31  5-MIN KMSN 191200Z 36005KT 10SM CLR 14/11 A3008 710 80 800 360/05 RMK AO2
14837KMSN MSN20030619060509206/19/03 06:05:31  5-MIN KMSN 191205Z 36005KT 10SM CLR 14/11 A3009 710 83 800 360/05 RMK AO2
14837KMSN MSN20030619061009206/19/03 06:10:31  5-MIN KMSN 191210Z 36006KT 10SM CLR 14/11 A3009 710 80 800 360/06 RMK AO2
14837KMSN MSN20030619061509206/19/03 06:15:31  5-MIN KMSN 191215Z 01006KT 10SM CLR 15/12 A3009 710 80 900 360/06 RMK AO2
14837KMSN MSN20030619062009206/19/03 06:20:31  5-MIN KMSN 191220Z 02007KT 10SM CLR 15/11 A3009 700 77 900 020/07 RMK AO2
14837KMSN MSN20030619062509206/19/03 06:25:31  5-MIN KMSN 191225Z 02009KT 10SM CLR 15/11 A3010 700 77 900 020/09 RMK AO2
14837KMSN MSN20030619063009306/19/03 06:30:31  5-MIN KMSN 191230Z 02009KT 10SM CLR 16/11 A3010 700 72 1000 020/09 RMK AO2
14837KMSN MSN20030619063509206/19/03 06:35:31  5-MIN KMSN 191235Z 03010KT 8SM CLR 16/11 A3010 700 72 1000 020/10 RMK AO2
14837KMSN MSN20030619064009206/19/03 06:40:31  5-MIN KMSN 191240Z 03010KT 8SM CLR 16/10 A3010 700 69 1000 030/10 RMK AO2
14837KMSN MSN20030619064509306/19/03 06:45:31  5-MIN KMSN 191245Z 02009KT 10SM CLR 16/11 A3010 690 72 1000 020/09 RMK AO2
14837KMSN MSN20030619065011006/19/03 06:50:31  5-MIN KMSN 191250Z 03009KT 10SM CLR 16/10 A3011 690 69 1000 020/09 RMK AO2 SLP193 T01560100
14837KMSN MSN20030619065509306/19/03 06:55:31  5-MIN KMSN 191255Z 03008KT 10SM CLR 16/10 A3011 690 67 1000 030/08 RMK AO2
14837KMSN MSN20030619070009306/19/03 07:00:31  5-MIN KMSN 191300Z 03010KT 10SM CLR 16/10 A3011 690 67 1000 030/10 RMK AO2
14837KMSN MSN20030619070509306/19/03 07:05:31  5-MIN KMSN 191305Z 01010KT 10SM CLR 16/10 A3011 690 67 1000 010/10 RMK AO2
14837KMSN MSN20030619071009306/19/03 07:10:31  5-MIN KMSN 191310Z 02011KT 10SM CLR 17/10 A3011 690 64 1100 020/11 RMK AO2
14837KMSN MSN20030619071509306/19/03 07:15:31  5-MIN KMSN 191315Z 02010KT 10SM CLR 17/10 A3011 690 64 1100 020/10 RMK AO2
14837KMSN MSN20030619072009306/19/03 07:20:31  5-MIN KMSN 191320Z 03011KT 10SM CLR 17/09 A3011 690 62 1100 030/11 RMK AO2
14837KMSN MSN20030619072509306/19/03 07:25:31  5-MIN KMSN 191325Z 02011KT 10SM CLR 17/10 A3011 690 64 1100 020/11 RMK AO2
14837KMSN MSN20030619073009306/19/03 07:30:31  5-MIN KMSN 191330Z 03008KT 10SM CLR 17/10 A3011 690 64 1100 030/08 RMK AO2
14837KMSN MSN20030619073509306/19/03 07:35:31  5-MIN KMSN 191335Z 02010KT 10SM CLR 17/09 A3012 680 62 1100 020/10 RMK AO2
14837KMSN MSN20030619074009306/19/03 07:40:31  5-MIN KMSN 191340Z 03009KT 10SM CLR 17/09 A3012 680 60 1100 030/09 RMK AO2
14837KMSN MSN20030619074509306/19/03 07:45:31  5-MIN KMSN 191345Z 02011KT 10SM CLR 17/09 A3012 680 60 1100 020/11 RMK AO2
14837KMSN MSN20030619075011006/19/03 07:50:31  5-MIN KMSN 191350Z 03011KT 10SM CLR 17/09 A3012 680 60 1100 030/11 RMK AO2 SLP197 T01720094
14837KMSN MSN20030619075509306/19/03 07:55:31  5-MIN KMSN 191355Z 02011KT 10SM CLR 18/10 A3012 680 60 1200 020/11 RMK AO2
14837KMSN MSN20030619080009306/19/03 08:00:31  5-MIN KMSN 191400Z 04011KT 10SM CLR 18/09 A3012 680 58 1200 030/11 RMK AO2
14837KMSN MSN20030619080509306/19/03 08:05:31  5-MIN KMSN 191405Z 02011KT 10SM CLR 18/10 A3012 680 58 1300 020/11 RMK AO2
14837KMSN MSN20030619081009306/19/03 08:10:31  5-MIN KMSN 191410Z 03011KT 10SM CLR 18/10 A3012 680 58 1300 030/11 RMK AO2
14837KMSN MSN20030619081509906/19/03 08:15:31  5-MIN KMSN 191415Z 02012G17KT 10SM CLR 18/09 A3013 670 56 1300 020/12G17 RMK AO2
14837KMSN MSN20030619082009306/19/03 08:20:31  5-MIN KMSN 191420Z 04010KT 10SM CLR 18/09 A3013 670 56 1300 040/10 RMK AO2
14837KMSN MSN20030619082509306/19/03 08:25:31  5-MIN KMSN 191425Z 02014KT 10SM CLR 18/09 A3013 670 54 1300 020/14 RMK AO2
14837KMSN MSN20030619083009306/19/03 08:30:31  5-MIN KMSN 191430Z 02013KT 10SM CLR 19/09 A3013 670 52 1300 020/13 RMK AO2
14837KMSN MSN20030619083509306/19/03 08:35:31  5-MIN KMSN 191435Z 03014KT 10SM CLR 19/08 A3013 670 50 1300 030/14 RMK AO2
14837KMSN MSN20030619084009306/19/03 08:40:31  5-MIN KMSN 191440Z 04015KT 10SM CLR 19/08 A3013 670 48 1300 040/15 RMK AO2
14837KMSN MSN20030619084509306/19/03 08:45:31  5-MIN KMSN 191445Z 05016KT 10SM CLR 19/08 A3013 670 50 1300 050/16 RMK AO2
14837KMSN MSN20030619085011606/19/03 08:50:31  5-MIN KMSN 191450Z 04015KT 10SM CLR 19/08 A3014 670 50 1300 040/15 RMK AO2 SLP202 T01890083 51019
14837KMSN MSN20030619085509306/19/03 08:55:31  5-MIN KMSN 191455Z 03012KT 10SM CLR 19/08 A3014 660 50 1300 030/12 RMK AO2
14837KMSN MSN20030619090009306/19/03 09:00:31  5-MIN KMSN 191500Z 04012KT 10SM CLR 19/09 A3014 660 50 1400 040/12 RMK AO2
14837KMSN MSN20030619090509306/19/03 09:05:31  5-MIN KMSN 191505Z 03014KT 10SM CLR 19/09 A3014 660 50 1400 030/14 RMK AO2
14837KMSN MSN20030619091009906/19/03 09:10:31  5-MIN KMSN 191510Z 03016G21KT 10SM CLR 19/08 A3014 660 48 1300 030/16G21 RMK AO2
14837KMSN MSN20030619091509306/19/03 09:15:31  5-MIN KMSN 191515Z 04016KT 10SM CLR 19/07 A3014 660 44 1400 040/16 RMK AO2
14837KMSN MSN20030619092009306/19/03 09:20:31  5-MIN KMSN 191520Z 04016KT 10SM CLR 19/07 A3014 660 44 1400 040/16 RMK AO2
14837KMSN MSN20030619092509306/19/03 09:25:31  5-MIN KMSN 191525Z 02015KT 10SM CLR 19/08 A3014 660 46 1400 020/15 RMK AO2
14837KMSN MSN20030619093009906/19/03 09:30:31  5-MIN KMSN 191530Z 04016G22KT 10SM CLR 19/07 A3014 660 44 1400 040/16G22 RMK AO2
14837KMSN MSN20030619093509906/19/03 09:35:31  5-MIN KMSN 191535Z 05019G22KT 10SM CLR 20/07 A3014 660 43 1400 040/19G22 RMK AO2
14837KMSN MSN20030619094009306/19/03 09:40:31  5-MIN KMSN 191540Z 03015KT 10SM CLR 19/07 A3014 660 43 1400 030/15 RMK AO2
14837KMSN MSN20030619094509906/19/03 09:45:31  5-MIN KMSN 191545Z 03014G20KT 10SM CLR 20/07 A3014 660 41 1400 030/14G20 RMK AO2
14837KMSN MSN20030619095011606/19/03 09:50:31  5-MIN KMSN 191550Z 04014G20KT 10SM CLR 20/07 A3014 660 43 1400 040/14G20 RMK AO2 SLP205 T02000072
14837KMSN MSN20030619095509306/19/03 09:55:31  5-MIN KMSN 191555Z 03015KT 10SM CLR 20/07 A3014 660 43 1400 030/15 RMK AO2
14837KMSN MSN20030619100009306/19/03 10:00:31  5-MIN KMSN 191600Z 03016KT 10SM CLR 20/08 A3014 660 45 1400 030/16 RMK AO2
14837KMSN MSN20030619100509906/19/03 10:05:31  5-MIN KMSN 191605Z 02011G20KT 10SM CLR 19/08 A3014 660 46 1400 020/11G20 RMK AO2
14837KMSN MSN20030619101009306/19/03 10:10:31  5-MIN KMSN 191610Z 01012KT 10SM CLR 20/09 A3014 660 48 1400 010/12 RMK AO2
14837KMSN MSN20030619101509306/19/03 10:15:31  5-MIN KMSN 191615Z 04014KT 10SM CLR 21/07 A3014 660 41 1500 040/14 RMK AO2
14837KMSN MSN20030619102009306/19/03 10:20:31  5-MIN KMSN 191620Z 04014KT 10SM CLR 20/07 A3014 660 43 1400 040/14 RMK AO2
14837KMSN MSN20030619102509306/19/03 10:25:31  5-MIN KMSN 191625Z 02016KT 10SM CLR 20/07 A3014 660 43 1400 020/16 RMK AO2
14837KMSN MSN20030619103009306/19/03 10:30:31  5-MIN KMSN 191630Z 03014KT 10SM CLR 20/07 A3015 660 43 1400 020/14 RMK AO2
14837KMSN MSN20030619103509306/19/03 10:35:31  5-MIN KMSN 191635Z 02015KT 10SM CLR 20/07 A3015 660 43 1400 020/15 RMK AO2
14837KMSN MSN20030619104009306/19/03 10:40:31  5-MIN KMSN 191640Z 03016KT 10SM CLR 20/07 A3014 660 43 1400 030/16 RMK AO2
14837KMSN MSN20030619104509306/19/03 10:45:31  5-MIN KMSN 191645Z 02016KT 10SM CLR 21/08 A3015 660 43 1500 020/16 RMK AO2
14837KMSN MSN20030619105011006/19/03 10:50:31  5-MIN KMSN 191650Z 02015KT 10SM CLR 20/08 A3015 660 45 1400 010/15 RMK AO2 SLP206 T02000078
14837KMSN MSN20030619105509306/19/03 10:55:31  5-MIN KMSN 191655Z 03013KT 10SM CLR 21/08 A3015 660 43 1500 030/13 RMK AO2
14837KMSN MSN20030619110009306/19/03 11:00:31  5-MIN KMSN 191700Z 03015KT 10SM CLR 20/08 A3015 660 45 1400 030/15 RMK AO2
14837KMSN MSN20030619110509906/19/03 11:05:31  5-MIN KMSN 191705Z 05013G18KT 10SM CLR 21/08 A3015 660 43 1500 040/13G18 RMK AO2
14837KMSN MSN20030619111009306/19/03 11:10:31  5-MIN KMSN 191710Z 03013KT 10SM CLR 21/08 A3015 660 45 1500 030/13 RMK AO2
14837KMSN MSN20030619111509906/19/03 11:15:31  5-MIN KMSN 191715Z 05013G19KT 10SM CLR 21/08 A3014 660 45 1500 050/13G19 RMK AO2
14837KMSN MSN20030619112009306/19/03 11:20:31  5-MIN KMSN 191720Z 01014KT 10SM CLR 21/08 A3015 660 43 1500 010/14 RMK AO2
14837KMSN MSN20030619112509306/19/03 11:25:31  5-MIN KMSN 191725Z 04011KT 10SM CLR 21/08 A3014 660 43 1500 040/11 RMK AO2
14837KMSN MSN20030619113009906/19/03 11:30:31  5-MIN KMSN 191730Z 03013G19KT 10SM CLR 21/08 A3014 660 43 1500 030/13G19 RMK AO2
14837KMSN MSN20030619113509306/19/03 11:35:31  5-MIN KMSN 191735Z 05015KT 10SM CLR 21/08 A3014 660 43 1500 040/15 RMK AO2
14837KMSN MSN20030619114009306/19/03 11:40:31  5-MIN KMSN 191740Z 01013KT 10SM CLR 21/08 A3014 660 43 1500 010/13 RMK AO2
14837KMSN MSN20030619114509306/19/03 11:45:31  5-MIN KMSN 191745Z 02012KT 10SM CLR 21/08 A3014 660 43 1600 020/12 RMK AO2
14837KMSN MSN20030619115012806/19/03 11:50:31  5-MIN KMSN 191750Z 03012KT 10SM CLR 21/08 A3014 660 43 1600 030/12 RMK AO2 SLP204 T02110083 10211 20133 51018
14837KMSN MSN20030619115509906/19/03 11:55:31  5-MIN KMSN 191755Z 01014G20KT 10SM CLR 21/08 A3014 660 45 1500 010/14G20 RMK AO2
14837KMSN MSN20030619120009906/19/03 12:00:31  5-MIN KMSN 191800Z 04015G20KT 10SM CLR 21/08 A3014 670 43 1500 040/15G20 RMK AO2
14837KMSN MSN20030619120509306/19/03 12:05:31  5-MIN KMSN 191805Z 03017KT 10SM CLR 21/07 A3014 660 41 1500 030/17 RMK AO2
14837KMSN MSN20030619121009306/19/03 12:10:31  5-MIN KMSN 191810Z 03013KT 10SM CLR 21/08 A3014 670 42 1600 030/13 RMK AO2
14837KMSN MSN20030619121509306/19/03 12:15:31  5-MIN KMSN 191815Z 05015KT 10SM CLR 21/07 A3014 670 40 1600 040/15 RMK AO2
14837KMSN MSN20030619131010206/19/03 13:10:31  5-MIN KMSN 191910Z 04013G19KT 10SM FEW050 22/08 A3013 670 42 1600 040/13G19 RMK AO2
14837KMSN MSN20030619131509906/19/03 13:15:31  5-MIN KMSN 191915Z 01012G20KT 10SM CLR 21/08 A3013 670 42 1600 360/12G20 RMK AO2
14837KMSN MSN20030619132009906/19/03 13:20:31  5-MIN KMSN 191920Z 05011G20KT 10SM CLR 22/08 A3013 670 42 1600 050/11G20 RMK AO2
14837KMSN MSN20030619132509906/19/03 13:25:31  5-MIN KMSN 191925Z 02016G20KT 10SM CLR 22/07 A3013 670 39 1600 020/16G20 RMK AO2
14837KMSN MSN20030619133009906/19/03 13:30:31  5-MIN KMSN 191930Z 04012G20KT 10SM CLR 21/07 A3013 670 40 1600 030/12G20 RMK AO2
14837KMSN MSN20030619133510906/19/03 13:35:31  5-MIN KMSN 191935Z 03013KT 360V060 10SM CLR 22/07 A3013 670 39 1600 020/13 360V060 RMK AO2
14837KMSN MSN20030619134009906/19/03 13:40:31  5-MIN KMSN 191940Z 03012G20KT 10SM CLR 22/07 A3013 670 39 1600 030/12G20 RMK AO2
14837KMSN MSN20030619134509906/19/03 13:45:31  5-MIN KMSN 191945Z 03013G20KT 10SM CLR 22/08 A3013 670 40 1600 030/13G20 RMK AO2
14837KMSN MSN20030619135011606/19/03 13:50:31  5-MIN KMSN 191950Z 02012G20KT 10SM CLR 22/07 A3013 670 39 1600 020/12G20 RMK AO2 SLP201 T02170072
14837KMSN MSN20030619135509906/19/03 13:55:31  5-MIN KMSN 191955Z 03015G20KT 10SM CLR 21/07 A3013 670 38 1600 030/15G20 RMK AO2
14837KMSN MSN20030619140009906/19/03 14:00:31  5-MIN KMSN 192000Z 02011G18KT 10SM CLR 22/07 A3013 670 37 1600 020/11G18 RMK AO2
14837KMSN MSN20030619140509306/19/03 14:05:31  5-MIN KMSN 192005Z 05010KT 10SM CLR 22/06 A3013 680 36 1600 050/10 RMK AO2
14837KMSN MSN20030619141009906/19/03 14:10:31  5-MIN KMSN 192010Z 04014G18KT 10SM CLR 22/07 A3013 670 36 1700 040/14G18 RMK AO2
14837KMSN MSN20030619141509306/19/03 14:15:31  5-MIN KMSN 192015Z 02013KT 10SM CLR 22/07 A3013 670 37 1600 020/13 RMK AO2
14837KMSN MSN20030619142009306/19/03 14:20:31  5-MIN KMSN 192020Z 03013KT 10SM CLR 22/06 A3013 670 35 1700 030/13 RMK AO2
14837KMSN MSN20030619142509906/19/03 14:25:31  5-MIN KMSN 192025Z 03010G17KT 10SM CLR 22/06 A3013 670 36 1600 020/10G17 RMK AO2
14837KMSN MSN20030619143009906/19/03 14:30:31  5-MIN KMSN 192030Z 03012G17KT 10SM CLR 22/07 A3013 670 37 1600 020/12G17 RMK AO2
14837KMSN MSN20030619143509306/19/03 14:35:31  5-MIN KMSN 192035Z 03013KT 10SM CLR 22/06 A3013 670 35 1700 030/13 RMK AO2
14837KMSN MSN20030619144009306/19/03 14:40:31  5-MIN KMSN 192040Z 05010KT 10SM CLR 22/07 A3013 680 37 1600 050/10 RMK AO2
14837KMSN MSN20030619144509906/19/03 14:45:31  5-MIN KMSN 192045Z 04012G20KT 10SM CLR 22/06 A3013 680 36 1600 030/12G20 RMK AO2
14837KMSN MSN20030619145012206/19/03 14:50:31  5-MIN KMSN 192050Z 05011G20KT 10SM CLR 22/06 A3013 680 34 1600 040/11G20 RMK AO2 SLP200 T02170056 50000
14837KMSN MSN20030619145509906/19/03 14:55:31  5-MIN KMSN 192055Z 04014G20KT 10SM CLR 22/05 A3013 680 33 1600 040/14G20 RMK AO2
14837KMSN MSN20030619150009906/19/03 15:00:31  5-MIN KMSN 192100Z 05011G20KT 10SM CLR 22/06 A3013 670 34 1600 050/11G20 RMK AO2
14837KMSN MSN20030619150509306/19/03 15:05:31  5-MIN KMSN 192105Z 04013KT 10SM CLR 22/05 A3013 670 33 1600 040/13 RMK AO2
14837KMSN MSN20030619151009906/19/03 15:10:31  5-MIN KMSN 192110Z 01015G20KT 10SM CLR 22/05 A3013 670 33 1600 010/15G20 RMK AO2
14837KMSN MSN20030619151509906/19/03 15:15:31  5-MIN KMSN 192115Z 02008G20KT 10SM CLR 22/06 A3013 670 34 1600 020/08G20 RMK AO2
14837KMSN MSN20030619152009306/19/03 15:20:31  5-MIN KMSN 192120Z 05015KT 10SM CLR 22/06 A3012 680 35 1700 050/15 RMK AO2
14837KMSN MSN20030619152509906/19/03 15:25:31  5-MIN KMSN 192125Z 02012G17KT 10SM CLR 22/04 A3012 680 32 1600 020/12G17 RMK AO2
14837KMSN MSN20030619153009306/19/03 15:30:31  5-MIN KMSN 192130Z 02014KT 10SM CLR 22/04 A3012 680 32 1600 020/14 RMK AO2
14837KMSN MSN20030619153509306/19/03 15:35:31  5-MIN KMSN 192135Z 04013KT 10SM CLR 22/05 A3012 680 33 1600 040/13 RMK AO2
14837KMSN MSN20030619154009306/19/03 15:40:31  5-MIN KMSN 192140Z 03011KT 10SM CLR 22/06 A3012 680 34 1600 030/11 RMK AO2
14837KMSN MSN20030619154509306/19/03 15:45:31  5-MIN KMSN 192145Z 02012KT 10SM CLR 22/06 A3012 680 34 1600 020/12 RMK AO2
14837KMSN MSN20030619155011006/19/03 15:50:31  5-MIN KMSN 192150Z 05013KT 10SM CLR 22/06 A3012 680 34 1600 050/13 RMK AO2 SLP199 T02170056
14837KMSN MSN20030619155509306/19/03 15:55:31  5-MIN KMSN 192155Z 05012KT 10SM CLR 22/05 A3012 680 33 1600 040/12 RMK AO2
14837KMSN MSN20030619160009306/19/03 16:00:31  5-MIN KMSN 192200Z 04010KT 10SM CLR 21/05 A3012 680 34 1600 040/10 RMK AO2
14837KMSN MSN20030619160509906/19/03 16:05:31  5-MIN KMSN 192205Z 06013G19KT 10SM CLR 21/04 A3012 680 33 1600 060/13G19 RMK AO2
14837KMSN MSN20030619161009306/19/03 16:10:31  5-MIN KMSN 192210Z 06014KT 10SM CLR 21/04 A3012 680 32 1600 060/14 RMK AO2
14837KMSN MSN20030619161509306/19/03 16:15:31  5-MIN KMSN 192215Z 04011KT 10SM CLR 21/04 A3012 680 32 1600 040/11 RMK AO2
14837KMSN MSN20030619162009306/19/03 16:20:31  5-MIN KMSN 192220Z 04013KT 10SM CLR 21/03 A3012 680 30 1600 040/13 RMK AO2
14837KMSN MSN20030619162509306/19/03 16:25:31  5-MIN KMSN 192225Z 04015KT 10SM CLR 21/03 A3012 680 29 1600 040/15 RMK AO2
14837KMSN MSN20030619163009306/19/03 16:30:31  5-MIN KMSN 192230Z 03013KT 10SM CLR 21/02 A3011 690 28 1600 030/13 RMK AO2
14837KMSN MSN20030619163509306/19/03 16:35:31  5-MIN KMSN 192235Z 05011KT 10SM CLR 21/02 A3011 690 28 1600 050/11 RMK AO2
14837KMSN MSN20030619164009306/19/03 16:40:31  5-MIN KMSN 192240Z 05012KT 10SM CLR 21/02 A3011 690 28 1600 050/12 RMK AO2
14837KMSN MSN20030619164509306/19/03 16:45:31  5-MIN KMSN 192245Z 03013KT 10SM CLR 21/00 A3011 690 24 1600 030/13 RMK AO2
14837KMSN MSN20030619165011006/19/03 16:50:31  5-MIN KMSN 192250Z 05012KT 10SM CLR 21/01 A3011 690 25 1600 050/12 RMK AO2 SLP195 T02110006
14837KMSN MSN20030619165509306/19/03 16:55:31  5-MIN KMSN 192255Z 05012KT 10SM CLR 21/01 A3011 690 26 1500 050/12 RMK AO2
14837KMSN MSN20030619170009306/19/03 17:00:31  5-MIN KMSN 192300Z 05014KT 10SM CLR 21/00 A3011 690 25 1500 050/14 RMK AO2
14837KMSN MSN20030619170509306/19/03 17:05:31  5-MIN KMSN 192305Z 04011KT 10SM CLR 21/01 A3011 690 26 1500 040/11 RMK AO2
14837KMSN MSN20030619171009306/19/03 17:10:31  5-MIN KMSN 192310Z 04010KT 10SM CLR 21/01 A3011 690 27 1500 040/10 RMK AO2
14837KMSN MSN20030619171509906/19/03 17:15:31  5-MIN KMSN 192315Z 05014G17KT 10SM CLR 21/00 A3012 680 25 1500 050/14G17 RMK AO2
14837KMSN MSN20030619172009406/19/03 17:20:31  5-MIN KMSN 192320Z 05014KT 10SM CLR 20/M01 A3012 680 25 1500 050/14 RMK AO2
14837KMSN MSN20030619172509306/19/03 17:25:31  5-MIN KMSN 192325Z 04013KT 10SM CLR 20/00 A3012 680 26 1500 040/13 RMK AO2
14837KMSN MSN20030619173009306/19/03 17:30:31  5-MIN KMSN 192330Z 06014KT 10SM CLR 20/00 A3012 680 26 1500 060/14 RMK AO2
14837KMSN MSN20030619173509306/19/03 17:35:31  5-MIN KMSN 192335Z 04011KT 10SM CLR 20/01 A3012 680 28 1500 040/11 RMK AO2
14837KMSN MSN20030619174009306/19/03 17:40:31  5-MIN KMSN 192340Z 04010KT 10SM CLR 20/01 A3012 680 28 1500 040/10 RMK AO2
14837KMSN MSN20030619174509306/19/03 17:45:31  5-MIN KMSN 192345Z 06014KT 10SM CLR 20/01 A3012 680 28 1500 060/14 RMK AO2
14837KMSN MSN20030619175012806/19/03 17:50:31  5-MIN KMSN 192350Z 06012KT 10SM CLR 19/00 A3012 680 27 1400 050/12 RMK AO2 SLP198 T01940000 10222 20194 56004
14837KMSN MSN20030619175509306/19/03 17:55:31  5-MIN KMSN 192355Z 05012KT 10SM CLR 19/00 A3012 680 27 1400 050/12 RMK AO2
14837KMSN MSN20030619180009306/19/03 18:00:31  5-MIN KMSN 200000Z 05012KT 10SM CLR 19/01 A3012 680 29 1400 050/12 RMK AO2
14837KMSN MSN20030619180509306/19/03 18:05:31  5-MIN KMSN 200005Z 05011KT 10SM CLR 19/01 A3012 680 29 1400 050/11 RMK AO2
14837KMSN MSN20030619181009306/19/03 18:10:31  5-MIN KMSN 200010Z 05011KT 10SM CLR 19/01 A3012 680 29 1400 040/11 RMK AO2
14837KMSN MSN20030619181509306/19/03 18:15:31  5-MIN KMSN 200015Z 05010KT 10SM CLR 19/01 A3012 680 30 1300 050/10 RMK AO2
14837KMSN MSN20030619182009306/19/03 18:20:31  5-MIN KMSN 200020Z 05010KT 10SM CLR 19/01 A3012 680 30 1300 050/10 RMK AO2
14837KMSN MSN20030619182509306/19/03 18:25:31  5-MIN KMSN 200025Z 05009KT 10SM CLR 19/02 A3012 680 31 1300 050/09 RMK AO2
14837KMSN MSN20030619183009306/19/03 18:30:31  5-MIN KMSN 200030Z 04008KT 10SM CLR 19/02 A3012 680 31 1300 040/08 RMK AO2
14837KMSN MSN20030619183509306/19/03 18:35:31  5-MIN KMSN 200035Z 05007KT 10SM CLR 18/02 A3012 680 34 1300 050/07 RMK AO2
14837KMSN MSN20030619184009306/19/03 18:40:31  5-MIN KMSN 200040Z 04007KT 10SM CLR 18/02 A3012 680 34 1300 040/07 RMK AO2
14837KMSN MSN20030619184509306/19/03 18:45:31  5-MIN KMSN 200045Z 05008KT 10SM CLR 18/03 A3012 680 38 1200 040/08 RMK AO2
14837KMSN MSN20030619185011006/19/03 18:50:31  5-MIN KMSN 200050Z 05008KT 10SM CLR 18/03 A3012 680 36 1200 050/08 RMK AO2 SLP197 T01780028
14837KMSN MSN20030619185509306/19/03 18:55:31  5-MIN KMSN 200055Z 05007KT 10SM CLR 17/03 A3012 680 37 1100 050/07 RMK AO2
14837KMSN MSN20030619190009306/19/03 19:00:31  5-MIN KMSN 200100Z 04006KT 10SM CLR 17/03 A3011 690 37 1100 040/06 RMK AO2
14837KMSN MSN20030619190509306/19/03 19:05:31  5-MIN KMSN 200105Z 04006KT 10SM CLR 17/03 A3011 690 40 1100 040/06 RMK AO2
14837KMSN MSN20030619191009306/19/03 19:10:31  5-MIN KMSN 200110Z 04006KT 10SM CLR 17/03 A3011 690 39 1100 040/06 RMK AO2
14837KMSN MSN20030619191509306/19/03 19:15:31  5-MIN KMSN 200115Z 04006KT 10SM CLR 17/03 A3011 690 39 1100 040/06 RMK AO2
14837KMSN MSN20030619192009306/19/03 19:20:31  5-MIN KMSN 200120Z 03005KT 10SM CLR 16/04 A3011 690 44 1000 030/05 RMK AO2
14837KMSN MSN20030619192509306/19/03 19:25:31  5-MIN KMSN 200125Z 03005KT 10SM CLR 16/04 A3011 690 44 1000 030/05 RMK AO2
14837KMSN MSN20030619193009306/19/03 19:30:31  5-MIN KMSN 200130Z 04005KT 10SM CLR 16/03 A3011 690 40 1000 040/05 RMK AO2
14837KMSN MSN20030619193509306/19/03 19:35:31  5-MIN KMSN 200135Z 04005KT 10SM CLR 16/03 A3011 690 42 1000 040/05 RMK AO2
14837KMSN MSN20030619194009306/19/03 19:40:31  5-MIN KMSN 200140Z 04005KT 10SM CLR 16/03 A3011 690 40 1000 030/05 RMK AO2
14837KMSN MSN20030619194509306/19/03 19:45:31  5-MIN KMSN 200145Z 03005KT 10SM CLR 16/03 A3011 690 42 1000 030/05 RMK AO2
14837KMSN MSN20030619195010906/19/03 19:50:31  5-MIN KMSN 200150Z 03005KT 10SM CLR 15/03 A3011 690 43 900 030/05 RMK AO2 SLP196 T01500028
14837KMSN MSN20030619195509206/19/03 19:55:31  5-MIN KMSN 200155Z 03005KT 10SM CLR 14/03 A3011 690 45 800 030/05 RMK AO2
14837KMSN MSN20030619200009206/19/03 20:00:31  5-MIN KMSN 200200Z 04005KT 10SM CLR 15/03 A3011 690 43 900 040/05 RMK AO2
14837KMSN MSN20030619200509206/19/03 20:05:31  5-MIN KMSN 200205Z 03004KT 10SM CLR 14/03 A3011 680 45 800 030/04 RMK AO2
14837KMSN MSN20030619201009206/19/03 20:10:31  5-MIN KMSN 200210Z 03004KT 10SM CLR 14/04 A3012 680 49 800 030/04 RMK AO2
14837KMSN MSN20030619201509206/19/03 20:15:31  5-MIN KMSN 200215Z 03004KT 10SM CLR 14/04 A3012 680 49 800 030/04 RMK AO2
14837KMSN MSN20030619202009206/19/03 20:20:31  5-MIN KMSN 200220Z 00000KT 10SM CLR 14/04 A3012 680 49 800 000/00 RMK AO2
14837KMSN MSN20030619202509206/19/03 20:25:31  5-MIN KMSN 200225Z 00000KT 10SM CLR 14/04 A3012 680 52 700 000/00 RMK AO2
14837KMSN MSN20030619203009206/19/03 20:30:31  5-MIN KMSN 200230Z 00000KT 10SM CLR 14/04 A3012 680 52 700 000/00 RMK AO2
14837KMSN MSN20030619203509206/19/03 20:35:31  5-MIN KMSN 200235Z 00000KT 10SM CLR 13/05 A3012 680 59 600 000/00 RMK AO2
14837KMSN MSN20030619204009206/19/03 20:40:31  5-MIN KMSN 200240Z 00000KT 10SM CLR 12/04 A3012 680 58 500 000/00 RMK AO2
14837KMSN MSN20030619204509206/19/03 20:45:31  5-MIN KMSN 200245Z 00000KT 10SM CLR 12/04 A3012 680 58 500 000/00 RMK AO2
14837KMSN MSN20030619205011506/19/03 20:50:31  5-MIN KMSN 200250Z 00000KT 10SM CLR 13/05 A3013 670 59 600 000/00 RMK AO2 SLP200 T01280050 55003
14837KMSN MSN20030619205509206/19/03 20:55:31  5-MIN KMSN 200255Z 00000KT 10SM CLR 12/05 A3013 670 61 500 000/00 RMK AO2
14837KMSN MSN20030619210009206/19/03 21:00:31  5-MIN KMSN 200300Z 00000KT 10SM CLR 12/04 A3013 670 58 500 000/00 RMK AO2
14837KMSN MSN20030619210509206/19/03 21:05:31  5-MIN KMSN 200305Z 04003KT 10SM CLR 12/03 A3013 670 56 500 040/03 RMK AO2
14837KMSN MSN20030619211009206/19/03 21:10:31  5-MIN KMSN 200310Z 00000KT 10SM CLR 12/03 A3013 670 56 500 000/00 RMK AO2
14837KMSN MSN20030619211509206/19/03 21:15:31  5-MIN KMSN 200315Z 00000KT 10SM CLR 11/04 A3013 670 61 400 000/00 RMK AO2
14837KMSN MSN20030619212009206/19/03 21:20:31  5-MIN KMSN 200320Z 00000KT 10SM CLR 11/05 A3013 670 68 300 000/00 RMK AO2
14837KMSN MSN20030619212509206/19/03 21:25:31  5-MIN KMSN 200325Z 00000KT 10SM CLR 11/05 A3013 670 68 300 000/00 RMK AO2
14837KMSN MSN20030619213009206/19/03 21:30:31  5-MIN KMSN 200330Z 00000KT 10SM CLR 10/05 A3014 670 71 300 000/00 RMK AO2
14837KMSN MSN20030619213509206/19/03 21:35:31  5-MIN KMSN 200335Z 00000KT 10SM CLR 11/05 A3014 670 68 300 000/00 RMK AO2
14837KMSN MSN20030619214009206/19/03 21:40:31  5-MIN KMSN 200340Z 00000KT 10SM CLR 10/05 A3014 660 71 300 000/00 RMK AO2
14837KMSN MSN20030619214509206/19/03 21:45:31  5-MIN KMSN 200345Z 00000KT 10SM CLR 11/04 A3014 660 66 300 000/00 RMK AO2
14837KMSN MSN20030619215010906/19/03 21:50:31  5-MIN KMSN 200350Z 00000KT 10SM CLR 10/04 A3014 660 68 300 000/00 RMK AO2 SLP206 T01000044
14837KMSN MSN20030619215509206/19/03 21:55:31  5-MIN KMSN 200355Z 00000KT 10SM CLR 10/05 A3014 660 71 300 000/00 RMK AO2
14837KMSN MSN20030619220009206/19/03 22:00:31  5-MIN KMSN 200400Z 00000KT 10SM CLR 10/04 A3014 660 68 300 000/00 RMK AO2
14837KMSN MSN20030619220509206/19/03 22:05:31  5-MIN KMSN 200405Z 00000KT 10SM CLR 10/04 A3015 660 68 300 000/00 RMK AO2
14837KMSN MSN20030619221009206/19/03 22:10:31  5-MIN KMSN 200410Z 00000KT 10SM CLR 11/04 A3015 660 63 300 000/00 RMK AO2
14837KMSN MSN20030619221509206/19/03 22:15:31  5-MIN KMSN 200415Z 00000KT 10SM CLR 10/04 A3015 660 68 300 000/00 RMK AO2
14837KMSN MSN20030619222009206/19/03 22:20:31  5-MIN KMSN 200420Z 00000KT 10SM CLR 10/04 A3015 650 68 300 000/00 RMK AO2
14837KMSN MSN20030619222509206/19/03 22:25:31  5-MIN KMSN 200425Z 00000KT 10SM CLR 09/05 A3015 650 74 200 000/00 RMK AO2
14837KMSN MSN20030619223009206/19/03 22:30:31  5-MIN KMSN 200430Z 00000KT 10SM CLR 09/05 A3015 650 74 200 000/00 RMK AO2
14837KMSN MSN20030619223509206/19/03 22:35:31  5-MIN KMSN 200435Z 00000KT 10SM CLR 09/04 A3015 650 71 200 000/00 RMK AO2
14837KMSN MSN20030619224009206/19/03 22:40:31  5-MIN KMSN 200440Z 00000KT 10SM CLR 09/04 A3015 650 71 200 000/00 RMK AO2
14837KMSN MSN20030619224509206/19/03 22:45:31  5-MIN KMSN 200445Z 00000KT 10SM CLR 09/04 A3016 650 71 200 000/00 RMK AO2
14837KMSN MSN20030619225010906/19/03 22:50:31  5-MIN KMSN 200450Z 00000KT 10SM CLR 10/05 A3015 650 71 200 000/00 RMK AO2 SLP211 T01000050
14837KMSN MSN20030619225509206/19/03 22:55:31  5-MIN KMSN 200455Z 00000KT 10SM CLR 09/05 A3015 650 74 200 000/00 RMK AO2
14837KMSN MSN20030619230009206/19/03 23:00:31  5-MIN KMSN 200500Z 06003KT 10SM CLR 09/04 A3016 650 71 200 060/03 RMK AO2
14837KMSN MSN20030619230509206/19/03 23:05:31  5-MIN KMSN 200505Z 06003KT 10SM CLR 09/04 A3015 650 71 200 060/03 RMK AO2
14837KMSN MSN20030619231009206/19/03 23:10:31  5-MIN KMSN 200510Z 05003KT 10SM CLR 09/04 A3016 650 71 200 050/03 RMK AO2
14837KMSN MSN20030619231509206/19/03 23:15:31  5-MIN KMSN 200515Z 06003KT 10SM CLR 09/05 A3016 640 74 200 060/03 RMK AO2
14837KMSN MSN20030619232009206/19/03 23:20:31  5-MIN KMSN 200520Z 07003KT 10SM CLR 09/05 A3016 640 74 200 070/03 RMK AO2
14837KMSN MSN20030619232509206/19/03 23:25:31  5-MIN KMSN 200525Z 00000KT 10SM CLR 10/05 A3016 640 71 200 000/00 RMK AO2
14837KMSN MSN20030619233009006/19/03 23:30:31  5-MIN KMSN 200530Z 00000KT 10SM CLR 08/05 A3016 640 79 0 000/00 RMK AO2
14837KMSN MSN20030619233509006/19/03 23:35:31  5-MIN KMSN 200535Z 00000KT 10SM CLR 08/04 A3017 640 76 0 000/00 RMK AO2
14837KMSN MSN20030619234009006/19/03 23:40:31  5-MIN KMSN 200540Z 00000KT 10SM CLR 08/05 A3017 640 79 0 000/00 RMK AO2
14837KMSN MSN20030619234509006/19/03 23:45:31  5-MIN KMSN 200545Z 00000KT 10SM CLR 08/05 A3017 630 79 0 000/00 RMK AO2
14837KMSN MSN20030619235013506/19/03 23:50:31  5-MIN KMSN 200550Z 00000KT 10SM CLR 08/05 A3017 630 82 0 000/00 RMK AO2 SLP218 T00780050 10194 20078 402220078 53003
14837KMSN MSN20030619235509306/19/03 23:55:31  5-MIN KMSN 200555Z 00000KT 10SM CLR 07/05 A3017 630 86 -100 000/00 RMK AO2
14837KMSN MSN20030620000009006/20/03 00:00:31  5-MIN KMSN 200600Z 01003KT 10SM CLR 08/05 A3018 630 82 0 010/03 RMK AO2
14837KMSN MSN20030620000509006/20/03 00:05:31  5-MIN KMSN 200605Z 01003KT 10SM CLR 08/05 A3018 630 82 0 010/03 RMK AO2
14837KMSN MSN20030620001009306/20/03 00:10:31  5-MIN KMSN 200610Z 36003KT 10SM CLR 07/05 A3018 630 86 -100 360/03 RMK AO2
14837KMSN MSN20030620001509306/20/03 00:15:31  5-MIN KMSN 200615Z 00000KT 10SM CLR 07/05 A3018 630 86 -100 000/00 RMK AO2
14837KMSN MSN20030620002009306/20/03 00:20:31  5-MIN KMSN 200620Z 00000KT 10SM CLR 07/05 A3018 630 86 -100 000/00 RMK AO2
14837KMSN MSN20030620002509306/20/03 00:25:31  5-MIN KMSN 200625Z 00000KT 10SM CLR 07/05 A3018 630 86 -100 000/00 RMK AO2
14837KMSN MSN20030620003009306/20/03 00:30:31  5-MIN KMSN 200630Z 00000KT 10SM CLR 07/05 A3018 630 86 -100 000/00 RMK AO2
14837KMSN MSN20030620003509306/20/03 00:35:31  5-MIN KMSN 200635Z 00000KT 10SM CLR 07/05 A3018 630 86 -100 000/00 RMK AO2
14837KMSN MSN20030620004009306/20/03 00:40:31  5-MIN KMSN 200640Z 00000KT 10SM CLR 07/04 A3018 630 82 -100 000/00 RMK AO2
14837KMSN MSN20030620004509306/20/03 00:45:31  5-MIN KMSN 200645Z 00000KT 10SM CLR 07/05 A3018 630 86 -100 000/00 RMK AO2
14837KMSN MSN20030620005011006/20/03 00:50:31  5-MIN KMSN 200650Z 00000KT 10SM CLR 07/04 A3018 630 82 -100 000/00 RMK AO2 SLP221 T00720044
14837KMSN MSN20030620005509306/20/03 00:55:31  5-MIN KMSN 200655Z 00000KT 10SM CLR 07/04 A3018 630 86 -100 000/00 RMK AO2
14837KMSN MSN20030620010009306/20/03 01:00:31  5-MIN KMSN 200700Z 00000KT 10SM CLR 07/04 A3018 630 86 -100 000/00 RMK AO2
14837KMSN MSN20030620010509306/20/03 01:05:31  5-MIN KMSN 200705Z 00000KT 10SM CLR 07/04 A3018 630 86 -100 000/00 RMK AO2
14837KMSN MSN20030620011009306/20/03 01:10:31  5-MIN KMSN 200710Z 00000KT 10SM CLR 06/04 A3018 620 89 -200 000/00 RMK AO2
14837KMSN MSN20030620011509306/20/03 01:15:31  5-MIN KMSN 200715Z 00000KT 10SM CLR 07/04 A3018 620 86 -100 000/00 RMK AO2
14837KMSN MSN20030620012009306/20/03 01:20:31  5-MIN KMSN 200720Z 00000KT 10SM CLR 07/04 A3018 620 86 -100 000/00 RMK AO2
14837KMSN MSN20030620012509306/20/03 01:25:31  5-MIN KMSN 200725Z 00000KT 10SM CLR 06/04 A3018 620 86 -200 000/00 RMK AO2
14837KMSN MSN20030620013009306/20/03 01:30:31  5-MIN KMSN 200730Z 32003KT 10SM CLR 06/04 A3019 620 86 -200 320/03 RMK AO2
14837KMSN MSN20030620013509306/20/03 01:35:31  5-MIN KMSN 200735Z 00000KT 10SM CLR 06/04 A3019 620 86 -200 000/00 RMK AO2
14837KMSN MSN20030620014009306/20/03 01:40:31  5-MIN KMSN 200740Z 00000KT 10SM CLR 07/04 A3019 620 86 -200 000/00 RMK AO2
14837KMSN MSN20030620014509306/20/03 01:45:31  5-MIN KMSN 200745Z 33003KT 10SM CLR 07/04 A3019 620 82 -100 330/03 RMK AO2
14837KMSN MSN20030620015011006/20/03 01:50:31  5-MIN KMSN 200750Z 00000KT 10SM CLR 06/04 A3019 620 86 -200 000/00 RMK AO2 SLP224 T00610039
14837KMSN MSN20030620015509306/20/03 01:55:31  5-MIN KMSN 200755Z 00000KT 10SM CLR 06/04 A3019 620 86 -200 000/00 RMK AO2
14837KMSN MSN20030620020009306/20/03 02:00:31  5-MIN KMSN 200800Z 00000KT 10SM CLR 06/04 A3019 620 86 -200 000/00 RMK AO2
14837KMSN MSN20030620020509306/20/03 02:05:31  5-MIN KMSN 200805Z 00000KT 10SM CLR 06/04 A3019 620 86 -200 000/00 RMK AO2
14837KMSN MSN20030620021009306/20/03 02:10:31  5-MIN KMSN 200810Z 00000KT 10SM CLR 06/04 A3019 620 86 -200 000/00 RMK AO2
14837KMSN MSN20030620021509306/20/03 02:15:31  5-MIN KMSN 200815Z 00000KT 10SM CLR 07/03 A3019 620 79 -200 000/00 RMK AO2
14837KMSN MSN20030620022009306/20/03 02:20:31  5-MIN KMSN 200820Z 00000KT 10SM CLR 06/03 A3019 610 82 -200 000/00 RMK AO2
14837KMSN MSN20030620022509306/20/03 02:25:31  5-MIN KMSN 200825Z 00000KT 10SM CLR 06/03 A3019 610 82 -200 000/00 RMK AO2
14837KMSN MSN20030620023009306/20/03 02:30:31  5-MIN KMSN 200830Z 00000KT 10SM CLR 06/03 A3019 620 82 -200 000/00 RMK AO2
14837KMSN MSN20030620023509306/20/03 02:35:31  5-MIN KMSN 200835Z 00000KT 10SM CLR 06/03 A3019 610 85 -300 000/00 RMK AO2
14837KMSN MSN20030620024009306/20/03 02:40:31  5-MIN KMSN 200840Z 00000KT 10SM CLR 05/03 A3019 610 89 -400 000/00 RMK AO2
14837KMSN MSN20030620024509306/20/03 02:45:31  5-MIN KMSN 200845Z 33003KT 10SM CLR 05/03 A3019 610 89 -400 320/03 RMK AO2
14837KMSN MSN20030620025011606/20/03 02:50:31  5-MIN KMSN 200850Z 34003KT 10SM CLR 05/03 A3019 610 89 -400 340/03 RMK AO2 SLP225 T00500033 53015
14837KMSN MSN20030620025509306/20/03 02:55:31  5-MIN KMSN 200855Z 00000KT 10SM CLR 05/03 A3019 610 89 -400 000/00 RMK AO2
14837KMSN MSN20030620030009306/20/03 03:00:31  5-MIN KMSN 200900Z 34003KT 10SM CLR 06/03 A3019 620 85 -300 340/03 RMK AO2
14837KMSN MSN20030620030509306/20/03 03:05:31  5-MIN KMSN 200905Z 35003KT 10SM CLR 06/03 A3019 620 85 -300 350/03 RMK AO2
14837KMSN MSN20030620031009306/20/03 03:10:31  5-MIN KMSN 200910Z 00000KT 10SM CLR 06/04 A3019 610 86 -200 000/00 RMK AO2
14837KMSN MSN20030620031509306/20/03 03:15:31  5-MIN KMSN 200915Z 00000KT 10SM CLR 06/03 A3019 610 85 -300 000/00 RMK AO2
14837KMSN MSN20030620032009306/20/03 03:20:31  5-MIN KMSN 200920Z 00000KT 10SM CLR 06/03 A3019 620 85 -300 000/00 RMK AO2
14837KMSN MSN20030620032509306/20/03 03:25:31  5-MIN KMSN 200925Z 34003KT 10SM CLR 05/03 A3019 620 89 -400 340/03 RMK AO2
14837KMSN MSN20030620033009306/20/03 03:30:31  5-MIN KMSN 200930Z 33003KT 10SM CLR 05/03 A3019 620 89 -400 330/03 RMK AO2
14837KMSN MSN20030620033509306/20/03 03:35:31  5-MIN KMSN 200935Z 00000KT 10SM CLR 05/03 A3019 620 89 -400 000/00 RMK AO2
14837KMSN MSN20030620034009306/20/03 03:40:31  5-MIN KMSN 200940Z 33004KT 10SM CLR 04/03 A3019 620 92 -400 330/04 RMK AO2
14837KMSN MSN20030620034509306/20/03 03:45:31  5-MIN KMSN 200945Z 00000KT 10SM CLR 05/03 A3019 620 89 -400 000/00 RMK AO2
14837KMSN MSN20030620035011006/20/03 03:50:31  5-MIN KMSN 200950Z 00000KT 10SM CLR 06/03 A3019 610 85 -300 000/00 RMK AO2 SLP225 T00560033
14837KMSN MSN20030620035509306/20/03 03:55:31  5-MIN KMSN 200955Z 00000KT 10SM CLR 05/03 A3019 610 89 -400 000/00 RMK AO2
14837KMSN MSN20030620040009306/20/03 04:00:31  5-MIN KMSN 201000Z 00000KT 10SM CLR 04/03 A3019 620 92 -400 000/00 RMK AO2
14837KMSN MSN20030620040509306/20/03 04:05:31  5-MIN KMSN 201005Z 00000KT 10SM CLR 04/03 A3019 620 92 -400 000/00 RMK AO2
14837KMSN MSN20030620041009306/20/03 04:10:31  5-MIN KMSN 201010Z 00000KT 10SM CLR 05/03 A3019 620 89 -400 000/00 RMK AO2
14837KMSN MSN20030620041509306/20/03 04:15:31  5-MIN KMSN 201015Z 00000KT 10SM CLR 04/03 A3019 620 92 -400 000/00 RMK AO2
14837KMSN MSN20030620042009306/20/03 04:20:31  5-MIN KMSN 201020Z 00000KT 10SM CLR 04/03 A3019 620 92 -400 000/00 RMK AO2
14837KMSN MSN20030620042509306/20/03 04:25:31  5-MIN KMSN 201025Z 00000KT 10SM CLR 04/03 A3019 620 92 -400 000/00 RMK AO2
14837KMSN MSN20030620043009306/20/03 04:30:31  5-MIN KMSN 201030Z 00000KT 10SM CLR 05/03 A3019 620 89 -400 000/00 RMK AO2
14837KMSN MSN20030620043509306/20/03 04:35:31  5-MIN KMSN 201035Z 00000KT 10SM CLR 05/03 A3019 620 89 -300 000/00 RMK AO2
14837KMSN MSN20030620044009306/20/03 04:40:31  5-MIN KMSN 201040Z 00000KT 10SM CLR 05/03 A3019 620 89 -300 000/00 RMK AO2
14837KMSN MSN20030620044509306/20/03 04:45:31  5-MIN KMSN 201045Z 00000KT 10SM CLR 05/03 A3019 620 89 -400 000/00 RMK AO2
14837KMSN MSN20030620045011006/20/03 04:50:31  5-MIN KMSN 201050Z 00000KT 10SM CLR 04/03 A3019 620 92 -400 000/00 RMK AO2 SLP224 T00440033
14837KMSN MSN20030620045509306/20/03 04:55:31  5-MIN KMSN 201055Z 00000KT 10SM CLR 04/03 A3019 620 92 -400 000/00 RMK AO2
14837KMSN MSN20030620050009306/20/03 05:00:31  5-MIN KMSN 201100Z 32003KT 10SM CLR 05/03 A3019 620 89 -400 320/03 RMK AO2
14837KMSN MSN20030620050509306/20/03 05:05:31  5-MIN KMSN 201105Z 00000KT 10SM CLR 05/03 A3019 610 89 -400 000/00 RMK AO2
14837KMSN MSN20030620051009306/20/03 05:10:31  5-MIN KMSN 201110Z 00000KT 10SM CLR 06/04 A3019 610 89 -300 000/00 RMK AO2
14837KMSN MSN20030620051509306/20/03 05:15:31  5-MIN KMSN 201115Z 00000KT 10SM CLR 06/04 A3020 610 89 -300 000/00 RMK AO2
14837KMSN MSN20030620052009306/20/03 05:20:31  5-MIN KMSN 201120Z 00000KT 10SM CLR 06/04 A3020 610 86 -200 000/00 RMK AO2
14837KMSN MSN20030620052509306/20/03 05:25:31  5-MIN KMSN 201125Z 00000KT 10SM CLR 07/04 A3020 600 82 -200 000/00 RMK AO2
14837KMSN MSN20030620053009306/20/03 05:30:31  5-MIN KMSN 201130Z 00000KT 10SM CLR 07/04 A3020 600 82 -100 000/00 RMK AO2
14837KMSN MSN20030620053509306/20/03 05:35:31  5-MIN KMSN 201135Z 00000KT 10SM CLR 07/04 A3020 600 82 -100 000/00 RMK AO2
14837KMSN MSN20030620054009006/20/03 05:40:31  5-MIN KMSN 201140Z 00000KT 10SM CLR 08/05 A3020 600 82 0 000/00 RMK AO2
14837KMSN MSN20030620054509006/20/03 05:45:31  5-MIN KMSN 201145Z 00000KT 10SM CLR 08/06 A3021 600 82 0 000/00 RMK AO2
14837KMSN MSN20030620055012506/20/03 05:50:31  5-MIN KMSN 201150Z 00000KT 10SM CLR 09/06 A3021 600 83 0 000/00 RMK AO2 SLP231 T00890061 10089 20044 51006
14837KMSN MSN20030620055509206/20/03 05:55:31  5-MIN KMSN 201155Z 00000KT 10SM CLR 10/06 A3021 590 77 200 000/00 RMK AO2
14837KMSN MSN20030620060009206/20/03 06:00:31  5-MIN KMSN 201200Z 00000KT 10SM CLR 10/06 A3022 590 77 200 000/00 RMK AO2
14837KMSN MSN20030620060509206/20/03 06:05:31  5-MIN KMSN 201205Z 00000KT 10SM CLR 11/05 A3022 590 68 200 000/00 RMK AO2
14837KMSN MSN20030620061009206/20/03 06:10:31  5-MIN KMSN 201210Z 00000KT 10SM CLR 11/06 A3022 590 68 300 000/00 RMK AO2
14837KMSN MSN20030620061509206/20/03 06:15:31  5-MIN KMSN 201215Z 36003KT 10SM CLR 12/06 A3022 590 66 400 360/03 RMK AO2
14837KMSN MSN20030620062009206/20/03 06:20:31  5-MIN KMSN 201220Z 36003KT 10SM CLR 12/06 A3022 590 63 400 360/03 RMK AO2
14837KMSN MSN20030620062509206/20/03 06:25:31  5-MIN KMSN 201225Z 35003KT 10SM CLR 12/06 A3022 580 63 400 350/03 RMK AO2
14837KMSN MSN20030620063009206/20/03 06:30:31  5-MIN KMSN 201230Z 00000KT 10SM CLR 13/06 A3022 580 61 500 000/00 RMK AO2
14837KMSN MSN20030620063509206/20/03 06:35:31  5-MIN KMSN 201235Z 36003KT 10SM CLR 13/06 A3023 580 63 500 360/03 RMK AO2
14837KMSN MSN20030620064009206/20/03 06:40:31  5-MIN KMSN 201240Z 01003KT 10SM CLR 13/06 A3023 580 59 600 010/03 RMK AO2
14837KMSN MSN20030620064509206/20/03 06:45:31  5-MIN KMSN 201245Z 01003KT 10SM CLR 13/06 A3023 580 61 600 010/03 RMK AO2
14837KMSN MSN20030620065010906/20/03 06:50:31  5-MIN KMSN 201250Z VRB04KT 10SM CLR 14/07 A3023 580 61 600 VRB/04 RMK AO2 SLP235 T01390067
14837KMSN MSN20030620065509206/20/03 06:55:31  5-MIN KMSN 201255Z 04004KT 10SM CLR 14/04 A3023 580 52 600 040/04 RMK AO2
14837KMSN MSN20030620070009206/20/03 07:00:31  5-MIN KMSN 201300Z 05004KT 10SM CLR 14/05 A3023 580 55 600 050/04 RMK AO2
14837KMSN MSN20030620070509206/20/03 07:05:31  5-MIN KMSN 201305Z 09007KT 10SM CLR 14/05 A3023 580 53 700 090/07 RMK AO2
14837KMSN MSN20030620071009206/20/03 07:10:31  5-MIN KMSN 201310Z 06006KT 10SM CLR 14/04 A3023 580 51 700 060/06 RMK AO2
14837KMSN MSN20030620071509206/20/03 07:15:31  5-MIN KMSN 201315Z 09006KT 10SM CLR 14/05 A3023 580 53 700 090/06 RMK AO2
14837KMSN MSN20030620072009206/20/03 07:20:31  5-MIN KMSN 201320Z 08007KT 10SM CLR 15/06 A3023 580 53 800 080/07 RMK AO2
14837KMSN MSN20030620072509206/20/03 07:25:31  5-MIN KMSN 201325Z 08007KT 10SM CLR 15/05 A3023 580 51 800 080/07 RMK AO2
14837KMSN MSN20030620073009206/20/03 07:30:31  5-MIN KMSN 201330Z 08006KT 10SM CLR 16/06 A3023 580 51 800 080/06 RMK AO2
14837KMSN MSN20030620073509206/20/03 07:35:31  5-MIN KMSN 201335Z 08006KT 10SM CLR 16/06 A3023 580 51 800 080/06 RMK AO2
14837KMSN MSN20030620074009206/20/03 07:40:31  5-MIN KMSN 201340Z 07006KT 10SM CLR 16/06 A3023 580 53 800 070/06 RMK AO2
14837KMSN MSN20030620074509206/20/03 07:45:31  5-MIN KMSN 201345Z 06006KT 10SM CLR 16/06 A3023 580 53 800 060/06 RMK AO2
14837KMSN MSN20030620075010906/20/03 07:50:31  5-MIN KMSN 201350Z 07005KT 10SM CLR 16/06 A3023 580 53 800 070/05 RMK AO2 SLP236 T01560061
14837KMSN MSN20030620075509206/20/03 07:55:31  5-MIN KMSN 201355Z 06004KT 10SM CLR 16/07 A3023 580 53 900 050/04 RMK AO2
14837KMSN MSN20030620080009206/20/03 08:00:31  5-MIN KMSN 201400Z 08004KT 10SM CLR 16/07 A3023 580 53 900 070/04 RMK AO2
14837KMSN MSN20030620080509206/20/03 08:05:31  5-MIN KMSN 201405Z 08004KT 10SM CLR 16/07 A3023 580 53 900 080/04 RMK AO2
14837KMSN MSN20030620081009306/20/03 08:10:31  5-MIN KMSN 201410Z 05006KT 10SM CLR 17/07 A3023 580 51 1000 050/06 RMK AO2
14837KMSN MSN20030620081509306/20/03 08:15:31  5-MIN KMSN 201415Z 09005KT 10SM CLR 17/07 A3023 580 53 1000 080/05 RMK AO2
14837KMSN MSN20030620082009306/20/03 08:20:31  5-MIN KMSN 201420Z VRB03KT 10SM CLR 17/07 A3022 580 53 1000 VRB/03 RMK AO2
14837KMSN MSN20030620082509306/20/03 08:25:31  5-MIN KMSN 201425Z 08004KT 10SM CLR 17/07 A3022 590 51 1000 080/04 RMK AO2
14837KMSN MSN20030620083009306/20/03 08:30:31  5-MIN KMSN 201430Z 11005KT 10SM CLR 18/08 A3022 590 51 1100 110/05 RMK AO2
14837KMSN MSN20030620083509306/20/03 08:35:31  5-MIN KMSN 201435Z 09006KT 10SM CLR 17/07 A3022 590 51 1000 090/06 RMK AO2
14837KMSN MSN20030620084009306/20/03 08:40:31  5-MIN KMSN 201440Z 13006KT 10SM CLR 18/07 A3022 590 49 1100 130/06 RMK AO2
14837KMSN MSN20030620084509306/20/03 08:45:31  5-MIN KMSN 201445Z 10006KT 10SM CLR 18/08 A3022 590 52 1200 100/06 RMK AO2
14837KMSN MSN20030620085011606/20/03 08:50:31  5-MIN KMSN 201450Z 14007KT 10SM CLR 18/08 A3021 590 52 1200 140/07 RMK AO2 SLP232 T01830083 53006
14837KMSN MSN20030620085509306/20/03 08:55:31  5-MIN KMSN 201455Z 12006KT 10SM CLR 18/08 A3022 590 50 1200 120/06 RMK AO2
14837KMSN MSN20030620090009306/20/03 09:00:31  5-MIN KMSN 201500Z VRB05KT 10SM CLR 18/08 A3021 590 52 1200 VRB/05 RMK AO2
14837KMSN MSN20030620090509306/20/03 09:05:31  5-MIN KMSN 201505Z 14007KT 10SM CLR 19/08 A3021 590 50 1200 140/07 RMK AO2
14837KMSN MSN20030620091009306/20/03 09:10:31  5-MIN KMSN 201510Z 13006KT 10SM CLR 19/09 A3022 590 52 1200 130/06 RMK AO2
14837KMSN MSN20030620091509306/20/03 09:15:31  5-MIN KMSN 201515Z VRB03KT 10SM CLR 18/08 A3021 590 50 1200 VRB/03 RMK AO2
14837KMSN MSN20030620092009306/20/03 09:20:31  5-MIN KMSN 201520Z 12005KT 10SM CLR 19/08 A3021 600 50 1200 120/05 RMK AO2
14837KMSN MSN20030620092509306/20/03 09:25:31  5-MIN KMSN 201525Z VRB04KT 10SM CLR 19/09 A3021 600 50 1300 VRB/04 RMK AO2
14837KMSN MSN20030620093009306/20/03 09:30:31  5-MIN KMSN 201530Z 10006KT 10SM CLR 19/09 A3021 600 50 1300 100/06 RMK AO2
14837KMSN MSN20030620093509306/20/03 09:35:31  5-MIN KMSN 201535Z 12004KT 10SM CLR 19/08 A3021 600 50 1200 120/04 RMK AO2
14837KMSN MSN20030620094009306/20/03 09:40:31  5-MIN KMSN 201540Z 11005KT 10SM CLR 19/09 A3021 600 50 1300 110/05 RMK AO2
14837KMSN MSN20030620094509306/20/03 09:45:31  5-MIN KMSN 201545Z 12006KT 10SM CLR 19/08 A3020 600 48 1300 120/06 RMK AO2
14837KMSN MSN20030620095011006/20/03 09:50:31  5-MIN KMSN 201550Z VRB05KT 10SM CLR 19/09 A3020 600 50 1300 VRB/05 RMK AO2 SLP228 T01940089
14837KMSN MSN20030620095509306/20/03 09:55:31  5-MIN KMSN 201555Z 11006KT 10SM CLR 20/09 A3020 600 48 1400 110/06 RMK AO2
14837KMSN MSN20030620100009306/20/03 10:00:31  5-MIN KMSN 201600Z 10007KT 10SM CLR 20/08 A3020 600 46 1400 100/07 RMK AO2
14837KMSN MSN20030620100509306/20/03 10:05:31  5-MIN KMSN 201605Z 16004KT 10SM CLR 20/08 A3020 600 46 1400 160/04 RMK AO2
14837KMSN MSN20030620101009306/20/03 10:10:31  5-MIN KMSN 201610Z 15006KT 10SM CLR 20/08 A3020 600 46 1400 150/06 RMK AO2
14837KMSN MSN20030620101509306/20/03 10:15:31  5-MIN KMSN 201615Z VRB03KT 10SM CLR 21/08 A3020 610 45 1400 VRB/03 RMK AO2
14837KMSN MSN20030620102009306/20/03 10:20:31  5-MIN KMSN 201620Z 13009KT 10SM CLR 21/08 A3020 610 43 1500 130/09 RMK AO2
14837KMSN MSN20030620102509306/20/03 10:25:31  5-MIN KMSN 201625Z 12005KT 10SM CLR 21/08 A3020 610 43 1400 120/05 RMK AO2
14837KMSN MSN20030620103009306/20/03 10:30:31  5-MIN KMSN 201630Z VRB05KT 10SM CLR 21/07 A3020 610 41 1400 VRB/05 RMK AO2
14837KMSN MSN20030620103509306/20/03 10:35:31  5-MIN KMSN 201635Z 10007KT 10SM CLR 21/07 A3020 610 40 1500 100/07 RMK AO2
14837KMSN MSN20030620104009306/20/03 10:40:31  5-MIN KMSN 201640Z 10007KT 10SM CLR 21/08 A3020 610 42 1500 100/07 RMK AO2
14837KMSN MSN20030620104509306/20/03 10:45:31  5-MIN KMSN 201645Z VRB04KT 10SM CLR 21/08 A3020 610 42 1500 VRB/04 RMK AO2
14837KMSN MSN20030620105011006/20/03 10:50:31  5-MIN KMSN 201650Z VRB05KT 10SM CLR 22/08 A3020 610 40 1600 VRB/05 RMK AO2 SLP224 T02170078
14837KMSN MSN20030620105509306/20/03 10:55:31  5-MIN KMSN 201655Z VRB06KT 10SM CLR 21/08 A3019 610 42 1500 VRB/06 RMK AO2
14837KMSN MSN20030620110009306/20/03 11:00:31  5-MIN KMSN 201700Z 10007KT 10SM CLR 22/08 A3019 620 40 1600 100/07 RMK AO2
14837KMSN MSN20030620110509306/20/03 11:05:31  5-MIN KMSN 201705Z 08005KT 10SM CLR 22/08 A3019 620 40 1600 080/05 RMK AO2
14837KMSN MSN20030620111009306/20/03 11:10:31  5-MIN KMSN 201710Z 13003KT 10SM CLR 22/08 A3019 620 40 1600 130/03 RMK AO2
14837KMSN MSN20030620111509306/20/03 11:15:31  5-MIN KMSN 201715Z VRB03KT 10SM CLR 22/07 A3019 620 39 1600 VRB/03 RMK AO2
14837KMSN MSN20030620112009306/20/03 11:20:31  5-MIN KMSN 201720Z 14005KT 10SM CLR 22/08 A3019 620 40 1600 140/05 RMK AO2
14837KMSN MSN20030620112509306/20/03 11:25:31  5-MIN KMSN 201725Z 16006KT 10SM CLR 22/07 A3019 620 39 1600 160/06 RMK AO2
14837KMSN MSN20030620113009306/20/03 11:30:31  5-MIN KMSN 201730Z 00000KT 10SM CLR 22/06 A3019 620 36 1600 000/00 RMK AO2
14837KMSN MSN20030620113509306/20/03 11:35:31  5-MIN KMSN 201735Z 00000KT 10SM CLR 22/07 A3019 620 36 1600 000/00 RMK AO2
14837KMSN MSN20030620114009306/20/03 11:40:31  5-MIN KMSN 201740Z 10004KT 10SM CLR 22/07 A3018 620 36 1600 100/04 RMK AO2
14837KMSN MSN20030620114509306/20/03 11:45:31  5-MIN KMSN 201745Z VRB03KT 10SM CLR 22/06 A3019 620 33 1600 VRB/03 RMK AO2
14837KMSN MSN20030620115012806/20/03 11:50:31  5-MIN KMSN 201750Z VRB03KT 10SM CLR 22/06 A3019 620 35 1600 VRB/03 RMK AO2 SLP222 T02220061 10228 20094 50001
14837KMSN MSN20030620115509306/20/03 11:55:31  5-MIN KMSN 201755Z VRB05KT 10SM CLR 22/08 A3018 620 40 1600 VRB/05 RMK AO2
14837KMSN MSN20030620120009306/20/03 12:00:31  5-MIN KMSN 201800Z 17008KT 10SM CLR 22/09 A3018 620 42 1600 170/08 RMK AO2
14837KMSN MSN20030620120509306/20/03 12:05:31  5-MIN KMSN 201805Z VRB04KT 10SM CLR 23/09 A3018 620 40 1700 VRB/04 RMK AO2
14837KMSN MSN20030620121009306/20/03 12:10:31  5-MIN KMSN 201810Z VRB04KT 10SM CLR 22/08 A3018 620 40 1600 VRB/04 RMK AO2
14837KMSN MSN20030620121509306/20/03 12:15:31  5-MIN KMSN 201815Z VRB04KT 10SM CLR 23/09 A3018 630 40 1700 VRB/04 RMK AO2
14837KMSN MSN20030620122009306/20/03 12:20:31  5-MIN KMSN 201820Z 17008KT 10SM CLR 23/09 A3018 630 40 1700 170/08 RMK AO2
14837KMSN MSN20030620122509306/20/03 12:25:31  5-MIN KMSN 201825Z 20007KT 10SM CLR 23/08 A3017 630 37 1700 200/07 RMK AO2
14837KMSN MSN20030620123009306/20/03 12:30:31  5-MIN KMSN 201830Z VRB05KT 10SM CLR 23/08 A3017 630 39 1700 VRB/05 RMK AO2
14837KMSN MSN20030620123509306/20/03 12:35:31  5-MIN KMSN 201835Z 23005KT 10SM CLR 23/08 A3017 630 39 1700 220/05 RMK AO2
14837KMSN MSN20030620124009306/20/03 12:40:31  5-MIN KMSN 201840Z 15005KT 10SM CLR 23/09 A3017 640 39 1800 150/05 RMK AO2
14837KMSN MSN20030620124509306/20/03 12:45:31  5-MIN KMSN 201845Z VRB06KT 10SM CLR 23/08 A3017 640 37 1700 VRB/06 RMK AO2
14837KMSN MSN20030620125011006/20/03 12:50:31  5-MIN KMSN 201850Z 16006KT 10SM CLR 23/08 A3016 640 39 1700 160/06 RMK AO2 SLP214 T02280083
14837KMSN MSN20030620125509306/20/03 12:55:31  5-MIN KMSN 201855Z 20004KT 10SM CLR 23/08 A3016 640 37 1700 200/04 RMK AO2
14837KMSN MSN20030620130009306/20/03 13:00:31  5-MIN KMSN 201900Z VRB06KT 10SM CLR 23/08 A3016 650 37 1700 VRB/06 RMK AO2
14837KMSN MSN20030620130509306/20/03 13:05:31  5-MIN KMSN 201905Z VRB05KT 10SM CLR 23/07 A3016 650 36 1700 VRB/05 RMK AO2
14837KMSN MSN20030620131009306/20/03 13:10:31  5-MIN KMSN 201910Z 18006KT 10SM CLR 23/08 A3016 650 38 1800 180/06 RMK AO2
14837KMSN MSN20030620131510906/20/03 13:15:31  5-MIN KMSN 201915Z 18007KT 150V250 10SM CLR 23/08 A3015 650 36 1800 180/07 150V250 RMK AO2
14837KMSN MSN20030620132009306/20/03 13:20:31  5-MIN KMSN 201920Z VRB05KT 10SM CLR 23/08 A3015 650 37 1700 VRB/05 RMK AO2
14837KMSN MSN20030620132509306/20/03 13:25:31  5-MIN KMSN 201925Z VRB03KT 10SM CLR 23/08 A3015 650 36 1800 VRB/03 RMK AO2
14837KMSN MSN20030620133009306/20/03 13:30:31  5-MIN KMSN 201930Z 26004KT 10SM CLR 23/07 A3015 660 35 1800 260/04 RMK AO2
14837KMSN MSN20030620133510906/20/03 13:35:31  5-MIN KMSN 201935Z 18007KT 160V250 10SM CLR 24/08 A3015 660 35 1900 180/07 160V250 RMK AO2
14837KMSN MSN20030620134009306/20/03 13:40:31  5-MIN KMSN 201940Z VRB04KT 10SM CLR 23/07 A3014 660 35 1800 VRB/04 RMK AO2
14837KMSN MSN20030620134510906/20/03 13:45:31  5-MIN KMSN 201945Z 16007KT 110V200 10SM CLR 24/08 A3014 660 35 1900 160/07 110V200 RMK AO2
14837KMSN MSN20030620135011006/20/03 13:50:31  5-MIN KMSN 201950Z 12005KT 10SM CLR 24/08 A3014 660 36 1900 120/05 RMK AO2 SLP208 T02390083
14837KMSN MSN20030620135509306/20/03 13:55:31  5-MIN KMSN 201955Z 18007KT 10SM CLR 24/08 A3014 660 35 1900 180/07 RMK AO2
14837KMSN MSN20030620140009306/20/03 14:00:31  5-MIN KMSN 202000Z VRB04KT 10SM CLR 24/07 A3014 660 34 1900 VRB/04 RMK AO2
14837KMSN MSN20030620140509306/20/03 14:05:31  5-MIN KMSN 202005Z 18006KT 10SM CLR 24/08 A3014 660 35 1900 180/06 RMK AO2
14837KMSN MSN20030620141009306/20/03 14:10:31  5-MIN KMSN 202010Z VRB06KT 10SM CLR 24/07 A3014 660 34 1900 VRB/06 RMK AO2
14837KMSN MSN20030620141509306/20/03 14:15:31  5-MIN KMSN 202015Z 16009KT 10SM CLR 24/07 A3014 670 34 1900 160/09 RMK AO2
14837KMSN MSN20030620142009306/20/03 14:20:31  5-MIN KMSN 202020Z 14008KT 10SM CLR 24/08 A3014 670 35 1900 130/08 RMK AO2
14837KMSN MSN20030620142509306/20/03 14:25:31  5-MIN KMSN 202025Z 14007KT 10SM CLR 24/08 A3014 660 35 1900 140/07 RMK AO2
14837KMSN MSN20030620143010906/20/03 14:30:31  5-MIN KMSN 202030Z 18007KT 140V230 10SM CLR 24/08 A3014 670 34 2000 180/07 140V230 RMK AO2
14837KMSN MSN20030620143509306/20/03 14:35:31  5-MIN KMSN 202035Z 00000KT 10SM CLR 24/07 A3013 670 32 1900 000/00 RMK AO2
14837KMSN MSN20030620144009306/20/03 14:40:31  5-MIN KMSN 202040Z 17009KT 10SM CLR 24/07 A3013 670 31 2000 170/09 RMK AO2
14837KMSN MSN20030620144509306/20/03 14:45:31  5-MIN KMSN 202045Z 19008KT 10SM CLR 24/07 A3013 670 32 1900 190/08 RMK AO2
14837KMSN MSN20030620145011606/20/03 14:50:31  5-MIN KMSN 202050Z VRB05KT 10SM CLR 24/06 A3013 670 31 1900 VRB/05 RMK AO2 SLP204 T02390061 56009
14837KMSN MSN20030620145509306/20/03 14:55:31  5-MIN KMSN 202055Z 17008KT 10SM CLR 24/07 A3013 670 31 2000 170/08 RMK AO2
14837KMSN MSN20030620150009306/20/03 15:00:31  5-MIN KMSN 202100Z VRB04KT 10SM CLR 24/06 A3013 670 31 1900 VRB/04 RMK AO2
14837KMSN MSN20030620150509306/20/03 15:05:31  5-MIN KMSN 202105Z 18006KT 10SM CLR 24/06 A3013 670 30 2000 170/06 RMK AO2
14837KMSN MSN20030620151009306/20/03 15:10:31  5-MIN KMSN 202110Z 00000KT 10SM CLR 24/06 A3013 670 30 2000 000/00 RMK AO2
14837KMSN MSN20030620151509306/20/03 15:15:31  5-MIN KMSN 202115Z VRB04KT 10SM CLR 24/06 A3013 670 30 2000 VRB/04 RMK AO2
14837KMSN MSN20030620152009306/20/03 15:20:31  5-MIN KMSN 202120Z VRB06KT 10SM CLR 24/06 A3012 680 30 2000 VRB/06 RMK AO2
14837KMSN MSN20030620152509306/20/03 15:25:31  5-MIN KMSN 202125Z 16006KT 10SM CLR 24/06 A3012 680 29 2000 160/06 RMK AO2
14837KMSN MSN20030620153009306/20/03 15:30:31  5-MIN KMSN 202130Z VRB05KT 10SM CLR 24/06 A3012 680 29 2000 VRB/05 RMK AO2
14837KMSN MSN20030620153509306/20/03 15:35:31  5-MIN KMSN 202135Z 17008KT 10SM CLR 24/06 A3012 680 30 2000 170/08 RMK AO2
14837KMSN MSN20030620154009306/20/03 15:40:31  5-MIN KMSN 202140Z VRB04KT 10SM CLR 24/06 A3012 680 29 2000 VRB/04 RMK AO2
14837KMSN MSN20030620154509306/20/03 15:45:31  5-MIN KMSN 202145Z VRB05KT 10SM CLR 24/06 A3012 680 29 2000 VRB/05 RMK AO2
14837KMSN MSN20030620155011006/20/03 15:50:31  5-MIN KMSN 202150Z 20005KT 10SM CLR 24/06 A3012 680 30 2000 200/05 RMK AO2 SLP199 T02440061
14837KMSN MSN20030620155509306/20/03 15:55:31  5-MIN KMSN 202155Z 28003KT 10SM CLR 24/06 A3012 680 29 2000 280/03 RMK AO2
14837KMSN MSN20030620160009306/20/03 16:00:31  5-MIN KMSN 202200Z 32003KT 10SM CLR 25/06 A3012 680 28 2000 320/03 RMK AO2
14837KMSN MSN20030620160509306/20/03 16:05:31  5-MIN KMSN 202205Z VRB04KT 10SM CLR 25/06 A3012 680 29 2000 VRB/04 RMK AO2
14837KMSN MSN20030620161009306/20/03 16:10:31  5-MIN KMSN 202210Z 15004KT 10SM CLR 24/06 A3011 690 30 2000 150/04 RMK AO2
14837KMSN MSN20030620161509306/20/03 16:15:31  5-MIN KMSN 202215Z VRB05KT 10SM CLR 24/06 A3011 690 29 2000 VRB/05 RMK AO2
14837KMSN MSN20030620162009306/20/03 16:20:31  5-MIN KMSN 202220Z VRB03KT 10SM CLR 24/06 A3011 690 30 1900 VRB/03 RMK AO2
14837KMSN MSN20030620162509306/20/03 16:25:31  5-MIN KMSN 202225Z VRB04KT 10SM CLR 24/05 A3011 690 28 2000 VRB/04 RMK AO2
14837KMSN MSN20030620163009306/20/03 16:30:31  5-MIN KMSN 202230Z 25004KT 10SM CLR 24/06 A3011 690 29 2000 250/04 RMK AO2
14837KMSN MSN20030620163509306/20/03 16:35:31  5-MIN KMSN 202235Z 26003KT 10SM CLR 24/06 A3010 700 30 2000 260/03 RMK AO2
14837KMSN MSN20030620164009306/20/03 16:40:31  5-MIN KMSN 202240Z VRB05KT 10SM CLR 24/08 A3010 700 34 2000 VRB/05 RMK AO2
14837KMSN MSN20030620164509306/20/03 16:45:31  5-MIN KMSN 202245Z 00000KT 10SM CLR 24/07 A3010 700 31 2000 000/00 RMK AO2
14837KMSN MSN20030620165011006/20/03 16:50:31  5-MIN KMSN 202250Z 00000KT 10SM CLR 24/07 A3010 700 31 2000 000/00 RMK AO2 SLP192 T02440067
14837KMSN MSN20030620165509306/20/03 16:55:31  5-MIN KMSN 202255Z 13004KT 10SM CLR 24/07 A3009 700 31 2000 130/04 RMK AO2
14837KMSN MSN20030620170009306/20/03 17:00:31  5-MIN KMSN 202300Z VRB03KT 10SM CLR 24/08 A3009 700 35 1900 VRB/03 RMK AO2
14837KMSN MSN20030620170509306/20/03 17:05:31  5-MIN KMSN 202305Z 23003KT 10SM CLR 24/07 A3009 710 31 2000 230/03 RMK AO2
14837KMSN MSN20030620171009306/20/03 17:10:31  5-MIN KMSN 202310Z 30003KT 10SM CLR 24/07 A3009 710 31 2000 300/03 RMK AO2
14837KMSN MSN20030620171509306/20/03 17:15:31  5-MIN KMSN 202315Z 00000KT 10SM CLR 24/07 A3009 710 31 2000 000/00 RMK AO2
14837KMSN MSN20030620172009306/20/03 17:20:31  5-MIN KMSN 202320Z 00000KT 10SM CLR 25/07 A3009 710 30 2100 000/00 RMK AO2
14837KMSN MSN20030620172509306/20/03 17:25:31  5-MIN KMSN 202325Z 00000KT 10SM CLR 25/08 A3009 710 33 2100 000/00 RMK AO2
14837KMSN MSN20030620173009306/20/03 17:30:31  5-MIN KMSN 202330Z VRB03KT 10SM CLR 25/08 A3009 710 33 2100 VRB/03 RMK AO2
14837KMSN MSN20030620173509306/20/03 17:35:31  5-MIN KMSN 202335Z 00000KT 10SM CLR 24/07 A3009 710 33 2000 000/00 RMK AO2
14837KMSN MSN20030620174009306/20/03 17:40:31  5-MIN KMSN 202340Z 36003KT 10SM CLR 24/07 A3009 710 33 2000 360/03 RMK AO2
14837KMSN MSN20030620174509306/20/03 17:45:31  5-MIN KMSN 202345Z 00000KT 10SM CLR 24/07 A3009 710 33 2000 000/00 RMK AO2
14837KMSN MSN20030620175012806/20/03 17:50:31  5-MIN KMSN 202350Z 00000KT 10SM CLR 24/08 A3009 710 34 2000 000/00 RMK AO2 SLP187 T02440078 10250 20222 56018
14837KMSN MSN20030620175509306/20/03 17:55:31  5-MIN KMSN 202355Z 30004KT 10SM CLR 24/08 A3008 710 35 2000 300/04 RMK AO2
14837KMSN MSN20030620180009306/20/03 18:00:31  5-MIN KMSN 210000Z 00000KT 10SM CLR 24/07 A3008 710 32 1900 000/00 RMK AO2
14837KMSN MSN20030620180509306/20/03 18:05:31  5-MIN KMSN 210005Z 34003KT 10SM CLR 24/09 A3008 710 36 2000 340/03 RMK AO2
14837KMSN MSN20030620181009306/20/03 18:10:31  5-MIN KMSN 210010Z 00000KT 10SM CLR 24/09 A3008 720 38 1900 000/00 RMK AO2
14837KMSN MSN20030620181509306/20/03 18:15:31  5-MIN KMSN 210015Z 00000KT 10SM CLR 24/09 A3008 710 39 1900 000/00 RMK AO2
14837KMSN MSN20030620182009306/20/03 18:20:31  5-MIN KMSN 210020Z 00000KT 10SM CLR 23/10 A3008 720 42 1900 000/00 RMK AO2
14837KMSN MSN20030620182509306/20/03 18:25:31  5-MIN KMSN 210025Z 00000KT 10SM CLR 23/10 A3008 720 44 1800 000/00 RMK AO2
14837KMSN MSN20030620183009306/20/03 18:30:31  5-MIN KMSN 210030Z 00000KT 10SM CLR 23/12 A3008 720 49 1800 000/00 RMK AO2
14837KMSN MSN20030620183509306/20/03 18:35:31  5-MIN KMSN 210035Z 00000KT 10SM CLR 22/12 A3008 720 51 1800 000/00 RMK AO2
14837KMSN MSN20030620184009306/20/03 18:40:31  5-MIN KMSN 210040Z 00000KT 10SM CLR 22/11 A3008 720 49 1700 000/00 RMK AO2
14837KMSN MSN20030620184509306/20/03 18:45:31  5-MIN KMSN 210045Z 00000KT 10SM CLR 22/09 A3008 720 42 1800 000/00 RMK AO2
14837KMSN MSN20030620185011006/20/03 18:50:31  5-MIN KMSN 210050Z 00000KT 10SM CLR 22/08 A3007 720 40 1800 000/00 RMK AO2 SLP182 T02220083
14837KMSN MSN20030620185509306/20/03 18:55:31  5-MIN KMSN 210055Z 00000KT 10SM CLR 22/09 A3007 720 43 1700 000/00 RMK AO2
14837KMSN MSN20030620190009306/20/03 19:00:31  5-MIN KMSN 210100Z 00000KT 10SM CLR 20/09 A3008 720 50 1500 000/00 RMK AO2
14837KMSN MSN20030620190509306/20/03 19:05:31  5-MIN KMSN 210105Z 00000KT 10SM CLR 19/09 A3007 720 52 1400 000/00 RMK AO2
14837KMSN MSN20030620191009306/20/03 19:10:31  5-MIN KMSN 210110Z 00000KT 10SM CLR 19/09 A3007 720 52 1500 000/00 RMK AO2
14837KMSN MSN20030620191509306/20/03 19:15:31  5-MIN KMSN 210115Z 00000KT 10SM CLR 19/09 A3007 720 54 1400 000/00 RMK AO2
14837KMSN MSN20030620192009306/20/03 19:20:31  5-MIN KMSN 210120Z 00000KT 10SM CLR 19/09 A3007 720 50 1400 000/00 RMK AO2
14837KMSN MSN20030620192509306/20/03 19:25:31  5-MIN KMSN 210125Z 00000KT 10SM CLR 20/09 A3007 720 48 1500 000/00 RMK AO2
14837KMSN MSN20030620193009306/20/03 19:30:31  5-MIN KMSN 210130Z 00000KT 10SM CLR 18/09 A3007 720 54 1300 000/00 RMK AO2
14837KMSN MSN20030620193509306/20/03 19:35:31  5-MIN KMSN 210135Z 00000KT 10SM CLR 18/09 A3007 730 58 1300 000/00 RMK AO2
14837KMSN MSN20030620194009306/20/03 19:40:31  5-MIN KMSN 210140Z 00000KT 10SM CLR 17/10 A3007 720 62 1200 000/00 RMK AO2
14837KMSN MSN20030620194509306/20/03 19:45:31  5-MIN KMSN 210145Z 00000KT 10SM CLR 17/09 A3007 720 60 1200 000/00 RMK AO2
14837KMSN MSN20030620195011006/20/03 19:50:31  5-MIN KMSN 210150Z 00000KT 10SM CLR 18/09 A3007 720 55 1300 000/00 RMK AO2 SLP182 T01780089
14837KMSN MSN20030620195509306/20/03 19:55:31  5-MIN KMSN 210155Z 00000KT 10SM CLR 17/10 A3007 730 64 1100 000/00 RMK AO2
14837KMSN MSN20030620200009306/20/03 20:00:31  5-MIN KMSN 210200Z 00000KT 10SM CLR 17/09 A3007 730 60 1200 000/00 RMK AO2
14837KMSN MSN20030620200509306/20/03 20:05:31  5-MIN KMSN 210205Z 00000KT 10SM CLR 17/09 A3007 720 62 1100 000/00 RMK AO2
14837KMSN MSN20030620201009306/20/03 20:10:31  5-MIN KMSN 210210Z 00000KT 10SM CLR 17/09 A3007 720 62 1100 000/00 RMK AO2
14837KMSN MSN20030620201509306/20/03 20:15:31  5-MIN KMSN 210215Z 00000KT 10SM CLR 17/08 A3007 720 55 1200 000/00 RMK AO2
14837KMSN MSN20030620202009306/20/03 20:20:31  5-MIN KMSN 210220Z 00000KT 10SM CLR 17/09 A3008 720 60 1100 000/00 RMK AO2
14837KMSN MSN20030620202509306/20/03 20:25:31  5-MIN KMSN 210225Z 00000KT 10SM CLR 16/09 A3008 720 64 1000 000/00 RMK AO2
14837KMSN MSN20030620203009306/20/03 20:30:31  5-MIN KMSN 210230Z 00000KT 10SM CLR 17/08 A3008 720 57 1100 000/00 RMK AO2
14837KMSN MSN20030620203509306/20/03 20:35:31  5-MIN KMSN 210235Z 00000KT 10SM CLR 16/09 A3008 720 64 1000 000/00 RMK AO2
14837KMSN MSN20030620204009306/20/03 20:40:31  5-MIN KMSN 210240Z 00000KT 10SM CLR 16/08 A3008 720 62 1000 000/00 RMK AO2
14837KMSN MSN20030620204509306/20/03 20:45:31  5-MIN KMSN 210245Z 00000KT 10SM CLR 16/09 A3008 720 64 1000 000/00 RMK AO2
14837KMSN MSN20030620205011506/20/03 20:50:31  5-MIN KMSN 210250Z 00000KT 10SM CLR 15/09 A3008 720 66 900 000/00 RMK AO2 SLP185 T01500089 56015
14837KMSN MSN20030620205509206/20/03 20:55:31  5-MIN KMSN 210255Z 00000KT 10SM CLR 15/08 A3008 720 64 900 000/00 RMK AO2
14837KMSN MSN20030620210009206/20/03 21:00:31  5-MIN KMSN 210300Z 00000KT 10SM CLR 15/08 A3008 720 64 900 000/00 RMK AO2
14837KMSN MSN20030620210509306/20/03 21:05:31  5-MIN KMSN 210305Z 00000KT 10SM CLR 16/08 A3008 720 59 1000 000/00 RMK AO2
14837KMSN MSN20030620211009206/20/03 21:10:31  5-MIN KMSN 210310Z 00000KT 10SM CLR 15/08 A3008 710 64 900 000/00 RMK AO2
14837KMSN MSN20030620211509206/20/03 21:15:31  5-MIN KMSN 210315Z 00000KT 10SM CLR 14/09 A3008 710 71 800 000/00 RMK AO2
14837KMSN MSN20030620212009206/20/03 21:20:31  5-MIN KMSN 210320Z 00000KT 10SM CLR 13/09 A3008 720 74 700 000/00 RMK AO2
14837KMSN MSN20030620212509206/20/03 21:25:31  5-MIN KMSN 210325Z 00000KT 10SM CLR 14/09 A3008 720 74 800 000/00 RMK AO2
14837KMSN MSN20030620213009206/20/03 21:30:31  5-MIN KMSN 210330Z 00000KT 10SM CLR 14/09 A3008 720 71 800 000/00 RMK AO2
14837KMSN MSN20030620213509206/20/03 21:35:31  5-MIN KMSN 210335Z 00000KT 10SM CLR 14/09 A3008 710 71 800 000/00 RMK AO2
14837KMSN MSN20030620214009206/20/03 21:40:31  5-MIN KMSN 210340Z 00000KT 10SM CLR 14/08 A3008 710 69 800 000/00 RMK AO2
14837KMSN MSN20030620214509206/20/03 21:45:31  5-MIN KMSN 210345Z 00000KT 10SM CLR 14/09 A3008 720 71 800 000/00 RMK AO2
14837KMSN MSN20030620215010906/20/03 21:50:31  5-MIN KMSN 210350Z 00000KT 10SM CLR 13/09 A3008 710 77 700 000/00 RMK AO2 SLP186 T01280089
14837KMSN MSN20030620215509206/20/03 21:55:31  5-MIN KMSN 210355Z 02006KT 10SM CLR 13/08 A3009 710 74 700 020/06 RMK AO2
14837KMSN MSN20030620220009206/20/03 22:00:31  5-MIN KMSN 210400Z 08005KT 10SM CLR 12/09 A3009 710 80 600 080/05 RMK AO2
14837KMSN MSN20030620220509206/20/03 22:05:31  5-MIN KMSN 210405Z 00000KT 10SM CLR 12/09 A3009 710 80 600 000/00 RMK AO2
14837KMSN MSN20030620221009206/20/03 22:10:31  5-MIN KMSN 210410Z 00000KT 10SM CLR 14/08 A3009 710 69 800 000/00 RMK AO2
14837KMSN MSN20030620221509206/20/03 22:15:31  5-MIN KMSN 210415Z 00000KT 10SM CLR 14/08 A3009 710 66 800 000/00 RMK AO2
14837KMSN MSN20030620222009206/20/03 22:20:31  5-MIN KMSN 210420Z 00000KT 10SM CLR 13/09 A3009 710 74 700 000/00 RMK AO2
14837KMSN MSN20030620222509206/20/03 22:25:31  5-MIN KMSN 210425Z 00000KT 10SM CLR 15/08 A3009 710 64 900 000/00 RMK AO2
14837KMSN MSN20030620223009206/20/03 22:30:31  5-MIN KMSN 210430Z 13003KT 10SM CLR 15/08 A3009 710 62 900 130/03 RMK AO2
14837KMSN MSN20030620223509206/20/03 22:35:31  5-MIN KMSN 210435Z 00000KT 10SM CLR 13/08 A3008 710 71 700 000/00 RMK AO2
14837KMSN MSN20030620224009206/20/03 22:40:31  5-MIN KMSN 210440Z 00000KT 10SM CLR 14/08 A3009 710 66 800 000/00 RMK AO2
14837KMSN MSN20030620224509206/20/03 22:45:31  5-MIN KMSN 210445Z 00000KT 10SM CLR 14/08 A3009 710 64 900 000/00 RMK AO2
14837KMSN MSN20030620225011006/20/03 22:50:31  5-MIN KMSN 210450Z 14003KT 10SM CLR 16/08 A3009 710 59 1000 140/03 RMK AO2 SLP186 T01560078
14837KMSN MSN20030620225509306/20/03 22:55:31  5-MIN KMSN 210455Z 16003KT 10SM CLR 16/08 A3009 710 59 1000 150/03 RMK AO2
14837KMSN MSN20030620230009206/20/03 23:00:31  5-MIN KMSN 210500Z VRB03KT 10SM CLR 14/08 A3008 710 64 900 VRB/03 RMK AO2
14837KMSN MSN20030620230509206/20/03 23:05:31  5-MIN KMSN 210505Z 17005KT 10SM CLR 14/08 A3008 720 64 900 160/05 RMK AO2
14837KMSN MSN20030620231009206/20/03 23:10:31  5-MIN KMSN 210510Z 17004KT 10SM CLR 15/08 A3008 720 62 900 170/04 RMK AO2
14837KMSN MSN20030620231509306/20/03 23:15:31  5-MIN KMSN 210515Z 17004KT 10SM CLR 16/08 A3008 710 62 1000 160/04 RMK AO2
14837KMSN MSN20030620232009306/20/03 23:20:31  5-MIN KMSN 210520Z 16005KT 10SM CLR 16/08 A3008 710 59 1100 160/05 RMK AO2
14837KMSN MSN20030620232509306/20/03 23:25:31  5-MIN KMSN 210525Z 17004KT 10SM CLR 16/08 A3008 720 62 1000 170/04 RMK AO2
14837KMSN MSN20030620233009306/20/03 23:30:31  5-MIN KMSN 210530Z 17005KT 10SM CLR 16/08 A3008 720 59 1100 170/05 RMK AO2
14837KMSN MSN20030620233509306/20/03 23:35:31  5-MIN KMSN 210535Z 17005KT 10SM CLR 16/08 A3008 720 59 1100 170/05 RMK AO2
14837KMSN MSN20030620234009306/20/03 23:40:31  5-MIN KMSN 210540Z 17004KT 10SM CLR 16/08 A3008 720 59 1100 170/04 RMK AO2
14837KMSN MSN20030620234509306/20/03 23:45:31  5-MIN KMSN 210545Z 17003KT 10SM CLR 16/08 A3008 720 62 1000 160/03 RMK AO2
14837KMSN MSN20030620235013706/20/03 23:50:31  5-MIN KMSN 210550Z 00000KT 10SM CLR 14/08 A3008 720 66 900 000/00 RMK AO2 SLP184 T01440083 10244 20117 402500044 55001
14837KMSN MSN20030620235509206/20/03 23:55:31  5-MIN KMSN 210555Z 00000KT 10SM CLR 13/08 A3008 720 71 700 000/00 RMK AO2
14837KMSN MSN20030621000009206/21/03 00:00:31  5-MIN KMSN 210600Z 00000KT 10SM CLR 12/08 A3008 720 77 600 000/00 RMK AO2
14837KMSN MSN20030621000509206/21/03 00:05:31  5-MIN KMSN 210605Z 00000KT 10SM CLR 13/08 A3007 720 74 700 000/00 RMK AO2
14837KMSN MSN20030621001009206/21/03 00:10:31  5-MIN KMSN 210610Z 00000KT 10SM CLR 13/08 A3007 730 74 700 000/00 RMK AO2
14837KMSN MSN20030621001509206/21/03 00:15:31  5-MIN KMSN 210615Z 00000KT 10SM CLR 13/09 A3007 720 74 700 000/00 RMK AO2
14837KMSN MSN20030621002009206/21/03 00:20:31  5-MIN KMSN 210620Z 00000KT 10SM CLR 12/08 A3007 720 74 600 000/00 RMK AO2
14837KMSN MSN20030621002509206/21/03 00:25:31  5-MIN KMSN 210625Z 00000KT 10SM CLR 12/08 A3007 730 77 600 000/00 RMK AO2
14837KMSN MSN20030621003009206/21/03 00:30:31  5-MIN KMSN 210630Z 00000KT 10SM CLR 12/08 A3007 730 80 500 000/00 RMK AO2
14837KMSN MSN20030621003509206/21/03 00:35:31  5-MIN KMSN 210635Z 00000KT 10SM CLR 11/08 A3007 720 86 400 000/00 RMK AO2
14837KMSN MSN20030621004009206/21/03 00:40:31  5-MIN KMSN 210640Z 00000KT 10SM CLR 11/08 A3007 720 86 400 000/00 RMK AO2
14837KMSN MSN20030621004509206/21/03 00:45:31  5-MIN KMSN 210645Z 00000KT 10SM CLR 11/08 A3007 730 83 500 000/00 RMK AO2
14837KMSN MSN20030621005010906/21/03 00:50:31  5-MIN KMSN 210650Z 00000KT 10SM CLR 11/08 A3006 730 83 500 000/00 RMK AO2 SLP179 T01110083
14837KMSN MSN20030621005509206/21/03 00:55:31  5-MIN KMSN 210655Z 00000KT 10SM CLR 12/08 A3006 730 80 500 000/00 RMK AO2
14837KMSN MSN20030621010009206/21/03 01:00:31  5-MIN KMSN 210700Z 00000KT 10SM CLR 12/08 A3006 730 80 500 000/00 RMK AO2
14837KMSN MSN20030621010509206/21/03 01:05:31  5-MIN KMSN 210705Z 00000KT 10SM CLR 12/08 A3007 730 77 600 000/00 RMK AO2
14837KMSN MSN20030621011009206/21/03 01:10:31  5-MIN KMSN 210710Z 00000KT 10SM CLR 12/08 A3007 730 80 500 000/00 RMK AO2
14837KMSN MSN20030621011509206/21/03 01:15:31  5-MIN KMSN 210715Z 00000KT 10SM CLR 12/08 A3007 720 77 600 000/00 RMK AO2
14837KMSN MSN20030621012009206/21/03 01:20:31  5-MIN KMSN 210720Z 00000KT 10SM CLR 12/08 A3008 720 80 500 000/00 RMK AO2
14837KMSN MSN20030621012509206/21/03 01:25:31  5-MIN KMSN 210725Z 00000KT 10SM CLR 12/09 A3008 720 83 500 000/00 RMK AO2
14837KMSN MSN20030621013009206/21/03 01:30:31  5-MIN KMSN 210730Z 00000KT 10SM CLR 12/08 A3007 720 80 500 000/00 RMK AO2
14837KMSN MSN20030621013509206/21/03 01:35:31  5-MIN KMSN 210735Z 00000KT 10SM CLR 12/08 A3008 720 77 500 000/00 RMK AO2
14837KMSN MSN20030621014009206/21/03 01:40:31  5-MIN KMSN 210740Z 00000KT 10SM CLR 12/08 A3008 720 80 500 000/00 RMK AO2
14837KMSN MSN20030621014509206/21/03 01:45:31  5-MIN KMSN 210745Z 00000KT 10SM CLR 12/08 A3008 720 80 500 000/00 RMK AO2
14837KMSN MSN20030621015010906/21/03 01:50:31  5-MIN KMSN 210750Z 00000KT 10SM CLR 11/08 A3008 720 83 500 000/00 RMK AO2 SLP183 T01110083
14837KMSN MSN20030621015509206/21/03 01:55:31  5-MIN KMSN 210755Z 00000KT 10SM CLR 11/08 A3008 720 83 500 000/00 RMK AO2
14837KMSN MSN20030621020009206/21/03 02:00:31  5-MIN KMSN 210800Z 00000KT 10SM CLR 11/08 A3008 720 86 400 000/00 RMK AO2
14837KMSN MSN20030621020509206/21/03 02:05:31  5-MIN KMSN 210805Z 00000KT 10SM CLR 11/08 A3008 720 86 400 000/00 RMK AO2
14837KMSN MSN20030621021009206/21/03 02:10:31  5-MIN KMSN 210810Z 00000KT 10SM CLR 09/08 A3008 720 89 300 000/00 RMK AO2
14837KMSN MSN20030621021509206/21/03 02:15:31  5-MIN KMSN 210815Z 27003KT 10SM CLR 09/08 A3008 710 89 300 270/03 RMK AO2
14837KMSN MSN20030621022009206/21/03 02:20:31  5-MIN KMSN 210820Z 00000KT 10SM CLR 09/08 A3008 720 89 300 000/00 RMK AO2
14837KMSN MSN20030621022509206/21/03 02:25:31  5-MIN KMSN 210825Z 00000KT 10SM CLR 10/08 A3008 710 89 300 000/00 RMK AO2
14837KMSN MSN20030621023009206/21/03 02:30:31  5-MIN KMSN 210830Z 00000KT 10SM CLR 09/07 A3008 710 86 300 000/00 RMK AO2
14837KMSN MSN20030621023509206/21/03 02:35:31  5-MIN KMSN 210835Z 00000KT 10SM CLR 09/08 A3009 710 89 300 000/00 RMK AO2
14837KMSN MSN20030621024009206/21/03 02:40:31  5-MIN KMSN 210840Z 00000KT 10SM CLR 10/08 A3009 710 89 300 000/00 RMK AO2
14837KMSN MSN20030621024509206/21/03 02:45:31  5-MIN KMSN 210845Z 00000KT 10SM CLR 10/08 A3008 710 89 300 000/00 RMK AO2
14837KMSN MSN20030621025011506/21/03 02:50:31  5-MIN KMSN 210850Z 00000KT 10SM CLR 10/08 A3008 710 89 300 000/00 RMK AO2 SLP186 T01000083 58000
14837KMSN MSN20030621025509206/21/03 02:55:31  5-MIN KMSN 210855Z 00000KT 10SM CLR 09/08 A3009 710 93 300 000/00 RMK AO2
14837KMSN MSN20030621030009206/21/03 03:00:31  5-MIN KMSN 210900Z 00000KT 10SM CLR 09/08 A3009 710 93 200 000/00 RMK AO2
14837KMSN MSN20030621030509206/21/03 03:05:31  5-MIN KMSN 210905Z 00000KT 10SM CLR 09/08 A3009 710 93 200 000/00 RMK AO2
14837KMSN MSN20030621031009206/21/03 03:10:31  5-MIN KMSN 210910Z 00000KT 10SM CLR 09/08 A3009 710 93 200 000/00 RMK AO2
14837KMSN MSN20030621031509206/21/03 03:15:31  5-MIN KMSN 210915Z 00000KT 10SM CLR 09/08 A3010 700 93 200 000/00 RMK AO2
14837KMSN MSN20030621032009206/21/03 03:20:31  5-MIN KMSN 210920Z 00000KT 10SM CLR 10/08 A3010 700 89 300 000/00 RMK AO2
14837KMSN MSN20030621032509206/21/03 03:25:31  5-MIN KMSN 210925Z 00000KT 10SM CLR 09/08 A3010 700 89 200 000/00 RMK AO2
14837KMSN MSN20030621033009206/21/03 03:30:31  5-MIN KMSN 210930Z 00000KT 10SM CLR 09/08 A3009 700 93 200 000/00 RMK AO2
14837KMSN MSN20030621033509206/21/03 03:35:31  5-MIN KMSN 210935Z 00000KT 10SM CLR 09/08 A3009 700 89 200 000/00 RMK AO2
14837KMSN MSN20030621034009206/21/03 03:40:31  5-MIN KMSN 210940Z 00000KT 10SM CLR 09/08 A3009 710 89 200 000/00 RMK AO2
14837KMSN MSN20030621034509206/21/03 03:45:31  5-MIN KMSN 210945Z 00000KT 10SM CLR 09/08 A3009 710 89 200 000/00 RMK AO2
14837KMSN MSN20030621035010906/21/03 03:50:31  5-MIN KMSN 210950Z 00000KT 10SM CLR 09/07 A3009 710 86 200 000/00 RMK AO2 SLP189 T00940072
14837KMSN MSN20030621035509206/21/03 03:55:31  5-MIN KMSN 210955Z 00000KT 10SM CLR 09/08 A3009 710 89 200 000/00 RMK AO2
14837KMSN MSN20030621040009206/21/03 04:00:31  5-MIN KMSN 211000Z 00000KT 10SM CLR 09/08 A3009 710 89 300 000/00 RMK AO2
14837KMSN MSN20030621040509206/21/03 04:05:31  5-MIN KMSN 211005Z 00000KT 10SM CLR 09/08 A3009 710 93 200 000/00 RMK AO2
14837KMSN MSN20030621041009206/21/03 04:10:31  5-MIN KMSN 211010Z 00000KT 10SM CLR 09/08 A3009 710 93 200 000/00 RMK AO2
14837KMSN MSN20030621041509206/21/03 04:15:31  5-MIN KMSN 211015Z 00000KT 10SM CLR 09/08 A3009 710 89 300 000/00 RMK AO2
14837KMSN MSN20030621042009206/21/03 04:20:31  5-MIN KMSN 211020Z 00000KT 10SM CLR 09/08 A3009 710 89 200 000/00 RMK AO2
14837KMSN MSN20030621042509106/21/03 04:25:31  5-MIN KMSN 211025Z 00000KT 9SM CLR 08/07 A3010 700 93 100 000/00 RMK AO2
14837KMSN MSN20030621043009106/21/03 04:30:31  5-MIN KMSN 211030Z 00000KT 9SM CLR 09/08 A3009 700 93 200 000/00 RMK AO2
14837KMSN MSN20030621043509106/21/03 04:35:31  5-MIN KMSN 211035Z 00000KT 9SM CLR 09/08 A3010 700 93 200 000/00 RMK AO2
14837KMSN MSN20030621044009106/21/03 04:40:31  5-MIN KMSN 211040Z 00000KT 9SM CLR 08/08 A3010 700 96 100 000/00 RMK AO2
14837KMSN MSN20030621044509206/21/03 04:45:31  5-MIN KMSN 211045Z 00000KT 10SM CLR 09/08 A3010 700 93 200 000/00 RMK AO2
14837KMSN MSN20030621045010906/21/03 04:50:31  5-MIN KMSN 211050Z 00000KT 10SM CLR 09/08 A3010 700 93 200 000/00 RMK AO2 SLP193 T00890078
14837KMSN MSN20030621045509106/21/03 04:55:31  5-MIN KMSN 211055Z 00000KT 9SM CLR 09/08 A3010 700 93 200 000/00 RMK AO2
14837KMSN MSN20030621050009106/21/03 05:00:31  5-MIN KMSN 211100Z 00000KT 9SM CLR 09/07 A3011 690 89 200 000/00 RMK AO2
14837KMSN MSN20030621050509106/21/03 05:05:31  5-MIN KMSN 211105Z 00000KT 8SM CLR 09/08 A3011 690 93 200 000/00 RMK AO2
14837KMSN MSN20030621051009106/21/03 05:10:31  5-MIN KMSN 211110Z 00000KT 9SM CLR 09/08 A3011 690 89 200 000/00 RMK AO2
14837KMSN MSN20030621051509106/21/03 05:15:31  5-MIN KMSN 211115Z 00000KT 9SM CLR 09/08 A3011 690 89 200 000/00 RMK AO2
14837KMSN MSN20030621052009106/21/03 05:20:31  5-MIN KMSN 211120Z 00000KT 9SM CLR 10/08 A3011 690 89 300 000/00 RMK AO2
14837KMSN MSN20030621052509206/21/03 05:25:31  5-MIN KMSN 211125Z 14003KT 10SM CLR 10/08 A3011 690 89 300 140/03 RMK AO2
14837KMSN MSN20030621053009106/21/03 05:30:31  5-MIN KMSN 211130Z 13003KT 9SM CLR 11/09 A3011 690 89 400 130/03 RMK AO2
14837KMSN MSN20030621053509106/21/03 05:35:31  5-MIN KMSN 211135Z 00000KT 9SM CLR 12/09 A3011 690 86 500 000/00 RMK AO2
14837KMSN MSN20030621054009106/21/03 05:40:31  5-MIN KMSN 211140Z 14003KT 9SM CLR 12/09 A3011 690 83 600 140/03 RMK AO2
14837KMSN MSN20030621054509106/21/03 05:45:31  5-MIN KMSN 211145Z 15004KT 9SM CLR 12/10 A3011 690 86 600 150/04 RMK AO2
14837KMSN MSN20030621055012706/21/03 05:50:31  5-MIN KMSN 211150Z 15003KT 10SM CLR 13/11 A3011 690 83 700 150/03 RMK AO2 SLP193 T01330106 10133 20083 53001
14837KMSN MSN20030621055509206/21/03 05:55:31  5-MIN KMSN 211155Z 16003KT 10SM CLR 14/10 A3011 690 74 800 160/03 RMK AO2
14837KMSN MSN20030621060009206/21/03 06:00:31  5-MIN KMSN 211200Z 17003KT 10SM CLR 14/10 A3011 690 74 800 170/03 RMK AO2
14837KMSN MSN20030621060509206/21/03 06:05:31  5-MIN KMSN 211205Z 18003KT 10SM CLR 15/09 A3011 690 69 900 180/03 RMK AO2
14837KMSN MSN20030621061009306/21/03 06:10:31  5-MIN KMSN 211210Z 16004KT 10SM CLR 16/09 A3011 690 67 1000 160/04 RMK AO2
14837KMSN MSN20030621061509306/21/03 06:15:31  5-MIN KMSN 211215Z 16004KT 10SM CLR 16/09 A3011 690 67 1000 160/04 RMK AO2
14837KMSN MSN20030621062009306/21/03 06:20:31  5-MIN KMSN 211220Z 18003KT 10SM CLR 16/09 A3011 690 64 1000 180/03 RMK AO2
14837KMSN MSN20030621062509306/21/03 06:25:31  5-MIN KMSN 211225Z 17003KT 10SM CLR 16/09 A3011 690 64 1000 170/03 RMK AO2
14837KMSN MSN20030621063009306/21/03 06:30:31  5-MIN KMSN 211230Z 16004KT 10SM CLR 16/10 A3011 690 67 1000 160/04 RMK AO2
14837KMSN MSN20030621063509306/21/03 06:35:31  5-MIN KMSN 211235Z 15004KT 10SM CLR 17/09 A3011 690 62 1100 150/04 RMK AO2
14837KMSN MSN20030621064009306/21/03 06:40:31  5-MIN KMSN 211240Z 17004KT 10SM CLR 17/10 A3011 690 64 1100 170/04 RMK AO2
14837KMSN MSN20030621064509306/21/03 06:45:31  5-MIN KMSN 211245Z 17004KT 10SM CLR 17/09 A3011 690 60 1100 170/04 RMK AO2
14837KMSN MSN20030621065011006/21/03 06:50:31  5-MIN KMSN 211250Z 18005KT 10SM CLR 18/09 A3011 690 55 1200 180/05 RMK AO2 SLP193 T01780089
14837KMSN MSN20030621065509306/21/03 06:55:31  5-MIN KMSN 211255Z 17004KT 10SM CLR 18/09 A3011 690 58 1200 170/04 RMK AO2
14837KMSN MSN20030621070009306/21/03 07:00:31  5-MIN KMSN 211300Z 20005KT 10SM CLR 18/09 A3011 690 54 1300 190/05 RMK AO2
14837KMSN MSN20030621070509306/21/03 07:05:31  5-MIN KMSN 211305Z 19005KT 10SM CLR 18/07 A3011 690 48 1300 180/05 RMK AO2
14837KMSN MSN20030621071009306/21/03 07:10:31  5-MIN KMSN 211310Z 18005KT 10SM CLR 19/09 A3011 690 52 1300 180/05 RMK AO2
14837KMSN MSN20030621071509306/21/03 07:15:31  5-MIN KMSN 211315Z 17006KT 10SM CLR 19/08 A3011 690 50 1300 170/06 RMK AO2
14837KMSN MSN20030621072009306/21/03 07:20:31  5-MIN KMSN 211320Z 16005KT 10SM CLR 19/09 A3011 690 52 1300 160/05 RMK AO2
14837KMSN MSN20030621072509306/21/03 07:25:31  5-MIN KMSN 211325Z 16006KT 10SM CLR 19/09 A3011 690 52 1300 160/06 RMK AO2
14837KMSN MSN20030621073009306/21/03 07:30:31  5-MIN KMSN 211330Z 16006KT 10SM CLR 19/08 A3011 690 50 1300 160/06 RMK AO2
14837KMSN MSN20030621073509306/21/03 07:35:31  5-MIN KMSN 211335Z 16005KT 10SM CLR 19/09 A3011 690 52 1300 160/05 RMK AO2
14837KMSN MSN20030621074009306/21/03 07:40:31  5-MIN KMSN 211340Z 15005KT 10SM CLR 19/09 A3011 680 50 1400 150/05 RMK AO2
14837KMSN MSN20030621074509306/21/03 07:45:31  5-MIN KMSN 211345Z 16006KT 10SM CLR 19/09 A3012 680 50 1400 160/06 RMK AO2
14837KMSN MSN20030621075011006/21/03 07:50:31  5-MIN KMSN 211350Z VRB04KT 10SM CLR 20/09 A3012 680 48 1500 VRB/04 RMK AO2 SLP197 T02000089
14837KMSN MSN20030621075509306/21/03 07:55:31  5-MIN KMSN 211355Z 16005KT 10SM CLR 21/09 A3012 680 46 1500 160/05 RMK AO2
14837KMSN MSN20030621080009306/21/03 08:00:31  5-MIN KMSN 211400Z 17007KT 10SM CLR 21/09 A3011 690 48 1500 170/07 RMK AO2
14837KMSN MSN20030621080509306/21/03 08:05:31  5-MIN KMSN 211405Z 15006KT 10SM CLR 21/09 A3011 690 46 1500 150/06 RMK AO2
14837KMSN MSN20030621081009306/21/03 08:10:31  5-MIN KMSN 211410Z 17005KT 10SM CLR 21/09 A3011 690 46 1500 170/05 RMK AO2
14837KMSN MSN20030621081509306/21/03 08:15:31  5-MIN KMSN 211415Z 17007KT 10SM CLR 21/09 A3011 690 46 1500 170/07 RMK AO2
14837KMSN MSN20030621082009306/21/03 08:20:31  5-MIN KMSN 211420Z 17007KT 10SM CLR 21/09 A3011 690 46 1500 170/07 RMK AO2
14837KMSN MSN20030621082509306/21/03 08:25:31  5-MIN KMSN 211425Z 16007KT 10SM CLR 21/08 A3011 690 43 1600 160/07 RMK AO2
14837KMSN MSN20030621083009306/21/03 08:30:31  5-MIN KMSN 211430Z 21006KT 10SM CLR 22/08 A3011 690 42 1700 200/06 RMK AO2
14837KMSN MSN20030621083509306/21/03 08:35:31  5-MIN KMSN 211435Z VRB06KT 10SM CLR 22/08 A3011 690 40 1700 VRB/06 RMK AO2
14837KMSN MSN20030621084009306/21/03 08:40:31  5-MIN KMSN 211440Z 18009KT 10SM CLR 22/08 A3011 690 39 1700 180/09 RMK AO2
14837KMSN MSN20030621084509306/21/03 08:45:31  5-MIN KMSN 211445Z 19006KT 10SM CLR 22/07 A3011 690 37 1700 190/06 RMK AO2
14837KMSN MSN20030621085013206/21/03 08:50:31  5-MIN KMSN 211450Z 19007KT 170V230 10SM CLR 22/07 A3011 690 36 1700 190/07 170V230 RMK AO2 SLP192 T02220067 51008
14837KMSN MSN20030621085509306/21/03 08:55:31  5-MIN KMSN 211455Z 19007KT 10SM CLR 23/07 A3010 690 36 1800 190/07 RMK AO2
14837KMSN MSN20030621090010906/21/03 09:00:31  5-MIN KMSN 211500Z 20007KT 170V230 10SM CLR 23/07 A3011 690 36 1800 200/07 170V230 RMK AO2
14837KMSN MSN20030621090509306/21/03 09:05:31  5-MIN KMSN 211505Z VRB05KT 10SM CLR 23/08 A3011 690 37 1800 VRB/05 RMK AO2
14837KMSN MSN20030621091009306/21/03 09:10:31  5-MIN KMSN 211510Z VRB06KT 10SM CLR 23/08 A3010 700 37 1800 VRB/06 RMK AO2
14837KMSN MSN20030621091509306/21/03 09:15:31  5-MIN KMSN 211515Z VRB05KT 10SM CLR 23/08 A3011 690 37 1800 VRB/05 RMK AO2
14837KMSN MSN20030621092009306/21/03 09:20:31  5-MIN KMSN 211520Z 21007KT 10SM CLR 23/08 A3011 690 37 1800 210/07 RMK AO2
14837KMSN MSN20030621092509306/21/03 09:25:31  5-MIN KMSN 211525Z 19006KT 10SM CLR 23/08 A3010 700 37 1800 190/06 RMK AO2
14837KMSN MSN20030621093010906/21/03 09:30:31  5-MIN KMSN 211530Z 18007KT 140V210 10SM CLR 23/08 A3010 700 36 1900 180/07 140V210 RMK AO2
14837KMSN MSN20030621093509306/21/03 09:35:31  5-MIN KMSN 211535Z 17009KT 10SM CLR 23/08 A3010 700 36 1900 170/09 RMK AO2
14837KMSN MSN20030621094009306/21/03 09:40:31  5-MIN KMSN 211540Z 18008KT 10SM CLR 23/08 A3010 700 36 1900 180/08 RMK AO2
14837KMSN MSN20030621094509306/21/03 09:45:31  5-MIN KMSN 211545Z 18008KT 10SM CLR 23/08 A3010 700 36 1900 180/08 RMK AO2
14837KMSN MSN20030621095011006/21/03 09:50:31  5-MIN KMSN 211550Z 17009KT 10SM CLR 23/08 A3010 700 38 1900 170/09 RMK AO2 SLP189 T02330083
14837KMSN MSN20030621095509306/21/03 09:55:31  5-MIN KMSN 211555Z 17007KT 10SM CLR 23/08 A3009 700 38 1900 170/07 RMK AO2
14837KMSN MSN20030621100009306/21/03 10:00:31  5-MIN KMSN 211600Z 18008KT 10SM CLR 23/09 A3009 700 39 1900 180/08 RMK AO2
14837KMSN MSN20030621100509306/21/03 10:05:31  5-MIN KMSN 211605Z 16007KT 10SM CLR 24/09 A3009 710 38 1900 160/07 RMK AO2
14837KMSN MSN20030621101009306/21/03 10:10:31  5-MIN KMSN 211610Z 17006KT 10SM CLR 24/09 A3009 710 39 1900 160/06 RMK AO2
14837KMSN MSN20030621101509306/21/03 10:15:31  5-MIN KMSN 211615Z VRB05KT 10SM CLR 24/09 A3009 710 38 1900 VRB/05 RMK AO2
14837KMSN MSN20030621102010906/21/03 10:20:31  5-MIN KMSN 211620Z 17007KT 130V210 10SM CLR 24/09 A3009 710 38 1900 170/07 130V210 RMK AO2
14837KMSN MSN20030621102509306/21/03 10:25:31  5-MIN KMSN 211625Z 14007KT 10SM CLR 24/09 A3009 710 39 1900 140/07 RMK AO2
14837KMSN MSN20030621103009306/21/03 10:30:31  5-MIN KMSN 211630Z 15007KT 10SM CLR 24/09 A3009 710 39 1900 150/07 RMK AO2
14837KMSN MSN20030621103509306/21/03 10:35:31  5-MIN KMSN 211635Z 16006KT 10SM CLR 24/09 A3008 710 38 1900 160/06 RMK AO2
14837KMSN MSN20030621104009306/21/03 10:40:31  5-MIN KMSN 211640Z 17007KT 10SM CLR 24/08 A3008 710 35 2000 170/07 RMK AO2
14837KMSN MSN20030621104509306/21/03 10:45:31  5-MIN KMSN 211645Z 18009KT 10SM CLR 24/09 A3008 710 36 2000 170/09 RMK AO2
14837KMSN MSN20030621105011006/21/03 10:50:31  5-MIN KMSN 211650Z 17011KT 10SM CLR 24/08 A3008 710 35 2000 170/11 RMK AO2 SLP184 T02440083
14837KMSN MSN20030621105509306/21/03 10:55:31  5-MIN KMSN 211655Z 15008KT 10SM CLR 24/08 A3008 720 35 2000 150/08 RMK AO2
14837KMSN MSN20030621110009306/21/03 11:00:31  5-MIN KMSN 211700Z 17009KT 10SM CLR 24/08 A3008 720 35 2000 170/09 RMK AO2
14837KMSN MSN20030621110509306/21/03 11:05:31  5-MIN KMSN 211705Z VRB05KT 10SM CLR 24/09 A3008 720 38 2000 VRB/05 RMK AO2
14837KMSN MSN20030621111009306/21/03 11:10:31  5-MIN KMSN 211710Z 17008KT 10SM CLR 24/09 A3008 720 36 2000 170/08 RMK AO2
14837KMSN MSN20030621111509306/21/03 11:15:31  5-MIN KMSN 211715Z 13003KT 10SM CLR 24/09 A3008 720 38 2000 130/03 RMK AO2
14837KMSN MSN20030621112009306/21/03 11:20:31  5-MIN KMSN 211720Z 17009KT 10SM CLR 25/09 A3007 720 35 2100 170/09 RMK AO2
14837KMSN MSN20030621112509306/21/03 11:25:31  5-MIN KMSN 211725Z 16009KT 10SM CLR 24/09 A3007 720 36 2000 160/09 RMK AO2
14837KMSN MSN20030621113009306/21/03 11:30:31  5-MIN KMSN 211730Z 17009KT 10SM CLR 25/09 A3007 720 35 2100 170/09 RMK AO2
14837KMSN MSN20030621113509306/21/03 11:35:31  5-MIN KMSN 211735Z 19007KT 10SM CLR 25/08 A3007 720 34 2100 190/07 RMK AO2
14837KMSN MSN20030621114009306/21/03 11:40:31  5-MIN KMSN 211740Z 14008KT 10SM CLR 25/09 A3007 730 37 2100 140/08 RMK AO2
14837KMSN MSN20030621114509306/21/03 11:45:31  5-MIN KMSN 211745Z 13008KT 10SM CLR 25/09 A3007 730 37 2100 130/08 RMK AO2
14837KMSN MSN20030621115012806/21/03 11:50:31  5-MIN KMSN 211750Z 19008KT 10SM CLR 25/09 A3007 730 35 2100 190/08 RMK AO2 SLP179 T02500089 10250 20139 58001
14837KMSN MSN20030621115509906/21/03 11:55:31  5-MIN KMSN 211755Z 18006G14KT 10SM CLR 25/08 A3007 730 34 2100 180/06G14 RMK AO2
14837KMSN MSN20030621120009306/21/03 12:00:31  5-MIN KMSN 211800Z 18009KT 10SM CLR 25/09 A3006 730 35 2100 180/09 RMK AO2
14837KMSN MSN20030621120509306/21/03 12:05:31  5-MIN KMSN 211805Z 16008KT 10SM CLR 25/09 A3006 730 37 2100 160/08 RMK AO2
14837KMSN MSN20030621121009306/21/03 12:10:31  5-MIN KMSN 211810Z VRB04KT 10SM CLR 25/09 A3006 740 35 2100 VRB/04 RMK AO2
14837KMSN MSN20030621121509306/21/03 12:15:31  5-MIN KMSN 211815Z 15008KT 10SM CLR 26/10 A3006 740 37 2200 150/08 RMK AO2
14837KMSN MSN20030621122009306/21/03 12:20:31  5-MIN KMSN 211820Z 16009KT 10SM CLR 26/09 A3006 740 35 2200 160/09 RMK AO2
14837KMSN MSN20030621122509306/21/03 12:25:31  5-MIN KMSN 211825Z 17011KT 10SM CLR 26/10 A3006 740 37 2200 170/11 RMK AO2
14837KMSN MSN20030621123009306/21/03 12:30:31  5-MIN KMSN 211830Z VRB06KT 10SM CLR 26/09 A3005 740 35 2200 VRB/06 RMK AO2
14837KMSN MSN20030621123509306/21/03 12:35:31  5-MIN KMSN 211835Z 19009KT 10SM CLR 26/09 A3005 740 34 2200 190/09 RMK AO2
14837KMSN MSN20030621124009306/21/03 12:40:31  5-MIN KMSN 211840Z 16010KT 10SM CLR 26/10 A3005 740 36 2200 160/10 RMK AO2
14837KMSN MSN20030621124509906/21/03 12:45:31  5-MIN KMSN 211845Z 18010G15KT 10SM CLR 26/09 A3005 740 35 2200 180/10G15 RMK AO2
14837KMSN MSN20030621125013206/21/03 12:50:31  5-MIN KMSN 211850Z 14007G15KT 120V190 10SM CLR 26/09 A3005 740 35 2200 140/07G15 120V190 RMK AO2 SLP174 T02560094
14837KMSN MSN20030621125509306/21/03 12:55:31  5-MIN KMSN 211855Z VRB03KT 10SM CLR 26/09 A3005 750 34 2200 VRB/03 RMK AO2
14837KMSN MSN20030621130010906/21/03 13:00:31  5-MIN KMSN 211900Z 21007KT 180V240 10SM CLR 26/09 A3005 750 34 2200 210/07 180V240 RMK AO2
14837KMSN MSN20030621130509306/21/03 13:05:31  5-MIN KMSN 211905Z 16005KT 10SM CLR 27/09 A3005 750 33 2300 160/05 RMK AO2
14837KMSN MSN20030621131009306/21/03 13:10:31  5-MIN KMSN 211910Z 17008KT 10SM CLR 26/09 A3004 750 34 2200 170/08 RMK AO2
14837KMSN MSN20030621131509306/21/03 13:15:31  5-MIN KMSN 211915Z 00000KT 10SM CLR 26/08 A3004 750 31 2200 000/00 RMK AO2
14837KMSN MSN20030621132009306/21/03 13:20:31  5-MIN KMSN 211920Z 15008KT 10SM CLR 26/09 A3004 750 34 2200 150/08 RMK AO2
14837KMSN MSN20030621132509306/21/03 13:25:31  5-MIN KMSN 211925Z VRB05KT 10SM CLR 26/09 A3004 750 34 2200 VRB/05 RMK AO2
14837KMSN MSN20030621133009306/21/03 13:30:31  5-MIN KMSN 211930Z VRB06KT 10SM CLR 26/09 A3004 760 33 2200 VRB/06 RMK AO2
14837KMSN MSN20030621133509306/21/03 13:35:31  5-MIN KMSN 211935Z 15010KT 10SM CLR 26/09 A3004 760 33 2300 150/10 RMK AO2
14837KMSN MSN20030621134009306/21/03 13:40:31  5-MIN KMSN 211940Z VRB03KT 10SM CLR 26/08 A3004 760 33 2200 VRB/03 RMK AO2
14837KMSN MSN20030621134509306/21/03 13:45:31  5-MIN KMSN 211945Z 14009KT 10SM CLR 26/09 A3004 760 34 2300 140/09 RMK AO2
14837KMSN MSN20030621135011006/21/03 13:50:31  5-MIN KMSN 211950Z 15009KT 10SM CLR 26/09 A3003 760 33 2300 150/09 RMK AO2 SLP168 T02610089
14837KMSN MSN20030621135509306/21/03 13:55:31  5-MIN KMSN 211955Z 17009KT 10SM CLR 26/09 A3003 760 34 2300 170/09 RMK AO2
14837KMSN MSN20030621140009306/21/03 14:00:31  5-MIN KMSN 212000Z 16009KT 10SM CLR 26/09 A3003 760 33 2300 160/09 RMK AO2
14837KMSN MSN20030621140509306/21/03 14:05:31  5-MIN KMSN 212005Z VRB03KT 10SM CLR 26/08 A3003 760 32 2300 VRB/03 RMK AO2
14837KMSN MSN20030621141009306/21/03 14:10:31  5-MIN KMSN 212010Z 10004KT 10SM CLR 26/08 A3003 760 32 2300 100/04 RMK AO2
14837KMSN MSN20030621141509906/21/03 14:15:31  5-MIN KMSN 212015Z 16011G14KT 10SM CLR 27/08 A3003 770 31 2300 160/11G14 RMK AO2
14837KMSN MSN20030621142009906/21/03 14:20:31  5-MIN KMSN 212020Z 16008G14KT 10SM CLR 27/09 A3003 770 33 2300 160/08G14 RMK AO2
14837KMSN MSN20030621142509306/21/03 14:25:31  5-MIN KMSN 212025Z 16008KT 10SM CLR 26/08 A3002 770 32 2300 160/08 RMK AO2
14837KMSN MSN20030621143009306/21/03 14:30:31  5-MIN KMSN 212030Z 16008KT 10SM CLR 26/08 A3002 770 32 2300 160/08 RMK AO2
14837KMSN MSN20030621143509306/21/03 14:35:31  5-MIN KMSN 212035Z 17007KT 10SM CLR 27/08 A3002 770 31 2300 160/07 RMK AO2
14837KMSN MSN20030621144009306/21/03 14:40:31  5-MIN KMSN 212040Z 17008KT 10SM CLR 27/09 A3002 770 32 2300 170/08 RMK AO2
14837KMSN MSN20030621144509306/21/03 14:45:31  5-MIN KMSN 212045Z 15007KT 10SM CLR 27/08 A3002 770 31 2300 150/07 RMK AO2
14837KMSN MSN20030621145011606/21/03 14:50:31  5-MIN KMSN 212050Z VRB04KT 10SM CLR 27/08 A3002 770 31 2300 VRB/04 RMK AO2 SLP163 T02670083 58013
14837KMSN MSN20030621145509306/21/03 14:55:31  5-MIN KMSN 212055Z VRB04KT 10SM CLR 27/08 A3002 780 31 2300 VRB/04 RMK AO2
14837KMSN MSN20030621150009306/21/03 15:00:31  5-MIN KMSN 212100Z 14005KT 10SM CLR 27/08 A3001 780 31 2300 140/05 RMK AO2
14837KMSN MSN20030621150509306/21/03 15:05:31  5-MIN KMSN 212105Z 17009KT 10SM CLR 27/08 A3001 780 31 2300 170/09 RMK AO2
14837KMSN MSN20030621151009306/21/03 15:10:31  5-MIN KMSN 212110Z 14005KT 10SM CLR 27/08 A3001 780 31 2300 140/05 RMK AO2
14837KMSN MSN20030621151509306/21/03 15:15:31  5-MIN KMSN 212115Z VRB04KT 10SM CLR 27/08 A3001 780 31 2300 VRB/04 RMK AO2
14837KMSN MSN20030621152009306/21/03 15:20:31  5-MIN KMSN 212120Z 12007KT 10SM CLR 27/09 A3000 790 32 2300 120/07 RMK AO2
14837KMSN MSN20030621152509306/21/03 15:25:31  5-MIN KMSN 212125Z VRB06KT 10SM CLR 27/09 A3000 790 32 2300 VRB/06 RMK AO2
14837KMSN MSN20030621153009306/21/03 15:30:31  5-MIN KMSN 212130Z VRB06KT 10SM CLR 27/08 A3000 790 29 2400 VRB/06 RMK AO2
14837KMSN MSN20030621153509306/21/03 15:35:31  5-MIN KMSN 212135Z 17009KT 10SM CLR 27/09 A3000 790 31 2400 170/09 RMK AO2
14837KMSN MSN20030621154009306/21/03 15:40:31  5-MIN KMSN 212140Z 18008KT 10SM CLR 27/08 A3000 790 30 2400 180/08 RMK AO2
14837KMSN MSN20030621154509306/21/03 15:45:31  5-MIN KMSN 212145Z VRB03KT 10SM CLR 27/07 A3000 790 28 2400 VRB/03 RMK AO2
14837KMSN MSN20030621155011006/21/03 15:50:31  5-MIN KMSN 212150Z 14007KT 10SM CLR 27/08 A2999 800 31 2400 140/07 RMK AO2 SLP155 T02670083
14837KMSN MSN20030621155509306/21/03 15:55:31  5-MIN KMSN 212155Z VRB05KT 10SM CLR 27/09 A2999 800 32 2400 VRB/05 RMK AO2
14837KMSN MSN20030621160009306/21/03 16:00:31  5-MIN KMSN 212200Z 17009KT 10SM CLR 27/08 A2999 800 29 2400 170/09 RMK AO2
14837KMSN MSN20030621160509306/21/03 16:05:31  5-MIN KMSN 212205Z 17007KT 10SM CLR 27/08 A2999 800 29 2400 170/07 RMK AO2
14837KMSN MSN20030621161009306/21/03 16:10:31  5-MIN KMSN 212210Z VRB04KT 10SM CLR 27/08 A2999 800 29 2400 VRB/04 RMK AO2
14837KMSN MSN20030621161509306/21/03 16:15:31  5-MIN KMSN 212215Z 17007KT 10SM CLR 27/08 A2999 800 29 2400 170/07 RMK AO2
14837KMSN MSN20030621162009306/21/03 16:20:31  5-MIN KMSN 212220Z 17007KT 10SM CLR 27/08 A2999 800 31 2400 170/07 RMK AO2
14837KMSN MSN20030621162509306/21/03 16:25:31  5-MIN KMSN 212225Z 15006KT 10SM CLR 27/09 A2999 800 32 2400 140/06 RMK AO2
14837KMSN MSN20030621163010906/21/03 16:30:31  5-MIN KMSN 212230Z 15008KT 120V180 10SM CLR 26/07 A2998 810 29 2300 150/08 120V180 RMK AO2
14837KMSN MSN20030621163509306/21/03 16:35:31  5-MIN KMSN 212235Z 16006KT 10SM CLR 26/08 A2998 810 31 2300 160/06 RMK AO2
14837KMSN MSN20030621164009306/21/03 16:40:31  5-MIN KMSN 212240Z 16008KT 10SM CLR 26/08 A2998 810 32 2300 160/08 RMK AO2
14837KMSN MSN20030621164509306/21/03 16:45:31  5-MIN KMSN 212245Z 17009KT 10SM CLR 26/08 A2998 810 32 2300 170/09 RMK AO2
14837KMSN MSN20030621165011006/21/03 16:50:31  5-MIN KMSN 212250Z 14007KT 10SM CLR 26/08 A2998 810 31 2300 140/07 RMK AO2 SLP148 T02610078
14837KMSN MSN20030621165509306/21/03 16:55:31  5-MIN KMSN 212255Z 14008KT 10SM CLR 26/09 A2997 820 33 2300 140/08 RMK AO2
14837KMSN MSN20030621170009306/21/03 17:00:31  5-MIN KMSN 212300Z 18009KT 10SM CLR 26/08 A2997 820 31 2300 170/09 RMK AO2
14837KMSN MSN20030621170509306/21/03 17:05:31  5-MIN KMSN 212305Z 14009KT 10SM CLR 26/08 A2997 820 31 2300 140/09 RMK AO2
14837KMSN MSN20030621171009306/21/03 17:10:31  5-MIN KMSN 212310Z 13011KT 10SM CLR 26/09 A2997 820 34 2300 130/11 RMK AO2
14837KMSN MSN20030621171509306/21/03 17:15:31  5-MIN KMSN 212315Z 16009KT 10SM CLR 26/08 A2997 810 33 2300 160/09 RMK AO2
14837KMSN MSN20030621172009306/21/03 17:20:31  5-MIN KMSN 212320Z 16007KT 10SM CLR 26/08 A2997 810 32 2300 160/07 RMK AO2
14837KMSN MSN20030621172509306/21/03 17:25:31  5-MIN KMSN 212325Z 14010KT 10SM CLR 26/09 A2998 810 34 2300 140/10 RMK AO2
14837KMSN MSN20030621173009306/21/03 17:30:31  5-MIN KMSN 212330Z 16008KT 10SM CLR 26/08 A2997 810 33 2300 160/08 RMK AO2
14837KMSN MSN20030621173509306/21/03 17:35:31  5-MIN KMSN 212335Z 15010KT 10SM CLR 26/09 A2998 810 34 2300 150/10 RMK AO2
14837KMSN MSN20030621174009306/21/03 17:40:31  5-MIN KMSN 212340Z 17008KT 10SM CLR 26/08 A2998 810 33 2300 170/08 RMK AO2
14837KMSN MSN20030621174509306/21/03 17:45:31  5-MIN KMSN 212345Z 16010KT 10SM CLR 26/08 A2998 810 33 2300 160/10 RMK AO2
14837KMSN MSN20030621175012806/21/03 17:50:31  5-MIN KMSN 212350Z 16009KT 10SM CLR 26/08 A2998 810 33 2300 160/09 RMK AO2 SLP149 T02560083 10272 20250 56017
14837KMSN MSN20030621175509306/21/03 17:55:31  5-MIN KMSN 212355Z 16009KT 10SM CLR 26/08 A2998 810 32 2300 160/09 RMK AO2
14837KMSN MSN20030621180009306/21/03 18:00:31  5-MIN KMSN 220000Z 16008KT 10SM CLR 26/08 A2998 810 33 2300 160/08 RMK AO2
14837KMSN MSN20030621180509306/21/03 18:05:31  5-MIN KMSN 220005Z 16009KT 10SM CLR 26/08 A2998 810 33 2300 160/09 RMK AO2
14837KMSN MSN20030621181009306/21/03 18:10:31  5-MIN KMSN 220010Z 15008KT 10SM CLR 25/09 A2998 810 35 2200 150/08 RMK AO2
14837KMSN MSN20030621181509306/21/03 18:15:31  5-MIN KMSN 220015Z 16008KT 10SM CLR 25/09 A2998 810 35 2200 160/08 RMK AO2
14837KMSN MSN20030621182009306/21/03 18:20:31  5-MIN KMSN 220020Z 17007KT 10SM CLR 25/08 A2998 810 34 2200 170/07 RMK AO2
14837KMSN MSN20030621182509306/21/03 18:25:31  5-MIN KMSN 220025Z 17007KT 10SM CLR 25/09 A2998 810 35 2200 170/07 RMK AO2
14837KMSN MSN20030621183009306/21/03 18:30:31  5-MIN KMSN 220030Z 17006KT 10SM CLR 25/09 A2998 810 35 2200 170/06 RMK AO2
14837KMSN MSN20030621183509306/21/03 18:35:31  5-MIN KMSN 220035Z 17005KT 10SM CLR 25/09 A2998 810 37 2200 170/05 RMK AO2
14837KMSN MSN20030621184009306/21/03 18:40:31  5-MIN KMSN 220040Z 17007KT 10SM CLR 25/09 A2998 810 37 2200 170/07 RMK AO2
14837KMSN MSN20030621184509306/21/03 18:45:31  5-MIN KMSN 220045Z 17007KT 10SM CLR 25/09 A2998 810 35 2200 170/07 RMK AO2
14837KMSN MSN20030621185011006/21/03 18:50:31  5-MIN KMSN 220050Z 18006KT 10SM CLR 25/09 A2998 810 35 2200 170/06 RMK AO2 SLP148 T02500089
14837KMSN MSN20030621185509306/21/03 18:55:31  5-MIN KMSN 220055Z 17007KT 10SM CLR 24/09 A2998 810 36 2100 170/07 RMK AO2
14837KMSN MSN20030621190009306/21/03 19:00:31  5-MIN KMSN 220100Z 18006KT 10SM CLR 24/09 A2998 810 38 2100 170/06 RMK AO2
14837KMSN MSN20030621190509306/21/03 19:05:31  5-MIN KMSN 220105Z 17006KT 10SM CLR 24/09 A2998 810 36 2100 170/06 RMK AO2
14837KMSN MSN20030621191009306/21/03 19:10:31  5-MIN KMSN 220110Z 18006KT 10SM CLR 24/09 A2998 810 38 2100 180/06 RMK AO2
14837KMSN MSN20030621191509306/21/03 19:15:31  5-MIN KMSN 220115Z 18006KT 10SM CLR 24/09 A2998 810 38 2100 180/06 RMK AO2
14837KMSN MSN20030621192009306/21/03 19:20:31  5-MIN KMSN 220120Z 18005KT 10SM CLR 23/09 A2998 810 41 2000 180/05 RMK AO2
14837KMSN MSN20030621192509306/21/03 19:25:31  5-MIN KMSN 220125Z 18006KT 10SM CLR 24/09 A2998 810 39 2100 180/06 RMK AO2
14837KMSN MSN20030621193009306/21/03 19:30:31  5-MIN KMSN 220130Z 18005KT 10SM CLR 23/09 A2998 810 39 2000 170/05 RMK AO2
14837KMSN MSN20030621193509306/21/03 19:35:31  5-MIN KMSN 220135Z 18005KT 10SM CLR 23/09 A2998 810 42 1900 180/05 RMK AO2
14837KMSN MSN20030621194009306/21/03 19:40:31  5-MIN KMSN 220140Z 18005KT 10SM CLR 23/09 A2998 810 42 1900 180/05 RMK AO2
14837KMSN MSN20030621194509306/21/03 19:45:31  5-MIN KMSN 220145Z 18005KT 10SM CLR 23/09 A2998 810 42 1900 180/05 RMK AO2
14837KMSN MSN20030621195011006/21/03 19:50:31  5-MIN KMSN 220150Z 18005KT 10SM CLR 22/09 A2998 810 43 1900 180/05 RMK AO2 SLP149 T02220094
14837KMSN MSN20030621195509306/21/03 19:55:31  5-MIN KMSN 220155Z 18004KT 10SM CLR 22/09 A2998 810 43 1900 180/04 RMK AO2
14837KMSN MSN20030621200009306/21/03 20:00:31  5-MIN KMSN 220200Z 18005KT 10SM CLR 22/09 A2998 810 43 1900 180/05 RMK AO2
14837KMSN MSN20030621200509306/21/03 20:05:31  5-MIN KMSN 220205Z 17004KT 10SM CLR 22/09 A2998 810 45 1800 170/04 RMK AO2
14837KMSN MSN20030621201009306/21/03 20:10:31  5-MIN KMSN 220210Z 18003KT 10SM CLR 21/09 A2998 800 47 1700 180/03 RMK AO2
14837KMSN MSN20030621201509306/21/03 20:15:31  5-MIN KMSN 220215Z 00000KT 10SM CLR 21/09 A2999 800 47 1700 000/00 RMK AO2
14837KMSN MSN20030621202009306/21/03 20:20:31  5-MIN KMSN 220220Z 18003KT 10SM CLR 20/10 A2999 800 52 1600 180/03 RMK AO2
14837KMSN MSN20030621202509306/21/03 20:25:31  5-MIN KMSN 220225Z 18004KT 10SM CLR 21/10 A2999 800 50 1700 180/04 RMK AO2
14837KMSN MSN20030621203009306/21/03 20:30:31  5-MIN KMSN 220230Z 18004KT 10SM CLR 19/10 A2998 800 54 1600 180/04 RMK AO2
14837KMSN MSN20030621203509306/21/03 20:35:31  5-MIN KMSN 220235Z 18003KT 10SM CLR 19/10 A2998 800 56 1500 180/03 RMK AO2
14837KMSN MSN20030621204009306/21/03 20:40:31  5-MIN KMSN 220240Z 18003KT 10SM CLR 18/10 A2998 800 58 1400 180/03 RMK AO2
14837KMSN MSN20030621204509306/21/03 20:45:31  5-MIN KMSN 220245Z 00000KT 10SM CLR 18/10 A2999 800 58 1400 000/00 RMK AO2
14837KMSN MSN20030621205011606/21/03 20:50:31  5-MIN KMSN 220250Z 00000KT 10SM CLR 18/10 A2999 800 58 1400 000/00 RMK AO2 SLP151 T01830100 55013
14837KMSN MSN20030621205509306/21/03 20:55:31  5-MIN KMSN 220255Z 18003KT 10SM CLR 18/11 A2999 800 60 1400 180/03 RMK AO2
14837KMSN MSN20030621210009306/21/03 21:00:31  5-MIN KMSN 220300Z 00000KT 10SM CLR 19/10 A2999 800 56 1500 000/00 RMK AO2
14837KMSN MSN20030621210509306/21/03 21:05:31  5-MIN KMSN 220305Z 17003KT 10SM CLR 18/10 A2999 800 60 1400 170/03 RMK AO2
14837KMSN MSN20030621211009306/21/03 21:10:31  5-MIN KMSN 220310Z 00000KT 10SM CLR 18/10 A2998 810 60 1400 000/00 RMK AO2
14837KMSN MSN20030621211509306/21/03 21:15:31  5-MIN KMSN 220315Z 00000KT 10SM CLR 18/09 A2998 810 56 1400 000/00 RMK AO2
14837KMSN MSN20030621212009306/21/03 21:20:31  5-MIN KMSN 220320Z 00000KT 10SM CLR 18/09 A2998 810 58 1400 000/00 RMK AO2
14837KMSN MSN20030621212509306/21/03 21:25:31  5-MIN KMSN 220325Z 00000KT 10SM CLR 17/10 A2998 810 62 1300 000/00 RMK AO2
14837KMSN MSN20030621213009306/21/03 21:30:31  5-MIN KMSN 220330Z 00000KT 10SM CLR 18/10 A2998 810 60 1400 000/00 RMK AO2
14837KMSN MSN20030621213509306/21/03 21:35:31  5-MIN KMSN 220335Z 00000KT 10SM CLR 17/10 A2998 810 62 1300 000/00 RMK AO2
14837KMSN MSN20030621214009306/21/03 21:40:31  5-MIN KMSN 220340Z 00000KT 10SM CLR 17/10 A2998 810 64 1200 000/00 RMK AO2
14837KMSN MSN20030621214509306/21/03 21:45:31  5-MIN KMSN 220345Z 00000KT 10SM CLR 17/10 A2998 810 64 1200 000/00 RMK AO2
14837KMSN MSN20030621215011006/21/03 21:50:31  5-MIN KMSN 220350Z 00000KT 10SM CLR 17/10 A2998 810 62 1300 000/00 RMK AO2 SLP149 T01720100
14837KMSN MSN20030621215509306/21/03 21:55:31  5-MIN KMSN 220355Z 00000KT 10SM CLR 17/10 A2998 810 62 1300 000/00 RMK AO2
14837KMSN MSN20030621220009306/21/03 22:00:31  5-MIN KMSN 220400Z 00000KT 10SM CLR 17/10 A2998 810 64 1200 000/00 RMK AO2
14837KMSN MSN20030621220509306/21/03 22:05:31  5-MIN KMSN 220405Z 00000KT 10SM CLR 17/10 A2998 810 64 1200 000/00 RMK AO2
14837KMSN MSN20030621221009306/21/03 22:10:31  5-MIN KMSN 220410Z 00000KT 10SM CLR 17/10 A2998 810 62 1300 000/00 RMK AO2
14837KMSN MSN20030621221509306/21/03 22:15:31  5-MIN KMSN 220415Z 00000KT 10SM CLR 17/10 A2997 810 62 1300 000/00 RMK AO2
14837KMSN MSN20030621222009306/21/03 22:20:31  5-MIN KMSN 220420Z 00000KT 10SM CLR 17/10 A2997 820 64 1200 000/00 RMK AO2
14837KMSN MSN20030621222509306/21/03 22:25:31  5-MIN KMSN 220425Z 00000KT 10SM CLR 17/09 A2997 810 62 1200 000/00 RMK AO2
14837KMSN MSN20030621223009306/21/03 22:30:31  5-MIN KMSN 220430Z 00000KT 10SM CLR 16/10 A2998 810 67 1200 000/00 RMK AO2
14837KMSN MSN20030621223509306/21/03 22:35:31  5-MIN KMSN 220435Z 00000KT 10SM CLR 16/09 A2998 810 64 1200 000/00 RMK AO2
14837KMSN MSN20030621224009306/21/03 22:40:31  5-MIN KMSN 220440Z 17003KT 10SM CLR 16/09 A2998 810 64 1200 170/03 RMK AO2
14837KMSN MSN20030621224509306/21/03 22:45:31  5-MIN KMSN 220445Z 00000KT 10SM CLR 16/10 A2998 810 69 1100 000/00 RMK AO2
14837KMSN MSN20030621225011006/21/03 22:50:31  5-MIN KMSN 220450Z 16005KT 10SM CLR 17/09 A2998 810 60 1300 160/05 RMK AO2 SLP146 T01720094
14837KMSN MSN20030621225509306/21/03 22:55:31  5-MIN KMSN 220455Z 16006KT 10SM CLR 18/10 A2998 810 60 1400 160/06 RMK AO2
14837KMSN MSN20030621230009306/21/03 23:00:31  5-MIN KMSN 220500Z 18004KT 10SM CLR 18/10 A2998 810 58 1400 180/04 RMK AO2
14837KMSN MSN20030621230509306/21/03 23:05:31  5-MIN KMSN 220505Z 17006KT 10SM CLR 18/10 A2998 810 58 1400 170/06 RMK AO2
14837KMSN MSN20030621231009306/21/03 23:10:31  5-MIN KMSN 220510Z 17006KT 10SM CLR 18/10 A2998 810 58 1400 170/06 RMK AO2
14837KMSN MSN20030621231509306/21/03 23:15:31  5-MIN KMSN 220515Z 16005KT 10SM CLR 18/10 A2998 810 60 1400 160/05 RMK AO2
14837KMSN MSN20030621232009306/21/03 23:20:31  5-MIN KMSN 220520Z 17005KT 10SM CLR 18/10 A2998 810 60 1400 170/05 RMK AO2
14837KMSN MSN20030621232509306/21/03 23:25:31  5-MIN KMSN 220525Z 17005KT 10SM CLR 18/11 A2997 820 62 1400 170/05 RMK AO2
14837KMSN MSN20030621233009306/21/03 23:30:31  5-MIN KMSN 220530Z 16005KT 10SM CLR 18/11 A2997 820 62 1400 160/05 RMK AO2
14837KMSN MSN20030621233509306/21/03 23:35:31  5-MIN KMSN 220535Z 16005KT 10SM CLR 18/11 A2997 820 62 1400 160/05 RMK AO2
14837KMSN MSN20030621234009306/21/03 23:40:31  5-MIN KMSN 220540Z 16006KT 10SM CLR 18/11 A2997 820 62 1400 160/06 RMK AO2
14837KMSN MSN20030621234509306/21/03 23:45:31  5-MIN KMSN 220545Z 16006KT 10SM CLR 17/11 A2997 820 64 1300 160/06 RMK AO2
14837KMSN MSN20030621235013806/21/03 23:50:31  5-MIN KMSN 220550Z 16006KT 10SM CLR 18/11 A2997 820 62 1400 160/06 RMK AO2 SLP145 T01780106 10256 20156 402720083 53002
14837KMSN MSN20030621235509306/21/03 23:55:31  5-MIN KMSN 220555Z 16004KT 10SM CLR 17/11 A2997 820 64 1300 160/04 RMK AO2
14837KMSN MSN20030622000009306/22/03 00:00:31  5-MIN KMSN 220600Z 16005KT 10SM CLR 17/11 A2997 810 64 1300 160/05 RMK AO2
14837KMSN MSN20030622000509306/22/03 00:05:31  5-MIN KMSN 220605Z 16006KT 10SM CLR 17/11 A2997 820 64 1300 160/06 RMK AO2
14837KMSN MSN20030622001009306/22/03 00:10:31  5-MIN KMSN 220610Z 16005KT 10SM CLR 17/11 A2997 810 64 1300 160/05 RMK AO2
14837KMSN MSN20030622001509306/22/03 00:15:31  5-MIN KMSN 220615Z 17005KT 10SM CLR 17/11 A2998 810 64 1300 160/05 RMK AO2
14837KMSN MSN20030622002009306/22/03 00:20:31  5-MIN KMSN 220620Z 16005KT 10SM CLR 17/11 A2998 810 64 1300 160/05 RMK AO2
14837KMSN MSN20030622002509306/22/03 00:25:31  5-MIN KMSN 220625Z 16005KT 10SM CLR 17/11 A2997 810 67 1200 160/05 RMK AO2
14837KMSN MSN20030622003009306/22/03 00:30:31  5-MIN KMSN 220630Z 16004KT 10SM CLR 17/11 A2997 810 67 1200 160/04 RMK AO2
14837KMSN MSN20030622003509306/22/03 00:35:31  5-MIN KMSN 220635Z 16005KT 10SM CLR 17/11 A2997 820 67 1200 160/05 RMK AO2
14837KMSN MSN20030622004009306/22/03 00:40:31  5-MIN KMSN 220640Z 16005KT 10SM CLR 17/11 A2997 820 67 1200 160/05 RMK AO2
14837KMSN MSN20030622004509306/22/03 00:45:31  5-MIN KMSN 220645Z 16005KT 10SM CLR 17/11 A2997 810 67 1200 160/05 RMK AO2
14837KMSN MSN20030622005011006/22/03 00:50:31  5-MIN KMSN 220650Z 16005KT 10SM CLR 17/11 A2997 810 67 1200 160/05 RMK AO2 SLP146 T01670106
14837KMSN MSN20030622005509306/22/03 00:55:31  5-MIN KMSN 220655Z 16005KT 10SM CLR 17/11 A2997 810 67 1200 160/05 RMK AO2
14837KMSN MSN20030622010009306/22/03 01:00:31  5-MIN KMSN 220700Z 17005KT 10SM CLR 17/11 A2998 810 67 1200 170/05 RMK AO2
14837KMSN MSN20030622010509306/22/03 01:05:31  5-MIN KMSN 220705Z 17005KT 10SM CLR 17/11 A2998 810 67 1200 170/05 RMK AO2
14837KMSN MSN20030622011009306/22/03 01:10:31  5-MIN KMSN 220710Z 17005KT 10SM CLR 17/11 A2998 810 67 1200 160/05 RMK AO2
14837KMSN MSN20030622011509306/22/03 01:15:31  5-MIN KMSN 220715Z 17003KT 10SM CLR 17/11 A2998 810 67 1200 170/03 RMK AO2
14837KMSN MSN20030622012009306/22/03 01:20:31  5-MIN KMSN 220720Z 18004KT 10SM CLR 16/11 A2998 810 72 1100 180/04 RMK AO2
14837KMSN MSN20030622012509306/22/03 01:25:31  5-MIN KMSN 220725Z VRB03KT 10SM CLR 15/11 A2998 810 74 1000 VRB/03 RMK AO2
14837KMSN MSN20030622013009306/22/03 01:30:31  5-MIN KMSN 220730Z 00000KT 10SM CLR 15/11 A2998 810 74 1000 000/00 RMK AO2
14837KMSN MSN20030622013509306/22/03 01:35:31  5-MIN KMSN 220735Z 00000KT 10SM CLR 15/11 A2998 810 74 1000 000/00 RMK AO2
14837KMSN MSN20030622014009306/22/03 01:40:31  5-MIN KMSN 220740Z 00000KT 10SM CLR 15/11 A2998 810 74 1000 000/00 RMK AO2
14837KMSN MSN20030622014509306/22/03 01:45:31  5-MIN KMSN 220745Z 00000KT 10SM CLR 14/11 A2998 810 77 1000 000/00 RMK AO2
14837KMSN MSN20030622015010906/22/03 01:50:31  5-MIN KMSN 220750Z 00000KT 10SM CLR 13/11 A2998 810 83 800 000/00 RMK AO2 SLP150 T01330106
14837KMSN MSN20030622015509206/22/03 01:55:31  5-MIN KMSN 220755Z 00000KT 10SM CLR 13/11 A2999 800 83 800 000/00 RMK AO2
14837KMSN MSN20030622020009206/22/03 02:00:31  5-MIN KMSN 220800Z 00000KT 10SM CLR 14/11 A2999 800 80 900 000/00 RMK AO2
14837KMSN MSN20030622020509206/22/03 02:05:31  5-MIN KMSN 220805Z 00000KT 10SM CLR 14/11 A2999 800 80 900 000/00 RMK AO2
14837KMSN MSN20030622021009306/22/03 02:10:31  5-MIN KMSN 220810Z 00000KT 10SM CLR 14/11 A2999 800 77 1000 000/00 RMK AO2
14837KMSN MSN20030622021509306/22/03 02:15:31  5-MIN KMSN 220815Z 21003KT 10SM CLR 15/11 A2999 800 74 1000 200/03 RMK AO2
14837KMSN MSN20030622022009306/22/03 02:20:31  5-MIN KMSN 220820Z 19004KT 10SM CLR 16/10 A2999 800 69 1100 180/04 RMK AO2
14837KMSN MSN20030622022509206/22/03 02:25:31  5-MIN KMSN 220825Z 00000KT 10SM CLR 14/10 A3000 800 77 900 000/00 RMK AO2
14837KMSN MSN20030622023009306/22/03 02:30:31  5-MIN KMSN 220830Z 20003KT 10SM CLR 14/11 A3000 790 77 1000 200/03 RMK AO2
14837KMSN MSN20030622023509306/22/03 02:35:31  5-MIN KMSN 220835Z 18004KT 10SM CLR 15/10 A3000 790 72 1000 180/04 RMK AO2
14837KMSN MSN20030622024009306/22/03 02:40:31  5-MIN KMSN 220840Z 17004KT 10SM CLR 16/10 A3000 790 67 1100 170/04 RMK AO2
14837KMSN MSN20030622024509306/22/03 02:45:31  5-MIN KMSN 220845Z 00000KT 10SM CLR 15/10 A3000 790 72 1000 000/00 RMK AO2
14837KMSN MSN20030622025011606/22/03 02:50:31  5-MIN KMSN 220850Z 00000KT 10SM CLR 16/10 A3000 790 67 1100 000/00 RMK AO2 SLP154 T01610100 56005
14837KMSN MSN20030622025509306/22/03 02:55:31  5-MIN KMSN 220855Z 17003KT 10SM CLR 16/10 A3000 790 67 1100 170/03 RMK AO2
14837KMSN MSN20030622030009306/22/03 03:00:31  5-MIN KMSN 220900Z 16004KT 10SM CLR 16/10 A3000 790 69 1100 160/04 RMK AO2
14837KMSN MSN20030622030509306/22/03 03:05:31  5-MIN KMSN 220905Z 16004KT 10SM CLR 14/10 A3000 790 74 1000 160/04 RMK AO2
14837KMSN MSN20030622031009306/22/03 03:10:31  5-MIN KMSN 220910Z 00000KT 10SM CLR 14/10 A3000 790 74 1000 000/00 RMK AO2
14837KMSN MSN20030622031509306/22/03 03:15:31  5-MIN KMSN 220915Z 00000KT 10SM CLR 15/10 A3000 790 72 1000 000/00 RMK AO2
14837KMSN MSN20030622032009306/22/03 03:20:31  5-MIN KMSN 220920Z 17003KT 10SM CLR 15/10 A3000 790 72 1000 170/03 RMK AO2
14837KMSN MSN20030622032509306/22/03 03:25:31  5-MIN KMSN 220925Z 17004KT 10SM CLR 15/10 A3000 790 72 1000 170/04 RMK AO2
14837KMSN MSN20030622033009206/22/03 03:30:31  5-MIN KMSN 220930Z 17004KT 10SM CLR 14/10 A3000 790 77 900 170/04 RMK AO2
14837KMSN MSN20030622033509206/22/03 03:35:31  5-MIN KMSN 220935Z 18004KT 10SM CLR 14/10 A3000 790 74 900 180/04 RMK AO2
14837KMSN MSN20030622034009306/22/03 03:40:31  5-MIN KMSN 220940Z 18004KT 10SM CLR 15/10 A3001 780 72 1000 180/04 RMK AO2
14837KMSN MSN20030622034509306/22/03 03:45:31  5-MIN KMSN 220945Z 18004KT 10SM CLR 16/10 A3001 780 69 1100 180/04 RMK AO2
14837KMSN MSN20030622035010906/22/03 03:50:31  5-MIN KMSN 220950Z 17004KT 10SM CLR 14/10 A3001 780 77 900 170/04 RMK AO2 SLP158 T01390100
14837KMSN MSN20030622035509106/22/03 03:55:31  5-MIN KMSN 220955Z 00000KT 9SM CLR 14/10 A3001 780 74 900 000/00 RMK AO2
14837KMSN MSN20030622040009106/22/03 04:00:31  5-MIN KMSN 221000Z 00000KT 9SM CLR 14/10 A3001 780 74 900 000/00 RMK AO2
14837KMSN MSN20030622040509106/22/03 04:05:31  5-MIN KMSN 221005Z 00000KT 9SM CLR 14/09 A3001 780 74 900 000/00 RMK AO2
14837KMSN MSN20030622041009106/22/03 04:10:31  5-MIN KMSN 221010Z 00000KT 8SM CLR 13/09 A3001 780 80 700 000/00 RMK AO2
14837KMSN MSN20030622041509106/22/03 04:15:31  5-MIN KMSN 221015Z 00000KT 7SM CLR 13/10 A3001 780 83 700 000/00 RMK AO2
14837KMSN MSN20030622042009106/22/03 04:20:31  5-MIN KMSN 221020Z 00000KT 7SM CLR 13/10 A3001 780 83 700 000/00 RMK AO2
14837KMSN MSN20030622042509106/22/03 04:25:31  5-MIN KMSN 221025Z 00000KT 7SM CLR 12/10 A3001 780 86 700 000/00 RMK AO2
14837KMSN MSN20030622043009106/22/03 04:30:31  5-MIN KMSN 221030Z 00000KT 7SM CLR 12/10 A3001 780 89 600 000/00 RMK AO2
14837KMSN MSN20030622043509106/22/03 04:35:31  5-MIN KMSN 221035Z 00000KT 7SM CLR 12/10 A3001 780 89 600 000/00 RMK AO2
14837KMSN MSN20030622044009106/22/03 04:40:31  5-MIN KMSN 221040Z 00000KT 7SM CLR 12/10 A3001 780 86 700 000/00 RMK AO2
14837KMSN MSN20030622044509106/22/03 04:45:31  5-MIN KMSN 221045Z 00000KT 7SM CLR 12/10 A3001 780 86 700 000/00 RMK AO2
14837KMSN MSN20030622045010806/22/03 04:50:31  5-MIN KMSN 221050Z 00000KT 7SM CLR 12/10 A3001 780 86 700 000/00 RMK AO2 SLP160 T01220100
14837KMSN MSN20030622045509106/22/03 04:55:31  5-MIN KMSN 221055Z 00000KT 7SM CLR 12/10 A3001 780 86 700 000/00 RMK AO2
14837KMSN MSN20030622050009106/22/03 05:00:31  5-MIN KMSN 221100Z 00000KT 7SM CLR 13/10 A3001 780 83 700 000/00 RMK AO2
14837KMSN MSN20030622050509106/22/03 05:05:31  5-MIN KMSN 221105Z 13003KT 7SM CLR 12/09 A3000 790 80 700 130/03 RMK AO2
14837KMSN MSN20030622051009106/22/03 05:10:31  5-MIN KMSN 221110Z 13003KT 8SM CLR 12/09 A3000 790 80 700 130/03 RMK AO2
14837KMSN MSN20030622051509106/22/03 05:15:31  5-MIN KMSN 221115Z 15003KT 8SM CLR 13/09 A3000 790 80 700 140/03 RMK AO2
14837KMSN MSN20030622052009106/22/03 05:20:31  5-MIN KMSN 221120Z 16003KT 8SM CLR 14/10 A3000 790 74 900 150/03 RMK AO2
14837KMSN MSN20030622052509106/22/03 05:25:31  5-MIN KMSN 221125Z 16003KT 8SM CLR 14/10 A3000 790 74 900 160/03 RMK AO2
14837KMSN MSN20030622053009206/22/03 05:30:31  5-MIN KMSN 221130Z 17005KT 8SM CLR 16/11 A3000 790 72 1100 170/05 RMK AO2
14837KMSN MSN20030622053509206/22/03 05:35:31  5-MIN KMSN 221135Z 18006KT 8SM CLR 16/11 A3000 790 69 1100 180/06 RMK AO2
14837KMSN MSN20030622054009206/22/03 05:40:31  5-MIN KMSN 221140Z 16006KT 8SM CLR 16/11 A3000 790 69 1100 160/06 RMK AO2
14837KMSN MSN20030622054509206/22/03 05:45:31  5-MIN KMSN 221145Z 17006KT 8SM CLR 16/11 A3000 790 69 1100 170/06 RMK AO2
14837KMSN MSN20030622055012806/22/03 05:50:31  5-MIN KMSN 221150Z 18006KT 10SM CLR 16/11 A3001 790 69 1100 180/06 RMK AO2 SLP157 T01610106 10172 20117 53009
14837KMSN MSN20030622055509206/22/03 05:55:31  5-MIN KMSN 221155Z 18007KT 8SM CLR 17/10 A3001 780 64 1200 180/07 RMK AO2
14837KMSN MSN20030622060009206/22/03 06:00:31  5-MIN KMSN 221200Z 16006KT 8SM CLR 17/10 A3000 790 64 1200 160/06 RMK AO2
14837KMSN MSN20030622060509206/22/03 06:05:31  5-MIN KMSN 221205Z 17006KT 8SM CLR 17/11 A3000 790 67 1200 160/06 RMK AO2
14837KMSN MSN20030622061009206/22/03 06:10:31  5-MIN KMSN 221210Z 18006KT 8SM CLR 17/11 A3001 790 64 1300 180/06 RMK AO2
14837KMSN MSN20030622061509206/22/03 06:15:31  5-MIN KMSN 221215Z 17006KT 9SM CLR 17/11 A3001 780 64 1300 170/06 RMK AO2
14837KMSN MSN20030622062009206/22/03 06:20:31  5-MIN KMSN 221220Z 17006KT 9SM CLR 18/11 A3001 780 62 1300 170/06 RMK AO2
14837KMSN MSN20030622062509206/22/03 06:25:31  5-MIN KMSN 221225Z 17006KT 9SM CLR 18/11 A3001 780 64 1300 170/06 RMK AO2
14837KMSN MSN20030622063009306/22/03 06:30:31  5-MIN KMSN 221230Z 18005KT 10SM CLR 18/11 A3001 780 62 1400 180/05 RMK AO2
14837KMSN MSN20030622063509206/22/03 06:35:31  5-MIN KMSN 221235Z 17006KT 9SM CLR 18/11 A3001 780 62 1400 160/06 RMK AO2
14837KMSN MSN20030622064009206/22/03 06:40:31  5-MIN KMSN 221240Z 16006KT 9SM CLR 18/11 A3001 780 62 1400 160/06 RMK AO2
14837KMSN MSN20030622064509206/22/03 06:45:31  5-MIN KMSN 221245Z 15006KT 9SM CLR 18/12 A3001 780 65 1400 150/06 RMK AO2
14837KMSN MSN20030622065011006/22/03 06:50:31  5-MIN KMSN 221250Z 16005KT 10SM CLR 19/12 A3002 780 62 1500 160/05 RMK AO2 SLP160 T01890117
14837KMSN MSN20030622065509306/22/03 06:55:31  5-MIN KMSN 221255Z 17005KT 10SM CLR 19/11 A3002 780 60 1500 160/05 RMK AO2
14837KMSN MSN20030622070009306/22/03 07:00:31  5-MIN KMSN 221300Z 17005KT 10SM CLR 19/12 A3001 780 62 1500 170/05 RMK AO2
14837KMSN MSN20030622070509306/22/03 07:05:31  5-MIN KMSN 221305Z 16005KT 10SM CLR 19/12 A3001 780 60 1500 160/05 RMK AO2
14837KMSN MSN20030622071009306/22/03 07:10:31  5-MIN KMSN 221310Z 16005KT 10SM CLR 20/12 A3001 780 58 1600 160/05 RMK AO2
14837KMSN MSN20030622071509306/22/03 07:15:31  5-MIN KMSN 221315Z 17004KT 10SM CLR 20/12 A3001 780 58 1600 170/04 RMK AO2
14837KMSN MSN20030622072009306/22/03 07:20:31  5-MIN KMSN 221320Z 17005KT 10SM CLR 20/12 A3001 780 58 1600 170/05 RMK AO2
14837KMSN MSN20030622072509306/22/03 07:25:31  5-MIN KMSN 221325Z 16005KT 10SM CLR 21/12 A3001 780 56 1600 150/05 RMK AO2
14837KMSN MSN20030622073009306/22/03 07:30:31  5-MIN KMSN 221330Z 16005KT 10SM CLR 21/12 A3001 780 56 1600 160/05 RMK AO2
14837KMSN MSN20030622073509306/22/03 07:35:31  5-MIN KMSN 221335Z 15006KT 10SM CLR 21/12 A3001 780 54 1700 150/06 RMK AO2
14837KMSN MSN20030622074009306/22/03 07:40:31  5-MIN KMSN 221340Z 15006KT 10SM CLR 21/12 A3001 780 56 1700 150/06 RMK AO2
14837KMSN MSN20030622074509306/22/03 07:45:31  5-MIN KMSN 221345Z 18006KT 10SM CLR 22/12 A3001 780 54 1800 170/06 RMK AO2
14837KMSN MSN20030622075011006/22/03 07:50:31  5-MIN KMSN 221350Z 16007KT 10SM CLR 22/12 A3001 780 54 1800 160/07 RMK AO2 SLP158 T02170122
14837KMSN MSN20030622075509306/22/03 07:55:31  5-MIN KMSN 221355Z 16006KT 10SM CLR 22/12 A3001 780 52 1800 160/06 RMK AO2
14837KMSN MSN20030622080009306/22/03 08:00:31  5-MIN KMSN 221400Z 17006KT 10SM CLR 22/12 A3001 780 52 1800 170/06 RMK AO2
14837KMSN MSN20030622080509306/22/03 08:05:31  5-MIN KMSN 221405Z 18008KT 10SM CLR 22/12 A3001 780 51 1800 180/08 RMK AO2
14837KMSN MSN20030622081009306/22/03 08:10:31  5-MIN KMSN 221410Z 18008KT 10SM CLR 23/12 A3001 780 49 1900 170/08 RMK AO2
14837KMSN MSN20030622081509306/22/03 08:15:31  5-MIN KMSN 221415Z 19009KT 10SM CLR 23/12 A3001 780 49 2000 190/09 RMK AO2
14837KMSN MSN20030622082009306/22/03 08:20:31  5-MIN KMSN 221420Z 16006KT 10SM CLR 23/12 A3001 780 51 1900 160/06 RMK AO2
14837KMSN MSN20030622082509306/22/03 08:25:31  5-MIN KMSN 221425Z 16008KT 10SM CLR 23/12 A3000 790 49 2000 160/08 RMK AO2
14837KMSN MSN20030622083009306/22/03 08:30:31  5-MIN KMSN 221430Z 16008KT 10SM CLR 23/13 A3001 790 51 2000 160/08 RMK AO2
14837KMSN MSN20030622083509306/22/03 08:35:31  5-MIN KMSN 221435Z 17007KT 10SM CLR 23/13 A3001 790 51 2000 170/07 RMK AO2
14837KMSN MSN20030622084009306/22/03 08:40:31  5-MIN KMSN 221440Z 18006KT 10SM CLR 24/12 A3000 790 47 2000 180/06 RMK AO2
14837KMSN MSN20030622084509306/22/03 08:45:31  5-MIN KMSN 221445Z 18007KT 10SM CLR 24/12 A3001 780 47 2000 180/07 RMK AO2
14837KMSN MSN20030622085011606/22/03 08:50:31  5-MIN KMSN 221450Z 17007KT 10SM CLR 23/12 A3001 780 49 2000 170/07 RMK AO2 SLP157 T02330122 50002
14837KMSN MSN20030622085509306/22/03 08:55:31  5-MIN KMSN 221455Z 16007KT 10SM CLR 24/12 A3001 780 47 2000 160/07 RMK AO2
14837KMSN MSN20030622090009306/22/03 09:00:31  5-MIN KMSN 221500Z 19005KT 10SM CLR 24/13 A3001 780 49 2000 180/05 RMK AO2
14837KMSN MSN20030622090510906/22/03 09:05:31  5-MIN KMSN 221505Z 18008KT 150V220 10SM CLR 24/13 A3001 780 47 2100 180/08 150V220 RMK AO2
14837KMSN MSN20030622091009306/22/03 09:10:31  5-MIN KMSN 221510Z 18007KT 10SM CLR 24/12 A3001 780 46 2100 180/07 RMK AO2
14837KMSN MSN20030622091509306/22/03 09:15:31  5-MIN KMSN 221515Z 21007KT 10SM CLR 26/12 A3001 780 43 2200 210/07 RMK AO2
14837KMSN MSN20030622092009306/22/03 09:20:31  5-MIN KMSN 221520Z 20008KT 10SM CLR 25/11 A3001 780 41 2200 200/08 RMK AO2
14837KMSN MSN20030622092509306/22/03 09:25:31  5-MIN KMSN 221525Z 22010KT 10SM CLR 25/11 A3001 780 41 2200 220/10 RMK AO2
14837KMSN MSN20030622093009306/22/03 09:30:31  5-MIN KMSN 221530Z 22010KT 10SM CLR 25/11 A3001 790 39 2200 220/10 RMK AO2
14837KMSN MSN20030622093509306/22/03 09:35:31  5-MIN KMSN 221535Z 21010KT 10SM CLR 26/11 A3001 790 38 2200 200/10 RMK AO2
14837KMSN MSN20030622094009306/22/03 09:40:31  5-MIN KMSN 221540Z VRB06KT 10SM CLR 26/11 A3001 790 40 2200 VRB/06 RMK AO2
14837KMSN MSN20030622094509306/22/03 09:45:31  5-MIN KMSN 221545Z 22009KT 10SM CLR 26/11 A3001 780 40 2200 220/09 RMK AO2
14837KMSN MSN20030622095011006/22/03 09:50:31  5-MIN KMSN 221550Z 21007KT 10SM CLR 25/11 A3000 790 39 2200 210/07 RMK AO2 SLP156 T02500106
14837KMSN MSN20030622095509906/22/03 09:55:31  5-MIN KMSN 221555Z 19010G15KT 10SM CLR 26/11 A3000 790 37 2300 180/10G15 RMK AO2
14837KMSN MSN20030622100009906/22/03 10:00:31  5-MIN KMSN 221600Z 19007G15KT 10SM CLR 26/11 A3000 790 38 2300 190/07G15 RMK AO2
14837KMSN MSN20030622100509906/22/03 10:05:31  5-MIN KMSN 221605Z 21008G15KT 10SM CLR 26/11 A3000 790 37 2300 210/08G15 RMK AO2
14837KMSN MSN20030622101009906/22/03 10:10:31  5-MIN KMSN 221610Z 18010G15KT 10SM CLR 27/11 A3000 790 36 2400 180/10G15 RMK AO2
14837KMSN MSN20030622101509306/22/03 10:15:31  5-MIN KMSN 221615Z 17011KT 10SM CLR 26/11 A3000 790 38 2300 160/11 RMK AO2
14837KMSN MSN20030622102009306/22/03 10:20:31  5-MIN KMSN 221620Z 18011KT 10SM CLR 26/11 A3000 790 38 2200 180/11 RMK AO2
14837KMSN MSN20030622102510906/22/03 10:25:31  5-MIN KMSN 221625Z 19009KT 160V240 10SM CLR 26/11 A3000 790 37 2300 190/09 160V240 RMK AO2
14837KMSN MSN20030622103009906/22/03 10:30:31  5-MIN KMSN 221630Z VRB06G16KT 10SM CLR 27/11 A3000 790 36 2400 VRB/06G16 RMK AO2
14837KMSN MSN20030622103509906/22/03 10:35:31  5-MIN KMSN 221635Z 18011G14KT 10SM CLR 27/11 A3000 790 36 2400 180/11G14 RMK AO2
14837KMSN MSN20030622104009306/22/03 10:40:31  5-MIN KMSN 221640Z 17010KT 10SM CLR 26/11 A3000 790 38 2300 170/10 RMK AO2
14837KMSN MSN20030622104509906/22/03 10:45:31  5-MIN KMSN 221645Z 18009G16KT 10SM CLR 27/11 A3000 790 37 2400 180/09G16 RMK AO2
14837KMSN MSN20030622105011006/22/03 10:50:31  5-MIN KMSN 221650Z 18008KT 10SM CLR 27/12 A3000 790 38 2400 180/08 RMK AO2 SLP154 T02670117
14837KMSN MSN20030622105509906/22/03 10:55:31  5-MIN KMSN 221655Z 18009G14KT 10SM CLR 27/12 A3000 790 39 2400 180/09G14 RMK AO2
14837KMSN MSN20030622110009906/22/03 11:00:31  5-MIN KMSN 221700Z 16009G14KT 10SM CLR 27/12 A2999 800 40 2400 160/09G14 RMK AO2
14837KMSN MSN20030622110509306/22/03 11:05:31  5-MIN KMSN 221705Z 17011KT 10SM CLR 27/12 A2999 800 37 2400 170/11 RMK AO2
14837KMSN MSN20030622111009306/22/03 11:10:31  5-MIN KMSN 221710Z 17010KT 10SM CLR 27/12 A2999 800 37 2400 170/10 RMK AO2
14837KMSN MSN20030622111509306/22/03 11:15:31  5-MIN KMSN 221715Z 22008KT 10SM CLR 28/11 A2999 800 35 2500 220/08 RMK AO2
14837KMSN MSN20030622112009306/22/03 11:20:31  5-MIN KMSN 221720Z 22009KT 10SM CLR 27/11 A2999 800 37 2400 220/09 RMK AO2
14837KMSN MSN20030622112509906/22/03 11:25:31  5-MIN KMSN 221725Z 16010G14KT 10SM CLR 27/12 A2999 800 37 2400 160/10G14 RMK AO2
14837KMSN MSN20030622113009906/22/03 11:30:31  5-MIN KMSN 221730Z 18011G16KT 10SM CLR 28/12 A2999 800 37 2500 180/11G16 RMK AO2
14837KMSN MSN20030622113509906/22/03 11:35:31  5-MIN KMSN 221735Z 20007G16KT 10SM CLR 28/12 A2999 800 36 2500 200/07G16 RMK AO2
14837KMSN MSN20030622114010906/22/03 11:40:31  5-MIN KMSN 221740Z 19008KT 130V230 10SM CLR 28/12 A2999 800 36 2500 190/08 130V230 RMK AO2
14837KMSN MSN20030622114509306/22/03 11:45:31  5-MIN KMSN 221745Z 18013KT 10SM CLR 28/11 A2998 800 35 2500 180/13 RMK AO2
14837KMSN MSN20030622115013406/22/03 11:50:31  5-MIN KMSN 221750Z 19012G15KT 10SM CLR 28/10 A2998 810 32 2500 190/12G15 RMK AO2 SLP148 T02780100 10278 20167 50000
14837KMSN MSN20030622115509306/22/03 11:55:31  5-MIN KMSN 221755Z 17012KT 10SM CLR 28/11 A2998 810 33 2500 170/12 RMK AO2
14837KMSN MSN20030622120009306/22/03 12:00:31  5-MIN KMSN 221800Z 18011KT 10SM CLR 28/10 A2998 810 32 2500 180/11 RMK AO2
14837KMSN MSN20030622120509306/22/03 12:05:31  5-MIN KMSN 221805Z 18012KT 10SM CLR 28/11 A2998 810 33 2600 180/12 RMK AO2
14837KMSN MSN20030622121009306/22/03 12:10:31  5-MIN KMSN 221810Z 19008KT 10SM CLR 28/11 A2998 810 33 2600 180/08 RMK AO2
14837KMSN MSN20030622121509306/22/03 12:15:31  5-MIN KMSN 221815Z 18010KT 10SM CLR 28/12 A2997 810 35 2600 180/10 RMK AO2
14837KMSN MSN20030622122009306/22/03 12:20:31  5-MIN KMSN 221820Z 15011KT 10SM CLR 28/11 A2997 820 33 2600 150/11 RMK AO2
14837KMSN MSN20030622122509906/22/03 12:25:31  5-MIN KMSN 221825Z 17012G16KT 10SM CLR 29/12 A2997 820 34 2600 160/12G16 RMK AO2
14837KMSN MSN20030622123009306/22/03 12:30:31  5-MIN KMSN 221830Z 16011KT 10SM CLR 28/12 A2997 820 35 2600 160/11 RMK AO2
14837KMSN MSN20030622123509306/22/03 12:35:31  5-MIN KMSN 221835Z 18012KT 10SM CLR 28/12 A2996 820 35 2600 180/12 RMK AO2
14837KMSN MSN20030622124009906/22/03 12:40:31  5-MIN KMSN 221840Z 18012G16KT 10SM CLR 29/11 A2996 820 31 2600 180/12G16 RMK AO2
14837KMSN MSN20030622124509906/22/03 12:45:31  5-MIN KMSN 221845Z 18011G16KT 10SM CLR 29/10 A2996 830 30 2600 180/11G16 RMK AO2
14837KMSN MSN20030622125011606/22/03 12:50:31  5-MIN KMSN 221850Z 18012G16KT 10SM CLR 29/10 A2996 830 30 2600 180/12G16 RMK AO2 SLP140 T02890100
14837KMSN MSN20030622125509306/22/03 12:55:31  5-MIN KMSN 221855Z 21009KT 10SM CLR 28/10 A2996 830 31 2600 210/09 RMK AO2
14837KMSN MSN20030622130009306/22/03 13:00:31  5-MIN KMSN 221900Z 18012KT 10SM CLR 29/10 A2996 830 30 2700 180/12 RMK AO2
14837KMSN MSN20030622130509306/22/03 13:05:31  5-MIN KMSN 221905Z 20010KT 10SM CLR 29/09 A2996 830 29 2700 200/10 RMK AO2
14837KMSN MSN20030622131009906/22/03 13:10:31  5-MIN KMSN 221910Z 18012G17KT 10SM CLR 29/09 A2995 830 29 2700 180/12G17 RMK AO2
14837KMSN MSN20030622131509306/22/03 13:15:31  5-MIN KMSN 221915Z 21009KT 10SM CLR 29/09 A2995 830 29 2700 210/09 RMK AO2
14837KMSN MSN20030622132010906/22/03 13:20:31  5-MIN KMSN 221920Z 20008KT 170V240 10SM CLR 29/09 A2995 840 28 2700 200/08 170V240 RMK AO2
14837KMSN MSN20030622132509906/22/03 13:25:31  5-MIN KMSN 221925Z 20008G15KT 10SM CLR 29/09 A2995 840 29 2700 200/08G15 RMK AO2
14837KMSN MSN20030622133009906/22/03 13:30:31  5-MIN KMSN 221930Z 17011G15KT 10SM CLR 29/10 A2995 840 30 2700 170/11G15 RMK AO2
14837KMSN MSN20030622133509306/22/03 13:35:31  5-MIN KMSN 221935Z 19009KT 10SM CLR 29/10 A2995 840 29 2700 190/09 RMK AO2
14837KMSN MSN20030622134009306/22/03 13:40:31  5-MIN KMSN 221940Z 22010KT 10SM CLR 29/09 A2995 840 28 2700 220/10 RMK AO2
14837KMSN MSN20030622134509306/22/03 13:45:31  5-MIN KMSN 221945Z 16010KT 10SM CLR 29/11 A2995 840 30 2700 160/10 RMK AO2
14837KMSN MSN20030622135012606/22/03 13:50:31  5-MIN KMSN 221950Z 19011KT 170V240 10SM CLR 29/11 A2995 840 31 2700 190/11 170V240 RMK AO2 SLP137 T02940111
14837KMSN MSN20030622135509306/22/03 13:55:31  5-MIN KMSN 221955Z 21008KT 10SM CLR 29/09 A2995 840 28 2700 210/08 RMK AO2
14837KMSN MSN20030622140009306/22/03 14:00:31  5-MIN KMSN 222000Z 18009KT 10SM CLR 29/09 A2995 840 27 2700 180/09 RMK AO2
14837KMSN MSN20030622140509306/22/03 14:05:31  5-MIN KMSN 222005Z 20009KT 10SM CLR 29/10 A2995 840 29 2700 200/09 RMK AO2
14837KMSN MSN20030622141009306/22/03 14:10:31  5-MIN KMSN 222010Z 18009KT 10SM CLR 29/09 A2995 840 29 2700 180/09 RMK AO2
14837KMSN MSN20030622141509306/22/03 14:15:31  5-MIN KMSN 222015Z 17010KT 10SM CLR 29/11 A2994 840 30 2700 170/10 RMK AO2
14837KMSN MSN20030622142009906/22/03 14:20:31  5-MIN KMSN 222020Z 19011G17KT 10SM CLR 30/10 A2995 840 28 2800 190/11G17 RMK AO2
14837KMSN MSN20030622142509906/22/03 14:25:31  5-MIN KMSN 222025Z 18011G17KT 10SM CLR 29/09 A2995 840 28 2700 180/11G17 RMK AO2
14837KMSN MSN20030622143009906/22/03 14:30:31  5-MIN KMSN 222030Z 18011G14KT 10SM CLR 30/09 A2995 840 27 2800 180/11G14 RMK AO2
14837KMSN MSN20030622143509906/22/03 14:35:31  5-MIN KMSN 222035Z 20010G14KT 10SM CLR 29/09 A2994 840 28 2700 200/10G14 RMK AO2
14837KMSN MSN20030622144009306/22/03 14:40:31  5-MIN KMSN 222040Z 18008KT 10SM CLR 30/10 A2994 840 28 2800 180/08 RMK AO2
14837KMSN MSN20030622144509306/22/03 14:45:31  5-MIN KMSN 222045Z 17012KT 10SM CLR 30/09 A2994 840 26 2800 170/12 RMK AO2
14837KMSN MSN20030622145011606/22/03 14:50:31  5-MIN KMSN 222050Z 20011KT 10SM CLR 29/08 A2994 840 26 2700 200/11 RMK AO2 SLP135 T02940083 58008
14837KMSN MSN20030622145509306/22/03 14:55:31  5-MIN KMSN 222055Z 22009KT 10SM CLR 29/08 A2994 840 26 2700 210/09 RMK AO2
14837KMSN MSN20030622150009306/22/03 15:00:31  5-MIN KMSN 222100Z 21009KT 10SM CLR 29/09 A2994 850 27 2700 210/09 RMK AO2
14837KMSN MSN20030622150509306/22/03 15:05:31  5-MIN KMSN 222105Z 21008KT 10SM CLR 30/08 A2994 850 25 2800 210/08 RMK AO2
14837KMSN MSN20030622151009306/22/03 15:10:31  5-MIN KMSN 222110Z 18009KT 10SM CLR 30/09 A2993 850 27 2800 180/09 RMK AO2
14837KMSN MSN20030622151509306/22/03 15:15:31  5-MIN KMSN 222115Z 20010KT 10SM CLR 30/09 A2994 850 27 2800 200/10 RMK AO2
14837KMSN MSN20030622152010906/22/03 15:20:31  5-MIN KMSN 222120Z 20008KT 180V240 10SM CLR 29/09 A2993 850 28 2700 200/08 180V240 RMK AO2
14837KMSN MSN20030622152509306/22/03 15:25:31  5-MIN KMSN 222125Z 17011KT 10SM CLR 30/09 A2993 850 27 2800 170/11 RMK AO2
14837KMSN MSN20030622153009306/22/03 15:30:31  5-MIN KMSN 222130Z 19009KT 10SM CLR 31/09 A2993 850 26 2900 190/09 RMK AO2
14837KMSN MSN20030622153510906/22/03 15:35:31  5-MIN KMSN 222135Z 19010KT 160V230 10SM CLR 31/09 A2993 860 26 2900 190/10 160V230 RMK AO2
14837KMSN MSN20030622154010906/22/03 15:40:31  5-MIN KMSN 222140Z 19009KT 170V230 10SM CLR 30/09 A2993 860 27 2800 190/09 170V230 RMK AO2
14837KMSN MSN20030622154509906/22/03 15:45:31  5-MIN KMSN 222145Z 19009G15KT 10SM CLR 30/09 A2992 860 26 2800 190/09G15 RMK AO2
14837KMSN MSN20030622155011606/22/03 15:50:31  5-MIN KMSN 222150Z 19008G15KT 10SM CLR 30/09 A2992 860 27 2800 190/08G15 RMK AO2 SLP128 T03000094
14837KMSN MSN20030622155509906/22/03 15:55:31  5-MIN KMSN 222155Z 18013G16KT 10SM CLR 29/09 A2992 860 27 2800 180/13G16 RMK AO2
14837KMSN MSN20030622160009906/22/03 16:00:31  5-MIN KMSN 222200Z 17009G16KT 10SM CLR 28/09 A2992 870 30 2600 170/09G16 RMK AO2
14837KMSN MSN20030622160509306/22/03 16:05:31  5-MIN KMSN 222205Z 16013KT 10SM CLR 28/09 A2991 870 30 2600 160/13 RMK AO2
14837KMSN MSN20030622161009306/22/03 16:10:31  5-MIN KMSN 222210Z 17012KT 10SM CLR 28/09 A2991 870 30 2600 170/12 RMK AO2
14837KMSN MSN20030622161509306/22/03 16:15:31  5-MIN KMSN 222215Z 18010KT 10SM CLR 29/09 A2991 880 29 2700 180/10 RMK AO2
14837KMSN MSN20030622162009306/22/03 16:20:31  5-MIN KMSN 222220Z 17011KT 10SM CLR 29/10 A2990 880 29 2800 170/11 RMK AO2
14837KMSN MSN20030622162509306/22/03 16:25:31  5-MIN KMSN 222225Z 18011KT 10SM CLR 29/10 A2990 880 29 2800 180/11 RMK AO2
14837KMSN MSN20030622163009306/22/03 16:30:31  5-MIN KMSN 222230Z 19013KT 10SM CLR 29/09 A2990 880 28 2800 190/13 RMK AO2
14837KMSN MSN20030622163509306/22/03 16:35:31  5-MIN KMSN 222235Z 19011KT 10SM CLR 30/09 A2990 880 27 2800 190/11 RMK AO2
14837KMSN MSN20030622164009306/22/03 16:40:31  5-MIN KMSN 222240Z 19011KT 10SM CLR 29/08 A2990 880 26 2800 190/11 RMK AO2
14837KMSN MSN20030622164509306/22/03 16:45:31  5-MIN KMSN 222245Z 17012KT 10SM CLR 29/08 A2989 890 25 2800 170/12 RMK AO2
14837KMSN MSN20030622165011006/22/03 16:50:31  5-MIN KMSN 222250Z 19011KT 10SM CLR 29/08 A2989 890 26 2700 190/11 RMK AO2 SLP119 T02890078
14837KMSN MSN20030622165509306/22/03 16:55:31  5-MIN KMSN 222255Z 18010KT 10SM CLR 29/07 A2989 890 25 2700 180/10 RMK AO2
14837KMSN MSN20030622170009306/22/03 17:00:31  5-MIN KMSN 222300Z 18009KT 10SM CLR 29/08 A2989 890 26 2700 180/09 RMK AO2
14837KMSN MSN20030622170509306/22/03 17:05:31  5-MIN KMSN 222305Z 19008KT 10SM CLR 29/08 A2989 890 27 2700 190/08 RMK AO2
14837KMSN MSN20030622171009306/22/03 17:10:31  5-MIN KMSN 222310Z 20010KT 10SM CLR 29/09 A2989 890 28 2700 200/10 RMK AO2
14837KMSN MSN20030622171509306/22/03 17:15:31  5-MIN KMSN 222315Z 17012KT 10SM CLR 29/08 A2988 900 27 2700 170/12 RMK AO2
14837KMSN MSN20030622172009306/22/03 17:20:31  5-MIN KMSN 222320Z 17011KT 10SM CLR 29/09 A2988 900 28 2700 170/11 RMK AO2
14837KMSN MSN20030622172509306/22/03 17:25:31  5-MIN KMSN 222325Z 16013KT 10SM CLR 29/11 A2988 900 31 2700 160/13 RMK AO2
14837KMSN MSN20030622173009306/22/03 17:30:31  5-MIN KMSN 222330Z 15014KT 10SM CLR 28/11 A2987 910 32 2700 150/14 RMK AO2
14837KMSN MSN20030622173509306/22/03 17:35:31  5-MIN KMSN 222335Z 17012KT 10SM CLR 28/10 A2987 910 31 2700 170/12 RMK AO2
14837KMSN MSN20030622174009306/22/03 17:40:31  5-MIN KMSN 222340Z 17013KT 10SM CLR 29/10 A2987 910 30 2700 170/13 RMK AO2
14837KMSN MSN20030622174509306/22/03 17:45:31  5-MIN KMSN 222345Z 16014KT 10SM CLR 28/10 A2987 910 31 2700 160/14 RMK AO2
14837KMSN MSN20030622175012806/22/03 17:50:31  5-MIN KMSN 222350Z 17013KT 10SM CLR 28/10 A2987 910 31 2700 170/13 RMK AO2 SLP110 T02830100 10306 20278 56013
14837KMSN MSN20030622175509306/22/03 17:55:31  5-MIN KMSN 222355Z 17010KT 10SM CLR 28/10 A2987 910 31 2700 170/10 RMK AO2
14837KMSN MSN20030622180009306/22/03 18:00:31  5-MIN KMSN 230000Z 18010KT 10SM CLR 28/10 A2987 910 31 2700 180/10 RMK AO2
14837KMSN MSN20030622180509306/22/03 18:05:31  5-MIN KMSN 230005Z 16013KT 10SM CLR 28/10 A2987 910 31 2700 160/13 RMK AO2
14837KMSN MSN20030622181009306/22/03 18:10:31  5-MIN KMSN 230010Z 17009KT 10SM CLR 28/10 A2987 910 31 2700 170/09 RMK AO2
14837KMSN MSN20030622181509306/22/03 18:15:31  5-MIN KMSN 230015Z 17011KT 10SM CLR 28/10 A2987 910 32 2600 170/11 RMK AO2
14837KMSN MSN20030622182009306/22/03 18:20:31  5-MIN KMSN 230020Z 17010KT 10SM CLR 28/09 A2987 920 31 2600 170/10 RMK AO2
14837KMSN MSN20030622182509306/22/03 18:25:31  5-MIN KMSN 230025Z 16012KT 10SM CLR 28/09 A2986 920 31 2600 160/12 RMK AO2
14837KMSN MSN20030622183009306/22/03 18:30:31  5-MIN KMSN 230030Z 17011KT 10SM CLR 27/09 A2986 920 32 2600 170/11 RMK AO2
14837KMSN MSN20030622183509306/22/03 18:35:31  5-MIN KMSN 230035Z 17010KT 10SM CLR 27/09 A2987 910 32 2600 170/10 RMK AO2
14837KMSN MSN20030622184009306/22/03 18:40:31  5-MIN KMSN 230040Z 16011KT 10SM CLR 27/10 A2987 910 33 2600 160/11 RMK AO2
14837KMSN MSN20030622184509306/22/03 18:45:31  5-MIN KMSN 230045Z 17010KT 10SM CLR 27/10 A2987 910 34 2500 170/10 RMK AO2
14837KMSN MSN20030622185011006/22/03 18:50:31  5-MIN KMSN 230050Z 17009KT 10SM CLR 27/10 A2987 910 34 2500 170/09 RMK AO2 SLP110 T02670100
14837KMSN MSN20030622185509306/22/03 18:55:31  5-MIN KMSN 230055Z 18008KT 10SM CLR 27/10 A2987 910 34 2500 180/08 RMK AO2
14837KMSN MSN20030622190009306/22/03 19:00:31  5-MIN KMSN 230100Z 18008KT 10SM CLR 27/10 A2988 900 34 2500 180/08 RMK AO2
14837KMSN MSN20030622190509306/22/03 19:05:31  5-MIN KMSN 230105Z 18005KT 10SM CLR 26/10 A2988 900 36 2400 180/05 RMK AO2
14837KMSN MSN20030622191009306/22/03 19:10:31  5-MIN KMSN 230110Z 18006KT 10SM CLR 26/10 A2988 900 36 2400 180/06 RMK AO2
14837KMSN MSN20030622191509306/22/03 19:15:31  5-MIN KMSN 230115Z 19004KT 10SM CLR 26/11 A2988 900 37 2400 190/04 RMK AO2
14837KMSN MSN20030622192009306/22/03 19:20:31  5-MIN KMSN 230120Z 18007KT 10SM CLR 26/12 A2988 900 41 2400 180/07 RMK AO2
14837KMSN MSN20030622192509306/22/03 19:25:31  5-MIN KMSN 230125Z 18006KT 10SM CLR 26/12 A2988 900 41 2400 180/06 RMK AO2
14837KMSN MSN20030622193009306/22/03 19:30:31  5-MIN KMSN 230130Z 18006KT 10SM CLR 26/11 A2988 900 38 2400 180/06 RMK AO2
14837KMSN MSN20030622193509306/22/03 19:35:31  5-MIN KMSN 230135Z 18006KT 10SM CLR 26/11 A2988 900 38 2400 180/06 RMK AO2
14837KMSN MSN20030622194009306/22/03 19:40:31  5-MIN KMSN 230140Z 18005KT 10SM CLR 26/11 A2988 900 38 2400 180/05 RMK AO2
14837KMSN MSN20030622194509306/22/03 19:45:31  5-MIN KMSN 230145Z 18005KT 10SM CLR 25/11 A2988 900 39 2300 180/05 RMK AO2
14837KMSN MSN20030622195011006/22/03 19:50:31  5-MIN KMSN 230150Z 18005KT 10SM CLR 24/11 A2988 900 42 2200 180/05 RMK AO2 SLP114 T02440111
14837KMSN MSN20030622195509306/22/03 19:55:31  5-MIN KMSN 230155Z 17004KT 10SM CLR 24/11 A2988 900 44 2200 170/04 RMK AO2
14837KMSN MSN20030622200009306/22/03 20:00:31  5-MIN KMSN 230200Z 17003KT 10SM CLR 23/12 A2988 900 47 2100 170/03 RMK AO2
14837KMSN MSN20030622200509306/22/03 20:05:31  5-MIN KMSN 230205Z 18004KT 10SM CLR 23/11 A2989 900 45 2100 180/04 RMK AO2
14837KMSN MSN20030622201009306/22/03 20:10:31  5-MIN KMSN 230210Z 18004KT 10SM CLR 23/11 A2989 890 47 2000 180/04 RMK AO2
14837KMSN MSN20030622201509306/22/03 20:15:31  5-MIN KMSN 230215Z 18004KT 10SM CLR 22/11 A2989 890 49 2000 180/04 RMK AO2
14837KMSN MSN20030622202009306/22/03 20:20:31  5-MIN KMSN 230220Z 18004KT 10SM CLR 22/11 A2989 890 50 1900 180/04 RMK AO2
14837KMSN MSN20030622202509306/22/03 20:25:31  5-MIN KMSN 230225Z 18004KT 10SM CLR 22/12 A2989 890 51 2000 180/04 RMK AO2
14837KMSN MSN20030622203009306/22/03 20:30:31  5-MIN KMSN 230230Z 19003KT 10SM CLR 22/12 A2989 890 52 1900 190/03 RMK AO2
14837KMSN MSN20030622203509306/22/03 20:35:31  5-MIN KMSN 230235Z 19003KT 10SM CLR 22/12 A2990 890 52 1900 180/03 RMK AO2
14837KMSN MSN20030622204009306/22/03 20:40:31  5-MIN KMSN 230240Z VRB03KT 10SM CLR 21/12 A2990 890 56 1800 VRB/03 RMK AO2
14837KMSN MSN20030622204509306/22/03 20:45:31  5-MIN KMSN 230245Z 19003KT 10SM CLR 22/12 A2990 880 52 1900 190/03 RMK AO2
14837KMSN MSN20030622205011606/22/03 20:50:31  5-MIN KMSN 230250Z 18004KT 10SM CLR 22/12 A2990 880 52 1900 180/04 RMK AO2 SLP120 T02170117 58025
14837KMSN MSN20030622205509306/22/03 20:55:31  5-MIN KMSN 230255Z 18005KT 10SM CLR 22/11 A2990 880 49 2000 180/05 RMK AO2
14837KMSN MSN20030622210009306/22/03 21:00:31  5-MIN KMSN 230300Z 17004KT 10SM CLR 21/11 A2990 880 52 1800 170/04 RMK AO2
14837KMSN MSN20030622210509306/22/03 21:05:31  5-MIN KMSN 230305Z 17004KT 10SM CLR 23/11 A2990 880 47 2000 160/04 RMK AO2
14837KMSN MSN20030622211009306/22/03 21:10:31  5-MIN KMSN 230310Z 18004KT 10SM CLR 22/11 A2990 880 49 2000 180/04 RMK AO2
14837KMSN MSN20030622211509306/22/03 21:15:31  5-MIN KMSN 230315Z 17005KT 10SM CLR 22/11 A2990 880 49 2000 170/05 RMK AO2
14837KMSN MSN20030622212009306/22/03 21:20:31  5-MIN KMSN 230320Z 18006KT 10SM CLR 23/11 A2990 880 47 2000 170/06 RMK AO2
14837KMSN MSN20030622212509306/22/03 21:25:31  5-MIN KMSN 230325Z 18005KT 10SM CLR 22/11 A2990 880 49 2000 180/05 RMK AO2
14837KMSN MSN20030622213009306/22/03 21:30:31  5-MIN KMSN 230330Z 18006KT 10SM CLR 23/11 A2990 880 47 2000 180/06 RMK AO2
14837KMSN MSN20030622213509306/22/03 21:35:31  5-MIN KMSN 230335Z 18006KT 10SM CLR 23/12 A2990 880 49 2000 180/06 RMK AO2
14837KMSN MSN20030622214009306/22/03 21:40:31  5-MIN KMSN 230340Z 18006KT 10SM CLR 22/12 A2991 880 51 2000 180/06 RMK AO2
14837KMSN MSN20030622214509306/22/03 21:45:31  5-MIN KMSN 230345Z 17004KT 10SM CLR 22/12 A2991 880 51 2000 170/04 RMK AO2
14837KMSN MSN20030622215011006/22/03 21:50:31  5-MIN KMSN 230350Z 17005KT 10SM CLR 22/12 A2990 880 52 1900 170/05 RMK AO2 SLP121 T02170117
14837KMSN MSN20030622215509306/22/03 21:55:31  5-MIN KMSN 230355Z 17006KT 10SM CLR 22/12 A2990 880 52 1900 170/06 RMK AO2
14837KMSN MSN20030622220009306/22/03 22:00:31  5-MIN KMSN 230400Z 17005KT 10SM CLR 21/12 A2990 880 54 1800 170/05 RMK AO2
14837KMSN MSN20030622220509306/22/03 22:05:31  5-MIN KMSN 230405Z 17005KT 10SM CLR 22/12 A2990 880 52 1900 170/05 RMK AO2
14837KMSN MSN20030622221009306/22/03 22:10:31  5-MIN KMSN 230410Z 17005KT 10SM CLR 22/12 A2991 880 52 1900 170/05 RMK AO2
14837KMSN MSN20030622221509306/22/03 22:15:31  5-MIN KMSN 230415Z 18005KT 10SM CLR 22/12 A2991 870 52 1900 180/05 RMK AO2
14837KMSN MSN20030622222009306/22/03 22:20:31  5-MIN KMSN 230420Z 18005KT 10SM CLR 22/12 A2991 870 52 1900 170/05 RMK AO2
14837KMSN MSN20030622222509306/22/03 22:25:31  5-MIN KMSN 230425Z 18006KT 10SM CLR 22/12 A2991 870 52 1900 180/06 RMK AO2
14837KMSN MSN20030622223009306/22/03 22:30:31  5-MIN KMSN 230430Z 18006KT 10SM CLR 22/11 A2991 870 50 1900 180/06 RMK AO2
14837KMSN MSN20030622223509306/22/03 22:35:31  5-MIN KMSN 230435Z 18006KT 10SM CLR 22/11 A2992 870 50 1900 180/06 RMK AO2
14837KMSN MSN20030622224009306/22/03 22:40:31  5-MIN KMSN 230440Z 17005KT 10SM CLR 22/11 A2991 870 50 1900 170/05 RMK AO2
14837KMSN MSN20030622224509306/22/03 22:45:31  5-MIN KMSN 230445Z 18005KT 10SM CLR 21/11 A2991 870 52 1800 180/05 RMK AO2
14837KMSN MSN20030622225011006/22/03 22:50:31  5-MIN KMSN 230450Z 18006KT 10SM CLR 21/11 A2992 870 52 1800 180/06 RMK AO2 SLP125 T02110111
14837KMSN MSN20030622225509306/22/03 22:55:31  5-MIN KMSN 230455Z 17005KT 10SM CLR 21/11 A2992 870 54 1800 170/05 RMK AO2
14837KMSN MSN20030622230009306/22/03 23:00:31  5-MIN KMSN 230500Z 18005KT 10SM CLR 20/12 A2992 870 58 1700 180/05 RMK AO2
14837KMSN MSN20030622230509306/22/03 23:05:31  5-MIN KMSN 230505Z 19004KT 10SM CLR 21/11 A2992 860 52 1800 190/04 RMK AO2
14837KMSN MSN20030622231009306/22/03 23:10:31  5-MIN KMSN 230510Z 18003KT 10SM CLR 21/11 A2992 860 52 1800 180/03 RMK AO2
14837KMSN MSN20030622231509306/22/03 23:15:31  5-MIN KMSN 230515Z 18005KT 10SM CLR 21/11 A2992 860 52 1800 180/05 RMK AO2
14837KMSN MSN20030622232009306/22/03 23:20:31  5-MIN KMSN 230520Z 18005KT 10SM CLR 21/11 A2992 860 52 1800 180/05 RMK AO2
14837KMSN MSN20030622232509306/22/03 23:25:31  5-MIN KMSN 230525Z 17004KT 10SM CLR 21/11 A2992 870 54 1800 170/04 RMK AO2
14837KMSN MSN20030622233009306/22/03 23:30:31  5-MIN KMSN 230530Z 17004KT 10SM CLR 19/11 A2992 860 60 1600 170/04 RMK AO2
14837KMSN MSN20030622233509306/22/03 23:35:31  5-MIN KMSN 230535Z 18004KT 10SM CLR 19/12 A2992 860 60 1600 180/04 RMK AO2
14837KMSN MSN20030622234009306/22/03 23:40:31  5-MIN KMSN 230540Z 19003KT 10SM CLR 21/12 A2992 860 56 1700 180/03 RMK AO2
14837KMSN MSN20030622234509306/22/03 23:45:31  5-MIN KMSN 230545Z 17005KT 10SM CLR 21/11 A2992 860 52 1800 170/05 RMK AO2
14837KMSN MSN20030622235013806/22/03 23:50:31  5-MIN KMSN 230550Z 18005KT 10SM CLR 21/11 A2992 860 54 1700 180/05 RMK AO2 SLP128 T02060111 10283 20189 403060117 53012
14837KMSN MSN20030622235509306/22/03 23:55:31  5-MIN KMSN 230555Z 18005KT 10SM CLR 21/11 A2993 860 54 1700 180/05 RMK AO2
14837KMSN MSN20030623000009306/23/03 00:00:31  5-MIN KMSN 230600Z 18004KT 10SM CLR 20/11 A2993 860 56 1700 180/04 RMK AO2
14837KMSN MSN20030623000509306/23/03 00:05:31  5-MIN KMSN 230605Z 17004KT 10SM CLR 20/11 A2992 870 56 1700 170/04 RMK AO2
14837KMSN MSN20030623001009306/23/03 00:10:31  5-MIN KMSN 230610Z 18005KT 10SM CLR 19/11 A2992 860 58 1600 180/05 RMK AO2
14837KMSN MSN20030623001509306/23/03 00:15:31  5-MIN KMSN 230615Z 18005KT 10SM CLR 20/12 A2992 870 58 1700 180/05 RMK AO2
14837KMSN MSN20030623002009306/23/03 00:20:31  5-MIN KMSN 230620Z 18005KT 10SM CLR 20/12 A2992 860 58 1700 180/05 RMK AO2
14837KMSN MSN20030623002509306/23/03 00:25:31  5-MIN KMSN 230625Z 18005KT 10SM CLR 20/11 A2992 860 56 1700 170/05 RMK AO2
14837KMSN MSN20030623003009306/23/03 00:30:31  5-MIN KMSN 230630Z 18006KT 10SM CLR 20/11 A2992 860 56 1700 180/06 RMK AO2
14837KMSN MSN20030623003509306/23/03 00:35:31  5-MIN KMSN 230635Z 18006KT 10SM CLR 20/11 A2992 860 56 1700 180/06 RMK AO2
14837KMSN MSN20030623004009306/23/03 00:40:31  5-MIN KMSN 230640Z 18005KT 10SM CLR 20/11 A2992 860 56 1700 180/05 RMK AO2
14837KMSN MSN20030623004509306/23/03 00:45:31  5-MIN KMSN 230645Z 18005KT 10SM CLR 20/11 A2992 860 56 1700 180/05 RMK AO2
14837KMSN MSN20030623005011006/23/03 00:50:31  5-MIN KMSN 230650Z 17006KT 10SM CLR 20/11 A2992 860 56 1700 170/06 RMK AO2 SLP127 T02000111
14837KMSN MSN20030623005509306/23/03 00:55:31  5-MIN KMSN 230655Z 16006KT 10SM CLR 20/11 A2992 870 56 1700 160/06 RMK AO2
14837KMSN MSN20030623010009306/23/03 01:00:31  5-MIN KMSN 230700Z 16005KT 10SM CLR 19/11 A2992 870 60 1600 160/05 RMK AO2
14837KMSN MSN20030623010509306/23/03 01:05:31  5-MIN KMSN 230705Z 19003KT 10SM CLR 19/11 A2992 860 60 1600 190/03 RMK AO2
14837KMSN MSN20030623011009306/23/03 01:10:31  5-MIN KMSN 230710Z 19004KT 10SM CLR 19/12 A2993 860 60 1600 190/04 RMK AO2
14837KMSN MSN20030623011509306/23/03 01:15:31  5-MIN KMSN 230715Z 19006KT 10SM CLR 20/11 A2993 860 56 1700 190/06 RMK AO2
14837KMSN MSN20030623012009306/23/03 01:20:31  5-MIN KMSN 230720Z 18005KT 10SM CLR 21/11 A2993 860 54 1700 180/05 RMK AO2
14837KMSN MSN20030623012509306/23/03 01:25:31  5-MIN KMSN 230725Z 17006KT 10SM CLR 20/11 A2993 860 56 1700 170/06 RMK AO2
14837KMSN MSN20030623013009306/23/03 01:30:31  5-MIN KMSN 230730Z 17005KT 10SM CLR 19/11 A2993 860 58 1600 170/05 RMK AO2
14837KMSN MSN20030623013509306/23/03 01:35:31  5-MIN KMSN 230735Z 17005KT 10SM CLR 19/11 A2993 850 60 1500 170/05 RMK AO2
14837KMSN MSN20030623014009306/23/03 01:40:31  5-MIN KMSN 230740Z 17005KT 10SM CLR 19/12 A2993 860 60 1600 170/05 RMK AO2
14837KMSN MSN20030623014509306/23/03 01:45:31  5-MIN KMSN 230745Z 17006KT 10SM CLR 19/12 A2992 860 60 1600 170/06 RMK AO2
14837KMSN MSN20030623015011006/23/03 01:50:31  5-MIN KMSN 230750Z 17005KT 10SM CLR 19/12 A2992 860 62 1600 160/05 RMK AO2 SLP127 T01890117
14837KMSN MSN20030623015509306/23/03 01:55:31  5-MIN KMSN 230755Z 17005KT 10SM CLR 18/12 A2992 860 65 1500 170/05 RMK AO2
14837KMSN MSN20030623020009306/23/03 02:00:31  5-MIN KMSN 230800Z 18005KT 10SM CLR 18/12 A2993 860 65 1500 180/05 RMK AO2
14837KMSN MSN20030623020509306/23/03 02:05:31  5-MIN KMSN 230805Z 18005KT 10SM CLR 19/12 A2993 850 62 1500 180/05 RMK AO2
14837KMSN MSN20030623021009306/23/03 02:10:31  5-MIN KMSN 230810Z 17005KT 10SM CLR 19/12 A2993 860 62 1600 170/05 RMK AO2
14837KMSN MSN20030623021509306/23/03 02:15:31  5-MIN KMSN 230815Z 17006KT 10SM CLR 18/12 A2993 860 67 1400 170/06 RMK AO2
14837KMSN MSN20030623022009306/23/03 02:20:31  5-MIN KMSN 230820Z 18005KT 10SM CLR 18/12 A2993 860 65 1500 180/05 RMK AO2
14837KMSN MSN20030623022509306/23/03 02:25:31  5-MIN KMSN 230825Z 17004KT 10SM CLR 18/12 A2993 860 67 1400 170/04 RMK AO2
14837KMSN MSN20030623023009306/23/03 02:30:31  5-MIN KMSN 230830Z 17005KT 10SM CLR 18/12 A2992 860 67 1400 170/05 RMK AO2
14837KMSN MSN20030623023509306/23/03 02:35:31  5-MIN KMSN 230835Z 17004KT 10SM CLR 18/12 A2992 860 67 1400 170/04 RMK AO2
14837KMSN MSN20030623024009306/23/03 02:40:31  5-MIN KMSN 230840Z 17005KT 10SM CLR 18/12 A2993 860 67 1400 170/05 RMK AO2
14837KMSN MSN20030623024509306/23/03 02:45:31  5-MIN KMSN 230845Z 17006KT 10SM CLR 19/12 A2993 860 62 1600 170/06 RMK AO2
14837KMSN MSN20030623025011606/23/03 02:50:31  5-MIN KMSN 230850Z 17006KT 10SM CLR 19/12 A2993 860 62 1600 170/06 RMK AO2 SLP128 T01890117 53008
14837KMSN MSN20030623025509306/23/03 02:55:31  5-MIN KMSN 230855Z 17006KT 10SM CLR 19/12 A2993 860 62 1600 170/06 RMK AO2
14837KMSN MSN20030623030009306/23/03 03:00:31  5-MIN KMSN 230900Z 17005KT 10SM CLR 19/12 A2993 860 62 1600 170/05 RMK AO2
14837KMSN MSN20030623030509306/23/03 03:05:31  5-MIN KMSN 230905Z 18005KT 10SM CLR 18/12 A2993 850 65 1500 180/05 RMK AO2
14837KMSN MSN20030623031009306/23/03 03:10:31  5-MIN KMSN 230910Z 17006KT 10SM CLR 18/12 A2993 860 67 1400 160/06 RMK AO2
14837KMSN MSN20030623031509306/23/03 03:15:31  5-MIN KMSN 230915Z 16007KT 10SM CLR 17/12 A2992 870 69 1400 160/07 RMK AO2
14837KMSN MSN20030623032009306/23/03 03:20:31  5-MIN KMSN 230920Z 16007KT 10SM CLR 17/12 A2992 860 72 1300 160/07 RMK AO2
14837KMSN MSN20030623032509306/23/03 03:25:31  5-MIN KMSN 230925Z 17006KT 10SM CLR 18/12 A2992 860 67 1400 170/06 RMK AO2
14837KMSN MSN20030623033009306/23/03 03:30:31  5-MIN KMSN 230930Z 17007KT 10SM CLR 18/12 A2992 860 65 1500 170/07 RMK AO2
14837KMSN MSN20030623033509306/23/03 03:35:31  5-MIN KMSN 230935Z 17006KT 10SM CLR 18/12 A2992 860 65 1500 170/06 RMK AO2
14837KMSN MSN20030623034009306/23/03 03:40:31  5-MIN KMSN 230940Z 17007KT 10SM CLR 18/12 A2992 860 65 1500 170/07 RMK AO2
14837KMSN MSN20030623034509306/23/03 03:45:31  5-MIN KMSN 230945Z 17005KT 10SM CLR 18/12 A2992 860 65 1500 170/05 RMK AO2
14837KMSN MSN20030623035011006/23/03 03:50:31  5-MIN KMSN 230950Z 17006KT 10SM CLR 18/12 A2992 860 65 1500 170/06 RMK AO2 SLP126 T01830117
14837KMSN MSN20030623035509306/23/03 03:55:31  5-MIN KMSN 230955Z 18007KT 10SM CLR 18/12 A2992 860 65 1500 170/07 RMK AO2
14837KMSN MSN20030623040009306/23/03 04:00:31  5-MIN KMSN 231000Z 17006KT 10SM CLR 18/12 A2992 860 65 1500 170/06 RMK AO2
14837KMSN MSN20030623040509206/23/03 04:05:31  5-MIN KMSN 231005Z 18007KT 9SM CLR 18/12 A2992 860 65 1500 180/07 RMK AO2
14837KMSN MSN20030623041009206/23/03 04:10:31  5-MIN KMSN 231010Z 18007KT 9SM CLR 19/12 A2992 860 62 1600 180/07 RMK AO2
14837KMSN MSN20030623041509206/23/03 04:15:31  5-MIN KMSN 231015Z 18007KT 9SM CLR 19/12 A2992 870 62 1600 180/07 RMK AO2
14837KMSN MSN20030623042009206/23/03 04:20:31  5-MIN KMSN 231020Z 18008KT 9SM CLR 19/12 A2992 860 62 1600 180/08 RMK AO2
14837KMSN MSN20030623042509206/23/03 04:25:31  5-MIN KMSN 231025Z 18008KT 9SM CLR 19/12 A2992 860 62 1600 180/08 RMK AO2
14837KMSN MSN20030623043009206/23/03 04:30:31  5-MIN KMSN 231030Z 18007KT 9SM CLR 19/12 A2992 860 62 1600 180/07 RMK AO2
14837KMSN MSN20030623043509206/23/03 04:35:31  5-MIN KMSN 231035Z 18009KT 9SM CLR 19/12 A2992 860 60 1600 180/09 RMK AO2
14837KMSN MSN20030623045509206/23/03 04:55:31  5-MIN KMSN 231055Z 19007KT 9SM CLR 19/12 A2993 850 60 1600 180/07 RMK AO2
14837KMSN MSN20030623050009306/23/03 05:00:31  5-MIN KMSN 231100Z 18006KT 10SM CLR 19/12 A2993 860 60 1600 180/06 RMK AO2
14837KMSN MSN20030623050509306/23/03 05:05:31  5-MIN KMSN 231105Z 17007KT 10SM CLR 19/12 A2993 860 60 1600 170/07 RMK AO2
14837KMSN MSN20030623051009206/23/03 05:10:31  5-MIN KMSN 231110Z 16006KT 9SM CLR 19/12 A2993 860 62 1500 160/06 RMK AO2
14837KMSN MSN20030623051509206/23/03 05:15:31  5-MIN KMSN 231115Z 16007KT 9SM CLR 19/12 A2993 860 65 1500 160/07 RMK AO2
14837KMSN MSN20030623052009206/23/03 05:20:31  5-MIN KMSN 231120Z 17005KT 9SM CLR 19/12 A2993 860 62 1600 160/05 RMK AO2
14837KMSN MSN20030623052509206/23/03 05:25:31  5-MIN KMSN 231125Z 16007KT 9SM CLR 19/12 A2992 860 65 1600 160/07 RMK AO2
14837KMSN MSN20030623053009206/23/03 05:30:31  5-MIN KMSN 231130Z 16007KT 9SM CLR 19/12 A2992 860 65 1600 160/07 RMK AO2
14837KMSN MSN20030623053509206/23/03 05:35:31  5-MIN KMSN 231135Z 15007KT 9SM CLR 19/12 A2992 860 65 1600 150/07 RMK AO2
14837KMSN MSN20030623054009206/23/03 05:40:31  5-MIN KMSN 231140Z 16007KT 9SM CLR 19/12 A2992 860 65 1600 150/07 RMK AO2
14837KMSN MSN20030623054509206/23/03 05:45:31  5-MIN KMSN 231145Z 16008KT 9SM CLR 19/12 A2992 860 65 1600 160/08 RMK AO2
14837KMSN MSN20030623055012806/23/03 05:50:31  5-MIN KMSN 231150Z 17008KT 10SM CLR 19/12 A2992 860 62 1600 170/08 RMK AO2 SLP126 T01940122 10206 20167 55000
14837KMSN MSN20030623055509206/23/03 05:55:31  5-MIN KMSN 231155Z 18009KT 9SM CLR 19/12 A2992 860 62 1600 180/09 RMK AO2
14837KMSN MSN20030623060009206/23/03 06:00:31  5-MIN KMSN 231200Z 18008KT 9SM CLR 19/12 A2992 860 62 1600 170/08 RMK AO2
14837KMSN MSN20030623060509206/23/03 06:05:31  5-MIN KMSN 231205Z 17006KT 9SM CLR 19/12 A2992 870 62 1600 170/06 RMK AO2
14837KMSN MSN20030623061009206/23/03 06:10:31  5-MIN KMSN 231210Z 17006KT 9SM CLR 20/13 A2992 870 63 1700 170/06 RMK AO2
14837KMSN MSN20030623061509206/23/03 06:15:31  5-MIN KMSN 231215Z 16007KT 9SM CLR 20/13 A2992 870 63 1700 160/07 RMK AO2
14837KMSN MSN20030623062009206/23/03 06:20:31  5-MIN KMSN 231220Z 18006KT 9SM CLR 21/13 A2992 870 60 1800 180/06 RMK AO2
14837KMSN MSN20030623062509206/23/03 06:25:31  5-MIN KMSN 231225Z 18007KT 9SM CLR 21/13 A2992 860 60 1800 180/07 RMK AO2
14837KMSN MSN20030623063009206/23/03 06:30:31  5-MIN KMSN 231230Z 19006KT 9SM CLR 21/13 A2993 860 58 1800 190/06 RMK AO2
14837KMSN MSN20030623063509206/23/03 06:35:31  5-MIN KMSN 231235Z 19007KT 9SM CLR 21/13 A2993 850 58 1800 190/07 RMK AO2
14837KMSN MSN20030623064009206/23/03 06:40:31  5-MIN KMSN 231240Z 18007KT 9SM CLR 21/13 A2993 850 58 1800 180/07 RMK AO2
14837KMSN MSN20030623064509306/23/03 06:45:31  5-MIN KMSN 231245Z 17006KT 10SM CLR 22/13 A2993 860 56 1900 170/06 RMK AO2
14837KMSN MSN20030623065011006/23/03 06:50:31  5-MIN KMSN 231250Z 18007KT 10SM CLR 22/13 A2993 850 58 1900 170/07 RMK AO2 SLP130 T02170133
14837KMSN MSN20030623065509506/23/03 06:55:31  5-MIN KMSN 231255Z 17007KT 9SM FEW100 22/13 A2993 850 58 1900 170/07 RMK AO2
14837KMSN MSN20030623070009506/23/03 07:00:31  5-MIN KMSN 231300Z 18009KT 9SM FEW100 22/13 A2993 850 58 1900 180/09 RMK AO2
14837KMSN MSN20030623070509506/23/03 07:05:31  5-MIN KMSN 231305Z 19009KT 9SM SCT100 22/13 A2994 850 56 1900 190/09 RMK AO2
14837KMSN MSN20030623071009606/23/03 07:10:31  5-MIN KMSN 231310Z 19009KT 10SM BKN095 22/13 A2994 850 54 1900 190/09 RMK AO2
14837KMSN MSN20030623071509606/23/03 07:15:31  5-MIN KMSN 231315Z 19007KT 10SM BKN095 22/13 A2994 850 56 1900 190/07 RMK AO2
14837KMSN MSN20030623072009606/23/03 07:20:31  5-MIN KMSN 231320Z 19007KT 10SM BKN095 22/13 A2994 850 56 1900 190/07 RMK AO2
14837KMSN MSN20030623072509606/23/03 07:25:31  5-MIN KMSN 231325Z 19007KT 10SM BKN095 23/13 A2994 850 55 2000 190/07 RMK AO2
14837KMSN MSN20030623073009506/23/03 07:30:31  5-MIN KMSN 231330Z 19006KT 9SM OVC100 23/13 A2994 840 55 2000 190/06 RMK AO2
14837KMSN MSN20030623073509606/23/03 07:35:31  5-MIN KMSN 231335Z 18007KT 10SM BKN100 23/13 A2994 840 55 2000 180/07 RMK AO2
14837KMSN MSN20030623074009606/23/03 07:40:31  5-MIN KMSN 231340Z 20006KT 10SM OVC100 23/13 A2994 840 55 2000 200/06 RMK AO2
14837KMSN MSN20030623074509606/23/03 07:45:31  5-MIN KMSN 231345Z 19009KT 10SM BKN100 23/14 A2994 850 57 2000 190/09 RMK AO2
14837KMSN MSN20030623075011306/23/03 07:50:31  5-MIN KMSN 231350Z 18009KT 10SM BKN100 23/14 A2993 850 57 2000 180/09 RMK AO2 SLP131 T02280139
14837KMSN MSN20030623075509606/23/03 07:55:31  5-MIN KMSN 231355Z 18010KT 10SM BKN095 23/14 A2993 850 55 2100 180/10 RMK AO2
14837KMSN MSN20030623080009606/23/03 08:00:31  5-MIN KMSN 231400Z 18011KT 10SM SCT100 24/14 A2993 850 53 2100 180/11 RMK AO2
14837KMSN MSN20030623080509606/23/03 08:05:31  5-MIN KMSN 231405Z 19013KT 10SM FEW100 23/14 A2993 850 55 2100 190/13 RMK AO2
14837KMSN MSN20030623081009606/23/03 08:10:31  5-MIN KMSN 231410Z 18011KT 10SM FEW100 24/14 A2993 860 53 2100 180/11 RMK AO2
14837KMSN MSN20030623081509306/23/03 08:15:31  5-MIN KMSN 231415Z 18012KT 10SM CLR 24/14 A2993 860 53 2100 180/12 RMK AO2
14837KMSN MSN20030623082009306/23/03 08:20:31  5-MIN KMSN 231420Z 18010KT 10SM CLR 24/14 A2993 860 55 2100 180/10 RMK AO2
14837KMSN MSN20030623082509306/23/03 08:25:31  5-MIN KMSN 231425Z 18013KT 10SM CLR 24/14 A2993 860 55 2100 180/13 RMK AO2
14837KMSN MSN20030623083009306/23/03 08:30:31  5-MIN KMSN 231430Z 18012KT 10SM CLR 24/14 A2993 860 53 2200 170/12 RMK AO2
14837KMSN MSN20030623083509206/23/03 08:35:31  5-MIN KMSN 231435Z 17012KT 9SM CLR 24/14 A2993 860 53 2200 170/12 RMK AO2
14837KMSN MSN20030623084009306/23/03 08:40:31  5-MIN KMSN 231440Z 17010KT 10SM CLR 24/14 A2993 860 53 2200 170/10 RMK AO2
14837KMSN MSN20030623084509306/23/03 08:45:31  5-MIN KMSN 231445Z 17012KT 10SM CLR 25/14 A2993 860 51 2300 170/12 RMK AO2
14837KMSN MSN20030623085011606/23/03 08:50:31  5-MIN KMSN 231450Z 18012KT 10SM CLR 25/15 A2993 860 53 2200 180/12 RMK AO2 SLP129 T02500150 58002
14837KMSN MSN20030623085509306/23/03 08:55:31  5-MIN KMSN 231455Z 17011KT 10SM CLR 26/15 A2993 860 51 2300 170/11 RMK AO2
14837KMSN MSN20030623090009306/23/03 09:00:31  5-MIN KMSN 231500Z 18011KT 10SM CLR 26/15 A2993 860 51 2300 180/11 RMK AO2
14837KMSN MSN20030623090509306/23/03 09:05:31  5-MIN KMSN 231505Z 17010KT 10SM CLR 26/16 A2993 850 51 2400 170/10 RMK AO2
14837KMSN MSN20030623091009306/23/03 09:10:31  5-MIN KMSN 231510Z 17012KT 10SM CLR 27/16 A2993 850 50 2400 170/12 RMK AO2
14837KMSN MSN20030623091509306/23/03 09:15:31  5-MIN KMSN 231515Z 18011KT 10SM CLR 27/16 A2994 850 50 2400 180/11 RMK AO2
14837KMSN MSN20030623092009306/23/03 09:20:31  5-MIN KMSN 231520Z 18011KT 10SM CLR 27/16 A2993 850 48 2500 180/11 RMK AO2
14837KMSN MSN20030623092509306/23/03 09:25:31  5-MIN KMSN 231525Z 17012KT 10SM CLR 27/16 A2993 850 48 2500 170/12 RMK AO2
14837KMSN MSN20030623093009306/23/03 09:30:31  5-MIN KMSN 231530Z 19011KT 10SM CLR 27/16 A2994 850 48 2500 190/11 RMK AO2
14837KMSN MSN20030623093509306/23/03 09:35:31  5-MIN KMSN 231535Z 20011KT 10SM CLR 28/16 A2994 840 46 2500 190/11 RMK AO2
14837KMSN MSN20030623094009306/23/03 09:40:31  5-MIN KMSN 231540Z 20009KT 10SM CLR 28/15 A2994 840 45 2500 200/09 RMK AO2
14837KMSN MSN20030623094509306/23/03 09:45:31  5-MIN KMSN 231545Z 17014KT 10SM CLR 28/16 A2994 840 45 2600 170/14 RMK AO2
14837KMSN MSN20030623095011006/23/03 09:50:31  5-MIN KMSN 231550Z 18013KT 10SM CLR 28/16 A2994 850 45 2600 180/13 RMK AO2 SLP133 T02830156
14837KMSN MSN20030623095509306/23/03 09:55:31  5-MIN KMSN 231555Z 18012KT 10SM CLR 29/16 A2994 840 44 2700 180/12 RMK AO2
14837KMSN MSN20030623100009906/23/03 10:00:31  5-MIN KMSN 231600Z 18015G19KT 10SM CLR 29/16 A2994 850 44 2700 180/15G19 RMK AO2
14837KMSN MSN20030623100509906/23/03 10:05:31  5-MIN KMSN 231605Z 18011G19KT 10SM CLR 28/16 A2994 850 45 2600 180/11G19 RMK AO2
14837KMSN MSN20030623101009306/23/03 10:10:31  5-MIN KMSN 231610Z 18012KT 10SM CLR 28/16 A2994 850 45 2600 180/12 RMK AO2
14837KMSN MSN20030623101509306/23/03 10:15:31  5-MIN KMSN 231615Z 20011KT 10SM CLR 28/15 A2994 850 43 2600 200/11 RMK AO2
14837KMSN MSN20030623102009906/23/03 10:20:31  5-MIN KMSN 231620Z 17014G17KT 10SM CLR 28/15 A2993 850 45 2600 170/14G17 RMK AO2
14837KMSN MSN20030623102509306/23/03 10:25:31  5-MIN KMSN 231625Z 17013KT 10SM CLR 28/16 A2993 850 45 2600 170/13 RMK AO2
14837KMSN MSN20030623103009306/23/03 10:30:31  5-MIN KMSN 231630Z 19010KT 10SM CLR 28/16 A2994 850 45 2600 190/10 RMK AO2
14837KMSN MSN20030623103509306/23/03 10:35:31  5-MIN KMSN 231635Z 16013KT 10SM CLR 29/16 A2993 850 44 2700 160/13 RMK AO2
14837KMSN MSN20030623104009306/23/03 10:40:31  5-MIN KMSN 231640Z 17011KT 10SM CLR 28/16 A2993 850 45 2600 170/11 RMK AO2
14837KMSN MSN20030623104509306/23/03 10:45:31  5-MIN KMSN 231645Z 16015KT 10SM CLR 29/16 A2993 850 44 2700 160/15 RMK AO2
14837KMSN MSN20030623105011006/23/03 10:50:31  5-MIN KMSN 231650Z 19007KT 10SM CLR 29/16 A2994 850 44 2700 190/07 RMK AO2 SLP131 T02890156
14837KMSN MSN20030623105509906/23/03 10:55:31  5-MIN KMSN 231655Z 17011G14KT 10SM CLR 29/16 A2994 850 44 2700 170/11G14 RMK AO2
14837KMSN MSN20030623110009306/23/03 11:00:31  5-MIN KMSN 231700Z 19011KT 10SM CLR 29/16 A2994 840 42 2700 190/11 RMK AO2
14837KMSN MSN20030623110509306/23/03 11:05:31  5-MIN KMSN 231705Z 16012KT 10SM CLR 29/16 A2994 850 44 2700 160/12 RMK AO2
14837KMSN MSN20030623111009306/23/03 11:10:31  5-MIN KMSN 231710Z 17013KT 10SM CLR 29/16 A2994 850 45 2700 170/13 RMK AO2
14837KMSN MSN20030623111509906/23/03 11:15:31  5-MIN KMSN 231715Z 17011G17KT 10SM CLR 29/16 A2994 850 44 2700 170/11G17 RMK AO2
14837KMSN MSN20030623112009906/23/03 11:20:31  5-MIN KMSN 231720Z 17011G17KT 10SM CLR 29/16 A2994 850 42 2700 170/11G17 RMK AO2
14837KMSN MSN20030623112509906/23/03 11:25:31  5-MIN KMSN 231725Z 15012G17KT 10SM CLR 29/16 A2994 850 44 2700 150/12G17 RMK AO2
14837KMSN MSN20030623113009306/23/03 11:30:31  5-MIN KMSN 231730Z 17010KT 10SM CLR 29/16 A2994 850 44 2700 170/10 RMK AO2
14837KMSN MSN20030623113509306/23/03 11:35:31  5-MIN KMSN 231735Z 16012KT 10SM CLR 29/16 A2994 850 44 2700 160/12 RMK AO2
14837KMSN MSN20030623114009306/23/03 11:40:31  5-MIN KMSN 231740Z 16011KT 10SM CLR 29/17 A2993 850 45 2700 160/11 RMK AO2
14837KMSN MSN20030623114509306/23/03 11:45:31  5-MIN KMSN 231745Z 17012KT 10SM CLR 29/16 A2993 850 44 2700 170/12 RMK AO2
14837KMSN MSN20030623115012806/23/03 11:50:31  5-MIN KMSN 231750Z 18012KT 10SM CLR 30/17 A2993 850 44 2800 180/12 RMK AO2 SLP130 T03000167 10300 20194 50002
14837KMSN MSN20030623115509306/23/03 11:55:31  5-MIN KMSN 231755Z 18012KT 10SM CLR 31/16 A2993 850 41 2900 180/12 RMK AO2
14837KMSN MSN20030623120009906/23/03 12:00:31  5-MIN KMSN 231800Z 16011G18KT 10SM CLR 30/16 A2993 850 42 2800 160/11G18 RMK AO2
14837KMSN MSN20030623120509906/23/03 12:05:31  5-MIN KMSN 231805Z 19011G18KT 10SM CLR 30/16 A2994 850 42 2800 190/11G18 RMK AO2
14837KMSN MSN20030623121009306/23/03 12:10:31  5-MIN KMSN 231810Z 17010KT 10SM CLR 30/16 A2994 850 42 2800 170/10 RMK AO2
14837KMSN MSN20030623121509306/23/03 12:15:31  5-MIN KMSN 231815Z 17011KT 10SM CLR 30/16 A2993 850 42 2800 170/11 RMK AO2
14837KMSN MSN20030623122009906/23/03 12:20:31  5-MIN KMSN 231820Z 19013G18KT 10SM CLR 31/16 A2993 850 41 2900 190/13G18 RMK AO2
14837KMSN MSN20030623122509906/23/03 12:25:31  5-MIN KMSN 231825Z 19014G18KT 10SM CLR 31/16 A2993 850 39 2900 180/14G18 RMK AO2
14837KMSN MSN20030623123010906/23/03 12:30:31  5-MIN KMSN 231830Z 20009KT 180V250 10SM CLR 31/16 A2994 850 39 2900 200/09 180V250 RMK AO2
14837KMSN MSN20030623123510206/23/03 12:35:31  5-MIN KMSN 231835Z 19012G18KT 10SM FEW060 30/16 A2993 850 41 2800 190/12G18 RMK AO2
14837KMSN MSN20030623124010206/23/03 12:40:31  5-MIN KMSN 231840Z 18008G18KT 10SM FEW060 30/16 A2993 860 42 2800 180/08G18 RMK AO2
14837KMSN MSN20030623124510206/23/03 12:45:31  5-MIN KMSN 231845Z 22012G17KT 10SM FEW060 31/16 A2993 860 41 2900 220/12G17 RMK AO2
14837KMSN MSN20030623125011906/23/03 12:50:31  5-MIN KMSN 231850Z 17012G17KT 10SM FEW060 30/16 A2993 860 42 2800 170/12G17 RMK AO2 SLP128 T03000161
14837KMSN MSN20030623125510906/23/03 12:55:31  5-MIN KMSN 231855Z 18013G18KT 10SM FEW060 BKN120 30/16 A2993 860 42 2800 180/13G18 RMK AO2
14837KMSN MSN20030623130010206/23/03 13:00:31  5-MIN KMSN 231900Z 20009G18KT 10SM SCT055 29/16 A2993 860 42 2700 200/09G18 RMK AO2
14837KMSN MSN20030623130509606/23/03 13:05:31  5-MIN KMSN 231905Z 18008KT 10SM BKN055 30/16 A2993 860 42 2800 180/08 RMK AO2
14837KMSN MSN20030623131010206/23/03 13:10:31  5-MIN KMSN 231910Z 17012G17KT 10SM SCT055 31/17 A2992 860 42 2900 170/12G17 RMK AO2
14837KMSN MSN20030623131510206/23/03 13:15:31  5-MIN KMSN 231915Z 17012G18KT 10SM SCT055 31/17 A2992 860 42 2900 160/12G18 RMK AO2
14837KMSN MSN20030623132009606/23/03 13:20:31  5-MIN KMSN 231920Z 17013KT 10SM SCT055 31/17 A2992 860 42 2900 170/13 RMK AO2
14837KMSN MSN20030623132509606/23/03 13:25:31  5-MIN KMSN 231925Z 17014KT 10SM FEW055 31/16 A2992 870 41 2900 160/14 RMK AO2
14837KMSN MSN20030623133009606/23/03 13:30:31  5-MIN KMSN 231930Z 18011KT 10SM FEW055 31/17 A2992 870 42 2900 180/11 RMK AO2
14837KMSN MSN20030623133509306/23/03 13:35:31  5-MIN KMSN 231935Z 16013KT 10SM CLR 31/17 A2991 870 42 2900 150/13 RMK AO2
14837KMSN MSN20030623134009306/23/03 13:40:31  5-MIN KMSN 231940Z 16016KT 10SM CLR 31/17 A2991 880 42 2900 160/16 RMK AO2
14837KMSN MSN20030623134509306/23/03 13:45:31  5-MIN KMSN 231945Z 16015KT 10SM CLR 31/17 A2991 880 42 2900 160/15 RMK AO2
14837KMSN MSN20030623135011006/23/03 13:50:31  5-MIN KMSN 231950Z 18011KT 10SM CLR 31/16 A2990 880 41 2900 180/11 RMK AO2 SLP120 T03060161
14837KMSN MSN20030623135509306/23/03 13:55:31  5-MIN KMSN 231955Z 18010KT 10SM CLR 31/16 A2990 880 41 2900 180/10 RMK AO2
14837KMSN MSN20030623140009906/23/03 14:00:31  5-MIN KMSN 232000Z 16015G18KT 10SM CLR 30/16 A2990 880 42 2800 160/15G18 RMK AO2
14837KMSN MSN20030623140509306/23/03 14:05:31  5-MIN KMSN 232005Z 16016KT 10SM CLR 30/16 A2990 880 42 2800 160/16 RMK AO2
14837KMSN MSN20030623141009306/23/03 14:10:31  5-MIN KMSN 232010Z 17015KT 10SM CLR 30/16 A2990 890 41 2800 170/15 RMK AO2
14837KMSN MSN20030623141509306/23/03 14:15:31  5-MIN KMSN 232015Z 18014KT 10SM CLR 30/16 A2989 890 42 2800 170/14 RMK AO2
14837KMSN MSN20030623142009906/23/03 14:20:31  5-MIN KMSN 232020Z 17014G20KT 10SM CLR 30/16 A2989 890 41 2800 170/14G20 RMK AO2
14837KMSN MSN20030623142509306/23/03 14:25:31  5-MIN KMSN 232025Z 17013KT 10SM CLR 30/16 A2989 890 42 2800 170/13 RMK AO2
14837KMSN MSN20030623143009306/23/03 14:30:31  5-MIN KMSN 232030Z 17015KT 10SM CLR 30/16 A2989 890 42 2800 170/15 RMK AO2
14837KMSN MSN20030623143509306/23/03 14:35:31  5-MIN KMSN 232035Z 17014KT 10SM CLR 29/16 A2989 890 42 2800 170/14 RMK AO2
14837KMSN MSN20030623144009306/23/03 14:40:31  5-MIN KMSN 232040Z 16013KT 10SM CLR 29/16 A2988 900 44 2700 160/13 RMK AO2
14837KMSN MSN20030623144509306/23/03 14:45:31  5-MIN KMSN 232045Z 15014KT 10SM CLR 29/16 A2988 900 44 2700 150/14 RMK AO2
14837KMSN MSN20030623145012906/23/03 14:50:31  5-MIN KMSN 232050Z 16015KT 10SM SCT120 29/16 A2989 890 44 2700 160/15 RMK AO2 SLP116 VIRGA OHD T02890156 50002
14837KMSN MSN20030623145509306/23/03 14:55:31  5-MIN KMSN 232055Z 18014KT 10SM CLR 29/16 A2989 890 42 2800 180/14 RMK AO2
14837KMSN MSN20030623150009606/23/03 15:00:31  5-MIN KMSN 232100Z 18015KT 10SM SCT120 30/16 A2989 890 41 2800 170/15 RMK AO2
14837KMSN MSN20030623150509606/23/03 15:05:31  5-MIN KMSN 232105Z 17015KT 10SM SCT120 30/16 A2990 890 41 2800 160/15 RMK AO2
14837KMSN MSN20030623151009606/23/03 15:10:31  5-MIN KMSN 232110Z 17014KT 10SM SCT120 30/16 A2990 880 41 2800 170/14 RMK AO2
14837KMSN MSN20030623151509606/23/03 15:15:31  5-MIN KMSN 232115Z 17012KT 10SM SCT120 30/16 A2990 880 41 2800 170/12 RMK AO2
14837KMSN MSN20030623152009606/23/03 15:20:31  5-MIN KMSN 232120Z 19011KT 10SM SCT120 29/15 A2990 880 41 2800 180/11 RMK AO2
14837KMSN MSN20030623152509606/23/03 15:25:31  5-MIN KMSN 232125Z 18011KT 10SM SCT120 29/15 A2990 880 41 2800 180/11 RMK AO2
14837KMSN MSN20030623153010206/23/03 15:30:31  5-MIN KMSN 232130Z 18014G19KT 10SM SCT120 29/15 A2990 880 41 2800 180/14G19 RMK AO2
14837KMSN MSN20030623153510206/23/03 15:35:31  5-MIN KMSN 232135Z 18015G19KT 10SM SCT120 29/15 A2990 880 42 2700 180/15G19 RMK AO2
14837KMSN MSN20030623154009606/23/03 15:40:31  5-MIN KMSN 232140Z 18014KT 10SM SCT120 29/15 A2990 880 42 2700 180/14 RMK AO2
14837KMSN MSN20030623154510206/23/03 15:45:31  5-MIN KMSN 232145Z 18013G20KT 10SM FEW120 29/14 A2989 890 40 2700 180/13G20 RMK AO2
14837KMSN MSN20030623155011906/23/03 15:50:31  5-MIN KMSN 232150Z 17012G20KT 10SM FEW120 29/14 A2989 890 40 2700 170/12G20 RMK AO2 SLP118 T02890144
14837KMSN MSN20030623155509306/23/03 15:55:31  5-MIN KMSN 232155Z 18010KT 10SM CLR 29/15 A2990 890 42 2700 180/10 RMK AO2
14837KMSN MSN20030623160009306/23/03 16:00:31  5-MIN KMSN 232200Z 19011KT 10SM CLR 28/15 A2990 880 43 2700 190/11 RMK AO2
14837KMSN MSN20030623160509906/23/03 16:05:31  5-MIN KMSN 232205Z 19012G17KT 10SM CLR 29/14 A2990 890 40 2700 180/12G17 RMK AO2
14837KMSN MSN20030623161009306/23/03 16:10:31  5-MIN KMSN 232210Z 18012KT 10SM CLR 28/15 A2989 890 43 2700 180/12 RMK AO2
14837KMSN MSN20030623161509306/23/03 16:15:31  5-MIN KMSN 232215Z 18012KT 10SM CLR 28/15 A2989 890 43 2700 180/12 RMK AO2
14837KMSN MSN20030623162009306/23/03 16:20:31  5-MIN KMSN 232220Z 18012KT 10SM CLR 28/15 A2988 900 43 2700 170/12 RMK AO2
14837KMSN MSN20030623162509306/23/03 16:25:31  5-MIN KMSN 232225Z 17013KT 10SM CLR 28/16 A2988 900 45 2700 160/13 RMK AO2
14837KMSN MSN20030623163009306/23/03 16:30:31  5-MIN KMSN 232230Z 18012KT 10SM CLR 28/15 A2989 900 43 2700 180/12 RMK AO2
14837KMSN MSN20030623163511206/23/03 16:35:31  5-MIN KMSN 232235Z 17011KT 10SM -RA FEW120 28/16 A2988 900 46 2600 170/11 RMK AO2 RAB32 P0000
14837KMSN MSN20030623164011206/23/03 16:40:31  5-MIN KMSN 232240Z 16010KT 10SM -RA FEW120 27/16 A2988 900 50 2500 160/10 RMK AO2 RAB32 P0000
14837KMSN MSN20030623164511206/23/03 16:45:31  5-MIN KMSN 232245Z 17007KT 10SM -RA FEW120 27/16 A2988 900 52 2500 170/07 RMK AO2 RAB32 P0000
14837KMSN MSN20030623165014506/23/03 16:50:31  5-MIN KMSN 232250Z 18007KT 160V220 10SM -RA FEW120 27/17 A2989 890 53 2500 180/07 160V220 RMK AO2 RAB32 SLP116 P0000 T02670167
14837KMSN MSN20030623165510306/23/03 16:55:31  5-MIN KMSN 232255Z 18008KT 10SM -RA CLR 27/16 A2989 890 52 2500 180/08 RMK AO2 P0000
14837KMSN MSN20030623170011006/23/03 17:00:31  5-MIN KMSN 232300Z 18007KT 10SM FEW120 27/16 A2989 890 50 2500 180/07 RMK AO2 RAE2257 P0000
14837KMSN MSN20030623170511006/23/03 17:05:31  5-MIN KMSN 232305Z 18007KT 10SM FEW120 27/17 A2989 890 52 2500 180/07 RMK AO2 RAE2257 P0000
14837KMSN MSN20030623171011006/23/03 17:10:31  5-MIN KMSN 232310Z 17009KT 10SM FEW120 27/17 A2988 900 52 2500 170/09 RMK AO2 RAE2257 P0000
14837KMSN MSN20030623171511006/23/03 17:15:31  5-MIN KMSN 232315Z 16009KT 10SM FEW120 27/17 A2988 900 52 2600 160/09 RMK AO2 RAE2257 P0000
14837KMSN MSN20030623172011006/23/03 17:20:31  5-MIN KMSN 232320Z 17009KT 10SM FEW120 27/17 A2987 910 52 2600 170/09 RMK AO2 RAE2257 P0000
14837KMSN MSN20030623172511006/23/03 17:25:31  5-MIN KMSN 232325Z 16010KT 10SM FEW120 27/17 A2987 910 52 2600 160/10 RMK AO2 RAE2257 P0000
14837KMSN MSN20030623173011006/23/03 17:30:31  5-MIN KMSN 232330Z 18006KT 10SM FEW120 27/16 A2988 900 50 2600 170/06 RMK AO2 RAE2257 P0000
14837KMSN MSN20030623173511006/23/03 17:35:31  5-MIN KMSN 232335Z 19006KT 10SM FEW120 27/16 A2988 900 50 2500 190/06 RMK AO2 RAE2257 P0000
14837KMSN MSN20030623174011006/23/03 17:40:31  5-MIN KMSN 232340Z 18005KT 10SM FEW120 27/16 A2989 900 50 2500 170/05 RMK AO2 RAE2257 P0000
14837KMSN MSN20030623174511006/23/03 17:45:31  5-MIN KMSN 232345Z 20005KT 10SM FEW120 27/16 A2989 890 50 2500 200/05 RMK AO2 RAE2257 P0000
14837KMSN MSN20030623175015106/23/03 17:50:31  5-MIN KMSN 232350Z VRB03KT 10SM FEW120 27/16 A2989 890 50 2500 VRB/03 RMK AO2 RAE2257 SLP117 P0000 60000 T02720161 10311 20267 58014
14837KMSN MSN20030623175509306/23/03 17:55:31  5-MIN KMSN 232355Z 15005KT 10SM CLR 27/16 A2989 890 50 2500 150/05 RMK AO2
14837KMSN MSN20030623180009306/23/03 18:00:31  5-MIN KMSN 240000Z 16007KT 10SM CLR 27/17 A2989 900 53 2500 160/07 RMK AO2
14837KMSN MSN20030623180509306/23/03 18:05:31  5-MIN KMSN 240005Z 15007KT 10SM CLR 27/17 A2989 900 53 2500 150/07 RMK AO2
14837KMSN MSN20030623181009306/23/03 18:10:31  5-MIN KMSN 240010Z 16008KT 10SM CLR 27/17 A2989 900 53 2500 150/08 RMK AO2
14837KMSN MSN20030623181509306/23/03 18:15:31  5-MIN KMSN 240015Z 15008KT 10SM CLR 27/17 A2988 900 53 2500 150/08 RMK AO2
14837KMSN MSN20030623182009306/23/03 18:20:31  5-MIN KMSN 240020Z 15007KT 10SM CLR 27/17 A2988 900 53 2500 150/07 RMK AO2
14837KMSN MSN20030623182509306/23/03 18:25:31  5-MIN KMSN 240025Z 15008KT 10SM CLR 27/17 A2988 900 53 2500 150/08 RMK AO2
14837KMSN MSN20030623183009306/23/03 18:30:31  5-MIN KMSN 240030Z 15007KT 10SM CLR 27/17 A2989 900 53 2500 150/07 RMK AO2
14837KMSN MSN20030623183509306/23/03 18:35:31  5-MIN KMSN 240035Z 15007KT 10SM CLR 27/17 A2989 890 55 2500 150/07 RMK AO2
14837KMSN MSN20030623184009306/23/03 18:40:31  5-MIN KMSN 240040Z 16007KT 10SM CLR 27/17 A2989 890 55 2500 160/07 RMK AO2
14837KMSN MSN20030623184509306/23/03 18:45:31  5-MIN KMSN 240045Z 16008KT 10SM CLR 27/17 A2989 890 54 2500 160/08 RMK AO2
14837KMSN MSN20030623185011006/23/03 18:50:31  5-MIN KMSN 240050Z 16007KT 10SM CLR 27/17 A2989 890 52 2500 160/07 RMK AO2 SLP117 T02720167
14837KMSN MSN20030623185509306/23/03 18:55:31  5-MIN KMSN 240055Z 16008KT 10SM CLR 27/17 A2989 890 54 2500 160/08 RMK AO2
14837KMSN MSN20030623190009306/23/03 19:00:31  5-MIN KMSN 240100Z 16007KT 10SM CLR 27/17 A2989 890 54 2500 160/07 RMK AO2
14837KMSN MSN20030623190509306/23/03 19:05:31  5-MIN KMSN 240105Z 16007KT 10SM CLR 27/17 A2989 890 55 2500 160/07 RMK AO2
14837KMSN MSN20030623191009306/23/03 19:10:31  5-MIN KMSN 240110Z 16008KT 10SM CLR 27/17 A2989 890 53 2500 160/08 RMK AO2
14837KMSN MSN20030623191509306/23/03 19:15:31  5-MIN KMSN 240115Z 16008KT 10SM CLR 27/17 A2989 890 53 2500 160/08 RMK AO2
14837KMSN MSN20030623192009306/23/03 19:20:31  5-MIN KMSN 240120Z 17007KT 10SM CLR 27/16 A2989 890 52 2500 170/07 RMK AO2
14837KMSN MSN20030623192509306/23/03 19:25:31  5-MIN KMSN 240125Z 17008KT 10SM CLR 27/16 A2990 890 52 2500 170/08 RMK AO2
14837KMSN MSN20030623193009306/23/03 19:30:31  5-MIN KMSN 240130Z 17008KT 10SM CLR 27/16 A2990 890 50 2500 170/08 RMK AO2
14837KMSN MSN20030623193509306/23/03 19:35:31  5-MIN KMSN 240135Z 17008KT 10SM CLR 27/16 A2990 880 50 2500 170/08 RMK AO2
14837KMSN MSN20030623194009306/23/03 19:40:31  5-MIN KMSN 240140Z 18007KT 10SM CLR 27/15 A2990 880 48 2500 180/07 RMK AO2
14837KMSN MSN20030623194509306/23/03 19:45:31  5-MIN KMSN 240145Z 18010KT 10SM CLR 27/15 A2990 880 48 2500 170/10 RMK AO2
14837KMSN MSN20030623195011006/23/03 19:50:31  5-MIN KMSN 240150Z 18009KT 10SM CLR 27/14 A2990 880 46 2500 180/09 RMK AO2 SLP120 T02670144
14837KMSN MSN20030623195509306/23/03 19:55:31  5-MIN KMSN 240155Z 17009KT 10SM CLR 27/14 A2990 880 46 2500 170/09 RMK AO2
14837KMSN MSN20030623200009306/23/03 20:00:31  5-MIN KMSN 240200Z 18009KT 10SM CLR 27/14 A2991 880 46 2500 170/09 RMK AO2
14837KMSN MSN20030623200509306/23/03 20:05:31  5-MIN KMSN 240205Z 18009KT 10SM CLR 27/14 A2991 870 46 2500 180/09 RMK AO2
14837KMSN MSN20030623201009306/23/03 20:10:31  5-MIN KMSN 240210Z 18008KT 10SM CLR 27/14 A2991 870 46 2500 180/08 RMK AO2
14837KMSN MSN20030623201509306/23/03 20:15:31  5-MIN KMSN 240215Z 18008KT 10SM CLR 26/14 A2991 870 46 2400 180/08 RMK AO2
14837KMSN MSN20030623202009306/23/03 20:20:31  5-MIN KMSN 240220Z 18008KT 10SM CLR 26/14 A2992 870 46 2400 180/08 RMK AO2
14837KMSN MSN20030623202509306/23/03 20:25:31  5-MIN KMSN 240225Z 18009KT 10SM CLR 27/14 A2992 860 45 2400 180/09 RMK AO2
14837KMSN MSN20030623203009306/23/03 20:30:31  5-MIN KMSN 240230Z 19007KT 10SM CLR 27/14 A2992 860 45 2400 190/07 RMK AO2
14837KMSN MSN20030623203509306/23/03 20:35:31  5-MIN KMSN 240235Z 18008KT 10SM CLR 27/14 A2992 860 45 2400 180/08 RMK AO2
14837KMSN MSN20030623204009306/23/03 20:40:31  5-MIN KMSN 240240Z 18009KT 10SM CLR 27/14 A2992 860 45 2400 180/09 RMK AO2
14837KMSN MSN20030623204509306/23/03 20:45:31  5-MIN KMSN 240245Z 18009KT 10SM CLR 26/14 A2993 860 46 2400 170/09 RMK AO2
14837KMSN MSN20030623205011606/23/03 20:50:31  5-MIN KMSN 240250Z 18007KT 10SM CLR 26/14 A2993 860 46 2400 180/07 RMK AO2 SLP128 T02610139 50000
14837KMSN MSN20030623205509306/23/03 20:55:31  5-MIN KMSN 240255Z 18008KT 10SM CLR 26/14 A2993 860 48 2400 180/08 RMK AO2
14837KMSN MSN20030623210009306/23/03 21:00:31  5-MIN KMSN 240300Z 18006KT 10SM CLR 26/14 A2993 860 49 2300 170/06 RMK AO2
14837KMSN MSN20030623210509306/23/03 21:05:31  5-MIN KMSN 240305Z 18007KT 10SM CLR 26/14 A2993 850 49 2300 170/07 RMK AO2
14837KMSN MSN20030623211009306/23/03 21:10:31  5-MIN KMSN 240310Z 18007KT 10SM CLR 26/14 A2993 850 49 2300 180/07 RMK AO2
14837KMSN MSN20030623211509306/23/03 21:15:31  5-MIN KMSN 240315Z 17006KT 10SM CLR 26/14 A2993 850 49 2300 170/06 RMK AO2
14837KMSN MSN20030623212009306/23/03 21:20:31  5-MIN KMSN 240320Z 17006KT 10SM CLR 24/14 A2993 860 53 2200 170/06 RMK AO2
14837KMSN MSN20030623212509306/23/03 21:25:31  5-MIN KMSN 240325Z 18006KT 10SM CLR 25/14 A2993 850 51 2200 170/06 RMK AO2
14837KMSN MSN20030623213009306/23/03 21:30:31  5-MIN KMSN 240330Z 18007KT 10SM CLR 24/14 A2993 850 53 2200 180/07 RMK AO2
14837KMSN MSN20030623213509306/23/03 21:35:31  5-MIN KMSN 240335Z 17007KT 10SM CLR 24/14 A2993 850 53 2200 170/07 RMK AO2
14837KMSN MSN20030623214009306/23/03 21:40:31  5-MIN KMSN 240340Z 17007KT 10SM CLR 25/14 A2993 850 51 2200 170/07 RMK AO2
14837KMSN MSN20030623214509306/23/03 21:45:31  5-MIN KMSN 240345Z 17007KT 10SM CLR 24/14 A2993 850 53 2200 170/07 RMK AO2
14837KMSN MSN20030623215011006/23/03 21:50:31  5-MIN KMSN 240350Z 17006KT 10SM CLR 24/14 A2993 850 53 2200 170/06 RMK AO2 SLP129 T02440144
14837KMSN MSN20030623215509306/23/03 21:55:31  5-MIN KMSN 240355Z 17006KT 10SM CLR 24/14 A2993 850 55 2100 170/06 RMK AO2
14837KMSN MSN20030623220009306/23/03 22:00:31  5-MIN KMSN 240400Z 17006KT 10SM CLR 24/14 A2993 850 55 2100 170/06 RMK AO2
14837KMSN MSN20030623220509306/23/03 22:05:31  5-MIN KMSN 240405Z 16006KT 10SM CLR 24/14 A2993 860 53 2200 160/06 RMK AO2
14837KMSN MSN20030623221009306/23/03 22:10:31  5-MIN KMSN 240410Z 17007KT 10SM CLR 24/14 A2993 860 55 2100 170/07 RMK AO2
14837KMSN MSN20030623221509306/23/03 22:15:31  5-MIN KMSN 240415Z 17007KT 10SM CLR 24/14 A2993 860 53 2200 170/07 RMK AO2
14837KMSN MSN20030623222009306/23/03 22:20:31  5-MIN KMSN 240420Z 18007KT 10SM CLR 24/14 A2992 860 53 2200 180/07 RMK AO2
14837KMSN MSN20030623222509306/23/03 22:25:31  5-MIN KMSN 240425Z 18006KT 10SM CLR 24/14 A2992 860 55 2100 180/06 RMK AO2
14837KMSN MSN20030623223009306/23/03 22:30:31  5-MIN KMSN 240430Z 18006KT 10SM CLR 24/14 A2992 860 55 2100 180/06 RMK AO2
14837KMSN MSN20030623223509306/23/03 22:35:31  5-MIN KMSN 240435Z 17007KT 10SM CLR 24/14 A2992 860 55 2100 170/07 RMK AO2
14837KMSN MSN20030623224009306/23/03 22:40:31  5-MIN KMSN 240440Z 17006KT 10SM CLR 24/14 A2992 860 55 2100 170/06 RMK AO2
14837KMSN MSN20030623224509306/23/03 22:45:31  5-MIN KMSN 240445Z 17006KT 10SM CLR 24/14 A2992 870 55 2100 170/06 RMK AO2
14837KMSN MSN20030623225011006/23/03 22:50:31  5-MIN KMSN 240450Z 17006KT 10SM CLR 23/14 A2991 870 57 2100 170/06 RMK AO2 SLP122 T02330144
14837KMSN MSN20030623225509306/23/03 22:55:31  5-MIN KMSN 240455Z 18007KT 10SM CLR 23/14 A2991 870 57 2100 180/07 RMK AO2
14837KMSN MSN20030623230009306/23/03 23:00:31  5-MIN KMSN 240500Z 18007KT 10SM CLR 24/14 A2991 870 55 2100 180/07 RMK AO2
14837KMSN MSN20030623230509306/23/03 23:05:31  5-MIN KMSN 240505Z 17008KT 10SM CLR 24/14 A2991 870 55 2100 170/08 RMK AO2
14837KMSN MSN20030623231009306/23/03 23:10:31  5-MIN KMSN 240510Z 17007KT 10SM CLR 24/15 A2991 880 57 2100 170/07 RMK AO2
14837KMSN MSN20030623231509606/23/03 23:15:31  5-MIN KMSN 240515Z 17007KT 10SM FEW075 24/15 A2991 880 57 2100 170/07 RMK AO2
14837KMSN MSN20030623232009606/23/03 23:20:31  5-MIN KMSN 240520Z 18008KT 10SM SCT075 24/15 A2991 880 57 2100 180/08 RMK AO2
14837KMSN MSN20030623232509606/23/03 23:25:31  5-MIN KMSN 240525Z 18009KT 10SM BKN075 24/15 A2991 880 57 2100 170/09 RMK AO2
14837KMSN MSN20030623233009606/23/03 23:30:31  5-MIN KMSN 240530Z 18008KT 10SM BKN075 24/15 A2991 880 57 2100 170/08 RMK AO2
14837KMSN MSN20030623233509606/23/03 23:35:31  5-MIN KMSN 240535Z 18008KT 10SM BKN075 24/15 A2991 870 57 2100 180/08 RMK AO2
14837KMSN MSN20030623234009606/23/03 23:40:31  5-MIN KMSN 240540Z 18008KT 10SM BKN075 24/15 A2991 870 57 2100 170/08 RMK AO2
14837KMSN MSN20030623234509606/23/03 23:45:31  5-MIN KMSN 240545Z 17007KT 10SM SCT075 24/15 A2991 870 57 2100 170/07 RMK AO2
14837KMSN MSN20030623235014106/23/03 23:50:31  5-MIN KMSN 240550Z 18008KT 10SM SCT075 24/15 A2991 870 57 2100 170/08 RMK AO2 SLP122 T02390150 10272 20233 403110167 53012
14837KMSN MSN20030623235509606/23/03 23:55:31  5-MIN KMSN 240555Z 18007KT 10SM FEW075 24/15 A2991 870 57 2100 180/07 RMK AO2
14837KMSN MSN20030624000009606/24/03 00:00:31  5-MIN KMSN 240600Z 18007KT 10SM FEW075 23/15 A2992 870 59 2100 180/07 RMK AO2
14837KMSN MSN20030624000509306/24/03 00:05:31  5-MIN KMSN 240605Z 18008KT 10SM CLR 24/15 A2992 860 57 2100 180/08 RMK AO2
14837KMSN MSN20030624001009306/24/03 00:10:31  5-MIN KMSN 240610Z 18007KT 10SM CLR 24/15 A2992 860 57 2100 180/07 RMK AO2
14837KMSN MSN20030624001509306/24/03 00:15:31  5-MIN KMSN 240615Z 18007KT 10SM CLR 24/15 A2992 860 57 2100 180/07 RMK AO2
14837KMSN MSN20030624002009306/24/03 00:20:31  5-MIN KMSN 240620Z 18007KT 10SM CLR 24/15 A2992 860 57 2100 180/07 RMK AO2
14837KMSN MSN20030624002509606/24/03 00:25:31  5-MIN KMSN 240625Z 18008KT 10SM FEW085 24/15 A2992 860 57 2100 180/08 RMK AO2
14837KMSN MSN20030624003009606/24/03 00:30:31  5-MIN KMSN 240630Z 19007KT 10SM SCT080 24/15 A2993 860 57 2100 190/07 RMK AO2
14837KMSN MSN20030624003509606/24/03 00:35:31  5-MIN KMSN 240635Z 18007KT 10SM BKN080 24/15 A2992 860 55 2200 180/07 RMK AO2
14837KMSN MSN20030624004009606/24/03 00:40:31  5-MIN KMSN 240640Z 18008KT 10SM BKN085 24/15 A2992 860 55 2200 180/08 RMK AO2
14837KMSN MSN20030624004509606/24/03 00:45:31  5-MIN KMSN 240645Z 18009KT 10SM BKN085 24/15 A2993 860 55 2200 180/09 RMK AO2
14837KMSN MSN20030624005011306/24/03 00:50:31  5-MIN KMSN 240650Z 19007KT 10SM OVC085 24/15 A2993 860 55 2200 190/07 RMK AO2 SLP127 T02440150
14837KMSN MSN20030624005509606/24/03 00:55:31  5-MIN KMSN 240655Z 19008KT 10SM OVC085 25/14 A2993 860 51 2300 190/08 RMK AO2
14837KMSN MSN20030624010009606/24/03 01:00:31  5-MIN KMSN 240700Z 19008KT 10SM OVC085 25/14 A2992 860 51 2300 190/08 RMK AO2
14837KMSN MSN20030624010509606/24/03 01:05:31  5-MIN KMSN 240705Z 19009KT 10SM OVC085 25/14 A2992 860 51 2300 190/09 RMK AO2
14837KMSN MSN20030624011009606/24/03 01:10:31  5-MIN KMSN 240710Z 19009KT 10SM OVC080 25/14 A2993 860 51 2300 190/09 RMK AO2
14837KMSN MSN20030624011509606/24/03 01:15:31  5-MIN KMSN 240715Z 19008KT 10SM OVC080 25/14 A2992 860 51 2300 180/08 RMK AO2
14837KMSN MSN20030624012009606/24/03 01:20:31  5-MIN KMSN 240720Z 18009KT 10SM OVC085 25/14 A2992 860 51 2300 180/09 RMK AO2
14837KMSN MSN20030624012509606/24/03 01:25:31  5-MIN KMSN 240725Z 19008KT 10SM OVC085 25/14 A2993 860 51 2200 190/08 RMK AO2
14837KMSN MSN20030624013009606/24/03 01:30:31  5-MIN KMSN 240730Z 19007KT 10SM OVC085 25/14 A2993 860 51 2200 190/07 RMK AO2
14837KMSN MSN20030624013509606/24/03 01:35:31  5-MIN KMSN 240735Z 19006KT 10SM OVC085 25/14 A2993 860 51 2200 190/06 RMK AO2
14837KMSN MSN20030624014009606/24/03 01:40:31  5-MIN KMSN 240740Z 19006KT 10SM OVC085 25/14 A2993 860 51 2200 190/06 RMK AO2
14837KMSN MSN20030624014509606/24/03 01:45:31  5-MIN KMSN 240745Z 20007KT 10SM OVC085 25/14 A2993 860 51 2200 190/07 RMK AO2
14837KMSN MSN20030624015011306/24/03 01:50:31  5-MIN KMSN 240750Z 20007KT 10SM OVC085 25/14 A2993 850 51 2200 200/07 RMK AO2 SLP128 T02500144
14837KMSN MSN20030624015509606/24/03 01:55:31  5-MIN KMSN 240755Z 19006KT 10SM OVC085 24/14 A2993 850 53 2200 190/06 RMK AO2
14837KMSN MSN20030624020009606/24/03 02:00:31  5-MIN KMSN 240800Z 19008KT 10SM OVC085 24/14 A2993 860 53 2200 190/08 RMK AO2
14837KMSN MSN20030624020509606/24/03 02:05:31  5-MIN KMSN 240805Z 19007KT 10SM OVC085 24/14 A2993 860 53 2200 190/07 RMK AO2
14837KMSN MSN20030624021009606/24/03 02:10:31  5-MIN KMSN 240810Z 19006KT 10SM OVC085 24/14 A2993 860 53 2200 190/06 RMK AO2
14837KMSN MSN20030624021509606/24/03 02:15:31  5-MIN KMSN 240815Z 18007KT 10SM BKN085 24/14 A2992 860 53 2200 180/07 RMK AO2
14837KMSN MSN20030624022009606/24/03 02:20:31  5-MIN KMSN 240820Z 18007KT 10SM SCT085 24/14 A2992 860 55 2100 180/07 RMK AO2
14837KMSN MSN20030624022509606/24/03 02:25:31  5-MIN KMSN 240825Z 18005KT 10SM SCT085 24/14 A2993 860 55 2100 180/05 RMK AO2
14837KMSN MSN20030624023009606/24/03 02:30:31  5-MIN KMSN 240830Z 18006KT 10SM FEW085 24/14 A2992 860 55 2100 180/06 RMK AO2
14837KMSN MSN20030624023509606/24/03 02:35:31  5-MIN KMSN 240835Z 18007KT 10SM FEW085 24/14 A2993 860 55 2100 170/07 RMK AO2
14837KMSN MSN20030624024009306/24/03 02:40:31  5-MIN KMSN 240840Z 18006KT 10SM CLR 24/14 A2993 850 55 2100 180/06 RMK AO2
14837KMSN MSN20030624024509306/24/03 02:45:31  5-MIN KMSN 240845Z 17007KT 10SM CLR 23/14 A2993 860 57 2100 170/07 RMK AO2
14837KMSN MSN20030624025011606/24/03 02:50:31  5-MIN KMSN 240850Z 18006KT 10SM CLR 23/14 A2993 860 57 2100 180/06 RMK AO2 SLP128 T02330144 58005
14837KMSN MSN20030624025509306/24/03 02:55:31  5-MIN KMSN 240855Z 19007KT 10SM CLR 24/14 A2993 860 55 2100 190/07 RMK AO2
14837KMSN MSN20030624030009306/24/03 03:00:31  5-MIN KMSN 240900Z 18007KT 10SM CLR 23/14 A2992 860 57 2100 180/07 RMK AO2
14837KMSN MSN20030624030509306/24/03 03:05:31  5-MIN KMSN 240905Z 18008KT 10SM CLR 23/14 A2992 870 57 2100 180/08 RMK AO2
14837KMSN MSN20030624031009306/24/03 03:10:31  5-MIN KMSN 240910Z 18009KT 10SM CLR 23/14 A2992 860 57 2100 180/09 RMK AO2
14837KMSN MSN20030624031509306/24/03 03:15:31  5-MIN KMSN 240915Z 17009KT 10SM CLR 23/14 A2992 860 57 2100 170/09 RMK AO2
14837KMSN MSN20030624032009306/24/03 03:20:31  5-MIN KMSN 240920Z 17009KT 10SM CLR 23/15 A2992 860 59 2100 170/09 RMK AO2
14837KMSN MSN20030624032509306/24/03 03:25:31  5-MIN KMSN 240925Z 17008KT 10SM CLR 23/15 A2992 860 59 2100 170/08 RMK AO2
14837KMSN MSN20030624033009306/24/03 03:30:31  5-MIN KMSN 240930Z 18008KT 10SM CLR 23/15 A2992 860 59 2100 180/08 RMK AO2
14837KMSN MSN20030624033509306/24/03 03:35:31  5-MIN KMSN 240935Z 18008KT 10SM CLR 23/15 A2993 850 59 2100 180/08 RMK AO2
14837KMSN MSN20030624034009306/24/03 03:40:31  5-MIN KMSN 240940Z 18009KT 10SM CLR 23/15 A2993 850 59 2100 180/09 RMK AO2
14837KMSN MSN20030624034509306/24/03 03:45:31  5-MIN KMSN 240945Z 19009KT 10SM CLR 23/14 A2994 850 57 2100 180/09 RMK AO2
14837KMSN MSN20030624035011006/24/03 03:50:31  5-MIN KMSN 240950Z 19008KT 10SM CLR 23/14 A2994 850 57 2000 190/08 RMK AO2 SLP132 T02330144
14837KMSN MSN20030624035509306/24/03 03:55:31  5-MIN KMSN 240955Z 18009KT 10SM CLR 23/14 A2994 850 57 2100 180/09 RMK AO2
14837KMSN MSN20030624040009306/24/03 04:00:31  5-MIN KMSN 241000Z 18008KT 10SM CLR 23/14 A2994 850 57 2000 180/08 RMK AO2
14837KMSN MSN20030624040509306/24/03 04:05:31  5-MIN KMSN 241005Z 18009KT 10SM CLR 23/14 A2994 850 57 2000 180/09 RMK AO2
14837KMSN MSN20030624041009306/24/03 04:10:31  5-MIN KMSN 241010Z 18008KT 10SM CLR 23/14 A2993 850 57 2100 180/08 RMK AO2
14837KMSN MSN20030624041509206/24/03 04:15:31  5-MIN KMSN 241015Z 18008KT 9SM CLR 23/14 A2993 850 59 2000 180/08 RMK AO2
14837KMSN MSN20030624044509206/24/03 04:45:31  5-MIN KMSN 241045Z 19007KT 9SM CLR 23/15 A2995 840 59 2000 190/07 RMK AO2
14837KMSN MSN20030624045010906/24/03 04:50:31  5-MIN KMSN 241050Z 19007KT 9SM CLR 23/15 A2995 830 59 2000 190/07 RMK AO2 SLP137 T02330150
14837KMSN MSN20030624045509206/24/03 04:55:31  5-MIN KMSN 241055Z 18009KT 9SM CLR 23/15 A2995 840 59 2000 180/09 RMK AO2
14837KMSN MSN20030624050009206/24/03 05:00:31  5-MIN KMSN 241100Z VRB06KT 9SM CLR 23/15 A2996 820 59 2000 VRB/06 RMK AO2
14837KMSN MSN20030624050509206/24/03 05:05:31  5-MIN KMSN 241105Z 19007KT 9SM CLR 23/15 A2996 820 59 2000 190/07 RMK AO2
14837KMSN MSN20030624051009206/24/03 05:10:31  5-MIN KMSN 241110Z VRB06KT 9SM CLR 23/15 A2997 820 59 2000 VRB/06 RMK AO2
14837KMSN MSN20030624051509506/24/03 05:15:31  5-MIN KMSN 241115Z 20005KT 9SM SCT055 23/16 A2997 820 61 2000 200/05 RMK AO2
14837KMSN MSN20030624052010206/24/03 05:20:31  5-MIN KMSN 241120Z 20003KT 9SM SCT055 BKN075 23/16 A2997 820 61 2000 200/03 RMK AO2
14837KMSN MSN20030624052510206/24/03 05:25:31  5-MIN KMSN 241125Z 20006KT 9SM BKN060 BKN075 23/16 A2997 820 61 2000 200/06 RMK AO2
14837KMSN MSN20030624053009506/24/03 05:30:31  5-MIN KMSN 241130Z VRB04KT 9SM BKN060 24/16 A2997 810 59 2100 VRB/04 RMK AO2
14837KMSN MSN20030624053509506/24/03 05:35:31  5-MIN KMSN 241135Z 23006KT 9SM BKN060 24/16 A2998 810 61 2100 220/06 RMK AO2
14837KMSN MSN20030624054009506/24/03 05:40:31  5-MIN KMSN 241140Z 21007KT 9SM BKN060 24/16 A2998 810 59 2100 210/07 RMK AO2
14837KMSN MSN20030624054510306/24/03 05:45:31  5-MIN KMSN 241145Z 22007KT 10SM BKN055 BKN090 23/16 A2998 810 61 2000 220/07 RMK AO2
14837KMSN MSN20030624055016106/24/03 05:50:31  5-MIN KMSN 241150Z 26009KT 230V290 10SM BKN055 BKN090 23/16 A3001 780 63 2000 260/09 230V290 RMK AO2 PRESRR SLP155 T02330161 10250 20228 50005
14837KMSN MSN20030624055511606/24/03 05:55:31  5-MIN KMSN 241155Z 27008KT 9SM FEW037 BKN050 OVC090 23/16 A3003 760 63 1900 270/08 RMK AO2 PRESRR
14837KMSN MSN20030624060014606/24/03 06:00:31  5-MIN KMSN 241200Z 28011KT 9SM TS FEW037 BKN055 OVC090 23/16 A3002 770 63 2000 280/11 RMK AO2 TSB00 FRQ LTGIC OHD TS OHD MOV NE
14837KMSN MSN20030624060515906/24/03 06:05:31  5-MIN KMSN 241205Z 28013G19KT 5SM -TSRA FEW027 OVC060 23/16 A3004 760 63 1900 280/13G19 RMK AO2 TSB00RAB01 FRQ LTGIC OHD TS OHD MOV NE P0002
14837KMSN MSN20030624061016506/24/03 06:10:31  5-MIN KMSN 241210Z 30010G19KT 4SM TSRA FEW028 BKN060 OVC085 22/17 A3003 770 75 1800 300/10G19 RMK AO2 TSB00RAB01 FRQ LTGIC OHD TS OHD MOV NE P0004
14837KMSN MSN20030624061518106/24/03 06:15:31  5-MIN KMSN 241215Z 28007G17KT 2 1/2SM TSRA FEW015 BKN055 OVC080 21/18 A3004 750 81 1700 280/07G17 RMK AO2 VIS 1 1/4V5 TSB00RAB01 FRQ LTGIC OHD TS OHD MOV NE P0010
14837KMSN MSN20030624062016306/24/03 06:20:31  5-MIN KMSN 241220Z 32005KT 2 1/2SM TSRA SCT031 BKN048 OVC080 21/18 A3002 770 84 1600 310/05 RMK AO2 TSB00RAB01 FRQ LTGIC OHD TS OHD MOV NE P0013
14837KMSN MSN20030624062516406/24/03 06:25:31  5-MIN KMSN 241225Z 00000KT 2 1/2SM -TSRA BKN039 BKN060 OVC070 21/18 A3002 770 84 1600 000/00 RMK AO2 TSB00RAB01 FRQ LTGIC OHD TS OHD MOV NE P0013
14837KMSN MSN20030624063017306/24/03 06:30:31  5-MIN KMSN 241230Z 00000KT 1 1/2SM TSRA BKN037 BKN060 OVC070 21/18 A3001 780 84 1600 000/00 RMK AO2 TWR VIS 2 TSB00RAB01 FRQ LTGIC OHD TS OHD MOV NE P0016
14837KMSN MSN20030624063516006/24/03 06:35:31  5-MIN KMSN 241235Z 18003KT 2SM -TSRA BKN041 BKN070 OVC090 21/18 A3002 780 84 1600 180/03 RMK AO2 TSB00RAB01 FRQ LTGIC OHD TS OHD MOV NE P0017
14837KMSN MSN20030624064015906/24/03 06:40:31  5-MIN KMSN 241240Z 17006KT 2SM -TSRA BR OVC055 21/18 A3001 780 87 1600 170/06 RMK AO2 SFC VIS 3 TSB00RAB01 FRQ LTGIC OHD TS OHD MOV NE P0017
14837KMSN MSN20030624064514906/24/03 06:45:31  5-MIN KMSN 241245Z 13006KT 3SM -TSRA BR OVC060 20/18 A3001 780 90 1600 130/06 RMK AO2 TSB00RAB01 FRQ LTGIC OHD TS OHD MOV NE P0017
14837KMSN MSN20030624065016606/24/03 06:50:31  5-MIN KMSN 241250Z 13004KT 3SM -TSRA BR OVC060 20/18 A3002 770 90 1600 130/04 RMK AO2 TSB00RAB01 SLP161 FRQ LTGIC OHD TS OHD MOV NE P0017 T02000183
14837KMSN MSN20030624065511706/24/03 06:55:31  5-MIN KMSN 241255Z 11009KT 4SM -TSRA BR OVC060 20/18 A2999 800 90 1600 110/09 RMK AO2 PRESFR P0000
14837KMSN MSN20030624070014506/24/03 07:00:31  5-MIN KMSN 241300Z 09009KT 3SM -TSRA BR OVC060 20/19 A2998 810 93 1600 090/09 RMK AO2 PRESFR FRQ LTGIC OHD TS OHD MOV NE P0001
14837KMSN MSN20030624070513806/24/03 07:05:31  5-MIN KMSN 241305Z 15008KT 3SM -TSRA BR OVC060 20/19 A2999 800 93 1600 150/08 RMK AO2 FRQ LTGIC OHD TS OHD MOV NE P0001
14837KMSN MSN20030624071013806/24/03 07:10:31  5-MIN KMSN 241310Z 15007KT 4SM -TSRA BR BKN060 20/19 A2999 800 93 1600 150/07 RMK AO2 FRQ LTGIC OHD TS OHD MOV NE P0001
14837KMSN MSN20030624071514006/24/03 07:15:31  5-MIN KMSN 241315Z 17008KT 4SM -TSRA BR BKN060 20/19 A3000 790 93 1600 170/08 RMK AO2 FRQ LTGCGIC OHD TS OHD MOV NE P0001
14837KMSN MSN20030624072014006/24/03 07:20:31  5-MIN KMSN 241320Z 17008KT 4SM -TSRA BR SCT050 20/19 A3000 790 93 1600 170/08 RMK AO2 FRQ LTGCGIC OHD TS OHD MOV NE P0001
14837KMSN MSN20030624072514306/24/03 07:25:31  5-MIN KMSN 241325Z 17005KT 4SM TS BR SCT050 20/18 A3000 790 90 1600 170/05 RMK AO2 RAE21 FRQ LTGCGIC OHD TS OHD MOV NE P0001
14837KMSN MSN20030624073014306/24/03 07:30:31  5-MIN KMSN 241330Z 16005KT 4SM TS BR FEW060 20/18 A2999 800 90 1600 160/05 RMK AO2 RAE21 FRQ LTGCGIC OHD TS OHD MOV NE P0001
14837KMSN MSN20030624073515006/24/03 07:35:31  5-MIN KMSN 241335Z 14006KT 5SM TS BR FEW060 BKN120 20/18 A2999 800 90 1600 140/06 RMK AO2 RAE21 FRQ LTGCGIC OHD TS OHD MOV NE P0001
14837KMSN MSN20030624074014306/24/03 07:40:31  5-MIN KMSN 241340Z 14004KT 5SM TS BR FEW060 20/18 A2999 800 90 1600 140/04 RMK AO2 RAE21 FRQ LTGCGIC OHD TS OHD MOV NE P0001
14837KMSN MSN20030624074514006/24/03 07:45:31  5-MIN KMSN 241345Z 13008KT 7SM TS FEW060 20/18 A2998 810 90 1600 130/08 RMK AO2 RAE21 FRQ LTGCGIC OHD TS OHD MOV NE P0001
14837KMSN MSN20030624075015406/24/03 07:50:31  5-MIN KMSN 241350Z 14008KT 7SM TS CLR 21/18 A2998 810 87 1700 140/08 RMK AO2 RAE21 SLP147 FRQ LTGCGIC OHD TS OHD MOV NE P0001 T02060183
14837KMSN MSN20030624075510206/24/03 07:55:31  5-MIN KMSN 241355Z 14009KT 7SM FEW060 BKN120 21/18 A2998 810 87 1700 140/09 RMK AO2
14837KMSN MSN20030624080010506/24/03 08:00:31  5-MIN KMSN 241400Z 15010KT 6SM BR FEW060 BKN120 21/19 A2998 810 90 1700 140/10 RMK AO2
14837KMSN MSN20030624080510506/24/03 08:05:31  5-MIN KMSN 241405Z 15008KT 5SM BR FEW060 BKN120 21/19 A2998 810 90 1700 150/08 RMK AO2
14837KMSN MSN20030624081010506/24/03 08:10:31  5-MIN KMSN 241410Z 16008KT 5SM BR FEW060 BKN120 21/19 A2998 810 90 1700 160/08 RMK AO2
14837KMSN MSN20030624081510506/24/03 08:15:31  5-MIN KMSN 241415Z 16010KT 5SM BR FEW060 BKN120 21/19 A2997 820 90 1800 160/10 RMK AO2
14837KMSN MSN20030624082010506/24/03 08:20:31  5-MIN KMSN 241420Z 16009KT 5SM BR FEW060 BKN120 22/19 A2996 820 87 1800 160/09 RMK AO2
14837KMSN MSN20030624082510506/24/03 08:25:31  5-MIN KMSN 241425Z 16008KT 5SM BR FEW060 BKN120 22/20 A2996 830 87 1900 160/08 RMK AO2
14837KMSN MSN20030624083010506/24/03 08:30:31  5-MIN KMSN 241430Z 16010KT 6SM HZ FEW060 BKN120 22/19 A2997 820 84 1900 160/10 RMK AO2
14837KMSN MSN20030624083510506/24/03 08:35:31  5-MIN KMSN 241435Z 16011KT 6SM HZ FEW060 BKN120 23/20 A2997 820 84 2000 160/11 RMK AO2
14837KMSN MSN20030624084010206/24/03 08:40:31  5-MIN KMSN 241440Z 17014KT 7SM FEW060 BKN120 23/20 A2996 830 84 2000 160/14 RMK AO2
14837KMSN MSN20030624084510206/24/03 08:45:31  5-MIN KMSN 241445Z 17011KT 7SM FEW060 BKN120 23/20 A2995 830 81 2000 160/11 RMK AO2
14837KMSN MSN20030624085013106/24/03 08:50:31  5-MIN KMSN 241450Z 17010KT 7SM FEW060 BKN120 24/21 A2995 830 81 2100 170/10 RMK AO2 SLP137 60018 T02390206 53034
14837KMSN MSN20030624085509206/24/03 08:55:31  5-MIN KMSN 241455Z 18012KT 7SM CLR 24/21 A2995 840 78 2200 180/12 RMK AO2
14837KMSN MSN20030624090009806/24/03 09:00:31  5-MIN KMSN 241500Z 17014G18KT 8SM CLR 24/21 A2994 840 78 2200 170/14G18 RMK AO2
14837KMSN MSN20030624090509806/24/03 09:05:31  5-MIN KMSN 241505Z 17016KT 8SM CLR 25/20 A2994 840 73 2200 170/16 RMK AO2 P0001
14837KMSN MSN20030624091009806/24/03 09:10:31  5-MIN KMSN 241510Z 17014KT 8SM CLR 25/20 A2994 840 73 2200 170/14 RMK AO2 P0001
14837KMSN MSN20030624091509806/24/03 09:15:31  5-MIN KMSN 241515Z 17017KT 8SM CLR 25/20 A2994 840 73 2200 170/17 RMK AO2 P0001
14837KMSN MSN20030624092009806/24/03 09:20:31  5-MIN KMSN 241520Z 16017KT 8SM CLR 26/20 A2994 850 71 2300 160/17 RMK AO2 P0001
14837KMSN MSN20030624092510406/24/03 09:25:31  5-MIN KMSN 241525Z 17015G20KT 8SM CLR 26/20 A2994 850 71 2300 170/15G20 RMK AO2 P0001
14837KMSN MSN20030624093009806/24/03 09:30:31  5-MIN KMSN 241530Z 17016G23KT 7SM CLR 26/20 A2994 850 68 2400 170/16G23 RMK AO2
14837KMSN MSN20030624093509806/24/03 09:35:31  5-MIN KMSN 241535Z 17018G23KT 7SM CLR 26/20 A2994 850 68 2400 170/18G23 RMK AO2
14837KMSN MSN20030624094009806/24/03 09:40:31  5-MIN KMSN 241540Z 16020G23KT 7SM CLR 26/20 A2994 850 68 2400 160/20G23 RMK AO2
14837KMSN MSN20030624094509806/24/03 09:45:31  5-MIN KMSN 241545Z 17018G23KT 7SM CLR 27/20 A2994 850 66 2400 170/18G23 RMK AO2
14837KMSN MSN20030624095011506/24/03 09:50:31  5-MIN KMSN 241550Z 17017G24KT 7SM CLR 27/19 A2994 850 64 2400 170/17G24 RMK AO2 SLP132 T02670194
14837KMSN MSN20030624095509806/24/03 09:55:31  5-MIN KMSN 241555Z 17016G24KT 7SM CLR 27/20 A2994 840 66 2400 170/16G24 RMK AO2
14837KMSN MSN20030624100009806/24/03 10:00:31  5-MIN KMSN 241600Z 18014G23KT 7SM CLR 27/20 A2994 840 64 2500 180/14G23 RMK AO2
14837KMSN MSN20030624100509206/24/03 10:05:31  5-MIN KMSN 241605Z 18016KT 7SM CLR 28/20 A2994 840 62 2500 170/16 RMK AO2
14837KMSN MSN20030624101009206/24/03 10:10:31  5-MIN KMSN 241610Z 18018KT 7SM CLR 28/20 A2995 840 62 2500 180/18 RMK AO2
14837KMSN MSN20030624101509206/24/03 10:15:31  5-MIN KMSN 241615Z 17017KT 7SM CLR 28/20 A2995 840 62 2500 170/17 RMK AO2
14837KMSN MSN20030624102009806/24/03 10:20:31  5-MIN KMSN 241620Z 17015G22KT 7SM CLR 28/21 A2995 840 62 2600 170/15G22 RMK AO2
14837KMSN MSN20030624102509206/24/03 10:25:31  5-MIN KMSN 241625Z 17016KT 7SM CLR 28/21 A2995 830 62 2600 170/16 RMK AO2
14837KMSN MSN20030624103009806/24/03 10:30:31  5-MIN KMSN 241630Z 18013G21KT 7SM CLR 28/21 A2996 830 62 2600 180/13G21 RMK AO2
14837KMSN MSN20030624103509206/24/03 10:35:31  5-MIN KMSN 241635Z 18017KT 7SM CLR 28/21 A2996 830 62 2600 180/17 RMK AO2
14837KMSN MSN20030624104009806/24/03 10:40:31  5-MIN KMSN 241640Z 17015G21KT 7SM CLR 28/21 A2996 830 62 2600 170/15G21 RMK AO2
14837KMSN MSN20030624104509806/24/03 10:45:31  5-MIN KMSN 241645Z 18015G21KT 7SM CLR 28/21 A2996 830 62 2600 180/15G21 RMK AO2
14837KMSN MSN20030624105010906/24/03 10:50:31  5-MIN KMSN 241650Z 17013KT 7SM CLR 29/21 A2996 830 60 2600 170/13 RMK AO2 SLP140 T02890206
14837KMSN MSN20030624105509506/24/03 10:55:31  5-MIN KMSN 241655Z 18017KT 7SM FEW110 29/21 A2996 820 60 2600 180/17 RMK AO2
14837KMSN MSN20030624110009206/24/03 11:00:31  5-MIN KMSN 241700Z 17016KT 8SM CLR 29/21 A2996 820 60 2600 170/16 RMK AO2
14837KMSN MSN20030624110509206/24/03 11:05:31  5-MIN KMSN 241705Z 17013KT 8SM CLR 29/21 A2996 820 60 2700 170/13 RMK AO2
14837KMSN MSN20030624111009806/24/03 11:10:31  5-MIN KMSN 241710Z 17015G19KT 7SM CLR 29/21 A2997 820 60 2700 170/15G19 RMK AO2
14837KMSN MSN20030624111509806/24/03 11:15:31  5-MIN KMSN 241715Z 18014G20KT 7SM CLR 29/21 A2997 820 60 2700 180/14G20 RMK AO2
14837KMSN MSN20030624112009806/24/03 11:20:31  5-MIN KMSN 241720Z 17015G19KT 7SM CLR 29/21 A2997 820 60 2700 170/15G19 RMK AO2
14837KMSN MSN20030624112509806/24/03 11:25:31  5-MIN KMSN 241725Z 18012G19KT 7SM CLR 30/21 A2996 820 58 2800 180/12G19 RMK AO2
14837KMSN MSN20030624113009206/24/03 11:30:31  5-MIN KMSN 241730Z 18011KT 8SM CLR 30/21 A2997 820 58 2800 180/11 RMK AO2
14837KMSN MSN20030624113509206/24/03 11:35:31  5-MIN KMSN 241735Z 18012KT 7SM CLR 30/22 A2997 820 60 2800 180/12 RMK AO2
14837KMSN MSN20030624114009206/24/03 11:40:31  5-MIN KMSN 241740Z 18012KT 7SM CLR 30/21 A2997 820 58 2800 180/12 RMK AO2
14837KMSN MSN20030624114509806/24/03 11:45:31  5-MIN KMSN 241745Z 18012G17KT 8SM CLR 31/21 A2997 820 56 2800 180/12G17 RMK AO2
14837KMSN MSN20030624115014206/24/03 11:50:31  5-MIN KMSN 241750Z 18012G17KT 8SM FEW100 30/21 A2996 820 58 2800 180/12G17 RMK AO2 SLP140 60018 T03000211 10306 20200 58026
14837KMSN MSN20030624115509506/24/03 11:55:31  5-MIN KMSN 241755Z 18013KT 7SM FEW100 31/22 A2996 820 58 2800 180/13 RMK AO2
14837KMSN MSN20030624120010106/24/03 12:00:31  5-MIN KMSN 241800Z 18016G19KT 7SM FEW100 31/22 A2996 830 58 2800 180/16G19 RMK AO2
14837KMSN MSN20030624120509806/24/03 12:05:31  5-MIN KMSN 241805Z 18012G20KT 8SM CLR 31/22 A2996 820 56 2900 180/12G20 RMK AO2
14837KMSN MSN20030624121009806/24/03 12:10:31  5-MIN KMSN 241810Z 18012G20KT 8SM CLR 31/22 A2996 830 56 2900 180/12G20 RMK AO2
14837KMSN MSN20030624121509806/24/03 12:15:31  5-MIN KMSN 241815Z 19013G19KT 7SM CLR 31/22 A2996 830 56 2900 190/13G19 RMK AO2
14837KMSN MSN20030624122009206/24/03 12:20:31  5-MIN KMSN 241820Z 19012KT 7SM CLR 31/22 A2996 830 56 2900 190/12 RMK AO2
14837KMSN MSN20030624122509206/24/03 12:25:31  5-MIN KMSN 241825Z 18013KT 8SM CLR 32/22 A2996 830 55 3000 180/13 RMK AO2
14837KMSN MSN20030624123009206/24/03 12:30:31  5-MIN KMSN 241830Z 20010KT 8SM CLR 32/22 A2996 820 55 2900 200/10 RMK AO2
14837KMSN MSN20030624123509506/24/03 12:35:31  5-MIN KMSN 241835Z 21010KT 8SM FEW040 32/22 A2997 820 55 2900 210/10 RMK AO2
14837KMSN MSN20030624124010106/24/03 12:40:31  5-MIN KMSN 241840Z 20010G15KT 8SM SCT040 32/22 A2997 820 55 2900 200/10G15 RMK AO2
14837KMSN MSN20030624124509506/24/03 12:45:31  5-MIN KMSN 241845Z 22009KT 8SM SCT044 32/22 A2997 820 55 2900 210/09 RMK AO2
14837KMSN MSN20030624125011206/24/03 12:50:31  5-MIN KMSN 241850Z 22007KT 8SM SCT044 32/22 A2996 820 55 2900 220/07 RMK AO2 SLP140 T03170217
14837KMSN MSN20030624125509506/24/03 12:55:31  5-MIN KMSN 241855Z 20007KT 8SM BKN045 32/22 A2997 820 56 2900 200/07 RMK AO2
14837KMSN MSN20030624130009506/24/03 13:00:31  5-MIN KMSN 241900Z 20011KT 8SM BKN045 32/22 A2997 820 56 2900 190/11 RMK AO2
14837KMSN MSN20030624130510206/24/03 13:05:31  5-MIN KMSN 241905Z VRB06KT 8SM SCT042 SCT050 32/22 A2997 820 56 2900 VRB/06 RMK AO2
14837KMSN MSN20030624131010106/24/03 13:10:31  5-MIN KMSN 241910Z 20008G17KT 8SM SCT042 32/22 A2997 820 56 2900 200/08G17 RMK AO2
14837KMSN MSN20030624131510106/24/03 13:15:31  5-MIN KMSN 241915Z 21009G17KT 8SM FEW042 32/22 A2997 820 55 3000 210/09G17 RMK AO2
14837KMSN MSN20030624132009506/24/03 13:20:31  5-MIN KMSN 241920Z VRB06KT 8SM FEW042 32/22 A2997 820 55 3000 VRB/06 RMK AO2
14837KMSN MSN20030624132510206/24/03 13:25:31  5-MIN KMSN 241925Z 23007KT 8SM FEW044 SCT055 32/23 A2997 820 58 2900 230/07 RMK AO2
14837KMSN MSN20030624133010206/24/03 13:30:31  5-MIN KMSN 241930Z 21006KT 8SM FEW044 SCT055 32/22 A2997 820 56 2900 210/06 RMK AO2
14837KMSN MSN20030624133510206/24/03 13:35:31  5-MIN KMSN 241935Z 20006KT 8SM FEW044 SCT055 32/22 A2997 820 56 2900 200/06 RMK AO2
14837KMSN MSN20030624134010206/24/03 13:40:31  5-MIN KMSN 241940Z 22008KT 8SM SCT045 BKN055 32/22 A2997 820 56 2900 220/08 RMK AO2
14837KMSN MSN20030624134510206/24/03 13:45:31  5-MIN KMSN 241945Z VRB06KT 8SM FEW044 BKN055 32/22 A2997 820 56 2900 VRB/06 RMK AO2
14837KMSN MSN20030624135011206/24/03 13:50:31  5-MIN KMSN 241950Z VRB06KT 8SM SCT048 32/23 A2997 820 57 3000 VRB/06 RMK AO2 SLP140 T03220228
14837KMSN MSN20030624135509506/24/03 13:55:31  5-MIN KMSN 241955Z 22006KT 8SM BKN048 32/23 A2997 820 58 2900 220/06 RMK AO2
14837KMSN MSN20030624140010106/24/03 14:00:31  5-MIN KMSN 242000Z 21010G14KT 8SM BKN048 32/22 A2997 820 55 3000 210/10G14 RMK AO2
14837KMSN MSN20030624140510106/24/03 14:05:31  5-MIN KMSN 242005Z 22009G14KT 9SM FEW047 32/22 A2996 820 53 3000 210/09G14 RMK AO2
14837KMSN MSN20030624141010106/24/03 14:10:31  5-MIN KMSN 242010Z 22006G14KT 9SM FEW049 32/22 A2996 830 55 3000 220/06G14 RMK AO2
14837KMSN MSN20030624141509506/24/03 14:15:31  5-MIN KMSN 242015Z 22008KT 9SM FEW049 32/22 A2996 830 55 3000 220/08 RMK AO2
14837KMSN MSN20030624142010106/24/03 14:20:31  5-MIN KMSN 242020Z 21010G15KT 8SM FEW050 32/22 A2996 820 53 3000 210/10G15 RMK AO2
14837KMSN MSN20030624142510106/24/03 14:25:31  5-MIN KMSN 242025Z 24008G15KT 8SM FEW050 32/22 A2996 820 55 3000 240/08G15 RMK AO2
14837KMSN MSN20030624143009506/24/03 14:30:31  5-MIN KMSN 242030Z 26006KT 9SM FEW050 32/22 A2996 830 55 3000 260/06 RMK AO2
14837KMSN MSN20030624143509506/24/03 14:35:31  5-MIN KMSN 242035Z 25006KT 9SM FEW050 32/23 A2996 830 57 3000 250/06 RMK AO2
14837KMSN MSN20030624144009506/24/03 14:40:31  5-MIN KMSN 242040Z 23005KT 9SM FEW050 32/23 A2996 830 57 3000 220/05 RMK AO2
14837KMSN MSN20030624144511106/24/03 14:45:31  5-MIN KMSN 242045Z 23007KT 190V260 9SM FEW050 32/23 A2995 830 57 3000 230/07 190V260 RMK AO2
14837KMSN MSN20030624145013406/24/03 14:50:31  5-MIN KMSN 242050Z 23009KT 200V280 9SM SCT050 33/22 A2995 840 53 3100 230/09 200V280 RMK AO2 SLP135 T03280222 53004
14837KMSN MSN20030624145510806/24/03 14:55:31  5-MIN KMSN 242055Z 21007KT 170V240 9SM CLR 33/22 A2995 840 53 3100 200/07 170V240 RMK AO2
14837KMSN MSN20030624150009506/24/03 15:00:31  5-MIN KMSN 242100Z 23008KT 9SM SCT050 33/22 A2995 840 53 3100 220/08 RMK AO2
14837KMSN MSN20030624150509506/24/03 15:05:31  5-MIN KMSN 242105Z 21007KT 9SM SCT050 33/23 A2995 840 55 3100 210/07 RMK AO2
14837KMSN MSN20030624151009506/24/03 15:10:31  5-MIN KMSN 242110Z 19007KT 9SM SCT050 33/22 A2995 840 53 3100 190/07 RMK AO2
14837KMSN MSN20030624151509506/24/03 15:15:31  5-MIN KMSN 242115Z 21009KT 9SM SCT050 33/22 A2995 840 51 3200 210/09 RMK AO2
14837KMSN MSN20030624152009506/24/03 15:20:31  5-MIN KMSN 242120Z 21007KT 9SM SCT046 33/23 A2995 840 55 3100 200/07 RMK AO2
14837KMSN MSN20030624152509506/24/03 15:25:31  5-MIN KMSN 242125Z 22007KT 9SM SCT046 33/23 A2995 840 55 3100 220/07 RMK AO2
14837KMSN MSN20030624153009506/24/03 15:30:31  5-MIN KMSN 242130Z 22008KT 8SM SCT046 33/23 A2995 840 55 3100 220/08 RMK AO2
14837KMSN MSN20030624153509506/24/03 15:35:31  5-MIN KMSN 242135Z 20008KT 8SM SCT046 33/23 A2995 840 55 3100 200/08 RMK AO2
14837KMSN MSN20030624154009506/24/03 15:40:31  5-MIN KMSN 242140Z 21008KT 8SM SCT046 33/23 A2995 840 53 3200 210/08 RMK AO2
14837KMSN MSN20030624154509506/24/03 15:45:31  5-MIN KMSN 242145Z 20007KT 8SM SCT046 33/22 A2994 840 51 3200 200/07 RMK AO2
14837KMSN MSN20030624155012806/24/03 15:50:31  5-MIN KMSN 242150Z 23008KT 190V250 8SM SCT050 33/22 A2994 840 51 3200 230/08 190V250 RMK AO2 SLP133 T03330222
14837KMSN MSN20030624155510106/24/03 15:55:31  5-MIN KMSN 242155Z 21010G14KT 9SM SCT050 33/22 A2994 840 51 3200 210/10G14 RMK AO2
14837KMSN MSN20030624160010106/24/03 16:00:31  5-MIN KMSN 242200Z 22007G14KT 9SM SCT050 33/22 A2994 840 51 3200 210/07G14 RMK AO2
14837KMSN MSN20030624160511206/24/03 16:05:31  5-MIN KMSN 242205Z 22007KT 190V260 10SM SCT050 33/22 A2995 840 51 3200 220/07 190V260 RMK AO2
14837KMSN MSN20030624161010106/24/03 16:10:31  5-MIN KMSN 242210Z 22011G15KT 9SM FEW050 33/22 A2995 840 51 3200 220/11G15 RMK AO2
14837KMSN MSN20030624161510106/24/03 16:15:31  5-MIN KMSN 242215Z 22009G15KT 9SM FEW050 33/22 A2994 840 53 3100 220/09G15 RMK AO2
14837KMSN MSN20030624162009506/24/03 16:20:31  5-MIN KMSN 242220Z 22008KT 9SM FEW050 33/22 A2994 850 53 3100 220/08 RMK AO2
14837KMSN MSN20030624162509506/24/03 16:25:31  5-MIN KMSN 242225Z 20007KT 9SM FEW050 33/22 A2994 850 51 3200 200/07 RMK AO2
14837KMSN MSN20030624163011206/24/03 16:30:31  5-MIN KMSN 242230Z 22007KT 180V250 10SM FEW050 33/22 A2994 850 51 3200 210/07 180V250 RMK AO2
14837KMSN MSN20030624163509606/24/03 16:35:31  5-MIN KMSN 242235Z 20006KT 10SM FEW050 33/22 A2994 850 50 3200 200/06 RMK AO2
14837KMSN MSN20030624164009606/24/03 16:40:31  5-MIN KMSN 242240Z 21010KT 10SM FEW050 33/22 A2994 850 53 3100 210/10 RMK AO2
14837KMSN MSN20030624164511106/24/03 16:45:31  5-MIN KMSN 242245Z 21008KT 180V250 9SM FEW050 33/22 A2994 850 51 3100 210/08 180V250 RMK AO2
14837KMSN MSN20030624165011206/24/03 16:50:31  5-MIN KMSN 242250Z 22008KT 9SM FEW050 32/22 A2994 850 53 3000 220/08 RMK AO2 SLP130 T03220217
14837KMSN MSN20030624165509506/24/03 16:55:31  5-MIN KMSN 242255Z 21009KT 9SM FEW050 33/22 A2994 850 51 3100 210/09 RMK AO2
14837KMSN MSN20030624170009606/24/03 17:00:31  5-MIN KMSN 242300Z 21007KT 10SM FEW050 32/22 A2994 850 53 3000 210/07 RMK AO2
14837KMSN MSN20030624170509606/24/03 17:05:31  5-MIN KMSN 242305Z 22007KT 10SM FEW050 32/22 A2994 850 53 3000 220/07 RMK AO2
14837KMSN MSN20030624171011206/24/03 17:10:31  5-MIN KMSN 242310Z 21008KT 180V240 10SM FEW050 33/22 A2994 850 51 3100 210/08 180V240 RMK AO2
14837KMSN MSN20030624171509606/24/03 17:15:31  5-MIN KMSN 242315Z 21008KT 10SM FEW050 33/22 A2993 850 51 3100 210/08 RMK AO2
14837KMSN MSN20030624172009306/24/03 17:20:31  5-MIN KMSN 242320Z 21007KT 10SM CLR 32/21 A2993 850 51 3000 210/07 RMK AO2
14837KMSN MSN20030624172509306/24/03 17:25:31  5-MIN KMSN 242325Z 21007KT 10SM CLR 32/22 A2993 850 53 3000 210/07 RMK AO2
14837KMSN MSN20030624173009306/24/03 17:30:31  5-MIN KMSN 242330Z 20007KT 10SM CLR 32/22 A2993 860 53 3000 200/07 RMK AO2
14837KMSN MSN20030624173509306/24/03 17:35:31  5-MIN KMSN 242335Z 21006KT 10SM CLR 32/22 A2993 860 53 3100 210/06 RMK AO2
14837KMSN MSN20030624174009306/24/03 17:40:31  5-MIN KMSN 242340Z 21008KT 10SM CLR 32/22 A2993 860 55 3000 210/08 RMK AO2
14837KMSN MSN20030624174509206/24/03 17:45:31  5-MIN KMSN 242345Z 21007KT 9SM CLR 32/22 A2993 860 53 3100 200/07 RMK AO2
14837KMSN MSN20030624175012706/24/03 17:50:31  5-MIN KMSN 242350Z 20006KT 9SM CLR 32/22 A2993 860 55 3000 200/06 RMK AO2 SLP127 T03170217 10333 20306 58004
14837KMSN MSN20030624175509206/24/03 17:55:31  5-MIN KMSN 242355Z 20007KT 9SM CLR 32/22 A2993 860 53 3000 200/07 RMK AO2
14837KMSN MSN20030624180009306/24/03 18:00:31  5-MIN KMSN 250000Z 20004KT 10SM CLR 32/22 A2993 860 55 3100 200/04 RMK AO2
14837KMSN MSN20030624180509206/24/03 18:05:31  5-MIN KMSN 250005Z 19006KT 9SM CLR 32/22 A2993 860 56 3000 190/06 RMK AO2
14837KMSN MSN20030624181009206/24/03 18:10:31  5-MIN KMSN 250010Z 18007KT 9SM CLR 32/22 A2993 860 56 3000 180/07 RMK AO2
14837KMSN MSN20030624181509206/24/03 18:15:31  5-MIN KMSN 250015Z 18008KT 9SM CLR 32/22 A2993 860 56 3000 180/08 RMK AO2
14837KMSN MSN20030624182009206/24/03 18:20:31  5-MIN KMSN 250020Z 18009KT 9SM CLR 32/22 A2993 860 56 3000 180/09 RMK AO2
14837KMSN MSN20030624182509206/24/03 18:25:31  5-MIN KMSN 250025Z 19008KT 9SM CLR 32/22 A2993 860 56 3000 190/08 RMK AO2
14837KMSN MSN20030624183009206/24/03 18:30:31  5-MIN KMSN 250030Z 18013KT 9SM CLR 32/22 A2993 860 55 3100 180/13 RMK AO2
14837KMSN MSN20030624183509206/24/03 18:35:31  5-MIN KMSN 250035Z 19010KT 9SM CLR 32/22 A2992 860 55 3000 190/10 RMK AO2
14837KMSN MSN20030624184009206/24/03 18:40:31  5-MIN KMSN 250040Z 19012KT 9SM CLR 32/22 A2993 860 55 3000 190/12 RMK AO2
14837KMSN MSN20030624184509206/24/03 18:45:31  5-MIN KMSN 250045Z 19010KT 8SM CLR 32/22 A2993 860 55 3000 190/10 RMK AO2
14837KMSN MSN20030624185010906/24/03 18:50:31  5-MIN KMSN 250050Z 19008KT 8SM CLR 32/22 A2993 860 55 3000 190/08 RMK AO2 SLP128 T03170217
14837KMSN MSN20030624185509206/24/03 18:55:31  5-MIN KMSN 250055Z 19008KT 8SM CLR 32/22 A2992 860 55 3000 190/08 RMK AO2
14837KMSN MSN20030624190009206/24/03 19:00:31  5-MIN KMSN 250100Z 19007KT 8SM CLR 31/22 A2992 860 56 2900 190/07 RMK AO2
14837KMSN MSN20030624190509206/24/03 19:05:31  5-MIN KMSN 250105Z 19009KT 8SM CLR 31/22 A2992 860 56 2900 190/09 RMK AO2
14837KMSN MSN20030624191009206/24/03 19:10:31  5-MIN KMSN 250110Z 20007KT 8SM CLR 31/22 A2993 860 56 2900 190/07 RMK AO2
14837KMSN MSN20030624191509206/24/03 19:15:31  5-MIN KMSN 250115Z 19008KT 8SM CLR 31/22 A2993 860 56 2900 190/08 RMK AO2
14837KMSN MSN20030624192009206/24/03 19:20:31  5-MIN KMSN 250120Z 19009KT 8SM CLR 31/22 A2992 860 58 2900 190/09 RMK AO2
14837KMSN MSN20030624192509206/24/03 19:25:31  5-MIN KMSN 250125Z 19008KT 8SM CLR 31/22 A2992 860 58 2900 190/08 RMK AO2
14837KMSN MSN20030624193009206/24/03 19:30:31  5-MIN KMSN 250130Z 18008KT 8SM CLR 31/22 A2992 860 58 2900 180/08 RMK AO2
14837KMSN MSN20030624193509206/24/03 19:35:31  5-MIN KMSN 250135Z 18008KT 8SM CLR 30/22 A2992 860 60 2800 180/08 RMK AO2
14837KMSN MSN20030624194009206/24/03 19:40:31  5-MIN KMSN 250140Z 18008KT 8SM CLR 30/22 A2992 860 60 2800 180/08 RMK AO2
14837KMSN MSN20030624194509206/24/03 19:45:31  5-MIN KMSN 250145Z 18008KT 8SM CLR 30/22 A2992 860 60 2800 180/08 RMK AO2
14837KMSN MSN20030624195010906/24/03 19:50:31  5-MIN KMSN 250150Z 18009KT 8SM CLR 30/22 A2992 860 60 2800 180/09 RMK AO2 SLP127 T03000217
14837KMSN MSN20030624195509206/24/03 19:55:31  5-MIN KMSN 250155Z 18008KT 8SM CLR 30/22 A2992 860 60 2800 180/08 RMK AO2
14837KMSN MSN20030624200009206/24/03 20:00:31  5-MIN KMSN 250200Z 18008KT 9SM CLR 30/22 A2993 860 60 2800 180/08 RMK AO2
14837KMSN MSN20030624200509206/24/03 20:05:31  5-MIN KMSN 250205Z 19009KT 9SM CLR 30/22 A2992 860 60 2800 180/09 RMK AO2
14837KMSN MSN20030624201009206/24/03 20:10:31  5-MIN KMSN 250210Z 19009KT 9SM CLR 30/22 A2992 860 60 2800 190/09 RMK AO2
14837KMSN MSN20030624201509206/24/03 20:15:31  5-MIN KMSN 250215Z 19009KT 9SM CLR 30/22 A2992 860 60 2800 180/09 RMK AO2
14837KMSN MSN20030624202009206/24/03 20:20:31  5-MIN KMSN 250220Z 19010KT 9SM CLR 29/22 A2992 860 62 2800 190/10 RMK AO2
14837KMSN MSN20030624202509206/24/03 20:25:31  5-MIN KMSN 250225Z 19009KT 9SM CLR 29/22 A2992 860 62 2800 190/09 RMK AO2
14837KMSN MSN20030624203009206/24/03 20:30:31  5-MIN KMSN 250230Z 19009KT 8SM CLR 29/22 A2992 860 62 2700 190/09 RMK AO2
14837KMSN MSN20030624203509206/24/03 20:35:31  5-MIN KMSN 250235Z 19009KT 8SM CLR 29/22 A2993 860 62 2700 190/09 RMK AO2
14837KMSN MSN20030624204009206/24/03 20:40:31  5-MIN KMSN 250240Z 18011KT 8SM CLR 29/22 A2993 860 62 2700 180/11 RMK AO2
14837KMSN MSN20030624204509206/24/03 20:45:31  5-MIN KMSN 250245Z 18009KT 8SM CLR 29/22 A2992 860 62 2700 180/09 RMK AO2
14837KMSN MSN20030624205011506/24/03 20:50:31  5-MIN KMSN 250250Z 18011KT 8SM CLR 29/22 A2992 870 62 2800 180/11 RMK AO2 SLP123 T02940217 57008
14837KMSN MSN20030624205509206/24/03 20:55:31  5-MIN KMSN 250255Z 18009KT 8SM CLR 29/22 A2992 870 62 2800 180/09 RMK AO2
14837KMSN MSN20030624210009206/24/03 21:00:31  5-MIN KMSN 250300Z 19011KT 8SM CLR 29/22 A2992 870 62 2800 180/11 RMK AO2
14837KMSN MSN20030624210509206/24/03 21:05:31  5-MIN KMSN 250305Z 19009KT 8SM CLR 29/22 A2992 860 62 2800 190/09 RMK AO2
14837KMSN MSN20030624211009206/24/03 21:10:31  5-MIN KMSN 250310Z 19009KT 8SM CLR 29/22 A2993 860 62 2700 190/09 RMK AO2
14837KMSN MSN20030624211509206/24/03 21:15:31  5-MIN KMSN 250315Z 19009KT 8SM CLR 29/22 A2992 860 62 2800 190/09 RMK AO2
14837KMSN MSN20030624212009206/24/03 21:20:31  5-MIN KMSN 250320Z 18010KT 7SM CLR 29/22 A2992 870 62 2800 180/10 RMK AO2
14837KMSN MSN20030624212509206/24/03 21:25:31  5-MIN KMSN 250325Z 18011KT 7SM CLR 29/22 A2992 860 64 2700 180/11 RMK AO2
14837KMSN MSN20030624213009206/24/03 21:30:31  5-MIN KMSN 250330Z 18010KT 8SM CLR 29/22 A2992 860 64 2700 180/10 RMK AO2
14837KMSN MSN20030624213509206/24/03 21:35:31  5-MIN KMSN 250335Z 18010KT 8SM CLR 29/22 A2992 860 64 2700 180/10 RMK AO2
14837KMSN MSN20030624214009206/24/03 21:40:31  5-MIN KMSN 250340Z 18010KT 8SM CLR 29/21 A2992 860 62 2700 180/10 RMK AO2
14837KMSN MSN20030624214509206/24/03 21:45:31  5-MIN KMSN 250345Z 18009KT 7SM CLR 29/21 A2992 860 62 2700 180/09 RMK AO2
14837KMSN MSN20030624215010906/24/03 21:50:31  5-MIN KMSN 250350Z 19009KT 7SM CLR 29/21 A2993 860 62 2700 190/09 RMK AO2 SLP128 T02890211
14837KMSN MSN20030624215509206/24/03 21:55:31  5-MIN KMSN 250355Z 19008KT 7SM CLR 29/21 A2993 850 62 2700 180/08 RMK AO2
14837KMSN MSN20030624220009206/24/03 22:00:31  5-MIN KMSN 250400Z 18010KT 7SM CLR 29/21 A2994 850 62 2700 180/10 RMK AO2
14837KMSN MSN20030624220509206/24/03 22:05:31  5-MIN KMSN 250405Z 18009KT 7SM CLR 29/21 A2994 850 62 2700 180/09 RMK AO2
14837KMSN MSN20030624221009206/24/03 22:10:31  5-MIN KMSN 250410Z 19007KT 7SM CLR 29/21 A2994 840 62 2700 190/07 RMK AO2
14837KMSN MSN20030624221509206/24/03 22:15:31  5-MIN KMSN 250415Z 19008KT 7SM CLR 28/21 A2995 840 64 2600 190/08 RMK AO2
14837KMSN MSN20030624222009206/24/03 22:20:31  5-MIN KMSN 250420Z 18007KT 7SM CLR 29/21 A2995 840 62 2700 180/07 RMK AO2
14837KMSN MSN20030624222509206/24/03 22:25:31  5-MIN KMSN 250425Z 18008KT 7SM CLR 28/21 A2995 840 64 2600 180/08 RMK AO2
14837KMSN MSN20030624223009206/24/03 22:30:31  5-MIN KMSN 250430Z 19007KT 7SM CLR 28/21 A2996 830 64 2600 190/07 RMK AO2
14837KMSN MSN20030624223509206/24/03 22:35:31  5-MIN KMSN 250435Z 18009KT 7SM CLR 28/21 A2996 830 64 2600 180/09 RMK AO2
14837KMSN MSN20030624224009206/24/03 22:40:31  5-MIN KMSN 250440Z 18007KT 7SM CLR 28/21 A2996 830 64 2600 180/07 RMK AO2
14837KMSN MSN20030624224509206/24/03 22:45:31  5-MIN KMSN 250445Z 18008KT 7SM CLR 28/21 A2995 830 64 2600 180/08 RMK AO2
14837KMSN MSN20030624225010906/24/03 22:50:31  5-MIN KMSN 250450Z 18008KT 7SM CLR 28/21 A2995 830 64 2600 180/08 RMK AO2 SLP135 T02830211
14837KMSN MSN20030624225509206/24/03 22:55:31  5-MIN KMSN 250455Z 18009KT 7SM CLR 28/21 A2995 840 66 2500 170/09 RMK AO2
14837KMSN MSN20030624230009206/24/03 23:00:31  5-MIN KMSN 250500Z 18008KT 7SM CLR 28/21 A2995 840 66 2500 180/08 RMK AO2
14837KMSN MSN20030624230509206/24/03 23:05:31  5-MIN KMSN 250505Z 19008KT 7SM CLR 28/21 A2996 830 66 2500 190/08 RMK AO2
14837KMSN MSN20030624231009206/24/03 23:10:31  5-MIN KMSN 250510Z 19006KT 7SM CLR 28/21 A2996 830 66 2500 190/06 RMK AO2
14837KMSN MSN20030624231509206/24/03 23:15:31  5-MIN KMSN 250515Z 18008KT 7SM CLR 28/21 A2996 830 66 2500 180/08 RMK AO2
14837KMSN MSN20030624232009206/24/03 23:20:31  5-MIN KMSN 250520Z 18008KT 7SM CLR 28/21 A2995 830 66 2500 180/08 RMK AO2
14837KMSN MSN20030624232509206/24/03 23:25:31  5-MIN KMSN 250525Z 18008KT 7SM CLR 27/21 A2996 830 69 2500 180/08 RMK AO2
14837KMSN MSN20030624233009206/24/03 23:30:31  5-MIN KMSN 250530Z 19006KT 7SM CLR 27/21 A2996 830 69 2500 190/06 RMK AO2
14837KMSN MSN20030624233509206/24/03 23:35:31  5-MIN KMSN 250535Z 19007KT 7SM CLR 27/21 A2996 830 69 2500 190/07 RMK AO2
14837KMSN MSN20030624234009206/24/03 23:40:31  5-MIN KMSN 250540Z 19006KT 7SM CLR 27/21 A2996 830 69 2500 190/06 RMK AO2
14837KMSN MSN20030624234509206/24/03 23:45:31  5-MIN KMSN 250545Z 19007KT 7SM CLR 27/21 A2996 830 69 2500 190/07 RMK AO2
14837KMSN MSN20030624235013706/24/03 23:50:31  5-MIN KMSN 250550Z 19009KT 7SM CLR 27/21 A2996 820 69 2500 190/09 RMK AO2 SLP138 T02720211 10322 20272 403330200 58004
14837KMSN MSN20030624235509206/24/03 23:55:31  5-MIN KMSN 250555Z 19008KT 7SM CLR 27/21 A2996 830 66 2500 190/08 RMK AO2
14837KMSN MSN20030625000009206/25/03 00:00:31  5-MIN KMSN 250600Z 19008KT 7SM CLR 27/21 A2996 830 66 2500 190/08 RMK AO2
14837KMSN MSN20030625000509206/25/03 00:05:31  5-MIN KMSN 250605Z 19009KT 7SM CLR 27/21 A2996 830 66 2500 190/09 RMK AO2
14837KMSN MSN20030625001009206/25/03 00:10:31  5-MIN KMSN 250610Z 19010KT 7SM CLR 27/21 A2996 830 66 2500 190/10 RMK AO2
14837KMSN MSN20030625001509206/25/03 00:15:31  5-MIN KMSN 250615Z 19009KT 7SM CLR 27/21 A2996 830 69 2400 190/09 RMK AO2
14837KMSN MSN20030625002009206/25/03 00:20:31  5-MIN KMSN 250620Z 19009KT 7SM CLR 27/21 A2996 830 69 2400 190/09 RMK AO2
14837KMSN MSN20030625002509206/25/03 00:25:31  5-MIN KMSN 250625Z 19012KT 7SM CLR 27/21 A2996 830 69 2400 190/12 RMK AO2
14837KMSN MSN20030625003009206/25/03 00:30:31  5-MIN KMSN 250630Z 19010KT 7SM CLR 27/21 A2996 830 69 2400 190/10 RMK AO2
14837KMSN MSN20030625003509206/25/03 00:35:31  5-MIN KMSN 250635Z 19009KT 7SM CLR 27/21 A2996 830 69 2400 190/09 RMK AO2
14837KMSN MSN20030625004009206/25/03 00:40:31  5-MIN KMSN 250640Z 19011KT 7SM CLR 27/20 A2996 830 66 2400 190/11 RMK AO2
14837KMSN MSN20030625004509206/25/03 00:45:31  5-MIN KMSN 250645Z 19009KT 7SM CLR 27/20 A2997 820 66 2400 190/09 RMK AO2
14837KMSN MSN20030625005010906/25/03 00:50:31  5-MIN KMSN 250650Z 19009KT 7SM CLR 27/20 A2997 820 66 2400 190/09 RMK AO2 SLP139 T02670200
14837KMSN MSN20030625005509206/25/03 00:55:31  5-MIN KMSN 250655Z 18009KT 7SM CLR 27/20 A2996 820 66 2400 180/09 RMK AO2
14837KMSN MSN20030625010009206/25/03 01:00:31  5-MIN KMSN 250700Z 18008KT 7SM CLR 26/20 A2996 820 68 2300 180/08 RMK AO2
14837KMSN MSN20030625010509206/25/03 01:05:31  5-MIN KMSN 250705Z 18008KT 7SM CLR 26/20 A2996 820 68 2300 180/08 RMK AO2
14837KMSN MSN20030625011009206/25/03 01:10:31  5-MIN KMSN 250710Z 18006KT 7SM CLR 26/20 A2996 820 68 2300 180/06 RMK AO2
14837KMSN MSN20030625011509206/25/03 01:15:31  5-MIN KMSN 250715Z 18006KT 7SM CLR 26/20 A2996 820 68 2300 180/06 RMK AO2
14837KMSN MSN20030625012009206/25/03 01:20:31  5-MIN KMSN 250720Z 19006KT 7SM CLR 26/20 A2997 820 68 2300 190/06 RMK AO2
14837KMSN MSN20030625012509206/25/03 01:25:31  5-MIN KMSN 250725Z 18006KT 7SM CLR 26/20 A2996 820 71 2300 180/06 RMK AO2
14837KMSN MSN20030625013009206/25/03 01:30:31  5-MIN KMSN 250730Z 18005KT 7SM CLR 26/19 A2996 820 68 2300 180/05 RMK AO2
14837KMSN MSN20030625013509206/25/03 01:35:31  5-MIN KMSN 250735Z 18007KT 7SM CLR 26/19 A2996 820 68 2300 180/07 RMK AO2
14837KMSN MSN20030625014009206/25/03 01:40:31  5-MIN KMSN 250740Z 18008KT 7SM CLR 26/19 A2996 830 68 2300 180/08 RMK AO2
14837KMSN MSN20030625014509206/25/03 01:45:31  5-MIN KMSN 250745Z 18007KT 7SM CLR 26/19 A2996 830 68 2300 180/07 RMK AO2
14837KMSN MSN20030625015010906/25/03 01:50:31  5-MIN KMSN 250750Z 18007KT 7SM CLR 26/19 A2996 830 68 2300 170/07 RMK AO2 SLP136 T02560194
14837KMSN MSN20030625015509206/25/03 01:55:31  5-MIN KMSN 250755Z 17007KT 7SM CLR 25/19 A2996 830 71 2200 170/07 RMK AO2
14837KMSN MSN20030625020009206/25/03 02:00:31  5-MIN KMSN 250800Z 18006KT 7SM CLR 25/19 A2996 830 71 2200 180/06 RMK AO2
14837KMSN MSN20030625020509206/25/03 02:05:31  5-MIN KMSN 250805Z 18007KT 7SM CLR 25/19 A2996 830 71 2200 180/07 RMK AO2
14837KMSN MSN20030625021009206/25/03 02:10:31  5-MIN KMSN 250810Z 19007KT 7SM CLR 25/19 A2996 830 71 2200 190/07 RMK AO2
14837KMSN MSN20030625021509206/25/03 02:15:31  5-MIN KMSN 250815Z 18006KT 7SM CLR 25/19 A2996 830 71 2200 180/06 RMK AO2
14837KMSN MSN20030625022009206/25/03 02:20:31  5-MIN KMSN 250820Z 18006KT 7SM CLR 25/19 A2996 830 71 2200 180/06 RMK AO2
14837KMSN MSN20030625022509206/25/03 02:25:31  5-MIN KMSN 250825Z 17005KT 7SM CLR 25/19 A2995 840 71 2200 170/05 RMK AO2
14837KMSN MSN20030625023009206/25/03 02:30:31  5-MIN KMSN 250830Z 17006KT 7SM CLR 24/19 A2995 840 73 2200 170/06 RMK AO2
14837KMSN MSN20030625023509206/25/03 02:35:31  5-MIN KMSN 250835Z 17006KT 7SM CLR 24/19 A2995 840 71 2200 170/06 RMK AO2
14837KMSN MSN20030625024009206/25/03 02:40:31  5-MIN KMSN 250840Z 17006KT 7SM CLR 24/19 A2994 840 71 2200 170/06 RMK AO2
14837KMSN MSN20030625024509206/25/03 02:45:31  5-MIN KMSN 250845Z 17007KT 7SM CLR 24/19 A2995 840 71 2200 170/07 RMK AO2
14837KMSN MSN20030625025011506/25/03 02:50:31  5-MIN KMSN 250850Z 18007KT 7SM CLR 24/19 A2994 840 71 2200 180/07 RMK AO2 SLP132 T02440189 51014
14837KMSN MSN20030625025509206/25/03 02:55:31  5-MIN KMSN 250855Z 17007KT 7SM CLR 24/19 A2994 840 73 2100 170/07 RMK AO2
14837KMSN MSN20030625030009206/25/03 03:00:31  5-MIN KMSN 250900Z 17007KT 7SM CLR 24/19 A2994 840 73 2100 170/07 RMK AO2
14837KMSN MSN20030625030509206/25/03 03:05:31  5-MIN KMSN 250905Z 17007KT 7SM CLR 24/19 A2994 850 73 2100 170/07 RMK AO2
14837KMSN MSN20030625031009206/25/03 03:10:31  5-MIN KMSN 250910Z 17006KT 7SM CLR 24/19 A2994 840 73 2100 170/06 RMK AO2
14837KMSN MSN20030625031509206/25/03 03:15:31  5-MIN KMSN 250915Z 18006KT 7SM CLR 24/19 A2994 840 73 2100 180/06 RMK AO2
14837KMSN MSN20030625032009206/25/03 03:20:31  5-MIN KMSN 250920Z 17007KT 7SM CLR 24/19 A2994 840 73 2100 170/07 RMK AO2
14837KMSN MSN20030625032509206/25/03 03:25:31  5-MIN KMSN 250925Z 18007KT 7SM CLR 24/19 A2995 840 73 2100 180/07 RMK AO2
14837KMSN MSN20030625033009206/25/03 03:30:31  5-MIN KMSN 250930Z 19007KT 7SM CLR 24/19 A2995 840 73 2100 180/07 RMK AO2
14837KMSN MSN20030625033509206/25/03 03:35:31  5-MIN KMSN 250935Z 18008KT 7SM CLR 24/19 A2995 830 73 2100 180/08 RMK AO2
14837KMSN MSN20030625034009206/25/03 03:40:31  5-MIN KMSN 250940Z 19007KT 7SM CLR 24/18 A2995 840 71 2100 180/07 RMK AO2
14837KMSN MSN20030625034509206/25/03 03:45:31  5-MIN KMSN 250945Z 18008KT 7SM CLR 24/18 A2995 840 71 2100 180/08 RMK AO2
14837KMSN MSN20030625035011206/25/03 03:50:31  5-MIN KMSN 250950Z 18009KT 6SM HZ CLR 24/18 A2995 830 71 2100 180/09 RMK AO2 SLP135 T02390183
14837KMSN MSN20030625035509206/25/03 03:55:31  5-MIN KMSN 250955Z 18008KT 7SM CLR 24/18 A2995 830 71 2100 180/08 RMK AO2
14837KMSN MSN20030625040009206/25/03 04:00:31  5-MIN KMSN 251000Z 18008KT 7SM CLR 24/18 A2995 830 71 2100 180/08 RMK AO2
14837KMSN MSN20030625040509206/25/03 04:05:31  5-MIN KMSN 251005Z 18008KT 7SM CLR 24/18 A2996 830 71 2100 180/08 RMK AO2
14837KMSN MSN20030625041009206/25/03 04:10:31  5-MIN KMSN 251010Z 18009KT 7SM CLR 24/18 A2996 830 71 2100 180/09 RMK AO2
14837KMSN MSN20030625041509206/25/03 04:15:31  5-MIN KMSN 251015Z 18009KT 7SM CLR 24/18 A2996 830 71 2100 180/09 RMK AO2
14837KMSN MSN20030625042009206/25/03 04:20:31  5-MIN KMSN 251020Z 18008KT 7SM CLR 24/18 A2996 830 71 2100 180/08 RMK AO2
14837KMSN MSN20030625042509206/25/03 04:25:31  5-MIN KMSN 251025Z 18009KT 7SM CLR 24/18 A2996 830 71 2100 180/09 RMK AO2
14837KMSN MSN20030625043009206/25/03 04:30:31  5-MIN KMSN 251030Z 19008KT 7SM CLR 24/18 A2996 830 71 2100 190/08 RMK AO2
14837KMSN MSN20030625043509506/25/03 04:35:31  5-MIN KMSN 251035Z 18009KT 6SM HZ CLR 24/18 A2996 830 71 2100 180/09 RMK AO2
14837KMSN MSN20030625044009506/25/03 04:40:31  5-MIN KMSN 251040Z 19008KT 6SM HZ CLR 24/18 A2996 830 71 2100 190/08 RMK AO2
14837KMSN MSN20030625044509506/25/03 04:45:31  5-MIN KMSN 251045Z 19009KT 6SM HZ CLR 24/18 A2996 830 71 2100 190/09 RMK AO2
14837KMSN MSN20030625045011206/25/03 04:50:31  5-MIN KMSN 251050Z 19008KT 6SM HZ CLR 24/18 A2996 830 68 2100 190/08 RMK AO2 SLP138 T02390178
14837KMSN MSN20030625045509506/25/03 04:55:31  5-MIN KMSN 251055Z 19008KT 6SM HZ CLR 24/18 A2996 830 68 2100 190/08 RMK AO2
14837KMSN MSN20030625050009506/25/03 05:00:31  5-MIN KMSN 251100Z 20007KT 6SM HZ CLR 24/18 A2996 820 68 2100 190/07 RMK AO2
14837KMSN MSN20030625050509506/25/03 05:05:31  5-MIN KMSN 251105Z 19008KT 6SM HZ CLR 24/18 A2997 820 68 2100 190/08 RMK AO2
14837KMSN MSN20030625051009506/25/03 05:10:31  5-MIN KMSN 251110Z 19008KT 6SM HZ CLR 24/18 A2997 820 68 2100 190/08 RMK AO2
14837KMSN MSN20030625051509506/25/03 05:15:31  5-MIN KMSN 251115Z 19008KT 6SM HZ CLR 24/18 A2997 820 68 2100 190/08 RMK AO2
14837KMSN MSN20030625052009506/25/03 05:20:31  5-MIN KMSN 251120Z 19007KT 6SM HZ CLR 24/18 A2997 820 68 2100 190/07 RMK AO2
14837KMSN MSN20030625052509506/25/03 05:25:31  5-MIN KMSN 251125Z 19008KT 6SM HZ CLR 24/18 A2997 820 68 2100 190/08 RMK AO2
14837KMSN MSN20030625053009506/25/03 05:30:31  5-MIN KMSN 251130Z 19008KT 6SM HZ CLR 24/18 A2996 820 68 2100 190/08 RMK AO2
14837KMSN MSN20030625053509506/25/03 05:35:31  5-MIN KMSN 251135Z VRB06KT 6SM HZ CLR 24/18 A2997 820 68 2100 VRB/06 RMK AO2
14837KMSN MSN20030625054009506/25/03 05:40:31  5-MIN KMSN 251140Z 22005KT 6SM HZ CLR 24/18 A2997 820 68 2100 210/05 RMK AO2
14837KMSN MSN20030625054509506/25/03 05:45:31  5-MIN KMSN 251145Z 21006KT 6SM HZ CLR 24/18 A2997 820 71 2100 210/06 RMK AO2
14837KMSN MSN20030625055013606/25/03 05:50:31  5-MIN KMSN 251150Z 21006KT 6SM HZ CLR 24/18 A2997 820 68 2100 210/06 RMK AO2 SLP140 70018 T02390178 10272 20239 58006
14837KMSN MSN20030625055509506/25/03 05:55:31  5-MIN KMSN 251155Z 19005KT 6SM HZ CLR 24/18 A2997 820 71 2100 190/05 RMK AO2
14837KMSN MSN20030625060009506/25/03 06:00:31  5-MIN KMSN 251200Z 19004KT 6SM HZ CLR 24/18 A2997 820 71 2100 190/04 RMK AO2
14837KMSN MSN20030625060509506/25/03 06:05:31  5-MIN KMSN 251205Z 19008KT 6SM HZ CLR 24/18 A2997 820 71 2100 190/08 RMK AO2
14837KMSN MSN20030625061009506/25/03 06:10:31  5-MIN KMSN 251210Z 19008KT 6SM HZ CLR 24/18 A2997 820 71 2100 180/08 RMK AO2
14837KMSN MSN20030625061509506/25/03 06:15:31  5-MIN KMSN 251215Z 20006KT 6SM HZ CLR 24/18 A2996 820 71 2100 200/06 RMK AO2
14837KMSN MSN20030625062009506/25/03 06:20:31  5-MIN KMSN 251220Z 20005KT 6SM HZ CLR 24/18 A2996 820 71 2100 200/05 RMK AO2
14837KMSN MSN20030625062509506/25/03 06:25:31  5-MIN KMSN 251225Z 19007KT 6SM HZ CLR 24/18 A2996 820 71 2100 190/07 RMK AO2
14837KMSN MSN20030625063011106/25/03 06:30:31  5-MIN KMSN 251230Z 19007KT 160V220 6SM HZ CLR 24/18 A2996 830 68 2100 190/07 160V220 RMK AO2
14837KMSN MSN20030625063509506/25/03 06:35:31  5-MIN KMSN 251235Z 18007KT 6SM HZ CLR 24/18 A2996 830 68 2100 180/07 RMK AO2
14837KMSN MSN20030625064009506/25/03 06:40:31  5-MIN KMSN 251240Z 17007KT 6SM HZ CLR 24/19 A2996 830 71 2100 170/07 RMK AO2
14837KMSN MSN20030625064509506/25/03 06:45:31  5-MIN KMSN 251245Z 18006KT 6SM HZ CLR 25/19 A2996 820 68 2200 180/06 RMK AO2
14837KMSN MSN20030625065011206/25/03 06:50:31  5-MIN KMSN 251250Z 18005KT 6SM HZ CLR 25/19 A2996 820 68 2200 180/05 RMK AO2 SLP139 T02500189
14837KMSN MSN20030625065509506/25/03 06:55:31  5-MIN KMSN 251255Z 18006KT 6SM HZ CLR 26/19 A2996 830 66 2300 180/06 RMK AO2
14837KMSN MSN20030625070009506/25/03 07:00:31  5-MIN KMSN 251300Z 18007KT 6SM HZ CLR 26/19 A2996 830 66 2300 180/07 RMK AO2
14837KMSN MSN20030625070509506/25/03 07:05:31  5-MIN KMSN 251305Z 19007KT 5SM HZ CLR 26/19 A2996 830 66 2300 190/07 RMK AO2
14837KMSN MSN20030625071011106/25/03 07:10:31  5-MIN KMSN 251310Z 21008KT 170V230 5SM HZ CLR 26/19 A2996 830 66 2300 210/08 170V230 RMK AO2
14837KMSN MSN20030625071509506/25/03 07:15:31  5-MIN KMSN 251315Z 19010KT 6SM HZ CLR 26/19 A2996 830 64 2300 190/10 RMK AO2
14837KMSN MSN20030625072009506/25/03 07:20:31  5-MIN KMSN 251320Z 20009KT 6SM HZ CLR 26/19 A2996 830 66 2300 200/09 RMK AO2
14837KMSN MSN20030625072509506/25/03 07:25:31  5-MIN KMSN 251325Z 20007KT 6SM HZ CLR 26/19 A2996 830 66 2300 200/07 RMK AO2
14837KMSN MSN20030625073009506/25/03 07:30:31  5-MIN KMSN 251330Z 20008KT 6SM HZ CLR 26/19 A2996 830 66 2300 200/08 RMK AO2
14837KMSN MSN20030625073509506/25/03 07:35:31  5-MIN KMSN 251335Z 20007KT 6SM HZ CLR 26/19 A2996 830 66 2300 190/07 RMK AO2
14837KMSN MSN20030625074009506/25/03 07:40:31  5-MIN KMSN 251340Z 20008KT 6SM HZ CLR 26/19 A2996 830 68 2300 190/08 RMK AO2
14837KMSN MSN20030625074509506/25/03 07:45:31  5-MIN KMSN 251345Z 18008KT 6SM HZ CLR 26/19 A2996 830 66 2300 180/08 RMK AO2
14837KMSN MSN20030625075011206/25/03 07:50:31  5-MIN KMSN 251350Z 19009KT 6SM HZ CLR 26/19 A2995 830 68 2300 180/09 RMK AO2 SLP136 T02560194
14837KMSN MSN20030625075509506/25/03 07:55:31  5-MIN KMSN 251355Z 18007KT 5SM HZ CLR 26/19 A2995 840 66 2300 180/07 RMK AO2
14837KMSN MSN20030625080009506/25/03 08:00:31  5-MIN KMSN 251400Z VRB06KT 5SM HZ CLR 26/19 A2995 840 66 2300 VRB/06 RMK AO2
14837KMSN MSN20030625080509506/25/03 08:05:31  5-MIN KMSN 251405Z 18007KT 5SM HZ CLR 26/20 A2995 840 68 2300 180/07 RMK AO2
14837KMSN MSN20030625081009506/25/03 08:10:31  5-MIN KMSN 251410Z 18008KT 6SM HZ CLR 27/20 A2995 840 66 2400 170/08 RMK AO2
14837KMSN MSN20030625081509506/25/03 08:15:31  5-MIN KMSN 251415Z 19007KT 6SM HZ CLR 27/20 A2995 830 66 2400 190/07 RMK AO2
14837KMSN MSN20030625082009506/25/03 08:20:31  5-MIN KMSN 251420Z 21009KT 6SM HZ CLR 27/20 A2995 830 66 2400 210/09 RMK AO2
14837KMSN MSN20030625082509506/25/03 08:25:31  5-MIN KMSN 251425Z 18007KT 6SM HZ CLR 27/20 A2995 830 64 2500 180/07 RMK AO2
14837KMSN MSN20030625083009506/25/03 08:30:31  5-MIN KMSN 251430Z 19007KT 6SM HZ CLR 27/20 A2995 830 64 2500 190/07 RMK AO2
14837KMSN MSN20030625083509506/25/03 08:35:31  5-MIN KMSN 251435Z 19008KT 6SM HZ CLR 28/21 A2995 840 64 2500 190/08 RMK AO2
14837KMSN MSN20030625084009506/25/03 08:40:31  5-MIN KMSN 251440Z 17011KT 6SM HZ CLR 28/21 A2995 840 64 2500 170/11 RMK AO2
14837KMSN MSN20030625084509506/25/03 08:45:31  5-MIN KMSN 251445Z 18010KT 6SM HZ CLR 27/20 A2995 840 64 2500 180/10 RMK AO2
14837KMSN MSN20030625085011806/25/03 08:50:31  5-MIN KMSN 251450Z 17010KT 6SM HZ CLR 27/20 A2995 840 64 2500 170/10 RMK AO2 SLP134 T02720200 51008
14837KMSN MSN20030625085509506/25/03 08:55:31  5-MIN KMSN 251455Z 17010KT 5SM HZ CLR 27/21 A2995 840 66 2500 170/10 RMK AO2
14837KMSN MSN20030625090009506/25/03 09:00:31  5-MIN KMSN 251500Z 17011KT 5SM HZ CLR 27/21 A2995 840 66 2500 170/11 RMK AO2
14837KMSN MSN20030625090509506/25/03 09:05:31  5-MIN KMSN 251505Z 18011KT 5SM HZ CLR 28/21 A2995 840 64 2500 180/11 RMK AO2
14837KMSN MSN20030625091009506/25/03 09:10:31  5-MIN KMSN 251510Z 18012KT 6SM HZ CLR 28/20 A2995 840 62 2500 180/12 RMK AO2
14837KMSN MSN20030625091509506/25/03 09:15:31  5-MIN KMSN 251515Z 17013KT 6SM HZ CLR 28/21 A2995 840 62 2600 170/13 RMK AO2
14837KMSN MSN20030625092009506/25/03 09:20:31  5-MIN KMSN 251520Z 19012KT 6SM HZ CLR 28/21 A2995 840 62 2600 190/12 RMK AO2
14837KMSN MSN20030625092509506/25/03 09:25:31  5-MIN KMSN 251525Z 19009KT 6SM HZ CLR 29/21 A2995 840 60 2700 190/09 RMK AO2
14837KMSN MSN20030625093009506/25/03 09:30:31  5-MIN KMSN 251530Z 18011KT 6SM HZ CLR 29/21 A2994 840 60 2700 180/11 RMK AO2
14837KMSN MSN20030625093509506/25/03 09:35:31  5-MIN KMSN 251535Z 17011KT 6SM HZ CLR 29/21 A2994 840 60 2700 170/11 RMK AO2
14837KMSN MSN20030625094011106/25/03 09:40:31  5-MIN KMSN 251540Z 21009KT 170V250 6SM HZ CLR 29/21 A2995 840 58 2700 200/09 170V250 RMK AO2
14837KMSN MSN20030625094509506/25/03 09:45:31  5-MIN KMSN 251545Z VRB05KT 6SM HZ CLR 29/21 A2995 840 60 2700 VRB/05 RMK AO2
14837KMSN MSN20030625095011206/25/03 09:50:31  5-MIN KMSN 251550Z 22008KT 6SM HZ CLR 29/21 A2995 840 62 2700 220/08 RMK AO2 SLP132 T02890211
14837KMSN MSN20030625095509506/25/03 09:55:31  5-MIN KMSN 251555Z 19008KT 6SM HZ CLR 29/21 A2994 840 60 2700 190/08 RMK AO2
14837KMSN MSN20030625100009506/25/03 10:00:31  5-MIN KMSN 251600Z 22007KT 6SM HZ CLR 29/21 A2995 840 58 2700 220/07 RMK AO2
14837KMSN MSN20030625100509206/25/03 10:05:31  5-MIN KMSN 251605Z 22006KT 7SM CLR 29/21 A2995 840 58 2700 220/06 RMK AO2
14837KMSN MSN20030625101009506/25/03 10:10:31  5-MIN KMSN 251610Z 20007KT 6SM HZ CLR 29/21 A2994 840 60 2700 200/07 RMK AO2
14837KMSN MSN20030625101509506/25/03 10:15:31  5-MIN KMSN 251615Z 23006KT 6SM HZ CLR 29/21 A2994 840 60 2700 230/06 RMK AO2
14837KMSN MSN20030625102009506/25/03 10:20:31  5-MIN KMSN 251620Z 21008KT 6SM HZ CLR 29/21 A2994 850 60 2700 200/08 RMK AO2
14837KMSN MSN20030625102509506/25/03 10:25:31  5-MIN KMSN 251625Z 18008KT 6SM HZ CLR 29/21 A2994 850 60 2700 180/08 RMK AO2
14837KMSN MSN20030625103009506/25/03 10:30:31  5-MIN KMSN 251630Z 23007KT 6SM HZ CLR 30/21 A2994 840 58 2800 230/07 RMK AO2
14837KMSN MSN20030625103509506/25/03 10:35:31  5-MIN KMSN 251635Z VRB05KT 6SM HZ CLR 29/21 A2994 840 60 2700 VRB/05 RMK AO2
14837KMSN MSN20030625104009506/25/03 10:40:31  5-MIN KMSN 251640Z 23005KT 6SM HZ CLR 29/21 A2994 840 60 2700 230/05 RMK AO2
14837KMSN MSN20030625104509506/25/03 10:45:31  5-MIN KMSN 251645Z 21006KT 6SM HZ CLR 29/21 A2994 850 60 2700 210/06 RMK AO2
14837KMSN MSN20030625105011206/25/03 10:50:31  5-MIN KMSN 251650Z 19008KT 6SM HZ CLR 31/21 A2994 840 56 2900 190/08 RMK AO2 SLP131 T03060211
14837KMSN MSN20030625105509506/25/03 10:55:31  5-MIN KMSN 251655Z 21007KT 5SM HZ CLR 31/22 A2994 840 58 2900 210/07 RMK AO2
14837KMSN MSN20030625110011106/25/03 11:00:31  5-MIN KMSN 251700Z 21007KT 180V250 6SM HZ CLR 30/21 A2994 840 58 2800 210/07 180V250 RMK AO2
14837KMSN MSN20030625110509506/25/03 11:05:31  5-MIN KMSN 251705Z VRB06KT 6SM HZ CLR 31/22 A2994 850 58 2900 VRB/06 RMK AO2
14837KMSN MSN20030625111009206/25/03 11:10:31  5-MIN KMSN 251710Z VRB06KT 7SM CLR 31/21 A2994 850 56 2900 VRB/06 RMK AO2
14837KMSN MSN20030625111510806/25/03 11:15:31  5-MIN KMSN 251715Z 20008KT 170V250 7SM CLR 31/22 A2994 850 58 2900 200/08 170V250 RMK AO2
14837KMSN MSN20030625112009206/25/03 11:20:31  5-MIN KMSN 251720Z 19008KT 7SM CLR 31/22 A2994 850 58 2900 190/08 RMK AO2
14837KMSN MSN20030625112509506/25/03 11:25:31  5-MIN KMSN 251725Z 22007KT 6SM HZ CLR 31/22 A2994 850 58 2900 220/07 RMK AO2
14837KMSN MSN20030625113011106/25/03 11:30:31  5-MIN KMSN 251730Z 20007KT 170V240 6SM HZ CLR 31/22 A2994 850 58 2900 200/07 170V240 RMK AO2
14837KMSN MSN20030625113509206/25/03 11:35:31  5-MIN KMSN 251735Z 19011KT 7SM CLR 31/22 A2993 850 56 2900 190/11 RMK AO2
14837KMSN MSN20030625114010806/25/03 11:40:31  5-MIN KMSN 251740Z 21008KT 170V230 7SM CLR 31/22 A2993 850 56 2900 210/08 170V230 RMK AO2
14837KMSN MSN20030625114509206/25/03 11:45:31  5-MIN KMSN 251745Z 19011KT 7SM CLR 31/22 A2993 850 56 2900 190/11 RMK AO2
14837KMSN MSN20030625115012706/25/03 11:50:31  5-MIN KMSN 251750Z 21009KT 7SM CLR 31/21 A2993 850 56 2900 210/09 RMK AO2 SLP128 T03060211 10311 20239 57006
14837KMSN MSN20030625115510206/25/03 11:55:31  5-MIN KMSN 251755Z VRB05KT 7SM SCT040 BKN100 31/22 A2993 860 56 2900 VRB/05 RMK AO2
14837KMSN MSN20030625120010206/25/03 12:00:31  5-MIN KMSN 251800Z 22009KT 7SM SCT045 BKN100 31/22 A2992 860 56 2900 220/09 RMK AO2
14837KMSN MSN20030625120509806/25/03 12:05:31  5-MIN KMSN 251805Z 22008KT 6SM HZ BKN047 31/22 A2992 860 58 2900 220/08 RMK AO2
14837KMSN MSN20030625121009806/25/03 12:10:31  5-MIN KMSN 251810Z 21009KT 6SM HZ BKN047 31/22 A2992 860 58 2900 210/09 RMK AO2
14837KMSN MSN20030625121510506/25/03 12:15:31  5-MIN KMSN 251815Z 21008KT 6SM HZ SCT047 BKN100 31/22 A2992 870 56 2900 210/08 RMK AO2
14837KMSN MSN20030625122010206/25/03 12:20:31  5-MIN KMSN 251820Z 18007KT 7SM SCT047 BKN110 31/22 A2991 870 56 2900 180/07 RMK AO2
14837KMSN MSN20030625122509506/25/03 12:25:31  5-MIN KMSN 251825Z 21007KT 7SM FEW047 31/22 A2991 880 56 3000 210/07 RMK AO2
14837KMSN MSN20030625123009206/25/03 12:30:31  5-MIN KMSN 251830Z 23007KT 7SM CLR 31/22 A2991 880 58 3000 230/07 RMK AO2
14837KMSN MSN20030625123511406/25/03 12:35:31  5-MIN KMSN 251835Z 19007KT 160V220 6SM HZ FEW038 31/22 A2990 880 56 3000 190/07 160V220 RMK AO2
14837KMSN MSN20030625124009806/25/03 12:40:31  5-MIN KMSN 251840Z 22009KT 6SM HZ FEW040 31/22 A2990 880 56 3000 220/09 RMK AO2
14837KMSN MSN20030625124509806/25/03 12:45:31  5-MIN KMSN 251845Z 21008KT 6SM HZ SCT042 31/22 A2990 890 58 3000 210/08 RMK AO2
14837KMSN MSN20030625125011506/25/03 12:50:31  5-MIN KMSN 251850Z 22007KT 6SM HZ SCT042 31/22 A2989 890 56 3000 220/07 RMK AO2 SLP115 T03110217
14837KMSN MSN20030625125509506/25/03 12:55:31  5-MIN KMSN 251855Z 21008KT 7SM BKN040 31/22 A2989 890 56 3000 210/08 RMK AO2
14837KMSN MSN20030625130009506/25/03 13:00:31  5-MIN KMSN 251900Z 21007KT 7SM BKN040 31/22 A2989 890 56 3000 210/07 RMK AO2
14837KMSN MSN20030625130511706/25/03 13:05:31  5-MIN KMSN 251905Z 19010G16KT 150V230 7SM BKN040 32/22 A2989 890 55 3000 190/10G16 150V230 RMK AO2
14837KMSN MSN20030625131010106/25/03 13:10:31  5-MIN KMSN 251910Z 18011G16KT 7SM BKN040 32/22 A2988 900 55 3000 180/11G16 RMK AO2
14837KMSN MSN20030625131509506/25/03 13:15:31  5-MIN KMSN 251915Z 19010KT 7SM BKN040 32/22 A2988 900 53 3100 190/10 RMK AO2
14837KMSN MSN20030625132009506/25/03 13:20:31  5-MIN KMSN 251920Z 18011KT 7SM SCT040 32/22 A2988 900 53 3100 180/11 RMK AO2
14837KMSN MSN20030625132509506/25/03 13:25:31  5-MIN KMSN 251925Z 18011KT 7SM SCT042 32/22 A2988 910 53 3100 180/11 RMK AO2
14837KMSN MSN20030625133010206/25/03 13:30:31  5-MIN KMSN 251930Z 19011KT 7SM FEW042 SCT065 32/22 A2987 910 55 3100 190/11 RMK AO2
14837KMSN MSN20030625133509506/25/03 13:35:31  5-MIN KMSN 251935Z 17013KT 7SM FEW042 32/22 A2987 910 53 3100 170/13 RMK AO2
14837KMSN MSN20030625134009506/25/03 13:40:31  5-MIN KMSN 251940Z 17013KT 7SM FEW065 32/22 A2987 910 55 3100 170/13 RMK AO2
14837KMSN MSN20030625134510106/25/03 13:45:31  5-MIN KMSN 251945Z 19012G19KT 7SM FEW070 31/22 A2987 910 56 3000 190/12G19 RMK AO2
14837KMSN MSN20030625135013306/25/03 13:50:31  5-MIN KMSN 251950Z 18013G19KT 7SM SCT040 BKN065 32/22 A2987 910 55 3100 180/13G19 RMK AO2 SLP108 TCU E-S T03170217
14837KMSN MSN20030625135510806/25/03 13:55:31  5-MIN KMSN 251955Z 20010G18KT 7SM SCT040 BKN060 32/22 A2988 900 55 3000 200/10G18 RMK AO2
14837KMSN MSN20030625140010206/25/03 14:00:31  5-MIN KMSN 252000Z 21011KT 7SM SCT040 BKN060 32/22 A2987 910 55 3100 210/11 RMK AO2
14837KMSN MSN20030625140510206/25/03 14:05:31  5-MIN KMSN 252005Z 20009KT 7SM SCT040 BKN060 32/21 A2987 910 53 3100 200/09 RMK AO2
14837KMSN MSN20030625141010806/25/03 14:10:31  5-MIN KMSN 252010Z 22011G16KT 7SM SCT040 BKN060 31/22 A2989 900 56 3000 220/11G16 RMK AO2
14837KMSN MSN20030625141519006/25/03 14:15:31  5-MIN KMSN 252015Z 27017G26KT 230V290 7SM TS SCT040 BKN060 31/21 A2991 870 56 2900 270/17G26 230V290 RMK AO2 PK WND 28026/2015 TSB12 PRESRR FRQ LTGCGICCA W-N TS VC W MOV E
14837KMSN MSN20030625142017406/25/03 14:20:31  5-MIN KMSN 252020Z 30017G28KT 8SM TS SCT040 BKN060 26/18 A2992 860 64 2300 300/17G28 RMK AO2 PK WND 29028/2016 TSB12 PRESRR FRQ LTGCGICCA W-N TS VC W MOV E
14837KMSN MSN20030625142518106/25/03 14:25:31  5-MIN KMSN 252025Z 30016G28KT 9SM -TSRA SCT040 BKN060 24/18 A2992 860 71 2100 300/16G28 RMK AO2 PK WND 29028/2016 TSB12RAB25 FRQ LTGCGICCA W-N TS VC W MOV E P0000
14837KMSN MSN20030625143019706/25/03 14:30:31  5-MIN KMSN 252030Z 29012G23KT 4SM TS HZ SCT045 BKN060 22/19 A2992 870 81 1900 290/12G23 RMK AO2 PK WND 29028/2016 WSHFT 2014 TSB12RAB25E30 FRQ LTGCGICCA W-N TS VC W MOV E P0002 $
14837KMSN MSN20030625143519306/25/03 14:35:31  5-MIN KMSN 252035Z 28008KT 4SM -TSRA FEW045 BKN065 BKN095 22/19 A2990 880 87 1900 280/08 RMK AO2 PK WND 29028/2016 WSHFT 2014 TSB12RAB25 OCNL LTGCGIC OHD TS OHD MOV E P0003 $
14837KMSN MSN20030625144019306/25/03 14:40:31  5-MIN KMSN 252040Z 28009KT 4SM -TSRA FEW017 BKN065 OVC095 21/19 A2991 880 90 1800 270/09 RMK AO2 PK WND 29028/2016 WSHFT 2014 TSB12RAB25 OCNL LTGCGIC OHD TS OHD MOV E P0004 $
14837KMSN MSN20030625144520906/25/03 14:45:31  5-MIN KMSN 252045Z 26009KT 230V290 4SM -TSRA FEW021 BKN060 OVC075 21/20 A2992 870 93 1800 260/09 230V290 RMK AO2 PK WND 29028/2016 WSHFT 2014 TSB12RAB25 OCNL LTGCGIC OHD TS OHD MOV E P0005 $
14837KMSN MSN20030625145023806/25/03 14:50:31  5-MIN KMSN 252050Z 25008KT 230V290 4SM -TSRA SCT022 BKN060 OVC075 21/20 A2992 870 93 1800 250/08 230V290 RMK AO2 PK WND 29028/2016 WSHFT 2014 TSB12RAB25 SLP126 OCNL LTGCGIC OHD TS OHD MOV E P0006 60006 T02110200 58007 $
14837KMSN MSN20030625145512306/25/03 14:55:31  5-MIN KMSN 252055Z VRB05KT 4SM -TSRA SCT026 BKN042 OVC080 21/20 A2992 870 93 1800 VRB/05 RMK AO2 P0000 $
14837KMSN MSN20030625150013006/25/03 15:00:31  5-MIN KMSN 252100Z 21008KT 5SM -TSRA BKN032 BKN065 OVC090 22/20 A2993 850 90 1900 210/08 RMK AO2 PRESRR P0001 $
14837KMSN MSN20030625150512306/25/03 15:05:31  5-MIN KMSN 252105Z 20005KT 3SM +TSRA BKN030 BKN070 OVC085 22/21 A2992 860 93 1900 200/05 RMK AO2 P0005 $
14837KMSN MSN20030625151015006/25/03 15:10:31  5-MIN KMSN 252110Z VRB04KT 3SM TSRA BKN026 BKN043 OVC065 21/20 A2991 880 93 1800 VRB/04 RMK AO2 OCNL LTGIC OHD TS OHD MOV E P0007 $
14837KMSN MSN20030625151515106/25/03 15:15:31  5-MIN KMSN 252115Z 18003KT 4SM -TSRA BKN026 BKN085 21/20 A2990 890 93 1800 170/03 RMK AO2 PRESFR OCNL LTGIC OHD TS OHD MOV E P0007 $
14837KMSN MSN20030625152015106/25/03 15:20:31  5-MIN KMSN 252120Z 13003KT 8SM -TSRA SCT029 BKN085 21/20 A2989 890 93 1900 130/03 RMK AO2 PRESFR OCNL LTGIC OHD TS OHD MOV E P0007 $
14837KMSN MSN20030625152514806/25/03 15:25:31  5-MIN KMSN 252125Z 00000KT 8SM -TSRA SCT032 BKN085 21/20 A2989 900 93 1900 000/00 RMK AO2 OCNL LTGCGIC VC E TS VC E MOV E P0007 $
14837KMSN MSN20030625153014106/25/03 15:30:31  5-MIN KMSN 252130Z 15004KT 8SM -TSRA BKN038 21/20 A2988 900 93 1900 140/04 RMK AO2 OCNL LTGCGIC VC E TS VC E MOV E P0007 $
14837KMSN MSN20030625153514206/25/03 15:35:31  5-MIN KMSN 252135Z 16003KT 10SM -TSRA BKN040 21/20 A2988 900 93 1900 160/03 RMK AO2 OCNL LTGCGIC VC E TS VC E MOV E P0007 $
14837KMSN MSN20030625154014106/25/03 15:40:31  5-MIN KMSN 252140Z 15005KT 9SM -TSRA BKN042 21/20 A2988 900 93 1900 150/05 RMK AO2 OCNL LTGCGIC VC E TS VC E MOV E P0008 $
14837KMSN MSN20030625154514106/25/03 15:45:31  5-MIN KMSN 252145Z 13008KT 9SM -TSRA BKN042 22/20 A2987 910 90 1900 130/08 RMK AO2 OCNL LTGCGIC VC E TS VC E MOV E P0008 $
14837KMSN MSN20030625155015806/25/03 15:50:31  5-MIN KMSN 252150Z 14007KT 10SM -RA SCT042 BKN120 22/21 A2987 910 93 1900 140/07 RMK AO2 TSE50 SLP108 LTG DSNT E TS MOV E P0008 T02170206 $
14837KMSN MSN20030625155511506/25/03 15:55:31  5-MIN KMSN 252155Z 15008KT 10SM -RA SCT042 BKN120 22/21 A2987 910 93 1900 150/08 RMK AO2 P0000 $
14837KMSN MSN20030625160011406/25/03 16:00:31  5-MIN KMSN 252200Z 16006KT 9SM -RA SCT034 BKN120 22/20 A2986 920 90 1900 160/06 RMK AO2 P0000 $
14837KMSN MSN20030625160511406/25/03 16:05:31  5-MIN KMSN 252205Z 19006KT 7SM -RA SCT026 BKN120 22/21 A2986 920 93 1900 180/06 RMK AO2 P0000 $
14837KMSN MSN20030625161011406/25/03 16:10:31  5-MIN KMSN 252210Z 15006KT 6SM -RA BKN022 BKN120 22/21 A2985 930 93 2000 150/06 RMK AO2 P0001 $
14837KMSN MSN20030625161511606/25/03 16:15:31  5-MIN KMSN 252215Z 17006KT 6SM RA BR BKN022 BKN120 22/21 A2985 930 93 2000 170/06 RMK AO2 P0001 $
14837KMSN MSN20030625162011306/25/03 16:20:31  5-MIN KMSN 252220Z 17008KT 7SM RA BKN022 BKN120 22/21 A2985 930 93 2000 160/08 RMK AO2 P0001 $
14837KMSN MSN20030625162510606/25/03 16:25:31  5-MIN KMSN 252225Z 18008KT 8SM RA BKN022 22/21 A2985 930 93 2000 180/08 RMK AO2 P0002 $
14837KMSN MSN20030625163010706/25/03 16:30:31  5-MIN KMSN 252230Z 15006KT 9SM -RA SCT020 22/21 A2984 940 93 2000 150/06 RMK AO2 P0002 $
14837KMSN MSN20030625163510706/25/03 16:35:31  5-MIN KMSN 252235Z 15008KT 9SM -RA SCT020 22/21 A2984 940 93 2000 150/08 RMK AO2 P0002 $
14837KMSN MSN20030625164010806/25/03 16:40:31  5-MIN KMSN 252240Z 14009KT 10SM -RA FEW020 22/21 A2983 940 93 2000 140/09 RMK AO2 P0002 $
14837KMSN MSN20030625164512406/25/03 16:45:31  5-MIN KMSN 252245Z 13008KT 10SM SCT020 BKN120 22/21 A2983 950 93 2000 130/08 RMK AO2 RAE44 PRESFR P0002 $
14837KMSN MSN20030625165012706/25/03 16:50:31  5-MIN KMSN 252250Z 14010KT 10SM BKN120 22/20 A2983 950 90 2000 140/10 RMK AO2 RAE44 SLP095 P0002 T02170200 $
14837KMSN MSN20030625165509806/25/03 16:55:31  5-MIN KMSN 252255Z 16006KT 10SM SCT110 22/21 A2983 950 93 2000 160/06 RMK AO2 $
14837KMSN MSN20030625170009806/25/03 17:00:31  5-MIN KMSN 252300Z 16008KT 10SM BKN110 22/21 A2983 950 93 2000 160/08 RMK AO2 $
14837KMSN MSN20030625170509806/25/03 17:05:31  5-MIN KMSN 252305Z 16008KT 10SM BKN120 22/20 A2983 950 90 2000 160/08 RMK AO2 $
14837KMSN MSN20030625171009806/25/03 17:10:31  5-MIN KMSN 252310Z 16009KT 10SM BKN120 22/20 A2984 940 90 2000 160/09 RMK AO2 $
14837KMSN MSN20030625171509806/25/03 17:15:31  5-MIN KMSN 252315Z 18008KT 10SM OVC120 22/20 A2985 930 90 2000 180/08 RMK AO2 $
14837KMSN MSN20030625172010506/25/03 17:20:31  5-MIN KMSN 252320Z 20006KT 10SM OVC120 22/20 A2986 920 90 1900 200/06 RMK AO2 PRESRR $
14837KMSN MSN20030625172509806/25/03 17:25:31  5-MIN KMSN 252325Z 19006KT 10SM OVC120 22/20 A2986 920 90 1900 180/06 RMK AO2 $
14837KMSN MSN20030625173010506/25/03 17:30:31  5-MIN KMSN 252330Z 21008KT 10SM OVC120 22/20 A2988 900 90 1900 210/08 RMK AO2 PRESRR $
14837KMSN MSN20030625173512606/25/03 17:35:31  5-MIN KMSN 252335Z 21011KT 8SM RA FEW070 OVC120 22/20 A2990 890 90 1900 210/11 RMK AO2 RAB32 PRESRR P0000 $
14837KMSN MSN20030625174012806/25/03 17:40:31  5-MIN KMSN 252340Z 21007G17KT 3SM RA BR SCT043 OVC120 22/20 A2989 890 90 1900 210/07G17 RMK AO2 RAB32 P0002 $
14837KMSN MSN20030625174512806/25/03 17:45:31  5-MIN KMSN 252345Z 20008G17KT 3SM RA BR BKN032 OVC120 22/21 A2989 900 93 1900 200/08G17 RMK AO2 RAB32 P0003 $
14837KMSN MSN20030625175015906/25/03 17:50:31  5-MIN KMSN 252350Z 18011KT 8SM -RA SCT036 BKN120 22/21 A2988 900 93 1900 180/11 RMK AO2 RAB32 SLP112 P0003 60020 T02170206 10322 20211 55004
14837KMSN MSN20030625175511906/25/03 17:55:31  5-MIN KMSN 252355Z 18013KT 8SM -RA BKN036 BKN110 22/21 A2987 910 93 1900 180/13 RMK AO2 PRESFR P0000
14837KMSN MSN20030625180011206/25/03 18:00:31  5-MIN KMSN 260000Z 18015KT 7SM -RA BKN034 BKN110 22/20 A2987 910 90 1900 180/15 RMK AO2 P0000
14837KMSN MSN20030625180511206/25/03 18:05:31  5-MIN KMSN 260005Z 18015KT 7SM -RA BKN032 BKN110 22/20 A2988 900 90 1900 180/15 RMK AO2 P0001
14837KMSN MSN20030625181011206/25/03 18:10:31  5-MIN KMSN 260010Z 18014KT 7SM -RA BKN032 BKN110 22/20 A2988 900 90 1900 180/14 RMK AO2 P0001
14837KMSN MSN20030625181511506/25/03 18:15:31  5-MIN KMSN 260015Z 19013KT 6SM -RA BR BKN036 BKN110 22/20 A2989 890 90 1900 180/13 RMK AO2 P0002
14837KMSN MSN20030625182011406/25/03 18:20:31  5-MIN KMSN 260020Z 18016KT 4SM RA BR BKN034 OVC110 22/20 A2988 900 90 1900 180/16 RMK AO2 P0002
14837KMSN MSN20030625182511406/25/03 18:25:31  5-MIN KMSN 260025Z 18017KT 4SM RA BR BKN032 OVC110 22/20 A2988 900 90 1900 180/17 RMK AO2 P0003
14837KMSN MSN20030625183010706/25/03 18:30:31  5-MIN KMSN 260030Z 18015KT 4SM RA BR OVC028 22/20 A2988 900 90 1900 180/15 RMK AO2 P0004
14837KMSN MSN20030625183511406/25/03 18:35:31  5-MIN KMSN 260035Z 18013KT 4SM RA BR BKN028 OVC065 22/20 A2987 910 90 1900 180/13 RMK AO2 P0005
14837KMSN MSN20030625184012206/25/03 18:40:31  5-MIN KMSN 260040Z 16015KT 5SM -RA BR BKN028 BKN070 22/20 A2986 920 90 2000 160/15 RMK AO2 PRESFR P0005
14837KMSN MSN20030625184511206/25/03 18:45:31  5-MIN KMSN 260045Z 15016KT 5SM -RA BKN026 22/20 A2984 940 90 2000 150/16 RMK AO2 PRESFR P0005
14837KMSN MSN20030625185013506/25/03 18:50:31  5-MIN KMSN 260050Z 15012G21KT 9SM -RA SCT026 21/20 A2984 940 93 1900 150/12G21 RMK AO2 PRESFR SLP098 P0005 T02110200
14837KMSN MSN20030625185511206/25/03 18:55:31  5-MIN KMSN 260055Z 16011G21KT 10SM -RA SCT024 21/20 A2984 940 93 1900 160/11G21 RMK AO2 P0000
14837KMSN MSN20030625190011006/25/03 19:00:31  5-MIN KMSN 260100Z 16013KT 10SM SCT024 21/20 A2983 950 93 1900 160/13 RMK AO2 RAE0057 P0000
14837KMSN MSN20030625190511406/25/03 19:05:31  5-MIN KMSN 260105Z 16018KT 10SM CLR 21/20 A2981 960 93 1900 160/18 RMK AO2 RAE0057 PRESFR P0000
14837KMSN MSN20030625191011306/25/03 19:10:31  5-MIN KMSN 260110Z 17017G22KT 10SM CLR 21/20 A2982 960 93 1900 170/17G22 RMK AO2 RAE0057 P0000
14837KMSN MSN20030625191511306/25/03 19:15:31  5-MIN KMSN 260115Z 18014G22KT 10SM CLR 21/19 A2983 950 90 1900 180/14G22 RMK AO2 RAE0057 P0000
14837KMSN MSN20030625192010706/25/03 19:20:31  5-MIN KMSN 260120Z 18013KT 10SM CLR 21/19 A2983 950 90 1900 180/13 RMK AO2 RAE0057 P0000
14837KMSN MSN20030625192510706/25/03 19:25:31  5-MIN KMSN 260125Z 18012KT 10SM CLR 21/19 A2983 940 90 1900 180/12 RMK AO2 RAE0057 P0000
14837KMSN MSN20030625193011406/25/03 19:30:31  5-MIN KMSN 260130Z 21010KT 10SM CLR 21/19 A2985 930 90 1900 210/10 RMK AO2 RAE0057 PRESRR P0000
14837KMSN MSN20030625193511306/25/03 19:35:31  5-MIN KMSN 260135Z 21007G14KT 10SM CLR 21/19 A2984 930 90 1900 210/07G14 RMK AO2 RAE0057 P0000
14837KMSN MSN20030625194010706/25/03 19:40:31  5-MIN KMSN 260140Z 21008KT 10SM CLR 21/19 A2984 940 90 1900 210/08 RMK AO2 RAE0057 P0000
14837KMSN MSN20030625194511306/25/03 19:45:31  5-MIN KMSN 260145Z 20008G14KT 10SM CLR 21/19 A2985 930 90 1900 200/08G14 RMK AO2 RAE0057 P0000
14837KMSN MSN20030625195013306/25/03 19:50:31  5-MIN KMSN 260150Z 20008G14KT 10SM SCT110 21/19 A2984 930 90 1900 200/08G14 RMK AO2 RAE0057 SLP101 P0000 T02110194
14837KMSN MSN20030625195509606/25/03 19:55:31  5-MIN KMSN 260155Z 20008KT 10SM FEW085 21/19 A2985 930 90 1900 200/08 RMK AO2
14837KMSN MSN20030625200010206/25/03 20:00:31  5-MIN KMSN 260200Z 20011G17KT 10SM FEW085 21/19 A2984 930 90 1900 200/11G17 RMK AO2
14837KMSN MSN20030625200510206/25/03 20:05:31  5-MIN KMSN 260205Z 19010G17KT 10SM FEW090 21/19 A2984 940 90 1900 190/10G17 RMK AO2
14837KMSN MSN20030625201010206/25/03 20:10:31  5-MIN KMSN 260210Z 20012G18KT 10SM FEW090 21/19 A2984 940 90 1900 200/12G18 RMK AO2
14837KMSN MSN20030625201510206/25/03 20:15:31  5-MIN KMSN 260215Z 19012G18KT 10SM FEW085 21/19 A2984 940 90 1900 190/12G18 RMK AO2
14837KMSN MSN20030625202009306/25/03 20:20:31  5-MIN KMSN 260220Z 18011KT 10SM CLR 21/19 A2983 950 90 1900 180/11 RMK AO2
14837KMSN MSN20030625202509306/25/03 20:25:31  5-MIN KMSN 260225Z 18012KT 10SM CLR 21/19 A2983 950 90 1900 180/12 RMK AO2
14837KMSN MSN20030625203009306/25/03 20:30:31  5-MIN KMSN 260230Z 18013KT 10SM CLR 21/19 A2982 960 90 1900 180/13 RMK AO2
14837KMSN MSN20030625203509906/25/03 20:35:31  5-MIN KMSN 260235Z 19010G17KT 10SM CLR 21/19 A2983 950 90 1900 190/10G17 RMK AO2
14837KMSN MSN20030625204009306/25/03 20:40:31  5-MIN KMSN 260240Z 19009KT 10SM CLR 21/19 A2983 950 90 1900 190/09 RMK AO2
14837KMSN MSN20030625204509306/25/03 20:45:31  5-MIN KMSN 260245Z 18012KT 10SM CLR 21/19 A2982 960 90 1900 180/12 RMK AO2
14837KMSN MSN20030625205012206/25/03 20:50:31  5-MIN KMSN 260250Z 19007KT 10SM CLR 21/19 A2982 950 90 1900 190/07 RMK AO2 SLP093 60005 T02110194 55014
14837KMSN MSN20030625205512206/25/03 20:55:31  5-MIN KMSN 260255Z 20007KT 170V230 10SM -RA FEW100 21/19 A2982 950 87 1900 200/07 170V230 RMK AO2 P0000
14837KMSN MSN20030625210011206/25/03 21:00:31  5-MIN KMSN 260300Z 18010G16KT 10SM -RA SCT070 21/19 A2981 960 87 1900 180/10G16 RMK AO2 P0000
14837KMSN MSN20030625210511206/25/03 21:05:31  5-MIN KMSN 260305Z 18012G16KT 10SM -RA BKN060 21/19 A2980 970 87 1900 180/12G16 RMK AO2 P0000
14837KMSN MSN20030625211010606/25/03 21:10:31  5-MIN KMSN 260310Z 19011KT 10SM -RA BKN060 21/19 A2981 970 90 1900 190/11 RMK AO2 P0000
14837KMSN MSN20030625211511306/25/03 21:15:31  5-MIN KMSN 260315Z 19013KT 10SM -RA BKN060 BKN075 21/19 A2980 970 90 1900 190/13 RMK AO2 P0001
14837KMSN MSN20030625212011306/25/03 21:20:31  5-MIN KMSN 260320Z 19009KT 10SM -RA BKN060 OVC075 21/19 A2980 970 90 1900 190/09 RMK AO2 P0001
14837KMSN MSN20030625212510606/25/03 21:25:31  5-MIN KMSN 260325Z 18012KT 10SM -RA OVC060 21/19 A2980 980 90 1900 180/12 RMK AO2 P0001
14837KMSN MSN20030625213010606/25/03 21:30:31  5-MIN KMSN 260330Z 18009KT 10SM -RA OVC060 21/19 A2980 980 90 1900 180/09 RMK AO2 P0001
14837KMSN MSN20030625213510506/25/03 21:35:31  5-MIN KMSN 260335Z 17008KT 8SM -RA OVC060 21/19 A2980 980 90 1900 170/08 RMK AO2 P0002
14837KMSN MSN20030625214010506/25/03 21:40:31  5-MIN KMSN 260340Z 15012KT 8SM -RA OVC055 21/19 A2978 990 90 1900 150/12 RMK AO2 P0002
14837KMSN MSN20030625214510506/25/03 21:45:31  5-MIN KMSN 260345Z 15012KT 8SM -RA OVC060 21/19 A2978 990 90 1900 150/12 RMK AO2 P0002
14837KMSN MSN20030625215012906/25/03 21:50:31  5-MIN KMSN 260350Z 29010KT 9SM -RA OVC060 21/19 A2982 950 90 1900 280/10 RMK AO2 PRESRR SLP092 P0003 T02060189
14837KMSN MSN20030625215513406/25/03 21:55:31  5-MIN KMSN 260355Z 24007G14KT 220V280 8SM -RA FEW019 OVC055 21/19 A2982 960 90 1900 240/07G14 220V280 RMK AO2 P0000
14837KMSN MSN20030625220011206/25/03 22:00:31  5-MIN KMSN 260400Z 29008KT 7SM -RA FEW019 OVC050 21/19 A2982 960 90 1900 290/08 RMK AO2 P0000
14837KMSN MSN20030625220511906/25/03 22:05:31  5-MIN KMSN 260405Z VRB06KT 9SM -RA SCT019 SCT028 OVC050 21/18 A2982 950 87 1900 VRB/06 RMK AO2 P0000
14837KMSN MSN20030625221012006/25/03 22:10:31  5-MIN KMSN 260410Z 28006KT 10SM -RA FEW019 BKN029 OVC055 21/18 A2982 950 87 1900 280/06 RMK AO2 P0001
14837KMSN MSN20030625221512006/25/03 22:15:31  5-MIN KMSN 260415Z 28007KT 10SM -RA SCT022 BKN031 BKN055 21/18 A2982 950 87 1900 280/07 RMK AO2 P0001
14837KMSN MSN20030625222012006/25/03 22:20:31  5-MIN KMSN 260420Z 28006KT 10SM -RA FEW022 SCT031 BKN038 21/18 A2982 950 87 1900 280/06 RMK AO2 P0001
14837KMSN MSN20030625222512006/25/03 22:25:31  5-MIN KMSN 260425Z VRB04KT 10SM -RA FEW022 SCT031 SCT046 20/18 A2982 950 90 1800 VRB/04 RMK AO2 P0001
14837KMSN MSN20030625223011506/25/03 22:30:31  5-MIN KMSN 260430Z VRB05KT 10SM FEW022 SCT031 20/18 A2982 960 90 1800 VRB/05 RMK AO2 RAE26 P0001
14837KMSN MSN20030625223510806/25/03 22:35:31  5-MIN KMSN 260435Z VRB05KT 10SM FEW024 20/18 A2981 960 90 1800 VRB/05 RMK AO2 RAE26 P0001
14837KMSN MSN20030625224010506/25/03 22:40:31  5-MIN KMSN 260440Z 29004KT 10SM CLR 20/18 A2982 960 90 1800 290/04 RMK AO2 RAE26 P0001
14837KMSN MSN20030625224510506/25/03 22:45:31  5-MIN KMSN 260445Z 24003KT 10SM CLR 20/18 A2982 960 90 1800 240/03 RMK AO2 RAE26 P0001
14837KMSN MSN20030625225012506/25/03 22:50:31  5-MIN KMSN 260450Z VRB03KT 10SM FEW060 20/18 A2982 960 90 1800 VRB/03 RMK AO2 RAE26 SLP090 P0001 T02000183
14837KMSN MSN20030625225509306/25/03 22:55:31  5-MIN KMSN 260455Z VRB04KT 10SM CLR 20/18 A2982 960 90 1800 VRB/04 RMK AO2
14837KMSN MSN20030625230009306/25/03 23:00:31  5-MIN KMSN 260500Z VRB04KT 10SM CLR 20/18 A2982 960 90 1800 VRB/04 RMK AO2
14837KMSN MSN20030625230509306/25/03 23:05:31  5-MIN KMSN 260505Z VRB03KT 10SM CLR 20/18 A2982 960 90 1800 VRB/03 RMK AO2
14837KMSN MSN20030625231009306/25/03 23:10:31  5-MIN KMSN 260510Z VRB05KT 10SM CLR 20/19 A2982 950 93 1800 VRB/05 RMK AO2
14837KMSN MSN20030625231509606/25/03 23:15:31  5-MIN KMSN 260515Z VRB06KT 10SM FEW016 20/19 A2982 960 93 1800 VRB/06 RMK AO2
14837KMSN MSN20030625232009606/25/03 23:20:31  5-MIN KMSN 260520Z VRB05KT 10SM SCT016 21/19 A2982 960 90 1900 VRB/05 RMK AO2
14837KMSN MSN20030625232509606/25/03 23:25:31  5-MIN KMSN 260525Z VRB06KT 10SM BKN016 21/19 A2981 970 90 1900 VRB/06 RMK AO2
14837KMSN MSN20030625233009606/25/03 23:30:31  5-MIN KMSN 260530Z 25008KT 10SM BKN016 21/18 A2980 970 87 1900 250/08 RMK AO2
14837KMSN MSN20030625233509606/25/03 23:35:31  5-MIN KMSN 260535Z 25006KT 10SM BKN016 21/18 A2980 970 87 1900 250/06 RMK AO2
14837KMSN MSN20030625234011206/25/03 23:40:31  5-MIN KMSN 260540Z 24009KT 210V270 10SM OVC014 21/18 A2980 970 87 1900 240/09 210V270 RMK AO2
14837KMSN MSN20030625234511806/25/03 23:45:31  5-MIN KMSN 260545Z 25010G14KT 230V300 10SM OVC014 21/18 A2980 980 87 1900 250/10G14 230V300 RMK AO2
14837KMSN MSN20030625235016906/25/03 23:50:31  5-MIN KMSN 260550Z 24008G14KT 170V290 10SM OVC014 21/18 A2980 980 87 1900 240/08G14 170V290 RMK AO2 SLP085 60009 T02060183 10217 20200 403220200 56017
14837KMSN MSN20030625235511206/25/03 23:55:31  5-MIN KMSN 260555Z 24008KT 200V270 10SM OVC014 21/18 A2980 980 87 1900 240/08 200V270 RMK AO2
14837KMSN MSN20030626000011206/26/03 00:00:31  5-MIN KMSN 260600Z 24008KT 210V270 10SM OVC014 21/19 A2980 980 90 1900 240/08 210V270 RMK AO2
14837KMSN MSN20030626000511206/26/03 00:05:31  5-MIN KMSN 260605Z 24009KT 210V290 10SM OVC014 21/19 A2980 980 90 1900 240/09 210V290 RMK AO2
14837KMSN MSN20030626001011206/26/03 00:10:31  5-MIN KMSN 260610Z 24009KT 200V280 10SM OVC014 21/19 A2980 970 90 1900 240/09 200V280 RMK AO2
14837KMSN MSN20030626001511206/26/03 00:15:31  5-MIN KMSN 260615Z 24008KT 170V290 10SM OVC014 21/19 A2980 970 90 1900 240/08 170V290 RMK AO2
14837KMSN MSN20030626002012506/26/03 00:20:31  5-MIN KMSN 260620Z 24007G14KT 190V270 10SM BKN014 OVC022 21/19 A2980 970 90 1900 240/07G14 190V270 RMK AO2
14837KMSN MSN20030626002510206/26/03 00:25:31  5-MIN KMSN 260625Z 23010G16KT 10SM OVC016 21/19 A2981 970 87 1900 230/10G16 RMK AO2
14837KMSN MSN20030626003012506/26/03 00:30:31  5-MIN KMSN 260630Z 23007G18KT 180V260 10SM BKN016 OVC022 21/19 A2981 970 87 1900 230/07G18 180V260 RMK AO2
14837KMSN MSN20030626003512506/26/03 00:35:31  5-MIN KMSN 260635Z 23013G18KT 180V260 10SM BKN016 OVC024 21/19 A2981 970 87 1900 230/13G18 180V260 RMK AO2
14837KMSN MSN20030626004010906/26/03 00:40:31  5-MIN KMSN 260640Z 23010G17KT 10SM BKN016 OVC024 21/18 A2981 970 84 1900 230/10G17 RMK AO2
14837KMSN MSN20030626004510906/26/03 00:45:31  5-MIN KMSN 260645Z 22009G18KT 10SM BKN018 OVC023 21/18 A2981 970 84 1900 220/09G18 RMK AO2
14837KMSN MSN20030626005012606/26/03 00:50:31  5-MIN KMSN 260650Z 22009G18KT 10SM BKN018 OVC026 21/18 A2980 970 84 1900 220/09G18 RMK AO2 SLP086 T02110183
14837KMSN MSN20030626005510306/26/03 00:55:31  5-MIN KMSN 260655Z 22010KT 10SM BKN016 OVC023 21/18 A2980 980 84 2000 220/10 RMK AO2
14837KMSN MSN20030626010012506/26/03 01:00:31  5-MIN KMSN 260700Z 22010G14KT 190V260 10SM BKN016 OVC023 21/18 A2980 980 84 2000 220/10G14 190V260 RMK AO2
14837KMSN MSN20030626010510906/26/03 01:05:31  5-MIN KMSN 260705Z 23009G14KT 10SM BKN016 OVC023 21/19 A2980 980 87 2000 230/09G14 RMK AO2
14837KMSN MSN20030626011011906/26/03 01:10:31  5-MIN KMSN 260710Z 23008KT 200V260 10SM BKN014 OVC022 21/19 A2980 980 87 2000 230/08 200V260 RMK AO2
14837KMSN MSN20030626011511806/26/03 01:15:31  5-MIN KMSN 260715Z 23008G15KT 200V270 10SM OVC014 21/19 A2980 980 87 2000 230/08G15 200V270 RMK AO2
14837KMSN MSN20030626012010206/26/03 01:20:31  5-MIN KMSN 260720Z 23009G15KT 10SM OVC014 21/19 A2979 980 87 2000 230/09G15 RMK AO2
14837KMSN MSN20030626012511206/26/03 01:25:31  5-MIN KMSN 260725Z 23008KT 200V280 10SM OVC014 21/19 A2979 980 87 2000 230/08 200V280 RMK AO2
14837KMSN MSN20030626013009506/26/03 01:30:31  5-MIN KMSN 260730Z 23009KT 9SM OVC012 21/19 A2979 980 87 2000 230/09 RMK AO2
14837KMSN MSN20030626013511706/26/03 01:35:31  5-MIN KMSN 260735Z 23010G18KT 190V260 8SM OVC012 21/19 A2979 980 87 2000 230/10G18 190V260 RMK AO2
14837KMSN MSN20030626014010106/26/03 01:40:31  5-MIN KMSN 260740Z 23007G18KT 7SM OVC012 21/19 A2979 990 87 2000 230/07G18 RMK AO2
14837KMSN MSN20030626014511106/26/03 01:45:31  5-MIN KMSN 260745Z 24008KT 200V290 8SM OVC014 21/19 A2979 990 87 2000 240/08 200V290 RMK AO2
14837KMSN MSN20030626015011206/26/03 01:50:31  5-MIN KMSN 260750Z 25009KT 8SM OVC014 21/19 A2979 990 87 2000 250/09 RMK AO2 SLP079 T02110189
14837KMSN MSN20030626015511106/26/03 01:55:31  5-MIN KMSN 260755Z 25009KT 230V300 8SM OVC014 21/19 A2979 990 87 2000 250/09 230V300 RMK AO2
14837KMSN MSN20030626020009506/26/03 02:00:31  5-MIN KMSN 260800Z 26007KT 9SM OVC014 21/19 A2978 990 87 2000 260/07 RMK AO2
14837KMSN MSN20030626020509506/26/03 02:05:31  5-MIN KMSN 260805Z VRB06KT 9SM OVC014 21/19 A2978 990 87 2000 VRB/06 RMK AO2
14837KMSN MSN20030626021009606/26/03 02:10:31  5-MIN KMSN 260810Z 26007KT 10SM OVC014 21/19 A2979 990 87 2000 260/07 RMK AO2
14837KMSN MSN20030626021511206/26/03 02:15:31  5-MIN KMSN 260815Z 24007KT 180V270 10SM OVC014 21/19 A2979 990 87 2000 240/07 180V270 RMK AO2
14837KMSN MSN20030626022009606/26/03 02:20:31  5-MIN KMSN 260820Z 26006KT 10SM OVC014 21/18 A2979 990 84 2000 250/06 RMK AO2
14837KMSN MSN20030626022511206/26/03 02:25:31  5-MIN KMSN 260825Z 26008KT 220V290 10SM OVC014 21/18 A2979 990 84 2000 260/08 220V290 RMK AO2
14837KMSN MSN20030626023009606/26/03 02:30:31  5-MIN KMSN 260830Z 28011KT 10SM OVC014 21/18 A2979 980 87 1900 280/11 RMK AO2
14837KMSN MSN20030626023511806/26/03 02:35:31  5-MIN KMSN 260835Z 28010G18KT 230V320 10SM OVC014 19/17 A2980 980 87 1800 280/10G18 230V320 RMK AO2
14837KMSN MSN20030626024011806/26/03 02:40:31  5-MIN KMSN 260840Z 27011G18KT 230V300 10SM OVC014 19/17 A2980 970 87 1700 270/11G18 230V300 RMK AO2
14837KMSN MSN20030626024510206/26/03 02:45:31  5-MIN KMSN 260845Z 28011G16KT 10SM OVC014 19/16 A2981 970 84 1700 280/11G16 RMK AO2
14837KMSN MSN20030626025013206/26/03 02:50:31  5-MIN KMSN 260850Z 28009G17KT 10SM BKN014 OVC070 19/16 A2981 970 84 1700 280/09G17 RMK AO2 SLP090 T01890161 58009
14837KMSN MSN20030626025511606/26/03 02:55:31  5-MIN KMSN 260855Z 28010G17KT 10SM BKN014 BKN031 OVC070 18/16 A2981 970 84 1600 270/10G17 RMK AO2
14837KMSN MSN20030626030011606/26/03 03:00:31  5-MIN KMSN 260900Z 27009G16KT 10SM BKN014 BKN030 BKN070 18/16 A2981 970 87 1600 270/09G16 RMK AO2
14837KMSN MSN20030626030511606/26/03 03:05:31  5-MIN KMSN 260905Z 27008G16KT 10SM SCT014 BKN030 BKN070 18/16 A2981 970 87 1600 270/08G16 RMK AO2
14837KMSN MSN20030626031013206/26/03 03:10:31  5-MIN KMSN 260910Z 27009G16KT 230V320 10SM SCT014 SCT018 BKN030 18/16 A2981 970 87 1600 270/09G16 230V320 RMK AO2
14837KMSN MSN20030626031511006/26/03 03:15:31  5-MIN KMSN 260915Z 26009KT 10SM BKN014 BKN030 OVC100 18/15 A2981 960 83 1600 260/09 RMK AO2
14837KMSN MSN20030626032011606/26/03 03:20:31  5-MIN KMSN 260920Z 28010G14KT 10SM BKN014 BKN030 OVC100 17/15 A2981 960 87 1500 280/10G14 RMK AO2
14837KMSN MSN20030626032512506/26/03 03:25:31  5-MIN KMSN 260925Z 27008G14KT 240V300 10SM BKN014 BKN100 17/15 A2982 960 87 1500 270/08G14 240V300 RMK AO2
14837KMSN MSN20030626033011206/26/03 03:30:31  5-MIN KMSN 260930Z 28007KT 220V300 10SM OVC014 17/15 A2982 960 87 1500 280/07 220V300 RMK AO2
14837KMSN MSN20030626033510306/26/03 03:35:31  5-MIN KMSN 260935Z 28008KT 10SM BKN014 OVC085 17/15 A2981 960 87 1500 280/08 RMK AO2
14837KMSN MSN20030626034012506/26/03 03:40:31  5-MIN KMSN 260940Z 27009G14KT 230V310 10SM BKN014 OVC090 17/15 A2982 960 87 1500 270/09G14 230V310 RMK AO2
14837KMSN MSN20030626034511606/26/03 03:45:31  5-MIN KMSN 260945Z 28009G14KT 10SM BKN014 BKN045 OVC085 17/14 A2982 960 83 1500 280/09G14 RMK AO2
14837KMSN MSN20030626035012706/26/03 03:50:31  5-MIN KMSN 260950Z 28007KT 10SM SCT014 BKN045 OVC100 17/14 A2982 950 83 1500 280/07 RMK AO2 SLP096 T01720144
14837KMSN MSN20030626035511006/26/03 03:55:31  5-MIN KMSN 260955Z 28007KT 10SM SCT014 BKN047 OVC085 17/14 A2983 950 83 1500 280/07 RMK AO2
14837KMSN MSN20030626040012606/26/03 04:00:31  5-MIN KMSN 261000Z 28007KT 250V320 10SM FEW014 BKN047 OVC090 17/14 A2983 950 83 1400 280/07 250V320 RMK AO2
14837KMSN MSN20030626040511606/26/03 04:05:31  5-MIN KMSN 261005Z 29008G14KT 10SM FEW014 BKN047 OVC090 17/14 A2983 950 83 1400 290/08G14 RMK AO2
14837KMSN MSN20030626041011606/26/03 04:10:31  5-MIN KMSN 261010Z 27007G14KT 10SM FEW016 BKN047 OVC090 17/14 A2983 940 83 1400 270/07G14 RMK AO2
14837KMSN MSN20030626041512606/26/03 04:15:31  5-MIN KMSN 261015Z 28008KT 250V320 10SM SCT018 BKN047 OVC110 17/14 A2983 940 83 1400 280/08 250V320 RMK AO2
14837KMSN MSN20030626042011006/26/03 04:20:31  5-MIN KMSN 261020Z VRB06KT 10SM BKN018 BKN047 OVC090 17/14 A2984 940 83 1400 VRB/06 RMK AO2
14837KMSN MSN20030626042511606/26/03 04:25:31  5-MIN KMSN 261025Z 29007G14KT 10SM BKN018 BKN047 OVC090 17/14 A2984 940 83 1400 280/07G14 RMK AO2
14837KMSN MSN20030626043010906/26/03 04:30:31  5-MIN KMSN 261030Z 30007G14KT 10SM BKN020 OVC047 17/14 A2984 940 83 1400 300/07G14 RMK AO2
14837KMSN MSN20030626043511206/26/03 04:35:31  5-MIN KMSN 261035Z 30009KT 270V340 10SM OVC020 17/13 A2984 940 80 1400 300/09 270V340 RMK AO2
14837KMSN MSN20030626044009606/26/03 04:40:31  5-MIN KMSN 261040Z 28009KT 10SM OVC020 17/13 A2984 940 80 1400 280/09 RMK AO2
14837KMSN MSN20030626044509606/26/03 04:45:31  5-MIN KMSN 261045Z 29009KT 10SM OVC020 17/13 A2985 930 80 1400 290/09 RMK AO2
14837KMSN MSN20030626045011906/26/03 04:50:31  5-MIN KMSN 261050Z 29009G15KT 10SM OVC020 17/13 A2985 930 80 1400 290/09G15 RMK AO2 SLP103 T01670133
14837KMSN MSN20030626045510206/26/03 04:55:31  5-MIN KMSN 261055Z 30010G15KT 10SM OVC018 16/13 A2985 930 83 1300 300/10G15 RMK AO2
14837KMSN MSN20030626050010206/26/03 05:00:31  5-MIN KMSN 261100Z 29009G15KT 10SM OVC018 16/13 A2985 930 83 1300 290/09G15 RMK AO2
14837KMSN MSN20030626050510206/26/03 05:05:31  5-MIN KMSN 261105Z 29008G15KT 10SM OVC018 16/13 A2985 930 83 1300 280/08G15 RMK AO2
14837KMSN MSN20030626051010206/26/03 05:10:31  5-MIN KMSN 261110Z 30009G15KT 10SM OVC016 16/13 A2985 930 83 1300 290/09G15 RMK AO2
14837KMSN MSN20030626051510206/26/03 05:15:31  5-MIN KMSN 261115Z 29005G15KT 10SM OVC018 16/13 A2985 930 80 1300 290/05G15 RMK AO2
14837KMSN MSN20030626052010206/26/03 05:20:31  5-MIN KMSN 261120Z 28009G15KT 10SM OVC018 16/13 A2986 920 80 1300 280/09G15 RMK AO2
14837KMSN MSN20030626052510206/26/03 05:25:31  5-MIN KMSN 261125Z 29010G15KT 10SM OVC020 16/13 A2986 920 80 1300 290/10G15 RMK AO2
14837KMSN MSN20030626053010306/26/03 05:30:31  5-MIN KMSN 261130Z 29009KT 10SM BKN020 OVC025 16/13 A2986 920 80 1300 290/09 RMK AO2
14837KMSN MSN20030626053511206/26/03 05:35:31  5-MIN KMSN 261135Z 28009KT 240V310 10SM OVC020 16/13 A2986 920 80 1300 280/09 240V310 RMK AO2
14837KMSN MSN20030626054009606/26/03 05:40:31  5-MIN KMSN 261140Z 29007KT 10SM OVC022 16/13 A2986 920 80 1300 280/07 RMK AO2
14837KMSN MSN20030626054511206/26/03 05:45:31  5-MIN KMSN 261145Z 30008KT 270V330 10SM OVC022 16/13 A2986 920 80 1300 300/08 270V330 RMK AO2
14837KMSN MSN20030626055013606/26/03 05:50:31  5-MIN KMSN 261150Z 29009KT 9SM OVC022 16/13 A2986 920 80 1300 290/09 RMK AO2 SLP109 70029 T01610128 10211 20161 53003
14837KMSN MSN20030626055509506/26/03 05:55:31  5-MIN KMSN 261155Z 29009KT 9SM OVC022 16/12 A2986 920 77 1300 290/09 RMK AO2
14837KMSN MSN20030626060009506/26/03 06:00:31  5-MIN KMSN 261200Z 29008KT 9SM OVC022 16/12 A2986 920 77 1300 280/08 RMK AO2
14837KMSN MSN20030626060511806/26/03 06:05:31  5-MIN KMSN 261205Z 28007KT 230V310 9SM BKN022 OVC028 16/12 A2987 910 77 1300 280/07 230V310 RMK AO2
14837KMSN MSN20030626061009506/26/03 06:10:31  5-MIN KMSN 261210Z 29009KT 9SM OVC025 16/12 A2987 920 77 1300 290/09 RMK AO2
14837KMSN MSN20030626061509506/26/03 06:15:31  5-MIN KMSN 261215Z 29009KT 9SM OVC025 16/12 A2986 920 80 1200 290/09 RMK AO2
14837KMSN MSN20030626062010106/26/03 06:20:31  5-MIN KMSN 261220Z 29010G14KT 9SM OVC025 16/12 A2986 920 77 1200 280/10G14 RMK AO2
14837KMSN MSN20030626062509506/26/03 06:25:31  5-MIN KMSN 261225Z 29009KT 9SM OVC025 16/12 A2986 920 75 1300 290/09 RMK AO2
14837KMSN MSN20030626063011706/26/03 06:30:31  5-MIN KMSN 261230Z 29011G15KT 250V320 8SM OVC027 16/12 A2986 920 75 1300 290/11G15 250V320 RMK AO2
14837KMSN MSN20030626063510106/26/03 06:35:31  5-MIN KMSN 261235Z 30007G15KT 8SM OVC027 16/12 A2986 920 75 1300 300/07G15 RMK AO2
14837KMSN MSN20030626064009506/26/03 06:40:31  5-MIN KMSN 261240Z 29007KT 8SM BKN027 16/12 A2986 920 75 1300 290/07 RMK AO2
14837KMSN MSN20030626064511706/26/03 06:45:31  5-MIN KMSN 261245Z 29008G14KT 250V320 8SM BKN027 16/12 A2987 910 77 1200 290/08G14 250V320 RMK AO2
14837KMSN MSN20030626065011906/26/03 06:50:31  5-MIN KMSN 261250Z 28008G14KT 10SM BKN027 16/12 A2987 910 77 1200 280/08G14 RMK AO2 SLP112 T01560117
14837KMSN MSN20030626065509506/26/03 06:55:31  5-MIN KMSN 261255Z 29009KT 9SM OVC026 16/12 A2987 910 77 1200 290/09 RMK AO2
14837KMSN MSN20030626070010206/26/03 07:00:31  5-MIN KMSN 261300Z 30008KT 9SM SCT024 OVC029 16/11 A2987 910 74 1200 300/08 RMK AO2
14837KMSN MSN20030626070510806/26/03 07:05:31  5-MIN KMSN 261305Z 28012G16KT 9SM SCT024 OVC029 16/11 A2987 910 74 1200 280/12G16 RMK AO2
14837KMSN MSN20030626071010806/26/03 07:10:31  5-MIN KMSN 261310Z 30011G16KT 9SM SCT024 BKN029 16/11 A2987 910 72 1300 300/11G16 RMK AO2
14837KMSN MSN20030626071510106/26/03 07:15:31  5-MIN KMSN 261315Z 30013G19KT 9SM BKN027 17/11 A2987 910 67 1400 300/13G19 RMK AO2
14837KMSN MSN20030626072010106/26/03 07:20:31  5-MIN KMSN 261320Z 30009G19KT 9SM BKN027 17/11 A2987 910 67 1400 300/09G19 RMK AO2
14837KMSN MSN20030626072510106/26/03 07:25:31  5-MIN KMSN 261325Z 29009G19KT 9SM BKN027 17/11 A2986 920 67 1400 290/09G19 RMK AO2
14837KMSN MSN20030626073010206/26/03 07:30:31  5-MIN KMSN 261330Z 29008G19KT 10SM BKN027 17/11 A2987 910 67 1400 290/08G19 RMK AO2
14837KMSN MSN20030626073511806/26/03 07:35:31  5-MIN KMSN 261335Z 31009G21KT 260V340 10SM SCT027 17/11 A2987 910 67 1400 310/09G21 260V340 RMK AO2
14837KMSN MSN20030626074010206/26/03 07:40:31  5-MIN KMSN 261340Z 30008G21KT 10SM SCT027 17/11 A2987 910 64 1400 300/08G21 RMK AO2
14837KMSN MSN20030626074510206/26/03 07:45:31  5-MIN KMSN 261345Z 28009G15KT 10SM SCT027 17/11 A2987 910 67 1400 280/09G15 RMK AO2
14837KMSN MSN20030626075013506/26/03 07:50:31  5-MIN KMSN 261350Z 28011G16KT 240V310 10SM BKN025 17/11 A2987 910 67 1400 280/11G16 240V310 RMK AO2 SLP113 T01670106
14837KMSN MSN20030626075511806/26/03 07:55:31  5-MIN KMSN 261355Z 30009G16KT 260V330 10SM BKN027 16/11 A2987 910 69 1300 300/09G16 260V330 RMK AO2
14837KMSN MSN20030626080009606/26/03 08:00:31  5-MIN KMSN 261400Z 28010KT 10SM BKN027 17/11 A2988 900 69 1400 280/10 RMK AO2
14837KMSN MSN20030626080509606/26/03 08:05:31  5-MIN KMSN 261405Z 28008KT 10SM BKN027 17/11 A2988 900 67 1300 280/08 RMK AO2
14837KMSN MSN20030626081010206/26/03 08:10:31  5-MIN KMSN 261410Z 28009G15KT 10SM BKN027 17/11 A2988 900 64 1400 280/09G15 RMK AO2
14837KMSN MSN20030626081510206/26/03 08:15:31  5-MIN KMSN 261415Z 29009G15KT 10SM BKN027 17/11 A2988 900 64 1400 290/09G15 RMK AO2
14837KMSN MSN20030626082010206/26/03 08:20:31  5-MIN KMSN 261420Z 29010G14KT 10SM SCT027 17/11 A2988 900 64 1400 290/10G14 RMK AO2
14837KMSN MSN20030626082510206/26/03 08:25:31  5-MIN KMSN 261425Z 29011G16KT 10SM SCT026 17/10 A2988 900 62 1400 290/11G16 RMK AO2
14837KMSN MSN20030626083011806/26/03 08:30:31  5-MIN KMSN 261430Z 29009G16KT 260V320 10SM SCT026 17/10 A2988 900 62 1400 290/09G16 260V320 RMK AO2
14837KMSN MSN20030626083510206/26/03 08:35:31  5-MIN KMSN 261435Z 29008G15KT 10SM FEW026 18/11 A2988 900 62 1500 290/08G15 RMK AO2
14837KMSN MSN20030626084011806/26/03 08:40:31  5-MIN KMSN 261440Z 29008G17KT 260V320 10SM FEW026 18/10 A2988 900 60 1500 280/08G17 260V320 RMK AO2
14837KMSN MSN20030626084509906/26/03 08:45:31  5-MIN KMSN 261445Z 31010G17KT 10SM CLR 18/10 A2988 900 60 1500 310/10G17 RMK AO2
14837KMSN MSN20030626085011906/26/03 08:50:31  5-MIN KMSN 261450Z 27008KT 10SM FEW033 18/10 A2988 900 60 1500 270/08 RMK AO2 SLP116 T01780100 53018
14837KMSN MSN20030626085511806/26/03 08:55:31  5-MIN KMSN 261455Z 27011G17KT 220V310 10SM FEW032 18/10 A2988 900 60 1500 270/11G17 220V310 RMK AO2
14837KMSN MSN20030626090011506/26/03 09:00:31  5-MIN KMSN 261500Z 29008G17KT 250V320 10SM CLR 18/09 A2988 900 58 1500 290/08G17 250V320 RMK AO2
14837KMSN MSN20030626090509906/26/03 09:05:31  5-MIN KMSN 261505Z 29009G16KT 10SM CLR 18/10 A2988 900 58 1500 280/09G16 RMK AO2
14837KMSN MSN20030626091009906/26/03 09:10:31  5-MIN KMSN 261510Z 28010G15KT 10SM CLR 18/09 A2988 900 56 1500 270/10G15 RMK AO2
14837KMSN MSN20030626091509906/26/03 09:15:31  5-MIN KMSN 261515Z 29010G18KT 10SM CLR 18/09 A2988 910 56 1500 290/10G18 RMK AO2
14837KMSN MSN20030626092009906/26/03 09:20:31  5-MIN KMSN 261520Z 30011G18KT 10SM CLR 18/09 A2987 910 54 1500 300/11G18 RMK AO2
14837KMSN MSN20030626092511506/26/03 09:25:31  5-MIN KMSN 261525Z 29008G16KT 250V310 10SM CLR 18/09 A2987 910 56 1500 290/08G16 250V310 RMK AO2
14837KMSN MSN20030626093009906/26/03 09:30:31  5-MIN KMSN 261530Z 27009G16KT 10SM CLR 19/09 A2987 910 54 1600 270/09G16 RMK AO2
14837KMSN MSN20030626093509906/26/03 09:35:31  5-MIN KMSN 261535Z 30008G16KT 10SM CLR 19/10 A2987 910 54 1700 290/08G16 RMK AO2
14837KMSN MSN20030626094010206/26/03 09:40:31  5-MIN KMSN 261540Z VRB06G14KT 10SM FEW035 19/10 A2987 910 56 1600 VRB/06G14 RMK AO2
14837KMSN MSN20030626094510206/26/03 09:45:31  5-MIN KMSN 261545Z 26012G16KT 10SM FEW035 19/09 A2987 910 50 1700 260/12G16 RMK AO2
14837KMSN MSN20030626095011606/26/03 09:50:31  5-MIN KMSN 261550Z 28014G20KT 10SM CLR 19/08 A2987 910 48 1700 280/14G20 RMK AO2 SLP111 T01940083
14837KMSN MSN20030626095511806/26/03 09:55:31  5-MIN KMSN 261555Z 29015G20KT 230V310 10SM FEW040 19/08 A2987 910 48 1600 290/15G20 230V310 RMK AO2
14837KMSN MSN20030626100010206/26/03 10:00:31  5-MIN KMSN 261600Z 28012G20KT 10SM FEW040 19/09 A2987 910 50 1700 280/12G20 RMK AO2
14837KMSN MSN20030626100510906/26/03 10:05:31  5-MIN KMSN 261605Z 26010KT 210V280 10SM CLR 19/09 A2987 910 52 1700 250/10 210V280 RMK AO2
14837KMSN MSN20030626101011506/26/03 10:10:31  5-MIN KMSN 261610Z 27008G14KT 230V300 10SM CLR 20/09 A2987 910 50 1700 270/08G14 230V300 RMK AO2
14837KMSN MSN20030626101509906/26/03 10:15:31  5-MIN KMSN 261615Z 28014G20KT 10SM CLR 19/09 A2987 910 50 1700 280/14G20 RMK AO2
14837KMSN MSN20030626102011506/26/03 10:20:31  5-MIN KMSN 261620Z 26009G20KT 210V300 10SM CLR 19/09 A2987 910 50 1700 260/09G20 210V300 RMK AO2
14837KMSN MSN20030626102511806/26/03 10:25:31  5-MIN KMSN 261625Z 28010G19KT 240V320 10SM FEW045 19/09 A2987 910 50 1700 280/10G19 240V320 RMK AO2
14837KMSN MSN20030626103011806/26/03 10:30:31  5-MIN KMSN 261630Z 25013G19KT 220V290 10SM FEW045 19/09 A2987 910 50 1700 250/13G19 220V290 RMK AO2
14837KMSN MSN20030626103511506/26/03 10:35:31  5-MIN KMSN 261635Z 27011G19KT 250V310 10SM CLR 19/09 A2987 910 52 1700 270/11G19 250V310 RMK AO2
14837KMSN MSN20030626104010206/26/03 10:40:31  5-MIN KMSN 261640Z 29014G18KT 10SM FEW048 19/09 A2987 910 52 1700 290/14G18 RMK AO2
14837KMSN MSN20030626110510206/26/03 11:05:31  5-MIN KMSN 261705Z 28009G16KT 10SM BKN046 19/09 A2987 910 50 1700 280/09G16 RMK AO2
14837KMSN MSN20030626111011206/26/03 11:10:31  5-MIN KMSN 261710Z 28008KT 250V330 10SM BKN048 20/09 A2987 910 50 1700 280/08 250V330 RMK AO2
14837KMSN MSN20030626111509606/26/03 11:15:31  5-MIN KMSN 261715Z 29010KT 10SM BKN048 20/09 A2987 910 50 1700 280/10 RMK AO2
14837KMSN MSN20030626112010906/26/03 11:20:31  5-MIN KMSN 261720Z 27012G19KT 10SM BKN048 BKN055 19/09 A2987 910 50 1700 270/12G19 RMK AO2
14837KMSN MSN20030626112512506/26/03 11:25:31  5-MIN KMSN 261725Z 27011G19KT 240V300 10SM BKN048 BKN055 20/09 A2987 910 48 1700 270/11G19 240V300 RMK AO2
14837KMSN MSN20030626113010906/26/03 11:30:31  5-MIN KMSN 261730Z 27011G16KT 10SM BKN048 BKN055 19/08 A2987 910 48 1700 270/11G16 RMK AO2
14837KMSN MSN20030626113512506/26/03 11:35:31  5-MIN KMSN 261735Z 27012G17KT 220V300 10SM SCT048 BKN060 20/09 A2987 910 48 1700 270/12G17 220V300 RMK AO2
14837KMSN MSN20030626114010206/26/03 11:40:31  5-MIN KMSN 261740Z 28012G18KT 10SM BKN055 19/08 A2987 910 48 1700 280/12G18 RMK AO2
14837KMSN MSN20030626114511806/26/03 11:45:31  5-MIN KMSN 261745Z 26011G18KT 200V290 10SM BKN055 21/09 A2987 910 46 1800 260/11G18 200V290 RMK AO2
14837KMSN MSN20030626115013706/26/03 11:50:31  5-MIN KMSN 261750Z 29011G18KT 10SM BKN055 20/08 A2986 920 46 1800 290/11G18 RMK AO2 SLP108 T02000083 10206 20156 52006
14837KMSN MSN20030626115511806/26/03 11:55:31  5-MIN KMSN 261755Z 27010G18KT 240V310 10SM BKN055 20/09 A2986 920 48 1800 270/10G18 240V310 RMK AO2
14837KMSN MSN20030626120010206/26/03 12:00:31  5-MIN KMSN 261800Z 28010G17KT 10SM SCT055 21/09 A2986 920 48 1800 280/10G17 RMK AO2
14837KMSN MSN20030626120510206/26/03 12:05:31  5-MIN KMSN 261805Z 29011G17KT 10SM BKN050 20/08 A2986 920 46 1800 290/11G17 RMK AO2
14837KMSN MSN20030626121010206/26/03 12:10:31  5-MIN KMSN 261810Z 27009G17KT 10SM SCT055 20/09 A2986 920 48 1800 270/09G17 RMK AO2
14837KMSN MSN20030626121510206/26/03 12:15:31  5-MIN KMSN 261815Z 29013G17KT 10SM SCT050 21/09 A2986 920 46 1800 290/13G17 RMK AO2
14837KMSN MSN20030626122011806/26/03 12:20:31  5-MIN KMSN 261820Z 25010G16KT 220V290 10SM SCT050 21/09 A2986 920 48 1800 250/10G16 220V290 RMK AO2
14837KMSN MSN20030626122511806/26/03 12:25:31  5-MIN KMSN 261825Z 28010G16KT 240V310 10SM SCT050 21/09 A2986 920 46 1800 280/10G16 240V310 RMK AO2
14837KMSN MSN20030626123011806/26/03 12:30:31  5-MIN KMSN 261830Z 24010G16KT 090V300 10SM SCT050 21/09 A2986 920 47 1900 240/10G16 090V300 RMK AO2
14837KMSN MSN20030626123511806/26/03 12:35:31  5-MIN KMSN 261835Z 25012G18KT 220V290 10SM SCT055 21/08 A2986 920 43 1900 250/12G18 220V290 RMK AO2
14837KMSN MSN20030626124011806/26/03 12:40:31  5-MIN KMSN 261840Z 28008G18KT 240V330 10SM BKN050 21/09 A2986 920 46 1800 270/08G18 240V330 RMK AO2
14837KMSN MSN20030626124510206/26/03 12:45:31  5-MIN KMSN 261845Z 29013G21KT 10SM BKN055 21/09 A2985 930 45 1900 290/13G21 RMK AO2
14837KMSN MSN20030626125011906/26/03 12:50:31  5-MIN KMSN 261850Z 27013G21KT 10SM SCT055 21/08 A2985 930 45 1800 270/13G21 RMK AO2 SLP105 T02060083
14837KMSN MSN20030626125510206/26/03 12:55:31  5-MIN KMSN 261855Z 27010G20KT 10SM BKN055 21/08 A2985 930 43 1900 260/10G20 RMK AO2
14837KMSN MSN20030626130010206/26/03 13:00:31  5-MIN KMSN 261900Z 28010G19KT 10SM BKN055 21/08 A2985 930 45 1800 280/10G19 RMK AO2
14837KMSN MSN20030626130510206/26/03 13:05:31  5-MIN KMSN 261905Z 26012G20KT 10SM BKN055 21/09 A2985 930 46 1800 260/12G20 RMK AO2
14837KMSN MSN20030626131010206/26/03 13:10:31  5-MIN KMSN 261910Z 27013G20KT 10SM BKN055 21/08 A2985 930 43 1900 270/13G20 RMK AO2
14837KMSN MSN20030626131510206/26/03 13:15:31  5-MIN KMSN 261915Z 28013G21KT 10SM SCT055 21/08 A2986 920 43 1900 280/13G21 RMK AO2
14837KMSN MSN20030626132011806/26/03 13:20:31  5-MIN KMSN 261920Z 26010G21KT 220V300 10SM SCT055 21/09 A2986 920 45 1900 260/10G21 220V300 RMK AO2
14837KMSN MSN20030626132511806/26/03 13:25:31  5-MIN KMSN 261925Z 27012G20KT 230V310 10SM SCT060 21/09 A2986 920 46 1800 270/12G20 230V310 RMK AO2
14837KMSN MSN20030626133011806/26/03 13:30:31  5-MIN KMSN 261930Z 27011G22KT 240V300 10SM BKN060 21/08 A2986 920 45 1800 270/11G22 240V300 RMK AO2
14837KMSN MSN20030626133511806/26/03 13:35:31  5-MIN KMSN 261935Z 25010G22KT 210V290 10SM BKN060 20/09 A2986 920 48 1800 250/10G22 210V290 RMK AO2
14837KMSN MSN20030626134012506/26/03 13:40:31  5-MIN KMSN 261940Z 27011G19KT 230V290 10SM FEW050 BKN060 21/09 A2986 920 46 1800 270/11G19 230V290 RMK AO2
14837KMSN MSN20030626134511806/26/03 13:45:31  5-MIN KMSN 261945Z 26012G19KT 210V300 10SM BKN055 21/09 A2986 920 46 1800 260/12G19 210V300 RMK AO2
14837KMSN MSN20030626135013506/26/03 13:50:31  5-MIN KMSN 261950Z 25008G18KT 190V290 10SM BKN055 21/09 A2985 930 47 1900 250/08G18 190V290 RMK AO2 SLP105 T02110094
14837KMSN MSN20030626135510206/26/03 13:55:31  5-MIN KMSN 261955Z 28013G17KT 10SM BKN055 21/08 A2986 920 45 1800 280/13G17 RMK AO2
14837KMSN MSN20030626140011806/26/03 14:00:31  5-MIN KMSN 262000Z 28010G17KT 250V320 10SM SCT055 21/08 A2985 930 43 1900 280/10G17 250V320 RMK AO2
14837KMSN MSN20030626140511806/26/03 14:05:31  5-MIN KMSN 262005Z 27012G21KT 230V300 10SM BKN055 21/09 A2986 920 46 1800 270/12G21 230V300 RMK AO2
14837KMSN MSN20030626141011806/26/03 14:10:31  5-MIN KMSN 262010Z 27011G21KT 240V300 10SM BKN055 21/08 A2986 920 45 1800 270/11G21 240V300 RMK AO2
14837KMSN MSN20030626141511806/26/03 14:15:31  5-MIN KMSN 262015Z 27013G19KT 250V310 10SM BKN055 21/09 A2986 920 45 1900 270/13G19 250V310 RMK AO2
14837KMSN MSN20030626142010206/26/03 14:20:31  5-MIN KMSN 262020Z 27012G19KT 10SM BKN060 21/08 A2986 920 45 1800 270/12G19 RMK AO2
14837KMSN MSN20030626142511806/26/03 14:25:31  5-MIN KMSN 262025Z 26012G19KT 230V300 10SM BKN060 22/09 A2986 920 43 1900 260/12G19 230V300 RMK AO2
14837KMSN MSN20030626143010206/26/03 14:30:31  5-MIN KMSN 262030Z 27016G20KT 10SM SCT060 22/09 A2986 920 43 2000 270/16G20 RMK AO2
14837KMSN MSN20030626143510906/26/03 14:35:31  5-MIN KMSN 262035Z 27014G20KT 10SM FEW050 SCT065 21/08 A2986 920 43 1900 270/14G20 RMK AO2
14837KMSN MSN20030626144010206/26/03 14:40:31  5-MIN KMSN 262040Z 27011G20KT 10SM SCT065 21/08 A2986 920 45 1800 270/11G20 RMK AO2
14837KMSN MSN20030626144511806/26/03 14:45:31  5-MIN KMSN 262045Z 27012G20KT 230V310 10SM BKN070 21/09 A2986 920 45 1900 270/12G20 230V310 RMK AO2
14837KMSN MSN20030626145012506/26/03 14:50:31  5-MIN KMSN 262050Z 27013G20KT 10SM BKN070 21/08 A2986 920 43 1900 270/13G20 RMK AO2 SLP108 T02110083 56006
14837KMSN MSN20030626145510206/26/03 14:55:31  5-MIN KMSN 262055Z 27008G19KT 10SM BKN070 22/09 A2986 920 43 1900 270/08G19 RMK AO2
14837KMSN MSN20030626150012506/26/03 15:00:31  5-MIN KMSN 262100Z 26011G21KT 220V300 10SM FEW055 BKN070 21/09 A2987 920 46 1800 250/11G21 220V300 RMK AO2
14837KMSN MSN20030626150510906/26/03 15:05:31  5-MIN KMSN 262105Z 25011G21KT 10SM SCT055 BKN070 21/09 A2987 920 46 1800 240/11G21 RMK AO2
14837KMSN MSN20030626151010906/26/03 15:10:31  5-MIN KMSN 262110Z 28008G19KT 10SM SCT055 BKN070 21/09 A2987 910 45 1900 270/08G19 RMK AO2
14837KMSN MSN20030626151512506/26/03 15:15:31  5-MIN KMSN 262115Z 26012G18KT 230V300 10SM FEW055 OVC070 21/08 A2987 910 45 1800 260/12G18 230V300 RMK AO2
14837KMSN MSN20030626152012706/26/03 15:20:31  5-MIN KMSN 262120Z 28012G26KT 10SM FEW055 OVC075 21/08 A2987 910 45 1800 280/12G26 RMK AO2 PK WND 29026/2117
14837KMSN MSN20030626152514306/26/03 15:25:31  5-MIN KMSN 262125Z 28013G26KT 250V330 10SM FEW055 OVC075 21/08 A2987 910 45 1800 280/13G26 250V330 RMK AO2 PK WND 29026/2117
14837KMSN MSN20030626153012706/26/03 15:30:31  5-MIN KMSN 262130Z 28013G19KT 10SM FEW055 BKN075 21/09 A2987 910 46 1800 280/13G19 RMK AO2 PK WND 29026/2117
14837KMSN MSN20030626153514306/26/03 15:35:31  5-MIN KMSN 262135Z 28012G20KT 250V310 10SM FEW055 BKN075 21/08 A2988 910 45 1800 270/12G20 250V310 RMK AO2 PK WND 29026/2117
14837KMSN MSN20030626154012706/26/03 15:40:31  5-MIN KMSN 262140Z 28012G20KT 10SM FEW055 BKN075 21/08 A2987 910 45 1800 280/12G20 RMK AO2 PK WND 29026/2117
14837KMSN MSN20030626154512706/26/03 15:45:31  5-MIN KMSN 262145Z 28011G22KT 10SM FEW055 BKN075 21/08 A2988 910 45 1800 280/11G22 RMK AO2 PK WND 29026/2117
14837KMSN MSN20030626155014406/26/03 15:50:31  5-MIN KMSN 262150Z 29011G22KT 10SM FEW055 BKN075 20/08 A2988 910 46 1700 290/11G22 RMK AO2 PK WND 29026/2117 SLP115 T02000083
14837KMSN MSN20030626155512506/26/03 15:55:31  5-MIN KMSN 262155Z 28009G17KT 250V320 10SM BKN065 BKN075 20/08 A2987 910 46 1700 280/09G17 250V320 RMK AO2
14837KMSN MSN20030626160012506/26/03 16:00:31  5-MIN KMSN 262200Z 27010G15KT 240V310 10SM BKN065 BKN075 21/09 A2987 910 46 1800 270/10G15 240V310 RMK AO2
14837KMSN MSN20030626160512506/26/03 16:05:31  5-MIN KMSN 262205Z 28009G17KT 250V310 10SM BKN065 BKN075 20/08 A2988 900 46 1700 280/09G17 250V310 RMK AO2
14837KMSN MSN20030626161012506/26/03 16:10:31  5-MIN KMSN 262210Z 29010G16KT 260V330 10SM BKN065 BKN075 20/08 A2988 900 46 1700 290/10G16 260V330 RMK AO2
14837KMSN MSN20030626161510906/26/03 16:15:31  5-MIN KMSN 262215Z 28012G20KT 10SM BKN065 BKN075 20/08 A2988 910 46 1700 280/12G20 RMK AO2
14837KMSN MSN20030626162010906/26/03 16:20:31  5-MIN KMSN 262220Z 28010G20KT 10SM BKN065 BKN075 20/08 A2988 900 46 1700 280/10G20 RMK AO2
14837KMSN MSN20030626162510906/26/03 16:25:31  5-MIN KMSN 262225Z 29014G20KT 10SM BKN065 BKN075 19/08 A2988 900 48 1700 290/14G20 RMK AO2
14837KMSN MSN20030626163010906/26/03 16:30:31  5-MIN KMSN 262230Z 28014G20KT 10SM BKN065 BKN075 19/08 A2988 900 46 1700 280/14G20 RMK AO2
14837KMSN MSN20030626163510906/26/03 16:35:31  5-MIN KMSN 262235Z 29010G19KT 10SM BKN065 BKN075 19/08 A2989 900 48 1700 290/10G19 RMK AO2
14837KMSN MSN20030626164012506/26/03 16:40:31  5-MIN KMSN 262240Z 29012G19KT 250V320 10SM BKN065 BKN075 19/08 A2989 900 48 1700 290/12G19 250V320 RMK AO2
14837KMSN MSN20030626164510206/26/03 16:45:31  5-MIN KMSN 262245Z 28012G20KT 10SM BKN075 20/08 A2989 890 46 1700 280/12G20 RMK AO2
14837KMSN MSN20030626165012606/26/03 16:50:31  5-MIN KMSN 262250Z 29013G20KT 10SM FEW055 BKN070 20/08 A2989 890 45 1700 290/13G20 RMK AO2 SLP119 T02000078
14837KMSN MSN20030626165510906/26/03 16:55:31  5-MIN KMSN 262255Z 29011G20KT 10SM FEW055 BKN070 19/08 A2989 890 46 1700 290/11G20 RMK AO2
14837KMSN MSN20030626170012506/26/03 17:00:31  5-MIN KMSN 262300Z 29010G16KT 250V320 10SM FEW055 BKN070 19/08 A2989 890 48 1700 290/10G16 250V320 RMK AO2
14837KMSN MSN20030626170510306/26/03 17:05:31  5-MIN KMSN 262305Z 28007KT 10SM FEW055 BKN070 19/08 A2989 890 48 1700 280/07 RMK AO2
14837KMSN MSN20030626171010906/26/03 17:10:31  5-MIN KMSN 262310Z 27013G18KT 10SM FEW055 BKN070 19/08 A2989 890 50 1600 270/13G18 RMK AO2
14837KMSN MSN20030626171510906/26/03 17:15:31  5-MIN KMSN 262315Z 28011G18KT 10SM FEW055 BKN070 19/08 A2989 890 48 1600 280/11G18 RMK AO2
14837KMSN MSN20030626172010906/26/03 17:20:31  5-MIN KMSN 262320Z 28011G18KT 10SM FEW055 OVC070 19/08 A2989 890 48 1600 280/11G18 RMK AO2
14837KMSN MSN20030626172510906/26/03 17:25:31  5-MIN KMSN 262325Z 29010G17KT 10SM FEW055 OVC070 19/08 A2989 890 48 1600 280/10G17 RMK AO2
14837KMSN MSN20030626173011906/26/03 17:30:31  5-MIN KMSN 262330Z 29007KT 250V320 10SM FEW055 OVC070 19/08 A2989 890 50 1600 290/07 250V320 RMK AO2
14837KMSN MSN20030626173510906/26/03 17:35:31  5-MIN KMSN 262335Z 28012G16KT 10SM FEW055 OVC070 19/08 A2989 900 48 1600 280/12G16 RMK AO2
14837KMSN MSN20030626174010206/26/03 17:40:31  5-MIN KMSN 262340Z 28011G16KT 10SM OVC075 19/08 A2989 890 48 1700 270/11G16 RMK AO2
14837KMSN MSN20030626174509606/26/03 17:45:31  5-MIN KMSN 262345Z 28010KT 10SM BKN080 19/08 A2989 890 48 1700 280/10 RMK AO2
14837KMSN MSN20030626175013706/26/03 17:50:31  5-MIN KMSN 262350Z 29008G14KT 10SM BKN080 19/08 A2989 890 48 1700 290/08G14 RMK AO2 SLP119 T01940083 10217 20189 55000
14837KMSN MSN20030626175509606/26/03 17:55:31  5-MIN KMSN 262355Z 29010KT 10SM BKN080 19/08 A2989 890 48 1700 280/10 RMK AO2
14837KMSN MSN20030626180010306/26/03 18:00:31  5-MIN KMSN 270000Z 29009KT 10SM FEW050 BKN080 19/08 A2989 890 50 1600 290/09 RMK AO2
14837KMSN MSN20030626180510306/26/03 18:05:31  5-MIN KMSN 270005Z 30008KT 10SM FEW050 BKN080 19/08 A2989 890 50 1600 300/08 RMK AO2
14837KMSN MSN20030626181010306/26/03 18:10:31  5-MIN KMSN 270010Z 28009KT 10SM FEW050 BKN080 18/08 A2989 890 52 1500 280/09 RMK AO2
14837KMSN MSN20030626181510906/26/03 18:15:31  5-MIN KMSN 270015Z 28010G15KT 10SM FEW050 BKN080 18/08 A2989 890 52 1500 280/10G15 RMK AO2
14837KMSN MSN20030626182010906/26/03 18:20:31  5-MIN KMSN 270020Z 28008G15KT 10SM FEW050 BKN080 19/08 A2989 890 48 1600 280/08G15 RMK AO2
14837KMSN MSN20030626182510906/26/03 18:25:31  5-MIN KMSN 270025Z 28010G15KT 10SM FEW050 OVC080 19/08 A2990 890 50 1600 280/10G15 RMK AO2
14837KMSN MSN20030626183010206/26/03 18:30:31  5-MIN KMSN 270030Z 28011G16KT 10SM BKN080 19/08 A2990 880 48 1600 280/11G16 RMK AO2
14837KMSN MSN20030626183511806/26/03 18:35:31  5-MIN KMSN 270035Z 29008G16KT 250V320 10SM BKN080 19/08 A2990 890 48 1600 290/08G16 250V320 RMK AO2
14837KMSN MSN20030626184010206/26/03 18:40:31  5-MIN KMSN 270040Z 28009G16KT 10SM BKN080 19/08 A2990 880 48 1600 280/09G16 RMK AO2
14837KMSN MSN20030626184510206/26/03 18:45:31  5-MIN KMSN 270045Z VRB06G16KT 10SM BKN080 19/08 A2990 880 48 1600 VRB/06G16 RMK AO2
14837KMSN MSN20030626185011906/26/03 18:50:31  5-MIN KMSN 270050Z 29010G16KT 10SM BKN080 19/08 A2990 880 48 1600 290/10G16 RMK AO2 SLP123 T01890078
14837KMSN MSN20030626185511806/26/03 18:55:31  5-MIN KMSN 270055Z 27007G16KT 230V300 10SM SCT080 18/08 A2990 880 50 1500 270/07G16 230V300 RMK AO2
14837KMSN MSN20030626190011206/26/03 19:00:31  5-MIN KMSN 270100Z 27007KT 240V320 10SM SCT080 18/08 A2990 880 50 1500 270/07 240V320 RMK AO2
14837KMSN MSN20030626190511206/26/03 19:05:31  5-MIN KMSN 270105Z 27008KT 240V310 10SM SCT080 18/08 A2990 880 52 1500 270/08 240V310 RMK AO2
14837KMSN MSN20030626191011806/26/03 19:10:31  5-MIN KMSN 270110Z 26008G14KT 210V300 10SM SCT080 18/08 A2990 880 52 1500 260/08G14 210V300 RMK AO2
14837KMSN MSN20030626191510206/26/03 19:15:31  5-MIN KMSN 270115Z VRB05G14KT 10SM SCT080 18/08 A2990 880 52 1500 VRB/05G14 RMK AO2
14837KMSN MSN20030626192011206/26/03 19:20:31  5-MIN KMSN 270120Z 29007KT 260V320 10SM FEW080 18/08 A2990 880 53 1500 290/07 260V320 RMK AO2
14837KMSN MSN20030626192509606/26/03 19:25:31  5-MIN KMSN 270125Z 27006KT 10SM FEW080 18/08 A2990 880 53 1500 270/06 RMK AO2
14837KMSN MSN20030626193011206/26/03 19:30:31  5-MIN KMSN 270130Z 27007KT 240V310 10SM FEW080 18/08 A2990 880 51 1500 270/07 240V310 RMK AO2
14837KMSN MSN20030626193509306/26/03 19:35:31  5-MIN KMSN 270135Z VRB04KT 10SM CLR 18/08 A2990 880 53 1500 VRB/04 RMK AO2
14837KMSN MSN20030626194009306/26/03 19:40:31  5-MIN KMSN 270140Z VRB05KT 10SM CLR 17/08 A2990 880 55 1400 VRB/05 RMK AO2
14837KMSN MSN20030626194509306/26/03 19:45:31  5-MIN KMSN 270145Z VRB03KT 10SM CLR 17/08 A2990 880 55 1400 VRB/03 RMK AO2
14837KMSN MSN20030626195011006/26/03 19:50:31  5-MIN KMSN 270150Z VRB03KT 10SM CLR 17/08 A2991 880 55 1400 VRB/03 RMK AO2 SLP125 T01720083
14837KMSN MSN20030626195509306/26/03 19:55:31  5-MIN KMSN 270155Z VRB05KT 10SM CLR 17/08 A2991 880 55 1400 VRB/05 RMK AO2
14837KMSN MSN20030626200009306/26/03 20:00:31  5-MIN KMSN 270200Z 00000KT 10SM CLR 17/08 A2991 870 57 1300 000/00 RMK AO2
14837KMSN MSN20030626200509306/26/03 20:05:31  5-MIN KMSN 270205Z VRB03KT 10SM CLR 17/08 A2991 870 57 1300 VRB/03 RMK AO2
14837KMSN MSN20030626201009306/26/03 20:10:31  5-MIN KMSN 270210Z VRB03KT 10SM CLR 17/09 A2991 870 60 1300 VRB/03 RMK AO2
14837KMSN MSN20030626201509306/26/03 20:15:31  5-MIN KMSN 270215Z VRB03KT 10SM CLR 17/08 A2991 870 55 1400 VRB/03 RMK AO2
14837KMSN MSN20030626202009306/26/03 20:20:31  5-MIN KMSN 270220Z VRB03KT 10SM CLR 17/08 A2991 870 55 1400 VRB/03 RMK AO2
14837KMSN MSN20030626202509306/26/03 20:25:31  5-MIN KMSN 270225Z VRB04KT 10SM CLR 17/09 A2992 870 57 1400 VRB/04 RMK AO2
14837KMSN MSN20030626203009306/26/03 20:30:31  5-MIN KMSN 270230Z VRB04KT 10SM CLR 17/09 A2992 870 60 1300 VRB/04 RMK AO2
14837KMSN MSN20030626203509306/26/03 20:35:31  5-MIN KMSN 270235Z VRB04KT 10SM CLR 17/09 A2992 870 57 1400 VRB/04 RMK AO2
14837KMSN MSN20030626204009306/26/03 20:40:31  5-MIN KMSN 270240Z VRB03KT 10SM CLR 17/09 A2992 870 57 1400 VRB/03 RMK AO2
14837KMSN MSN20030626204509306/26/03 20:45:31  5-MIN KMSN 270245Z 23005KT 10SM CLR 17/09 A2992 860 57 1400 230/05 RMK AO2
14837KMSN MSN20030626205011606/26/03 20:50:31  5-MIN KMSN 270250Z 23005KT 10SM CLR 17/09 A2992 860 57 1400 230/05 RMK AO2 SLP129 T01720089 51010
14837KMSN MSN20030626205509306/26/03 20:55:31  5-MIN KMSN 270255Z VRB04KT 10SM CLR 17/09 A2992 870 57 1400 VRB/04 RMK AO2
14837KMSN MSN20030626210009306/26/03 21:00:31  5-MIN KMSN 270300Z VRB05KT 10SM CLR 17/09 A2992 860 57 1400 VRB/05 RMK AO2
14837KMSN MSN20030626210509606/26/03 21:05:31  5-MIN KMSN 270305Z VRB05KT 10SM FEW100 17/09 A2992 860 60 1400 VRB/05 RMK AO2
14837KMSN MSN20030626211009606/26/03 21:10:31  5-MIN KMSN 270310Z VRB06KT 10SM SCT100 17/10 A2992 870 62 1400 VRB/06 RMK AO2
14837KMSN MSN20030626211509606/26/03 21:15:31  5-MIN KMSN 270315Z 22006KT 10SM BKN100 18/10 A2992 860 60 1400 220/06 RMK AO2
14837KMSN MSN20030626212009606/26/03 21:20:31  5-MIN KMSN 270320Z 23006KT 10SM BKN090 18/10 A2992 860 60 1400 230/06 RMK AO2
14837KMSN MSN20030626212509606/26/03 21:25:31  5-MIN KMSN 270325Z 23007KT 10SM BKN090 18/09 A2992 860 58 1400 230/07 RMK AO2
14837KMSN MSN20030626213011206/26/03 21:30:31  5-MIN KMSN 270330Z 23007KT 170V250 10SM BKN090 18/09 A2992 860 58 1400 220/07 170V250 RMK AO2
14837KMSN MSN20030626213509606/26/03 21:35:31  5-MIN KMSN 270335Z 23008KT 10SM BKN090 18/09 A2993 860 58 1400 230/08 RMK AO2
14837KMSN MSN20030626214009606/26/03 21:40:31  5-MIN KMSN 270340Z 25007KT 10SM SCT090 17/09 A2993 860 57 1400 250/07 RMK AO2
14837KMSN MSN20030626214509606/26/03 21:45:31  5-MIN KMSN 270345Z 25007KT 10SM FEW090 17/09 A2993 860 57 1400 250/07 RMK AO2
14837KMSN MSN20030626215012906/26/03 21:50:31  5-MIN KMSN 270350Z 25007KT 190V280 10SM FEW090 17/09 A2993 860 57 1400 250/07 190V280 RMK AO2 SLP132 T01720089
14837KMSN MSN20030626215509606/26/03 21:55:31  5-MIN KMSN 270355Z VRB05KT 10SM FEW085 17/08 A2993 860 55 1400 VRB/05 RMK AO2
14837KMSN MSN20030626220009606/26/03 22:00:31  5-MIN KMSN 270400Z VRB05KT 10SM FEW085 17/08 A2993 860 57 1300 VRB/05 RMK AO2
14837KMSN MSN20030626220509606/26/03 22:05:31  5-MIN KMSN 270405Z VRB06KT 10SM FEW085 17/08 A2993 860 57 1300 VRB/06 RMK AO2
14837KMSN MSN20030626221010906/26/03 22:10:31  5-MIN KMSN 270410Z 26007KT 230V290 10SM CLR 17/08 A2993 860 57 1300 250/07 230V290 RMK AO2
14837KMSN MSN20030626221509306/26/03 22:15:31  5-MIN KMSN 270415Z VRB06KT 10SM CLR 17/08 A2992 860 57 1300 VRB/06 RMK AO2
14837KMSN MSN20030626222009306/26/03 22:20:31  5-MIN KMSN 270420Z 24006KT 10SM CLR 17/08 A2992 860 57 1300 240/06 RMK AO2
14837KMSN MSN20030626222509306/26/03 22:25:31  5-MIN KMSN 270425Z VRB04KT 10SM CLR 17/09 A2992 860 60 1300 VRB/04 RMK AO2
14837KMSN MSN20030626223010906/26/03 22:30:31  5-MIN KMSN 270430Z 25007KT 220V290 10SM CLR 17/09 A2992 860 60 1300 240/07 220V290 RMK AO2
14837KMSN MSN20030626223510906/26/03 22:35:31  5-MIN KMSN 270435Z 23007KT 200V260 10SM CLR 17/09 A2992 860 60 1300 230/07 200V260 RMK AO2
14837KMSN MSN20030626224010906/26/03 22:40:31  5-MIN KMSN 270440Z 24007KT 190V320 10SM CLR 17/09 A2992 860 60 1300 240/07 190V320 RMK AO2
14837KMSN MSN20030626224509306/26/03 22:45:31  5-MIN KMSN 270445Z VRB06KT 10SM CLR 17/08 A2992 860 57 1300 VRB/06 RMK AO2
14837KMSN MSN20030626225011006/26/03 22:50:31  5-MIN KMSN 270450Z 24007KT 10SM CLR 17/08 A2992 860 57 1300 240/07 RMK AO2 SLP130 T01670083
14837KMSN MSN20030626225509306/26/03 22:55:31  5-MIN KMSN 270455Z 23006KT 10SM CLR 17/09 A2992 860 60 1300 230/06 RMK AO2
14837KMSN MSN20030626230009306/26/03 23:00:31  5-MIN KMSN 270500Z VRB06KT 10SM CLR 17/09 A2992 860 60 1300 VRB/06 RMK AO2
14837KMSN MSN20030626230510906/26/03 23:05:31  5-MIN KMSN 270505Z 24007KT 210V280 10SM CLR 17/09 A2992 860 60 1300 240/07 210V280 RMK AO2
14837KMSN MSN20030626231009306/26/03 23:10:31  5-MIN KMSN 270510Z 24007KT 10SM CLR 17/08 A2992 860 57 1300 240/07 RMK AO2
14837KMSN MSN20030626231509306/26/03 23:15:31  5-MIN KMSN 270515Z 24007KT 10SM CLR 17/08 A2992 860 57 1300 240/07 RMK AO2
14837KMSN MSN20030626232010906/26/03 23:20:31  5-MIN KMSN 270520Z 24007KT 190V270 10SM CLR 17/08 A2992 860 57 1300 230/07 190V270 RMK AO2
14837KMSN MSN20030626232509306/26/03 23:25:31  5-MIN KMSN 270525Z 24007KT 10SM CLR 17/08 A2992 860 57 1300 240/07 RMK AO2
14837KMSN MSN20030626233009306/26/03 23:30:31  5-MIN KMSN 270530Z VRB06KT 10SM CLR 16/08 A2992 860 59 1200 VRB/06 RMK AO2
14837KMSN MSN20030626233509306/26/03 23:35:31  5-MIN KMSN 270535Z VRB05KT 10SM CLR 16/08 A2992 860 59 1200 VRB/05 RMK AO2
14837KMSN MSN20030626234009306/26/03 23:40:31  5-MIN KMSN 270540Z VRB05KT 10SM CLR 16/08 A2992 860 59 1200 VRB/05 RMK AO2
14837KMSN MSN20030626234509306/26/03 23:45:31  5-MIN KMSN 270545Z 24006KT 10SM CLR 16/08 A2992 870 59 1200 240/06 RMK AO2
14837KMSN MSN20030626235013806/26/03 23:50:31  5-MIN KMSN 270550Z VRB05KT 10SM CLR 16/08 A2992 870 59 1200 VRB/05 RMK AO2 SLP129 T01610083 10194 20161 402170156 53009
14837KMSN MSN20030626235509306/26/03 23:55:31  5-MIN KMSN 270555Z VRB05KT 10SM CLR 16/08 A2992 870 62 1200 VRB/05 RMK AO2
14837KMSN MSN20030627000009306/27/03 00:00:31  5-MIN KMSN 270600Z VRB04KT 10SM CLR 16/08 A2992 870 62 1200 VRB/04 RMK AO2
14837KMSN MSN20030627000509306/27/03 00:05:31  5-MIN KMSN 270605Z VRB05KT 10SM CLR 16/08 A2991 870 59 1200 VRB/05 RMK AO2
14837KMSN MSN20030627001009306/27/03 00:10:31  5-MIN KMSN 270610Z VRB05KT 10SM CLR 16/08 A2991 870 59 1200 VRB/05 RMK AO2
14837KMSN MSN20030627001509306/27/03 00:15:31  5-MIN KMSN 270615Z VRB05KT 10SM CLR 16/08 A2991 870 59 1200 VRB/05 RMK AO2
14837KMSN MSN20030627002009306/27/03 00:20:31  5-MIN KMSN 270620Z VRB05KT 10SM CLR 16/08 A2991 870 59 1200 VRB/05 RMK AO2
14837KMSN MSN20030627002509306/27/03 00:25:31  5-MIN KMSN 270625Z VRB05KT 10SM CLR 16/08 A2991 870 59 1200 VRB/05 RMK AO2
14837KMSN MSN20030627003009306/27/03 00:30:31  5-MIN KMSN 270630Z VRB05KT 10SM CLR 16/08 A2991 870 59 1200 VRB/05 RMK AO2
14837KMSN MSN20030627003509306/27/03 00:35:31  5-MIN KMSN 270635Z VRB05KT 10SM CLR 16/09 A2991 870 62 1200 VRB/05 RMK AO2
14837KMSN MSN20030627004009306/27/03 00:40:31  5-MIN KMSN 270640Z 22006KT 10SM CLR 16/09 A2991 870 62 1200 220/06 RMK AO2
14837KMSN MSN20030627004509306/27/03 00:45:31  5-MIN KMSN 270645Z 22005KT 10SM CLR 16/09 A2991 870 62 1200 220/05 RMK AO2
14837KMSN MSN20030627005011006/27/03 00:50:31  5-MIN KMSN 270650Z 22006KT 10SM CLR 16/09 A2991 870 64 1200 220/06 RMK AO2 SLP126 T01610094
14837KMSN MSN20030627005509306/27/03 00:55:31  5-MIN KMSN 270655Z 22007KT 10SM CLR 16/10 A2991 870 67 1200 220/07 RMK AO2
14837KMSN MSN20030627010009306/27/03 01:00:31  5-MIN KMSN 270700Z 22006KT 10SM CLR 16/10 A2991 870 67 1200 220/06 RMK AO2
14837KMSN MSN20030627010509306/27/03 01:05:31  5-MIN KMSN 270705Z 22006KT 10SM CLR 16/10 A2991 870 67 1200 220/06 RMK AO2
14837KMSN MSN20030627011009306/27/03 01:10:31  5-MIN KMSN 270710Z 23006KT 10SM CLR 16/10 A2991 870 67 1200 230/06 RMK AO2
14837KMSN MSN20030627011509306/27/03 01:15:31  5-MIN KMSN 270715Z 22007KT 10SM CLR 16/10 A2991 880 67 1300 220/07 RMK AO2
14837KMSN MSN20030627012010906/27/03 01:20:31  5-MIN KMSN 270720Z 22007KT 200V270 10SM CLR 16/10 A2991 880 67 1300 220/07 200V270 RMK AO2
14837KMSN MSN20030627012509306/27/03 01:25:31  5-MIN KMSN 270725Z VRB06KT 10SM CLR 16/10 A2991 880 67 1300 VRB/06 RMK AO2
14837KMSN MSN20030627013009306/27/03 01:30:31  5-MIN KMSN 270730Z 21007KT 10SM CLR 16/10 A2990 880 67 1300 210/07 RMK AO2
14837KMSN MSN20030627013509306/27/03 01:35:31  5-MIN KMSN 270735Z 22006KT 10SM CLR 16/10 A2990 880 67 1300 220/06 RMK AO2
14837KMSN MSN20030627014009306/27/03 01:40:31  5-MIN KMSN 270740Z 22007KT 10SM CLR 16/10 A2990 880 67 1300 220/07 RMK AO2
14837KMSN MSN20030627014509306/27/03 01:45:31  5-MIN KMSN 270745Z 22007KT 10SM CLR 16/10 A2990 880 67 1300 220/07 RMK AO2
14837KMSN MSN20030627015011006/27/03 01:50:31  5-MIN KMSN 270750Z 22006KT 10SM CLR 16/10 A2990 880 69 1200 220/06 RMK AO2 SLP123 T01560100
14837KMSN MSN20030627015509306/27/03 01:55:31  5-MIN KMSN 270755Z 23008KT 10SM CLR 16/10 A2990 880 69 1200 230/08 RMK AO2
14837KMSN MSN20030627020009306/27/03 02:00:31  5-MIN KMSN 270800Z 22006KT 10SM CLR 16/10 A2990 880 69 1200 220/06 RMK AO2
14837KMSN MSN20030627020509306/27/03 02:05:31  5-MIN KMSN 270805Z 22008KT 10SM CLR 16/10 A2990 890 69 1200 220/08 RMK AO2
14837KMSN MSN20030627021009306/27/03 02:10:31  5-MIN KMSN 270810Z VRB06KT 10SM CLR 16/10 A2990 890 69 1200 VRB/06 RMK AO2
14837KMSN MSN20030627021510906/27/03 02:15:31  5-MIN KMSN 270815Z 23007KT 190V250 10SM CLR 16/10 A2990 890 69 1200 230/07 190V250 RMK AO2
14837KMSN MSN20030627022009306/27/03 02:20:31  5-MIN KMSN 270820Z VRB06KT 10SM CLR 16/10 A2990 890 69 1200 VRB/06 RMK AO2
14837KMSN MSN20030627022510906/27/03 02:25:31  5-MIN KMSN 270825Z 23008KT 200V270 10SM CLR 16/10 A2990 890 69 1200 230/08 200V270 RMK AO2
14837KMSN MSN20030627023009306/27/03 02:30:31  5-MIN KMSN 270830Z 23007KT 10SM CLR 16/10 A2990 880 69 1200 230/07 RMK AO2
14837KMSN MSN20030627023509306/27/03 02:35:31  5-MIN KMSN 270835Z 23007KT 10SM CLR 16/10 A2990 880 69 1200 230/07 RMK AO2
14837KMSN MSN20030627024010906/27/03 02:40:31  5-MIN KMSN 270840Z 23007KT 200V270 10SM CLR 16/10 A2990 890 69 1200 230/07 200V270 RMK AO2
14837KMSN MSN20030627024509306/27/03 02:45:31  5-MIN KMSN 270845Z 23005KT 10SM CLR 16/10 A2990 880 69 1200 230/05 RMK AO2
14837KMSN MSN20030627025011606/27/03 02:50:31  5-MIN KMSN 270850Z 24006KT 10SM CLR 16/10 A2990 880 69 1200 240/06 RMK AO2 SLP123 T01560100 58001
14837KMSN MSN20030627025509306/27/03 02:55:31  5-MIN KMSN 270855Z VRB05KT 10SM CLR 16/10 A2990 880 69 1200 VRB/05 RMK AO2
14837KMSN MSN20030627030009306/27/03 03:00:31  5-MIN KMSN 270900Z 23007KT 10SM CLR 16/10 A2990 880 69 1200 230/07 RMK AO2
14837KMSN MSN20030627030509306/27/03 03:05:31  5-MIN KMSN 270905Z 22008KT 10SM CLR 16/10 A2990 880 69 1200 220/08 RMK AO2
14837KMSN MSN20030627031009306/27/03 03:10:31  5-MIN KMSN 270910Z VRB06KT 10SM CLR 16/10 A2990 880 69 1200 VRB/06 RMK AO2
14837KMSN MSN20030627031509306/27/03 03:15:31  5-MIN KMSN 270915Z VRB06KT 10SM CLR 16/09 A2990 880 67 1200 VRB/06 RMK AO2
14837KMSN MSN20030627032009306/27/03 03:20:31  5-MIN KMSN 270920Z 22005KT 10SM CLR 16/09 A2990 880 67 1200 220/05 RMK AO2
14837KMSN MSN20030627032509306/27/03 03:25:31  5-MIN KMSN 270925Z 23006KT 10SM CLR 16/09 A2991 880 67 1200 230/06 RMK AO2
14837KMSN MSN20030627033010906/27/03 03:30:31  5-MIN KMSN 270930Z 22007KT 170V250 10SM CLR 16/09 A2991 880 67 1200 220/07 170V250 RMK AO2
14837KMSN MSN20030627033509306/27/03 03:35:31  5-MIN KMSN 270935Z VRB05KT 10SM CLR 16/10 A2991 870 69 1200 VRB/05 RMK AO2
14837KMSN MSN20030627034009306/27/03 03:40:31  5-MIN KMSN 270940Z VRB06KT 10SM CLR 16/09 A2991 880 67 1200 VRB/06 RMK AO2
14837KMSN MSN20030627034509306/27/03 03:45:31  5-MIN KMSN 270945Z VRB05KT 10SM CLR 16/09 A2991 880 67 1200 VRB/05 RMK AO2
14837KMSN MSN20030627035011006/27/03 03:50:31  5-MIN KMSN 270950Z VRB05KT 10SM CLR 16/09 A2991 880 67 1200 VRB/05 RMK AO2 SLP125 T01560094
14837KMSN MSN20030627035509306/27/03 03:55:31  5-MIN KMSN 270955Z VRB04KT 10SM CLR 16/09 A2991 880 67 1200 VRB/04 RMK AO2
14837KMSN MSN20030627040010906/27/03 04:00:31  5-MIN KMSN 271000Z 23007KT 200V280 10SM CLR 16/09 A2991 870 64 1200 230/07 200V280 RMK AO2
14837KMSN MSN20030627040509306/27/03 04:05:31  5-MIN KMSN 271005Z VRB06KT 10SM CLR 16/09 A2991 870 64 1200 VRB/06 RMK AO2
14837KMSN MSN20030627041009306/27/03 04:10:31  5-MIN KMSN 271010Z 24006KT 10SM CLR 16/09 A2991 870 64 1200 230/06 RMK AO2
14837KMSN MSN20030627041509306/27/03 04:15:31  5-MIN KMSN 271015Z 24006KT 10SM CLR 16/09 A2991 870 64 1200 240/06 RMK AO2
14837KMSN MSN20030627042009306/27/03 04:20:31  5-MIN KMSN 271020Z VRB04KT 10SM CLR 16/09 A2991 870 64 1200 VRB/04 RMK AO2
14837KMSN MSN20030627042509306/27/03 04:25:31  5-MIN KMSN 271025Z 24004KT 10SM CLR 16/09 A2992 870 64 1200 230/04 RMK AO2
14837KMSN MSN20030627043009306/27/03 04:30:31  5-MIN KMSN 271030Z 23005KT 10SM CLR 16/09 A2991 870 64 1200 220/05 RMK AO2
14837KMSN MSN20030627043509306/27/03 04:35:31  5-MIN KMSN 271035Z VRB05KT 10SM CLR 16/09 A2991 870 67 1200 VRB/05 RMK AO2
14837KMSN MSN20030627044009306/27/03 04:40:31  5-MIN KMSN 271040Z VRB05KT 10SM CLR 16/10 A2991 870 69 1200 VRB/05 RMK AO2
14837KMSN MSN20030627044509306/27/03 04:45:31  5-MIN KMSN 271045Z VRB05KT 10SM CLR 16/10 A2991 870 69 1200 VRB/05 RMK AO2
14837KMSN MSN20030627045011006/27/03 04:50:31  5-MIN KMSN 271050Z VRB06KT 10SM CLR 16/10 A2992 870 69 1200 VRB/06 RMK AO2 SLP128 T01560100
14837KMSN MSN20030627045509306/27/03 04:55:31  5-MIN KMSN 271055Z VRB05KT 10SM CLR 16/10 A2992 870 69 1200 VRB/05 RMK AO2
14837KMSN MSN20030627050009306/27/03 05:00:31  5-MIN KMSN 271100Z 23007KT 10SM CLR 16/10 A2992 870 69 1200 230/07 RMK AO2
14837KMSN MSN20030627050509306/27/03 05:05:31  5-MIN KMSN 271105Z 22006KT 10SM CLR 16/10 A2992 870 69 1200 220/06 RMK AO2
14837KMSN MSN20030627051009306/27/03 05:10:31  5-MIN KMSN 271110Z 22006KT 10SM CLR 16/10 A2992 870 69 1200 220/06 RMK AO2
14837KMSN MSN20030627051510906/27/03 05:15:31  5-MIN KMSN 271115Z 22007KT 150V260 10SM CLR 16/10 A2992 870 69 1200 220/07 150V260 RMK AO2
14837KMSN MSN20030627052009306/27/03 05:20:31  5-MIN KMSN 271120Z 22008KT 10SM CLR 16/10 A2992 870 69 1200 220/08 RMK AO2
14837KMSN MSN20030627052509306/27/03 05:25:31  5-MIN KMSN 271125Z 22007KT 10SM CLR 16/10 A2992 860 69 1200 220/07 RMK AO2
14837KMSN MSN20030627053009306/27/03 05:30:31  5-MIN KMSN 271130Z 23006KT 10SM CLR 16/10 A2992 860 69 1200 230/06 RMK AO2
14837KMSN MSN20030627053510906/27/03 05:35:31  5-MIN KMSN 271135Z 22008KT 180V250 10SM CLR 16/10 A2992 860 69 1200 220/08 180V250 RMK AO2
14837KMSN MSN20030627054009306/27/03 05:40:31  5-MIN KMSN 271140Z 22007KT 10SM CLR 16/10 A2992 860 69 1200 220/07 RMK AO2
14837KMSN MSN20030627054509306/27/03 05:45:31  5-MIN KMSN 271145Z 23007KT 10SM CLR 16/10 A2993 860 67 1200 230/07 RMK AO2
14837KMSN MSN20030627055012806/27/03 05:50:31  5-MIN KMSN 271150Z 23006KT 10SM CLR 16/10 A2993 860 67 1200 230/06 RMK AO2 SLP132 T01610100 10161 20156 56005
14837KMSN MSN20030627055509306/27/03 05:55:31  5-MIN KMSN 271155Z 23007KT 10SM CLR 16/10 A2993 860 67 1200 230/07 RMK AO2
14837KMSN MSN20030627060009306/27/03 06:00:31  5-MIN KMSN 271200Z 22006KT 10SM CLR 16/10 A2993 860 67 1200 220/06 RMK AO2
14837KMSN MSN20030627060509306/27/03 06:05:31  5-MIN KMSN 271205Z 23006KT 10SM CLR 17/10 A2993 860 64 1300 230/06 RMK AO2
14837KMSN MSN20030627061009306/27/03 06:10:31  5-MIN KMSN 271210Z VRB05KT 10SM CLR 17/10 A2993 860 64 1300 VRB/05 RMK AO2
14837KMSN MSN20030627061509306/27/03 06:15:31  5-MIN KMSN 271215Z VRB04KT 10SM CLR 17/10 A2993 860 64 1300 VRB/04 RMK AO2
14837KMSN MSN20030627062009306/27/03 06:20:31  5-MIN KMSN 271220Z VRB05KT 10SM CLR 17/10 A2993 850 62 1400 VRB/05 RMK AO2
14837KMSN MSN20030627062510906/27/03 06:25:31  5-MIN KMSN 271225Z 24007KT 200V280 10SM CLR 17/10 A2993 850 62 1400 230/07 200V280 RMK AO2
14837KMSN MSN20030627063009306/27/03 06:30:31  5-MIN KMSN 271230Z VRB05KT 10SM CLR 17/09 A2993 850 60 1400 VRB/05 RMK AO2
14837KMSN MSN20030627063509306/27/03 06:35:31  5-MIN KMSN 271235Z VRB05KT 10SM CLR 18/10 A2993 850 60 1400 VRB/05 RMK AO2
14837KMSN MSN20030627064009306/27/03 06:40:31  5-MIN KMSN 271240Z 22008KT 10SM CLR 18/10 A2993 850 60 1400 220/08 RMK AO2
14837KMSN MSN20030627064509306/27/03 06:45:31  5-MIN KMSN 271245Z 22008KT 10SM CLR 18/10 A2993 850 60 1400 220/08 RMK AO2
14837KMSN MSN20030627065011006/27/03 06:50:31  5-MIN KMSN 271250Z 21009KT 10SM CLR 18/10 A2993 860 60 1400 210/09 RMK AO2 SLP133 T01780100
14837KMSN MSN20030627065509306/27/03 06:55:31  5-MIN KMSN 271255Z 22008KT 10SM CLR 18/10 A2993 860 58 1500 220/08 RMK AO2
14837KMSN MSN20030627070009306/27/03 07:00:31  5-MIN KMSN 271300Z 22008KT 10SM CLR 18/10 A2993 850 58 1500 220/08 RMK AO2
14837KMSN MSN20030627070509306/27/03 07:05:31  5-MIN KMSN 271305Z 23008KT 10SM CLR 18/10 A2993 850 58 1500 230/08 RMK AO2
14837KMSN MSN20030627071009306/27/03 07:10:31  5-MIN KMSN 271310Z 23009KT 10SM CLR 18/10 A2993 850 58 1500 230/09 RMK AO2
14837KMSN MSN20030627071509306/27/03 07:15:31  5-MIN KMSN 271315Z 23007KT 10SM CLR 18/10 A2993 850 58 1500 230/07 RMK AO2
14837KMSN MSN20030627072010906/27/03 07:20:31  5-MIN KMSN 271320Z 22008KT 190V260 10SM CLR 19/11 A2993 850 58 1500 220/08 190V260 RMK AO2
14837KMSN MSN20030627072510906/27/03 07:25:31  5-MIN KMSN 271325Z 22009KT 180V260 10SM CLR 19/11 A2993 860 58 1500 220/09 180V260 RMK AO2
14837KMSN MSN20030627073010906/27/03 07:30:31  5-MIN KMSN 271330Z 23008KT 200V260 10SM CLR 19/10 A2993 850 56 1500 230/08 200V260 RMK AO2
14837KMSN MSN20030627073509306/27/03 07:35:31  5-MIN KMSN 271335Z 22009KT 10SM CLR 19/10 A2993 850 56 1500 220/09 RMK AO2
14837KMSN MSN20030627074010906/27/03 07:40:31  5-MIN KMSN 271340Z 22008KT 200V260 10SM CLR 19/11 A2993 850 56 1600 220/08 200V260 RMK AO2
14837KMSN MSN20030627074510806/27/03 07:45:31  5-MIN KMSN 271345Z 22009KT 200V270 9SM CLR 19/11 A2993 850 56 1600 220/09 200V270 RMK AO2
14837KMSN MSN20030627075012506/27/03 07:50:31  5-MIN KMSN 271350Z 23010KT 200V260 9SM CLR 19/11 A2993 850 56 1600 230/10 200V260 RMK AO2 SLP134 T01940106
14837KMSN MSN20030627075509306/27/03 07:55:31  5-MIN KMSN 271355Z 21010KT 10SM CLR 20/11 A2993 850 54 1700 210/10 RMK AO2
14837KMSN MSN20030627080009306/27/03 08:00:31  5-MIN KMSN 271400Z 22009KT 10SM CLR 19/11 A2993 850 56 1600 220/09 RMK AO2
14837KMSN MSN20030627080509306/27/03 08:05:31  5-MIN KMSN 271405Z 22008KT 10SM CLR 20/11 A2993 850 54 1700 220/08 RMK AO2
14837KMSN MSN20030627081010906/27/03 08:10:31  5-MIN KMSN 271410Z 22007KT 190V250 10SM CLR 20/11 A2993 850 54 1700 220/07 190V250 RMK AO2
14837KMSN MSN20030627081511506/27/03 08:15:31  5-MIN KMSN 271415Z 22008G15KT 200V260 10SM CLR 21/11 A2993 860 54 1700 220/08G15 200V260 RMK AO2
14837KMSN MSN20030627082011506/27/03 08:20:31  5-MIN KMSN 271420Z 22009G15KT 180V250 10SM CLR 21/11 A2993 860 52 1700 210/09G15 180V250 RMK AO2
14837KMSN MSN20030627082509906/27/03 08:25:31  5-MIN KMSN 271425Z 23010G16KT 10SM CLR 21/11 A2993 860 52 1700 230/10G16 RMK AO2
14837KMSN MSN20030627083011506/27/03 08:30:31  5-MIN KMSN 271430Z 22011G16KT 190V260 10SM CLR 21/11 A2992 860 52 1800 220/11G16 190V260 RMK AO2
14837KMSN MSN20030627083510906/27/03 08:35:31  5-MIN KMSN 271435Z 22007KT 170V260 10SM CLR 21/11 A2992 860 52 1800 220/07 170V260 RMK AO2
14837KMSN MSN20030627084009906/27/03 08:40:31  5-MIN KMSN 271440Z 23009G15KT 10SM CLR 21/11 A2992 860 52 1800 230/09G15 RMK AO2
14837KMSN MSN20030627084509906/27/03 08:45:31  5-MIN KMSN 271445Z 23011G15KT 10SM CLR 22/11 A2992 860 50 1900 230/11G15 RMK AO2
14837KMSN MSN20030627085011506/27/03 08:50:31  5-MIN KMSN 271450Z 22008KT 9SM CLR 22/11 A2992 860 49 1900 220/08 RMK AO2 SLP128 T02170106 53008
14837KMSN MSN20030627085509506/27/03 08:55:31  5-MIN KMSN 271455Z 23010KT 9SM FEW045 22/11 A2992 860 49 1900 230/10 RMK AO2
14837KMSN MSN20030627090009906/27/03 09:00:31  5-MIN KMSN 271500Z 22011G16KT 10SM CLR 22/11 A2992 870 49 1900 220/11G16 RMK AO2
14837KMSN MSN20030627090509906/27/03 09:05:31  5-MIN KMSN 271505Z 24010G16KT 10SM CLR 22/11 A2992 860 47 1900 240/10G16 RMK AO2
14837KMSN MSN20030627091009906/27/03 09:10:31  5-MIN KMSN 271510Z 22010G15KT 10SM CLR 22/11 A2992 870 47 1900 220/10G15 RMK AO2
14837KMSN MSN20030627091509906/27/03 09:15:31  5-MIN KMSN 271515Z 23010G15KT 10SM CLR 22/11 A2992 870 49 1900 230/10G15 RMK AO2
14837KMSN MSN20030627092009906/27/03 09:20:31  5-MIN KMSN 271520Z 23009G15KT 10SM CLR 22/11 A2991 870 47 1900 220/09G15 RMK AO2
14837KMSN MSN20030627092511506/27/03 09:25:31  5-MIN KMSN 271525Z 23011G16KT 210V270 10SM CLR 22/11 A2991 870 47 2000 230/11G16 210V270 RMK AO2
14837KMSN MSN20030627093009906/27/03 09:30:31  5-MIN KMSN 271530Z 22008G16KT 10SM CLR 23/11 A2991 870 47 2000 220/08G16 RMK AO2
14837KMSN MSN20030627093509906/27/03 09:35:31  5-MIN KMSN 271535Z 22011G15KT 10SM CLR 23/11 A2991 870 45 2000 220/11G15 RMK AO2
14837KMSN MSN20030627094011506/27/03 09:40:31  5-MIN KMSN 271540Z 24011G15KT 200V260 10SM CLR 23/11 A2991 880 45 2000 240/11G15 200V260 RMK AO2
14837KMSN MSN20030627094509906/27/03 09:45:31  5-MIN KMSN 271545Z 22011G15KT 10SM CLR 23/11 A2991 880 45 2100 220/11G15 RMK AO2
14837KMSN MSN20030627095011606/27/03 09:50:31  5-MIN KMSN 271550Z 24010G14KT 10SM CLR 23/11 A2991 880 45 2100 230/10G14 RMK AO2 SLP125 T02330111
14837KMSN MSN20030627095511506/27/03 09:55:31  5-MIN KMSN 271555Z 23007G15KT 200V270 10SM CLR 23/11 A2991 880 45 2100 230/07G15 200V270 RMK AO2
14837KMSN MSN20030627100009906/27/03 10:00:31  5-MIN KMSN 271600Z 23011G15KT 10SM CLR 24/11 A2991 880 44 2100 230/11G15 RMK AO2
14837KMSN MSN20030627100511506/27/03 10:05:31  5-MIN KMSN 271605Z 23009G16KT 200V280 10SM CLR 23/11 A2991 880 44 2100 230/09G16 200V280 RMK AO2
14837KMSN MSN20030627101011506/27/03 10:10:31  5-MIN KMSN 271610Z 23008G16KT 170V250 10SM CLR 24/11 A2990 880 42 2100 230/08G16 170V250 RMK AO2
14837KMSN MSN20030627101511506/27/03 10:15:31  5-MIN KMSN 271615Z 23008G17KT 210V270 10SM CLR 24/11 A2990 880 42 2200 230/08G17 210V270 RMK AO2
14837KMSN MSN20030627102009906/27/03 10:20:31  5-MIN KMSN 271620Z 23008G19KT 10SM CLR 24/11 A2990 880 42 2200 230/08G19 RMK AO2
14837KMSN MSN20030627102511506/27/03 10:25:31  5-MIN KMSN 271625Z 24008G19KT 200V270 10SM CLR 24/11 A2990 880 42 2200 240/08G19 200V270 RMK AO2
14837KMSN MSN20030627103011506/27/03 10:30:31  5-MIN KMSN 271630Z 23009G14KT 210V270 10SM CLR 24/11 A2990 880 42 2200 230/09G14 210V270 RMK AO2
14837KMSN MSN20030627103509306/27/03 10:35:31  5-MIN KMSN 271635Z 22011KT 10SM CLR 24/11 A2990 880 42 2200 220/11 RMK AO2
14837KMSN MSN20030627104009306/27/03 10:40:31  5-MIN KMSN 271640Z 22010KT 10SM CLR 24/11 A2990 880 41 2200 220/10 RMK AO2
14837KMSN MSN20030627104509906/27/03 10:45:31  5-MIN KMSN 271645Z 21011G16KT 10SM CLR 24/11 A2990 890 42 2200 210/11G16 RMK AO2
14837KMSN MSN20030627105011606/27/03 10:50:31  5-MIN KMSN 271650Z 23009G16KT 10SM CLR 25/11 A2990 890 41 2300 220/09G16 RMK AO2 SLP119 T02500111
14837KMSN MSN20030627105509906/27/03 10:55:31  5-MIN KMSN 271655Z 23011G18KT 10SM CLR 25/12 A2990 890 43 2300 230/11G18 RMK AO2
14837KMSN MSN20030627110009906/27/03 11:00:31  5-MIN KMSN 271700Z 22014G20KT 10SM CLR 24/11 A2989 890 41 2200 220/14G20 RMK AO2
14837KMSN MSN20030627110509906/27/03 11:05:31  5-MIN KMSN 271705Z 22010G20KT 10SM CLR 25/11 A2989 890 41 2300 210/10G20 RMK AO2
14837KMSN MSN20030627111011506/27/03 11:10:31  5-MIN KMSN 271710Z 22010G16KT 190V250 10SM CLR 25/11 A2989 890 41 2300 220/10G16 190V250 RMK AO2
14837KMSN MSN20030627111509906/27/03 11:15:31  5-MIN KMSN 271715Z 22007G16KT 10SM CLR 26/11 A2989 890 40 2400 220/07G16 RMK AO2
14837KMSN MSN20030627112011506/27/03 11:20:31  5-MIN KMSN 271720Z 22011G15KT 180V260 10SM CLR 26/11 A2989 890 40 2400 220/11G15 180V260 RMK AO2
14837KMSN MSN20030627112509906/27/03 11:25:31  5-MIN KMSN 271725Z 22012G18KT 10SM CLR 26/11 A2989 890 40 2400 220/12G18 RMK AO2
14837KMSN MSN20030627113009906/27/03 11:30:31  5-MIN KMSN 271730Z 22010G18KT 10SM CLR 26/11 A2989 890 38 2400 220/10G18 RMK AO2
14837KMSN MSN20030627113509306/27/03 11:35:31  5-MIN KMSN 271735Z 23009KT 10SM CLR 26/11 A2989 890 40 2400 230/09 RMK AO2
14837KMSN MSN20030627114009906/27/03 11:40:31  5-MIN KMSN 271740Z 22010G17KT 10SM CLR 26/11 A2989 890 40 2400 220/10G17 RMK AO2
14837KMSN MSN20030627114509906/27/03 11:45:31  5-MIN KMSN 271745Z 22009G17KT 10SM CLR 26/12 A2989 890 41 2400 220/09G17 RMK AO2
14837KMSN MSN20030627115014406/27/03 11:50:31  5-MIN KMSN 271750Z 23007KT 190V290 10SM CLR 26/12 A2989 890 40 2400 230/07 190V290 RMK AO2 SLP117 T02610117 10261 20161 58002
14837KMSN MSN20030627115511506/27/03 11:55:31  5-MIN KMSN 271755Z 23009G14KT 200V270 10SM CLR 26/12 A2989 890 41 2400 230/09G14 200V270 RMK AO2
14837KMSN MSN20030627120010906/27/03 12:00:31  5-MIN KMSN 271800Z 22009KT 200V270 10SM CLR 26/12 A2989 900 40 2400 220/09 200V270 RMK AO2
14837KMSN MSN20030627120509606/27/03 12:05:31  5-MIN KMSN 271805Z 22008KT 10SM SCT060 27/12 A2988 900 38 2500 220/08 RMK AO2
14837KMSN MSN20030627121009606/27/03 12:10:31  5-MIN KMSN 271810Z 22010KT 10SM FEW070 26/12 A2988 900 41 2400 220/10 RMK AO2
14837KMSN MSN20030627121511806/27/03 12:15:31  5-MIN KMSN 271815Z 23011G15KT 190V260 10SM SCT070 26/12 A2988 900 40 2400 230/11G15 190V260 RMK AO2
14837KMSN MSN20030627122011806/27/03 12:20:31  5-MIN KMSN 271820Z 23008G15KT 200V270 10SM FEW070 27/11 A2988 900 37 2500 230/08G15 200V270 RMK AO2
14837KMSN MSN20030627122510206/27/03 12:25:31  5-MIN KMSN 271825Z 23011G15KT 10SM SCT070 26/11 A2988 900 38 2400 230/11G15 RMK AO2
14837KMSN MSN20030627123010206/27/03 12:30:31  5-MIN KMSN 271830Z 23010G15KT 10SM SCT070 26/11 A2988 900 38 2400 220/10G15 RMK AO2
14837KMSN MSN20030627123510206/27/03 12:35:31  5-MIN KMSN 271835Z 24009G16KT 10SM FEW070 27/11 A2988 900 37 2500 240/09G16 RMK AO2
14837KMSN MSN20030627124011806/27/03 12:40:31  5-MIN KMSN 271840Z 24010G16KT 200V280 10SM FEW070 27/11 A2988 900 36 2500 240/10G16 200V280 RMK AO2
14837KMSN MSN20030627124509606/27/03 12:45:31  5-MIN KMSN 271845Z 23010KT 10SM FEW070 26/10 A2988 900 36 2400 230/10 RMK AO2
14837KMSN MSN20030627125012006/27/03 12:50:31  5-MIN KMSN 271850Z 25010KT 10SM FEW070 SCT100 26/11 A2988 900 37 2400 250/10 RMK AO2 SLP113 T02610106
14837KMSN MSN20030627125512506/27/03 12:55:31  5-MIN KMSN 271855Z 24007G14KT 190V270 10SM BKN070 BKN100 26/11 A2988 910 37 2400 240/07G14 190V270 RMK AO2
14837KMSN MSN20030627130012506/27/03 13:00:31  5-MIN KMSN 271900Z 23008G15KT 200V260 10SM SCT070 SCT095 26/11 A2988 910 37 2400 230/08G15 200V260 RMK AO2
14837KMSN MSN20030627130512506/27/03 13:05:31  5-MIN KMSN 271905Z 24009G15KT 210V280 10SM FEW070 SCT090 27/11 A2987 910 37 2500 240/09G15 210V280 RMK AO2
14837KMSN MSN20030627131012506/27/03 13:10:31  5-MIN KMSN 271910Z 24008G14KT 210V280 10SM FEW070 SCT090 27/11 A2988 900 37 2500 240/08G14 210V280 RMK AO2
14837KMSN MSN20030627131510906/27/03 13:15:31  5-MIN KMSN 271915Z 23010G15KT 10SM FEW070 SCT090 27/11 A2988 900 34 2600 230/10G15 RMK AO2
14837KMSN MSN20030627132010906/27/03 13:20:31  5-MIN KMSN 271920Z 23012G16KT 10SM FEW075 SCT090 27/11 A2987 910 36 2500 230/12G16 RMK AO2
14837KMSN MSN20030627132510206/27/03 13:25:31  5-MIN KMSN 271925Z 22011G17KT 10SM SCT085 27/11 A2987 910 36 2600 220/11G17 RMK AO2
14837KMSN MSN20030627133011806/27/03 13:30:31  5-MIN KMSN 271930Z 23012G17KT 190V260 10SM FEW080 27/11 A2987 910 36 2600 220/12G17 190V260 RMK AO2
14837KMSN MSN20030627133511806/27/03 13:35:31  5-MIN KMSN 271935Z 23008G15KT 180V260 10SM FEW080 27/11 A2987 910 36 2500 230/08G15 180V260 RMK AO2
14837KMSN MSN20030627134011206/27/03 13:40:31  5-MIN KMSN 271940Z 23010KT 200V270 10SM FEW075 27/11 A2987 910 34 2600 230/10 200V270 RMK AO2
14837KMSN MSN20030627134511806/27/03 13:45:31  5-MIN KMSN 271945Z 23009G16KT 210V290 10SM SCT075 26/10 A2987 910 36 2400 230/09G16 210V290 RMK AO2
14837KMSN MSN20030627135013506/27/03 13:50:31  5-MIN KMSN 271950Z 22008G16KT 190V250 10SM SCT075 26/11 A2987 910 38 2400 220/08G16 190V250 RMK AO2 SLP110 T02610111
14837KMSN MSN20030627135510206/27/03 13:55:31  5-MIN KMSN 271955Z 23011G14KT 10SM BKN075 27/11 A2987 910 37 2500 230/11G14 RMK AO2
14837KMSN MSN20030627140010206/27/03 14:00:31  5-MIN KMSN 272000Z 23011G14KT 10SM BKN075 27/11 A2986 920 36 2600 230/11G14 RMK AO2
14837KMSN MSN20030627140511206/27/03 14:05:31  5-MIN KMSN 272005Z 22008KT 190V260 10SM BKN075 27/11 A2986 920 36 2500 220/08 190V260 RMK AO2
14837KMSN MSN20030627141011206/27/03 14:10:31  5-MIN KMSN 272010Z 23007KT 200V260 10SM BKN075 27/11 A2986 920 36 2500 230/07 200V260 RMK AO2
14837KMSN MSN20030627141510206/27/03 14:15:31  5-MIN KMSN 272015Z VRB06G14KT 10SM BKN075 27/12 A2986 920 37 2600 VRB/06G14 RMK AO2
14837KMSN MSN20030627142011906/27/03 14:20:31  5-MIN KMSN 272020Z 22009KT 200V280 10SM BKN075 BKN085 26/11 A2986 920 38 2400 220/09 200V280 RMK AO2
14837KMSN MSN20030627142510906/27/03 14:25:31  5-MIN KMSN 272025Z 23010G15KT 10SM BKN070 BKN090 27/11 A2986 920 37 2500 220/10G15 RMK AO2
14837KMSN MSN20030627143010906/27/03 14:30:31  5-MIN KMSN 272030Z 24009G15KT 10SM BKN075 BKN085 27/11 A2986 920 37 2500 240/09G15 RMK AO2
14837KMSN MSN20030627143510906/27/03 14:35:31  5-MIN KMSN 272035Z 22010G15KT 10SM SCT075 BKN085 27/11 A2986 920 37 2500 220/10G15 RMK AO2
14837KMSN MSN20030627144011806/27/03 14:40:31  5-MIN KMSN 272040Z 23008G16KT 170V260 10SM SCT070 27/11 A2986 920 36 2600 230/08G16 170V260 RMK AO2
14837KMSN MSN20030627144510906/27/03 14:45:31  5-MIN KMSN 272045Z 23006G16KT 10SM FEW070 SCT095 27/11 A2986 920 36 2500 230/06G16 RMK AO2
14837KMSN MSN20030627145014206/27/03 14:50:31  5-MIN KMSN 272050Z 23010KT 200V300 10SM FEW075 SCT100 26/11 A2986 920 37 2400 230/10 200V300 RMK AO2 SLP108 T02610106 56011
14837KMSN MSN20030627145510306/27/03 14:55:31  5-MIN KMSN 272055Z 25007KT 10SM SCT075 BKN100 26/10 A2986 920 36 2400 240/07 RMK AO2
14837KMSN MSN20030627150010306/27/03 15:00:31  5-MIN KMSN 272100Z 25008KT 10SM SCT075 BKN100 27/11 A2986 920 34 2600 250/08 RMK AO2
14837KMSN MSN20030627150512506/27/03 15:05:31  5-MIN KMSN 272105Z 24008G15KT 210V270 10SM SCT075 BKN100 27/11 A2986 920 34 2600 240/08G15 210V270 RMK AO2
14837KMSN MSN20030627151010906/27/03 15:10:31  5-MIN KMSN 272110Z 25011G15KT 10SM SCT075 BKN100 27/11 A2986 920 34 2600 250/11G15 RMK AO2
14837KMSN MSN20030627151510906/27/03 15:15:31  5-MIN KMSN 272115Z 22007G14KT 10SM FEW075 BKN110 27/11 A2986 920 34 2600 220/07G14 RMK AO2
14837KMSN MSN20030627152012506/27/03 15:20:31  5-MIN KMSN 272120Z 26009G14KT 230V300 10SM FEW075 BKN110 27/11 A2986 920 34 2600 260/09G14 230V300 RMK AO2
14837KMSN MSN20030627152510906/27/03 15:25:31  5-MIN KMSN 272125Z 26008G14KT 10SM FEW075 BKN110 27/11 A2986 920 36 2500 250/08G14 RMK AO2
14837KMSN MSN20030627153010306/27/03 15:30:31  5-MIN KMSN 272130Z VRB05KT 10SM FEW075 BKN110 26/11 A2986 920 38 2500 VRB/05 RMK AO2
14837KMSN MSN20030627153511906/27/03 15:35:31  5-MIN KMSN 272135Z 25007KT 220V290 10SM FEW070 SCT085 27/12 A2985 930 37 2600 250/07 220V290 RMK AO2
14837KMSN MSN20030627154010906/27/03 15:40:31  5-MIN KMSN 272140Z 25010G15KT 10SM FEW070 SCT085 27/11 A2985 930 34 2600 240/10G15 RMK AO2
14837KMSN MSN20030627154512506/27/03 15:45:31  5-MIN KMSN 272145Z 26007G15KT 220V300 10SM FEW070 SCT085 27/10 A2985 930 33 2600 260/07G15 220V300 RMK AO2
14837KMSN MSN20030627155013606/27/03 15:50:31  5-MIN KMSN 272150Z 25007KT 220V280 10SM FEW070 SCT085 27/10 A2985 930 34 2500 250/07 220V280 RMK AO2 SLP104 T02670100
14837KMSN MSN20030627155511006/27/03 15:55:31  5-MIN KMSN 272155Z 26007KT 10SM FEW080 SCT095 SCT110 27/11 A2985 930 36 2500 260/07 RMK AO2
14837KMSN MSN20030627160013206/27/03 16:00:31  5-MIN KMSN 272200Z 26009G14KT 240V310 10SM FEW080 SCT095 BKN110 27/11 A2985 930 34 2600 260/09G14 240V310 RMK AO2
14837KMSN MSN20030627160511606/27/03 16:05:31  5-MIN KMSN 272205Z VRB06G14KT 10SM FEW080 SCT095 BKN110 27/11 A2985 930 34 2600 VRB/06G14 RMK AO2
14837KMSN MSN20030627161011006/27/03 16:10:31  5-MIN KMSN 272210Z VRB06KT 10SM FEW080 SCT095 BKN110 27/11 A2984 940 34 2600 VRB/06 RMK AO2
14837KMSN MSN20030627161512606/27/03 16:15:31  5-MIN KMSN 272215Z 23009KT 190V280 10SM FEW080 SCT095 BKN110 27/11 A2984 940 34 2600 230/09 190V280 RMK AO2
14837KMSN MSN20030627162011206/27/03 16:20:31  5-MIN KMSN 272220Z 24007KT 190V270 10SM SCT080 27/11 A2984 940 34 2600 240/07 190V270 RMK AO2
14837KMSN MSN20030627162511206/27/03 16:25:31  5-MIN KMSN 272225Z 26007KT 210V280 10SM SCT080 27/11 A2984 940 36 2600 260/07 210V280 RMK AO2
14837KMSN MSN20030627163011206/27/03 16:30:31  5-MIN KMSN 272230Z 23007KT 170V250 10SM SCT080 27/11 A2984 940 37 2500 230/07 170V250 RMK AO2
14837KMSN MSN20030627163511206/27/03 16:35:31  5-MIN KMSN 272235Z 24007KT 210V270 10SM SCT080 27/11 A2984 940 36 2600 240/07 210V270 RMK AO2
14837KMSN MSN20030627164010306/27/03 16:40:31  5-MIN KMSN 272240Z 25007KT 10SM SCT075 SCT090 26/11 A2984 940 37 2500 250/07 RMK AO2
14837KMSN MSN20030627164511906/27/03 16:45:31  5-MIN KMSN 272245Z 23008KT 200V270 10SM SCT075 BKN090 26/11 A2984 940 37 2500 230/08 200V270 RMK AO2
14837KMSN MSN20030627165012006/27/03 16:50:31  5-MIN KMSN 272250Z VRB05KT 10SM SCT075 BKN090 26/11 A2984 940 37 2500 VRB/05 RMK AO2 SLP101 T02610106
14837KMSN MSN20030627165509606/27/03 16:55:31  5-MIN KMSN 272255Z 28004KT 10SM BKN080 26/11 A2984 930 37 2500 280/04 RMK AO2
14837KMSN MSN20030627170009606/27/03 17:00:31  5-MIN KMSN 272300Z VRB06KT 10SM OVC080 26/11 A2985 930 37 2500 VRB/06 RMK AO2
14837KMSN MSN20030627170509606/27/03 17:05:31  5-MIN KMSN 272305Z 01008KT 10SM BKN080 24/13 A2985 930 49 2300 010/08 RMK AO2
14837KMSN MSN20030627171009606/27/03 17:10:31  5-MIN KMSN 272310Z 35007KT 10SM BKN080 24/14 A2985 930 53 2200 350/07 RMK AO2
14837KMSN MSN20030627171509606/27/03 17:15:31  5-MIN KMSN 272315Z 35006KT 10SM BKN080 23/14 A2985 930 55 2100 350/06 RMK AO2
14837KMSN MSN20030627172009606/27/03 17:20:31  5-MIN KMSN 272320Z 36007KT 10SM BKN080 23/14 A2985 930 55 2100 360/07 RMK AO2
14837KMSN MSN20030627172510306/27/03 17:25:31  5-MIN KMSN 272325Z 36007KT 10SM BKN075 BKN100 23/14 A2985 930 55 2100 360/07 RMK AO2
14837KMSN MSN20030627173010306/27/03 17:30:31  5-MIN KMSN 272330Z 36004KT 10SM BKN075 BKN100 24/14 A2985 930 53 2200 360/04 RMK AO2
14837KMSN MSN20030627173510306/27/03 17:35:31  5-MIN KMSN 272335Z 36005KT 10SM BKN075 BKN100 24/14 A2985 930 53 2200 360/05 RMK AO2
14837KMSN MSN20030627174010306/27/03 17:40:31  5-MIN KMSN 272340Z 35004KT 10SM BKN075 BKN100 24/14 A2984 940 53 2200 350/04 RMK AO2
14837KMSN MSN20030627174510306/27/03 17:45:31  5-MIN KMSN 272345Z 34003KT 10SM BKN075 BKN100 24/14 A2984 940 51 2300 340/03 RMK AO2
14837KMSN MSN20030627175013106/27/03 17:50:31  5-MIN KMSN 272350Z 01004KT 10SM SCT070 24/14 A2984 940 51 2300 010/04 RMK AO2 SLP101 T02440139 10272 20233 56008
14837KMSN MSN20030627175509606/27/03 17:55:31  5-MIN KMSN 272355Z 36004KT 10SM SCT070 23/14 A2984 940 55 2200 360/04 RMK AO2
14837KMSN MSN20030627180009606/27/03 18:00:31  5-MIN KMSN 280000Z 35003KT 10SM SCT070 23/14 A2984 940 59 2100 350/03 RMK AO2
14837KMSN MSN20030627180509606/27/03 18:05:31  5-MIN KMSN 280005Z 36003KT 10SM SCT070 23/14 A2984 940 59 2100 350/03 RMK AO2
14837KMSN MSN20030627181009606/27/03 18:10:31  5-MIN KMSN 280010Z 00000KT 10SM SCT070 23/15 A2984 940 61 2100 000/00 RMK AO2
14837KMSN MSN20030627181509606/27/03 18:15:31  5-MIN KMSN 280015Z 00000KT 10SM SCT070 23/14 A2985 930 59 2100 000/00 RMK AO2
14837KMSN MSN20030627182009606/27/03 18:20:31  5-MIN KMSN 280020Z 00000KT 10SM SCT070 22/15 A2985 930 63 2000 000/00 RMK AO2
14837KMSN MSN20030627182509606/27/03 18:25:31  5-MIN KMSN 280025Z 36003KT 10SM SCT070 22/15 A2985 930 63 2000 360/03 RMK AO2
14837KMSN MSN20030627183009606/27/03 18:30:31  5-MIN KMSN 280030Z 36003KT 10SM SCT070 22/16 A2985 930 68 2000 360/03 RMK AO2
14837KMSN MSN20030627183509606/27/03 18:35:31  5-MIN KMSN 280035Z 00000KT 10SM SCT110 22/16 A2985 930 68 2000 000/00 RMK AO2
14837KMSN MSN20030627184010306/27/03 18:40:31  5-MIN KMSN 280040Z 00000KT 10SM SCT070 SCT110 22/15 A2984 930 65 2000 000/00 RMK AO2
14837KMSN MSN20030627184510306/27/03 18:45:31  5-MIN KMSN 280045Z 00000KT 10SM SCT070 SCT110 23/14 A2984 930 59 2100 000/00 RMK AO2
14837KMSN MSN20030627185012006/27/03 18:50:31  5-MIN KMSN 280050Z 00000KT 10SM SCT070 SCT110 22/14 A2985 930 61 2000 000/00 RMK AO2 SLP103 T02220144
14837KMSN MSN20030627185510306/27/03 18:55:31  5-MIN KMSN 280055Z 00000KT 10SM FEW070 SCT120 22/15 A2985 930 65 2000 000/00 RMK AO2
14837KMSN MSN20030627190010306/27/03 19:00:31  5-MIN KMSN 280100Z 00000KT 10SM FEW070 SCT120 21/16 A2985 930 73 1800 000/00 RMK AO2
14837KMSN MSN20030627190509606/27/03 19:05:31  5-MIN KMSN 280105Z 00000KT 10SM SCT120 21/15 A2985 920 70 1800 000/00 RMK AO2
14837KMSN MSN20030627191009606/27/03 19:10:31  5-MIN KMSN 280110Z 00000KT 10SM SCT120 21/15 A2985 930 70 1800 000/00 RMK AO2
14837KMSN MSN20030627191509606/27/03 19:15:31  5-MIN KMSN 280115Z 00000KT 10SM SCT120 21/14 A2985 930 65 1900 000/00 RMK AO2
14837KMSN MSN20030627192009606/27/03 19:20:31  5-MIN KMSN 280120Z 00000KT 10SM SCT120 21/15 A2985 930 70 1800 000/00 RMK AO2
14837KMSN MSN20030627192509606/27/03 19:25:31  5-MIN KMSN 280125Z 00000KT 10SM SCT120 20/15 A2986 920 72 1800 000/00 RMK AO2
14837KMSN MSN20030627193009606/27/03 19:30:31  5-MIN KMSN 280130Z 00000KT 10SM SCT120 20/15 A2986 920 72 1800 000/00 RMK AO2
14837KMSN MSN20030627193509606/27/03 19:35:31  5-MIN KMSN 280135Z 00000KT 10SM SCT120 19/14 A2986 920 72 1700 000/00 RMK AO2
14837KMSN MSN20030627194009606/27/03 19:40:31  5-MIN KMSN 280140Z 00000KT 10SM SCT120 19/15 A2987 910 78 1600 000/00 RMK AO2
14837KMSN MSN20030627194509606/27/03 19:45:31  5-MIN KMSN 280145Z 00000KT 10SM SCT085 19/14 A2986 920 72 1700 000/00 RMK AO2
14837KMSN MSN20030627195012106/27/03 19:50:31  5-MIN KMSN 280150Z 00000KT 10SM SCT085 20/14 A2987 910 70 1700 000/00 RMK AO2 SLP110 VIRGA E T02000144
14837KMSN MSN20030627195509606/27/03 19:55:31  5-MIN KMSN 280155Z 00000KT 10SM BKN085 19/14 A2987 910 72 1700 000/00 RMK AO2
14837KMSN MSN20030627200009606/27/03 20:00:31  5-MIN KMSN 280200Z 01004KT 10SM BKN085 19/14 A2987 910 72 1700 010/04 RMK AO2
14837KMSN MSN20030627200509606/27/03 20:05:31  5-MIN KMSN 280205Z 06003KT 10SM BKN085 20/15 A2987 910 72 1700 060/03 RMK AO2
14837KMSN MSN20030627201009606/27/03 20:10:31  5-MIN KMSN 280210Z 04003KT 10SM BKN085 20/14 A2987 910 70 1700 040/03 RMK AO2
14837KMSN MSN20030627201509606/27/03 20:15:31  5-MIN KMSN 280215Z 05003KT 10SM BKN085 20/14 A2987 910 70 1700 050/03 RMK AO2
14837KMSN MSN20030627202009606/27/03 20:20:31  5-MIN KMSN 280220Z 00000KT 10SM BKN085 20/14 A2987 910 70 1700 000/00 RMK AO2
14837KMSN MSN20030627202509606/27/03 20:25:31  5-MIN KMSN 280225Z 00000KT 10SM BKN085 19/14 A2987 910 72 1700 000/00 RMK AO2
14837KMSN MSN20030627203009606/27/03 20:30:31  5-MIN KMSN 280230Z 00000KT 10SM BKN085 19/14 A2987 910 75 1600 000/00 RMK AO2
14837KMSN MSN20030627203509606/27/03 20:35:31  5-MIN KMSN 280235Z 00000KT 10SM BKN085 18/14 A2988 910 78 1500 000/00 RMK AO2
14837KMSN MSN20030627204009606/27/03 20:40:31  5-MIN KMSN 280240Z 00000KT 10SM BKN080 19/15 A2988 900 78 1600 000/00 RMK AO2
14837KMSN MSN20030627204509606/27/03 20:45:31  5-MIN KMSN 280245Z 00000KT 10SM BKN080 20/15 A2988 900 72 1700 000/00 RMK AO2
14837KMSN MSN20030627205012606/27/03 20:50:31  5-MIN KMSN 280250Z 00000KT 10SM BKN080 BKN100 20/15 A2988 900 72 1700 000/00 RMK AO2 SLP113 T02000150 56007
14837KMSN MSN20030627205510306/27/03 20:55:31  5-MIN KMSN 280255Z 00000KT 10SM SCT080 BKN100 20/15 A2988 900 72 1700 000/00 RMK AO2
14837KMSN MSN20030627210010306/27/03 21:00:31  5-MIN KMSN 280300Z 00000KT 10SM FEW080 SCT095 19/15 A2988 900 78 1600 000/00 RMK AO2
14837KMSN MSN20030627210510306/27/03 21:05:31  5-MIN KMSN 280305Z 00000KT 10SM SCT080 SCT100 18/15 A2988 900 81 1500 000/00 RMK AO2
14837KMSN MSN20030627211010306/27/03 21:10:31  5-MIN KMSN 280310Z 00000KT 10SM SCT075 SCT100 18/15 A2988 900 81 1500 000/00 RMK AO2
14837KMSN MSN20030627211509606/27/03 21:15:31  5-MIN KMSN 280315Z 00000KT 10SM SCT075 19/15 A2988 900 78 1600 000/00 RMK AO2
14837KMSN MSN20030627212009606/27/03 21:20:31  5-MIN KMSN 280320Z 00000KT 10SM SCT075 18/15 A2989 900 81 1500 000/00 RMK AO2
14837KMSN MSN20030627212509606/27/03 21:25:31  5-MIN KMSN 280325Z 00000KT 10SM SCT075 18/15 A2989 890 83 1500 000/00 RMK AO2
14837KMSN MSN20030627213010306/27/03 21:30:31  5-MIN KMSN 280330Z 00000KT 10SM SCT075 SCT095 17/15 A2989 900 87 1400 000/00 RMK AO2
14837KMSN MSN20030627213510306/27/03 21:35:31  5-MIN KMSN 280335Z 33003KT 10SM SCT075 BKN090 18/15 A2989 890 83 1500 330/03 RMK AO2
14837KMSN MSN20030627214010306/27/03 21:40:31  5-MIN KMSN 280340Z 35003KT 10SM BKN075 BKN095 17/15 A2989 900 87 1400 350/03 RMK AO2
14837KMSN MSN20030627214510306/27/03 21:45:31  5-MIN KMSN 280345Z 00000KT 10SM SCT070 BKN090 18/15 A2989 890 81 1500 000/00 RMK AO2
14837KMSN MSN20030627215012006/27/03 21:50:31  5-MIN KMSN 280350Z 00000KT 10SM SCT075 BKN095 18/15 A2989 900 83 1500 000/00 RMK AO2 SLP117 T01780150
14837KMSN MSN20030627215510306/27/03 21:55:31  5-MIN KMSN 280355Z 00000KT 10SM SCT070 BKN090 18/15 A2989 900 83 1500 000/00 RMK AO2
14837KMSN MSN20030627220010306/27/03 22:00:31  5-MIN KMSN 280400Z 00000KT 10SM SCT075 BKN090 18/15 A2988 900 83 1500 000/00 RMK AO2
14837KMSN MSN20030627220510306/27/03 22:05:31  5-MIN KMSN 280405Z 01004KT 10SM FEW075 SCT095 18/15 A2988 900 81 1500 010/04 RMK AO2
14837KMSN MSN20030627221010306/27/03 22:10:31  5-MIN KMSN 280410Z 02003KT 10SM FEW080 SCT095 18/15 A2989 900 83 1500 010/03 RMK AO2
14837KMSN MSN20030627221509606/27/03 22:15:31  5-MIN KMSN 280415Z 00000KT 10SM FEW080 17/15 A2989 900 87 1400 000/00 RMK AO2
14837KMSN MSN20030627222009606/27/03 22:20:31  5-MIN KMSN 280420Z 00000KT 10SM FEW090 17/15 A2989 900 87 1400 000/00 RMK AO2
14837KMSN MSN20030627222509306/27/03 22:25:31  5-MIN KMSN 280425Z 00000KT 10SM CLR 17/15 A2989 900 87 1400 000/00 RMK AO2
14837KMSN MSN20030627223009306/27/03 22:30:31  5-MIN KMSN 280430Z 35004KT 10SM CLR 18/15 A2989 900 83 1500 350/04 RMK AO2
14837KMSN MSN20030627223509306/27/03 22:35:31  5-MIN KMSN 280435Z 33004KT 10SM CLR 17/15 A2989 890 87 1400 330/04 RMK AO2
14837KMSN MSN20030627224009306/27/03 22:40:31  5-MIN KMSN 280440Z 34004KT 10SM CLR 17/15 A2989 890 87 1400 340/04 RMK AO2
14837KMSN MSN20030627224509306/27/03 22:45:31  5-MIN KMSN 280445Z 36007KT 10SM CLR 18/15 A2989 890 83 1500 360/07 RMK AO2
14837KMSN MSN20030627225011006/27/03 22:50:31  5-MIN KMSN 280450Z 36007KT 10SM CLR 17/15 A2989 890 87 1400 360/07 RMK AO2 SLP118 T01720150
14837KMSN MSN20030627225509306/27/03 22:55:31  5-MIN KMSN 280455Z 33004KT 10SM CLR 17/15 A2989 890 87 1400 330/04 RMK AO2
14837KMSN MSN20030627230009606/27/03 23:00:31  5-MIN KMSN 280500Z 33005KT 10SM FEW100 18/15 A2990 890 83 1500 330/05 RMK AO2
14837KMSN MSN20030627230509606/27/03 23:05:31  5-MIN KMSN 280505Z 34006KT 10SM FEW100 18/15 A2990 880 83 1500 340/06 RMK AO2
14837KMSN MSN20030627231009606/27/03 23:10:31  5-MIN KMSN 280510Z 35007KT 10SM FEW090 18/14 A2990 880 81 1500 350/07 RMK AO2
14837KMSN MSN20030627231509606/27/03 23:15:31  5-MIN KMSN 280515Z 34006KT 10SM SCT090 18/14 A2991 880 81 1400 340/06 RMK AO2
14837KMSN MSN20030627232009606/27/03 23:20:31  5-MIN KMSN 280520Z 34007KT 10SM SCT090 18/14 A2991 870 78 1400 340/07 RMK AO2
14837KMSN MSN20030627232509606/27/03 23:25:31  5-MIN KMSN 280525Z 34007KT 10SM SCT090 18/14 A2991 870 78 1400 340/07 RMK AO2
14837KMSN MSN20030627233010306/27/03 23:30:31  5-MIN KMSN 280530Z 32008KT 10SM SCT080 18/14 A2993 860 75 1500 320/08 RMK AO2 PRESRR
14837KMSN MSN20030627233510306/27/03 23:35:31  5-MIN KMSN 280535Z 28010KT 10SM SCT080 18/14 A2996 830 75 1500 280/10 RMK AO2 PRESRR
14837KMSN MSN20030627234013806/27/03 23:40:31  5-MIN KMSN 280540Z 28012G20KT 7SM -RA FEW030 SCT043 BKN075 18/14 A2997 820 75 1400 280/12G20 RMK AO2 RAB38 PRESRR P0001
14837KMSN MSN20030627234513006/27/03 23:45:31  5-MIN KMSN 280545Z 31012G20KT 5SM RA FEW032 BKN046 OVC065 18/14 A2996 830 81 1400 310/12G20 RMK AO2 RAB38 P0002
14837KMSN MSN20030627235018206/27/03 23:50:31  5-MIN KMSN 280550Z 34010G17KT 4SM +RA FEW028 BKN046 OVC055 17/14 A2995 840 83 1300 340/10G17 RMK AO2 RAB38 SLP137 P0005 60005 T01720144 10233 20167 402720156 53013
14837KMSN MSN20030627235514806/27/03 23:55:31  5-MIN KMSN 280555Z 31008G17KT 280V340 2 1/2SM +RA BR SCT024 BKN044 OVC075 17/14 A2995 830 86 1300 300/08G17 280V340 RMK AO2 P0001
14837KMSN MSN20030628000012106/28/03 00:00:31  5-MIN KMSN 280600Z 32009KT 3SM RA BR FEW024 BKN047 OVC065 16/14 A2996 830 90 1200 310/09 RMK AO2 P0002
14837KMSN MSN20030628000512106/28/03 00:05:31  5-MIN KMSN 280605Z 36010KT 4SM RA BR SCT034 BKN047 OVC065 16/14 A2994 850 90 1200 360/10 RMK AO2 P0002
14837KMSN MSN20030628001012206/28/03 00:10:31  5-MIN KMSN 280610Z 31006KT 5SM -RA BR SCT034 BKN047 OVC090 16/14 A2995 840 90 1100 310/06 RMK AO2 P0003
14837KMSN MSN20030628001512206/28/03 00:15:31  5-MIN KMSN 280615Z 30005KT 5SM -RA BR SCT032 BKN070 OVC085 16/14 A2995 830 93 1100 300/05 RMK AO2 P0004
14837KMSN MSN20030628002012206/28/03 00:20:31  5-MIN KMSN 280620Z 28005KT 5SM -RA BR SCT036 BKN065 OVC085 16/14 A2995 830 93 1100 280/05 RMK AO2 P0005
14837KMSN MSN20030628002512106/28/03 00:25:31  5-MIN KMSN 280625Z VRB04KT 4SM RA BR BKN040 BKN060 OVC090 16/14 A2994 840 93 1100 VRB/04 RMK AO2 P0006
14837KMSN MSN20030628003012106/28/03 00:30:31  5-MIN KMSN 280630Z 35006KT 4SM RA BR BKN036 OVC085 16/14 A2993 860 93 1200 340/06 RMK AO2 PRESFR P0007
14837KMSN MSN20030628003512206/28/03 00:35:31  5-MIN KMSN 280635Z 01005KT 5SM -RA BR BKN036 OVC085 16/14 A2992 860 93 1200 360/05 RMK AO2 PRESFR P0008
14837KMSN MSN20030628004011506/28/03 00:40:31  5-MIN KMSN 280640Z 23005KT 5SM -RA BR BKN040 OVC080 16/14 A2994 840 93 1100 230/05 RMK AO2 P0008
14837KMSN MSN20030628004511506/28/03 00:45:31  5-MIN KMSN 280645Z VRB04KT 5SM -RA BR BKN042 OVC080 16/14 A2994 850 93 1200 VRB/04 RMK AO2 P0009
14837KMSN MSN20030628005013206/28/03 00:50:31  5-MIN KMSN 280650Z VRB04KT 5SM -RA BR BKN046 OVC080 16/14 A2993 850 93 1200 VRB/04 RMK AO2 SLP132 P0009 T01560144
14837KMSN MSN20030628005511506/28/03 00:55:31  5-MIN KMSN 280655Z 21003KT 6SM -RA BR BKN049 OVC095 16/14 A2993 850 93 1200 210/03 RMK AO2 P0001
14837KMSN MSN20030628010011506/28/03 01:00:31  5-MIN KMSN 280700Z 00000KT 6SM -RA BR BKN049 OVC095 16/14 A2993 860 93 1200 000/00 RMK AO2 P0001
14837KMSN MSN20030628010511906/28/03 01:05:31  5-MIN KMSN 280705Z 05003KT 7SM -RA SCT060 OVC095 16/14 A2991 880 93 1200 050/03 RMK AO2 PRESFR P0001
14837KMSN MSN20030628011011906/28/03 01:10:31  5-MIN KMSN 280710Z 06006KT 8SM -RA BKN060 OVC095 16/14 A2990 880 93 1200 060/06 RMK AO2 PRESFR P0001
14837KMSN MSN20030628011511906/28/03 01:15:31  5-MIN KMSN 280715Z 07007KT 8SM -RA SCT065 OVC100 16/15 A2989 890 96 1200 070/07 RMK AO2 PRESFR P0001
14837KMSN MSN20030628012012106/28/03 01:20:31  5-MIN KMSN 280720Z 06006KT 8SM FEW070 OVC100 16/15 A2989 900 96 1200 060/06 RMK AO2 RAE18 PRESFR P0001
14837KMSN MSN20030628012512106/28/03 01:25:31  5-MIN KMSN 280725Z 06006KT 9SM FEW075 OVC100 16/15 A2988 900 96 1200 060/06 RMK AO2 RAE18 PRESFR P0001
14837KMSN MSN20030628013011406/28/03 01:30:31  5-MIN KMSN 280730Z 06006KT 9SM FEW070 OVC100 16/14 A2988 900 93 1200 060/06 RMK AO2 RAE18 P0001
14837KMSN MSN20030628013511406/28/03 01:35:31  5-MIN KMSN 280735Z 07006KT 9SM FEW070 BKN100 16/14 A2987 910 93 1200 070/06 RMK AO2 RAE18 P0001
14837KMSN MSN20030628014011406/28/03 01:40:31  5-MIN KMSN 280740Z 06007KT 9SM OVC100 16/15 A2986 920 96 1200 050/07 RMK AO2 RAE18 PRESFR P0001
14837KMSN MSN20030628014510706/28/03 01:45:31  5-MIN KMSN 280745Z 05007KT 8SM OVC100 16/15 A2986 920 96 1200 050/07 RMK AO2 RAE18 P0001
14837KMSN MSN20030628015012406/28/03 01:50:31  5-MIN KMSN 280750Z 04007KT 7SM OVC100 16/15 A2986 920 96 1200 040/07 RMK AO2 RAE18 SLP108 P0001 T01560150
14837KMSN MSN20030628015509506/28/03 01:55:31  5-MIN KMSN 280755Z 04006KT 7SM OVC100 16/15 A2987 910 96 1200 040/06 RMK AO2
14837KMSN MSN20030628020009506/28/03 02:00:31  5-MIN KMSN 280800Z 03005KT 8SM OVC100 16/15 A2987 910 96 1200 030/05 RMK AO2
14837KMSN MSN20030628020509506/28/03 02:05:31  5-MIN KMSN 280805Z 04004KT 9SM OVC100 16/15 A2987 910 96 1200 040/04 RMK AO2
14837KMSN MSN20030628021009606/28/03 02:10:31  5-MIN KMSN 280810Z 04004KT 10SM OVC100 16/15 A2988 900 96 1200 040/04 RMK AO2
14837KMSN MSN20030628021509606/28/03 02:15:31  5-MIN KMSN 280815Z 08004KT 10SM OVC100 16/15 A2987 910 93 1300 080/04 RMK AO2
14837KMSN MSN20030628022009506/28/03 02:20:31  5-MIN KMSN 280820Z 10006KT 9SM OVC100 16/15 A2987 910 93 1300 100/06 RMK AO2
14837KMSN MSN20030628022510206/28/03 02:25:31  5-MIN KMSN 280825Z 11005KT 9SM BKN100 OVC120 16/15 A2987 910 93 1300 110/05 RMK AO2
14837KMSN MSN20030628023010206/28/03 02:30:31  5-MIN KMSN 280830Z 11005KT 9SM BKN100 OVC120 16/15 A2987 910 96 1200 110/05 RMK AO2
14837KMSN MSN20030628023509506/28/03 02:35:31  5-MIN KMSN 280835Z 12004KT 9SM OVC100 16/15 A2987 910 96 1200 120/04 RMK AO2
14837KMSN MSN20030628024010306/28/03 02:40:31  5-MIN KMSN 280840Z 00000KT 10SM BKN095 OVC110 16/15 A2988 900 93 1300 000/00 RMK AO2
14837KMSN MSN20030628024510306/28/03 02:45:31  5-MIN KMSN 280845Z 11003KT 10SM BKN090 OVC110 16/15 A2988 900 93 1300 110/03 RMK AO2
14837KMSN MSN20030628025012506/28/03 02:50:31  5-MIN KMSN 280850Z 12003KT 10SM OVC095 16/14 A2988 900 90 1300 110/03 RMK AO2 SLP114 60010 T01610144 53022
14837KMSN MSN20030628025510306/28/03 02:55:31  5-MIN KMSN 280855Z 14003KT 10SM SCT075 OVC100 16/15 A2989 900 93 1300 140/03 RMK AO2
14837KMSN MSN20030628030010206/28/03 03:00:31  5-MIN KMSN 280900Z 00000KT 9SM SCT070 OVC090 16/15 A2989 890 93 1300 000/00 RMK AO2
14837KMSN MSN20030628030512806/28/03 03:05:31  5-MIN KMSN 280905Z 00000KT 5SM -RA BR FEW044 SCT070 OVC085 16/15 A2988 900 96 1200 000/00 RMK AO2 RAB01 P0001
14837KMSN MSN20030628031012806/28/03 03:10:31  5-MIN KMSN 280910Z 06004KT 5SM -RA BR FEW042 BKN090 OVC100 16/15 A2988 900 96 1200 060/04 RMK AO2 RAB01 P0001
14837KMSN MSN20030628031512506/28/03 03:15:31  5-MIN KMSN 280915Z 00000KT 9SM -RA FEW044 SCT075 OVC100 16/15 A2989 890 93 1300 000/00 RMK AO2 RAB01 P0001
14837KMSN MSN20030628032012506/28/03 03:20:31  5-MIN KMSN 280920Z 00000KT 10SM FEW044 BKN090 OVC100 16/15 A2989 890 93 1300 000/00 RMK AO2 RAB01E18 P0001
14837KMSN MSN20030628032512406/28/03 03:25:31  5-MIN KMSN 280925Z 00000KT 7SM FEW048 BKN070 OVC110 16/15 A2989 890 96 1200 000/00 RMK AO2 RAB01E18 P0001
14837KMSN MSN20030628033012806/28/03 03:30:31  5-MIN KMSN 280930Z 00000KT 6SM -RA BR FEW048 SCT070 OVC100 16/15 A2989 890 96 1200 000/00 RMK AO2 RAB01 P0001
14837KMSN MSN20030628033511806/28/03 03:35:31  5-MIN KMSN 280935Z 11004KT 7SM -RA SCT075 OVC100 16/15 A2989 890 96 1200 110/04 RMK AO2 RAB01 P0002
14837KMSN MSN20030628034011806/28/03 03:40:31  5-MIN KMSN 280940Z 10005KT 9SM -RA FEW070 OVC095 16/15 A2988 900 96 1200 100/05 RMK AO2 RAB01 P0002
14837KMSN MSN20030628034511806/28/03 03:45:31  5-MIN KMSN 280945Z 09007KT 9SM -RA SCT075 OVC100 16/15 A2988 910 93 1300 090/07 RMK AO2 RAB01 P0002
14837KMSN MSN20030628035013506/28/03 03:50:31  5-MIN KMSN 280950Z 07006KT 8SM -RA BKN065 OVC100 16/15 A2987 910 93 1300 070/06 RMK AO2 RAB01 SLP112 P0002 T01610150
14837KMSN MSN20030628035511206/28/03 03:55:31  5-MIN KMSN 280955Z 09005KT 7SM -RA BKN065 OVC100 16/15 A2988 910 93 1300 090/05 RMK AO2 P0000
14837KMSN MSN20030628040011206/28/03 04:00:31  5-MIN KMSN 281000Z 07004KT 7SM -RA BKN070 OVC100 16/15 A2987 910 96 1200 070/04 RMK AO2 P0000
14837KMSN MSN20030628040511206/28/03 04:05:31  5-MIN KMSN 281005Z 09006KT 9SM -RA BKN065 OVC100 16/15 A2987 910 96 1200 090/06 RMK AO2 P0000
14837KMSN MSN20030628041011206/28/03 04:10:31  5-MIN KMSN 281010Z 10007KT 9SM -RA BKN065 OVC100 16/15 A2987 910 93 1300 100/07 RMK AO2 P0001
14837KMSN MSN20030628041511206/28/03 04:15:31  5-MIN KMSN 281015Z 12004KT 9SM -RA SCT065 OVC095 16/15 A2988 900 96 1200 120/04 RMK AO2 P0001
14837KMSN MSN20030628042011206/28/03 04:20:31  5-MIN KMSN 281020Z 10005KT 8SM -RA SCT060 OVC095 16/15 A2988 900 93 1300 100/05 RMK AO2 P0001
14837KMSN MSN20030628042511906/28/03 04:25:31  5-MIN KMSN 281025Z 08008KT 7SM -RA SCT050 SCT065 OVC095 16/15 A2987 910 93 1300 080/08 RMK AO2 P0001
14837KMSN MSN20030628043011906/28/03 04:30:31  5-MIN KMSN 281030Z 09006KT 7SM -RA SCT044 SCT070 OVC090 16/15 A2987 910 93 1300 090/06 RMK AO2 P0002
14837KMSN MSN20030628043511906/28/03 04:35:31  5-MIN KMSN 281035Z 10008KT 7SM -RA SCT049 SCT070 OVC090 16/15 A2987 910 93 1300 100/08 RMK AO2 P0002
14837KMSN MSN20030628044012206/28/03 04:40:31  5-MIN KMSN 281040Z 11006KT 6SM -RA BR SCT043 SCT070 OVC090 16/14 A2987 910 90 1300 100/06 RMK AO2 P0002
14837KMSN MSN20030628044511906/28/03 04:45:31  5-MIN KMSN 281045Z 10006KT 7SM -RA SCT037 BKN070 OVC090 16/14 A2987 910 90 1300 100/06 RMK AO2 P0002
14837KMSN MSN20030628045013606/28/03 04:50:31  5-MIN KMSN 281050Z 11005KT 8SM -RA FEW037 BKN070 OVC090 16/14 A2987 910 90 1300 110/05 RMK AO2 SLP110 P0002 T01610144
14837KMSN MSN20030628045512106/28/03 04:55:31  5-MIN KMSN 281055Z 09003KT 9SM FEW040 BKN065 OVC090 16/14 A2987 910 90 1300 090/03 RMK AO2 RAE55 P0000
14837KMSN MSN20030628050011906/28/03 05:00:31  5-MIN KMSN 281100Z VRB03KT 8SM -RA FEW041 BKN065 OVC090 16/14 A2987 910 90 1300 VRB/03 RMK AO2 P0001
14837KMSN MSN20030628050511906/28/03 05:05:31  5-MIN KMSN 281105Z 12003KT 8SM -RA FEW032 BKN065 OVC090 16/14 A2987 910 90 1300 120/03 RMK AO2 P0001
14837KMSN MSN20030628051011206/28/03 05:10:31  5-MIN KMSN 281110Z 16005KT 8SM -RA BKN065 OVC090 16/14 A2988 900 90 1300 160/05 RMK AO2 P0001
14837KMSN MSN20030628051510806/28/03 05:15:31  5-MIN KMSN 281115Z 16005KT 6SM -RA BR OVC060 16/14 A2989 900 90 1300 150/05 RMK AO2 P0001
14837KMSN MSN20030628052011506/28/03 05:20:31  5-MIN KMSN 281120Z 21008KT 4SM -RA BR OVC060 16/14 A2991 880 90 1300 210/08 RMK AO2 PRESRR P0001
14837KMSN MSN20030628052512106/28/03 05:25:31  5-MIN KMSN 281125Z 22008KT 2SM RA BR FEW019 OVC060 16/14 A2992 870 90 1200 220/08 RMK AO2 PRESRR P0004
14837KMSN MSN20030628053013206/28/03 05:30:31  5-MIN KMSN 281130Z 19007KT 1SM +RA BR SCT020 SCT050 OVC060 16/15 A2991 880 93 1200 190/07 RMK AO2 TWR VIS 2 P0007
14837KMSN MSN20030628053513106/28/03 05:35:31  5-MIN KMSN 281135Z 19007KT 2SM RA BR BKN022 BKN050 OVC060 16/15 A2990 880 93 1300 190/07 RMK AO2 TWR VIS 3 P0009
14837KMSN MSN20030628054013506/28/03 05:40:31  5-MIN KMSN 281140Z 17005KT 2 1/2SM RA BR BKN022 BKN050 OVC060 16/15 A2990 880 93 1300 170/05 RMK AO2 TWR VIS 3 P0010
14837KMSN MSN20030628054512206/28/03 05:45:31  5-MIN KMSN 281145Z 15005KT 3SM -RA BR BKN022 BKN050 OVC060 16/15 A2989 890 93 1300 150/05 RMK AO2 P0011
14837KMSN MSN20030628055017206/28/03 05:50:31  5-MIN KMSN 281150Z 12006KT 3SM -RA BR BKN024 OVC050 16/15 A2989 890 93 1300 120/06 RMK AO2 SFC VIS 4 SLP118 P0012 60026 70033 T01610150 10167 20156 55020
14837KMSN MSN20030628055511506/28/03 05:55:31  5-MIN KMSN 281155Z 10007KT 4SM -RA BR BKN024 OVC036 16/14 A2988 900 90 1300 100/07 RMK AO2 P0001
14837KMSN MSN20030628060011506/28/03 06:00:31  5-MIN KMSN 281200Z VRB03KT 5SM -RA BR BKN027 OVC090 16/14 A2989 890 90 1300 VRB/03 RMK AO2 P0001
14837KMSN MSN20030628060512206/28/03 06:05:31  5-MIN KMSN 281205Z 00000KT 6SM -RA BR BKN031 BKN043 OVC090 16/15 A2989 890 93 1300 000/00 RMK AO2 P0001
14837KMSN MSN20030628061012206/28/03 06:10:31  5-MIN KMSN 281210Z 00000KT 5SM -RA BR BKN033 BKN043 OVC090 16/15 A2990 880 93 1300 000/00 RMK AO2 P0001
14837KMSN MSN20030628061512206/28/03 06:15:31  5-MIN KMSN 281215Z 25004KT 4SM -RA BR FEW008 BKN033 OVC090 16/15 A2991 880 96 1200 250/04 RMK AO2 P0001
14837KMSN MSN20030628062012206/28/03 06:20:31  5-MIN KMSN 281220Z 23005KT 4SM -RA BR SCT008 BKN035 OVC070 16/15 A2991 880 93 1300 230/05 RMK AO2 P0001
14837KMSN MSN20030628062512206/28/03 06:25:31  5-MIN KMSN 281225Z 24003KT 4SM -RA BR SCT010 BKN037 OVC070 16/15 A2990 880 93 1300 230/03 RMK AO2 P0002
14837KMSN MSN20030628063012206/28/03 06:30:31  5-MIN KMSN 281230Z 00000KT 4SM -RA BR FEW010 BKN035 OVC045 16/14 A2990 880 90 1300 000/00 RMK AO2 P0002
14837KMSN MSN20030628063512206/28/03 06:35:31  5-MIN KMSN 281235Z 00000KT 5SM -RA BR FEW010 BKN033 OVC043 16/14 A2990 880 90 1300 000/00 RMK AO2 P0002
14837KMSN MSN20030628064012206/28/03 06:40:31  5-MIN KMSN 281240Z 00000KT 5SM -RA BR FEW010 BKN033 OVC095 16/15 A2990 890 93 1300 000/00 RMK AO2 P0002
14837KMSN MSN20030628064512206/28/03 06:45:31  5-MIN KMSN 281245Z 03003KT 5SM -RA BR FEW010 BKN040 OVC090 16/15 A2989 890 93 1300 030/03 RMK AO2 P0002
14837KMSN MSN20030628065013906/28/03 06:50:31  5-MIN KMSN 281250Z 06004KT 5SM -RA BR SCT032 SCT040 OVC090 16/15 A2989 890 93 1300 050/04 RMK AO2 SLP119 P0003 T01610150
14837KMSN MSN20030628065512206/28/03 06:55:31  5-MIN KMSN 281255Z 06004KT 5SM -RA BR FEW032 SCT040 OVC090 16/14 A2989 890 90 1300 060/04 RMK AO2 P0000
14837KMSN MSN20030628070012206/28/03 07:00:31  5-MIN KMSN 281300Z 09003KT 5SM -RA BR FEW034 SCT042 OVC090 16/15 A2989 890 93 1300 090/03 RMK AO2 P0000
14837KMSN MSN20030628070511506/28/03 07:05:31  5-MIN KMSN 281305Z 09004KT 4SM -RA BR SCT034 OVC090 16/15 A2990 890 93 1300 090/04 RMK AO2 P0001
14837KMSN MSN20030628071011406/28/03 07:10:31  5-MIN KMSN 281310Z 14004KT 4SM RA BR BKN030 OVC085 16/15 A2991 880 93 1300 140/04 RMK AO2 P0002
14837KMSN MSN20030628071511506/28/03 07:15:31  5-MIN KMSN 281315Z 13003KT 4SM -RA BR BKN028 OVC085 16/15 A2990 880 93 1300 130/03 RMK AO2 P0003
14837KMSN MSN20030628072011506/28/03 07:20:31  5-MIN KMSN 281320Z 16005KT 4SM -RA BR BKN026 OVC085 16/15 A2991 880 93 1200 160/05 RMK AO2 P0003
14837KMSN MSN20030628072511506/28/03 07:25:31  5-MIN KMSN 281325Z 17005KT 4SM -RA BR BKN026 OVC043 16/15 A2991 870 93 1200 170/05 RMK AO2 P0004
14837KMSN MSN20030628073011506/28/03 07:30:31  5-MIN KMSN 281330Z 17005KT 5SM -RA BR BKN026 OVC043 16/15 A2991 870 93 1200 170/05 RMK AO2 P0004
14837KMSN MSN20030628073511506/28/03 07:35:31  5-MIN KMSN 281335Z 16005KT 5SM -RA BR BKN026 OVC043 16/15 A2991 880 93 1300 160/05 RMK AO2 P0005
14837KMSN MSN20030628074011506/28/03 07:40:31  5-MIN KMSN 281340Z 15004KT 5SM -RA BR BKN026 OVC043 16/15 A2991 880 93 1300 150/04 RMK AO2 P0005
14837KMSN MSN20030628074511506/28/03 07:45:31  5-MIN KMSN 281345Z 12003KT 5SM -RA BR BKN026 OVC043 16/15 A2990 890 93 1300 120/03 RMK AO2 P0006
14837KMSN MSN20030628075013906/28/03 07:50:31  5-MIN KMSN 281350Z 13006KT 5SM -RA BR BKN026 BKN042 OVC085 16/14 A2990 880 90 1300 130/06 RMK AO2 SLP123 P0006 T01610144
14837KMSN MSN20030628075512206/28/03 07:55:31  5-MIN KMSN 281355Z 13005KT 5SM -RA BR BKN024 BKN043 OVC070 16/14 A2990 890 90 1300 130/05 RMK AO2 P0001
14837KMSN MSN20030628080011506/28/03 08:00:31  5-MIN KMSN 281400Z 12007KT 5SM -RA BR BKN024 OVC070 16/15 A2989 890 93 1300 120/07 RMK AO2 P0001
14837KMSN MSN20030628080511506/28/03 08:05:31  5-MIN KMSN 281405Z 12006KT 5SM -RA BR BKN024 OVC070 16/15 A2989 900 93 1300 120/06 RMK AO2 P0002
14837KMSN MSN20030628081011506/28/03 08:10:31  5-MIN KMSN 281410Z 12008KT 4SM -RA BR BKN022 OVC070 16/15 A2988 900 93 1300 120/08 RMK AO2 P0002
14837KMSN MSN20030628081511506/28/03 08:15:31  5-MIN KMSN 281415Z 10007KT 5SM -RA BR BKN024 OVC070 16/15 A2988 900 93 1300 100/07 RMK AO2 P0002
14837KMSN MSN20030628082011506/28/03 08:20:31  5-MIN KMSN 281420Z 11004KT 4SM -RA BR BKN026 OVC065 16/14 A2988 900 93 1200 110/04 RMK AO2 P0003
14837KMSN MSN20030628082511406/28/03 08:25:31  5-MIN KMSN 281425Z 12006KT 4SM RA BR BKN026 OVC065 16/15 A2989 900 93 1300 120/06 RMK AO2 P0004
14837KMSN MSN20030628083012206/28/03 08:30:31  5-MIN KMSN 281430Z 11006KT 4SM -RA BR FEW007 BKN026 OVC060 16/14 A2989 890 93 1200 110/06 RMK AO2 P0005
14837KMSN MSN20030628083512106/28/03 08:35:31  5-MIN KMSN 281435Z 14004KT 4SM RA BR SCT007 BKN026 OVC060 16/14 A2989 890 93 1200 140/04 RMK AO2 P0007
14837KMSN MSN20030628084012106/28/03 08:40:31  5-MIN KMSN 281440Z VRB03KT 4SM RA BR SCT007 BKN026 OVC060 16/14 A2990 880 90 1300 VRB/03 RMK AO2 P0008
14837KMSN MSN20030628084512106/28/03 08:45:31  5-MIN KMSN 281445Z 17003KT 2SM RA BR SCT007 BKN026 OVC060 16/14 A2990 880 93 1200 170/03 RMK AO2 P0013
14837KMSN MSN20030628085015106/28/03 08:50:31  5-MIN KMSN 281450Z 16004KT 2SM +RA BR SCT007 BKN017 OVC055 16/14 A2990 880 93 1200 160/04 RMK AO2 SLP124 P0016 60025 T01560144 55000
14837KMSN MSN20030628085512206/28/03 08:55:31  5-MIN KMSN 281455Z 18005KT 2SM +RA BR BKN007 BKN015 OVC055 16/14 A2991 880 93 1200 180/05 RMK AO2 P0001
14837KMSN MSN20030628090012206/28/03 09:00:31  5-MIN KMSN 281500Z 21005KT 2SM +RA BR BKN007 BKN015 OVC055 16/14 A2991 870 93 1200 210/05 RMK AO2 P0007
14837KMSN MSN20030628090513606/28/03 09:05:31  5-MIN KMSN 281505Z 20005KT 1 1/2SM +RA BR BKN007 BKN015 OVC055 16/14 A2991 880 93 1200 200/05 RMK AO2 TWR VIS 2 P0017
14837KMSN MSN20030628091013606/28/03 09:10:31  5-MIN KMSN 281510Z 16008KT 1 1/2SM +RA BR BKN007 BKN015 OVC055 16/14 A2990 880 93 1200 160/08 RMK AO2 TWR VIS 2 P0024
14837KMSN MSN20030628091513606/28/03 09:15:31  5-MIN KMSN 281515Z 14006KT 1 1/2SM +RA BR BKN007 BKN013 OVC036 16/14 A2990 880 93 1200 140/06 RMK AO2 TWR VIS 2 P0027
14837KMSN MSN20030628092012106/28/03 09:20:31  5-MIN KMSN 281520Z 17007KT 2SM RA BR BKN007 BKN013 OVC036 16/15 A2990 880 96 1200 160/07 RMK AO2 P0029
14837KMSN MSN20030628092513506/28/03 09:25:31  5-MIN KMSN 281525Z 18005KT 2SM RA BR SCT009 BKN016 OVC036 16/15 A2990 880 96 1200 180/05 RMK AO2 SFC VIS 2 1/2 P0030
14837KMSN MSN20030628093013106/28/03 09:30:31  5-MIN KMSN 281530Z 15005KT 2SM RA BR SCT009 BKN016 OVC036 16/15 A2990 880 96 1200 150/05 RMK AO2 SFC VIS 3 P0031
14837KMSN MSN20030628093513106/28/03 09:35:31  5-MIN KMSN 281535Z 15006KT 2SM RA BR SCT009 BKN016 OVC036 16/15 A2990 880 93 1300 150/06 RMK AO2 SFC VIS 4 P0032
14837KMSN MSN20030628094012206/28/03 09:40:31  5-MIN KMSN 281540Z 16006KT 5SM -RA BR BKN018 BKN030 OVC036 16/15 A2991 880 93 1300 160/06 RMK AO2 P0032
14837KMSN MSN20030628094511506/28/03 09:45:31  5-MIN KMSN 281545Z 17006KT 5SM -RA BR BKN018 OVC036 16/15 A2991 880 93 1300 170/06 RMK AO2 P0033
14837KMSN MSN20030628095013206/28/03 09:50:31  5-MIN KMSN 281550Z 16006KT 5SM -RA BR BKN018 OVC036 16/15 A2991 880 93 1300 160/06 RMK AO2 SLP126 P0034 T01610150
14837KMSN MSN20030628095511506/28/03 09:55:31  5-MIN KMSN 281555Z 18006KT 5SM -RA BR BKN018 OVC039 16/15 A2991 870 93 1200 180/06 RMK AO2 P0000
14837KMSN MSN20030628100011506/28/03 10:00:31  5-MIN KMSN 281600Z 17006KT 5SM -RA BR BKN018 OVC039 16/15 A2991 870 93 1200 170/06 RMK AO2 P0001
14837KMSN MSN20030628100512206/28/03 10:05:31  5-MIN KMSN 281605Z 18005KT 5SM -RA BR BKN020 BKN041 OVC055 16/15 A2992 870 93 1200 180/05 RMK AO2 P0001
14837KMSN MSN20030628101012206/28/03 10:10:31  5-MIN KMSN 281610Z 19004KT 5SM -RA BR FEW008 BKN020 OVC041 17/15 A2992 870 90 1300 190/04 RMK AO2 P0002
14837KMSN MSN20030628101512206/28/03 10:15:31  5-MIN KMSN 281615Z 17005KT 5SM -RA BR SCT007 BKN020 OVC041 16/15 A2992 860 93 1200 170/05 RMK AO2 P0002
14837KMSN MSN20030628102012206/28/03 10:20:31  5-MIN KMSN 281620Z 17004KT 5SM -RA BR SCT007 BKN020 OVC041 16/15 A2992 860 93 1200 170/04 RMK AO2 P0002
14837KMSN MSN20030628102512206/28/03 10:25:31  5-MIN KMSN 281625Z 16008KT 5SM -RA BR SCT007 BKN020 OVC041 16/14 A2991 870 90 1200 160/08 RMK AO2 P0002
14837KMSN MSN20030628103012106/28/03 10:30:31  5-MIN KMSN 281630Z 15009KT 4SM RA BR SCT007 BKN020 OVC035 16/14 A2991 880 90 1300 150/09 RMK AO2 P0005
14837KMSN MSN20030628103512106/28/03 10:35:31  5-MIN KMSN 281635Z VRB05KT 4SM RA BR FEW007 BKN020 OVC035 16/14 A2992 870 90 1200 VRB/05 RMK AO2 P0007
14837KMSN MSN20030628104012106/28/03 10:40:31  5-MIN KMSN 281640Z VRB03KT 4SM RA BR FEW007 BKN020 OVC035 16/14 A2992 860 90 1200 VRB/03 RMK AO2 P0008
14837KMSN MSN20030628104512206/28/03 10:45:31  5-MIN KMSN 281645Z 17005KT 5SM -RA BR FEW007 BKN018 OVC035 16/14 A2991 870 90 1200 170/05 RMK AO2 P0009
14837KMSN MSN20030628105013906/28/03 10:50:31  5-MIN KMSN 281650Z 17006KT 5SM -RA BR FEW007 BKN018 OVC035 16/15 A2991 870 93 1200 170/06 RMK AO2 SLP127 P0009 T01610150
14837KMSN MSN20030628105511506/28/03 10:55:31  5-MIN KMSN 281655Z 17005KT 5SM -RA BR BKN020 OVC033 17/15 A2991 870 90 1300 170/05 RMK AO2 P0000
14837KMSN MSN20030628110012206/28/03 11:00:31  5-MIN KMSN 281700Z 15004KT 5SM -RA BR BKN025 BKN033 OVC085 17/15 A2991 870 90 1300 150/04 RMK AO2 P0001
14837KMSN MSN20030628110511906/28/03 11:05:31  5-MIN KMSN 281705Z 14006KT 8SM -RA FEW007 BKN033 OVC085 17/15 A2990 880 90 1300 140/06 RMK AO2 P0001
14837KMSN MSN20030628111012206/28/03 11:10:31  5-MIN KMSN 281710Z 12006KT 10SM FEW007 BKN033 BKN085 17/15 A2990 880 87 1400 120/06 RMK AO2 RAE09 P0001
14837KMSN MSN20030628111512206/28/03 11:15:31  5-MIN KMSN 281715Z 13006KT 10SM FEW007 BKN033 BKN085 17/15 A2990 880 87 1400 120/06 RMK AO2 RAE09 P0001
14837KMSN MSN20030628112012206/28/03 11:20:31  5-MIN KMSN 281720Z 16005KT 10SM FEW012 SCT033 BKN085 17/15 A2990 880 87 1400 160/05 RMK AO2 RAE09 P0001
14837KMSN MSN20030628112512206/28/03 11:25:31  5-MIN KMSN 281725Z 12005KT 10SM FEW012 SCT033 BKN085 18/16 A2990 880 90 1500 120/05 RMK AO2 RAE09 P0001
14837KMSN MSN20030628113012206/28/03 11:30:31  5-MIN KMSN 281730Z 16005KT 10SM FEW012 SCT033 SCT085 18/16 A2990 890 87 1500 160/05 RMK AO2 RAE09 P0001
14837KMSN MSN20030628113511506/28/03 11:35:31  5-MIN KMSN 281735Z 12006KT 10SM FEW010 SCT085 18/16 A2990 890 87 1500 120/06 RMK AO2 RAE09 P0001
14837KMSN MSN20030628114011506/28/03 11:40:31  5-MIN KMSN 281740Z 16006KT 10SM FEW010 SCT085 19/16 A2990 890 84 1600 160/06 RMK AO2 RAE09 P0001
14837KMSN MSN20030628114510806/28/03 11:45:31  5-MIN KMSN 281745Z 13006KT 10SM FEW010 19/16 A2989 890 81 1600 130/06 RMK AO2 RAE09 P0001
14837KMSN MSN20030628115014906/28/03 11:50:31  5-MIN KMSN 281750Z 15006KT 10SM FEW010 19/16 A2989 890 81 1600 150/06 RMK AO2 RAE09 SLP120 P0001 60071 T01890156 10189 20156 53008
14837KMSN MSN20030628115510306/28/03 11:55:31  5-MIN KMSN 281755Z 17005KT 10SM SCT010 SCT090 19/16 A2989 890 84 1600 170/05 RMK AO2
14837KMSN MSN20030628120010306/28/03 12:00:31  5-MIN KMSN 281800Z 16005KT 10SM SCT010 SCT090 19/16 A2989 890 81 1600 160/05 RMK AO2
14837KMSN MSN20030628120510306/28/03 12:05:31  5-MIN KMSN 281805Z VRB04KT 10SM SCT010 SCT090 19/16 A2989 890 81 1700 VRB/04 RMK AO2
14837KMSN MSN20030628121010306/28/03 12:10:31  5-MIN KMSN 281810Z 19006KT 10SM SCT010 SCT090 20/16 A2989 890 78 1700 190/06 RMK AO2
14837KMSN MSN20030628121510306/28/03 12:15:31  5-MIN KMSN 281815Z 20005KT 10SM SCT010 SCT090 19/15 A2989 890 75 1700 200/05 RMK AO2
14837KMSN MSN20030628122010306/28/03 12:20:31  5-MIN KMSN 281820Z 17005KT 10SM SCT010 SCT090 20/16 A2989 890 75 1700 170/05 RMK AO2
14837KMSN MSN20030628122510306/28/03 12:25:31  5-MIN KMSN 281825Z 16007KT 10SM SCT014 SCT090 20/16 A2989 890 75 1700 150/07 RMK AO2
14837KMSN MSN20030628123010306/28/03 12:30:31  5-MIN KMSN 281830Z 20006KT 10SM SCT014 SCT090 20/16 A2989 890 75 1700 200/06 RMK AO2
14837KMSN MSN20030628123510306/28/03 12:35:31  5-MIN KMSN 281835Z 19004KT 10SM SCT014 SCT090 20/16 A2989 890 75 1700 190/04 RMK AO2
14837KMSN MSN20030628124011906/28/03 12:40:31  5-MIN KMSN 281840Z 21008KT 160V230 10SM SCT014 SCT048 21/16 A2990 880 73 1800 210/08 160V230 RMK AO2
14837KMSN MSN20030628124510306/28/03 12:45:31  5-MIN KMSN 281845Z 21008KT 10SM SCT018 BKN036 21/16 A2990 880 73 1800 210/08 RMK AO2
14837KMSN MSN20030628125012006/28/03 12:50:31  5-MIN KMSN 281850Z VRB04KT 10SM SCT018 BKN036 21/16 A2990 880 73 1800 VRB/04 RMK AO2 SLP122 T02060156
14837KMSN MSN20030628125510306/28/03 12:55:31  5-MIN KMSN 281855Z VRB05KT 10SM FEW018 BKN036 21/16 A2990 880 73 1800 VRB/05 RMK AO2
14837KMSN MSN20030628130010306/28/03 13:00:31  5-MIN KMSN 281900Z VRB06KT 10SM FEW018 BKN036 21/16 A2990 890 73 1800 VRB/06 RMK AO2
14837KMSN MSN20030628130510306/28/03 13:05:31  5-MIN KMSN 281905Z VRB05KT 10SM FEW018 BKN036 22/17 A2990 890 73 1900 VRB/05 RMK AO2
14837KMSN MSN20030628131010306/28/03 13:10:31  5-MIN KMSN 281910Z 19006KT 10SM FEW018 BKN036 21/16 A2990 880 73 1800 190/06 RMK AO2
14837KMSN MSN20030628131510306/28/03 13:15:31  5-MIN KMSN 281915Z 22006KT 10SM FEW018 BKN033 21/16 A2990 880 73 1800 220/06 RMK AO2
14837KMSN MSN20030628132010306/28/03 13:20:31  5-MIN KMSN 281920Z 24004KT 10SM FEW018 BKN033 21/16 A2990 880 73 1800 240/04 RMK AO2
14837KMSN MSN20030628132510306/28/03 13:25:31  5-MIN KMSN 281925Z 24005KT 10SM FEW018 BKN033 21/16 A2990 880 73 1800 240/05 RMK AO2
14837KMSN MSN20030628133010306/28/03 13:30:31  5-MIN KMSN 281930Z 22005KT 10SM FEW018 BKN033 21/16 A2990 880 70 1800 220/05 RMK AO2
14837KMSN MSN20030628133511006/28/03 13:35:31  5-MIN KMSN 281935Z VRB05KT 10SM FEW020 BKN033 BKN040 21/16 A2990 890 70 1800 VRB/05 RMK AO2
14837KMSN MSN20030628134011006/28/03 13:40:31  5-MIN KMSN 281940Z VRB05KT 10SM FEW020 SCT033 BKN040 22/16 A2989 890 70 1900 VRB/05 RMK AO2
14837KMSN MSN20030628134511006/28/03 13:45:31  5-MIN KMSN 281945Z VRB05KT 10SM FEW020 SCT033 SCT046 22/16 A2989 890 65 2000 VRB/05 RMK AO2
14837KMSN MSN20030628135012706/28/03 13:50:31  5-MIN KMSN 281950Z VRB03KT 10SM FEW020 SCT033 SCT046 22/16 A2989 890 65 2000 VRB/03 RMK AO2 SLP118 T02220156
14837KMSN MSN20030628135511906/28/03 13:55:31  5-MIN KMSN 281955Z 23007KT 190V270 10SM SCT033 SCT046 23/16 A2988 900 65 2000 230/07 190V270 RMK AO2
14837KMSN MSN20030628140010306/28/03 14:00:31  5-MIN KMSN 282000Z 24006KT 10SM SCT033 SCT046 22/16 A2988 900 65 2000 240/06 RMK AO2
14837KMSN MSN20030628140510306/28/03 14:05:31  5-MIN KMSN 282005Z 22007KT 10SM SCT033 SCT046 22/16 A2988 900 68 2000 220/07 RMK AO2
14837KMSN MSN20030628141010306/28/03 14:10:31  5-MIN KMSN 282010Z 25006KT 10SM SCT033 SCT046 22/16 A2988 900 68 2000 240/06 RMK AO2
14837KMSN MSN20030628141510306/28/03 14:15:31  5-MIN KMSN 282015Z 22006KT 10SM SCT033 SCT046 23/16 A2988 900 65 2000 220/06 RMK AO2
14837KMSN MSN20030628142010306/28/03 14:20:31  5-MIN KMSN 282020Z 20007KT 10SM SCT033 SCT046 23/16 A2988 900 65 2100 200/07 RMK AO2
14837KMSN MSN20030628142509606/28/03 14:25:31  5-MIN KMSN 282025Z 22007KT 10SM SCT033 23/16 A2987 910 63 2100 220/07 RMK AO2
14837KMSN MSN20030628143009606/28/03 14:30:31  5-MIN KMSN 282030Z 23006KT 10SM SCT033 22/16 A2988 900 65 2000 230/06 RMK AO2
14837KMSN MSN20030628143509606/28/03 14:35:31  5-MIN KMSN 282035Z VRB04KT 10SM SCT033 22/16 A2987 910 68 2000 VRB/04 RMK AO2
14837KMSN MSN20030628144011006/28/03 14:40:31  5-MIN KMSN 282040Z 22005KT 10SM SCT033 22/16 A2987 910 65 2000 220/05 RMK AO2 CB DSNT SW-NW
14837KMSN MSN20030628144511006/28/03 14:45:31  5-MIN KMSN 282045Z 22005KT 10SM SCT033 22/16 A2987 910 68 2000 220/05 RMK AO2 CB DSNT SW-NW
14837KMSN MSN20030628145013306/28/03 14:50:31  5-MIN KMSN 282050Z VRB03KT 10SM FEW033 23/16 A2987 910 65 2100 VRB/03 RMK AO2 SLP112 CB DSNT SW-NW T02280161 58004
14837KMSN MSN20030628145511006/28/03 14:55:31  5-MIN KMSN 282055Z VRB04KT 10SM FEW033 23/16 A2988 910 65 2100 VRB/04 RMK AO2 CB DSNT SW-NW
14837KMSN MSN20030628150011006/28/03 15:00:31  5-MIN KMSN 282100Z VRB05KT 10SM FEW033 23/16 A2988 910 65 2100 VRB/05 RMK AO2 CB DSNT SW-NW
14837KMSN MSN20030628150511006/28/03 15:05:31  5-MIN KMSN 282105Z 22005KT 10SM FEW033 23/16 A2988 900 63 2100 220/05 RMK AO2 CB DSNT SW-NW
14837KMSN MSN20030628151011006/28/03 15:10:31  5-MIN KMSN 282110Z 22006KT 10SM FEW033 23/16 A2988 900 65 2100 210/06 RMK AO2 CB DSNT SW-NW
14837KMSN MSN20030628151511006/28/03 15:15:31  5-MIN KMSN 282115Z 21007KT 10SM FEW033 23/16 A2988 910 63 2100 210/07 RMK AO2 CB DSNT SW-NW
14837KMSN MSN20030628152011006/28/03 15:20:31  5-MIN KMSN 282120Z 21005KT 10SM FEW033 23/16 A2987 910 65 2100 210/05 RMK AO2 CB DSNT SW-NW
14837KMSN MSN20030628152511006/28/03 15:25:31  5-MIN KMSN 282125Z 22004KT 10SM FEW033 23/16 A2987 910 65 2100 220/04 RMK AO2 CB DSNT SW-NW
14837KMSN MSN20030628153011006/28/03 15:30:31  5-MIN KMSN 282130Z 21005KT 10SM FEW033 23/16 A2987 910 65 2100 200/05 RMK AO2 CB DSNT SW-NW
14837KMSN MSN20030628153511006/28/03 15:35:31  5-MIN KMSN 282135Z VRB04KT 10SM FEW033 23/16 A2987 910 65 2100 VRB/04 RMK AO2 CB DSNT SW-NW
14837KMSN MSN20030628154011006/28/03 15:40:31  5-MIN KMSN 282140Z 22003KT 10SM SCT033 23/16 A2987 910 65 2100 220/03 RMK AO2 CB DSNT SW-NW
14837KMSN MSN20030628154511006/28/03 15:45:31  5-MIN KMSN 282145Z 22003KT 10SM SCT033 23/16 A2987 910 65 2100 220/03 RMK AO2 CB DSNT SW-NW
14837KMSN MSN20030628155014306/28/03 15:50:31  5-MIN KMSN 282150Z 24003KT 10SM -RA SCT041 23/16 A2987 910 65 2100 240/03 RMK AO2 RAB50 SLP113 CB DSNT SW-NW P0000 T02280161
14837KMSN MSN20030628155510606/28/03 15:55:31  5-MIN KMSN 282155Z 00000KT 10SM -RA SCT041 23/17 A2987 910 68 2100 000/00 RMK AO2 P0000
14837KMSN MSN20030628160010806/28/03 16:00:31  5-MIN KMSN 282200Z 00000KT 10SM SCT041 23/17 A2987 910 66 2100 000/00 RMK AO2 RAE00 P0000
14837KMSN MSN20030628160510806/28/03 16:05:31  5-MIN KMSN 282205Z VRB03KT 10SM SCT041 23/17 A2988 910 68 2100 VRB/03 RMK AO2 RAE00 P0000
14837KMSN MSN20030628161010806/28/03 16:10:31  5-MIN KMSN 282210Z VRB03KT 10SM SCT041 23/17 A2987 910 66 2100 VRB/03 RMK AO2 RAE00 P0000
14837KMSN MSN20030628161510806/28/03 16:15:31  5-MIN KMSN 282215Z 22003KT 10SM SCT041 23/17 A2987 910 66 2100 220/03 RMK AO2 RAE00 P0000
14837KMSN MSN20030628162010806/28/03 16:20:31  5-MIN KMSN 282220Z 24003KT 10SM SCT041 23/17 A2987 910 66 2100 240/03 RMK AO2 RAE00 P0000
14837KMSN MSN20030628162510806/28/03 16:25:31  5-MIN KMSN 282225Z VRB04KT 10SM SCT041 23/17 A2987 910 66 2100 VRB/04 RMK AO2 RAE00 P0000
14837KMSN MSN20030628163010806/28/03 16:30:31  5-MIN KMSN 282230Z 22004KT 10SM SCT041 24/17 A2986 920 63 2200 220/04 RMK AO2 RAE00 P0000
14837KMSN MSN20030628163510806/28/03 16:35:31  5-MIN KMSN 282235Z VRB06KT 10SM SCT041 24/17 A2987 910 63 2300 VRB/06 RMK AO2 RAE00 P0000
14837KMSN MSN20030628164010806/28/03 16:40:31  5-MIN KMSN 282240Z 22007KT 10SM SCT041 24/17 A2987 910 63 2200 210/07 RMK AO2 RAE00 P0000
14837KMSN MSN20030628164510806/28/03 16:45:31  5-MIN KMSN 282245Z 23006KT 10SM SCT041 23/16 A2986 920 61 2100 230/06 RMK AO2 RAE00 P0000
14837KMSN MSN20030628165012506/28/03 16:50:31  5-MIN KMSN 282250Z 22006KT 10SM SCT041 23/16 A2986 920 63 2100 220/06 RMK AO2 RAE00 SLP108 P0000 T02330161
14837KMSN MSN20030628165510306/28/03 16:55:31  5-MIN KMSN 282255Z 21007KT 10SM SCT040 SCT110 23/16 A2986 920 63 2100 200/07 RMK AO2
14837KMSN MSN20030628170010306/28/03 17:00:31  5-MIN KMSN 282300Z 23005KT 10SM SCT040 SCT110 23/17 A2986 920 66 2100 230/05 RMK AO2
14837KMSN MSN20030628170510306/28/03 17:05:31  5-MIN KMSN 282305Z VRB03KT 10SM SCT040 SCT110 23/17 A2986 920 66 2100 VRB/03 RMK AO2
14837KMSN MSN20030628171010306/28/03 17:10:31  5-MIN KMSN 282310Z 23004KT 10SM SCT040 SCT110 23/17 A2986 920 66 2100 230/04 RMK AO2
14837KMSN MSN20030628171510306/28/03 17:15:31  5-MIN KMSN 282315Z VRB04KT 10SM SCT040 SCT110 24/17 A2986 920 63 2200 VRB/04 RMK AO2
14837KMSN MSN20030628172010306/28/03 17:20:31  5-MIN KMSN 282320Z 29006KT 10SM SCT040 SCT110 23/16 A2986 920 61 2100 290/06 RMK AO2
14837KMSN MSN20030628172510306/28/03 17:25:31  5-MIN KMSN 282325Z 28006KT 10SM SCT040 SCT110 23/16 A2986 920 61 2100 280/06 RMK AO2
14837KMSN MSN20030628173010306/28/03 17:30:31  5-MIN KMSN 282330Z VRB05KT 10SM SCT040 SCT110 23/16 A2986 920 61 2100 VRB/05 RMK AO2
14837KMSN MSN20030628173510306/28/03 17:35:31  5-MIN KMSN 282335Z 26004KT 10SM SCT040 SCT110 23/16 A2986 920 61 2100 260/04 RMK AO2
14837KMSN MSN20030628174009606/28/03 17:40:31  5-MIN KMSN 282340Z VRB03KT 10SM FEW040 23/16 A2986 920 63 2100 VRB/03 RMK AO2
14837KMSN MSN20030628174509606/28/03 17:45:31  5-MIN KMSN 282345Z 23004KT 10SM FEW040 23/16 A2986 920 65 2100 230/04 RMK AO2
14837KMSN MSN20030628175013706/28/03 17:50:31  5-MIN KMSN 282350Z 24003KT 10SM FEW040 23/16 A2986 920 63 2100 240/03 RMK AO2 SLP109 60000 T02280156 10244 20189 58007
14837KMSN MSN20030628175509306/28/03 17:55:31  5-MIN KMSN 282355Z 25004KT 10SM CLR 23/16 A2986 920 63 2100 250/04 RMK AO2
14837KMSN MSN20030628180009606/28/03 18:00:31  5-MIN KMSN 290000Z VRB03KT 10SM FEW040 22/16 A2986 920 65 2000 VRB/03 RMK AO2
14837KMSN MSN20030628180509606/28/03 18:05:31  5-MIN KMSN 290005Z 26003KT 10SM FEW040 22/16 A2987 910 68 2000 260/03 RMK AO2
14837KMSN MSN20030628181009606/28/03 18:10:31  5-MIN KMSN 290010Z 26003KT 10SM FEW040 22/16 A2987 910 68 2000 260/03 RMK AO2
14837KMSN MSN20030628181509606/28/03 18:15:31  5-MIN KMSN 290015Z VRB03KT 10SM FEW040 23/16 A2987 910 65 2100 VRB/03 RMK AO2
14837KMSN MSN20030628182009606/28/03 18:20:31  5-MIN KMSN 290020Z 00000KT 10SM FEW040 23/16 A2987 910 65 2100 000/00 RMK AO2
14837KMSN MSN20030628182509606/28/03 18:25:31  5-MIN KMSN 290025Z 24003KT 10SM FEW040 23/16 A2987 910 65 2100 240/03 RMK AO2
14837KMSN MSN20030628183009606/28/03 18:30:31  5-MIN KMSN 290030Z 00000KT 10SM SCT050 23/16 A2987 910 65 2100 000/00 RMK AO2
14837KMSN MSN20030628183509606/28/03 18:35:31  5-MIN KMSN 290035Z VRB03KT 10SM SCT050 23/16 A2988 910 65 2100 VRB/03 RMK AO2
14837KMSN MSN20030628184009606/28/03 18:40:31  5-MIN KMSN 290040Z 27005KT 10SM SCT050 23/16 A2988 900 65 2100 260/05 RMK AO2
14837KMSN MSN20030628184509606/28/03 18:45:31  5-MIN KMSN 290045Z 00000KT 10SM SCT050 22/16 A2988 900 68 2000 000/00 RMK AO2
14837KMSN MSN20030628185011306/28/03 18:50:31  5-MIN KMSN 290050Z VRB04KT 10SM BKN046 22/16 A2988 900 68 2000 VRB/04 RMK AO2 SLP116 T02220161
14837KMSN MSN20030628185510306/28/03 18:55:31  5-MIN KMSN 290055Z 25003KT 10SM BKN046 BKN055 22/16 A2988 900 68 2000 250/03 RMK AO2
14837KMSN MSN20030628190010306/28/03 19:00:31  5-MIN KMSN 290100Z 26004KT 10SM BKN046 BKN055 22/16 A2989 900 68 2000 260/04 RMK AO2
14837KMSN MSN20030628190509606/28/03 19:05:31  5-MIN KMSN 290105Z 26004KT 10SM BKN046 22/16 A2989 890 68 2000 260/04 RMK AO2
14837KMSN MSN20030628191010306/28/03 19:10:31  5-MIN KMSN 290110Z 00000KT 10SM SCT046 BKN055 22/16 A2989 890 68 2000 000/00 RMK AO2
14837KMSN MSN20030628191510306/28/03 19:15:31  5-MIN KMSN 290115Z 25003KT 10SM SCT048 BKN060 22/16 A2989 890 68 2000 250/03 RMK AO2
14837KMSN MSN20030628192009606/28/03 19:20:31  5-MIN KMSN 290120Z VRB03KT 10SM BKN050 22/18 A2989 890 78 1900 VRB/03 RMK AO2
14837KMSN MSN20030628192510306/28/03 19:25:31  5-MIN KMSN 290125Z 26003KT 10SM SCT050 SCT060 22/18 A2989 890 78 1900 260/03 RMK AO2
14837KMSN MSN20030628193010306/28/03 19:30:31  5-MIN KMSN 290130Z 00000KT 10SM SCT050 SCT060 21/16 A2990 890 73 1800 000/00 RMK AO2
14837KMSN MSN20030628193510306/28/03 19:35:31  5-MIN KMSN 290135Z 00000KT 10SM FEW050 SCT060 21/16 A2990 890 73 1800 000/00 RMK AO2
14837KMSN MSN20030628194010306/28/03 19:40:31  5-MIN KMSN 290140Z 00000KT 10SM SCT050 BKN060 21/16 A2990 890 75 1800 000/00 RMK AO2
14837KMSN MSN20030628194510306/28/03 19:45:31  5-MIN KMSN 290145Z 25003KT 10SM SCT050 BKN060 20/17 A2990 890 81 1700 250/03 RMK AO2
14837KMSN MSN20030628195011306/28/03 19:50:31  5-MIN KMSN 290150Z 21003KT 10SM SCT050 21/16 A2990 890 75 1800 210/03 RMK AO2 SLP122 T02060161
14837KMSN MSN20030628195509606/28/03 19:55:31  5-MIN KMSN 290155Z 22003KT 10SM FEW050 21/16 A2990 880 75 1800 220/03 RMK AO2
14837KMSN MSN20030628200009606/28/03 20:00:31  5-MIN KMSN 290200Z 00000KT 10SM FEW050 21/16 A2990 880 75 1800 000/00 RMK AO2
14837KMSN MSN20030628200509606/28/03 20:05:31  5-MIN KMSN 290205Z 00000KT 10SM FEW050 20/16 A2990 880 78 1700 000/00 RMK AO2
14837KMSN MSN20030628201009606/28/03 20:10:31  5-MIN KMSN 290210Z VRB03KT 10SM FEW050 21/16 A2990 880 75 1800 VRB/03 RMK AO2
14837KMSN MSN20030628201509606/28/03 20:15:31  5-MIN KMSN 290215Z 00000KT 10SM FEW050 21/16 A2990 880 75 1800 000/00 RMK AO2
14837KMSN MSN20030628202009606/28/03 20:20:31  5-MIN KMSN 290220Z VRB04KT 10SM FEW050 21/16 A2991 870 75 1800 VRB/04 RMK AO2
14837KMSN MSN20030628202509606/28/03 20:25:31  5-MIN KMSN 290225Z 25003KT 10SM FEW050 21/16 A2991 870 75 1800 250/03 RMK AO2
14837KMSN MSN20030628203009606/28/03 20:30:31  5-MIN KMSN 290230Z VRB04KT 10SM FEW050 21/16 A2991 870 75 1800 VRB/04 RMK AO2
14837KMSN MSN20030628203509606/28/03 20:35:31  5-MIN KMSN 290235Z VRB03KT 10SM FEW050 21/16 A2992 870 75 1800 VRB/03 RMK AO2
14837KMSN MSN20030628204009606/28/03 20:40:31  5-MIN KMSN 290240Z VRB03KT 10SM FEW050 20/16 A2992 870 78 1700 VRB/03 RMK AO2
14837KMSN MSN20030628204509606/28/03 20:45:31  5-MIN KMSN 290245Z 00000KT 10SM FEW050 20/16 A2992 870 78 1700 000/00 RMK AO2
14837KMSN MSN20030628205011606/28/03 20:50:31  5-MIN KMSN 290250Z 00000KT 10SM CLR 19/16 A2992 870 81 1600 000/00 RMK AO2 SLP129 T01940161 57003
14837KMSN MSN20030628205509206/28/03 20:55:31  5-MIN KMSN 290255Z 00000KT 9SM CLR 19/16 A2992 860 84 1600 000/00 RMK AO2
14837KMSN MSN20030628210009306/28/03 21:00:31  5-MIN KMSN 290300Z 00000KT 10SM CLR 18/16 A2992 860 87 1500 000/00 RMK AO2
14837KMSN MSN20030628210509306/28/03 21:05:31  5-MIN KMSN 290305Z 00000KT 10SM CLR 19/16 A2993 860 84 1600 000/00 RMK AO2
14837KMSN MSN20030628211009306/28/03 21:10:31  5-MIN KMSN 290310Z 00000KT 10SM CLR 19/16 A2993 860 84 1500 000/00 RMK AO2
14837KMSN MSN20030628211509306/28/03 21:15:31  5-MIN KMSN 290315Z 00000KT 10SM CLR 18/16 A2993 860 90 1400 000/00 RMK AO2
14837KMSN MSN20030628212009606/28/03 21:20:31  5-MIN KMSN 290320Z 00000KT 10SM FEW120 18/16 A2993 850 90 1400 000/00 RMK AO2
14837KMSN MSN20030628212509606/28/03 21:25:31  5-MIN KMSN 290325Z 00000KT 10SM SCT120 18/16 A2993 860 90 1400 000/00 RMK AO2
14837KMSN MSN20030628213009606/28/03 21:30:31  5-MIN KMSN 290330Z 00000KT 10SM BKN120 17/16 A2993 860 93 1400 000/00 RMK AO2
14837KMSN MSN20030628213509606/28/03 21:35:31  5-MIN KMSN 290335Z 00000KT 10SM BKN120 17/16 A2993 860 93 1400 000/00 RMK AO2
14837KMSN MSN20030628214009606/28/03 21:40:31  5-MIN KMSN 290340Z 00000KT 10SM BKN110 18/17 A2993 860 93 1400 000/00 RMK AO2
14837KMSN MSN20030628214509606/28/03 21:45:31  5-MIN KMSN 290345Z 02003KT 10SM OVC110 18/17 A2992 860 93 1400 020/03 RMK AO2
14837KMSN MSN20030628215011306/28/03 21:50:31  5-MIN KMSN 290350Z 00000KT 10SM OVC110 18/17 A2992 860 93 1400 000/00 RMK AO2 SLP132 T01780167
14837KMSN MSN20030628215509606/28/03 21:55:31  5-MIN KMSN 290355Z 00000KT 10SM OVC110 18/17 A2992 860 90 1500 000/00 RMK AO2
14837KMSN MSN20030628220009606/28/03 22:00:31  5-MIN KMSN 290400Z 00000KT 10SM OVC110 18/17 A2993 860 90 1500 000/00 RMK AO2
14837KMSN MSN20030628220509606/28/03 22:05:31  5-MIN KMSN 290405Z 00000KT 10SM OVC110 18/17 A2993 860 93 1400 000/00 RMK AO2
14837KMSN MSN20030628221009606/28/03 22:10:31  5-MIN KMSN 290410Z 00000KT 10SM BKN110 18/16 A2993 860 90 1400 000/00 RMK AO2
14837KMSN MSN20030628221509606/28/03 22:15:31  5-MIN KMSN 290415Z 01003KT 10SM BKN110 18/17 A2992 860 93 1400 010/03 RMK AO2
14837KMSN MSN20030628222009606/28/03 22:20:31  5-MIN KMSN 290420Z 01004KT 10SM SCT110 18/17 A2993 860 93 1400 010/04 RMK AO2
14837KMSN MSN20030628222509606/28/03 22:25:31  5-MIN KMSN 290425Z 00000KT 10SM BKN110 17/17 A2993 860 96 1400 000/00 RMK AO2
14837KMSN MSN20030628223009606/28/03 22:30:31  5-MIN KMSN 290430Z 00000KT 10SM BKN110 17/16 A2993 860 93 1400 000/00 RMK AO2
14837KMSN MSN20030628223509606/28/03 22:35:31  5-MIN KMSN 290435Z 00000KT 10SM SCT110 17/16 A2993 860 93 1400 000/00 RMK AO2
14837KMSN MSN20030628224009606/28/03 22:40:31  5-MIN KMSN 290440Z 00000KT 10SM SCT110 17/16 A2993 860 93 1400 000/00 RMK AO2
14837KMSN MSN20030628224509606/28/03 22:45:31  5-MIN KMSN 290445Z 00000KT 10SM FEW110 17/17 A2993 860 96 1400 000/00 RMK AO2
14837KMSN MSN20030628225011306/28/03 22:50:31  5-MIN KMSN 290450Z 00000KT 10SM FEW110 17/16 A2993 860 93 1400 000/00 RMK AO2 SLP133 T01720161
14837KMSN MSN20030628225509606/28/03 22:55:31  5-MIN KMSN 290455Z 00000KT 10SM FEW110 17/16 A2993 860 93 1400 000/00 RMK AO2
14837KMSN MSN20030628230009606/28/03 23:00:31  5-MIN KMSN 290500Z 00000KT 10SM FEW110 17/17 A2992 860 96 1400 000/00 RMK AO2
14837KMSN MSN20030628230509606/28/03 23:05:31  5-MIN KMSN 290505Z 00000KT 10SM FEW110 17/17 A2992 860 96 1400 000/00 RMK AO2
14837KMSN MSN20030628231009606/28/03 23:10:31  5-MIN KMSN 290510Z 00000KT 10SM FEW110 17/16 A2992 860 96 1300 000/00 RMK AO2
14837KMSN MSN20030628231509506/28/03 23:15:31  5-MIN KMSN 290515Z 00000KT 6SM BR CLR 17/16 A2992 860 93 1400 000/00 RMK AO2
14837KMSN MSN20030628232009506/28/03 23:20:31  5-MIN KMSN 290520Z 00000KT 6SM BR CLR 17/16 A2992 860 93 1300 000/00 RMK AO2
14837KMSN MSN20030628232509506/28/03 23:25:31  5-MIN KMSN 290525Z 00000KT 6SM BR CLR 17/16 A2992 860 93 1300 000/00 RMK AO2
14837KMSN MSN20030628233009506/28/03 23:30:31  5-MIN KMSN 290530Z 00000KT 6SM BR CLR 17/16 A2992 860 96 1300 000/00 RMK AO2
14837KMSN MSN20030628233509806/28/03 23:35:31  5-MIN KMSN 290535Z 00000KT 5SM BR SCT110 16/16 A2992 860 96 1200 000/00 RMK AO2
14837KMSN MSN20030628234009806/28/03 23:40:31  5-MIN KMSN 290540Z 00000KT 5SM BR SCT110 16/16 A2992 860 96 1200 000/00 RMK AO2
14837KMSN MSN20030628234509806/28/03 23:45:31  5-MIN KMSN 290545Z 00000KT 5SM BR SCT110 16/16 A2992 860 96 1200 000/00 RMK AO2
14837KMSN MSN20030628235014306/28/03 23:50:31  5-MIN KMSN 290550Z 00000KT 5SM BR SCT110 16/16 A2992 870 96 1200 000/00 RMK AO2 SLP129 T01610156 10228 20161 402440156 52019
14837KMSN MSN20030628235509506/28/03 23:55:31  5-MIN KMSN 290555Z 00000KT 6SM BR CLR 16/16 A2992 870 96 1200 000/00 RMK AO2
14837KMSN MSN20030629000009806/29/03 00:00:31  5-MIN KMSN 290600Z 00000KT 6SM BR SCT110 17/16 A2992 870 96 1300 000/00 RMK AO2
14837KMSN MSN20030629000509806/29/03 00:05:31  5-MIN KMSN 290605Z 00000KT 6SM BR SCT110 17/16 A2992 870 96 1300 000/00 RMK AO2
14837KMSN MSN20030629001009806/29/03 00:10:31  5-MIN KMSN 290610Z 00000KT 4SM BR SCT110 16/16 A2991 870 96 1200 000/00 RMK AO2
14837KMSN MSN20030629001509806/29/03 00:15:31  5-MIN KMSN 290615Z 00000KT 4SM BR SCT110 16/16 A2991 870 96 1200 000/00 RMK AO2
14837KMSN MSN20030629002009806/29/03 00:20:31  5-MIN KMSN 290620Z 00000KT 5SM BR SCT110 16/15 A2991 870 96 1200 000/00 RMK AO2
14837KMSN MSN20030629002509806/29/03 00:25:31  5-MIN KMSN 290625Z 00000KT 5SM BR SCT110 16/15 A2991 870 96 1200 000/00 RMK AO2
14837KMSN MSN20030629003009806/29/03 00:30:31  5-MIN KMSN 290630Z 00000KT 5SM BR SCT110 16/15 A2991 880 96 1200 000/00 RMK AO2
14837KMSN MSN20030629003509806/29/03 00:35:31  5-MIN KMSN 290635Z 00000KT 5SM BR SCT110 16/15 A2991 880 96 1200 000/00 RMK AO2
14837KMSN MSN20030629004010506/29/03 00:40:31  5-MIN KMSN 290640Z 00000KT 4SM BR FEW001 SCT090 16/15 A2991 880 96 1200 000/00 RMK AO2
14837KMSN MSN20030629004509806/29/03 00:45:31  5-MIN KMSN 290645Z 00000KT 4SM BR SCT001 16/15 A2990 880 96 1200 000/00 RMK AO2
14837KMSN MSN20030629005011506/29/03 00:50:31  5-MIN KMSN 290650Z 00000KT 4SM BR SCT001 16/15 A2990 880 96 1200 000/00 RMK AO2 SLP123 T01560150
14837KMSN MSN20030629005509906/29/03 00:55:31  5-MIN KMSN 290655Z 00000KT 5SM BR SCT001 15/15 A2990 880 100 1100 000/00 RMK AO2
14837KMSN MSN20030629010009806/29/03 01:00:31  5-MIN KMSN 290700Z 00000KT 5SM BR SCT001 16/15 A2990 880 96 1200 000/00 RMK AO2
14837KMSN MSN20030629010509806/29/03 01:05:31  5-MIN KMSN 290705Z 00000KT 5SM BR SCT001 16/16 A2990 880 96 1300 000/00 RMK AO2
14837KMSN MSN20030629011009806/29/03 01:10:31  5-MIN KMSN 290710Z 00000KT 5SM BR SCT001 16/15 A2990 880 96 1200 000/00 RMK AO2
14837KMSN MSN20030629011509906/29/03 01:15:31  5-MIN KMSN 290715Z 00000KT 5SM BR SCT001 15/15 A2990 880 100 1100 000/00 RMK AO2
14837KMSN MSN20030629012009806/29/03 01:20:31  5-MIN KMSN 290720Z 00000KT 4SM BR SCT001 15/14 A2991 880 96 1100 000/00 RMK AO2
14837KMSN MSN20030629012509806/29/03 01:25:31  5-MIN KMSN 290725Z 00000KT 4SM BR SCT001 15/14 A2991 880 96 1100 000/00 RMK AO2
14837KMSN MSN20030629013009806/29/03 01:30:31  5-MIN KMSN 290730Z 00000KT 4SM BR SCT001 15/14 A2991 880 96 1100 000/00 RMK AO2
14837KMSN MSN20030629013509806/29/03 01:35:31  5-MIN KMSN 290735Z 21003KT 4SM BR SCT001 16/14 A2991 870 93 1200 200/03 RMK AO2
14837KMSN MSN20030629014009906/29/03 01:40:31  5-MIN KMSN 290740Z 21004KT 4SM BR SCT001 16/16 A2991 870 100 1200 210/04 RMK AO2
14837KMSN MSN20030629014509806/29/03 01:45:31  5-MIN KMSN 290745Z 22005KT 4SM BR SCT001 16/16 A2991 870 96 1200 210/05 RMK AO2
14837KMSN MSN20030629015011506/29/03 01:50:31  5-MIN KMSN 290750Z 21005KT 4SM BR FEW001 17/16 A2991 870 96 1300 210/05 RMK AO2 SLP125 T01670161
14837KMSN MSN20030629015509206/29/03 01:55:31  5-MIN KMSN 290755Z 21004KT 7SM CLR 17/16 A2991 870 93 1400 210/04 RMK AO2
14837KMSN MSN20030629020009206/29/03 02:00:31  5-MIN KMSN 290800Z 21005KT 8SM CLR 17/16 A2991 880 93 1400 210/05 RMK AO2
14837KMSN MSN20030629020509206/29/03 02:05:31  5-MIN KMSN 290805Z 21004KT 8SM CLR 18/16 A2991 880 90 1400 210/04 RMK AO2
14837KMSN MSN20030629021009206/29/03 02:10:31  5-MIN KMSN 290810Z 21005KT 9SM CLR 18/16 A2991 880 90 1400 210/05 RMK AO2
14837KMSN MSN20030629021509306/29/03 02:15:31  5-MIN KMSN 290815Z 21004KT 10SM CLR 18/16 A2990 880 90 1400 210/04 RMK AO2
14837KMSN MSN20030629022009306/29/03 02:20:31  5-MIN KMSN 290820Z 21003KT 10SM CLR 18/16 A2990 880 87 1400 210/03 RMK AO2
14837KMSN MSN20030629022509306/29/03 02:25:31  5-MIN KMSN 290825Z 22005KT 10SM CLR 18/16 A2990 880 87 1400 220/05 RMK AO2
14837KMSN MSN20030629023009306/29/03 02:30:31  5-MIN KMSN 290830Z 23004KT 10SM CLR 17/14 A2991 870 83 1400 230/04 RMK AO2
14837KMSN MSN20030629023509306/29/03 02:35:31  5-MIN KMSN 290835Z 23005KT 10SM CLR 18/14 A2991 870 81 1400 230/05 RMK AO2
14837KMSN MSN20030629024009306/29/03 02:40:31  5-MIN KMSN 290840Z 22006KT 10SM CLR 17/14 A2992 870 83 1400 220/06 RMK AO2
14837KMSN MSN20030629024509306/29/03 02:45:31  5-MIN KMSN 290845Z 22006KT 10SM CLR 18/14 A2991 870 81 1400 220/06 RMK AO2
14837KMSN MSN20030629025011606/29/03 02:50:31  5-MIN KMSN 290850Z 21005KT 10SM CLR 18/14 A2991 870 81 1400 210/05 RMK AO2 SLP127 T01780144 58001
14837KMSN MSN20030629025509306/29/03 02:55:31  5-MIN KMSN 290855Z 21005KT 10SM CLR 18/14 A2991 870 81 1400 210/05 RMK AO2
14837KMSN MSN20030629030009306/29/03 03:00:31  5-MIN KMSN 290900Z 22005KT 10SM CLR 18/14 A2992 860 81 1400 220/05 RMK AO2
14837KMSN MSN20030629030510906/29/03 03:05:31  5-MIN KMSN 290905Z 35010G14KT 10SM FEW120 17/14 A2994 840 83 1300 350/10G14 RMK AO2 PRESRR
14837KMSN MSN20030629031009506/29/03 03:10:31  5-MIN KMSN 290910Z 00000KT 8SM FEW120 16/14 A2993 850 90 1200 000/00 RMK AO2
14837KMSN MSN20030629031509506/29/03 03:15:31  5-MIN KMSN 290915Z VRB06KT 7SM FEW120 16/14 A2994 840 90 1200 VRB/06 RMK AO2
14837KMSN MSN20030629032009506/29/03 03:20:31  5-MIN KMSN 290920Z 34006KT 8SM FEW120 17/14 A2994 840 86 1300 340/06 RMK AO2
14837KMSN MSN20030629032509506/29/03 03:25:31  5-MIN KMSN 290925Z 34005KT 9SM FEW110 17/14 A2994 850 86 1300 340/05 RMK AO2
14837KMSN MSN20030629033010206/29/03 03:30:31  5-MIN KMSN 290930Z 34006KT 9SM FEW005 SCT110 17/15 A2994 850 90 1300 340/06 RMK AO2
14837KMSN MSN20030629033510206/29/03 03:35:31  5-MIN KMSN 290935Z VRB04KT 8SM FEW005 SCT110 17/15 A2993 860 90 1300 VRB/04 RMK AO2
14837KMSN MSN20030629034010506/29/03 03:40:31  5-MIN KMSN 290940Z 35005KT 6SM BR FEW005 SCT110 16/14 A2994 850 90 1200 350/05 RMK AO2
14837KMSN MSN20030629034510506/29/03 03:45:31  5-MIN KMSN 290945Z 00000KT 5SM BR FEW005 SCT110 16/15 A2993 860 93 1200 000/00 RMK AO2
14837KMSN MSN20030629035012206/29/03 03:50:31  5-MIN KMSN 290950Z 36004KT 5SM BR SCT005 BKN110 16/14 A2994 850 93 1200 350/04 RMK AO2 SLP134 T01560144
14837KMSN MSN20030629035510506/29/03 03:55:31  5-MIN KMSN 290955Z 00000KT 4SM BR FEW008 SCT110 16/15 A2993 860 96 1200 000/00 RMK AO2
14837KMSN MSN20030629040010506/29/03 04:00:31  5-MIN KMSN 291000Z 35004KT 4SM BR FEW006 SCT110 16/14 A2993 850 93 1200 350/04 RMK AO2
14837KMSN MSN20030629040509806/29/03 04:05:31  5-MIN KMSN 291005Z 36003KT 4SM BR SCT006 16/14 A2993 850 93 1200 360/03 RMK AO2
14837KMSN MSN20030629041010506/29/03 04:10:31  5-MIN KMSN 291010Z 36003KT 3SM BR SCT006 BKN110 16/15 A2994 850 96 1200 360/03 RMK AO2
14837KMSN MSN20030629041510906/29/03 04:15:31  5-MIN KMSN 291015Z 01003KT 2 1/2SM BR BKN004 BKN110 16/15 A2994 850 96 1200 010/03 RMK AO2
14837KMSN MSN20030629042010906/29/03 04:20:31  5-MIN KMSN 291020Z 00000KT 2 1/2SM BR BKN004 BKN110 16/14 A2994 850 93 1100 000/00 RMK AO2
14837KMSN MSN20030629042510706/29/03 04:25:31  5-MIN KMSN 291025Z 03003KT 2 1/2SM BCFG BR BKN004 16/15 A2994 850 96 1100 030/03 RMK AO2
14837KMSN MSN20030629043010706/29/03 04:30:31  5-MIN KMSN 291030Z 00000KT 2 1/2SM BCFG BR OVC004 16/14 A2994 840 93 1100 000/00 RMK AO2
14837KMSN MSN20030629043510706/29/03 04:35:31  5-MIN KMSN 291035Z 35003KT 2 1/2SM BCFG BR OVC004 16/15 A2995 840 96 1100 350/03 RMK AO2
14837KMSN MSN20030629044010306/29/03 04:40:31  5-MIN KMSN 291040Z 33004KT 2SM BCFG BR OVC004 16/15 A2995 840 96 1100 330/04 RMK AO2
14837KMSN MSN20030629044510306/29/03 04:45:31  5-MIN KMSN 291045Z 00000KT 2SM BCFG BR OVC002 16/15 A2995 830 96 1100 000/00 RMK AO2
14837KMSN MSN20030629045011906/29/03 04:50:31  5-MIN KMSN 291050Z 00000KT 1 1/2SM BR OVC002 16/15 A2996 830 96 1100 000/00 RMK AO2 SLP141 T01560150
14837KMSN MSN20030629045510206/29/03 04:55:31  5-MIN KMSN 291055Z 00000KT 1 1/4SM BR OVC002 16/15 A2996 830 96 1100 000/00 RMK AO2
14837KMSN MSN20030629050009806/29/03 05:00:31  5-MIN KMSN 291100Z 00000KT 1SM BR OVC002 16/15 A2996 830 96 1100 000/00 RMK AO2
14837KMSN MSN20030629050510006/29/03 05:05:31  5-MIN KMSN 291105Z 00000KT 3/4SM BR OVC002 16/15 A2996 830 96 1100 000/00 RMK AO2
14837KMSN MSN20030629051010006/29/03 05:10:31  5-MIN KMSN 291110Z 00000KT 1/2SM FG OVC002 16/15 A2996 830 96 1100 000/00 RMK AO2
14837KMSN MSN20030629051510006/29/03 05:15:31  5-MIN KMSN 291115Z 00000KT 1/2SM FG OVC002 16/15 A2996 830 96 1100 000/00 RMK AO2
14837KMSN MSN20030629052010006/29/03 05:20:31  5-MIN KMSN 291120Z 00000KT 1/4SM FG OVC002 16/15 A2996 830 96 1100 000/00 RMK AO2
14837KMSN MSN20030629052510006/29/03 05:25:31  5-MIN KMSN 291125Z 00000KT 1/2SM FG OVC002 16/15 A2997 820 96 1100 000/00 RMK AO2
14837KMSN MSN20030629053010006/29/03 05:30:31  5-MIN KMSN 291130Z 00000KT 1/2SM FG OVC002 16/15 A2997 810 96 1100 000/00 RMK AO2
14837KMSN MSN20030629053510006/29/03 05:35:31  5-MIN KMSN 291135Z 00000KT 1/2SM FG OVC002 16/15 A2998 810 96 1100 000/00 RMK AO2
14837KMSN MSN20030629054010006/29/03 05:40:31  5-MIN KMSN 291140Z 00000KT 1/2SM FG OVC002 16/15 A2998 810 96 1100 000/00 RMK AO2
14837KMSN MSN20030629054510606/29/03 05:45:31  5-MIN KMSN 291145Z VRB03KT 3/4SM BCFG BR OVC002 16/16 A2998 810 100 1100 VRB/03 RMK AO2
14837KMSN MSN20030629055014706/29/03 05:50:31  5-MIN KMSN 291150Z 00000KT 3/4SM BCFG BR OVC002 16/16 A2998 810 100 1100 000/00 RMK AO2 SLP150 70071 T01560156 10178 20150 55001
14837KMSN MSN20030629055510306/29/03 05:55:31  5-MIN KMSN 291155Z VRB03KT 1SM BCFG BR OVC002 16/16 A2999 800 96 1200 VRB/03 RMK AO2
14837KMSN MSN20030629060010306/29/03 06:00:31  5-MIN KMSN 291200Z 00000KT 1SM BCFG BR OVC002 16/16 A2999 800 96 1200 000/00 RMK AO2
14837KMSN MSN20030629060510706/29/03 06:05:31  5-MIN KMSN 291205Z 00000KT 1 1/2SM BCFG BR OVC002 16/16 A2999 800 96 1200 000/00 RMK AO2
14837KMSN MSN20030629061010706/29/03 06:10:31  5-MIN KMSN 291210Z 00000KT 1 1/2SM BCFG BR BKN002 16/16 A2999 800 96 1200 000/00 RMK AO2
14837KMSN MSN20030629061510706/29/03 06:15:31  5-MIN KMSN 291215Z 00000KT 1 1/2SM BCFG BR BKN002 17/16 A3000 790 93 1200 000/00 RMK AO2
14837KMSN MSN20030629062010706/29/03 06:20:31  5-MIN KMSN 291220Z VRB04KT 2 1/2SM BCFG BR SCT002 17/16 A3000 790 93 1200 VRB/04 RMK AO2
14837KMSN MSN20030629062510206/29/03 06:25:31  5-MIN KMSN 291225Z 00000KT 2 1/2SM BR SCT002 17/16 A3000 790 90 1300 000/00 RMK AO2
14837KMSN MSN20030629063011206/29/03 06:30:31  5-MIN KMSN 291230Z VRB03KT 2 1/2SM BR FEW002 17/16 A3000 790 90 1300 VRB/03 RMK AO2 TWR VIS 4
14837KMSN MSN20030629063511706/29/03 06:35:31  5-MIN KMSN 291235Z VRB04KT 4SM BR FEW002 SCT004 18/16 A3001 780 90 1300 VRB/04 RMK AO2 VIS E 2 1/2
14837KMSN MSN20030629064011706/29/03 06:40:31  5-MIN KMSN 291240Z VRB05KT 4SM BR FEW002 SCT004 18/16 A3001 780 87 1300 VRB/05 RMK AO2 VIS E 2 1/2
14837KMSN MSN20030629064511306/29/03 06:45:31  5-MIN KMSN 291245Z 25005KT 5SM BR FEW002 SCT004 18/16 A3001 780 87 1300 250/05 RMK AO2 VIS E 3
14837KMSN MSN20030629065013006/29/03 06:50:31  5-MIN KMSN 291250Z VRB03KT 6SM HZ FEW002 SCT004 18/16 A3001 780 84 1400 VRB/03 RMK AO2 SLP159 VIS E 3 T01830156
14837KMSN MSN20030629065509506/29/03 06:55:31  5-MIN KMSN 291255Z VRB04KT 6SM HZ CLR 18/16 A3001 780 84 1400 VRB/04 RMK AO2
14837KMSN MSN20030629070010606/29/03 07:00:31  5-MIN KMSN 291300Z 26005KT 5SM HZ SCT004 18/16 A3001 780 84 1400 260/05 RMK AO2 VIS E 3
14837KMSN MSN20030629070509806/29/03 07:05:31  5-MIN KMSN 291305Z 00000KT 5SM HZ SCT004 19/16 A3002 780 81 1500 000/00 RMK AO2
14837KMSN MSN20030629071009806/29/03 07:10:31  5-MIN KMSN 291310Z VRB04KT 6SM HZ SCT004 19/16 A3002 780 81 1500 VRB/04 RMK AO2
14837KMSN MSN20030629071509806/29/03 07:15:31  5-MIN KMSN 291315Z 28005KT 6SM HZ FEW004 19/16 A3002 780 81 1500 280/05 RMK AO2
14837KMSN MSN20030629072009506/29/03 07:20:31  5-MIN KMSN 291320Z VRB03KT 8SM FEW004 19/16 A3002 770 81 1400 VRB/03 RMK AO2
14837KMSN MSN20030629072509506/29/03 07:25:31  5-MIN KMSN 291325Z 26006KT 8SM FEW004 19/15 A3002 770 75 1500 260/06 RMK AO2
14837KMSN MSN20030629073009506/29/03 07:30:31  5-MIN KMSN 291330Z 29006KT 8SM FEW004 19/15 A3002 770 75 1500 290/06 RMK AO2
14837KMSN MSN20030629073509506/29/03 07:35:31  5-MIN KMSN 291335Z 26006KT 8SM FEW004 19/15 A3003 770 75 1500 260/06 RMK AO2
14837KMSN MSN20030629074009606/29/03 07:40:31  5-MIN KMSN 291340Z VRB04KT 10SM FEW004 20/16 A3003 760 75 1600 VRB/04 RMK AO2
14837KMSN MSN20030629074509606/29/03 07:45:31  5-MIN KMSN 291345Z 28005KT 10SM FEW004 20/15 A3003 770 72 1600 280/05 RMK AO2
14837KMSN MSN20030629075011306/29/03 07:50:31  5-MIN KMSN 291350Z VRB04KT 10SM FEW004 20/15 A3003 760 72 1600 VRB/04 RMK AO2 SLP166 T02000150
14837KMSN MSN20030629075509606/29/03 07:55:31  5-MIN KMSN 291355Z VRB05KT 10SM FEW004 20/15 A3003 760 72 1600 VRB/05 RMK AO2
14837KMSN MSN20030629080009606/29/03 08:00:31  5-MIN KMSN 291400Z 27006KT 10SM FEW004 20/15 A3003 760 72 1600 270/06 RMK AO2
14837KMSN MSN20030629080511206/29/03 08:05:31  5-MIN KMSN 291405Z 28007KT 250V310 10SM FEW004 21/15 A3003 760 70 1600 280/07 250V310 RMK AO2
14837KMSN MSN20030629081009606/29/03 08:10:31  5-MIN KMSN 291410Z 30006KT 10SM FEW004 21/14 A3003 760 67 1600 300/06 RMK AO2
14837KMSN MSN20030629081509606/29/03 08:15:31  5-MIN KMSN 291415Z VRB05KT 10SM FEW004 21/14 A3003 760 67 1600 VRB/05 RMK AO2
14837KMSN MSN20030629082009606/29/03 08:20:31  5-MIN KMSN 291420Z 29007KT 10SM FEW004 21/14 A3003 760 67 1600 290/07 RMK AO2
14837KMSN MSN20030629082509606/29/03 08:25:31  5-MIN KMSN 291425Z 30007KT 10SM FEW004 21/14 A3003 760 65 1700 290/07 RMK AO2
14837KMSN MSN20030629083011206/29/03 08:30:31  5-MIN KMSN 291430Z 33007KT 300V010 10SM FEW009 21/14 A3003 760 65 1700 330/07 300V010 RMK AO2
14837KMSN MSN20030629083509606/29/03 08:35:31  5-MIN KMSN 291435Z VRB05KT 10SM FEW009 21/14 A3003 760 63 1700 VRB/05 RMK AO2
14837KMSN MSN20030629084009606/29/03 08:40:31  5-MIN KMSN 291440Z 31009KT 10SM FEW009 21/13 A3003 760 61 1700 310/09 RMK AO2
14837KMSN MSN20030629084509606/29/03 08:45:31  5-MIN KMSN 291445Z 30009KT 10SM FEW009 21/13 A3003 760 61 1700 290/09 RMK AO2
14837KMSN MSN20030629085011906/29/03 08:50:31  5-MIN KMSN 291450Z 30009KT 10SM FEW009 21/13 A3003 760 63 1600 300/09 RMK AO2 SLP167 T02060133 53023
14837KMSN MSN20030629085509606/29/03 08:55:31  5-MIN KMSN 291455Z 31005KT 10SM FEW010 21/14 A3003 760 63 1700 310/05 RMK AO2
14837KMSN MSN20030629090009606/29/03 09:00:31  5-MIN KMSN 291500Z 29008KT 10SM FEW010 21/14 A3003 760 63 1700 290/08 RMK AO2
14837KMSN MSN20030629090509606/29/03 09:05:31  5-MIN KMSN 291505Z 29006KT 10SM FEW010 21/14 A3003 760 63 1700 290/06 RMK AO2
14837KMSN MSN20030629091009606/29/03 09:10:31  5-MIN KMSN 291510Z 31007KT 10SM FEW010 22/14 A3003 760 61 1800 310/07 RMK AO2
14837KMSN MSN20030629091509606/29/03 09:15:31  5-MIN KMSN 291515Z 31007KT 10SM FEW010 22/14 A3003 760 63 1800 310/07 RMK AO2
14837KMSN MSN20030629092011206/29/03 09:20:31  5-MIN KMSN 291520Z 29008KT 260V330 10SM FEW010 22/13 A3003 760 58 1800 290/08 260V330 RMK AO2
14837KMSN MSN20030629092511206/29/03 09:25:31  5-MIN KMSN 291525Z 31008KT 270V330 10SM FEW020 22/14 A3004 760 61 1700 310/08 270V330 RMK AO2
14837KMSN MSN20030629093010206/29/03 09:30:31  5-MIN KMSN 291530Z 30010G15KT 10SM FEW020 22/13 A3004 750 58 1700 300/10G15 RMK AO2
14837KMSN MSN20030629093509606/29/03 09:35:31  5-MIN KMSN 291535Z 31010KT 10SM FEW020 22/13 A3004 760 58 1700 310/10 RMK AO2
14837KMSN MSN20030629094011206/29/03 09:40:31  5-MIN KMSN 291540Z 31007KT 270V330 10SM FEW020 22/14 A3004 760 59 1800 300/07 270V330 RMK AO2
14837KMSN MSN20030629094509606/29/03 09:45:31  5-MIN KMSN 291545Z 31010KT 10SM FEW020 22/13 A3004 760 58 1700 310/10 RMK AO2
14837KMSN MSN20030629095012906/29/03 09:50:31  5-MIN KMSN 291550Z 31009KT 280V340 10SM FEW020 22/13 A3004 760 56 1800 310/09 280V340 RMK AO2 SLP168 T02220133
14837KMSN MSN20030629095509606/29/03 09:55:31  5-MIN KMSN 291555Z 31010KT 10SM FEW020 22/13 A3004 760 56 1800 310/10 RMK AO2
14837KMSN MSN20030629100009606/29/03 10:00:31  5-MIN KMSN 291600Z 29009KT 10SM FEW020 22/13 A3004 760 56 1800 290/09 RMK AO2
14837KMSN MSN20030629100509606/29/03 10:05:31  5-MIN KMSN 291605Z 30010KT 10SM FEW020 23/13 A3004 750 53 1900 300/10 RMK AO2
14837KMSN MSN20030629101009606/29/03 10:10:31  5-MIN KMSN 291610Z 30009KT 10SM FEW020 23/13 A3004 750 51 1900 300/09 RMK AO2
14837KMSN MSN20030629101509606/29/03 10:15:31  5-MIN KMSN 291615Z 32009KT 10SM FEW020 23/13 A3004 750 51 1900 320/09 RMK AO2
14837KMSN MSN20030629102011206/29/03 10:20:31  5-MIN KMSN 291620Z 30009KT 260V010 10SM FEW020 23/13 A3004 750 51 1900 300/09 260V010 RMK AO2
14837KMSN MSN20030629102509606/29/03 10:25:31  5-MIN KMSN 291625Z 32009KT 10SM FEW020 24/13 A3004 750 51 2000 320/09 RMK AO2
14837KMSN MSN20030629103009606/29/03 10:30:31  5-MIN KMSN 291630Z 31011KT 10SM FEW020 23/13 A3004 750 51 1900 310/11 RMK AO2
14837KMSN MSN20030629103511206/29/03 10:35:31  5-MIN KMSN 291635Z 32009KT 300V010 10SM FEW030 23/12 A3004 750 49 1900 320/09 300V010 RMK AO2
14837KMSN MSN20030629104011206/29/03 10:40:31  5-MIN KMSN 291640Z 28008KT 240V300 10SM SCT030 24/13 A3004 750 49 2000 280/08 240V300 RMK AO2
14837KMSN MSN20030629104510206/29/03 10:45:31  5-MIN KMSN 291645Z 31010G17KT 10SM SCT030 23/12 A3005 750 49 1900 310/10G17 RMK AO2
14837KMSN MSN20030629105011906/29/03 10:50:31  5-MIN KMSN 291650Z 29013G17KT 10SM SCT030 23/12 A3005 750 49 1900 290/13G17 RMK AO2 SLP171 T02330122
14837KMSN MSN20030629105510206/29/03 10:55:31  5-MIN KMSN 291655Z 31010G17KT 10SM SCT030 23/12 A3005 750 49 1900 310/10G17 RMK AO2
14837KMSN MSN20030629110011806/29/03 11:00:31  5-MIN KMSN 291700Z 32009G16KT 280V350 10SM SCT030 24/12 A3005 750 47 2000 320/09G16 280V350 RMK AO2
14837KMSN MSN20030629110510206/29/03 11:05:31  5-MIN KMSN 291705Z 32013G17KT 10SM SCT030 24/12 A3005 750 47 2000 320/13G17 RMK AO2
14837KMSN MSN20030629111010206/29/03 11:10:31  5-MIN KMSN 291710Z 30013G17KT 10SM SCT030 24/12 A3005 740 47 2000 290/13G17 RMK AO2
14837KMSN MSN20030629111509606/29/03 11:15:31  5-MIN KMSN 291715Z 31011KT 10SM SCT030 24/12 A3005 740 46 2000 310/11 RMK AO2
14837KMSN MSN20030629112010206/29/03 11:20:31  5-MIN KMSN 291720Z 32009G16KT 10SM SCT030 24/12 A3005 740 47 2000 320/09G16 RMK AO2
14837KMSN MSN20030629112511806/29/03 11:25:31  5-MIN KMSN 291725Z 28009G16KT 240V320 10SM SCT040 24/13 A3005 740 47 2000 280/09G16 240V320 RMK AO2
14837KMSN MSN20030629113011206/29/03 11:30:31  5-MIN KMSN 291730Z 30007KT 250V330 10SM SCT040 24/13 A3006 740 49 2000 300/07 250V330 RMK AO2
14837KMSN MSN20030629113511206/29/03 11:35:31  5-MIN KMSN 291735Z 32007KT 270V340 10SM SCT050 24/13 A3006 740 47 2000 320/07 270V340 RMK AO2
14837KMSN MSN20030629114011206/29/03 11:40:31  5-MIN KMSN 291740Z 31007KT 280V340 10SM SCT050 24/13 A3006 740 49 2000 310/07 280V340 RMK AO2
14837KMSN MSN20030629114509606/29/03 11:45:31  5-MIN KMSN 291745Z 31006KT 10SM SCT050 23/12 A3006 740 49 1900 310/06 RMK AO2
14837KMSN MSN20030629115013106/29/03 11:50:31  5-MIN KMSN 291750Z VRB04KT 10SM SCT050 24/13 A3006 740 49 2000 VRB/04 RMK AO2 SLP175 T02390128 10244 20161 51017
14837KMSN MSN20030629115510306/29/03 11:55:31  5-MIN KMSN 291755Z 30006KT 10SM BKN050 BKN060 24/13 A3006 740 49 2000 300/06 RMK AO2
14837KMSN MSN20030629120010306/29/03 12:00:31  5-MIN KMSN 291800Z VRB06KT 10SM SCT050 BKN060 24/13 A3006 740 47 2000 VRB/06 RMK AO2
14837KMSN MSN20030629120510306/29/03 12:05:31  5-MIN KMSN 291805Z 32009KT 10SM SCT050 BKN060 25/13 A3006 740 46 2100 320/09 RMK AO2
14837KMSN MSN20030629121009606/29/03 12:10:31  5-MIN KMSN 291810Z 32007KT 10SM BKN055 24/12 A3006 740 46 2000 320/07 RMK AO2
14837KMSN MSN20030629121510306/29/03 12:15:31  5-MIN KMSN 291815Z 31006KT 10SM BKN050 BKN065 24/12 A3006 740 47 2000 310/06 RMK AO2
14837KMSN MSN20030629122009606/29/03 12:20:31  5-MIN KMSN 291820Z 32009KT 10SM BKN055 24/12 A3006 740 46 2000 320/09 RMK AO2
14837KMSN MSN20030629122511206/29/03 12:25:31  5-MIN KMSN 291825Z 31008KT 280V340 10SM SCT055 25/12 A3006 740 44 2100 310/08 280V340 RMK AO2
14837KMSN MSN20030629123009606/29/03 12:30:31  5-MIN KMSN 291830Z 32009KT 10SM SCT055 25/12 A3006 740 43 2100 320/09 RMK AO2
14837KMSN MSN20030629123511806/29/03 12:35:31  5-MIN KMSN 291835Z 29007G17KT 250V310 10SM FEW055 25/12 A3006 740 43 2100 290/07G17 250V310 RMK AO2
14837KMSN MSN20030629124010206/29/03 12:40:31  5-MIN KMSN 291840Z 28009G17KT 10SM SCT055 26/12 A3006 730 41 2200 280/09G17 RMK AO2
14837KMSN MSN20030629124509606/29/03 12:45:31  5-MIN KMSN 291845Z 29008KT 10SM BKN055 25/12 A3006 730 44 2100 290/08 RMK AO2
14837KMSN MSN20030629125012906/29/03 12:50:31  5-MIN KMSN 291850Z 28010KT 250V340 10SM BKN055 26/12 A3006 740 41 2200 280/10 250V340 RMK AO2 SLP176 T02560117
14837KMSN MSN20030629125509606/29/03 12:55:31  5-MIN KMSN 291855Z 30009KT 10SM BKN060 25/12 A3006 740 43 2100 300/09 RMK AO2
14837KMSN MSN20030629130010206/29/03 13:00:31  5-MIN KMSN 291900Z 31012G17KT 10SM BKN060 25/11 A3006 730 41 2100 310/12G17 RMK AO2
14837KMSN MSN20030629130510206/29/03 13:05:31  5-MIN KMSN 291905Z 33011G17KT 10SM BKN060 25/11 A3006 730 41 2100 330/11G17 RMK AO2
14837KMSN MSN20030629131009606/29/03 13:10:31  5-MIN KMSN 291910Z 31010KT 10SM BKN060 25/11 A3006 730 41 2100 310/10 RMK AO2
14837KMSN MSN20030629131511206/29/03 13:15:31  5-MIN KMSN 291915Z 31008KT 270V340 10SM BKN060 26/12 A3006 730 41 2200 310/08 270V340 RMK AO2
14837KMSN MSN20030629132010206/29/03 13:20:31  5-MIN KMSN 291920Z 29013G18KT 10SM BKN060 26/11 A3006 730 40 2200 290/13G18 RMK AO2
14837KMSN MSN20030629132510206/29/03 13:25:31  5-MIN KMSN 291925Z 29012G18KT 10SM BKN060 25/11 A3007 730 41 2100 290/12G18 RMK AO2
14837KMSN MSN20030629133010206/29/03 13:30:31  5-MIN KMSN 291930Z 30012G18KT 10SM BKN060 26/11 A3007 730 38 2200 300/12G18 RMK AO2
14837KMSN MSN20030629133510206/29/03 13:35:31  5-MIN KMSN 291935Z 26007G15KT 10SM BKN060 25/11 A3007 730 41 2100 260/07G15 RMK AO2
14837KMSN MSN20030629134012506/29/03 13:40:31  5-MIN KMSN 291940Z 29009G15KT 250V320 10SM SCT060 BKN075 26/12 A3007 730 41 2200 290/09G15 250V320 RMK AO2
14837KMSN MSN20030629134512506/29/03 13:45:31  5-MIN KMSN 291945Z 30009G15KT 240V320 10SM SCT060 BKN075 26/12 A3007 730 40 2200 300/09G15 240V320 RMK AO2
14837KMSN MSN20030629135013606/29/03 13:50:31  5-MIN KMSN 291950Z 29007KT 240V350 10SM SCT060 BKN075 26/12 A3007 730 40 2200 290/07 240V350 RMK AO2 SLP179 T02610117
14837KMSN MSN20030629135510306/29/03 13:55:31  5-MIN KMSN 291955Z VRB06KT 10SM SCT060 BKN075 26/12 A3007 720 40 2200 VRB/06 RMK AO2
14837KMSN MSN20030629140010306/29/03 14:00:31  5-MIN KMSN 292000Z 28007KT 10SM SCT065 BKN075 26/12 A3007 720 41 2200 280/07 RMK AO2
14837KMSN MSN20030629140511906/29/03 14:05:31  5-MIN KMSN 292005Z 27008KT 240V310 10SM SCT065 BKN075 25/12 A3007 720 43 2100 270/08 240V310 RMK AO2
14837KMSN MSN20030629141010306/29/03 14:10:31  5-MIN KMSN 292010Z 28007KT 10SM SCT065 BKN075 24/12 A3007 720 44 2000 280/07 RMK AO2
14837KMSN MSN20030629141510306/29/03 14:15:31  5-MIN KMSN 292015Z 30008KT 10SM SCT065 BKN075 24/12 A3007 720 44 2000 300/08 RMK AO2
14837KMSN MSN20030629142010306/29/03 14:20:31  5-MIN KMSN 292020Z 33006KT 10SM SCT060 BKN075 24/12 A3007 720 44 2000 330/06 RMK AO2
14837KMSN MSN20030629142510306/29/03 14:25:31  5-MIN KMSN 292025Z VRB06KT 10SM SCT060 BKN075 26/12 A3007 720 41 2200 VRB/06 RMK AO2
14837KMSN MSN20030629143010306/29/03 14:30:31  5-MIN KMSN 292030Z VRB06KT 10SM SCT060 BKN075 27/12 A3007 720 40 2300 VRB/06 RMK AO2
14837KMSN MSN20030629143511906/29/03 14:35:31  5-MIN KMSN 292035Z 32007KT 290V350 10SM SCT060 BKN075 26/12 A3007 720 41 2200 320/07 290V350 RMK AO2
14837KMSN MSN20030629144011906/29/03 14:40:31  5-MIN KMSN 292040Z 30009KT 260V330 10SM SCT060 BKN075 26/12 A3007 730 40 2200 300/09 260V330 RMK AO2
14837KMSN MSN20030629144511906/29/03 14:45:31  5-MIN KMSN 292045Z 29007KT 250V320 10SM SCT060 BKN075 25/11 A3007 720 41 2100 280/07 250V320 RMK AO2
14837KMSN MSN20030629145012606/29/03 14:50:31  5-MIN KMSN 292050Z 30008KT 10SM SCT065 SCT075 26/12 A3007 720 40 2200 300/08 RMK AO2 SLP179 T02610117 53008
14837KMSN MSN20030629145510306/29/03 14:55:31  5-MIN KMSN 292055Z 32008KT 10SM SCT065 SCT075 26/12 A3007 720 40 2200 320/08 RMK AO2
14837KMSN MSN20030629150010306/29/03 15:00:31  5-MIN KMSN 292100Z 32009KT 10SM SCT065 SCT075 26/12 A3007 720 41 2100 310/09 RMK AO2
14837KMSN MSN20030629150510306/29/03 15:05:31  5-MIN KMSN 292105Z 29007KT 10SM SCT065 SCT075 26/12 A3007 720 41 2100 290/07 RMK AO2
14837KMSN MSN20030629151010306/29/03 15:10:31  5-MIN KMSN 292110Z VRB06KT 10SM SCT065 SCT075 26/12 A3007 720 40 2200 VRB/06 RMK AO2
14837KMSN MSN20030629151510306/29/03 15:15:31  5-MIN KMSN 292115Z VRB05KT 10SM SCT065 SCT075 26/12 A3007 730 40 2200 VRB/05 RMK AO2
14837KMSN MSN20030629152011906/29/03 15:20:31  5-MIN KMSN 292120Z 32008KT 280V340 10SM FEW065 SCT075 26/12 A3007 720 40 2200 320/08 280V340 RMK AO2
14837KMSN MSN20030629152510306/29/03 15:25:31  5-MIN KMSN 292125Z 31006KT 10SM FEW065 SCT075 26/12 A3007 720 41 2200 310/06 RMK AO2
14837KMSN MSN20030629153011906/29/03 15:30:31  5-MIN KMSN 292130Z 29007KT 260V320 10SM FEW065 SCT075 27/12 A3007 720 40 2300 290/07 260V320 RMK AO2
14837KMSN MSN20030629153510906/29/03 15:35:31  5-MIN KMSN 292135Z 30009G17KT 10SM FEW065 SCT075 26/11 A3008 720 38 2200 300/09G17 RMK AO2
14837KMSN MSN20030629154010906/29/03 15:40:31  5-MIN KMSN 292140Z 29007G17KT 10SM FEW065 SCT075 26/11 A3007 720 38 2100 290/07G17 RMK AO2
14837KMSN MSN20030629154509606/29/03 15:45:31  5-MIN KMSN 292145Z 33008KT 10SM FEW065 26/11 A3008 720 40 2100 330/08 RMK AO2
14837KMSN MSN20030629155011306/29/03 15:50:31  5-MIN KMSN 292150Z VRB06KT 10SM FEW065 26/11 A3007 720 40 2100 VRB/06 RMK AO2 SLP181 T02560111
14837KMSN MSN20030629155510206/29/03 15:55:31  5-MIN KMSN 292155Z 32010G14KT 10SM FEW065 26/11 A3007 720 38 2200 320/10G14 RMK AO2
14837KMSN MSN20030629160009606/29/03 16:00:31  5-MIN KMSN 292200Z 33008KT 10SM FEW065 26/11 A3007 720 38 2200 330/08 RMK AO2
14837KMSN MSN20030629160509306/29/03 16:05:31  5-MIN KMSN 292205Z 29008KT 10SM CLR 26/11 A3007 720 38 2200 290/08 RMK AO2
14837KMSN MSN20030629161009306/29/03 16:10:31  5-MIN KMSN 292210Z VRB05KT 10SM CLR 26/11 A3007 720 40 2100 VRB/05 RMK AO2
14837KMSN MSN20030629161509306/29/03 16:15:31  5-MIN KMSN 292215Z 29007KT 10SM CLR 26/11 A3007 720 38 2200 290/07 RMK AO2
14837KMSN MSN20030629162009306/29/03 16:20:31  5-MIN KMSN 292220Z 28008KT 10SM CLR 26/11 A3007 720 40 2100 280/08 RMK AO2
14837KMSN MSN20030629162509306/29/03 16:25:31  5-MIN KMSN 292225Z 31006KT 10SM CLR 26/11 A3007 720 40 2100 300/06 RMK AO2
14837KMSN MSN20030629163009306/29/03 16:30:31  5-MIN KMSN 292230Z 31007KT 10SM CLR 26/11 A3007 720 38 2100 310/07 RMK AO2
14837KMSN MSN20030629163509306/29/03 16:35:31  5-MIN KMSN 292235Z 33007KT 10SM CLR 26/11 A3007 730 37 2200 330/07 RMK AO2
14837KMSN MSN20030629164010906/29/03 16:40:31  5-MIN KMSN 292240Z 32008KT 280V350 10SM CLR 26/11 A3007 730 38 2200 320/08 280V350 RMK AO2
14837KMSN MSN20030629164509306/29/03 16:45:31  5-MIN KMSN 292245Z 31008KT 10SM CLR 26/11 A3007 720 38 2100 310/08 RMK AO2
14837KMSN MSN20030629165011306/29/03 16:50:31  5-MIN KMSN 292250Z 32006KT 10SM FEW065 26/11 A3008 720 40 2100 320/06 RMK AO2 SLP181 T02560111
14837KMSN MSN20030629165509306/29/03 16:55:31  5-MIN KMSN 292255Z VRB04KT 10SM CLR 26/11 A3008 720 38 2200 VRB/04 RMK AO2
14837KMSN MSN20030629170009306/29/03 17:00:31  5-MIN KMSN 292300Z 32005KT 10SM CLR 26/11 A3008 720 38 2200 320/05 RMK AO2
14837KMSN MSN20030629170509606/29/03 17:05:31  5-MIN KMSN 292305Z VRB03KT 10SM FEW075 25/11 A3008 720 41 2100 VRB/03 RMK AO2
14837KMSN MSN20030629171009606/29/03 17:10:31  5-MIN KMSN 292310Z 30006KT 10SM FEW075 26/11 A3008 720 40 2100 300/06 RMK AO2
14837KMSN MSN20030629171509606/29/03 17:15:31  5-MIN KMSN 292315Z 32007KT 10SM FEW070 25/11 A3008 720 41 2100 320/07 RMK AO2
14837KMSN MSN20030629172009606/29/03 17:20:31  5-MIN KMSN 292320Z 31005KT 10SM FEW070 24/11 A3008 720 44 1900 310/05 RMK AO2
14837KMSN MSN20030629172509606/29/03 17:25:31  5-MIN KMSN 292325Z 31003KT 10SM FEW070 24/12 A3008 720 44 2000 310/03 RMK AO2
14837KMSN MSN20030629173009606/29/03 17:30:31  5-MIN KMSN 292330Z 33004KT 10SM FEW090 24/12 A3008 720 44 2000 330/04 RMK AO2
14837KMSN MSN20030629173510306/29/03 17:35:31  5-MIN KMSN 292335Z 33004KT 10SM FEW070 SCT090 25/12 A3008 720 43 2100 330/04 RMK AO2
14837KMSN MSN20030629174010306/29/03 17:40:31  5-MIN KMSN 292340Z 33004KT 10SM SCT075 BKN090 25/12 A3008 720 44 2100 330/04 RMK AO2
14837KMSN MSN20030629174510306/29/03 17:45:31  5-MIN KMSN 292345Z 33003KT 10SM SCT075 SCT090 26/12 A3008 720 41 2100 330/03 RMK AO2
14837KMSN MSN20030629175013106/29/03 17:50:31  5-MIN KMSN 292350Z 33003KT 10SM FEW075 26/12 A3008 720 41 2100 330/03 RMK AO2 SLP183 T02560117 10267 20239 51005
14837KMSN MSN20030629175510306/29/03 17:55:31  5-MIN KMSN 292355Z 00000KT 10SM SCT070 BKN090 26/11 A3008 720 40 2100 000/00 RMK AO2
14837KMSN MSN20030629180009606/29/03 18:00:31  5-MIN KMSN 300000Z VRB03KT 10SM FEW070 26/12 A3008 720 41 2100 VRB/03 RMK AO2
14837KMSN MSN20030629180509606/29/03 18:05:31  5-MIN KMSN 300005Z 34005KT 10SM FEW070 26/12 A3008 720 41 2100 330/05 RMK AO2
14837KMSN MSN20030629181009606/29/03 18:10:31  5-MIN KMSN 300010Z 33004KT 10SM FEW070 26/12 A3008 720 41 2100 330/04 RMK AO2
14837KMSN MSN20030629181509606/29/03 18:15:31  5-MIN KMSN 300015Z 00000KT 10SM FEW070 25/12 A3008 720 43 2100 000/00 RMK AO2
14837KMSN MSN20030629182009606/29/03 18:20:31  5-MIN KMSN 300020Z 00000KT 10SM FEW070 25/12 A3008 710 43 2100 000/00 RMK AO2
14837KMSN MSN20030629182509606/29/03 18:25:31  5-MIN KMSN 300025Z 00000KT 10SM FEW070 25/13 A3009 710 46 2100 000/00 RMK AO2
14837KMSN MSN20030629183009606/29/03 18:30:31  5-MIN KMSN 300030Z 00000KT 10SM FEW070 25/13 A3009 710 48 2100 000/00 RMK AO2
14837KMSN MSN20030629183509606/29/03 18:35:31  5-MIN KMSN 300035Z 00000KT 10SM FEW070 25/13 A3009 710 46 2100 000/00 RMK AO2
14837KMSN MSN20030629184009606/29/03 18:40:31  5-MIN KMSN 300040Z 00000KT 10SM FEW070 24/13 A3009 710 51 1900 000/00 RMK AO2
14837KMSN MSN20030629184509606/29/03 18:45:31  5-MIN KMSN 300045Z 00000KT 10SM FEW070 24/13 A3009 710 49 1900 000/00 RMK AO2
14837KMSN MSN20030629185011306/29/03 18:50:31  5-MIN KMSN 300050Z 00000KT 10SM FEW070 23/13 A3009 710 51 1900 000/00 RMK AO2 SLP186 T02330128
14837KMSN MSN20030629185509306/29/03 18:55:31  5-MIN KMSN 300055Z 00000KT 10SM CLR 23/13 A3009 710 51 1900 000/00 RMK AO2
14837KMSN MSN20030629190009306/29/03 19:00:31  5-MIN KMSN 300100Z 00000KT 10SM CLR 22/14 A3009 700 59 1700 000/00 RMK AO2
14837KMSN MSN20030629190509306/29/03 19:05:31  5-MIN KMSN 300105Z 00000KT 10SM CLR 22/14 A3009 700 61 1700 000/00 RMK AO2
14837KMSN MSN20030629191009306/29/03 19:10:31  5-MIN KMSN 300110Z 00000KT 10SM CLR 21/14 A3009 700 63 1600 000/00 RMK AO2
14837KMSN MSN20030629191509306/29/03 19:15:31  5-MIN KMSN 300115Z 00000KT 10SM CLR 21/14 A3010 700 65 1600 000/00 RMK AO2
14837KMSN MSN20030629192009306/29/03 19:20:31  5-MIN KMSN 300120Z 00000KT 10SM CLR 21/14 A3010 700 65 1600 000/00 RMK AO2
14837KMSN MSN20030629192509306/29/03 19:25:31  5-MIN KMSN 300125Z 00000KT 10SM CLR 21/14 A3010 700 65 1500 000/00 RMK AO2
14837KMSN MSN20030629193009306/29/03 19:30:31  5-MIN KMSN 300130Z 00000KT 10SM CLR 21/14 A3010 700 65 1500 000/00 RMK AO2
14837KMSN MSN20030629193509306/29/03 19:35:31  5-MIN KMSN 300135Z 00000KT 10SM CLR 19/14 A3010 700 72 1400 000/00 RMK AO2
14837KMSN MSN20030629194009306/29/03 19:40:31  5-MIN KMSN 300140Z 00000KT 10SM CLR 19/13 A3010 700 70 1400 000/00 RMK AO2
14837KMSN MSN20030629194509306/29/03 19:45:31  5-MIN KMSN 300145Z 00000KT 10SM CLR 19/14 A3010 700 72 1400 000/00 RMK AO2
14837KMSN MSN20030629195011006/29/03 19:50:31  5-MIN KMSN 300150Z 00000KT 10SM CLR 19/14 A3010 700 72 1400 000/00 RMK AO2 SLP190 T01890139
14837KMSN MSN20030629195509306/29/03 19:55:31  5-MIN KMSN 300155Z 00000KT 10SM CLR 19/14 A3010 700 72 1400 000/00 RMK AO2
14837KMSN MSN20030629200009306/29/03 20:00:31  5-MIN KMSN 300200Z 00000KT 10SM CLR 18/14 A3010 700 75 1300 000/00 RMK AO2
14837KMSN MSN20030629200509306/29/03 20:05:31  5-MIN KMSN 300205Z 00000KT 10SM CLR 18/14 A3010 690 75 1300 000/00 RMK AO2
14837KMSN MSN20030629201009306/29/03 20:10:31  5-MIN KMSN 300210Z 00000KT 10SM CLR 18/14 A3011 690 78 1200 000/00 RMK AO2
14837KMSN MSN20030629201509306/29/03 20:15:31  5-MIN KMSN 300215Z 00000KT 10SM CLR 18/14 A3011 690 78 1200 000/00 RMK AO2
14837KMSN MSN20030629202009306/29/03 20:20:31  5-MIN KMSN 300220Z 00000KT 10SM CLR 18/14 A3011 690 75 1300 000/00 RMK AO2
14837KMSN MSN20030629202509306/29/03 20:25:31  5-MIN KMSN 300225Z 00000KT 10SM CLR 18/14 A3011 690 75 1300 000/00 RMK AO2
14837KMSN MSN20030629203009306/29/03 20:30:31  5-MIN KMSN 300230Z 00000KT 10SM CLR 18/13 A3011 690 75 1200 000/00 RMK AO2
14837KMSN MSN20030629203509306/29/03 20:35:31  5-MIN KMSN 300235Z 00000KT 10SM CLR 18/13 A3012 680 72 1200 000/00 RMK AO2
14837KMSN MSN20030629204009306/29/03 20:40:31  5-MIN KMSN 300240Z 00000KT 10SM CLR 18/13 A3012 680 75 1200 000/00 RMK AO2
14837KMSN MSN20030629204509306/29/03 20:45:31  5-MIN KMSN 300245Z 00000KT 10SM CLR 18/13 A3012 680 75 1200 000/00 RMK AO2
14837KMSN MSN20030629205011606/29/03 20:50:31  5-MIN KMSN 300250Z 00000KT 10SM CLR 17/13 A3012 680 75 1100 000/00 RMK AO2 SLP197 T01720128 53002
14837KMSN MSN20030629205509306/29/03 20:55:31  5-MIN KMSN 300255Z 00000KT 10SM CLR 17/13 A3012 680 75 1100 000/00 RMK AO2
14837KMSN MSN20030629210009306/29/03 21:00:31  5-MIN KMSN 300300Z 00000KT 10SM CLR 17/13 A3012 680 75 1100 000/00 RMK AO2
14837KMSN MSN20030629210509306/29/03 21:05:31  5-MIN KMSN 300305Z 00000KT 10SM CLR 17/13 A3012 680 77 1100 000/00 RMK AO2
14837KMSN MSN20030629211009306/29/03 21:10:31  5-MIN KMSN 300310Z 00000KT 10SM CLR 17/13 A3012 680 78 1100 000/00 RMK AO2
14837KMSN MSN20030629211509306/29/03 21:15:31  5-MIN KMSN 300315Z 00000KT 10SM CLR 18/13 A3012 680 75 1200 000/00 RMK AO2
14837KMSN MSN20030629212009306/29/03 21:20:31  5-MIN KMSN 300320Z 00000KT 10SM CLR 16/13 A3012 680 80 1000 000/00 RMK AO2
14837KMSN MSN20030629212509306/29/03 21:25:31  5-MIN KMSN 300325Z 00000KT 10SM CLR 16/13 A3012 680 80 1000 000/00 RMK AO2
14837KMSN MSN20030629213009306/29/03 21:30:31  5-MIN KMSN 300330Z 00000KT 10SM CLR 16/13 A3012 680 83 1000 000/00 RMK AO2
14837KMSN MSN20030629213509306/29/03 21:35:31  5-MIN KMSN 300335Z 00000KT 10SM CLR 16/13 A3012 680 83 1000 000/00 RMK AO2
14837KMSN MSN20030629214009306/29/03 21:40:31  5-MIN KMSN 300340Z 00000KT 10SM CLR 17/13 A3013 680 80 1100 000/00 RMK AO2
14837KMSN MSN20030629214509306/29/03 21:45:31  5-MIN KMSN 300345Z 00000KT 10SM CLR 17/13 A3012 680 78 1100 000/00 RMK AO2
14837KMSN MSN20030629215011006/29/03 21:50:31  5-MIN KMSN 300350Z 00000KT 10SM CLR 17/13 A3012 680 80 1100 000/00 RMK AO2 SLP198 T01670133
14837KMSN MSN20030629215509306/29/03 21:55:31  5-MIN KMSN 300355Z 00000KT 10SM CLR 17/13 A3012 680 80 1100 000/00 RMK AO2
14837KMSN MSN20030629220009306/29/03 22:00:31  5-MIN KMSN 300400Z 00000KT 10SM CLR 17/13 A3013 680 80 1100 000/00 RMK AO2
14837KMSN MSN20030629220509306/29/03 22:05:31  5-MIN KMSN 300405Z 00000KT 10SM CLR 17/13 A3012 680 78 1100 000/00 RMK AO2
14837KMSN MSN20030629221009306/29/03 22:10:31  5-MIN KMSN 300410Z 00000KT 10SM CLR 17/13 A3013 680 80 1100 000/00 RMK AO2
14837KMSN MSN20030629221509306/29/03 22:15:31  5-MIN KMSN 300415Z 00000KT 10SM CLR 16/13 A3012 680 83 1000 000/00 RMK AO2
14837KMSN MSN20030629222009306/29/03 22:20:31  5-MIN KMSN 300420Z 00000KT 10SM CLR 17/13 A3013 680 80 1100 000/00 RMK AO2
14837KMSN MSN20030629222509306/29/03 22:25:31  5-MIN KMSN 300425Z 00000KT 10SM CLR 16/13 A3013 670 83 1000 000/00 RMK AO2
14837KMSN MSN20030629223009306/29/03 22:30:31  5-MIN KMSN 300430Z 00000KT 10SM CLR 17/13 A3013 670 80 1100 000/00 RMK AO2
14837KMSN MSN20030629223509306/29/03 22:35:31  5-MIN KMSN 300435Z 00000KT 10SM CLR 16/13 A3013 670 83 1000 000/00 RMK AO2
14837KMSN MSN20030629224009206/29/03 22:40:31  5-MIN KMSN 300440Z 00000KT 10SM CLR 15/13 A3013 670 86 900 000/00 RMK AO2
14837KMSN MSN20030629224509206/29/03 22:45:31  5-MIN KMSN 300445Z 00000KT 10SM CLR 15/13 A3013 670 90 900 000/00 RMK AO2
14837KMSN MSN20030629225010906/29/03 22:50:31  5-MIN KMSN 300450Z 00000KT 10SM CLR 15/13 A3013 670 90 900 000/00 RMK AO2 SLP201 T01500133
14837KMSN MSN20030629225509206/29/03 22:55:31  5-MIN KMSN 300455Z 00000KT 10SM CLR 15/13 A3013 670 90 900 000/00 RMK AO2
14837KMSN MSN20030629230009206/29/03 23:00:31  5-MIN KMSN 300500Z 00000KT 10SM CLR 15/13 A3013 670 90 900 000/00 RMK AO2
14837KMSN MSN20030629230509206/29/03 23:05:31  5-MIN KMSN 300505Z 00000KT 10SM CLR 14/13 A3014 670 93 800 000/00 RMK AO2
14837KMSN MSN20030629231009206/29/03 23:10:31  5-MIN KMSN 300510Z 00000KT 10SM CLR 15/13 A3013 670 90 900 000/00 RMK AO2
14837KMSN MSN20030629231509206/29/03 23:15:31  5-MIN KMSN 300515Z 00000KT 10SM CLR 16/14 A3014 670 90 900 000/00 RMK AO2
14837KMSN MSN20030629232009106/29/03 23:20:31  5-MIN KMSN 300520Z 00000KT 9SM CLR 16/14 A3014 660 90 900 000/00 RMK AO2
14837KMSN MSN20030629232509106/29/03 23:25:31  5-MIN KMSN 300525Z 00000KT 9SM CLR 15/13 A3014 660 90 900 000/00 RMK AO2
14837KMSN MSN20030629233009106/29/03 23:30:31  5-MIN KMSN 300530Z 00000KT 9SM CLR 15/14 A3014 660 93 900 000/00 RMK AO2
14837KMSN MSN20030629233509106/29/03 23:35:31  5-MIN KMSN 300535Z 00000KT 9SM CLR 14/13 A3014 660 93 800 000/00 RMK AO2
14837KMSN MSN20030629234009206/29/03 23:40:31  5-MIN KMSN 300540Z 00000KT 10SM CLR 15/13 A3014 660 90 900 000/00 RMK AO2
14837KMSN MSN20030629234509206/29/03 23:45:31  5-MIN KMSN 300545Z 35003KT 10SM CLR 15/13 A3014 660 90 900 350/03 RMK AO2
14837KMSN MSN20030629235013606/29/03 23:50:31  5-MIN KMSN 300550Z 00000KT 9SM CLR 14/13 A3014 660 93 800 000/00 RMK AO2 SLP204 T01440133 10256 20144 402670144 53014
14837KMSN MSN20030629235509106/29/03 23:55:31  5-MIN KMSN 300555Z 00000KT 9SM CLR 15/14 A3014 660 93 900 000/00 RMK AO2
14837KMSN MSN20030630000009206/30/03 00:00:31  5-MIN KMSN 300600Z 00000KT 10SM CLR 15/14 A3014 660 93 900 000/00 RMK AO2
14837KMSN MSN20030630000509106/30/03 00:05:31  5-MIN KMSN 300605Z 00000KT 9SM CLR 14/13 A3014 660 93 800 000/00 RMK AO2
14837KMSN MSN20030630001009106/30/03 00:10:31  5-MIN KMSN 300610Z 00000KT 9SM CLR 14/13 A3014 660 93 800 000/00 RMK AO2
14837KMSN MSN20030630001509106/30/03 00:15:31  5-MIN KMSN 300615Z 00000KT 9SM CLR 14/13 A3014 660 93 800 000/00 RMK AO2
14837KMSN MSN20030630002009106/30/03 00:20:31  5-MIN KMSN 300620Z 00000KT 9SM CLR 14/13 A3014 660 96 700 000/00 RMK AO2
14837KMSN MSN20030630002509106/30/03 00:25:31  5-MIN KMSN 300625Z 00000KT 8SM CLR 14/13 A3014 660 96 700 000/00 RMK AO2
14837KMSN MSN20030630003009106/30/03 00:30:31  5-MIN KMSN 300630Z 00000KT 8SM CLR 14/13 A3014 660 93 800 000/00 RMK AO2
14837KMSN MSN20030630003509106/30/03 00:35:31  5-MIN KMSN 300635Z 00000KT 9SM CLR 14/14 A3014 660 96 800 000/00 RMK AO2
14837KMSN MSN20030630004009206/30/03 00:40:31  5-MIN KMSN 300640Z 00000KT 10SM CLR 14/13 A3014 660 93 800 000/00 RMK AO2
14837KMSN MSN20030630004509206/30/03 00:45:31  5-MIN KMSN 300645Z 00000KT 10SM CLR 14/13 A3014 660 93 800 000/00 RMK AO2
14837KMSN MSN20030630005010906/30/03 00:50:31  5-MIN KMSN 300650Z 00000KT 10SM CLR 14/13 A3014 660 93 800 000/00 RMK AO2 SLP203 T01440133
14837KMSN MSN20030630005509206/30/03 00:55:31  5-MIN KMSN 300655Z 00000KT 10SM CLR 15/13 A3014 660 90 900 000/00 RMK AO2
14837KMSN MSN20030630010009206/30/03 01:00:31  5-MIN KMSN 300700Z 00000KT 10SM CLR 14/13 A3014 660 93 800 000/00 RMK AO2
14837KMSN MSN20030630010509206/30/03 01:05:31  5-MIN KMSN 300705Z 00000KT 10SM CLR 14/14 A3014 660 96 800 000/00 RMK AO2
14837KMSN MSN20030630011009106/30/03 01:10:31  5-MIN KMSN 300710Z 00000KT 9SM CLR 14/13 A3014 660 93 800 000/00 RMK AO2
14837KMSN MSN20030630011509106/30/03 01:15:31  5-MIN KMSN 300715Z 00000KT 9SM CLR 14/13 A3014 660 93 800 000/00 RMK AO2
14837KMSN MSN20030630012009106/30/03 01:20:31  5-MIN KMSN 300720Z 00000KT 8SM CLR 14/13 A3014 660 96 700 000/00 RMK AO2
14837KMSN MSN20030630012509106/30/03 01:25:31  5-MIN KMSN 300725Z 00000KT 8SM CLR 14/13 A3014 660 93 800 000/00 RMK AO2
14837KMSN MSN20030630013009106/30/03 01:30:31  5-MIN KMSN 300730Z 00000KT 9SM CLR 14/13 A3014 660 93 800 000/00 RMK AO2
14837KMSN MSN20030630013509106/30/03 01:35:31  5-MIN KMSN 300735Z 00000KT 9SM CLR 14/13 A3014 660 93 800 000/00 RMK AO2
14837KMSN MSN20030630014009106/30/03 01:40:31  5-MIN KMSN 300740Z 00000KT 8SM CLR 14/13 A3014 660 96 700 000/00 RMK AO2
14837KMSN MSN20030630014509106/30/03 01:45:31  5-MIN KMSN 300745Z 00000KT 8SM CLR 14/13 A3014 660 93 700 000/00 RMK AO2
14837KMSN MSN20030630015010906/30/03 01:50:31  5-MIN KMSN 300750Z 00000KT 10SM CLR 13/13 A3014 660 96 700 000/00 RMK AO2 SLP204 T01330128
14837KMSN MSN20030630015509106/30/03 01:55:31  5-MIN KMSN 300755Z 13003KT 9SM CLR 14/13 A3014 660 93 700 130/03 RMK AO2
14837KMSN MSN20030630020009206/30/03 02:00:31  5-MIN KMSN 300800Z 00000KT 10SM CLR 15/13 A3014 660 86 900 000/00 RMK AO2
14837KMSN MSN20030630020509206/30/03 02:05:31  5-MIN KMSN 300805Z 00000KT 10SM CLR 15/13 A3014 660 90 900 000/00 RMK AO2
14837KMSN MSN20030630021009206/30/03 02:10:31  5-MIN KMSN 300810Z 00000KT 10SM CLR 14/13 A3014 660 93 700 000/00 RMK AO2
14837KMSN MSN20030630021509106/30/03 02:15:31  5-MIN KMSN 300815Z 00000KT 9SM CLR 13/13 A3014 660 96 700 000/00 RMK AO2
14837KMSN MSN20030630022009106/30/03 02:20:31  5-MIN KMSN 300820Z 00000KT 9SM CLR 14/13 A3014 660 93 700 000/00 RMK AO2
14837KMSN MSN20030630022509206/30/03 02:25:31  5-MIN KMSN 300825Z 00000KT 10SM CLR 14/13 A3014 660 93 800 000/00 RMK AO2
14837KMSN MSN20030630023009106/30/03 02:30:31  5-MIN KMSN 300830Z 00000KT 9SM CLR 14/13 A3014 660 93 700 000/00 RMK AO2
14837KMSN MSN20030630023509106/30/03 02:35:31  5-MIN KMSN 300835Z 00000KT 8SM CLR 14/13 A3014 660 93 700 000/00 RMK AO2
14837KMSN MSN20030630024009106/30/03 02:40:31  5-MIN KMSN 300840Z 00000KT 8SM CLR 13/13 A3014 660 96 700 000/00 RMK AO2
14837KMSN MSN20030630024509106/30/03 02:45:31  5-MIN KMSN 300845Z 00000KT 7SM CLR 13/13 A3014 660 96 700 000/00 RMK AO2
14837KMSN MSN20030630025011406/30/03 02:50:31  5-MIN KMSN 300850Z 00000KT 9SM CLR 13/12 A3014 660 96 600 000/00 RMK AO2 SLP204 T01280122 53007
14837KMSN MSN20030630025509106/30/03 02:55:31  5-MIN KMSN 300855Z 00000KT 7SM CLR 14/13 A3014 660 96 700 000/00 RMK AO2
14837KMSN MSN20030630030009106/30/03 03:00:31  5-MIN KMSN 300900Z 00000KT 8SM CLR 14/13 A3014 660 96 700 000/00 RMK AO2
14837KMSN MSN20030630030509106/30/03 03:05:31  5-MIN KMSN 300905Z 00000KT 7SM CLR 14/13 A3014 660 93 700 000/00 RMK AO2
14837KMSN MSN20030630031009106/30/03 03:10:31  5-MIN KMSN 300910Z 00000KT 7SM CLR 14/13 A3015 660 96 700 000/00 RMK AO2
14837KMSN MSN20030630031509406/30/03 03:15:31  5-MIN KMSN 300915Z 00000KT 6SM BR CLR 13/13 A3015 660 96 700 000/00 RMK AO2
14837KMSN MSN20030630032009406/30/03 03:20:31  5-MIN KMSN 300920Z 00000KT 6SM BR CLR 13/12 A3015 660 93 700 000/00 RMK AO2
14837KMSN MSN20030630032509106/30/03 03:25:31  5-MIN KMSN 300925Z 02003KT 9SM CLR 13/12 A3015 660 93 700 020/03 RMK AO2
14837KMSN MSN20030630033009206/30/03 03:30:31  5-MIN KMSN 300930Z 00000KT 10SM CLR 13/12 A3015 650 96 600 000/00 RMK AO2
14837KMSN MSN20030630033509206/30/03 03:35:31  5-MIN KMSN 300935Z 00000KT 10SM CLR 13/12 A3015 650 93 600 000/00 RMK AO2
14837KMSN MSN20030630034009206/30/03 03:40:31  5-MIN KMSN 300940Z 15003KT 10SM CLR 13/12 A3015 650 93 600 150/03 RMK AO2
14837KMSN MSN20030630034509206/30/03 03:45:31  5-MIN KMSN 300945Z 00000KT 10SM CLR 14/12 A3016 650 90 700 000/00 RMK AO2
14837KMSN MSN20030630035010906/30/03 03:50:31  5-MIN KMSN 300950Z 00000KT 10SM CLR 14/12 A3016 650 90 700 000/00 RMK AO2 SLP208 T01390122
14837KMSN MSN20030630035509206/30/03 03:55:31  5-MIN KMSN 300955Z 00000KT 10SM CLR 14/12 A3015 650 90 700 000/00 RMK AO2
14837KMSN MSN20030630040009106/30/03 04:00:31  5-MIN KMSN 301000Z 00000KT 9SM CLR 13/12 A3016 650 93 600 000/00 RMK AO2
14837KMSN MSN20030630040509106/30/03 04:05:31  5-MIN KMSN 301005Z 00000KT 8SM CLR 13/12 A3016 650 93 600 000/00 RMK AO2
14837KMSN MSN20030630041009106/30/03 04:10:31  5-MIN KMSN 301010Z 17003KT 9SM CLR 13/12 A3016 640 93 600 170/03 RMK AO2
14837KMSN MSN20030630041509106/30/03 04:15:31  5-MIN KMSN 301015Z 00000KT 9SM CLR 13/12 A3016 640 93 600 000/00 RMK AO2
14837KMSN MSN20030630042009206/30/03 04:20:31  5-MIN KMSN 301020Z 00000KT 10SM CLR 14/12 A3016 640 86 700 000/00 RMK AO2
14837KMSN MSN20030630042509106/30/03 04:25:31  5-MIN KMSN 301025Z 00000KT 8SM CLR 13/12 A3016 640 93 600 000/00 RMK AO2
14837KMSN MSN20030630043009106/30/03 04:30:31  5-MIN KMSN 301030Z 00000KT 7SM CLR 13/12 A3016 640 96 600 000/00 RMK AO2
14837KMSN MSN20030630043509106/30/03 04:35:31  5-MIN KMSN 301035Z 00000KT 7SM CLR 13/12 A3016 640 93 600 000/00 RMK AO2
14837KMSN MSN20030630044009106/30/03 04:40:31  5-MIN KMSN 301040Z 00000KT 7SM CLR 13/12 A3016 640 96 600 000/00 RMK AO2
14837KMSN MSN20030630044509106/30/03 04:45:31  5-MIN KMSN 301045Z 00000KT 7SM CLR 13/12 A3016 640 93 600 000/00 RMK AO2
14837KMSN MSN20030630045010906/30/03 04:50:31  5-MIN KMSN 301050Z 00000KT 10SM CLR 13/13 A3016 640 96 600 000/00 RMK AO2 SLP211 T01330128
14837KMSN MSN20030630045509406/30/03 04:55:31  5-MIN KMSN 301055Z 00000KT 5SM BR CLR 13/12 A3016 640 96 600 000/00 RMK AO2
14837KMSN MSN20030630050009206/30/03 05:00:31  5-MIN KMSN 301100Z 00000KT 10SM CLR 14/13 A3016 640 93 700 000/00 RMK AO2
14837KMSN MSN20030630050509206/30/03 05:05:31  5-MIN KMSN 301105Z 00000KT 10SM CLR 13/13 A3016 640 96 600 000/00 RMK AO2
14837KMSN MSN20030630051009206/30/03 05:10:31  5-MIN KMSN 301110Z 00000KT 10SM CLR 14/13 A3017 640 93 700 000/00 RMK AO2
14837KMSN MSN20030630051509206/30/03 05:15:31  5-MIN KMSN 301115Z 00000KT 10SM CLR 14/13 A3017 640 96 700 000/00 RMK AO2
14837KMSN MSN20030630052009206/30/03 05:20:31  5-MIN KMSN 301120Z 00000KT 10SM CLR 14/13 A3017 640 93 800 000/00 RMK AO2
14837KMSN MSN20030630052509206/30/03 05:25:31  5-MIN KMSN 301125Z 00000KT 10SM CLR 15/14 A3017 640 93 800 000/00 RMK AO2
14837KMSN MSN20030630053009206/30/03 05:30:31  5-MIN KMSN 301130Z 00000KT 10SM CLR 15/14 A3017 640 93 800 000/00 RMK AO2
14837KMSN MSN20030630053509206/30/03 05:35:31  5-MIN KMSN 301135Z 00000KT 10SM CLR 16/14 A3017 630 90 900 000/00 RMK AO2
14837KMSN MSN20030630054009306/30/03 05:40:31  5-MIN KMSN 301140Z 00000KT 10SM CLR 16/14 A3017 640 90 1000 000/00 RMK AO2
14837KMSN MSN20030630054509306/30/03 05:45:31  5-MIN KMSN 301145Z 00000KT 10SM CLR 17/15 A3017 640 90 1000 000/00 RMK AO2
14837KMSN MSN20030630055012806/30/03 05:50:31  5-MIN KMSN 301150Z 00000KT 10SM CLR 17/15 A3017 630 87 1100 000/00 RMK AO2 SLP212 T01720150 10172 20128 53001
14837KMSN MSN20030630055509206/30/03 05:55:31  5-MIN KMSN 301155Z 00000KT 9SM CLR 18/16 A3017 630 87 1100 000/00 RMK AO2
14837KMSN MSN20030630060009206/30/03 06:00:31  5-MIN KMSN 301200Z 00000KT 9SM CLR 18/15 A3017 630 83 1100 000/00 RMK AO2
14837KMSN MSN20030630060509306/30/03 06:05:31  5-MIN KMSN 301205Z 00000KT 10SM CLR 18/15 A3017 630 81 1200 000/00 RMK AO2
14837KMSN MSN20030630061009306/30/03 06:10:31  5-MIN KMSN 301210Z 00000KT 10SM CLR 19/16 A3017 630 81 1300 000/00 RMK AO2
14837KMSN MSN20030630061509306/30/03 06:15:31  5-MIN KMSN 301215Z 00000KT 10SM CLR 19/16 A3017 630 78 1300 000/00 RMK AO2
14837KMSN MSN20030630062009306/30/03 06:20:31  5-MIN KMSN 301220Z 00000KT 10SM CLR 19/14 A3017 630 72 1300 000/00 RMK AO2
14837KMSN MSN20030630062509306/30/03 06:25:31  5-MIN KMSN 301225Z 00000KT 10SM CLR 20/15 A3017 630 72 1400 000/00 RMK AO2
14837KMSN MSN20030630063009306/30/03 06:30:31  5-MIN KMSN 301230Z 00000KT 10SM CLR 20/16 A3017 630 75 1400 000/00 RMK AO2
14837KMSN MSN20030630063509306/30/03 06:35:31  5-MIN KMSN 301235Z 02003KT 10SM CLR 20/16 A3017 630 75 1400 020/03 RMK AO2
14837KMSN MSN20030630064009306/30/03 06:40:31  5-MIN KMSN 301240Z 03003KT 10SM CLR 20/15 A3017 630 72 1400 030/03 RMK AO2
14837KMSN MSN20030630064509306/30/03 06:45:31  5-MIN KMSN 301245Z 00000KT 10SM CLR 20/16 A3017 630 75 1400 000/00 RMK AO2
14837KMSN MSN20030630065011006/30/03 06:50:31  5-MIN KMSN 301250Z 00000KT 10SM CLR 21/15 A3017 630 70 1500 000/00 RMK AO2 SLP213 T02060150
14837KMSN MSN20030630065509306/30/03 06:55:31  5-MIN KMSN 301255Z 00000KT 10SM CLR 21/15 A3017 630 68 1500 000/00 RMK AO2
14837KMSN MSN20030630070009306/30/03 07:00:31  5-MIN KMSN 301300Z VRB03KT 10SM CLR 22/14 A3017 630 61 1600 VRB/03 RMK AO2
14837KMSN MSN20030630070509306/30/03 07:05:31  5-MIN KMSN 301305Z 00000KT 10SM CLR 22/13 A3017 630 58 1600 000/00 RMK AO2
14837KMSN MSN20030630071009306/30/03 07:10:31  5-MIN KMSN 301310Z 28003KT 10SM CLR 22/13 A3017 630 58 1600 270/03 RMK AO2
14837KMSN MSN20030630071509306/30/03 07:15:31  5-MIN KMSN 301315Z 30004KT 10SM CLR 22/13 A3018 630 58 1600 290/04 RMK AO2
14837KMSN MSN20030630072009306/30/03 07:20:31  5-MIN KMSN 301320Z 30005KT 10SM CLR 22/14 A3018 630 61 1600 290/05 RMK AO2
14837KMSN MSN20030630072509306/30/03 07:25:31  5-MIN KMSN 301325Z 29004KT 10SM CLR 22/13 A3018 630 56 1700 290/04 RMK AO2
14837KMSN MSN20030630073009306/30/03 07:30:31  5-MIN KMSN 301330Z VRB03KT 10SM CLR 22/13 A3018 630 56 1700 VRB/03 RMK AO2
14837KMSN MSN20030630073509306/30/03 07:35:31  5-MIN KMSN 301335Z 30004KT 10SM CLR 22/14 A3018 630 59 1700 300/04 RMK AO2
14837KMSN MSN20030630074009306/30/03 07:40:31  5-MIN KMSN 301340Z VRB03KT 10SM CLR 22/14 A3017 630 59 1700 VRB/03 RMK AO2
14837KMSN MSN20030630074509306/30/03 07:45:31  5-MIN KMSN 301345Z VRB04KT 10SM CLR 22/14 A3017 630 59 1700 VRB/04 RMK AO2
14837KMSN MSN20030630075011006/30/03 07:50:31  5-MIN KMSN 301350Z 32004KT 10SM CLR 23/14 A3017 630 59 1700 320/04 RMK AO2 SLP213 T02280144
14837KMSN MSN20030630075509306/30/03 07:55:31  5-MIN KMSN 301355Z 32004KT 10SM CLR 23/14 A3017 630 57 1800 320/04 RMK AO2
14837KMSN MSN20030630080009306/30/03 08:00:31  5-MIN KMSN 301400Z 32004KT 10SM CLR 23/14 A3017 630 59 1700 320/04 RMK AO2
14837KMSN MSN20030630080509306/30/03 08:05:31  5-MIN KMSN 301405Z 31005KT 10SM CLR 23/14 A3017 630 57 1800 310/05 RMK AO2
14837KMSN MSN20030630081009306/30/03 08:10:31  5-MIN KMSN 301410Z 30004KT 10SM CLR 23/14 A3017 630 57 1800 300/04 RMK AO2
14837KMSN MSN20030630081509306/30/03 08:15:31  5-MIN KMSN 301415Z VRB04KT 10SM CLR 23/14 A3017 630 57 1800 VRB/04 RMK AO2
14837KMSN MSN20030630082009306/30/03 08:20:31  5-MIN KMSN 301420Z VRB05KT 10SM CLR 23/14 A3017 630 57 1800 VRB/05 RMK AO2
14837KMSN MSN20030630082509306/30/03 08:25:31  5-MIN KMSN 301425Z 00000KT 10SM CLR 23/14 A3017 630 55 1800 000/00 RMK AO2
14837KMSN MSN20030630083009306/30/03 08:30:31  5-MIN KMSN 301430Z VRB04KT 10SM CLR 23/14 A3017 630 55 1800 VRB/04 RMK AO2
14837KMSN MSN20030630083509306/30/03 08:35:31  5-MIN KMSN 301435Z VRB04KT 10SM CLR 24/14 A3017 630 55 1800 VRB/04 RMK AO2
14837KMSN MSN20030630084009306/30/03 08:40:31  5-MIN KMSN 301440Z VRB03KT 10SM CLR 24/14 A3017 630 53 1800 VRB/03 RMK AO2
14837KMSN MSN20030630084509306/30/03 08:45:31  5-MIN KMSN 301445Z 30005KT 10SM CLR 24/13 A3018 630 51 1800 300/05 RMK AO2
14837KMSN MSN20030630085011606/30/03 08:50:31  5-MIN KMSN 301450Z 32005KT 10SM CLR 24/13 A3018 630 49 1900 320/05 RMK AO2 SLP215 T02440133 51009
14837KMSN MSN20030630085509306/30/03 08:55:31  5-MIN KMSN 301455Z VRB04KT 10SM CLR 24/14 A3018 630 51 1900 VRB/04 RMK AO2
14837KMSN MSN20030630090009306/30/03 09:00:31  5-MIN KMSN 301500Z 30004KT 10SM CLR 24/14 A3018 630 51 1900 300/04 RMK AO2
14837KMSN MSN20030630090509306/30/03 09:05:31  5-MIN KMSN 301505Z 32004KT 10SM CLR 25/14 A3018 630 49 2000 320/04 RMK AO2
14837KMSN MSN20030630091009306/30/03 09:10:31  5-MIN KMSN 301510Z VRB04KT 10SM CLR 25/14 A3018 630 49 2000 VRB/04 RMK AO2
14837KMSN MSN20030630091509306/30/03 09:15:31  5-MIN KMSN 301515Z VRB04KT 10SM CLR 25/14 A3018 630 49 2000 VRB/04 RMK AO2
14837KMSN MSN20030630092009306/30/03 09:20:31  5-MIN KMSN 301520Z VRB03KT 10SM CLR 25/14 A3018 630 49 2000 VRB/03 RMK AO2
14837KMSN MSN20030630092509306/30/03 09:25:31  5-MIN KMSN 301525Z 31005KT 10SM CLR 25/13 A3018 630 48 2000 310/05 RMK AO2
14837KMSN MSN20030630093009306/30/03 09:30:31  5-MIN KMSN 301530Z 27004KT 10SM CLR 26/13 A3018 630 46 2000 270/04 RMK AO2
14837KMSN MSN20030630093509306/30/03 09:35:31  5-MIN KMSN 301535Z 34003KT 10SM CLR 26/13 A3018 630 44 2000 340/03 RMK AO2
14837KMSN MSN20030630094009306/30/03 09:40:31  5-MIN KMSN 301540Z VRB06KT 10SM CLR 26/13 A3018 630 46 2000 VRB/06 RMK AO2
14837KMSN MSN20030630094509306/30/03 09:45:31  5-MIN KMSN 301545Z VRB04KT 10SM CLR 26/13 A3018 630 46 2000 VRB/04 RMK AO2
14837KMSN MSN20030630095011006/30/03 09:50:31  5-MIN KMSN 301550Z 34004KT 10SM CLR 26/13 A3018 630 44 2000 340/04 RMK AO2 SLP215 T02560128
14837KMSN MSN20030630095509606/30/03 09:55:31  5-MIN KMSN 301555Z VRB04KT 10SM FEW050 26/13 A3018 630 44 2100 VRB/04 RMK AO2
14837KMSN MSN20030630100009306/30/03 10:00:31  5-MIN KMSN 301600Z 27004KT 10SM CLR 26/13 A3018 630 43 2100 270/04 RMK AO2
14837KMSN MSN20030630100509306/30/03 10:05:31  5-MIN KMSN 301605Z VRB03KT 10SM CLR 26/12 A3018 630 43 2000 VRB/03 RMK AO2
14837KMSN MSN20030630101009306/30/03 10:10:31  5-MIN KMSN 301610Z VRB05KT 10SM CLR 27/13 A3018 630 43 2200 VRB/05 RMK AO2
14837KMSN MSN20030630101509306/30/03 10:15:31  5-MIN KMSN 301615Z 00000KT 10SM CLR 26/13 A3017 630 43 2100 000/00 RMK AO2
14837KMSN MSN20030630102009306/30/03 10:20:31  5-MIN KMSN 301620Z 26004KT 10SM CLR 27/13 A3017 630 43 2200 260/04 RMK AO2
14837KMSN MSN20030630102509306/30/03 10:25:31  5-MIN KMSN 301625Z 26004KT 10SM CLR 26/13 A3017 630 43 2100 260/04 RMK AO2
14837KMSN MSN20030630103009306/30/03 10:30:31  5-MIN KMSN 301630Z 25004KT 10SM CLR 26/12 A3017 630 41 2100 250/04 RMK AO2
14837KMSN MSN20030630103509306/30/03 10:35:31  5-MIN KMSN 301635Z VRB05KT 10SM CLR 26/12 A3017 630 41 2100 VRB/05 RMK AO2
14837KMSN MSN20030630104009306/30/03 10:40:31  5-MIN KMSN 301640Z VRB04KT 10SM CLR 26/13 A3017 630 43 2100 VRB/04 RMK AO2
14837KMSN MSN20030630104509306/30/03 10:45:31  5-MIN KMSN 301645Z VRB05KT 10SM CLR 27/13 A3017 630 41 2200 VRB/05 RMK AO2
14837KMSN MSN20030630105011006/30/03 10:50:31  5-MIN KMSN 301650Z 20007KT 10SM CLR 26/12 A3017 630 41 2100 200/07 RMK AO2 SLP215 T02610122
14837KMSN MSN20030630105509606/30/03 10:55:31  5-MIN KMSN 301655Z 22007KT 10SM SCT055 26/12 A3017 630 41 2100 220/07 RMK AO2
14837KMSN MSN20030630110009306/30/03 11:00:31  5-MIN KMSN 301700Z 23006KT 10SM CLR 26/12 A3017 630 41 2100 230/06 RMK AO2
14837KMSN MSN20030630110509306/30/03 11:05:31  5-MIN KMSN 301705Z VRB05KT 10SM CLR 27/13 A3017 630 41 2200 VRB/05 RMK AO2
14837KMSN MSN20030630111009306/30/03 11:10:31  5-MIN KMSN 301710Z VRB05KT 10SM CLR 27/12 A3017 630 40 2200 VRB/05 RMK AO2
14837KMSN MSN20030630111509306/30/03 11:15:31  5-MIN KMSN 301715Z 19005KT 10SM CLR 27/12 A3017 630 38 2200 190/05 RMK AO2
14837KMSN MSN20030630112009306/30/03 11:20:31  5-MIN KMSN 301720Z 20007KT 10SM CLR 27/12 A3017 630 38 2200 200/07 RMK AO2
14837KMSN MSN20030630112509606/30/03 11:25:31  5-MIN KMSN 301725Z 26006KT 10SM FEW065 27/12 A3017 630 38 2200 260/06 RMK AO2
14837KMSN MSN20030630113009606/30/03 11:30:31  5-MIN KMSN 301730Z VRB03KT 10SM FEW070 27/12 A3017 630 40 2200 VRB/03 RMK AO2
14837KMSN MSN20030630113509606/30/03 11:35:31  5-MIN KMSN 301735Z 19006KT 10SM FEW070 27/12 A3017 630 40 2200 190/06 RMK AO2
14837KMSN MSN20030630114009606/30/03 11:40:31  5-MIN KMSN 301740Z VRB06KT 10SM FEW070 27/12 A3017 630 39 2200 VRB/06 RMK AO2
14837KMSN MSN20030630114509606/30/03 11:45:31  5-MIN KMSN 301745Z VRB05KT 10SM FEW070 27/12 A3017 630 37 2200 VRB/05 RMK AO2
14837KMSN MSN20030630115013106/30/03 11:50:31  5-MIN KMSN 301750Z VRB04KT 10SM FEW065 27/12 A3017 630 37 2200 VRB/04 RMK AO2 SLP213 T02720117 10278 20172 53003
14837KMSN MSN20030630115509606/30/03 11:55:31  5-MIN KMSN 301755Z 22007KT 10SM BKN060 27/12 A3017 630 37 2200 210/07 RMK AO2
14837KMSN MSN20030630120009606/30/03 12:00:31  5-MIN KMSN 301800Z VRB04KT 10SM BKN065 27/12 A3017 640 39 2200 VRB/04 RMK AO2
14837KMSN MSN20030630120509306/30/03 12:05:31  5-MIN KMSN 301805Z VRB05KT 10SM CLR 27/12 A3016 640 39 2200 VRB/05 RMK AO2
14837KMSN MSN20030630121009306/30/03 12:10:31  5-MIN KMSN 301810Z VRB03KT 10SM CLR 27/11 A3016 640 36 2200 VRB/03 RMK AO2
14837KMSN MSN20030630121509606/30/03 12:15:31  5-MIN KMSN 301815Z 21007KT 10SM FEW065 28/12 A3016 640 36 2300 210/07 RMK AO2
14837KMSN MSN20030630122010306/30/03 12:20:31  5-MIN KMSN 301820Z VRB06KT 10SM FEW065 SCT090 27/12 A3016 640 37 2200 VRB/06 RMK AO2
14837KMSN MSN20030630122509606/30/03 12:25:31  5-MIN KMSN 301825Z VRB05KT 10SM FEW070 27/11 A3016 640 36 2200 VRB/05 RMK AO2
14837KMSN MSN20030630123009606/30/03 12:30:31  5-MIN KMSN 301830Z 21007KT 10SM FEW065 27/11 A3016 640 36 2200 200/07 RMK AO2
14837KMSN MSN20030630123509606/30/03 12:35:31  5-MIN KMSN 301835Z 22004KT 10SM FEW065 27/10 A3016 640 33 2200 220/04 RMK AO2
14837KMSN MSN20030630124009606/30/03 12:40:31  5-MIN KMSN 301840Z 21006KT 10SM FEW065 27/11 A3016 640 34 2200 210/06 RMK AO2
14837KMSN MSN20030630124509606/30/03 12:45:31  5-MIN KMSN 301845Z 20007KT 10SM FEW070 27/11 A3016 640 34 2200 200/07 RMK AO2
14837KMSN MSN20030630125011006/30/03 12:50:31  5-MIN KMSN 301850Z VRB06KT 10SM CLR 28/11 A3016 640 33 2300 VRB/06 RMK AO2 SLP209 T02780106
14837KMSN MSN20030630125509606/30/03 12:55:31  5-MIN KMSN 301855Z 27006KT 10SM SCT065 27/11 A3016 640 36 2200 270/06 RMK AO2
14837KMSN MSN20030630130009606/30/03 13:00:31  5-MIN KMSN 301900Z 27006KT 10SM SCT065 27/11 A3016 640 36 2200 270/06 RMK AO2
14837KMSN MSN20030630130509606/30/03 13:05:31  5-MIN KMSN 301905Z VRB03KT 10SM SCT065 28/11 A3016 650 35 2300 VRB/03 RMK AO2
14837KMSN MSN20030630131009606/30/03 13:10:31  5-MIN KMSN 301910Z VRB04KT 10SM SCT065 28/11 A3015 650 35 2300 VRB/04 RMK AO2
14837KMSN MSN20030630131509606/30/03 13:15:31  5-MIN KMSN 301915Z 00000KT 10SM SCT065 27/11 A3015 650 34 2200 000/00 RMK AO2
14837KMSN MSN20030630132009606/30/03 13:20:31  5-MIN KMSN 301920Z 22005KT 10SM SCT060 27/11 A3015 650 36 2200 220/05 RMK AO2
14837KMSN MSN20030630132509606/30/03 13:25:31  5-MIN KMSN 301925Z VRB04KT 10SM SCT060 28/11 A3015 650 35 2300 VRB/04 RMK AO2
14837KMSN MSN20030630133009606/30/03 13:30:31  5-MIN KMSN 301930Z VRB05KT 10SM SCT060 28/12 A3015 650 36 2300 VRB/05 RMK AO2
14837KMSN MSN20030630133509606/30/03 13:35:31  5-MIN KMSN 301935Z VRB04KT 10SM SCT065 28/11 A3015 650 35 2300 VRB/04 RMK AO2
14837KMSN MSN20030630134009606/30/03 13:40:31  5-MIN KMSN 301940Z VRB03KT 10SM SCT065 27/11 A3015 650 34 2200 VRB/03 RMK AO2
14837KMSN MSN20030630134509606/30/03 13:45:31  5-MIN KMSN 301945Z 27005KT 10SM SCT065 28/11 A3015 650 35 2300 270/05 RMK AO2
14837KMSN MSN20030630135011306/30/03 13:50:31  5-MIN KMSN 301950Z 23006KT 10SM SCT065 28/12 A3015 650 36 2300 230/06 RMK AO2 SLP208 T02780117
14837KMSN MSN20030630135509606/30/03 13:55:31  5-MIN KMSN 301955Z VRB04KT 10SM BKN065 27/11 A3015 650 36 2200 VRB/04 RMK AO2
14837KMSN MSN20030630140009606/30/03 14:00:31  5-MIN KMSN 302000Z 27006KT 10SM BKN065 27/11 A3015 650 37 2200 270/06 RMK AO2
14837KMSN MSN20030630140509606/30/03 14:05:31  5-MIN KMSN 302005Z 26003KT 10SM BKN065 26/11 A3015 650 38 2100 260/03 RMK AO2
14837KMSN MSN20030630141009606/30/03 14:10:31  5-MIN KMSN 302010Z VRB03KT 10SM BKN070 26/11 A3015 650 38 2100 VRB/03 RMK AO2
14837KMSN MSN20030630141509606/30/03 14:15:31  5-MIN KMSN 302015Z 00000KT 10SM BKN070 27/12 A3015 650 37 2200 000/00 RMK AO2
14837KMSN MSN20030630142009606/30/03 14:20:31  5-MIN KMSN 302020Z VRB03KT 10SM BKN090 28/11 A3015 650 35 2300 VRB/03 RMK AO2
14837KMSN MSN20030630142509606/30/03 14:25:31  5-MIN KMSN 302025Z VRB05KT 10SM SCT090 28/11 A3015 660 35 2300 VRB/05 RMK AO2
14837KMSN MSN20030630143009606/30/03 14:30:31  5-MIN KMSN 302030Z VRB04KT 10SM SCT090 28/12 A3014 660 36 2300 VRB/04 RMK AO2
14837KMSN MSN20030630143511206/30/03 14:35:31  5-MIN KMSN 302035Z 23007KT 170V260 10SM SCT090 28/12 A3014 660 36 2300 220/07 170V260 RMK AO2
14837KMSN MSN20030630144009606/30/03 14:40:31  5-MIN KMSN 302040Z 23005KT 10SM FEW090 28/11 A3014 660 35 2300 230/05 RMK AO2
14837KMSN MSN20030630144509306/30/03 14:45:31  5-MIN KMSN 302045Z 00000KT 10SM CLR 28/11 A3014 660 33 2300 000/00 RMK AO2
14837KMSN MSN20030630145011606/30/03 14:50:31  5-MIN KMSN 302050Z VRB04KT 10SM CLR 28/12 A3014 660 36 2300 VRB/04 RMK AO2 SLP204 T02780117 58003
14837KMSN MSN20030630145509606/30/03 14:55:31  5-MIN KMSN 302055Z 20005KT 10SM SCT070 28/12 A3014 660 36 2300 200/05 RMK AO2
14837KMSN MSN20030630150009606/30/03 15:00:31  5-MIN KMSN 302100Z VRB03KT 10SM SCT070 28/11 A3014 660 33 2400 VRB/03 RMK AO2
14837KMSN MSN20030630150509606/30/03 15:05:31  5-MIN KMSN 302105Z 22006KT 10SM SCT070 28/12 A3014 660 36 2400 220/06 RMK AO2
14837KMSN MSN20030630151009606/30/03 15:10:31  5-MIN KMSN 302110Z 21006KT 10SM SCT070 28/12 A3014 660 36 2300 210/06 RMK AO2
14837KMSN MSN20030630151509606/30/03 15:15:31  5-MIN KMSN 302115Z VRB03KT 10SM SCT070 28/12 A3014 670 36 2300 VRB/03 RMK AO2
14837KMSN MSN20030630152009606/30/03 15:20:31  5-MIN KMSN 302120Z VRB04KT 10SM SCT070 28/12 A3013 670 37 2300 VRB/04 RMK AO2
14837KMSN MSN20030630152509606/30/03 15:25:31  5-MIN KMSN 302125Z 21005KT 10SM SCT070 28/12 A3013 670 36 2300 210/05 RMK AO2
14837KMSN MSN20030630153009606/30/03 15:30:31  5-MIN KMSN 302130Z 22007KT 10SM SCT070 28/12 A3013 670 36 2300 220/07 RMK AO2
14837KMSN MSN20030630153509606/30/03 15:35:31  5-MIN KMSN 302135Z 00000KT 10SM SCT070 28/11 A3013 670 35 2300 000/00 RMK AO2
14837KMSN MSN20030630154009606/30/03 15:40:31  5-MIN KMSN 302140Z 21005KT 10SM SCT070 28/12 A3013 670 35 2400 210/05 RMK AO2
14837KMSN MSN20030630154509606/30/03 15:45:31  5-MIN KMSN 302145Z VRB05KT 10SM SCT075 28/12 A3013 670 36 2300 VRB/05 RMK AO2
14837KMSN MSN20030630155011306/30/03 15:50:31  5-MIN KMSN 302150Z VRB04KT 10SM SCT075 28/12 A3013 670 36 2300 VRB/04 RMK AO2 SLP199 T02780117
14837KMSN MSN20030630155509606/30/03 15:55:31  5-MIN KMSN 302155Z 26005KT 10SM FEW075 28/11 A3013 670 35 2300 260/05 RMK AO2
14837KMSN MSN20030630160009606/30/03 16:00:31  5-MIN KMSN 302200Z 26004KT 10SM SCT070 28/11 A3013 680 35 2300 260/04 RMK AO2
14837KMSN MSN20030630160509606/30/03 16:05:31  5-MIN KMSN 302205Z VRB03KT 10SM SCT070 28/12 A3012 680 36 2300 VRB/03 RMK AO2
14837KMSN MSN20030630161009606/30/03 16:10:31  5-MIN KMSN 302210Z VRB03KT 10SM SCT070 28/12 A3012 680 36 2300 VRB/03 RMK AO2
14837KMSN MSN20030630161509606/30/03 16:15:31  5-MIN KMSN 302215Z VRB04KT 10SM SCT070 28/12 A3012 680 36 2300 VRB/04 RMK AO2
14837KMSN MSN20030630162009606/30/03 16:20:31  5-MIN KMSN 302220Z VRB03KT 10SM SCT070 28/12 A3012 680 37 2300 VRB/03 RMK AO2
14837KMSN MSN20030630162509606/30/03 16:25:31  5-MIN KMSN 302225Z 22004KT 10SM SCT070 28/12 A3012 680 37 2300 220/04 RMK AO2
14837KMSN MSN20030630163009606/30/03 16:30:31  5-MIN KMSN 302230Z 22004KT 10SM SCT070 28/12 A3012 680 36 2300 220/04 RMK AO2
14837KMSN MSN20030630163509606/30/03 16:35:31  5-MIN KMSN 302235Z 25004KT 10SM SCT070 28/11 A3012 680 35 2300 250/04 RMK AO2
14837KMSN MSN20030630164009606/30/03 16:40:31  5-MIN KMSN 302240Z 28005KT 10SM SCT070 28/11 A3012 680 35 2300 280/05 RMK AO2
14837KMSN MSN20030630164509606/30/03 16:45:31  5-MIN KMSN 302245Z 26006KT 10SM SCT070 28/11 A3011 680 35 2300 260/06 RMK AO2
14837KMSN MSN20030630165011306/30/03 16:50:31  5-MIN KMSN 302250Z VRB04KT 10SM SCT070 28/11 A3011 690 35 2400 VRB/04 RMK AO2 SLP194 T02780111
14837KMSN MSN20030630165509606/30/03 16:55:31  5-MIN KMSN 302255Z VRB04KT 10SM FEW070 28/12 A3011 690 36 2400 VRB/04 RMK AO2
14837KMSN MSN20030630170009606/30/03 17:00:31  5-MIN KMSN 302300Z VRB04KT 10SM FEW070 28/11 A3011 690 35 2400 VRB/04 RMK AO2
14837KMSN MSN20030630170509606/30/03 17:05:31  5-MIN KMSN 302305Z VRB05KT 10SM FEW070 28/11 A3011 690 33 2400 VRB/05 RMK AO2
14837KMSN MSN20030630171009606/30/03 17:10:31  5-MIN KMSN 302310Z 29004KT 10SM FEW070 28/11 A3011 690 33 2400 290/04 RMK AO2
14837KMSN MSN20030630171509606/30/03 17:15:31  5-MIN KMSN 302315Z 30006KT 10SM FEW070 28/11 A3011 690 35 2400 300/06 RMK AO2
14837KMSN MSN20030630172009606/30/03 17:20:31  5-MIN KMSN 302320Z 28005KT 10SM FEW070 28/11 A3010 690 33 2400 280/05 RMK AO2
14837KMSN MSN20030630172509606/30/03 17:25:31  5-MIN KMSN 302325Z 29005KT 10SM FEW070 28/11 A3010 690 35 2400 290/05 RMK AO2
14837KMSN MSN20030630173009606/30/03 17:30:31  5-MIN KMSN 302330Z 29005KT 10SM FEW070 27/11 A3010 690 36 2300 290/05 RMK AO2
14837KMSN MSN20030630173509606/30/03 17:35:31  5-MIN KMSN 302335Z 31004KT 10SM FEW070 28/11 A3010 700 35 2400 310/04 RMK AO2
14837KMSN MSN20030630174009606/30/03 17:40:31  5-MIN KMSN 302340Z 27005KT 10SM FEW070 27/12 A3010 690 37 2300 270/05 RMK AO2
14837KMSN MSN20030630174509606/30/03 17:45:31  5-MIN KMSN 302345Z 28004KT 10SM FEW070 27/12 A3010 700 37 2300 280/04 RMK AO2
14837KMSN MSN20030630175013106/30/03 17:50:31  5-MIN KMSN 302350Z VRB04KT 10SM FEW070 27/12 A3010 700 39 2300 VRB/04 RMK AO2 SLP190 T02720122 10283 20261 58009
14837KMSN MSN20030630175509306/30/03 17:55:31  5-MIN KMSN 302355Z VRB04KT 10SM CLR 27/12 A3010 690 39 2300 VRB/04 RMK AO2
14837KMSN MSN20030630180009606/30/03 18:00:31  5-MIN KMSN 010000Z 30004KT 10SM FEW075 27/12 A3010 690 39 2300 300/04 RMK AO2
14837KMSN MSN20030630180509606/30/03 18:05:31  5-MIN KMSN 010005Z VRB04KT 10SM FEW075 27/12 A3010 690 39 2300 VRB/04 RMK AO2
14837KMSN MSN20030630181009606/30/03 18:10:31  5-MIN KMSN 010010Z VRB03KT 10SM FEW075 27/12 A3010 700 40 2200 VRB/03 RMK AO2
14837KMSN MSN20030630181509606/30/03 18:15:31  5-MIN KMSN 010015Z 30003KT 10SM FEW075 27/12 A3010 700 40 2200 300/03 RMK AO2
14837KMSN MSN20030630182009606/30/03 18:20:31  5-MIN KMSN 010020Z 30004KT 10SM FEW075 27/12 A3010 700 40 2200 300/04 RMK AO2
14837KMSN MSN20030630182509606/30/03 18:25:31  5-MIN KMSN 010025Z 32003KT 10SM FEW075 26/12 A3010 700 41 2200 310/03 RMK AO2
14837KMSN MSN20030630183009606/30/03 18:30:31  5-MIN KMSN 010030Z 00000KT 10SM FEW075 26/13 A3010 700 44 2100 000/00 RMK AO2
14837KMSN MSN20030630183509606/30/03 18:35:31  5-MIN KMSN 010035Z 00000KT 10SM FEW075 26/14 A3010 700 48 2100 000/00 RMK AO2
14837KMSN MSN20030630184009606/30/03 18:40:31  5-MIN KMSN 010040Z 00000KT 10SM FEW075 26/13 A3010 700 46 2100 000/00 RMK AO2
14837KMSN MSN20030630184509606/30/03 18:45:31  5-MIN KMSN 010045Z 29003KT 10SM FEW075 25/14 A3010 700 49 2100 290/03 RMK AO2
14837KMSN MSN20030630185011306/30/03 18:50:31  5-MIN KMSN 010050Z 00000KT 10SM FEW075 25/14 A3010 700 51 2100 000/00 RMK AO2 SLP189 T02500144
14837KMSN MSN20030630185509606/30/03 18:55:31  5-MIN KMSN 010055Z 00000KT 10SM FEW070 24/14 A3010 690 55 1900 000/00 RMK AO2
14837KMSN MSN20030630190009606/30/03 19:00:31  5-MIN KMSN 010100Z 00000KT 10SM FEW070 24/14 A3010 700 53 1900 000/00 RMK AO2
14837KMSN MSN20030630190509606/30/03 19:05:31  5-MIN KMSN 010105Z 00000KT 10SM FEW070 23/14 A3010 700 57 1900 000/00 RMK AO2
14837KMSN MSN20030630191009606/30/03 19:10:31  5-MIN KMSN 010110Z 00000KT 10SM FEW070 23/14 A3010 700 59 1800 000/00 RMK AO2
14837KMSN MSN20030630191509606/30/03 19:15:31  5-MIN KMSN 010115Z 00000KT 10SM FEW070 23/14 A3010 700 59 1800 000/00 RMK AO2
14837KMSN MSN20030630192009606/30/03 19:20:31  5-MIN KMSN 010120Z 00000KT 10SM FEW070 22/14 A3010 700 61 1700 000/00 RMK AO2
14837KMSN MSN20030630192509606/30/03 19:25:31  5-MIN KMSN 010125Z 00000KT 10SM FEW070 22/14 A3010 700 63 1700 000/00 RMK AO2
14837KMSN MSN20030630193009606/30/03 19:30:31  5-MIN KMSN 010130Z 00000KT 10SM FEW070 21/14 A3010 700 63 1600 000/00 RMK AO2
14837KMSN MSN20030630193509606/30/03 19:35:31  5-MIN KMSN 010135Z 00000KT 10SM FEW070 21/14 A3010 700 63 1600 000/00 RMK AO2
14837KMSN MSN20030630194009606/30/03 19:40:31  5-MIN KMSN 010140Z 00000KT 10SM FEW100 21/14 A3011 690 65 1600 000/00 RMK AO2
14837KMSN MSN20030630194509606/30/03 19:45:31  5-MIN KMSN 010145Z 00000KT 10SM FEW100 21/14 A3011 690 67 1500 000/00 RMK AO2
14837KMSN MSN20030630195011306/30/03 19:50:31  5-MIN KMSN 010150Z 00000KT 10SM FEW100 20/15 A3011 690 72 1500 000/00 RMK AO2 SLP191 T02000150
14837KMSN MSN20030630195509606/30/03 19:55:31  5-MIN KMSN 010155Z 29003KT 10SM FEW100 20/15 A3011 690 72 1500 290/03 RMK AO2
14837KMSN MSN20030630200009606/30/03 20:00:31  5-MIN KMSN 010200Z 00000KT 10SM FEW100 20/15 A3011 690 72 1500 000/00 RMK AO2
14837KMSN MSN20030630200509606/30/03 20:05:31  5-MIN KMSN 010205Z 00000KT 10SM FEW120 19/15 A3011 690 75 1400 000/00 RMK AO2
14837KMSN MSN20030630201009606/30/03 20:10:31  5-MIN KMSN 010210Z 00000KT 10SM FEW120 19/15 A3011 690 75 1400 000/00 RMK AO2
14837KMSN MSN20030630201509606/30/03 20:15:31  5-MIN KMSN 010215Z 00000KT 10SM FEW120 19/15 A3011 690 75 1400 000/00 RMK AO2
14837KMSN MSN20030630202009606/30/03 20:20:31  5-MIN KMSN 010220Z 00000KT 10SM FEW120 19/15 A3011 690 78 1300 000/00 RMK AO2
14837KMSN MSN20030630202509606/30/03 20:25:31  5-MIN KMSN 010225Z 00000KT 10SM FEW120 19/14 A3012 680 72 1400 000/00 RMK AO2
14837KMSN MSN20030630203009606/30/03 20:30:31  5-MIN KMSN 010230Z 00000KT 10SM FEW120 19/14 A3012 680 72 1400 000/00 RMK AO2
14837KMSN MSN20030630203509606/30/03 20:35:31  5-MIN KMSN 010235Z 00000KT 10SM FEW120 19/14 A3012 680 72 1400 000/00 RMK AO2
14837KMSN MSN20030630204009606/30/03 20:40:31  5-MIN KMSN 010240Z 00000KT 10SM FEW120 19/14 A3012 680 70 1400 000/00 RMK AO2
14837KMSN MSN20030630204509306/30/03 20:45:31  5-MIN KMSN 010245Z 00000KT 10SM CLR 19/14 A3012 680 75 1300 000/00 RMK AO2
14837KMSN MSN20030630205011606/30/03 20:50:31  5-MIN KMSN 010250Z 00000KT 10SM CLR 19/14 A3012 680 72 1300 000/00 RMK AO2 SLP196 T01890139 56012
14837KMSN MSN20030630205509306/30/03 20:55:31  5-MIN KMSN 010255Z 00000KT 10SM CLR 19/14 A3012 680 75 1300 000/00 RMK AO2
14837KMSN MSN20030630210009306/30/03 21:00:31  5-MIN KMSN 010300Z 00000KT 10SM CLR 18/14 A3012 680 78 1300 000/00 RMK AO2
14837KMSN MSN20030630210509306/30/03 21:05:31  5-MIN KMSN 010305Z 00000KT 10SM CLR 18/14 A3012 680 78 1300 000/00 RMK AO2
14837KMSN MSN20030630211009306/30/03 21:10:31  5-MIN KMSN 010310Z 00000KT 10SM CLR 18/14 A3012 680 81 1200 000/00 RMK AO2
14837KMSN MSN20030630211509306/30/03 21:15:31  5-MIN KMSN 010315Z 00000KT 10SM CLR 18/14 A3012 680 78 1300 000/00 RMK AO2
14837KMSN MSN20030630212009306/30/03 21:20:31  5-MIN KMSN 010320Z 00000KT 10SM CLR 18/14 A3012 680 78 1300 000/00 RMK AO2
14837KMSN MSN20030630212509306/30/03 21:25:31  5-MIN KMSN 010325Z 00000KT 10SM CLR 18/14 A3012 680 75 1300 000/00 RMK AO2
14837KMSN MSN20030630213009306/30/03 21:30:31  5-MIN KMSN 010330Z 00000KT 10SM CLR 18/14 A3012 680 78 1200 000/00 RMK AO2
14837KMSN MSN20030630213509306/30/03 21:35:31  5-MIN KMSN 010335Z 00000KT 10SM CLR 18/14 A3012 680 78 1200 000/00 RMK AO2
14837KMSN MSN20030630214009306/30/03 21:40:31  5-MIN KMSN 010340Z 00000KT 10SM CLR 17/14 A3012 680 80 1100 000/00 RMK AO2
14837KMSN MSN20030630214509306/30/03 21:45:31  5-MIN KMSN 010345Z 00000KT 10SM CLR 17/14 A3012 680 80 1100 000/00 RMK AO2
14837KMSN MSN20030630215011006/30/03 21:50:31  5-MIN KMSN 010350Z 00000KT 10SM CLR 17/14 A3012 680 83 1100 000/00 RMK AO2 SLP197 T01670139
14837KMSN MSN20030630215509306/30/03 21:55:31  5-MIN KMSN 010355Z 00000KT 10SM CLR 17/13 A3012 680 78 1100 000/00 RMK AO2
14837KMSN MSN20030630220009306/30/03 22:00:31  5-MIN KMSN 010400Z 00000KT 10SM CLR 18/14 A3013 670 78 1200 000/00 RMK AO2
14837KMSN MSN20030630220509306/30/03 22:05:31  5-MIN KMSN 010405Z 00000KT 10SM CLR 17/14 A3013 670 80 1100 000/00 RMK AO2
14837KMSN MSN20030630221009306/30/03 22:10:31  5-MIN KMSN 010410Z 00000KT 10SM CLR 17/13 A3013 670 80 1100 000/00 RMK AO2
14837KMSN MSN20030630221509306/30/03 22:15:31  5-MIN KMSN 010415Z 00000KT 10SM CLR 17/13 A3013 670 78 1100 000/00 RMK AO2
14837KMSN MSN20030630222009306/30/03 22:20:31  5-MIN KMSN 010420Z 00000KT 10SM CLR 17/13 A3013 670 78 1100 000/00 RMK AO2
14837KMSN MSN20030630222509306/30/03 22:25:31  5-MIN KMSN 010425Z 00000KT 10SM CLR 17/14 A3013 670 80 1100 000/00 RMK AO2
14837KMSN MSN20030630223009306/30/03 22:30:31  5-MIN KMSN 010430Z 00000KT 10SM CLR 17/14 A3013 670 83 1100 000/00 RMK AO2
14837KMSN MSN20030630223509306/30/03 22:35:31  5-MIN KMSN 010435Z 00000KT 10SM CLR 17/14 A3013 670 83 1100 000/00 RMK AO2
14837KMSN MSN20030630224009306/30/03 22:40:31  5-MIN KMSN 010440Z 00000KT 10SM CLR 16/14 A3013 670 86 1000 000/00 RMK AO2
14837KMSN MSN20030630224509306/30/03 22:45:31  5-MIN KMSN 010445Z 00000KT 10SM CLR 16/14 A3013 670 86 1000 000/00 RMK AO2
14837KMSN MSN20030630225011006/30/03 22:50:31  5-MIN KMSN 010450Z 00000KT 10SM CLR 17/14 A3013 670 83 1100 000/00 RMK AO2 SLP199 T01670139
14837KMSN MSN20030630225509306/30/03 22:55:31  5-MIN KMSN 010455Z 00000KT 10SM CLR 17/14 A3013 670 83 1100 000/00 RMK AO2
14837KMSN MSN20030630230009306/30/03 23:00:31  5-MIN KMSN 010500Z 00000KT 10SM CLR 16/14 A3013 670 86 1000 000/00 RMK AO2
14837KMSN MSN20030630230509306/30/03 23:05:31  5-MIN KMSN 010505Z 00000KT 10SM CLR 16/14 A3013 670 86 1000 000/00 RMK AO2
14837KMSN MSN20030630231009306/30/03 23:10:31  5-MIN KMSN 010510Z 00000KT 10SM CLR 16/14 A3013 670 86 1000 000/00 RMK AO2
14837KMSN MSN20030630231509306/30/03 23:15:31  5-MIN KMSN 010515Z 00000KT 10SM CLR 16/14 A3013 670 86 1000 000/00 RMK AO2
14837KMSN MSN20030630232009306/30/03 23:20:31  5-MIN KMSN 010520Z 00000KT 10SM CLR 16/14 A3013 670 86 1000 000/00 RMK AO2
14837KMSN MSN20030630232509306/30/03 23:25:31  5-MIN KMSN 010525Z 00000KT 10SM CLR 16/14 A3013 670 86 1000 000/00 RMK AO2
14837KMSN MSN20030630233009306/30/03 23:30:31  5-MIN KMSN 010530Z 00000KT 10SM CLR 16/14 A3013 670 86 1000 000/00 RMK AO2
14837KMSN MSN20030630233509306/30/03 23:35:31  5-MIN KMSN 010535Z 00000KT 10SM CLR 16/14 A3013 670 86 1000 000/00 RMK AO2
14837KMSN MSN20030630234009306/30/03 23:40:31  5-MIN KMSN 010540Z 00000KT 10SM CLR 17/14 A3013 670 83 1100 000/00 RMK AO2
14837KMSN MSN20030630234509306/30/03 23:45:31  5-MIN KMSN 010545Z 00000KT 10SM CLR 16/14 A3013 670 86 1000 000/00 RMK AO2
14837KMSN MSN20030630235013706/30/03 23:50:31  5-MIN KMSN 010550Z 00000KT 10SM CLR 16/14 A3013 670 90 900 000/00 RMK AO2 SLP199 T01560139 10272 20156 402830128 53005
14837KMSN MSN20030630235509206/30/03 23:55:31  5-MIN KMSN 010555Z 00000KT 10SM CLR 16/14 A3013 670 90 900 000/00 RMK AO2
