14837KMSN MSN20090601000015506/01/09 00:00:35  5-MIN KMSN 010600Z 16006KT 10SM TS FEW055 BKN090 OVC110 16/10 A2979 980 69 1300 160/06 RMK AO2 RAE0559 OCNL LTGIC OHD TS OHD MOV E P0000
14837KMSN MSN20090601000514306/01/09 00:05:31  5-MIN KMSN 010605Z 17006KT 10SM -TSRA FEW055 OVC095 16/11 A2979 980 72 1300 170/06 RMK AO2 OCNL LTGIC OHD TS OHD MOV E P0000
14837KMSN MSN20090601001014306/01/09 00:10:31  5-MIN KMSN 010610Z 17005KT 10SM -TSRA BKN090 OVC110 16/11 A2979 980 72 1300 170/05 RMK AO2 OCNL LTGIC OHD TS OHD MOV E P0000
14837KMSN MSN20090601001512806/01/09 00:15:31  5-MIN KMSN 010615Z 18004KT 10SM -RA BKN085 OVC110 16/10 A2979 980 69 1300 180/04 RMK AO2 TSE11 TS MOV E P0000
14837KMSN MSN20090601002012906/01/09 00:20:31  5-MIN KMSN 010620Z VRB03KT 10SM SCT085 BKN110 16/10 A2979 980 69 1300 VRB/03 RMK AO2 TSE11RAE20 TS MOV E P0000
14837KMSN MSN20090601002512906/01/09 00:25:31  5-MIN KMSN 010625Z 17004KT 10SM SCT085 BKN110 16/10 A2979 980 69 1300 170/04 RMK AO2 TSE11RAE20 TS MOV E P0000
14837KMSN MSN20090601003013606/01/09 00:30:31  5-MIN KMSN 010630Z 17005KT 10SM FEW080 SCT090 BKN110 16/10 A2979 980 69 1300 170/05 RMK AO2 TSE11RAE20 TS MOV E P0000
14837KMSN MSN20090601003512906/01/09 00:35:31  5-MIN KMSN 010635Z 18005KT 10SM SCT080 BKN110 16/10 A2980 980 69 1300 180/05 RMK AO2 TSE11RAE20 TS MOV E P0000
14837KMSN MSN20090601004012006/01/09 00:40:31  5-MIN KMSN 010640Z 17006KT 10SM SCT075 BKN110 16/10 A2979 990 69 1300 170/06 RMK AO2 TSE11RAE20 P0000
14837KMSN MSN20090601004512006/01/09 00:45:31  5-MIN KMSN 010645Z 17006KT 10SM SCT075 BKN110 16/11 A2979 990 72 1300 170/06 RMK AO2 TSE11RAE20 P0000
14837KMSN MSN20090601005013706/01/09 00:50:31  5-MIN KMSN 010650Z 17005KT 10SM BKN070 BKN110 16/11 A2979 990 72 1300 170/05 RMK AO2 TSE11RAE20 SLP084 P0000 T01560106
14837KMSN MSN20090601005510306/01/09 00:55:31  5-MIN KMSN 010655Z 17006KT 10SM SCT075 OVC110 16/11 A2979 990 72 1300 170/06 RMK AO2
14837KMSN MSN20090601010010306/01/09 01:00:31  5-MIN KMSN 010700Z 17006KT 10SM SCT075 OVC110 16/11 A2979 990 69 1400 170/06 RMK AO2
14837KMSN MSN20090601010510306/01/09 01:05:31  5-MIN KMSN 010705Z 16007KT 10SM FEW070 OVC110 16/11 A2978 990 69 1400 160/07 RMK AO2
14837KMSN MSN20090601011010306/01/09 01:10:31  5-MIN KMSN 010710Z 17006KT 10SM FEW070 OVC110 16/11 A2978 990 69 1400 170/06 RMK AO2
14837KMSN MSN20090601011509606/01/09 01:15:31  5-MIN KMSN 010715Z 18005KT 10SM OVC120 16/11 A2978 990 69 1400 180/05 RMK AO2
14837KMSN MSN20090601012011206/01/09 01:20:31  5-MIN KMSN 010720Z 18006KT 10SM -RA OVC120 16/10 A2978 990 67 1400 180/06 RMK AO2 RAB17 P0000
14837KMSN MSN20090601012511206/01/09 01:25:31  5-MIN KMSN 010725Z 18006KT 10SM -RA OVC120 16/11 A2978 990 72 1300 180/06 RMK AO2 RAB17 P0000
14837KMSN MSN20090601013012006/01/09 01:30:31  5-MIN KMSN 010730Z 18007KT 10SM -RA FEW065 OVC120 16/11 A2978 1000 72 1300 180/07 RMK AO2 RAB17 P0000
14837KMSN MSN20090601013511906/01/09 01:35:31  5-MIN KMSN 010735Z 18009KT 10SM -RA SCT065 OVC120 16/11 A2978 990 69 1400 180/09 RMK AO2 RAB17 P0000
14837KMSN MSN20090601014011906/01/09 01:40:31  5-MIN KMSN 010740Z 19008KT 10SM -RA BKN060 OVC120 16/11 A2978 990 69 1400 190/08 RMK AO2 RAB17 P0000
14837KMSN MSN20090601014511906/01/09 01:45:31  5-MIN KMSN 010745Z 18009KT 10SM -RA BKN060 OVC120 16/11 A2978 990 69 1400 180/09 RMK AO2 RAB17 P0000
14837KMSN MSN20090601015012906/01/09 01:50:31  5-MIN KMSN 010750Z 18011KT 10SM OVC060 16/11 A2978 1000 69 1400 180/11 RMK AO2 RAB17E49 SLP081 P0000 T01610106
14837KMSN MSN20090601015510406/01/09 01:55:31  5-MIN KMSN 010755Z 19012KT 10SM BKN060 OVC095 16/11 A2977 1000 69 1400 180/12 RMK AO2
14837KMSN MSN20090601020010406/01/09 02:00:31  5-MIN KMSN 010800Z 18010KT 10SM BKN060 BKN095 16/11 A2977 1000 69 1400 180/10 RMK AO2
14837KMSN MSN20090601020510406/01/09 02:05:31  5-MIN KMSN 010805Z 19010KT 10SM SCT060 BKN095 16/10 A2978 1000 67 1400 190/10 RMK AO2
14837KMSN MSN20090601021010306/01/09 02:10:31  5-MIN KMSN 010810Z 19010KT 10SM BKN055 BKN095 16/11 A2978 990 69 1400 180/10 RMK AO2
14837KMSN MSN20090601021510406/01/09 02:15:31  5-MIN KMSN 010815Z 18008KT 10SM BKN050 BKN095 16/11 A2978 1000 69 1400 180/08 RMK AO2
14837KMSN MSN20090601022010406/01/09 02:20:31  5-MIN KMSN 010820Z 18009KT 10SM BKN050 BKN095 16/11 A2978 1000 72 1400 180/09 RMK AO2
14837KMSN MSN20090601022509706/01/09 02:25:31  5-MIN KMSN 010825Z 18009KT 10SM BKN048 16/11 A2977 1000 74 1300 180/09 RMK AO2
14837KMSN MSN20090601023009706/01/09 02:30:31  5-MIN KMSN 010830Z 18012KT 10SM BKN048 16/12 A2977 1000 77 1300 180/12 RMK AO2
14837KMSN MSN20090601023510406/01/09 02:35:31  5-MIN KMSN 010835Z 19010KT 10SM BKN048 OVC055 16/12 A2977 1000 80 1300 190/10 RMK AO2
14837KMSN MSN20090601024011006/01/09 02:40:31  5-MIN KMSN 010840Z 18009G17KT 10SM BKN048 OVC060 16/12 A2976 1010 80 1400 180/09G17 RMK AO2
14837KMSN MSN20090601024511006/01/09 02:45:31  5-MIN KMSN 010845Z 19009G17KT 10SM BKN046 BKN060 16/13 A2976 1020 83 1400 190/09G17 RMK AO2
14837KMSN MSN20090601025014606/01/09 02:50:31  5-MIN KMSN 010850Z 20007G17KT 10SM SCT046 BKN060 BKN110 16/13 A2976 1010 83 1400 200/07G17 RMK AO2 SLP074 60000 T01560128 58012
14837KMSN MSN20090601025511106/01/09 02:55:31  5-MIN KMSN 010855Z 19009KT 10SM FEW046 BKN060 BKN110 16/13 A2976 1010 83 1400 190/09 RMK AO2
14837KMSN MSN20090601030011106/01/09 03:00:31  5-MIN KMSN 010900Z 19011KT 10SM FEW046 BKN055 BKN070 16/13 A2976 1010 86 1400 190/11 RMK AO2
14837KMSN MSN20090601030510406/01/09 03:05:31  5-MIN KMSN 010905Z 18012KT 10SM SCT060 BKN110 16/13 A2975 1020 86 1400 180/12 RMK AO2
14837KMSN MSN20090601031010406/01/09 03:10:31  5-MIN KMSN 010910Z 19011KT 10SM SCT055 BKN110 16/13 A2975 1020 86 1400 190/11 RMK AO2
14837KMSN MSN20090601031510406/01/09 03:15:31  5-MIN KMSN 010915Z 19011KT 10SM FEW055 BKN110 16/13 A2975 1020 86 1400 190/11 RMK AO2
14837KMSN MSN20090601032011106/01/09 03:20:31  5-MIN KMSN 010920Z 19011KT 10SM FEW055 BKN100 BKN120 16/13 A2975 1020 86 1400 190/11 RMK AO2
14837KMSN MSN20090601032510406/01/09 03:25:31  5-MIN KMSN 010925Z 19010KT 10SM FEW055 BKN110 16/14 A2975 1020 90 1400 190/10 RMK AO2
14837KMSN MSN20090601033010306/01/09 03:30:31  5-MIN KMSN 010930Z 20008G14KT 10SM BKN110 16/14 A2975 1020 90 1400 190/08G14 RMK AO2
14837KMSN MSN20090601033512806/01/09 03:35:31  5-MIN KMSN 010935Z 19009KT 10SM BKN100 OVC120 16/14 A2975 1020 90 1400 190/09 RMK AO2 OCNL LTG DSNT NE AND SW
14837KMSN MSN20090601034012806/01/09 03:40:31  5-MIN KMSN 010940Z 19009KT 10SM BKN100 OVC120 16/14 A2975 1020 90 1400 190/09 RMK AO2 OCNL LTG DSNT NE AND SW
14837KMSN MSN20090601034514306/01/09 03:45:31  5-MIN KMSN 010945Z 19008KT 8SM -RA BKN100 OVC120 16/14 A2975 1030 90 1400 190/08 RMK AO2 RAB44 OCNL LTG DSNT NE AND SW P0000
14837KMSN MSN20090601035016006/01/09 03:50:31  5-MIN KMSN 010950Z 19008KT 7SM -RA BKN095 OVC120 16/14 A2974 1030 90 1400 190/08 RMK AO2 RAB44 SLP069 OCNL LTG DSNT NE AND SW P0001 T01560139
14837KMSN MSN20090601035511306/01/09 03:55:31  5-MIN KMSN 010955Z 20007KT 9SM -RA BKN095 OVC120 16/14 A2974 1030 90 1400 200/07 RMK AO2 P0000
14837KMSN MSN20090601040011906/01/09 04:00:31  5-MIN KMSN 011000Z 19010G15KT 9SM -RA FEW070 OVC095 16/14 A2974 1030 90 1400 190/10G15 RMK AO2 P0000
14837KMSN MSN20090601040512606/01/09 04:05:31  5-MIN KMSN 011005Z 20005G15KT 8SM -RA SCT065 BKN095 OVC120 16/14 A2974 1030 90 1400 200/05G15 RMK AO2 P0000
14837KMSN MSN20090601041012006/01/09 04:10:31  5-MIN KMSN 011010Z 20005KT 8SM -RA FEW060 BKN100 OVC110 16/14 A2974 1030 93 1400 200/05 RMK AO2 P0000
14837KMSN MSN20090601041512106/01/09 04:15:31  5-MIN KMSN 011015Z 20006KT 10SM -RA FEW060 SCT090 OVC110 16/14 A2974 1030 90 1400 200/06 RMK AO2 P0000
14837KMSN MSN20090601042012306/01/09 04:20:31  5-MIN KMSN 011020Z 23004KT 10SM FEW050 SCT065 BKN110 16/14 A2975 1030 90 1400 230/04 RMK AO2 RAE18 P0000
14837KMSN MSN20090601042512306/01/09 04:25:31  5-MIN KMSN 011025Z 21005KT 10SM FEW050 SCT065 BKN110 16/14 A2974 1030 90 1400 210/05 RMK AO2 RAE18 P0000
14837KMSN MSN20090601043011606/01/09 04:30:31  5-MIN KMSN 011030Z 20008KT 10SM FEW050 BKN110 16/14 A2974 1040 90 1400 200/08 RMK AO2 RAE18 P0000
14837KMSN MSN20090601043511606/01/09 04:35:31  5-MIN KMSN 011035Z 21005KT 10SM FEW050 BKN110 16/14 A2974 1030 90 1400 210/05 RMK AO2 RAE18 P0000
14837KMSN MSN20090601044011506/01/09 04:40:31  5-MIN KMSN 011040Z 21004KT 9SM FEW050 SCT110 16/14 A2974 1030 90 1400 210/04 RMK AO2 RAE18 P0000
14837KMSN MSN20090601044511506/01/09 04:45:31  5-MIN KMSN 011045Z 21006KT 9SM FEW050 SCT110 16/14 A2974 1030 90 1400 210/06 RMK AO2 RAE18 P0000
14837KMSN MSN20090601045012506/01/09 04:50:31  5-MIN KMSN 011050Z 21005KT 9SM SCT110 16/14 A2974 1030 90 1400 210/05 RMK AO2 RAE18 SLP069 P0000 T01560139
14837KMSN MSN20090601045509706/01/09 04:55:31  5-MIN KMSN 011055Z 20007KT 10SM SCT110 16/14 A2975 1020 90 1400 200/07 RMK AO2
14837KMSN MSN20090601050009706/01/09 05:00:31  5-MIN KMSN 011100Z 22004KT 10SM FEW110 16/14 A2975 1020 93 1400 220/04 RMK AO2
14837KMSN MSN20090601050509706/01/09 05:05:31  5-MIN KMSN 011105Z 20004KT 10SM FEW110 16/14 A2976 1020 93 1400 200/04 RMK AO2
14837KMSN MSN20090601051009706/01/09 05:10:31  5-MIN KMSN 011110Z 23004KT 10SM FEW110 16/14 A2976 1010 93 1400 220/04 RMK AO2
14837KMSN MSN20090601051509406/01/09 05:15:31  5-MIN KMSN 011115Z VRB05KT 10SM CLR 16/14 A2976 1010 93 1300 VRB/05 RMK AO2
14837KMSN MSN20090601052009706/01/09 05:20:31  5-MIN KMSN 011120Z 21004KT 10SM SCT110 16/14 A2976 1010 90 1400 210/04 RMK AO2
14837KMSN MSN20090601052509706/01/09 05:25:31  5-MIN KMSN 011125Z 20006KT 10SM SCT110 16/14 A2976 1010 90 1400 200/06 RMK AO2
14837KMSN MSN20090601053009706/01/09 05:30:31  5-MIN KMSN 011130Z 21003KT 10SM SCT110 16/14 A2976 1010 90 1400 210/03 RMK AO2
14837KMSN MSN20090601053509706/01/09 05:35:31  5-MIN KMSN 011135Z 21004KT 10SM SCT110 16/14 A2976 1010 90 1400 210/04 RMK AO2
14837KMSN MSN20090601054009706/01/09 05:40:31  5-MIN KMSN 011140Z VRB03KT 10SM SCT110 16/14 A2976 1010 90 1400 VRB/03 RMK AO2
14837KMSN MSN20090601054509706/01/09 05:45:31  5-MIN KMSN 011145Z 20006KT 10SM SCT110 16/14 A2976 1010 90 1400 200/06 RMK AO2
14837KMSN MSN20090601055014406/01/09 05:50:31  5-MIN KMSN 011150Z 20005KT 10SM FEW110 17/15 A2976 1010 90 1500 200/05 RMK AO2 SLP075 60001 70002 T01670150 10167 20156 56016
14837KMSN MSN20090601055509406/01/09 05:55:31  5-MIN KMSN 011155Z 22005KT 10SM CLR 17/15 A2976 1010 90 1500 220/05 RMK AO2
14837KMSN MSN20090601060009406/01/09 06:00:31  5-MIN KMSN 011200Z 21006KT 10SM CLR 17/15 A2976 1010 90 1500 210/06 RMK AO2
14837KMSN MSN20090601060509406/01/09 06:05:31  5-MIN KMSN 011205Z 22005KT 10SM CLR 17/15 A2977 1010 87 1500 220/05 RMK AO2
14837KMSN MSN20090601061009406/01/09 06:10:31  5-MIN KMSN 011210Z 22006KT 10SM CLR 17/15 A2977 1010 87 1500 220/06 RMK AO2
14837KMSN MSN20090601061509406/01/09 06:15:31  5-MIN KMSN 011215Z 22004KT 10SM CLR 17/15 A2977 1000 87 1500 220/04 RMK AO2
14837KMSN MSN20090601062009406/01/09 06:20:31  5-MIN KMSN 011220Z 22005KT 10SM CLR 17/15 A2977 1000 87 1500 220/05 RMK AO2
14837KMSN MSN20090601062509406/01/09 06:25:31  5-MIN KMSN 011225Z 23007KT 10SM CLR 18/15 A2977 1000 83 1600 230/07 RMK AO2
14837KMSN MSN20090601063009406/01/09 06:30:31  5-MIN KMSN 011230Z 24006KT 10SM CLR 18/15 A2977 1000 83 1600 240/06 RMK AO2
14837KMSN MSN20090601063509406/01/09 06:35:31  5-MIN KMSN 011235Z VRB04KT 10SM CLR 18/16 A2977 1000 87 1600 VRB/04 RMK AO2
14837KMSN MSN20090601064009406/01/09 06:40:31  5-MIN KMSN 011240Z 24006KT 10SM CLR 18/15 A2977 1000 83 1600 240/06 RMK AO2
14837KMSN MSN20090601064509406/01/09 06:45:31  5-MIN KMSN 011245Z 23006KT 10SM CLR 18/16 A2977 1000 87 1600 230/06 RMK AO2
14837KMSN MSN20090601065011406/01/09 06:50:31  5-MIN KMSN 011250Z 24004KT 10SM FEW120 18/16 A2977 1000 87 1600 240/04 RMK AO2 SLP079 T01780156
14837KMSN MSN20090601065509406/01/09 06:55:31  5-MIN KMSN 011255Z 22005KT 10SM CLR 18/16 A2978 1000 87 1600 220/05 RMK AO2
14837KMSN MSN20090601070009406/01/09 07:00:31  5-MIN KMSN 011300Z 24005KT 10SM CLR 18/16 A2977 1000 84 1700 240/05 RMK AO2
14837KMSN MSN20090601070509406/01/09 07:05:31  5-MIN KMSN 011305Z VRB05KT 10SM CLR 18/16 A2977 1000 84 1700 VRB/05 RMK AO2
14837KMSN MSN20090601071009706/01/09 07:10:31  5-MIN KMSN 011310Z VRB06KT 10SM FEW120 18/16 A2978 1000 84 1700 VRB/06 RMK AO2
14837KMSN MSN20090601071509706/01/09 07:15:31  5-MIN KMSN 011315Z 24006KT 10SM FEW120 19/16 A2978 1000 81 1700 240/06 RMK AO2
14837KMSN MSN20090601072009706/01/09 07:20:31  5-MIN KMSN 011320Z 25005KT 10SM FEW120 19/16 A2978 1000 81 1700 250/05 RMK AO2
14837KMSN MSN20090601072509706/01/09 07:25:31  5-MIN KMSN 011325Z VRB06KT 10SM FEW120 19/16 A2978 1000 78 1800 VRB/06 RMK AO2
14837KMSN MSN20090601073009706/01/09 07:30:31  5-MIN KMSN 011330Z VRB04KT 10SM FEW120 19/16 A2978 1000 81 1800 VRB/04 RMK AO2
14837KMSN MSN20090601073509706/01/09 07:35:31  5-MIN KMSN 011335Z VRB04KT 10SM FEW120 19/16 A2978 1000 81 1800 VRB/04 RMK AO2
14837KMSN MSN20090601074009606/01/09 07:40:31  5-MIN KMSN 011340Z VRB06KT 10SM FEW120 20/16 A2978 990 78 1800 VRB/06 RMK AO2
14837KMSN MSN20090601074509606/01/09 07:45:31  5-MIN KMSN 011345Z VRB06KT 10SM FEW120 21/16 A2978 990 75 1900 VRB/06 RMK AO2
14837KMSN MSN20090601075011306/01/09 07:50:31  5-MIN KMSN 011350Z VRB06KT 10SM FEW120 21/16 A2978 990 75 1900 VRB/06 RMK AO2 SLP082 T02060161
14837KMSN MSN20090601075509606/01/09 07:55:31  5-MIN KMSN 011355Z VRB04KT 10SM FEW080 21/16 A2978 990 75 1900 VRB/04 RMK AO2
14837KMSN MSN20090601080011206/01/09 08:00:31  5-MIN KMSN 011400Z 23007KT 200V260 10SM FEW080 21/16 A2979 990 75 1900 230/07 200V260 RMK AO2
14837KMSN MSN20090601080509606/01/09 08:05:31  5-MIN KMSN 011405Z 24006KT 10SM FEW080 21/16 A2979 990 75 1900 240/06 RMK AO2
14837KMSN MSN20090601081011206/01/09 08:10:31  5-MIN KMSN 011410Z 23007KT 200V280 10SM FEW080 21/16 A2979 990 73 2000 230/07 200V280 RMK AO2
14837KMSN MSN20090601081509606/01/09 08:15:31  5-MIN KMSN 011415Z VRB06KT 10SM FEW080 21/16 A2979 990 73 2000 VRB/06 RMK AO2
14837KMSN MSN20090601082009606/01/09 08:20:31  5-MIN KMSN 011420Z VRB05KT 10SM FEW025 22/16 A2979 990 70 2000 VRB/05 RMK AO2
14837KMSN MSN20090601082509606/01/09 08:25:31  5-MIN KMSN 011425Z VRB05KT 10SM FEW025 22/17 A2979 990 73 2000 VRB/05 RMK AO2
14837KMSN MSN20090601083009606/01/09 08:30:31  5-MIN KMSN 011430Z 25005KT 10SM FEW025 22/17 A2979 990 70 2100 250/05 RMK AO2
14837KMSN MSN20090601083509606/01/09 08:35:31  5-MIN KMSN 011435Z VRB05KT 10SM FEW025 22/17 A2979 990 73 2000 VRB/05 RMK AO2
14837KMSN MSN20090601084010206/01/09 08:40:31  5-MIN KMSN 011440Z 28010G14KT 10SM FEW025 22/16 A2979 990 68 2100 280/10G14 RMK AO2
14837KMSN MSN20090601084510206/01/09 08:45:31  5-MIN KMSN 011445Z 29009G15KT 10SM FEW025 22/16 A2979 990 68 2100 290/09G15 RMK AO2
14837KMSN MSN20090601085012506/01/09 08:50:31  5-MIN KMSN 011450Z 28007G15KT 10SM FEW025 23/16 A2979 980 65 2200 280/07G15 RMK AO2 SLP084 T02280161 53002
14837KMSN MSN20090601085509606/01/09 08:55:31  5-MIN KMSN 011455Z 29008KT 10SM FEW025 22/16 A2979 980 68 2100 290/08 RMK AO2
14837KMSN MSN20090601090009606/01/09 09:00:31  5-MIN KMSN 011500Z VRB06KT 10SM FEW025 23/16 A2979 980 65 2200 VRB/06 RMK AO2
14837KMSN MSN20090601090511206/01/09 09:05:31  5-MIN KMSN 011505Z 29007KT 260V320 10SM FEW025 23/16 A2979 980 65 2200 290/07 260V320 RMK AO2
14837KMSN MSN20090601091009606/01/09 09:10:31  5-MIN KMSN 011510Z 29005KT 10SM FEW025 23/16 A2980 980 65 2100 290/05 RMK AO2
14837KMSN MSN20090601091509606/01/09 09:15:31  5-MIN KMSN 011515Z 28009KT 10SM FEW025 23/16 A2980 980 65 2100 280/09 RMK AO2
14837KMSN MSN20090601092009606/01/09 09:20:31  5-MIN KMSN 011520Z 27007KT 10SM FEW025 23/16 A2980 980 65 2100 270/07 RMK AO2
14837KMSN MSN20090601092509606/01/09 09:25:31  5-MIN KMSN 011525Z VRB06KT 10SM FEW025 23/16 A2980 980 65 2100 VRB/06 RMK AO2
14837KMSN MSN20090601093009606/01/09 09:30:31  5-MIN KMSN 011530Z 31008KT 10SM FEW025 23/17 A2979 980 66 2200 310/08 RMK AO2
14837KMSN MSN20090601093509606/01/09 09:35:31  5-MIN KMSN 011535Z 32007KT 10SM FEW025 23/16 A2979 980 63 2200 320/07 RMK AO2
14837KMSN MSN20090601094009606/01/09 09:40:31  5-MIN KMSN 011540Z 28008KT 10SM FEW025 23/17 A2980 980 66 2200 280/08 RMK AO2
14837KMSN MSN20090601094509606/01/09 09:45:31  5-MIN KMSN 011545Z 31007KT 10SM FEW025 23/16 A2980 980 65 2100 310/07 RMK AO2
14837KMSN MSN20090601095011306/01/09 09:50:31  5-MIN KMSN 011550Z 30007KT 10SM FEW025 23/16 A2980 980 65 2100 300/07 RMK AO2 SLP087 T02280161
14837KMSN MSN20090601095509606/01/09 09:55:31  5-MIN KMSN 011555Z 28007KT 10SM FEW028 23/16 A2980 970 65 2100 280/07 RMK AO2
14837KMSN MSN20090601100009606/01/09 10:00:31  5-MIN KMSN 011600Z VRB05KT 10SM FEW028 23/16 A2980 970 63 2200 VRB/05 RMK AO2
14837KMSN MSN20090601100509606/01/09 10:05:31  5-MIN KMSN 011605Z 29007KT 10SM FEW028 23/17 A2981 970 66 2200 290/07 RMK AO2
14837KMSN MSN20090601101009606/01/09 10:10:31  5-MIN KMSN 011610Z 29004KT 10SM SCT028 23/17 A2981 970 66 2200 290/04 RMK AO2
14837KMSN MSN20090601101509606/01/09 10:15:31  5-MIN KMSN 011615Z VRB06KT 10SM SCT028 24/17 A2981 970 63 2300 VRB/06 RMK AO2
14837KMSN MSN20090601102009606/01/09 10:20:31  5-MIN KMSN 011620Z 30006KT 10SM BKN028 24/17 A2981 960 63 2300 300/06 RMK AO2
14837KMSN MSN20090601102509606/01/09 10:25:31  5-MIN KMSN 011625Z VRB05KT 10SM BKN028 24/17 A2982 960 63 2200 VRB/05 RMK AO2
14837KMSN MSN20090601103009606/01/09 10:30:31  5-MIN KMSN 011630Z 32008KT 10SM BKN028 24/17 A2982 960 61 2300 320/08 RMK AO2
14837KMSN MSN20090601103509606/01/09 10:35:31  5-MIN KMSN 011635Z 26007KT 10SM BKN028 24/17 A2982 960 63 2200 260/07 RMK AO2
14837KMSN MSN20090601104009606/01/09 10:40:31  5-MIN KMSN 011640Z VRB03KT 10SM BKN028 24/17 A2982 960 63 2200 VRB/03 RMK AO2
14837KMSN MSN20090601104509606/01/09 10:45:31  5-MIN KMSN 011645Z VRB06KT 10SM BKN028 24/17 A2982 960 63 2200 VRB/06 RMK AO2
14837KMSN MSN20090601105011306/01/09 10:50:31  5-MIN KMSN 011650Z 28007KT 10SM BKN028 24/16 A2982 960 61 2200 280/07 RMK AO2 SLP094 T02390161
14837KMSN MSN20090601105509606/01/09 10:55:31  5-MIN KMSN 011655Z 29008KT 10SM BKN035 24/17 A2982 960 61 2300 290/08 RMK AO2
14837KMSN MSN20090601110009606/01/09 11:00:31  5-MIN KMSN 011700Z 33007KT 10SM BKN035 25/16 A2982 960 57 2400 330/07 RMK AO2
14837KMSN MSN20090601110509606/01/09 11:05:31  5-MIN KMSN 011705Z VRB06KT 10SM SCT035 25/17 A2982 960 59 2400 VRB/06 RMK AO2
14837KMSN MSN20090601111009606/01/09 11:10:31  5-MIN KMSN 011710Z 32010KT 10SM SCT037 25/17 A2982 960 59 2400 320/10 RMK AO2
14837KMSN MSN20090601111509606/01/09 11:15:31  5-MIN KMSN 011715Z 34008KT 10SM BKN037 24/16 A2982 960 59 2300 340/08 RMK AO2
14837KMSN MSN20090601112009606/01/09 11:20:31  5-MIN KMSN 011720Z 32007KT 10SM BKN039 24/16 A2982 960 59 2300 320/07 RMK AO2
14837KMSN MSN20090601112509606/01/09 11:25:31  5-MIN KMSN 011725Z 35006KT 10SM BKN039 24/16 A2982 960 59 2300 350/06 RMK AO2
14837KMSN MSN20090601113009606/01/09 11:30:31  5-MIN KMSN 011730Z 32007KT 10SM SCT039 25/17 A2982 960 59 2400 320/07 RMK AO2
14837KMSN MSN20090601113509606/01/09 11:35:31  5-MIN KMSN 011735Z 35011KT 10SM SCT039 25/16 A2982 960 55 2400 350/11 RMK AO2
14837KMSN MSN20090601114009606/01/09 11:40:31  5-MIN KMSN 011740Z 33007KT 10SM FEW039 25/16 A2982 960 55 2400 330/07 RMK AO2
14837KMSN MSN20090601114509606/01/09 11:45:31  5-MIN KMSN 011745Z 35008KT 10SM FEW039 26/16 A2982 960 55 2400 340/08 RMK AO2
14837KMSN MSN20090601115013106/01/09 11:50:31  5-MIN KMSN 011750Z 35009KT 10SM FEW039 26/16 A2982 950 53 2400 350/09 RMK AO2 SLP096 T02560156 10256 20167 51009
14837KMSN MSN20090601115509606/01/09 11:55:31  5-MIN KMSN 011755Z 33010KT 10SM FEW040 26/16 A2983 950 53 2400 330/10 RMK AO2
14837KMSN MSN20090601120009606/01/09 12:00:31  5-MIN KMSN 011800Z 32008KT 10SM FEW040 26/15 A2983 950 51 2400 320/08 RMK AO2
14837KMSN MSN20090601120509606/01/09 12:05:31  5-MIN KMSN 011805Z 36010KT 10SM FEW040 26/15 A2983 950 51 2400 360/10 RMK AO2
14837KMSN MSN20090601121010206/01/09 12:10:31  5-MIN KMSN 011810Z 36010G17KT 10SM FEW040 26/14 A2983 940 49 2400 360/10G17 RMK AO2
14837KMSN MSN20090601121510206/01/09 12:15:31  5-MIN KMSN 011815Z 36007G17KT 10SM FEW040 26/14 A2983 940 49 2400 360/07G17 RMK AO2
14837KMSN MSN20090601122010206/01/09 12:20:31  5-MIN KMSN 011820Z 36012G16KT 10SM FEW040 26/14 A2984 940 49 2400 360/12G16 RMK AO2
14837KMSN MSN20090601122510206/01/09 12:25:31  5-MIN KMSN 011825Z 36008G16KT 10SM FEW040 26/14 A2984 940 48 2400 360/08G16 RMK AO2
14837KMSN MSN20090601123010206/01/09 12:30:31  5-MIN KMSN 011830Z 34011G17KT 10SM FEW040 26/14 A2984 940 48 2400 340/11G17 RMK AO2
14837KMSN MSN20090601123510206/01/09 12:35:31  5-MIN KMSN 011835Z 36009G17KT 10SM FEW040 25/14 A2984 930 49 2300 360/09G17 RMK AO2
14837KMSN MSN20090601124009606/01/09 12:40:31  5-MIN KMSN 011840Z 36010KT 10SM FEW040 25/14 A2985 930 49 2300 360/10 RMK AO2
14837KMSN MSN20090601124509606/01/09 12:45:31  5-MIN KMSN 011845Z 01010KT 10SM FEW040 25/14 A2985 930 49 2300 010/10 RMK AO2
14837KMSN MSN20090601125011306/01/09 12:50:31  5-MIN KMSN 011850Z 01013KT 10SM FEW040 25/14 A2985 930 49 2300 010/13 RMK AO2 SLP104 T02500139
14837KMSN MSN20090601125509606/01/09 12:55:31  5-MIN KMSN 011855Z 35010KT 10SM FEW045 24/13 A2985 930 47 2300 350/10 RMK AO2
14837KMSN MSN20090601130009606/01/09 13:00:31  5-MIN KMSN 011900Z 35008KT 10SM FEW045 25/12 A2985 930 44 2300 350/08 RMK AO2
14837KMSN MSN20090601130509606/01/09 13:05:31  5-MIN KMSN 011905Z 35007KT 10SM FEW045 25/12 A2985 930 44 2300 350/07 RMK AO2
14837KMSN MSN20090601131009606/01/09 13:10:31  5-MIN KMSN 011910Z 35007KT 10SM FEW045 25/13 A2985 930 48 2300 350/07 RMK AO2
14837KMSN MSN20090601131509606/01/09 13:15:31  5-MIN KMSN 011915Z 36006KT 10SM FEW045 25/13 A2985 930 48 2300 360/06 RMK AO2
14837KMSN MSN20090601132009606/01/09 13:20:31  5-MIN KMSN 011920Z 35007KT 10SM FEW045 25/14 A2986 920 49 2300 340/07 RMK AO2
14837KMSN MSN20090601132509606/01/09 13:25:31  5-MIN KMSN 011925Z 36008KT 10SM FEW045 25/14 A2986 920 49 2300 360/08 RMK AO2
14837KMSN MSN20090601133009606/01/09 13:30:31  5-MIN KMSN 011930Z 01009KT 10SM FEW045 25/13 A2986 920 48 2300 010/09 RMK AO2
14837KMSN MSN20090601133509606/01/09 13:35:31  5-MIN KMSN 011935Z 36009KT 10SM FEW045 25/13 A2986 920 48 2300 360/09 RMK AO2
14837KMSN MSN20090601134009606/01/09 13:40:31  5-MIN KMSN 011940Z 35009KT 10SM FEW045 25/13 A2986 920 46 2300 340/09 RMK AO2
14837KMSN MSN20090601134510206/01/09 13:45:31  5-MIN KMSN 011945Z 02011G18KT 10SM FEW045 24/13 A2987 910 49 2300 020/11G18 RMK AO2
14837KMSN MSN20090601135011906/01/09 13:50:31  5-MIN KMSN 011950Z 36010G18KT 10SM FEW050 24/12 A2987 910 46 2300 360/10G18 RMK AO2 SLP111 T02440122
14837KMSN MSN20090601135510206/01/09 13:55:31  5-MIN KMSN 011955Z 36009G17KT 10SM FEW050 24/12 A2987 910 46 2200 350/09G17 RMK AO2
14837KMSN MSN20090601140009606/01/09 14:00:31  5-MIN KMSN 012000Z 35008KT 10SM FEW050 24/12 A2987 910 44 2200 350/08 RMK AO2
14837KMSN MSN20090601140509606/01/09 14:05:31  5-MIN KMSN 012005Z 35007KT 10SM FEW050 24/12 A2987 910 44 2200 350/07 RMK AO2
14837KMSN MSN20090601141009606/01/09 14:10:31  5-MIN KMSN 012010Z 36007KT 10SM FEW050 24/11 A2987 910 42 2300 360/07 RMK AO2
14837KMSN MSN20090601141509606/01/09 14:15:31  5-MIN KMSN 012015Z 36007KT 10SM FEW050 24/11 A2987 910 41 2300 360/07 RMK AO2
14837KMSN MSN20090601142009606/01/09 14:20:31  5-MIN KMSN 012020Z 02009KT 10SM FEW050 24/11 A2987 910 44 2200 020/09 RMK AO2
14837KMSN MSN20090601142509606/01/09 14:25:31  5-MIN KMSN 012025Z 36007KT 10SM FEW050 24/11 A2988 910 41 2200 360/07 RMK AO2
14837KMSN MSN20090601143009606/01/09 14:30:31  5-MIN KMSN 012030Z 02008KT 10SM FEW050 24/11 A2987 910 42 2200 020/08 RMK AO2
14837KMSN MSN20090601143509606/01/09 14:35:31  5-MIN KMSN 012035Z 01007KT 10SM FEW050 24/11 A2987 910 41 2200 360/07 RMK AO2
14837KMSN MSN20090601144009606/01/09 14:40:31  5-MIN KMSN 012040Z 02010KT 10SM FEW050 24/12 A2987 910 46 2200 020/10 RMK AO2
14837KMSN MSN20090601144509606/01/09 14:45:31  5-MIN KMSN 012045Z 02010KT 10SM FEW050 24/11 A2987 910 42 2200 020/10 RMK AO2
14837KMSN MSN20090601145011906/01/09 14:50:31  5-MIN KMSN 012050Z 03010KT 10SM FEW050 24/11 A2987 910 44 2200 020/10 RMK AO2 SLP111 T02390111 52012
14837KMSN MSN20090601145509306/01/09 14:55:31  5-MIN KMSN 012055Z 02011KT 10SM CLR 24/11 A2987 910 44 2200 020/11 RMK AO2
14837KMSN MSN20090601150009306/01/09 15:00:31  5-MIN KMSN 012100Z 02011KT 10SM CLR 24/12 A2987 910 46 2200 020/11 RMK AO2
14837KMSN MSN20090601150509906/01/09 15:05:31  5-MIN KMSN 012105Z 36009G17KT 10SM CLR 24/12 A2988 900 46 2200 360/09G17 RMK AO2
14837KMSN MSN20090601151009306/01/09 15:10:31  5-MIN KMSN 012110Z 01008KT 10SM CLR 23/12 A2988 900 47 2100 010/08 RMK AO2
14837KMSN MSN20090601151509306/01/09 15:15:31  5-MIN KMSN 012115Z 01009KT 10SM CLR 23/12 A2988 900 47 2100 010/09 RMK AO2
14837KMSN MSN20090601152009306/01/09 15:20:31  5-MIN KMSN 012120Z 01011KT 10SM CLR 23/12 A2988 900 47 2100 010/11 RMK AO2
14837KMSN MSN20090601152509306/01/09 15:25:31  5-MIN KMSN 012125Z 01009KT 10SM CLR 23/12 A2988 900 47 2100 010/09 RMK AO2
14837KMSN MSN20090601153009306/01/09 15:30:31  5-MIN KMSN 012130Z 01010KT 10SM CLR 23/12 A2988 900 47 2100 010/10 RMK AO2
14837KMSN MSN20090601153509306/01/09 15:35:31  5-MIN KMSN 012135Z 36009KT 10SM CLR 23/11 A2989 890 45 2100 360/09 RMK AO2
14837KMSN MSN20090601154009606/01/09 15:40:31  5-MIN KMSN 012140Z 36009KT 10SM FEW100 23/12 A2989 890 47 2100 360/09 RMK AO2
14837KMSN MSN20090601154509606/01/09 15:45:31  5-MIN KMSN 012145Z 36008KT 10SM FEW100 23/11 A2989 890 44 2100 360/08 RMK AO2
14837KMSN MSN20090601155011006/01/09 15:50:31  5-MIN KMSN 012150Z 01006KT 10SM CLR 23/12 A2989 890 47 2100 360/06 RMK AO2 SLP119 T02330117
14837KMSN MSN20090601155509306/01/09 15:55:31  5-MIN KMSN 012155Z 02009KT 10SM CLR 23/11 A2989 890 45 2100 020/09 RMK AO2
14837KMSN MSN20090601160009306/01/09 16:00:31  5-MIN KMSN 012200Z 02008KT 10SM CLR 23/11 A2990 890 45 2100 020/08 RMK AO2
14837KMSN MSN20090601160509306/01/09 16:05:31  5-MIN KMSN 012205Z 04006KT 10SM CLR 23/11 A2990 880 44 2100 040/06 RMK AO2
14837KMSN MSN20090601161009306/01/09 16:10:31  5-MIN KMSN 012210Z 05006KT 10SM CLR 23/11 A2990 880 45 2100 050/06 RMK AO2
14837KMSN MSN20090601161509306/01/09 16:15:31  5-MIN KMSN 012215Z 07004KT 10SM CLR 23/12 A2990 880 47 2100 070/04 RMK AO2
14837KMSN MSN20090601162009306/01/09 16:20:31  5-MIN KMSN 012220Z 05006KT 10SM CLR 23/12 A2991 880 47 2100 050/06 RMK AO2
14837KMSN MSN20090601162509306/01/09 16:25:31  5-MIN KMSN 012225Z 03009KT 10SM CLR 23/12 A2991 880 47 2100 030/09 RMK AO2
14837KMSN MSN20090601163009306/01/09 16:30:31  5-MIN KMSN 012230Z 03005KT 10SM CLR 23/12 A2991 880 47 2100 030/05 RMK AO2
14837KMSN MSN20090601163509306/01/09 16:35:31  5-MIN KMSN 012235Z 04006KT 10SM CLR 23/12 A2991 870 47 2100 040/06 RMK AO2
14837KMSN MSN20090601164009306/01/09 16:40:31  5-MIN KMSN 012240Z 05009KT 10SM CLR 23/11 A2991 870 47 2000 050/09 RMK AO2
14837KMSN MSN20090601164509306/01/09 16:45:31  5-MIN KMSN 012245Z 05008KT 10SM CLR 23/11 A2991 870 47 2000 050/08 RMK AO2
14837KMSN MSN20090601165011006/01/09 16:50:31  5-MIN KMSN 012250Z 04009KT 10SM CLR 23/11 A2992 870 45 2000 040/09 RMK AO2 SLP127 T02280106
14837KMSN MSN20090601165509306/01/09 16:55:31  5-MIN KMSN 012255Z 05007KT 10SM CLR 23/10 A2992 870 44 2000 050/07 RMK AO2
14837KMSN MSN20090601170009306/01/09 17:00:31  5-MIN KMSN 012300Z 05009KT 10SM CLR 23/09 A2992 870 42 2000 050/09 RMK AO2
14837KMSN MSN20090601170509306/01/09 17:05:31  5-MIN KMSN 012305Z 04009KT 10SM CLR 23/09 A2992 870 40 2000 040/09 RMK AO2
14837KMSN MSN20090601171009306/01/09 17:10:31  5-MIN KMSN 012310Z 04009KT 10SM CLR 23/09 A2992 870 40 2000 040/09 RMK AO2
14837KMSN MSN20090601171509306/01/09 17:15:31  5-MIN KMSN 012315Z 05009KT 10SM CLR 22/08 A2992 860 40 1900 040/09 RMK AO2
14837KMSN MSN20090601172009306/01/09 17:20:31  5-MIN KMSN 012320Z 04010KT 10SM CLR 23/09 A2992 870 40 2000 040/10 RMK AO2
14837KMSN MSN20090601172509306/01/09 17:25:31  5-MIN KMSN 012325Z 04009KT 10SM CLR 23/08 A2992 870 39 2000 040/09 RMK AO2
14837KMSN MSN20090601173009306/01/09 17:30:31  5-MIN KMSN 012330Z 05009KT 10SM CLR 22/08 A2992 860 40 1900 040/09 RMK AO2
14837KMSN MSN20090601173509306/01/09 17:35:31  5-MIN KMSN 012335Z 04010KT 10SM CLR 22/08 A2992 860 40 1900 040/10 RMK AO2
14837KMSN MSN20090601174009306/01/09 17:40:31  5-MIN KMSN 012340Z 04008KT 10SM CLR 22/08 A2992 860 39 1900 040/08 RMK AO2
14837KMSN MSN20090601174509306/01/09 17:45:31  5-MIN KMSN 012345Z 04008KT 10SM CLR 23/07 A2992 860 35 2000 040/08 RMK AO2
14837KMSN MSN20090601175012806/01/09 17:50:31  5-MIN KMSN 012350Z 04008KT 10SM CLR 23/07 A2992 870 35 2000 040/08 RMK AO2 SLP127 T02280067 10261 20222 50014
14837KMSN MSN20090601175509306/01/09 17:55:31  5-MIN KMSN 012355Z 04007KT 10SM CLR 22/07 A2991 870 37 2000 040/07 RMK AO2
14837KMSN MSN20090601180009306/01/09 18:00:31  5-MIN KMSN 020000Z 04009KT 10SM CLR 22/07 A2991 870 37 2000 030/09 RMK AO2
14837KMSN MSN20090601180509306/01/09 18:05:31  5-MIN KMSN 020005Z 03009KT 10SM CLR 22/07 A2991 870 39 1900 030/09 RMK AO2
14837KMSN MSN20090601181009906/01/09 18:10:31  5-MIN KMSN 020010Z 04014G23KT 10SM CLR 22/06 A2992 870 36 1900 040/14G23 RMK AO2
14837KMSN MSN20090601181511706/01/09 18:15:31  5-MIN KMSN 020015Z 11018G26KT 10SM CLR 20/11 A2993 860 54 1700 110/18G26 RMK AO2 PK WND 11026/0012
14837KMSN MSN20090601182012806/01/09 18:20:31  5-MIN KMSN 020020Z 10020G26KT 10SM CLR 18/12 A2993 850 65 1500 100/20G26 RMK AO2 PK WND 11026/0012 WSHFT 0006
14837KMSN MSN20090601182512806/01/09 18:25:31  5-MIN KMSN 020025Z 10013G22KT 10SM CLR 18/12 A2993 850 65 1500 100/13G22 RMK AO2 PK WND 11026/0012 WSHFT 0006
14837KMSN MSN20090601183012806/01/09 18:30:31  5-MIN KMSN 020030Z 10016G20KT 10SM CLR 18/11 A2993 860 62 1500 100/16G20 RMK AO2 PK WND 11026/0012 WSHFT 0006
14837KMSN MSN20090601183512206/01/09 18:35:31  5-MIN KMSN 020035Z 11013KT 10SM CLR 18/11 A2993 860 64 1400 110/13 RMK AO2 PK WND 11026/0012 WSHFT 0006
14837KMSN MSN20090601184012806/01/09 18:40:31  5-MIN KMSN 020040Z 12016G21KT 10SM CLR 17/11 A2994 850 69 1300 120/16G21 RMK AO2 PK WND 11026/0012 WSHFT 0006
14837KMSN MSN20090601184512806/01/09 18:45:31  5-MIN KMSN 020045Z 11012G21KT 10SM CLR 17/11 A2994 850 69 1300 110/12G21 RMK AO2 PK WND 11026/0012 WSHFT 0006
14837KMSN MSN20090601185013906/01/09 18:50:31  5-MIN KMSN 020050Z 10013KT 10SM CLR 17/11 A2994 850 69 1300 100/13 RMK AO2 PK WND 11026/0012 WSHFT 0006 SLP136 T01670111
14837KMSN MSN20090601185509906/01/09 18:55:31  5-MIN KMSN 020055Z 10013G17KT 10SM CLR 17/11 A2994 850 67 1300 100/13G17 RMK AO2
14837KMSN MSN20090601190009906/01/09 19:00:31  5-MIN KMSN 020100Z 11013G18KT 10SM CLR 16/11 A2994 840 69 1200 110/13G18 RMK AO2
14837KMSN MSN20090601190509306/01/09 19:05:31  5-MIN KMSN 020105Z 11012KT 10SM CLR 16/11 A2994 840 72 1100 110/12 RMK AO2
14837KMSN MSN20090601191009906/01/09 19:10:31  5-MIN KMSN 020110Z 10008G16KT 10SM CLR 16/11 A2995 840 72 1100 100/08G16 RMK AO2
14837KMSN MSN20090601191509306/01/09 19:15:31  5-MIN KMSN 020115Z 10011KT 10SM CLR 16/11 A2995 840 72 1100 100/11 RMK AO2
14837KMSN MSN20090601192009306/01/09 19:20:31  5-MIN KMSN 020120Z 11009KT 10SM CLR 15/11 A2996 830 74 1100 110/09 RMK AO2
14837KMSN MSN20090601192509306/01/09 19:25:31  5-MIN KMSN 020125Z 10008KT 10SM CLR 14/10 A2996 830 74 1000 100/08 RMK AO2
14837KMSN MSN20090601193009306/01/09 19:30:31  5-MIN KMSN 020130Z 10008KT 10SM CLR 14/10 A2996 830 74 1000 100/08 RMK AO2
14837KMSN MSN20090601193509306/01/09 19:35:31  5-MIN KMSN 020135Z 10007KT 10SM CLR 14/10 A2997 820 74 1000 100/07 RMK AO2
14837KMSN MSN20090601194010006/01/09 19:40:31  5-MIN KMSN 020140Z 12008KT 10SM CLR 14/10 A2999 800 74 1000 110/08 RMK AO2 PRESRR
14837KMSN MSN20090601194510006/01/09 19:45:31  5-MIN KMSN 020145Z 11008KT 10SM CLR 14/10 A2999 800 74 1000 110/08 RMK AO2 PRESRR
14837KMSN MSN20090601195011606/01/09 19:50:31  5-MIN KMSN 020150Z 12007KT 10SM CLR 14/10 A3000 790 77 900 120/07 RMK AO2 PRESRR SLP157 T01390100
14837KMSN MSN20090601195509906/01/09 19:55:31  5-MIN KMSN 020155Z 12007KT 10SM CLR 14/10 A3000 790 77 900 120/07 RMK AO2 PRESRR
14837KMSN MSN20090601200009206/01/09 20:00:31  5-MIN KMSN 020200Z 13008KT 10SM CLR 14/09 A3001 780 74 900 130/08 RMK AO2
14837KMSN MSN20090601200509206/01/09 20:05:31  5-MIN KMSN 020205Z 14008KT 10SM CLR 14/09 A3001 780 74 900 140/08 RMK AO2
14837KMSN MSN20090601201009206/01/09 20:10:31  5-MIN KMSN 020210Z 13007KT 10SM CLR 14/09 A3001 780 74 900 130/07 RMK AO2
14837KMSN MSN20090601201509206/01/09 20:15:31  5-MIN KMSN 020215Z 13007KT 10SM CLR 14/09 A3002 770 74 900 130/07 RMK AO2
14837KMSN MSN20090601202009906/01/09 20:20:31  5-MIN KMSN 020220Z 12007KT 10SM CLR 13/09 A3003 760 77 800 120/07 RMK AO2 PRESRR
14837KMSN MSN20090601202509206/01/09 20:25:31  5-MIN KMSN 020225Z 11006KT 10SM CLR 13/09 A3003 770 77 800 110/06 RMK AO2
14837KMSN MSN20090601203009206/01/09 20:30:31  5-MIN KMSN 020230Z 09006KT 10SM CLR 13/09 A3003 770 77 800 090/06 RMK AO2
14837KMSN MSN20090601203509206/01/09 20:35:31  5-MIN KMSN 020235Z 09007KT 10SM CLR 13/09 A3003 760 74 800 090/07 RMK AO2
14837KMSN MSN20090601204009206/01/09 20:40:31  5-MIN KMSN 020240Z 09006KT 10SM CLR 13/09 A3004 760 77 700 080/06 RMK AO2
14837KMSN MSN20090601204509206/01/09 20:45:31  5-MIN KMSN 020245Z 10006KT 10SM CLR 13/09 A3004 750 77 700 100/06 RMK AO2
14837KMSN MSN20090601205011506/01/09 20:50:31  5-MIN KMSN 020250Z 11008KT 10SM CLR 12/09 A3004 750 80 600 110/08 RMK AO2 SLP171 T01220089 50015
14837KMSN MSN20090601205509206/01/09 20:55:31  5-MIN KMSN 020255Z 09006KT 10SM CLR 13/09 A3004 750 77 700 090/06 RMK AO2
14837KMSN MSN20090601210009206/01/09 21:00:31  5-MIN KMSN 020300Z 07007KT 10SM CLR 12/08 A3004 750 77 600 070/07 RMK AO2
14837KMSN MSN20090601210509206/01/09 21:05:31  5-MIN KMSN 020305Z 09007KT 10SM CLR 12/08 A3005 740 77 600 090/07 RMK AO2
14837KMSN MSN20090601211009206/01/09 21:10:31  5-MIN KMSN 020310Z 09006KT 10SM CLR 12/08 A3006 740 77 600 090/06 RMK AO2
14837KMSN MSN20090601211509206/01/09 21:15:31  5-MIN KMSN 020315Z 08008KT 10SM CLR 12/08 A3006 740 74 600 080/08 RMK AO2
14837KMSN MSN20090601212009206/01/09 21:20:31  5-MIN KMSN 020320Z 07007KT 10SM CLR 12/08 A3005 750 77 600 070/07 RMK AO2
14837KMSN MSN20090601212509206/01/09 21:25:31  5-MIN KMSN 020325Z 06007KT 10SM CLR 11/08 A3005 750 80 500 060/07 RMK AO2
14837KMSN MSN20090601213009206/01/09 21:30:31  5-MIN KMSN 020330Z 06006KT 10SM CLR 11/08 A3005 740 80 500 060/06 RMK AO2
14837KMSN MSN20090601213509206/01/09 21:35:31  5-MIN KMSN 020335Z 07007KT 10SM CLR 11/08 A3005 740 80 500 070/07 RMK AO2
14837KMSN MSN20090601214009206/01/09 21:40:31  5-MIN KMSN 020340Z 08008KT 10SM CLR 11/08 A3005 740 80 500 080/08 RMK AO2
14837KMSN MSN20090601214509206/01/09 21:45:31  5-MIN KMSN 020345Z 09005KT 10SM CLR 12/08 A3005 740 77 600 090/05 RMK AO2
14837KMSN MSN20090601215010906/01/09 21:50:31  5-MIN KMSN 020350Z 08005KT 10SM CLR 11/08 A3006 740 80 500 080/05 RMK AO2 SLP176 T01110078
14837KMSN MSN20090601215509206/01/09 21:55:31  5-MIN KMSN 020355Z 08005KT 10SM CLR 11/08 A3006 740 80 500 080/05 RMK AO2
14837KMSN MSN20090601220009206/01/09 22:00:31  5-MIN KMSN 020400Z 09005KT 10SM CLR 11/07 A3006 740 80 400 090/05 RMK AO2
14837KMSN MSN20090601220509206/01/09 22:05:31  5-MIN KMSN 020405Z 08004KT 10SM CLR 11/07 A3007 730 77 500 080/04 RMK AO2
14837KMSN MSN20090601221009206/01/09 22:10:31  5-MIN KMSN 020410Z 06003KT 10SM CLR 11/07 A3007 730 80 400 060/03 RMK AO2
14837KMSN MSN20090601221509206/01/09 22:15:31  5-MIN KMSN 020415Z 06004KT 10SM CLR 11/07 A3007 720 80 400 060/04 RMK AO2
14837KMSN MSN20090601222009206/01/09 22:20:31  5-MIN KMSN 020420Z 06005KT 10SM CLR 10/07 A3008 720 80 300 050/05 RMK AO2
14837KMSN MSN20090601222509206/01/09 22:25:31  5-MIN KMSN 020425Z 06006KT 10SM CLR 10/07 A3009 710 80 300 060/06 RMK AO2
14837KMSN MSN20090601223009206/01/09 22:30:31  5-MIN KMSN 020430Z 08005KT 10SM CLR 10/07 A3009 710 80 300 080/05 RMK AO2
14837KMSN MSN20090601223509206/01/09 22:35:31  5-MIN KMSN 020435Z 12004KT 10SM CLR 10/07 A3009 710 80 300 110/04 RMK AO2
14837KMSN MSN20090601224009206/01/09 22:40:31  5-MIN KMSN 020440Z 11009KT 10SM CLR 10/07 A3009 700 80 300 110/09 RMK AO2
14837KMSN MSN20090601224509206/01/09 22:45:31  5-MIN KMSN 020445Z 11008KT 10SM CLR 10/06 A3009 700 77 300 110/08 RMK AO2
14837KMSN MSN20090601225010906/01/09 22:50:31  5-MIN KMSN 020450Z 11007KT 10SM CLR 10/06 A3009 700 74 300 110/07 RMK AO2 SLP190 T01000056
14837KMSN MSN20090601225509206/01/09 22:55:31  5-MIN KMSN 020455Z 12007KT 10SM CLR 10/06 A3009 710 74 300 110/07 RMK AO2
14837KMSN MSN20090601230009206/01/09 23:00:31  5-MIN KMSN 020500Z 11008KT 10SM CLR 10/06 A3009 710 74 300 110/08 RMK AO2
14837KMSN MSN20090601230509206/01/09 23:05:31  5-MIN KMSN 020505Z 11008KT 10SM CLR 10/06 A3009 710 74 300 110/08 RMK AO2
14837KMSN MSN20090601231009206/01/09 23:10:31  5-MIN KMSN 020510Z 11009KT 10SM CLR 10/05 A3009 700 71 300 100/09 RMK AO2
14837KMSN MSN20090601231509206/01/09 23:15:31  5-MIN KMSN 020515Z 11007KT 10SM CLR 10/05 A3010 700 71 300 110/07 RMK AO2
14837KMSN MSN20090601232009206/01/09 23:20:31  5-MIN KMSN 020520Z 09005KT 10SM CLR 10/05 A3010 700 71 300 090/05 RMK AO2
14837KMSN MSN20090601232509206/01/09 23:25:31  5-MIN KMSN 020525Z 09005KT 10SM CLR 10/05 A3010 700 71 300 090/05 RMK AO2
14837KMSN MSN20090601233009206/01/09 23:30:31  5-MIN KMSN 020530Z 07003KT 10SM CLR 09/05 A3011 690 74 200 070/03 RMK AO2
14837KMSN MSN20090601233509206/01/09 23:35:31  5-MIN KMSN 020535Z 08003KT 10SM CLR 09/05 A3011 690 74 200 080/03 RMK AO2
14837KMSN MSN20090601234009206/01/09 23:40:31  5-MIN KMSN 020540Z 08003KT 10SM CLR 09/05 A3011 690 74 200 080/03 RMK AO2
14837KMSN MSN20090601234509206/01/09 23:45:31  5-MIN KMSN 020545Z 06003KT 10SM CLR 09/05 A3011 690 74 200 060/03 RMK AO2
14837KMSN MSN20090601235013706/01/09 23:50:31  5-MIN KMSN 020550Z 05003KT 10SM CLR 09/05 A3011 690 76 200 050/03 RMK AO2 SLP193 T00890050 10222 20089 402610089 53043
14837KMSN MSN20090601235509206/01/09 23:55:31  5-MIN KMSN 020555Z 04004KT 10SM CLR 09/05 A3010 700 76 200 040/04 RMK AO2
14837KMSN MSN20090602000009206/02/09 00:00:32  5-MIN KMSN 020600Z 05004KT 10SM CLR 09/06 A3010 700 79 200 040/04 RMK AO2
14837KMSN MSN20090602000509206/02/09 00:05:31  5-MIN KMSN 020605Z 05005KT 10SM CLR 09/06 A3010 700 79 200 050/05 RMK AO2
14837KMSN MSN20090602001009206/02/09 00:10:31  5-MIN KMSN 020610Z 05005KT 10SM CLR 08/05 A3009 700 79 100 050/05 RMK AO2
14837KMSN MSN20090602001509206/02/09 00:15:31  5-MIN KMSN 020615Z 05004KT 10SM CLR 08/05 A3009 710 79 100 050/04 RMK AO2
14837KMSN MSN20090602002009206/02/09 00:20:31  5-MIN KMSN 020620Z 03005KT 10SM CLR 08/06 A3009 710 82 100 030/05 RMK AO2
14837KMSN MSN20090602002509206/02/09 00:25:31  5-MIN KMSN 020625Z 04004KT 10SM CLR 09/05 A3009 710 76 200 030/04 RMK AO2
14837KMSN MSN20090602003009206/02/09 00:30:31  5-MIN KMSN 020630Z 02005KT 10SM CLR 09/05 A3009 710 76 200 020/05 RMK AO2
14837KMSN MSN20090602003509206/02/09 00:35:31  5-MIN KMSN 020635Z 35005KT 10SM CLR 08/05 A3009 710 79 100 350/05 RMK AO2
14837KMSN MSN20090602004009206/02/09 00:40:31  5-MIN KMSN 020640Z 36005KT 10SM CLR 08/05 A3009 710 79 100 360/05 RMK AO2
14837KMSN MSN20090602004509206/02/09 00:45:31  5-MIN KMSN 020645Z 36006KT 10SM CLR 08/05 A3009 710 79 100 360/06 RMK AO2
14837KMSN MSN20090602005010906/02/09 00:50:31  5-MIN KMSN 020650Z 36006KT 10SM CLR 08/06 A3008 710 82 100 360/06 RMK AO2 SLP186 T00830056
14837KMSN MSN20090602005509206/02/09 00:55:31  5-MIN KMSN 020655Z 36006KT 10SM CLR 08/06 A3008 710 82 100 360/06 RMK AO2
14837KMSN MSN20090602010009206/02/09 01:00:31  5-MIN KMSN 020700Z 01005KT 10SM CLR 08/06 A3008 720 82 100 010/05 RMK AO2
14837KMSN MSN20090602010509206/02/09 01:05:31  5-MIN KMSN 020705Z 01003KT 10SM CLR 08/05 A3008 720 82 100 010/03 RMK AO2
14837KMSN MSN20090602011009506/02/09 01:10:31  5-MIN KMSN 020710Z 36004KT 10SM SCT070 08/05 A3008 710 82 100 360/04 RMK AO2
14837KMSN MSN20090602011509506/02/09 01:15:31  5-MIN KMSN 020715Z 36005KT 10SM BKN070 08/05 A3008 710 79 100 360/05 RMK AO2
14837KMSN MSN20090602012009506/02/09 01:20:31  5-MIN KMSN 020720Z 35005KT 10SM BKN070 08/05 A3009 710 79 100 350/05 RMK AO2
14837KMSN MSN20090602012509506/02/09 01:25:31  5-MIN KMSN 020725Z 36004KT 10SM BKN070 08/05 A3009 710 79 100 360/04 RMK AO2
14837KMSN MSN20090602013009506/02/09 01:30:31  5-MIN KMSN 020730Z 01004KT 10SM OVC070 08/05 A3009 710 79 100 360/04 RMK AO2
14837KMSN MSN20090602013509506/02/09 01:35:31  5-MIN KMSN 020735Z 00000KT 10SM OVC070 08/05 A3009 710 79 100 000/00 RMK AO2
14837KMSN MSN20090602014009506/02/09 01:40:31  5-MIN KMSN 020740Z 01004KT 10SM OVC070 08/05 A3008 710 79 100 010/04 RMK AO2
14837KMSN MSN20090602014509506/02/09 01:45:31  5-MIN KMSN 020745Z 01006KT 10SM OVC070 08/05 A3008 720 79 100 010/06 RMK AO2
14837KMSN MSN20090602015011206/02/09 01:50:31  5-MIN KMSN 020750Z 01006KT 10SM BKN070 08/05 A3008 720 82 100 010/06 RMK AO2 SLP184 T00780050
14837KMSN MSN20090602015509506/02/09 01:55:31  5-MIN KMSN 020755Z 01006KT 10SM SCT070 08/05 A3008 720 82 100 010/06 RMK AO2
14837KMSN MSN20090602020009506/02/09 02:00:31  5-MIN KMSN 020800Z 01006KT 10SM SCT065 08/04 A3008 720 79 100 010/06 RMK AO2
14837KMSN MSN20090602020509506/02/09 02:05:31  5-MIN KMSN 020805Z 03003KT 10SM FEW065 08/04 A3007 720 79 100 030/03 RMK AO2
14837KMSN MSN20090602021009506/02/09 02:10:31  5-MIN KMSN 020810Z 04004KT 10SM FEW065 08/04 A3008 720 79 100 040/04 RMK AO2
14837KMSN MSN20090602021509206/02/09 02:15:31  5-MIN KMSN 020815Z 02003KT 10SM CLR 08/04 A3008 720 79 100 020/03 RMK AO2
14837KMSN MSN20090602022009206/02/09 02:20:31  5-MIN KMSN 020820Z 04003KT 10SM CLR 08/04 A3008 720 79 100 040/03 RMK AO2
14837KMSN MSN20090602022509206/02/09 02:25:31  5-MIN KMSN 020825Z 05004KT 10SM CLR 08/04 A3008 720 73 100 040/04 RMK AO2
14837KMSN MSN20090602023009206/02/09 02:30:31  5-MIN KMSN 020830Z 04005KT 10SM CLR 08/04 A3008 720 73 100 040/05 RMK AO2
14837KMSN MSN20090602023509206/02/09 02:35:31  5-MIN KMSN 020835Z 04005KT 10SM CLR 08/04 A3007 730 76 100 030/05 RMK AO2
14837KMSN MSN20090602024009206/02/09 02:40:31  5-MIN KMSN 020840Z 05003KT 10SM CLR 08/04 A3007 730 79 100 040/03 RMK AO2
14837KMSN MSN20090602024509206/02/09 02:45:31  5-MIN KMSN 020845Z 05004KT 10SM CLR 08/04 A3007 730 76 100 050/04 RMK AO2
14837KMSN MSN20090602025011506/02/09 02:50:31  5-MIN KMSN 020850Z 05005KT 10SM CLR 08/04 A3007 730 76 100 040/05 RMK AO2 SLP180 T00780039 51019
14837KMSN MSN20090602025509206/02/09 02:55:31  5-MIN KMSN 020855Z 03006KT 10SM CLR 08/04 A3007 730 76 100 030/06 RMK AO2
14837KMSN MSN20090602030009206/02/09 03:00:31  5-MIN KMSN 020900Z 04006KT 10SM CLR 08/04 A3007 730 76 100 040/06 RMK AO2
14837KMSN MSN20090602030509206/02/09 03:05:31  5-MIN KMSN 020905Z 04006KT 10SM CLR 08/04 A3007 730 76 100 040/06 RMK AO2
14837KMSN MSN20090602031009206/02/09 03:10:31  5-MIN KMSN 020910Z 04006KT 10SM CLR 08/04 A3007 730 73 100 040/06 RMK AO2
14837KMSN MSN20090602031509206/02/09 03:15:31  5-MIN KMSN 020915Z 04007KT 10SM CLR 08/04 A3007 730 73 100 040/07 RMK AO2
14837KMSN MSN20090602032009206/02/09 03:20:31  5-MIN KMSN 020920Z 04005KT 10SM CLR 08/04 A3007 720 73 100 040/05 RMK AO2
14837KMSN MSN20090602032509206/02/09 03:25:31  5-MIN KMSN 020925Z 04006KT 10SM CLR 08/03 A3007 730 70 100 040/06 RMK AO2
14837KMSN MSN20090602033009206/02/09 03:30:31  5-MIN KMSN 020930Z 04006KT 10SM CLR 08/03 A3007 730 70 100 040/06 RMK AO2
14837KMSN MSN20090602033509206/02/09 03:35:31  5-MIN KMSN 020935Z 05006KT 10SM CLR 08/03 A3007 720 70 100 050/06 RMK AO2
14837KMSN MSN20090602034009206/02/09 03:40:31  5-MIN KMSN 020940Z 05007KT 10SM CLR 08/03 A3008 720 70 100 050/07 RMK AO2
14837KMSN MSN20090602034509206/02/09 03:45:31  5-MIN KMSN 020945Z 05006KT 10SM CLR 08/03 A3008 720 70 100 050/06 RMK AO2
14837KMSN MSN20090602035010906/02/09 03:50:31  5-MIN KMSN 020950Z 06006KT 10SM CLR 08/03 A3008 720 70 100 060/06 RMK AO2 SLP184 T00830033
14837KMSN MSN20090602035509206/02/09 03:55:31  5-MIN KMSN 020955Z 07005KT 10SM CLR 08/03 A3008 720 68 100 070/05 RMK AO2
14837KMSN MSN20090602040009206/02/09 04:00:31  5-MIN KMSN 021000Z 06008KT 10SM CLR 08/03 A3008 720 68 100 050/08 RMK AO2
14837KMSN MSN20090602040509206/02/09 04:05:31  5-MIN KMSN 021005Z 05005KT 10SM CLR 08/03 A3008 720 68 100 050/05 RMK AO2
14837KMSN MSN20090602041009206/02/09 04:10:31  5-MIN KMSN 021010Z 04006KT 10SM CLR 08/03 A3008 720 70 100 040/06 RMK AO2
14837KMSN MSN20090602041509206/02/09 04:15:31  5-MIN KMSN 021015Z 04006KT 10SM CLR 08/03 A3008 720 70 100 040/06 RMK AO2
14837KMSN MSN20090602042009206/02/09 04:20:31  5-MIN KMSN 021020Z 04006KT 10SM CLR 08/03 A3008 720 68 100 040/06 RMK AO2
14837KMSN MSN20090602042509206/02/09 04:25:31  5-MIN KMSN 021025Z 05007KT 10SM CLR 08/03 A3008 720 70 100 050/07 RMK AO2
14837KMSN MSN20090602043009206/02/09 04:30:31  5-MIN KMSN 021030Z 05006KT 10SM CLR 08/03 A3008 720 70 100 050/06 RMK AO2
14837KMSN MSN20090602043509206/02/09 04:35:31  5-MIN KMSN 021035Z 05007KT 10SM CLR 08/03 A3008 710 70 100 050/07 RMK AO2
14837KMSN MSN20090602044009206/02/09 04:40:31  5-MIN KMSN 021040Z 05003KT 10SM CLR 08/03 A3008 710 70 100 050/03 RMK AO2
14837KMSN MSN20090602044509206/02/09 04:45:31  5-MIN KMSN 021045Z 06004KT 10SM CLR 08/03 A3008 710 70 100 060/04 RMK AO2
14837KMSN MSN20090602045010906/02/09 04:50:31  5-MIN KMSN 021050Z 05004KT 10SM CLR 08/03 A3009 710 70 100 050/04 RMK AO2 SLP188 T00780028
14837KMSN MSN20090602045509006/02/09 04:55:31  5-MIN KMSN 021055Z 05003KT 10SM CLR 08/03 A3009 710 73 0 050/03 RMK AO2
14837KMSN MSN20090602050009206/02/09 05:00:31  5-MIN KMSN 021100Z 05004KT 10SM CLR 08/03 A3009 710 73 100 050/04 RMK AO2
14837KMSN MSN20090602050509006/02/09 05:05:31  5-MIN KMSN 021105Z 05003KT 10SM CLR 08/03 A3009 710 73 0 050/03 RMK AO2
14837KMSN MSN20090602051009006/02/09 05:10:31  5-MIN KMSN 021110Z 00000KT 10SM CLR 08/03 A3009 710 73 0 000/00 RMK AO2
14837KMSN MSN20090602051509006/02/09 05:15:31  5-MIN KMSN 021115Z 07006KT 10SM CLR 08/03 A3009 700 73 0 070/06 RMK AO2
14837KMSN MSN20090602052009006/02/09 05:20:31  5-MIN KMSN 021120Z 07005KT 10SM CLR 08/03 A3010 700 70 0 070/05 RMK AO2
14837KMSN MSN20090602052509206/02/09 05:25:31  5-MIN KMSN 021125Z 07005KT 10SM CLR 08/03 A3010 700 68 100 070/05 RMK AO2
14837KMSN MSN20090602053009006/02/09 05:30:31  5-MIN KMSN 021130Z 09005KT 10SM CLR 08/03 A3010 700 70 0 090/05 RMK AO2
14837KMSN MSN20090602053509006/02/09 05:35:31  5-MIN KMSN 021135Z 08007KT 10SM CLR 08/03 A3011 690 70 0 080/07 RMK AO2
14837KMSN MSN20090602054009006/02/09 05:40:31  5-MIN KMSN 021140Z 09005KT 10SM CLR 08/03 A3011 690 70 0 090/05 RMK AO2
14837KMSN MSN20090602054509006/02/09 05:45:31  5-MIN KMSN 021145Z 09007KT 10SM CLR 08/03 A3011 690 70 0 090/07 RMK AO2
14837KMSN MSN20090602055012506/02/09 05:50:31  5-MIN KMSN 021150Z 08007KT 10SM CLR 08/03 A3012 680 70 0 080/07 RMK AO2 SLP199 T00780028 10089 20078 56012
14837KMSN MSN20090602055509006/02/09 05:55:31  5-MIN KMSN 021155Z 07006KT 10SM CLR 08/03 A3012 680 73 0 070/06 RMK AO2
14837KMSN MSN20090602060009206/02/09 06:00:31  5-MIN KMSN 021200Z 07005KT 10SM CLR 08/03 A3012 680 70 100 070/05 RMK AO2
14837KMSN MSN20090602060509206/02/09 06:05:31  5-MIN KMSN 021205Z 07005KT 10SM CLR 08/03 A3013 670 70 100 070/05 RMK AO2
14837KMSN MSN20090602061009206/02/09 06:10:31  5-MIN KMSN 021210Z 08003KT 10SM CLR 08/03 A3013 670 70 100 080/03 RMK AO2
14837KMSN MSN20090602061509206/02/09 06:15:31  5-MIN KMSN 021215Z 11006KT 10SM CLR 08/04 A3013 670 73 100 110/06 RMK AO2
14837KMSN MSN20090602062009206/02/09 06:20:31  5-MIN KMSN 021220Z 09007KT 10SM CLR 08/03 A3013 680 70 100 090/07 RMK AO2
14837KMSN MSN20090602062509206/02/09 06:25:31  5-MIN KMSN 021225Z 08006KT 10SM CLR 08/03 A3012 680 70 100 080/06 RMK AO2
14837KMSN MSN20090602063009206/02/09 06:30:31  5-MIN KMSN 021230Z 07005KT 10SM CLR 08/03 A3012 680 70 100 070/05 RMK AO2
14837KMSN MSN20090602063509206/02/09 06:35:31  5-MIN KMSN 021235Z 08005KT 10SM CLR 09/04 A3012 680 71 100 080/05 RMK AO2
14837KMSN MSN20090602064009206/02/09 06:40:31  5-MIN KMSN 021240Z 10005KT 10SM CLR 09/04 A3012 680 68 200 100/05 RMK AO2
14837KMSN MSN20090602064509206/02/09 06:45:31  5-MIN KMSN 021245Z VRB05KT 10SM CLR 09/04 A3013 670 68 200 VRB/05 RMK AO2
14837KMSN MSN20090602065010906/02/09 06:50:31  5-MIN KMSN 021250Z 08004KT 10SM CLR 09/04 A3014 670 68 200 080/04 RMK AO2 SLP206 T00940039
14837KMSN MSN20090602065509206/02/09 06:55:31  5-MIN KMSN 021255Z 11007KT 10SM CLR 09/03 A3014 660 68 100 110/07 RMK AO2
14837KMSN MSN20090602070009206/02/09 07:00:31  5-MIN KMSN 021300Z 11006KT 10SM CLR 09/03 A3014 670 68 100 110/06 RMK AO2
14837KMSN MSN20090602070509206/02/09 07:05:31  5-MIN KMSN 021305Z 11006KT 10SM CLR 09/03 A3014 660 68 100 110/06 RMK AO2
14837KMSN MSN20090602071009206/02/09 07:10:31  5-MIN KMSN 021310Z 10006KT 10SM CLR 09/03 A3014 660 65 200 100/06 RMK AO2
14837KMSN MSN20090602071509206/02/09 07:15:31  5-MIN KMSN 021315Z 09005KT 10SM CLR 09/03 A3014 660 65 200 090/05 RMK AO2
14837KMSN MSN20090602072009206/02/09 07:20:31  5-MIN KMSN 021320Z 10005KT 10SM CLR 09/03 A3013 670 65 200 100/05 RMK AO2
14837KMSN MSN20090602072509206/02/09 07:25:31  5-MIN KMSN 021325Z 11004KT 10SM CLR 09/04 A3013 670 68 200 100/04 RMK AO2
14837KMSN MSN20090602073009206/02/09 07:30:31  5-MIN KMSN 021330Z 10005KT 10SM CLR 10/04 A3014 670 65 300 090/05 RMK AO2
14837KMSN MSN20090602073509206/02/09 07:35:31  5-MIN KMSN 021335Z 10004KT 10SM CLR 10/04 A3014 660 65 300 100/04 RMK AO2
14837KMSN MSN20090602074009206/02/09 07:40:31  5-MIN KMSN 021340Z 09004KT 10SM CLR 10/04 A3014 660 65 300 090/04 RMK AO2
14837KMSN MSN20090602074509206/02/09 07:45:31  5-MIN KMSN 021345Z 11003KT 10SM CLR 09/04 A3014 660 68 200 110/03 RMK AO2
14837KMSN MSN20090602075010906/02/09 07:50:31  5-MIN KMSN 021350Z 15003KT 10SM CLR 10/04 A3014 660 65 300 150/03 RMK AO2 SLP209 T01000039
14837KMSN MSN20090602075509506/02/09 07:55:31  5-MIN KMSN 021355Z 12004KT 10SM FEW120 10/04 A3014 660 68 300 120/04 RMK AO2
14837KMSN MSN20090602080009506/02/09 08:00:31  5-MIN KMSN 021400Z 14004KT 10SM FEW120 10/04 A3014 660 68 300 140/04 RMK AO2
14837KMSN MSN20090602080509506/02/09 08:05:31  5-MIN KMSN 021405Z 13005KT 10SM FEW120 10/04 A3014 660 65 300 130/05 RMK AO2
14837KMSN MSN20090602081009506/02/09 08:10:31  5-MIN KMSN 021410Z 11004KT 10SM FEW120 10/04 A3014 660 65 300 110/04 RMK AO2
14837KMSN MSN20090602081509506/02/09 08:15:31  5-MIN KMSN 021415Z 11004KT 10SM FEW120 10/04 A3014 660 65 300 110/04 RMK AO2
14837KMSN MSN20090602082009506/02/09 08:20:31  5-MIN KMSN 021420Z 11005KT 10SM FEW120 10/04 A3014 660 68 300 110/05 RMK AO2
14837KMSN MSN20090602082509506/02/09 08:25:31  5-MIN KMSN 021425Z 10003KT 10SM FEW120 10/04 A3014 660 68 300 100/03 RMK AO2
14837KMSN MSN20090602083009506/02/09 08:30:31  5-MIN KMSN 021430Z 10005KT 10SM FEW120 11/04 A3013 670 66 300 100/05 RMK AO2
14837KMSN MSN20090602083509506/02/09 08:35:31  5-MIN KMSN 021435Z 10004KT 10SM FEW110 10/04 A3013 670 65 300 100/04 RMK AO2
14837KMSN MSN20090602084009506/02/09 08:40:31  5-MIN KMSN 021440Z 11003KT 10SM FEW110 11/04 A3014 660 66 300 100/03 RMK AO2
14837KMSN MSN20090602084509506/02/09 08:45:31  5-MIN KMSN 021445Z 11004KT 10SM FEW110 10/04 A3013 670 68 300 110/04 RMK AO2
14837KMSN MSN20090602085011806/02/09 08:50:31  5-MIN KMSN 021450Z 10004KT 10SM FEW110 11/04 A3014 670 66 300 100/04 RMK AO2 SLP207 T01060044 53018
14837KMSN MSN20090602085509506/02/09 08:55:31  5-MIN KMSN 021455Z 07003KT 10SM FEW095 11/04 A3013 670 66 300 070/03 RMK AO2
14837KMSN MSN20090602090009506/02/09 09:00:31  5-MIN KMSN 021500Z 00000KT 10SM FEW095 11/04 A3013 670 66 300 000/00 RMK AO2
14837KMSN MSN20090602090509506/02/09 09:05:31  5-MIN KMSN 021505Z 06003KT 10SM FEW100 11/05 A3013 670 66 400 060/03 RMK AO2
14837KMSN MSN20090602091009506/02/09 09:10:31  5-MIN KMSN 021510Z 07004KT 10SM FEW100 11/04 A3013 670 66 300 060/04 RMK AO2
14837KMSN MSN20090602091509506/02/09 09:15:31  5-MIN KMSN 021515Z 07003KT 10SM FEW095 11/04 A3013 670 66 300 070/03 RMK AO2
14837KMSN MSN20090602092009506/02/09 09:20:31  5-MIN KMSN 021520Z 10003KT 10SM FEW090 11/04 A3014 670 66 300 100/03 RMK AO2
14837KMSN MSN20090602092509206/02/09 09:25:31  5-MIN KMSN 021525Z 00000KT 10SM CLR 11/04 A3014 660 66 300 000/00 RMK AO2
14837KMSN MSN20090602093009206/02/09 09:30:31  5-MIN KMSN 021530Z 00000KT 10SM CLR 11/05 A3014 660 68 300 000/00 RMK AO2
14837KMSN MSN20090602093509206/02/09 09:35:31  5-MIN KMSN 021535Z 00000KT 10SM CLR 11/04 A3014 660 66 300 000/00 RMK AO2
14837KMSN MSN20090602094009206/02/09 09:40:31  5-MIN KMSN 021540Z 10003KT 10SM CLR 11/04 A3014 660 63 400 100/03 RMK AO2
14837KMSN MSN20090602094509206/02/09 09:45:31  5-MIN KMSN 021545Z 00000KT 10SM CLR 11/05 A3015 660 66 400 000/00 RMK AO2
14837KMSN MSN20090602095011206/02/09 09:50:31  5-MIN KMSN 021550Z 00000KT 10SM FEW070 11/05 A3014 660 66 400 000/00 RMK AO2 SLP210 T01110050
14837KMSN MSN20090602095511206/02/09 09:55:31  5-MIN KMSN 021555Z 00000KT 10SM -RA SCT070 BKN120 11/05 A3014 660 66 400 000/00 RMK AO2 P0000
14837KMSN MSN20090602100011206/02/09 10:00:31  5-MIN KMSN 021600Z 00000KT 10SM -RA SCT070 BKN120 11/05 A3014 660 66 400 000/00 RMK AO2 P0000
14837KMSN MSN20090602100511206/02/09 10:05:31  5-MIN KMSN 021605Z 00000KT 10SM -RA SCT070 BKN120 11/05 A3014 660 66 400 000/00 RMK AO2 P0000
14837KMSN MSN20090602101011206/02/09 10:10:31  5-MIN KMSN 021610Z 00000KT 10SM -RA SCT070 BKN120 12/05 A3014 660 63 500 000/00 RMK AO2 P0000
14837KMSN MSN20090602101510506/02/09 10:15:31  5-MIN KMSN 021615Z VRB03KT 10SM -RA SCT070 12/06 A3013 670 63 500 VRB/03 RMK AO2 P0000
14837KMSN MSN20090602102010506/02/09 10:20:31  5-MIN KMSN 021620Z 06003KT 10SM -RA SCT070 12/06 A3013 670 66 500 060/03 RMK AO2 P0000
14837KMSN MSN20090602102510506/02/09 10:25:31  5-MIN KMSN 021625Z 04003KT 10SM -RA SCT070 12/06 A3013 670 66 500 030/03 RMK AO2 P0000
14837KMSN MSN20090602103010506/02/09 10:30:31  5-MIN KMSN 021630Z 06004KT 10SM -RA SCT070 12/06 A3014 670 66 500 060/04 RMK AO2 P0000
14837KMSN MSN20090602103510706/02/09 10:35:31  5-MIN KMSN 021635Z 00000KT 10SM SCT100 12/06 A3013 670 66 500 000/00 RMK AO2 RAE31 P0000
14837KMSN MSN20090602104010706/02/09 10:40:31  5-MIN KMSN 021640Z 02003KT 10SM SCT100 12/06 A3014 660 66 500 020/03 RMK AO2 RAE31 P0000
14837KMSN MSN20090602104510706/02/09 10:45:31  5-MIN KMSN 021645Z 07003KT 10SM SCT100 12/06 A3014 660 63 500 070/03 RMK AO2 RAE31 P0000
14837KMSN MSN20090602105012406/02/09 10:50:31  5-MIN KMSN 021650Z 00000KT 10SM SCT100 12/06 A3014 660 63 500 000/00 RMK AO2 RAE31 SLP210 P0000 T01220056
14837KMSN MSN20090602105511206/02/09 10:55:31  5-MIN KMSN 021655Z 00000KT 10SM -RA FEW090 SCT120 12/06 A3015 660 66 500 000/00 RMK AO2 P0000
14837KMSN MSN20090602110011206/02/09 11:00:31  5-MIN KMSN 021700Z 00000KT 10SM -RA FEW090 SCT120 12/06 A3015 660 63 500 000/00 RMK AO2 P0000
14837KMSN MSN20090602110511206/02/09 11:05:31  5-MIN KMSN 021705Z 00000KT 10SM -RA FEW090 SCT120 12/06 A3015 660 63 500 000/00 RMK AO2 P0000
14837KMSN MSN20090602111010506/02/09 11:10:31  5-MIN KMSN 021710Z 00000KT 10SM -RA SCT120 12/06 A3015 660 63 500 000/00 RMK AO2 P0000
14837KMSN MSN20090602111510506/02/09 11:15:31  5-MIN KMSN 021715Z 13003KT 10SM -RA SCT120 12/06 A3015 660 63 500 120/03 RMK AO2 P0000
14837KMSN MSN20090602112010706/02/09 11:20:31  5-MIN KMSN 021720Z 00000KT 10SM SCT120 12/06 A3015 660 63 500 000/00 RMK AO2 RAE18 P0000
14837KMSN MSN20090602112510706/02/09 11:25:31  5-MIN KMSN 021725Z 00000KT 10SM SCT120 12/06 A3015 660 63 500 000/00 RMK AO2 RAE18 P0000
14837KMSN MSN20090602113010706/02/09 11:30:31  5-MIN KMSN 021730Z 00000KT 10SM SCT120 12/06 A3015 650 63 500 000/00 RMK AO2 RAE18 P0000
14837KMSN MSN20090602113510706/02/09 11:35:31  5-MIN KMSN 021735Z 15003KT 10SM SCT120 12/06 A3014 660 66 500 150/03 RMK AO2 RAE18 P0000
14837KMSN MSN20090602114010706/02/09 11:40:31  5-MIN KMSN 021740Z 00000KT 10SM SCT120 13/06 A3014 660 61 600 000/00 RMK AO2 RAE18 P0000
14837KMSN MSN20090602114510706/02/09 11:45:31  5-MIN KMSN 021745Z 00000KT 10SM SCT120 13/06 A3015 660 63 600 000/00 RMK AO2 RAE18 P0000
14837KMSN MSN20090602115014806/02/09 11:50:31  5-MIN KMSN 021750Z 11003KT 10SM SCT120 13/06 A3015 660 63 600 110/03 RMK AO2 RAE18 SLP212 P0000 60000 T01280061 10128 20078 50005
14837KMSN MSN20090602115509506/02/09 11:55:31  5-MIN KMSN 021755Z 00000KT 10SM SCT120 13/06 A3015 660 61 600 000/00 RMK AO2
14837KMSN MSN20090602120009506/02/09 12:00:31  5-MIN KMSN 021800Z 00000KT 10SM SCT120 13/06 A3015 660 61 600 000/00 RMK AO2
14837KMSN MSN20090602120509506/02/09 12:05:31  5-MIN KMSN 021805Z 00000KT 10SM SCT120 13/06 A3015 660 61 700 000/00 RMK AO2
14837KMSN MSN20090602121009506/02/09 12:10:31  5-MIN KMSN 021810Z 00000KT 10SM SCT120 13/07 A3014 660 64 700 000/00 RMK AO2
14837KMSN MSN20090602121509506/02/09 12:15:31  5-MIN KMSN 021815Z 00000KT 10SM SCT120 13/06 A3014 660 61 700 000/00 RMK AO2
14837KMSN MSN20090602122009506/02/09 12:20:31  5-MIN KMSN 021820Z 00000KT 10SM SCT120 13/06 A3014 660 61 700 000/00 RMK AO2
14837KMSN MSN20090602122509506/02/09 12:25:31  5-MIN KMSN 021825Z 00000KT 10SM SCT120 13/07 A3014 660 64 700 000/00 RMK AO2
14837KMSN MSN20090602123009506/02/09 12:30:31  5-MIN KMSN 021830Z 00000KT 10SM SCT120 13/06 A3014 660 61 700 000/00 RMK AO2
14837KMSN MSN20090602123509506/02/09 12:35:31  5-MIN KMSN 021835Z 11003KT 10SM SCT120 13/06 A3014 670 61 700 110/03 RMK AO2
14837KMSN MSN20090602124009506/02/09 12:40:31  5-MIN KMSN 021840Z 00000KT 10SM SCT120 13/06 A3013 670 61 700 000/00 RMK AO2
14837KMSN MSN20090602124509506/02/09 12:45:31  5-MIN KMSN 021845Z 00000KT 10SM SCT120 13/06 A3013 670 61 700 000/00 RMK AO2
14837KMSN MSN20090602125012806/02/09 12:50:31  5-MIN KMSN 021850Z 00000KT 10SM -RA SCT120 13/06 A3014 670 61 700 000/00 RMK AO2 RAB48 SLP208 P0000 T01330061
14837KMSN MSN20090602125510506/02/09 12:55:31  5-MIN KMSN 021855Z 00000KT 10SM -RA BKN120 13/06 A3013 670 61 700 000/00 RMK AO2 P0000
14837KMSN MSN20090602130010506/02/09 13:00:31  5-MIN KMSN 021900Z 00000KT 10SM -RA BKN120 13/07 A3013 670 64 700 000/00 RMK AO2 P0000
14837KMSN MSN20090602130510506/02/09 13:05:31  5-MIN KMSN 021905Z 00000KT 10SM -RA BKN120 14/07 A3013 670 61 700 000/00 RMK AO2 P0000
14837KMSN MSN20090602131010506/02/09 13:10:31  5-MIN KMSN 021910Z 00000KT 10SM -RA BKN120 14/06 A3013 670 59 700 000/00 RMK AO2 P0000
14837KMSN MSN20090602131510706/02/09 13:15:31  5-MIN KMSN 021915Z 00000KT 10SM SCT120 14/06 A3013 670 59 700 000/00 RMK AO2 RAE11 P0000
14837KMSN MSN20090602132010706/02/09 13:20:31  5-MIN KMSN 021920Z 00000KT 10SM SCT120 14/06 A3013 670 59 700 000/00 RMK AO2 RAE11 P0000
14837KMSN MSN20090602132510706/02/09 13:25:31  5-MIN KMSN 021925Z 00000KT 10SM SCT120 14/07 A3013 670 59 800 000/00 RMK AO2 RAE11 P0000
14837KMSN MSN20090602133010706/02/09 13:30:31  5-MIN KMSN 021930Z VRB03KT 10SM SCT120 14/07 A3012 680 59 800 VRB/03 RMK AO2 RAE11 P0000
14837KMSN MSN20090602133510706/02/09 13:35:31  5-MIN KMSN 021935Z 00000KT 10SM SCT120 14/06 A3012 680 55 800 000/00 RMK AO2 RAE11 P0000
14837KMSN MSN20090602134010706/02/09 13:40:31  5-MIN KMSN 021940Z 00000KT 10SM SCT120 14/06 A3012 680 57 800 000/00 RMK AO2 RAE11 P0000
14837KMSN MSN20090602134510706/02/09 13:45:31  5-MIN KMSN 021945Z 00000KT 10SM SCT120 14/07 A3012 680 59 800 000/00 RMK AO2 RAE11 P0000
14837KMSN MSN20090602135012406/02/09 13:50:31  5-MIN KMSN 021950Z 00000KT 10SM SCT120 14/07 A3011 690 61 800 000/00 RMK AO2 RAE11 SLP200 P0000 T01440072
14837KMSN MSN20090602135509506/02/09 13:55:31  5-MIN KMSN 021955Z 00000KT 10SM FEW120 15/07 A3011 690 59 900 000/00 RMK AO2
14837KMSN MSN20090602140009506/02/09 14:00:31  5-MIN KMSN 022000Z 00000KT 10SM FEW120 15/07 A3011 690 59 900 000/00 RMK AO2
14837KMSN MSN20090602140509606/02/09 14:05:31  5-MIN KMSN 022005Z 00000KT 10SM FEW120 16/07 A3011 690 57 1000 000/00 RMK AO2
14837KMSN MSN20090602141009506/02/09 14:10:31  5-MIN KMSN 022010Z 00000KT 10SM FEW120 15/07 A3011 690 59 900 000/00 RMK AO2
14837KMSN MSN20090602141509606/02/09 14:15:31  5-MIN KMSN 022015Z 00000KT 10SM FEW120 16/07 A3011 690 57 1000 000/00 RMK AO2
14837KMSN MSN20090602142009606/02/09 14:20:31  5-MIN KMSN 022020Z 00000KT 10SM FEW120 16/07 A3011 690 53 1000 000/00 RMK AO2
14837KMSN MSN20090602142509606/02/09 14:25:31  5-MIN KMSN 022025Z 00000KT 10SM FEW120 16/07 A3011 690 55 1000 000/00 RMK AO2
14837KMSN MSN20090602143009606/02/09 14:30:31  5-MIN KMSN 022030Z 00000KT 10SM FEW120 16/07 A3011 690 55 1000 000/00 RMK AO2
14837KMSN MSN20090602143509606/02/09 14:35:31  5-MIN KMSN 022035Z 00000KT 10SM FEW120 16/07 A3011 690 55 1000 000/00 RMK AO2
14837KMSN MSN20090602144009606/02/09 14:40:31  5-MIN KMSN 022040Z 00000KT 10SM FEW120 17/08 A3010 700 55 1100 000/00 RMK AO2
14837KMSN MSN20090602144509606/02/09 14:45:31  5-MIN KMSN 022045Z 00000KT 10SM FEW120 17/09 A3010 700 57 1200 000/00 RMK AO2
14837KMSN MSN20090602145012206/02/09 14:50:31  5-MIN KMSN 022050Z 00000KT 10SM CLR 17/09 A3010 700 57 1200 000/00 RMK AO2 SLP194 60000 T01720089 51004
14837KMSN MSN20090602145509306/02/09 14:55:31  5-MIN KMSN 022055Z 00000KT 10SM CLR 17/08 A3010 700 55 1200 000/00 RMK AO2
14837KMSN MSN20090602150009306/02/09 15:00:31  5-MIN KMSN 022100Z 00000KT 10SM CLR 18/09 A3010 700 58 1200 000/00 RMK AO2
14837KMSN MSN20090602150509306/02/09 15:05:31  5-MIN KMSN 022105Z 28003KT 10SM CLR 17/08 A3010 700 55 1200 280/03 RMK AO2
14837KMSN MSN20090602151009306/02/09 15:10:31  5-MIN KMSN 022110Z 00000KT 10SM CLR 17/08 A3009 700 55 1200 000/00 RMK AO2
14837KMSN MSN20090602151509306/02/09 15:15:31  5-MIN KMSN 022115Z 00000KT 10SM CLR 17/08 A3009 700 55 1200 000/00 RMK AO2
14837KMSN MSN20090602152009306/02/09 15:20:31  5-MIN KMSN 022120Z 00000KT 10SM CLR 18/08 A3009 710 51 1200 000/00 RMK AO2
14837KMSN MSN20090602152509306/02/09 15:25:31  5-MIN KMSN 022125Z 00000KT 10SM CLR 18/08 A3009 710 53 1200 000/00 RMK AO2
14837KMSN MSN20090602153009306/02/09 15:30:31  5-MIN KMSN 022130Z 00000KT 10SM CLR 18/08 A3009 710 53 1200 000/00 RMK AO2
14837KMSN MSN20090602153509306/02/09 15:35:31  5-MIN KMSN 022135Z 00000KT 10SM CLR 18/08 A3009 710 52 1300 000/00 RMK AO2
14837KMSN MSN20090602154009306/02/09 15:40:31  5-MIN KMSN 022140Z 00000KT 10SM CLR 18/08 A3009 710 50 1300 000/00 RMK AO2
14837KMSN MSN20090602154509306/02/09 15:45:31  5-MIN KMSN 022145Z 00000KT 10SM CLR 18/07 A3008 710 48 1300 000/00 RMK AO2
14837KMSN MSN20090602155011006/02/09 15:50:31  5-MIN KMSN 022150Z 00000KT 10SM CLR 18/08 A3009 710 50 1300 000/00 RMK AO2 SLP189 T01830078
14837KMSN MSN20090602155509306/02/09 15:55:31  5-MIN KMSN 022155Z 00000KT 10SM CLR 18/07 A3008 710 48 1300 000/00 RMK AO2
14837KMSN MSN20090602160009306/02/09 16:00:31  5-MIN KMSN 022200Z 00000KT 10SM CLR 19/08 A3008 710 50 1400 000/00 RMK AO2
14837KMSN MSN20090602160509306/02/09 16:05:31  5-MIN KMSN 022205Z 00000KT 10SM CLR 18/07 A3008 710 46 1300 000/00 RMK AO2
14837KMSN MSN20090602161009306/02/09 16:10:31  5-MIN KMSN 022210Z 00000KT 10SM CLR 18/08 A3008 710 50 1300 000/00 RMK AO2
14837KMSN MSN20090602161509306/02/09 16:15:31  5-MIN KMSN 022215Z VRB03KT 10SM CLR 18/08 A3008 710 50 1300 VRB/03 RMK AO2
14837KMSN MSN20090602162009306/02/09 16:20:31  5-MIN KMSN 022220Z 15004KT 10SM CLR 18/07 A3008 720 48 1300 150/04 RMK AO2
14837KMSN MSN20090602162509306/02/09 16:25:31  5-MIN KMSN 022225Z 00000KT 10SM CLR 18/07 A3008 720 48 1300 000/00 RMK AO2
14837KMSN MSN20090602163009306/02/09 16:30:31  5-MIN KMSN 022230Z 20004KT 10SM CLR 18/07 A3008 720 48 1300 200/04 RMK AO2
14837KMSN MSN20090602163509306/02/09 16:35:31  5-MIN KMSN 022235Z 20003KT 10SM CLR 18/07 A3008 720 48 1300 200/03 RMK AO2
14837KMSN MSN20090602164009306/02/09 16:40:31  5-MIN KMSN 022240Z 22003KT 10SM CLR 18/07 A3008 720 46 1300 220/03 RMK AO2
14837KMSN MSN20090602164509306/02/09 16:45:31  5-MIN KMSN 022245Z VRB03KT 10SM CLR 18/07 A3008 720 48 1300 VRB/03 RMK AO2
14837KMSN MSN20090602165011006/02/09 16:50:31  5-MIN KMSN 022250Z 00000KT 10SM CLR 18/07 A3008 720 48 1300 000/00 RMK AO2 SLP186 T01830072
14837KMSN MSN20090602165509306/02/09 16:55:31  5-MIN KMSN 022255Z 00000KT 10SM CLR 18/07 A3008 720 48 1300 000/00 RMK AO2
14837KMSN MSN20090602170009306/02/09 17:00:31  5-MIN KMSN 022300Z 00000KT 10SM CLR 18/07 A3008 720 46 1300 000/00 RMK AO2
14837KMSN MSN20090602170509206/02/09 17:05:31  5-MIN KMSN 022305Z 00000KT 7SM CLR 18/06 A3008 720 44 1300 000/00 RMK AO2
14837KMSN MSN20090602171009206/02/09 17:10:31  5-MIN KMSN 022310Z 00000KT 7SM CLR 18/07 A3008 720 46 1300 000/00 RMK AO2
14837KMSN MSN20090602171509306/02/09 17:15:31  5-MIN KMSN 022315Z 00000KT 10SM CLR 18/06 A3008 720 44 1300 000/00 RMK AO2
14837KMSN MSN20090602172009306/02/09 17:20:31  5-MIN KMSN 022320Z 00000KT 10SM CLR 18/07 A3008 720 46 1300 000/00 RMK AO2
14837KMSN MSN20090602172509306/02/09 17:25:31  5-MIN KMSN 022325Z 00000KT 10SM CLR 18/06 A3008 720 44 1300 000/00 RMK AO2
14837KMSN MSN20090602173009206/02/09 17:30:31  5-MIN KMSN 022330Z 00000KT 8SM CLR 18/06 A3008 720 44 1300 000/00 RMK AO2
14837KMSN MSN20090602173509506/02/09 17:35:31  5-MIN KMSN 022335Z 00000KT 4SM HZ CLR 18/06 A3008 720 44 1300 000/00 RMK AO2
14837KMSN MSN20090602174009506/02/09 17:40:31  5-MIN KMSN 022340Z 00000KT 5SM HZ CLR 19/07 A3008 720 44 1400 000/00 RMK AO2
14837KMSN MSN20090602174509206/02/09 17:45:31  5-MIN KMSN 022345Z 00000KT 7SM CLR 19/08 A3008 720 48 1400 000/00 RMK AO2
14837KMSN MSN20090602175013306/02/09 17:50:31  5-MIN KMSN 022350Z 00000KT 7SM CLR 18/08 A3008 720 50 1300 000/00 RMK AO2 SLP186 60000 T01830078 10189 20128 57016
14837KMSN MSN20090602175509306/02/09 17:55:31  5-MIN KMSN 022355Z 00000KT 10SM CLR 18/07 A3008 720 46 1300 000/00 RMK AO2
14837KMSN MSN20090602180009306/02/09 18:00:31  5-MIN KMSN 030000Z 00000KT 10SM CLR 18/07 A3008 720 46 1300 000/00 RMK AO2
14837KMSN MSN20090602180509306/02/09 18:05:31  5-MIN KMSN 030005Z 00000KT 10SM CLR 18/07 A3008 720 48 1300 000/00 RMK AO2
14837KMSN MSN20090602181009306/02/09 18:10:31  5-MIN KMSN 030010Z 17004KT 10SM CLR 18/07 A3008 720 46 1300 170/04 RMK AO2
14837KMSN MSN20090602181509306/02/09 18:15:31  5-MIN KMSN 030015Z 19004KT 10SM CLR 18/07 A3008 720 46 1300 190/04 RMK AO2
14837KMSN MSN20090602182009306/02/09 18:20:31  5-MIN KMSN 030020Z 00000KT 10SM CLR 18/07 A3008 720 46 1300 000/00 RMK AO2
14837KMSN MSN20090602182509306/02/09 18:25:31  5-MIN KMSN 030025Z 00000KT 10SM CLR 18/07 A3008 720 48 1300 000/00 RMK AO2
14837KMSN MSN20090602183009306/02/09 18:30:31  5-MIN KMSN 030030Z 23003KT 10SM CLR 18/07 A3008 720 46 1300 230/03 RMK AO2
14837KMSN MSN20090602183509306/02/09 18:35:31  5-MIN KMSN 030035Z 24003KT 10SM CLR 18/06 A3008 720 44 1300 240/03 RMK AO2
14837KMSN MSN20090602184009306/02/09 18:40:31  5-MIN KMSN 030040Z 00000KT 10SM CLR 18/07 A3008 720 48 1300 000/00 RMK AO2
14837KMSN MSN20090602184509306/02/09 18:45:31  5-MIN KMSN 030045Z 00000KT 10SM CLR 18/07 A3008 720 48 1300 000/00 RMK AO2
14837KMSN MSN20090602185011006/02/09 18:50:31  5-MIN KMSN 030050Z 00000KT 10SM CLR 17/08 A3008 720 53 1200 000/00 RMK AO2 SLP186 T01720078
14837KMSN MSN20090602185509306/02/09 18:55:31  5-MIN KMSN 030055Z 00000KT 10SM CLR 17/08 A3008 720 55 1200 000/00 RMK AO2
14837KMSN MSN20090602190009306/02/09 19:00:31  5-MIN KMSN 030100Z 00000KT 10SM CLR 17/08 A3008 720 57 1100 000/00 RMK AO2
14837KMSN MSN20090602190509306/02/09 19:05:31  5-MIN KMSN 030105Z 00000KT 10SM CLR 16/09 A3008 720 62 1100 000/00 RMK AO2
14837KMSN MSN20090602191009306/02/09 19:10:31  5-MIN KMSN 030110Z 00000KT 10SM CLR 16/09 A3008 720 64 1000 000/00 RMK AO2
14837KMSN MSN20090602191509306/02/09 19:15:31  5-MIN KMSN 030115Z 00000KT 10SM CLR 17/08 A3008 720 57 1100 000/00 RMK AO2
14837KMSN MSN20090602192009306/02/09 19:20:31  5-MIN KMSN 030120Z 00000KT 10SM CLR 17/08 A3008 720 55 1100 000/00 RMK AO2
14837KMSN MSN20090602192509306/02/09 19:25:31  5-MIN KMSN 030125Z 00000KT 10SM CLR 16/08 A3008 720 57 1100 000/00 RMK AO2
14837KMSN MSN20090602193009306/02/09 19:30:31  5-MIN KMSN 030130Z 00000KT 10SM CLR 16/09 A3008 720 64 1000 000/00 RMK AO2
14837KMSN MSN20090602193509306/02/09 19:35:31  5-MIN KMSN 030135Z 19003KT 10SM CLR 16/08 A3008 720 62 1000 190/03 RMK AO2
14837KMSN MSN20090602194009306/02/09 19:40:31  5-MIN KMSN 030140Z 00000KT 10SM CLR 17/08 A3008 720 55 1100 000/00 RMK AO2
14837KMSN MSN20090602194509306/02/09 19:45:31  5-MIN KMSN 030145Z 00000KT 10SM CLR 16/08 A3008 720 57 1100 000/00 RMK AO2
14837KMSN MSN20090602195011006/02/09 19:50:31  5-MIN KMSN 030150Z 00000KT 10SM CLR 17/08 A3008 710 55 1100 000/00 RMK AO2 SLP188 T01670078
14837KMSN MSN20090602195509206/02/09 19:55:31  5-MIN KMSN 030155Z 00000KT 7SM CLR 16/08 A3009 710 57 1000 000/00 RMK AO2
14837KMSN MSN20090602200009206/02/09 20:00:31  5-MIN KMSN 030200Z 00000KT 8SM CLR 16/08 A3009 710 59 1000 000/00 RMK AO2
14837KMSN MSN20090602200509206/02/09 20:05:31  5-MIN KMSN 030205Z 00000KT 9SM CLR 16/08 A3009 710 62 1000 000/00 RMK AO2
14837KMSN MSN20090602201009206/02/09 20:10:31  5-MIN KMSN 030210Z 00000KT 10SM CLR 14/08 A3009 710 66 800 000/00 RMK AO2
14837KMSN MSN20090602201509206/02/09 20:15:31  5-MIN KMSN 030215Z 00000KT 10SM CLR 15/08 A3009 710 64 900 000/00 RMK AO2
14837KMSN MSN20090602202009206/02/09 20:20:31  5-MIN KMSN 030220Z 00000KT 10SM CLR 14/08 A3009 710 66 800 000/00 RMK AO2
14837KMSN MSN20090602202509206/02/09 20:25:31  5-MIN KMSN 030225Z 00000KT 10SM CLR 14/08 A3009 700 66 800 000/00 RMK AO2
14837KMSN MSN20090602203009206/02/09 20:30:31  5-MIN KMSN 030230Z 00000KT 10SM CLR 14/08 A3010 700 69 800 000/00 RMK AO2
14837KMSN MSN20090602203509206/02/09 20:35:31  5-MIN KMSN 030235Z 00000KT 10SM CLR 14/08 A3010 700 69 800 000/00 RMK AO2
14837KMSN MSN20090602204009206/02/09 20:40:31  5-MIN KMSN 030240Z 00000KT 10SM CLR 13/09 A3010 700 74 700 000/00 RMK AO2
14837KMSN MSN20090602204509206/02/09 20:45:31  5-MIN KMSN 030245Z 00000KT 10SM CLR 13/09 A3010 690 77 600 000/00 RMK AO2
14837KMSN MSN20090602205011506/02/09 20:50:31  5-MIN KMSN 030250Z 00000KT 10SM CLR 13/09 A3011 690 77 600 000/00 RMK AO2 SLP196 T01280089 56007
14837KMSN MSN20090602205509206/02/09 20:55:31  5-MIN KMSN 030255Z 00000KT 10SM CLR 13/09 A3011 690 80 600 000/00 RMK AO2
14837KMSN MSN20090602210009206/02/09 21:00:31  5-MIN KMSN 030300Z 00000KT 10SM CLR 13/09 A3011 690 74 700 000/00 RMK AO2
14837KMSN MSN20090602210509206/02/09 21:05:31  5-MIN KMSN 030305Z 00000KT 10SM CLR 13/09 A3011 690 77 600 000/00 RMK AO2
14837KMSN MSN20090602211009206/02/09 21:10:31  5-MIN KMSN 030310Z 00000KT 10SM CLR 12/09 A3011 690 80 600 000/00 RMK AO2
14837KMSN MSN20090602211509206/02/09 21:15:31  5-MIN KMSN 030315Z 00000KT 10SM CLR 12/09 A3011 690 80 600 000/00 RMK AO2
14837KMSN MSN20090602212009206/02/09 21:20:31  5-MIN KMSN 030320Z 00000KT 10SM CLR 12/09 A3011 690 80 600 000/00 RMK AO2
14837KMSN MSN20090602212509206/02/09 21:25:31  5-MIN KMSN 030325Z 00000KT 10SM CLR 12/09 A3011 690 80 600 000/00 RMK AO2
14837KMSN MSN20090602213009206/02/09 21:30:31  5-MIN KMSN 030330Z 00000KT 10SM CLR 12/09 A3011 690 80 600 000/00 RMK AO2
14837KMSN MSN20090602213509206/02/09 21:35:31  5-MIN KMSN 030335Z 00000KT 10SM CLR 12/09 A3011 690 80 600 000/00 RMK AO2
14837KMSN MSN20090602214009206/02/09 21:40:31  5-MIN KMSN 030340Z 00000KT 10SM CLR 12/09 A3011 690 83 500 000/00 RMK AO2
14837KMSN MSN20090602214509206/02/09 21:45:31  5-MIN KMSN 030345Z 00000KT 10SM CLR 12/09 A3011 690 80 600 000/00 RMK AO2
14837KMSN MSN20090602215010906/02/09 21:50:31  5-MIN KMSN 030350Z 00000KT 10SM CLR 12/08 A3011 690 80 500 000/00 RMK AO2 SLP198 T01170083
14837KMSN MSN20090602215509206/02/09 21:55:31  5-MIN KMSN 030355Z 00000KT 10SM CLR 12/09 A3011 690 80 600 000/00 RMK AO2
14837KMSN MSN20090602220009206/02/09 22:00:31  5-MIN KMSN 030400Z 00000KT 10SM CLR 12/09 A3011 690 80 600 000/00 RMK AO2
14837KMSN MSN20090602220509206/02/09 22:05:31  5-MIN KMSN 030405Z 00000KT 10SM CLR 12/09 A3010 690 83 500 000/00 RMK AO2
14837KMSN MSN20090602221009206/02/09 22:10:31  5-MIN KMSN 030410Z 00000KT 10SM CLR 12/09 A3011 690 86 500 000/00 RMK AO2
14837KMSN MSN20090602221509206/02/09 22:15:31  5-MIN KMSN 030415Z 00000KT 10SM CLR 12/09 A3010 690 83 500 000/00 RMK AO2
14837KMSN MSN20090602222009206/02/09 22:20:31  5-MIN KMSN 030420Z 00000KT 10SM CLR 12/09 A3010 700 83 500 000/00 RMK AO2
14837KMSN MSN20090602222509206/02/09 22:25:31  5-MIN KMSN 030425Z 00000KT 10SM CLR 12/09 A3010 700 83 600 000/00 RMK AO2
14837KMSN MSN20090602223009206/02/09 22:30:31  5-MIN KMSN 030430Z 00000KT 10SM CLR 12/09 A3010 700 80 600 000/00 RMK AO2
14837KMSN MSN20090602223509206/02/09 22:35:31  5-MIN KMSN 030435Z 00000KT 10SM CLR 11/09 A3010 700 86 400 000/00 RMK AO2
14837KMSN MSN20090602224009206/02/09 22:40:31  5-MIN KMSN 030440Z 00000KT 10SM CLR 12/09 A3010 700 83 500 000/00 RMK AO2
14837KMSN MSN20090602224509206/02/09 22:45:31  5-MIN KMSN 030445Z 00000KT 10SM CLR 12/09 A3010 700 83 500 000/00 RMK AO2
14837KMSN MSN20090602225010906/02/09 22:50:31  5-MIN KMSN 030450Z 00000KT 10SM CLR 12/09 A3010 700 86 500 000/00 RMK AO2 SLP196 T01170094
14837KMSN MSN20090602225509206/02/09 22:55:31  5-MIN KMSN 030455Z 00000KT 10SM CLR 12/09 A3010 700 86 500 000/00 RMK AO2
14837KMSN MSN20090602230009206/02/09 23:00:31  5-MIN KMSN 030500Z 00000KT 10SM CLR 12/09 A3010 700 86 500 000/00 RMK AO2
14837KMSN MSN20090602230509206/02/09 23:05:31  5-MIN KMSN 030505Z 00000KT 10SM CLR 12/09 A3011 690 86 500 000/00 RMK AO2
14837KMSN MSN20090602231009206/02/09 23:10:31  5-MIN KMSN 030510Z 00000KT 10SM CLR 11/09 A3011 690 89 400 000/00 RMK AO2
14837KMSN MSN20090602231509206/02/09 23:15:31  5-MIN KMSN 030515Z 00000KT 10SM CLR 12/09 A3011 690 86 500 000/00 RMK AO2
14837KMSN MSN20090602232009206/02/09 23:20:31  5-MIN KMSN 030520Z 00000KT 10SM CLR 12/10 A3010 690 86 600 000/00 RMK AO2
14837KMSN MSN20090602232509206/02/09 23:25:31  5-MIN KMSN 030525Z 00000KT 10SM CLR 12/09 A3011 690 86 500 000/00 RMK AO2
14837KMSN MSN20090602233009206/02/09 23:30:31  5-MIN KMSN 030530Z 00000KT 10SM CLR 11/09 A3010 690 89 400 000/00 RMK AO2
14837KMSN MSN20090602233509206/02/09 23:35:31  5-MIN KMSN 030535Z 00000KT 10SM CLR 11/09 A3011 690 89 400 000/00 RMK AO2
14837KMSN MSN20090602234009206/02/09 23:40:31  5-MIN KMSN 030540Z 00000KT 10SM CLR 11/09 A3011 690 89 400 000/00 RMK AO2
14837KMSN MSN20090602234509206/02/09 23:45:31  5-MIN KMSN 030545Z 00000KT 10SM CLR 11/09 A3011 690 89 400 000/00 RMK AO2
14837KMSN MSN20090602235013706/02/09 23:50:31  5-MIN KMSN 030550Z 00000KT 10SM CLR 11/09 A3011 690 89 400 000/00 RMK AO2 SLP198 T01060089 10183 20106 401890078 53010
14837KMSN MSN20090602235509206/02/09 23:55:31  5-MIN KMSN 030555Z 00000KT 10SM CLR 10/09 A3011 690 93 300 000/00 RMK AO2
14837KMSN MSN20090603000009206/03/09 00:00:32  5-MIN KMSN 030600Z 32003KT 10SM CLR 11/09 A3011 690 89 400 320/03 RMK AO2
14837KMSN MSN20090603000509206/03/09 00:05:31  5-MIN KMSN 030605Z 34004KT 10SM CLR 11/09 A3011 690 86 400 330/04 RMK AO2
14837KMSN MSN20090603001009206/03/09 00:10:31  5-MIN KMSN 030610Z 34005KT 10SM CLR 11/09 A3011 690 86 400 340/05 RMK AO2
14837KMSN MSN20090603001509206/03/09 00:15:31  5-MIN KMSN 030615Z 35005KT 10SM CLR 12/09 A3011 690 83 500 350/05 RMK AO2
14837KMSN MSN20090603002009206/03/09 00:20:31  5-MIN KMSN 030620Z 36005KT 10SM CLR 12/09 A3012 680 83 600 360/05 RMK AO2
14837KMSN MSN20090603002509206/03/09 00:25:31  5-MIN KMSN 030625Z 36005KT 10SM CLR 12/09 A3012 680 80 600 360/05 RMK AO2
14837KMSN MSN20090603003009206/03/09 00:30:31  5-MIN KMSN 030630Z 01007KT 10SM CLR 12/09 A3012 680 83 500 010/07 RMK AO2
14837KMSN MSN20090603003509206/03/09 00:35:31  5-MIN KMSN 030635Z 01009KT 10SM CLR 12/09 A3012 680 83 600 010/09 RMK AO2
14837KMSN MSN20090603004009206/03/09 00:40:31  5-MIN KMSN 030640Z 02012KT 10SM CLR 13/09 A3012 680 80 600 020/12 RMK AO2
14837KMSN MSN20090603004509206/03/09 00:45:31  5-MIN KMSN 030645Z 02010KT 10SM CLR 13/09 A3012 680 80 600 020/10 RMK AO2
14837KMSN MSN20090603005010906/03/09 00:50:31  5-MIN KMSN 030650Z 02010KT 10SM CLR 13/09 A3012 680 77 700 020/10 RMK AO2 SLP201 T01330094
14837KMSN MSN20090603005509806/03/09 00:55:31  5-MIN KMSN 030655Z 03012G17KT 10SM CLR 13/09 A3012 680 77 700 030/12G17 RMK AO2
14837KMSN MSN20090603010009806/03/09 01:00:31  5-MIN KMSN 030700Z 02011G17KT 10SM CLR 13/09 A3012 680 77 700 020/11G17 RMK AO2
14837KMSN MSN20090603010509806/03/09 01:05:31  5-MIN KMSN 030705Z 02010G17KT 10SM CLR 13/09 A3013 670 77 700 020/10G17 RMK AO2
14837KMSN MSN20090603011009806/03/09 01:10:31  5-MIN KMSN 030710Z 02009G17KT 10SM CLR 13/09 A3013 670 77 700 020/09G17 RMK AO2
14837KMSN MSN20090603011509206/03/09 01:15:31  5-MIN KMSN 030715Z 02010KT 10SM CLR 13/09 A3013 670 80 600 020/10 RMK AO2
14837KMSN MSN20090603012009206/03/09 01:20:31  5-MIN KMSN 030720Z 01008KT 10SM CLR 13/09 A3013 670 80 600 010/08 RMK AO2
14837KMSN MSN20090603012509206/03/09 01:25:31  5-MIN KMSN 030725Z 01009KT 10SM CLR 13/09 A3013 670 80 600 010/09 RMK AO2
14837KMSN MSN20090603013009206/03/09 01:30:31  5-MIN KMSN 030730Z 01010KT 10SM CLR 13/09 A3013 670 80 600 010/10 RMK AO2
14837KMSN MSN20090603013509206/03/09 01:35:31  5-MIN KMSN 030735Z 02010KT 10SM CLR 13/09 A3013 670 80 600 010/10 RMK AO2
14837KMSN MSN20090603014009206/03/09 01:40:31  5-MIN KMSN 030740Z 02010KT 10SM CLR 12/09 A3014 670 80 500 010/10 RMK AO2
14837KMSN MSN20090603014509206/03/09 01:45:31  5-MIN KMSN 030745Z 01011KT 10SM CLR 12/09 A3014 670 80 500 010/11 RMK AO2
14837KMSN MSN20090603015010906/03/09 01:50:31  5-MIN KMSN 030750Z 02012KT 10SM CLR 12/09 A3014 660 80 500 020/12 RMK AO2 SLP206 T01220089
14837KMSN MSN20090603015509206/03/09 01:55:31  5-MIN KMSN 030755Z 02012KT 10SM CLR 12/09 A3014 670 80 500 020/12 RMK AO2
14837KMSN MSN20090603020009206/03/09 02:00:31  5-MIN KMSN 030800Z 02013KT 10SM CLR 12/09 A3014 660 80 500 020/13 RMK AO2
14837KMSN MSN20090603020509806/03/09 02:05:31  5-MIN KMSN 030805Z 02013G19KT 10SM CLR 12/09 A3014 660 80 500 020/13G19 RMK AO2
14837KMSN MSN20090603021009806/03/09 02:10:31  5-MIN KMSN 030810Z 02011G19KT 10SM CLR 12/09 A3014 660 80 500 020/11G19 RMK AO2
14837KMSN MSN20090603021509206/03/09 02:15:31  5-MIN KMSN 030815Z 02011KT 10SM CLR 12/09 A3014 660 80 500 020/11 RMK AO2
14837KMSN MSN20090603022009206/03/09 02:20:31  5-MIN KMSN 030820Z 02010KT 10SM CLR 12/09 A3014 660 83 500 020/10 RMK AO2
14837KMSN MSN20090603022509206/03/09 02:25:31  5-MIN KMSN 030825Z 03013KT 10SM CLR 12/09 A3014 660 83 500 030/13 RMK AO2
14837KMSN MSN20090603023009206/03/09 02:30:31  5-MIN KMSN 030830Z 03013KT 10SM CLR 12/09 A3015 660 83 500 030/13 RMK AO2
14837KMSN MSN20090603023509206/03/09 02:35:31  5-MIN KMSN 030835Z 04011KT 10SM CLR 12/09 A3015 650 80 500 040/11 RMK AO2
14837KMSN MSN20090603024009806/03/09 02:40:31  5-MIN KMSN 030840Z 04014G18KT 10SM CLR 12/08 A3015 650 80 400 040/14G18 RMK AO2
14837KMSN MSN20090603024509806/03/09 02:45:31  5-MIN KMSN 030845Z 04012G20KT 10SM CLR 12/08 A3015 650 77 400 040/12G20 RMK AO2
14837KMSN MSN20090603025012106/03/09 02:50:31  5-MIN KMSN 030850Z 04015G20KT 10SM CLR 11/07 A3015 650 74 400 040/15G20 RMK AO2 SLP212 T01110067 53001
14837KMSN MSN20090603025509806/03/09 02:55:31  5-MIN KMSN 030855Z 04013G21KT 10SM CLR 11/07 A3015 650 74 400 040/13G21 RMK AO2
14837KMSN MSN20090603030009806/03/09 03:00:31  5-MIN KMSN 030900Z 03008G21KT 10SM CLR 11/07 A3016 650 74 400 030/08G21 RMK AO2
14837KMSN MSN20090603030509806/03/09 03:05:31  5-MIN KMSN 030905Z 04012G17KT 10SM CLR 11/07 A3016 650 77 300 040/12G17 RMK AO2
14837KMSN MSN20090603031009806/03/09 03:10:31  5-MIN KMSN 030910Z 04010G17KT 10SM CLR 11/06 A3016 640 74 300 040/10G17 RMK AO2
14837KMSN MSN20090603031509206/03/09 03:15:31  5-MIN KMSN 030915Z 04009KT 10SM CLR 11/06 A3016 640 74 300 040/09 RMK AO2
14837KMSN MSN20090603032009206/03/09 03:20:31  5-MIN KMSN 030920Z 04011KT 10SM CLR 11/06 A3016 640 74 300 040/11 RMK AO2
14837KMSN MSN20090603032509206/03/09 03:25:31  5-MIN KMSN 030925Z 04008KT 10SM CLR 11/06 A3017 640 74 300 040/08 RMK AO2
14837KMSN MSN20090603033009206/03/09 03:30:31  5-MIN KMSN 030930Z 05010KT 10SM CLR 10/06 A3017 640 74 200 040/10 RMK AO2
14837KMSN MSN20090603033509206/03/09 03:35:31  5-MIN KMSN 030935Z 05009KT 10SM CLR 10/06 A3017 640 74 200 040/09 RMK AO2
14837KMSN MSN20090603034009206/03/09 03:40:31  5-MIN KMSN 030940Z 05011KT 10SM CLR 10/06 A3017 630 74 200 040/11 RMK AO2
14837KMSN MSN20090603034509206/03/09 03:45:31  5-MIN KMSN 030945Z 05009KT 10SM CLR 10/05 A3017 630 71 200 050/09 RMK AO2
14837KMSN MSN20090603035010906/03/09 03:50:31  5-MIN KMSN 030950Z 04009KT 10SM CLR 10/05 A3018 630 71 200 040/09 RMK AO2 SLP219 T01000050
14837KMSN MSN20090603035509206/03/09 03:55:31  5-MIN KMSN 030955Z 04008KT 10SM CLR 10/05 A3018 620 71 200 040/08 RMK AO2
14837KMSN MSN20090603040009206/03/09 04:00:31  5-MIN KMSN 031000Z 03006KT 10SM CLR 10/05 A3018 620 71 200 030/06 RMK AO2
14837KMSN MSN20090603040509206/03/09 04:05:31  5-MIN KMSN 031005Z 03008KT 10SM CLR 09/05 A3018 620 74 100 030/08 RMK AO2
14837KMSN MSN20090603041009206/03/09 04:10:31  5-MIN KMSN 031010Z 04006KT 10SM CLR 10/05 A3018 620 71 200 040/06 RMK AO2
14837KMSN MSN20090603041509206/03/09 04:15:31  5-MIN KMSN 031015Z 04006KT 10SM CLR 09/05 A3019 620 74 100 040/06 RMK AO2
14837KMSN MSN20090603042009206/03/09 04:20:31  5-MIN KMSN 031020Z 04008KT 10SM CLR 09/05 A3019 620 74 100 040/08 RMK AO2
14837KMSN MSN20090603042509206/03/09 04:25:31  5-MIN KMSN 031025Z 04007KT 10SM CLR 09/05 A3019 620 74 100 030/07 RMK AO2
14837KMSN MSN20090603043009206/03/09 04:30:31  5-MIN KMSN 031030Z 03006KT 10SM CLR 09/05 A3019 610 74 100 030/06 RMK AO2
14837KMSN MSN20090603043509206/03/09 04:35:31  5-MIN KMSN 031035Z 04006KT 10SM CLR 09/05 A3019 610 74 100 040/06 RMK AO2
14837KMSN MSN20090603044009206/03/09 04:40:31  5-MIN KMSN 031040Z 04006KT 10SM CLR 09/05 A3020 610 74 100 040/06 RMK AO2
14837KMSN MSN20090603044509206/03/09 04:45:31  5-MIN KMSN 031045Z 05006KT 10SM CLR 09/05 A3020 610 76 100 040/06 RMK AO2
14837KMSN MSN20090603045010906/03/09 04:50:31  5-MIN KMSN 031050Z 05006KT 10SM CLR 09/05 A3020 610 76 100 040/06 RMK AO2 SLP228 T00890050
14837KMSN MSN20090603045509206/03/09 04:55:31  5-MIN KMSN 031055Z 04006KT 10SM CLR 09/05 A3021 600 76 100 040/06 RMK AO2
14837KMSN MSN20090603050009206/03/09 05:00:31  5-MIN KMSN 031100Z 04006KT 10SM CLR 09/05 A3021 600 74 100 040/06 RMK AO2
14837KMSN MSN20090603050509206/03/09 05:05:31  5-MIN KMSN 031105Z 04006KT 10SM CLR 09/05 A3021 600 74 100 040/06 RMK AO2
14837KMSN MSN20090603051009206/03/09 05:10:31  5-MIN KMSN 031110Z 04006KT 10SM CLR 09/05 A3021 600 74 100 040/06 RMK AO2
14837KMSN MSN20090603051509206/03/09 05:15:31  5-MIN KMSN 031115Z 04007KT 10SM CLR 09/05 A3021 600 74 100 040/07 RMK AO2
14837KMSN MSN20090603052009206/03/09 05:20:31  5-MIN KMSN 031120Z 04006KT 10SM CLR 09/05 A3021 600 74 100 030/06 RMK AO2
14837KMSN MSN20090603052509206/03/09 05:25:31  5-MIN KMSN 031125Z 03006KT 10SM CLR 10/05 A3021 600 71 200 030/06 RMK AO2
14837KMSN MSN20090603053009206/03/09 05:30:31  5-MIN KMSN 031130Z 03007KT 10SM CLR 10/05 A3021 600 71 200 030/07 RMK AO2
14837KMSN MSN20090603053509206/03/09 05:35:31  5-MIN KMSN 031135Z 04007KT 10SM CLR 10/05 A3021 590 71 200 040/07 RMK AO2
14837KMSN MSN20090603054009206/03/09 05:40:31  5-MIN KMSN 031140Z 05006KT 10SM CLR 10/05 A3021 590 71 200 050/06 RMK AO2
14837KMSN MSN20090603054509206/03/09 05:45:31  5-MIN KMSN 031145Z 05006KT 10SM CLR 10/05 A3021 590 71 200 050/06 RMK AO2
14837KMSN MSN20090603055012706/03/09 05:50:31  5-MIN KMSN 031150Z 05007KT 10SM CLR 10/06 A3021 590 74 200 050/07 RMK AO2 SLP233 T01000056 10133 20089 53014
14837KMSN MSN20090603055509506/03/09 05:55:31  5-MIN KMSN 031155Z 05008KT 10SM FEW034 10/05 A3022 590 71 200 050/08 RMK AO2
14837KMSN MSN20090603060009506/03/09 06:00:31  5-MIN KMSN 031200Z 05006KT 10SM FEW036 11/05 A3022 590 68 200 050/06 RMK AO2
14837KMSN MSN20090603060509506/03/09 06:05:31  5-MIN KMSN 031205Z 05009KT 10SM FEW039 10/05 A3022 590 71 200 050/09 RMK AO2
14837KMSN MSN20090603061009506/03/09 06:10:31  5-MIN KMSN 031210Z 06007KT 10SM SCT039 11/05 A3022 590 68 200 050/07 RMK AO2
14837KMSN MSN20090603061509506/03/09 06:15:31  5-MIN KMSN 031215Z 06008KT 10SM BKN039 11/05 A3022 590 68 200 060/08 RMK AO2
14837KMSN MSN20090603062009506/03/09 06:20:31  5-MIN KMSN 031220Z 06008KT 10SM BKN039 11/05 A3022 590 66 300 060/08 RMK AO2
14837KMSN MSN20090603062509506/03/09 06:25:31  5-MIN KMSN 031225Z 05009KT 10SM BKN039 12/05 A3022 590 63 400 050/09 RMK AO2
14837KMSN MSN20090603063009506/03/09 06:30:31  5-MIN KMSN 031230Z 05011KT 10SM BKN039 12/05 A3022 590 63 400 050/11 RMK AO2
14837KMSN MSN20090603063509506/03/09 06:35:31  5-MIN KMSN 031235Z 07009KT 10SM BKN039 12/05 A3022 590 63 400 070/09 RMK AO2
14837KMSN MSN20090603064009506/03/09 06:40:31  5-MIN KMSN 031240Z 07010KT 10SM BKN039 12/04 A3021 590 61 400 070/10 RMK AO2
14837KMSN MSN20090603064509506/03/09 06:45:31  5-MIN KMSN 031245Z 07010KT 10SM BKN039 12/04 A3021 590 61 400 060/10 RMK AO2
14837KMSN MSN20090603065011206/03/09 06:50:31  5-MIN KMSN 031250Z 08009KT 10SM SCT039 12/04 A3021 590 61 400 080/09 RMK AO2 SLP232 T01170044
14837KMSN MSN20090603065509506/03/09 06:55:31  5-MIN KMSN 031255Z 07011KT 10SM SCT041 12/04 A3021 590 58 400 070/11 RMK AO2
14837KMSN MSN20090603070009506/03/09 07:00:31  5-MIN KMSN 031300Z 08012KT 10SM SCT041 12/04 A3021 590 58 400 080/12 RMK AO2
14837KMSN MSN20090603070509506/03/09 07:05:31  5-MIN KMSN 031305Z 07009KT 10SM BKN041 12/04 A3021 590 58 400 070/09 RMK AO2
14837KMSN MSN20090603071009506/03/09 07:10:31  5-MIN KMSN 031310Z 06009KT 10SM SCT041 12/04 A3021 590 59 400 060/09 RMK AO2
14837KMSN MSN20090603071509506/03/09 07:15:31  5-MIN KMSN 031315Z 07010KT 10SM FEW043 13/04 A3022 590 56 500 070/10 RMK AO2
14837KMSN MSN20090603072009506/03/09 07:20:31  5-MIN KMSN 031320Z 06009KT 10SM SCT043 12/04 A3022 590 56 400 060/09 RMK AO2
14837KMSN MSN20090603072510106/03/09 07:25:31  5-MIN KMSN 031325Z 06013G17KT 10SM SCT043 12/04 A3022 590 58 400 060/13G17 RMK AO2
14837KMSN MSN20090603073009506/03/09 07:30:31  5-MIN KMSN 031330Z 06014KT 10SM SCT043 12/03 A3022 590 54 400 060/14 RMK AO2
14837KMSN MSN20090603073509506/03/09 07:35:31  5-MIN KMSN 031335Z 07011KT 10SM SCT043 12/03 A3022 580 54 400 070/11 RMK AO2
14837KMSN MSN20090603074009506/03/09 07:40:31  5-MIN KMSN 031340Z 06009KT 10SM FEW040 12/04 A3022 590 56 400 060/09 RMK AO2
14837KMSN MSN20090603074509506/03/09 07:45:31  5-MIN KMSN 031345Z 06007KT 10SM FEW040 13/04 A3022 590 56 500 060/07 RMK AO2
14837KMSN MSN20090603075011806/03/09 07:50:31  5-MIN KMSN 031350Z 07011G14KT 10SM FEW040 13/04 A3022 590 54 600 060/11G14 RMK AO2 SLP234 T01330044
14837KMSN MSN20090603075509206/03/09 07:55:31  5-MIN KMSN 031355Z 06009KT 10SM CLR 13/04 A3022 590 52 600 060/09 RMK AO2
14837KMSN MSN20090603080009206/03/09 08:00:31  5-MIN KMSN 031400Z 05011KT 10SM CLR 13/04 A3022 590 52 600 050/11 RMK AO2
14837KMSN MSN20090603080509206/03/09 08:05:31  5-MIN KMSN 031405Z 05010KT 10SM CLR 13/04 A3022 590 52 600 050/10 RMK AO2
14837KMSN MSN20090603081009206/03/09 08:10:31  5-MIN KMSN 031410Z 05013KT 10SM CLR 14/03 A3022 590 48 600 050/13 RMK AO2
14837KMSN MSN20090603081509206/03/09 08:15:31  5-MIN KMSN 031415Z 06013KT 10SM CLR 14/03 A3022 580 48 600 050/13 RMK AO2
14837KMSN MSN20090603082009206/03/09 08:20:31  5-MIN KMSN 031420Z 05013KT 10SM CLR 14/04 A3023 580 50 600 050/13 RMK AO2
14837KMSN MSN20090603082509206/03/09 08:25:31  5-MIN KMSN 031425Z 06013KT 10SM CLR 14/03 A3022 580 48 600 060/13 RMK AO2
14837KMSN MSN20090603083009806/03/09 08:30:31  5-MIN KMSN 031430Z 07010G17KT 10SM CLR 14/04 A3022 580 50 600 070/10G17 RMK AO2
14837KMSN MSN20090603083509206/03/09 08:35:31  5-MIN KMSN 031435Z 06010KT 10SM CLR 14/04 A3022 590 49 700 060/10 RMK AO2
14837KMSN MSN20090603084009806/03/09 08:40:31  5-MIN KMSN 031440Z 08011G15KT 10SM CLR 14/04 A3022 580 51 700 080/11G15 RMK AO2
14837KMSN MSN20090603084509806/03/09 08:45:31  5-MIN KMSN 031445Z 08011G14KT 10SM CLR 14/04 A3022 580 51 700 080/11G14 RMK AO2
14837KMSN MSN20090603085011506/03/09 08:50:31  5-MIN KMSN 031450Z 08010KT 10SM CLR 14/04 A3022 590 49 700 080/10 RMK AO2 SLP235 T01440039 51020
14837KMSN MSN20090603085509206/03/09 08:55:31  5-MIN KMSN 031455Z 07009KT 10SM CLR 14/04 A3022 580 49 700 070/09 RMK AO2
14837KMSN MSN20090603090009806/03/09 09:00:31  5-MIN KMSN 031500Z 06009G16KT 10SM CLR 15/04 A3022 590 49 800 060/09G16 RMK AO2
14837KMSN MSN20090603090509806/03/09 09:05:31  5-MIN KMSN 031505Z 07008G16KT 10SM CLR 16/04 A3022 590 47 800 070/08G16 RMK AO2
14837KMSN MSN20090603091009206/03/09 09:10:31  5-MIN KMSN 031510Z 06010KT 10SM CLR 16/04 A3022 590 47 800 060/10 RMK AO2
14837KMSN MSN20090603091509206/03/09 09:15:31  5-MIN KMSN 031515Z 06009KT 10SM CLR 15/04 A3022 590 47 800 060/09 RMK AO2
14837KMSN MSN20090603092009206/03/09 09:20:31  5-MIN KMSN 031520Z 06009KT 10SM CLR 16/04 A3022 590 47 800 050/09 RMK AO2
14837KMSN MSN20090603092509806/03/09 09:25:31  5-MIN KMSN 031525Z 03010G14KT 10SM CLR 16/04 A3022 590 47 800 030/10G14 RMK AO2
14837KMSN MSN20090603093009806/03/09 09:30:31  5-MIN KMSN 031530Z 05010G14KT 10SM CLR 16/04 A3021 590 47 800 050/10G14 RMK AO2
14837KMSN MSN20090603093509806/03/09 09:35:31  5-MIN KMSN 031535Z 06010G15KT 10SM CLR 16/05 A3022 590 47 900 060/10G15 RMK AO2
14837KMSN MSN20090603094009806/03/09 09:40:31  5-MIN KMSN 031540Z 04009G15KT 10SM CLR 16/04 A3022 590 45 800 040/09G15 RMK AO2
14837KMSN MSN20090603094509206/03/09 09:45:31  5-MIN KMSN 031545Z 06007KT 10SM CLR 16/04 A3022 590 45 900 060/07 RMK AO2
14837KMSN MSN20090603095011506/03/09 09:50:31  5-MIN KMSN 031550Z 06010G15KT 10SM CLR 16/04 A3022 590 47 800 060/10G15 RMK AO2 SLP233 T01560044
14837KMSN MSN20090603095509506/03/09 09:55:31  5-MIN KMSN 031555Z 07009KT 10SM FEW045 16/04 A3022 590 45 900 070/09 RMK AO2
14837KMSN MSN20090603100009606/03/09 10:00:31  5-MIN KMSN 031600Z 04008KT 10SM FEW045 17/05 A3022 590 45 1000 040/08 RMK AO2
14837KMSN MSN20090603100509606/03/09 10:05:31  5-MIN KMSN 031605Z 02011KT 10SM FEW045 17/05 A3021 590 45 1000 020/11 RMK AO2
14837KMSN MSN20090603101009506/03/09 10:10:31  5-MIN KMSN 031610Z 07011KT 10SM FEW045 16/04 A3022 590 45 900 070/11 RMK AO2
14837KMSN MSN20090603101509606/03/09 10:15:31  5-MIN KMSN 031615Z 05009KT 10SM FEW045 17/04 A3021 590 44 1000 050/09 RMK AO2
14837KMSN MSN20090603102010206/03/09 10:20:31  5-MIN KMSN 031620Z 04007G17KT 10SM FEW045 17/04 A3021 590 44 1000 030/07G17 RMK AO2
14837KMSN MSN20090603102510206/03/09 10:25:31  5-MIN KMSN 031625Z 02011G17KT 10SM FEW045 17/04 A3021 600 44 1000 020/11G17 RMK AO2
14837KMSN MSN20090603103010206/03/09 10:30:31  5-MIN KMSN 031630Z 07009G16KT 10SM FEW045 17/04 A3021 600 44 1000 060/09G16 RMK AO2
14837KMSN MSN20090603103509606/03/09 10:35:31  5-MIN KMSN 031635Z 01010KT 10SM FEW045 17/04 A3021 600 44 1000 010/10 RMK AO2
14837KMSN MSN20090603104009606/03/09 10:40:31  5-MIN KMSN 031640Z 06010KT 10SM FEW045 17/04 A3021 600 44 1000 050/10 RMK AO2
14837KMSN MSN20090603104509606/03/09 10:45:31  5-MIN KMSN 031645Z 03006KT 10SM FEW045 17/04 A3021 600 42 1000 030/06 RMK AO2
14837KMSN MSN20090603105011906/03/09 10:50:31  5-MIN KMSN 031650Z 07008G15KT 10SM FEW050 17/04 A3021 600 42 1000 070/08G15 RMK AO2 SLP231 T01670039
14837KMSN MSN20090603105509606/03/09 10:55:31  5-MIN KMSN 031655Z 06009KT 10SM FEW050 17/04 A3021 600 42 1000 050/09 RMK AO2
14837KMSN MSN20090603110010206/03/09 11:00:31  5-MIN KMSN 031700Z 07009G14KT 10SM FEW050 17/04 A3021 600 42 1000 070/09G14 RMK AO2
14837KMSN MSN20090603110509606/03/09 11:05:31  5-MIN KMSN 031705Z 07008KT 10SM FEW050 17/04 A3021 600 44 1000 070/08 RMK AO2
14837KMSN MSN20090603111009606/03/09 11:10:31  5-MIN KMSN 031710Z 03007KT 10SM FEW050 17/04 A3020 600 41 1000 030/07 RMK AO2
14837KMSN MSN20090603111509606/03/09 11:15:31  5-MIN KMSN 031715Z 01009KT 10SM FEW050 18/04 A3020 610 41 1100 010/09 RMK AO2
14837KMSN MSN20090603112009606/03/09 11:20:31  5-MIN KMSN 031720Z 06008KT 10SM FEW050 17/04 A3020 610 42 1100 060/08 RMK AO2
14837KMSN MSN20090603112509606/03/09 11:25:31  5-MIN KMSN 031725Z 35009KT 10SM FEW050 18/04 A3020 610 41 1100 350/09 RMK AO2
14837KMSN MSN20090603113009606/03/09 11:30:31  5-MIN KMSN 031730Z 01010KT 10SM FEW050 17/04 A3019 610 41 1100 010/10 RMK AO2
14837KMSN MSN20090603113509606/03/09 11:35:31  5-MIN KMSN 031735Z 36007KT 10SM FEW050 18/04 A3019 610 41 1100 360/07 RMK AO2
14837KMSN MSN20090603114009606/03/09 11:40:31  5-MIN KMSN 031740Z 03006KT 10SM FEW050 18/04 A3019 610 39 1100 030/06 RMK AO2
14837KMSN MSN20090603114510206/03/09 11:45:31  5-MIN KMSN 031745Z 05010G14KT 10SM FEW050 18/04 A3019 620 39 1100 050/10G14 RMK AO2
14837KMSN MSN20090603115013706/03/09 11:50:31  5-MIN KMSN 031750Z VRB06G14KT 10SM FEW055 18/04 A3019 620 41 1100 VRB/06G14 RMK AO2 SLP224 T01780044 10178 20100 53003
14837KMSN MSN20090603115509606/03/09 11:55:31  5-MIN KMSN 031755Z VRB04KT 10SM FEW055 17/03 A3019 620 39 1100 VRB/04 RMK AO2
14837KMSN MSN20090603120010206/03/09 12:00:31  5-MIN KMSN 031800Z 05009G16KT 10SM FEW055 18/03 A3019 620 38 1100 050/09G16 RMK AO2
14837KMSN MSN20090603120510206/03/09 12:05:31  5-MIN KMSN 031805Z 08007G16KT 10SM FEW055 18/04 A3019 620 39 1100 070/07G16 RMK AO2
14837KMSN MSN20090603121009606/03/09 12:10:31  5-MIN KMSN 031810Z 01009KT 10SM FEW055 18/04 A3018 620 41 1100 010/09 RMK AO2
14837KMSN MSN20090603121509606/03/09 12:15:31  5-MIN KMSN 031815Z 01005KT 10SM FEW055 18/04 A3018 620 41 1100 360/05 RMK AO2
14837KMSN MSN20090603122009606/03/09 12:20:31  5-MIN KMSN 031820Z VRB05KT 10SM FEW055 18/04 A3018 630 39 1100 VRB/05 RMK AO2
14837KMSN MSN20090603122509606/03/09 12:25:31  5-MIN KMSN 031825Z 01005KT 10SM FEW055 18/04 A3017 630 39 1200 010/05 RMK AO2
14837KMSN MSN20090603123011806/03/09 12:30:31  5-MIN KMSN 031830Z 06010G18KT 360V180 10SM FEW055 18/04 A3017 630 39 1200 060/10G18 360V180 RMK AO2
14837KMSN MSN20090603123510206/03/09 12:35:31  5-MIN KMSN 031835Z 05004G18KT 10SM FEW055 18/05 A3017 630 41 1200 050/04G18 RMK AO2
14837KMSN MSN20090603124009606/03/09 12:40:31  5-MIN KMSN 031840Z VRB05KT 10SM FEW055 18/04 A3017 640 39 1200 VRB/05 RMK AO2
14837KMSN MSN20090603124509606/03/09 12:45:31  5-MIN KMSN 031845Z 00000KT 10SM FEW055 18/04 A3017 640 39 1200 000/00 RMK AO2
14837KMSN MSN20090603125011906/03/09 12:50:31  5-MIN KMSN 031850Z 04009G14KT 10SM FEW055 19/06 A3016 640 41 1300 040/09G14 RMK AO2 SLP213 T01890056
14837KMSN MSN20090603125510206/03/09 12:55:31  5-MIN KMSN 031855Z 34007G14KT 10SM FEW055 18/04 A3016 640 39 1200 330/07G14 RMK AO2
14837KMSN MSN20090603130009606/03/09 13:00:31  5-MIN KMSN 031900Z 00000KT 10SM FEW055 18/03 A3016 640 38 1200 000/00 RMK AO2
14837KMSN MSN20090603130509606/03/09 13:05:31  5-MIN KMSN 031905Z 07006KT 10SM FEW055 19/05 A3016 650 39 1300 070/06 RMK AO2
14837KMSN MSN20090603131009606/03/09 13:10:31  5-MIN KMSN 031910Z 05005KT 10SM FEW055 18/04 A3015 650 39 1200 050/05 RMK AO2
14837KMSN MSN20090603131509606/03/09 13:15:31  5-MIN KMSN 031915Z 02009KT 10SM FEW055 19/04 A3015 650 38 1300 020/09 RMK AO2
14837KMSN MSN20090603132009606/03/09 13:20:31  5-MIN KMSN 031920Z 36008KT 10SM FEW055 19/04 A3015 650 36 1300 360/08 RMK AO2
14837KMSN MSN20090603132509606/03/09 13:25:31  5-MIN KMSN 031925Z VRB05KT 10SM FEW055 18/03 A3015 650 36 1200 VRB/05 RMK AO2
14837KMSN MSN20090603133009606/03/09 13:30:31  5-MIN KMSN 031930Z 10004KT 10SM FEW055 18/03 A3015 650 36 1200 100/04 RMK AO2
14837KMSN MSN20090603133509606/03/09 13:35:31  5-MIN KMSN 031935Z VRB03KT 10SM FEW055 19/03 A3015 650 35 1300 VRB/03 RMK AO2
14837KMSN MSN20090603134010206/03/09 13:40:31  5-MIN KMSN 031940Z 02010G14KT 10SM FEW055 19/03 A3015 650 34 1400 020/10G14 RMK AO2
14837KMSN MSN20090603134509606/03/09 13:45:31  5-MIN KMSN 031945Z 00000KT 10SM FEW055 18/02 A3015 660 34 1200 000/00 RMK AO2
14837KMSN MSN20090603135011306/03/09 13:50:31  5-MIN KMSN 031950Z 03009KT 10SM FEW060 19/04 A3015 650 35 1400 030/09 RMK AO2 SLP208 T01940039
14837KMSN MSN20090603135509606/03/09 13:55:31  5-MIN KMSN 031955Z 01010KT 10SM FEW060 19/03 A3015 660 34 1400 010/10 RMK AO2
14837KMSN MSN20090603140009606/03/09 14:00:31  5-MIN KMSN 032000Z 02005KT 10SM FEW060 19/03 A3015 660 34 1300 020/05 RMK AO2
14837KMSN MSN20090603140509606/03/09 14:05:31  5-MIN KMSN 032005Z VRB05KT 10SM FEW060 19/03 A3014 660 34 1300 VRB/05 RMK AO2
14837KMSN MSN20090603141009606/03/09 14:10:31  5-MIN KMSN 032010Z 01008KT 10SM FEW060 19/02 A3014 660 32 1300 010/08 RMK AO2
14837KMSN MSN20090603141509606/03/09 14:15:31  5-MIN KMSN 032015Z VRB03KT 10SM FEW060 19/03 A3014 660 35 1300 VRB/03 RMK AO2
14837KMSN MSN20090603142009606/03/09 14:20:31  5-MIN KMSN 032020Z 04007KT 10SM FEW060 19/03 A3014 660 34 1400 040/07 RMK AO2
14837KMSN MSN20090603142509606/03/09 14:25:31  5-MIN KMSN 032025Z VRB03KT 10SM FEW060 19/03 A3014 670 33 1400 VRB/03 RMK AO2
14837KMSN MSN20090603143011206/03/09 14:30:31  5-MIN KMSN 032030Z 04007KT 360V080 10SM FEW060 19/03 A3014 670 34 1400 040/07 360V080 RMK AO2
14837KMSN MSN20090603143509606/03/09 14:35:31  5-MIN KMSN 032035Z 36006KT 10SM FEW060 19/04 A3014 670 35 1400 360/06 RMK AO2
14837KMSN MSN20090603144009606/03/09 14:40:31  5-MIN KMSN 032040Z 09007KT 10SM FEW060 19/03 A3014 670 34 1400 090/07 RMK AO2
14837KMSN MSN20090603144509606/03/09 14:45:31  5-MIN KMSN 032045Z VRB05KT 10SM FEW060 19/03 A3013 670 34 1300 VRB/05 RMK AO2
14837KMSN MSN20090603145011906/03/09 14:50:31  5-MIN KMSN 032050Z 36005KT 10SM FEW065 19/03 A3013 670 34 1300 360/05 RMK AO2 SLP204 T01890028 58012
14837KMSN MSN20090603145509306/03/09 14:55:31  5-MIN KMSN 032055Z 01009KT 10SM CLR 19/02 A3013 670 31 1400 010/09 RMK AO2
14837KMSN MSN20090603150009306/03/09 15:00:31  5-MIN KMSN 032100Z 36005KT 10SM CLR 19/02 A3013 670 31 1400 360/05 RMK AO2
14837KMSN MSN20090603150509306/03/09 15:05:31  5-MIN KMSN 032105Z VRB05KT 10SM CLR 19/02 A3013 670 31 1400 VRB/05 RMK AO2
14837KMSN MSN20090603151009306/03/09 15:10:31  5-MIN KMSN 032110Z VRB05KT 10SM CLR 19/03 A3013 670 33 1400 VRB/05 RMK AO2
14837KMSN MSN20090603151509606/03/09 15:15:31  5-MIN KMSN 032115Z VRB03KT 10SM FEW065 19/03 A3013 670 34 1400 VRB/03 RMK AO2
14837KMSN MSN20090603152009606/03/09 15:20:31  5-MIN KMSN 032120Z 36005KT 10SM FEW065 19/04 A3013 670 35 1400 360/05 RMK AO2
14837KMSN MSN20090603152509606/03/09 15:25:31  5-MIN KMSN 032125Z VRB03KT 10SM FEW065 19/03 A3013 670 33 1400 VRB/03 RMK AO2
14837KMSN MSN20090603153009606/03/09 15:30:31  5-MIN KMSN 032130Z 35006KT 10SM FEW065 19/03 A3013 670 34 1400 350/06 RMK AO2
14837KMSN MSN20090603153509606/03/09 15:35:31  5-MIN KMSN 032135Z VRB05KT 10SM FEW065 19/04 A3013 670 35 1400 VRB/05 RMK AO2
14837KMSN MSN20090603154009606/03/09 15:40:31  5-MIN KMSN 032140Z 04006KT 10SM FEW065 19/04 A3013 670 37 1400 040/06 RMK AO2
14837KMSN MSN20090603154509606/03/09 15:45:31  5-MIN KMSN 032145Z 02007KT 10SM FEW065 19/04 A3013 670 37 1400 020/07 RMK AO2
14837KMSN MSN20090603155011306/03/09 15:50:31  5-MIN KMSN 032150Z 36006KT 10SM FEW070 20/04 A3013 670 35 1500 360/06 RMK AO2 SLP202 T02000044
14837KMSN MSN20090603155509606/03/09 15:55:31  5-MIN KMSN 032155Z 04007KT 10SM FEW070 19/03 A3013 680 34 1400 040/07 RMK AO2
14837KMSN MSN20090603160009606/03/09 16:00:31  5-MIN KMSN 032200Z 05009KT 10SM FEW070 19/04 A3012 680 37 1400 050/09 RMK AO2
14837KMSN MSN20090603160509606/03/09 16:05:31  5-MIN KMSN 032205Z VRB05KT 10SM FEW070 19/04 A3012 680 36 1300 VRB/05 RMK AO2
14837KMSN MSN20090603161009606/03/09 16:10:31  5-MIN KMSN 032210Z 06007KT 10SM FEW070 19/04 A3012 680 35 1400 060/07 RMK AO2
14837KMSN MSN20090603161509606/03/09 16:15:31  5-MIN KMSN 032215Z 03005KT 10SM FEW070 19/04 A3012 680 35 1400 030/05 RMK AO2
14837KMSN MSN20090603162009606/03/09 16:20:31  5-MIN KMSN 032220Z VRB05KT 10SM FEW070 19/03 A3012 680 35 1300 VRB/05 RMK AO2
14837KMSN MSN20090603162509606/03/09 16:25:31  5-MIN KMSN 032225Z VRB04KT 10SM FEW070 19/03 A3012 680 35 1300 VRB/04 RMK AO2
14837KMSN MSN20090603163009606/03/09 16:30:31  5-MIN KMSN 032230Z 02007KT 10SM FEW070 19/04 A3012 680 36 1300 020/07 RMK AO2
14837KMSN MSN20090603163509606/03/09 16:35:31  5-MIN KMSN 032235Z 01005KT 10SM FEW070 19/03 A3012 680 34 1400 010/05 RMK AO2
14837KMSN MSN20090603164009606/03/09 16:40:31  5-MIN KMSN 032240Z VRB04KT 10SM FEW070 19/03 A3012 680 35 1300 VRB/04 RMK AO2
14837KMSN MSN20090603164509606/03/09 16:45:31  5-MIN KMSN 032245Z 04005KT 10SM FEW070 19/04 A3012 680 37 1400 040/05 RMK AO2
14837KMSN MSN20090603165011306/03/09 16:50:31  5-MIN KMSN 032250Z VRB04KT 10SM FEW070 19/04 A3012 680 38 1300 VRB/04 RMK AO2 SLP200 T01890044
14837KMSN MSN20090603165509306/03/09 16:55:31  5-MIN KMSN 032255Z 06008KT 10SM CLR 19/04 A3012 680 36 1300 060/08 RMK AO2
14837KMSN MSN20090603170009306/03/09 17:00:31  5-MIN KMSN 032300Z 05005KT 10SM CLR 19/04 A3012 680 36 1300 050/05 RMK AO2
14837KMSN MSN20090603170509306/03/09 17:05:31  5-MIN KMSN 032305Z 00000KT 10SM CLR 19/04 A3012 680 36 1300 000/00 RMK AO2
14837KMSN MSN20090603171009306/03/09 17:10:31  5-MIN KMSN 032310Z 02008KT 10SM CLR 19/04 A3012 680 38 1300 020/08 RMK AO2
14837KMSN MSN20090603171509306/03/09 17:15:31  5-MIN KMSN 032315Z 02008KT 10SM CLR 19/04 A3012 680 38 1300 020/08 RMK AO2
14837KMSN MSN20090603172009306/03/09 17:20:31  5-MIN KMSN 032320Z 02008KT 10SM CLR 19/04 A3012 680 38 1300 020/08 RMK AO2
14837KMSN MSN20090603172509306/03/09 17:25:31  5-MIN KMSN 032325Z 05004KT 10SM CLR 19/04 A3012 680 38 1300 040/04 RMK AO2
14837KMSN MSN20090603173009606/03/09 17:30:31  5-MIN KMSN 032330Z 06004KT 10SM FEW060 18/04 A3011 680 39 1300 060/04 RMK AO2
14837KMSN MSN20090603173509606/03/09 17:35:31  5-MIN KMSN 032335Z 07006KT 10SM FEW060 18/04 A3012 680 39 1300 070/06 RMK AO2
14837KMSN MSN20090603174009606/03/09 17:40:31  5-MIN KMSN 032340Z 05005KT 10SM FEW060 18/05 A3011 690 41 1300 050/05 RMK AO2
14837KMSN MSN20090603174509606/03/09 17:45:31  5-MIN KMSN 032345Z 04006KT 10SM FEW060 18/05 A3011 690 41 1300 040/06 RMK AO2
14837KMSN MSN20090603175013106/03/09 17:50:31  5-MIN KMSN 032350Z 03006KT 10SM FEW060 18/04 A3011 690 39 1300 020/06 RMK AO2 SLP198 T01830044 10200 20172 56018
14837KMSN MSN20090603175509306/03/09 17:55:31  5-MIN KMSN 032355Z 04007KT 10SM CLR 18/04 A3011 690 39 1300 040/07 RMK AO2
14837KMSN MSN20090603180009606/03/09 18:00:31  5-MIN KMSN 040000Z 05006KT 10SM FEW060 18/04 A3012 680 41 1200 050/06 RMK AO2
14837KMSN MSN20090603180509606/03/09 18:05:31  5-MIN KMSN 040005Z 03005KT 10SM FEW060 18/04 A3012 680 41 1200 030/05 RMK AO2
14837KMSN MSN20090603181009606/03/09 18:10:31  5-MIN KMSN 040010Z 02005KT 10SM FEW060 18/05 A3012 680 42 1200 020/05 RMK AO2
14837KMSN MSN20090603181509606/03/09 18:15:31  5-MIN KMSN 040015Z 01004KT 10SM FEW060 18/05 A3012 680 42 1200 010/04 RMK AO2
14837KMSN MSN20090603182009606/03/09 18:20:31  5-MIN KMSN 040020Z 05006KT 10SM FEW060 18/05 A3012 680 42 1200 050/06 RMK AO2
14837KMSN MSN20090603182509606/03/09 18:25:31  5-MIN KMSN 040025Z 06005KT 10SM FEW060 17/05 A3012 680 44 1100 060/05 RMK AO2
14837KMSN MSN20090603183009606/03/09 18:30:31  5-MIN KMSN 040030Z 05006KT 10SM FEW060 17/04 A3012 680 42 1100 050/06 RMK AO2
14837KMSN MSN20090603183509606/03/09 18:35:31  5-MIN KMSN 040035Z 05006KT 10SM FEW060 17/05 A3012 680 44 1100 040/06 RMK AO2
14837KMSN MSN20090603184009606/03/09 18:40:31  5-MIN KMSN 040040Z 04008KT 10SM FEW060 17/04 A3012 680 42 1100 040/08 RMK AO2
14837KMSN MSN20090603184509606/03/09 18:45:31  5-MIN KMSN 040045Z 06005KT 10SM FEW060 17/05 A3012 680 45 1100 050/05 RMK AO2
14837KMSN MSN20090603185011306/03/09 18:50:31  5-MIN KMSN 040050Z 06004KT 10SM FEW060 16/06 A3012 680 49 1000 060/04 RMK AO2 SLP200 T01610056
14837KMSN MSN20090603185509306/03/09 18:55:31  5-MIN KMSN 040055Z 06005KT 10SM CLR 16/06 A3012 680 49 1000 060/05 RMK AO2
14837KMSN MSN20090603190009206/03/09 19:00:31  5-MIN KMSN 040100Z 08006KT 10SM CLR 16/06 A3012 680 51 900 080/06 RMK AO2
14837KMSN MSN20090603190509206/03/09 19:05:31  5-MIN KMSN 040105Z 08006KT 10SM CLR 15/05 A3012 680 51 900 080/06 RMK AO2
14837KMSN MSN20090603191009206/03/09 19:10:31  5-MIN KMSN 040110Z 10010KT 10SM CLR 15/05 A3012 680 51 900 100/10 RMK AO2
14837KMSN MSN20090603191509206/03/09 19:15:31  5-MIN KMSN 040115Z 10008KT 10SM CLR 16/04 A3012 680 47 900 100/08 RMK AO2
14837KMSN MSN20090603192009206/03/09 19:20:31  5-MIN KMSN 040120Z 11007KT 10SM CLR 15/05 A3012 680 51 900 110/07 RMK AO2
14837KMSN MSN20090603192509206/03/09 19:25:31  5-MIN KMSN 040125Z 11009KT 10SM CLR 14/05 A3012 680 53 800 110/09 RMK AO2
14837KMSN MSN20090603193009206/03/09 19:30:31  5-MIN KMSN 040130Z 11009KT 10SM CLR 14/05 A3012 680 53 800 110/09 RMK AO2
14837KMSN MSN20090603193509206/03/09 19:35:31  5-MIN KMSN 040135Z 11009KT 10SM CLR 14/05 A3012 680 55 700 110/09 RMK AO2
14837KMSN MSN20090603194009206/03/09 19:40:31  5-MIN KMSN 040140Z 11008KT 10SM CLR 14/05 A3012 680 55 700 110/08 RMK AO2
14837KMSN MSN20090603194509206/03/09 19:45:31  5-MIN KMSN 040145Z 11008KT 10SM CLR 14/05 A3012 680 55 700 110/08 RMK AO2
14837KMSN MSN20090603195010906/03/09 19:50:31  5-MIN KMSN 040150Z 11007KT 10SM CLR 13/05 A3012 680 57 700 110/07 RMK AO2 SLP200 T01330050
14837KMSN MSN20090603195509206/03/09 19:55:31  5-MIN KMSN 040155Z 11007KT 10SM CLR 13/05 A3012 680 57 700 110/07 RMK AO2
14837KMSN MSN20090603200009206/03/09 20:00:31  5-MIN KMSN 040200Z 11006KT 10SM CLR 13/05 A3012 680 57 700 110/06 RMK AO2
14837KMSN MSN20090603200509206/03/09 20:05:31  5-MIN KMSN 040205Z 11006KT 10SM CLR 13/05 A3013 680 57 700 110/06 RMK AO2
14837KMSN MSN20090603201009206/03/09 20:10:31  5-MIN KMSN 040210Z 12006KT 10SM CLR 13/05 A3013 680 57 700 120/06 RMK AO2
14837KMSN MSN20090603201509206/03/09 20:15:31  5-MIN KMSN 040215Z 13007KT 10SM CLR 13/05 A3013 670 59 600 120/07 RMK AO2
14837KMSN MSN20090603202009206/03/09 20:20:31  5-MIN KMSN 040220Z 13007KT 10SM CLR 13/05 A3013 670 57 700 130/07 RMK AO2
14837KMSN MSN20090603202509206/03/09 20:25:31  5-MIN KMSN 040225Z 13007KT 10SM CLR 13/05 A3013 670 57 700 130/07 RMK AO2
14837KMSN MSN20090603203009206/03/09 20:30:31  5-MIN KMSN 040230Z 12007KT 10SM CLR 13/05 A3013 670 57 700 120/07 RMK AO2
14837KMSN MSN20090603203509206/03/09 20:35:31  5-MIN KMSN 040235Z 12005KT 10SM CLR 13/05 A3013 670 59 600 120/05 RMK AO2
14837KMSN MSN20090603204009206/03/09 20:40:31  5-MIN KMSN 040240Z 13006KT 10SM CLR 12/05 A3013 670 61 500 130/06 RMK AO2
14837KMSN MSN20090603204509206/03/09 20:45:31  5-MIN KMSN 040245Z 13007KT 10SM CLR 13/04 A3013 670 56 600 130/07 RMK AO2
14837KMSN MSN20090603205011506/03/09 20:50:31  5-MIN KMSN 040250Z 13006KT 10SM CLR 13/04 A3014 670 56 600 130/06 RMK AO2 SLP206 T01280044 56006
14837KMSN MSN20090603205509206/03/09 20:55:31  5-MIN KMSN 040255Z 13005KT 10SM CLR 13/04 A3014 660 56 600 130/05 RMK AO2
14837KMSN MSN20090603210009206/03/09 21:00:31  5-MIN KMSN 040300Z 15004KT 10SM CLR 13/04 A3014 660 56 600 140/04 RMK AO2
14837KMSN MSN20090603210509206/03/09 21:05:31  5-MIN KMSN 040305Z 15004KT 10SM CLR 13/04 A3014 660 56 600 150/04 RMK AO2
14837KMSN MSN20090603211009206/03/09 21:10:31  5-MIN KMSN 040310Z 15006KT 10SM CLR 13/04 A3014 660 56 600 150/06 RMK AO2
14837KMSN MSN20090603211509206/03/09 21:15:31  5-MIN KMSN 040315Z 15006KT 10SM CLR 12/04 A3014 660 59 500 150/06 RMK AO2
14837KMSN MSN20090603212009206/03/09 21:20:31  5-MIN KMSN 040320Z 15005KT 10SM CLR 12/04 A3014 660 59 500 150/05 RMK AO2
14837KMSN MSN20090603212509206/03/09 21:25:31  5-MIN KMSN 040325Z 14005KT 10SM CLR 12/04 A3014 660 59 500 140/05 RMK AO2
14837KMSN MSN20090603213009206/03/09 21:30:31  5-MIN KMSN 040330Z 14006KT 10SM CLR 12/04 A3014 660 59 500 140/06 RMK AO2
14837KMSN MSN20090603213509206/03/09 21:35:31  5-MIN KMSN 040335Z 14005KT 10SM CLR 12/04 A3014 660 59 500 140/05 RMK AO2
14837KMSN MSN20090603214009206/03/09 21:40:31  5-MIN KMSN 040340Z 15004KT 10SM CLR 12/04 A3014 660 61 500 150/04 RMK AO2
14837KMSN MSN20090603214509206/03/09 21:45:31  5-MIN KMSN 040345Z 15006KT 10SM CLR 12/04 A3014 660 61 500 150/06 RMK AO2
14837KMSN MSN20090603215010906/03/09 21:50:31  5-MIN KMSN 040350Z 14006KT 10SM CLR 12/04 A3015 660 61 500 140/06 RMK AO2 SLP209 T01170044
14837KMSN MSN20090603215509206/03/09 21:55:31  5-MIN KMSN 040355Z 13005KT 10SM CLR 12/04 A3014 660 61 500 130/05 RMK AO2
14837KMSN MSN20090603220009206/03/09 22:00:31  5-MIN KMSN 040400Z 14004KT 10SM CLR 11/04 A3014 660 63 400 140/04 RMK AO2
14837KMSN MSN20090603220509206/03/09 22:05:31  5-MIN KMSN 040405Z 13005KT 10SM CLR 11/04 A3014 660 63 400 130/05 RMK AO2
14837KMSN MSN20090603221009206/03/09 22:10:31  5-MIN KMSN 040410Z 13005KT 10SM CLR 11/04 A3014 660 63 400 130/05 RMK AO2
14837KMSN MSN20090603221509206/03/09 22:15:31  5-MIN KMSN 040415Z 14005KT 10SM CLR 11/04 A3014 660 63 400 130/05 RMK AO2
14837KMSN MSN20090603222009206/03/09 22:20:31  5-MIN KMSN 040420Z 13006KT 10SM CLR 11/04 A3014 660 61 400 130/06 RMK AO2
14837KMSN MSN20090603222509206/03/09 22:25:31  5-MIN KMSN 040425Z 14004KT 10SM CLR 11/04 A3014 660 63 400 140/04 RMK AO2
14837KMSN MSN20090603223009206/03/09 22:30:31  5-MIN KMSN 040430Z 14005KT 10SM CLR 11/04 A3015 660 63 400 140/05 RMK AO2
14837KMSN MSN20090603223509206/03/09 22:35:31  5-MIN KMSN 040435Z 14005KT 10SM CLR 11/04 A3015 660 61 400 140/05 RMK AO2
14837KMSN MSN20090603224009206/03/09 22:40:31  5-MIN KMSN 040440Z 15005KT 10SM CLR 11/04 A3015 660 63 400 150/05 RMK AO2
14837KMSN MSN20090603224509206/03/09 22:45:31  5-MIN KMSN 040445Z 14007KT 10SM CLR 11/04 A3014 660 63 400 140/07 RMK AO2
14837KMSN MSN20090603225010906/03/09 22:50:31  5-MIN KMSN 040450Z 16007KT 10SM CLR 11/04 A3014 660 61 400 160/07 RMK AO2 SLP208 T01110039
14837KMSN MSN20090603225509206/03/09 22:55:31  5-MIN KMSN 040455Z 15005KT 10SM CLR 11/04 A3014 660 63 400 150/05 RMK AO2
14837KMSN MSN20090603230009206/03/09 23:00:31  5-MIN KMSN 040500Z 18005KT 10SM CLR 11/04 A3014 660 61 400 180/05 RMK AO2
14837KMSN MSN20090603230509206/03/09 23:05:31  5-MIN KMSN 040505Z 18005KT 10SM CLR 12/04 A3014 660 58 500 180/05 RMK AO2
14837KMSN MSN20090603231009206/03/09 23:10:31  5-MIN KMSN 040510Z 18004KT 10SM CLR 11/04 A3014 660 61 400 180/04 RMK AO2
14837KMSN MSN20090603231509206/03/09 23:15:31  5-MIN KMSN 040515Z 19003KT 10SM CLR 11/04 A3014 660 61 400 190/03 RMK AO2
14837KMSN MSN20090603232009206/03/09 23:20:31  5-MIN KMSN 040520Z 19003KT 10SM CLR 11/04 A3014 660 63 400 190/03 RMK AO2
14837KMSN MSN20090603232509206/03/09 23:25:31  5-MIN KMSN 040525Z 19003KT 10SM CLR 11/04 A3014 660 66 300 190/03 RMK AO2
14837KMSN MSN20090603233009206/03/09 23:30:31  5-MIN KMSN 040530Z 00000KT 10SM CLR 11/04 A3014 660 66 300 000/00 RMK AO2
14837KMSN MSN20090603233509206/03/09 23:35:31  5-MIN KMSN 040535Z 00000KT 10SM CLR 09/04 A3014 660 71 200 000/00 RMK AO2
14837KMSN MSN20090603234009206/03/09 23:40:31  5-MIN KMSN 040540Z 00000KT 10SM CLR 10/04 A3014 660 68 300 000/00 RMK AO2
14837KMSN MSN20090603234509206/03/09 23:45:31  5-MIN KMSN 040545Z 00000KT 10SM CLR 09/04 A3014 660 71 200 000/00 RMK AO2
14837KMSN MSN20090603235013706/03/09 23:50:31  5-MIN KMSN 040550Z 00000KT 10SM CLR 09/04 A3014 660 73 100 000/00 RMK AO2 SLP207 T00890044 10183 20089 402000089 53007
14837KMSN MSN20090603235509206/03/09 23:55:31  5-MIN KMSN 040555Z 00000KT 10SM CLR 08/04 A3014 660 76 100 000/00 RMK AO2
14837KMSN MSN20090604000009206/04/09 00:00:32  5-MIN KMSN 040600Z 00000KT 10SM CLR 08/04 A3014 660 76 100 000/00 RMK AO2
14837KMSN MSN20090604000509206/04/09 00:05:31  5-MIN KMSN 040605Z 00000KT 10SM CLR 09/04 A3014 660 73 100 000/00 RMK AO2
14837KMSN MSN20090604001009206/04/09 00:10:31  5-MIN KMSN 040610Z 00000KT 10SM CLR 08/04 A3014 660 76 100 000/00 RMK AO2
14837KMSN MSN20090604001509006/04/09 00:15:31  5-MIN KMSN 040615Z 00000KT 10SM CLR 08/04 A3014 660 79 0 000/00 RMK AO2
14837KMSN MSN20090604002009206/04/09 00:20:31  5-MIN KMSN 040620Z 00000KT 10SM CLR 08/04 A3014 660 76 100 000/00 RMK AO2
14837KMSN MSN20090604002509006/04/09 00:25:31  5-MIN KMSN 040625Z 00000KT 10SM CLR 08/04 A3014 660 79 0 000/00 RMK AO2
14837KMSN MSN20090604003009006/04/09 00:30:31  5-MIN KMSN 040630Z 00000KT 10SM CLR 07/04 A3014 660 82 0 000/00 RMK AO2
14837KMSN MSN20090604003509006/04/09 00:35:31  5-MIN KMSN 040635Z 00000KT 10SM CLR 08/04 A3014 660 79 0 000/00 RMK AO2
14837KMSN MSN20090604004009006/04/09 00:40:31  5-MIN KMSN 040640Z 00000KT 10SM CLR 08/04 A3014 660 79 0 000/00 RMK AO2
14837KMSN MSN20090604004509006/04/09 00:45:31  5-MIN KMSN 040645Z 00000KT 10SM CLR 08/04 A3014 660 79 0 000/00 RMK AO2
14837KMSN MSN20090604005010706/04/09 00:50:31  5-MIN KMSN 040650Z 00000KT 10SM CLR 07/04 A3014 660 82 0 000/00 RMK AO2 SLP207 T00720044
14837KMSN MSN20090604005509006/04/09 00:55:31  5-MIN KMSN 040655Z 00000KT 10SM CLR 07/04 A3014 660 82 0 000/00 RMK AO2
14837KMSN MSN20090604010009006/04/09 01:00:31  5-MIN KMSN 040700Z 00000KT 10SM CLR 08/04 A3014 660 79 0 000/00 RMK AO2
14837KMSN MSN20090604010509006/04/09 01:05:31  5-MIN KMSN 040705Z 00000KT 10SM CLR 07/04 A3014 660 82 0 000/00 RMK AO2
14837KMSN MSN20090604011009006/04/09 01:10:31  5-MIN KMSN 040710Z 00000KT 10SM CLR 07/04 A3014 660 82 0 000/00 RMK AO2
14837KMSN MSN20090604011509006/04/09 01:15:31  5-MIN KMSN 040715Z 00000KT 10SM CLR 07/04 A3014 660 82 0 000/00 RMK AO2
14837KMSN MSN20090604012009006/04/09 01:20:31  5-MIN KMSN 040720Z 00000KT 10SM CLR 07/04 A3014 660 79 0 000/00 RMK AO2
14837KMSN MSN20090604012509306/04/09 01:25:31  5-MIN KMSN 040725Z 00000KT 10SM CLR 06/04 A3014 660 86 -200 000/00 RMK AO2
14837KMSN MSN20090604013009306/04/09 01:30:31  5-MIN KMSN 040730Z 00000KT 10SM CLR 07/04 A3014 660 82 -100 000/00 RMK AO2
14837KMSN MSN20090604013509306/04/09 01:35:31  5-MIN KMSN 040735Z 00000KT 10SM CLR 07/04 A3014 670 86 -100 000/00 RMK AO2
14837KMSN MSN20090604014009006/04/09 01:40:31  5-MIN KMSN 040740Z 00000KT 10SM CLR 07/04 A3013 670 82 0 000/00 RMK AO2
14837KMSN MSN20090604014509306/04/09 01:45:31  5-MIN KMSN 040745Z 00000KT 10SM CLR 07/04 A3013 670 86 -100 000/00 RMK AO2
14837KMSN MSN20090604015011006/04/09 01:50:31  5-MIN KMSN 040750Z 00000KT 10SM CLR 06/04 A3013 670 89 -200 000/00 RMK AO2 SLP206 T00610044
14837KMSN MSN20090604015509306/04/09 01:55:31  5-MIN KMSN 040755Z 00000KT 10SM CLR 06/04 A3013 670 92 -200 000/00 RMK AO2
14837KMSN MSN20090604020009306/04/09 02:00:31  5-MIN KMSN 040800Z 00000KT 10SM CLR 06/04 A3013 670 92 -200 000/00 RMK AO2
14837KMSN MSN20090604020509306/04/09 02:05:31  5-MIN KMSN 040805Z 00000KT 10SM CLR 06/04 A3013 670 92 -200 000/00 RMK AO2
14837KMSN MSN20090604021009306/04/09 02:10:31  5-MIN KMSN 040810Z 00000KT 10SM CLR 06/04 A3013 670 89 -100 000/00 RMK AO2
14837KMSN MSN20090604021509306/04/09 02:15:31  5-MIN KMSN 040815Z 00000KT 10SM CLR 06/04 A3013 670 92 -200 000/00 RMK AO2
14837KMSN MSN20090604022009306/04/09 02:20:31  5-MIN KMSN 040820Z 00000KT 10SM CLR 06/04 A3013 670 92 -200 000/00 RMK AO2
14837KMSN MSN20090604022509306/04/09 02:25:31  5-MIN KMSN 040825Z 33003KT 10SM CLR 06/04 A3013 670 92 -200 330/03 RMK AO2
14837KMSN MSN20090604023009306/04/09 02:30:31  5-MIN KMSN 040830Z 00000KT 10SM CLR 06/04 A3013 680 89 -100 000/00 RMK AO2
14837KMSN MSN20090604023509306/04/09 02:35:31  5-MIN KMSN 040835Z 00000KT 10SM CLR 06/04 A3012 680 89 -100 000/00 RMK AO2
14837KMSN MSN20090604024009306/04/09 02:40:31  5-MIN KMSN 040840Z 00000KT 10SM CLR 06/04 A3012 680 92 -200 000/00 RMK AO2
14837KMSN MSN20090604024509306/04/09 02:45:31  5-MIN KMSN 040845Z 00000KT 10SM CLR 06/04 A3012 680 92 -200 000/00 RMK AO2
14837KMSN MSN20090604025011606/04/09 02:50:31  5-MIN KMSN 040850Z 00000KT 10SM CLR 06/04 A3012 680 92 -200 000/00 RMK AO2 SLP202 T00560044 50001
14837KMSN MSN20090604025509306/04/09 02:55:31  5-MIN KMSN 040855Z 00000KT 10SM CLR 06/04 A3012 680 92 -200 000/00 RMK AO2
14837KMSN MSN20090604030009306/04/09 03:00:31  5-MIN KMSN 040900Z 00000KT 10SM CLR 06/04 A3012 680 89 -100 000/00 RMK AO2
14837KMSN MSN20090604030509306/04/09 03:05:31  5-MIN KMSN 040905Z 00000KT 10SM CLR 06/04 A3013 680 92 -200 000/00 RMK AO2
14837KMSN MSN20090604031009306/04/09 03:10:31  5-MIN KMSN 040910Z 00000KT 10SM CLR 05/04 A3013 670 92 -300 000/00 RMK AO2
14837KMSN MSN20090604031509306/04/09 03:15:31  5-MIN KMSN 040915Z 00000KT 10SM CLR 06/04 A3013 670 92 -200 000/00 RMK AO2
14837KMSN MSN20090604032009306/04/09 03:20:31  5-MIN KMSN 040920Z 00000KT 10SM CLR 06/04 A3013 670 92 -200 000/00 RMK AO2
14837KMSN MSN20090604032509306/04/09 03:25:31  5-MIN KMSN 040925Z 00000KT 10SM CLR 06/04 A3013 670 89 -100 000/00 RMK AO2
14837KMSN MSN20090604033009306/04/09 03:30:31  5-MIN KMSN 040930Z 00000KT 10SM CLR 06/04 A3013 670 92 -200 000/00 RMK AO2
14837KMSN MSN20090604033509306/04/09 03:35:31  5-MIN KMSN 040935Z 00000KT 10SM CLR 05/04 A3013 670 92 -300 000/00 RMK AO2
14837KMSN MSN20090604034009306/04/09 03:40:31  5-MIN KMSN 040940Z 00000KT 10SM CLR 05/04 A3013 670 92 -300 000/00 RMK AO2
14837KMSN MSN20090604034509306/04/09 03:45:31  5-MIN KMSN 040945Z 00000KT 10SM CLR 06/04 A3013 670 92 -200 000/00 RMK AO2
14837KMSN MSN20090604035011006/04/09 03:50:31  5-MIN KMSN 040950Z 00000KT 10SM CLR 04/04 A3013 670 96 -400 000/00 RMK AO2 SLP204 T00440039
14837KMSN MSN20090604035509306/04/09 03:55:31  5-MIN KMSN 040955Z 00000KT 10SM CLR 05/04 A3013 670 92 -300 000/00 RMK AO2
14837KMSN MSN20090604040009306/04/09 04:00:31  5-MIN KMSN 041000Z 00000KT 10SM CLR 06/04 A3012 680 89 -200 000/00 RMK AO2
14837KMSN MSN20090604040509306/04/09 04:05:31  5-MIN KMSN 041005Z 00000KT 10SM CLR 06/04 A3012 680 92 -200 000/00 RMK AO2
14837KMSN MSN20090604041009306/04/09 04:10:31  5-MIN KMSN 041010Z 00000KT 10SM CLR 06/04 A3012 680 92 -200 000/00 RMK AO2
14837KMSN MSN20090604041509306/04/09 04:15:31  5-MIN KMSN 041015Z 00000KT 10SM CLR 06/04 A3012 680 89 -200 000/00 RMK AO2
14837KMSN MSN20090604042009306/04/09 04:20:31  5-MIN KMSN 041020Z 00000KT 10SM CLR 05/04 A3012 680 92 -300 000/00 RMK AO2
14837KMSN MSN20090604042509306/04/09 04:25:31  5-MIN KMSN 041025Z 00000KT 10SM CLR 04/04 A3012 680 96 -300 000/00 RMK AO2
14837KMSN MSN20090604043009306/04/09 04:30:31  5-MIN KMSN 041030Z 00000KT 10SM CLR 04/04 A3012 680 96 -300 000/00 RMK AO2
14837KMSN MSN20090604043509306/04/09 04:35:31  5-MIN KMSN 041035Z 00000KT 10SM CLR 05/04 A3012 680 92 -300 000/00 RMK AO2
14837KMSN MSN20090604044009206/04/09 04:40:31  5-MIN KMSN 041040Z 00000KT 9SM CLR 05/04 A3012 680 96 -300 000/00 RMK AO2
14837KMSN MSN20090604044509206/04/09 04:45:31  5-MIN KMSN 041045Z 00000KT 9SM CLR 05/04 A3012 680 96 -300 000/00 RMK AO2
14837KMSN MSN20090604045010906/04/09 04:50:31  5-MIN KMSN 041050Z 00000KT 9SM CLR 05/04 A3012 680 96 -300 000/00 RMK AO2 SLP202 T00500044
14837KMSN MSN20090604045509206/04/09 04:55:31  5-MIN KMSN 041055Z 00000KT 9SM CLR 06/04 A3012 680 92 -200 000/00 RMK AO2
14837KMSN MSN20090604050009306/04/09 05:00:31  5-MIN KMSN 041100Z 00000KT 10SM CLR 06/04 A3012 680 92 -200 000/00 RMK AO2
14837KMSN MSN20090604050509306/04/09 05:05:31  5-MIN KMSN 041105Z 00000KT 10SM CLR 06/05 A3012 680 93 -100 000/00 RMK AO2
14837KMSN MSN20090604051009306/04/09 05:10:31  5-MIN KMSN 041110Z 00000KT 10SM CLR 06/05 A3012 680 93 -100 000/00 RMK AO2
14837KMSN MSN20090604060509206/04/09 06:05:31  5-MIN KMSN 041205Z 00000KT 10SM CLR 10/07 A3012 680 80 300 000/00 RMK AO2
14837KMSN MSN20090604061009206/04/09 06:10:31  5-MIN KMSN 041210Z 00000KT 10SM CLR 10/07 A3012 680 80 300 000/00 RMK AO2
14837KMSN MSN20090604061509206/04/09 06:15:31  5-MIN KMSN 041215Z 00000KT 10SM CLR 10/07 A3012 680 80 300 000/00 RMK AO2
14837KMSN MSN20090604062009206/04/09 06:20:31  5-MIN KMSN 041220Z 00000KT 10SM CLR 10/07 A3012 680 80 300 000/00 RMK AO2
14837KMSN MSN20090604062509206/04/09 06:25:31  5-MIN KMSN 041225Z 00000KT 10SM CLR 11/07 A3012 680 80 400 000/00 RMK AO2
14837KMSN MSN20090604063009206/04/09 06:30:31  5-MIN KMSN 041230Z 00000KT 10SM CLR 11/07 A3011 690 77 400 000/00 RMK AO2
14837KMSN MSN20090604063509206/04/09 06:35:31  5-MIN KMSN 041235Z 00000KT 10SM CLR 11/07 A3011 690 77 400 000/00 RMK AO2
14837KMSN MSN20090604064009206/04/09 06:40:31  5-MIN KMSN 041240Z 00000KT 10SM CLR 11/08 A3011 690 80 400 000/00 RMK AO2
14837KMSN MSN20090604064509206/04/09 06:45:31  5-MIN KMSN 041245Z 00000KT 10SM CLR 12/08 A3011 690 77 500 000/00 RMK AO2
14837KMSN MSN20090604065010906/04/09 06:50:31  5-MIN KMSN 041250Z 00000KT 10SM CLR 12/08 A3011 690 77 500 000/00 RMK AO2 SLP198 T01170078
14837KMSN MSN20090604065509206/04/09 06:55:31  5-MIN KMSN 041255Z 00000KT 10SM CLR 12/08 A3011 690 74 600 000/00 RMK AO2
14837KMSN MSN20090604070009206/04/09 07:00:31  5-MIN KMSN 041300Z 00000KT 10SM CLR 13/08 A3011 690 74 600 000/00 RMK AO2
14837KMSN MSN20090604070509206/04/09 07:05:31  5-MIN KMSN 041305Z 00000KT 10SM CLR 13/08 A3011 690 69 700 000/00 RMK AO2
14837KMSN MSN20090604071009206/04/09 07:10:31  5-MIN KMSN 041310Z 00000KT 10SM CLR 14/08 A3011 690 69 800 000/00 RMK AO2
14837KMSN MSN20090604071509206/04/09 07:15:31  5-MIN KMSN 041315Z 00000KT 10SM CLR 14/08 A3011 690 66 800 000/00 RMK AO2
14837KMSN MSN20090604072009206/04/09 07:20:31  5-MIN KMSN 041320Z 00000KT 10SM CLR 14/08 A3011 690 64 800 000/00 RMK AO2
14837KMSN MSN20090604072509206/04/09 07:25:31  5-MIN KMSN 041325Z 00000KT 10SM CLR 14/08 A3011 690 64 800 000/00 RMK AO2
14837KMSN MSN20090604073009206/04/09 07:30:31  5-MIN KMSN 041330Z 00000KT 10SM CLR 14/07 A3011 690 61 800 000/00 RMK AO2
14837KMSN MSN20090604073509206/04/09 07:35:31  5-MIN KMSN 041335Z 00000KT 10SM CLR 14/08 A3011 690 64 800 000/00 RMK AO2
14837KMSN MSN20090604074009206/04/09 07:40:31  5-MIN KMSN 041340Z 00000KT 10SM CLR 15/08 A3011 690 62 900 000/00 RMK AO2
14837KMSN MSN20090604074509206/04/09 07:45:31  5-MIN KMSN 041345Z 00000KT 10SM CLR 15/07 A3011 690 57 900 000/00 RMK AO2
14837KMSN MSN20090604075011006/04/09 07:50:31  5-MIN KMSN 041350Z 00000KT 10SM CLR 16/07 A3011 690 55 1000 000/00 RMK AO2 SLP198 T01560067
14837KMSN MSN20090604075509306/04/09 07:55:31  5-MIN KMSN 041355Z 00000KT 10SM CLR 16/04 A3011 690 47 1000 000/00 RMK AO2
14837KMSN MSN20090604080009306/04/09 08:00:31  5-MIN KMSN 041400Z 00000KT 10SM CLR 16/05 A3011 690 49 1000 000/00 RMK AO2
14837KMSN MSN20090604080509306/04/09 08:05:31  5-MIN KMSN 041405Z 00000KT 10SM CLR 16/04 A3012 680 45 1000 000/00 RMK AO2
14837KMSN MSN20090604081009306/04/09 08:10:31  5-MIN KMSN 041410Z VRB03KT 10SM CLR 16/04 A3012 680 45 1000 VRB/03 RMK AO2
14837KMSN MSN20090604081509306/04/09 08:15:31  5-MIN KMSN 041415Z 00000KT 10SM CLR 16/04 A3012 680 44 1000 000/00 RMK AO2
14837KMSN MSN20090604082009306/04/09 08:20:31  5-MIN KMSN 041420Z 00000KT 10SM CLR 16/03 A3012 680 40 1000 000/00 RMK AO2
14837KMSN MSN20090604082509306/04/09 08:25:31  5-MIN KMSN 041425Z 00000KT 10SM CLR 16/02 A3012 680 39 1000 000/00 RMK AO2
14837KMSN MSN20090604083009306/04/09 08:30:31  5-MIN KMSN 041430Z 00000KT 10SM CLR 16/02 A3012 680 37 1000 000/00 RMK AO2
14837KMSN MSN20090604083509306/04/09 08:35:31  5-MIN KMSN 041435Z 00000KT 10SM CLR 17/02 A3012 680 36 1100 000/00 RMK AO2
14837KMSN MSN20090604084009306/04/09 08:40:31  5-MIN KMSN 041440Z 00000KT 10SM CLR 17/01 A3012 680 33 1100 000/00 RMK AO2
14837KMSN MSN20090604084509306/04/09 08:45:31  5-MIN KMSN 041445Z VRB05KT 10SM CLR 17/00 A3012 680 32 1100 VRB/05 RMK AO2
14837KMSN MSN20090604085011706/04/09 08:50:31  5-MIN KMSN 041450Z 28003KT 10SM CLR 17/M03 A3011 690 26 1100 280/03 RMK AO2 SLP198 T01671028 58002
14837KMSN MSN20090604085509306/04/09 08:55:31  5-MIN KMSN 041455Z 00000KT 10SM CLR 17/01 A3011 690 34 1100 000/00 RMK AO2
14837KMSN MSN20090604090009306/04/09 09:00:31  5-MIN KMSN 041500Z VRB03KT 10SM CLR 17/02 A3011 690 36 1100 VRB/03 RMK AO2
14837KMSN MSN20090604090509306/04/09 09:05:31  5-MIN KMSN 041505Z 23003KT 10SM CLR 17/03 A3011 690 37 1100 230/03 RMK AO2
14837KMSN MSN20090604091009306/04/09 09:10:31  5-MIN KMSN 041510Z 19005KT 10SM CLR 17/03 A3011 690 39 1100 190/05 RMK AO2
14837KMSN MSN20090604091509306/04/09 09:15:31  5-MIN KMSN 041515Z 25004KT 10SM CLR 17/03 A3011 690 39 1200 250/04 RMK AO2
14837KMSN MSN20090604092009306/04/09 09:20:31  5-MIN KMSN 041520Z 00000KT 10SM CLR 17/02 A3011 690 36 1200 000/00 RMK AO2
14837KMSN MSN20090604092509306/04/09 09:25:31  5-MIN KMSN 041525Z 00000KT 10SM CLR 18/03 A3011 690 38 1200 000/00 RMK AO2
14837KMSN MSN20090604093009306/04/09 09:30:31  5-MIN KMSN 041530Z 20006KT 10SM CLR 18/04 A3010 700 39 1200 190/06 RMK AO2
14837KMSN MSN20090604093509306/04/09 09:35:31  5-MIN KMSN 041535Z 19007KT 10SM CLR 18/04 A3010 700 41 1200 190/07 RMK AO2
14837KMSN MSN20090604094009306/04/09 09:40:31  5-MIN KMSN 041540Z 18006KT 10SM CLR 18/05 A3010 700 41 1300 180/06 RMK AO2
14837KMSN MSN20090604094509306/04/09 09:45:31  5-MIN KMSN 041545Z 21006KT 10SM CLR 18/04 A3010 700 41 1200 210/06 RMK AO2
14837KMSN MSN20090604095011006/04/09 09:50:31  5-MIN KMSN 041550Z 20005KT 10SM CLR 18/05 A3010 700 41 1300 200/05 RMK AO2 SLP192 T01830050
14837KMSN MSN20090604095509606/04/09 09:55:31  5-MIN KMSN 041555Z 20005KT 10SM FEW050 18/05 A3010 700 41 1300 200/05 RMK AO2
14837KMSN MSN20090604100009606/04/09 10:00:31  5-MIN KMSN 041600Z VRB05KT 10SM FEW050 18/04 A3010 700 39 1300 VRB/05 RMK AO2
14837KMSN MSN20090604100509606/04/09 10:05:31  5-MIN KMSN 041605Z 21006KT 10SM FEW050 18/05 A3010 700 41 1300 210/06 RMK AO2
14837KMSN MSN20090604101009606/04/09 10:10:31  5-MIN KMSN 041610Z 18006KT 10SM FEW050 18/05 A3010 700 41 1300 180/06 RMK AO2
14837KMSN MSN20090604101509606/04/09 10:15:31  5-MIN KMSN 041615Z 20005KT 10SM FEW050 19/05 A3009 700 39 1400 200/05 RMK AO2
14837KMSN MSN20090604102009606/04/09 10:20:31  5-MIN KMSN 041620Z 21006KT 10SM FEW050 18/04 A3009 700 39 1300 210/06 RMK AO2
14837KMSN MSN20090604102509606/04/09 10:25:31  5-MIN KMSN 041625Z VRB06KT 10SM SCT050 18/05 A3009 710 41 1300 VRB/06 RMK AO2
14837KMSN MSN20090604103009606/04/09 10:30:31  5-MIN KMSN 041630Z 20005KT 10SM SCT050 18/04 A3009 710 38 1300 200/05 RMK AO2
14837KMSN MSN20090604103509606/04/09 10:35:31  5-MIN KMSN 041635Z 19006KT 10SM SCT050 19/04 A3009 710 38 1400 190/06 RMK AO2
14837KMSN MSN20090604104009606/04/09 10:40:31  5-MIN KMSN 041640Z VRB03KT 10SM SCT050 19/04 A3009 710 36 1400 VRB/03 RMK AO2
14837KMSN MSN20090604104509606/04/09 10:45:31  5-MIN KMSN 041645Z 19007KT 10SM SCT050 19/04 A3009 710 38 1400 190/07 RMK AO2
14837KMSN MSN20090604105011306/04/09 10:50:31  5-MIN KMSN 041650Z VRB04KT 10SM SCT050 19/04 A3009 710 38 1400 VRB/04 RMK AO2 SLP188 T01890044
14837KMSN MSN20090604105509606/04/09 10:55:31  5-MIN KMSN 041655Z VRB03KT 10SM FEW065 19/04 A3008 710 36 1400 VRB/03 RMK AO2
14837KMSN MSN20090604110009606/04/09 11:00:31  5-MIN KMSN 041700Z 27004KT 10SM FEW060 19/04 A3008 720 38 1400 270/04 RMK AO2
14837KMSN MSN20090604110509606/04/09 11:05:31  5-MIN KMSN 041705Z 28006KT 10SM SCT065 19/04 A3008 720 38 1400 280/06 RMK AO2
14837KMSN MSN20090604111009606/04/09 11:10:31  5-MIN KMSN 041710Z 24006KT 10SM SCT065 19/04 A3008 720 38 1400 240/06 RMK AO2
14837KMSN MSN20090604111509606/04/09 11:15:31  5-MIN KMSN 041715Z 23005KT 10SM SCT065 19/04 A3008 720 36 1400 230/05 RMK AO2
14837KMSN MSN20090604112009606/04/09 11:20:31  5-MIN KMSN 041720Z VRB05KT 10SM SCT065 19/05 A3008 720 38 1400 VRB/05 RMK AO2
14837KMSN MSN20090604112509606/04/09 11:25:31  5-MIN KMSN 041725Z 00000KT 10SM SCT065 18/03 A3008 720 36 1300 000/00 RMK AO2
14837KMSN MSN20090604113009606/04/09 11:30:31  5-MIN KMSN 041730Z 00000KT 10SM SCT065 18/03 A3008 720 36 1300 000/00 RMK AO2
14837KMSN MSN20090604113509606/04/09 11:35:31  5-MIN KMSN 041735Z 00000KT 10SM FEW065 19/04 A3007 720 37 1400 000/00 RMK AO2
14837KMSN MSN20090604114009606/04/09 11:40:31  5-MIN KMSN 041740Z VRB03KT 10SM FEW065 19/04 A3007 720 37 1500 VRB/03 RMK AO2
14837KMSN MSN20090604114509606/04/09 11:45:31  5-MIN KMSN 041745Z 26005KT 10SM FEW065 19/05 A3007 730 38 1500 260/05 RMK AO2
14837KMSN MSN20090604115013106/04/09 11:50:31  5-MIN KMSN 041750Z VRB05KT 10SM FEW065 20/05 A3007 730 37 1500 VRB/05 RMK AO2 SLP183 T02000050 10200 20089 56001
14837KMSN MSN20090604115509306/04/09 11:55:31  5-MIN KMSN 041755Z 00000KT 10SM CLR 19/04 A3007 730 35 1500 000/00 RMK AO2
14837KMSN MSN20090604120009306/04/09 12:00:31  5-MIN KMSN 041800Z VRB03KT 10SM CLR 19/04 A3006 730 35 1500 VRB/03 RMK AO2
14837KMSN MSN20090604120509606/04/09 12:05:31  5-MIN KMSN 041805Z VRB06KT 10SM FEW065 20/04 A3006 730 34 1500 VRB/06 RMK AO2
14837KMSN MSN20090604121009606/04/09 12:10:31  5-MIN KMSN 041810Z 00000KT 10SM SCT065 19/04 A3006 730 35 1500 000/00 RMK AO2
14837KMSN MSN20090604121509606/04/09 12:15:31  5-MIN KMSN 041815Z 26005KT 10SM SCT065 19/04 A3006 730 35 1500 260/05 RMK AO2
14837KMSN MSN20090604122009606/04/09 12:20:31  5-MIN KMSN 041820Z 20003KT 10SM SCT065 20/04 A3006 740 35 1500 200/03 RMK AO2
14837KMSN MSN20090604122509606/04/09 12:25:31  5-MIN KMSN 041825Z 21007KT 10SM SCT065 21/04 A3006 740 34 1600 210/07 RMK AO2
14837KMSN MSN20090604123009606/04/09 12:30:31  5-MIN KMSN 041830Z 20007KT 10SM SCT065 20/04 A3006 740 34 1500 200/07 RMK AO2
14837KMSN MSN20090604123509606/04/09 12:35:31  5-MIN KMSN 041835Z VRB05KT 10SM SCT065 20/04 A3006 740 34 1500 VRB/05 RMK AO2
14837KMSN MSN20090604124009606/04/09 12:40:31  5-MIN KMSN 041840Z VRB03KT 10SM SCT065 21/04 A3005 740 34 1600 VRB/03 RMK AO2
14837KMSN MSN20090604124509606/04/09 12:45:31  5-MIN KMSN 041845Z VRB04KT 10SM SCT070 21/04 A3005 740 34 1600 VRB/04 RMK AO2
14837KMSN MSN20090604125011306/04/09 12:50:31  5-MIN KMSN 041850Z 23005KT 10SM SCT070 21/04 A3005 740 34 1600 230/05 RMK AO2 SLP177 T02060044
14837KMSN MSN20090604125509306/04/09 12:55:31  5-MIN KMSN 041855Z 28004KT 10SM CLR 20/04 A3005 750 34 1500 270/04 RMK AO2
14837KMSN MSN20090604130009306/04/09 13:00:31  5-MIN KMSN 041900Z 26004KT 10SM CLR 20/04 A3005 750 34 1500 260/04 RMK AO2
14837KMSN MSN20090604130509306/04/09 13:05:31  5-MIN KMSN 041905Z VRB04KT 10SM CLR 21/04 A3005 750 34 1600 VRB/04 RMK AO2
14837KMSN MSN20090604131009306/04/09 13:10:31  5-MIN KMSN 041910Z 31003KT 10SM CLR 21/04 A3004 750 33 1600 300/03 RMK AO2
14837KMSN MSN20090604131509306/04/09 13:15:31  5-MIN KMSN 041915Z VRB04KT 10SM CLR 21/04 A3004 750 34 1600 VRB/04 RMK AO2
14837KMSN MSN20090604132009306/04/09 13:20:31  5-MIN KMSN 041920Z VRB05KT 10SM CLR 20/04 A3004 750 34 1600 VRB/05 RMK AO2
14837KMSN MSN20090604132509306/04/09 13:25:31  5-MIN KMSN 041925Z 21007KT 10SM CLR 20/04 A3004 760 34 1600 210/07 RMK AO2
14837KMSN MSN20090604133009306/04/09 13:30:31  5-MIN KMSN 041930Z 23006KT 10SM CLR 21/03 A3004 760 32 1600 230/06 RMK AO2
14837KMSN MSN20090604133509306/04/09 13:35:31  5-MIN KMSN 041935Z VRB03KT 10SM CLR 21/04 A3004 760 33 1600 VRB/03 RMK AO2
14837KMSN MSN20090604134009306/04/09 13:40:31  5-MIN KMSN 041940Z 16004KT 10SM CLR 21/04 A3004 760 33 1600 150/04 RMK AO2
14837KMSN MSN20090604134509306/04/09 13:45:31  5-MIN KMSN 041945Z VRB03KT 10SM CLR 21/04 A3004 760 34 1600 VRB/03 RMK AO2
14837KMSN MSN20090604135011006/04/09 13:50:31  5-MIN KMSN 041950Z VRB05KT 10SM CLR 21/04 A3004 760 34 1600 VRB/05 RMK AO2 SLP172 T02060044
14837KMSN MSN20090604135509306/04/09 13:55:31  5-MIN KMSN 041955Z 27006KT 10SM CLR 21/04 A3003 760 33 1600 270/06 RMK AO2
14837KMSN MSN20090604140009306/04/09 14:00:31  5-MIN KMSN 042000Z 30004KT 10SM CLR 21/04 A3003 760 34 1600 300/04 RMK AO2
14837KMSN MSN20090604140509306/04/09 14:05:31  5-MIN KMSN 042005Z VRB05KT 10SM CLR 21/05 A3003 760 35 1600 VRB/05 RMK AO2
14837KMSN MSN20090604141009306/04/09 14:10:31  5-MIN KMSN 042010Z 27005KT 10SM CLR 21/04 A3003 760 33 1600 270/05 RMK AO2
14837KMSN MSN20090604141509306/04/09 14:15:31  5-MIN KMSN 042015Z 23006KT 10SM CLR 21/04 A3003 760 33 1700 230/06 RMK AO2
14837KMSN MSN20090604142009306/04/09 14:20:31  5-MIN KMSN 042020Z VRB04KT 10SM CLR 21/04 A3003 770 34 1600 VRB/04 RMK AO2
14837KMSN MSN20090604142509306/04/09 14:25:31  5-MIN KMSN 042025Z 00000KT 10SM CLR 21/04 A3002 770 33 1600 000/00 RMK AO2
14837KMSN MSN20090604143009306/04/09 14:30:31  5-MIN KMSN 042030Z 22006KT 10SM CLR 21/04 A3002 770 33 1600 220/06 RMK AO2
14837KMSN MSN20090604143509306/04/09 14:35:31  5-MIN KMSN 042035Z VRB05KT 10SM CLR 21/04 A3002 770 33 1700 VRB/05 RMK AO2
14837KMSN MSN20090604144009306/04/09 14:40:31  5-MIN KMSN 042040Z 19008KT 10SM CLR 21/05 A3002 770 34 1700 190/08 RMK AO2
14837KMSN MSN20090604144509306/04/09 14:45:31  5-MIN KMSN 042045Z VRB03KT 10SM CLR 21/04 A3002 770 34 1600 VRB/03 RMK AO2
14837KMSN MSN20090604145011606/04/09 14:50:31  5-MIN KMSN 042050Z VRB03KT 10SM CLR 21/05 A3002 770 34 1700 VRB/03 RMK AO2 SLP166 T02110050 56015
14837KMSN MSN20090604145509306/04/09 14:55:31  5-MIN KMSN 042055Z VRB03KT 10SM CLR 21/05 A3002 780 34 1700 VRB/03 RMK AO2
14837KMSN MSN20090604150009306/04/09 15:00:31  5-MIN KMSN 042100Z 19004KT 10SM CLR 21/04 A3001 780 33 1700 190/04 RMK AO2
14837KMSN MSN20090604150509306/04/09 15:05:31  5-MIN KMSN 042105Z 20007KT 10SM CLR 21/05 A3001 780 34 1700 200/07 RMK AO2
14837KMSN MSN20090604151009606/04/09 15:10:31  5-MIN KMSN 042110Z 21007KT 10SM FEW070 21/04 A3001 780 33 1700 210/07 RMK AO2
14837KMSN MSN20090604151509606/04/09 15:15:31  5-MIN KMSN 042115Z VRB03KT 10SM FEW070 21/04 A3001 780 33 1700 VRB/03 RMK AO2
14837KMSN MSN20090604152009606/04/09 15:20:31  5-MIN KMSN 042120Z VRB05KT 10SM FEW070 21/04 A3001 780 32 1700 VRB/05 RMK AO2
14837KMSN MSN20090604152509606/04/09 15:25:31  5-MIN KMSN 042125Z 24004KT 10SM FEW070 21/04 A3001 780 33 1700 240/04 RMK AO2
14837KMSN MSN20090604153009606/04/09 15:30:31  5-MIN KMSN 042130Z 00000KT 10SM FEW070 21/04 A3001 790 32 1700 000/00 RMK AO2
14837KMSN MSN20090604153509606/04/09 15:35:31  5-MIN KMSN 042135Z VRB04KT 10SM FEW070 21/04 A3001 790 33 1700 VRB/04 RMK AO2
14837KMSN MSN20090604154009606/04/09 15:40:31  5-MIN KMSN 042140Z VRB03KT 10SM FEW070 22/06 A3000 790 34 1800 VRB/03 RMK AO2
14837KMSN MSN20090604154509606/04/09 15:45:31  5-MIN KMSN 042145Z VRB04KT 10SM FEW070 22/04 A3000 790 32 1800 VRB/04 RMK AO2
14837KMSN MSN20090604155011306/04/09 15:50:31  5-MIN KMSN 042150Z VRB03KT 10SM FEW070 22/04 A3000 790 32 1800 VRB/03 RMK AO2 SLP160 T02170044
14837KMSN MSN20090604155509606/04/09 15:55:31  5-MIN KMSN 042155Z 27003KT 10SM FEW070 21/04 A3000 790 33 1700 270/03 RMK AO2
14837KMSN MSN20090604160009606/04/09 16:00:31  5-MIN KMSN 042200Z VRB03KT 10SM FEW070 21/04 A3000 790 33 1700 VRB/03 RMK AO2
14837KMSN MSN20090604160511206/04/09 16:05:31  5-MIN KMSN 042205Z 20007KT 180V250 10SM FEW070 21/04 A3000 790 33 1700 200/07 180V250 RMK AO2
14837KMSN MSN20090604161009606/04/09 16:10:31  5-MIN KMSN 042210Z 19005KT 10SM FEW070 21/04 A3000 790 32 1700 190/05 RMK AO2
14837KMSN MSN20090604161509606/04/09 16:15:31  5-MIN KMSN 042215Z 24003KT 10SM FEW070 21/04 A3000 790 33 1700 240/03 RMK AO2
14837KMSN MSN20090604162009506/04/09 16:20:31  5-MIN KMSN 042220Z VRB03KT 9SM FEW070 21/04 A2999 800 33 1700 VRB/03 RMK AO2
14837KMSN MSN20090604162509506/04/09 16:25:31  5-MIN KMSN 042225Z 23004KT 9SM FEW070 21/04 A2999 800 33 1700 230/04 RMK AO2
14837KMSN MSN20090604163009606/04/09 16:30:31  5-MIN KMSN 042230Z VRB04KT 10SM FEW070 21/04 A2999 800 32 1700 VRB/04 RMK AO2
14837KMSN MSN20090604163509606/04/09 16:35:31  5-MIN KMSN 042235Z 25005KT 10SM FEW070 21/04 A2999 800 33 1700 250/05 RMK AO2
14837KMSN MSN20090604164009606/04/09 16:40:31  5-MIN KMSN 042240Z VRB04KT 10SM FEW070 21/04 A2999 800 32 1700 VRB/04 RMK AO2
14837KMSN MSN20090604164509606/04/09 16:45:31  5-MIN KMSN 042245Z VRB04KT 10SM FEW070 21/04 A2999 800 33 1700 VRB/04 RMK AO2
14837KMSN MSN20090604165011206/04/09 16:50:31  5-MIN KMSN 042250Z VRB03KT 9SM FEW070 21/04 A2998 800 33 1700 VRB/03 RMK AO2 SLP154 T02110044
14837KMSN MSN20090604165509206/04/09 16:55:31  5-MIN KMSN 042255Z 00000KT 9SM CLR 21/04 A2998 810 33 1700 000/00 RMK AO2
14837KMSN MSN20090604170009206/04/09 17:00:31  5-MIN KMSN 042300Z 24003KT 9SM CLR 21/04 A2998 810 33 1700 240/03 RMK AO2
14837KMSN MSN20090604170509506/04/09 17:05:31  5-MIN KMSN 042305Z VRB04KT 9SM FEW075 21/04 A2998 810 33 1700 VRB/04 RMK AO2
14837KMSN MSN20090604171009606/04/09 17:10:31  5-MIN KMSN 042310Z 22003KT 10SM FEW075 21/04 A2998 810 33 1700 210/03 RMK AO2
14837KMSN MSN20090604171509606/04/09 17:15:31  5-MIN KMSN 042315Z 26003KT 10SM FEW075 21/04 A2998 810 34 1700 260/03 RMK AO2
14837KMSN MSN20090604172009606/04/09 17:20:31  5-MIN KMSN 042320Z 00000KT 10SM FEW075 21/04 A2998 810 34 1700 000/00 RMK AO2
14837KMSN MSN20090604172509606/04/09 17:25:31  5-MIN KMSN 042325Z 23003KT 10SM FEW075 20/04 A2998 810 35 1600 230/03 RMK AO2
14837KMSN MSN20090604173009606/04/09 17:30:31  5-MIN KMSN 042330Z 22004KT 10SM FEW075 21/04 A2998 810 34 1700 220/04 RMK AO2
14837KMSN MSN20090604173509606/04/09 17:35:31  5-MIN KMSN 042335Z 24004KT 10SM FEW075 20/04 A2998 810 34 1600 240/04 RMK AO2
14837KMSN MSN20090604174009606/04/09 17:40:31  5-MIN KMSN 042340Z 00000KT 10SM FEW075 21/04 A2998 810 33 1700 000/00 RMK AO2
14837KMSN MSN20090604174509606/04/09 17:45:31  5-MIN KMSN 042345Z 00000KT 10SM FEW075 21/04 A2997 820 34 1700 000/00 RMK AO2
14837KMSN MSN20090604175013106/04/09 17:50:31  5-MIN KMSN 042350Z 24004KT 10SM FEW075 21/04 A2997 820 33 1700 240/04 RMK AO2 SLP150 T02060039 10217 20194 58017
14837KMSN MSN20090604175509606/04/09 17:55:31  5-MIN KMSN 042355Z 00000KT 10SM FEW075 21/04 A2997 820 33 1700 000/00 RMK AO2
14837KMSN MSN20090604180009606/04/09 18:00:31  5-MIN KMSN 050000Z 23003KT 10SM FEW075 21/04 A2997 820 34 1700 230/03 RMK AO2
14837KMSN MSN20090604180509606/04/09 18:05:31  5-MIN KMSN 050005Z 22004KT 10SM FEW075 21/04 A2997 820 33 1700 220/04 RMK AO2
14837KMSN MSN20090604181009606/04/09 18:10:31  5-MIN KMSN 050010Z 21004KT 10SM FEW075 21/04 A2997 820 33 1700 210/04 RMK AO2
14837KMSN MSN20090604181509606/04/09 18:15:31  5-MIN KMSN 050015Z 23004KT 10SM FEW075 21/04 A2997 820 33 1700 230/04 RMK AO2
14837KMSN MSN20090604182009606/04/09 18:20:31  5-MIN KMSN 050020Z 23003KT 10SM FEW075 21/04 A2997 820 34 1700 220/03 RMK AO2
14837KMSN MSN20090604182509606/04/09 18:25:31  5-MIN KMSN 050025Z 22003KT 10SM FEW075 21/04 A2997 820 34 1700 220/03 RMK AO2
14837KMSN MSN20090604183009606/04/09 18:30:31  5-MIN KMSN 050030Z 23005KT 10SM FEW075 21/04 A2997 820 34 1700 230/05 RMK AO2
14837KMSN MSN20090604183509606/04/09 18:35:31  5-MIN KMSN 050035Z 23004KT 10SM FEW075 20/05 A2997 820 37 1600 230/04 RMK AO2
14837KMSN MSN20090604184009606/04/09 18:40:31  5-MIN KMSN 050040Z 00000KT 10SM FEW075 20/05 A2997 820 37 1600 000/00 RMK AO2
14837KMSN MSN20090604184509606/04/09 18:45:31  5-MIN KMSN 050045Z 23003KT 10SM FEW075 20/05 A2997 820 37 1600 230/03 RMK AO2
14837KMSN MSN20090604185011306/04/09 18:50:31  5-MIN KMSN 050050Z 00000KT 10SM FEW080 19/06 A2997 820 40 1600 000/00 RMK AO2 SLP148 T01940056
14837KMSN MSN20090604185509306/04/09 18:55:31  5-MIN KMSN 050055Z 00000KT 10SM CLR 19/06 A2997 820 40 1600 000/00 RMK AO2
14837KMSN MSN20090604190009306/04/09 19:00:31  5-MIN KMSN 050100Z 00000KT 10SM CLR 19/06 A2997 820 41 1600 000/00 RMK AO2
14837KMSN MSN20090604190509306/04/09 19:05:31  5-MIN KMSN 050105Z 00000KT 10SM CLR 19/06 A2997 820 43 1500 000/00 RMK AO2
14837KMSN MSN20090604191009306/04/09 19:10:31  5-MIN KMSN 050110Z 00000KT 10SM CLR 19/06 A2996 820 43 1500 000/00 RMK AO2
14837KMSN MSN20090604191509306/04/09 19:15:31  5-MIN KMSN 050115Z 00000KT 10SM CLR 19/06 A2996 820 41 1500 000/00 RMK AO2
14837KMSN MSN20090604192009306/04/09 19:20:31  5-MIN KMSN 050120Z 00000KT 10SM CLR 18/06 A2996 830 46 1400 000/00 RMK AO2
14837KMSN MSN20090604192509306/04/09 19:25:31  5-MIN KMSN 050125Z 00000KT 10SM CLR 17/07 A2996 830 51 1300 000/00 RMK AO2
14837KMSN MSN20090604193009306/04/09 19:30:31  5-MIN KMSN 050130Z 00000KT 10SM CLR 17/07 A2996 830 53 1300 000/00 RMK AO2
14837KMSN MSN20090604193509306/04/09 19:35:31  5-MIN KMSN 050135Z 00000KT 10SM CLR 16/07 A2996 830 53 1200 000/00 RMK AO2
14837KMSN MSN20090604194009306/04/09 19:40:31  5-MIN KMSN 050140Z 00000KT 10SM CLR 16/07 A2996 830 57 1100 000/00 RMK AO2
14837KMSN MSN20090604194509206/04/09 19:45:31  5-MIN KMSN 050145Z 00000KT 9SM CLR 15/07 A2996 830 59 1100 000/00 RMK AO2
14837KMSN MSN20090604195010906/04/09 19:50:31  5-MIN KMSN 050150Z 00000KT 8SM CLR 16/07 A2996 830 57 1100 000/00 RMK AO2 SLP146 T01560072
14837KMSN MSN20090604195509206/04/09 19:55:31  5-MIN KMSN 050155Z 00000KT 9SM CLR 15/07 A2996 830 59 1100 000/00 RMK AO2
14837KMSN MSN20090604200009306/04/09 20:00:31  5-MIN KMSN 050200Z 00000KT 10SM CLR 15/07 A2996 820 59 1100 000/00 RMK AO2
14837KMSN MSN20090604200509306/04/09 20:05:31  5-MIN KMSN 050205Z 00000KT 10SM CLR 16/08 A2996 820 59 1100 000/00 RMK AO2
14837KMSN MSN20090604201009306/04/09 20:10:31  5-MIN KMSN 050210Z 00000KT 10SM CLR 16/08 A2997 820 59 1100 000/00 RMK AO2
14837KMSN MSN20090604201509306/04/09 20:15:31  5-MIN KMSN 050215Z 00000KT 10SM CLR 15/08 A2997 820 62 1100 000/00 RMK AO2
14837KMSN MSN20090604202009206/04/09 20:20:31  5-MIN KMSN 050220Z 00000KT 10SM CLR 14/07 A2997 820 64 900 000/00 RMK AO2
14837KMSN MSN20090604202509206/04/09 20:25:31  5-MIN KMSN 050225Z 00000KT 10SM CLR 14/07 A2997 820 64 900 000/00 RMK AO2
14837KMSN MSN20090604203009206/04/09 20:30:31  5-MIN KMSN 050230Z 00000KT 10SM CLR 14/07 A2997 820 64 900 000/00 RMK AO2
14837KMSN MSN20090604203509306/04/09 20:35:31  5-MIN KMSN 050235Z 00000KT 10SM CLR 14/07 A2997 820 61 1000 000/00 RMK AO2
14837KMSN MSN20090604204009206/04/09 20:40:31  5-MIN KMSN 050240Z 00000KT 10SM CLR 14/07 A2997 820 64 900 000/00 RMK AO2
14837KMSN MSN20090604204509306/04/09 20:45:31  5-MIN KMSN 050245Z 00000KT 10SM CLR 14/07 A2997 820 61 1000 000/00 RMK AO2
14837KMSN MSN20090604205011606/04/09 20:50:31  5-MIN KMSN 050250Z 00000KT 10SM CLR 14/07 A2997 820 61 1000 000/00 RMK AO2 SLP149 T01440072 56015
14837KMSN MSN20090604205509206/04/09 20:55:31  5-MIN KMSN 050255Z 00000KT 10SM CLR 13/07 A2997 820 66 800 000/00 RMK AO2
14837KMSN MSN20090604210009206/04/09 21:00:31  5-MIN KMSN 050300Z 00000KT 10SM CLR 13/07 A2997 820 66 800 000/00 RMK AO2
14837KMSN MSN20090604210509206/04/09 21:05:31  5-MIN KMSN 050305Z 00000KT 10SM CLR 12/07 A2997 820 71 700 000/00 RMK AO2
14837KMSN MSN20090604211009206/04/09 21:10:31  5-MIN KMSN 050310Z 00000KT 10SM CLR 13/07 A2997 820 66 800 000/00 RMK AO2
14837KMSN MSN20090604211509206/04/09 21:15:31  5-MIN KMSN 050315Z 00000KT 10SM CLR 12/07 A2997 820 71 700 000/00 RMK AO2
14837KMSN MSN20090604212009206/04/09 21:20:31  5-MIN KMSN 050320Z 00000KT 10SM CLR 13/07 A2997 820 69 800 000/00 RMK AO2
14837KMSN MSN20090604212509206/04/09 21:25:31  5-MIN KMSN 050325Z 00000KT 10SM CLR 13/07 A2997 820 64 900 000/00 RMK AO2
14837KMSN MSN20090604213009206/04/09 21:30:31  5-MIN KMSN 050330Z 00000KT 10SM CLR 13/07 A2997 820 69 800 000/00 RMK AO2
14837KMSN MSN20090604213509206/04/09 21:35:31  5-MIN KMSN 050335Z 00000KT 10SM CLR 12/07 A2997 820 68 700 000/00 RMK AO2
14837KMSN MSN20090604214009206/04/09 21:40:31  5-MIN KMSN 050340Z 00000KT 10SM CLR 12/07 A2997 820 71 700 000/00 RMK AO2
14837KMSN MSN20090604214509206/04/09 21:45:31  5-MIN KMSN 050345Z 00000KT 10SM CLR 12/07 A2996 820 71 700 000/00 RMK AO2
14837KMSN MSN20090604215010906/04/09 21:50:31  5-MIN KMSN 050350Z 00000KT 10SM CLR 12/07 A2996 820 71 700 000/00 RMK AO2 SLP146 T01220072
14837KMSN MSN20090604215509206/04/09 21:55:31  5-MIN KMSN 050355Z 00000KT 10SM CLR 12/07 A2996 820 71 700 000/00 RMK AO2
14837KMSN MSN20090604220009206/04/09 22:00:31  5-MIN KMSN 050400Z 00000KT 10SM CLR 12/07 A2996 830 71 700 000/00 RMK AO2
14837KMSN MSN20090604220509206/04/09 22:05:31  5-MIN KMSN 050405Z 00000KT 10SM CLR 13/07 A2996 830 69 800 000/00 RMK AO2
14837KMSN MSN20090604221009206/04/09 22:10:31  5-MIN KMSN 050410Z 00000KT 10SM CLR 13/08 A2996 830 71 800 000/00 RMK AO2
14837KMSN MSN20090604221509206/04/09 22:15:31  5-MIN KMSN 050415Z 00000KT 10SM CLR 12/08 A2996 830 74 700 000/00 RMK AO2
14837KMSN MSN20090604222009206/04/09 22:20:31  5-MIN KMSN 050420Z 00000KT 10SM CLR 12/08 A2996 830 77 700 000/00 RMK AO2
14837KMSN MSN20090604222509206/04/09 22:25:31  5-MIN KMSN 050425Z 00000KT 10SM CLR 11/07 A2996 830 77 600 000/00 RMK AO2
14837KMSN MSN20090604223009206/04/09 22:30:31  5-MIN KMSN 050430Z 00000KT 10SM CLR 11/07 A2996 830 77 600 000/00 RMK AO2
14837KMSN MSN20090604223509206/04/09 22:35:31  5-MIN KMSN 050435Z 00000KT 10SM CLR 11/07 A2996 830 77 600 000/00 RMK AO2
14837KMSN MSN20090604224009206/04/09 22:40:31  5-MIN KMSN 050440Z 00000KT 10SM CLR 11/07 A2996 830 77 600 000/00 RMK AO2
14837KMSN MSN20090604224509206/04/09 22:45:31  5-MIN KMSN 050445Z 00000KT 10SM CLR 13/07 A2996 830 69 800 000/00 RMK AO2
14837KMSN MSN20090604225010906/04/09 22:50:31  5-MIN KMSN 050450Z 00000KT 10SM CLR 13/07 A2996 830 66 900 000/00 RMK AO2 SLP143 T01330072
14837KMSN MSN20090604225509206/04/09 22:55:31  5-MIN KMSN 050455Z 00000KT 10SM CLR 14/07 A2996 830 64 900 000/00 RMK AO2
14837KMSN MSN20090604230009206/04/09 23:00:31  5-MIN KMSN 050500Z 00000KT 10SM CLR 13/07 A2996 830 66 900 000/00 RMK AO2
14837KMSN MSN20090604230509206/04/09 23:05:31  5-MIN KMSN 050505Z 00000KT 10SM CLR 14/07 A2996 830 64 900 000/00 RMK AO2
14837KMSN MSN20090604231009206/04/09 23:10:31  5-MIN KMSN 050510Z 00000KT 10SM CLR 13/07 A2996 830 69 800 000/00 RMK AO2
14837KMSN MSN20090604231509206/04/09 23:15:31  5-MIN KMSN 050515Z 16004KT 10SM CLR 11/07 A2996 830 74 600 160/04 RMK AO2
14837KMSN MSN20090604232009206/04/09 23:20:31  5-MIN KMSN 050520Z 00000KT 10SM CLR 11/07 A2996 830 74 600 000/00 RMK AO2
14837KMSN MSN20090604232509206/04/09 23:25:31  5-MIN KMSN 050525Z 00000KT 10SM CLR 12/07 A2995 830 68 700 000/00 RMK AO2
14837KMSN MSN20090604233009206/04/09 23:30:31  5-MIN KMSN 050530Z 00000KT 10SM CLR 13/07 A2995 830 66 800 000/00 RMK AO2
14837KMSN MSN20090604233509206/04/09 23:35:31  5-MIN KMSN 050535Z 14004KT 10SM CLR 13/07 A2995 830 66 800 140/04 RMK AO2
14837KMSN MSN20090604234009206/04/09 23:40:31  5-MIN KMSN 050540Z 00000KT 10SM CLR 12/07 A2995 830 71 700 000/00 RMK AO2
14837KMSN MSN20090604234509206/04/09 23:45:31  5-MIN KMSN 050545Z 00000KT 10SM CLR 12/06 A2995 830 68 700 000/00 RMK AO2
14837KMSN MSN20090604235013706/04/09 23:50:31  5-MIN KMSN 050550Z 17003KT 10SM CLR 13/07 A2995 830 66 800 170/03 RMK AO2 SLP142 T01280067 10206 20106 402170044 53000
14837KMSN MSN20090604235509206/04/09 23:55:31  5-MIN KMSN 050555Z 20005KT 10SM CLR 13/06 A2995 830 61 900 190/05 RMK AO2
14837KMSN MSN20090605000009306/05/09 00:00:32  5-MIN KMSN 050600Z 19004KT 10SM CLR 14/06 A2995 840 57 1000 190/04 RMK AO2
14837KMSN MSN20090605000509206/05/09 00:05:31  5-MIN KMSN 050605Z 18004KT 10SM CLR 14/07 A2995 830 61 900 180/04 RMK AO2
14837KMSN MSN20090605001009206/05/09 00:10:31  5-MIN KMSN 050610Z 17004KT 10SM CLR 14/07 A2995 830 61 900 170/04 RMK AO2
14837KMSN MSN20090605001509206/05/09 00:15:31  5-MIN KMSN 050615Z 16004KT 10SM CLR 13/07 A2995 830 64 900 160/04 RMK AO2
14837KMSN MSN20090605002009206/05/09 00:20:31  5-MIN KMSN 050620Z 17005KT 10SM CLR 13/07 A2995 830 66 800 160/05 RMK AO2
14837KMSN MSN20090605002509206/05/09 00:25:31  5-MIN KMSN 050625Z 17005KT 10SM CLR 13/07 A2995 840 64 900 170/05 RMK AO2
14837KMSN MSN20090605003009206/05/09 00:30:31  5-MIN KMSN 050630Z 17005KT 10SM CLR 13/07 A2995 840 64 900 170/05 RMK AO2
14837KMSN MSN20090605003509206/05/09 00:35:31  5-MIN KMSN 050635Z 17005KT 10SM CLR 13/07 A2995 840 64 900 170/05 RMK AO2
14837KMSN MSN20090605004009206/05/09 00:40:31  5-MIN KMSN 050640Z 17005KT 10SM CLR 13/07 A2995 840 66 800 160/05 RMK AO2
14837KMSN MSN20090605004509206/05/09 00:45:31  5-MIN KMSN 050645Z 15004KT 10SM CLR 13/07 A2995 840 66 800 150/04 RMK AO2
14837KMSN MSN20090605005010906/05/09 00:50:31  5-MIN KMSN 050650Z 18005KT 10SM CLR 12/07 A2995 840 68 700 170/05 RMK AO2 SLP140 T01220067
14837KMSN MSN20090605005509206/05/09 00:55:31  5-MIN KMSN 050655Z 19005KT 10SM CLR 13/07 A2995 840 66 800 180/05 RMK AO2
14837KMSN MSN20090605010009206/05/09 01:00:31  5-MIN KMSN 050700Z 18007KT 10SM CLR 13/07 A2995 840 66 800 180/07 RMK AO2
14837KMSN MSN20090605010509206/05/09 01:05:31  5-MIN KMSN 050705Z 18006KT 10SM CLR 13/07 A2995 840 66 800 180/06 RMK AO2
14837KMSN MSN20090605011009206/05/09 01:10:31  5-MIN KMSN 050710Z 17005KT 10SM CLR 13/07 A2995 840 66 800 170/05 RMK AO2
14837KMSN MSN20090605011509206/05/09 01:15:31  5-MIN KMSN 050715Z 17006KT 10SM CLR 12/07 A2995 840 68 700 170/06 RMK AO2
14837KMSN MSN20090605012009206/05/09 01:20:31  5-MIN KMSN 050720Z 18004KT 10SM CLR 12/07 A2994 840 68 800 180/04 RMK AO2
14837KMSN MSN20090605012509206/05/09 01:25:31  5-MIN KMSN 050725Z 18004KT 10SM CLR 12/07 A2994 850 68 800 180/04 RMK AO2
14837KMSN MSN20090605013009206/05/09 01:30:31  5-MIN KMSN 050730Z 17005KT 10SM CLR 12/07 A2994 850 68 800 170/05 RMK AO2
14837KMSN MSN20090605013509206/05/09 01:35:31  5-MIN KMSN 050735Z 18005KT 10SM CLR 12/07 A2994 850 68 800 170/05 RMK AO2
14837KMSN MSN20090605014009206/05/09 01:40:31  5-MIN KMSN 050740Z 18005KT 10SM CLR 12/07 A2994 850 68 800 180/05 RMK AO2
14837KMSN MSN20090605014509206/05/09 01:45:31  5-MIN KMSN 050745Z 18006KT 10SM CLR 12/07 A2993 850 68 800 180/06 RMK AO2
14837KMSN MSN20090605015010906/05/09 01:50:31  5-MIN KMSN 050750Z 19005KT 10SM CLR 13/07 A2994 850 66 800 190/05 RMK AO2 SLP136 T01280067
14837KMSN MSN20090605015509206/05/09 01:55:31  5-MIN KMSN 050755Z 19005KT 10SM CLR 13/07 A2994 850 66 800 190/05 RMK AO2
14837KMSN MSN20090605020009206/05/09 02:00:31  5-MIN KMSN 050800Z 20006KT 10SM CLR 13/07 A2993 850 66 800 200/06 RMK AO2
14837KMSN MSN20090605020509206/05/09 02:05:31  5-MIN KMSN 050805Z 19006KT 10SM CLR 13/06 A2993 850 63 800 190/06 RMK AO2
14837KMSN MSN20090605021009206/05/09 02:10:31  5-MIN KMSN 050810Z 19005KT 10SM CLR 13/07 A2993 850 66 800 190/05 RMK AO2
14837KMSN MSN20090605021509206/05/09 02:15:31  5-MIN KMSN 050815Z 19006KT 10SM CLR 13/07 A2993 850 66 800 190/06 RMK AO2
14837KMSN MSN20090605022009206/05/09 02:20:31  5-MIN KMSN 050820Z 19006KT 10SM CLR 13/06 A2993 850 63 800 190/06 RMK AO2
14837KMSN MSN20090605022509206/05/09 02:25:31  5-MIN KMSN 050825Z 19006KT 10SM CLR 13/06 A2993 850 63 800 190/06 RMK AO2
14837KMSN MSN20090605023009206/05/09 02:30:31  5-MIN KMSN 050830Z 19006KT 10SM CLR 13/06 A2993 860 63 800 180/06 RMK AO2
14837KMSN MSN20090605023509206/05/09 02:35:31  5-MIN KMSN 050835Z 19006KT 10SM CLR 12/06 A2993 860 66 800 190/06 RMK AO2
14837KMSN MSN20090605024009206/05/09 02:40:31  5-MIN KMSN 050840Z 19005KT 10SM CLR 12/06 A2993 860 66 800 190/05 RMK AO2
14837KMSN MSN20090605024509206/05/09 02:45:31  5-MIN KMSN 050845Z 18005KT 10SM CLR 12/06 A2993 860 66 800 180/05 RMK AO2
14837KMSN MSN20090605025011506/05/09 02:50:31  5-MIN KMSN 050850Z 19005KT 10SM CLR 12/06 A2993 860 66 800 190/05 RMK AO2 SLP133 T01220061 56007
14837KMSN MSN20090605025509206/05/09 02:55:31  5-MIN KMSN 050855Z 19006KT 10SM CLR 12/06 A2993 860 66 800 190/06 RMK AO2
14837KMSN MSN20090605030009206/05/09 03:00:31  5-MIN KMSN 050900Z 19006KT 10SM CLR 12/06 A2992 860 66 800 190/06 RMK AO2
14837KMSN MSN20090605030509206/05/09 03:05:31  5-MIN KMSN 050905Z 19005KT 10SM CLR 12/06 A2992 860 66 800 190/05 RMK AO2
14837KMSN MSN20090605031009206/05/09 03:10:31  5-MIN KMSN 050910Z 18005KT 10SM CLR 12/06 A2992 860 66 800 180/05 RMK AO2
14837KMSN MSN20090605031509206/05/09 03:15:31  5-MIN KMSN 050915Z 19005KT 10SM CLR 12/06 A2992 870 66 800 190/05 RMK AO2
14837KMSN MSN20090605032009206/05/09 03:20:31  5-MIN KMSN 050920Z 19004KT 10SM CLR 12/06 A2992 870 66 800 190/04 RMK AO2
14837KMSN MSN20090605032509206/05/09 03:25:31  5-MIN KMSN 050925Z 19004KT 10SM CLR 12/06 A2992 870 66 800 190/04 RMK AO2
14837KMSN MSN20090605033009206/05/09 03:30:31  5-MIN KMSN 050930Z 19004KT 10SM CLR 12/06 A2991 870 66 800 190/04 RMK AO2
14837KMSN MSN20090605033509206/05/09 03:35:31  5-MIN KMSN 050935Z 19004KT 10SM CLR 12/06 A2992 870 66 800 190/04 RMK AO2
14837KMSN MSN20090605034009206/05/09 03:40:31  5-MIN KMSN 050940Z 19005KT 10SM CLR 12/06 A2991 870 66 800 190/05 RMK AO2
14837KMSN MSN20090605034509206/05/09 03:45:31  5-MIN KMSN 050945Z 20004KT 10SM CLR 12/06 A2991 870 66 800 200/04 RMK AO2
14837KMSN MSN20090605035010906/05/09 03:50:31  5-MIN KMSN 050950Z 20005KT 10SM CLR 13/06 A2991 870 63 900 200/05 RMK AO2 SLP128 T01280061
14837KMSN MSN20090605035509206/05/09 03:55:31  5-MIN KMSN 050955Z 19004KT 10SM CLR 13/06 A2991 870 63 800 190/04 RMK AO2
14837KMSN MSN20090605040009206/05/09 04:00:31  5-MIN KMSN 051000Z 18004KT 10SM CLR 12/06 A2991 870 66 800 180/04 RMK AO2
14837KMSN MSN20090605040509206/05/09 04:05:31  5-MIN KMSN 051005Z 18004KT 10SM CLR 11/06 A2991 870 71 700 180/04 RMK AO2
14837KMSN MSN20090605041009206/05/09 04:10:31  5-MIN KMSN 051010Z 18004KT 10SM CLR 11/06 A2991 870 71 700 180/04 RMK AO2
14837KMSN MSN20090605041509206/05/09 04:15:31  5-MIN KMSN 051015Z 19004KT 10SM CLR 12/06 A2991 870 68 700 180/04 RMK AO2
14837KMSN MSN20090605042009206/05/09 04:20:31  5-MIN KMSN 051020Z 19004KT 10SM CLR 12/06 A2991 870 63 800 190/04 RMK AO2
14837KMSN MSN20090605042509206/05/09 04:25:31  5-MIN KMSN 051025Z 20005KT 10SM CLR 13/06 A2991 870 61 900 200/05 RMK AO2
14837KMSN MSN20090605043009206/05/09 04:30:31  5-MIN KMSN 051030Z 19006KT 10SM CLR 13/06 A2991 870 61 900 190/06 RMK AO2
14837KMSN MSN20090605043509206/05/09 04:35:31  5-MIN KMSN 051035Z 19006KT 10SM CLR 13/06 A2991 870 61 900 190/06 RMK AO2
14837KMSN MSN20090605044009206/05/09 04:40:31  5-MIN KMSN 051040Z 19006KT 10SM CLR 13/06 A2991 870 61 900 190/06 RMK AO2
14837KMSN MSN20090605044509206/05/09 04:45:31  5-MIN KMSN 051045Z 19006KT 10SM CLR 13/06 A2991 880 61 900 190/06 RMK AO2
14837KMSN MSN20090605045010906/05/09 04:50:31  5-MIN KMSN 051050Z 19006KT 10SM CLR 13/06 A2991 880 63 900 190/06 RMK AO2 SLP127 T01280061
14837KMSN MSN20090605045509206/05/09 04:55:31  5-MIN KMSN 051055Z 19006KT 10SM CLR 13/06 A2991 870 63 900 190/06 RMK AO2
14837KMSN MSN20090605050009206/05/09 05:00:31  5-MIN KMSN 051100Z 18006KT 10SM CLR 13/06 A2991 870 63 900 180/06 RMK AO2
14837KMSN MSN20090605050509206/05/09 05:05:31  5-MIN KMSN 051105Z 18006KT 10SM CLR 13/06 A2991 870 63 900 180/06 RMK AO2
14837KMSN MSN20090605051009206/05/09 05:10:31  5-MIN KMSN 051110Z 18006KT 10SM CLR 13/07 A2991 870 66 900 180/06 RMK AO2
14837KMSN MSN20090605051509206/05/09 05:15:31  5-MIN KMSN 051115Z 18006KT 10SM CLR 13/07 A2991 870 64 900 180/06 RMK AO2
14837KMSN MSN20090605052009206/05/09 05:20:31  5-MIN KMSN 051120Z 18006KT 10SM CLR 13/07 A2991 870 64 900 180/06 RMK AO2
14837KMSN MSN20090605052509206/05/09 05:25:31  5-MIN KMSN 051125Z 19005KT 10SM CLR 13/07 A2991 870 64 900 190/05 RMK AO2
14837KMSN MSN20090605053009306/05/09 05:30:31  5-MIN KMSN 051130Z 19004KT 10SM CLR 14/07 A2991 870 61 1000 190/04 RMK AO2
14837KMSN MSN20090605053509306/05/09 05:35:31  5-MIN KMSN 051135Z 19005KT 10SM CLR 14/07 A2991 870 61 1000 190/05 RMK AO2
14837KMSN MSN20090605054009306/05/09 05:40:31  5-MIN KMSN 051140Z 19005KT 10SM CLR 14/07 A2991 870 59 1000 190/05 RMK AO2
14837KMSN MSN20090605054509306/05/09 05:45:31  5-MIN KMSN 051145Z 20005KT 10SM CLR 14/07 A2991 870 59 1000 190/05 RMK AO2
14837KMSN MSN20090605055012806/05/09 05:50:31  5-MIN KMSN 051150Z 20004KT 10SM CLR 14/07 A2991 870 61 1000 200/04 RMK AO2 SLP127 T01440072 10144 20111 58008
14837KMSN MSN20090605055509306/05/09 05:55:31  5-MIN KMSN 051155Z 22005KT 10SM CLR 15/07 A2992 870 59 1100 210/05 RMK AO2
14837KMSN MSN20090605060009306/05/09 06:00:31  5-MIN KMSN 051200Z 23004KT 10SM CLR 15/07 A2992 870 59 1100 230/04 RMK AO2
14837KMSN MSN20090605060509306/05/09 06:05:31  5-MIN KMSN 051205Z 22006KT 10SM CLR 15/07 A2991 870 59 1100 220/06 RMK AO2
14837KMSN MSN20090605061009306/05/09 06:10:31  5-MIN KMSN 051210Z 23005KT 10SM CLR 15/08 A2991 870 62 1100 220/05 RMK AO2
14837KMSN MSN20090605061509306/05/09 06:15:31  5-MIN KMSN 051215Z 22003KT 10SM CLR 16/08 A2991 870 59 1200 220/03 RMK AO2
14837KMSN MSN20090605062009306/05/09 06:20:31  5-MIN KMSN 051220Z 22007KT 10SM CLR 16/08 A2991 870 59 1200 220/07 RMK AO2
14837KMSN MSN20090605062509306/05/09 06:25:31  5-MIN KMSN 051225Z 23005KT 10SM CLR 16/08 A2991 870 59 1200 230/05 RMK AO2
14837KMSN MSN20090605063009306/05/09 06:30:31  5-MIN KMSN 051230Z 20004KT 10SM CLR 16/08 A2991 880 62 1200 200/04 RMK AO2
14837KMSN MSN20090605063509306/05/09 06:35:31  5-MIN KMSN 051235Z VRB04KT 10SM CLR 16/08 A2991 870 62 1200 VRB/04 RMK AO2
14837KMSN MSN20090605064009306/05/09 06:40:31  5-MIN KMSN 051240Z 23007KT 10SM CLR 16/08 A2991 880 62 1200 230/07 RMK AO2
14837KMSN MSN20090605064509306/05/09 06:45:31  5-MIN KMSN 051245Z 21006KT 10SM CLR 16/08 A2991 880 62 1200 210/06 RMK AO2
14837KMSN MSN20090605065011006/05/09 06:50:31  5-MIN KMSN 051250Z 22007KT 10SM CLR 16/08 A2991 880 62 1200 220/07 RMK AO2 SLP124 T01560083
14837KMSN MSN20090605065509306/05/09 06:55:31  5-MIN KMSN 051255Z 22006KT 10SM CLR 16/08 A2991 880 59 1300 220/06 RMK AO2
14837KMSN MSN20090605070009306/05/09 07:00:31  5-MIN KMSN 051300Z 24007KT 10SM CLR 16/08 A2991 880 59 1300 240/07 RMK AO2
14837KMSN MSN20090605070509306/05/09 07:05:31  5-MIN KMSN 051305Z 23006KT 10SM CLR 16/08 A2991 880 59 1300 230/06 RMK AO2
14837KMSN MSN20090605071009306/05/09 07:10:31  5-MIN KMSN 051310Z 25005KT 10SM CLR 17/09 A2991 880 60 1300 240/05 RMK AO2
14837KMSN MSN20090605071509306/05/09 07:15:31  5-MIN KMSN 051315Z 25007KT 10SM CLR 16/09 A2991 870 62 1200 250/07 RMK AO2
14837KMSN MSN20090605072009306/05/09 07:20:31  5-MIN KMSN 051320Z 25007KT 10SM CLR 17/09 A2991 870 60 1300 250/07 RMK AO2
14837KMSN MSN20090605072509306/05/09 07:25:31  5-MIN KMSN 051325Z VRB06KT 10SM CLR 17/09 A2991 880 60 1300 VRB/06 RMK AO2
14837KMSN MSN20090605073009306/05/09 07:30:31  5-MIN KMSN 051330Z 24005KT 10SM CLR 17/09 A2991 880 60 1300 240/05 RMK AO2
14837KMSN MSN20090605073509306/05/09 07:35:31  5-MIN KMSN 051335Z VRB05KT 10SM CLR 17/09 A2991 870 60 1400 VRB/05 RMK AO2
14837KMSN MSN20090605074009306/05/09 07:40:31  5-MIN KMSN 051340Z VRB05KT 10SM CLR 17/09 A2991 880 57 1400 VRB/05 RMK AO2
14837KMSN MSN20090605074509306/05/09 07:45:31  5-MIN KMSN 051345Z VRB05KT 10SM CLR 17/09 A2990 880 60 1400 VRB/05 RMK AO2
14837KMSN MSN20090605075011306/05/09 07:50:31  5-MIN KMSN 051350Z 23007KT 10SM FEW090 17/09 A2990 880 57 1400 230/07 RMK AO2 SLP125 T01720089
14837KMSN MSN20090605075509606/05/09 07:55:31  5-MIN KMSN 051355Z 23007KT 10SM FEW090 17/09 A2991 880 57 1400 230/07 RMK AO2
14837KMSN MSN20090605080009606/05/09 08:00:31  5-MIN KMSN 051400Z 25007KT 10SM FEW090 18/09 A2991 880 55 1400 240/07 RMK AO2
14837KMSN MSN20090605080509606/05/09 08:05:31  5-MIN KMSN 051405Z 24004KT 10SM SCT090 18/09 A2991 880 58 1400 240/04 RMK AO2
14837KMSN MSN20090605081011206/05/09 08:10:31  5-MIN KMSN 051410Z 24007KT 210V280 10SM FEW090 18/09 A2991 870 58 1400 240/07 210V280 RMK AO2
14837KMSN MSN20090605081509606/05/09 08:15:31  5-MIN KMSN 051415Z 22008KT 10SM SCT090 18/09 A2991 870 56 1500 220/08 RMK AO2
14837KMSN MSN20090605082009606/05/09 08:20:31  5-MIN KMSN 051420Z 24006KT 10SM SCT090 18/09 A2991 870 56 1500 240/06 RMK AO2
14837KMSN MSN20090605082509606/05/09 08:25:31  5-MIN KMSN 051425Z 24004KT 10SM SCT090 18/09 A2991 870 58 1400 240/04 RMK AO2
14837KMSN MSN20090605083009606/05/09 08:30:31  5-MIN KMSN 051430Z 23006KT 10SM FEW090 18/10 A2991 880 58 1500 230/06 RMK AO2
14837KMSN MSN20090605083509606/05/09 08:35:31  5-MIN KMSN 051435Z 00000KT 10SM SCT090 19/10 A2991 880 56 1600 000/00 RMK AO2
14837KMSN MSN20090605084009606/05/09 08:40:31  5-MIN KMSN 051440Z VRB05KT 10SM SCT090 19/10 A2990 880 56 1600 VRB/05 RMK AO2
14837KMSN MSN20090605084509606/05/09 08:45:31  5-MIN KMSN 051445Z 21006KT 10SM SCT095 19/10 A2990 880 54 1600 210/06 RMK AO2
14837KMSN MSN20090605085011906/05/09 08:50:31  5-MIN KMSN 051450Z VRB05KT 10SM SCT090 19/09 A2990 880 52 1600 VRB/05 RMK AO2 SLP124 T01940094 55004
14837KMSN MSN20090605085509606/05/09 08:55:31  5-MIN KMSN 051455Z 23005KT 10SM SCT090 19/09 A2990 880 52 1600 230/05 RMK AO2
14837KMSN MSN20090605090009606/05/09 09:00:31  5-MIN KMSN 051500Z 21006KT 10SM SCT090 20/09 A2990 880 50 1700 210/06 RMK AO2
14837KMSN MSN20090605090509606/05/09 09:05:31  5-MIN KMSN 051505Z 21005KT 10SM SCT090 20/10 A2990 880 52 1700 210/05 RMK AO2
14837KMSN MSN20090605091009606/05/09 09:10:31  5-MIN KMSN 051510Z VRB05KT 10SM SCT090 20/10 A2990 880 52 1700 VRB/05 RMK AO2
14837KMSN MSN20090605091509606/05/09 09:15:31  5-MIN KMSN 051515Z VRB05KT 10SM SCT090 21/10 A2990 890 50 1800 VRB/05 RMK AO2
14837KMSN MSN20090605092009606/05/09 09:20:31  5-MIN KMSN 051520Z 21007KT 10SM FEW090 21/10 A2989 890 50 1800 210/07 RMK AO2
14837KMSN MSN20090605092509606/05/09 09:25:31  5-MIN KMSN 051525Z 20005KT 10SM SCT090 21/09 A2989 890 47 1800 200/05 RMK AO2
14837KMSN MSN20090605093009606/05/09 09:30:31  5-MIN KMSN 051530Z 21005KT 10SM SCT090 21/10 A2989 890 48 1800 210/05 RMK AO2
14837KMSN MSN20090605093509606/05/09 09:35:31  5-MIN KMSN 051535Z VRB04KT 10SM SCT090 22/10 A2989 890 47 1900 VRB/04 RMK AO2
14837KMSN MSN20090605094009506/05/09 09:40:31  5-MIN KMSN 051540Z VRB06KT 8SM SCT090 22/10 A2989 890 47 1900 VRB/06 RMK AO2
14837KMSN MSN20090605094509506/05/09 09:45:31  5-MIN KMSN 051545Z VRB04KT 8SM SCT090 22/10 A2989 890 47 1900 VRB/04 RMK AO2
14837KMSN MSN20090605095012906/05/09 09:50:31  5-MIN KMSN 051550Z 23008KT 200V270 10SM FEW090 22/09 A2989 890 45 1900 230/08 200V270 RMK AO2 SLP119 T02170094
14837KMSN MSN20090605095511206/05/09 09:55:31  5-MIN KMSN 051555Z 29007KT 250V320 10SM FEW090 22/09 A2989 900 43 1900 290/07 250V320 RMK AO2
14837KMSN MSN20090605100009606/05/09 10:00:31  5-MIN KMSN 051600Z VRB05KT 10SM FEW090 23/09 A2989 900 42 2000 VRB/05 RMK AO2
14837KMSN MSN20090605100509606/05/09 10:05:31  5-MIN KMSN 051605Z VRB03KT 10SM FEW090 23/10 A2988 900 44 2000 VRB/03 RMK AO2
14837KMSN MSN20090605101011206/05/09 10:10:31  5-MIN KMSN 051610Z 27007KT 240V340 10SM FEW090 23/09 A2988 900 42 2000 270/07 240V340 RMK AO2
14837KMSN MSN20090605101509606/05/09 10:15:31  5-MIN KMSN 051615Z 30007KT 10SM FEW090 23/09 A2988 900 42 2000 290/07 RMK AO2
14837KMSN MSN20090605102011806/05/09 10:20:31  5-MIN KMSN 051620Z 24009G15KT 220V300 10SM FEW090 23/09 A2988 900 40 2000 240/09G15 220V300 RMK AO2
14837KMSN MSN20090605102510906/05/09 10:25:31  5-MIN KMSN 051625Z VRB06G15KT 10SM FEW055 SCT090 22/08 A2988 900 39 2000 VRB/06G15 RMK AO2
14837KMSN MSN20090605103010906/05/09 10:30:31  5-MIN KMSN 051630Z 24007G15KT 10SM FEW055 SCT090 23/08 A2988 900 39 2100 240/07G15 RMK AO2
14837KMSN MSN20090605103512506/05/09 10:35:31  5-MIN KMSN 051635Z 26007G15KT 220V300 10SM FEW055 SCT090 23/08 A2988 900 39 2100 260/07G15 220V300 RMK AO2
14837KMSN MSN20090605104010906/05/09 10:40:31  5-MIN KMSN 051640Z VRB06G15KT 10SM FEW055 SCT090 23/08 A2988 900 37 2100 VRB/06G15 RMK AO2
14837KMSN MSN20090605104510906/05/09 10:45:31  5-MIN KMSN 051645Z 28008G15KT 10SM FEW055 SCT090 23/08 A2988 910 39 2100 280/08G15 RMK AO2
14837KMSN MSN20090605105012006/05/09 10:50:31  5-MIN KMSN 051650Z 22008KT 10SM FEW055 SCT090 23/08 A2988 910 39 2100 220/08 RMK AO2 SLP114 T02280083
14837KMSN MSN20090605105509606/05/09 10:55:31  5-MIN KMSN 051655Z 22007KT 10SM SCT055 23/09 A2988 910 40 2100 220/07 RMK AO2
14837KMSN MSN20090605110009606/05/09 11:00:31  5-MIN KMSN 051700Z VRB05KT 10SM SCT055 23/09 A2987 910 40 2100 VRB/05 RMK AO2
14837KMSN MSN20090605110509606/05/09 11:05:31  5-MIN KMSN 051705Z VRB06KT 10SM SCT055 23/09 A2987 910 39 2100 VRB/06 RMK AO2
14837KMSN MSN20090605111009606/05/09 11:10:31  5-MIN KMSN 051710Z VRB05KT 10SM SCT055 23/09 A2987 910 39 2100 VRB/05 RMK AO2
14837KMSN MSN20090605111511206/05/09 11:15:31  5-MIN KMSN 051715Z 25008KT 200V290 10SM SCT055 23/09 A2987 910 39 2100 250/08 200V290 RMK AO2
14837KMSN MSN20090605112010206/05/09 11:20:31  5-MIN KMSN 051720Z 27011G16KT 10SM SCT055 23/08 A2987 910 36 2100 270/11G16 RMK AO2
14837KMSN MSN20090605112510206/05/09 11:25:31  5-MIN KMSN 051725Z 29010G18KT 10SM SCT055 23/08 A2987 910 37 2100 290/10G18 RMK AO2
14837KMSN MSN20090605113010206/05/09 11:30:31  5-MIN KMSN 051730Z 28008G18KT 10SM SCT055 23/08 A2987 910 38 2100 280/08G18 RMK AO2
14837KMSN MSN20090605113510206/05/09 11:35:31  5-MIN KMSN 051735Z VRB06G18KT 10SM SCT055 23/08 A2987 910 36 2100 VRB/06G18 RMK AO2
14837KMSN MSN20090605114011806/05/09 11:40:31  5-MIN KMSN 051740Z 26007G16KT 210V290 10SM SCT055 24/09 A2987 920 38 2200 260/07G16 210V290 RMK AO2
14837KMSN MSN20090605114511206/05/09 11:45:31  5-MIN KMSN 051745Z 27007KT 230V290 10SM SCT055 23/09 A2986 920 40 2100 270/07 230V290 RMK AO2
14837KMSN MSN20090605115013106/05/09 11:50:31  5-MIN KMSN 051750Z VRB06KT 10SM SCT060 23/09 A2986 920 39 2100 VRB/06 RMK AO2 SLP109 T02330089 10239 20150 56004
14837KMSN MSN20090605115509606/05/09 11:55:31  5-MIN KMSN 051755Z VRB06KT 10SM SCT060 23/09 A2986 920 40 2100 VRB/06 RMK AO2
14837KMSN MSN20090605120011206/05/09 12:00:31  5-MIN KMSN 051800Z 26007KT 240V330 10SM BKN060 23/09 A2986 920 41 2100 260/07 240V330 RMK AO2
14837KMSN MSN20090605120509606/05/09 12:05:31  5-MIN KMSN 051805Z 28007KT 10SM SCT060 24/09 A2986 920 38 2200 280/07 RMK AO2
14837KMSN MSN20090605121010206/05/09 12:10:31  5-MIN KMSN 051810Z 29008G16KT 10SM SCT065 23/08 A2986 920 38 2100 290/08G16 RMK AO2
14837KMSN MSN20090605121510206/05/09 12:15:31  5-MIN KMSN 051815Z VRB06G16KT 10SM SCT065 24/09 A2985 930 38 2200 VRB/06G16 RMK AO2
14837KMSN MSN20090605122009606/05/09 12:20:31  5-MIN KMSN 051820Z VRB06KT 10SM FEW065 23/09 A2985 930 39 2100 VRB/06 RMK AO2
14837KMSN MSN20090605122511806/05/09 12:25:31  5-MIN KMSN 051825Z 28010G17KT 240V310 10SM FEW065 24/08 A2985 930 36 2200 270/10G17 240V310 RMK AO2
14837KMSN MSN20090605123010206/05/09 12:30:31  5-MIN KMSN 051830Z 29007G19KT 10SM SCT065 24/08 A2985 930 36 2200 290/07G19 RMK AO2
14837KMSN MSN20090605123510206/05/09 12:35:31  5-MIN KMSN 051835Z 23009G19KT 10SM SCT065 24/09 A2985 930 38 2200 230/09G19 RMK AO2
14837KMSN MSN20090605124010206/05/09 12:40:31  5-MIN KMSN 051840Z 30011G17KT 10SM SCT065 24/08 A2985 930 36 2200 300/11G17 RMK AO2
14837KMSN MSN20090605124510206/05/09 12:45:31  5-MIN KMSN 051845Z 28008G17KT 10SM SCT065 23/08 A2985 930 38 2200 280/08G17 RMK AO2
14837KMSN MSN20090605125011906/05/09 12:50:31  5-MIN KMSN 051850Z VRB06G20KT 10SM SCT065 23/08 A2985 930 39 2100 VRB/06G20 RMK AO2 SLP104 T02280083
14837KMSN MSN20090605125511806/05/09 12:55:31  5-MIN KMSN 051855Z 27007G20KT 230V310 10SM SCT065 23/08 A2985 930 38 2200 270/07G20 230V310 RMK AO2
14837KMSN MSN20090605130010206/05/09 13:00:31  5-MIN KMSN 051900Z 28009G15KT 10SM BKN065 24/08 A2985 930 36 2200 280/09G15 RMK AO2
14837KMSN MSN20090605130510206/05/09 13:05:31  5-MIN KMSN 051905Z 28010G16KT 10SM SCT065 24/09 A2985 930 36 2300 280/10G16 RMK AO2
14837KMSN MSN20090605131010206/05/09 13:10:31  5-MIN KMSN 051910Z 28006G16KT 10SM SCT065 24/08 A2984 940 35 2200 270/06G16 RMK AO2
14837KMSN MSN20090605131511806/05/09 13:15:31  5-MIN KMSN 051915Z 27007G17KT 230V310 10SM FEW065 24/08 A2985 930 35 2300 270/07G17 230V310 RMK AO2
14837KMSN MSN20090605132011806/05/09 13:20:31  5-MIN KMSN 051920Z 27008G17KT 230V300 10SM FEW065 24/09 A2984 930 36 2300 270/08G17 230V300 RMK AO2
14837KMSN MSN20090605132511806/05/09 13:25:31  5-MIN KMSN 051925Z 28007G14KT 230V300 10SM FEW065 24/08 A2984 940 35 2300 270/07G14 230V300 RMK AO2
14837KMSN MSN20090605133011806/05/09 13:30:31  5-MIN KMSN 051930Z 31009G16KT 270V340 10SM FEW065 25/09 A2984 930 37 2300 310/09G16 270V340 RMK AO2
14837KMSN MSN20090605133511806/05/09 13:35:31  5-MIN KMSN 051935Z 25009G16KT 210V280 10SM FEW065 25/09 A2984 930 35 2300 240/09G16 210V280 RMK AO2
14837KMSN MSN20090605134010206/05/09 13:40:31  5-MIN KMSN 051940Z 25010G16KT 10SM FEW065 24/08 A2984 930 35 2300 250/10G16 RMK AO2
14837KMSN MSN20090605134510206/05/09 13:45:31  5-MIN KMSN 051945Z 29008G16KT 10SM FEW065 24/09 A2984 940 36 2300 290/08G16 RMK AO2
14837KMSN MSN20090605135011306/05/09 13:50:31  5-MIN KMSN 051950Z 30009KT 10SM FEW065 24/08 A2984 940 34 2300 300/09 RMK AO2 SLP102 T02440078
14837KMSN MSN20090605135511206/05/09 13:55:31  5-MIN KMSN 051955Z 27008KT 210V320 10SM FEW070 25/08 A2984 940 34 2300 270/08 210V320 RMK AO2
14837KMSN MSN20090605140010206/05/09 14:00:31  5-MIN KMSN 052000Z 27007G15KT 10SM FEW070 24/08 A2984 940 35 2300 260/07G15 RMK AO2
14837KMSN MSN20090605140511806/05/09 14:05:31  5-MIN KMSN 052005Z 27007G14KT 230V310 10SM FEW070 25/08 A2984 940 34 2400 270/07G14 230V310 RMK AO2
14837KMSN MSN20090605141010206/05/09 14:10:31  5-MIN KMSN 052010Z VRB06G14KT 10SM FEW070 25/09 A2984 940 35 2400 VRB/06G14 RMK AO2
14837KMSN MSN20090605141510206/05/09 14:15:31  5-MIN KMSN 052015Z 27008G16KT 10SM FEW070 24/09 A2984 940 36 2300 270/08G16 RMK AO2
14837KMSN MSN20090605142011806/05/09 14:20:31  5-MIN KMSN 052020Z 28007G16KT 250V310 10SM FEW070 24/08 A2984 940 35 2300 280/07G16 250V310 RMK AO2
14837KMSN MSN20090605142511806/05/09 14:25:31  5-MIN KMSN 052025Z 25007G15KT 220V290 10SM FEW070 25/08 A2984 940 34 2400 240/07G15 220V290 RMK AO2
14837KMSN MSN20090605143011206/05/09 14:30:31  5-MIN KMSN 052030Z 27007KT 230V330 10SM FEW070 25/09 A2983 950 35 2400 270/07 230V330 RMK AO2
14837KMSN MSN20090605143510206/05/09 14:35:31  5-MIN KMSN 052035Z VRB06G14KT 10SM FEW070 25/09 A2983 940 35 2400 VRB/06G14 RMK AO2
14837KMSN MSN20090605144011806/05/09 14:40:31  5-MIN KMSN 052040Z 25007G14KT 230V290 10SM FEW070 25/08 A2983 940 34 2400 250/07G14 230V290 RMK AO2
14837KMSN MSN20090605144511206/05/09 14:45:31  5-MIN KMSN 052045Z 27007KT 240V310 10SM FEW070 25/08 A2983 950 33 2400 270/07 240V310 RMK AO2
14837KMSN MSN20090605145012506/05/09 14:50:31  5-MIN KMSN 052050Z 29008G14KT 10SM FEW070 26/08 A2983 950 33 2400 290/08G14 RMK AO2 SLP100 T02560083 58013
14837KMSN MSN20090605145511806/05/09 14:55:31  5-MIN KMSN 052055Z 29009G14KT 250V320 10SM FEW070 25/08 A2983 940 34 2400 290/09G14 250V320 RMK AO2
14837KMSN MSN20090605150009606/05/09 15:00:31  5-MIN KMSN 052100Z 26006KT 10SM FEW070 25/08 A2983 940 34 2400 260/06 RMK AO2
14837KMSN MSN20090605150509606/05/09 15:05:31  5-MIN KMSN 052105Z 30009KT 10SM FEW070 25/08 A2983 940 34 2400 300/09 RMK AO2
14837KMSN MSN20090605151010206/05/09 15:10:31  5-MIN KMSN 052110Z VRB06G17KT 10SM FEW070 25/08 A2983 940 34 2400 VRB/06G17 RMK AO2
14837KMSN MSN20090605151510206/05/09 15:15:31  5-MIN KMSN 052115Z VRB06G17KT 10SM FEW070 26/08 A2983 950 33 2400 VRB/06G17 RMK AO2
14837KMSN MSN20090605152010206/05/09 15:20:31  5-MIN KMSN 052120Z VRB06G14KT 10SM FEW070 26/08 A2983 950 33 2400 VRB/06G14 RMK AO2
14837KMSN MSN20090605152510206/05/09 15:25:31  5-MIN KMSN 052125Z 29009G14KT 10SM FEW070 26/08 A2983 940 33 2400 290/09G14 RMK AO2
14837KMSN MSN20090605153010206/05/09 15:30:31  5-MIN KMSN 052130Z VRB05G14KT 10SM FEW070 25/08 A2983 950 34 2400 VRB/05G14 RMK AO2
14837KMSN MSN20090605153510206/05/09 15:35:31  5-MIN KMSN 052135Z 28005G14KT 10SM FEW070 26/09 A2983 950 34 2400 280/05G14 RMK AO2
14837KMSN MSN20090605154010206/05/09 15:40:31  5-MIN KMSN 052140Z 23008G14KT 10SM FEW070 25/08 A2983 950 34 2400 230/08G14 RMK AO2
14837KMSN MSN20090605154510206/05/09 15:45:31  5-MIN KMSN 052145Z 30012G16KT 10SM FEW070 25/08 A2983 950 34 2400 300/12G16 RMK AO2
14837KMSN MSN20090605155011906/05/09 15:50:31  5-MIN KMSN 052150Z 28011G16KT 10SM FEW070 25/08 A2983 950 34 2400 280/11G16 RMK AO2 SLP098 T02500083
14837KMSN MSN20090605155509906/05/09 15:55:31  5-MIN KMSN 052155Z VRB05G14KT 10SM CLR 25/08 A2982 950 34 2400 VRB/05G14 RMK AO2
14837KMSN MSN20090605160009306/05/09 16:00:31  5-MIN KMSN 052200Z 29007KT 10SM CLR 26/08 A2982 950 33 2400 290/07 RMK AO2
14837KMSN MSN20090605160509306/05/09 16:05:31  5-MIN KMSN 052205Z 29005KT 10SM CLR 25/08 A2983 950 33 2400 280/05 RMK AO2
14837KMSN MSN20090605161009606/05/09 16:10:31  5-MIN KMSN 052210Z 23007KT 10SM FEW070 26/08 A2982 950 33 2400 230/07 RMK AO2
14837KMSN MSN20090605161509606/05/09 16:15:31  5-MIN KMSN 052215Z VRB06KT 10SM FEW070 25/08 A2982 960 34 2400 VRB/06 RMK AO2
14837KMSN MSN20090605162009606/05/09 16:20:31  5-MIN KMSN 052220Z 24005KT 10SM FEW070 25/08 A2982 960 33 2400 240/05 RMK AO2
14837KMSN MSN20090605162511206/05/09 16:25:31  5-MIN KMSN 052225Z 25007KT 220V290 10SM FEW070 26/08 A2982 960 32 2400 250/07 220V290 RMK AO2
14837KMSN MSN20090605163009606/05/09 16:30:31  5-MIN KMSN 052230Z 27007KT 10SM FEW070 25/08 A2982 960 33 2400 270/07 RMK AO2
14837KMSN MSN20090605163509606/05/09 16:35:31  5-MIN KMSN 052235Z 29006KT 10SM FEW070 25/08 A2982 960 33 2400 280/06 RMK AO2
14837KMSN MSN20090605164009606/05/09 16:40:31  5-MIN KMSN 052240Z 28006KT 10SM FEW070 25/08 A2982 960 33 2400 280/06 RMK AO2
14837KMSN MSN20090605164509606/05/09 16:45:31  5-MIN KMSN 052245Z 24007KT 10SM FEW070 25/08 A2982 960 33 2400 240/07 RMK AO2
14837KMSN MSN20090605165011306/05/09 16:50:31  5-MIN KMSN 052250Z VRB06KT 10SM FEW070 25/08 A2982 960 34 2400 VRB/06 RMK AO2 SLP095 T02500083
14837KMSN MSN20090605165509606/05/09 16:55:31  5-MIN KMSN 052255Z VRB06KT 10SM FEW080 25/08 A2982 960 34 2400 VRB/06 RMK AO2
14837KMSN MSN20090605170009606/05/09 17:00:31  5-MIN KMSN 052300Z 24006KT 10SM FEW080 25/08 A2982 960 33 2400 240/06 RMK AO2
14837KMSN MSN20090605170509606/05/09 17:05:31  5-MIN KMSN 052305Z 24006KT 10SM FEW080 25/08 A2982 960 34 2400 240/06 RMK AO2
14837KMSN MSN20090605171009606/05/09 17:10:31  5-MIN KMSN 052310Z VRB06KT 10SM FEW080 25/08 A2982 960 34 2400 VRB/06 RMK AO2
14837KMSN MSN20090605171509606/05/09 17:15:31  5-MIN KMSN 052315Z VRB03KT 10SM FEW080 25/08 A2982 960 33 2400 VRB/03 RMK AO2
14837KMSN MSN20090605172009306/05/09 17:20:31  5-MIN KMSN 052320Z VRB04KT 10SM CLR 25/08 A2982 960 34 2400 VRB/04 RMK AO2
14837KMSN MSN20090605172509606/05/09 17:25:31  5-MIN KMSN 052325Z VRB05KT 10SM FEW080 25/08 A2982 960 33 2400 VRB/05 RMK AO2
14837KMSN MSN20090605173009606/05/09 17:30:31  5-MIN KMSN 052330Z 26007KT 10SM FEW080 25/08 A2982 960 33 2400 260/07 RMK AO2
14837KMSN MSN20090605173509606/05/09 17:35:31  5-MIN KMSN 052335Z VRB04KT 10SM FEW080 25/08 A2982 960 33 2400 VRB/04 RMK AO2
14837KMSN MSN20090605174009606/05/09 17:40:31  5-MIN KMSN 052340Z VRB05KT 10SM FEW080 25/08 A2982 960 33 2400 VRB/05 RMK AO2
14837KMSN MSN20090605174509606/05/09 17:45:31  5-MIN KMSN 052345Z VRB03KT 10SM FEW080 25/08 A2982 960 34 2400 VRB/03 RMK AO2
14837KMSN MSN20090605175013106/05/09 17:50:31  5-MIN KMSN 052350Z VRB04KT 10SM FEW080 24/08 A2982 960 35 2300 VRB/04 RMK AO2 SLP093 T02440083 10256 20228 56009
14837KMSN MSN20090605175509306/05/09 17:55:31  5-MIN KMSN 052355Z 25003KT 10SM CLR 24/08 A2981 960 35 2300 250/03 RMK AO2
14837KMSN MSN20090605180009206/05/09 18:00:31  5-MIN KMSN 060000Z 00000KT 9SM CLR 24/08 A2981 960 35 2300 000/00 RMK AO2
14837KMSN MSN20090605180509506/05/09 18:05:31  5-MIN KMSN 060005Z 23003KT 9SM FEW085 24/08 A2981 960 35 2300 230/03 RMK AO2
14837KMSN MSN20090605181009606/05/09 18:10:31  5-MIN KMSN 060010Z VRB04KT 10SM FEW085 24/08 A2981 960 35 2300 VRB/04 RMK AO2
14837KMSN MSN20090605181509606/05/09 18:15:31  5-MIN KMSN 060015Z 24003KT 10SM FEW085 24/08 A2982 960 36 2200 230/03 RMK AO2
14837KMSN MSN20090605182009606/05/09 18:20:31  5-MIN KMSN 060020Z VRB03KT 10SM FEW085 24/08 A2982 960 36 2200 VRB/03 RMK AO2
14837KMSN MSN20090605182509806/05/09 18:25:31  5-MIN KMSN 060025Z 00000KT 6SM HZ FEW085 24/08 A2982 960 35 2300 000/00 RMK AO2
14837KMSN MSN20090605183009806/05/09 18:30:31  5-MIN KMSN 060030Z 00000KT 5SM HZ FEW085 24/09 A2982 960 36 2300 000/00 RMK AO2
14837KMSN MSN20090605183509506/05/09 18:35:31  5-MIN KMSN 060035Z 00000KT 8SM FEW085 24/08 A2982 960 36 2200 000/00 RMK AO2
14837KMSN MSN20090605184009506/05/09 18:40:31  5-MIN KMSN 060040Z 00000KT 7SM FEW085 24/09 A2982 960 38 2200 000/00 RMK AO2
14837KMSN MSN20090605184509506/05/09 18:45:31  5-MIN KMSN 060045Z 00000KT 7SM FEW085 24/08 A2982 960 36 2200 000/00 RMK AO2
14837KMSN MSN20090605185011306/05/09 18:50:31  5-MIN KMSN 060050Z 00000KT 10SM FEW085 24/09 A2982 960 38 2200 000/00 RMK AO2 SLP093 T02390089
14837KMSN MSN20090605185509306/05/09 18:55:31  5-MIN KMSN 060055Z 00000KT 10SM CLR 24/08 A2981 960 36 2300 000/00 RMK AO2
14837KMSN MSN20090605190009606/05/09 19:00:31  5-MIN KMSN 060100Z 00000KT 10SM FEW080 23/09 A2981 960 39 2200 000/00 RMK AO2
14837KMSN MSN20090605190509606/05/09 19:05:31  5-MIN KMSN 060105Z 00000KT 10SM FEW080 23/09 A2981 960 39 2200 000/00 RMK AO2
14837KMSN MSN20090605191009606/05/09 19:10:31  5-MIN KMSN 060110Z 00000KT 10SM FEW080 23/09 A2982 960 42 2100 000/00 RMK AO2
14837KMSN MSN20090605191509606/05/09 19:15:31  5-MIN KMSN 060115Z 00000KT 10SM FEW080 23/09 A2982 960 42 2100 000/00 RMK AO2
14837KMSN MSN20090605192009606/05/09 19:20:31  5-MIN KMSN 060120Z 22003KT 10SM FEW080 23/09 A2982 960 42 2100 220/03 RMK AO2
14837KMSN MSN20090605192509606/05/09 19:25:31  5-MIN KMSN 060125Z 00000KT 10SM FEW080 23/09 A2982 960 42 2100 000/00 RMK AO2
14837KMSN MSN20090605193009606/05/09 19:30:31  5-MIN KMSN 060130Z 23003KT 10SM FEW080 22/09 A2982 960 43 2100 230/03 RMK AO2
14837KMSN MSN20090605193509606/05/09 19:35:31  5-MIN KMSN 060135Z 00000KT 10SM FEW080 22/10 A2982 960 45 2100 000/00 RMK AO2
14837KMSN MSN20090605194009606/05/09 19:40:31  5-MIN KMSN 060140Z 00000KT 10SM FEW080 21/10 A2982 950 48 1900 000/00 RMK AO2
14837KMSN MSN20090605194509606/05/09 19:45:31  5-MIN KMSN 060145Z 00000KT 10SM FEW080 20/11 A2982 950 54 1800 000/00 RMK AO2
14837KMSN MSN20090605195011306/05/09 19:50:31  5-MIN KMSN 060150Z 00000KT 10SM FEW080 19/10 A2982 950 54 1700 000/00 RMK AO2 SLP097 T01940100
14837KMSN MSN20090605195509606/05/09 19:55:31  5-MIN KMSN 060155Z 00000KT 10SM FEW080 19/10 A2983 950 56 1700 000/00 RMK AO2
14837KMSN MSN20090605200009606/05/09 20:00:31  5-MIN KMSN 060200Z 00000KT 10SM FEW080 19/11 A2983 950 56 1700 000/00 RMK AO2
14837KMSN MSN20090605200509606/05/09 20:05:31  5-MIN KMSN 060205Z 00000KT 10SM FEW080 19/11 A2983 950 58 1700 000/00 RMK AO2
14837KMSN MSN20090605201009606/05/09 20:10:31  5-MIN KMSN 060210Z 00000KT 10SM FEW080 18/11 A2983 950 62 1600 000/00 RMK AO2
14837KMSN MSN20090605201509606/05/09 20:15:31  5-MIN KMSN 060215Z 00000KT 10SM FEW080 18/11 A2983 940 64 1500 000/00 RMK AO2
14837KMSN MSN20090605202009606/05/09 20:20:31  5-MIN KMSN 060220Z 00000KT 10SM FEW080 17/12 A2984 940 69 1500 000/00 RMK AO2
14837KMSN MSN20090605202509606/05/09 20:25:31  5-MIN KMSN 060225Z 32003KT 10SM FEW080 17/11 A2984 930 69 1400 320/03 RMK AO2
14837KMSN MSN20090605203009606/05/09 20:30:31  5-MIN KMSN 060230Z 31003KT 10SM FEW080 18/11 A2984 930 60 1600 310/03 RMK AO2
14837KMSN MSN20090605203509606/05/09 20:35:31  5-MIN KMSN 060235Z 31003KT 10SM FEW080 18/11 A2985 930 64 1500 310/03 RMK AO2
14837KMSN MSN20090605204009606/05/09 20:40:31  5-MIN KMSN 060240Z 00000KT 10SM FEW080 17/11 A2985 930 64 1400 000/00 RMK AO2
14837KMSN MSN20090605204509606/05/09 20:45:31  5-MIN KMSN 060245Z 00000KT 10SM FEW080 18/10 A2985 930 58 1600 000/00 RMK AO2
14837KMSN MSN20090605205011606/05/09 20:50:31  5-MIN KMSN 060250Z 00000KT 10SM CLR 18/10 A2985 930 58 1600 000/00 RMK AO2 SLP107 T01830100 56006
14837KMSN MSN20090605205509306/05/09 20:55:31  5-MIN KMSN 060255Z 00000KT 10SM CLR 17/11 A2985 930 64 1400 000/00 RMK AO2
14837KMSN MSN20090605210009306/05/09 21:00:31  5-MIN KMSN 060300Z 00000KT 10SM CLR 17/10 A2986 920 62 1400 000/00 RMK AO2
14837KMSN MSN20090605210509306/05/09 21:05:31  5-MIN KMSN 060305Z 33003KT 10SM CLR 18/10 A2986 920 58 1600 330/03 RMK AO2
14837KMSN MSN20090605211009306/05/09 21:10:31  5-MIN KMSN 060310Z 34003KT 10SM CLR 18/10 A2986 920 58 1600 340/03 RMK AO2
14837KMSN MSN20090605211509306/05/09 21:15:31  5-MIN KMSN 060315Z 34003KT 10SM CLR 18/10 A2987 910 58 1600 340/03 RMK AO2
14837KMSN MSN20090605212009306/05/09 21:20:31  5-MIN KMSN 060320Z 35003KT 10SM CLR 18/10 A2987 910 58 1600 340/03 RMK AO2
14837KMSN MSN20090605212509306/05/09 21:25:31  5-MIN KMSN 060325Z 00000KT 10SM CLR 18/10 A2987 910 58 1600 000/00 RMK AO2
14837KMSN MSN20090605213009306/05/09 21:30:31  5-MIN KMSN 060330Z 00000KT 10SM CLR 18/10 A2987 910 58 1600 000/00 RMK AO2
14837KMSN MSN20090605213509306/05/09 21:35:31  5-MIN KMSN 060335Z 34003KT 10SM CLR 18/10 A2987 910 58 1500 340/03 RMK AO2
14837KMSN MSN20090605214009306/05/09 21:40:31  5-MIN KMSN 060340Z 33003KT 10SM CLR 17/10 A2988 910 64 1400 330/03 RMK AO2
14837KMSN MSN20090605214509306/05/09 21:45:31  5-MIN KMSN 060345Z 34003KT 10SM CLR 16/10 A2988 900 67 1300 330/03 RMK AO2
14837KMSN MSN20090605215011006/05/09 21:50:31  5-MIN KMSN 060350Z 00000KT 10SM CLR 16/10 A2988 900 67 1300 000/00 RMK AO2 SLP115 T01610100
14837KMSN MSN20090605215509306/05/09 21:55:31  5-MIN KMSN 060355Z 33004KT 10SM CLR 16/09 A2988 900 64 1300 330/04 RMK AO2
14837KMSN MSN20090605220009306/05/09 22:00:31  5-MIN KMSN 060400Z 33004KT 10SM CLR 17/09 A2988 900 60 1400 330/04 RMK AO2
14837KMSN MSN20090605220509306/05/09 22:05:31  5-MIN KMSN 060405Z 33004KT 10SM CLR 17/09 A2988 900 60 1400 330/04 RMK AO2
14837KMSN MSN20090605221009306/05/09 22:10:31  5-MIN KMSN 060410Z 34005KT 10SM CLR 17/09 A2989 900 57 1400 340/05 RMK AO2
14837KMSN MSN20090605221509306/05/09 22:15:31  5-MIN KMSN 060415Z 34005KT 10SM CLR 17/09 A2989 890 57 1400 340/05 RMK AO2
14837KMSN MSN20090605222009306/05/09 22:20:31  5-MIN KMSN 060420Z 33006KT 10SM CLR 17/08 A2989 890 55 1400 330/06 RMK AO2
14837KMSN MSN20090605222509306/05/09 22:25:31  5-MIN KMSN 060425Z 34007KT 10SM CLR 17/08 A2989 890 55 1400 340/07 RMK AO2
14837KMSN MSN20090605223009306/05/09 22:30:31  5-MIN KMSN 060430Z 34008KT 10SM CLR 17/08 A2990 890 53 1400 340/08 RMK AO2
14837KMSN MSN20090605223509306/05/09 22:35:31  5-MIN KMSN 060435Z 35007KT 10SM CLR 17/07 A2990 880 51 1400 340/07 RMK AO2
14837KMSN MSN20090605224009306/05/09 22:40:31  5-MIN KMSN 060440Z 35007KT 10SM CLR 17/07 A2990 880 49 1400 350/07 RMK AO2
14837KMSN MSN20090607132510806/07/09 13:25:31  5-MIN KMSN 071925Z 05011G19KT 9SM SCT018 SCT110 18/13 A2987 910 70 1500 050/11G19 RMK AO2
14837KMSN MSN20090607133010806/07/09 13:30:31  5-MIN KMSN 071930Z 05012G19KT 9SM SCT018 SCT110 18/12 A2988 900 69 1500 050/12G19 RMK AO2
14837KMSN MSN20090607133510206/07/09 13:35:31  5-MIN KMSN 071935Z 04012KT 9SM SCT018 SCT110 18/12 A2988 900 69 1500 040/12 RMK AO2
14837KMSN MSN20090607134010206/07/09 13:40:31  5-MIN KMSN 071940Z 02011KT 9SM BKN021 BKN110 18/12 A2989 890 69 1500 020/11 RMK AO2
14837KMSN MSN20090607134510206/07/09 13:45:31  5-MIN KMSN 071945Z 03012KT 9SM BKN021 BKN110 17/12 A2989 890 72 1400 030/12 RMK AO2
14837KMSN MSN20090607135011906/07/09 13:50:31  5-MIN KMSN 071950Z 05010KT 9SM BKN021 BKN110 18/12 A2990 890 69 1500 050/10 RMK AO2 SLP124 T01780122
14837KMSN MSN20090607135510106/07/09 13:55:31  5-MIN KMSN 071955Z 04011G15KT 9SM BKN021 18/12 A2990 880 69 1400 040/11G15 RMK AO2
14837KMSN MSN20090607140010106/07/09 14:00:31  5-MIN KMSN 072000Z 04012G15KT 9SM BKN021 18/12 A2991 870 69 1400 040/12G15 RMK AO2
14837KMSN MSN20090607140509506/07/09 14:05:31  5-MIN KMSN 072005Z 02009KT 9SM BKN021 18/12 A2991 870 69 1400 020/09 RMK AO2
14837KMSN MSN20090607141009506/07/09 14:10:31  5-MIN KMSN 072010Z 03011KT 9SM BKN021 18/12 A2991 870 69 1400 020/11 RMK AO2
14837KMSN MSN20090607141509506/07/09 14:15:31  5-MIN KMSN 072015Z 02010KT 9SM BKN021 18/12 A2991 870 69 1400 020/10 RMK AO2
14837KMSN MSN20090607142010206/07/09 14:20:31  5-MIN KMSN 072020Z 06007KT 9SM BKN021 BKN110 17/12 A2992 870 72 1400 050/07 RMK AO2
14837KMSN MSN20090607142510206/07/09 14:25:31  5-MIN KMSN 072025Z 03009KT 9SM BKN021 BKN110 18/12 A2992 860 69 1400 030/09 RMK AO2
14837KMSN MSN20090607143010206/07/09 14:30:31  5-MIN KMSN 072030Z 02006KT 9SM BKN021 BKN110 18/12 A2993 860 69 1400 020/06 RMK AO2
14837KMSN MSN20090607143510206/07/09 14:35:31  5-MIN KMSN 072035Z 02008KT 9SM BKN021 BKN110 18/13 A2992 860 70 1500 020/08 RMK AO2
14837KMSN MSN20090607144010206/07/09 14:40:31  5-MIN KMSN 072040Z 03007KT 9SM SCT023 BKN110 18/12 A2992 860 69 1400 030/07 RMK AO2
14837KMSN MSN20090607144510206/07/09 14:45:31  5-MIN KMSN 072045Z 02008KT 9SM SCT023 BKN110 18/12 A2992 870 67 1500 020/08 RMK AO2
14837KMSN MSN20090607145012506/07/09 14:50:31  5-MIN KMSN 072050Z 05008KT 9SM FEW025 BKN110 18/13 A2991 870 70 1500 050/08 RMK AO2 SLP130 T01830128 51009
14837KMSN MSN20090607145510806/07/09 14:55:31  5-MIN KMSN 072055Z 04009G17KT 9SM FEW025 BKN110 19/13 A2991 870 67 1600 040/09G17 RMK AO2
14837KMSN MSN20090607150010806/07/09 15:00:31  5-MIN KMSN 072100Z 04008G17KT 9SM FEW025 BKN110 18/12 A2992 870 67 1500 030/08G17 RMK AO2
14837KMSN MSN20090607150510206/07/09 15:05:31  5-MIN KMSN 072105Z 03009KT 9SM FEW025 BKN110 18/12 A2991 870 69 1400 030/09 RMK AO2
14837KMSN MSN20090607151010806/07/09 15:10:31  5-MIN KMSN 072110Z 03010G15KT 9SM FEW025 BKN110 18/12 A2990 880 69 1500 030/10G15 RMK AO2
14837KMSN MSN20090607151510806/07/09 15:15:31  5-MIN KMSN 072115Z 03008G15KT 9SM FEW025 BKN110 18/13 A2990 880 70 1500 030/08G15 RMK AO2
14837KMSN MSN20090607152010206/07/09 15:20:31  5-MIN KMSN 072120Z 03010KT 9SM FEW025 BKN110 19/13 A2991 880 67 1600 030/10 RMK AO2
14837KMSN MSN20090607152510206/07/09 15:25:31  5-MIN KMSN 072125Z 03008KT 9SM FEW025 BKN110 18/12 A2990 880 67 1500 030/08 RMK AO2
14837KMSN MSN20090607153010806/07/09 15:30:31  5-MIN KMSN 072130Z 04010G16KT 9SM FEW025 BKN110 19/12 A2990 880 65 1600 040/10G16 RMK AO2
14837KMSN MSN20090607153509506/07/09 15:35:31  5-MIN KMSN 072135Z 02010KT 9SM FEW100 19/13 A2991 880 67 1600 020/10 RMK AO2
14837KMSN MSN20090607154009506/07/09 15:40:31  5-MIN KMSN 072140Z 04012KT 9SM FEW100 18/12 A2990 880 69 1400 040/12 RMK AO2
14837KMSN MSN20090607154509506/07/09 15:45:31  5-MIN KMSN 072145Z 03011KT 9SM FEW100 17/12 A2991 870 69 1400 030/11 RMK AO2
14837KMSN MSN20090607155011206/07/09 15:50:31  5-MIN KMSN 072150Z 06011KT 9SM FEW100 17/12 A2991 880 69 1400 050/11 RMK AO2 SLP127 T01720117
14837KMSN MSN20090607155509206/07/09 15:55:31  5-MIN KMSN 072155Z 05011KT 9SM CLR 17/12 A2991 880 69 1400 040/11 RMK AO2
14837KMSN MSN20090607160009206/07/09 16:00:31  5-MIN KMSN 072200Z 05012KT 9SM CLR 17/12 A2990 880 72 1400 050/12 RMK AO2
14837KMSN MSN20090607160509906/07/09 16:05:31  5-MIN KMSN 072205Z 05011KT 9SM CLR 17/12 A2989 900 72 1400 050/11 RMK AO2 PRESFR
14837KMSN MSN20090607161009906/07/09 16:10:31  5-MIN KMSN 072210Z 07012KT 9SM CLR 17/12 A2987 910 72 1400 070/12 RMK AO2 PRESFR
14837KMSN MSN20090607161509206/07/09 16:15:31  5-MIN KMSN 072215Z 06013KT 9SM CLR 17/12 A2987 910 72 1400 060/13 RMK AO2
14837KMSN MSN20090607162009206/07/09 16:20:31  5-MIN KMSN 072220Z 05011KT 9SM CLR 18/12 A2988 900 69 1500 050/11 RMK AO2
14837KMSN MSN20090607162509206/07/09 16:25:31  5-MIN KMSN 072225Z 04011KT 9SM CLR 18/12 A2989 890 69 1500 040/11 RMK AO2
14837KMSN MSN20090607163009206/07/09 16:30:31  5-MIN KMSN 072230Z 04012KT 9SM CLR 18/12 A2989 890 69 1500 040/12 RMK AO2
14837KMSN MSN20090607163509206/07/09 16:35:31  5-MIN KMSN 072235Z 05010KT 9SM CLR 18/12 A2990 890 67 1500 040/10 RMK AO2
14837KMSN MSN20090607164009506/07/09 16:40:31  5-MIN KMSN 072240Z 04012KT 9SM SCT031 18/12 A2989 890 67 1500 040/12 RMK AO2
14837KMSN MSN20090607164509506/07/09 16:45:31  5-MIN KMSN 072245Z 05011KT 9SM SCT031 18/12 A2989 890 67 1500 050/11 RMK AO2
14837KMSN MSN20090607165011206/07/09 16:50:31  5-MIN KMSN 072250Z 05008KT 9SM SCT031 18/12 A2990 890 67 1500 050/08 RMK AO2 SLP125 T01830122
14837KMSN MSN20090607165509506/07/09 16:55:31  5-MIN KMSN 072255Z 05010KT 9SM BKN031 18/13 A2990 880 72 1500 050/10 RMK AO2
14837KMSN MSN20090607170009506/07/09 17:00:31  5-MIN KMSN 072300Z 03008KT 9SM BKN031 18/12 A2990 880 67 1500 030/08 RMK AO2
14837KMSN MSN20090607170509506/07/09 17:05:31  5-MIN KMSN 072305Z 03009KT 9SM OVC031 18/12 A2990 880 67 1500 030/09 RMK AO2
14837KMSN MSN20090607171009506/07/09 17:10:31  5-MIN KMSN 072310Z 04010KT 9SM BKN031 18/12 A2989 890 67 1500 040/10 RMK AO2
14837KMSN MSN20090607171509506/07/09 17:15:31  5-MIN KMSN 072315Z 03010KT 9SM BKN031 18/13 A2989 890 70 1500 030/10 RMK AO2
14837KMSN MSN20090607172009506/07/09 17:20:31  5-MIN KMSN 072320Z 04007KT 9SM BKN031 18/13 A2990 880 70 1500 040/07 RMK AO2
14837KMSN MSN20090607172509506/07/09 17:25:31  5-MIN KMSN 072325Z 03008KT 9SM FEW031 18/12 A2991 880 67 1500 030/08 RMK AO2
14837KMSN MSN20090607173009506/07/09 17:30:31  5-MIN KMSN 072330Z 04009KT 9SM FEW031 18/12 A2991 880 67 1500 040/09 RMK AO2
14837KMSN MSN20090607173509506/07/09 17:35:31  5-MIN KMSN 072335Z 02009KT 9SM FEW031 18/12 A2991 880 69 1400 020/09 RMK AO2
14837KMSN MSN20090607174009506/07/09 17:40:31  5-MIN KMSN 072340Z 02010KT 9SM FEW031 18/12 A2991 870 69 1400 020/10 RMK AO2
14837KMSN MSN20090607174509506/07/09 17:45:31  5-MIN KMSN 072345Z 02009KT 9SM FEW031 17/12 A2991 870 72 1400 020/09 RMK AO2
14837KMSN MSN20090607175012706/07/09 17:50:31  5-MIN KMSN 072350Z 03010KT 9SM CLR 17/12 A2991 870 72 1400 030/10 RMK AO2 SLP129 T01720122 10194 20161 53009
14837KMSN MSN20090607175509206/07/09 17:55:31  5-MIN KMSN 072355Z 02011KT 9SM CLR 17/12 A2991 870 72 1400 020/11 RMK AO2
14837KMSN MSN20090607180009206/07/09 18:00:31  5-MIN KMSN 080000Z 01010KT 9SM CLR 17/12 A2991 870 72 1400 010/10 RMK AO2
14837KMSN MSN20090607180509506/07/09 18:05:31  5-MIN KMSN 080005Z 02010KT 9SM FEW029 17/12 A2991 880 75 1300 020/10 RMK AO2
14837KMSN MSN20090607181009506/07/09 18:10:31  5-MIN KMSN 080010Z 02011KT 9SM FEW029 17/12 A2991 880 72 1300 020/11 RMK AO2
14837KMSN MSN20090607181509206/07/09 18:15:31  5-MIN KMSN 080015Z 02012KT 9SM CLR 17/12 A2991 880 72 1300 020/12 RMK AO2
14837KMSN MSN20090607182009206/07/09 18:20:31  5-MIN KMSN 080020Z 02011KT 9SM CLR 16/12 A2990 880 75 1300 020/11 RMK AO2
14837KMSN MSN20090607182509206/07/09 18:25:31  5-MIN KMSN 080025Z 02010KT 9SM CLR 16/12 A2990 880 75 1300 020/10 RMK AO2
14837KMSN MSN20090607183009506/07/09 18:30:31  5-MIN KMSN 080030Z 03013KT 9SM FEW028 16/12 A2990 880 75 1300 030/13 RMK AO2
14837KMSN MSN20090607183509506/07/09 18:35:31  5-MIN KMSN 080035Z 03013KT 9SM FEW028 16/12 A2990 880 77 1200 030/13 RMK AO2
14837KMSN MSN20090607184009206/07/09 18:40:31  5-MIN KMSN 080040Z 03012KT 9SM CLR 16/12 A2991 880 77 1200 030/12 RMK AO2
14837KMSN MSN20090607184509206/07/09 18:45:31  5-MIN KMSN 080045Z 04012KT 9SM CLR 16/12 A2990 880 77 1200 040/12 RMK AO2
14837KMSN MSN20090607185010906/07/09 18:50:31  5-MIN KMSN 080050Z 03012KT 8SM CLR 16/11 A2990 880 74 1200 030/12 RMK AO2 SLP126 T01560111
14837KMSN MSN20090607185509206/07/09 18:55:31  5-MIN KMSN 080055Z 03009KT 8SM CLR 15/11 A2991 880 77 1100 030/09 RMK AO2
14837KMSN MSN20090607190009206/07/09 19:00:31  5-MIN KMSN 080100Z 03008KT 8SM CLR 15/11 A2991 870 77 1100 030/08 RMK AO2
14837KMSN MSN20090607190509206/07/09 19:05:31  5-MIN KMSN 080105Z 03009KT 8SM CLR 15/11 A2991 870 77 1100 030/09 RMK AO2
14837KMSN MSN20090607191009206/07/09 19:10:31  5-MIN KMSN 080110Z 03011KT 8SM CLR 15/11 A2992 870 77 1100 030/11 RMK AO2
14837KMSN MSN20090607191509206/07/09 19:15:31  5-MIN KMSN 080115Z 04012KT 8SM CLR 14/11 A2992 870 80 1000 030/12 RMK AO2
14837KMSN MSN20090607192009206/07/09 19:20:31  5-MIN KMSN 080120Z 04009KT 8SM CLR 14/11 A2991 870 80 1100 040/09 RMK AO2
14837KMSN MSN20090607192509206/07/09 19:25:31  5-MIN KMSN 080125Z 04007KT 8SM CLR 14/11 A2991 870 83 1000 040/07 RMK AO2
14837KMSN MSN20090607193009206/07/09 19:30:31  5-MIN KMSN 080130Z 04008KT 8SM CLR 14/11 A2991 870 83 1000 030/08 RMK AO2
14837KMSN MSN20090607193509206/07/09 19:35:31  5-MIN KMSN 080135Z 04010KT 8SM CLR 14/11 A2991 880 83 1000 040/10 RMK AO2
14837KMSN MSN20090607194009206/07/09 19:40:31  5-MIN KMSN 080140Z 05008KT 7SM CLR 14/11 A2991 880 83 1000 040/08 RMK AO2
14837KMSN MSN20090607194509506/07/09 19:45:31  5-MIN KMSN 080145Z 04009KT 7SM FEW080 14/11 A2990 880 83 1000 040/09 RMK AO2
14837KMSN MSN20090607195011206/07/09 19:50:31  5-MIN KMSN 080150Z 05009KT 8SM SCT085 14/11 A2990 880 83 1000 050/09 RMK AO2 SLP126 T01390111
14837KMSN MSN20090607195509506/07/09 19:55:31  5-MIN KMSN 080155Z 05010KT 8SM BKN085 14/11 A2990 890 83 1000 050/10 RMK AO2
14837KMSN MSN20090607200009506/07/09 20:00:31  5-MIN KMSN 080200Z 06009KT 8SM BKN090 14/11 A2989 890 83 1000 060/09 RMK AO2
14837KMSN MSN20090607200509506/07/09 20:05:31  5-MIN KMSN 080205Z 05010KT 8SM BKN090 14/11 A2990 890 83 1000 050/10 RMK AO2
14837KMSN MSN20090607201009506/07/09 20:10:31  5-MIN KMSN 080210Z 05010KT 8SM BKN090 14/11 A2989 890 80 1000 050/10 RMK AO2
14837KMSN MSN20090607201509506/07/09 20:15:31  5-MIN KMSN 080215Z 05009KT 8SM BKN090 14/11 A2990 890 83 1000 050/09 RMK AO2
14837KMSN MSN20090607202009506/07/09 20:20:31  5-MIN KMSN 080220Z 04010KT 8SM OVC090 14/11 A2990 880 80 1000 040/10 RMK AO2
14837KMSN MSN20090607202510206/07/09 20:25:31  5-MIN KMSN 080225Z 04009KT 8SM FEW024 OVC090 14/11 A2991 880 83 1000 040/09 RMK AO2
14837KMSN MSN20090607203010206/07/09 20:30:31  5-MIN KMSN 080230Z 05009KT 8SM SCT024 OVC090 14/11 A2991 880 83 1000 040/09 RMK AO2
14837KMSN MSN20090607203510206/07/09 20:35:31  5-MIN KMSN 080235Z 04008KT 8SM BKN024 OVC090 14/11 A2991 880 80 1000 030/08 RMK AO2
14837KMSN MSN20090607204010206/07/09 20:40:31  5-MIN KMSN 080240Z 04008KT 8SM BKN024 OVC090 14/11 A2991 870 83 1000 040/08 RMK AO2
14837KMSN MSN20090607204510206/07/09 20:45:31  5-MIN KMSN 080245Z 04007KT 8SM BKN024 OVC085 14/11 A2991 870 83 1000 040/07 RMK AO2
14837KMSN MSN20090607205011806/07/09 20:50:31  5-MIN KMSN 080250Z 04009KT 8SM OVC022 14/11 A2992 860 83 1000 040/09 RMK AO2 SLP132 T01390111 55000
14837KMSN MSN20090607205509506/07/09 20:55:31  5-MIN KMSN 080255Z 04008KT 8SM OVC022 14/11 A2992 860 83 1000 040/08 RMK AO2
14837KMSN MSN20090607210009506/07/09 21:00:31  5-MIN KMSN 080300Z 04009KT 8SM OVC022 14/11 A2991 870 83 1000 040/09 RMK AO2
14837KMSN MSN20090607210509506/07/09 21:05:31  5-MIN KMSN 080305Z 04009KT 8SM OVC022 14/11 A2991 870 83 1000 040/09 RMK AO2
14837KMSN MSN20090607211009506/07/09 21:10:31  5-MIN KMSN 080310Z 04009KT 8SM OVC022 14/11 A2991 880 83 1000 040/09 RMK AO2
14837KMSN MSN20090607211510206/07/09 21:15:31  5-MIN KMSN 080315Z 04009KT 8SM BKN022 OVC070 14/11 A2990 880 83 1000 040/09 RMK AO2
14837KMSN MSN20090607212010206/07/09 21:20:31  5-MIN KMSN 080320Z 05009KT 8SM BKN022 OVC070 14/11 A2990 890 83 1000 040/09 RMK AO2
14837KMSN MSN20090607212510206/07/09 21:25:31  5-MIN KMSN 080325Z 05010KT 7SM SCT022 OVC065 14/11 A2990 890 83 1000 050/10 RMK AO2
14837KMSN MSN20090607213011806/07/09 21:30:31  5-MIN KMSN 080330Z 05010KT 7SM -RA SCT022 OVC065 14/11 A2989 890 83 1000 050/10 RMK AO2 RAB27 P0000
14837KMSN MSN20090607213511806/07/09 21:35:31  5-MIN KMSN 080335Z 05009KT 7SM -RA FEW022 OVC065 14/11 A2989 890 83 1000 050/09 RMK AO2 RAB27 P0000
14837KMSN MSN20090607214011106/07/09 21:40:31  5-MIN KMSN 080340Z 07010KT 7SM -RA OVC065 14/12 A2989 890 86 1000 070/10 RMK AO2 RAB27 P0000
14837KMSN MSN20090607214515606/07/09 21:45:31  5-MIN KMSN 080345Z 07010KT 7SM -TSRA FEW020 OVC060 14/12 A2989 890 86 1000 070/10 RMK AO2 TSB45RAB27 OCNL LTGIC VC W TS VC W MOV NE P0001
14837KMSN MSN20090607215017306/07/09 21:50:31  5-MIN KMSN 080350Z 08011KT 7SM -TSRA SCT020 OVC060 14/11 A2989 890 83 1000 080/11 RMK AO2 TSB45RAB27 SLP123 OCNL LTGIC VC W TS VC W MOV NE P0001 T01390111
14837KMSN MSN20090607215514506/07/09 21:55:31  5-MIN KMSN 080355Z 07010KT 7SM -TSRA BKN020 OVC060 14/12 A2989 900 86 1000 070/10 RMK AO2 OCNL LTGIC VC W TS VC W MOV NE P0000
14837KMSN MSN20090607220014506/07/09 22:00:31  5-MIN KMSN 080400Z 06006KT 7SM -TSRA BKN020 OVC060 14/12 A2988 900 86 1000 060/06 RMK AO2 OCNL LTGIC VC W TS VC W MOV NE P0000
14837KMSN MSN20090607220515806/07/09 22:05:31  5-MIN KMSN 080405Z 06011G18KT 7SM -TSRA BKN020 OVC060 14/12 A2987 910 86 1000 060/11G18 RMK AO2 PRESFR OCNL LTGIC VC W TS VC W MOV NE P0000
14837KMSN MSN20090607221015106/07/09 22:10:31  5-MIN KMSN 080410Z 06011G18KT 7SM -TSRA BKN020 OVC060 13/11 A2987 910 86 1000 060/11G18 RMK AO2 OCNL LTGIC VC W TS VC W MOV NE P0000
14837KMSN MSN20090607221515106/07/09 22:15:31  5-MIN KMSN 080415Z 07008G17KT 7SM -TSRA BKN020 OVC085 13/12 A2987 910 89 1000 070/08G17 RMK AO2 OCNL LTGIC VC N TS VC N MOV NE P0000
14837KMSN MSN20090607222015206/07/09 22:20:31  5-MIN KMSN 080420Z 08007KT 7SM -TSRA FEW012 BKN020 OVC085 13/12 A2987 910 89 1000 070/07 RMK AO2 OCNL LTGIC VC N TS VC N MOV NE P0000
14837KMSN MSN20090607222513406/07/09 22:25:31  5-MIN KMSN 080425Z 08012G16KT 6SM -RA BR FEW012 BKN020 OVC085 13/12 A2987 910 89 1000 070/12G16 RMK AO2 TSE21 P0000
14837KMSN MSN20090607223012806/07/09 22:30:31  5-MIN KMSN 080430Z 08011KT 6SM -RA BR FEW012 BKN020 OVC085 13/11 A2987 910 86 1000 080/11 RMK AO2 TSE21 P0000
14837KMSN MSN20090607223512806/07/09 22:35:31  5-MIN KMSN 080435Z 06010KT 6SM -RA BR SCT012 BKN020 OVC085 13/12 A2986 920 89 1000 060/10 RMK AO2 TSE21 P0000
14837KMSN MSN20090607224013406/07/09 22:40:31  5-MIN KMSN 080440Z 07010G16KT 6SM -RA BR BKN012 BKN020 OVC085 13/12 A2986 920 89 1000 070/10G16 RMK AO2 TSE21 P0000
14837KMSN MSN20090607224513306/07/09 22:45:31  5-MIN KMSN 080445Z 06010G19KT 5SM -RA BR BKN012 BKN020 OVC080 13/12 A2986 920 93 900 060/10G19 RMK AO2 TSE21 P0000
14837KMSN MSN20090607225014306/07/09 22:50:31  5-MIN KMSN 080450Z 07009G19KT 5SM -RA BR BKN012 OVC080 13/12 A2986 920 93 900 070/09G19 RMK AO2 TSE21 SLP111 P0000 T01280117
14837KMSN MSN20090607225510706/07/09 22:55:31  5-MIN KMSN 080455Z 07008KT 5SM -RA BR OVC012 13/12 A2986 920 93 900 070/08 RMK AO2 P0000
14837KMSN MSN20090607230010706/07/09 23:00:31  5-MIN KMSN 080500Z 09010KT 5SM -RA BR OVC010 13/12 A2986 920 93 900 090/10 RMK AO2 P0001
14837KMSN MSN20090607230510706/07/09 23:05:31  5-MIN KMSN 080505Z 08010KT 5SM -RA BR OVC010 13/12 A2986 920 93 900 080/10 RMK AO2 P0001
14837KMSN MSN20090607231010706/07/09 23:10:31  5-MIN KMSN 080510Z 08010KT 5SM -RA BR OVC010 13/12 A2986 920 93 900 080/10 RMK AO2 P0001
14837KMSN MSN20090607231510706/07/09 23:15:31  5-MIN KMSN 080515Z 07010KT 5SM -RA BR OVC010 13/12 A2986 920 93 900 070/10 RMK AO2 P0001
14837KMSN MSN20090607232010706/07/09 23:20:31  5-MIN KMSN 080520Z 06011KT 5SM -RA BR OVC010 13/12 A2986 920 93 900 060/11 RMK AO2 P0001
14837KMSN MSN20090607232515606/07/09 23:25:31  5-MIN KMSN 080525Z 05010KT 4SM -TSRA BR OVC008 13/12 A2986 920 93 900 050/10 RMK AO2 TSB25 CIG 007V010 OCNL LTGIC OHD TS OHD MOV NE P0002
14837KMSN MSN20090607233014406/07/09 23:30:31  5-MIN KMSN 080530Z 05007KT 4SM -TSRA BR OVC008 13/12 A2987 920 93 900 050/07 RMK AO2 TSB25 OCNL LTGIC OHD TS OHD MOV NE P0002
14837KMSN MSN20090607233514406/07/09 23:35:31  5-MIN KMSN 080535Z 03008KT 3SM -TSRA BR OVC008 13/12 A2986 920 93 900 030/08 RMK AO2 TSB25 OCNL LTGIC OHD TS OHD MOV NE P0004
14837KMSN MSN20090607234014406/07/09 23:40:31  5-MIN KMSN 080540Z 02010KT 3SM -TSRA BR OVC008 13/12 A2986 920 93 900 020/10 RMK AO2 TSB25 OCNL LTGIC OHD TS OHD MOV NE P0005
14837KMSN MSN20090607234514406/07/09 23:45:31  5-MIN KMSN 080545Z 01008KT 3SM -TSRA BR OVC008 13/12 A2986 920 93 900 010/08 RMK AO2 TSB25 OCNL LTGIC OHD TS OHD MOV NE P0006
14837KMSN MSN20090607235019406/07/09 23:50:31  5-MIN KMSN 080550Z 03011KT 3SM TSRA BR OVC008 13/12 A2986 920 93 900 030/11 RMK AO2 TSB25 SLP111 OCNL LTGIC OHD TS OHD MOV NE P0008 60009 T01280117 10172 20128 401940094 53003
14837KMSN MSN20090607235514806/07/09 23:55:31  5-MIN KMSN 080555Z 01011KT 3SM TSRA BR OVC008 13/12 A2987 920 93 900 010/11 RMK AO2 CIG 006V011 FRQ LTGIC OHD TS OHD MOV NE P0001
14837KMSN MSN20090608000015006/08/09 00:00:32  5-MIN KMSN 080600Z 35010KT 3SM TSRA BR OVC008 12/12 A2988 900 96 800 350/10 RMK AO2 CIG 006V011 FRQ LTGICCA OHD TS OHD MOV NE P0002
14837KMSN MSN20090608000515706/08/09 00:05:31  5-MIN KMSN 080605Z 31007KT 3SM TSRA BR OVC008 13/12 A2991 880 93 900 310/07 RMK AO2 CIG 005V011 PRESRR FRQ LTGICCA OHD TS OHD MOV NE P0003
14837KMSN MSN20090608001016406/08/09 00:10:31  5-MIN KMSN 080610Z 31009G15KT 1SM +TSRA BR BKN006 OVC010 12/12 A2991 870 96 800 310/09G15 RMK AO2 CIG 004V008 FRQ LTGICCA OHD TS OHD MOV NE P0010
14837KMSN MSN20090608001514806/08/09 00:15:31  5-MIN KMSN 080615Z 36015G19KT 1SM +TSRA BR OVC008 12/12 A2987 910 96 800 360/15G19 RMK AO2 CONS LTGCGICCA OHD TS OHD MOV NE P0020
14837KMSN MSN20090608002014906/08/09 00:20:31  5-MIN KMSN 080620Z 34015G21KT 1SM +TSRA BR OVC006 12/12 A2987 910 100 800 340/15G21 RMK AO2 CONS LTGCGICCA OHD TS OHD MOV NE P0030
14837KMSN MSN20090608002516206/08/09 00:25:31  5-MIN KMSN 080625Z 34012G21KT 1SM +TSRA BR BKN006 BKN010 OVC030 12/11 A2988 900 96 800 340/12G21 RMK AO2 CONS LTGCGICCA OHD TS OHD MOV NE P0047
14837KMSN MSN20090608003015806/08/09 00:30:31  5-MIN KMSN 080630Z 34012G20KT 2 1/2SM TSRA BR BKN006 OVC030 12/11 A2989 890 96 700 340/12G20 RMK AO2 CONS LTGCGICCA OHD TS OHD MOV NE P0050
14837KMSN MSN20090608003515206/08/09 00:35:31  5-MIN KMSN 080635Z 34012KT 1 3/4SM +TSRA BR BKN006 OVC030 12/11 A2988 900 96 800 340/12 RMK AO2 FRQ LTGCGICCA OHD TS OHD MOV NE P0053
14837KMSN MSN20090608004016106/08/09 00:40:31  5-MIN KMSN 080640Z 32010G18KT 1SM +TSRA BR BKN006 OVC030 12/11 A2992 870 96 700 320/10G18 RMK AO2 PRESRR FRQ LTGCGICCA OHD TS OHD MOV NE P0062
14837KMSN MSN20090608004516106/08/09 00:45:31  5-MIN KMSN 080645Z 03018G21KT 1SM +TSRA BR BKN006 OVC030 12/11 A2985 930 96 800 030/18G21 RMK AO2 PRESFR FRQ LTGCGICCA OHD TS OHD MOV NE P0077
14837KMSN MSN20090608005017306/08/09 00:50:31  5-MIN KMSN 080650Z 04016G25KT 3/4SM +TSRA BR BKN004 OVC030 12/11 A2987 920 96 800 040/16G25 RMK AO2 SLP114 FRQ LTGCGICCA OHD TS OHD MOV NE P0097 T01170111
14837KMSN MSN20090608005516306/08/09 00:55:31  5-MIN KMSN 080655Z 02007G25KT 1 1/4SM +TSRA BR BKN006 BKN026 OVC031 12/11 A2988 900 96 800 010/07G25 RMK AO2 FRQ LTGICCA OHD TS OHD MOV NE P0002
14837KMSN MSN20090608010015406/08/09 01:00:31  5-MIN KMSN 080700Z 02007KT 2SM +TSRA BR SCT006 BKN028 OVC039 12/12 A2987 910 100 800 020/07 RMK AO2 FRQ LTGICCA OHD TS OHD MOV NE P0006
14837KMSN MSN20090608010515906/08/09 01:05:31  5-MIN KMSN 080705Z 04010G14KT 2SM +TSRA BR SCT006 BKN028 OVC039 12/11 A2986 920 96 800 040/10G14 RMK AO2 FRQ LTGICCA OHD TS OHD MOV NE P0010
14837KMSN MSN20090608011015706/08/09 01:10:31  5-MIN KMSN 080710Z 05012G16KT 3SM TSRA BR FEW006 BKN039 OVC050 12/11 A2985 930 96 800 050/12G16 RMK AO2 OCNL LTGIC OHD TS OHD MOV NE P0012
14837KMSN MSN20090608011516406/08/09 01:15:31  5-MIN KMSN 080715Z 06014G17KT 3SM TSRA BR FEW006 BKN039 OVC048 12/11 A2985 930 96 800 060/14G17 RMK AO2 PRESFR OCNL LTGIC OHD TS OHD MOV NE P0014
14837KMSN MSN20090608012015706/08/09 01:20:31  5-MIN KMSN 080720Z 07014G20KT 3SM TSRA BR SCT042 OVC049 12/11 A2984 940 96 800 070/14G20 RMK AO2 PRESFR OCNL LTGIC OHD TS OHD MOV NE P0016
14837KMSN MSN20090608012515106/08/09 01:25:31  5-MIN KMSN 080725Z 08015KT 5SM TSRA BR FEW037 OVC045 12/11 A2983 950 96 800 070/15 RMK AO2 PRESFR OCNL LTGIC OHD TS OHD MOV NE P0017
14837KMSN MSN20090608013015106/08/09 01:30:31  5-MIN KMSN 080730Z 08019G22KT 6SM -TSRA BR OVC045 12/11 A2982 960 96 800 080/19G22 RMK AO2 PRESFR OCNL LTGIC OHD TS OHD MOV NE P0018
14837KMSN MSN20090608013514106/08/09 01:35:31  5-MIN KMSN 080735Z 09014G22KT 7SM -TSRA OVC045 12/12 A2982 960 96 900 090/14G22 RMK AO2 OCNL LTGIC OHD TS OHD MOV NE P0019
14837KMSN MSN20090608014011106/08/09 01:40:31  5-MIN KMSN 080740Z 08018KT 10SM -RA OVC043 12/12 A2981 960 96 900 080/18 RMK AO2 TSE36 P0019
14837KMSN MSN20090608014511106/08/09 01:45:31  5-MIN KMSN 080745Z 08012KT 10SM -RA OVC043 12/12 A2981 970 96 900 080/12 RMK AO2 TSE36 P0019
14837KMSN MSN20090608015012906/08/09 01:50:31  5-MIN KMSN 080750Z 08015KT 10SM OVC040 12/12 A2980 970 96 900 080/15 RMK AO2 TSE36RAE46 SLP091 P0019 T01220117
14837KMSN MSN20090608015510106/08/09 01:55:31  5-MIN KMSN 080755Z 09016G22KT 10SM OVC040 12/12 A2980 980 96 900 080/16G22 RMK AO2
14837KMSN MSN20090608020010106/08/09 02:00:31  5-MIN KMSN 080800Z 08015G22KT 10SM OVC040 12/12 A2979 980 96 900 080/15G22 RMK AO2
14837KMSN MSN20090608020510906/08/09 02:05:31  5-MIN KMSN 080805Z 07017G25KT 10SM OVC040 13/12 A2979 990 93 1000 070/17G25 RMK AO2 PRESFR
14837KMSN MSN20090608021011006/08/09 02:10:31  5-MIN KMSN 080810Z 07018G25KT 10SM OVC038 13/12 A2978 1000 93 1000 070/18G25 RMK AO2 PRESFR
14837KMSN MSN20090608021510306/08/09 02:15:31  5-MIN KMSN 080815Z 07015G23KT 10SM OVC038 13/12 A2978 1000 93 1000 070/15G23 RMK AO2
14837KMSN MSN20090608022010306/08/09 02:20:31  5-MIN KMSN 080820Z 08014G20KT 10SM OVC038 13/12 A2978 1000 93 1000 080/14G20 RMK AO2
14837KMSN MSN20090608022509606/08/09 02:25:31  5-MIN KMSN 080825Z 10014KT 10SM OVC038 13/12 A2978 990 93 1000 090/14 RMK AO2
14837KMSN MSN20090608023010206/08/09 02:30:31  5-MIN KMSN 080830Z 09012G19KT 10SM OVC038 13/12 A2978 990 93 1000 090/12G19 RMK AO2
14837KMSN MSN20090608023509606/08/09 02:35:31  5-MIN KMSN 080835Z 09010KT 10SM OVC038 13/12 A2978 990 93 1000 090/10 RMK AO2
14837KMSN MSN20090608024009706/08/09 02:40:31  5-MIN KMSN 080840Z 08011KT 10SM OVC038 13/12 A2977 1000 93 1000 080/11 RMK AO2
14837KMSN MSN20090608024509706/08/09 02:45:31  5-MIN KMSN 080845Z 09009KT 10SM OVC036 13/12 A2978 1000 93 1000 090/09 RMK AO2
14837KMSN MSN20090608025012606/08/09 02:50:31  5-MIN KMSN 080850Z 09008KT 10SM OVC036 13/12 A2978 1000 93 1000 090/08 RMK AO2 SLP083 60120 T01280117 55019
14837KMSN MSN20090608025510206/08/09 02:55:31  5-MIN KMSN 080855Z 09012G16KT 10SM OVC036 13/12 A2978 990 93 1000 090/12G16 RMK AO2
14837KMSN MSN20090608030009606/08/09 03:00:31  5-MIN KMSN 080900Z 09010KT 10SM OVC036 13/12 A2978 990 93 1000 090/10 RMK AO2
14837KMSN MSN20090608030509606/08/09 03:05:31  5-MIN KMSN 080905Z 09010KT 10SM OVC034 13/12 A2978 990 93 1000 090/10 RMK AO2
14837KMSN MSN20090608031009606/08/09 03:10:31  5-MIN KMSN 080910Z 11011KT 10SM OVC034 13/12 A2978 990 93 1000 110/11 RMK AO2
14837KMSN MSN20090608031509606/08/09 03:15:31  5-MIN KMSN 080915Z 12010KT 10SM OVC034 13/12 A2978 990 93 1000 120/10 RMK AO2
14837KMSN MSN20090608032009606/08/09 03:20:31  5-MIN KMSN 080920Z 13011KT 10SM OVC034 13/12 A2978 990 93 1000 130/11 RMK AO2
14837KMSN MSN20090608032509706/08/09 03:25:31  5-MIN KMSN 080925Z 13011KT 10SM OVC034 13/12 A2978 1000 93 1000 130/11 RMK AO2
14837KMSN MSN20090608033010206/08/09 03:30:31  5-MIN KMSN 080930Z 15009G17KT 10SM OVC034 13/12 A2978 990 93 1000 150/09G17 RMK AO2
14837KMSN MSN20090608033511206/08/09 03:35:31  5-MIN KMSN 080935Z 15010KT 10SM -RA OVC032 13/12 A2978 990 89 1100 150/10 RMK AO2 RAB31 P0000
14837KMSN MSN20090608034011206/08/09 03:40:31  5-MIN KMSN 080940Z 15011KT 10SM -RA OVC032 13/12 A2979 990 89 1100 140/11 RMK AO2 RAB31 P0000
14837KMSN MSN20090608034511306/08/09 03:45:31  5-MIN KMSN 080945Z 14012KT 4SM RA BR OVC032 13/12 A2978 990 93 1000 140/12 RMK AO2 RAB31 P0001
14837KMSN MSN20090608035013006/08/09 03:50:31  5-MIN KMSN 080950Z 14010KT 5SM RA BR OVC030 13/12 A2978 990 93 1000 140/10 RMK AO2 RAB31 SLP085 P0006 T01280117
14837KMSN MSN20090608035510706/08/09 03:55:31  5-MIN KMSN 080955Z 14007KT 4SM RA BR OVC030 13/12 A2978 990 93 1000 140/07 RMK AO2 P0001
14837KMSN MSN20090608040010506/08/09 04:00:31  5-MIN KMSN 081000Z 13007KT 8SM -RA OVC030 13/12 A2978 990 93 1000 130/07 RMK AO2 P0001
14837KMSN MSN20090608040510506/08/09 04:05:31  5-MIN KMSN 081005Z 15006KT 8SM -RA OVC028 13/12 A2978 990 93 1000 150/06 RMK AO2 P0001
14837KMSN MSN20090608041010506/08/09 04:10:31  5-MIN KMSN 081010Z 13008KT 7SM -RA OVC028 13/12 A2978 990 93 1000 130/08 RMK AO2 P0001
14837KMSN MSN20090608041510506/08/09 04:15:31  5-MIN KMSN 081015Z 14010KT 9SM -RA OVC028 13/12 A2978 990 93 1000 130/10 RMK AO2 P0001
14837KMSN MSN20090608042011506/08/09 04:20:31  5-MIN KMSN 081020Z 13007KT 10SM BKN026 OVC034 12/12 A2978 1000 96 900 130/07 RMK AO2 RAE19 P0001
14837KMSN MSN20090608042511506/08/09 04:25:31  5-MIN KMSN 081025Z 13008KT 10SM BKN026 OVC036 12/12 A2978 1000 96 900 130/08 RMK AO2 RAE19 P0001
14837KMSN MSN20090608043010706/08/09 04:30:31  5-MIN KMSN 081030Z 14006KT 10SM OVC028 12/11 A2978 990 93 900 140/06 RMK AO2 RAE19 P0001
14837KMSN MSN20090608043510706/08/09 04:35:31  5-MIN KMSN 081035Z 15005KT 10SM OVC028 12/12 A2979 990 96 900 150/05 RMK AO2 RAE19 P0001
14837KMSN MSN20090608044010706/08/09 04:40:31  5-MIN KMSN 081040Z 15006KT 10SM OVC028 12/11 A2979 990 93 900 150/06 RMK AO2 RAE19 P0001
14837KMSN MSN20090608044510706/08/09 04:45:31  5-MIN KMSN 081045Z 13008KT 10SM OVC028 12/11 A2979 990 93 900 130/08 RMK AO2 RAE19 P0001
14837KMSN MSN20090608045013206/08/09 04:50:31  5-MIN KMSN 081050Z 12005KT 10SM FEW010 OVC026 12/11 A2978 1000 93 900 120/05 RMK AO2 RAE19 SLP083 P0001 T01220111
14837KMSN MSN20090608045510306/08/09 04:55:31  5-MIN KMSN 081055Z 11006KT 10SM BKN026 BKN039 12/11 A2978 1000 93 900 110/06 RMK AO2
14837KMSN MSN20090608050010206/08/09 05:00:31  5-MIN KMSN 081100Z 12007KT 10SM BKN026 BKN037 12/11 A2978 990 93 900 120/07 RMK AO2
14837KMSN MSN20090608050511806/08/09 05:05:31  5-MIN KMSN 081105Z 14006KT 10SM -RA BKN024 BKN037 12/11 A2978 990 93 900 140/06 RMK AO2 RAB03 P0000
14837KMSN MSN20090608051011806/08/09 05:10:31  5-MIN KMSN 081110Z 13007KT 10SM -RA BKN024 BKN037 12/12 A2978 990 96 900 130/07 RMK AO2 RAB03 P0000
14837KMSN MSN20090608051511906/08/09 05:15:31  5-MIN KMSN 081115Z 13005KT 10SM -RA BKN024 BKN037 12/12 A2978 1000 96 900 130/05 RMK AO2 RAB03 P0000
14837KMSN MSN20090608052011106/08/09 05:20:31  5-MIN KMSN 081120Z 12007KT 10SM BKN024 12/12 A2977 1000 96 900 120/07 RMK AO2 RAB03E20 P0000
14837KMSN MSN20090608052511206/08/09 05:25:31  5-MIN KMSN 081125Z 11005KT 10SM OVC024 12/12 A2977 1010 96 1000 110/05 RMK AO2 RAB03E20 P0000
14837KMSN MSN20090608053011206/08/09 05:30:31  5-MIN KMSN 081130Z 12008KT 10SM OVC024 12/12 A2976 1010 96 1000 120/08 RMK AO2 RAB03E20 P0000
14837KMSN MSN20090608053511206/08/09 05:35:31  5-MIN KMSN 081135Z 11007KT 10SM OVC024 12/12 A2976 1010 96 1000 110/07 RMK AO2 RAB03E20 P0000
14837KMSN MSN20090608054011206/08/09 05:40:31  5-MIN KMSN 081140Z 11006KT 10SM OVC022 13/12 A2976 1010 93 1000 110/06 RMK AO2 RAB03E20 P0000
14837KMSN MSN20090608054511906/08/09 05:45:31  5-MIN KMSN 081145Z 10005KT 10SM -RA OVC022 13/12 A2976 1010 93 1000 100/05 RMK AO2 RAB03E20B44 P0000
14837KMSN MSN20090608055017306/08/09 05:50:31  5-MIN KMSN 081150Z 00000KT 10SM -RA BKN020 OVC025 13/12 A2976 1010 93 1000 000/00 RMK AO2 RAB03E20B44 SLP077 P0000 60127 70136 T01280117 10133 20117 58027
14837KMSN MSN20090608055510906/08/09 05:55:31  5-MIN KMSN 081155Z 09005KT 10SM OVC020 13/12 A2975 1020 93 1000 090/05 RMK AO2 RAE55 P0000
14837KMSN MSN20090608060011106/08/09 06:00:31  5-MIN KMSN 081200Z 09005KT 10SM OVC020 13/12 A2976 1020 93 1000 090/05 RMK AO2 RAE1155 P0000
14837KMSN MSN20090608060511106/08/09 06:05:31  5-MIN KMSN 081205Z 13004KT 10SM OVC018 13/12 A2976 1010 93 1000 130/04 RMK AO2 RAE1155 P0000
14837KMSN MSN20090608061010706/08/09 06:10:31  5-MIN KMSN 081210Z 11005KT 10SM -RA OVC018 13/12 A2976 1010 93 1000 110/05 RMK AO2 P0000
14837KMSN MSN20090608061510606/08/09 06:15:31  5-MIN KMSN 081215Z 11005KT 9SM -RA OVC018 13/12 A2976 1010 93 1000 110/05 RMK AO2 P0000
14837KMSN MSN20090608062010606/08/09 06:20:31  5-MIN KMSN 081220Z 11004KT 9SM -RA OVC018 13/12 A2977 1010 93 1000 110/04 RMK AO2 P0000
14837KMSN MSN20090608062510606/08/09 06:25:31  5-MIN KMSN 081225Z 14003KT 10SM -RA OVC018 13/12 A2978 990 93 1000 140/03 RMK AO2 P0000
14837KMSN MSN20090608063010606/08/09 06:30:31  5-MIN KMSN 081230Z 00000KT 10SM -RA OVC016 13/12 A2978 990 93 1000 000/00 RMK AO2 P0000
14837KMSN MSN20090608063510706/08/09 06:35:31  5-MIN KMSN 081235Z 00000KT 10SM -RA OVC016 13/12 A2978 1000 93 1000 000/00 RMK AO2 P0001
14837KMSN MSN20090608064010706/08/09 06:40:31  5-MIN KMSN 081240Z 11004KT 10SM -RA OVC016 13/12 A2977 1000 89 1100 110/04 RMK AO2 P0001
14837KMSN MSN20090608064510706/08/09 06:45:31  5-MIN KMSN 081245Z 11005KT 10SM -RA OVC016 13/12 A2976 1010 93 1100 110/05 RMK AO2 P0001
14837KMSN MSN20090608065013106/08/09 06:50:31  5-MIN KMSN 081250Z 10005KT 10SM -RA OVC016 13/12 A2975 1020 93 1100 100/05 RMK AO2 PRESFR SLP075 P0001 T01330122
14837KMSN MSN20090608065511406/08/09 06:55:31  5-MIN KMSN 081255Z 09007KT 10SM -RA BKN016 13/12 A2974 1040 93 1100 090/07 RMK AO2 PRESFR P0000
14837KMSN MSN20090608070011406/08/09 07:00:31  5-MIN KMSN 081300Z 08007KT 10SM -RA BKN016 BKN095 13/12 A2974 1030 93 1100 080/07 RMK AO2 P0000
14837KMSN MSN20090608070511406/08/09 07:05:31  5-MIN KMSN 081305Z 06007KT 10SM -RA SCT016 BKN090 13/12 A2973 1040 93 1100 060/07 RMK AO2 P0000
14837KMSN MSN20090608071012306/08/09 07:10:31  5-MIN KMSN 081310Z 07006KT 10SM FEW006 SCT016 BKN085 13/12 A2973 1040 93 1100 070/06 RMK AO2 RAE06 P0000
14837KMSN MSN20090608071512306/08/09 07:15:31  5-MIN KMSN 081315Z 06008KT 10SM FEW006 SCT016 BKN085 14/13 A2972 1050 93 1200 060/08 RMK AO2 RAE06 P0000
14837KMSN MSN20090608072012306/08/09 07:20:31  5-MIN KMSN 081320Z 08007KT 10SM FEW006 BKN090 14/13 A2971 1060 93 1200 080/07 RMK AO2 RAE06 PRESFR P0000
14837KMSN MSN20090608072511606/08/09 07:25:31  5-MIN KMSN 081325Z 09006KT 10SM FEW006 BKN085 14/13 A2972 1050 93 1200 090/06 RMK AO2 RAE06 P0000
14837KMSN MSN20090608073012306/08/09 07:30:31  5-MIN KMSN 081330Z 11005KT 10SM SCT006 SCT013 BKN085 14/13 A2973 1040 93 1200 110/05 RMK AO2 RAE06 P0000
14837KMSN MSN20090608073511606/08/09 07:35:31  5-MIN KMSN 081335Z 12006KT 10SM SCT006 OVC013 14/12 A2973 1040 90 1200 120/06 RMK AO2 RAE06 P0000
14837KMSN MSN20090608074012306/08/09 07:40:31  5-MIN KMSN 081340Z 14008KT 10SM BKN006 OVC013 14/13 A2975 1020 93 1200 140/08 RMK AO2 RAE06 PRESRR P0000
14837KMSN MSN20090608074512306/08/09 07:45:31  5-MIN KMSN 081345Z 16008KT 10SM BKN006 OVC013 14/13 A2976 1010 93 1200 160/08 RMK AO2 RAE06 PRESRR P0000
14837KMSN MSN20090608075013306/08/09 07:50:31  5-MIN KMSN 081350Z 15007KT 10SM BKN006 OVC013 14/13 A2975 1020 93 1200 150/07 RMK AO2 RAE06 SLP076 P0000 T01390128
14837KMSN MSN20090608075509706/08/09 07:55:31  5-MIN KMSN 081355Z 14006KT 10SM OVC006 14/13 A2975 1020 93 1200 140/06 RMK AO2
14837KMSN MSN20090608080009706/08/09 08:00:31  5-MIN KMSN 081400Z 12007KT 10SM OVC006 14/13 A2974 1030 93 1200 120/07 RMK AO2
14837KMSN MSN20090608080509706/08/09 08:05:31  5-MIN KMSN 081405Z 12006KT 10SM OVC006 14/13 A2974 1030 90 1200 120/06 RMK AO2
14837KMSN MSN20090608081009706/08/09 08:10:31  5-MIN KMSN 081410Z 13007KT 10SM OVC006 14/13 A2974 1030 93 1200 130/07 RMK AO2
14837KMSN MSN20090608081509706/08/09 08:15:31  5-MIN KMSN 081415Z 12007KT 10SM OVC006 14/13 A2974 1040 90 1300 120/07 RMK AO2
14837KMSN MSN20090608082009706/08/09 08:20:31  5-MIN KMSN 081420Z 10005KT 10SM OVC006 14/13 A2973 1040 93 1300 100/05 RMK AO2
14837KMSN MSN20090608082509706/08/09 08:25:31  5-MIN KMSN 081425Z 10007KT 10SM OVC006 14/13 A2973 1040 93 1300 100/07 RMK AO2
14837KMSN MSN20090608083009706/08/09 08:30:31  5-MIN KMSN 081430Z 11006KT 10SM OVC006 14/13 A2973 1040 93 1300 110/06 RMK AO2
14837KMSN MSN20090608083509706/08/09 08:35:31  5-MIN KMSN 081435Z 11005KT 10SM OVC006 14/13 A2973 1050 93 1300 110/05 RMK AO2
14837KMSN MSN20090608084009606/08/09 08:40:31  5-MIN KMSN 081440Z 10004KT 9SM OVC006 14/13 A2972 1050 93 1300 100/04 RMK AO2
14837KMSN MSN20090608084509606/08/09 08:45:31  5-MIN KMSN 081445Z 09004KT 9SM OVC006 14/13 A2972 1050 93 1300 090/04 RMK AO2
14837KMSN MSN20090608085012506/08/09 08:50:31  5-MIN KMSN 081450Z 10005KT 9SM OVC006 14/13 A2972 1050 93 1300 100/05 RMK AO2 SLP064 60001 T01440133 58008
14837KMSN MSN20090608085509606/08/09 08:55:31  5-MIN KMSN 081455Z 09006KT 8SM OVC006 14/13 A2972 1050 93 1300 090/06 RMK AO2
14837KMSN MSN20090608090009606/08/09 09:00:31  5-MIN KMSN 081500Z 09006KT 8SM OVC006 14/13 A2972 1050 93 1300 090/06 RMK AO2
14837KMSN MSN20090608090509606/08/09 09:05:31  5-MIN KMSN 081505Z 10006KT 8SM OVC006 14/13 A2971 1060 93 1300 090/06 RMK AO2
14837KMSN MSN20090608091009606/08/09 09:10:31  5-MIN KMSN 081510Z 08007KT 8SM OVC006 14/13 A2971 1060 93 1300 080/07 RMK AO2
14837KMSN MSN20090608091509606/08/09 09:15:31  5-MIN KMSN 081515Z 08004KT 7SM OVC006 14/13 A2971 1060 93 1300 080/04 RMK AO2
14837KMSN MSN20090608092009606/08/09 09:20:31  5-MIN KMSN 081520Z 09006KT 7SM OVC006 14/13 A2971 1060 93 1300 090/06 RMK AO2
14837KMSN MSN20090608092509906/08/09 09:25:31  5-MIN KMSN 081525Z 10007KT 6SM BR OVC006 15/14 A2971 1060 93 1400 100/07 RMK AO2
14837KMSN MSN20090608093009906/08/09 09:30:31  5-MIN KMSN 081530Z 07007KT 6SM BR OVC006 15/14 A2971 1060 93 1400 070/07 RMK AO2
14837KMSN MSN20090608093509906/08/09 09:35:31  5-MIN KMSN 081535Z 09006KT 6SM BR OVC006 15/14 A2970 1060 93 1400 090/06 RMK AO2
14837KMSN MSN20090608094009906/08/09 09:40:31  5-MIN KMSN 081540Z 08008KT 6SM BR OVC004 15/14 A2970 1070 93 1400 080/08 RMK AO2
14837KMSN MSN20090608094509906/08/09 09:45:31  5-MIN KMSN 081545Z 08007KT 4SM BR OVC004 15/14 A2970 1070 93 1400 080/07 RMK AO2
14837KMSN MSN20090608095011606/08/09 09:50:31  5-MIN KMSN 081550Z 07007KT 4SM BR OVC004 15/14 A2970 1060 93 1400 060/07 RMK AO2 SLP059 T01500139
14837KMSN MSN20090608095509906/08/09 09:55:31  5-MIN KMSN 081555Z 08006KT 6SM BR OVC004 15/14 A2971 1060 93 1400 080/06 RMK AO2
14837KMSN MSN20090608100009906/08/09 10:00:31  5-MIN KMSN 081600Z 07005KT 5SM BR OVC004 15/14 A2971 1060 93 1300 070/05 RMK AO2
14837KMSN MSN20090608100509906/08/09 10:05:31  5-MIN KMSN 081605Z 07007KT 4SM BR OVC004 15/14 A2970 1070 93 1400 070/07 RMK AO2
14837KMSN MSN20090608101009906/08/09 10:10:31  5-MIN KMSN 081610Z 10006KT 4SM BR OVC004 16/14 A2970 1070 93 1400 100/06 RMK AO2
14837KMSN MSN20090608101509906/08/09 10:15:31  5-MIN KMSN 081615Z 08005KT 4SM BR OVC004 16/14 A2970 1070 93 1400 080/05 RMK AO2
14837KMSN MSN20090608102009906/08/09 10:20:31  5-MIN KMSN 081620Z 08005KT 4SM BR OVC004 16/14 A2971 1060 93 1400 080/05 RMK AO2
14837KMSN MSN20090608102509906/08/09 10:25:31  5-MIN KMSN 081625Z 10004KT 4SM BR OVC004 16/14 A2971 1060 93 1400 100/04 RMK AO2
14837KMSN MSN20090608103009906/08/09 10:30:31  5-MIN KMSN 081630Z 12006KT 4SM BR OVC004 16/14 A2971 1060 93 1400 120/06 RMK AO2
14837KMSN MSN20090608103509906/08/09 10:35:31  5-MIN KMSN 081635Z 13006KT 4SM BR OVC004 16/14 A2970 1070 93 1400 130/06 RMK AO2
14837KMSN MSN20090608104009906/08/09 10:40:31  5-MIN KMSN 081640Z 13006KT 4SM BR OVC004 16/15 A2971 1060 93 1500 130/06 RMK AO2
14837KMSN MSN20090608104509906/08/09 10:45:31  5-MIN KMSN 081645Z 11005KT 4SM BR OVC004 16/15 A2971 1060 93 1500 110/05 RMK AO2
14837KMSN MSN20090608105011606/08/09 10:50:31  5-MIN KMSN 081650Z 00000KT 4SM BR OVC004 16/15 A2971 1060 93 1500 000/00 RMK AO2 SLP060 T01610150
14837KMSN MSN20090608105509906/08/09 10:55:31  5-MIN KMSN 081655Z 00000KT 4SM BR OVC006 16/15 A2971 1060 93 1500 000/00 RMK AO2
14837KMSN MSN20090608110009906/08/09 11:00:31  5-MIN KMSN 081700Z 00000KT 4SM BR OVC006 16/15 A2971 1060 93 1500 000/00 RMK AO2
14837KMSN MSN20090608110509906/08/09 11:05:31  5-MIN KMSN 081705Z 00000KT 4SM BR OVC006 16/14 A2971 1060 90 1500 000/00 RMK AO2
14837KMSN MSN20090608111009906/08/09 11:10:31  5-MIN KMSN 081710Z 21003KT 4SM BR OVC006 16/15 A2971 1060 93 1500 200/03 RMK AO2
14837KMSN MSN20090608111511506/08/09 11:15:31  5-MIN KMSN 081715Z 19003KT 3SM -RA BR OVC006 17/15 A2971 1060 90 1500 190/03 RMK AO2 RAB13 P0000
14837KMSN MSN20090608112011506/08/09 11:20:31  5-MIN KMSN 081720Z 00000KT 3SM -RA BR OVC006 17/15 A2970 1060 90 1500 000/00 RMK AO2 RAB13 P0000
14837KMSN MSN20090608112511406/08/09 11:25:31  5-MIN KMSN 081725Z 00000KT 3SM BR OVC006 17/16 A2970 1070 93 1600 000/00 RMK AO2 RAB13E22 P0000
14837KMSN MSN20090608113011406/08/09 11:30:31  5-MIN KMSN 081730Z 15004KT 3SM BR OVC006 17/16 A2970 1070 90 1600 150/04 RMK AO2 RAB13E22 P0000
14837KMSN MSN20090608113511406/08/09 11:35:31  5-MIN KMSN 081735Z 00000KT 3SM BR OVC006 17/16 A2970 1070 90 1600 000/00 RMK AO2 RAB13E22 P0000
14837KMSN MSN20090608114011406/08/09 11:40:31  5-MIN KMSN 081740Z 00000KT 3SM BR OVC006 17/16 A2970 1070 90 1600 000/00 RMK AO2 RAB13E22 P0000
14837KMSN MSN20090608114511406/08/09 11:45:31  5-MIN KMSN 081745Z 19003KT 3SM BR OVC006 17/16 A2970 1070 90 1600 190/03 RMK AO2 RAB13E22 P0000
14837KMSN MSN20090608115015506/08/09 11:50:31  5-MIN KMSN 081750Z 00000KT 3SM BR OVC006 17/16 A2971 1060 90 1600 000/00 RMK AO2 RAB13E22 SLP058 P0000 60001 T01720156 10172 20128 58013
14837KMSN MSN20090608115510906/08/09 11:55:31  5-MIN KMSN 081755Z 00000KT 3SM BR OVC006 17/16 A2970 1070 93 1600 000/00 RMK AO2 SFC VIS 4
14837KMSN MSN20090608120012106/08/09 12:00:31  5-MIN KMSN 081800Z 17003KT 3SM BR OVC006 18/16 A2970 1070 90 1700 170/03 RMK AO2 SFC VIS 4 CIG 006V010
14837KMSN MSN20090608120511106/08/09 12:05:31  5-MIN KMSN 081805Z 18003KT 3SM BR OVC006 18/16 A2970 1070 90 1700 180/03 RMK AO2 CIG 006V010
14837KMSN MSN20090608121011106/08/09 12:10:31  5-MIN KMSN 081810Z 00000KT 3SM BR OVC008 18/16 A2970 1070 90 1700 000/00 RMK AO2 CIG 006V010
14837KMSN MSN20090608121511106/08/09 12:15:31  5-MIN KMSN 081815Z 00000KT 3SM BR OVC008 18/16 A2970 1070 90 1700 000/00 RMK AO2 CIG 006V012
14837KMSN MSN20090608122011106/08/09 12:20:31  5-MIN KMSN 081820Z 00000KT 3SM BR OVC008 18/16 A2969 1070 87 1800 000/00 RMK AO2 CIG 006V011
14837KMSN MSN20090608122511806/08/09 12:25:31  5-MIN KMSN 081825Z 32005KT 3SM HZ BKN008 OVC013 19/17 A2970 1070 84 1900 320/05 RMK AO2 CIG 007V012
14837KMSN MSN20090608123013806/08/09 12:30:31  5-MIN KMSN 081830Z 30004KT 3SM BR BKN008 OVC013 19/17 A2970 1070 87 1800 300/04 RMK AO2 CIG 007V012 TS DSNT SW MOV E-NE
14837KMSN MSN20090608123513306/08/09 12:35:31  5-MIN KMSN 081835Z 00000KT 3SM HZ SCT009 BKN013 BKN050 19/17 A2970 1070 84 1900 000/00 RMK AO2 TS DSNT SW MOV E-NE
14837KMSN MSN20090608124013306/08/09 12:40:31  5-MIN KMSN 081840Z 34003KT 3SM HZ SCT009 BKN013 BKN050 20/17 A2969 1080 84 1900 340/03 RMK AO2 TS DSNT SW MOV E-NE
14837KMSN MSN20090608124513306/08/09 12:45:31  5-MIN KMSN 081845Z 00000KT 3SM HZ SCT009 BKN013 BKN050 20/17 A2969 1080 84 1900 000/00 RMK AO2 TS DSNT SW MOV E-NE
14837KMSN MSN20090608125015006/08/09 12:50:31  5-MIN KMSN 081850Z 00000KT 3SM HZ SCT009 BKN013 BKN050 19/17 A2968 1090 84 1900 000/00 RMK AO2 SLP050 TS DSNT SW MOV E-NE T01940167
14837KMSN MSN20090608125511306/08/09 12:55:31  5-MIN KMSN 081855Z 25003KT 3SM HZ BKN013 BKN021 OVC050 19/17 A2969 1080 84 1900 250/03 RMK AO2
14837KMSN MSN20090608130011306/08/09 13:00:31  5-MIN KMSN 081900Z 30003KT 3SM BR SCT013 BKN017 OVC050 19/17 A2969 1080 87 1800 300/03 RMK AO2
14837KMSN MSN20090608130511306/08/09 13:05:31  5-MIN KMSN 081905Z VRB03KT 3SM BR SCT013 BKN017 OVC050 19/17 A2969 1080 87 1800 VRB/03 RMK AO2
14837KMSN MSN20090608131010606/08/09 13:10:31  5-MIN KMSN 081910Z 00000KT 3SM BR BKN015 OVC045 18/17 A2970 1070 90 1700 000/00 RMK AO2
14837KMSN MSN20090608131512406/08/09 13:15:31  5-MIN KMSN 081915Z 00000KT 3SM BR OVC015 18/17 A2969 1070 90 1800 000/00 RMK AO2 TS DSNT SE-S-SW MOV E-NE
14837KMSN MSN20090608132014006/08/09 13:20:31  5-MIN KMSN 081920Z 00000KT 3SM -RA BR OVC015 18/17 A2969 1080 90 1800 000/00 RMK AO2 RAB19 TS DSNT SE-S-SW MOV E-NE P0000
14837KMSN MSN20090608132514006/08/09 13:25:31  5-MIN KMSN 081925Z VRB03KT 3SM -RA BR OVC015 19/17 A2969 1080 87 1800 VRB/03 RMK AO2 RAB19 TS DSNT SE-S-SW MOV E-NE P0000
14837KMSN MSN20090608133013806/08/09 13:30:31  5-MIN KMSN 081930Z 31005KT 3SM BR BKN015 19/17 A2969 1080 87 1800 300/05 RMK AO2 RAB19E30 TS DSNT E-SE-S-SW MOV E P0000
14837KMSN MSN20090608133515506/08/09 13:35:31  5-MIN KMSN 081935Z 33009KT 3SM HZ FEW009 BKN015 20/17 A2969 1080 84 2000 330/09 RMK AO2 TWR VIS 4 RAB19E30 TS DSNT E-SE-S-SW MOV E P0000
14837KMSN MSN20090608134015506/08/09 13:40:31  5-MIN KMSN 081940Z 32008KT 3SM HZ FEW009 OVC015 19/17 A2969 1080 84 1900 320/08 RMK AO2 TWR VIS 4 RAB19E30 TS DSNT E-SE-S-SW MOV E P0000
14837KMSN MSN20090608134512106/08/09 13:45:31  5-MIN KMSN 081945Z 32008KT 4SM HZ BKN012 OVC018 20/17 A2969 1080 84 1900 320/08 RMK AO2 RAB19E30 P0000
14837KMSN MSN20090608135015606/08/09 13:50:31  5-MIN KMSN 081950Z 31010G14KT 4SM HZ BKN010 BKN018 20/17 A2970 1070 84 1900 310/10G14 RMK AO2 RAB19E30 CIG 008V013 SLP054 P0000 T02000172
14837KMSN MSN20090608135511206/08/09 13:55:31  5-MIN KMSN 081955Z 32008G14KT 4SM HZ BKN012 BKN018 19/17 A2970 1070 84 1900 310/08G14 RMK AO2
14837KMSN MSN20090608140010606/08/09 14:00:31  5-MIN KMSN 082000Z 31009KT 4SM BR BKN012 OVC018 18/16 A2971 1060 87 1700 300/09 RMK AO2
14837KMSN MSN20090608140511906/08/09 14:05:31  5-MIN KMSN 082005Z 30009G18KT 5SM HZ BKN012 OVC018 18/16 A2972 1050 84 1700 290/09G18 RMK AO2 PRESRR
14837KMSN MSN20090608141012806/08/09 14:10:31  5-MIN KMSN 082010Z 30010G18KT 270V340 6SM HZ BKN012 OVC018 18/16 A2972 1050 84 1700 300/10G18 270V340 RMK AO2
14837KMSN MSN20090608141510206/08/09 14:15:31  5-MIN KMSN 082015Z 29007G17KT 7SM OVC014 18/16 A2972 1050 84 1700 290/07G17 RMK AO2
14837KMSN MSN20090608142009606/08/09 14:20:31  5-MIN KMSN 082020Z 30007KT 8SM OVC014 19/16 A2972 1050 81 1800 300/07 RMK AO2
14837KMSN MSN20090608142510206/08/09 14:25:31  5-MIN KMSN 082025Z 29010G14KT 9SM OVC014 19/16 A2973 1040 81 1800 290/10G14 RMK AO2
14837KMSN MSN20090608143010906/08/09 14:30:31  5-MIN KMSN 082030Z 31009G15KT 9SM BKN014 OVC019 18/15 A2973 1040 81 1700 310/09G15 RMK AO2
14837KMSN MSN20090608143510206/08/09 14:35:31  5-MIN KMSN 082035Z 29008G16KT 9SM OVC014 18/15 A2974 1040 81 1700 290/08G16 RMK AO2
14837KMSN MSN20090608144010206/08/09 14:40:31  5-MIN KMSN 082040Z VRB06G16KT 9SM OVC014 18/15 A2974 1030 81 1700 VRB/06G16 RMK AO2
14837KMSN MSN20090608144509606/08/09 14:45:31  5-MIN KMSN 082045Z 31009KT 9SM OVC014 18/15 A2974 1030 81 1700 310/09 RMK AO2
14837KMSN MSN20090608145014606/08/09 14:50:31  5-MIN KMSN 082050Z 30011G17KT 10SM BKN014 BKN021 OVC029 19/16 A2974 1030 81 1800 300/11G17 RMK AO2 SLP068 60000 T01890156 56005
14837KMSN MSN20090608145511706/08/09 14:55:31  5-MIN KMSN 082055Z 31011G17KT 10SM BKN014 BKN021 OVC027 19/15 A2974 1030 78 1800 310/11G17 RMK AO2
14837KMSN MSN20090608150011706/08/09 15:00:31  5-MIN KMSN 082100Z 30013G19KT 10SM SCT014 BKN019 BKN025 19/15 A2974 1030 78 1800 300/13G19 RMK AO2
14837KMSN MSN20090608150511706/08/09 15:05:31  5-MIN KMSN 082105Z 30011G22KT 10SM SCT014 BKN019 BKN025 19/15 A2974 1030 78 1800 300/11G22 RMK AO2
14837KMSN MSN20090608151011706/08/09 15:10:31  5-MIN KMSN 082110Z 33010G22KT 10SM SCT014 BKN019 BKN025 18/15 A2974 1030 81 1700 330/10G22 RMK AO2
14837KMSN MSN20090608151511706/08/09 15:15:31  5-MIN KMSN 082115Z 31009G19KT 10SM SCT014 BKN019 BKN025 19/16 A2974 1030 78 1800 310/09G19 RMK AO2
14837KMSN MSN20090608152011106/08/09 15:20:31  5-MIN KMSN 082120Z 33008KT 10SM SCT014 BKN019 BKN025 19/16 A2974 1030 78 1800 330/08 RMK AO2
14837KMSN MSN20090608152511706/08/09 15:25:31  5-MIN KMSN 082125Z 31010G16KT 10SM SCT014 BKN019 BKN025 19/16 A2975 1030 81 1800 310/10G16 RMK AO2
14837KMSN MSN20090608153013306/08/09 15:30:31  5-MIN KMSN 082130Z 32009G16KT 290V350 10SM SCT014 BKN019 BKN025 19/15 A2975 1020 78 1800 320/09G16 290V350 RMK AO2
14837KMSN MSN20090608153511106/08/09 15:35:31  5-MIN KMSN 082135Z 32010KT 10SM SCT014 BKN019 BKN025 19/15 A2975 1020 78 1700 310/10 RMK AO2
14837KMSN MSN20090608154011106/08/09 15:40:31  5-MIN KMSN 082140Z 32010KT 10SM SCT014 BKN019 BKN025 19/15 A2976 1020 78 1700 310/10 RMK AO2
14837KMSN MSN20090608154511106/08/09 15:45:31  5-MIN KMSN 082145Z 32011KT 10SM SCT014 BKN019 BKN025 19/15 A2975 1020 78 1700 320/11 RMK AO2
14837KMSN MSN20090608155012106/08/09 15:50:31  5-MIN KMSN 082150Z 32009KT 10SM BKN017 BKN023 19/15 A2975 1020 78 1800 320/09 RMK AO2 SLP073 T01890150
14837KMSN MSN20090608155511006/08/09 15:55:31  5-MIN KMSN 082155Z 30006G15KT 10SM SCT017 BKN023 19/15 A2975 1020 78 1800 300/06G15 RMK AO2
14837KMSN MSN20090608160011006/08/09 16:00:31  5-MIN KMSN 082200Z 31010G18KT 10SM SCT019 BKN025 19/15 A2975 1020 75 1800 310/10G18 RMK AO2
14837KMSN MSN20090608160511006/08/09 16:05:31  5-MIN KMSN 082205Z 30008G18KT 10SM SCT019 BKN025 19/15 A2976 1020 78 1700 290/08G18 RMK AO2
14837KMSN MSN20090608161011006/08/09 16:10:31  5-MIN KMSN 082210Z 31011G15KT 10SM SCT019 BKN025 19/14 A2976 1010 75 1700 310/11G15 RMK AO2
14837KMSN MSN20090608161510306/08/09 16:15:31  5-MIN KMSN 082215Z 31005G15KT 10SM BKN023 18/14 A2976 1010 78 1700 310/05G15 RMK AO2
14837KMSN MSN20090608162011706/08/09 16:20:31  5-MIN KMSN 082220Z 31009G15KT 10SM BKN021 BKN026 OVC035 19/14 A2976 1010 75 1700 310/09G15 RMK AO2
14837KMSN MSN20090608162511006/08/09 16:25:31  5-MIN KMSN 082225Z 30005G15KT 10SM BKN022 OVC037 19/14 A2976 1010 75 1700 300/05G15 RMK AO2
14837KMSN MSN20090608163012706/08/09 16:30:31  5-MIN KMSN 082230Z 32008KT 260V350 10SM SCT022 SCT026 BKN037 19/15 A2976 1010 75 1800 320/08 260V350 RMK AO2
14837KMSN MSN20090608163511106/08/09 16:35:31  5-MIN KMSN 082235Z 33010KT 10SM FEW020 SCT025 BKN037 19/14 A2976 1010 72 1800 330/10 RMK AO2
14837KMSN MSN20090608164010406/08/09 16:40:31  5-MIN KMSN 082240Z 33008KT 10SM SCT023 BKN037 19/14 A2976 1010 72 1800 330/08 RMK AO2
14837KMSN MSN20090608164510406/08/09 16:45:31  5-MIN KMSN 082245Z 33008KT 10SM SCT023 BKN037 19/14 A2976 1010 75 1700 330/08 RMK AO2
14837KMSN MSN20090608165011106/08/09 16:50:31  5-MIN KMSN 082250Z 32008KT 10SM BKN023 BKN029 BKN037 19/14 A2976 1010 75 1700 310/08 RMK AO2
14837KMSN MSN20090608165511106/08/09 16:55:31  5-MIN KMSN 082255Z 32009KT 10SM BKN023 BKN029 BKN039 19/14 A2977 1010 75 1700 310/09 RMK AO2
14837KMSN MSN20090608170011106/08/09 17:00:31  5-MIN KMSN 082300Z 31005KT 10SM BKN023 BKN029 BKN050 19/14 A2977 1010 72 1800 310/05 RMK AO2
14837KMSN MSN20090608170511706/08/09 17:05:31  5-MIN KMSN 082305Z 30009G14KT 10SM BKN023 BKN029 OVC038 19/14 A2977 1000 75 1700 290/09G14 RMK AO2
14837KMSN MSN20090608171011706/08/09 17:10:31  5-MIN KMSN 082310Z 31009G16KT 10SM BKN023 BKN029 OVC043 19/14 A2977 1000 75 1700 300/09G16 RMK AO2
14837KMSN MSN20090608171511706/08/09 17:15:31  5-MIN KMSN 082315Z 32008G16KT 10SM FEW023 BKN035 OVC043 19/14 A2977 1000 75 1700 310/08G16 RMK AO2
14837KMSN MSN20090608172011706/08/09 17:20:31  5-MIN KMSN 082320Z 31007G14KT 10SM SCT023 BKN035 OVC050 19/14 A2977 1000 75 1700 310/07G14 RMK AO2
14837KMSN MSN20090608172511706/08/09 17:25:31  5-MIN KMSN 082325Z 30007G14KT 10SM FEW023 BKN035 OVC050 19/14 A2977 1000 75 1700 300/07G14 RMK AO2
14837KMSN MSN20090608173011106/08/09 17:30:31  5-MIN KMSN 082330Z VRB05KT 10SM BKN027 BKN035 OVC042 19/14 A2978 1000 75 1700 VRB/05 RMK AO2
14837KMSN MSN20090608173511106/08/09 17:35:31  5-MIN KMSN 082335Z 30005KT 10SM BKN027 BKN035 OVC042 19/14 A2978 1000 75 1700 300/05 RMK AO2
14837KMSN MSN20090608174011106/08/09 17:40:31  5-MIN KMSN 082340Z 32007KT 10SM SCT025 BKN035 OVC042 19/14 A2978 1000 75 1700 310/07 RMK AO2
14837KMSN MSN20090608174511106/08/09 17:45:31  5-MIN KMSN 082345Z 31007KT 10SM SCT025 BKN035 OVC042 19/14 A2978 1000 75 1700 310/07 RMK AO2
14837KMSN MSN20090608175011006/08/09 17:50:31  5-MIN KMSN 082350Z 30007KT 10SM SCT023 BKN028 OVC050 19/14 A2978 990 72 1700 300/07 RMK AO2
14837KMSN MSN20090608175511006/08/09 17:55:31  5-MIN KMSN 082355Z 31005KT 10SM SCT023 BKN037 OVC050 19/14 A2978 990 72 1700 310/05 RMK AO2
14837KMSN MSN20090608180011006/08/09 18:00:31  5-MIN KMSN 090000Z 33005KT 10SM SCT023 BKN037 OVC050 18/14 A2978 990 78 1700 330/05 RMK AO2
14837KMSN MSN20090608180511006/08/09 18:05:31  5-MIN KMSN 090005Z 34005KT 10SM SCT023 BKN037 OVC050 18/15 A2979 990 81 1600 340/05 RMK AO2
14837KMSN MSN20090608181011006/08/09 18:10:31  5-MIN KMSN 090010Z 33005KT 10SM SCT023 BKN037 OVC050 18/15 A2979 990 81 1600 330/05 RMK AO2
14837KMSN MSN20090608181511006/08/09 18:15:31  5-MIN KMSN 090015Z 32003KT 10SM SCT023 BKN035 OVC050 18/15 A2979 990 81 1600 320/03 RMK AO2
14837KMSN MSN20090608182011006/08/09 18:20:31  5-MIN KMSN 090020Z 33003KT 10SM SCT023 BKN032 OVC048 18/15 A2979 980 83 1600 330/03 RMK AO2
14837KMSN MSN20090608182511006/08/09 18:25:31  5-MIN KMSN 090025Z 33004KT 10SM FEW020 BKN025 OVC048 18/15 A2979 980 83 1600 330/04 RMK AO2
14837KMSN MSN20090608183010306/08/09 18:30:31  5-MIN KMSN 090030Z 34003KT 10SM BKN023 OVC033 18/15 A2980 980 83 1600 340/03 RMK AO2
14837KMSN MSN20090608183511006/08/09 18:35:31  5-MIN KMSN 090035Z 34004KT 10SM BKN021 BKN028 OVC033 18/15 A2980 980 83 1600 340/04 RMK AO2
14837KMSN MSN20090608184010306/08/09 18:40:31  5-MIN KMSN 090040Z 33006KT 10SM SCT019 OVC026 18/15 A2980 980 83 1600 320/06 RMK AO2
14837KMSN MSN20090608184511006/08/09 18:45:31  5-MIN KMSN 090045Z 31004KT 10SM SCT019 BKN023 OVC028 18/14 A2980 980 81 1600 310/04 RMK AO2
14837KMSN MSN20090608185012706/08/09 18:50:31  5-MIN KMSN 090050Z 31004KT 10SM SCT019 BKN026 BKN030 18/14 A2980 980 81 1600 310/04 RMK AO2 SLP090 T01780144
14837KMSN MSN20090608185511006/08/09 18:55:31  5-MIN KMSN 090055Z 31003KT 10SM FEW017 BKN030 BKN050 18/14 A2980 980 81 1600 310/03 RMK AO2
14837KMSN MSN20090608190011006/08/09 19:00:31  5-MIN KMSN 090100Z 32005KT 10SM FEW017 BKN030 BKN050 18/14 A2980 970 81 1600 320/05 RMK AO2
14837KMSN MSN20090608190511006/08/09 19:05:31  5-MIN KMSN 090105Z 31004KT 10SM FEW017 BKN030 BKN050 18/14 A2980 970 81 1600 310/04 RMK AO2
14837KMSN MSN20090608191011006/08/09 19:10:31  5-MIN KMSN 090110Z 31004KT 10SM FEW017 BKN030 BKN050 18/14 A2981 970 81 1600 310/04 RMK AO2
14837KMSN MSN20090608191511006/08/09 19:15:31  5-MIN KMSN 090115Z 31005KT 10SM FEW017 BKN030 BKN050 18/14 A2981 970 81 1600 310/05 RMK AO2
14837KMSN MSN20090608192011006/08/09 19:20:31  5-MIN KMSN 090120Z 33005KT 10SM FEW017 BKN030 BKN050 17/14 A2981 970 83 1500 330/05 RMK AO2
14837KMSN MSN20090608192511006/08/09 19:25:31  5-MIN KMSN 090125Z 32006KT 10SM FEW017 BKN030 BKN050 17/14 A2981 970 83 1500 320/06 RMK AO2
14837KMSN MSN20090608193011006/08/09 19:30:31  5-MIN KMSN 090130Z 33008KT 10SM FEW017 BKN030 BKN050 17/14 A2981 970 83 1500 330/08 RMK AO2
14837KMSN MSN20090608193511006/08/09 19:35:31  5-MIN KMSN 090135Z 32006KT 10SM FEW017 BKN030 BKN050 17/14 A2981 970 80 1500 320/06 RMK AO2
14837KMSN MSN20090608194011006/08/09 19:40:31  5-MIN KMSN 090140Z 32007KT 10SM FEW017 BKN030 BKN050 17/14 A2981 960 80 1500 320/07 RMK AO2
14837KMSN MSN20090608194511006/08/09 19:45:31  5-MIN KMSN 090145Z 33008KT 10SM FEW017 BKN030 BKN050 17/14 A2981 960 83 1400 330/08 RMK AO2
14837KMSN MSN20090608195010306/08/09 19:50:31  5-MIN KMSN 090150Z 33008KT 10SM BKN020 OVC038 17/14 A2981 970 83 1400 330/08 RMK AO2
14837KMSN MSN20090608195510306/08/09 19:55:31  5-MIN KMSN 090155Z 33007KT 10SM BKN020 OVC038 17/14 A2981 960 83 1400 330/07 RMK AO2
14837KMSN MSN20090608200010306/08/09 20:00:31  5-MIN KMSN 090200Z 32007KT 10SM BKN020 OVC038 17/13 A2982 960 80 1400 320/07 RMK AO2
14837KMSN MSN20090608200511006/08/09 20:05:31  5-MIN KMSN 090205Z 32009KT 10SM BKN020 BKN025 OVC038 17/13 A2982 960 80 1400 320/09 RMK AO2
14837KMSN MSN20090608201010306/08/09 20:10:31  5-MIN KMSN 090210Z 32009KT 10SM BKN020 OVC038 17/13 A2982 960 80 1400 320/09 RMK AO2
14837KMSN MSN20090608201510306/08/09 20:15:31  5-MIN KMSN 090215Z 32008KT 10SM BKN022 OVC038 16/13 A2982 950 83 1300 320/08 RMK AO2
14837KMSN MSN20090608202009606/08/09 20:20:31  5-MIN KMSN 090220Z 32009KT 10SM OVC022 16/13 A2983 950 83 1300 320/09 RMK AO2
14837KMSN MSN20090608202510206/08/09 20:25:31  5-MIN KMSN 090225Z 31011G15KT 10SM OVC022 16/13 A2983 950 83 1300 310/11G15 RMK AO2
14837KMSN MSN20090608203010206/08/09 20:30:31  5-MIN KMSN 090230Z 31007G15KT 10SM OVC022 17/13 A2983 950 80 1400 310/07G15 RMK AO2
14837KMSN MSN20090608203510206/08/09 20:35:31  5-MIN KMSN 090235Z 31005G15KT 10SM OVC022 16/13 A2983 940 83 1300 310/05G15 RMK AO2
14837KMSN MSN20090608204009606/08/09 20:40:31  5-MIN KMSN 090240Z 32006KT 10SM OVC022 16/13 A2984 940 83 1300 320/06 RMK AO2
14837KMSN MSN20090608204509606/08/09 20:45:31  5-MIN KMSN 090245Z 32006KT 10SM OVC022 16/13 A2984 940 83 1300 320/06 RMK AO2
14837KMSN MSN20090608205011906/08/09 20:50:31  5-MIN KMSN 090250Z 32010KT 10SM OVC022 16/13 A2984 940 83 1300 320/10 RMK AO2 SLP105 T01610133 53014
14837KMSN MSN20090608205509606/08/09 20:55:31  5-MIN KMSN 090255Z 31009KT 10SM OVC022 16/13 A2984 940 80 1300 310/09 RMK AO2
14837KMSN MSN20090608210009606/08/09 21:00:31  5-MIN KMSN 090300Z 32008KT 10SM OVC022 16/13 A2985 930 80 1300 320/08 RMK AO2
14837KMSN MSN20090608210510206/08/09 21:05:31  5-MIN KMSN 090305Z 32007G15KT 10SM OVC022 16/13 A2985 930 80 1300 320/07G15 RMK AO2
14837KMSN MSN20090608211009606/08/09 21:10:31  5-MIN KMSN 090310Z 31008KT 10SM OVC020 16/13 A2985 930 80 1300 310/08 RMK AO2
14837KMSN MSN20090608211509606/08/09 21:15:31  5-MIN KMSN 090315Z 31007KT 10SM OVC020 16/13 A2985 930 80 1300 310/07 RMK AO2
14837KMSN MSN20090608212009606/08/09 21:20:31  5-MIN KMSN 090320Z 33007KT 10SM OVC018 16/13 A2985 930 80 1300 330/07 RMK AO2
14837KMSN MSN20090608212510206/08/09 21:25:31  5-MIN KMSN 090325Z 32009G15KT 10SM OVC018 16/12 A2986 920 80 1200 320/09G15 RMK AO2
14837KMSN MSN20090608213010206/08/09 21:30:31  5-MIN KMSN 090330Z 33011G15KT 10SM OVC018 16/12 A2986 920 80 1200 320/11G15 RMK AO2
14837KMSN MSN20090608213509606/08/09 21:35:31  5-MIN KMSN 090335Z 32008KT 10SM OVC016 16/12 A2986 920 80 1200 320/08 RMK AO2
14837KMSN MSN20090608214009606/08/09 21:40:31  5-MIN KMSN 090340Z 33009KT 10SM OVC016 16/12 A2986 920 80 1200 330/09 RMK AO2
14837KMSN MSN20090608214509606/08/09 21:45:31  5-MIN KMSN 090345Z 32008KT 10SM OVC016 16/12 A2986 920 80 1200 320/08 RMK AO2
14837KMSN MSN20090608215011906/08/09 21:50:31  5-MIN KMSN 090350Z 32008G15KT 10SM OVC016 16/12 A2986 920 77 1200 320/08G15 RMK AO2 SLP111 T01560117
14837KMSN MSN20090608215509606/08/09 21:55:31  5-MIN KMSN 090355Z 32007KT 10SM OVC016 16/12 A2986 920 77 1200 310/07 RMK AO2
14837KMSN MSN20090608220009606/08/09 22:00:31  5-MIN KMSN 090400Z 32008KT 10SM OVC018 15/12 A2986 920 80 1200 320/08 RMK AO2
14837KMSN MSN20090608220509606/08/09 22:05:31  5-MIN KMSN 090405Z 31005KT 10SM OVC018 15/12 A2986 920 80 1200 310/05 RMK AO2
14837KMSN MSN20090608221009606/08/09 22:10:31  5-MIN KMSN 090410Z 31007KT 10SM OVC018 15/12 A2987 920 80 1200 300/07 RMK AO2
14837KMSN MSN20090608221509606/08/09 22:15:31  5-MIN KMSN 090415Z 31006KT 10SM OVC018 15/12 A2987 910 80 1200 310/06 RMK AO2
14837KMSN MSN20090608222009606/08/09 22:20:31  5-MIN KMSN 090420Z 31006KT 10SM OVC018 15/12 A2987 910 80 1200 310/06 RMK AO2
14837KMSN MSN20090608222509606/08/09 22:25:31  5-MIN KMSN 090425Z 33005KT 10SM OVC018 15/12 A2987 910 80 1200 330/05 RMK AO2
14837KMSN MSN20090608223009606/08/09 22:30:31  5-MIN KMSN 090430Z 32004KT 10SM OVC018 15/12 A2987 910 80 1200 310/04 RMK AO2
14837KMSN MSN20090608223509606/08/09 22:35:31  5-MIN KMSN 090435Z 31007KT 10SM OVC018 15/12 A2987 910 80 1200 310/07 RMK AO2
14837KMSN MSN20090608224009606/08/09 22:40:31  5-MIN KMSN 090440Z 32006KT 10SM OVC018 15/12 A2987 910 80 1200 320/06 RMK AO2
14837KMSN MSN20090608224509606/08/09 22:45:31  5-MIN KMSN 090445Z 32007KT 10SM OVC018 15/12 A2987 910 80 1200 320/07 RMK AO2
14837KMSN MSN20090608225011306/08/09 22:50:31  5-MIN KMSN 090450Z 32008KT 10SM OVC018 14/12 A2987 910 83 1100 320/08 RMK AO2 SLP115 T01440117
14837KMSN MSN20090608225509606/08/09 22:55:31  5-MIN KMSN 090455Z 33008KT 10SM OVC018 14/11 A2987 910 80 1100 320/08 RMK AO2
14837KMSN MSN20090608230009606/08/09 23:00:31  5-MIN KMSN 090500Z 33008KT 10SM OVC018 14/11 A2988 910 80 1100 320/08 RMK AO2
14837KMSN MSN20090608230509606/08/09 23:05:31  5-MIN KMSN 090505Z 32008KT 10SM OVC018 14/11 A2987 910 80 1100 320/08 RMK AO2
14837KMSN MSN20090608231009606/08/09 23:10:31  5-MIN KMSN 090510Z 33007KT 10SM OVC018 14/11 A2987 910 80 1100 320/07 RMK AO2
14837KMSN MSN20090608231509606/08/09 23:15:31  5-MIN KMSN 090515Z 33007KT 10SM OVC018 14/11 A2988 910 80 1100 330/07 RMK AO2
14837KMSN MSN20090608232009606/08/09 23:20:31  5-MIN KMSN 090520Z 33006KT 10SM OVC018 14/11 A2987 910 80 1100 320/06 RMK AO2
14837KMSN MSN20090608232509606/08/09 23:25:31  5-MIN KMSN 090525Z 32006KT 10SM OVC018 14/11 A2987 910 80 1100 320/06 RMK AO2
14837KMSN MSN20090608233009606/08/09 23:30:31  5-MIN KMSN 090530Z 32007KT 10SM OVC018 14/11 A2988 900 80 1100 320/07 RMK AO2
14837KMSN MSN20090608233509606/08/09 23:35:31  5-MIN KMSN 090535Z 33007KT 10SM OVC018 14/11 A2988 900 80 1100 330/07 RMK AO2
14837KMSN MSN20090608234009606/08/09 23:40:31  5-MIN KMSN 090540Z 33005KT 10SM OVC018 14/11 A2988 900 83 1000 330/05 RMK AO2
14837KMSN MSN20090608234509606/08/09 23:45:31  5-MIN KMSN 090545Z 34006KT 10SM OVC018 14/11 A2988 900 83 1000 340/06 RMK AO2
14837KMSN MSN20090608235014106/08/09 23:50:31  5-MIN KMSN 090550Z 31005KT 10SM OVC018 14/12 A2988 900 86 1000 310/05 RMK AO2 SLP118 T01390117 10189 20139 402000117 53021
14837KMSN MSN20090608235509506/08/09 23:55:31  5-MIN KMSN 090555Z 32006KT 9SM OVC016 14/12 A2988 900 86 1000 320/06 RMK AO2
14837KMSN MSN20090609000009506/09/09 00:00:32  5-MIN KMSN 090600Z 33003KT 9SM OVC016 14/12 A2989 900 86 1000 330/03 RMK AO2
14837KMSN MSN20090609000509506/09/09 00:05:31  5-MIN KMSN 090605Z 32005KT 9SM OVC016 14/12 A2989 890 86 1000 310/05 RMK AO2
14837KMSN MSN20090609001009606/09/09 00:10:31  5-MIN KMSN 090610Z 32006KT 10SM OVC016 14/12 A2989 890 86 1000 320/06 RMK AO2
14837KMSN MSN20090609001509606/09/09 00:15:31  5-MIN KMSN 090615Z 31004KT 10SM OVC016 14/12 A2989 890 86 1000 310/04 RMK AO2
14837KMSN MSN20090609002009606/09/09 00:20:31  5-MIN KMSN 090620Z 32006KT 10SM OVC016 14/12 A2989 890 86 1000 320/06 RMK AO2
14837KMSN MSN20090609002509606/09/09 00:25:31  5-MIN KMSN 090625Z 32005KT 10SM OVC016 14/12 A2989 890 86 1000 320/05 RMK AO2
14837KMSN MSN20090609003009606/09/09 00:30:31  5-MIN KMSN 090630Z 32006KT 10SM OVC018 14/12 A2989 890 86 1000 320/06 RMK AO2
14837KMSN MSN20090609003509606/09/09 00:35:31  5-MIN KMSN 090635Z 32005KT 10SM OVC018 14/12 A2990 890 86 1000 320/05 RMK AO2
14837KMSN MSN20090609004009606/09/09 00:40:31  5-MIN KMSN 090640Z 31006KT 10SM OVC018 14/11 A2990 890 83 1000 310/06 RMK AO2
14837KMSN MSN20090609004509606/09/09 00:45:31  5-MIN KMSN 090645Z 30003KT 10SM OVC018 14/11 A2989 890 83 1000 300/03 RMK AO2
14837KMSN MSN20090609005011206/09/09 00:50:31  5-MIN KMSN 090650Z 30004KT 9SM OVC016 14/11 A2990 890 83 1000 300/04 RMK AO2 SLP122 T01390111
14837KMSN MSN20090609005511106/09/09 00:55:31  5-MIN KMSN 090655Z 28003KT 9SM -DZ OVC016 14/11 A2990 880 83 1000 280/03 RMK AO2 DZB55 P0000
14837KMSN MSN20090609010011206/09/09 01:00:31  5-MIN KMSN 090700Z 29006KT 9SM -DZ OVC016 13/11 A2990 880 86 900 290/06 RMK AO2 DZB0655 P0000
14837KMSN MSN20090609010511206/09/09 01:05:31  5-MIN KMSN 090705Z 29004KT 8SM -DZ OVC016 13/11 A2990 880 86 900 290/04 RMK AO2 DZB0655 P0000
14837KMSN MSN20090609011011206/09/09 01:10:31  5-MIN KMSN 090710Z 30005KT 7SM -DZ OVC016 13/11 A2990 880 86 900 290/05 RMK AO2 DZB0655 P0000
14837KMSN MSN20090609011511206/09/09 01:15:31  5-MIN KMSN 090715Z VRB06KT 7SM -DZ OVC016 13/11 A2990 880 86 900 VRB/06 RMK AO2 DZB0655 P0000
14837KMSN MSN20090609012011206/09/09 01:20:31  5-MIN KMSN 090720Z 31007KT 7SM -DZ OVC018 13/11 A2990 880 86 900 310/07 RMK AO2 DZB0655 P0000
14837KMSN MSN20090609012511506/09/09 01:25:31  5-MIN KMSN 090725Z 31006KT 6SM -DZ BR OVC018 13/11 A2990 880 86 900 300/06 RMK AO2 DZB0655 P0000
14837KMSN MSN20090609013011406/09/09 01:30:31  5-MIN KMSN 090730Z 29007KT 6SM BR OVC018 13/11 A2990 880 86 900 290/07 RMK AO2 DZB0655E28 P0000
14837KMSN MSN20090609013511106/09/09 01:35:31  5-MIN KMSN 090735Z 30006KT 7SM OVC018 13/11 A2991 880 86 900 290/06 RMK AO2 DZB0655E28 P0000
14837KMSN MSN20090609014011106/09/09 01:40:31  5-MIN KMSN 090740Z 31005KT 8SM OVC020 13/11 A2991 880 86 900 310/05 RMK AO2 DZB0655E28 P0000
14837KMSN MSN20090609014511106/09/09 01:45:31  5-MIN KMSN 090745Z 31006KT 8SM OVC020 13/11 A2990 880 86 900 310/06 RMK AO2 DZB0655E28 P0000
14837KMSN MSN20090609015012806/09/09 01:50:31  5-MIN KMSN 090750Z 32006KT 9SM OVC020 13/11 A2991 880 83 900 320/06 RMK AO2 DZB0655E28 SLP125 P0000 T01330106
14837KMSN MSN20090609015509406/09/09 01:55:31  5-MIN KMSN 090755Z 31004KT 9SM OVC020 13/11 A2991 880 83 900 310/04 RMK AO2
14837KMSN MSN20090609020009406/09/09 02:00:31  5-MIN KMSN 090800Z 30004KT 9SM OVC020 13/11 A2990 880 83 900 300/04 RMK AO2
14837KMSN MSN20090609020509406/09/09 02:05:31  5-MIN KMSN 090805Z 30005KT 9SM OVC020 13/11 A2991 880 83 900 290/05 RMK AO2
14837KMSN MSN20090609021009406/09/09 02:10:31  5-MIN KMSN 090810Z 29006KT 9SM OVC020 13/11 A2991 870 83 900 290/06 RMK AO2
14837KMSN MSN20090609021509406/09/09 02:15:31  5-MIN KMSN 090815Z 32006KT 9SM OVC020 13/11 A2991 870 83 900 320/06 RMK AO2
14837KMSN MSN20090609022009406/09/09 02:20:31  5-MIN KMSN 090820Z 32007KT 8SM OVC020 13/11 A2991 870 83 900 320/07 RMK AO2
14837KMSN MSN20090609022509406/09/09 02:25:31  5-MIN KMSN 090825Z 32005KT 8SM OVC018 13/11 A2991 870 83 900 310/05 RMK AO2
14837KMSN MSN20090609023009406/09/09 02:30:31  5-MIN KMSN 090830Z 31004KT 8SM OVC018 13/11 A2991 870 83 900 310/04 RMK AO2
14837KMSN MSN20090609023509406/09/09 02:35:31  5-MIN KMSN 090835Z 31005KT 8SM OVC016 13/11 A2991 880 83 900 310/05 RMK AO2
14837KMSN MSN20090609024009406/09/09 02:40:31  5-MIN KMSN 090840Z 31004KT 8SM OVC016 13/11 A2991 870 83 900 310/04 RMK AO2
14837KMSN MSN20090609024509406/09/09 02:45:31  5-MIN KMSN 090845Z 31004KT 8SM OVC016 13/11 A2991 870 83 900 310/04 RMK AO2
14837KMSN MSN20090609025012306/09/09 02:50:31  5-MIN KMSN 090850Z 31005KT 8SM OVC016 13/11 A2992 870 83 900 310/05 RMK AO2 SLP129 60000 T01330106 51013
14837KMSN MSN20090609025509406/09/09 02:55:31  5-MIN KMSN 090855Z 32005KT 8SM OVC016 13/11 A2992 870 86 800 320/05 RMK AO2
14837KMSN MSN20090609030009406/09/09 03:00:31  5-MIN KMSN 090900Z 33007KT 7SM OVC016 13/11 A2992 870 86 800 330/07 RMK AO2
14837KMSN MSN20090609030510006/09/09 03:05:31  5-MIN KMSN 090905Z 33009G14KT 7SM OVC016 13/11 A2992 870 86 800 330/09G14 RMK AO2
14837KMSN MSN20090609031010006/09/09 03:10:31  5-MIN KMSN 090910Z 31006G14KT 8SM OVC015 13/11 A2992 860 86 800 310/06G14 RMK AO2
14837KMSN MSN20090609031509406/09/09 03:15:31  5-MIN KMSN 090915Z 32006KT 8SM OVC015 13/10 A2992 860 83 800 320/06 RMK AO2
14837KMSN MSN20090609032009406/09/09 03:20:31  5-MIN KMSN 090920Z 32007KT 9SM OVC015 13/10 A2992 860 83 800 310/07 RMK AO2
14837KMSN MSN20090609032510206/09/09 03:25:31  5-MIN KMSN 090925Z 32006KT 10SM BKN015 OVC019 13/10 A2992 860 83 800 320/06 RMK AO2
14837KMSN MSN20090609033009506/09/09 03:30:31  5-MIN KMSN 090930Z 31006KT 10SM OVC019 13/10 A2992 860 83 800 310/06 RMK AO2
14837KMSN MSN20090609033509506/09/09 03:35:31  5-MIN KMSN 090935Z 32006KT 10SM OVC019 13/10 A2992 860 83 800 320/06 RMK AO2
14837KMSN MSN20090609034009506/09/09 03:40:31  5-MIN KMSN 090940Z 32006KT 10SM OVC019 12/10 A2992 860 86 800 320/06 RMK AO2
14837KMSN MSN20090609034509506/09/09 03:45:31  5-MIN KMSN 090945Z 33008KT 10SM OVC019 12/09 A2992 860 83 800 330/08 RMK AO2
14837KMSN MSN20090609035011206/09/09 03:50:31  5-MIN KMSN 090950Z 32006KT 10SM OVC019 12/09 A2993 860 83 800 320/06 RMK AO2 SLP134 T01220094
14837KMSN MSN20090609035509506/09/09 03:55:31  5-MIN KMSN 090955Z VRB06KT 10SM OVC017 12/09 A2993 860 83 800 VRB/06 RMK AO2
14837KMSN MSN20090609040010206/09/09 04:00:31  5-MIN KMSN 091000Z 31005KT 10SM BKN014 OVC019 12/09 A2993 860 83 800 310/05 RMK AO2
14837KMSN MSN20090609040510206/09/09 04:05:31  5-MIN KMSN 091005Z 32007KT 10SM BKN014 OVC019 12/09 A2993 860 83 800 320/07 RMK AO2
14837KMSN MSN20090609041009506/09/09 04:10:31  5-MIN KMSN 091010Z 35009KT 10SM OVC014 12/09 A2993 850 80 800 350/09 RMK AO2
14837KMSN MSN20090609041509506/09/09 04:15:31  5-MIN KMSN 091015Z 33006KT 10SM OVC014 12/09 A2993 850 83 700 330/06 RMK AO2
14837KMSN MSN20090609042009506/09/09 04:20:31  5-MIN KMSN 091020Z 33007KT 10SM OVC014 12/09 A2994 850 83 700 330/07 RMK AO2
14837KMSN MSN20090609042509506/09/09 04:25:31  5-MIN KMSN 091025Z 33007KT 10SM OVC014 12/09 A2994 850 83 700 330/07 RMK AO2
14837KMSN MSN20090609043009506/09/09 04:30:31  5-MIN KMSN 091030Z 32007KT 10SM OVC014 12/09 A2994 850 83 700 320/07 RMK AO2
14837KMSN MSN20090609043509506/09/09 04:35:31  5-MIN KMSN 091035Z 32007KT 10SM OVC014 12/09 A2994 840 83 700 320/07 RMK AO2
14837KMSN MSN20090609044009506/09/09 04:40:31  5-MIN KMSN 091040Z 32006KT 10SM OVC014 12/09 A2995 840 83 700 320/06 RMK AO2
14837KMSN MSN20090609044509506/09/09 04:45:31  5-MIN KMSN 091045Z 32005KT 10SM OVC016 12/09 A2995 840 83 700 320/05 RMK AO2
14837KMSN MSN20090609045009506/09/09 04:50:31  5-MIN KMSN 091050Z 33007KT 10SM OVC016 12/08 A2995 840 80 700 330/07 RMK AO2
14837KMSN MSN20090609045509506/09/09 04:55:31  5-MIN KMSN 091055Z 33007KT 10SM OVC016 12/08 A2996 830 80 700 330/07 RMK AO2
14837KMSN MSN20090609050009506/09/09 05:00:31  5-MIN KMSN 091100Z 32007KT 10SM OVC016 12/08 A2996 830 80 700 320/07 RMK AO2
14837KMSN MSN20090609050509506/09/09 05:05:31  5-MIN KMSN 091105Z 33008KT 10SM OVC018 12/08 A2996 820 80 700 320/08 RMK AO2
14837KMSN MSN20090609051011106/09/09 05:10:31  5-MIN KMSN 091110Z 33007KT 290V360 10SM OVC018 12/08 A2996 820 77 700 330/07 290V360 RMK AO2
14837KMSN MSN20090609051509506/09/09 05:15:31  5-MIN KMSN 091115Z 33006KT 10SM OVC018 12/08 A2997 820 77 700 330/06 RMK AO2
14837KMSN MSN20090609052009506/09/09 05:20:31  5-MIN KMSN 091120Z 33006KT 10SM OVC018 12/08 A2997 820 80 700 330/06 RMK AO2
14837KMSN MSN20090609052509506/09/09 05:25:31  5-MIN KMSN 091125Z 32005KT 10SM OVC018 12/08 A2997 820 80 700 320/05 RMK AO2
14837KMSN MSN20090609053009506/09/09 05:30:31  5-MIN KMSN 091130Z 33008KT 10SM OVC018 12/08 A2997 810 80 600 330/08 RMK AO2
14837KMSN MSN20090609053509506/09/09 05:35:31  5-MIN KMSN 091135Z 32005KT 10SM OVC018 12/08 A2998 810 80 600 320/05 RMK AO2
14837KMSN MSN20090609054009506/09/09 05:40:31  5-MIN KMSN 091140Z 32008KT 10SM OVC018 12/08 A2998 810 80 600 320/08 RMK AO2
14837KMSN MSN20090609054509506/09/09 05:45:31  5-MIN KMSN 091145Z 33005KT 10SM OVC018 12/08 A2998 810 80 600 320/05 RMK AO2
14837KMSN MSN20090609055014206/09/09 05:50:31  5-MIN KMSN 091150Z 32005KT 10SM OVC018 12/08 A2998 810 80 600 320/05 RMK AO2 SLP152 60000 70001 T01170083 10139 20117 51011
14837KMSN MSN20090609055509506/09/09 05:55:31  5-MIN KMSN 091155Z 32005KT 10SM OVC018 12/08 A2998 810 80 600 320/05 RMK AO2
14837KMSN MSN20090609060009506/09/09 06:00:31  5-MIN KMSN 091200Z 33007KT 10SM OVC018 12/08 A2998 810 77 600 330/07 RMK AO2
14837KMSN MSN20090609060509506/09/09 06:05:31  5-MIN KMSN 091205Z 33009KT 10SM OVC018 12/08 A2998 810 77 600 330/09 RMK AO2
14837KMSN MSN20090609061009506/09/09 06:10:31  5-MIN KMSN 091210Z 32007KT 10SM OVC018 12/08 A2998 810 77 600 320/07 RMK AO2
14837KMSN MSN20090609061509506/09/09 06:15:31  5-MIN KMSN 091215Z 34005KT 10SM OVC018 12/08 A2998 810 77 600 340/05 RMK AO2
14837KMSN MSN20090609062009506/09/09 06:20:31  5-MIN KMSN 091220Z 34007KT 10SM OVC018 12/08 A2998 810 77 600 330/07 RMK AO2
14837KMSN MSN20090609062509506/09/09 06:25:31  5-MIN KMSN 091225Z 33007KT 10SM OVC018 12/08 A2998 810 77 600 330/07 RMK AO2
14837KMSN MSN20090609063009506/09/09 06:30:31  5-MIN KMSN 091230Z 32009KT 10SM OVC018 12/08 A2999 800 77 600 320/09 RMK AO2
14837KMSN MSN20090609063509506/09/09 06:35:31  5-MIN KMSN 091235Z 33007KT 10SM OVC018 12/08 A2999 800 77 600 330/07 RMK AO2
14837KMSN MSN20090609064009506/09/09 06:40:31  5-MIN KMSN 091240Z 32005KT 10SM OVC020 12/08 A2999 800 77 600 320/05 RMK AO2
14837KMSN MSN20090609064509506/09/09 06:45:31  5-MIN KMSN 091245Z 33006KT 10SM OVC020 12/08 A2999 800 77 700 330/06 RMK AO2
14837KMSN MSN20090609065011206/09/09 06:50:31  5-MIN KMSN 091250Z 32008KT 10SM OVC020 12/08 A2999 800 77 700 310/08 RMK AO2 SLP154 T01220083
14837KMSN MSN20090609065509506/09/09 06:55:31  5-MIN KMSN 091255Z 33007KT 10SM OVC020 12/08 A2998 800 77 700 330/07 RMK AO2
14837KMSN MSN20090609070009506/09/09 07:00:31  5-MIN KMSN 091300Z 32007KT 10SM OVC020 12/08 A2998 810 77 700 320/07 RMK AO2
14837KMSN MSN20090609070509506/09/09 07:05:31  5-MIN KMSN 091305Z 34004KT 10SM OVC020 12/08 A2998 810 77 700 340/04 RMK AO2
14837KMSN MSN20090609071009506/09/09 07:10:31  5-MIN KMSN 091310Z 32006KT 10SM OVC020 12/08 A2998 810 77 700 320/06 RMK AO2
14837KMSN MSN20090609071509506/09/09 07:15:31  5-MIN KMSN 091315Z 33006KT 10SM OVC020 12/08 A2998 810 77 700 330/06 RMK AO2
14837KMSN MSN20090609072009506/09/09 07:20:31  5-MIN KMSN 091320Z 33006KT 10SM OVC020 12/08 A2998 810 77 700 330/06 RMK AO2
14837KMSN MSN20090609072509506/09/09 07:25:31  5-MIN KMSN 091325Z 33005KT 10SM OVC020 12/08 A2998 810 77 700 330/05 RMK AO2
14837KMSN MSN20090609073009506/09/09 07:30:31  5-MIN KMSN 091330Z VRB06KT 10SM OVC020 12/08 A2998 810 77 700 VRB/06 RMK AO2
14837KMSN MSN20090609073509506/09/09 07:35:31  5-MIN KMSN 091335Z 32006KT 10SM OVC020 12/08 A2998 810 77 700 320/06 RMK AO2
14837KMSN MSN20090609074009506/09/09 07:40:31  5-MIN KMSN 091340Z 31007KT 10SM OVC020 13/08 A2997 820 71 800 310/07 RMK AO2
14837KMSN MSN20090609074509506/09/09 07:45:31  5-MIN KMSN 091345Z 32006KT 10SM OVC020 12/08 A2997 820 74 700 320/06 RMK AO2
14837KMSN MSN20090609075011206/09/09 07:50:31  5-MIN KMSN 091350Z 31005KT 10SM OVC020 13/08 A2998 810 74 800 310/05 RMK AO2 SLP152 T01280083
14837KMSN MSN20090609075509506/09/09 07:55:31  5-MIN KMSN 091355Z 33007KT 10SM OVC020 13/08 A2998 810 74 800 330/07 RMK AO2
14837KMSN MSN20090609080009506/09/09 08:00:31  5-MIN KMSN 091400Z 34007KT 10SM OVC020 13/08 A2998 810 74 800 340/07 RMK AO2
14837KMSN MSN20090609080509506/09/09 08:05:31  5-MIN KMSN 091405Z 33007KT 10SM OVC020 13/08 A2998 810 71 800 330/07 RMK AO2
14837KMSN MSN20090609081009506/09/09 08:10:31  5-MIN KMSN 091410Z 34006KT 10SM OVC020 13/08 A2998 810 71 800 340/06 RMK AO2
14837KMSN MSN20090609081509506/09/09 08:15:31  5-MIN KMSN 091415Z 34006KT 10SM BKN020 14/08 A2998 810 69 900 340/06 RMK AO2
14837KMSN MSN20090609082009506/09/09 08:20:31  5-MIN KMSN 091420Z 33008KT 10SM BKN020 14/08 A2999 800 69 900 330/08 RMK AO2
14837KMSN MSN20090609082509506/09/09 08:25:31  5-MIN KMSN 091425Z 33007KT 10SM BKN020 13/08 A2998 810 69 800 330/07 RMK AO2
14837KMSN MSN20090609083009506/09/09 08:30:31  5-MIN KMSN 091430Z 33007KT 10SM BKN020 13/08 A2999 800 69 800 330/07 RMK AO2
14837KMSN MSN20090609083509506/09/09 08:35:31  5-MIN KMSN 091435Z 32006KT 10SM BKN020 13/08 A2999 800 71 800 320/06 RMK AO2
14837KMSN MSN20090609084009506/09/09 08:40:31  5-MIN KMSN 091440Z 32008KT 10SM BKN023 13/08 A2999 800 71 800 320/08 RMK AO2
14837KMSN MSN20090609084509506/09/09 08:45:31  5-MIN KMSN 091445Z 32005KT 10SM BKN023 13/08 A2999 800 69 800 320/05 RMK AO2
14837KMSN MSN20090609085011906/09/09 08:50:31  5-MIN KMSN 091450Z 35005KT 10SM BKN023 14/08 A2999 800 66 1000 350/05 RMK AO2 SLP157 T01440083 53018
14837KMSN MSN20090609085509606/09/09 08:55:31  5-MIN KMSN 091455Z 35005KT 10SM BKN023 15/09 A2999 800 66 1000 350/05 RMK AO2
14837KMSN MSN20090609090009606/09/09 09:00:31  5-MIN KMSN 091500Z VRB03KT 10SM OVC023 15/09 A2999 800 69 1000 VRB/03 RMK AO2
14837KMSN MSN20090609090509506/09/09 09:05:31  5-MIN KMSN 091505Z 31006KT 10SM BKN023 14/08 A2999 800 69 900 310/06 RMK AO2
14837KMSN MSN20090609091009506/09/09 09:10:31  5-MIN KMSN 091510Z 29004KT 10SM BKN023 14/08 A2999 800 69 900 290/04 RMK AO2
14837KMSN MSN20090609091509606/09/09 09:15:31  5-MIN KMSN 091515Z VRB05KT 10SM BKN023 15/08 A2999 800 64 1000 VRB/05 RMK AO2
14837KMSN MSN20090609092009606/09/09 09:20:31  5-MIN KMSN 091520Z VRB04KT 10SM BKN023 15/08 A3000 790 64 1000 VRB/04 RMK AO2
14837KMSN MSN20090609092509606/09/09 09:25:31  5-MIN KMSN 091525Z VRB05KT 10SM BKN023 16/09 A3000 790 64 1100 VRB/05 RMK AO2
14837KMSN MSN20090609093009606/09/09 09:30:31  5-MIN KMSN 091530Z VRB03KT 10SM BKN023 14/08 A2999 800 66 1000 VRB/03 RMK AO2
14837KMSN MSN20090609093509606/09/09 09:35:31  5-MIN KMSN 091535Z VRB04KT 10SM BKN026 14/08 A3000 790 66 1000 VRB/04 RMK AO2
14837KMSN MSN20090609094009606/09/09 09:40:31  5-MIN KMSN 091540Z VRB03KT 10SM BKN026 15/08 A2999 800 64 1000 VRB/03 RMK AO2
14837KMSN MSN20090609094509606/09/09 09:45:31  5-MIN KMSN 091545Z VRB06KT 10SM BKN026 16/09 A3000 790 64 1200 VRB/06 RMK AO2
14837KMSN MSN20090609095011306/09/09 09:50:31  5-MIN KMSN 091550Z VRB03KT 10SM BKN026 16/09 A2999 800 64 1200 VRB/03 RMK AO2 SLP156 T01610094
14837KMSN MSN20090609095509606/09/09 09:55:31  5-MIN KMSN 091555Z 27005KT 10SM BKN026 16/09 A2999 800 67 1100 270/05 RMK AO2
14837KMSN MSN20090609100009606/09/09 10:00:31  5-MIN KMSN 091600Z 29004KT 10SM BKN026 15/09 A2999 800 66 1000 290/04 RMK AO2
14837KMSN MSN20090609100509606/09/09 10:05:31  5-MIN KMSN 091605Z 29003KT 10SM BKN026 16/09 A2999 800 64 1100 290/03 RMK AO2
14837KMSN MSN20090609101009606/09/09 10:10:31  5-MIN KMSN 091610Z 00000KT 10SM BKN026 16/09 A2999 800 64 1200 000/00 RMK AO2
14837KMSN MSN20090609101509606/09/09 10:15:31  5-MIN KMSN 091615Z 29004KT 10SM BKN028 16/09 A2999 800 64 1200 290/04 RMK AO2
14837KMSN MSN20090609102009606/09/09 10:20:31  5-MIN KMSN 091620Z 00000KT 10SM BKN030 16/09 A2999 800 64 1100 000/00 RMK AO2
14837KMSN MSN20090609102509606/09/09 10:25:31  5-MIN KMSN 091625Z VRB06KT 10SM BKN030 16/09 A2998 810 62 1200 VRB/06 RMK AO2
14837KMSN MSN20090609103009606/09/09 10:30:31  5-MIN KMSN 091630Z 01004KT 10SM BKN030 17/09 A2999 800 62 1200 360/04 RMK AO2
14837KMSN MSN20090609103509606/09/09 10:35:31  5-MIN KMSN 091635Z 33005KT 10SM BKN030 17/09 A2999 800 60 1300 320/05 RMK AO2
14837KMSN MSN20090609104009606/09/09 10:40:31  5-MIN KMSN 091640Z 33007KT 10SM BKN030 16/09 A2999 800 64 1200 330/07 RMK AO2
14837KMSN MSN20090609104509606/09/09 10:45:31  5-MIN KMSN 091645Z 31005KT 10SM BKN030 17/10 A2999 800 64 1200 310/05 RMK AO2
14837KMSN MSN20090609105011306/09/09 10:50:31  5-MIN KMSN 091650Z 00000KT 10SM BKN030 17/09 A2999 800 62 1200 000/00 RMK AO2 SLP155 T01670094
14837KMSN MSN20090609105509606/09/09 10:55:31  5-MIN KMSN 091655Z VRB04KT 10SM BKN030 17/10 A2999 800 62 1300 VRB/04 RMK AO2
14837KMSN MSN20090609110009606/09/09 11:00:31  5-MIN KMSN 091700Z 03003KT 10SM BKN030 18/11 A2999 800 60 1400 030/03 RMK AO2
14837KMSN MSN20090609110509606/09/09 11:05:31  5-MIN KMSN 091705Z VRB04KT 10SM BKN030 17/09 A2999 800 62 1200 VRB/04 RMK AO2
14837KMSN MSN20090609111009606/09/09 11:10:31  5-MIN KMSN 091710Z VRB03KT 10SM BKN030 16/09 A2999 800 62 1200 VRB/03 RMK AO2
14837KMSN MSN20090609111511206/09/09 11:15:31  5-MIN KMSN 091715Z 01007KT 340V060 10SM BKN030 17/09 A2999 800 62 1200 010/07 340V060 RMK AO2
14837KMSN MSN20090609112009606/09/09 11:20:31  5-MIN KMSN 091720Z VRB03KT 10SM BKN030 17/10 A2999 800 62 1300 VRB/03 RMK AO2
14837KMSN MSN20090609112509606/09/09 11:25:31  5-MIN KMSN 091725Z 00000KT 10SM BKN030 17/09 A2998 810 60 1300 000/00 RMK AO2
14837KMSN MSN20090609113009606/09/09 11:30:31  5-MIN KMSN 091730Z VRB04KT 10SM BKN030 18/11 A2999 800 62 1400 VRB/04 RMK AO2
14837KMSN MSN20090609113509606/09/09 11:35:31  5-MIN KMSN 091735Z 32006KT 10SM BKN030 18/11 A2999 800 62 1400 310/06 RMK AO2
14837KMSN MSN20090609114009606/09/09 11:40:31  5-MIN KMSN 091740Z 00000KT 10SM BKN030 18/10 A2998 810 60 1400 000/00 RMK AO2
14837KMSN MSN20090609114509606/09/09 11:45:31  5-MIN KMSN 091745Z 00000KT 10SM BKN030 18/10 A2998 810 60 1400 000/00 RMK AO2
14837KMSN MSN20090609115013106/09/09 11:50:31  5-MIN KMSN 091750Z 33003KT 10SM BKN030 18/10 A2998 810 58 1400 330/03 RMK AO2 SLP149 T01830100 10183 20117 53005
14837KMSN MSN20090609115509606/09/09 11:55:31  5-MIN KMSN 091755Z VRB03KT 10SM SCT032 18/10 A2997 820 60 1400 VRB/03 RMK AO2
14837KMSN MSN20090609120009606/09/09 12:00:31  5-MIN KMSN 091800Z 01004KT 10SM SCT032 18/10 A2996 820 58 1400 010/04 RMK AO2
14837KMSN MSN20090609120509606/09/09 12:05:31  5-MIN KMSN 091805Z 33004KT 10SM SCT032 18/10 A2996 830 58 1400 320/04 RMK AO2
14837KMSN MSN20090609121009606/09/09 12:10:31  5-MIN KMSN 091810Z VRB03KT 10SM SCT032 18/10 A2996 830 58 1400 VRB/03 RMK AO2
14837KMSN MSN20090609121509606/09/09 12:15:31  5-MIN KMSN 091815Z 00000KT 10SM SCT032 18/09 A2996 820 56 1400 000/00 RMK AO2
14837KMSN MSN20090609122009606/09/09 12:20:31  5-MIN KMSN 091820Z 00000KT 10SM SCT032 18/10 A2997 820 60 1400 000/00 RMK AO2
14837KMSN MSN20090609122509606/09/09 12:25:31  5-MIN KMSN 091825Z 00000KT 10SM SCT032 18/10 A2996 830 58 1400 000/00 RMK AO2
14837KMSN MSN20090609123009606/09/09 12:30:31  5-MIN KMSN 091830Z 13003KT 10SM SCT032 18/10 A2996 820 58 1400 130/03 RMK AO2
14837KMSN MSN20090609123509606/09/09 12:35:31  5-MIN KMSN 091835Z 00000KT 10SM SCT032 18/11 A2996 830 60 1500 000/00 RMK AO2
14837KMSN MSN20090609124009606/09/09 12:40:31  5-MIN KMSN 091840Z 00000KT 10SM SCT032 18/11 A2996 830 60 1500 000/00 RMK AO2
14837KMSN MSN20090609124509606/09/09 12:45:31  5-MIN KMSN 091845Z 00000KT 10SM SCT032 19/10 A2995 840 56 1500 000/00 RMK AO2
14837KMSN MSN20090609125011306/09/09 12:50:31  5-MIN KMSN 091850Z 33005KT 10SM SCT035 19/11 A2995 840 58 1500 330/05 RMK AO2 SLP141 T01890106
14837KMSN MSN20090609125509606/09/09 12:55:31  5-MIN KMSN 091855Z VRB06KT 10SM SCT035 19/11 A2995 830 58 1500 VRB/06 RMK AO2
14837KMSN MSN20090609130011206/09/09 13:00:31  5-MIN KMSN 091900Z 01007KT 350V050 10SM SCT035 19/11 A2996 830 56 1600 010/07 350V050 RMK AO2
14837KMSN MSN20090609130509606/09/09 13:05:31  5-MIN KMSN 091905Z VRB04KT 10SM SCT035 19/10 A2995 840 56 1500 VRB/04 RMK AO2
14837KMSN MSN20090609131009606/09/09 13:10:31  5-MIN KMSN 091910Z 32003KT 10SM FEW035 19/11 A2995 840 56 1600 320/03 RMK AO2
14837KMSN MSN20090609131509606/09/09 13:15:31  5-MIN KMSN 091915Z 02005KT 10SM FEW035 19/11 A2996 830 58 1500 020/05 RMK AO2
14837KMSN MSN20090609132009606/09/09 13:20:31  5-MIN KMSN 091920Z 01004KT 10SM FEW035 19/11 A2995 830 58 1600 010/04 RMK AO2
14837KMSN MSN20090609132509606/09/09 13:25:31  5-MIN KMSN 091925Z 03004KT 10SM FEW035 19/11 A2995 830 56 1600 030/04 RMK AO2
14837KMSN MSN20090609133009606/09/09 13:30:31  5-MIN KMSN 091930Z 05006KT 10SM FEW035 19/10 A2996 830 54 1600 050/06 RMK AO2
14837KMSN MSN20090609133509606/09/09 13:35:31  5-MIN KMSN 091935Z 31003KT 10SM FEW035 20/11 A2996 830 56 1600 310/03 RMK AO2
14837KMSN MSN20090609134009606/09/09 13:40:31  5-MIN KMSN 091940Z 31005KT 10SM FEW035 19/11 A2996 820 56 1600 310/05 RMK AO2
14837KMSN MSN20090609134509606/09/09 13:45:31  5-MIN KMSN 091945Z 32005KT 10SM FEW035 19/11 A2997 820 56 1600 320/05 RMK AO2
14837KMSN MSN20090609135011306/09/09 13:50:31  5-MIN KMSN 091950Z VRB03KT 10SM FEW035 19/10 A2997 820 56 1500 VRB/03 RMK AO2 SLP146 T01890100
14837KMSN MSN20090609135509606/09/09 13:55:31  5-MIN KMSN 091955Z VRB03KT 10SM FEW040 19/11 A2996 830 56 1600 VRB/03 RMK AO2
14837KMSN MSN20090609140009606/09/09 14:00:31  5-MIN KMSN 092000Z 00000KT 10SM FEW040 19/11 A2996 830 56 1600 000/00 RMK AO2
14837KMSN MSN20090609140509606/09/09 14:05:31  5-MIN KMSN 092005Z 00000KT 10SM FEW040 20/11 A2996 820 56 1600 000/00 RMK AO2
14837KMSN MSN20090609141009606/09/09 14:10:31  5-MIN KMSN 092010Z VRB05KT 10SM FEW040 20/11 A2996 830 54 1600 VRB/05 RMK AO2
14837KMSN MSN20090609141509606/09/09 14:15:31  5-MIN KMSN 092015Z VRB03KT 10SM FEW040 19/10 A2997 820 54 1600 VRB/03 RMK AO2
14837KMSN MSN20090609142009606/09/09 14:20:31  5-MIN KMSN 092020Z 21005KT 10SM FEW040 19/10 A2997 820 54 1600 210/05 RMK AO2
14837KMSN MSN20090609142509606/09/09 14:25:31  5-MIN KMSN 092025Z VRB04KT 10SM FEW040 19/10 A2997 820 54 1600 VRB/04 RMK AO2
14837KMSN MSN20090609143009606/09/09 14:30:31  5-MIN KMSN 092030Z 00000KT 10SM FEW040 19/10 A2997 820 56 1500 000/00 RMK AO2
14837KMSN MSN20090609143509606/09/09 14:35:31  5-MIN KMSN 092035Z 00000KT 10SM FEW040 19/10 A2997 820 54 1600 000/00 RMK AO2
14837KMSN MSN20090609144009606/09/09 14:40:31  5-MIN KMSN 092040Z 22004KT 10SM FEW040 19/09 A2996 820 52 1600 220/04 RMK AO2
14837KMSN MSN20090609144509606/09/09 14:45:31  5-MIN KMSN 092045Z VRB04KT 10SM FEW040 19/10 A2996 820 54 1600 VRB/04 RMK AO2
14837KMSN MSN20090609145011906/09/09 14:50:31  5-MIN KMSN 092050Z VRB05KT 10SM FEW040 19/10 A2996 820 54 1600 VRB/05 RMK AO2 SLP145 T01940100 58007
14837KMSN MSN20090609145509606/09/09 14:55:31  5-MIN KMSN 092055Z 24003KT 10SM FEW040 19/10 A2996 820 54 1600 240/03 RMK AO2
14837KMSN MSN20090609150009606/09/09 15:00:31  5-MIN KMSN 092100Z 00000KT 10SM FEW040 19/09 A2996 820 52 1600 000/00 RMK AO2
14837KMSN MSN20090609150509606/09/09 15:05:31  5-MIN KMSN 092105Z 31005KT 10SM FEW040 20/11 A2996 830 54 1600 310/05 RMK AO2
14837KMSN MSN20090609151009306/09/09 15:10:31  5-MIN KMSN 092110Z VRB04KT 10SM CLR 20/10 A2996 820 52 1600 VRB/04 RMK AO2
14837KMSN MSN20090609151509306/09/09 15:15:31  5-MIN KMSN 092115Z 34003KT 10SM CLR 19/09 A2996 830 52 1600 340/03 RMK AO2
14837KMSN MSN20090609152009306/09/09 15:20:31  5-MIN KMSN 092120Z 34004KT 10SM CLR 19/09 A2996 830 52 1600 340/04 RMK AO2
14837KMSN MSN20090609152509306/09/09 15:25:31  5-MIN KMSN 092125Z 02003KT 10SM CLR 20/10 A2996 830 52 1600 020/03 RMK AO2
14837KMSN MSN20090609153009306/09/09 15:30:31  5-MIN KMSN 092130Z 02006KT 10SM CLR 20/10 A2996 830 52 1600 020/06 RMK AO2
14837KMSN MSN20090609153509306/09/09 15:35:31  5-MIN KMSN 092135Z 02005KT 10SM CLR 19/10 A2995 830 54 1600 020/05 RMK AO2
14837KMSN MSN20090609154009306/09/09 15:40:31  5-MIN KMSN 092140Z 36003KT 10SM CLR 19/10 A2995 830 54 1600 360/03 RMK AO2
14837KMSN MSN20090609154509306/09/09 15:45:31  5-MIN KMSN 092145Z 02003KT 10SM CLR 19/11 A2995 830 56 1600 020/03 RMK AO2
14837KMSN MSN20090609155011006/09/09 15:50:31  5-MIN KMSN 092150Z 04003KT 10SM CLR 19/10 A2995 830 54 1600 040/03 RMK AO2 SLP141 T01940100
14837KMSN MSN20090609155509306/09/09 15:55:31  5-MIN KMSN 092155Z 00000KT 10SM CLR 19/11 A2995 840 56 1600 000/00 RMK AO2
14837KMSN MSN20090609160009306/09/09 16:00:31  5-MIN KMSN 092200Z 00000KT 10SM CLR 19/10 A2995 840 54 1600 000/00 RMK AO2
14837KMSN MSN20090609160509306/09/09 16:05:31  5-MIN KMSN 092205Z 00000KT 10SM CLR 19/11 A2995 840 56 1600 000/00 RMK AO2
14837KMSN MSN20090609161009306/09/09 16:10:31  5-MIN KMSN 092210Z 36004KT 10SM CLR 19/11 A2995 840 60 1500 360/04 RMK AO2
14837KMSN MSN20090609161509306/09/09 16:15:31  5-MIN KMSN 092215Z 01004KT 10SM CLR 19/11 A2995 840 60 1500 360/04 RMK AO2
14837KMSN MSN20090609162009306/09/09 16:20:31  5-MIN KMSN 092220Z 02004KT 10SM CLR 19/11 A2995 840 58 1500 020/04 RMK AO2
14837KMSN MSN20090609162509306/09/09 16:25:31  5-MIN KMSN 092225Z 02005KT 10SM CLR 19/11 A2995 840 58 1500 020/05 RMK AO2
14837KMSN MSN20090609163009306/09/09 16:30:31  5-MIN KMSN 092230Z 01004KT 10SM CLR 19/11 A2995 840 60 1500 010/04 RMK AO2
14837KMSN MSN20090609163509306/09/09 16:35:31  5-MIN KMSN 092235Z 02004KT 10SM CLR 19/11 A2995 840 58 1500 020/04 RMK AO2
14837KMSN MSN20090609164009306/09/09 16:40:31  5-MIN KMSN 092240Z 02003KT 10SM CLR 19/11 A2995 840 58 1500 020/03 RMK AO2
14837KMSN MSN20090609164509306/09/09 16:45:31  5-MIN KMSN 092245Z 02003KT 10SM CLR 19/11 A2995 830 60 1500 020/03 RMK AO2
14837KMSN MSN20090609165011306/09/09 16:50:31  5-MIN KMSN 092250Z 01003KT 10SM FEW100 19/11 A2996 830 58 1500 360/03 RMK AO2 SLP144 T01890106
14837KMSN MSN20090609165509306/09/09 16:55:31  5-MIN KMSN 092255Z 35003KT 10SM CLR 19/11 A2996 830 60 1500 350/03 RMK AO2
14837KMSN MSN20090609170009306/09/09 17:00:31  5-MIN KMSN 092300Z 35003KT 10SM CLR 18/11 A2996 830 62 1400 350/03 RMK AO2
14837KMSN MSN20090609170509606/09/09 17:05:31  5-MIN KMSN 092305Z 35003KT 10SM FEW100 18/12 A2996 830 65 1400 350/03 RMK AO2
14837KMSN MSN20090609171009606/09/09 17:10:31  5-MIN KMSN 092310Z 36003KT 10SM FEW100 18/12 A2996 830 65 1400 360/03 RMK AO2
14837KMSN MSN20090609171509606/09/09 17:15:31  5-MIN KMSN 092315Z 36003KT 10SM FEW100 18/12 A2996 820 65 1400 360/03 RMK AO2
14837KMSN MSN20090609172009606/09/09 17:20:31  5-MIN KMSN 092320Z 36003KT 10SM FEW100 18/12 A2996 830 65 1400 360/03 RMK AO2
14837KMSN MSN20090609172509606/09/09 17:25:31  5-MIN KMSN 092325Z 01003KT 10SM FEW100 18/11 A2996 830 62 1500 010/03 RMK AO2
14837KMSN MSN20090609173009606/09/09 17:30:31  5-MIN KMSN 092330Z 01005KT 10SM FEW100 18/11 A2995 830 64 1400 010/05 RMK AO2
14837KMSN MSN20090609173509606/09/09 17:35:31  5-MIN KMSN 092335Z 01005KT 10SM FEW100 18/11 A2995 840 64 1400 010/05 RMK AO2
14837KMSN MSN20090609174009606/09/09 17:40:31  5-MIN KMSN 092340Z 36004KT 10SM FEW100 18/11 A2995 830 64 1400 360/04 RMK AO2
14837KMSN MSN20090609174509606/09/09 17:45:31  5-MIN KMSN 092345Z 00000KT 10SM FEW100 18/11 A2995 830 64 1400 000/00 RMK AO2
14837KMSN MSN20090609175012806/09/09 17:50:31  5-MIN KMSN 092350Z 36003KT 10SM CLR 18/11 A2995 830 64 1400 360/03 RMK AO2 SLP142 T01780111 10200 20178 55003
14837KMSN MSN20090609175509306/09/09 17:55:31  5-MIN KMSN 092355Z 36003KT 10SM CLR 18/11 A2995 830 64 1400 360/03 RMK AO2
14837KMSN MSN20090609180009306/09/09 18:00:31  5-MIN KMSN 100000Z 03003KT 10SM CLR 18/11 A2995 840 64 1400 030/03 RMK AO2
14837KMSN MSN20090609180509306/09/09 18:05:31  5-MIN KMSN 100005Z 04005KT 10SM CLR 18/11 A2995 840 64 1400 030/05 RMK AO2
14837KMSN MSN20090609181009306/09/09 18:10:31  5-MIN KMSN 100010Z 04005KT 10SM CLR 18/11 A2995 840 62 1400 040/05 RMK AO2
14837KMSN MSN20090609181509306/09/09 18:15:31  5-MIN KMSN 100015Z 03007KT 10SM CLR 18/11 A2995 840 62 1400 030/07 RMK AO2
14837KMSN MSN20090609182009306/09/09 18:20:31  5-MIN KMSN 100020Z 03007KT 10SM CLR 18/11 A2995 840 64 1400 030/07 RMK AO2
14837KMSN MSN20090609182509306/09/09 18:25:31  5-MIN KMSN 100025Z 03006KT 10SM CLR 18/11 A2995 840 62 1400 030/06 RMK AO2
14837KMSN MSN20090609183009306/09/09 18:30:31  5-MIN KMSN 100030Z 04005KT 10SM CLR 18/11 A2995 840 62 1400 040/05 RMK AO2
14837KMSN MSN20090609183509306/09/09 18:35:31  5-MIN KMSN 100035Z 04006KT 10SM CLR 18/11 A2995 840 64 1400 040/06 RMK AO2
14837KMSN MSN20090609184009306/09/09 18:40:31  5-MIN KMSN 100040Z 04006KT 10SM CLR 18/11 A2995 840 62 1400 040/06 RMK AO2
14837KMSN MSN20090609184509306/09/09 18:45:31  5-MIN KMSN 100045Z 04007KT 10SM CLR 18/11 A2995 840 62 1400 040/07 RMK AO2
14837KMSN MSN20090609185011006/09/09 18:50:31  5-MIN KMSN 100050Z 03008KT 10SM CLR 18/11 A2995 830 62 1400 030/08 RMK AO2 SLP142 T01780106
14837KMSN MSN20090609185509306/09/09 18:55:31  5-MIN KMSN 100055Z 02008KT 10SM CLR 17/10 A2995 830 62 1300 020/08 RMK AO2
14837KMSN MSN20090609190009306/09/09 19:00:31  5-MIN KMSN 100100Z 02007KT 10SM CLR 17/10 A2996 830 62 1300 020/07 RMK AO2
14837KMSN MSN20090609190509606/09/09 19:05:31  5-MIN KMSN 100105Z 03006KT 10SM FEW120 17/10 A2996 830 62 1300 030/06 RMK AO2
14837KMSN MSN20090609191009606/09/09 19:10:31  5-MIN KMSN 100110Z 03004KT 10SM FEW110 17/10 A2996 820 62 1300 030/04 RMK AO2
14837KMSN MSN20090609191510306/09/09 19:15:31  5-MIN KMSN 100115Z 02004KT 10SM FEW095 SCT110 17/11 A2997 820 67 1200 020/04 RMK AO2
14837KMSN MSN20090609192010306/09/09 19:20:31  5-MIN KMSN 100120Z 03005KT 10SM SCT090 SCT110 17/10 A2997 820 64 1200 030/05 RMK AO2
14837KMSN MSN20090609192510306/09/09 19:25:31  5-MIN KMSN 100125Z 03009KT 10SM SCT090 SCT110 17/10 A2996 830 64 1300 030/09 RMK AO2
14837KMSN MSN20090609193010306/09/09 19:30:31  5-MIN KMSN 100130Z 03010KT 10SM SCT080 BKN110 17/10 A2994 840 62 1300 030/10 RMK AO2
14837KMSN MSN20090609193511006/09/09 19:35:31  5-MIN KMSN 100135Z 03012KT 10SM BKN080 BKN100 17/10 A2992 860 64 1300 030/12 RMK AO2 PRESFR
14837KMSN MSN20090609194011006/09/09 19:40:31  5-MIN KMSN 100140Z 03013KT 10SM SCT080 BKN100 17/10 A2992 870 64 1300 030/13 RMK AO2 PRESFR
14837KMSN MSN20090609194509606/09/09 19:45:31  5-MIN KMSN 100145Z 03013KT 10SM SCT080 17/10 A2992 870 64 1300 030/13 RMK AO2
14837KMSN MSN20090609195011306/09/09 19:50:31  5-MIN KMSN 100150Z 03009KT 10SM FEW075 17/10 A2993 860 64 1300 030/09 RMK AO2 SLP134 T01670100
14837KMSN MSN20090609195510306/09/09 19:55:31  5-MIN KMSN 100155Z 03011KT 10SM FEW075 SCT110 17/10 A2993 860 64 1300 030/11 RMK AO2
14837KMSN MSN20090609200009606/09/09 20:00:31  5-MIN KMSN 100200Z 03010KT 10SM SCT100 17/10 A2993 850 64 1300 030/10 RMK AO2
14837KMSN MSN20090609200509606/09/09 20:05:31  5-MIN KMSN 100205Z 02008KT 10SM SCT110 17/10 A2994 840 64 1300 020/08 RMK AO2
14837KMSN MSN20090609201010306/09/09 20:10:31  5-MIN KMSN 100210Z 36004KT 10SM SCT110 17/10 A2997 820 64 1200 360/04 RMK AO2 PRESRR
14837KMSN MSN20090609201510306/09/09 20:15:31  5-MIN KMSN 100215Z 00000KT 10SM SCT110 17/10 A2998 810 64 1200 000/00 RMK AO2 PRESRR
14837KMSN MSN20090609202009606/09/09 20:20:31  5-MIN KMSN 100220Z 00000KT 10SM SCT100 17/09 A2998 810 62 1200 000/00 RMK AO2
14837KMSN MSN20090609202509606/09/09 20:25:31  5-MIN KMSN 100225Z 05006KT 10SM BKN100 16/10 A2998 810 67 1200 050/06 RMK AO2
14837KMSN MSN20090609203009606/09/09 20:30:31  5-MIN KMSN 100230Z 04007KT 10SM BKN090 16/10 A2998 810 67 1200 040/07 RMK AO2
14837KMSN MSN20090609203509606/09/09 20:35:31  5-MIN KMSN 100235Z 04005KT 10SM BKN090 16/11 A2999 800 69 1200 030/05 RMK AO2
14837KMSN MSN20090609204009606/09/09 20:40:31  5-MIN KMSN 100240Z 05004KT 10SM BKN090 16/11 A2999 800 69 1200 050/04 RMK AO2
14837KMSN MSN20090609204511206/09/09 20:45:31  5-MIN KMSN 100245Z 06005KT 10SM -RA OVC090 16/11 A2999 800 74 1100 050/05 RMK AO2 RAB43 P0000
14837KMSN MSN20090609205014806/09/09 20:50:31  5-MIN KMSN 100250Z 04006KT 10SM -RA BKN080 OVC095 16/12 A2998 810 77 1100 040/06 RMK AO2 RAB43 SLP153 P0000 60000 T01560117 56004
14837KMSN MSN20090609205511306/09/09 20:55:31  5-MIN KMSN 100255Z 04007KT 10SM -RA BKN070 OVC095 15/12 A2998 810 80 1000 040/07 RMK AO2 P0000
14837KMSN MSN20090609210011306/09/09 21:00:31  5-MIN KMSN 100300Z 04007KT 10SM -RA SCT075 BKN095 15/12 A2998 810 80 1000 040/07 RMK AO2 P0000
14837KMSN MSN20090609210511506/09/09 21:05:31  5-MIN KMSN 100305Z 05004KT 10SM BKN080 BKN095 15/12 A2998 810 80 1000 050/04 RMK AO2 RAE04 P0000
14837KMSN MSN20090609211011506/09/09 21:10:31  5-MIN KMSN 100310Z 08003KT 10SM SCT075 BKN095 15/12 A2998 810 83 1000 080/03 RMK AO2 RAE04 P0000
14837KMSN MSN20090609211511506/09/09 21:15:31  5-MIN KMSN 100315Z 09004KT 10SM SCT070 SCT100 15/12 A2999 800 80 1000 090/04 RMK AO2 RAE04 P0000
14837KMSN MSN20090609212011506/09/09 21:20:31  5-MIN KMSN 100320Z 10005KT 10SM FEW080 BKN100 15/12 A2998 810 80 1000 100/05 RMK AO2 RAE04 P0000
14837KMSN MSN20090609212510806/09/09 21:25:31  5-MIN KMSN 100325Z 09007KT 10SM BKN100 15/12 A2997 820 80 1000 090/07 RMK AO2 RAE04 P0000
14837KMSN MSN20090609213010806/09/09 21:30:31  5-MIN KMSN 100330Z 08006KT 10SM BKN100 15/12 A2997 820 80 1100 080/06 RMK AO2 RAE04 P0000
14837KMSN MSN20090609213510806/09/09 21:35:31  5-MIN KMSN 100335Z 08007KT 10SM SCT100 14/12 A2997 820 83 1000 080/07 RMK AO2 RAE04 P0000
14837KMSN MSN20090609214010806/09/09 21:40:31  5-MIN KMSN 100340Z 07006KT 10SM BKN110 14/12 A2996 830 83 1000 070/06 RMK AO2 RAE04 P0000
14837KMSN MSN20090609214510806/09/09 21:45:31  5-MIN KMSN 100345Z 07007KT 10SM BKN110 14/12 A2995 830 83 1000 070/07 RMK AO2 RAE04 P0000
14837KMSN MSN20090609215012506/09/09 21:50:31  5-MIN KMSN 100350Z 07007KT 10SM BKN110 14/12 A2995 840 83 1000 070/07 RMK AO2 RAE04 SLP141 P0000 T01440117
14837KMSN MSN20090609215511306/09/09 21:55:31  5-MIN KMSN 100355Z 07009KT 10SM -RA BKN110 14/11 A2994 840 80 1000 070/09 RMK AO2 PRESFR P0000
14837KMSN MSN20090609220010606/09/09 22:00:31  5-MIN KMSN 100400Z 08009KT 10SM -RA BKN100 14/11 A2994 840 80 1000 080/09 RMK AO2 P0000
14837KMSN MSN20090609220510606/09/09 22:05:31  5-MIN KMSN 100405Z 08008KT 10SM -RA OVC100 14/11 A2994 850 80 1000 080/08 RMK AO2 P0000
14837KMSN MSN20090609221010606/09/09 22:10:31  5-MIN KMSN 100410Z 07007KT 10SM -RA OVC100 14/11 A2994 840 80 1000 070/07 RMK AO2 P0000
14837KMSN MSN20090609221510606/09/09 22:15:31  5-MIN KMSN 100415Z 08006KT 10SM -RA OVC100 14/11 A2995 840 80 1000 070/06 RMK AO2 P0000
14837KMSN MSN20090609222010806/09/09 22:20:31  5-MIN KMSN 100420Z 07006KT 10SM OVC100 14/11 A2995 840 80 1000 070/06 RMK AO2 RAE20 P0000
14837KMSN MSN20090609222510806/09/09 22:25:31  5-MIN KMSN 100425Z 08008KT 10SM OVC100 14/11 A2995 840 80 1000 080/08 RMK AO2 RAE20 P0000
14837KMSN MSN20090609223010806/09/09 22:30:31  5-MIN KMSN 100430Z 08008KT 10SM OVC095 14/11 A2995 840 80 1000 080/08 RMK AO2 RAE20 P0000
14837KMSN MSN20090609223510806/09/09 22:35:31  5-MIN KMSN 100435Z 07006KT 10SM OVC095 14/11 A2995 830 80 1000 070/06 RMK AO2 RAE20 P0000
14837KMSN MSN20090609224011406/09/09 22:40:31  5-MIN KMSN 100440Z 07005KT 8SM -RA OVC095 14/12 A2995 830 83 1000 070/05 RMK AO2 RAE20B38 P0000
14837KMSN MSN20090609224511306/09/09 22:45:31  5-MIN KMSN 100445Z 06005KT 7SM -RA OVC090 14/12 A2996 830 86 900 060/05 RMK AO2 RAE20B38 P0000
14837KMSN MSN20090609225013006/09/09 22:50:31  5-MIN KMSN 100450Z 07004KT 7SM -RA OVC090 14/12 A2996 830 86 900 070/04 RMK AO2 RAE20B38 SLP144 P0000 T01390117
14837KMSN MSN20090609225510406/09/09 22:55:31  5-MIN KMSN 100455Z 07004KT 8SM -RA OVC085 14/12 A2995 830 86 900 070/04 RMK AO2 P0000
14837KMSN MSN20090609230010806/09/09 23:00:31  5-MIN KMSN 100500Z 07004KT 9SM OVC085 14/12 A2996 830 86 900 070/04 RMK AO2 RAE0459 P0000
14837KMSN MSN20090609230510806/09/09 23:05:31  5-MIN KMSN 100505Z 08004KT 8SM OVC085 14/12 A2996 830 86 900 080/04 RMK AO2 RAE0459 P0000
14837KMSN MSN20090609231010806/09/09 23:10:31  5-MIN KMSN 100510Z 09003KT 8SM OVC085 14/12 A2996 830 86 900 090/03 RMK AO2 RAE0459 P0000
14837KMSN MSN20090609231510806/09/09 23:15:31  5-MIN KMSN 100515Z 05003KT 8SM OVC085 14/12 A2996 820 90 900 050/03 RMK AO2 RAE0459 P0000
14837KMSN MSN20090609232010806/09/09 23:20:31  5-MIN KMSN 100520Z 04003KT 8SM OVC085 14/12 A2996 820 90 900 040/03 RMK AO2 RAE0459 P0000
14837KMSN MSN20090609232510806/09/09 23:25:31  5-MIN KMSN 100525Z 03003KT 8SM OVC085 14/12 A2997 820 90 900 030/03 RMK AO2 RAE0459 P0000
14837KMSN MSN20090609233010806/09/09 23:30:31  5-MIN KMSN 100530Z 03004KT 8SM OVC085 14/12 A2997 820 90 900 030/04 RMK AO2 RAE0459 P0000
14837KMSN MSN20090609233510806/09/09 23:35:31  5-MIN KMSN 100535Z 00000KT 8SM OVC090 14/12 A2997 820 90 900 000/00 RMK AO2 RAE0459 P0000
14837KMSN MSN20090609234010806/09/09 23:40:31  5-MIN KMSN 100540Z 00000KT 8SM OVC090 14/12 A2997 820 90 900 000/00 RMK AO2 RAE0459 P0000
14837KMSN MSN20090609234510806/09/09 23:45:31  5-MIN KMSN 100545Z 00000KT 7SM OVC090 14/12 A2997 820 90 900 000/00 RMK AO2 RAE0459 P0000
14837KMSN MSN20090609235015906/09/09 23:50:31  5-MIN KMSN 100550Z 35003KT 7SM OVC090 14/12 A2997 820 90 900 350/03 RMK AO2 RAE0459 SLP147 P0000 60000 T01390122 10178 20139 402000117 53008
14837KMSN MSN20090609235509406/09/09 23:55:31  5-MIN KMSN 100555Z 35004KT 7SM OVC090 14/12 A2997 820 90 900 350/04 RMK AO2
14837KMSN MSN20090610000009406/10/09 00:00:32  5-MIN KMSN 100600Z 00000KT 7SM OVC090 14/12 A2997 820 90 900 000/00 RMK AO2
14837KMSN MSN20090610000509406/10/09 00:05:31  5-MIN KMSN 100605Z 00000KT 8SM OVC090 13/12 A2997 810 93 800 000/00 RMK AO2
14837KMSN MSN20090610001009406/10/09 00:10:31  5-MIN KMSN 100610Z 00000KT 8SM OVC090 14/12 A2997 810 90 900 000/00 RMK AO2
14837KMSN MSN20090610001509406/10/09 00:15:31  5-MIN KMSN 100615Z 00000KT 8SM OVC095 14/12 A2997 810 86 900 000/00 RMK AO2
14837KMSN MSN20090610002010106/10/09 00:20:31  5-MIN KMSN 100620Z 00000KT 8SM FEW070 OVC095 14/12 A2997 820 86 900 000/00 RMK AO2
14837KMSN MSN20090610002511706/10/09 00:25:31  5-MIN KMSN 100625Z 00000KT 7SM -RA SCT070 OVC095 14/12 A2997 820 90 900 000/00 RMK AO2 RAB21 P0000
14837KMSN MSN20090610003011706/10/09 00:30:31  5-MIN KMSN 100630Z 00000KT 7SM -RA SCT075 BKN095 13/12 A2997 820 93 800 000/00 RMK AO2 RAB21 P0000
14837KMSN MSN20090610003511706/10/09 00:35:31  5-MIN KMSN 100635Z 35003KT 7SM -RA SCT075 BKN095 13/12 A2997 820 93 800 350/03 RMK AO2 RAB21 P0000
14837KMSN MSN20090610004011706/10/09 00:40:31  5-MIN KMSN 100640Z 00000KT 7SM -RA SCT070 BKN095 13/12 A2997 820 93 900 000/00 RMK AO2 RAB21 P0000
14837KMSN MSN20090610004511606/10/09 00:45:31  5-MIN KMSN 100645Z 35004KT 7SM FEW075 BKN100 13/12 A2997 820 93 800 350/04 RMK AO2 RAB21E44 P0000
14837KMSN MSN20090610005013606/10/09 00:50:31  5-MIN KMSN 100650Z 35003KT 6SM BR FEW075 BKN110 13/12 A2996 820 93 800 350/03 RMK AO2 RAB21E44 SLP145 P0000 T01280117
14837KMSN MSN20090610005510406/10/09 00:55:31  5-MIN KMSN 100655Z 01003KT 6SM BR FEW090 SCT110 13/12 A2996 830 93 800 010/03 RMK AO2
14837KMSN MSN20090610010009706/10/09 01:00:31  5-MIN KMSN 100700Z 02004KT 6SM BR BKN110 13/12 A2995 830 93 800 020/04 RMK AO2
14837KMSN MSN20090610010509706/10/09 01:05:31  5-MIN KMSN 100705Z 01003KT 6SM BR BKN110 13/12 A2995 830 93 800 010/03 RMK AO2
14837KMSN MSN20090610011009706/10/09 01:10:31  5-MIN KMSN 100710Z 03003KT 5SM BR BKN110 13/12 A2995 840 93 800 030/03 RMK AO2
14837KMSN MSN20090610011509706/10/09 01:15:31  5-MIN KMSN 100715Z 06003KT 5SM BR BKN110 13/12 A2995 840 96 800 060/03 RMK AO2
14837KMSN MSN20090610012009706/10/09 01:20:31  5-MIN KMSN 100720Z 06004KT 5SM BR OVC110 13/12 A2995 840 93 800 060/04 RMK AO2
14837KMSN MSN20090610012509706/10/09 01:25:31  5-MIN KMSN 100725Z 06004KT 5SM BR OVC110 13/12 A2995 840 96 800 050/04 RMK AO2
14837KMSN MSN20090610013009706/10/09 01:30:31  5-MIN KMSN 100730Z 05005KT 5SM BR BKN100 13/12 A2994 850 93 800 050/05 RMK AO2
14837KMSN MSN20090610013509706/10/09 01:35:31  5-MIN KMSN 100735Z 04006KT 5SM BR BKN100 13/12 A2994 850 93 800 040/06 RMK AO2
14837KMSN MSN20090610014009706/10/09 01:40:31  5-MIN KMSN 100740Z 04005KT 5SM BR BKN110 13/12 A2993 850 93 800 040/05 RMK AO2
14837KMSN MSN20090610014509706/10/09 01:45:31  5-MIN KMSN 100745Z 05005KT 5SM BR BKN110 13/12 A2994 850 93 800 040/05 RMK AO2
14837KMSN MSN20090610015011406/10/09 01:50:31  5-MIN KMSN 100750Z 04005KT 6SM BR BKN110 13/12 A2994 850 93 800 040/05 RMK AO2 SLP136 T01280117
14837KMSN MSN20090610015509706/10/09 01:55:31  5-MIN KMSN 100755Z 04003KT 5SM BR FEW110 13/12 A2994 850 93 800 040/03 RMK AO2
14837KMSN MSN20090610020009706/10/09 02:00:31  5-MIN KMSN 100800Z 04003KT 5SM BR FEW110 12/12 A2994 850 96 800 040/03 RMK AO2
14837KMSN MSN20090610020509706/10/09 02:05:31  5-MIN KMSN 100805Z 03005KT 5SM BR FEW110 12/12 A2994 850 96 800 030/05 RMK AO2
14837KMSN MSN20090610021009706/10/09 02:10:31  5-MIN KMSN 100810Z 03005KT 5SM BR SCT120 13/12 A2994 850 93 800 030/05 RMK AO2
14837KMSN MSN20090610021509706/10/09 02:15:31  5-MIN KMSN 100815Z 03005KT 5SM BR SCT120 13/12 A2994 850 93 800 030/05 RMK AO2
14837KMSN MSN20090610022009706/10/09 02:20:31  5-MIN KMSN 100820Z 04005KT 5SM BR BKN120 13/12 A2994 840 93 800 030/05 RMK AO2
14837KMSN MSN20090610022509706/10/09 02:25:31  5-MIN KMSN 100825Z 00000KT 5SM BR BKN120 13/12 A2995 840 93 800 000/00 RMK AO2
14837KMSN MSN20090610023009706/10/09 02:30:31  5-MIN KMSN 100830Z 00000KT 5SM BR BKN120 13/12 A2994 840 93 800 000/00 RMK AO2
14837KMSN MSN20090610023509706/10/09 02:35:31  5-MIN KMSN 100835Z 05003KT 5SM BR BKN120 13/12 A2995 840 93 800 050/03 RMK AO2
14837KMSN MSN20090610024009706/10/09 02:40:31  5-MIN KMSN 100840Z 00000KT 5SM BR BKN120 13/12 A2995 840 93 800 000/00 RMK AO2
14837KMSN MSN20090610024509706/10/09 02:45:31  5-MIN KMSN 100845Z 09003KT 5SM BR BKN120 13/12 A2995 840 93 800 090/03 RMK AO2
14837KMSN MSN20090610025012606/10/09 02:50:31  5-MIN KMSN 100850Z 08004KT 6SM BR BKN120 13/11 A2995 840 89 800 080/04 RMK AO2 SLP140 60000 T01280111 55003
14837KMSN MSN20090610025509706/10/09 02:55:31  5-MIN KMSN 100855Z 08004KT 5SM BR SCT120 13/11 A2995 840 89 800 080/04 RMK AO2
14837KMSN MSN20090610030010406/10/09 03:00:31  5-MIN KMSN 100900Z 11005KT 5SM BR SCT075 SCT120 13/11 A2995 840 89 800 110/05 RMK AO2
14837KMSN MSN20090610030510406/10/09 03:05:31  5-MIN KMSN 100905Z 09005KT 5SM BR BKN075 BKN120 13/11 A2995 840 89 800 090/05 RMK AO2
14837KMSN MSN20090610031009706/10/09 03:10:31  5-MIN KMSN 100910Z 09006KT 5SM BR BKN075 13/11 A2994 850 89 800 090/06 RMK AO2
14837KMSN MSN20090610031509706/10/09 03:15:31  5-MIN KMSN 100915Z 09004KT 5SM BR BKN075 13/11 A2994 850 89 800 090/04 RMK AO2
14837KMSN MSN20090610032009706/10/09 03:20:31  5-MIN KMSN 100920Z 09005KT 5SM BR OVC075 13/11 A2994 850 89 800 090/05 RMK AO2
14837KMSN MSN20090610032509706/10/09 03:25:31  5-MIN KMSN 100925Z 13004KT 5SM BR OVC075 13/11 A2995 840 89 800 130/04 RMK AO2
14837KMSN MSN20090610033009706/10/09 03:30:31  5-MIN KMSN 100930Z 14005KT 5SM BR BKN075 13/11 A2995 840 89 800 140/05 RMK AO2
14837KMSN MSN20090610033509706/10/09 03:35:31  5-MIN KMSN 100935Z 14005KT 5SM BR BKN075 13/11 A2995 840 89 800 140/05 RMK AO2
14837KMSN MSN20090610034009706/10/09 03:40:31  5-MIN KMSN 100940Z 15006KT 6SM BR SCT075 13/11 A2995 840 86 800 140/06 RMK AO2
14837KMSN MSN20090610034509706/10/09 03:45:31  5-MIN KMSN 100945Z 13006KT 6SM BR FEW080 12/11 A2995 840 89 700 130/06 RMK AO2
14837KMSN MSN20090610035011106/10/09 03:50:31  5-MIN KMSN 100950Z 13006KT 7SM SCT075 12/11 A2994 840 89 800 130/06 RMK AO2 SLP138 T01220106
14837KMSN MSN20090610035509706/10/09 03:55:31  5-MIN KMSN 100955Z 13007KT 6SM BR SCT075 12/11 A2994 840 89 700 130/07 RMK AO2
14837KMSN MSN20090610040009406/10/09 04:00:31  5-MIN KMSN 101000Z 13006KT 7SM BKN075 12/10 A2994 840 86 800 130/06 RMK AO2
14837KMSN MSN20090610040509406/10/09 04:05:31  5-MIN KMSN 101005Z 14007KT 7SM BKN075 12/10 A2994 840 86 800 140/07 RMK AO2
14837KMSN MSN20090610041009706/10/09 04:10:31  5-MIN KMSN 101010Z 14008KT 6SM BR BKN075 12/10 A2994 850 86 800 140/08 RMK AO2
14837KMSN MSN20090610041509706/10/09 04:15:31  5-MIN KMSN 101015Z 13005KT 6SM BR SCT075 12/10 A2994 850 89 700 130/05 RMK AO2
14837KMSN MSN20090610042009706/10/09 04:20:31  5-MIN KMSN 101020Z 13006KT 6SM BR SCT075 12/10 A2995 840 89 700 130/06 RMK AO2
14837KMSN MSN20090610042509706/10/09 04:25:31  5-MIN KMSN 101025Z 14007KT 6SM BR FEW075 12/10 A2994 840 89 700 140/07 RMK AO2
14837KMSN MSN20090610043009706/10/09 04:30:31  5-MIN KMSN 101030Z 13007KT 6SM BR FEW075 12/09 A2994 850 86 700 130/07 RMK AO2
14837KMSN MSN20090610043509706/10/09 04:35:31  5-MIN KMSN 101035Z 13007KT 6SM BR FEW075 12/09 A2994 850 86 700 130/07 RMK AO2
14837KMSN MSN20090610044009706/10/09 04:40:31  5-MIN KMSN 101040Z 13007KT 6SM BR FEW075 12/10 A2994 840 89 700 130/07 RMK AO2
14837KMSN MSN20090610044509706/10/09 04:45:31  5-MIN KMSN 101045Z 13006KT 6SM BR FEW075 12/10 A2994 840 89 700 130/06 RMK AO2
14837KMSN MSN20090610045011406/10/09 04:50:31  5-MIN KMSN 101050Z 14006KT 6SM BR FEW075 12/10 A2995 840 89 700 140/06 RMK AO2 SLP140 T01170100
14837KMSN MSN20090610045509406/10/09 04:55:31  5-MIN KMSN 101055Z 14006KT 5SM BR CLR 12/10 A2995 840 89 700 140/06 RMK AO2
14837KMSN MSN20090610050009406/10/09 05:00:31  5-MIN KMSN 101100Z 14005KT 5SM BR CLR 12/10 A2995 840 89 700 140/05 RMK AO2
14837KMSN MSN20090610050509406/10/09 05:05:31  5-MIN KMSN 101105Z 14004KT 5SM BR CLR 12/10 A2995 840 89 700 130/04 RMK AO2
14837KMSN MSN20090610051009406/10/09 05:10:31  5-MIN KMSN 101110Z 14004KT 6SM BR CLR 12/10 A2995 840 89 700 140/04 RMK AO2
14837KMSN MSN20090610051509406/10/09 05:15:31  5-MIN KMSN 101115Z 14005KT 6SM BR CLR 12/10 A2995 840 89 700 140/05 RMK AO2
14837KMSN MSN20090610052009406/10/09 05:20:31  5-MIN KMSN 101120Z 14005KT 6SM BR CLR 12/10 A2995 830 89 700 140/05 RMK AO2
14837KMSN MSN20090610052509406/10/09 05:25:31  5-MIN KMSN 101125Z 14004KT 6SM BR CLR 12/10 A2995 840 86 700 140/04 RMK AO2
14837KMSN MSN20090610053009406/10/09 05:30:31  5-MIN KMSN 101130Z 13004KT 6SM BR CLR 12/10 A2995 840 86 700 130/04 RMK AO2
14837KMSN MSN20090610053509406/10/09 05:35:31  5-MIN KMSN 101135Z 12005KT 6SM BR CLR 12/10 A2995 840 86 700 120/05 RMK AO2
14837KMSN MSN20090610054009406/10/09 05:40:31  5-MIN KMSN 101140Z 13005KT 6SM BR CLR 12/10 A2995 840 86 700 130/05 RMK AO2
14837KMSN MSN20090610054509406/10/09 05:45:31  5-MIN KMSN 101145Z 13004KT 6SM BR CLR 12/10 A2995 840 86 700 130/04 RMK AO2
14837KMSN MSN20090610055013806/10/09 05:50:31  5-MIN KMSN 101150Z 11004KT 6SM BR FEW100 12/10 A2995 840 86 700 110/04 RMK AO2 SLP141 60000 T01220100 10139 20117 55006
14837KMSN MSN20090610055509406/10/09 05:55:31  5-MIN KMSN 101155Z 11005KT 6SM HZ CLR 13/10 A2995 840 83 800 110/05 RMK AO2
14837KMSN MSN20090610060009106/10/09 06:00:31  5-MIN KMSN 101200Z 11005KT 7SM CLR 13/10 A2995 840 83 800 110/05 RMK AO2
14837KMSN MSN20090610060509106/10/09 06:05:31  5-MIN KMSN 101205Z 10005KT 7SM CLR 13/10 A2995 840 83 800 100/05 RMK AO2
14837KMSN MSN20090610061009106/10/09 06:10:31  5-MIN KMSN 101210Z 11006KT 7SM CLR 13/10 A2995 840 83 800 110/06 RMK AO2
14837KMSN MSN20090610061509106/10/09 06:15:31  5-MIN KMSN 101215Z 10004KT 7SM CLR 13/10 A2995 830 83 800 100/04 RMK AO2
14837KMSN MSN20090610062009106/10/09 06:20:31  5-MIN KMSN 101220Z 11005KT 7SM CLR 13/10 A2995 830 80 900 110/05 RMK AO2
14837KMSN MSN20090610062509106/10/09 06:25:31  5-MIN KMSN 101225Z 12005KT 8SM CLR 13/10 A2995 830 80 900 120/05 RMK AO2
14837KMSN MSN20090610063009106/10/09 06:30:31  5-MIN KMSN 101230Z 12004KT 8SM CLR 13/10 A2995 830 80 900 120/04 RMK AO2
14837KMSN MSN20090610063509106/10/09 06:35:31  5-MIN KMSN 101235Z 12006KT 8SM CLR 13/10 A2995 840 80 900 110/06 RMK AO2
14837KMSN MSN20090610064009106/10/09 06:40:31  5-MIN KMSN 101240Z 13007KT 8SM CLR 14/09 A2995 830 74 900 130/07 RMK AO2
14837KMSN MSN20090610064509106/10/09 06:45:31  5-MIN KMSN 101245Z 12009KT 9SM CLR 13/09 A2995 830 77 900 120/09 RMK AO2
14837KMSN MSN20090610065010806/10/09 06:50:31  5-MIN KMSN 101250Z 13008KT 9SM CLR 14/09 A2995 840 74 900 130/08 RMK AO2 SLP141 T01390094
14837KMSN MSN20090610065509106/10/09 06:55:31  5-MIN KMSN 101255Z 12008KT 9SM CLR 14/09 A2995 830 74 900 120/08 RMK AO2
14837KMSN MSN20090610070009106/10/09 07:00:31  5-MIN KMSN 101300Z 12008KT 9SM CLR 14/09 A2995 840 74 900 120/08 RMK AO2
14837KMSN MSN20090610070509106/10/09 07:05:31  5-MIN KMSN 101305Z 11005KT 9SM CLR 14/09 A2995 830 74 900 110/05 RMK AO2
14837KMSN MSN20090610071009206/10/09 07:10:31  5-MIN KMSN 101310Z 12006KT 9SM CLR 14/09 A2996 830 72 1000 110/06 RMK AO2
14837KMSN MSN20090610071509206/10/09 07:15:31  5-MIN KMSN 101315Z 12004KT 9SM CLR 14/10 A2995 830 74 1000 120/04 RMK AO2
14837KMSN MSN20090610072009206/10/09 07:20:31  5-MIN KMSN 101320Z 09005KT 9SM CLR 14/10 A2995 830 74 1000 090/05 RMK AO2
14837KMSN MSN20090610072509206/10/09 07:25:31  5-MIN KMSN 101325Z 11005KT 9SM CLR 14/10 A2995 840 74 1000 110/05 RMK AO2
14837KMSN MSN20090610073009206/10/09 07:30:31  5-MIN KMSN 101330Z VRB04KT 9SM CLR 15/10 A2995 830 72 1100 VRB/04 RMK AO2
14837KMSN MSN20090610073509206/10/09 07:35:31  5-MIN KMSN 101335Z 10006KT 9SM CLR 15/10 A2995 830 72 1100 100/06 RMK AO2
14837KMSN MSN20090610074009206/10/09 07:40:31  5-MIN KMSN 101340Z 11005KT 9SM CLR 14/10 A2996 830 74 1000 110/05 RMK AO2
14837KMSN MSN20090610074509206/10/09 07:45:31  5-MIN KMSN 101345Z 11006KT 9SM CLR 15/10 A2996 830 72 1100 110/06 RMK AO2
14837KMSN MSN20090610075010906/10/09 07:50:31  5-MIN KMSN 101350Z 07004KT 9SM CLR 15/10 A2996 830 72 1100 070/04 RMK AO2 SLP144 T01500100
14837KMSN MSN20090610075509206/10/09 07:55:31  5-MIN KMSN 101355Z 10005KT 8SM CLR 16/11 A2996 830 72 1100 100/05 RMK AO2
14837KMSN MSN20090610080009206/10/09 08:00:31  5-MIN KMSN 101400Z 13005KT 9SM CLR 16/11 A2996 830 72 1100 130/05 RMK AO2
14837KMSN MSN20090610080509206/10/09 08:05:31  5-MIN KMSN 101405Z 11004KT 9SM CLR 16/11 A2996 830 72 1100 110/04 RMK AO2
14837KMSN MSN20090610081009206/10/09 08:10:31  5-MIN KMSN 101410Z 12006KT 9SM CLR 16/11 A2996 830 69 1200 120/06 RMK AO2
14837KMSN MSN20090610081509206/10/09 08:15:31  5-MIN KMSN 101415Z 12006KT 9SM CLR 16/11 A2996 830 72 1100 120/06 RMK AO2
14837KMSN MSN20090610082009206/10/09 08:20:31  5-MIN KMSN 101420Z 12004KT 9SM CLR 16/11 A2996 830 72 1100 120/04 RMK AO2
14837KMSN MSN20090610082509206/10/09 08:25:31  5-MIN KMSN 101425Z 10005KT 9SM CLR 16/11 A2996 830 69 1200 100/05 RMK AO2
14837KMSN MSN20090610083009206/10/09 08:30:31  5-MIN KMSN 101430Z 09006KT 9SM CLR 16/11 A2996 830 69 1200 090/06 RMK AO2
14837KMSN MSN20090610083509306/10/09 08:35:31  5-MIN KMSN 101435Z 09005KT 10SM CLR 16/11 A2996 830 69 1200 090/05 RMK AO2
14837KMSN MSN20090610084009306/10/09 08:40:31  5-MIN KMSN 101440Z 00000KT 10SM CLR 16/11 A2996 830 72 1200 000/00 RMK AO2
14837KMSN MSN20090610084509306/10/09 08:45:31  5-MIN KMSN 101445Z 11006KT 10SM CLR 17/11 A2996 830 69 1300 110/06 RMK AO2
14837KMSN MSN20090610085011606/10/09 08:50:31  5-MIN KMSN 101450Z 11004KT 10SM CLR 16/11 A2995 830 69 1200 100/04 RMK AO2 SLP142 T01610106 56000
14837KMSN MSN20090610085509306/10/09 08:55:31  5-MIN KMSN 101455Z 00000KT 10SM CLR 17/11 A2995 840 67 1300 000/00 RMK AO2
14837KMSN MSN20090610090009306/10/09 09:00:31  5-MIN KMSN 101500Z VRB06KT 10SM CLR 17/11 A2995 840 69 1300 VRB/06 RMK AO2
14837KMSN MSN20090610090509306/10/09 09:05:31  5-MIN KMSN 101505Z 10004KT 10SM CLR 17/11 A2995 840 69 1300 100/04 RMK AO2
14837KMSN MSN20090610091009306/10/09 09:10:31  5-MIN KMSN 101510Z 00000KT 10SM CLR 17/11 A2995 840 67 1300 000/00 RMK AO2
14837KMSN MSN20090610091509306/10/09 09:15:31  5-MIN KMSN 101515Z 00000KT 10SM CLR 17/11 A2994 840 69 1300 000/00 RMK AO2
14837KMSN MSN20090610092009306/10/09 09:20:31  5-MIN KMSN 101520Z 12005KT 10SM CLR 18/12 A2994 850 67 1400 120/05 RMK AO2
14837KMSN MSN20090610092509306/10/09 09:25:31  5-MIN KMSN 101525Z VRB06KT 10SM CLR 18/11 A2993 850 64 1400 VRB/06 RMK AO2
14837KMSN MSN20090610093009306/10/09 09:30:31  5-MIN KMSN 101530Z VRB03KT 10SM CLR 18/11 A2993 850 64 1400 VRB/03 RMK AO2
14837KMSN MSN20090610093509306/10/09 09:35:31  5-MIN KMSN 101535Z 11003KT 10SM CLR 18/11 A2993 850 64 1400 110/03 RMK AO2
14837KMSN MSN20090610094009306/10/09 09:40:31  5-MIN KMSN 101540Z VRB04KT 10SM CLR 18/11 A2993 860 64 1400 VRB/04 RMK AO2
14837KMSN MSN20090610094509306/10/09 09:45:31  5-MIN KMSN 101545Z 13005KT 10SM CLR 18/12 A2993 850 65 1500 130/05 RMK AO2
14837KMSN MSN20090610095011006/10/09 09:50:31  5-MIN KMSN 101550Z 06004KT 10SM CLR 18/12 A2993 850 65 1500 060/04 RMK AO2 SLP134 T01830117
14837KMSN MSN20090610095509606/10/09 09:55:31  5-MIN KMSN 101555Z VRB03KT 10SM FEW110 18/12 A2993 860 65 1500 VRB/03 RMK AO2
14837KMSN MSN20090610100009606/10/09 10:00:31  5-MIN KMSN 101600Z 15004KT 10SM FEW110 18/12 A2993 850 65 1500 150/04 RMK AO2
14837KMSN MSN20090610100510306/10/09 10:05:31  5-MIN KMSN 101605Z VRB05KT 10SM FEW030 SCT110 19/12 A2993 850 65 1500 VRB/05 RMK AO2
14837KMSN MSN20090610101010306/10/09 10:10:31  5-MIN KMSN 101610Z 05005KT 10SM FEW030 SCT110 19/11 A2993 860 60 1500 050/05 RMK AO2
14837KMSN MSN20090610101510306/10/09 10:15:31  5-MIN KMSN 101615Z 09007KT 10SM FEW030 SCT110 19/11 A2993 860 60 1500 090/07 RMK AO2
14837KMSN MSN20090610102010306/10/09 10:20:31  5-MIN KMSN 101620Z 00000KT 10SM FEW030 SCT110 19/11 A2993 850 60 1500 000/00 RMK AO2
14837KMSN MSN20090610102510306/10/09 10:25:31  5-MIN KMSN 101625Z VRB03KT 10SM FEW030 SCT110 19/12 A2993 860 62 1600 VRB/03 RMK AO2
14837KMSN MSN20090610103010306/10/09 10:30:31  5-MIN KMSN 101630Z 09006KT 10SM FEW030 SCT110 19/12 A2993 860 60 1600 090/06 RMK AO2
14837KMSN MSN20090610103510306/10/09 10:35:31  5-MIN KMSN 101635Z 09005KT 10SM FEW030 SCT110 19/11 A2993 860 60 1500 090/05 RMK AO2
14837KMSN MSN20090610104010306/10/09 10:40:31  5-MIN KMSN 101640Z 14005KT 10SM FEW030 SCT110 19/11 A2993 860 60 1500 140/05 RMK AO2
14837KMSN MSN20090610104510306/10/09 10:45:31  5-MIN KMSN 101645Z VRB03KT 10SM FEW030 SCT110 19/11 A2992 860 60 1600 VRB/03 RMK AO2
14837KMSN MSN20090610105012006/10/09 10:50:31  5-MIN KMSN 101650Z 11006KT 10SM FEW030 SCT110 19/11 A2992 860 56 1600 110/06 RMK AO2 SLP132 T01940106
14837KMSN MSN20090610105509606/10/09 10:55:31  5-MIN KMSN 101655Z 00000KT 10SM FEW040 19/10 A2992 870 56 1600 000/00 RMK AO2
14837KMSN MSN20090610110009606/10/09 11:00:31  5-MIN KMSN 101700Z 06004KT 10SM FEW040 19/11 A2991 870 56 1600 060/04 RMK AO2
14837KMSN MSN20090610110509606/10/09 11:05:31  5-MIN KMSN 101705Z VRB05KT 10SM FEW040 20/12 A2991 870 58 1700 VRB/05 RMK AO2
14837KMSN MSN20090610111009606/10/09 11:10:31  5-MIN KMSN 101710Z VRB04KT 10SM FEW040 20/12 A2991 870 58 1700 VRB/04 RMK AO2
14837KMSN MSN20090610111509606/10/09 11:15:31  5-MIN KMSN 101715Z VRB05KT 10SM FEW040 20/12 A2991 880 58 1700 VRB/05 RMK AO2
14837KMSN MSN20090610112009606/10/09 11:20:31  5-MIN KMSN 101720Z 03003KT 10SM FEW040 20/12 A2990 880 58 1700 030/03 RMK AO2
14837KMSN MSN20090610112509606/10/09 11:25:31  5-MIN KMSN 101725Z 07005KT 10SM FEW040 21/12 A2990 880 58 1800 070/05 RMK AO2
14837KMSN MSN20090610113009606/10/09 11:30:31  5-MIN KMSN 101730Z 07006KT 10SM FEW040 21/12 A2990 890 58 1800 070/06 RMK AO2
14837KMSN MSN20090610113509606/10/09 11:35:31  5-MIN KMSN 101735Z 09008KT 10SM FEW040 21/12 A2989 890 58 1800 090/08 RMK AO2
14837KMSN MSN20090610114009606/10/09 11:40:31  5-MIN KMSN 101740Z 09007KT 10SM FEW040 20/12 A2989 890 58 1700 080/07 RMK AO2
14837KMSN MSN20090610114509606/10/09 11:45:31  5-MIN KMSN 101745Z 07006KT 10SM FEW040 21/12 A2989 890 56 1800 070/06 RMK AO2
14837KMSN MSN20090610115013106/10/09 11:50:31  5-MIN KMSN 101750Z VRB05KT 10SM FEW040 21/12 A2989 890 56 1800 VRB/05 RMK AO2 SLP120 T02060117 10211 20128 50001
14837KMSN MSN20090610115509606/10/09 11:55:31  5-MIN KMSN 101755Z 09007KT 10SM FEW040 21/11 A2989 890 54 1800 090/07 RMK AO2
14837KMSN MSN20090610120009606/10/09 12:00:31  5-MIN KMSN 101800Z 07004KT 10SM FEW040 21/11 A2989 890 52 1800 070/04 RMK AO2
14837KMSN MSN20090610120509606/10/09 12:05:31  5-MIN KMSN 101805Z 07005KT 10SM FEW040 21/11 A2989 890 54 1800 070/05 RMK AO2
14837KMSN MSN20090610121009606/10/09 12:10:31  5-MIN KMSN 101810Z VRB04KT 10SM FEW040 21/11 A2989 890 54 1800 VRB/04 RMK AO2
14837KMSN MSN20090610121509606/10/09 12:15:31  5-MIN KMSN 101815Z VRB03KT 10SM FEW040 21/11 A2989 890 54 1800 VRB/03 RMK AO2
14837KMSN MSN20090610122009606/10/09 12:20:31  5-MIN KMSN 101820Z VRB04KT 10SM FEW040 20/11 A2989 890 56 1700 VRB/04 RMK AO2
14837KMSN MSN20090610122509606/10/09 12:25:31  5-MIN KMSN 101825Z 04006KT 10SM FEW040 21/12 A2989 890 56 1800 040/06 RMK AO2
14837KMSN MSN20090610123009606/10/09 12:30:31  5-MIN KMSN 101830Z VRB03KT 10SM FEW040 21/11 A2989 890 52 1800 VRB/03 RMK AO2
14837KMSN MSN20090610123509606/10/09 12:35:31  5-MIN KMSN 101835Z 06004KT 10SM FEW040 21/11 A2989 890 54 1800 060/04 RMK AO2
14837KMSN MSN20090610124009606/10/09 12:40:31  5-MIN KMSN 101840Z 09004KT 10SM FEW040 21/11 A2989 890 54 1800 090/04 RMK AO2
14837KMSN MSN20090610124509606/10/09 12:45:31  5-MIN KMSN 101845Z VRB04KT 10SM FEW040 22/12 A2989 890 52 1900 VRB/04 RMK AO2
14837KMSN MSN20090610125011306/10/09 12:50:31  5-MIN KMSN 101850Z 12005KT 10SM FEW040 21/12 A2989 890 54 1900 120/05 RMK AO2 SLP120 T02110117
14837KMSN MSN20090610125509606/10/09 12:55:31  5-MIN KMSN 101855Z VRB04KT 10SM FEW040 21/12 A2989 890 56 1800 VRB/04 RMK AO2
14837KMSN MSN20090610130009606/10/09 13:00:31  5-MIN KMSN 101900Z VRB06KT 10SM FEW040 21/12 A2989 890 54 1900 VRB/06 RMK AO2
14837KMSN MSN20090610130509606/10/09 13:05:31  5-MIN KMSN 101905Z 00000KT 10SM FEW040 22/11 A2989 900 50 1900 000/00 RMK AO2
14837KMSN MSN20090610131009606/10/09 13:10:31  5-MIN KMSN 101910Z 04006KT 10SM FEW040 22/12 A2988 900 54 1900 040/06 RMK AO2
14837KMSN MSN20090610131509606/10/09 13:15:31  5-MIN KMSN 101915Z 00000KT 10SM FEW040 21/11 A2989 900 54 1800 000/00 RMK AO2
14837KMSN MSN20090610132009606/10/09 13:20:31  5-MIN KMSN 101920Z 06005KT 10SM FEW040 21/12 A2988 900 54 1900 060/05 RMK AO2
14837KMSN MSN20090610132509606/10/09 13:25:31  5-MIN KMSN 101925Z 06005KT 10SM FEW040 22/12 A2988 900 52 1900 060/05 RMK AO2
14837KMSN MSN20090610133009606/10/09 13:30:31  5-MIN KMSN 101930Z VRB04KT 10SM FEW040 22/12 A2988 900 54 1900 VRB/04 RMK AO2
14837KMSN MSN20090610133509606/10/09 13:35:31  5-MIN KMSN 101935Z VRB03KT 10SM FEW040 21/11 A2988 900 52 1900 VRB/03 RMK AO2
14837KMSN MSN20090610134009606/10/09 13:40:31  5-MIN KMSN 101940Z 03005KT 10SM FEW040 22/12 A2988 900 54 1900 030/05 RMK AO2
14837KMSN MSN20090610134509606/10/09 13:45:31  5-MIN KMSN 101945Z 35004KT 10SM FEW040 22/12 A2989 900 54 1900 350/04 RMK AO2
14837KMSN MSN20090610135011306/10/09 13:50:31  5-MIN KMSN 101950Z 06006KT 10SM FEW040 22/12 A2988 900 52 2000 060/06 RMK AO2 SLP117 T02220122
14837KMSN MSN20090610135509606/10/09 13:55:31  5-MIN KMSN 101955Z 07006KT 10SM FEW042 22/12 A2989 900 52 1900 060/06 RMK AO2
14837KMSN MSN20090610140009606/10/09 14:00:31  5-MIN KMSN 102000Z VRB05KT 10SM FEW042 21/11 A2988 900 52 1900 VRB/05 RMK AO2
14837KMSN MSN20090610140509606/10/09 14:05:31  5-MIN KMSN 102005Z VRB03KT 10SM FEW042 22/12 A2988 900 52 1900 VRB/03 RMK AO2
14837KMSN MSN20090610141009606/10/09 14:10:31  5-MIN KMSN 102010Z VRB05KT 10SM FEW042 23/12 A2988 900 51 2100 VRB/05 RMK AO2
14837KMSN MSN20090610141509606/10/09 14:15:31  5-MIN KMSN 102015Z 02006KT 10SM FEW042 22/12 A2988 900 52 2000 020/06 RMK AO2
14837KMSN MSN20090610142009606/10/09 14:20:31  5-MIN KMSN 102020Z 12006KT 10SM FEW042 22/12 A2988 900 51 2000 120/06 RMK AO2
14837KMSN MSN20090610142509606/10/09 14:25:31  5-MIN KMSN 102025Z VRB03KT 10SM FEW042 22/11 A2988 910 50 1900 VRB/03 RMK AO2
14837KMSN MSN20090610143009606/10/09 14:30:31  5-MIN KMSN 102030Z 01006KT 10SM FEW042 22/12 A2988 900 51 2000 010/06 RMK AO2
14837KMSN MSN20090610143509606/10/09 14:35:31  5-MIN KMSN 102035Z 35004KT 10SM FEW042 22/11 A2988 900 49 2000 350/04 RMK AO2
14837KMSN MSN20090610144009606/10/09 14:40:31  5-MIN KMSN 102040Z 03008KT 10SM FEW042 23/12 A2988 910 49 2100 030/08 RMK AO2
14837KMSN MSN20090610144509606/10/09 14:45:31  5-MIN KMSN 102045Z 04009KT 10SM FEW042 22/12 A2987 910 51 2000 030/09 RMK AO2
14837KMSN MSN20090610145011906/10/09 14:50:31  5-MIN KMSN 102050Z 04006KT 10SM FEW042 22/12 A2987 910 51 2000 040/06 RMK AO2 SLP113 T02220117 58020
14837KMSN MSN20090610145510306/10/09 14:55:31  5-MIN KMSN 102055Z 03006KT 10SM FEW043 SCT110 22/11 A2987 910 49 2000 030/06 RMK AO2
14837KMSN MSN20090610150010306/10/09 15:00:31  5-MIN KMSN 102100Z 02006KT 10SM FEW043 SCT110 22/12 A2987 910 51 2000 020/06 RMK AO2
14837KMSN MSN20090610150510306/10/09 15:05:31  5-MIN KMSN 102105Z 01008KT 10SM FEW043 SCT110 23/12 A2987 910 51 2100 010/08 RMK AO2
14837KMSN MSN20090610151010306/10/09 15:10:31  5-MIN KMSN 102110Z 03009KT 10SM FEW043 SCT110 22/12 A2987 910 51 2000 030/09 RMK AO2
14837KMSN MSN20090610151510306/10/09 15:15:31  5-MIN KMSN 102115Z 02004KT 10SM FEW043 SCT110 22/11 A2987 910 49 2000 020/04 RMK AO2
14837KMSN MSN20090610152010306/10/09 15:20:31  5-MIN KMSN 102120Z 07008KT 10SM FEW043 SCT110 22/12 A2988 900 51 2000 070/08 RMK AO2
14837KMSN MSN20090610152510306/10/09 15:25:31  5-MIN KMSN 102125Z 01007KT 10SM FEW043 SCT110 22/12 A2988 900 52 1900 010/07 RMK AO2
14837KMSN MSN20090610153010306/10/09 15:30:31  5-MIN KMSN 102130Z 04008KT 10SM FEW043 SCT110 22/11 A2987 910 50 1900 040/08 RMK AO2
14837KMSN MSN20090610153510306/10/09 15:35:31  5-MIN KMSN 102135Z 02005KT 10SM FEW043 SCT110 22/12 A2988 900 51 2000 010/05 RMK AO2
14837KMSN MSN20090610154009606/10/09 15:40:31  5-MIN KMSN 102140Z 02006KT 10SM FEW046 22/12 A2988 900 51 2000 020/06 RMK AO2
14837KMSN MSN20090610154509606/10/09 15:45:31  5-MIN KMSN 102145Z 06007KT 10SM FEW046 22/12 A2988 900 51 2000 060/07 RMK AO2
14837KMSN MSN20090610155011306/10/09 15:50:31  5-MIN KMSN 102150Z 06005KT 10SM SCT046 22/12 A2989 900 52 1900 060/05 RMK AO2 SLP119 T02170117
14837KMSN MSN20090610155509606/10/09 15:55:31  5-MIN KMSN 102155Z 06009KT 10SM FEW046 22/11 A2988 900 50 1900 060/09 RMK AO2
14837KMSN MSN20090610160009606/10/09 16:00:31  5-MIN KMSN 102200Z 04006KT 10SM FEW046 22/11 A2989 900 50 1900 040/06 RMK AO2
14837KMSN MSN20090610160509606/10/09 16:05:31  5-MIN KMSN 102205Z 08006KT 10SM SCT046 22/11 A2989 900 50 1900 080/06 RMK AO2
14837KMSN MSN20090610161009606/10/09 16:10:31  5-MIN KMSN 102210Z VRB03KT 10SM BKN048 21/11 A2988 900 52 1900 VRB/03 RMK AO2
14837KMSN MSN20090610161509606/10/09 16:15:31  5-MIN KMSN 102215Z 07005KT 10SM SCT048 22/11 A2988 900 49 1900 070/05 RMK AO2
14837KMSN MSN20090610162009606/10/09 16:20:31  5-MIN KMSN 102220Z 09004KT 10SM SCT048 22/12 A2987 910 52 1900 080/04 RMK AO2
14837KMSN MSN20090610162509606/10/09 16:25:31  5-MIN KMSN 102225Z VRB04KT 10SM SCT048 22/11 A2988 910 50 1900 VRB/04 RMK AO2
14837KMSN MSN20090610163009606/10/09 16:30:31  5-MIN KMSN 102230Z 09005KT 10SM SCT048 22/11 A2987 910 50 1900 090/05 RMK AO2
14837KMSN MSN20090610163509606/10/09 16:35:31  5-MIN KMSN 102235Z 06006KT 10SM SCT048 22/11 A2987 910 50 1900 060/06 RMK AO2
14837KMSN MSN20090610164009606/10/09 16:40:31  5-MIN KMSN 102240Z 05006KT 10SM FEW048 22/11 A2987 910 50 1900 050/06 RMK AO2
14837KMSN MSN20090610164509606/10/09 16:45:31  5-MIN KMSN 102245Z 03004KT 10SM FEW048 22/11 A2987 910 50 1900 030/04 RMK AO2
14837KMSN MSN20090610165011306/10/09 16:50:31  5-MIN KMSN 102250Z 07007KT 10SM FEW048 22/11 A2987 920 50 1900 070/07 RMK AO2 SLP112 T02170111
14837KMSN MSN20090610165509606/10/09 16:55:31  5-MIN KMSN 102255Z 07006KT 10SM FEW048 22/11 A2986 920 50 1900 070/06 RMK AO2
14837KMSN MSN20090610170009606/10/09 17:00:31  5-MIN KMSN 102300Z VRB03KT 10SM FEW048 22/11 A2986 920 50 1900 VRB/03 RMK AO2
14837KMSN MSN20090610170509606/10/09 17:05:31  5-MIN KMSN 102305Z 04004KT 10SM FEW048 22/11 A2986 920 50 1900 040/04 RMK AO2
14837KMSN MSN20090610171009606/10/09 17:10:31  5-MIN KMSN 102310Z 05004KT 10SM FEW048 22/11 A2986 920 50 1900 050/04 RMK AO2
14837KMSN MSN20090610171509606/10/09 17:15:31  5-MIN KMSN 102315Z 09004KT 10SM FEW048 22/11 A2986 920 50 1900 090/04 RMK AO2
14837KMSN MSN20090610172009606/10/09 17:20:31  5-MIN KMSN 102320Z 06007KT 10SM FEW048 22/12 A2986 920 52 1900 060/07 RMK AO2
14837KMSN MSN20090610172509606/10/09 17:25:31  5-MIN KMSN 102325Z 04005KT 10SM FEW048 22/11 A2986 920 49 1900 040/05 RMK AO2
14837KMSN MSN20090610173009606/10/09 17:30:31  5-MIN KMSN 102330Z 04005KT 10SM FEW048 22/11 A2986 920 50 1900 040/05 RMK AO2
14837KMSN MSN20090610173509606/10/09 17:35:31  5-MIN KMSN 102335Z 06006KT 10SM FEW048 22/11 A2987 910 50 1900 060/06 RMK AO2
14837KMSN MSN20090610174009606/10/09 17:40:31  5-MIN KMSN 102340Z 02004KT 10SM FEW048 22/12 A2987 920 52 1900 020/04 RMK AO2
14837KMSN MSN20090610174509606/10/09 17:45:31  5-MIN KMSN 102345Z 01004KT 10SM FEW048 21/11 A2987 910 52 1900 010/04 RMK AO2
14837KMSN MSN20090610175013106/10/09 17:50:31  5-MIN KMSN 102350Z 00000KT 10SM FEW050 21/11 A2987 910 54 1800 000/00 RMK AO2 SLP113 T02060111 10228 20200 58006
14837KMSN MSN20090610175510306/10/09 17:55:31  5-MIN KMSN 102355Z 04004KT 10SM FEW050 SCT060 21/12 A2987 910 56 1800 040/04 RMK AO2
14837KMSN MSN20090610180010306/10/09 18:00:31  5-MIN KMSN 110000Z 02004KT 10SM FEW050 SCT060 21/11 A2987 920 54 1800 020/04 RMK AO2
14837KMSN MSN20090610180510306/10/09 18:05:31  5-MIN KMSN 110005Z 01004KT 10SM FEW050 SCT060 20/11 A2987 910 56 1700 010/04 RMK AO2
14837KMSN MSN20090610181009606/10/09 18:10:31  5-MIN KMSN 110010Z 01005KT 10SM SCT060 20/12 A2987 910 58 1700 010/05 RMK AO2
14837KMSN MSN20090610181509606/10/09 18:15:31  5-MIN KMSN 110015Z 01005KT 10SM FEW060 20/12 A2987 920 58 1700 010/05 RMK AO2
14837KMSN MSN20090610182009606/10/09 18:20:31  5-MIN KMSN 110020Z 04005KT 10SM FEW060 20/12 A2987 920 58 1700 030/05 RMK AO2
14837KMSN MSN20090610182509606/10/09 18:25:31  5-MIN KMSN 110025Z 03005KT 10SM FEW060 20/11 A2986 920 54 1800 030/05 RMK AO2
14837KMSN MSN20090610183009606/10/09 18:30:31  5-MIN KMSN 110030Z 03005KT 10SM FEW060 20/11 A2986 920 54 1800 030/05 RMK AO2
14837KMSN MSN20090610183509606/10/09 18:35:31  5-MIN KMSN 110035Z 03005KT 10SM SCT060 20/11 A2986 920 54 1800 030/05 RMK AO2
14837KMSN MSN20090610184009606/10/09 18:40:31  5-MIN KMSN 110040Z 03005KT 10SM SCT060 19/11 A2986 920 56 1700 030/05 RMK AO2
14837KMSN MSN20090610184509606/10/09 18:45:31  5-MIN KMSN 110045Z 01005KT 10SM FEW060 19/11 A2986 920 60 1600 010/05 RMK AO2
14837KMSN MSN20090610185011306/10/09 18:50:31  5-MIN KMSN 110050Z 03005KT 10SM FEW060 19/11 A2985 930 60 1600 030/05 RMK AO2 SLP108 T01890111
14837KMSN MSN20090610185509606/10/09 18:55:31  5-MIN KMSN 110055Z 04005KT 10SM FEW060 19/11 A2985 930 58 1600 040/05 RMK AO2
14837KMSN MSN20090610190009606/10/09 19:00:31  5-MIN KMSN 110100Z 04005KT 10SM FEW060 19/11 A2985 930 58 1600 040/05 RMK AO2
14837KMSN MSN20090610190509606/10/09 19:05:31  5-MIN KMSN 110105Z 07004KT 10SM SCT080 19/11 A2986 920 58 1600 070/04 RMK AO2
14837KMSN MSN20090610191009606/10/09 19:10:31  5-MIN KMSN 110110Z 09005KT 10SM BKN080 18/11 A2986 920 62 1600 090/05 RMK AO2
14837KMSN MSN20090610191509606/10/09 19:15:31  5-MIN KMSN 110115Z 10009KT 10SM BKN080 19/11 A2986 920 60 1600 100/09 RMK AO2
14837KMSN MSN20090610192009606/10/09 19:20:31  5-MIN KMSN 110120Z 09008KT 10SM BKN080 19/11 A2986 920 60 1600 090/08 RMK AO2
14837KMSN MSN20090610192509606/10/09 19:25:31  5-MIN KMSN 110125Z 09008KT 10SM SCT080 19/11 A2986 920 58 1600 090/08 RMK AO2
14837KMSN MSN20090610193009606/10/09 19:30:31  5-MIN KMSN 110130Z 08008KT 10SM BKN080 18/11 A2986 920 62 1600 080/08 RMK AO2
14837KMSN MSN20090610193509606/10/09 19:35:31  5-MIN KMSN 110135Z 08008KT 10SM BKN075 18/11 A2985 930 60 1600 080/08 RMK AO2
14837KMSN MSN20090610194009606/10/09 19:40:31  5-MIN KMSN 110140Z 09007KT 10SM BKN075 18/11 A2986 920 64 1500 090/07 RMK AO2
14837KMSN MSN20090610194509606/10/09 19:45:31  5-MIN KMSN 110145Z 11007KT 10SM BKN080 18/11 A2986 920 62 1600 110/07 RMK AO2
14837KMSN MSN20090610195011306/10/09 19:50:31  5-MIN KMSN 110150Z 10008KT 10SM OVC080 18/11 A2986 920 64 1500 100/08 RMK AO2 SLP109 T01780111
14837KMSN MSN20090610195509606/10/09 19:55:31  5-MIN KMSN 110155Z 10006KT 10SM OVC080 18/11 A2986 920 62 1600 100/06 RMK AO2
14837KMSN MSN20090610200009606/10/09 20:00:31  5-MIN KMSN 110200Z 11006KT 10SM BKN080 18/11 A2986 920 62 1500 110/06 RMK AO2
14837KMSN MSN20090610200509606/10/09 20:05:31  5-MIN KMSN 110205Z 10007KT 10SM BKN080 18/11 A2986 920 62 1500 100/07 RMK AO2
14837KMSN MSN20090610201009606/10/09 20:10:31  5-MIN KMSN 110210Z 10007KT 10SM BKN080 18/11 A2986 920 62 1500 100/07 RMK AO2
14837KMSN MSN20090610201509606/10/09 20:15:31  5-MIN KMSN 110215Z 11007KT 10SM BKN080 18/11 A2987 910 62 1500 110/07 RMK AO2
14837KMSN MSN20090610202009606/10/09 20:20:31  5-MIN KMSN 110220Z 11006KT 10SM BKN080 17/11 A2987 910 64 1400 100/06 RMK AO2
14837KMSN MSN20090610202509606/10/09 20:25:31  5-MIN KMSN 110225Z 10005KT 10SM BKN080 18/11 A2988 910 62 1500 100/05 RMK AO2
14837KMSN MSN20090610203009606/10/09 20:30:31  5-MIN KMSN 110230Z 12006KT 10SM BKN080 18/11 A2988 910 62 1500 120/06 RMK AO2
14837KMSN MSN20090610203509606/10/09 20:35:31  5-MIN KMSN 110235Z 11005KT 10SM BKN080 18/10 A2987 910 60 1500 110/05 RMK AO2
14837KMSN MSN20090610204009606/10/09 20:40:31  5-MIN KMSN 110240Z 10005KT 10SM BKN080 17/10 A2987 910 62 1400 100/05 RMK AO2
14837KMSN MSN20090610204509606/10/09 20:45:31  5-MIN KMSN 110245Z 10004KT 10SM OVC080 17/10 A2987 910 62 1400 100/04 RMK AO2
14837KMSN MSN20090610205011906/10/09 20:50:31  5-MIN KMSN 110250Z 09003KT 10SM OVC080 17/10 A2987 910 62 1400 080/03 RMK AO2 SLP114 T01720100 58001
14837KMSN MSN20090610205509606/10/09 20:55:31  5-MIN KMSN 110255Z 08004KT 10SM OVC080 17/11 A2987 910 64 1400 080/04 RMK AO2
14837KMSN MSN20090610210009606/10/09 21:00:31  5-MIN KMSN 110300Z 09005KT 10SM OVC080 17/11 A2988 900 64 1400 090/05 RMK AO2
14837KMSN MSN20090610210509606/10/09 21:05:31  5-MIN KMSN 110305Z 10005KT 10SM OVC080 17/10 A2988 900 62 1400 100/05 RMK AO2
14837KMSN MSN20090610211009606/10/09 21:10:31  5-MIN KMSN 110310Z 10005KT 10SM OVC080 17/10 A2987 910 62 1400 090/05 RMK AO2
14837KMSN MSN20090610211509606/10/09 21:15:31  5-MIN KMSN 110315Z 09005KT 10SM OVC080 17/10 A2987 910 62 1400 090/05 RMK AO2
14837KMSN MSN20090610212009606/10/09 21:20:31  5-MIN KMSN 110320Z 08005KT 10SM OVC080 17/10 A2987 910 62 1400 080/05 RMK AO2
14837KMSN MSN20090610212509606/10/09 21:25:31  5-MIN KMSN 110325Z 06004KT 10SM OVC080 17/10 A2986 920 64 1400 060/04 RMK AO2
14837KMSN MSN20090610213009606/10/09 21:30:31  5-MIN KMSN 110330Z 06005KT 10SM OVC080 17/10 A2987 910 64 1400 060/05 RMK AO2
14837KMSN MSN20090610213509606/10/09 21:35:31  5-MIN KMSN 110335Z 07004KT 10SM OVC080 17/10 A2986 920 64 1400 070/04 RMK AO2
14837KMSN MSN20090610214009606/10/09 21:40:31  5-MIN KMSN 110340Z 08004KT 10SM OVC080 17/10 A2987 910 64 1400 070/04 RMK AO2
14837KMSN MSN20090610214509606/10/09 21:45:31  5-MIN KMSN 110345Z 07003KT 10SM OVC080 17/10 A2987 910 64 1400 070/03 RMK AO2
14837KMSN MSN20090610215011306/10/09 21:50:31  5-MIN KMSN 110350Z 07003KT 10SM OVC080 17/10 A2987 910 64 1400 070/03 RMK AO2 SLP113 T01670100
14837KMSN MSN20090610215509606/10/09 21:55:31  5-MIN KMSN 110355Z 07003KT 10SM OVC080 17/09 A2987 910 62 1400 070/03 RMK AO2
14837KMSN MSN20090610220009606/10/09 22:00:31  5-MIN KMSN 110400Z 06003KT 10SM OVC080 17/09 A2988 900 62 1400 060/03 RMK AO2
14837KMSN MSN20090610220509606/10/09 22:05:31  5-MIN KMSN 110405Z 08004KT 10SM OVC080 17/09 A2988 900 62 1300 080/04 RMK AO2
14837KMSN MSN20090610221009606/10/09 22:10:31  5-MIN KMSN 110410Z 08004KT 10SM OVC080 17/09 A2988 900 62 1400 080/04 RMK AO2
14837KMSN MSN20090610221509606/10/09 22:15:31  5-MIN KMSN 110415Z 09004KT 10SM OVC080 17/09 A2988 900 62 1300 090/04 RMK AO2
14837KMSN MSN20090610222009606/10/09 22:20:31  5-MIN KMSN 110420Z 08004KT 10SM OVC080 17/09 A2988 900 62 1300 070/04 RMK AO2
14837KMSN MSN20090610222509606/10/09 22:25:31  5-MIN KMSN 110425Z 07005KT 10SM OVC080 17/09 A2988 910 60 1400 060/05 RMK AO2
14837KMSN MSN20090610223009606/10/09 22:30:31  5-MIN KMSN 110430Z 06004KT 10SM OVC080 16/09 A2988 900 64 1300 060/04 RMK AO2
14837KMSN MSN20090610223509606/10/09 22:35:31  5-MIN KMSN 110435Z 07004KT 10SM OVC080 16/09 A2988 900 64 1300 070/04 RMK AO2
14837KMSN MSN20090610224009606/10/09 22:40:31  5-MIN KMSN 110440Z 06004KT 10SM OVC080 16/09 A2988 900 64 1300 060/04 RMK AO2
14837KMSN MSN20090610224509606/10/09 22:45:31  5-MIN KMSN 110445Z 05004KT 10SM OVC080 16/09 A2987 910 64 1300 050/04 RMK AO2
14837KMSN MSN20090610225011306/10/09 22:50:31  5-MIN KMSN 110450Z 07005KT 10SM OVC080 16/09 A2987 910 64 1300 070/05 RMK AO2 SLP112 T01610094
14837KMSN MSN20090610225509606/10/09 22:55:31  5-MIN KMSN 110455Z 08005KT 10SM OVC080 16/09 A2987 910 64 1300 080/05 RMK AO2
14837KMSN MSN20090610230009606/10/09 23:00:31  5-MIN KMSN 110500Z 08004KT 10SM OVC080 16/10 A2987 910 67 1300 080/04 RMK AO2
14837KMSN MSN20090610230509606/10/09 23:05:31  5-MIN KMSN 110505Z 07005KT 10SM OVC085 16/10 A2987 910 67 1300 070/05 RMK AO2
14837KMSN MSN20090610231009606/10/09 23:10:31  5-MIN KMSN 110510Z 08005KT 10SM OVC085 16/09 A2987 910 64 1300 080/05 RMK AO2
14837KMSN MSN20090610231509606/10/09 23:15:31  5-MIN KMSN 110515Z 10006KT 10SM OVC085 16/09 A2987 910 64 1300 100/06 RMK AO2
14837KMSN MSN20090610232009606/10/09 23:20:31  5-MIN KMSN 110520Z 11006KT 10SM OVC090 16/09 A2987 910 64 1300 110/06 RMK AO2
14837KMSN MSN20090610232509606/10/09 23:25:31  5-MIN KMSN 110525Z 11007KT 10SM OVC090 16/09 A2987 910 64 1300 110/07 RMK AO2
14837KMSN MSN20090610233009606/10/09 23:30:31  5-MIN KMSN 110530Z 11007KT 10SM OVC090 16/09 A2987 910 64 1300 110/07 RMK AO2
14837KMSN MSN20090610233509606/10/09 23:35:31  5-MIN KMSN 110535Z 11005KT 10SM OVC090 16/09 A2987 910 64 1300 110/05 RMK AO2
14837KMSN MSN20090610234009606/10/09 23:40:31  5-MIN KMSN 110540Z 00000KT 10SM OVC090 16/09 A2988 910 64 1300 000/00 RMK AO2
14837KMSN MSN20090610234509606/10/09 23:45:31  5-MIN KMSN 110545Z 00000KT 10SM OVC090 17/09 A2988 910 60 1400 000/00 RMK AO2
14837KMSN MSN20090610235014106/10/09 23:50:31  5-MIN KMSN 110550Z 00000KT 10SM OVC090 16/09 A2987 910 64 1300 000/00 RMK AO2 SLP113 T01610094 10206 20161 402280117 53002
14837KMSN MSN20090610235509606/10/09 23:55:31  5-MIN KMSN 110555Z 34004KT 10SM OVC090 16/09 A2987 910 67 1200 340/04 RMK AO2
14837KMSN MSN20090611000009606/11/09 00:00:32  5-MIN KMSN 110600Z 33004KT 10SM OVC095 15/09 A2987 910 69 1200 330/04 RMK AO2
14837KMSN MSN20090611000509606/11/09 00:05:31  5-MIN KMSN 110605Z 32003KT 10SM OVC095 16/09 A2987 910 67 1200 320/03 RMK AO2
14837KMSN MSN20090611001009606/11/09 00:10:31  5-MIN KMSN 110610Z 00000KT 10SM OVC095 15/09 A2987 910 69 1200 000/00 RMK AO2
14837KMSN MSN20090611001509606/11/09 00:15:31  5-MIN KMSN 110615Z 00000KT 10SM BKN100 14/09 A2987 910 72 1100 000/00 RMK AO2
14837KMSN MSN20090611002009606/11/09 00:20:31  5-MIN KMSN 110620Z 32003KT 10SM BKN100 15/09 A2987 910 66 1200 320/03 RMK AO2
14837KMSN MSN20090611002509606/11/09 00:25:31  5-MIN KMSN 110625Z 00000KT 10SM OVC100 15/09 A2986 920 69 1200 000/00 RMK AO2
14837KMSN MSN20090611003009606/11/09 00:30:31  5-MIN KMSN 110630Z 00000KT 10SM BKN100 14/09 A2986 920 72 1100 000/00 RMK AO2
14837KMSN MSN20090611003509606/11/09 00:35:31  5-MIN KMSN 110635Z 00000KT 10SM BKN100 15/09 A2986 920 69 1200 000/00 RMK AO2
14837KMSN MSN20090611004009606/11/09 00:40:31  5-MIN KMSN 110640Z 00000KT 10SM SCT100 15/09 A2986 920 69 1200 000/00 RMK AO2
14837KMSN MSN20090611004509606/11/09 00:45:31  5-MIN KMSN 110645Z 00000KT 10SM SCT100 14/10 A2986 920 74 1100 000/00 RMK AO2
14837KMSN MSN20090611005011306/11/09 00:50:31  5-MIN KMSN 110650Z 00000KT 10SM FEW100 14/10 A2986 920 74 1100 000/00 RMK AO2 SLP107 T01440100
14837KMSN MSN20090611005509606/11/09 00:55:31  5-MIN KMSN 110655Z 00000KT 10SM FEW100 15/10 A2985 930 72 1200 000/00 RMK AO2
14837KMSN MSN20090611010009306/11/09 01:00:31  5-MIN KMSN 110700Z 00000KT 10SM CLR 14/09 A2985 930 72 1100 000/00 RMK AO2
14837KMSN MSN20090611010509306/11/09 01:05:31  5-MIN KMSN 110705Z 00000KT 10SM CLR 13/09 A2984 940 77 1000 000/00 RMK AO2
14837KMSN MSN20090611011009306/11/09 01:10:31  5-MIN KMSN 110710Z 34003KT 10SM CLR 13/10 A2984 940 80 1000 340/03 RMK AO2
14837KMSN MSN20090611011509306/11/09 01:15:31  5-MIN KMSN 110715Z 35003KT 10SM CLR 13/10 A2984 940 80 1000 350/03 RMK AO2
14837KMSN MSN20090611012009306/11/09 01:20:31  5-MIN KMSN 110720Z 00000KT 10SM CLR 13/10 A2984 930 80 1000 000/00 RMK AO2
14837KMSN MSN20090611012509306/11/09 01:25:31  5-MIN KMSN 110725Z 35003KT 10SM CLR 13/10 A2984 930 80 1000 340/03 RMK AO2
14837KMSN MSN20090611013009306/11/09 01:30:31  5-MIN KMSN 110730Z 36003KT 10SM CLR 14/10 A2984 940 77 1100 360/03 RMK AO2
14837KMSN MSN20090611013509306/11/09 01:35:31  5-MIN KMSN 110735Z 36005KT 10SM CLR 13/10 A2984 940 80 1000 360/05 RMK AO2
14837KMSN MSN20090611014009206/11/09 01:40:31  5-MIN KMSN 110740Z 36005KT 10SM CLR 13/10 A2984 940 83 900 360/05 RMK AO2
14837KMSN MSN20090611014509206/11/09 01:45:31  5-MIN KMSN 110745Z 01004KT 10SM CLR 13/10 A2983 950 83 900 010/04 RMK AO2
14837KMSN MSN20090611015010906/11/09 01:50:31  5-MIN KMSN 110750Z 02004KT 10SM CLR 13/10 A2983 950 83 900 020/04 RMK AO2 SLP098 T01280100
14837KMSN MSN20090611015509206/11/09 01:55:31  5-MIN KMSN 110755Z 01004KT 10SM CLR 13/10 A2983 950 83 900 010/04 RMK AO2
14837KMSN MSN20090611020009206/11/09 02:00:31  5-MIN KMSN 110800Z 02003KT 10SM CLR 13/09 A2983 950 80 900 020/03 RMK AO2
14837KMSN MSN20090611020509306/11/09 02:05:31  5-MIN KMSN 110805Z 01004KT 10SM CLR 13/09 A2983 950 77 1000 010/04 RMK AO2
14837KMSN MSN20090611021009306/11/09 02:10:31  5-MIN KMSN 110810Z 36004KT 10SM CLR 13/09 A2983 950 77 1000 360/04 RMK AO2
14837KMSN MSN20090611021509306/11/09 02:15:31  5-MIN KMSN 110815Z 36005KT 10SM CLR 13/09 A2983 950 77 1000 360/05 RMK AO2
14837KMSN MSN20090611022009306/11/09 02:20:31  5-MIN KMSN 110820Z 01005KT 10SM CLR 13/09 A2983 950 77 1000 010/05 RMK AO2
14837KMSN MSN20090611022509206/11/09 02:25:31  5-MIN KMSN 110825Z 02004KT 10SM CLR 13/09 A2983 950 80 900 020/04 RMK AO2
14837KMSN MSN20090611023009306/11/09 02:30:31  5-MIN KMSN 110830Z 02004KT 10SM CLR 13/09 A2983 950 80 1000 020/04 RMK AO2
14837KMSN MSN20090611023509206/11/09 02:35:31  5-MIN KMSN 110835Z 01003KT 10SM CLR 13/09 A2983 950 80 900 010/03 RMK AO2
14837KMSN MSN20090611024009206/11/09 02:40:31  5-MIN KMSN 110840Z 36003KT 10SM CLR 13/09 A2983 950 80 900 360/03 RMK AO2
14837KMSN MSN20090611024509206/11/09 02:45:31  5-MIN KMSN 110845Z 36003KT 10SM CLR 13/09 A2983 950 80 900 350/03 RMK AO2
14837KMSN MSN20090611025011506/11/09 02:50:31  5-MIN KMSN 110850Z 36005KT 10SM CLR 13/09 A2983 950 80 900 360/05 RMK AO2 SLP099 T01280094 58002
14837KMSN MSN20090611025509206/11/09 02:55:31  5-MIN KMSN 110855Z 35005KT 10SM CLR 13/09 A2983 950 80 900 350/05 RMK AO2
14837KMSN MSN20090611030009206/11/09 03:00:31  5-MIN KMSN 110900Z 36005KT 10SM CLR 13/09 A2983 950 80 900 360/05 RMK AO2
14837KMSN MSN20090611030509206/11/09 03:05:31  5-MIN KMSN 110905Z 36004KT 10SM CLR 13/09 A2983 950 80 900 360/04 RMK AO2
14837KMSN MSN20090611031009206/11/09 03:10:31  5-MIN KMSN 110910Z 36003KT 10SM CLR 13/09 A2983 940 80 900 360/03 RMK AO2
14837KMSN MSN20090611031509206/11/09 03:15:31  5-MIN KMSN 110915Z 02003KT 10SM CLR 13/09 A2984 940 80 900 020/03 RMK AO2
14837KMSN MSN20090611032009206/11/09 03:20:31  5-MIN KMSN 110920Z 05003KT 10SM CLR 13/09 A2984 940 80 900 050/03 RMK AO2
14837KMSN MSN20090611032509206/11/09 03:25:31  5-MIN KMSN 110925Z 05004KT 10SM CLR 13/09 A2984 940 80 900 050/04 RMK AO2
14837KMSN MSN20090611033009206/11/09 03:30:31  5-MIN KMSN 110930Z 05003KT 10SM CLR 13/09 A2984 940 80 900 050/03 RMK AO2
14837KMSN MSN20090611033509206/11/09 03:35:31  5-MIN KMSN 110935Z 04003KT 10SM CLR 13/09 A2984 940 80 900 040/03 RMK AO2
14837KMSN MSN20090611034009206/11/09 03:40:31  5-MIN KMSN 110940Z 05004KT 10SM CLR 13/09 A2984 940 80 900 050/04 RMK AO2
14837KMSN MSN20090611034509206/11/09 03:45:31  5-MIN KMSN 110945Z 04003KT 10SM CLR 13/09 A2985 930 77 900 040/03 RMK AO2
14837KMSN MSN20090611035010906/11/09 03:50:31  5-MIN KMSN 110950Z 02003KT 10SM CLR 13/09 A2985 930 77 900 020/03 RMK AO2 SLP105 T01280089
14837KMSN MSN20090611035509206/11/09 03:55:31  5-MIN KMSN 110955Z 03004KT 10SM CLR 12/09 A2984 930 80 900 030/04 RMK AO2
14837KMSN MSN20090611040009206/11/09 04:00:31  5-MIN KMSN 111000Z 03004KT 10SM CLR 12/09 A2984 930 80 900 030/04 RMK AO2
14837KMSN MSN20090611040509206/11/09 04:05:31  5-MIN KMSN 111005Z 03004KT 10SM CLR 12/09 A2984 930 83 900 030/04 RMK AO2
14837KMSN MSN20090611041009206/11/09 04:10:31  5-MIN KMSN 111010Z 01003KT 10SM CLR 13/09 A2985 930 80 900 010/03 RMK AO2
14837KMSN MSN20090611041509206/11/09 04:15:31  5-MIN KMSN 111015Z 01003KT 10SM CLR 13/09 A2985 930 80 900 010/03 RMK AO2
14837KMSN MSN20090611042009206/11/09 04:20:31  5-MIN KMSN 111020Z 36003KT 10SM CLR 12/09 A2985 930 83 900 360/03 RMK AO2
14837KMSN MSN20090611042509206/11/09 04:25:31  5-MIN KMSN 111025Z 01003KT 10SM CLR 12/09 A2985 930 83 900 010/03 RMK AO2
14837KMSN MSN20090611043009206/11/09 04:30:31  5-MIN KMSN 111030Z 01003KT 10SM CLR 12/09 A2985 930 83 900 010/03 RMK AO2
14837KMSN MSN20090611043509206/11/09 04:35:31  5-MIN KMSN 111035Z 03003KT 10SM CLR 12/09 A2985 930 83 900 020/03 RMK AO2
14837KMSN MSN20090611044009206/11/09 04:40:31  5-MIN KMSN 111040Z 04005KT 10SM CLR 12/09 A2985 930 83 900 030/05 RMK AO2
14837KMSN MSN20090611044509206/11/09 04:45:31  5-MIN KMSN 111045Z 04005KT 10SM CLR 13/09 A2985 930 80 900 030/05 RMK AO2
14837KMSN MSN20090611045010906/11/09 04:50:31  5-MIN KMSN 111050Z 03004KT 10SM CLR 13/09 A2985 930 80 900 030/04 RMK AO2 SLP106 T01280094
14837KMSN MSN20090611045509206/11/09 04:55:31  5-MIN KMSN 111055Z 03006KT 10SM CLR 13/09 A2985 930 80 900 030/06 RMK AO2
14837KMSN MSN20090611050009206/11/09 05:00:31  5-MIN KMSN 111100Z 03006KT 10SM CLR 13/09 A2985 930 80 900 030/06 RMK AO2
14837KMSN MSN20090611050509206/11/09 05:05:31  5-MIN KMSN 111105Z 02006KT 10SM CLR 13/09 A2985 930 80 900 020/06 RMK AO2
14837KMSN MSN20090611051009206/11/09 05:10:31  5-MIN KMSN 111110Z 02005KT 10SM CLR 13/09 A2985 930 80 900 020/05 RMK AO2
14837KMSN MSN20090611051509206/11/09 05:15:31  5-MIN KMSN 111115Z 01007KT 10SM CLR 13/09 A2985 930 80 900 010/07 RMK AO2
14837KMSN MSN20090611052009206/11/09 05:20:31  5-MIN KMSN 111120Z 02007KT 10SM CLR 13/09 A2985 930 80 900 020/07 RMK AO2
14837KMSN MSN20090611052509206/11/09 05:25:31  5-MIN KMSN 111125Z 03007KT 10SM CLR 13/09 A2985 930 80 900 030/07 RMK AO2
14837KMSN MSN20090611053009306/11/09 05:30:31  5-MIN KMSN 111130Z 03008KT 10SM CLR 13/09 A2985 930 74 1000 030/08 RMK AO2
14837KMSN MSN20090611053509306/11/09 05:35:31  5-MIN KMSN 111135Z 03008KT 10SM CLR 13/09 A2985 930 74 1000 030/08 RMK AO2
14837KMSN MSN20090611054009306/11/09 05:40:31  5-MIN KMSN 111140Z 04006KT 10SM CLR 13/09 A2985 930 74 1000 040/06 RMK AO2
14837KMSN MSN20090611054509306/11/09 05:45:31  5-MIN KMSN 111145Z 04006KT 10SM CLR 13/09 A2985 930 74 1000 040/06 RMK AO2
14837KMSN MSN20090611055012806/11/09 05:50:31  5-MIN KMSN 111150Z 04006KT 10SM CLR 13/09 A2985 930 74 1000 030/06 RMK AO2 SLP106 T01330089 10156 20122 55012
14837KMSN MSN20090611055509306/11/09 05:55:31  5-MIN KMSN 111155Z 04005KT 10SM CLR 13/09 A2985 930 74 1000 030/05 RMK AO2
14837KMSN MSN20090611060009306/11/09 06:00:31  5-MIN KMSN 111200Z 04007KT 10SM CLR 14/09 A2985 930 71 1100 040/07 RMK AO2
14837KMSN MSN20090611060509306/11/09 06:05:31  5-MIN KMSN 111205Z 04006KT 10SM CLR 14/09 A2985 930 71 1100 030/06 RMK AO2
14837KMSN MSN20090611061009306/11/09 06:10:31  5-MIN KMSN 111210Z 02007KT 10SM CLR 14/08 A2986 920 69 1000 020/07 RMK AO2
14837KMSN MSN20090611061509306/11/09 06:15:31  5-MIN KMSN 111215Z 02007KT 10SM CLR 14/09 A2986 920 71 1000 020/07 RMK AO2
14837KMSN MSN20090611062009306/11/09 06:20:31  5-MIN KMSN 111220Z 03008KT 10SM CLR 14/08 A2986 920 69 1000 030/08 RMK AO2
14837KMSN MSN20090611062509306/11/09 06:25:31  5-MIN KMSN 111225Z 03007KT 10SM CLR 14/08 A2985 930 69 1100 030/07 RMK AO2
14837KMSN MSN20090611063009306/11/09 06:30:31  5-MIN KMSN 111230Z 04007KT 10SM CLR 14/08 A2986 920 69 1000 040/07 RMK AO2
14837KMSN MSN20090611063509306/11/09 06:35:31  5-MIN KMSN 111235Z 03008KT 10SM CLR 14/08 A2986 920 69 1000 030/08 RMK AO2
14837KMSN MSN20090611064009306/11/09 06:40:31  5-MIN KMSN 111240Z 02007KT 10SM CLR 14/08 A2986 920 66 1100 020/07 RMK AO2
14837KMSN MSN20090611064509306/11/09 06:45:31  5-MIN KMSN 111245Z 02007KT 10SM CLR 14/08 A2986 920 66 1100 020/07 RMK AO2
14837KMSN MSN20090611065011006/11/09 06:50:31  5-MIN KMSN 111250Z 02008KT 10SM CLR 14/09 A2986 920 69 1100 020/08 RMK AO2 SLP110 T01440089
14837KMSN MSN20090611065509306/11/09 06:55:31  5-MIN KMSN 111255Z 03008KT 10SM CLR 14/08 A2986 920 66 1100 030/08 RMK AO2
14837KMSN MSN20090611070009306/11/09 07:00:31  5-MIN KMSN 111300Z 02009KT 10SM CLR 14/09 A2986 920 69 1100 020/09 RMK AO2
14837KMSN MSN20090611070509306/11/09 07:05:31  5-MIN KMSN 111305Z 02009KT 10SM CLR 14/08 A2986 920 66 1100 020/09 RMK AO2
14837KMSN MSN20090611071009306/11/09 07:10:31  5-MIN KMSN 111310Z 03009KT 10SM CLR 15/09 A2986 920 66 1200 030/09 RMK AO2
14837KMSN MSN20090611071509306/11/09 07:15:31  5-MIN KMSN 111315Z 03008KT 10SM CLR 15/09 A2986 920 66 1200 020/08 RMK AO2
14837KMSN MSN20090611072009306/11/09 07:20:31  5-MIN KMSN 111320Z 02009KT 10SM CLR 16/09 A2986 920 64 1200 020/09 RMK AO2
14837KMSN MSN20090611072509306/11/09 07:25:31  5-MIN KMSN 111325Z 02009KT 10SM CLR 15/08 A2986 920 64 1200 020/09 RMK AO2
14837KMSN MSN20090611073009306/11/09 07:30:31  5-MIN KMSN 111330Z 02010KT 10SM CLR 15/08 A2986 920 64 1200 020/10 RMK AO2
14837KMSN MSN20090611073509306/11/09 07:35:31  5-MIN KMSN 111335Z 03010KT 10SM CLR 16/08 A2986 920 62 1200 030/10 RMK AO2
14837KMSN MSN20090611074009306/11/09 07:40:31  5-MIN KMSN 111340Z 03009KT 10SM CLR 16/08 A2986 920 62 1200 030/09 RMK AO2
14837KMSN MSN20090611074509306/11/09 07:45:31  5-MIN KMSN 111345Z 03009KT 10SM CLR 16/08 A2986 920 62 1200 030/09 RMK AO2
14837KMSN MSN20090611075011006/11/09 07:50:31  5-MIN KMSN 111350Z 03008KT 10SM CLR 16/09 A2986 920 64 1200 030/08 RMK AO2 SLP109 T01560089
14837KMSN MSN20090611075509306/11/09 07:55:31  5-MIN KMSN 111355Z 03008KT 10SM CLR 16/08 A2985 930 62 1200 030/08 RMK AO2
14837KMSN MSN20090611080009306/11/09 08:00:31  5-MIN KMSN 111400Z 03008KT 10SM CLR 16/08 A2985 930 62 1200 030/08 RMK AO2
14837KMSN MSN20090611080509306/11/09 08:05:31  5-MIN KMSN 111405Z 02009KT 10SM CLR 16/09 A2986 920 62 1300 020/09 RMK AO2
14837KMSN MSN20090611081009306/11/09 08:10:31  5-MIN KMSN 111410Z 03009KT 10SM CLR 16/09 A2986 920 62 1300 030/09 RMK AO2
14837KMSN MSN20090611081509306/11/09 08:15:31  5-MIN KMSN 111415Z 02007KT 10SM CLR 16/09 A2986 920 62 1300 020/07 RMK AO2
14837KMSN MSN20090611082009306/11/09 08:20:31  5-MIN KMSN 111420Z 02008KT 10SM CLR 17/09 A2986 920 62 1400 020/08 RMK AO2
14837KMSN MSN20090611082509306/11/09 08:25:31  5-MIN KMSN 111425Z 03011KT 10SM CLR 17/09 A2986 920 60 1400 020/11 RMK AO2
14837KMSN MSN20090611083009306/11/09 08:30:31  5-MIN KMSN 111430Z 03009KT 10SM CLR 17/09 A2985 930 60 1400 030/09 RMK AO2
14837KMSN MSN20090611083509306/11/09 08:35:31  5-MIN KMSN 111435Z 03009KT 10SM CLR 17/09 A2985 920 60 1400 030/09 RMK AO2
14837KMSN MSN20090611084009306/11/09 08:40:31  5-MIN KMSN 111440Z 02007KT 10SM CLR 17/09 A2986 920 57 1400 020/07 RMK AO2
14837KMSN MSN20090611084509306/11/09 08:45:31  5-MIN KMSN 111445Z 02010KT 10SM CLR 17/09 A2986 920 60 1400 020/10 RMK AO2
14837KMSN MSN20090611085011606/11/09 08:50:31  5-MIN KMSN 111450Z 03010KT 10SM CLR 17/08 A2985 930 57 1400 030/10 RMK AO2 SLP107 T01670083 51005
14837KMSN MSN20090611085509306/11/09 08:55:31  5-MIN KMSN 111455Z 03011KT 10SM CLR 17/08 A2985 930 57 1400 020/11 RMK AO2
14837KMSN MSN20090611090009306/11/09 09:00:31  5-MIN KMSN 111500Z 03010KT 10SM CLR 17/08 A2985 930 57 1400 030/10 RMK AO2
14837KMSN MSN20090611090509306/11/09 09:05:31  5-MIN KMSN 111505Z 03007KT 10SM CLR 17/09 A2985 930 57 1500 030/07 RMK AO2
14837KMSN MSN20090611091009306/11/09 09:10:31  5-MIN KMSN 111510Z 03008KT 10SM CLR 17/09 A2984 930 57 1500 030/08 RMK AO2
14837KMSN MSN20090611091509306/11/09 09:15:31  5-MIN KMSN 111515Z 04007KT 10SM CLR 18/09 A2984 930 55 1500 040/07 RMK AO2
14837KMSN MSN20090611092009306/11/09 09:20:31  5-MIN KMSN 111520Z 04009KT 10SM CLR 18/09 A2985 930 55 1500 040/09 RMK AO2
14837KMSN MSN20090611092509306/11/09 09:25:31  5-MIN KMSN 111525Z 03009KT 10SM CLR 18/09 A2985 930 55 1500 030/09 RMK AO2
14837KMSN MSN20090611093009306/11/09 09:30:31  5-MIN KMSN 111530Z 02009KT 10SM CLR 18/09 A2985 930 54 1600 020/09 RMK AO2
14837KMSN MSN20090611093509306/11/09 09:35:31  5-MIN KMSN 111535Z 03011KT 10SM CLR 18/09 A2985 930 56 1600 030/11 RMK AO2
14837KMSN MSN20090611094009306/11/09 09:40:31  5-MIN KMSN 111540Z 02010KT 10SM CLR 18/09 A2985 930 56 1600 020/10 RMK AO2
14837KMSN MSN20090611094509906/11/09 09:45:31  5-MIN KMSN 111545Z 02011G15KT 10SM CLR 18/09 A2984 940 56 1600 020/11G15 RMK AO2
14837KMSN MSN20090611095011006/11/09 09:50:31  5-MIN KMSN 111550Z 03010KT 10SM CLR 19/09 A2984 940 54 1600 030/10 RMK AO2 SLP103 T01890094
14837KMSN MSN20090611095509306/11/09 09:55:31  5-MIN KMSN 111555Z 04009KT 10SM CLR 19/09 A2984 930 54 1600 030/09 RMK AO2
14837KMSN MSN20090611100009306/11/09 10:00:31  5-MIN KMSN 111600Z 03008KT 10SM CLR 19/10 A2985 930 56 1600 030/08 RMK AO2
14837KMSN MSN20090611100509306/11/09 10:05:31  5-MIN KMSN 111605Z 02012KT 10SM CLR 19/10 A2985 930 56 1600 020/12 RMK AO2
14837KMSN MSN20090611101009306/11/09 10:10:31  5-MIN KMSN 111610Z 02012KT 10SM CLR 19/09 A2985 930 54 1600 020/12 RMK AO2
14837KMSN MSN20090611101509306/11/09 10:15:31  5-MIN KMSN 111615Z 02013KT 10SM CLR 19/10 A2985 930 56 1600 020/13 RMK AO2
14837KMSN MSN20090611102009306/11/09 10:20:31  5-MIN KMSN 111620Z 04010KT 10SM CLR 19/10 A2985 930 56 1600 040/10 RMK AO2
14837KMSN MSN20090611102509306/11/09 10:25:31  5-MIN KMSN 111625Z 04010KT 10SM CLR 19/10 A2985 930 56 1600 040/10 RMK AO2
14837KMSN MSN20090611103009306/11/09 10:30:31  5-MIN KMSN 111630Z 04010KT 10SM CLR 19/10 A2985 930 56 1600 040/10 RMK AO2
14837KMSN MSN20090611103509306/11/09 10:35:31  5-MIN KMSN 111635Z 03010KT 10SM CLR 19/11 A2985 930 56 1700 030/10 RMK AO2
14837KMSN MSN20090611104009306/11/09 10:40:31  5-MIN KMSN 111640Z 04009KT 10SM CLR 20/11 A2985 930 54 1800 030/09 RMK AO2
14837KMSN MSN20090611104509306/11/09 10:45:31  5-MIN KMSN 111645Z 02013KT 10SM CLR 20/11 A2985 930 54 1800 020/13 RMK AO2
14837KMSN MSN20090611105011006/11/09 10:50:31  5-MIN KMSN 111650Z 03009KT 10SM CLR 20/10 A2985 930 52 1800 030/09 RMK AO2 SLP105 T02000100
14837KMSN MSN20090611105509306/11/09 10:55:31  5-MIN KMSN 111655Z 05012KT 10SM CLR 20/11 A2985 930 54 1800 050/12 RMK AO2
14837KMSN MSN20090611110009306/11/09 11:00:31  5-MIN KMSN 111700Z 04010KT 10SM CLR 21/11 A2985 930 52 1800 040/10 RMK AO2
14837KMSN MSN20090611110509306/11/09 11:05:31  5-MIN KMSN 111705Z 05011KT 10SM CLR 21/11 A2985 930 52 1800 050/11 RMK AO2
14837KMSN MSN20090611111009306/11/09 11:10:31  5-MIN KMSN 111710Z 05009KT 10SM CLR 21/11 A2985 930 52 1800 050/09 RMK AO2
14837KMSN MSN20090611111509306/11/09 11:15:31  5-MIN KMSN 111715Z 03011KT 10SM CLR 21/10 A2985 930 50 1800 030/11 RMK AO2
14837KMSN MSN20090611112009306/11/09 11:20:31  5-MIN KMSN 111720Z 02011KT 10SM CLR 21/11 A2985 930 52 1900 020/11 RMK AO2
14837KMSN MSN20090611112509306/11/09 11:25:31  5-MIN KMSN 111725Z 02012KT 10SM CLR 21/11 A2985 930 52 1900 020/12 RMK AO2
14837KMSN MSN20090611113009306/11/09 11:30:31  5-MIN KMSN 111730Z 02012KT 10SM CLR 21/11 A2985 930 50 1900 020/12 RMK AO2
14837KMSN MSN20090611113509306/11/09 11:35:31  5-MIN KMSN 111735Z 03011KT 10SM CLR 21/11 A2985 930 52 1900 030/11 RMK AO2
14837KMSN MSN20090611114009306/11/09 11:40:31  5-MIN KMSN 111740Z 02011KT 10SM CLR 22/11 A2985 930 50 2000 020/11 RMK AO2
14837KMSN MSN20090611114509306/11/09 11:45:31  5-MIN KMSN 111745Z 03012KT 10SM CLR 22/11 A2986 920 50 2000 030/12 RMK AO2
14837KMSN MSN20090611115012806/11/09 11:50:31  5-MIN KMSN 111750Z 03011KT 10SM CLR 22/11 A2985 930 50 2000 030/11 RMK AO2 SLP107 T02170111 10217 20133 50000
14837KMSN MSN20090611115509606/11/09 11:55:31  5-MIN KMSN 111755Z 04011KT 10SM FEW045 22/11 A2985 930 50 2000 030/11 RMK AO2
14837KMSN MSN20090611120009606/11/09 12:00:31  5-MIN KMSN 111800Z 01012KT 10SM FEW045 22/11 A2985 930 50 2000 010/12 RMK AO2
14837KMSN MSN20090611120509606/11/09 12:05:31  5-MIN KMSN 111805Z 03010KT 10SM FEW045 22/12 A2986 920 51 2000 030/10 RMK AO2
14837KMSN MSN20090611121010206/11/09 12:10:31  5-MIN KMSN 111810Z 02012G18KT 10SM FEW045 22/11 A2985 930 50 2000 020/12G18 RMK AO2
14837KMSN MSN20090611121510206/11/09 12:15:31  5-MIN KMSN 111815Z 03014G18KT 10SM FEW045 22/11 A2985 930 50 2000 030/14G18 RMK AO2
14837KMSN MSN20090611122009606/11/09 12:20:31  5-MIN KMSN 111820Z 02012KT 10SM FEW045 22/11 A2985 930 50 2000 020/12 RMK AO2
14837KMSN MSN20090611122509606/11/09 12:25:31  5-MIN KMSN 111825Z 03012KT 10SM FEW045 22/11 A2985 930 49 2000 030/12 RMK AO2
14837KMSN MSN20090611123009606/11/09 12:30:31  5-MIN KMSN 111830Z 03012KT 10SM FEW045 22/11 A2985 930 50 2000 030/12 RMK AO2
14837KMSN MSN20090611123509606/11/09 12:35:31  5-MIN KMSN 111835Z 02013KT 10SM FEW045 22/12 A2985 930 52 2000 020/13 RMK AO2
14837KMSN MSN20090611124009606/11/09 12:40:31  5-MIN KMSN 111840Z 01011KT 10SM FEW045 22/11 A2985 930 49 2000 010/11 RMK AO2
14837KMSN MSN20090611124509606/11/09 12:45:31  5-MIN KMSN 111845Z 02012KT 10SM FEW045 22/11 A2986 920 49 2000 020/12 RMK AO2
14837KMSN MSN20090611125011906/11/09 12:50:31  5-MIN KMSN 111850Z 03011G17KT 10SM FEW046 22/12 A2985 930 51 2000 030/11G17 RMK AO2 SLP107 T02220117
14837KMSN MSN20090611125510206/11/09 12:55:31  5-MIN KMSN 111855Z 05012G16KT 10SM FEW046 22/11 A2985 930 49 2000 050/12G16 RMK AO2
14837KMSN MSN20090611130009606/11/09 13:00:31  5-MIN KMSN 111900Z 03011KT 10SM FEW046 22/12 A2985 930 51 2000 020/11 RMK AO2
14837KMSN MSN20090611130509606/11/09 13:05:31  5-MIN KMSN 111905Z 01012KT 10SM FEW046 22/11 A2986 920 49 2000 010/12 RMK AO2
14837KMSN MSN20090611131009606/11/09 13:10:31  5-MIN KMSN 111910Z 04008KT 10SM FEW046 22/11 A2986 920 49 2000 040/08 RMK AO2
14837KMSN MSN20090611131510206/11/09 13:15:31  5-MIN KMSN 111915Z 05011G15KT 10SM FEW046 23/12 A2986 920 49 2100 050/11G15 RMK AO2
14837KMSN MSN20090611132010206/11/09 13:20:31  5-MIN KMSN 111920Z 03011G15KT 10SM FEW046 23/11 A2986 920 47 2100 030/11G15 RMK AO2
14837KMSN MSN20090611132509606/11/09 13:25:31  5-MIN KMSN 111925Z 01010KT 10SM FEW046 23/11 A2985 930 47 2100 010/10 RMK AO2
14837KMSN MSN20090611133009606/11/09 13:30:31  5-MIN KMSN 111930Z 03009KT 10SM FEW046 23/12 A2986 920 49 2100 030/09 RMK AO2
14837KMSN MSN20090611133510206/11/09 13:35:31  5-MIN KMSN 111935Z 02012G18KT 10SM FEW046 23/12 A2986 920 49 2100 020/12G18 RMK AO2
14837KMSN MSN20090611134010206/11/09 13:40:31  5-MIN KMSN 111940Z 01010G18KT 10SM FEW046 23/11 A2986 920 47 2100 010/10G18 RMK AO2
14837KMSN MSN20090611134511806/11/09 13:45:31  5-MIN KMSN 111945Z 02008G15KT 340V050 10SM FEW046 23/11 A2986 920 47 2100 020/08G15 340V050 RMK AO2
14837KMSN MSN20090611135011306/11/09 13:50:31  5-MIN KMSN 111950Z 02007KT 10SM FEW046 23/12 A2986 920 51 2100 020/07 RMK AO2 SLP108 T02280122
14837KMSN MSN20090611135510206/11/09 13:55:31  5-MIN KMSN 111955Z 03012G15KT 10SM SCT044 22/12 A2986 920 52 1900 030/12G15 RMK AO2
14837KMSN MSN20090611140009606/11/09 14:00:31  5-MIN KMSN 112000Z 04009KT 10SM SCT044 22/12 A2985 930 52 2000 030/09 RMK AO2
14837KMSN MSN20090611140509606/11/09 14:05:31  5-MIN KMSN 112005Z 03012KT 10SM SCT044 23/12 A2985 930 51 2100 030/12 RMK AO2
14837KMSN MSN20090611141009606/11/09 14:10:31  5-MIN KMSN 112010Z 03010KT 10SM SCT044 22/12 A2986 920 51 2000 030/10 RMK AO2
14837KMSN MSN20090611141509606/11/09 14:15:31  5-MIN KMSN 112015Z 01010KT 10SM SCT044 23/12 A2986 920 51 2100 010/10 RMK AO2
14837KMSN MSN20090611142009606/11/09 14:20:31  5-MIN KMSN 112020Z 03010KT 10SM SCT044 23/12 A2986 920 51 2100 030/10 RMK AO2
14837KMSN MSN20090611142509606/11/09 14:25:31  5-MIN KMSN 112025Z 02008KT 10SM SCT044 22/12 A2985 930 51 2000 020/08 RMK AO2
14837KMSN MSN20090611143009606/11/09 14:30:31  5-MIN KMSN 112030Z 03008KT 10SM SCT044 22/12 A2986 920 52 2000 030/08 RMK AO2
14837KMSN MSN20090611143509606/11/09 14:35:31  5-MIN KMSN 112035Z 06009KT 10SM SCT044 22/12 A2986 920 52 2000 060/09 RMK AO2
14837KMSN MSN20090611144009606/11/09 14:40:31  5-MIN KMSN 112040Z 02009KT 10SM SCT044 22/12 A2986 920 51 2000 020/09 RMK AO2
14837KMSN MSN20090611144509606/11/09 14:45:31  5-MIN KMSN 112045Z 04009KT 10SM SCT044 22/12 A2986 920 52 2000 040/09 RMK AO2
14837KMSN MSN20090611145011906/11/09 14:50:31  5-MIN KMSN 112050Z 03007KT 10SM SCT044 22/12 A2986 920 52 2000 030/07 RMK AO2 SLP109 T02170117 53002
14837KMSN MSN20090611145509606/11/09 14:55:31  5-MIN KMSN 112055Z 03008KT 10SM FEW044 22/12 A2985 930 52 2000 030/08 RMK AO2
14837KMSN MSN20090611150009606/11/09 15:00:31  5-MIN KMSN 112100Z 05006KT 10SM FEW044 22/12 A2986 920 52 2000 050/06 RMK AO2
14837KMSN MSN20090611150509606/11/09 15:05:31  5-MIN KMSN 112105Z 06009KT 10SM FEW044 23/12 A2986 920 51 2100 060/09 RMK AO2
14837KMSN MSN20090611151009606/11/09 15:10:31  5-MIN KMSN 112110Z 05008KT 10SM FEW044 23/12 A2985 930 49 2100 050/08 RMK AO2
14837KMSN MSN20090611151509306/11/09 15:15:31  5-MIN KMSN 112115Z 03009KT 10SM CLR 23/12 A2985 930 49 2100 030/09 RMK AO2
14837KMSN MSN20090611152009606/11/09 15:20:31  5-MIN KMSN 112120Z 04005KT 10SM FEW046 23/12 A2985 930 49 2100 030/05 RMK AO2
14837KMSN MSN20090611152510206/11/09 15:25:31  5-MIN KMSN 112125Z 06010G16KT 10SM FEW046 23/12 A2985 930 49 2100 060/10G16 RMK AO2
14837KMSN MSN20090611153010206/11/09 15:30:31  5-MIN KMSN 112130Z 05010G16KT 10SM FEW046 23/12 A2985 930 49 2100 050/10G16 RMK AO2
14837KMSN MSN20090611153510206/11/09 15:35:31  5-MIN KMSN 112135Z VRB06G14KT 10SM FEW046 23/12 A2985 930 49 2100 VRB/06G14 RMK AO2
14837KMSN MSN20090611154009606/11/09 15:40:31  5-MIN KMSN 112140Z 05007KT 10SM FEW046 22/12 A2985 930 51 2000 050/07 RMK AO2
14837KMSN MSN20090611154509606/11/09 15:45:31  5-MIN KMSN 112145Z 07006KT 10SM FEW046 22/12 A2985 930 51 2000 070/06 RMK AO2
14837KMSN MSN20090611155011306/11/09 15:50:31  5-MIN KMSN 112150Z 05004KT 10SM FEW046 22/12 A2985 930 52 2000 050/04 RMK AO2 SLP107 T02170117
14837KMSN MSN20090611155509606/11/09 15:55:31  5-MIN KMSN 112155Z 04007KT 10SM FEW046 23/12 A2985 930 49 2100 040/07 RMK AO2
14837KMSN MSN20090611160009606/11/09 16:00:31  5-MIN KMSN 112200Z 04010KT 10SM FEW046 23/12 A2985 930 49 2100 040/10 RMK AO2
14837KMSN MSN20090611160509606/11/09 16:05:31  5-MIN KMSN 112205Z 04009KT 10SM FEW046 22/11 A2985 930 49 2000 040/09 RMK AO2
14837KMSN MSN20090611161009606/11/09 16:10:31  5-MIN KMSN 112210Z 06006KT 10SM FEW046 23/12 A2985 930 49 2100 060/06 RMK AO2
14837KMSN MSN20090611161509606/11/09 16:15:31  5-MIN KMSN 112215Z 04008KT 10SM FEW046 23/12 A2985 930 49 2100 040/08 RMK AO2
14837KMSN MSN20090611162009606/11/09 16:20:31  5-MIN KMSN 112220Z 06008KT 10SM FEW046 22/12 A2985 930 51 2000 060/08 RMK AO2
14837KMSN MSN20090611162509606/11/09 16:25:31  5-MIN KMSN 112225Z 03008KT 10SM FEW046 22/11 A2985 930 50 2000 030/08 RMK AO2
14837KMSN MSN20090611163009606/11/09 16:30:31  5-MIN KMSN 112230Z 07005KT 10SM FEW046 21/11 A2985 930 52 1900 070/05 RMK AO2
14837KMSN MSN20090611163509606/11/09 16:35:31  5-MIN KMSN 112235Z 06006KT 10SM FEW046 21/11 A2985 930 52 1900 050/06 RMK AO2
14837KMSN MSN20090611164009606/11/09 16:40:31  5-MIN KMSN 112240Z 04008KT 10SM FEW046 22/12 A2985 930 52 2000 040/08 RMK AO2
14837KMSN MSN20090611164509606/11/09 16:45:31  5-MIN KMSN 112245Z 05009KT 10SM FEW046 22/11 A2985 930 50 2000 050/09 RMK AO2
14837KMSN MSN20090611165012006/11/09 16:50:31  5-MIN KMSN 112250Z 03009KT 10SM FEW046 BKN060 22/12 A2985 930 52 2000 020/09 RMK AO2 SLP107 T02170117
14837KMSN MSN20090611165509606/11/09 16:55:31  5-MIN KMSN 112255Z 04008KT 10SM BKN060 22/12 A2985 930 51 2000 040/08 RMK AO2
14837KMSN MSN20090611170010306/11/09 17:00:31  5-MIN KMSN 112300Z 05007KT 10SM FEW048 BKN060 22/12 A2985 930 52 2000 050/07 RMK AO2
14837KMSN MSN20090611170510306/11/09 17:05:31  5-MIN KMSN 112305Z 03008KT 10SM FEW048 BKN060 21/12 A2986 920 54 1900 030/08 RMK AO2
14837KMSN MSN20090611171010306/11/09 17:10:31  5-MIN KMSN 112310Z 03009KT 10SM FEW048 BKN060 21/12 A2986 920 54 1900 030/09 RMK AO2
14837KMSN MSN20090611171510306/11/09 17:15:31  5-MIN KMSN 112315Z 02009KT 10SM FEW048 BKN060 21/12 A2986 920 54 1900 020/09 RMK AO2
14837KMSN MSN20090611172010306/11/09 17:20:31  5-MIN KMSN 112320Z 03007KT 10SM FEW048 BKN060 21/12 A2986 920 56 1800 030/07 RMK AO2
14837KMSN MSN20090611172510306/11/09 17:25:31  5-MIN KMSN 112325Z 02008KT 10SM FEW048 BKN060 21/12 A2987 910 56 1800 020/08 RMK AO2
14837KMSN MSN20090611173010306/11/09 17:30:31  5-MIN KMSN 112330Z 02009KT 10SM FEW048 BKN060 21/12 A2987 910 56 1800 020/09 RMK AO2
14837KMSN MSN20090611173509606/11/09 17:35:31  5-MIN KMSN 112335Z 03010KT 10SM BKN048 21/12 A2986 920 56 1800 020/10 RMK AO2
14837KMSN MSN20090611174009606/11/09 17:40:31  5-MIN KMSN 112340Z 03008KT 10SM BKN048 21/12 A2987 920 56 1800 030/08 RMK AO2
14837KMSN MSN20090611174509606/11/09 17:45:31  5-MIN KMSN 112345Z 03009KT 10SM BKN048 21/12 A2986 920 56 1800 020/09 RMK AO2
14837KMSN MSN20090611175013106/11/09 17:50:31  5-MIN KMSN 112350Z 03009KT 10SM BKN048 21/12 A2986 920 56 1800 030/09 RMK AO2 SLP111 T02060117 10233 20206 58000
14837KMSN MSN20090611175509606/11/09 17:55:31  5-MIN KMSN 112355Z 03010KT 10SM BKN050 21/12 A2986 920 56 1800 030/10 RMK AO2
14837KMSN MSN20090611180009606/11/09 18:00:31  5-MIN KMSN 120000Z 02009KT 10SM BKN050 21/12 A2987 910 56 1800 020/09 RMK AO2
14837KMSN MSN20090611180509606/11/09 18:05:31  5-MIN KMSN 120005Z 03008KT 10SM BKN050 21/12 A2987 910 56 1800 030/08 RMK AO2
14837KMSN MSN20090611181009606/11/09 18:10:31  5-MIN KMSN 120010Z 02008KT 10SM BKN050 20/12 A2987 910 60 1700 020/08 RMK AO2
14837KMSN MSN20090611181509606/11/09 18:15:31  5-MIN KMSN 120015Z 03008KT 10SM BKN050 20/12 A2987 910 60 1700 030/08 RMK AO2
14837KMSN MSN20090611182009606/11/09 18:20:31  5-MIN KMSN 120020Z 03007KT 10SM BKN050 20/12 A2987 910 58 1700 030/07 RMK AO2
14837KMSN MSN20090611182509606/11/09 18:25:31  5-MIN KMSN 120025Z 04008KT 10SM BKN050 20/12 A2987 910 58 1700 040/08 RMK AO2
14837KMSN MSN20090611183009606/11/09 18:30:31  5-MIN KMSN 120030Z 04007KT 10SM BKN050 20/12 A2987 910 58 1700 040/07 RMK AO2
14837KMSN MSN20090611183509606/11/09 18:35:31  5-MIN KMSN 120035Z 04007KT 10SM BKN050 20/12 A2987 910 58 1700 040/07 RMK AO2
14837KMSN MSN20090611184009606/11/09 18:40:31  5-MIN KMSN 120040Z 03005KT 10SM BKN050 20/12 A2987 910 58 1700 030/05 RMK AO2
14837KMSN MSN20090611184509606/11/09 18:45:31  5-MIN KMSN 120045Z 03007KT 10SM BKN050 20/12 A2987 910 58 1700 030/07 RMK AO2
14837KMSN MSN20090611185011306/11/09 18:50:31  5-MIN KMSN 120050Z 03006KT 10SM BKN055 20/12 A2987 910 58 1700 030/06 RMK AO2 SLP114 T02000117
14837KMSN MSN20090611185509606/11/09 18:55:31  5-MIN KMSN 120055Z 03009KT 10SM OVC055 20/12 A2987 910 58 1700 030/09 RMK AO2
14837KMSN MSN20090611190010306/11/09 19:00:31  5-MIN KMSN 120100Z 03007KT 10SM SCT050 BKN060 20/12 A2987 910 58 1700 030/07 RMK AO2
14837KMSN MSN20090611190510306/11/09 19:05:31  5-MIN KMSN 120105Z 04006KT 10SM SCT050 BKN060 19/12 A2988 910 60 1700 030/06 RMK AO2
14837KMSN MSN20090611191010306/11/09 19:10:31  5-MIN KMSN 120110Z 02005KT 10SM SCT050 BKN060 19/12 A2988 900 60 1700 020/05 RMK AO2
14837KMSN MSN20090611191510306/11/09 19:15:31  5-MIN KMSN 120115Z 03006KT 10SM SCT050 BKN060 19/12 A2988 900 60 1700 030/06 RMK AO2
14837KMSN MSN20090611192010306/11/09 19:20:31  5-MIN KMSN 120120Z 03006KT 10SM SCT050 BKN060 19/12 A2988 900 60 1700 030/06 RMK AO2
14837KMSN MSN20090611192510306/11/09 19:25:31  5-MIN KMSN 120125Z 03007KT 10SM SCT050 BKN060 19/12 A2988 900 60 1700 030/07 RMK AO2
14837KMSN MSN20090611193010306/11/09 19:30:31  5-MIN KMSN 120130Z 03007KT 10SM SCT050 BKN060 19/12 A2988 900 62 1600 030/07 RMK AO2
14837KMSN MSN20090611193510306/11/09 19:35:31  5-MIN KMSN 120135Z 03007KT 10SM SCT050 BKN060 19/12 A2988 900 65 1600 030/07 RMK AO2
14837KMSN MSN20090611194010306/11/09 19:40:31  5-MIN KMSN 120140Z 03007KT 10SM SCT050 BKN060 19/12 A2988 900 65 1600 030/07 RMK AO2
14837KMSN MSN20090611194510306/11/09 19:45:31  5-MIN KMSN 120145Z 04006KT 10SM SCT050 BKN060 19/12 A2988 900 65 1600 040/06 RMK AO2
14837KMSN MSN20090611195012006/11/09 19:50:31  5-MIN KMSN 120150Z 04005KT 10SM SCT065 BKN080 18/12 A2988 900 67 1500 040/05 RMK AO2 SLP118 T01830122
14837KMSN MSN20090611195510306/11/09 19:55:31  5-MIN KMSN 120155Z 04007KT 10SM FEW065 BKN080 18/12 A2989 890 67 1500 030/07 RMK AO2
14837KMSN MSN20090611200010306/11/09 20:00:31  5-MIN KMSN 120200Z 04006KT 10SM FEW065 BKN080 18/12 A2989 890 67 1500 030/06 RMK AO2
14837KMSN MSN20090611200510306/11/09 20:05:31  5-MIN KMSN 120205Z 03005KT 10SM FEW065 BKN080 18/12 A2989 890 69 1500 030/05 RMK AO2
14837KMSN MSN20090611201009606/11/09 20:10:31  5-MIN KMSN 120210Z 02004KT 10SM SCT080 18/12 A2990 890 69 1500 020/04 RMK AO2
14837KMSN MSN20090611201509606/11/09 20:15:31  5-MIN KMSN 120215Z 02005KT 10SM BKN080 17/12 A2990 890 72 1400 020/05 RMK AO2
14837KMSN MSN20090611202009606/11/09 20:20:31  5-MIN KMSN 120220Z 03005KT 10SM BKN085 17/12 A2990 880 72 1400 030/05 RMK AO2
14837KMSN MSN20090611202510306/11/09 20:25:31  5-MIN KMSN 120225Z 03005KT 10SM FEW070 BKN085 17/12 A2991 880 72 1400 020/05 RMK AO2
14837KMSN MSN20090611203010306/11/09 20:30:31  5-MIN KMSN 120230Z 02006KT 10SM FEW070 BKN085 18/12 A2991 880 69 1400 020/06 RMK AO2
14837KMSN MSN20090611203510306/11/09 20:35:31  5-MIN KMSN 120235Z 01005KT 10SM FEW070 OVC085 18/12 A2991 880 69 1400 010/05 RMK AO2
14837KMSN MSN20090611204010306/11/09 20:40:31  5-MIN KMSN 120240Z 01004KT 10SM FEW070 OVC085 18/12 A2991 870 69 1400 010/04 RMK AO2
14837KMSN MSN20090611204510306/11/09 20:45:31  5-MIN KMSN 120245Z 01004KT 10SM FEW070 OVC085 17/12 A2991 870 72 1400 010/04 RMK AO2
14837KMSN MSN20090611205012606/11/09 20:50:31  5-MIN KMSN 120250Z 02004KT 10SM FEW070 BKN085 17/12 A2992 870 72 1400 020/04 RMK AO2 SLP129 T01720122 53003
14837KMSN MSN20090611205510306/11/09 20:55:31  5-MIN KMSN 120255Z 02003KT 10SM FEW070 OVC085 17/13 A2992 870 75 1400 020/03 RMK AO2
14837KMSN MSN20090611210010306/11/09 21:00:31  5-MIN KMSN 120300Z 00000KT 10SM FEW070 OVC085 17/12 A2992 860 72 1400 000/00 RMK AO2
14837KMSN MSN20090611210510306/11/09 21:05:31  5-MIN KMSN 120305Z 00000KT 10SM FEW070 OVC085 17/12 A2992 870 72 1400 000/00 RMK AO2
14837KMSN MSN20090611211010306/11/09 21:10:31  5-MIN KMSN 120310Z 36003KT 10SM SCT070 OVC085 17/12 A2992 860 72 1400 360/03 RMK AO2
14837KMSN MSN20090611211510306/11/09 21:15:31  5-MIN KMSN 120315Z 00000KT 10SM SCT070 OVC090 17/12 A2992 860 72 1400 000/00 RMK AO2
14837KMSN MSN20090611212010306/11/09 21:20:31  5-MIN KMSN 120320Z 00000KT 10SM BKN070 OVC090 17/12 A2992 860 72 1400 000/00 RMK AO2
14837KMSN MSN20090611212510306/11/09 21:25:31  5-MIN KMSN 120325Z 00000KT 10SM BKN070 OVC090 17/12 A2993 860 72 1400 000/00 RMK AO2
14837KMSN MSN20090611213011006/11/09 21:30:31  5-MIN KMSN 120330Z 00000KT 10SM FEW055 BKN070 OVC090 17/12 A2993 860 72 1400 000/00 RMK AO2
14837KMSN MSN20090611213511006/11/09 21:35:31  5-MIN KMSN 120335Z 00000KT 10SM FEW055 BKN070 OVC090 17/12 A2993 860 75 1300 000/00 RMK AO2
14837KMSN MSN20090611214011006/11/09 21:40:31  5-MIN KMSN 120340Z 04003KT 10SM FEW055 BKN070 OVC090 17/12 A2993 860 75 1300 040/03 RMK AO2
14837KMSN MSN20090611214511006/11/09 21:45:31  5-MIN KMSN 120345Z 06003KT 10SM SCT055 BKN070 OVC090 17/13 A2993 860 75 1400 050/03 RMK AO2
14837KMSN MSN20090611215012706/11/09 21:50:31  5-MIN KMSN 120350Z 05004KT 10SM SCT060 BKN070 OVC090 17/12 A2993 850 72 1400 050/04 RMK AO2 SLP133 T01720122
14837KMSN MSN20090611215511006/11/09 21:55:31  5-MIN KMSN 120355Z 05003KT 10SM SCT060 BKN070 OVC090 17/12 A2993 850 72 1400 040/03 RMK AO2
14837KMSN MSN20090611220011006/11/09 22:00:31  5-MIN KMSN 120400Z 05003KT 10SM SCT060 BKN070 BKN090 17/13 A2993 860 77 1300 050/03 RMK AO2
14837KMSN MSN20090611220511006/11/09 22:05:31  5-MIN KMSN 120405Z 06003KT 10SM SCT060 BKN070 BKN090 17/12 A2993 860 75 1300 060/03 RMK AO2
14837KMSN MSN20090611221011006/11/09 22:10:31  5-MIN KMSN 120410Z 07003KT 10SM SCT060 BKN070 BKN090 17/12 A2993 860 75 1300 070/03 RMK AO2
14837KMSN MSN20090611221511006/11/09 22:15:31  5-MIN KMSN 120415Z 07003KT 10SM SCT060 BKN070 BKN090 17/12 A2993 850 75 1300 070/03 RMK AO2
14837KMSN MSN20090611222011006/11/09 22:20:31  5-MIN KMSN 120420Z 08003KT 10SM SCT060 BKN070 BKN090 17/12 A2993 860 75 1300 080/03 RMK AO2
14837KMSN MSN20090611222510306/11/09 22:25:31  5-MIN KMSN 120425Z 08005KT 10SM BKN065 BKN090 17/12 A2993 860 75 1300 080/05 RMK AO2
14837KMSN MSN20090611223010306/11/09 22:30:31  5-MIN KMSN 120430Z 09007KT 10SM BKN065 BKN090 17/12 A2993 860 72 1300 090/07 RMK AO2
14837KMSN MSN20090611223510306/11/09 22:35:31  5-MIN KMSN 120435Z 11005KT 10SM BKN065 BKN090 17/12 A2993 860 72 1300 110/05 RMK AO2
14837KMSN MSN20090611224010306/11/09 22:40:31  5-MIN KMSN 120440Z 11005KT 10SM BKN065 BKN090 17/11 A2993 850 69 1300 110/05 RMK AO2
14837KMSN MSN20090611224510306/11/09 22:45:31  5-MIN KMSN 120445Z 11004KT 10SM BKN065 BKN090 17/11 A2993 850 67 1300 110/04 RMK AO2
14837KMSN MSN20090611225012006/11/09 22:50:31  5-MIN KMSN 120450Z 00000KT 10SM BKN070 BKN085 16/11 A2993 850 69 1200 000/00 RMK AO2 SLP133 T01610106
14837KMSN MSN20090611225510306/11/09 22:55:31  5-MIN KMSN 120455Z 09005KT 10SM BKN070 OVC085 16/11 A2993 850 69 1200 090/05 RMK AO2
14837KMSN MSN20090611230010306/11/09 23:00:31  5-MIN KMSN 120500Z 11004KT 10SM BKN070 OVC085 16/11 A2993 850 69 1200 110/04 RMK AO2
14837KMSN MSN20090611230510306/11/09 23:05:31  5-MIN KMSN 120505Z 10004KT 10SM BKN070 OVC085 16/10 A2993 850 67 1200 100/04 RMK AO2
14837KMSN MSN20090611231010306/11/09 23:10:31  5-MIN KMSN 120510Z 11004KT 10SM BKN070 OVC085 16/10 A2993 850 67 1200 100/04 RMK AO2
14837KMSN MSN20090611231510306/11/09 23:15:31  5-MIN KMSN 120515Z 11003KT 10SM BKN070 OVC085 16/09 A2993 850 64 1200 100/03 RMK AO2
14837KMSN MSN20090611232010306/11/09 23:20:31  5-MIN KMSN 120520Z 00000KT 10SM SCT070 BKN085 16/09 A2993 850 62 1200 000/00 RMK AO2
14837KMSN MSN20090611232510306/11/09 23:25:31  5-MIN KMSN 120525Z 11003KT 10SM SCT070 BKN085 16/09 A2993 850 62 1200 110/03 RMK AO2
14837KMSN MSN20090611233010306/11/09 23:30:31  5-MIN KMSN 120530Z 00000KT 10SM SCT070 BKN085 16/09 A2993 850 64 1200 000/00 RMK AO2
14837KMSN MSN20090611233509606/11/09 23:35:31  5-MIN KMSN 120535Z 00000KT 10SM BKN080 16/09 A2993 850 67 1200 000/00 RMK AO2
14837KMSN MSN20090611234009606/11/09 23:40:31  5-MIN KMSN 120540Z 00000KT 10SM BKN080 15/09 A2993 860 69 1100 000/00 RMK AO2
14837KMSN MSN20090611234509606/11/09 23:45:31  5-MIN KMSN 120545Z 00000KT 10SM BKN080 15/09 A2993 860 69 1100 000/00 RMK AO2
14837KMSN MSN20090611235014106/11/09 23:50:31  5-MIN KMSN 120550Z 00000KT 10SM BKN080 14/09 A2993 860 72 1000 000/00 RMK AO2 SLP133 T01440094 10206 20144 402330122 53017
14837KMSN MSN20090611235509606/11/09 23:55:31  5-MIN KMSN 120555Z 00000KT 10SM BKN080 14/09 A2993 850 74 1000 000/00 RMK AO2
14837KMSN MSN20090612000009606/12/09 00:00:32  5-MIN KMSN 120600Z 00000KT 10SM BKN080 14/09 A2993 850 72 1000 000/00 RMK AO2
14837KMSN MSN20090612000509606/12/09 00:05:31  5-MIN KMSN 120605Z 00000KT 10SM SCT080 14/09 A2994 850 72 1000 000/00 RMK AO2
14837KMSN MSN20090612001009606/12/09 00:10:31  5-MIN KMSN 120610Z 00000KT 10SM SCT080 14/09 A2993 850 74 1000 000/00 RMK AO2
14837KMSN MSN20090612001509506/12/09 00:15:31  5-MIN KMSN 120615Z 00000KT 10SM BKN080 13/09 A2993 850 77 900 000/00 RMK AO2
14837KMSN MSN20090612002009506/12/09 00:20:31  5-MIN KMSN 120620Z 00000KT 10SM SCT080 13/09 A2993 850 77 900 000/00 RMK AO2
14837KMSN MSN20090612002509506/12/09 00:25:31  5-MIN KMSN 120625Z 00000KT 10SM SCT080 13/09 A2993 850 80 800 000/00 RMK AO2
14837KMSN MSN20090612003009506/12/09 00:30:31  5-MIN KMSN 120630Z 00000KT 10SM SCT080 13/09 A2994 850 80 800 000/00 RMK AO2
14837KMSN MSN20090612003509506/12/09 00:35:31  5-MIN KMSN 120635Z 00000KT 10SM SCT080 12/09 A2994 850 80 800 000/00 RMK AO2
14837KMSN MSN20090612004009506/12/09 00:40:31  5-MIN KMSN 120640Z 00000KT 10SM BKN080 12/09 A2994 850 80 800 000/00 RMK AO2
14837KMSN MSN20090612004509506/12/09 00:45:31  5-MIN KMSN 120645Z 00000KT 10SM BKN080 13/09 A2994 850 80 800 000/00 RMK AO2
14837KMSN MSN20090612005011906/12/09 00:50:31  5-MIN KMSN 120650Z 00000KT 10SM FEW070 BKN080 13/09 A2994 850 80 800 000/00 RMK AO2 SLP136 T01280094
14837KMSN MSN20090612005510206/12/09 00:55:31  5-MIN KMSN 120655Z 00000KT 10SM SCT070 BKN080 13/09 A2994 840 80 800 000/00 RMK AO2
14837KMSN MSN20090612010010206/12/09 01:00:31  5-MIN KMSN 120700Z 00000KT 10SM SCT070 OVC080 13/09 A2994 840 77 900 000/00 RMK AO2
14837KMSN MSN20090612010510206/12/09 01:05:31  5-MIN KMSN 120705Z 00000KT 10SM BKN070 OVC080 13/10 A2995 840 80 900 000/00 RMK AO2
14837KMSN MSN20090612011010206/12/09 01:10:31  5-MIN KMSN 120710Z 00000KT 10SM BKN070 OVC080 13/10 A2995 840 83 800 000/00 RMK AO2
14837KMSN MSN20090612011510206/12/09 01:15:31  5-MIN KMSN 120715Z 00000KT 10SM BKN070 OVC080 13/10 A2995 840 83 800 000/00 RMK AO2
14837KMSN MSN20090612012009506/12/09 01:20:31  5-MIN KMSN 120720Z 00000KT 10SM OVC070 13/10 A2995 840 80 900 000/00 RMK AO2
14837KMSN MSN20090612012510206/12/09 01:25:31  5-MIN KMSN 120725Z 00000KT 10SM BKN070 OVC085 13/10 A2994 840 80 900 000/00 RMK AO2
14837KMSN MSN20090612013010206/12/09 01:30:31  5-MIN KMSN 120730Z 00000KT 10SM BKN070 OVC085 13/10 A2994 840 80 900 000/00 RMK AO2
14837KMSN MSN20090612013510206/12/09 01:35:31  5-MIN KMSN 120735Z 00000KT 10SM SCT070 OVC085 13/10 A2994 840 80 900 000/00 RMK AO2
14837KMSN MSN20090612014010206/12/09 01:40:31  5-MIN KMSN 120740Z 00000KT 10SM FEW070 OVC085 13/10 A2994 840 80 900 000/00 RMK AO2
14837KMSN MSN20090612014510206/12/09 01:45:31  5-MIN KMSN 120745Z 00000KT 10SM FEW070 OVC080 13/11 A2994 840 83 900 000/00 RMK AO2
14837KMSN MSN20090612015011906/12/09 01:50:31  5-MIN KMSN 120750Z 00000KT 10SM FEW070 BKN080 13/11 A2995 840 86 800 000/00 RMK AO2 SLP138 T01280106
14837KMSN MSN20090612015509506/12/09 01:55:31  5-MIN KMSN 120755Z 00000KT 10SM OVC080 13/10 A2995 840 80 900 000/00 RMK AO2
14837KMSN MSN20090612020010206/12/09 02:00:31  5-MIN KMSN 120800Z 00000KT 10SM FEW070 OVC080 13/10 A2995 840 83 800 000/00 RMK AO2
14837KMSN MSN20090612020510206/12/09 02:05:31  5-MIN KMSN 120805Z 00000KT 10SM FEW070 OVC080 13/10 A2995 840 83 800 000/00 RMK AO2
14837KMSN MSN20090612021009506/12/09 02:10:31  5-MIN KMSN 120810Z 00000KT 10SM OVC080 13/10 A2995 840 80 900 000/00 RMK AO2
14837KMSN MSN20090612021509506/12/09 02:15:31  5-MIN KMSN 120815Z 00000KT 10SM OVC080 13/11 A2995 830 86 800 000/00 RMK AO2
14837KMSN MSN20090612022009506/12/09 02:20:31  5-MIN KMSN 120820Z 00000KT 10SM OVC080 13/10 A2995 830 80 900 000/00 RMK AO2
14837KMSN MSN20090612022509506/12/09 02:25:31  5-MIN KMSN 120825Z 00000KT 10SM OVC080 14/10 A2995 830 77 900 000/00 RMK AO2
14837KMSN MSN20090612023009506/12/09 02:30:31  5-MIN KMSN 120830Z 00000KT 10SM OVC080 14/10 A2995 830 77 900 000/00 RMK AO2
14837KMSN MSN20090612023509506/12/09 02:35:31  5-MIN KMSN 120835Z 00000KT 10SM OVC080 13/10 A2995 830 80 900 000/00 RMK AO2
14837KMSN MSN20090612024009506/12/09 02:40:31  5-MIN KMSN 120840Z 00000KT 10SM OVC080 13/10 A2995 840 83 800 000/00 RMK AO2
14837KMSN MSN20090612024509506/12/09 02:45:31  5-MIN KMSN 120845Z 00000KT 10SM OVC080 13/09 A2995 840 77 900 000/00 RMK AO2
14837KMSN MSN20090612025011806/12/09 02:50:31  5-MIN KMSN 120850Z 00000KT 10SM BKN080 13/09 A2995 840 77 900 000/00 RMK AO2 SLP140 T01330094 50005
14837KMSN MSN20090612025509506/12/09 02:55:31  5-MIN KMSN 120855Z 00000KT 10SM OVC080 13/10 A2995 840 83 800 000/00 RMK AO2
14837KMSN MSN20090612030009506/12/09 03:00:31  5-MIN KMSN 120900Z 00000KT 10SM BKN080 13/10 A2995 840 83 800 000/00 RMK AO2
14837KMSN MSN20090612030509506/12/09 03:05:31  5-MIN KMSN 120905Z 00000KT 10SM BKN080 13/11 A2995 840 86 800 000/00 RMK AO2
14837KMSN MSN20090612031009506/12/09 03:10:31  5-MIN KMSN 120910Z 00000KT 10SM BKN080 12/11 A2995 840 89 700 000/00 RMK AO2
14837KMSN MSN20090612031509506/12/09 03:15:31  5-MIN KMSN 120915Z 00000KT 10SM SCT080 12/09 A2995 840 83 700 000/00 RMK AO2
14837KMSN MSN20090612032009506/12/09 03:20:31  5-MIN KMSN 120920Z 00000KT 10SM SCT080 12/09 A2995 840 83 700 000/00 RMK AO2
14837KMSN MSN20090612032509506/12/09 03:25:31  5-MIN KMSN 120925Z 00000KT 10SM FEW080 12/09 A2995 840 86 700 000/00 RMK AO2
14837KMSN MSN20090612033009506/12/09 03:30:31  5-MIN KMSN 120930Z 00000KT 10SM FEW080 12/09 A2995 840 86 700 000/00 RMK AO2
14837KMSN MSN20090612033509506/12/09 03:35:31  5-MIN KMSN 120935Z 00000KT 10SM SCT080 12/09 A2995 840 86 700 000/00 RMK AO2
14837KMSN MSN20090612034009506/12/09 03:40:31  5-MIN KMSN 120940Z 00000KT 10SM BKN080 11/10 A2995 830 93 600 000/00 RMK AO2
14837KMSN MSN20090612034509506/12/09 03:45:31  5-MIN KMSN 120945Z 00000KT 10SM SCT080 11/09 A2995 830 93 500 000/00 RMK AO2
14837KMSN MSN20090612035011206/12/09 03:50:31  5-MIN KMSN 120950Z 00000KT 10SM BKN080 12/09 A2995 830 86 700 000/00 RMK AO2 SLP141 T01170094
14837KMSN MSN20090612035509506/12/09 03:55:31  5-MIN KMSN 120955Z 00000KT 10SM BKN080 12/09 A2995 830 86 700 000/00 RMK AO2
14837KMSN MSN20090612040009506/12/09 04:00:31  5-MIN KMSN 121000Z 00000KT 10SM BKN075 11/09 A2996 830 93 500 000/00 RMK AO2
14837KMSN MSN20090612040509506/12/09 04:05:31  5-MIN KMSN 121005Z 00000KT 10SM BKN075 12/09 A2996 830 86 700 000/00 RMK AO2
14837KMSN MSN20090612041009506/12/09 04:10:31  5-MIN KMSN 121010Z 00000KT 10SM OVC075 11/09 A2996 830 86 600 000/00 RMK AO2
14837KMSN MSN20090612041509506/12/09 04:15:31  5-MIN KMSN 121015Z 00000KT 10SM BKN075 11/08 A2996 830 86 500 000/00 RMK AO2
14837KMSN MSN20090612042009506/12/09 04:20:31  5-MIN KMSN 121020Z 00000KT 10SM BKN075 11/08 A2996 830 83 600 000/00 RMK AO2
14837KMSN MSN20090612042509506/12/09 04:25:31  5-MIN KMSN 121025Z 00000KT 10SM BKN070 11/09 A2996 830 89 600 000/00 RMK AO2
14837KMSN MSN20090612043009506/12/09 04:30:31  5-MIN KMSN 121030Z 00000KT 10SM BKN070 11/09 A2996 830 89 600 000/00 RMK AO2
14837KMSN MSN20090612043509506/12/09 04:35:31  5-MIN KMSN 121035Z 00000KT 10SM BKN070 11/09 A2996 830 93 500 000/00 RMK AO2
14837KMSN MSN20090612044009506/12/09 04:40:31  5-MIN KMSN 121040Z 00000KT 10SM BKN075 12/09 A2996 820 86 700 000/00 RMK AO2
14837KMSN MSN20090612044509506/12/09 04:45:31  5-MIN KMSN 121045Z 00000KT 10SM OVC075 11/09 A2996 820 89 600 000/00 RMK AO2
14837KMSN MSN20090612045011206/12/09 04:50:31  5-MIN KMSN 121050Z 00000KT 10SM BKN075 11/09 A2996 830 86 600 000/00 RMK AO2 SLP145 T01110089
14837KMSN MSN20090612045509506/12/09 04:55:31  5-MIN KMSN 121055Z 00000KT 10SM OVC075 11/09 A2996 830 89 600 000/00 RMK AO2
14837KMSN MSN20090612050009506/12/09 05:00:31  5-MIN KMSN 121100Z 00000KT 10SM BKN075 12/09 A2997 820 86 700 000/00 RMK AO2
14837KMSN MSN20090612050509506/12/09 05:05:31  5-MIN KMSN 121105Z 00000KT 10SM SCT075 12/09 A2997 820 83 700 000/00 RMK AO2
14837KMSN MSN20090612051009506/12/09 05:10:31  5-MIN KMSN 121110Z 00000KT 10SM SCT075 12/09 A2997 820 83 700 000/00 RMK AO2
14837KMSN MSN20090612051509506/12/09 05:15:31  5-MIN KMSN 121115Z 00000KT 10SM FEW075 12/09 A2997 820 83 700 000/00 RMK AO2
14837KMSN MSN20090612052009506/12/09 05:20:31  5-MIN KMSN 121120Z 00000KT 10SM FEW070 12/09 A2997 820 80 700 000/00 RMK AO2
14837KMSN MSN20090612052509206/12/09 05:25:31  5-MIN KMSN 121125Z 00000KT 10SM CLR 12/09 A2997 820 80 700 000/00 RMK AO2
14837KMSN MSN20090612053009206/12/09 05:30:31  5-MIN KMSN 121130Z 00000KT 10SM CLR 12/09 A2997 820 80 700 000/00 RMK AO2
14837KMSN MSN20090612053509206/12/09 05:35:31  5-MIN KMSN 121135Z 00000KT 10SM CLR 12/09 A2997 820 86 700 000/00 RMK AO2
14837KMSN MSN20090612054009206/12/09 05:40:31  5-MIN KMSN 121140Z 00000KT 10SM CLR 12/09 A2997 810 86 600 000/00 RMK AO2
14837KMSN MSN20090612054509206/12/09 05:45:31  5-MIN KMSN 121145Z 00000KT 10SM CLR 12/09 A2998 810 83 700 000/00 RMK AO2
14837KMSN MSN20090612055012706/12/09 05:50:31  5-MIN KMSN 121150Z 00000KT 10SM CLR 12/09 A2998 810 83 700 000/00 RMK AO2 SLP150 T01220094 10144 20106 51007
14837KMSN MSN20090612055509206/12/09 05:55:31  5-MIN KMSN 121155Z 00000KT 10SM CLR 13/09 A2998 810 80 800 000/00 RMK AO2
14837KMSN MSN20090612060009206/12/09 06:00:31  5-MIN KMSN 121200Z 00000KT 10SM CLR 13/10 A2998 810 83 800 000/00 RMK AO2
14837KMSN MSN20090612060509506/12/09 06:05:31  5-MIN KMSN 121205Z 00000KT 10SM FEW075 13/11 A2998 810 83 800 000/00 RMK AO2
14837KMSN MSN20090612061009506/12/09 06:10:31  5-MIN KMSN 121210Z 00000KT 10SM SCT075 14/11 A2998 810 80 900 000/00 RMK AO2
14837KMSN MSN20090612061509606/12/09 06:15:31  5-MIN KMSN 121215Z 00000KT 10SM BKN075 14/11 A2998 810 77 1000 000/00 RMK AO2
14837KMSN MSN20090612062009606/12/09 06:20:31  5-MIN KMSN 121220Z 00000KT 10SM BKN075 15/11 A2998 810 74 1000 000/00 RMK AO2
14837KMSN MSN20090612062509606/12/09 06:25:31  5-MIN KMSN 121225Z 00000KT 10SM BKN075 16/11 A2998 800 72 1100 000/00 RMK AO2
14837KMSN MSN20090612063009606/12/09 06:30:31  5-MIN KMSN 121230Z 00000KT 10SM OVC075 16/11 A2998 810 72 1100 000/00 RMK AO2
14837KMSN MSN20090612063509606/12/09 06:35:31  5-MIN KMSN 121235Z 00000KT 10SM OVC075 16/11 A2999 800 69 1200 000/00 RMK AO2
14837KMSN MSN20090612064009606/12/09 06:40:31  5-MIN KMSN 121240Z 00000KT 10SM OVC075 17/10 A2998 810 64 1200 000/00 RMK AO2
14837KMSN MSN20090612064509606/12/09 06:45:31  5-MIN KMSN 121245Z 00000KT 10SM OVC075 17/10 A2998 810 64 1200 000/00 RMK AO2
14837KMSN MSN20090612065011306/12/09 06:50:31  5-MIN KMSN 121250Z 00000KT 10SM OVC075 17/11 A2998 810 64 1300 000/00 RMK AO2 SLP150 T01720106
14837KMSN MSN20090612065509606/12/09 06:55:31  5-MIN KMSN 121255Z 00000KT 10SM BKN075 17/11 A2998 810 64 1300 000/00 RMK AO2
14837KMSN MSN20090612070009606/12/09 07:00:31  5-MIN KMSN 121300Z 00000KT 10SM SCT075 17/11 A2998 810 64 1300 000/00 RMK AO2
14837KMSN MSN20090612070509606/12/09 07:05:31  5-MIN KMSN 121305Z 00000KT 10SM SCT075 17/10 A2998 810 62 1300 000/00 RMK AO2
14837KMSN MSN20090612071009606/12/09 07:10:31  5-MIN KMSN 121310Z 00000KT 10SM SCT075 18/11 A2998 810 62 1400 000/00 RMK AO2
14837KMSN MSN20090612071509606/12/09 07:15:31  5-MIN KMSN 121315Z 00000KT 10SM SCT075 18/10 A2998 800 60 1400 000/00 RMK AO2
14837KMSN MSN20090612072009606/12/09 07:20:31  5-MIN KMSN 121320Z 00000KT 10SM SCT075 18/09 A2999 800 55 1400 000/00 RMK AO2
14837KMSN MSN20090612072509606/12/09 07:25:31  5-MIN KMSN 121325Z 00000KT 10SM SCT075 18/07 A2999 800 48 1400 000/00 RMK AO2
14837KMSN MSN20090612073009606/12/09 07:30:31  5-MIN KMSN 121330Z 00000KT 10SM SCT075 18/07 A2999 800 46 1400 000/00 RMK AO2
14837KMSN MSN20090612073509606/12/09 07:35:31  5-MIN KMSN 121335Z 00000KT 10SM SCT075 18/06 A2998 810 44 1400 000/00 RMK AO2
14837KMSN MSN20090612074009606/12/09 07:40:31  5-MIN KMSN 121340Z 00000KT 10SM SCT075 18/06 A2999 800 44 1400 000/00 RMK AO2
14837KMSN MSN20090612074509606/12/09 07:45:31  5-MIN KMSN 121345Z 00000KT 10SM SCT075 18/07 A2999 800 46 1400 000/00 RMK AO2
14837KMSN MSN20090612075011306/12/09 07:50:31  5-MIN KMSN 121350Z 00000KT 10SM SCT075 18/07 A2999 800 46 1400 000/00 RMK AO2 SLP153 T01830067
14837KMSN MSN20090612075509606/12/09 07:55:31  5-MIN KMSN 121355Z 00000KT 10SM SCT075 19/06 A2999 800 43 1500 000/00 RMK AO2
14837KMSN MSN20090612080009606/12/09 08:00:31  5-MIN KMSN 121400Z 00000KT 10SM SCT075 18/04 A2999 800 39 1400 000/00 RMK AO2
14837KMSN MSN20090612080509606/12/09 08:05:31  5-MIN KMSN 121405Z 00000KT 10SM SCT075 19/04 A2999 800 36 1500 000/00 RMK AO2
14837KMSN MSN20090612081009606/12/09 08:10:31  5-MIN KMSN 121410Z 00000KT 10SM SCT075 19/04 A2998 810 38 1500 000/00 RMK AO2
14837KMSN MSN20090612081509606/12/09 08:15:31  5-MIN KMSN 121415Z 00000KT 10SM SCT075 19/06 A2998 810 41 1500 000/00 RMK AO2
14837KMSN MSN20090612082009606/12/09 08:20:31  5-MIN KMSN 121420Z 00000KT 10SM SCT075 19/06 A2998 810 40 1600 000/00 RMK AO2
14837KMSN MSN20090612082509606/12/09 08:25:31  5-MIN KMSN 121425Z 00000KT 10SM SCT075 19/05 A2998 810 39 1500 000/00 RMK AO2
14837KMSN MSN20090612083009606/12/09 08:30:31  5-MIN KMSN 121430Z 00000KT 10SM SCT075 19/06 A2998 810 40 1600 000/00 RMK AO2
14837KMSN MSN20090612083509606/12/09 08:35:31  5-MIN KMSN 121435Z 17003KT 10SM SCT075 19/04 A2997 810 37 1600 170/03 RMK AO2
14837KMSN MSN20090612084009606/12/09 08:40:31  5-MIN KMSN 121440Z 00000KT 10SM SCT075 19/05 A2997 820 38 1600 000/00 RMK AO2
14837KMSN MSN20090612084509606/12/09 08:45:31  5-MIN KMSN 121445Z 00000KT 10SM SCT075 19/06 A2997 820 40 1600 000/00 RMK AO2
14837KMSN MSN20090612085011906/12/09 08:50:31  5-MIN KMSN 121450Z 00000KT 10SM SCT075 19/06 A2997 820 41 1600 000/00 RMK AO2 SLP146 T01940061 53008
14837KMSN MSN20090612085509606/12/09 08:55:31  5-MIN KMSN 121455Z 00000KT 10SM FEW080 19/07 A2997 820 43 1600 000/00 RMK AO2
14837KMSN MSN20090612090009606/12/09 09:00:31  5-MIN KMSN 121500Z 00000KT 10SM FEW080 20/07 A2997 820 43 1600 000/00 RMK AO2
14837KMSN MSN20090612090509606/12/09 09:05:31  5-MIN KMSN 121505Z 00000KT 10SM FEW080 19/08 A2997 820 46 1600 000/00 RMK AO2
14837KMSN MSN20090612091009606/12/09 09:10:31  5-MIN KMSN 121510Z 00000KT 10SM FEW080 19/08 A2997 820 46 1600 000/00 RMK AO2
14837KMSN MSN20090612091509606/12/09 09:15:31  5-MIN KMSN 121515Z 00000KT 10SM FEW080 20/07 A2997 820 43 1600 000/00 RMK AO2
14837KMSN MSN20090612092009606/12/09 09:20:31  5-MIN KMSN 121520Z 00000KT 10SM FEW080 20/08 A2997 820 45 1600 000/00 RMK AO2
14837KMSN MSN20090612092509606/12/09 09:25:31  5-MIN KMSN 121525Z 00000KT 10SM FEW080 21/08 A2997 820 45 1700 000/00 RMK AO2
14837KMSN MSN20090612093009606/12/09 09:30:31  5-MIN KMSN 121530Z 00000KT 10SM FEW080 21/09 A2997 820 46 1700 000/00 RMK AO2
14837KMSN MSN20090612093509606/12/09 09:35:31  5-MIN KMSN 121535Z 00000KT 10SM FEW080 21/09 A2997 820 45 1800 000/00 RMK AO2
14837KMSN MSN20090612094009606/12/09 09:40:31  5-MIN KMSN 121540Z 11003KT 10SM FEW080 21/08 A2997 820 45 1700 110/03 RMK AO2
14837KMSN MSN20090612094509606/12/09 09:45:31  5-MIN KMSN 121545Z 00000KT 10SM FEW080 21/08 A2998 810 43 1800 000/00 RMK AO2
14837KMSN MSN20090612095011306/12/09 09:50:31  5-MIN KMSN 121550Z 00000KT 10SM FEW080 21/08 A2997 810 42 1800 000/00 RMK AO2 SLP147 T02110078
14837KMSN MSN20090612095510306/12/09 09:55:31  5-MIN KMSN 121555Z 00000KT 10SM FEW050 SCT110 21/09 A2998 810 46 1700 000/00 RMK AO2
14837KMSN MSN20090612100010306/12/09 10:00:31  5-MIN KMSN 121600Z VRB05KT 10SM FEW050 SCT110 21/09 A2998 810 45 1800 VRB/05 RMK AO2
14837KMSN MSN20090612100510306/12/09 10:05:31  5-MIN KMSN 121605Z 00000KT 10SM FEW050 SCT110 21/09 A2998 810 45 1800 000/00 RMK AO2
14837KMSN MSN20090612101010306/12/09 10:10:31  5-MIN KMSN 121610Z 13003KT 10SM FEW050 SCT110 21/08 A2997 810 43 1800 130/03 RMK AO2
14837KMSN MSN20090612101510306/12/09 10:15:31  5-MIN KMSN 121615Z 00000KT 10SM FEW050 SCT110 21/08 A2998 810 43 1800 000/00 RMK AO2
14837KMSN MSN20090612102010306/12/09 10:20:31  5-MIN KMSN 121620Z 00000KT 10SM FEW050 SCT110 22/09 A2998 810 43 1800 000/00 RMK AO2
14837KMSN MSN20090612102510306/12/09 10:25:31  5-MIN KMSN 121625Z 00000KT 10SM FEW050 SCT110 22/09 A2998 810 42 1900 000/00 RMK AO2
14837KMSN MSN20090612103010306/12/09 10:30:31  5-MIN KMSN 121630Z VRB03KT 10SM FEW050 SCT110 22/09 A2998 810 43 1800 VRB/03 RMK AO2
14837KMSN MSN20090612103510306/12/09 10:35:31  5-MIN KMSN 121635Z 23004KT 10SM FEW050 SCT110 21/08 A2998 810 43 1800 230/04 RMK AO2
14837KMSN MSN20090612104010306/12/09 10:40:31  5-MIN KMSN 121640Z VRB03KT 10SM FEW050 SCT110 22/09 A2998 810 43 1800 VRB/03 RMK AO2
14837KMSN MSN20090612104510306/12/09 10:45:31  5-MIN KMSN 121645Z 32003KT 10SM FEW050 SCT110 22/09 A2997 820 43 1800 320/03 RMK AO2
14837KMSN MSN20090612105011306/12/09 10:50:31  5-MIN KMSN 121650Z 00000KT 10SM SCT050 22/09 A2997 820 42 1900 000/00 RMK AO2 SLP146 T02220089
14837KMSN MSN20090612105509606/12/09 10:55:31  5-MIN KMSN 121655Z VRB03KT 10SM SCT050 22/09 A2997 820 42 1900 VRB/03 RMK AO2
14837KMSN MSN20090612110009606/12/09 11:00:31  5-MIN KMSN 121700Z 13004KT 10SM SCT055 22/09 A2997 820 42 1900 120/04 RMK AO2
14837KMSN MSN20090612110509606/12/09 11:05:31  5-MIN KMSN 121705Z 00000KT 10SM SCT055 22/08 A2997 820 42 1800 000/00 RMK AO2
14837KMSN MSN20090612111009606/12/09 11:10:31  5-MIN KMSN 121710Z 15004KT 10SM SCT055 22/09 A2997 820 42 1900 150/04 RMK AO2
14837KMSN MSN20090612111509606/12/09 11:15:31  5-MIN KMSN 121715Z 19004KT 10SM SCT055 22/09 A2997 820 42 1900 190/04 RMK AO2
14837KMSN MSN20090612112009606/12/09 11:20:31  5-MIN KMSN 121720Z 00000KT 10SM SCT055 22/08 A2997 820 40 1800 000/00 RMK AO2
14837KMSN MSN20090612112509606/12/09 11:25:31  5-MIN KMSN 121725Z 00000KT 10SM SCT055 22/07 A2997 820 39 1800 000/00 RMK AO2
14837KMSN MSN20090612113009606/12/09 11:30:31  5-MIN KMSN 121730Z 00000KT 10SM SCT055 22/07 A2997 820 37 1900 000/00 RMK AO2
14837KMSN MSN20090612113509606/12/09 11:35:31  5-MIN KMSN 121735Z 00000KT 10SM SCT055 23/08 A2997 820 37 2000 000/00 RMK AO2
14837KMSN MSN20090612114009606/12/09 11:40:31  5-MIN KMSN 121740Z 00000KT 10SM SCT055 22/08 A2996 820 40 1800 000/00 RMK AO2
14837KMSN MSN20090612114509606/12/09 11:45:31  5-MIN KMSN 121745Z 19005KT 10SM SCT055 22/08 A2996 820 40 1900 190/05 RMK AO2
14837KMSN MSN20090612115013106/12/09 11:50:31  5-MIN KMSN 121750Z 20006KT 10SM SCT055 22/08 A2997 820 40 1900 200/06 RMK AO2 SLP145 T02220083 10228 20122 58003
14837KMSN MSN20090612115509606/12/09 11:55:31  5-MIN KMSN 121755Z 22004KT 10SM BKN055 22/08 A2996 820 40 1900 220/04 RMK AO2
14837KMSN MSN20090612120009606/12/09 12:00:31  5-MIN KMSN 121800Z 26004KT 10SM BKN055 22/08 A2996 820 40 1800 260/04 RMK AO2
14837KMSN MSN20090612120509606/12/09 12:05:31  5-MIN KMSN 121805Z 24005KT 10SM BKN055 22/07 A2996 820 39 1800 240/05 RMK AO2
14837KMSN MSN20090612121009606/12/09 12:10:31  5-MIN KMSN 121810Z VRB05KT 10SM BKN055 21/07 A2996 830 40 1800 VRB/05 RMK AO2
14837KMSN MSN20090612121509606/12/09 12:15:31  5-MIN KMSN 121815Z 28004KT 10SM BKN055 21/07 A2996 830 40 1800 280/04 RMK AO2
14837KMSN MSN20090612122009606/12/09 12:20:31  5-MIN KMSN 121820Z 27003KT 10SM BKN055 22/08 A2996 830 40 1800 270/03 RMK AO2
14837KMSN MSN20090612122509606/12/09 12:25:31  5-MIN KMSN 121825Z 29003KT 10SM BKN055 22/07 A2996 830 39 1800 290/03 RMK AO2
14837KMSN MSN20090612123009606/12/09 12:30:31  5-MIN KMSN 121830Z 30004KT 10SM BKN055 22/08 A2996 830 40 1800 300/04 RMK AO2
14837KMSN MSN20090612123509606/12/09 12:35:31  5-MIN KMSN 121835Z 30003KT 10SM BKN055 22/08 A2995 830 40 1900 300/03 RMK AO2
14837KMSN MSN20090612124009606/12/09 12:40:31  5-MIN KMSN 121840Z VRB03KT 10SM BKN055 23/08 A2995 830 39 2000 VRB/03 RMK AO2
14837KMSN MSN20090612124509606/12/09 12:45:31  5-MIN KMSN 121845Z 00000KT 10SM BKN055 23/08 A2995 840 37 2000 000/00 RMK AO2
14837KMSN MSN20090612125012006/12/09 12:50:31  5-MIN KMSN 121850Z VRB04KT 10SM SCT060 BKN075 23/08 A2995 840 38 2000 VRB/04 RMK AO2 SLP140 T02330083
14837KMSN MSN20090612125510306/12/09 12:55:31  5-MIN KMSN 121855Z 02004KT 10SM FEW060 SCT075 23/08 A2995 840 36 2000 020/04 RMK AO2
14837KMSN MSN20090612130010306/12/09 13:00:31  5-MIN KMSN 121900Z 08003KT 10SM FEW060 SCT075 23/08 A2995 840 38 2000 080/03 RMK AO2
14837KMSN MSN20090612130510306/12/09 13:05:31  5-MIN KMSN 121905Z 05004KT 10SM FEW060 SCT075 23/08 A2995 840 36 2000 050/04 RMK AO2
14837KMSN MSN20090612131010306/12/09 13:10:31  5-MIN KMSN 121910Z 00000KT 10SM FEW060 SCT075 23/08 A2995 840 36 2000 000/00 RMK AO2
14837KMSN MSN20090612131510306/12/09 13:15:31  5-MIN KMSN 121915Z VRB03KT 10SM FEW060 SCT075 23/08 A2995 840 36 2000 VRB/03 RMK AO2
14837KMSN MSN20090612132010306/12/09 13:20:31  5-MIN KMSN 121920Z VRB05KT 10SM FEW060 SCT075 23/09 A2995 840 39 2000 VRB/05 RMK AO2
14837KMSN MSN20090612132510306/12/09 13:25:31  5-MIN KMSN 121925Z 00000KT 10SM FEW060 SCT075 23/08 A2995 840 36 2000 000/00 RMK AO2
14837KMSN MSN20090612133010306/12/09 13:30:31  5-MIN KMSN 121930Z VRB04KT 10SM FEW060 SCT075 23/08 A2994 840 37 2000 VRB/04 RMK AO2
14837KMSN MSN20090612133510306/12/09 13:35:31  5-MIN KMSN 121935Z 26003KT 10SM FEW060 SCT075 22/08 A2995 840 39 1900 260/03 RMK AO2
14837KMSN MSN20090612134010306/12/09 13:40:31  5-MIN KMSN 121940Z 22005KT 10SM FEW060 SCT075 23/08 A2994 840 39 2000 220/05 RMK AO2
14837KMSN MSN20090612134510306/12/09 13:45:31  5-MIN KMSN 121945Z 27003KT 10SM FEW060 SCT075 22/08 A2994 840 39 1900 270/03 RMK AO2
14837KMSN MSN20090612135012006/12/09 13:50:31  5-MIN KMSN 121950Z VRB04KT 10SM FEW060 SCT075 22/08 A2994 850 40 1900 VRB/04 RMK AO2 SLP137 T02220083
14837KMSN MSN20090612135510306/12/09 13:55:31  5-MIN KMSN 121955Z 24004KT 10SM SCT060 BKN085 23/08 A2994 850 39 2000 240/04 RMK AO2
14837KMSN MSN20090612140010306/12/09 14:00:31  5-MIN KMSN 122000Z 24004KT 10SM SCT060 BKN085 23/09 A2994 850 39 2000 240/04 RMK AO2
14837KMSN MSN20090612140510306/12/09 14:05:31  5-MIN KMSN 122005Z 28004KT 10SM SCT060 BKN085 23/08 A2994 850 39 2000 280/04 RMK AO2
14837KMSN MSN20090612141010306/12/09 14:10:31  5-MIN KMSN 122010Z VRB04KT 10SM SCT060 BKN085 23/09 A2994 840 39 2000 VRB/04 RMK AO2
14837KMSN MSN20090612141510306/12/09 14:15:31  5-MIN KMSN 122015Z VRB04KT 10SM SCT060 BKN085 23/09 A2994 840 39 2000 VRB/04 RMK AO2
14837KMSN MSN20090612142010306/12/09 14:20:31  5-MIN KMSN 122020Z 29006KT 10SM SCT060 BKN085 23/08 A2995 840 38 2000 290/06 RMK AO2
14837KMSN MSN20090612142510306/12/09 14:25:31  5-MIN KMSN 122025Z 28006KT 10SM SCT060 BKN085 23/08 A2995 840 38 2000 280/06 RMK AO2
14837KMSN MSN20090612143010306/12/09 14:30:31  5-MIN KMSN 122030Z 25005KT 10SM SCT060 BKN085 23/08 A2995 840 39 2000 250/05 RMK AO2
14837KMSN MSN20090612143510306/12/09 14:35:31  5-MIN KMSN 122035Z 27005KT 10SM SCT060 BKN085 23/09 A2994 840 39 2000 270/05 RMK AO2
14837KMSN MSN20090612144010306/12/09 14:40:31  5-MIN KMSN 122040Z 28005KT 10SM SCT060 BKN085 23/08 A2995 840 39 2000 280/05 RMK AO2
14837KMSN MSN20090612144510306/12/09 14:45:31  5-MIN KMSN 122045Z VRB03KT 10SM SCT060 BKN085 23/08 A2995 840 39 2000 VRB/03 RMK AO2
14837KMSN MSN20090612145012606/12/09 14:50:31  5-MIN KMSN 122050Z 27004KT 10SM SCT060 BKN085 22/08 A2995 840 39 1900 270/04 RMK AO2 SLP140 T02220078 58001
14837KMSN MSN20090612145510306/12/09 14:55:31  5-MIN KMSN 122055Z VRB03KT 10SM FEW060 BKN090 23/08 A2995 840 39 2000 VRB/03 RMK AO2
14837KMSN MSN20090612150010306/12/09 15:00:31  5-MIN KMSN 122100Z 00000KT 10SM FEW060 BKN090 23/07 A2994 840 36 2000 000/00 RMK AO2
14837KMSN MSN20090612150510306/12/09 15:05:31  5-MIN KMSN 122105Z VRB03KT 10SM FEW060 BKN090 23/08 A2994 840 38 2000 VRB/03 RMK AO2
14837KMSN MSN20090612151010306/12/09 15:10:31  5-MIN KMSN 122110Z 00000KT 10SM FEW060 BKN090 23/07 A2994 840 36 2000 000/00 RMK AO2
14837KMSN MSN20090612151510306/12/09 15:15:31  5-MIN KMSN 122115Z 00000KT 10SM FEW060 BKN090 23/07 A2995 840 36 2000 000/00 RMK AO2
14837KMSN MSN20090612152010306/12/09 15:20:31  5-MIN KMSN 122120Z 00000KT 10SM FEW060 BKN090 23/08 A2994 840 37 2000 000/00 RMK AO2
14837KMSN MSN20090612152510306/12/09 15:25:31  5-MIN KMSN 122125Z 00000KT 10SM FEW060 BKN090 23/08 A2995 840 36 2000 000/00 RMK AO2
14837KMSN MSN20090612153010306/12/09 15:30:31  5-MIN KMSN 122130Z 00000KT 10SM FEW060 BKN090 23/07 A2994 840 33 2000 000/00 RMK AO2
14837KMSN MSN20090612153510306/12/09 15:35:31  5-MIN KMSN 122135Z 12003KT 10SM FEW060 BKN090 23/07 A2994 840 35 2000 120/03 RMK AO2
14837KMSN MSN20090612154010306/12/09 15:40:31  5-MIN KMSN 122140Z 00000KT 10SM FEW060 BKN090 23/07 A2995 840 35 2000 000/00 RMK AO2
14837KMSN MSN20090612154510306/12/09 15:45:31  5-MIN KMSN 122145Z 00000KT 10SM FEW060 BKN090 23/08 A2995 840 36 2000 000/00 RMK AO2
14837KMSN MSN20090612155012006/12/09 15:50:31  5-MIN KMSN 122150Z 16003KT 10SM FEW050 SCT090 23/07 A2995 840 36 2000 160/03 RMK AO2 SLP139 T02280072
14837KMSN MSN20090612155509606/12/09 15:55:31  5-MIN KMSN 122155Z 12003KT 10SM FEW090 23/07 A2995 840 36 2000 120/03 RMK AO2
14837KMSN MSN20090612160010306/12/09 16:00:31  5-MIN KMSN 122200Z 00000KT 10SM FEW050 SCT090 23/07 A2994 840 36 2000 000/00 RMK AO2
14837KMSN MSN20090612160510306/12/09 16:05:31  5-MIN KMSN 122205Z 00000KT 10SM FEW050 SCT090 23/07 A2994 840 36 2000 000/00 RMK AO2
14837KMSN MSN20090612161010306/12/09 16:10:31  5-MIN KMSN 122210Z 00000KT 10SM FEW050 SCT090 23/08 A2995 840 37 2000 000/00 RMK AO2
14837KMSN MSN20090612161509606/12/09 16:15:31  5-MIN KMSN 122215Z 00000KT 10SM FEW085 23/07 A2994 840 36 2000 000/00 RMK AO2
14837KMSN MSN20090612162009606/12/09 16:20:31  5-MIN KMSN 122220Z 15003KT 10SM FEW085 23/08 A2994 850 37 2000 150/03 RMK AO2
14837KMSN MSN20090612162509606/12/09 16:25:31  5-MIN KMSN 122225Z 00000KT 10SM FEW085 23/07 A2994 850 36 2000 000/00 RMK AO2
14837KMSN MSN20090612163009606/12/09 16:30:31  5-MIN KMSN 122230Z 00000KT 10SM FEW085 23/07 A2994 850 36 2000 000/00 RMK AO2
14837KMSN MSN20090612163509606/12/09 16:35:31  5-MIN KMSN 122235Z 00000KT 10SM FEW090 23/07 A2993 850 36 2000 000/00 RMK AO2
14837KMSN MSN20090612164009306/12/09 16:40:31  5-MIN KMSN 122240Z 00000KT 10SM CLR 23/07 A2994 850 36 2000 000/00 RMK AO2
14837KMSN MSN20090612164509606/12/09 16:45:31  5-MIN KMSN 122245Z 00000KT 10SM FEW090 23/08 A2994 850 37 2000 000/00 RMK AO2
14837KMSN MSN20090612165011306/12/09 16:50:31  5-MIN KMSN 122250Z 00000KT 10SM FEW085 23/09 A2994 850 39 2000 000/00 RMK AO2 SLP136 T02330089
14837KMSN MSN20090612165509606/12/09 16:55:31  5-MIN KMSN 122255Z 00000KT 10SM FEW090 23/08 A2994 850 39 2000 000/00 RMK AO2
14837KMSN MSN20090612170009606/12/09 17:00:31  5-MIN KMSN 122300Z 00000KT 10SM FEW090 23/08 A2994 850 37 2000 000/00 RMK AO2
14837KMSN MSN20090612170509506/12/09 17:05:31  5-MIN KMSN 122305Z 00000KT 9SM FEW090 23/07 A2994 850 36 2000 000/00 RMK AO2
14837KMSN MSN20090612171009206/12/09 17:10:31  5-MIN KMSN 122310Z VRB03KT 8SM CLR 23/07 A2994 850 36 2000 VRB/03 RMK AO2
14837KMSN MSN20090612171509506/12/09 17:15:31  5-MIN KMSN 122315Z 00000KT 9SM FEW090 23/07 A2994 850 35 2000 000/00 RMK AO2
14837KMSN MSN20090612172009606/12/09 17:20:31  5-MIN KMSN 122320Z 00000KT 10SM FEW090 23/08 A2994 850 37 2000 000/00 RMK AO2
14837KMSN MSN20090612172509606/12/09 17:25:31  5-MIN KMSN 122325Z 00000KT 10SM FEW090 23/07 A2994 850 36 2000 000/00 RMK AO2
14837KMSN MSN20090612173009606/12/09 17:30:31  5-MIN KMSN 122330Z 00000KT 10SM FEW090 23/08 A2994 850 37 2000 000/00 RMK AO2
14837KMSN MSN20090612173509606/12/09 17:35:31  5-MIN KMSN 122335Z 01003KT 10SM FEW090 23/09 A2993 850 40 2000 360/03 RMK AO2
14837KMSN MSN20090612174009606/12/09 17:40:31  5-MIN KMSN 122340Z 35003KT 10SM FEW090 22/12 A2993 850 51 1900 350/03 RMK AO2
14837KMSN MSN20090612174509606/12/09 17:45:31  5-MIN KMSN 122345Z 35003KT 10SM BKN090 22/12 A2993 850 52 1900 340/03 RMK AO2
14837KMSN MSN20090612175013106/12/09 17:50:31  5-MIN KMSN 122350Z 36003KT 10SM BKN090 22/12 A2993 850 54 1900 360/03 RMK AO2 SLP134 T02170122 10239 20211 55005
14837KMSN MSN20090612175509606/12/09 17:55:31  5-MIN KMSN 122355Z 36003KT 10SM SCT085 22/11 A2993 850 50 1900 360/03 RMK AO2
14837KMSN MSN20090612180010306/12/09 18:00:31  5-MIN KMSN 130000Z 36003KT 10SM SCT075 SCT090 22/11 A2993 850 49 1900 360/03 RMK AO2
14837KMSN MSN20090612180509606/12/09 18:05:31  5-MIN KMSN 130005Z 35003KT 10SM BKN080 22/11 A2993 850 50 1900 350/03 RMK AO2
14837KMSN MSN20090612181009606/12/09 18:10:31  5-MIN KMSN 130010Z 36004KT 10SM BKN085 21/12 A2993 860 56 1800 360/04 RMK AO2
14837KMSN MSN20090612181509606/12/09 18:15:31  5-MIN KMSN 130015Z 36003KT 10SM BKN080 21/12 A2993 860 56 1800 360/03 RMK AO2
14837KMSN MSN20090612182009606/12/09 18:20:31  5-MIN KMSN 130020Z 36003KT 10SM OVC080 21/12 A2993 860 56 1800 360/03 RMK AO2
14837KMSN MSN20090612182510306/12/09 18:25:31  5-MIN KMSN 130025Z 36003KT 10SM BKN070 OVC085 21/12 A2993 860 56 1800 360/03 RMK AO2
14837KMSN MSN20090612183010306/12/09 18:30:31  5-MIN KMSN 130030Z 03003KT 10SM SCT070 BKN085 21/12 A2993 860 58 1700 030/03 RMK AO2
14837KMSN MSN20090612183510306/12/09 18:35:31  5-MIN KMSN 130035Z 06003KT 10SM SCT070 BKN085 21/11 A2993 860 52 1800 060/03 RMK AO2
14837KMSN MSN20090612184010306/12/09 18:40:31  5-MIN KMSN 130040Z 07004KT 10SM SCT070 BKN085 21/11 A2993 860 52 1800 060/04 RMK AO2
14837KMSN MSN20090612184510306/12/09 18:45:31  5-MIN KMSN 130045Z 06005KT 10SM SCT070 BKN085 21/11 A2993 860 50 1800 060/05 RMK AO2
14837KMSN MSN20090612185012006/12/09 18:50:31  5-MIN KMSN 130050Z 08008KT 10SM SCT070 BKN085 21/11 A2993 860 54 1700 080/08 RMK AO2 SLP132 T02060111
14837KMSN MSN20090612185510206/12/09 18:55:31  5-MIN KMSN 130055Z 12011G14KT 10SM OVC075 21/11 A2993 860 54 1700 120/11G14 RMK AO2
14837KMSN MSN20090612190009606/12/09 19:00:31  5-MIN KMSN 130100Z 12011KT 10SM OVC075 21/11 A2993 860 54 1700 120/11 RMK AO2
14837KMSN MSN20090612190509606/12/09 19:05:31  5-MIN KMSN 130105Z 13010KT 10SM BKN075 20/12 A2993 850 58 1700 130/10 RMK AO2
14837KMSN MSN20090612191009606/12/09 19:10:31  5-MIN KMSN 130110Z 13010KT 10SM BKN075 21/11 A2993 850 54 1700 130/10 RMK AO2
14837KMSN MSN20090612191509606/12/09 19:15:31  5-MIN KMSN 130115Z 13010KT 10SM BKN075 21/11 A2993 850 54 1700 130/10 RMK AO2
14837KMSN MSN20090612192009606/12/09 19:20:31  5-MIN KMSN 130120Z 13011KT 10SM BKN075 20/11 A2993 850 56 1700 120/11 RMK AO2
14837KMSN MSN20090612192509606/12/09 19:25:31  5-MIN KMSN 130125Z 12009KT 10SM BKN075 20/11 A2993 850 56 1700 120/09 RMK AO2
14837KMSN MSN20090612193009606/12/09 19:30:31  5-MIN KMSN 130130Z 12009KT 10SM BKN075 20/11 A2994 850 56 1700 120/09 RMK AO2
14837KMSN MSN20090612193509606/12/09 19:35:31  5-MIN KMSN 130135Z 12012KT 10SM BKN075 20/11 A2994 850 54 1700 120/12 RMK AO2
14837KMSN MSN20090612194009606/12/09 19:40:31  5-MIN KMSN 130140Z 12009KT 10SM BKN075 20/10 A2994 850 52 1700 120/09 RMK AO2
14837KMSN MSN20090612194509606/12/09 19:45:31  5-MIN KMSN 130145Z 13012KT 10SM OVC075 20/10 A2994 850 52 1700 130/12 RMK AO2
14837KMSN MSN20090612195011306/12/09 19:50:31  5-MIN KMSN 130150Z 14009KT 10SM OVC075 20/09 A2994 850 50 1700 140/09 RMK AO2 SLP135 T02000094
14837KMSN MSN20090612195509606/12/09 19:55:31  5-MIN KMSN 130155Z 13007KT 10SM OVC075 19/10 A2994 840 54 1600 130/07 RMK AO2
14837KMSN MSN20090612200009606/12/09 20:00:31  5-MIN KMSN 130200Z 13007KT 10SM OVC075 19/10 A2994 840 54 1600 130/07 RMK AO2
14837KMSN MSN20090612200509606/12/09 20:05:31  5-MIN KMSN 130205Z 13009KT 10SM OVC075 19/10 A2994 840 54 1600 130/09 RMK AO2
14837KMSN MSN20090612201009606/12/09 20:10:31  5-MIN KMSN 130210Z 13008KT 10SM OVC080 19/10 A2994 840 54 1600 130/08 RMK AO2
14837KMSN MSN20090612201509606/12/09 20:15:31  5-MIN KMSN 130215Z 12006KT 10SM OVC080 19/09 A2995 840 52 1600 120/06 RMK AO2
14837KMSN MSN20090612202009606/12/09 20:20:31  5-MIN KMSN 130220Z 13007KT 10SM OVC075 19/10 A2995 840 56 1500 120/07 RMK AO2
14837KMSN MSN20090612202509606/12/09 20:25:31  5-MIN KMSN 130225Z 13008KT 10SM OVC075 19/09 A2995 830 52 1600 130/08 RMK AO2
14837KMSN MSN20090612203009606/12/09 20:30:31  5-MIN KMSN 130230Z 13006KT 10SM OVC075 19/09 A2996 830 50 1600 130/06 RMK AO2
14837KMSN MSN20090612203509606/12/09 20:35:31  5-MIN KMSN 130235Z 12006KT 10SM OVC075 19/09 A2996 830 54 1500 110/06 RMK AO2
14837KMSN MSN20090612204009606/12/09 20:40:31  5-MIN KMSN 130240Z 11007KT 10SM OVC075 19/09 A2996 830 54 1500 110/07 RMK AO2
14837KMSN MSN20090612204509606/12/09 20:45:31  5-MIN KMSN 130245Z 11006KT 10SM OVC075 19/09 A2996 830 54 1500 110/06 RMK AO2
14837KMSN MSN20090612205011906/12/09 20:50:31  5-MIN KMSN 130250Z 11006KT 10SM OVC075 19/10 A2996 830 56 1500 110/06 RMK AO2 SLP141 T01890100 58006
14837KMSN MSN20090612205509606/12/09 20:55:31  5-MIN KMSN 130255Z 11005KT 10SM OVC075 18/10 A2996 830 58 1400 110/05 RMK AO2
14837KMSN MSN20090612210009606/12/09 21:00:31  5-MIN KMSN 130300Z 12005KT 10SM OVC075 18/11 A2996 830 60 1400 120/05 RMK AO2
14837KMSN MSN20090612210509606/12/09 21:05:31  5-MIN KMSN 130305Z 13005KT 10SM OVC075 18/10 A2996 820 58 1400 130/05 RMK AO2
14837KMSN MSN20090612211009606/12/09 21:10:31  5-MIN KMSN 130310Z 12006KT 10SM OVC075 18/09 A2996 820 56 1400 120/06 RMK AO2
14837KMSN MSN20090612211509606/12/09 21:15:31  5-MIN KMSN 130315Z 12005KT 10SM OVC075 18/09 A2997 820 56 1400 120/05 RMK AO2
14837KMSN MSN20090612212009606/12/09 21:20:31  5-MIN KMSN 130320Z 12004KT 10SM OVC075 19/09 A2997 820 52 1600 120/04 RMK AO2
14837KMSN MSN20090612212509606/12/09 21:25:31  5-MIN KMSN 130325Z 12005KT 10SM OVC075 18/10 A2997 820 58 1400 120/05 RMK AO2
14837KMSN MSN20090612213011206/12/09 21:30:31  5-MIN KMSN 130330Z 12004KT 10SM -RA OVC075 18/10 A2997 820 60 1400 120/04 RMK AO2 RAB30 P0000
14837KMSN MSN20090612213511206/12/09 21:35:31  5-MIN KMSN 130335Z 14004KT 10SM -RA OVC070 18/10 A2997 820 60 1400 140/04 RMK AO2 RAB30 P0000
14837KMSN MSN20090612214011206/12/09 21:40:31  5-MIN KMSN 130340Z 00000KT 10SM -RA OVC070 18/11 A2997 820 62 1400 000/00 RMK AO2 RAB30 P0000
14837KMSN MSN20090612214511206/12/09 21:45:31  5-MIN KMSN 130345Z 00000KT 10SM -RA OVC070 18/11 A2997 820 64 1400 000/00 RMK AO2 RAB30 P0000
14837KMSN MSN20090612215012906/12/09 21:50:31  5-MIN KMSN 130350Z 00000KT 10SM -RA OVC070 18/11 A2997 820 64 1400 000/00 RMK AO2 RAB30 SLP147 P0000 T01780111
14837KMSN MSN20090612215510606/12/09 21:55:31  5-MIN KMSN 130355Z 09003KT 10SM -RA OVC070 17/11 A2998 810 67 1300 090/03 RMK AO2 P0000
14837KMSN MSN20090612220010606/12/09 22:00:31  5-MIN KMSN 130400Z 00000KT 10SM -RA OVC070 17/11 A2998 810 67 1300 000/00 RMK AO2 P0000
14837KMSN MSN20090612220510506/12/09 22:05:31  5-MIN KMSN 130405Z 00000KT 8SM -RA OVC070 16/12 A2998 810 77 1200 000/00 RMK AO2 P0000
14837KMSN MSN20090612221010506/12/09 22:10:31  5-MIN KMSN 130410Z 00000KT 7SM -RA OVC070 16/13 A2998 810 83 1100 000/00 RMK AO2 P0000
14837KMSN MSN20090612221511206/12/09 22:15:31  5-MIN KMSN 130415Z 00000KT 8SM -RA BKN070 OVC090 16/12 A2998 810 77 1200 000/00 RMK AO2 P0001
14837KMSN MSN20090612222011206/12/09 22:20:31  5-MIN KMSN 130420Z 36003KT 9SM -RA BKN070 OVC090 15/13 A2998 810 90 1000 360/03 RMK AO2 P0001
14837KMSN MSN20090612222511206/12/09 22:25:31  5-MIN KMSN 130425Z 00000KT 8SM -RA SCT070 OVC090 15/13 A2998 810 90 1000 000/00 RMK AO2 P0001
14837KMSN MSN20090612223011206/12/09 22:30:31  5-MIN KMSN 130430Z 00000KT 8SM -RA SCT070 OVC090 15/13 A2998 810 86 1000 000/00 RMK AO2 P0001
14837KMSN MSN20090612223511206/12/09 22:35:31  5-MIN KMSN 130435Z 36003KT 9SM -RA FEW070 OVC090 15/13 A2998 810 90 1000 360/03 RMK AO2 P0001
14837KMSN MSN20090612224010606/12/09 22:40:31  5-MIN KMSN 130440Z 00000KT 10SM -RA OVC090 15/13 A2998 810 90 1000 000/00 RMK AO2 P0001
14837KMSN MSN20090612224510606/12/09 22:45:31  5-MIN KMSN 130445Z 00000KT 10SM -RA OVC090 15/13 A2998 810 90 1000 000/00 RMK AO2 P0002
14837KMSN MSN20090612225012506/12/09 22:50:31  5-MIN KMSN 130450Z 00000KT 10SM OVC090 15/13 A2998 810 90 1000 000/00 RMK AO2 RAE49 SLP150 P0002 T01500133
14837KMSN MSN20090612225509606/12/09 22:55:31  5-MIN KMSN 130455Z 06004KT 10SM OVC085 15/13 A2998 810 90 1000 060/04 RMK AO2
14837KMSN MSN20090612230011206/12/09 23:00:31  5-MIN KMSN 130500Z 07003KT 10SM -RA OVC085 16/13 A2997 810 86 1100 070/03 RMK AO2 RAB00 P0000
14837KMSN MSN20090612230511806/12/09 23:05:31  5-MIN KMSN 130505Z 07004KT 9SM -RA FEW060 OVC085 16/13 A2997 810 86 1100 070/04 RMK AO2 RAB00 P0000
14837KMSN MSN20090612231011806/12/09 23:10:31  5-MIN KMSN 130510Z 08003KT 8SM -RA FEW060 OVC085 16/13 A2998 810 86 1100 080/03 RMK AO2 RAB00 P0000
14837KMSN MSN20090612231511806/12/09 23:15:31  5-MIN KMSN 130515Z 00000KT 9SM -RA FEW060 OVC085 16/13 A2998 810 86 1100 000/00 RMK AO2 RAB00 P0000
14837KMSN MSN20090612232011906/12/09 23:20:31  5-MIN KMSN 130520Z 00000KT 10SM -RA SCT070 OVC090 16/13 A2999 800 86 1100 000/00 RMK AO2 RAB00 P0000
14837KMSN MSN20090612232511806/12/09 23:25:31  5-MIN KMSN 130525Z 00000KT 10SM BKN070 OVC090 16/13 A2999 800 86 1100 000/00 RMK AO2 RAB00E22 P0000
14837KMSN MSN20090612233011706/12/09 23:30:31  5-MIN KMSN 130530Z 00000KT 9SM BKN070 OVC090 15/14 A2999 800 93 1000 000/00 RMK AO2 RAB00E22 P0000
14837KMSN MSN20090612233511806/12/09 23:35:31  5-MIN KMSN 130535Z 00000KT 7SM -RA BKN070 OVC090 15/14 A2999 800 93 1000 000/00 RMK AO2 RAB00 P0000
14837KMSN MSN20090612234011406/12/09 23:40:31  5-MIN KMSN 130540Z 00000KT 5SM -RA BR OVC070 15/14 A2999 800 93 1000 000/00 RMK AO2 RAB00 P0000
14837KMSN MSN20090612234511406/12/09 23:45:31  5-MIN KMSN 130545Z 00000KT 4SM -RA BR OVC070 14/14 A2999 800 96 1000 000/00 RMK AO2 RAB00 P0001
14837KMSN MSN20090612235016506/12/09 23:50:31  5-MIN KMSN 130550Z 00000KT 4SM -RA BR OVC070 14/13 A2999 800 93 1000 000/00 RMK AO2 RAB00 SLP155 P0002 60004 T01440133 10217 20144 402390106 53009
14837KMSN MSN20090612235511506/12/09 23:55:31  5-MIN KMSN 130555Z 36003KT 5SM -RA BR FEW050 OVC070 14/14 A3000 800 96 1000 360/03 RMK AO2 P0000
14837KMSN MSN20090613000011506/13/09 00:00:32  5-MIN KMSN 130600Z 00000KT 5SM -RA BR FEW050 OVC070 14/13 A3000 790 93 1000 000/00 RMK AO2 P0000
14837KMSN MSN20090613000511506/13/09 00:05:31  5-MIN KMSN 130605Z 00000KT 6SM -RA BR FEW045 OVC070 14/13 A3000 790 93 1000 000/00 RMK AO2 P0000
14837KMSN MSN20090613001011506/13/09 00:10:31  5-MIN KMSN 130610Z 00000KT 5SM -RA BR FEW036 OVC070 14/13 A3000 790 93 1000 000/00 RMK AO2 P0001
14837KMSN MSN20090613001511506/13/09 00:15:31  5-MIN KMSN 130615Z 31003KT 5SM -RA BR FEW036 OVC070 14/13 A3000 790 93 1000 310/03 RMK AO2 P0001
14837KMSN MSN20090613002011506/13/09 00:20:31  5-MIN KMSN 130620Z 00000KT 5SM -RA BR FEW046 OVC065 14/13 A3000 790 93 1000 000/00 RMK AO2 P0001
14837KMSN MSN20090613002511506/13/09 00:25:31  5-MIN KMSN 130625Z 00000KT 5SM -RA BR FEW033 OVC065 14/13 A3000 790 93 1000 000/00 RMK AO2 P0001
14837KMSN MSN20090613003011506/13/09 00:30:31  5-MIN KMSN 130630Z 00000KT 5SM -RA BR SCT037 OVC065 14/13 A3000 790 93 1000 000/00 RMK AO2 P0002
14837KMSN MSN20090613003511506/13/09 00:35:31  5-MIN KMSN 130635Z 00000KT 5SM -RA BR BKN040 OVC065 14/13 A3000 790 93 1000 000/00 RMK AO2 P0002
14837KMSN MSN20090613004011506/13/09 00:40:31  5-MIN KMSN 130640Z 00000KT 5SM -RA BR BKN046 OVC065 14/13 A3000 800 93 1000 000/00 RMK AO2 P0002
14837KMSN MSN20090613004511506/13/09 00:45:31  5-MIN KMSN 130645Z 00000KT 5SM -RA BR BKN042 OVC060 14/13 A2999 800 93 1000 000/00 RMK AO2 P0002
14837KMSN MSN20090613005012506/13/09 00:50:31  5-MIN KMSN 130650Z 00000KT 4SM -RA BR OVC036 14/13 A3000 790 93 1000 000/00 RMK AO2 SLP155 P0003 T01440133
14837KMSN MSN20090613005510806/13/09 00:55:31  5-MIN KMSN 130655Z 00000KT 4SM -RA BR OVC034 14/13 A3000 790 93 1000 000/00 RMK AO2 P0000
14837KMSN MSN20090613010010806/13/09 01:00:31  5-MIN KMSN 130700Z 00000KT 4SM -RA BR OVC045 14/13 A3000 790 93 1000 000/00 RMK AO2 P0000
14837KMSN MSN20090613010511506/13/09 01:05:31  5-MIN KMSN 130705Z 00000KT 5SM -RA BR BKN050 OVC080 14/14 A3000 790 96 1000 000/00 RMK AO2 P0000
14837KMSN MSN20090613011011506/13/09 01:10:31  5-MIN KMSN 130710Z 00000KT 5SM -RA BR BKN043 OVC080 14/13 A3000 790 93 1000 000/00 RMK AO2 P0000
14837KMSN MSN20090613011511506/13/09 01:15:31  5-MIN KMSN 130715Z 00000KT 5SM -RA BR BKN040 OVC080 14/13 A3000 790 93 1000 000/00 RMK AO2 P0001
14837KMSN MSN20090613012012206/13/09 01:20:31  5-MIN KMSN 130720Z 09003KT 6SM -RA BR SCT045 BKN080 OVC100 15/13 A3000 800 90 1000 090/03 RMK AO2 P0001
14837KMSN MSN20090613012511906/13/09 01:25:31  5-MIN KMSN 130725Z 07003KT 7SM -RA FEW039 BKN050 OVC085 15/13 A2999 800 90 1000 070/03 RMK AO2 P0001
14837KMSN MSN20090613013011206/13/09 01:30:31  5-MIN KMSN 130730Z 07004KT 7SM -RA SCT039 OVC085 14/13 A2999 800 93 1000 070/04 RMK AO2 P0001
14837KMSN MSN20090613013511206/13/09 01:35:31  5-MIN KMSN 130735Z 05003KT 7SM -RA SCT036 OVC090 14/13 A2999 800 93 1000 050/03 RMK AO2 P0001
14837KMSN MSN20090613014011206/13/09 01:40:31  5-MIN KMSN 130740Z 06003KT 7SM -RA FEW029 OVC085 14/13 A2999 800 93 1000 060/03 RMK AO2 P0001
14837KMSN MSN20090613014511506/13/09 01:45:31  5-MIN KMSN 130745Z 09003KT 6SM -RA BR FEW037 OVC085 14/13 A2999 800 93 1000 090/03 RMK AO2 P0002
14837KMSN MSN20090613015012906/13/09 01:50:31  5-MIN KMSN 130750Z 10004KT 7SM -RA FEW037 OVC085 14/13 A2999 800 93 1000 090/04 RMK AO2 SLP153 P0002 T01440133
14837KMSN MSN20090613015510506/13/09 01:55:31  5-MIN KMSN 130755Z 10004KT 8SM -RA OVC085 14/13 A2999 800 90 1000 100/04 RMK AO2 P0000
14837KMSN MSN20090613020010906/13/09 02:00:31  5-MIN KMSN 130800Z 11004KT 9SM OVC085 14/13 A2999 800 90 1000 110/04 RMK AO2 RAE0757 P0000
14837KMSN MSN20090613020510906/13/09 02:05:31  5-MIN KMSN 130805Z 11003KT 9SM OVC080 14/13 A2999 800 90 1000 110/03 RMK AO2 RAE0757 P0000
14837KMSN MSN20090613021010506/13/09 02:10:31  5-MIN KMSN 130810Z 11003KT 8SM -RA OVC080 14/13 A2999 800 90 1000 110/03 RMK AO2 P0000
14837KMSN MSN20090613021510506/13/09 02:15:31  5-MIN KMSN 130815Z 10004KT 8SM -RA OVC080 14/13 A3000 790 90 1000 100/04 RMK AO2 P0000
14837KMSN MSN20090613022010506/13/09 02:20:31  5-MIN KMSN 130820Z 11003KT 7SM -RA OVC080 14/12 A3000 790 86 1000 110/03 RMK AO2 P0000
14837KMSN MSN20090613022510806/13/09 02:25:31  5-MIN KMSN 130825Z 10003KT 6SM -RA BR OVC075 14/12 A3000 790 86 1000 100/03 RMK AO2 P0000
14837KMSN MSN20090613023010806/13/09 02:30:31  5-MIN KMSN 130830Z 09003KT 5SM -RA BR OVC075 14/12 A3000 790 86 1000 090/03 RMK AO2 P0001
14837KMSN MSN20090613023511506/13/09 02:35:31  5-MIN KMSN 130835Z 10003KT 6SM -RA BR BKN070 OVC080 14/13 A3000 790 90 1000 100/03 RMK AO2 P0001
14837KMSN MSN20090613024011406/13/09 02:40:31  5-MIN KMSN 130840Z 00000KT 6SM -RA BR FEW050 OVC070 14/12 A3000 790 90 900 000/00 RMK AO2 P0002
14837KMSN MSN20090613024511406/13/09 02:45:31  5-MIN KMSN 130845Z 13003KT 6SM -RA BR SCT050 OVC070 14/12 A3000 790 90 900 130/03 RMK AO2 P0002
14837KMSN MSN20090613025014306/13/09 02:50:31  5-MIN KMSN 130850Z 14003KT 5SM -RA BR SCT050 OVC065 14/13 A3000 790 93 900 140/03 RMK AO2 SLP156 P0003 60009 T01390128 53012
14837KMSN MSN20090613025511406/13/09 02:55:31  5-MIN KMSN 130855Z 17004KT 6SM -RA BR SCT050 OVC065 14/13 A3000 790 93 900 170/04 RMK AO2 P0000
14837KMSN MSN20090613030011406/13/09 03:00:31  5-MIN KMSN 130900Z 16004KT 6SM -RA BR BKN050 OVC065 14/13 A3000 790 90 900 160/04 RMK AO2 P0000
14837KMSN MSN20090613030512206/13/09 03:05:31  5-MIN KMSN 130905Z 14003KT 6SM -RA BR FEW038 BKN050 OVC060 14/13 A3000 790 90 1000 140/03 RMK AO2 P0001
14837KMSN MSN20090613031011406/13/09 03:10:31  5-MIN KMSN 130910Z 14004KT 5SM -RA BR SCT036 OVC050 14/13 A3000 790 93 900 140/04 RMK AO2 P0001
14837KMSN MSN20090613031512106/13/09 03:15:31  5-MIN KMSN 130915Z 14003KT 5SM -RA BR SCT038 BKN050 OVC060 14/13 A3000 790 93 900 140/03 RMK AO2 P0001
14837KMSN MSN20090613032012106/13/09 03:20:31  5-MIN KMSN 130920Z 15003KT 6SM -RA BR FEW038 BKN050 OVC060 14/13 A3000 790 93 900 150/03 RMK AO2 P0002
14837KMSN MSN20090613032511506/13/09 03:25:31  5-MIN KMSN 130925Z 16003KT 5SM -RA BR SCT038 OVC050 14/13 A3000 790 90 1000 160/03 RMK AO2 P0002
14837KMSN MSN20090613033012106/13/09 03:30:31  5-MIN KMSN 130930Z 14003KT 5SM -RA BR FEW038 BKN050 OVC060 14/13 A3000 790 93 900 140/03 RMK AO2 P0003
14837KMSN MSN20090613033511406/13/09 03:35:31  5-MIN KMSN 130935Z 15004KT 5SM -RA BR FEW038 OVC060 14/13 A3000 790 93 900 150/04 RMK AO2 P0004
14837KMSN MSN20090613034011406/13/09 03:40:31  5-MIN KMSN 130940Z 13004KT 5SM -RA BR SCT050 OVC060 14/12 A3000 790 90 900 130/04 RMK AO2 P0004
14837KMSN MSN20090613034511406/13/09 03:45:31  5-MIN KMSN 130945Z 12003KT 5SM -RA BR SCT050 OVC060 14/13 A3000 790 93 900 110/03 RMK AO2 P0005
14837KMSN MSN20090613035013806/13/09 03:50:31  5-MIN KMSN 130950Z 11004KT 5SM -RA BR FEW050 BKN060 OVC090 14/13 A3000 790 93 900 110/04 RMK AO2 SLP155 P0005 T01390128
14837KMSN MSN20090613035511406/13/09 03:55:31  5-MIN KMSN 130955Z 10004KT 6SM -RA BR BKN060 OVC090 14/13 A3000 790 93 900 100/04 RMK AO2 P0000
14837KMSN MSN20090613040011406/13/09 04:00:31  5-MIN KMSN 131000Z 08004KT 6SM -RA BR BKN060 OVC090 14/13 A3000 790 93 900 080/04 RMK AO2 P0000
14837KMSN MSN20090613040511606/13/09 04:05:31  5-MIN KMSN 131005Z 08005KT 6SM BR BKN060 OVC090 14/13 A3000 790 93 900 080/05 RMK AO2 RAE02 P0000
14837KMSN MSN20090613041011606/13/09 04:10:31  5-MIN KMSN 131010Z 09004KT 6SM BR BKN055 OVC090 14/13 A3000 790 93 900 090/04 RMK AO2 RAE02 P0000
14837KMSN MSN20090613041511606/13/09 04:15:31  5-MIN KMSN 131015Z 08004KT 6SM BR BKN055 OVC090 14/13 A3000 790 93 900 080/04 RMK AO2 RAE02 P0000
14837KMSN MSN20090613042013006/13/09 04:20:31  5-MIN KMSN 131020Z 08004KT 5SM -RA BR SCT050 BKN060 OVC085 14/13 A3000 790 93 900 080/04 RMK AO2 RAE02B19 P0000
14837KMSN MSN20090613042512306/13/09 04:25:31  5-MIN KMSN 131025Z 08004KT 4SM -RA BR BKN050 OVC060 14/13 A3001 790 93 900 080/04 RMK AO2 RAE02B19 P0001
14837KMSN MSN20090613043012306/13/09 04:30:31  5-MIN KMSN 131030Z 07004KT 4SM -RA BR BKN050 OVC060 14/13 A3001 780 93 900 070/04 RMK AO2 RAE02B19 P0001
14837KMSN MSN20090613043512306/13/09 04:35:31  5-MIN KMSN 131035Z 07004KT 5SM -RA BR BKN050 OVC060 13/13 A3001 780 96 800 070/04 RMK AO2 RAE02B19 P0001
14837KMSN MSN20090613044012306/13/09 04:40:31  5-MIN KMSN 131040Z 08004KT 4SM -RA BR BKN050 OVC060 13/13 A3001 780 96 800 080/04 RMK AO2 RAE02B19 P0001
14837KMSN MSN20090613044512906/13/09 04:45:31  5-MIN KMSN 131045Z 09004KT 3SM RA BR FEW022 BKN050 OVC060 13/13 A3001 780 96 800 090/04 RMK AO2 RAE02B19 P0001
14837KMSN MSN20090613045014606/13/09 04:50:31  5-MIN KMSN 131050Z 08006KT 3SM RA BR FEW022 BKN050 OVC060 13/13 A3001 780 96 800 080/06 RMK AO2 RAE02B19 SLP160 P0003 T01330128
14837KMSN MSN20090613045511306/13/09 04:55:31  5-MIN KMSN 131055Z 07008KT 2SM RA BR FEW050 OVC060 13/13 A3001 780 96 800 070/08 RMK AO2 P0000
14837KMSN MSN20090613050012806/13/09 05:00:31  5-MIN KMSN 131100Z 08007KT 2 1/2SM -RA BR FEW022 OVC060 13/12 A3001 780 93 800 070/07 RMK AO2 TWR VIS 3 P0001
14837KMSN MSN20090613050512806/13/09 05:05:31  5-MIN KMSN 131105Z 07006KT 2 1/2SM -RA BR FEW030 OVC060 13/12 A3001 780 93 800 070/06 RMK AO2 TWR VIS 3 P0002
14837KMSN MSN20090613051012806/13/09 05:10:31  5-MIN KMSN 131110Z 07005KT 2 1/2SM -RA BR FEW030 OVC060 13/12 A3001 780 93 800 070/05 RMK AO2 TWR VIS 3 P0002
14837KMSN MSN20090613051512806/13/09 05:15:31  5-MIN KMSN 131115Z 07005KT 2 1/2SM -RA BR FEW035 OVC060 13/13 A3001 780 96 800 070/05 RMK AO2 TWR VIS 3 P0002
14837KMSN MSN20090613052012806/13/09 05:20:31  5-MIN KMSN 131120Z 08005KT 2 1/2SM -RA BR FEW035 OVC060 13/13 A3001 780 96 800 080/05 RMK AO2 TWR VIS 3 P0002
14837KMSN MSN20090613052512606/13/09 05:25:31  5-MIN KMSN 131125Z 07004KT 3SM BR FEW035 OVC060 13/13 A3001 780 96 800 070/04 RMK AO2 SFC VIS 5 RAE24 P0002
14837KMSN MSN20090613053011606/13/09 05:30:31  5-MIN KMSN 131130Z 07004KT 5SM BR BKN055 OVC070 13/13 A3001 780 96 800 070/04 RMK AO2 RAE24 P0002
14837KMSN MSN20090613053512306/13/09 05:35:31  5-MIN KMSN 131135Z 08004KT 5SM BR FEW006 BKN055 OVC070 13/13 A3001 780 96 800 080/04 RMK AO2 RAE24 P0002
14837KMSN MSN20090613054012306/13/09 05:40:31  5-MIN KMSN 131140Z 08004KT 5SM BR FEW006 BKN060 OVC070 13/13 A3001 780 96 800 080/04 RMK AO2 RAE24 P0002
14837KMSN MSN20090613054512306/13/09 05:45:31  5-MIN KMSN 131145Z 08005KT 6SM BR FEW006 BKN055 OVC070 13/13 A3001 780 96 800 080/05 RMK AO2 RAE24 P0002
14837KMSN MSN20090613055016306/13/09 05:50:31  5-MIN KMSN 131150Z 08005KT 6SM BR FEW006 BKN060 14/13 A3001 780 93 900 080/05 RMK AO2 RAE24 SLP162 P0002 60020 70024 T01390128 10150 20133 53001
14837KMSN MSN20090613055510806/13/09 05:55:31  5-MIN KMSN 131155Z 09005KT 7SM FEW006 BKN055 OVC070 14/13 A3001 780 93 900 090/05 RMK AO2
14837KMSN MSN20090613060009406/13/09 06:00:31  5-MIN KMSN 131200Z 08005KT 7SM BKN060 14/13 A3001 780 93 900 080/05 RMK AO2
14837KMSN MSN20090613060509406/13/09 06:05:31  5-MIN KMSN 131205Z 07006KT 7SM OVC060 14/13 A3001 780 93 900 070/06 RMK AO2
14837KMSN MSN20090613061009406/13/09 06:10:31  5-MIN KMSN 131210Z 05005KT 7SM OVC050 14/12 A3002 780 90 900 050/05 RMK AO2
14837KMSN MSN20090613061511006/13/09 06:15:31  5-MIN KMSN 131215Z 05004KT 7SM -RA OVC050 14/13 A3002 780 93 900 050/04 RMK AO2 RAB13 P0000
14837KMSN MSN20090613062011006/13/09 06:20:31  5-MIN KMSN 131220Z 05004KT 7SM -RA OVC050 14/13 A3002 770 93 900 050/04 RMK AO2 RAB13 P0000
14837KMSN MSN20090613062510906/13/09 06:25:31  5-MIN KMSN 131225Z 04004KT 8SM OVC050 14/12 A3002 770 90 900 040/04 RMK AO2 RAB13E25 P0000
14837KMSN MSN20090613063010906/13/09 06:30:31  5-MIN KMSN 131230Z 05005KT 8SM OVC050 14/13 A3002 770 93 900 050/05 RMK AO2 RAB13E25 P0000
14837KMSN MSN20090613063510906/13/09 06:35:31  5-MIN KMSN 131235Z 04005KT 7SM OVC050 14/13 A3002 770 90 900 040/05 RMK AO2 RAB13E25 P0000
14837KMSN MSN20090613064010906/13/09 06:40:31  5-MIN KMSN 131240Z 04004KT 7SM OVC050 14/12 A3002 770 90 900 040/04 RMK AO2 RAB13E25 P0000
14837KMSN MSN20090613064510906/13/09 06:45:31  5-MIN KMSN 131245Z 04004KT 8SM OVC050 14/12 A3002 770 86 900 040/04 RMK AO2 RAB13E25 P0000
14837KMSN MSN20090613065012606/13/09 06:50:31  5-MIN KMSN 131250Z 03003KT 9SM OVC050 14/13 A3002 770 90 900 030/03 RMK AO2 RAB13E25 SLP163 P0000 T01440128
14837KMSN MSN20090613065509406/13/09 06:55:31  5-MIN KMSN 131255Z 03003KT 9SM OVC050 14/13 A3002 770 90 900 030/03 RMK AO2
14837KMSN MSN20090613070010106/13/09 07:00:31  5-MIN KMSN 131300Z 01003KT 9SM BKN050 OVC070 14/12 A3002 770 86 900 010/03 RMK AO2
14837KMSN MSN20090613070509406/13/09 07:05:31  5-MIN KMSN 131305Z 03003KT 8SM OVC055 14/12 A3002 770 86 900 030/03 RMK AO2
14837KMSN MSN20090613071009406/13/09 07:10:31  5-MIN KMSN 131310Z 36004KT 8SM OVC055 14/13 A3002 770 90 900 360/04 RMK AO2
14837KMSN MSN20090613071509406/13/09 07:15:31  5-MIN KMSN 131315Z 35005KT 8SM OVC050 14/13 A3003 770 90 900 350/05 RMK AO2
14837KMSN MSN20090613072009406/13/09 07:20:31  5-MIN KMSN 131320Z 36005KT 7SM OVC050 14/13 A3003 770 90 900 350/05 RMK AO2
14837KMSN MSN20090613072509406/13/09 07:25:31  5-MIN KMSN 131325Z 36005KT 7SM OVC050 14/13 A3003 760 90 900 360/05 RMK AO2
14837KMSN MSN20090613073009406/13/09 07:30:31  5-MIN KMSN 131330Z 36005KT 7SM OVC050 14/13 A3003 760 90 900 360/05 RMK AO2
14837KMSN MSN20090613073509506/13/09 07:35:31  5-MIN KMSN 131335Z 02005KT 7SM OVC050 15/13 A3003 760 86 1000 020/05 RMK AO2
14837KMSN MSN20090613074009506/13/09 07:40:31  5-MIN KMSN 131340Z 01005KT 7SM OVC050 15/13 A3003 760 86 1000 010/05 RMK AO2
14837KMSN MSN20090613074509506/13/09 07:45:31  5-MIN KMSN 131345Z 01005KT 7SM OVC050 15/13 A3003 760 86 1000 010/05 RMK AO2
14837KMSN MSN20090613075011206/13/09 07:50:31  5-MIN KMSN 131350Z 36005KT 7SM OVC050 15/13 A3003 760 90 1000 360/05 RMK AO2 SLP167 T01500133
14837KMSN MSN20090613075509506/13/09 07:55:31  5-MIN KMSN 131355Z 01005KT 8SM OVC055 15/13 A3003 760 90 1000 010/05 RMK AO2
14837KMSN MSN20090613080009506/13/09 08:00:31  5-MIN KMSN 131400Z 01004KT 8SM OVC055 16/13 A3003 760 83 1000 010/04 RMK AO2
14837KMSN MSN20090613080509506/13/09 08:05:31  5-MIN KMSN 131405Z 00000KT 9SM OVC055 16/13 A3003 760 83 1000 000/00 RMK AO2
14837KMSN MSN20090613081009506/13/09 08:10:31  5-MIN KMSN 131410Z 35004KT 9SM OVC055 16/13 A3003 760 83 1000 350/04 RMK AO2
14837KMSN MSN20090613081509506/13/09 08:15:31  5-MIN KMSN 131415Z 36005KT 9SM OVC055 16/13 A3003 760 83 1000 360/05 RMK AO2
14837KMSN MSN20090613082009506/13/09 08:20:31  5-MIN KMSN 131420Z 36005KT 9SM OVC055 16/13 A3003 760 83 1100 360/05 RMK AO2
14837KMSN MSN20090613082509506/13/09 08:25:31  5-MIN KMSN 131425Z 02004KT 9SM OVC050 16/13 A3003 760 83 1100 010/04 RMK AO2
14837KMSN MSN20090613083009606/13/09 08:30:31  5-MIN KMSN 131430Z 36004KT 10SM OVC050 16/13 A3003 760 83 1100 360/04 RMK AO2
14837KMSN MSN20090613083509606/13/09 08:35:31  5-MIN KMSN 131435Z 36004KT 10SM BKN050 16/13 A3003 760 83 1100 360/04 RMK AO2
14837KMSN MSN20090613084010306/13/09 08:40:31  5-MIN KMSN 131440Z 02003KT 10SM BKN050 BKN065 17/13 A3003 760 80 1200 020/03 RMK AO2
14837KMSN MSN20090613084510306/13/09 08:45:31  5-MIN KMSN 131445Z 03003KT 10SM BKN050 BKN070 17/13 A3003 760 80 1200 030/03 RMK AO2
14837KMSN MSN20090613085013206/13/09 08:50:31  5-MIN KMSN 131450Z 04004KT 10SM BKN050 BKN065 17/13 A3003 760 78 1200 040/04 RMK AO2 SLP167 60000 T01720133 53005
14837KMSN MSN20090613085510306/13/09 08:55:31  5-MIN KMSN 131455Z 00000KT 10SM SCT050 BKN070 17/13 A3003 760 75 1200 000/00 RMK AO2
14837KMSN MSN20090613090010306/13/09 09:00:31  5-MIN KMSN 131500Z 00000KT 10SM SCT050 BKN070 17/13 A3004 760 75 1200 000/00 RMK AO2
14837KMSN MSN20090613090510306/13/09 09:05:31  5-MIN KMSN 131505Z 00000KT 10SM SCT055 BKN070 17/13 A3003 760 75 1200 000/00 RMK AO2
14837KMSN MSN20090613091010306/13/09 09:10:31  5-MIN KMSN 131510Z 05003KT 10SM BKN055 BKN075 17/13 A3004 760 75 1200 050/03 RMK AO2
14837KMSN MSN20090613091510306/13/09 09:15:31  5-MIN KMSN 131515Z 00000KT 10SM SCT055 BKN070 17/13 A3004 760 75 1200 000/00 RMK AO2
14837KMSN MSN20090613092010306/13/09 09:20:31  5-MIN KMSN 131520Z 00000KT 10SM BKN060 BKN075 17/13 A3004 760 75 1200 000/00 RMK AO2
14837KMSN MSN20090613092510306/13/09 09:25:31  5-MIN KMSN 131525Z 00000KT 10SM SCT060 BKN075 18/12 A3003 760 69 1300 000/00 RMK AO2
14837KMSN MSN20090613093010306/13/09 09:30:31  5-MIN KMSN 131530Z 00000KT 10SM SCT060 SCT085 18/12 A3003 760 69 1300 000/00 RMK AO2
14837KMSN MSN20090613093509606/13/09 09:35:31  5-MIN KMSN 131535Z 00000KT 10SM FEW065 18/13 A3003 760 72 1300 000/00 RMK AO2
14837KMSN MSN20090613094009606/13/09 09:40:31  5-MIN KMSN 131540Z VRB03KT 10SM FEW065 18/12 A3003 760 69 1300 VRB/03 RMK AO2
14837KMSN MSN20090613094509606/13/09 09:45:31  5-MIN KMSN 131545Z 17004KT 10SM FEW070 18/12 A3003 760 65 1400 170/04 RMK AO2
14837KMSN MSN20090613095012006/13/09 09:50:31  5-MIN KMSN 131550Z 14007KT 10SM FEW025 SCT065 19/12 A3003 760 65 1400 140/07 RMK AO2 SLP167 T01890122
14837KMSN MSN20090613095510306/13/09 09:55:31  5-MIN KMSN 131555Z 14007KT 10SM FEW025 SCT065 18/11 A3003 760 62 1400 140/07 RMK AO2
14837KMSN MSN20090613100010306/13/09 10:00:31  5-MIN KMSN 131600Z 10006KT 10SM FEW025 SCT065 19/12 A3003 760 62 1400 100/06 RMK AO2
14837KMSN MSN20090613100510306/13/09 10:05:31  5-MIN KMSN 131605Z 11006KT 10SM FEW025 SCT065 19/11 A3003 760 60 1400 110/06 RMK AO2
14837KMSN MSN20090613101010306/13/09 10:10:31  5-MIN KMSN 131610Z 13008KT 10SM FEW025 SCT065 19/11 A3003 760 60 1400 130/08 RMK AO2
14837KMSN MSN20090613101510306/13/09 10:15:31  5-MIN KMSN 131615Z 13006KT 10SM FEW025 SCT065 19/11 A3003 760 58 1500 130/06 RMK AO2
14837KMSN MSN20090613102010306/13/09 10:20:31  5-MIN KMSN 131620Z 15009KT 10SM FEW025 SCT065 19/11 A3004 760 58 1500 150/09 RMK AO2
14837KMSN MSN20090613102510306/13/09 10:25:31  5-MIN KMSN 131625Z 10006KT 10SM FEW025 SCT065 19/11 A3004 760 58 1500 100/06 RMK AO2
14837KMSN MSN20090613103010306/13/09 10:30:31  5-MIN KMSN 131630Z VRB05KT 10SM FEW025 SCT065 19/11 A3003 760 58 1500 VRB/05 RMK AO2
14837KMSN MSN20090613103510306/13/09 10:35:31  5-MIN KMSN 131635Z 11008KT 10SM FEW025 SCT065 19/12 A3003 760 60 1500 110/08 RMK AO2
14837KMSN MSN20090613104009606/13/09 10:40:31  5-MIN KMSN 131640Z 10008KT 10SM SCT030 19/12 A3004 760 60 1500 090/08 RMK AO2
14837KMSN MSN20090613104509606/13/09 10:45:31  5-MIN KMSN 131645Z 14007KT 10SM SCT030 20/12 A3004 760 58 1600 140/07 RMK AO2
14837KMSN MSN20090613105011306/13/09 10:50:31  5-MIN KMSN 131650Z VRB03KT 10SM SCT032 19/11 A3003 760 60 1400 VRB/03 RMK AO2 SLP169 T01890111
14837KMSN MSN20090613105509606/13/09 10:55:31  5-MIN KMSN 131655Z 12007KT 10SM SCT035 19/11 A3003 760 60 1400 120/07 RMK AO2
14837KMSN MSN20090613110009606/13/09 11:00:31  5-MIN KMSN 131700Z 10007KT 10SM SCT035 20/12 A3003 760 58 1600 100/07 RMK AO2
14837KMSN MSN20090613110509606/13/09 11:05:31  5-MIN KMSN 131705Z 14006KT 10SM SCT035 20/12 A3004 760 58 1600 140/06 RMK AO2
14837KMSN MSN20090613111009606/13/09 11:10:31  5-MIN KMSN 131710Z 16005KT 10SM SCT035 19/11 A3004 760 58 1500 160/05 RMK AO2
14837KMSN MSN20090613111509606/13/09 11:15:31  5-MIN KMSN 131715Z 07006KT 10SM SCT035 19/11 A3004 760 58 1500 070/06 RMK AO2
14837KMSN MSN20090613112011206/13/09 11:20:31  5-MIN KMSN 131720Z 11007KT 090V150 10SM SCT035 20/12 A3004 760 58 1600 110/07 090V150 RMK AO2
14837KMSN MSN20090613112509606/13/09 11:25:31  5-MIN KMSN 131725Z 07005KT 10SM BKN035 20/12 A3003 760 58 1600 070/05 RMK AO2
14837KMSN MSN20090613113009606/13/09 11:30:31  5-MIN KMSN 131730Z 10005KT 10SM SCT035 20/12 A3003 760 58 1600 100/05 RMK AO2
14837KMSN MSN20090613113509606/13/09 11:35:31  5-MIN KMSN 131735Z VRB05KT 10SM SCT035 20/12 A3004 760 58 1600 VRB/05 RMK AO2
14837KMSN MSN20090613114009606/13/09 11:40:31  5-MIN KMSN 131740Z 13005KT 10SM BKN035 20/12 A3004 760 58 1600 130/05 RMK AO2
14837KMSN MSN20090613114509606/13/09 11:45:31  5-MIN KMSN 131745Z 00000KT 10SM BKN035 20/12 A3003 760 58 1600 000/00 RMK AO2
14837KMSN MSN20090613115013706/13/09 11:50:31  5-MIN KMSN 131750Z VRB04KT 10SM BKN035 20/12 A3004 760 58 1600 VRB/04 RMK AO2 SLP170 60000 T02000117 10200 20139 51006
14837KMSN MSN20090613115509606/13/09 11:55:31  5-MIN KMSN 131755Z 12006KT 10SM BKN035 20/12 A3003 760 58 1600 120/06 RMK AO2
14837KMSN MSN20090613120009606/13/09 12:00:31  5-MIN KMSN 131800Z VRB03KT 10SM BKN037 20/12 A3004 760 58 1600 VRB/03 RMK AO2
14837KMSN MSN20090613120509606/13/09 12:05:31  5-MIN KMSN 131805Z VRB05KT 10SM BKN037 21/12 A3004 760 56 1600 VRB/05 RMK AO2
14837KMSN MSN20090613121009606/13/09 12:10:31  5-MIN KMSN 131810Z 14005KT 10SM BKN037 19/12 A3004 760 60 1500 140/05 RMK AO2
14837KMSN MSN20090613121509606/13/09 12:15:31  5-MIN KMSN 131815Z 16006KT 10SM BKN037 19/12 A3004 760 60 1500 160/06 RMK AO2
14837KMSN MSN20090613122009606/13/09 12:20:31  5-MIN KMSN 131820Z VRB04KT 10SM BKN039 19/12 A3004 760 60 1500 VRB/04 RMK AO2
14837KMSN MSN20090613122509606/13/09 12:25:31  5-MIN KMSN 131825Z VRB03KT 10SM BKN041 20/12 A3003 760 60 1600 VRB/03 RMK AO2
14837KMSN MSN20090613123009606/13/09 12:30:31  5-MIN KMSN 131830Z 00000KT 10SM BKN041 20/12 A3003 760 58 1600 000/00 RMK AO2
14837KMSN MSN20090613123509606/13/09 12:35:31  5-MIN KMSN 131835Z 00000KT 10SM BKN041 20/12 A3003 760 58 1600 000/00 RMK AO2
14837KMSN MSN20090613124010306/13/09 12:40:31  5-MIN KMSN 131840Z 00000KT 10SM BKN038 BKN045 20/11 A3003 760 56 1600 000/00 RMK AO2
14837KMSN MSN20090613124510306/13/09 12:45:31  5-MIN KMSN 131845Z VRB03KT 10SM BKN036 BKN045 20/12 A3003 760 58 1600 VRB/03 RMK AO2
14837KMSN MSN20090613125011306/13/09 12:50:31  5-MIN KMSN 131850Z VRB03KT 10SM BKN036 20/12 A3003 760 58 1600 VRB/03 RMK AO2 SLP168 T02000117
14837KMSN MSN20090613125509606/13/09 12:55:31  5-MIN KMSN 131855Z 06003KT 10SM BKN038 20/12 A3003 760 58 1600 060/03 RMK AO2
14837KMSN MSN20090613130009606/13/09 13:00:31  5-MIN KMSN 131900Z 00000KT 10SM BKN038 21/12 A3003 760 56 1600 000/00 RMK AO2
14837KMSN MSN20090613130509606/13/09 13:05:31  5-MIN KMSN 131905Z 06003KT 10SM BKN038 21/12 A3003 760 58 1600 060/03 RMK AO2
14837KMSN MSN20090613131009606/13/09 13:10:31  5-MIN KMSN 131910Z 00000KT 10SM BKN038 21/12 A3003 770 56 1600 000/00 RMK AO2
14837KMSN MSN20090613131509606/13/09 13:15:31  5-MIN KMSN 131915Z 06004KT 10SM BKN038 21/12 A3002 770 54 1700 060/04 RMK AO2
14837KMSN MSN20090613132009606/13/09 13:20:31  5-MIN KMSN 131920Z 07005KT 10SM BKN038 21/12 A3002 770 56 1600 070/05 RMK AO2
14837KMSN MSN20090613132509606/13/09 13:25:31  5-MIN KMSN 131925Z 07006KT 10SM BKN038 21/12 A3002 770 58 1600 070/06 RMK AO2
14837KMSN MSN20090613133009606/13/09 13:30:31  5-MIN KMSN 131930Z 09004KT 10SM BKN038 20/12 A3002 770 58 1600 090/04 RMK AO2
14837KMSN MSN20090613133509606/13/09 13:35:31  5-MIN KMSN 131935Z 00000KT 10SM BKN038 20/12 A3002 770 58 1600 000/00 RMK AO2
14837KMSN MSN20090613134009606/13/09 13:40:31  5-MIN KMSN 131940Z 00000KT 10SM BKN038 21/12 A3002 770 56 1600 000/00 RMK AO2
14837KMSN MSN20090613134509606/13/09 13:45:31  5-MIN KMSN 131945Z 00000KT 10SM BKN038 20/12 A3002 770 58 1600 000/00 RMK AO2
14837KMSN MSN20090613135011306/13/09 13:50:31  5-MIN KMSN 131950Z 10005KT 10SM BKN038 21/12 A3002 770 56 1700 100/05 RMK AO2 SLP163 T02110122
14837KMSN MSN20090613135509606/13/09 13:55:31  5-MIN KMSN 131955Z 00000KT 10SM BKN042 21/12 A3002 770 56 1600 000/00 RMK AO2
14837KMSN MSN20090613140009606/13/09 14:00:31  5-MIN KMSN 132000Z 00000KT 10SM BKN042 21/12 A3002 780 54 1700 000/00 RMK AO2
14837KMSN MSN20090613140509606/13/09 14:05:31  5-MIN KMSN 132005Z 00000KT 10SM BKN042 22/12 A3002 780 51 1800 000/00 RMK AO2
14837KMSN MSN20090613141009606/13/09 14:10:31  5-MIN KMSN 132010Z 00000KT 10SM BKN042 22/11 A3001 780 50 1800 000/00 RMK AO2
14837KMSN MSN20090613141509606/13/09 14:15:31  5-MIN KMSN 132015Z 00000KT 10SM BKN042 21/11 A3002 780 52 1700 000/00 RMK AO2
14837KMSN MSN20090613142009606/13/09 14:20:31  5-MIN KMSN 132020Z 31004KT 10SM BKN042 21/12 A3002 770 56 1700 310/04 RMK AO2
14837KMSN MSN20090613142509606/13/09 14:25:31  5-MIN KMSN 132025Z 31006KT 10SM BKN042 21/12 A3002 780 56 1700 310/06 RMK AO2
14837KMSN MSN20090613143009606/13/09 14:30:31  5-MIN KMSN 132030Z 00000KT 10SM BKN042 21/12 A3001 780 56 1600 000/00 RMK AO2
14837KMSN MSN20090613143509606/13/09 14:35:31  5-MIN KMSN 132035Z 36003KT 10SM BKN042 21/12 A3002 780 54 1700 360/03 RMK AO2
14837KMSN MSN20090613144009606/13/09 14:40:31  5-MIN KMSN 132040Z VRB04KT 10SM BKN042 21/12 A3002 780 56 1600 VRB/04 RMK AO2
14837KMSN MSN20090613144509606/13/09 14:45:31  5-MIN KMSN 132045Z 32003KT 10SM BKN042 21/12 A3002 780 56 1600 320/03 RMK AO2
14837KMSN MSN20090613145012606/13/09 14:50:31  5-MIN KMSN 132050Z 33003KT 10SM BKN042 BKN050 21/12 A3001 780 56 1700 330/03 RMK AO2 SLP162 T02110122 53000
14837KMSN MSN20090613145510306/13/09 14:55:31  5-MIN KMSN 132055Z 00000KT 10SM SCT042 BKN050 22/12 A3001 780 54 1800 000/00 RMK AO2
14837KMSN MSN20090613150010306/13/09 15:00:31  5-MIN KMSN 132100Z VRB04KT 10SM SCT042 BKN050 22/13 A3001 780 54 1800 VRB/04 RMK AO2
14837KMSN MSN20090613150509606/13/09 15:05:31  5-MIN KMSN 132105Z 00000KT 10SM BKN050 22/12 A3001 780 54 1800 000/00 RMK AO2
14837KMSN MSN20090613151009606/13/09 15:10:31  5-MIN KMSN 132110Z 00000KT 10SM BKN050 22/12 A3001 780 54 1800 000/00 RMK AO2
14837KMSN MSN20090613151509606/13/09 15:15:31  5-MIN KMSN 132115Z 34003KT 10SM BKN050 22/12 A3001 780 52 1800 330/03 RMK AO2
14837KMSN MSN20090613152009606/13/09 15:20:31  5-MIN KMSN 132120Z 34003KT 10SM BKN050 22/12 A3001 780 54 1800 340/03 RMK AO2
14837KMSN MSN20090613152509606/13/09 15:25:31  5-MIN KMSN 132125Z 00000KT 10SM BKN050 21/12 A3001 780 54 1700 000/00 RMK AO2
14837KMSN MSN20090613153009606/13/09 15:30:31  5-MIN KMSN 132130Z 00000KT 10SM SCT050 21/12 A3001 780 54 1700 000/00 RMK AO2
14837KMSN MSN20090613153509606/13/09 15:35:31  5-MIN KMSN 132135Z 00000KT 10SM FEW050 21/12 A3001 780 54 1700 000/00 RMK AO2
14837KMSN MSN20090613154009606/13/09 15:40:31  5-MIN KMSN 132140Z 00000KT 10SM FEW050 22/12 A3001 780 54 1800 000/00 RMK AO2
14837KMSN MSN20090613154509606/13/09 15:45:31  5-MIN KMSN 132145Z 00000KT 10SM FEW050 22/12 A3000 790 52 1800 000/00 RMK AO2
14837KMSN MSN20090613155011006/13/09 15:50:31  5-MIN KMSN 132150Z 00000KT 10SM CLR 22/12 A3000 790 52 1800 000/00 RMK AO2 SLP157 T02170117
14837KMSN MSN20090613155509306/13/09 15:55:31  5-MIN KMSN 132155Z 00000KT 10SM CLR 22/12 A3000 790 54 1800 000/00 RMK AO2
14837KMSN MSN20090613160009606/13/09 16:00:31  5-MIN KMSN 132200Z 00000KT 10SM SCT043 21/12 A3000 790 54 1700 000/00 RMK AO2
14837KMSN MSN20090613160509606/13/09 16:05:31  5-MIN KMSN 132205Z 00000KT 10SM SCT043 22/12 A3000 790 52 1800 000/00 RMK AO2
14837KMSN MSN20090613161009606/13/09 16:10:31  5-MIN KMSN 132210Z 00000KT 10SM SCT043 22/12 A2999 800 52 1800 000/00 RMK AO2
14837KMSN MSN20090613161509606/13/09 16:15:31  5-MIN KMSN 132215Z 00000KT 10SM SCT043 22/12 A2999 800 51 1900 000/00 RMK AO2
14837KMSN MSN20090613162009606/13/09 16:20:31  5-MIN KMSN 132220Z 00000KT 10SM SCT043 22/12 A2999 800 51 1900 000/00 RMK AO2
14837KMSN MSN20090613162509606/13/09 16:25:31  5-MIN KMSN 132225Z 15004KT 10SM SCT043 22/12 A2999 800 52 1800 150/04 RMK AO2
14837KMSN MSN20090613163009606/13/09 16:30:31  5-MIN KMSN 132230Z 00000KT 10SM SCT043 22/12 A2999 800 52 1800 000/00 RMK AO2
14837KMSN MSN20090613163509606/13/09 16:35:31  5-MIN KMSN 132235Z 00000KT 10SM SCT043 22/11 A2998 810 50 1800 000/00 RMK AO2
14837KMSN MSN20090613164009606/13/09 16:40:31  5-MIN KMSN 132240Z 00000KT 10SM SCT043 22/12 A2998 810 52 1800 000/00 RMK AO2
14837KMSN MSN20090613164509606/13/09 16:45:31  5-MIN KMSN 132245Z 00000KT 10SM SCT043 22/12 A2998 810 54 1800 000/00 RMK AO2
14837KMSN MSN20090613165011306/13/09 16:50:31  5-MIN KMSN 132250Z 00000KT 10SM SCT043 22/11 A2998 810 50 1800 000/00 RMK AO2 SLP150 T02170111
14837KMSN MSN20090613165509306/13/09 16:55:31  5-MIN KMSN 132255Z 00000KT 10SM CLR 21/12 A2998 810 54 1700 000/00 RMK AO2
14837KMSN MSN20090613170009606/13/09 17:00:31  5-MIN KMSN 132300Z 00000KT 10SM SCT043 21/12 A2998 810 54 1700 000/00 RMK AO2
14837KMSN MSN20090613170509606/13/09 17:05:31  5-MIN KMSN 132305Z 00000KT 10SM SCT043 21/11 A2998 810 52 1700 000/00 RMK AO2
14837KMSN MSN20090613171009606/13/09 17:10:31  5-MIN KMSN 132310Z 00000KT 10SM SCT043 21/12 A2998 810 54 1700 000/00 RMK AO2
14837KMSN MSN20090613171509606/13/09 17:15:31  5-MIN KMSN 132315Z 00000KT 10SM SCT043 22/12 A2998 810 52 1800 000/00 RMK AO2
14837KMSN MSN20090613172009606/13/09 17:20:31  5-MIN KMSN 132320Z 00000KT 10SM SCT043 22/12 A2998 810 52 1800 000/00 RMK AO2
14837KMSN MSN20090613172509606/13/09 17:25:31  5-MIN KMSN 132325Z 23003KT 10SM SCT043 22/12 A2998 810 54 1800 230/03 RMK AO2
14837KMSN MSN20090613173009606/13/09 17:30:31  5-MIN KMSN 132330Z 00000KT 10SM SCT043 22/11 A2998 810 50 1800 000/00 RMK AO2
14837KMSN MSN20090613173509606/13/09 17:35:31  5-MIN KMSN 132335Z 00000KT 10SM SCT043 22/12 A2997 810 51 1900 000/00 RMK AO2
14837KMSN MSN20090613174009606/13/09 17:40:31  5-MIN KMSN 132340Z 00000KT 10SM SCT043 22/12 A2997 810 52 1800 000/00 RMK AO2
14837KMSN MSN20090613174509606/13/09 17:45:31  5-MIN KMSN 132345Z 00000KT 10SM SCT043 22/12 A2998 810 52 1800 000/00 RMK AO2
14837KMSN MSN20090613175013106/13/09 17:50:31  5-MIN KMSN 132350Z 00000KT 10SM SCT041 22/12 A2998 810 52 1900 000/00 RMK AO2 SLP149 T02220122 10222 20194 58007
14837KMSN MSN20090613175509606/13/09 17:55:31  5-MIN KMSN 132355Z 00000KT 10SM SCT043 22/12 A2998 810 51 1900 000/00 RMK AO2
14837KMSN MSN20090613180009606/13/09 18:00:31  5-MIN KMSN 140000Z 00000KT 10SM FEW043 22/12 A2998 810 51 1900 000/00 RMK AO2
14837KMSN MSN20090613180509606/13/09 18:05:31  5-MIN KMSN 140005Z 00000KT 10SM SCT041 22/12 A2998 810 54 1800 000/00 RMK AO2
14837KMSN MSN20090613181009606/13/09 18:10:31  5-MIN KMSN 140010Z 00000KT 10SM SCT041 22/12 A2998 810 54 1800 000/00 RMK AO2
14837KMSN MSN20090613181509606/13/09 18:15:31  5-MIN KMSN 140015Z 00000KT 10SM SCT041 22/12 A2998 810 51 1900 000/00 RMK AO2
14837KMSN MSN20090613182009606/13/09 18:20:31  5-MIN KMSN 140020Z 00000KT 10SM SCT041 22/12 A2998 810 52 1800 000/00 RMK AO2
14837KMSN MSN20090613182509606/13/09 18:25:31  5-MIN KMSN 140025Z 00000KT 10SM SCT041 21/11 A2999 800 52 1700 000/00 RMK AO2
14837KMSN MSN20090613183009606/13/09 18:30:31  5-MIN KMSN 140030Z 26003KT 10SM SCT041 21/11 A2999 800 52 1700 260/03 RMK AO2
14837KMSN MSN20090613183509606/13/09 18:35:31  5-MIN KMSN 140035Z 27003KT 10SM SCT041 21/11 A2999 800 52 1700 270/03 RMK AO2
14837KMSN MSN20090613184009606/13/09 18:40:31  5-MIN KMSN 140040Z 00000KT 10SM SCT041 21/11 A2999 800 52 1700 000/00 RMK AO2
14837KMSN MSN20090613184509606/13/09 18:45:31  5-MIN KMSN 140045Z 00000KT 10SM SCT041 21/12 A2999 800 54 1700 000/00 RMK AO2
14837KMSN MSN20090613185011306/13/09 18:50:31  5-MIN KMSN 140050Z 00000KT 10SM SCT041 21/11 A2999 800 52 1700 000/00 RMK AO2 SLP153 T02110111
14837KMSN MSN20090613185509306/13/09 18:55:31  5-MIN KMSN 140055Z 00000KT 10SM CLR 21/11 A2999 800 54 1700 000/00 RMK AO2
14837KMSN MSN20090613190009606/13/09 19:00:31  5-MIN KMSN 140100Z 00000KT 10SM SCT041 21/11 A2999 800 54 1700 000/00 RMK AO2
14837KMSN MSN20090613190509606/13/09 19:05:31  5-MIN KMSN 140105Z 00000KT 10SM SCT041 21/11 A2999 800 54 1700 000/00 RMK AO2
14837KMSN MSN20090613191009606/13/09 19:10:31  5-MIN KMSN 140110Z 00000KT 10SM SCT041 21/11 A2999 800 54 1700 000/00 RMK AO2
14837KMSN MSN20090613191509606/13/09 19:15:31  5-MIN KMSN 140115Z 00000KT 10SM SCT041 20/11 A2999 800 56 1600 000/00 RMK AO2
14837KMSN MSN20090613192009606/13/09 19:20:31  5-MIN KMSN 140120Z 00000KT 10SM SCT041 19/12 A2999 800 60 1500 000/00 RMK AO2
14837KMSN MSN20090613192509606/13/09 19:25:31  5-MIN KMSN 140125Z 00000KT 10SM SCT041 18/12 A2999 800 67 1400 000/00 RMK AO2
14837KMSN MSN20090613193009606/13/09 19:30:31  5-MIN KMSN 140130Z 00000KT 10SM SCT041 19/12 A2999 800 65 1500 000/00 RMK AO2
14837KMSN MSN20090613193509606/13/09 19:35:31  5-MIN KMSN 140135Z 00000KT 10SM SCT041 19/12 A2999 800 65 1500 000/00 RMK AO2
14837KMSN MSN20090613194009606/13/09 19:40:31  5-MIN KMSN 140140Z 00000KT 10SM SCT041 18/12 A2999 800 69 1400 000/00 RMK AO2
14837KMSN MSN20090613194509606/13/09 19:45:31  5-MIN KMSN 140145Z 00000KT 10SM SCT041 17/12 A2999 800 72 1300 000/00 RMK AO2
14837KMSN MSN20090613195011306/13/09 19:50:31  5-MIN KMSN 140150Z 00000KT 10SM SCT041 17/12 A2999 800 69 1300 000/00 RMK AO2 SLP154 T01720117
14837KMSN MSN20090613195509606/13/09 19:55:31  5-MIN KMSN 140155Z 00000KT 10SM FEW041 18/12 A2999 800 67 1400 000/00 RMK AO2
14837KMSN MSN20090613200009606/13/09 20:00:31  5-MIN KMSN 140200Z 00000KT 10SM FEW041 17/12 A2999 800 69 1300 000/00 RMK AO2
14837KMSN MSN20090613200509606/13/09 20:05:31  5-MIN KMSN 140205Z 00000KT 10SM FEW041 17/12 A2999 800 75 1200 000/00 RMK AO2
14837KMSN MSN20090613201009606/13/09 20:10:31  5-MIN KMSN 140210Z 00000KT 10SM FEW041 16/12 A2999 800 77 1200 000/00 RMK AO2
14837KMSN MSN20090613201509606/13/09 20:15:31  5-MIN KMSN 140215Z 00000KT 10SM FEW041 16/13 A2999 800 80 1200 000/00 RMK AO2
14837KMSN MSN20090613202009606/13/09 20:20:31  5-MIN KMSN 140220Z 00000KT 10SM FEW041 16/13 A3000 790 80 1100 000/00 RMK AO2
14837KMSN MSN20090613202509606/13/09 20:25:31  5-MIN KMSN 140225Z 00000KT 10SM FEW041 16/13 A3000 790 80 1100 000/00 RMK AO2
14837KMSN MSN20090613203009606/13/09 20:30:31  5-MIN KMSN 140230Z 00000KT 10SM FEW041 17/12 A3000 790 75 1200 000/00 RMK AO2
14837KMSN MSN20090613203509606/13/09 20:35:31  5-MIN KMSN 140235Z 22003KT 10SM FEW041 17/12 A3000 790 75 1200 220/03 RMK AO2
14837KMSN MSN20090613204009606/13/09 20:40:31  5-MIN KMSN 140240Z 00000KT 10SM FEW041 17/13 A3000 790 75 1300 000/00 RMK AO2
14837KMSN MSN20090613204509606/13/09 20:45:31  5-MIN KMSN 140245Z 00000KT 10SM FEW041 17/12 A3001 790 72 1300 000/00 RMK AO2
14837KMSN MSN20090613205011906/13/09 20:50:31  5-MIN KMSN 140250Z 00000KT 10SM FEW041 16/12 A3001 780 77 1100 000/00 RMK AO2 SLP160 T01610122 56012
14837KMSN MSN20090613205509306/13/09 20:55:31  5-MIN KMSN 140255Z 00000KT 10SM CLR 16/12 A3001 780 80 1100 000/00 RMK AO2
14837KMSN MSN20090613210009306/13/09 21:00:31  5-MIN KMSN 140300Z 00000KT 10SM CLR 16/12 A3001 790 80 1100 000/00 RMK AO2
14837KMSN MSN20090613210509306/13/09 21:05:31  5-MIN KMSN 140305Z 00000KT 10SM CLR 16/12 A3001 790 80 1100 000/00 RMK AO2
14837KMSN MSN20090613211009306/13/09 21:10:31  5-MIN KMSN 140310Z 00000KT 10SM CLR 17/13 A3000 790 77 1200 000/00 RMK AO2
14837KMSN MSN20090613211509306/13/09 21:15:31  5-MIN KMSN 140315Z 21003KT 10SM CLR 17/13 A3000 790 77 1200 210/03 RMK AO2
14837KMSN MSN20090613212009306/13/09 21:20:31  5-MIN KMSN 140320Z 00000KT 10SM CLR 17/13 A3000 790 77 1200 000/00 RMK AO2
14837KMSN MSN20090613212509306/13/09 21:25:31  5-MIN KMSN 140325Z 00000KT 10SM CLR 17/13 A3001 780 75 1300 000/00 RMK AO2
14837KMSN MSN20090613213009306/13/09 21:30:31  5-MIN KMSN 140330Z 00000KT 10SM CLR 16/12 A3001 780 77 1100 000/00 RMK AO2
14837KMSN MSN20090613213509306/13/09 21:35:31  5-MIN KMSN 140335Z 00000KT 10SM CLR 15/12 A3001 790 83 1000 000/00 RMK AO2
14837KMSN MSN20090613214009306/13/09 21:40:31  5-MIN KMSN 140340Z 00000KT 10SM CLR 16/13 A3000 790 83 1100 000/00 RMK AO2
14837KMSN MSN20090613214509306/13/09 21:45:31  5-MIN KMSN 140345Z 00000KT 10SM CLR 16/13 A3001 790 83 1100 000/00 RMK AO2
14837KMSN MSN20090613215011006/13/09 21:50:31  5-MIN KMSN 140350Z 22003KT 10SM CLR 16/13 A3000 790 83 1100 220/03 RMK AO2 SLP159 T01560128
14837KMSN MSN20090613215509306/13/09 21:55:31  5-MIN KMSN 140355Z 00000KT 10SM CLR 16/13 A3000 790 80 1100 000/00 RMK AO2
14837KMSN MSN20090613220009306/13/09 22:00:31  5-MIN KMSN 140400Z 00000KT 10SM CLR 15/13 A3001 790 86 1000 000/00 RMK AO2
14837KMSN MSN20090613220509306/13/09 22:05:31  5-MIN KMSN 140405Z 00000KT 10SM CLR 15/12 A3000 790 83 1000 000/00 RMK AO2
14837KMSN MSN20090613221009206/13/09 22:10:31  5-MIN KMSN 140410Z 00000KT 10SM CLR 14/12 A3000 790 86 900 000/00 RMK AO2
14837KMSN MSN20090613221509206/13/09 22:15:31  5-MIN KMSN 140415Z 00000KT 10SM CLR 14/12 A3000 790 86 900 000/00 RMK AO2
14837KMSN MSN20090613222009206/13/09 22:20:31  5-MIN KMSN 140420Z 00000KT 10SM CLR 14/12 A3000 790 86 900 000/00 RMK AO2
14837KMSN MSN20090613222509206/13/09 22:25:31  5-MIN KMSN 140425Z 00000KT 10SM CLR 14/13 A3000 790 90 900 000/00 RMK AO2
14837KMSN MSN20090613223009306/13/09 22:30:31  5-MIN KMSN 140430Z 00000KT 10SM CLR 15/13 A3000 790 86 1000 000/00 RMK AO2
14837KMSN MSN20090613223509206/13/09 22:35:31  5-MIN KMSN 140435Z 00000KT 10SM CLR 14/12 A3000 790 83 900 000/00 RMK AO2
14837KMSN MSN20090613224009206/13/09 22:40:31  5-MIN KMSN 140440Z 00000KT 10SM CLR 14/12 A3000 790 86 900 000/00 RMK AO2
14837KMSN MSN20090613224509206/13/09 22:45:31  5-MIN KMSN 140445Z 00000KT 10SM CLR 14/12 A3000 790 86 900 000/00 RMK AO2
14837KMSN MSN20090613225010906/13/09 22:50:31  5-MIN KMSN 140450Z 00000KT 10SM CLR 14/13 A3001 790 90 900 000/00 RMK AO2 SLP159 T01440128
14837KMSN MSN20090613225509206/13/09 22:55:31  5-MIN KMSN 140455Z 00000KT 10SM CLR 14/13 A3000 790 90 900 000/00 RMK AO2
14837KMSN MSN20090613230009306/13/09 23:00:31  5-MIN KMSN 140500Z 00000KT 10SM CLR 15/13 A3001 790 86 1000 000/00 RMK AO2
14837KMSN MSN20090613230509206/13/09 23:05:31  5-MIN KMSN 140505Z 00000KT 10SM CLR 14/13 A3001 790 90 900 000/00 RMK AO2
14837KMSN MSN20090613231009306/13/09 23:10:31  5-MIN KMSN 140510Z 00000KT 10SM CLR 15/13 A3001 780 86 1000 000/00 RMK AO2
14837KMSN MSN20090613231509206/13/09 23:15:31  5-MIN KMSN 140515Z 00000KT 10SM CLR 14/13 A3000 790 90 900 000/00 RMK AO2
14837KMSN MSN20090613232009206/13/09 23:20:31  5-MIN KMSN 140520Z 00000KT 10SM CLR 14/13 A3000 790 90 900 000/00 RMK AO2
14837KMSN MSN20090613232509106/13/09 23:25:31  5-MIN KMSN 140525Z 00000KT 9SM CLR 14/13 A3000 790 93 900 000/00 RMK AO2
14837KMSN MSN20090613233009106/13/09 23:30:31  5-MIN KMSN 140530Z 00000KT 9SM CLR 14/13 A3000 790 90 900 000/00 RMK AO2
14837KMSN MSN20090613233509106/13/09 23:35:31  5-MIN KMSN 140535Z 00000KT 9SM CLR 14/13 A3001 780 90 900 000/00 RMK AO2
14837KMSN MSN20090613234009106/13/09 23:40:31  5-MIN KMSN 140540Z 00000KT 9SM CLR 14/13 A3001 780 93 900 000/00 RMK AO2
14837KMSN MSN20090613234509106/13/09 23:45:31  5-MIN KMSN 140545Z 00000KT 8SM CLR 14/13 A3001 780 93 900 000/00 RMK AO2
14837KMSN MSN20090613235013606/13/09 23:50:31  5-MIN KMSN 140550Z 00000KT 7SM CLR 14/13 A3001 780 96 900 000/00 RMK AO2 SLP160 T01390133 10222 20139 402220133 53009
14837KMSN MSN20090613235509406/13/09 23:55:31  5-MIN KMSN 140555Z 00000KT 6SM BR CLR 13/13 A3001 780 96 800 000/00 RMK AO2
14837KMSN MSN20090614000009406/14/09 00:00:32  5-MIN KMSN 140600Z 00000KT 6SM BR CLR 14/13 A3001 780 93 900 000/00 RMK AO2
14837KMSN MSN20090614000509106/14/09 00:05:31  5-MIN KMSN 140605Z 00000KT 8SM CLR 14/13 A3001 780 93 900 000/00 RMK AO2
14837KMSN MSN20090614001009106/14/09 00:10:31  5-MIN KMSN 140610Z 00000KT 8SM CLR 14/13 A3001 780 93 900 000/00 RMK AO2
14837KMSN MSN20090614001509106/14/09 00:15:31  5-MIN KMSN 140615Z 00000KT 9SM CLR 13/13 A3001 780 96 800 000/00 RMK AO2
14837KMSN MSN20090614002009106/14/09 00:20:31  5-MIN KMSN 140620Z 00000KT 9SM CLR 14/13 A3001 790 93 900 000/00 RMK AO2
14837KMSN MSN20090614002509206/14/09 00:25:31  5-MIN KMSN 140625Z 00000KT 10SM CLR 14/13 A3000 790 93 900 000/00 RMK AO2
14837KMSN MSN20090614003009106/14/09 00:30:31  5-MIN KMSN 140630Z 00000KT 9SM CLR 13/12 A3000 790 93 800 000/00 RMK AO2
14837KMSN MSN20090614003509406/14/09 00:35:31  5-MIN KMSN 140635Z 00000KT 6SM BR CLR 13/12 A3000 790 93 800 000/00 RMK AO2
14837KMSN MSN20090614004009406/14/09 00:40:31  5-MIN KMSN 140640Z 00000KT 6SM BR CLR 13/12 A3000 790 89 800 000/00 RMK AO2
14837KMSN MSN20090614004509106/14/09 00:45:31  5-MIN KMSN 140645Z 00000KT 9SM CLR 13/12 A3000 790 89 800 000/00 RMK AO2
14837KMSN MSN20090614005010806/14/09 00:50:31  5-MIN KMSN 140650Z 00000KT 8SM CLR 13/12 A3000 790 89 800 000/00 RMK AO2 SLP159 T01330117
14837KMSN MSN20090614005509106/14/09 00:55:31  5-MIN KMSN 140655Z 00000KT 8SM CLR 13/12 A3000 790 89 800 000/00 RMK AO2
14837KMSN MSN20090614010009106/14/09 01:00:31  5-MIN KMSN 140700Z 00000KT 7SM CLR 13/12 A3001 780 93 800 000/00 RMK AO2
14837KMSN MSN20090614010509106/14/09 01:05:31  5-MIN KMSN 140705Z 00000KT 7SM CLR 13/12 A3001 780 96 700 000/00 RMK AO2
14837KMSN MSN20090614011009106/14/09 01:10:31  5-MIN KMSN 140710Z 00000KT 7SM CLR 13/12 A3001 780 93 800 000/00 RMK AO2
14837KMSN MSN20090614011509106/14/09 01:15:31  5-MIN KMSN 140715Z 00000KT 7SM CLR 13/12 A3001 780 93 800 000/00 RMK AO2
14837KMSN MSN20090614012009406/14/09 01:20:31  5-MIN KMSN 140720Z 00000KT 6SM BR CLR 13/12 A3001 780 93 800 000/00 RMK AO2
14837KMSN MSN20090614012509406/14/09 01:25:31  5-MIN KMSN 140725Z 00000KT 6SM BR CLR 13/12 A3001 780 93 800 000/00 RMK AO2
14837KMSN MSN20090614013009106/14/09 01:30:31  5-MIN KMSN 140730Z 00000KT 7SM CLR 13/12 A3001 790 93 700 000/00 RMK AO2
14837KMSN MSN20090614013509106/14/09 01:35:31  5-MIN KMSN 140735Z 00000KT 8SM CLR 12/11 A3000 790 96 600 000/00 RMK AO2
14837KMSN MSN20090614014009106/14/09 01:40:31  5-MIN KMSN 140740Z 00000KT 8SM CLR 12/11 A3000 790 93 700 000/00 RMK AO2
14837KMSN MSN20090614014509106/14/09 01:45:31  5-MIN KMSN 140745Z 00000KT 8SM CLR 13/12 A3001 790 93 700 000/00 RMK AO2
14837KMSN MSN20090614015010806/14/09 01:50:31  5-MIN KMSN 140750Z 00000KT 7SM CLR 13/12 A3000 790 89 800 000/00 RMK AO2 SLP159 T01330117
14837KMSN MSN20090614015509106/14/09 01:55:31  5-MIN KMSN 140755Z 00000KT 7SM CLR 13/12 A3000 790 89 800 000/00 RMK AO2
14837KMSN MSN20090614020009106/14/09 02:00:31  5-MIN KMSN 140800Z 00000KT 7SM CLR 13/12 A3000 790 89 800 000/00 RMK AO2
14837KMSN MSN20090614020509106/14/09 02:05:31  5-MIN KMSN 140805Z 00000KT 8SM CLR 13/11 A3000 790 89 800 000/00 RMK AO2
14837KMSN MSN20090614021009106/14/09 02:10:31  5-MIN KMSN 140810Z 00000KT 8SM CLR 13/11 A3000 790 89 800 000/00 RMK AO2
14837KMSN MSN20090614021509106/14/09 02:15:31  5-MIN KMSN 140815Z 00000KT 9SM CLR 12/11 A3000 790 93 700 000/00 RMK AO2
14837KMSN MSN20090614022009106/14/09 02:20:31  5-MIN KMSN 140820Z 00000KT 9SM CLR 13/11 A3000 790 89 800 000/00 RMK AO2
14837KMSN MSN20090614022509106/14/09 02:25:31  5-MIN KMSN 140825Z 00000KT 9SM CLR 13/11 A3000 790 89 700 000/00 RMK AO2
14837KMSN MSN20090614023009206/14/09 02:30:31  5-MIN KMSN 140830Z 00000KT 10SM CLR 13/11 A3000 790 86 800 000/00 RMK AO2
14837KMSN MSN20090614023509106/14/09 02:35:31  5-MIN KMSN 140835Z 00000KT 8SM CLR 12/11 A3000 790 93 700 000/00 RMK AO2
14837KMSN MSN20090614024009406/14/09 02:40:31  5-MIN KMSN 140840Z 00000KT 5SM BR CLR 12/12 A3000 790 96 700 000/00 RMK AO2
14837KMSN MSN20090614024509406/14/09 02:45:31  5-MIN KMSN 140845Z 00000KT 4SM BR CLR 12/12 A3000 790 96 700 000/00 RMK AO2
14837KMSN MSN20090614025011706/14/09 02:50:31  5-MIN KMSN 140850Z 00000KT 5SM BR CLR 12/12 A3001 780 96 700 000/00 RMK AO2 SLP160 T01220117 53000
14837KMSN MSN20090614025509406/14/09 02:55:31  5-MIN KMSN 140855Z 01003KT 6SM BR CLR 12/11 A3001 780 96 600 010/03 RMK AO2
14837KMSN MSN20090614030009406/14/09 03:00:31  5-MIN KMSN 140900Z 35003KT 5SM BR CLR 12/12 A3002 770 96 700 350/03 RMK AO2
14837KMSN MSN20090614030509406/14/09 03:05:31  5-MIN KMSN 140905Z 00000KT 4SM BR CLR 12/12 A3002 780 96 700 000/00 RMK AO2
14837KMSN MSN20090614031009406/14/09 03:10:31  5-MIN KMSN 140910Z 00000KT 4SM BR CLR 13/12 A3001 780 96 700 000/00 RMK AO2
14837KMSN MSN20090614031509406/14/09 03:15:31  5-MIN KMSN 140915Z 00000KT 4SM BR CLR 13/12 A3002 780 96 700 000/00 RMK AO2
14837KMSN MSN20090614032009406/14/09 03:20:31  5-MIN KMSN 140920Z 00000KT 4SM BR CLR 13/12 A3001 780 96 700 000/00 RMK AO2
14837KMSN MSN20090614032509406/14/09 03:25:31  5-MIN KMSN 140925Z 00000KT 4SM BR CLR 13/12 A3001 780 96 700 000/00 RMK AO2
14837KMSN MSN20090614033009506/14/09 03:30:31  5-MIN KMSN 140930Z 00000KT 4SM BR CLR 12/12 A3001 780 100 700 000/00 RMK AO2
14837KMSN MSN20090614033509406/14/09 03:35:31  5-MIN KMSN 140935Z 00000KT 4SM BR CLR 13/12 A3001 780 96 700 000/00 RMK AO2
14837KMSN MSN20090614034009506/14/09 03:40:31  5-MIN KMSN 140940Z 00000KT 1SM BR CLR 12/12 A3000 790 100 600 000/00 RMK AO2
14837KMSN MSN20090614034509706/14/09 03:45:31  5-MIN KMSN 140945Z 00000KT 3/4SM BR CLR 12/12 A3000 790 100 600 000/00 RMK AO2
14837KMSN MSN20090614035012806/14/09 03:50:31  5-MIN KMSN 140950Z 00000KT 1/2SM FG CLR 12/12 A3000 790 100 600 000/00 RMK AO2 VIS 1/4V1 1/2 SLP159 T01170117
14837KMSN MSN20090614035509606/14/09 03:55:31  5-MIN KMSN 140955Z 00000KT 3/4SM BR CLR 12/12 A3001 780 96 700 000/00 RMK AO2
14837KMSN MSN20090614040009506/14/09 04:00:31  5-MIN KMSN 141000Z 00000KT 4SM BR CLR 12/12 A3001 780 100 600 000/00 RMK AO2
14837KMSN MSN20090614040509506/14/09 04:05:31  5-MIN KMSN 141005Z 00000KT 5SM BR CLR 12/12 A3001 780 100 600 000/00 RMK AO2
14837KMSN MSN20090614041009406/14/09 04:10:31  5-MIN KMSN 141010Z 00000KT 5SM BR CLR 12/11 A3002 780 96 600 000/00 RMK AO2
14837KMSN MSN20090614041509506/14/09 04:15:31  5-MIN KMSN 141015Z 00000KT 4SM BR CLR 12/12 A3002 780 100 600 000/00 RMK AO2
14837KMSN MSN20090614042009506/14/09 04:20:31  5-MIN KMSN 141020Z 00000KT 3SM BR CLR 12/12 A3001 780 100 600 000/00 RMK AO2
14837KMSN MSN20090614042510006/14/09 04:25:31  5-MIN KMSN 141025Z 00000KT 3SM BR BCFG CLR 12/12 A3002 780 100 600 000/00 RMK AO2
14837KMSN MSN20090614043009906/14/09 04:30:31  5-MIN KMSN 141030Z 00000KT 3SM BR BCFG CLR 12/12 A3002 770 96 700 000/00 RMK AO2
14837KMSN MSN20090614043509906/14/09 04:35:31  5-MIN KMSN 141035Z 00000KT 3SM BR BCFG CLR 12/12 A3001 780 96 700 000/00 RMK AO2
14837KMSN MSN20090614044009906/14/09 04:40:31  5-MIN KMSN 141040Z 00000KT 3SM BR BCFG CLR 12/12 A3002 770 96 700 000/00 RMK AO2
14837KMSN MSN20090614044509906/14/09 04:45:31  5-MIN KMSN 141045Z 00000KT 3SM BR BCFG CLR 12/11 A3002 770 93 700 000/00 RMK AO2
14837KMSN MSN20090614045011606/14/09 04:50:31  5-MIN KMSN 141050Z 00000KT 5SM BR BCFG CLR 13/12 A3002 770 89 800 000/00 RMK AO2 SLP163 T01330117
14837KMSN MSN20090614045509906/14/09 04:55:31  5-MIN KMSN 141055Z 00000KT 7SM BR BCFG CLR 13/12 A3002 770 93 700 000/00 RMK AO2
14837KMSN MSN20090614050009906/14/09 05:00:31  5-MIN KMSN 141100Z 00000KT 7SM BR BCFG CLR 12/12 A3003 760 96 700 000/00 RMK AO2
14837KMSN MSN20090614050509706/14/09 05:05:31  5-MIN KMSN 141105Z 00000KT 4SM BCFG CLR 12/12 A3003 760 100 600 000/00 RMK AO2
14837KMSN MSN20090614051009606/14/09 05:10:31  5-MIN KMSN 141110Z 00000KT 3SM BCFG CLR 12/12 A3003 760 96 700 000/00 RMK AO2
14837KMSN MSN20090614051509906/14/09 05:15:31  5-MIN KMSN 141115Z 00000KT 5SM BR BCFG CLR 13/12 A3003 770 96 700 000/00 RMK AO2
14837KMSN MSN20090614052009906/14/09 05:20:31  5-MIN KMSN 141120Z 00000KT 5SM BR BCFG CLR 12/12 A3003 760 96 700 000/00 RMK AO2
14837KMSN MSN20090614052509906/14/09 05:25:31  5-MIN KMSN 141125Z 00000KT 5SM BR BCFG CLR 13/12 A3003 760 96 700 000/00 RMK AO2
14837KMSN MSN20090614053009906/14/09 05:30:31  5-MIN KMSN 141130Z 00000KT 5SM BR BCFG CLR 13/12 A3003 760 96 700 000/00 RMK AO2
14837KMSN MSN20090614053509406/14/09 05:35:31  5-MIN KMSN 141135Z 00000KT 6SM BR CLR 13/13 A3003 760 96 800 000/00 RMK AO2
14837KMSN MSN20090614054009406/14/09 05:40:31  5-MIN KMSN 141140Z 00000KT 5SM BR CLR 14/13 A3003 760 93 800 000/00 RMK AO2
14837KMSN MSN20090614054509406/14/09 05:45:31  5-MIN KMSN 141145Z 00000KT 6SM BR CLR 14/13 A3003 760 93 900 000/00 RMK AO2
14837KMSN MSN20090614055012906/14/09 05:50:31  5-MIN KMSN 141150Z 00000KT 6SM BR CLR 14/13 A3003 760 93 900 000/00 RMK AO2 SLP168 T01440133 10144 20117 53001
14837KMSN MSN20090614055509506/14/09 05:55:31  5-MIN KMSN 141155Z 00000KT 6SM BR CLR 15/13 A3003 760 90 1000 000/00 RMK AO2
14837KMSN MSN20090614060009506/14/09 06:00:31  5-MIN KMSN 141200Z 00000KT 6SM BR CLR 16/14 A3003 760 90 1000 000/00 RMK AO2
14837KMSN MSN20090614060509506/14/09 06:05:31  5-MIN KMSN 141205Z 00000KT 6SM BR CLR 16/14 A3003 760 86 1100 000/00 RMK AO2
14837KMSN MSN20090614061009206/14/09 06:10:31  5-MIN KMSN 141210Z 00000KT 7SM CLR 16/14 A3004 760 86 1100 000/00 RMK AO2
14837KMSN MSN20090614061509206/14/09 06:15:31  5-MIN KMSN 141215Z 00000KT 8SM CLR 17/14 A3004 760 86 1200 000/00 RMK AO2
14837KMSN MSN20090614062009206/14/09 06:20:31  5-MIN KMSN 141220Z 00000KT 8SM CLR 17/14 A3004 760 86 1200 000/00 RMK AO2
14837KMSN MSN20090614062509206/14/09 06:25:31  5-MIN KMSN 141225Z 00000KT 8SM CLR 17/14 A3004 760 83 1200 000/00 RMK AO2
14837KMSN MSN20090614063009206/14/09 06:30:31  5-MIN KMSN 141230Z 00000KT 9SM CLR 17/14 A3004 760 83 1200 000/00 RMK AO2
14837KMSN MSN20090614063509206/14/09 06:35:31  5-MIN KMSN 141235Z 00000KT 8SM CLR 17/14 A3004 760 83 1200 000/00 RMK AO2
14837KMSN MSN20090614064009206/14/09 06:40:31  5-MIN KMSN 141240Z 00000KT 9SM CLR 18/14 A3003 760 81 1300 000/00 RMK AO2
14837KMSN MSN20090614064509206/14/09 06:45:31  5-MIN KMSN 141245Z 00000KT 9SM CLR 18/14 A3003 760 81 1300 000/00 RMK AO2
14837KMSN MSN20090614065010906/14/09 06:50:31  5-MIN KMSN 141250Z 00000KT 9SM CLR 18/14 A3003 760 81 1300 000/00 RMK AO2 SLP166 T01780144
14837KMSN MSN20090614065509206/14/09 06:55:31  5-MIN KMSN 141255Z 33003KT 9SM CLR 18/14 A3003 760 81 1300 330/03 RMK AO2
14837KMSN MSN20090614070009306/14/09 07:00:31  5-MIN KMSN 141300Z 00000KT 10SM CLR 18/15 A3003 760 81 1400 000/00 RMK AO2
14837KMSN MSN20090614070509306/14/09 07:05:31  5-MIN KMSN 141305Z 00000KT 10SM CLR 18/14 A3003 760 78 1400 000/00 RMK AO2
14837KMSN MSN20090614071009306/14/09 07:10:31  5-MIN KMSN 141310Z 00000KT 10SM CLR 18/14 A3004 760 78 1400 000/00 RMK AO2
14837KMSN MSN20090614071509306/14/09 07:15:31  5-MIN KMSN 141315Z 00000KT 10SM CLR 18/14 A3004 760 78 1400 000/00 RMK AO2
14837KMSN MSN20090614072009306/14/09 07:20:31  5-MIN KMSN 141320Z 00000KT 10SM CLR 19/15 A3004 750 78 1400 000/00 RMK AO2
14837KMSN MSN20090614072509306/14/09 07:25:31  5-MIN KMSN 141325Z 00000KT 10SM CLR 19/15 A3004 750 75 1500 000/00 RMK AO2
14837KMSN MSN20090614073009306/14/09 07:30:31  5-MIN KMSN 141330Z 01003KT 10SM CLR 19/14 A3004 750 72 1500 010/03 RMK AO2
14837KMSN MSN20090614073509306/14/09 07:35:31  5-MIN KMSN 141335Z 00000KT 10SM CLR 19/15 A3004 750 75 1500 000/00 RMK AO2
14837KMSN MSN20090614074009306/14/09 07:40:31  5-MIN KMSN 141340Z 00000KT 10SM CLR 20/15 A3005 750 72 1500 000/00 RMK AO2
14837KMSN MSN20090614074509306/14/09 07:45:31  5-MIN KMSN 141345Z 00000KT 10SM CLR 20/15 A3005 750 72 1500 000/00 RMK AO2
14837KMSN MSN20090614075011006/14/09 07:50:31  5-MIN KMSN 141350Z 31003KT 10SM CLR 20/14 A3005 750 70 1500 300/03 RMK AO2 SLP172 T02000144
14837KMSN MSN20090614075509306/14/09 07:55:31  5-MIN KMSN 141355Z 00000KT 10SM CLR 20/14 A3005 750 70 1500 000/00 RMK AO2
14837KMSN MSN20090614080009306/14/09 08:00:31  5-MIN KMSN 141400Z 00000KT 10SM CLR 21/14 A3005 740 67 1600 000/00 RMK AO2
14837KMSN MSN20090614080509306/14/09 08:05:31  5-MIN KMSN 141405Z 34004KT 10SM CLR 21/14 A3005 740 65 1700 340/04 RMK AO2
14837KMSN MSN20090614081009306/14/09 08:10:31  5-MIN KMSN 141410Z 34004KT 10SM CLR 21/14 A3005 740 67 1600 340/04 RMK AO2
14837KMSN MSN20090614081509306/14/09 08:15:31  5-MIN KMSN 141415Z 00000KT 10SM CLR 21/14 A3005 740 65 1700 000/00 RMK AO2
14837KMSN MSN20090614082009306/14/09 08:20:31  5-MIN KMSN 141420Z 33004KT 10SM CLR 22/14 A3005 740 61 1700 330/04 RMK AO2
14837KMSN MSN20090614082509306/14/09 08:25:31  5-MIN KMSN 141425Z 34004KT 10SM CLR 22/14 A3006 740 63 1700 340/04 RMK AO2
14837KMSN MSN20090614083009306/14/09 08:30:31  5-MIN KMSN 141430Z 00000KT 10SM CLR 22/14 A3006 740 63 1700 000/00 RMK AO2
14837KMSN MSN20090614083509306/14/09 08:35:31  5-MIN KMSN 141435Z 31005KT 10SM CLR 22/14 A3006 740 61 1700 310/05 RMK AO2
14837KMSN MSN20090614084009306/14/09 08:40:31  5-MIN KMSN 141440Z 30004KT 10SM CLR 22/13 A3005 740 58 1700 300/04 RMK AO2
14837KMSN MSN20090614084509306/14/09 08:45:31  5-MIN KMSN 141445Z VRB03KT 10SM CLR 22/14 A3005 740 59 1800 VRB/03 RMK AO2
14837KMSN MSN20090614085011606/14/09 08:50:31  5-MIN KMSN 141450Z 36004KT 10SM CLR 22/14 A3005 740 61 1800 360/04 RMK AO2 SLP173 T02220144 53007
14837KMSN MSN20090614085509306/14/09 08:55:31  5-MIN KMSN 141455Z 00000KT 10SM CLR 22/14 A3005 750 59 1800 000/00 RMK AO2
14837KMSN MSN20090614090009306/14/09 09:00:31  5-MIN KMSN 141500Z 00000KT 10SM CLR 22/14 A3005 740 59 1800 000/00 RMK AO2
14837KMSN MSN20090614090509306/14/09 09:05:31  5-MIN KMSN 141505Z 01004KT 10SM CLR 23/13 A3005 750 55 1900 010/04 RMK AO2
14837KMSN MSN20090614091009306/14/09 09:10:31  5-MIN KMSN 141510Z 00000KT 10SM CLR 22/13 A3005 750 56 1800 000/00 RMK AO2
14837KMSN MSN20090614091509306/14/09 09:15:31  5-MIN KMSN 141515Z 00000KT 10SM CLR 22/13 A3005 750 56 1800 000/00 RMK AO2
14837KMSN MSN20090614092009306/14/09 09:20:31  5-MIN KMSN 141520Z 13003KT 10SM CLR 22/13 A3005 750 56 1800 130/03 RMK AO2
14837KMSN MSN20090614092509306/14/09 09:25:31  5-MIN KMSN 141525Z 00000KT 10SM CLR 23/14 A3004 750 57 1900 000/00 RMK AO2
14837KMSN MSN20090614093009306/14/09 09:30:31  5-MIN KMSN 141530Z VRB03KT 10SM CLR 23/14 A3005 750 57 1900 VRB/03 RMK AO2
14837KMSN MSN20090614093509306/14/09 09:35:31  5-MIN KMSN 141535Z 09003KT 10SM CLR 23/13 A3005 750 55 1900 090/03 RMK AO2
14837KMSN MSN20090614094009306/14/09 09:40:31  5-MIN KMSN 141540Z 07003KT 10SM CLR 23/13 A3005 750 55 1900 070/03 RMK AO2
14837KMSN MSN20090614094509306/14/09 09:45:31  5-MIN KMSN 141545Z 00000KT 10SM CLR 23/13 A3005 750 53 1900 000/00 RMK AO2
14837KMSN MSN20090614095011306/14/09 09:50:31  5-MIN KMSN 141550Z 06004KT 10SM FEW040 23/13 A3004 750 53 1900 060/04 RMK AO2 SLP171 T02330133
14837KMSN MSN20090614095509306/14/09 09:55:31  5-MIN KMSN 141555Z 08004KT 10SM CLR 23/12 A3004 750 47 1900 070/04 RMK AO2
14837KMSN MSN20090614100009306/14/09 10:00:31  5-MIN KMSN 141600Z 11003KT 10SM CLR 23/12 A3004 750 49 1900 110/03 RMK AO2
14837KMSN MSN20090614100509306/14/09 10:05:31  5-MIN KMSN 141605Z 00000KT 10SM CLR 23/12 A3004 750 49 1900 000/00 RMK AO2
14837KMSN MSN20090614101009306/14/09 10:10:31  5-MIN KMSN 141610Z 00000KT 10SM CLR 23/12 A3004 750 51 1900 000/00 RMK AO2
14837KMSN MSN20090614101509606/14/09 10:15:31  5-MIN KMSN 141615Z 00000KT 10SM FEW048 23/12 A3004 760 49 1900 000/00 RMK AO2
14837KMSN MSN20090614102009606/14/09 10:20:31  5-MIN KMSN 141620Z 34004KT 10SM SCT048 24/12 A3004 760 46 2000 340/04 RMK AO2
14837KMSN MSN20090614102509606/14/09 10:25:31  5-MIN KMSN 141625Z 33004KT 10SM SCT048 24/12 A3003 760 46 2000 330/04 RMK AO2
14837KMSN MSN20090614103010306/14/09 10:30:31  5-MIN KMSN 141630Z 33004KT 10SM SCT048 BKN065 24/12 A3003 760 46 2000 330/04 RMK AO2
14837KMSN MSN20090614103510306/14/09 10:35:31  5-MIN KMSN 141635Z VRB03KT 10SM SCT048 SCT065 23/11 A3003 760 45 1900 VRB/03 RMK AO2
14837KMSN MSN20090614104009606/14/09 10:40:31  5-MIN KMSN 141640Z 36005KT 10SM SCT048 23/11 A3003 760 45 1900 360/05 RMK AO2
14837KMSN MSN20090614104510306/14/09 10:45:31  5-MIN KMSN 141645Z 00000KT 10SM FEW048 SCT065 23/12 A3003 760 47 1900 000/00 RMK AO2
14837KMSN MSN20090614105012006/14/09 10:50:31  5-MIN KMSN 141650Z 32004KT 10SM SCT048 SCT065 24/12 A3003 760 46 2000 320/04 RMK AO2 SLP166 T02390117
14837KMSN MSN20090614105509606/14/09 10:55:31  5-MIN KMSN 141655Z 33004KT 10SM FEW048 24/12 A3003 760 44 2100 330/04 RMK AO2
14837KMSN MSN20090614110009306/14/09 11:00:31  5-MIN KMSN 141700Z 00000KT 10SM CLR 24/12 A3003 760 46 2000 000/00 RMK AO2
14837KMSN MSN20090614110509306/14/09 11:05:31  5-MIN KMSN 141705Z 00000KT 10SM CLR 24/11 A3003 760 44 2000 000/00 RMK AO2
14837KMSN MSN20090614111009306/14/09 11:10:31  5-MIN KMSN 141710Z 30003KT 10SM CLR 24/11 A3003 760 44 2000 300/03 RMK AO2
14837KMSN MSN20090614111509306/14/09 11:15:31  5-MIN KMSN 141715Z 01005KT 10SM CLR 24/12 A3003 760 46 2100 010/05 RMK AO2
14837KMSN MSN20090614112009306/14/09 11:20:31  5-MIN KMSN 141720Z 00000KT 10SM CLR 24/12 A3003 760 46 2100 000/00 RMK AO2
14837KMSN MSN20090614112509306/14/09 11:25:31  5-MIN KMSN 141725Z VRB03KT 10SM CLR 24/12 A3003 760 44 2100 VRB/03 RMK AO2
14837KMSN MSN20090614113009306/14/09 11:30:31  5-MIN KMSN 141730Z 00000KT 10SM CLR 24/12 A3003 760 44 2100 000/00 RMK AO2
14837KMSN MSN20090614113509306/14/09 11:35:31  5-MIN KMSN 141735Z 32004KT 10SM CLR 24/12 A3003 760 44 2100 320/04 RMK AO2
14837KMSN MSN20090614114009306/14/09 11:40:31  5-MIN KMSN 141740Z VRB03KT 10SM CLR 24/13 A3003 760 47 2100 VRB/03 RMK AO2
14837KMSN MSN20090614114509306/14/09 11:45:31  5-MIN KMSN 141745Z 29004KT 10SM CLR 24/13 A3003 760 47 2100 290/04 RMK AO2
14837KMSN MSN20090614115013106/14/09 11:50:31  5-MIN KMSN 141750Z 26003KT 10SM FEW050 24/12 A3003 760 46 2000 260/03 RMK AO2 SLP167 T02390117 10250 20150 53005
14837KMSN MSN20090614115509306/14/09 11:55:31  5-MIN KMSN 141755Z VRB03KT 10SM CLR 24/12 A3003 760 46 2000 VRB/03 RMK AO2
14837KMSN MSN20090614120009306/14/09 12:00:31  5-MIN KMSN 141800Z 00000KT 10SM CLR 24/11 A3003 770 42 2100 000/00 RMK AO2
14837KMSN MSN20090614120509306/14/09 12:05:31  5-MIN KMSN 141805Z 25003KT 10SM CLR 24/11 A3003 770 41 2100 250/03 RMK AO2
14837KMSN MSN20090614121009306/14/09 12:10:31  5-MIN KMSN 141810Z VRB03KT 10SM CLR 24/10 A3003 770 39 2100 VRB/03 RMK AO2
14837KMSN MSN20090614121509606/14/09 12:15:31  5-MIN KMSN 141815Z VRB03KT 10SM FEW060 24/12 A3003 770 44 2100 VRB/03 RMK AO2
14837KMSN MSN20090614122009606/14/09 12:20:31  5-MIN KMSN 141820Z VRB05KT 10SM FEW060 24/12 A3002 770 47 2000 VRB/05 RMK AO2
14837KMSN MSN20090614122509606/14/09 12:25:31  5-MIN KMSN 141825Z 29006KT 10SM FEW060 24/12 A3002 770 44 2100 290/06 RMK AO2
14837KMSN MSN20090614123009606/14/09 12:30:31  5-MIN KMSN 141830Z VRB04KT 10SM FEW060 24/12 A3002 770 46 2100 VRB/04 RMK AO2
14837KMSN MSN20090614123509606/14/09 12:35:31  5-MIN KMSN 141835Z VRB03KT 10SM BKN060 24/12 A3002 770 44 2100 VRB/03 RMK AO2
14837KMSN MSN20090614124009606/14/09 12:40:31  5-MIN KMSN 141840Z VRB03KT 10SM SCT060 25/12 A3002 770 43 2100 VRB/03 RMK AO2
14837KMSN MSN20090614124509606/14/09 12:45:31  5-MIN KMSN 141845Z 00000KT 10SM SCT060 24/11 A3002 770 42 2100 000/00 RMK AO2
14837KMSN MSN20090614125011306/14/09 12:50:31  5-MIN KMSN 141850Z 26005KT 10SM FEW060 24/12 A3002 770 44 2100 260/05 RMK AO2 SLP164 T02440117
14837KMSN MSN20090614125509606/14/09 12:55:31  5-MIN KMSN 141855Z 00000KT 10SM FEW060 24/12 A3002 770 44 2100 000/00 RMK AO2
14837KMSN MSN20090614130009606/14/09 13:00:31  5-MIN KMSN 141900Z 00000KT 10SM FEW060 25/12 A3002 770 43 2100 000/00 RMK AO2
14837KMSN MSN20090614130509606/14/09 13:05:31  5-MIN KMSN 141905Z VRB04KT 10SM FEW060 26/13 A3002 780 44 2200 VRB/04 RMK AO2
14837KMSN MSN20090614131009506/14/09 13:10:31  5-MIN KMSN 141910Z 27005KT 9SM FEW060 25/12 A3002 780 43 2100 270/05 RMK AO2
14837KMSN MSN20090614131509506/14/09 13:15:31  5-MIN KMSN 141915Z VRB04KT 9SM FEW060 25/12 A3002 780 43 2100 VRB/04 RMK AO2
14837KMSN MSN20090614132009606/14/09 13:20:31  5-MIN KMSN 141920Z VRB05KT 10SM FEW060 25/12 A3001 780 43 2200 VRB/05 RMK AO2
14837KMSN MSN20090614132509606/14/09 13:25:31  5-MIN KMSN 141925Z 23003KT 10SM FEW060 24/11 A3001 780 42 2100 230/03 RMK AO2
14837KMSN MSN20090614133009606/14/09 13:30:31  5-MIN KMSN 141930Z VRB04KT 10SM FEW060 25/11 A3001 780 41 2200 VRB/04 RMK AO2
14837KMSN MSN20090614133509606/14/09 13:35:31  5-MIN KMSN 141935Z 00000KT 10SM FEW060 25/12 A3001 780 43 2200 000/00 RMK AO2
14837KMSN MSN20090614134009606/14/09 13:40:31  5-MIN KMSN 141940Z 23004KT 10SM FEW060 26/12 A3001 780 41 2200 230/04 RMK AO2
14837KMSN MSN20090614134509606/14/09 13:45:31  5-MIN KMSN 141945Z VRB03KT 10SM FEW060 25/11 A3001 780 41 2200 VRB/03 RMK AO2
14837KMSN MSN20090614135011306/14/09 13:50:31  5-MIN KMSN 141950Z VRB05KT 10SM SCT060 25/11 A3001 780 41 2200 VRB/05 RMK AO2 SLP160 T02500111
14837KMSN MSN20090614135509306/14/09 13:55:31  5-MIN KMSN 141955Z 27004KT 10SM CLR 25/11 A3001 780 39 2200 270/04 RMK AO2
14837KMSN MSN20090614140009306/14/09 14:00:31  5-MIN KMSN 142000Z VRB04KT 10SM CLR 26/12 A3001 780 41 2200 VRB/04 RMK AO2
14837KMSN MSN20090614140509306/14/09 14:05:31  5-MIN KMSN 142005Z 00000KT 10SM CLR 25/11 A3001 780 39 2200 000/00 RMK AO2
14837KMSN MSN20090614141009306/14/09 14:10:31  5-MIN KMSN 142010Z 26004KT 10SM CLR 25/11 A3001 780 41 2200 260/04 RMK AO2
14837KMSN MSN20090614141509306/14/09 14:15:31  5-MIN KMSN 142015Z 00000KT 10SM CLR 25/11 A3001 780 41 2200 000/00 RMK AO2
14837KMSN MSN20090614142009306/14/09 14:20:31  5-MIN KMSN 142020Z VRB04KT 10SM CLR 26/12 A3001 780 41 2200 VRB/04 RMK AO2
14837KMSN MSN20090614142509306/14/09 14:25:31  5-MIN KMSN 142025Z 00000KT 10SM CLR 25/11 A3000 790 41 2200 000/00 RMK AO2
14837KMSN MSN20090614143009606/14/09 14:30:31  5-MIN KMSN 142030Z 00000KT 10SM FEW060 26/11 A3000 790 38 2200 000/00 RMK AO2
14837KMSN MSN20090614143509606/14/09 14:35:31  5-MIN KMSN 142035Z VRB03KT 10SM SCT060 26/11 A3000 790 40 2200 VRB/03 RMK AO2
14837KMSN MSN20090614144009606/14/09 14:40:31  5-MIN KMSN 142040Z VRB03KT 10SM SCT060 25/11 A3000 790 39 2200 VRB/03 RMK AO2
14837KMSN MSN20090614144509606/14/09 14:45:31  5-MIN KMSN 142045Z 00000KT 10SM SCT060 26/11 A3000 790 40 2200 000/00 RMK AO2
14837KMSN MSN20090614145011906/14/09 14:50:31  5-MIN KMSN 142050Z 00000KT 10SM FEW060 26/11 A3000 790 40 2200 000/00 RMK AO2 SLP156 T02560111 56006
14837KMSN MSN20090614145509606/14/09 14:55:31  5-MIN KMSN 142055Z VRB03KT 10SM FEW060 26/12 A3000 790 41 2200 VRB/03 RMK AO2
14837KMSN MSN20090614150009606/14/09 15:00:31  5-MIN KMSN 142100Z 22003KT 10SM FEW060 26/11 A3000 790 38 2200 220/03 RMK AO2
14837KMSN MSN20090614150509606/14/09 15:05:31  5-MIN KMSN 142105Z 21004KT 10SM FEW060 26/10 A3000 790 37 2200 210/04 RMK AO2
14837KMSN MSN20090614151009606/14/09 15:10:31  5-MIN KMSN 142110Z 20005KT 10SM FEW060 26/11 A3000 790 38 2200 200/05 RMK AO2
14837KMSN MSN20090614151509606/14/09 15:15:31  5-MIN KMSN 142115Z 25004KT 10SM FEW060 26/10 A3000 790 37 2200 250/04 RMK AO2
14837KMSN MSN20090614152009606/14/09 15:20:31  5-MIN KMSN 142120Z 00000KT 10SM FEW065 26/10 A3000 790 37 2200 000/00 RMK AO2
14837KMSN MSN20090614152509606/14/09 15:25:31  5-MIN KMSN 142125Z 00000KT 10SM SCT065 26/10 A3000 790 37 2200 000/00 RMK AO2
14837KMSN MSN20090614153009606/14/09 15:30:31  5-MIN KMSN 142130Z 07003KT 10SM SCT065 26/11 A3000 800 38 2200 070/03 RMK AO2
14837KMSN MSN20090614153509606/14/09 15:35:31  5-MIN KMSN 142135Z VRB03KT 10SM SCT065 26/10 A3000 790 37 2200 VRB/03 RMK AO2
14837KMSN MSN20090614154009606/14/09 15:40:31  5-MIN KMSN 142140Z 00000KT 10SM SCT065 26/11 A3000 790 38 2200 000/00 RMK AO2
14837KMSN MSN20090614154509606/14/09 15:45:31  5-MIN KMSN 142145Z VRB03KT 10SM SCT065 26/10 A3000 790 37 2200 VRB/03 RMK AO2
14837KMSN MSN20090614155011306/14/09 15:50:31  5-MIN KMSN 142150Z VRB05KT 10SM SCT065 26/11 A3000 800 37 2300 VRB/05 RMK AO2 SLP155 T02610106
14837KMSN MSN20090614155509606/14/09 15:55:31  5-MIN KMSN 142155Z 29003KT 10SM SCT065 26/10 A3000 800 37 2200 290/03 RMK AO2
14837KMSN MSN20090614160009606/14/09 16:00:31  5-MIN KMSN 142200Z 00000KT 10SM SCT065 26/09 A3000 790 34 2300 000/00 RMK AO2
14837KMSN MSN20090614160509606/14/09 16:05:31  5-MIN KMSN 142205Z 24004KT 10SM SCT065 26/10 A3000 790 37 2200 240/04 RMK AO2
14837KMSN MSN20090614161009606/14/09 16:10:31  5-MIN KMSN 142210Z 23004KT 10SM SCT065 26/10 A3000 790 37 2200 230/04 RMK AO2
14837KMSN MSN20090614161509606/14/09 16:15:31  5-MIN KMSN 142215Z 22003KT 10SM SCT065 26/10 A2999 800 37 2200 220/03 RMK AO2
14837KMSN MSN20090614162009606/14/09 16:20:31  5-MIN KMSN 142220Z 23003KT 10SM SCT065 26/10 A2999 800 37 2200 230/03 RMK AO2
14837KMSN MSN20090614162509606/14/09 16:25:31  5-MIN KMSN 142225Z VRB04KT 10SM SCT065 26/09 A2999 800 35 2200 VRB/04 RMK AO2
14837KMSN MSN20090614163009606/14/09 16:30:31  5-MIN KMSN 142230Z VRB03KT 10SM SCT065 26/09 A2999 800 35 2200 VRB/03 RMK AO2
14837KMSN MSN20090614163509606/14/09 16:35:31  5-MIN KMSN 142235Z 22003KT 10SM SCT065 26/09 A2999 800 35 2200 220/03 RMK AO2
14837KMSN MSN20090614164009606/14/09 16:40:31  5-MIN KMSN 142240Z 27004KT 10SM SCT065 26/09 A2999 800 34 2200 270/04 RMK AO2
14837KMSN MSN20090614164509606/14/09 16:45:31  5-MIN KMSN 142245Z VRB03KT 10SM SCT065 26/09 A2999 800 35 2200 VRB/03 RMK AO2
14837KMSN MSN20090614165011306/14/09 16:50:31  5-MIN KMSN 142250Z 00000KT 10SM FEW065 26/09 A2998 800 35 2200 000/00 RMK AO2 SLP151 T02560094
14837KMSN MSN20090614165509606/14/09 16:55:31  5-MIN KMSN 142255Z VRB03KT 10SM FEW065 26/09 A2998 810 35 2200 VRB/03 RMK AO2
14837KMSN MSN20090614170009606/14/09 17:00:31  5-MIN KMSN 142300Z 26003KT 10SM FEW065 25/09 A2998 810 37 2200 260/03 RMK AO2
14837KMSN MSN20090614170509606/14/09 17:05:31  5-MIN KMSN 142305Z 00000KT 10SM FEW065 26/09 A2998 810 35 2300 000/00 RMK AO2
14837KMSN MSN20090614171009506/14/09 17:10:31  5-MIN KMSN 142310Z VRB03KT 9SM FEW065 26/10 A2998 810 37 2300 VRB/03 RMK AO2
14837KMSN MSN20090614171509506/14/09 17:15:31  5-MIN KMSN 142315Z VRB04KT 9SM FEW065 26/09 A2998 810 35 2300 VRB/04 RMK AO2
14837KMSN MSN20090614172009606/14/09 17:20:31  5-MIN KMSN 142320Z 24004KT 10SM FEW065 26/09 A2998 810 35 2300 240/04 RMK AO2
14837KMSN MSN20090614172509606/14/09 17:25:31  5-MIN KMSN 142325Z 26003KT 10SM FEW065 25/09 A2998 810 37 2200 250/03 RMK AO2
14837KMSN MSN20090614173009606/14/09 17:30:31  5-MIN KMSN 142330Z 00000KT 10SM FEW065 26/10 A2998 810 37 2300 000/00 RMK AO2
14837KMSN MSN20090614173509606/14/09 17:35:31  5-MIN KMSN 142335Z 22003KT 10SM FEW065 25/10 A2998 810 38 2200 220/03 RMK AO2
14837KMSN MSN20090614174009606/14/09 17:40:31  5-MIN KMSN 142340Z 26004KT 10SM FEW060 26/10 A2998 810 37 2300 260/04 RMK AO2
14837KMSN MSN20090614174509606/14/09 17:45:31  5-MIN KMSN 142345Z 24003KT 10SM FEW060 25/10 A2998 810 38 2200 240/03 RMK AO2
14837KMSN MSN20090614175015006/14/09 17:50:31  5-MIN KMSN 142350Z 25003KT 10SM FEW060 25/10 A2998 810 38 2200 250/03 RMK AO2 SLP149 CB DSNT N-NE AND E T02500100 10261 20239 58010
14837KMSN MSN20090614175509306/14/09 17:55:31  5-MIN KMSN 142355Z 24003KT 10SM CLR 25/10 A2998 810 38 2200 240/03 RMK AO2
14837KMSN MSN20090614180009606/14/09 18:00:31  5-MIN KMSN 150000Z 25003KT 10SM FEW060 25/11 A2998 810 39 2200 240/03 RMK AO2
14837KMSN MSN20090614180509606/14/09 18:05:31  5-MIN KMSN 150005Z 24004KT 10SM FEW060 25/11 A2998 810 39 2200 240/04 RMK AO2
14837KMSN MSN20090614181009606/14/09 18:10:31  5-MIN KMSN 150010Z 00000KT 10SM FEW060 25/11 A2998 810 39 2200 000/00 RMK AO2
14837KMSN MSN20090614181509606/14/09 18:15:31  5-MIN KMSN 150015Z 25003KT 10SM FEW060 25/11 A2998 810 39 2200 250/03 RMK AO2
14837KMSN MSN20090614182009606/14/09 18:20:31  5-MIN KMSN 150020Z 00000KT 10SM FEW060 25/11 A2999 800 39 2200 000/00 RMK AO2
14837KMSN MSN20090614182509606/14/09 18:25:31  5-MIN KMSN 150025Z 23003KT 10SM FEW060 25/11 A2999 800 39 2200 230/03 RMK AO2
14837KMSN MSN20090614183009606/14/09 18:30:31  5-MIN KMSN 150030Z VRB03KT 10SM FEW060 24/11 A2999 800 42 2100 VRB/03 RMK AO2
14837KMSN MSN20090614183509606/14/09 18:35:31  5-MIN KMSN 150035Z 00000KT 10SM FEW060 24/11 A2999 800 42 2100 000/00 RMK AO2
14837KMSN MSN20090614184009606/14/09 18:40:31  5-MIN KMSN 150040Z 27003KT 10SM FEW060 24/11 A2999 800 42 2100 270/03 RMK AO2
14837KMSN MSN20090614184509606/14/09 18:45:31  5-MIN KMSN 150045Z 00000KT 10SM FEW060 24/12 A2999 800 44 2100 000/00 RMK AO2
14837KMSN MSN20090614185011306/14/09 18:50:31  5-MIN KMSN 150050Z 00000KT 10SM FEW060 24/12 A2999 800 46 2000 000/00 RMK AO2 SLP153 T02390117
14837KMSN MSN20090614185509606/14/09 18:55:31  5-MIN KMSN 150055Z 29003KT 10SM FEW060 24/12 A3000 790 47 2000 290/03 RMK AO2
14837KMSN MSN20090614190009606/14/09 19:00:31  5-MIN KMSN 150100Z 00000KT 10SM FEW060 23/12 A3000 800 49 2000 000/00 RMK AO2
14837KMSN MSN20090614190509606/14/09 19:05:31  5-MIN KMSN 150105Z 00000KT 10SM FEW060 23/12 A3000 790 49 2000 000/00 RMK AO2
14837KMSN MSN20090614191009606/14/09 19:10:31  5-MIN KMSN 150110Z 00000KT 10SM FEW060 23/12 A3000 800 49 2000 000/00 RMK AO2
14837KMSN MSN20090614191509606/14/09 19:15:31  5-MIN KMSN 150115Z 00000KT 10SM FEW060 23/12 A2999 800 49 2000 000/00 RMK AO2
14837KMSN MSN20090614192009606/14/09 19:20:31  5-MIN KMSN 150120Z 00000KT 10SM FEW060 23/12 A2999 800 51 1900 000/00 RMK AO2
14837KMSN MSN20090614192509606/14/09 19:25:31  5-MIN KMSN 150125Z 00000KT 10SM FEW060 22/13 A2999 800 54 1900 000/00 RMK AO2
14837KMSN MSN20090614193009606/14/09 19:30:31  5-MIN KMSN 150130Z 00000KT 10SM FEW060 22/13 A2999 800 54 1900 000/00 RMK AO2
14837KMSN MSN20090614193509606/14/09 19:35:31  5-MIN KMSN 150135Z 00000KT 10SM FEW060 22/12 A2999 800 54 1800 000/00 RMK AO2
14837KMSN MSN20090614194009606/14/09 19:40:31  5-MIN KMSN 150140Z 00000KT 10SM FEW060 21/13 A2999 800 60 1700 000/00 RMK AO2
14837KMSN MSN20090614194509606/14/09 19:45:31  5-MIN KMSN 150145Z 00000KT 10SM FEW060 21/13 A2999 800 61 1700 000/00 RMK AO2
14837KMSN MSN20090614195011306/14/09 19:50:31  5-MIN KMSN 150150Z 00000KT 10SM FEW060 21/13 A2999 800 63 1700 000/00 RMK AO2 SLP151 T02060133
14837KMSN MSN20090614195509606/14/09 19:55:31  5-MIN KMSN 150155Z 00000KT 10SM SCT070 20/13 A2999 800 65 1600 000/00 RMK AO2
14837KMSN MSN20090614200009606/14/09 20:00:31  5-MIN KMSN 150200Z 00000KT 10SM SCT070 19/14 A3000 790 70 1500 000/00 RMK AO2
14837KMSN MSN20090614200509606/14/09 20:05:31  5-MIN KMSN 150205Z 00000KT 10SM SCT070 19/14 A3000 790 70 1500 000/00 RMK AO2
14837KMSN MSN20090614201009606/14/09 20:10:31  5-MIN KMSN 150210Z 00000KT 10SM SCT070 19/13 A3000 790 65 1500 000/00 RMK AO2
14837KMSN MSN20090614201509606/14/09 20:15:31  5-MIN KMSN 150215Z 00000KT 10SM SCT070 20/13 A3000 790 65 1600 000/00 RMK AO2
14837KMSN MSN20090614202009606/14/09 20:20:31  5-MIN KMSN 150220Z 00000KT 10SM SCT070 20/13 A3000 790 65 1600 000/00 RMK AO2
14837KMSN MSN20090614202509606/14/09 20:25:31  5-MIN KMSN 150225Z 00000KT 10SM SCT070 19/13 A3000 790 67 1500 000/00 RMK AO2
14837KMSN MSN20090614203009606/14/09 20:30:31  5-MIN KMSN 150230Z 00000KT 10SM SCT070 19/13 A3000 790 67 1500 000/00 RMK AO2
14837KMSN MSN20090614203509606/14/09 20:35:31  5-MIN KMSN 150235Z 00000KT 10SM SCT070 20/13 A3001 790 63 1600 000/00 RMK AO2
14837KMSN MSN20090614204009606/14/09 20:40:31  5-MIN KMSN 150240Z 00000KT 10SM SCT070 19/12 A3001 780 62 1500 000/00 RMK AO2
14837KMSN MSN20090614204509606/14/09 20:45:31  5-MIN KMSN 150245Z 00000KT 10SM SCT070 19/12 A3001 780 65 1500 000/00 RMK AO2
14837KMSN MSN20090614205011906/14/09 20:50:31  5-MIN KMSN 150250Z 00000KT 10SM SCT070 18/13 A3001 780 70 1400 000/00 RMK AO2 SLP159 T01830128 56006
14837KMSN MSN20090614205509606/14/09 20:55:31  5-MIN KMSN 150255Z 00000KT 10SM FEW070 19/12 A3001 780 65 1500 000/00 RMK AO2
14837KMSN MSN20090614210009606/14/09 21:00:31  5-MIN KMSN 150300Z 00000KT 10SM FEW070 18/13 A3001 780 70 1400 000/00 RMK AO2
14837KMSN MSN20090614210509606/14/09 21:05:31  5-MIN KMSN 150305Z 00000KT 10SM FEW070 17/13 A3002 780 75 1300 000/00 RMK AO2
14837KMSN MSN20090614211009606/14/09 21:10:31  5-MIN KMSN 150310Z 00000KT 10SM FEW070 18/13 A3002 780 72 1300 000/00 RMK AO2
14837KMSN MSN20090614211509606/14/09 21:15:31  5-MIN KMSN 150315Z 00000KT 10SM FEW070 18/13 A3001 780 70 1400 000/00 RMK AO2
14837KMSN MSN20090614212009606/14/09 21:20:31  5-MIN KMSN 150320Z 00000KT 10SM FEW070 18/13 A3001 780 70 1400 000/00 RMK AO2
14837KMSN MSN20090614212509606/14/09 21:25:31  5-MIN KMSN 150325Z 00000KT 10SM FEW070 18/13 A3001 780 75 1300 000/00 RMK AO2
14837KMSN MSN20090614213009606/14/09 21:30:31  5-MIN KMSN 150330Z 00000KT 10SM FEW070 17/13 A3001 780 78 1300 000/00 RMK AO2
14837KMSN MSN20090614213509606/14/09 21:35:31  5-MIN KMSN 150335Z 00000KT 10SM FEW070 17/13 A3001 780 75 1300 000/00 RMK AO2
14837KMSN MSN20090614214009606/14/09 21:40:31  5-MIN KMSN 150340Z 00000KT 10SM FEW070 18/13 A3002 780 72 1300 000/00 RMK AO2
14837KMSN MSN20090614214509606/14/09 21:45:31  5-MIN KMSN 150345Z 00000KT 10SM FEW070 17/13 A3002 770 75 1300 000/00 RMK AO2
14837KMSN MSN20090614215011306/14/09 21:50:31  5-MIN KMSN 150350Z 00000KT 10SM FEW070 17/13 A3002 770 75 1300 000/00 RMK AO2 SLP162 T01720128
14837KMSN MSN20090614215509606/14/09 21:55:31  5-MIN KMSN 150355Z 00000KT 10SM FEW070 18/13 A3002 770 72 1300 000/00 RMK AO2
14837KMSN MSN20090614220009606/14/09 22:00:31  5-MIN KMSN 150400Z 00000KT 10SM FEW070 18/13 A3002 770 75 1300 000/00 RMK AO2
14837KMSN MSN20090614220509606/14/09 22:05:31  5-MIN KMSN 150405Z 00000KT 10SM FEW070 18/13 A3002 770 72 1300 000/00 RMK AO2
14837KMSN MSN20090614221009606/14/09 22:10:31  5-MIN KMSN 150410Z 00000KT 10SM FEW070 17/13 A3003 770 75 1200 000/00 RMK AO2
14837KMSN MSN20090614221509606/14/09 22:15:31  5-MIN KMSN 150415Z 00000KT 10SM FEW070 17/13 A3003 770 75 1200 000/00 RMK AO2
14837KMSN MSN20090614222009606/14/09 22:20:31  5-MIN KMSN 150420Z 00000KT 10SM FEW070 17/13 A3003 760 77 1200 000/00 RMK AO2
14837KMSN MSN20090614222509606/14/09 22:25:31  5-MIN KMSN 150425Z 00000KT 10SM FEW070 17/13 A3003 760 80 1200 000/00 RMK AO2
14837KMSN MSN20090614223009606/14/09 22:30:31  5-MIN KMSN 150430Z 00000KT 10SM FEW070 17/13 A3003 760 75 1200 000/00 RMK AO2
14837KMSN MSN20090614223509606/14/09 22:35:31  5-MIN KMSN 150435Z 00000KT 10SM FEW070 17/13 A3003 760 78 1200 000/00 RMK AO2
14837KMSN MSN20090614224009606/14/09 22:40:31  5-MIN KMSN 150440Z 00000KT 10SM FEW070 18/13 A3003 760 75 1300 000/00 RMK AO2
14837KMSN MSN20090614224509606/14/09 22:45:31  5-MIN KMSN 150445Z 00000KT 10SM FEW070 18/13 A3003 760 75 1300 000/00 RMK AO2
14837KMSN MSN20090614225011306/14/09 22:50:31  5-MIN KMSN 150450Z 00000KT 10SM FEW070 17/13 A3003 760 80 1200 000/00 RMK AO2 SLP167 T01670133
14837KMSN MSN20090614225509306/14/09 22:55:31  5-MIN KMSN 150455Z 00000KT 10SM CLR 16/13 A3003 760 83 1100 000/00 RMK AO2
14837KMSN MSN20090614230009306/14/09 23:00:31  5-MIN KMSN 150500Z 00000KT 10SM CLR 16/13 A3003 760 83 1000 000/00 RMK AO2
14837KMSN MSN20090614230509306/14/09 23:05:31  5-MIN KMSN 150505Z 00000KT 10SM CLR 16/13 A3003 760 80 1100 000/00 RMK AO2
14837KMSN MSN20090614231009306/14/09 23:10:31  5-MIN KMSN 150510Z 00000KT 10SM CLR 17/13 A3003 760 80 1200 000/00 RMK AO2
14837KMSN MSN20090614231509306/14/09 23:15:31  5-MIN KMSN 150515Z 00000KT 10SM CLR 15/13 A3004 760 86 1000 000/00 RMK AO2
14837KMSN MSN20090614232009306/14/09 23:20:31  5-MIN KMSN 150520Z 00000KT 10SM CLR 15/13 A3004 750 86 1000 000/00 RMK AO2
14837KMSN MSN20090614232509306/14/09 23:25:31  5-MIN KMSN 150525Z 00000KT 10SM CLR 15/13 A3004 750 90 1000 000/00 RMK AO2
14837KMSN MSN20090614233009306/14/09 23:30:31  5-MIN KMSN 150530Z 00000KT 10SM CLR 16/13 A3004 750 86 1000 000/00 RMK AO2
14837KMSN MSN20090614233509306/14/09 23:35:31  5-MIN KMSN 150535Z 00000KT 10SM CLR 15/13 A3004 750 86 1000 000/00 RMK AO2
14837KMSN MSN20090614234009306/14/09 23:40:31  5-MIN KMSN 150540Z 00000KT 10SM CLR 16/13 A3004 750 86 1000 000/00 RMK AO2
14837KMSN MSN20090614234509306/14/09 23:45:31  5-MIN KMSN 150545Z 00000KT 10SM CLR 15/13 A3004 760 90 1000 000/00 RMK AO2
14837KMSN MSN20090614235013806/14/09 23:50:31  5-MIN KMSN 150550Z 00000KT 10SM CLR 16/13 A3004 750 86 1000 000/00 RMK AO2 SLP169 T01560133 10250 20150 402610117 53009
14837KMSN MSN20090614235509306/14/09 23:55:31  5-MIN KMSN 150555Z 00000KT 10SM CLR 16/13 A3004 750 83 1000 000/00 RMK AO2
14837KMSN MSN20090615000009306/15/09 00:00:32  5-MIN KMSN 150600Z 00000KT 10SM CLR 16/13 A3004 760 83 1000 000/00 RMK AO2
14837KMSN MSN20090615000509306/15/09 00:05:31  5-MIN KMSN 150605Z 00000KT 10SM CLR 15/13 A3004 760 86 1000 000/00 RMK AO2
14837KMSN MSN20090615001009306/15/09 00:10:31  5-MIN KMSN 150610Z 00000KT 10SM CLR 15/13 A3004 760 86 1000 000/00 RMK AO2
14837KMSN MSN20090615001509306/15/09 00:15:31  5-MIN KMSN 150615Z 00000KT 10SM CLR 15/13 A3004 760 90 1000 000/00 RMK AO2
14837KMSN MSN20090615002009306/15/09 00:20:31  5-MIN KMSN 150620Z 00000KT 10SM CLR 15/13 A3003 760 90 1000 000/00 RMK AO2
14837KMSN MSN20090615002509206/15/09 00:25:31  5-MIN KMSN 150625Z 00000KT 10SM CLR 14/13 A3003 760 90 900 000/00 RMK AO2
14837KMSN MSN20090615003009206/15/09 00:30:31  5-MIN KMSN 150630Z 00000KT 10SM CLR 14/13 A3003 760 93 900 000/00 RMK AO2
14837KMSN MSN20090615003509206/15/09 00:35:31  5-MIN KMSN 150635Z 00000KT 10SM CLR 14/13 A3003 770 93 900 000/00 RMK AO2
14837KMSN MSN20090615004009206/15/09 00:40:31  5-MIN KMSN 150640Z 00000KT 10SM CLR 14/13 A3003 770 93 900 000/00 RMK AO2
14837KMSN MSN20090615004509206/15/09 00:45:31  5-MIN KMSN 150645Z 00000KT 10SM CLR 14/13 A3002 770 93 900 000/00 RMK AO2
14837KMSN MSN20090615005010906/15/09 00:50:31  5-MIN KMSN 150650Z 00000KT 10SM CLR 14/13 A3002 770 93 900 000/00 RMK AO2 SLP163 T01440133
14837KMSN MSN20090615005509206/15/09 00:55:31  5-MIN KMSN 150655Z 00000KT 10SM CLR 14/13 A3002 770 90 900 000/00 RMK AO2
14837KMSN MSN20090615010009306/15/09 01:00:31  5-MIN KMSN 150700Z 00000KT 10SM CLR 15/13 A3002 770 86 1000 000/00 RMK AO2
14837KMSN MSN20090615010509306/15/09 01:05:31  5-MIN KMSN 150705Z 00000KT 10SM CLR 15/13 A3002 770 86 1000 000/00 RMK AO2
14837KMSN MSN20090615011009306/15/09 01:10:31  5-MIN KMSN 150710Z 00000KT 10SM CLR 15/13 A3002 770 86 1000 000/00 RMK AO2
14837KMSN MSN20090615011509206/15/09 01:15:31  5-MIN KMSN 150715Z 00000KT 10SM CLR 14/13 A3002 770 93 900 000/00 RMK AO2
14837KMSN MSN20090615012009206/15/09 01:20:31  5-MIN KMSN 150720Z 00000KT 10SM CLR 14/13 A3002 770 93 900 000/00 RMK AO2
14837KMSN MSN20090615012509206/15/09 01:25:31  5-MIN KMSN 150725Z 00000KT 10SM CLR 14/13 A3002 770 93 900 000/00 RMK AO2
14837KMSN MSN20090615013009206/15/09 01:30:31  5-MIN KMSN 150730Z 00000KT 10SM CLR 14/13 A3002 770 93 900 000/00 RMK AO2
14837KMSN MSN20090615013509206/15/09 01:35:31  5-MIN KMSN 150735Z 00000KT 10SM CLR 14/13 A3002 780 93 900 000/00 RMK AO2
14837KMSN MSN20090615014009106/15/09 01:40:31  5-MIN KMSN 150740Z 00000KT 9SM CLR 14/13 A3001 780 93 900 000/00 RMK AO2
14837KMSN MSN20090615014509106/15/09 01:45:31  5-MIN KMSN 150745Z 00000KT 9SM CLR 14/13 A3002 780 93 900 000/00 RMK AO2
14837KMSN MSN20090615015010806/15/09 01:50:31  5-MIN KMSN 150750Z 00000KT 8SM CLR 13/12 A3002 780 93 800 000/00 RMK AO2 SLP161 T01330122
14837KMSN MSN20090615015509106/15/09 01:55:31  5-MIN KMSN 150755Z 00000KT 8SM CLR 13/13 A3002 780 96 800 000/00 RMK AO2
14837KMSN MSN20090615020009106/15/09 02:00:31  5-MIN KMSN 150800Z 00000KT 9SM CLR 14/13 A3001 780 93 900 000/00 RMK AO2
14837KMSN MSN20090615020509206/15/09 02:05:31  5-MIN KMSN 150805Z 00000KT 10SM CLR 14/13 A3001 780 93 900 000/00 RMK AO2
14837KMSN MSN20090615021009106/15/09 02:10:31  5-MIN KMSN 150810Z 00000KT 9SM CLR 13/13 A3001 780 96 800 000/00 RMK AO2
14837KMSN MSN20090615021509106/15/09 02:15:31  5-MIN KMSN 150815Z 00000KT 9SM CLR 14/13 A3001 780 93 900 000/00 RMK AO2
14837KMSN MSN20090615022009106/15/09 02:20:31  5-MIN KMSN 150820Z 00000KT 9SM CLR 14/13 A3001 780 93 900 000/00 RMK AO2
14837KMSN MSN20090615022509206/15/09 02:25:31  5-MIN KMSN 150825Z 00000KT 10SM CLR 14/13 A3001 780 93 900 000/00 RMK AO2
14837KMSN MSN20090615023009206/15/09 02:30:31  5-MIN KMSN 150830Z 00000KT 10SM CLR 13/13 A3001 780 96 800 000/00 RMK AO2
14837KMSN MSN20090615023509206/15/09 02:35:31  5-MIN KMSN 150835Z 00000KT 10SM CLR 14/13 A3001 780 93 900 000/00 RMK AO2
14837KMSN MSN20090615024009206/15/09 02:40:31  5-MIN KMSN 150840Z 00000KT 10SM CLR 14/13 A3001 790 93 900 000/00 RMK AO2
14837KMSN MSN20090615024509206/15/09 02:45:31  5-MIN KMSN 150845Z 00000KT 10SM CLR 14/13 A3000 790 93 900 000/00 RMK AO2
14837KMSN MSN20090615025011506/15/09 02:50:31  5-MIN KMSN 150850Z 00000KT 10SM CLR 14/13 A3000 790 93 900 000/00 RMK AO2 SLP157 T01390128 51010
14837KMSN MSN20090615025509206/15/09 02:55:31  5-MIN KMSN 150855Z 00000KT 10SM CLR 13/13 A3001 780 96 800 000/00 RMK AO2
14837KMSN MSN20090615030009106/15/09 03:00:31  5-MIN KMSN 150900Z 00000KT 8SM CLR 13/12 A3001 780 93 800 000/00 RMK AO2
14837KMSN MSN20090615030509106/15/09 03:05:31  5-MIN KMSN 150905Z 00000KT 7SM CLR 13/13 A3001 780 96 800 000/00 RMK AO2
14837KMSN MSN20090615031009406/15/09 03:10:31  5-MIN KMSN 150910Z 00000KT 6SM BR CLR 13/13 A3001 780 96 800 000/00 RMK AO2
14837KMSN MSN20090615031509406/15/09 03:15:31  5-MIN KMSN 150915Z 01004KT 6SM BR CLR 13/13 A3001 780 96 800 010/04 RMK AO2
14837KMSN MSN20090615032009406/15/09 03:20:31  5-MIN KMSN 150920Z 00000KT 6SM BR CLR 13/12 A3002 780 93 700 000/00 RMK AO2
14837KMSN MSN20090615032509106/15/09 03:25:31  5-MIN KMSN 150925Z 00000KT 7SM CLR 14/13 A3002 770 93 900 000/00 RMK AO2
14837KMSN MSN20090615033009106/15/09 03:30:31  5-MIN KMSN 150930Z 00000KT 9SM CLR 13/12 A3002 770 93 800 000/00 RMK AO2
14837KMSN MSN20090615033509106/15/09 03:35:31  5-MIN KMSN 150935Z 00000KT 9SM CLR 14/13 A3002 770 93 900 000/00 RMK AO2
14837KMSN MSN20090615034009106/15/09 03:40:31  5-MIN KMSN 150940Z 00000KT 8SM CLR 13/12 A3003 760 93 800 000/00 RMK AO2
14837KMSN MSN20090615034509106/15/09 03:45:31  5-MIN KMSN 150945Z 00000KT 7SM CLR 13/12 A3004 760 93 800 000/00 RMK AO2
14837KMSN MSN20090615035010806/15/09 03:50:31  5-MIN KMSN 150950Z 00000KT 8SM CLR 13/12 A3004 760 93 800 000/00 RMK AO2 SLP168 T01330122
14837KMSN MSN20090615035509106/15/09 03:55:31  5-MIN KMSN 150955Z 00000KT 9SM CLR 13/12 A3004 760 93 800 000/00 RMK AO2
14837KMSN MSN20090615040009106/15/09 04:00:31  5-MIN KMSN 151000Z 00000KT 9SM CLR 13/13 A3004 750 96 800 000/00 RMK AO2
14837KMSN MSN20090615040509106/15/09 04:05:31  5-MIN KMSN 151005Z 00000KT 9SM CLR 13/12 A3004 750 93 800 000/00 RMK AO2
14837KMSN MSN20090615041009106/15/09 04:10:31  5-MIN KMSN 151010Z 00000KT 9SM CLR 13/12 A3004 750 93 800 000/00 RMK AO2
14837KMSN MSN20090615041509106/15/09 04:15:31  5-MIN KMSN 151015Z 00000KT 8SM CLR 13/13 A3005 750 96 800 000/00 RMK AO2
14837KMSN MSN20090615042009106/15/09 04:20:31  5-MIN KMSN 151020Z 00000KT 9SM CLR 14/12 A3005 740 90 800 000/00 RMK AO2
14837KMSN MSN20090615042509106/15/09 04:25:31  5-MIN KMSN 151025Z 00000KT 9SM CLR 13/12 A3005 740 93 800 000/00 RMK AO2
14837KMSN MSN20090615043009106/15/09 04:30:31  5-MIN KMSN 151030Z 00000KT 9SM CLR 13/12 A3005 740 89 800 000/00 RMK AO2
14837KMSN MSN20090615043509106/15/09 04:35:31  5-MIN KMSN 151035Z 00000KT 9SM CLR 14/12 A3005 740 86 800 000/00 RMK AO2
14837KMSN MSN20090615044009106/15/09 04:40:31  5-MIN KMSN 151040Z 00000KT 9SM CLR 13/12 A3005 750 89 800 000/00 RMK AO2
14837KMSN MSN20090615044509106/15/09 04:45:31  5-MIN KMSN 151045Z 00000KT 9SM CLR 13/12 A3005 750 89 800 000/00 RMK AO2
14837KMSN MSN20090615045010806/15/09 04:50:31  5-MIN KMSN 151050Z 00000KT 9SM CLR 13/12 A3004 750 93 800 000/00 RMK AO2 SLP170 T01330122
14837KMSN MSN20090615045509106/15/09 04:55:31  5-MIN KMSN 151055Z 05003KT 9SM CLR 13/12 A3004 750 89 800 050/03 RMK AO2
14837KMSN MSN20090615050009106/15/09 05:00:31  5-MIN KMSN 151100Z 00000KT 8SM CLR 13/12 A3004 750 93 800 000/00 RMK AO2
14837KMSN MSN20090615050509106/15/09 05:05:31  5-MIN KMSN 151105Z 00000KT 7SM CLR 13/12 A3004 760 93 800 000/00 RMK AO2
14837KMSN MSN20090615051009106/15/09 05:10:31  5-MIN KMSN 151110Z 00000KT 7SM CLR 13/12 A3003 760 93 800 000/00 RMK AO2
14837KMSN MSN20090615051509106/15/09 05:15:31  5-MIN KMSN 151115Z 00000KT 7SM CLR 14/13 A3003 760 93 800 000/00 RMK AO2
14837KMSN MSN20090615052009106/15/09 05:20:31  5-MIN KMSN 151120Z 00000KT 7SM CLR 14/13 A3003 760 93 800 000/00 RMK AO2
14837KMSN MSN20090615052509106/15/09 05:25:31  5-MIN KMSN 151125Z 00000KT 7SM CLR 14/13 A3003 760 90 900 000/00 RMK AO2
14837KMSN MSN20090615053009206/15/09 05:30:31  5-MIN KMSN 151130Z 00000KT 8SM CLR 16/13 A3004 760 86 1000 000/00 RMK AO2
14837KMSN MSN20090615053509206/15/09 05:35:31  5-MIN KMSN 151135Z 00000KT 7SM CLR 16/14 A3003 760 90 1000 000/00 RMK AO2
14837KMSN MSN20090615054009206/15/09 05:40:31  5-MIN KMSN 151140Z 00000KT 7SM CLR 16/14 A3003 760 90 1000 000/00 RMK AO2
14837KMSN MSN20090615054509506/15/09 05:45:31  5-MIN KMSN 151145Z 00000KT 6SM BR CLR 16/14 A3003 760 90 1100 000/00 RMK AO2
14837KMSN MSN20090615055013006/15/09 05:50:31  5-MIN KMSN 151150Z 00000KT 6SM BR CLR 16/14 A3004 760 90 1100 000/00 RMK AO2 SLP169 T01610144 10161 20122 56012
14837KMSN MSN20090615055509506/15/09 05:55:31  5-MIN KMSN 151155Z 00000KT 6SM BR CLR 17/15 A3004 760 90 1200 000/00 RMK AO2
14837KMSN MSN20090615060009506/15/09 06:00:31  5-MIN KMSN 151200Z 00000KT 6SM BR CLR 17/15 A3004 760 87 1200 000/00 RMK AO2
14837KMSN MSN20090615060509506/15/09 06:05:31  5-MIN KMSN 151205Z 00000KT 6SM BR CLR 17/15 A3004 750 87 1200 000/00 RMK AO2
14837KMSN MSN20090615061009206/15/09 06:10:31  5-MIN KMSN 151210Z 00000KT 7SM CLR 18/15 A3005 750 83 1300 000/00 RMK AO2
14837KMSN MSN20090615061509206/15/09 06:15:31  5-MIN KMSN 151215Z 00000KT 7SM CLR 18/15 A3005 750 83 1300 000/00 RMK AO2
14837KMSN MSN20090615062009206/15/09 06:20:31  5-MIN KMSN 151220Z 00000KT 7SM CLR 18/15 A3005 750 81 1300 000/00 RMK AO2
14837KMSN MSN20090615062509206/15/09 06:25:31  5-MIN KMSN 151225Z 00000KT 7SM CLR 18/15 A3005 750 81 1400 000/00 RMK AO2
14837KMSN MSN20090615063009206/15/09 06:30:31  5-MIN KMSN 151230Z 00000KT 7SM CLR 19/15 A3005 750 78 1400 000/00 RMK AO2
14837KMSN MSN20090615063509206/15/09 06:35:31  5-MIN KMSN 151235Z 00000KT 7SM CLR 19/15 A3005 750 78 1400 000/00 RMK AO2
14837KMSN MSN20090615064009206/15/09 06:40:31  5-MIN KMSN 151240Z 00000KT 8SM CLR 19/15 A3005 750 78 1400 000/00 RMK AO2
14837KMSN MSN20090615064509206/15/09 06:45:31  5-MIN KMSN 151245Z 00000KT 8SM CLR 19/15 A3005 750 78 1400 000/00 RMK AO2
14837KMSN MSN20090615065010906/15/09 06:50:31  5-MIN KMSN 151250Z 00000KT 8SM CLR 19/15 A3005 740 75 1500 000/00 RMK AO2 SLP172 T01940150
14837KMSN MSN20090615065509206/15/09 06:55:31  5-MIN KMSN 151255Z 00000KT 8SM CLR 19/15 A3005 740 75 1500 000/00 RMK AO2
14837KMSN MSN20090615070009206/15/09 07:00:31  5-MIN KMSN 151300Z 00000KT 8SM CLR 19/15 A3005 740 75 1500 000/00 RMK AO2
14837KMSN MSN20090615070509206/15/09 07:05:31  5-MIN KMSN 151305Z 00000KT 8SM CLR 20/15 A3005 740 72 1500 000/00 RMK AO2
14837KMSN MSN20090615071009206/15/09 07:10:31  5-MIN KMSN 151310Z 00000KT 8SM CLR 20/15 A3005 740 72 1500 000/00 RMK AO2
14837KMSN MSN20090615071509206/15/09 07:15:31  5-MIN KMSN 151315Z 00000KT 8SM CLR 21/15 A3005 740 70 1600 000/00 RMK AO2
14837KMSN MSN20090615072009206/15/09 07:20:31  5-MIN KMSN 151320Z 03004KT 8SM CLR 21/16 A3006 740 73 1600 030/04 RMK AO2
14837KMSN MSN20090615072509206/15/09 07:25:31  5-MIN KMSN 151325Z 00000KT 8SM CLR 21/16 A3006 740 70 1700 000/00 RMK AO2
14837KMSN MSN20090615073009206/15/09 07:30:31  5-MIN KMSN 151330Z 00000KT 8SM CLR 21/15 A3005 740 68 1700 000/00 RMK AO2
14837KMSN MSN20090615073509206/15/09 07:35:31  5-MIN KMSN 151335Z 00000KT 8SM CLR 21/15 A3005 740 68 1700 000/00 RMK AO2
14837KMSN MSN20090615074009206/15/09 07:40:31  5-MIN KMSN 151340Z 00000KT 8SM CLR 21/14 A3005 740 65 1700 000/00 RMK AO2
14837KMSN MSN20090615074509206/15/09 07:45:31  5-MIN KMSN 151345Z 00000KT 9SM CLR 22/14 A3005 740 63 1700 000/00 RMK AO2
14837KMSN MSN20090615075011006/15/09 07:50:31  5-MIN KMSN 151350Z 00000KT 10SM CLR 22/14 A3005 740 63 1700 000/00 RMK AO2 SLP172 T02170144
14837KMSN MSN20090615075509306/15/09 07:55:31  5-MIN KMSN 151355Z 00000KT 10SM CLR 22/14 A3005 740 61 1700 000/00 RMK AO2
14837KMSN MSN20090615080009306/15/09 08:00:31  5-MIN KMSN 151400Z 00000KT 10SM CLR 22/14 A3005 750 59 1800 000/00 RMK AO2
14837KMSN MSN20090615080509306/15/09 08:05:31  5-MIN KMSN 151405Z 00000KT 10SM CLR 22/14 A3005 740 59 1800 000/00 RMK AO2
14837KMSN MSN20090615081009306/15/09 08:10:31  5-MIN KMSN 151410Z 00000KT 10SM CLR 22/14 A3005 750 61 1800 000/00 RMK AO2
14837KMSN MSN20090615081509306/15/09 08:15:31  5-MIN KMSN 151415Z 00000KT 10SM CLR 23/14 A3005 750 59 1900 000/00 RMK AO2
14837KMSN MSN20090615082009306/15/09 08:20:31  5-MIN KMSN 151420Z 00000KT 10SM CLR 23/14 A3005 750 59 1900 000/00 RMK AO2
14837KMSN MSN20090615082509306/15/09 08:25:31  5-MIN KMSN 151425Z 00000KT 10SM CLR 23/14 A3004 750 59 1900 000/00 RMK AO2
14837KMSN MSN20090615083009306/15/09 08:30:31  5-MIN KMSN 151430Z 18003KT 10SM CLR 23/14 A3004 750 57 1900 180/03 RMK AO2
14837KMSN MSN20090615083509306/15/09 08:35:31  5-MIN KMSN 151435Z 19003KT 10SM CLR 23/13 A3004 750 51 1900 190/03 RMK AO2
14837KMSN MSN20090615084009306/15/09 08:40:31  5-MIN KMSN 151440Z 17003KT 10SM CLR 23/13 A3004 750 51 1900 170/03 RMK AO2
14837KMSN MSN20090615084509306/15/09 08:45:31  5-MIN KMSN 151445Z 15004KT 10SM CLR 23/12 A3004 760 49 1900 150/04 RMK AO2
14837KMSN MSN20090615085011606/15/09 08:50:31  5-MIN KMSN 151450Z 18006KT 10SM CLR 24/11 A3004 750 44 2000 180/06 RMK AO2 SLP168 T02390111 50011
14837KMSN MSN20090615085509306/15/09 08:55:31  5-MIN KMSN 151455Z 19007KT 10SM CLR 24/09 A3004 750 39 2000 190/07 RMK AO2
14837KMSN MSN20090615090009306/15/09 09:00:31  5-MIN KMSN 151500Z 18006KT 10SM CLR 24/09 A3004 750 39 2000 180/06 RMK AO2
14837KMSN MSN20090615090509306/15/09 09:05:31  5-MIN KMSN 151505Z 19005KT 10SM CLR 24/09 A3004 750 39 2000 190/05 RMK AO2
14837KMSN MSN20090615091009306/15/09 09:10:31  5-MIN KMSN 151510Z 18006KT 10SM CLR 24/11 A3004 750 42 2000 180/06 RMK AO2
14837KMSN MSN20090615091509306/15/09 09:15:31  5-MIN KMSN 151515Z 18008KT 10SM CLR 24/09 A3004 750 39 2000 180/08 RMK AO2
14837KMSN MSN20090615092009306/15/09 09:20:31  5-MIN KMSN 151520Z 16008KT 10SM CLR 24/10 A3004 750 41 2000 160/08 RMK AO2
14837KMSN MSN20090615092509306/15/09 09:25:31  5-MIN KMSN 151525Z 17007KT 10SM CLR 24/09 A3004 750 39 2000 170/07 RMK AO2
14837KMSN MSN20090615093009306/15/09 09:30:31  5-MIN KMSN 151530Z 17008KT 10SM CLR 24/09 A3005 750 39 2000 170/08 RMK AO2
14837KMSN MSN20090615093509306/15/09 09:35:31  5-MIN KMSN 151535Z 20007KT 10SM CLR 24/10 A3005 740 41 2000 200/07 RMK AO2
14837KMSN MSN20090615094009306/15/09 09:40:31  5-MIN KMSN 151540Z 20007KT 10SM CLR 24/09 A3005 740 39 2000 200/07 RMK AO2
14837KMSN MSN20090615094509306/15/09 09:45:31  5-MIN KMSN 151545Z 18009KT 10SM CLR 24/09 A3005 750 39 2000 170/09 RMK AO2
14837KMSN MSN20090615095011006/15/09 09:50:31  5-MIN KMSN 151550Z 18010KT 10SM CLR 24/09 A3004 750 36 2100 180/10 RMK AO2 SLP170 T02440089
14837KMSN MSN20090615095509306/15/09 09:55:31  5-MIN KMSN 151555Z 19008KT 10SM CLR 24/09 A3004 750 36 2100 190/08 RMK AO2
14837KMSN MSN20090615100009306/15/09 10:00:31  5-MIN KMSN 151600Z 19007KT 10SM CLR 24/09 A3004 750 38 2100 190/07 RMK AO2
14837KMSN MSN20090615100509306/15/09 10:05:31  5-MIN KMSN 151605Z 20007KT 10SM CLR 24/09 A3004 750 38 2100 200/07 RMK AO2
14837KMSN MSN20090615101009306/15/09 10:10:31  5-MIN KMSN 151610Z 20006KT 10SM CLR 24/10 A3004 760 39 2100 190/06 RMK AO2
14837KMSN MSN20090615101509306/15/09 10:15:31  5-MIN KMSN 151615Z 16004KT 10SM CLR 24/11 A3004 760 41 2100 160/04 RMK AO2
14837KMSN MSN20090615102009306/15/09 10:20:31  5-MIN KMSN 151620Z 13006KT 10SM CLR 24/11 A3004 760 42 2100 130/06 RMK AO2
14837KMSN MSN20090615102509306/15/09 10:25:31  5-MIN KMSN 151625Z 14007KT 10SM CLR 25/11 A3004 750 41 2100 140/07 RMK AO2
14837KMSN MSN20090615103009306/15/09 10:30:31  5-MIN KMSN 151630Z 14007KT 10SM CLR 24/11 A3004 750 42 2100 140/07 RMK AO2
14837KMSN MSN20090615103509306/15/09 10:35:31  5-MIN KMSN 151635Z 11007KT 10SM CLR 25/12 A3004 750 43 2100 110/07 RMK AO2
14837KMSN MSN20090615104009306/15/09 10:40:31  5-MIN KMSN 151640Z 13006KT 10SM CLR 25/11 A3004 760 41 2100 130/06 RMK AO2
14837KMSN MSN20090615104509306/15/09 10:45:31  5-MIN KMSN 151645Z 13007KT 10SM CLR 25/12 A3004 760 43 2100 130/07 RMK AO2
14837KMSN MSN20090615105011006/15/09 10:50:31  5-MIN KMSN 151650Z 15008KT 10SM CLR 25/11 A3004 760 41 2100 150/08 RMK AO2 SLP168 T02500111
14837KMSN MSN20090615105509306/15/09 10:55:31  5-MIN KMSN 151655Z 14004KT 10SM CLR 25/11 A3004 760 41 2100 140/04 RMK AO2
14837KMSN MSN20090615110009306/15/09 11:00:31  5-MIN KMSN 151700Z 15008KT 10SM CLR 26/12 A3004 760 41 2200 150/08 RMK AO2
14837KMSN MSN20090615110509306/15/09 11:05:31  5-MIN KMSN 151705Z 14007KT 10SM CLR 25/12 A3004 750 43 2100 130/07 RMK AO2
14837KMSN MSN20090615111009306/15/09 11:10:31  5-MIN KMSN 151710Z 16007KT 10SM CLR 25/12 A3004 750 43 2100 160/07 RMK AO2
14837KMSN MSN20090615111509306/15/09 11:15:31  5-MIN KMSN 151715Z 16009KT 10SM CLR 25/12 A3004 750 43 2100 160/09 RMK AO2
14837KMSN MSN20090615112009306/15/09 11:20:31  5-MIN KMSN 151720Z 13003KT 10SM CLR 25/11 A3004 760 41 2100 120/03 RMK AO2
14837KMSN MSN20090615112509306/15/09 11:25:31  5-MIN KMSN 151725Z 15005KT 10SM CLR 25/12 A3004 760 43 2100 150/05 RMK AO2
14837KMSN MSN20090615113009306/15/09 11:30:31  5-MIN KMSN 151730Z 13006KT 10SM CLR 26/12 A3004 750 41 2200 130/06 RMK AO2
14837KMSN MSN20090615113509306/15/09 11:35:31  5-MIN KMSN 151735Z 12007KT 10SM CLR 26/12 A3004 760 43 2200 120/07 RMK AO2
14837KMSN MSN20090615114009306/15/09 11:40:31  5-MIN KMSN 151740Z 19006KT 10SM CLR 26/12 A3004 750 43 2200 190/06 RMK AO2
14837KMSN MSN20090615114509306/15/09 11:45:31  5-MIN KMSN 151745Z 20004KT 10SM CLR 26/12 A3004 750 41 2200 200/04 RMK AO2
14837KMSN MSN20090615115013106/15/09 11:50:31  5-MIN KMSN 151750Z 17005KT 10SM FEW060 26/11 A3004 750 40 2200 160/05 RMK AO2 SLP169 T02560111 10256 20167 50000
14837KMSN MSN20090615115509306/15/09 11:55:31  5-MIN KMSN 151755Z VRB06KT 10SM CLR 26/12 A3004 760 41 2200 VRB/06 RMK AO2
14837KMSN MSN20090615120009306/15/09 12:00:31  5-MIN KMSN 151800Z 17006KT 10SM CLR 26/12 A3004 750 40 2200 170/06 RMK AO2
14837KMSN MSN20090615120509306/15/09 12:05:31  5-MIN KMSN 151805Z 16006KT 10SM CLR 26/12 A3004 760 41 2200 160/06 RMK AO2
14837KMSN MSN20090615121009306/15/09 12:10:31  5-MIN KMSN 151810Z 14007KT 10SM CLR 26/12 A3004 760 41 2200 140/07 RMK AO2
14837KMSN MSN20090615121510906/15/09 12:15:31  5-MIN KMSN 151815Z 17008KT 120V180 10SM CLR 26/12 A3004 760 41 2200 170/08 120V180 RMK AO2
14837KMSN MSN20090615122009306/15/09 12:20:31  5-MIN KMSN 151820Z 12006KT 10SM CLR 26/12 A3004 760 41 2200 120/06 RMK AO2
14837KMSN MSN20090615122509306/15/09 12:25:31  5-MIN KMSN 151825Z 13006KT 10SM CLR 26/12 A3004 760 40 2300 130/06 RMK AO2
14837KMSN MSN20090615123009306/15/09 12:30:31  5-MIN KMSN 151830Z 18007KT 10SM CLR 26/12 A3003 760 41 2200 180/07 RMK AO2
14837KMSN MSN20090615123509306/15/09 12:35:31  5-MIN KMSN 151835Z 18009KT 10SM CLR 26/12 A3003 760 41 2200 180/09 RMK AO2
14837KMSN MSN20090615124009306/15/09 12:40:31  5-MIN KMSN 151840Z 19005KT 10SM CLR 26/12 A3003 760 40 2300 190/05 RMK AO2
14837KMSN MSN20090615124509306/15/09 12:45:31  5-MIN KMSN 151845Z VRB05KT 10SM CLR 26/12 A3003 760 40 2300 VRB/05 RMK AO2
14837KMSN MSN20090615125011306/15/09 12:50:31  5-MIN KMSN 151850Z 17006KT 10SM FEW060 26/12 A3003 760 41 2200 170/06 RMK AO2 SLP167 T02560117
14837KMSN MSN20090615125509306/15/09 12:55:31  5-MIN KMSN 151855Z 18008KT 10SM CLR 26/11 A3003 760 38 2300 180/08 RMK AO2
14837KMSN MSN20090615130009306/15/09 13:00:31  5-MIN KMSN 151900Z 18007KT 10SM CLR 26/12 A3003 760 40 2300 180/07 RMK AO2
14837KMSN MSN20090615130509306/15/09 13:05:31  5-MIN KMSN 151905Z 15007KT 10SM CLR 26/12 A3003 760 40 2300 150/07 RMK AO2
14837KMSN MSN20090615131009306/15/09 13:10:31  5-MIN KMSN 151910Z 18006KT 10SM CLR 26/12 A3003 760 40 2300 180/06 RMK AO2
14837KMSN MSN20090615131509306/15/09 13:15:31  5-MIN KMSN 151915Z 17005KT 10SM CLR 26/12 A3003 760 40 2300 170/05 RMK AO2
14837KMSN MSN20090615132009306/15/09 13:20:31  5-MIN KMSN 151920Z 13007KT 10SM CLR 26/12 A3003 770 41 2300 130/07 RMK AO2
14837KMSN MSN20090615132510906/15/09 13:25:31  5-MIN KMSN 151925Z 14007KT 110V190 10SM CLR 26/12 A3002 770 41 2300 140/07 110V190 RMK AO2
14837KMSN MSN20090615133009606/15/09 13:30:31  5-MIN KMSN 151930Z 20005KT 10SM FEW065 26/12 A3002 770 40 2300 200/05 RMK AO2
14837KMSN MSN20090615133509606/15/09 13:35:31  5-MIN KMSN 151935Z 17007KT 10SM FEW065 27/12 A3002 770 40 2300 170/07 RMK AO2
14837KMSN MSN20090615134009606/15/09 13:40:31  5-MIN KMSN 151940Z 19006KT 10SM FEW065 26/12 A3002 770 40 2300 190/06 RMK AO2
14837KMSN MSN20090615134509606/15/09 13:45:31  5-MIN KMSN 151945Z 17007KT 10SM FEW065 26/12 A3002 780 40 2300 170/07 RMK AO2
14837KMSN MSN20090615135011306/15/09 13:50:31  5-MIN KMSN 151950Z VRB04KT 10SM FEW060 26/12 A3001 780 41 2300 VRB/04 RMK AO2 SLP160 T02610122
14837KMSN MSN20090615135509606/15/09 13:55:31  5-MIN KMSN 151955Z 13004KT 10SM FEW060 26/12 A3001 780 41 2300 130/04 RMK AO2
14837KMSN MSN20090615140009606/15/09 14:00:31  5-MIN KMSN 152000Z VRB03KT 10SM FEW060 26/12 A3001 780 41 2300 VRB/03 RMK AO2
14837KMSN MSN20090615140509606/15/09 14:05:31  5-MIN KMSN 152005Z 14007KT 10SM FEW060 26/12 A3001 780 41 2300 140/07 RMK AO2
14837KMSN MSN20090615141009606/15/09 14:10:31  5-MIN KMSN 152010Z 17005KT 10SM FEW060 26/12 A3001 780 41 2300 170/05 RMK AO2
14837KMSN MSN20090615141509606/15/09 14:15:31  5-MIN KMSN 152015Z 13006KT 10SM FEW060 27/12 A3001 780 40 2300 130/06 RMK AO2
14837KMSN MSN20090615142009606/15/09 14:20:31  5-MIN KMSN 152020Z 12005KT 10SM FEW060 27/12 A3001 790 40 2300 120/05 RMK AO2
14837KMSN MSN20090615142511206/15/09 14:25:31  5-MIN KMSN 152025Z 15008KT 120V180 10SM FEW060 27/12 A3001 790 40 2300 150/08 120V180 RMK AO2
14837KMSN MSN20090615143009606/15/09 14:30:31  5-MIN KMSN 152030Z 15008KT 10SM FEW065 27/12 A3001 780 40 2300 140/08 RMK AO2
14837KMSN MSN20090615143509606/15/09 14:35:31  5-MIN KMSN 152035Z 15005KT 10SM FEW065 26/12 A3000 790 41 2300 150/05 RMK AO2
14837KMSN MSN20090615144009606/15/09 14:40:31  5-MIN KMSN 152040Z 17004KT 10SM FEW065 26/12 A3000 790 41 2200 170/04 RMK AO2
14837KMSN MSN20090615144509606/15/09 14:45:31  5-MIN KMSN 152045Z 11007KT 10SM BKN065 26/12 A3000 790 41 2300 110/07 RMK AO2
14837KMSN MSN20090615145012506/15/09 14:50:31  5-MIN KMSN 152050Z 14006G19KT 10SM FEW065 26/12 A3000 790 41 2300 140/06G19 RMK AO2 SLP156 T02610122 50000
14837KMSN MSN20090615145510206/15/09 14:55:31  5-MIN KMSN 152055Z 15006G19KT 10SM SCT065 26/12 A3000 790 40 2300 150/06G19 RMK AO2
14837KMSN MSN20090615150009606/15/09 15:00:31  5-MIN KMSN 152100Z VRB06KT 10SM SCT065 26/12 A3000 790 40 2300 VRB/06 RMK AO2
14837KMSN MSN20090615150510206/15/09 15:05:31  5-MIN KMSN 152105Z 14007G15KT 10SM SCT065 26/12 A3000 790 41 2300 140/07G15 RMK AO2
14837KMSN MSN20090615151010206/15/09 15:10:31  5-MIN KMSN 152110Z 14009G15KT 10SM FEW065 26/12 A3000 790 43 2200 130/09G15 RMK AO2
14837KMSN MSN20090615151509606/15/09 15:15:31  5-MIN KMSN 152115Z 13006KT 10SM FEW065 26/12 A2999 800 40 2300 130/06 RMK AO2
14837KMSN MSN20090615152009306/15/09 15:20:31  5-MIN KMSN 152120Z 15006KT 10SM CLR 26/12 A2999 800 40 2300 140/06 RMK AO2
14837KMSN MSN20090615152509606/15/09 15:25:31  5-MIN KMSN 152125Z 21005KT 10SM FEW048 26/12 A2999 800 40 2300 200/05 RMK AO2
14837KMSN MSN20090615153009606/15/09 15:30:31  5-MIN KMSN 152130Z VRB04KT 10SM FEW048 26/12 A2999 800 40 2300 VRB/04 RMK AO2
14837KMSN MSN20090615153509606/15/09 15:35:31  5-MIN KMSN 152135Z 13006KT 10SM FEW048 27/12 A2999 800 40 2400 120/06 RMK AO2
14837KMSN MSN20090615154009606/15/09 15:40:31  5-MIN KMSN 152140Z 13009KT 10SM FEW048 27/12 A2999 800 40 2400 130/09 RMK AO2
14837KMSN MSN20090615154509606/15/09 15:45:31  5-MIN KMSN 152145Z 12006KT 10SM FEW048 26/12 A2999 800 40 2300 120/06 RMK AO2
14837KMSN MSN20090615155011306/15/09 15:50:31  5-MIN KMSN 152150Z 12008KT 10SM FEW048 26/12 A2999 800 41 2300 120/08 RMK AO2 SLP152 T02610122
14837KMSN MSN20090615155509306/15/09 15:55:31  5-MIN KMSN 152155Z 13008KT 10SM CLR 26/12 A2999 800 41 2200 120/08 RMK AO2
14837KMSN MSN20090615160009306/15/09 16:00:31  5-MIN KMSN 152200Z 12005KT 10SM CLR 26/12 A2999 800 40 2300 120/05 RMK AO2
14837KMSN MSN20090615160509606/15/09 16:05:31  5-MIN KMSN 152205Z 13005KT 10SM FEW060 26/12 A2999 800 41 2300 130/05 RMK AO2
14837KMSN MSN20090615161009606/15/09 16:10:31  5-MIN KMSN 152210Z 14007KT 10SM FEW060 26/12 A2998 800 40 2300 140/07 RMK AO2
14837KMSN MSN20090615161509606/15/09 16:15:31  5-MIN KMSN 152215Z 14006KT 10SM FEW060 26/11 A2998 810 38 2300 140/06 RMK AO2
14837KMSN MSN20090615162009606/15/09 16:20:31  5-MIN KMSN 152220Z 10006KT 10SM FEW060 26/12 A2998 810 43 2300 100/06 RMK AO2
14837KMSN MSN20090615162509606/15/09 16:25:31  5-MIN KMSN 152225Z 11006KT 10SM FEW060 26/11 A2998 810 40 2300 110/06 RMK AO2
14837KMSN MSN20090615163009606/15/09 16:30:31  5-MIN KMSN 152230Z 14006KT 10SM FEW060 26/12 A2998 810 43 2300 140/06 RMK AO2
14837KMSN MSN20090615163509606/15/09 16:35:31  5-MIN KMSN 152235Z 12008KT 10SM FEW060 26/12 A2998 810 41 2300 120/08 RMK AO2
14837KMSN MSN20090615164009606/15/09 16:40:31  5-MIN KMSN 152240Z 11009KT 10SM FEW060 25/12 A2998 810 43 2200 110/09 RMK AO2
14837KMSN MSN20090615164509606/15/09 16:45:31  5-MIN KMSN 152245Z 12005KT 10SM FEW060 25/12 A2997 810 43 2200 120/05 RMK AO2
14837KMSN MSN20090615165011306/15/09 16:50:31  5-MIN KMSN 152250Z 09007KT 10SM FEW060 25/13 A2997 820 46 2200 090/07 RMK AO2 SLP146 T02500128
14837KMSN MSN20090615165509306/15/09 16:55:31  5-MIN KMSN 152255Z 12007KT 10SM CLR 25/12 A2997 820 44 2200 120/07 RMK AO2
14837KMSN MSN20090615170009306/15/09 17:00:31  5-MIN KMSN 152300Z 11006KT 10SM CLR 25/12 A2997 820 44 2200 110/06 RMK AO2
14837KMSN MSN20090615170509606/15/09 17:05:31  5-MIN KMSN 152305Z 12005KT 10SM FEW060 24/13 A2997 820 49 2100 110/05 RMK AO2
14837KMSN MSN20090615171009606/15/09 17:10:31  5-MIN KMSN 152310Z 11007KT 10SM FEW060 25/13 A2996 820 46 2200 110/07 RMK AO2
14837KMSN MSN20090615171509606/15/09 17:15:31  5-MIN KMSN 152315Z 11006KT 10SM FEW060 24/13 A2997 820 47 2100 110/06 RMK AO2
14837KMSN MSN20090615172009606/15/09 17:20:31  5-MIN KMSN 152320Z 10007KT 10SM FEW060 24/13 A2996 820 47 2100 100/07 RMK AO2
14837KMSN MSN20090615172509606/15/09 17:25:31  5-MIN KMSN 152325Z 10008KT 10SM FEW060 25/13 A2996 830 46 2200 100/08 RMK AO2
14837KMSN MSN20090615173009606/15/09 17:30:31  5-MIN KMSN 152330Z 10007KT 10SM FEW060 25/13 A2996 830 46 2200 100/07 RMK AO2
14837KMSN MSN20090615173509606/15/09 17:35:31  5-MIN KMSN 152335Z 10007KT 10SM FEW060 25/13 A2996 830 46 2200 100/07 RMK AO2
14837KMSN MSN20090615174009606/15/09 17:40:31  5-MIN KMSN 152340Z 11007KT 10SM FEW060 24/13 A2996 830 47 2100 110/07 RMK AO2
14837KMSN MSN20090615174509606/15/09 17:45:31  5-MIN KMSN 152345Z 10006KT 10SM FEW060 24/13 A2996 830 47 2100 100/06 RMK AO2
14837KMSN MSN20090615175013106/15/09 17:50:31  5-MIN KMSN 152350Z 10008KT 10SM FEW060 24/13 A2996 830 47 2100 100/08 RMK AO2 SLP142 T02440128 10267 20244 58013
14837KMSN MSN20090615175509306/15/09 17:55:31  5-MIN KMSN 152355Z 10007KT 10SM CLR 24/13 A2996 830 47 2200 100/07 RMK AO2
14837KMSN MSN20090615180009306/15/09 18:00:31  5-MIN KMSN 160000Z 10007KT 10SM CLR 24/13 A2996 830 47 2100 100/07 RMK AO2
14837KMSN MSN20090615180509306/15/09 18:05:31  5-MIN KMSN 160005Z 10008KT 10SM CLR 24/13 A2996 830 47 2200 100/08 RMK AO2
14837KMSN MSN20090615181009306/15/09 18:10:31  5-MIN KMSN 160010Z 11007KT 10SM CLR 24/13 A2996 830 51 2100 110/07 RMK AO2
14837KMSN MSN20090615181509306/15/09 18:15:31  5-MIN KMSN 160015Z 11009KT 10SM CLR 24/13 A2996 830 49 2100 100/09 RMK AO2
14837KMSN MSN20090615182009306/15/09 18:20:31  5-MIN KMSN 160020Z 11008KT 10SM CLR 24/13 A2996 830 51 2100 110/08 RMK AO2
14837KMSN MSN20090615182509306/15/09 18:25:31  5-MIN KMSN 160025Z 11007KT 10SM CLR 24/13 A2996 830 51 2100 110/07 RMK AO2
14837KMSN MSN20090615183009306/15/09 18:30:31  5-MIN KMSN 160030Z 12008KT 10SM CLR 24/14 A2996 830 53 2100 120/08 RMK AO2
14837KMSN MSN20090615183509306/15/09 18:35:31  5-MIN KMSN 160035Z 12008KT 10SM CLR 24/13 A2996 820 51 2100 120/08 RMK AO2
14837KMSN MSN20090615184009306/15/09 18:40:31  5-MIN KMSN 160040Z 12007KT 10SM CLR 24/13 A2997 820 51 2100 120/07 RMK AO2
14837KMSN MSN20090615184509306/15/09 18:45:31  5-MIN KMSN 160045Z 12008KT 10SM CLR 24/13 A2997 820 51 2100 120/08 RMK AO2
14837KMSN MSN20090615185011006/15/09 18:50:31  5-MIN KMSN 160050Z 13009KT 10SM CLR 24/13 A2997 820 51 2100 130/09 RMK AO2 SLP144 T02390133
14837KMSN MSN20090615185509306/15/09 18:55:31  5-MIN KMSN 160055Z 12008KT 10SM CLR 24/13 A2997 820 51 2100 120/08 RMK AO2
14837KMSN MSN20090615190009306/15/09 19:00:31  5-MIN KMSN 160100Z 13008KT 10SM CLR 23/13 A2997 820 53 2000 130/08 RMK AO2
14837KMSN MSN20090615190509306/15/09 19:05:31  5-MIN KMSN 160105Z 12008KT 10SM CLR 23/13 A2997 820 53 2000 120/08 RMK AO2
14837KMSN MSN20090615191009306/15/09 19:10:31  5-MIN KMSN 160110Z 12007KT 10SM CLR 23/13 A2997 820 53 2000 120/07 RMK AO2
14837KMSN MSN20090615191509306/15/09 19:15:31  5-MIN KMSN 160115Z 12007KT 10SM CLR 23/13 A2997 820 55 2000 120/07 RMK AO2
14837KMSN MSN20090615192009306/15/09 19:20:31  5-MIN KMSN 160120Z 12008KT 10SM CLR 23/13 A2997 820 55 2000 120/08 RMK AO2
14837KMSN MSN20090615192509306/15/09 19:25:31  5-MIN KMSN 160125Z 12008KT 10SM CLR 23/13 A2997 820 53 1900 110/08 RMK AO2
14837KMSN MSN20090615193009306/15/09 19:30:31  5-MIN KMSN 160130Z 12007KT 10SM CLR 22/13 A2997 820 56 1900 120/07 RMK AO2
14837KMSN MSN20090615193509306/15/09 19:35:31  5-MIN KMSN 160135Z 12007KT 10SM CLR 22/13 A2997 820 54 1900 120/07 RMK AO2
14837KMSN MSN20090615194009306/15/09 19:40:31  5-MIN KMSN 160140Z 13006KT 10SM CLR 22/13 A2997 820 54 1900 130/06 RMK AO2
14837KMSN MSN20090615194509306/15/09 19:45:31  5-MIN KMSN 160145Z 13008KT 10SM CLR 22/13 A2997 820 54 1900 130/08 RMK AO2
14837KMSN MSN20090615195011006/15/09 19:50:31  5-MIN KMSN 160150Z 13007KT 10SM CLR 22/12 A2997 820 52 1900 130/07 RMK AO2 SLP144 T02220122
14837KMSN MSN20090615195509306/15/09 19:55:31  5-MIN KMSN 160155Z 13008KT 10SM CLR 22/12 A2997 820 52 1900 130/08 RMK AO2
14837KMSN MSN20090615200009306/15/09 20:00:31  5-MIN KMSN 160200Z 13009KT 10SM CLR 22/12 A2997 820 51 1900 130/09 RMK AO2
14837KMSN MSN20090615200509306/15/09 20:05:31  5-MIN KMSN 160205Z 13009KT 10SM CLR 22/12 A2997 820 51 1900 130/09 RMK AO2
14837KMSN MSN20090615201009306/15/09 20:10:31  5-MIN KMSN 160210Z 13010KT 10SM CLR 22/12 A2997 820 51 1900 130/10 RMK AO2
14837KMSN MSN20090615201509306/15/09 20:15:31  5-MIN KMSN 160215Z 13009KT 10SM CLR 22/11 A2997 810 49 1900 130/09 RMK AO2
14837KMSN MSN20090615202009306/15/09 20:20:31  5-MIN KMSN 160220Z 14008KT 10SM CLR 22/11 A2998 810 49 1900 130/08 RMK AO2
14837KMSN MSN20090615202509306/15/09 20:25:31  5-MIN KMSN 160225Z 14009KT 10SM CLR 22/11 A2997 810 49 1900 140/09 RMK AO2
14837KMSN MSN20090615203009306/15/09 20:30:31  5-MIN KMSN 160230Z 13008KT 10SM CLR 22/11 A2997 820 50 1800 130/08 RMK AO2
14837KMSN MSN20090615203509306/15/09 20:35:31  5-MIN KMSN 160235Z 14008KT 10SM CLR 22/11 A2997 820 50 1800 140/08 RMK AO2
14837KMSN MSN20090615204009306/15/09 20:40:31  5-MIN KMSN 160240Z 14009KT 10SM CLR 22/11 A2997 810 50 1800 140/09 RMK AO2
14837KMSN MSN20090615204509306/15/09 20:45:31  5-MIN KMSN 160245Z 14008KT 10SM CLR 22/11 A2998 810 50 1800 140/08 RMK AO2
14837KMSN MSN20090615205011606/15/09 20:50:31  5-MIN KMSN 160250Z 14008KT 10SM CLR 22/11 A2998 810 50 1800 140/08 RMK AO2 SLP146 T02170111 56014
14837KMSN MSN20090615205509306/15/09 20:55:31  5-MIN KMSN 160255Z 13009KT 10SM CLR 22/11 A2998 810 49 1800 130/09 RMK AO2
14837KMSN MSN20090615210009306/15/09 21:00:31  5-MIN KMSN 160300Z 13008KT 10SM CLR 21/11 A2997 820 50 1800 130/08 RMK AO2
14837KMSN MSN20090615210509306/15/09 21:05:31  5-MIN KMSN 160305Z 13008KT 10SM CLR 21/11 A2997 820 50 1800 120/08 RMK AO2
14837KMSN MSN20090615211009306/15/09 21:10:31  5-MIN KMSN 160310Z 12008KT 10SM CLR 21/11 A2997 820 52 1700 120/08 RMK AO2
14837KMSN MSN20090615211509306/15/09 21:15:31  5-MIN KMSN 160315Z 12008KT 10SM CLR 20/11 A2996 820 54 1600 120/08 RMK AO2
14837KMSN MSN20090615212009306/15/09 21:20:31  5-MIN KMSN 160320Z 12008KT 10SM CLR 20/11 A2997 820 54 1600 120/08 RMK AO2
14837KMSN MSN20090615212509306/15/09 21:25:31  5-MIN KMSN 160325Z 12007KT 10SM CLR 20/11 A2997 820 54 1600 120/07 RMK AO2
14837KMSN MSN20090615213009306/15/09 21:30:31  5-MIN KMSN 160330Z 12008KT 10SM CLR 20/11 A2996 820 54 1600 120/08 RMK AO2
14837KMSN MSN20090615213509306/15/09 21:35:31  5-MIN KMSN 160335Z 11008KT 10SM CLR 19/11 A2996 820 56 1600 110/08 RMK AO2
14837KMSN MSN20090615214009306/15/09 21:40:31  5-MIN KMSN 160340Z 11008KT 10SM CLR 19/11 A2997 820 56 1600 110/08 RMK AO2
14837KMSN MSN20090615214509306/15/09 21:45:31  5-MIN KMSN 160345Z 11007KT 10SM CLR 19/11 A2997 820 58 1500 110/07 RMK AO2
14837KMSN MSN20090615215011006/15/09 21:50:31  5-MIN KMSN 160350Z 12007KT 10SM CLR 19/10 A2997 820 56 1500 110/07 RMK AO2 SLP143 T01890100
14837KMSN MSN20090615215509306/15/09 21:55:31  5-MIN KMSN 160355Z 12006KT 10SM CLR 19/10 A2997 820 56 1500 110/06 RMK AO2
14837KMSN MSN20090615220009306/15/09 22:00:31  5-MIN KMSN 160400Z 13005KT 10SM CLR 19/10 A2997 820 56 1500 120/05 RMK AO2
14837KMSN MSN20090615220509306/15/09 22:05:31  5-MIN KMSN 160405Z 13004KT 10SM CLR 19/10 A2998 810 56 1500 130/04 RMK AO2
14837KMSN MSN20090615221010006/15/09 22:10:31  5-MIN KMSN 160410Z 15004KT 10SM CLR 19/10 A2999 800 56 1500 150/04 RMK AO2 PRESRR
14837KMSN MSN20090615221509306/15/09 22:15:31  5-MIN KMSN 160415Z 14004KT 10SM CLR 20/10 A2999 800 52 1600 140/04 RMK AO2
14837KMSN MSN20090615222009306/15/09 22:20:31  5-MIN KMSN 160420Z 12004KT 10SM CLR 19/10 A2998 810 54 1600 120/04 RMK AO2
14837KMSN MSN20090615222509306/15/09 22:25:31  5-MIN KMSN 160425Z 10004KT 10SM CLR 18/10 A2998 800 58 1400 100/04 RMK AO2
14837KMSN MSN20090615223009306/15/09 22:30:31  5-MIN KMSN 160430Z 11005KT 10SM CLR 18/11 A2999 800 60 1400 110/05 RMK AO2
14837KMSN MSN20090615223509306/15/09 22:35:31  5-MIN KMSN 160435Z 11003KT 10SM CLR 18/11 A3000 790 62 1300 110/03 RMK AO2
14837KMSN MSN20090615224009306/15/09 22:40:31  5-MIN KMSN 160440Z 00000KT 10SM CLR 17/11 A3000 790 64 1300 000/00 RMK AO2
14837KMSN MSN20090615224509306/15/09 22:45:31  5-MIN KMSN 160445Z 00000KT 10SM CLR 17/11 A3000 790 67 1200 000/00 RMK AO2
14837KMSN MSN20090615225011006/15/09 22:50:31  5-MIN KMSN 160450Z 11004KT 10SM CLR 18/11 A2999 800 60 1400 110/04 RMK AO2 SLP152 T01830106
14837KMSN MSN20090615225509306/15/09 22:55:31  5-MIN KMSN 160455Z 12004KT 10SM CLR 18/11 A3000 790 60 1400 120/04 RMK AO2
14837KMSN MSN20090615230009306/15/09 23:00:31  5-MIN KMSN 160500Z 11005KT 10SM CLR 18/11 A3000 790 60 1400 110/05 RMK AO2
14837KMSN MSN20090615230509306/15/09 23:05:31  5-MIN KMSN 160505Z 11004KT 10SM CLR 18/11 A3000 790 60 1400 110/04 RMK AO2
14837KMSN MSN20090615231009306/15/09 23:10:31  5-MIN KMSN 160510Z 10003KT 10SM CLR 18/11 A3000 790 60 1400 100/03 RMK AO2
14837KMSN MSN20090615231509306/15/09 23:15:31  5-MIN KMSN 160515Z 00000KT 10SM CLR 18/11 A3001 790 60 1400 000/00 RMK AO2
14837KMSN MSN20090615232009306/15/09 23:20:31  5-MIN KMSN 160520Z 00000KT 10SM CLR 18/11 A3000 790 64 1300 000/00 RMK AO2
14837KMSN MSN20090615232509306/15/09 23:25:31  5-MIN KMSN 160525Z 00000KT 10SM CLR 18/11 A3000 790 62 1300 000/00 RMK AO2
14837KMSN MSN20090615233009306/15/09 23:30:31  5-MIN KMSN 160530Z 12004KT 10SM CLR 18/11 A3000 790 62 1300 120/04 RMK AO2
14837KMSN MSN20090615233509306/15/09 23:35:31  5-MIN KMSN 160535Z 13004KT 10SM CLR 18/11 A3000 790 60 1400 130/04 RMK AO2
14837KMSN MSN20090615234009306/15/09 23:40:31  5-MIN KMSN 160540Z 13005KT 10SM CLR 18/11 A3000 790 60 1400 130/05 RMK AO2
14837KMSN MSN20090615234509306/15/09 23:45:31  5-MIN KMSN 160545Z 13005KT 10SM CLR 18/11 A3000 790 60 1400 130/05 RMK AO2
14837KMSN MSN20090615235013806/15/09 23:50:31  5-MIN KMSN 160550Z 12005KT 10SM CLR 18/11 A3000 790 60 1400 120/05 RMK AO2 SLP154 T01830106 10244 20167 402670122 52006
14837KMSN MSN20090615235509306/15/09 23:55:31  5-MIN KMSN 160555Z 12005KT 10SM CLR 18/11 A2999 800 62 1300 120/05 RMK AO2
14837KMSN MSN20090616000009306/16/09 00:00:32  5-MIN KMSN 160600Z 12005KT 10SM CLR 17/11 A2999 800 64 1300 120/05 RMK AO2
14837KMSN MSN20090616000509306/16/09 00:05:31  5-MIN KMSN 160605Z 11006KT 10SM CLR 17/11 A2998 810 64 1300 110/06 RMK AO2
14837KMSN MSN20090616001009306/16/09 00:10:31  5-MIN KMSN 160610Z 11006KT 10SM CLR 17/11 A2998 810 64 1300 110/06 RMK AO2
14837KMSN MSN20090616001509306/16/09 00:15:31  5-MIN KMSN 160615Z 12007KT 10SM CLR 17/11 A2997 820 64 1300 120/07 RMK AO2
14837KMSN MSN20090616002009306/16/09 00:20:31  5-MIN KMSN 160620Z 12007KT 10SM CLR 17/10 A2997 820 62 1300 120/07 RMK AO2
14837KMSN MSN20090616002509306/16/09 00:25:31  5-MIN KMSN 160625Z 12006KT 10SM CLR 17/10 A2997 820 62 1300 120/06 RMK AO2
14837KMSN MSN20090616003009306/16/09 00:30:31  5-MIN KMSN 160630Z 12005KT 10SM CLR 17/10 A2997 820 64 1200 120/05 RMK AO2
14837KMSN MSN20090616003509306/16/09 00:35:31  5-MIN KMSN 160635Z 12005KT 10SM CLR 17/10 A2997 820 64 1200 120/05 RMK AO2
14837KMSN MSN20090616004009306/16/09 00:40:31  5-MIN KMSN 160640Z 12006KT 10SM CLR 17/10 A2997 820 64 1200 120/06 RMK AO2
14837KMSN MSN20090616004509306/16/09 00:45:31  5-MIN KMSN 160645Z 12006KT 10SM CLR 17/10 A2997 810 62 1300 120/06 RMK AO2
14837KMSN MSN20090616005011006/16/09 00:50:31  5-MIN KMSN 160650Z 12006KT 10SM CLR 17/10 A2997 810 62 1300 120/06 RMK AO2 SLP146 T01720100
14837KMSN MSN20090616005509306/16/09 00:55:31  5-MIN KMSN 160655Z 12006KT 10SM CLR 17/10 A2998 810 64 1200 120/06 RMK AO2
14837KMSN MSN20090616010009306/16/09 01:00:31  5-MIN KMSN 160700Z 11006KT 10SM CLR 17/10 A2997 810 64 1200 110/06 RMK AO2
14837KMSN MSN20090616010509306/16/09 01:05:31  5-MIN KMSN 160705Z 11006KT 10SM CLR 16/10 A2998 810 67 1200 110/06 RMK AO2
14837KMSN MSN20090616011009306/16/09 01:10:31  5-MIN KMSN 160710Z 11005KT 10SM CLR 17/09 A2998 810 62 1200 110/05 RMK AO2
14837KMSN MSN20090616011509306/16/09 01:15:31  5-MIN KMSN 160715Z 11004KT 10SM CLR 16/09 A2998 810 64 1200 100/04 RMK AO2
14837KMSN MSN20090616012009306/16/09 01:20:31  5-MIN KMSN 160720Z 00000KT 10SM CLR 16/09 A2998 810 64 1200 000/00 RMK AO2
14837KMSN MSN20090616012509306/16/09 01:25:31  5-MIN KMSN 160725Z 00000KT 10SM CLR 15/10 A2998 810 72 1000 000/00 RMK AO2
14837KMSN MSN20090616013009306/16/09 01:30:31  5-MIN KMSN 160730Z 00000KT 10SM CLR 15/10 A2998 810 72 1000 000/00 RMK AO2
14837KMSN MSN20090616013509306/16/09 01:35:31  5-MIN KMSN 160735Z 12003KT 10SM CLR 16/10 A2998 810 69 1100 120/03 RMK AO2
14837KMSN MSN20090616014009306/16/09 01:40:31  5-MIN KMSN 160740Z 12005KT 10SM CLR 16/09 A2998 810 64 1200 120/05 RMK AO2
14837KMSN MSN20090616014509306/16/09 01:45:31  5-MIN KMSN 160745Z 11005KT 10SM CLR 16/09 A2997 810 64 1200 110/05 RMK AO2
14837KMSN MSN20090616015011006/16/09 01:50:31  5-MIN KMSN 160750Z 11005KT 10SM CLR 16/09 A2998 810 64 1200 110/05 RMK AO2 SLP147 T01610094
14837KMSN MSN20090616015509306/16/09 01:55:31  5-MIN KMSN 160755Z 10006KT 10SM CLR 16/09 A2998 810 64 1200 100/06 RMK AO2
14837KMSN MSN20090616020009306/16/09 02:00:31  5-MIN KMSN 160800Z 00000KT 10SM CLR 16/09 A2998 810 67 1100 000/00 RMK AO2
14837KMSN MSN20090616020509306/16/09 02:05:31  5-MIN KMSN 160805Z 00000KT 10SM CLR 16/09 A2998 810 67 1100 000/00 RMK AO2
14837KMSN MSN20090616021009306/16/09 02:10:31  5-MIN KMSN 160810Z 00000KT 10SM CLR 14/10 A2998 810 74 1000 000/00 RMK AO2
14837KMSN MSN20090616021509206/16/09 02:15:31  5-MIN KMSN 160815Z 00000KT 10SM CLR 14/10 A2999 800 77 900 000/00 RMK AO2
14837KMSN MSN20090616022009206/16/09 02:20:31  5-MIN KMSN 160820Z 00000KT 10SM CLR 14/10 A2999 800 77 900 000/00 RMK AO2
14837KMSN MSN20090616022509306/16/09 02:25:31  5-MIN KMSN 160825Z 00000KT 10SM CLR 14/10 A2999 800 74 1000 000/00 RMK AO2
14837KMSN MSN20090616023009206/16/09 02:30:31  5-MIN KMSN 160830Z 00000KT 10SM CLR 14/10 A2999 800 77 900 000/00 RMK AO2
14837KMSN MSN20090616023509206/16/09 02:35:31  5-MIN KMSN 160835Z 00000KT 10SM CLR 14/10 A2999 800 77 900 000/00 RMK AO2
14837KMSN MSN20090616024009206/16/09 02:40:31  5-MIN KMSN 160840Z 00000KT 10SM CLR 14/10 A2999 800 77 900 000/00 RMK AO2
14837KMSN MSN20090616024509206/16/09 02:45:31  5-MIN KMSN 160845Z 00000KT 10SM CLR 14/10 A2999 800 77 900 000/00 RMK AO2
14837KMSN MSN20090616025011606/16/09 02:50:31  5-MIN KMSN 160850Z 03004KT 10SM CLR 15/10 A2999 800 72 1000 030/04 RMK AO2 SLP151 T01500100 53005
14837KMSN MSN20090616025509306/16/09 02:55:31  5-MIN KMSN 160855Z 03004KT 10SM CLR 15/10 A2998 810 72 1000 030/04 RMK AO2
14837KMSN MSN20090616030009306/16/09 03:00:31  5-MIN KMSN 160900Z 00000KT 10SM CLR 15/10 A2998 810 72 1000 000/00 RMK AO2
14837KMSN MSN20090616030509306/16/09 03:05:31  5-MIN KMSN 160905Z 05004KT 10SM CLR 15/10 A2998 810 72 1000 050/04 RMK AO2
14837KMSN MSN20090616031009306/16/09 03:10:31  5-MIN KMSN 160910Z 06003KT 10SM CLR 15/10 A2997 820 72 1000 050/03 RMK AO2
14837KMSN MSN20090616031509306/16/09 03:15:31  5-MIN KMSN 160915Z 00000KT 10SM CLR 15/10 A2997 820 72 1000 000/00 RMK AO2
14837KMSN MSN20090616032009306/16/09 03:20:31  5-MIN KMSN 160920Z 06003KT 10SM CLR 15/10 A2997 820 72 1100 060/03 RMK AO2
14837KMSN MSN20090616032509306/16/09 03:25:31  5-MIN KMSN 160925Z 06003KT 10SM CLR 14/10 A2997 820 74 1000 060/03 RMK AO2
14837KMSN MSN20090616033009206/16/09 03:30:31  5-MIN KMSN 160930Z 07004KT 10SM CLR 14/10 A2996 820 77 900 070/04 RMK AO2
14837KMSN MSN20090616033509206/16/09 03:35:31  5-MIN KMSN 160935Z 08004KT 10SM CLR 14/10 A2996 830 77 900 080/04 RMK AO2
14837KMSN MSN20090616034009306/16/09 03:40:31  5-MIN KMSN 160940Z 09005KT 10SM CLR 14/10 A2996 830 74 1000 090/05 RMK AO2
14837KMSN MSN20090616034509306/16/09 03:45:31  5-MIN KMSN 160945Z 09006KT 10SM CLR 14/10 A2996 830 74 1000 090/06 RMK AO2
14837KMSN MSN20090616035011306/16/09 03:50:31  5-MIN KMSN 160950Z 08006KT 10SM SCT120 15/09 A2996 830 69 1100 080/06 RMK AO2 SLP141 T01500094
14837KMSN MSN20090616035509306/16/09 03:55:31  5-MIN KMSN 160955Z 09006KT 10SM CLR 14/10 A2995 830 74 1000 090/06 RMK AO2
14837KMSN MSN20090616040009306/16/09 04:00:31  5-MIN KMSN 161000Z 10007KT 10SM CLR 15/09 A2995 840 69 1100 100/07 RMK AO2
14837KMSN MSN20090616040509306/16/09 04:05:31  5-MIN KMSN 161005Z 10007KT 10SM CLR 16/09 A2994 840 67 1100 100/07 RMK AO2
14837KMSN MSN20090616041009306/16/09 04:10:31  5-MIN KMSN 161010Z 09008KT 10SM CLR 15/09 A2994 840 69 1100 090/08 RMK AO2
14837KMSN MSN20090616041509306/16/09 04:15:31  5-MIN KMSN 161015Z 09008KT 10SM CLR 15/09 A2994 850 69 1100 090/08 RMK AO2
14837KMSN MSN20090616042009306/16/09 04:20:31  5-MIN KMSN 161020Z 10008KT 10SM CLR 15/09 A2994 850 69 1100 100/08 RMK AO2
14837KMSN MSN20090616042509306/16/09 04:25:31  5-MIN KMSN 161025Z 10008KT 10SM CLR 16/09 A2994 850 67 1100 100/08 RMK AO2
14837KMSN MSN20090616043009306/16/09 04:30:31  5-MIN KMSN 161030Z 10007KT 10SM CLR 16/10 A2994 850 69 1100 100/07 RMK AO2
14837KMSN MSN20090616043509306/16/09 04:35:31  5-MIN KMSN 161035Z 11007KT 10SM CLR 16/10 A2995 840 69 1100 100/07 RMK AO2
14837KMSN MSN20090616044009306/16/09 04:40:31  5-MIN KMSN 161040Z 10006KT 10SM CLR 16/10 A2994 840 69 1100 100/06 RMK AO2
14837KMSN MSN20090616044509306/16/09 04:45:31  5-MIN KMSN 161045Z 11006KT 10SM CLR 16/10 A2995 840 69 1100 100/06 RMK AO2
14837KMSN MSN20090616045011006/16/09 04:50:31  5-MIN KMSN 161050Z 10004KT 10SM CLR 16/10 A2995 840 69 1100 100/04 RMK AO2 SLP139 T01560100
14837KMSN MSN20090616045509306/16/09 04:55:31  5-MIN KMSN 161055Z 10004KT 10SM CLR 16/10 A2995 840 69 1100 100/04 RMK AO2
14837KMSN MSN20090616050009306/16/09 05:00:31  5-MIN KMSN 161100Z 08005KT 10SM CLR 16/10 A2995 830 69 1100 080/05 RMK AO2
14837KMSN MSN20090616050509306/16/09 05:05:31  5-MIN KMSN 161105Z 08004KT 10SM CLR 15/10 A2996 830 72 1100 080/04 RMK AO2
14837KMSN MSN20090616051009306/16/09 05:10:31  5-MIN KMSN 161110Z 09004KT 10SM CLR 16/10 A2996 830 69 1100 090/04 RMK AO2
14837KMSN MSN20090616051509306/16/09 05:15:31  5-MIN KMSN 161115Z 10004KT 10SM CLR 16/10 A2996 830 69 1100 090/04 RMK AO2
14837KMSN MSN20090616052009306/16/09 05:20:31  5-MIN KMSN 161120Z 11003KT 10SM CLR 16/11 A2995 830 72 1100 100/03 RMK AO2
14837KMSN MSN20090616052509306/16/09 05:25:31  5-MIN KMSN 161125Z 12004KT 10SM CLR 16/11 A2996 830 72 1100 110/04 RMK AO2
14837KMSN MSN20090616053009306/16/09 05:30:31  5-MIN KMSN 161130Z 11005KT 10SM CLR 16/11 A2996 830 72 1100 110/05 RMK AO2
14837KMSN MSN20090616053509306/16/09 05:35:31  5-MIN KMSN 161135Z 12007KT 10SM CLR 16/11 A2995 830 69 1200 120/07 RMK AO2
14837KMSN MSN20090616054009306/16/09 05:40:31  5-MIN KMSN 161140Z 11006KT 10SM CLR 16/11 A2995 840 69 1200 110/06 RMK AO2
14837KMSN MSN20090616054509306/16/09 05:45:31  5-MIN KMSN 161145Z 11006KT 10SM CLR 16/11 A2995 840 69 1200 110/06 RMK AO2
14837KMSN MSN20090616055012806/16/09 05:50:31  5-MIN KMSN 161150Z 11006KT 10SM CLR 16/11 A2995 830 69 1200 110/06 RMK AO2 SLP140 T01610106 10178 20139 55004
14837KMSN MSN20090616055509306/16/09 05:55:31  5-MIN KMSN 161155Z 11007KT 10SM CLR 17/11 A2995 830 67 1300 110/07 RMK AO2
14837KMSN MSN20090616060009306/16/09 06:00:31  5-MIN KMSN 161200Z 11006KT 10SM CLR 17/11 A2995 830 67 1300 110/06 RMK AO2
14837KMSN MSN20090616060509306/16/09 06:05:31  5-MIN KMSN 161205Z 11007KT 10SM CLR 17/11 A2995 830 67 1300 110/07 RMK AO2
14837KMSN MSN20090616061009306/16/09 06:10:31  5-MIN KMSN 161210Z 11006KT 10SM CLR 17/11 A2995 830 64 1300 110/06 RMK AO2
14837KMSN MSN20090616061509306/16/09 06:15:31  5-MIN KMSN 161215Z 10007KT 10SM CLR 17/11 A2995 840 67 1300 100/07 RMK AO2
14837KMSN MSN20090616062009306/16/09 06:20:31  5-MIN KMSN 161220Z 11008KT 10SM CLR 17/11 A2995 840 64 1300 110/08 RMK AO2
14837KMSN MSN20090616062509306/16/09 06:25:31  5-MIN KMSN 161225Z 11008KT 10SM CLR 17/11 A2995 840 67 1300 110/08 RMK AO2
14837KMSN MSN20090616063009306/16/09 06:30:31  5-MIN KMSN 161230Z 11008KT 10SM CLR 18/11 A2995 840 62 1400 110/08 RMK AO2
14837KMSN MSN20090616063509306/16/09 06:35:31  5-MIN KMSN 161235Z 11009KT 10SM CLR 18/11 A2995 840 64 1400 110/09 RMK AO2
14837KMSN MSN20090616064009306/16/09 06:40:31  5-MIN KMSN 161240Z 12011KT 10SM CLR 18/11 A2995 840 64 1400 120/11 RMK AO2
14837KMSN MSN20090616064509306/16/09 06:45:31  5-MIN KMSN 161245Z 12011KT 10SM CLR 18/11 A2995 840 64 1400 120/11 RMK AO2
14837KMSN MSN20090616065011006/16/09 06:50:31  5-MIN KMSN 161250Z 11009KT 10SM CLR 18/11 A2995 840 62 1500 110/09 RMK AO2 SLP138 T01830111
14837KMSN MSN20090616065509306/16/09 06:55:31  5-MIN KMSN 161255Z 11010KT 10SM CLR 18/11 A2995 840 62 1500 110/10 RMK AO2
14837KMSN MSN20090616070009306/16/09 07:00:31  5-MIN KMSN 161300Z 12010KT 10SM CLR 18/11 A2995 840 62 1500 120/10 RMK AO2
14837KMSN MSN20090616070509306/16/09 07:05:31  5-MIN KMSN 161305Z 12010KT 10SM CLR 19/11 A2995 840 60 1500 120/10 RMK AO2
14837KMSN MSN20090616071009306/16/09 07:10:31  5-MIN KMSN 161310Z 12010KT 10SM CLR 19/11 A2995 840 60 1500 120/10 RMK AO2
14837KMSN MSN20090616071509306/16/09 07:15:31  5-MIN KMSN 161315Z 12012KT 10SM CLR 19/11 A2994 840 60 1500 120/12 RMK AO2
14837KMSN MSN20090616072009306/16/09 07:20:31  5-MIN KMSN 161320Z 12012KT 10SM CLR 19/11 A2995 840 58 1600 110/12 RMK AO2
14837KMSN MSN20090616072509306/16/09 07:25:31  5-MIN KMSN 161325Z 12011KT 10SM CLR 19/11 A2995 840 58 1600 120/11 RMK AO2
14837KMSN MSN20090616073009906/16/09 07:30:31  5-MIN KMSN 161330Z 13014G19KT 10SM CLR 20/11 A2995 840 54 1700 130/14G19 RMK AO2
14837KMSN MSN20090616073509906/16/09 07:35:31  5-MIN KMSN 161335Z 13010G19KT 10SM CLR 20/11 A2995 840 54 1700 130/10G19 RMK AO2
14837KMSN MSN20090616074009306/16/09 07:40:31  5-MIN KMSN 161340Z 12009KT 10SM CLR 20/11 A2994 840 56 1700 120/09 RMK AO2
14837KMSN MSN20090616074509306/16/09 07:45:31  5-MIN KMSN 161345Z 13012KT 10SM CLR 20/11 A2994 840 56 1700 130/12 RMK AO2
14837KMSN MSN20090616075011006/16/09 07:50:31  5-MIN KMSN 161350Z 13007KT 10SM CLR 20/11 A2994 840 56 1700 130/07 RMK AO2 SLP136 T02000111
14837KMSN MSN20090616075509306/16/09 07:55:31  5-MIN KMSN 161355Z 12010KT 10SM CLR 21/11 A2994 840 54 1700 120/10 RMK AO2
14837KMSN MSN20090616080009906/16/09 08:00:31  5-MIN KMSN 161400Z 13010G15KT 10SM CLR 21/11 A2994 850 52 1700 130/10G15 RMK AO2
14837KMSN MSN20090616080509306/16/09 08:05:31  5-MIN KMSN 161405Z 13012KT 10SM CLR 21/11 A2994 850 54 1700 120/12 RMK AO2
14837KMSN MSN20090616081009306/16/09 08:10:31  5-MIN KMSN 161410Z 12014KT 10SM CLR 21/11 A2994 850 50 1800 120/14 RMK AO2
14837KMSN MSN20090616081509906/16/09 08:15:31  5-MIN KMSN 161415Z 13012G20KT 10SM CLR 21/11 A2994 850 50 1800 120/12G20 RMK AO2
14837KMSN MSN20090616082009906/16/09 08:20:31  5-MIN KMSN 161420Z 12015G24KT 10SM CLR 21/11 A2994 850 50 1800 120/15G24 RMK AO2
14837KMSN MSN20090616082509906/16/09 08:25:31  5-MIN KMSN 161425Z 13014G24KT 10SM CLR 22/11 A2993 850 49 1900 120/14G24 RMK AO2
14837KMSN MSN20090616083009906/16/09 08:30:31  5-MIN KMSN 161430Z 12012G20KT 10SM CLR 22/11 A2993 850 50 1900 120/12G20 RMK AO2
14837KMSN MSN20090616083509306/16/09 08:35:31  5-MIN KMSN 161435Z 11012KT 10SM CLR 22/11 A2993 850 49 1900 100/12 RMK AO2
14837KMSN MSN20090616084009306/16/09 08:40:31  5-MIN KMSN 161440Z 12012KT 10SM CLR 22/11 A2993 850 49 1900 120/12 RMK AO2
14837KMSN MSN20090616084509906/16/09 08:45:31  5-MIN KMSN 161445Z 12014G19KT 10SM CLR 22/11 A2993 850 47 1900 120/14G19 RMK AO2
14837KMSN MSN20090616085012206/16/09 08:50:31  5-MIN KMSN 161450Z 11015G19KT 10SM CLR 22/11 A2993 860 49 1900 110/15G19 RMK AO2 SLP131 T02220111 55010
14837KMSN MSN20090616085509906/16/09 08:55:31  5-MIN KMSN 161455Z 12018G22KT 10SM CLR 23/11 A2993 860 45 2000 120/18G22 RMK AO2
14837KMSN MSN20090616090009906/16/09 09:00:31  5-MIN KMSN 161500Z 11013G22KT 10SM CLR 23/11 A2993 860 47 2000 110/13G22 RMK AO2
14837KMSN MSN20090616090509306/16/09 09:05:31  5-MIN KMSN 161505Z 12012KT 10SM CLR 23/11 A2993 860 47 2000 120/12 RMK AO2
14837KMSN MSN20090616091009906/16/09 09:10:31  5-MIN KMSN 161510Z 12015G20KT 10SM CLR 23/11 A2993 860 45 2100 120/15G20 RMK AO2
14837KMSN MSN20090616091509906/16/09 09:15:31  5-MIN KMSN 161515Z 11015G20KT 10SM CLR 23/12 A2993 860 49 2000 110/15G20 RMK AO2
14837KMSN MSN20090616092009906/16/09 09:20:31  5-MIN KMSN 161520Z 11016G22KT 10SM CLR 23/11 A2993 860 47 2000 110/16G22 RMK AO2
14837KMSN MSN20090616092509906/16/09 09:25:31  5-MIN KMSN 161525Z 11013G22KT 10SM CLR 23/11 A2993 860 47 2000 110/13G22 RMK AO2
14837KMSN MSN20090616093009906/16/09 09:30:31  5-MIN KMSN 161530Z 11017G21KT 10SM CLR 23/11 A2992 860 45 2100 110/17G21 RMK AO2
14837KMSN MSN20090616093509906/16/09 09:35:31  5-MIN KMSN 161535Z 11018G23KT 10SM CLR 23/11 A2992 860 45 2000 110/18G23 RMK AO2
14837KMSN MSN20090616094009906/16/09 09:40:31  5-MIN KMSN 161540Z 12017G23KT 10SM CLR 23/11 A2993 860 45 2000 120/17G23 RMK AO2
14837KMSN MSN20090616094509906/16/09 09:45:31  5-MIN KMSN 161545Z 12017G22KT 10SM CLR 23/11 A2993 860 47 2000 120/17G22 RMK AO2
14837KMSN MSN20090616095011606/16/09 09:50:31  5-MIN KMSN 161550Z 12016G22KT 10SM CLR 23/11 A2993 860 45 2000 120/16G22 RMK AO2 SLP131 T02280106
14837KMSN MSN20090616095509906/16/09 09:55:31  5-MIN KMSN 161555Z 11014G22KT 10SM CLR 23/11 A2993 850 45 2100 110/14G22 RMK AO2
14837KMSN MSN20090616100009906/16/09 10:00:31  5-MIN KMSN 161600Z 11014G24KT 10SM CLR 23/11 A2993 860 44 2100 110/14G24 RMK AO2
14837KMSN MSN20090616100509906/16/09 10:05:31  5-MIN KMSN 161605Z 10015G24KT 10SM CLR 23/11 A2993 860 45 2100 100/15G24 RMK AO2
14837KMSN MSN20090616101009906/16/09 10:10:31  5-MIN KMSN 161610Z 12015G22KT 10SM CLR 23/11 A2993 860 45 2100 120/15G22 RMK AO2
14837KMSN MSN20090616101509906/16/09 10:15:31  5-MIN KMSN 161615Z 12016G22KT 10SM CLR 23/11 A2993 850 45 2100 120/16G22 RMK AO2
14837KMSN MSN20090616102009306/16/09 10:20:31  5-MIN KMSN 161620Z 13016KT 10SM CLR 24/11 A2993 850 44 2100 130/16 RMK AO2
14837KMSN MSN20090616102510206/16/09 10:25:31  5-MIN KMSN 161625Z 11018G24KT 10SM FEW075 24/11 A2993 850 42 2100 110/18G24 RMK AO2
14837KMSN MSN20090616103010206/16/09 10:30:31  5-MIN KMSN 161630Z 11018G24KT 10SM FEW075 24/11 A2994 850 42 2100 110/18G24 RMK AO2
14837KMSN MSN20090616103510206/16/09 10:35:31  5-MIN KMSN 161635Z 11017G22KT 10SM FEW075 24/11 A2993 850 42 2200 110/17G22 RMK AO2
14837KMSN MSN20090616104010206/16/09 10:40:31  5-MIN KMSN 161640Z 12016G22KT 10SM FEW075 24/11 A2993 860 44 2100 120/16G22 RMK AO2
14837KMSN MSN20090616104510206/16/09 10:45:31  5-MIN KMSN 161645Z 11018G21KT 10SM FEW075 24/12 A2992 860 44 2200 110/18G21 RMK AO2
14837KMSN MSN20090616105011606/16/09 10:50:31  5-MIN KMSN 161650Z 11015G21KT 10SM CLR 24/11 A2992 860 44 2100 110/15G21 RMK AO2 SLP128 T02390111
14837KMSN MSN20090616105510206/16/09 10:55:31  5-MIN KMSN 161655Z 11019G24KT 10SM FEW080 24/11 A2992 860 44 2100 100/19G24 RMK AO2
14837KMSN MSN20090616110010206/16/09 11:00:31  5-MIN KMSN 161700Z 10017G24KT 10SM FEW080 24/11 A2992 860 42 2100 100/17G24 RMK AO2
14837KMSN MSN20090616110510206/16/09 11:05:31  5-MIN KMSN 161705Z 11015G23KT 10SM FEW100 23/11 A2993 860 44 2100 110/15G23 RMK AO2
14837KMSN MSN20090616111009606/16/09 11:10:31  5-MIN KMSN 161710Z 12014KT 10SM FEW060 23/11 A2993 860 45 2100 110/14 RMK AO2
14837KMSN MSN20090616111510206/16/09 11:15:31  5-MIN KMSN 161715Z 11012G20KT 10SM FEW060 23/11 A2992 860 45 2100 110/12G20 RMK AO2
14837KMSN MSN20090616112010206/16/09 11:20:31  5-MIN KMSN 161720Z 11015G20KT 10SM FEW060 23/11 A2993 860 45 2100 100/15G20 RMK AO2
14837KMSN MSN20090616112510206/16/09 11:25:31  5-MIN KMSN 161725Z 11016G21KT 10SM FEW055 23/11 A2992 860 45 2100 110/16G21 RMK AO2
14837KMSN MSN20090616113010206/16/09 11:30:31  5-MIN KMSN 161730Z 11015G22KT 10SM SCT055 23/11 A2992 860 45 2100 110/15G22 RMK AO2
14837KMSN MSN20090616113510206/16/09 11:35:31  5-MIN KMSN 161735Z 11016G22KT 10SM BKN055 23/11 A2991 870 45 2100 110/16G22 RMK AO2
14837KMSN MSN20090616114009606/16/09 11:40:31  5-MIN KMSN 161740Z 10012KT 10SM BKN055 23/12 A2991 870 47 2100 100/12 RMK AO2
14837KMSN MSN20090616114509606/16/09 11:45:31  5-MIN KMSN 161745Z 11014KT 10SM BKN050 23/11 A2991 870 45 2100 110/14 RMK AO2
14837KMSN MSN20090616115013106/16/09 11:50:31  5-MIN KMSN 161750Z 09015KT 10SM BKN050 23/11 A2991 880 45 2100 090/15 RMK AO2 SLP123 T02330111 10244 20167 58008
14837KMSN MSN20090616115510206/16/09 11:55:31  5-MIN KMSN 161755Z 10012G19KT 10SM BKN050 23/12 A2991 880 47 2100 100/12G19 RMK AO2
14837KMSN MSN20090616120009606/16/09 12:00:31  5-MIN KMSN 161800Z 10016KT 10SM SCT050 23/12 A2990 880 49 2000 100/16 RMK AO2
14837KMSN MSN20090616120509606/16/09 12:05:31  5-MIN KMSN 161805Z 10012KT 10SM BKN055 23/12 A2990 880 49 2000 100/12 RMK AO2
14837KMSN MSN20090616121009606/16/09 12:10:31  5-MIN KMSN 161810Z 09011KT 10SM SCT055 23/12 A2990 880 49 2000 090/11 RMK AO2
14837KMSN MSN20090616121509606/16/09 12:15:31  5-MIN KMSN 161815Z 09013KT 10SM FEW055 23/12 A2990 880 49 2000 090/13 RMK AO2
14837KMSN MSN20090616122010206/16/09 12:20:31  5-MIN KMSN 161820Z 10014G20KT 10SM FEW055 23/12 A2990 880 49 2000 100/14G20 RMK AO2
14837KMSN MSN20090616122510906/16/09 12:25:31  5-MIN KMSN 161825Z 11011G20KT 10SM FEW055 SCT090 23/12 A2990 880 49 2000 110/11G20 RMK AO2
14837KMSN MSN20090616123010306/16/09 12:30:31  5-MIN KMSN 161830Z 10012KT 10SM FEW055 SCT085 23/12 A2990 880 51 2000 100/12 RMK AO2
14837KMSN MSN20090616123509606/16/09 12:35:31  5-MIN KMSN 161835Z 10008KT 10SM SCT080 23/13 A2990 880 53 2000 100/08 RMK AO2
14837KMSN MSN20090616124010206/16/09 12:40:31  5-MIN KMSN 161840Z 11015G19KT 10SM BKN080 23/13 A2990 880 53 2000 110/15G19 RMK AO2
14837KMSN MSN20090616124510206/16/09 12:45:31  5-MIN KMSN 161845Z 11011G19KT 10SM BKN075 23/13 A2990 880 53 2000 110/11G19 RMK AO2
14837KMSN MSN20090616125011306/16/09 12:50:31  5-MIN KMSN 161850Z 10009KT 10SM BKN075 23/13 A2990 880 53 2000 100/09 RMK AO2 SLP122 T02280128
14837KMSN MSN20090616125510206/16/09 12:55:31  5-MIN KMSN 161855Z 11011G16KT 10SM OVC070 23/12 A2990 880 51 2000 110/11G16 RMK AO2
14837KMSN MSN20090616130009606/16/09 13:00:31  5-MIN KMSN 161900Z 10012KT 10SM OVC070 22/12 A2990 880 52 2000 100/12 RMK AO2
14837KMSN MSN20090616130509606/16/09 13:05:31  5-MIN KMSN 161905Z 11012KT 10SM OVC070 23/13 A2990 890 53 2000 110/12 RMK AO2
14837KMSN MSN20090616131009606/16/09 13:10:31  5-MIN KMSN 161910Z 10012KT 10SM OVC070 22/13 A2990 890 54 2000 100/12 RMK AO2
14837KMSN MSN20090616131509606/16/09 13:15:31  5-MIN KMSN 161915Z 11014KT 10SM OVC070 22/12 A2990 890 52 2000 110/14 RMK AO2
14837KMSN MSN20090616132009606/16/09 13:20:31  5-MIN KMSN 161920Z 11013KT 10SM OVC070 22/12 A2990 890 52 2000 110/13 RMK AO2
14837KMSN MSN20090616132509606/16/09 13:25:31  5-MIN KMSN 161925Z 11011KT 10SM OVC065 22/12 A2990 880 52 2000 110/11 RMK AO2
14837KMSN MSN20090616133009606/16/09 13:30:31  5-MIN KMSN 161930Z 11011KT 10SM OVC060 22/13 A2990 880 54 2000 110/11 RMK AO2
14837KMSN MSN20090616133509606/16/09 13:35:31  5-MIN KMSN 161935Z 11010KT 10SM OVC060 22/13 A2990 880 54 2000 110/10 RMK AO2
14837KMSN MSN20090616134009606/16/09 13:40:31  5-MIN KMSN 161940Z 11013KT 10SM OVC060 22/12 A2990 880 52 2000 100/13 RMK AO2
14837KMSN MSN20090616134509606/16/09 13:45:31  5-MIN KMSN 161945Z 11012KT 10SM OVC060 22/12 A2990 880 52 2000 110/12 RMK AO2
14837KMSN MSN20090616135011306/16/09 13:50:31  5-MIN KMSN 161950Z 11011KT 10SM OVC060 22/12 A2990 880 54 1900 110/11 RMK AO2 SLP123 T02170122
14837KMSN MSN20090616135509606/16/09 13:55:31  5-MIN KMSN 161955Z 10009KT 10SM OVC060 22/12 A2990 890 52 2000 100/09 RMK AO2
14837KMSN MSN20090616140009606/16/09 14:00:31  5-MIN KMSN 162000Z 08010KT 10SM BKN060 22/13 A2990 890 54 2000 080/10 RMK AO2
14837KMSN MSN20090616140509606/16/09 14:05:31  5-MIN KMSN 162005Z 10011KT 10SM BKN060 22/13 A2990 880 54 2000 100/11 RMK AO2
14837KMSN MSN20090616141012406/16/09 14:10:31  5-MIN KMSN 162010Z 10014G18KT 7SM -RA FEW031 OVC060 21/13 A2990 890 61 1800 100/14G18 RMK AO2 RAB06 P0000
14837KMSN MSN20090616141513106/16/09 14:15:31  5-MIN KMSN 162015Z 10015G18KT 7SM -RA FEW031 SCT040 OVC060 21/13 A2989 890 61 1800 100/15G18 RMK AO2 RAB06 P0000
14837KMSN MSN20090616142011906/16/09 14:20:31  5-MIN KMSN 162020Z 09011KT 10SM -RA SCT037 OVC060 21/13 A2989 890 61 1800 090/11 RMK AO2 RAB06 P0000
14837KMSN MSN20090616142513206/16/09 14:25:31  5-MIN KMSN 162025Z 09014G21KT 10SM -RA SCT035 BKN042 OVC060 21/13 A2989 890 61 1800 090/14G21 RMK AO2 RAB06 P0000
14837KMSN MSN20090616143013106/16/09 14:30:31  5-MIN KMSN 162030Z 11019G23KT 10SM FEW023 BKN033 OVC060 20/13 A2990 880 65 1700 110/19G23 RMK AO2 RAB06E29 P0000
14837KMSN MSN20090616143513106/16/09 14:35:31  5-MIN KMSN 162035Z 11013G23KT 10SM FEW023 BKN031 OVC060 19/13 A2990 880 67 1600 110/13G23 RMK AO2 RAB06E29 P0000
14837KMSN MSN20090616144012506/16/09 14:40:31  5-MIN KMSN 162040Z 11013KT 10SM BKN033 BKN041 OVC060 19/13 A2990 880 70 1600 100/13 RMK AO2 RAB06E29 P0000
14837KMSN MSN20090616144512406/16/09 14:45:31  5-MIN KMSN 162045Z 09012G18KT 10SM BKN033 OVC041 19/13 A2990 880 67 1600 090/12G18 RMK AO2 RAB06E29 P0000
14837KMSN MSN20090616145015306/16/09 14:50:31  5-MIN KMSN 162050Z 09013G18KT 10SM BKN033 BKN041 19/13 A2990 890 70 1600 090/13G18 RMK AO2 RAB06E29 SLP123 P0000 60000 T01890133 58007
14837KMSN MSN20090616145510306/16/09 14:55:31  5-MIN KMSN 162055Z 08011KT 10SM SCT033 BKN041 19/14 A2990 890 70 1700 080/11 RMK AO2
14837KMSN MSN20090616150010306/16/09 15:00:31  5-MIN KMSN 162100Z 08015KT 10SM SCT033 BKN041 19/14 A2989 890 70 1700 080/15 RMK AO2
14837KMSN MSN20090616150510306/16/09 15:05:31  5-MIN KMSN 162105Z 08012KT 10SM SCT033 BKN041 19/14 A2989 890 72 1600 080/12 RMK AO2
14837KMSN MSN20090616151010306/16/09 15:10:31  5-MIN KMSN 162110Z 07012KT 10SM FEW034 BKN042 19/14 A2990 890 72 1600 070/12 RMK AO2
14837KMSN MSN20090616151509606/16/09 15:15:31  5-MIN KMSN 162115Z 08009KT 10SM BKN040 19/14 A2989 890 72 1600 080/09 RMK AO2
14837KMSN MSN20090616152011906/16/09 15:20:31  5-MIN KMSN 162120Z 08007KT 10SM -RA BKN038 BKN050 19/14 A2989 890 72 1600 080/07 RMK AO2 RAB20 P0000
14837KMSN MSN20090616152511906/16/09 15:25:31  5-MIN KMSN 162125Z 08009KT 10SM -RA SCT038 BKN060 19/14 A2989 890 72 1600 080/09 RMK AO2 RAB20 P0000
14837KMSN MSN20090616153011906/16/09 15:30:31  5-MIN KMSN 162130Z 07008KT 10SM -RA SCT038 BKN060 19/14 A2989 900 72 1600 070/08 RMK AO2 RAB20 P0000
14837KMSN MSN20090616153511906/16/09 15:35:31  5-MIN KMSN 162135Z 07007KT 10SM -RA SCT042 BKN055 19/14 A2988 900 72 1600 070/07 RMK AO2 RAB20 P0000
14837KMSN MSN20090616154012606/16/09 15:40:31  5-MIN KMSN 162140Z 08006KT 10SM -RA FEW037 SCT044 BKN055 19/14 A2988 900 72 1600 080/06 RMK AO2 RAB20 P0000
14837KMSN MSN20090616154511906/16/09 15:45:31  5-MIN KMSN 162145Z 08008KT 10SM -RA SCT044 BKN055 19/14 A2988 900 72 1600 080/08 RMK AO2 RAB20 P0000
14837KMSN MSN20090616155013606/16/09 15:50:31  5-MIN KMSN 162150Z 08009KT 10SM -RA BKN044 BKN055 19/14 A2988 900 72 1600 080/09 RMK AO2 RAB20 SLP116 P0000 T01890139
14837KMSN MSN20090616155511306/16/09 15:55:31  5-MIN KMSN 162155Z 09011KT 10SM -RA BKN044 BKN050 19/14 A2988 900 72 1600 080/11 RMK AO2 P0000
14837KMSN MSN20090616160010606/16/09 16:00:31  5-MIN KMSN 162200Z 08010KT 10SM -RA OVC044 19/14 A2988 910 72 1600 080/10 RMK AO2 P0000
14837KMSN MSN20090616160510606/16/09 16:05:31  5-MIN KMSN 162205Z 08010KT 10SM -RA BKN044 19/14 A2987 910 70 1700 080/10 RMK AO2 P0000
14837KMSN MSN20090616161010606/16/09 16:10:31  5-MIN KMSN 162210Z 09012KT 10SM -RA BKN044 19/13 A2987 910 67 1700 090/12 RMK AO2 P0000
14837KMSN MSN20090616161510806/16/09 16:15:31  5-MIN KMSN 162215Z 09012KT 10SM BKN044 20/13 A2987 910 63 1700 090/12 RMK AO2 RAE13 P0000
14837KMSN MSN20090616162011506/16/09 16:20:31  5-MIN KMSN 162220Z 10010KT 10SM SCT044 BKN050 20/13 A2987 910 63 1700 100/10 RMK AO2 RAE13 P0000
14837KMSN MSN20090616162510806/16/09 16:25:31  5-MIN KMSN 162225Z 09010KT 10SM BKN050 21/12 A2987 910 58 1800 090/10 RMK AO2 RAE13 P0000
14837KMSN MSN20090616163010806/16/09 16:30:31  5-MIN KMSN 162230Z 10010KT 10SM SCT050 21/12 A2987 910 58 1800 100/10 RMK AO2 RAE13 P0000
14837KMSN MSN20090616163510806/16/09 16:35:31  5-MIN KMSN 162235Z 10009KT 10SM FEW037 21/12 A2987 910 58 1800 090/09 RMK AO2 RAE13 P0000
14837KMSN MSN20090616164011506/16/09 16:40:31  5-MIN KMSN 162240Z 09008KT 10SM SCT037 SCT050 21/13 A2987 910 60 1800 090/08 RMK AO2 RAE13 P0000
14837KMSN MSN20090616164511506/16/09 16:45:31  5-MIN KMSN 162245Z 09009KT 10SM SCT035 BKN050 21/13 A2987 910 60 1800 090/09 RMK AO2 RAE13 P0000
14837KMSN MSN20090616165013206/16/09 16:50:31  5-MIN KMSN 162250Z 10011KT 10SM SCT035 SCT050 21/13 A2987 910 60 1800 100/11 RMK AO2 RAE13 SLP113 P0000 T02060128
14837KMSN MSN20090616165509606/16/09 16:55:31  5-MIN KMSN 162255Z 09008KT 10SM SCT035 21/13 A2987 910 63 1800 090/08 RMK AO2
14837KMSN MSN20090616170009606/16/09 17:00:31  5-MIN KMSN 162300Z 09008KT 10SM FEW035 21/13 A2987 910 63 1800 090/08 RMK AO2
14837KMSN MSN20090616170509606/16/09 17:05:31  5-MIN KMSN 162305Z 09009KT 10SM FEW035 21/13 A2987 910 63 1800 080/09 RMK AO2
14837KMSN MSN20090616171009606/16/09 17:10:31  5-MIN KMSN 162310Z 09008KT 10SM FEW035 21/13 A2988 900 63 1800 090/08 RMK AO2
14837KMSN MSN20090616171509606/16/09 17:15:31  5-MIN KMSN 162315Z 08007KT 10SM FEW043 21/14 A2988 900 65 1800 080/07 RMK AO2
14837KMSN MSN20090616172009606/16/09 17:20:31  5-MIN KMSN 162320Z 09010KT 10SM SCT043 21/14 A2988 900 65 1800 090/10 RMK AO2
14837KMSN MSN20090616172510206/16/09 17:25:31  5-MIN KMSN 162325Z 11014G19KT 10SM BKN041 21/13 A2988 900 63 1800 110/14G19 RMK AO2
14837KMSN MSN20090616173010206/16/09 17:30:31  5-MIN KMSN 162330Z 10016G20KT 10SM BKN041 20/13 A2988 900 65 1700 100/16G20 RMK AO2
14837KMSN MSN20090616173510206/16/09 17:35:31  5-MIN KMSN 162335Z 11013G20KT 10SM BKN041 20/13 A2988 900 65 1700 110/13G20 RMK AO2
14837KMSN MSN20090616174010106/16/09 17:40:31  5-MIN KMSN 162340Z 10014G20KT 9SM OVC041 20/14 A2988 900 67 1700 100/14G20 RMK AO2
14837KMSN MSN20090616174510106/16/09 17:45:31  5-MIN KMSN 162345Z 10014G20KT 9SM OVC041 20/13 A2988 900 65 1700 100/14G20 RMK AO2
14837KMSN MSN20090616175014206/16/09 17:50:31  5-MIN KMSN 162350Z 10017G21KT 9SM OVC039 20/13 A2988 900 65 1700 100/17G21 RMK AO2 SLP115 60000 T02000133 10233 20189 56003
14837KMSN MSN20090616175510106/16/09 17:55:31  5-MIN KMSN 162355Z 10016G21KT 9SM OVC037 20/13 A2988 900 65 1700 100/16G21 RMK AO2
14837KMSN MSN20090616180010806/16/09 18:00:31  5-MIN KMSN 170000Z 11014G21KT 9SM BKN035 OVC042 20/14 A2988 900 67 1700 110/14G21 RMK AO2
14837KMSN MSN20090616180510106/16/09 18:05:31  5-MIN KMSN 170005Z 10013G21KT 9SM OVC037 19/14 A2988 900 70 1700 100/13G21 RMK AO2
14837KMSN MSN20090616181010106/16/09 18:10:31  5-MIN KMSN 170010Z 10014G22KT 9SM OVC037 19/14 A2988 910 70 1700 090/14G22 RMK AO2
14837KMSN MSN20090616181510106/16/09 18:15:31  5-MIN KMSN 170015Z 10013G22KT 9SM OVC037 19/14 A2988 910 70 1700 100/13G22 RMK AO2
14837KMSN MSN20090616182010106/16/09 18:20:31  5-MIN KMSN 170020Z 10013G19KT 9SM OVC037 19/14 A2988 900 70 1700 090/13G19 RMK AO2
14837KMSN MSN20090616182510106/16/09 18:25:31  5-MIN KMSN 170025Z 09013G19KT 9SM OVC039 19/14 A2987 910 70 1700 090/13G19 RMK AO2
14837KMSN MSN20090616183010206/16/09 18:30:31  5-MIN KMSN 170030Z 09011KT 9SM BKN039 OVC046 19/14 A2987 910 70 1700 090/11 RMK AO2
14837KMSN MSN20090616183510206/16/09 18:35:31  5-MIN KMSN 170035Z 10011KT 9SM BKN039 BKN046 19/14 A2987 910 70 1700 090/11 RMK AO2
14837KMSN MSN20090616184009506/16/09 18:40:31  5-MIN KMSN 170040Z 09009KT 9SM BKN041 19/14 A2988 900 70 1700 090/09 RMK AO2
14837KMSN MSN20090616184509506/16/09 18:45:31  5-MIN KMSN 170045Z 09009KT 9SM BKN041 19/14 A2988 900 70 1700 090/09 RMK AO2
14837KMSN MSN20090616185011206/16/09 18:50:31  5-MIN KMSN 170050Z 10011KT 9SM BKN041 19/14 A2988 900 70 1700 100/11 RMK AO2 SLP116 T01940139
14837KMSN MSN20090616185510206/16/09 18:55:31  5-MIN KMSN 170055Z 10011KT 9SM BKN041 BKN050 19/14 A2988 900 70 1700 100/11 RMK AO2
14837KMSN MSN20090616190010806/16/09 19:00:31  5-MIN KMSN 170100Z 10010G15KT 9SM SCT041 BKN050 19/14 A2988 900 70 1700 100/10G15 RMK AO2
14837KMSN MSN20090616190510206/16/09 19:05:31  5-MIN KMSN 170105Z 11010KT 9SM SCT041 BKN050 19/14 A2988 900 70 1700 110/10 RMK AO2
14837KMSN MSN20090616191010906/16/09 19:10:31  5-MIN KMSN 170110Z 10011KT 9SM FEW030 BKN041 OVC050 19/14 A2988 900 72 1600 100/11 RMK AO2
14837KMSN MSN20090616191510906/16/09 19:15:31  5-MIN KMSN 170115Z 10012KT 8SM FEW030 BKN041 OVC050 19/14 A2988 900 72 1600 100/12 RMK AO2
14837KMSN MSN20090616192010906/16/09 19:20:31  5-MIN KMSN 170120Z 10011KT 8SM FEW030 SCT043 BKN050 19/14 A2988 900 72 1600 100/11 RMK AO2
14837KMSN MSN20090616192511506/16/09 19:25:31  5-MIN KMSN 170125Z 09012G17KT 8SM FEW030 SCT043 BKN050 19/14 A2988 900 72 1600 090/12G17 RMK AO2
14837KMSN MSN20090616193011506/16/09 19:30:31  5-MIN KMSN 170130Z 11015G20KT 8SM FEW030 SCT043 BKN050 19/14 A2988 900 72 1600 110/15G20 RMK AO2
14837KMSN MSN20090616193511506/16/09 19:35:31  5-MIN KMSN 170135Z 10011G20KT 8SM FEW021 SCT028 BKN042 19/14 A2988 900 75 1600 100/11G20 RMK AO2
14837KMSN MSN20090616194010906/16/09 19:40:31  5-MIN KMSN 170140Z 10013KT 7SM BKN024 BKN042 BKN050 19/14 A2988 900 75 1600 100/13 RMK AO2
14837KMSN MSN20090616194510206/16/09 19:45:31  5-MIN KMSN 170145Z 10014KT 8SM BKN022 BKN050 19/14 A2988 900 75 1600 100/14 RMK AO2
14837KMSN MSN20090616195012506/16/09 19:50:31  5-MIN KMSN 170150Z 10014G19KT 8SM BKN022 BKN050 19/14 A2988 900 75 1600 100/14G19 RMK AO2 SLP116 T01890144
14837KMSN MSN20090616195510806/16/09 19:55:31  5-MIN KMSN 170155Z 10013G19KT 8SM BKN022 OVC026 19/14 A2988 900 75 1600 100/13G19 RMK AO2
14837KMSN MSN20090616200010106/16/09 20:00:31  5-MIN KMSN 170200Z 10015G21KT 8SM OVC022 19/14 A2988 900 75 1600 100/15G21 RMK AO2
14837KMSN MSN20090616200510106/16/09 20:05:31  5-MIN KMSN 170205Z 10013G21KT 8SM OVC022 19/15 A2988 900 78 1600 100/13G21 RMK AO2
14837KMSN MSN20090616201009506/16/09 20:10:31  5-MIN KMSN 170210Z 11014KT 7SM OVC022 19/15 A2989 900 78 1600 110/14 RMK AO2
14837KMSN MSN20090616201509506/16/09 20:15:31  5-MIN KMSN 170215Z 11012KT 7SM OVC022 19/15 A2989 900 78 1600 110/12 RMK AO2
14837KMSN MSN20090616202009506/16/09 20:20:31  5-MIN KMSN 170220Z 11011KT 7SM OVC022 19/15 A2988 900 78 1600 110/11 RMK AO2
14837KMSN MSN20090616202510106/16/09 20:25:31  5-MIN KMSN 170225Z 12015G19KT 7SM OVC022 19/15 A2989 900 78 1600 120/15G19 RMK AO2
14837KMSN MSN20090616203010106/16/09 20:30:31  5-MIN KMSN 170230Z 11017G20KT 7SM OVC022 19/15 A2989 890 78 1600 110/17G20 RMK AO2
14837KMSN MSN20090616203510106/16/09 20:35:31  5-MIN KMSN 170235Z 11015G22KT 7SM OVC020 19/15 A2988 900 78 1600 110/15G22 RMK AO2
14837KMSN MSN20090616204009506/16/09 20:40:31  5-MIN KMSN 170240Z 11015KT 7SM OVC020 19/15 A2988 900 78 1600 110/15 RMK AO2
14837KMSN MSN20090616204509506/16/09 20:45:31  5-MIN KMSN 170245Z 11011KT 7SM OVC020 19/15 A2988 900 78 1600 110/11 RMK AO2
14837KMSN MSN20090616205012406/16/09 20:50:31  5-MIN KMSN 170250Z 11016G19KT 7SM OVC020 19/15 A2988 900 78 1600 110/16G19 RMK AO2 SLP114 T01890150 55006
14837KMSN MSN20090616205510106/16/09 20:55:31  5-MIN KMSN 170255Z 12012G19KT 7SM OVC020 19/15 A2989 900 78 1600 120/12G19 RMK AO2
14837KMSN MSN20090616210010106/16/09 21:00:31  5-MIN KMSN 170300Z 11011G18KT 7SM OVC020 19/15 A2989 900 78 1600 110/11G18 RMK AO2
14837KMSN MSN20090616210509506/16/09 21:05:31  5-MIN KMSN 170305Z 10014KT 7SM OVC020 19/15 A2989 900 78 1600 100/14 RMK AO2
14837KMSN MSN20090616211009506/16/09 21:10:31  5-MIN KMSN 170310Z 11011KT 7SM OVC020 19/15 A2989 900 78 1600 110/11 RMK AO2
14837KMSN MSN20090616211510106/16/09 21:15:31  5-MIN KMSN 170315Z 12012G18KT 7SM OVC020 18/15 A2989 900 81 1500 120/12G18 RMK AO2
14837KMSN MSN20090616212010106/16/09 21:20:31  5-MIN KMSN 170320Z 11012G19KT 7SM OVC020 18/14 A2989 890 78 1500 110/12G19 RMK AO2
14837KMSN MSN20090616212510106/16/09 21:25:31  5-MIN KMSN 170325Z 11010G19KT 7SM OVC020 18/14 A2989 900 78 1500 110/10G19 RMK AO2
14837KMSN MSN20090616213010106/16/09 21:30:31  5-MIN KMSN 170330Z 11011G18KT 7SM OVC020 18/14 A2988 900 78 1500 110/11G18 RMK AO2
14837KMSN MSN20090616213510106/16/09 21:35:31  5-MIN KMSN 170335Z 11010G18KT 7SM OVC020 18/14 A2988 900 78 1500 110/10G18 RMK AO2
14837KMSN MSN20090616214009506/16/09 21:40:31  5-MIN KMSN 170340Z 11009KT 7SM OVC018 18/14 A2988 900 78 1500 110/09 RMK AO2
14837KMSN MSN20090616214509506/16/09 21:45:31  5-MIN KMSN 170345Z 11009KT 7SM OVC018 18/14 A2988 900 78 1500 110/09 RMK AO2
14837KMSN MSN20090616215011206/16/09 21:50:31  5-MIN KMSN 170350Z 11008KT 7SM OVC018 18/14 A2988 900 78 1500 110/08 RMK AO2 SLP116 T01830144
14837KMSN MSN20090616215509506/16/09 21:55:31  5-MIN KMSN 170355Z 10008KT 7SM OVC018 18/14 A2988 900 78 1500 100/08 RMK AO2
14837KMSN MSN20090616220009506/16/09 22:00:31  5-MIN KMSN 170400Z 11010KT 7SM OVC016 18/14 A2988 900 78 1500 110/10 RMK AO2
14837KMSN MSN20090616220509806/16/09 22:05:31  5-MIN KMSN 170405Z 11008KT 6SM HZ OVC016 18/15 A2988 900 81 1500 110/08 RMK AO2
14837KMSN MSN20090616221009806/16/09 22:10:31  5-MIN KMSN 170410Z 11009KT 6SM HZ OVC016 18/15 A2988 900 81 1500 110/09 RMK AO2
14837KMSN MSN20090616221511106/16/09 22:15:31  5-MIN KMSN 170415Z 12008KT 6SM -RA OVC016 18/15 A2988 900 81 1500 120/08 RMK AO2 RAB15 P0000
14837KMSN MSN20090616222011106/16/09 22:20:31  5-MIN KMSN 170420Z 12008KT 6SM -RA OVC014 18/15 A2988 910 83 1500 120/08 RMK AO2 RAB15 P0000
14837KMSN MSN20090616222511106/16/09 22:25:31  5-MIN KMSN 170425Z 12011KT 6SM -RA OVC014 18/15 A2987 910 83 1500 120/11 RMK AO2 RAB15 P0000
14837KMSN MSN20090616223011106/16/09 22:30:31  5-MIN KMSN 170430Z 11013KT 6SM -RA OVC014 18/15 A2987 910 83 1500 110/13 RMK AO2 RAB15 P0000
14837KMSN MSN20090616223511706/16/09 22:35:31  5-MIN KMSN 170435Z 12013G19KT 6SM -RA OVC014 18/15 A2987 910 83 1500 120/13G19 RMK AO2 RAB15 P0000
14837KMSN MSN20090616224011706/16/09 22:40:31  5-MIN KMSN 170440Z 12011G19KT 5SM -RA OVC014 18/16 A2987 910 87 1500 120/11G19 RMK AO2 RAB15 P0000
14837KMSN MSN20090616224511106/16/09 22:45:31  5-MIN KMSN 170445Z 12012KT 4SM -RA OVC014 18/16 A2986 920 87 1500 110/12 RMK AO2 RAB15 P0001
14837KMSN MSN20090616225012806/16/09 22:50:31  5-MIN KMSN 170450Z 12009KT 4SM -RA OVC012 17/16 A2986 920 90 1400 120/09 RMK AO2 RAB15 SLP110 P0001 T01720156
14837KMSN MSN20090616225510506/16/09 22:55:31  5-MIN KMSN 170455Z 11007KT 4SM -RA OVC012 17/16 A2986 920 90 1400 110/07 RMK AO2 P0000
14837KMSN MSN20090616230010506/16/09 23:00:31  5-MIN KMSN 170500Z 12007KT 5SM -RA OVC012 17/16 A2986 920 90 1400 110/07 RMK AO2 P0000
14837KMSN MSN20090616230510506/16/09 23:05:31  5-MIN KMSN 170505Z 11007KT 4SM -RA OVC012 17/16 A2986 920 90 1400 110/07 RMK AO2 P0000
14837KMSN MSN20090616231010506/16/09 23:10:31  5-MIN KMSN 170510Z 11007KT 5SM -RA OVC012 17/16 A2987 920 90 1400 110/07 RMK AO2 P0000
14837KMSN MSN20090616231510506/16/09 23:15:31  5-MIN KMSN 170515Z 11007KT 5SM -RA OVC012 17/16 A2986 920 90 1400 110/07 RMK AO2 P0000
14837KMSN MSN20090616232010506/16/09 23:20:31  5-MIN KMSN 170520Z 12007KT 4SM -RA OVC012 17/16 A2986 920 90 1400 110/07 RMK AO2 P0000
14837KMSN MSN20090616232510806/16/09 23:25:31  5-MIN KMSN 170525Z 11008KT 4SM -RA BR OVC012 17/16 A2986 920 90 1400 110/08 RMK AO2 P0000
14837KMSN MSN20090616233010806/16/09 23:30:31  5-MIN KMSN 170530Z 12008KT 4SM -RA BR OVC012 17/16 A2986 920 90 1400 120/08 RMK AO2 P0000
14837KMSN MSN20090616233510806/16/09 23:35:31  5-MIN KMSN 170535Z 11007KT 4SM -RA BR OVC012 17/16 A2986 920 90 1400 110/07 RMK AO2 P0000
14837KMSN MSN20090616234010806/16/09 23:40:31  5-MIN KMSN 170540Z 11006KT 4SM -RA BR OVC012 17/16 A2986 920 90 1400 110/06 RMK AO2 P0000
14837KMSN MSN20090616234510806/16/09 23:45:31  5-MIN KMSN 170545Z 12009KT 4SM -RA BR OVC010 17/16 A2985 930 90 1400 120/09 RMK AO2 P0000
14837KMSN MSN20090616235015906/16/09 23:50:31  5-MIN KMSN 170550Z 11010KT 4SM -RA BR OVC010 17/16 A2985 930 90 1400 110/10 RMK AO2 SLP105 P0000 60001 T01720156 10200 20172 402440139 51001
14837KMSN MSN20090616235510806/16/09 23:55:31  5-MIN KMSN 170555Z 10009KT 4SM -RA BR OVC010 17/16 A2985 930 90 1400 100/09 RMK AO2 P0000
14837KMSN MSN20090617000010806/17/09 00:00:32  5-MIN KMSN 170600Z 11009KT 4SM -RA BR OVC010 17/16 A2985 930 90 1400 110/09 RMK AO2 P0000
14837KMSN MSN20090617000510806/17/09 00:05:31  5-MIN KMSN 170605Z 11007KT 4SM -RA BR OVC010 17/16 A2985 930 90 1400 110/07 RMK AO2 P0000
14837KMSN MSN20090617001010806/17/09 00:10:31  5-MIN KMSN 170610Z 10006KT 4SM -RA BR OVC010 17/16 A2986 920 90 1400 100/06 RMK AO2 P0000
14837KMSN MSN20090617001510806/17/09 00:15:31  5-MIN KMSN 170615Z 11004KT 4SM -RA BR OVC010 17/16 A2986 920 90 1400 110/04 RMK AO2 P0000
14837KMSN MSN20090617002011006/17/09 00:20:31  5-MIN KMSN 170620Z 10005KT 4SM BR OVC010 17/16 A2985 920 90 1400 100/05 RMK AO2 RAE19 P0000
14837KMSN MSN20090617002511006/17/09 00:25:31  5-MIN KMSN 170625Z 11005KT 4SM BR OVC010 17/16 A2986 920 90 1400 110/05 RMK AO2 RAE19 P0000
14837KMSN MSN20090617003011006/17/09 00:30:31  5-MIN KMSN 170630Z 11004KT 4SM BR OVC008 17/16 A2986 920 90 1400 110/04 RMK AO2 RAE19 P0000
14837KMSN MSN20090617003511006/17/09 00:35:31  5-MIN KMSN 170635Z 11007KT 4SM BR OVC008 17/16 A2986 920 90 1400 110/07 RMK AO2 RAE19 P0000
14837KMSN MSN20090617004011006/17/09 00:40:31  5-MIN KMSN 170640Z 10006KT 4SM BR OVC008 17/16 A2986 920 90 1400 100/06 RMK AO2 RAE19 P0000
14837KMSN MSN20090617004511006/17/09 00:45:31  5-MIN KMSN 170645Z 10005KT 4SM BR OVC008 17/16 A2986 920 90 1400 100/05 RMK AO2 RAE19 P0000
14837KMSN MSN20090617005012706/17/09 00:50:31  5-MIN KMSN 170650Z 10006KT 4SM BR OVC008 17/16 A2986 920 90 1400 100/06 RMK AO2 RAE19 SLP106 P0000 T01720156
14837KMSN MSN20090617005509806/17/09 00:55:31  5-MIN KMSN 170655Z 10006KT 4SM BR OVC008 17/16 A2985 930 90 1400 100/06 RMK AO2
14837KMSN MSN20090617010009806/17/09 01:00:31  5-MIN KMSN 170700Z 08005KT 4SM BR OVC008 17/16 A2985 930 90 1400 080/05 RMK AO2
14837KMSN MSN20090617010509806/17/09 01:05:31  5-MIN KMSN 170705Z 08005KT 4SM BR OVC008 17/16 A2985 930 90 1400 080/05 RMK AO2
14837KMSN MSN20090617011011406/17/09 01:10:31  5-MIN KMSN 170710Z 08005KT 3SM -RA BR OVC008 17/16 A2985 930 90 1400 080/05 RMK AO2 RAB10 P0000
14837KMSN MSN20090617011511406/17/09 01:15:31  5-MIN KMSN 170715Z 08006KT 3SM -RA BR OVC008 17/16 A2985 930 90 1400 080/06 RMK AO2 RAB10 P0000
14837KMSN MSN20090617012011406/17/09 01:20:31  5-MIN KMSN 170720Z 09005KT 3SM -RA BR OVC008 17/16 A2985 930 90 1400 080/05 RMK AO2 RAB10 P0000
14837KMSN MSN20090617012511406/17/09 01:25:31  5-MIN KMSN 170725Z 07005KT 3SM -RA BR OVC008 17/16 A2985 930 90 1400 070/05 RMK AO2 RAB10 P0000
14837KMSN MSN20090617013011406/17/09 01:30:31  5-MIN KMSN 170730Z 07005KT 3SM -RA BR OVC008 17/16 A2985 930 93 1400 070/05 RMK AO2 RAB10 P0000
14837KMSN MSN20090617013511406/17/09 01:35:31  5-MIN KMSN 170735Z 06005KT 3SM -RA BR OVC008 17/16 A2985 930 93 1400 050/05 RMK AO2 RAB10 P0000
14837KMSN MSN20090617014011706/17/09 01:40:31  5-MIN KMSN 170740Z 07003KT 2 1/2SM RA BR OVC008 17/16 A2986 920 93 1400 070/03 RMK AO2 RAB10 P0001
14837KMSN MSN20090617014511406/17/09 01:45:31  5-MIN KMSN 170745Z 00000KT 2SM -RA BR OVC008 17/16 A2986 920 96 1400 000/00 RMK AO2 RAB10 P0002
14837KMSN MSN20090617015013006/17/09 01:50:31  5-MIN KMSN 170750Z 09006KT 2SM RA BR OVC008 17/16 A2985 930 96 1400 090/06 RMK AO2 RAB10 SLP105 P0002 T01670161
14837KMSN MSN20090617015511206/17/09 01:55:31  5-MIN KMSN 170755Z 10006KT 1 1/2SM +RA BR OVC008 17/16 A2985 930 96 1400 100/06 RMK AO2 P0001
14837KMSN MSN20090617020012306/17/09 02:00:31  5-MIN KMSN 170800Z 10006KT 1 1/2SM RA BR OVC008 17/16 A2985 930 96 1400 100/06 RMK AO2 CIG 006V010 P0004
14837KMSN MSN20090617020512406/17/09 02:05:31  5-MIN KMSN 170805Z 10005KT 1 3/4SM -RA BR OVC008 17/16 A2985 930 96 1400 100/05 RMK AO2 CIG 006V011 P0004
14837KMSN MSN20090617021012006/17/09 02:10:31  5-MIN KMSN 170810Z 09005KT 2SM -RA BR OVC008 17/16 A2985 930 96 1400 080/05 RMK AO2 CIG 006V011 P0004
14837KMSN MSN20090617021512706/17/09 02:15:31  5-MIN KMSN 170815Z 09005KT 2SM -RA BR BKN008 OVC013 17/16 A2985 930 96 1400 090/05 RMK AO2 CIG 006V011 P0004
14837KMSN MSN20090617022012006/17/09 02:20:31  5-MIN KMSN 170820Z 09004KT 2SM -RA BR OVC008 17/16 A2985 930 96 1400 090/04 RMK AO2 CIG 006V011 P0004
14837KMSN MSN20090617022512206/17/09 02:25:31  5-MIN KMSN 170825Z 09003KT 2SM BR OVC008 17/16 A2985 930 96 1400 090/03 RMK AO2 RAE22 CIG 006V011 P0004
14837KMSN MSN20090617023010806/17/09 02:30:31  5-MIN KMSN 170830Z 09003KT 2SM -RA BR OVC011 17/16 A2985 930 96 1400 090/03 RMK AO2 P0004
14837KMSN MSN20090617023512006/17/09 02:35:31  5-MIN KMSN 170835Z 10005KT 2SM -RA BR OVC011 17/16 A2985 930 96 1400 100/05 RMK AO2 CIG 006V014 P0005
14837KMSN MSN20090617024010806/17/09 02:40:31  5-MIN KMSN 170840Z 10005KT 2SM -RA BR OVC011 17/16 A2985 930 96 1400 100/05 RMK AO2 P0005
14837KMSN MSN20090617024512406/17/09 02:45:31  5-MIN KMSN 170845Z 10004KT 2 1/2SM -RA BR OVC011 17/16 A2985 930 96 1400 100/04 RMK AO2 CIG 005V013 P0005
14837KMSN MSN20090617025011906/17/09 02:50:31  5-MIN KMSN 170850Z 08005KT 2 1/2SM -RA BR SCT007 OVC011 17/16 A2985 930 96 1400 080/05 RMK AO2 P0005
14837KMSN MSN20090617025513106/17/09 02:55:31  5-MIN KMSN 170855Z 06004KT 2 1/2SM -RA BR BKN007 OVC011 17/16 A2985 930 96 1400 060/04 RMK AO2 CIG 005V010 P0000
14837KMSN MSN20090617030013106/17/09 03:00:31  5-MIN KMSN 170900Z 05003KT 2 1/2SM -RA BR BKN007 OVC011 17/16 A2985 930 96 1400 050/03 RMK AO2 CIG 004V009 P0000
14837KMSN MSN20090617030511906/17/09 03:05:31  5-MIN KMSN 170905Z 04003KT 2 1/2SM -RA BR BKN005 OVC011 17/16 A2986 920 96 1400 040/03 RMK AO2 P0000
14837KMSN MSN20090617031012406/17/09 03:10:31  5-MIN KMSN 170910Z 35003KT 2 1/2SM -RA BR OVC007 17/16 A2986 920 96 1400 340/03 RMK AO2 CIG 004V009 P0000
14837KMSN MSN20090617031512406/17/09 03:15:31  5-MIN KMSN 170915Z 00000KT 2 1/2SM -RA BR OVC007 17/16 A2986 920 96 1400 000/00 RMK AO2 CIG 004V009 P0000
14837KMSN MSN20090617032012406/17/09 03:20:31  5-MIN KMSN 170920Z 00000KT 2 1/2SM -RA BR OVC007 17/16 A2986 920 96 1400 000/00 RMK AO2 CIG 004V009 P0000
14837KMSN MSN20090617032512006/17/09 03:25:31  5-MIN KMSN 170925Z 00000KT 2SM -RA BR OVC007 17/16 A2986 920 96 1400 000/00 RMK AO2 CIG 004V010 P0000
14837KMSN MSN20090617033012006/17/09 03:30:31  5-MIN KMSN 170930Z 00000KT 2SM -RA BR OVC007 17/16 A2985 930 96 1400 000/00 RMK AO2 CIG 003V010 P0000
14837KMSN MSN20090617033512406/17/09 03:35:31  5-MIN KMSN 170935Z 00000KT 1 3/4SM -RA BR OVC005 17/16 A2985 930 96 1400 000/00 RMK AO2 CIG 003V010 P0000
14837KMSN MSN20090617034012406/17/09 03:40:31  5-MIN KMSN 170940Z 07005KT 1 3/4SM -RA BR OVC005 17/16 A2985 930 96 1400 070/05 RMK AO2 CIG 003V008 P0000
14837KMSN MSN20090617034512006/17/09 03:45:31  5-MIN KMSN 170945Z 08004KT 2SM -RA BR OVC005 17/16 A2985 930 96 1400 080/04 RMK AO2 CIG 003V008 P0000
14837KMSN MSN20090617035015206/17/09 03:50:31  5-MIN KMSN 170950Z 07004KT 2 1/2SM -DZ BR OVC005 17/16 A2985 930 96 1400 070/04 RMK AO2 RAE46DZB46 CIG 003V008 SLP107 P0000 T01670161
14837KMSN MSN20090617035512406/17/09 03:55:31  5-MIN KMSN 170955Z 08003KT 2 1/2SM -DZ BR OVC005 17/16 A2985 930 96 1400 080/03 RMK AO2 CIG 003V008 P0000
14837KMSN MSN20090617040012006/17/09 04:00:31  5-MIN KMSN 171000Z 11005KT 3SM -DZ BR OVC007 17/16 A2985 930 93 1400 110/05 RMK AO2 CIG 003V009 P0000
14837KMSN MSN20090617040512006/17/09 04:05:31  5-MIN KMSN 171005Z 10006KT 3SM -DZ BR OVC007 17/16 A2985 930 93 1400 100/06 RMK AO2 CIG 003V011 P0000
14837KMSN MSN20090617041012006/17/09 04:10:31  5-MIN KMSN 171010Z 10004KT 3SM -DZ BR OVC007 17/16 A2985 930 96 1400 100/04 RMK AO2 CIG 004V011 P0000
14837KMSN MSN20090617041512206/17/09 04:15:31  5-MIN KMSN 171015Z 10003KT 3SM BR OVC007 17/16 A2985 930 96 1400 100/03 RMK AO2 DZE11 CIG 004V011 P0000
14837KMSN MSN20090617042012206/17/09 04:20:31  5-MIN KMSN 171020Z 12004KT 3SM BR OVC007 17/16 A2985 930 93 1400 120/04 RMK AO2 DZE11 CIG 006V011 P0000
14837KMSN MSN20090617042512206/17/09 04:25:31  5-MIN KMSN 171025Z 12004KT 4SM BR OVC007 17/16 A2985 930 93 1400 120/04 RMK AO2 DZE11 CIG 005V009 P0000
14837KMSN MSN20090617043011006/17/09 04:30:31  5-MIN KMSN 171030Z 11004KT 4SM BR OVC007 17/16 A2985 930 93 1400 110/04 RMK AO2 DZE11 P0000
14837KMSN MSN20090617043511006/17/09 04:35:31  5-MIN KMSN 171035Z 11003KT 4SM BR OVC007 17/16 A2986 920 93 1400 110/03 RMK AO2 DZE11 P0000
14837KMSN MSN20090617044011006/17/09 04:40:31  5-MIN KMSN 171040Z 00000KT 4SM BR OVC007 17/16 A2986 920 93 1400 000/00 RMK AO2 DZE11 P0000
14837KMSN MSN20090617044511906/17/09 04:45:31  5-MIN KMSN 171045Z 10003KT 4SM -RA BR OVC005 17/16 A2986 920 93 1400 100/03 RMK AO2 DZE11RAB44 P0000
14837KMSN MSN20090617045013606/17/09 04:50:31  5-MIN KMSN 171050Z 09003KT 3SM -RA BR OVC005 17/16 A2987 910 96 1400 090/03 RMK AO2 DZE11RAB44 SLP111 P0000 T01670161
14837KMSN MSN20090617045510806/17/09 04:55:31  5-MIN KMSN 171055Z 09004KT 3SM -RA BR OVC005 17/16 A2987 910 93 1400 090/04 RMK AO2 P0000
14837KMSN MSN20090617050012206/17/09 05:00:31  5-MIN KMSN 171100Z 09005KT 2SM -RA BR OVC005 17/16 A2987 910 93 1400 080/05 RMK AO2 SFC VIS 2 1/2 P0001
14837KMSN MSN20090617050512206/17/09 05:05:31  5-MIN KMSN 171105Z 06003KT 1 3/4SM -RA BR OVC005 17/16 A2988 910 93 1400 060/03 RMK AO2 TWR VIS 2 P0001
14837KMSN MSN20090617051012206/17/09 05:10:31  5-MIN KMSN 171110Z 06003KT 1 1/2SM -RA BR OVC005 17/16 A2988 910 93 1400 060/03 RMK AO2 TWR VIS 2 P0001
14837KMSN MSN20090617051512506/17/09 05:15:31  5-MIN KMSN 171115Z 07003KT 1SM -RA BR BKN005 OVC009 17/16 A2987 910 93 1400 070/03 RMK AO2 TWR VIS 2 P0002
14837KMSN MSN20090617052013106/17/09 05:20:31  5-MIN KMSN 171120Z 07005KT 3/4SM -RA BR BKN005 OVC009 16/16 A2987 910 96 1300 070/05 RMK AO2 TWR VIS 1 1/2 P0002
14837KMSN MSN20090617052514106/17/09 05:25:31  5-MIN KMSN 171125Z 07004KT 1SM -RA BR BKN007 OVC011 16/16 A2987 910 96 1300 070/04 RMK AO2 TWR VIS 1 1/2 CIG 004V010 P0003
14837KMSN MSN20090617053012906/17/09 05:30:31  5-MIN KMSN 171130Z 08003KT 1SM -RA BR SCT007 OVC011 16/16 A2988 910 96 1300 080/03 RMK AO2 TWR VIS 1 1/2 P0003
14837KMSN MSN20090617053513506/17/09 05:35:31  5-MIN KMSN 171135Z 07003KT 1 1/4SM BR FEW005 OVC011 16/16 A2988 900 96 1300 070/03 RMK AO2 TWR VIS 1 1/2 RAE34 P0003
14837KMSN MSN20090617054013506/17/09 05:40:31  5-MIN KMSN 171140Z 05003KT 1 1/4SM BR FEW005 OVC011 16/16 A2988 900 96 1300 050/03 RMK AO2 TWR VIS 1 1/2 RAE34 P0003
14837KMSN MSN20090617054513506/17/09 05:45:31  5-MIN KMSN 171145Z 05004KT 1 1/4SM BR SCT007 OVC011 16/16 A2988 900 96 1300 050/04 RMK AO2 TWR VIS 1 1/2 RAE34 P0003
14837KMSN MSN20090617055018006/17/09 05:50:31  5-MIN KMSN 171150Z 04003KT 1 1/2SM BR FEW004 OVC010 17/16 A2988 900 96 1300 040/03 RMK AO2 RAE34 CIG 006V015 SLP116 P0003 60011 70012 T01670161 10172 20161 51001
14837KMSN MSN20090617055512806/17/09 05:55:31  5-MIN KMSN 171155Z 05006KT 1 1/2SM BR SCT004 BKN009 OVC014 17/16 A2988 900 93 1300 050/06 RMK AO2 CIG 007V012
14837KMSN MSN20090617060012106/17/09 06:00:31  5-MIN KMSN 171200Z 05006KT 1 1/2SM BR BKN006 OVC014 16/16 A2988 900 96 1300 050/06 RMK AO2 CIG 004V010
14837KMSN MSN20090617060512106/17/09 06:05:31  5-MIN KMSN 171205Z 06006KT 1 1/2SM BR BKN006 OVC014 16/16 A2988 900 96 1300 060/06 RMK AO2 CIG 004V010
14837KMSN MSN20090617061012806/17/09 06:10:31  5-MIN KMSN 171210Z 06004KT 1 1/4SM BR OVC006 16/16 A2988 900 96 1300 060/04 RMK AO2 TWR VIS 1 1/2 CIG 004V011
14837KMSN MSN20090617061512806/17/09 06:15:31  5-MIN KMSN 171215Z 05004KT 1 1/4SM BR OVC008 16/16 A2989 900 96 1300 050/04 RMK AO2 TWR VIS 1 1/2 CIG 004V011
14837KMSN MSN20090617062012106/17/09 06:20:31  5-MIN KMSN 171220Z 05005KT 1 1/2SM BR BKN005 OVC010 16/16 A2989 890 96 1300 050/05 RMK AO2 CIG 004V008
14837KMSN MSN20090617062512306/17/09 06:25:31  5-MIN KMSN 171225Z 05004KT 1 1/4SM BR BKN005 OVC010 16/16 A2989 890 96 1300 050/04 RMK AO2 TWR VIS 1 1/2
14837KMSN MSN20090617063014206/17/09 06:30:31  5-MIN KMSN 171230Z 08003KT 1 1/4SM BR BKN005 BKN010 OVC018 17/16 A2989 890 93 1300 080/03 RMK AO2 TWR VIS 1 1/2 CIG 004V008
14837KMSN MSN20090617063511606/17/09 06:35:31  5-MIN KMSN 171235Z 07003KT 1 1/2SM BR SCT005 BKN010 OVC018 17/16 A2989 890 93 1300 070/03 RMK AO2
14837KMSN MSN20090617064014206/17/09 06:40:31  5-MIN KMSN 171240Z 08003KT 1 1/2SM BR BKN005 BKN010 OVC018 17/16 A2989 890 93 1300 080/03 RMK AO2 SFC VIS 1 3/4 CIG 003V009
14837KMSN MSN20090617064513106/17/09 06:45:31  5-MIN KMSN 171245Z 06003KT 1 1/2SM BR BKN005 OVC018 17/16 A2989 890 93 1300 060/03 RMK AO2 SFC VIS 2 CIG 003V010
14837KMSN MSN20090617065014306/17/09 06:50:31  5-MIN KMSN 171250Z 05005KT 1 1/2SM BR SCT004 BKN007 OVC018 17/16 A2989 890 96 1300 050/05 RMK AO2 SFC VIS 2 SLP119 T01670161
14837KMSN MSN20090617065513806/17/09 06:55:31  5-MIN KMSN 171255Z 06006KT 1 1/2SM BR FEW004 BKN007 OVC018 17/16 A2989 890 93 1300 050/06 RMK AO2 SFC VIS 2 CIG 007V011
14837KMSN MSN20090617070013106/17/09 07:00:31  5-MIN KMSN 171300Z 06005KT 1 1/2SM BR BKN007 OVC011 17/16 A2989 890 93 1300 050/05 RMK AO2 SFC VIS 2 CIG 003V009
14837KMSN MSN20090617070512406/17/09 07:05:31  5-MIN KMSN 171305Z 05006KT 1 1/2SM BR OVC007 17/16 A2989 890 93 1300 050/06 RMK AO2 SFC VIS 2 CIG 004V009
14837KMSN MSN20090617071012406/17/09 07:10:31  5-MIN KMSN 171310Z 05005KT 1 1/2SM BR OVC007 17/16 A2989 890 93 1300 040/05 RMK AO2 SFC VIS 2 CIG 004V009
14837KMSN MSN20090617071512406/17/09 07:15:31  5-MIN KMSN 171315Z 06006KT 1 1/2SM BR OVC007 17/16 A2989 890 93 1300 060/06 RMK AO2 SFC VIS 2 CIG 004V009
14837KMSN MSN20090617072012406/17/09 07:20:31  5-MIN KMSN 171320Z 05006KT 1 1/2SM BR OVC007 17/16 A2989 890 93 1300 050/06 RMK AO2 SFC VIS 2 CIG 004V009
14837KMSN MSN20090617072512806/17/09 07:25:31  5-MIN KMSN 171325Z 05006KT 1 1/2SM BR OVC005 17/16 A2989 890 93 1300 050/06 RMK AO2 SFC VIS 2 1/2 CIG 004V008
14837KMSN MSN20090617073011606/17/09 07:30:31  5-MIN KMSN 171330Z 07005KT 1 1/2SM BR OVC004 17/16 A2990 890 93 1300 070/05 RMK AO2 SFC VIS 2 1/2
14837KMSN MSN20090617073511606/17/09 07:35:31  5-MIN KMSN 171335Z 07005KT 1 1/2SM BR OVC004 17/16 A2990 880 93 1300 070/05 RMK AO2 SFC VIS 2 1/2
14837KMSN MSN20090617074012406/17/09 07:40:31  5-MIN KMSN 171340Z 06006KT 1 1/2SM BR OVC006 17/16 A2990 880 93 1300 060/06 RMK AO2 SFC VIS 3 CIG 004V010
14837KMSN MSN20090617074511206/17/09 07:45:31  5-MIN KMSN 171345Z 06005KT 1 1/2SM BR OVC006 17/16 A2990 880 93 1300 060/05 RMK AO2 SFC VIS 3
14837KMSN MSN20090617075014806/17/09 07:50:31  5-MIN KMSN 171350Z 06005KT 1 1/2SM BR BKN006 OVC010 17/16 A2990 880 93 1300 060/05 RMK AO2 SFC VIS 3 CIG 005V009 SLP124 T01670156
14837KMSN MSN20090617075511906/17/09 07:55:31  5-MIN KMSN 171355Z 04008KT 2 1/2SM BR BKN006 OVC010 17/16 A2991 880 93 1300 040/08 RMK AO2 SFC VIS 4
14837KMSN MSN20090617080011206/17/09 08:00:31  5-MIN KMSN 171400Z 06007KT 2 1/2SM BR OVC006 17/16 A2991 880 93 1300 060/07 RMK AO2 SFC VIS 4
14837KMSN MSN20090617080511206/17/09 08:05:31  5-MIN KMSN 171405Z 05007KT 2 1/2SM BR OVC006 17/16 A2991 870 93 1300 050/07 RMK AO2 SFC VIS 4
14837KMSN MSN20090617081011206/17/09 08:10:31  5-MIN KMSN 171410Z 07006KT 2 1/2SM BR OVC006 17/16 A2991 870 93 1300 070/06 RMK AO2 SFC VIS 4
14837KMSN MSN20090617081512406/17/09 08:15:31  5-MIN KMSN 171415Z 07005KT 2 1/2SM BR OVC006 17/16 A2991 870 93 1300 070/05 RMK AO2 SFC VIS 4 CIG 005V010
14837KMSN MSN20090617082012406/17/09 08:20:31  5-MIN KMSN 171420Z 08005KT 2 1/2SM BR OVC006 17/16 A2992 870 93 1300 080/05 RMK AO2 SFC VIS 4 CIG 005V009
14837KMSN MSN20090617082512406/17/09 08:25:31  5-MIN KMSN 171425Z 09005KT 2 1/2SM BR OVC008 17/16 A2992 870 90 1400 080/05 RMK AO2 SFC VIS 4 CIG 005V011
14837KMSN MSN20090617083012406/17/09 08:30:31  5-MIN KMSN 171430Z 07006KT 2 1/2SM BR OVC008 17/16 A2992 870 90 1400 070/06 RMK AO2 SFC VIS 4 CIG 005V012
14837KMSN MSN20090617083513106/17/09 08:35:31  5-MIN KMSN 171435Z 08004KT 2 1/2SM BR BKN008 OVC011 17/16 A2992 870 90 1400 070/04 RMK AO2 SFC VIS 4 CIG 005V010
14837KMSN MSN20090617084011206/17/09 08:40:31  5-MIN KMSN 171440Z 08004KT 2 1/2SM BR OVC008 17/16 A2991 870 90 1400 070/04 RMK AO2 SFC VIS 4
14837KMSN MSN20090617084513106/17/09 08:45:31  5-MIN KMSN 171445Z 08006KT 2 1/2SM BR BKN008 OVC012 18/16 A2991 870 90 1400 080/06 RMK AO2 SFC VIS 4 CIG 007V011
14837KMSN MSN20090617085015406/17/09 08:50:31  5-MIN KMSN 171450Z 08005KT 2 1/2SM BR BKN008 OVC012 18/16 A2991 870 90 1400 080/05 RMK AO2 SFC VIS 4 CIG 007V011 SLP127 T01780161 53008
14837KMSN MSN20090617085509806/17/09 08:55:31  5-MIN KMSN 171455Z 08006KT 4SM BR OVC008 17/16 A2991 870 90 1400 080/06 RMK AO2
14837KMSN MSN20090617090010806/17/09 09:00:31  5-MIN KMSN 171500Z 06004KT 3SM BR OVC008 17/16 A2991 870 90 1400 050/04 RMK AO2 TWR VIS 4
14837KMSN MSN20090617090509806/17/09 09:05:31  5-MIN KMSN 171505Z 06004KT 4SM BR OVC008 17/16 A2992 870 90 1400 060/04 RMK AO2
14837KMSN MSN20090617091011006/17/09 09:10:31  5-MIN KMSN 171510Z 05004KT 4SM BR OVC008 18/16 A2992 860 90 1400 040/04 RMK AO2 CIG 006V010
14837KMSN MSN20090617091511006/17/09 09:15:31  5-MIN KMSN 171515Z 03005KT 4SM BR OVC008 18/16 A2992 860 90 1400 030/05 RMK AO2 CIG 006V012
14837KMSN MSN20090617092011706/17/09 09:20:31  5-MIN KMSN 171520Z 01003KT 4SM BR BKN008 OVC012 17/16 A2992 860 90 1400 010/03 RMK AO2 CIG 006V010
14837KMSN MSN20090617092511706/17/09 09:25:31  5-MIN KMSN 171525Z 01004KT 4SM BR BKN008 OVC013 18/16 A2992 860 87 1400 010/04 RMK AO2 CIG 006V012
14837KMSN MSN20090617093009806/17/09 09:30:31  5-MIN KMSN 171530Z 36003KT 4SM BR OVC011 18/16 A2992 860 87 1400 360/03 RMK AO2
14837KMSN MSN20090617093511706/17/09 09:35:31  5-MIN KMSN 171535Z 36004KT 4SM BR BKN008 OVC011 18/16 A2992 860 87 1500 350/04 RMK AO2 CIG 007V010
14837KMSN MSN20090617094011706/17/09 09:40:31  5-MIN KMSN 171540Z 34005KT 4SM BR BKN009 OVC014 18/16 A2992 860 87 1500 340/05 RMK AO2 CIG 007V011
14837KMSN MSN20090617094510506/17/09 09:45:31  5-MIN KMSN 171545Z 01003KT 4SM BR BKN011 OVC037 18/16 A2992 860 87 1500 010/03 RMK AO2
14837KMSN MSN20090617095012206/17/09 09:50:31  5-MIN KMSN 171550Z 36004KT 5SM BR BKN013 OVC037 18/16 A2992 860 87 1500 360/04 RMK AO2 SLP130 T01830161
14837KMSN MSN20090617095510506/17/09 09:55:31  5-MIN KMSN 171555Z 01003KT 5SM BR BKN013 OVC037 18/16 A2992 860 87 1500 010/03 RMK AO2
14837KMSN MSN20090617100010506/17/09 10:00:31  5-MIN KMSN 171600Z 07004KT 5SM HZ BKN013 OVC037 19/16 A2993 860 84 1600 070/04 RMK AO2
14837KMSN MSN20090617100510506/17/09 10:05:31  5-MIN KMSN 171605Z 00000KT 5SM BR BKN013 OVC037 18/16 A2992 860 87 1500 000/00 RMK AO2
14837KMSN MSN20090617101009806/17/09 10:10:31  5-MIN KMSN 171610Z 00000KT 5SM BR OVC013 18/16 A2993 860 87 1500 000/00 RMK AO2
14837KMSN MSN20090617101509806/17/09 10:15:31  5-MIN KMSN 171615Z 36003KT 5SM HZ OVC011 19/16 A2993 860 84 1500 360/03 RMK AO2
14837KMSN MSN20090617102009806/17/09 10:20:31  5-MIN KMSN 171620Z 00000KT 5SM HZ OVC011 19/16 A2993 860 84 1500 000/00 RMK AO2
14837KMSN MSN20090617102509806/17/09 10:25:31  5-MIN KMSN 171625Z 00000KT 5SM HZ OVC011 19/16 A2993 860 84 1600 000/00 RMK AO2
14837KMSN MSN20090617103009806/17/09 10:30:31  5-MIN KMSN 171630Z 35003KT 5SM HZ OVC011 19/16 A2992 860 84 1600 350/03 RMK AO2
14837KMSN MSN20090617103509806/17/09 10:35:31  5-MIN KMSN 171635Z 00000KT 5SM HZ OVC013 19/16 A2993 860 81 1600 000/00 RMK AO2
14837KMSN MSN20090617104010506/17/09 10:40:31  5-MIN KMSN 171640Z VRB03KT 5SM HZ BKN013 OVC018 19/16 A2993 860 84 1600 VRB/03 RMK AO2
14837KMSN MSN20090617104510506/17/09 10:45:31  5-MIN KMSN 171645Z 00000KT 5SM HZ BKN013 OVC018 19/16 A2993 860 81 1600 000/00 RMK AO2
14837KMSN MSN20090617105011506/17/09 10:50:31  5-MIN KMSN 171650Z VRB03KT 5SM HZ OVC013 19/16 A2993 860 81 1600 VRB/03 RMK AO2 SLP131 T01940161
14837KMSN MSN20090617105509806/17/09 10:55:31  5-MIN KMSN 171655Z 01004KT 5SM HZ OVC013 20/16 A2993 860 78 1700 010/04 RMK AO2
14837KMSN MSN20090617110010506/17/09 11:00:31  5-MIN KMSN 171700Z 00000KT 5SM HZ BKN013 OVC020 20/16 A2992 860 78 1700 000/00 RMK AO2
14837KMSN MSN20090617110510506/17/09 11:05:31  5-MIN KMSN 171705Z 00000KT 6SM HZ BKN015 BKN020 20/16 A2992 860 78 1700 000/00 RMK AO2
14837KMSN MSN20090617111009806/17/09 11:10:31  5-MIN KMSN 171710Z 00000KT 6SM HZ BKN015 21/16 A2992 860 75 1800 000/00 RMK AO2
14837KMSN MSN20090617111509806/17/09 11:15:31  5-MIN KMSN 171715Z 00000KT 6SM HZ BKN015 20/16 A2992 860 78 1700 000/00 RMK AO2
14837KMSN MSN20090617112009806/17/09 11:20:31  5-MIN KMSN 171720Z 00000KT 6SM HZ BKN015 21/16 A2992 870 75 1800 000/00 RMK AO2
14837KMSN MSN20090617112509806/17/09 11:25:31  5-MIN KMSN 171725Z 35003KT 6SM HZ BKN015 21/17 A2992 870 75 1800 350/03 RMK AO2
14837KMSN MSN20090617113009806/17/09 11:30:31  5-MIN KMSN 171730Z 00000KT 6SM HZ BKN015 21/16 A2992 870 73 1800 000/00 RMK AO2
14837KMSN MSN20090617113509506/17/09 11:35:31  5-MIN KMSN 171735Z 02004KT 7SM BKN015 21/17 A2992 870 75 1800 010/04 RMK AO2
14837KMSN MSN20090617114009506/17/09 11:40:31  5-MIN KMSN 171740Z 35006KT 7SM BKN015 22/16 A2992 860 70 1900 350/06 RMK AO2
14837KMSN MSN20090617114509506/17/09 11:45:31  5-MIN KMSN 171745Z 31003KT 7SM BKN019 21/16 A2992 860 73 1800 310/03 RMK AO2
14837KMSN MSN20090617115013006/17/09 11:50:31  5-MIN KMSN 171750Z 32003KT 7SM BKN021 21/16 A2992 860 73 1800 320/03 RMK AO2 SLP129 T02110161 10217 20161 51011
14837KMSN MSN20090617115509506/17/09 11:55:31  5-MIN KMSN 171755Z VRB03KT 8SM BKN023 22/17 A2992 860 73 1900 VRB/03 RMK AO2
14837KMSN MSN20090617120010206/17/09 12:00:31  5-MIN KMSN 171800Z 34005KT 7SM BKN021 BKN025 21/17 A2992 870 75 1800 330/05 RMK AO2
14837KMSN MSN20090617120509506/17/09 12:05:31  5-MIN KMSN 171805Z 03006KT 7SM BKN021 22/17 A2991 880 73 1900 030/06 RMK AO2
14837KMSN MSN20090617121009506/17/09 12:10:31  5-MIN KMSN 171810Z VRB03KT 7SM BKN021 22/17 A2991 880 73 1900 VRB/03 RMK AO2
14837KMSN MSN20090617121509506/17/09 12:15:31  5-MIN KMSN 171815Z 00000KT 8SM BKN021 22/17 A2991 880 70 2000 000/00 RMK AO2
14837KMSN MSN20090617122009506/17/09 12:20:31  5-MIN KMSN 171820Z VRB03KT 8SM BKN021 22/17 A2991 870 70 2000 VRB/03 RMK AO2
14837KMSN MSN20090617122509506/17/09 12:25:31  5-MIN KMSN 171825Z 36004KT 8SM BKN021 22/17 A2992 870 70 1900 350/04 RMK AO2
14837KMSN MSN20090617123009506/17/09 12:30:31  5-MIN KMSN 171830Z 01005KT 8SM BKN021 22/16 A2992 870 70 1900 010/05 RMK AO2
14837KMSN MSN20090617123509506/17/09 12:35:31  5-MIN KMSN 171835Z 00000KT 8SM BKN023 22/16 A2992 870 68 1900 000/00 RMK AO2
14837KMSN MSN20090617124009506/17/09 12:40:31  5-MIN KMSN 171840Z 35004KT 8SM BKN023 22/16 A2992 870 70 1900 350/04 RMK AO2
14837KMSN MSN20090617124509506/17/09 12:45:31  5-MIN KMSN 171845Z VRB04KT 9SM BKN023 23/17 A2992 870 68 2000 VRB/04 RMK AO2
14837KMSN MSN20090617125011206/17/09 12:50:31  5-MIN KMSN 171850Z VRB03KT 9SM BKN025 23/17 A2992 870 68 2000 VRB/03 RMK AO2 SLP127 T02280167
14837KMSN MSN20090617125509506/17/09 12:55:31  5-MIN KMSN 171855Z 35004KT 9SM SCT025 23/17 A2992 870 66 2100 350/04 RMK AO2
14837KMSN MSN20090617130009506/17/09 13:00:31  5-MIN KMSN 171900Z 03003KT 9SM BKN025 24/17 A2991 870 63 2100 020/03 RMK AO2
14837KMSN MSN20090617130509506/17/09 13:05:31  5-MIN KMSN 171905Z 00000KT 9SM BKN025 23/16 A2991 870 65 2000 000/00 RMK AO2
14837KMSN MSN20090617131009506/17/09 13:10:31  5-MIN KMSN 171910Z 00000KT 9SM BKN025 23/16 A2991 870 63 2100 000/00 RMK AO2
14837KMSN MSN20090617131509506/17/09 13:15:31  5-MIN KMSN 171915Z 00000KT 9SM BKN027 24/17 A2991 870 63 2100 000/00 RMK AO2
14837KMSN MSN20090617132009506/17/09 13:20:31  5-MIN KMSN 171920Z 00000KT 9SM BKN027 23/16 A2991 870 63 2100 000/00 RMK AO2
14837KMSN MSN20090617132509506/17/09 13:25:31  5-MIN KMSN 171925Z 06003KT 9SM BKN027 23/16 A2991 880 65 2000 060/03 RMK AO2
14837KMSN MSN20090617133009506/17/09 13:30:31  5-MIN KMSN 171930Z 10003KT 9SM BKN027 23/16 A2991 880 63 2100 100/03 RMK AO2
14837KMSN MSN20090617133509506/17/09 13:35:31  5-MIN KMSN 171935Z 00000KT 9SM BKN027 23/16 A2991 880 63 2100 000/00 RMK AO2
14837KMSN MSN20090617134009506/17/09 13:40:31  5-MIN KMSN 171940Z 00000KT 9SM BKN027 23/16 A2991 870 63 2100 000/00 RMK AO2
14837KMSN MSN20090617134509506/17/09 13:45:31  5-MIN KMSN 171945Z 19003KT 9SM BKN027 23/17 A2991 870 66 2100 190/03 RMK AO2
14837KMSN MSN20090617135011206/17/09 13:50:31  5-MIN KMSN 171950Z 00000KT 9SM BKN027 23/16 A2991 870 65 2000 000/00 RMK AO2 SLP126 T02280161
14837KMSN MSN20090617135509506/17/09 13:55:31  5-MIN KMSN 171955Z VRB04KT 9SM BKN032 23/16 A2991 870 63 2100 VRB/04 RMK AO2
14837KMSN MSN20090617140009506/17/09 14:00:31  5-MIN KMSN 172000Z VRB03KT 9SM BKN032 23/17 A2991 870 68 2100 VRB/03 RMK AO2
14837KMSN MSN20090617140509506/17/09 14:05:31  5-MIN KMSN 172005Z VRB05KT 9SM BKN032 23/17 A2991 870 68 2100 VRB/05 RMK AO2
14837KMSN MSN20090617141009606/17/09 14:10:31  5-MIN KMSN 172010Z 25005KT 10SM OVC032 23/17 A2991 870 66 2100 250/05 RMK AO2
14837KMSN MSN20090617141509606/17/09 14:15:31  5-MIN KMSN 172015Z 26004KT 10SM BKN032 23/17 A2991 880 68 2100 260/04 RMK AO2
14837KMSN MSN20090617142009506/17/09 14:20:31  5-MIN KMSN 172020Z 00000KT 9SM BKN032 23/17 A2991 880 68 2100 000/00 RMK AO2
14837KMSN MSN20090617142509506/17/09 14:25:31  5-MIN KMSN 172025Z 29004KT 9SM BKN032 23/17 A2991 880 68 2000 290/04 RMK AO2
14837KMSN MSN20090617143009506/17/09 14:30:31  5-MIN KMSN 172030Z 00000KT 9SM BKN032 23/17 A2991 880 68 2000 000/00 RMK AO2
14837KMSN MSN20090617143509506/17/09 14:35:31  5-MIN KMSN 172035Z 00000KT 9SM BKN032 23/17 A2990 880 68 2100 000/00 RMK AO2
14837KMSN MSN20090617144009606/17/09 14:40:31  5-MIN KMSN 172040Z 00000KT 10SM BKN032 23/17 A2990 880 68 2000 000/00 RMK AO2
14837KMSN MSN20090617144509606/17/09 14:45:31  5-MIN KMSN 172045Z 00000KT 10SM BKN032 23/16 A2990 880 63 2100 000/00 RMK AO2
14837KMSN MSN20090617145011906/17/09 14:50:31  5-MIN KMSN 172050Z 00000KT 10SM BKN032 23/16 A2990 880 63 2100 000/00 RMK AO2 SLP123 T02330161 50003
14837KMSN MSN20090617145509606/17/09 14:55:31  5-MIN KMSN 172055Z 00000KT 10SM BKN035 23/16 A2990 880 63 2100 000/00 RMK AO2
14837KMSN MSN20090617150009606/17/09 15:00:31  5-MIN KMSN 172100Z 00000KT 10SM BKN035 23/16 A2990 890 63 2100 000/00 RMK AO2
14837KMSN MSN20090617150509606/17/09 15:05:31  5-MIN KMSN 172105Z 23003KT 10SM BKN035 23/16 A2990 880 63 2100 230/03 RMK AO2
14837KMSN MSN20090617151009606/17/09 15:10:31  5-MIN KMSN 172110Z 24003KT 10SM BKN035 23/16 A2990 880 65 2000 240/03 RMK AO2
14837KMSN MSN20090617151509606/17/09 15:15:31  5-MIN KMSN 172115Z 26003KT 10SM BKN035 23/16 A2990 880 63 2100 260/03 RMK AO2
14837KMSN MSN20090617152009606/17/09 15:20:31  5-MIN KMSN 172120Z VRB04KT 10SM BKN035 23/16 A2990 880 63 2100 VRB/04 RMK AO2
14837KMSN MSN20090617152509606/17/09 15:25:31  5-MIN KMSN 172125Z 23005KT 10SM BKN035 23/16 A2990 880 63 2100 230/05 RMK AO2
14837KMSN MSN20090617153009606/17/09 15:30:31  5-MIN KMSN 172130Z VRB03KT 10SM BKN038 23/16 A2990 890 63 2100 VRB/03 RMK AO2
14837KMSN MSN20090617153509606/17/09 15:35:31  5-MIN KMSN 172135Z 00000KT 10SM BKN038 24/17 A2989 890 63 2200 000/00 RMK AO2
14837KMSN MSN20090617154009606/17/09 15:40:31  5-MIN KMSN 172140Z 00000KT 10SM BKN038 24/16 A2989 890 61 2200 000/00 RMK AO2
14837KMSN MSN20090617154509606/17/09 15:45:31  5-MIN KMSN 172145Z 00000KT 10SM BKN038 24/17 A2989 890 63 2200 000/00 RMK AO2
14837KMSN MSN20090617155011306/17/09 15:50:31  5-MIN KMSN 172150Z 00000KT 10SM BKN038 24/17 A2989 890 63 2200 000/00 RMK AO2 SLP117 T02390167
14837KMSN MSN20090617155509606/17/09 15:55:31  5-MIN KMSN 172155Z 24003KT 10SM SCT033 24/16 A2989 900 61 2200 240/03 RMK AO2
14837KMSN MSN20090617160009606/17/09 16:00:31  5-MIN KMSN 172200Z 00000KT 10SM SCT031 24/16 A2988 900 61 2200 000/00 RMK AO2
14837KMSN MSN20090617160509606/17/09 16:05:31  5-MIN KMSN 172205Z 00000KT 10SM FEW031 24/16 A2988 900 61 2200 000/00 RMK AO2
14837KMSN MSN20090617161009606/17/09 16:10:31  5-MIN KMSN 172210Z 27003KT 10SM FEW031 24/16 A2988 900 61 2200 260/03 RMK AO2
14837KMSN MSN20090617161509606/17/09 16:15:31  5-MIN KMSN 172215Z 00000KT 10SM FEW031 24/16 A2988 900 61 2200 000/00 RMK AO2
14837KMSN MSN20090617162009306/17/09 16:20:31  5-MIN KMSN 172220Z 00000KT 10SM CLR 24/16 A2988 900 61 2200 000/00 RMK AO2
14837KMSN MSN20090617162509606/17/09 16:25:31  5-MIN KMSN 172225Z 00000KT 10SM FEW032 24/16 A2988 900 61 2200 000/00 RMK AO2
14837KMSN MSN20090617163009606/17/09 16:30:31  5-MIN KMSN 172230Z 24003KT 10SM FEW032 24/16 A2988 900 61 2200 240/03 RMK AO2
14837KMSN MSN20090617163509606/17/09 16:35:31  5-MIN KMSN 172235Z 00000KT 10SM FEW032 24/16 A2988 900 61 2200 000/00 RMK AO2
14837KMSN MSN20090617164009606/17/09 16:40:31  5-MIN KMSN 172240Z 00000KT 10SM FEW032 24/16 A2988 900 61 2200 000/00 RMK AO2
14837KMSN MSN20090617164509606/17/09 16:45:31  5-MIN KMSN 172245Z 00000KT 10SM FEW032 24/16 A2988 900 61 2200 000/00 RMK AO2
14837KMSN MSN20090617165011306/17/09 16:50:31  5-MIN KMSN 172250Z 00000KT 10SM FEW032 24/17 A2988 900 61 2200 000/00 RMK AO2 SLP115 T02440167
14837KMSN MSN20090617165509306/17/09 16:55:31  5-MIN KMSN 172255Z 00000KT 10SM CLR 24/16 A2988 900 59 2200 000/00 RMK AO2
14837KMSN MSN20090617170009306/17/09 17:00:31  5-MIN KMSN 172300Z 00000KT 10SM CLR 24/16 A2988 900 59 2200 000/00 RMK AO2
14837KMSN MSN20090617170509306/17/09 17:05:31  5-MIN KMSN 172305Z 00000KT 10SM CLR 24/16 A2988 900 59 2200 000/00 RMK AO2
14837KMSN MSN20090617171009606/17/09 17:10:31  5-MIN KMSN 172310Z 00000KT 10SM FEW032 24/17 A2988 900 61 2200 000/00 RMK AO2
14837KMSN MSN20090617171509606/17/09 17:15:31  5-MIN KMSN 172315Z 00000KT 10SM FEW032 24/16 A2988 900 59 2200 000/00 RMK AO2
14837KMSN MSN20090617172009606/17/09 17:20:31  5-MIN KMSN 172320Z 00000KT 10SM FEW032 24/16 A2988 900 61 2200 000/00 RMK AO2
14837KMSN MSN20090617172509606/17/09 17:25:31  5-MIN KMSN 172325Z 00000KT 10SM FEW032 24/16 A2988 900 61 2200 000/00 RMK AO2
14837KMSN MSN20090617173009606/17/09 17:30:31  5-MIN KMSN 172330Z 00000KT 10SM FEW032 24/17 A2988 910 61 2200 000/00 RMK AO2
14837KMSN MSN20090617173509606/17/09 17:35:31  5-MIN KMSN 172335Z 00000KT 10SM FEW032 24/16 A2987 910 59 2200 000/00 RMK AO2
14837KMSN MSN20090617174009606/17/09 17:40:31  5-MIN KMSN 172340Z 00000KT 10SM FEW032 24/16 A2987 910 59 2300 000/00 RMK AO2
14837KMSN MSN20090617174509606/17/09 17:45:31  5-MIN KMSN 172345Z 00000KT 10SM FEW032 24/16 A2987 910 59 2200 000/00 RMK AO2
14837KMSN MSN20090617175013106/17/09 17:50:31  5-MIN KMSN 172350Z 00000KT 10SM FEW045 24/16 A2987 910 61 2200 000/00 RMK AO2 SLP112 T02390161 10244 20211 58006
14837KMSN MSN20090617175509306/17/09 17:55:31  5-MIN KMSN 172355Z 00000KT 10SM CLR 24/16 A2987 910 61 2200 000/00 RMK AO2
14837KMSN MSN20090617180009306/17/09 18:00:31  5-MIN KMSN 180000Z 00000KT 10SM CLR 24/16 A2987 910 59 2200 000/00 RMK AO2
14837KMSN MSN20090617180509306/17/09 18:05:31  5-MIN KMSN 180005Z 00000KT 10SM CLR 24/16 A2987 910 59 2200 000/00 RMK AO2
14837KMSN MSN20090617181009306/17/09 18:10:31  5-MIN KMSN 180010Z 00000KT 10SM CLR 24/16 A2987 910 59 2300 000/00 RMK AO2
14837KMSN MSN20090617181509306/17/09 18:15:31  5-MIN KMSN 180015Z 00000KT 10SM CLR 24/17 A2987 910 61 2300 000/00 RMK AO2
14837KMSN MSN20090617182009306/17/09 18:20:31  5-MIN KMSN 180020Z 00000KT 10SM CLR 24/17 A2986 920 63 2300 000/00 RMK AO2
14837KMSN MSN20090617182509306/17/09 18:25:31  5-MIN KMSN 180025Z 00000KT 10SM CLR 24/16 A2986 920 59 2300 000/00 RMK AO2
14837KMSN MSN20090617183009306/17/09 18:30:31  5-MIN KMSN 180030Z 00000KT 10SM CLR 24/16 A2986 920 59 2300 000/00 RMK AO2
14837KMSN MSN20090617183509306/17/09 18:35:31  5-MIN KMSN 180035Z 00000KT 10SM CLR 24/16 A2986 920 61 2200 000/00 RMK AO2
14837KMSN MSN20090617184009306/17/09 18:40:31  5-MIN KMSN 180040Z 00000KT 10SM CLR 23/17 A2986 920 66 2100 000/00 RMK AO2
14837KMSN MSN20090617184509306/17/09 18:45:31  5-MIN KMSN 180045Z 00000KT 10SM CLR 23/17 A2986 920 66 2100 000/00 RMK AO2
14837KMSN MSN20090617185011006/17/09 18:50:31  5-MIN KMSN 180050Z 00000KT 10SM CLR 23/17 A2986 920 66 2100 000/00 RMK AO2 SLP109 T02330167
14837KMSN MSN20090617185509306/17/09 18:55:31  5-MIN KMSN 180055Z 00000KT 10SM CLR 23/16 A2986 920 63 2100 000/00 RMK AO2
14837KMSN MSN20090617190009306/17/09 19:00:31  5-MIN KMSN 180100Z 00000KT 10SM CLR 22/17 A2986 920 70 2000 000/00 RMK AO2
14837KMSN MSN20090617190509306/17/09 19:05:31  5-MIN KMSN 180105Z 00000KT 10SM CLR 22/17 A2986 920 75 2000 000/00 RMK AO2
14837KMSN MSN20090617191009306/17/09 19:10:31  5-MIN KMSN 180110Z 00000KT 10SM CLR 22/17 A2985 930 73 2000 000/00 RMK AO2
14837KMSN MSN20090617191509306/17/09 19:15:31  5-MIN KMSN 180115Z 00000KT 10SM CLR 22/17 A2985 920 73 2000 000/00 RMK AO2
14837KMSN MSN20090617192009306/17/09 19:20:31  5-MIN KMSN 180120Z 00000KT 10SM CLR 21/17 A2986 920 78 1800 000/00 RMK AO2
14837KMSN MSN20090617192509306/17/09 19:25:31  5-MIN KMSN 180125Z 00000KT 10SM CLR 21/17 A2985 930 78 1800 000/00 RMK AO2
14837KMSN MSN20090617193009206/17/09 19:30:31  5-MIN KMSN 180130Z 00000KT 9SM CLR 21/17 A2985 930 78 1800 000/00 RMK AO2
14837KMSN MSN20090617193509206/17/09 19:35:31  5-MIN KMSN 180135Z 00000KT 8SM CLR 21/17 A2985 930 78 1800 000/00 RMK AO2
14837KMSN MSN20090617194009206/17/09 19:40:31  5-MIN KMSN 180140Z 00000KT 8SM CLR 20/17 A2985 930 84 1800 000/00 RMK AO2
14837KMSN MSN20090617194509206/17/09 19:45:31  5-MIN KMSN 180145Z 00000KT 8SM CLR 20/17 A2986 920 81 1800 000/00 RMK AO2
14837KMSN MSN20090617195010906/17/09 19:50:31  5-MIN KMSN 180150Z 00000KT 8SM CLR 20/17 A2987 910 81 1700 000/00 RMK AO2 SLP111 T02000167
14837KMSN MSN20090617195509206/17/09 19:55:31  5-MIN KMSN 180155Z 00000KT 9SM CLR 19/17 A2986 920 84 1700 000/00 RMK AO2
14837KMSN MSN20090617200009206/17/09 20:00:31  5-MIN KMSN 180200Z 00000KT 9SM CLR 19/17 A2987 910 84 1700 000/00 RMK AO2
14837KMSN MSN20090617200509306/17/09 20:05:31  5-MIN KMSN 180205Z 00000KT 10SM CLR 20/17 A2987 910 81 1700 000/00 RMK AO2
14837KMSN MSN20090617201009306/17/09 20:10:31  5-MIN KMSN 180210Z 00000KT 10SM CLR 19/17 A2987 910 84 1700 000/00 RMK AO2
14837KMSN MSN20090617201509306/17/09 20:15:31  5-MIN KMSN 180215Z 00000KT 10SM CLR 19/17 A2987 910 87 1600 000/00 RMK AO2
14837KMSN MSN20090617202009206/17/09 20:20:31  5-MIN KMSN 180220Z 00000KT 9SM CLR 19/17 A2987 910 84 1700 000/00 RMK AO2
14837KMSN MSN20090617202509206/17/09 20:25:31  5-MIN KMSN 180225Z 00000KT 9SM CLR 19/17 A2988 910 84 1700 000/00 RMK AO2
14837KMSN MSN20090617203009306/17/09 20:30:31  5-MIN KMSN 180230Z 00000KT 10SM CLR 19/17 A2988 900 84 1700 000/00 RMK AO2
14837KMSN MSN20090617203509206/17/09 20:35:31  5-MIN KMSN 180235Z 00000KT 9SM CLR 19/17 A2989 890 84 1700 000/00 RMK AO2
14837KMSN MSN20090617204009206/17/09 20:40:31  5-MIN KMSN 180240Z 00000KT 9SM CLR 19/17 A2989 890 84 1700 000/00 RMK AO2
14837KMSN MSN20090617204509206/17/09 20:45:31  5-MIN KMSN 180245Z 00000KT 9SM CLR 19/17 A2989 890 87 1600 000/00 RMK AO2
14837KMSN MSN20090617205011506/17/09 20:50:31  5-MIN KMSN 180250Z 00000KT 9SM CLR 19/17 A2989 890 84 1700 000/00 RMK AO2 SLP120 T01940167 56010
14837KMSN MSN20090617205509606/17/09 20:55:31  5-MIN KMSN 180255Z 00000KT 10SM FEW042 19/17 A2990 890 84 1700 000/00 RMK AO2
14837KMSN MSN20090617210009606/17/09 21:00:31  5-MIN KMSN 180300Z 00000KT 10SM FEW065 19/17 A2990 880 87 1600 000/00 RMK AO2
14837KMSN MSN20090617210509506/17/09 21:05:31  5-MIN KMSN 180305Z 00000KT 9SM SCT065 19/17 A2989 890 84 1700 000/00 RMK AO2
14837KMSN MSN20090617211009506/17/09 21:10:31  5-MIN KMSN 180310Z 00000KT 9SM FEW065 19/17 A2989 900 84 1700 000/00 RMK AO2
14837KMSN MSN20090617211509506/17/09 21:15:31  5-MIN KMSN 180315Z 00000KT 9SM FEW065 19/17 A2988 900 87 1600 000/00 RMK AO2
14837KMSN MSN20090617212009506/17/09 21:20:31  5-MIN KMSN 180320Z 00000KT 9SM FEW065 21/17 A2988 900 78 1800 000/00 RMK AO2
14837KMSN MSN20090617212509506/17/09 21:25:31  5-MIN KMSN 180325Z 00000KT 9SM FEW065 20/17 A2987 910 81 1700 000/00 RMK AO2
14837KMSN MSN20090617213009506/17/09 21:30:31  5-MIN KMSN 180330Z 06004KT 8SM FEW065 20/17 A2987 910 84 1700 060/04 RMK AO2
14837KMSN MSN20090617213509206/17/09 21:35:31  5-MIN KMSN 180335Z 07004KT 9SM CLR 20/17 A2987 910 84 1700 070/04 RMK AO2
14837KMSN MSN20090617214009206/17/09 21:40:31  5-MIN KMSN 180340Z 10004KT 9SM CLR 19/17 A2987 920 87 1700 100/04 RMK AO2
14837KMSN MSN20090617214509206/17/09 21:45:31  5-MIN KMSN 180345Z 00000KT 9SM CLR 20/17 A2986 920 81 1800 000/00 RMK AO2
14837KMSN MSN20090617215012506/17/09 21:50:31  5-MIN KMSN 180350Z 16004KT 9SM -RA CLR 19/17 A2987 920 87 1700 160/04 RMK AO2 RAB50 SLP111 P0000 T01940172
14837KMSN MSN20090617215510606/17/09 21:55:31  5-MIN KMSN 180355Z 14005KT 10SM -RA FEW110 21/17 A2986 920 75 1900 140/05 RMK AO2 P0000
14837KMSN MSN20090617220010506/17/09 22:00:31  5-MIN KMSN 180400Z 00000KT 9SM -RA FEW060 22/17 A2987 910 73 1900 000/00 RMK AO2 P0000
14837KMSN MSN20090617220511206/17/09 22:05:31  5-MIN KMSN 180405Z 00000KT 8SM -RA FEW055 SCT110 21/17 A2988 900 81 1800 000/00 RMK AO2 P0000
14837KMSN MSN20090617221011206/17/09 22:10:31  5-MIN KMSN 180410Z 00000KT 7SM -RA SCT036 BKN110 19/17 A2988 900 87 1700 000/00 RMK AO2 P0000
14837KMSN MSN20090617221511506/17/09 22:15:31  5-MIN KMSN 180415Z 00000KT 6SM -RA BR SCT029 BKN110 20/18 A2988 900 87 1700 000/00 RMK AO2 P0000
14837KMSN MSN20090617222011506/17/09 22:20:31  5-MIN KMSN 180420Z 00000KT 6SM -RA BR SCT027 BKN110 19/18 A2988 900 90 1700 000/00 RMK AO2 P0000
14837KMSN MSN20090617222511506/17/09 22:25:31  5-MIN KMSN 180425Z 00000KT 6SM -RA BR FEW029 SCT110 19/18 A2988 900 90 1700 000/00 RMK AO2 P0001
14837KMSN MSN20090617223010506/17/09 22:30:31  5-MIN KMSN 180430Z 00000KT 7SM -RA FEW029 19/18 A2988 900 93 1600 000/00 RMK AO2 P0001
14837KMSN MSN20090617223510806/17/09 22:35:31  5-MIN KMSN 180435Z 00000KT 6SM -RA BR FEW023 19/18 A2987 910 93 1600 000/00 RMK AO2 P0001
14837KMSN MSN20090617224010806/17/09 22:40:31  5-MIN KMSN 180440Z 00000KT 6SM -RA BR FEW020 20/18 A2987 910 87 1700 000/00 RMK AO2 P0001
14837KMSN MSN20090617224510806/17/09 22:45:31  5-MIN KMSN 180445Z 00000KT 6SM -RA BR SCT020 20/18 A2988 910 87 1700 000/00 RMK AO2 P0002
14837KMSN MSN20090617225012206/17/09 22:50:31  5-MIN KMSN 180450Z 15003KT 5SM -RA SCT020 21/18 A2987 910 84 1800 150/03 RMK AO2 SLP112 P0002 T02060178
14837KMSN MSN20090617225511206/17/09 22:55:31  5-MIN KMSN 180455Z 15006KT 6SM -RA SCT020 BKN120 21/18 A2986 920 84 1800 150/06 RMK AO2 P0000
14837KMSN MSN20090617230010506/17/09 23:00:31  5-MIN KMSN 180500Z 16007KT 6SM -RA BKN020 21/18 A2985 930 84 1800 160/07 RMK AO2 P0000
14837KMSN MSN20090617230511206/17/09 23:05:31  5-MIN KMSN 180505Z 17009KT 5SM -RA BKN020 21/18 A2984 940 84 1800 170/09 RMK AO2 PRESFR P0001
14837KMSN MSN20090617231010806/17/09 23:10:31  5-MIN KMSN 180510Z 18005KT 5SM -RA BR OVC020 20/18 A2984 940 90 1800 180/05 RMK AO2 P0001
14837KMSN MSN20090617231510806/17/09 23:15:31  5-MIN KMSN 180515Z 16004KT 5SM -RA BR BKN020 20/18 A2983 940 87 1800 160/04 RMK AO2 P0001
14837KMSN MSN20090617232010806/17/09 23:20:31  5-MIN KMSN 180520Z 15004KT 6SM -RA BR BKN020 20/18 A2984 940 90 1800 150/04 RMK AO2 P0002
14837KMSN MSN20090617232510806/17/09 23:25:31  5-MIN KMSN 180525Z 17005KT 5SM -RA BR SCT020 20/18 A2984 940 87 1800 170/05 RMK AO2 P0002
14837KMSN MSN20090617233010806/17/09 23:30:31  5-MIN KMSN 180530Z 18006KT 6SM -RA BR SCT020 20/18 A2984 940 87 1800 180/06 RMK AO2 P0002
14837KMSN MSN20090617233510806/17/09 23:35:31  5-MIN KMSN 180535Z 19008KT 6SM -RA BR FEW018 20/18 A2985 930 87 1800 190/08 RMK AO2 P0002
14837KMSN MSN20090617234010806/17/09 23:40:31  5-MIN KMSN 180540Z 19008KT 6SM -RA BR FEW110 20/18 A2985 930 87 1800 190/08 RMK AO2 P0002
14837KMSN MSN20090617234510806/17/09 23:45:31  5-MIN KMSN 180545Z 19008KT 6SM -RA BR FEW110 20/18 A2985 930 90 1800 190/08 RMK AO2 P0002
14837KMSN MSN20090617235015906/17/09 23:50:31  5-MIN KMSN 180550Z 19008KT 5SM -RA BR SCT020 20/18 A2985 930 90 1800 190/08 RMK AO2 SLP105 P0002 60004 T02000183 10244 20189 402440161 53008
14837KMSN MSN20090617235510506/17/09 23:55:31  5-MIN KMSN 180555Z 18008KT 5SM -RA BR CLR 20/18 A2985 930 90 1800 180/08 RMK AO2 P0000
14837KMSN MSN20090618000010906/18/09 00:00:32  5-MIN KMSN 180600Z 18006KT 5SM BR CLR 20/18 A2985 930 90 1800 180/06 RMK AO2 RAE0557 P0000
14837KMSN MSN20090618000510506/18/09 00:05:31  5-MIN KMSN 180605Z 18008KT 5SM -RA BR CLR 20/18 A2984 930 90 1800 170/08 RMK AO2 P0000
14837KMSN MSN20090618001011206/18/09 00:10:31  5-MIN KMSN 180610Z 16012KT 4SM -RA BR CLR 20/18 A2983 950 90 1800 160/12 RMK AO2 PRESFR P0000
14837KMSN MSN20090618001510506/18/09 00:15:31  5-MIN KMSN 180615Z 16011KT 5SM -RA BR CLR 20/18 A2983 950 90 1800 160/11 RMK AO2 P0000
14837KMSN MSN20090618002010506/18/09 00:20:31  5-MIN KMSN 180620Z 16009KT 5SM -RA BR CLR 20/18 A2982 960 90 1800 160/09 RMK AO2 P0000
14837KMSN MSN20090618002511006/18/09 00:25:31  5-MIN KMSN 180625Z 14005KT 5SM BR FEW085 20/18 A2982 960 90 1800 140/05 RMK AO2 RAE21 P0000
14837KMSN MSN20090618003010806/18/09 00:30:31  5-MIN KMSN 180630Z 12008KT 4SM -RA BR FEW045 19/18 A2981 960 93 1700 120/08 RMK AO2 P0000
14837KMSN MSN20090618003511506/18/09 00:35:31  5-MIN KMSN 180635Z 14013KT 4SM -RA BR FEW035 19/18 A2980 980 93 1800 140/13 RMK AO2 PRESFR P0000
14837KMSN MSN20090618004010806/18/09 00:40:31  5-MIN KMSN 180640Z 14007KT 4SM -RA BR FEW045 19/18 A2981 960 93 1700 140/07 RMK AO2 P0000
14837KMSN MSN20090618004511006/18/09 00:45:31  5-MIN KMSN 180645Z 08006KT 4SM BR FEW045 19/18 A2983 950 90 1700 080/06 RMK AO2 RAE45 P0000
14837KMSN MSN20090618005012706/18/09 00:50:31  5-MIN KMSN 180650Z 06008KT 4SM BR FEW045 19/18 A2983 940 90 1700 060/08 RMK AO2 RAE45 SLP098 P0000 T01940178
14837KMSN MSN20090618005509506/18/09 00:55:31  5-MIN KMSN 180655Z 09008KT 4SM BR CLR 19/18 A2983 940 93 1700 090/08 RMK AO2
14837KMSN MSN20090618010009806/18/09 01:00:31  5-MIN KMSN 180700Z 07008KT 3SM BR FEW011 19/18 A2984 940 93 1700 070/08 RMK AO2
14837KMSN MSN20090618010509806/18/09 01:05:31  5-MIN KMSN 180705Z 07008KT 3SM BR SCT011 19/18 A2985 930 93 1600 070/08 RMK AO2
14837KMSN MSN20090618011009806/18/09 01:10:31  5-MIN KMSN 180710Z 10007KT 3SM BR SCT011 19/18 A2985 930 93 1600 100/07 RMK AO2
14837KMSN MSN20090618011509806/18/09 01:15:31  5-MIN KMSN 180715Z 13008KT 4SM BR FEW011 19/18 A2984 940 93 1600 130/08 RMK AO2
14837KMSN MSN20090618012009806/18/09 01:20:31  5-MIN KMSN 180720Z 12007KT 4SM BR FEW011 19/18 A2985 930 93 1600 120/07 RMK AO2
14837KMSN MSN20090618012509806/18/09 01:25:31  5-MIN KMSN 180725Z 09007KT 4SM BR FEW011 19/18 A2985 930 93 1600 090/07 RMK AO2
14837KMSN MSN20090618013009806/18/09 01:30:31  5-MIN KMSN 180730Z 10006KT 4SM BR SCT011 19/18 A2986 920 93 1600 100/06 RMK AO2
14837KMSN MSN20090618013509806/18/09 01:35:31  5-MIN KMSN 180735Z 12008KT 4SM BR FEW013 19/18 A2984 940 93 1600 120/08 RMK AO2
14837KMSN MSN20090618014009806/18/09 01:40:31  5-MIN KMSN 180740Z 12006KT 3SM BR FEW013 19/18 A2984 940 93 1600 120/06 RMK AO2
14837KMSN MSN20090618014509806/18/09 01:45:31  5-MIN KMSN 180745Z 11008KT 3SM BR FEW013 19/18 A2984 940 93 1700 110/08 RMK AO2
14837KMSN MSN20090618015011506/18/09 01:50:31  5-MIN KMSN 180750Z 11008KT 3SM BR FEW013 19/18 A2983 940 93 1700 110/08 RMK AO2 SLP098 T01890178
14837KMSN MSN20090618015509506/18/09 01:55:31  5-MIN KMSN 180755Z 12007KT 3SM BR CLR 19/17 A2983 940 90 1700 120/07 RMK AO2
14837KMSN MSN20090618020009506/18/09 02:00:31  5-MIN KMSN 180800Z 14007KT 3SM BR CLR 19/17 A2984 940 90 1700 140/07 RMK AO2
14837KMSN MSN20090618020509506/18/09 02:05:31  5-MIN KMSN 180805Z 13008KT 4SM BR CLR 19/17 A2984 940 90 1700 130/08 RMK AO2
14837KMSN MSN20090618021009506/18/09 02:10:31  5-MIN KMSN 180810Z 13007KT 4SM BR CLR 19/17 A2985 930 87 1600 120/07 RMK AO2
14837KMSN MSN20090618021509506/18/09 02:15:31  5-MIN KMSN 180815Z 11007KT 4SM BR CLR 18/17 A2984 940 93 1600 110/07 RMK AO2
14837KMSN MSN20090618022009506/18/09 02:20:31  5-MIN KMSN 180820Z 12006KT 4SM BR CLR 18/17 A2984 940 93 1600 120/06 RMK AO2
14837KMSN MSN20090618022509506/18/09 02:25:31  5-MIN KMSN 180825Z 13008KT 4SM BR CLR 18/17 A2983 940 90 1600 130/08 RMK AO2
14837KMSN MSN20090618023009506/18/09 02:30:31  5-MIN KMSN 180830Z 13009KT 4SM BR CLR 18/17 A2983 950 90 1600 130/09 RMK AO2
14837KMSN MSN20090618023509506/18/09 02:35:31  5-MIN KMSN 180835Z 14008KT 4SM BR CLR 18/17 A2982 950 90 1600 130/08 RMK AO2
14837KMSN MSN20090618024009506/18/09 02:40:31  5-MIN KMSN 180840Z 14009KT 4SM BR CLR 18/17 A2983 950 90 1600 140/09 RMK AO2
14837KMSN MSN20090618024509506/18/09 02:45:31  5-MIN KMSN 180845Z 15009KT 4SM BR CLR 18/17 A2984 940 90 1600 150/09 RMK AO2
14837KMSN MSN20090618025012706/18/09 02:50:31  5-MIN KMSN 180850Z 15008KT 4SM BR FEW015 18/17 A2983 950 90 1600 150/08 RMK AO2 SLP097 60000 T01830167 56015
14837KMSN MSN20090618025509506/18/09 02:55:31  5-MIN KMSN 180855Z 16008KT 4SM BR CLR 18/17 A2983 950 90 1600 160/08 RMK AO2
14837KMSN MSN20090618030009506/18/09 03:00:31  5-MIN KMSN 180900Z 16006KT 4SM BR CLR 18/17 A2983 950 90 1600 160/06 RMK AO2
14837KMSN MSN20090618030509506/18/09 03:05:31  5-MIN KMSN 180905Z 15007KT 4SM BR CLR 18/16 A2982 950 87 1600 150/07 RMK AO2
14837KMSN MSN20090618031009506/18/09 03:10:31  5-MIN KMSN 180910Z 14006KT 4SM BR CLR 18/16 A2982 950 87 1600 140/06 RMK AO2
14837KMSN MSN20090618031509506/18/09 03:15:31  5-MIN KMSN 180915Z 15006KT 4SM BR CLR 18/16 A2983 950 87 1600 150/06 RMK AO2
14837KMSN MSN20090618032009506/18/09 03:20:31  5-MIN KMSN 180920Z 14007KT 4SM BR CLR 18/16 A2982 960 87 1600 140/07 RMK AO2
14837KMSN MSN20090618032509506/18/09 03:25:31  5-MIN KMSN 180925Z 15005KT 4SM BR CLR 18/16 A2982 960 87 1600 150/05 RMK AO2
14837KMSN MSN20090618033009506/18/09 03:30:31  5-MIN KMSN 180930Z 14007KT 4SM BR CLR 18/16 A2981 960 87 1600 140/07 RMK AO2
14837KMSN MSN20090618033509506/18/09 03:35:31  5-MIN KMSN 180935Z 14005KT 4SM HZ CLR 18/16 A2982 960 84 1600 140/05 RMK AO2
14837KMSN MSN20090618034009506/18/09 03:40:31  5-MIN KMSN 180940Z 13005KT 4SM HZ CLR 18/16 A2981 970 84 1600 130/05 RMK AO2
14837KMSN MSN20090618034509506/18/09 03:45:31  5-MIN KMSN 180945Z 14006KT 4SM BR CLR 18/16 A2981 970 87 1600 140/06 RMK AO2
14837KMSN MSN20090618035011206/18/09 03:50:31  5-MIN KMSN 180950Z 14005KT 4SM BR CLR 18/16 A2980 970 87 1600 140/05 RMK AO2 SLP088 T01780156
14837KMSN MSN20090618035509506/18/09 03:55:31  5-MIN KMSN 180955Z 17005KT 4SM HZ CLR 18/16 A2981 970 84 1600 160/05 RMK AO2
14837KMSN MSN20090618040009506/18/09 04:00:31  5-MIN KMSN 181000Z 16005KT 4SM HZ CLR 18/16 A2980 970 84 1600 160/05 RMK AO2
14837KMSN MSN20090618040509506/18/09 04:05:31  5-MIN KMSN 181005Z 16007KT 4SM HZ CLR 18/16 A2980 970 84 1600 160/07 RMK AO2
14837KMSN MSN20090618041009506/18/09 04:10:31  5-MIN KMSN 181010Z 17008KT 4SM HZ CLR 18/16 A2981 970 84 1600 170/08 RMK AO2
14837KMSN MSN20090618041509506/18/09 04:15:31  5-MIN KMSN 181015Z 17009KT 4SM HZ CLR 18/16 A2980 980 84 1600 160/09 RMK AO2
14837KMSN MSN20090618042009506/18/09 04:20:31  5-MIN KMSN 181020Z 16009KT 4SM HZ CLR 18/16 A2980 970 84 1600 160/09 RMK AO2
14837KMSN MSN20090618042509506/18/09 04:25:31  5-MIN KMSN 181025Z 17008KT 4SM HZ CLR 18/16 A2980 970 84 1600 170/08 RMK AO2
14837KMSN MSN20090618043011106/18/09 04:30:31  5-MIN KMSN 181030Z 18006KT 4SM -RA FEW034 18/16 A2980 970 84 1600 180/06 RMK AO2 RAB29 P0000
14837KMSN MSN20090618043511106/18/09 04:35:31  5-MIN KMSN 181035Z 18009KT 4SM -RA FEW049 18/16 A2981 970 84 1600 180/09 RMK AO2 RAB29 P0000
14837KMSN MSN20090618044011106/18/09 04:40:31  5-MIN KMSN 181040Z 18008KT 4SM -RA FEW055 18/16 A2981 970 84 1600 180/08 RMK AO2 RAB29 P0000
14837KMSN MSN20090618044511406/18/09 04:45:31  5-MIN KMSN 181045Z 17010KT 3SM -RA BR FEW050 18/16 A2980 970 87 1600 170/10 RMK AO2 RAB29 P0000
14837KMSN MSN20090618045013006/18/09 04:50:31  5-MIN KMSN 181050Z 17010KT 3SM HZ FEW050 18/16 A2980 970 84 1600 170/10 RMK AO2 RAB29E47 SLP087 P0000 T01830156
14837KMSN MSN20090618045510206/18/09 04:55:31  5-MIN KMSN 181055Z 16008KT 2 1/2SM HZ FEW050 18/16 A2980 970 84 1600 160/08 RMK AO2
14837KMSN MSN20090618050009906/18/09 05:00:31  5-MIN KMSN 181100Z 16008KT 2 1/2SM HZ CLR 18/16 A2981 970 84 1600 160/08 RMK AO2
14837KMSN MSN20090618050509906/18/09 05:05:31  5-MIN KMSN 181105Z 15006KT 2 1/2SM HZ CLR 18/16 A2981 970 84 1600 150/06 RMK AO2
14837KMSN MSN20090618051009906/18/09 05:10:31  5-MIN KMSN 181110Z 16006KT 2 1/2SM HZ CLR 18/16 A2981 960 84 1600 160/06 RMK AO2
14837KMSN MSN20090618051510906/18/09 05:15:31  5-MIN KMSN 181115Z 14006KT 2 1/2SM HZ CLR 18/16 A2981 970 84 1600 140/06 RMK AO2 TWR VIS 3
14837KMSN MSN20090618052010906/18/09 05:20:31  5-MIN KMSN 181120Z 14007KT 2 1/2SM HZ CLR 18/16 A2980 970 84 1600 140/07 RMK AO2 TWR VIS 3
14837KMSN MSN20090618052510906/18/09 05:25:31  5-MIN KMSN 181125Z 14008KT 2 1/2SM HZ CLR 18/16 A2980 970 84 1600 140/08 RMK AO2 TWR VIS 3
14837KMSN MSN20090618053010906/18/09 05:30:31  5-MIN KMSN 181130Z 14008KT 2 1/2SM HZ CLR 18/16 A2980 980 84 1600 140/08 RMK AO2 TWR VIS 3
14837KMSN MSN20090618053510906/18/09 05:35:31  5-MIN KMSN 181135Z 15009KT 2 1/2SM HZ CLR 18/16 A2980 980 84 1600 150/09 RMK AO2 TWR VIS 3
14837KMSN MSN20090618054009506/18/09 05:40:31  5-MIN KMSN 181140Z 15010KT 3SM HZ CLR 18/16 A2980 970 84 1600 150/10 RMK AO2
14837KMSN MSN20090618054509506/18/09 05:45:31  5-MIN KMSN 181145Z 15006KT 3SM HZ CLR 18/16 A2981 970 84 1600 150/06 RMK AO2
14837KMSN MSN20090618055014206/18/09 05:50:31  5-MIN KMSN 181150Z 15007KT 3SM HZ CLR 18/16 A2982 960 84 1600 150/07 RMK AO2 SLP092 60000 70005 T01830156 10200 20178 56006
14837KMSN MSN20090618055510206/18/09 05:55:31  5-MIN KMSN 181155Z 17006KT 3SM HZ CLR 19/16 A2982 960 81 1700 170/06 RMK AO2 PRESRR
14837KMSN MSN20090618060009506/18/09 06:00:31  5-MIN KMSN 181200Z 18006KT 3SM HZ CLR 19/16 A2983 950 81 1700 180/06 RMK AO2
14837KMSN MSN20090618060509506/18/09 06:05:31  5-MIN KMSN 181205Z 19007KT 3SM HZ CLR 19/16 A2983 950 81 1700 190/07 RMK AO2
14837KMSN MSN20090618061009506/18/09 06:10:31  5-MIN KMSN 181210Z 18006KT 3SM HZ CLR 19/16 A2983 950 81 1700 180/06 RMK AO2
14837KMSN MSN20090618061509506/18/09 06:15:31  5-MIN KMSN 181215Z 17008KT 3SM HZ CLR 18/16 A2982 960 84 1600 170/08 RMK AO2
14837KMSN MSN20090618062010906/18/09 06:20:31  5-MIN KMSN 181220Z 17007KT 2 1/2SM BR CLR 18/16 A2982 960 87 1600 160/07 RMK AO2 TWR VIS 3
14837KMSN MSN20090618062510906/18/09 06:25:31  5-MIN KMSN 181225Z 17006KT 2 1/2SM HZ CLR 19/16 A2982 960 81 1700 160/06 RMK AO2 TWR VIS 3
14837KMSN MSN20090618063009506/18/09 06:30:31  5-MIN KMSN 181230Z 16005KT 3SM HZ CLR 19/16 A2982 950 84 1700 160/05 RMK AO2
14837KMSN MSN20090618063509506/18/09 06:35:31  5-MIN KMSN 181235Z 17005KT 3SM HZ CLR 19/16 A2982 960 84 1700 170/05 RMK AO2
14837KMSN MSN20090618064009506/18/09 06:40:31  5-MIN KMSN 181240Z 17006KT 3SM HZ CLR 19/16 A2982 960 84 1700 170/06 RMK AO2
14837KMSN MSN20090618064509506/18/09 06:45:31  5-MIN KMSN 181245Z 16008KT 3SM HZ CLR 19/16 A2982 960 84 1700 160/08 RMK AO2
14837KMSN MSN20090618065011206/18/09 06:50:31  5-MIN KMSN 181250Z 16008KT 3SM HZ CLR 19/16 A2982 960 84 1700 160/08 RMK AO2 SLP093 T01890161
14837KMSN MSN20090618065509506/18/09 06:55:31  5-MIN KMSN 181255Z 15007KT 3SM HZ CLR 19/16 A2982 960 81 1700 150/07 RMK AO2
14837KMSN MSN20090618070009506/18/09 07:00:31  5-MIN KMSN 181300Z 14005KT 3SM HZ CLR 19/16 A2982 950 81 1700 140/05 RMK AO2
14837KMSN MSN20090618070509506/18/09 07:05:31  5-MIN KMSN 181305Z 14006KT 3SM HZ CLR 19/16 A2982 950 81 1700 140/06 RMK AO2
14837KMSN MSN20090618071010806/18/09 07:10:31  5-MIN KMSN 181310Z 14007KT 3SM HZ SCT120 20/16 A2982 950 78 1800 140/07 RMK AO2 SFC VIS 3
14837KMSN MSN20090618071510806/18/09 07:15:31  5-MIN KMSN 181315Z 13005KT 3SM HZ SCT120 20/16 A2982 960 78 1800 130/05 RMK AO2 SFC VIS 3
14837KMSN MSN20090618072010806/18/09 07:20:31  5-MIN KMSN 181320Z 11007KT 3SM HZ SCT120 20/16 A2982 960 78 1800 110/07 RMK AO2 SFC VIS 3
14837KMSN MSN20090618072510806/18/09 07:25:31  5-MIN KMSN 181325Z 12007KT 3SM HZ SCT120 20/16 A2982 960 78 1800 120/07 RMK AO2 SFC VIS 3
14837KMSN MSN20090618073010806/18/09 07:30:31  5-MIN KMSN 181330Z 16007KT 3SM HZ SCT120 20/16 A2982 960 78 1800 150/07 RMK AO2 SFC VIS 3
14837KMSN MSN20090618073510806/18/09 07:35:31  5-MIN KMSN 181335Z 15007KT 3SM HZ SCT120 21/17 A2983 950 78 1900 150/07 RMK AO2 SFC VIS 4
14837KMSN MSN20090618074010806/18/09 07:40:31  5-MIN KMSN 181340Z 15006KT 3SM HZ SCT120 21/17 A2982 950 75 1900 150/06 RMK AO2 SFC VIS 4
14837KMSN MSN20090618074509806/18/09 07:45:31  5-MIN KMSN 181345Z 15006KT 4SM HZ SCT120 21/17 A2982 950 75 1900 140/06 RMK AO2
14837KMSN MSN20090618075011506/18/09 07:50:31  5-MIN KMSN 181350Z 14006KT 4SM HZ SCT120 21/17 A2983 950 75 1900 140/06 RMK AO2 SLP098 T02110167
14837KMSN MSN20090618075509806/18/09 07:55:31  5-MIN KMSN 181355Z 16005KT 4SM HZ FEW120 21/17 A2983 950 75 1900 160/05 RMK AO2
14837KMSN MSN20090618080009806/18/09 08:00:31  5-MIN KMSN 181400Z 17006KT 4SM HZ FEW120 21/17 A2983 950 75 1900 170/06 RMK AO2
14837KMSN MSN20090618080509806/18/09 08:05:31  5-MIN KMSN 181405Z 14007KT 4SM HZ FEW120 22/17 A2982 950 75 2000 140/07 RMK AO2
14837KMSN MSN20090618081009806/18/09 08:10:31  5-MIN KMSN 181410Z 16007KT 4SM HZ FEW120 21/17 A2982 950 75 1900 160/07 RMK AO2
14837KMSN MSN20090618081509806/18/09 08:15:31  5-MIN KMSN 181415Z 17007KT 5SM HZ FEW120 22/17 A2983 950 73 2000 170/07 RMK AO2
14837KMSN MSN20090618082009806/18/09 08:20:31  5-MIN KMSN 181420Z 17007KT 5SM HZ FEW120 22/17 A2983 950 73 2000 170/07 RMK AO2
14837KMSN MSN20090618082509806/18/09 08:25:31  5-MIN KMSN 181425Z 16007KT 5SM HZ FEW120 22/17 A2983 950 75 2000 160/07 RMK AO2
14837KMSN MSN20090618083009806/18/09 08:30:31  5-MIN KMSN 181430Z 17006KT 5SM HZ FEW120 22/17 A2983 950 73 2000 170/06 RMK AO2
14837KMSN MSN20090618083509806/18/09 08:35:31  5-MIN KMSN 181435Z 15007KT 5SM HZ FEW110 22/17 A2982 950 73 2100 150/07 RMK AO2
14837KMSN MSN20090618084009806/18/09 08:40:31  5-MIN KMSN 181440Z 17007KT 5SM HZ FEW110 22/17 A2982 950 73 2100 170/07 RMK AO2
14837KMSN MSN20090618084509806/18/09 08:45:31  5-MIN KMSN 181445Z 19007KT 5SM HZ FEW110 22/17 A2982 950 73 2100 190/07 RMK AO2
14837KMSN MSN20090618085012106/18/09 08:50:31  5-MIN KMSN 181450Z 19008KT 6SM HZ FEW110 22/17 A2982 960 73 2100 190/08 RMK AO2 SLP093 T02220172 55003
14837KMSN MSN20090618085509806/18/09 08:55:31  5-MIN KMSN 181455Z 19009KT 6SM HZ FEW110 23/17 A2982 960 70 2100 190/09 RMK AO2
14837KMSN MSN20090618090009806/18/09 09:00:31  5-MIN KMSN 181500Z 18011KT 6SM HZ FEW110 23/17 A2982 960 70 2100 180/11 RMK AO2
14837KMSN MSN20090618090509806/18/09 09:05:31  5-MIN KMSN 181505Z 20007KT 6SM HZ FEW110 23/17 A2983 950 68 2100 190/07 RMK AO2
14837KMSN MSN20090618091009806/18/09 09:10:31  5-MIN KMSN 181510Z 18008KT 6SM HZ FEW110 23/17 A2983 950 70 2100 180/08 RMK AO2
14837KMSN MSN20090618091509806/18/09 09:15:31  5-MIN KMSN 181515Z 18010KT 6SM HZ FEW110 23/17 A2982 960 70 2100 170/10 RMK AO2
14837KMSN MSN20090618092009806/18/09 09:20:31  5-MIN KMSN 181520Z 18011KT 6SM HZ FEW110 23/17 A2983 950 70 2100 180/11 RMK AO2
14837KMSN MSN20090618092509806/18/09 09:25:31  5-MIN KMSN 181525Z 19007KT 5SM HZ FEW110 23/17 A2983 940 70 2100 190/07 RMK AO2
14837KMSN MSN20090618093009806/18/09 09:30:31  5-MIN KMSN 181530Z 18007KT 5SM HZ FEW110 23/18 A2984 940 70 2200 180/07 RMK AO2
14837KMSN MSN20090618093509806/18/09 09:35:31  5-MIN KMSN 181535Z 19007KT 5SM HZ FEW110 23/17 A2983 940 68 2200 190/07 RMK AO2
14837KMSN MSN20090618094009806/18/09 09:40:31  5-MIN KMSN 181540Z 18006KT 6SM HZ FEW110 23/18 A2983 950 70 2200 180/06 RMK AO2
14837KMSN MSN20090618094509806/18/09 09:45:31  5-MIN KMSN 181545Z 18009KT 6SM HZ FEW110 23/18 A2983 950 70 2200 180/09 RMK AO2
14837KMSN MSN20090618095011206/18/09 09:50:31  5-MIN KMSN 181550Z 19006KT 6SM HZ CLR 23/17 A2984 940 68 2200 190/06 RMK AO2 SLP099 T02330172
14837KMSN MSN20090618095509206/18/09 09:55:31  5-MIN KMSN 181555Z 20009KT 7SM CLR 23/17 A2983 940 68 2200 200/09 RMK AO2
14837KMSN MSN20090618100009206/18/09 10:00:31  5-MIN KMSN 181600Z 19010KT 7SM CLR 24/17 A2984 940 66 2200 190/10 RMK AO2
14837KMSN MSN20090618100509206/18/09 10:05:31  5-MIN KMSN 181605Z 19005KT 7SM CLR 24/17 A2984 940 66 2200 190/05 RMK AO2
14837KMSN MSN20090618101009206/18/09 10:10:31  5-MIN KMSN 181610Z 20006KT 7SM CLR 24/18 A2984 940 68 2200 200/06 RMK AO2
14837KMSN MSN20090618101509206/18/09 10:15:31  5-MIN KMSN 181615Z 22007KT 8SM CLR 24/17 A2985 930 66 2200 210/07 RMK AO2
14837KMSN MSN20090618102009206/18/09 10:20:31  5-MIN KMSN 181620Z 22005KT 8SM CLR 24/18 A2984 930 68 2200 210/05 RMK AO2
14837KMSN MSN20090618102509206/18/09 10:25:31  5-MIN KMSN 181625Z 20007KT 8SM CLR 24/18 A2985 930 66 2300 200/07 RMK AO2
14837KMSN MSN20090618103009206/18/09 10:30:31  5-MIN KMSN 181630Z 21007KT 9SM CLR 24/18 A2986 920 66 2300 210/07 RMK AO2
14837KMSN MSN20090618103509206/18/09 10:35:31  5-MIN KMSN 181635Z 22008KT 9SM CLR 24/18 A2986 920 68 2200 220/08 RMK AO2
14837KMSN MSN20090618104009206/18/09 10:40:31  5-MIN KMSN 181640Z VRB05KT 9SM CLR 24/18 A2986 920 66 2300 VRB/05 RMK AO2
14837KMSN MSN20090618104509206/18/09 10:45:31  5-MIN KMSN 181645Z 22008KT 9SM CLR 24/18 A2987 910 66 2200 220/08 RMK AO2
14837KMSN MSN20090618105011506/18/09 10:50:31  5-MIN KMSN 181650Z 23010G15KT 8SM CLR 24/18 A2988 900 68 2200 230/10G15 RMK AO2 SLP113 T02390178
14837KMSN MSN20090618105510106/18/09 10:55:31  5-MIN KMSN 181655Z 24006G15KT 8SM SCT110 24/18 A2988 900 68 2200 240/06G15 RMK AO2
14837KMSN MSN20090618110010106/18/09 11:00:31  5-MIN KMSN 181700Z 23008G14KT 7SM SCT110 24/18 A2989 900 71 2200 230/08G14 RMK AO2
14837KMSN MSN20090618110511106/18/09 11:05:31  5-MIN KMSN 181705Z 22007KT 200V260 7SM SCT110 24/18 A2989 900 71 2200 220/07 200V260 RMK AO2
14837KMSN MSN20090618111009506/18/09 11:10:31  5-MIN KMSN 181710Z 24007KT 7SM SCT110 24/18 A2989 890 71 2200 240/07 RMK AO2
14837KMSN MSN20090618111510106/18/09 11:15:31  5-MIN KMSN 181715Z 24009G15KT 7SM SCT110 24/18 A2990 890 71 2200 240/09G15 RMK AO2
14837KMSN MSN20090618112009806/18/09 11:20:31  5-MIN KMSN 181720Z 23009KT 6SM HZ FEW120 24/18 A2990 880 71 2200 230/09 RMK AO2
14837KMSN MSN20090618112510406/18/09 11:25:31  5-MIN KMSN 181725Z VRB05G14KT 6SM HZ FEW120 24/18 A2990 890 71 2200 VRB/05G14 RMK AO2
14837KMSN MSN20090618113012006/18/09 11:30:31  5-MIN KMSN 181730Z 23007G14KT 200V260 6SM HZ FEW120 24/19 A2989 890 73 2200 230/07G14 200V260 RMK AO2
14837KMSN MSN20090618113509506/18/09 11:35:31  5-MIN KMSN 181735Z VRB05KT 7SM FEW120 24/19 A2988 900 73 2200 VRB/05 RMK AO2
14837KMSN MSN20090618114010906/18/09 11:40:31  5-MIN KMSN 181740Z 22009KT 7SM SCT029 BKN034 24/19 A2987 910 71 2300 220/09 RMK AO2 PRESFR
14837KMSN MSN20090618114511506/18/09 11:45:31  5-MIN KMSN 181745Z VRB06G14KT 8SM BKN029 BKN034 24/18 A2986 920 71 2200 VRB/06G14 RMK AO2 PRESFR
14837KMSN MSN20090618115015006/18/09 11:50:31  5-MIN KMSN 181750Z 23005G14KT 8SM BKN029 BKN034 24/19 A2985 930 71 2300 220/05G14 RMK AO2 PRESFR SLP103 T02440189 10244 20183 58001
14837KMSN MSN20090618115510206/18/09 11:55:31  5-MIN KMSN 181755Z 19006KT 8SM SCT031 24/19 A2983 950 71 2300 190/06 RMK AO2 PRESFR
14837KMSN MSN20090618120010206/18/09 12:00:31  5-MIN KMSN 181800Z 20008KT 8SM SCT029 24/19 A2981 970 71 2300 200/08 RMK AO2 PRESFR
14837KMSN MSN20090618120510306/18/09 12:05:31  5-MIN KMSN 181805Z 15010KT 9SM FEW029 24/18 A2977 1000 68 2400 150/10 RMK AO2 PRESFR
14837KMSN MSN20090618121010306/18/09 12:10:31  5-MIN KMSN 181810Z 13013KT 9SM FEW029 24/19 A2972 1050 71 2400 120/13 RMK AO2 PRESFR
14837KMSN MSN20090618121511906/18/09 12:15:31  5-MIN KMSN 181815Z 13018KT 8SM -RA SCT120 24/19 A2969 1080 71 2500 130/18 RMK AO2 RAB12 PRESFR P0000
14837KMSN MSN20090618122011206/18/09 12:20:31  5-MIN KMSN 181820Z 12014KT 9SM -RA SCT120 25/19 A2969 1080 68 2500 120/14 RMK AO2 RAB12 P0000
14837KMSN MSN20090618122511806/18/09 12:25:31  5-MIN KMSN 181825Z 08010G19KT 10SM SCT120 25/19 A2970 1070 68 2500 080/10G19 RMK AO2 RAB12E23 P0000
14837KMSN MSN20090618123011206/18/09 12:30:31  5-MIN KMSN 181830Z 09011KT 10SM SCT100 25/19 A2970 1070 68 2500 080/11 RMK AO2 RAB12E23 P0000
14837KMSN MSN20090618123511806/18/09 12:35:31  5-MIN KMSN 181835Z 08013G19KT 10SM SCT100 25/19 A2968 1090 68 2500 080/13G19 RMK AO2 RAB12E23 P0000
14837KMSN MSN20090618124011206/18/09 12:40:31  5-MIN KMSN 181840Z 11014KT 10SM SCT100 25/18 A2967 1100 66 2500 110/14 RMK AO2 RAB12E23 P0000
14837KMSN MSN20090618124512506/18/09 12:45:31  5-MIN KMSN 181845Z 12017G22KT 10SM SCT100 25/19 A2966 1100 68 2600 120/17G22 RMK AO2 RAB12E23 PRESFR P0000
14837KMSN MSN20090618125013506/18/09 12:50:31  5-MIN KMSN 181850Z 13016G23KT 10SM FEW110 25/19 A2967 1100 68 2500 130/16G23 RMK AO2 RAB12E23 SLP041 P0000 T02500189
14837KMSN MSN20090618125510306/18/09 12:55:31  5-MIN KMSN 181855Z 14020G24KT 10SM FEW110 25/18 A2967 1090 66 2500 140/20G24 RMK AO2
14837KMSN MSN20090618130010306/18/09 13:00:31  5-MIN KMSN 181900Z 15020G24KT 10SM FEW110 25/18 A2967 1090 66 2500 150/20G24 RMK AO2
14837KMSN MSN20090618130509706/18/09 13:05:31  5-MIN KMSN 181905Z 15018KT 10SM FEW110 26/18 A2968 1090 64 2600 150/18 RMK AO2
14837KMSN MSN20090618131011006/18/09 13:10:31  5-MIN KMSN 181910Z 16018G25KT 10SM FEW110 26/18 A2970 1070 64 2600 160/18G25 RMK AO2 PRESRR
14837KMSN MSN20090618131510306/18/09 13:15:31  5-MIN KMSN 181915Z 17015G25KT 10SM FEW110 26/18 A2970 1070 64 2600 160/15G25 RMK AO2
14837KMSN MSN20090618132010306/18/09 13:20:31  5-MIN KMSN 181920Z 17018G24KT 10SM FEW110 26/18 A2970 1060 62 2600 170/18G24 RMK AO2
14837KMSN MSN20090618132510306/18/09 13:25:31  5-MIN KMSN 181925Z 17015G24KT 10SM FEW110 26/18 A2971 1060 62 2600 170/15G24 RMK AO2
14837KMSN MSN20090618133010306/18/09 13:30:31  5-MIN KMSN 181930Z 18018G23KT 10SM FEW110 26/18 A2971 1060 62 2600 180/18G23 RMK AO2
14837KMSN MSN20090618133509706/18/09 13:35:31  5-MIN KMSN 181935Z 18016KT 10SM FEW110 26/18 A2971 1060 62 2600 170/16 RMK AO2
14837KMSN MSN20090618134010306/18/09 13:40:31  5-MIN KMSN 181940Z 17020G23KT 10SM FEW110 26/18 A2971 1060 62 2600 170/20G23 RMK AO2
14837KMSN MSN20090618134510306/18/09 13:45:31  5-MIN KMSN 181945Z 17017G23KT 10SM FEW110 26/18 A2971 1060 62 2600 170/17G23 RMK AO2
14837KMSN MSN20090618135012006/18/09 13:50:31  5-MIN KMSN 181950Z 18014G23KT 10SM FEW110 26/18 A2971 1060 62 2600 180/14G23 RMK AO2 SLP056 T02610183
14837KMSN MSN20090618135510006/18/09 13:55:31  5-MIN KMSN 181955Z 19013G21KT 10SM CLR 27/19 A2972 1050 62 2700 190/13G21 RMK AO2
14837KMSN MSN20090618140009406/18/09 14:00:31  5-MIN KMSN 182000Z 18013KT 10SM CLR 26/18 A2972 1050 62 2600 180/13 RMK AO2
14837KMSN MSN20090618140509406/18/09 14:05:31  5-MIN KMSN 182005Z 18012KT 10SM CLR 26/18 A2972 1050 62 2600 180/12 RMK AO2
14837KMSN MSN20090618141009406/18/09 14:10:31  5-MIN KMSN 182010Z 17015KT 10SM CLR 26/18 A2972 1050 62 2600 170/15 RMK AO2
14837KMSN MSN20090618141509406/18/09 14:15:31  5-MIN KMSN 182015Z 17014KT 10SM CLR 26/18 A2973 1040 62 2600 170/14 RMK AO2
14837KMSN MSN20090618142009406/18/09 14:20:31  5-MIN KMSN 182020Z 17012KT 10SM CLR 26/18 A2973 1040 62 2600 170/12 RMK AO2
14837KMSN MSN20090618142509406/18/09 14:25:31  5-MIN KMSN 182025Z 18011KT 10SM CLR 27/18 A2973 1040 60 2700 180/11 RMK AO2
14837KMSN MSN20090618143009406/18/09 14:30:31  5-MIN KMSN 182030Z 17014KT 10SM CLR 27/18 A2973 1040 60 2700 170/14 RMK AO2
14837KMSN MSN20090618143510006/18/09 14:35:31  5-MIN KMSN 182035Z 17015G19KT 10SM CLR 27/18 A2974 1040 60 2700 170/15G19 RMK AO2
14837KMSN MSN20090618144010306/18/09 14:40:31  5-MIN KMSN 182040Z 17012G19KT 10SM FEW032 27/18 A2974 1040 60 2700 170/12G19 RMK AO2
14837KMSN MSN20090618144509706/18/09 14:45:31  5-MIN KMSN 182045Z 17010KT 10SM FEW032 27/19 A2973 1040 62 2700 160/10 RMK AO2
14837KMSN MSN20090618145012606/18/09 14:50:31  5-MIN KMSN 182050Z 17010KT 10SM FEW032 27/19 A2974 1030 62 2600 160/10 RMK AO2 SLP065 60000 T02670189 50007
14837KMSN MSN20090618145509706/18/09 14:55:31  5-MIN KMSN 182055Z 19010KT 10SM FEW032 27/19 A2974 1030 62 2600 180/10 RMK AO2
14837KMSN MSN20090618150010306/18/09 15:00:31  5-MIN KMSN 182100Z 18010G15KT 10SM FEW032 27/19 A2975 1030 62 2600 180/10G15 RMK AO2
14837KMSN MSN20090618150509706/18/09 15:05:31  5-MIN KMSN 182105Z 16009KT 10SM FEW032 27/18 A2974 1030 60 2600 160/09 RMK AO2
14837KMSN MSN20090618151009706/18/09 15:10:31  5-MIN KMSN 182110Z 18009KT 10SM FEW032 27/18 A2975 1020 60 2600 180/09 RMK AO2
14837KMSN MSN20090618151509706/18/09 15:15:31  5-MIN KMSN 182115Z 16012KT 10SM FEW032 27/19 A2975 1030 62 2600 160/12 RMK AO2
14837KMSN MSN20090618152009706/18/09 15:20:31  5-MIN KMSN 182120Z 16010KT 10SM FEW032 27/19 A2974 1030 62 2600 160/10 RMK AO2
14837KMSN MSN20090618152509706/18/09 15:25:31  5-MIN KMSN 182125Z 16008KT 10SM FEW032 27/19 A2975 1030 62 2600 160/08 RMK AO2
14837KMSN MSN20090618153009706/18/09 15:30:31  5-MIN KMSN 182130Z 17007KT 10SM FEW032 27/19 A2975 1030 62 2600 170/07 RMK AO2
14837KMSN MSN20090618153510306/18/09 15:35:31  5-MIN KMSN 182135Z 16008G14KT 10SM FEW032 27/19 A2974 1030 60 2700 160/08G14 RMK AO2
14837KMSN MSN20090618154009706/18/09 15:40:31  5-MIN KMSN 182140Z 16011KT 10SM FEW032 27/18 A2974 1030 60 2600 160/11 RMK AO2
14837KMSN MSN20090618154509706/18/09 15:45:31  5-MIN KMSN 182145Z 19008KT 10SM FEW032 27/18 A2975 1030 60 2600 190/08 RMK AO2
14837KMSN MSN20090618155011406/18/09 15:50:31  5-MIN KMSN 182150Z 16011KT 10SM FEW032 27/18 A2975 1030 60 2600 160/11 RMK AO2 SLP068 T02670183
14837KMSN MSN20090618155509406/18/09 15:55:31  5-MIN KMSN 182155Z 19008KT 10SM CLR 27/18 A2975 1030 58 2700 190/08 RMK AO2
14837KMSN MSN20090618160009406/18/09 16:00:31  5-MIN KMSN 182200Z 17008KT 10SM CLR 27/19 A2975 1020 60 2700 160/08 RMK AO2
14837KMSN MSN20090618160509406/18/09 16:05:31  5-MIN KMSN 182205Z 19008KT 10SM CLR 27/18 A2975 1020 58 2700 190/08 RMK AO2
14837KMSN MSN20090618161009406/18/09 16:10:31  5-MIN KMSN 182210Z 20007KT 10SM CLR 27/18 A2975 1030 58 2700 200/07 RMK AO2
14837KMSN MSN20090618161509406/18/09 16:15:31  5-MIN KMSN 182215Z 18008KT 10SM CLR 27/18 A2975 1020 58 2700 180/08 RMK AO2
14837KMSN MSN20090618162009406/18/09 16:20:31  5-MIN KMSN 182220Z 17012KT 10SM CLR 27/18 A2974 1030 58 2700 170/12 RMK AO2
14837KMSN MSN20090618162509406/18/09 16:25:31  5-MIN KMSN 182225Z 18010KT 10SM CLR 27/18 A2975 1030 58 2700 180/10 RMK AO2
14837KMSN MSN20090618163009406/18/09 16:30:31  5-MIN KMSN 182230Z 17010KT 10SM CLR 27/18 A2974 1030 58 2700 170/10 RMK AO2
14837KMSN MSN20090618163509406/18/09 16:35:31  5-MIN KMSN 182235Z 18009KT 10SM CLR 27/18 A2975 1030 58 2700 180/09 RMK AO2
14837KMSN MSN20090618164009406/18/09 16:40:31  5-MIN KMSN 182240Z 20008KT 10SM CLR 27/18 A2974 1030 58 2700 200/08 RMK AO2
14837KMSN MSN20090618164509406/18/09 16:45:31  5-MIN KMSN 182245Z 18010KT 10SM CLR 27/18 A2974 1030 58 2700 180/10 RMK AO2
14837KMSN MSN20090618165011406/18/09 16:50:31  5-MIN KMSN 182250Z 20008KT 10SM FEW035 27/18 A2973 1040 60 2700 200/08 RMK AO2 SLP063 T02670183
14837KMSN MSN20090618165509406/18/09 16:55:31  5-MIN KMSN 182255Z 18008KT 10SM CLR 27/18 A2973 1040 60 2700 180/08 RMK AO2
14837KMSN MSN20090618170009406/18/09 17:00:31  5-MIN KMSN 182300Z 19008KT 10SM CLR 27/18 A2973 1040 60 2700 190/08 RMK AO2
14837KMSN MSN20090618170509406/18/09 17:05:31  5-MIN KMSN 182305Z 18006KT 10SM CLR 27/18 A2973 1040 60 2700 180/06 RMK AO2
14837KMSN MSN20090618171009406/18/09 17:10:31  5-MIN KMSN 182310Z 20007KT 10SM CLR 27/18 A2972 1050 60 2700 190/07 RMK AO2
14837KMSN MSN20090618171509406/18/09 17:15:31  5-MIN KMSN 182315Z 18008KT 10SM CLR 27/18 A2973 1050 60 2700 180/08 RMK AO2
14837KMSN MSN20090618172009406/18/09 17:20:31  5-MIN KMSN 182320Z 16010KT 10SM CLR 27/18 A2973 1040 60 2700 160/10 RMK AO2
14837KMSN MSN20090618172509406/18/09 17:25:31  5-MIN KMSN 182325Z 19009KT 10SM CLR 27/18 A2973 1040 60 2700 190/09 RMK AO2
14837KMSN MSN20090618173009406/18/09 17:30:31  5-MIN KMSN 182330Z 18009KT 10SM CLR 27/19 A2973 1040 62 2700 170/09 RMK AO2
14837KMSN MSN20090618173509406/18/09 17:35:31  5-MIN KMSN 182335Z 18010KT 10SM CLR 27/19 A2973 1040 62 2700 170/10 RMK AO2
14837KMSN MSN20090618174009406/18/09 17:40:31  5-MIN KMSN 182340Z 18010KT 10SM CLR 27/19 A2973 1040 62 2700 180/10 RMK AO2
14837KMSN MSN20090618174509406/18/09 17:45:31  5-MIN KMSN 182345Z 18009KT 10SM CLR 27/19 A2973 1040 62 2700 180/09 RMK AO2
14837KMSN MSN20090618175013806/18/09 17:50:31  5-MIN KMSN 182350Z 18008KT 10SM FEW040 26/19 A2973 1040 64 2600 180/08 RMK AO2 SLP063 60000 T02610189 10272 20244 55033
14837KMSN MSN20090618175509406/18/09 17:55:31  5-MIN KMSN 182355Z 17008KT 10SM CLR 27/19 A2973 1040 62 2700 170/08 RMK AO2
14837KMSN MSN20090618180009406/18/09 18:00:31  5-MIN KMSN 190000Z 17010KT 10SM CLR 26/18 A2973 1040 62 2600 170/10 RMK AO2
14837KMSN MSN20090618180509706/18/09 18:05:31  5-MIN KMSN 190005Z 17010KT 10SM FEW040 26/18 A2973 1040 62 2600 170/10 RMK AO2
14837KMSN MSN20090618181009706/18/09 18:10:31  5-MIN KMSN 190010Z 19009KT 10SM FEW040 26/19 A2973 1040 64 2600 190/09 RMK AO2
14837KMSN MSN20090618181509706/18/09 18:15:31  5-MIN KMSN 190015Z 18008KT 10SM BKN040 26/19 A2973 1040 64 2600 180/08 RMK AO2
14837KMSN MSN20090618182009706/18/09 18:20:31  5-MIN KMSN 190020Z 18007KT 10SM BKN038 26/19 A2973 1040 64 2600 180/07 RMK AO2
14837KMSN MSN20090618182509706/18/09 18:25:31  5-MIN KMSN 190025Z 17009KT 10SM BKN040 26/19 A2973 1040 64 2600 170/09 RMK AO2
14837KMSN MSN20090618183009706/18/09 18:30:31  5-MIN KMSN 190030Z 17008KT 10SM BKN042 26/19 A2973 1040 64 2600 170/08 RMK AO2
14837KMSN MSN20090618183510406/18/09 18:35:31  5-MIN KMSN 190035Z 18008KT 10SM BKN040 BKN047 26/19 A2973 1040 64 2600 180/08 RMK AO2
14837KMSN MSN20090618184009706/18/09 18:40:31  5-MIN KMSN 190040Z 18007KT 10SM SCT042 26/19 A2973 1040 66 2500 180/07 RMK AO2
14837KMSN MSN20090618184509706/18/09 18:45:31  5-MIN KMSN 190045Z 18008KT 10SM SCT042 26/19 A2973 1040 66 2500 180/08 RMK AO2
14837KMSN MSN20090618185011406/18/09 18:50:31  5-MIN KMSN 190050Z 18007KT 10SM FEW042 26/19 A2973 1040 66 2500 180/07 RMK AO2 SLP063 T02560189
14837KMSN MSN20090618185509406/18/09 18:55:31  5-MIN KMSN 190055Z 18007KT 10SM CLR 26/19 A2973 1040 66 2500 170/07 RMK AO2
14837KMSN MSN20090618190009406/18/09 19:00:31  5-MIN KMSN 190100Z 17008KT 10SM CLR 26/19 A2972 1050 66 2500 170/08 RMK AO2
14837KMSN MSN20090618190509706/18/09 19:05:31  5-MIN KMSN 190105Z 17008KT 10SM FEW055 25/19 A2972 1050 68 2500 170/08 RMK AO2
14837KMSN MSN20090618191009706/18/09 19:10:31  5-MIN KMSN 190110Z 17008KT 10SM FEW055 26/19 A2972 1050 66 2500 170/08 RMK AO2
14837KMSN MSN20090618191509706/18/09 19:15:31  5-MIN KMSN 190115Z 17009KT 10SM FEW060 26/19 A2972 1050 66 2500 170/09 RMK AO2
14837KMSN MSN20090618192009706/18/09 19:20:31  5-MIN KMSN 190120Z 17008KT 10SM SCT065 26/19 A2972 1050 66 2500 170/08 RMK AO2
14837KMSN MSN20090618192509706/18/09 19:25:31  5-MIN KMSN 190125Z 16008KT 10SM SCT065 26/19 A2972 1050 66 2500 160/08 RMK AO2
14837KMSN MSN20090618193009706/18/09 19:30:31  5-MIN KMSN 190130Z 17009KT 10SM BKN065 26/19 A2972 1050 66 2500 170/09 RMK AO2
14837KMSN MSN20090618193509706/18/09 19:35:31  5-MIN KMSN 190135Z 16007KT 10SM BKN070 26/19 A2972 1050 66 2500 160/07 RMK AO2
14837KMSN MSN20090618194009706/18/09 19:40:31  5-MIN KMSN 190140Z 17008KT 10SM BKN070 26/19 A2972 1050 66 2500 170/08 RMK AO2
14837KMSN MSN20090618194509706/18/09 19:45:31  5-MIN KMSN 190145Z 17008KT 10SM BKN070 25/19 A2972 1050 68 2500 170/08 RMK AO2
14837KMSN MSN20090618195011406/18/09 19:50:31  5-MIN KMSN 190150Z 16009KT 10SM BKN075 25/19 A2972 1050 68 2500 160/09 RMK AO2 SLP058 T02500189
14837KMSN MSN20090618195509706/18/09 19:55:31  5-MIN KMSN 190155Z 16007KT 10SM OVC075 25/19 A2972 1050 68 2500 160/07 RMK AO2
14837KMSN MSN20090618200009706/18/09 20:00:31  5-MIN KMSN 190200Z 16008KT 10SM OVC080 25/19 A2972 1050 68 2500 160/08 RMK AO2
14837KMSN MSN20090618200509706/18/09 20:05:31  5-MIN KMSN 190205Z 16008KT 10SM BKN080 25/19 A2971 1050 68 2500 150/08 RMK AO2
14837KMSN MSN20090618201010406/18/09 20:10:31  5-MIN KMSN 190210Z 16007KT 10SM FEW070 BKN080 25/19 A2971 1060 68 2500 160/07 RMK AO2
14837KMSN MSN20090618201511106/18/09 20:15:31  5-MIN KMSN 190215Z 15008KT 10SM FEW050 SCT065 BKN080 25/19 A2971 1060 68 2500 150/08 RMK AO2
14837KMSN MSN20090618202011106/18/09 20:20:31  5-MIN KMSN 190220Z 15009KT 10SM FEW047 BKN060 BKN080 25/19 A2971 1060 68 2500 150/09 RMK AO2
14837KMSN MSN20090618202511106/18/09 20:25:31  5-MIN KMSN 190225Z 14008KT 10SM SCT045 BKN060 BKN080 25/19 A2971 1060 68 2500 140/08 RMK AO2
14837KMSN MSN20090618203011106/18/09 20:30:31  5-MIN KMSN 190230Z 14008KT 10SM BKN045 BKN060 OVC080 25/19 A2971 1060 68 2500 140/08 RMK AO2
14837KMSN MSN20090618203511106/18/09 20:35:31  5-MIN KMSN 190235Z 14009KT 10SM FEW042 BKN050 OVC080 25/19 A2970 1060 68 2500 140/09 RMK AO2
14837KMSN MSN20090618204011106/18/09 20:40:31  5-MIN KMSN 190240Z 15008KT 10SM SCT039 BKN048 OVC080 25/19 A2970 1060 71 2500 150/08 RMK AO2
14837KMSN MSN20090618204511106/18/09 20:45:31  5-MIN KMSN 190245Z 14007KT 10SM BKN039 BKN048 OVC075 25/19 A2971 1060 71 2500 140/07 RMK AO2
14837KMSN MSN20090618205013406/18/09 20:50:31  5-MIN KMSN 190250Z 14008KT 10SM BKN037 BKN048 BKN075 24/19 A2971 1060 73 2400 140/08 RMK AO2 SLP054 T02440194 58003
14837KMSN MSN20090618205511106/18/09 20:55:31  5-MIN KMSN 190255Z 16010KT 10SM BKN037 BKN048 OVC075 24/19 A2971 1060 73 2400 150/10 RMK AO2
14837KMSN MSN20090618210010406/18/09 21:00:31  5-MIN KMSN 190300Z 16012KT 10SM BKN035 OVC075 25/19 A2970 1070 71 2500 160/12 RMK AO2
14837KMSN MSN20090618210509706/18/09 21:05:31  5-MIN KMSN 190305Z 15009KT 10SM OVC035 24/19 A2970 1070 73 2400 150/09 RMK AO2
14837KMSN MSN20090618211009706/18/09 21:10:31  5-MIN KMSN 190310Z 15011KT 10SM OVC035 24/19 A2969 1080 73 2500 150/11 RMK AO2
14837KMSN MSN20090618211509706/18/09 21:15:31  5-MIN KMSN 190315Z 15009KT 10SM OVC033 24/19 A2970 1070 73 2400 150/09 RMK AO2
14837KMSN MSN20090618212009706/18/09 21:20:31  5-MIN KMSN 190320Z 16009KT 10SM OVC033 24/19 A2969 1080 73 2500 160/09 RMK AO2
14837KMSN MSN20090618212509706/18/09 21:25:31  5-MIN KMSN 190325Z 13009KT 10SM OVC033 24/20 A2968 1090 76 2500 130/09 RMK AO2
14837KMSN MSN20090618213009706/18/09 21:30:31  5-MIN KMSN 190330Z 15007KT 10SM OVC033 24/19 A2968 1090 73 2500 150/07 RMK AO2
14837KMSN MSN20090618213513706/18/09 21:35:31  5-MIN KMSN 190335Z 15009KT 10SM TS OVC031 24/19 A2967 1090 73 2500 150/09 RMK AO2 TSB34 OCNL LTGIC VC S TS VC S MOV NE
14837KMSN MSN20090618214015006/18/09 21:40:31  5-MIN KMSN 190340Z 15011KT 9SM TS BKN031 OVC075 24/20 A2966 1100 76 2500 140/11 RMK AO2 TSB34 PRESFR OCNL LTGIC VC S TS VC S MOV NE
14837KMSN MSN20090618214516406/18/09 21:45:31  5-MIN KMSN 190345Z 17011KT 9SM -TSRA FEW021 BKN031 OVC075 24/20 A2966 1110 76 2500 160/11 RMK AO2 TSB34RAB45 OCNL LTGIC VC S TS VC S MOV NE P0000
14837KMSN MSN20090618215018006/18/09 21:50:31  5-MIN KMSN 190350Z 16011KT 8SM -TSRA FEW021 BKN031 BKN035 23/21 A2966 1110 84 2400 160/11 RMK AO2 TSB34RAB45 SLP038 FRQ LTGIC VC E TS VC E MOV NE P0000 T02330206
14837KMSN MSN20090618215515206/18/09 21:55:31  5-MIN KMSN 190355Z 16012KT 7SM -TSRA FEW021 BKN029 BKN035 23/21 A2965 1110 84 2400 160/12 RMK AO2 FRQ LTGIC VC E TS VC E MOV NE P0000
14837KMSN MSN20090618220016006/18/09 22:00:31  5-MIN KMSN 190400Z 17009KT 7SM -TSRA FEW023 BKN029 BKN035 23/21 A2966 1110 84 2400 170/09 RMK AO2 FRQ LTGICCA VC NE-E TS VC NE-E MOV NE P0000
14837KMSN MSN20090618220515506/18/09 22:05:31  5-MIN KMSN 190405Z 15011KT 6SM -TSRA BR FEW023 BKN029 BKN037 23/21 A2965 1120 87 2400 150/11 RMK AO2 FRQ LTGICCA OHD TS OHD MOV NE P0000
14837KMSN MSN20090618221015506/18/09 22:10:31  5-MIN KMSN 190410Z 16011KT 5SM -TSRA BR FEW023 BKN029 OVC055 23/21 A2964 1120 87 2400 160/11 RMK AO2 FRQ LTGICCA OHD TS OHD MOV NE P0001
14837KMSN MSN20090618221516106/18/09 22:15:31  5-MIN KMSN 190415Z 15009G17KT 4SM -TSRA BR BKN029 BKN036 BKN055 23/21 A2964 1130 87 2400 150/09G17 RMK AO2 FRQ LTGICCA OHD TS OHD MOV NE P0001
14837KMSN MSN20090618222015406/18/09 22:20:31  5-MIN KMSN 190420Z 16009KT 4SM TSRA BR SCT024 BKN029 OVC047 23/21 A2965 1120 87 2400 160/09 RMK AO2 FRQ LTGICCA OHD TS OHD MOV NE P0003
14837KMSN MSN20090618222515306/18/09 22:25:31  5-MIN KMSN 190425Z 16009KT 4SM TSRA BR BKN022 BKN029 OVC041 23/21 A2963 1140 87 2400 160/09 RMK AO2 FRQ LTGICCA OHD TS OHD MOV E P0007
14837KMSN MSN20090618223015306/18/09 22:30:31  5-MIN KMSN 190430Z 14006KT 4SM TSRA BR BKN022 BKN029 OVC041 23/21 A2963 1140 90 2300 140/06 RMK AO2 FRQ LTGICCA OHD TS OHD MOV E P0009
14837KMSN MSN20090618223514706/18/09 22:35:31  5-MIN KMSN 190435Z 16004KT 5SM -TSRA BR BKN024 OVC032 23/21 A2965 1120 90 2300 160/04 RMK AO2 FRQ LTGICCA OHD TS OHD MOV E P0009
14837KMSN MSN20090618224014806/18/09 22:40:31  5-MIN KMSN 190440Z 12005KT 6SM -TSRA BR BKN022 OVC030 23/21 A2963 1130 90 2300 120/05 RMK AO2 CONS LTGICCA OHD TS OHD MOV E P0009
14837KMSN MSN20090618224515406/18/09 22:45:31  5-MIN KMSN 190445Z 36009G18KT 6SM -TSRA BR OVC020 23/21 A2967 1100 90 2300 360/09G18 RMK AO2 PRESRR CONS LTGICCA OHD TS OHD MOV E P0009
14837KMSN MSN20090618225021406/18/09 22:50:31  5-MIN KMSN 190450Z 35023G34KT 310V010 4SM +TSRA BR BKN020 OVC026 22/20 A2969 1080 87 2200 350/23G34 310V010 RMK AO2 PK WND 36034/0449 PRESRR SLP049 CONS LTGCGICCA OHD TS OHD MOV E P0010 T02220200
14837KMSN MSN20090618225517006/18/09 22:55:31  5-MIN KMSN 190455Z 36013G34KT 1SM +TSRA BR FEW010 BKN018 OVC026 21/19 A2971 1060 90 2000 360/13G34 RMK AO2 PRESRR CONS LTGCGICCA OHD TS OHD MOV E P0005
14837KMSN MSN20090618230017606/18/09 23:00:31  5-MIN KMSN 190500Z 04012G25KT 1/2SM +TSRA FG SCT001 BKN018 OVC026 19/19 A2970 1070 97 1900 030/12G25 RMK AO2 WSHFT 0446 CONS LTGCGICCA OHD TS OHD MOV E P0045
14837KMSN MSN20090618230517606/18/09 23:05:31  5-MIN KMSN 190505Z 35014G21KT 1/2SM +TSRA FG SCT001 BKN010 OVC020 19/19 A2970 1070 97 1900 340/14G21 RMK AO2 WSHFT 0446 CONS LTGCGICCA OHD TS OHD MOV E P0071
14837KMSN MSN20090618231017606/18/09 23:10:31  5-MIN KMSN 190510Z VRB04G21KT 1/2SM +TSRA FG SCT001 BKN005 OVC023 19/19 A2970 1060 97 1900 VRB/04G21 RMK AO2 WSHFT 0446 CONS LTGCGICCA OHD TS OHD MOV E P0089
14837KMSN MSN20090618231517006/18/09 23:15:31  5-MIN KMSN 190515Z VRB04KT 1/2SM +TSRA FG SCT001 BKN005 OVC015 19/19 A2971 1060 97 1900 VRB/04 RMK AO2 WSHFT 0446 CONS LTGCGICCA OHD TS OHD MOV E P0118
14837KMSN MSN20090618232016406/18/09 23:20:31  5-MIN KMSN 190520Z 10011KT 1/2SM +TSRA FG BKN001 OVC005 19/19 A2968 1090 100 1900 100/11 RMK AO2 WSHFT 0446 CONS LTGCGICCA OHD TS OHD MOV E P0154
14837KMSN MSN20090618232515506/18/09 23:25:31  5-MIN KMSN 190525Z 06008KT 1/2SM +TSRA FG VV004 20/19 A2968 1090 97 2000 060/08 RMK AO2 WSHFT 0446 CONS LTGCGICCA OHD TS OHD MOV E P0168
14837KMSN MSN20090618233015806/18/09 23:30:31  5-MIN KMSN 190530Z 27008KT 1 1/4SM +TSRA BR OVC006 20/19 A2973 1040 97 1900 270/08 RMK AO2 WSHFT 0446 CONS LTGCGICCA OHD TS OHD MOV E P0178
14837KMSN MSN20090618233515306/18/09 23:35:31  5-MIN KMSN 190535Z VRB03KT 1SM +TSRA BR VV006 20/19 A2968 1090 97 2000 VRB/03 RMK AO2 WSHFT 0446 CONS LTGCGICCA OHD TS OHD MOV E P0188
14837KMSN MSN20090618234015306/18/09 23:40:31  5-MIN KMSN 190540Z VRB03KT 1SM +TSRA BR VV006 20/19 A2967 1090 97 2000 VRB/03 RMK AO2 WSHFT 0446 CONS LTGCGICCA OHD TS OHD MOV E P0198
14837KMSN MSN20090618234515806/18/09 23:45:31  5-MIN KMSN 190545Z 14008KT 1 3/4SM +TSRA BR BKN007 20/19 A2966 1110 97 2000 140/08 RMK AO2 WSHFT 0446 CONS LTGCGICCA OHD TS OHD MOV E P0201
14837KMSN MSN20090618235020306/18/09 23:50:31  5-MIN KMSN 190550Z 00000KT 5SM -TSRA BR BKN009 20/19 A2966 1100 97 2000 000/00 RMK AO2 WSHFT 0446 SLP040 CONS LTGICCA OHD TS OHD MOV E P0201 60214 T02000194 10267 20194 402720178 58008
14837KMSN MSN20090618235514106/18/09 23:55:31  5-MIN KMSN 190555Z 23005KT 10SM TS BKN029 20/19 A2969 1080 97 2000 220/05 RMK AO2 RAE55 FRQ LTGICCA OHD TS OHD MOV E P0000
14837KMSN MSN20090619000013906/19/09 00:00:32  5-MIN KMSN 190600Z 00000KT 9SM -TSRA BKN038 20/19 A2968 1090 97 2000 000/00 RMK AO2 FRQ LTGICCA OHD TS OHD MOV E P0000 $
14837KMSN MSN20090619000513906/19/09 00:05:31  5-MIN KMSN 190605Z 36003KT 7SM -TSRA BKN040 20/19 A2968 1090 97 2000 360/03 RMK AO2 FRQ LTGICCA OHD TS OHD MOV E P0001 $
14837KMSN MSN20090619001014206/19/09 00:10:31  5-MIN KMSN 190610Z 00000KT 5SM -TSRA BR BKN041 20/19 A2967 1090 97 2000 000/00 RMK AO2 FRQ LTGICCA OHD TS OHD MOV E P0001 $
14837KMSN MSN20090619001514906/19/09 00:15:31  5-MIN KMSN 190615Z 11004KT 6SM -TSRA BR BKN047 20/19 A2966 1110 97 2000 110/04 RMK AO2 PRESFR FRQ LTGICCA OHD TS OHD MOV E P0002 $
14837KMSN MSN20090619002013906/19/09 00:20:31  5-MIN KMSN 190620Z 19003KT 8SM -TSRA BKN049 20/19 A2967 1090 97 2000 190/03 RMK AO2 FRQ LTGICCA OHD TS OHD MOV E P0002 $
14837KMSN MSN20090619002514406/19/09 00:25:31  5-MIN KMSN 190625Z 17003KT 8SM -TSRA BKN047 BKN070 20/19 A2965 1110 97 2000 170/03 RMK AO2 FRQ LTGICCA OHD TS OHD MOV E P0002
14837KMSN MSN20090619003014406/19/09 00:30:31  5-MIN KMSN 190630Z 21004KT 9SM -TSRA SCT043 BKN070 21/19 A2967 1090 93 2000 210/04 RMK AO2 FRQ LTGICCA OHD TS OHD MOV E P0002
14837KMSN MSN20090619003513806/19/09 00:35:31  5-MIN KMSN 190635Z 19009KT 10SM -TSRA SCT050 21/19 A2968 1090 93 2000 190/09 RMK AO2 FRQ LTGICCA OHD TS OHD MOV E P0002
14837KMSN MSN20090619004013806/19/09 00:40:31  5-MIN KMSN 190640Z 19009KT 10SM -TSRA SCT070 21/19 A2966 1100 93 2000 190/09 RMK AO2 FRQ LTGICCA OHD TS OHD MOV E P0002
14837KMSN MSN20090619004513806/19/09 00:45:31  5-MIN KMSN 190645Z VRB05KT 10SM -TSRA SCT060 21/19 A2967 1100 93 2000 VRB/05 RMK AO2 FRQ LTGICCA OHD TS OHD MOV E P0002
14837KMSN MSN20090619005015506/19/09 00:50:31  5-MIN KMSN 190650Z 19009KT 10SM -TSRA FEW060 21/19 A2967 1100 93 2000 190/09 RMK AO2 SLP041 FRQ LTGICCA OHD TS OHD MOV E P0002 T02060194
14837KMSN MSN20090619005513206/19/09 00:55:31  5-MIN KMSN 190655Z 17007KT 10SM TS FEW080 21/19 A2966 1110 93 2000 170/07 RMK AO2 FRQ LTGICCA VC S TS VC S MOV SE
14837KMSN MSN20090619010013706/19/09 01:00:31  5-MIN KMSN 190700Z 16006KT 10SM TS SCT075 21/19 A2964 1120 93 2100 160/06 RMK AO2 PRESFR FRQ LTGICCA OHD TS OHD MOV SE
14837KMSN MSN20090619010513006/19/09 01:05:31  5-MIN KMSN 190705Z 17009KT 10SM TS SCT080 21/19 A2964 1120 93 2100 170/09 RMK AO2 FRQ LTGICCA OHD TS OHD MOV SE
14837KMSN MSN20090619011013706/19/09 01:10:31  5-MIN KMSN 190710Z 17008KT 10SM TS SCT085 21/19 A2963 1130 93 2100 170/08 RMK AO2 PRESFR FRQ LTGICCA OHD TS OHD MOV SE
14837KMSN MSN20090619011513006/19/09 01:15:31  5-MIN KMSN 190715Z 17007KT 10SM TS SCT090 21/19 A2963 1140 93 2100 170/07 RMK AO2 FRQ LTGICCA OHD TS OHD MOV SE
14837KMSN MSN20090619012013006/19/09 01:20:31  5-MIN KMSN 190720Z 18009KT 10SM TS FEW090 21/19 A2964 1120 93 2100 180/09 RMK AO2 FRQ LTGICCA OHD TS OHD MOV SE
14837KMSN MSN20090619012513006/19/09 01:25:31  5-MIN KMSN 190725Z 20007KT 10SM TS FEW090 21/19 A2966 1110 93 2000 200/07 RMK AO2 FRQ LTGICCA OHD TS OHD MOV SE
14837KMSN MSN20090619013013006/19/09 01:30:31  5-MIN KMSN 190730Z 19007KT 10SM TS FEW100 21/19 A2966 1110 93 2100 190/07 RMK AO2 FRQ LTGICCA OHD TS OHD MOV SE
14837KMSN MSN20090619013513006/19/09 01:35:31  5-MIN KMSN 190735Z 19007KT 10SM TS FEW100 21/19 A2964 1120 93 2100 190/07 RMK AO2 FRQ LTGICCA OHD TS OHD MOV SE
14837KMSN MSN20090619014013006/19/09 01:40:31  5-MIN KMSN 190740Z 19006KT 10SM TS FEW110 21/19 A2965 1120 93 2100 190/06 RMK AO2 FRQ LTGICCA OHD TS OHD MOV SE
14837KMSN MSN20090619014513006/19/09 01:45:31  5-MIN KMSN 190745Z 18007KT 10SM TS FEW007 21/19 A2964 1120 93 2100 170/07 RMK AO2 FRQ LTGICCA OHD TS OHD MOV SE
14837KMSN MSN20090619015014706/19/09 01:50:31  5-MIN KMSN 190750Z 16007KT 10SM TS FEW007 21/19 A2963 1130 93 2100 160/07 RMK AO2 SLP028 FRQ LTGICCA OHD TS OHD MOV SE T02060194
14837KMSN MSN20090619015514106/19/09 01:55:31  5-MIN KMSN 190755Z 17005KT 10SM TS FEW007 SCT095 21/19 A2964 1130 93 2100 170/05 RMK AO2 FRQ LTGICCA VC W TS VC W MOV E-SE
14837KMSN MSN20090619020013406/19/09 02:00:31  5-MIN KMSN 190800Z 18006KT 10SM TS SCT095 21/19 A2964 1120 93 2100 180/06 RMK AO2 FRQ LTGICCA VC W TS VC W MOV E-SE
14837KMSN MSN20090619020513406/19/09 02:05:31  5-MIN KMSN 190805Z 18007KT 10SM TS SCT095 21/19 A2963 1130 93 2100 180/07 RMK AO2 FRQ LTGICCA VC W TS VC W MOV E-SE
14837KMSN MSN20090619021013406/19/09 02:10:31  5-MIN KMSN 190810Z 16005KT 10SM TS SCT085 21/19 A2964 1120 93 2100 160/05 RMK AO2 FRQ LTGICCA VC W TS VC W MOV E-SE
14837KMSN MSN20090619021514906/19/09 02:15:31  5-MIN KMSN 190815Z 18005KT 10SM -TSRA SCT080 21/19 A2965 1120 93 2100 180/05 RMK AO2 RAB13 FRQ LTGICCA VC W TS VC W MOV E-SE P0000
14837KMSN MSN20090619022014906/19/09 02:20:31  5-MIN KMSN 190820Z 20004KT 10SM -TSRA SCT085 21/19 A2965 1120 93 2100 200/04 RMK AO2 RAB13 FRQ LTGICCA VC W TS VC W MOV E-SE P0000
14837KMSN MSN20090619022514906/19/09 02:25:31  5-MIN KMSN 190825Z 00000KT 10SM TS SCT085 21/19 A2965 1110 93 2100 000/00 RMK AO2 RAB13E23 FRQ LTGICCA VC W TS VC W MOV E-SE P0000
14837KMSN MSN20090619023014906/19/09 02:30:31  5-MIN KMSN 190830Z 18004KT 10SM TS FEW085 21/19 A2965 1120 93 2100 180/04 RMK AO2 RAB13E23 FRQ LTGICCA VC W TS VC W MOV E-SE P0000
14837KMSN MSN20090619023514906/19/09 02:35:31  5-MIN KMSN 190835Z 19004KT 10SM TS FEW085 21/19 A2965 1110 93 2100 190/04 RMK AO2 RAB13E23 FRQ LTGICCA VC W TS VC W MOV E-SE P0000
14837KMSN MSN20090619024015606/19/09 02:40:31  5-MIN KMSN 190840Z 18005KT 10SM TS FEW065 SCT080 21/19 A2965 1120 93 2100 180/05 RMK AO2 RAB13E23 FRQ LTGICCA VC W TS VC W MOV E-SE P0000
14837KMSN MSN20090619024514906/19/09 02:45:31  5-MIN KMSN 190845Z 00000KT 10SM TS BKN070 21/19 A2965 1110 93 2100 000/00 RMK AO2 RAB13E23 FRQ LTGICCA VC W TS VC W MOV E-SE P0000
14837KMSN MSN20090619025018706/19/09 02:50:31  5-MIN KMSN 190850Z 28004KT 10SM -TSRA BKN070 21/19 A2969 1080 93 2000 280/04 RMK AO2 RAB13E23B46 PRESRR SLP047 FRQ LTGICCA OHD TS OHD MOV SE P0000 60002 T02060194 56008
14837KMSN MSN20090619025516106/19/09 02:55:31  5-MIN KMSN 190855Z 19007KT 140V210 7SM -TSRA FEW021 BKN065 21/19 A2966 1110 93 2000 180/07 140V210 RMK AO2 FRQ LTGICCA OHD TS OHD MOV SE P0000
14837KMSN MSN20090619030016006/19/09 03:00:31  5-MIN KMSN 190900Z 22009G16KT 5SM TSRA BR FEW019 BKN050 OVC065 21/19 A2964 1120 90 2100 220/09G16 RMK AO2 FRQ LTGICCA OHD TS OHD MOV SE P0001
14837KMSN MSN20090619030516806/19/09 03:05:31  5-MIN KMSN 190905Z 21006G16KT 6SM -TSRA BR FEW019 BKN042 BKN065 21/19 A2962 1140 90 2200 210/06G16 RMK AO2 PRESFR FRQ LTGICCA OHD TS OHD MOV SE P0002
14837KMSN MSN20090619031015206/19/09 03:10:31  5-MIN KMSN 190910Z VRB04KT 9SM -TSRA FEW019 SCT034 BKN065 21/19 A2962 1140 90 2200 VRB/04 RMK AO2 FRQ LTGICCA OHD TS OHD MOV SE P0002
14837KMSN MSN20090619031516306/19/09 03:15:31  5-MIN KMSN 190915Z 20004KT 10SM TS FEW019 SCT030 SCT065 21/19 A2961 1150 90 2200 200/04 RMK AO2 RAE15 PRESFR FRQ LTGICCA OHD TS OHD MOV SE P0002
14837KMSN MSN20090619032015806/19/09 03:20:31  5-MIN KMSN 190920Z VRB04KT 10SM TS FEW030 SCT070 SCT110 21/19 A2962 1150 90 2200 VRB/04 RMK AO2 RAE15 FRQ LTGICCA VC S TS VC S MOV SE P0002
14837KMSN MSN20090619032515106/19/09 03:25:31  5-MIN KMSN 190925Z VRB03KT 10SM TS FEW028 SCT110 21/19 A2961 1150 93 2100 VRB/03 RMK AO2 RAE15 FRQ LTGICCA VC S TS VC S MOV SE P0002
14837KMSN MSN20090619033014406/19/09 03:30:31  5-MIN KMSN 190930Z 24004KT 10SM TS FEW017 21/19 A2963 1140 90 2100 240/04 RMK AO2 RAE15 FRQ LTGICCA VC S TS VC S MOV SE P0002
14837KMSN MSN20090619033513606/19/09 03:35:31  5-MIN KMSN 190935Z 23008KT 10SM CLR 21/19 A2963 1130 90 2100 230/08 RMK AO2 TSE32RAE15 FRQ LTG DSNT W TS DSNT W P0002
14837KMSN MSN20090619034013606/19/09 03:40:31  5-MIN KMSN 190940Z 23009KT 10SM CLR 21/19 A2962 1140 87 2200 230/09 RMK AO2 TSE32RAE15 FRQ LTG DSNT W TS DSNT W P0002
14837KMSN MSN20090619034513606/19/09 03:45:31  5-MIN KMSN 190945Z 23009KT 10SM CLR 21/19 A2963 1130 90 2100 230/09 RMK AO2 TSE32RAE15 FRQ LTG DSNT W TS DSNT W P0002
14837KMSN MSN20090619035015006/19/09 03:50:31  5-MIN KMSN 190950Z 23009KT 10SM TS SCT040 21/19 A2963 1130 90 2100 230/09 RMK AO2 TSE32B50RAE15 FRQ LTGIC VC W TS VC W MOV SE P0002
14837KMSN MSN20090619035513406/19/09 03:55:31  5-MIN KMSN 190955Z 22007G14KT 10SM TS BKN120 21/19 A2962 1140 90 2200 220/07G14 RMK AO2 FRQ LTGIC OHD TS OHD MOV SE
14837KMSN MSN20090619040012806/19/09 04:00:31  5-MIN KMSN 191000Z 22006KT 10SM TS BKN120 21/19 A2962 1140 90 2200 220/06 RMK AO2 FRQ LTGIC OHD TS OHD MOV SE
14837KMSN MSN20090619040512806/19/09 04:05:31  5-MIN KMSN 191005Z 21005KT 10SM TS BKN120 21/19 A2962 1140 90 2200 210/05 RMK AO2 FRQ LTGIC OHD TS OHD MOV SE
14837KMSN MSN20090619041012806/19/09 04:10:31  5-MIN KMSN 191010Z 21005KT 10SM TS FEW110 21/19 A2962 1150 90 2200 210/05 RMK AO2 FRQ LTGIC OHD TS OHD MOV SE
14837KMSN MSN20090619041512806/19/09 04:15:31  5-MIN KMSN 191015Z 00000KT 10SM TS FEW110 21/19 A2961 1150 90 2200 000/00 RMK AO2 FRQ LTGIC OHD TS OHD MOV SE
14837KMSN MSN20090619042013006/19/09 04:20:31  5-MIN KMSN 191020Z 00000KT 10SM TS FEW110 21/19 A2962 1140 90 2200 000/00 RMK AO2 FRQ LTGIC VC S TS VC S MOV SE
14837KMSN MSN20090619042513006/19/09 04:25:31  5-MIN KMSN 191025Z 23006KT 10SM TS FEW110 22/19 A2962 1140 87 2200 230/06 RMK AO2 FRQ LTGIC VC S TS VC S MOV SE
14837KMSN MSN20090619043012706/19/09 04:30:31  5-MIN KMSN 191030Z 22004KT 10SM TS CLR 22/19 A2963 1140 87 2200 220/04 RMK AO2 FRQ LTGIC VC S TS VC S MOV SE
14837KMSN MSN20090619043512706/19/09 04:35:31  5-MIN KMSN 191035Z VRB04KT 10SM TS CLR 22/19 A2963 1130 87 2200 VRB/04 RMK AO2 FRQ LTGIC VC S TS VC S MOV SE
14837KMSN MSN20090619044012706/19/09 04:40:31  5-MIN KMSN 191040Z 23005KT 10SM TS CLR 22/19 A2964 1130 87 2200 230/05 RMK AO2 FRQ LTGIC VC S TS VC S MOV SE
14837KMSN MSN20090619044513206/19/09 04:45:31  5-MIN KMSN 191045Z VRB06KT 10SM TS SCT110 22/20 A2964 1130 90 2200 VRB/06 RMK AO2 FRQ LTGIC VC SW TS VC SW MOV SE
14837KMSN MSN20090619045014906/19/09 04:50:31  5-MIN KMSN 191050Z VRB06KT 10SM TS SCT110 22/20 A2964 1120 87 2300 VRB/06 RMK AO2 SLP032 FRQ LTGIC VC SW TS VC SW MOV SE T02220200
14837KMSN MSN20090619045509706/19/09 04:55:31  5-MIN KMSN 191055Z VRB05KT 10SM TS CLR 22/19 A2964 1120 84 2300 VRB/05 RMK AO2
14837KMSN MSN20090619050009706/19/09 05:00:31  5-MIN KMSN 191100Z 23006KT 10SM TS CLR 22/20 A2964 1120 87 2300 230/06 RMK AO2
14837KMSN MSN20090619050510006/19/09 05:05:31  5-MIN KMSN 191105Z 23005KT 10SM TS SCT120 22/19 A2964 1120 84 2300 230/05 RMK AO2
14837KMSN MSN20090619051010306/19/09 05:10:31  5-MIN KMSN 191110Z 22005KT 10SM SCT120 22/20 A2964 1130 87 2300 220/05 RMK AO2 TSE09
14837KMSN MSN20090619051510306/19/09 05:15:31  5-MIN KMSN 191115Z 23004KT 10SM SCT120 22/20 A2964 1130 87 2300 230/04 RMK AO2 TSE09
14837KMSN MSN20090619052010306/19/09 05:20:31  5-MIN KMSN 191120Z VRB04KT 10SM SCT120 22/20 A2965 1120 87 2300 VRB/04 RMK AO2 TSE09
14837KMSN MSN20090619052510306/19/09 05:25:31  5-MIN KMSN 191125Z VRB04KT 10SM SCT120 22/20 A2965 1120 87 2300 VRB/04 RMK AO2 TSE09
14837KMSN MSN20090619053010306/19/09 05:30:31  5-MIN KMSN 191130Z 23005KT 10SM SCT120 22/20 A2965 1120 87 2300 230/05 RMK AO2 TSE09
14837KMSN MSN20090619053510306/19/09 05:35:31  5-MIN KMSN 191135Z 24004KT 10SM SCT120 22/20 A2965 1120 87 2300 240/04 RMK AO2 TSE09
14837KMSN MSN20090619054010306/19/09 05:40:31  5-MIN KMSN 191140Z 23004KT 10SM SCT120 22/20 A2965 1120 87 2300 230/04 RMK AO2 TSE09
14837KMSN MSN20090619054510306/19/09 05:45:31  5-MIN KMSN 191145Z 24005KT 10SM SCT120 22/20 A2965 1110 87 2200 230/05 RMK AO2 TSE09
14837KMSN MSN20090619055014706/19/09 05:50:31  5-MIN KMSN 191150Z 22006KT 10SM CLR 23/20 A2966 1110 84 2300 220/06 RMK AO2 TSE09 SLP037 60004 70218 T02280200 10228 20200 53003
14837KMSN MSN20090619055509406/19/09 05:55:31  5-MIN KMSN 191155Z 22005KT 10SM CLR 23/20 A2965 1120 84 2300 220/05 RMK AO2
14837KMSN MSN20090619060009406/19/09 06:00:31  5-MIN KMSN 191200Z 22003KT 10SM CLR 23/20 A2965 1120 84 2300 220/03 RMK AO2
14837KMSN MSN20090619060509406/19/09 06:05:31  5-MIN KMSN 191205Z 00000KT 10SM CLR 23/20 A2965 1120 84 2300 000/00 RMK AO2
14837KMSN MSN20090619061009406/19/09 06:10:31  5-MIN KMSN 191210Z 22004KT 10SM CLR 23/20 A2965 1120 81 2400 220/04 RMK AO2
14837KMSN MSN20090619061509406/19/09 06:15:31  5-MIN KMSN 191215Z VRB03KT 10SM CLR 23/20 A2965 1120 84 2300 VRB/03 RMK AO2
14837KMSN MSN20090619062009406/19/09 06:20:31  5-MIN KMSN 191220Z 22003KT 10SM CLR 23/20 A2965 1110 84 2300 220/03 RMK AO2
14837KMSN MSN20090619062509406/19/09 06:25:31  5-MIN KMSN 191225Z 22003KT 10SM CLR 23/20 A2965 1110 81 2400 220/03 RMK AO2
14837KMSN MSN20090619063009406/19/09 06:30:31  5-MIN KMSN 191230Z 21004KT 10SM CLR 23/21 A2965 1120 84 2400 210/04 RMK AO2
14837KMSN MSN20090619063509406/19/09 06:35:31  5-MIN KMSN 191235Z VRB04KT 10SM CLR 24/21 A2965 1120 81 2400 VRB/04 RMK AO2
14837KMSN MSN20090619064009406/19/09 06:40:31  5-MIN KMSN 191240Z 22007KT 10SM CLR 24/21 A2965 1120 81 2400 220/07 RMK AO2
14837KMSN MSN20090619064509406/19/09 06:45:31  5-MIN KMSN 191245Z 22005KT 10SM CLR 24/21 A2965 1110 81 2400 220/05 RMK AO2
14837KMSN MSN20090619065011106/19/09 06:50:31  5-MIN KMSN 191250Z 22006KT 10SM CLR 24/21 A2965 1110 81 2400 220/06 RMK AO2 SLP034 T02390206
14837KMSN MSN20090619065509406/19/09 06:55:31  5-MIN KMSN 191255Z 22005KT 10SM CLR 24/21 A2965 1110 81 2400 220/05 RMK AO2
14837KMSN MSN20090619070009406/19/09 07:00:31  5-MIN KMSN 191300Z VRB05KT 10SM CLR 24/21 A2966 1110 81 2400 VRB/05 RMK AO2
14837KMSN MSN20090619070509706/19/09 07:05:31  5-MIN KMSN 191305Z 22004KT 10SM BKN025 24/21 A2966 1110 81 2400 220/04 RMK AO2
14837KMSN MSN20090619071009706/19/09 07:10:31  5-MIN KMSN 191310Z 20006KT 10SM BKN025 24/21 A2966 1110 81 2400 200/06 RMK AO2
14837KMSN MSN20090619071509706/19/09 07:15:31  5-MIN KMSN 191315Z 19006KT 10SM BKN025 24/21 A2966 1110 81 2400 190/06 RMK AO2
14837KMSN MSN20090619072009706/19/09 07:20:31  5-MIN KMSN 191320Z 20008KT 10SM BKN025 24/21 A2966 1110 81 2400 190/08 RMK AO2
14837KMSN MSN20090619072509706/19/09 07:25:31  5-MIN KMSN 191325Z 18009KT 10SM BKN025 24/21 A2967 1100 81 2400 180/09 RMK AO2
14837KMSN MSN20090619073009706/19/09 07:30:31  5-MIN KMSN 191330Z 19008KT 10SM BKN025 24/21 A2967 1100 81 2400 190/08 RMK AO2
14837KMSN MSN20090619073509706/19/09 07:35:31  5-MIN KMSN 191335Z 18008KT 10SM BKN023 23/21 A2967 1100 84 2400 180/08 RMK AO2
14837KMSN MSN20090619074010406/19/09 07:40:31  5-MIN KMSN 191340Z 17007KT 10SM BKN023 OVC027 23/21 A2967 1100 84 2400 170/07 RMK AO2
14837KMSN MSN20090619074510406/19/09 07:45:31  5-MIN KMSN 191345Z 18007KT 10SM BKN023 OVC027 23/21 A2968 1090 84 2300 180/07 RMK AO2
14837KMSN MSN20090619075012106/19/09 07:50:31  5-MIN KMSN 191350Z 18008KT 10SM OVC023 23/21 A2969 1080 84 2300 180/08 RMK AO2 PRESRR SLP049 T02330206
14837KMSN MSN20090619075509706/19/09 07:55:31  5-MIN KMSN 191355Z 19010KT 10SM OVC023 23/21 A2969 1070 84 2300 190/10 RMK AO2
14837KMSN MSN20090619080010306/19/09 08:00:31  5-MIN KMSN 191400Z 19011G16KT 10SM OVC023 23/20 A2969 1070 81 2300 190/11G16 RMK AO2
14837KMSN MSN20090619080510306/19/09 08:05:31  5-MIN KMSN 191405Z 19009G16KT 10SM OVC023 23/20 A2969 1080 81 2300 180/09G16 RMK AO2
14837KMSN MSN20090619081009706/19/09 08:10:31  5-MIN KMSN 191410Z 18009KT 10SM OVC023 23/21 A2968 1090 84 2300 180/09 RMK AO2
14837KMSN MSN20090619081509706/19/09 08:15:31  5-MIN KMSN 191415Z 19008KT 10SM OVC023 23/21 A2968 1090 84 2300 180/08 RMK AO2
14837KMSN MSN20090619082009706/19/09 08:20:31  5-MIN KMSN 191420Z 19009KT 10SM OVC023 23/21 A2969 1080 84 2300 190/09 RMK AO2
14837KMSN MSN20090619082509706/19/09 08:25:31  5-MIN KMSN 191425Z 19009KT 10SM OVC023 23/21 A2969 1070 84 2300 190/09 RMK AO2
14837KMSN MSN20090619083009706/19/09 08:30:31  5-MIN KMSN 191430Z 19008KT 10SM OVC023 23/21 A2970 1070 84 2300 190/08 RMK AO2
14837KMSN MSN20090619083510406/19/09 08:35:31  5-MIN KMSN 191435Z VRB05KT 10SM OVC023 23/20 A2971 1060 81 2300 VRB/05 RMK AO2 PRESRR
14837KMSN MSN20090619084009706/19/09 08:40:31  5-MIN KMSN 191440Z 22006KT 10SM OVC023 23/21 A2971 1060 84 2300 220/06 RMK AO2
14837KMSN MSN20090619084509706/19/09 08:45:31  5-MIN KMSN 191445Z VRB05KT 10SM OVC023 23/20 A2971 1060 81 2300 VRB/05 RMK AO2
14837KMSN MSN20090619085012006/19/09 08:50:31  5-MIN KMSN 191450Z 23005KT 10SM OVC023 23/20 A2971 1060 81 2300 230/05 RMK AO2 SLP057 T02330200 55007
14837KMSN MSN20090619085509706/19/09 08:55:31  5-MIN KMSN 191455Z 21004KT 10SM OVC023 23/20 A2971 1060 84 2200 210/04 RMK AO2
14837KMSN MSN20090619090009706/19/09 09:00:31  5-MIN KMSN 191500Z VRB04KT 10SM OVC023 23/20 A2972 1050 84 2200 VRB/04 RMK AO2
14837KMSN MSN20090619090515106/19/09 09:05:31  5-MIN KMSN 191505Z 21006KT 10SM -TSRA OVC023 23/20 A2972 1050 84 2200 210/06 RMK AO2 TSB05RAB02 FRQ LTGICCC VC S TS VC S MOV E P0000
14837KMSN MSN20090619091015106/19/09 09:10:31  5-MIN KMSN 191510Z 21006KT 10SM -TSRA OVC023 23/21 A2972 1050 87 2200 210/06 RMK AO2 TSB05RAB02 FRQ LTGICCC VC S TS VC S MOV E P0000
14837KMSN MSN20090619091515106/19/09 09:15:31  5-MIN KMSN 191515Z 21006KT 10SM -TSRA OVC023 23/21 A2972 1050 87 2200 210/06 RMK AO2 TSB05RAB02 FRQ LTGICCC VC S TS VC S MOV E P0000
14837KMSN MSN20090619092015806/19/09 09:20:31  5-MIN KMSN 191520Z 15009KT 10SM -TSRA OVC023 23/21 A2966 1100 87 2300 150/09 RMK AO2 TSB05RAB02 PRESFR FRQ LTGICCC VC S TS VC S MOV E P0000
14837KMSN MSN20090619092515206/19/09 09:25:31  5-MIN KMSN 191525Z 16010KT 9SM -TSRA OVC023 23/21 A2967 1100 87 2300 160/10 RMK AO2 TSB05RAB02 FRQ LTGICCC VC SE TS VC SE MOV E P0000
14837KMSN MSN20090619093016006/19/09 09:30:31  5-MIN KMSN 191530Z 19008KT 10SM -TSRA BKN023 BKN027 23/21 A2967 1090 87 2300 190/08 RMK AO2 TSB05RAB02 FRQ LTGICCC VC SE TS VC SE MOV E P0000
14837KMSN MSN20090619093512106/19/09 09:35:31  5-MIN KMSN 191535Z 20007KT 10SM -RA BKN021 23/20 A2967 1090 84 2300 200/07 RMK AO2 TSB05E34RAB02 P0000
14837KMSN MSN20090619094012106/19/09 09:40:31  5-MIN KMSN 191540Z 18004KT 10SM -RA BKN024 23/20 A2966 1100 84 2300 170/04 RMK AO2 TSB05E34RAB02 P0000
14837KMSN MSN20090619094512806/19/09 09:45:31  5-MIN KMSN 191545Z VRB03KT 10SM -RA FEW022 BKN027 23/20 A2966 1100 84 2300 VRB/03 RMK AO2 TSB05E34RAB02 P0000
14837KMSN MSN20090619095012806/19/09 09:50:31  5-MIN KMSN 191550Z VRB03KT 10SM -RA SCT026 BKN110 23/20 A2968 1090 84 2300 VRB/03 RMK AO2 TSB05E34RAB02 P0000
14837KMSN MSN20090619095507506/19/09 09:55:31  5-MIN KMSN 191555Z 23005KT 10SM -RA SCT026 BKN110 23/20 
14837KMSN MSN20090619095511406/19/09 09:55:31  5-MIN KMSN 191555Z 23005KT 10SM -RA SCT026 BKN110 23/20 A2969 1080 84 2300 230/05 RMK AO2 P0000
14837KMSN MSN20090619100012106/19/09 10:00:31  5-MIN KMSN 191600Z 24004KT 10SM -RA SCT026 BKN110 23/20 A2969 1080 84 2300 240/04 RMK AO2 PRESRR P0000
14837KMSN MSN20090619100511406/19/09 10:05:31  5-MIN KMSN 191605Z 22003KT 10SM -RA SCT026 BKN110 23/21 A2968 1090 87 2300 220/03 RMK AO2 P0000
14837KMSN MSN20090619101010906/19/09 10:10:31  5-MIN KMSN 191610Z VRB03KT 10SM SCT100 23/20 A2966 1110 84 2300 VRB/03 RMK AO2 RAE09 P0000
14837KMSN MSN20090619101510906/19/09 10:15:31  5-MIN KMSN 191615Z 00000KT 10SM SCT100 23/20 A2965 1110 84 2300 000/00 RMK AO2 RAE09 P0000
14837KMSN MSN20090619102011606/19/09 10:20:31  5-MIN KMSN 191620Z 15006KT 10SM SCT100 23/20 A2964 1120 81 2400 150/06 RMK AO2 RAE09 PRESFR P0000
14837KMSN MSN20090619102510906/19/09 10:25:31  5-MIN KMSN 191625Z 16011KT 10SM SCT100 23/20 A2965 1120 81 2400 160/11 RMK AO2 RAE09 P0000
14837KMSN MSN20090619103011506/19/09 10:30:31  5-MIN KMSN 191630Z 18014G17KT 10SM SCT100 23/19 A2965 1110 78 2400 180/14G17 RMK AO2 RAE09 P0000
14837KMSN MSN20090619103510906/19/09 10:35:31  5-MIN KMSN 191635Z 18013KT 10SM SCT100 23/19 A2965 1110 81 2300 180/13 RMK AO2 RAE09 P0000
14837KMSN MSN20090619104010906/19/09 10:40:31  5-MIN KMSN 191640Z 18012KT 10SM BKN021 23/19 A2965 1120 81 2300 180/12 RMK AO2 RAE09 P0000
14837KMSN MSN20090619104510906/19/09 10:45:31  5-MIN KMSN 191645Z 19012KT 10SM BKN021 23/20 A2965 1110 84 2300 190/12 RMK AO2 RAE09 P0000
14837KMSN MSN20090619105012606/19/09 10:50:31  5-MIN KMSN 191650Z 18011KT 10SM OVC021 23/20 A2965 1110 81 2400 180/11 RMK AO2 RAE09 SLP035 P0000 T02330200
14837KMSN MSN20090619105510306/19/09 10:55:31  5-MIN KMSN 191655Z 19012G18KT 10SM OVC021 23/20 A2966 1110 81 2400 190/12G18 RMK AO2
14837KMSN MSN20090619110010306/19/09 11:00:31  5-MIN KMSN 191700Z 20012G18KT 10SM OVC021 23/20 A2965 1110 81 2400 200/12G18 RMK AO2
14837KMSN MSN20090619110510306/19/09 11:05:31  5-MIN KMSN 191705Z 19012G18KT 10SM OVC021 24/21 A2965 1120 81 2400 190/12G18 RMK AO2
14837KMSN MSN20090619111010306/19/09 11:10:31  5-MIN KMSN 191710Z 19015G18KT 10SM BKN021 24/21 A2964 1120 81 2400 190/15G18 RMK AO2
14837KMSN MSN20090619111509706/19/09 11:15:31  5-MIN KMSN 191715Z 19012KT 10SM BKN021 24/21 A2965 1120 81 2400 190/12 RMK AO2
14837KMSN MSN20090619112010406/19/09 11:20:31  5-MIN KMSN 191720Z 18013KT 10SM SCT021 BKN120 24/21 A2964 1120 78 2500 180/13 RMK AO2
14837KMSN MSN20090619112511006/19/09 11:25:31  5-MIN KMSN 191725Z 19011G18KT 10SM SCT021 BKN120 24/21 A2965 1120 78 2500 190/11G18 RMK AO2
14837KMSN MSN20090619113011006/19/09 11:30:31  5-MIN KMSN 191730Z 19012G18KT 10SM SCT021 BKN120 25/21 A2964 1120 76 2600 190/12G18 RMK AO2
14837KMSN MSN20090619113511006/19/09 11:35:31  5-MIN KMSN 191735Z 19012G18KT 10SM SCT021 BKN120 25/20 A2964 1130 73 2600 190/12G18 RMK AO2
14837KMSN MSN20090619114011006/19/09 11:40:31  5-MIN KMSN 191740Z 19011G19KT 10SM SCT021 BKN120 25/19 A2963 1130 71 2600 190/11G19 RMK AO2
14837KMSN MSN20090619114511706/19/09 11:45:31  5-MIN KMSN 191745Z 18015G19KT 10SM SCT021 BKN120 26/20 A2962 1140 71 2700 180/15G19 RMK AO2 PRESFR
14837KMSN MSN20090619115014506/19/09 11:50:31  5-MIN KMSN 191750Z 18013KT 10SM SCT021 BKN120 25/19 A2961 1150 71 2600 180/13 RMK AO2 SLP022 60000 T02500194 10256 20228 53020
14837KMSN MSN20090619115511806/19/09 11:55:31  5-MIN KMSN 191755Z 18014KT 10SM FEW025 SCT080 BKN120 26/20 A2961 1150 71 2700 180/14 RMK AO2 PRESFR
14837KMSN MSN20090619120011106/19/09 12:00:31  5-MIN KMSN 191800Z 17015KT 10SM FEW025 SCT080 BKN120 26/20 A2961 1160 71 2700 170/15 RMK AO2
14837KMSN MSN20090619120511706/19/09 12:05:31  5-MIN KMSN 191805Z 19013G21KT 10SM FEW025 SCT080 BKN120 26/20 A2961 1150 71 2700 190/13G21 RMK AO2
14837KMSN MSN20090619121011706/19/09 12:10:31  5-MIN KMSN 191810Z 19016G21KT 10SM FEW025 SCT080 BKN120 26/20 A2961 1160 71 2700 190/16G21 RMK AO2
14837KMSN MSN20090619121511706/19/09 12:15:31  5-MIN KMSN 191815Z 18014G21KT 10SM FEW025 SCT080 BKN120 26/20 A2960 1160 71 2700 180/14G21 RMK AO2
14837KMSN MSN20090619122011706/19/09 12:20:31  5-MIN KMSN 191820Z 18013G19KT 10SM FEW025 SCT080 BKN120 26/20 A2960 1160 68 2700 180/13G19 RMK AO2
14837KMSN MSN20090619122511706/19/09 12:25:31  5-MIN KMSN 191825Z 18012G19KT 10SM FEW025 SCT080 BKN120 26/21 A2961 1150 71 2700 180/12G19 RMK AO2
14837KMSN MSN20090619123009706/19/09 12:30:31  5-MIN KMSN 191830Z 19009KT 10SM SCT100 27/21 A2962 1150 69 2800 190/09 RMK AO2
14837KMSN MSN20090619123509706/19/09 12:35:31  5-MIN KMSN 191835Z 19007KT 10SM SCT100 27/21 A2961 1150 71 2800 190/07 RMK AO2
14837KMSN MSN20090619124009706/19/09 12:40:31  5-MIN KMSN 191840Z 20010KT 10SM SCT100 27/21 A2962 1150 69 2800 190/10 RMK AO2
14837KMSN MSN20090619124509706/19/09 12:45:31  5-MIN KMSN 191845Z 22007KT 10SM SCT100 27/21 A2962 1140 69 2800 220/07 RMK AO2
14837KMSN MSN20090619125011406/19/09 12:50:31  5-MIN KMSN 191850Z 22007KT 10SM SCT100 27/21 A2963 1140 69 2800 220/07 RMK AO2 SLP026 T02670206
14837KMSN MSN20090619125511106/19/09 12:55:31  5-MIN KMSN 191855Z 29006KT 10SM FEW025 BKN110 26/21 A2964 1130 71 2700 280/06 RMK AO2 PRESRR
14837KMSN MSN20090619130010406/19/09 13:00:31  5-MIN KMSN 191900Z 24007KT 10SM FEW025 BKN110 26/21 A2964 1120 71 2700 230/07 RMK AO2
14837KMSN MSN20090619130510406/19/09 13:05:31  5-MIN KMSN 191905Z 23004KT 10SM FEW025 BKN110 27/21 A2964 1130 71 2800 220/04 RMK AO2
14837KMSN MSN20090619131010406/19/09 13:10:31  5-MIN KMSN 191910Z VRB03KT 10SM FEW026 BKN120 27/21 A2964 1120 69 2800 VRB/03 RMK AO2
14837KMSN MSN20090619131510406/19/09 13:15:31  5-MIN KMSN 191915Z VRB04KT 10SM FEW026 BKN120 27/22 A2964 1120 71 2800 VRB/04 RMK AO2
14837KMSN MSN20090619132010406/19/09 13:20:31  5-MIN KMSN 191920Z 23006KT 10SM FEW026 BKN120 27/22 A2964 1120 71 2800 230/06 RMK AO2
14837KMSN MSN20090619132510406/19/09 13:25:31  5-MIN KMSN 191925Z 22007KT 10SM FEW026 BKN120 27/21 A2964 1130 69 2800 220/07 RMK AO2
14837KMSN MSN20090619133010406/19/09 13:30:31  5-MIN KMSN 191930Z 22007KT 10SM FEW026 BKN120 27/22 A2964 1130 71 2800 220/07 RMK AO2
14837KMSN MSN20090619133512006/19/09 13:35:31  5-MIN KMSN 191935Z 22007KT 190V250 10SM FEW026 BKN120 27/22 A2964 1130 71 2800 220/07 190V250 RMK AO2
14837KMSN MSN20090619134010406/19/09 13:40:31  5-MIN KMSN 191940Z VRB06KT 10SM FEW026 BKN120 27/22 A2963 1130 71 2800 VRB/06 RMK AO2
14837KMSN MSN20090619134510406/19/09 13:45:31  5-MIN KMSN 191945Z 20009KT 10SM FEW026 BKN120 28/22 A2963 1130 71 2900 200/09 RMK AO2
14837KMSN MSN20090619135012106/19/09 13:50:31  5-MIN KMSN 191950Z 23008KT 10SM FEW026 BKN120 28/22 A2963 1130 71 2900 230/08 RMK AO2 SLP028 T02780222
14837KMSN MSN20090619135510406/19/09 13:55:31  5-MIN KMSN 191955Z 21009KT 10SM FEW025 BKN110 28/22 A2963 1140 69 2900 210/09 RMK AO2
14837KMSN MSN20090619140010406/19/09 14:00:31  5-MIN KMSN 192000Z 21007KT 10SM FEW025 BKN110 28/22 A2963 1130 71 2900 210/07 RMK AO2
14837KMSN MSN20090619140510406/19/09 14:05:31  5-MIN KMSN 192005Z 20008KT 10SM FEW025 BKN110 28/22 A2963 1140 69 3000 200/08 RMK AO2
14837KMSN MSN20090619141011006/19/09 14:10:31  5-MIN KMSN 192010Z 20010G14KT 10SM FEW025 BKN110 28/22 A2963 1140 69 3000 200/10G14 RMK AO2
14837KMSN MSN20090619141510406/19/09 14:15:31  5-MIN KMSN 192015Z 21009KT 10SM FEW025 BKN110 28/22 A2963 1140 71 2900 210/09 RMK AO2
14837KMSN MSN20090619142011006/19/09 14:20:31  5-MIN KMSN 192020Z 19011G15KT 10SM FEW025 BKN110 28/22 A2963 1130 69 3000 190/11G15 RMK AO2
14837KMSN MSN20090619142512006/19/09 14:25:31  5-MIN KMSN 192025Z 21007KT 180V250 10SM SCT025 BKN110 28/22 A2963 1130 71 2900 210/07 180V250 RMK AO2
14837KMSN MSN20090619143010406/19/09 14:30:31  5-MIN KMSN 192030Z 22007KT 10SM SCT025 BKN110 28/22 A2963 1140 69 3000 220/07 RMK AO2
14837KMSN MSN20090619143510406/19/09 14:35:31  5-MIN KMSN 192035Z 19009KT 10SM SCT025 BKN110 28/23 A2963 1140 71 3000 190/09 RMK AO2
14837KMSN MSN20090619144010406/19/09 14:40:31  5-MIN KMSN 192040Z VRB06KT 10SM SCT025 BKN110 28/22 A2963 1140 71 2900 VRB/06 RMK AO2
14837KMSN MSN20090619144510406/19/09 14:45:31  5-MIN KMSN 192045Z 23007KT 10SM SCT025 BKN110 28/22 A2962 1140 71 2900 230/07 RMK AO2
14837KMSN MSN20090619145012706/19/09 14:50:31  5-MIN KMSN 192050Z VRB04KT 10SM FEW025 BKN090 28/22 A2962 1150 71 2900 VRB/04 RMK AO2 SLP023 T02780222 58022
14837KMSN MSN20090619145509706/19/09 14:55:31  5-MIN KMSN 192055Z 21006KT 10SM BKN095 28/22 A2961 1150 71 2900 210/06 RMK AO2
14837KMSN MSN20090619150009706/19/09 15:00:31  5-MIN KMSN 192100Z 22005KT 10SM BKN095 28/22 A2961 1160 71 2900 220/05 RMK AO2
14837KMSN MSN20090619150509706/19/09 15:05:31  5-MIN KMSN 192105Z 21005KT 10SM BKN095 28/23 A2960 1160 74 2900 210/05 RMK AO2
14837KMSN MSN20090619151009706/19/09 15:10:31  5-MIN KMSN 192110Z 21007KT 10SM SCT095 28/23 A2960 1160 71 3000 200/07 RMK AO2
14837KMSN MSN20090619151509706/19/09 15:15:31  5-MIN KMSN 192115Z 19007KT 10SM SCT095 29/23 A2959 1170 69 3100 190/07 RMK AO2
14837KMSN MSN20090619152009706/19/09 15:20:31  5-MIN KMSN 192120Z 21007KT 10SM SCT095 28/23 A2959 1170 71 3000 200/07 RMK AO2
14837KMSN MSN20090619152509706/19/09 15:25:31  5-MIN KMSN 192125Z 21008KT 10SM SCT095 28/22 A2960 1170 69 3000 210/08 RMK AO2
14837KMSN MSN20090619153009706/19/09 15:30:31  5-MIN KMSN 192130Z 21006KT 10SM SCT095 28/23 A2960 1160 71 3000 210/06 RMK AO2
14837KMSN MSN20090619153509706/19/09 15:35:31  5-MIN KMSN 192135Z 21008KT 10SM SCT095 28/22 A2960 1160 69 3000 210/08 RMK AO2
14837KMSN MSN20090619154009706/19/09 15:40:31  5-MIN KMSN 192140Z 21007KT 10SM SCT095 28/22 A2960 1160 66 3000 200/07 RMK AO2
14837KMSN MSN20090619154509706/19/09 15:45:31  5-MIN KMSN 192145Z VRB03KT 10SM SCT095 28/22 A2960 1160 69 3000 VRB/03 RMK AO2
14837KMSN MSN20090619155011406/19/09 15:50:31  5-MIN KMSN 192150Z VRB04KT 10SM SCT095 28/22 A2960 1160 66 3000 VRB/04 RMK AO2 SLP017 T02830217
14837KMSN MSN20090619155509406/19/09 15:55:31  5-MIN KMSN 192155Z VRB04KT 10SM CLR 28/22 A2960 1160 66 3000 VRB/04 RMK AO2
14837KMSN MSN20090619160009406/19/09 16:00:31  5-MIN KMSN 192200Z 24004KT 10SM CLR 28/22 A2960 1160 66 3000 230/04 RMK AO2
14837KMSN MSN20090619160509406/19/09 16:05:31  5-MIN KMSN 192205Z 23004KT 10SM CLR 28/22 A2960 1160 69 2900 230/04 RMK AO2
14837KMSN MSN20090619161011306/19/09 16:10:31  5-MIN KMSN 192210Z 23005KT 10SM -RA FEW090 28/22 A2960 1160 69 2900 230/05 RMK AO2 RAB10 P0000
14837KMSN MSN20090619161511306/19/09 16:15:31  5-MIN KMSN 192215Z 23004KT 10SM -RA FEW080 28/22 A2960 1160 69 2900 230/04 RMK AO2 RAB10 P0000
14837KMSN MSN20090619162012606/19/09 16:20:31  5-MIN KMSN 192220Z 22006KT 8SM -RA FEW022 SCT080 SCT110 27/22 A2960 1160 71 2900 220/06 RMK AO2 RAB10 P0000
14837KMSN MSN20090619162511906/19/09 16:25:31  5-MIN KMSN 192225Z 23005KT 5SM -RA FEW027 BKN085 27/22 A2960 1160 76 2800 230/05 RMK AO2 RAB10 P0000
14837KMSN MSN20090619163011906/19/09 16:30:31  5-MIN KMSN 192230Z 23006KT 4SM -RA SCT027 BKN080 26/22 A2960 1160 79 2700 230/06 RMK AO2 RAB10 P0001
14837KMSN MSN20090619163512606/19/09 16:35:31  5-MIN KMSN 192235Z 23006KT 3SM -RA BKN020 BKN065 BKN085 26/22 A2961 1160 81 2700 230/06 RMK AO2 RAB10 P0006
14837KMSN MSN20090619164012606/19/09 16:40:31  5-MIN KMSN 192240Z 22006KT 7SM -RA SCT017 BKN065 BKN080 26/22 A2960 1160 79 2700 220/06 RMK AO2 RAB10 P0006
14837KMSN MSN20090619164512606/19/09 16:45:31  5-MIN KMSN 192245Z 22006KT 10SM SCT019 SCT050 BKN060 26/22 A2960 1160 79 2700 220/06 RMK AO2 RAB10E44 P0006
14837KMSN MSN20090619165014306/19/09 16:50:31  5-MIN KMSN 192250Z 23006KT 10SM SCT028 SCT050 BKN065 25/22 A2961 1150 81 2600 220/06 RMK AO2 RAB10E44 SLP020 P0006 T02500217
14837KMSN MSN20090619165511106/19/09 16:55:31  5-MIN KMSN 192255Z VRB04KT 10SM FEW028 SCT060 BKN110 24/22 A2962 1150 84 2500 VRB/04 RMK AO2
14837KMSN MSN20090619170011106/19/09 17:00:31  5-MIN KMSN 192300Z VRB03KT 10SM FEW035 SCT060 BKN110 24/21 A2961 1150 81 2500 VRB/03 RMK AO2
14837KMSN MSN20090619170515106/19/09 17:05:31  5-MIN KMSN 192305Z 35007KT 8SM TS FEW049 SCT090 SCT110 24/21 A2960 1160 81 2500 350/07 RMK AO2 TSB03 OCNL LTGCG VC SE TS VC SE MOV E
14837KMSN MSN20090619171013806/19/09 17:10:31  5-MIN KMSN 192310Z 32003KT 10SM TS FEW044 24/22 A2960 1170 87 2500 320/03 RMK AO2 TSB03 OCNL LTGCG VC SE TS VC SE MOV E
14837KMSN MSN20090619171514406/19/09 17:15:31  5-MIN KMSN 192315Z 33004KT 9SM TS FEW110 23/22 A2958 1180 90 2500 330/04 RMK AO2 TSB03 PRESFR OCNL LTGCG VC SE TS VC SE MOV E
14837KMSN MSN20090619172015506/19/09 17:20:31  5-MIN KMSN 192320Z 34004KT 9SM -TSRA CLR 24/21 A2957 1190 84 2500 340/04 RMK AO2 TSB03RAB19 PRESFR OCNL LTGCG VC SE TS VC SE MOV E P0000
14837KMSN MSN20090619172512006/19/09 17:25:31  5-MIN KMSN 192325Z 33003KT 8SM -RA FEW040 23/22 A2957 1190 90 2500 330/03 RMK AO2 TSB03E25RAB19 P0000
14837KMSN MSN20090619173012006/19/09 17:30:31  5-MIN KMSN 192330Z 30003KT 9SM -RA FEW040 23/22 A2958 1180 90 2500 300/03 RMK AO2 TSB03E25RAB19 P0000
14837KMSN MSN20090619173512006/19/09 17:35:31  5-MIN KMSN 192335Z 31004KT 9SM -RA FEW040 23/22 A2958 1180 90 2400 310/04 RMK AO2 TSB03E25RAB19 P0000
14837KMSN MSN20090619174012806/19/09 17:40:31  5-MIN KMSN 192340Z 30005KT 10SM -RA FEW040 24/21 A2959 1170 84 2500 300/05 RMK AO2 TSB03E25RAB19 PRESRR P0000
14837KMSN MSN20090619174512006/19/09 17:45:31  5-MIN KMSN 192345Z 27004KT 9SM -RA FEW040 24/21 A2959 1170 78 2600 270/04 RMK AO2 TSB03E25RAB19 P0000
14837KMSN MSN20090619175016106/19/09 17:50:31  5-MIN KMSN 192350Z VRB03KT 7SM -RA SCT036 24/21 A2960 1160 78 2600 VRB/03 RMK AO2 TSB03E25RAB19 SLP018 P0001 60007 T02440206 10289 20233 50000
14837KMSN MSN20090619175510606/19/09 17:55:31  5-MIN KMSN 192355Z VRB03KT 5SM -RA SCT024 24/21 A2960 1160 78 2600 VRB/03 RMK AO2 P0000
14837KMSN MSN20090619180010606/19/09 18:00:31  5-MIN KMSN 200000Z VRB03KT 5SM -RA BKN024 24/20 A2960 1160 78 2500 VRB/03 RMK AO2 P0001
14837KMSN MSN20090619180510606/19/09 18:05:31  5-MIN KMSN 200005Z 23005KT 5SM -RA BKN024 23/19 A2961 1150 78 2400 220/05 RMK AO2 P0001
14837KMSN MSN20090619181010606/19/09 18:10:31  5-MIN KMSN 200010Z 22005KT 5SM -RA BKN022 23/19 A2962 1140 78 2400 220/05 RMK AO2 P0002
14837KMSN MSN20090619181510606/19/09 18:15:31  5-MIN KMSN 200015Z 21005KT 6SM -RA OVC022 23/19 A2962 1140 78 2400 210/05 RMK AO2 P0002
14837KMSN MSN20090619182010606/19/09 18:20:31  5-MIN KMSN 200020Z 21005KT 7SM -RA BKN022 23/20 A2963 1140 81 2400 210/05 RMK AO2 P0003
14837KMSN MSN20090619182510606/19/09 18:25:31  5-MIN KMSN 200025Z 20004KT 8SM -RA BKN022 23/20 A2962 1140 81 2400 200/04 RMK AO2 P0003
14837KMSN MSN20090619183010606/19/09 18:30:31  5-MIN KMSN 200030Z 20005KT 9SM -RA SCT022 23/20 A2962 1140 81 2400 200/05 RMK AO2 P0003
14837KMSN MSN20090619183510706/19/09 18:35:31  5-MIN KMSN 200035Z 19006KT 10SM -RA SCT022 23/20 A2963 1140 81 2400 190/06 RMK AO2 P0003
14837KMSN MSN20090619184010706/19/09 18:40:31  5-MIN KMSN 200040Z 20007KT 10SM -RA FEW020 23/20 A2963 1140 84 2300 200/07 RMK AO2 P0003
14837KMSN MSN20090619184510606/19/09 18:45:31  5-MIN KMSN 200045Z 19006KT 9SM -RA FEW020 23/20 A2963 1140 84 2300 190/06 RMK AO2 P0003
14837KMSN MSN20090619185012406/19/09 18:50:31  5-MIN KMSN 200050Z 19006KT 10SM -RA FEW020 23/20 A2963 1140 84 2300 190/06 RMK AO2 SLP026 P0003 T02280200
14837KMSN MSN20090619185510706/19/09 18:55:31  5-MIN KMSN 200055Z 18005KT 10SM -RA FEW020 23/20 A2962 1140 84 2300 180/05 RMK AO2 P0000
14837KMSN MSN20090619190010706/19/09 19:00:31  5-MIN KMSN 200100Z 19005KT 10SM -RA FEW020 23/21 A2962 1150 87 2400 180/05 RMK AO2 P0000
14837KMSN MSN20090619190510706/19/09 19:05:31  5-MIN KMSN 200105Z 18004KT 10SM -RA FEW020 23/21 A2961 1150 87 2400 180/04 RMK AO2 P0000
14837KMSN MSN20090619191010606/19/09 19:10:31  5-MIN KMSN 200110Z 18005KT 10SM CLR 23/21 A2961 1150 87 2400 180/05 RMK AO2 RAE07 P0000
14837KMSN MSN20090619191510406/19/09 19:15:31  5-MIN KMSN 200115Z 18005KT 10SM -RA CLR 23/21 A2960 1160 87 2400 180/05 RMK AO2 P0000
14837KMSN MSN20090619192010406/19/09 19:20:31  5-MIN KMSN 200120Z 18006KT 10SM -RA CLR 23/20 A2960 1160 84 2400 180/06 RMK AO2 P0000
14837KMSN MSN20090619192510706/19/09 19:25:31  5-MIN KMSN 200125Z 19006KT 10SM -RA FEW090 23/21 A2960 1160 87 2400 190/06 RMK AO2 P0000
14837KMSN MSN20090619193010706/19/09 19:30:31  5-MIN KMSN 200130Z VRB04KT 10SM -RA SCT080 23/21 A2960 1160 87 2400 VRB/04 RMK AO2 P0000
14837KMSN MSN20090619193510606/19/09 19:35:31  5-MIN KMSN 200135Z 00000KT 8SM -RA BKN060 22/20 A2960 1160 87 2300 000/00 RMK AO2 P0000
14837KMSN MSN20090619194010606/19/09 19:40:31  5-MIN KMSN 200140Z 00000KT 7SM -RA SCT055 22/20 A2961 1160 87 2300 000/00 RMK AO2 P0000
14837KMSN MSN20090619194510906/19/09 19:45:31  5-MIN KMSN 200145Z 00000KT 10SM SCT060 22/21 A2961 1150 90 2300 000/00 RMK AO2 RAE41 P0000
14837KMSN MSN20090619195012606/19/09 19:50:31  5-MIN KMSN 200150Z 00000KT 10SM SCT060 22/20 A2961 1150 90 2200 000/00 RMK AO2 RAE41 SLP022 P0000 T02170200
14837KMSN MSN20090619195509706/19/09 19:55:31  5-MIN KMSN 200155Z 00000KT 10SM FEW055 22/20 A2961 1160 90 2200 000/00 RMK AO2
14837KMSN MSN20090619200009706/19/09 20:00:31  5-MIN KMSN 200200Z 00000KT 10SM FEW031 22/20 A2961 1150 90 2200 000/00 RMK AO2
14837KMSN MSN20090619200509406/19/09 20:05:31  5-MIN KMSN 200205Z 00000KT 10SM CLR 21/20 A2961 1150 93 2200 000/00 RMK AO2
14837KMSN MSN20090619201009406/19/09 20:10:31  5-MIN KMSN 200210Z 21003KT 10SM CLR 21/20 A2962 1150 93 2200 210/03 RMK AO2
14837KMSN MSN20090619201509406/19/09 20:15:31  5-MIN KMSN 200215Z 00000KT 10SM CLR 22/21 A2962 1150 93 2200 000/00 RMK AO2
14837KMSN MSN20090619202009706/19/09 20:20:31  5-MIN KMSN 200220Z 20003KT 10SM FEW120 22/21 A2962 1150 93 2200 200/03 RMK AO2
14837KMSN MSN20090619202509706/19/09 20:25:31  5-MIN KMSN 200225Z 21003KT 10SM SCT120 22/20 A2962 1140 87 2300 210/03 RMK AO2
14837KMSN MSN20090619203009706/19/09 20:30:31  5-MIN KMSN 200230Z VRB03KT 10SM BKN110 22/20 A2962 1140 87 2300 VRB/03 RMK AO2
14837KMSN MSN20090619203509706/19/09 20:35:31  5-MIN KMSN 200235Z 20004KT 10SM BKN110 22/20 A2963 1130 87 2300 200/04 RMK AO2
14837KMSN MSN20090619204009706/19/09 20:40:31  5-MIN KMSN 200240Z 22005KT 10SM BKN120 22/21 A2964 1130 90 2300 210/05 RMK AO2
14837KMSN MSN20090619204509706/19/09 20:45:31  5-MIN KMSN 200245Z 20005KT 10SM OVC120 22/20 A2964 1120 90 2200 200/05 RMK AO2
14837KMSN MSN20090619205012606/19/09 20:50:31  5-MIN KMSN 200250Z 22004KT 10SM OVC110 22/20 A2965 1120 87 2300 220/04 RMK AO2 SLP033 60003 T02220200 58003
14837KMSN MSN20090619205509706/19/09 20:55:31  5-MIN KMSN 200255Z 23004KT 10SM OVC110 22/20 A2965 1120 87 2200 230/04 RMK AO2
14837KMSN MSN20090619210010406/19/09 21:00:31  5-MIN KMSN 200300Z 00000KT 10SM OVC110 22/20 A2966 1110 87 2200 000/00 RMK AO2 PRESRR
14837KMSN MSN20090619210511106/19/09 21:05:31  5-MIN KMSN 200305Z 00000KT 10SM SCT090 OVC110 22/20 A2966 1100 90 2200 000/00 RMK AO2 PRESRR
14837KMSN MSN20090619211013306/19/09 21:10:31  5-MIN KMSN 200310Z 00000KT 9SM -RA SCT070 BKN090 OVC110 22/20 A2967 1100 90 2200 000/00 RMK AO2 RAB08 PRESRR P0000
14837KMSN MSN20090619211512606/19/09 21:15:31  5-MIN KMSN 200315Z 00000KT 7SM -RA FEW048 BKN090 OVC110 22/20 A2967 1090 90 2200 000/00 RMK AO2 RAB08 P0000
14837KMSN MSN20090619212012906/19/09 21:20:31  5-MIN KMSN 200320Z 23003KT 6SM -RA BR FEW047 BKN070 OVC110 22/20 A2968 1090 90 2200 230/03 RMK AO2 RAB08 P0000
14837KMSN MSN20090619212512906/19/09 21:25:31  5-MIN KMSN 200325Z VRB03KT 6SM -RA BR FEW050 BKN070 OVC090 22/20 A2968 1080 90 2100 VRB/03 RMK AO2 RAB08 P0001
14837KMSN MSN20090619213012606/19/09 21:30:31  5-MIN KMSN 200330Z VRB03KT 7SM -RA FEW038 BKN065 OVC090 22/20 A2968 1080 90 2100 VRB/03 RMK AO2 RAB08 P0001
14837KMSN MSN20090619213511906/19/09 21:35:31  5-MIN KMSN 200335Z 24003KT 7SM -RA FEW036 OVC065 22/20 A2968 1090 90 2100 240/03 RMK AO2 RAB08 P0001
14837KMSN MSN20090619214011906/19/09 21:40:31  5-MIN KMSN 200340Z VRB03KT 8SM -RA FEW036 OVC070 22/20 A2968 1090 90 2200 VRB/03 RMK AO2 RAB08 P0001
14837KMSN MSN20090619214511906/19/09 21:45:31  5-MIN KMSN 200345Z VRB03KT 10SM FEW034 OVC065 22/20 A2968 1090 90 2200 VRB/03 RMK AO2 RAB08E43 P0001
14837KMSN MSN20090619215013706/19/09 21:50:31  5-MIN KMSN 200350Z 26004KT 10SM -RA FEW036 OVC065 22/20 A2968 1090 90 2100 260/04 RMK AO2 RAB08 SLP046 P0001 T02170200
14837KMSN MSN20090619215511306/19/09 21:55:31  5-MIN KMSN 200355Z VRB04KT 7SM -RA FEW036 OVC065 22/20 A2968 1090 90 2200 VRB/04 RMK AO2 P0000
14837KMSN MSN20090619220011606/19/09 22:00:31  5-MIN KMSN 200400Z VRB05KT 5SM -RA BR FEW036 OVC065 22/20 A2968 1090 90 2200 VRB/05 RMK AO2 P0001
14837KMSN MSN20090619220511606/19/09 22:05:31  5-MIN KMSN 200405Z 22005KT 5SM -RA BR SCT042 OVC065 21/20 A2967 1090 93 2100 220/05 RMK AO2 P0001
14837KMSN MSN20090619221011306/19/09 22:10:31  5-MIN KMSN 200410Z 22004KT 7SM -RA BKN040 OVC065 21/19 A2967 1100 90 2100 220/04 RMK AO2 P0002
14837KMSN MSN20090619221512006/19/09 22:15:31  5-MIN KMSN 200415Z 22004KT 8SM -RA SCT042 BKN065 OVC110 21/19 A2967 1100 90 2100 220/04 RMK AO2 P0002
14837KMSN MSN20090619222012006/19/09 22:20:31  5-MIN KMSN 200420Z 00000KT 8SM -RA SCT048 BKN070 OVC110 21/19 A2967 1100 90 2100 000/00 RMK AO2 P0002
14837KMSN MSN20090619222512006/19/09 22:25:31  5-MIN KMSN 200425Z 00000KT 9SM -RA SCT048 BKN070 OVC110 21/19 A2967 1100 90 2100 000/00 RMK AO2 P0002
14837KMSN MSN20090619223011606/19/09 22:30:31  5-MIN KMSN 200430Z 00000KT 10SM SCT044 OVC110 21/19 A2967 1090 90 2100 000/00 RMK AO2 RAE26 P0002
14837KMSN MSN20090619223512306/19/09 22:35:31  5-MIN KMSN 200435Z 00000KT 10SM FEW033 BKN049 OVC110 21/19 A2968 1090 90 2100 000/00 RMK AO2 RAE26 P0002
14837KMSN MSN20090619224012306/19/09 22:40:31  5-MIN KMSN 200440Z 00000KT 10SM SCT033 BKN041 OVC110 21/19 A2968 1090 93 2000 000/00 RMK AO2 RAE26 P0002
14837KMSN MSN20090619224513006/19/09 22:45:31  5-MIN KMSN 200445Z 00000KT 10SM -RA BKN038 BKN060 BKN110 21/19 A2968 1090 90 2100 000/00 RMK AO2 RAE26B45 P0002
14837KMSN MSN20090619225015106/19/09 22:50:31  5-MIN KMSN 200450Z 00000KT 10SM -RA SCT038 BKN120 21/19 A2967 1090 90 2100 000/00 RMK AO2 RAE26B45 SLP044 LTG DSNT E P0002 T02110194
14837KMSN MSN20090619225510406/19/09 22:55:31  5-MIN KMSN 200455Z 22003KT 10SM SCT038 SCT120 21/19 A2967 1100 90 2100 220/03 RMK AO2
14837KMSN MSN20090619230009706/19/09 23:00:31  5-MIN KMSN 200500Z 23003KT 10SM SCT038 21/19 A2967 1100 90 2100 230/03 RMK AO2
14837KMSN MSN20090619230509706/19/09 23:05:31  5-MIN KMSN 200505Z 00000KT 10SM FEW036 21/19 A2967 1100 90 2100 000/00 RMK AO2
14837KMSN MSN20090619231009406/19/09 23:10:31  5-MIN KMSN 200510Z 00000KT 10SM CLR 21/19 A2967 1100 90 2100 000/00 RMK AO2
14837KMSN MSN20090619231509406/19/09 23:15:31  5-MIN KMSN 200515Z 00000KT 10SM CLR 21/19 A2967 1100 93 2000 000/00 RMK AO2
14837KMSN MSN20090619232009706/19/09 23:20:31  5-MIN KMSN 200520Z 00000KT 10SM SCT040 21/19 A2967 1100 93 2000 000/00 RMK AO2
14837KMSN MSN20090619232509706/19/09 23:25:31  5-MIN KMSN 200525Z 00000KT 10SM SCT040 21/19 A2967 1100 93 2000 000/00 RMK AO2
14837KMSN MSN20090619233009706/19/09 23:30:31  5-MIN KMSN 200530Z 00000KT 10SM SCT040 21/19 A2967 1100 93 2000 000/00 RMK AO2
14837KMSN MSN20090619233509706/19/09 23:35:31  5-MIN KMSN 200535Z 00000KT 10SM SCT040 21/19 A2967 1100 90 2100 000/00 RMK AO2
14837KMSN MSN20090619234009706/19/09 23:40:31  5-MIN KMSN 200540Z 00000KT 10SM SCT040 21/19 A2967 1100 90 2100 000/00 RMK AO2
14837KMSN MSN20090619234509706/19/09 23:45:31  5-MIN KMSN 200545Z 00000KT 10SM SCT110 21/19 A2967 1100 90 2100 000/00 RMK AO2
14837KMSN MSN20090619235014806/19/09 23:50:31  5-MIN KMSN 200550Z 00000KT 10SM SCT110 21/19 A2967 1100 93 2000 000/00 RMK AO2 SLP041 60006 T02060194 10244 20206 402890200 53015
14837KMSN MSN20090619235509706/19/09 23:55:31  5-MIN KMSN 200555Z 29003KT 10SM SCT110 21/19 A2967 1100 93 2000 280/03 RMK AO2
14837KMSN MSN20090620000009706/20/09 00:00:32  5-MIN KMSN 200600Z VRB03KT 10SM SCT110 21/19 A2967 1100 93 2000 VRB/03 RMK AO2
14837KMSN MSN20090620000509706/20/09 00:05:31  5-MIN KMSN 200605Z 00000KT 10SM SCT110 21/19 A2967 1090 93 2000 000/00 RMK AO2
14837KMSN MSN20090620001009706/20/09 00:10:31  5-MIN KMSN 200610Z 00000KT 10SM SCT110 21/19 A2967 1100 93 2000 000/00 RMK AO2
14837KMSN MSN20090620001509606/20/09 00:15:31  5-MIN KMSN 200615Z 00000KT 9SM SCT110 21/20 A2967 1100 93 2100 000/00 RMK AO2
14837KMSN MSN20090620002009606/20/09 00:20:31  5-MIN KMSN 200620Z VRB03KT 9SM SCT110 21/19 A2967 1100 93 2000 VRB/03 RMK AO2
14837KMSN MSN20090620002509606/20/09 00:25:31  5-MIN KMSN 200625Z 00000KT 9SM SCT110 21/19 A2967 1100 93 2000 000/00 RMK AO2
14837KMSN MSN20090620003009606/20/09 00:30:31  5-MIN KMSN 200630Z VRB03KT 9SM SCT110 21/19 A2967 1100 93 2000 VRB/03 RMK AO2
14837KMSN MSN20090620003509606/20/09 00:35:31  5-MIN KMSN 200635Z VRB03KT 9SM SCT110 21/19 A2967 1100 93 2000 VRB/03 RMK AO2
14837KMSN MSN20090620004009606/20/09 00:40:31  5-MIN KMSN 200640Z 27003KT 9SM SCT110 21/19 A2967 1100 93 2000 270/03 RMK AO2
14837KMSN MSN20090620004509606/20/09 00:45:31  5-MIN KMSN 200645Z VRB03KT 9SM SCT110 21/20 A2967 1100 97 2000 VRB/03 RMK AO2
14837KMSN MSN20090620005011306/20/09 00:50:31  5-MIN KMSN 200650Z VRB03KT 9SM SCT110 21/20 A2967 1100 97 2000 VRB/03 RMK AO2 SLP041 T02060200
14837KMSN MSN20090620005509306/20/09 00:55:31  5-MIN KMSN 200655Z 00000KT 9SM CLR 21/20 A2967 1100 97 2000 000/00 RMK AO2
14837KMSN MSN20090620010009306/20/09 01:00:31  5-MIN KMSN 200700Z VRB04KT 9SM CLR 21/20 A2967 1100 97 2000 VRB/04 RMK AO2
14837KMSN MSN20090620010509306/20/09 01:05:31  5-MIN KMSN 200705Z VRB03KT 8SM CLR 21/20 A2966 1100 97 2000 VRB/03 RMK AO2
14837KMSN MSN20090620011009306/20/09 01:10:31  5-MIN KMSN 200710Z 00000KT 8SM CLR 21/20 A2966 1100 97 2000 000/00 RMK AO2
14837KMSN MSN20090620011509306/20/09 01:15:31  5-MIN KMSN 200715Z VRB04KT 8SM CLR 21/20 A2966 1100 97 2000 VRB/04 RMK AO2
14837KMSN MSN20090620012009306/20/09 01:20:31  5-MIN KMSN 200720Z VRB03KT 8SM CLR 21/20 A2966 1100 97 2000 VRB/03 RMK AO2
14837KMSN MSN20090620012509306/20/09 01:25:31  5-MIN KMSN 200725Z VRB04KT 8SM CLR 21/19 A2966 1100 93 2000 VRB/04 RMK AO2
14837KMSN MSN20090620013009306/20/09 01:30:31  5-MIN KMSN 200730Z VRB05KT 8SM CLR 21/20 A2966 1100 97 2000 VRB/05 RMK AO2
14837KMSN MSN20090620013509306/20/09 01:35:31  5-MIN KMSN 200735Z VRB06KT 8SM CLR 21/20 A2966 1100 97 2000 VRB/06 RMK AO2
14837KMSN MSN20090620014009306/20/09 01:40:31  5-MIN KMSN 200740Z 28004KT 8SM CLR 21/20 A2966 1100 97 2000 280/04 RMK AO2
14837KMSN MSN20090620014509306/20/09 01:45:31  5-MIN KMSN 200745Z VRB03KT 8SM CLR 21/19 A2966 1100 93 2000 VRB/03 RMK AO2
14837KMSN MSN20090620015011006/20/09 01:50:31  5-MIN KMSN 200750Z 28004KT 8SM CLR 21/19 A2967 1100 93 2000 270/04 RMK AO2 SLP040 T02060194
14837KMSN MSN20090620015509306/20/09 01:55:31  5-MIN KMSN 200755Z 00000KT 8SM CLR 21/19 A2967 1100 93 2000 000/00 RMK AO2
14837KMSN MSN20090620020009306/20/09 02:00:31  5-MIN KMSN 200800Z VRB03KT 8SM CLR 21/19 A2967 1100 93 2000 VRB/03 RMK AO2
14837KMSN MSN20090620020509306/20/09 02:05:31  5-MIN KMSN 200805Z VRB03KT 7SM CLR 21/19 A2967 1100 93 2000 VRB/03 RMK AO2
14837KMSN MSN20090620021009306/20/09 02:10:31  5-MIN KMSN 200810Z 00000KT 7SM CLR 21/19 A2967 1100 93 2000 000/00 RMK AO2
14837KMSN MSN20090620021509306/20/09 02:15:31  5-MIN KMSN 200815Z VRB03KT 8SM CLR 21/19 A2967 1090 93 2000 VRB/03 RMK AO2
14837KMSN MSN20090620022009306/20/09 02:20:31  5-MIN KMSN 200820Z VRB03KT 8SM CLR 20/19 A2968 1090 97 2000 VRB/03 RMK AO2
14837KMSN MSN20090620022509306/20/09 02:25:31  5-MIN KMSN 200825Z VRB03KT 8SM CLR 20/19 A2968 1090 97 2000 VRB/03 RMK AO2
14837KMSN MSN20090620023009306/20/09 02:30:31  5-MIN KMSN 200830Z 31003KT 8SM CLR 20/19 A2968 1090 97 2000 310/03 RMK AO2
14837KMSN MSN20090620023509306/20/09 02:35:31  5-MIN KMSN 200835Z 00000KT 8SM CLR 20/19 A2968 1090 97 2000 000/00 RMK AO2
14837KMSN MSN20090620024009306/20/09 02:40:31  5-MIN KMSN 200840Z 00000KT 8SM CLR 20/19 A2968 1090 97 2000 000/00 RMK AO2
14837KMSN MSN20090620024509306/20/09 02:45:31  5-MIN KMSN 200845Z 00000KT 8SM CLR 20/19 A2968 1090 97 2000 000/00 RMK AO2
14837KMSN MSN20090620025011606/20/09 02:50:31  5-MIN KMSN 200850Z 29003KT 8SM CLR 20/19 A2968 1090 97 2000 290/03 RMK AO2 SLP045 T02000194 50008
14837KMSN MSN20090620025509306/20/09 02:55:31  5-MIN KMSN 200855Z 28003KT 8SM CLR 20/19 A2968 1090 93 2000 280/03 RMK AO2
14837KMSN MSN20090620030009306/20/09 03:00:31  5-MIN KMSN 200900Z VRB03KT 8SM CLR 20/19 A2969 1080 93 2000 VRB/03 RMK AO2
14837KMSN MSN20090620030509306/20/09 03:05:31  5-MIN KMSN 200905Z 00000KT 8SM CLR 20/19 A2969 1080 93 2000 000/00 RMK AO2
14837KMSN MSN20090620031009306/20/09 03:10:31  5-MIN KMSN 200910Z VRB03KT 8SM CLR 20/19 A2969 1080 93 2000 VRB/03 RMK AO2
14837KMSN MSN20090620031509306/20/09 03:15:31  5-MIN KMSN 200915Z VRB03KT 8SM CLR 20/19 A2969 1080 93 2000 VRB/03 RMK AO2
14837KMSN MSN20090620032009306/20/09 03:20:31  5-MIN KMSN 200920Z 00000KT 8SM CLR 20/19 A2969 1080 93 2000 000/00 RMK AO2
14837KMSN MSN20090620032509306/20/09 03:25:31  5-MIN KMSN 200925Z VRB03KT 8SM CLR 20/19 A2969 1080 93 1900 VRB/03 RMK AO2
14837KMSN MSN20090620033009306/20/09 03:30:31  5-MIN KMSN 200930Z 00000KT 8SM CLR 20/19 A2969 1080 93 1900 000/00 RMK AO2
14837KMSN MSN20090620033509306/20/09 03:35:31  5-MIN KMSN 200935Z VRB03KT 8SM CLR 20/19 A2969 1070 93 1900 VRB/03 RMK AO2
14837KMSN MSN20090620034009306/20/09 03:40:31  5-MIN KMSN 200940Z VRB03KT 9SM CLR 20/19 A2969 1070 93 1900 VRB/03 RMK AO2
14837KMSN MSN20090620034509306/20/09 03:45:31  5-MIN KMSN 200945Z VRB04KT 9SM CLR 20/19 A2970 1070 93 1900 VRB/04 RMK AO2
14837KMSN MSN20090620035011006/20/09 03:50:31  5-MIN KMSN 200950Z 29003KT 9SM CLR 20/19 A2970 1070 93 1900 290/03 RMK AO2 SLP050 T02000189
14837KMSN MSN20090620035509306/20/09 03:55:31  5-MIN KMSN 200955Z VRB04KT 9SM CLR 20/19 A2970 1070 93 1900 VRB/04 RMK AO2
14837KMSN MSN20090620040009306/20/09 04:00:31  5-MIN KMSN 201000Z 30004KT 9SM CLR 20/19 A2970 1070 93 1900 300/04 RMK AO2
14837KMSN MSN20090620040509406/20/09 04:05:31  5-MIN KMSN 201005Z 31004KT 10SM CLR 20/19 A2970 1060 93 1900 300/04 RMK AO2
14837KMSN MSN20090620041009406/20/09 04:10:31  5-MIN KMSN 201010Z 30005KT 10SM CLR 20/19 A2971 1060 93 1900 300/05 RMK AO2
14837KMSN MSN20090620041509306/20/09 04:15:31  5-MIN KMSN 201015Z VRB03KT 9SM CLR 20/19 A2971 1060 93 1900 VRB/03 RMK AO2
14837KMSN MSN20090620042009306/20/09 04:20:31  5-MIN KMSN 201020Z 28003KT 9SM CLR 20/19 A2972 1050 93 1900 280/03 RMK AO2
14837KMSN MSN20090620042509306/20/09 04:25:31  5-MIN KMSN 201025Z VRB03KT 8SM CLR 20/18 A2972 1050 90 1900 VRB/03 RMK AO2
14837KMSN MSN20090620043009306/20/09 04:30:31  5-MIN KMSN 201030Z VRB03KT 8SM CLR 20/18 A2972 1050 90 1900 VRB/03 RMK AO2
14837KMSN MSN20090620043509306/20/09 04:35:31  5-MIN KMSN 201035Z 00000KT 8SM CLR 20/18 A2972 1050 90 1900 000/00 RMK AO2
14837KMSN MSN20090620044009306/20/09 04:40:31  5-MIN KMSN 201040Z 00000KT 8SM CLR 20/18 A2973 1040 90 1900 000/00 RMK AO2
14837KMSN MSN20090620044509306/20/09 04:45:31  5-MIN KMSN 201045Z 00000KT 8SM CLR 20/18 A2973 1040 90 1900 000/00 RMK AO2
14837KMSN MSN20090620045011006/20/09 04:50:31  5-MIN KMSN 201050Z 00000KT 8SM CLR 20/18 A2973 1040 90 1900 000/00 RMK AO2 SLP062 T02000183
14837KMSN MSN20090620045509306/20/09 04:55:31  5-MIN KMSN 201055Z 00000KT 8SM CLR 20/18 A2973 1040 90 1900 000/00 RMK AO2
14837KMSN MSN20090620050009306/20/09 05:00:31  5-MIN KMSN 201100Z 00000KT 8SM CLR 20/18 A2974 1030 90 1900 000/00 RMK AO2
14837KMSN MSN20090620050509306/20/09 05:05:31  5-MIN KMSN 201105Z 00000KT 8SM CLR 20/18 A2974 1030 90 1900 000/00 RMK AO2
14837KMSN MSN20090620051009306/20/09 05:10:31  5-MIN KMSN 201110Z 28003KT 8SM CLR 20/19 A2974 1030 93 1900 280/03 RMK AO2
14837KMSN MSN20090620051509306/20/09 05:15:31  5-MIN KMSN 201115Z VRB03KT 8SM CLR 20/19 A2974 1030 93 1900 VRB/03 RMK AO2
14837KMSN MSN20090620052009306/20/09 05:20:31  5-MIN KMSN 201120Z 28003KT 8SM CLR 20/19 A2974 1030 93 1900 280/03 RMK AO2
14837KMSN MSN20090620052509306/20/09 05:25:31  5-MIN KMSN 201125Z 29003KT 8SM CLR 21/19 A2974 1030 90 2000 290/03 RMK AO2
14837KMSN MSN20090620053009306/20/09 05:30:31  5-MIN KMSN 201130Z VRB03KT 8SM CLR 21/19 A2974 1030 90 2000 VRB/03 RMK AO2
14837KMSN MSN20090620053509306/20/09 05:35:31  5-MIN KMSN 201135Z 00000KT 8SM CLR 21/19 A2975 1030 90 1900 000/00 RMK AO2
14837KMSN MSN20090620054009306/20/09 05:40:31  5-MIN KMSN 201140Z VRB03KT 8SM CLR 21/19 A2975 1020 90 1900 VRB/03 RMK AO2
14837KMSN MSN20090620054509306/20/09 05:45:31  5-MIN KMSN 201145Z 00000KT 8SM CLR 21/19 A2975 1020 90 1900 000/00 RMK AO2
14837KMSN MSN20090620055013406/20/09 05:50:31  5-MIN KMSN 201150Z 28004KT 8SM CLR 21/19 A2975 1020 90 1900 280/04 RMK AO2 SLP070 70013 T02060189 10211 20200 53004
14837KMSN MSN20090620055509306/20/09 05:55:31  5-MIN KMSN 201155Z VRB03KT 8SM CLR 21/19 A2976 1020 90 1900 VRB/03 RMK AO2
14837KMSN MSN20090620060009306/20/09 06:00:31  5-MIN KMSN 201200Z 28004KT 9SM CLR 21/19 A2976 1020 90 1900 280/04 RMK AO2
14837KMSN MSN20090620060509306/20/09 06:05:31  5-MIN KMSN 201205Z VRB03KT 8SM CLR 21/19 A2976 1010 87 2000 VRB/03 RMK AO2
14837KMSN MSN20090620061009306/20/09 06:10:31  5-MIN KMSN 201210Z 29004KT 9SM CLR 21/19 A2976 1010 87 2000 290/04 RMK AO2
14837KMSN MSN20090620061509306/20/09 06:15:31  5-MIN KMSN 201215Z VRB04KT 9SM CLR 21/19 A2976 1010 87 2000 VRB/04 RMK AO2
14837KMSN MSN20090620062009306/20/09 06:20:31  5-MIN KMSN 201220Z VRB04KT 9SM CLR 21/19 A2976 1010 87 2000 VRB/04 RMK AO2
14837KMSN MSN20090620062509306/20/09 06:25:31  5-MIN KMSN 201225Z VRB04KT 9SM CLR 21/19 A2976 1010 87 2000 VRB/04 RMK AO2
14837KMSN MSN20090620063009306/20/09 06:30:31  5-MIN KMSN 201230Z 29004KT 9SM CLR 22/19 A2976 1010 84 2100 290/04 RMK AO2
14837KMSN MSN20090620063509406/20/09 06:35:31  5-MIN KMSN 201235Z 29007KT 10SM CLR 22/19 A2977 1010 84 2100 290/07 RMK AO2
14837KMSN MSN20090620064009406/20/09 06:40:31  5-MIN KMSN 201240Z 28006KT 10SM CLR 22/19 A2977 1010 84 2100 280/06 RMK AO2
14837KMSN MSN20090620064509406/20/09 06:45:31  5-MIN KMSN 201245Z VRB05KT 10SM CLR 22/19 A2977 1010 84 2100 VRB/05 RMK AO2
14837KMSN MSN20090620065011106/20/09 06:50:31  5-MIN KMSN 201250Z 29007KT 10SM CLR 22/19 A2977 1000 81 2100 290/07 RMK AO2 SLP075 T02220189
14837KMSN MSN20090620065509406/20/09 06:55:31  5-MIN KMSN 201255Z 30005KT 10SM CLR 22/19 A2977 1000 81 2100 300/05 RMK AO2
14837KMSN MSN20090620070009406/20/09 07:00:31  5-MIN KMSN 201300Z 31005KT 10SM CLR 22/19 A2977 1000 81 2100 310/05 RMK AO2
14837KMSN MSN20090620070509406/20/09 07:05:31  5-MIN KMSN 201305Z 31005KT 10SM CLR 22/19 A2977 1000 81 2100 300/05 RMK AO2
14837KMSN MSN20090620071009406/20/09 07:10:31  5-MIN KMSN 201310Z 30005KT 10SM CLR 23/19 A2978 1000 78 2200 300/05 RMK AO2
14837KMSN MSN20090620071509406/20/09 07:15:31  5-MIN KMSN 201315Z 30005KT 10SM CLR 23/19 A2978 1000 78 2200 300/05 RMK AO2
14837KMSN MSN20090620072009406/20/09 07:20:31  5-MIN KMSN 201320Z 30005KT 10SM CLR 23/19 A2978 1000 81 2200 300/05 RMK AO2
14837KMSN MSN20090620072509406/20/09 07:25:31  5-MIN KMSN 201325Z 31004KT 10SM CLR 23/19 A2978 1000 78 2200 310/04 RMK AO2
14837KMSN MSN20090620073009406/20/09 07:30:31  5-MIN KMSN 201330Z VRB03KT 10SM CLR 23/19 A2978 1000 76 2200 VRB/03 RMK AO2
14837KMSN MSN20090620073509306/20/09 07:35:31  5-MIN KMSN 201335Z 27007KT 10SM CLR 23/19 A2978 990 76 2200 270/07 RMK AO2
14837KMSN MSN20090620074009306/20/09 07:40:31  5-MIN KMSN 201340Z VRB05KT 10SM CLR 23/19 A2978 990 78 2200 VRB/05 RMK AO2
14837KMSN MSN20090620074509306/20/09 07:45:31  5-MIN KMSN 201345Z VRB04KT 10SM CLR 23/19 A2978 990 76 2200 VRB/04 RMK AO2
14837KMSN MSN20090620075011006/20/09 07:50:31  5-MIN KMSN 201350Z 30007KT 10SM CLR 23/19 A2978 990 76 2200 300/07 RMK AO2 SLP080 T02330189
14837KMSN MSN20090620075509306/20/09 07:55:31  5-MIN KMSN 201355Z VRB04KT 10SM CLR 24/19 A2979 990 73 2300 VRB/04 RMK AO2
14837KMSN MSN20090620080009306/20/09 08:00:31  5-MIN KMSN 201400Z VRB05KT 10SM CLR 24/19 A2979 990 76 2300 VRB/05 RMK AO2
14837KMSN MSN20090620080509306/20/09 08:05:31  5-MIN KMSN 201405Z 31004KT 10SM CLR 24/19 A2979 990 73 2300 310/04 RMK AO2
14837KMSN MSN20090620081009306/20/09 08:10:31  5-MIN KMSN 201410Z 33008KT 10SM CLR 24/19 A2979 990 73 2300 330/08 RMK AO2
14837KMSN MSN20090620081509306/20/09 08:15:31  5-MIN KMSN 201415Z 31006KT 10SM CLR 24/19 A2979 990 73 2300 310/06 RMK AO2
14837KMSN MSN20090620082009306/20/09 08:20:31  5-MIN KMSN 201420Z 31007KT 10SM CLR 24/19 A2979 980 73 2300 310/07 RMK AO2
14837KMSN MSN20090620082509306/20/09 08:25:31  5-MIN KMSN 201425Z 33005KT 10SM CLR 24/19 A2979 990 73 2300 330/05 RMK AO2
14837KMSN MSN20090620083009306/20/09 08:30:31  5-MIN KMSN 201430Z 31005KT 10SM CLR 24/19 A2979 990 73 2300 310/05 RMK AO2
14837KMSN MSN20090620083509306/20/09 08:35:31  5-MIN KMSN 201435Z 30007KT 10SM CLR 24/19 A2979 990 73 2300 300/07 RMK AO2
14837KMSN MSN20090620084009306/20/09 08:40:31  5-MIN KMSN 201440Z 31007KT 10SM CLR 24/19 A2979 990 71 2300 310/07 RMK AO2
14837KMSN MSN20090620084509306/20/09 08:45:31  5-MIN KMSN 201445Z 31005KT 10SM CLR 25/19 A2979 990 71 2400 310/05 RMK AO2
14837KMSN MSN20090620085011906/20/09 08:50:31  5-MIN KMSN 201450Z 31007KT 10SM FEW025 25/19 A2979 990 68 2400 310/07 RMK AO2 SLP082 T02500189 53024
14837KMSN MSN20090620085509606/20/09 08:55:31  5-MIN KMSN 201455Z 31005KT 10SM FEW025 25/19 A2979 990 68 2400 310/05 RMK AO2
14837KMSN MSN20090620090011206/20/09 09:00:31  5-MIN KMSN 201500Z 31007KT 260V320 10SM FEW025 26/19 A2979 990 68 2500 310/07 260V320 RMK AO2
14837KMSN MSN20090620090509606/20/09 09:05:31  5-MIN KMSN 201505Z 33010KT 10SM FEW025 26/19 A2979 990 68 2500 330/10 RMK AO2
14837KMSN MSN20090620091009606/20/09 09:10:31  5-MIN KMSN 201510Z 30006KT 10SM FEW025 25/19 A2979 990 68 2400 300/06 RMK AO2
14837KMSN MSN20090620091509606/20/09 09:15:31  5-MIN KMSN 201515Z 32005KT 10SM FEW025 25/19 A2979 990 68 2400 320/05 RMK AO2
14837KMSN MSN20090620092009606/20/09 09:20:31  5-MIN KMSN 201520Z 29007KT 10SM FEW025 26/19 A2979 990 68 2500 290/07 RMK AO2
14837KMSN MSN20090620092509606/20/09 09:25:31  5-MIN KMSN 201525Z 30006KT 10SM FEW025 26/19 A2979 980 68 2500 300/06 RMK AO2
14837KMSN MSN20090620093009606/20/09 09:30:31  5-MIN KMSN 201530Z VRB05KT 10SM FEW025 26/19 A2979 980 68 2500 VRB/05 RMK AO2
14837KMSN MSN20090620093509606/20/09 09:35:31  5-MIN KMSN 201535Z 28006KT 10SM FEW025 26/19 A2979 980 68 2500 280/06 RMK AO2
14837KMSN MSN20090620094009606/20/09 09:40:31  5-MIN KMSN 201540Z 30005KT 10SM SCT026 26/19 A2979 980 66 2500 300/05 RMK AO2
14837KMSN MSN20090620094509606/20/09 09:45:31  5-MIN KMSN 201545Z 33004KT 10SM SCT026 26/19 A2979 990 66 2500 330/04 RMK AO2
14837KMSN MSN20090620095011306/20/09 09:50:31  5-MIN KMSN 201550Z 30008KT 10SM SCT028 26/19 A2979 990 66 2500 290/08 RMK AO2 SLP082 T02610194
14837KMSN MSN20090620095509606/20/09 09:55:31  5-MIN KMSN 201555Z 27006KT 10SM SCT028 26/19 A2979 990 64 2500 270/06 RMK AO2
14837KMSN MSN20090620100009606/20/09 10:00:31  5-MIN KMSN 201600Z 27005KT 10SM SCT028 26/19 A2979 980 66 2500 270/05 RMK AO2
14837KMSN MSN20090620100509606/20/09 10:05:31  5-MIN KMSN 201605Z VRB06KT 10SM SCT028 26/19 A2979 980 66 2500 VRB/06 RMK AO2
14837KMSN MSN20090620101009606/20/09 10:10:31  5-MIN KMSN 201610Z 33006KT 10SM SCT028 27/19 A2979 980 64 2600 330/06 RMK AO2
14837KMSN MSN20090620101509606/20/09 10:15:31  5-MIN KMSN 201615Z 28006KT 10SM SCT028 27/19 A2980 980 64 2600 280/06 RMK AO2
14837KMSN MSN20090620102009606/20/09 10:20:31  5-MIN KMSN 201620Z VRB05KT 10SM SCT028 27/19 A2979 980 62 2600 VRB/05 RMK AO2
14837KMSN MSN20090620102509606/20/09 10:25:31  5-MIN KMSN 201625Z VRB05KT 10SM FEW030 27/19 A2979 980 62 2600 VRB/05 RMK AO2
14837KMSN MSN20090620103009606/20/09 10:30:31  5-MIN KMSN 201630Z VRB04KT 10SM FEW030 27/19 A2979 980 62 2600 VRB/04 RMK AO2
14837KMSN MSN20090620103509606/20/09 10:35:31  5-MIN KMSN 201635Z 31004KT 10SM FEW030 27/19 A2979 980 60 2600 310/04 RMK AO2
14837KMSN MSN20090620104009606/20/09 10:40:31  5-MIN KMSN 201640Z 31006KT 10SM FEW035 27/19 A2979 980 60 2600 310/06 RMK AO2
14837KMSN MSN20090620104509606/20/09 10:45:31  5-MIN KMSN 201645Z 32006KT 10SM FEW037 27/19 A2979 980 60 2600 320/06 RMK AO2
14837KMSN MSN20090620105011306/20/09 10:50:31  5-MIN KMSN 201650Z VRB04KT 10SM FEW037 27/19 A2980 980 60 2600 VRB/04 RMK AO2 SLP084 T02720189
14837KMSN MSN20090620105509606/20/09 10:55:31  5-MIN KMSN 201655Z 31007KT 10SM FEW037 28/19 A2980 980 60 2700 310/07 RMK AO2
14837KMSN MSN20090620110009606/20/09 11:00:31  5-MIN KMSN 201700Z VRB05KT 10SM FEW037 27/18 A2980 980 58 2600 VRB/05 RMK AO2
14837KMSN MSN20090620110509606/20/09 11:05:31  5-MIN KMSN 201705Z 30006KT 10SM FEW037 27/18 A2980 980 58 2600 290/06 RMK AO2
14837KMSN MSN20090620111009606/20/09 11:10:31  5-MIN KMSN 201710Z 30008KT 10SM FEW037 28/18 A2980 980 56 2700 290/08 RMK AO2
14837KMSN MSN20090620111509606/20/09 11:15:31  5-MIN KMSN 201715Z 30005KT 10SM FEW037 27/17 A2980 980 54 2600 290/05 RMK AO2
14837KMSN MSN20090620112009306/20/09 11:20:31  5-MIN KMSN 201720Z VRB06KT 10SM CLR 28/18 A2980 980 54 2700 VRB/06 RMK AO2
14837KMSN MSN20090620112509306/20/09 11:25:31  5-MIN KMSN 201725Z 29007KT 10SM CLR 27/18 A2980 980 58 2600 290/07 RMK AO2
14837KMSN MSN20090620113009306/20/09 11:30:31  5-MIN KMSN 201730Z 30008KT 10SM CLR 28/19 A2980 980 58 2700 300/08 RMK AO2
14837KMSN MSN20090620113509606/20/09 11:35:31  5-MIN KMSN 201735Z 29007KT 10SM FEW040 28/18 A2980 980 56 2700 290/07 RMK AO2
14837KMSN MSN20090620114009606/20/09 11:40:31  5-MIN KMSN 201740Z VRB06KT 10SM FEW040 28/18 A2980 980 54 2700 VRB/06 RMK AO2
14837KMSN MSN20090620114509606/20/09 11:45:31  5-MIN KMSN 201745Z VRB06KT 10SM FEW040 28/17 A2980 980 52 2700 VRB/06 RMK AO2
14837KMSN MSN20090620115013106/20/09 11:50:31  5-MIN KMSN 201750Z VRB06KT 10SM FEW040 28/18 A2980 980 54 2700 VRB/06 RMK AO2 SLP086 T02780178 10278 20206 51012
14837KMSN MSN20090620115509606/20/09 11:55:31  5-MIN KMSN 201755Z VRB06KT 10SM SCT040 28/18 A2980 980 54 2700 VRB/06 RMK AO2
14837KMSN MSN20090620120009606/20/09 12:00:31  5-MIN KMSN 201800Z 31007KT 10SM SCT040 28/18 A2980 980 54 2800 310/07 RMK AO2
14837KMSN MSN20090620120509606/20/09 12:05:31  5-MIN KMSN 201805Z 32008KT 10SM SCT040 28/18 A2980 980 56 2700 320/08 RMK AO2
14837KMSN MSN20090620121009606/20/09 12:10:31  5-MIN KMSN 201810Z 30005KT 10SM SCT040 28/18 A2980 980 54 2800 300/05 RMK AO2
14837KMSN MSN20090620121511206/20/09 12:15:31  5-MIN KMSN 201815Z 25007KT 210V300 10SM SCT040 28/18 A2980 970 54 2800 250/07 210V300 RMK AO2
14837KMSN MSN20090620122009606/20/09 12:20:31  5-MIN KMSN 201820Z VRB06KT 10SM SCT040 28/18 A2980 980 54 2700 VRB/06 RMK AO2
14837KMSN MSN20090620122509606/20/09 12:25:31  5-MIN KMSN 201825Z 31007KT 10SM SCT040 28/18 A2980 970 56 2700 310/07 RMK AO2
14837KMSN MSN20090620123009606/20/09 12:30:31  5-MIN KMSN 201830Z VRB06KT 10SM SCT040 28/19 A2980 980 56 2800 VRB/06 RMK AO2
14837KMSN MSN20090620123509606/20/09 12:35:31  5-MIN KMSN 201835Z 29004KT 10SM SCT040 28/18 A2980 970 54 2800 290/04 RMK AO2
14837KMSN MSN20090620124009606/20/09 12:40:31  5-MIN KMSN 201840Z 30007KT 10SM SCT040 28/19 A2980 980 56 2800 300/07 RMK AO2
14837KMSN MSN20090620124509606/20/09 12:45:31  5-MIN KMSN 201845Z 31006KT 10SM SCT040 28/19 A2980 980 56 2800 310/06 RMK AO2
14837KMSN MSN20090620125012906/20/09 12:50:31  5-MIN KMSN 201850Z 26007KT 230V290 10SM SCT040 28/19 A2980 980 56 2800 250/07 230V290 RMK AO2 SLP086 T02830189
14837KMSN MSN20090620125511206/20/09 12:55:31  5-MIN KMSN 201855Z 26007KT 200V290 10SM BKN043 28/18 A2980 980 54 2800 260/07 200V290 RMK AO2
14837KMSN MSN20090620130009606/20/09 13:00:31  5-MIN KMSN 201900Z 00000KT 10SM BKN043 28/18 A2980 980 52 2800 000/00 RMK AO2
14837KMSN MSN20090620130509606/20/09 13:05:31  5-MIN KMSN 201905Z VRB06KT 10SM BKN043 28/19 A2980 980 56 2800 VRB/06 RMK AO2
14837KMSN MSN20090620131009606/20/09 13:10:31  5-MIN KMSN 201910Z VRB06KT 10SM SCT043 29/19 A2979 980 54 2800 VRB/06 RMK AO2
14837KMSN MSN20090620131509606/20/09 13:15:31  5-MIN KMSN 201915Z 34007KT 10SM SCT043 28/19 A2979 980 56 2800 340/07 RMK AO2
14837KMSN MSN20090620132009606/20/09 13:20:31  5-MIN KMSN 201920Z 29008KT 10SM SCT043 29/19 A2979 980 54 2800 290/08 RMK AO2
14837KMSN MSN20090620132509606/20/09 13:25:31  5-MIN KMSN 201925Z 31007KT 10SM SCT043 29/19 A2979 980 54 2800 310/07 RMK AO2
14837KMSN MSN20090620133009606/20/09 13:30:31  5-MIN KMSN 201930Z 31006KT 10SM SCT043 29/19 A2979 980 54 2800 310/06 RMK AO2
14837KMSN MSN20090620133509606/20/09 13:35:31  5-MIN KMSN 201935Z VRB05KT 10SM SCT043 28/18 A2979 980 54 2800 VRB/05 RMK AO2
14837KMSN MSN20090620134009606/20/09 13:40:31  5-MIN KMSN 201940Z 29008KT 10SM SCT043 29/18 A2979 980 52 2800 280/08 RMK AO2
14837KMSN MSN20090620134509606/20/09 13:45:31  5-MIN KMSN 201945Z 30007KT 10SM SCT043 29/19 A2979 990 54 2800 290/07 RMK AO2
14837KMSN MSN20090620135011306/20/09 13:50:31  5-MIN KMSN 201950Z 30006KT 10SM SCT045 29/18 A2979 980 52 2800 300/06 RMK AO2 SLP081 T02890183
14837KMSN MSN20090620135509606/20/09 13:55:31  5-MIN KMSN 201955Z 29008KT 10SM SCT045 29/18 A2979 990 50 2800 290/08 RMK AO2
14837KMSN MSN20090620140009606/20/09 14:00:31  5-MIN KMSN 202000Z 29006KT 10SM SCT045 29/18 A2979 990 50 2800 290/06 RMK AO2
14837KMSN MSN20090620140509606/20/09 14:05:31  5-MIN KMSN 202005Z 30006KT 10SM SCT045 29/18 A2979 990 50 2800 290/06 RMK AO2
14837KMSN MSN20090620141010206/20/09 14:10:31  5-MIN KMSN 202010Z 30007G14KT 10SM SCT045 29/18 A2979 990 50 2800 300/07G14 RMK AO2
14837KMSN MSN20090620141510206/20/09 14:15:31  5-MIN KMSN 202015Z VRB06G14KT 10SM SCT045 29/18 A2979 990 50 2800 VRB/06G14 RMK AO2
14837KMSN MSN20090620142009606/20/09 14:20:31  5-MIN KMSN 202020Z 31008KT 10SM SCT045 29/18 A2979 980 49 2900 310/08 RMK AO2
14837KMSN MSN20090620142509606/20/09 14:25:31  5-MIN KMSN 202025Z 33007KT 10SM SCT045 28/17 A2979 980 50 2800 330/07 RMK AO2
14837KMSN MSN20090620143011206/20/09 14:30:31  5-MIN KMSN 202030Z 28007KT 240V320 10SM SCT045 29/18 A2979 980 49 2900 280/07 240V320 RMK AO2
14837KMSN MSN20090620143509606/20/09 14:35:31  5-MIN KMSN 202035Z 33007KT 10SM SCT045 29/17 A2979 990 47 2900 330/07 RMK AO2
14837KMSN MSN20090620144009606/20/09 14:40:31  5-MIN KMSN 202040Z 30007KT 10SM SCT045 29/18 A2979 990 49 2900 300/07 RMK AO2
14837KMSN MSN20090620144509606/20/09 14:45:31  5-MIN KMSN 202045Z 29007KT 10SM SCT045 29/17 A2979 980 47 2900 280/07 RMK AO2
14837KMSN MSN20090620145013506/20/09 14:50:31  5-MIN KMSN 202050Z 29007KT 250V310 10SM SCT045 29/18 A2979 980 49 2900 290/07 250V310 RMK AO2 SLP082 T02940178 53003
14837KMSN MSN20090620145509606/20/09 14:55:31  5-MIN KMSN 202055Z 32006KT 10SM FEW055 29/17 A2979 990 48 2800 310/06 RMK AO2
14837KMSN MSN20090620150009606/20/09 15:00:31  5-MIN KMSN 202100Z 34005KT 10SM SCT055 29/18 A2979 990 50 2800 330/05 RMK AO2
14837KMSN MSN20090620150509606/20/09 15:05:31  5-MIN KMSN 202105Z 30007KT 10SM FEW055 29/17 A2979 990 47 2900 300/07 RMK AO2
14837KMSN MSN20090620151009606/20/09 15:10:31  5-MIN KMSN 202110Z 33008KT 10SM FEW060 29/17 A2979 990 45 2900 330/08 RMK AO2
14837KMSN MSN20090620151509606/20/09 15:15:31  5-MIN KMSN 202115Z 30007KT 10SM FEW060 29/17 A2979 990 47 2900 300/07 RMK AO2
14837KMSN MSN20090620152009606/20/09 15:20:31  5-MIN KMSN 202120Z 29006KT 10SM FEW060 29/17 A2979 990 45 2900 290/06 RMK AO2
14837KMSN MSN20090620152509606/20/09 15:25:31  5-MIN KMSN 202125Z VRB04KT 10SM FEW060 30/17 A2979 980 45 3000 VRB/04 RMK AO2
14837KMSN MSN20090620153009606/20/09 15:30:31  5-MIN KMSN 202130Z 35006KT 10SM FEW060 30/17 A2979 980 45 3000 350/06 RMK AO2
14837KMSN MSN20090620153509606/20/09 15:35:31  5-MIN KMSN 202135Z 32005KT 10SM FEW060 30/18 A2979 980 47 3000 320/05 RMK AO2
14837KMSN MSN20090620154009606/20/09 15:40:31  5-MIN KMSN 202140Z 31005KT 10SM FEW055 29/17 A2979 980 48 2800 310/05 RMK AO2
14837KMSN MSN20090620154509606/20/09 15:45:31  5-MIN KMSN 202145Z 30008KT 10SM FEW055 29/17 A2979 980 47 2900 300/08 RMK AO2
14837KMSN MSN20090620155011306/20/09 15:50:31  5-MIN KMSN 202150Z 30006KT 10SM FEW055 29/17 A2979 980 48 2800 300/06 RMK AO2 SLP084 T02890172
14837KMSN MSN20090620155509506/20/09 15:55:31  5-MIN KMSN 202155Z VRB06KT 8SM FEW055 29/18 A2979 980 49 2900 VRB/06 RMK AO2
14837KMSN MSN20090620160009506/20/09 16:00:31  5-MIN KMSN 202200Z 32006KT 8SM FEW055 29/18 A2979 980 50 2800 320/06 RMK AO2
14837KMSN MSN20090620160509606/20/09 16:05:31  5-MIN KMSN 202205Z 34005KT 10SM SCT060 28/17 A2979 980 50 2800 340/05 RMK AO2
14837KMSN MSN20090620161009606/20/09 16:10:31  5-MIN KMSN 202210Z 35005KT 10SM BKN060 29/18 A2979 980 50 2800 350/05 RMK AO2
14837KMSN MSN20090620161509606/20/09 16:15:31  5-MIN KMSN 202215Z 35006KT 10SM BKN060 29/18 A2979 990 52 2800 350/06 RMK AO2
14837KMSN MSN20090620162009606/20/09 16:20:31  5-MIN KMSN 202220Z 32007KT 10SM SCT060 29/18 A2979 990 49 2900 320/07 RMK AO2
14837KMSN MSN20090620162509606/20/09 16:25:31  5-MIN KMSN 202225Z 31005KT 10SM SCT060 29/17 A2979 980 47 2800 310/05 RMK AO2
14837KMSN MSN20090620163009606/20/09 16:30:31  5-MIN KMSN 202230Z 29005KT 10SM SCT060 28/17 A2979 980 48 2800 290/05 RMK AO2
14837KMSN MSN20090620163509606/20/09 16:35:31  5-MIN KMSN 202235Z 33005KT 10SM SCT060 29/17 A2979 980 47 2800 330/05 RMK AO2
14837KMSN MSN20090620164009606/20/09 16:40:31  5-MIN KMSN 202240Z 34006KT 10SM FEW060 29/17 A2979 980 48 2800 340/06 RMK AO2
14837KMSN MSN20090620164509606/20/09 16:45:31  5-MIN KMSN 202245Z 33006KT 10SM FEW060 29/18 A2979 980 50 2800 330/06 RMK AO2
14837KMSN MSN20090620165011306/20/09 16:50:31  5-MIN KMSN 202250Z 34005KT 10SM FEW060 29/17 A2980 980 48 2800 340/05 RMK AO2 SLP084 T02890172
14837KMSN MSN20090620165509606/20/09 16:55:31  5-MIN KMSN 202255Z 32006KT 10SM FEW060 29/17 A2980 980 47 2800 320/06 RMK AO2
14837KMSN MSN20090620170009606/20/09 17:00:31  5-MIN KMSN 202300Z 33004KT 10SM FEW060 29/17 A2980 980 48 2800 330/04 RMK AO2
14837KMSN MSN20090620170509606/20/09 17:05:31  5-MIN KMSN 202305Z 34006KT 10SM FEW060 29/17 A2980 980 48 2800 340/06 RMK AO2
14837KMSN MSN20090620171009606/20/09 17:10:31  5-MIN KMSN 202310Z 34005KT 10SM FEW060 29/17 A2979 980 47 2800 330/05 RMK AO2
14837KMSN MSN20090620171509606/20/09 17:15:31  5-MIN KMSN 202315Z 33003KT 10SM FEW060 29/17 A2979 980 48 2800 330/03 RMK AO2
14837KMSN MSN20090620172009606/20/09 17:20:31  5-MIN KMSN 202320Z 33005KT 10SM FEW060 29/17 A2979 980 48 2800 330/05 RMK AO2
14837KMSN MSN20090620172509606/20/09 17:25:31  5-MIN KMSN 202325Z 32007KT 10SM FEW060 29/17 A2979 980 47 2800 320/07 RMK AO2
14837KMSN MSN20090620173009606/20/09 17:30:31  5-MIN KMSN 202330Z 32007KT 10SM FEW060 29/17 A2980 980 47 2800 320/07 RMK AO2
14837KMSN MSN20090620173509606/20/09 17:35:31  5-MIN KMSN 202335Z 31006KT 10SM FEW060 28/16 A2980 980 47 2800 310/06 RMK AO2
14837KMSN MSN20090620174009606/20/09 17:40:31  5-MIN KMSN 202340Z 32005KT 10SM FEW060 28/17 A2980 980 48 2800 320/05 RMK AO2
14837KMSN MSN20090620174509606/20/09 17:45:31  5-MIN KMSN 202345Z 31003KT 10SM FEW060 28/17 A2980 970 48 2800 310/03 RMK AO2
14837KMSN MSN20090620175013106/20/09 17:50:31  5-MIN KMSN 202350Z 00000KT 10SM FEW060 28/17 A2980 970 48 2800 000/00 RMK AO2 SLP087 T02830167 10300 20278 57003
14837KMSN MSN20090620175509306/20/09 17:55:31  5-MIN KMSN 202355Z 33003KT 10SM CLR 29/17 A2981 970 48 2800 330/03 RMK AO2
14837KMSN MSN20090620180009306/20/09 18:00:31  5-MIN KMSN 210000Z 34004KT 10SM CLR 28/17 A2981 970 50 2800 340/04 RMK AO2
14837KMSN MSN20090620180509306/20/09 18:05:31  5-MIN KMSN 210005Z 00000KT 10SM CLR 28/18 A2981 970 52 2800 000/00 RMK AO2
14837KMSN MSN20090620181009306/20/09 18:10:31  5-MIN KMSN 210010Z 00000KT 10SM CLR 28/18 A2981 970 54 2700 000/00 RMK AO2
14837KMSN MSN20090620181509306/20/09 18:15:31  5-MIN KMSN 210015Z 00000KT 10SM CLR 28/17 A2981 970 50 2800 000/00 RMK AO2
14837KMSN MSN20090620182009306/20/09 18:20:31  5-MIN KMSN 210020Z 00000KT 10SM CLR 28/18 A2981 970 54 2700 000/00 RMK AO2
14837KMSN MSN20090620182509306/20/09 18:25:31  5-MIN KMSN 210025Z 00000KT 10SM CLR 28/18 A2981 970 54 2700 000/00 RMK AO2
14837KMSN MSN20090620183009306/20/09 18:30:31  5-MIN KMSN 210030Z 00000KT 10SM CLR 28/17 A2981 970 52 2700 000/00 RMK AO2
14837KMSN MSN20090620183509306/20/09 18:35:31  5-MIN KMSN 210035Z 00000KT 10SM CLR 27/18 A2981 970 57 2600 000/00 RMK AO2
14837KMSN MSN20090620184009306/20/09 18:40:31  5-MIN KMSN 210040Z 00000KT 10SM CLR 26/18 A2981 970 62 2500 000/00 RMK AO2
14837KMSN MSN20090620184509306/20/09 18:45:31  5-MIN KMSN 210045Z 00000KT 10SM CLR 26/18 A2981 970 59 2500 000/00 RMK AO2
14837KMSN MSN20090620185011006/20/09 18:50:31  5-MIN KMSN 210050Z 00000KT 10SM CLR 26/18 A2981 970 64 2400 000/00 RMK AO2 SLP088 T02560183
14837KMSN MSN20090620185509306/20/09 18:55:31  5-MIN KMSN 210055Z 00000KT 10SM CLR 25/19 A2981 970 68 2400 000/00 RMK AO2
14837KMSN MSN20090620190009306/20/09 19:00:31  5-MIN KMSN 210100Z 00000KT 10SM CLR 25/19 A2981 970 68 2400 000/00 RMK AO2
14837KMSN MSN20090620190509306/20/09 19:05:31  5-MIN KMSN 210105Z 00000KT 10SM CLR 25/19 A2981 970 68 2400 000/00 RMK AO2
14837KMSN MSN20090620191009306/20/09 19:10:31  5-MIN KMSN 210110Z 00000KT 10SM CLR 25/18 A2981 970 66 2400 000/00 RMK AO2
14837KMSN MSN20090620191509306/20/09 19:15:31  5-MIN KMSN 210115Z 00000KT 10SM CLR 24/19 A2981 970 73 2300 000/00 RMK AO2
14837KMSN MSN20090620192009306/20/09 19:20:31  5-MIN KMSN 210120Z 00000KT 10SM CLR 24/19 A2981 960 73 2300 000/00 RMK AO2
14837KMSN MSN20090620192509306/20/09 19:25:31  5-MIN KMSN 210125Z 00000KT 10SM CLR 24/19 A2981 960 71 2300 000/00 RMK AO2
14837KMSN MSN20090620193009306/20/09 19:30:31  5-MIN KMSN 210130Z 00000KT 10SM CLR 24/19 A2981 960 73 2300 000/00 RMK AO2
14837KMSN MSN20090620193509306/20/09 19:35:31  5-MIN KMSN 210135Z 00000KT 10SM CLR 24/19 A2982 960 71 2300 000/00 RMK AO2
14837KMSN MSN20090620194009306/20/09 19:40:31  5-MIN KMSN 210140Z 28003KT 10SM CLR 24/19 A2982 960 71 2300 280/03 RMK AO2
14837KMSN MSN20090620194509306/20/09 19:45:31  5-MIN KMSN 210145Z 00000KT 10SM CLR 24/18 A2982 960 68 2300 000/00 RMK AO2
14837KMSN MSN20090620195011006/20/09 19:50:31  5-MIN KMSN 210150Z 00000KT 10SM CLR 24/18 A2982 960 71 2200 000/00 RMK AO2 SLP091 T02390183
14837KMSN MSN20090620195509306/20/09 19:55:31  5-MIN KMSN 210155Z 28003KT 10SM CLR 24/18 A2982 960 68 2300 280/03 RMK AO2
14837KMSN MSN20090620200009306/20/09 20:00:31  5-MIN KMSN 210200Z 00000KT 10SM CLR 24/19 A2982 960 71 2300 000/00 RMK AO2
14837KMSN MSN20090620200509306/20/09 20:05:31  5-MIN KMSN 210205Z 00000KT 10SM CLR 24/18 A2982 960 68 2300 000/00 RMK AO2
14837KMSN MSN20090620201009306/20/09 20:10:31  5-MIN KMSN 210210Z 00000KT 10SM CLR 24/18 A2982 960 71 2200 000/00 RMK AO2
14837KMSN MSN20090620201509306/20/09 20:15:31  5-MIN KMSN 210215Z 00000KT 10SM CLR 24/18 A2982 960 66 2300 000/00 RMK AO2
14837KMSN MSN20090620202009306/20/09 20:20:31  5-MIN KMSN 210220Z 00000KT 10SM CLR 24/18 A2982 960 71 2200 000/00 RMK AO2
14837KMSN MSN20090620202509306/20/09 20:25:31  5-MIN KMSN 210225Z 00000KT 10SM CLR 24/18 A2982 960 68 2200 000/00 RMK AO2
14837KMSN MSN20090620203009306/20/09 20:30:31  5-MIN KMSN 210230Z 00000KT 10SM CLR 24/18 A2982 950 68 2200 000/00 RMK AO2
14837KMSN MSN20090620203509306/20/09 20:35:31  5-MIN KMSN 210235Z 00000KT 10SM CLR 23/18 A2982 950 70 2200 000/00 RMK AO2
14837KMSN MSN20090620204009306/20/09 20:40:31  5-MIN KMSN 210240Z 00000KT 10SM CLR 23/18 A2982 950 76 2100 000/00 RMK AO2
14837KMSN MSN20090620204509306/20/09 20:45:31  5-MIN KMSN 210245Z 00000KT 10SM CLR 23/18 A2982 950 76 2100 000/00 RMK AO2
14837KMSN MSN20090620205011606/20/09 20:50:31  5-MIN KMSN 210250Z 00000KT 10SM CLR 23/18 A2983 950 76 2100 000/00 RMK AO2 SLP094 T02280183 53005
14837KMSN MSN20090620205509306/20/09 20:55:31  5-MIN KMSN 210255Z 00000KT 10SM CLR 23/18 A2982 950 76 2100 000/00 RMK AO2
14837KMSN MSN20090620210009306/20/09 21:00:31  5-MIN KMSN 210300Z 00000KT 10SM CLR 23/19 A2982 950 76 2200 000/00 RMK AO2
14837KMSN MSN20090620210509306/20/09 21:05:31  5-MIN KMSN 210305Z 00000KT 10SM CLR 22/19 A2982 950 81 2100 000/00 RMK AO2
14837KMSN MSN20090620211009306/20/09 21:10:31  5-MIN KMSN 210310Z 00000KT 10SM CLR 22/19 A2982 960 84 2000 000/00 RMK AO2
14837KMSN MSN20090620211509306/20/09 21:15:31  5-MIN KMSN 210315Z 00000KT 10SM CLR 22/19 A2982 960 81 2100 000/00 RMK AO2
14837KMSN MSN20090620212009306/20/09 21:20:31  5-MIN KMSN 210320Z 00000KT 10SM CLR 22/19 A2982 960 81 2100 000/00 RMK AO2
14837KMSN MSN20090620212509306/20/09 21:25:31  5-MIN KMSN 210325Z 00000KT 10SM CLR 22/19 A2982 960 81 2100 000/00 RMK AO2
14837KMSN MSN20090620213009306/20/09 21:30:31  5-MIN KMSN 210330Z 00000KT 10SM CLR 22/19 A2982 960 84 2000 000/00 RMK AO2
14837KMSN MSN20090620213509306/20/09 21:35:31  5-MIN KMSN 210335Z 00000KT 10SM CLR 22/19 A2982 960 84 2000 000/00 RMK AO2
14837KMSN MSN20090620214009306/20/09 21:40:31  5-MIN KMSN 210340Z 00000KT 10SM CLR 22/19 A2982 960 81 2100 000/00 RMK AO2
14837KMSN MSN20090620214509306/20/09 21:45:31  5-MIN KMSN 210345Z 00000KT 10SM CLR 21/19 A2982 960 87 1900 000/00 RMK AO2
14837KMSN MSN20090620215011006/20/09 21:50:31  5-MIN KMSN 210350Z 00000KT 10SM CLR 21/19 A2982 960 87 1900 000/00 RMK AO2 SLP092 T02110189
14837KMSN MSN20090620215509306/20/09 21:55:31  5-MIN KMSN 210355Z 00000KT 10SM CLR 21/19 A2982 960 90 1900 000/00 RMK AO2
14837KMSN MSN20090620220009306/20/09 22:00:31  5-MIN KMSN 210400Z 00000KT 10SM CLR 21/19 A2982 960 87 1900 000/00 RMK AO2
14837KMSN MSN20090620220509306/20/09 22:05:31  5-MIN KMSN 210405Z 00000KT 10SM CLR 21/19 A2982 960 87 1900 000/00 RMK AO2
14837KMSN MSN20090620221009306/20/09 22:10:31  5-MIN KMSN 210410Z 00000KT 10SM CLR 21/19 A2982 950 87 1900 000/00 RMK AO2
14837KMSN MSN20090620221509306/20/09 22:15:31  5-MIN KMSN 210415Z 00000KT 10SM CLR 21/19 A2982 960 90 1900 000/00 RMK AO2
14837KMSN MSN20090620222009306/20/09 22:20:31  5-MIN KMSN 210420Z 00000KT 10SM CLR 21/19 A2982 960 90 1900 000/00 RMK AO2
14837KMSN MSN20090620222509306/20/09 22:25:31  5-MIN KMSN 210425Z 00000KT 10SM CLR 21/18 A2982 960 87 1900 000/00 RMK AO2
14837KMSN MSN20090620223009306/20/09 22:30:31  5-MIN KMSN 210430Z 00000KT 10SM CLR 21/19 A2982 960 90 1900 000/00 RMK AO2
14837KMSN MSN20090620223509306/20/09 22:35:31  5-MIN KMSN 210435Z 00000KT 10SM CLR 21/19 A2983 950 90 1900 000/00 RMK AO2
14837KMSN MSN20090620224009306/20/09 22:40:31  5-MIN KMSN 210440Z 00000KT 10SM CLR 20/18 A2983 950 90 1800 000/00 RMK AO2
14837KMSN MSN20090620224509306/20/09 22:45:31  5-MIN KMSN 210445Z 00000KT 10SM CLR 21/19 A2983 950 90 1900 000/00 RMK AO2
14837KMSN MSN20090620225011006/20/09 22:50:31  5-MIN KMSN 210450Z 00000KT 10SM CLR 21/19 A2983 950 90 1900 000/00 RMK AO2 SLP095 T02060189
14837KMSN MSN20090620225509306/20/09 22:55:31  5-MIN KMSN 210455Z 00000KT 10SM CLR 21/19 A2983 950 90 1900 000/00 RMK AO2
14837KMSN MSN20090620230009306/20/09 23:00:31  5-MIN KMSN 210500Z 00000KT 10SM CLR 21/18 A2983 950 87 1900 000/00 RMK AO2
14837KMSN MSN20090620230509306/20/09 23:05:31  5-MIN KMSN 210505Z 00000KT 10SM CLR 20/19 A2982 960 93 1800 000/00 RMK AO2
14837KMSN MSN20090620231009306/20/09 23:10:31  5-MIN KMSN 210510Z 00000KT 10SM CLR 20/19 A2982 950 93 1800 000/00 RMK AO2
14837KMSN MSN20090620231509206/20/09 23:15:31  5-MIN KMSN 210515Z 00000KT 9SM CLR 19/18 A2983 950 93 1700 000/00 RMK AO2
14837KMSN MSN20090620232009206/20/09 23:20:31  5-MIN KMSN 210520Z 00000KT 9SM CLR 20/19 A2983 950 93 1800 000/00 RMK AO2
14837KMSN MSN20090620232509206/20/09 23:25:31  5-MIN KMSN 210525Z 00000KT 9SM CLR 20/19 A2983 950 93 1800 000/00 RMK AO2
14837KMSN MSN20090620233009206/20/09 23:30:31  5-MIN KMSN 210530Z 00000KT 9SM CLR 20/19 A2983 950 93 1800 000/00 RMK AO2
14837KMSN MSN20090620233509306/20/09 23:35:31  5-MIN KMSN 210535Z 00000KT 10SM CLR 20/19 A2982 950 93 1800 000/00 RMK AO2
14837KMSN MSN20090620234009206/20/09 23:40:31  5-MIN KMSN 210540Z 00000KT 9SM CLR 21/19 A2983 950 90 1900 000/00 RMK AO2
14837KMSN MSN20090620234509206/20/09 23:45:31  5-MIN KMSN 210545Z 00000KT 9SM CLR 20/19 A2983 950 93 1800 000/00 RMK AO2
14837KMSN MSN20090620235013706/20/09 23:50:31  5-MIN KMSN 210550Z 00000KT 9SM CLR 20/18 A2983 950 90 1800 000/00 RMK AO2 SLP095 T02000183 10289 20194 403000194 53007
14837KMSN MSN20090620235509306/20/09 23:55:31  5-MIN KMSN 210555Z 00000KT 10SM CLR 21/19 A2982 950 90 1900 000/00 RMK AO2
14837KMSN MSN20090621000009206/21/09 00:00:32  5-MIN KMSN 210600Z 00000KT 9SM CLR 20/18 A2982 950 90 1800 000/00 RMK AO2
14837KMSN MSN20090621000509206/21/09 00:05:31  5-MIN KMSN 210605Z 00000KT 9SM CLR 19/18 A2983 950 93 1700 000/00 RMK AO2
14837KMSN MSN20090621001009206/21/09 00:10:31  5-MIN KMSN 210610Z 00000KT 9SM CLR 19/18 A2982 950 93 1700 000/00 RMK AO2
14837KMSN MSN20090621001509206/21/09 00:15:31  5-MIN KMSN 210615Z 00000KT 9SM CLR 20/19 A2982 950 93 1800 000/00 RMK AO2
14837KMSN MSN20090621002009206/21/09 00:20:31  5-MIN KMSN 210620Z 00000KT 9SM CLR 20/18 A2982 950 90 1800 000/00 RMK AO2
14837KMSN MSN20090621002509206/21/09 00:25:31  5-MIN KMSN 210625Z 00000KT 8SM CLR 20/18 A2982 960 90 1800 000/00 RMK AO2
14837KMSN MSN20090621003009206/21/09 00:30:31  5-MIN KMSN 210630Z 00000KT 8SM CLR 19/18 A2982 960 93 1700 000/00 RMK AO2
14837KMSN MSN20090621003509206/21/09 00:35:31  5-MIN KMSN 210635Z 00000KT 7SM CLR 19/18 A2982 960 93 1700 000/00 RMK AO2
14837KMSN MSN20090621004009206/21/09 00:40:31  5-MIN KMSN 210640Z 00000KT 7SM CLR 19/18 A2982 960 93 1700 000/00 RMK AO2
14837KMSN MSN20090621004509206/21/09 00:45:31  5-MIN KMSN 210645Z 00000KT 7SM CLR 19/18 A2982 960 97 1700 000/00 RMK AO2
14837KMSN MSN20090621005010906/21/09 00:50:31  5-MIN KMSN 210650Z 00000KT 7SM CLR 19/18 A2982 960 93 1700 000/00 RMK AO2 SLP092 T01940183
14837KMSN MSN20090621005509206/21/09 00:55:31  5-MIN KMSN 210655Z 00000KT 8SM CLR 19/18 A2982 960 97 1700 000/00 RMK AO2
14837KMSN MSN20090621010009206/21/09 01:00:31  5-MIN KMSN 210700Z 00000KT 8SM CLR 19/18 A2982 950 97 1700 000/00 RMK AO2
14837KMSN MSN20090621010509206/21/09 01:05:31  5-MIN KMSN 210705Z 00000KT 8SM CLR 19/18 A2982 950 97 1700 000/00 RMK AO2
14837KMSN MSN20090621011009206/21/09 01:10:31  5-MIN KMSN 210710Z 00000KT 7SM CLR 19/18 A2983 950 97 1700 000/00 RMK AO2
14837KMSN MSN20090621011509206/21/09 01:15:31  5-MIN KMSN 210715Z 00000KT 8SM CLR 19/18 A2982 950 93 1700 000/00 RMK AO2
14837KMSN MSN20090621012009306/21/09 01:20:31  5-MIN KMSN 210720Z 00000KT 10SM CLR 19/18 A2982 950 93 1700 000/00 RMK AO2
14837KMSN MSN20090621012509206/21/09 01:25:31  5-MIN KMSN 210725Z 00000KT 9SM CLR 19/18 A2982 950 93 1700 000/00 RMK AO2
14837KMSN MSN20090621013009206/21/09 01:30:31  5-MIN KMSN 210730Z 00000KT 9SM CLR 19/18 A2983 950 93 1700 000/00 RMK AO2
14837KMSN MSN20090621013509206/21/09 01:35:31  5-MIN KMSN 210735Z 00000KT 9SM CLR 19/18 A2983 950 93 1700 000/00 RMK AO2
14837KMSN MSN20090621014009206/21/09 01:40:31  5-MIN KMSN 210740Z 00000KT 8SM CLR 19/18 A2983 950 97 1700 000/00 RMK AO2
14837KMSN MSN20090621014509206/21/09 01:45:31  5-MIN KMSN 210745Z 00000KT 8SM CLR 19/18 A2983 950 97 1700 000/00 RMK AO2
14837KMSN MSN20090621015010906/21/09 01:50:31  5-MIN KMSN 210750Z 00000KT 8SM CLR 19/18 A2983 940 93 1700 000/00 RMK AO2 SLP097 T01940183
14837KMSN MSN20090621015509206/21/09 01:55:31  5-MIN KMSN 210755Z 00000KT 7SM CLR 19/18 A2983 950 93 1700 000/00 RMK AO2
14837KMSN MSN20090621020009206/21/09 02:00:31  5-MIN KMSN 210800Z 00000KT 8SM CLR 19/18 A2983 940 93 1700 000/00 RMK AO2
14837KMSN MSN20090621020509206/21/09 02:05:31  5-MIN KMSN 210805Z 00000KT 8SM CLR 19/18 A2984 940 93 1700 000/00 RMK AO2
14837KMSN MSN20090621021009206/21/09 02:10:31  5-MIN KMSN 210810Z 00000KT 7SM CLR 19/18 A2984 940 93 1700 000/00 RMK AO2
14837KMSN MSN20090621021509206/21/09 02:15:31  5-MIN KMSN 210815Z 00000KT 7SM CLR 19/18 A2984 940 97 1700 000/00 RMK AO2
14837KMSN MSN20090621022009206/21/09 02:20:31  5-MIN KMSN 210820Z 00000KT 7SM CLR 19/18 A2984 940 97 1600 000/00 RMK AO2
14837KMSN MSN20090621022509206/21/09 02:25:31  5-MIN KMSN 210825Z 00000KT 8SM CLR 19/18 A2984 940 93 1700 000/00 RMK AO2
14837KMSN MSN20090621023009206/21/09 02:30:31  5-MIN KMSN 210830Z 00000KT 9SM CLR 19/18 A2984 940 93 1700 000/00 RMK AO2
14837KMSN MSN20090621023509306/21/09 02:35:31  5-MIN KMSN 210835Z 00000KT 10SM CLR 20/18 A2984 940 90 1800 000/00 RMK AO2
14837KMSN MSN20090621024009206/21/09 02:40:31  5-MIN KMSN 210840Z 00000KT 9SM CLR 19/18 A2984 940 93 1700 000/00 RMK AO2
14837KMSN MSN20090621024509206/21/09 02:45:31  5-MIN KMSN 210845Z 00000KT 8SM CLR 19/18 A2984 940 93 1700 000/00 RMK AO2
14837KMSN MSN20090621025011506/21/09 02:50:31  5-MIN KMSN 210850Z 00000KT 9SM CLR 20/18 A2984 940 90 1800 000/00 RMK AO2 SLP100 T02000183 55000
14837KMSN MSN20090621025509206/21/09 02:55:31  5-MIN KMSN 210855Z 00000KT 9SM CLR 20/18 A2984 940 90 1800 000/00 RMK AO2
14837KMSN MSN20090621030009206/21/09 03:00:31  5-MIN KMSN 210900Z 00000KT 8SM CLR 20/18 A2984 930 90 1800 000/00 RMK AO2
14837KMSN MSN20090621030509506/21/09 03:05:31  5-MIN KMSN 210905Z 00000KT 8SM FEW065 19/18 A2985 930 93 1700 000/00 RMK AO2
14837KMSN MSN20090621031009506/21/09 03:10:31  5-MIN KMSN 210910Z 00000KT 8SM SCT065 19/18 A2985 930 93 1600 000/00 RMK AO2
14837KMSN MSN20090621031509506/21/09 03:15:31  5-MIN KMSN 210915Z 00000KT 7SM SCT065 19/18 A2985 930 97 1600 000/00 RMK AO2
14837KMSN MSN20090621032009506/21/09 03:20:31  5-MIN KMSN 210920Z 00000KT 7SM FEW065 19/18 A2984 930 93 1700 000/00 RMK AO2
14837KMSN MSN20090621032509506/21/09 03:25:31  5-MIN KMSN 210925Z 00000KT 7SM FEW065 19/18 A2985 930 93 1700 000/00 RMK AO2
14837KMSN MSN20090621033009506/21/09 03:30:31  5-MIN KMSN 210930Z 00000KT 8SM FEW065 19/18 A2985 930 93 1700 000/00 RMK AO2
14837KMSN MSN20090621033509506/21/09 03:35:31  5-MIN KMSN 210935Z 00000KT 7SM FEW065 19/18 A2985 930 93 1600 000/00 RMK AO2
14837KMSN MSN20090621034009206/21/09 03:40:31  5-MIN KMSN 210940Z 00000KT 7SM CLR 19/18 A2985 930 93 1700 000/00 RMK AO2
14837KMSN MSN20090621034509206/21/09 03:45:31  5-MIN KMSN 210945Z 00000KT 7SM CLR 19/18 A2985 930 93 1700 000/00 RMK AO2
14837KMSN MSN20090621035011206/21/09 03:50:31  5-MIN KMSN 210950Z 00000KT 7SM SCT065 19/18 A2985 930 93 1700 000/00 RMK AO2 SLP103 T01940183
14837KMSN MSN20090621035509806/21/09 03:55:31  5-MIN KMSN 210955Z 00000KT 6SM BR FEW065 19/18 A2985 930 97 1600 000/00 RMK AO2
14837KMSN MSN20090621040009506/21/09 04:00:31  5-MIN KMSN 211000Z 00000KT 6SM BR CLR 19/18 A2985 930 93 1700 000/00 RMK AO2
14837KMSN MSN20090621040509506/21/09 04:05:31  5-MIN KMSN 211005Z 00000KT 6SM BR CLR 19/18 A2985 930 93 1700 000/00 RMK AO2
14837KMSN MSN20090621041009506/21/09 04:10:31  5-MIN KMSN 211010Z 00000KT 5SM BR CLR 19/18 A2985 930 93 1700 000/00 RMK AO2
14837KMSN MSN20090621041509506/21/09 04:15:31  5-MIN KMSN 211015Z 00000KT 5SM BR CLR 19/18 A2985 930 93 1700 000/00 RMK AO2
14837KMSN MSN20090621042009506/21/09 04:20:31  5-MIN KMSN 211020Z 00000KT 5SM BR CLR 19/18 A2985 930 93 1700 000/00 RMK AO2
14837KMSN MSN20090621042509506/21/09 04:25:31  5-MIN KMSN 211025Z 00000KT 6SM BR CLR 19/18 A2985 930 97 1600 000/00 RMK AO2
14837KMSN MSN20090621043009506/21/09 04:30:31  5-MIN KMSN 211030Z 00000KT 6SM BR CLR 19/18 A2985 930 97 1600 000/00 RMK AO2
14837KMSN MSN20090621043509506/21/09 04:35:31  5-MIN KMSN 211035Z 02007KT 5SM BR CLR 19/18 A2985 930 97 1600 020/07 RMK AO2
14837KMSN MSN20090621044009506/21/09 04:40:31  5-MIN KMSN 211040Z 35003KT 4SM BR CLR 19/18 A2985 930 93 1600 350/03 RMK AO2
14837KMSN MSN20090621044509506/21/09 04:45:31  5-MIN KMSN 211045Z 00000KT 5SM BR CLR 19/18 A2986 920 97 1600 000/00 RMK AO2
14837KMSN MSN20090621045011206/21/09 04:50:31  5-MIN KMSN 211050Z 35003KT 5SM BR CLR 19/18 A2985 930 93 1700 350/03 RMK AO2 SLP104 T01940183
14837KMSN MSN20090621045509506/21/09 04:55:31  5-MIN KMSN 211055Z 00000KT 5SM BR CLR 19/18 A2985 930 93 1700 000/00 RMK AO2
14837KMSN MSN20090621050009506/21/09 05:00:31  5-MIN KMSN 211100Z 00000KT 6SM BR CLR 19/18 A2985 930 93 1700 000/00 RMK AO2
14837KMSN MSN20090621050509506/21/09 05:05:31  5-MIN KMSN 211105Z 00000KT 6SM BR CLR 20/18 A2985 930 90 1800 000/00 RMK AO2
14837KMSN MSN20090621051009206/21/09 05:10:31  5-MIN KMSN 211110Z 00000KT 7SM CLR 20/18 A2985 930 90 1800 000/00 RMK AO2
14837KMSN MSN20090621051509506/21/09 05:15:31  5-MIN KMSN 211115Z 00000KT 6SM BR CLR 20/18 A2986 920 90 1800 000/00 RMK AO2
14837KMSN MSN20090621052009506/21/09 05:20:31  5-MIN KMSN 211120Z 00000KT 6SM BR CLR 20/18 A2985 930 90 1800 000/00 RMK AO2
14837KMSN MSN20090621052509506/21/09 05:25:31  5-MIN KMSN 211125Z 00000KT 6SM BR CLR 20/18 A2985 930 90 1800 000/00 RMK AO2
14837KMSN MSN20090621053009506/21/09 05:30:31  5-MIN KMSN 211130Z 00000KT 6SM BR CLR 20/18 A2986 920 90 1800 000/00 RMK AO2
14837KMSN MSN20090621053509506/21/09 05:35:31  5-MIN KMSN 211135Z 00000KT 6SM BR CLR 20/18 A2985 930 90 1800 000/00 RMK AO2
14837KMSN MSN20090621054009506/21/09 05:40:31  5-MIN KMSN 211140Z 00000KT 5SM BR CLR 20/18 A2986 920 90 1800 000/00 RMK AO2
14837KMSN MSN20090621054509506/21/09 05:45:31  5-MIN KMSN 211145Z 00000KT 6SM BR CLR 20/18 A2986 920 90 1800 000/00 RMK AO2
14837KMSN MSN20090621055013006/21/09 05:50:31  5-MIN KMSN 211150Z 00000KT 6SM BR CLR 20/19 A2986 920 93 1800 000/00 RMK AO2 SLP105 T02000189 10206 20189 53006
14837KMSN MSN20090621055509506/21/09 05:55:31  5-MIN KMSN 211155Z 00000KT 6SM BR CLR 21/19 A2986 920 90 1800 000/00 RMK AO2
14837KMSN MSN20090621060009506/21/09 06:00:31  5-MIN KMSN 211200Z 00000KT 6SM BR CLR 21/19 A2986 920 87 1900 000/00 RMK AO2
14837KMSN MSN20090621060509506/21/09 06:05:31  5-MIN KMSN 211205Z 00000KT 6SM BR CLR 21/19 A2986 920 87 1900 000/00 RMK AO2
14837KMSN MSN20090621061009506/21/09 06:10:31  5-MIN KMSN 211210Z 00000KT 6SM BR CLR 21/19 A2986 920 87 1900 000/00 RMK AO2
14837KMSN MSN20090621061509506/21/09 06:15:31  5-MIN KMSN 211215Z 00000KT 6SM HZ CLR 22/19 A2986 920 84 1900 000/00 RMK AO2
14837KMSN MSN20090621062009506/21/09 06:20:31  5-MIN KMSN 211220Z 02003KT 6SM HZ CLR 22/19 A2986 920 84 1900 020/03 RMK AO2
14837KMSN MSN20090621062509506/21/09 06:25:31  5-MIN KMSN 211225Z 00000KT 6SM BR CLR 22/19 A2986 920 87 1900 000/00 RMK AO2
14837KMSN MSN20090621063009506/21/09 06:30:31  5-MIN KMSN 211230Z 00000KT 6SM BR CLR 21/19 A2986 920 90 1900 000/00 RMK AO2
14837KMSN MSN20090621063509506/21/09 06:35:31  5-MIN KMSN 211235Z 00000KT 6SM BR CLR 22/19 A2986 920 87 1900 000/00 RMK AO2
14837KMSN MSN20090621064009206/21/09 06:40:31  5-MIN KMSN 211240Z 00000KT 7SM CLR 22/19 A2987 910 84 1900 000/00 RMK AO2
14837KMSN MSN20090621064509206/21/09 06:45:31  5-MIN KMSN 211245Z 00000KT 7SM CLR 22/19 A2987 910 84 2000 000/00 RMK AO2
14837KMSN MSN20090621065010906/21/09 06:50:31  5-MIN KMSN 211250Z 00000KT 8SM CLR 23/19 A2987 910 78 2100 000/00 RMK AO2 SLP109 T02280189
14837KMSN MSN20090621065509206/21/09 06:55:31  5-MIN KMSN 211255Z 00000KT 8SM CLR 23/19 A2987 910 78 2100 000/00 RMK AO2
14837KMSN MSN20090621070009206/21/09 07:00:31  5-MIN KMSN 211300Z 00000KT 8SM CLR 23/19 A2987 910 76 2100 000/00 RMK AO2
14837KMSN MSN20090621070509206/21/09 07:05:31  5-MIN KMSN 211305Z 00000KT 9SM CLR 23/18 A2987 910 73 2100 000/00 RMK AO2
14837KMSN MSN20090621071009206/21/09 07:10:31  5-MIN KMSN 211310Z 00000KT 9SM CLR 24/19 A2987 910 73 2200 000/00 RMK AO2
14837KMSN MSN20090621071509206/21/09 07:15:31  5-MIN KMSN 211315Z 00000KT 9SM CLR 24/18 A2987 910 71 2200 000/00 RMK AO2
14837KMSN MSN20090621072009306/21/09 07:20:31  5-MIN KMSN 211320Z 00000KT 10SM CLR 23/18 A2987 910 73 2100 000/00 RMK AO2
14837KMSN MSN20090621072509306/21/09 07:25:31  5-MIN KMSN 211325Z 12004KT 10SM CLR 24/18 A2987 910 71 2200 120/04 RMK AO2
14837KMSN MSN20090621073009306/21/09 07:30:31  5-MIN KMSN 211330Z 11004KT 10SM CLR 24/18 A2987 910 68 2200 110/04 RMK AO2
14837KMSN MSN20090621073509306/21/09 07:35:31  5-MIN KMSN 211335Z 13003KT 10SM CLR 24/18 A2987 910 71 2200 120/03 RMK AO2
14837KMSN MSN20090621074009606/21/09 07:40:31  5-MIN KMSN 211340Z 12003KT 10SM SCT070 24/18 A2987 910 71 2200 120/03 RMK AO2
14837KMSN MSN20090621074509606/21/09 07:45:31  5-MIN KMSN 211345Z 00000KT 10SM SCT070 24/18 A2987 910 71 2200 000/00 RMK AO2
14837KMSN MSN20090621075011306/21/09 07:50:31  5-MIN KMSN 211350Z 14005KT 10SM SCT070 24/18 A2987 910 66 2300 140/05 RMK AO2 SLP109 T02440178
14837KMSN MSN20090621075509306/21/09 07:55:31  5-MIN KMSN 211355Z 13004KT 10SM CLR 24/17 A2987 910 63 2300 120/04 RMK AO2
14837KMSN MSN20090621080009306/21/09 08:00:31  5-MIN KMSN 211400Z 14005KT 10SM CLR 24/18 A2987 910 66 2200 140/05 RMK AO2
14837KMSN MSN20090621080509606/21/09 08:05:31  5-MIN KMSN 211405Z 12005KT 10SM SCT070 24/18 A2987 910 66 2200 120/05 RMK AO2
14837KMSN MSN20090621081009606/21/09 08:10:31  5-MIN KMSN 211410Z 12004KT 10SM SCT070 24/18 A2987 910 66 2300 120/04 RMK AO2
14837KMSN MSN20090621081509606/21/09 08:15:31  5-MIN KMSN 211415Z 11005KT 10SM SCT070 25/18 A2987 910 64 2300 110/05 RMK AO2
14837KMSN MSN20090621082009606/21/09 08:20:31  5-MIN KMSN 211420Z 12004KT 10SM SCT070 25/18 A2987 910 64 2300 120/04 RMK AO2
14837KMSN MSN20090621082509606/21/09 08:25:31  5-MIN KMSN 211425Z 14003KT 10SM SCT070 25/18 A2987 910 66 2300 140/03 RMK AO2
14837KMSN MSN20090621083009606/21/09 08:30:31  5-MIN KMSN 211430Z 14003KT 10SM SCT070 25/18 A2987 910 66 2300 140/03 RMK AO2
14837KMSN MSN20090621083509606/21/09 08:35:31  5-MIN KMSN 211435Z 14004KT 10SM SCT070 25/18 A2987 910 64 2300 140/04 RMK AO2
14837KMSN MSN20090621084009606/21/09 08:40:31  5-MIN KMSN 211440Z 13005KT 10SM SCT070 25/18 A2987 910 64 2300 130/05 RMK AO2
14837KMSN MSN20090621084509606/21/09 08:45:31  5-MIN KMSN 211445Z 13004KT 10SM SCT070 25/18 A2987 910 66 2300 130/04 RMK AO2
14837KMSN MSN20090621085011906/21/09 08:50:31  5-MIN KMSN 211450Z 12003KT 10SM SCT070 25/18 A2987 910 66 2300 120/03 RMK AO2 SLP109 T02500183 51005
14837KMSN MSN20090621085509606/21/09 08:55:31  5-MIN KMSN 211455Z 14005KT 10SM SCT070 25/18 A2987 910 64 2300 140/05 RMK AO2
14837KMSN MSN20090621090009606/21/09 09:00:31  5-MIN KMSN 211500Z 15003KT 10SM SCT070 25/18 A2987 910 66 2300 150/03 RMK AO2
14837KMSN MSN20090621090509606/21/09 09:05:31  5-MIN KMSN 211505Z 13003KT 10SM SCT070 25/18 A2987 910 66 2300 130/03 RMK AO2
14837KMSN MSN20090621091009606/21/09 09:10:31  5-MIN KMSN 211510Z 15005KT 10SM SCT070 25/18 A2987 910 66 2300 150/05 RMK AO2
14837KMSN MSN20090621091509606/21/09 09:15:31  5-MIN KMSN 211515Z 13005KT 10SM SCT070 25/18 A2987 910 66 2300 130/05 RMK AO2
14837KMSN MSN20090621092009606/21/09 09:20:31  5-MIN KMSN 211520Z 13005KT 10SM SCT070 26/18 A2987 910 64 2400 130/05 RMK AO2
14837KMSN MSN20090621092509606/21/09 09:25:31  5-MIN KMSN 211525Z 14005KT 10SM SCT070 26/18 A2987 910 64 2400 140/05 RMK AO2
14837KMSN MSN20090621093009606/21/09 09:30:31  5-MIN KMSN 211530Z 13005KT 10SM SCT070 26/18 A2987 910 64 2400 130/05 RMK AO2
14837KMSN MSN20090621093509606/21/09 09:35:31  5-MIN KMSN 211535Z 13005KT 10SM SCT070 26/18 A2987 910 64 2400 130/05 RMK AO2
14837KMSN MSN20090621094009606/21/09 09:40:31  5-MIN KMSN 211540Z 13004KT 10SM SCT070 26/18 A2987 910 64 2400 130/04 RMK AO2
14837KMSN MSN20090621094509606/21/09 09:45:31  5-MIN KMSN 211545Z 13004KT 10SM SCT070 26/18 A2987 910 64 2400 120/04 RMK AO2
14837KMSN MSN20090621095011306/21/09 09:50:31  5-MIN KMSN 211550Z 11003KT 10SM SCT070 26/18 A2986 920 64 2400 100/03 RMK AO2 SLP107 T02560183
14837KMSN MSN20090621095509306/21/09 09:55:31  5-MIN KMSN 211555Z 10003KT 10SM CLR 26/18 A2987 920 64 2400 100/03 RMK AO2
14837KMSN MSN20090621100009606/21/09 10:00:31  5-MIN KMSN 211600Z 12003KT 10SM SCT070 26/19 A2986 920 66 2400 120/03 RMK AO2
14837KMSN MSN20090621100509606/21/09 10:05:31  5-MIN KMSN 211605Z 11004KT 10SM SCT070 26/19 A2986 920 66 2400 110/04 RMK AO2
14837KMSN MSN20090621101009606/21/09 10:10:31  5-MIN KMSN 211610Z 11004KT 10SM SCT070 26/19 A2987 920 66 2400 110/04 RMK AO2
14837KMSN MSN20090621101509606/21/09 10:15:31  5-MIN KMSN 211615Z 11004KT 10SM SCT070 26/19 A2986 920 68 2400 110/04 RMK AO2
14837KMSN MSN20090621102009606/21/09 10:20:31  5-MIN KMSN 211620Z 12004KT 10SM SCT070 26/19 A2986 920 66 2400 120/04 RMK AO2
14837KMSN MSN20090621102509606/21/09 10:25:31  5-MIN KMSN 211625Z 12006KT 10SM SCT070 26/19 A2986 920 68 2400 110/06 RMK AO2
14837KMSN MSN20090621103009606/21/09 10:30:31  5-MIN KMSN 211630Z 12006KT 10SM SCT070 26/19 A2986 920 66 2400 120/06 RMK AO2
14837KMSN MSN20090621103509606/21/09 10:35:31  5-MIN KMSN 211635Z 14005KT 10SM SCT070 26/18 A2987 920 62 2400 140/05 RMK AO2
14837KMSN MSN20090621104009606/21/09 10:40:31  5-MIN KMSN 211640Z 12006KT 10SM SCT070 26/19 A2987 910 64 2400 120/06 RMK AO2
14837KMSN MSN20090621104509606/21/09 10:45:31  5-MIN KMSN 211645Z 12007KT 10SM SCT070 26/18 A2986 920 62 2400 120/07 RMK AO2
14837KMSN MSN20090621105013606/21/09 10:50:31  5-MIN KMSN 211650Z 11007KT 10SM -RA BKN065 OVC120 26/18 A2986 920 62 2400 110/07 RMK AO2 RAB50 SLP107 P0000 T02610183
14837KMSN MSN20090621105510606/21/09 10:55:31  5-MIN KMSN 211655Z 11005KT 10SM -RA FEW100 26/19 A2986 920 64 2400 110/05 RMK AO2 P0000
14837KMSN MSN20090621110011306/21/09 11:00:31  5-MIN KMSN 211700Z 11007KT 10SM -RA BKN065 OVC120 26/19 A2987 920 66 2400 110/07 RMK AO2 P0000
14837KMSN MSN20090621110511306/21/09 11:05:31  5-MIN KMSN 211705Z 11008KT 10SM -RA BKN065 OVC120 26/19 A2986 920 64 2400 110/08 RMK AO2 P0000
14837KMSN MSN20090621111011306/21/09 11:10:31  5-MIN KMSN 211710Z 12006KT 10SM -RA BKN065 OVC120 26/19 A2986 920 64 2400 120/06 RMK AO2 P0000
14837KMSN MSN20090621111511306/21/09 11:15:31  5-MIN KMSN 211715Z 11007KT 10SM -RA BKN065 OVC120 26/19 A2986 920 66 2500 110/07 RMK AO2 P0000
14837KMSN MSN20090621112011306/21/09 11:20:31  5-MIN KMSN 211720Z 09007KT 10SM -RA BKN065 OVC120 26/20 A2986 920 68 2500 090/07 RMK AO2 P0000
14837KMSN MSN20090621112511306/21/09 11:25:31  5-MIN KMSN 211725Z 11008KT 10SM -RA BKN065 OVC120 26/20 A2986 920 68 2500 110/08 RMK AO2 P0000
14837KMSN MSN20090621113011506/21/09 11:30:31  5-MIN KMSN 211730Z 11008KT 10SM BKN070 OVC120 26/19 A2986 920 66 2500 110/08 RMK AO2 RAE27 P0000
14837KMSN MSN20090621113511506/21/09 11:35:31  5-MIN KMSN 211735Z 11007KT 10SM BKN070 OVC120 26/19 A2985 930 66 2500 110/07 RMK AO2 RAE27 P0000
14837KMSN MSN20090621114011506/21/09 11:40:31  5-MIN KMSN 211740Z 10007KT 10SM BKN070 OVC120 26/20 A2986 920 68 2500 100/07 RMK AO2 RAE27 P0000
14837KMSN MSN20090621114511506/21/09 11:45:31  5-MIN KMSN 211745Z 12006KT 10SM BKN070 OVC120 27/20 A2985 930 66 2500 110/06 RMK AO2 RAE27 P0000
14837KMSN MSN20090621115015606/21/09 11:50:31  5-MIN KMSN 211750Z 11007KT 10SM BKN070 OVC120 27/20 A2985 930 66 2500 110/07 RMK AO2 RAE27 SLP104 P0000 60000 T02670200 10267 20206 51003
14837KMSN MSN20090621115509306/21/09 11:55:31  5-MIN KMSN 211755Z 09007KT 10SM CLR 27/20 A2985 930 66 2500 090/07 RMK AO2
14837KMSN MSN20090621120010306/21/09 12:00:31  5-MIN KMSN 211800Z 10007KT 10SM BKN070 OVC120 26/20 A2985 930 68 2500 100/07 RMK AO2
14837KMSN MSN20090621120510306/21/09 12:05:31  5-MIN KMSN 211805Z 11007KT 10SM BKN070 OVC120 26/20 A2985 930 68 2500 110/07 RMK AO2
14837KMSN MSN20090621121010306/21/09 12:10:31  5-MIN KMSN 211810Z 11007KT 10SM BKN070 OVC120 26/20 A2985 930 68 2500 110/07 RMK AO2
14837KMSN MSN20090621121510306/21/09 12:15:31  5-MIN KMSN 211815Z 12007KT 10SM BKN070 OVC120 27/20 A2985 930 66 2500 120/07 RMK AO2
14837KMSN MSN20090621122010306/21/09 12:20:31  5-MIN KMSN 211820Z 14007KT 10SM BKN070 OVC120 27/19 A2985 930 62 2500 130/07 RMK AO2
14837KMSN MSN20090621122510306/21/09 12:25:31  5-MIN KMSN 211825Z 13007KT 10SM BKN070 OVC120 27/19 A2985 930 62 2500 130/07 RMK AO2
14837KMSN MSN20090621123010306/21/09 12:30:31  5-MIN KMSN 211830Z 12008KT 10SM BKN070 OVC120 27/19 A2985 930 62 2500 120/08 RMK AO2
14837KMSN MSN20090621123510306/21/09 12:35:31  5-MIN KMSN 211835Z 12008KT 10SM BKN070 OVC120 26/19 A2985 930 64 2500 110/08 RMK AO2
14837KMSN MSN20090621124010306/21/09 12:40:31  5-MIN KMSN 211840Z 12008KT 10SM BKN070 OVC120 27/19 A2985 930 64 2500 120/08 RMK AO2
14837KMSN MSN20090621124510306/21/09 12:45:31  5-MIN KMSN 211845Z 13008KT 10SM BKN070 OVC120 27/19 A2985 930 64 2500 120/08 RMK AO2
14837KMSN MSN20090621125012006/21/09 12:50:31  5-MIN KMSN 211850Z 14007KT 10SM BKN070 OVC120 27/20 A2985 930 64 2600 130/07 RMK AO2 SLP102 T02720200
14837KMSN MSN20090621125509606/21/09 12:55:31  5-MIN KMSN 211855Z 13007KT 10SM BKN070 27/19 A2985 930 62 2600 130/07 RMK AO2
14837KMSN MSN20090621130009606/21/09 13:00:31  5-MIN KMSN 211900Z 12006KT 10SM BKN070 27/19 A2985 930 64 2500 120/06 RMK AO2
14837KMSN MSN20090621130509606/21/09 13:05:31  5-MIN KMSN 211905Z 12007KT 10SM OVC070 27/20 A2984 940 64 2600 120/07 RMK AO2
14837KMSN MSN20090621131009606/21/09 13:10:31  5-MIN KMSN 211910Z 12008KT 10SM BKN065 27/20 A2984 940 66 2500 120/08 RMK AO2
14837KMSN MSN20090621131509606/21/09 13:15:31  5-MIN KMSN 211915Z 11007KT 10SM BKN065 27/20 A2984 940 64 2600 110/07 RMK AO2
14837KMSN MSN20090621132009606/21/09 13:20:31  5-MIN KMSN 211920Z 12008KT 10SM OVC065 27/20 A2984 940 66 2500 120/08 RMK AO2
14837KMSN MSN20090621132509606/21/09 13:25:31  5-MIN KMSN 211925Z 13008KT 10SM OVC065 27/20 A2984 940 64 2600 130/08 RMK AO2
14837KMSN MSN20090621133009606/21/09 13:30:31  5-MIN KMSN 211930Z 13008KT 10SM BKN065 27/21 A2984 940 66 2600 130/08 RMK AO2
14837KMSN MSN20090621133509606/21/09 13:35:31  5-MIN KMSN 211935Z 12007KT 10SM BKN065 27/20 A2983 940 64 2600 120/07 RMK AO2
14837KMSN MSN20090621134009606/21/09 13:40:31  5-MIN KMSN 211940Z 14009KT 10SM OVC065 27/21 A2983 940 66 2600 140/09 RMK AO2
14837KMSN MSN20090621134510306/21/09 13:45:31  5-MIN KMSN 211945Z 13008KT 10SM FEW035 OVC065 27/20 A2983 950 64 2600 130/08 RMK AO2
14837KMSN MSN20090621135012006/21/09 13:50:31  5-MIN KMSN 211950Z 13006KT 10SM FEW037 OVC065 27/20 A2983 950 64 2600 130/06 RMK AO2 SLP096 T02720200
14837KMSN MSN20090621135510306/21/09 13:55:31  5-MIN KMSN 211955Z 12008KT 10SM FEW037 OVC060 27/20 A2983 950 66 2500 120/08 RMK AO2
14837KMSN MSN20090621140010306/21/09 14:00:31  5-MIN KMSN 212000Z 15007KT 10SM FEW037 OVC060 27/20 A2983 950 64 2600 150/07 RMK AO2
14837KMSN MSN20090621140511906/21/09 14:05:31  5-MIN KMSN 212005Z 15006KT 10SM -RA FEW037 OVC060 27/21 A2983 950 66 2600 150/06 RMK AO2 RAB01 P0000
14837KMSN MSN20090621141011206/21/09 14:10:31  5-MIN KMSN 212010Z 16010KT 10SM -RA OVC060 27/20 A2983 950 64 2600 160/10 RMK AO2 RAB01 P0000
14837KMSN MSN20090621141511206/21/09 14:15:31  5-MIN KMSN 212015Z 15009KT 10SM -RA OVC060 27/19 A2983 950 60 2600 140/09 RMK AO2 RAB01 P0000
14837KMSN MSN20090621142011206/21/09 14:20:31  5-MIN KMSN 212020Z 16009KT 10SM -RA OVC060 27/19 A2983 950 60 2600 160/09 RMK AO2 RAB01 P0000
14837KMSN MSN20090621142511206/21/09 14:25:31  5-MIN KMSN 212025Z 17008KT 10SM -RA OVC060 27/19 A2983 950 62 2600 170/08 RMK AO2 RAB01 P0000
14837KMSN MSN20090621143011206/21/09 14:30:31  5-MIN KMSN 212030Z 17007KT 10SM -RA OVC060 27/19 A2983 950 62 2600 170/07 RMK AO2 RAB01 P0000
14837KMSN MSN20090621143511206/21/09 14:35:31  5-MIN KMSN 212035Z 14006KT 10SM -RA OVC060 27/20 A2982 950 66 2600 140/06 RMK AO2 RAB01 P0000
14837KMSN MSN20090621144011206/21/09 14:40:31  5-MIN KMSN 212040Z 16007KT 10SM -RA BKN060 27/19 A2982 960 64 2600 150/07 RMK AO2 RAB01 P0000
14837KMSN MSN20090621144511206/21/09 14:45:31  5-MIN KMSN 212045Z 13006KT 10SM -RA BKN060 27/19 A2982 960 64 2600 130/06 RMK AO2 RAB01 P0000
14837KMSN MSN20090621145014106/21/09 14:50:31  5-MIN KMSN 212050Z 13006KT 10SM -RA SCT060 27/20 A2982 960 66 2600 130/06 RMK AO2 RAB01 SLP092 P0000 60000 T02670200 58006
14837KMSN MSN20090621145510606/21/09 14:55:31  5-MIN KMSN 212055Z 15006KT 10SM -RA SCT060 27/19 A2982 960 62 2600 150/06 RMK AO2 P0000
14837KMSN MSN20090621150010806/21/09 15:00:31  5-MIN KMSN 212100Z 16007KT 10SM FEW055 28/20 A2982 960 62 2700 160/07 RMK AO2 RAE00 P0000
14837KMSN MSN20090621150510806/21/09 15:05:31  5-MIN KMSN 212105Z 16007KT 10SM FEW055 27/19 A2982 960 62 2600 150/07 RMK AO2 RAE00 P0000
14837KMSN MSN20090621151010806/21/09 15:10:31  5-MIN KMSN 212110Z 18008KT 10SM SCT055 27/19 A2982 960 60 2600 180/08 RMK AO2 RAE00 P0000
14837KMSN MSN20090621151510806/21/09 15:15:31  5-MIN KMSN 212115Z 17008KT 10SM BKN055 27/19 A2982 960 62 2600 160/08 RMK AO2 RAE00 P0000
14837KMSN MSN20090621152011506/21/09 15:20:31  5-MIN KMSN 212120Z 17008KT 10SM -RA BKN055 27/19 A2982 960 62 2600 170/08 RMK AO2 RAE00B20 P0000
14837KMSN MSN20090621152511506/21/09 15:25:31  5-MIN KMSN 212125Z 17007KT 10SM -RA BKN055 27/19 A2981 960 62 2600 170/07 RMK AO2 RAE00B20 P0000
14837KMSN MSN20090621153011406/21/09 15:30:31  5-MIN KMSN 212130Z 15009KT 10SM BKN055 27/19 A2981 970 62 2600 150/09 RMK AO2 RAE00B20E30 P0000
14837KMSN MSN20090621153512106/21/09 15:35:31  5-MIN KMSN 212135Z 15007KT 10SM SCT055 SCT090 27/19 A2981 970 62 2600 150/07 RMK AO2 RAE00B20E30 P0000
14837KMSN MSN20090621154012106/21/09 15:40:31  5-MIN KMSN 212140Z 15007KT 10SM SCT050 SCT090 27/19 A2981 970 64 2600 150/07 RMK AO2 RAE00B20E30 P0000
14837KMSN MSN20090621154512106/21/09 15:45:31  5-MIN KMSN 212145Z 14008KT 10SM SCT050 SCT090 27/19 A2981 970 64 2600 140/08 RMK AO2 RAE00B20E30 P0000
14837KMSN MSN20090621155014506/21/09 15:50:31  5-MIN KMSN 212150Z 13008KT 10SM -RA SCT050 BKN090 26/19 A2981 970 66 2500 130/08 RMK AO2 RAE00B20E30B46 SLP089 P0000 T02610194
14837KMSN MSN20090621155511306/21/09 15:55:31  5-MIN KMSN 212155Z 14006KT 10SM -RA FEW050 SCT090 26/19 A2981 970 66 2500 130/06 RMK AO2 P0000
14837KMSN MSN20090621160012006/21/09 16:00:31  5-MIN KMSN 212200Z 13007KT 10SM -RA FEW050 SCT070 BKN090 26/19 A2981 970 66 2500 130/07 RMK AO2 P0000
14837KMSN MSN20090621160512206/21/09 16:05:31  5-MIN KMSN 212205Z 13006KT 10SM FEW050 SCT065 BKN090 26/20 A2981 970 71 2400 130/06 RMK AO2 RAE04 P0000
14837KMSN MSN20090621161011506/21/09 16:10:31  5-MIN KMSN 212210Z 12007KT 10SM FEW050 BKN085 26/19 A2981 970 68 2400 120/07 RMK AO2 RAE04 P0000
14837KMSN MSN20090621161511506/21/09 16:15:31  5-MIN KMSN 212215Z 12006KT 10SM FEW070 BKN085 26/19 A2980 970 66 2500 120/06 RMK AO2 RAE04 P0000
14837KMSN MSN20090621162011506/21/09 16:20:31  5-MIN KMSN 212220Z 13006KT 10SM FEW070 BKN080 26/19 A2980 970 66 2500 130/06 RMK AO2 RAE04 P0000
14837KMSN MSN20090621162510806/21/09 16:25:31  5-MIN KMSN 212225Z 12005KT 10SM BKN080 26/19 A2980 970 66 2500 120/05 RMK AO2 RAE04 P0000
14837KMSN MSN20090621163010806/21/09 16:30:31  5-MIN KMSN 212230Z 12005KT 10SM BKN080 26/20 A2980 970 68 2500 120/05 RMK AO2 RAE04 P0000
14837KMSN MSN20090621163510806/21/09 16:35:31  5-MIN KMSN 212235Z 13006KT 10SM BKN080 26/19 A2981 970 66 2500 130/06 RMK AO2 RAE04 P0000
14837KMSN MSN20090621164010806/21/09 16:40:31  5-MIN KMSN 212240Z 14006KT 10SM OVC075 26/19 A2981 970 66 2500 130/06 RMK AO2 RAE04 P0000
14837KMSN MSN20090621164512206/21/09 16:45:31  5-MIN KMSN 212245Z 14008KT 10SM -RA FEW037 OVC075 26/19 A2980 970 66 2500 140/08 RMK AO2 RAE04B43 P0000
14837KMSN MSN20090621165014606/21/09 16:50:31  5-MIN KMSN 212250Z 13009KT 10SM -RA FEW037 SCT044 BKN075 26/18 A2980 970 64 2500 130/09 RMK AO2 RAE04B43 SLP087 P0000 T02560183
14837KMSN MSN20090621165511306/21/09 16:55:31  5-MIN KMSN 212255Z 12006KT 10SM -RA SCT044 BKN080 26/18 A2980 970 64 2500 120/06 RMK AO2 P0000
14837KMSN MSN20090621170012406/21/09 17:00:31  5-MIN KMSN 212300Z 11007KT 10SM SCT042 SCT049 OVC080 26/18 A2980 970 64 2500 110/07 RMK AO2 RAE2256 P0000
14837KMSN MSN20090621170511706/21/09 17:05:31  5-MIN KMSN 212305Z 11006KT 10SM BKN042 OVC080 26/19 A2980 980 66 2500 110/06 RMK AO2 RAE2256 P0000
14837KMSN MSN20090621171011706/21/09 17:10:31  5-MIN KMSN 212310Z 11007KT 10SM BKN042 OVC080 26/19 A2980 980 66 2500 110/07 RMK AO2 RAE2256 P0000
14837KMSN MSN20090621171511706/21/09 17:15:31  5-MIN KMSN 212315Z 11006KT 10SM BKN042 OVC080 26/18 A2980 980 64 2500 110/06 RMK AO2 RAE2256 P0000
14837KMSN MSN20090621172011706/21/09 17:20:31  5-MIN KMSN 212320Z 10006KT 10SM BKN042 OVC075 26/18 A2980 980 64 2500 100/06 RMK AO2 RAE2256 P0000
14837KMSN MSN20090621172512406/21/09 17:25:31  5-MIN KMSN 212325Z 09007KT 10SM BKN042 BKN050 OVC075 26/18 A2980 980 64 2500 090/07 RMK AO2 RAE2256 P0000
14837KMSN MSN20090621173012406/21/09 17:30:31  5-MIN KMSN 212330Z 09007KT 10SM SCT042 BKN050 OVC075 26/18 A2979 980 64 2500 090/07 RMK AO2 RAE2256 P0000
14837KMSN MSN20090621173512406/21/09 17:35:31  5-MIN KMSN 212335Z 09007KT 10SM FEW042 SCT048 OVC075 26/18 A2979 980 64 2500 090/07 RMK AO2 RAE2256 P0000
14837KMSN MSN20090621174011706/21/09 17:40:31  5-MIN KMSN 212340Z 10010KT 10SM FEW042 BKN075 26/18 A2979 980 64 2500 100/10 RMK AO2 RAE2256 P0000
14837KMSN MSN20090621174512406/21/09 17:45:31  5-MIN KMSN 212345Z 09009KT 10SM FEW047 BKN075 BKN085 26/19 A2979 980 66 2500 090/09 RMK AO2 RAE2256 P0000
14837KMSN MSN20090621175016506/21/09 17:50:31  5-MIN KMSN 212350Z 10007KT 10SM FEW047 SCT075 BKN085 25/20 A2979 980 73 2400 100/07 RMK AO2 RAE2256 SLP083 P0000 60000 T02500200 10278 20250 58011
14837KMSN MSN20090621175509606/21/09 17:55:31  5-MIN KMSN 212355Z 10009KT 10SM BKN080 25/20 A2979 980 73 2400 100/09 RMK AO2
14837KMSN MSN20090621180009606/21/09 18:00:31  5-MIN KMSN 220000Z 11008KT 10SM BKN085 25/20 A2980 980 73 2400 110/08 RMK AO2
14837KMSN MSN20090621180510306/21/09 18:05:31  5-MIN KMSN 220005Z 11011KT 10SM FEW065 BKN085 25/20 A2980 980 73 2400 110/11 RMK AO2
14837KMSN MSN20090621181010306/21/09 18:10:31  5-MIN KMSN 220010Z 11010KT 10SM FEW060 BKN090 25/20 A2980 980 73 2400 110/10 RMK AO2
14837KMSN MSN20090621181510306/21/09 18:15:31  5-MIN KMSN 220015Z 11008KT 10SM FEW060 BKN085 25/20 A2980 980 73 2400 110/08 RMK AO2
14837KMSN MSN20090621182011006/21/09 18:20:31  5-MIN KMSN 220020Z 11010KT 10SM FEW039 SCT060 BKN090 25/20 A2980 980 73 2400 110/10 RMK AO2
14837KMSN MSN20090621182510306/21/09 18:25:31  5-MIN KMSN 220025Z 11009KT 10SM FEW039 BKN090 25/20 A2980 980 73 2400 110/09 RMK AO2
14837KMSN MSN20090621183010306/21/09 18:30:31  5-MIN KMSN 220030Z 11009KT 10SM FEW039 SCT100 24/20 A2979 980 76 2300 110/09 RMK AO2
14837KMSN MSN20090621183511006/21/09 18:35:31  5-MIN KMSN 220035Z 11009KT 10SM FEW039 SCT065 BKN090 24/20 A2979 980 76 2300 110/09 RMK AO2
14837KMSN MSN20090621184011006/21/09 18:40:31  5-MIN KMSN 220040Z 10011KT 10SM FEW039 BKN065 BKN100 24/19 A2979 980 73 2300 100/11 RMK AO2
14837KMSN MSN20090621184511006/21/09 18:45:31  5-MIN KMSN 220045Z 10006KT 10SM FEW039 BKN060 BKN100 24/19 A2979 980 73 2300 100/06 RMK AO2
14837KMSN MSN20090621185011306/21/09 18:50:31  5-MIN KMSN 220050Z 09008KT 10SM BKN060 24/19 A2979 980 73 2300 090/08 RMK AO2 SLP084 T02440194
14837KMSN MSN20090621185509606/21/09 18:55:31  5-MIN KMSN 220055Z 10008KT 10SM BKN060 24/19 A2979 980 73 2300 100/08 RMK AO2
14837KMSN MSN20090621190010306/21/09 19:00:31  5-MIN KMSN 220100Z 10008KT 10SM BKN060 BKN100 24/19 A2979 980 76 2300 100/08 RMK AO2
14837KMSN MSN20090621190510306/21/09 19:05:31  5-MIN KMSN 220105Z 10009KT 10SM BKN060 BKN100 24/19 A2979 980 76 2300 100/09 RMK AO2
14837KMSN MSN20090621191010306/21/09 19:10:31  5-MIN KMSN 220110Z 11009KT 10SM SCT065 BKN100 24/19 A2979 990 76 2300 110/09 RMK AO2
14837KMSN MSN20090621191510306/21/09 19:15:31  5-MIN KMSN 220115Z 11008KT 10SM BKN070 BKN095 24/19 A2979 980 73 2300 110/08 RMK AO2
14837KMSN MSN20090621192011006/21/09 19:20:31  5-MIN KMSN 220120Z 11008KT 10SM FEW060 BKN070 BKN095 23/19 A2979 980 76 2200 110/08 RMK AO2
14837KMSN MSN20090621192511006/21/09 19:25:31  5-MIN KMSN 220125Z 11009KT 10SM SCT060 BKN070 OVC095 23/18 A2979 990 73 2200 110/09 RMK AO2
14837KMSN MSN20090621193011006/21/09 19:30:31  5-MIN KMSN 220130Z 11008KT 10SM SCT060 BKN070 OVC095 23/18 A2979 980 73 2200 100/08 RMK AO2
14837KMSN MSN20090621193510306/21/09 19:35:31  5-MIN KMSN 220135Z 11008KT 10SM SCT060 OVC070 23/18 A2979 980 70 2200 110/08 RMK AO2
14837KMSN MSN20090621194010306/21/09 19:40:31  5-MIN KMSN 220140Z 11008KT 10SM BKN055 OVC070 23/18 A2980 980 70 2200 110/08 RMK AO2
14837KMSN MSN20090621194510306/21/09 19:45:31  5-MIN KMSN 220145Z 11008KT 10SM BKN055 OVC070 23/18 A2980 980 70 2200 110/08 RMK AO2
14837KMSN MSN20090621195012006/21/09 19:50:31  5-MIN KMSN 220150Z 11008KT 10SM BKN055 BKN070 23/18 A2980 970 70 2200 110/08 RMK AO2 SLP086 T02330178
14837KMSN MSN20090621195509606/21/09 19:55:31  5-MIN KMSN 220155Z 11008KT 10SM OVC055 23/18 A2980 980 70 2200 110/08 RMK AO2
14837KMSN MSN20090621200009606/21/09 20:00:31  5-MIN KMSN 220200Z 11008KT 10SM OVC055 23/18 A2980 980 70 2200 110/08 RMK AO2
14837KMSN MSN20090621200509606/21/09 20:05:31  5-MIN KMSN 220205Z 11009KT 10SM OVC050 23/18 A2980 980 73 2100 110/09 RMK AO2
14837KMSN MSN20090621201009606/21/09 20:10:31  5-MIN KMSN 220210Z 11009KT 10SM OVC050 23/17 A2980 970 68 2200 110/09 RMK AO2
14837KMSN MSN20090621201509606/21/09 20:15:31  5-MIN KMSN 220215Z 11007KT 10SM OVC050 23/17 A2980 970 68 2200 110/07 RMK AO2
14837KMSN MSN20090621202009606/21/09 20:20:31  5-MIN KMSN 220220Z 12007KT 10SM OVC050 23/17 A2981 970 70 2100 110/07 RMK AO2
14837KMSN MSN20090621202509606/21/09 20:25:31  5-MIN KMSN 220225Z 11006KT 10SM OVC050 23/17 A2981 970 70 2100 110/06 RMK AO2
14837KMSN MSN20090621203009606/21/09 20:30:31  5-MIN KMSN 220230Z 12007KT 10SM OVC055 23/17 A2980 970 70 2100 120/07 RMK AO2
14837KMSN MSN20090621203509606/21/09 20:35:31  5-MIN KMSN 220235Z 12007KT 10SM OVC055 23/17 A2981 970 70 2100 120/07 RMK AO2
14837KMSN MSN20090621204009606/21/09 20:40:31  5-MIN KMSN 220240Z 12006KT 10SM OVC060 23/17 A2981 970 70 2100 120/06 RMK AO2
14837KMSN MSN20090621204509606/21/09 20:45:31  5-MIN KMSN 220245Z 12007KT 10SM OVC055 23/17 A2981 970 70 2100 120/07 RMK AO2
14837KMSN MSN20090621205011906/21/09 20:50:31  5-MIN KMSN 220250Z 12007KT 10SM BKN060 23/17 A2981 960 70 2100 120/07 RMK AO2 SLP090 T02280172 56008
14837KMSN MSN20090621205509606/21/09 20:55:31  5-MIN KMSN 220255Z 12007KT 10SM OVC060 23/17 A2981 970 70 2100 120/07 RMK AO2
14837KMSN MSN20090621210009606/21/09 21:00:31  5-MIN KMSN 220300Z 12008KT 10SM OVC060 23/17 A2981 970 70 2100 120/08 RMK AO2
14837KMSN MSN20090621210509606/21/09 21:05:31  5-MIN KMSN 220305Z 13007KT 10SM OVC060 23/17 A2981 970 70 2100 130/07 RMK AO2
14837KMSN MSN20090621211009606/21/09 21:10:31  5-MIN KMSN 220310Z 13006KT 10SM OVC055 23/17 A2981 960 70 2100 130/06 RMK AO2
14837KMSN MSN20090621211509606/21/09 21:15:31  5-MIN KMSN 220315Z 13007KT 10SM OVC055 23/17 A2981 960 70 2100 130/07 RMK AO2
14837KMSN MSN20090621212010206/21/09 21:20:31  5-MIN KMSN 220320Z 13007KT 9SM BKN050 OVC060 24/17 A2981 960 66 2300 130/07 RMK AO2
14837KMSN MSN20090621212510206/21/09 21:25:31  5-MIN KMSN 220325Z 13007KT 9SM BKN050 OVC060 23/17 A2981 970 70 2100 130/07 RMK AO2
14837KMSN MSN20090621213010306/21/09 21:30:31  5-MIN KMSN 220330Z 13006KT 10SM BKN050 OVC065 23/17 A2981 970 70 2100 120/06 RMK AO2
14837KMSN MSN20090621213510306/21/09 21:35:31  5-MIN KMSN 220335Z 12006KT 10SM BKN050 OVC065 23/17 A2981 970 70 2100 120/06 RMK AO2
14837KMSN MSN20090621214010306/21/09 21:40:31  5-MIN KMSN 220340Z 12006KT 10SM SCT050 BKN065 22/17 A2980 980 73 2100 120/06 RMK AO2
14837KMSN MSN20090621214509606/21/09 21:45:31  5-MIN KMSN 220345Z 12008KT 10SM SCT060 22/17 A2980 980 73 2100 120/08 RMK AO2
14837KMSN MSN20090621215011306/21/09 21:50:31  5-MIN KMSN 220350Z 13009KT 10SM SCT060 22/17 A2980 980 73 2100 130/09 RMK AO2 SLP084 T02220172
14837KMSN MSN20090621215509606/21/09 21:55:31  5-MIN KMSN 220355Z 13008KT 10SM FEW065 22/17 A2980 980 73 2100 130/08 RMK AO2
14837KMSN MSN20090621220009606/21/09 22:00:31  5-MIN KMSN 220400Z 13008KT 10SM FEW070 22/17 A2980 980 73 2100 130/08 RMK AO2
14837KMSN MSN20090621220509606/21/09 22:05:31  5-MIN KMSN 220405Z 14006KT 10SM FEW049 22/17 A2980 980 73 2100 140/06 RMK AO2
14837KMSN MSN20090621221009606/21/09 22:10:31  5-MIN KMSN 220410Z 13006KT 10SM SCT049 22/17 A2980 970 70 2100 130/06 RMK AO2
14837KMSN MSN20090621221509606/21/09 22:15:31  5-MIN KMSN 220415Z 13006KT 10SM BKN047 22/17 A2980 980 70 2100 130/06 RMK AO2
14837KMSN MSN20090621222009606/21/09 22:20:31  5-MIN KMSN 220420Z 13007KT 10SM BKN047 22/17 A2980 980 70 2100 130/07 RMK AO2
14837KMSN MSN20090621222509606/21/09 22:25:31  5-MIN KMSN 220425Z 13008KT 10SM BKN047 22/17 A2980 980 70 2100 120/08 RMK AO2
14837KMSN MSN20090621223009606/21/09 22:30:31  5-MIN KMSN 220430Z 12007KT 10SM SCT047 22/17 A2980 980 73 2000 120/07 RMK AO2
14837KMSN MSN20090621223509606/21/09 22:35:31  5-MIN KMSN 220435Z 12007KT 10SM SCT047 22/17 A2980 980 73 2000 120/07 RMK AO2
14837KMSN MSN20090621224009606/21/09 22:40:31  5-MIN KMSN 220440Z 13006KT 10SM FEW047 22/17 A2980 980 73 2000 130/06 RMK AO2
14837KMSN MSN20090621224509606/21/09 22:45:31  5-MIN KMSN 220445Z 15005KT 10SM FEW047 22/17 A2980 970 73 2000 150/05 RMK AO2
14837KMSN MSN20090621225011306/21/09 22:50:31  5-MIN KMSN 220450Z 13006KT 10SM FEW047 22/17 A2980 980 73 2000 130/06 RMK AO2 SLP085 T02170167
14837KMSN MSN20090621225509306/21/09 22:55:31  5-MIN KMSN 220455Z 14005KT 10SM CLR 22/17 A2980 970 73 2000 140/05 RMK AO2
14837KMSN MSN20090621230009606/21/09 23:00:31  5-MIN KMSN 220500Z 14004KT 10SM FEW039 22/17 A2980 970 73 2000 130/04 RMK AO2
14837KMSN MSN20090621230509606/21/09 23:05:31  5-MIN KMSN 220505Z 12005KT 10SM SCT042 22/17 A2980 980 73 2000 120/05 RMK AO2
14837KMSN MSN20090621231009606/21/09 23:10:31  5-MIN KMSN 220510Z 12004KT 10SM BKN042 22/17 A2980 970 73 2000 120/04 RMK AO2
14837KMSN MSN20090621231509606/21/09 23:15:31  5-MIN KMSN 220515Z 12006KT 10SM BKN042 21/17 A2980 980 75 2000 120/06 RMK AO2
14837KMSN MSN20090621232009606/21/09 23:20:31  5-MIN KMSN 220520Z 12007KT 10SM BKN042 21/17 A2979 980 75 2000 120/07 RMK AO2
14837KMSN MSN20090621232509606/21/09 23:25:31  5-MIN KMSN 220525Z 12005KT 10SM BKN042 21/17 A2979 980 75 2000 120/05 RMK AO2
14837KMSN MSN20090621233009606/21/09 23:30:31  5-MIN KMSN 220530Z 12005KT 10SM SCT042 21/17 A2979 990 75 2000 120/05 RMK AO2
14837KMSN MSN20090621233509606/21/09 23:35:31  5-MIN KMSN 220535Z 13005KT 10SM SCT042 21/17 A2979 990 75 2000 130/05 RMK AO2
14837KMSN MSN20090621234009606/21/09 23:40:31  5-MIN KMSN 220540Z 13006KT 10SM FEW042 21/17 A2979 990 75 2000 130/06 RMK AO2
14837KMSN MSN20090621234509306/21/09 23:45:31  5-MIN KMSN 220545Z 13007KT 10SM CLR 21/17 A2979 990 75 2000 130/07 RMK AO2
14837KMSN MSN20090621235013806/21/09 23:50:31  5-MIN KMSN 220550Z 13006KT 10SM CLR 21/17 A2979 990 75 2000 120/06 RMK AO2 SLP081 T02110167 10250 20211 402780189 53005
14837KMSN MSN20090621235509606/21/09 23:55:31  5-MIN KMSN 220555Z 12006KT 10SM FEW031 21/17 A2978 990 75 2000 120/06 RMK AO2
14837KMSN MSN20090622000009606/22/09 00:00:32  5-MIN KMSN 220600Z 12006KT 10SM SCT031 21/17 A2978 990 75 2000 120/06 RMK AO2
14837KMSN MSN20090622000509606/22/09 00:05:31  5-MIN KMSN 220605Z 11005KT 10SM SCT031 21/17 A2978 990 78 1900 110/05 RMK AO2
14837KMSN MSN20090622001009606/22/09 00:10:31  5-MIN KMSN 220610Z 11006KT 10SM BKN033 21/17 A2978 990 78 1900 110/06 RMK AO2
14837KMSN MSN20090622001509606/22/09 00:15:31  5-MIN KMSN 220615Z 11005KT 10SM BKN033 21/17 A2979 990 78 1900 110/05 RMK AO2
14837KMSN MSN20090622002009606/22/09 00:20:31  5-MIN KMSN 220620Z 11005KT 10SM BKN033 21/17 A2979 990 78 1900 110/05 RMK AO2
14837KMSN MSN20090622002509606/22/09 00:25:31  5-MIN KMSN 220625Z 12005KT 10SM BKN035 21/16 A2979 990 75 1900 120/05 RMK AO2
14837KMSN MSN20090622003009606/22/09 00:30:31  5-MIN KMSN 220630Z 11007KT 10SM BKN035 21/16 A2979 990 75 1900 110/07 RMK AO2
14837KMSN MSN20090622003509606/22/09 00:35:31  5-MIN KMSN 220635Z 13005KT 10SM SCT035 21/16 A2979 980 75 1900 120/05 RMK AO2
14837KMSN MSN20090622004009606/22/09 00:40:31  5-MIN KMSN 220640Z 13006KT 10SM SCT035 21/16 A2979 980 75 1900 130/06 RMK AO2
14837KMSN MSN20090622004510306/22/09 00:45:31  5-MIN KMSN 220645Z 13006KT 10SM FEW026 SCT035 21/16 A2979 980 75 1900 130/06 RMK AO2
14837KMSN MSN20090622005012706/22/09 00:50:31  5-MIN KMSN 220650Z 12007KT 10SM FEW026 SCT033 OVC120 21/16 A2978 990 75 1900 120/07 RMK AO2 SLP080 T02060161
14837KMSN MSN20090622005510306/22/09 00:55:31  5-MIN KMSN 220655Z 13005KT 10SM FEW026 SCT033 21/16 A2979 990 75 1900 130/05 RMK AO2
14837KMSN MSN20090622010010306/22/09 01:00:31  5-MIN KMSN 220700Z 13007KT 10SM SCT026 BKN033 21/16 A2978 990 73 2000 120/07 RMK AO2
14837KMSN MSN20090622010510306/22/09 01:05:31  5-MIN KMSN 220705Z 12006KT 10SM SCT026 BKN033 21/16 A2979 990 73 2000 120/06 RMK AO2
14837KMSN MSN20090622011010306/22/09 01:10:31  5-MIN KMSN 220710Z 11007KT 10SM BKN028 BKN035 21/16 A2978 990 73 2000 110/07 RMK AO2
14837KMSN MSN20090622011510306/22/09 01:15:31  5-MIN KMSN 220715Z 11004KT 10SM BKN028 BKN035 21/16 A2979 980 75 1900 110/04 RMK AO2
14837KMSN MSN20090622012010306/22/09 01:20:31  5-MIN KMSN 220720Z 10005KT 10SM BKN026 BKN032 21/16 A2979 980 73 2000 100/05 RMK AO2
14837KMSN MSN20090622012510306/22/09 01:25:31  5-MIN KMSN 220725Z 12004KT 10SM BKN026 OVC032 21/16 A2979 990 73 2000 120/04 RMK AO2
14837KMSN MSN20090622013009606/22/09 01:30:31  5-MIN KMSN 220730Z 12006KT 10SM BKN026 21/16 A2979 990 75 1900 110/06 RMK AO2
14837KMSN MSN20090622013509606/22/09 01:35:31  5-MIN KMSN 220735Z 11006KT 10SM BKN026 21/16 A2978 990 75 1900 110/06 RMK AO2
14837KMSN MSN20090622014009606/22/09 01:40:31  5-MIN KMSN 220740Z 11007KT 10SM OVC026 21/16 A2978 990 73 2000 110/07 RMK AO2
14837KMSN MSN20090622014513406/22/09 01:45:31  5-MIN KMSN 220745Z 11004KT 10SM TS OVC026 21/16 A2978 990 70 2000 110/04 RMK AO2 TSB45 FRQ LTGIC VC W TS VC W MOV E
14837KMSN MSN20090622015013206/22/09 01:50:31  5-MIN KMSN 220750Z 10004KT 10SM TS OVC026 21/16 A2978 990 70 2000 100/04 RMK AO2 TSB45 FRQ LTGIC OHD TS OHD MOV E
14837KMSN MSN20090622015512606/22/09 01:55:31  5-MIN KMSN 220755Z VRB03KT 10SM TS OVC026 21/16 A2980 980 70 2000 VRB/03 RMK AO2 FRQ LTGIC OHD TS OHD MOV E
14837KMSN MSN20090622020014006/22/09 02:00:31  5-MIN KMSN 220800Z VRB03KT 10SM TS BKN026 OVC035 21/16 A2981 970 70 1900 VRB/03 RMK AO2 PRESRR FRQ LTGIC OHD TS OHD MOV E
14837KMSN MSN20090622020513306/22/09 02:05:31  5-MIN KMSN 220805Z 00000KT 10SM TS BKN026 OVC035 21/16 A2981 970 70 1900 000/00 RMK AO2 FRQ LTGIC OHD TS OHD MOV E
14837KMSN MSN20090622021013306/22/09 02:10:31  5-MIN KMSN 220810Z 27004KT 10SM TS SCT026 OVC035 21/16 A2981 970 73 1900 270/04 RMK AO2 FRQ LTGIC OHD TS OHD MOV E
14837KMSN MSN20090622021513306/22/09 02:15:31  5-MIN KMSN 220815Z 00000KT 10SM TS FEW026 OVC035 21/16 A2980 970 73 1900 000/00 RMK AO2 FRQ LTGIC OHD TS OHD MOV E
14837KMSN MSN20090622022014706/22/09 02:20:31  5-MIN KMSN 220820Z 00000KT 9SM -TSRA FEW024 OVC035 21/16 A2980 970 73 1900 000/00 RMK AO2 RAB20 FRQ LTGIC OHD TS OHD MOV E P0000
14837KMSN MSN20090622022514006/22/09 02:25:31  5-MIN KMSN 220825Z 15004KT 9SM -TSRA OVC035 21/16 A2980 970 73 1900 150/04 RMK AO2 RAB20 FRQ LTGIC OHD TS OHD MOV E P0000
14837KMSN MSN20090622023014106/22/09 02:30:31  5-MIN KMSN 220830Z 13007KT 10SM -TSRA OVC035 21/17 A2980 970 78 1900 130/07 RMK AO2 RAB20 FRQ LTGIC OHD TS OHD MOV E P0000
14837KMSN MSN20090622023513906/22/09 02:35:31  5-MIN KMSN 220835Z 14007KT 6SM TSRA OVC035 21/17 A2980 970 78 1900 140/07 RMK AO2 RAB20 FRQ LTGIC OHD TS OHD MOV E P0001
14837KMSN MSN20090622024013906/22/09 02:40:31  5-MIN KMSN 220840Z 14004KT 3SM TSRA OVC035 20/17 A2980 970 81 1800 140/04 RMK AO2 RAB20 FRQ LTGIC OHD TS OHD MOV E P0003
14837KMSN MSN20090622024514006/22/09 02:45:31  5-MIN KMSN 220845Z 16005KT 4SM -TSRA OVC037 20/17 A2981 970 81 1800 160/05 RMK AO2 RAB20 FRQ LTGIC OHD TS OHD MOV E P0004
14837KMSN MSN20090622025017006/22/09 02:50:31  5-MIN KMSN 220850Z 12004KT 9SM TS OVC037 19/17 A2981 970 84 1700 120/04 RMK AO2 RAB20E50 SLP089 OCNL LTGIC OHD TS OHD MOV E P0004 60004 T01940167 56008
14837KMSN MSN20090622025512706/22/09 02:55:31  5-MIN KMSN 220855Z 11005KT 10SM TS OVC037 19/17 A2981 970 84 1700 110/05 RMK AO2 OCNL LTGIC OHD TS OHD MOV E
14837KMSN MSN20090622030013406/22/09 03:00:31  5-MIN KMSN 220900Z 11006KT 10SM TS BKN037 OVC045 19/17 A2980 970 87 1700 110/06 RMK AO2 OCNL LTGIC OHD TS OHD MOV E
14837KMSN MSN20090622030513406/22/09 03:05:31  5-MIN KMSN 220905Z 11008KT 10SM TS BKN037 BKN045 19/17 A2980 980 90 1700 100/08 RMK AO2 OCNL LTGIC OHD TS OHD MOV E
14837KMSN MSN20090622031013406/22/09 03:10:31  5-MIN KMSN 220910Z 10009KT 10SM TS SCT035 BKN045 19/17 A2979 980 90 1700 100/09 RMK AO2 OCNL LTGIC OHD TS OHD MOV E
14837KMSN MSN20090622031513406/22/09 03:15:31  5-MIN KMSN 220915Z 10008KT 10SM TS SCT035 19/17 A2979 990 90 1700 100/08 RMK AO2 PRESFR OCNL LTGIC OHD TS OHD MOV E
14837KMSN MSN20090622032012706/22/09 03:20:31  5-MIN KMSN 220920Z 10008KT 10SM TS FEW035 19/17 A2978 990 90 1700 100/08 RMK AO2 OCNL LTGIC OHD TS OHD MOV E
14837KMSN MSN20090622032512706/22/09 03:25:31  5-MIN KMSN 220925Z 10007KT 10SM TS FEW035 19/17 A2978 990 90 1700 100/07 RMK AO2 OCNL LTGIC OHD TS OHD MOV E
14837KMSN MSN20090622033012506/22/09 03:30:31  5-MIN KMSN 220930Z 09004KT 10SM CLR 19/17 A2979 990 87 1700 090/04 RMK AO2 TSE29 OCNL LTG DSNT E TS DSNT E
14837KMSN MSN20090622033512506/22/09 03:35:31  5-MIN KMSN 220935Z 00000KT 10SM CLR 19/17 A2979 980 87 1700 000/00 RMK AO2 TSE29 OCNL LTG DSNT E TS DSNT E
14837KMSN MSN20090622034012506/22/09 03:40:31  5-MIN KMSN 220940Z 04003KT 10SM CLR 19/17 A2979 980 87 1700 040/03 RMK AO2 TSE29 OCNL LTG DSNT E TS DSNT E
14837KMSN MSN20090622034512506/22/09 03:45:31  5-MIN KMSN 220945Z 04003KT 10SM CLR 19/17 A2979 980 87 1700 040/03 RMK AO2 TSE29 OCNL LTG DSNT E TS DSNT E
14837KMSN MSN20090622035011506/22/09 03:50:31  5-MIN KMSN 220950Z 05003KT 9SM CLR 18/17 A2979 980 90 1600 050/03 RMK AO2 TSE29 SLP085 T01830167
14837KMSN MSN20090622035509206/22/09 03:55:31  5-MIN KMSN 220955Z 06003KT 9SM CLR 18/17 A2979 980 90 1600 060/03 RMK AO2
14837KMSN MSN20090622040009506/22/09 04:00:31  5-MIN KMSN 221000Z 08003KT 9SM FEW120 18/17 A2979 980 90 1600 080/03 RMK AO2
14837KMSN MSN20090622040509506/22/09 04:05:31  5-MIN KMSN 221005Z 10003KT 9SM FEW120 18/17 A2980 980 90 1600 090/03 RMK AO2
14837KMSN MSN20090622041009506/22/09 04:10:31  5-MIN KMSN 221010Z 11005KT 9SM FEW110 18/17 A2980 980 90 1600 110/05 RMK AO2
14837KMSN MSN20090622041509506/22/09 04:15:31  5-MIN KMSN 221015Z 11004KT 9SM SCT110 18/17 A2980 970 90 1600 110/04 RMK AO2
14837KMSN MSN20090622042009506/22/09 04:20:31  5-MIN KMSN 221020Z 10005KT 9SM SCT110 18/17 A2981 970 90 1600 100/05 RMK AO2
14837KMSN MSN20090622042509506/22/09 04:25:31  5-MIN KMSN 221025Z 10007KT 9SM SCT110 18/17 A2981 970 90 1600 100/07 RMK AO2
14837KMSN MSN20090622043010206/22/09 04:30:31  5-MIN KMSN 221030Z 10005KT 9SM FEW019 BKN110 18/17 A2981 970 90 1600 100/05 RMK AO2
14837KMSN MSN20090622043510906/22/09 04:35:31  5-MIN KMSN 221035Z 12005KT 8SM FEW019 SCT065 BKN110 18/17 A2981 970 90 1600 110/05 RMK AO2
14837KMSN MSN20090622044010906/22/09 04:40:31  5-MIN KMSN 221040Z 11005KT 8SM FEW019 SCT025 BKN065 18/17 A2981 970 90 1600 110/05 RMK AO2
14837KMSN MSN20090622044510906/22/09 04:45:31  5-MIN KMSN 221045Z 12003KT 8SM FEW019 BKN025 BKN065 18/17 A2981 970 90 1600 120/03 RMK AO2
14837KMSN MSN20090622045012606/22/09 04:50:31  5-MIN KMSN 221050Z 10005KT 7SM FEW019 BKN025 OVC110 19/17 A2981 970 90 1700 100/05 RMK AO2 SLP089 T01890172
14837KMSN MSN20090622045510906/22/09 04:55:31  5-MIN KMSN 221055Z 09004KT 7SM FEW019 BKN025 OVC065 19/17 A2981 970 90 1700 090/04 RMK AO2
14837KMSN MSN20090622050009506/22/09 05:00:31  5-MIN KMSN 221100Z 10003KT 7SM OVC025 19/17 A2981 970 90 1700 100/03 RMK AO2
14837KMSN MSN20090622050509506/22/09 05:05:31  5-MIN KMSN 221105Z 11005KT 7SM OVC025 19/17 A2981 970 90 1700 110/05 RMK AO2
14837KMSN MSN20090622051009506/22/09 05:10:31  5-MIN KMSN 221110Z 12005KT 7SM OVC025 19/17 A2981 970 90 1700 120/05 RMK AO2
14837KMSN MSN20090622051509506/22/09 05:15:31  5-MIN KMSN 221115Z 12006KT 8SM OVC025 19/17 A2980 970 87 1700 120/06 RMK AO2
14837KMSN MSN20090622052009506/22/09 05:20:31  5-MIN KMSN 221120Z 12006KT 8SM OVC025 19/17 A2980 970 90 1700 120/06 RMK AO2
14837KMSN MSN20090622052509506/22/09 05:25:31  5-MIN KMSN 221125Z 13005KT 8SM OVC025 19/17 A2980 970 90 1700 130/05 RMK AO2
14837KMSN MSN20090622053009506/22/09 05:30:31  5-MIN KMSN 221130Z 13006KT 8SM OVC025 19/17 A2980 970 90 1700 120/06 RMK AO2
14837KMSN MSN20090622053509506/22/09 05:35:31  5-MIN KMSN 221135Z 13006KT 8SM OVC025 19/17 A2980 980 87 1800 120/06 RMK AO2
14837KMSN MSN20090622054009506/22/09 05:40:31  5-MIN KMSN 221140Z 12005KT 8SM OVC025 19/17 A2980 980 87 1800 120/05 RMK AO2
14837KMSN MSN20090622054509506/22/09 05:45:31  5-MIN KMSN 221145Z 11005KT 9SM OVC025 19/17 A2979 980 87 1800 100/05 RMK AO2
14837KMSN MSN20090622055014206/22/09 05:50:31  5-MIN KMSN 221150Z 10004KT 9SM OVC025 19/17 A2980 980 87 1800 100/04 RMK AO2 SLP085 60004 70004 T01940172 10211 20183 53008
14837KMSN MSN20090622055509506/22/09 05:55:31  5-MIN KMSN 221155Z 11004KT 9SM OVC025 19/17 A2979 980 87 1800 110/04 RMK AO2
14837KMSN MSN20090622060009506/22/09 06:00:31  5-MIN KMSN 221200Z 12005KT 9SM OVC025 19/17 A2979 980 87 1800 110/05 RMK AO2
14837KMSN MSN20090622060509506/22/09 06:05:31  5-MIN KMSN 221205Z 12004KT 9SM OVC025 19/17 A2979 980 87 1800 120/04 RMK AO2
14837KMSN MSN20090622061009506/22/09 06:10:31  5-MIN KMSN 221210Z 13004KT 9SM OVC025 19/17 A2980 980 87 1800 130/04 RMK AO2
14837KMSN MSN20090622061509506/22/09 06:15:31  5-MIN KMSN 221215Z 13004KT 9SM OVC025 20/17 A2980 980 84 1800 130/04 RMK AO2
14837KMSN MSN20090622062009506/22/09 06:20:31  5-MIN KMSN 221220Z 15006KT 9SM OVC025 20/17 A2980 980 81 1800 150/06 RMK AO2
14837KMSN MSN20090622062509506/22/09 06:25:31  5-MIN KMSN 221225Z 14004KT 9SM OVC025 20/17 A2980 980 81 1800 140/04 RMK AO2
14837KMSN MSN20090622063009506/22/09 06:30:31  5-MIN KMSN 221230Z 15005KT 9SM OVC025 20/17 A2980 980 84 1800 150/05 RMK AO2
14837KMSN MSN20090622063509506/22/09 06:35:31  5-MIN KMSN 221235Z 16005KT 9SM OVC025 20/17 A2980 980 84 1800 160/05 RMK AO2
14837KMSN MSN20090622064009506/22/09 06:40:31  5-MIN KMSN 221240Z 15004KT 9SM OVC025 20/17 A2980 980 84 1800 150/04 RMK AO2
14837KMSN MSN20090622064509506/22/09 06:45:31  5-MIN KMSN 221245Z 15004KT 9SM OVC025 20/17 A2979 980 84 1800 150/04 RMK AO2
14837KMSN MSN20090622065011206/22/09 06:50:31  5-MIN KMSN 221250Z 15006KT 9SM OVC025 21/17 A2979 980 81 1900 150/06 RMK AO2 SLP083 T02060172
14837KMSN MSN20090622065509506/22/09 06:55:31  5-MIN KMSN 221255Z 15006KT 9SM OVC025 21/17 A2979 990 81 1900 150/06 RMK AO2
14837KMSN MSN20090622070009506/22/09 07:00:31  5-MIN KMSN 221300Z 14006KT 9SM OVC025 21/17 A2979 980 81 1900 140/06 RMK AO2
14837KMSN MSN20090622070509506/22/09 07:05:31  5-MIN KMSN 221305Z 15004KT 9SM BKN025 21/17 A2979 980 78 2000 150/04 RMK AO2
14837KMSN MSN20090622071009506/22/09 07:10:31  5-MIN KMSN 221310Z 16005KT 9SM BKN025 21/18 A2979 990 81 2000 160/05 RMK AO2
14837KMSN MSN20090622071509506/22/09 07:15:31  5-MIN KMSN 221315Z 16004KT 9SM SCT025 21/18 A2979 990 81 2000 160/04 RMK AO2
14837KMSN MSN20090622072009606/22/09 07:20:31  5-MIN KMSN 221320Z 16007KT 10SM SCT027 22/18 A2979 990 81 2000 160/07 RMK AO2
14837KMSN MSN20090622072509606/22/09 07:25:31  5-MIN KMSN 221325Z 17007KT 10SM FEW027 22/18 A2979 990 78 2100 170/07 RMK AO2
14837KMSN MSN20090622073009306/22/09 07:30:31  5-MIN KMSN 221330Z 19006KT 10SM CLR 22/18 A2979 990 78 2100 190/06 RMK AO2
14837KMSN MSN20090622073509306/22/09 07:35:31  5-MIN KMSN 221335Z 19005KT 10SM CLR 22/18 A2979 990 78 2100 190/05 RMK AO2
14837KMSN MSN20090622074009306/22/09 07:40:31  5-MIN KMSN 221340Z 17004KT 10SM CLR 22/18 A2979 990 78 2100 170/04 RMK AO2
14837KMSN MSN20090622074509306/22/09 07:45:31  5-MIN KMSN 221345Z VRB03KT 10SM CLR 23/19 A2979 990 78 2200 VRB/03 RMK AO2
14837KMSN MSN20090622075011006/22/09 07:50:31  5-MIN KMSN 221350Z 17004KT 10SM CLR 23/19 A2979 990 78 2200 170/04 RMK AO2 SLP082 T02280189
14837KMSN MSN20090622075509306/22/09 07:55:31  5-MIN KMSN 221355Z 15004KT 10SM CLR 23/19 A2979 980 78 2200 140/04 RMK AO2
14837KMSN MSN20090622080009306/22/09 08:00:31  5-MIN KMSN 221400Z 16003KT 10SM CLR 23/19 A2979 980 76 2200 160/03 RMK AO2
14837KMSN MSN20090622080509306/22/09 08:05:31  5-MIN KMSN 221405Z 14003KT 10SM CLR 23/19 A2979 980 76 2200 140/03 RMK AO2
14837KMSN MSN20090622081009306/22/09 08:10:31  5-MIN KMSN 221410Z 16004KT 10SM CLR 24/19 A2980 980 76 2300 150/04 RMK AO2
14837KMSN MSN20090622081509306/22/09 08:15:31  5-MIN KMSN 221415Z 15003KT 10SM CLR 24/19 A2980 980 73 2300 150/03 RMK AO2
14837KMSN MSN20090622082009306/22/09 08:20:31  5-MIN KMSN 221420Z 16003KT 10SM CLR 24/19 A2980 980 73 2300 160/03 RMK AO2
14837KMSN MSN20090622082509306/22/09 08:25:31  5-MIN KMSN 221425Z 00000KT 10SM CLR 24/19 A2980 980 73 2300 000/00 RMK AO2
14837KMSN MSN20090622083009306/22/09 08:30:31  5-MIN KMSN 221430Z 14005KT 10SM CLR 24/19 A2980 980 73 2300 130/05 RMK AO2
14837KMSN MSN20090622083509306/22/09 08:35:31  5-MIN KMSN 221435Z 14006KT 10SM CLR 24/19 A2979 980 73 2300 130/06 RMK AO2
14837KMSN MSN20090622084009306/22/09 08:40:31  5-MIN KMSN 221440Z 14004KT 10SM CLR 24/19 A2979 980 73 2300 140/04 RMK AO2
14837KMSN MSN20090622084509306/22/09 08:45:31  5-MIN KMSN 221445Z 17005KT 10SM CLR 25/20 A2979 980 73 2400 160/05 RMK AO2
14837KMSN MSN20090622085011606/22/09 08:50:31  5-MIN KMSN 221450Z 16005KT 10SM CLR 25/21 A2979 980 76 2400 160/05 RMK AO2 SLP083 T02500206 50001
14837KMSN MSN20090622085509306/22/09 08:55:31  5-MIN KMSN 221455Z 18004KT 10SM CLR 25/20 A2979 980 73 2400 180/04 RMK AO2
14837KMSN MSN20090622090009306/22/09 09:00:31  5-MIN KMSN 221500Z 17005KT 10SM CLR 26/20 A2979 980 71 2500 170/05 RMK AO2
14837KMSN MSN20090622090509306/22/09 09:05:31  5-MIN KMSN 221505Z 19004KT 10SM CLR 26/20 A2979 980 71 2500 190/04 RMK AO2
14837KMSN MSN20090622091009306/22/09 09:10:31  5-MIN KMSN 221510Z 19005KT 10SM CLR 26/20 A2979 980 71 2500 190/05 RMK AO2
14837KMSN MSN20090622091509306/22/09 09:15:31  5-MIN KMSN 221515Z VRB05KT 10SM CLR 26/21 A2980 980 73 2500 VRB/05 RMK AO2
14837KMSN MSN20090622092009306/22/09 09:20:31  5-MIN KMSN 221520Z 17005KT 10SM CLR 26/21 A2980 980 73 2500 170/05 RMK AO2
14837KMSN MSN20090622092509306/22/09 09:25:31  5-MIN KMSN 221525Z 16007KT 10SM CLR 26/21 A2980 980 71 2500 160/07 RMK AO2
14837KMSN MSN20090622093009306/22/09 09:30:31  5-MIN KMSN 221530Z 17007KT 10SM CLR 26/21 A2980 980 71 2500 170/07 RMK AO2
14837KMSN MSN20090622093509306/22/09 09:35:31  5-MIN KMSN 221535Z 18006KT 10SM CLR 26/21 A2980 980 71 2500 180/06 RMK AO2
14837KMSN MSN20090622094009306/22/09 09:40:31  5-MIN KMSN 221540Z 16007KT 10SM CLR 26/20 A2980 980 68 2500 160/07 RMK AO2
14837KMSN MSN20090622094509306/22/09 09:45:31  5-MIN KMSN 221545Z 18006KT 10SM CLR 26/21 A2980 980 71 2500 180/06 RMK AO2
14837KMSN MSN20090622095011306/22/09 09:50:31  5-MIN KMSN 221550Z 15006KT 10SM FEW028 26/21 A2980 980 71 2500 150/06 RMK AO2 SLP085 T02610206
14837KMSN MSN20090622095509606/22/09 09:55:31  5-MIN KMSN 221555Z 16007KT 10SM FEW028 26/21 A2980 980 71 2500 160/07 RMK AO2
14837KMSN MSN20090622100009606/22/09 10:00:31  5-MIN KMSN 221600Z 16006KT 10SM FEW028 26/21 A2980 980 71 2500 160/06 RMK AO2
14837KMSN MSN20090622100509606/22/09 10:05:31  5-MIN KMSN 221605Z 15006KT 10SM FEW028 26/21 A2980 980 71 2500 150/06 RMK AO2
14837KMSN MSN20090622101009606/22/09 10:10:31  5-MIN KMSN 221610Z 18005KT 10SM FEW028 26/21 A2980 980 71 2500 180/05 RMK AO2
14837KMSN MSN20090622101509606/22/09 10:15:31  5-MIN KMSN 221615Z 19006KT 10SM FEW028 27/21 A2980 980 69 2600 190/06 RMK AO2
14837KMSN MSN20090622102009306/22/09 10:20:31  5-MIN KMSN 221620Z 17005KT 10SM CLR 27/21 A2980 980 71 2600 170/05 RMK AO2
14837KMSN MSN20090622102509306/22/09 10:25:31  5-MIN KMSN 221625Z 19004KT 10SM CLR 27/21 A2979 980 71 2600 190/04 RMK AO2
14837KMSN MSN20090622103009606/22/09 10:30:31  5-MIN KMSN 221630Z 19007KT 10SM FEW030 27/21 A2979 980 71 2600 190/07 RMK AO2
14837KMSN MSN20090622103509606/22/09 10:35:31  5-MIN KMSN 221635Z 19005KT 10SM FEW028 27/21 A2979 980 71 2600 190/05 RMK AO2
14837KMSN MSN20090622104009606/22/09 10:40:31  5-MIN KMSN 221640Z 17006KT 10SM FEW028 27/21 A2979 980 71 2600 170/06 RMK AO2
14837KMSN MSN20090622104509606/22/09 10:45:31  5-MIN KMSN 221645Z 17007KT 10SM FEW028 27/22 A2979 980 71 2700 170/07 RMK AO2
14837KMSN MSN20090622105011306/22/09 10:50:31  5-MIN KMSN 221650Z 17007KT 10SM FEW028 27/22 A2979 980 71 2700 170/07 RMK AO2 SLP082 T02720217
14837KMSN MSN20090622105509606/22/09 10:55:31  5-MIN KMSN 221655Z 16007KT 10SM FEW028 28/22 A2979 990 69 2700 160/07 RMK AO2
14837KMSN MSN20090622110009606/22/09 11:00:31  5-MIN KMSN 221700Z 17007KT 10SM FEW028 28/22 A2979 990 69 2700 170/07 RMK AO2
14837KMSN MSN20090622110509606/22/09 11:05:31  5-MIN KMSN 221705Z 15006KT 10SM FEW028 28/22 A2979 990 69 2700 150/06 RMK AO2
14837KMSN MSN20090622111009606/22/09 11:10:31  5-MIN KMSN 221710Z 16006KT 10SM SCT030 28/22 A2979 990 71 2700 160/06 RMK AO2
14837KMSN MSN20090622111509606/22/09 11:15:31  5-MIN KMSN 221715Z 17008KT 10SM SCT030 28/22 A2979 980 69 2700 170/08 RMK AO2
14837KMSN MSN20090622112009606/22/09 11:20:31  5-MIN KMSN 221720Z 20007KT 10SM SCT030 28/22 A2979 980 69 2700 200/07 RMK AO2
14837KMSN MSN20090622112509606/22/09 11:25:31  5-MIN KMSN 221725Z VRB05KT 10SM SCT030 28/22 A2979 980 69 2700 VRB/05 RMK AO2
14837KMSN MSN20090622113009606/22/09 11:30:31  5-MIN KMSN 221730Z 19006KT 10SM SCT030 28/22 A2979 980 69 2800 190/06 RMK AO2
14837KMSN MSN20090622113509606/22/09 11:35:31  5-MIN KMSN 221735Z 18006KT 10SM SCT030 28/22 A2979 980 69 2800 180/06 RMK AO2
14837KMSN MSN20090622114009606/22/09 11:40:31  5-MIN KMSN 221740Z 18005KT 10SM SCT030 28/22 A2979 990 69 2800 180/05 RMK AO2
14837KMSN MSN20090622114509606/22/09 11:45:31  5-MIN KMSN 221745Z 17006KT 10SM BKN032 28/22 A2979 990 69 2800 170/06 RMK AO2
14837KMSN MSN20090622115013106/22/09 11:50:31  5-MIN KMSN 221750Z 16007KT 10SM BKN032 28/22 A2979 990 69 2800 160/07 RMK AO2 SLP081 T02830222 10283 20194 56001
14837KMSN MSN20090622115510306/22/09 11:55:31  5-MIN KMSN 221755Z 16006KT 10SM SCT027 BKN032 28/22 A2979 990 69 2800 160/06 RMK AO2
14837KMSN MSN20090622120009606/22/09 12:00:31  5-MIN KMSN 221800Z 16006KT 10SM BKN029 28/22 A2979 990 69 2800 160/06 RMK AO2
14837KMSN MSN20090622120509606/22/09 12:05:31  5-MIN KMSN 221805Z 19007KT 10SM BKN029 28/22 A2979 990 69 2800 190/07 RMK AO2
14837KMSN MSN20090622121009606/22/09 12:10:31  5-MIN KMSN 221810Z 18006KT 10SM BKN029 28/22 A2979 980 69 2800 180/06 RMK AO2
14837KMSN MSN20090622121509606/22/09 12:15:31  5-MIN KMSN 221815Z 19008KT 10SM BKN029 28/22 A2979 990 69 2800 180/08 RMK AO2
14837KMSN MSN20090622122010306/22/09 12:20:31  5-MIN KMSN 221820Z 18006KT 10SM BKN029 BKN037 29/22 A2979 990 67 2800 180/06 RMK AO2
14837KMSN MSN20090622122510306/22/09 12:25:31  5-MIN KMSN 221825Z 18006KT 10SM BKN029 BKN037 29/23 A2979 990 69 2800 180/06 RMK AO2
14837KMSN MSN20090622123010306/22/09 12:30:31  5-MIN KMSN 221830Z 17004KT 10SM BKN029 BKN037 28/22 A2979 990 69 2800 170/04 RMK AO2
14837KMSN MSN20090622123510306/22/09 12:35:31  5-MIN KMSN 221835Z 19007KT 10SM BKN029 BKN037 29/23 A2979 990 69 2800 190/07 RMK AO2
14837KMSN MSN20090622124010306/22/09 12:40:31  5-MIN KMSN 221840Z VRB03KT 10SM BKN029 BKN037 29/23 A2978 990 67 2900 VRB/03 RMK AO2
14837KMSN MSN20090622124510306/22/09 12:45:31  5-MIN KMSN 221845Z VRB04KT 10SM BKN029 BKN037 29/23 A2978 990 69 2800 VRB/04 RMK AO2
14837KMSN MSN20090622125011306/22/09 12:50:31  5-MIN KMSN 221850Z 17006KT 10SM BKN029 29/23 A2978 990 69 2800 170/06 RMK AO2 SLP079 T02890228
14837KMSN MSN20090622125510306/22/09 12:55:31  5-MIN KMSN 221855Z 19005KT 10SM BKN029 BKN034 29/22 A2978 990 67 2800 190/05 RMK AO2
14837KMSN MSN20090622130009606/22/09 13:00:31  5-MIN KMSN 221900Z VRB04KT 10SM BKN031 29/22 A2978 990 67 2800 VRB/04 RMK AO2
14837KMSN MSN20090622130509606/22/09 13:05:31  5-MIN KMSN 221905Z 15005KT 10SM BKN030 29/23 A2978 990 69 2800 150/05 RMK AO2
14837KMSN MSN20090622131009606/22/09 13:10:31  5-MIN KMSN 221910Z 18004KT 10SM BKN030 29/23 A2978 990 69 2800 180/04 RMK AO2
14837KMSN MSN20090622131509606/22/09 13:15:31  5-MIN KMSN 221915Z 00000KT 10SM BKN030 29/23 A2978 990 69 2800 000/00 RMK AO2
14837KMSN MSN20090622132009606/22/09 13:20:31  5-MIN KMSN 221920Z 21004KT 10SM BKN030 29/23 A2978 990 67 2900 210/04 RMK AO2
14837KMSN MSN20090622132509606/22/09 13:25:31  5-MIN KMSN 221925Z 00000KT 10SM BKN030 29/23 A2978 990 67 2900 000/00 RMK AO2
14837KMSN MSN20090622133009606/22/09 13:30:31  5-MIN KMSN 221930Z 00000KT 10SM BKN030 29/23 A2978 990 67 2900 000/00 RMK AO2
14837KMSN MSN20090622133509606/22/09 13:35:31  5-MIN KMSN 221935Z 19004KT 10SM BKN030 29/23 A2978 990 67 2900 190/04 RMK AO2
14837KMSN MSN20090622134009606/22/09 13:40:31  5-MIN KMSN 221940Z VRB05KT 10SM BKN030 30/23 A2978 990 67 3000 VRB/05 RMK AO2
14837KMSN MSN20090622134509606/22/09 13:45:31  5-MIN KMSN 221945Z 19005KT 10SM BKN030 30/23 A2978 990 65 3000 190/05 RMK AO2
14837KMSN MSN20090622135011306/22/09 13:50:31  5-MIN KMSN 221950Z 16005KT 10SM BKN030 30/23 A2978 990 65 3000 160/05 RMK AO2 SLP078 T03000228
14837KMSN MSN20090622135509606/22/09 13:55:31  5-MIN KMSN 221955Z 00000KT 10SM BKN037 30/23 A2978 990 67 3000 000/00 RMK AO2
14837KMSN MSN20090622140009706/22/09 14:00:31  5-MIN KMSN 222000Z 16004KT 10SM BKN037 29/23 A2978 1000 69 2900 150/04 RMK AO2
14837KMSN MSN20090622140509606/22/09 14:05:31  5-MIN KMSN 222005Z 16005KT 10SM BKN037 29/23 A2978 990 67 2900 160/05 RMK AO2
14837KMSN MSN20090622141009606/22/09 14:10:31  5-MIN KMSN 222010Z 15004KT 10SM BKN037 29/23 A2978 990 67 2900 150/04 RMK AO2
14837KMSN MSN20090622141509606/22/09 14:15:31  5-MIN KMSN 222015Z 12004KT 10SM BKN037 29/23 A2978 990 69 2900 120/04 RMK AO2
14837KMSN MSN20090622142009606/22/09 14:20:31  5-MIN KMSN 222020Z VRB05KT 10SM BKN037 29/23 A2978 990 69 2900 VRB/05 RMK AO2
14837KMSN MSN20090622142509606/22/09 14:25:31  5-MIN KMSN 222025Z 16005KT 10SM BKN037 29/23 A2978 990 67 2900 160/05 RMK AO2
14837KMSN MSN20090622143009606/22/09 14:30:31  5-MIN KMSN 222030Z 18003KT 10SM BKN037 29/23 A2978 990 67 2900 180/03 RMK AO2
14837KMSN MSN20090622143509606/22/09 14:35:31  5-MIN KMSN 222035Z 00000KT 10SM BKN037 31/23 A2978 990 62 3000 000/00 RMK AO2
14837KMSN MSN20090622144009606/22/09 14:40:31  5-MIN KMSN 222040Z 00000KT 10SM BKN037 31/23 A2978 990 65 3000 000/00 RMK AO2
14837KMSN MSN20090622144509606/22/09 14:45:31  5-MIN KMSN 222045Z 17006KT 10SM BKN037 30/23 A2978 990 65 3000 170/06 RMK AO2
14837KMSN MSN20090622145011906/22/09 14:50:31  5-MIN KMSN 222050Z 16005KT 10SM BKN032 30/23 A2978 990 65 3000 160/05 RMK AO2 SLP078 T03000228 58001
14837KMSN MSN20090622145509606/22/09 14:55:31  5-MIN KMSN 222055Z 18004KT 10SM BKN032 30/23 A2978 990 65 3000 180/04 RMK AO2
14837KMSN MSN20090622150009606/22/09 15:00:31  5-MIN KMSN 222100Z 14004KT 10SM BKN034 30/23 A2979 990 65 3000 140/04 RMK AO2
14837KMSN MSN20090622150509606/22/09 15:05:31  5-MIN KMSN 222105Z 14004KT 10SM BKN034 31/23 A2978 990 62 3000 140/04 RMK AO2
14837KMSN MSN20090622151009606/22/09 15:10:31  5-MIN KMSN 222110Z 17006KT 10SM BKN032 31/23 A2978 990 65 3000 170/06 RMK AO2
14837KMSN MSN20090622151509606/22/09 15:15:31  5-MIN KMSN 222115Z 15003KT 10SM BKN034 31/23 A2978 990 62 3000 140/03 RMK AO2
14837KMSN MSN20090622152007406/22/09 15:20:31  5-MIN KMSN 222120Z 16004KT 10SM BKN034 31/23 A2978 990 
14837KMSN MSN20090622152009606/22/09 15:20:31  5-MIN KMSN 222120Z 16004KT 10SM BKN034 31/23 A2978 990 62 3000 160/04 RMK AO2
14837KMSN MSN20090622152509606/22/09 15:25:31  5-MIN KMSN 222125Z 16004KT 10SM BKN034 31/23 A2978 990 62 3000 160/04 RMK AO2
14837KMSN MSN20090622153009606/22/09 15:30:31  5-MIN KMSN 222130Z 15004KT 10SM BKN034 31/23 A2978 990 63 3100 140/04 RMK AO2
14837KMSN MSN20090622153509706/22/09 15:35:31  5-MIN KMSN 222135Z 14004KT 10SM BKN036 31/23 A2978 1000 65 3000 140/04 RMK AO2
14837KMSN MSN20090622154010406/22/09 15:40:31  5-MIN KMSN 222140Z 00000KT 10SM SCT036 BKN049 30/23 A2978 1000 65 3000 000/00 RMK AO2
14837KMSN MSN20090622154510306/22/09 15:45:31  5-MIN KMSN 222145Z 00000KT 10SM BKN036 BKN049 31/23 A2978 990 62 3000 000/00 RMK AO2
14837KMSN MSN20090622155011306/22/09 15:50:31  5-MIN KMSN 222150Z 19006KT 10SM BKN038 31/23 A2978 990 65 3000 190/06 RMK AO2 SLP080 T03060233
14837KMSN MSN20090622155509606/22/09 15:55:31  5-MIN KMSN 222155Z VRB03KT 10SM BKN036 31/23 A2978 990 62 3000 VRB/03 RMK AO2
14837KMSN MSN20090622160009606/22/09 16:00:31  5-MIN KMSN 222200Z VRB03KT 10SM BKN036 31/23 A2978 990 60 3100 VRB/03 RMK AO2
14837KMSN MSN20090622160509606/22/09 16:05:31  5-MIN KMSN 222205Z VRB04KT 10SM BKN036 31/23 A2979 990 60 3100 VRB/04 RMK AO2
14837KMSN MSN20090622161009606/22/09 16:10:31  5-MIN KMSN 222210Z 20003KT 10SM BKN036 31/23 A2979 990 60 3100 200/03 RMK AO2
14837KMSN MSN20090622161509606/22/09 16:15:31  5-MIN KMSN 222215Z VRB03KT 10SM BKN036 31/23 A2979 990 63 3100 VRB/03 RMK AO2
14837KMSN MSN20090622162009606/22/09 16:20:31  5-MIN KMSN 222220Z 22003KT 10SM BKN036 31/23 A2979 990 60 3100 220/03 RMK AO2
14837KMSN MSN20090622162509606/22/09 16:25:31  5-MIN KMSN 222225Z 28003KT 10SM SCT036 31/23 A2979 990 63 3100 280/03 RMK AO2
14837KMSN MSN20090622163009606/22/09 16:30:31  5-MIN KMSN 222230Z 26004KT 10SM FEW036 31/23 A2979 990 60 3100 260/04 RMK AO2
14837KMSN MSN20090622163509606/22/09 16:35:31  5-MIN KMSN 222235Z 28003KT 10SM FEW034 31/23 A2979 990 63 3100 280/03 RMK AO2
14837KMSN MSN20090622164009606/22/09 16:40:31  5-MIN KMSN 222240Z 27003KT 10SM SCT034 31/23 A2979 990 60 3100 260/03 RMK AO2
14837KMSN MSN20090622164509606/22/09 16:45:31  5-MIN KMSN 222245Z 26004KT 10SM SCT034 31/23 A2979 990 63 3100 260/04 RMK AO2
14837KMSN MSN20090622165011306/22/09 16:50:31  5-MIN KMSN 222250Z VRB03KT 10SM FEW034 31/23 A2979 990 60 3100 VRB/03 RMK AO2 SLP080 T03110228
14837KMSN MSN20090622165509606/22/09 16:55:31  5-MIN KMSN 222255Z 00000KT 10SM FEW034 31/23 A2979 990 60 3100 000/00 RMK AO2
14837KMSN MSN20090622170009606/22/09 17:00:31  5-MIN KMSN 222300Z VRB03KT 10SM FEW034 31/23 A2978 990 65 3000 VRB/03 RMK AO2
14837KMSN MSN20090622170509606/22/09 17:05:31  5-MIN KMSN 222305Z 00000KT 10SM FEW034 31/23 A2978 990 60 3100 000/00 RMK AO2
14837KMSN MSN20090622171009606/22/09 17:10:31  5-MIN KMSN 222310Z 00000KT 10SM FEW034 31/23 A2978 990 63 3100 000/00 RMK AO2
14837KMSN MSN20090622171509606/22/09 17:15:31  5-MIN KMSN 222315Z 24003KT 10SM FEW034 31/23 A2979 990 60 3100 240/03 RMK AO2
14837KMSN MSN20090622172009606/22/09 17:20:31  5-MIN KMSN 222320Z 00000KT 10SM FEW034 31/23 A2979 990 62 3000 000/00 RMK AO2
14837KMSN MSN20090622172509606/22/09 17:25:31  5-MIN KMSN 222325Z 00000KT 10SM FEW034 31/23 A2978 990 62 3000 000/00 RMK AO2
14837KMSN MSN20090622173009606/22/09 17:30:31  5-MIN KMSN 222330Z 00000KT 10SM FEW034 31/23 A2978 990 60 3100 000/00 RMK AO2
14837KMSN MSN20090622173509606/22/09 17:35:31  5-MIN KMSN 222335Z 27003KT 10SM FEW034 31/23 A2978 990 60 3100 270/03 RMK AO2
14837KMSN MSN20090622174009606/22/09 17:40:31  5-MIN KMSN 222340Z 00000KT 10SM FEW034 31/23 A2978 990 60 3100 000/00 RMK AO2
14837KMSN MSN20090622174509606/22/09 17:45:31  5-MIN KMSN 222345Z 00000KT 10SM FEW034 31/23 A2978 990 60 3100 000/00 RMK AO2
14837KMSN MSN20090622175013106/22/09 17:50:31  5-MIN KMSN 222350Z 00000KT 10SM FEW032 31/22 A2978 990 58 3100 000/00 RMK AO2 SLP079 T03110222 10311 20283 55002
14837KMSN MSN20090622175509306/22/09 17:55:31  5-MIN KMSN 222355Z 00000KT 10SM CLR 31/22 A2978 990 58 3100 000/00 RMK AO2
14837KMSN MSN20090622180009606/22/09 18:00:31  5-MIN KMSN 230000Z 26003KT 10SM FEW032 31/23 A2979 990 62 3000 250/03 RMK AO2
14837KMSN MSN20090622180509606/22/09 18:05:31  5-MIN KMSN 230005Z 00000KT 10SM FEW032 31/23 A2979 990 65 3000 000/00 RMK AO2
14837KMSN MSN20090622181009606/22/09 18:10:31  5-MIN KMSN 230010Z 29003KT 10SM FEW032 31/23 A2979 990 62 3000 290/03 RMK AO2
14837KMSN MSN20090622181509606/22/09 18:15:31  5-MIN KMSN 230015Z 00000KT 10SM FEW032 31/23 A2979 990 62 3000 000/00 RMK AO2
14837KMSN MSN20090622182009606/22/09 18:20:31  5-MIN KMSN 230020Z 00000KT 10SM FEW032 31/23 A2979 980 62 3000 000/00 RMK AO2
14837KMSN MSN20090622182509606/22/09 18:25:31  5-MIN KMSN 230025Z 00000KT 10SM FEW032 31/23 A2979 980 62 3000 000/00 RMK AO2
14837KMSN MSN20090622183009606/22/09 18:30:31  5-MIN KMSN 230030Z 00000KT 10SM FEW032 31/23 A2979 980 65 3000 000/00 RMK AO2
14837KMSN MSN20090622183509606/22/09 18:35:31  5-MIN KMSN 230035Z 00000KT 10SM FEW032 30/23 A2979 980 67 3000 000/00 RMK AO2
14837KMSN MSN20090622184009606/22/09 18:40:31  5-MIN KMSN 230040Z 30003KT 10SM FEW032 30/23 A2979 980 67 3000 290/03 RMK AO2
14837KMSN MSN20090622184509606/22/09 18:45:31  5-MIN KMSN 230045Z 00000KT 10SM FEW032 30/23 A2979 980 67 3000 000/00 RMK AO2
14837KMSN MSN20090622185011306/22/09 18:50:31  5-MIN KMSN 230050Z 00000KT 10SM FEW032 30/23 A2979 980 67 3000 000/00 RMK AO2 SLP082 T03000233
14837KMSN MSN20090622185509306/22/09 18:55:31  5-MIN KMSN 230055Z 00000KT 10SM CLR 30/23 A2979 980 67 3000 000/00 RMK AO2
14837KMSN MSN20090622190009606/22/09 19:00:31  5-MIN KMSN 230100Z 00000KT 10SM FEW032 29/23 A2979 980 69 2900 000/00 RMK AO2
14837KMSN MSN20090622190509606/22/09 19:05:31  5-MIN KMSN 230105Z 33003KT 10SM FEW032 29/23 A2979 980 71 2800 330/03 RMK AO2
14837KMSN MSN20090622191009606/22/09 19:10:31  5-MIN KMSN 230110Z 00000KT 10SM FEW032 29/24 A2980 980 74 2800 000/00 RMK AO2
14837KMSN MSN20090622191509606/22/09 19:15:31  5-MIN KMSN 230115Z 33003KT 10SM FEW032 28/24 A2980 980 76 2800 330/03 RMK AO2
14837KMSN MSN20090622192009606/22/09 19:20:31  5-MIN KMSN 230120Z 33003KT 10SM FEW032 28/24 A2980 980 76 2800 330/03 RMK AO2
14837KMSN MSN20090622192509606/22/09 19:25:31  5-MIN KMSN 230125Z 33003KT 10SM FEW032 28/24 A2980 980 76 2800 330/03 RMK AO2
14837KMSN MSN20090622193009606/22/09 19:30:31  5-MIN KMSN 230130Z 00000KT 10SM FEW032 28/24 A2980 980 79 2700 000/00 RMK AO2
14837KMSN MSN20090622193509606/22/09 19:35:31  5-MIN KMSN 230135Z 32003KT 10SM FEW032 27/24 A2980 980 82 2600 320/03 RMK AO2
14837KMSN MSN20090622194009606/22/09 19:40:31  5-MIN KMSN 230140Z 00000KT 10SM FEW032 27/24 A2980 970 82 2600 000/00 RMK AO2
14837KMSN MSN20090622194509606/22/09 19:45:31  5-MIN KMSN 230145Z 00000KT 10SM FEW032 27/24 A2980 970 82 2600 000/00 RMK AO2
14837KMSN MSN20090622195011306/22/09 19:50:31  5-MIN KMSN 230150Z 00000KT 10SM FEW032 27/24 A2981 970 84 2600 000/00 RMK AO2 SLP087 T02670239
14837KMSN MSN20090622195509306/22/09 19:55:31  5-MIN KMSN 230155Z 00000KT 10SM CLR 27/24 A2981 970 84 2600 000/00 RMK AO2
14837KMSN MSN20090622200009606/22/09 20:00:31  5-MIN KMSN 230200Z 00000KT 10SM FEW032 26/24 A2981 970 87 2500 000/00 RMK AO2
14837KMSN MSN20090622200509506/22/09 20:05:31  5-MIN KMSN 230205Z 00000KT 9SM FEW032 26/24 A2981 970 90 2400 000/00 RMK AO2
14837KMSN MSN20090622201009506/22/09 20:10:31  5-MIN KMSN 230210Z 00000KT 9SM FEW032 26/24 A2981 960 90 2400 000/00 RMK AO2
14837KMSN MSN20090622201509506/22/09 20:15:31  5-MIN KMSN 230215Z 31003KT 9SM FEW032 26/24 A2982 960 90 2400 310/03 RMK AO2
14837KMSN MSN20090622202009506/22/09 20:20:31  5-MIN KMSN 230220Z 31003KT 7SM FEW032 26/24 A2982 960 90 2400 310/03 RMK AO2
14837KMSN MSN20090622202509506/22/09 20:25:31  5-MIN KMSN 230225Z 00000KT 7SM FEW032 26/24 A2982 960 87 2500 000/00 RMK AO2
14837KMSN MSN20090622203009806/22/09 20:30:31  5-MIN KMSN 230230Z 00000KT 6SM BR FEW032 26/24 A2982 960 90 2400 000/00 RMK AO2
14837KMSN MSN20090622203509806/22/09 20:35:31  5-MIN KMSN 230235Z 00000KT 6SM BR FEW032 26/24 A2982 960 90 2400 000/00 RMK AO2
14837KMSN MSN20090622204009806/22/09 20:40:31  5-MIN KMSN 230240Z 00000KT 6SM BR FEW032 26/24 A2982 950 90 2400 000/00 RMK AO2
14837KMSN MSN20090622204509806/22/09 20:45:31  5-MIN KMSN 230245Z 00000KT 6SM BR FEW032 26/24 A2983 950 90 2400 000/00 RMK AO2
14837KMSN MSN20090622205011806/22/09 20:50:31  5-MIN KMSN 230250Z 00000KT 6SM BR CLR 25/24 A2983 950 93 2400 000/00 RMK AO2 SLP094 T02500239 50000
14837KMSN MSN20090622205509506/22/09 20:55:31  5-MIN KMSN 230255Z 00000KT 6SM BR CLR 25/23 A2983 950 90 2400 000/00 RMK AO2
14837KMSN MSN20090622210009506/22/09 21:00:31  5-MIN KMSN 230300Z 00000KT 5SM BR CLR 24/23 A2983 950 93 2300 000/00 RMK AO2
14837KMSN MSN20090622210509506/22/09 21:05:31  5-MIN KMSN 230305Z 00000KT 5SM BR CLR 25/23 A2983 950 90 2400 000/00 RMK AO2
14837KMSN MSN20090622211009506/22/09 21:10:31  5-MIN KMSN 230310Z 00000KT 5SM BR CLR 25/24 A2983 940 93 2400 000/00 RMK AO2
14837KMSN MSN20090622211509506/22/09 21:15:31  5-MIN KMSN 230315Z 00000KT 5SM BR CLR 24/23 A2984 940 93 2300 000/00 RMK AO2
14837KMSN MSN20090622212009506/22/09 21:20:31  5-MIN KMSN 230320Z 00000KT 5SM BR CLR 24/23 A2984 940 97 2200 000/00 RMK AO2
14837KMSN MSN20090622212509506/22/09 21:25:31  5-MIN KMSN 230325Z 00000KT 5SM BR CLR 24/23 A2984 940 97 2200 000/00 RMK AO2
14837KMSN MSN20090622213009506/22/09 21:30:31  5-MIN KMSN 230330Z 00000KT 5SM BR CLR 24/23 A2984 940 97 2200 000/00 RMK AO2
14837KMSN MSN20090622213509506/22/09 21:35:31  5-MIN KMSN 230335Z 00000KT 4SM BR CLR 24/23 A2984 940 97 2200 000/00 RMK AO2
14837KMSN MSN20090622214009506/22/09 21:40:31  5-MIN KMSN 230340Z 00000KT 6SM BR CLR 24/23 A2984 940 97 2200 000/00 RMK AO2
14837KMSN MSN20090622214509506/22/09 21:45:31  5-MIN KMSN 230345Z 00000KT 6SM BR CLR 24/23 A2984 940 97 2200 000/00 RMK AO2
14837KMSN MSN20090622215011206/22/09 21:50:31  5-MIN KMSN 230350Z 00000KT 6SM BR CLR 24/23 A2984 940 97 2200 000/00 RMK AO2 SLP099 T02390233
14837KMSN MSN20090622215509506/22/09 21:55:31  5-MIN KMSN 230355Z 00000KT 6SM BR CLR 24/23 A2984 940 97 2200 000/00 RMK AO2
14837KMSN MSN20090622220009506/22/09 22:00:31  5-MIN KMSN 230400Z 00000KT 6SM BR CLR 24/23 A2984 940 97 2200 000/00 RMK AO2
14837KMSN MSN20090622220509506/22/09 22:05:31  5-MIN KMSN 230405Z 00000KT 6SM BR CLR 24/23 A2985 930 97 2200 000/00 RMK AO2
14837KMSN MSN20090622221009606/22/09 22:10:31  5-MIN KMSN 230410Z 00000KT 6SM BR CLR 23/23 A2985 930 100 2200 000/00 RMK AO2
14837KMSN MSN20090622221509506/22/09 22:15:31  5-MIN KMSN 230415Z 00000KT 6SM BR CLR 23/23 A2985 930 97 2200 000/00 RMK AO2
14837KMSN MSN20090622222009506/22/09 22:20:31  5-MIN KMSN 230420Z 00000KT 6SM BR CLR 23/23 A2985 930 97 2200 000/00 RMK AO2
14837KMSN MSN20090622222509606/22/09 22:25:31  5-MIN KMSN 230425Z 00000KT 6SM BR CLR 23/23 A2985 930 100 2100 000/00 RMK AO2
14837KMSN MSN20090622223009506/22/09 22:30:31  5-MIN KMSN 230430Z 00000KT 6SM BR CLR 23/22 A2985 930 97 2100 000/00 RMK AO2
14837KMSN MSN20090622223509506/22/09 22:35:31  5-MIN KMSN 230435Z 03003KT 6SM BR CLR 23/22 A2985 930 97 2100 030/03 RMK AO2
14837KMSN MSN20090622224009506/22/09 22:40:31  5-MIN KMSN 230440Z 00000KT 6SM BR CLR 23/22 A2985 930 97 2100 000/00 RMK AO2
14837KMSN MSN20090622224509606/22/09 22:45:31  5-MIN KMSN 230445Z 00000KT 6SM BR CLR 22/22 A2985 930 100 2000 000/00 RMK AO2
14837KMSN MSN20090622225011206/22/09 22:50:31  5-MIN KMSN 230450Z 00000KT 6SM BR CLR 23/22 A2985 930 97 2100 000/00 RMK AO2 SLP102 T02280222
14837KMSN MSN20090622225509506/22/09 22:55:31  5-MIN KMSN 230455Z 00000KT 5SM BR CLR 23/22 A2985 930 97 2100 000/00 RMK AO2
14837KMSN MSN20090622230009606/22/09 23:00:31  5-MIN KMSN 230500Z 00000KT 5SM BR CLR 22/22 A2985 930 100 2000 000/00 RMK AO2
14837KMSN MSN20090622230509506/22/09 23:05:31  5-MIN KMSN 230505Z 00000KT 5SM BR CLR 23/22 A2985 930 97 2100 000/00 RMK AO2
14837KMSN MSN20090622231009506/22/09 23:10:31  5-MIN KMSN 230510Z 00000KT 5SM BR CLR 23/22 A2985 930 97 2100 000/00 RMK AO2
14837KMSN MSN20090622231509506/22/09 23:15:31  5-MIN KMSN 230515Z 00000KT 5SM BR CLR 23/22 A2985 930 97 2100 000/00 RMK AO2
14837KMSN MSN20090622232009506/22/09 23:20:31  5-MIN KMSN 230520Z 00000KT 5SM BR CLR 23/22 A2986 920 97 2100 000/00 RMK AO2
14837KMSN MSN20090622232509606/22/09 23:25:31  5-MIN KMSN 230525Z 00000KT 5SM BR CLR 22/22 A2986 920 100 2000 000/00 RMK AO2
14837KMSN MSN20090622233009506/22/09 23:30:31  5-MIN KMSN 230530Z 00000KT 5SM BR CLR 23/22 A2986 920 97 2100 000/00 RMK AO2
14837KMSN MSN20090622233509506/22/09 23:35:31  5-MIN KMSN 230535Z 00000KT 5SM BR CLR 23/22 A2986 920 93 2100 000/00 RMK AO2
14837KMSN MSN20090622234009506/22/09 23:40:31  5-MIN KMSN 230540Z 00000KT 3SM BR CLR 23/22 A2986 920 97 2100 000/00 RMK AO2
14837KMSN MSN20090622234509906/22/09 23:45:31  5-MIN KMSN 230545Z 00000KT 1 1/2SM BR CLR 23/22 A2986 920 97 2100 000/00 RMK AO2
14837KMSN MSN20090622235014206/22/09 23:50:31  5-MIN KMSN 230550Z 00000KT 1/2SM FG CLR 23/22 A2986 920 97 2100 000/00 RMK AO2 SLP105 T02280222 10311 20222 403110183 53015
14837KMSN MSN20090622235509706/22/09 23:55:31  5-MIN KMSN 230555Z 00000KT 1/4SM FG CLR 23/22 A2986 920 97 2100 000/00 RMK AO2
14837KMSN MSN20090623000009706/23/09 00:00:32  5-MIN KMSN 230600Z 00000KT 3/4SM BR CLR 23/22 A2986 920 97 2100 000/00 RMK AO2
14837KMSN MSN20090623000509506/23/09 00:05:31  5-MIN KMSN 230605Z 00000KT 3SM BR CLR 23/22 A2986 920 97 2100 000/00 RMK AO2
14837KMSN MSN20090623001009906/23/09 00:10:31  5-MIN KMSN 230610Z 00000KT 2 1/2SM BR CLR 23/22 A2986 920 97 2100 000/00 RMK AO2
14837KMSN MSN20090623001509606/23/09 00:15:31  5-MIN KMSN 230615Z 00000KT 2SM BR CLR 22/22 A2986 920 100 2000 000/00 RMK AO2
14837KMSN MSN20090623002009906/23/09 00:20:31  5-MIN KMSN 230620Z 00000KT 2 1/2SM BR CLR 23/22 A2986 920 97 2100 000/00 RMK AO2
14837KMSN MSN20090623002509906/23/09 00:25:31  5-MIN KMSN 230625Z 00000KT 2 1/2SM BR CLR 23/22 A2986 920 97 2100 000/00 RMK AO2
14837KMSN MSN20090623003009906/23/09 00:30:31  5-MIN KMSN 230630Z 00000KT 2 1/2SM BR CLR 23/22 A2986 920 97 2100 000/00 RMK AO2
14837KMSN MSN20090623003509906/23/09 00:35:31  5-MIN KMSN 230635Z 00000KT 2 1/2SM BR CLR 23/22 A2986 920 97 2100 000/00 RMK AO2
14837KMSN MSN20090623004009506/23/09 00:40:31  5-MIN KMSN 230640Z 00000KT 2SM BR CLR 22/22 A2986 920 97 2000 000/00 RMK AO2
14837KMSN MSN20090623004509906/23/09 00:45:31  5-MIN KMSN 230645Z 00000KT 1 1/2SM BR CLR 23/22 A2986 920 93 2100 000/00 RMK AO2
14837KMSN MSN20090623005009906/23/09 00:50:31  5-MIN KMSN 230650Z 00000KT 1 1/4SM BR CLR 22/22 A2986 920 97 2000 000/00 RMK AO2
14837KMSN MSN20090623005509706/23/09 00:55:31  5-MIN KMSN 230655Z 00000KT 3/4SM BR CLR 22/22 A2986 920 97 2000 000/00 RMK AO2
14837KMSN MSN20090623010009806/23/09 01:00:31  5-MIN KMSN 230700Z 00000KT 1/2SM FG CLR 22/22 A2986 920 100 2000 000/00 RMK AO2
14837KMSN MSN20090623010509906/23/09 01:05:31  5-MIN KMSN 230705Z 00000KT 1/2SM FG VV001 22/22 A2986 920 97 2000 000/00 RMK AO2
14837KMSN MSN20090623011009706/23/09 01:10:31  5-MIN KMSN 230710Z 00000KT 1/4SM FG CLR 23/22 A2986 920 97 2100 000/00 RMK AO2
14837KMSN MSN20090623011509806/23/09 01:15:31  5-MIN KMSN 230715Z 00000KT 1/4SM FG CLR 22/22 A2986 920 100 2000 000/00 RMK AO2
14837KMSN MSN20090623012009806/23/09 01:20:31  5-MIN KMSN 230720Z 00000KT 1/2SM FG CLR 22/22 A2986 920 100 2000 000/00 RMK AO2
14837KMSN MSN20090623012509806/23/09 01:25:31  5-MIN KMSN 230725Z 00000KT 1/2SM FG CLR 22/22 A2986 920 100 2000 000/00 RMK AO2
14837KMSN MSN20090623013009806/23/09 01:30:31  5-MIN KMSN 230730Z 00000KT 1/2SM FG CLR 22/22 A2986 920 100 1900 000/00 RMK AO2
14837KMSN MSN20090623013510006/23/09 01:35:31  5-MIN KMSN 230735Z 00000KT 1/4SM FG VV001 22/22 A2986 920 100 1900 000/00 RMK AO2
14837KMSN MSN20090623014009906/23/09 01:40:31  5-MIN KMSN 230740Z 00000KT 1/4SM FG VV001 22/21 A2986 920 97 1900 000/00 RMK AO2
14837KMSN MSN20090623014509706/23/09 01:45:31  5-MIN KMSN 230745Z 00000KT 1/4SM FG CLR 22/22 A2986 920 97 2000 000/00 RMK AO2
14837KMSN MSN20090623015011706/23/09 01:50:31  5-MIN KMSN 230750Z 00000KT 1/4SM FG VV001 22/22 A2986 920 100 1900 000/00 RMK AO2 SLP105 T02170217
14837KMSN MSN20090623015510706/23/09 01:55:31  5-MIN KMSN 230755Z 00000KT 1/4SM FG SCT001 SCT009 22/21 A2986 920 97 1900 000/00 RMK AO2
14837KMSN MSN20090623020010706/23/09 02:00:31  5-MIN KMSN 230800Z 00000KT 1/4SM FG SCT001 BKN009 22/21 A2986 920 97 1900 000/00 RMK AO2
14837KMSN MSN20090623020510806/23/09 02:05:31  5-MIN KMSN 230805Z 00000KT 1/4SM FG SCT001 BKN009 22/22 A2986 920 100 1900 000/00 RMK AO2
14837KMSN MSN20090623021010706/23/09 02:10:31  5-MIN KMSN 230810Z 00000KT 1/4SM FG SCT001 BKN009 22/21 A2986 920 97 1900 000/00 RMK AO2
14837KMSN MSN20090623021510706/23/09 02:15:31  5-MIN KMSN 230815Z 00000KT 1/4SM FG SCT001 BKN009 22/21 A2986 920 97 1900 000/00 RMK AO2
14837KMSN MSN20090623022010706/23/09 02:20:31  5-MIN KMSN 230820Z 00000KT 1/4SM FG SCT001 BKN009 21/21 A2986 920 97 1900 000/00 RMK AO2
14837KMSN MSN20090623022510806/23/09 02:25:31  5-MIN KMSN 230825Z 00000KT M1/4SM FG SCT001 SCT009 21/21 A2986 920 97 1900 000/00 RMK AO2
14837KMSN MSN20090623023010706/23/09 02:30:31  5-MIN KMSN 230830Z 00000KT 1/4SM FG SCT001 SCT009 21/21 A2986 920 97 1900 000/00 RMK AO2
14837KMSN MSN20090623023510706/23/09 02:35:31  5-MIN KMSN 230835Z 00000KT 1/4SM FG SCT001 SCT009 21/21 A2986 920 97 1900 000/00 RMK AO2
14837KMSN MSN20090623024010806/23/09 02:40:31  5-MIN KMSN 230840Z 00000KT 1/4SM FG SCT001 SCT009 21/21 A2986 920 100 1800 000/00 RMK AO2
14837KMSN MSN20090623024510806/23/09 02:45:31  5-MIN KMSN 230845Z 00000KT 1/4SM FG SCT001 SCT009 21/21 A2986 920 100 1800 000/00 RMK AO2
14837KMSN MSN20090623025013006/23/09 02:50:31  5-MIN KMSN 230850Z 00000KT 1/4SM FG SCT001 SCT007 21/20 A2986 920 97 1800 000/00 RMK AO2 SLP106 T02060200 51010
14837KMSN MSN20090623025510706/23/09 02:55:31  5-MIN KMSN 230855Z 00000KT 1/2SM FG BKN001 OVC007 21/20 A2986 920 97 1800 000/00 RMK AO2
14837KMSN MSN20090623030010806/23/09 03:00:31  5-MIN KMSN 230900Z 00000KT 1/4SM FG BKN001 OVC007 19/19 A2986 920 100 1700 000/00 RMK AO2
14837KMSN MSN20090623030510706/23/09 03:05:31  5-MIN KMSN 230905Z 00000KT 1/4SM FG BKN001 OVC007 20/19 A2986 920 97 1800 000/00 RMK AO2
14837KMSN MSN20090623031010806/23/09 03:10:31  5-MIN KMSN 230910Z 00000KT M1/4SM FG SCT001 OVC007 21/20 A2986 920 97 1800 000/00 RMK AO2
14837KMSN MSN20090623031510706/23/09 03:15:31  5-MIN KMSN 230915Z 00000KT 1/8SM FG SCT001 OVC007 21/20 A2986 920 97 1800 000/00 RMK AO2
14837KMSN MSN20090623032010706/23/09 03:20:31  5-MIN KMSN 230920Z 00000KT 1/8SM FG SCT001 OVC007 20/19 A2986 920 97 1800 000/00 RMK AO2
14837KMSN MSN20090623032510706/23/09 03:25:31  5-MIN KMSN 230925Z 00000KT 1/8SM FG SCT001 OVC007 21/20 A2986 920 97 1800 000/00 RMK AO2
14837KMSN MSN20090623033010806/23/09 03:30:31  5-MIN KMSN 230930Z 00000KT 1/8SM FG SCT001 OVC007 20/20 A2986 920 100 1800 000/00 RMK AO2
14837KMSN MSN20090623033510706/23/09 03:35:31  5-MIN KMSN 230935Z 00000KT 1/8SM FG SCT001 OVC007 20/19 A2986 920 97 1800 000/00 RMK AO2
14837KMSN MSN20090623034010806/23/09 03:40:31  5-MIN KMSN 230940Z 00000KT 1/8SM FG SCT001 OVC007 20/20 A2987 920 100 1800 000/00 RMK AO2
14837KMSN MSN20090623034510706/23/09 03:45:31  5-MIN KMSN 230945Z 00000KT 1/8SM FG SCT001 OVC009 20/19 A2987 910 97 1700 000/00 RMK AO2
14837KMSN MSN20090623035010706/23/09 03:50:31  5-MIN KMSN 230950Z 00000KT 1/8SM FG SCT001 SCT009 20/19 A2987 910 97 1700 000/00 RMK AO2
14837KMSN MSN20090623035510806/23/09 03:55:31  5-MIN KMSN 230955Z 00000KT 1/8SM FG SCT001 SCT009 19/19 A2987 910 100 1700 000/00 RMK AO2
14837KMSN MSN20090623040010806/23/09 04:00:31  5-MIN KMSN 231000Z 00000KT 1/8SM FG SCT001 SCT009 19/19 A2987 910 100 1700 000/00 RMK AO2
14837KMSN MSN20090623040510806/23/09 04:05:31  5-MIN KMSN 231005Z 00000KT 1/8SM FG SCT001 SCT009 19/19 A2987 910 100 1600 000/00 RMK AO2
14837KMSN MSN20090623041010706/23/09 04:10:31  5-MIN KMSN 231010Z 00000KT 1/8SM FG SCT001 SCT009 19/19 A2987 910 97 1700 000/00 RMK AO2
14837KMSN MSN20090623041510706/23/09 04:15:31  5-MIN KMSN 231015Z 00000KT 1/8SM FG SCT001 SCT009 19/19 A2987 910 97 1700 000/00 RMK AO2
14837KMSN MSN20090623042010806/23/09 04:20:31  5-MIN KMSN 231020Z 00000KT 1/8SM FG SCT001 SCT009 19/19 A2987 910 100 1600 000/00 RMK AO2
14837KMSN MSN20090623042510706/23/09 04:25:31  5-MIN KMSN 231025Z 00000KT 1/8SM FG SCT001 SCT009 19/19 A2987 910 97 1700 000/00 RMK AO2
14837KMSN MSN20090623043010706/23/09 04:30:31  5-MIN KMSN 231030Z 00000KT 1/8SM FG SCT001 SCT009 19/19 A2988 900 97 1700 000/00 RMK AO2
14837KMSN MSN20090623043510806/23/09 04:35:31  5-MIN KMSN 231035Z 00000KT 1/8SM FG SCT001 SCT009 19/19 A2988 910 100 1700 000/00 RMK AO2
14837KMSN MSN20090623044010706/23/09 04:40:31  5-MIN KMSN 231040Z 00000KT 1/8SM FG SCT001 SCT009 19/18 A2988 910 97 1600 000/00 RMK AO2
14837KMSN MSN20090623044510806/23/09 04:45:31  5-MIN KMSN 231045Z 00000KT 1/8SM FG SCT001 SCT006 19/19 A2988 900 100 1600 000/00 RMK AO2
14837KMSN MSN20090623045012506/23/09 04:50:31  5-MIN KMSN 231050Z 00000KT 1/8SM FG SCT001 SCT006 19/19 A2988 900 100 1600 000/00 RMK AO2 SLP111 T01890189
14837KMSN MSN20090623045510806/23/09 04:55:31  5-MIN KMSN 231055Z 00000KT 1/8SM FG SCT001 SCT006 19/19 A2988 900 100 1600 000/00 RMK AO2
14837KMSN MSN20090623050010806/23/09 05:00:31  5-MIN KMSN 231100Z 00000KT 1/8SM FG SCT001 SCT006 19/19 A2988 900 100 1600 000/00 RMK AO2
14837KMSN MSN20090623050510706/23/09 05:05:31  5-MIN KMSN 231105Z 00000KT 1/8SM FG SCT001 SCT006 19/19 A2989 890 97 1700 000/00 RMK AO2
14837KMSN MSN20090623051010706/23/09 05:10:31  5-MIN KMSN 231110Z 00000KT 1/8SM FG SCT001 SCT006 19/19 A2989 890 97 1700 000/00 RMK AO2
14837KMSN MSN20090623051510706/23/09 05:15:31  5-MIN KMSN 231115Z 00000KT 1/8SM FG SCT001 SCT006 20/19 A2989 890 97 1700 000/00 RMK AO2
14837KMSN MSN20090623052010106/23/09 05:20:31  5-MIN KMSN 231120Z 00000KT 1/4SM FG SCT001 20/20 A2989 890 100 1700 000/00 RMK AO2
14837KMSN MSN20090623052510006/23/09 05:25:31  5-MIN KMSN 231125Z 00000KT 1/4SM FG SCT001 21/20 A2989 890 97 1800 000/00 RMK AO2
14837KMSN MSN20090623053010106/23/09 05:30:31  5-MIN KMSN 231130Z 00000KT M1/4SM FG SCT001 21/20 A2989 890 97 1800 000/00 RMK AO2
14837KMSN MSN20090623053510006/23/09 05:35:31  5-MIN KMSN 231135Z 00000KT 1/8SM FG SCT001 21/20 A2989 890 97 1800 000/00 RMK AO2
14837KMSN MSN20090623054010106/23/09 05:40:31  5-MIN KMSN 231140Z 00000KT 1/8SM FG SCT001 21/21 A2989 890 100 1800 000/00 RMK AO2
14837KMSN MSN20090623054510006/23/09 05:45:31  5-MIN KMSN 231145Z 00000KT 1/8SM FG SCT001 21/21 A2989 890 97 1800 000/00 RMK AO2
14837KMSN MSN20090623055009906/23/09 05:50:31  5-MIN KMSN 231150Z 00000KT 1/8SM FG VV001 21/21 A2990 890 97 1800 000/00 RMK AO2
14837KMSN MSN20090623055510106/23/09 05:55:31  5-MIN KMSN 231155Z 00000KT M1/4SM FG VV001 21/21 A2990 890 100 1800 000/00 RMK AO2
14837KMSN MSN20090623060009906/23/09 06:00:31  5-MIN KMSN 231200Z 00000KT 1/8SM FG VV001 22/21 A2990 890 97 1900 000/00 RMK AO2
14837KMSN MSN20090623060510006/23/09 06:05:31  5-MIN KMSN 231205Z 00000KT 1/8SM FG VV001 22/22 A2990 880 100 1900 000/00 RMK AO2
14837KMSN MSN20090623061010006/23/09 06:10:31  5-MIN KMSN 231210Z 00000KT 1/8SM FG VV001 22/22 A2990 880 100 1900 000/00 RMK AO2
14837KMSN MSN20090623061510006/23/09 06:15:31  5-MIN KMSN 231215Z 00000KT 1/8SM FG VV001 22/22 A2990 880 100 2000 000/00 RMK AO2
14837KMSN MSN20090623062009906/23/09 06:20:31  5-MIN KMSN 231220Z 00000KT 1/8SM FG VV001 23/22 A2990 880 97 2000 000/00 RMK AO2
14837KMSN MSN20090623062509906/23/09 06:25:31  5-MIN KMSN 231225Z 00000KT 1/8SM FG VV001 23/22 A2991 880 97 2000 000/00 RMK AO2
14837KMSN MSN20090623063009806/23/09 06:30:31  5-MIN KMSN 231230Z 00000KT 1SM BR SCT001 23/22 A2991 880 97 2000 000/00 RMK AO2
14837KMSN MSN20090623063509506/23/09 06:35:31  5-MIN KMSN 231235Z 00000KT 1SM BR CLR 23/22 A2991 880 93 2100 000/00 RMK AO2
14837KMSN MSN20090623064009906/23/09 06:40:31  5-MIN KMSN 231240Z 00000KT 1 1/4SM BR CLR 23/23 A2991 880 97 2100 000/00 RMK AO2
14837KMSN MSN20090623064509906/23/09 06:45:31  5-MIN KMSN 231245Z 00000KT 1 1/4SM BR CLR 24/23 A2991 880 93 2100 000/00 RMK AO2
14837KMSN MSN20090623065011606/23/09 06:50:31  5-MIN KMSN 231250Z 00000KT 1 1/2SM BR CLR 24/23 A2991 880 93 2100 000/00 RMK AO2 SLP120 T02390228
14837KMSN MSN20090623065509906/23/09 06:55:31  5-MIN KMSN 231255Z 00000KT 1 1/2SM BR CLR 24/23 A2991 880 97 2100 000/00 RMK AO2
14837KMSN MSN20090623070009906/23/09 07:00:31  5-MIN KMSN 231300Z 00000KT 1 3/4SM BR CLR 24/23 A2991 880 93 2200 000/00 RMK AO2
14837KMSN MSN20090623070509506/23/09 07:05:31  5-MIN KMSN 231305Z 00000KT 2SM BR CLR 25/23 A2991 880 90 2300 000/00 RMK AO2
14837KMSN MSN20090623071009506/23/09 07:10:31  5-MIN KMSN 231310Z 00000KT 2SM BR CLR 26/23 A2991 880 87 2300 000/00 RMK AO2
14837KMSN MSN20090623071509906/23/09 07:15:31  5-MIN KMSN 231315Z 00000KT 2 1/2SM BR CLR 26/24 A2991 880 90 2300 000/00 RMK AO2
14837KMSN MSN20090623072009506/23/09 07:20:31  5-MIN KMSN 231320Z 00000KT 4SM HZ CLR 26/23 A2991 880 84 2400 000/00 RMK AO2
14837KMSN MSN20090623072509506/23/09 07:25:31  5-MIN KMSN 231325Z 00000KT 4SM HZ CLR 26/23 A2991 880 84 2400 000/00 RMK AO2
14837KMSN MSN20090623073009506/23/09 07:30:31  5-MIN KMSN 231330Z 00000KT 5SM HZ CLR 26/23 A2991 880 84 2400 000/00 RMK AO2
14837KMSN MSN20090623073509506/23/09 07:35:31  5-MIN KMSN 231335Z 00000KT 5SM HZ CLR 27/23 A2991 880 82 2500 000/00 RMK AO2
14837KMSN MSN20090623074009506/23/09 07:40:31  5-MIN KMSN 231340Z 00000KT 5SM HZ CLR 27/23 A2991 870 82 2500 000/00 RMK AO2
14837KMSN MSN20090623074509506/23/09 07:45:31  5-MIN KMSN 231345Z 00000KT 6SM HZ CLR 28/23 A2991 870 74 2600 000/00 RMK AO2
14837KMSN MSN20090623075010906/23/09 07:50:31  5-MIN KMSN 231350Z VRB03KT 7SM CLR 28/23 A2991 870 74 2600 VRB/03 RMK AO2 SLP122 T02830233
14837KMSN MSN20090623075509206/23/09 07:55:31  5-MIN KMSN 231355Z 19005KT 8SM CLR 28/23 A2991 870 74 2600 190/05 RMK AO2
14837KMSN MSN20090623080009206/23/09 08:00:31  5-MIN KMSN 231400Z 20003KT 9SM CLR 28/22 A2991 870 69 2600 200/03 RMK AO2
14837KMSN MSN20090623080509306/23/09 08:05:31  5-MIN KMSN 231405Z 00000KT 10SM CLR 29/22 A2991 870 67 2700 000/00 RMK AO2
14837KMSN MSN20090623081009306/23/09 08:10:31  5-MIN KMSN 231410Z 23003KT 10SM CLR 29/22 A2991 870 64 2700 230/03 RMK AO2
14837KMSN MSN20090623081509306/23/09 08:15:31  5-MIN KMSN 231415Z 24004KT 10SM CLR 29/21 A2991 870 58 2800 240/04 RMK AO2
14837KMSN MSN20090623082009306/23/09 08:20:31  5-MIN KMSN 231420Z 22003KT 10SM CLR 29/21 A2991 870 58 2800 220/03 RMK AO2
14837KMSN MSN20090623082509306/23/09 08:25:31  5-MIN KMSN 231425Z VRB04KT 10SM CLR 29/21 A2991 880 60 2800 VRB/04 RMK AO2
14837KMSN MSN20090623083009306/23/09 08:30:31  5-MIN KMSN 231430Z 23003KT 10SM CLR 29/21 A2991 880 60 2800 220/03 RMK AO2
14837KMSN MSN20090623083509306/23/09 08:35:31  5-MIN KMSN 231435Z 23004KT 10SM CLR 29/21 A2991 880 60 2800 230/04 RMK AO2
14837KMSN MSN20090623084009306/23/09 08:40:31  5-MIN KMSN 231440Z 23004KT 10SM CLR 29/22 A2991 870 62 2800 230/04 RMK AO2
14837KMSN MSN20090623084509306/23/09 08:45:31  5-MIN KMSN 231445Z 22004KT 10SM CLR 29/22 A2991 880 62 2800 220/04 RMK AO2
14837KMSN MSN20090623085011606/23/09 08:50:31  5-MIN KMSN 231450Z VRB05KT 10SM CLR 29/22 A2991 880 62 2800 VRB/05 RMK AO2 SLP120 T02940217 51009
14837KMSN MSN20090623085509306/23/09 08:55:31  5-MIN KMSN 231455Z 23006KT 10SM CLR 29/21 A2991 880 60 2800 230/06 RMK AO2
14837KMSN MSN20090623090009306/23/09 09:00:31  5-MIN KMSN 231500Z 23005KT 10SM CLR 29/22 A2991 880 62 2800 220/05 RMK AO2
14837KMSN MSN20090623090509306/23/09 09:05:31  5-MIN KMSN 231505Z 25004KT 10SM CLR 30/22 A2991 870 60 2800 250/04 RMK AO2
14837KMSN MSN20090623091009306/23/09 09:10:31  5-MIN KMSN 231510Z VRB03KT 10SM CLR 30/22 A2991 870 60 2800 VRB/03 RMK AO2
14837KMSN MSN20090623091509306/23/09 09:15:31  5-MIN KMSN 231515Z 24004KT 10SM CLR 30/22 A2991 870 60 2800 240/04 RMK AO2
14837KMSN MSN20090623092009306/23/09 09:20:31  5-MIN KMSN 231520Z 21003KT 10SM CLR 30/22 A2991 870 62 2800 210/03 RMK AO2
14837KMSN MSN20090623092509306/23/09 09:25:31  5-MIN KMSN 231525Z VRB04KT 10SM CLR 30/22 A2991 870 60 2800 VRB/04 RMK AO2
14837KMSN MSN20090623093009306/23/09 09:30:31  5-MIN KMSN 231530Z 22004KT 10SM CLR 31/22 A2991 870 60 2900 220/04 RMK AO2
14837KMSN MSN20090623093509306/23/09 09:35:31  5-MIN KMSN 231535Z 21004KT 10SM CLR 31/22 A2991 870 60 2900 210/04 RMK AO2
14837KMSN MSN20090623094009306/23/09 09:40:31  5-MIN KMSN 231540Z 20005KT 10SM CLR 31/22 A2991 880 60 2900 200/05 RMK AO2
14837KMSN MSN20090623094509306/23/09 09:45:31  5-MIN KMSN 231545Z 21005KT 10SM CLR 31/22 A2991 880 60 2900 210/05 RMK AO2
14837KMSN MSN20090623095011006/23/09 09:50:31  5-MIN KMSN 231550Z 22004KT 10SM CLR 31/22 A2991 880 60 2900 220/04 RMK AO2 SLP120 T03060222
14837KMSN MSN20090623095509306/23/09 09:55:31  5-MIN KMSN 231555Z 25003KT 10SM CLR 31/22 A2991 870 58 2900 250/03 RMK AO2
14837KMSN MSN20090623100009306/23/09 10:00:31  5-MIN KMSN 231600Z 22006KT 10SM CLR 31/22 A2991 870 60 2900 220/06 RMK AO2
14837KMSN MSN20090623100509306/23/09 10:05:31  5-MIN KMSN 231605Z 22005KT 10SM CLR 31/22 A2991 870 58 2900 220/05 RMK AO2
14837KMSN MSN20090623101009306/23/09 10:10:31  5-MIN KMSN 231610Z VRB05KT 10SM CLR 31/22 A2991 870 58 2900 VRB/05 RMK AO2
14837KMSN MSN20090623101509306/23/09 10:15:31  5-MIN KMSN 231615Z 20004KT 10SM CLR 31/22 A2991 870 58 2900 200/04 RMK AO2
14837KMSN MSN20090623102009306/23/09 10:20:31  5-MIN KMSN 231620Z 25004KT 10SM CLR 31/22 A2991 880 58 3000 250/04 RMK AO2
14837KMSN MSN20090623102509306/23/09 10:25:31  5-MIN KMSN 231625Z 20005KT 10SM CLR 32/22 A2991 880 56 3000 200/05 RMK AO2
14837KMSN MSN20090623103009306/23/09 10:30:31  5-MIN KMSN 231630Z VRB04KT 10SM CLR 32/22 A2990 880 56 3000 VRB/04 RMK AO2
14837KMSN MSN20090623103509306/23/09 10:35:31  5-MIN KMSN 231635Z 18003KT 10SM CLR 32/22 A2990 880 56 3000 180/03 RMK AO2
14837KMSN MSN20090623104009306/23/09 10:40:31  5-MIN KMSN 231640Z VRB03KT 10SM CLR 32/22 A2990 880 56 3000 VRB/03 RMK AO2
14837KMSN MSN20090623104509306/23/09 10:45:31  5-MIN KMSN 231645Z VRB03KT 10SM CLR 32/22 A2990 880 56 3000 VRB/03 RMK AO2
14837KMSN MSN20090623105011006/23/09 10:50:31  5-MIN KMSN 231650Z VRB03KT 10SM CLR 32/23 A2990 880 57 3100 VRB/03 RMK AO2 SLP118 T03220228
14837KMSN MSN20090623105509306/23/09 10:55:31  5-MIN KMSN 231655Z 00000KT 10SM CLR 32/22 A2990 880 55 3100 000/00 RMK AO2
14837KMSN MSN20090623110009306/23/09 11:00:31  5-MIN KMSN 231700Z VRB03KT 10SM CLR 32/22 A2990 880 55 3100 VRB/03 RMK AO2
14837KMSN MSN20090623110509306/23/09 11:05:31  5-MIN KMSN 231705Z 30004KT 10SM CLR 32/23 A2990 880 57 3100 290/04 RMK AO2
14837KMSN MSN20090623111009306/23/09 11:10:31  5-MIN KMSN 231710Z 32005KT 10SM CLR 32/22 A2990 880 55 3100 310/05 RMK AO2
14837KMSN MSN20090623111509306/23/09 11:15:31  5-MIN KMSN 231715Z VRB03KT 10SM CLR 32/22 A2990 880 53 3100 VRB/03 RMK AO2
14837KMSN MSN20090623112009306/23/09 11:20:31  5-MIN KMSN 231720Z VRB03KT 10SM CLR 33/22 A2990 880 53 3100 VRB/03 RMK AO2
14837KMSN MSN20090623112509306/23/09 11:25:31  5-MIN KMSN 231725Z VRB04KT 10SM CLR 33/22 A2990 880 53 3100 VRB/04 RMK AO2
14837KMSN MSN20090623113009306/23/09 11:30:31  5-MIN KMSN 231730Z VRB04KT 10SM CLR 33/22 A2990 880 53 3100 VRB/04 RMK AO2
14837KMSN MSN20090623113509306/23/09 11:35:31  5-MIN KMSN 231735Z 31004KT 10SM CLR 33/22 A2990 880 51 3100 310/04 RMK AO2
14837KMSN MSN20090623114009306/23/09 11:40:31  5-MIN KMSN 231740Z 28006KT 10SM CLR 33/22 A2990 880 51 3100 280/06 RMK AO2
14837KMSN MSN20090623114509306/23/09 11:45:31  5-MIN KMSN 231745Z VRB05KT 10SM CLR 32/22 A2990 880 53 3100 VRB/05 RMK AO2
14837KMSN MSN20090623115012806/23/09 11:50:31  5-MIN KMSN 231750Z 33006KT 10SM CLR 33/22 A2990 880 51 3100 330/06 RMK AO2 SLP118 T03280217 10328 20211 50004
14837KMSN MSN20090623115509306/23/09 11:55:31  5-MIN KMSN 231755Z 34006KT 10SM CLR 33/23 A2990 880 53 3200 340/06 RMK AO2
14837KMSN MSN20090623120009306/23/09 12:00:31  5-MIN KMSN 231800Z 32005KT 10SM CLR 33/22 A2990 890 53 3100 320/05 RMK AO2
14837KMSN MSN20090623120509306/23/09 12:05:31  5-MIN KMSN 231805Z VRB05KT 10SM CLR 33/23 A2990 890 53 3200 VRB/05 RMK AO2
14837KMSN MSN20090623121009306/23/09 12:10:31  5-MIN KMSN 231810Z VRB04KT 10SM CLR 33/22 A2990 890 51 3200 VRB/04 RMK AO2
14837KMSN MSN20090623121509306/23/09 12:15:31  5-MIN KMSN 231815Z 30004KT 10SM CLR 33/22 A2990 890 50 3200 300/04 RMK AO2
14837KMSN MSN20090623122009306/23/09 12:20:31  5-MIN KMSN 231820Z VRB05KT 10SM CLR 33/22 A2990 890 50 3200 VRB/05 RMK AO2
14837KMSN MSN20090623122509306/23/09 12:25:31  5-MIN KMSN 231825Z VRB05KT 10SM CLR 33/21 A2990 890 48 3200 VRB/05 RMK AO2
14837KMSN MSN20090623123009306/23/09 12:30:31  5-MIN KMSN 231830Z 29005KT 10SM CLR 33/21 A2990 890 48 3200 280/05 RMK AO2
14837KMSN MSN20090623123509306/23/09 12:35:31  5-MIN KMSN 231835Z 27005KT 10SM CLR 33/21 A2989 890 48 3200 270/05 RMK AO2
14837KMSN MSN20090623124009306/23/09 12:40:31  5-MIN KMSN 231840Z VRB05KT 10SM CLR 33/21 A2989 890 46 3200 VRB/05 RMK AO2
14837KMSN MSN20090623124510906/23/09 12:45:31  5-MIN KMSN 231845Z 28007KT 250V310 10SM CLR 33/22 A2989 890 50 3200 270/07 250V310 RMK AO2
14837KMSN MSN20090623125011006/23/09 12:50:31  5-MIN KMSN 231850Z VRB06KT 10SM CLR 33/21 A2989 890 48 3200 VRB/06 RMK AO2 SLP116 T03330211
14837KMSN MSN20090623125509306/23/09 12:55:31  5-MIN KMSN 231855Z 27005KT 10SM CLR 33/21 A2989 890 48 3200 260/05 RMK AO2
14837KMSN MSN20090623130009306/23/09 13:00:31  5-MIN KMSN 231900Z VRB04KT 10SM CLR 33/22 A2989 890 50 3200 VRB/04 RMK AO2
14837KMSN MSN20090623130509306/23/09 13:05:31  5-MIN KMSN 231905Z 28007KT 10SM CLR 33/21 A2989 890 48 3200 280/07 RMK AO2
14837KMSN MSN20090623131009306/23/09 13:10:31  5-MIN KMSN 231910Z 29005KT 10SM CLR 34/21 A2989 890 46 3300 290/05 RMK AO2
14837KMSN MSN20090623131509306/23/09 13:15:31  5-MIN KMSN 231915Z 25005KT 10SM CLR 34/22 A2989 890 48 3300 250/05 RMK AO2
14837KMSN MSN20090623132009306/23/09 13:20:31  5-MIN KMSN 231920Z VRB05KT 10SM CLR 34/21 A2989 890 46 3300 VRB/05 RMK AO2
14837KMSN MSN20090623132509306/23/09 13:25:31  5-MIN KMSN 231925Z VRB05KT 10SM CLR 34/22 A2989 890 48 3300 VRB/05 RMK AO2
14837KMSN MSN20090623133009306/23/09 13:30:31  5-MIN KMSN 231930Z VRB03KT 10SM CLR 34/21 A2989 900 45 3300 VRB/03 RMK AO2
14837KMSN MSN20090623133509306/23/09 13:35:31  5-MIN KMSN 231935Z VRB03KT 10SM CLR 34/21 A2988 900 43 3300 VRB/03 RMK AO2
14837KMSN MSN20090623134009306/23/09 13:40:31  5-MIN KMSN 231940Z VRB04KT 10SM CLR 34/21 A2988 900 45 3300 VRB/04 RMK AO2
14837KMSN MSN20090623134509306/23/09 13:45:31  5-MIN KMSN 231945Z VRB03KT 10SM CLR 34/21 A2988 900 46 3300 VRB/03 RMK AO2
14837KMSN MSN20090623135011006/23/09 13:50:31  5-MIN KMSN 231950Z 24004KT 10SM CLR 34/21 A2988 900 45 3300 240/04 RMK AO2 SLP112 T03390206
14837KMSN MSN20090623135509306/23/09 13:55:31  5-MIN KMSN 231955Z 27006KT 10SM CLR 34/20 A2988 900 43 3300 270/06 RMK AO2
14837KMSN MSN20090623140009306/23/09 14:00:31  5-MIN KMSN 232000Z 27006KT 10SM CLR 34/20 A2988 900 43 3300 270/06 RMK AO2
14837KMSN MSN20090623140509306/23/09 14:05:31  5-MIN KMSN 232005Z VRB04KT 10SM CLR 34/20 A2988 900 43 3300 VRB/04 RMK AO2
14837KMSN MSN20090623141009306/23/09 14:10:31  5-MIN KMSN 232010Z 33005KT 10SM CLR 34/20 A2988 900 42 3300 330/05 RMK AO2
14837KMSN MSN20090623141509306/23/09 14:15:31  5-MIN KMSN 232015Z VRB05KT 10SM CLR 34/21 A2988 910 45 3300 VRB/05 RMK AO2
14837KMSN MSN20090623142009306/23/09 14:20:31  5-MIN KMSN 232020Z VRB03KT 10SM CLR 34/21 A2987 910 45 3300 VRB/03 RMK AO2
14837KMSN MSN20090623142509306/23/09 14:25:31  5-MIN KMSN 232025Z 28004KT 10SM CLR 34/21 A2988 910 46 3300 280/04 RMK AO2
14837KMSN MSN20090623143009306/23/09 14:30:31  5-MIN KMSN 232030Z VRB03KT 10SM CLR 34/20 A2987 910 43 3300 VRB/03 RMK AO2
14837KMSN MSN20090623143509306/23/09 14:35:31  5-MIN KMSN 232035Z VRB05KT 10SM CLR 34/21 A2987 910 45 3300 VRB/05 RMK AO2
14837KMSN MSN20090623144009306/23/09 14:40:31  5-MIN KMSN 232040Z 00000KT 10SM CLR 34/19 A2987 910 42 3300 000/00 RMK AO2
14837KMSN MSN20090623144509306/23/09 14:45:31  5-MIN KMSN 232045Z 30003KT 10SM CLR 34/21 A2987 910 45 3400 300/03 RMK AO2
14837KMSN MSN20090623145011606/23/09 14:50:31  5-MIN KMSN 232050Z VRB04KT 10SM CLR 34/19 A2988 900 40 3300 VRB/04 RMK AO2 SLP110 T03440194 57002
14837KMSN MSN20090623145509606/23/09 14:55:31  5-MIN KMSN 232055Z VRB04KT 10SM FEW060 34/19 A2988 900 40 3300 VRB/04 RMK AO2
14837KMSN MSN20090623150009606/23/09 15:00:31  5-MIN KMSN 232100Z VRB03KT 10SM FEW060 34/19 A2988 900 40 3300 VRB/03 RMK AO2
14837KMSN MSN20090623150509606/23/09 15:05:31  5-MIN KMSN 232105Z VRB03KT 10SM FEW060 34/19 A2988 910 40 3400 VRB/03 RMK AO2
14837KMSN MSN20090623151009606/23/09 15:10:31  5-MIN KMSN 232110Z 31004KT 10SM FEW060 34/19 A2988 900 40 3300 310/04 RMK AO2
14837KMSN MSN20090623151509606/23/09 15:15:31  5-MIN KMSN 232115Z VRB03KT 10SM FEW060 34/19 A2988 910 40 3400 VRB/03 RMK AO2
14837KMSN MSN20090623152009606/23/09 15:20:31  5-MIN KMSN 232120Z 26005KT 10SM FEW060 34/19 A2988 900 39 3300 260/05 RMK AO2
14837KMSN MSN20090623152509606/23/09 15:25:31  5-MIN KMSN 232125Z 29005KT 10SM FEW060 34/18 A2988 900 38 3300 290/05 RMK AO2
14837KMSN MSN20090623153009606/23/09 15:30:31  5-MIN KMSN 232130Z 00000KT 10SM FEW060 34/18 A2988 900 38 3300 000/00 RMK AO2
14837KMSN MSN20090623153509606/23/09 15:35:31  5-MIN KMSN 232135Z 00000KT 10SM FEW060 34/19 A2988 900 39 3300 000/00 RMK AO2
14837KMSN MSN20090623154009606/23/09 15:40:31  5-MIN KMSN 232140Z 27004KT 10SM FEW060 34/19 A2988 900 40 3300 270/04 RMK AO2
14837KMSN MSN20090623154509606/23/09 15:45:31  5-MIN KMSN 232145Z 00000KT 10SM FEW060 34/19 A2988 900 40 3300 000/00 RMK AO2
14837KMSN MSN20090623155011306/23/09 15:50:31  5-MIN KMSN 232150Z 00000KT 10SM FEW060 34/19 A2988 900 39 3300 000/00 RMK AO2 SLP111 T03440189
14837KMSN MSN20090623155509306/23/09 15:55:31  5-MIN KMSN 232155Z 00000KT 10SM CLR 34/17 A2988 900 35 3300 000/00 RMK AO2
14837KMSN MSN20090623160009606/23/09 16:00:31  5-MIN KMSN 232200Z 00000KT 10SM FEW060 34/18 A2988 910 38 3400 000/00 RMK AO2
14837KMSN MSN20090623160509606/23/09 16:05:31  5-MIN KMSN 232205Z 31005KT 10SM FEW060 34/18 A2988 900 38 3400 300/05 RMK AO2
14837KMSN MSN20090623161009606/23/09 16:10:31  5-MIN KMSN 232210Z 28004KT 10SM FEW060 34/18 A2988 910 38 3400 280/04 RMK AO2
14837KMSN MSN20090623161509606/23/09 16:15:31  5-MIN KMSN 232215Z 27003KT 10SM FEW060 34/19 A2987 910 39 3400 270/03 RMK AO2
14837KMSN MSN20090623162009606/23/09 16:20:31  5-MIN KMSN 232220Z 29003KT 10SM FEW060 34/19 A2987 910 40 3400 290/03 RMK AO2
14837KMSN MSN20090623162509606/23/09 16:25:31  5-MIN KMSN 232225Z VRB03KT 10SM FEW060 34/18 A2987 910 36 3400 VRB/03 RMK AO2
14837KMSN MSN20090623163009606/23/09 16:30:31  5-MIN KMSN 232230Z 28003KT 10SM FEW060 34/18 A2987 910 38 3400 280/03 RMK AO2
14837KMSN MSN20090623163509606/23/09 16:35:31  5-MIN KMSN 232235Z 00000KT 10SM FEW060 34/17 A2987 910 35 3400 000/00 RMK AO2
14837KMSN MSN20090623164009606/23/09 16:40:31  5-MIN KMSN 232240Z VRB03KT 10SM FEW060 34/18 A2987 910 37 3300 VRB/03 RMK AO2
14837KMSN MSN20090623164509606/23/09 16:45:31  5-MIN KMSN 232245Z 00000KT 10SM FEW060 34/18 A2987 910 39 3300 000/00 RMK AO2
14837KMSN MSN20090623165011306/23/09 16:50:31  5-MIN KMSN 232250Z 27003KT 10SM FEW060 34/17 A2987 910 36 3300 270/03 RMK AO2 SLP108 T03390172
14837KMSN MSN20090623165509306/23/09 16:55:31  5-MIN KMSN 232255Z 00000KT 10SM CLR 34/17 A2987 910 36 3300 000/00 RMK AO2
14837KMSN MSN20090623170009306/23/09 17:00:31  5-MIN KMSN 232300Z 00000KT 10SM CLR 34/19 A2987 910 40 3300 000/00 RMK AO2
14837KMSN MSN20090623170509306/23/09 17:05:31  5-MIN KMSN 232305Z 00000KT 10SM CLR 34/18 A2987 910 39 3300 000/00 RMK AO2
14837KMSN MSN20090623171009306/23/09 17:10:31  5-MIN KMSN 232310Z 27004KT 10SM CLR 33/18 A2987 910 39 3200 260/04 RMK AO2
14837KMSN MSN20090623171509306/23/09 17:15:31  5-MIN KMSN 232315Z 00000KT 10SM CLR 33/18 A2988 910 40 3200 000/00 RMK AO2
14837KMSN MSN20090623172009306/23/09 17:20:31  5-MIN KMSN 232320Z 00000KT 10SM CLR 33/19 A2988 910 44 3200 000/00 RMK AO2
14837KMSN MSN20090623172509306/23/09 17:25:31  5-MIN KMSN 232325Z 00000KT 10SM CLR 32/19 A2988 910 46 3100 000/00 RMK AO2
14837KMSN MSN20090623173009306/23/09 17:30:31  5-MIN KMSN 232330Z 00000KT 10SM CLR 32/20 A2988 900 49 3000 000/00 RMK AO2
14837KMSN MSN20090623173509606/23/09 17:35:31  5-MIN KMSN 232335Z 00000KT 10SM FEW060 32/19 A2988 900 44 3100 000/00 RMK AO2
14837KMSN MSN20090623174009606/23/09 17:40:31  5-MIN KMSN 232340Z 27003KT 10SM FEW060 32/19 A2988 900 44 3100 270/03 RMK AO2
14837KMSN MSN20090623174509606/23/09 17:45:31  5-MIN KMSN 232345Z 00000KT 10SM FEW060 32/20 A2988 900 49 3000 000/00 RMK AO2
14837KMSN MSN20090623175013106/23/09 17:50:31  5-MIN KMSN 232350Z 00000KT 10SM FEW050 32/20 A2988 900 49 3000 000/00 RMK AO2 SLP111 T03170200 10344 20317 56007
14837KMSN MSN20090623175509606/23/09 17:55:31  5-MIN KMSN 232355Z 00000KT 10SM FEW050 32/20 A2988 900 49 3000 000/00 RMK AO2
14837KMSN MSN20090623180009606/23/09 18:00:31  5-MIN KMSN 240000Z 00000KT 10SM FEW050 31/20 A2988 900 51 3000 000/00 RMK AO2
14837KMSN MSN20090623180509606/23/09 18:05:31  5-MIN KMSN 240005Z 00000KT 10SM FEW050 31/22 A2988 900 58 2900 000/00 RMK AO2
14837KMSN MSN20090623181009606/23/09 18:10:31  5-MIN KMSN 240010Z 00000KT 10SM FEW050 30/22 A2988 900 62 2900 000/00 RMK AO2
14837KMSN MSN20090623181509606/23/09 18:15:31  5-MIN KMSN 240015Z 00000KT 10SM FEW050 29/22 A2988 900 62 2800 000/00 RMK AO2
14837KMSN MSN20090623182009606/23/09 18:20:31  5-MIN KMSN 240020Z 00000KT 10SM FEW050 29/22 A2988 900 62 2800 000/00 RMK AO2
14837KMSN MSN20090623182509606/23/09 18:25:31  5-MIN KMSN 240025Z 00000KT 10SM FEW050 29/22 A2988 910 62 2800 000/00 RMK AO2
14837KMSN MSN20090623183009606/23/09 18:30:31  5-MIN KMSN 240030Z 00000KT 10SM FEW050 29/22 A2988 910 64 2800 000/00 RMK AO2
14837KMSN MSN20090623183509606/23/09 18:35:31  5-MIN KMSN 240035Z 00000KT 10SM FEW050 30/21 A2988 900 58 2900 000/00 RMK AO2
14837KMSN MSN20090623184009606/23/09 18:40:31  5-MIN KMSN 240040Z 00000KT 10SM FEW050 30/20 A2988 900 54 2900 000/00 RMK AO2
14837KMSN MSN20090623184509606/23/09 18:45:31  5-MIN KMSN 240045Z 00000KT 10SM FEW050 30/21 A2988 900 56 2900 000/00 RMK AO2
14837KMSN MSN20090623185011006/23/09 18:50:31  5-MIN KMSN 240050Z 00000KT 10SM CLR 30/21 A2988 910 56 2900 000/00 RMK AO2 SLP109 T03000206
14837KMSN MSN20090623185509306/23/09 18:55:31  5-MIN KMSN 240055Z 00000KT 10SM CLR 29/20 A2988 910 56 2800 000/00 RMK AO2
14837KMSN MSN20090623190009606/23/09 19:00:31  5-MIN KMSN 240100Z 00000KT 10SM FEW060 30/20 A2988 900 54 2900 000/00 RMK AO2
14837KMSN MSN20090623190509606/23/09 19:05:31  5-MIN KMSN 240105Z 00000KT 10SM FEW060 31/20 A2988 900 52 2900 000/00 RMK AO2
14837KMSN MSN20090623191009606/23/09 19:10:31  5-MIN KMSN 240110Z 00000KT 10SM FEW060 30/21 A2988 900 56 2900 000/00 RMK AO2
14837KMSN MSN20090623191509606/23/09 19:15:31  5-MIN KMSN 240115Z 00000KT 10SM FEW060 30/21 A2988 900 56 2900 000/00 RMK AO2
14837KMSN MSN20090623192009606/23/09 19:20:31  5-MIN KMSN 240120Z 00000KT 10SM FEW060 30/21 A2988 910 58 2900 000/00 RMK AO2
14837KMSN MSN20090623192509606/23/09 19:25:31  5-MIN KMSN 240125Z 00000KT 10SM FEW060 30/21 A2988 900 58 2900 000/00 RMK AO2
14837KMSN MSN20090623193009606/23/09 19:30:31  5-MIN KMSN 240130Z 22003KT 10SM FEW060 30/21 A2987 910 58 2900 220/03 RMK AO2
14837KMSN MSN20090623193509606/23/09 19:35:31  5-MIN KMSN 240135Z 22004KT 10SM FEW060 29/22 A2988 910 62 2800 220/04 RMK AO2
14837KMSN MSN20090623194009606/23/09 19:40:31  5-MIN KMSN 240140Z 22004KT 10SM FEW060 30/22 A2987 910 60 2900 220/04 RMK AO2
14837KMSN MSN20090623194509606/23/09 19:45:31  5-MIN KMSN 240145Z 22004KT 10SM FEW060 29/22 A2987 910 62 2800 220/04 RMK AO2
14837KMSN MSN20090623195011306/23/09 19:50:31  5-MIN KMSN 240150Z 22004KT 10SM FEW060 29/22 A2987 910 64 2800 220/04 RMK AO2 SLP108 T02940222
14837KMSN MSN20090623195509606/23/09 19:55:31  5-MIN KMSN 240155Z 24003KT 10SM FEW060 29/22 A2988 910 64 2800 240/03 RMK AO2
14837KMSN MSN20090623200009606/23/09 20:00:31  5-MIN KMSN 240200Z 00000KT 10SM FEW060 29/22 A2988 910 67 2700 000/00 RMK AO2
14837KMSN MSN20090623200509606/23/09 20:05:31  5-MIN KMSN 240205Z 21003KT 10SM FEW060 29/22 A2987 910 67 2700 210/03 RMK AO2
14837KMSN MSN20090623201009606/23/09 20:10:31  5-MIN KMSN 240210Z 23004KT 10SM FEW060 29/22 A2987 910 64 2800 230/04 RMK AO2
14837KMSN MSN20090623201509606/23/09 20:15:31  5-MIN KMSN 240215Z 22004KT 10SM FEW060 29/22 A2987 910 67 2700 220/04 RMK AO2
14837KMSN MSN20090623202009606/23/09 20:20:31  5-MIN KMSN 240220Z 22003KT 10SM FEW060 29/22 A2987 910 67 2700 220/03 RMK AO2
14837KMSN MSN20090623202509606/23/09 20:25:31  5-MIN KMSN 240225Z 22004KT 10SM FEW060 29/22 A2987 910 64 2800 220/04 RMK AO2
14837KMSN MSN20090623203009606/23/09 20:30:31  5-MIN KMSN 240230Z 22004KT 10SM FEW060 29/22 A2987 910 67 2700 220/04 RMK AO2
14837KMSN MSN20090623203509606/23/09 20:35:31  5-MIN KMSN 240235Z 22003KT 10SM FEW060 29/22 A2987 910 67 2700 220/03 RMK AO2
14837KMSN MSN20090623204009606/23/09 20:40:31  5-MIN KMSN 240240Z 23003KT 10SM FEW060 29/22 A2988 910 67 2700 230/03 RMK AO2
14837KMSN MSN20090623204509606/23/09 20:45:31  5-MIN KMSN 240245Z 00000KT 10SM FEW060 28/22 A2988 910 69 2700 000/00 RMK AO2
14837KMSN MSN20090623205011906/23/09 20:50:31  5-MIN KMSN 240250Z 00000KT 10SM FEW060 28/22 A2988 900 69 2700 000/00 RMK AO2 SLP109 T02830222 53000
14837KMSN MSN20090623205509306/23/09 20:55:31  5-MIN KMSN 240255Z 00000KT 10SM CLR 28/22 A2988 900 71 2600 000/00 RMK AO2
14837KMSN MSN20090623210009306/23/09 21:00:31  5-MIN KMSN 240300Z 00000KT 10SM CLR 28/22 A2988 900 71 2600 000/00 RMK AO2
14837KMSN MSN20090623210509306/23/09 21:05:31  5-MIN KMSN 240305Z 00000KT 10SM CLR 28/22 A2988 900 69 2600 000/00 RMK AO2
14837KMSN MSN20090623211009306/23/09 21:10:31  5-MIN KMSN 240310Z 00000KT 10SM CLR 28/22 A2988 900 69 2600 000/00 RMK AO2
14837KMSN MSN20090623211509306/23/09 21:15:31  5-MIN KMSN 240315Z 00000KT 10SM CLR 28/22 A2988 900 69 2600 000/00 RMK AO2
14837KMSN MSN20090623212009306/23/09 21:20:31  5-MIN KMSN 240320Z 00000KT 10SM CLR 28/22 A2988 900 69 2600 000/00 RMK AO2
14837KMSN MSN20090623212509306/23/09 21:25:31  5-MIN KMSN 240325Z 00000KT 10SM CLR 28/22 A2988 900 69 2600 000/00 RMK AO2
14837KMSN MSN20090623213009306/23/09 21:30:31  5-MIN KMSN 240330Z 00000KT 10SM CLR 27/22 A2988 900 73 2500 000/00 RMK AO2
14837KMSN MSN20090623213509306/23/09 21:35:31  5-MIN KMSN 240335Z 00000KT 10SM CLR 27/22 A2988 900 71 2500 000/00 RMK AO2
14837KMSN MSN20090623214009306/23/09 21:40:31  5-MIN KMSN 240340Z 00000KT 10SM CLR 27/21 A2988 900 69 2500 000/00 RMK AO2
14837KMSN MSN20090623214509306/23/09 21:45:31  5-MIN KMSN 240345Z 00000KT 10SM CLR 28/22 A2989 900 69 2600 000/00 RMK AO2
14837KMSN MSN20090623215011006/23/09 21:50:31  5-MIN KMSN 240350Z 00000KT 10SM CLR 28/22 A2989 900 69 2600 000/00 RMK AO2 SLP112 T02780217
14837KMSN MSN20090623215509306/23/09 21:55:31  5-MIN KMSN 240355Z 00000KT 10SM CLR 28/22 A2989 900 69 2600 000/00 RMK AO2
14837KMSN MSN20090623220009306/23/09 22:00:31  5-MIN KMSN 240400Z 00000KT 10SM CLR 27/22 A2989 900 71 2500 000/00 RMK AO2
14837KMSN MSN20090623220509306/23/09 22:05:31  5-MIN KMSN 240405Z 00000KT 10SM CLR 27/22 A2989 890 71 2500 000/00 RMK AO2
14837KMSN MSN20090623221009306/23/09 22:10:31  5-MIN KMSN 240410Z 00000KT 10SM CLR 27/22 A2989 890 73 2500 000/00 RMK AO2
14837KMSN MSN20090623221509306/23/09 22:15:31  5-MIN KMSN 240415Z 00000KT 10SM CLR 26/22 A2989 890 79 2400 000/00 RMK AO2
14837KMSN MSN20090623222009306/23/09 22:20:31  5-MIN KMSN 240420Z 00000KT 10SM CLR 26/22 A2989 890 79 2400 000/00 RMK AO2
14837KMSN MSN20090623222509306/23/09 22:25:31  5-MIN KMSN 240425Z 00000KT 10SM CLR 26/22 A2989 890 79 2400 000/00 RMK AO2
14837KMSN MSN20090623223009306/23/09 22:30:31  5-MIN KMSN 240430Z 00000KT 10SM CLR 25/22 A2989 890 81 2300 000/00 RMK AO2
14837KMSN MSN20090623223509306/23/09 22:35:31  5-MIN KMSN 240435Z 00000KT 10SM CLR 24/22 A2989 890 84 2200 000/00 RMK AO2
14837KMSN MSN20090623224009306/23/09 22:40:31  5-MIN KMSN 240440Z 00000KT 10SM CLR 25/22 A2989 890 81 2300 000/00 RMK AO2
14837KMSN MSN20090623224509306/23/09 22:45:31  5-MIN KMSN 240445Z 00000KT 10SM CLR 24/22 A2989 890 87 2200 000/00 RMK AO2
14837KMSN MSN20090623225011006/23/09 22:50:31  5-MIN KMSN 240450Z 00000KT 10SM CLR 24/22 A2990 890 84 2200 000/00 RMK AO2 SLP116 T02440217
14837KMSN MSN20090623225509306/23/09 22:55:31  5-MIN KMSN 240455Z 00000KT 10SM CLR 24/22 A2990 890 87 2200 000/00 RMK AO2
14837KMSN MSN20090623230009306/23/09 23:00:31  5-MIN KMSN 240500Z 00000KT 10SM CLR 24/22 A2990 890 84 2200 000/00 RMK AO2
14837KMSN MSN20090623230509306/23/09 23:05:31  5-MIN KMSN 240505Z 00000KT 10SM CLR 24/22 A2990 890 87 2200 000/00 RMK AO2
14837KMSN MSN20090623231009306/23/09 23:10:31  5-MIN KMSN 240510Z 00000KT 10SM CLR 25/22 A2990 890 81 2300 000/00 RMK AO2
14837KMSN MSN20090623231509306/23/09 23:15:31  5-MIN KMSN 240515Z 00000KT 10SM CLR 24/22 A2990 890 84 2200 000/00 RMK AO2
14837KMSN MSN20090623232009306/23/09 23:20:31  5-MIN KMSN 240520Z 00000KT 10SM CLR 24/22 A2990 880 87 2200 000/00 RMK AO2
14837KMSN MSN20090623232509306/23/09 23:25:31  5-MIN KMSN 240525Z 23003KT 10SM CLR 24/22 A2990 880 87 2100 230/03 RMK AO2
14837KMSN MSN20090623233009306/23/09 23:30:31  5-MIN KMSN 240530Z 00000KT 10SM CLR 25/22 A2990 880 81 2300 000/00 RMK AO2
14837KMSN MSN20090623233509306/23/09 23:35:31  5-MIN KMSN 240535Z 00000KT 10SM CLR 26/22 A2990 880 79 2300 000/00 RMK AO2
14837KMSN MSN20090623234009306/23/09 23:40:31  5-MIN KMSN 240540Z 00000KT 10SM CLR 24/22 A2990 880 84 2200 000/00 RMK AO2
14837KMSN MSN20090623234509306/23/09 23:45:31  5-MIN KMSN 240545Z 00000KT 10SM CLR 23/22 A2990 880 90 2100 000/00 RMK AO2
14837KMSN MSN20090623235013806/23/09 23:50:31  5-MIN KMSN 240550Z 00000KT 10SM CLR 24/22 A2990 880 87 2200 000/00 RMK AO2 SLP119 T02390217 10317 20233 403440189 55000
14837KMSN MSN20090623235509306/23/09 23:55:31  5-MIN KMSN 240555Z 00000KT 10SM CLR 24/22 A2990 880 84 2200 000/00 RMK AO2
14837KMSN MSN20090624000009306/24/09 00:00:32  5-MIN KMSN 240600Z 27004KT 10SM CLR 23/22 A2991 880 90 2100 270/04 RMK AO2
14837KMSN MSN20090624000509306/24/09 00:05:31  5-MIN KMSN 240605Z 29003KT 10SM CLR 25/22 A2991 880 84 2300 290/03 RMK AO2
14837KMSN MSN20090624001009306/24/09 00:10:31  5-MIN KMSN 240610Z 00000KT 10SM CLR 25/22 A2991 880 84 2300 000/00 RMK AO2
14837KMSN MSN20090624001509306/24/09 00:15:31  5-MIN KMSN 240615Z 00000KT 10SM CLR 25/22 A2991 880 84 2300 000/00 RMK AO2
14837KMSN MSN20090624002009306/24/09 00:20:31  5-MIN KMSN 240620Z 00000KT 10SM CLR 25/22 A2991 870 84 2300 000/00 RMK AO2
14837KMSN MSN20090624002509306/24/09 00:25:31  5-MIN KMSN 240625Z 00000KT 10SM CLR 24/22 A2991 880 87 2200 000/00 RMK AO2
14837KMSN MSN20090624003009306/24/09 00:30:31  5-MIN KMSN 240630Z VRB03KT 10SM CLR 24/22 A2991 880 84 2200 VRB/03 RMK AO2
14837KMSN MSN20090624003509306/24/09 00:35:31  5-MIN KMSN 240635Z 28003KT 10SM CLR 24/22 A2991 880 84 2200 280/03 RMK AO2
14837KMSN MSN20090624004009306/24/09 00:40:31  5-MIN KMSN 240640Z 31004KT 10SM CLR 24/21 A2991 880 81 2200 310/04 RMK AO2
14837KMSN MSN20090624004509306/24/09 00:45:31  5-MIN KMSN 240645Z 00000KT 10SM CLR 24/21 A2991 880 81 2200 000/00 RMK AO2
14837KMSN MSN20090624005011006/24/09 00:50:31  5-MIN KMSN 240650Z 00000KT 10SM CLR 24/21 A2991 880 81 2200 000/00 RMK AO2 SLP118 T02440211
14837KMSN MSN20090624005509306/24/09 00:55:31  5-MIN KMSN 240655Z 00000KT 10SM CLR 24/21 A2991 880 84 2100 000/00 RMK AO2
14837KMSN MSN20090624010009306/24/09 01:00:31  5-MIN KMSN 240700Z 00000KT 10SM CLR 24/21 A2991 880 84 2100 000/00 RMK AO2
14837KMSN MSN20090624010509306/24/09 01:05:31  5-MIN KMSN 240705Z 00000KT 10SM CLR 24/21 A2991 880 84 2100 000/00 RMK AO2
14837KMSN MSN20090624011009306/24/09 01:10:31  5-MIN KMSN 240710Z 00000KT 10SM CLR 24/21 A2991 880 84 2100 000/00 RMK AO2
14837KMSN MSN20090624011509306/24/09 01:15:31  5-MIN KMSN 240715Z 00000KT 10SM CLR 23/21 A2991 870 87 2100 000/00 RMK AO2
14837KMSN MSN20090624012009306/24/09 01:20:31  5-MIN KMSN 240720Z 00000KT 10SM CLR 24/21 A2991 880 84 2100 000/00 RMK AO2
14837KMSN MSN20090624012509306/24/09 01:25:31  5-MIN KMSN 240725Z 00000KT 10SM CLR 24/21 A2991 880 81 2100 000/00 RMK AO2
14837KMSN MSN20090624013009306/24/09 01:30:31  5-MIN KMSN 240730Z 00000KT 10SM CLR 24/21 A2991 870 81 2100 000/00 RMK AO2
14837KMSN MSN20090624013509306/24/09 01:35:31  5-MIN KMSN 240735Z 00000KT 10SM CLR 24/21 A2991 870 81 2100 000/00 RMK AO2
14837KMSN MSN20090624014009306/24/09 01:40:31  5-MIN KMSN 240740Z 00000KT 10SM CLR 23/21 A2991 870 84 2100 000/00 RMK AO2
14837KMSN MSN20090624014509306/24/09 01:45:31  5-MIN KMSN 240745Z 00000KT 10SM CLR 23/21 A2991 870 87 2000 000/00 RMK AO2
14837KMSN MSN20090624015011006/24/09 01:50:31  5-MIN KMSN 240750Z 00000KT 10SM CLR 23/21 A2991 870 84 2100 000/00 RMK AO2 SLP122 T02330206
14837KMSN MSN20090624015509306/24/09 01:55:31  5-MIN KMSN 240755Z 00000KT 10SM CLR 22/21 A2991 870 90 1900 000/00 RMK AO2
14837KMSN MSN20090624020009306/24/09 02:00:31  5-MIN KMSN 240800Z 00000KT 10SM CLR 23/21 A2991 870 87 2000 000/00 RMK AO2
14837KMSN MSN20090624020509306/24/09 02:05:31  5-MIN KMSN 240805Z 00000KT 10SM CLR 23/21 A2991 870 87 2000 000/00 RMK AO2
14837KMSN MSN20090624021009306/24/09 02:10:31  5-MIN KMSN 240810Z 00000KT 10SM CLR 23/21 A2991 870 84 2100 000/00 RMK AO2
14837KMSN MSN20090624021509306/24/09 02:15:31  5-MIN KMSN 240815Z 00000KT 10SM CLR 23/21 A2991 870 84 2100 000/00 RMK AO2
14837KMSN MSN20090624022009306/24/09 02:20:31  5-MIN KMSN 240820Z 00000KT 10SM CLR 23/20 A2991 870 84 2000 000/00 RMK AO2
14837KMSN MSN20090624022509306/24/09 02:25:31  5-MIN KMSN 240825Z 00000KT 10SM CLR 23/20 A2991 880 84 2000 000/00 RMK AO2
14837KMSN MSN20090624023009306/24/09 02:30:31  5-MIN KMSN 240830Z 00000KT 10SM CLR 23/20 A2991 880 84 2000 000/00 RMK AO2
14837KMSN MSN20090624023509306/24/09 02:35:31  5-MIN KMSN 240835Z 00000KT 10SM CLR 22/20 A2991 880 90 1900 000/00 RMK AO2
14837KMSN MSN20090624024009306/24/09 02:40:31  5-MIN KMSN 240840Z 00000KT 10SM CLR 22/20 A2991 870 87 2000 000/00 RMK AO2
14837KMSN MSN20090624024509306/24/09 02:45:31  5-MIN KMSN 240845Z 00000KT 10SM CLR 22/20 A2991 880 87 2000 000/00 RMK AO2
14837KMSN MSN20090624025011606/24/09 02:50:31  5-MIN KMSN 240850Z 00000KT 10SM CLR 22/20 A2991 880 87 2000 000/00 RMK AO2 SLP120 T02220200 52008
14837KMSN MSN20090624025509306/24/09 02:55:31  5-MIN KMSN 240855Z 00000KT 10SM CLR 22/20 A2991 880 90 1900 000/00 RMK AO2
14837KMSN MSN20090624030009306/24/09 03:00:31  5-MIN KMSN 240900Z 00000KT 10SM CLR 22/20 A2991 880 90 1900 000/00 RMK AO2
14837KMSN MSN20090624030509306/24/09 03:05:31  5-MIN KMSN 240905Z 00000KT 10SM CLR 22/20 A2991 880 90 1900 000/00 RMK AO2
14837KMSN MSN20090624031009306/24/09 03:10:31  5-MIN KMSN 240910Z 00000KT 10SM CLR 22/20 A2991 870 90 1900 000/00 RMK AO2
14837KMSN MSN20090624031509306/24/09 03:15:31  5-MIN KMSN 240915Z 00000KT 10SM CLR 22/19 A2992 870 84 1900 000/00 RMK AO2
14837KMSN MSN20090624032009306/24/09 03:20:31  5-MIN KMSN 240920Z 00000KT 10SM CLR 22/19 A2992 870 84 1900 000/00 RMK AO2
14837KMSN MSN20090624032509306/24/09 03:25:31  5-MIN KMSN 240925Z 00000KT 10SM CLR 22/19 A2992 870 84 1900 000/00 RMK AO2
14837KMSN MSN20090624033009306/24/09 03:30:31  5-MIN KMSN 240930Z 00000KT 10SM CLR 21/19 A2992 870 90 1800 000/00 RMK AO2
14837KMSN MSN20090624033509306/24/09 03:35:31  5-MIN KMSN 240935Z 00000KT 10SM CLR 21/19 A2992 870 93 1800 000/00 RMK AO2
14837KMSN MSN20090624034009306/24/09 03:40:31  5-MIN KMSN 240940Z 00000KT 10SM CLR 21/19 A2992 870 90 1800 000/00 RMK AO2
14837KMSN MSN20090624034509306/24/09 03:45:31  5-MIN KMSN 240945Z 00000KT 10SM CLR 21/19 A2992 870 90 1800 000/00 RMK AO2
14837KMSN MSN20090624035011006/24/09 03:50:31  5-MIN KMSN 240950Z 00000KT 10SM CLR 21/19 A2992 870 90 1800 000/00 RMK AO2 SLP123 T02110194
14837KMSN MSN20090624035509306/24/09 03:55:31  5-MIN KMSN 240955Z 00000KT 10SM CLR 21/20 A2992 870 93 1800 000/00 RMK AO2
14837KMSN MSN20090624040009306/24/09 04:00:31  5-MIN KMSN 241000Z 36003KT 10SM CLR 21/19 A2992 860 90 1800 360/03 RMK AO2
14837KMSN MSN20090624040509306/24/09 04:05:31  5-MIN KMSN 241005Z 35004KT 10SM CLR 21/19 A2992 860 93 1700 350/04 RMK AO2
14837KMSN MSN20090624041009206/24/09 04:10:31  5-MIN KMSN 241010Z 36004KT 9SM CLR 21/19 A2992 860 93 1700 360/04 RMK AO2
14837KMSN MSN20090624041509206/24/09 04:15:31  5-MIN KMSN 241015Z 36003KT 8SM CLR 21/19 A2992 860 93 1700 360/03 RMK AO2
14837KMSN MSN20090624042009206/24/09 04:20:31  5-MIN KMSN 241020Z 00000KT 7SM CLR 21/19 A2992 860 93 1700 000/00 RMK AO2
14837KMSN MSN20090624042509206/24/09 04:25:31  5-MIN KMSN 241025Z 00000KT 7SM CLR 21/19 A2992 860 93 1700 000/00 RMK AO2
14837KMSN MSN20090624043009506/24/09 04:30:31  5-MIN KMSN 241030Z 00000KT 6SM BR CLR 20/19 A2992 860 97 1700 000/00 RMK AO2
14837KMSN MSN20090624043509506/24/09 04:35:31  5-MIN KMSN 241035Z 00000KT 6SM BR CLR 20/19 A2992 860 97 1700 000/00 RMK AO2
14837KMSN MSN20090624044009506/24/09 04:40:31  5-MIN KMSN 241040Z 00000KT 6SM BR CLR 20/19 A2992 860 97 1700 000/00 RMK AO2
14837KMSN MSN20090624044509206/24/09 04:45:31  5-MIN KMSN 241045Z 00000KT 7SM CLR 21/19 A2992 860 93 1800 000/00 RMK AO2
14837KMSN MSN20090624045011406/24/09 04:50:31  5-MIN KMSN 241050Z 00000KT 6SM MIFG CLR 20/19 A2992 860 97 1700 000/00 RMK AO2 SLP126 T02000194
14837KMSN MSN20090624045509706/24/09 04:55:31  5-MIN KMSN 241055Z 00000KT 6SM MIFG CLR 20/19 A2992 860 97 1700 000/00 RMK AO2
14837KMSN MSN20090624050009706/24/09 05:00:31  5-MIN KMSN 241100Z 00000KT 6SM MIFG CLR 20/19 A2992 860 97 1700 000/00 RMK AO2
14837KMSN MSN20090624050509206/24/09 05:05:31  5-MIN KMSN 241105Z 00000KT 9SM CLR 21/19 A2992 860 93 1700 000/00 RMK AO2
14837KMSN MSN20090624051009306/24/09 05:10:31  5-MIN KMSN 241110Z 00000KT 10SM CLR 21/19 A2992 860 90 1800 000/00 RMK AO2
14837KMSN MSN20090624051509306/24/09 05:15:31  5-MIN KMSN 241115Z 00000KT 10SM CLR 21/19 A2992 860 90 1800 000/00 RMK AO2
14837KMSN MSN20090624052009306/24/09 05:20:31  5-MIN KMSN 241120Z 00000KT 10SM CLR 21/20 A2992 860 93 1800 000/00 RMK AO2
14837KMSN MSN20090624052509206/24/09 05:25:31  5-MIN KMSN 241125Z 00000KT 9SM CLR 21/20 A2992 860 93 1800 000/00 RMK AO2
14837KMSN MSN20090624053009306/24/09 05:30:31  5-MIN KMSN 241130Z 00000KT 10SM CLR 22/20 A2992 860 90 1900 000/00 RMK AO2
14837KMSN MSN20090624053509206/24/09 05:35:31  5-MIN KMSN 241135Z 00000KT 9SM CLR 22/20 A2992 860 87 1900 000/00 RMK AO2
14837KMSN MSN20090624054009206/24/09 05:40:31  5-MIN KMSN 241140Z 00000KT 9SM CLR 22/21 A2992 870 90 1900 000/00 RMK AO2
14837KMSN MSN20090624054509306/24/09 05:45:31  5-MIN KMSN 241145Z 00000KT 10SM CLR 23/21 A2992 870 87 2000 000/00 RMK AO2
14837KMSN MSN20090624055012806/24/09 05:50:31  5-MIN KMSN 241150Z 00000KT 10SM CLR 23/21 A2992 870 84 2100 000/00 RMK AO2 SLP124 T02330206 10250 20200 50001
14837KMSN MSN20090624055509306/24/09 05:55:31  5-MIN KMSN 241155Z 00000KT 10SM CLR 23/21 A2992 870 84 2100 000/00 RMK AO2
14837KMSN MSN20090624060009306/24/09 06:00:31  5-MIN KMSN 241200Z 00000KT 10SM CLR 24/20 A2992 870 78 2100 000/00 RMK AO2
14837KMSN MSN20090624060509306/24/09 06:05:31  5-MIN KMSN 241205Z 00000KT 10SM CLR 24/19 A2992 870 76 2100 000/00 RMK AO2
14837KMSN MSN20090624061009306/24/09 06:10:31  5-MIN KMSN 241210Z 00000KT 10SM CLR 24/20 A2992 860 78 2100 000/00 RMK AO2
14837KMSN MSN20090624061509306/24/09 06:15:31  5-MIN KMSN 241215Z 00000KT 10SM CLR 24/19 A2992 860 76 2100 000/00 RMK AO2
14837KMSN MSN20090624062009306/24/09 06:20:31  5-MIN KMSN 241220Z 00000KT 10SM CLR 24/19 A2993 860 73 2200 000/00 RMK AO2
14837KMSN MSN20090624062509306/24/09 06:25:31  5-MIN KMSN 241225Z 00000KT 10SM CLR 24/19 A2993 860 73 2200 000/00 RMK AO2
14837KMSN MSN20090624063009306/24/09 06:30:31  5-MIN KMSN 241230Z 00000KT 10SM CLR 25/19 A2993 860 68 2200 000/00 RMK AO2
14837KMSN MSN20090624063509306/24/09 06:35:31  5-MIN KMSN 241235Z 00000KT 10SM CLR 25/18 A2993 850 66 2200 000/00 RMK AO2
14837KMSN MSN20090624064009306/24/09 06:40:31  5-MIN KMSN 241240Z 00000KT 10SM CLR 25/19 A2993 860 68 2200 000/00 RMK AO2
14837KMSN MSN20090624064509306/24/09 06:45:31  5-MIN KMSN 241245Z 00000KT 10SM CLR 25/19 A2993 860 68 2200 000/00 RMK AO2
14837KMSN MSN20090624065011006/24/09 06:50:31  5-MIN KMSN 241250Z 00000KT 10SM CLR 25/19 A2993 850 68 2200 000/00 RMK AO2 SLP129 T02500189
14837KMSN MSN20090624065509306/24/09 06:55:31  5-MIN KMSN 241255Z 00000KT 10SM CLR 25/18 A2993 860 66 2200 000/00 RMK AO2
14837KMSN MSN20090624070009306/24/09 07:00:31  5-MIN KMSN 241300Z 00000KT 10SM CLR 26/18 A2993 850 64 2300 000/00 RMK AO2
14837KMSN MSN20090624070509306/24/09 07:05:31  5-MIN KMSN 241305Z 00000KT 10SM CLR 26/19 A2994 850 64 2400 000/00 RMK AO2
14837KMSN MSN20090624071009306/24/09 07:10:31  5-MIN KMSN 241310Z 00000KT 10SM CLR 26/19 A2993 850 64 2400 000/00 RMK AO2
14837KMSN MSN20090624071509306/24/09 07:15:31  5-MIN KMSN 241315Z 33003KT 10SM CLR 26/18 A2993 850 62 2400 330/03 RMK AO2
14837KMSN MSN20090624072009306/24/09 07:20:31  5-MIN KMSN 241320Z 35003KT 10SM CLR 26/18 A2994 850 62 2400 350/03 RMK AO2
14837KMSN MSN20090624072509306/24/09 07:25:31  5-MIN KMSN 241325Z 34003KT 10SM CLR 26/19 A2994 850 64 2400 340/03 RMK AO2
14837KMSN MSN20090624073009306/24/09 07:30:31  5-MIN KMSN 241330Z 34003KT 10SM CLR 26/19 A2994 850 64 2400 340/03 RMK AO2
14837KMSN MSN20090624073509306/24/09 07:35:31  5-MIN KMSN 241335Z 00000KT 10SM CLR 26/19 A2994 850 64 2400 000/00 RMK AO2
14837KMSN MSN20090624074009306/24/09 07:40:31  5-MIN KMSN 241340Z VRB04KT 10SM CLR 27/19 A2993 850 62 2400 VRB/04 RMK AO2
14837KMSN MSN20090624074509306/24/09 07:45:31  5-MIN KMSN 241345Z 01003KT 10SM CLR 27/19 A2993 850 62 2400 010/03 RMK AO2
14837KMSN MSN20090624075011006/24/09 07:50:31  5-MIN KMSN 241350Z 36004KT 10SM CLR 27/18 A2993 860 56 2500 360/04 RMK AO2 SLP127 T02720178
14837KMSN MSN20090624075509306/24/09 07:55:31  5-MIN KMSN 241355Z 36003KT 10SM CLR 27/18 A2993 860 58 2500 360/03 RMK AO2
14837KMSN MSN20090624080009306/24/09 08:00:31  5-MIN KMSN 241400Z 35005KT 10SM CLR 27/18 A2993 860 58 2500 350/05 RMK AO2
14837KMSN MSN20090624080509306/24/09 08:05:31  5-MIN KMSN 241405Z 32003KT 10SM CLR 27/18 A2993 860 60 2400 320/03 RMK AO2
14837KMSN MSN20090624081009306/24/09 08:10:31  5-MIN KMSN 241410Z 34003KT 10SM CLR 27/19 A2993 860 60 2500 340/03 RMK AO2
14837KMSN MSN20090624081509306/24/09 08:15:31  5-MIN KMSN 241415Z VRB04KT 10SM CLR 27/18 A2993 860 58 2500 VRB/04 RMK AO2
14837KMSN MSN20090624082009306/24/09 08:20:31  5-MIN KMSN 241420Z 36005KT 10SM CLR 28/19 A2993 860 58 2600 360/05 RMK AO2
14837KMSN MSN20090624082509306/24/09 08:25:31  5-MIN KMSN 241425Z 34004KT 10SM CLR 28/19 A2993 860 58 2600 340/04 RMK AO2
14837KMSN MSN20090624083009306/24/09 08:30:31  5-MIN KMSN 241430Z 34005KT 10SM CLR 27/18 A2993 850 58 2500 340/05 RMK AO2
14837KMSN MSN20090624083509306/24/09 08:35:31  5-MIN KMSN 241435Z 01003KT 10SM CLR 27/18 A2993 850 58 2500 010/03 RMK AO2
14837KMSN MSN20090624084009306/24/09 08:40:31  5-MIN KMSN 241440Z VRB03KT 10SM CLR 28/19 A2993 850 58 2600 VRB/03 RMK AO2
14837KMSN MSN20090624084509306/24/09 08:45:31  5-MIN KMSN 241445Z 31004KT 10SM CLR 27/19 A2993 850 60 2500 310/04 RMK AO2
14837KMSN MSN20090624085011606/24/09 08:50:31  5-MIN KMSN 241450Z 30004KT 10SM CLR 27/18 A2993 850 58 2500 300/04 RMK AO2 SLP129 T02720183 50003
14837KMSN MSN20090624085509306/24/09 08:55:31  5-MIN KMSN 241455Z 33003KT 10SM CLR 27/18 A2993 850 58 2500 330/03 RMK AO2
14837KMSN MSN20090624090009306/24/09 09:00:31  5-MIN KMSN 241500Z 32003KT 10SM CLR 28/19 A2993 850 58 2600 320/03 RMK AO2
14837KMSN MSN20090624090509306/24/09 09:05:31  5-MIN KMSN 241505Z 32004KT 10SM CLR 28/19 A2994 850 58 2600 320/04 RMK AO2
14837KMSN MSN20090624091009306/24/09 09:10:31  5-MIN KMSN 241510Z 33005KT 10SM CLR 28/18 A2994 850 54 2600 330/05 RMK AO2
14837KMSN MSN20090624091509306/24/09 09:15:31  5-MIN KMSN 241515Z 34005KT 10SM CLR 28/18 A2994 850 54 2600 340/05 RMK AO2
14837KMSN MSN20090624092009306/24/09 09:20:31  5-MIN KMSN 241520Z 34004KT 10SM CLR 28/18 A2994 850 54 2600 340/04 RMK AO2
14837KMSN MSN20090624092509306/24/09 09:25:31  5-MIN KMSN 241525Z 00000KT 10SM CLR 28/19 A2994 840 58 2600 000/00 RMK AO2
14837KMSN MSN20090624093009306/24/09 09:30:31  5-MIN KMSN 241530Z 31005KT 10SM CLR 29/19 A2994 840 56 2700 310/05 RMK AO2
14837KMSN MSN20090624093509306/24/09 09:35:31  5-MIN KMSN 241535Z 31004KT 10SM CLR 28/19 A2994 840 56 2600 310/04 RMK AO2
14837KMSN MSN20090624094009306/24/09 09:40:31  5-MIN KMSN 241540Z VRB03KT 10SM CLR 28/19 A2994 840 56 2600 VRB/03 RMK AO2
14837KMSN MSN20090624094509306/24/09 09:45:31  5-MIN KMSN 241545Z 32004KT 10SM CLR 28/19 A2994 840 56 2600 310/04 RMK AO2
14837KMSN MSN20090624095011006/24/09 09:50:31  5-MIN KMSN 241550Z 27003KT 10SM CLR 28/18 A2994 840 54 2600 270/03 RMK AO2 SLP132 T02830183
14837KMSN MSN20090624095509306/24/09 09:55:31  5-MIN KMSN 241555Z 30004KT 10SM CLR 29/19 A2994 850 54 2700 300/04 RMK AO2
14837KMSN MSN20090624100009306/24/09 10:00:31  5-MIN KMSN 241600Z VRB03KT 10SM CLR 29/19 A2994 850 54 2700 VRB/03 RMK AO2
14837KMSN MSN20090624100509306/24/09 10:05:31  5-MIN KMSN 241605Z VRB05KT 10SM CLR 29/19 A2994 840 54 2700 VRB/05 RMK AO2
14837KMSN MSN20090624101009306/24/09 10:10:31  5-MIN KMSN 241610Z 35004KT 10SM CLR 29/19 A2994 850 54 2700 350/04 RMK AO2
14837KMSN MSN20090624101509306/24/09 10:15:31  5-MIN KMSN 241615Z VRB03KT 10SM CLR 30/19 A2994 850 51 2800 VRB/03 RMK AO2
14837KMSN MSN20090624102009306/24/09 10:20:31  5-MIN KMSN 241620Z 00000KT 10SM CLR 29/19 A2994 850 54 2700 000/00 RMK AO2
14837KMSN MSN20090624102509306/24/09 10:25:31  5-MIN KMSN 241625Z 34003KT 10SM CLR 29/19 A2993 850 52 2700 340/03 RMK AO2
14837KMSN MSN20090624103009306/24/09 10:30:31  5-MIN KMSN 241630Z 00000KT 10SM CLR 29/18 A2993 850 50 2700 000/00 RMK AO2
14837KMSN MSN20090624103509306/24/09 10:35:31  5-MIN KMSN 241635Z 00000KT 10SM CLR 29/19 A2993 850 54 2700 000/00 RMK AO2
14837KMSN MSN20090624104009306/24/09 10:40:31  5-MIN KMSN 241640Z VRB04KT 10SM CLR 29/20 A2994 850 58 2700 VRB/04 RMK AO2
14837KMSN MSN20090624104509306/24/09 10:45:31  5-MIN KMSN 241645Z 25004KT 10SM CLR 29/20 A2994 850 56 2700 250/04 RMK AO2
14837KMSN MSN20090624105011006/24/09 10:50:31  5-MIN KMSN 241650Z 23003KT 10SM CLR 29/20 A2993 850 56 2700 230/03 RMK AO2 SLP129 T02940200
14837KMSN MSN20090624105509306/24/09 10:55:31  5-MIN KMSN 241655Z 24003KT 10SM CLR 29/21 A2993 850 58 2700 240/03 RMK AO2
14837KMSN MSN20090624110009306/24/09 11:00:31  5-MIN KMSN 241700Z 24003KT 10SM CLR 29/20 A2994 850 56 2700 240/03 RMK AO2
14837KMSN MSN20090624110509306/24/09 11:05:31  5-MIN KMSN 241705Z VRB03KT 10SM CLR 29/21 A2993 850 58 2700 VRB/03 RMK AO2
14837KMSN MSN20090624111009306/24/09 11:10:31  5-MIN KMSN 241710Z VRB04KT 10SM CLR 29/21 A2993 850 58 2700 VRB/04 RMK AO2
14837KMSN MSN20090624111509306/24/09 11:15:31  5-MIN KMSN 241715Z 23005KT 10SM CLR 29/20 A2993 850 56 2700 230/05 RMK AO2
14837KMSN MSN20090624112009306/24/09 11:20:31  5-MIN KMSN 241720Z 23004KT 10SM CLR 29/20 A2993 850 56 2700 230/04 RMK AO2
14837KMSN MSN20090624112509306/24/09 11:25:31  5-MIN KMSN 241725Z 25003KT 10SM CLR 30/20 A2993 850 54 2800 250/03 RMK AO2
14837KMSN MSN20090624113009306/24/09 11:30:31  5-MIN KMSN 241730Z 24005KT 10SM CLR 30/20 A2993 860 54 2800 240/05 RMK AO2
14837KMSN MSN20090624113509306/24/09 11:35:31  5-MIN KMSN 241735Z 21006KT 10SM CLR 30/19 A2993 860 51 2800 210/06 RMK AO2
14837KMSN MSN20090624114009306/24/09 11:40:31  5-MIN KMSN 241740Z 25003KT 10SM CLR 30/19 A2993 860 51 2800 250/03 RMK AO2
14837KMSN MSN20090624114509306/24/09 11:45:31  5-MIN KMSN 241745Z 25004KT 10SM CLR 30/19 A2993 850 51 2800 250/04 RMK AO2
14837KMSN MSN20090624115012806/24/09 11:50:31  5-MIN KMSN 241750Z 25004KT 10SM CLR 31/18 A2993 860 46 2900 250/04 RMK AO2 SLP128 T03060178 10306 20233 51005
14837KMSN MSN20090624115509306/24/09 11:55:31  5-MIN KMSN 241755Z 22004KT 10SM CLR 31/17 A2993 860 42 2900 210/04 RMK AO2
14837KMSN MSN20090624120009306/24/09 12:00:31  5-MIN KMSN 241800Z 21004KT 10SM CLR 31/17 A2993 860 41 2900 210/04 RMK AO2
14837KMSN MSN20090624120509306/24/09 12:05:31  5-MIN KMSN 241805Z 25004KT 10SM CLR 31/17 A2993 860 44 2900 250/04 RMK AO2
14837KMSN MSN20090624121009306/24/09 12:10:31  5-MIN KMSN 241810Z VRB05KT 10SM CLR 31/17 A2993 860 44 2900 VRB/05 RMK AO2
14837KMSN MSN20090624121509306/24/09 12:15:31  5-MIN KMSN 241815Z VRB04KT 10SM CLR 31/19 A2993 860 49 2900 VRB/04 RMK AO2
14837KMSN MSN20090624122009306/24/09 12:20:31  5-MIN KMSN 241820Z VRB05KT 10SM CLR 31/19 A2993 860 49 2900 VRB/05 RMK AO2
14837KMSN MSN20090624122509306/24/09 12:25:31  5-MIN KMSN 241825Z 30005KT 10SM CLR 31/18 A2992 860 44 2900 300/05 RMK AO2
14837KMSN MSN20090624123009306/24/09 12:30:31  5-MIN KMSN 241830Z 31004KT 10SM CLR 31/18 A2992 860 47 2900 310/04 RMK AO2
14837KMSN MSN20090624123509306/24/09 12:35:31  5-MIN KMSN 241835Z VRB03KT 10SM CLR 31/19 A2992 870 47 2900 VRB/03 RMK AO2
14837KMSN MSN20090624124009306/24/09 12:40:31  5-MIN KMSN 241840Z 32007KT 10SM CLR 31/21 A2992 870 53 2900 320/07 RMK AO2
14837KMSN MSN20090624124509306/24/09 12:45:31  5-MIN KMSN 241845Z 28004KT 10SM CLR 31/20 A2992 870 51 2900 280/04 RMK AO2
14837KMSN MSN20090624125011006/24/09 12:50:31  5-MIN KMSN 241850Z 30005KT 10SM CLR 31/19 A2992 870 49 2900 300/05 RMK AO2 SLP124 T03110194
14837KMSN MSN20090624125509306/24/09 12:55:31  5-MIN KMSN 241855Z 00000KT 10SM CLR 31/21 A2992 870 53 2900 000/00 RMK AO2
14837KMSN MSN20090624130009306/24/09 13:00:31  5-MIN KMSN 241900Z VRB04KT 10SM CLR 31/21 A2992 870 53 2900 VRB/04 RMK AO2
14837KMSN MSN20090624130509306/24/09 13:05:31  5-MIN KMSN 241905Z VRB05KT 10SM CLR 31/20 A2991 870 51 2900 VRB/05 RMK AO2
14837KMSN MSN20090624131009306/24/09 13:10:31  5-MIN KMSN 241910Z 32006KT 10SM CLR 31/19 A2991 870 49 2900 320/06 RMK AO2
14837KMSN MSN20090624131509306/24/09 13:15:31  5-MIN KMSN 241915Z VRB03KT 10SM CLR 31/20 A2991 870 51 2900 VRB/03 RMK AO2
14837KMSN MSN20090624132009306/24/09 13:20:31  5-MIN KMSN 241920Z 33005KT 10SM CLR 32/20 A2991 870 49 3000 330/05 RMK AO2
14837KMSN MSN20090624132509306/24/09 13:25:31  5-MIN KMSN 241925Z 33005KT 10SM CLR 32/19 A2991 870 47 3000 330/05 RMK AO2
14837KMSN MSN20090624133009306/24/09 13:30:31  5-MIN KMSN 241930Z 33006KT 10SM CLR 32/20 A2991 870 49 3000 320/06 RMK AO2
14837KMSN MSN20090624133509306/24/09 13:35:31  5-MIN KMSN 241935Z 32006KT 10SM CLR 31/20 A2991 870 51 2900 320/06 RMK AO2
14837KMSN MSN20090624134009306/24/09 13:40:31  5-MIN KMSN 241940Z 31007KT 10SM CLR 32/19 A2991 880 47 3000 310/07 RMK AO2
14837KMSN MSN20090624134509306/24/09 13:45:31  5-MIN KMSN 241945Z VRB03KT 10SM CLR 32/17 A2991 880 41 3000 VRB/03 RMK AO2
14837KMSN MSN20090624135011006/24/09 13:50:31  5-MIN KMSN 241950Z VRB05KT 10SM CLR 32/18 A2991 870 43 3000 VRB/05 RMK AO2 SLP121 T03170178
14837KMSN MSN20090624135509606/24/09 13:55:31  5-MIN KMSN 241955Z VRB05KT 10SM FEW045 32/19 A2991 880 46 3000 VRB/05 RMK AO2
14837KMSN MSN20090624140009606/24/09 14:00:31  5-MIN KMSN 242000Z VRB05KT 10SM FEW045 32/20 A2991 880 49 3000 VRB/05 RMK AO2
14837KMSN MSN20090624140509606/24/09 14:05:31  5-MIN KMSN 242005Z 29004KT 10SM FEW045 32/19 A2991 880 47 3000 280/04 RMK AO2
14837KMSN MSN20090624141009606/24/09 14:10:31  5-MIN KMSN 242010Z VRB05KT 10SM FEW045 32/19 A2991 880 47 3000 VRB/05 RMK AO2
14837KMSN MSN20090624141511206/24/09 14:15:31  5-MIN KMSN 242015Z 32007KT 280V360 10SM FEW045 32/19 A2991 880 46 3000 320/07 280V360 RMK AO2
14837KMSN MSN20090624142009606/24/09 14:20:31  5-MIN KMSN 242020Z 32005KT 10SM FEW045 32/18 A2990 880 43 3100 320/05 RMK AO2
14837KMSN MSN20090624142509606/24/09 14:25:31  5-MIN KMSN 242025Z 31004KT 10SM FEW045 32/19 A2990 880 46 3000 310/04 RMK AO2
14837KMSN MSN20090624143009606/24/09 14:30:31  5-MIN KMSN 242030Z 31006KT 10SM FEW045 32/19 A2990 880 46 3100 310/06 RMK AO2
14837KMSN MSN20090624143509606/24/09 14:35:31  5-MIN KMSN 242035Z 34007KT 10SM FEW045 32/19 A2990 880 46 3100 330/07 RMK AO2
14837KMSN MSN20090624144009606/24/09 14:40:31  5-MIN KMSN 242040Z 33003KT 10SM FEW045 32/20 A2990 880 48 3100 330/03 RMK AO2
14837KMSN MSN20090624144509606/24/09 14:45:31  5-MIN KMSN 242045Z 33005KT 10SM FEW045 32/21 A2990 880 51 3100 330/05 RMK AO2
14837KMSN MSN20090624145011906/24/09 14:50:31  5-MIN KMSN 242050Z VRB04KT 10SM FEW045 32/21 A2990 880 49 3100 VRB/04 RMK AO2 SLP118 T03220206 58001
14837KMSN MSN20090624145509306/24/09 14:55:31  5-MIN KMSN 242055Z 28004KT 10SM CLR 32/21 A2990 880 49 3100 280/04 RMK AO2
14837KMSN MSN20090624150009606/24/09 15:00:31  5-MIN KMSN 242100Z 31006KT 10SM FEW045 32/20 A2990 890 48 3100 310/06 RMK AO2
14837KMSN MSN20090624150509606/24/09 15:05:31  5-MIN KMSN 242105Z 31008KT 10SM FEW045 31/19 A2990 890 49 3000 310/08 RMK AO2
14837KMSN MSN20090624151009606/24/09 15:10:31  5-MIN KMSN 242110Z 31004KT 10SM FEW045 31/19 A2990 880 49 3000 310/04 RMK AO2
14837KMSN MSN20090624151509606/24/09 15:15:31  5-MIN KMSN 242115Z VRB04KT 10SM FEW045 32/19 A2990 890 47 3000 VRB/04 RMK AO2
14837KMSN MSN20090624152009606/24/09 15:20:31  5-MIN KMSN 242120Z 33007KT 10SM FEW045 32/20 A2989 890 49 3000 330/07 RMK AO2
14837KMSN MSN20090624152509606/24/09 15:25:31  5-MIN KMSN 242125Z 34006KT 10SM FEW045 31/20 A2989 890 51 3000 330/06 RMK AO2
14837KMSN MSN20090624153009606/24/09 15:30:31  5-MIN KMSN 242130Z 34004KT 10SM FEW045 32/20 A2989 890 49 3000 340/04 RMK AO2
14837KMSN MSN20090624153509606/24/09 15:35:31  5-MIN KMSN 242135Z 33005KT 10SM FEW045 32/20 A2989 890 49 3000 330/05 RMK AO2
14837KMSN MSN20090624154009606/24/09 15:40:31  5-MIN KMSN 242140Z 33003KT 10SM FEW045 32/20 A2989 890 49 3000 330/03 RMK AO2
14837KMSN MSN20090624154509606/24/09 15:45:31  5-MIN KMSN 242145Z 33003KT 10SM FEW045 32/20 A2989 900 49 3000 330/03 RMK AO2
14837KMSN MSN20090624155011306/24/09 15:50:31  5-MIN KMSN 242150Z 32004KT 10SM FEW045 31/20 A2989 900 51 3000 320/04 RMK AO2 SLP114 T03110200
14837KMSN MSN20090624155509306/24/09 15:55:31  5-MIN KMSN 242155Z 31004KT 10SM CLR 31/20 A2989 900 51 3000 310/04 RMK AO2
14837KMSN MSN20090624160009306/24/09 16:00:31  5-MIN KMSN 242200Z 32004KT 10SM CLR 31/21 A2989 900 53 3000 320/04 RMK AO2
14837KMSN MSN20090624160509306/24/09 16:05:31  5-MIN KMSN 242205Z 00000KT 10SM CLR 31/20 A2988 900 51 3000 000/00 RMK AO2
14837KMSN MSN20090624161009606/24/09 16:10:31  5-MIN KMSN 242210Z 00000KT 10SM FEW045 31/21 A2988 900 53 3000 000/00 RMK AO2
14837KMSN MSN20090624161509606/24/09 16:15:31  5-MIN KMSN 242215Z 00000KT 10SM FEW045 31/20 A2988 900 51 3000 000/00 RMK AO2
14837KMSN MSN20090624162009606/24/09 16:20:31  5-MIN KMSN 242220Z 32003KT 10SM FEW045 31/21 A2988 900 53 3000 320/03 RMK AO2
14837KMSN MSN20090624162509606/24/09 16:25:31  5-MIN KMSN 242225Z 00000KT 10SM FEW045 31/21 A2988 900 53 3000 000/00 RMK AO2
14837KMSN MSN20090624163009606/24/09 16:30:31  5-MIN KMSN 242230Z 00000KT 10SM FEW045 31/21 A2987 910 54 2900 000/00 RMK AO2
14837KMSN MSN20090624163509606/24/09 16:35:31  5-MIN KMSN 242235Z 00000KT 10SM FEW045 31/22 A2987 910 58 2900 000/00 RMK AO2
14837KMSN MSN20090624164009606/24/09 16:40:31  5-MIN KMSN 242240Z 00000KT 10SM FEW045 31/21 A2987 910 56 2900 000/00 RMK AO2
14837KMSN MSN20090624164509606/24/09 16:45:31  5-MIN KMSN 242245Z 00000KT 10SM FEW045 31/21 A2987 910 56 2900 000/00 RMK AO2
14837KMSN MSN20090624165011006/24/09 16:50:31  5-MIN KMSN 242250Z 27003KT 10SM CLR 31/21 A2987 910 54 2900 270/03 RMK AO2 SLP110 T03060206
14837KMSN MSN20090624165509306/24/09 16:55:31  5-MIN KMSN 242255Z 00000KT 10SM CLR 31/21 A2987 910 56 2900 000/00 RMK AO2
14837KMSN MSN20090624170009306/24/09 17:00:31  5-MIN KMSN 242300Z 00000KT 10SM CLR 31/21 A2987 910 56 2900 000/00 RMK AO2
14837KMSN MSN20090624170509306/24/09 17:05:31  5-MIN KMSN 242305Z 00000KT 10SM CLR 31/21 A2987 910 56 2900 000/00 RMK AO2
14837KMSN MSN20090624171009306/24/09 17:10:31  5-MIN KMSN 242310Z 00000KT 10SM CLR 31/21 A2987 910 56 2900 000/00 RMK AO2
14837KMSN MSN20090624171509306/24/09 17:15:31  5-MIN KMSN 242315Z 25003KT 10SM CLR 30/21 A2987 910 58 2900 250/03 RMK AO2
14837KMSN MSN20090624172009306/24/09 17:20:31  5-MIN KMSN 242320Z 00000KT 10SM CLR 30/21 A2987 910 56 2900 000/00 RMK AO2
14837KMSN MSN20090624172509306/24/09 17:25:31  5-MIN KMSN 242325Z 24003KT 10SM CLR 30/21 A2987 910 56 2900 240/03 RMK AO2
14837KMSN MSN20090624173009306/24/09 17:30:31  5-MIN KMSN 242330Z 25003KT 10SM CLR 30/21 A2987 910 58 2900 240/03 RMK AO2
14837KMSN MSN20090624173509306/24/09 17:35:31  5-MIN KMSN 242335Z 28003KT 10SM CLR 30/22 A2988 900 60 2900 280/03 RMK AO2
14837KMSN MSN20090624174009306/24/09 17:40:31  5-MIN KMSN 242340Z 29004KT 10SM CLR 30/22 A2989 900 62 2900 290/04 RMK AO2
14837KMSN MSN20090624174509306/24/09 17:45:31  5-MIN KMSN 242345Z 29005KT 10SM CLR 30/21 A2989 900 58 2900 290/05 RMK AO2
14837KMSN MSN20090624175012806/24/09 17:50:31  5-MIN KMSN 242350Z 30005KT 10SM CLR 31/21 A2989 900 56 2900 300/05 RMK AO2 SLP113 T03060211 10322 20300 56009
14837KMSN MSN20090624175509306/24/09 17:55:31  5-MIN KMSN 242355Z 30005KT 10SM CLR 31/21 A2989 900 56 2900 300/05 RMK AO2
14837KMSN MSN20090624180009306/24/09 18:00:31  5-MIN KMSN 250000Z 29004KT 10SM CLR 30/21 A2989 890 58 2900 290/04 RMK AO2
14837KMSN MSN20090624180509306/24/09 18:05:31  5-MIN KMSN 250005Z 30003KT 10SM CLR 29/21 A2989 900 60 2800 300/03 RMK AO2
14837KMSN MSN20090624181009306/24/09 18:10:31  5-MIN KMSN 250010Z 29004KT 10SM CLR 29/21 A2989 890 60 2800 290/04 RMK AO2
14837KMSN MSN20090624181509306/24/09 18:15:31  5-MIN KMSN 250015Z 29004KT 10SM CLR 29/21 A2989 890 62 2700 290/04 RMK AO2
14837KMSN MSN20090624182009306/24/09 18:20:31  5-MIN KMSN 250020Z 29004KT 10SM CLR 29/21 A2989 890 62 2700 290/04 RMK AO2
14837KMSN MSN20090624182509306/24/09 18:25:31  5-MIN KMSN 250025Z 28003KT 10SM CLR 29/21 A2989 890 62 2700 280/03 RMK AO2
14837KMSN MSN20090624183009306/24/09 18:30:31  5-MIN KMSN 250030Z 00000KT 10SM CLR 29/21 A2989 890 62 2700 000/00 RMK AO2
14837KMSN MSN20090624183509306/24/09 18:35:31  5-MIN KMSN 250035Z 00000KT 10SM CLR 29/22 A2989 890 64 2700 000/00 RMK AO2
14837KMSN MSN20090624184009306/24/09 18:40:31  5-MIN KMSN 250040Z 00000KT 10SM CLR 29/22 A2989 890 64 2700 000/00 RMK AO2
14837KMSN MSN20090624184509306/24/09 18:45:31  5-MIN KMSN 250045Z 00000KT 10SM CLR 29/22 A2989 890 64 2700 000/00 RMK AO2
14837KMSN MSN20090624185011006/24/09 18:50:31  5-MIN KMSN 250050Z 00000KT 10SM CLR 29/22 A2989 900 64 2700 000/00 RMK AO2 SLP113 T02890217
14837KMSN MSN20090624185509306/24/09 18:55:31  5-MIN KMSN 250055Z 31003KT 10SM CLR 28/22 A2988 900 66 2700 300/03 RMK AO2
14837KMSN MSN20090624190009306/24/09 19:00:31  5-MIN KMSN 250100Z 00000KT 10SM CLR 28/22 A2988 900 66 2700 000/00 RMK AO2
14837KMSN MSN20090624190509306/24/09 19:05:31  5-MIN KMSN 250105Z 00000KT 10SM CLR 28/22 A2988 900 66 2700 000/00 RMK AO2
14837KMSN MSN20090624191009306/24/09 19:10:31  5-MIN KMSN 250110Z 00000KT 10SM CLR 28/22 A2988 900 66 2700 000/00 RMK AO2
14837KMSN MSN20090624191509306/24/09 19:15:31  5-MIN KMSN 250115Z 00000KT 10SM CLR 28/22 A2988 910 71 2600 000/00 RMK AO2
14837KMSN MSN20090624192009306/24/09 19:20:31  5-MIN KMSN 250120Z 00000KT 10SM CLR 28/22 A2988 910 69 2600 000/00 RMK AO2
14837KMSN MSN20090624192509306/24/09 19:25:31  5-MIN KMSN 250125Z 00000KT 10SM CLR 28/22 A2987 910 69 2600 000/00 RMK AO2
14837KMSN MSN20090624193009306/24/09 19:30:31  5-MIN KMSN 250130Z 00000KT 10SM CLR 28/22 A2987 910 66 2700 000/00 RMK AO2
14837KMSN MSN20090624193509306/24/09 19:35:31  5-MIN KMSN 250135Z 00000KT 10SM CLR 28/22 A2987 910 71 2600 000/00 RMK AO2
14837KMSN MSN20090624194009306/24/09 19:40:31  5-MIN KMSN 250140Z 00000KT 10SM CLR 27/22 A2987 910 74 2600 000/00 RMK AO2
14837KMSN MSN20090624194509306/24/09 19:45:31  5-MIN KMSN 250145Z 00000KT 10SM CLR 26/22 A2988 900 79 2400 000/00 RMK AO2
14837KMSN MSN20090624195011006/24/09 19:50:31  5-MIN KMSN 250150Z 00000KT 10SM CLR 27/22 A2987 910 76 2500 000/00 RMK AO2 SLP109 T02670222
14837KMSN MSN20090624195509306/24/09 19:55:31  5-MIN KMSN 250155Z 00000KT 10SM CLR 28/22 A2987 910 69 2600 000/00 RMK AO2
14837KMSN MSN20090624200009306/24/09 20:00:31  5-MIN KMSN 250200Z 00000KT 10SM CLR 28/22 A2988 910 69 2600 000/00 RMK AO2
14837KMSN MSN20090624200509306/24/09 20:05:31  5-MIN KMSN 250205Z 29004KT 10SM CLR 26/22 A2988 900 81 2400 290/04 RMK AO2
14837KMSN MSN20090624201009306/24/09 20:10:31  5-MIN KMSN 250210Z 00000KT 10SM CLR 27/22 A2988 900 74 2500 000/00 RMK AO2
14837KMSN MSN20090624201509306/24/09 20:15:31  5-MIN KMSN 250215Z 00000KT 10SM CLR 27/22 A2988 900 74 2500 000/00 RMK AO2
14837KMSN MSN20090624202009306/24/09 20:20:31  5-MIN KMSN 250220Z 00000KT 10SM CLR 27/22 A2988 900 76 2500 000/00 RMK AO2
14837KMSN MSN20090624202509306/24/09 20:25:31  5-MIN KMSN 250225Z 00000KT 10SM CLR 27/22 A2988 900 76 2500 000/00 RMK AO2
14837KMSN MSN20090624203009306/24/09 20:30:31  5-MIN KMSN 250230Z 00000KT 10SM CLR 27/22 A2988 900 76 2500 000/00 RMK AO2
14837KMSN MSN20090624203509306/24/09 20:35:31  5-MIN KMSN 250235Z 00000KT 10SM CLR 27/22 A2988 900 76 2500 000/00 RMK AO2
14837KMSN MSN20090624204009306/24/09 20:40:31  5-MIN KMSN 250240Z 00000KT 10SM CLR 26/22 A2988 900 79 2400 000/00 RMK AO2
14837KMSN MSN20090624204509306/24/09 20:45:31  5-MIN KMSN 250245Z 00000KT 10SM CLR 27/22 A2988 900 76 2500 000/00 RMK AO2
14837KMSN MSN20090624205011606/24/09 20:50:31  5-MIN KMSN 250250Z 00000KT 10SM CLR 27/22 A2988 900 74 2500 000/00 RMK AO2 SLP113 T02720222 55005
14837KMSN MSN20090624205509306/24/09 20:55:31  5-MIN KMSN 250255Z 00000KT 10SM CLR 26/22 A2989 900 81 2400 000/00 RMK AO2
14837KMSN MSN20090624210009306/24/09 21:00:31  5-MIN KMSN 250300Z 00000KT 10SM CLR 25/22 A2989 900 84 2300 000/00 RMK AO2
14837KMSN MSN20090624210509306/24/09 21:05:31  5-MIN KMSN 250305Z 00000KT 10SM CLR 25/22 A2989 890 84 2300 000/00 RMK AO2
14837KMSN MSN20090624211009306/24/09 21:10:31  5-MIN KMSN 250310Z 26003KT 10SM CLR 26/22 A2989 890 81 2400 260/03 RMK AO2
14837KMSN MSN20090624211509306/24/09 21:15:31  5-MIN KMSN 250315Z 00000KT 10SM CLR 26/23 A2989 890 81 2400 000/00 RMK AO2
14837KMSN MSN20090624212009306/24/09 21:20:31  5-MIN KMSN 250320Z 26003KT 10SM CLR 27/23 A2989 890 79 2500 260/03 RMK AO2
14837KMSN MSN20090624212509306/24/09 21:25:31  5-MIN KMSN 250325Z 29003KT 10SM CLR 27/23 A2989 890 79 2500 290/03 RMK AO2
14837KMSN MSN20090624213009306/24/09 21:30:31  5-MIN KMSN 250330Z 00000KT 10SM CLR 27/22 A2989 890 76 2500 000/00 RMK AO2
14837KMSN MSN20090624213509306/24/09 21:35:31  5-MIN KMSN 250335Z 00000KT 10SM CLR 27/22 A2989 900 76 2500 000/00 RMK AO2
14837KMSN MSN20090624214009306/24/09 21:40:31  5-MIN KMSN 250340Z 00000KT 10SM CLR 27/22 A2989 900 76 2500 000/00 RMK AO2
14837KMSN MSN20090624214509306/24/09 21:45:31  5-MIN KMSN 250345Z 00000KT 10SM CLR 27/22 A2989 890 76 2500 000/00 RMK AO2
14837KMSN MSN20090624215011006/24/09 21:50:31  5-MIN KMSN 250350Z 00000KT 10SM CLR 27/22 A2989 890 76 2500 000/00 RMK AO2 SLP113 T02670222
14837KMSN MSN20090624215509306/24/09 21:55:31  5-MIN KMSN 250355Z 00000KT 10SM CLR 27/22 A2989 900 76 2500 000/00 RMK AO2
14837KMSN MSN20090624220009306/24/09 22:00:31  5-MIN KMSN 250400Z 00000KT 10SM CLR 27/22 A2989 900 76 2500 000/00 RMK AO2
14837KMSN MSN20090624220509306/24/09 22:05:31  5-MIN KMSN 250405Z 00000KT 10SM CLR 26/22 A2989 900 79 2400 000/00 RMK AO2
14837KMSN MSN20090624221009306/24/09 22:10:31  5-MIN KMSN 250410Z 00000KT 10SM CLR 26/22 A2989 900 79 2400 000/00 RMK AO2
14837KMSN MSN20090624221509306/24/09 22:15:31  5-MIN KMSN 250415Z 00000KT 10SM CLR 26/22 A2989 900 79 2400 000/00 RMK AO2
14837KMSN MSN20090624222009306/24/09 22:20:31  5-MIN KMSN 250420Z 00000KT 10SM CLR 26/22 A2988 900 81 2400 000/00 RMK AO2
14837KMSN MSN20090624222509306/24/09 22:25:31  5-MIN KMSN 250425Z 00000KT 10SM CLR 26/22 A2989 900 81 2400 000/00 RMK AO2
14837KMSN MSN20090624223009306/24/09 22:30:31  5-MIN KMSN 250430Z 00000KT 10SM CLR 26/22 A2988 900 81 2400 000/00 RMK AO2
14837KMSN MSN20090624223509306/24/09 22:35:31  5-MIN KMSN 250435Z 00000KT 10SM CLR 26/22 A2988 900 79 2400 000/00 RMK AO2
14837KMSN MSN20090624224009306/24/09 22:40:31  5-MIN KMSN 250440Z 00000KT 10SM CLR 25/22 A2988 900 84 2300 000/00 RMK AO2
14837KMSN MSN20090624224509306/24/09 22:45:31  5-MIN KMSN 250445Z 00000KT 10SM CLR 25/22 A2988 900 84 2300 000/00 RMK AO2
14837KMSN MSN20090624225010906/24/09 22:50:31  5-MIN KMSN 250450Z 00000KT 9SM CLR 25/22 A2988 900 84 2300 000/00 RMK AO2 SLP112 T02500222
14837KMSN MSN20090624225509206/24/09 22:55:31  5-MIN KMSN 250455Z 00000KT 9SM CLR 24/22 A2988 900 87 2200 000/00 RMK AO2
14837KMSN MSN20090624230009306/24/09 23:00:31  5-MIN KMSN 250500Z 00000KT 10SM CLR 25/22 A2988 900 84 2300 000/00 RMK AO2
14837KMSN MSN20090624230509306/24/09 23:05:31  5-MIN KMSN 250505Z 00000KT 10SM CLR 26/22 A2988 900 81 2400 000/00 RMK AO2
14837KMSN MSN20090624231009306/24/09 23:10:31  5-MIN KMSN 250510Z 00000KT 10SM CLR 24/22 A2988 900 87 2200 000/00 RMK AO2
14837KMSN MSN20090624231509306/24/09 23:15:31  5-MIN KMSN 250515Z 00000KT 10SM CLR 24/22 A2988 900 90 2200 000/00 RMK AO2
14837KMSN MSN20090624232009306/24/09 23:20:31  5-MIN KMSN 250520Z 00000KT 10SM CLR 24/22 A2988 900 87 2200 000/00 RMK AO2
14837KMSN MSN20090624232509306/24/09 23:25:31  5-MIN KMSN 250525Z 00000KT 10SM CLR 24/22 A2988 900 87 2200 000/00 RMK AO2
14837KMSN MSN20090624233009306/24/09 23:30:31  5-MIN KMSN 250530Z 29003KT 10SM CLR 23/22 A2988 900 93 2100 290/03 RMK AO2
14837KMSN MSN20090624233509306/24/09 23:35:31  5-MIN KMSN 250535Z 29004KT 10SM CLR 24/22 A2989 900 90 2200 290/04 RMK AO2
14837KMSN MSN20090624234009306/24/09 23:40:31  5-MIN KMSN 250540Z 30004KT 10SM CLR 24/22 A2988 900 87 2200 300/04 RMK AO2
14837KMSN MSN20090624234509306/24/09 23:45:31  5-MIN KMSN 250545Z 30003KT 10SM CLR 24/22 A2988 900 87 2200 300/03 RMK AO2
14837KMSN MSN20090624235013806/24/09 23:50:31  5-MIN KMSN 250550Z 29003KT 10SM CLR 24/22 A2988 900 87 2200 290/03 RMK AO2 SLP112 T02440222 10306 20233 403220200 55000
14837KMSN MSN20090624235509306/24/09 23:55:31  5-MIN KMSN 250555Z 29003KT 10SM CLR 24/22 A2988 900 87 2200 290/03 RMK AO2
14837KMSN MSN20090625000009306/25/09 00:00:32  5-MIN KMSN 250600Z 00000KT 10SM CLR 25/22 A2988 900 84 2300 000/00 RMK AO2
14837KMSN MSN20090625000509306/25/09 00:05:31  5-MIN KMSN 250605Z 00000KT 10SM CLR 24/22 A2988 900 87 2200 000/00 RMK AO2
14837KMSN MSN20090625001009306/25/09 00:10:31  5-MIN KMSN 250610Z 30003KT 10SM CLR 24/22 A2988 900 90 2200 300/03 RMK AO2
14837KMSN MSN20090625001509306/25/09 00:15:31  5-MIN KMSN 250615Z 00000KT 10SM CLR 23/22 A2988 900 93 2100 000/00 RMK AO2
14837KMSN MSN20090625002009306/25/09 00:20:31  5-MIN KMSN 250620Z 00000KT 10SM CLR 23/22 A2988 900 93 2100 000/00 RMK AO2
14837KMSN MSN20090625002509206/25/09 00:25:31  5-MIN KMSN 250625Z 00000KT 9SM CLR 24/22 A2988 900 90 2200 000/00 RMK AO2
14837KMSN MSN20090625003009206/25/09 00:30:31  5-MIN KMSN 250630Z 00000KT 9SM CLR 23/22 A2988 910 93 2100 000/00 RMK AO2
14837KMSN MSN20090625003509206/25/09 00:35:31  5-MIN KMSN 250635Z 00000KT 9SM CLR 23/22 A2988 900 93 2100 000/00 RMK AO2
14837KMSN MSN20090625004009306/25/09 00:40:31  5-MIN KMSN 250640Z 00000KT 10SM CLR 23/22 A2988 910 93 2100 000/00 RMK AO2
14837KMSN MSN20090625004509306/25/09 00:45:31  5-MIN KMSN 250645Z 00000KT 10SM CLR 23/22 A2988 900 93 2100 000/00 RMK AO2
14837KMSN MSN20090625005010906/25/09 00:50:31  5-MIN KMSN 250650Z 00000KT 9SM CLR 23/22 A2988 910 97 2100 000/00 RMK AO2 SLP110 T02280222
14837KMSN MSN20090625005509206/25/09 00:55:31  5-MIN KMSN 250655Z 00000KT 8SM CLR 23/22 A2987 910 97 2100 000/00 RMK AO2
14837KMSN MSN20090625010009206/25/09 01:00:31  5-MIN KMSN 250700Z 00000KT 9SM CLR 23/22 A2987 910 97 2100 000/00 RMK AO2
14837KMSN MSN20090625010509306/25/09 01:05:31  5-MIN KMSN 250705Z 00000KT 10SM CLR 22/22 A2988 900 97 2000 000/00 RMK AO2
14837KMSN MSN20090625011009206/25/09 01:10:31  5-MIN KMSN 250710Z 00000KT 9SM CLR 22/22 A2988 900 97 2000 000/00 RMK AO2
14837KMSN MSN20090625011509206/25/09 01:15:31  5-MIN KMSN 250715Z 00000KT 9SM CLR 23/22 A2988 900 93 2100 000/00 RMK AO2
14837KMSN MSN20090625012009206/25/09 01:20:31  5-MIN KMSN 250720Z 00000KT 9SM CLR 23/22 A2988 910 93 2100 000/00 RMK AO2
14837KMSN MSN20090625012509206/25/09 01:25:31  5-MIN KMSN 250725Z 00000KT 8SM CLR 23/22 A2988 910 93 2100 000/00 RMK AO2
14837KMSN MSN20090625013009206/25/09 01:30:31  5-MIN KMSN 250730Z 00000KT 8SM CLR 23/22 A2988 900 93 2100 000/00 RMK AO2
14837KMSN MSN20090625013509506/25/09 01:35:31  5-MIN KMSN 250735Z 00000KT 6SM BR CLR 23/22 A2988 900 93 2100 000/00 RMK AO2
14837KMSN MSN20090625014009506/25/09 01:40:31  5-MIN KMSN 250740Z 00000KT 6SM BR CLR 22/22 A2988 900 97 2000 000/00 RMK AO2
14837KMSN MSN20090625014509506/25/09 01:45:31  5-MIN KMSN 250745Z 00000KT 5SM BR CLR 22/21 A2988 900 97 1900 000/00 RMK AO2
14837KMSN MSN20090625015011206/25/09 01:50:31  5-MIN KMSN 250750Z 00000KT 4SM BR CLR 22/21 A2988 900 97 1900 000/00 RMK AO2 SLP112 T02170211
14837KMSN MSN20090625015509506/25/09 01:55:31  5-MIN KMSN 250755Z 00000KT 4SM BR CLR 22/21 A2988 900 97 1900 000/00 RMK AO2
14837KMSN MSN20090625020009506/25/09 02:00:31  5-MIN KMSN 250800Z 00000KT 5SM BR CLR 22/22 A2988 900 97 2000 000/00 RMK AO2
14837KMSN MSN20090625020509506/25/09 02:05:31  5-MIN KMSN 250805Z 00000KT 6SM BR CLR 22/22 A2988 900 97 2000 000/00 RMK AO2
14837KMSN MSN20090625021009506/25/09 02:10:31  5-MIN KMSN 250810Z 00000KT 6SM BR CLR 22/22 A2988 900 97 2000 000/00 RMK AO2
14837KMSN MSN20090625021509506/25/09 02:15:31  5-MIN KMSN 250815Z 00000KT 5SM BR CLR 22/22 A2988 900 97 2000 000/00 RMK AO2
14837KMSN MSN20090625022009506/25/09 02:20:31  5-MIN KMSN 250820Z 00000KT 4SM BR CLR 22/21 A2988 900 97 1900 000/00 RMK AO2
14837KMSN MSN20090625022509506/25/09 02:25:31  5-MIN KMSN 250825Z 00000KT 4SM BR CLR 22/21 A2988 900 97 1900 000/00 RMK AO2
14837KMSN MSN20090625023009506/25/09 02:30:31  5-MIN KMSN 250830Z 00000KT 6SM BR CLR 22/22 A2989 900 97 2000 000/00 RMK AO2
14837KMSN MSN20090625023509606/25/09 02:35:31  5-MIN KMSN 250835Z 00000KT 5SM BR CLR 22/22 A2989 890 100 1900 000/00 RMK AO2
14837KMSN MSN20090625024009906/25/09 02:40:31  5-MIN KMSN 250840Z 00000KT 2 1/2SM BR CLR 22/21 A2989 890 97 1900 000/00 RMK AO2
14837KMSN MSN20090625024509506/25/09 02:45:31  5-MIN KMSN 250845Z 00000KT 2SM BR CLR 22/21 A2989 890 97 1900 000/00 RMK AO2
14837KMSN MSN20090625025010206/25/09 02:50:31  5-MIN KMSN 250850Z 00000KT 1 1/4SM BR FEW110 22/21 A2989 890 97 1900 000/00 RMK AO2
14837KMSN MSN20090625025510306/25/09 02:55:31  5-MIN KMSN 250855Z 00000KT 1 1/4SM BR FEW110 21/21 A2989 890 100 1900 000/00 RMK AO2
14837KMSN MSN20090625030009906/25/09 03:00:31  5-MIN KMSN 250900Z 00000KT 5SM BR SCT110 21/21 A2989 890 100 1900 000/00 RMK AO2
14837KMSN MSN20090625030509606/25/09 03:05:31  5-MIN KMSN 250905Z 03003KT 9SM SCT110 21/21 A2989 900 100 1900 030/03 RMK AO2
14837KMSN MSN20090625031009806/25/09 03:10:31  5-MIN KMSN 250910Z 00000KT 6SM BR SCT110 21/21 A2988 900 97 1900 000/00 RMK AO2
14837KMSN MSN20090625031509806/25/09 03:15:31  5-MIN KMSN 250915Z 00000KT 4SM BR BKN110 21/21 A2988 900 97 1900 000/00 RMK AO2
14837KMSN MSN20090625032010206/25/09 03:20:31  5-MIN KMSN 250920Z 00000KT 2 1/2SM BR BKN110 22/21 A2988 900 97 1900 000/00 RMK AO2
14837KMSN MSN20090625032510306/25/09 03:25:31  5-MIN KMSN 250925Z 00000KT 2 1/2SM BR BKN110 22/22 A2988 900 100 1900 000/00 RMK AO2
14837KMSN MSN20090625033009806/25/09 03:30:31  5-MIN KMSN 250930Z 00000KT 3SM BR BKN110 22/21 A2988 900 97 1900 000/00 RMK AO2
14837KMSN MSN20090625033509806/25/09 03:35:31  5-MIN KMSN 250935Z 00000KT 3SM BR OVC110 22/21 A2988 900 97 1900 000/00 RMK AO2
14837KMSN MSN20090625034009806/25/09 03:40:31  5-MIN KMSN 250940Z 00000KT 2SM BR OVC110 22/21 A2988 900 97 1900 000/00 RMK AO2
14837KMSN MSN20090625034510206/25/09 03:45:31  5-MIN KMSN 250945Z 00000KT 1 1/2SM BR OVC110 22/21 A2988 900 97 1900 000/00 RMK AO2
14837KMSN MSN20090625035011906/25/09 03:50:31  5-MIN KMSN 250950Z 00000KT 1 1/4SM BR BKN110 22/21 A2988 900 97 1900 000/00 RMK AO2 SLP111 T02170211
14837KMSN MSN20090625035510706/25/09 03:55:31  5-MIN KMSN 250955Z 00000KT 1 1/2SM BCFG BR BKN110 22/21 A2988 900 97 1900 000/00 RMK AO2
14837KMSN MSN20090625040010306/25/09 04:00:31  5-MIN KMSN 251000Z 00000KT 5SM BCFG BR BKN110 22/21 A2988 900 97 1900 000/00 RMK AO2
14837KMSN MSN20090625040510306/25/09 04:05:31  5-MIN KMSN 251005Z 00000KT 4SM BCFG BR OVC100 22/21 A2988 900 97 1900 000/00 RMK AO2
14837KMSN MSN20090625041010306/25/09 04:10:31  5-MIN KMSN 251010Z 00000KT 3SM BCFG BR OVC100 22/21 A2988 900 97 1900 000/00 RMK AO2
14837KMSN MSN20090625041510306/25/09 04:15:31  5-MIN KMSN 251015Z 00000KT 3SM BCFG BR OVC100 22/21 A2988 900 97 1900 000/00 RMK AO2
14837KMSN MSN20090625042010306/25/09 04:20:31  5-MIN KMSN 251020Z 00000KT 4SM BCFG BR BKN100 21/21 A2988 910 97 1900 000/00 RMK AO2
14837KMSN MSN20090625042510306/25/09 04:25:31  5-MIN KMSN 251025Z 00000KT 4SM BCFG BR BKN100 21/21 A2988 910 97 1900 000/00 RMK AO2
14837KMSN MSN20090625043011706/25/09 04:30:31  5-MIN KMSN 251030Z 00000KT 1 3/4SM BCFG BR SCT100 22/21 A2988 900 97 1900 000/00 RMK AO2 VIS 1/2V5
14837KMSN MSN20090625043510506/25/09 04:35:31  5-MIN KMSN 251035Z 00000KT 1/2SM BCFG BR SCT100 22/21 A2988 900 97 1900 000/00 RMK AO2
14837KMSN MSN20090625044010506/25/09 04:40:31  5-MIN KMSN 251040Z 00000KT 3/4SM BCFG BR FEW100 21/21 A2988 900 97 1900 000/00 RMK AO2
14837KMSN MSN20090625044510306/25/09 04:45:31  5-MIN KMSN 251045Z 00000KT 3SM MIFG BR FEW100 21/21 A2988 900 97 1900 000/00 RMK AO2
14837KMSN MSN20090625045010306/25/09 04:50:31  5-MIN KMSN 251050Z 00000KT 3SM MIFG BR FEW100 21/21 A2988 900 97 1900 000/00 RMK AO2
14837KMSN MSN20090625045510306/25/09 04:55:31  5-MIN KMSN 251055Z 00000KT 3SM MIFG BR FEW100 22/21 A2988 900 97 1900 000/00 RMK AO2
14837KMSN MSN20090625050010306/25/09 05:00:31  5-MIN KMSN 251100Z 00000KT 3SM MIFG BR FEW100 22/21 A2988 900 97 1900 000/00 RMK AO2
14837KMSN MSN20090625050510306/25/09 05:05:31  5-MIN KMSN 251105Z 00000KT 3SM MIFG BR FEW100 22/21 A2988 900 97 1900 000/00 RMK AO2
14837KMSN MSN20090625051010406/25/09 05:10:31  5-MIN KMSN 251110Z 00000KT 3SM MIFG BR FEW100 22/22 A2988 900 100 1900 000/00 RMK AO2
14837KMSN MSN20090625051510406/25/09 05:15:31  5-MIN KMSN 251115Z 00000KT 3SM MIFG BR FEW100 22/22 A2988 900 100 1900 000/00 RMK AO2
14837KMSN MSN20090625052010306/25/09 05:20:31  5-MIN KMSN 251120Z 00000KT 3SM MIFG BR FEW100 22/22 A2988 910 97 2000 000/00 RMK AO2
14837KMSN MSN20090625052510306/25/09 05:25:31  5-MIN KMSN 251125Z 00000KT 3SM MIFG BR FEW100 22/22 A2987 910 97 2000 000/00 RMK AO2
14837KMSN MSN20090625053010306/25/09 05:30:31  5-MIN KMSN 251130Z 00000KT 3SM MIFG BR FEW100 22/22 A2987 910 97 2000 000/00 RMK AO2
14837KMSN MSN20090625053510306/25/09 05:35:31  5-MIN KMSN 251135Z 00000KT 3SM MIFG BR FEW100 23/22 A2987 910 93 2100 000/00 RMK AO2
14837KMSN MSN20090625054010306/25/09 05:40:31  5-MIN KMSN 251140Z 00000KT 3SM MIFG BR FEW100 23/22 A2987 910 97 2100 000/00 RMK AO2
14837KMSN MSN20090625054510306/25/09 05:45:31  5-MIN KMSN 251145Z 00000KT 3SM MIFG BR FEW100 23/22 A2987 910 97 2100 000/00 RMK AO2
14837KMSN MSN20090625055013306/25/09 05:50:31  5-MIN KMSN 251150Z 00000KT 3SM BR FEW100 23/22 A2987 910 93 2100 000/00 RMK AO2 SLP109 T02330222 10250 20211 53002
14837KMSN MSN20090625055509506/25/09 05:55:31  5-MIN KMSN 251155Z 00000KT 3SM BR CLR 23/22 A2987 910 93 2100 000/00 RMK AO2
14837KMSN MSN20090625060009506/25/09 06:00:31  5-MIN KMSN 251200Z 00000KT 3SM BR CLR 23/22 A2987 910 93 2100 000/00 RMK AO2
14837KMSN MSN20090625060509506/25/09 06:05:31  5-MIN KMSN 251205Z 00000KT 3SM BR CLR 24/22 A2987 910 90 2200 000/00 RMK AO2
14837KMSN MSN20090625061009506/25/09 06:10:31  5-MIN KMSN 251210Z 00000KT 3SM BR CLR 24/23 A2987 910 93 2200 000/00 RMK AO2
14837KMSN MSN20090625061509506/25/09 06:15:31  5-MIN KMSN 251215Z 00000KT 4SM BR CLR 24/23 A2987 910 90 2300 000/00 RMK AO2
14837KMSN MSN20090625062009506/25/09 06:20:31  5-MIN KMSN 251220Z 00000KT 4SM BR CLR 24/23 A2987 910 90 2300 000/00 RMK AO2
14837KMSN MSN20090625062509506/25/09 06:25:31  5-MIN KMSN 251225Z 00000KT 4SM BR CLR 24/23 A2987 910 90 2300 000/00 RMK AO2
14837KMSN MSN20090625063009506/25/09 06:30:31  5-MIN KMSN 251230Z 00000KT 4SM BR CLR 24/23 A2986 920 90 2300 000/00 RMK AO2
14837KMSN MSN20090625063509506/25/09 06:35:31  5-MIN KMSN 251235Z 00000KT 5SM BR CLR 24/23 A2986 920 90 2300 000/00 RMK AO2
14837KMSN MSN20090625064009506/25/09 06:40:31  5-MIN KMSN 251240Z 00000KT 6SM HZ CLR 25/22 A2986 920 84 2300 000/00 RMK AO2
14837KMSN MSN20090625064509506/25/09 06:45:31  5-MIN KMSN 251245Z 00000KT 6SM HZ CLR 25/22 A2986 920 84 2300 000/00 RMK AO2
14837KMSN MSN20090625065011206/25/09 06:50:31  5-MIN KMSN 251250Z 00000KT 7SM FEW120 26/22 A2986 920 81 2400 000/00 RMK AO2 SLP104 T02560222
14837KMSN MSN20090625065509206/25/09 06:55:31  5-MIN KMSN 251255Z 00000KT 8SM CLR 26/22 A2986 920 79 2400 000/00 RMK AO2
14837KMSN MSN20090625070009306/25/09 07:00:31  5-MIN KMSN 251300Z 09003KT 10SM CLR 27/21 A2986 920 71 2500 090/03 RMK AO2
14837KMSN MSN20090625070509606/25/09 07:05:31  5-MIN KMSN 251305Z 09004KT 10SM SCT120 26/20 A2986 920 68 2400 090/04 RMK AO2
14837KMSN MSN20090625071009606/25/09 07:10:31  5-MIN KMSN 251310Z 11003KT 10SM SCT120 26/19 A2987 920 68 2400 110/03 RMK AO2
14837KMSN MSN20090625071509606/25/09 07:15:31  5-MIN KMSN 251315Z 10003KT 10SM SCT120 26/19 A2986 920 66 2500 100/03 RMK AO2
14837KMSN MSN20090625072009606/25/09 07:20:31  5-MIN KMSN 251320Z 09004KT 10SM SCT120 26/19 A2986 920 66 2500 090/04 RMK AO2
14837KMSN MSN20090625072509606/25/09 07:25:31  5-MIN KMSN 251325Z 12003KT 10SM SCT120 27/19 A2986 920 62 2500 120/03 RMK AO2
14837KMSN MSN20090625073009606/25/09 07:30:31  5-MIN KMSN 251330Z 13003KT 10SM SCT120 27/19 A2986 920 64 2500 130/03 RMK AO2
14837KMSN MSN20090625073509606/25/09 07:35:31  5-MIN KMSN 251335Z 00000KT 10SM SCT120 27/19 A2986 920 64 2500 000/00 RMK AO2
14837KMSN MSN20090625074009606/25/09 07:40:31  5-MIN KMSN 251340Z VRB03KT 10SM SCT120 27/19 A2986 920 64 2500 VRB/03 RMK AO2
14837KMSN MSN20090625074509606/25/09 07:45:31  5-MIN KMSN 251345Z 00000KT 10SM SCT120 27/20 A2986 920 64 2600 000/00 RMK AO2
14837KMSN MSN20090625075011306/25/09 07:50:31  5-MIN KMSN 251350Z 00000KT 10SM SCT120 27/19 A2986 920 64 2500 000/00 RMK AO2 SLP104 T02670194
14837KMSN MSN20090625075509606/25/09 07:55:31  5-MIN KMSN 251355Z 00000KT 10SM FEW110 27/19 A2986 920 62 2600 000/00 RMK AO2
14837KMSN MSN20090625080009606/25/09 08:00:31  5-MIN KMSN 251400Z 00000KT 10SM FEW110 27/19 A2986 920 60 2600 000/00 RMK AO2
14837KMSN MSN20090625080509606/25/09 08:05:31  5-MIN KMSN 251405Z 00000KT 10SM FEW110 28/20 A2986 920 62 2600 000/00 RMK AO2
14837KMSN MSN20090625081009606/25/09 08:10:31  5-MIN KMSN 251410Z 00000KT 10SM FEW110 28/19 A2986 920 60 2600 000/00 RMK AO2
14837KMSN MSN20090625081509606/25/09 08:15:31  5-MIN KMSN 251415Z 00000KT 10SM FEW110 27/19 A2986 920 62 2600 000/00 RMK AO2
14837KMSN MSN20090625082009606/25/09 08:20:31  5-MIN KMSN 251420Z 00000KT 10SM FEW110 28/19 A2986 920 60 2600 000/00 RMK AO2
14837KMSN MSN20090625082509606/25/09 08:25:31  5-MIN KMSN 251425Z 00000KT 10SM FEW110 28/19 A2986 920 60 2600 000/00 RMK AO2
14837KMSN MSN20090625083009606/25/09 08:30:31  5-MIN KMSN 251430Z 00000KT 10SM FEW110 28/19 A2986 920 60 2600 000/00 RMK AO2
14837KMSN MSN20090625083509606/25/09 08:35:31  5-MIN KMSN 251435Z 00000KT 10SM FEW110 28/19 A2986 920 58 2600 000/00 RMK AO2
14837KMSN MSN20090625084009606/25/09 08:40:31  5-MIN KMSN 251440Z 00000KT 10SM FEW110 28/19 A2986 920 58 2600 000/00 RMK AO2
14837KMSN MSN20090625084509606/25/09 08:45:31  5-MIN KMSN 251445Z 00000KT 10SM FEW110 28/19 A2986 920 58 2700 000/00 RMK AO2
14837KMSN MSN20090625085011906/25/09 08:50:31  5-MIN KMSN 251450Z 00000KT 10SM FEW110 29/19 A2986 920 56 2800 000/00 RMK AO2 SLP105 T02890194 58002
14837KMSN MSN20090625085509606/25/09 08:55:31  5-MIN KMSN 251455Z 00000KT 10SM FEW120 29/21 A2986 920 60 2800 000/00 RMK AO2
14837KMSN MSN20090625090009606/25/09 09:00:31  5-MIN KMSN 251500Z 00000KT 10SM FEW120 28/19 A2986 920 58 2700 000/00 RMK AO2
14837KMSN MSN20090625090509606/25/09 09:05:31  5-MIN KMSN 251505Z 28004KT 10SM FEW120 28/20 A2986 920 60 2700 280/04 RMK AO2
14837KMSN MSN20090625091009606/25/09 09:10:31  5-MIN KMSN 251510Z 00000KT 10SM FEW120 28/20 A2986 920 62 2600 000/00 RMK AO2
14837KMSN MSN20090625091509606/25/09 09:15:31  5-MIN KMSN 251515Z 23003KT 10SM FEW120 28/21 A2986 920 64 2600 230/03 RMK AO2
14837KMSN MSN20090625092009606/25/09 09:20:31  5-MIN KMSN 251520Z 23003KT 10SM FEW120 28/20 A2986 920 62 2600 230/03 RMK AO2
14837KMSN MSN20090625092509606/25/09 09:25:31  5-MIN KMSN 251525Z 27004KT 10SM FEW120 28/20 A2987 910 62 2600 270/04 RMK AO2
14837KMSN MSN20090625093009606/25/09 09:30:31  5-MIN KMSN 251530Z 26003KT 10SM FEW120 28/21 A2987 910 64 2600 260/03 RMK AO2
14837KMSN MSN20090625093509606/25/09 09:35:31  5-MIN KMSN 251535Z 25003KT 10SM FEW120 28/20 A2987 910 62 2600 250/03 RMK AO2
14837KMSN MSN20090625094009606/25/09 09:40:31  5-MIN KMSN 251540Z 00000KT 10SM FEW120 28/20 A2987 910 62 2600 000/00 RMK AO2
14837KMSN MSN20090625094509606/25/09 09:45:31  5-MIN KMSN 251545Z 00000KT 10SM FEW120 28/20 A2987 910 62 2600 000/00 RMK AO2
14837KMSN MSN20090625095011306/25/09 09:50:31  5-MIN KMSN 251550Z 00000KT 10SM FEW035 28/20 A2987 910 62 2600 000/00 RMK AO2 SLP109 T02780200
14837KMSN MSN20090625095509606/25/09 09:55:31  5-MIN KMSN 251555Z 00000KT 10SM FEW035 28/21 A2987 910 64 2600 000/00 RMK AO2
14837KMSN MSN20090625100009606/25/09 10:00:31  5-MIN KMSN 251600Z 32004KT 10SM FEW035 28/21 A2987 910 64 2700 320/04 RMK AO2
14837KMSN MSN20090625100509606/25/09 10:05:31  5-MIN KMSN 251605Z 29003KT 10SM FEW035 28/21 A2987 910 64 2700 290/03 RMK AO2
14837KMSN MSN20090625101009606/25/09 10:10:31  5-MIN KMSN 251610Z 33003KT 10SM FEW035 28/21 A2987 910 64 2700 330/03 RMK AO2
14837KMSN MSN20090625101509606/25/09 10:15:31  5-MIN KMSN 251615Z VRB03KT 10SM FEW035 28/21 A2987 910 64 2700 VRB/03 RMK AO2
14837KMSN MSN20090625102009606/25/09 10:20:31  5-MIN KMSN 251620Z 34003KT 10SM FEW035 28/21 A2987 910 64 2700 330/03 RMK AO2
14837KMSN MSN20090625102509606/25/09 10:25:31  5-MIN KMSN 251625Z 33003KT 10SM FEW035 28/21 A2987 910 64 2700 330/03 RMK AO2
14837KMSN MSN20090625103009606/25/09 10:30:31  5-MIN KMSN 251630Z 35003KT 10SM FEW035 28/22 A2986 920 66 2700 350/03 RMK AO2
14837KMSN MSN20090625103509606/25/09 10:35:31  5-MIN KMSN 251635Z 33003KT 10SM FEW035 28/22 A2986 920 66 2700 330/03 RMK AO2
14837KMSN MSN20090625104010206/25/09 10:40:31  5-MIN KMSN 251640Z 00000KT 9SM FEW035 28/22 A2985 930 69 2700 000/00 RMK AO2 PRESFR
14837KMSN MSN20090625104510206/25/09 10:45:31  5-MIN KMSN 251645Z 00000KT 9SM FEW035 28/22 A2984 940 66 2700 000/00 RMK AO2 PRESFR
14837KMSN MSN20090625105012006/25/09 10:50:31  5-MIN KMSN 251650Z 00000KT 10SM FEW030 SCT110 28/22 A2983 940 69 2700 000/00 RMK AO2 SLP095 T02780217
14837KMSN MSN20090625105510306/25/09 10:55:31  5-MIN KMSN 251655Z 32003KT 10SM FEW030 SCT110 28/22 A2985 930 71 2600 320/03 RMK AO2
14837KMSN MSN20090625110010306/25/09 11:00:31  5-MIN KMSN 251700Z 35003KT 10SM FEW030 SCT110 28/22 A2985 930 69 2700 350/03 RMK AO2
14837KMSN MSN20090625110510306/25/09 11:05:31  5-MIN KMSN 251705Z 36003KT 10SM FEW030 SCT110 29/23 A2985 930 69 2800 360/03 RMK AO2
14837KMSN MSN20090625111010306/25/09 11:10:31  5-MIN KMSN 251710Z 00000KT 10SM FEW030 SCT110 29/22 A2985 930 67 2800 000/00 RMK AO2
14837KMSN MSN20090625111510306/25/09 11:15:31  5-MIN KMSN 251715Z 32003KT 10SM FEW030 SCT110 29/22 A2985 930 67 2800 320/03 RMK AO2
14837KMSN MSN20090625112010306/25/09 11:20:31  5-MIN KMSN 251720Z 01004KT 10SM FEW030 SCT110 29/22 A2985 930 67 2800 010/04 RMK AO2
14837KMSN MSN20090625112510306/25/09 11:25:31  5-MIN KMSN 251725Z 32005KT 10SM FEW030 SCT110 29/22 A2984 940 64 2800 320/05 RMK AO2
14837KMSN MSN20090625113010306/25/09 11:30:31  5-MIN KMSN 251730Z 35005KT 10SM FEW030 SCT110 29/22 A2984 940 62 2800 350/05 RMK AO2
14837KMSN MSN20090625113510306/25/09 11:35:31  5-MIN KMSN 251735Z 35005KT 10SM FEW030 SCT110 29/22 A2984 940 62 2800 350/05 RMK AO2
14837KMSN MSN20090625114010306/25/09 11:40:31  5-MIN KMSN 251740Z VRB05KT 10SM FEW030 SCT110 29/21 A2984 940 60 2800 VRB/05 RMK AO2
14837KMSN MSN20090625114510306/25/09 11:45:31  5-MIN KMSN 251745Z 35005KT 10SM FEW030 SCT110 30/21 A2984 940 58 2900 350/05 RMK AO2
14837KMSN MSN20090625115013806/25/09 11:50:31  5-MIN KMSN 251750Z 33003KT 10SM FEW030 SCT110 29/22 A2983 940 62 2900 330/03 RMK AO2 SLP095 T02940217 10300 20233 55003
14837KMSN MSN20090625115509606/25/09 11:55:31  5-MIN KMSN 251755Z 36003KT 10SM SCT032 29/22 A2983 950 62 2900 360/03 RMK AO2
14837KMSN MSN20090625120009606/25/09 12:00:31  5-MIN KMSN 251800Z 36005KT 10SM SCT032 30/21 A2983 950 58 2900 360/05 RMK AO2
14837KMSN MSN20090625120509606/25/09 12:05:31  5-MIN KMSN 251805Z 34003KT 10SM SCT032 29/21 A2983 950 60 2900 340/03 RMK AO2
14837KMSN MSN20090625121009606/25/09 12:10:31  5-MIN KMSN 251810Z VRB03KT 10SM SCT032 29/21 A2983 950 60 2900 VRB/03 RMK AO2
14837KMSN MSN20090625121509606/25/09 12:15:31  5-MIN KMSN 251815Z 34004KT 10SM SCT032 30/21 A2983 950 58 2900 340/04 RMK AO2
14837KMSN MSN20090625122009606/25/09 12:20:31  5-MIN KMSN 251820Z VRB06KT 10SM SCT032 31/22 A2983 950 60 3000 VRB/06 RMK AO2
14837KMSN MSN20090625122509606/25/09 12:25:31  5-MIN KMSN 251825Z 35004KT 10SM SCT032 31/22 A2983 950 60 3000 340/04 RMK AO2
14837KMSN MSN20090625123009606/25/09 12:30:31  5-MIN KMSN 251830Z 26003KT 10SM SCT032 31/22 A2982 950 58 3000 260/03 RMK AO2
14837KMSN MSN20090625123509606/25/09 12:35:31  5-MIN KMSN 251835Z 00000KT 10SM SCT032 30/21 A2982 960 58 2900 000/00 RMK AO2
14837KMSN MSN20090625124009606/25/09 12:40:31  5-MIN KMSN 251840Z 31005KT 10SM SCT032 31/21 A2982 960 54 3000 310/05 RMK AO2
14837KMSN MSN20090625124509606/25/09 12:45:31  5-MIN KMSN 251845Z VRB05KT 10SM SCT038 31/20 A2982 960 52 3000 VRB/05 RMK AO2
14837KMSN MSN20090625125011306/25/09 12:50:31  5-MIN KMSN 251850Z 31004KT 10SM SCT038 30/20 A2982 960 54 2900 310/04 RMK AO2 SLP089 T03000200
14837KMSN MSN20090625125509606/25/09 12:55:31  5-MIN KMSN 251855Z 27003KT 10SM SCT040 31/20 A2981 960 52 3000 270/03 RMK AO2
14837KMSN MSN20090625130009606/25/09 13:00:31  5-MIN KMSN 251900Z VRB03KT 10SM SCT040 31/21 A2981 960 54 3000 VRB/03 RMK AO2
14837KMSN MSN20090625130509606/25/09 13:05:31  5-MIN KMSN 251905Z 00000KT 10SM SCT040 31/21 A2981 970 54 3000 000/00 RMK AO2
14837KMSN MSN20090625131009606/25/09 13:10:31  5-MIN KMSN 251910Z VRB03KT 10SM FEW040 31/21 A2981 970 56 3000 VRB/03 RMK AO2
14837KMSN MSN20090625131509606/25/09 13:15:31  5-MIN KMSN 251915Z 35005KT 10SM FEW040 31/21 A2981 970 56 3000 350/05 RMK AO2
14837KMSN MSN20090625132009606/25/09 13:20:31  5-MIN KMSN 251920Z 31005KT 10SM FEW040 30/21 A2981 970 56 2900 310/05 RMK AO2
14837KMSN MSN20090625132509606/25/09 13:25:31  5-MIN KMSN 251925Z 00000KT 10SM SCT040 30/21 A2981 970 56 2900 000/00 RMK AO2
14837KMSN MSN20090625133009606/25/09 13:30:31  5-MIN KMSN 251930Z VRB04KT 10SM SCT040 31/22 A2981 970 58 3000 VRB/04 RMK AO2
14837KMSN MSN20090625133509606/25/09 13:35:31  5-MIN KMSN 251935Z 29003KT 10SM SCT040 30/21 A2981 970 56 2900 290/03 RMK AO2
14837KMSN MSN20090625134009606/25/09 13:40:31  5-MIN KMSN 251940Z VRB03KT 10SM SCT040 30/21 A2981 970 56 2900 VRB/03 RMK AO2
14837KMSN MSN20090625134509606/25/09 13:45:31  5-MIN KMSN 251945Z 00000KT 10SM SCT040 31/21 A2981 970 56 3000 000/00 RMK AO2
14837KMSN MSN20090625135011306/25/09 13:50:31  5-MIN KMSN 251950Z VRB04KT 10SM SCT040 31/22 A2981 970 56 3100 VRB/04 RMK AO2 SLP086 T03110217
14837KMSN MSN20090625135509606/25/09 13:55:31  5-MIN KMSN 251955Z 30005KT 10SM BKN043 31/22 A2981 970 56 3100 300/05 RMK AO2
14837KMSN MSN20090625140009606/25/09 14:00:31  5-MIN KMSN 252000Z 00000KT 10SM SCT045 31/21 A2980 970 54 3100 000/00 RMK AO2
14837KMSN MSN20090625140509606/25/09 14:05:31  5-MIN KMSN 252005Z VRB04KT 10SM SCT043 31/21 A2980 970 54 3100 VRB/04 RMK AO2
14837KMSN MSN20090625141009606/25/09 14:10:31  5-MIN KMSN 252010Z 35005KT 10SM SCT043 31/22 A2980 980 56 3100 350/05 RMK AO2
14837KMSN MSN20090625141509606/25/09 14:15:31  5-MIN KMSN 252015Z 34005KT 10SM SCT043 31/22 A2980 970 56 3100 340/05 RMK AO2
14837KMSN MSN20090625142009606/25/09 14:20:31  5-MIN KMSN 252020Z 00000KT 10SM FEW041 31/21 A2980 980 56 3000 000/00 RMK AO2
14837KMSN MSN20090625142509606/25/09 14:25:31  5-MIN KMSN 252025Z 01004KT 10SM FEW041 32/22 A2980 980 56 3100 010/04 RMK AO2
14837KMSN MSN20090625143009606/25/09 14:30:31  5-MIN KMSN 252030Z VRB03KT 10SM FEW041 31/21 A2980 980 54 3100 VRB/03 RMK AO2
14837KMSN MSN20090625143510306/25/09 14:35:31  5-MIN KMSN 252035Z 00000KT 10SM SCT041 SCT049 31/22 A2980 980 56 3100 000/00 RMK AO2
14837KMSN MSN20090625144010306/25/09 14:40:31  5-MIN KMSN 252040Z VRB03KT 10SM SCT041 SCT049 31/21 A2979 980 54 3100 VRB/03 RMK AO2
14837KMSN MSN20090625144509606/25/09 14:45:31  5-MIN KMSN 252045Z 33005KT 10SM SCT043 31/22 A2979 980 58 3100 330/05 RMK AO2
14837KMSN MSN20090625145011906/25/09 14:50:31  5-MIN KMSN 252050Z VRB06KT 10SM SCT043 32/22 A2979 980 55 3100 VRB/06 RMK AO2 SLP081 T03170217 58010
14837KMSN MSN20090625145509606/25/09 14:55:31  5-MIN KMSN 252055Z 00000KT 10SM SCT041 32/21 A2979 990 53 3100 000/00 RMK AO2
14837KMSN MSN20090625150009606/25/09 15:00:31  5-MIN KMSN 252100Z VRB04KT 10SM SCT044 32/22 A2979 990 55 3100 VRB/04 RMK AO2
14837KMSN MSN20090625150509606/25/09 15:05:31  5-MIN KMSN 252105Z VRB04KT 10SM FEW044 32/22 A2979 990 56 3100 VRB/04 RMK AO2
14837KMSN MSN20090625151009606/25/09 15:10:31  5-MIN KMSN 252110Z VRB05KT 10SM FEW042 32/22 A2979 990 55 3200 VRB/05 RMK AO2
14837KMSN MSN20090625151509306/25/09 15:15:31  5-MIN KMSN 252115Z 30004KT 10SM CLR 32/22 A2979 990 55 3100 300/04 RMK AO2
14837KMSN MSN20090625152009606/25/09 15:20:31  5-MIN KMSN 252120Z VRB03KT 10SM FEW042 32/22 A2979 990 55 3100 VRB/03 RMK AO2
14837KMSN MSN20090625152509606/25/09 15:25:31  5-MIN KMSN 252125Z 29004KT 10SM FEW042 31/22 A2979 990 56 3100 290/04 RMK AO2
14837KMSN MSN20090625153009606/25/09 15:30:31  5-MIN KMSN 252130Z 26003KT 10SM FEW042 31/22 A2979 990 56 3100 260/03 RMK AO2
14837KMSN MSN20090625153509606/25/09 15:35:31  5-MIN KMSN 252135Z 29007KT 10SM FEW042 32/21 A2979 990 53 3100 290/07 RMK AO2
14837KMSN MSN20090625154009606/25/09 15:40:31  5-MIN KMSN 252140Z 30005KT 10SM FEW042 31/21 A2979 990 54 3100 290/05 RMK AO2
14837KMSN MSN20090625154509606/25/09 15:45:31  5-MIN KMSN 252145Z 28006KT 10SM FEW042 31/21 A2979 990 53 3100 280/06 RMK AO2
14837KMSN MSN20090625155011306/25/09 15:50:31  5-MIN KMSN 252150Z 29004KT 10SM FEW042 31/21 A2979 990 54 3100 290/04 RMK AO2 SLP079 T03110211
14837KMSN MSN20090625155509606/25/09 15:55:31  5-MIN KMSN 252155Z 00000KT 10SM FEW042 31/21 A2978 990 54 3100 000/00 RMK AO2
14837KMSN MSN20090625160009606/25/09 16:00:31  5-MIN KMSN 252200Z VRB04KT 10SM FEW042 31/21 A2978 990 54 3100 VRB/04 RMK AO2
14837KMSN MSN20090625160509606/25/09 16:05:31  5-MIN KMSN 252205Z VRB05KT 10SM FEW042 32/21 A2978 990 53 3200 VRB/05 RMK AO2
14837KMSN MSN20090625161009606/25/09 16:10:31  5-MIN KMSN 252210Z 29006KT 10SM FEW042 31/21 A2978 990 54 3100 280/06 RMK AO2
14837KMSN MSN20090625161509606/25/09 16:15:31  5-MIN KMSN 252215Z 28003KT 10SM FEW042 31/21 A2978 990 54 3100 280/03 RMK AO2
14837KMSN MSN20090625162009606/25/09 16:20:31  5-MIN KMSN 252220Z VRB04KT 10SM FEW042 31/22 A2978 990 56 3100 VRB/04 RMK AO2
14837KMSN MSN20090625162509706/25/09 16:25:31  5-MIN KMSN 252225Z 29004KT 10SM FEW042 31/22 A2978 1000 56 3100 290/04 RMK AO2
14837KMSN MSN20090625163009606/25/09 16:30:31  5-MIN KMSN 252230Z VRB06KT 10SM FEW042 31/21 A2978 990 54 3100 VRB/06 RMK AO2
14837KMSN MSN20090625163509706/25/09 16:35:31  5-MIN KMSN 252235Z VRB03KT 10SM FEW042 31/21 A2978 1000 54 3100 VRB/03 RMK AO2
14837KMSN MSN20090625164009706/25/09 16:40:31  5-MIN KMSN 252240Z 29003KT 10SM FEW042 31/22 A2978 1000 56 3100 290/03 RMK AO2
14837KMSN MSN20090625164509706/25/09 16:45:31  5-MIN KMSN 252245Z VRB03KT 10SM FEW042 32/22 A2978 1000 55 3200 VRB/03 RMK AO2
14837KMSN MSN20090625165011406/25/09 16:50:31  5-MIN KMSN 252250Z VRB03KT 10SM FEW042 31/21 A2978 1000 54 3100 VRB/03 RMK AO2 SLP077 T03110211
14837KMSN MSN20090625165510906/25/09 16:55:31  5-MIN KMSN 252255Z 21011G17KT 10SM FEW049 SCT095 30/22 A2978 990 60 3000 210/11G17 RMK AO2
14837KMSN MSN20090625170011006/25/09 17:00:31  5-MIN KMSN 252300Z 23009G17KT 10SM FEW049 SCT095 29/21 A2978 1000 62 2900 230/09G17 RMK AO2
14837KMSN MSN20090625170510306/25/09 17:05:31  5-MIN KMSN 252305Z 23006G15KT 10SM SCT049 28/21 A2978 1000 64 2800 230/06G15 RMK AO2
14837KMSN MSN20090625171011706/25/09 17:10:31  5-MIN KMSN 252310Z 23007G15KT 10SM SCT049 SCT055 BKN085 28/21 A2978 1000 64 2800 230/07G15 RMK AO2
14837KMSN MSN20090625171511106/25/09 17:15:31  5-MIN KMSN 252315Z 23009KT 10SM SCT049 BKN060 BKN080 28/21 A2978 1000 66 2700 230/09 RMK AO2
14837KMSN MSN20090625172011106/25/09 17:20:31  5-MIN KMSN 252320Z 24007KT 10SM SCT049 BKN060 BKN080 28/21 A2978 1000 66 2700 240/07 RMK AO2
14837KMSN MSN20090625172511106/25/09 17:25:31  5-MIN KMSN 252325Z 24007KT 10SM FEW043 SCT050 BKN060 28/21 A2977 1000 66 2700 240/07 RMK AO2
14837KMSN MSN20090625173011106/25/09 17:30:31  5-MIN KMSN 252330Z 23007KT 10SM SCT043 BKN060 BKN080 28/22 A2977 1000 69 2700 230/07 RMK AO2
14837KMSN MSN20090625173511106/25/09 17:35:31  5-MIN KMSN 252335Z 23007KT 10SM SCT043 BKN060 OVC090 28/21 A2977 1000 66 2700 230/07 RMK AO2
14837KMSN MSN20090625174011106/25/09 17:40:31  5-MIN KMSN 252340Z VRB06KT 10SM FEW043 SCT060 BKN095 28/21 A2977 1000 64 2800 VRB/06 RMK AO2
14837KMSN MSN20090625174511106/25/09 17:45:31  5-MIN KMSN 252345Z 23005KT 10SM FEW043 SCT060 BKN095 28/21 A2977 1000 64 2800 230/05 RMK AO2
14837KMSN MSN20090625175014606/25/09 17:50:31  5-MIN KMSN 252350Z 23007KT 10SM SCT043 SCT060 BKN095 28/21 A2977 1000 64 2800 230/07 RMK AO2 SLP075 T02830211 10322 20278 56014
14837KMSN MSN20090625175511106/25/09 17:55:31  5-MIN KMSN 252355Z 24007KT 10SM SCT043 SCT060 BKN090 28/21 A2977 1000 66 2700 230/07 RMK AO2
14837KMSN MSN20090625180010406/25/09 18:00:31  5-MIN KMSN 260000Z VRB04KT 10SM FEW043 BKN090 28/21 A2977 1000 66 2700 VRB/04 RMK AO2
14837KMSN MSN20090625180510406/25/09 18:05:31  5-MIN KMSN 260005Z 27005KT 10SM FEW043 SCT090 28/21 A2977 1000 64 2700 270/05 RMK AO2
14837KMSN MSN20090625181009706/25/09 18:10:31  5-MIN KMSN 260010Z VRB04KT 10SM FEW043 27/21 A2977 1000 66 2700 VRB/04 RMK AO2
14837KMSN MSN20090625181509706/25/09 18:15:31  5-MIN KMSN 260015Z VRB04KT 10SM FEW044 28/21 A2977 1000 64 2700 VRB/04 RMK AO2
14837KMSN MSN20090625182009706/25/09 18:20:31  5-MIN KMSN 260020Z VRB04KT 10SM SCT046 28/21 A2977 1000 66 2700 VRB/04 RMK AO2
14837KMSN MSN20090625182509706/25/09 18:25:31  5-MIN KMSN 260025Z 30006KT 10SM SCT046 28/21 A2977 1000 64 2800 300/06 RMK AO2
14837KMSN MSN20090625183009706/25/09 18:30:31  5-MIN KMSN 260030Z 30004KT 10SM SCT046 28/21 A2977 1000 64 2800 300/04 RMK AO2
14837KMSN MSN20090625183509706/25/09 18:35:31  5-MIN KMSN 260035Z 29006KT 10SM FEW046 28/21 A2977 1010 64 2800 290/06 RMK AO2
14837KMSN MSN20090625184009706/25/09 18:40:31  5-MIN KMSN 260040Z 30005KT 10SM FEW046 28/22 A2977 1010 69 2700 290/05 RMK AO2
14837KMSN MSN20090625184509706/25/09 18:45:31  5-MIN KMSN 260045Z 29005KT 10SM FEW046 28/22 A2977 1010 69 2700 290/05 RMK AO2
14837KMSN MSN20090625185011406/25/09 18:50:31  5-MIN KMSN 260050Z 28004KT 10SM FEW046 28/22 A2977 1010 69 2700 280/04 RMK AO2 SLP073 T02780217
14837KMSN MSN20090625185509406/25/09 18:55:31  5-MIN KMSN 260055Z 28005KT 10SM CLR 28/22 A2977 1000 69 2700 280/05 RMK AO2
14837KMSN MSN20090625190009706/25/09 19:00:31  5-MIN KMSN 260100Z 28004KT 10SM FEW046 28/22 A2977 1000 69 2700 280/04 RMK AO2
14837KMSN MSN20090625190509706/25/09 19:05:31  5-MIN KMSN 260105Z 29006KT 10SM FEW046 27/22 A2977 1000 71 2700 280/06 RMK AO2
14837KMSN MSN20090625191009706/25/09 19:10:31  5-MIN KMSN 260110Z 29004KT 10SM FEW046 27/22 A2977 1000 71 2700 290/04 RMK AO2
14837KMSN MSN20090625191509706/25/09 19:15:31  5-MIN KMSN 260115Z VRB03KT 10SM FEW046 27/22 A2978 1000 71 2700 VRB/03 RMK AO2
14837KMSN MSN20090625192009706/25/09 19:20:31  5-MIN KMSN 260120Z 27004KT 10SM FEW046 27/22 A2977 1000 71 2700 270/04 RMK AO2
14837KMSN MSN20090625192509706/25/09 19:25:31  5-MIN KMSN 260125Z VRB03KT 10SM FEW046 27/22 A2977 1000 73 2600 VRB/03 RMK AO2
14837KMSN MSN20090625193009406/25/09 19:30:31  5-MIN KMSN 260130Z 29003KT 10SM CLR 27/22 A2977 1000 73 2600 290/03 RMK AO2
14837KMSN MSN20090625193509406/25/09 19:35:31  5-MIN KMSN 260135Z 28004KT 10SM CLR 27/22 A2977 1000 73 2600 280/04 RMK AO2
14837KMSN MSN20090625194009406/25/09 19:40:31  5-MIN KMSN 260140Z 27004KT 10SM CLR 26/22 A2978 1000 76 2500 270/04 RMK AO2
14837KMSN MSN20090625194509406/25/09 19:45:31  5-MIN KMSN 260145Z 26004KT 10SM CLR 26/22 A2978 1000 76 2500 260/04 RMK AO2
14837KMSN MSN20090625195011106/25/09 19:50:31  5-MIN KMSN 260150Z 27004KT 10SM CLR 26/22 A2978 1000 76 2500 270/04 RMK AO2 SLP076 T02610217
14837KMSN MSN20090625195509406/25/09 19:55:31  5-MIN KMSN 260155Z 27004KT 10SM CLR 26/22 A2978 1000 76 2500 270/04 RMK AO2
14837KMSN MSN20090625200009406/25/09 20:00:31  5-MIN KMSN 260200Z 29004KT 10SM CLR 26/22 A2978 1000 79 2500 290/04 RMK AO2
14837KMSN MSN20090625200509406/25/09 20:05:31  5-MIN KMSN 260205Z 29003KT 10SM CLR 26/22 A2978 1000 79 2500 290/03 RMK AO2
14837KMSN MSN20090625201009306/25/09 20:10:31  5-MIN KMSN 260210Z 31003KT 10SM CLR 26/22 A2978 990 79 2500 310/03 RMK AO2
14837KMSN MSN20090625201509306/25/09 20:15:31  5-MIN KMSN 260215Z 33003KT 10SM CLR 25/22 A2978 990 81 2400 330/03 RMK AO2
14837KMSN MSN20090625202009306/25/09 20:20:31  5-MIN KMSN 260220Z 34004KT 10SM CLR 25/21 A2978 990 79 2400 340/04 RMK AO2
14837KMSN MSN20090625202509306/25/09 20:25:31  5-MIN KMSN 260225Z 34006KT 10SM CLR 26/21 A2979 990 73 2500 340/06 RMK AO2
14837KMSN MSN20090625203009306/25/09 20:30:31  5-MIN KMSN 260230Z 34005KT 10SM CLR 26/21 A2979 990 73 2500 340/05 RMK AO2
14837KMSN MSN20090625203509306/25/09 20:35:31  5-MIN KMSN 260235Z 35006KT 10SM CLR 26/21 A2979 990 73 2500 350/06 RMK AO2
14837KMSN MSN20090625204009306/25/09 20:40:31  5-MIN KMSN 260240Z 35005KT 10SM CLR 26/21 A2979 990 73 2500 350/05 RMK AO2
14837KMSN MSN20090625204509306/25/09 20:45:31  5-MIN KMSN 260245Z 35005KT 10SM CLR 25/21 A2979 980 76 2400 350/05 RMK AO2
14837KMSN MSN20090625205011606/25/09 20:50:31  5-MIN KMSN 260250Z 34005KT 10SM CLR 26/21 A2979 980 73 2500 340/05 RMK AO2 SLP081 T02560206 57006
14837KMSN MSN20090625205509306/25/09 20:55:31  5-MIN KMSN 260255Z 34007KT 10SM CLR 26/20 A2979 980 71 2500 340/07 RMK AO2
14837KMSN MSN20090625210009306/25/09 21:00:31  5-MIN KMSN 260300Z 34006KT 10SM CLR 26/20 A2980 980 71 2500 330/06 RMK AO2
14837KMSN MSN20090625210509306/25/09 21:05:31  5-MIN KMSN 260305Z 34005KT 10SM CLR 26/20 A2980 980 71 2500 340/05 RMK AO2
14837KMSN MSN20090625211009306/25/09 21:10:31  5-MIN KMSN 260310Z 34006KT 10SM CLR 26/20 A2980 980 71 2500 340/06 RMK AO2
14837KMSN MSN20090625211509306/25/09 21:15:31  5-MIN KMSN 260315Z 34005KT 10SM CLR 26/20 A2980 980 71 2500 340/05 RMK AO2
14837KMSN MSN20090625212009306/25/09 21:20:31  5-MIN KMSN 260320Z 34004KT 10SM CLR 26/20 A2980 980 68 2500 340/04 RMK AO2
14837KMSN MSN20090625212509306/25/09 21:25:31  5-MIN KMSN 260325Z 35005KT 10SM CLR 25/20 A2980 970 73 2400 350/05 RMK AO2
14837KMSN MSN20090625213009306/25/09 21:30:31  5-MIN KMSN 260330Z 34004KT 10SM CLR 25/19 A2980 970 71 2400 340/04 RMK AO2
14837KMSN MSN20090625213509306/25/09 21:35:31  5-MIN KMSN 260335Z 34003KT 10SM CLR 25/19 A2980 970 71 2400 340/03 RMK AO2
14837KMSN MSN20090625214009306/25/09 21:40:31  5-MIN KMSN 260340Z 34004KT 10SM CLR 24/19 A2980 970 73 2300 340/04 RMK AO2
14837KMSN MSN20090625214509306/25/09 21:45:31  5-MIN KMSN 260345Z 34005KT 10SM CLR 24/19 A2981 970 73 2300 340/05 RMK AO2
14837KMSN MSN20090625215011006/25/09 21:50:31  5-MIN KMSN 260350Z 34004KT 10SM CLR 24/19 A2980 970 73 2300 330/04 RMK AO2 SLP086 T02440194
14837KMSN MSN20090625215509306/25/09 21:55:31  5-MIN KMSN 260355Z 33004KT 10SM CLR 24/19 A2981 970 73 2300 330/04 RMK AO2
14837KMSN MSN20090625220009306/25/09 22:00:31  5-MIN KMSN 260400Z 33005KT 10SM CLR 24/19 A2981 970 76 2300 330/05 RMK AO2
14837KMSN MSN20090625220509306/25/09 22:05:31  5-MIN KMSN 260405Z 34005KT 10SM CLR 24/19 A2981 970 76 2300 340/05 RMK AO2
14837KMSN MSN20090625221009306/25/09 22:10:31  5-MIN KMSN 260410Z 33006KT 10SM CLR 24/19 A2981 970 76 2300 330/06 RMK AO2
14837KMSN MSN20090625221509306/25/09 22:15:31  5-MIN KMSN 260415Z 33004KT 10SM CLR 24/19 A2981 970 76 2300 330/04 RMK AO2
14837KMSN MSN20090625222009306/25/09 22:20:31  5-MIN KMSN 260420Z 34005KT 10SM CLR 24/19 A2981 970 73 2300 340/05 RMK AO2
14837KMSN MSN20090625222509306/25/09 22:25:31  5-MIN KMSN 260425Z 34005KT 10SM CLR 23/19 A2981 970 76 2200 340/05 RMK AO2
14837KMSN MSN20090625223009306/25/09 22:30:31  5-MIN KMSN 260430Z 34005KT 10SM CLR 23/19 A2981 970 76 2200 340/05 RMK AO2
14837KMSN MSN20090625223509306/25/09 22:35:31  5-MIN KMSN 260435Z 34006KT 10SM CLR 23/19 A2981 970 76 2200 340/06 RMK AO2
14837KMSN MSN20090625224009306/25/09 22:40:31  5-MIN KMSN 260440Z 34005KT 10SM CLR 23/19 A2981 970 76 2200 340/05 RMK AO2
14837KMSN MSN20090625224509306/25/09 22:45:31  5-MIN KMSN 260445Z 34005KT 10SM CLR 23/19 A2981 970 76 2200 340/05 RMK AO2
14837KMSN MSN20090625225011006/25/09 22:50:31  5-MIN KMSN 260450Z 35005KT 10SM CLR 23/19 A2981 960 76 2200 350/05 RMK AO2 SLP089 T02330189
14837KMSN MSN20090625225509306/25/09 22:55:31  5-MIN KMSN 260455Z 35005KT 10SM CLR 23/19 A2981 960 78 2100 350/05 RMK AO2
14837KMSN MSN20090625230009306/25/09 23:00:31  5-MIN KMSN 260500Z 35005KT 10SM CLR 23/19 A2981 960 78 2100 350/05 RMK AO2
14837KMSN MSN20090625230509306/25/09 23:05:31  5-MIN KMSN 260505Z 35005KT 10SM CLR 23/18 A2982 960 76 2100 350/05 RMK AO2
14837KMSN MSN20090625231009306/25/09 23:10:31  5-MIN KMSN 260510Z 34004KT 10SM CLR 23/18 A2981 960 76 2100 340/04 RMK AO2
14837KMSN MSN20090625231509306/25/09 23:15:31  5-MIN KMSN 260515Z 34004KT 10SM CLR 23/18 A2981 960 76 2100 340/04 RMK AO2
14837KMSN MSN20090625232009306/25/09 23:20:31  5-MIN KMSN 260520Z 34003KT 10SM CLR 22/18 A2981 960 78 2100 340/03 RMK AO2
14837KMSN MSN20090625232509306/25/09 23:25:31  5-MIN KMSN 260525Z 35003KT 10SM CLR 22/18 A2981 960 78 2100 350/03 RMK AO2
14837KMSN MSN20090625233009306/25/09 23:30:31  5-MIN KMSN 260530Z 35003KT 10SM CLR 22/18 A2982 960 81 2000 350/03 RMK AO2
14837KMSN MSN20090625233509306/25/09 23:35:31  5-MIN KMSN 260535Z 00000KT 10SM CLR 22/18 A2982 960 78 2100 000/00 RMK AO2
14837KMSN MSN20090625234009306/25/09 23:40:31  5-MIN KMSN 260540Z 00000KT 10SM CLR 22/18 A2982 960 78 2100 000/00 RMK AO2
14837KMSN MSN20090625234509306/25/09 23:45:31  5-MIN KMSN 260545Z 00000KT 10SM CLR 22/18 A2982 960 78 2100 000/00 RMK AO2
14837KMSN MSN20090625235013806/25/09 23:50:31  5-MIN KMSN 260550Z 00000KT 10SM CLR 21/18 A2982 960 81 1900 000/00 RMK AO2 SLP091 T02110178 10283 20211 403220211 53006
14837KMSN MSN20090625235509306/25/09 23:55:31  5-MIN KMSN 260555Z 00000KT 10SM CLR 21/18 A2982 960 81 1900 000/00 RMK AO2
14837KMSN MSN20090626000009306/26/09 00:00:32  5-MIN KMSN 260600Z 35003KT 10SM CLR 21/18 A2982 960 84 1900 350/03 RMK AO2
14837KMSN MSN20090626000509306/26/09 00:05:31  5-MIN KMSN 260605Z 34004KT 10SM CLR 21/18 A2982 960 81 1900 340/04 RMK AO2
14837KMSN MSN20090626001009306/26/09 00:10:31  5-MIN KMSN 260610Z 33004KT 10SM CLR 21/18 A2982 960 81 1900 330/04 RMK AO2
14837KMSN MSN20090626001509306/26/09 00:15:31  5-MIN KMSN 260615Z 34004KT 10SM CLR 21/18 A2982 950 81 1900 340/04 RMK AO2
14837KMSN MSN20090626002009306/26/09 00:20:31  5-MIN KMSN 260620Z 33004KT 10SM CLR 21/18 A2982 950 81 1900 330/04 RMK AO2
14837KMSN MSN20090626002509306/26/09 00:25:31  5-MIN KMSN 260625Z 33004KT 10SM CLR 21/17 A2982 950 78 1900 330/04 RMK AO2
14837KMSN MSN20090626003009306/26/09 00:30:31  5-MIN KMSN 260630Z 33003KT 10SM CLR 21/17 A2983 950 78 1900 320/03 RMK AO2
14837KMSN MSN20090626003509306/26/09 00:35:31  5-MIN KMSN 260635Z 32004KT 10SM CLR 21/17 A2983 950 81 1900 320/04 RMK AO2
14837KMSN MSN20090626004009306/26/09 00:40:31  5-MIN KMSN 260640Z 33004KT 10SM CLR 21/17 A2983 950 81 1900 320/04 RMK AO2
14837KMSN MSN20090626004509306/26/09 00:45:31  5-MIN KMSN 260645Z 32004KT 10SM CLR 21/17 A2983 940 81 1800 320/04 RMK AO2
14837KMSN MSN20090626005011006/26/09 00:50:31  5-MIN KMSN 260650Z 31004KT 10SM CLR 21/17 A2983 940 78 1900 310/04 RMK AO2 SLP096 T02110172
14837KMSN MSN20090626005509306/26/09 00:55:31  5-MIN KMSN 260655Z 30004KT 10SM CLR 21/17 A2983 940 78 1900 300/04 RMK AO2
14837KMSN MSN20090626010009306/26/09 01:00:31  5-MIN KMSN 260700Z 31003KT 10SM CLR 21/17 A2983 940 78 1900 310/03 RMK AO2
14837KMSN MSN20090626010509306/26/09 01:05:31  5-MIN KMSN 260705Z 28003KT 10SM CLR 21/17 A2984 940 78 1900 280/03 RMK AO2
14837KMSN MSN20090626011009306/26/09 01:10:31  5-MIN KMSN 260710Z 00000KT 10SM CLR 21/17 A2983 940 78 1900 000/00 RMK AO2
14837KMSN MSN20090626011509306/26/09 01:15:31  5-MIN KMSN 260715Z 00000KT 10SM CLR 21/17 A2983 950 78 1900 000/00 RMK AO2
14837KMSN MSN20090626012009306/26/09 01:20:31  5-MIN KMSN 260720Z 00000KT 10SM CLR 21/17 A2983 950 81 1900 000/00 RMK AO2
14837KMSN MSN20090626012509306/26/09 01:25:31  5-MIN KMSN 260725Z 00000KT 10SM CLR 21/17 A2983 940 81 1800 000/00 RMK AO2
14837KMSN MSN20090626013009306/26/09 01:30:31  5-MIN KMSN 260730Z 00000KT 10SM CLR 21/17 A2983 950 81 1900 000/00 RMK AO2
14837KMSN MSN20090626013509306/26/09 01:35:31  5-MIN KMSN 260735Z 00000KT 10SM CLR 21/17 A2983 950 81 1900 000/00 RMK AO2
14837KMSN MSN20090626014009306/26/09 01:40:31  5-MIN KMSN 260740Z 00000KT 10SM CLR 21/17 A2983 950 81 1900 000/00 RMK AO2
14837KMSN MSN20090626014509306/26/09 01:45:31  5-MIN KMSN 260745Z 00000KT 10SM CLR 21/17 A2983 950 78 1900 000/00 RMK AO2
14837KMSN MSN20090626015011006/26/09 01:50:31  5-MIN KMSN 260750Z 00000KT 10SM CLR 21/17 A2983 950 81 1900 000/00 RMK AO2 SLP094 T02060172
14837KMSN MSN20090626015509306/26/09 01:55:31  5-MIN KMSN 260755Z 00000KT 10SM CLR 19/17 A2983 950 87 1700 000/00 RMK AO2
14837KMSN MSN20090626020009306/26/09 02:00:31  5-MIN KMSN 260800Z 00000KT 10SM CLR 19/18 A2983 950 90 1700 000/00 RMK AO2
14837KMSN MSN20090626020509306/26/09 02:05:31  5-MIN KMSN 260805Z 00000KT 10SM CLR 18/17 A2983 950 93 1600 000/00 RMK AO2
14837KMSN MSN20090626021009306/26/09 02:10:31  5-MIN KMSN 260810Z 00000KT 10SM CLR 19/18 A2983 950 93 1700 000/00 RMK AO2
14837KMSN MSN20090626021509306/26/09 02:15:31  5-MIN KMSN 260815Z 00000KT 10SM CLR 19/18 A2983 950 93 1700 000/00 RMK AO2
14837KMSN MSN20090626022009306/26/09 02:20:31  5-MIN KMSN 260820Z 00000KT 10SM CLR 19/18 A2983 950 93 1700 000/00 RMK AO2
14837KMSN MSN20090626022509306/26/09 02:25:31  5-MIN KMSN 260825Z 00000KT 10SM CLR 18/17 A2983 950 93 1600 000/00 RMK AO2
14837KMSN MSN20090626023009306/26/09 02:30:31  5-MIN KMSN 260830Z 00000KT 10SM CLR 19/18 A2983 950 93 1700 000/00 RMK AO2
14837KMSN MSN20090626023509306/26/09 02:35:31  5-MIN KMSN 260835Z 00000KT 10SM CLR 19/18 A2983 940 93 1700 000/00 RMK AO2
14837KMSN MSN20090626024009306/26/09 02:40:31  5-MIN KMSN 260840Z 00000KT 10SM CLR 19/18 A2983 940 93 1700 000/00 RMK AO2
14837KMSN MSN20090626024509306/26/09 02:45:31  5-MIN KMSN 260845Z 00000KT 10SM CLR 19/18 A2984 940 93 1700 000/00 RMK AO2
14837KMSN MSN20090626025011606/26/09 02:50:31  5-MIN KMSN 260850Z 00000KT 10SM CLR 18/18 A2984 940 96 1600 000/00 RMK AO2 SLP097 T01830178 51009
14837KMSN MSN20090626025509306/26/09 02:55:31  5-MIN KMSN 260855Z 00000KT 10SM CLR 18/17 A2984 940 93 1600 000/00 RMK AO2
14837KMSN MSN20090626030009306/26/09 03:00:31  5-MIN KMSN 260900Z 00000KT 10SM CLR 18/17 A2984 940 96 1500 000/00 RMK AO2
14837KMSN MSN20090626030509306/26/09 03:05:31  5-MIN KMSN 260905Z 00000KT 10SM CLR 18/17 A2984 940 96 1500 000/00 RMK AO2
14837KMSN MSN20090626031009306/26/09 03:10:31  5-MIN KMSN 260910Z 00000KT 10SM CLR 18/17 A2984 940 96 1500 000/00 RMK AO2
14837KMSN MSN20090626031509306/26/09 03:15:31  5-MIN KMSN 260915Z 32003KT 10SM CLR 18/17 A2984 940 93 1600 310/03 RMK AO2
14837KMSN MSN20090626032009306/26/09 03:20:31  5-MIN KMSN 260920Z 00000KT 10SM CLR 18/17 A2984 940 93 1600 000/00 RMK AO2
14837KMSN MSN20090626032509306/26/09 03:25:31  5-MIN KMSN 260925Z 00000KT 10SM CLR 17/16 A2984 930 96 1400 000/00 RMK AO2
14837KMSN MSN20090626033009306/26/09 03:30:31  5-MIN KMSN 260930Z 00000KT 10SM CLR 17/16 A2984 940 93 1400 000/00 RMK AO2
14837KMSN MSN20090626033509206/26/09 03:35:31  5-MIN KMSN 260935Z 00000KT 9SM CLR 17/16 A2985 930 93 1500 000/00 RMK AO2
14837KMSN MSN20090626034009206/26/09 03:40:31  5-MIN KMSN 260940Z 00000KT 8SM CLR 17/17 A2985 930 96 1400 000/00 RMK AO2
14837KMSN MSN20090626034509206/26/09 03:45:31  5-MIN KMSN 260945Z 00000KT 8SM CLR 17/17 A2985 930 96 1400 000/00 RMK AO2
14837KMSN MSN20090626035010906/26/09 03:50:31  5-MIN KMSN 260950Z 00000KT 8SM CLR 18/17 A2985 930 93 1500 000/00 RMK AO2 SLP101 T01780167
14837KMSN MSN20090626035509206/26/09 03:55:31  5-MIN KMSN 260955Z 00000KT 9SM CLR 18/17 A2985 930 93 1500 000/00 RMK AO2
14837KMSN MSN20090626040009206/26/09 04:00:31  5-MIN KMSN 261000Z 00000KT 9SM CLR 18/17 A2985 930 96 1500 000/00 RMK AO2
14837KMSN MSN20090626040509206/26/09 04:05:31  5-MIN KMSN 261005Z 35003KT 9SM CLR 18/17 A2985 930 93 1500 350/03 RMK AO2
14837KMSN MSN20090626041009206/26/09 04:10:31  5-MIN KMSN 261010Z 00000KT 8SM CLR 17/17 A2985 930 96 1400 000/00 RMK AO2
14837KMSN MSN20090626041509206/26/09 04:15:31  5-MIN KMSN 261015Z 00000KT 9SM CLR 17/17 A2986 920 96 1400 000/00 RMK AO2
14837KMSN MSN20090626042009206/26/09 04:20:31  5-MIN KMSN 261020Z 00000KT 9SM CLR 17/17 A2986 920 96 1400 000/00 RMK AO2
14837KMSN MSN20090626042509206/26/09 04:25:31  5-MIN KMSN 261025Z 00000KT 8SM CLR 17/17 A2986 920 96 1400 000/00 RMK AO2
14837KMSN MSN20090626043009206/26/09 04:30:31  5-MIN KMSN 261030Z 00000KT 7SM CLR 17/16 A2986 920 96 1400 000/00 RMK AO2
14837KMSN MSN20090626043509206/26/09 04:35:31  5-MIN KMSN 261035Z 00000KT 8SM CLR 17/17 A2986 920 96 1400 000/00 RMK AO2
14837KMSN MSN20090626044009206/26/09 04:40:31  5-MIN KMSN 261040Z 00000KT 8SM CLR 18/17 A2986 920 93 1500 000/00 RMK AO2
14837KMSN MSN20090626044509206/26/09 04:45:31  5-MIN KMSN 261045Z 00000KT 9SM CLR 18/17 A2986 920 93 1500 000/00 RMK AO2
14837KMSN MSN20090626045010906/26/09 04:50:31  5-MIN KMSN 261050Z 00000KT 9SM CLR 17/17 A2986 920 96 1400 000/00 RMK AO2 SLP107 T01720167
14837KMSN MSN20090626045509206/26/09 04:55:31  5-MIN KMSN 261055Z 34004KT 9SM CLR 17/17 A2986 920 96 1400 330/04 RMK AO2
14837KMSN MSN20090626050009306/26/09 05:00:31  5-MIN KMSN 261100Z 34004KT 10SM CLR 18/17 A2987 910 93 1500 330/04 RMK AO2
14837KMSN MSN20090626050509306/26/09 05:05:31  5-MIN KMSN 261105Z 33003KT 10SM CLR 18/17 A2987 910 90 1600 330/03 RMK AO2
14837KMSN MSN20090626051009306/26/09 05:10:31  5-MIN KMSN 261110Z 33003KT 10SM CLR 19/17 A2987 910 87 1600 330/03 RMK AO2
14837KMSN MSN20090626051509306/26/09 05:15:31  5-MIN KMSN 261115Z 34003KT 10SM CLR 19/17 A2987 910 84 1700 340/03 RMK AO2
14837KMSN MSN20090626052009306/26/09 05:20:31  5-MIN KMSN 261120Z 34003KT 10SM CLR 19/17 A2987 910 87 1600 340/03 RMK AO2
14837KMSN MSN20090626052509306/26/09 05:25:31  5-MIN KMSN 261125Z 35003KT 10SM CLR 19/17 A2987 910 87 1700 350/03 RMK AO2
14837KMSN MSN20090626053009306/26/09 05:30:31  5-MIN KMSN 261130Z 36003KT 10SM CLR 19/17 A2987 910 87 1700 360/03 RMK AO2
14837KMSN MSN20090626053509306/26/09 05:35:31  5-MIN KMSN 261135Z 00000KT 10SM CLR 19/17 A2987 910 87 1700 000/00 RMK AO2
14837KMSN MSN20090626054009306/26/09 05:40:31  5-MIN KMSN 261140Z 36003KT 10SM CLR 20/17 A2987 910 84 1700 360/03 RMK AO2
14837KMSN MSN20090626054509306/26/09 05:45:31  5-MIN KMSN 261145Z 36003KT 10SM CLR 20/17 A2987 910 84 1700 360/03 RMK AO2
14837KMSN MSN20090626055012806/26/09 05:50:31  5-MIN KMSN 261150Z 35003KT 10SM CLR 21/18 A2987 910 84 1800 350/03 RMK AO2 SLP111 T02060178 10211 20167 51006
14837KMSN MSN20090626055509306/26/09 05:55:31  5-MIN KMSN 261155Z 35004KT 10SM CLR 21/18 A2988 910 84 1800 350/04 RMK AO2
14837KMSN MSN20090626060009306/26/09 06:00:31  5-MIN KMSN 261200Z 34004KT 10SM CLR 21/17 A2988 900 81 1800 340/04 RMK AO2
14837KMSN MSN20090626060509306/26/09 06:05:31  5-MIN KMSN 261205Z 33004KT 10SM CLR 21/17 A2988 900 81 1800 330/04 RMK AO2
14837KMSN MSN20090626061009306/26/09 06:10:31  5-MIN KMSN 261210Z 33004KT 10SM CLR 21/17 A2988 900 78 1900 330/04 RMK AO2
14837KMSN MSN20090626061509306/26/09 06:15:31  5-MIN KMSN 261215Z 33003KT 10SM CLR 21/17 A2989 900 78 1900 330/03 RMK AO2
14837KMSN MSN20090626062009306/26/09 06:20:31  5-MIN KMSN 261220Z 35004KT 10SM CLR 22/17 A2989 890 75 1900 340/04 RMK AO2
14837KMSN MSN20090626062509306/26/09 06:25:31  5-MIN KMSN 261225Z 00000KT 10SM CLR 22/18 A2989 890 78 1900 000/00 RMK AO2
14837KMSN MSN20090626063009306/26/09 06:30:31  5-MIN KMSN 261230Z 00000KT 10SM CLR 22/18 A2989 890 75 2000 000/00 RMK AO2
14837KMSN MSN20090626063509306/26/09 06:35:31  5-MIN KMSN 261235Z 32003KT 10SM CLR 22/18 A2989 890 75 2000 320/03 RMK AO2
14837KMSN MSN20090626064009306/26/09 06:40:31  5-MIN KMSN 261240Z 00000KT 10SM CLR 22/18 A2989 890 75 2000 000/00 RMK AO2
14837KMSN MSN20090626064509306/26/09 06:45:31  5-MIN KMSN 261245Z 30003KT 10SM CLR 22/18 A2989 890 75 2000 300/03 RMK AO2
14837KMSN MSN20090626065011006/26/09 06:50:31  5-MIN KMSN 261250Z 32003KT 10SM CLR 22/18 A2990 890 75 2000 320/03 RMK AO2 SLP117 T02220178
14837KMSN MSN20090626065509306/26/09 06:55:31  5-MIN KMSN 261255Z 33003KT 10SM CLR 23/18 A2990 890 73 2000 320/03 RMK AO2
14837KMSN MSN20090626070009306/26/09 07:00:31  5-MIN KMSN 261300Z 00000KT 10SM CLR 23/18 A2989 890 73 2000 000/00 RMK AO2
14837KMSN MSN20090626070509306/26/09 07:05:31  5-MIN KMSN 261305Z 34003KT 10SM CLR 23/18 A2990 890 70 2100 330/03 RMK AO2
14837KMSN MSN20090626071009306/26/09 07:10:31  5-MIN KMSN 261310Z 35003KT 10SM CLR 23/18 A2990 890 73 2100 340/03 RMK AO2
14837KMSN MSN20090626071509306/26/09 07:15:31  5-MIN KMSN 261315Z 00000KT 10SM CLR 24/18 A2990 880 68 2200 000/00 RMK AO2
14837KMSN MSN20090626072009306/26/09 07:20:31  5-MIN KMSN 261320Z 00000KT 10SM CLR 24/18 A2990 880 71 2200 000/00 RMK AO2
14837KMSN MSN20090626072509306/26/09 07:25:31  5-MIN KMSN 261325Z 01003KT 10SM CLR 24/18 A2990 880 71 2200 010/03 RMK AO2
14837KMSN MSN20090626073009306/26/09 07:30:31  5-MIN KMSN 261330Z 00000KT 10SM CLR 24/18 A2990 880 71 2200 000/00 RMK AO2
14837KMSN MSN20090626073509306/26/09 07:35:31  5-MIN KMSN 261335Z 00000KT 10SM CLR 24/18 A2990 880 68 2200 000/00 RMK AO2
14837KMSN MSN20090626074009306/26/09 07:40:31  5-MIN KMSN 261340Z 00000KT 10SM CLR 24/19 A2990 880 71 2200 000/00 RMK AO2
14837KMSN MSN20090626074509306/26/09 07:45:31  5-MIN KMSN 261345Z 00000KT 10SM CLR 24/19 A2990 880 71 2200 000/00 RMK AO2
14837KMSN MSN20090626075011006/26/09 07:50:31  5-MIN KMSN 261350Z 00000KT 10SM CLR 24/19 A2990 880 71 2200 000/00 RMK AO2 SLP120 T02440189
14837KMSN MSN20090626075509306/26/09 07:55:31  5-MIN KMSN 261355Z 00000KT 10SM CLR 25/19 A2990 880 68 2300 000/00 RMK AO2
14837KMSN MSN20090626080009306/26/09 08:00:31  5-MIN KMSN 261400Z 00000KT 10SM CLR 25/18 A2990 880 66 2300 000/00 RMK AO2
14837KMSN MSN20090626080509306/26/09 08:05:31  5-MIN KMSN 261405Z 00000KT 10SM CLR 26/18 A2990 880 64 2300 000/00 RMK AO2
14837KMSN MSN20090626081009306/26/09 08:10:31  5-MIN KMSN 261410Z VRB03KT 10SM CLR 25/18 A2990 880 64 2300 VRB/03 RMK AO2
14837KMSN MSN20090626081509306/26/09 08:15:31  5-MIN KMSN 261415Z 00000KT 10SM CLR 25/17 A2990 880 61 2300 000/00 RMK AO2
14837KMSN MSN20090626082009306/26/09 08:20:31  5-MIN KMSN 261420Z 00000KT 10SM CLR 26/18 A2990 880 64 2300 000/00 RMK AO2
14837KMSN MSN20090626082509306/26/09 08:25:31  5-MIN KMSN 261425Z 22003KT 10SM CLR 26/18 A2990 890 61 2300 220/03 RMK AO2
14837KMSN MSN20090626083009306/26/09 08:30:31  5-MIN KMSN 261430Z 00000KT 10SM CLR 26/18 A2990 890 61 2300 000/00 RMK AO2
14837KMSN MSN20090626083509306/26/09 08:35:31  5-MIN KMSN 261435Z 00000KT 10SM CLR 26/18 A2990 880 59 2400 000/00 RMK AO2
14837KMSN MSN20090626084009306/26/09 08:40:31  5-MIN KMSN 261440Z 00000KT 10SM CLR 26/18 A2990 890 59 2400 000/00 RMK AO2
14837KMSN MSN20090626084509306/26/09 08:45:31  5-MIN KMSN 261445Z VRB03KT 10SM CLR 27/18 A2990 890 60 2500 VRB/03 RMK AO2
14837KMSN MSN20090626085011606/26/09 08:50:31  5-MIN KMSN 261450Z 25003KT 10SM CLR 27/17 A2990 890 55 2500 250/03 RMK AO2 SLP118 T02670172 53012
14837KMSN MSN20090626085509306/26/09 08:55:31  5-MIN KMSN 261455Z 23003KT 10SM CLR 26/17 A2990 890 55 2400 230/03 RMK AO2
14837KMSN MSN20090626090009306/26/09 09:00:31  5-MIN KMSN 261500Z VRB03KT 10SM CLR 26/17 A2990 880 57 2400 VRB/03 RMK AO2
14837KMSN MSN20090626090509306/26/09 09:05:31  5-MIN KMSN 261505Z 00000KT 10SM CLR 27/18 A2990 880 57 2500 000/00 RMK AO2
14837KMSN MSN20090626091009306/26/09 09:10:31  5-MIN KMSN 261510Z 23004KT 10SM CLR 27/17 A2990 880 52 2500 230/04 RMK AO2
14837KMSN MSN20090626091509306/26/09 09:15:31  5-MIN KMSN 261515Z 24003KT 10SM CLR 27/17 A2990 880 53 2500 240/03 RMK AO2
14837KMSN MSN20090626092009606/26/09 09:20:31  5-MIN KMSN 261520Z 24003KT 10SM FEW045 27/16 A2990 880 50 2500 240/03 RMK AO2
14837KMSN MSN20090626092509606/26/09 09:25:31  5-MIN KMSN 261525Z 00000KT 10SM FEW045 27/16 A2990 880 48 2500 000/00 RMK AO2
14837KMSN MSN20090626093009606/26/09 09:30:31  5-MIN KMSN 261530Z 00000KT 10SM FEW045 27/16 A2990 880 50 2500 000/00 RMK AO2
14837KMSN MSN20090626093509606/26/09 09:35:31  5-MIN KMSN 261535Z 00000KT 10SM FEW045 28/17 A2990 880 50 2600 000/00 RMK AO2
14837KMSN MSN20090626094009606/26/09 09:40:31  5-MIN KMSN 261540Z 00000KT 10SM FEW045 27/17 A2990 880 52 2500 000/00 RMK AO2
14837KMSN MSN20090626094509606/26/09 09:45:31  5-MIN KMSN 261545Z 33003KT 10SM FEW045 28/16 A2990 880 45 2700 320/03 RMK AO2
14837KMSN MSN20090626095011306/26/09 09:50:31  5-MIN KMSN 261550Z 04006KT 10SM FEW045 28/14 A2990 880 42 2700 040/06 RMK AO2 SLP118 T02830144
14837KMSN MSN20090626095509606/26/09 09:55:31  5-MIN KMSN 261555Z 00000KT 10SM FEW055 28/13 A2990 880 40 2600 000/00 RMK AO2
14837KMSN MSN20090626100009606/26/09 10:00:31  5-MIN KMSN 261600Z 00000KT 10SM FEW055 28/14 A2990 880 43 2600 000/00 RMK AO2
14837KMSN MSN20090626100509606/26/09 10:05:31  5-MIN KMSN 261605Z VRB03KT 10SM FEW055 28/15 A2990 880 43 2700 VRB/03 RMK AO2
14837KMSN MSN20090626101009606/26/09 10:10:31  5-MIN KMSN 261610Z VRB06KT 10SM FEW055 28/14 A2990 880 42 2600 VRB/06 RMK AO2
14837KMSN MSN20090626101509606/26/09 10:15:31  5-MIN KMSN 261615Z 01005KT 10SM FEW055 28/16 A2990 880 45 2600 010/05 RMK AO2
14837KMSN MSN20090626102009606/26/09 10:20:31  5-MIN KMSN 261620Z VRB04KT 10SM FEW055 29/15 A2990 880 42 2700 VRB/04 RMK AO2
14837KMSN MSN20090626102509606/26/09 10:25:31  5-MIN KMSN 261625Z 35004KT 10SM FEW055 29/15 A2990 880 42 2700 350/04 RMK AO2
14837KMSN MSN20090626103009606/26/09 10:30:31  5-MIN KMSN 261630Z 35004KT 10SM FEW055 29/14 A2991 880 40 2700 350/04 RMK AO2
14837KMSN MSN20090626103509606/26/09 10:35:31  5-MIN KMSN 261635Z VRB05KT 10SM FEW055 29/14 A2991 880 39 2700 VRB/05 RMK AO2
14837KMSN MSN20090626104009606/26/09 10:40:31  5-MIN KMSN 261640Z 36007KT 10SM FEW055 29/14 A2991 880 40 2700 360/07 RMK AO2
14837KMSN MSN20090626104509606/26/09 10:45:31  5-MIN KMSN 261645Z 02003KT 10SM FEW055 29/14 A2990 880 40 2700 020/03 RMK AO2
14837KMSN MSN20090626105011306/26/09 10:50:31  5-MIN KMSN 261650Z VRB03KT 10SM FEW055 29/14 A2990 880 40 2700 VRB/03 RMK AO2 SLP119 T02890144
14837KMSN MSN20090626105509606/26/09 10:55:31  5-MIN KMSN 261655Z 00000KT 10SM FEW060 29/14 A2990 880 39 2700 000/00 RMK AO2
14837KMSN MSN20090626110009606/26/09 11:00:31  5-MIN KMSN 261700Z VRB05KT 10SM FEW060 29/14 A2990 880 40 2700 VRB/05 RMK AO2
14837KMSN MSN20090626110509606/26/09 11:05:31  5-MIN KMSN 261705Z 36008KT 10SM FEW060 29/15 A2990 880 41 2800 360/08 RMK AO2
14837KMSN MSN20090626111009606/26/09 11:10:31  5-MIN KMSN 261710Z 33004KT 10SM FEW060 29/15 A2990 880 42 2700 330/04 RMK AO2
14837KMSN MSN20090626111509606/26/09 11:15:31  5-MIN KMSN 261715Z 00000KT 10SM FEW060 29/14 A2990 880 39 2700 000/00 RMK AO2
14837KMSN MSN20090626112009606/26/09 11:20:31  5-MIN KMSN 261720Z 35004KT 10SM FEW060 29/14 A2990 880 39 2700 350/04 RMK AO2
14837KMSN MSN20090626112509606/26/09 11:25:31  5-MIN KMSN 261725Z 35005KT 10SM FEW060 29/14 A2990 880 40 2700 350/05 RMK AO2
14837KMSN MSN20090626113009606/26/09 11:30:31  5-MIN KMSN 261730Z VRB04KT 10SM FEW060 29/14 A2990 880 40 2700 VRB/04 RMK AO2
14837KMSN MSN20090626113509606/26/09 11:35:31  5-MIN KMSN 261735Z VRB03KT 10SM FEW060 29/14 A2990 880 39 2700 VRB/03 RMK AO2
14837KMSN MSN20090626114009606/26/09 11:40:31  5-MIN KMSN 261740Z 35005KT 10SM FEW060 29/14 A2990 880 38 2800 350/05 RMK AO2
14837KMSN MSN20090626114509606/26/09 11:45:31  5-MIN KMSN 261745Z VRB03KT 10SM FEW060 29/14 A2990 880 38 2800 VRB/03 RMK AO2
14837KMSN MSN20090626115013106/26/09 11:50:31  5-MIN KMSN 261750Z 33004KT 10SM FEW060 29/14 A2990 880 39 2700 330/04 RMK AO2 SLP119 T02890139 10294 20206 50007
14837KMSN MSN20090626115509606/26/09 11:55:31  5-MIN KMSN 261755Z 31005KT 10SM FEW060 29/14 A2990 880 39 2700 310/05 RMK AO2
14837KMSN MSN20090626120009606/26/09 12:00:31  5-MIN KMSN 261800Z VRB03KT 10SM FEW060 29/13 A2990 880 38 2700 VRB/03 RMK AO2
14837KMSN MSN20090626120509606/26/09 12:05:31  5-MIN KMSN 261805Z 00000KT 10SM FEW060 29/14 A2990 880 38 2800 000/00 RMK AO2
14837KMSN MSN20090626121009606/26/09 12:10:31  5-MIN KMSN 261810Z 00000KT 10SM FEW060 29/14 A2990 880 38 2800 000/00 RMK AO2
14837KMSN MSN20090626121509606/26/09 12:15:31  5-MIN KMSN 261815Z 32005KT 10SM FEW060 29/14 A2990 880 38 2800 320/05 RMK AO2
14837KMSN MSN20090626122009606/26/09 12:20:31  5-MIN KMSN 261820Z 36008KT 10SM FEW060 29/14 A2990 880 39 2800 360/08 RMK AO2
14837KMSN MSN20090626122509606/26/09 12:25:31  5-MIN KMSN 261825Z 02005KT 10SM FEW060 29/14 A2990 880 39 2800 010/05 RMK AO2
14837KMSN MSN20090626123009606/26/09 12:30:31  5-MIN KMSN 261830Z 03004KT 10SM FEW060 30/15 A2990 880 39 2800 030/04 RMK AO2
14837KMSN MSN20090626123509606/26/09 12:35:31  5-MIN KMSN 261835Z 32004KT 10SM FEW060 29/15 A2990 880 41 2800 310/04 RMK AO2
14837KMSN MSN20090626124009606/26/09 12:40:31  5-MIN KMSN 261840Z 30006KT 10SM FEW060 29/14 A2990 880 39 2700 290/06 RMK AO2
14837KMSN MSN20090626124509606/26/09 12:45:31  5-MIN KMSN 261845Z VRB04KT 10SM FEW060 29/14 A2990 880 39 2800 VRB/04 RMK AO2
14837KMSN MSN20090626125011306/26/09 12:50:31  5-MIN KMSN 261850Z 35006KT 10SM FEW060 29/14 A2990 890 38 2800 350/06 RMK AO2 SLP118 T02940139
14837KMSN MSN20090626125509606/26/09 12:55:31  5-MIN KMSN 261855Z 02005KT 10SM FEW060 30/14 A2990 890 38 2800 020/05 RMK AO2
14837KMSN MSN20090626130009606/26/09 13:00:31  5-MIN KMSN 261900Z 33005KT 10SM FEW060 29/14 A2990 890 38 2800 330/05 RMK AO2
14837KMSN MSN20090626130509606/26/09 13:05:31  5-MIN KMSN 261905Z VRB03KT 10SM FEW060 29/13 A2989 890 35 2800 VRB/03 RMK AO2
14837KMSN MSN20090626131009606/26/09 13:10:31  5-MIN KMSN 261910Z 01010KT 10SM FEW060 29/14 A2989 890 39 2800 010/10 RMK AO2
14837KMSN MSN20090626131509606/26/09 13:15:31  5-MIN KMSN 261915Z 01004KT 10SM FEW060 29/14 A2989 890 38 2800 010/04 RMK AO2
14837KMSN MSN20090626132009606/26/09 13:20:31  5-MIN KMSN 261920Z 33005KT 10SM FEW060 30/14 A2989 890 38 2800 330/05 RMK AO2
14837KMSN MSN20090626132509606/26/09 13:25:31  5-MIN KMSN 261925Z 00000KT 10SM FEW060 29/13 A2989 890 36 2800 000/00 RMK AO2
14837KMSN MSN20090626133009606/26/09 13:30:31  5-MIN KMSN 261930Z 00000KT 10SM FEW060 29/14 A2989 890 38 2800 000/00 RMK AO2
14837KMSN MSN20090626133509606/26/09 13:35:31  5-MIN KMSN 261935Z 32006KT 10SM FEW060 29/14 A2989 890 38 2800 320/06 RMK AO2
14837KMSN MSN20090626134009606/26/09 13:40:31  5-MIN KMSN 261940Z 32004KT 10SM FEW060 29/13 A2989 890 36 2800 320/04 RMK AO2
14837KMSN MSN20090626134509606/26/09 13:45:31  5-MIN KMSN 261945Z 35006KT 10SM FEW060 29/14 A2989 890 39 2800 350/06 RMK AO2
14837KMSN MSN20090626135011306/26/09 13:50:31  5-MIN KMSN 261950Z 00000KT 10SM FEW060 29/13 A2990 890 36 2800 000/00 RMK AO2 SLP117 T02940133
14837KMSN MSN20090626135509606/26/09 13:55:31  5-MIN KMSN 261955Z 32003KT 10SM FEW060 30/14 A2990 890 36 2800 320/03 RMK AO2
14837KMSN MSN20090626140009606/26/09 14:00:31  5-MIN KMSN 262000Z 00000KT 10SM FEW060 29/14 A2990 890 38 2800 000/00 RMK AO2
14837KMSN MSN20090626140509606/26/09 14:05:31  5-MIN KMSN 262005Z 34006KT 10SM FEW060 30/14 A2989 890 38 2800 340/06 RMK AO2
14837KMSN MSN20090626141009606/26/09 14:10:31  5-MIN KMSN 262010Z 31004KT 10SM FEW060 30/13 A2990 890 35 2800 310/04 RMK AO2
14837KMSN MSN20090626141509606/26/09 14:15:31  5-MIN KMSN 262015Z VRB05KT 10SM FEW060 30/15 A2990 890 39 2800 VRB/05 RMK AO2
14837KMSN MSN20090626142009606/26/09 14:20:31  5-MIN KMSN 262020Z 32005KT 10SM FEW060 30/14 A2989 890 38 2800 320/05 RMK AO2
14837KMSN MSN20090626142509606/26/09 14:25:31  5-MIN KMSN 262025Z 31003KT 10SM FEW060 29/14 A2989 890 38 2800 310/03 RMK AO2
14837KMSN MSN20090626143009606/26/09 14:30:31  5-MIN KMSN 262030Z 35003KT 10SM FEW060 30/13 A2989 890 35 2800 340/03 RMK AO2
14837KMSN MSN20090626143509606/26/09 14:35:31  5-MIN KMSN 262035Z VRB04KT 10SM FEW060 30/15 A2989 890 39 2800 VRB/04 RMK AO2
14837KMSN MSN20090626144009606/26/09 14:40:31  5-MIN KMSN 262040Z VRB03KT 10SM FEW060 30/14 A2989 890 38 2800 VRB/03 RMK AO2
14837KMSN MSN20090626144509606/26/09 14:45:31  5-MIN KMSN 262045Z 33005KT 10SM FEW060 30/15 A2989 890 39 2800 330/05 RMK AO2
14837KMSN MSN20090626145011906/26/09 14:50:31  5-MIN KMSN 262050Z 33004KT 10SM FEW060 30/15 A2989 890 39 2800 330/04 RMK AO2 SLP118 T03000150 51001
14837KMSN MSN20090626145509306/26/09 14:55:31  5-MIN KMSN 262055Z VRB05KT 10SM CLR 30/16 A2989 890 41 2800 VRB/05 RMK AO2
14837KMSN MSN20090626150009306/26/09 15:00:31  5-MIN KMSN 262100Z 27004KT 10SM CLR 30/15 A2989 890 39 2800 270/04 RMK AO2
14837KMSN MSN20090626150509306/26/09 15:05:31  5-MIN KMSN 262105Z 00000KT 10SM CLR 29/14 A2989 890 39 2800 000/00 RMK AO2
14837KMSN MSN20090626151009306/26/09 15:10:31  5-MIN KMSN 262110Z 34006KT 10SM CLR 30/15 A2989 890 39 2800 340/06 RMK AO2
14837KMSN MSN20090626151509306/26/09 15:15:31  5-MIN KMSN 262115Z VRB05KT 10SM CLR 30/16 A2989 890 42 2800 VRB/05 RMK AO2
14837KMSN MSN20090626152009306/26/09 15:20:31  5-MIN KMSN 262120Z 26003KT 10SM CLR 29/14 A2989 890 39 2800 260/03 RMK AO2
14837KMSN MSN20090626152509306/26/09 15:25:31  5-MIN KMSN 262125Z 26004KT 10SM CLR 29/15 A2989 890 41 2800 260/04 RMK AO2
14837KMSN MSN20090626153009306/26/09 15:30:31  5-MIN KMSN 262130Z 26004KT 10SM CLR 29/14 A2989 890 38 2800 260/04 RMK AO2
14837KMSN MSN20090626153509306/26/09 15:35:31  5-MIN KMSN 262135Z 28004KT 10SM CLR 29/14 A2989 890 39 2800 280/04 RMK AO2
14837KMSN MSN20090626154009306/26/09 15:40:31  5-MIN KMSN 262140Z VRB03KT 10SM CLR 29/14 A2989 890 39 2800 VRB/03 RMK AO2
14837KMSN MSN20090626154509306/26/09 15:45:31  5-MIN KMSN 262145Z 00000KT 10SM CLR 29/14 A2989 890 38 2800 000/00 RMK AO2
14837KMSN MSN20090626155011006/26/09 15:50:31  5-MIN KMSN 262150Z 00000KT 10SM CLR 29/14 A2989 890 38 2800 000/00 RMK AO2 SLP116 T02940139
14837KMSN MSN20090626155509306/26/09 15:55:31  5-MIN KMSN 262155Z 00000KT 10SM CLR 29/14 A2989 890 39 2800 000/00 RMK AO2
14837KMSN MSN20090626160009306/26/09 16:00:31  5-MIN KMSN 262200Z 32005KT 10SM CLR 30/15 A2989 900 39 2900 320/05 RMK AO2
14837KMSN MSN20090626160509606/26/09 16:05:31  5-MIN KMSN 262205Z 32004KT 10SM FEW060 29/16 A2988 900 42 2800 320/04 RMK AO2
14837KMSN MSN20090626161009606/26/09 16:10:31  5-MIN KMSN 262210Z 33003KT 10SM FEW060 29/16 A2988 900 42 2800 330/03 RMK AO2
14837KMSN MSN20090626161509606/26/09 16:15:31  5-MIN KMSN 262215Z 35003KT 10SM FEW060 29/15 A2988 900 41 2800 350/03 RMK AO2
14837KMSN MSN20090626162009606/26/09 16:20:31  5-MIN KMSN 262220Z VRB03KT 10SM FEW060 30/15 A2988 900 39 2900 VRB/03 RMK AO2
14837KMSN MSN20090626162509606/26/09 16:25:31  5-MIN KMSN 262225Z 33006KT 10SM FEW060 29/16 A2988 900 42 2800 330/06 RMK AO2
14837KMSN MSN20090626163009606/26/09 16:30:31  5-MIN KMSN 262230Z VRB03KT 10SM FEW060 29/15 A2988 900 41 2800 VRB/03 RMK AO2
14837KMSN MSN20090626163509606/26/09 16:35:31  5-MIN KMSN 262235Z 33005KT 10SM FEW060 29/16 A2988 900 42 2800 330/05 RMK AO2
14837KMSN MSN20090626164009606/26/09 16:40:31  5-MIN KMSN 262240Z 33005KT 10SM FEW060 29/16 A2988 900 44 2800 330/05 RMK AO2
14837KMSN MSN20090626164509606/26/09 16:45:31  5-MIN KMSN 262245Z 33006KT 10SM FEW060 29/16 A2988 900 42 2800 330/06 RMK AO2
14837KMSN MSN20090626165011306/26/09 16:50:31  5-MIN KMSN 262250Z VRB05KT 10SM FEW060 29/15 A2988 900 41 2800 VRB/05 RMK AO2 SLP114 T02940150
14837KMSN MSN20090626165509306/26/09 16:55:31  5-MIN KMSN 262255Z 32004KT 10SM CLR 29/16 A2988 900 44 2700 320/04 RMK AO2
14837KMSN MSN20090626170009306/26/09 17:00:31  5-MIN KMSN 262300Z 35005KT 10SM CLR 29/16 A2988 900 44 2700 350/05 RMK AO2
14837KMSN MSN20090626170509306/26/09 17:05:31  5-MIN KMSN 262305Z 35005KT 10SM CLR 29/16 A2988 900 42 2800 350/05 RMK AO2
14837KMSN MSN20090626171009306/26/09 17:10:31  5-MIN KMSN 262310Z 32005KT 10SM CLR 29/15 A2988 900 41 2800 320/05 RMK AO2
14837KMSN MSN20090626171509306/26/09 17:15:31  5-MIN KMSN 262315Z 34005KT 10SM CLR 29/15 A2988 900 42 2700 340/05 RMK AO2
14837KMSN MSN20090626172009306/26/09 17:20:31  5-MIN KMSN 262320Z 33005KT 10SM CLR 29/14 A2988 900 40 2700 330/05 RMK AO2
14837KMSN MSN20090626172509306/26/09 17:25:31  5-MIN KMSN 262325Z 33004KT 10SM CLR 29/14 A2988 900 40 2700 330/04 RMK AO2
14837KMSN MSN20090626173009306/26/09 17:30:31  5-MIN KMSN 262330Z 33004KT 10SM CLR 29/13 A2988 900 38 2700 330/04 RMK AO2
14837KMSN MSN20090626173509306/26/09 17:35:31  5-MIN KMSN 262335Z 33004KT 10SM CLR 29/14 A2988 900 39 2700 330/04 RMK AO2
14837KMSN MSN20090626174009306/26/09 17:40:31  5-MIN KMSN 262340Z 33004KT 10SM CLR 29/13 A2988 900 38 2700 330/04 RMK AO2
14837KMSN MSN20090626174509606/26/09 17:45:31  5-MIN KMSN 262345Z 34004KT 10SM FEW060 29/13 A2988 900 38 2700 340/04 RMK AO2
14837KMSN MSN20090626175013106/26/09 17:50:31  5-MIN KMSN 262350Z 34003KT 10SM FEW060 29/14 A2988 900 39 2700 340/03 RMK AO2 SLP112 T02890139 10300 20289 56003
14837KMSN MSN20090626175509306/26/09 17:55:31  5-MIN KMSN 262355Z 34003KT 10SM CLR 29/14 A2988 900 40 2700 340/03 RMK AO2
14837KMSN MSN20090626180009306/26/09 18:00:31  5-MIN KMSN 270000Z 34004KT 10SM CLR 29/15 A2988 900 42 2700 340/04 RMK AO2
14837KMSN MSN20090626180509306/26/09 18:05:31  5-MIN KMSN 270005Z 35003KT 10SM CLR 28/14 A2988 900 42 2700 350/03 RMK AO2
14837KMSN MSN20090626181009306/26/09 18:10:31  5-MIN KMSN 270010Z 35004KT 10SM CLR 28/15 A2988 900 43 2700 350/04 RMK AO2
14837KMSN MSN20090626181509306/26/09 18:15:31  5-MIN KMSN 270015Z 35003KT 10SM CLR 28/14 A2988 900 42 2700 340/03 RMK AO2
14837KMSN MSN20090626182009306/26/09 18:20:31  5-MIN KMSN 270020Z 34004KT 10SM CLR 28/15 A2988 910 45 2600 340/04 RMK AO2
14837KMSN MSN20090626182509306/26/09 18:25:31  5-MIN KMSN 270025Z 34003KT 10SM CLR 28/15 A2988 900 45 2600 340/03 RMK AO2
14837KMSN MSN20090626183009306/26/09 18:30:31  5-MIN KMSN 270030Z 33003KT 10SM CLR 27/16 A2987 910 48 2600 330/03 RMK AO2
14837KMSN MSN20090626183509306/26/09 18:35:31  5-MIN KMSN 270035Z 34003KT 10SM CLR 27/16 A2988 910 48 2600 330/03 RMK AO2
14837KMSN MSN20090626184009306/26/09 18:40:31  5-MIN KMSN 270040Z 34004KT 10SM CLR 27/16 A2988 910 48 2600 340/04 RMK AO2
14837KMSN MSN20090626184509306/26/09 18:45:31  5-MIN KMSN 270045Z 34003KT 10SM CLR 27/15 A2988 900 46 2600 340/03 RMK AO2
14837KMSN MSN20090626185011006/26/09 18:50:31  5-MIN KMSN 270050Z 34003KT 10SM CLR 27/14 A2988 900 45 2600 340/03 RMK AO2 SLP111 T02720144
14837KMSN MSN20090626185509306/26/09 18:55:31  5-MIN KMSN 270055Z 35003KT 10SM CLR 27/14 A2988 910 46 2500 350/03 RMK AO2
14837KMSN MSN20090626190009306/26/09 19:00:31  5-MIN KMSN 270100Z 35003KT 10SM CLR 26/14 A2988 900 48 2400 350/03 RMK AO2
14837KMSN MSN20090626190509306/26/09 19:05:31  5-MIN KMSN 270105Z 00000KT 10SM CLR 25/15 A2988 900 53 2300 000/00 RMK AO2
14837KMSN MSN20090626191009306/26/09 19:10:31  5-MIN KMSN 270110Z 00000KT 10SM CLR 26/14 A2988 900 46 2400 000/00 RMK AO2
14837KMSN MSN20090626191509306/26/09 19:15:31  5-MIN KMSN 270115Z 00000KT 10SM CLR 26/14 A2988 900 49 2400 000/00 RMK AO2
14837KMSN MSN20090626192009306/26/09 19:20:31  5-MIN KMSN 270120Z 00000KT 10SM CLR 24/15 A2988 910 55 2200 000/00 RMK AO2
14837KMSN MSN20090626192509306/26/09 19:25:31  5-MIN KMSN 270125Z 00000KT 10SM CLR 23/15 A2988 910 59 2100 000/00 RMK AO2
14837KMSN MSN20090626193009306/26/09 19:30:31  5-MIN KMSN 270130Z 00000KT 10SM CLR 23/15 A2987 910 59 2100 000/00 RMK AO2
14837KMSN MSN20090626193509306/26/09 19:35:31  5-MIN KMSN 270135Z 00000KT 10SM CLR 23/16 A2987 910 61 2100 000/00 RMK AO2
14837KMSN MSN20090626194009306/26/09 19:40:31  5-MIN KMSN 270140Z 00000KT 10SM CLR 23/15 A2987 910 59 2100 000/00 RMK AO2
14837KMSN MSN20090626194509306/26/09 19:45:31  5-MIN KMSN 270145Z 00000KT 10SM CLR 23/16 A2987 910 61 2100 000/00 RMK AO2
14837KMSN MSN20090626195011006/26/09 19:50:31  5-MIN KMSN 270150Z 00000KT 10SM CLR 23/16 A2987 910 63 2100 000/00 RMK AO2 SLP108 T02280156
14837KMSN MSN20090626195509306/26/09 19:55:31  5-MIN KMSN 270155Z 00000KT 10SM CLR 22/16 A2987 910 65 2000 000/00 RMK AO2
14837KMSN MSN20090626200009306/26/09 20:00:31  5-MIN KMSN 270200Z 00000KT 10SM CLR 22/15 A2987 910 63 2000 000/00 RMK AO2
14837KMSN MSN20090626200509306/26/09 20:05:31  5-MIN KMSN 270205Z 00000KT 10SM CLR 22/15 A2987 910 63 2000 000/00 RMK AO2
14837KMSN MSN20090626201009306/26/09 20:10:31  5-MIN KMSN 270210Z 00000KT 10SM CLR 22/15 A2987 910 65 1900 000/00 RMK AO2
14837KMSN MSN20090626201509306/26/09 20:15:31  5-MIN KMSN 270215Z 00000KT 10SM CLR 22/14 A2987 910 61 2000 000/00 RMK AO2
14837KMSN MSN20090626202009306/26/09 20:20:31  5-MIN KMSN 270220Z 00000KT 10SM CLR 22/14 A2987 910 63 1900 000/00 RMK AO2
14837KMSN MSN20090626202509306/26/09 20:25:31  5-MIN KMSN 270225Z 11009KT 10SM CLR 21/16 A2988 900 70 1900 110/09 RMK AO2
14837KMSN MSN20090626203009306/26/09 20:30:31  5-MIN KMSN 270230Z 12007KT 10SM CLR 23/16 A2988 910 65 2100 120/07 RMK AO2
14837KMSN MSN20090626203509306/26/09 20:35:31  5-MIN KMSN 270235Z 12008KT 10SM CLR 23/16 A2988 900 65 2100 120/08 RMK AO2
14837KMSN MSN20090626204009306/26/09 20:40:31  5-MIN KMSN 270240Z 12007KT 10SM CLR 23/16 A2988 900 65 2100 120/07 RMK AO2
14837KMSN MSN20090626204509306/26/09 20:45:31  5-MIN KMSN 270245Z 13006KT 10SM CLR 23/16 A2988 900 65 2000 120/06 RMK AO2
14837KMSN MSN20090626205011606/26/09 20:50:31  5-MIN KMSN 270250Z 13007KT 10SM CLR 23/16 A2988 900 65 2000 130/07 RMK AO2 SLP113 T02280161 56005
14837KMSN MSN20090626205509306/26/09 20:55:31  5-MIN KMSN 270255Z 14008KT 10SM CLR 23/16 A2988 900 61 2100 140/08 RMK AO2
14837KMSN MSN20090626210009306/26/09 21:00:31  5-MIN KMSN 270300Z 14007KT 10SM CLR 23/16 A2988 900 61 2100 140/07 RMK AO2
14837KMSN MSN20090626210509306/26/09 21:05:31  5-MIN KMSN 270305Z 15009KT 10SM CLR 23/16 A2988 900 61 2100 150/09 RMK AO2
14837KMSN MSN20090626211009306/26/09 21:10:31  5-MIN KMSN 270310Z 15008KT 10SM CLR 23/16 A2988 900 61 2100 140/08 RMK AO2
14837KMSN MSN20090626211509306/26/09 21:15:31  5-MIN KMSN 270315Z 14009KT 10SM CLR 23/16 A2988 900 63 2000 140/09 RMK AO2
14837KMSN MSN20090626212009306/26/09 21:20:31  5-MIN KMSN 270320Z 14007KT 10SM CLR 23/16 A2988 900 63 2000 140/07 RMK AO2
14837KMSN MSN20090626212509306/26/09 21:25:31  5-MIN KMSN 270325Z 14007KT 10SM CLR 22/16 A2989 900 65 2000 140/07 RMK AO2
14837KMSN MSN20090626213009306/26/09 21:30:31  5-MIN KMSN 270330Z 14007KT 10SM CLR 22/16 A2989 900 65 2000 140/07 RMK AO2
14837KMSN MSN20090626213509306/26/09 21:35:31  5-MIN KMSN 270335Z 14007KT 10SM CLR 22/16 A2989 890 65 2000 140/07 RMK AO2
14837KMSN MSN20090626214009306/26/09 21:40:31  5-MIN KMSN 270340Z 14006KT 10SM CLR 22/16 A2989 890 65 2000 140/06 RMK AO2
14837KMSN MSN20090626214509306/26/09 21:45:31  5-MIN KMSN 270345Z 15007KT 10SM CLR 22/15 A2989 890 63 2000 140/07 RMK AO2
14837KMSN MSN20090626215011006/26/09 21:50:31  5-MIN KMSN 270350Z 14007KT 10SM CLR 22/15 A2989 900 63 2000 140/07 RMK AO2 SLP114 T02220150
14837KMSN MSN20090626215509306/26/09 21:55:31  5-MIN KMSN 270355Z 14008KT 10SM CLR 22/14 A2989 900 63 1900 140/08 RMK AO2
14837KMSN MSN20090626220009306/26/09 22:00:31  5-MIN KMSN 270400Z 13009KT 10SM CLR 22/14 A2989 890 63 1900 130/09 RMK AO2
14837KMSN MSN20090626220509306/26/09 22:05:31  5-MIN KMSN 270405Z 13008KT 10SM CLR 22/14 A2989 890 63 1900 130/08 RMK AO2
14837KMSN MSN20090626221009306/26/09 22:10:31  5-MIN KMSN 270410Z 13008KT 10SM CLR 22/14 A2989 900 63 1900 130/08 RMK AO2
14837KMSN MSN20090626221509306/26/09 22:15:31  5-MIN KMSN 270415Z 14007KT 10SM CLR 21/14 A2989 900 65 1900 140/07 RMK AO2
14837KMSN MSN20090626222009306/26/09 22:20:31  5-MIN KMSN 270420Z 14006KT 10SM CLR 21/14 A2988 900 63 1900 140/06 RMK AO2
14837KMSN MSN20090626222509306/26/09 22:25:31  5-MIN KMSN 270425Z 15008KT 10SM CLR 21/14 A2988 900 63 1900 150/08 RMK AO2
14837KMSN MSN20090626223009306/26/09 22:30:31  5-MIN KMSN 270430Z 15006KT 10SM CLR 22/14 A2988 900 61 1900 150/06 RMK AO2
14837KMSN MSN20090626223509306/26/09 22:35:31  5-MIN KMSN 270435Z 15005KT 10SM CLR 22/14 A2989 890 61 1900 150/05 RMK AO2
14837KMSN MSN20090626224009306/26/09 22:40:31  5-MIN KMSN 270440Z 14005KT 10SM CLR 22/14 A2989 890 61 1900 140/05 RMK AO2
14837KMSN MSN20090626224509306/26/09 22:45:31  5-MIN KMSN 270445Z 15006KT 10SM CLR 21/14 A2989 890 63 1800 150/06 RMK AO2
14837KMSN MSN20090626225011006/26/09 22:50:31  5-MIN KMSN 270450Z 16006KT 10SM CLR 22/14 A2990 880 61 1900 150/06 RMK AO2 SLP118 T02170139
14837KMSN MSN20090626225509306/26/09 22:55:31  5-MIN KMSN 270455Z 15005KT 10SM CLR 21/14 A2990 890 63 1800 150/05 RMK AO2
14837KMSN MSN20090626230009306/26/09 23:00:31  5-MIN KMSN 270500Z 14006KT 10SM CLR 21/14 A2989 890 63 1800 140/06 RMK AO2
14837KMSN MSN20090626230509306/26/09 23:05:31  5-MIN KMSN 270505Z 14004KT 10SM CLR 21/14 A2990 890 65 1800 140/04 RMK AO2
14837KMSN MSN20090626231009306/26/09 23:10:31  5-MIN KMSN 270510Z 15004KT 10SM CLR 21/14 A2989 890 65 1800 150/04 RMK AO2
14837KMSN MSN20090626231509306/26/09 23:15:31  5-MIN KMSN 270515Z 15005KT 10SM CLR 21/14 A2990 890 67 1800 150/05 RMK AO2
14837KMSN MSN20090626232009306/26/09 23:20:31  5-MIN KMSN 270520Z 16004KT 10SM CLR 21/14 A2990 880 67 1800 160/04 RMK AO2
14837KMSN MSN20090626232509306/26/09 23:25:31  5-MIN KMSN 270525Z 16004KT 10SM CLR 21/14 A2990 880 67 1800 160/04 RMK AO2
14837KMSN MSN20090626233009306/26/09 23:30:31  5-MIN KMSN 270530Z 14004KT 10SM CLR 21/14 A2991 880 67 1800 140/04 RMK AO2
14837KMSN MSN20090626233509306/26/09 23:35:31  5-MIN KMSN 270535Z 00000KT 10SM CLR 20/14 A2991 870 70 1700 000/00 RMK AO2
14837KMSN MSN20090626234009306/26/09 23:40:31  5-MIN KMSN 270540Z 17004KT 10SM CLR 21/14 A2991 870 67 1800 170/04 RMK AO2
14837KMSN MSN20090626234509306/26/09 23:45:31  5-MIN KMSN 270545Z 19004KT 10SM CLR 21/14 A2992 870 65 1800 190/04 RMK AO2
14837KMSN MSN20090626235013806/26/09 23:50:31  5-MIN KMSN 270550Z 19004KT 10SM CLR 21/14 A2992 870 67 1800 190/04 RMK AO2 SLP125 T02060144 10289 20200 403000167 53001
14837KMSN MSN20090626235509306/26/09 23:55:31  5-MIN KMSN 270555Z 19004KT 10SM CLR 21/14 A2992 870 67 1800 190/04 RMK AO2
14837KMSN MSN20090627000009306/27/09 00:00:32  5-MIN KMSN 270600Z 18004KT 10SM CLR 21/14 A2992 860 67 1700 180/04 RMK AO2
14837KMSN MSN20090627000509306/27/09 00:05:31  5-MIN KMSN 270605Z 16003KT 10SM CLR 21/14 A2992 860 67 1700 160/03 RMK AO2
14837KMSN MSN20090627001009306/27/09 00:10:31  5-MIN KMSN 270610Z 00000KT 10SM CLR 21/14 A2993 860 67 1700 000/00 RMK AO2
14837KMSN MSN20090627001509306/27/09 00:15:31  5-MIN KMSN 270615Z 17004KT 10SM CLR 21/14 A2993 860 67 1700 170/04 RMK AO2
14837KMSN MSN20090627002009306/27/09 00:20:31  5-MIN KMSN 270620Z 16006KT 10SM CLR 21/14 A2992 870 67 1800 160/06 RMK AO2
14837KMSN MSN20090627002509306/27/09 00:25:31  5-MIN KMSN 270625Z 17004KT 10SM CLR 21/14 A2992 860 67 1700 160/04 RMK AO2
14837KMSN MSN20090627003009306/27/09 00:30:31  5-MIN KMSN 270630Z 15004KT 10SM CLR 20/14 A2992 870 70 1700 150/04 RMK AO2
14837KMSN MSN20090627003509306/27/09 00:35:31  5-MIN KMSN 270635Z 13005KT 10SM CLR 20/14 A2991 870 70 1700 130/05 RMK AO2
14837KMSN MSN20090627004009306/27/09 00:40:31  5-MIN KMSN 270640Z 11004KT 10SM CLR 19/14 A2992 870 75 1600 110/04 RMK AO2
14837KMSN MSN20090627004509306/27/09 00:45:31  5-MIN KMSN 270645Z 12005KT 10SM CLR 19/14 A2992 870 75 1600 120/05 RMK AO2
14837KMSN MSN20090627005011006/27/09 00:50:31  5-MIN KMSN 270650Z 12004KT 10SM CLR 18/14 A2992 870 81 1400 120/04 RMK AO2 SLP125 T01780144
14837KMSN MSN20090627005509306/27/09 00:55:31  5-MIN KMSN 270655Z 12003KT 10SM CLR 18/14 A2991 870 78 1500 120/03 RMK AO2
14837KMSN MSN20090627010009306/27/09 01:00:31  5-MIN KMSN 270700Z 13004KT 10SM CLR 19/14 A2991 870 75 1600 130/04 RMK AO2
14837KMSN MSN20090627010509306/27/09 01:05:31  5-MIN KMSN 270705Z 12005KT 10SM CLR 19/14 A2991 870 70 1600 120/05 RMK AO2
14837KMSN MSN20090627011009306/27/09 01:10:31  5-MIN KMSN 270710Z 09004KT 10SM CLR 19/14 A2991 870 75 1600 090/04 RMK AO2
14837KMSN MSN20090627011509306/27/09 01:15:31  5-MIN KMSN 270715Z 09004KT 10SM CLR 18/14 A2991 870 78 1500 090/04 RMK AO2
14837KMSN MSN20090627012009306/27/09 01:20:31  5-MIN KMSN 270720Z 10003KT 10SM CLR 18/14 A2992 870 81 1400 100/03 RMK AO2
14837KMSN MSN20090629002509406/29/09 00:25:31  5-MIN KMSN 290625Z 27006KT 10SM CLR 19/10 A2963 1130 56 1900 270/06 RMK AO2
14837KMSN MSN20090629003009406/29/09 00:30:31  5-MIN KMSN 290630Z VRB04KT 10SM CLR 19/10 A2963 1130 56 1900 VRB/04 RMK AO2
14837KMSN MSN20090629003509406/29/09 00:35:31  5-MIN KMSN 290635Z 27005KT 10SM CLR 19/10 A2963 1130 56 1900 270/05 RMK AO2
14837KMSN MSN20090629004009406/29/09 00:40:31  5-MIN KMSN 290640Z VRB05KT 10SM CLR 19/10 A2963 1130 56 1900 VRB/05 RMK AO2
14837KMSN MSN20090629004509406/29/09 00:45:31  5-MIN KMSN 290645Z VRB05KT 10SM CLR 19/10 A2963 1130 56 1900 VRB/05 RMK AO2
14837KMSN MSN20090629005011106/29/09 00:50:31  5-MIN KMSN 290650Z 29005KT 10SM CLR 19/10 A2963 1130 56 1900 290/05 RMK AO2 SLP029 T01890100
14837KMSN MSN20090629005509406/29/09 00:55:31  5-MIN KMSN 290655Z 28005KT 10SM CLR 19/10 A2963 1140 56 1900 280/05 RMK AO2
14837KMSN MSN20090629010011006/29/09 01:00:31  5-MIN KMSN 290700Z 27007KT 240V300 10SM CLR 19/10 A2963 1140 56 1900 270/07 240V300 RMK AO2
14837KMSN MSN20090629010509406/29/09 01:05:31  5-MIN KMSN 290705Z 28005KT 10SM CLR 19/10 A2963 1140 56 1900 280/05 RMK AO2
14837KMSN MSN20090629011009406/29/09 01:10:31  5-MIN KMSN 290710Z VRB05KT 10SM CLR 19/10 A2962 1140 56 1900 VRB/05 RMK AO2
14837KMSN MSN20090629011509406/29/09 01:15:31  5-MIN KMSN 290715Z 26004KT 10SM CLR 19/10 A2962 1140 56 1900 260/04 RMK AO2
14837KMSN MSN20090629012009406/29/09 01:20:31  5-MIN KMSN 290720Z 27007KT 10SM CLR 18/10 A2962 1140 58 1800 260/07 RMK AO2
14837KMSN MSN20090629012509406/29/09 01:25:31  5-MIN KMSN 290725Z VRB05KT 10SM CLR 18/10 A2962 1150 58 1800 VRB/05 RMK AO2
14837KMSN MSN20090629013009406/29/09 01:30:31  5-MIN KMSN 290730Z 27007KT 10SM CLR 18/10 A2962 1150 58 1800 270/07 RMK AO2
14837KMSN MSN20090629013509406/29/09 01:35:31  5-MIN KMSN 290735Z 27007KT 10SM CLR 18/10 A2961 1150 58 1800 270/07 RMK AO2
14837KMSN MSN20090629014009406/29/09 01:40:31  5-MIN KMSN 290740Z VRB04KT 10SM CLR 18/10 A2961 1150 58 1800 VRB/04 RMK AO2
14837KMSN MSN20090629014509406/29/09 01:45:31  5-MIN KMSN 290745Z 27006KT 10SM CLR 18/10 A2961 1150 58 1800 270/06 RMK AO2
14837KMSN MSN20090629015011106/29/09 01:50:31  5-MIN KMSN 290750Z 27005KT 10SM CLR 18/10 A2961 1150 58 1800 270/05 RMK AO2 SLP023 T01830100
14837KMSN MSN20090629015509406/29/09 01:55:31  5-MIN KMSN 290755Z VRB04KT 10SM CLR 18/10 A2961 1150 58 1800 VRB/04 RMK AO2
14837KMSN MSN20090629020009406/29/09 02:00:31  5-MIN KMSN 290800Z VRB03KT 10SM CLR 18/10 A2961 1150 58 1800 VRB/03 RMK AO2
14837KMSN MSN20090629020509406/29/09 02:05:31  5-MIN KMSN 290805Z 28006KT 10SM CLR 18/10 A2961 1150 58 1800 280/06 RMK AO2
14837KMSN MSN20090629021009406/29/09 02:10:31  5-MIN KMSN 290810Z VRB05KT 10SM CLR 18/10 A2961 1150 58 1800 VRB/05 RMK AO2
14837KMSN MSN20090629021509406/29/09 02:15:31  5-MIN KMSN 290815Z 27004KT 10SM CLR 18/10 A2961 1150 58 1800 270/04 RMK AO2
14837KMSN MSN20090629022009406/29/09 02:20:31  5-MIN KMSN 290820Z VRB05KT 10SM CLR 18/10 A2961 1150 60 1800 VRB/05 RMK AO2
14837KMSN MSN20090629022509406/29/09 02:25:31  5-MIN KMSN 290825Z VRB05KT 10SM CLR 18/10 A2961 1150 60 1800 VRB/05 RMK AO2
14837KMSN MSN20090629023009406/29/09 02:30:31  5-MIN KMSN 290830Z 27005KT 10SM CLR 18/10 A2961 1160 60 1800 270/05 RMK AO2
14837KMSN MSN20090629023509406/29/09 02:35:31  5-MIN KMSN 290835Z 28006KT 10SM CLR 18/10 A2961 1160 60 1800 280/06 RMK AO2
14837KMSN MSN20090629024009406/29/09 02:40:31  5-MIN KMSN 290840Z 27005KT 10SM CLR 18/10 A2961 1160 60 1800 270/05 RMK AO2
14837KMSN MSN20090629024509406/29/09 02:45:31  5-MIN KMSN 290845Z 27005KT 10SM CLR 18/10 A2960 1160 60 1800 270/05 RMK AO2
14837KMSN MSN20090629025011706/29/09 02:50:31  5-MIN KMSN 290850Z 27006KT 10SM CLR 18/10 A2960 1160 60 1800 270/06 RMK AO2 SLP020 T01780100 58015
14837KMSN MSN20090629025509406/29/09 02:55:31  5-MIN KMSN 290855Z VRB05KT 10SM CLR 18/10 A2960 1160 60 1800 VRB/05 RMK AO2
14837KMSN MSN20090629030009406/29/09 03:00:31  5-MIN KMSN 290900Z VRB04KT 10SM CLR 18/10 A2960 1160 60 1800 VRB/04 RMK AO2
14837KMSN MSN20090629030509406/29/09 03:05:31  5-MIN KMSN 290905Z 28005KT 10SM CLR 18/10 A2960 1160 60 1800 280/05 RMK AO2
14837KMSN MSN20090629031009406/29/09 03:10:31  5-MIN KMSN 290910Z VRB03KT 10SM CLR 18/10 A2960 1160 60 1800 VRB/03 RMK AO2
14837KMSN MSN20090629031509406/29/09 03:15:31  5-MIN KMSN 290915Z VRB04KT 10SM CLR 18/10 A2960 1160 60 1800 VRB/04 RMK AO2
14837KMSN MSN20090629032009406/29/09 03:20:31  5-MIN KMSN 290920Z 27006KT 10SM CLR 18/10 A2960 1160 60 1800 270/06 RMK AO2
14837KMSN MSN20090629032509406/29/09 03:25:31  5-MIN KMSN 290925Z 27004KT 10SM CLR 18/10 A2960 1160 60 1800 270/04 RMK AO2
14837KMSN MSN20090629033009406/29/09 03:30:31  5-MIN KMSN 290930Z VRB04KT 10SM CLR 18/10 A2960 1160 60 1800 VRB/04 RMK AO2
14837KMSN MSN20090629033509406/29/09 03:35:31  5-MIN KMSN 290935Z VRB03KT 10SM CLR 18/10 A2960 1160 60 1800 VRB/03 RMK AO2
14837KMSN MSN20090629034009406/29/09 03:40:31  5-MIN KMSN 290940Z 27005KT 10SM CLR 17/10 A2960 1160 62 1700 270/05 RMK AO2
14837KMSN MSN20090629034509406/29/09 03:45:31  5-MIN KMSN 290945Z 27005KT 10SM CLR 17/10 A2960 1160 62 1700 270/05 RMK AO2
14837KMSN MSN20090629035011106/29/09 03:50:31  5-MIN KMSN 290950Z 28004KT 10SM CLR 17/10 A2960 1160 62 1700 280/04 RMK AO2 SLP020 T01720100
14837KMSN MSN20090629035509406/29/09 03:55:31  5-MIN KMSN 290955Z 28004KT 10SM CLR 17/10 A2960 1160 62 1700 270/04 RMK AO2
14837KMSN MSN20090629040009406/29/09 04:00:31  5-MIN KMSN 291000Z 27006KT 10SM CLR 17/10 A2960 1160 62 1700 270/06 RMK AO2
14837KMSN MSN20090629040509406/29/09 04:05:31  5-MIN KMSN 291005Z 27005KT 10SM CLR 17/10 A2960 1160 62 1700 270/05 RMK AO2
14837KMSN MSN20090629041009406/29/09 04:10:31  5-MIN KMSN 291010Z VRB05KT 10SM CLR 17/10 A2960 1160 62 1700 VRB/05 RMK AO2
14837KMSN MSN20090629041509406/29/09 04:15:31  5-MIN KMSN 291015Z VRB04KT 10SM CLR 17/10 A2960 1160 62 1700 VRB/04 RMK AO2
14837KMSN MSN20090629042009406/29/09 04:20:31  5-MIN KMSN 291020Z 28006KT 10SM CLR 17/10 A2960 1160 62 1700 280/06 RMK AO2
14837KMSN MSN20090629042509406/29/09 04:25:31  5-MIN KMSN 291025Z VRB05KT 10SM CLR 17/10 A2960 1160 62 1700 VRB/05 RMK AO2
14837KMSN MSN20090629043009406/29/09 04:30:31  5-MIN KMSN 291030Z VRB04KT 10SM CLR 17/10 A2960 1160 62 1700 VRB/04 RMK AO2
14837KMSN MSN20090629043509406/29/09 04:35:31  5-MIN KMSN 291035Z VRB03KT 10SM CLR 17/10 A2960 1160 62 1700 VRB/03 RMK AO2
14837KMSN MSN20090629044009406/29/09 04:40:31  5-MIN KMSN 291040Z VRB03KT 10SM CLR 17/10 A2960 1160 62 1700 VRB/03 RMK AO2
14837KMSN MSN20090629044509406/29/09 04:45:31  5-MIN KMSN 291045Z 27005KT 10SM CLR 17/10 A2960 1160 64 1700 270/05 RMK AO2
14837KMSN MSN20090629045011106/29/09 04:50:31  5-MIN KMSN 291050Z VRB03KT 10SM CLR 17/10 A2960 1160 62 1700 VRB/03 RMK AO2 SLP019 T01720100
14837KMSN MSN20090629045509406/29/09 04:55:31  5-MIN KMSN 291055Z VRB05KT 10SM CLR 17/10 A2960 1160 62 1700 VRB/05 RMK AO2
14837KMSN MSN20090629050009406/29/09 05:00:31  5-MIN KMSN 291100Z 27005KT 10SM CLR 17/11 A2960 1160 64 1700 270/05 RMK AO2
14837KMSN MSN20090629050509406/29/09 05:05:31  5-MIN KMSN 291105Z VRB04KT 10SM CLR 17/11 A2960 1160 64 1700 VRB/04 RMK AO2
14837KMSN MSN20090629051009406/29/09 05:10:31  5-MIN KMSN 291110Z VRB05KT 10SM CLR 17/11 A2960 1160 64 1700 VRB/05 RMK AO2
14837KMSN MSN20090629051509406/29/09 05:15:31  5-MIN KMSN 291115Z VRB05KT 10SM CLR 17/11 A2960 1160 64 1700 VRB/05 RMK AO2
14837KMSN MSN20090629052009406/29/09 05:20:31  5-MIN KMSN 291120Z VRB04KT 10SM CLR 17/11 A2960 1160 64 1700 VRB/04 RMK AO2
14837KMSN MSN20090629052509406/29/09 05:25:31  5-MIN KMSN 291125Z 27005KT 10SM CLR 17/11 A2960 1160 64 1700 260/05 RMK AO2
14837KMSN MSN20090629053009406/29/09 05:30:31  5-MIN KMSN 291130Z 26005KT 10SM CLR 17/11 A2960 1170 64 1700 260/05 RMK AO2
14837KMSN MSN20090629053509406/29/09 05:35:31  5-MIN KMSN 291135Z VRB05KT 10SM CLR 17/11 A2960 1160 64 1700 VRB/05 RMK AO2
14837KMSN MSN20090629054009406/29/09 05:40:31  5-MIN KMSN 291140Z VRB05KT 10SM CLR 18/11 A2960 1160 62 1800 VRB/05 RMK AO2
14837KMSN MSN20090629054509406/29/09 05:45:31  5-MIN KMSN 291145Z VRB06KT 10SM CLR 18/11 A2960 1170 62 1800 VRB/06 RMK AO2
14837KMSN MSN20090629055013506/29/09 05:50:31  5-MIN KMSN 291150Z VRB05G16KT 10SM CLR 18/11 A2959 1170 62 1800 VRB/05G16 RMK AO2 SLP017 T01780106 10189 20167 57011
14837KMSN MSN20090629055510006/29/09 05:55:31  5-MIN KMSN 291155Z 28005G16KT 10SM CLR 18/11 A2959 1170 62 1800 280/05G16 RMK AO2
14837KMSN MSN20090629060010006/29/09 06:00:31  5-MIN KMSN 291200Z 29005G15KT 10SM CLR 18/11 A2959 1170 64 1800 290/05G15 RMK AO2
14837KMSN MSN20090629060510006/29/09 06:05:31  5-MIN KMSN 291205Z 28009G15KT 10SM CLR 18/11 A2960 1170 62 1900 270/09G15 RMK AO2
14837KMSN MSN20090629061010006/29/09 06:10:31  5-MIN KMSN 291210Z VRB04G15KT 10SM CLR 18/11 A2960 1160 62 1900 VRB/04G15 RMK AO2
14837KMSN MSN20090629061509406/29/09 06:15:31  5-MIN KMSN 291215Z 29008KT 10SM CLR 18/11 A2960 1160 62 1900 290/08 RMK AO2
14837KMSN MSN20090629062009406/29/09 06:20:31  5-MIN KMSN 291220Z 28008KT 10SM CLR 18/11 A2960 1170 62 1900 280/08 RMK AO2
14837KMSN MSN20090629062510006/29/09 06:25:31  5-MIN KMSN 291225Z 29008G16KT 10SM CLR 18/11 A2959 1170 62 1900 290/08G16 RMK AO2
14837KMSN MSN20090629063010006/29/09 06:30:31  5-MIN KMSN 291230Z 28011G19KT 10SM CLR 19/11 A2959 1170 60 1900 280/11G19 RMK AO2
14837KMSN MSN20090629063510006/29/09 06:35:31  5-MIN KMSN 291235Z 29008G19KT 10SM CLR 19/11 A2959 1170 60 1900 290/08G19 RMK AO2
14837KMSN MSN20090629064010006/29/09 06:40:31  5-MIN KMSN 291240Z 29010G16KT 10SM CLR 19/12 A2959 1170 62 1900 290/10G16 RMK AO2
14837KMSN MSN20090629064509406/29/09 06:45:31  5-MIN KMSN 291245Z 28006KT 10SM CLR 19/11 A2959 1170 60 1900 280/06 RMK AO2
14837KMSN MSN20090629065011706/29/09 06:50:31  5-MIN KMSN 291250Z 28011G16KT 10SM CLR 19/12 A2959 1170 62 1900 280/11G16 RMK AO2 SLP014 T01890117
14837KMSN MSN20090629065510006/29/09 06:55:31  5-MIN KMSN 291255Z 29008G16KT 10SM CLR 19/12 A2959 1170 62 1900 290/08G16 RMK AO2
14837KMSN MSN20090629070010006/29/09 07:00:31  5-MIN KMSN 291300Z 29008G15KT 10SM CLR 19/12 A2959 1170 60 2000 290/08G15 RMK AO2
14837KMSN MSN20090629070510006/29/09 07:05:31  5-MIN KMSN 291305Z 30011G17KT 10SM CLR 19/12 A2959 1170 60 2000 290/11G17 RMK AO2
14837KMSN MSN20090629071010006/29/09 07:10:31  5-MIN KMSN 291310Z 29012G18KT 10SM CLR 19/12 A2959 1170 60 2000 290/12G18 RMK AO2
14837KMSN MSN20090629071510006/29/09 07:15:31  5-MIN KMSN 291315Z 29012G19KT 10SM CLR 19/12 A2959 1170 60 2000 290/12G19 RMK AO2
14837KMSN MSN20090629072011606/29/09 07:20:31  5-MIN KMSN 291320Z 29008G19KT 250V310 10SM CLR 19/12 A2959 1170 60 2000 290/08G19 250V310 RMK AO2
14837KMSN MSN20090629072510006/29/09 07:25:31  5-MIN KMSN 291325Z 28010G16KT 10SM CLR 19/12 A2959 1170 60 2000 280/10G16 RMK AO2
14837KMSN MSN20090629073011906/29/09 07:30:31  5-MIN KMSN 291330Z 30011G16KT 260V330 10SM FEW035 19/12 A2959 1170 60 2000 300/11G16 260V330 RMK AO2
14837KMSN MSN20090629073510306/29/09 07:35:31  5-MIN KMSN 291335Z 29011G19KT 10SM FEW035 20/12 A2959 1170 58 2100 290/11G19 RMK AO2
14837KMSN MSN20090629074010306/29/09 07:40:31  5-MIN KMSN 291340Z 30014G22KT 10SM FEW035 20/12 A2959 1170 58 2100 300/14G22 RMK AO2
14837KMSN MSN20090629074510306/29/09 07:45:31  5-MIN KMSN 291345Z 32013G22KT 10SM FEW035 20/12 A2959 1170 58 2100 310/13G22 RMK AO2
14837KMSN MSN20090629075012006/29/09 07:50:31  5-MIN KMSN 291350Z 31012G19KT 10SM FEW035 20/12 A2959 1170 60 2100 310/12G19 RMK AO2 SLP016 T02000122
14837KMSN MSN20090629075511906/29/09 07:55:31  5-MIN KMSN 291355Z 31012G19KT 270V350 10SM SCT030 20/12 A2960 1170 60 2100 310/12G19 270V350 RMK AO2
14837KMSN MSN20090629080010306/29/09 08:00:31  5-MIN KMSN 291400Z 31013G20KT 10SM SCT030 20/12 A2960 1170 60 2100 310/13G20 RMK AO2
14837KMSN MSN20090629080510306/29/09 08:05:31  5-MIN KMSN 291405Z 30010G20KT 10SM BKN035 20/12 A2960 1170 60 2100 300/10G20 RMK AO2
14837KMSN MSN20090629081010306/29/09 08:10:31  5-MIN KMSN 291410Z 31014G19KT 10SM BKN035 20/12 A2960 1160 60 2100 310/14G19 RMK AO2
14837KMSN MSN20090629081510306/29/09 08:15:31  5-MIN KMSN 291415Z 32012G19KT 10SM BKN035 20/12 A2960 1170 60 2100 320/12G19 RMK AO2
14837KMSN MSN20090629082010306/29/09 08:20:31  5-MIN KMSN 291420Z 31011G18KT 10SM BKN035 20/12 A2960 1160 60 2100 310/11G18 RMK AO2
14837KMSN MSN20090629082510306/29/09 08:25:31  5-MIN KMSN 291425Z 30009G18KT 10SM BKN035 20/12 A2960 1160 60 2100 300/09G18 RMK AO2
14837KMSN MSN20090629083010306/29/09 08:30:31  5-MIN KMSN 291430Z 31013G19KT 10SM BKN037 20/12 A2960 1160 60 2100 310/13G19 RMK AO2
14837KMSN MSN20090629083510306/29/09 08:35:31  5-MIN KMSN 291435Z 31009G19KT 10SM BKN037 20/12 A2959 1170 60 2100 310/09G19 RMK AO2
14837KMSN MSN20090629084010306/29/09 08:40:31  5-MIN KMSN 291440Z 32014G22KT 10SM BKN037 21/13 A2960 1170 60 2100 310/14G22 RMK AO2
14837KMSN MSN20090629084510306/29/09 08:45:31  5-MIN KMSN 291445Z 31011G22KT 10SM BKN039 21/12 A2960 1160 56 2200 310/11G22 RMK AO2
14837KMSN MSN20090629085012606/29/09 08:50:31  5-MIN KMSN 291450Z 31012G20KT 10SM BKN039 21/12 A2960 1160 58 2100 310/12G20 RMK AO2 SLP018 T02060122 58003
14837KMSN MSN20090629085512606/29/09 08:55:31  5-MIN KMSN 291455Z 30009G20KT 260V340 10SM SCT037 BKN046 21/13 A2960 1160 58 2200 300/09G20 260V340 RMK AO2
14837KMSN MSN20090629090012606/29/09 09:00:31  5-MIN KMSN 291500Z 30010G18KT 280V340 10SM BKN037 BKN046 21/12 A2960 1160 58 2100 300/10G18 280V340 RMK AO2
14837KMSN MSN20090629090511006/29/09 09:05:31  5-MIN KMSN 291505Z 30010G18KT 10SM SCT037 BKN046 21/12 A2960 1160 58 2100 300/10G18 RMK AO2
14837KMSN MSN20090629091011006/29/09 09:10:31  5-MIN KMSN 291510Z 30011G18KT 10SM SCT037 BKN046 20/12 A2960 1160 60 2100 300/11G18 RMK AO2
14837KMSN MSN20090629091512606/29/09 09:15:31  5-MIN KMSN 291515Z 30009G16KT 270V340 10SM SCT037 BKN046 21/12 A2960 1160 58 2100 300/09G16 270V340 RMK AO2
14837KMSN MSN20090629092011006/29/09 09:20:31  5-MIN KMSN 291520Z 30008G17KT 10SM SCT037 BKN046 21/12 A2960 1160 58 2100 300/08G17 RMK AO2
14837KMSN MSN20090629092511006/29/09 09:25:31  5-MIN KMSN 291525Z 33007G17KT 10SM SCT039 BKN046 22/13 A2960 1160 58 2200 330/07G17 RMK AO2
14837KMSN MSN20090629093011006/29/09 09:30:31  5-MIN KMSN 291530Z 32010G19KT 10SM BKN042 OVC048 21/13 A2960 1160 58 2200 320/10G19 RMK AO2
14837KMSN MSN20090629093511006/29/09 09:35:31  5-MIN KMSN 291535Z 33011G19KT 10SM BKN039 OVC046 21/13 A2960 1160 60 2100 330/11G19 RMK AO2
14837KMSN MSN20090629094011006/29/09 09:40:31  5-MIN KMSN 291540Z 33012G18KT 10SM SCT039 OVC048 21/13 A2961 1160 58 2200 330/12G18 RMK AO2
14837KMSN MSN20090629094511006/29/09 09:45:31  5-MIN KMSN 291545Z 32011G20KT 10SM SCT039 BKN048 21/13 A2961 1150 60 2100 320/11G20 RMK AO2
14837KMSN MSN20090629095012706/29/09 09:50:31  5-MIN KMSN 291550Z 32013G21KT 10SM SCT039 BKN048 21/13 A2961 1150 58 2200 320/13G21 RMK AO2 SLP022 T02110128
14837KMSN MSN20090629095511006/29/09 09:55:31  5-MIN KMSN 291555Z 34011G21KT 10SM SCT039 BKN050 21/13 A2961 1160 58 2200 340/11G21 RMK AO2
14837KMSN MSN20090629100011006/29/09 10:00:31  5-MIN KMSN 291600Z 33010G19KT 10SM SCT039 BKN050 21/13 A2961 1150 58 2200 330/10G19 RMK AO2
14837KMSN MSN20090629100511006/29/09 10:05:31  5-MIN KMSN 291605Z 33012G18KT 10SM SCT039 BKN050 21/13 A2961 1150 58 2200 330/12G18 RMK AO2
14837KMSN MSN20090629101011006/29/09 10:10:31  5-MIN KMSN 291610Z 31010G19KT 10SM SCT039 BKN050 21/13 A2961 1160 60 2100 310/10G19 RMK AO2
14837KMSN MSN20090629101511006/29/09 10:15:31  5-MIN KMSN 291615Z 30011G19KT 10SM SCT039 BKN050 21/13 A2961 1160 58 2200 300/11G19 RMK AO2
14837KMSN MSN20090629102011006/29/09 10:20:31  5-MIN KMSN 291620Z 31011G20KT 10SM SCT039 BKN050 21/13 A2961 1150 58 2200 310/11G20 RMK AO2
14837KMSN MSN20090629102511006/29/09 10:25:31  5-MIN KMSN 291625Z 31013G20KT 10SM SCT039 BKN050 21/13 A2961 1150 58 2200 310/13G20 RMK AO2
14837KMSN MSN20090629103011006/29/09 10:30:31  5-MIN KMSN 291630Z 32015G22KT 10SM SCT039 BKN050 21/12 A2961 1150 56 2200 320/15G22 RMK AO2
14837KMSN MSN20090629103511006/29/09 10:35:31  5-MIN KMSN 291635Z 32012G22KT 10SM SCT039 BKN050 21/12 A2961 1150 58 2100 320/12G22 RMK AO2
14837KMSN MSN20090629104011006/29/09 10:40:31  5-MIN KMSN 291640Z 32013G19KT 10SM SCT035 BKN048 21/12 A2961 1150 58 2100 310/13G19 RMK AO2
14837KMSN MSN20090629104511006/29/09 10:45:31  5-MIN KMSN 291645Z 30011G19KT 10SM SCT035 BKN048 21/13 A2961 1150 58 2200 300/11G19 RMK AO2
14837KMSN MSN20090629105012706/29/09 10:50:31  5-MIN KMSN 291650Z 32012G20KT 10SM SCT035 BKN048 21/12 A2961 1150 56 2200 310/12G20 RMK AO2 SLP025 T02110122
14837KMSN MSN20090629105511006/29/09 10:55:31  5-MIN KMSN 291655Z 32013G20KT 10SM SCT037 BKN046 21/12 A2961 1150 58 2100 320/13G20 RMK AO2
14837KMSN MSN20090629110011006/29/09 11:00:31  5-MIN KMSN 291700Z 31011G20KT 10SM SCT037 BKN046 21/13 A2961 1150 60 2100 310/11G20 RMK AO2
14837KMSN MSN20090629110511006/29/09 11:05:31  5-MIN KMSN 291705Z 30009G18KT 10SM SCT037 BKN046 21/12 A2961 1150 58 2100 300/09G18 RMK AO2
14837KMSN MSN20090629111011006/29/09 11:10:31  5-MIN KMSN 291710Z 31008G19KT 10SM SCT037 BKN046 21/13 A2961 1150 60 2100 300/08G19 RMK AO2
14837KMSN MSN20090629111512606/29/09 11:15:31  5-MIN KMSN 291715Z 31014G23KT 260V330 10SM SCT037 BKN046 21/12 A2962 1150 58 2100 310/14G23 260V330 RMK AO2
14837KMSN MSN20090629112011006/29/09 11:20:31  5-MIN KMSN 291720Z 30009G23KT 10SM SCT037 BKN046 21/12 A2961 1150 58 2100 300/09G23 RMK AO2
14837KMSN MSN20090629112511006/29/09 11:25:31  5-MIN KMSN 291725Z 31008G18KT 10SM SCT037 BKN046 21/13 A2961 1150 60 2100 310/08G18 RMK AO2
14837KMSN MSN20090629113011006/29/09 11:30:31  5-MIN KMSN 291730Z 30011G19KT 10SM SCT037 BKN046 21/12 A2961 1150 58 2100 300/11G19 RMK AO2
14837KMSN MSN20090629113511006/29/09 11:35:31  5-MIN KMSN 291735Z 31008G19KT 10SM SCT037 BKN046 21/12 A2961 1150 58 2100 310/08G19 RMK AO2
14837KMSN MSN20090629114011006/29/09 11:40:31  5-MIN KMSN 291740Z 31010G18KT 10SM SCT037 BKN046 21/12 A2962 1150 58 2100 310/10G18 RMK AO2
14837KMSN MSN20090629114511006/29/09 11:45:31  5-MIN KMSN 291745Z 31010G18KT 10SM SCT037 BKN046 21/12 A2962 1150 58 2100 310/10G18 RMK AO2
14837KMSN MSN20090629115014506/29/09 11:50:31  5-MIN KMSN 291750Z 32012G21KT 10SM SCT037 BKN046 20/12 A2962 1150 60 2000 310/12G21 RMK AO2 SLP025 T02000122 10217 20178 53000
14837KMSN MSN20090629115511006/29/09 11:55:31  5-MIN KMSN 291755Z 31009G21KT 10SM BKN040 OVC046 20/12 A2962 1150 60 2000 310/09G21 RMK AO2
14837KMSN MSN20090629120011906/29/09 12:00:31  5-MIN KMSN 291800Z 31011G17KT 280V340 10SM OVC040 20/12 A2962 1140 60 2000 310/11G17 280V340 RMK AO2
14837KMSN MSN20090629120511906/29/09 12:05:31  5-MIN KMSN 291805Z 31010G17KT 270V340 10SM OVC043 20/12 A2962 1140 60 2000 310/10G17 270V340 RMK AO2
14837KMSN MSN20090629121010306/29/09 12:10:31  5-MIN KMSN 291810Z 31011G19KT 10SM OVC043 20/12 A2962 1140 60 2000 310/11G19 RMK AO2
14837KMSN MSN20090629121510306/29/09 12:15:31  5-MIN KMSN 291815Z 30010G19KT 10SM OVC041 20/12 A2962 1140 60 2000 300/10G19 RMK AO2
14837KMSN MSN20090629122011006/29/09 12:20:31  5-MIN KMSN 291820Z 30009G16KT 10SM BKN041 OVC050 19/12 A2962 1140 62 2000 300/09G16 RMK AO2
14837KMSN MSN20090629122511006/29/09 12:25:31  5-MIN KMSN 291825Z 32008G16KT 10SM BKN041 OVC050 20/13 A2962 1140 63 2000 310/08G16 RMK AO2
14837KMSN MSN20090629123011006/29/09 12:30:31  5-MIN KMSN 291830Z 30006G14KT 10SM SCT041 OVC050 20/13 A2962 1140 63 2000 300/06G14 RMK AO2
14837KMSN MSN20090629123511006/29/09 12:35:31  5-MIN KMSN 291835Z 30010G16KT 10SM FEW039 OVC050 21/13 A2962 1140 60 2100 300/10G16 RMK AO2
14837KMSN MSN20090629124011006/29/09 12:40:31  5-MIN KMSN 291840Z 30007G16KT 10SM FEW039 BKN050 21/13 A2962 1140 60 2100 300/07G16 RMK AO2
14837KMSN MSN20090629124512606/29/09 12:45:31  5-MIN KMSN 291845Z 32009G16KT 280V340 10SM FEW039 BKN050 21/13 A2962 1140 61 2200 320/09G16 280V340 RMK AO2
14837KMSN MSN20090629125012706/29/09 12:50:31  5-MIN KMSN 291850Z 29011G18KT 10SM FEW039 BKN050 21/13 A2962 1140 61 2200 290/11G18 RMK AO2 SLP026 T02110133
14837KMSN MSN20090629125511006/29/09 12:55:31  5-MIN KMSN 291855Z 30012G19KT 10SM SCT035 BKN050 21/13 A2962 1140 58 2200 300/12G19 RMK AO2
14837KMSN MSN20090629130012606/29/09 13:00:31  5-MIN KMSN 291900Z 30014G19KT 270V340 10SM SCT035 BKN050 21/13 A2962 1140 60 2100 300/14G19 270V340 RMK AO2
14837KMSN MSN20090629130511006/29/09 13:05:31  5-MIN KMSN 291905Z 31012G21KT 10SM SCT035 BKN050 21/13 A2962 1140 60 2100 300/12G21 RMK AO2
14837KMSN MSN20090629131011006/29/09 13:10:31  5-MIN KMSN 291910Z 30008G21KT 10SM SCT035 BKN050 21/13 A2962 1150 60 2100 300/08G21 RMK AO2
14837KMSN MSN20090629131511006/29/09 13:15:31  5-MIN KMSN 291915Z 30013G20KT 10SM SCT035 BKN050 21/13 A2962 1140 60 2100 290/13G20 RMK AO2
14837KMSN MSN20090629132011006/29/09 13:20:31  5-MIN KMSN 291920Z 31013G21KT 10SM SCT035 BKN050 20/12 A2962 1140 60 2000 310/13G21 RMK AO2
14837KMSN MSN20090629132511006/29/09 13:25:31  5-MIN KMSN 291925Z 31012G22KT 10SM SCT035 BKN050 20/12 A2962 1140 60 2000 310/12G22 RMK AO2
14837KMSN MSN20090629133011006/29/09 13:30:31  5-MIN KMSN 291930Z 31013G22KT 10SM SCT035 BKN050 20/12 A2962 1140 60 2000 310/13G22 RMK AO2
14837KMSN MSN20090629133511006/29/09 13:35:31  5-MIN KMSN 291935Z 31012G19KT 10SM SCT035 BKN050 21/12 A2962 1140 58 2100 310/12G19 RMK AO2
14837KMSN MSN20090629134011006/29/09 13:40:31  5-MIN KMSN 291940Z 32014G19KT 10SM SCT035 BKN050 21/13 A2962 1150 58 2200 320/14G19 RMK AO2
14837KMSN MSN20090629134511006/29/09 13:45:31  5-MIN KMSN 291945Z 31012G19KT 10SM SCT035 BKN050 21/13 A2962 1150 60 2100 310/12G19 RMK AO2
14837KMSN MSN20090629135012706/29/09 13:50:31  5-MIN KMSN 291950Z 30015G22KT 10SM SCT035 BKN050 22/13 A2962 1150 56 2200 300/15G22 RMK AO2 SLP025 T02170128
14837KMSN MSN20090629135511006/29/09 13:55:31  5-MIN KMSN 291955Z 30010G22KT 10SM SCT035 BKN044 21/13 A2961 1150 58 2200 300/10G22 RMK AO2
14837KMSN MSN20090629140011006/29/09 14:00:31  5-MIN KMSN 292000Z 28009G20KT 10SM SCT035 BKN044 22/13 A2961 1150 58 2200 280/09G20 RMK AO2
14837KMSN MSN20090629140511006/29/09 14:05:31  5-MIN KMSN 292005Z 30008G15KT 10SM SCT035 BKN044 22/13 A2962 1150 58 2200 300/08G15 RMK AO2
14837KMSN MSN20090629141012606/29/09 14:10:31  5-MIN KMSN 292010Z 30007G17KT 260V330 10SM SCT035 BKN044 22/13 A2962 1150 56 2200 300/07G17 260V330 RMK AO2
14837KMSN MSN20090629141511006/29/09 14:15:31  5-MIN KMSN 292015Z 31013G21KT 10SM SCT035 BKN044 22/13 A2961 1150 56 2200 300/13G21 RMK AO2
14837KMSN MSN20090629142011006/29/09 14:20:31  5-MIN KMSN 292020Z 31012G21KT 10SM SCT035 BKN044 22/12 A2961 1150 54 2200 310/12G21 RMK AO2
14837KMSN MSN20090629142511006/29/09 14:25:31  5-MIN KMSN 292025Z 32011G20KT 10SM SCT035 BKN044 22/12 A2961 1150 54 2200 310/11G20 RMK AO2
14837KMSN MSN20090629143011006/29/09 14:30:31  5-MIN KMSN 292030Z 31009G21KT 10SM SCT035 BKN044 22/13 A2961 1150 56 2200 310/09G21 RMK AO2
14837KMSN MSN20090629143511006/29/09 14:35:31  5-MIN KMSN 292035Z 31012G21KT 10SM SCT035 BKN044 22/13 A2961 1150 56 2200 310/12G21 RMK AO2
14837KMSN MSN20090629144011006/29/09 14:40:31  5-MIN KMSN 292040Z 30012G20KT 10SM SCT035 BKN044 22/13 A2961 1150 56 2200 300/12G20 RMK AO2
14837KMSN MSN20090629144511006/29/09 14:45:31  5-MIN KMSN 292045Z 29010G20KT 10SM SCT035 BKN044 22/13 A2961 1150 56 2200 290/10G20 RMK AO2
14837KMSN MSN20090629145013306/29/09 14:50:31  5-MIN KMSN 292050Z 31010G21KT 10SM SCT044 BKN065 21/12 A2961 1150 56 2200 310/10G21 RMK AO2 SLP023 T02110122 51007
14837KMSN MSN20090629145511006/29/09 14:55:31  5-MIN KMSN 292055Z 30011G21KT 10SM SCT046 BKN060 21/12 A2961 1150 56 2200 300/11G21 RMK AO2
14837KMSN MSN20090629150011006/29/09 15:00:31  5-MIN KMSN 292100Z 32007G18KT 10SM FEW050 SCT070 22/13 A2961 1150 56 2200 310/07G18 RMK AO2
14837KMSN MSN20090629150511006/29/09 15:05:31  5-MIN KMSN 292105Z 31007G22KT 10SM FEW050 SCT070 22/13 A2961 1150 54 2300 310/07G22 RMK AO2
14837KMSN MSN20090629151011006/29/09 15:10:31  5-MIN KMSN 292110Z 32011G22KT 10SM FEW050 SCT065 22/13 A2961 1150 54 2300 320/11G22 RMK AO2
14837KMSN MSN20090629151511006/29/09 15:15:31  5-MIN KMSN 292115Z 30013G22KT 10SM FEW047 BKN065 22/13 A2961 1150 54 2300 300/13G22 RMK AO2
14837KMSN MSN20090629152012806/29/09 15:20:31  5-MIN KMSN 292120Z 30015G26KT 10SM FEW043 BKN070 22/12 A2961 1150 54 2200 300/15G26 RMK AO2 PK WND 32026/2120
14837KMSN MSN20090629152512806/29/09 15:25:31  5-MIN KMSN 292125Z 32017G26KT 10SM FEW043 BKN065 22/12 A2961 1150 52 2200 320/17G26 RMK AO2 PK WND 32026/2120
14837KMSN MSN20090629153012106/29/09 15:30:31  5-MIN KMSN 292130Z 31013G24KT 10SM BKN065 22/12 A2961 1150 52 2300 310/13G24 RMK AO2 PK WND 32026/2120
14837KMSN MSN20090629153512806/29/09 15:35:31  5-MIN KMSN 292135Z 31014G20KT 10SM FEW042 BKN065 22/13 A2961 1150 54 2300 310/14G20 RMK AO2 PK WND 32026/2120
14837KMSN MSN20090629154012806/29/09 15:40:31  5-MIN KMSN 292140Z 30012G21KT 10SM FEW042 BKN065 22/12 A2961 1150 54 2200 300/12G21 RMK AO2 PK WND 32026/2120
14837KMSN MSN20090629154512806/29/09 15:45:31  5-MIN KMSN 292145Z 31011G21KT 10SM FEW042 SCT065 22/13 A2961 1150 54 2300 310/11G21 RMK AO2 PK WND 32026/2120
14837KMSN MSN20090629155013806/29/09 15:50:31  5-MIN KMSN 292150Z 31011G18KT 10SM FEW060 22/13 A2961 1150 54 2300 300/11G18 RMK AO2 PK WND 32026/2120 SLP023 T02220128
14837KMSN MSN20090629155511606/29/09 15:55:31  5-MIN KMSN 292155Z 31013G21KT 260V330 10SM CLR 22/12 A2961 1150 54 2200 310/13G21 260V330 RMK AO2
14837KMSN MSN20090629160010006/29/09 16:00:31  5-MIN KMSN 292200Z 32014G22KT 10SM CLR 22/13 A2961 1150 54 2300 320/14G22 RMK AO2
14837KMSN MSN20090629160511006/29/09 16:05:31  5-MIN KMSN 292205Z 32012G22KT 10SM SCT045 SCT060 22/12 A2962 1150 52 2300 320/12G22 RMK AO2
14837KMSN MSN20090629161011006/29/09 16:10:31  5-MIN KMSN 292210Z 30014G21KT 10SM SCT045 SCT060 22/13 A2962 1150 54 2300 300/14G21 RMK AO2
14837KMSN MSN20090629161511006/29/09 16:15:31  5-MIN KMSN 292215Z 32014G21KT 10SM SCT045 SCT060 22/12 A2962 1140 54 2200 320/14G21 RMK AO2
14837KMSN MSN20090629162011006/29/09 16:20:31  5-MIN KMSN 292220Z 32012G21KT 10SM SCT045 SCT060 21/13 A2962 1140 58 2200 320/12G21 RMK AO2
14837KMSN MSN20090629162511006/29/09 16:25:31  5-MIN KMSN 292225Z 33014G22KT 10SM SCT045 SCT060 22/13 A2962 1140 56 2200 330/14G22 RMK AO2
14837KMSN MSN20090629163011006/29/09 16:30:31  5-MIN KMSN 292230Z 32014G23KT 10SM SCT045 SCT060 21/13 A2962 1140 58 2200 310/14G23 RMK AO2
14837KMSN MSN20090629163511006/29/09 16:35:31  5-MIN KMSN 292235Z 32009G23KT 10SM SCT045 BKN060 21/13 A2962 1140 58 2200 320/09G23 RMK AO2
14837KMSN MSN20090629164011006/29/09 16:40:31  5-MIN KMSN 292240Z 32011G20KT 10SM SCT045 BKN060 21/13 A2962 1140 58 2200 320/11G20 RMK AO2
14837KMSN MSN20090629164511006/29/09 16:45:31  5-MIN KMSN 292245Z 31011G19KT 10SM SCT045 BKN060 21/12 A2962 1140 56 2200 300/11G19 RMK AO2
14837KMSN MSN20090629165012706/29/09 16:50:31  5-MIN KMSN 292250Z 32011G19KT 10SM SCT045 BKN060 21/12 A2962 1140 56 2200 320/11G19 RMK AO2 SLP027 T02110122
14837KMSN MSN20090629165511006/29/09 16:55:31  5-MIN KMSN 292255Z 31012G20KT 10SM SCT042 BKN055 22/13 A2962 1140 56 2200 310/12G20 RMK AO2
14837KMSN MSN20090629170011006/29/09 17:00:31  5-MIN KMSN 292300Z 31011G23KT 10SM SCT042 BKN055 21/12 A2963 1140 56 2200 310/11G23 RMK AO2
14837KMSN MSN20090629170511706/29/09 17:05:31  5-MIN KMSN 292305Z 31011G23KT 10SM SCT042 BKN050 BKN060 21/12 A2963 1140 56 2200 310/11G23 RMK AO2
14837KMSN MSN20090629171011706/29/09 17:10:31  5-MIN KMSN 292310Z 32009G20KT 10SM SCT042 BKN050 BKN060 21/12 A2963 1140 56 2200 320/09G20 RMK AO2
14837KMSN MSN20090629171511706/29/09 17:15:31  5-MIN KMSN 292315Z 32009G20KT 10SM SCT042 BKN050 BKN060 21/12 A2963 1140 56 2100 320/09G20 RMK AO2
14837KMSN MSN20090629172011706/29/09 17:20:31  5-MIN KMSN 292320Z 33011G19KT 10SM SCT042 BKN050 BKN060 21/12 A2962 1140 56 2200 330/11G19 RMK AO2
14837KMSN MSN20090629172511706/29/09 17:25:31  5-MIN KMSN 292325Z 32015G23KT 10SM FEW042 SCT050 BKN060 21/12 A2963 1140 54 2100 320/15G23 RMK AO2
14837KMSN MSN20090629173011006/29/09 17:30:31  5-MIN KMSN 292330Z 31014G23KT 10SM FEW042 BKN050 21/12 A2963 1140 54 2100 310/14G23 RMK AO2
14837KMSN MSN20090629173511006/29/09 17:35:31  5-MIN KMSN 292335Z 31014G23KT 10SM FEW042 BKN050 21/12 A2963 1140 56 2100 310/14G23 RMK AO2
14837KMSN MSN20090629174011006/29/09 17:40:31  5-MIN KMSN 292340Z 32010G23KT 10SM BKN047 BKN055 21/12 A2963 1130 56 2100 320/10G23 RMK AO2
14837KMSN MSN20090629174511006/29/09 17:45:31  5-MIN KMSN 292345Z 32014G21KT 10SM SCT047 BKN055 21/12 A2963 1130 56 2100 320/14G21 RMK AO2
14837KMSN MSN20090629175014506/29/09 17:50:31  5-MIN KMSN 292350Z 32010G21KT 10SM SCT047 BKN055 21/12 A2963 1130 56 2100 320/10G21 RMK AO2 SLP030 T02060117 10222 20194 58003
14837KMSN MSN20090629175510306/29/09 17:55:31  5-MIN KMSN 292355Z 32012G21KT 10SM BKN050 21/12 A2963 1130 56 2100 320/12G21 RMK AO2
14837KMSN MSN20090629180011006/29/09 18:00:31  5-MIN KMSN 300000Z 32009G21KT 10SM SCT047 BKN055 21/12 A2963 1130 56 2100 320/09G21 RMK AO2
14837KMSN MSN20090629180511006/29/09 18:05:31  5-MIN KMSN 300005Z 31011G20KT 10SM FEW047 SCT055 20/12 A2963 1130 58 2000 310/11G20 RMK AO2
14837KMSN MSN20090629181010306/29/09 18:10:31  5-MIN KMSN 300010Z 32009G19KT 10SM SCT050 20/12 A2964 1130 58 2000 320/09G19 RMK AO2
14837KMSN MSN20090629181510306/29/09 18:15:31  5-MIN KMSN 300015Z 31012G23KT 10SM BKN050 20/12 A2964 1130 58 2000 310/12G23 RMK AO2
14837KMSN MSN20090629182010306/29/09 18:20:31  5-MIN KMSN 300020Z 32011G23KT 10SM BKN050 20/12 A2964 1130 58 2000 320/11G23 RMK AO2
14837KMSN MSN20090629182510306/29/09 18:25:31  5-MIN KMSN 300025Z 32011G19KT 10SM BKN050 20/12 A2964 1130 58 2000 320/11G19 RMK AO2
14837KMSN MSN20090629183010306/29/09 18:30:31  5-MIN KMSN 300030Z 32012G19KT 10SM BKN050 20/12 A2964 1130 58 2000 320/12G19 RMK AO2
14837KMSN MSN20090629183510306/29/09 18:35:31  5-MIN KMSN 300035Z 33012G18KT 10SM OVC050 20/12 A2964 1120 58 2000 330/12G18 RMK AO2
14837KMSN MSN20090629184010306/29/09 18:40:31  5-MIN KMSN 300040Z 32009G18KT 10SM OVC050 19/12 A2964 1120 60 1900 320/09G18 RMK AO2
14837KMSN MSN20090629184509706/29/09 18:45:31  5-MIN KMSN 300045Z 31010KT 10SM OVC055 20/12 A2964 1130 58 2000 310/10 RMK AO2
14837KMSN MSN20090629185011406/29/09 18:50:31  5-MIN KMSN 300050Z 31010KT 10SM OVC055 20/12 A2964 1130 58 2000 310/10 RMK AO2 SLP033 T02000117
14837KMSN MSN20090629185510306/29/09 18:55:31  5-MIN KMSN 300055Z 32008G16KT 10SM OVC055 19/12 A2964 1120 60 1900 320/08G16 RMK AO2
14837KMSN MSN20090629190010306/29/09 19:00:31  5-MIN KMSN 300100Z 32011G17KT 10SM OVC055 19/12 A2964 1120 60 1900 320/11G17 RMK AO2
14837KMSN MSN20090629190511006/29/09 19:05:31  5-MIN KMSN 300105Z 32010G18KT 10SM FEW042 OVC055 19/12 A2964 1120 60 1900 310/10G18 RMK AO2
14837KMSN MSN20090629191011006/29/09 19:10:31  5-MIN KMSN 300110Z 32010G18KT 10SM FEW042 OVC055 19/12 A2964 1120 60 1900 320/10G18 RMK AO2
14837KMSN MSN20090629191510306/29/09 19:15:31  5-MIN KMSN 300115Z 32012G16KT 10SM OVC055 19/12 A2964 1120 60 1900 320/12G16 RMK AO2
14837KMSN MSN20090629192010306/29/09 19:20:31  5-MIN KMSN 300120Z 32009G16KT 10SM OVC055 19/12 A2964 1120 60 1900 320/09G16 RMK AO2
14837KMSN MSN20090629192510306/29/09 19:25:31  5-MIN KMSN 300125Z 33010G15KT 10SM OVC055 19/12 A2964 1120 62 1900 320/10G15 RMK AO2
14837KMSN MSN20090629193010306/29/09 19:30:31  5-MIN KMSN 300130Z 33008G15KT 10SM BKN055 19/12 A2964 1120 65 1900 330/08G15 RMK AO2
14837KMSN MSN20090629193509706/29/09 19:35:31  5-MIN KMSN 300135Z 32008KT 10SM BKN055 19/12 A2964 1120 65 1900 320/08 RMK AO2
14837KMSN MSN20090629194009706/29/09 19:40:31  5-MIN KMSN 300140Z 31008KT 10SM SCT055 19/12 A2964 1120 65 1900 310/08 RMK AO2
14837KMSN MSN20090629194510406/29/09 19:45:31  5-MIN KMSN 300145Z 31008KT 10SM FEW055 SCT110 19/12 A2964 1130 62 1900 310/08 RMK AO2
14837KMSN MSN20090629195012806/29/09 19:50:31  5-MIN KMSN 300150Z 32006KT 10SM FEW043 SCT060 BKN110 19/12 A2964 1120 65 1900 320/06 RMK AO2 SLP033 T01890122
14837KMSN MSN20090629195511106/29/09 19:55:31  5-MIN KMSN 300155Z 31007KT 10SM FEW043 BKN065 BKN110 19/12 A2964 1120 65 1900 310/07 RMK AO2
14837KMSN MSN20090629200011106/29/09 20:00:31  5-MIN KMSN 300200Z 31007KT 10SM FEW043 BKN070 BKN110 19/12 A2964 1120 65 1900 310/07 RMK AO2
14837KMSN MSN20090629200511106/29/09 20:05:31  5-MIN KMSN 300205Z 32005KT 10SM FEW043 BKN070 BKN110 19/12 A2964 1130 65 1900 310/05 RMK AO2
14837KMSN MSN20090629201010406/29/09 20:10:31  5-MIN KMSN 300210Z 31008KT 10SM FEW043 OVC070 19/12 A2964 1120 65 1900 310/08 RMK AO2
14837KMSN MSN20090629201510406/29/09 20:15:31  5-MIN KMSN 300215Z 31007KT 10SM FEW042 OVC065 19/12 A2964 1120 65 1900 310/07 RMK AO2
14837KMSN MSN20090629202010406/29/09 20:20:31  5-MIN KMSN 300220Z 30006KT 10SM FEW042 OVC065 19/12 A2964 1120 65 1900 300/06 RMK AO2
14837KMSN MSN20090629202510406/29/09 20:25:31  5-MIN KMSN 300225Z 30008KT 10SM SCT044 OVC070 19/12 A2964 1120 65 1900 300/08 RMK AO2
14837KMSN MSN20090629203010406/29/09 20:30:31  5-MIN KMSN 300230Z 31008KT 10SM SCT042 OVC065 19/12 A2964 1120 65 1900 310/08 RMK AO2
14837KMSN MSN20090629203510406/29/09 20:35:31  5-MIN KMSN 300235Z 31008KT 10SM BKN040 OVC065 19/12 A2964 1120 65 1900 310/08 RMK AO2
14837KMSN MSN20090629204011106/29/09 20:40:31  5-MIN KMSN 300240Z 31007KT 10SM BKN040 BKN046 OVC065 19/12 A2965 1120 65 1900 300/07 RMK AO2
14837KMSN MSN20090629204513206/29/09 20:45:31  5-MIN KMSN 300245Z 32011G17KT 9SM -RA FEW032 BKN040 OVC050 18/13 A2965 1120 70 1800 320/11G17 RMK AO2 RAB42 P0000
14837KMSN MSN20090629205016106/29/09 20:50:31  5-MIN KMSN 300250Z 33009G17KT 8SM -RA FEW032 BKN040 OVC055 18/13 A2965 1110 72 1700 330/09G17 RMK AO2 RAB42 SLP037 P0000 60000 T01780128 53007
14837KMSN MSN20090629205512706/29/09 20:55:31  5-MIN KMSN 300255Z 31008G16KT 10SM -RA FEW032 BKN040 OVC060 18/13 A2965 1110 72 1700 310/08G16 RMK AO2 P0000
14837KMSN MSN20090629210012606/29/09 21:00:31  5-MIN KMSN 300300Z 32011G17KT 9SM -RA BKN032 BKN042 OVC055 18/13 A2966 1110 75 1700 320/11G17 RMK AO2 P0000
14837KMSN MSN20090629210512606/29/09 21:05:31  5-MIN KMSN 300305Z 32012G18KT 7SM -RA BKN035 BKN043 OVC055 17/13 A2966 1110 78 1700 320/12G18 RMK AO2 P0000
14837KMSN MSN20090629211012606/29/09 21:10:31  5-MIN KMSN 300310Z 32007G18KT 9SM -RA SCT033 BKN043 OVC055 17/14 A2966 1110 83 1600 320/07G18 RMK AO2 P0000
14837KMSN MSN20090629211512906/29/09 21:15:31  5-MIN KMSN 300315Z 32008G14KT 10SM FEW033 BKN055 OVC070 17/14 A2966 1110 83 1600 320/08G14 RMK AO2 RAE13 P0000
14837KMSN MSN20090629212012906/29/09 21:20:31  5-MIN KMSN 300320Z 32007G14KT 10SM SCT033 BKN060 OVC070 17/14 A2966 1110 83 1600 320/07G14 RMK AO2 RAE13 P0000
14837KMSN MSN20090629212512906/29/09 21:25:31  5-MIN KMSN 300325Z 32009G14KT 10SM FEW033 BKN060 BKN075 17/14 A2966 1110 83 1600 320/09G14 RMK AO2 RAE13 P0000
14837KMSN MSN20090629213012306/29/09 21:30:31  5-MIN KMSN 300330Z 32007KT 10SM FEW033 SCT060 BKN075 17/14 A2966 1110 83 1600 320/07 RMK AO2 RAE13 P0000
14837KMSN MSN20090629213512306/29/09 21:35:31  5-MIN KMSN 300335Z 32005KT 10SM FEW033 SCT060 BKN075 16/14 A2966 1110 86 1500 320/05 RMK AO2 RAE13 P0000
14837KMSN MSN20090629214012306/29/09 21:40:31  5-MIN KMSN 300340Z 32007KT 10SM FEW035 SCT042 BKN060 16/14 A2966 1100 86 1500 320/07 RMK AO2 RAE13 P0000
14837KMSN MSN20090629214512306/29/09 21:45:31  5-MIN KMSN 300345Z 31006KT 10SM FEW035 SCT042 BKN070 16/14 A2966 1110 86 1500 310/06 RMK AO2 RAE13 P0000
14837KMSN MSN20090629215013306/29/09 21:50:31  5-MIN KMSN 300350Z 32005KT 10SM FEW035 BKN044 16/14 A2966 1110 86 1500 310/05 RMK AO2 RAE13 SLP041 P0000 T01610139
14837KMSN MSN20090629215510406/29/09 21:55:31  5-MIN KMSN 300355Z 32005KT 10SM FEW035 BKN046 17/14 A2966 1110 83 1600 320/05 RMK AO2
14837KMSN MSN20090629220009706/29/09 22:00:31  5-MIN KMSN 300400Z 32005KT 10SM BKN048 17/14 A2966 1110 83 1600 320/05 RMK AO2
14837KMSN MSN20090629220509706/29/09 22:05:31  5-MIN KMSN 300405Z 32006KT 10SM BKN050 17/14 A2966 1110 83 1600 320/06 RMK AO2
14837KMSN MSN20090629221009706/29/09 22:10:31  5-MIN KMSN 300410Z 32006KT 10SM OVC050 17/14 A2966 1110 83 1600 320/06 RMK AO2
14837KMSN MSN20090629221509706/29/09 22:15:31  5-MIN KMSN 300415Z 32005KT 10SM OVC050 17/14 A2966 1110 83 1600 320/05 RMK AO2
14837KMSN MSN20090629222009706/29/09 22:20:31  5-MIN KMSN 300420Z 32006KT 10SM OVC050 17/14 A2966 1110 83 1600 320/06 RMK AO2
14837KMSN MSN20090629222509706/29/09 22:25:31  5-MIN KMSN 300425Z 32005KT 10SM OVC055 17/14 A2966 1110 83 1600 320/05 RMK AO2
14837KMSN MSN20090629223009706/29/09 22:30:31  5-MIN KMSN 300430Z 32006KT 10SM OVC055 17/14 A2966 1110 83 1600 320/06 RMK AO2
14837KMSN MSN20090629223509706/29/09 22:35:31  5-MIN KMSN 300435Z 31006KT 10SM OVC055 17/14 A2966 1110 83 1600 310/06 RMK AO2
14837KMSN MSN20090629224009706/29/09 22:40:31  5-MIN KMSN 300440Z 31005KT 10SM OVC055 17/14 A2966 1110 83 1600 310/05 RMK AO2
14837KMSN MSN20090629224509706/29/09 22:45:31  5-MIN KMSN 300445Z 32005KT 10SM OVC055 17/14 A2966 1110 83 1600 320/05 RMK AO2
14837KMSN MSN20090629225011406/29/09 22:50:31  5-MIN KMSN 300450Z 32005KT 10SM OVC055 17/14 A2966 1110 83 1600 320/05 RMK AO2 SLP041 T01670139
14837KMSN MSN20090629225509706/29/09 22:55:31  5-MIN KMSN 300455Z 32005KT 10SM OVC055 17/14 A2966 1110 83 1600 320/05 RMK AO2
14837KMSN MSN20090629230009706/29/09 23:00:31  5-MIN KMSN 300500Z 32004KT 10SM OVC050 17/14 A2966 1110 83 1600 320/04 RMK AO2
14837KMSN MSN20090629230509706/29/09 23:05:31  5-MIN KMSN 300505Z 32004KT 10SM OVC050 17/14 A2965 1110 83 1600 320/04 RMK AO2
14837KMSN MSN20090629231009706/29/09 23:10:31  5-MIN KMSN 300510Z 32004KT 10SM OVC050 17/14 A2965 1110 83 1600 320/04 RMK AO2
14837KMSN MSN20090629231509706/29/09 23:15:31  5-MIN KMSN 300515Z 32006KT 10SM OVC050 17/14 A2966 1110 83 1600 320/06 RMK AO2
14837KMSN MSN20090629232009706/29/09 23:20:31  5-MIN KMSN 300520Z 32007KT 10SM OVC050 17/14 A2966 1110 83 1600 320/07 RMK AO2
14837KMSN MSN20090629232509706/29/09 23:25:31  5-MIN KMSN 300525Z 32005KT 10SM BKN050 17/13 A2966 1110 80 1600 320/05 RMK AO2
14837KMSN MSN20090629233010406/29/09 23:30:31  5-MIN KMSN 300530Z 32006KT 10SM FEW041 BKN050 17/13 A2966 1110 80 1600 320/06 RMK AO2
14837KMSN MSN20090629233511106/29/09 23:35:31  5-MIN KMSN 300535Z 33007KT 10SM FEW041 SCT050 BKN060 17/13 A2965 1110 80 1600 330/07 RMK AO2
14837KMSN MSN20090629234010406/29/09 23:40:31  5-MIN KMSN 300540Z 33005KT 10SM FEW050 BKN060 17/13 A2965 1110 80 1600 330/05 RMK AO2
14837KMSN MSN20090629234509706/29/09 23:45:31  5-MIN KMSN 300545Z 33005KT 10SM BKN055 17/13 A2965 1110 80 1600 330/05 RMK AO2
14837KMSN MSN20090629235014806/29/09 23:50:31  5-MIN KMSN 300550Z 33004KT 10SM BKN055 16/13 A2965 1110 83 1500 330/04 RMK AO2 SLP038 60000 T01610133 10206 20161 402220161 53007
14837KMSN MSN20090629235510406/29/09 23:55:31  5-MIN KMSN 300555Z 32004KT 10SM BKN048 OVC060 16/13 A2965 1110 83 1500 320/04 RMK AO2
14837KMSN MSN20090630000010406/30/09 00:00:32  5-MIN KMSN 300600Z 33003KT 10SM BKN048 OVC060 17/13 A2965 1120 80 1600 330/03 RMK AO2
14837KMSN MSN20090630000510406/30/09 00:05:31  5-MIN KMSN 300605Z 33003KT 10SM BKN048 OVC060 17/13 A2965 1120 80 1600 330/03 RMK AO2
14837KMSN MSN20090630001010406/30/09 00:10:31  5-MIN KMSN 300610Z 32004KT 10SM BKN048 OVC060 17/13 A2965 1120 80 1600 320/04 RMK AO2
14837KMSN MSN20090630001510406/30/09 00:15:31  5-MIN KMSN 300615Z 33005KT 10SM BKN046 OVC055 17/13 A2965 1120 80 1600 330/05 RMK AO2
14837KMSN MSN20090630002010406/30/09 00:20:31  5-MIN KMSN 300620Z 33003KT 10SM SCT046 OVC055 17/13 A2965 1120 80 1600 330/03 RMK AO2
14837KMSN MSN20090630002511906/30/09 00:25:31  5-MIN KMSN 300625Z 33005KT 9SM -RA FEW043 OVC060 17/13 A2965 1120 80 1600 330/05 RMK AO2 RAB25 P0000
14837KMSN MSN20090630003012006/30/09 00:30:31  5-MIN KMSN 300630Z 32004KT 10SM -RA FEW035 OVC060 17/13 A2965 1120 80 1600 320/04 RMK AO2 RAB25 P0000
14837KMSN MSN20090630003512606/30/09 00:35:31  5-MIN KMSN 300635Z 32005KT 10SM FEW028 SCT034 OVC060 16/13 A2965 1120 83 1600 320/05 RMK AO2 RAB25E34 P0000
14837KMSN MSN20090630004011906/30/09 00:40:31  5-MIN KMSN 300640Z 32006KT 10SM SCT030 OVC060 17/13 A2965 1120 80 1600 320/06 RMK AO2 RAB25E34 P0000
14837KMSN MSN20090630004511906/30/09 00:45:31  5-MIN KMSN 300645Z 32005KT 10SM FEW030 OVC060 17/13 A2965 1120 80 1600 320/05 RMK AO2 RAB25E34 P0000
14837KMSN MSN20090630005013606/30/09 00:50:31  5-MIN KMSN 300650Z 31005KT 10SM FEW030 OVC060 17/13 A2964 1120 80 1600 310/05 RMK AO2 RAB25E34 SLP035 P0000 T01670133
14837KMSN MSN20090630005510406/30/09 00:55:31  5-MIN KMSN 300655Z 31005KT 10SM FEW030 OVC065 17/13 A2964 1120 80 1600 300/05 RMK AO2
14837KMSN MSN20090630010010406/30/09 01:00:31  5-MIN KMSN 300700Z 31004KT 10SM FEW030 BKN065 17/13 A2964 1120 80 1600 300/04 RMK AO2
14837KMSN MSN20090630010509706/30/09 01:05:31  5-MIN KMSN 300705Z 32004KT 10SM BKN065 16/13 A2965 1120 83 1600 310/04 RMK AO2
14837KMSN MSN20090630011009706/30/09 01:10:31  5-MIN KMSN 300710Z 31003KT 10SM SCT065 16/13 A2965 1120 83 1500 300/03 RMK AO2
14837KMSN MSN20090630011511306/30/09 01:15:31  5-MIN KMSN 300715Z 32007KT 280V340 10SM SCT070 16/13 A2964 1120 83 1600 310/07 280V340 RMK AO2
14837KMSN MSN20090630012009706/30/09 01:20:31  5-MIN KMSN 300720Z 31005KT 10SM FEW070 16/13 A2965 1120 80 1500 310/05 RMK AO2
14837KMSN MSN20090630012509706/30/09 01:25:31  5-MIN KMSN 300725Z 30005KT 10SM FEW030 16/13 A2965 1120 80 1500 300/05 RMK AO2
14837KMSN MSN20090630013009706/30/09 01:30:31  5-MIN KMSN 300730Z 30004KT 10SM SCT030 16/13 A2965 1120 80 1500 300/04 RMK AO2
14837KMSN MSN20090630013509706/30/09 01:35:31  5-MIN KMSN 300735Z 30007KT 10SM SCT030 16/13 A2965 1120 80 1500 300/07 RMK AO2
14837KMSN MSN20090630014009706/30/09 01:40:31  5-MIN KMSN 300740Z 31005KT 10SM FEW030 16/13 A2964 1120 80 1600 310/05 RMK AO2
14837KMSN MSN20090630014509706/30/09 01:45:31  5-MIN KMSN 300745Z VRB04KT 10SM FEW030 16/13 A2964 1120 83 1500 VRB/04 RMK AO2
14837KMSN MSN20090630015011406/30/09 01:50:31  5-MIN KMSN 300750Z 32004KT 10SM FEW030 16/13 A2964 1120 83 1500 320/04 RMK AO2 SLP035 T01560128
14837KMSN MSN20090630015509706/30/09 01:55:31  5-MIN KMSN 300755Z 32004KT 10SM FEW030 16/13 A2964 1120 83 1500 320/04 RMK AO2
14837KMSN MSN20090630020009406/30/09 02:00:31  5-MIN KMSN 300800Z 32003KT 10SM CLR 16/13 A2964 1120 83 1500 320/03 RMK AO2
14837KMSN MSN20090630020509406/30/09 02:05:31  5-MIN KMSN 300805Z 31004KT 10SM CLR 15/12 A2964 1120 83 1400 310/04 RMK AO2
14837KMSN MSN20090630021009406/30/09 02:10:31  5-MIN KMSN 300810Z VRB05KT 10SM CLR 15/12 A2964 1120 83 1400 VRB/05 RMK AO2
14837KMSN MSN20090630021509406/30/09 02:15:31  5-MIN KMSN 300815Z 33006KT 10SM CLR 15/12 A2964 1130 83 1400 320/06 RMK AO2
14837KMSN MSN20090630022009406/30/09 02:20:31  5-MIN KMSN 300820Z 33007KT 10SM CLR 15/12 A2964 1130 83 1400 330/07 RMK AO2
14837KMSN MSN20090630022509406/30/09 02:25:31  5-MIN KMSN 300825Z 32008KT 10SM CLR 15/12 A2964 1130 83 1400 320/08 RMK AO2
14837KMSN MSN20090630023009406/30/09 02:30:31  5-MIN KMSN 300830Z 33007KT 10SM CLR 15/12 A2964 1130 83 1400 330/07 RMK AO2
14837KMSN MSN20090630023509406/30/09 02:35:31  5-MIN KMSN 300835Z 33008KT 10SM CLR 15/12 A2964 1120 83 1400 320/08 RMK AO2
14837KMSN MSN20090630024009406/30/09 02:40:31  5-MIN KMSN 300840Z 32007KT 10SM CLR 15/12 A2964 1120 83 1400 320/07 RMK AO2
14837KMSN MSN20090630024509406/30/09 02:45:31  5-MIN KMSN 300845Z 32007KT 10SM CLR 15/12 A2965 1120 83 1400 310/07 RMK AO2
14837KMSN MSN20090630025012306/30/09 02:50:31  5-MIN KMSN 300850Z 31006KT 10SM CLR 15/12 A2965 1110 83 1400 310/06 RMK AO2 SLP039 60000 T01500122 58000
14837KMSN MSN20090630025509406/30/09 02:55:31  5-MIN KMSN 300855Z 30006KT 10SM CLR 15/12 A2965 1110 83 1400 300/06 RMK AO2
14837KMSN MSN20090630030009406/30/09 03:00:31  5-MIN KMSN 300900Z 31006KT 10SM CLR 15/12 A2965 1110 83 1400 310/06 RMK AO2
14837KMSN MSN20090630030509406/30/09 03:05:31  5-MIN KMSN 300905Z 32006KT 10SM CLR 15/12 A2965 1120 83 1400 320/06 RMK AO2
14837KMSN MSN20090630031009406/30/09 03:10:31  5-MIN KMSN 300910Z 32005KT 10SM CLR 15/12 A2965 1120 83 1400 310/05 RMK AO2
14837KMSN MSN20090630031509706/30/09 03:15:31  5-MIN KMSN 300915Z 31005KT 10SM FEW041 15/12 A2965 1120 80 1400 310/05 RMK AO2
14837KMSN MSN20090630032009706/30/09 03:20:31  5-MIN KMSN 300920Z 30005KT 10SM SCT041 15/12 A2965 1110 80 1400 300/05 RMK AO2
14837KMSN MSN20090630032509706/30/09 03:25:31  5-MIN KMSN 300925Z 31004KT 10SM BKN041 15/12 A2965 1110 83 1400 310/04 RMK AO2
14837KMSN MSN20090630033009706/30/09 03:30:31  5-MIN KMSN 300930Z 32005KT 10SM BKN041 15/12 A2965 1120 83 1400 320/05 RMK AO2
14837KMSN MSN20090630033509706/30/09 03:35:31  5-MIN KMSN 300935Z 32006KT 10SM BKN041 15/12 A2965 1110 83 1400 320/06 RMK AO2
14837KMSN MSN20090630034009706/30/09 03:40:31  5-MIN KMSN 300940Z 32006KT 10SM OVC041 16/12 A2965 1110 80 1500 320/06 RMK AO2
14837KMSN MSN20090630034509706/30/09 03:45:31  5-MIN KMSN 300945Z 32006KT 10SM OVC041 16/12 A2965 1110 77 1500 320/06 RMK AO2
14837KMSN MSN20090630035011406/30/09 03:50:31  5-MIN KMSN 300950Z 32006KT 10SM OVC041 16/12 A2965 1110 77 1500 320/06 RMK AO2 SLP039 T01560117
14837KMSN MSN20090630035509706/30/09 03:55:31  5-MIN KMSN 300955Z 33007KT 10SM OVC041 16/12 A2966 1110 77 1500 330/07 RMK AO2
14837KMSN MSN20090630040009706/30/09 04:00:31  5-MIN KMSN 301000Z 32006KT 10SM OVC039 16/12 A2966 1110 77 1500 320/06 RMK AO2
14837KMSN MSN20090630040509706/30/09 04:05:31  5-MIN KMSN 301005Z 31008KT 10SM OVC039 16/12 A2966 1110 77 1500 310/08 RMK AO2
14837KMSN MSN20090630041009706/30/09 04:10:31  5-MIN KMSN 301010Z 32006KT 10SM OVC039 16/12 A2966 1110 77 1500 320/06 RMK AO2
14837KMSN MSN20090630041509706/30/09 04:15:31  5-MIN KMSN 301015Z 32005KT 10SM OVC039 16/12 A2966 1110 77 1500 320/05 RMK AO2
14837KMSN MSN20090630042009706/30/09 04:20:31  5-MIN KMSN 301020Z 33006KT 10SM OVC037 16/12 A2966 1110 77 1500 330/06 RMK AO2
14837KMSN MSN20090630042509706/30/09 04:25:31  5-MIN KMSN 301025Z 32006KT 10SM OVC037 16/12 A2966 1110 77 1500 320/06 RMK AO2
14837KMSN MSN20090630043009706/30/09 04:30:31  5-MIN KMSN 301030Z 32004KT 10SM OVC037 16/12 A2966 1110 77 1500 320/04 RMK AO2
14837KMSN MSN20090630043509706/30/09 04:35:31  5-MIN KMSN 301035Z 31004KT 10SM OVC037 16/12 A2966 1110 77 1500 310/04 RMK AO2
14837KMSN MSN20090630044009706/30/09 04:40:31  5-MIN KMSN 301040Z 33008KT 10SM OVC037 16/12 A2966 1110 77 1500 320/08 RMK AO2
14837KMSN MSN20090630044509706/30/09 04:45:31  5-MIN KMSN 301045Z 33007KT 10SM OVC037 16/12 A2966 1110 77 1500 330/07 RMK AO2
14837KMSN MSN20090630045011406/30/09 04:50:31  5-MIN KMSN 301050Z 33007KT 10SM OVC035 16/12 A2966 1110 77 1500 330/07 RMK AO2 SLP040 T01560117
14837KMSN MSN20090630045511306/30/09 04:55:31  5-MIN KMSN 301055Z 32008KT 280V340 10SM OVC035 16/12 A2966 1110 77 1500 320/08 280V340 RMK AO2
14837KMSN MSN20090630050011306/30/09 05:00:31  5-MIN KMSN 301100Z 31007KT 280V340 10SM OVC035 16/12 A2966 1110 77 1500 310/07 280V340 RMK AO2
14837KMSN MSN20090630050509706/30/09 05:05:31  5-MIN KMSN 301105Z 33007KT 10SM OVC035 16/11 A2966 1110 74 1500 320/07 RMK AO2
14837KMSN MSN20090630051009706/30/09 05:10:31  5-MIN KMSN 301110Z 32008KT 10SM OVC035 16/11 A2966 1110 74 1500 320/08 RMK AO2
14837KMSN MSN20090630051509706/30/09 05:15:31  5-MIN KMSN 301115Z 32006KT 10SM OVC035 16/11 A2966 1100 74 1500 320/06 RMK AO2
14837KMSN MSN20090630052009706/30/09 05:20:31  5-MIN KMSN 301120Z 32008KT 10SM OVC033 16/11 A2966 1100 74 1500 320/08 RMK AO2
14837KMSN MSN20090630052509706/30/09 05:25:31  5-MIN KMSN 301125Z 32008KT 10SM OVC033 16/11 A2966 1110 74 1500 320/08 RMK AO2
14837KMSN MSN20090630053007306/30/09 05:30:31  5-MIN KMSN 301130Z 33010G15KT 10SM OVC033 16/11 A2966 
14837KMSN MSN20090630053010306/30/09 05:30:31  5-MIN KMSN 301130Z 33010G15KT 10SM OVC033 16/11 A2966 1110 72 1500 330/10G15 RMK AO2
14837KMSN MSN20090630053510306/30/09 05:35:31  5-MIN KMSN 301135Z 32009G15KT 10SM OVC033 16/11 A2966 1100 72 1500 320/09G15 RMK AO2
14837KMSN MSN20090630054009706/30/09 05:40:31  5-MIN KMSN 301140Z 32011KT 10SM OVC031 16/11 A2966 1100 72 1500 320/11 RMK AO2
14837KMSN MSN20090630054509706/30/09 05:45:31  5-MIN KMSN 301145Z 33009KT 10SM OVC031 16/10 A2966 1100 69 1500 330/09 RMK AO2
14837KMSN MSN20090630055013806/30/09 05:50:31  5-MIN KMSN 301150Z 34008KT 10SM OVC031 16/11 A2966 1100 72 1500 330/08 RMK AO2 SLP042 60000 T01560106 10167 20150 53001
14837KMSN MSN20090630055509706/30/09 05:55:31  5-MIN KMSN 301155Z 33008KT 10SM OVC031 16/11 A2966 1110 72 1500 330/08 RMK AO2
14837KMSN MSN20090630060009706/30/09 06:00:31  5-MIN KMSN 301200Z 33008KT 10SM OVC031 16/11 A2966 1100 72 1500 330/08 RMK AO2
14837KMSN MSN20090630060509706/30/09 06:05:31  5-MIN KMSN 301205Z 33009KT 10SM OVC031 16/11 A2966 1110 72 1500 330/09 RMK AO2
14837KMSN MSN20090630061010306/30/09 06:10:31  5-MIN KMSN 301210Z 32007G14KT 10SM OVC031 16/11 A2966 1110 72 1500 320/07G14 RMK AO2
14837KMSN MSN20090630061509706/30/09 06:15:31  5-MIN KMSN 301215Z 33008KT 10SM OVC031 16/11 A2966 1110 72 1500 330/08 RMK AO2
14837KMSN MSN20090630062009706/30/09 06:20:31  5-MIN KMSN 301220Z 33008KT 10SM OVC031 16/11 A2966 1110 72 1500 330/08 RMK AO2
14837KMSN MSN20090630062509706/30/09 06:25:31  5-MIN KMSN 301225Z 32008KT 10SM OVC033 16/11 A2966 1110 72 1500 320/08 RMK AO2
14837KMSN MSN20090630063010306/30/09 06:30:31  5-MIN KMSN 301230Z 31005G15KT 10SM OVC033 16/11 A2966 1110 72 1500 310/05G15 RMK AO2
14837KMSN MSN20090630063510306/30/09 06:35:31  5-MIN KMSN 301235Z 32006G15KT 10SM OVC033 16/11 A2966 1100 72 1500 320/06G15 RMK AO2
14837KMSN MSN20090630064009706/30/09 06:40:31  5-MIN KMSN 301240Z 33006KT 10SM OVC033 16/11 A2966 1110 69 1500 320/06 RMK AO2
14837KMSN MSN20090630064509706/30/09 06:45:31  5-MIN KMSN 301245Z 32005KT 10SM OVC033 16/11 A2966 1110 69 1500 320/05 RMK AO2
14837KMSN MSN20090630065011406/30/09 06:50:31  5-MIN KMSN 301250Z VRB06KT 10SM OVC033 16/11 A2966 1110 72 1500 VRB/06 RMK AO2 SLP041 T01610111
14837KMSN MSN20090630065509706/30/09 06:55:31  5-MIN KMSN 301255Z 32007KT 10SM OVC033 16/11 A2966 1110 69 1500 320/07 RMK AO2
14837KMSN MSN20090630070009706/30/09 07:00:31  5-MIN KMSN 301300Z 33009KT 10SM OVC033 16/11 A2966 1110 69 1500 330/09 RMK AO2
14837KMSN MSN20090630070509706/30/09 07:05:31  5-MIN KMSN 301305Z 32008KT 10SM OVC031 16/11 A2966 1110 69 1500 320/08 RMK AO2
14837KMSN MSN20090630071009706/30/09 07:10:31  5-MIN KMSN 301310Z 32006KT 10SM OVC029 16/11 A2966 1110 72 1500 320/06 RMK AO2
14837KMSN MSN20090630071509706/30/09 07:15:31  5-MIN KMSN 301315Z 33007KT 10SM OVC029 16/11 A2966 1100 72 1500 330/07 RMK AO2
14837KMSN MSN20090630072010406/30/09 07:20:31  5-MIN KMSN 301320Z 34010KT 10SM BKN029 OVC046 16/11 A2966 1100 69 1500 340/10 RMK AO2
14837KMSN MSN20090630072511006/30/09 07:25:31  5-MIN KMSN 301325Z 33012G17KT 10SM BKN029 OVC046 16/11 A2966 1100 69 1500 320/12G17 RMK AO2
14837KMSN MSN20090630073011006/30/09 07:30:31  5-MIN KMSN 301330Z 33007G17KT 10SM SCT029 OVC044 16/11 A2966 1100 69 1500 330/07G17 RMK AO2
14837KMSN MSN20090630073510406/30/09 07:35:31  5-MIN KMSN 301335Z 31008KT 10SM BKN029 OVC044 16/11 A2967 1100 72 1500 310/08 RMK AO2
14837KMSN MSN20090630074010406/30/09 07:40:31  5-MIN KMSN 301340Z 33010KT 10SM BKN029 OVC044 16/11 A2966 1100 69 1500 330/10 RMK AO2
14837KMSN MSN20090630074510406/30/09 07:45:31  5-MIN KMSN 301345Z 31009KT 10SM SCT029 OVC044 16/11 A2966 1100 72 1500 310/09 RMK AO2
14837KMSN MSN20090630075012706/30/09 07:50:31  5-MIN KMSN 301350Z 32011G17KT 10SM SCT025 OVC041 16/11 A2966 1100 72 1500 320/11G17 RMK AO2 SLP043 T01610111
14837KMSN MSN20090630075511006/30/09 07:55:31  5-MIN KMSN 301355Z 33008G17KT 10SM FEW025 OVC041 16/11 A2966 1100 72 1500 320/08G17 RMK AO2
14837KMSN MSN20090630080011106/30/09 08:00:31  5-MIN KMSN 301400Z 33008KT 10SM FEW025 SCT030 OVC041 16/11 A2967 1100 72 1500 320/08 RMK AO2
14837KMSN MSN20090630080511106/30/09 08:05:31  5-MIN KMSN 301405Z 32008KT 10SM SCT025 BKN030 OVC041 16/11 A2966 1100 69 1500 320/08 RMK AO2
14837KMSN MSN20090630081011006/30/09 08:10:31  5-MIN KMSN 301410Z 31007G14KT 10SM SCT025 OVC039 16/11 A2966 1100 72 1500 310/07G14 RMK AO2
14837KMSN MSN20090630081511106/30/09 08:15:31  5-MIN KMSN 301415Z 31008KT 10SM FEW025 SCT032 OVC039 17/11 A2967 1100 69 1600 310/08 RMK AO2
14837KMSN MSN20090630082011106/30/09 08:20:31  5-MIN KMSN 301420Z 33007KT 10SM FEW025 SCT030 OVC039 16/11 A2967 1100 72 1500 330/07 RMK AO2
14837KMSN MSN20090630082511106/30/09 08:25:31  5-MIN KMSN 301425Z 33010KT 10SM FEW023 BKN030 OVC041 17/11 A2966 1100 69 1600 330/10 RMK AO2
14837KMSN MSN20090630083011106/30/09 08:30:31  5-MIN KMSN 301430Z 30008KT 10SM FEW023 SCT030 OVC041 17/11 A2966 1100 69 1600 300/08 RMK AO2
14837KMSN MSN20090630083510406/30/09 08:35:31  5-MIN KMSN 301435Z 33008KT 10SM FEW026 OVC041 17/11 A2966 1100 69 1600 330/08 RMK AO2
14837KMSN MSN20090630084011106/30/09 08:40:31  5-MIN KMSN 301440Z 31007KT 10SM SCT028 SCT033 OVC041 17/11 A2966 1100 69 1600 310/07 RMK AO2
14837KMSN MSN20090630084511106/30/09 08:45:31  5-MIN KMSN 301445Z VRB05KT 10SM FEW026 BKN033 OVC041 17/11 A2966 1100 69 1600 VRB/05 RMK AO2
14837KMSN MSN20090630085010406/30/09 08:50:31  5-MIN KMSN 301450Z 30007KT 10SM BKN029 OVC041 16/11 A2966 1110 72 1500 300/07 RMK AO2
14837KMSN MSN20090630085511106/30/09 08:55:31  5-MIN KMSN 301455Z 32005KT 10SM BKN027 BKN034 OVC041 16/11 A2966 1110 72 1500 320/05 RMK AO2
14837KMSN MSN20090630090011106/30/09 09:00:31  5-MIN KMSN 301500Z 30007KT 10SM BKN027 BKN034 OVC041 16/11 A2966 1100 72 1500 300/07 RMK AO2
14837KMSN MSN20090630090510406/30/09 09:05:31  5-MIN KMSN 301505Z 30007KT 10SM BKN025 OVC031 16/11 A2966 1100 74 1500 300/07 RMK AO2
14837KMSN MSN20090630091009706/30/09 09:10:31  5-MIN KMSN 301510Z 28007KT 10SM OVC025 16/11 A2966 1100 74 1500 280/07 RMK AO2
14837KMSN MSN20090630091509706/30/09 09:15:31  5-MIN KMSN 301515Z 29007KT 10SM OVC027 16/11 A2966 1100 74 1500 290/07 RMK AO2
14837KMSN MSN20090630092012006/30/09 09:20:31  5-MIN KMSN 301520Z 31008KT 280V340 10SM BKN024 OVC029 16/12 A2966 1100 77 1500 310/08 280V340 RMK AO2
14837KMSN MSN20090630092512606/30/09 09:25:31  5-MIN KMSN 301525Z 30009G14KT 260V330 10SM BKN024 OVC031 16/12 A2967 1100 77 1500 300/09G14 260V330 RMK AO2
14837KMSN MSN20090630093012606/30/09 09:30:31  5-MIN KMSN 301530Z 31007G14KT 290V350 10SM SCT022 OVC028 16/11 A2967 1100 74 1500 310/07G14 290V350 RMK AO2
14837KMSN MSN20090630093511106/30/09 09:35:31  5-MIN KMSN 301535Z 31009KT 10SM SCT022 BKN028 OVC034 16/12 A2967 1100 75 1500 310/09 RMK AO2
14837KMSN MSN20090630094011106/30/09 09:40:31  5-MIN KMSN 301540Z 31009KT 10SM SCT022 BKN028 OVC042 16/11 A2967 1100 72 1500 310/09 RMK AO2
14837KMSN MSN20090630094511106/30/09 09:45:31  5-MIN KMSN 301545Z 33006KT 10SM FEW022 BKN035 OVC042 16/11 A2966 1100 72 1500 330/06 RMK AO2
14837KMSN MSN20090630095012806/30/09 09:50:31  5-MIN KMSN 301550Z 32010KT 10SM SCT022 BKN035 OVC042 16/11 A2966 1100 72 1500 320/10 RMK AO2 SLP043 T01610111
14837KMSN MSN20090630095511706/30/09 09:55:31  5-MIN KMSN 301555Z 32005G14KT 10SM SCT026 SCT035 OVC044 16/11 A2967 1100 72 1500 320/05G14 RMK AO2
14837KMSN MSN20090630100011106/30/09 10:00:31  5-MIN KMSN 301600Z 32007KT 10SM SCT024 BKN035 OVC044 17/12 A2967 1100 72 1600 320/07 RMK AO2
14837KMSN MSN20090630100511106/30/09 10:05:31  5-MIN KMSN 301605Z 31008KT 10SM BKN024 BKN035 OVC044 16/12 A2967 1100 75 1500 310/08 RMK AO2
14837KMSN MSN20090630101011106/30/09 10:10:31  5-MIN KMSN 301610Z 32009KT 10SM BKN024 BKN032 OVC044 16/12 A2967 1100 75 1500 320/09 RMK AO2
14837KMSN MSN20090630101511706/30/09 10:15:31  5-MIN KMSN 301615Z 32011G15KT 10SM SCT024 BKN034 OVC044 17/12 A2967 1100 72 1600 320/11G15 RMK AO2
14837KMSN MSN20090630102013306/30/09 10:20:31  5-MIN KMSN 301620Z 31009G15KT 270V340 10SM FEW024 BKN034 OVC042 16/11 A2967 1100 72 1500 310/09G15 270V340 RMK AO2
14837KMSN MSN20090630102511106/30/09 10:25:31  5-MIN KMSN 301625Z 31007KT 10SM FEW024 SCT030 OVC040 17/12 A2967 1100 72 1600 310/07 RMK AO2
14837KMSN MSN20090630103011106/30/09 10:30:31  5-MIN KMSN 301630Z 31009KT 10SM SCT024 BKN033 OVC040 17/11 A2967 1100 69 1600 310/09 RMK AO2
14837KMSN MSN20090630103511706/30/09 10:35:31  5-MIN KMSN 301635Z 32007G15KT 10SM SCT024 BKN033 OVC040 17/11 A2967 1100 69 1600 320/07G15 RMK AO2
14837KMSN MSN20090630104011706/30/09 10:40:31  5-MIN KMSN 301640Z 32009G15KT 10SM SCT026 BKN033 OVC040 16/11 A2967 1090 72 1500 320/09G15 RMK AO2
14837KMSN MSN20090630104511106/30/09 10:45:31  5-MIN KMSN 301645Z 31008KT 10SM SCT023 BKN030 OVC040 16/12 A2967 1090 75 1500 310/08 RMK AO2
14837KMSN MSN20090630105011106/30/09 10:50:31  5-MIN KMSN 301650Z 32006KT 10SM FEW023 BKN029 OVC034 16/11 A2967 1090 72 1500 310/06 RMK AO2
14837KMSN MSN20090630105510406/30/09 10:55:31  5-MIN KMSN 301655Z 31008KT 10SM BKN025 OVC032 17/12 A2967 1090 75 1600 310/08 RMK AO2
14837KMSN MSN20090630110011106/30/09 11:00:31  5-MIN KMSN 301700Z 32009KT 10SM FEW021 BKN028 OVC035 17/12 A2967 1090 69 1600 320/09 RMK AO2
14837KMSN MSN20090630110511106/30/09 11:05:31  5-MIN KMSN 301705Z 30006KT 10SM FEW021 SCT028 OVC037 17/12 A2967 1100 72 1600 300/06 RMK AO2
14837KMSN MSN20090630111011706/30/09 11:10:31  5-MIN KMSN 301710Z 31009G14KT 10SM SCT022 BKN035 OVC042 17/12 A2967 1100 72 1600 310/09G14 RMK AO2
14837KMSN MSN20090630111511706/30/09 11:15:31  5-MIN KMSN 301715Z 31008G14KT 10SM SCT022 BKN027 OVC039 17/12 A2967 1100 72 1600 310/08G14 RMK AO2
14837KMSN MSN20090630112011706/30/09 11:20:31  5-MIN KMSN 301720Z 30009G14KT 10SM BKN024 BKN030 OVC039 17/12 A2967 1100 72 1600 300/09G14 RMK AO2
14837KMSN MSN20090630112511706/30/09 11:25:31  5-MIN KMSN 301725Z 31011G14KT 10SM FEW021 BKN026 OVC038 17/12 A2967 1100 69 1700 310/11G14 RMK AO2
14837KMSN MSN20090630113011706/30/09 11:30:31  5-MIN KMSN 301730Z 31008G14KT 10SM SCT025 BKN031 OVC040 17/12 A2967 1100 69 1700 310/08G14 RMK AO2
14837KMSN MSN20090630113511706/30/09 11:35:31  5-MIN KMSN 301735Z 31007G15KT 10SM FEW021 BKN031 OVC040 17/12 A2967 1100 69 1700 310/07G15 RMK AO2
14837KMSN MSN20090630114010406/30/09 11:40:31  5-MIN KMSN 301740Z 34010KT 10SM SCT026 OVC037 17/12 A2967 1100 69 1700 340/10 RMK AO2
14837KMSN MSN20090630114510406/30/09 11:45:31  5-MIN KMSN 301745Z 31011KT 10SM BKN028 OVC039 17/12 A2967 1100 72 1600 310/11 RMK AO2
14837KMSN MSN20090630115011106/30/09 11:50:31  5-MIN KMSN 301750Z 32008KT 10SM FEW023 BKN030 OVC039 17/12 A2967 1100 72 1600 320/08 RMK AO2
14837KMSN MSN20090630115511106/30/09 11:55:31  5-MIN KMSN 301755Z 32007KT 10SM SCT023 BKN030 OVC039 17/12 A2967 1100 72 1600 320/07 RMK AO2
14837KMSN MSN20090630120011706/30/09 12:00:31  5-MIN KMSN 301800Z 32012G16KT 10SM BKN023 BKN028 OVC039 17/12 A2967 1090 75 1600 320/12G16 RMK AO2
14837KMSN MSN20090630120511706/30/09 12:05:31  5-MIN KMSN 301805Z 33010G16KT 10SM BKN021 BKN028 OVC041 17/12 A2967 1090 72 1600 330/10G16 RMK AO2
14837KMSN MSN20090630121011106/30/09 12:10:31  5-MIN KMSN 301810Z 32006KT 10SM SCT021 BKN028 OVC047 17/12 A2967 1100 72 1600 320/06 RMK AO2
14837KMSN MSN20090630121511106/30/09 12:15:31  5-MIN KMSN 301815Z 30008KT 10SM SCT021 BKN037 OVC045 17/12 A2967 1100 72 1700 300/08 RMK AO2
14837KMSN MSN20090630122013306/30/09 12:20:31  5-MIN KMSN 301820Z 30008G15KT 270V330 10SM FEW021 SCT027 OVC045 17/12 A2967 1100 69 1700 300/08G15 270V330 RMK AO2
14837KMSN MSN20090630122511706/30/09 12:25:31  5-MIN KMSN 301825Z VRB06G15KT 10SM FEW021 SCT035 OVC045 17/12 A2967 1100 69 1700 VRB/06G15 RMK AO2
14837KMSN MSN20090630123011106/30/09 12:30:31  5-MIN KMSN 301830Z 31009KT 10SM FEW019 SCT027 OVC045 18/12 A2967 1100 67 1700 310/09 RMK AO2
14837KMSN MSN20090630123510406/30/09 12:35:31  5-MIN KMSN 301835Z 32009KT 10SM SCT025 OVC045 17/11 A2967 1100 69 1600 320/09 RMK AO2
14837KMSN MSN20090630124010406/30/09 12:40:31  5-MIN KMSN 301840Z 31007KT 10SM BKN025 OVC045 17/12 A2967 1100 72 1600 310/07 RMK AO2
14837KMSN MSN20090630124510406/30/09 12:45:31  5-MIN KMSN 301845Z 33009KT 10SM BKN027 OVC045 17/12 A2967 1090 72 1600 330/09 RMK AO2
14837KMSN MSN20090630125012106/30/09 12:50:31  5-MIN KMSN 301850Z 32009KT 10SM BKN027 OVC045 17/11 A2967 1090 69 1600 320/09 RMK AO2 SLP046 T01670111
14837KMSN MSN20090630125509706/30/09 12:55:31  5-MIN KMSN 301855Z 33007KT 10SM OVC027 17/11 A2967 1090 69 1600 330/07 RMK AO2
14837KMSN MSN20090630130009706/30/09 13:00:31  5-MIN KMSN 301900Z 32009KT 10SM OVC027 17/11 A2967 1090 69 1600 320/09 RMK AO2
14837KMSN MSN20090630130510306/30/09 13:05:31  5-MIN KMSN 301905Z 32010G16KT 10SM OVC027 16/11 A2968 1090 72 1500 320/10G16 RMK AO2
14837KMSN MSN20090630131010306/30/09 13:10:31  5-MIN KMSN 301910Z 31009G16KT 10SM OVC027 16/11 A2968 1090 72 1500 310/09G16 RMK AO2
14837KMSN MSN20090630131509706/30/09 13:15:31  5-MIN KMSN 301915Z 31008KT 10SM OVC025 16/11 A2968 1090 72 1500 310/08 RMK AO2
14837KMSN MSN20090630132010306/30/09 13:20:31  5-MIN KMSN 301920Z 30009G14KT 10SM OVC025 17/11 A2968 1090 67 1600 300/09G14 RMK AO2
14837KMSN MSN20090630132509706/30/09 13:25:31  5-MIN KMSN 301925Z 32008KT 10SM OVC027 17/11 A2968 1090 69 1600 320/08 RMK AO2
14837KMSN MSN20090630133009706/30/09 13:30:31  5-MIN KMSN 301930Z 33007KT 10SM OVC029 17/11 A2968 1090 69 1600 330/07 RMK AO2
14837KMSN MSN20090630133510406/30/09 13:35:31  5-MIN KMSN 301935Z 32008KT 10SM BKN029 OVC033 17/11 A2968 1090 69 1600 320/08 RMK AO2
14837KMSN MSN20090630134011006/30/09 13:40:31  5-MIN KMSN 301940Z 33008G14KT 10SM BKN028 OVC033 17/11 A2968 1090 69 1600 320/08G14 RMK AO2
14837KMSN MSN20090630134510306/30/09 13:45:31  5-MIN KMSN 301945Z 32008G14KT 10SM OVC030 17/11 A2968 1090 69 1600 320/08G14 RMK AO2
14837KMSN MSN20090630135012706/30/09 13:50:31  5-MIN KMSN 301950Z 33009G16KT 10SM BKN028 OVC033 17/11 A2968 1090 67 1600 330/09G16 RMK AO2 SLP049 T01670106
14837KMSN MSN20090630135511006/30/09 13:55:31  5-MIN KMSN 301955Z 31008G16KT 10SM BKN028 OVC033 17/11 A2968 1090 69 1600 310/08G16 RMK AO2
14837KMSN MSN20090630140010306/30/09 14:00:31  5-MIN KMSN 302000Z 31010G16KT 10SM OVC028 16/11 A2968 1080 72 1500 310/10G16 RMK AO2
14837KMSN MSN20090630140510306/30/09 14:05:31  5-MIN KMSN 302005Z 31010G18KT 10SM OVC026 16/11 A2968 1080 69 1500 310/10G18 RMK AO2
14837KMSN MSN20090630141010306/30/09 14:10:31  5-MIN KMSN 302010Z 32009G18KT 10SM OVC026 16/11 A2969 1080 72 1500 320/09G18 RMK AO2
14837KMSN MSN20090630141510306/30/09 14:15:31  5-MIN KMSN 302015Z 33006G16KT 10SM OVC026 16/11 A2968 1080 72 1500 330/06G16 RMK AO2
14837KMSN MSN20090630142010406/30/09 14:20:31  5-MIN KMSN 302020Z 32007KT 10SM BKN026 OVC032 16/12 A2968 1080 75 1500 320/07 RMK AO2
14837KMSN MSN20090630142510406/30/09 14:25:31  5-MIN KMSN 302025Z VRB05KT 10SM BKN026 OVC032 17/12 A2968 1080 72 1600 VRB/05 RMK AO2
14837KMSN MSN20090630143010406/30/09 14:30:31  5-MIN KMSN 302030Z VRB06KT 10SM SCT026 OVC034 17/12 A2968 1090 69 1600 VRB/06 RMK AO2
14837KMSN MSN20090630143510406/30/09 14:35:31  5-MIN KMSN 302035Z 31008KT 10SM SCT026 OVC034 17/12 A2968 1090 69 1600 310/08 RMK AO2
14837KMSN MSN20090630144010406/30/09 14:40:31  5-MIN KMSN 302040Z 33006KT 10SM SCT028 OVC036 17/11 A2968 1090 67 1600 330/06 RMK AO2
14837KMSN MSN20090630144510406/30/09 14:45:31  5-MIN KMSN 302045Z 32008KT 10SM FEW028 OVC036 17/12 A2968 1090 69 1600 320/08 RMK AO2
14837KMSN MSN20090630145013306/30/09 14:50:31  5-MIN KMSN 302050Z 32009G14KT 10SM FEW028 OVC036 18/11 A2968 1090 64 1700 320/09G14 RMK AO2 SLP049 T01780111 57001
14837KMSN MSN20090630145510406/30/09 14:55:31  5-MIN KMSN 302055Z 33007KT 10SM FEW030 OVC039 17/12 A2968 1090 69 1600 330/07 RMK AO2
14837KMSN MSN20090630150010406/30/09 15:00:31  5-MIN KMSN 302100Z 30006KT 10SM SCT030 OVC039 18/12 A2968 1090 67 1700 300/06 RMK AO2
14837KMSN MSN20090630150510406/30/09 15:05:31  5-MIN KMSN 302105Z VRB06KT 10SM SCT028 OVC039 18/11 A2968 1090 64 1700 VRB/06 RMK AO2
14837KMSN MSN20090630151010406/30/09 15:10:31  5-MIN KMSN 302110Z 33009KT 10SM SCT028 OVC039 18/11 A2968 1090 64 1700 330/09 RMK AO2
14837KMSN MSN20090630151510406/30/09 15:15:31  5-MIN KMSN 302115Z 33006KT 10SM SCT028 OVC039 17/11 A2968 1090 67 1600 320/06 RMK AO2
14837KMSN MSN20090630152010406/30/09 15:20:31  5-MIN KMSN 302120Z 33008KT 10SM SCT028 OVC039 17/12 A2968 1080 69 1600 330/08 RMK AO2
14837KMSN MSN20090630152510406/30/09 15:25:31  5-MIN KMSN 302125Z 34008KT 10SM SCT028 OVC039 17/11 A2969 1080 69 1600 340/08 RMK AO2
14837KMSN MSN20090630153010406/30/09 15:30:31  5-MIN KMSN 302130Z 34007KT 10SM SCT028 OVC039 17/11 A2969 1080 69 1600 330/07 RMK AO2
14837KMSN MSN20090630153510406/30/09 15:35:31  5-MIN KMSN 302135Z 33008KT 10SM SCT028 OVC039 17/11 A2969 1080 69 1600 330/08 RMK AO2
14837KMSN MSN20090630154010406/30/09 15:40:31  5-MIN KMSN 302140Z 33008KT 10SM SCT028 OVC039 17/11 A2969 1080 69 1600 330/08 RMK AO2
14837KMSN MSN20090630154510406/30/09 15:45:31  5-MIN KMSN 302145Z 32007KT 10SM SCT028 OVC039 17/11 A2969 1080 69 1600 310/07 RMK AO2
14837KMSN MSN20090630155012106/30/09 15:50:31  5-MIN KMSN 302150Z 32007KT 10SM SCT028 OVC039 17/11 A2969 1080 69 1600 320/07 RMK AO2 SLP053 T01670111
14837KMSN MSN20090630155509706/30/09 15:55:31  5-MIN KMSN 302155Z 31009KT 10SM OVC034 17/11 A2969 1080 69 1600 310/09 RMK AO2
14837KMSN MSN20090630160009706/30/09 16:00:31  5-MIN KMSN 302200Z 32006KT 10SM OVC034 17/11 A2969 1080 69 1600 320/06 RMK AO2
14837KMSN MSN20090630160509706/30/09 16:05:31  5-MIN KMSN 302205Z 31006KT 10SM OVC036 17/11 A2969 1080 69 1600 300/06 RMK AO2
14837KMSN MSN20090630161009706/30/09 16:10:31  5-MIN KMSN 302210Z 29006KT 10SM OVC036 17/11 A2969 1080 69 1600 290/06 RMK AO2
14837KMSN MSN20090630161509706/30/09 16:15:31  5-MIN KMSN 302215Z 29005KT 10SM OVC036 17/11 A2969 1080 69 1600 290/05 RMK AO2
14837KMSN MSN20090630162010406/30/09 16:20:31  5-MIN KMSN 302220Z 30006KT 10SM SCT030 OVC036 17/11 A2969 1080 69 1600 300/06 RMK AO2
14837KMSN MSN20090630162510406/30/09 16:25:31  5-MIN KMSN 302225Z 28006KT 10SM BKN030 OVC036 17/11 A2969 1080 69 1600 280/06 RMK AO2
14837KMSN MSN20090630163010406/30/09 16:30:31  5-MIN KMSN 302230Z 30007KT 10SM BKN028 OVC036 17/11 A2969 1070 69 1600 300/07 RMK AO2
14837KMSN MSN20090630163510406/30/09 16:35:31  5-MIN KMSN 302235Z 30007KT 10SM BKN028 OVC036 16/11 A2969 1070 72 1500 300/07 RMK AO2
14837KMSN MSN20090630164010406/30/09 16:40:31  5-MIN KMSN 302240Z 31006KT 10SM BKN028 OVC034 16/11 A2969 1070 72 1500 310/06 RMK AO2
14837KMSN MSN20090630164509706/30/09 16:45:31  5-MIN KMSN 302245Z 31008KT 10SM OVC028 16/11 A2969 1070 72 1500 310/08 RMK AO2
14837KMSN MSN20090630165011406/30/09 16:50:31  5-MIN KMSN 302250Z 30008KT 10SM OVC028 16/11 A2970 1070 69 1500 300/08 RMK AO2 SLP054 T01610106
14837KMSN MSN20090630165509706/30/09 16:55:31  5-MIN KMSN 302255Z 31005KT 10SM OVC028 16/11 A2970 1070 72 1500 310/05 RMK AO2
14837KMSN MSN20090630170009706/30/09 17:00:31  5-MIN KMSN 302300Z 32005KT 10SM OVC028 16/11 A2970 1070 72 1500 320/05 RMK AO2
14837KMSN MSN20090630170509706/30/09 17:05:31  5-MIN KMSN 302305Z 31007KT 10SM OVC029 16/11 A2970 1070 72 1500 310/07 RMK AO2
14837KMSN MSN20090630171009706/30/09 17:10:31  5-MIN KMSN 302310Z 32006KT 10SM OVC029 16/11 A2970 1070 72 1500 320/06 RMK AO2
14837KMSN MSN20090630171509706/30/09 17:15:31  5-MIN KMSN 302315Z 32005KT 10SM OVC029 16/11 A2970 1070 72 1500 320/05 RMK AO2
14837KMSN MSN20090630172009706/30/09 17:20:31  5-MIN KMSN 302320Z 32005KT 10SM OVC029 16/11 A2970 1070 72 1500 320/05 RMK AO2
14837KMSN MSN20090630172509706/30/09 17:25:31  5-MIN KMSN 302325Z 32006KT 10SM OVC029 16/11 A2970 1070 72 1500 320/06 RMK AO2
14837KMSN MSN20090630173009706/30/09 17:30:31  5-MIN KMSN 302330Z 33007KT 10SM OVC029 16/11 A2970 1070 69 1500 320/07 RMK AO2
14837KMSN MSN20090630173509706/30/09 17:35:31  5-MIN KMSN 302335Z 32004KT 10SM OVC029 16/11 A2970 1070 69 1500 320/04 RMK AO2
14837KMSN MSN20090630174009706/30/09 17:40:31  5-MIN KMSN 302340Z 32004KT 10SM OVC031 16/11 A2970 1070 69 1500 320/04 RMK AO2
14837KMSN MSN20090630174509706/30/09 17:45:31  5-MIN KMSN 302345Z 33004KT 10SM OVC031 16/11 A2970 1070 69 1500 320/04 RMK AO2
14837KMSN MSN20090630175013206/30/09 17:50:31  5-MIN KMSN 302350Z 33004KT 10SM OVC031 16/11 A2970 1070 72 1500 330/04 RMK AO2 SLP056 T01610111 10178 20161 50003
14837KMSN MSN20090630175509706/30/09 17:55:31  5-MIN KMSN 302355Z 31006KT 10SM OVC031 16/11 A2970 1070 69 1500 310/06 RMK AO2
14837KMSN MSN20090630180009706/30/09 18:00:31  5-MIN KMSN 010000Z 33005KT 10SM OVC031 16/11 A2970 1070 69 1500 330/05 RMK AO2
14837KMSN MSN20090630180509706/30/09 18:05:31  5-MIN KMSN 010005Z 32007KT 10SM OVC031 16/11 A2970 1070 69 1500 320/07 RMK AO2
14837KMSN MSN20090630181009706/30/09 18:10:31  5-MIN KMSN 010010Z 32005KT 10SM OVC029 16/11 A2970 1070 69 1500 310/05 RMK AO2
14837KMSN MSN20090630181509706/30/09 18:15:31  5-MIN KMSN 010015Z 32008KT 10SM OVC027 16/11 A2970 1070 69 1500 320/08 RMK AO2
14837KMSN MSN20090630182010406/30/09 18:20:31  5-MIN KMSN 010020Z 32007KT 10SM BKN025 OVC032 16/11 A2970 1060 72 1500 320/07 RMK AO2
14837KMSN MSN20090630182509706/30/09 18:25:31  5-MIN KMSN 010025Z 33007KT 10SM OVC027 16/11 A2970 1060 74 1400 330/07 RMK AO2
14837KMSN MSN20090630183009706/30/09 18:30:31  5-MIN KMSN 010030Z 33010KT 10SM OVC027 16/11 A2971 1060 74 1400 330/10 RMK AO2
14837KMSN MSN20090630183510306/30/09 18:35:31  5-MIN KMSN 010035Z 32008G17KT 10SM OVC027 16/11 A2971 1060 72 1400 320/08G17 RMK AO2
14837KMSN MSN20090630184010306/30/09 18:40:31  5-MIN KMSN 010040Z 32007G17KT 10SM OVC029 16/11 A2971 1060 74 1400 320/07G17 RMK AO2
14837KMSN MSN20090630184509706/30/09 18:45:31  5-MIN KMSN 010045Z 33008KT 10SM OVC029 16/11 A2971 1060 74 1400 330/08 RMK AO2
14837KMSN MSN20090630185011406/30/09 18:50:31  5-MIN KMSN 010050Z 32007KT 10SM OVC029 16/11 A2971 1060 74 1400 320/07 RMK AO2 SLP059 T01560111
14837KMSN MSN20090630185510406/30/09 18:55:31  5-MIN KMSN 010055Z 33007KT 10SM FEW027 OVC030 15/11 A2971 1060 77 1300 320/07 RMK AO2
14837KMSN MSN20090630190010406/30/09 19:00:31  5-MIN KMSN 010100Z 33008KT 10SM FEW027 OVC030 15/11 A2971 1060 77 1300 330/08 RMK AO2
14837KMSN MSN20090630190510406/30/09 19:05:31  5-MIN KMSN 010105Z 32007KT 10SM FEW027 OVC030 15/11 A2971 1060 77 1300 320/07 RMK AO2
14837KMSN MSN20090630191011006/30/09 19:10:31  5-MIN KMSN 010110Z 31010G14KT 10SM FEW027 OVC030 15/11 A2971 1060 77 1300 310/10G14 RMK AO2
14837KMSN MSN20090630191510906/30/09 19:15:31  5-MIN KMSN 010115Z 32010G14KT 7SM FEW027 OVC030 15/11 A2971 1060 77 1300 320/10G14 RMK AO2
14837KMSN MSN20090630192012906/30/09 19:20:31  5-MIN KMSN 010120Z 32009KT 5SM -RA BR FEW027 BKN030 OVC038 14/12 A2971 1060 86 1200 320/09 RMK AO2 RAB16 P0000
14837KMSN MSN20090630192513506/30/09 19:25:31  5-MIN KMSN 010125Z 32008G15KT 4SM -RA BR FEW027 BKN030 OVC038 14/12 A2971 1060 86 1200 320/08G15 RMK AO2 RAB16 P0000
14837KMSN MSN20090630193012906/30/09 19:30:31  5-MIN KMSN 010130Z 33007KT 5SM -RA BR SCT027 BKN030 OVC038 14/12 A2971 1060 90 1200 330/07 RMK AO2 RAB16 P0000
14837KMSN MSN20090630193512906/30/09 19:35:31  5-MIN KMSN 010135Z 32006KT 5SM -RA BR SCT027 BKN030 OVC038 14/12 A2971 1060 90 1200 320/06 RMK AO2 RAB16 P0001
14837KMSN MSN20090630194012206/30/09 19:40:31  5-MIN KMSN 010140Z 32006KT 5SM -RA BR SCT025 OVC030 13/12 A2971 1060 93 1100 320/06 RMK AO2 RAB16 P0001
14837KMSN MSN20090630194512206/30/09 19:45:31  5-MIN KMSN 010145Z 33005KT 6SM -RA BR SCT025 OVC030 13/12 A2971 1060 93 1100 330/05 RMK AO2 RAB16 P0001
14837KMSN MSN20090630195014306/30/09 19:50:31  5-MIN KMSN 010150Z 33005KT 9SM -RA FEW015 SCT025 OVC030 13/12 A2971 1060 93 1100 320/05 RMK AO2 RAB16 SLP061 P0001 T01330122
14837KMSN MSN20090630195511406/30/09 19:55:31  5-MIN KMSN 010155Z 32006KT 10SM -RA FEW023 OVC030 13/12 A2971 1060 93 1100 320/06 RMK AO2 P0000
14837KMSN MSN20090630200011406/30/09 20:00:31  5-MIN KMSN 010200Z 32006KT 10SM -RA SCT023 OVC030 13/12 A2971 1060 89 1100 320/06 RMK AO2 P0000
14837KMSN MSN20090630200511406/30/09 20:05:31  5-MIN KMSN 010205Z 33005KT 10SM -RA SCT023 OVC030 13/12 A2971 1060 89 1100 330/05 RMK AO2 P0000
14837KMSN MSN20090630201011606/30/09 20:10:31  5-MIN KMSN 010210Z 32004KT 10SM FEW021 OVC028 13/12 A2971 1060 89 1100 320/04 RMK AO2 RAE08 P0001
14837KMSN MSN20090630201511606/30/09 20:15:31  5-MIN KMSN 010215Z 33007KT 10SM FEW020 OVC030 13/12 A2971 1060 89 1100 330/07 RMK AO2 RAE08 P0001
14837KMSN MSN20090630202012306/30/09 20:20:31  5-MIN KMSN 010220Z 33005KT 10SM SCT018 BKN030 OVC045 13/12 A2971 1060 89 1100 330/05 RMK AO2 RAE08 P0001
14837KMSN MSN20090630202512306/30/09 20:25:31  5-MIN KMSN 010225Z 33003KT 10SM FEW018 BKN029 OVC055 13/12 A2972 1050 89 1100 330/03 RMK AO2 RAE08 P0001
14837KMSN MSN20090630203012306/30/09 20:30:31  5-MIN KMSN 010230Z 33005KT 10SM FEW018 BKN029 OVC060 13/12 A2972 1050 89 1100 330/05 RMK AO2 RAE08 P0001
14837KMSN MSN20090630203512306/30/09 20:35:31  5-MIN KMSN 010235Z 34006KT 10SM FEW018 BKN029 OVC060 13/12 A2972 1050 89 1100 340/06 RMK AO2 RAE08 P0001
14837KMSN MSN20090630204012306/30/09 20:40:31  5-MIN KMSN 010240Z 33006KT 10SM FEW018 BKN047 OVC060 13/12 A2972 1050 89 1100 330/06 RMK AO2 RAE08 P0001
14837KMSN MSN20090630204512306/30/09 20:45:31  5-MIN KMSN 010245Z 33005KT 10SM FEW018 BKN047 OVC060 13/12 A2972 1050 89 1100 330/05 RMK AO2 RAE08 P0001
14837KMSN MSN20090630205015206/30/09 20:50:31  5-MIN KMSN 010250Z 33005KT 10SM FEW020 BKN047 OVC060 13/12 A2972 1050 89 1100 330/05 RMK AO2 RAE08 SLP063 P0001 60002 T01330117 51007
14837KMSN MSN20090630205511106/30/09 20:55:31  5-MIN KMSN 010255Z 32004KT 10SM SCT020 BKN027 OVC060 13/12 A2972 1050 89 1100 320/04 RMK AO2
14837KMSN MSN20090630210011106/30/09 21:00:31  5-MIN KMSN 010300Z 33004KT 10SM BKN020 BKN047 OVC060 13/12 A2972 1050 89 1100 330/04 RMK AO2
14837KMSN MSN20090630210510406/30/09 21:05:31  5-MIN KMSN 010305Z 33005KT 10SM BKN022 OVC047 13/12 A2972 1050 89 1100 330/05 RMK AO2
14837KMSN MSN20090630211010406/30/09 21:10:31  5-MIN KMSN 010310Z 33005KT 10SM BKN022 OVC047 13/12 A2972 1050 89 1100 330/05 RMK AO2
14837KMSN MSN20090630211510406/30/09 21:15:31  5-MIN KMSN 010315Z 32004KT 10SM BKN022 OVC100 12/11 A2972 1050 93 1000 320/04 RMK AO2
14837KMSN MSN20090630212011106/30/09 21:20:31  5-MIN KMSN 010320Z 32003KT 10SM FEW019 BKN024 OVC100 13/11 A2972 1050 89 1100 320/03 RMK AO2
14837KMSN MSN20090630212511106/30/09 21:25:31  5-MIN KMSN 010325Z 32003KT 10SM SCT023 BKN039 OVC100 13/12 A2972 1050 93 1100 320/03 RMK AO2
14837KMSN MSN20090630213011106/30/09 21:30:31  5-MIN KMSN 010330Z 32003KT 10SM FEW023 BKN039 OVC100 13/12 A2972 1050 93 1100 320/03 RMK AO2
14837KMSN MSN20090630213511106/30/09 21:35:31  5-MIN KMSN 010335Z 32003KT 10SM FEW023 BKN039 OVC100 13/12 A2972 1050 93 1100 320/03 RMK AO2
14837KMSN MSN20090630214011106/30/09 21:40:31  5-MIN KMSN 010340Z 31003KT 10SM BKN039 BKN080 OVC100 13/12 A2972 1050 93 1100 310/03 RMK AO2
14837KMSN MSN20090630214511106/30/09 21:45:31  5-MIN KMSN 010345Z 31003KT 10SM FEW014 BKN037 OVC080 13/12 A2972 1050 89 1100 310/03 RMK AO2
14837KMSN MSN20090630215012806/30/09 21:50:31  5-MIN KMSN 010350Z 00000KT 10SM SCT014 BKN036 OVC080 13/12 A2972 1050 89 1100 000/00 RMK AO2 SLP064 T01330117
14837KMSN MSN20090630215511106/30/09 21:55:31  5-MIN KMSN 010355Z 00000KT 10SM FEW014 BKN042 OVC080 13/12 A2972 1050 89 1100 000/00 RMK AO2
14837KMSN MSN20090630220011106/30/09 22:00:31  5-MIN KMSN 010400Z 31004KT 10SM FEW014 SCT035 OVC042 13/12 A2972 1050 89 1100 310/04 RMK AO2
14837KMSN MSN20090630220511106/30/09 22:05:31  5-MIN KMSN 010405Z 32004KT 10SM FEW014 SCT035 OVC042 13/12 A2972 1050 89 1100 320/04 RMK AO2
14837KMSN MSN20090630221010406/30/09 22:10:31  5-MIN KMSN 010410Z 32004KT 10SM FEW014 OVC042 13/12 A2972 1050 89 1100 320/04 RMK AO2
14837KMSN MSN20090630221509706/30/09 22:15:31  5-MIN KMSN 010415Z 32005KT 10SM OVC042 13/12 A2972 1050 89 1100 310/05 RMK AO2
14837KMSN MSN20090630222009706/30/09 22:20:31  5-MIN KMSN 010420Z 31004KT 10SM OVC042 13/11 A2972 1050 86 1100 310/04 RMK AO2
14837KMSN MSN20090630222509706/30/09 22:25:31  5-MIN KMSN 010425Z 32004KT 10SM OVC042 13/11 A2972 1050 86 1100 320/04 RMK AO2
14837KMSN MSN20090630223010406/30/09 22:30:31  5-MIN KMSN 010430Z 32004KT 10SM FEW019 OVC042 13/12 A2972 1050 89 1100 320/04 RMK AO2
14837KMSN MSN20090630223510406/30/09 22:35:31  5-MIN KMSN 010435Z 31003KT 10SM SCT019 OVC042 13/12 A2972 1050 89 1100 310/03 RMK AO2
14837KMSN MSN20090630224010406/30/09 22:40:31  5-MIN KMSN 010440Z 32004KT 10SM BKN017 OVC042 13/12 A2972 1050 89 1100 310/04 RMK AO2
14837KMSN MSN20090630224510406/30/09 22:45:31  5-MIN KMSN 010445Z 31004KT 10SM BKN017 OVC042 13/12 A2972 1050 89 1100 310/04 RMK AO2
14837KMSN MSN20090630225012106/30/09 22:50:31  5-MIN KMSN 010450Z 32004KT 10SM BKN017 OVC042 13/12 A2972 1050 89 1100 320/04 RMK AO2 SLP062 T01330117
14837KMSN MSN20090630225510406/30/09 22:55:31  5-MIN KMSN 010455Z 33004KT 10SM BKN017 OVC042 13/12 A2972 1050 89 1100 330/04 RMK AO2
14837KMSN MSN20090630230010406/30/09 23:00:31  5-MIN KMSN 010500Z 33005KT 10SM BKN017 OVC040 13/12 A2971 1050 89 1100 330/05 RMK AO2
14837KMSN MSN20090630230510406/30/09 23:05:31  5-MIN KMSN 010505Z 31004KT 10SM BKN017 OVC041 13/12 A2971 1060 89 1100 310/04 RMK AO2
14837KMSN MSN20090630231011106/30/09 23:10:31  5-MIN KMSN 010510Z 32004KT 10SM BKN017 BKN041 OVC048 13/12 A2971 1060 89 1100 320/04 RMK AO2
14837KMSN MSN20090630231510406/30/09 23:15:31  5-MIN KMSN 010515Z 32004KT 10SM BKN017 OVC045 13/12 A2971 1060 89 1100 320/04 RMK AO2
14837KMSN MSN20090630232010406/30/09 23:20:31  5-MIN KMSN 010520Z 32005KT 10SM BKN017 OVC045 13/12 A2971 1060 89 1100 320/05 RMK AO2
14837KMSN MSN20090630232510406/30/09 23:25:31  5-MIN KMSN 010525Z 32004KT 10SM BKN017 OVC045 13/12 A2971 1060 89 1100 320/04 RMK AO2
14837KMSN MSN20090630233011106/30/09 23:30:31  5-MIN KMSN 010530Z 32004KT 10SM BKN015 BKN031 OVC046 13/12 A2971 1060 89 1100 320/04 RMK AO2
14837KMSN MSN20090630233511106/30/09 23:35:31  5-MIN KMSN 010535Z 32004KT 10SM BKN015 BKN033 OVC046 13/12 A2971 1060 89 1200 310/04 RMK AO2
14837KMSN MSN20090630234011106/30/09 23:40:31  5-MIN KMSN 010540Z 32005KT 10SM BKN015 BKN033 OVC044 13/12 A2971 1060 89 1100 320/05 RMK AO2
14837KMSN MSN20090630234510406/30/09 23:45:31  5-MIN KMSN 010545Z 31004KT 10SM BKN015 OVC033 13/12 A2971 1060 89 1200 310/04 RMK AO2
14837KMSN MSN20090630235015506/30/09 23:50:31  5-MIN KMSN 010550Z VRB04KT 10SM BKN015 OVC031 13/12 A2971 1060 89 1200 VRB/04 RMK AO2 SLP059 60002 T01330117 10161 20122 401780122 53006
14837KMSN MSN20090630235510406/30/09 23:55:31  5-MIN KMSN 010555Z 31004KT 10SM BKN015 OVC029 13/12 A2971 1060 89 1100 310/04 RMK AO2
