14837KMSN MSN20101109114509511/09/10 11:45:31  5-MIN KMSN 091745Z 12004KT 10SM CLR 17/06 A2992 870 47 1400 120/04 RMK AO2 $
14837KMSN MSN20101109115013011/09/10 11:50:31  5-MIN KMSN 091750Z 12004KT 10SM CLR 18/06 A2992 870 46 1400 120/04 RMK AO2 SLP133 T01780061 10183 20011 53007 $
14837KMSN MSN20101109115509511/09/10 11:55:31  5-MIN KMSN 091755Z 13005KT 10SM CLR 18/06 A2991 870 46 1400 130/05 RMK AO2 $
14837KMSN MSN20101109120009511/09/10 12:00:31  5-MIN KMSN 091800Z 13005KT 10SM CLR 18/06 A2991 870 42 1500 130/05 RMK AO2 $
14837KMSN MSN20101109120509911/09/10 12:05:31  5-MIN KMSN 091805Z 13005KT 10SM CLR 18/06 A2991 870 42 1500 130/05 RMK AO2 PNO $
14837KMSN MSN20101109121009911/09/10 12:10:31  5-MIN KMSN 091810Z 13006KT 10SM CLR 18/06 A2991 870 42 1500 130/06 RMK AO2 PNO $
14837KMSN MSN20101109121509911/09/10 12:15:31  5-MIN KMSN 091815Z 13006KT 10SM CLR 18/06 A2991 880 42 1500 130/06 RMK AO2 PNO $
14837KMSN MSN20101109122008711/09/10 12:20:31  5-MIN KMSN 091820Z 13006KT 10SM CLR A2991 M M M 130/06 RMK AO2 PNO $
14837KMSN MSN20101109122509311/09/10 12:25:31  5-MIN KMSN 091825Z 13006KT 10SM CLR 18/06 A2991 880 42 1500 130/06 RMK AO2
14837KMSN MSN20101109123010311/09/10 12:30:31  5-MIN KMSN 091830Z AUTO 13006KT 10SM CLR 18/06 A2991 880 42 1500 130/06 RMK AO2 TSNO
14837KMSN MSN20101109123510311/09/10 12:35:31  5-MIN KMSN 091835Z AUTO 13006KT 10SM CLR 18/06 A2991 880 42 1500 130/06 RMK AO2 TSNO
14837KMSN MSN20101109124010311/09/10 12:40:31  5-MIN KMSN 091840Z AUTO 13006KT 10SM CLR 18/06 A2991 880 42 1500 130/06 RMK AO2 TSNO
14837KMSN MSN20101109124511511/09/10 12:45:31  5-MIN KMSN 091845Z AUTO 13006KT 10SM CLR 18/06 A2991 880 42 1500 130/06 RMK AO2 PWINO TSNO PNO $
14837KMSN MSN20101109125012211/09/10 12:50:31  5-MIN KMSN 091850Z 13006KT 10SM CLR 18/06 A2991 880 42 1500 130/06 RMK AO2 SLP129 T01830056 PWINO PNO $
14837KMSN MSN20101109125509911/09/10 12:55:31  5-MIN KMSN 091855Z 12009KT 10SM CLR 19/07 A2991 880 44 1600 120/09 RMK AO2 PNO $
14837KMSN MSN20101109130009311/09/10 13:00:31  5-MIN KMSN 091900Z 11008KT 10SM CLR 19/07 A2991 880 44 1600 110/08 RMK AO2
14837KMSN MSN20101109130509311/09/10 13:05:31  5-MIN KMSN 091905Z 12010KT 10SM CLR 19/06 A2990 880 41 1600 120/10 RMK AO2
14837KMSN MSN20101109131010311/09/10 13:10:31  5-MIN KMSN 091910Z AUTO 12008KT 10SM CLR 19/06 A2990 880 41 1600 120/08 RMK AO2 TSNO
14837KMSN MSN20101109131509311/09/10 13:15:31  5-MIN KMSN 091915Z 11009KT 10SM CLR 19/07 A2990 880 43 1600 110/09 RMK AO2
14837KMSN MSN20101109132009311/09/10 13:20:31  5-MIN KMSN 091920Z 12009KT 10SM CLR 19/07 A2990 880 43 1600 120/09 RMK AO2
14837KMSN MSN20101109132509311/09/10 13:25:31  5-MIN KMSN 091925Z 15008KT 10SM CLR 19/07 A2990 880 43 1600 150/08 RMK AO2
14837KMSN MSN20101109133009311/09/10 13:30:31  5-MIN KMSN 091930Z 13008KT 10SM CLR 19/06 A2990 880 41 1600 130/08 RMK AO2
14837KMSN MSN20101109133509311/09/10 13:35:31  5-MIN KMSN 091935Z 14009KT 10SM CLR 20/07 A2990 880 41 1700 140/09 RMK AO2
14837KMSN MSN20101109134009311/09/10 13:40:31  5-MIN KMSN 091940Z 16007KT 10SM CLR 20/06 A2990 890 40 1700 160/07 RMK AO2
14837KMSN MSN20101109134509311/09/10 13:45:31  5-MIN KMSN 091945Z 16009KT 10SM CLR 19/06 A2990 890 41 1600 160/09 RMK AO2
14837KMSN MSN20101109135011011/09/10 13:50:31  5-MIN KMSN 091950Z 14008KT 10SM CLR 20/06 A2990 880 40 1700 140/08 RMK AO2 SLP126 T02000061
14837KMSN MSN20101109135509311/09/10 13:55:31  5-MIN KMSN 091955Z 17009KT 10SM CLR 20/06 A2990 890 40 1700 170/09 RMK AO2
14837KMSN MSN20101109140009311/09/10 14:00:31  5-MIN KMSN 092000Z 16008KT 10SM CLR 20/06 A2990 890 40 1700 160/08 RMK AO2
14837KMSN MSN20101109140509311/09/10 14:05:31  5-MIN KMSN 092005Z 15010KT 10SM CLR 20/07 A2990 890 41 1700 150/10 RMK AO2
14837KMSN MSN20101109141009311/09/10 14:10:31  5-MIN KMSN 092010Z 15011KT 10SM CLR 20/06 A2990 880 40 1700 150/11 RMK AO2
14837KMSN MSN20101109141509311/09/10 14:15:31  5-MIN KMSN 092015Z 14009KT 10SM CLR 20/06 A2990 880 40 1700 140/09 RMK AO2
14837KMSN MSN20101109142009311/09/10 14:20:31  5-MIN KMSN 092020Z 15006KT 10SM CLR 20/06 A2990 880 40 1700 150/06 RMK AO2
14837KMSN MSN20101109142509311/09/10 14:25:31  5-MIN KMSN 092025Z 14010KT 10SM CLR 20/07 A2990 880 41 1700 140/10 RMK AO2
14837KMSN MSN20101109143009311/09/10 14:30:31  5-MIN KMSN 092030Z 15009KT 10SM CLR 20/06 A2990 880 40 1700 150/09 RMK AO2
14837KMSN MSN20101109143509311/09/10 14:35:31  5-MIN KMSN 092035Z 15007KT 10SM CLR 20/07 A2990 880 41 1700 150/07 RMK AO2
14837KMSN MSN20101109144009311/09/10 14:40:31  5-MIN KMSN 092040Z 15010KT 10SM CLR 20/07 A2990 880 41 1700 150/10 RMK AO2
14837KMSN MSN20101109144509311/09/10 14:45:31  5-MIN KMSN 092045Z 16011KT 10SM CLR 20/06 A2990 880 40 1700 160/11 RMK AO2
14837KMSN MSN20101109145012211/09/10 14:50:31  5-MIN KMSN 092050Z 17008KT 10SM CLR 20/06 A2990 880 40 1700 170/08 RMK AO2 SLP129 6//// T02000061 58001
14837KMSN MSN20101109145509311/09/10 14:55:31  5-MIN KMSN 092055Z 16009KT 10SM CLR 20/07 A2990 880 41 1700 160/09 RMK AO2
14837KMSN MSN20101109150009311/09/10 15:00:31  5-MIN KMSN 092100Z 16010KT 10SM CLR 20/07 A2991 880 41 1700 160/10 RMK AO2
14837KMSN MSN20101109150509311/09/10 15:05:31  5-MIN KMSN 092105Z 14009KT 10SM CLR 20/06 A2991 880 40 1700 140/09 RMK AO2
14837KMSN MSN20101109151009311/09/10 15:10:31  5-MIN KMSN 092110Z 17008KT 10SM CLR 20/07 A2991 880 41 1700 170/08 RMK AO2
14837KMSN MSN20101109151509311/09/10 15:15:31  5-MIN KMSN 092115Z 17009KT 10SM CLR 20/07 A2991 880 41 1700 170/09 RMK AO2
14837KMSN MSN20101109152009311/09/10 15:20:31  5-MIN KMSN 092120Z 17009KT 10SM CLR 19/07 A2991 880 43 1600 170/09 RMK AO2
14837KMSN MSN20101109152509311/09/10 15:25:31  5-MIN KMSN 092125Z 17009KT 10SM CLR 19/07 A2991 880 43 1600 170/09 RMK AO2
14837KMSN MSN20101109153009311/09/10 15:30:31  5-MIN KMSN 092130Z 16007KT 10SM CLR 19/07 A2991 880 43 1600 160/07 RMK AO2
14837KMSN MSN20101109153509311/09/10 15:35:31  5-MIN KMSN 092135Z 17008KT 10SM CLR 19/07 A2991 870 43 1600 170/08 RMK AO2
14837KMSN MSN20101109154009311/09/10 15:40:31  5-MIN KMSN 092140Z 17007KT 10SM CLR 19/07 A2991 870 43 1600 170/07 RMK AO2
14837KMSN MSN20101109154509311/09/10 15:45:31  5-MIN KMSN 092145Z 17006KT 10SM CLR 19/07 A2991 870 44 1600 170/06 RMK AO2
14837KMSN MSN20101109155011011/09/10 15:50:31  5-MIN KMSN 092150Z 17008KT 10SM CLR 19/07 A2991 870 44 1600 170/08 RMK AO2 SLP131 T01890067
14837KMSN MSN20101109155509311/09/10 15:55:31  5-MIN KMSN 092155Z 16007KT 10SM CLR 19/07 A2991 870 44 1600 160/07 RMK AO2
14837KMSN MSN20101109160009311/09/10 16:00:31  5-MIN KMSN 092200Z 15007KT 10SM CLR 18/07 A2991 870 46 1500 150/07 RMK AO2
14837KMSN MSN20101109160509311/09/10 16:05:31  5-MIN KMSN 092205Z 16011KT 10SM CLR 18/07 A2991 870 46 1500 160/11 RMK AO2
14837KMSN MSN20101109161009311/09/10 16:10:31  5-MIN KMSN 092210Z 16008KT 10SM CLR 18/07 A2992 870 46 1500 160/08 RMK AO2
14837KMSN MSN20101109161509311/09/10 16:15:31  5-MIN KMSN 092215Z 16009KT 10SM CLR 18/07 A2992 870 48 1400 150/09 RMK AO2
14837KMSN MSN20101109162009311/09/10 16:20:31  5-MIN KMSN 092220Z 16007KT 10SM CLR 18/07 A2992 870 48 1400 160/07 RMK AO2
14837KMSN MSN20101109162509311/09/10 16:25:31  5-MIN KMSN 092225Z 16007KT 10SM CLR 18/07 A2992 870 48 1400 150/07 RMK AO2
14837KMSN MSN20101109163009311/09/10 16:30:31  5-MIN KMSN 092230Z 15006KT 10SM CLR 17/07 A2992 860 49 1400 150/06 RMK AO2
14837KMSN MSN20101109163509311/09/10 16:35:31  5-MIN KMSN 092235Z 15005KT 10SM CLR 17/07 A2992 860 51 1300 150/05 RMK AO2
14837KMSN MSN20101109164009311/09/10 16:40:31  5-MIN KMSN 092240Z 15005KT 10SM CLR 17/07 A2992 860 51 1300 150/05 RMK AO2
14837KMSN MSN20101109164509311/09/10 16:45:31  5-MIN KMSN 092245Z 15005KT 10SM CLR 16/07 A2992 860 53 1200 150/05 RMK AO2
14837KMSN MSN20101109165011011/09/10 16:50:31  5-MIN KMSN 092250Z 15005KT 10SM CLR 16/07 A2992 860 53 1200 150/05 RMK AO2 SLP136 T01610067
14837KMSN MSN20101109165509311/09/10 16:55:31  5-MIN KMSN 092255Z 15005KT 10SM CLR 17/07 A2993 860 51 1300 140/05 RMK AO2
14837KMSN MSN20101109170009311/09/10 17:00:31  5-MIN KMSN 092300Z 14004KT 10SM CLR 17/07 A2992 860 51 1300 140/04 RMK AO2
14837KMSN MSN20101109170509311/09/10 17:05:31  5-MIN KMSN 092305Z 14003KT 10SM CLR 15/06 A2992 860 55 1100 140/03 RMK AO2
14837KMSN MSN20101109171009311/09/10 17:10:31  5-MIN KMSN 092310Z 13004KT 10SM CLR 15/06 A2992 860 55 1100 130/04 RMK AO2
14837KMSN MSN20101109171509311/09/10 17:15:31  5-MIN KMSN 092315Z 13004KT 10SM CLR 14/06 A2992 860 57 1000 130/04 RMK AO2
14837KMSN MSN20101109172009311/09/10 17:20:31  5-MIN KMSN 092320Z 13005KT 10SM CLR 14/06 A2992 860 59 1000 130/05 RMK AO2
14837KMSN MSN20101109172509311/09/10 17:25:31  5-MIN KMSN 092325Z 13006KT 10SM CLR 14/06 A2993 860 59 1000 130/06 RMK AO2
14837KMSN MSN20101109173009311/09/10 17:30:31  5-MIN KMSN 092330Z 12005KT 10SM CLR 14/06 A2993 860 59 1000 120/05 RMK AO2
14837KMSN MSN20101109173509211/09/10 17:35:31  5-MIN KMSN 092335Z 12005KT 10SM CLR 13/06 A2993 860 61 900 120/05 RMK AO2
14837KMSN MSN20101109174009211/09/10 17:40:31  5-MIN KMSN 092340Z 13006KT 10SM CLR 13/06 A2993 850 63 800 130/06 RMK AO2
14837KMSN MSN20101109174509211/09/10 17:45:31  5-MIN KMSN 092345Z 12006KT 10SM CLR 13/06 A2993 850 61 900 120/06 RMK AO2
14837KMSN MSN20101109175012711/09/10 17:50:31  5-MIN KMSN 092350Z 11007KT 10SM CLR 13/06 A2993 850 61 900 110/07 RMK AO2 SLP140 T01330061 10200 20128 55003
14837KMSN MSN20101109175509211/09/10 17:55:31  5-MIN KMSN 092355Z 11009KT 10SM CLR 12/06 A2994 850 63 800 110/09 RMK AO2
14837KMSN MSN20101109180009211/09/10 18:00:31  5-MIN KMSN 100000Z 12010KT 10SM CLR 13/06 A2994 850 63 800 110/10 RMK AO2
14837KMSN MSN20101109180509211/09/10 18:05:31  5-MIN KMSN 100005Z 12009KT 10SM CLR 13/07 A2994 850 64 900 120/09 RMK AO2
14837KMSN MSN20101109181009311/09/10 18:10:31  5-MIN KMSN 100010Z 12009KT 10SM CLR 14/07 A2994 850 61 1000 120/09 RMK AO2
14837KMSN MSN20101109181509311/09/10 18:15:31  5-MIN KMSN 100015Z 13010KT 10SM CLR 14/06 A2994 850 59 1000 130/10 RMK AO2
14837KMSN MSN20101109182009311/09/10 18:20:31  5-MIN KMSN 100020Z 13009KT 10SM CLR 14/06 A2994 850 57 1000 130/09 RMK AO2
14837KMSN MSN20101109182509211/09/10 18:25:31  5-MIN KMSN 100025Z 12010KT 9SM CLR 14/06 A2994 850 59 1000 120/10 RMK AO2
14837KMSN MSN20101109183009211/09/10 18:30:31  5-MIN KMSN 100030Z 13009KT 9SM CLR 14/06 A2994 850 59 1000 130/09 RMK AO2
14837KMSN MSN20101109183509211/09/10 18:35:31  5-MIN KMSN 100035Z 13010KT 9SM CLR 14/06 A2994 850 57 1000 130/10 RMK AO2
14837KMSN MSN20101109184009111/09/10 18:40:31  5-MIN KMSN 100040Z 13009KT 9SM CLR 13/06 A2994 840 59 900 120/09 RMK AO2
14837KMSN MSN20101109184509111/09/10 18:45:31  5-MIN KMSN 100045Z 13010KT 9SM CLR 13/06 A2994 840 59 900 120/10 RMK AO2
14837KMSN MSN20101109185010911/09/10 18:50:31  5-MIN KMSN 100050Z 13009KT 10SM CLR 13/06 A2994 840 61 800 130/09 RMK AO2 SLP145 T01280056
14837KMSN MSN20101109185509111/09/10 18:55:31  5-MIN KMSN 100055Z 13009KT 8SM CLR 13/06 A2995 840 59 900 130/09 RMK AO2
14837KMSN MSN20101109190009111/09/10 19:00:31  5-MIN KMSN 100100Z 13009KT 8SM CLR 13/06 A2994 840 61 800 130/09 RMK AO2
14837KMSN MSN20101109190509111/09/10 19:05:31  5-MIN KMSN 100105Z 13007KT 8SM CLR 13/06 A2994 840 61 800 130/07 RMK AO2
14837KMSN MSN20101109191009111/09/10 19:10:31  5-MIN KMSN 100110Z 14007KT 8SM CLR 12/06 A2994 840 63 800 130/07 RMK AO2
14837KMSN MSN20101109191509111/09/10 19:15:31  5-MIN KMSN 100115Z 13008KT 8SM CLR 13/06 A2994 840 61 800 130/08 RMK AO2
14837KMSN MSN20101109192009111/09/10 19:20:31  5-MIN KMSN 100120Z 13006KT 8SM CLR 12/06 A2994 840 63 800 130/06 RMK AO2
14837KMSN MSN20101109192509111/09/10 19:25:31  5-MIN KMSN 100125Z 13007KT 8SM CLR 12/05 A2994 840 63 700 130/07 RMK AO2
14837KMSN MSN20101109193009111/09/10 19:30:31  5-MIN KMSN 100130Z 13006KT 8SM CLR 12/05 A2994 840 63 700 130/06 RMK AO2
14837KMSN MSN20101109193509111/09/10 19:35:31  5-MIN KMSN 100135Z 13006KT 8SM CLR 12/05 A2994 840 63 700 130/06 RMK AO2
14837KMSN MSN20101109194009111/09/10 19:40:31  5-MIN KMSN 100140Z 13007KT 8SM CLR 12/05 A2994 840 63 700 130/07 RMK AO2
14837KMSN MSN20101109194509111/09/10 19:45:31  5-MIN KMSN 100145Z 13007KT 8SM CLR 11/05 A2994 840 66 600 130/07 RMK AO2
14837KMSN MSN20101109195010811/09/10 19:50:31  5-MIN KMSN 100150Z 13008KT 8SM CLR 12/05 A2994 840 63 700 130/08 RMK AO2 SLP143 T01170050
14837KMSN MSN20101109195509111/09/10 19:55:31  5-MIN KMSN 100155Z 13007KT 8SM CLR 12/05 A2994 840 63 700 130/07 RMK AO2
14837KMSN MSN20101109200009111/09/10 20:00:31  5-MIN KMSN 100200Z 13006KT 8SM CLR 11/05 A2995 840 66 600 130/06 RMK AO2
14837KMSN MSN20101109200509111/09/10 20:05:31  5-MIN KMSN 100205Z 14007KT 7SM CLR 11/05 A2995 840 66 600 140/07 RMK AO2
14837KMSN MSN20101109201009111/09/10 20:10:31  5-MIN KMSN 100210Z 14008KT 7SM CLR 12/05 A2995 840 63 700 140/08 RMK AO2
14837KMSN MSN20101109201509111/09/10 20:15:31  5-MIN KMSN 100215Z 14008KT 7SM CLR 12/05 A2995 840 63 700 140/08 RMK AO2
14837KMSN MSN20101109202009111/09/10 20:20:31  5-MIN KMSN 100220Z 14007KT 7SM CLR 12/05 A2995 840 63 700 140/07 RMK AO2
14837KMSN MSN20101109202509111/09/10 20:25:31  5-MIN KMSN 100225Z 14006KT 7SM CLR 12/05 A2995 840 63 700 140/06 RMK AO2
14837KMSN MSN20101109203009111/09/10 20:30:31  5-MIN KMSN 100230Z 14006KT 7SM CLR 12/05 A2995 840 63 700 140/06 RMK AO2
14837KMSN MSN20101109203509111/09/10 20:35:31  5-MIN KMSN 100235Z 14006KT 7SM CLR 12/05 A2995 840 63 700 140/06 RMK AO2
14837KMSN MSN20101109204009111/09/10 20:40:31  5-MIN KMSN 100240Z 14006KT 7SM CLR 12/05 A2995 840 63 700 140/06 RMK AO2
14837KMSN MSN20101109204509111/09/10 20:45:31  5-MIN KMSN 100245Z 14006KT 7SM CLR 11/05 A2995 830 66 600 130/06 RMK AO2
14837KMSN MSN20101109205011411/09/10 20:50:31  5-MIN KMSN 100250Z 14006KT 7SM CLR 12/05 A2995 840 63 700 140/06 RMK AO2 SLP145 T01170050 53010
14837KMSN MSN20101109205509111/09/10 20:55:31  5-MIN KMSN 100255Z 14004KT 7SM CLR 11/05 A2995 840 66 600 140/04 RMK AO2
14837KMSN MSN20101109210009111/09/10 21:00:31  5-MIN KMSN 100300Z 14004KT 7SM CLR 11/05 A2995 840 66 600 140/04 RMK AO2
14837KMSN MSN20101109210509111/09/10 21:05:31  5-MIN KMSN 100305Z 12004KT 7SM CLR 11/05 A2995 830 66 600 120/04 RMK AO2
14837KMSN MSN20101109211009111/09/10 21:10:31  5-MIN KMSN 100310Z 13004KT 7SM CLR 11/05 A2995 830 66 600 130/04 RMK AO2
14837KMSN MSN20101109211509111/09/10 21:15:31  5-MIN KMSN 100315Z 13004KT 7SM CLR 11/04 A2995 830 66 500 130/04 RMK AO2
14837KMSN MSN20101109212009111/09/10 21:20:31  5-MIN KMSN 100320Z 14004KT 7SM CLR 11/04 A2995 830 66 500 140/04 RMK AO2
14837KMSN MSN20101109212509111/09/10 21:25:31  5-MIN KMSN 100325Z 13003KT 7SM CLR 11/05 A2995 830 66 600 130/03 RMK AO2
14837KMSN MSN20101109213009111/09/10 21:30:31  5-MIN KMSN 100330Z 14003KT 7SM CLR 11/05 A2995 830 66 600 140/03 RMK AO2
14837KMSN MSN20101109213509111/09/10 21:35:31  5-MIN KMSN 100335Z 00000KT 7SM CLR 11/05 A2996 830 66 600 000/00 RMK AO2
14837KMSN MSN20101109214009111/09/10 21:40:31  5-MIN KMSN 100340Z 00000KT 7SM CLR 11/04 A2996 830 66 500 000/00 RMK AO2
14837KMSN MSN20101109214509111/09/10 21:45:31  5-MIN KMSN 100345Z 00000KT 7SM CLR 11/05 A2996 830 66 600 000/00 RMK AO2
14837KMSN MSN20101109215010811/09/10 21:50:31  5-MIN KMSN 100350Z 00000KT 7SM CLR 11/05 A2996 830 68 500 000/00 RMK AO2 SLP146 T01060050
14837KMSN MSN20101109215509111/09/10 21:55:31  5-MIN KMSN 100355Z 00000KT 7SM CLR 10/04 A2996 830 68 500 000/00 RMK AO2
14837KMSN MSN20101109220009111/09/10 22:00:31  5-MIN KMSN 100400Z 00000KT 7SM CLR 11/04 A2996 830 66 500 000/00 RMK AO2
14837KMSN MSN20101109220509111/09/10 22:05:31  5-MIN KMSN 100405Z 10003KT 7SM CLR 11/05 A2996 830 68 500 100/03 RMK AO2
14837KMSN MSN20101109221009111/09/10 22:10:31  5-MIN KMSN 100410Z 11003KT 7SM CLR 11/05 A2996 830 68 500 110/03 RMK AO2
14837KMSN MSN20101109221509111/09/10 22:15:31  5-MIN KMSN 100415Z 12003KT 7SM CLR 10/04 A2996 830 68 500 120/03 RMK AO2
14837KMSN MSN20101109222009111/09/10 22:20:31  5-MIN KMSN 100420Z 12003KT 7SM CLR 11/05 A2996 820 68 500 120/03 RMK AO2
14837KMSN MSN20101109222509111/09/10 22:25:31  5-MIN KMSN 100425Z 00000KT 7SM CLR 10/04 A2996 820 68 500 000/00 RMK AO2
14837KMSN MSN20101109223009111/09/10 22:30:31  5-MIN KMSN 100430Z 00000KT 7SM CLR 11/05 A2997 820 68 500 000/00 RMK AO2
14837KMSN MSN20101109223509111/09/10 22:35:31  5-MIN KMSN 100435Z 00000KT 7SM CLR 09/04 A2997 820 71 400 000/00 RMK AO2
14837KMSN MSN20101109224009111/09/10 22:40:31  5-MIN KMSN 100440Z 00000KT 7SM CLR 09/04 A2997 820 73 300 000/00 RMK AO2
14837KMSN MSN20101109224509111/09/10 22:45:31  5-MIN KMSN 100445Z 00000KT 7SM CLR 09/04 A2997 820 71 400 000/00 RMK AO2
14837KMSN MSN20101109225010811/09/10 22:50:31  5-MIN KMSN 100450Z 00000KT 7SM CLR 09/04 A2997 820 73 300 000/00 RMK AO2 SLP150 T00890044
14837KMSN MSN20101109225509111/09/10 22:55:31  5-MIN KMSN 100455Z 00000KT 7SM CLR 08/04 A2997 820 79 200 000/00 RMK AO2
14837KMSN MSN20101109230009111/09/10 23:00:31  5-MIN KMSN 100500Z 00000KT 7SM CLR 08/04 A2997 820 79 200 000/00 RMK AO2
14837KMSN MSN20101109230509111/09/10 23:05:31  5-MIN KMSN 100505Z 00000KT 7SM CLR 07/04 A2997 820 79 100 000/00 RMK AO2
14837KMSN MSN20101109231009111/09/10 23:10:31  5-MIN KMSN 100510Z 00000KT 7SM CLR 08/04 A2997 820 79 200 000/00 RMK AO2
14837KMSN MSN20101109231509111/09/10 23:15:31  5-MIN KMSN 100515Z 00000KT 7SM CLR 08/04 A2998 810 79 200 000/00 RMK AO2
14837KMSN MSN20101109232009111/09/10 23:20:31  5-MIN KMSN 100520Z 00000KT 7SM CLR 08/04 A2998 810 76 200 000/00 RMK AO2
14837KMSN MSN20101109232509111/09/10 23:25:31  5-MIN KMSN 100525Z 00000KT 7SM CLR 08/04 A2998 810 79 200 000/00 RMK AO2
14837KMSN MSN20101109233009111/09/10 23:30:31  5-MIN KMSN 100530Z 00000KT 7SM CLR 08/04 A2998 810 79 200 000/00 RMK AO2
14837KMSN MSN20101109233509111/09/10 23:35:31  5-MIN KMSN 100535Z 00000KT 7SM CLR 08/04 A2998 810 79 200 000/00 RMK AO2
14837KMSN MSN20101109234009111/09/10 23:40:31  5-MIN KMSN 100540Z 19003KT 7SM CLR 08/04 A2998 810 76 200 180/03 RMK AO2
14837KMSN MSN20101109234509111/09/10 23:45:31  5-MIN KMSN 100545Z 00000KT 7SM CLR 08/04 A2998 810 79 200 000/00 RMK AO2
14837KMSN MSN20101109235013411/09/10 23:50:31  5-MIN KMSN 100550Z 00000KT 7SM CLR 06/03 A2998 810 82 0 000/00 RMK AO2 SLP155 T00610033 10144 20061 402390011 51006
14837KMSN MSN20101109235508911/09/10 23:55:31  5-MIN KMSN 100555Z 00000KT 7SM CLR 06/04 A2998 810 86 0 000/00 RMK AO2
14837KMSN MSN20101110000009511/10/10 00:00:32  5-MIN KMSN 100600Z 00000KT 6SM BR CLR 06/03 A2998 800 85 -100 000/00 RMK AO2
14837KMSN MSN20101110000509211/10/10 00:05:31  5-MIN KMSN 100605Z 00000KT 6SM BR CLR 06/04 A2999 800 86 0 000/00 RMK AO2
14837KMSN MSN20101110001009211/10/10 00:10:31  5-MIN KMSN 100610Z 00000KT 6SM BR CLR 06/04 A2999 800 86 0 000/00 RMK AO2
14837KMSN MSN20101110001509211/10/10 00:15:31  5-MIN KMSN 100615Z 00000KT 6SM BR CLR 06/04 A2999 800 86 0 000/00 RMK AO2
14837KMSN MSN20101110002009211/10/10 00:20:31  5-MIN KMSN 100620Z 00000KT 6SM HZ CLR 06/03 A2999 800 82 0 000/00 RMK AO2
14837KMSN MSN20101110002509211/10/10 00:25:31  5-MIN KMSN 100625Z 00000KT 6SM HZ CLR 06/03 A2999 800 82 0 000/00 RMK AO2
14837KMSN MSN20101110003009211/10/10 00:30:31  5-MIN KMSN 100630Z 00000KT 6SM BR CLR 06/04 A2999 800 86 0 000/00 RMK AO2
14837KMSN MSN20101110003509211/10/10 00:35:31  5-MIN KMSN 100635Z 00000KT 6SM BR CLR 07/04 A2999 800 86 0 000/00 RMK AO2
14837KMSN MSN20101110004009211/10/10 00:40:31  5-MIN KMSN 100640Z 00000KT 6SM BR CLR 06/04 A2999 800 86 0 000/00 RMK AO2
14837KMSN MSN20101110004509211/10/10 00:45:31  5-MIN KMSN 100645Z 00000KT 6SM BR CLR 06/04 A2999 800 86 0 000/00 RMK AO2
14837KMSN MSN20101110005011211/10/10 00:50:31  5-MIN KMSN 100650Z 00000KT 5SM BR CLR 06/04 A2999 800 89 -100 000/00 RMK AO2 SLP157 T00560039
14837KMSN MSN20101110005509211/10/10 00:55:31  5-MIN KMSN 100655Z 00000KT 5SM BR CLR 06/04 A2999 800 86 0 000/00 RMK AO2
14837KMSN MSN20101110010009211/10/10 01:00:31  5-MIN KMSN 100700Z 00000KT 6SM BR CLR 06/04 A2999 800 86 0 000/00 RMK AO2
14837KMSN MSN20101110010509511/10/10 01:05:31  5-MIN KMSN 100705Z 00000KT 6SM BR CLR 06/03 A2999 800 85 -100 000/00 RMK AO2
14837KMSN MSN20101110011009511/10/10 01:10:31  5-MIN KMSN 100710Z 00000KT 6SM BR CLR 05/03 A2999 800 85 -100 000/00 RMK AO2
14837KMSN MSN20101110011509511/10/10 01:15:31  5-MIN KMSN 100715Z 00000KT 5SM BR CLR 05/03 A2999 800 89 -100 000/00 RMK AO2
14837KMSN MSN20101110012009511/10/10 01:20:31  5-MIN KMSN 100720Z 00000KT 5SM BR CLR 06/03 A2999 800 85 -100 000/00 RMK AO2
14837KMSN MSN20101110012509511/10/10 01:25:31  5-MIN KMSN 100725Z 00000KT 5SM BR CLR 05/04 A2999 800 92 -100 000/00 RMK AO2
14837KMSN MSN20101110013009511/10/10 01:30:31  5-MIN KMSN 100730Z 00000KT 5SM BR CLR 06/04 A3000 790 89 -100 000/00 RMK AO2
14837KMSN MSN20101110013509511/10/10 01:35:31  5-MIN KMSN 100735Z 00000KT 5SM BR CLR 04/03 A3000 790 92 -200 000/00 RMK AO2
14837KMSN MSN20101110014009511/10/10 01:40:31  5-MIN KMSN 100740Z 00000KT 5SM BR CLR 05/03 A3000 790 89 -100 000/00 RMK AO2
14837KMSN MSN20101110014509511/10/10 01:45:31  5-MIN KMSN 100745Z 00000KT 5SM BR CLR 06/04 A3000 790 89 -100 000/00 RMK AO2
14837KMSN MSN20101110015011211/10/10 01:50:31  5-MIN KMSN 100750Z 00000KT 5SM BR CLR 05/04 A3000 790 92 -100 000/00 RMK AO2 SLP160 T00500039
14837KMSN MSN20101110015509511/10/10 01:55:31  5-MIN KMSN 100755Z 00000KT 5SM BR CLR 05/03 A3000 790 89 -100 000/00 RMK AO2
14837KMSN MSN20101110020009511/10/10 02:00:31  5-MIN KMSN 100800Z 00000KT 5SM BR CLR 05/04 A3000 790 92 -100 000/00 RMK AO2
14837KMSN MSN20101110020509511/10/10 02:05:31  5-MIN KMSN 100805Z 00000KT 5SM BR CLR 05/03 A3000 790 89 -100 000/00 RMK AO2
14837KMSN MSN20101110021009511/10/10 02:10:31  5-MIN KMSN 100810Z 00000KT 5SM BR CLR 05/03 A3000 790 89 -100 000/00 RMK AO2
14837KMSN MSN20101110021509511/10/10 02:15:31  5-MIN KMSN 100815Z 03003KT 4SM BR CLR 05/03 A3000 790 89 -100 030/03 RMK AO2
14837KMSN MSN20101110022009511/10/10 02:20:31  5-MIN KMSN 100820Z 02003KT 4SM BR CLR 04/03 A3000 790 89 -200 020/03 RMK AO2
14837KMSN MSN20101110022509511/10/10 02:25:31  5-MIN KMSN 100825Z 04003KT 4SM BR CLR 05/03 A3000 790 89 -100 030/03 RMK AO2
14837KMSN MSN20101110023009511/10/10 02:30:31  5-MIN KMSN 100830Z 00000KT 4SM BR CLR 04/03 A3000 790 92 -200 000/00 RMK AO2
14837KMSN MSN20101110023509511/10/10 02:35:31  5-MIN KMSN 100835Z 00000KT 5SM BR CLR 04/03 A3000 790 92 -200 000/00 RMK AO2
14837KMSN MSN20101110024009511/10/10 02:40:31  5-MIN KMSN 100840Z 00000KT 5SM BR CLR 04/03 A3000 790 89 -200 000/00 RMK AO2
14837KMSN MSN20101110024509511/10/10 02:45:31  5-MIN KMSN 100845Z 00000KT 5SM BR CLR 04/03 A3000 790 89 -200 000/00 RMK AO2
14837KMSN MSN20101110025011811/10/10 02:50:31  5-MIN KMSN 100850Z 00000KT 5SM BR CLR 04/03 A3000 790 89 -200 000/00 RMK AO2 SLP160 T00440028 53010
14837KMSN MSN20101110025509511/10/10 02:55:31  5-MIN KMSN 100855Z 05003KT 5SM BR CLR 04/03 A3000 790 89 -200 050/03 RMK AO2
14837KMSN MSN20101110030009511/10/10 03:00:31  5-MIN KMSN 100900Z 05003KT 5SM BR CLR 04/03 A3000 790 92 -200 050/03 RMK AO2
14837KMSN MSN20101110030509511/10/10 03:05:31  5-MIN KMSN 100905Z 00000KT 5SM BR CLR 04/03 A3000 790 92 -300 000/00 RMK AO2
14837KMSN MSN20101110031009511/10/10 03:10:31  5-MIN KMSN 100910Z 00000KT 5SM BR CLR 04/03 A3000 790 92 -200 000/00 RMK AO2
14837KMSN MSN20101110031509511/10/10 03:15:31  5-MIN KMSN 100915Z 00000KT 5SM BR CLR 04/03 A3001 790 89 -200 000/00 RMK AO2
14837KMSN MSN20101110032009511/10/10 03:20:31  5-MIN KMSN 100920Z 00000KT 5SM BR CLR 04/03 A3000 790 89 -200 000/00 RMK AO2
14837KMSN MSN20101110032509511/10/10 03:25:31  5-MIN KMSN 100925Z 00000KT 5SM BR CLR 04/03 A3001 790 92 -300 000/00 RMK AO2
14837KMSN MSN20101110033009511/10/10 03:30:31  5-MIN KMSN 100930Z 00000KT 5SM BR CLR 05/03 A3001 790 89 -100 000/00 RMK AO2
14837KMSN MSN20101110033509511/10/10 03:35:31  5-MIN KMSN 100935Z 00000KT 5SM BR CLR 06/04 A3000 790 89 -100 000/00 RMK AO2
14837KMSN MSN20101110034009511/10/10 03:40:31  5-MIN KMSN 100940Z 00000KT 5SM BR CLR 05/03 A3000 790 89 -100 000/00 RMK AO2
14837KMSN MSN20101110034509511/10/10 03:45:31  5-MIN KMSN 100945Z 00000KT 5SM BR CLR 06/04 A3000 790 89 -100 000/00 RMK AO2
14837KMSN MSN20101110035011211/10/10 03:50:31  5-MIN KMSN 100950Z 00000KT 5SM BR CLR 05/03 A3000 790 89 -100 000/00 RMK AO2 SLP162 T00500033
14837KMSN MSN20101110035509511/10/10 03:55:31  5-MIN KMSN 100955Z 00000KT 5SM BR CLR 04/03 A3000 790 89 -200 000/00 RMK AO2
14837KMSN MSN20101110040009511/10/10 04:00:31  5-MIN KMSN 101000Z 00000KT 5SM BR CLR 04/03 A3000 790 92 -300 000/00 RMK AO2
14837KMSN MSN20101110040509511/10/10 04:05:31  5-MIN KMSN 101005Z 00000KT 5SM BR CLR 05/03 A3000 790 89 -100 000/00 RMK AO2
14837KMSN MSN20101110041009511/10/10 04:10:31  5-MIN KMSN 101010Z 00000KT 5SM BR CLR 04/03 A3000 790 92 -200 000/00 RMK AO2
14837KMSN MSN20101110041509511/10/10 04:15:31  5-MIN KMSN 101015Z 00000KT 5SM BR CLR 04/03 A3000 790 92 -200 000/00 RMK AO2
14837KMSN MSN20101110042009511/10/10 04:20:31  5-MIN KMSN 101020Z 00000KT 5SM BR CLR 04/03 A3000 790 92 -200 000/00 RMK AO2
14837KMSN MSN20101110042509511/10/10 04:25:31  5-MIN KMSN 101025Z 00000KT 6SM BR CLR 04/03 A3000 790 92 -200 000/00 RMK AO2
14837KMSN MSN20101110043009511/10/10 04:30:31  5-MIN KMSN 101030Z 00000KT 6SM BR CLR 04/03 A3000 790 96 -300 000/00 RMK AO2
14837KMSN MSN20101110043509511/10/10 04:35:31  5-MIN KMSN 101035Z 00000KT 5SM BR CLR 04/03 A3000 790 92 -300 000/00 RMK AO2
14837KMSN MSN20101110044009511/10/10 04:40:31  5-MIN KMSN 101040Z 00000KT 5SM BR CLR 04/03 A3000 790 92 -300 000/00 RMK AO2
14837KMSN MSN20101110044509511/10/10 04:45:31  5-MIN KMSN 101045Z 00000KT 5SM BR CLR 04/03 A3000 790 96 -300 000/00 RMK AO2
14837KMSN MSN20101110045011211/10/10 04:50:31  5-MIN KMSN 101050Z 00000KT 5SM BR CLR 04/03 A3000 790 92 -200 000/00 RMK AO2 SLP162 T00440033
14837KMSN MSN20101110045509511/10/10 04:55:31  5-MIN KMSN 101055Z 00000KT 5SM BR CLR 04/03 A3000 790 92 -300 000/00 RMK AO2
14837KMSN MSN20101110050009511/10/10 05:00:31  5-MIN KMSN 101100Z 00000KT 4SM BR CLR 03/02 A3000 790 92 -300 000/00 RMK AO2
14837KMSN MSN20101110050509511/10/10 05:05:31  5-MIN KMSN 101105Z 00000KT 5SM BR CLR 04/03 A3001 790 92 -300 000/00 RMK AO2
14837KMSN MSN20101110051009511/10/10 05:10:31  5-MIN KMSN 101110Z 13003KT 5SM BR CLR 04/03 A3000 790 92 -200 130/03 RMK AO2
14837KMSN MSN20101110051509511/10/10 05:15:31  5-MIN KMSN 101115Z 00000KT 5SM BR CLR 04/03 A3000 790 92 -200 000/00 RMK AO2
14837KMSN MSN20101110052009511/10/10 05:20:31  5-MIN KMSN 101120Z 11003KT 5SM BR CLR 04/03 A3000 790 92 -300 110/03 RMK AO2
14837KMSN MSN20101110052509511/10/10 05:25:31  5-MIN KMSN 101125Z 00000KT 5SM BR CLR 03/02 A3000 790 89 -300 000/00 RMK AO2
14837KMSN MSN20101110053009511/10/10 05:30:31  5-MIN KMSN 101130Z 00000KT 5SM BR CLR 03/02 A3001 790 92 -400 000/00 RMK AO2
14837KMSN MSN20101110053509511/10/10 05:35:31  5-MIN KMSN 101135Z 00000KT 4SM BR CLR 02/01 A3000 790 92 -500 000/00 RMK AO2
14837KMSN MSN20101110054009511/10/10 05:40:31  5-MIN KMSN 101140Z 00000KT 3SM BR CLR 03/02 A3000 790 92 -400 000/00 RMK AO2
14837KMSN MSN20101110054509511/10/10 05:45:31  5-MIN KMSN 101145Z 00000KT 3SM BR CLR 03/03 A3000 790 96 -300 000/00 RMK AO2
14837KMSN MSN20101110055013611/10/10 05:50:31  5-MIN KMSN 101150Z 00000KT 4SM BR CLR 04/03 A3000 790 96 -300 000/00 RMK AO2 SLP163 7//// T00390033 10067 20022 51006
14837KMSN MSN20101110055509511/10/10 05:55:31  5-MIN KMSN 101155Z 00000KT 4SM BR CLR 03/03 A3000 790 96 -300 000/00 RMK AO2
14837KMSN MSN20101110060009511/10/10 06:00:31  5-MIN KMSN 101200Z 00000KT 4SM BR CLR 03/03 A3001 790 96 -300 000/00 RMK AO2
14837KMSN MSN20101110060509511/10/10 06:05:31  5-MIN KMSN 101205Z 00000KT 4SM BR CLR 03/03 A3001 790 96 -300 000/00 RMK AO2
14837KMSN MSN20101110061009511/10/10 06:10:31  5-MIN KMSN 101210Z 00000KT 4SM BR CLR 03/03 A3001 790 96 -400 000/00 RMK AO2
14837KMSN MSN20101110061509511/10/10 06:15:31  5-MIN KMSN 101215Z 00000KT 4SM BR CLR 04/03 A3001 780 96 -300 000/00 RMK AO2
14837KMSN MSN20101110062009511/10/10 06:20:31  5-MIN KMSN 101220Z 04003KT 3SM BR CLR 03/03 A3001 780 96 -400 040/03 RMK AO2
14837KMSN MSN20101110062509511/10/10 06:25:31  5-MIN KMSN 101225Z 00000KT 3SM BR CLR 03/02 A3001 780 96 -400 000/00 RMK AO2
14837KMSN MSN20101110063009511/10/10 06:30:31  5-MIN KMSN 101230Z 04003KT 4SM BR CLR 03/03 A3001 780 96 -400 040/03 RMK AO2
14837KMSN MSN20101110063509511/10/10 06:35:31  5-MIN KMSN 101235Z 03003KT 4SM BR CLR 03/03 A3001 780 96 -400 030/03 RMK AO2
14837KMSN MSN20101110064009511/10/10 06:40:31  5-MIN KMSN 101240Z 00000KT 4SM BR CLR 03/02 A3001 780 92 -400 000/00 RMK AO2
14837KMSN MSN20101110064510611/10/10 06:45:31  5-MIN KMSN 101245Z 05003KT 3SM BR CLR 04/03 A3001 780 92 -300 050/03 RMK AO2 TWR VIS 10
14837KMSN MSN20101110065012311/10/10 06:50:31  5-MIN KMSN 101250Z 00000KT 3SM BR CLR 04/03 A3001 780 92 -200 000/00 RMK AO2 TWR VIS 10 SLP166 T00440033
14837KMSN MSN20101110065510611/10/10 06:55:31  5-MIN KMSN 101255Z 00000KT 3SM BR CLR 04/02 A3001 780 89 -300 000/00 RMK AO2 TWR VIS 10
14837KMSN MSN20101110070010611/10/10 07:00:31  5-MIN KMSN 101300Z 00000KT 3SM BR CLR 04/03 A3001 780 92 -300 000/00 RMK AO2 TWR VIS 10
14837KMSN MSN20101110070510611/10/10 07:05:31  5-MIN KMSN 101305Z 00000KT 3SM BR CLR 04/03 A3001 780 89 -200 000/00 RMK AO2 TWR VIS 10
14837KMSN MSN20101110071010611/10/10 07:10:31  5-MIN KMSN 101310Z 00000KT 3SM BR CLR 05/03 A3001 780 89 -200 000/00 RMK AO2 TWR VIS 10
14837KMSN MSN20101110071510611/10/10 07:15:31  5-MIN KMSN 101315Z 00000KT 3SM BR CLR 06/03 A3001 780 85 -100 000/00 RMK AO2 TWR VIS 10
14837KMSN MSN20101110072010611/10/10 07:20:31  5-MIN KMSN 101320Z 00000KT 3SM BR CLR 06/03 A3001 780 85 -100 000/00 RMK AO2 TWR VIS 10
14837KMSN MSN20101110072510611/10/10 07:25:31  5-MIN KMSN 101325Z 00000KT 3SM BR CLR 06/03 A3002 780 85 -100 000/00 RMK AO2 TWR VIS 10
14837KMSN MSN20101110073009511/10/10 07:30:31  5-MIN KMSN 101330Z 00000KT 4SM BR CLR 06/03 A3002 770 85 -100 000/00 RMK AO2
14837KMSN MSN20101110073509211/10/10 07:35:31  5-MIN KMSN 101335Z 12003KT 4SM HZ CLR 06/03 A3002 770 82 0 120/03 RMK AO2
14837KMSN MSN20101110074009411/10/10 07:40:31  5-MIN KMSN 101340Z 11004KT 4SM HZ CLR 07/04 A3002 770 79 100 110/04 RMK AO2
14837KMSN MSN20101110074509411/10/10 07:45:31  5-MIN KMSN 101345Z 11004KT 5SM HZ CLR 08/04 A3002 770 79 100 110/04 RMK AO2
14837KMSN MSN20101110075011111/10/10 07:50:31  5-MIN KMSN 101350Z 12005KT 5SM HZ CLR 08/05 A3002 770 79 200 120/05 RMK AO2 SLP169 T00830050
14837KMSN MSN20101110075509411/10/10 07:55:31  5-MIN KMSN 101355Z 12006KT 5SM HZ CLR 09/06 A3002 770 79 300 120/06 RMK AO2
14837KMSN MSN20101110080009411/10/10 08:00:31  5-MIN KMSN 101400Z 13005KT 5SM HZ CLR 09/06 A3003 770 79 300 130/05 RMK AO2
14837KMSN MSN20101110080509411/10/10 08:05:31  5-MIN KMSN 101405Z 13005KT 5SM HZ CLR 09/06 A3003 770 79 300 130/05 RMK AO2
14837KMSN MSN20101110081009411/10/10 08:10:31  5-MIN KMSN 101410Z 13009KT 5SM HZ CLR 09/06 A3003 770 76 300 130/09 RMK AO2
14837KMSN MSN20101110081509411/10/10 08:15:31  5-MIN KMSN 101415Z 14007KT 5SM HZ CLR 09/06 A3003 770 76 300 140/07 RMK AO2
14837KMSN MSN20101110082009411/10/10 08:20:31  5-MIN KMSN 101420Z 14006KT 5SM HZ CLR 09/06 A3003 760 76 300 140/06 RMK AO2
14837KMSN MSN20101110082509411/10/10 08:25:31  5-MIN KMSN 101425Z 14007KT 5SM HZ CLR 10/06 A3003 760 74 400 140/07 RMK AO2
14837KMSN MSN20101110083009411/10/10 08:30:31  5-MIN KMSN 101430Z 14006KT 6SM HZ CLR 10/06 A3003 760 74 400 140/06 RMK AO2
14837KMSN MSN20101110083509411/10/10 08:35:31  5-MIN KMSN 101435Z 13007KT 6SM HZ CLR 10/06 A3003 760 74 400 130/07 RMK AO2
14837KMSN MSN20101110084009411/10/10 08:40:31  5-MIN KMSN 101440Z 13006KT 6SM HZ CLR 10/06 A3003 760 74 400 130/06 RMK AO2
14837KMSN MSN20101110084509411/10/10 08:45:31  5-MIN KMSN 101445Z 13006KT 6SM HZ CLR 10/06 A3003 760 74 400 130/06 RMK AO2
14837KMSN MSN20101110085011711/10/10 08:50:31  5-MIN KMSN 101450Z 13006KT 6SM HZ CLR 11/06 A3003 760 74 500 130/06 RMK AO2 SLP171 T01060061 51001
14837KMSN MSN20101110085509411/10/10 08:55:31  5-MIN KMSN 101455Z 13004KT 6SM HZ CLR 11/06 A3003 760 74 500 130/04 RMK AO2
14837KMSN MSN20101110090009411/10/10 09:00:31  5-MIN KMSN 101500Z 13004KT 6SM HZ CLR 11/06 A3003 760 71 500 130/04 RMK AO2
14837KMSN MSN20101110090509411/10/10 09:05:31  5-MIN KMSN 101505Z 10005KT 6SM HZ CLR 11/06 A3003 760 71 500 100/05 RMK AO2
14837KMSN MSN20101110091009411/10/10 09:10:31  5-MIN KMSN 101510Z 11004KT 6SM HZ CLR 11/06 A3003 760 71 500 110/04 RMK AO2
14837KMSN MSN20101110091509411/10/10 09:15:31  5-MIN KMSN 101515Z 10005KT 6SM HZ CLR 12/06 A3003 760 68 600 100/05 RMK AO2
14837KMSN MSN20101110092009411/10/10 09:20:31  5-MIN KMSN 101520Z 11006KT 6SM HZ CLR 12/06 A3003 760 68 600 110/06 RMK AO2
14837KMSN MSN20101110092509411/10/10 09:25:31  5-MIN KMSN 101525Z 11006KT 6SM HZ CLR 13/07 A3003 760 66 700 110/06 RMK AO2
14837KMSN MSN20101110093009411/10/10 09:30:31  5-MIN KMSN 101530Z 11007KT 6SM HZ CLR 12/06 A3003 760 66 700 110/07 RMK AO2
14837KMSN MSN20101110093509411/10/10 09:35:31  5-MIN KMSN 101535Z 12006KT 6SM HZ CLR 12/06 A3003 760 66 700 120/06 RMK AO2
14837KMSN MSN20101110094009411/10/10 09:40:31  5-MIN KMSN 101540Z 14006KT 6SM HZ CLR 13/06 A3003 760 63 700 140/06 RMK AO2
14837KMSN MSN20101110094509411/10/10 09:45:31  5-MIN KMSN 101545Z 13005KT 6SM HZ CLR 13/06 A3003 760 63 700 130/05 RMK AO2
14837KMSN MSN20101110095010811/10/10 09:50:31  5-MIN KMSN 101550Z 12006KT 7SM CLR 13/06 A3003 770 63 700 120/06 RMK AO2 SLP170 T01280061
14837KMSN MSN20101110095509111/10/10 09:55:31  5-MIN KMSN 101555Z 14005KT 7SM CLR 13/07 A3003 770 64 800 140/05 RMK AO2
14837KMSN MSN20101110100009111/10/10 10:00:31  5-MIN KMSN 101600Z 15007KT 7SM CLR 14/07 A3003 770 61 900 150/07 RMK AO2
14837KMSN MSN20101110100509111/10/10 10:05:31  5-MIN KMSN 101605Z 16008KT 7SM CLR 14/06 A3003 770 59 900 160/08 RMK AO2
14837KMSN MSN20101110101009111/10/10 10:10:31  5-MIN KMSN 101610Z 14012KT 7SM CLR 14/06 A3002 770 59 900 140/12 RMK AO2
14837KMSN MSN20101110101509111/10/10 10:15:31  5-MIN KMSN 101615Z 15010KT 7SM CLR 14/06 A3002 770 59 900 150/10 RMK AO2
14837KMSN MSN20101110102009111/10/10 10:20:31  5-MIN KMSN 101620Z 15010KT 7SM CLR 14/06 A3003 770 59 900 150/10 RMK AO2
14837KMSN MSN20101110102509111/10/10 10:25:31  5-MIN KMSN 101625Z 16010KT 7SM CLR 14/06 A3003 770 59 900 150/10 RMK AO2
14837KMSN MSN20101110103009111/10/10 10:30:31  5-MIN KMSN 101630Z 15009KT 7SM CLR 14/06 A3003 770 57 900 150/09 RMK AO2
14837KMSN MSN20101110103509111/10/10 10:35:31  5-MIN KMSN 101635Z 15011KT 7SM CLR 14/06 A3002 770 57 900 150/11 RMK AO2
14837KMSN MSN20101110104009111/10/10 10:40:31  5-MIN KMSN 101640Z 16009KT 7SM CLR 14/07 A3002 770 59 900 160/09 RMK AO2
14837KMSN MSN20101110104509111/10/10 10:45:31  5-MIN KMSN 101645Z 16008KT 7SM CLR 14/07 A3002 770 59 900 160/08 RMK AO2
14837KMSN MSN20101110105010911/10/10 10:50:31  5-MIN KMSN 101650Z 16008KT 7SM CLR 15/07 A3002 770 57 1000 160/08 RMK AO2 SLP169 T01500067
14837KMSN MSN20101110105509211/10/10 10:55:31  5-MIN KMSN 101655Z 15008KT 7SM CLR 15/07 A3002 770 57 1000 150/08 RMK AO2
14837KMSN MSN20101110110009211/10/10 11:00:31  5-MIN KMSN 101700Z 15008KT 7SM CLR 16/07 A3002 770 55 1100 150/08 RMK AO2
14837KMSN MSN20101110110509211/10/10 11:05:31  5-MIN KMSN 101705Z 15008KT 7SM CLR 16/07 A3002 770 55 1100 150/08 RMK AO2
14837KMSN MSN20101110111009211/10/10 11:10:31  5-MIN KMSN 101710Z 15008KT 7SM CLR 16/07 A3002 770 57 1100 150/08 RMK AO2
14837KMSN MSN20101110111509211/10/10 11:15:31  5-MIN KMSN 101715Z 16008KT 7SM CLR 16/07 A3002 770 55 1100 160/08 RMK AO2
14837KMSN MSN20101110112009211/10/10 11:20:31  5-MIN KMSN 101720Z 15007KT 7SM CLR 16/07 A3002 770 53 1100 150/07 RMK AO2
14837KMSN MSN20101110112509211/10/10 11:25:31  5-MIN KMSN 101725Z 15009KT 7SM CLR 17/07 A3002 770 53 1200 150/09 RMK AO2
14837KMSN MSN20101110113009211/10/10 11:30:31  5-MIN KMSN 101730Z 16009KT 7SM CLR 17/07 A3002 770 53 1200 160/09 RMK AO2
14837KMSN MSN20101110113509211/10/10 11:35:31  5-MIN KMSN 101735Z 17007KT 7SM CLR 17/07 A3002 770 53 1200 170/07 RMK AO2
14837KMSN MSN20101110114009211/10/10 11:40:31  5-MIN KMSN 101740Z 17011KT 7SM CLR 17/07 A3002 770 53 1200 170/11 RMK AO2
14837KMSN MSN20101110114509211/10/10 11:45:31  5-MIN KMSN 101745Z 17012KT 7SM CLR 17/07 A3002 770 51 1200 170/12 RMK AO2
14837KMSN MSN20101110115012711/10/10 11:50:31  5-MIN KMSN 101750Z 16014KT 7SM CLR 16/07 A3002 770 53 1100 160/14 RMK AO2 SLP168 T01610067 10167 20028 53008
14837KMSN MSN20101110115509211/10/10 11:55:31  5-MIN KMSN 101755Z 17014KT 7SM CLR 16/07 A3002 770 53 1100 170/14 RMK AO2
14837KMSN MSN20101110120009211/10/10 12:00:31  5-MIN KMSN 101800Z 17014KT 7SM CLR 16/07 A3001 780 53 1100 170/14 RMK AO2
14837KMSN MSN20101110120509211/10/10 12:05:31  5-MIN KMSN 101805Z 16013KT 7SM CLR 16/07 A3002 780 53 1100 160/13 RMK AO2
14837KMSN MSN20101110121009211/10/10 12:10:31  5-MIN KMSN 101810Z 17012KT 7SM CLR 17/07 A3002 780 51 1200 170/12 RMK AO2
14837KMSN MSN20101110121509211/10/10 12:15:31  5-MIN KMSN 101815Z 17012KT 7SM CLR 17/07 A3002 780 51 1200 170/12 RMK AO2
14837KMSN MSN20101110122009211/10/10 12:20:31  5-MIN KMSN 101820Z 16013KT 7SM CLR 17/07 A3002 780 51 1200 160/13 RMK AO2
14837KMSN MSN20101110122509211/10/10 12:25:31  5-MIN KMSN 101825Z 16010KT 7SM CLR 17/07 A3002 780 49 1300 160/10 RMK AO2
14837KMSN MSN20101110123009211/10/10 12:30:31  5-MIN KMSN 101830Z 16008KT 7SM CLR 17/07 A3002 780 49 1300 160/08 RMK AO2
14837KMSN MSN20101110123509211/10/10 12:35:31  5-MIN KMSN 101835Z 17010KT 7SM CLR 17/07 A3002 770 49 1300 170/10 RMK AO2
14837KMSN MSN20101110124009211/10/10 12:40:31  5-MIN KMSN 101840Z 17014KT 7SM CLR 17/07 A3002 770 49 1200 170/14 RMK AO2
14837KMSN MSN20101110124509211/10/10 12:45:31  5-MIN KMSN 101845Z 17013KT 7SM CLR 18/07 A3002 770 48 1300 170/13 RMK AO2
14837KMSN MSN20101110125011511/10/10 12:50:31  5-MIN KMSN 101850Z 18013G19KT 7SM CLR 18/07 A3002 770 48 1300 180/13G19 RMK AO2 SLP168 T01780067
14837KMSN MSN20101110125509211/10/10 12:55:31  5-MIN KMSN 101855Z 15014KT 7SM CLR 18/07 A3002 770 48 1300 150/14 RMK AO2
14837KMSN MSN20101110130009211/10/10 13:00:31  5-MIN KMSN 101900Z 17011KT 7SM CLR 18/07 A3002 780 48 1300 170/11 RMK AO2
14837KMSN MSN20101110130509211/10/10 13:05:31  5-MIN KMSN 101905Z 16013KT 7SM CLR 18/07 A3002 780 46 1400 150/13 RMK AO2
14837KMSN MSN20101110131009211/10/10 13:10:31  5-MIN KMSN 101910Z 16014KT 7SM CLR 18/07 A3001 780 48 1300 160/14 RMK AO2
14837KMSN MSN20101110131509211/10/10 13:15:31  5-MIN KMSN 101915Z 16013KT 7SM CLR 18/07 A3001 780 46 1400 160/13 RMK AO2
14837KMSN MSN20101110132009211/10/10 13:20:31  5-MIN KMSN 101920Z 16012KT 7SM CLR 18/07 A3001 780 46 1400 160/12 RMK AO2
14837KMSN MSN20101110132509211/10/10 13:25:31  5-MIN KMSN 101925Z 16013KT 7SM CLR 18/07 A3001 780 48 1300 160/13 RMK AO2
14837KMSN MSN20101110133009211/10/10 13:30:31  5-MIN KMSN 101930Z 15014KT 7SM CLR 18/07 A3001 790 48 1300 140/14 RMK AO2
14837KMSN MSN20101110133509211/10/10 13:35:31  5-MIN KMSN 101935Z 14013KT 7SM CLR 18/07 A3000 790 46 1400 140/13 RMK AO2
14837KMSN MSN20101110134009211/10/10 13:40:31  5-MIN KMSN 101940Z 15014KT 7SM CLR 19/07 A3000 790 44 1500 150/14 RMK AO2
14837KMSN MSN20101110134509811/10/10 13:45:31  5-MIN KMSN 101945Z 15013G19KT 7SM CLR 19/07 A3000 790 44 1500 150/13G19 RMK AO2
14837KMSN MSN20101110135011511/10/10 13:50:31  5-MIN KMSN 101950Z 15014G19KT 8SM CLR 19/07 A3000 790 44 1500 150/14G19 RMK AO2 SLP159 T01890067
14837KMSN MSN20101110135509811/10/10 13:55:31  5-MIN KMSN 101955Z 16013G20KT 8SM CLR 19/07 A3000 790 43 1500 160/13G20 RMK AO2
14837KMSN MSN20101110140009811/10/10 14:00:31  5-MIN KMSN 102000Z 17014G21KT 8SM CLR 19/06 A3000 790 43 1500 170/14G21 RMK AO2
14837KMSN MSN20101110140509811/10/10 14:05:31  5-MIN KMSN 102005Z 15016G21KT 9SM CLR 19/06 A3000 790 43 1500 150/16G21 RMK AO2
14837KMSN MSN20101110141009811/10/10 14:10:31  5-MIN KMSN 102010Z 17017G21KT 9SM CLR 19/06 A2999 800 41 1500 170/17G21 RMK AO2
14837KMSN MSN20101110141509211/10/10 14:15:31  5-MIN KMSN 102015Z 15015KT 9SM CLR 19/06 A2999 800 43 1500 150/15 RMK AO2
14837KMSN MSN20101110142009211/10/10 14:20:31  5-MIN KMSN 102020Z 15014KT 9SM CLR 19/06 A2999 800 43 1500 150/14 RMK AO2
14837KMSN MSN20101110142509211/10/10 14:25:31  5-MIN KMSN 102025Z 15013KT 9SM CLR 19/06 A2999 800 43 1500 150/13 RMK AO2
14837KMSN MSN20101110143009211/10/10 14:30:31  5-MIN KMSN 102030Z 16013KT 9SM CLR 19/06 A2999 800 43 1500 160/13 RMK AO2
14837KMSN MSN20101110143509211/10/10 14:35:31  5-MIN KMSN 102035Z 15014KT 9SM CLR 19/06 A2999 800 43 1500 150/14 RMK AO2
14837KMSN MSN20101110144009211/10/10 14:40:31  5-MIN KMSN 102040Z 15014KT 9SM CLR 19/06 A2999 800 43 1500 150/14 RMK AO2
14837KMSN MSN20101110144509211/10/10 14:45:31  5-MIN KMSN 102045Z 16017KT 9SM CLR 19/06 A2999 800 43 1500 160/17 RMK AO2
14837KMSN MSN20101110145011511/10/10 14:50:31  5-MIN KMSN 102050Z 16016KT 9SM CLR 19/06 A2999 800 43 1500 160/16 RMK AO2 SLP156 T01890061 58004
14837KMSN MSN20101110145509811/10/10 14:55:31  5-MIN KMSN 102055Z 16014G21KT 9SM CLR 19/06 A2999 800 43 1500 160/14G21 RMK AO2
14837KMSN MSN20101110150009811/10/10 15:00:31  5-MIN KMSN 102100Z 15016G21KT 9SM CLR 19/06 A2999 800 43 1500 150/16G21 RMK AO2
14837KMSN MSN20101110150509811/10/10 15:05:31  5-MIN KMSN 102105Z 16013G21KT 9SM CLR 19/06 A2999 800 43 1500 160/13G21 RMK AO2
14837KMSN MSN20101110151009211/10/10 15:10:31  5-MIN KMSN 102110Z 17015KT 9SM CLR 18/06 A2999 800 44 1400 170/15 RMK AO2
14837KMSN MSN20101110151509811/10/10 15:15:31  5-MIN KMSN 102115Z 16016G20KT 9SM CLR 18/06 A2999 800 44 1400 150/16G20 RMK AO2
14837KMSN MSN20101110152009211/10/10 15:20:31  5-MIN KMSN 102120Z 15016KT 9SM CLR 18/06 A2999 800 44 1400 150/16 RMK AO2
14837KMSN MSN20101110152509811/10/10 15:25:31  5-MIN KMSN 102125Z 16012G21KT 9SM CLR 18/06 A2999 800 44 1400 160/12G21 RMK AO2
14837KMSN MSN20101110153009211/10/10 15:30:31  5-MIN KMSN 102130Z 16015KT 9SM CLR 18/06 A2999 800 44 1400 160/15 RMK AO2
14837KMSN MSN20101110153509811/10/10 15:35:31  5-MIN KMSN 102135Z 15016G22KT 9SM CLR 18/06 A2999 800 44 1400 150/16G22 RMK AO2
14837KMSN MSN20101110154009811/10/10 15:40:31  5-MIN KMSN 102140Z 16011G22KT 9SM CLR 18/06 A2999 800 44 1400 160/11G22 RMK AO2
14837KMSN MSN20101110154509811/10/10 15:45:31  5-MIN KMSN 102145Z 17012G20KT 9SM CLR 18/06 A3000 790 46 1300 170/12G20 RMK AO2
14837KMSN MSN20101110155010911/10/10 15:50:31  5-MIN KMSN 102150Z 17012KT 9SM CLR 18/06 A3000 790 46 1300 170/12 RMK AO2 SLP160 T01780061
14837KMSN MSN20101110155509211/10/10 15:55:31  5-MIN KMSN 102155Z 17012KT 9SM CLR 18/06 A3000 790 44 1400 170/12 RMK AO2
14837KMSN MSN20101110160009211/10/10 16:00:31  5-MIN KMSN 102200Z 17013KT 9SM CLR 18/06 A3000 790 46 1300 170/13 RMK AO2
14837KMSN MSN20101110160509211/10/10 16:05:31  5-MIN KMSN 102205Z 17011KT 9SM CLR 18/06 A3000 790 46 1300 160/11 RMK AO2
14837KMSN MSN20101110161009211/10/10 16:10:31  5-MIN KMSN 102210Z 17011KT 9SM CLR 17/06 A3000 790 47 1300 170/11 RMK AO2
14837KMSN MSN20101110161509211/10/10 16:15:31  5-MIN KMSN 102215Z 16009KT 9SM CLR 17/06 A3000 790 47 1300 160/09 RMK AO2
14837KMSN MSN20101110162009211/10/10 16:20:31  5-MIN KMSN 102220Z 17007KT 9SM CLR 17/06 A3001 790 47 1300 170/07 RMK AO2
14837KMSN MSN20101110162509211/10/10 16:25:31  5-MIN KMSN 102225Z 16009KT 9SM CLR 17/07 A3001 790 51 1200 160/09 RMK AO2
14837KMSN MSN20101110163009211/10/10 16:30:31  5-MIN KMSN 102230Z 16010KT 9SM CLR 17/07 A3000 790 51 1200 160/10 RMK AO2
14837KMSN MSN20101110163509211/10/10 16:35:31  5-MIN KMSN 102235Z 16008KT 9SM CLR 17/07 A3001 790 51 1200 160/08 RMK AO2
14837KMSN MSN20101110164009211/10/10 16:40:31  5-MIN KMSN 102240Z 16008KT 9SM CLR 17/07 A3001 780 51 1200 160/08 RMK AO2
14837KMSN MSN20101110164509211/10/10 16:45:31  5-MIN KMSN 102245Z 15008KT 9SM CLR 16/07 A3001 780 53 1100 150/08 RMK AO2
14837KMSN MSN20101110165011011/10/10 16:50:31  5-MIN KMSN 102250Z 15007KT 10SM CLR 16/07 A3001 780 53 1100 150/07 RMK AO2 SLP165 T01610067
14837KMSN MSN20101110165509211/10/10 16:55:31  5-MIN KMSN 102255Z 14007KT 9SM CLR 16/07 A3001 780 53 1100 140/07 RMK AO2
14837KMSN MSN20101110170009311/10/10 17:00:31  5-MIN KMSN 102300Z 14007KT 10SM CLR 15/07 A3001 780 57 1000 140/07 RMK AO2
14837KMSN MSN20101110170509311/10/10 17:05:31  5-MIN KMSN 102305Z 14007KT 10SM CLR 15/06 A3001 780 55 1000 140/07 RMK AO2
14837KMSN MSN20101110171009311/10/10 17:10:31  5-MIN KMSN 102310Z 15006KT 10SM CLR 16/06 A3001 780 53 1100 140/06 RMK AO2
14837KMSN MSN20101110171509311/10/10 17:15:31  5-MIN KMSN 102315Z 15006KT 10SM CLR 15/06 A3001 780 55 1000 150/06 RMK AO2
14837KMSN MSN20101110172009311/10/10 17:20:31  5-MIN KMSN 102320Z 15007KT 10SM CLR 16/06 A3001 780 53 1100 150/07 RMK AO2
14837KMSN MSN20101110172509211/10/10 17:25:31  5-MIN KMSN 102325Z 16005KT 10SM CLR 14/07 A3002 780 59 900 150/05 RMK AO2
14837KMSN MSN20101110173009311/10/10 17:30:31  5-MIN KMSN 102330Z 16006KT 10SM CLR 16/07 A3002 780 55 1100 160/06 RMK AO2
14837KMSN MSN20101110173509311/10/10 17:35:31  5-MIN KMSN 102335Z 16007KT 10SM CLR 15/07 A3002 770 57 1000 160/07 RMK AO2
14837KMSN MSN20101110174009211/10/10 17:40:31  5-MIN KMSN 102340Z 16007KT 10SM CLR 14/07 A3002 770 59 900 160/07 RMK AO2
14837KMSN MSN20101110174509211/10/10 17:45:31  5-MIN KMSN 102345Z 16007KT 10SM CLR 14/07 A3002 770 59 900 160/07 RMK AO2
14837KMSN MSN20101110175012711/10/10 17:50:31  5-MIN KMSN 102350Z 16007KT 10SM CLR 14/07 A3003 770 59 900 160/07 RMK AO2 SLP171 T01440067 10194 20144 58010
14837KMSN MSN20101110175509211/10/10 17:55:31  5-MIN KMSN 102355Z 15006KT 10SM CLR 14/07 A3003 770 61 900 150/06 RMK AO2
14837KMSN MSN20101110180009211/10/10 18:00:31  5-MIN KMSN 110000Z 15007KT 10SM CLR 14/07 A3003 770 59 900 140/07 RMK AO2
14837KMSN MSN20101110180509211/10/10 18:05:31  5-MIN KMSN 110005Z 15008KT 10SM CLR 14/07 A3003 760 59 900 150/08 RMK AO2
14837KMSN MSN20101110181009211/10/10 18:10:31  5-MIN KMSN 110010Z 14007KT 10SM CLR 14/07 A3003 760 59 900 140/07 RMK AO2
14837KMSN MSN20101110181509211/10/10 18:15:31  5-MIN KMSN 110015Z 14007KT 10SM CLR 14/07 A3003 760 59 900 140/07 RMK AO2
14837KMSN MSN20101110182009211/10/10 18:20:31  5-MIN KMSN 110020Z 15008KT 10SM CLR 14/07 A3003 760 59 900 150/08 RMK AO2
14837KMSN MSN20101110182509211/10/10 18:25:31  5-MIN KMSN 110025Z 15007KT 10SM CLR 14/07 A3003 760 59 900 150/07 RMK AO2
14837KMSN MSN20101110183009211/10/10 18:30:31  5-MIN KMSN 110030Z 14007KT 10SM CLR 14/07 A3003 760 59 900 140/07 RMK AO2
14837KMSN MSN20101110183509211/10/10 18:35:31  5-MIN KMSN 110035Z 14008KT 10SM CLR 14/07 A3003 760 59 900 140/08 RMK AO2
14837KMSN MSN20101110184009211/10/10 18:40:31  5-MIN KMSN 110040Z 14007KT 10SM CLR 14/07 A3003 760 59 900 140/07 RMK AO2
14837KMSN MSN20101110184509211/10/10 18:45:31  5-MIN KMSN 110045Z 14007KT 10SM CLR 14/07 A3003 760 59 900 140/07 RMK AO2
14837KMSN MSN20101110185010911/10/10 18:50:31  5-MIN KMSN 110050Z 14007KT 10SM CLR 14/07 A3003 760 61 800 130/07 RMK AO2 SLP173 T01390067
14837KMSN MSN20101110185509211/10/10 18:55:31  5-MIN KMSN 110055Z 13009KT 10SM CLR 14/07 A3003 760 61 900 130/09 RMK AO2
14837KMSN MSN20101110190009211/10/10 19:00:31  5-MIN KMSN 110100Z 13010KT 10SM CLR 14/07 A3003 770 61 900 130/10 RMK AO2
14837KMSN MSN20101110190509211/10/10 19:05:31  5-MIN KMSN 110105Z 14009KT 10SM CLR 14/07 A3003 760 61 900 140/09 RMK AO2
14837KMSN MSN20101110191009211/10/10 19:10:31  5-MIN KMSN 110110Z 14010KT 10SM CLR 14/07 A3003 760 59 900 140/10 RMK AO2
14837KMSN MSN20101110191509211/10/10 19:15:31  5-MIN KMSN 110115Z 14010KT 10SM CLR 14/07 A3003 760 59 900 140/10 RMK AO2
14837KMSN MSN20101110192009211/10/10 19:20:31  5-MIN KMSN 110120Z 15010KT 10SM CLR 14/07 A3003 760 61 800 140/10 RMK AO2
14837KMSN MSN20101110192509211/10/10 19:25:31  5-MIN KMSN 110125Z 15009KT 10SM CLR 14/07 A3003 760 61 800 150/09 RMK AO2
14837KMSN MSN20101110193009211/10/10 19:30:31  5-MIN KMSN 110130Z 15008KT 10SM CLR 14/07 A3004 760 61 800 150/08 RMK AO2
14837KMSN MSN20101110193509211/10/10 19:35:31  5-MIN KMSN 110135Z 15008KT 10SM CLR 14/07 A3004 760 61 800 150/08 RMK AO2
14837KMSN MSN20101110194009211/10/10 19:40:31  5-MIN KMSN 110140Z 15008KT 10SM CLR 13/07 A3004 760 64 800 150/08 RMK AO2
14837KMSN MSN20101110194509511/10/10 19:45:31  5-MIN KMSN 110145Z 14009KT 10SM FEW070 13/07 A3003 760 66 800 140/09 RMK AO2
14837KMSN MSN20101110195011211/10/10 19:50:31  5-MIN KMSN 110150Z 14010KT 10SM FEW070 14/07 A3003 760 64 800 140/10 RMK AO2 SLP172 T01390072
14837KMSN MSN20101110195509511/10/10 19:55:31  5-MIN KMSN 110155Z 15009KT 10SM FEW070 14/07 A3004 760 64 800 140/09 RMK AO2
14837KMSN MSN20101110200009511/10/10 20:00:31  5-MIN KMSN 110200Z 14009KT 10SM FEW070 13/07 A3004 760 66 800 140/09 RMK AO2
14837KMSN MSN20101110200509511/10/10 20:05:31  5-MIN KMSN 110205Z 15009KT 10SM FEW070 14/07 A3004 760 64 800 150/09 RMK AO2
14837KMSN MSN20101110201009211/10/10 20:10:31  5-MIN KMSN 110210Z 15009KT 10SM CLR 14/07 A3004 750 64 800 150/09 RMK AO2
14837KMSN MSN20101110201509211/10/10 20:15:31  5-MIN KMSN 110215Z 15010KT 10SM CLR 14/07 A3004 750 64 800 150/10 RMK AO2
14837KMSN MSN20101110202009211/10/10 20:20:31  5-MIN KMSN 110220Z 15011KT 10SM CLR 14/08 A3004 750 66 800 150/11 RMK AO2
14837KMSN MSN20101110202509211/10/10 20:25:31  5-MIN KMSN 110225Z 16009KT 10SM CLR 14/08 A3004 750 66 800 150/09 RMK AO2
14837KMSN MSN20101110203009211/10/10 20:30:31  5-MIN KMSN 110230Z 16010KT 10SM CLR 14/08 A3004 750 64 900 160/10 RMK AO2
14837KMSN MSN20101110203509211/10/10 20:35:31  5-MIN KMSN 110235Z 16011KT 10SM CLR 14/08 A3005 750 66 800 160/11 RMK AO2
14837KMSN MSN20101110204009211/10/10 20:40:31  5-MIN KMSN 110240Z 17010KT 10SM CLR 14/08 A3005 750 66 800 170/10 RMK AO2
14837KMSN MSN20101110204509211/10/10 20:45:31  5-MIN KMSN 110245Z 16011KT 10SM CLR 14/08 A3005 750 66 800 160/11 RMK AO2
14837KMSN MSN20101110205011511/10/10 20:50:31  5-MIN KMSN 110250Z 16011KT 10SM CLR 14/08 A3005 750 66 800 160/11 RMK AO2 SLP177 T01390078 53013
14837KMSN MSN20101110205509211/10/10 20:55:31  5-MIN KMSN 110255Z 16010KT 10SM CLR 14/08 A3005 750 66 800 160/10 RMK AO2
14837KMSN MSN20101110210009211/10/10 21:00:31  5-MIN KMSN 110300Z 16011KT 10SM CLR 14/08 A3005 750 66 800 160/11 RMK AO2
14837KMSN MSN20101110210509211/10/10 21:05:31  5-MIN KMSN 110305Z 16011KT 10SM CLR 14/08 A3005 750 69 800 160/11 RMK AO2
14837KMSN MSN20101110211009211/10/10 21:10:31  5-MIN KMSN 110310Z 16011KT 10SM CLR 14/08 A3005 750 69 800 160/11 RMK AO2
14837KMSN MSN20101110211509211/10/10 21:15:31  5-MIN KMSN 110315Z 15012KT 10SM CLR 14/08 A3005 750 69 800 150/12 RMK AO2
14837KMSN MSN20101110212009211/10/10 21:20:31  5-MIN KMSN 110320Z 16010KT 10SM CLR 14/08 A3005 740 69 800 160/10 RMK AO2
14837KMSN MSN20101110212509211/10/10 21:25:31  5-MIN KMSN 110325Z 16010KT 10SM CLR 14/08 A3005 740 66 900 160/10 RMK AO2
14837KMSN MSN20101110213009211/10/10 21:30:31  5-MIN KMSN 110330Z 16011KT 10SM CLR 14/08 A3005 740 66 900 160/11 RMK AO2
14837KMSN MSN20101110213509211/10/10 21:35:31  5-MIN KMSN 110335Z 16012KT 10SM CLR 14/08 A3005 740 66 900 160/12 RMK AO2
14837KMSN MSN20101110214009211/10/10 21:40:31  5-MIN KMSN 110340Z 17012KT 10SM CLR 14/08 A3005 740 66 900 170/12 RMK AO2
14837KMSN MSN20101110214509211/10/10 21:45:31  5-MIN KMSN 110345Z 17010KT 10SM CLR 14/08 A3006 740 69 800 170/10 RMK AO2
14837KMSN MSN20101111222509611/11/10 22:25:31  5-MIN KMSN 120425Z 35003KT 10SM BKN120 07/03 A3040 420 73 -300 350/03 RMK AO2
14837KMSN MSN20101111223009611/11/10 22:30:31  5-MIN KMSN 120430Z 00000KT 10SM BKN120 08/03 A3040 420 70 -300 000/00 RMK AO2
14837KMSN MSN20101111223509611/11/10 22:35:31  5-MIN KMSN 120435Z 01003KT 10SM BKN120 08/03 A3040 420 70 -300 010/03 RMK AO2
14837KMSN MSN20101111224009611/11/10 22:40:31  5-MIN KMSN 120440Z 01003KT 10SM BKN120 08/02 A3040 420 68 -300 010/03 RMK AO2
14837KMSN MSN20101111224509611/11/10 22:45:31  5-MIN KMSN 120445Z 00000KT 10SM OVC110 08/03 A3040 420 70 -300 000/00 RMK AO2
14837KMSN MSN20101111225011311/11/10 22:50:31  5-MIN KMSN 120450Z 00000KT 10SM BKN110 08/03 A3040 420 70 -300 000/00 RMK AO2 SLP299 T00780028
14837KMSN MSN20101111225509611/11/10 22:55:31  5-MIN KMSN 120455Z 00000KT 10SM BKN110 08/03 A3040 420 70 -300 000/00 RMK AO2
14837KMSN MSN20101111230010311/11/10 23:00:31  5-MIN KMSN 120500Z 00000KT 10SM FEW075 OVC110 08/03 A3041 420 70 -300 000/00 RMK AO2
14837KMSN MSN20101111230510311/11/10 23:05:31  5-MIN KMSN 120505Z 00000KT 10SM SCT075 OVC110 07/03 A3041 420 73 -300 000/00 RMK AO2
14837KMSN MSN20101111231010311/11/10 23:10:31  5-MIN KMSN 120510Z 00000KT 10SM FEW075 OVC110 07/03 A3040 420 73 -300 000/00 RMK AO2
14837KMSN MSN20101111231510311/11/10 23:15:31  5-MIN KMSN 120515Z 00000KT 10SM FEW075 OVC110 08/02 A3041 420 65 -300 000/00 RMK AO2
14837KMSN MSN20101111232010311/11/10 23:20:31  5-MIN KMSN 120520Z 00000KT 10SM FEW075 OVC110 07/02 A3041 420 70 -300 000/00 RMK AO2
14837KMSN MSN20101111232510311/11/10 23:25:31  5-MIN KMSN 120525Z 35003KT 10SM FEW075 OVC110 07/02 A3040 420 70 -300 350/03 RMK AO2
14837KMSN MSN20101111233010311/11/10 23:30:31  5-MIN KMSN 120530Z 34003KT 10SM FEW075 OVC110 08/02 A3040 420 65 -300 340/03 RMK AO2
14837KMSN MSN20101111233509611/11/10 23:35:31  5-MIN KMSN 120535Z 35003KT 10SM BKN110 07/02 A3040 420 68 -300 350/03 RMK AO2
14837KMSN MSN20101111234010311/11/10 23:40:31  5-MIN KMSN 120540Z 35003KT 10SM FEW070 BKN110 08/01 A3040 420 62 -300 350/03 RMK AO2
14837KMSN MSN20101111234510311/11/10 23:45:31  5-MIN KMSN 120545Z 36004KT 10SM FEW070 BKN110 08/02 A3040 420 65 -300 360/04 RMK AO2
14837KMSN MSN20101111235014811/11/10 23:50:31  5-MIN KMSN 120550Z 00000KT 10SM FEW070 BKN110 08/02 A3040 430 65 -300 000/00 RMK AO2 SLP297 T00780017 10089 20067 401440067 53009
14837KMSN MSN20101111235510311/11/10 23:55:31  5-MIN KMSN 120555Z 36003KT 10SM FEW070 BKN110 07/03 A3040 430 73 -300 360/03 RMK AO2
14837KMSN MSN20101112000010311/12/10 00:00:32  5-MIN KMSN 120600Z 35003KT 10SM FEW070 BKN110 07/03 A3040 420 73 -300 350/03 RMK AO2
14837KMSN MSN20101112000510311/12/10 00:05:31  5-MIN KMSN 120605Z 35004KT 10SM FEW070 BKN110 07/02 A3040 420 68 -300 350/04 RMK AO2
14837KMSN MSN20101112001010311/12/10 00:10:31  5-MIN KMSN 120610Z 35005KT 10SM FEW070 OVC110 08/02 A3040 420 65 -300 350/05 RMK AO2
14837KMSN MSN20101112001509611/12/10 00:15:31  5-MIN KMSN 120615Z 35006KT 10SM OVC110 08/02 A3040 420 65 -300 350/06 RMK AO2
14837KMSN MSN20101112002009611/12/10 00:20:31  5-MIN KMSN 120620Z 36006KT 10SM OVC100 08/02 A3040 430 65 -300 360/06 RMK AO2
14837KMSN MSN20101112002510311/12/10 00:25:31  5-MIN KMSN 120625Z 35006KT 10SM FEW070 OVC100 08/02 A3040 430 65 -300 350/06 RMK AO2
14837KMSN MSN20101112003010311/12/10 00:30:31  5-MIN KMSN 120630Z 35006KT 10SM SCT070 OVC100 08/02 A3040 430 65 -200 350/06 RMK AO2
14837KMSN MSN20101112003510311/12/10 00:35:31  5-MIN KMSN 120635Z 34006KT 10SM BKN070 OVC100 08/02 A3040 420 65 -300 340/06 RMK AO2
14837KMSN MSN20101112004010311/12/10 00:40:31  5-MIN KMSN 120640Z 35006KT 10SM BKN070 OVC100 08/02 A3040 420 63 -200 350/06 RMK AO2
14837KMSN MSN20101112004510311/12/10 00:45:31  5-MIN KMSN 120645Z 34006KT 10SM BKN070 OVC100 08/02 A3040 430 63 -200 340/06 RMK AO2
14837KMSN MSN20101112005011311/12/10 00:50:31  5-MIN KMSN 120650Z 34006KT 10SM OVC070 08/02 A3040 430 65 -300 340/06 RMK AO2 SLP297 T00780017
14837KMSN MSN20101112005509611/12/10 00:55:31  5-MIN KMSN 120655Z 34006KT 10SM OVC070 08/01 A3040 420 60 -200 340/06 RMK AO2
14837KMSN MSN20101112010009611/12/10 01:00:31  5-MIN KMSN 120700Z 34006KT 10SM OVC070 08/01 A3040 420 60 -200 340/06 RMK AO2
14837KMSN MSN20101112010509611/12/10 01:05:31  5-MIN KMSN 120705Z 34006KT 10SM OVC070 08/01 A3040 420 60 -200 340/06 RMK AO2
14837KMSN MSN20101112011009611/12/10 01:10:31  5-MIN KMSN 120710Z 34007KT 10SM OVC070 08/01 A3040 430 58 -200 340/07 RMK AO2
14837KMSN MSN20101112011510311/12/10 01:15:31  5-MIN KMSN 120715Z 34006KT 10SM BKN070 OVC110 08/01 A3040 430 58 -200 340/06 RMK AO2
14837KMSN MSN20101112012010311/12/10 01:20:31  5-MIN KMSN 120720Z 34006KT 10SM BKN070 OVC110 08/01 A3040 420 58 -200 340/06 RMK AO2
14837KMSN MSN20101112012509611/12/10 01:25:31  5-MIN KMSN 120725Z 35005KT 10SM OVC070 08/01 A3040 420 58 -200 340/05 RMK AO2
14837KMSN MSN20101112013010311/12/10 01:30:31  5-MIN KMSN 120730Z 35006KT 10SM BKN070 OVC110 08/01 A3040 430 58 -200 350/06 RMK AO2
14837KMSN MSN20101112013510311/12/10 01:35:31  5-MIN KMSN 120735Z 35006KT 10SM BKN070 OVC110 08/01 A3039 430 60 -200 350/06 RMK AO2
14837KMSN MSN20101112014010311/12/10 01:40:31  5-MIN KMSN 120740Z 35006KT 10SM SCT070 OVC100 08/01 A3039 430 60 -200 350/06 RMK AO2
14837KMSN MSN20101112014510311/12/10 01:45:31  5-MIN KMSN 120745Z 34006KT 10SM SCT070 OVC100 08/01 A3040 430 60 -200 340/06 RMK AO2
14837KMSN MSN20101112015012011/12/10 01:50:31  5-MIN KMSN 120750Z 35004KT 10SM FEW070 OVC100 08/01 A3040 430 60 -200 350/04 RMK AO2 SLP296 T00780006
14837KMSN MSN20101112015510311/12/10 01:55:31  5-MIN KMSN 120755Z 35005KT 10SM FEW070 OVC100 08/01 A3039 430 60 -200 350/05 RMK AO2
14837KMSN MSN20101112020009611/12/10 02:00:31  5-MIN KMSN 120800Z 36005KT 10SM OVC100 08/01 A3039 440 60 -200 350/05 RMK AO2
14837KMSN MSN20101112020510311/12/10 02:05:31  5-MIN KMSN 120805Z 36005KT 10SM BKN100 OVC120 08/01 A3039 440 60 -200 360/05 RMK AO2
14837KMSN MSN20101112021010311/12/10 02:10:31  5-MIN KMSN 120810Z 35005KT 10SM BKN100 OVC120 08/01 A3039 440 60 -200 350/05 RMK AO2
14837KMSN MSN20101112021510311/12/10 02:15:31  5-MIN KMSN 120815Z 36005KT 10SM BKN100 OVC120 08/00 A3039 440 58 -200 360/05 RMK AO2
14837KMSN MSN20101112022010311/12/10 02:20:31  5-MIN KMSN 120820Z 36004KT 10SM BKN100 OVC120 08/01 A3039 430 60 -200 360/04 RMK AO2
14837KMSN MSN20101112022510311/12/10 02:25:31  5-MIN KMSN 120825Z 36005KT 10SM BKN090 OVC110 08/01 A3039 430 60 -200 360/05 RMK AO2
14837KMSN MSN20101112023010311/12/10 02:30:31  5-MIN KMSN 120830Z 01006KT 10SM BKN095 OVC120 08/01 A3039 430 60 -200 360/06 RMK AO2
14837KMSN MSN20101112023510311/12/10 02:35:31  5-MIN KMSN 120835Z 01007KT 10SM BKN090 OVC120 08/01 A3039 430 60 -200 010/07 RMK AO2
14837KMSN MSN20101112024009611/12/10 02:40:31  5-MIN KMSN 120840Z 01008KT 10SM OVC090 08/00 A3038 440 58 -200 010/08 RMK AO2
14837KMSN MSN20101112024509611/12/10 02:45:31  5-MIN KMSN 120845Z 01009KT 10SM OVC090 08/00 A3038 440 55 -200 010/09 RMK AO2
14837KMSN MSN20101112025014111/12/10 02:50:31  5-MIN KMSN 120850Z 01008KT 10SM -RA OVC090 08/00 A3039 440 58 -200 010/08 RMK AO2 RAB50 SLP293 P0000 60000 T00780000 56005
14837KMSN MSN20101112025510611/12/10 02:55:31  5-MIN KMSN 120855Z 02007KT 10SM -RA OVC090 08/01 A3039 440 60 -200 020/07 RMK AO2 P0000
14837KMSN MSN20101112030010611/12/10 03:00:31  5-MIN KMSN 120900Z 02008KT 10SM -RA OVC090 08/01 A3038 440 58 -200 020/08 RMK AO2 P0000
14837KMSN MSN20101112030510611/12/10 03:05:31  5-MIN KMSN 120905Z 01007KT 10SM -RA OVC090 08/00 A3039 430 55 -200 010/07 RMK AO2 P0000
14837KMSN MSN20101112031010811/12/10 03:10:31  5-MIN KMSN 120910Z 01007KT 10SM OVC085 08/00 A3039 430 55 -200 010/07 RMK AO2 RAE09 P0000
14837KMSN MSN20101112031510811/12/10 03:15:31  5-MIN KMSN 120915Z 01006KT 10SM OVC085 08/00 A3039 430 55 -200 360/06 RMK AO2 RAE09 P0000
14837KMSN MSN20101112032010811/12/10 03:20:31  5-MIN KMSN 120920Z 36006KT 10SM OVC090 08/01 A3039 430 60 -200 360/06 RMK AO2 RAE09 P0000
14837KMSN MSN20101112032510811/12/10 03:25:31  5-MIN KMSN 120925Z 36006KT 10SM OVC085 08/01 A3040 430 58 -200 360/06 RMK AO2 RAE09 P0000
14837KMSN MSN20101112033010811/12/10 03:30:31  5-MIN KMSN 120930Z 35004KT 10SM OVC080 08/01 A3040 420 60 -300 350/04 RMK AO2 RAE09 P0000
14837KMSN MSN20101112033511511/12/10 03:35:31  5-MIN KMSN 120935Z 35005KT 10SM BKN075 OVC090 08/01 A3040 420 60 -300 350/05 RMK AO2 RAE09 P0000
14837KMSN MSN20101112034012211/12/10 03:40:31  5-MIN KMSN 120940Z 01006KT 10SM -RA BKN075 OVC090 08/01 A3040 430 60 -200 010/06 RMK AO2 RAE09B38 P0000
14837KMSN MSN20101112034512211/12/10 03:45:31  5-MIN KMSN 120945Z 02005KT 10SM -RA BKN075 OVC090 08/01 A3040 430 62 -300 020/05 RMK AO2 RAE09B38 P0000
14837KMSN MSN20101112035013211/12/10 03:50:31  5-MIN KMSN 120950Z 04005KT 10SM -RA OVC075 08/01 A3039 430 62 -200 040/05 RMK AO2 RAE09B38 SLP297 P0000 T00780011
14837KMSN MSN20101112035510611/12/10 03:55:31  5-MIN KMSN 120955Z 03008KT 10SM -RA OVC075 08/01 A3040 430 62 -200 030/08 RMK AO2 P0000
14837KMSN MSN20101112040010611/12/10 04:00:31  5-MIN KMSN 121000Z 04006KT 10SM -RA OVC075 08/01 A3039 430 62 -200 040/06 RMK AO2 P0000
14837KMSN MSN20101112040510611/12/10 04:05:31  5-MIN KMSN 121005Z 05005KT 10SM -RA OVC075 07/02 A3039 430 70 -300 050/05 RMK AO2 P0000
14837KMSN MSN20101112041010611/12/10 04:10:31  5-MIN KMSN 121010Z 03006KT 10SM -RA OVC075 07/02 A3039 430 70 -300 030/06 RMK AO2 P0000
14837KMSN MSN20101112041510611/12/10 04:15:31  5-MIN KMSN 121015Z 03005KT 10SM -RA OVC075 07/02 A3039 430 70 -300 030/05 RMK AO2 P0000
14837KMSN MSN20101112042010611/12/10 04:20:31  5-MIN KMSN 121020Z 03006KT 10SM -RA OVC075 07/02 A3039 430 70 -300 020/06 RMK AO2 P0000
14837KMSN MSN20101112042510611/12/10 04:25:31  5-MIN KMSN 121025Z 03005KT 10SM -RA OVC075 07/02 A3040 430 70 -300 030/05 RMK AO2 P0000
14837KMSN MSN20101112043010611/12/10 04:30:31  5-MIN KMSN 121030Z 03006KT 10SM -RA OVC075 07/02 A3040 430 73 -400 030/06 RMK AO2 P0000
14837KMSN MSN20101112043511211/12/10 04:35:31  5-MIN KMSN 121035Z 03005KT 8SM -RA SCT065 OVC080 07/02 A3040 430 73 -400 030/05 RMK AO2 P0001
14837KMSN MSN20101112044011211/12/10 04:40:31  5-MIN KMSN 121040Z 03007KT 8SM -RA BKN070 OVC090 07/02 A3040 430 73 -400 030/07 RMK AO2 P0001
14837KMSN MSN20101112044511211/12/10 04:45:31  5-MIN KMSN 121045Z 03006KT 8SM -RA BKN070 OVC090 07/03 A3040 430 76 -400 030/06 RMK AO2 P0002
14837KMSN MSN20101112045012911/12/10 04:50:31  5-MIN KMSN 121050Z 04005KT 8SM -RA BKN070 OVC085 07/03 A3040 430 76 -400 040/05 RMK AO2 SLP298 P0002 T00670028
14837KMSN MSN20101112045511211/12/10 04:55:31  5-MIN KMSN 121055Z 04005KT 9SM -RA SCT065 OVC085 07/03 A3040 430 76 -400 040/05 RMK AO2 P0000
14837KMSN MSN20101112050011211/12/10 05:00:31  5-MIN KMSN 121100Z 05003KT 9SM -RA SCT070 OVC085 07/03 A3040 430 76 -400 050/03 RMK AO2 P0001
14837KMSN MSN20101112050511311/12/10 05:05:31  5-MIN KMSN 121105Z 03003KT 10SM -RA SCT070 OVC085 06/03 A3040 420 82 -500 030/03 RMK AO2 P0001
14837KMSN MSN20101112051011311/12/10 05:10:31  5-MIN KMSN 121110Z 02003KT 10SM -RA FEW070 OVC085 06/03 A3040 420 79 -500 020/03 RMK AO2 P0001
14837KMSN MSN20101112051511311/12/10 05:15:31  5-MIN KMSN 121115Z 02005KT 10SM -RA FEW070 OVC085 06/03 A3040 430 79 -500 020/05 RMK AO2 P0001
14837KMSN MSN20101112052010611/12/10 05:20:31  5-MIN KMSN 121120Z 02006KT 10SM -RA OVC080 06/03 A3039 430 79 -500 020/06 RMK AO2 P0001
14837KMSN MSN20101112052510811/12/10 05:25:31  5-MIN KMSN 121125Z 03007KT 10SM OVC080 07/03 A3040 430 76 -400 030/07 RMK AO2 RAE23 P0001
14837KMSN MSN20101112053011311/12/10 05:30:31  5-MIN KMSN 121130Z 02007KT 10SM -RA FEW050 OVC080 07/03 A3040 420 76 -400 020/07 RMK AO2 P0001
14837KMSN MSN20101112053511311/12/10 05:35:31  5-MIN KMSN 121135Z 35004KT 10SM -RA BKN050 OVC080 06/03 A3040 420 79 -500 350/04 RMK AO2 P0001
14837KMSN MSN20101112054012011/12/10 05:40:31  5-MIN KMSN 121140Z 36007KT 10SM -RA SCT050 BKN070 OVC085 06/03 A3040 420 79 -500 360/07 RMK AO2 P0001
14837KMSN MSN20101112054511311/12/10 05:45:31  5-MIN KMSN 121145Z 34003KT 10SM -RA SCT050 OVC070 06/03 A3040 420 79 -500 340/03 RMK AO2 P0001
14837KMSN MSN20101112055015911/12/10 05:50:31  5-MIN KMSN 121150Z 35004KT 8SM -RA BKN050 OVC065 06/03 A3041 420 79 -500 340/04 RMK AO2 SLP303 P0001 60003 70003 T00610028 10083 20061 58003
14837KMSN MSN20101112055511211/12/10 05:55:31  5-MIN KMSN 121155Z 01005KT 7SM -RA BKN050 OVC065 06/03 A3041 420 79 -500 010/05 RMK AO2 P0000
14837KMSN MSN20101112060010511/12/10 06:00:31  5-MIN KMSN 121200Z 01006KT 7SM -RA OVC055 06/03 A3041 420 79 -500 010/06 RMK AO2 P0000
14837KMSN MSN20101112060511211/12/10 06:05:31  5-MIN KMSN 121205Z 34005KT 8SM -RA SCT047 OVC060 06/03 A3041 410 85 -500 340/05 RMK AO2 P0001
14837KMSN MSN20101112061011211/12/10 06:10:31  5-MIN KMSN 121210Z 36006KT 8SM -RA BKN047 OVC060 06/03 A3041 420 85 -500 360/06 RMK AO2 P0001
14837KMSN MSN20101112061511211/12/10 06:15:31  5-MIN KMSN 121215Z 36005KT 9SM -RA BKN045 OVC060 06/03 A3041 420 85 -500 360/05 RMK AO2 P0001
14837KMSN MSN20101112062011311/12/10 06:20:31  5-MIN KMSN 121220Z 01006KT 10SM -RA BKN045 OVC060 06/03 A3041 420 85 -500 010/06 RMK AO2 P0001
14837KMSN MSN20101112062511311/12/10 06:25:31  5-MIN KMSN 121225Z 01006KT 10SM -RA BKN043 OVC060 06/03 A3041 420 85 -500 010/06 RMK AO2 P0001
14837KMSN MSN20101112063010811/12/10 06:30:31  5-MIN KMSN 121230Z 35005KT 10SM OVC043 06/03 A3041 410 85 -500 350/05 RMK AO2 RAE29 P0001
14837KMSN MSN20101112063510611/12/10 06:35:31  5-MIN KMSN 121235Z 35005KT 10SM -RA OVC043 06/03 A3041 410 85 -500 350/05 RMK AO2 P0001
14837KMSN MSN20101112064010511/12/10 06:40:31  5-MIN KMSN 121240Z 35004KT 8SM -RA OVC043 06/03 A3042 410 85 -500 350/04 RMK AO2 P0001
14837KMSN MSN20101112064510811/12/10 06:45:31  5-MIN KMSN 121245Z 35005KT 6SM -RA BR OVC043 06/03 A3042 410 85 -500 350/05 RMK AO2 P0001
14837KMSN MSN20101112065012211/12/10 06:50:31  5-MIN KMSN 121250Z 35005KT 7SM -RA OVC043 06/03 A3042 400 85 -600 350/05 RMK AO2 SLP309 P0002 T00560033
14837KMSN MSN20101112065510511/12/10 06:55:31  5-MIN KMSN 121255Z 36006KT 8SM -RA OVC043 06/03 A3042 400 85 -500 350/06 RMK AO2 P0000
14837KMSN MSN20101112070010511/12/10 07:00:31  5-MIN KMSN 121300Z 01007KT 7SM -RA OVC043 06/03 A3042 410 85 -500 010/07 RMK AO2 P0000
14837KMSN MSN20101112070510511/12/10 07:05:31  5-MIN KMSN 121305Z 36008KT 7SM -RA OVC043 06/03 A3042 400 85 -500 360/08 RMK AO2 P0000
14837KMSN MSN20101112071010511/12/10 07:10:31  5-MIN KMSN 121310Z 36008KT 7SM -RA OVC043 06/03 A3042 410 85 -500 360/08 RMK AO2 P0000
14837KMSN MSN20101112071510511/12/10 07:15:31  5-MIN KMSN 121315Z 36008KT 8SM -RA OVC043 06/03 A3042 410 85 -500 360/08 RMK AO2 P0000
14837KMSN MSN20101112072010511/12/10 07:20:31  5-MIN KMSN 121320Z 01009KT 8SM -RA OVC043 06/03 A3042 410 85 -500 010/09 RMK AO2 P0000
14837KMSN MSN20101112072510611/12/10 07:25:31  5-MIN KMSN 121325Z 01008KT 10SM -RA OVC041 06/03 A3042 410 85 -500 010/08 RMK AO2 P0000
14837KMSN MSN20101112073010611/12/10 07:30:31  5-MIN KMSN 121330Z 02008KT 10SM -RA OVC041 06/03 A3042 400 85 -500 020/08 RMK AO2 P0000
14837KMSN MSN20101112073510511/12/10 07:35:31  5-MIN KMSN 121335Z 02008KT 9SM -RA OVC041 06/03 A3043 400 85 -600 020/08 RMK AO2 P0000
14837KMSN MSN20101112074010511/12/10 07:40:31  5-MIN KMSN 121340Z 01008KT 8SM -RA OVC041 06/03 A3043 390 85 -600 010/08 RMK AO2 P0000
14837KMSN MSN20101112074510511/12/10 07:45:31  5-MIN KMSN 121345Z 01009KT 8SM -RA OVC041 06/03 A3043 390 85 -600 360/09 RMK AO2 P0000
14837KMSN MSN20101112075012511/12/10 07:50:31  5-MIN KMSN 121350Z 01008KT 5SM -RA BR OVC039 05/03 A3043 390 85 -600 360/08 RMK AO2 SLP312 P0001 T00500028
14837KMSN MSN20101112075511711/12/10 07:55:31  5-MIN KMSN 121355Z 02007KT 3SM RA BR OVC039 05/03 A3043 390 89 -600 020/07 RMK AO2 TWR VIS 4 P0000
14837KMSN MSN20101112080010811/12/10 08:00:31  5-MIN KMSN 121400Z 03007KT 3SM -RA BR OVC039 05/03 A3043 400 89 -600 030/07 RMK AO2 P0001
14837KMSN MSN20101112080510811/12/10 08:05:31  5-MIN KMSN 121405Z 04008KT 6SM -RA BR OVC039 05/03 A3043 400 89 -600 040/08 RMK AO2 P0001
14837KMSN MSN20101112081010511/12/10 08:10:31  5-MIN KMSN 121410Z 04008KT 8SM -RA OVC037 05/03 A3042 400 89 -600 040/08 RMK AO2 P0001
14837KMSN MSN20101112081510511/12/10 08:15:31  5-MIN KMSN 121415Z 05009KT 8SM -RA OVC037 05/03 A3042 410 89 -600 050/09 RMK AO2 P0001
14837KMSN MSN20101112082010511/12/10 08:20:31  5-MIN KMSN 121420Z 05010KT 9SM -RA OVC037 05/03 A3042 410 89 -600 050/10 RMK AO2 P0001
14837KMSN MSN20101112082510811/12/10 08:25:31  5-MIN KMSN 121425Z 05010KT 10SM OVC037 05/03 A3041 410 89 -600 050/10 RMK AO2 RAE21 P0001
14837KMSN MSN20101112083010811/12/10 08:30:31  5-MIN KMSN 121430Z 05011KT 10SM OVC037 05/03 A3041 410 89 -600 050/11 RMK AO2 RAE21 P0001
14837KMSN MSN20101112083510811/12/10 08:35:31  5-MIN KMSN 121435Z 04011KT 10SM OVC037 05/03 A3042 410 89 -600 040/11 RMK AO2 RAE21 P0001
14837KMSN MSN20101112084010811/12/10 08:40:31  5-MIN KMSN 121440Z 04011KT 10SM OVC037 05/03 A3042 410 89 -600 040/11 RMK AO2 RAE21 P0001
14837KMSN MSN20101112084510811/12/10 08:45:31  5-MIN KMSN 121445Z 03008KT 10SM OVC037 05/03 A3042 400 89 -600 030/08 RMK AO2 RAE21 P0001
14837KMSN MSN20101112085014411/12/10 08:50:31  5-MIN KMSN 121450Z 03010KT 10SM -RA OVC037 05/03 A3042 410 89 -600 030/10 RMK AO2 RAE21B48 SLP306 P0001 60005 T00500033 53007
14837KMSN MSN20101112085510611/12/10 08:55:31  5-MIN KMSN 121455Z 04011KT 10SM -RA OVC039 05/03 A3042 410 89 -600 030/11 RMK AO2 P0000
14837KMSN MSN20101112090010811/12/10 09:00:31  5-MIN KMSN 121500Z 03010KT 10SM OVC039 05/03 A3041 410 89 -600 030/10 RMK AO2 RAE00 P0000
14837KMSN MSN20101112090510811/12/10 09:05:31  5-MIN KMSN 121505Z 03011KT 10SM OVC039 05/03 A3041 410 89 -600 030/11 RMK AO2 RAE00 P0000
14837KMSN MSN20101112091010811/12/10 09:10:31  5-MIN KMSN 121510Z 04010KT 10SM OVC039 05/03 A3041 410 89 -600 040/10 RMK AO2 RAE00 P0000
14837KMSN MSN20101112091510811/12/10 09:15:31  5-MIN KMSN 121515Z 04010KT 10SM OVC039 06/03 A3041 420 85 -500 030/10 RMK AO2 RAE00 P0000
14837KMSN MSN20101112092010811/12/10 09:20:31  5-MIN KMSN 121520Z 04011KT 10SM OVC039 06/03 A3041 420 85 -500 030/11 RMK AO2 RAE00 P0000
14837KMSN MSN20101112092510811/12/10 09:25:31  5-MIN KMSN 121525Z 04012KT 10SM OVC039 06/03 A3041 420 85 -500 030/12 RMK AO2 RAE00 P0000
14837KMSN MSN20101112093010811/12/10 09:30:31  5-MIN KMSN 121530Z 03010KT 10SM OVC039 06/03 A3041 420 85 -500 030/10 RMK AO2 RAE00 P0000
14837KMSN MSN20101112093510811/12/10 09:35:31  5-MIN KMSN 121535Z 03011KT 10SM OVC039 06/03 A3040 420 85 -500 030/11 RMK AO2 RAE00 P0000
14837KMSN MSN20101112094010811/12/10 09:40:31  5-MIN KMSN 121540Z 03010KT 10SM OVC039 06/03 A3041 420 85 -500 030/10 RMK AO2 RAE00 P0000
14837KMSN MSN20101112094511511/12/10 09:45:31  5-MIN KMSN 121545Z 02011KT 10SM BKN039 OVC055 06/03 A3041 420 85 -500 020/11 RMK AO2 RAE00 P0000
14837KMSN MSN20101112095013211/12/10 09:50:31  5-MIN KMSN 121550Z 02009KT 10SM BKN039 OVC055 06/03 A3040 420 85 -500 020/09 RMK AO2 RAE00 SLP302 P0000 T00560033
14837KMSN MSN20101112095510311/12/10 09:55:31  5-MIN KMSN 121555Z 02010KT 10SM SCT039 OVC060 06/03 A3040 420 85 -500 020/10 RMK AO2
14837KMSN MSN20101112100010311/12/10 10:00:31  5-MIN KMSN 121600Z 03011KT 10SM SCT039 OVC060 06/03 A3040 420 85 -500 030/11 RMK AO2
14837KMSN MSN20101112100510311/12/10 10:05:31  5-MIN KMSN 121605Z 04010KT 10SM FEW039 OVC060 06/03 A3040 430 85 -500 030/10 RMK AO2
14837KMSN MSN20101112101009611/12/10 10:10:31  5-MIN KMSN 121610Z 03011KT 10SM OVC060 06/03 A3039 430 82 -500 030/11 RMK AO2
14837KMSN MSN20101112101509611/12/10 10:15:31  5-MIN KMSN 121615Z 04009KT 10SM OVC060 06/04 A3040 430 86 -500 040/09 RMK AO2
14837KMSN MSN20101112102009611/12/10 10:20:31  5-MIN KMSN 121620Z 05010KT 10SM OVC065 06/04 A3040 430 86 -500 050/10 RMK AO2
14837KMSN MSN20101112102509611/12/10 10:25:31  5-MIN KMSN 121625Z 04011KT 10SM OVC065 06/03 A3040 430 82 -500 040/11 RMK AO2
14837KMSN MSN20101112103009611/12/10 10:30:31  5-MIN KMSN 121630Z 04010KT 10SM OVC065 06/03 A3040 430 82 -500 040/10 RMK AO2
14837KMSN MSN20101112103510311/12/10 10:35:31  5-MIN KMSN 121635Z 04009KT 10SM FEW039 OVC065 06/03 A3039 430 82 -500 040/09 RMK AO2
14837KMSN MSN20101112104010311/12/10 10:40:31  5-MIN KMSN 121640Z 04009KT 10SM FEW039 OVC065 06/04 A3039 430 86 -400 040/09 RMK AO2
14837KMSN MSN20101112104509611/12/10 10:45:31  5-MIN KMSN 121645Z 04009KT 10SM OVC065 06/04 A3039 430 86 -400 040/09 RMK AO2
14837KMSN MSN20101112105011311/12/10 10:50:31  5-MIN KMSN 121650Z 05010KT 10SM OVC065 06/04 A3039 440 86 -400 050/10 RMK AO2 SLP295 T00610039
14837KMSN MSN20101112105509611/12/10 10:55:31  5-MIN KMSN 121655Z 05010KT 10SM OVC065 07/03 A3038 440 79 -400 050/10 RMK AO2
14837KMSN MSN20101112110009611/12/10 11:00:31  5-MIN KMSN 121700Z 05011KT 10SM OVC065 07/03 A3038 440 79 -400 050/11 RMK AO2
14837KMSN MSN20101112110509611/12/10 11:05:31  5-MIN KMSN 121705Z 04011KT 10SM OVC065 07/04 A3038 440 82 -400 040/11 RMK AO2
14837KMSN MSN20101112111009611/12/10 11:10:31  5-MIN KMSN 121710Z 05009KT 10SM OVC070 07/04 A3038 440 82 -400 050/09 RMK AO2
14837KMSN MSN20101112111509611/12/10 11:15:31  5-MIN KMSN 121715Z 04009KT 10SM OVC070 07/04 A3038 440 82 -400 040/09 RMK AO2
14837KMSN MSN20101112112009611/12/10 11:20:31  5-MIN KMSN 121720Z 03009KT 10SM OVC070 07/04 A3038 440 79 -300 030/09 RMK AO2
14837KMSN MSN20101112112509611/12/10 11:25:31  5-MIN KMSN 121725Z 04010KT 10SM OVC070 07/04 A3037 450 79 -300 040/10 RMK AO2
14837KMSN MSN20101112113009611/12/10 11:30:31  5-MIN KMSN 121730Z 05009KT 10SM OVC070 07/03 A3037 450 76 -300 050/09 RMK AO2
14837KMSN MSN20101112113509611/12/10 11:35:31  5-MIN KMSN 121735Z 05010KT 10SM OVC070 07/03 A3037 450 76 -300 050/10 RMK AO2
14837KMSN MSN20101112114009611/12/10 11:40:31  5-MIN KMSN 121740Z 05008KT 10SM OVC070 07/03 A3036 460 76 -300 050/08 RMK AO2
14837KMSN MSN20101112114509611/12/10 11:45:31  5-MIN KMSN 121745Z 05011KT 10SM OVC070 07/03 A3036 460 76 -300 050/11 RMK AO2
14837KMSN MSN20101112115013711/12/10 11:50:31  5-MIN KMSN 121750Z 05011KT 10SM OVC070 07/03 A3035 470 76 -300 050/11 RMK AO2 SLP284 60005 T00720033 10072 20050 50002
14837KMSN MSN20101112115509611/12/10 11:55:31  5-MIN KMSN 121755Z 05010KT 10SM BKN070 08/03 A3035 470 73 -200 050/10 RMK AO2
14837KMSN MSN20101112120009611/12/10 12:00:31  5-MIN KMSN 121800Z 05009KT 10SM BKN070 08/03 A3035 470 73 -200 050/09 RMK AO2
14837KMSN MSN20101112120509611/12/10 12:05:31  5-MIN KMSN 121805Z 04010KT 10SM BKN070 08/04 A3035 470 76 -200 040/10 RMK AO2
14837KMSN MSN20101112121009611/12/10 12:10:31  5-MIN KMSN 121810Z 04009KT 10SM BKN070 08/03 A3035 470 73 -200 040/09 RMK AO2
14837KMSN MSN20101112121509611/12/10 12:15:31  5-MIN KMSN 121815Z 03010KT 10SM BKN070 08/03 A3035 470 73 -200 030/10 RMK AO2
14837KMSN MSN20101112122009611/12/10 12:20:31  5-MIN KMSN 121820Z 03009KT 10SM BKN070 08/03 A3035 470 73 -200 030/09 RMK AO2
14837KMSN MSN20101112122509611/12/10 12:25:31  5-MIN KMSN 121825Z 03010KT 10SM BKN070 08/03 A3034 480 73 -200 030/10 RMK AO2
14837KMSN MSN20101112123010311/12/10 12:30:31  5-MIN KMSN 121830Z 03009KT 10SM FEW060 OVC075 08/03 A3035 470 73 -200 030/09 RMK AO2
14837KMSN MSN20101112123510311/12/10 12:35:31  5-MIN KMSN 121835Z 03006KT 10SM FEW060 OVC075 08/03 A3035 470 73 -200 030/06 RMK AO2
14837KMSN MSN20101112124009611/12/10 12:40:31  5-MIN KMSN 121840Z 02008KT 10SM OVC075 08/03 A3035 470 73 -200 020/08 RMK AO2
14837KMSN MSN20101112124510311/12/10 12:45:31  5-MIN KMSN 121845Z 03011KT 10SM FEW060 OVC075 08/03 A3034 470 70 -200 030/11 RMK AO2
14837KMSN MSN20101112125012711/12/10 12:50:31  5-MIN KMSN 121850Z 04009KT 10SM FEW036 SCT060 OVC080 08/03 A3035 470 70 -200 040/09 RMK AO2 SLP282 T00780028
14837KMSN MSN20101112125511011/12/10 12:55:31  5-MIN KMSN 121855Z 04010KT 10SM SCT036 SCT060 OVC075 08/03 A3034 480 70 -100 040/10 RMK AO2
14837KMSN MSN20101112130010311/12/10 13:00:31  5-MIN KMSN 121900Z 04013KT 10SM SCT036 OVC080 08/03 A3034 480 68 -100 040/13 RMK AO2
14837KMSN MSN20101112130510311/12/10 13:05:31  5-MIN KMSN 121905Z 03008KT 10SM SCT036 OVC075 08/03 A3033 480 68 -100 030/08 RMK AO2
14837KMSN MSN20101112131010711/12/10 13:10:31  5-MIN KMSN 121910Z 04013KT 10SM SCT036 SCT060 OVC080 09/03 A3033 480 68 0 030/13 RMK AO2
14837KMSN MSN20101112131511011/12/10 13:15:31  5-MIN KMSN 121915Z 03010KT 10SM SCT036 BKN060 OVC080 08/03 A3033 490 68 -100 030/10 RMK AO2
14837KMSN MSN20101112132011011/12/10 13:20:31  5-MIN KMSN 121920Z 03011KT 10SM SCT036 BKN060 OVC080 08/03 A3033 490 70 -100 030/11 RMK AO2
14837KMSN MSN20101112132510711/12/10 13:25:31  5-MIN KMSN 121925Z 04009KT 10SM BKN034 BKN060 OVC080 09/04 A3033 490 71 0 040/09 RMK AO2
14837KMSN MSN20101112133010011/12/10 13:30:31  5-MIN KMSN 121930Z 02010KT 10SM BKN034 BKN060 09/04 A3032 500 71 0 020/10 RMK AO2
14837KMSN MSN20101112133510011/12/10 13:35:31  5-MIN KMSN 121935Z 03011KT 10SM BKN034 BKN060 09/04 A3032 500 73 0 030/11 RMK AO2
14837KMSN MSN20101112134010011/12/10 13:40:31  5-MIN KMSN 121940Z 03011KT 10SM SCT034 SCT075 09/03 A3032 500 68 0 030/11 RMK AO2
14837KMSN MSN20101112134509311/12/10 13:45:31  5-MIN KMSN 121945Z 03013KT 10SM FEW034 09/03 A3031 500 68 0 030/13 RMK AO2
14837KMSN MSN20101112135011711/12/10 13:50:31  5-MIN KMSN 121950Z 03013KT 10SM FEW034 SCT080 09/03 A3031 510 68 0 030/13 RMK AO2 SLP268 T00890033
14837KMSN MSN20101112135509011/12/10 13:55:31  5-MIN KMSN 121955Z 03012KT 10SM CLR 09/03 A3031 510 68 0 030/12 RMK AO2
14837KMSN MSN20101112140010311/12/10 14:00:31  5-MIN KMSN 122000Z 02012KT 10SM FEW034 SCT080 08/03 A3031 510 70 -100 020/12 RMK AO2
14837KMSN MSN20101112140510311/12/10 14:05:31  5-MIN KMSN 122005Z 03011KT 10SM FEW034 SCT080 08/03 A3030 510 73 -100 030/11 RMK AO2
14837KMSN MSN20101112141010311/12/10 14:10:31  5-MIN KMSN 122010Z 03010KT 10SM FEW034 SCT080 08/03 A3030 510 70 -100 030/10 RMK AO2
14837KMSN MSN20101112141510311/12/10 14:15:31  5-MIN KMSN 122015Z 03012KT 10SM FEW034 SCT080 08/03 A3030 520 70 -100 030/12 RMK AO2
14837KMSN MSN20101112142010311/12/10 14:20:31  5-MIN KMSN 122020Z 04012KT 10SM FEW034 SCT080 08/03 A3030 520 70 -100 040/12 RMK AO2
14837KMSN MSN20101112142510311/12/10 14:25:31  5-MIN KMSN 122025Z 03012KT 10SM FEW034 SCT080 08/03 A3030 520 70 -100 030/12 RMK AO2
14837KMSN MSN20101112143009611/12/10 14:30:31  5-MIN KMSN 122030Z 04011KT 10SM SCT080 08/03 A3030 520 70 -100 040/11 RMK AO2
14837KMSN MSN20101112143509611/12/10 14:35:31  5-MIN KMSN 122035Z 04013KT 10SM SCT080 08/03 A3029 520 70 -100 040/13 RMK AO2
14837KMSN MSN20101112144009611/12/10 14:40:31  5-MIN KMSN 122040Z 03011KT 10SM SCT080 08/03 A3029 520 70 -100 030/11 RMK AO2
14837KMSN MSN20101112144509611/12/10 14:45:31  5-MIN KMSN 122045Z 04010KT 10SM SCT080 08/03 A3029 520 70 -100 040/10 RMK AO2
14837KMSN MSN20101112145011911/12/10 14:50:31  5-MIN KMSN 122050Z 05012KT 10SM FEW120 08/03 A3029 520 70 -100 050/12 RMK AO2 SLP263 T00830033 58020
14837KMSN MSN20101112145510211/12/10 14:55:31  5-MIN KMSN 122055Z 04012G17KT 10SM FEW120 08/03 A3029 520 70 -100 040/12G17 RMK AO2
14837KMSN MSN20101112150010211/12/10 15:00:31  5-MIN KMSN 122100Z 05011G17KT 10SM FEW120 08/03 A3029 530 70 -100 050/11G17 RMK AO2
14837KMSN MSN20101112150509611/12/10 15:05:31  5-MIN KMSN 122105Z 06012KT 10SM FEW120 08/03 A3029 520 70 -100 060/12 RMK AO2
14837KMSN MSN20101112151009611/12/10 15:10:31  5-MIN KMSN 122110Z 05012KT 10SM FEW120 08/02 A3029 520 68 -100 050/12 RMK AO2
14837KMSN MSN20101112151509611/12/10 15:15:31  5-MIN KMSN 122115Z 05011KT 10SM FEW120 08/03 A3029 530 70 -100 050/11 RMK AO2
14837KMSN MSN20101112152009611/12/10 15:20:31  5-MIN KMSN 122120Z 05013KT 10SM FEW120 08/03 A3029 530 70 -100 050/13 RMK AO2
14837KMSN MSN20101112152509611/12/10 15:25:31  5-MIN KMSN 122125Z 05010KT 10SM FEW120 08/03 A3029 530 70 -100 050/10 RMK AO2
14837KMSN MSN20101112153009611/12/10 15:30:31  5-MIN KMSN 122130Z 04010KT 10SM FEW120 08/03 A3029 530 70 -100 040/10 RMK AO2
14837KMSN MSN20101112153509611/12/10 15:35:31  5-MIN KMSN 122135Z 04009KT 10SM FEW120 08/03 A3029 530 70 -100 040/09 RMK AO2
14837KMSN MSN20101112154009611/12/10 15:40:31  5-MIN KMSN 122140Z 04007KT 10SM FEW120 08/03 A3029 530 70 -100 040/07 RMK AO2
14837KMSN MSN20101112154509611/12/10 15:45:31  5-MIN KMSN 122145Z 04009KT 10SM FEW120 08/03 A3029 530 73 -100 040/09 RMK AO2
14837KMSN MSN20101112155011311/12/10 15:50:31  5-MIN KMSN 122150Z 05011KT 10SM FEW120 08/03 A3029 530 70 -100 050/11 RMK AO2 SLP261 T00780028
14837KMSN MSN20101112155509611/12/10 15:55:31  5-MIN KMSN 122155Z 05011KT 10SM FEW120 07/03 A3028 530 76 -200 050/11 RMK AO2
14837KMSN MSN20101112160009611/12/10 16:00:31  5-MIN KMSN 122200Z 05009KT 10SM FEW120 07/03 A3028 530 76 -200 040/09 RMK AO2
14837KMSN MSN20101112160509611/12/10 16:05:31  5-MIN KMSN 122205Z 04010KT 10SM FEW120 07/03 A3028 530 76 -200 040/10 RMK AO2
14837KMSN MSN20101112161009611/12/10 16:10:31  5-MIN KMSN 122210Z 04011KT 10SM FEW120 07/03 A3028 530 76 -200 040/11 RMK AO2
14837KMSN MSN20101112161509611/12/10 16:15:31  5-MIN KMSN 122215Z 05008KT 10SM FEW120 07/03 A3028 540 76 -200 050/08 RMK AO2
14837KMSN MSN20101112162009611/12/10 16:20:31  5-MIN KMSN 122220Z 05009KT 10SM FEW120 07/03 A3028 540 76 -200 050/09 RMK AO2
14837KMSN MSN20101112162509611/12/10 16:25:31  5-MIN KMSN 122225Z 04008KT 10SM FEW120 07/03 A3028 540 76 -200 040/08 RMK AO2
14837KMSN MSN20101112163009611/12/10 16:30:31  5-MIN KMSN 122230Z 05010KT 10SM FEW120 07/03 A3028 540 76 -200 050/10 RMK AO2
14837KMSN MSN20101112163509611/12/10 16:35:31  5-MIN KMSN 122235Z 05009KT 10SM FEW120 07/03 A3028 540 79 -200 050/09 RMK AO2
14837KMSN MSN20101112164009611/12/10 16:40:31  5-MIN KMSN 122240Z 04010KT 10SM FEW120 07/03 A3028 530 79 -300 040/10 RMK AO2
14837KMSN MSN20101112164509611/12/10 16:45:31  5-MIN KMSN 122245Z 04010KT 10SM BKN110 07/03 A3028 530 79 -300 040/10 RMK AO2
14837KMSN MSN20101112165011311/12/10 16:50:31  5-MIN KMSN 122250Z 05010KT 10SM BKN110 07/03 A3028 530 79 -300 050/10 RMK AO2 SLP260 T00670033
14837KMSN MSN20101112165509611/12/10 16:55:31  5-MIN KMSN 122255Z 04008KT 10SM BKN110 07/03 A3028 530 79 -300 040/08 RMK AO2
14837KMSN MSN20101112170009611/12/10 17:00:31  5-MIN KMSN 122300Z 04007KT 10SM OVC110 07/03 A3028 530 79 -300 040/07 RMK AO2
14837KMSN MSN20101112170509611/12/10 17:05:31  5-MIN KMSN 122305Z 04009KT 10SM OVC100 07/03 A3028 540 79 -200 040/09 RMK AO2
14837KMSN MSN20101112171009611/12/10 17:10:31  5-MIN KMSN 122310Z 05009KT 10SM OVC100 07/03 A3027 540 79 -200 050/09 RMK AO2
14837KMSN MSN20101112171509611/12/10 17:15:31  5-MIN KMSN 122315Z 05010KT 10SM OVC100 07/03 A3028 540 79 -200 040/10 RMK AO2
14837KMSN MSN20101112172009611/12/10 17:20:31  5-MIN KMSN 122320Z 04010KT 10SM OVC095 07/03 A3027 540 79 -200 040/10 RMK AO2
14837KMSN MSN20101112172510311/12/10 17:25:31  5-MIN KMSN 122325Z 05010KT 10SM BKN080 OVC100 07/03 A3027 540 79 -200 050/10 RMK AO2
14837KMSN MSN20101112173011911/12/10 17:30:31  5-MIN KMSN 122330Z 04010KT 10SM -RA BKN070 OVC100 07/03 A3027 540 79 -200 040/10 RMK AO2 RAB29 P0000
14837KMSN MSN20101112173511811/12/10 17:35:31  5-MIN KMSN 122335Z 04010KT 9SM -RA BKN065 OVC095 07/03 A3026 550 79 -200 040/10 RMK AO2 RAB29 P0000
14837KMSN MSN20101112174011111/12/10 17:40:31  5-MIN KMSN 122340Z 04010KT 9SM -RA OVC070 06/03 A3027 540 82 -300 040/10 RMK AO2 RAB29 P0000
14837KMSN MSN20101112174511211/12/10 17:45:31  5-MIN KMSN 122345Z 04010KT 10SM -RA OVC065 06/03 A3027 540 82 -300 040/10 RMK AO2 RAB29 P0000
14837KMSN MSN20101112175016011/12/10 17:50:31  5-MIN KMSN 122350Z 04009KT 10SM -RA BKN060 OVC095 06/04 A3027 540 86 -300 040/09 RMK AO2 RAB29 SLP256 P0000 60000 T00610039 10094 20061 58021
14837KMSN MSN20101112175511311/12/10 17:55:31  5-MIN KMSN 122355Z 04010KT 10SM -RA BKN060 OVC090 06/04 A3027 540 86 -300 040/10 RMK AO2 P0000
14837KMSN MSN20101112180011311/12/10 18:00:31  5-MIN KMSN 130000Z 04009KT 10SM -RA BKN065 OVC090 06/04 A3027 540 86 -300 040/09 RMK AO2 P0000
14837KMSN MSN20101112180511311/12/10 18:05:31  5-MIN KMSN 130005Z 04009KT 10SM -RA BKN065 OVC090 06/04 A3027 540 86 -300 040/09 RMK AO2 P0000
14837KMSN MSN20101112181011311/12/10 18:10:31  5-MIN KMSN 130010Z 04010KT 10SM -RA SCT065 OVC090 06/04 A3027 540 86 -300 040/10 RMK AO2 P0000
14837KMSN MSN20101112181511311/12/10 18:15:31  5-MIN KMSN 130015Z 03010KT 10SM -RA FEW065 OVC090 06/04 A3027 540 86 -300 030/10 RMK AO2 P0001
14837KMSN MSN20101112182011311/12/10 18:20:31  5-MIN KMSN 130020Z 03009KT 10SM -RA FEW070 OVC085 06/04 A3027 540 86 -300 030/09 RMK AO2 P0001
14837KMSN MSN20101112182511511/12/10 18:25:31  5-MIN KMSN 130025Z 03011KT 10SM FEW070 OVC085 06/04 A3027 540 86 -300 030/11 RMK AO2 RAE22 P0001
14837KMSN MSN20101112183010811/12/10 18:30:31  5-MIN KMSN 130030Z 03012KT 10SM OVC085 06/03 A3026 550 82 -300 030/12 RMK AO2 RAE22 P0001
14837KMSN MSN20101112183510811/12/10 18:35:31  5-MIN KMSN 130035Z 04011KT 10SM OVC085 06/03 A3026 550 82 -300 040/11 RMK AO2 RAE22 P0001
14837KMSN MSN20101112184010811/12/10 18:40:31  5-MIN KMSN 130040Z 04011KT 10SM OVC085 06/04 A3026 550 86 -300 040/11 RMK AO2 RAE22 P0001
14837KMSN MSN20101112184510811/12/10 18:45:31  5-MIN KMSN 130045Z 03010KT 10SM OVC090 06/04 A3027 550 86 -300 030/10 RMK AO2 RAE22 P0001
14837KMSN MSN20101112185012511/12/10 18:50:31  5-MIN KMSN 130050Z 04010KT 10SM OVC090 06/04 A3027 540 86 -300 040/10 RMK AO2 RAE22 SLP256 P0001 T00610039
14837KMSN MSN20101112185509611/12/10 18:55:31  5-MIN KMSN 130055Z 03011KT 10SM OVC090 06/03 A3027 550 82 -300 030/11 RMK AO2
14837KMSN MSN20101112190009611/12/10 19:00:31  5-MIN KMSN 130100Z 04012KT 10SM OVC090 06/03 A3026 550 82 -300 040/12 RMK AO2
14837KMSN MSN20101112190509611/12/10 19:05:31  5-MIN KMSN 130105Z 05011KT 10SM OVC090 06/03 A3026 550 82 -300 050/11 RMK AO2
14837KMSN MSN20101112191009611/12/10 19:10:31  5-MIN KMSN 130110Z 05011KT 10SM OVC090 06/03 A3026 550 82 -300 050/11 RMK AO2
14837KMSN MSN20101112191509611/12/10 19:15:31  5-MIN KMSN 130115Z 05008KT 10SM OVC090 06/03 A3027 550 82 -300 050/08 RMK AO2
14837KMSN MSN20101112192009611/12/10 19:20:31  5-MIN KMSN 130120Z 05011KT 10SM OVC085 06/03 A3026 550 82 -300 050/11 RMK AO2
14837KMSN MSN20101112192509611/12/10 19:25:31  5-MIN KMSN 130125Z 05011KT 10SM OVC085 06/03 A3026 550 82 -300 050/11 RMK AO2
14837KMSN MSN20101112193009611/12/10 19:30:31  5-MIN KMSN 130130Z 05011KT 10SM OVC085 06/03 A3026 550 79 -300 050/11 RMK AO2
14837KMSN MSN20101112193509611/12/10 19:35:31  5-MIN KMSN 130135Z 04011KT 10SM OVC085 06/03 A3026 550 79 -300 040/11 RMK AO2
14837KMSN MSN20101112194009611/12/10 19:40:31  5-MIN KMSN 130140Z 05011KT 10SM OVC085 06/03 A3026 550 79 -300 050/11 RMK AO2
14837KMSN MSN20101112195510211/12/10 19:55:31  5-MIN KMSN 130155Z 05015G20KT 10SM OVC085 06/02 A3026 560 73 -300 050/15G20 RMK AO2
14837KMSN MSN20101112200010211/12/10 20:00:31  5-MIN KMSN 130200Z 05012G20KT 10SM OVC085 06/01 A3025 560 70 -300 050/12G20 RMK AO2
14837KMSN MSN20101112200510211/12/10 20:05:31  5-MIN KMSN 130205Z 05014G20KT 10SM OVC085 06/01 A3026 560 70 -300 050/14G20 RMK AO2
14837KMSN MSN20101112201009611/12/10 20:10:31  5-MIN KMSN 130210Z 05012KT 10SM OVC085 06/01 A3025 560 67 -300 050/12 RMK AO2
14837KMSN MSN20101112201509611/12/10 20:15:31  5-MIN KMSN 130215Z 05013KT 10SM OVC085 06/01 A3025 560 70 -300 040/13 RMK AO2
14837KMSN MSN20101112202010211/12/10 20:20:31  5-MIN KMSN 130220Z 04014G18KT 10SM OVC085 06/01 A3025 570 70 -300 040/14G18 RMK AO2
14837KMSN MSN20101112202510211/12/10 20:25:31  5-MIN KMSN 130225Z 05014G18KT 10SM OVC085 06/01 A3025 560 70 -300 050/14G18 RMK AO2
14837KMSN MSN20101112203010211/12/10 20:30:31  5-MIN KMSN 130230Z 05013G18KT 10SM OVC085 06/01 A3025 560 70 -300 050/13G18 RMK AO2
14837KMSN MSN20101112203509611/12/10 20:35:31  5-MIN KMSN 130235Z 04013KT 10SM OVC085 06/01 A3025 560 70 -300 040/13 RMK AO2
14837KMSN MSN20101112204010211/12/10 20:40:31  5-MIN KMSN 130240Z 04013G19KT 10SM OVC085 06/01 A3025 560 70 -300 040/13G19 RMK AO2
14837KMSN MSN20101112204510211/12/10 20:45:31  5-MIN KMSN 130245Z 05012G19KT 10SM OVC085 06/01 A3025 560 70 -300 050/12G19 RMK AO2
14837KMSN MSN20101112205012511/12/10 20:50:31  5-MIN KMSN 130250Z 05012KT 10SM OVC085 06/01 A3025 560 70 -300 050/12 RMK AO2 SLP249 60001 T00610011 58007
14837KMSN MSN20101112205509611/12/10 20:55:31  5-MIN KMSN 130255Z 05013KT 10SM OVC085 06/01 A3025 560 70 -300 050/13 RMK AO2
14837KMSN MSN20101112210010211/12/10 21:00:31  5-MIN KMSN 130300Z 04011G18KT 10SM OVC085 06/01 A3025 560 70 -300 040/11G18 RMK AO2
14837KMSN MSN20101112210510211/12/10 21:05:31  5-MIN KMSN 130305Z 04010G17KT 10SM OVC085 06/01 A3025 560 70 -300 040/10G17 RMK AO2
14837KMSN MSN20101112211009611/12/10 21:10:31  5-MIN KMSN 130310Z 05011KT 10SM OVC085 06/02 A3024 570 73 -300 050/11 RMK AO2
14837KMSN MSN20101112211509611/12/10 21:15:31  5-MIN KMSN 130315Z 05011KT 10SM OVC085 06/02 A3024 570 76 -300 050/11 RMK AO2
14837KMSN MSN20101112212009611/12/10 21:20:31  5-MIN KMSN 130320Z 05014KT 10SM OVC080 06/02 A3023 580 76 -300 050/14 RMK AO2
14837KMSN MSN20101112212509611/12/10 21:25:31  5-MIN KMSN 130325Z 05013KT 10SM OVC080 06/02 A3023 580 76 -300 050/13 RMK AO2
14837KMSN MSN20101112213009611/12/10 21:30:31  5-MIN KMSN 130330Z 05013KT 10SM OVC080 06/02 A3023 580 76 -300 050/13 RMK AO2
14837KMSN MSN20101112213509611/12/10 21:35:31  5-MIN KMSN 130335Z 05014KT 10SM OVC080 06/02 A3023 580 73 -300 050/14 RMK AO2
14837KMSN MSN20101112214010211/12/10 21:40:31  5-MIN KMSN 130340Z 04012G18KT 10SM OVC080 06/02 A3023 580 76 -300 040/12G18 RMK AO2
14837KMSN MSN20101112214509611/12/10 21:45:31  5-MIN KMSN 130345Z 05013KT 10SM OVC080 06/02 A3023 580 76 -300 050/13 RMK AO2
14837KMSN MSN20101112215011311/12/10 21:50:31  5-MIN KMSN 130350Z 05011KT 10SM OVC080 06/02 A3023 580 76 -300 050/11 RMK AO2 SLP243 T00610022
14837KMSN MSN20101112215509611/12/10 21:55:31  5-MIN KMSN 130355Z 05012KT 10SM OVC080 06/02 A3023 580 76 -300 050/12 RMK AO2
14837KMSN MSN20101112220009611/12/10 22:00:31  5-MIN KMSN 130400Z 05013KT 10SM OVC085 06/02 A3022 580 76 -300 050/13 RMK AO2
14837KMSN MSN20101112220509611/12/10 22:05:31  5-MIN KMSN 130405Z 05011KT 10SM OVC085 06/02 A3022 590 76 -300 050/11 RMK AO2
14837KMSN MSN20101112221010211/12/10 22:10:31  5-MIN KMSN 130410Z 05011G17KT 10SM OVC080 06/02 A3022 590 76 -300 040/11G17 RMK AO2
14837KMSN MSN20101112221510211/12/10 22:15:31  5-MIN KMSN 130415Z 05013G18KT 10SM OVC080 06/02 A3022 590 76 -200 050/13G18 RMK AO2
14837KMSN MSN20101112222010211/12/10 22:20:31  5-MIN KMSN 130420Z 05011G20KT 10SM OVC080 06/02 A3021 600 76 -200 050/11G20 RMK AO2
14837KMSN MSN20101112222510211/12/10 22:25:31  5-MIN KMSN 130425Z 06015G20KT 10SM OVC080 06/02 A3021 600 76 -200 060/15G20 RMK AO2
14837KMSN MSN20101112223010211/12/10 22:30:31  5-MIN KMSN 130430Z 05010G18KT 10SM OVC080 06/02 A3021 600 76 -200 050/10G18 RMK AO2
14837KMSN MSN20101112223509611/12/10 22:35:31  5-MIN KMSN 130435Z 05014KT 10SM OVC080 06/02 A3020 600 76 -200 050/14 RMK AO2
14837KMSN MSN20101112224009611/12/10 22:40:31  5-MIN KMSN 130440Z 05012KT 10SM OVC085 06/02 A3020 600 76 -200 050/12 RMK AO2
14837KMSN MSN20101112224509611/12/10 22:45:31  5-MIN KMSN 130445Z 05015KT 10SM OVC085 06/02 A3020 610 76 -200 050/15 RMK AO2
14837KMSN MSN20101112225011311/12/10 22:50:31  5-MIN KMSN 130450Z 05013KT 10SM OVC085 06/02 A3020 610 76 -200 050/13 RMK AO2 SLP232 T00610022
14837KMSN MSN20101112225509611/12/10 22:55:31  5-MIN KMSN 130455Z 07012KT 10SM OVC080 06/02 A3020 610 76 -200 070/12 RMK AO2
14837KMSN MSN20101112230009611/12/10 23:00:31  5-MIN KMSN 130500Z 06009KT 10SM OVC080 06/02 A3020 600 76 -200 060/09 RMK AO2
14837KMSN MSN20101112230511211/12/10 23:05:31  5-MIN KMSN 130505Z 06010KT 10SM -RA OVC085 06/03 A3020 610 79 -200 060/10 RMK AO2 RAB04 P0000
14837KMSN MSN20101112231011211/12/10 23:10:31  5-MIN KMSN 130510Z 06010KT 10SM -RA OVC080 06/03 A3020 610 82 -300 050/10 RMK AO2 RAB04 P0000
14837KMSN MSN20101112231511811/12/10 23:15:31  5-MIN KMSN 130515Z 04009KT 9SM -RA FEW060 OVC080 06/03 A3019 610 82 -300 040/09 RMK AO2 RAB04 P0000
14837KMSN MSN20101112232011811/12/10 23:20:31  5-MIN KMSN 130520Z 05007KT 8SM -RA SCT065 OVC080 06/03 A3020 610 82 -300 050/07 RMK AO2 RAB04 P0000
14837KMSN MSN20101112232511811/12/10 23:25:31  5-MIN KMSN 130525Z 05010KT 8SM -RA SCT065 OVC085 06/03 A3019 610 82 -300 050/10 RMK AO2 RAB04 P0000
14837KMSN MSN20101112233011911/12/10 23:30:31  5-MIN KMSN 130530Z 04008KT 10SM -RA FEW065 OVC085 06/03 A3020 610 85 -300 040/08 RMK AO2 RAB04 P0000
14837KMSN MSN20101112233511911/12/10 23:35:31  5-MIN KMSN 130535Z 05009KT 10SM -RA SCT060 OVC080 06/03 A3019 610 85 -300 050/09 RMK AO2 RAB04 P0000
14837KMSN MSN20101112234011811/12/10 23:40:31  5-MIN KMSN 130540Z 04008KT 7SM -RA SCT060 OVC080 06/03 A3019 620 85 -300 040/08 RMK AO2 RAB04 P0001
14837KMSN MSN20101112234512111/12/10 23:45:31  5-MIN KMSN 130545Z 04010KT 6SM -RA BR FEW065 OVC080 06/03 A3018 620 85 -300 040/10 RMK AO2 RAB04 P0001
14837KMSN MSN20101112235016211/12/10 23:50:31  5-MIN KMSN 130550Z 04010KT 7SM -RA OVC075 06/03 A3018 620 85 -300 040/10 RMK AO2 RAB04 SLP226 P0001 60002 T00560033 10061 20056 400940050 58007
14837KMSN MSN20101112235511211/12/10 23:55:31  5-MIN KMSN 130555Z 04012KT 8SM -RA OVC080 06/03 A3017 630 85 -300 040/12 RMK AO2 PRESFR P0000
14837KMSN MSN20101113000011911/13/10 00:00:32  5-MIN KMSN 130600Z 04012KT 9SM -RA FEW065 OVC085 06/03 A3016 640 85 -300 040/12 RMK AO2 PRESFR P0001
14837KMSN MSN20101113000510511/13/10 00:05:31  5-MIN KMSN 130605Z 05010KT 9SM -RA OVC080 06/03 A3017 640 85 -300 040/10 RMK AO2 P0001
14837KMSN MSN20101113001010511/13/10 00:10:31  5-MIN KMSN 130610Z 04008KT 7SM -RA OVC080 06/04 A3018 620 89 -300 030/08 RMK AO2 P0001
14837KMSN MSN20101113001511911/13/10 00:15:31  5-MIN KMSN 130615Z 04005KT 7SM -RA FEW065 OVC080 06/04 A3020 610 89 -300 040/05 RMK AO2 PRESRR P0001
14837KMSN MSN20101113002011211/13/10 00:20:31  5-MIN KMSN 130620Z 02004KT 8SM -RA SCT060 OVC080 06/04 A3020 600 89 -300 020/04 RMK AO2 P0002
14837KMSN MSN20101113002511211/13/10 00:25:31  5-MIN KMSN 130625Z 03009KT 7SM -RA BKN055 OVC080 06/04 A3019 620 89 -300 030/09 RMK AO2 P0002
14837KMSN MSN20101113003011511/13/10 00:30:31  5-MIN KMSN 130630Z 03012KT 6SM -RA BR BKN055 OVC080 06/04 A3017 630 89 -300 030/12 RMK AO2 P0003
14837KMSN MSN20101113003512211/13/10 00:35:31  5-MIN KMSN 130635Z 01009KT 6SM -RA BR SCT050 OVC080 06/04 A3017 640 89 -300 010/09 RMK AO2 PRESFR P0003
14837KMSN MSN20101113004011211/13/10 00:40:31  5-MIN KMSN 130640Z 03008KT 8SM -RA BKN060 OVC080 06/04 A3017 640 89 -300 030/08 RMK AO2 P0004
14837KMSN MSN20101113004511211/13/10 00:45:31  5-MIN KMSN 130645Z 02007KT 9SM -RA BKN065 OVC080 06/04 A3017 640 89 -300 020/07 RMK AO2 P0004
14837KMSN MSN20101113005013211/13/10 00:50:31  5-MIN KMSN 130650Z 03010KT 10SM SCT060 OVC085 06/04 A3017 640 89 -300 030/10 RMK AO2 RAE48 SLP222 P0004 T00560039
14837KMSN MSN20101113005509611/13/10 00:55:31  5-MIN KMSN 130655Z 04008KT 10SM OVC085 06/04 A3016 640 89 -300 040/08 RMK AO2
14837KMSN MSN20101113010009611/13/10 01:00:31  5-MIN KMSN 130700Z 04011KT 10SM OVC085 06/04 A3015 650 89 -200 040/11 RMK AO2
14837KMSN MSN20101113010509611/13/10 01:05:31  5-MIN KMSN 130705Z 04009KT 10SM OVC085 06/04 A3015 660 89 -200 040/09 RMK AO2
14837KMSN MSN20101113011009611/13/10 01:10:31  5-MIN KMSN 130710Z 05009KT 10SM OVC090 06/04 A3015 650 89 -200 040/09 RMK AO2
14837KMSN MSN20101113011509611/13/10 01:15:31  5-MIN KMSN 130715Z 04009KT 10SM OVC090 06/04 A3014 660 89 -200 040/09 RMK AO2
14837KMSN MSN20101113012009611/13/10 01:20:31  5-MIN KMSN 130720Z 04009KT 10SM OVC090 06/04 A3013 670 89 -200 040/09 RMK AO2
14837KMSN MSN20101113012509611/13/10 01:25:31  5-MIN KMSN 130725Z 04010KT 10SM OVC090 06/04 A3013 670 89 -200 040/10 RMK AO2
14837KMSN MSN20101113013009611/13/10 01:30:31  5-MIN KMSN 130730Z 04010KT 10SM OVC085 06/04 A3013 670 89 -200 040/10 RMK AO2
14837KMSN MSN20101113013510311/13/10 01:35:31  5-MIN KMSN 130735Z 04009KT 10SM SCT075 OVC090 06/04 A3013 670 89 -200 040/09 RMK AO2
14837KMSN MSN20101113014010311/13/10 01:40:31  5-MIN KMSN 130740Z 04010KT 10SM SCT075 OVC090 06/04 A3013 670 89 -200 040/10 RMK AO2
14837KMSN MSN20101113014511911/13/10 01:45:31  5-MIN KMSN 130745Z 05010KT 10SM -RA SCT070 OVC085 06/04 A3012 680 89 -200 050/10 RMK AO2 RAB45 P0000
14837KMSN MSN20101113015013611/13/10 01:50:31  5-MIN KMSN 130750Z 05012KT 10SM -RA SCT065 OVC085 06/04 A3012 680 89 -200 040/12 RMK AO2 RAB45 SLP203 P0000 T00560039
14837KMSN MSN20101113015511311/13/10 01:55:31  5-MIN KMSN 130755Z 05010KT 10SM -RA BKN075 OVC090 06/04 A3012 680 89 -200 040/10 RMK AO2 P0000
14837KMSN MSN20101113020011211/13/10 02:00:31  5-MIN KMSN 130800Z 05011KT 9SM -RA SCT055 OVC080 06/04 A3012 680 86 -100 050/11 RMK AO2 P0000
14837KMSN MSN20101113020511211/13/10 02:05:31  5-MIN KMSN 130805Z 05011KT 7SM -RA SCT050 OVC080 06/04 A3012 680 86 -100 050/11 RMK AO2 P0001
14837KMSN MSN20101113021011411/13/10 02:10:31  5-MIN KMSN 130810Z 05009KT 6SM RA BR SCT050 OVC080 06/04 A3012 680 86 -100 050/09 RMK AO2 P0001
14837KMSN MSN20101113021511411/13/10 02:15:31  5-MIN KMSN 130815Z 05008KT 6SM RA BR SCT050 OVC080 06/04 A3012 680 86 -100 050/08 RMK AO2 P0001
14837KMSN MSN20101113022011711/13/10 02:20:31  5-MIN KMSN 130820Z 06007G15KT 7SM RA SCT050 OVC080 06/04 A3012 680 89 -100 060/07G15 RMK AO2 P0002
14837KMSN MSN20101113022511811/13/10 02:25:31  5-MIN KMSN 130825Z 06007KT 8SM RA FEW050 BKN070 OVC085 06/04 A3013 670 89 -200 050/07 RMK AO2 P0002
14837KMSN MSN20101113023012511/13/10 02:30:31  5-MIN KMSN 130830Z 07006KT 8SM RA FEW050 BKN070 OVC085 06/04 A3014 660 89 -200 070/06 RMK AO2 PRESRR P0002
14837KMSN MSN20101113023511211/13/10 02:35:31  5-MIN KMSN 130835Z 05006KT 9SM -RA FEW055 OVC075 06/04 A3013 670 89 -200 050/06 RMK AO2 P0003
14837KMSN MSN20101113024011211/13/10 02:40:31  5-MIN KMSN 130840Z 06007KT 9SM -RA FEW055 OVC075 06/04 A3013 670 89 -200 060/07 RMK AO2 P0003
14837KMSN MSN20101113024510511/13/10 02:45:31  5-MIN KMSN 130845Z 05007KT 9SM -RA OVC075 06/04 A3013 670 89 -100 050/07 RMK AO2 P0003
14837KMSN MSN20101113025013511/13/10 02:50:31  5-MIN KMSN 130850Z 05007KT 10SM -RA OVC075 06/04 A3012 680 89 -100 050/07 RMK AO2 SLP204 P0003 60007 T00610044 58024
14837KMSN MSN20101113025510611/13/10 02:55:31  5-MIN KMSN 130855Z 04005KT 10SM -RA OVC080 06/04 A3012 680 89 -100 040/05 RMK AO2 P0000
14837KMSN MSN20101113030011711/13/10 03:00:31  5-MIN KMSN 130900Z 04010KT 10SM OVC080 06/04 A3010 700 89 -100 040/10 RMK AO2 RAE0858 PRESFR P0000
14837KMSN MSN20101113030511011/13/10 03:05:31  5-MIN KMSN 130905Z 04006KT 10SM OVC080 06/04 A3010 700 89 -100 030/06 RMK AO2 RAE0858 P0000
14837KMSN MSN20101113031011711/13/10 03:10:31  5-MIN KMSN 130910Z 04010KT 10SM OVC080 06/04 A3009 710 89 -100 040/10 RMK AO2 RAE0858 PRESFR P0000
14837KMSN MSN20101113031511311/13/10 03:15:31  5-MIN KMSN 130915Z 03009KT 10SM -RA OVC085 06/04 A3008 720 89 -100 030/09 RMK AO2 PRESFR P0000
14837KMSN MSN20101113032010611/13/10 03:20:31  5-MIN KMSN 130920Z 05011KT 10SM -RA OVC085 06/04 A3007 720 89 -100 050/11 RMK AO2 P0000
14837KMSN MSN20101113032510611/13/10 03:25:31  5-MIN KMSN 130925Z 05011KT 10SM -RA OVC085 06/04 A3007 730 89 -100 050/11 RMK AO2 P0000
14837KMSN MSN20101113033010611/13/10 03:30:31  5-MIN KMSN 130930Z 06012KT 10SM -RA OVC090 06/04 A3007 730 89 -100 060/12 RMK AO2 P0000
14837KMSN MSN20101113033511311/13/10 03:35:31  5-MIN KMSN 130935Z 06012KT 10SM -RA OVC090 06/04 A3006 740 89 -100 060/12 RMK AO2 PRESFR P0000
14837KMSN MSN20101113034011511/13/10 03:40:31  5-MIN KMSN 130940Z 05014KT 10SM OVC090 06/04 A3005 750 89 -100 050/14 RMK AO2 RAE38 PRESFR P0000
14837KMSN MSN20101113034511411/13/10 03:45:31  5-MIN KMSN 130945Z 06013G19KT 10SM OVC090 06/04 A3004 750 89 -100 060/13G19 RMK AO2 RAE38 P0000
14837KMSN MSN20101113035012511/13/10 03:50:31  5-MIN KMSN 130950Z 06011KT 10SM OVC090 06/04 A3005 750 89 -100 060/11 RMK AO2 RAE38 SLP180 P0000 T00610044
14837KMSN MSN20101113035510311/13/10 03:55:31  5-MIN KMSN 130955Z 07012KT 10SM FEW070 OVC090 06/04 A3005 750 89 -100 070/12 RMK AO2
14837KMSN MSN20101113040010311/13/10 04:00:31  5-MIN KMSN 131000Z 07010KT 10SM BKN075 OVC090 06/04 A3005 750 89 -100 070/10 RMK AO2
14837KMSN MSN20101113040510011/13/10 04:05:31  5-MIN KMSN 131005Z 05012KT 10SM BKN075 OVC090 06/04 A3004 750 89 0 050/12 RMK AO2
14837KMSN MSN20101113041010911/13/10 04:10:31  5-MIN KMSN 131010Z 06009G16KT 10SM BKN070 OVC085 06/04 A3005 750 89 -100 060/09G16 RMK AO2
14837KMSN MSN20101113041512411/13/10 04:15:31  5-MIN KMSN 131015Z 07010G16KT 9SM -RA SCT060 OVC080 06/04 A3005 740 89 -100 070/10G16 RMK AO2 RAB12 P0000
14837KMSN MSN20101113042012111/13/10 04:20:31  5-MIN KMSN 131020Z 06012G16KT 7SM -RA BKN055 OVC075 06/04 A3004 760 89 0 060/12G16 RMK AO2 RAB12 P0000
14837KMSN MSN20101113042511811/13/10 04:25:31  5-MIN KMSN 131025Z 07015KT 6SM -RA BR BKN055 OVC075 06/04 A3004 760 89 0 070/15 RMK AO2 RAB12 P0001
14837KMSN MSN20101113043012111/13/10 04:30:31  5-MIN KMSN 131030Z 07012G19KT 7SM -RA SCT055 OVC075 06/04 A3004 760 89 0 070/12G19 RMK AO2 RAB12 P0001
14837KMSN MSN20101113043511511/13/10 04:35:31  5-MIN KMSN 131035Z 07014KT 7SM -RA SCT055 OVC070 06/04 A3003 760 89 0 070/14 RMK AO2 RAB12 P0001
14837KMSN MSN20101113044011511/13/10 04:40:31  5-MIN KMSN 131040Z 07014KT 7SM -RA SCT055 OVC070 06/04 A3003 760 89 0 070/14 RMK AO2 RAB12 P0002
14837KMSN MSN20101113044511511/13/10 04:45:31  5-MIN KMSN 131045Z 06013KT 7SM -RA FEW055 OVC070 06/04 A3002 780 89 0 060/13 RMK AO2 RAB12 P0002
14837KMSN MSN20101113045013911/13/10 04:50:31  5-MIN KMSN 131050Z 07013KT 9SM -RA BKN070 OVC090 06/04 A3001 780 89 0 060/13 RMK AO2 RAB12 PRESFR SLP168 P0003 T00610044
14837KMSN MSN20101113045511611/13/10 04:55:31  5-MIN KMSN 131055Z 07012G20KT 10SM -RA BKN070 OVC095 06/04 A3001 780 89 0 070/12G20 RMK AO2 P0000
14837KMSN MSN20101113050011611/13/10 05:00:31  5-MIN KMSN 131100Z 06013G20KT 10SM -RA BKN075 OVC100 06/04 A3000 790 89 0 060/13G20 RMK AO2 P0000
14837KMSN MSN20101113050512511/13/10 05:05:31  5-MIN KMSN 131105Z 06016G21KT 10SM BKN075 OVC095 06/04 A2999 800 89 0 060/16G21 RMK AO2 RAE01 PRESFR P0000
14837KMSN MSN20101113051011811/13/10 05:10:31  5-MIN KMSN 131110Z 06012G21KT 10SM BKN075 OVC090 06/04 A2999 800 89 0 060/12G21 RMK AO2 RAE01 P0000
14837KMSN MSN20101113051511111/13/10 05:15:31  5-MIN KMSN 131115Z 07013KT 9SM BKN075 OVC095 06/04 A3000 800 89 0 060/13 RMK AO2 RAE01 P0000
14837KMSN MSN20101113052012411/13/10 05:20:31  5-MIN KMSN 131120Z 07013G18KT 9SM -RA FEW011 OVC075 06/04 A2999 800 89 0 070/13G18 RMK AO2 RAE01B18 P0000
14837KMSN MSN20101113052512411/13/10 05:25:31  5-MIN KMSN 131125Z 08011G18KT 8SM -RA FEW011 OVC075 06/04 A3000 790 89 0 080/11G18 RMK AO2 RAE01B18 P0000
14837KMSN MSN20101113053012411/13/10 05:30:31  5-MIN KMSN 131130Z 08010G18KT 7SM -RA SCT011 OVC075 06/04 A2999 800 89 0 070/10G18 RMK AO2 RAE01B18 P0000
14837KMSN MSN20101113053511811/13/10 05:35:31  5-MIN KMSN 131135Z 08011KT 7SM -RA BKN011 OVC075 06/04 A2999 800 89 0 080/11 RMK AO2 RAE01B18 P0000
14837KMSN MSN20101113054012111/13/10 05:40:31  5-MIN KMSN 131140Z 08011KT 6SM -RA BR BKN011 OVC070 06/05 A2998 810 93 0 080/11 RMK AO2 RAE01B18 P0001
14837KMSN MSN20101113054512811/13/10 05:45:31  5-MIN KMSN 131145Z 07013KT 6SM -RA BR BKN011 OVC070 06/05 A2997 820 93 0 070/13 RMK AO2 RAE01B18 PRESFR P0001
14837KMSN MSN20101113055018111/13/10 05:50:31  5-MIN KMSN 131150Z 08015G22KT 6SM -RA BR BKN011 OVC075 06/05 A2995 830 93 0 080/15G22 RMK AO2 RAE01B18 PRESFR SLP149 P0002 60012 70019 T00610050 10061 20050 56019
14837KMSN MSN20101113055514711/13/10 05:55:31  5-MIN KMSN 131155Z 07018G26KT 7SM -RA BKN011 BKN070 OVC090 06/05 A2995 840 93 0 070/18G26 RMK AO2 PK WND 07026/1155 PRESFR P0000
14837KMSN MSN20101113060014011/13/10 06:00:31  5-MIN KMSN 131200Z 08019G26KT 7SM -RA SCT011 BKN095 OVC110 06/05 A2995 840 93 0 080/19G26 RMK AO2 PK WND 07026/1155 P0001
14837KMSN MSN20101113060513311/13/10 06:05:31  5-MIN KMSN 131205Z 08019G25KT 8SM -RA SCT010 OVC095 06/05 A2995 840 93 0 080/19G25 RMK AO2 PK WND 07026/1155 P0001
14837KMSN MSN20101113061014211/13/10 06:10:31  5-MIN KMSN 131210Z 07017G25KT 9SM SCT010 OVC095 06/05 A2993 850 93 0 070/17G25 RMK AO2 PK WND 07026/1155 RAE07 PRESFR P0001
14837KMSN MSN20101113061513711/13/10 06:15:31  5-MIN KMSN 131215Z 08015G22KT 8SM SCT010 OVC095 07/05 A2993 860 89 100 080/15G22 RMK AO2 PK WND 07026/1155 RAE07 P0001
14837KMSN MSN20101113062013711/13/10 06:20:31  5-MIN KMSN 131220Z 07018G27KT 8SM SCT010 OVC095 07/05 A2993 860 89 100 070/18G27 RMK AO2 PK WND 08027/1220 RAE07 P0001
14837KMSN MSN20101113062513711/13/10 06:25:31  5-MIN KMSN 131225Z 08017G27KT 8SM FEW075 OVC100 07/05 A2993 860 89 100 080/17G27 RMK AO2 PK WND 08027/1220 RAE07 P0001
14837KMSN MSN20101113063013711/13/10 06:30:31  5-MIN KMSN 131230Z 08018G25KT 8SM FEW080 OVC100 07/05 A2992 870 89 100 070/18G25 RMK AO2 PK WND 08027/1220 RAE07 P0001
14837KMSN MSN20101113063513711/13/10 06:35:31  5-MIN KMSN 131235Z 09015G23KT 8SM BKN100 OVC110 07/05 A2992 860 89 100 090/15G23 RMK AO2 PK WND 08027/1220 RAE07 P0001
14837KMSN MSN20101113064013811/13/10 06:40:31  5-MIN KMSN 131240Z 08013G21KT 10SM FEW010 OVC100 07/05 A2992 860 89 100 080/13G21 RMK AO2 PK WND 08027/1220 RAE07 P0001
14837KMSN MSN20101113064513811/13/10 06:45:31  5-MIN KMSN 131245Z 08015G22KT 10SM FEW010 OVC095 07/05 A2991 880 89 100 080/15G22 RMK AO2 PK WND 08027/1220 RAE07 P0001
14837KMSN MSN20101113065015511/13/10 06:50:31  5-MIN KMSN 131250Z 08021G28KT 10SM FEW010 OVC095 07/05 A2991 880 89 100 080/21G28 RMK AO2 PK WND 09028/1250 RAE07 SLP133 P0001 T00670050
14837KMSN MSN20101113065510711/13/10 06:55:31  5-MIN KMSN 131255Z 09018G28KT 8SM FEW010 OVC090 07/05 A2991 870 89 100 090/18G28 RMK AO2
14837KMSN MSN20101113070011411/13/10 07:00:31  5-MIN KMSN 131300Z 09015G23KT 8SM FEW010 SCT075 OVC090 07/06 A2991 870 93 100 090/15G23 RMK AO2
14837KMSN MSN20101113070511411/13/10 07:05:31  5-MIN KMSN 131305Z 09018G25KT 7SM FEW010 BKN080 OVC095 07/06 A2992 870 89 200 090/18G25 RMK AO2
14837KMSN MSN20101113071011411/13/10 07:10:31  5-MIN KMSN 131310Z 09016G25KT 7SM FEW010 BKN080 OVC090 07/06 A2991 870 89 200 090/16G25 RMK AO2
14837KMSN MSN20101113071512311/13/10 07:15:31  5-MIN KMSN 131315Z 09019G25KT 7SM -RA BKN080 OVC090 07/06 A2991 870 89 200 090/19G25 RMK AO2 RAB14 P0000
14837KMSN MSN20101113072013711/13/10 07:20:31  5-MIN KMSN 131320Z 08020G26KT 5SM -RA BR OVC080 07/06 A2990 880 89 200 080/20G26 RMK AO2 PK WND 08026/1320 RAB14 P0000
14837KMSN MSN20101113072515111/13/10 07:25:31  5-MIN KMSN 131325Z 08021G28KT 4SM -RA BR BKN080 OVC090 07/06 A2988 900 89 200 080/21G28 RMK AO2 PK WND 10028/1325 RAB14 PRESFR P0000
14837KMSN MSN20101113073014411/13/10 07:30:31  5-MIN KMSN 131330Z 08019G28KT 4SM -RA BR BKN075 OVC095 07/06 A2988 900 89 200 080/19G28 RMK AO2 PK WND 10028/1325 RAB14 P0000
14837KMSN MSN20101113073514411/13/10 07:35:31  5-MIN KMSN 131335Z 09019G29KT 5SM -RA BR BKN080 OVC095 07/06 A2988 900 89 200 080/19G29 RMK AO2 PK WND 08029/1334 RAB14 P0000
14837KMSN MSN20101113074014311/13/10 07:40:31  5-MIN KMSN 131340Z 09017G29KT 5SM BR BKN080 OVC095 07/06 A2988 900 89 200 090/17G29 RMK AO2 PK WND 08029/1334 RAB14E39 P0000
14837KMSN MSN20101113074514311/13/10 07:45:31  5-MIN KMSN 131345Z 09019G24KT 5SM BR BKN080 OVC095 07/06 A2989 890 89 200 090/19G24 RMK AO2 PK WND 08029/1334 RAB14E39 P0000
14837KMSN MSN20101113075016011/13/10 07:50:31  5-MIN KMSN 131350Z 09014G24KT 5SM BR FEW012 OVC090 07/06 A2989 890 93 200 090/14G24 RMK AO2 PK WND 08029/1334 RAB14E39 SLP128 P0000 T00720061
14837KMSN MSN20101113075511011/13/10 07:55:31  5-MIN KMSN 131355Z 10016G23KT 5SM BR FEW012 OVC090 07/06 A2990 890 93 200 100/16G23 RMK AO2
14837KMSN MSN20101113080010411/13/10 08:00:31  5-MIN KMSN 131400Z 10017KT 5SM BR FEW012 OVC090 08/06 A2989 890 89 300 090/17 RMK AO2
14837KMSN MSN20101113080511011/13/10 08:05:31  5-MIN KMSN 131405Z 09014G21KT 5SM BR SCT012 OVC090 08/06 A2989 890 89 300 090/14G21 RMK AO2
14837KMSN MSN20101113081011011/13/10 08:10:31  5-MIN KMSN 131410Z 09013G21KT 4SM BR BKN012 OVC090 08/06 A2989 890 89 300 090/13G21 RMK AO2
14837KMSN MSN20101113081512011/13/10 08:15:31  5-MIN KMSN 131415Z 09012KT 4SM -RA BR BKN012 OVC090 08/06 A2989 890 89 300 090/12 RMK AO2 RAB13 P0000
14837KMSN MSN20101113082012611/13/10 08:20:31  5-MIN KMSN 131420Z 10015G19KT 4SM -RA BR BKN012 OVC090 08/06 A2989 900 89 300 090/15G19 RMK AO2 RAB13 P0000
14837KMSN MSN20101113082511911/13/10 08:25:31  5-MIN KMSN 131425Z 10012KT 4SM BR BKN012 OVC090 08/06 A2989 900 89 300 090/12 RMK AO2 RAB13E23 P0000
14837KMSN MSN20101113083012511/13/10 08:30:31  5-MIN KMSN 131430Z 10012G19KT 4SM BR BKN012 OVC090 08/07 A2989 900 89 300 100/12G19 RMK AO2 RAB13E23 P0000
14837KMSN MSN20101113083511211/13/10 08:35:31  5-MIN KMSN 131435Z 10013KT 4SM BR OVC012 08/07 A2988 900 89 400 100/13 RMK AO2 RAB13E23 P0000
14837KMSN MSN20101113084012511/13/10 08:40:31  5-MIN KMSN 131440Z 09012G18KT 4SM BR BKN012 OVC090 08/07 A2988 900 89 400 090/12G18 RMK AO2 RAB13E23 P0000
14837KMSN MSN20101113084511911/13/10 08:45:31  5-MIN KMSN 131445Z 09012KT 4SM BR BKN012 OVC085 08/07 A2987 910 89 400 090/12 RMK AO2 RAB13E23 P0000
14837KMSN MSN20101113085012611/13/10 08:50:31  5-MIN KMSN 131450Z 09014KT 4SM BR SCT012 BKN075 OVC090 08/07 A2987 910 89 400 090/14 RMK AO2 RAB13E23 P0000
14837KMSN MSN20101113085510411/13/10 08:55:31  5-MIN KMSN 131455Z 10012KT 4SM BR SCT012 OVC080 08/07 A2987 910 89 400 100/12 RMK AO2
14837KMSN MSN20101113090012111/13/10 09:00:31  5-MIN KMSN 131500Z 11011KT 3SM BR SCT012 BKN075 OVC085 08/07 A2988 900 89 400 110/11 RMK AO2 TWR VIS 4
14837KMSN MSN20101113090513711/13/10 09:05:31  5-MIN KMSN 131505Z 10014KT 3SM -RA BR FEW012 BKN075 OVC090 08/07 A2987 910 89 400 100/14 RMK AO2 TWR VIS 4 RAB01 P0000
14837KMSN MSN20101113091013011/13/10 09:10:31  5-MIN KMSN 131510Z 09012KT 3SM -RA BR FEW012 OVC070 09/07 A2987 910 86 400 090/12 RMK AO2 TWR VIS 4 RAB01 P0000
14837KMSN MSN20101113091513011/13/10 09:15:31  5-MIN KMSN 131515Z 10013KT 3SM -RA BR BKN070 OVC080 09/07 A2987 910 86 400 100/13 RMK AO2 TWR VIS 4 RAB01 P0000
14837KMSN MSN20101113092012311/13/10 09:20:31  5-MIN KMSN 131520Z 10010KT 3SM -RA BR BKN070 09/07 A2986 920 89 400 090/10 RMK AO2 TWR VIS 4 RAB01 P0000
14837KMSN MSN20101113092513711/13/10 09:25:31  5-MIN KMSN 131525Z 10010KT 3SM -RA BR FEW012 SCT036 OVC070 09/07 A2986 920 89 400 100/10 RMK AO2 TWR VIS 4 RAB01 P0000
14837KMSN MSN20101113093013711/13/10 09:30:31  5-MIN KMSN 131530Z 10009KT 3SM -RA BR SCT036 SCT043 OVC070 09/07 A2986 920 89 400 100/09 RMK AO2 TWR VIS 4 RAB01 P0000
14837KMSN MSN20101113093513711/13/10 09:35:31  5-MIN KMSN 131535Z 11013KT 3SM -RA BR SCT036 BKN043 OVC070 09/07 A2987 910 89 400 110/13 RMK AO2 TWR VIS 4 RAB01 P0000
14837KMSN MSN20101113094012711/13/10 09:40:31  5-MIN KMSN 131540Z 11011KT 3SM -RA BKN036 OVC060 09/07 A2987 910 89 400 100/11 RMK AO2 TWR VIS 4 RAB01 P0000
14837KMSN MSN20101113094514011/13/10 09:45:31  5-MIN KMSN 131545Z 10010KT 1 3/4SM RA BR BKN036 BKN043 OVC060 09/07 A2986 920 89 400 100/10 RMK AO2 TWR VIS 2 RAB01 P0001
14837KMSN MSN20101113095014311/13/10 09:50:31  5-MIN KMSN 131550Z 11010KT 1 1/2SM RA BR OVC034 09/07 A2986 920 89 400 100/10 RMK AO2 TWR VIS 2 RAB01 SLP116 P0002 T00890072
14837KMSN MSN20101113095512811/13/10 09:55:31  5-MIN KMSN 131555Z 10011KT 1 1/2SM -RA BR BKN034 OVC043 09/07 A2985 930 89 500 100/11 RMK AO2 TWR VIS 2 P0000
14837KMSN MSN20101113100012111/13/10 10:00:31  5-MIN KMSN 131600Z 10011KT 1 3/4SM -RA BR OVC032 09/07 A2985 930 89 500 100/11 RMK AO2 TWR VIS 2 P0001
14837KMSN MSN20101113100511411/13/10 10:05:31  5-MIN KMSN 131605Z 10008KT 2SM -RA BR BKN032 OVC050 09/07 A2984 940 89 500 100/08 RMK AO2 P0001
14837KMSN MSN20101113101011411/13/10 10:10:31  5-MIN KMSN 131610Z 09006KT 2SM -RA BR BKN032 OVC050 09/08 A2984 940 93 500 090/06 RMK AO2 P0001
14837KMSN MSN20101113101512811/13/10 10:15:31  5-MIN KMSN 131615Z 11008KT 2 1/2SM -RA BR SCT026 OVC031 09/08 A2984 940 93 500 110/08 RMK AO2 TWR VIS 3 P0001
14837KMSN MSN20101113102012411/13/10 10:20:31  5-MIN KMSN 131620Z 11010KT 2SM -RA BR BKN026 OVC031 09/08 A2985 930 93 500 110/10 RMK AO2 TWR VIS 3 P0001
14837KMSN MSN20101113102513811/13/10 10:25:31  5-MIN KMSN 131625Z 10009KT 1 1/2SM RA BR BKN026 BKN031 OVC048 09/08 A2983 940 93 500 090/09 RMK AO2 TWR VIS 2 1/2 P0002
14837KMSN MSN20101113103014511/13/10 10:30:31  5-MIN KMSN 131630Z 09009KT 1 1/4SM RA BR BKN026 BKN047 OVC060 09/08 A2982 950 93 500 090/09 RMK AO2 TWR VIS 2 1/2 PRESFR P0004
14837KMSN MSN20101113103513911/13/10 10:35:31  5-MIN KMSN 131635Z 11010KT 1 1/2SM -RA BR BKN024 BKN029 OVC060 09/08 A2983 950 93 500 100/10 RMK AO2 TWR VIS 2 1/2 P0004
14837KMSN MSN20101113104013911/13/10 10:40:31  5-MIN KMSN 131640Z 10008KT 1 3/4SM -RA BR BKN024 BKN029 OVC060 09/08 A2982 950 93 500 090/08 RMK AO2 TWR VIS 2 1/2 P0005
14837KMSN MSN20101113104513211/13/10 10:45:31  5-MIN KMSN 131645Z 11008KT 1 1/2SM -RA BR BKN024 OVC029 09/08 A2982 950 93 500 100/08 RMK AO2 TWR VIS 2 1/2 P0005
14837KMSN MSN20101113105014811/13/10 10:50:31  5-MIN KMSN 131650Z 11008KT 1 1/4SM RA BR BKN020 OVC027 09/08 A2983 950 93 500 110/08 RMK AO2 TWR VIS 2 1/2 SLP104 P0006 T00890078
14837KMSN MSN20101113105513911/13/10 10:55:31  5-MIN KMSN 131655Z 10007KT 1 1/4SM -RA BR SCT005 BKN020 OVC029 09/08 A2982 960 93 500 100/07 RMK AO2 TWR VIS 2 1/2 P0001
14837KMSN MSN20101113110013911/13/10 11:00:31  5-MIN KMSN 131700Z 10006KT 1 1/2SM -RA BR SCT005 BKN020 OVC029 09/08 A2981 970 93 500 100/06 RMK AO2 TWR VIS 2 1/2 P0001
14837KMSN MSN20101113110513911/13/10 11:05:31  5-MIN KMSN 131705Z 10009KT 1 1/2SM -RA BR SCT005 BKN020 OVC029 09/08 A2981 970 93 500 100/09 RMK AO2 TWR VIS 2 1/2 P0001
14837KMSN MSN20101113111013911/13/10 11:10:31  5-MIN KMSN 131710Z 11009KT 1 3/4SM -RA BR SCT005 BKN020 OVC029 09/08 A2981 970 93 500 110/09 RMK AO2 TWR VIS 2 1/2 P0001
14837KMSN MSN20101113111513011/13/10 11:15:31  5-MIN KMSN 131715Z 11010KT 2SM BR SCT010 OVC018 09/08 A2980 970 96 500 110/10 RMK AO2 TWR VIS 2 1/2 RAE12 P0001
14837KMSN MSN20101113112013011/13/10 11:20:31  5-MIN KMSN 131720Z 11013KT 2SM BR SCT010 OVC018 09/08 A2980 980 89 600 110/13 RMK AO2 TWR VIS 2 1/2 RAE12 P0001
14837KMSN MSN20101113112513711/13/10 11:25:31  5-MIN KMSN 131725Z 11013KT 2SM BR SCT010 OVC018 09/08 A2979 990 93 600 110/13 RMK AO2 TWR VIS 2 1/2 RAE12 PRESFR P0001
14837KMSN MSN20101113113013711/13/10 11:30:31  5-MIN KMSN 131730Z 11011KT 2SM BR SCT010 OVC018 09/08 A2978 990 93 600 110/11 RMK AO2 TWR VIS 2 1/2 RAE12 PRESFR P0001
14837KMSN MSN20101113113513111/13/10 11:35:31  5-MIN KMSN 131735Z 11012KT 2SM BR SCT010 OVC018 09/08 A2978 1000 93 600 110/12 RMK AO2 TWR VIS 2 1/2 RAE12 P0001
14837KMSN MSN20101113114013311/13/10 11:40:31  5-MIN KMSN 131740Z 12011KT 2 1/2SM BR BKN010 OVC018 09/08 A2978 1000 93 600 120/11 RMK AO2 RAE12 CIG 007V014 P0001
14837KMSN MSN20101113114513311/13/10 11:45:31  5-MIN KMSN 131745Z 12010KT 2 1/2SM BR BKN008 OVC018 09/08 A2977 1000 93 600 120/10 RMK AO2 RAE12 CIG 007V014 P0001
14837KMSN MSN20101113115013311/13/10 11:50:31  5-MIN KMSN 131750Z 11014KT 2 1/2SM BR BKN010 OVC018 09/08 A2977 1010 93 600 100/14 RMK AO2 RAE12 CIG 007V012 P0001
14837KMSN MSN20101113115512111/13/10 11:55:31  5-MIN KMSN 131755Z 12012KT 2 1/2SM BR BKN010 OVC018 09/08 A2977 1010 93 600 120/12 RMK AO2 CIG 007V012
14837KMSN MSN20101113120011411/13/10 12:00:31  5-MIN KMSN 131800Z 12012KT 2 1/2SM BR OVC008 09/08 A2976 1010 93 600 120/12 RMK AO2 CIG 007V012
14837KMSN MSN20101113120510911/13/10 12:05:31  5-MIN KMSN 131805Z 12012KT 2 1/2SM BR BKN008 OVC012 09/08 A2975 1020 93 600 120/12 RMK AO2
14837KMSN MSN20101113121010911/13/10 12:10:31  5-MIN KMSN 131810Z 12012KT 2 1/2SM BR BKN008 OVC012 09/08 A2975 1020 93 600 120/12 RMK AO2
14837KMSN MSN20101113121512111/13/10 12:15:31  5-MIN KMSN 131815Z 12014KT 2 1/2SM BR OVC008 09/08 A2974 1030 93 700 120/14 RMK AO2 CIG 007V014 PRESFR
14837KMSN MSN20101113122013111/13/10 12:20:31  5-MIN KMSN 131820Z 11012KT 2SM BR BKN008 OVC012 09/08 A2974 1040 93 700 110/12 RMK AO2 TWR VIS 2 1/2 CIG 007V010
14837KMSN MSN20101113122511911/13/10 12:25:31  5-MIN KMSN 131825Z 12011KT 2SM BR BKN008 OVC012 09/08 A2973 1040 93 700 120/11 RMK AO2 TWR VIS 2 1/2
14837KMSN MSN20101113123012411/13/10 12:30:31  5-MIN KMSN 131830Z 13012KT 2SM BR OVC008 09/08 A2974 1040 93 700 130/12 RMK AO2 TWR VIS 2 1/2 CIG 006V011
14837KMSN MSN20101113123514011/13/10 12:35:31  5-MIN KMSN 131835Z 14012KT 2SM -DZ BR OVC008 09/08 A2973 1040 93 700 140/12 RMK AO2 TWR VIS 2 1/2 DZB35 CIG 006V012 P0000
14837KMSN MSN20101113124013011/13/10 12:40:31  5-MIN KMSN 131840Z 16009KT 1 1/2SM -DZ BR OVC008 10/09 A2973 1040 93 700 150/09 RMK AO2 DZB35 CIG 006V011 P0000
14837KMSN MSN20101113124514411/13/10 12:45:31  5-MIN KMSN 131845Z 16012KT 1 1/4SM -DZ BR OVC008 10/09 A2974 1030 93 700 160/12 RMK AO2 TWR VIS 1 1/2 DZB35 CIG 006V010 P0000
14837KMSN MSN20101113125017511/13/10 12:50:31  5-MIN KMSN 131850Z 19011G18KT 1 1/4SM -RA BR OVC008 10/09 A2974 1030 93 700 190/11G18 RMK AO2 TWR VIS 1 1/2 DZB35E49RAB49 CIG 005V010 SLP076 P0000 T01000089
14837KMSN MSN20101113125515811/13/10 12:55:31  5-MIN KMSN 131855Z 19015G21KT 1 1/4SM -RA BR BKN008 BKN013 OVC019 09/08 A2975 1030 93 600 190/15G21 RMK AO2 TWR VIS 1 1/2 CIG 005V010 P0000
14837KMSN MSN20101113130014711/13/10 13:00:31  5-MIN KMSN 131900Z 22013G22KT 1 1/2SM -RA BR BKN008 OVC013 09/08 A2975 1020 93 600 220/13G22 RMK AO2 SFC VIS 2 CIG 005V010 P0000
14837KMSN MSN20101113130515011/13/10 13:05:31  5-MIN KMSN 131905Z 22012G22KT 2SM -RA BR BKN005 BKN008 OVC013 07/06 A2976 1010 93 400 220/12G22 RMK AO2 SFC VIS 3 CIG 004V007 P0000
14837KMSN MSN20101113131016811/13/10 13:10:31  5-MIN KMSN 131910Z 21011G23KT 170V240 2SM BR BKN005 BKN008 OVC013 07/06 A2976 1020 93 400 210/11G23 170V240 RMK AO2 SFC VIS 3 RAE09 CIG 004V007 P0000
14837KMSN MSN20101113131514011/13/10 13:15:31  5-MIN KMSN 131915Z 22009G23KT 2SM BR BKN005 BKN008 OVC013 07/06 A2976 1010 96 300 220/09G23 RMK AO2 SFC VIS 3 RAE09 P0000
14837KMSN MSN20101113132013311/13/10 13:20:31  5-MIN KMSN 131920Z 21008G19KT 2SM BR BKN005 OVC013 07/06 A2976 1020 93 400 210/08G19 RMK AO2 SFC VIS 3 RAE09 P0000
14837KMSN MSN20101113132512611/13/10 13:25:31  5-MIN KMSN 131925Z 21009G19KT 2SM BR OVC005 07/06 A2975 1020 93 400 200/09G19 RMK AO2 SFC VIS 3 RAE09 P0000
14837KMSN MSN20101113133013811/13/10 13:30:31  5-MIN KMSN 131930Z 20007G19KT 2SM BR OVC005 07/06 A2975 1020 93 400 200/07G19 RMK AO2 SFC VIS 3 RAE09 CIG 004V009 P0000
14837KMSN MSN20101113133513811/13/10 13:35:31  5-MIN KMSN 131935Z 22009G17KT 2SM BR OVC005 07/06 A2975 1020 93 400 220/09G17 RMK AO2 SFC VIS 3 RAE09 CIG 004V009 P0000
14837KMSN MSN20101113134012811/13/10 13:40:31  5-MIN KMSN 131940Z 21011G16KT 3SM BR OVC005 07/06 A2975 1020 93 300 210/11G16 RMK AO2 RAE09 CIG 004V009 P0000
14837KMSN MSN20101113134513511/13/10 13:45:31  5-MIN KMSN 131945Z 20009G16KT 3SM BR BKN007 OVC014 07/06 A2975 1030 93 300 200/09G16 RMK AO2 RAE09 CIG 005V010 P0000
14837KMSN MSN20101113135014711/13/10 13:50:31  5-MIN KMSN 131950Z 19011G17KT 3SM BR BKN007 BKN010 OVC023 07/06 A2974 1030 89 400 190/11G17 RMK AO2 RAE09 SLP077 P0000 T00720056
14837KMSN MSN20101113135511811/13/10 13:55:31  5-MIN KMSN 131955Z 19013G18KT 6SM BR SCT007 BKN021 OVC027 07/05 A2974 1030 86 400 190/13G18 RMK AO2
14837KMSN MSN20101113140011611/13/10 14:00:31  5-MIN KMSN 132000Z 19015G22KT 10SM FEW007 BKN011 OVC025 07/04 A2975 1030 82 400 190/15G22 RMK AO2
14837KMSN MSN20101113140511611/13/10 14:05:31  5-MIN KMSN 132005Z 20008G22KT 10SM FEW007 BKN011 OVC025 07/04 A2975 1030 86 300 200/08G22 RMK AO2
14837KMSN MSN20101113141010911/13/10 14:10:31  5-MIN KMSN 132010Z 20010G17KT 10SM BKN013 OVC025 07/04 A2975 1030 86 300 200/10G17 RMK AO2
14837KMSN MSN20101113141510911/13/10 14:15:31  5-MIN KMSN 132015Z 19014G18KT 10SM BKN013 OVC025 07/04 A2975 1030 82 300 190/14G18 RMK AO2
14837KMSN MSN20101113142010911/13/10 14:20:31  5-MIN KMSN 132020Z 20013G18KT 10SM BKN013 OVC025 07/04 A2975 1030 82 300 200/13G18 RMK AO2
14837KMSN MSN20101113142510211/13/10 14:25:31  5-MIN KMSN 132025Z 20009G17KT 10SM OVC013 06/04 A2975 1030 86 200 200/09G17 RMK AO2
14837KMSN MSN20101113143010911/13/10 14:30:31  5-MIN KMSN 132030Z 20014G18KT 10SM BKN011 OVC016 06/04 A2975 1030 86 200 200/14G18 RMK AO2
14837KMSN MSN20101113143510311/13/10 14:35:31  5-MIN KMSN 132035Z 20013KT 10SM SCT009 OVC013 06/04 A2975 1030 86 200 200/13 RMK AO2
14837KMSN MSN20101113144010111/13/10 14:40:31  5-MIN KMSN 132040Z 19016G24KT 9SM OVC011 06/04 A2975 1030 86 200 190/16G24 RMK AO2
14837KMSN MSN20101113144510111/13/10 14:45:31  5-MIN KMSN 132045Z 19015G24KT 9SM OVC011 06/04 A2975 1020 86 200 190/15G24 RMK AO2
14837KMSN MSN20101113145013011/13/10 14:50:31  5-MIN KMSN 132050Z 20015G22KT 9SM OVC011 06/03 A2974 1030 85 200 190/15G22 RMK AO2 SLP077 60001 T00560033 58035
14837KMSN MSN20101113145510111/13/10 14:55:31  5-MIN KMSN 132055Z 20013G22KT 9SM OVC011 06/03 A2975 1030 85 200 200/13G22 RMK AO2
14837KMSN MSN20101113150010111/13/10 15:00:31  5-MIN KMSN 132100Z 20016G22KT 9SM OVC011 06/03 A2975 1020 85 200 200/16G22 RMK AO2
14837KMSN MSN20101113150510111/13/10 15:05:31  5-MIN KMSN 132105Z 20014G22KT 9SM OVC011 06/03 A2975 1020 85 200 200/14G22 RMK AO2
14837KMSN MSN20101113151010111/13/10 15:10:31  5-MIN KMSN 132110Z 20015G20KT 9SM OVC011 06/03 A2975 1020 85 200 200/15G20 RMK AO2
14837KMSN MSN20101113151510111/13/10 15:15:31  5-MIN KMSN 132115Z 19009G20KT 9SM OVC011 06/03 A2975 1020 85 200 190/09G20 RMK AO2
14837KMSN MSN20101113152010111/13/10 15:20:31  5-MIN KMSN 132120Z 19013G19KT 9SM OVC011 06/03 A2975 1020 85 200 190/13G19 RMK AO2
14837KMSN MSN20101113152510111/13/10 15:25:31  5-MIN KMSN 132125Z 19015G22KT 8SM OVC011 05/03 A2975 1020 89 100 190/15G22 RMK AO2
14837KMSN MSN20101113153010411/13/10 15:30:31  5-MIN KMSN 132130Z 19014G22KT 5SM BR OVC011 05/03 A2975 1020 89 100 190/14G22 RMK AO2
14837KMSN MSN20101113153511611/13/10 15:35:31  5-MIN KMSN 132135Z 19017G20KT 4SM BR OVC011 05/03 A2976 1020 89 100 190/17G20 RMK AO2 CIG 010V014
14837KMSN MSN20101113154011411/13/10 15:40:31  5-MIN KMSN 132140Z 20013G20KT 3SM BR OVC011 05/03 A2976 1020 89 100 200/13G20 RMK AO2 TWR VIS 4
14837KMSN MSN20101113154513011/13/10 15:45:31  5-MIN KMSN 132145Z 19011G18KT 3SM -DZ BR OVC011 05/03 A2976 1010 85 100 190/11G18 RMK AO2 TWR VIS 4 DZB43 P0000
14837KMSN MSN20101113155016611/13/10 15:50:31  5-MIN KMSN 132150Z 19011G18KT 3SM -DZ BR BKN011 OVC014 05/03 A2976 1010 89 100 190/11G18 RMK AO2 TWR VIS 4 DZB43 CIG 009V013 SLP082 P0000 T00500033
14837KMSN MSN20101113155512711/13/10 15:55:31  5-MIN KMSN 132155Z 20009KT 4SM -DZ BR BKN011 OVC014 05/03 A2976 1010 89 100 200/09 RMK AO2 CIG 009V013 P0000
14837KMSN MSN20101113160011411/13/10 16:00:31  5-MIN KMSN 132200Z 20010G19KT 4SM -DZ BR OVC011 05/03 A2976 1010 89 100 200/10G19 RMK AO2 P0000
14837KMSN MSN20101113160513311/13/10 16:05:31  5-MIN KMSN 132205Z 19012G19KT 4SM -DZ BR BKN011 OVC014 05/03 A2976 1010 89 100 190/12G19 RMK AO2 CIG 009V013 P0000
14837KMSN MSN20101113161013411/13/10 16:10:31  5-MIN KMSN 132210Z 19011G19KT 3SM -DZ BR OVC011 04/03 A2976 1010 89 0 190/11G19 RMK AO2 TWR VIS 4 CIG 009V013 P0000
14837KMSN MSN20101113161512211/13/10 16:15:31  5-MIN KMSN 132215Z 20010G19KT 3SM -DZ BR OVC011 04/03 A2976 1010 89 0 200/10G19 RMK AO2 TWR VIS 4 P0000
14837KMSN MSN20101113162012211/13/10 16:20:31  5-MIN KMSN 132220Z 20009G16KT 3SM -DZ BR OVC011 04/03 A2976 1020 89 0 200/09G16 RMK AO2 TWR VIS 4 P0001
14837KMSN MSN20101113162510611/13/10 16:25:31  5-MIN KMSN 132225Z 20008KT 4SM -DZ BR OVC011 04/03 A2976 1020 89 0 200/08 RMK AO2 P0001
14837KMSN MSN20101113163012311/13/10 16:30:31  5-MIN KMSN 132230Z 19012G18KT 5SM -RA BR OVC011 04/03 A2976 1010 89 0 190/12G18 RMK AO2 DZE27RAB27 P0001
14837KMSN MSN20101113163512311/13/10 16:35:31  5-MIN KMSN 132235Z 20011G18KT 6SM -RA BR OVC013 04/03 A2976 1010 89 0 190/11G18 RMK AO2 DZE27RAB27 P0001
14837KMSN MSN20101113164011811/13/10 16:40:31  5-MIN KMSN 132240Z 19014G19KT 8SM -DZ OVC013 04/03 A2976 1010 89 0 190/14G19 RMK AO2 RAB27E36 P0001
14837KMSN MSN20101113164511811/13/10 16:45:31  5-MIN KMSN 132245Z 19013G19KT 8SM -DZ OVC013 04/03 A2976 1010 89 0 190/13G19 RMK AO2 RAB27E36 P0001
14837KMSN MSN20101113165013611/13/10 16:50:31  5-MIN KMSN 132250Z 20009G21KT 8SM OVC013 04/02 A2976 1010 85 0 200/09G21 RMK AO2 DZE50RAB27E36 SLP083 P0001 T00440022
14837KMSN MSN20101113165509911/13/10 16:55:31  5-MIN KMSN 132255Z 20010G21KT 7SM OVC013 04/03 A2976 1010 89 0 200/10G21 RMK AO2
14837KMSN MSN20101113170010211/13/10 17:00:31  5-MIN KMSN 132300Z 21008G16KT 6SM BR OVC011 04/03 A2976 1010 89 0 200/08G16 RMK AO2
14837KMSN MSN20101113170511811/13/10 17:05:31  5-MIN KMSN 132305Z 21006G16KT 5SM -RA BR OVC011 04/03 A2976 1010 89 0 210/06G16 RMK AO2 RAB01 P0000
14837KMSN MSN20101113171012211/13/10 17:10:31  5-MIN KMSN 132310Z 19013G18KT 7SM -RA BKN011 OVC020 04/03 A2976 1010 89 0 190/13G18 RMK AO2 RAB01 P0000
14837KMSN MSN20101113171512111/13/10 17:15:31  5-MIN KMSN 132315Z 21011G18KT 9SM BKN011 OVC020 04/02 A2976 1010 85 0 210/11G18 RMK AO2 RAB01E11 P0000
14837KMSN MSN20101113172012211/13/10 17:20:31  5-MIN KMSN 132320Z 20010G18KT 10SM BKN011 OVC022 04/02 A2976 1010 85 0 200/10G18 RMK AO2 RAB01E11 P0000
14837KMSN MSN20101113172511611/13/10 17:25:31  5-MIN KMSN 132325Z 20011KT 10SM BKN013 OVC021 04/02 A2976 1010 85 0 200/11 RMK AO2 RAB01E11 P0000
14837KMSN MSN20101113173012811/13/10 17:30:31  5-MIN KMSN 132330Z 20011G17KT 8SM FEW010 BKN015 OVC021 04/02 A2976 1010 85 0 190/11G17 RMK AO2 RAB01E11 P0000
14837KMSN MSN20101113173511811/13/10 17:35:31  5-MIN KMSN 132335Z 20009KT 6SM BR BKN013 OVC021 04/02 A2976 1010 85 0 200/09 RMK AO2 RAB01E11 P0000
14837KMSN MSN20101113174012111/13/10 17:40:31  5-MIN KMSN 132340Z 21012G21KT 7SM BKN013 OVC021 04/02 A2976 1010 85 0 210/12G21 RMK AO2 RAB01E11 P0000
14837KMSN MSN20101113174512111/13/10 17:45:31  5-MIN KMSN 132345Z 21011G21KT 9SM BKN013 OVC021 04/02 A2976 1010 85 0 210/11G21 RMK AO2 RAB01E11 P0000
14837KMSN MSN20101113175012211/13/10 17:50:31  5-MIN KMSN 132350Z 20010G17KT 10SM BKN015 OVC024 04/02 A2976 1010 85 0 200/10G17 RMK AO2 RAB01E11 P0000
14837KMSN MSN20101113175510711/13/10 17:55:31  5-MIN KMSN 132355Z 20013G20KT 10SM BKN015 OVC024 04/02 A2976 1010 85 0 200/13G20 RMK AO2
14837KMSN MSN20101113180010711/13/10 18:00:31  5-MIN KMSN 140000Z 21011G20KT 10SM BKN013 OVC018 04/02 A2976 1010 85 0 210/11G20 RMK AO2
14837KMSN MSN20101113180510011/13/10 18:05:31  5-MIN KMSN 140005Z 20010G18KT 10SM OVC016 04/02 A2976 1010 85 0 200/10G18 RMK AO2
14837KMSN MSN20101113181010011/13/10 18:10:31  5-MIN KMSN 140010Z 20010G18KT 10SM OVC016 04/02 A2976 1010 85 0 200/10G18 RMK AO2
14837KMSN MSN20101113181509911/13/10 18:15:31  5-MIN KMSN 140015Z 20008G18KT 9SM OVC016 04/02 A2976 1010 85 0 200/08G18 RMK AO2
14837KMSN MSN20101113182009911/13/10 18:20:31  5-MIN KMSN 140020Z 20013G18KT 8SM OVC016 04/02 A2976 1020 85 0 200/13G18 RMK AO2
14837KMSN MSN20101113182509911/13/10 18:25:31  5-MIN KMSN 140025Z 19014G20KT 8SM OVC016 04/02 A2976 1020 85 0 190/14G20 RMK AO2
14837KMSN MSN20101113183010211/13/10 18:30:31  5-MIN KMSN 140030Z 19013G21KT 7SM OVC014 03/02 A2976 1020 89 -100 190/13G21 RMK AO2
14837KMSN MSN20101113183510211/13/10 18:35:31  5-MIN KMSN 140035Z 20010G21KT 7SM OVC014 03/02 A2976 1020 89 -100 200/10G21 RMK AO2
14837KMSN MSN20101113184010611/13/10 18:40:31  5-MIN KMSN 140040Z 20010KT 5SM BR BKN014 OVC018 03/02 A2976 1020 89 -100 200/10 RMK AO2
14837KMSN MSN20101113184512111/13/10 18:45:31  5-MIN KMSN 140045Z 20014G18KT 4SM -DZ BR OVC014 03/02 A2975 1020 89 -100 200/14G18 RMK AO2 DZB45 P0000
14837KMSN MSN20101113185014511/13/10 18:50:31  5-MIN KMSN 140050Z 19011G18KT 4SM -DZ BR BKN012 OVC018 03/02 A2975 1020 89 -100 190/11G18 RMK AO2 DZB45 SLP081 P0000 T00330017
14837KMSN MSN20101113203512111/13/10 20:35:31  5-MIN KMSN 140235Z 21010G19KT 5SM -DZ BR OVC012 03/02 A2975 1020 89 -100 210/10G19 RMK AO2 DZB11 P0000
14837KMSN MSN20101113204012111/13/10 20:40:31  5-MIN KMSN 140240Z 20011G21KT 5SM -DZ BR OVC012 03/02 A2975 1020 89 -100 200/11G21 RMK AO2 DZB11 P0000
14837KMSN MSN20101113204512811/13/10 20:45:31  5-MIN KMSN 140245Z 20011G21KT 5SM -DZ BR BKN012 OVC018 03/02 A2975 1020 89 -100 200/11G21 RMK AO2 DZB11 P0000
14837KMSN MSN20101113205015011/13/10 20:50:31  5-MIN KMSN 140250Z 19014G17KT 4SM -DZ BR OVC012 03/02 A2975 1020 89 -100 190/14G17 RMK AO2 DZB11 SLP080 P0000 60000 T00330017 50004
14837KMSN MSN20101113205511511/13/10 20:55:31  5-MIN KMSN 140255Z 19012G17KT 4SM -DZ BR OVC010 03/02 A2975 1020 89 -100 190/12G17 RMK AO2 P0000
14837KMSN MSN20101113210012211/13/10 21:00:31  5-MIN KMSN 140300Z 19014G19KT 4SM -DZ BR BKN012 OVC016 03/02 A2975 1020 89 -100 190/14G19 RMK AO2 P0000
14837KMSN MSN20101113210511511/13/10 21:05:31  5-MIN KMSN 140305Z 20011G19KT 5SM -DZ BR OVC012 03/02 A2975 1020 89 -100 200/11G19 RMK AO2 P0000
14837KMSN MSN20101113211013411/13/10 21:10:31  5-MIN KMSN 140310Z 21011G18KT 6SM -DZ BR BKN010 OVC017 03/02 A2975 1020 89 -100 210/11G18 RMK AO2 CIG 008V014 P0000
14837KMSN MSN20101113211512411/13/10 21:15:31  5-MIN KMSN 140315Z 21008G18KT 7SM -DZ OVC010 03/02 A2975 1020 89 -100 210/08G18 RMK AO2 CIG 008V013 P0000
14837KMSN MSN20101113212012711/13/10 21:20:31  5-MIN KMSN 140320Z 21007G16KT 6SM -DZ BR OVC010 03/02 A2975 1020 89 -100 210/07G16 RMK AO2 CIG 007V013 P0000
14837KMSN MSN20101113212513411/13/10 21:25:31  5-MIN KMSN 140325Z 21008G14KT 6SM -DZ BR BKN010 OVC016 03/02 A2975 1030 89 -100 210/08G14 RMK AO2 CIG 007V013 P0000
14837KMSN MSN20101113213013111/13/10 21:30:31  5-MIN KMSN 140330Z 20008G19KT 8SM -DZ BKN010 OVC016 03/02 A2975 1020 89 -100 200/08G19 RMK AO2 CIG 007V013 P0000
14837KMSN MSN20101113213512411/13/10 21:35:31  5-MIN KMSN 140335Z 21011G19KT 8SM -DZ OVC010 03/02 A2975 1020 89 -100 210/11G19 RMK AO2 CIG 007V013 P0000
14837KMSN MSN20101113214012611/13/10 21:40:31  5-MIN KMSN 140340Z 20010G17KT 7SM OVC010 03/02 A2975 1020 89 -100 200/10G17 RMK AO2 DZE37 CIG 007V013 P0000
14837KMSN MSN20101113214512611/13/10 21:45:31  5-MIN KMSN 140345Z 20009G17KT 7SM OVC010 03/02 A2975 1020 89 -100 200/09G17 RMK AO2 DZE37 CIG 007V013 P0000
14837KMSN MSN20101113215014311/13/10 21:50:31  5-MIN KMSN 140350Z 21010G17KT 8SM OVC010 03/02 A2975 1030 89 -100 210/10G17 RMK AO2 DZE37 CIG 007V012 SLP078 P0000 T00330017
14837KMSN MSN20101113215511111/13/10 21:55:31  5-MIN KMSN 140355Z 21010G17KT 9SM OVC010 03/02 A2974 1030 89 0 210/10G17 RMK AO2 CIG 007V014
14837KMSN MSN20101113220009911/13/10 22:00:31  5-MIN KMSN 140400Z 22012G23KT 9SM OVC010 03/01 A2974 1030 85 0 220/12G23 RMK AO2
14837KMSN MSN20101113220509911/13/10 22:05:31  5-MIN KMSN 140405Z 21011G23KT 8SM OVC010 03/01 A2974 1030 85 0 210/11G23 RMK AO2
14837KMSN MSN20101113221010211/13/10 22:10:31  5-MIN KMSN 140410Z 22011G20KT 9SM OVC010 03/01 A2974 1030 89 -100 220/11G20 RMK AO2
14837KMSN MSN20101113221510311/13/10 22:15:31  5-MIN KMSN 140415Z 21014G20KT 10SM OVC010 03/01 A2974 1030 89 -100 210/14G20 RMK AO2
14837KMSN MSN20101113222011911/13/10 22:20:31  5-MIN KMSN 140420Z 22010G20KT 180V240 10SM OVC010 03/01 A2974 1030 89 -100 210/10G20 180V240 RMK AO2
14837KMSN MSN20101113222510311/13/10 22:25:31  5-MIN KMSN 140425Z 22012G20KT 10SM OVC010 03/01 A2974 1030 89 -100 210/12G20 RMK AO2
14837KMSN MSN20101113223010311/13/10 22:30:31  5-MIN KMSN 140430Z 22011G23KT 10SM OVC010 03/01 A2974 1030 89 -100 220/11G23 RMK AO2
14837KMSN MSN20101113223510311/13/10 22:35:31  5-MIN KMSN 140435Z 22009G23KT 10SM OVC010 03/01 A2974 1030 89 -100 210/09G23 RMK AO2
14837KMSN MSN20101113224010311/13/10 22:40:31  5-MIN KMSN 140440Z 22011G22KT 10SM OVC012 03/01 A2974 1030 85 -100 220/11G22 RMK AO2
14837KMSN MSN20101113224510311/13/10 22:45:31  5-MIN KMSN 140445Z 22012G22KT 10SM OVC012 03/01 A2974 1030 85 -100 220/12G22 RMK AO2
14837KMSN MSN20101113225013611/13/10 22:50:31  5-MIN KMSN 140450Z 21011G22KT 180V240 10SM OVC012 03/01 A2974 1030 85 -100 210/11G22 180V240 RMK AO2 SLP075 T00280006
14837KMSN MSN20101113225510211/13/10 22:55:31  5-MIN KMSN 140455Z 22008G22KT 9SM OVC012 03/01 A2974 1030 89 -100 210/08G22 RMK AO2
14837KMSN MSN20101113230010211/13/10 23:00:31  5-MIN KMSN 140500Z 22012G21KT 9SM OVC012 03/01 A2974 1030 89 -100 220/12G21 RMK AO2
14837KMSN MSN20101113230510211/13/10 23:05:31  5-MIN KMSN 140505Z 21012G21KT 9SM OVC012 03/01 A2974 1030 89 -100 210/12G21 RMK AO2
14837KMSN MSN20101113231010211/13/10 23:10:31  5-MIN KMSN 140510Z 21007G20KT 8SM OVC012 03/01 A2974 1030 89 -100 210/07G20 RMK AO2
14837KMSN MSN20101113231510911/13/10 23:15:31  5-MIN KMSN 140515Z 21009G16KT 8SM BKN012 OVC016 03/01 A2974 1030 89 -100 210/09G16 RMK AO2
14837KMSN MSN20101113232010211/13/10 23:20:31  5-MIN KMSN 140520Z 21010G16KT 9SM OVC014 03/01 A2974 1030 89 -100 210/10G16 RMK AO2
14837KMSN MSN20101113232510311/13/10 23:25:31  5-MIN KMSN 140525Z 21010G19KT 10SM OVC011 03/01 A2974 1030 89 -100 210/10G19 RMK AO2
14837KMSN MSN20101113233010311/13/10 23:30:31  5-MIN KMSN 140530Z 21010G20KT 10SM OVC011 03/01 A2974 1030 89 -100 210/10G20 RMK AO2
14837KMSN MSN20101113233511511/13/10 23:35:31  5-MIN KMSN 140535Z 23008G20KT 10SM OVC011 03/01 A2974 1030 89 -100 230/08G20 RMK AO2 CIG 009V015
14837KMSN MSN20101113234011911/13/10 23:40:31  5-MIN KMSN 140540Z 23009G17KT 200V270 10SM OVC011 03/01 A2974 1030 89 -100 230/09G17 200V270 RMK AO2
14837KMSN MSN20101113234511911/13/10 23:45:31  5-MIN KMSN 140545Z 23008G16KT 200V270 10SM OVC009 03/01 A2974 1030 89 -100 230/08G16 200V270 RMK AO2
14837KMSN MSN20101113235015411/13/10 23:50:31  5-MIN KMSN 140550Z 23009G16KT 10SM OVC009 03/01 A2974 1030 89 -100 230/09G16 RMK AO2 SLP077 60000 T00280011 10039 20028 401000028 55003
14837KMSN MSN20101113235511911/13/10 23:55:31  5-MIN KMSN 140555Z 23011G19KT 190V250 10SM OVC009 03/01 A2974 1030 89 -100 230/11G19 190V250 RMK AO2
14837KMSN MSN20101114000010311/14/10 00:00:32  5-MIN KMSN 140600Z 22008G19KT 10SM OVC009 03/01 A2974 1030 89 -100 220/08G19 RMK AO2
14837KMSN MSN20101114000511511/14/10 00:05:31  5-MIN KMSN 140605Z 23010G16KT 10SM OVC009 03/01 A2974 1030 89 -100 230/10G16 RMK AO2 CIG 009V014
14837KMSN MSN20101114001011511/14/10 00:10:31  5-MIN KMSN 140610Z 22010G17KT 10SM OVC009 03/01 A2974 1030 89 -100 220/10G17 RMK AO2 CIG 009V014
14837KMSN MSN20101114001510311/14/10 00:15:31  5-MIN KMSN 140615Z 23010G17KT 10SM OVC011 03/01 A2974 1030 85 -100 230/10G17 RMK AO2
14837KMSN MSN20101114002010311/14/10 00:20:31  5-MIN KMSN 140620Z 22010G16KT 10SM OVC011 03/01 A2973 1040 85 -100 220/10G16 RMK AO2
14837KMSN MSN20101114002510311/14/10 00:25:31  5-MIN KMSN 140625Z 22011G19KT 10SM OVC013 03/01 A2973 1040 85 -100 220/11G19 RMK AO2
14837KMSN MSN20101114003011011/14/10 00:30:31  5-MIN KMSN 140630Z 23012G19KT 10SM FEW010 OVC014 03/01 A2973 1040 85 -100 220/12G19 RMK AO2
14837KMSN MSN20101114003512611/14/10 00:35:31  5-MIN KMSN 140635Z 23009G19KT 190V250 10SM FEW010 OVC014 03/01 A2973 1040 85 -100 230/09G19 190V250 RMK AO2
14837KMSN MSN20101114004011011/14/10 00:40:31  5-MIN KMSN 140640Z 23010G17KT 10SM FEW010 OVC014 03/01 A2973 1040 85 -100 230/10G17 RMK AO2
14837KMSN MSN20101114004510311/14/10 00:45:31  5-MIN KMSN 140645Z 22010G17KT 10SM OVC014 03/01 A2973 1040 85 -100 210/10G17 RMK AO2
14837KMSN MSN20101114005012011/14/10 00:50:31  5-MIN KMSN 140650Z 22011G17KT 10SM OVC014 03/01 A2973 1040 85 -100 220/11G17 RMK AO2 SLP074 T00280006
14837KMSN MSN20101114005510311/14/10 00:55:31  5-MIN KMSN 140655Z 23012G20KT 10SM OVC014 03/01 A2973 1040 85 -100 230/12G20 RMK AO2
14837KMSN MSN20101114010010311/14/10 01:00:31  5-MIN KMSN 140700Z 23008G20KT 10SM OVC014 03/01 A2973 1040 85 -100 230/08G20 RMK AO2
14837KMSN MSN20101114010510311/14/10 01:05:31  5-MIN KMSN 140705Z 23010G17KT 10SM OVC014 03/01 A2973 1040 85 -100 230/10G17 RMK AO2
14837KMSN MSN20101114011010311/14/10 01:10:31  5-MIN KMSN 140710Z 22008G17KT 10SM OVC014 03/01 A2973 1040 85 -100 220/08G17 RMK AO2
14837KMSN MSN20101114011510311/14/10 01:15:31  5-MIN KMSN 140715Z 22009G19KT 10SM OVC014 03/01 A2973 1040 85 -100 220/09G19 RMK AO2
14837KMSN MSN20101114012010311/14/10 01:20:31  5-MIN KMSN 140720Z 23008G19KT 10SM OVC012 03/01 A2973 1040 85 -100 230/08G19 RMK AO2
14837KMSN MSN20101114012510311/14/10 01:25:31  5-MIN KMSN 140725Z 23010G20KT 10SM OVC012 03/01 A2973 1040 85 -100 230/10G20 RMK AO2
14837KMSN MSN20101114013010311/14/10 01:30:31  5-MIN KMSN 140730Z 23014G20KT 10SM OVC012 03/01 A2973 1040 85 -100 230/14G20 RMK AO2
14837KMSN MSN20101114013510311/14/10 01:35:31  5-MIN KMSN 140735Z 24009G20KT 10SM OVC012 03/01 A2973 1040 85 -100 240/09G20 RMK AO2
14837KMSN MSN20101114014011911/14/10 01:40:31  5-MIN KMSN 140740Z 24007G18KT 200V270 10SM OVC012 03/01 A2973 1040 85 -100 230/07G18 200V270 RMK AO2
14837KMSN MSN20101114014510311/14/10 01:45:31  5-MIN KMSN 140745Z 24009G14KT 10SM OVC012 03/01 A2973 1040 85 -100 240/09G14 RMK AO2
14837KMSN MSN20101114015012011/14/10 01:50:31  5-MIN KMSN 140750Z 25011G21KT 10SM OVC012 03/01 A2973 1040 85 -100 250/11G21 RMK AO2 SLP074 T00280006
14837KMSN MSN20101114015510311/14/10 01:55:31  5-MIN KMSN 140755Z 24012G22KT 10SM OVC012 03/01 A2973 1040 85 -100 240/12G22 RMK AO2
14837KMSN MSN20101114020010311/14/10 02:00:31  5-MIN KMSN 140800Z 25010G22KT 10SM OVC012 03/01 A2973 1040 85 -100 250/10G22 RMK AO2
14837KMSN MSN20101114020510311/14/10 02:05:31  5-MIN KMSN 140805Z 24010G21KT 10SM OVC012 03/01 A2973 1040 85 -100 240/10G21 RMK AO2
14837KMSN MSN20101114021010311/14/10 02:10:31  5-MIN KMSN 140810Z 25010G23KT 10SM OVC012 03/00 A2973 1040 82 -100 250/10G23 RMK AO2
14837KMSN MSN20101114021510311/14/10 02:15:31  5-MIN KMSN 140815Z 24009G23KT 10SM OVC012 03/00 A2973 1040 82 -100 240/09G23 RMK AO2
14837KMSN MSN20101114022010311/14/10 02:20:31  5-MIN KMSN 140820Z 24008G17KT 10SM OVC014 03/01 A2973 1040 85 -100 240/08G17 RMK AO2
14837KMSN MSN20101114022511011/14/10 02:25:31  5-MIN KMSN 140825Z 24008G17KT 10SM BKN014 OVC019 03/00 A2973 1040 82 -100 240/08G17 RMK AO2
14837KMSN MSN20101114023010311/14/10 02:30:31  5-MIN KMSN 140830Z 23009G16KT 10SM OVC014 03/00 A2973 1040 82 -100 230/09G16 RMK AO2
14837KMSN MSN20101114023510311/14/10 02:35:31  5-MIN KMSN 140835Z 24010G17KT 10SM OVC014 03/00 A2973 1040 82 -100 240/10G17 RMK AO2
14837KMSN MSN20101114024010311/14/10 02:40:31  5-MIN KMSN 140840Z 24009G17KT 10SM OVC014 03/00 A2973 1040 82 -100 230/09G17 RMK AO2
14837KMSN MSN20101114024511911/14/10 02:45:31  5-MIN KMSN 140845Z 24011G19KT 200V280 10SM OVC014 03/00 A2973 1040 82 -100 240/11G19 200V280 RMK AO2
14837KMSN MSN20101114025012611/14/10 02:50:31  5-MIN KMSN 140850Z 23011G19KT 10SM OVC014 03/00 A2972 1050 82 -100 230/11G19 RMK AO2 SLP071 T00280000 56001
14837KMSN MSN20101114025510311/14/10 02:55:31  5-MIN KMSN 140855Z 23010G18KT 10SM OVC016 03/00 A2972 1050 82 -100 230/10G18 RMK AO2
14837KMSN MSN20101114030011911/14/10 03:00:31  5-MIN KMSN 140900Z 24010G17KT 220V280 10SM OVC016 03/00 A2972 1050 82 -100 240/10G17 220V280 RMK AO2
14837KMSN MSN20101114030511911/14/10 03:05:31  5-MIN KMSN 140905Z 24009G16KT 200V260 10SM OVC016 03/00 A2972 1050 82 -100 240/09G16 200V260 RMK AO2
14837KMSN MSN20101114031012611/14/10 03:10:31  5-MIN KMSN 140910Z 24008G16KT 210V280 10SM BKN016 OVC022 03/00 A2972 1050 82 -100 240/08G16 210V280 RMK AO2
14837KMSN MSN20101114031512611/14/10 03:15:31  5-MIN KMSN 140915Z 24008G16KT 200V260 10SM BKN016 OVC022 03/00 A2972 1050 82 -100 240/08G16 200V260 RMK AO2
14837KMSN MSN20101114032011011/14/10 03:20:31  5-MIN KMSN 140920Z 24012G18KT 10SM BKN016 OVC022 03/00 A2972 1050 82 -100 240/12G18 RMK AO2
14837KMSN MSN20101114032511511/14/10 03:25:31  5-MIN KMSN 140925Z 25007G18KT 10SM OVC018 03/00 A2972 1050 82 -100 240/07G18 RMK AO2 CIG 013V024
14837KMSN MSN20101114033011011/14/10 03:30:31  5-MIN KMSN 140930Z 24009G16KT 10SM SCT014 OVC020 03/00 A2972 1050 82 -100 240/09G16 RMK AO2
14837KMSN MSN20101114033511011/14/10 03:35:31  5-MIN KMSN 140935Z 25010G16KT 10SM BKN016 OVC020 03/00 A2972 1050 82 -100 250/10G16 RMK AO2
14837KMSN MSN20101114034011011/14/10 03:40:31  5-MIN KMSN 140940Z 23007G15KT 10SM BKN018 OVC022 03/00 A2972 1050 82 -100 230/07G15 RMK AO2
14837KMSN MSN20101114034510311/14/10 03:45:31  5-MIN KMSN 140945Z 25011G19KT 10SM OVC019 03/00 A2972 1050 82 -100 250/11G19 RMK AO2
14837KMSN MSN20101114035012711/14/10 03:50:31  5-MIN KMSN 140950Z 25007G19KT 10SM SCT016 OVC021 03/00 A2972 1050 82 -100 240/07G19 RMK AO2 SLP072 T00280000
14837KMSN MSN20101114035512611/14/10 03:55:31  5-MIN KMSN 140955Z 25010G18KT 210V290 10SM BKN016 OVC021 03/00 A2973 1040 82 -100 250/10G18 210V290 RMK AO2
14837KMSN MSN20101114040012611/14/10 04:00:31  5-MIN KMSN 141000Z 25007G20KT 210V290 10SM BKN016 OVC021 03/00 A2973 1040 82 -100 250/07G20 210V290 RMK AO2
14837KMSN MSN20101114040512611/14/10 04:05:31  5-MIN KMSN 141005Z 25007G20KT 210V280 10SM BKN016 OVC021 03/00 A2973 1040 82 -100 240/07G20 210V280 RMK AO2
14837KMSN MSN20101114041010311/14/10 04:10:31  5-MIN KMSN 141010Z 26009G18KT 10SM OVC018 03/00 A2973 1040 82 -100 260/09G18 RMK AO2
14837KMSN MSN20101114041512611/14/10 04:15:31  5-MIN KMSN 141015Z 25007G19KT 210V290 10SM BKN016 OVC021 03/00 A2973 1040 82 -100 250/07G19 210V290 RMK AO2
14837KMSN MSN20101114042010311/14/10 04:20:31  5-MIN KMSN 141020Z 25011G19KT 10SM OVC018 03/00 A2973 1040 82 -100 250/11G19 RMK AO2
14837KMSN MSN20101114042510411/14/10 04:25:31  5-MIN KMSN 141025Z 24006G17KT 10SM OVC018 03/M01 A2973 1040 79 -100 240/06G17 RMK AO2
14837KMSN MSN20101114043010411/14/10 04:30:31  5-MIN KMSN 141030Z 24011G19KT 10SM OVC018 03/M01 A2973 1040 79 -100 240/11G19 RMK AO2
14837KMSN MSN20101114043510411/14/10 04:35:31  5-MIN KMSN 141035Z 25010G21KT 10SM OVC018 03/M01 A2973 1040 79 -100 250/10G21 RMK AO2
14837KMSN MSN20101114044010311/14/10 04:40:31  5-MIN KMSN 141040Z VRB06G21KT 10SM OVC018 03/00 A2973 1040 82 -100 VRB/06G21 RMK AO2
14837KMSN MSN20101114044510311/14/10 04:45:31  5-MIN KMSN 141045Z 24010G15KT 10SM OVC018 03/00 A2973 1040 82 -100 240/10G15 RMK AO2
14837KMSN MSN20101114045012011/14/10 04:50:31  5-MIN KMSN 141050Z VRB06G15KT 10SM OVC018 03/00 A2974 1040 82 -100 VRB/06G15 RMK AO2 SLP076 T00280000
14837KMSN MSN20101114045511911/14/10 04:55:31  5-MIN KMSN 141055Z 26009G15KT 220V290 10SM OVC018 03/00 A2974 1030 82 -100 260/09G15 220V290 RMK AO2
14837KMSN MSN20101114050010411/14/10 05:00:31  5-MIN KMSN 141100Z VRB05G15KT 10SM OVC018 03/M01 A2974 1030 79 -100 VRB/05G15 RMK AO2
14837KMSN MSN20101114050512011/14/10 05:05:31  5-MIN KMSN 141105Z 25008G17KT 230V290 10SM OVC018 03/M01 A2974 1030 79 -100 250/08G17 230V290 RMK AO2
14837KMSN MSN20101114051012011/14/10 05:10:31  5-MIN KMSN 141110Z 26008G17KT 220V310 10SM OVC018 03/M01 A2974 1030 79 -100 260/08G17 220V310 RMK AO2
14837KMSN MSN20101114051512011/14/10 05:15:31  5-MIN KMSN 141115Z 26007G16KT 220V320 10SM OVC018 03/M01 A2974 1030 79 -100 260/07G16 220V320 RMK AO2
14837KMSN MSN20101114052010411/14/10 05:20:31  5-MIN KMSN 141120Z VRB06G16KT 10SM OVC018 03/M01 A2974 1030 79 -100 VRB/06G16 RMK AO2
14837KMSN MSN20101114052510411/14/10 05:25:31  5-MIN KMSN 141125Z 24010G14KT 10SM OVC018 03/M01 A2974 1030 79 -100 240/10G14 RMK AO2
14837KMSN MSN20101114053010411/14/10 05:30:31  5-MIN KMSN 141130Z VRB06G16KT 10SM OVC018 03/M01 A2975 1030 79 -100 VRB/06G16 RMK AO2
14837KMSN MSN20101114053512011/14/10 05:35:31  5-MIN KMSN 141135Z 27009G16KT 230V310 10SM OVC018 03/M01 A2975 1030 79 -100 270/09G16 230V310 RMK AO2
14837KMSN MSN20101114054012011/14/10 05:40:31  5-MIN KMSN 141140Z 26007G15KT 230V290 10SM OVC018 03/M01 A2974 1030 79 -100 260/07G15 230V290 RMK AO2
14837KMSN MSN20101114054509811/14/10 05:45:31  5-MIN KMSN 141145Z VRB06KT 10SM OVC018 03/M01 A2974 1030 79 -100 VRB/06 RMK AO2
14837KMSN MSN20101114055015511/14/10 05:50:31  5-MIN KMSN 141150Z 26007KT 230V310 10SM OVC018 03/M01 A2975 1030 79 -100 260/07 230V310 RMK AO2 SLP080 70014 T00281006 10028 20028 58006
14837KMSN MSN20101114055512011/14/10 05:55:31  5-MIN KMSN 141155Z 25008G19KT 200V280 10SM OVC018 03/M01 A2974 1030 79 -100 250/08G19 200V280 RMK AO2
14837KMSN MSN20101114060010411/14/10 06:00:31  5-MIN KMSN 141200Z 26008G19KT 10SM OVC018 03/M01 A2974 1030 79 -100 260/08G19 RMK AO2
14837KMSN MSN20101114060510411/14/10 06:05:31  5-MIN KMSN 141205Z 25010G16KT 10SM OVC018 03/M01 A2974 1030 79 -100 250/10G16 RMK AO2
14837KMSN MSN20101114061010411/14/10 06:10:31  5-MIN KMSN 141210Z VRB06G17KT 10SM OVC018 03/M01 A2974 1030 79 -100 VRB/06G17 RMK AO2
14837KMSN MSN20101114061512011/14/10 06:15:31  5-MIN KMSN 141215Z 25011G19KT 210V290 10SM OVC018 03/M01 A2974 1030 79 -100 250/11G19 210V290 RMK AO2
14837KMSN MSN20101114062010411/14/10 06:20:31  5-MIN KMSN 141220Z 25008G19KT 10SM OVC018 03/M01 A2974 1030 79 -100 250/08G19 RMK AO2
14837KMSN MSN20101114062510411/14/10 06:25:31  5-MIN KMSN 141225Z VRB06G14KT 10SM OVC018 03/M01 A2975 1030 79 -100 VRB/06G14 RMK AO2
14837KMSN MSN20101114063009811/14/10 06:30:31  5-MIN KMSN 141230Z 27005KT 10SM OVC018 03/M01 A2975 1030 79 -100 270/05 RMK AO2
14837KMSN MSN20101114063510411/14/10 06:35:31  5-MIN KMSN 141235Z 26008G16KT 10SM OVC018 03/M01 A2975 1020 79 -100 260/08G16 RMK AO2
14837KMSN MSN20101114064012011/14/10 06:40:31  5-MIN KMSN 141240Z 26007G16KT 220V300 10SM OVC018 03/M01 A2975 1020 79 -100 260/07G16 220V300 RMK AO2
14837KMSN MSN20101114064509811/14/10 06:45:31  5-MIN KMSN 141245Z 26006KT 10SM OVC018 03/M01 A2975 1020 79 -100 260/06 RMK AO2
14837KMSN MSN20101114065013111/14/10 06:50:31  5-MIN KMSN 141250Z 25008KT 220V280 10SM OVC018 03/M01 A2975 1020 79 -100 250/08 220V280 RMK AO2 SLP082 T00281006
14837KMSN MSN20101114065510411/14/10 06:55:31  5-MIN KMSN 141255Z 25009G15KT 10SM OVC018 03/M01 A2976 1020 79 -100 250/09G15 RMK AO2
14837KMSN MSN20101114070012011/14/10 07:00:31  5-MIN KMSN 141300Z 25008G15KT 240V300 10SM OVC020 03/M01 A2976 1010 79 -100 250/08G15 240V300 RMK AO2
14837KMSN MSN20101114070512011/14/10 07:05:31  5-MIN KMSN 141305Z 24009G17KT 210V270 10SM OVC020 03/M01 A2976 1010 79 -100 240/09G17 210V270 RMK AO2
14837KMSN MSN20101114071012011/14/10 07:10:31  5-MIN KMSN 141310Z 25010G17KT 210V290 10SM OVC020 03/M01 A2976 1010 79 -100 250/10G17 210V290 RMK AO2
14837KMSN MSN20101114071510411/14/10 07:15:31  5-MIN KMSN 141315Z VRB06G15KT 10SM OVC020 03/M01 A2976 1010 79 -100 VRB/06G15 RMK AO2
14837KMSN MSN20101114072010411/14/10 07:20:31  5-MIN KMSN 141320Z 26009G17KT 10SM OVC020 03/M01 A2977 1010 79 -100 250/09G17 RMK AO2
14837KMSN MSN20101114072512011/14/10 07:25:31  5-MIN KMSN 141325Z 25010G17KT 190V280 10SM OVC020 03/M01 A2977 1010 79 -100 250/10G17 190V280 RMK AO2
14837KMSN MSN20101114073010411/14/10 07:30:31  5-MIN KMSN 141330Z 25012G20KT 10SM OVC020 03/M01 A2977 1000 79 -100 250/12G20 RMK AO2
14837KMSN MSN20101114073512011/14/10 07:35:31  5-MIN KMSN 141335Z 26008G20KT 230V290 10SM OVC020 03/M01 A2977 1000 79 -200 260/08G20 230V290 RMK AO2
14837KMSN MSN20101114074012011/14/10 07:40:31  5-MIN KMSN 141340Z 25008G15KT 210V280 10SM OVC020 03/M01 A2977 1000 79 -200 250/08G15 210V280 RMK AO2
14837KMSN MSN20101114074512011/14/10 07:45:31  5-MIN KMSN 141345Z 25010G17KT 220V280 10SM OVC020 03/M01 A2978 1000 79 -200 250/10G17 220V280 RMK AO2
14837KMSN MSN20101114075013711/14/10 07:50:31  5-MIN KMSN 141350Z 26010G17KT 230V290 10SM OVC020 03/M01 A2977 1000 79 -200 260/10G17 230V290 RMK AO2 SLP090 T00281006
14837KMSN MSN20101114075510411/14/10 07:55:31  5-MIN KMSN 141355Z VRB05G16KT 10SM OVC020 03/M01 A2978 1000 79 -200 VRB/05G16 RMK AO2
14837KMSN MSN20101114080010411/14/10 08:00:31  5-MIN KMSN 141400Z VRB06G17KT 10SM OVC020 03/M01 A2978 1000 79 -200 VRB/06G17 RMK AO2
14837KMSN MSN20101114080510411/14/10 08:05:31  5-MIN KMSN 141405Z 26008G17KT 10SM OVC020 03/M01 A2978 1000 79 -200 250/08G17 RMK AO2
14837KMSN MSN20101114081009711/14/10 08:10:31  5-MIN KMSN 141410Z 25008KT 10SM OVC020 03/M01 A2978 990 79 -200 250/08 RMK AO2
14837KMSN MSN20101114081510311/14/10 08:15:31  5-MIN KMSN 141415Z 26008G17KT 10SM OVC020 03/M01 A2978 990 79 -200 260/08G17 RMK AO2
14837KMSN MSN20101114082011911/14/10 08:20:31  5-MIN KMSN 141420Z 25010G17KT 220V290 10SM OVC020 03/M01 A2978 990 75 -200 250/10G17 220V290 RMK AO2
14837KMSN MSN20101114082510311/14/10 08:25:31  5-MIN KMSN 141425Z 26010G17KT 10SM OVC020 03/M01 A2978 990 75 -200 260/10G17 RMK AO2
14837KMSN MSN20101114083010311/14/10 08:30:31  5-MIN KMSN 141430Z 26008G16KT 10SM OVC020 03/M01 A2978 990 75 -200 260/08G16 RMK AO2
14837KMSN MSN20101115014509711/15/10 01:45:31  5-MIN KMSN 150745Z 22008KT 10SM FEW013 01/M02 A2981 970 85 -500 210/08 RMK AO2
14837KMSN MSN20101115015011311/15/10 01:50:31  5-MIN KMSN 150750Z 22005KT 8SM FEW013 01/M02 A2981 970 85 -500 220/05 RMK AO2 SLP101 T00061017
14837KMSN MSN20101115015509311/15/10 01:55:31  5-MIN KMSN 150755Z 21005KT 9SM CLR 01/M02 A2981 970 85 -500 210/05 RMK AO2
14837KMSN MSN20101115020009311/15/10 02:00:31  5-MIN KMSN 150800Z 22006KT 9SM CLR 01/M02 A2981 970 82 -500 220/06 RMK AO2
14837KMSN MSN20101115020509311/15/10 02:05:31  5-MIN KMSN 150805Z 22005KT 9SM CLR 01/M02 A2981 970 82 -500 220/05 RMK AO2
14837KMSN MSN20101115021009311/15/10 02:10:31  5-MIN KMSN 150810Z 23005KT 9SM CLR 01/M02 A2981 970 82 -500 230/05 RMK AO2
14837KMSN MSN20101115021509311/15/10 02:15:31  5-MIN KMSN 150815Z 23005KT 9SM CLR 01/M02 A2981 970 82 -500 230/05 RMK AO2
14837KMSN MSN20101115022009311/15/10 02:20:31  5-MIN KMSN 150820Z 23006KT 8SM CLR 01/M02 A2981 970 82 -500 220/06 RMK AO2
14837KMSN MSN20101115022509311/15/10 02:25:31  5-MIN KMSN 150825Z 23005KT 8SM CLR 01/M02 A2981 970 85 -500 230/05 RMK AO2
14837KMSN MSN20101115023009311/15/10 02:30:31  5-MIN KMSN 150830Z 22005KT 8SM CLR 01/M02 A2981 970 85 -500 220/05 RMK AO2
14837KMSN MSN20101115023509311/15/10 02:35:31  5-MIN KMSN 150835Z 23005KT 8SM CLR 01/M02 A2981 970 85 -500 230/05 RMK AO2
14837KMSN MSN20101115024009311/15/10 02:40:31  5-MIN KMSN 150840Z VRB04KT 8SM CLR 01/M02 A2980 970 85 -500 VRB/04 RMK AO2
14837KMSN MSN20101115024509311/15/10 02:45:31  5-MIN KMSN 150845Z 21004KT 8SM CLR 01/M02 A2981 970 85 -500 210/04 RMK AO2
14837KMSN MSN20101115025011611/15/10 02:50:31  5-MIN KMSN 150850Z 22004KT 8SM CLR 01/M02 A2980 970 82 -500 220/04 RMK AO2 SLP100 T00061022 50005
14837KMSN MSN20101115025509311/15/10 02:55:31  5-MIN KMSN 150855Z 21005KT 8SM CLR 01/M02 A2980 980 82 -500 200/05 RMK AO2
14837KMSN MSN20101115030009311/15/10 03:00:31  5-MIN KMSN 150900Z 22006KT 9SM CLR 01/M02 A2980 980 82 -500 220/06 RMK AO2
14837KMSN MSN20101115030509311/15/10 03:05:31  5-MIN KMSN 150905Z 22006KT 9SM CLR 01/M02 A2980 980 82 -500 220/06 RMK AO2
14837KMSN MSN20101115031009311/15/10 03:10:31  5-MIN KMSN 150910Z 23003KT 9SM CLR 01/M02 A2980 980 82 -500 230/03 RMK AO2
14837KMSN MSN20101115031509311/15/10 03:15:31  5-MIN KMSN 150915Z 22003KT 9SM CLR 01/M02 A2980 980 82 -500 220/03 RMK AO2
14837KMSN MSN20101115032009311/15/10 03:20:31  5-MIN KMSN 150920Z 00000KT 8SM CLR 01/M02 A2980 980 82 -500 000/00 RMK AO2
14837KMSN MSN20101115032509311/15/10 03:25:31  5-MIN KMSN 150925Z 19004KT 8SM CLR 01/M02 A2980 980 82 -500 190/04 RMK AO2
14837KMSN MSN20101115033009311/15/10 03:30:31  5-MIN KMSN 150930Z 19004KT 8SM CLR 00/M02 A2980 980 85 -500 190/04 RMK AO2
14837KMSN MSN20101115033509311/15/10 03:35:31  5-MIN KMSN 150935Z 19005KT 7SM CLR 00/M03 A2980 980 81 -500 190/05 RMK AO2
14837KMSN MSN20101115034009611/15/10 03:40:31  5-MIN KMSN 150940Z 19005KT 6SM HZ CLR 00/M03 A2980 980 81 -500 190/05 RMK AO2
14837KMSN MSN20101115034509311/15/10 03:45:31  5-MIN KMSN 150945Z 19006KT 8SM CLR 00/M03 A2980 980 81 -500 190/06 RMK AO2
14837KMSN MSN20101115035011011/15/10 03:50:31  5-MIN KMSN 150950Z 19006KT 8SM CLR 00/M03 A2980 980 81 -500 190/06 RMK AO2 SLP099 T00001028
14837KMSN MSN20101115035509311/15/10 03:55:31  5-MIN KMSN 150955Z 19006KT 7SM CLR 00/M02 A2980 980 85 -500 190/06 RMK AO2
14837KMSN MSN20101115040009311/15/10 04:00:31  5-MIN KMSN 151000Z 19006KT 7SM CLR 00/M02 A2980 970 85 -500 190/06 RMK AO2
14837KMSN MSN20101115040509311/15/10 04:05:31  5-MIN KMSN 151005Z 19006KT 7SM CLR 00/M02 A2980 970 85 -500 190/06 RMK AO2
14837KMSN MSN20101115041009311/15/10 04:10:31  5-MIN KMSN 151010Z 19005KT 7SM CLR 00/M02 A2980 970 85 -500 190/05 RMK AO2
14837KMSN MSN20101115041509311/15/10 04:15:31  5-MIN KMSN 151015Z 19006KT 7SM CLR 00/M02 A2980 970 85 -500 190/06 RMK AO2
14837KMSN MSN20101115042009311/15/10 04:20:31  5-MIN KMSN 151020Z 19007KT 7SM CLR 00/M02 A2980 970 85 -500 190/07 RMK AO2
14837KMSN MSN20101115042509311/15/10 04:25:31  5-MIN KMSN 151025Z 19006KT 7SM CLR 00/M02 A2980 970 85 -500 190/06 RMK AO2
14837KMSN MSN20101115043009311/15/10 04:30:31  5-MIN KMSN 151030Z 19006KT 7SM CLR 00/M02 A2980 970 85 -500 190/06 RMK AO2
14837KMSN MSN20101115043509311/15/10 04:35:31  5-MIN KMSN 151035Z 19005KT 7SM CLR 00/M02 A2980 970 85 -500 190/05 RMK AO2
14837KMSN MSN20101115044009711/15/10 04:40:31  5-MIN KMSN 151040Z 18004KT 6SM BR CLR M01/M02 A2981 970 88 -600 180/04 RMK AO2
14837KMSN MSN20101115044509411/15/10 04:45:31  5-MIN KMSN 151045Z 18004KT 8SM CLR M01/M02 A2981 970 88 -600 180/04 RMK AO2
14837KMSN MSN20101115045011111/15/10 04:50:31  5-MIN KMSN 151050Z 18005KT 8SM CLR M01/M02 A2981 970 88 -600 180/05 RMK AO2 SLP102 T10061022
14837KMSN MSN20101115045509711/15/10 04:55:31  5-MIN KMSN 151055Z 19006KT 6SM BR CLR M01/M02 A2981 970 88 -600 180/06 RMK AO2
14837KMSN MSN20101115050009711/15/10 05:00:31  5-MIN KMSN 151100Z 19007KT 6SM BR CLR M01/M02 A2981 970 88 -600 190/07 RMK AO2
14837KMSN MSN20101115050509711/15/10 05:05:31  5-MIN KMSN 151105Z 18005KT 7SM FEW050 M01/M02 A2981 970 88 -600 180/05 RMK AO2
14837KMSN MSN20101115051009711/15/10 05:10:31  5-MIN KMSN 151110Z 19005KT 7SM FEW050 M01/M02 A2981 970 88 -600 180/05 RMK AO2
14837KMSN MSN20101115051509411/15/10 05:15:31  5-MIN KMSN 151115Z 19004KT 7SM CLR M01/M02 A2981 970 88 -600 190/04 RMK AO2
14837KMSN MSN20101115052009411/15/10 05:20:31  5-MIN KMSN 151120Z 17004KT 7SM CLR M01/M02 A2981 970 92 -700 170/04 RMK AO2
14837KMSN MSN20101115052509411/15/10 05:25:31  5-MIN KMSN 151125Z 17004KT 8SM CLR M01/M03 A2981 970 88 -700 160/04 RMK AO2
14837KMSN MSN20101115053009411/15/10 05:30:31  5-MIN KMSN 151130Z 00000KT 8SM CLR M01/M03 A2981 970 88 -700 000/00 RMK AO2
14837KMSN MSN20101115053509411/15/10 05:35:31  5-MIN KMSN 151135Z 19004KT 8SM CLR M01/M02 A2981 970 88 -600 190/04 RMK AO2
14837KMSN MSN20101115054009411/15/10 05:40:31  5-MIN KMSN 151140Z 00000KT 8SM CLR M01/M02 A2980 970 88 -600 000/00 RMK AO2
14837KMSN MSN20101115054509611/15/10 05:45:31  5-MIN KMSN 151145Z 00000KT 8SM FEW050 00/M02 A2980 970 85 -500 000/00 RMK AO2
14837KMSN MSN20101115055013811/15/10 05:50:31  5-MIN KMSN 151150Z 19004KT 8SM SCT050 M01/M02 A2980 970 88 -600 180/04 RMK AO2 SLP100 70001 T10061022 10011 21011 56002
14837KMSN MSN20101115055509611/15/10 05:55:31  5-MIN KMSN 151155Z 18004KT 8SM SCT050 00/M02 A2980 970 85 -500 180/04 RMK AO2
14837KMSN MSN20101115060009611/15/10 06:00:31  5-MIN KMSN 151200Z 18003KT 8SM SCT050 00/M02 A2980 980 85 -500 170/03 RMK AO2
14837KMSN MSN20101115060509611/15/10 06:05:31  5-MIN KMSN 151205Z 19004KT 8SM FEW050 00/M02 A2980 980 85 -500 190/04 RMK AO2
14837KMSN MSN20101115061009711/15/10 06:10:31  5-MIN KMSN 151210Z 15004KT 7SM FEW050 M01/M02 A2980 980 88 -600 150/04 RMK AO2
14837KMSN MSN20101115061509711/15/10 06:15:31  5-MIN KMSN 151215Z 15003KT 7SM FEW050 M01/M03 A2980 980 88 -700 150/03 RMK AO2
14837KMSN MSN20101115062009711/15/10 06:20:31  5-MIN KMSN 151220Z 18003KT 7SM FEW050 M01/M03 A2980 980 88 -700 180/03 RMK AO2
14837KMSN MSN20101115062509411/15/10 06:25:31  5-MIN KMSN 151225Z 14004KT 7SM CLR M01/M03 A2980 980 88 -700 140/04 RMK AO2
14837KMSN MSN20101115063009411/15/10 06:30:31  5-MIN KMSN 151230Z 00000KT 7SM CLR M01/M03 A2980 980 88 -700 000/00 RMK AO2
14837KMSN MSN20101115063509411/15/10 06:35:31  5-MIN KMSN 151235Z 00000KT 7SM CLR M01/M03 A2980 980 88 -700 000/00 RMK AO2
14837KMSN MSN20101115064009411/15/10 06:40:31  5-MIN KMSN 151240Z 14003KT 7SM CLR M01/M03 A2980 970 88 -700 140/03 RMK AO2
14837KMSN MSN20101115064509411/15/10 06:45:31  5-MIN KMSN 151245Z 13005KT 7SM CLR M01/M03 A2980 970 88 -700 130/05 RMK AO2
14837KMSN MSN20101115065011111/15/10 06:50:31  5-MIN KMSN 151250Z 13005KT 7SM CLR M02/M03 A2980 970 88 -700 130/05 RMK AO2 SLP101 T10171033
14837KMSN MSN20101115065509711/15/10 06:55:31  5-MIN KMSN 151255Z 14005KT 6SM BR CLR M01/M03 A2980 970 85 -700 140/05 RMK AO2
14837KMSN MSN20101115070009411/15/10 07:00:31  5-MIN KMSN 151300Z 14005KT 9SM CLR M01/M03 A2980 970 85 -700 140/05 RMK AO2
14837KMSN MSN20101115070509411/15/10 07:05:31  5-MIN KMSN 151305Z 14005KT 9SM CLR M02/M03 A2980 970 88 -700 140/05 RMK AO2
14837KMSN MSN20101115071009411/15/10 07:10:31  5-MIN KMSN 151310Z 15005KT 9SM CLR M01/M03 A2980 970 88 -700 150/05 RMK AO2
14837KMSN MSN20101115071509411/15/10 07:15:31  5-MIN KMSN 151315Z 15006KT 9SM CLR M01/M03 A2980 970 88 -700 150/06 RMK AO2
14837KMSN MSN20101115072009411/15/10 07:20:31  5-MIN KMSN 151320Z 15006KT 9SM CLR M01/M02 A2980 970 88 -600 150/06 RMK AO2
14837KMSN MSN20101115072509711/15/10 07:25:31  5-MIN KMSN 151325Z 15006KT 6SM BR CLR M01/M02 A2980 970 88 -600 150/06 RMK AO2
14837KMSN MSN20101115073009711/15/10 07:30:31  5-MIN KMSN 151330Z 15006KT 5SM BR CLR M01/M02 A2981 970 88 -600 150/06 RMK AO2
14837KMSN MSN20101115073509711/15/10 07:35:31  5-MIN KMSN 151335Z 16006KT 5SM BR CLR M01/M02 A2981 970 88 -600 150/06 RMK AO2
14837KMSN MSN20101115074009611/15/10 07:40:31  5-MIN KMSN 151340Z 16005KT 5SM BR CLR 00/M02 A2981 970 85 -500 160/05 RMK AO2
14837KMSN MSN20101115074509611/15/10 07:45:31  5-MIN KMSN 151345Z 16004KT 5SM BR CLR 00/M02 A2981 970 88 -500 160/04 RMK AO2
14837KMSN MSN20101115075011311/15/10 07:50:31  5-MIN KMSN 151350Z 17006KT 5SM BR CLR 00/M02 A2981 970 88 -500 170/06 RMK AO2 SLP102 T00001017
14837KMSN MSN20101115075509611/15/10 07:55:31  5-MIN KMSN 151355Z 17006KT 5SM BR CLR 01/M02 A2981 970 85 -500 170/06 RMK AO2
14837KMSN MSN20101115080009611/15/10 08:00:31  5-MIN KMSN 151400Z 18007KT 5SM BR CLR 01/M01 A2981 970 85 -400 180/07 RMK AO2
14837KMSN MSN20101115080509611/15/10 08:05:31  5-MIN KMSN 151405Z 17007KT 6SM BR CLR 01/M01 A2981 970 85 -400 170/07 RMK AO2
14837KMSN MSN20101115081009611/15/10 08:10:31  5-MIN KMSN 151410Z 18008KT 6SM HZ CLR 02/M01 A2981 970 82 -300 180/08 RMK AO2
14837KMSN MSN20101115081509611/15/10 08:15:31  5-MIN KMSN 151415Z 17008KT 6SM HZ CLR 02/M01 A2981 970 82 -300 170/08 RMK AO2
14837KMSN MSN20101115082009611/15/10 08:20:31  5-MIN KMSN 151420Z 18008KT 6SM HZ CLR 02/M01 A2981 970 82 -300 180/08 RMK AO2
14837KMSN MSN20101115082509611/15/10 08:25:31  5-MIN KMSN 151425Z 18009KT 6SM BR CLR 02/M01 A2981 960 85 -300 180/09 RMK AO2
14837KMSN MSN20101115083009611/15/10 08:30:31  5-MIN KMSN 151430Z 18009KT 6SM BR CLR 02/M01 A2981 960 85 -300 180/09 RMK AO2
14837KMSN MSN20101115083509611/15/10 08:35:31  5-MIN KMSN 151435Z 18009KT 6SM HZ CLR 02/M01 A2981 960 82 -300 180/09 RMK AO2
14837KMSN MSN20101115084009611/15/10 08:40:31  5-MIN KMSN 151440Z 18009KT 6SM HZ CLR 02/M01 A2982 960 82 -300 180/09 RMK AO2
14837KMSN MSN20101115084509311/15/10 08:45:31  5-MIN KMSN 151445Z 18010KT 7SM CLR 02/M01 A2982 960 82 -300 180/10 RMK AO2
14837KMSN MSN20101115085011911/15/10 08:50:31  5-MIN KMSN 151450Z 18010KT 7SM SCT060 02/M01 A2982 960 82 -300 180/10 RMK AO2 SLP105 T00221006 50001
14837KMSN MSN20101115085509611/15/10 08:55:31  5-MIN KMSN 151455Z 18009KT 7SM FEW060 02/M01 A2982 960 82 -300 180/09 RMK AO2
14837KMSN MSN20101115090009611/15/10 09:00:31  5-MIN KMSN 151500Z 18010KT 7SM FEW060 02/M01 A2982 960 82 -300 180/10 RMK AO2
14837KMSN MSN20101115090509611/15/10 09:05:31  5-MIN KMSN 151505Z 19008KT 7SM SCT060 02/M01 A2982 960 82 -300 190/08 RMK AO2
14837KMSN MSN20101115091009611/15/10 09:10:31  5-MIN KMSN 151510Z 19008KT 7SM BKN060 03/M01 A2982 960 79 -200 180/08 RMK AO2
14837KMSN MSN20101115091509511/15/10 09:15:31  5-MIN KMSN 151515Z 18008KT 7SM BKN060 03/00 A2982 960 82 -200 180/08 RMK AO2
14837KMSN MSN20101115092009511/15/10 09:20:31  5-MIN KMSN 151520Z 18009KT 7SM BKN060 03/00 A2982 960 82 -200 180/09 RMK AO2
14837KMSN MSN20101115092509511/15/10 09:25:31  5-MIN KMSN 151525Z 19007KT 7SM OVC060 03/00 A2982 960 79 -100 190/07 RMK AO2
14837KMSN MSN20101115093009511/15/10 09:30:31  5-MIN KMSN 151530Z 18010KT 7SM BKN060 04/01 A2982 960 79 -100 180/10 RMK AO2
14837KMSN MSN20101115093509511/15/10 09:35:31  5-MIN KMSN 151535Z 18010KT 8SM BKN060 04/01 A2982 960 79 -100 180/10 RMK AO2
14837KMSN MSN20101115094009511/15/10 09:40:31  5-MIN KMSN 151540Z 17009KT 8SM BKN060 04/01 A2982 960 79 -100 170/09 RMK AO2
14837KMSN MSN20101115094509211/15/10 09:45:31  5-MIN KMSN 151545Z 17010KT 8SM BKN060 04/01 A2982 960 76 0 170/10 RMK AO2
14837KMSN MSN20101115095011211/15/10 09:50:31  5-MIN KMSN 151550Z 18011KT 8SM BKN060 04/01 A2982 960 79 -100 180/11 RMK AO2 SLP104 T00390006
14837KMSN MSN20101115095509511/15/10 09:55:31  5-MIN KMSN 151555Z 19009KT 8SM BKN065 04/00 A2982 960 76 -100 190/09 RMK AO2
14837KMSN MSN20101115100009211/15/10 10:00:31  5-MIN KMSN 151600Z 18009KT 9SM BKN065 04/00 A2982 960 73 0 180/09 RMK AO2
14837KMSN MSN20101115100509211/15/10 10:05:31  5-MIN KMSN 151605Z 19007KT 9SM BKN065 04/00 A2982 960 73 0 190/07 RMK AO2
14837KMSN MSN20101115101009211/15/10 10:10:31  5-MIN KMSN 151610Z 18008KT 9SM BKN065 04/00 A2982 960 73 0 180/08 RMK AO2
14837KMSN MSN20101115101509211/15/10 10:15:31  5-MIN KMSN 151615Z 18007KT 9SM BKN065 04/01 A2982 960 76 0 180/07 RMK AO2
14837KMSN MSN20101115102009211/15/10 10:20:31  5-MIN KMSN 151620Z 18008KT 9SM BKN065 04/01 A2982 960 76 0 180/08 RMK AO2
14837KMSN MSN20101115102509211/15/10 10:25:31  5-MIN KMSN 151625Z 19007KT 9SM BKN065 04/01 A2982 960 76 0 190/07 RMK AO2
14837KMSN MSN20101115103009211/15/10 10:30:31  5-MIN KMSN 151630Z 20008KT 9SM BKN065 05/01 A2982 960 73 0 190/08 RMK AO2
14837KMSN MSN20101115103509211/15/10 10:35:31  5-MIN KMSN 151635Z 19006KT 9SM BKN070 05/01 A2982 960 73 0 190/06 RMK AO2
14837KMSN MSN20101115104009211/15/10 10:40:31  5-MIN KMSN 151640Z 18009KT 9SM BKN070 05/01 A2982 960 76 0 180/09 RMK AO2
14837KMSN MSN20101115104509211/15/10 10:45:31  5-MIN KMSN 151645Z 19007KT 9SM BKN070 05/01 A2982 960 76 0 190/07 RMK AO2
14837KMSN MSN20101115105011111/15/10 10:50:31  5-MIN KMSN 151650Z 19006KT 9SM BKN070 06/01 A2982 960 73 100 180/06 RMK AO2 SLP104 T00560011
14837KMSN MSN20101115105509411/15/10 10:55:31  5-MIN KMSN 151655Z 18008KT 9SM BKN070 06/01 A2981 960 73 100 180/08 RMK AO2
14837KMSN MSN20101115110009411/15/10 11:00:31  5-MIN KMSN 151700Z 18007KT 9SM BKN070 06/01 A2981 960 73 100 180/07 RMK AO2
14837KMSN MSN20101115110509411/15/10 11:05:31  5-MIN KMSN 151705Z 18009KT 9SM BKN070 06/02 A2981 960 76 100 180/09 RMK AO2
14837KMSN MSN20101115111009411/15/10 11:10:31  5-MIN KMSN 151710Z 18007KT 9SM BKN070 06/02 A2981 970 73 200 180/07 RMK AO2
14837KMSN MSN20101115111509411/15/10 11:15:31  5-MIN KMSN 151715Z 17009KT 9SM BKN070 07/02 A2981 970 70 200 170/09 RMK AO2
14837KMSN MSN20101115112009511/15/10 11:20:31  5-MIN KMSN 151720Z 18008KT 10SM BKN070 07/02 A2981 970 70 200 180/08 RMK AO2
14837KMSN MSN20101115112509511/15/10 11:25:31  5-MIN KMSN 151725Z 19009KT 10SM BKN070 07/02 A2980 970 70 200 190/09 RMK AO2
14837KMSN MSN20101115113009511/15/10 11:30:31  5-MIN KMSN 151730Z 17009KT 10SM BKN070 07/02 A2980 970 68 300 170/09 RMK AO2
14837KMSN MSN20101115113509511/15/10 11:35:31  5-MIN KMSN 151735Z 18009KT 10SM BKN070 07/02 A2980 980 68 300 170/09 RMK AO2
14837KMSN MSN20101115114009511/15/10 11:40:31  5-MIN KMSN 151740Z 18008KT 10SM BKN070 07/02 A2980 980 68 300 180/08 RMK AO2
14837KMSN MSN20101115114509511/15/10 11:45:31  5-MIN KMSN 151745Z 20008KT 10SM BKN070 07/02 A2980 980 68 300 200/08 RMK AO2
14837KMSN MSN20101115115013011/15/10 11:50:31  5-MIN KMSN 151750Z 20008KT 10SM BKN075 07/01 A2979 980 65 300 200/08 RMK AO2 SLP095 T00720011 10072 21017 53005
14837KMSN MSN20101115115509511/15/10 11:55:31  5-MIN KMSN 151755Z 20008KT 10SM BKN075 08/01 A2979 980 62 400 200/08 RMK AO2
14837KMSN MSN20101115120009511/15/10 12:00:31  5-MIN KMSN 151800Z 21009KT 10SM BKN075 08/01 A2979 990 62 400 210/09 RMK AO2
14837KMSN MSN20101115120509511/15/10 12:05:31  5-MIN KMSN 151805Z 21009KT 10SM BKN075 08/01 A2979 990 60 500 210/09 RMK AO2
14837KMSN MSN20101115121010111/15/10 12:10:31  5-MIN KMSN 151810Z 20011G16KT 10SM BKN075 08/02 A2979 990 63 500 200/11G16 RMK AO2
14837KMSN MSN20101115121510111/15/10 12:15:31  5-MIN KMSN 151815Z 20010G16KT 10SM BKN075 08/02 A2979 990 63 500 200/10G16 RMK AO2
14837KMSN MSN20101115122010111/15/10 12:20:31  5-MIN KMSN 151820Z 19010G17KT 10SM BKN075 08/02 A2979 990 63 500 190/10G17 RMK AO2
14837KMSN MSN20101115122510111/15/10 12:25:31  5-MIN KMSN 151825Z 20011G17KT 10SM BKN075 09/02 A2978 990 60 500 200/11G17 RMK AO2
14837KMSN MSN20101115123010111/15/10 12:30:31  5-MIN KMSN 151830Z 20013G17KT 10SM SCT070 09/02 A2978 990 60 500 200/13G17 RMK AO2
14837KMSN MSN20101115123510111/15/10 12:35:31  5-MIN KMSN 151835Z 19011G17KT 10SM SCT070 09/02 A2978 990 60 500 180/11G17 RMK AO2
14837KMSN MSN20101115124009511/15/10 12:40:31  5-MIN KMSN 151840Z 19012KT 10SM SCT070 09/02 A2978 990 63 500 190/12 RMK AO2
14837KMSN MSN20101115124510111/15/10 12:45:31  5-MIN KMSN 151845Z 19009G18KT 10SM SCT070 09/02 A2978 990 63 500 190/09G18 RMK AO2
14837KMSN MSN20101115125011811/15/10 12:50:31  5-MIN KMSN 151850Z 19014G19KT 10SM SCT070 09/02 A2978 990 60 600 190/14G19 RMK AO2 SLP089 T00940022
14837KMSN MSN20101115125510811/15/10 12:55:31  5-MIN KMSN 151855Z 19013G19KT 10SM FEW028 SCT075 09/02 A2978 990 60 600 190/13G19 RMK AO2
14837KMSN MSN20101115130010811/15/10 13:00:31  5-MIN KMSN 151900Z 20009G18KT 10SM FEW028 SCT075 09/02 A2978 990 60 600 200/09G18 RMK AO2
14837KMSN MSN20101115130510911/15/10 13:05:31  5-MIN KMSN 151905Z 19014G19KT 10SM FEW028 SCT075 10/02 A2978 1000 58 700 190/14G19 RMK AO2
14837KMSN MSN20101115131010911/15/10 13:10:31  5-MIN KMSN 151910Z 19010G19KT 10SM FEW028 SCT075 09/02 A2978 1000 60 600 190/10G19 RMK AO2
14837KMSN MSN20101115131510911/15/10 13:15:31  5-MIN KMSN 151915Z 20010G16KT 10SM FEW028 SCT075 09/02 A2978 1000 60 600 190/10G16 RMK AO2
14837KMSN MSN20101115132010311/15/10 13:20:31  5-MIN KMSN 151920Z 18009KT 10SM FEW028 SCT075 10/02 A2977 1000 58 700 180/09 RMK AO2
14837KMSN MSN20101115132510311/15/10 13:25:31  5-MIN KMSN 151925Z 20009KT 10SM FEW028 SCT075 10/03 A2977 1000 60 700 200/09 RMK AO2
14837KMSN MSN20101115133010911/15/10 13:30:31  5-MIN KMSN 151930Z 20011G17KT 10SM FEW028 SCT075 10/02 A2977 1000 56 700 200/11G17 RMK AO2
14837KMSN MSN20101115133510911/15/10 13:35:31  5-MIN KMSN 151935Z 20011G17KT 10SM FEW028 SCT075 10/02 A2977 1000 56 700 200/11G17 RMK AO2
14837KMSN MSN20101115134010911/15/10 13:40:31  5-MIN KMSN 151940Z 20011G17KT 10SM FEW028 SCT075 10/02 A2977 1000 56 700 190/11G17 RMK AO2
14837KMSN MSN20101115134510911/15/10 13:45:31  5-MIN KMSN 151945Z 19012G17KT 10SM FEW028 SCT075 10/02 A2977 1000 56 700 190/12G17 RMK AO2
14837KMSN MSN20101115135011911/15/10 13:50:31  5-MIN KMSN 151950Z 20011G18KT 10SM FEW032 10/01 A2977 1000 54 700 200/11G18 RMK AO2 SLP086 T01000011
14837KMSN MSN20101115135510211/15/10 13:55:31  5-MIN KMSN 151955Z 20009G18KT 10SM FEW032 10/01 A2977 1000 54 700 200/09G18 RMK AO2
14837KMSN MSN20101115140009611/15/10 14:00:31  5-MIN KMSN 152000Z 21008KT 10SM FEW032 10/02 A2977 1000 56 700 210/08 RMK AO2
14837KMSN MSN20101115140509611/15/10 14:05:31  5-MIN KMSN 152005Z 21007KT 10SM FEW032 11/02 A2977 1000 54 800 210/07 RMK AO2
14837KMSN MSN20101115141010211/15/10 14:10:31  5-MIN KMSN 152010Z 21009G15KT 10SM FEW032 11/02 A2977 1010 54 800 210/09G15 RMK AO2
14837KMSN MSN20101115141510211/15/10 14:15:31  5-MIN KMSN 152015Z 20010G15KT 10SM SCT032 10/01 A2977 1010 54 700 200/10G15 RMK AO2
14837KMSN MSN20101115142009611/15/10 14:20:31  5-MIN KMSN 152020Z 19010KT 10SM SCT032 11/02 A2977 1010 54 800 190/10 RMK AO2
14837KMSN MSN20101115142509611/15/10 14:25:31  5-MIN KMSN 152025Z 19011KT 10SM SCT032 11/02 A2977 1010 54 800 190/11 RMK AO2
14837KMSN MSN20101115143009611/15/10 14:30:31  5-MIN KMSN 152030Z 19009KT 10SM SCT032 11/02 A2977 1010 54 800 190/09 RMK AO2
14837KMSN MSN20101115143510211/15/10 14:35:31  5-MIN KMSN 152035Z 19008G15KT 10SM SCT032 10/02 A2977 1010 56 700 190/08G15 RMK AO2
14837KMSN MSN20101115144010211/15/10 14:40:31  5-MIN KMSN 152040Z 18011G15KT 10SM SCT032 10/02 A2977 1010 58 700 180/11G15 RMK AO2
14837KMSN MSN20101115144509611/15/10 14:45:31  5-MIN KMSN 152045Z 19009KT 10SM SCT032 10/02 A2977 1010 58 700 190/09 RMK AO2
14837KMSN MSN20101115145011911/15/10 14:50:31  5-MIN KMSN 152050Z 19011KT 10SM BKN038 10/02 A2977 1010 58 700 190/11 RMK AO2 SLP085 T01000022 58009
14837KMSN MSN20101115145510311/15/10 14:55:31  5-MIN KMSN 152055Z 19010KT 10SM BKN048 BKN060 10/02 A2977 1010 58 700 190/10 RMK AO2
14837KMSN MSN20101115150010311/15/10 15:00:31  5-MIN KMSN 152100Z 21008KT 10SM BKN048 BKN060 10/02 A2977 1010 58 700 210/08 RMK AO2
14837KMSN MSN20101115150510311/15/10 15:05:31  5-MIN KMSN 152105Z 20007KT 10SM BKN048 BKN060 10/02 A2977 1000 58 700 200/07 RMK AO2
14837KMSN MSN20101115151009611/15/10 15:10:31  5-MIN KMSN 152110Z 21008KT 10SM BKN045 10/02 A2977 1000 58 700 210/08 RMK AO2
14837KMSN MSN20101115151509611/15/10 15:15:31  5-MIN KMSN 152115Z VRB06KT 10SM BKN045 10/02 A2977 1000 58 700 VRB/06 RMK AO2
14837KMSN MSN20101115152012611/15/10 15:20:31  5-MIN KMSN 152120Z 20009KT 10SM -RA FEW034 BKN043 BKN065 10/03 A2977 1000 60 700 200/09 RMK AO2 RAB20 P0000
14837KMSN MSN20101115152512611/15/10 15:25:31  5-MIN KMSN 152125Z 21007KT 10SM -RA SCT034 BKN043 BKN075 10/03 A2977 1000 60 700 200/07 RMK AO2 RAB20 P0000
14837KMSN MSN20101115153012511/15/10 15:30:31  5-MIN KMSN 152130Z 20010KT 10SM SCT034 BKN041 BKN075 10/03 A2977 1000 60 700 200/10 RMK AO2 RAB20E26 P0000
14837KMSN MSN20101115153512511/15/10 15:35:31  5-MIN KMSN 152135Z 20009KT 10SM SCT034 SCT041 BKN055 10/03 A2977 1000 60 700 200/09 RMK AO2 RAB20E26 P0000
14837KMSN MSN20101115154011811/15/10 15:40:31  5-MIN KMSN 152140Z 21005KT 10SM SCT034 BKN045 10/03 A2978 1000 60 700 200/05 RMK AO2 RAB20E26 P0000
14837KMSN MSN20101115154511811/15/10 15:45:31  5-MIN KMSN 152145Z 21008KT 10SM SCT034 BKN045 10/03 A2978 1000 60 700 210/08 RMK AO2 RAB20E26 P0000
14837KMSN MSN20101115155013511/15/10 15:50:31  5-MIN KMSN 152150Z 20006KT 10SM SCT034 BKN045 09/03 A2978 1000 63 600 200/06 RMK AO2 RAB20E26 SLP090 P0000 T00940028
14837KMSN MSN20101115155511011/15/10 15:55:31  5-MIN KMSN 152155Z 20006KT 10SM FEW034 SCT060 OVC080 09/03 A2978 1000 63 600 200/06 RMK AO2
14837KMSN MSN20101115160010911/15/10 16:00:31  5-MIN KMSN 152200Z 19007KT 10SM SCT043 SCT060 OVC080 09/03 A2978 990 63 600 190/07 RMK AO2
14837KMSN MSN20101115160510211/15/10 16:05:31  5-MIN KMSN 152205Z 20005KT 10SM SCT043 OVC080 09/03 A2978 990 65 600 200/05 RMK AO2
14837KMSN MSN20101115161010211/15/10 16:10:31  5-MIN KMSN 152210Z 20004KT 10SM BKN043 BKN080 09/03 A2978 990 65 600 200/04 RMK AO2
14837KMSN MSN20101115161510911/15/10 16:15:31  5-MIN KMSN 152215Z 19005KT 10SM BKN043 BKN050 OVC080 09/03 A2978 990 65 600 190/05 RMK AO2
14837KMSN MSN20101115162012511/15/10 16:20:31  5-MIN KMSN 152220Z 20005KT 10SM -RA SCT043 BKN049 BKN080 09/03 A2978 990 65 600 200/05 RMK AO2 RAB16 P0000
14837KMSN MSN20101115162512411/15/10 16:25:31  5-MIN KMSN 152225Z 20005KT 10SM SCT043 BKN049 BKN080 09/03 A2978 990 65 600 200/05 RMK AO2 RAB16E23 P0000
14837KMSN MSN20101115163012411/15/10 16:30:31  5-MIN KMSN 152230Z 21005KT 10SM SCT043 BKN049 BKN080 09/03 A2978 990 65 600 210/05 RMK AO2 RAB16E23 P0000
14837KMSN MSN20101115163512411/15/10 16:35:31  5-MIN KMSN 152235Z 21005KT 10SM SCT043 BKN049 BKN080 09/03 A2978 990 65 600 210/05 RMK AO2 RAB16E23 P0000
14837KMSN MSN20101115164012411/15/10 16:40:31  5-MIN KMSN 152240Z 21005KT 10SM FEW043 SCT049 BKN080 09/03 A2979 990 63 600 210/05 RMK AO2 RAB16E23 P0000
14837KMSN MSN20101115164512411/15/10 16:45:31  5-MIN KMSN 152245Z VRB04KT 10SM FEW043 SCT049 BKN080 09/03 A2979 990 63 600 VRB/04 RMK AO2 RAB16E23 P0000
14837KMSN MSN20101115165014111/15/10 16:50:31  5-MIN KMSN 152250Z 23007KT 10SM FEW043 SCT049 BKN080 09/03 A2979 990 63 600 230/07 RMK AO2 RAB16E23 SLP093 P0000 T00940028
14837KMSN MSN20101115165510911/15/10 16:55:31  5-MIN KMSN 152255Z 21005KT 10SM FEW043 SCT049 BKN080 09/03 A2979 990 65 500 210/05 RMK AO2
14837KMSN MSN20101115170010911/15/10 17:00:31  5-MIN KMSN 152300Z 21003KT 10SM FEW043 SCT049 BKN080 09/03 A2979 990 65 500 210/03 RMK AO2
14837KMSN MSN20101115170510211/15/10 17:05:31  5-MIN KMSN 152305Z 21004KT 10SM FEW044 BKN080 09/03 A2979 980 65 500 210/04 RMK AO2
14837KMSN MSN20101115171010211/15/10 17:10:31  5-MIN KMSN 152310Z 20003KT 10SM FEW044 BKN080 09/03 A2979 990 65 500 200/03 RMK AO2
14837KMSN MSN20101115171509511/15/10 17:15:31  5-MIN KMSN 152315Z 20004KT 10SM FEW080 09/03 A2979 990 65 500 200/04 RMK AO2
14837KMSN MSN20101115172009511/15/10 17:20:31  5-MIN KMSN 152320Z 20004KT 10SM FEW080 09/03 A2979 980 65 500 200/04 RMK AO2
14837KMSN MSN20101115172509511/15/10 17:25:31  5-MIN KMSN 152325Z 00000KT 10SM FEW080 08/03 A2979 980 68 500 000/00 RMK AO2
14837KMSN MSN20101115173009511/15/10 17:30:31  5-MIN KMSN 152330Z 00000KT 10SM FEW080 08/03 A2979 980 68 500 000/00 RMK AO2
14837KMSN MSN20101115173509511/15/10 17:35:31  5-MIN KMSN 152335Z 00000KT 10SM FEW080 08/03 A2979 980 68 500 000/00 RMK AO2
14837KMSN MSN20101115174009511/15/10 17:40:31  5-MIN KMSN 152340Z 00000KT 10SM FEW080 08/03 A2979 980 68 500 000/00 RMK AO2
14837KMSN MSN20101115174509511/15/10 17:45:31  5-MIN KMSN 152345Z 00000KT 10SM FEW080 08/03 A2979 980 68 500 000/00 RMK AO2
14837KMSN MSN20101115175014311/15/10 17:50:31  5-MIN KMSN 152350Z 00000KT 10SM FEW039 BKN080 08/03 A2979 980 70 400 000/00 RMK AO2 SLP096 60000 T00780028 10106 20078 56008
14837KMSN MSN20101115175510211/15/10 17:55:31  5-MIN KMSN 152355Z 00000KT 10SM FEW038 BKN080 08/03 A2979 980 70 400 000/00 RMK AO2
14837KMSN MSN20101115180010211/15/10 18:00:31  5-MIN KMSN 160000Z 18003KT 10SM FEW040 BKN080 06/03 A2980 980 79 200 170/03 RMK AO2
14837KMSN MSN20101115180510911/15/10 18:05:31  5-MIN KMSN 160005Z 19003KT 10SM SCT040 SCT050 OVC080 07/03 A2980 980 76 300 190/03 RMK AO2
14837KMSN MSN20101115181010911/15/10 18:10:31  5-MIN KMSN 160010Z 19003KT 10SM BKN040 BKN048 OVC080 08/03 A2980 980 73 400 190/03 RMK AO2
14837KMSN MSN20101115181510211/15/10 18:15:31  5-MIN KMSN 160015Z 19003KT 10SM BKN042 BKN080 08/03 A2980 980 73 400 190/03 RMK AO2
14837KMSN MSN20101115182010911/15/10 18:20:31  5-MIN KMSN 160020Z 19003KT 10SM SCT041 BKN047 BKN080 08/03 A2980 980 73 400 180/03 RMK AO2
14837KMSN MSN20101115182510211/15/10 18:25:31  5-MIN KMSN 160025Z 17005KT 10SM SCT041 BKN049 07/03 A2980 980 73 300 160/05 RMK AO2
14837KMSN MSN20101115183010211/15/10 18:30:31  5-MIN KMSN 160030Z 18005KT 10SM BKN041 BKN049 07/03 A2980 980 76 300 180/05 RMK AO2
14837KMSN MSN20101115183510211/15/10 18:35:31  5-MIN KMSN 160035Z 18005KT 10SM BKN041 BKN049 07/03 A2980 980 76 300 180/05 RMK AO2
14837KMSN MSN20101115184010211/15/10 18:40:31  5-MIN KMSN 160040Z 18005KT 10SM FEW041 SCT049 07/03 A2980 980 76 300 180/05 RMK AO2
14837KMSN MSN20101115184509511/15/10 18:45:31  5-MIN KMSN 160045Z 18006KT 10SM FEW039 07/03 A2980 980 76 300 180/06 RMK AO2
14837KMSN MSN20101115185011211/15/10 18:50:31  5-MIN KMSN 160050Z 19006KT 10SM FEW039 07/03 A2980 970 76 300 180/06 RMK AO2 SLP099 T00720033
14837KMSN MSN20101115185509511/15/10 18:55:31  5-MIN KMSN 160055Z 18006KT 10SM FEW039 07/03 A2980 970 76 300 180/06 RMK AO2
14837KMSN MSN20101115190009211/15/10 19:00:31  5-MIN KMSN 160100Z 18006KT 10SM CLR 07/03 A2980 980 76 300 180/06 RMK AO2
14837KMSN MSN20101115190509211/15/10 19:05:31  5-MIN KMSN 160105Z 19007KT 10SM CLR 07/03 A2980 980 76 300 190/07 RMK AO2
14837KMSN MSN20101115191009211/15/10 19:10:31  5-MIN KMSN 160110Z 19005KT 10SM CLR 07/03 A2980 970 79 200 190/05 RMK AO2
14837KMSN MSN20101115191509211/15/10 19:15:31  5-MIN KMSN 160115Z 19005KT 10SM CLR 07/03 A2980 970 79 200 190/05 RMK AO2
14837KMSN MSN20101115192009211/15/10 19:20:31  5-MIN KMSN 160120Z 19005KT 10SM CLR 07/03 A2980 970 79 200 180/05 RMK AO2
14837KMSN MSN20101115192509211/15/10 19:25:31  5-MIN KMSN 160125Z 19005KT 10SM CLR 07/03 A2980 970 79 200 180/05 RMK AO2
14837KMSN MSN20101115193009211/15/10 19:30:31  5-MIN KMSN 160130Z 18005KT 10SM CLR 06/03 A2980 970 82 200 180/05 RMK AO2
14837KMSN MSN20101115193509211/15/10 19:35:31  5-MIN KMSN 160135Z 18004KT 10SM CLR 06/03 A2980 970 79 200 180/04 RMK AO2
14837KMSN MSN20101115194009211/15/10 19:40:31  5-MIN KMSN 160140Z 18005KT 10SM CLR 06/03 A2981 970 79 200 180/05 RMK AO2
14837KMSN MSN20101115194509111/15/10 19:45:31  5-MIN KMSN 160145Z 18005KT 9SM CLR 06/03 A2980 970 82 100 180/05 RMK AO2
14837KMSN MSN20101115195010911/15/10 19:50:31  5-MIN KMSN 160150Z 18004KT 10SM CLR 06/03 A2980 970 82 100 180/04 RMK AO2 SLP099 T00560028
14837KMSN MSN20101115195509111/15/10 19:55:31  5-MIN KMSN 160155Z 18004KT 9SM CLR 06/03 A2980 970 82 100 180/04 RMK AO2
14837KMSN MSN20101115200009111/15/10 20:00:31  5-MIN KMSN 160200Z 19006KT 9SM CLR 06/03 A2980 970 82 100 180/06 RMK AO2
14837KMSN MSN20101115200509111/15/10 20:05:31  5-MIN KMSN 160205Z 18004KT 9SM CLR 06/03 A2980 970 82 100 180/04 RMK AO2
14837KMSN MSN20101115201008911/15/10 20:10:31  5-MIN KMSN 160210Z 18005KT 9SM CLR 05/03 A2981 970 85 0 170/05 RMK AO2
14837KMSN MSN20101115201508911/15/10 20:15:31  5-MIN KMSN 160215Z 18003KT 9SM CLR 05/03 A2981 970 85 0 180/03 RMK AO2
14837KMSN MSN20101115202008911/15/10 20:20:31  5-MIN KMSN 160220Z 18004KT 9SM CLR 05/03 A2981 970 85 0 180/04 RMK AO2
14837KMSN MSN20101115202508911/15/10 20:25:31  5-MIN KMSN 160225Z 17004KT 9SM CLR 05/03 A2981 970 85 0 170/04 RMK AO2
14837KMSN MSN20101115203008911/15/10 20:30:31  5-MIN KMSN 160230Z 17005KT 9SM CLR 05/03 A2981 970 85 0 170/05 RMK AO2
14837KMSN MSN20101115203508911/15/10 20:35:31  5-MIN KMSN 160235Z 18004KT 9SM CLR 04/03 A2981 970 89 0 180/04 RMK AO2
14837KMSN MSN20101115204008911/15/10 20:40:31  5-MIN KMSN 160240Z 18004KT 8SM CLR 05/03 A2981 970 85 0 180/04 RMK AO2
14837KMSN MSN20101115204508911/15/10 20:45:31  5-MIN KMSN 160245Z 18004KT 8SM CLR 05/03 A2981 970 85 0 180/04 RMK AO2
14837KMSN MSN20101115205011211/15/10 20:50:31  5-MIN KMSN 160250Z 19004KT 8SM CLR 05/03 A2981 970 85 0 190/04 RMK AO2 SLP100 T00500028 51009
14837KMSN MSN20101115205509111/15/10 20:55:31  5-MIN KMSN 160255Z 18004KT 9SM CLR 06/03 A2981 970 82 100 180/04 RMK AO2
14837KMSN MSN20101115210008911/15/10 21:00:31  5-MIN KMSN 160300Z 18003KT 9SM CLR 05/03 A2981 970 85 0 180/03 RMK AO2
14837KMSN MSN20101115210508911/15/10 21:05:31  5-MIN KMSN 160305Z 18003KT 9SM CLR 05/03 A2980 970 85 0 180/03 RMK AO2
14837KMSN MSN20101115211008911/15/10 21:10:31  5-MIN KMSN 160310Z 18003KT 9SM CLR 05/03 A2980 970 85 0 180/03 RMK AO2
14837KMSN MSN20101115211508911/15/10 21:15:31  5-MIN KMSN 160315Z 00000KT 8SM CLR 05/03 A2980 970 85 0 000/00 RMK AO2
14837KMSN MSN20101115212008911/15/10 21:20:31  5-MIN KMSN 160320Z 00000KT 8SM CLR 05/03 A2980 970 85 0 000/00 RMK AO2
14837KMSN MSN20101115212508911/15/10 21:25:31  5-MIN KMSN 160325Z 00000KT 8SM CLR 05/03 A2980 970 85 0 000/00 RMK AO2
14837KMSN MSN20101115213008911/15/10 21:30:31  5-MIN KMSN 160330Z 00000KT 8SM CLR 04/03 A2980 970 89 0 000/00 RMK AO2
14837KMSN MSN20101115213508911/15/10 21:35:31  5-MIN KMSN 160335Z 00000KT 8SM CLR 05/03 A2980 980 85 0 000/00 RMK AO2
14837KMSN MSN20101115214008911/15/10 21:40:31  5-MIN KMSN 160340Z 00000KT 8SM CLR 04/03 A2980 980 89 0 000/00 RMK AO2
14837KMSN MSN20101115214508911/15/10 21:45:31  5-MIN KMSN 160345Z 17003KT 8SM CLR 04/03 A2980 980 89 0 170/03 RMK AO2
14837KMSN MSN20101115215010611/15/10 21:50:31  5-MIN KMSN 160350Z 00000KT 8SM CLR 04/02 A2980 980 89 0 000/00 RMK AO2 SLP098 T00390022
14837KMSN MSN20101115215508911/15/10 21:55:31  5-MIN KMSN 160355Z 00000KT 8SM CLR 04/02 A2980 980 89 0 000/00 RMK AO2
14837KMSN MSN20101115220008911/15/10 22:00:31  5-MIN KMSN 160400Z 00000KT 8SM CLR 04/02 A2980 980 89 0 000/00 RMK AO2
14837KMSN MSN20101115220508911/15/10 22:05:31  5-MIN KMSN 160405Z 00000KT 8SM CLR 04/02 A2980 980 89 0 000/00 RMK AO2
14837KMSN MSN20101115221009511/15/10 22:10:31  5-MIN KMSN 160410Z 16004KT 7SM FEW100 03/02 A2980 980 89 -100 160/04 RMK AO2
14837KMSN MSN20101115221509511/15/10 22:15:31  5-MIN KMSN 160415Z 17004KT 7SM SCT110 03/02 A2980 970 92 -200 160/04 RMK AO2
14837KMSN MSN20101115222009211/15/10 22:20:31  5-MIN KMSN 160420Z 18003KT 7SM BKN110 04/02 A2980 970 89 0 180/03 RMK AO2
14837KMSN MSN20101115222509911/15/10 22:25:31  5-MIN KMSN 160425Z 19003KT 7SM SCT070 BKN110 04/03 A2980 970 89 0 190/03 RMK AO2
14837KMSN MSN20101115223009911/15/10 22:30:31  5-MIN KMSN 160430Z 00000KT 8SM BKN070 BKN110 04/03 A2980 970 92 0 000/00 RMK AO2
14837KMSN MSN20101115223509911/15/10 22:35:31  5-MIN KMSN 160435Z 00000KT 7SM BKN070 OVC110 04/02 A2980 980 89 0 000/00 RMK AO2
14837KMSN MSN20101115224009911/15/10 22:40:31  5-MIN KMSN 160440Z 00000KT 7SM BKN070 OVC110 04/03 A2980 980 89 0 000/00 RMK AO2
14837KMSN MSN20101115224509211/15/10 22:45:31  5-MIN KMSN 160445Z 00000KT 8SM OVC070 04/03 A2980 980 89 0 000/00 RMK AO2
14837KMSN MSN20101115225010911/15/10 22:50:31  5-MIN KMSN 160450Z 00000KT 8SM OVC070 05/03 A2980 980 89 0 000/00 RMK AO2 SLP095 T00500033
14837KMSN MSN20101115225509211/15/10 22:55:31  5-MIN KMSN 160455Z 00000KT 8SM OVC070 04/03 A2980 980 89 0 000/00 RMK AO2
14837KMSN MSN20101115230009211/15/10 23:00:31  5-MIN KMSN 160500Z 00000KT 7SM OVC070 04/03 A2980 980 89 0 000/00 RMK AO2
14837KMSN MSN20101115230509211/15/10 23:05:31  5-MIN KMSN 160505Z 00000KT 7SM OVC070 05/03 A2980 980 89 0 000/00 RMK AO2
14837KMSN MSN20101115231009211/15/10 23:10:31  5-MIN KMSN 160510Z 19003KT 8SM OVC065 05/03 A2979 980 89 0 190/03 RMK AO2
14837KMSN MSN20101115231509211/15/10 23:15:31  5-MIN KMSN 160515Z 18003KT 8SM OVC070 05/03 A2979 980 89 0 180/03 RMK AO2
14837KMSN MSN20101115232009211/15/10 23:20:31  5-MIN KMSN 160520Z 18004KT 8SM OVC070 05/03 A2980 980 89 0 180/04 RMK AO2
14837KMSN MSN20101115232509911/15/10 23:25:31  5-MIN KMSN 160525Z 18005KT 8SM BKN070 OVC095 05/03 A2980 980 89 0 180/05 RMK AO2
14837KMSN MSN20101115233009911/15/10 23:30:31  5-MIN KMSN 160530Z 19005KT 7SM BKN070 OVC090 05/03 A2980 980 89 0 190/05 RMK AO2
14837KMSN MSN20101115233509911/15/10 23:35:31  5-MIN KMSN 160535Z 19005KT 8SM SCT070 OVC085 05/03 A2980 970 89 0 190/05 RMK AO2
14837KMSN MSN20101115234011511/15/10 23:40:31  5-MIN KMSN 160540Z 19005KT 8SM -RA BKN075 OVC090 05/03 A2980 980 89 0 190/05 RMK AO2 RAB39 P0000
14837KMSN MSN20101115234511711/15/10 23:45:31  5-MIN KMSN 160545Z 19005KT 8SM -RA BKN075 OVC090 06/03 A2980 980 85 100 190/05 RMK AO2 RAB39 P0000
14837KMSN MSN20101115235016111/15/10 23:50:31  5-MIN KMSN 160550Z 19003KT 8SM -RA OVC080 06/03 A2980 980 85 100 190/03 RMK AO2 RAB39 SLP095 P0000 60000 T00560033 10078 20028 401061017 51004
14837KMSN MSN20101115235511811/15/10 23:55:31  5-MIN KMSN 160555Z 19004KT 8SM -RA FEW055 BKN070 OVC085 06/03 A2980 980 85 100 190/04 RMK AO2 P0000
14837KMSN MSN20101116000011811/16/10 00:00:32  5-MIN KMSN 160600Z 19004KT 8SM -RA FEW041 BKN060 OVC085 06/03 A2980 980 85 100 190/04 RMK AO2 P0000
14837KMSN MSN20101116000511811/16/10 00:05:31  5-MIN KMSN 160605Z 19004KT 7SM -RA FEW041 BKN050 OVC085 06/03 A2979 980 85 100 190/04 RMK AO2 P0000
14837KMSN MSN20101116001012111/16/10 00:10:31  5-MIN KMSN 160610Z 19004KT 6SM -RA BR FEW032 BKN050 OVC055 06/04 A2979 980 89 100 190/04 RMK AO2 P0000
14837KMSN MSN20101116001511811/16/10 00:15:31  5-MIN KMSN 160615Z 19006KT 7SM -RA FEW032 BKN043 OVC055 06/04 A2979 980 89 100 190/06 RMK AO2 P0000
14837KMSN MSN20101116002010411/16/10 00:20:31  5-MIN KMSN 160620Z 19005KT 7SM -RA OVC043 06/04 A2979 980 89 100 190/05 RMK AO2 P0000
14837KMSN MSN20101116002512111/16/10 00:25:31  5-MIN KMSN 160625Z 20005KT 6SM -RA BR SCT036 BKN046 OVC055 06/04 A2979 980 89 100 200/05 RMK AO2 P0000
14837KMSN MSN20101116003012111/16/10 00:30:31  5-MIN KMSN 160630Z 19003KT 4SM -RA BR BKN034 BKN044 OVC055 06/04 A2979 980 89 100 190/03 RMK AO2 P0001
14837KMSN MSN20101116003512111/16/10 00:35:31  5-MIN KMSN 160635Z 19003KT 4SM -RA BR FEW031 SCT040 OVC050 06/04 A2979 980 89 100 190/03 RMK AO2 P0001
14837KMSN MSN20101116004011411/16/10 00:40:31  5-MIN KMSN 160640Z 17004KT 4SM -RA BR FEW035 OVC047 06/04 A2979 980 92 100 170/04 RMK AO2 P0002
14837KMSN MSN20101116004511411/16/10 00:45:31  5-MIN KMSN 160645Z 17005KT 4SM -RA BR FEW032 OVC047 06/04 A2979 980 89 100 170/05 RMK AO2 P0002
14837KMSN MSN20101116005013811/16/10 00:50:31  5-MIN KMSN 160650Z 16004KT 4SM -RA BR FEW032 BKN043 OVC050 06/04 A2979 990 92 100 160/04 RMK AO2 SLP091 P0003 T00560044
14837KMSN MSN20101116005512111/16/10 00:55:31  5-MIN KMSN 160655Z 16004KT 5SM -RA BR SCT034 BKN043 OVC050 06/04 A2979 990 92 100 160/04 RMK AO2 P0000
14837KMSN MSN20101116010011411/16/10 01:00:31  5-MIN KMSN 160700Z 15003KT 5SM -RA BR SCT034 OVC043 06/04 A2979 990 92 100 150/03 RMK AO2 P0000
14837KMSN MSN20101116010511411/16/10 01:05:31  5-MIN KMSN 160705Z 15004KT 5SM -RA BR FEW034 OVC041 06/04 A2978 990 92 100 140/04 RMK AO2 P0000
14837KMSN MSN20101116011011711/16/10 01:10:31  5-MIN KMSN 160710Z 12005KT 5SM BR FEW033 OVC042 06/04 A2978 1000 92 100 120/05 RMK AO2 RAE07 P0000
14837KMSN MSN20101116011512311/16/10 01:15:31  5-MIN KMSN 160715Z 11004KT 5SM BR FEW033 BKN042 OVC100 05/04 A2978 990 96 100 110/04 RMK AO2 RAE07 P0000
14837KMSN MSN20101116012012311/16/10 01:20:31  5-MIN KMSN 160720Z 00000KT 4SM BR FEW033 BKN042 OVC095 05/04 A2978 990 92 100 000/00 RMK AO2 RAE07 P0000
14837KMSN MSN20101116012512311/16/10 01:25:31  5-MIN KMSN 160725Z 00000KT 4SM BR SCT042 SCT055 OVC095 05/04 A2978 990 96 100 000/00 RMK AO2 RAE07 P0000
14837KMSN MSN20101116013012311/16/10 01:30:31  5-MIN KMSN 160730Z 00000KT 5SM BR FEW042 SCT055 OVC095 06/04 A2978 990 92 100 000/00 RMK AO2 RAE07 P0000
14837KMSN MSN20101116013511611/16/10 01:35:31  5-MIN KMSN 160735Z 00000KT 6SM BR FEW044 OVC095 06/04 A2978 990 92 100 000/00 RMK AO2 RAE07 P0000
14837KMSN MSN20101116014011611/16/10 01:40:31  5-MIN KMSN 160740Z 14005KT 6SM BR FEW055 OVC095 06/04 A2978 990 92 100 130/05 RMK AO2 RAE07 P0000
14837KMSN MSN20101116014510911/16/10 01:45:31  5-MIN KMSN 160745Z 13005KT 6SM BR OVC095 05/04 A2978 990 92 100 130/05 RMK AO2 RAE07 P0000
14837KMSN MSN20101116015012611/16/10 01:50:31  5-MIN KMSN 160750Z 13004KT 6SM BR OVC095 05/04 A2978 990 92 100 130/04 RMK AO2 RAE07 SLP089 P0000 T00500039
14837KMSN MSN20101116015510411/16/10 01:55:31  5-MIN KMSN 160755Z 13003KT 6SM BR FEW039 OVC095 05/04 A2978 990 92 100 130/03 RMK AO2
14837KMSN MSN20101116020010511/16/10 02:00:31  5-MIN KMSN 160800Z 13004KT 5SM BR SCT036 OVC095 05/04 A2978 1000 92 100 130/04 RMK AO2
14837KMSN MSN20101116020510311/16/10 02:05:31  5-MIN KMSN 160805Z 13004KT 5SM BR BKN036 OVC095 04/03 A2978 1000 92 0 120/04 RMK AO2
14837KMSN MSN20101116021010311/16/10 02:10:31  5-MIN KMSN 160810Z 12004KT 5SM BR BKN036 OVC095 04/03 A2978 1000 92 0 120/04 RMK AO2
14837KMSN MSN20101116021510311/16/10 02:15:31  5-MIN KMSN 160815Z 14004KT 5SM BR BKN038 OVC095 04/03 A2978 1000 92 0 130/04 RMK AO2
14837KMSN MSN20101116022009611/16/10 02:20:31  5-MIN KMSN 160820Z 14005KT 6SM BR OVC038 04/03 A2978 1000 92 0 140/05 RMK AO2
14837KMSN MSN20101116022509611/16/10 02:25:31  5-MIN KMSN 160825Z 14005KT 6SM BR BKN038 04/03 A2977 1000 92 0 140/05 RMK AO2
14837KMSN MSN20101116023009611/16/10 02:30:31  5-MIN KMSN 160830Z 14003KT 6SM BR BKN038 04/03 A2977 1000 96 0 140/03 RMK AO2
14837KMSN MSN20101116023509611/16/10 02:35:31  5-MIN KMSN 160835Z 00000KT 6SM BR SCT038 04/03 A2978 1000 92 0 000/00 RMK AO2
14837KMSN MSN20101116024010211/16/10 02:40:31  5-MIN KMSN 160840Z 00000KT 7SM SCT038 SCT085 05/03 A2978 1000 89 100 000/00 RMK AO2
14837KMSN MSN20101116024510211/16/10 02:45:31  5-MIN KMSN 160845Z 16003KT 8SM FEW038 SCT085 05/03 A2978 1000 89 100 160/03 RMK AO2
14837KMSN MSN20101116025012411/16/10 02:50:31  5-MIN KMSN 160850Z 00000KT 8SM BKN085 05/03 A2978 1000 89 100 000/00 RMK AO2 SLP088 60003 T00500033 56003
14837KMSN MSN20101116025509511/16/10 02:55:31  5-MIN KMSN 160855Z 00000KT 8SM BKN085 05/03 A2978 1000 89 100 000/00 RMK AO2
14837KMSN MSN20101116030009511/16/10 03:00:31  5-MIN KMSN 160900Z 00000KT 8SM BKN085 05/03 A2977 1000 89 100 000/00 RMK AO2
14837KMSN MSN20101116030509511/16/10 03:05:31  5-MIN KMSN 160905Z 00000KT 8SM BKN085 05/03 A2977 1000 89 100 000/00 RMK AO2
14837KMSN MSN20101116031009311/16/10 03:10:31  5-MIN KMSN 160910Z 00000KT 7SM BKN085 04/03 A2977 1000 89 0 000/00 RMK AO2
14837KMSN MSN20101116031509611/16/10 03:15:31  5-MIN KMSN 160915Z 00000KT 6SM BR BKN080 04/03 A2977 1000 96 0 000/00 RMK AO2
14837KMSN MSN20101116032009911/16/10 03:20:31  5-MIN KMSN 160920Z 00000KT 5SM BR SCT085 03/02 A2977 1000 92 -100 000/00 RMK AO2
14837KMSN MSN20101116032509911/16/10 03:25:31  5-MIN KMSN 160925Z 00000KT 5SM BR FEW080 03/03 A2977 1000 96 -100 000/00 RMK AO2
14837KMSN MSN20101116033009911/16/10 03:30:31  5-MIN KMSN 160930Z 00000KT 4SM BR FEW080 03/02 A2977 1000 96 -100 000/00 RMK AO2
14837KMSN MSN20101116033509611/16/10 03:35:31  5-MIN KMSN 160935Z 00000KT 4SM BR CLR 03/02 A2977 1000 92 -100 000/00 RMK AO2
14837KMSN MSN20101116034009611/16/10 03:40:31  5-MIN KMSN 160940Z 00000KT 5SM BR CLR 03/02 A2977 1010 92 -100 000/00 RMK AO2
14837KMSN MSN20101116034509611/16/10 03:45:31  5-MIN KMSN 160945Z 15004KT 5SM BR CLR 03/03 A2977 1010 96 -100 150/04 RMK AO2
14837KMSN MSN20101116035011311/16/10 03:50:31  5-MIN KMSN 160950Z 15004KT 5SM BR CLR 03/02 A2977 1010 92 -100 140/04 RMK AO2 SLP084 T00330022
14837KMSN MSN20101116035509611/16/10 03:55:31  5-MIN KMSN 160955Z 00000KT 5SM BR CLR 03/02 A2976 1010 92 -100 000/00 RMK AO2
14837KMSN MSN20101116040009611/16/10 04:00:31  5-MIN KMSN 161000Z 00000KT 4SM BR CLR 03/03 A2976 1010 96 -100 000/00 RMK AO2
14837KMSN MSN20101116040509311/16/10 04:05:31  5-MIN KMSN 161005Z 00000KT 4SM BR CLR 04/03 A2976 1010 92 0 000/00 RMK AO2
14837KMSN MSN20101116041009311/16/10 04:10:31  5-MIN KMSN 161010Z 00000KT 4SM BR CLR 04/03 A2976 1010 92 0 000/00 RMK AO2
14837KMSN MSN20101116041509611/16/10 04:15:31  5-MIN KMSN 161015Z 00000KT 4SM BR CLR 03/02 A2976 1010 96 -100 000/00 RMK AO2
14837KMSN MSN20101116042009711/16/10 04:20:31  5-MIN KMSN 161020Z 00000KT 2SM BR CLR 02/02 A2976 1010 100 -200 000/00 RMK AO2
14837KMSN MSN20101116042509811/16/10 04:25:31  5-MIN KMSN 161025Z 00000KT 1/2SM FG CLR 02/02 A2976 1010 96 -200 000/00 RMK AO2
14837KMSN MSN20101116043009811/16/10 04:30:31  5-MIN KMSN 161030Z 00000KT 1/2SM FG CLR 02/02 A2976 1010 96 -200 000/00 RMK AO2
14837KMSN MSN20101116043509811/16/10 04:35:31  5-MIN KMSN 161035Z 00000KT 3/4SM BR CLR 02/02 A2977 1010 96 -200 000/00 RMK AO2
14837KMSN MSN20101116044010011/16/10 04:40:31  5-MIN KMSN 161040Z 00000KT 1 3/4SM BR CLR 02/02 A2977 1010 96 -200 000/00 RMK AO2
14837KMSN MSN20101116044509611/16/10 04:45:31  5-MIN KMSN 161045Z 00000KT 3SM BR CLR 02/01 A2976 1010 92 -200 000/00 RMK AO2
14837KMSN MSN20101116045009611/16/10 04:50:31  5-MIN KMSN 161050Z 00000KT 4SM BR CLR 02/02 A2976 1010 96 -200 000/00 RMK AO2
14837KMSN MSN20101116045510011/16/10 04:55:31  5-MIN KMSN 161055Z 00000KT 1 1/4SM BR CLR 02/02 A2976 1010 96 -200 000/00 RMK AO2
14837KMSN MSN20101116050009611/16/10 05:00:31  5-MIN KMSN 161100Z 17003KT 1SM BR CLR 02/02 A2977 1010 96 -200 170/03 RMK AO2
14837KMSN MSN20101116050509611/16/10 05:05:31  5-MIN KMSN 161105Z 17004KT 2SM BR CLR 03/02 A2977 1010 92 -100 170/04 RMK AO2
14837KMSN MSN20101116051009611/16/10 05:10:31  5-MIN KMSN 161110Z 17003KT 3SM BR CLR 03/02 A2977 1010 92 -100 170/03 RMK AO2
14837KMSN MSN20101116051509611/16/10 05:15:31  5-MIN KMSN 161115Z 17003KT 4SM BR CLR 03/02 A2977 1010 92 -100 170/03 RMK AO2
14837KMSN MSN20101116052009611/16/10 05:20:31  5-MIN KMSN 161120Z 00000KT 4SM BR CLR 03/02 A2976 1010 96 -100 000/00 RMK AO2
14837KMSN MSN20101116052509611/16/10 05:25:31  5-MIN KMSN 161125Z 16004KT 3SM BR CLR 03/02 A2976 1010 96 -100 160/04 RMK AO2
14837KMSN MSN20101116053009611/16/10 05:30:31  5-MIN KMSN 161130Z 16006KT 3SM BR CLR 03/02 A2976 1010 96 -100 160/06 RMK AO2
14837KMSN MSN20101116053510011/16/10 05:35:31  5-MIN KMSN 161135Z 16004KT 2 1/2SM BR CLR 02/02 A2976 1010 96 -200 160/04 RMK AO2
14837KMSN MSN20101116054009611/16/10 05:40:31  5-MIN KMSN 161140Z 17003KT 3SM BR CLR 03/02 A2976 1020 96 -100 160/03 RMK AO2
14837KMSN MSN20101116054509611/16/10 05:45:31  5-MIN KMSN 161145Z 00000KT 4SM BR CLR 03/02 A2975 1020 96 -100 000/00 RMK AO2
14837KMSN MSN20101116055014411/16/10 05:50:31  5-MIN KMSN 161150Z 00000KT 3SM BR CLR 03/03 A2975 1020 100 -100 000/00 RMK AO2 SLP080 60003 70003 T00280028 10056 20017 56006
14837KMSN MSN20101116055510011/16/10 05:55:31  5-MIN KMSN 161155Z 00000KT 2 1/2SM BR CLR 03/02 A2975 1020 96 -100 000/00 RMK AO2
14837KMSN MSN20101116060010611/16/10 06:00:31  5-MIN KMSN 161200Z 00000KT 2SM BR CLR 02/02 A2975 1020 96 -200 000/00 RMK AO2 TWR VIS 4
14837KMSN MSN20101116060510611/16/10 06:05:31  5-MIN KMSN 161205Z 00000KT 2SM BR CLR 02/01 A2975 1020 92 -200 000/00 RMK AO2 TWR VIS 4
14837KMSN MSN20101116061011011/16/10 06:10:31  5-MIN KMSN 161210Z 00000KT 1 1/2SM BR CLR 01/00 A2975 1020 92 -300 000/00 RMK AO2 TWR VIS 4
14837KMSN MSN20101116061511011/16/10 06:15:31  5-MIN KMSN 161215Z 15003KT 1 1/4SM BR CLR 02/01 A2975 1030 89 -200 150/03 RMK AO2 TWR VIS 4
14837KMSN MSN20101116062010611/16/10 06:20:31  5-MIN KMSN 161220Z 00000KT 2SM BR CLR 02/01 A2974 1030 92 -200 000/00 RMK AO2 TWR VIS 4
14837KMSN MSN20101116062511011/16/10 06:25:31  5-MIN KMSN 161225Z 00000KT 2 1/2SM BR CLR 02/02 A2974 1030 96 -200 000/00 RMK AO2 TWR VIS 4
14837KMSN MSN20101116063011011/16/10 06:30:31  5-MIN KMSN 161230Z 00000KT 2 1/2SM BR CLR 02/02 A2974 1030 96 -200 000/00 RMK AO2 TWR VIS 4
14837KMSN MSN20101116063510611/16/10 06:35:31  5-MIN KMSN 161235Z 15003KT 2SM BR CLR 02/02 A2974 1030 96 -200 150/03 RMK AO2 TWR VIS 4
14837KMSN MSN20101116064011011/16/10 06:40:31  5-MIN KMSN 161240Z 17004KT 2SM BR CLR 02/02 A2974 1030 96 -200 170/04 RMK AO2 SFC VIS 2 1/2
14837KMSN MSN20101116064510611/16/10 06:45:31  5-MIN KMSN 161245Z 00000KT 2SM BR CLR 02/02 A2974 1030 96 -200 000/00 RMK AO2 SFC VIS 3
14837KMSN MSN20101116065011411/16/10 06:50:31  5-MIN KMSN 161250Z 00000KT 1 3/4SM BR FEW030 01/01 A2974 1030 100 -300 000/00 RMK AO2 TWR VIS 2
14837KMSN MSN20101116065510811/16/10 06:55:31  5-MIN KMSN 161255Z 00000KT 1/2SM FG CLR 02/01 A2974 1030 96 -200 000/00 RMK AO2 TWR VIS 2
14837KMSN MSN20101116070010911/16/10 07:00:31  5-MIN KMSN 161300Z 00000KT 1/4SM FG CLR 01/01 A2974 1030 100 -400 000/00 RMK AO2 TWR VIS 2
14837KMSN MSN20101116070511211/16/10 07:05:31  5-MIN KMSN 161305Z 12003KT 1/2SM FG FEW030 00/00 A2974 1030 100 -500 120/03 RMK AO2 TWR VIS 2
14837KMSN MSN20101116071011211/16/10 07:10:31  5-MIN KMSN 161310Z 00000KT 1/2SM FG FEW030 01/M01 A2974 1030 92 -400 000/00 RMK AO2 TWR VIS 2
14837KMSN MSN20101116071511211/16/10 07:15:31  5-MIN KMSN 161315Z 00000KT 1/2SM FG FEW030 01/M01 A2974 1030 92 -400 000/00 RMK AO2 TWR VIS 2
14837KMSN MSN20101116072011211/16/10 07:20:31  5-MIN KMSN 161320Z 00000KT 1/2SM FG FEW030 01/M01 A2974 1030 92 -400 000/00 RMK AO2 TWR VIS 2
14837KMSN MSN20101116072511111/16/10 07:25:31  5-MIN KMSN 161325Z 00000KT 1/2SM FG FEW030 01/00 A2974 1040 96 -400 000/00 RMK AO2 TWR VIS 2
14837KMSN MSN20101116073011211/16/10 07:30:31  5-MIN KMSN 161330Z 00000KT 1/2SM FG FEW030 01/01 A2974 1040 100 -400 000/00 RMK AO2 TWR VIS 2
14837KMSN MSN20101116073511211/16/10 07:35:31  5-MIN KMSN 161335Z 00000KT 1/2SM FG FEW030 01/01 A2974 1030 100 -300 000/00 RMK AO2 TWR VIS 2
14837KMSN MSN20101116074011211/16/10 07:40:31  5-MIN KMSN 161340Z 00000KT 1/2SM FG FEW030 01/01 A2974 1030 100 -400 000/00 RMK AO2 TWR VIS 2
14837KMSN MSN20101116074511211/16/10 07:45:31  5-MIN KMSN 161345Z 00000KT 1/2SM FG FEW030 01/01 A2974 1030 100 -400 000/00 RMK AO2 TWR VIS 2
14837KMSN MSN20101116075012911/16/10 07:50:31  5-MIN KMSN 161350Z 00000KT 1/2SM FG FEW030 01/01 A2974 1030 100 -400 000/00 RMK AO2 TWR VIS 2 SLP077 T00060006
14837KMSN MSN20101116075511111/16/10 07:55:31  5-MIN KMSN 161355Z 00000KT 1/2SM FG FEW030 01/01 A2974 1030 96 -300 000/00 RMK AO2 TWR VIS 2
14837KMSN MSN20101116080011211/16/10 08:00:31  5-MIN KMSN 161400Z 13003KT 1/2SM FG FEW030 01/01 A2974 1030 100 -300 130/03 RMK AO2 TWR VIS 2
14837KMSN MSN20101116080510611/16/10 08:05:31  5-MIN KMSN 161405Z 00000KT 1SM BR CLR 02/01 A2973 1040 96 -200 000/00 RMK AO2 TWR VIS 2
14837KMSN MSN20101116081010611/16/10 08:10:31  5-MIN KMSN 161410Z 00000KT 1SM BR CLR 02/01 A2973 1040 96 -200 000/00 RMK AO2 TWR VIS 3
14837KMSN MSN20101116081510611/16/10 08:15:31  5-MIN KMSN 161415Z 16004KT 2SM BR CLR 02/01 A2973 1040 96 -200 160/04 RMK AO2 TWR VIS 3
14837KMSN MSN20101116082009611/16/10 08:20:31  5-MIN KMSN 161420Z 15003KT 3SM BR CLR 03/02 A2973 1040 96 -100 150/03 RMK AO2
14837KMSN MSN20101116082509611/16/10 08:25:31  5-MIN KMSN 161425Z 15004KT 3SM BR CLR 03/02 A2973 1050 96 -100 150/04 RMK AO2
14837KMSN MSN20101116083009311/16/10 08:30:31  5-MIN KMSN 161430Z 16004KT 3SM BR CLR 03/03 A2972 1050 96 0 160/04 RMK AO2
14837KMSN MSN20101116083510311/16/10 08:35:31  5-MIN KMSN 161435Z 16004KT 3SM BR CLR 03/03 A2972 1050 96 0 160/04 RMK AO2 SFC VIS 3
14837KMSN MSN20101116084010311/16/10 08:40:31  5-MIN KMSN 161440Z 16003KT 3SM BR CLR 03/03 A2972 1050 96 0 160/03 RMK AO2 SFC VIS 4
14837KMSN MSN20101116084510311/16/10 08:45:31  5-MIN KMSN 161445Z 16003KT 3SM BR CLR 03/03 A2972 1050 96 0 160/03 RMK AO2 SFC VIS 4
14837KMSN MSN20101116085012611/16/10 08:50:31  5-MIN KMSN 161450Z 16004KT 3SM BR CLR 04/03 A2972 1050 92 0 160/04 RMK AO2 SFC VIS 4 SLP070 T00390028 58005
14837KMSN MSN20101116085509311/16/10 08:55:31  5-MIN KMSN 161455Z 16005KT 6SM BR CLR 04/03 A2972 1050 92 0 160/05 RMK AO2
14837KMSN MSN20101116090009311/16/10 09:00:31  5-MIN KMSN 161500Z 16005KT 6SM BR CLR 04/03 A2972 1050 92 0 160/05 RMK AO2
14837KMSN MSN20101116090509311/16/10 09:05:31  5-MIN KMSN 161505Z 17005KT 6SM BR CLR 04/03 A2972 1050 92 0 170/05 RMK AO2
14837KMSN MSN20101116091009511/16/10 09:10:31  5-MIN KMSN 161510Z 16005KT 5SM BR CLR 04/03 A2972 1050 89 100 160/05 RMK AO2
14837KMSN MSN20101116091509511/16/10 09:15:31  5-MIN KMSN 161515Z 16005KT 5SM BR CLR 04/03 A2971 1060 89 100 150/05 RMK AO2
14837KMSN MSN20101116092009511/16/10 09:20:31  5-MIN KMSN 161520Z 16006KT 5SM BR CLR 05/03 A2972 1050 85 100 160/06 RMK AO2
14837KMSN MSN20101116092509511/16/10 09:25:31  5-MIN KMSN 161525Z 16005KT 5SM BR CLR 05/03 A2972 1050 85 100 160/05 RMK AO2
14837KMSN MSN20101116093009511/16/10 09:30:31  5-MIN KMSN 161530Z 16005KT 6SM BR CLR 05/03 A2972 1050 85 100 160/05 RMK AO2
14837KMSN MSN20101116093509511/16/10 09:35:31  5-MIN KMSN 161535Z 18003KT 6SM BR CLR 06/03 A2971 1060 85 200 180/03 RMK AO2
14837KMSN MSN20101116094009511/16/10 09:40:31  5-MIN KMSN 161540Z 17003KT 6SM BR CLR 06/03 A2972 1050 85 200 170/03 RMK AO2
14837KMSN MSN20101116094509511/16/10 09:45:31  5-MIN KMSN 161545Z 17004KT 6SM HZ CLR 06/03 A2972 1050 82 200 170/04 RMK AO2
14837KMSN MSN20101116095011211/16/10 09:50:31  5-MIN KMSN 161550Z 17004KT 6SM BR CLR 06/03 A2972 1050 85 200 170/04 RMK AO2 SLP068 T00560033
14837KMSN MSN20101116095509511/16/10 09:55:31  5-MIN KMSN 161555Z 16003KT 6SM HZ CLR 06/03 A2971 1060 82 200 160/03 RMK AO2
14837KMSN MSN20101116100009511/16/10 10:00:31  5-MIN KMSN 161600Z 16004KT 6SM HZ CLR 06/03 A2971 1060 82 300 160/04 RMK AO2
14837KMSN MSN20101116100509511/16/10 10:05:31  5-MIN KMSN 161605Z 16004KT 6SM HZ CLR 06/03 A2971 1060 79 300 160/04 RMK AO2
14837KMSN MSN20101116101009511/16/10 10:10:31  5-MIN KMSN 161610Z 17004KT 6SM HZ CLR 06/03 A2971 1060 79 300 170/04 RMK AO2
14837KMSN MSN20101116101509511/16/10 10:15:31  5-MIN KMSN 161615Z 17004KT 6SM HZ CLR 06/03 A2970 1060 79 300 170/04 RMK AO2
14837KMSN MSN20101116102009511/16/10 10:20:31  5-MIN KMSN 161620Z 17003KT 6SM HZ CLR 07/03 A2970 1060 79 400 170/03 RMK AO2
14837KMSN MSN20101116102509511/16/10 10:25:31  5-MIN KMSN 161625Z 00000KT 6SM HZ CLR 07/03 A2970 1060 79 400 000/00 RMK AO2
14837KMSN MSN20101116103009511/16/10 10:30:31  5-MIN KMSN 161630Z 14003KT 6SM HZ CLR 07/03 A2970 1070 76 400 140/03 RMK AO2
14837KMSN MSN20101116103509511/16/10 10:35:31  5-MIN KMSN 161635Z 11004KT 6SM HZ CLR 07/03 A2970 1070 76 400 110/04 RMK AO2
14837KMSN MSN20101116104009511/16/10 10:40:31  5-MIN KMSN 161640Z 13004KT 6SM HZ CLR 07/03 A2970 1070 76 400 120/04 RMK AO2
14837KMSN MSN20101116104509511/16/10 10:45:31  5-MIN KMSN 161645Z 13003KT 6SM HZ CLR 08/04 A2970 1070 76 500 130/03 RMK AO2
14837KMSN MSN20101116105011211/16/10 10:50:31  5-MIN KMSN 161650Z 12004KT 6SM HZ CLR 07/04 A2970 1070 79 400 120/04 RMK AO2 SLP063 T00720039
14837KMSN MSN20101116105509211/16/10 10:55:31  5-MIN KMSN 161655Z 14005KT 7SM CLR 08/03 A2970 1070 73 500 140/05 RMK AO2
14837KMSN MSN20101116110009211/16/10 11:00:31  5-MIN KMSN 161700Z 15004KT 7SM CLR 08/04 A2970 1070 73 600 150/04 RMK AO2
14837KMSN MSN20101116110509211/16/10 11:05:31  5-MIN KMSN 161705Z 16003KT 7SM CLR 08/04 A2970 1070 76 500 160/03 RMK AO2
14837KMSN MSN20101116111009211/16/10 11:10:31  5-MIN KMSN 161710Z 14004KT 7SM CLR 08/04 A2969 1080 73 600 140/04 RMK AO2
14837KMSN MSN20101116111509211/16/10 11:15:31  5-MIN KMSN 161715Z 13004KT 7SM CLR 08/04 A2969 1080 73 600 130/04 RMK AO2
14837KMSN MSN20101116112009211/16/10 11:20:31  5-MIN KMSN 161720Z 14005KT 7SM CLR 09/04 A2969 1080 71 600 140/05 RMK AO2
14837KMSN MSN20101116112509211/16/10 11:25:31  5-MIN KMSN 161725Z 17005KT 7SM CLR 09/04 A2969 1080 71 600 170/05 RMK AO2
14837KMSN MSN20101116113009211/16/10 11:30:31  5-MIN KMSN 161730Z 16005KT 7SM CLR 08/04 A2968 1080 73 600 160/05 RMK AO2
14837KMSN MSN20101116113509211/16/10 11:35:31  5-MIN KMSN 161735Z 17003KT 7SM CLR 08/04 A2968 1090 73 600 170/03 RMK AO2
14837KMSN MSN20101116114009211/16/10 11:40:31  5-MIN KMSN 161740Z 15003KT 7SM CLR 09/04 A2967 1090 71 700 140/03 RMK AO2
14837KMSN MSN20101116114509211/16/10 11:45:31  5-MIN KMSN 161745Z 18004KT 7SM CLR 09/04 A2967 1100 71 700 180/04 RMK AO2
14837KMSN MSN20101116115012711/16/10 11:50:31  5-MIN KMSN 161750Z VRB04KT 7SM CLR 09/04 A2967 1100 71 700 VRB/04 RMK AO2 SLP051 T00890039 10089 20000 58011
14837KMSN MSN20101116115509211/16/10 11:55:31  5-MIN KMSN 161755Z 14005KT 7SM CLR 09/04 A2967 1100 73 700 140/05 RMK AO2
14837KMSN MSN20101116120009211/16/10 12:00:31  5-MIN KMSN 161800Z VRB05KT 7SM CLR 09/04 A2967 1100 68 700 VRB/05 RMK AO2
14837KMSN MSN20101116120509211/16/10 12:05:31  5-MIN KMSN 161805Z 18005KT 8SM CLR 09/04 A2967 1100 71 700 180/05 RMK AO2
14837KMSN MSN20101116121009211/16/10 12:10:31  5-MIN KMSN 161810Z 14006KT 8SM CLR 09/04 A2966 1100 71 700 130/06 RMK AO2
14837KMSN MSN20101116121509211/16/10 12:15:31  5-MIN KMSN 161815Z 11006KT 8SM CLR 09/04 A2966 1100 71 700 110/06 RMK AO2
14837KMSN MSN20101116122009211/16/10 12:20:31  5-MIN KMSN 161820Z 17005KT 8SM CLR 09/04 A2966 1110 68 700 160/05 RMK AO2
14837KMSN MSN20101116122509211/16/10 12:25:31  5-MIN KMSN 161825Z 13007KT 8SM CLR 09/04 A2966 1110 71 700 130/07 RMK AO2
14837KMSN MSN20101116123009211/16/10 12:30:31  5-MIN KMSN 161830Z 13008KT 8SM CLR 09/04 A2966 1110 71 700 130/08 RMK AO2
14837KMSN MSN20101116123509211/16/10 12:35:31  5-MIN KMSN 161835Z 14005KT 8SM CLR 09/04 A2966 1110 71 700 140/05 RMK AO2
14837KMSN MSN20101116124009211/16/10 12:40:31  5-MIN KMSN 161840Z 15005KT 8SM CLR 09/04 A2966 1110 68 700 150/05 RMK AO2
14837KMSN MSN20101116124509211/16/10 12:45:31  5-MIN KMSN 161845Z 17007KT 8SM CLR 09/04 A2965 1110 68 700 160/07 RMK AO2
14837KMSN MSN20101116125011211/16/10 12:50:31  5-MIN KMSN 161850Z 15006KT 8SM FEW024 09/04 A2965 1110 68 800 150/06 RMK AO2 SLP045 T00940039
14837KMSN MSN20101116125509511/16/10 12:55:31  5-MIN KMSN 161855Z 18003KT 8SM FEW024 09/04 A2965 1110 68 800 180/03 RMK AO2
14837KMSN MSN20101116130009511/16/10 13:00:31  5-MIN KMSN 161900Z 16007KT 8SM FEW024 09/04 A2965 1110 68 800 160/07 RMK AO2
14837KMSN MSN20101116130509511/16/10 13:05:31  5-MIN KMSN 161905Z 18004KT 8SM FEW024 09/04 A2965 1120 68 800 180/04 RMK AO2
14837KMSN MSN20101116131009511/16/10 13:10:31  5-MIN KMSN 161910Z 15003KT 8SM FEW024 09/04 A2965 1110 68 800 150/03 RMK AO2
14837KMSN MSN20101116131509511/16/10 13:15:31  5-MIN KMSN 161915Z 17004KT 8SM FEW024 09/04 A2965 1120 68 800 170/04 RMK AO2
14837KMSN MSN20101116132009511/16/10 13:20:31  5-MIN KMSN 161920Z 17003KT 8SM FEW024 09/04 A2965 1120 68 800 170/03 RMK AO2
14837KMSN MSN20101116132509511/16/10 13:25:31  5-MIN KMSN 161925Z 16004KT 8SM FEW024 09/04 A2965 1120 68 800 160/04 RMK AO2
14837KMSN MSN20101116133009511/16/10 13:30:31  5-MIN KMSN 161930Z 16004KT 8SM FEW024 09/04 A2964 1120 68 800 160/04 RMK AO2
14837KMSN MSN20101116133509511/16/10 13:35:31  5-MIN KMSN 161935Z 14005KT 8SM FEW024 10/04 A2964 1120 65 800 140/05 RMK AO2
14837KMSN MSN20101116134009511/16/10 13:40:31  5-MIN KMSN 161940Z 18003KT 8SM FEW024 10/04 A2964 1120 65 800 180/03 RMK AO2
14837KMSN MSN20101116134509511/16/10 13:45:31  5-MIN KMSN 161945Z VRB03KT 8SM FEW024 09/04 A2964 1130 68 800 VRB/03 RMK AO2
14837KMSN MSN20101116135011211/16/10 13:50:31  5-MIN KMSN 161950Z 15003KT 8SM FEW025 10/04 A2964 1130 65 800 150/03 RMK AO2 SLP040 T01000039
14837KMSN MSN20101116135509511/16/10 13:55:31  5-MIN KMSN 161955Z 15004KT 8SM FEW025 10/04 A2964 1130 65 800 150/04 RMK AO2
14837KMSN MSN20101116140009511/16/10 14:00:31  5-MIN KMSN 162000Z 13004KT 9SM FEW025 10/04 A2964 1130 65 800 130/04 RMK AO2
14837KMSN MSN20101116140509211/16/10 14:05:31  5-MIN KMSN 162005Z 00000KT 9SM CLR 10/04 A2963 1130 65 800 000/00 RMK AO2
14837KMSN MSN20101116141009211/16/10 14:10:31  5-MIN KMSN 162010Z 00000KT 8SM CLR 10/04 A2963 1130 65 800 000/00 RMK AO2
14837KMSN MSN20101116141509511/16/10 14:15:31  5-MIN KMSN 162015Z 00000KT 8SM FEW026 10/04 A2963 1130 65 800 000/00 RMK AO2
14837KMSN MSN20101116142009511/16/10 14:20:31  5-MIN KMSN 162020Z 00000KT 8SM FEW026 10/04 A2963 1130 65 800 000/00 RMK AO2
14837KMSN MSN20101116142509511/16/10 14:25:31  5-MIN KMSN 162025Z 16004KT 8SM FEW026 10/04 A2963 1130 65 800 160/04 RMK AO2
14837KMSN MSN20101116143009511/16/10 14:30:31  5-MIN KMSN 162030Z 16004KT 8SM FEW026 10/04 A2963 1130 65 800 160/04 RMK AO2
14837KMSN MSN20101116143509511/16/10 14:35:31  5-MIN KMSN 162035Z 00000KT 8SM FEW026 10/04 A2963 1130 65 800 000/00 RMK AO2
14837KMSN MSN20101116144009511/16/10 14:40:31  5-MIN KMSN 162040Z 00000KT 8SM FEW026 10/03 A2963 1140 63 800 000/00 RMK AO2
14837KMSN MSN20101116144509511/16/10 14:45:31  5-MIN KMSN 162045Z 18003KT 8SM FEW026 10/04 A2963 1140 65 800 180/03 RMK AO2
14837KMSN MSN20101116145011811/16/10 14:50:31  5-MIN KMSN 162050Z 00000KT 8SM FEW026 09/03 A2963 1140 65 800 000/00 RMK AO2 SLP036 T00940033 58017
14837KMSN MSN20101116145509511/16/10 14:55:31  5-MIN KMSN 162055Z 00000KT 8SM FEW026 09/03 A2963 1140 65 800 000/00 RMK AO2
14837KMSN MSN20101116150009511/16/10 15:00:31  5-MIN KMSN 162100Z 00000KT 8SM FEW026 10/03 A2963 1140 63 800 000/00 RMK AO2
14837KMSN MSN20101116150509511/16/10 15:05:31  5-MIN KMSN 162105Z 00000KT 8SM FEW026 10/03 A2963 1140 63 800 000/00 RMK AO2
14837KMSN MSN20101116151009511/16/10 15:10:31  5-MIN KMSN 162110Z 00000KT 8SM FEW026 10/03 A2963 1140 63 800 000/00 RMK AO2
14837KMSN MSN20101116151509511/16/10 15:15:31  5-MIN KMSN 162115Z 00000KT 8SM FEW026 10/03 A2963 1130 63 800 000/00 RMK AO2
14837KMSN MSN20101116152009511/16/10 15:20:31  5-MIN KMSN 162120Z 00000KT 8SM FEW026 10/03 A2963 1130 63 800 000/00 RMK AO2
14837KMSN MSN20101116152509511/16/10 15:25:31  5-MIN KMSN 162125Z 00000KT 8SM FEW026 10/03 A2963 1130 63 800 000/00 RMK AO2
14837KMSN MSN20101116153009511/16/10 15:30:31  5-MIN KMSN 162130Z 00000KT 8SM FEW026 10/03 A2963 1130 63 800 000/00 RMK AO2
14837KMSN MSN20101116153509511/16/10 15:35:31  5-MIN KMSN 162135Z 00000KT 8SM FEW026 10/03 A2963 1130 63 800 000/00 RMK AO2
14837KMSN MSN20101116154009511/16/10 15:40:31  5-MIN KMSN 162140Z 00000KT 8SM FEW026 10/03 A2963 1130 63 800 000/00 RMK AO2
14837KMSN MSN20101116154509511/16/10 15:45:31  5-MIN KMSN 162145Z 00000KT 8SM FEW026 10/04 A2963 1130 65 800 000/00 RMK AO2
14837KMSN MSN20101116155011211/16/10 15:50:31  5-MIN KMSN 162150Z 00000KT 8SM FEW026 10/04 A2963 1130 65 800 000/00 RMK AO2 SLP039 T01000039
14837KMSN MSN20101116155510211/16/10 15:55:31  5-MIN KMSN 162155Z 00000KT 8SM FEW025 SCT100 10/03 A2963 1130 63 800 000/00 RMK AO2
14837KMSN MSN20101116160010211/16/10 16:00:31  5-MIN KMSN 162200Z 00000KT 8SM FEW025 SCT100 10/03 A2963 1130 63 800 000/00 RMK AO2
14837KMSN MSN20101116160510211/16/10 16:05:31  5-MIN KMSN 162205Z 00000KT 8SM FEW025 SCT100 10/03 A2963 1130 63 800 000/00 RMK AO2
14837KMSN MSN20101116161010211/16/10 16:10:31  5-MIN KMSN 162210Z 00000KT 8SM FEW025 SCT100 09/03 A2963 1130 65 800 000/00 RMK AO2
14837KMSN MSN20101116161509511/16/10 16:15:31  5-MIN KMSN 162215Z 00000KT 8SM FEW060 09/03 A2963 1130 65 800 000/00 RMK AO2
14837KMSN MSN20101116162009511/16/10 16:20:31  5-MIN KMSN 162220Z 00000KT 8SM FEW060 09/03 A2963 1130 65 800 000/00 RMK AO2
14837KMSN MSN20101116162509511/16/10 16:25:31  5-MIN KMSN 162225Z 06003KT 8SM FEW060 09/03 A2963 1130 68 700 060/03 RMK AO2
14837KMSN MSN20101116163009511/16/10 16:30:31  5-MIN KMSN 162230Z 00000KT 8SM FEW060 08/03 A2963 1130 70 600 000/00 RMK AO2
14837KMSN MSN20101116163509511/16/10 16:35:31  5-MIN KMSN 162235Z 00000KT 8SM FEW060 09/03 A2963 1130 68 700 000/00 RMK AO2
14837KMSN MSN20101116164009511/16/10 16:40:31  5-MIN KMSN 162240Z 00000KT 8SM FEW060 09/03 A2963 1130 68 700 000/00 RMK AO2
14837KMSN MSN20101116164509511/16/10 16:45:31  5-MIN KMSN 162245Z 00000KT 7SM FEW060 08/03 A2963 1130 70 600 000/00 RMK AO2
14837KMSN MSN20101116165011211/16/10 16:50:31  5-MIN KMSN 162250Z 06003KT 8SM FEW060 08/03 A2964 1130 73 600 050/03 RMK AO2 SLP041 T00780033
14837KMSN MSN20101116165509211/16/10 16:55:31  5-MIN KMSN 162255Z 00000KT 8SM CLR 07/03 A2964 1130 76 500 000/00 RMK AO2
14837KMSN MSN20101116170009211/16/10 17:00:31  5-MIN KMSN 162300Z 03003KT 8SM CLR 06/03 A2964 1130 79 400 030/03 RMK AO2
14837KMSN MSN20101116170509211/16/10 17:05:31  5-MIN KMSN 162305Z 00000KT 8SM CLR 06/03 A2964 1130 82 300 000/00 RMK AO2
14837KMSN MSN20101116171009211/16/10 17:10:31  5-MIN KMSN 162310Z 00000KT 8SM CLR 06/03 A2964 1130 79 400 000/00 RMK AO2
14837KMSN MSN20101116171509211/16/10 17:15:31  5-MIN KMSN 162315Z 00000KT 8SM CLR 06/03 A2964 1120 79 400 000/00 RMK AO2
14837KMSN MSN20101116172009211/16/10 17:20:31  5-MIN KMSN 162320Z 00000KT 8SM CLR 06/03 A2964 1120 79 400 000/00 RMK AO2
14837KMSN MSN20101116172509211/16/10 17:25:31  5-MIN KMSN 162325Z 00000KT 8SM CLR 05/03 A2964 1120 85 200 000/00 RMK AO2
14837KMSN MSN20101116173009211/16/10 17:30:31  5-MIN KMSN 162330Z 00000KT 8SM CLR 06/03 A2964 1120 82 300 000/00 RMK AO2
14837KMSN MSN20101116173509211/16/10 17:35:31  5-MIN KMSN 162335Z 00000KT 8SM CLR 06/03 A2964 1120 82 300 000/00 RMK AO2
14837KMSN MSN20101116174009211/16/10 17:40:31  5-MIN KMSN 162340Z 00000KT 7SM CLR 06/03 A2964 1120 82 300 000/00 RMK AO2
14837KMSN MSN20101116174509211/16/10 17:45:31  5-MIN KMSN 162345Z 00000KT 7SM CLR 04/02 A2964 1120 85 200 000/00 RMK AO2
14837KMSN MSN20101116175012711/16/10 17:50:31  5-MIN KMSN 162350Z 00000KT 7SM CLR 05/02 A2964 1120 82 200 000/00 RMK AO2 SLP045 T00500022 10100 20044 56014
14837KMSN MSN20101116175509511/16/10 17:55:31  5-MIN KMSN 162355Z 00000KT 6SM BR CLR 04/02 A2964 1120 85 200 000/00 RMK AO2
14837KMSN MSN20101116180009511/16/10 18:00:31  5-MIN KMSN 170000Z 00000KT 6SM BR CLR 04/02 A2964 1120 89 100 000/00 RMK AO2
14837KMSN MSN20101116180509511/16/10 18:05:31  5-MIN KMSN 170005Z 00000KT 6SM BR CLR 04/02 A2965 1120 89 100 000/00 RMK AO2
14837KMSN MSN20101116181009511/16/10 18:10:31  5-MIN KMSN 170010Z 00000KT 6SM BR CLR 04/02 A2965 1120 89 100 000/00 RMK AO2
14837KMSN MSN20101116181509311/16/10 18:15:31  5-MIN KMSN 170015Z 00000KT 6SM BR CLR 03/02 A2965 1120 92 0 000/00 RMK AO2
14837KMSN MSN20101116182009311/16/10 18:20:31  5-MIN KMSN 170020Z 00000KT 6SM BR CLR 03/02 A2965 1120 92 0 000/00 RMK AO2
14837KMSN MSN20101116182509311/16/10 18:25:31  5-MIN KMSN 170025Z 00000KT 6SM BR CLR 03/02 A2965 1120 92 0 000/00 RMK AO2
14837KMSN MSN20101116183009311/16/10 18:30:31  5-MIN KMSN 170030Z 00000KT 6SM BR CLR 03/02 A2965 1120 89 0 000/00 RMK AO2
14837KMSN MSN20101116183509311/16/10 18:35:31  5-MIN KMSN 170035Z 00000KT 5SM BR CLR 03/02 A2965 1120 92 0 000/00 RMK AO2
14837KMSN MSN20101116184009311/16/10 18:40:31  5-MIN KMSN 170040Z 00000KT 5SM BR CLR 03/02 A2965 1120 92 0 000/00 RMK AO2
14837KMSN MSN20101116184509311/16/10 18:45:31  5-MIN KMSN 170045Z 01004KT 5SM BR CLR 03/02 A2965 1120 92 0 360/04 RMK AO2
14837KMSN MSN20101116185011311/16/10 18:50:31  5-MIN KMSN 170050Z 35003KT 6SM BR CLR 02/01 A2965 1120 92 -100 350/03 RMK AO2 SLP048 T00220011
14837KMSN MSN20101116185509611/16/10 18:55:31  5-MIN KMSN 170055Z 35003KT 5SM BR CLR 02/01 A2965 1120 92 -100 350/03 RMK AO2
14837KMSN MSN20101116190009611/16/10 19:00:31  5-MIN KMSN 170100Z 00000KT 5SM BR CLR 02/01 A2965 1110 96 -100 000/00 RMK AO2
14837KMSN MSN20101116190509611/16/10 19:05:31  5-MIN KMSN 170105Z 00000KT 5SM BR CLR 02/01 A2965 1120 92 -100 000/00 RMK AO2
14837KMSN MSN20101116191009311/16/10 19:10:31  5-MIN KMSN 170110Z 00000KT 5SM BR CLR 03/02 A2965 1110 92 0 000/00 RMK AO2
14837KMSN MSN20101116191509311/16/10 19:15:31  5-MIN KMSN 170115Z 00000KT 5SM BR CLR 03/02 A2965 1110 96 0 000/00 RMK AO2
14837KMSN MSN20101116192009611/16/10 19:20:31  5-MIN KMSN 170120Z 00000KT 5SM BR CLR 02/02 A2965 1110 96 -100 000/00 RMK AO2
14837KMSN MSN20101116192509611/16/10 19:25:31  5-MIN KMSN 170125Z 00000KT 5SM BR CLR 02/01 A2965 1110 92 -100 000/00 RMK AO2
14837KMSN MSN20101116193009611/16/10 19:30:31  5-MIN KMSN 170130Z 00000KT 5SM BR CLR 02/01 A2965 1110 92 -100 000/00 RMK AO2
14837KMSN MSN20101116193509311/16/10 19:35:31  5-MIN KMSN 170135Z 00000KT 5SM BR CLR 03/02 A2965 1110 92 0 000/00 RMK AO2
14837KMSN MSN20101116194009611/16/10 19:40:31  5-MIN KMSN 170140Z 00000KT 5SM BR CLR 02/01 A2965 1110 92 -100 000/00 RMK AO2
14837KMSN MSN20101116194509611/16/10 19:45:31  5-MIN KMSN 170145Z 00000KT 5SM BR CLR 02/01 A2966 1110 96 -200 000/00 RMK AO2
14837KMSN MSN20101116195011311/16/10 19:50:31  5-MIN KMSN 170150Z 00000KT 5SM BR CLR 02/01 A2966 1110 92 -100 000/00 RMK AO2 SLP051 T00220011
14837KMSN MSN20101116195509611/16/10 19:55:31  5-MIN KMSN 170155Z 00000KT 3SM BR CLR 02/01 A2966 1110 96 -200 000/00 RMK AO2
14837KMSN MSN20101116200009711/16/10 20:00:31  5-MIN KMSN 170200Z 00000KT 5SM BR CLR 01/01 A2966 1110 100 -200 000/00 RMK AO2
14837KMSN MSN20101116200509611/16/10 20:05:31  5-MIN KMSN 170205Z 35003KT 5SM BR CLR 02/01 A2966 1110 92 -200 340/03 RMK AO2
14837KMSN MSN20101116201009711/16/10 20:10:31  5-MIN KMSN 170210Z 00000KT 5SM BR CLR 02/02 A2966 1100 100 -200 000/00 RMK AO2
14837KMSN MSN20101116201509611/16/10 20:15:31  5-MIN KMSN 170215Z 04003KT 5SM BR CLR 02/01 A2967 1100 96 -200 040/03 RMK AO2
14837KMSN MSN20101116202009611/16/10 20:20:31  5-MIN KMSN 170220Z 00000KT 5SM BR CLR 01/01 A2967 1100 96 -200 000/00 RMK AO2
14837KMSN MSN20101116202509611/16/10 20:25:31  5-MIN KMSN 170225Z 00000KT 5SM BR CLR 01/01 A2967 1100 96 -200 000/00 RMK AO2
14837KMSN MSN20101116203009911/16/10 20:30:31  5-MIN KMSN 170230Z 00000KT 5SM BR FEW110 01/01 A2967 1100 96 -200 000/00 RMK AO2
14837KMSN MSN20101116203509911/16/10 20:35:31  5-MIN KMSN 170235Z 00000KT 5SM BR SCT110 01/01 A2967 1100 96 -200 000/00 RMK AO2
14837KMSN MSN20101116204010011/16/10 20:40:31  5-MIN KMSN 170240Z 00000KT 5SM BR BKN110 00/M01 A2967 1100 96 -400 000/00 RMK AO2
14837KMSN MSN20101116204509911/16/10 20:45:31  5-MIN KMSN 170245Z 00000KT 5SM BR BKN110 01/00 A2967 1090 96 -300 000/00 RMK AO2
14837KMSN MSN20101116205012211/16/10 20:50:31  5-MIN KMSN 170250Z 00000KT 5SM BR BKN110 01/01 A2967 1090 96 -200 000/00 RMK AO2 SLP055 T00110006 52005
14837KMSN MSN20101116205510011/16/10 20:55:31  5-MIN KMSN 170255Z 00000KT 5SM BR OVC110 01/01 A2968 1090 100 -200 000/00 RMK AO2
14837KMSN MSN20101116210010011/16/10 21:00:31  5-MIN KMSN 170300Z 00000KT 5SM BR OVC110 01/01 A2968 1090 100 -200 000/00 RMK AO2
14837KMSN MSN20101116210510011/16/10 21:05:31  5-MIN KMSN 170305Z 00000KT 5SM BR OVC110 01/01 A2968 1090 100 -200 000/00 RMK AO2
14837KMSN MSN20101116211009911/16/10 21:10:31  5-MIN KMSN 170310Z 00000KT 5SM BR OVC110 02/01 A2968 1090 92 -200 000/00 RMK AO2
14837KMSN MSN20101116211509911/16/10 21:15:31  5-MIN KMSN 170315Z 00000KT 5SM BR OVC110 01/01 A2968 1090 96 -200 000/00 RMK AO2
14837KMSN MSN20101116212009911/16/10 21:20:31  5-MIN KMSN 170320Z 00000KT 5SM BR OVC110 01/01 A2968 1090 96 -300 000/00 RMK AO2
14837KMSN MSN20101116212509911/16/10 21:25:31  5-MIN KMSN 170325Z 00000KT 5SM BR OVC110 01/01 A2968 1090 96 -300 000/00 RMK AO2
14837KMSN MSN20101116213009911/16/10 21:30:31  5-MIN KMSN 170330Z 00000KT 5SM BR OVC110 02/01 A2968 1090 96 -200 000/00 RMK AO2
14837KMSN MSN20101116213509911/16/10 21:35:31  5-MIN KMSN 170335Z 00000KT 5SM BR OVC120 02/01 A2968 1090 96 -200 000/00 RMK AO2
14837KMSN MSN20101116214009911/16/10 21:40:31  5-MIN KMSN 170340Z 00000KT 5SM BR OVC120 02/01 A2968 1090 96 -200 000/00 RMK AO2
14837KMSN MSN20101116214509911/16/10 21:45:31  5-MIN KMSN 170345Z 00000KT 5SM BR OVC120 01/01 A2969 1080 96 -300 000/00 RMK AO2
14837KMSN MSN20101116215011611/16/10 21:50:31  5-MIN KMSN 170350Z 00000KT 5SM BR OVC120 01/01 A2969 1080 96 -300 000/00 RMK AO2 SLP060 T00110006
14837KMSN MSN20101116215509911/16/10 21:55:31  5-MIN KMSN 170355Z 00000KT 5SM BR OVC120 02/01 A2969 1080 96 -200 000/00 RMK AO2
14837KMSN MSN20101116220009911/16/10 22:00:31  5-MIN KMSN 170400Z 28003KT 5SM BR OVC120 02/01 A2969 1080 92 -200 280/03 RMK AO2
14837KMSN MSN20101116220510611/16/10 22:05:31  5-MIN KMSN 170405Z 00000KT 5SM BR FEW060 OVC120 02/01 A2969 1080 96 -200 000/00 RMK AO2
14837KMSN MSN20101116221011311/16/10 22:10:31  5-MIN KMSN 170410Z 00000KT 5SM BR FEW060 SCT075 OVC120 02/01 A2969 1080 96 -200 000/00 RMK AO2
14837KMSN MSN20101116221510711/16/10 22:15:31  5-MIN KMSN 170415Z 00000KT 5SM BR BKN080 OVC120 01/01 A2969 1080 100 -300 000/00 RMK AO2
14837KMSN MSN20101116222010611/16/10 22:20:31  5-MIN KMSN 170420Z 00000KT 5SM BR BKN080 OVC120 02/01 A2969 1080 92 -200 000/00 RMK AO2
14837KMSN MSN20101116222510611/16/10 22:25:31  5-MIN KMSN 170425Z 00000KT 5SM BR BKN075 OVC120 02/01 A2969 1080 96 -200 000/00 RMK AO2
14837KMSN MSN20101116223010611/16/10 22:30:31  5-MIN KMSN 170430Z 01004KT 5SM BR BKN080 OVC120 02/02 A2969 1080 96 -100 010/04 RMK AO2
14837KMSN MSN20101116223510611/16/10 22:35:31  5-MIN KMSN 170435Z 04003KT 5SM BR BKN080 OVC120 02/01 A2969 1070 96 -200 040/03 RMK AO2
14837KMSN MSN20101116224010611/16/10 22:40:31  5-MIN KMSN 170440Z 00000KT 5SM BR BKN080 OVC120 02/01 A2970 1070 96 -200 000/00 RMK AO2
14837KMSN MSN20101116224510611/16/10 22:45:31  5-MIN KMSN 170445Z 00000KT 5SM BR SCT080 OVC120 02/01 A2970 1070 92 -100 000/00 RMK AO2
14837KMSN MSN20101116225013011/16/10 22:50:31  5-MIN KMSN 170450Z 00000KT 5SM BR FEW060 SCT080 OVC120 02/01 A2970 1070 92 -100 000/00 RMK AO2 SLP063 T00220011
14837KMSN MSN20101116225511311/16/10 22:55:31  5-MIN KMSN 170455Z 00000KT 5SM BR SCT055 SCT080 OVC120 02/02 A2970 1070 96 -100 000/00 RMK AO2
14837KMSN MSN20101116230010611/16/10 23:00:31  5-MIN KMSN 170500Z 00000KT 5SM BR BKN055 OVC120 03/02 A2970 1070 92 -100 000/00 RMK AO2
14837KMSN MSN20101116230510611/16/10 23:05:31  5-MIN KMSN 170505Z 00000KT 5SM BR BKN055 OVC120 02/02 A2970 1070 96 -100 000/00 RMK AO2
14837KMSN MSN20101116231010611/16/10 23:10:31  5-MIN KMSN 170510Z 28003KT 5SM BR BKN055 OVC120 02/01 A2971 1060 92 -100 280/03 RMK AO2
14837KMSN MSN20101116231509911/16/10 23:15:31  5-MIN KMSN 170515Z 00000KT 5SM BR OVC055 02/01 A2971 1060 92 -100 000/00 RMK AO2
14837KMSN MSN20101116232009911/16/10 23:20:31  5-MIN KMSN 170520Z 00000KT 5SM BR OVC060 03/02 A2970 1070 92 -100 000/00 RMK AO2
14837KMSN MSN20101116232509911/16/10 23:25:31  5-MIN KMSN 170525Z 00000KT 5SM BR OVC060 03/02 A2970 1070 92 -100 000/00 RMK AO2
14837KMSN MSN20101116233010611/16/10 23:30:31  5-MIN KMSN 170530Z 00000KT 5SM BR BKN060 OVC080 03/02 A2970 1060 92 -100 000/00 RMK AO2
14837KMSN MSN20101116233510611/16/10 23:35:31  5-MIN KMSN 170535Z 00000KT 5SM BR BKN055 OVC080 03/02 A2971 1060 96 -100 000/00 RMK AO2
14837KMSN MSN20101116234011311/16/10 23:40:31  5-MIN KMSN 170540Z 00000KT 5SM BR SCT060 BKN080 OVC120 03/02 A2971 1060 92 -100 000/00 RMK AO2
14837KMSN MSN20101116234511311/16/10 23:45:31  5-MIN KMSN 170545Z 00000KT 4SM BR SCT060 BKN080 OVC120 03/02 A2971 1060 92 -100 000/00 RMK AO2
14837KMSN MSN20101116235015811/16/10 23:50:31  5-MIN KMSN 170550Z 00000KT 4SM BR FEW060 SCT080 OVC120 03/02 A2971 1060 92 -100 000/00 RMK AO2 SLP064 T00280017 10044 20000 401000000 53010
14837KMSN MSN20101116235511311/16/10 23:55:31  5-MIN KMSN 170555Z 00000KT 4SM BR FEW060 SCT080 OVC120 02/02 A2971 1060 96 -100 000/00 RMK AO2
14837KMSN MSN20101117000010611/17/10 00:00:32  5-MIN KMSN 170600Z 00000KT 4SM BR FEW080 OVC120 02/02 A2971 1060 96 -100 000/00 RMK AO2
14837KMSN MSN20101117000510611/17/10 00:05:31  5-MIN KMSN 170605Z 00000KT 4SM BR FEW080 OVC120 02/01 A2971 1060 92 -100 000/00 RMK AO2
14837KMSN MSN20101117001009911/17/10 00:10:31  5-MIN KMSN 170610Z 27004KT 3SM BR OVC120 02/01 A2971 1060 92 -200 270/04 RMK AO2
14837KMSN MSN20101117001509911/17/10 00:15:31  5-MIN KMSN 170615Z VRB03KT 3SM BR OVC120 02/02 A2972 1050 96 -200 VRB/03 RMK AO2
14837KMSN MSN20101117002009611/17/10 00:20:31  5-MIN KMSN 170620Z 33004KT 4SM BR OVC120 03/02 A2972 1050 92 0 330/04 RMK AO2
14837KMSN MSN20101117002510611/17/10 00:25:31  5-MIN KMSN 170625Z 32003KT 4SM BR FEW065 OVC120 03/02 A2972 1050 96 -100 320/03 RMK AO2
14837KMSN MSN20101117003010611/17/10 00:30:31  5-MIN KMSN 170630Z 29004KT 3SM BR SCT060 OVC120 03/02 A2972 1050 96 -100 290/04 RMK AO2
14837KMSN MSN20101117003510311/17/10 00:35:31  5-MIN KMSN 170635Z 31004KT 3SM BR SCT060 OVC120 04/03 A2972 1050 92 0 310/04 RMK AO2
14837KMSN MSN20101117004010311/17/10 00:40:31  5-MIN KMSN 170640Z 31004KT 4SM BR SCT065 OVC120 04/03 A2972 1050 92 0 310/04 RMK AO2
14837KMSN MSN20101117004510311/17/10 00:45:31  5-MIN KMSN 170645Z 32004KT 4SM BR SCT065 OVC120 04/03 A2972 1050 92 0 310/04 RMK AO2
14837KMSN MSN20101117005012711/17/10 00:50:31  5-MIN KMSN 170650Z 32004KT 4SM BR SCT026 BKN065 OVC120 04/03 A2973 1040 92 0 310/04 RMK AO2 SLP071 T00390028
14837KMSN MSN20101117005511011/17/10 00:55:31  5-MIN KMSN 170655Z 32003KT 4SM BR BKN026 BKN065 OVC120 04/03 A2973 1040 92 0 320/03 RMK AO2
14837KMSN MSN20101117010011211/17/10 01:00:31  5-MIN KMSN 170700Z 32003KT 4SM BR BKN026 BKN070 OVC120 04/03 A2973 1040 92 100 320/03 RMK AO2
14837KMSN MSN20101117010511211/17/10 01:05:31  5-MIN KMSN 170705Z 33003KT 4SM BR BKN026 BKN070 OVC120 04/03 A2973 1040 92 100 330/03 RMK AO2
14837KMSN MSN20101117011011211/17/10 01:10:31  5-MIN KMSN 170710Z 34004KT 4SM BR BKN026 BKN032 OVC055 04/03 A2973 1040 92 100 340/04 RMK AO2
14837KMSN MSN20101117011511211/17/10 01:15:31  5-MIN KMSN 170715Z 34004KT 5SM BR BKN028 BKN033 OVC055 04/03 A2973 1040 92 100 330/04 RMK AO2
14837KMSN MSN20101117012010511/17/10 01:20:31  5-MIN KMSN 170720Z 34004KT 5SM BR SCT028 OVC055 04/03 A2973 1040 92 100 340/04 RMK AO2
14837KMSN MSN20101117012510311/17/10 01:25:31  5-MIN KMSN 170725Z 32004KT 5SM BR FEW028 OVC050 04/03 A2973 1040 92 0 320/04 RMK AO2
14837KMSN MSN20101117013010311/17/10 01:30:31  5-MIN KMSN 170730Z 31004KT 5SM BR FEW026 OVC050 04/03 A2974 1030 92 0 310/04 RMK AO2
14837KMSN MSN20101117013509611/17/10 01:35:31  5-MIN KMSN 170735Z 31004KT 5SM BR OVC050 04/03 A2974 1030 92 0 310/04 RMK AO2
14837KMSN MSN20101117014009811/17/10 01:40:31  5-MIN KMSN 170740Z 00000KT 5SM BR OVC055 05/03 A2974 1030 89 100 000/00 RMK AO2
14837KMSN MSN20101117014510511/17/10 01:45:31  5-MIN KMSN 170745Z 00000KT 5SM BR BKN050 OVC065 05/03 A2974 1030 89 100 000/00 RMK AO2
14837KMSN MSN20101117015012211/17/10 01:50:31  5-MIN KMSN 170750Z 00000KT 5SM BR BKN050 OVC065 05/03 A2975 1030 89 100 000/00 RMK AO2 SLP077 T00500033
14837KMSN MSN20101117015509811/17/10 01:55:31  5-MIN KMSN 170755Z 00000KT 5SM BR OVC050 05/03 A2975 1020 89 100 000/00 RMK AO2
14837KMSN MSN20101117020010511/17/10 02:00:31  5-MIN KMSN 170800Z 00000KT 5SM BR BKN055 OVC070 05/03 A2975 1020 89 100 000/00 RMK AO2
14837KMSN MSN20101117020510511/17/10 02:05:31  5-MIN KMSN 170805Z 00000KT 5SM BR BKN055 OVC070 05/03 A2975 1020 89 100 000/00 RMK AO2
14837KMSN MSN20101117021012111/17/10 02:10:31  5-MIN KMSN 170810Z 00000KT 5SM -RA BR BKN055 OVC065 05/03 A2976 1020 89 100 000/00 RMK AO2 RAB06 P0000
14837KMSN MSN20101117021511411/17/10 02:15:31  5-MIN KMSN 170815Z 29003KT 5SM -RA BR OVC050 05/03 A2976 1020 89 100 290/03 RMK AO2 RAB06 P0000
14837KMSN MSN20101117022011311/17/10 02:20:31  5-MIN KMSN 170820Z 00000KT 5SM BR OVC050 05/03 A2976 1010 89 100 000/00 RMK AO2 RAB06E16 P0000
14837KMSN MSN20101117022511111/17/10 02:25:31  5-MIN KMSN 170825Z 00000KT 4SM BR OVC050 04/03 A2976 1010 92 0 000/00 RMK AO2 RAB06E16 P0000
14837KMSN MSN20101117023012011/17/10 02:30:31  5-MIN KMSN 170830Z 00000KT 4SM BR FEW040 OVC050 05/04 A2976 1010 92 100 000/00 RMK AO2 RAB06E16 P0000
14837KMSN MSN20101117023511311/17/10 02:35:31  5-MIN KMSN 170835Z 00000KT 4SM BR OVC050 05/04 A2977 1010 92 100 000/00 RMK AO2 RAB06E16 P0000
14837KMSN MSN20101117024011311/17/10 02:40:31  5-MIN KMSN 170840Z 00000KT 5SM BR OVC048 05/04 A2977 1010 92 100 000/00 RMK AO2 RAB06E16 P0000
14837KMSN MSN20101117024512011/17/10 02:45:31  5-MIN KMSN 170845Z 00000KT 5SM BR FEW024 OVC046 05/03 A2977 1000 89 100 000/00 RMK AO2 RAB06E16 P0000
14837KMSN MSN20101117025015611/17/10 02:50:31  5-MIN KMSN 170850Z 00000KT 5SM BR SCT026 BKN042 OVC050 05/03 A2977 1000 89 100 000/00 RMK AO2 RAB06E16 SLP086 P0000 60000 T00500033 51010
14837KMSN MSN20101117025511211/17/10 02:55:31  5-MIN KMSN 170855Z 00000KT 5SM BR BKN026 BKN042 OVC050 05/03 A2977 1000 89 100 000/00 RMK AO2
14837KMSN MSN20101117030011211/17/10 03:00:31  5-MIN KMSN 170900Z 00000KT 5SM BR BKN026 BKN042 OVC050 05/03 A2977 1000 89 100 000/00 RMK AO2
14837KMSN MSN20101117030510511/17/10 03:05:31  5-MIN KMSN 170905Z 26003KT 5SM BR BKN026 OVC042 05/03 A2978 1000 89 100 260/03 RMK AO2
14837KMSN MSN20101117031009811/17/10 03:10:31  5-MIN KMSN 170910Z VRB03KT 5SM BR OVC026 05/03 A2978 1000 89 100 VRB/03 RMK AO2
14837KMSN MSN20101117031510511/17/10 03:15:31  5-MIN KMSN 170915Z 00000KT 6SM BR BKN026 OVC031 05/03 A2978 1000 89 100 000/00 RMK AO2
14837KMSN MSN20101117032010511/17/10 03:20:31  5-MIN KMSN 170920Z 26003KT 5SM BR BKN026 OVC031 05/03 A2978 1000 89 100 260/03 RMK AO2
14837KMSN MSN20101117032510411/17/10 03:25:31  5-MIN KMSN 170925Z 28003KT 5SM BR SCT026 OVC033 05/03 A2978 990 89 100 280/03 RMK AO2
14837KMSN MSN20101117033011111/17/10 03:30:31  5-MIN KMSN 170930Z 29003KT 5SM BR FEW026 BKN033 OVC046 05/03 A2978 990 89 100 280/03 RMK AO2
14837KMSN MSN20101117033511111/17/10 03:35:31  5-MIN KMSN 170935Z 00000KT 5SM BR FEW026 BKN033 OVC060 05/03 A2978 990 89 100 000/00 RMK AO2
14837KMSN MSN20101117034012711/17/10 03:40:31  5-MIN KMSN 170940Z VRB03KT 5SM -RA BR BKN033 BKN046 OVC060 05/03 A2979 990 89 100 VRB/03 RMK AO2 RAB37 P0000
14837KMSN MSN20101117034512711/17/10 03:45:31  5-MIN KMSN 170945Z 00000KT 5SM -RA BR BKN033 BKN046 OVC060 05/04 A2979 990 92 100 000/00 RMK AO2 RAB37 P0000
14837KMSN MSN20101117035014411/17/10 03:50:31  5-MIN KMSN 170950Z 27003KT 5SM -RA BR BKN033 BKN046 OVC060 05/04 A2979 980 92 100 270/03 RMK AO2 RAB37 SLP092 P0000 T00500039
14837KMSN MSN20101117035511411/17/10 03:55:31  5-MIN KMSN 170955Z 00000KT 4SM -RA BR BKN031 OVC060 05/04 A2979 980 92 100 000/00 RMK AO2 P0000
14837KMSN MSN20101117040010511/17/10 04:00:31  5-MIN KMSN 171000Z 28003KT 4SM -RA BR OVC031 05/04 A2980 980 92 0 280/03 RMK AO2 P0000
14837KMSN MSN20101117040510511/17/10 04:05:31  5-MIN KMSN 171005Z VRB03KT 4SM -RA BR OVC031 05/04 A2980 980 92 0 VRB/03 RMK AO2 P0000
14837KMSN MSN20101117041010511/17/10 04:10:31  5-MIN KMSN 171010Z 28004KT 4SM -RA BR OVC031 05/04 A2980 980 92 0 280/04 RMK AO2 P0000
14837KMSN MSN20101117041510511/17/10 04:15:31  5-MIN KMSN 171015Z 28004KT 4SM -RA BR OVC031 05/03 A2980 970 89 0 280/04 RMK AO2 P0000
14837KMSN MSN20101117042010511/17/10 04:20:31  5-MIN KMSN 171020Z 28005KT 4SM -RA BR OVC031 05/04 A2980 970 92 0 280/05 RMK AO2 P0000
14837KMSN MSN20101117042510511/17/10 04:25:31  5-MIN KMSN 171025Z 29005KT 3SM -RA BR OVC031 05/04 A2981 970 92 0 290/05 RMK AO2 P0001
14837KMSN MSN20101117043010511/17/10 04:30:31  5-MIN KMSN 171030Z 29004KT 4SM -RA BR OVC033 04/04 A2981 970 96 0 290/04 RMK AO2 P0001
14837KMSN MSN20101117043510511/17/10 04:35:31  5-MIN KMSN 171035Z 28004KT 4SM -RA BR OVC033 04/04 A2981 970 96 0 280/04 RMK AO2 P0001
14837KMSN MSN20101117044010511/17/10 04:40:31  5-MIN KMSN 171040Z 28004KT 4SM -RA BR OVC035 04/04 A2981 970 96 0 280/04 RMK AO2 P0001
14837KMSN MSN20101117044510511/17/10 04:45:31  5-MIN KMSN 171045Z 29004KT 4SM -RA BR OVC033 04/04 A2981 960 96 0 290/04 RMK AO2 P0001
14837KMSN MSN20101117045012211/17/10 04:50:31  5-MIN KMSN 171050Z 30003KT 3SM -RA BR OVC035 04/04 A2982 960 96 0 300/03 RMK AO2 SLP102 P0001 T00440039
14837KMSN MSN20101117045511211/17/10 04:55:31  5-MIN KMSN 171055Z 00000KT 3SM -RA BR FEW007 OVC035 04/04 A2982 960 96 0 000/00 RMK AO2 P0000
14837KMSN MSN20101117050011211/17/10 05:00:31  5-MIN KMSN 171100Z 31003KT 3SM -RA BR SCT007 OVC033 04/04 A2982 960 96 0 310/03 RMK AO2 P0000
14837KMSN MSN20101117050511211/17/10 05:05:31  5-MIN KMSN 171105Z 00000KT 3SM -RA BR SCT007 OVC033 04/04 A2982 960 96 0 000/00 RMK AO2 P0000
14837KMSN MSN20101117051011211/17/10 05:10:31  5-MIN KMSN 171110Z 00000KT 3SM -RA BR SCT007 OVC031 04/04 A2983 950 96 0 000/00 RMK AO2 P0001
14837KMSN MSN20101117051511211/17/10 05:15:31  5-MIN KMSN 171115Z 00000KT 4SM -RA BR BKN007 OVC031 04/04 A2983 950 96 0 000/00 RMK AO2 P0001
14837KMSN MSN20101117052011211/17/10 05:20:31  5-MIN KMSN 171120Z 28003KT 4SM -RA BR BKN007 OVC031 04/04 A2983 950 96 0 280/03 RMK AO2 P0001
14837KMSN MSN20101117052511211/17/10 05:25:31  5-MIN KMSN 171125Z 29004KT 4SM -RA BR BKN007 OVC031 04/04 A2983 950 96 0 290/04 RMK AO2 P0001
14837KMSN MSN20101117053011911/17/10 05:30:31  5-MIN KMSN 171130Z 29004KT 4SM -RA BR BKN007 BKN012 OVC031 04/04 A2983 950 96 0 290/04 RMK AO2 P0001
14837KMSN MSN20101117053511911/17/10 05:35:31  5-MIN KMSN 171135Z 29003KT 3SM -RA BR BKN007 BKN012 OVC031 04/04 A2984 940 96 0 290/03 RMK AO2 P0001
14837KMSN MSN20101117054011911/17/10 05:40:31  5-MIN KMSN 171140Z 29003KT 3SM -RA BR SCT007 BKN012 OVC031 04/04 A2984 940 96 0 290/03 RMK AO2 P0001
14837KMSN MSN20101117054511211/17/10 05:45:31  5-MIN KMSN 171145Z 29003KT 3SM -RA BR SCT007 OVC012 04/04 A2984 940 96 0 290/03 RMK AO2 P0002
14837KMSN MSN20101117055015911/17/10 05:50:31  5-MIN KMSN 171150Z 30004KT 3SM -RA BR FEW007 OVC012 04/04 A2984 940 96 0 300/04 RMK AO2 SLP112 P0002 60004 70004 T00440039 10050 20022 53022
14837KMSN MSN20101117055511211/17/10 05:55:31  5-MIN KMSN 171155Z 30004KT 3SM -RA BR FEW007 OVC012 04/04 A2984 940 96 0 300/04 RMK AO2 P0000
14837KMSN MSN20101117060011211/17/10 06:00:31  5-MIN KMSN 171200Z 32003KT 3SM -RA BR FEW007 OVC012 04/04 A2985 930 96 0 320/03 RMK AO2 P0000
14837KMSN MSN20101117060510511/17/10 06:05:31  5-MIN KMSN 171205Z 32003KT 3SM -RA BR OVC012 04/04 A2985 930 96 0 320/03 RMK AO2 P0000
14837KMSN MSN20101117061010511/17/10 06:10:31  5-MIN KMSN 171210Z 31003KT 3SM -RA BR OVC012 04/04 A2985 930 96 0 310/03 RMK AO2 P0001
14837KMSN MSN20101117061510511/17/10 06:15:31  5-MIN KMSN 171215Z 00000KT 3SM -RA BR OVC012 04/04 A2985 930 96 0 000/00 RMK AO2 P0001
14837KMSN MSN20101117062010511/17/10 06:20:31  5-MIN KMSN 171220Z 00000KT 3SM -RA BR OVC012 04/04 A2986 920 96 0 000/00 RMK AO2 P0001
14837KMSN MSN20101117062510511/17/10 06:25:31  5-MIN KMSN 171225Z 31003KT 3SM -RA BR OVC014 05/04 A2986 920 92 0 300/03 RMK AO2 P0001
14837KMSN MSN20101117063010511/17/10 06:30:31  5-MIN KMSN 171230Z 31003KT 3SM -RA BR OVC014 05/04 A2986 920 92 0 310/03 RMK AO2 P0001
14837KMSN MSN20101117063510511/17/10 06:35:31  5-MIN KMSN 171235Z 31004KT 3SM -RA BR OVC014 05/04 A2987 920 92 0 310/04 RMK AO2 P0001
14837KMSN MSN20101117064010511/17/10 06:40:31  5-MIN KMSN 171240Z 31004KT 3SM -RA BR OVC016 05/04 A2987 910 92 0 310/04 RMK AO2 P0001
14837KMSN MSN20101117064511211/17/10 06:45:31  5-MIN KMSN 171245Z 31004KT 3SM -RA BR BKN016 OVC026 05/04 A2987 910 92 0 310/04 RMK AO2 P0001
14837KMSN MSN20101117065012911/17/10 06:50:31  5-MIN KMSN 171250Z 32005KT 3SM -RA BR BKN016 OVC028 05/04 A2987 910 92 0 320/05 RMK AO2 SLP123 P0001 T00500039
14837KMSN MSN20101117065511911/17/10 06:55:31  5-MIN KMSN 171255Z 31004KT 5SM -RA BR BKN016 BKN028 OVC055 05/04 A2988 910 92 0 310/04 RMK AO2 P0000
14837KMSN MSN20101117070011911/17/10 07:00:31  5-MIN KMSN 171300Z 32004KT 5SM -RA BR BKN018 BKN028 OVC055 05/03 A2988 900 89 0 310/04 RMK AO2 P0000
14837KMSN MSN20101117070511211/17/10 07:05:31  5-MIN KMSN 171305Z 31004KT 5SM -RA BR BKN018 OVC028 05/03 A2988 900 89 0 310/04 RMK AO2 P0000
14837KMSN MSN20101117071011411/17/10 07:10:31  5-MIN KMSN 171310Z 32005KT 6SM BR BKN020 OVC028 05/03 A2989 900 89 0 320/05 RMK AO2 RAE07 P0000
14837KMSN MSN20101117071512111/17/10 07:15:31  5-MIN KMSN 171315Z 31004KT 5SM BR FEW016 BKN020 OVC028 05/03 A2989 890 89 0 310/04 RMK AO2 RAE07 P0000
14837KMSN MSN20101117072011411/17/10 07:20:31  5-MIN KMSN 171320Z 31005KT 6SM BR FEW016 BKN020 05/03 A2989 890 89 0 310/05 RMK AO2 RAE07 P0000
14837KMSN MSN20101117072511411/17/10 07:25:31  5-MIN KMSN 171325Z 31005KT 5SM BR SCT016 OVC022 05/03 A2990 890 89 0 310/05 RMK AO2 RAE07 P0000
14837KMSN MSN20101117073011411/17/10 07:30:31  5-MIN KMSN 171330Z 31005KT 5SM BR BKN014 OVC022 05/03 A2990 880 89 0 310/05 RMK AO2 RAE07 P0000
14837KMSN MSN20101117073512111/17/10 07:35:31  5-MIN KMSN 171335Z 33006KT 4SM BR BKN014 BKN022 OVC030 05/03 A2990 880 89 0 320/06 RMK AO2 RAE07 P0000
14837KMSN MSN20101117074012111/17/10 07:40:31  5-MIN KMSN 171340Z 32005KT 4SM BR SCT014 BKN022 OVC030 05/03 A2991 880 89 0 320/05 RMK AO2 RAE07 P0000
14837KMSN MSN20101117074512111/17/10 07:45:31  5-MIN KMSN 171345Z 32006KT 4SM BR SCT014 BKN022 OVC030 05/03 A2991 870 89 0 320/06 RMK AO2 RAE07 P0000
14837KMSN MSN20101117075013811/17/10 07:50:31  5-MIN KMSN 171350Z 33005KT 4SM BR SCT014 BKN022 OVC030 05/03 A2991 870 89 0 330/05 RMK AO2 RAE07 SLP137 P0000 T00500033
14837KMSN MSN20101117075510911/17/10 07:55:31  5-MIN KMSN 171355Z 33004KT 5SM BR FEW014 BKN022 OVC030 05/03 A2992 870 89 0 320/04 RMK AO2
14837KMSN MSN20101117080010911/17/10 08:00:31  5-MIN KMSN 171400Z 32005KT 5SM BR SCT016 BKN022 OVC030 05/04 A2992 870 92 0 320/05 RMK AO2
14837KMSN MSN20101117080510911/17/10 08:05:31  5-MIN KMSN 171405Z 32006KT 5SM BR SCT016 BKN022 OVC030 05/03 A2992 870 89 0 320/06 RMK AO2
14837KMSN MSN20101117081010211/17/10 08:10:31  5-MIN KMSN 171410Z 32008KT 5SM BR BKN016 OVC022 05/03 A2992 860 89 0 320/08 RMK AO2
14837KMSN MSN20101117081510511/17/10 08:15:31  5-MIN KMSN 171415Z 32007KT 6SM BR BKN016 OVC022 05/03 A2993 860 89 -100 320/07 RMK AO2
14837KMSN MSN20101117082010511/17/10 08:20:31  5-MIN KMSN 171420Z 32006KT 6SM BR BKN016 OVC022 05/03 A2993 860 89 -100 320/06 RMK AO2
14837KMSN MSN20101117082509811/17/10 08:25:31  5-MIN KMSN 171425Z 32007KT 6SM BR OVC016 05/03 A2993 850 89 -100 320/07 RMK AO2
14837KMSN MSN20101117083009811/17/10 08:30:31  5-MIN KMSN 171430Z 33008KT 6SM BR OVC016 05/03 A2993 850 89 -100 330/08 RMK AO2
14837KMSN MSN20101117083509811/17/10 08:35:31  5-MIN KMSN 171435Z 33007KT 6SM BR OVC016 05/03 A2993 850 89 -100 320/07 RMK AO2
14837KMSN MSN20101117084009811/17/10 08:40:31  5-MIN KMSN 171440Z 33006KT 6SM BR OVC014 05/03 A2994 850 89 -100 330/06 RMK AO2
14837KMSN MSN20101117084509811/17/10 08:45:31  5-MIN KMSN 171445Z 33009KT 6SM BR OVC014 05/03 A2994 850 89 -100 330/09 RMK AO2
14837KMSN MSN20101117085014011/17/10 08:50:31  5-MIN KMSN 171450Z 33009G14KT 6SM BR BKN010 OVC015 05/03 A2995 840 89 -100 330/09G14 RMK AO2 SLP148 60001 T00500033 53023
14837KMSN MSN20101117085511711/17/10 08:55:31  5-MIN KMSN 171455Z 33008KT 6SM BR BKN010 OVC015 05/03 A2995 840 89 -100 330/08 RMK AO2 CIG 008V013
14837KMSN MSN20101117090011011/17/10 09:00:31  5-MIN KMSN 171500Z 32005KT 6SM BR OVC010 05/04 A2995 840 92 -100 320/05 RMK AO2 CIG 008V013
14837KMSN MSN20101117090511011/17/10 09:05:31  5-MIN KMSN 171505Z 32008KT 6SM BR OVC010 05/04 A2995 830 92 -100 320/08 RMK AO2 CIG 008V013
14837KMSN MSN20101117091011611/17/10 09:10:31  5-MIN KMSN 171510Z 31010G16KT 6SM BR OVC008 05/03 A2996 830 89 -100 310/10G16 RMK AO2 CIG 008V011
14837KMSN MSN20101117091509811/17/10 09:15:31  5-MIN KMSN 171515Z 31009KT 6SM BR OVC008 05/03 A2996 830 89 -100 310/09 RMK AO2
14837KMSN MSN20101117092009811/17/10 09:20:31  5-MIN KMSN 171520Z 32009KT 6SM BR OVC008 05/03 A2996 820 89 -100 320/09 RMK AO2
14837KMSN MSN20101117092509811/17/10 09:25:31  5-MIN KMSN 171525Z 32008KT 5SM BR OVC008 05/03 A2997 820 89 -100 320/08 RMK AO2
14837KMSN MSN20101117093009811/17/10 09:30:31  5-MIN KMSN 171530Z 32007KT 5SM BR OVC008 05/03 A2997 820 89 -100 320/07 RMK AO2
14837KMSN MSN20101117093509811/17/10 09:35:31  5-MIN KMSN 171535Z 33008KT 5SM BR OVC008 05/03 A2997 810 89 -100 320/08 RMK AO2
14837KMSN MSN20101117094009811/17/10 09:40:31  5-MIN KMSN 171540Z 33008KT 5SM BR OVC008 05/03 A2998 810 89 -100 320/08 RMK AO2
14837KMSN MSN20101117094509811/17/10 09:45:31  5-MIN KMSN 171545Z 32006KT 5SM BR OVC008 05/03 A2998 810 89 -100 320/06 RMK AO2
14837KMSN MSN20101117095011511/17/10 09:50:31  5-MIN KMSN 171550Z 32006KT 6SM BR OVC008 05/04 A2998 810 92 -100 320/06 RMK AO2 SLP159 T00500039
14837KMSN MSN20101117095509811/17/10 09:55:31  5-MIN KMSN 171555Z 32009KT 5SM BR OVC008 05/03 A2998 810 89 -100 320/09 RMK AO2
14837KMSN MSN20101117100009811/17/10 10:00:31  5-MIN KMSN 171600Z 32010KT 5SM BR OVC008 05/03 A2998 800 89 -100 320/10 RMK AO2
14837KMSN MSN20101117100511011/17/10 10:05:31  5-MIN KMSN 171605Z 31008KT 5SM BR OVC008 05/03 A2999 800 89 -100 310/08 RMK AO2 CIG 007V012
14837KMSN MSN20101117101010511/17/10 10:10:31  5-MIN KMSN 171610Z 33007KT 5SM BR BKN008 OVC012 05/03 A2999 800 89 -100 320/07 RMK AO2
14837KMSN MSN20101117101511711/17/10 10:15:31  5-MIN KMSN 171615Z 33008KT 5SM BR BKN008 OVC012 05/03 A2999 800 89 -100 330/08 RMK AO2 CIG 007V011
14837KMSN MSN20101117102011711/17/10 10:20:31  5-MIN KMSN 171620Z 33009KT 5SM BR BKN010 OVC014 06/03 A2999 800 85 -100 330/09 RMK AO2 CIG 007V012
14837KMSN MSN20101117102509811/17/10 10:25:31  5-MIN KMSN 171625Z 33008KT 6SM BR OVC012 06/03 A2999 800 85 -100 330/08 RMK AO2
14837KMSN MSN20101117103009811/17/10 10:30:31  5-MIN KMSN 171630Z 33008KT 6SM BR OVC012 06/03 A3000 800 85 -100 330/08 RMK AO2
14837KMSN MSN20101117103509811/17/10 10:35:31  5-MIN KMSN 171635Z 33009KT 6SM BR OVC012 06/03 A3000 790 85 -100 330/09 RMK AO2
14837KMSN MSN20101117104009811/17/10 10:40:31  5-MIN KMSN 171640Z 33009KT 6SM BR OVC012 06/03 A3000 790 85 -100 330/09 RMK AO2
14837KMSN MSN20101117104510411/17/10 10:45:31  5-MIN KMSN 171645Z 34009G15KT 6SM BR OVC012 06/03 A3000 790 85 -100 340/09G15 RMK AO2
14837KMSN MSN20101117105011811/17/10 10:50:31  5-MIN KMSN 171650Z 32008G15KT 7SM OVC012 06/03 A3000 790 85 -100 320/08G15 RMK AO2 SLP168 T00560033
14837KMSN MSN20101117105509511/17/10 10:55:31  5-MIN KMSN 171655Z 31007KT 7SM OVC012 05/03 A3001 790 89 -100 310/07 RMK AO2
14837KMSN MSN20101117110009511/17/10 11:00:31  5-MIN KMSN 171700Z 32008KT 7SM OVC012 05/03 A3001 780 89 -100 320/08 RMK AO2
14837KMSN MSN20101117110509511/17/10 11:05:31  5-MIN KMSN 171705Z 31007KT 7SM OVC012 06/03 A3001 780 85 -100 310/07 RMK AO2
14837KMSN MSN20101117111011411/17/10 11:10:31  5-MIN KMSN 171710Z 33010KT 8SM BKN010 OVC014 05/03 A3001 780 89 -200 330/10 RMK AO2 CIG 009V012
14837KMSN MSN20101117111509511/17/10 11:15:31  5-MIN KMSN 171715Z 33009KT 8SM OVC012 05/03 A3001 780 89 -100 320/09 RMK AO2
14837KMSN MSN20101117112009511/17/10 11:20:31  5-MIN KMSN 171720Z 33007KT 8SM OVC012 05/03 A3001 780 89 -200 330/07 RMK AO2
14837KMSN MSN20101117112509511/17/10 11:25:31  5-MIN KMSN 171725Z 32008KT 7SM OVC012 05/03 A3001 780 89 -200 320/08 RMK AO2
14837KMSN MSN20101117113010711/17/10 11:30:31  5-MIN KMSN 171730Z 32009KT 7SM OVC010 05/03 A3002 780 89 -200 320/09 RMK AO2 CIG 008V012
14837KMSN MSN20101117113511611/17/10 11:35:31  5-MIN KMSN 171735Z 32009G14KT 6SM BR OVC010 05/03 A3002 780 89 -200 320/09G14 RMK AO2 CIG 008V012
14837KMSN MSN20101117114011611/17/10 11:40:31  5-MIN KMSN 171740Z 33008G14KT 6SM BR OVC010 05/03 A3002 770 89 -200 330/08G14 RMK AO2 CIG 007V013
14837KMSN MSN20101117114511011/17/10 11:45:31  5-MIN KMSN 171745Z 31007KT 6SM BR OVC008 05/03 A3002 770 89 -200 310/07 RMK AO2 CIG 007V012
14837KMSN MSN20101117115015511/17/10 11:50:31  5-MIN KMSN 171750Z 32008KT 5SM -DZ BR OVC008 05/03 A3002 770 89 -200 320/08 RMK AO2 DZB50 SLP174 P0000 60001 T00500033 10056 20044 53035
14837KMSN MSN20101117115510811/17/10 11:55:31  5-MIN KMSN 171755Z 32006KT 5SM -DZ BR OVC008 05/03 A3003 770 89 -200 320/06 RMK AO2 P0000
14837KMSN MSN20101117120011411/17/10 12:00:31  5-MIN KMSN 171800Z 32007G14KT 5SM -DZ BR OVC008 05/03 A3003 770 89 -200 320/07G14 RMK AO2 P0000
14837KMSN MSN20101117120512811/17/10 12:05:31  5-MIN KMSN 171805Z 31008G14KT 4SM BR OVC008 04/03 A3003 770 92 -200 310/08G14 RMK AO2 DZE02 CIG 005V010 P0000
14837KMSN MSN20101117121012811/17/10 12:10:31  5-MIN KMSN 171810Z 32009G14KT 3SM BR OVC008 04/03 A3003 760 92 -200 310/09G14 RMK AO2 DZE02 CIG 005V010 P0000
14837KMSN MSN20101117121514611/17/10 12:15:31  5-MIN KMSN 171815Z 30007G14KT 270V330 2 1/2SM -DZ BR OVC008 04/03 A3003 760 92 -200 300/07G14 270V330 RMK AO2 CIG 005V010 P0000
14837KMSN MSN20101117122012211/17/10 12:20:31  5-MIN KMSN 171820Z 32008KT 2SM -DZ BR OVC005 04/03 A3003 760 92 -200 310/08 RMK AO2 TWR VIS 2 1/2 P0000
14837KMSN MSN20101117122512811/17/10 12:25:31  5-MIN KMSN 171825Z 31010G15KT 2SM -DZ BR OVC005 04/03 A3003 760 96 -300 310/10G15 RMK AO2 TWR VIS 2 1/2 P0000
14837KMSN MSN20101117123013011/17/10 12:30:31  5-MIN KMSN 171830Z 31009G15KT 2SM BR OVC005 04/03 A3003 760 96 -300 310/09G15 RMK AO2 TWR VIS 2 1/2 DZE30 P0000
14837KMSN MSN20101117123512411/17/10 12:35:31  5-MIN KMSN 171835Z 32009KT 2 1/2SM BR OVC005 04/03 A3004 750 92 -300 320/09 RMK AO2 SFC VIS 3 DZE30 P0000
14837KMSN MSN20101117124011411/17/10 12:40:31  5-MIN KMSN 171840Z 32011KT 2 1/2SM BR OVC005 04/03 A3004 750 92 -300 320/11 RMK AO2 DZE30 P0000
14837KMSN MSN20101117124512011/17/10 12:45:31  5-MIN KMSN 171845Z 31009G16KT 2 1/2SM BR OVC005 04/03 A3004 750 92 -300 310/09G16 RMK AO2 DZE30 P0000
14837KMSN MSN20101117125013111/17/10 12:50:31  5-MIN KMSN 171850Z 31009KT 2 1/2SM BR OVC005 04/03 A3004 750 92 -300 310/09 RMK AO2 DZE30 SLP182 P0000 T00390028
14837KMSN MSN20101117125510211/17/10 12:55:31  5-MIN KMSN 171855Z 31009KT 2 1/2SM BR OVC005 04/03 A3005 750 92 -300 310/09 RMK AO2
14837KMSN MSN20101117130011211/17/10 13:00:31  5-MIN KMSN 171900Z 31008KT 2 1/2SM BR OVC005 04/03 A3005 750 92 -300 310/08 RMK AO2 SFC VIS 3
14837KMSN MSN20101117130511211/17/10 13:05:31  5-MIN KMSN 171905Z 32010KT 2 1/2SM BR OVC005 04/03 A3005 750 92 -300 320/10 RMK AO2 SFC VIS 3
14837KMSN MSN20101117131013011/17/10 13:10:31  5-MIN KMSN 171910Z 32010G15KT 2 1/2SM BR OVC007 04/03 A3005 740 92 -300 320/10G15 RMK AO2 SFC VIS 4 CIG 005V009
14837KMSN MSN20101117131513011/17/10 13:15:31  5-MIN KMSN 171915Z 32009G14KT 2 1/2SM BR OVC007 04/03 A3005 740 92 -300 320/09G14 RMK AO2 SFC VIS 4 CIG 005V010
14837KMSN MSN20101117132012311/17/10 13:20:31  5-MIN KMSN 171920Z 32010G15KT 4SM BR BKN007 OVC011 04/03 A3005 740 92 -300 320/10G15 RMK AO2 CIG 006V009
14837KMSN MSN20101117132511011/17/10 13:25:31  5-MIN KMSN 171925Z 31008KT 4SM BR OVC007 04/02 A3005 740 89 -300 310/08 RMK AO2 CIG 006V012
14837KMSN MSN20101117133011611/17/10 13:30:31  5-MIN KMSN 171930Z 32011G16KT 5SM BR OVC009 04/02 A3006 740 89 -300 320/11G16 RMK AO2 CIG 007V012
14837KMSN MSN20101117133511611/17/10 13:35:31  5-MIN KMSN 171935Z 32007G16KT 5SM BR OVC009 04/02 A3006 740 89 -300 320/07G16 RMK AO2 CIG 007V012
14837KMSN MSN20101117134011611/17/10 13:40:31  5-MIN KMSN 171940Z 31009G15KT 5SM BR OVC009 04/02 A3006 740 89 -300 310/09G15 RMK AO2 CIG 008V012
14837KMSN MSN20101117134511711/17/10 13:45:31  5-MIN KMSN 171945Z 32009KT 5SM BR BKN009 OVC015 04/02 A3006 740 85 -300 320/09 RMK AO2 CIG 008V012
14837KMSN MSN20101117135013411/17/10 13:50:31  5-MIN KMSN 171950Z 33010KT 6SM BR BKN009 OVC015 04/03 A3006 740 89 -300 330/10 RMK AO2 CIG 008V013 SLP184 T00440028
14837KMSN MSN20101117135511711/17/10 13:55:31  5-MIN KMSN 171955Z 33011KT 6SM BR BKN009 OVC015 04/02 A3005 740 85 -300 330/11 RMK AO2 CIG 009V012
14837KMSN MSN20101117140009811/17/10 14:00:31  5-MIN KMSN 172000Z 32008KT 6SM BR OVC013 04/02 A3005 740 85 -300 320/08 RMK AO2
14837KMSN MSN20101117140510811/17/10 14:05:31  5-MIN KMSN 172005Z 32013G17KT 7SM BKN013 OVC023 04/02 A3006 740 85 -300 310/13G17 RMK AO2
14837KMSN MSN20101117141010811/17/10 14:10:31  5-MIN KMSN 172010Z 33012G18KT 7SM BKN013 BKN023 04/02 A3006 740 82 -300 330/12G18 RMK AO2
14837KMSN MSN20101117141510811/17/10 14:15:31  5-MIN KMSN 172015Z 32009G18KT 8SM BKN013 OVC021 05/02 A3006 740 82 -200 320/09G18 RMK AO2
14837KMSN MSN20101117142010811/17/10 14:20:31  5-MIN KMSN 172020Z 34012G18KT 7SM BKN013 OVC021 04/02 A3006 740 82 -300 340/12G18 RMK AO2
14837KMSN MSN20101117142510811/17/10 14:25:31  5-MIN KMSN 172025Z 33010G18KT 7SM BKN015 OVC021 04/02 A3006 730 82 -300 330/10G18 RMK AO2
14837KMSN MSN20101117143010811/17/10 14:30:31  5-MIN KMSN 172030Z 34010G16KT 7SM BKN015 OVC021 04/02 A3006 730 85 -300 330/10G16 RMK AO2
14837KMSN MSN20101117143510811/17/10 14:35:31  5-MIN KMSN 172035Z 34011G16KT 7SM BKN015 OVC021 04/01 A3006 730 82 -300 340/11G16 RMK AO2
14837KMSN MSN20101117144010111/17/10 14:40:31  5-MIN KMSN 172040Z 34008G16KT 7SM OVC015 04/01 A3006 730 82 -300 340/08G16 RMK AO2
14837KMSN MSN20101117144509511/17/10 14:45:31  5-MIN KMSN 172045Z 33008KT 7SM OVC015 04/01 A3007 730 82 -400 330/08 RMK AO2
14837KMSN MSN20101117145012411/17/10 14:50:31  5-MIN KMSN 172050Z 33010KT 7SM OVC015 04/01 A3007 730 82 -400 330/10 RMK AO2 SLP189 60000 T00390011 51025
14837KMSN MSN20101117145509511/17/10 14:55:31  5-MIN KMSN 172055Z 32010KT 8SM OVC015 04/01 A3007 720 79 -400 320/10 RMK AO2
14837KMSN MSN20101117150009511/17/10 15:00:31  5-MIN KMSN 172100Z 33009KT 8SM OVC015 04/01 A3007 720 79 -400 330/09 RMK AO2
14837KMSN MSN20101117150509511/17/10 15:05:31  5-MIN KMSN 172105Z 34009KT 8SM OVC015 04/01 A3007 720 79 -400 340/09 RMK AO2
14837KMSN MSN20101117151010111/17/10 15:10:31  5-MIN KMSN 172110Z 33006G15KT 9SM OVC017 04/00 A3007 720 76 -400 330/06G15 RMK AO2
14837KMSN MSN20101117151509511/17/10 15:15:31  5-MIN KMSN 172115Z 33008KT 9SM OVC019 04/01 A3007 720 79 -400 330/08 RMK AO2
14837KMSN MSN20101117152009511/17/10 15:20:31  5-MIN KMSN 172120Z 33007KT 9SM OVC019 04/00 A3008 720 76 -400 320/07 RMK AO2
14837KMSN MSN20101117152509511/17/10 15:25:31  5-MIN KMSN 172125Z 35007KT 9SM OVC019 04/00 A3008 720 76 -400 350/07 RMK AO2
14837KMSN MSN20101117153009511/17/10 15:30:31  5-MIN KMSN 172130Z 34008KT 9SM OVC019 04/00 A3008 720 76 -400 340/08 RMK AO2
14837KMSN MSN20101117153509511/17/10 15:35:31  5-MIN KMSN 172135Z 32009KT 9SM OVC019 04/00 A3008 720 76 -400 320/09 RMK AO2
14837KMSN MSN20101117154009611/17/10 15:40:31  5-MIN KMSN 172140Z 32008KT 9SM OVC019 04/M01 A3008 720 73 -400 320/08 RMK AO2
14837KMSN MSN20101117154510211/17/10 15:45:31  5-MIN KMSN 172145Z 32010G15KT 9SM OVC019 04/M01 A3009 710 73 -400 320/10G15 RMK AO2
14837KMSN MSN20101117155012011/17/10 15:50:31  5-MIN KMSN 172150Z 32008G15KT 10SM OVC019 03/M01 A3009 710 76 -400 320/08G15 RMK AO2 SLP196 T00331006
14837KMSN MSN20101117155509711/17/10 15:55:31  5-MIN KMSN 172155Z 32006KT 10SM OVC021 03/M01 A3009 710 76 -400 320/06 RMK AO2
14837KMSN MSN20101117160009711/17/10 16:00:31  5-MIN KMSN 172200Z 33007KT 10SM OVC021 03/M01 A3009 710 72 -400 330/07 RMK AO2
14837KMSN MSN20101117160509711/17/10 16:05:31  5-MIN KMSN 172205Z 32010KT 10SM BKN021 03/M01 A3010 700 76 -500 310/10 RMK AO2
14837KMSN MSN20101117161009711/17/10 16:10:31  5-MIN KMSN 172210Z 32007KT 10SM BKN021 03/M01 A3010 700 72 -500 320/07 RMK AO2
14837KMSN MSN20101117161509711/17/10 16:15:31  5-MIN KMSN 172215Z 32004KT 10SM BKN021 03/M01 A3010 700 72 -500 320/04 RMK AO2
14837KMSN MSN20101117162009711/17/10 16:20:31  5-MIN KMSN 172220Z 33005KT 10SM BKN021 03/M01 A3010 700 72 -500 330/05 RMK AO2
14837KMSN MSN20101117162509711/17/10 16:25:31  5-MIN KMSN 172225Z 31003KT 10SM BKN021 03/M01 A3011 690 75 -500 310/03 RMK AO2
14837KMSN MSN20101117163010411/17/10 16:30:31  5-MIN KMSN 172230Z 31003KT 10SM FEW024 BKN030 03/M01 A3011 690 72 -500 310/03 RMK AO2
14837KMSN MSN20101117163509711/17/10 16:35:31  5-MIN KMSN 172235Z 00000KT 10SM BKN030 03/M01 A3011 690 72 -500 000/00 RMK AO2
14837KMSN MSN20101117164009711/17/10 16:40:31  5-MIN KMSN 172240Z 32003KT 10SM OVC030 03/M01 A3011 690 72 -500 320/03 RMK AO2
14837KMSN MSN20101117164509711/17/10 16:45:31  5-MIN KMSN 172245Z 33003KT 10SM OVC030 03/M01 A3011 690 72 -500 320/03 RMK AO2
14837KMSN MSN20101117165011411/17/10 16:50:31  5-MIN KMSN 172250Z 00000KT 10SM OVC030 03/M01 A3011 690 75 -500 000/00 RMK AO2 SLP203 T00281011
14837KMSN MSN20101117165509711/17/10 16:55:31  5-MIN KMSN 172255Z 32004KT 10SM OVC030 03/M01 A3011 690 75 -500 320/04 RMK AO2
14837KMSN MSN20101117170009711/17/10 17:00:31  5-MIN KMSN 172300Z 31003KT 10SM OVC030 03/M01 A3011 690 72 -500 310/03 RMK AO2
14837KMSN MSN20101117170509711/17/10 17:05:31  5-MIN KMSN 172305Z 00000KT 10SM OVC030 03/M01 A3011 690 75 -500 000/00 RMK AO2
14837KMSN MSN20101117171009711/17/10 17:10:31  5-MIN KMSN 172310Z 30003KT 10SM OVC030 03/M01 A3011 690 75 -500 290/03 RMK AO2
14837KMSN MSN20101117171509711/17/10 17:15:31  5-MIN KMSN 172315Z 30003KT 10SM OVC030 03/M01 A3012 680 75 -500 300/03 RMK AO2
14837KMSN MSN20101117172009711/17/10 17:20:31  5-MIN KMSN 172320Z 30003KT 10SM OVC030 03/M01 A3011 690 75 -500 300/03 RMK AO2
14837KMSN MSN20101117172509711/17/10 17:25:31  5-MIN KMSN 172325Z 29003KT 10SM OVC030 03/M01 A3012 680 75 -500 290/03 RMK AO2
14837KMSN MSN20101117173009711/17/10 17:30:31  5-MIN KMSN 172330Z 00000KT 10SM OVC032 03/M01 A3012 680 75 -500 000/00 RMK AO2
14837KMSN MSN20101117173509711/17/10 17:35:31  5-MIN KMSN 172335Z 00000KT 10SM OVC032 03/M01 A3012 680 75 -600 000/00 RMK AO2
14837KMSN MSN20101117174009711/17/10 17:40:31  5-MIN KMSN 172340Z 00000KT 10SM OVC032 03/M01 A3012 680 79 -600 000/00 RMK AO2
14837KMSN MSN20101117174509711/17/10 17:45:31  5-MIN KMSN 172345Z 00000KT 10SM OVC032 03/M01 A3013 670 79 -600 000/00 RMK AO2
14837KMSN MSN20101117175013811/17/10 17:50:31  5-MIN KMSN 172350Z 26003KT 10SM OVC032 03/M01 A3013 670 79 -600 260/03 RMK AO2 SLP210 60000 T00281006 10050 20022 51015
14837KMSN MSN20101117175509711/17/10 17:55:31  5-MIN KMSN 172355Z 27003KT 10SM OVC032 03/M01 A3013 670 75 -600 270/03 RMK AO2
14837KMSN MSN20101117180009711/17/10 18:00:31  5-MIN KMSN 180000Z 00000KT 10SM OVC032 03/M01 A3013 670 79 -600 000/00 RMK AO2
14837KMSN MSN20101117180509711/17/10 18:05:31  5-MIN KMSN 180005Z 00000KT 10SM OVC032 03/M01 A3013 670 79 -600 000/00 RMK AO2
14837KMSN MSN20101117181009711/17/10 18:10:31  5-MIN KMSN 180010Z 00000KT 10SM OVC032 03/M01 A3013 670 76 -500 000/00 RMK AO2
14837KMSN MSN20101117181509711/17/10 18:15:31  5-MIN KMSN 180015Z 00000KT 10SM OVC032 03/M01 A3014 670 75 -600 000/00 RMK AO2
14837KMSN MSN20101117182009711/17/10 18:20:31  5-MIN KMSN 180020Z 30003KT 10SM OVC032 03/M01 A3014 670 79 -600 300/03 RMK AO2
14837KMSN MSN20101117182509711/17/10 18:25:31  5-MIN KMSN 180025Z 29003KT 10SM OVC032 03/M01 A3014 670 75 -600 290/03 RMK AO2
14837KMSN MSN20101117183009711/17/10 18:30:31  5-MIN KMSN 180030Z 29003KT 10SM OVC032 03/M01 A3014 660 75 -600 290/03 RMK AO2
14837KMSN MSN20101117183509711/17/10 18:35:31  5-MIN KMSN 180035Z 00000KT 10SM OVC032 03/M01 A3014 660 75 -600 000/00 RMK AO2
14837KMSN MSN20101117184009711/17/10 18:40:31  5-MIN KMSN 180040Z 29003KT 10SM OVC034 03/M01 A3014 660 75 -600 290/03 RMK AO2
14837KMSN MSN20101117184509711/17/10 18:45:31  5-MIN KMSN 180045Z 30003KT 10SM OVC034 03/M01 A3014 660 75 -600 300/03 RMK AO2
14837KMSN MSN20101117185011411/17/10 18:50:31  5-MIN KMSN 180050Z 30004KT 10SM OVC034 03/M01 A3014 660 75 -600 300/04 RMK AO2 SLP215 T00281011
14837KMSN MSN20101117185509711/17/10 18:55:31  5-MIN KMSN 180055Z 29003KT 10SM OVC034 03/M01 A3015 660 75 -600 290/03 RMK AO2
14837KMSN MSN20101117190009711/17/10 19:00:31  5-MIN KMSN 180100Z 29004KT 10SM OVC034 03/M01 A3015 650 75 -600 290/04 RMK AO2
14837KMSN MSN20101117190509711/17/10 19:05:31  5-MIN KMSN 180105Z 29004KT 10SM OVC034 03/M01 A3015 650 75 -600 290/04 RMK AO2
14837KMSN MSN20101117191009711/17/10 19:10:31  5-MIN KMSN 180110Z 30004KT 10SM OVC034 03/M01 A3015 650 75 -600 300/04 RMK AO2
14837KMSN MSN20101117191509711/17/10 19:15:31  5-MIN KMSN 180115Z 29005KT 10SM OVC034 03/M01 A3015 650 75 -600 290/05 RMK AO2
14837KMSN MSN20101117192009711/17/10 19:20:31  5-MIN KMSN 180120Z 29005KT 10SM OVC034 03/M01 A3015 650 75 -600 290/05 RMK AO2
14837KMSN MSN20101117192509711/17/10 19:25:31  5-MIN KMSN 180125Z 29004KT 10SM OVC034 03/M01 A3015 650 75 -600 290/04 RMK AO2
14837KMSN MSN20101117193009711/17/10 19:30:31  5-MIN KMSN 180130Z 29005KT 10SM OVC034 03/M01 A3015 650 75 -600 290/05 RMK AO2
14837KMSN MSN20101117193509711/17/10 19:35:31  5-MIN KMSN 180135Z 30005KT 10SM OVC034 03/M01 A3015 650 75 -600 300/05 RMK AO2
14837KMSN MSN20101117194009711/17/10 19:40:31  5-MIN KMSN 180140Z 29005KT 10SM OVC034 03/M01 A3015 650 75 -600 290/05 RMK AO2
14837KMSN MSN20101117194509711/17/10 19:45:31  5-MIN KMSN 180145Z 29005KT 10SM OVC034 03/M01 A3015 650 75 -600 290/05 RMK AO2
14837KMSN MSN20101117195011411/17/10 19:50:31  5-MIN KMSN 180150Z 29005KT 10SM BKN034 03/M01 A3015 650 75 -600 290/05 RMK AO2 SLP218 T00281011
14837KMSN MSN20101117195509711/17/10 19:55:31  5-MIN KMSN 180155Z 30005KT 10SM OVC034 03/M01 A3015 650 75 -600 300/05 RMK AO2
14837KMSN MSN20101117200009711/17/10 20:00:31  5-MIN KMSN 180200Z 30005KT 10SM BKN034 03/M01 A3015 650 75 -600 300/05 RMK AO2
14837KMSN MSN20101117200509711/17/10 20:05:31  5-MIN KMSN 180205Z 29004KT 10SM BKN034 02/M01 A3015 650 78 -700 290/04 RMK AO2
14837KMSN MSN20101117201009711/17/10 20:10:31  5-MIN KMSN 180210Z 29004KT 10SM BKN034 02/M01 A3015 650 78 -700 290/04 RMK AO2
14837KMSN MSN20101117201509711/17/10 20:15:31  5-MIN KMSN 180215Z 30005KT 10SM BKN034 02/M01 A3015 650 78 -700 300/05 RMK AO2
14837KMSN MSN20101117202009711/17/10 20:20:31  5-MIN KMSN 180220Z 29003KT 10SM BKN034 02/M01 A3015 650 78 -700 280/03 RMK AO2
14837KMSN MSN20101117202509711/17/10 20:25:31  5-MIN KMSN 180225Z 29003KT 10SM SCT034 02/M01 A3016 650 82 -700 290/03 RMK AO2
14837KMSN MSN20101117203009711/17/10 20:30:31  5-MIN KMSN 180230Z 29004KT 10SM FEW034 02/M02 A3016 640 78 -700 290/04 RMK AO2
14837KMSN MSN20101117203509711/17/10 20:35:31  5-MIN KMSN 180235Z 30004KT 10SM FEW034 02/M02 A3016 640 78 -700 300/04 RMK AO2
14837KMSN MSN20101117204009711/17/10 20:40:31  5-MIN KMSN 180240Z 29003KT 10SM FEW034 02/M02 A3017 640 78 -700 290/03 RMK AO2
14837KMSN MSN20101117204509411/17/10 20:45:31  5-MIN KMSN 180245Z 29003KT 10SM CLR 02/M02 A3017 640 78 -700 290/03 RMK AO2
14837KMSN MSN20101117205011711/17/10 20:50:31  5-MIN KMSN 180250Z 29003KT 10SM CLR 01/M02 A3017 640 82 -800 290/03 RMK AO2 SLP224 T00111017 53020
14837KMSN MSN20101117205509411/17/10 20:55:31  5-MIN KMSN 180255Z 29004KT 10SM CLR 01/M02 A3017 640 82 -800 290/04 RMK AO2
14837KMSN MSN20101117210009411/17/10 21:00:31  5-MIN KMSN 180300Z 29003KT 10SM CLR 01/M02 A3017 640 82 -800 290/03 RMK AO2
14837KMSN MSN20101117210509411/17/10 21:05:31  5-MIN KMSN 180305Z 29003KT 10SM CLR 01/M02 A3016 640 82 -800 290/03 RMK AO2
14837KMSN MSN20101117211009411/17/10 21:10:31  5-MIN KMSN 180310Z 00000KT 10SM CLR 01/M02 A3016 640 82 -800 000/00 RMK AO2
14837KMSN MSN20101117211509411/17/10 21:15:31  5-MIN KMSN 180315Z 00000KT 10SM CLR 01/M02 A3016 640 82 -800 000/00 RMK AO2
14837KMSN MSN20101117212009411/17/10 21:20:31  5-MIN KMSN 180320Z 29003KT 10SM CLR 01/M02 A3017 640 85 -900 290/03 RMK AO2
14837KMSN MSN20101117212509411/17/10 21:25:31  5-MIN KMSN 180325Z 00000KT 10SM CLR 01/M02 A3017 640 82 -900 000/00 RMK AO2
14837KMSN MSN20101117213009411/17/10 21:30:31  5-MIN KMSN 180330Z 00000KT 10SM CLR 01/M02 A3017 630 85 -900 000/00 RMK AO2
14837KMSN MSN20101117213509411/17/10 21:35:31  5-MIN KMSN 180335Z 00000KT 10SM CLR 01/M02 A3017 630 85 -900 000/00 RMK AO2
14837KMSN MSN20101117214009411/17/10 21:40:31  5-MIN KMSN 180340Z 29004KT 10SM CLR 01/M02 A3018 630 85 -900 290/04 RMK AO2
14837KMSN MSN20101117214509411/17/10 21:45:31  5-MIN KMSN 180345Z 30004KT 10SM CLR 01/M02 A3018 630 85 -900 300/04 RMK AO2
14837KMSN MSN20101117215011111/17/10 21:50:31  5-MIN KMSN 180350Z 30004KT 10SM CLR 01/M02 A3018 620 85 -900 300/04 RMK AO2 SLP228 T00061017
14837KMSN MSN20101117215509511/17/10 21:55:31  5-MIN KMSN 180355Z 30004KT 10SM CLR 00/M02 A3018 620 85 -1000 300/04 RMK AO2
14837KMSN MSN20101117220009511/17/10 22:00:31  5-MIN KMSN 180400Z 30004KT 10SM CLR 00/M02 A3019 620 85 -1000 300/04 RMK AO2
14837KMSN MSN20101117220509411/17/10 22:05:31  5-MIN KMSN 180405Z 30003KT 10SM CLR 01/M02 A3019 620 82 -900 300/03 RMK AO2
14837KMSN MSN20101117221009411/17/10 22:10:31  5-MIN KMSN 180410Z 30003KT 10SM CLR 01/M02 A3019 620 85 -900 300/03 RMK AO2
14837KMSN MSN20101117221509411/17/10 22:15:31  5-MIN KMSN 180415Z 30003KT 10SM CLR 01/M02 A3019 620 82 -900 300/03 RMK AO2
14837KMSN MSN20101117222009511/17/10 22:20:31  5-MIN KMSN 180420Z 30004KT 10SM CLR 00/M02 A3019 610 85 -1000 300/04 RMK AO2
14837KMSN MSN20101117222509511/17/10 22:25:31  5-MIN KMSN 180425Z 31003KT 10SM CLR 00/M02 A3019 610 85 -1000 300/03 RMK AO2
14837KMSN MSN20101117223009511/17/10 22:30:31  5-MIN KMSN 180430Z 31003KT 10SM CLR 00/M02 A3020 610 85 -1000 310/03 RMK AO2
14837KMSN MSN20101117223509511/17/10 22:35:31  5-MIN KMSN 180435Z 30004KT 10SM CLR 00/M02 A3020 610 85 -1000 300/04 RMK AO2
14837KMSN MSN20101117224009411/17/10 22:40:31  5-MIN KMSN 180440Z 32005KT 10SM CLR 01/M02 A3020 610 82 -900 320/05 RMK AO2
14837KMSN MSN20101117224509511/17/10 22:45:31  5-MIN KMSN 180445Z 32006KT 10SM CLR 00/M02 A3020 610 85 -1000 320/06 RMK AO2
14837KMSN MSN20101117225011111/17/10 22:50:31  5-MIN KMSN 180450Z 33006KT 10SM CLR 01/M02 A3020 610 82 -900 330/06 RMK AO2 SLP235 T00061022
14837KMSN MSN20101117225509511/17/10 22:55:31  5-MIN KMSN 180455Z 33005KT 10SM CLR 00/M02 A3020 610 85 -1000 330/05 RMK AO2
14837KMSN MSN20101117230009511/17/10 23:00:31  5-MIN KMSN 180500Z 33005KT 10SM CLR 00/M03 A3020 610 81 -1000 330/05 RMK AO2
14837KMSN MSN20101117230509511/17/10 23:05:31  5-MIN KMSN 180505Z 33005KT 10SM CLR 00/M03 A3020 600 81 -1000 330/05 RMK AO2
14837KMSN MSN20101117231009511/17/10 23:10:31  5-MIN KMSN 180510Z 32006KT 10SM CLR 00/M03 A3021 600 81 -1000 320/06 RMK AO2
14837KMSN MSN20101117231509511/17/10 23:15:31  5-MIN KMSN 180515Z 31006KT 10SM CLR 00/M03 A3021 600 81 -1000 310/06 RMK AO2
14837KMSN MSN20101117232009511/17/10 23:20:31  5-MIN KMSN 180520Z 31006KT 10SM CLR 00/M03 A3021 600 81 -1000 310/06 RMK AO2
14837KMSN MSN20101117232509511/17/10 23:25:31  5-MIN KMSN 180525Z 31006KT 10SM CLR 00/M03 A3021 600 81 -1000 310/06 RMK AO2
14837KMSN MSN20101117233009511/17/10 23:30:31  5-MIN KMSN 180530Z 31005KT 10SM CLR 00/M03 A3021 590 81 -1000 310/05 RMK AO2
14837KMSN MSN20101117233509511/17/10 23:35:31  5-MIN KMSN 180535Z 32006KT 10SM CLR 00/M03 A3021 590 81 -1000 310/06 RMK AO2
14837KMSN MSN20101117234009811/17/10 23:40:31  5-MIN KMSN 180540Z 32005KT 10SM FEW038 00/M03 A3022 590 78 -1000 310/05 RMK AO2
14837KMSN MSN20101117234509911/17/10 23:45:31  5-MIN KMSN 180545Z 31005KT 10SM SCT038 M01/M03 A3022 590 81 -1100 310/05 RMK AO2
14837KMSN MSN20101117235014311/17/10 23:50:31  5-MIN KMSN 180550Z 32005KT 10SM BKN038 00/M03 A3022 590 78 -1000 310/05 RMK AO2 SLP241 T00001033 10033 21006 400561006 53013
14837KMSN MSN20101117235509811/17/10 23:55:31  5-MIN KMSN 180555Z 32005KT 10SM BKN038 00/M03 A3022 590 81 -1000 310/05 RMK AO2
14837KMSN MSN20101118000009811/18/10 00:00:32  5-MIN KMSN 180600Z 31005KT 10SM BKN038 00/M03 A3022 590 78 -1000 310/05 RMK AO2
14837KMSN MSN20101118000509811/18/10 00:05:31  5-MIN KMSN 180605Z 32005KT 10SM OVC038 00/M03 A3022 590 81 -1000 320/05 RMK AO2
14837KMSN MSN20101118001009811/18/10 00:10:31  5-MIN KMSN 180610Z 32004KT 10SM OVC038 00/M03 A3022 590 81 -1000 320/04 RMK AO2
14837KMSN MSN20101118001509811/18/10 00:15:31  5-MIN KMSN 180615Z 32004KT 10SM OVC038 00/M03 A3022 590 81 -1000 320/04 RMK AO2
14837KMSN MSN20101118002009811/18/10 00:20:31  5-MIN KMSN 180620Z 32004KT 10SM OVC038 00/M03 A3022 590 78 -1000 320/04 RMK AO2
14837KMSN MSN20101118002509911/18/10 00:25:31  5-MIN KMSN 180625Z 31004KT 10SM OVC038 M01/M03 A3022 590 81 -1100 310/04 RMK AO2
14837KMSN MSN20101118003009911/18/10 00:30:31  5-MIN KMSN 180630Z 31004KT 10SM BKN038 M01/M03 A3022 590 81 -1100 300/04 RMK AO2
14837KMSN MSN20101118003509811/18/10 00:35:31  5-MIN KMSN 180635Z 30004KT 10SM OVC036 00/M03 A3022 590 78 -1000 300/04 RMK AO2
14837KMSN MSN20101118004009911/18/10 00:40:31  5-MIN KMSN 180640Z 30003KT 10SM OVC036 M01/M03 A3022 590 81 -1100 300/03 RMK AO2
14837KMSN MSN20101118004509911/18/10 00:45:31  5-MIN KMSN 180645Z 30003KT 10SM OVC036 M01/M03 A3022 590 85 -1100 300/03 RMK AO2
14837KMSN MSN20101118005011611/18/10 00:50:31  5-MIN KMSN 180650Z 00000KT 10SM OVC036 M01/M03 A3022 590 85 -1100 000/00 RMK AO2 SLP243 T10061028
14837KMSN MSN20101118005509811/18/10 00:55:31  5-MIN KMSN 180655Z 29003KT 10SM OVC036 00/M03 A3022 590 81 -1000 290/03 RMK AO2
14837KMSN MSN20101118010009811/18/10 01:00:31  5-MIN KMSN 180700Z 29003KT 10SM OVC036 00/M03 A3022 590 81 -1000 290/03 RMK AO2
14837KMSN MSN20101118010509811/18/10 01:05:31  5-MIN KMSN 180705Z 00000KT 10SM OVC036 00/M03 A3022 590 81 -1000 000/00 RMK AO2
14837KMSN MSN20101118011009811/18/10 01:10:31  5-MIN KMSN 180710Z 00000KT 10SM OVC036 00/M03 A3022 590 81 -1000 000/00 RMK AO2
14837KMSN MSN20101118011509811/18/10 01:15:31  5-MIN KMSN 180715Z 00000KT 10SM OVC034 00/M03 A3022 590 78 -1000 000/00 RMK AO2
14837KMSN MSN20101118012009811/18/10 01:20:31  5-MIN KMSN 180720Z 31003KT 10SM OVC034 00/M03 A3022 590 78 -1000 310/03 RMK AO2
14837KMSN MSN20101118012509811/18/10 01:25:31  5-MIN KMSN 180725Z 00000KT 10SM OVC034 00/M03 A3022 590 78 -1000 000/00 RMK AO2
14837KMSN MSN20101118013009811/18/10 01:30:31  5-MIN KMSN 180730Z 00000KT 10SM OVC034 00/M03 A3022 590 81 -1000 000/00 RMK AO2
14837KMSN MSN20101118013509711/18/10 01:35:31  5-MIN KMSN 180735Z 00000KT 10SM OVC034 01/M03 A3022 590 78 -900 000/00 RMK AO2
14837KMSN MSN20101118014009711/18/10 01:40:31  5-MIN KMSN 180740Z 00000KT 10SM OVC034 01/M03 A3022 590 78 -900 000/00 RMK AO2
14837KMSN MSN20101118014509711/18/10 01:45:31  5-MIN KMSN 180745Z 00000KT 10SM OVC034 01/M03 A3022 590 78 -900 000/00 RMK AO2
14837KMSN MSN20101118015011411/18/10 01:50:31  5-MIN KMSN 180750Z 00000KT 10SM OVC034 01/M03 A3022 590 78 -900 000/00 RMK AO2 SLP241 T00061028
14837KMSN MSN20101118015509811/18/10 01:55:31  5-MIN KMSN 180755Z 00000KT 10SM OVC034 00/M03 A3022 590 81 -1000 000/00 RMK AO2
14837KMSN MSN20101118020009811/18/10 02:00:31  5-MIN KMSN 180800Z 31003KT 10SM OVC034 00/M03 A3022 590 81 -1000 310/03 RMK AO2
14837KMSN MSN20101118020509811/18/10 02:05:31  5-MIN KMSN 180805Z 32004KT 10SM OVC032 00/M03 A3022 590 81 -1000 310/04 RMK AO2
14837KMSN MSN20101118021009811/18/10 02:10:31  5-MIN KMSN 180810Z 31005KT 10SM OVC032 00/M03 A3022 590 78 -1000 310/05 RMK AO2
14837KMSN MSN20101118021509811/18/10 02:15:31  5-MIN KMSN 180815Z 32005KT 10SM OVC034 00/M03 A3022 590 78 -1000 320/05 RMK AO2
14837KMSN MSN20101118022009811/18/10 02:20:31  5-MIN KMSN 180820Z 32007KT 10SM OVC034 00/M03 A3022 590 78 -1000 320/07 RMK AO2
14837KMSN MSN20101118022509811/18/10 02:25:31  5-MIN KMSN 180825Z 32006KT 10SM OVC034 00/M03 A3022 590 78 -1000 320/06 RMK AO2
14837KMSN MSN20101118023009811/18/10 02:30:31  5-MIN KMSN 180830Z 32006KT 10SM OVC034 00/M03 A3022 590 78 -1000 320/06 RMK AO2
14837KMSN MSN20101118023509811/18/10 02:35:31  5-MIN KMSN 180835Z 32005KT 10SM OVC034 00/M03 A3022 590 78 -1000 320/05 RMK AO2
14837KMSN MSN20101118024009811/18/10 02:40:31  5-MIN KMSN 180840Z 32005KT 10SM OVC034 00/M03 A3022 580 78 -1000 310/05 RMK AO2
14837KMSN MSN20101118024509811/18/10 02:45:31  5-MIN KMSN 180845Z 31004KT 10SM OVC034 00/M03 A3022 580 78 -1000 310/04 RMK AO2
14837KMSN MSN20101118025012111/18/10 02:50:31  5-MIN KMSN 180850Z 31006KT 10SM OVC034 00/M03 A3022 580 78 -1000 310/06 RMK AO2 SLP244 T00001033 53017
14837KMSN MSN20101118025509811/18/10 02:55:31  5-MIN KMSN 180855Z 31005KT 10SM OVC034 00/M03 A3023 580 78 -1000 310/05 RMK AO2
14837KMSN MSN20101118030009811/18/10 03:00:31  5-MIN KMSN 180900Z 30005KT 10SM OVC034 00/M03 A3022 580 78 -1000 300/05 RMK AO2
14837KMSN MSN20101118030509811/18/10 03:05:31  5-MIN KMSN 180905Z 30005KT 10SM OVC034 00/M03 A3023 580 78 -1000 300/05 RMK AO2
14837KMSN MSN20101118031009811/18/10 03:10:31  5-MIN KMSN 180910Z 30005KT 10SM OVC034 00/M03 A3023 580 78 -1000 300/05 RMK AO2
14837KMSN MSN20101118031509811/18/10 03:15:31  5-MIN KMSN 180915Z 30004KT 10SM OVC034 00/M03 A3023 580 78 -1000 300/04 RMK AO2
14837KMSN MSN20101118032009811/18/10 03:20:31  5-MIN KMSN 180920Z 30005KT 10SM OVC034 00/M03 A3023 580 78 -1000 300/05 RMK AO2
14837KMSN MSN20101118032509811/18/10 03:25:31  5-MIN KMSN 180925Z 30006KT 10SM OVC034 00/M03 A3023 580 78 -1000 300/06 RMK AO2
14837KMSN MSN20101118033009811/18/10 03:30:31  5-MIN KMSN 180930Z 30006KT 10SM OVC034 00/M03 A3024 570 78 -1000 300/06 RMK AO2
14837KMSN MSN20101118033509811/18/10 03:35:31  5-MIN KMSN 180935Z 29006KT 10SM OVC036 00/M03 A3024 570 78 -1000 290/06 RMK AO2
14837KMSN MSN20101118034009811/18/10 03:40:31  5-MIN KMSN 180940Z 30006KT 10SM OVC036 00/M03 A3024 570 78 -1000 300/06 RMK AO2
14837KMSN MSN20101118034509811/18/10 03:45:31  5-MIN KMSN 180945Z 30005KT 10SM OVC036 00/M03 A3024 570 78 -1000 300/05 RMK AO2
14837KMSN MSN20101118035011511/18/10 03:50:31  5-MIN KMSN 180950Z 30005KT 10SM OVC036 00/M03 A3024 570 78 -1000 300/05 RMK AO2 SLP249 T00001033
14837KMSN MSN20101118035509811/18/10 03:55:31  5-MIN KMSN 180955Z 30004KT 10SM OVC036 00/M03 A3024 570 78 -1000 300/04 RMK AO2
14837KMSN MSN20101118040009811/18/10 04:00:31  5-MIN KMSN 181000Z 30004KT 10SM OVC036 00/M03 A3024 570 78 -1000 300/04 RMK AO2
14837KMSN MSN20101118040509811/18/10 04:05:31  5-MIN KMSN 181005Z 29004KT 10SM OVC036 00/M03 A3024 570 78 -1000 280/04 RMK AO2
14837KMSN MSN20101118041009811/18/10 04:10:31  5-MIN KMSN 181010Z 29004KT 10SM OVC036 00/M04 A3024 570 75 -1000 290/04 RMK AO2
14837KMSN MSN20101118041509811/18/10 04:15:31  5-MIN KMSN 181015Z 30004KT 10SM OVC036 00/M03 A3024 570 78 -1000 300/04 RMK AO2
14837KMSN MSN20101118042009811/18/10 04:20:31  5-MIN KMSN 181020Z 29004KT 10SM OVC034 00/M03 A3024 570 78 -1000 290/04 RMK AO2
14837KMSN MSN20101118042509811/18/10 04:25:31  5-MIN KMSN 181025Z 29004KT 10SM OVC034 00/M03 A3024 570 78 -1000 290/04 RMK AO2
14837KMSN MSN20101118043009811/18/10 04:30:31  5-MIN KMSN 181030Z 30003KT 10SM OVC036 00/M03 A3024 570 78 -1000 300/03 RMK AO2
14837KMSN MSN20101118043509811/18/10 04:35:31  5-MIN KMSN 181035Z 30005KT 10SM OVC036 00/M03 A3024 570 78 -1000 300/05 RMK AO2
14837KMSN MSN20101118044009811/18/10 04:40:31  5-MIN KMSN 181040Z 29003KT 10SM OVC036 00/M03 A3024 570 78 -1000 290/03 RMK AO2
14837KMSN MSN20101118044509811/18/10 04:45:31  5-MIN KMSN 181045Z 30005KT 10SM OVC036 00/M03 A3025 560 78 -1000 300/05 RMK AO2
14837KMSN MSN20101118045011511/18/10 04:50:31  5-MIN KMSN 181050Z 30006KT 10SM OVC036 00/M03 A3025 560 78 -1000 300/06 RMK AO2 SLP252 T00001033
14837KMSN MSN20101118045509811/18/10 04:55:31  5-MIN KMSN 181055Z 30004KT 10SM OVC036 00/M03 A3025 560 78 -1000 300/04 RMK AO2
14837KMSN MSN20101118050009811/18/10 05:00:31  5-MIN KMSN 181100Z 31004KT 10SM OVC036 00/M03 A3025 560 78 -1000 300/04 RMK AO2
14837KMSN MSN20101118050509811/18/10 05:05:31  5-MIN KMSN 181105Z 29005KT 10SM OVC036 00/M03 A3025 560 78 -1000 290/05 RMK AO2
14837KMSN MSN20101118051009811/18/10 05:10:31  5-MIN KMSN 181110Z 29004KT 10SM OVC036 00/M03 A3025 570 78 -1000 290/04 RMK AO2
14837KMSN MSN20101118051509811/18/10 05:15:31  5-MIN KMSN 181115Z 29004KT 10SM OVC036 00/M03 A3025 560 78 -1000 290/04 RMK AO2
14837KMSN MSN20101118052009811/18/10 05:20:31  5-MIN KMSN 181120Z 30005KT 10SM OVC034 01/M03 A3025 560 75 -1000 300/05 RMK AO2
14837KMSN MSN20101118052509811/18/10 05:25:31  5-MIN KMSN 181125Z 30004KT 10SM OVC034 01/M03 A3025 560 75 -1000 290/04 RMK AO2
14837KMSN MSN20101118053009811/18/10 05:30:31  5-MIN KMSN 181130Z 30004KT 10SM OVC034 01/M03 A3024 570 75 -1000 300/04 RMK AO2
14837KMSN MSN20101118053509811/18/10 05:35:31  5-MIN KMSN 181135Z 30004KT 10SM OVC034 01/M03 A3025 560 75 -1000 300/04 RMK AO2
14837KMSN MSN20101118054009811/18/10 05:40:31  5-MIN KMSN 181140Z 30005KT 10SM OVC034 01/M03 A3025 560 75 -1000 300/05 RMK AO2
14837KMSN MSN20101118054509811/18/10 05:45:31  5-MIN KMSN 181145Z 30005KT 10SM OVC034 01/M03 A3025 560 75 -1000 300/05 RMK AO2
14837KMSN MSN20101118055013911/18/10 05:50:31  5-MIN KMSN 181150Z 29006KT 10SM OVC034 01/M03 A3025 560 75 -1000 290/06 RMK AO2 SLP253 70001 T00061033 10006 21006 53002
14837KMSN MSN20101118055509811/18/10 05:55:31  5-MIN KMSN 181155Z 30005KT 10SM OVC034 01/M03 A3025 560 78 -1000 300/05 RMK AO2
14837KMSN MSN20101118060009811/18/10 06:00:31  5-MIN KMSN 181200Z 31004KT 10SM OVC036 01/M03 A3025 560 78 -1000 310/04 RMK AO2
14837KMSN MSN20101118060509811/18/10 06:05:31  5-MIN KMSN 181205Z 31003KT 10SM OVC036 01/M03 A3025 560 78 -1000 310/03 RMK AO2
14837KMSN MSN20101118061009811/18/10 06:10:31  5-MIN KMSN 181210Z 31006KT 10SM OVC038 01/M03 A3025 560 78 -1000 310/06 RMK AO2
14837KMSN MSN20101118061509811/18/10 06:15:31  5-MIN KMSN 181215Z 31003KT 10SM OVC038 01/M03 A3026 560 78 -1000 310/03 RMK AO2
14837KMSN MSN20101118062009811/18/10 06:20:31  5-MIN KMSN 181220Z 30005KT 10SM OVC038 01/M03 A3026 550 78 -1000 300/05 RMK AO2
14837KMSN MSN20101118062509811/18/10 06:25:31  5-MIN KMSN 181225Z 30005KT 10SM OVC038 01/M03 A3026 550 78 -1000 300/05 RMK AO2
14837KMSN MSN20101118063009811/18/10 06:30:31  5-MIN KMSN 181230Z 31005KT 10SM OVC038 01/M03 A3026 550 78 -1000 310/05 RMK AO2
14837KMSN MSN20101118063509811/18/10 06:35:31  5-MIN KMSN 181235Z 31007KT 10SM OVC038 01/M03 A3026 550 78 -1000 310/07 RMK AO2
14837KMSN MSN20101118064009811/18/10 06:40:31  5-MIN KMSN 181240Z 31005KT 10SM OVC038 01/M03 A3026 550 78 -1000 310/05 RMK AO2
14837KMSN MSN20101118064509811/18/10 06:45:31  5-MIN KMSN 181245Z 31005KT 10SM OVC038 01/M03 A3026 550 75 -1000 310/05 RMK AO2
14837KMSN MSN20101118065011511/18/10 06:50:31  5-MIN KMSN 181250Z 31004KT 10SM OVC038 01/M03 A3026 550 78 -1000 310/04 RMK AO2 SLP257 T00061028
14837KMSN MSN20101118065509811/18/10 06:55:31  5-MIN KMSN 181255Z 31005KT 10SM OVC038 01/M03 A3026 550 78 -1000 310/05 RMK AO2
14837KMSN MSN20101118070009811/18/10 07:00:31  5-MIN KMSN 181300Z 31006KT 10SM OVC038 01/M03 A3026 550 75 -1000 310/06 RMK AO2
14837KMSN MSN20101118070509811/18/10 07:05:31  5-MIN KMSN 181305Z 31006KT 10SM OVC038 01/M03 A3026 550 75 -1000 310/06 RMK AO2
14837KMSN MSN20101118071009811/18/10 07:10:31  5-MIN KMSN 181310Z 31006KT 10SM OVC038 01/M03 A3026 550 75 -1000 310/06 RMK AO2
14837KMSN MSN20101118071509811/18/10 07:15:31  5-MIN KMSN 181315Z 31006KT 10SM OVC038 01/M03 A3026 550 75 -1000 310/06 RMK AO2
14837KMSN MSN20101118072009811/18/10 07:20:31  5-MIN KMSN 181320Z 32006KT 10SM OVC038 01/M03 A3026 550 75 -1000 320/06 RMK AO2
14837KMSN MSN20101118072509811/18/10 07:25:31  5-MIN KMSN 181325Z 32006KT 10SM OVC038 01/M03 A3026 550 75 -1000 320/06 RMK AO2
14837KMSN MSN20101118073009811/18/10 07:30:31  5-MIN KMSN 181330Z 32006KT 10SM OVC038 01/M03 A3027 550 75 -1000 320/06 RMK AO2
14837KMSN MSN20101118073513811/18/10 07:35:31  5-MIN KMSN 181335Z 29011G39KT 150V330 10SM OVC038 01/M04 A3027 540 72 -1000 290/11G39 150V330 RMK AO2 PK WND 33039/1334
14837KMSN MSN20101118074012211/18/10 07:40:31  5-MIN KMSN 181340Z 32006G39KT 10SM OVC038 01/M04 A3027 540 72 -1000 310/06G39 RMK AO2 PK WND 33039/1334
14837KMSN MSN20101118074511611/18/10 07:45:31  5-MIN KMSN 181345Z 32007KT 10SM OVC038 01/M04 A3028 540 72 -1000 320/07 RMK AO2 PK WND 33039/1334
14837KMSN MSN20101118075013311/18/10 07:50:31  5-MIN KMSN 181350Z 32006KT 10SM OVC038 01/M04 A3028 540 72 -1000 320/06 RMK AO2 PK WND 33039/1334 SLP262 T00061039
14837KMSN MSN20101118075509811/18/10 07:55:31  5-MIN KMSN 181355Z 32007KT 10SM OVC038 01/M04 A3028 530 72 -1000 320/07 RMK AO2
14837KMSN MSN20101118080009711/18/10 08:00:31  5-MIN KMSN 181400Z 32005KT 10SM OVC038 01/M04 A3028 530 66 -900 320/05 RMK AO2
14837KMSN MSN20101118080509711/18/10 08:05:31  5-MIN KMSN 181405Z 32006KT 10SM OVC038 01/M05 A3029 530 64 -900 320/06 RMK AO2
14837KMSN MSN20101118081009711/18/10 08:10:31  5-MIN KMSN 181410Z 31008KT 10SM OVC038 01/M05 A3029 530 64 -900 310/08 RMK AO2
14837KMSN MSN20101118081509811/18/10 08:15:31  5-MIN KMSN 181415Z 32007KT 10SM OVC038 01/M05 A3029 530 64 -1000 320/07 RMK AO2
14837KMSN MSN20101118082009811/18/10 08:20:31  5-MIN KMSN 181420Z 31006KT 10SM OVC038 01/M05 A3029 520 64 -1000 300/06 RMK AO2
14837KMSN MSN20101118082509811/18/10 08:25:31  5-MIN KMSN 181425Z 31005KT 10SM OVC038 01/M05 A3029 520 64 -1000 310/05 RMK AO2
14837KMSN MSN20101118083009811/18/10 08:30:31  5-MIN KMSN 181430Z 32006KT 10SM OVC038 01/M04 A3029 520 66 -1000 320/06 RMK AO2
14837KMSN MSN20101118083509811/18/10 08:35:31  5-MIN KMSN 181435Z 31007KT 10SM OVC038 01/M05 A3029 520 64 -1000 310/07 RMK AO2
14837KMSN MSN20101118084009811/18/10 08:40:31  5-MIN KMSN 181440Z 32007KT 10SM OVC038 01/M05 A3029 520 64 -1000 320/07 RMK AO2
14837KMSN MSN20101118084509811/18/10 08:45:31  5-MIN KMSN 181445Z 32006KT 10SM OVC038 01/M06 A3030 520 61 -1000 320/06 RMK AO2
14837KMSN MSN20101118085012111/18/10 08:50:31  5-MIN KMSN 181450Z 32007KT 10SM OVC038 01/M06 A3030 520 61 -1000 320/07 RMK AO2 SLP269 T00111056 51009
14837KMSN MSN20101118085509811/18/10 08:55:31  5-MIN KMSN 181455Z 30008KT 10SM OVC038 01/M06 A3030 520 61 -1000 300/08 RMK AO2
14837KMSN MSN20101118090009811/18/10 09:00:31  5-MIN KMSN 181500Z 30006KT 10SM OVC038 01/M06 A3030 510 58 -1000 300/06 RMK AO2
14837KMSN MSN20101118090509811/18/10 09:05:31  5-MIN KMSN 181505Z 32006KT 10SM OVC038 01/M06 A3030 510 58 -1000 320/06 RMK AO2
14837KMSN MSN20101118091009811/18/10 09:10:31  5-MIN KMSN 181510Z 31008KT 10SM OVC038 01/M06 A3030 510 61 -1000 310/08 RMK AO2
14837KMSN MSN20101118091509811/18/10 09:15:31  5-MIN KMSN 181515Z 32009KT 10SM OVC038 01/M06 A3030 510 61 -1000 320/09 RMK AO2
14837KMSN MSN20101118092009811/18/10 09:20:31  5-MIN KMSN 181520Z 30007KT 10SM OVC038 01/M06 A3031 510 58 -1000 300/07 RMK AO2
14837KMSN MSN20101118092509811/18/10 09:25:31  5-MIN KMSN 181525Z 31009KT 10SM OVC038 01/M06 A3031 500 58 -1000 300/09 RMK AO2
14837KMSN MSN20101118093009811/18/10 09:30:31  5-MIN KMSN 181530Z 33007KT 10SM OVC038 01/M06 A3032 500 58 -1000 330/07 RMK AO2
14837KMSN MSN20101118093509811/18/10 09:35:31  5-MIN KMSN 181535Z 32006KT 10SM OVC038 01/M06 A3032 500 58 -1000 320/06 RMK AO2
14837KMSN MSN20101118094009811/18/10 09:40:31  5-MIN KMSN 181540Z 34008KT 10SM OVC036 01/M06 A3032 500 61 -1000 340/08 RMK AO2
14837KMSN MSN20101118094509811/18/10 09:45:31  5-MIN KMSN 181545Z 34008KT 10SM OVC036 01/M06 A3032 500 58 -1000 340/08 RMK AO2
14837KMSN MSN20101118095011511/18/10 09:50:31  5-MIN KMSN 181550Z 33007KT 10SM OVC034 01/M06 A3032 500 61 -1000 330/07 RMK AO2 SLP277 T00111056
14837KMSN MSN20101118095509811/18/10 09:55:31  5-MIN KMSN 181555Z 33007KT 10SM OVC034 01/M06 A3032 500 61 -1000 320/07 RMK AO2
14837KMSN MSN20101118100009811/18/10 10:00:31  5-MIN KMSN 181600Z 33007KT 10SM OVC032 01/M06 A3033 490 61 -1000 330/07 RMK AO2
14837KMSN MSN20101118100509811/18/10 10:05:31  5-MIN KMSN 181605Z 33006KT 10SM OVC032 01/M05 A3033 490 64 -1000 330/06 RMK AO2
14837KMSN MSN20101118101009811/18/10 10:10:31  5-MIN KMSN 181610Z 34005KT 10SM OVC032 01/M05 A3033 490 64 -1000 340/05 RMK AO2
14837KMSN MSN20101118101509811/18/10 10:15:31  5-MIN KMSN 181615Z 34008KT 10SM OVC030 01/M05 A3032 490 64 -1000 340/08 RMK AO2
14837KMSN MSN20101118102009811/18/10 10:20:31  5-MIN KMSN 181620Z 31007KT 10SM OVC030 01/M05 A3033 490 64 -1000 310/07 RMK AO2
14837KMSN MSN20101118102509811/18/10 10:25:31  5-MIN KMSN 181625Z 32008KT 10SM OVC030 01/M05 A3033 490 64 -1000 320/08 RMK AO2
14837KMSN MSN20101118103009811/18/10 10:30:31  5-MIN KMSN 181630Z 34008KT 10SM OVC030 01/M05 A3033 490 64 -1000 340/08 RMK AO2
14837KMSN MSN20101118103509811/18/10 10:35:31  5-MIN KMSN 181635Z 32008KT 10SM OVC030 01/M05 A3033 490 64 -1000 320/08 RMK AO2
14837KMSN MSN20101118104009811/18/10 10:40:31  5-MIN KMSN 181640Z 32009KT 10SM OVC030 01/M05 A3033 490 64 -1000 320/09 RMK AO2
14837KMSN MSN20101118104509811/18/10 10:45:31  5-MIN KMSN 181645Z 31006KT 10SM OVC030 01/M05 A3033 490 64 -1000 310/06 RMK AO2
14837KMSN MSN20101118105011511/18/10 10:50:31  5-MIN KMSN 181650Z 32008KT 10SM OVC030 01/M06 A3033 490 61 -1000 320/08 RMK AO2 SLP280 T00111056
14837KMSN MSN20101118105509811/18/10 10:55:31  5-MIN KMSN 181655Z 32006KT 10SM OVC030 01/M05 A3033 490 64 -1000 320/06 RMK AO2
14837KMSN MSN20101118110009811/18/10 11:00:31  5-MIN KMSN 181700Z 32007KT 10SM OVC030 01/M05 A3033 490 64 -1000 320/07 RMK AO2
14837KMSN MSN20101118110509811/18/10 11:05:31  5-MIN KMSN 181705Z 32007KT 10SM OVC030 01/M06 A3032 490 61 -1000 320/07 RMK AO2
14837KMSN MSN20101118111009811/18/10 11:10:31  5-MIN KMSN 181710Z 31005KT 10SM OVC030 01/M06 A3032 490 58 -1000 310/05 RMK AO2
14837KMSN MSN20101118111509811/18/10 11:15:31  5-MIN KMSN 181715Z 30007KT 10SM OVC030 01/M06 A3032 490 61 -1000 300/07 RMK AO2
14837KMSN MSN20101118112009811/18/10 11:20:31  5-MIN KMSN 181720Z 32005KT 10SM OVC030 01/M06 A3032 490 58 -1000 310/05 RMK AO2
14837KMSN MSN20101118112509811/18/10 11:25:31  5-MIN KMSN 181725Z 32006KT 10SM OVC030 01/M06 A3032 500 61 -1000 320/06 RMK AO2
14837KMSN MSN20101118113009811/18/10 11:30:31  5-MIN KMSN 181730Z 34005KT 10SM OVC030 01/M06 A3032 500 61 -1000 340/05 RMK AO2
14837KMSN MSN20101118113509811/18/10 11:35:31  5-MIN KMSN 181735Z 33007KT 10SM OVC030 01/M05 A3032 500 64 -1000 330/07 RMK AO2
14837KMSN MSN20101118114009811/18/10 11:40:31  5-MIN KMSN 181740Z 32007KT 10SM OVC030 01/M06 A3031 500 61 -1000 320/07 RMK AO2
14837KMSN MSN20101118114509811/18/10 11:45:31  5-MIN KMSN 181745Z 32007KT 10SM OVC030 01/M06 A3031 510 61 -1000 320/07 RMK AO2
14837KMSN MSN20101118115013311/18/10 11:50:31  5-MIN KMSN 181750Z 31007KT 10SM OVC030 01/M06 A3030 510 61 -1000 310/07 RMK AO2 SLP272 T00111056 10017 20006 53015
14837KMSN MSN20101118115509811/18/10 11:55:31  5-MIN KMSN 181755Z 33007KT 10SM OVC030 01/M06 A3030 510 61 -1000 330/07 RMK AO2
14837KMSN MSN20101118120009811/18/10 12:00:31  5-MIN KMSN 181800Z 29005KT 10SM OVC030 01/M06 A3030 510 61 -1000 290/05 RMK AO2
14837KMSN MSN20101118120509811/18/10 12:05:31  5-MIN KMSN 181805Z 31004KT 10SM OVC030 01/M06 A3030 510 58 -1000 310/04 RMK AO2
14837KMSN MSN20101118121009811/18/10 12:10:31  5-MIN KMSN 181810Z 32005KT 10SM OVC030 01/M06 A3030 510 61 -1000 320/05 RMK AO2
14837KMSN MSN20101118121509811/18/10 12:15:31  5-MIN KMSN 181815Z 34004KT 10SM OVC030 01/M06 A3030 520 61 -1000 330/04 RMK AO2
14837KMSN MSN20101118122009711/18/10 12:20:31  5-MIN KMSN 181820Z 33006KT 10SM OVC030 02/M06 A3029 520 59 -900 330/06 RMK AO2
14837KMSN MSN20101118122509811/18/10 12:25:31  5-MIN KMSN 181825Z 30003KT 10SM OVC030 01/M06 A3029 520 61 -1000 300/03 RMK AO2
14837KMSN MSN20101118123009811/18/10 12:30:31  5-MIN KMSN 181830Z VRB04KT 10SM OVC030 01/M05 A3029 520 64 -1000 VRB/04 RMK AO2
14837KMSN MSN20101118123509811/18/10 12:35:31  5-MIN KMSN 181835Z VRB03KT 10SM OVC030 01/M06 A3030 520 61 -1000 VRB/03 RMK AO2
14837KMSN MSN20101118124009811/18/10 12:40:31  5-MIN KMSN 181840Z 33007KT 10SM OVC030 01/M06 A3029 520 61 -1000 330/07 RMK AO2
14837KMSN MSN20101118124509811/18/10 12:45:31  5-MIN KMSN 181845Z 29005KT 10SM OVC030 01/M06 A3030 520 61 -1000 290/05 RMK AO2
14837KMSN MSN20101118125011511/18/10 12:50:31  5-MIN KMSN 181850Z 32006KT 10SM OVC030 01/M06 A3030 520 61 -1000 320/06 RMK AO2 SLP270 T00111056
14837KMSN MSN20101118125509811/18/10 12:55:31  5-MIN KMSN 181855Z 32004KT 10SM OVC030 01/M06 A3030 520 58 -1000 320/04 RMK AO2
14837KMSN MSN20101118130009811/18/10 13:00:31  5-MIN KMSN 181900Z 29006KT 10SM OVC030 01/M06 A3029 520 61 -1000 290/06 RMK AO2
14837KMSN MSN20101118130509811/18/10 13:05:31  5-MIN KMSN 181905Z 28005KT 10SM BKN030 01/M06 A3029 520 61 -1000 270/05 RMK AO2
14837KMSN MSN20101118131009711/18/10 13:10:31  5-MIN KMSN 181910Z 00000KT 10SM BKN030 01/M06 A3029 530 58 -900 000/00 RMK AO2
14837KMSN MSN20101118131509811/18/10 13:15:31  5-MIN KMSN 181915Z VRB03KT 10SM BKN030 01/M06 A3029 530 61 -1000 VRB/03 RMK AO2
14837KMSN MSN20101118132009811/18/10 13:20:31  5-MIN KMSN 181920Z 00000KT 10SM BKN030 01/M06 A3029 520 61 -1000 000/00 RMK AO2
14837KMSN MSN20101118132509711/18/10 13:25:31  5-MIN KMSN 181925Z 33006KT 10SM BKN030 01/M06 A3029 530 61 -900 330/06 RMK AO2
14837KMSN MSN20101118133009711/18/10 13:30:31  5-MIN KMSN 181930Z 33005KT 10SM BKN030 01/M06 A3029 530 58 -900 330/05 RMK AO2
14837KMSN MSN20101118133509811/18/10 13:35:31  5-MIN KMSN 181935Z 33003KT 10SM BKN030 01/M06 A3029 530 61 -1000 330/03 RMK AO2
14837KMSN MSN20101118134011411/18/10 13:40:31  5-MIN KMSN 181940Z 30007KT 270V330 10SM BKN030 01/M06 A3029 520 61 -1000 300/07 270V330 RMK AO2
14837KMSN MSN20101118134509711/18/10 13:45:31  5-MIN KMSN 181945Z 29005KT 10SM BKN030 01/M06 A3029 530 61 -900 280/05 RMK AO2
14837KMSN MSN20101118135011411/18/10 13:50:31  5-MIN KMSN 181950Z 00000KT 10SM BKN030 01/M06 A3028 530 58 -900 000/00 RMK AO2 SLP264 T00111061
14837KMSN MSN20101118135509711/18/10 13:55:31  5-MIN KMSN 181955Z VRB03KT 10SM BKN030 01/M06 A3029 530 58 -900 VRB/03 RMK AO2
14837KMSN MSN20101118140009811/18/10 14:00:31  5-MIN KMSN 182000Z 26004KT 10SM BKN030 01/M06 A3029 530 61 -1000 260/04 RMK AO2
14837KMSN MSN20101118140509811/18/10 14:05:31  5-MIN KMSN 182005Z 26004KT 10SM BKN030 01/M06 A3029 530 58 -1000 260/04 RMK AO2
14837KMSN MSN20101118141009711/18/10 14:10:31  5-MIN KMSN 182010Z 26003KT 10SM BKN030 01/M06 A3029 530 58 -900 260/03 RMK AO2
14837KMSN MSN20101118141509711/18/10 14:15:31  5-MIN KMSN 182015Z VRB05KT 10SM BKN030 01/M06 A3028 530 58 -900 VRB/05 RMK AO2
14837KMSN MSN20101118142009711/18/10 14:20:31  5-MIN KMSN 182020Z 30006KT 10SM BKN030 01/M06 A3029 530 61 -900 290/06 RMK AO2
14837KMSN MSN20101118142509811/18/10 14:25:31  5-MIN KMSN 182025Z 30004KT 10SM BKN032 01/M06 A3029 520 61 -1000 300/04 RMK AO2
14837KMSN MSN20101118143009811/18/10 14:30:31  5-MIN KMSN 182030Z 00000KT 10SM BKN032 01/M06 A3029 520 61 -1000 000/00 RMK AO2
14837KMSN MSN20101118143509811/18/10 14:35:31  5-MIN KMSN 182035Z 35003KT 10SM BKN032 01/M06 A3029 530 58 -1000 350/03 RMK AO2
14837KMSN MSN20101118144009811/18/10 14:40:31  5-MIN KMSN 182040Z 32003KT 10SM BKN032 01/M06 A3029 530 58 -1000 320/03 RMK AO2
14837KMSN MSN20101118144509811/18/10 14:45:31  5-MIN KMSN 182045Z 30004KT 10SM BKN032 01/M06 A3029 520 58 -1000 300/04 RMK AO2
14837KMSN MSN20101118145012111/18/10 14:50:31  5-MIN KMSN 182050Z 33004KT 10SM BKN032 01/M06 A3029 520 58 -1000 330/04 RMK AO2 SLP268 T00111061 50002
14837KMSN MSN20101118145509811/18/10 14:55:31  5-MIN KMSN 182055Z 36004KT 10SM BKN032 01/M06 A3029 520 61 -1000 360/04 RMK AO2
14837KMSN MSN20101118150009711/18/10 15:00:31  5-MIN KMSN 182100Z 35005KT 10SM BKN032 01/M06 A3029 530 61 -900 350/05 RMK AO2
14837KMSN MSN20101118150509711/18/10 15:05:31  5-MIN KMSN 182105Z 01003KT 10SM BKN032 01/M06 A3028 530 61 -900 010/03 RMK AO2
14837KMSN MSN20101118151009711/18/10 15:10:31  5-MIN KMSN 182110Z 35003KT 10SM BKN032 01/M06 A3028 530 61 -900 350/03 RMK AO2
14837KMSN MSN20101118151509711/18/10 15:15:31  5-MIN KMSN 182115Z 35004KT 10SM BKN032 01/M06 A3028 530 58 -900 350/04 RMK AO2
14837KMSN MSN20101118152009711/18/10 15:20:31  5-MIN KMSN 182120Z 35004KT 10SM BKN032 01/M06 A3028 530 61 -900 350/04 RMK AO2
14837KMSN MSN20101118152509711/18/10 15:25:31  5-MIN KMSN 182125Z 03003KT 10SM BKN032 01/M06 A3028 530 58 -900 030/03 RMK AO2
14837KMSN MSN20101118153009711/18/10 15:30:31  5-MIN KMSN 182130Z 02003KT 10SM BKN032 01/M06 A3028 530 61 -900 020/03 RMK AO2
14837KMSN MSN20101118153509711/18/10 15:35:31  5-MIN KMSN 182135Z 01004KT 10SM BKN032 01/M06 A3028 530 61 -900 360/04 RMK AO2
14837KMSN MSN20101118154009811/18/10 15:40:31  5-MIN KMSN 182140Z 35004KT 10SM BKN032 01/M06 A3028 530 63 -1000 350/04 RMK AO2
14837KMSN MSN20101118154509811/18/10 15:45:31  5-MIN KMSN 182145Z 01003KT 10SM BKN032 01/M06 A3028 530 61 -1000 010/03 RMK AO2
14837KMSN MSN20101118155011511/18/10 15:50:31  5-MIN KMSN 182150Z 35003KT 10SM BKN032 01/M06 A3028 530 63 -1000 350/03 RMK AO2 SLP264 T00061056
14837KMSN MSN20101118155509811/18/10 15:55:31  5-MIN KMSN 182155Z 36004KT 10SM BKN032 00/M06 A3028 530 63 -1100 360/04 RMK AO2
14837KMSN MSN20101118160009911/18/10 16:00:31  5-MIN KMSN 182200Z 01005KT 10SM SCT032 M01/M06 A3028 530 66 -1200 360/05 RMK AO2
14837KMSN MSN20101118160509811/18/10 16:05:31  5-MIN KMSN 182205Z 01004KT 10SM FEW032 00/M06 A3028 530 63 -1100 010/04 RMK AO2
14837KMSN MSN20101118161009911/18/10 16:10:31  5-MIN KMSN 182210Z 02004KT 10SM FEW032 M01/M06 A3028 530 66 -1200 020/04 RMK AO2
14837KMSN MSN20101118161509911/18/10 16:15:31  5-MIN KMSN 182215Z 03003KT 10SM FEW032 M01/M06 A3028 530 66 -1100 030/03 RMK AO2
14837KMSN MSN20101118162009911/18/10 16:20:31  5-MIN KMSN 182220Z 03004KT 10SM FEW032 M01/M06 A3028 530 66 -1100 030/04 RMK AO2
14837KMSN MSN20101118162509611/18/10 16:25:31  5-MIN KMSN 182225Z 04004KT 10SM CLR M01/M06 A3028 540 66 -1100 040/04 RMK AO2
14837KMSN MSN20101118163009911/18/10 16:30:31  5-MIN KMSN 182230Z 04003KT 10SM FEW032 M01/M06 A3028 540 66 -1100 040/03 RMK AO2
14837KMSN MSN20101118163509911/18/10 16:35:31  5-MIN KMSN 182235Z 05003KT 10SM FEW032 M01/M06 A3027 540 69 -1200 050/03 RMK AO2
14837KMSN MSN20101118164009911/18/10 16:40:31  5-MIN KMSN 182240Z 04003KT 10SM FEW032 M01/M06 A3027 540 69 -1200 040/03 RMK AO2
14837KMSN MSN20101118164509911/18/10 16:45:31  5-MIN KMSN 182245Z 03003KT 10SM FEW032 M01/M06 A3027 540 66 -1100 030/03 RMK AO2
14837KMSN MSN20101118165011611/18/10 16:50:31  5-MIN KMSN 182250Z 00000KT 10SM FEW036 M01/M06 A3027 540 72 -1200 000/00 RMK AO2 SLP262 T10111056
14837KMSN MSN20101118165509911/18/10 16:55:31  5-MIN KMSN 182255Z 00000KT 10SM FEW032 M01/M06 A3027 540 72 -1200 000/00 RMK AO2
14837KMSN MSN20101118170009911/18/10 17:00:31  5-MIN KMSN 182300Z 00000KT 10SM SCT032 M01/M06 A3028 540 72 -1200 000/00 RMK AO2
14837KMSN MSN20101118170509911/18/10 17:05:31  5-MIN KMSN 182305Z 00000KT 10SM BKN032 M01/M06 A3028 530 72 -1200 000/00 RMK AO2
14837KMSN MSN20101118171009911/18/10 17:10:31  5-MIN KMSN 182310Z 00000KT 10SM BKN032 M01/M06 A3028 530 72 -1200 000/00 RMK AO2
14837KMSN MSN20101118171509911/18/10 17:15:31  5-MIN KMSN 182315Z 00000KT 10SM BKN032 M01/M06 A3028 530 72 -1200 000/00 RMK AO2
14837KMSN MSN20101118172009911/18/10 17:20:31  5-MIN KMSN 182320Z 00000KT 10SM OVC032 M01/M06 A3028 530 66 -1100 000/00 RMK AO2
14837KMSN MSN20101118172509911/18/10 17:25:31  5-MIN KMSN 182325Z 00000KT 10SM OVC032 M01/M06 A3028 530 66 -1200 000/00 RMK AO2
14837KMSN MSN20101118173009911/18/10 17:30:31  5-MIN KMSN 182330Z 00000KT 10SM OVC032 M01/M06 A3028 530 69 -1100 000/00 RMK AO2
14837KMSN MSN20101118173509911/18/10 17:35:31  5-MIN KMSN 182335Z 00000KT 10SM OVC032 M01/M06 A3028 530 69 -1200 000/00 RMK AO2
14837KMSN MSN20101118174009911/18/10 17:40:31  5-MIN KMSN 182340Z 00000KT 10SM OVC032 M01/M06 A3028 530 69 -1200 000/00 RMK AO2
14837KMSN MSN20101118174509911/18/10 17:45:31  5-MIN KMSN 182345Z 00000KT 10SM OVC032 M01/M05 A3028 530 75 -1200 000/00 RMK AO2
14837KMSN MSN20101118175013411/18/10 17:50:31  5-MIN KMSN 182350Z 00000KT 10SM BKN032 M01/M06 A3028 530 72 -1200 000/00 RMK AO2 SLP265 T10111056 10017 21011 55004
14837KMSN MSN20101118175509911/18/10 17:55:31  5-MIN KMSN 182355Z 00000KT 10SM OVC032 M01/M06 A3028 530 69 -1200 000/00 RMK AO2
14837KMSN MSN20101118180009911/18/10 18:00:31  5-MIN KMSN 190000Z 00000KT 10SM OVC032 M01/M05 A3028 530 72 -1100 000/00 RMK AO2
14837KMSN MSN20101118180509911/18/10 18:05:31  5-MIN KMSN 190005Z 00000KT 10SM OVC032 M01/M05 A3028 530 72 -1100 000/00 RMK AO2
14837KMSN MSN20101118181009911/18/10 18:10:31  5-MIN KMSN 190010Z 00000KT 10SM BKN032 M01/M05 A3028 530 72 -1200 000/00 RMK AO2
14837KMSN MSN20101118181509911/18/10 18:15:31  5-MIN KMSN 190015Z 00000KT 10SM BKN032 M01/M05 A3028 530 72 -1200 000/00 RMK AO2
14837KMSN MSN20101118182009911/18/10 18:20:31  5-MIN KMSN 190020Z 00000KT 10SM BKN032 M01/M05 A3028 530 72 -1100 000/00 RMK AO2
14837KMSN MSN20101118182509911/18/10 18:25:31  5-MIN KMSN 190025Z 09003KT 10SM BKN032 M01/M05 A3028 540 72 -1100 090/03 RMK AO2
14837KMSN MSN20101118183009911/18/10 18:30:31  5-MIN KMSN 190030Z 00000KT 10SM BKN032 M01/M05 A3028 540 72 -1100 000/00 RMK AO2
14837KMSN MSN20101118183509911/18/10 18:35:31  5-MIN KMSN 190035Z 11003KT 10SM BKN032 M01/M05 A3027 540 72 -1100 110/03 RMK AO2
14837KMSN MSN20101118184009911/18/10 18:40:31  5-MIN KMSN 190040Z 10003KT 10SM BKN032 M01/M05 A3027 540 72 -1100 100/03 RMK AO2
14837KMSN MSN20101118184509911/18/10 18:45:31  5-MIN KMSN 190045Z 10003KT 10SM OVC034 M01/M05 A3027 540 72 -1100 100/03 RMK AO2
14837KMSN MSN20101118185011611/18/10 18:50:31  5-MIN KMSN 190050Z 11003KT 10SM OVC034 M01/M05 A3027 540 72 -1100 110/03 RMK AO2 SLP260 T10061050
14837KMSN MSN20101118185509911/18/10 18:55:31  5-MIN KMSN 190055Z 11003KT 10SM OVC034 M01/M05 A3027 540 72 -1100 110/03 RMK AO2
14837KMSN MSN20101118190009911/18/10 19:00:31  5-MIN KMSN 190100Z 00000KT 10SM OVC034 M01/M05 A3027 540 72 -1100 000/00 RMK AO2
14837KMSN MSN20101118190509911/18/10 19:05:31  5-MIN KMSN 190105Z 00000KT 10SM OVC034 M01/M05 A3027 540 75 -1200 000/00 RMK AO2
14837KMSN MSN20101118191009911/18/10 19:10:31  5-MIN KMSN 190110Z 00000KT 10SM OVC034 M01/M04 A3027 540 78 -1200 000/00 RMK AO2
14837KMSN MSN20101118191509911/18/10 19:15:31  5-MIN KMSN 190115Z 11003KT 10SM OVC034 M01/M04 A3027 540 75 -1100 110/03 RMK AO2
14837KMSN MSN20101118192009911/18/10 19:20:31  5-MIN KMSN 190120Z 11004KT 10SM OVC034 M01/M05 A3027 550 72 -1100 110/04 RMK AO2
14837KMSN MSN20101118192509911/18/10 19:25:31  5-MIN KMSN 190125Z 12004KT 10SM BKN034 M01/M06 A3026 550 72 -1200 120/04 RMK AO2
14837KMSN MSN20101118193009911/18/10 19:30:31  5-MIN KMSN 190130Z 12004KT 10SM BKN034 M01/M06 A3026 550 72 -1200 120/04 RMK AO2
14837KMSN MSN20101118193509911/18/10 19:35:31  5-MIN KMSN 190135Z 13004KT 10SM SCT034 M01/M06 A3026 550 72 -1200 130/04 RMK AO2
14837KMSN MSN20101118194009911/18/10 19:40:31  5-MIN KMSN 190140Z 13006KT 10SM SCT032 M01/M06 A3026 550 72 -1200 130/06 RMK AO2
14837KMSN MSN20101118194509911/18/10 19:45:31  5-MIN KMSN 190145Z 13007KT 10SM FEW032 M02/M06 A3026 560 72 -1300 130/07 RMK AO2
14837KMSN MSN20101118195011611/18/10 19:50:31  5-MIN KMSN 190150Z 13007KT 10SM FEW032 M02/M06 A3025 560 75 -1300 130/07 RMK AO2 SLP256 T10171056
14837KMSN MSN20101118195509611/18/10 19:55:31  5-MIN KMSN 190155Z 13007KT 10SM CLR M02/M06 A3025 560 75 -1300 130/07 RMK AO2
14837KMSN MSN20101118200009611/18/10 20:00:31  5-MIN KMSN 190200Z 13006KT 10SM CLR M01/M06 A3025 560 72 -1200 130/06 RMK AO2
14837KMSN MSN20101118200509611/18/10 20:05:31  5-MIN KMSN 190205Z 14006KT 10SM CLR M01/M06 A3025 560 72 -1200 140/06 RMK AO2
14837KMSN MSN20101118201009611/18/10 20:10:31  5-MIN KMSN 190210Z 14005KT 10SM CLR M01/M06 A3025 560 72 -1200 140/05 RMK AO2
14837KMSN MSN20101118201509611/18/10 20:15:31  5-MIN KMSN 190215Z 15007KT 10SM CLR M01/M06 A3025 560 69 -1100 150/07 RMK AO2
14837KMSN MSN20101118202009611/18/10 20:20:31  5-MIN KMSN 190220Z 17004KT 10SM CLR M01/M06 A3025 560 69 -1100 160/04 RMK AO2
14837KMSN MSN20101118202509611/18/10 20:25:31  5-MIN KMSN 190225Z 18004KT 10SM CLR M01/M06 A3025 560 69 -1100 180/04 RMK AO2
14837KMSN MSN20101118203009611/18/10 20:30:31  5-MIN KMSN 190230Z 18004KT 10SM CLR M01/M06 A3025 560 69 -1100 180/04 RMK AO2
14837KMSN MSN20101118203509611/18/10 20:35:31  5-MIN KMSN 190235Z 17004KT 10SM CLR M01/M05 A3025 560 72 -1100 170/04 RMK AO2
14837KMSN MSN20101118204009611/18/10 20:40:31  5-MIN KMSN 190240Z 17004KT 10SM CLR M01/M05 A3025 560 72 -1100 170/04 RMK AO2
14837KMSN MSN20101118204509611/18/10 20:45:31  5-MIN KMSN 190245Z 16005KT 10SM CLR M01/M05 A3025 560 72 -1100 160/05 RMK AO2
14837KMSN MSN20101118205011911/18/10 20:50:31  5-MIN KMSN 190250Z 16005KT 10SM CLR M01/M05 A3025 560 72 -1100 160/05 RMK AO2 SLP253 T10061050 55003
14837KMSN MSN20101118205509611/18/10 20:55:31  5-MIN KMSN 190255Z 15004KT 10SM CLR M01/M05 A3024 570 72 -1100 150/04 RMK AO2
14837KMSN MSN20101118210009611/18/10 21:00:31  5-MIN KMSN 190300Z 14006KT 10SM CLR M01/M04 A3024 570 75 -1100 140/06 RMK AO2
14837KMSN MSN20101118210509611/18/10 21:05:31  5-MIN KMSN 190305Z 14006KT 10SM CLR M01/M04 A3023 580 75 -1100 140/06 RMK AO2
14837KMSN MSN20101118211009611/18/10 21:10:31  5-MIN KMSN 190310Z 15006KT 10SM CLR M01/M04 A3023 580 75 -1100 140/06 RMK AO2
14837KMSN MSN20101118211509611/18/10 21:15:31  5-MIN KMSN 190315Z 14006KT 10SM CLR M01/M04 A3023 580 75 -1100 140/06 RMK AO2
14837KMSN MSN20101118212009611/18/10 21:20:31  5-MIN KMSN 190320Z 15006KT 10SM CLR M01/M04 A3023 580 75 -1100 150/06 RMK AO2
14837KMSN MSN20101118212509511/18/10 21:25:31  5-MIN KMSN 190325Z 15005KT 10SM CLR 00/M04 A3023 580 72 -1000 140/05 RMK AO2
14837KMSN MSN20101118213009511/18/10 21:30:31  5-MIN KMSN 190330Z 15006KT 10SM CLR 00/M04 A3022 580 72 -1000 150/06 RMK AO2
14837KMSN MSN20101118213509511/18/10 21:35:31  5-MIN KMSN 190335Z 16005KT 10SM CLR 00/M04 A3022 590 72 -1000 160/05 RMK AO2
14837KMSN MSN20101118214009511/18/10 21:40:31  5-MIN KMSN 190340Z 17007KT 10SM CLR 00/M04 A3022 590 72 -1000 170/07 RMK AO2
14837KMSN MSN20101118214509511/18/10 21:45:31  5-MIN KMSN 190345Z 17006KT 10SM CLR 00/M04 A3022 590 72 -1000 170/06 RMK AO2
14837KMSN MSN20101118215011211/18/10 21:50:31  5-MIN KMSN 190350Z 18006KT 10SM CLR 00/M04 A3022 590 72 -1000 180/06 RMK AO2 SLP243 T00001044
14837KMSN MSN20101118215509511/18/10 21:55:31  5-MIN KMSN 190355Z 18005KT 10SM CLR 00/M04 A3022 590 72 -1000 180/05 RMK AO2
14837KMSN MSN20101118220009511/18/10 22:00:31  5-MIN KMSN 190400Z 17005KT 10SM CLR 00/M04 A3022 590 75 -1000 170/05 RMK AO2
14837KMSN MSN20101118220509511/18/10 22:05:31  5-MIN KMSN 190405Z 17005KT 10SM CLR 00/M04 A3022 580 75 -1000 170/05 RMK AO2
14837KMSN MSN20101118221009511/18/10 22:10:31  5-MIN KMSN 190410Z 17006KT 10SM CLR 00/M04 A3022 580 75 -1000 170/06 RMK AO2
14837KMSN MSN20101118221509511/18/10 22:15:31  5-MIN KMSN 190415Z 18005KT 10SM CLR 00/M04 A3023 580 72 -1000 170/05 RMK AO2
14837KMSN MSN20101118222009811/18/10 22:20:31  5-MIN KMSN 190420Z 17005KT 10SM FEW120 00/M04 A3023 580 72 -1000 170/05 RMK AO2
14837KMSN MSN20101118222509511/18/10 22:25:31  5-MIN KMSN 190425Z 16005KT 10SM CLR 00/M04 A3023 580 72 -1000 160/05 RMK AO2
14837KMSN MSN20101118223009511/18/10 22:30:31  5-MIN KMSN 190430Z 15006KT 10SM CLR 00/M04 A3022 590 75 -1000 150/06 RMK AO2
14837KMSN MSN20101118223509811/18/10 22:35:31  5-MIN KMSN 190435Z 15006KT 10SM FEW120 00/M04 A3022 590 75 -1000 150/06 RMK AO2
14837KMSN MSN20101118224009811/18/10 22:40:31  5-MIN KMSN 190440Z 15005KT 10SM FEW120 00/M04 A3022 590 75 -1000 150/05 RMK AO2
14837KMSN MSN20101118224509811/18/10 22:45:31  5-MIN KMSN 190445Z 15007KT 10SM FEW120 00/M04 A3021 590 75 -1000 150/07 RMK AO2
14837KMSN MSN20101118225011511/18/10 22:50:31  5-MIN KMSN 190450Z 16006KT 10SM SCT120 00/M04 A3021 600 75 -1000 160/06 RMK AO2 SLP241 T00001039
14837KMSN MSN20101118225509811/18/10 22:55:31  5-MIN KMSN 190455Z 15006KT 10SM BKN120 00/M04 A3021 600 72 -1000 150/06 RMK AO2
14837KMSN MSN20101118230009811/18/10 23:00:31  5-MIN KMSN 190500Z 16007KT 10SM BKN120 00/M04 A3021 600 75 -1000 160/07 RMK AO2
14837KMSN MSN20101118230509811/18/10 23:05:31  5-MIN KMSN 190505Z 16006KT 10SM BKN120 00/M04 A3021 600 72 -1000 160/06 RMK AO2
14837KMSN MSN20101118231009811/18/10 23:10:31  5-MIN KMSN 190510Z 16007KT 10SM SCT120 00/M04 A3021 600 72 -1000 160/07 RMK AO2
14837KMSN MSN20101118231509811/18/10 23:15:31  5-MIN KMSN 190515Z 16008KT 10SM SCT120 00/M04 A3021 600 72 -1000 160/08 RMK AO2
14837KMSN MSN20101118232009811/18/10 23:20:31  5-MIN KMSN 190520Z 15008KT 10SM FEW120 00/M04 A3020 600 72 -1000 150/08 RMK AO2
14837KMSN MSN20101118232509911/18/10 23:25:31  5-MIN KMSN 190525Z 16007KT 10SM FEW120 M01/M04 A3020 600 75 -1100 150/07 RMK AO2
14837KMSN MSN20101118233009611/18/10 23:30:31  5-MIN KMSN 190530Z 16007KT 10SM CLR M01/M04 A3020 600 75 -1100 160/07 RMK AO2
14837KMSN MSN20101118233509611/18/10 23:35:31  5-MIN KMSN 190535Z 15008KT 10SM CLR M01/M04 A3020 610 75 -1100 150/08 RMK AO2
14837KMSN MSN20101118234009611/18/10 23:40:31  5-MIN KMSN 190540Z 15008KT 10SM CLR M01/M04 A3020 610 75 -1100 150/08 RMK AO2
14837KMSN MSN20101118234509611/18/10 23:45:31  5-MIN KMSN 190545Z 16009KT 10SM CLR M01/M04 A3020 610 75 -1100 160/09 RMK AO2
14837KMSN MSN20101118235014111/18/10 23:50:31  5-MIN KMSN 190550Z 15009KT 10SM CLR M01/M04 A3019 610 75 -1100 150/09 RMK AO2 SLP235 T10061044 10000 21017 400171017 56012
14837KMSN MSN20101118235509611/18/10 23:55:31  5-MIN KMSN 190555Z 16007KT 10SM CLR M01/M04 A3019 610 75 -1100 150/07 RMK AO2
14837KMSN MSN20101119000009611/19/10 00:00:32  5-MIN KMSN 190600Z 16007KT 10SM CLR M01/M04 A3019 610 75 -1000 160/07 RMK AO2
14837KMSN MSN20101119000509611/19/10 00:05:31  5-MIN KMSN 190605Z 16009KT 10SM CLR M01/M04 A3019 620 75 -1000 160/09 RMK AO2
14837KMSN MSN20101119001009611/19/10 00:10:31  5-MIN KMSN 190610Z 16009KT 10SM CLR M01/M04 A3018 630 75 -1000 150/09 RMK AO2
14837KMSN MSN20101119001509611/19/10 00:15:31  5-MIN KMSN 190615Z 15007KT 10SM CLR M01/M04 A3018 630 75 -1000 150/07 RMK AO2
14837KMSN MSN20101119002009611/19/10 00:20:31  5-MIN KMSN 190620Z 16007KT 10SM CLR M01/M04 A3018 630 75 -1000 160/07 RMK AO2
14837KMSN MSN20101119002509611/19/10 00:25:31  5-MIN KMSN 190625Z 16007KT 10SM CLR M01/M04 A3017 630 75 -1000 160/07 RMK AO2
14837KMSN MSN20101119003009611/19/10 00:30:31  5-MIN KMSN 190630Z 16008KT 10SM CLR M01/M04 A3017 630 75 -1000 160/08 RMK AO2
14837KMSN MSN20101119003509611/19/10 00:35:31  5-MIN KMSN 190635Z 16008KT 10SM CLR M01/M04 A3017 630 75 -1000 160/08 RMK AO2
14837KMSN MSN20101119004009611/19/10 00:40:31  5-MIN KMSN 190640Z 16008KT 10SM CLR M01/M04 A3017 630 75 -1000 160/08 RMK AO2
14837KMSN MSN20101119004509611/19/10 00:45:31  5-MIN KMSN 190645Z 16007KT 10SM CLR M01/M04 A3017 630 75 -1000 150/07 RMK AO2
14837KMSN MSN20101119005011311/19/10 00:50:31  5-MIN KMSN 190650Z 16008KT 10SM CLR M01/M04 A3017 630 78 -1100 160/08 RMK AO2 SLP227 T10111044
14837KMSN MSN20101119005509611/19/10 00:55:31  5-MIN KMSN 190655Z 17008KT 10SM CLR M01/M04 A3017 630 75 -1000 160/08 RMK AO2
14837KMSN MSN20101119010009611/19/10 01:00:31  5-MIN KMSN 190700Z 17008KT 10SM CLR M01/M04 A3017 630 75 -1000 160/08 RMK AO2
14837KMSN MSN20101119010509611/19/10 01:05:31  5-MIN KMSN 190705Z 17007KT 10SM CLR M01/M04 A3017 640 75 -1000 170/07 RMK AO2
14837KMSN MSN20101119011009611/19/10 01:10:31  5-MIN KMSN 190710Z 17007KT 10SM CLR M01/M04 A3017 630 75 -1000 170/07 RMK AO2
14837KMSN MSN20101119011509611/19/10 01:15:31  5-MIN KMSN 190715Z 17006KT 10SM CLR M01/M04 A3018 630 75 -1000 170/06 RMK AO2
14837KMSN MSN20101119012009611/19/10 01:20:31  5-MIN KMSN 190720Z 18004KT 10SM CLR M01/M04 A3018 620 78 -1100 180/04 RMK AO2
14837KMSN MSN20101119012509611/19/10 01:25:31  5-MIN KMSN 190725Z 17005KT 10SM CLR M01/M04 A3018 630 78 -1100 170/05 RMK AO2
14837KMSN MSN20101119013009611/19/10 01:30:31  5-MIN KMSN 190730Z 17005KT 10SM CLR M01/M04 A3017 630 78 -1000 170/05 RMK AO2
14837KMSN MSN20101119013509611/19/10 01:35:31  5-MIN KMSN 190735Z 18006KT 10SM CLR M01/M04 A3018 630 78 -1000 180/06 RMK AO2
14837KMSN MSN20101119014009611/19/10 01:40:31  5-MIN KMSN 190740Z 19006KT 10SM CLR M01/M04 A3018 630 78 -1000 180/06 RMK AO2
14837KMSN MSN20101119014509611/19/10 01:45:31  5-MIN KMSN 190745Z 18008KT 10SM CLR M01/M04 A3017 630 78 -1000 180/08 RMK AO2
14837KMSN MSN20101119015011311/19/10 01:50:31  5-MIN KMSN 190750Z 18007KT 10SM CLR M01/M04 A3017 630 78 -1000 180/07 RMK AO2 SLP227 T10061039
14837KMSN MSN20101119015509611/19/10 01:55:31  5-MIN KMSN 190755Z 18007KT 10SM CLR M01/M04 A3017 630 78 -1000 180/07 RMK AO2
14837KMSN MSN20101119020009611/19/10 02:00:31  5-MIN KMSN 190800Z 18007KT 10SM CLR M01/M04 A3017 630 78 -1000 180/07 RMK AO2
14837KMSN MSN20101119020509511/19/10 02:05:31  5-MIN KMSN 190805Z 17007KT 9SM CLR M01/M04 A3017 630 78 -1000 170/07 RMK AO2
14837KMSN MSN20101119021009511/19/10 02:10:31  5-MIN KMSN 190810Z 17007KT 9SM CLR M01/M04 A3017 630 78 -1000 170/07 RMK AO2
14837KMSN MSN20101119021509511/19/10 02:15:31  5-MIN KMSN 190815Z 17008KT 9SM CLR M01/M04 A3017 640 81 -1100 170/08 RMK AO2
14837KMSN MSN20101119022009511/19/10 02:20:31  5-MIN KMSN 190820Z 17008KT 9SM CLR M01/M04 A3016 640 81 -1100 170/08 RMK AO2
14837KMSN MSN20101119022509511/19/10 02:25:31  5-MIN KMSN 190825Z 18007KT 9SM CLR M01/M04 A3016 640 78 -1000 170/07 RMK AO2
14837KMSN MSN20101119023009511/19/10 02:30:31  5-MIN KMSN 190830Z 17007KT 9SM CLR M01/M04 A3015 650 81 -1100 170/07 RMK AO2
14837KMSN MSN20101119023510211/19/10 02:35:31  5-MIN KMSN 190835Z 16008KT 8SM CLR M01/M04 A3015 660 81 -1100 160/08 RMK AO2 PRESFR
14837KMSN MSN20101119024009511/19/10 02:40:31  5-MIN KMSN 190840Z 16008KT 8SM CLR M01/M04 A3015 650 81 -1100 160/08 RMK AO2
14837KMSN MSN20101119024509511/19/10 02:45:31  5-MIN KMSN 190845Z 17010KT 8SM CLR M01/M04 A3015 660 81 -1100 170/10 RMK AO2
14837KMSN MSN20101119025011811/19/10 02:50:31  5-MIN KMSN 190850Z 17009KT 8SM CLR M01/M04 A3014 660 81 -1100 170/09 RMK AO2 SLP217 T10111039 56018
14837KMSN MSN20101119025509511/19/10 02:55:31  5-MIN KMSN 190855Z 16009KT 8SM CLR M01/M04 A3014 670 78 -1100 160/09 RMK AO2
14837KMSN MSN20101119030009511/19/10 03:00:31  5-MIN KMSN 190900Z 17008KT 8SM CLR M01/M04 A3013 670 78 -1000 160/08 RMK AO2
14837KMSN MSN20101119030509511/19/10 03:05:31  5-MIN KMSN 190905Z 17009KT 8SM CLR M01/M04 A3013 670 78 -1000 170/09 RMK AO2
14837KMSN MSN20101119031010211/19/10 03:10:31  5-MIN KMSN 190910Z 17009KT 8SM CLR M01/M04 A3012 680 81 -1000 170/09 RMK AO2 PRESFR
14837KMSN MSN20101119031509511/19/10 03:15:31  5-MIN KMSN 190915Z 17009KT 8SM CLR M01/M04 A3012 680 81 -1000 170/09 RMK AO2
14837KMSN MSN20101119032009511/19/10 03:20:31  5-MIN KMSN 190920Z 17010KT 8SM CLR M01/M04 A3011 690 81 -1000 170/10 RMK AO2
14837KMSN MSN20101119032509511/19/10 03:25:31  5-MIN KMSN 190925Z 17010KT 8SM CLR M01/M04 A3010 690 81 -1000 170/10 RMK AO2
14837KMSN MSN20101119033010211/19/10 03:30:31  5-MIN KMSN 190930Z 16013KT 8SM CLR M01/M04 A3010 700 81 -1000 160/13 RMK AO2 PRESFR
14837KMSN MSN20101119033509511/19/10 03:35:31  5-MIN KMSN 190935Z 16012KT 8SM CLR M01/M04 A3010 700 78 -1000 160/12 RMK AO2
14837KMSN MSN20101119034009511/19/10 03:40:31  5-MIN KMSN 190940Z 17011KT 8SM CLR M01/M04 A3009 700 78 -1000 170/11 RMK AO2
14837KMSN MSN20101119034509511/19/10 03:45:31  5-MIN KMSN 190945Z 17014KT 8SM CLR M01/M04 A3009 700 78 -1000 170/14 RMK AO2
14837KMSN MSN20101119035011211/19/10 03:50:31  5-MIN KMSN 190950Z 17012KT 8SM CLR M01/M04 A3010 700 78 -1000 170/12 RMK AO2 SLP201 T10111044
14837KMSN MSN20101119035509511/19/10 03:55:31  5-MIN KMSN 190955Z 17011KT 8SM CLR M01/M04 A3009 700 78 -1000 170/11 RMK AO2
14837KMSN MSN20101119040009511/19/10 04:00:31  5-MIN KMSN 191000Z 18011KT 8SM CLR M01/M04 A3009 700 81 -1000 170/11 RMK AO2
14837KMSN MSN20101119040509411/19/10 04:05:31  5-MIN KMSN 191005Z 17012KT 8SM CLR M01/M04 A3009 700 78 -900 170/12 RMK AO2
14837KMSN MSN20101119041009411/19/10 04:10:31  5-MIN KMSN 191010Z 17009KT 7SM CLR M01/M04 A3009 710 78 -900 170/09 RMK AO2
14837KMSN MSN20101119041509511/19/10 04:15:31  5-MIN KMSN 191015Z 17011KT 7SM CLR M01/M04 A3008 710 81 -1000 170/11 RMK AO2
14837KMSN MSN20101119042009511/19/10 04:20:31  5-MIN KMSN 191020Z 18012KT 7SM CLR M01/M04 A3008 720 81 -1000 180/12 RMK AO2
14837KMSN MSN20101119042509511/19/10 04:25:31  5-MIN KMSN 191025Z 17014KT 7SM CLR M01/M04 A3008 710 81 -1000 170/14 RMK AO2
14837KMSN MSN20101119043009511/19/10 04:30:31  5-MIN KMSN 191030Z 17011KT 7SM CLR M01/M04 A3008 710 81 -1000 170/11 RMK AO2
14837KMSN MSN20101119043509511/19/10 04:35:31  5-MIN KMSN 191035Z 17011KT 7SM CLR M01/M04 A3008 710 81 -1000 170/11 RMK AO2
14837KMSN MSN20101119044009511/19/10 04:40:31  5-MIN KMSN 191040Z 17010KT 7SM CLR M01/M04 A3008 710 81 -1000 170/10 RMK AO2
14837KMSN MSN20101119044509511/19/10 04:45:31  5-MIN KMSN 191045Z 17009KT 7SM CLR M01/M04 A3008 710 81 -1000 170/09 RMK AO2
14837KMSN MSN20101119045011211/19/10 04:50:31  5-MIN KMSN 191050Z 16011KT 7SM CLR M01/M04 A3008 720 81 -1000 160/11 RMK AO2 SLP195 T10111039
14837KMSN MSN20101119045509811/19/10 04:55:31  5-MIN KMSN 191055Z 16013KT 6SM HZ CLR M01/M04 A3007 730 81 -1000 160/13 RMK AO2
14837KMSN MSN20101119050009811/19/10 05:00:31  5-MIN KMSN 191100Z 16011KT 6SM HZ CLR M01/M04 A3007 730 81 -1000 160/11 RMK AO2
14837KMSN MSN20101119050509811/19/10 05:05:31  5-MIN KMSN 191105Z 16009KT 6SM HZ CLR M01/M04 A3006 730 81 -1000 160/09 RMK AO2
14837KMSN MSN20101119051009811/19/10 05:10:31  5-MIN KMSN 191110Z 16009KT 6SM HZ CLR M01/M04 A3006 730 81 -1000 160/09 RMK AO2
14837KMSN MSN20101119051509811/19/10 05:15:31  5-MIN KMSN 191115Z 16008KT 6SM HZ CLR M01/M04 A3006 730 81 -1000 160/08 RMK AO2
14837KMSN MSN20101119052009811/19/10 05:20:31  5-MIN KMSN 191120Z 18007KT 6SM HZ CLR M01/M04 A3006 730 81 -1000 180/07 RMK AO2
14837KMSN MSN20101119052509711/19/10 05:25:31  5-MIN KMSN 191125Z 19008KT 6SM HZ CLR M01/M04 A3007 730 78 -900 190/08 RMK AO2
14837KMSN MSN20101119053010311/19/10 05:30:31  5-MIN KMSN 191130Z 19010G16KT 6SM HZ CLR M01/M03 A3006 730 81 -900 190/10G16 RMK AO2
14837KMSN MSN20101119053510211/19/10 05:35:31  5-MIN KMSN 191135Z 19013G18KT 6SM HZ CLR 00/M03 A3006 730 78 -800 190/13G18 RMK AO2
14837KMSN MSN20101119082510511/19/10 08:25:31  5-MIN KMSN 191425Z 18015G21KT 4SM BR OVC014 01/M02 A2999 800 85 -700 180/15G21 RMK AO2
14837KMSN MSN20101119083010511/19/10 08:30:31  5-MIN KMSN 191430Z 19012G21KT 4SM HZ OVC014 01/M02 A2999 800 82 -600 190/12G21 RMK AO2
14837KMSN MSN20101119083510511/19/10 08:35:31  5-MIN KMSN 191435Z 19013G21KT 4SM HZ OVC014 01/M02 A2999 800 82 -600 190/13G21 RMK AO2
14837KMSN MSN20101119084010511/19/10 08:40:31  5-MIN KMSN 191440Z 19015G23KT 4SM HZ OVC012 01/M02 A2999 800 82 -600 190/15G23 RMK AO2
14837KMSN MSN20101119084510511/19/10 08:45:31  5-MIN KMSN 191445Z 19016G23KT 4SM HZ OVC012 01/M02 A2998 810 82 -600 190/16G23 RMK AO2
14837KMSN MSN20101119085012811/19/10 08:50:31  5-MIN KMSN 191450Z 19014G22KT 4SM HZ OVC012 01/M02 A2998 810 82 -600 190/14G22 RMK AO2 SLP161 T00111017 56028
14837KMSN MSN20101119085510511/19/10 08:55:31  5-MIN KMSN 191455Z 19015G22KT 4SM HZ OVC012 01/M02 A2998 810 82 -600 190/15G22 RMK AO2
14837KMSN MSN20101119090010511/19/10 09:00:31  5-MIN KMSN 191500Z 21012G25KT 4SM HZ OVC012 01/M02 A2998 810 82 -600 210/12G25 RMK AO2
14837KMSN MSN20101119090510511/19/10 09:05:31  5-MIN KMSN 191505Z 20013G25KT 4SM HZ OVC012 02/M02 A2998 810 78 -500 200/13G25 RMK AO2
14837KMSN MSN20101119091010511/19/10 09:10:31  5-MIN KMSN 191510Z 19017G25KT 4SM HZ OVC012 02/M01 A2998 810 82 -500 190/17G25 RMK AO2
14837KMSN MSN20101119091512311/19/10 09:15:31  5-MIN KMSN 191515Z 20013G26KT 4SM HZ OVC012 02/M02 A2997 820 78 -500 200/13G26 RMK AO2 PK WND 20026/1511
14837KMSN MSN20101119092012311/19/10 09:20:31  5-MIN KMSN 191520Z 20014G26KT 4SM HZ OVC012 02/M01 A2997 820 82 -500 190/14G26 RMK AO2 PK WND 20026/1511
14837KMSN MSN20101119092512311/19/10 09:25:31  5-MIN KMSN 191525Z 20013G21KT 4SM HZ OVC012 02/M01 A2998 810 82 -500 190/13G21 RMK AO2 PK WND 20026/1511
14837KMSN MSN20101119093012311/19/10 09:30:31  5-MIN KMSN 191530Z 19015G20KT 4SM HZ OVC012 02/M01 A2997 820 82 -500 190/15G20 RMK AO2 PK WND 20026/1511
14837KMSN MSN20101119093512311/19/10 09:35:31  5-MIN KMSN 191535Z 19016G22KT 4SM HZ OVC012 02/M01 A2997 820 82 -500 190/16G22 RMK AO2 PK WND 20026/1511
14837KMSN MSN20101119094012311/19/10 09:40:31  5-MIN KMSN 191540Z 20012G22KT 5SM HZ OVC012 02/M01 A2996 830 78 -400 200/12G22 RMK AO2 PK WND 20026/1511
14837KMSN MSN20101119094512311/19/10 09:45:31  5-MIN KMSN 191545Z 20014G22KT 5SM HZ OVC012 02/M01 A2996 830 78 -400 200/14G22 RMK AO2 PK WND 20026/1511
14837KMSN MSN20101119095014011/19/10 09:50:31  5-MIN KMSN 191550Z 20014G20KT 5SM HZ OVC012 02/M01 A2996 830 82 -400 200/14G20 RMK AO2 PK WND 20026/1511 SLP154 T00221006
14837KMSN MSN20101119095510511/19/10 09:55:31  5-MIN KMSN 191555Z 20011G20KT 5SM HZ OVC012 02/M01 A2996 820 82 -400 200/11G20 RMK AO2
14837KMSN MSN20101119100010511/19/10 10:00:31  5-MIN KMSN 191600Z 20012G19KT 5SM HZ OVC012 03/M01 A2997 820 79 -400 200/12G19 RMK AO2
14837KMSN MSN20101119100510511/19/10 10:05:31  5-MIN KMSN 191605Z 20009G21KT 5SM HZ OVC012 02/M01 A2996 830 78 -400 200/09G21 RMK AO2
14837KMSN MSN20101119101010511/19/10 10:10:31  5-MIN KMSN 191610Z 20010G21KT 5SM HZ OVC012 03/M01 A2997 820 79 -400 200/10G21 RMK AO2
14837KMSN MSN20101119101511211/19/10 10:15:31  5-MIN KMSN 191615Z 20015G22KT 5SM HZ BKN014 OVC020 03/M01 A2997 820 79 -400 200/15G22 RMK AO2
14837KMSN MSN20101119102011211/19/10 10:20:31  5-MIN KMSN 191620Z 21013G22KT 5SM HZ BKN014 OVC020 03/M01 A2996 820 79 -400 210/13G22 RMK AO2
14837KMSN MSN20101119102510511/19/10 10:25:31  5-MIN KMSN 191625Z 21010G22KT 5SM HZ OVC014 03/M01 A2996 830 79 -400 210/10G22 RMK AO2
14837KMSN MSN20101119103010511/19/10 10:30:31  5-MIN KMSN 191630Z 20014G22KT 5SM HZ OVC014 03/M01 A2996 830 79 -400 200/14G22 RMK AO2
14837KMSN MSN20101119103510511/19/10 10:35:31  5-MIN KMSN 191635Z 22014G22KT 5SM HZ OVC016 03/M01 A2995 830 79 -400 220/14G22 RMK AO2
14837KMSN MSN20101119104010511/19/10 10:40:31  5-MIN KMSN 191640Z 21011G22KT 5SM HZ OVC016 03/M01 A2995 840 79 -400 210/11G22 RMK AO2
14837KMSN MSN20101119104510511/19/10 10:45:31  5-MIN KMSN 191645Z 21014G23KT 5SM HZ OVC016 03/M01 A2995 840 79 -400 210/14G23 RMK AO2
14837KMSN MSN20101119105012211/19/10 10:50:31  5-MIN KMSN 191650Z 22010G23KT 5SM HZ OVC016 03/M01 A2995 840 76 -300 220/10G23 RMK AO2 SLP150 T00331006
14837KMSN MSN20101119105510511/19/10 10:55:31  5-MIN KMSN 191655Z 22009G18KT 5SM HZ OVC015 03/M01 A2995 840 76 -300 220/09G18 RMK AO2
14837KMSN MSN20101119110010511/19/10 11:00:31  5-MIN KMSN 191700Z 22011G18KT 5SM HZ OVC015 03/M01 A2995 840 76 -300 220/11G18 RMK AO2
14837KMSN MSN20101119110512111/19/10 11:05:31  5-MIN KMSN 191705Z 21010G21KT 190V250 5SM HZ OVC015 03/M01 A2994 840 76 -300 210/10G21 190V250 RMK AO2
14837KMSN MSN20101119111010511/19/10 11:10:31  5-MIN KMSN 191710Z 21011G21KT 5SM HZ OVC015 03/M01 A2994 840 76 -300 210/11G21 RMK AO2
14837KMSN MSN20101119111510511/19/10 11:15:31  5-MIN KMSN 191715Z 22013G23KT 5SM HZ OVC015 03/M01 A2994 840 76 -300 220/13G23 RMK AO2
14837KMSN MSN20101119112010411/19/10 11:20:31  5-MIN KMSN 191720Z 21012G23KT 5SM HZ OVC015 03/00 A2994 850 79 -300 210/12G23 RMK AO2
14837KMSN MSN20101119112510411/19/10 11:25:31  5-MIN KMSN 191725Z 21012G20KT 5SM HZ OVC015 03/00 A2993 850 79 -300 210/12G20 RMK AO2
14837KMSN MSN20101119113010411/19/10 11:30:31  5-MIN KMSN 191730Z 21011G21KT 5SM HZ OVC015 03/00 A2993 860 79 -300 210/11G21 RMK AO2
14837KMSN MSN20101119113510411/19/10 11:35:31  5-MIN KMSN 191735Z 20010G21KT 5SM HZ OVC015 03/00 A2993 860 79 -300 200/10G21 RMK AO2
14837KMSN MSN20101119114010411/19/10 11:40:31  5-MIN KMSN 191740Z 21012G19KT 4SM HZ OVC017 03/00 A2993 860 79 -300 210/12G19 RMK AO2
14837KMSN MSN20101119114510411/19/10 11:45:31  5-MIN KMSN 191745Z 22010G19KT 5SM HZ OVC017 04/00 A2993 860 76 -200 220/10G19 RMK AO2
14837KMSN MSN20101119115013911/19/10 11:50:31  5-MIN KMSN 191750Z 22010G17KT 5SM HZ OVC017 04/00 A2992 860 76 -200 220/10G17 RMK AO2 SLP141 T00390000 10039 21006 58012
14837KMSN MSN20101119115512011/19/10 11:55:31  5-MIN KMSN 191755Z 22008G17KT 180V260 5SM HZ OVC017 04/00 A2992 860 76 -200 210/08G17 180V260 RMK AO2
14837KMSN MSN20101119120010411/19/10 12:00:31  5-MIN KMSN 191800Z 22008G17KT 5SM HZ OVC017 04/00 A2992 860 76 -200 220/08G17 RMK AO2
14837KMSN MSN20101119120510411/19/10 12:05:31  5-MIN KMSN 191805Z 22008G17KT 5SM HZ OVC017 04/00 A2992 860 76 -200 220/08G17 RMK AO2
14837KMSN MSN20101119121009811/19/10 12:10:31  5-MIN KMSN 191810Z 21009KT 5SM HZ OVC017 04/00 A2992 870 76 -200 210/09 RMK AO2
14837KMSN MSN20101119121510411/19/10 12:15:31  5-MIN KMSN 191815Z 23009G14KT 5SM HZ OVC017 04/00 A2992 870 76 -200 220/09G14 RMK AO2
14837KMSN MSN20101119122010411/19/10 12:20:31  5-MIN KMSN 191820Z 22009G15KT 5SM HZ OVC017 04/00 A2992 870 76 -200 210/09G15 RMK AO2
14837KMSN MSN20101119122510411/19/10 12:25:31  5-MIN KMSN 191825Z 22006G15KT 5SM HZ OVC017 04/00 A2991 870 76 -200 210/06G15 RMK AO2
14837KMSN MSN20101119123010411/19/10 12:30:31  5-MIN KMSN 191830Z 21008G14KT 5SM HZ OVC017 04/00 A2992 870 76 -200 210/08G14 RMK AO2
14837KMSN MSN20101119123510411/19/10 12:35:31  5-MIN KMSN 191835Z 24008G14KT 5SM HZ OVC017 04/00 A2992 870 76 -200 240/08G14 RMK AO2
14837KMSN MSN20101119124009811/19/10 12:40:31  5-MIN KMSN 191840Z VRB04KT 5SM HZ OVC017 04/01 A2991 870 79 -200 VRB/04 RMK AO2
14837KMSN MSN20101119124509811/19/10 12:45:31  5-MIN KMSN 191845Z 21007KT 5SM HZ OVC017 04/01 A2992 870 76 -100 210/07 RMK AO2
14837KMSN MSN20101119125011511/19/10 12:50:31  5-MIN KMSN 191850Z 22008KT 5SM HZ OVC017 04/01 A2992 870 79 -200 220/08 RMK AO2 SLP140 T00390006
14837KMSN MSN20101119125511411/19/10 12:55:31  5-MIN KMSN 191855Z 22008KT 190V260 5SM HZ OVC017 04/01 A2992 860 76 -100 220/08 190V260 RMK AO2
14837KMSN MSN20101119130009811/19/10 13:00:31  5-MIN KMSN 191900Z VRB04KT 5SM HZ OVC019 04/01 A2992 870 76 -100 VRB/04 RMK AO2
14837KMSN MSN20101119130509811/19/10 13:05:31  5-MIN KMSN 191905Z 22006KT 5SM HZ OVC019 04/01 A2991 870 76 -100 220/06 RMK AO2
14837KMSN MSN20101119131009811/19/10 13:10:31  5-MIN KMSN 191910Z 23005KT 5SM HZ OVC019 04/01 A2992 870 76 -100 230/05 RMK AO2
14837KMSN MSN20101119131510411/19/10 13:15:31  5-MIN KMSN 191915Z 23004G15KT 6SM HZ OVC019 04/01 A2992 860 76 -100 230/04G15 RMK AO2
14837KMSN MSN20101119132010411/19/10 13:20:31  5-MIN KMSN 191920Z 22008G15KT 6SM HZ OVC019 04/01 A2992 860 76 -100 220/08G15 RMK AO2
14837KMSN MSN20101119132510111/19/10 13:25:31  5-MIN KMSN 191925Z 23007G16KT 6SM HZ OVC019 05/01 A2992 860 73 0 230/07G16 RMK AO2
14837KMSN MSN20101119133010111/19/10 13:30:31  5-MIN KMSN 191930Z 23008G16KT 6SM HZ OVC019 05/01 A2992 860 73 0 230/08G16 RMK AO2
14837KMSN MSN20101119133510111/19/10 13:35:31  5-MIN KMSN 191935Z 25008G17KT 6SM HZ OVC019 05/01 A2992 860 73 0 250/08G17 RMK AO2
14837KMSN MSN20101119134010111/19/10 13:40:31  5-MIN KMSN 191940Z 25008G17KT 6SM HZ OVC019 05/01 A2992 860 73 0 250/08G17 RMK AO2
14837KMSN MSN20101119134510111/19/10 13:45:31  5-MIN KMSN 191945Z 23009G16KT 6SM HZ OVC019 05/01 A2992 860 73 0 230/09G16 RMK AO2
14837KMSN MSN20101119135011811/19/10 13:50:31  5-MIN KMSN 191950Z 24008G14KT 6SM HZ OVC021 05/01 A2992 860 73 0 240/08G14 RMK AO2 SLP140 T00500006
14837KMSN MSN20101119135510111/19/10 13:55:31  5-MIN KMSN 191955Z 23009G15KT 6SM HZ OVC021 05/01 A2992 870 73 0 230/09G15 RMK AO2
14837KMSN MSN20101119140011711/19/10 14:00:31  5-MIN KMSN 192000Z 24007G15KT 200V270 6SM HZ OVC021 05/01 A2992 870 73 0 240/07G15 200V270 RMK AO2
14837KMSN MSN20101119140509511/19/10 14:05:31  5-MIN KMSN 192005Z 24008KT 6SM HZ OVC021 05/01 A2992 860 73 0 240/08 RMK AO2
14837KMSN MSN20101119141009511/19/10 14:10:31  5-MIN KMSN 192010Z 24008KT 6SM HZ OVC021 05/01 A2992 870 73 0 240/08 RMK AO2
14837KMSN MSN20101119141509511/19/10 14:15:31  5-MIN KMSN 192015Z VRB06KT 6SM HZ OVC021 05/01 A2992 860 73 0 VRB/06 RMK AO2
14837KMSN MSN20101119142010411/19/10 14:20:31  5-MIN KMSN 192020Z 24010G17KT 6SM HZ OVC021 05/01 A2992 860 73 -100 240/10G17 RMK AO2
14837KMSN MSN20101119142512011/19/10 14:25:31  5-MIN KMSN 192025Z 24010G18KT 220V280 6SM HZ OVC021 05/01 A2992 860 73 -100 240/10G18 220V280 RMK AO2
14837KMSN MSN20101119143010411/19/10 14:30:31  5-MIN KMSN 192030Z VRB06G18KT 6SM HZ OVC021 05/01 A2993 860 73 -100 VRB/06G18 RMK AO2
14837KMSN MSN20101119143509811/19/10 14:35:31  5-MIN KMSN 192035Z 25007KT 6SM HZ OVC021 05/01 A2993 860 73 -100 250/07 RMK AO2
14837KMSN MSN20101119144009811/19/10 14:40:31  5-MIN KMSN 192040Z 26006KT 6SM HZ OVC021 05/01 A2993 860 73 -100 260/06 RMK AO2
14837KMSN MSN20101119144509811/19/10 14:45:31  5-MIN KMSN 192045Z 27004KT 6SM HZ OVC021 05/01 A2993 860 76 -100 270/04 RMK AO2
14837KMSN MSN20101119145012111/19/10 14:50:31  5-MIN KMSN 192050Z 27007KT 6SM HZ OVC021 05/01 A2993 850 76 -100 260/07 RMK AO2 SLP145 T00500011 58019
14837KMSN MSN20101119145509811/19/10 14:55:31  5-MIN KMSN 192055Z VRB05KT 6SM HZ OVC021 05/01 A2993 850 76 -100 VRB/05 RMK AO2
14837KMSN MSN20101119150009811/19/10 15:00:31  5-MIN KMSN 192100Z VRB05KT 6SM HZ OVC021 05/01 A2993 850 73 -100 VRB/05 RMK AO2
14837KMSN MSN20101119150509811/19/10 15:05:31  5-MIN KMSN 192105Z VRB03KT 6SM HZ OVC021 05/01 A2993 850 73 -100 VRB/03 RMK AO2
14837KMSN MSN20101119151009511/19/10 15:10:31  5-MIN KMSN 192110Z VRB03KT 6SM HZ OVC021 06/01 A2993 860 73 0 VRB/03 RMK AO2
14837KMSN MSN20101119151509511/19/10 15:15:31  5-MIN KMSN 192115Z VRB03KT 6SM HZ OVC021 06/01 A2993 850 70 0 VRB/03 RMK AO2
14837KMSN MSN20101119152009011/19/10 15:20:31  5-MIN KMSN 192120Z 27004KT OVC021 06/01 A2994 850 70 0 270/04 RMK AO2 $
14837KMSN MSN20101119152509711/19/10 15:25:31  5-MIN KMSN 192125Z VRB04KT 6SM HZ OVC021 06/01 A2994 850 70 0 VRB/04 RMK AO2 $
14837KMSN MSN20101119153009711/19/10 15:30:31  5-MIN KMSN 192130Z VRB04KT 6SM HZ OVC021 06/01 A2994 850 70 0 VRB/04 RMK AO2 $
14837KMSN MSN20101119153509711/19/10 15:35:31  5-MIN KMSN 192135Z 28004KT 6SM HZ OVC021 06/01 A2994 840 70 0 280/04 RMK AO2 $
14837KMSN MSN20101119154009711/19/10 15:40:31  5-MIN KMSN 192140Z 28007KT 6SM HZ OVC021 06/01 A2995 840 70 0 280/07 RMK AO2 $
14837KMSN MSN20101119154509711/19/10 15:45:31  5-MIN KMSN 192145Z 28007KT 5SM HZ OVC021 06/01 A2995 840 70 0 280/07 RMK AO2 $
14837KMSN MSN20101119155011411/19/10 15:50:31  5-MIN KMSN 192150Z VRB03KT 5SM HZ OVC021 06/01 A2995 840 73 0 VRB/03 RMK AO2 SLP151 T00560011 $
14837KMSN MSN20101119155509711/19/10 15:55:31  5-MIN KMSN 192155Z 26006KT 5SM HZ OVC021 06/01 A2995 830 73 0 260/06 RMK AO2 $
14837KMSN MSN20101119160009711/19/10 16:00:31  5-MIN KMSN 192200Z 28003KT 5SM HZ OVC021 06/01 A2995 830 73 0 280/03 RMK AO2 $
14837KMSN MSN20101119160509711/19/10 16:05:31  5-MIN KMSN 192205Z 28005KT 5SM HZ OVC021 06/01 A2996 830 73 0 280/05 RMK AO2 $
14837KMSN MSN20101119161009711/19/10 16:10:31  5-MIN KMSN 192210Z 29004KT 5SM HZ OVC021 06/01 A2996 830 73 0 280/04 RMK AO2 $
14837KMSN MSN20101119161510011/19/10 16:15:31  5-MIN KMSN 192215Z 29003KT 5SM HZ OVC021 05/01 A2996 830 76 -100 290/03 RMK AO2 $
14837KMSN MSN20101119162010011/19/10 16:20:31  5-MIN KMSN 192220Z 28003KT 5SM HZ OVC021 05/01 A2996 830 76 -100 280/03 RMK AO2 $
14837KMSN MSN20101119162510011/19/10 16:25:31  5-MIN KMSN 192225Z VRB03KT 5SM HZ OVC021 05/01 A2996 830 76 -100 VRB/03 RMK AO2 $
14837KMSN MSN20101119163010011/19/10 16:30:31  5-MIN KMSN 192230Z 28006KT 6SM HZ OVC021 05/01 A2997 820 73 -100 270/06 RMK AO2 $
14837KMSN MSN20101119163510011/19/10 16:35:31  5-MIN KMSN 192235Z 28005KT 6SM HZ OVC021 05/01 A2997 820 73 -100 280/05 RMK AO2 $
14837KMSN MSN20101119164009711/19/10 16:40:31  5-MIN KMSN 192240Z 30005KT 7SM OVC021 05/01 A2997 820 73 -100 300/05 RMK AO2 $
14837KMSN MSN20101119164509711/19/10 16:45:31  5-MIN KMSN 192245Z 28003KT 7SM OVC021 05/01 A2998 810 73 -100 280/03 RMK AO2 $
14837KMSN MSN20101119165011411/19/10 16:50:31  5-MIN KMSN 192250Z 27004KT 7SM OVC021 05/01 A2998 810 76 -100 270/04 RMK AO2 SLP159 T00500011 $
14837KMSN MSN20101119165509711/19/10 16:55:31  5-MIN KMSN 192255Z 00000KT 7SM OVC021 05/01 A2997 810 76 -100 000/00 RMK AO2 $
14837KMSN MSN20101119170009711/19/10 17:00:31  5-MIN KMSN 192300Z 26004KT 7SM OVC021 05/01 A2998 810 76 -100 260/04 RMK AO2 $
14837KMSN MSN20101119170509711/19/10 17:05:31  5-MIN KMSN 192305Z 28005KT 7SM OVC021 05/01 A2999 800 73 -100 280/05 RMK AO2 $
14837KMSN MSN20101119171009711/19/10 17:10:31  5-MIN KMSN 192310Z VRB03KT 7SM OVC021 05/01 A2999 800 73 -100 VRB/03 RMK AO2 $
14837KMSN MSN20101119171509711/19/10 17:15:31  5-MIN KMSN 192315Z 27006KT 7SM OVC021 05/01 A2999 800 73 -100 270/06 RMK AO2 $
14837KMSN MSN20101119172009711/19/10 17:20:31  5-MIN KMSN 192320Z 28004KT 7SM OVC023 05/01 A2999 800 73 -100 280/04 RMK AO2 $
14837KMSN MSN20101119172509711/19/10 17:25:31  5-MIN KMSN 192325Z 00000KT 7SM OVC023 05/01 A2999 800 73 -100 000/00 RMK AO2 $
14837KMSN MSN20101119173009711/19/10 17:30:31  5-MIN KMSN 192330Z 27006KT 7SM OVC025 05/01 A2999 800 73 -100 270/06 RMK AO2 $
14837KMSN MSN20101119173510411/19/10 17:35:31  5-MIN KMSN 192335Z 27004KT 7SM BKN025 OVC030 05/01 A2999 800 73 -100 270/04 RMK AO2 $
14837KMSN MSN20101119174009711/19/10 17:40:31  5-MIN KMSN 192340Z VRB05KT 7SM OVC025 05/01 A2999 800 73 -100 VRB/05 RMK AO2 $
14837KMSN MSN20101119174509711/19/10 17:45:31  5-MIN KMSN 192345Z 26004KT 7SM OVC027 05/01 A2999 800 73 -100 260/04 RMK AO2 $
14837KMSN MSN20101119175013211/19/10 17:50:31  5-MIN KMSN 192350Z 26004KT 7SM OVC027 05/01 A3000 790 73 -100 260/04 RMK AO2 SLP166 T00500006 10056 20039 53004 $
14837KMSN MSN20101119175509711/19/10 17:55:31  5-MIN KMSN 192355Z 00000KT 7SM OVC027 05/01 A3000 790 73 -100 000/00 RMK AO2 $
14837KMSN MSN20101119180009711/19/10 18:00:31  5-MIN KMSN 200000Z 26003KT 7SM OVC027 05/01 A3000 790 73 -100 260/03 RMK AO2 $
14837KMSN MSN20101119180509711/19/10 18:05:31  5-MIN KMSN 200005Z 27003KT 7SM OVC027 05/01 A3001 790 73 -100 270/03 RMK AO2 $
14837KMSN MSN20101119181009711/19/10 18:10:31  5-MIN KMSN 200010Z 00000KT 7SM OVC029 05/01 A3000 790 73 -100 000/00 RMK AO2 $
14837KMSN MSN20101119181509711/19/10 18:15:31  5-MIN KMSN 200015Z 28004KT 7SM OVC029 05/01 A3001 780 73 -100 280/04 RMK AO2 $
14837KMSN MSN20101119182009711/19/10 18:20:31  5-MIN KMSN 200020Z 28004KT 7SM OVC029 05/01 A3001 780 73 -200 280/04 RMK AO2 $
14837KMSN MSN20101119182509711/19/10 18:25:31  5-MIN KMSN 200025Z VRB04KT 7SM OVC029 05/01 A3001 780 73 -100 VRB/04 RMK AO2 $
14837KMSN MSN20101119183009711/19/10 18:30:31  5-MIN KMSN 200030Z 29004KT 7SM OVC029 05/01 A3001 780 73 -200 290/04 RMK AO2 $
14837KMSN MSN20101119183509711/19/10 18:35:31  5-MIN KMSN 200035Z 27004KT 7SM OVC029 05/01 A3001 780 73 -100 270/04 RMK AO2 $
14837KMSN MSN20101119184009711/19/10 18:40:31  5-MIN KMSN 200040Z VRB04KT 7SM OVC029 05/01 A3001 780 73 -100 VRB/04 RMK AO2 $
14837KMSN MSN20101119184509711/19/10 18:45:31  5-MIN KMSN 200045Z 27004KT 7SM OVC029 05/01 A3001 780 73 -100 270/04 RMK AO2 $
14837KMSN MSN20101119185011411/19/10 18:50:31  5-MIN KMSN 200050Z 27003KT 7SM OVC027 04/01 A3001 780 76 -200 270/03 RMK AO2 SLP171 T00440006 $
14837KMSN MSN20101119185509711/19/10 18:55:31  5-MIN KMSN 200055Z 28003KT 7SM OVC027 04/01 A3002 770 76 -200 280/03 RMK AO2 $
14837KMSN MSN20101119190009711/19/10 19:00:31  5-MIN KMSN 200100Z 29003KT 7SM OVC027 04/01 A3002 780 76 -200 290/03 RMK AO2 $
14837KMSN MSN20101119190509711/19/10 19:05:31  5-MIN KMSN 200105Z 29003KT 7SM OVC027 04/01 A3002 770 76 -200 290/03 RMK AO2 $
14837KMSN MSN20101119191009711/19/10 19:10:31  5-MIN KMSN 200110Z 28003KT 7SM OVC027 04/01 A3002 770 76 -200 280/03 RMK AO2 $
14837KMSN MSN20101119191509711/19/10 19:15:31  5-MIN KMSN 200115Z 29003KT 7SM OVC027 04/01 A3003 760 76 -200 290/03 RMK AO2 $
14837KMSN MSN20101119192009711/19/10 19:20:31  5-MIN KMSN 200120Z 00000KT 7SM BKN027 04/01 A3003 760 79 -300 000/00 RMK AO2 $
14837KMSN MSN20101119192509711/19/10 19:25:31  5-MIN KMSN 200125Z 29003KT 7SM BKN025 04/01 A3003 760 79 -300 290/03 RMK AO2 $
14837KMSN MSN20101119193009711/19/10 19:30:31  5-MIN KMSN 200130Z 00000KT 7SM SCT025 04/01 A3003 770 79 -300 000/00 RMK AO2 $
14837KMSN MSN20101119193509711/19/10 19:35:31  5-MIN KMSN 200135Z 00000KT 7SM BKN025 04/01 A3003 760 79 -300 000/00 RMK AO2 $
14837KMSN MSN20101119194009711/19/10 19:40:31  5-MIN KMSN 200140Z 00000KT 7SM SCT025 03/01 A3003 760 82 -400 000/00 RMK AO2 $
14837KMSN MSN20101119194509711/19/10 19:45:31  5-MIN KMSN 200145Z 00000KT 7SM SCT025 03/01 A3003 760 82 -400 000/00 RMK AO2 $
14837KMSN MSN20101119195011411/19/10 19:50:31  5-MIN KMSN 200150Z 00000KT 7SM SCT025 03/00 A3003 760 79 -400 000/00 RMK AO2 SLP178 T00330000 $
14837KMSN MSN20101119195509711/19/10 19:55:31  5-MIN KMSN 200155Z 00000KT 7SM BKN025 03/01 A3003 760 82 -400 000/00 RMK AO2 $
14837KMSN MSN20101119200010011/19/10 20:00:31  5-MIN KMSN 200200Z 00000KT 6SM HZ BKN025 03/00 A3003 760 79 -400 000/00 RMK AO2 $
14837KMSN MSN20101119200510011/19/10 20:05:31  5-MIN KMSN 200205Z 00000KT 6SM HZ BKN025 03/00 A3004 760 82 -500 000/00 RMK AO2 $
14837KMSN MSN20101119201010011/19/10 20:10:31  5-MIN KMSN 200210Z 00000KT 6SM BR BKN025 02/00 A3003 760 85 -500 000/00 RMK AO2 $
14837KMSN MSN20101119201509711/19/10 20:15:31  5-MIN KMSN 200215Z 00000KT 7SM FEW023 03/00 A3003 760 82 -500 000/00 RMK AO2 $
14837KMSN MSN20101119202009711/19/10 20:20:31  5-MIN KMSN 200220Z 00000KT 7SM FEW023 03/00 A3004 760 82 -500 000/00 RMK AO2 $
14837KMSN MSN20101119202509711/19/10 20:25:31  5-MIN KMSN 200225Z 00000KT 7SM FEW023 03/00 A3004 760 79 -400 000/00 RMK AO2 $
14837KMSN MSN20101119203009411/19/10 20:30:31  5-MIN KMSN 200230Z 00000KT 7SM CLR 03/00 A3004 750 79 -400 000/00 RMK AO2 $
14837KMSN MSN20101119203509411/19/10 20:35:31  5-MIN KMSN 200235Z 00000KT 7SM CLR 03/00 A3004 750 82 -500 000/00 RMK AO2 $
14837KMSN MSN20101119204009411/19/10 20:40:31  5-MIN KMSN 200240Z 00000KT 7SM CLR 02/00 A3005 750 85 -500 000/00 RMK AO2 $
14837KMSN MSN20101119204509511/19/10 20:45:31  5-MIN KMSN 200245Z 00000KT 7SM CLR 02/M01 A3005 740 82 -500 000/00 RMK AO2 $
14837KMSN MSN20101119205011811/19/10 20:50:31  5-MIN KMSN 200250Z 00000KT 7SM CLR 02/M01 A3005 750 85 -600 000/00 RMK AO2 SLP184 T00171006 53022 $
14837KMSN MSN20101119205509811/19/10 20:55:31  5-MIN KMSN 200255Z 00000KT 6SM BR CLR 01/M01 A3005 750 89 -700 000/00 RMK AO2 $
14837KMSN MSN20101119210009811/19/10 21:00:31  5-MIN KMSN 200300Z 00000KT 6SM BR CLR 02/M01 A3006 740 85 -600 000/00 RMK AO2 $
14837KMSN MSN20101119210509811/19/10 21:05:31  5-MIN KMSN 200305Z 00000KT 6SM BR CLR 02/M01 A3006 740 85 -600 000/00 RMK AO2 $
14837KMSN MSN20101119211009711/19/10 21:10:31  5-MIN KMSN 200310Z VRB03KT 6SM BR CLR 02/00 A3006 740 89 -600 VRB/03 RMK AO2 $
14837KMSN MSN20101119211509711/19/10 21:15:31  5-MIN KMSN 200315Z 27003KT 6SM BR CLR 01/00 A3006 740 92 -700 270/03 RMK AO2 $
14837KMSN MSN20101119212009811/19/10 21:20:31  5-MIN KMSN 200320Z 00000KT 5SM BR CLR 01/M01 A3006 730 89 -700 000/00 RMK AO2 $
14837KMSN MSN20101119212509811/19/10 21:25:31  5-MIN KMSN 200325Z 28003KT 6SM BR CLR 01/M01 A3007 730 89 -700 280/03 RMK AO2 $
14837KMSN MSN20101119213009811/19/10 21:30:31  5-MIN KMSN 200330Z 00000KT 6SM BR CLR 02/M01 A3007 730 85 -600 000/00 RMK AO2 $
14837KMSN MSN20101119213509711/19/10 21:35:31  5-MIN KMSN 200335Z 28003KT 6SM BR CLR 02/00 A3007 730 89 -600 280/03 RMK AO2 $
14837KMSN MSN20101119214009711/19/10 21:40:31  5-MIN KMSN 200340Z 28003KT 6SM BR CLR 02/00 A3008 720 85 -600 280/03 RMK AO2 $
14837KMSN MSN20101119214509811/19/10 21:45:31  5-MIN KMSN 200345Z 00000KT 6SM BR CLR 02/M01 A3008 720 85 -600 000/00 RMK AO2 $
14837KMSN MSN20101119215011411/19/10 21:50:31  5-MIN KMSN 200350Z 26004KT 6SM BR CLR 02/00 A3008 720 85 -600 260/04 RMK AO2 SLP194 T00220000 $
14837KMSN MSN20101119215509711/19/10 21:55:31  5-MIN KMSN 200355Z VRB03KT 6SM BR CLR 02/00 A3008 720 85 -600 VRB/03 RMK AO2 $
14837KMSN MSN20101119220009711/19/10 22:00:31  5-MIN KMSN 200400Z 29004KT 6SM BR CLR 02/00 A3008 720 85 -600 280/04 RMK AO2 $
14837KMSN MSN20101119220509711/19/10 22:05:31  5-MIN KMSN 200405Z 28003KT 6SM BR CLR 02/00 A3008 720 85 -600 280/03 RMK AO2 $
14837KMSN MSN20101119221009811/19/10 22:10:31  5-MIN KMSN 200410Z 00000KT 6SM BR CLR 02/M01 A3008 720 85 -600 000/00 RMK AO2 $
14837KMSN MSN20101119221509811/19/10 22:15:31  5-MIN KMSN 200415Z 30003KT 6SM BR CLR 02/M01 A3008 720 85 -600 300/03 RMK AO2 $
14837KMSN MSN20101119222009811/19/10 22:20:31  5-MIN KMSN 200420Z 29003KT 6SM BR CLR 02/M01 A3008 720 85 -600 290/03 RMK AO2 $
14837KMSN MSN20101119222509811/19/10 22:25:31  5-MIN KMSN 200425Z 29003KT 6SM BR CLR 02/M01 A3008 720 85 -600 290/03 RMK AO2 $
14837KMSN MSN20101119223009811/19/10 22:30:31  5-MIN KMSN 200430Z 30003KT 6SM BR CLR 01/M01 A3008 720 89 -700 300/03 RMK AO2 $
14837KMSN MSN20101119223509811/19/10 22:35:31  5-MIN KMSN 200435Z 00000KT 6SM BR CLR 02/M01 A3008 720 85 -600 000/00 RMK AO2 $
14837KMSN MSN20101119224009811/19/10 22:40:31  5-MIN KMSN 200440Z 00000KT 6SM BR CLR 01/M01 A3009 710 89 -700 000/00 RMK AO2 $
14837KMSN MSN20101119224509811/19/10 22:45:31  5-MIN KMSN 200445Z 00000KT 6SM BR CLR 01/M01 A3009 710 92 -800 000/00 RMK AO2 $
14837KMSN MSN20101119225011511/19/10 22:50:31  5-MIN KMSN 200450Z 00000KT 6SM BR CLR 01/M01 A3009 710 89 -800 000/00 RMK AO2 SLP198 T00061011 $
14837KMSN MSN20101119225509811/19/10 22:55:31  5-MIN KMSN 200455Z 00000KT 5SM BR CLR 01/M01 A3009 710 89 -700 000/00 RMK AO2 $
14837KMSN MSN20101119230009811/19/10 23:00:31  5-MIN KMSN 200500Z 00000KT 5SM BR CLR 01/M01 A3009 710 89 -700 000/00 RMK AO2 $
14837KMSN MSN20101119230509811/19/10 23:05:31  5-MIN KMSN 200505Z 00000KT 5SM BR CLR 01/M01 A3009 700 89 -700 000/00 RMK AO2 $
14837KMSN MSN20101119231009811/19/10 23:10:31  5-MIN KMSN 200510Z 28003KT 5SM BR CLR 00/M01 A3010 700 92 -900 280/03 RMK AO2 $
14837KMSN MSN20101119231509811/19/10 23:15:31  5-MIN KMSN 200515Z 30003KT 5SM BR CLR 00/M01 A3010 700 92 -900 300/03 RMK AO2 $
14837KMSN MSN20101119232009811/19/10 23:20:31  5-MIN KMSN 200520Z 30004KT 6SM BR CLR 00/M01 A3010 700 92 -900 300/04 RMK AO2 $
14837KMSN MSN20101119232509811/19/10 23:25:31  5-MIN KMSN 200525Z 29004KT 6SM BR CLR 00/M02 A3010 700 88 -900 290/04 RMK AO2 $
14837KMSN MSN20101119233009811/19/10 23:30:31  5-MIN KMSN 200530Z 30004KT 6SM BR CLR 01/M01 A3010 700 89 -800 300/04 RMK AO2 $
14837KMSN MSN20101119233509811/19/10 23:35:31  5-MIN KMSN 200535Z 30004KT 6SM BR CLR 01/M01 A3011 690 89 -800 300/04 RMK AO2 $
14837KMSN MSN20101119234009811/19/10 23:40:31  5-MIN KMSN 200540Z 30004KT 6SM BR CLR 01/M01 A3011 690 89 -800 300/04 RMK AO2 $
14837KMSN MSN20101119234509811/19/10 23:45:31  5-MIN KMSN 200545Z 29004KT 6SM BR CLR 01/M01 A3011 690 89 -800 290/04 RMK AO2 $
14837KMSN MSN20101119235014311/19/10 23:50:31  5-MIN KMSN 200550Z 29003KT 5SM BR CLR 01/M01 A3012 680 89 -800 290/03 RMK AO2 SLP207 T00061011 10050 20000 400561011 53015 $
14837KMSN MSN20101119235509811/19/10 23:55:31  5-MIN KMSN 200555Z 29004KT 5SM BR CLR 01/M01 A3012 680 89 -800 290/04 RMK AO2 $
14837KMSN MSN20101120000009811/20/10 00:00:32  5-MIN KMSN 200600Z 29003KT 5SM BR CLR 01/M01 A3012 680 89 -800 290/03 RMK AO2 $
14837KMSN MSN20101120000509811/20/10 00:05:31  5-MIN KMSN 200605Z 31004KT 5SM BR CLR 01/M01 A3012 680 85 -800 310/04 RMK AO2 $
14837KMSN MSN20101120001009811/20/10 00:10:31  5-MIN KMSN 200610Z 31003KT 6SM BR CLR 01/M01 A3012 680 89 -800 310/03 RMK AO2 $
14837KMSN MSN20101120001509811/20/10 00:15:31  5-MIN KMSN 200615Z 31004KT 6SM BR CLR 01/M01 A3012 680 89 -800 310/04 RMK AO2 $
14837KMSN MSN20101120002009811/20/10 00:20:31  5-MIN KMSN 200620Z 31004KT 6SM BR CLR 01/M01 A3013 680 89 -800 310/04 RMK AO2 $
14837KMSN MSN20101120002509811/20/10 00:25:31  5-MIN KMSN 200625Z 31004KT 6SM BR CLR 01/M01 A3013 670 89 -800 310/04 RMK AO2 $
14837KMSN MSN20101120003009811/20/10 00:30:31  5-MIN KMSN 200630Z 31003KT 6SM BR CLR 01/M01 A3013 670 89 -800 310/03 RMK AO2 $
14837KMSN MSN20101120003509811/20/10 00:35:31  5-MIN KMSN 200635Z 31003KT 6SM BR CLR 01/M01 A3013 670 89 -800 310/03 RMK AO2 $
14837KMSN MSN20101120004009811/20/10 00:40:31  5-MIN KMSN 200640Z 00000KT 6SM BR CLR 01/M01 A3014 670 89 -800 000/00 RMK AO2 $
14837KMSN MSN20101120004509811/20/10 00:45:31  5-MIN KMSN 200645Z 00000KT 6SM BR CLR 01/M01 A3014 660 89 -800 000/00 RMK AO2 $
14837KMSN MSN20101120005011511/20/10 00:50:31  5-MIN KMSN 200650Z 00000KT 6SM BR CLR 01/M01 A3014 660 89 -900 000/00 RMK AO2 SLP216 T00061011 $
14837KMSN MSN20101120005509811/20/10 00:55:31  5-MIN KMSN 200655Z 30003KT 6SM BR CLR 01/M02 A3015 660 85 -900 300/03 RMK AO2 $
14837KMSN MSN20101120010009811/20/10 01:00:31  5-MIN KMSN 200700Z 31003KT 6SM BR CLR 00/M02 A3015 650 88 -900 310/03 RMK AO2 $
14837KMSN MSN20101120010509811/20/10 01:05:31  5-MIN KMSN 200705Z 32003KT 6SM BR CLR 00/M02 A3015 650 88 -900 320/03 RMK AO2 $
14837KMSN MSN20101120011009811/20/10 01:10:31  5-MIN KMSN 200710Z 32004KT 6SM BR CLR 00/M02 A3015 650 88 -900 320/04 RMK AO2 $
14837KMSN MSN20101120011509811/20/10 01:15:31  5-MIN KMSN 200715Z 33005KT 6SM BR CLR 00/M02 A3015 650 85 -900 320/05 RMK AO2 $
14837KMSN MSN20101120012009811/20/10 01:20:31  5-MIN KMSN 200720Z 32004KT 6SM BR CLR 00/M02 A3015 650 85 -900 320/04 RMK AO2 $
14837KMSN MSN20101120012509811/20/10 01:25:31  5-MIN KMSN 200725Z 33005KT 5SM BR CLR 00/M02 A3015 650 85 -900 330/05 RMK AO2 $
14837KMSN MSN20101120013009811/20/10 01:30:31  5-MIN KMSN 200730Z 33005KT 5SM BR CLR 00/M02 A3015 650 85 -900 330/05 RMK AO2 $
14837KMSN MSN20101120013509811/20/10 01:35:31  5-MIN KMSN 200735Z 33006KT 5SM HZ CLR 00/M03 A3015 650 81 -900 330/06 RMK AO2 $
14837KMSN MSN20101120014009811/20/10 01:40:31  5-MIN KMSN 200740Z 33006KT 5SM HZ CLR 00/M03 A3015 650 81 -900 330/06 RMK AO2 $
14837KMSN MSN20101120014509811/20/10 01:45:31  5-MIN KMSN 200745Z 34006KT 5SM HZ CLR 00/M03 A3015 650 81 -900 330/06 RMK AO2 $
14837KMSN MSN20101120015011211/20/10 01:50:31  5-MIN KMSN 200750Z 33004KT 8SM CLR 00/M03 A3015 650 81 -900 330/04 RMK AO2 SLP219 T00001028 $
14837KMSN MSN20101120015509511/20/10 01:55:31  5-MIN KMSN 200755Z 34004KT 8SM CLR 00/M03 A3015 650 78 -900 340/04 RMK AO2 $
14837KMSN MSN20101120020009511/20/10 02:00:31  5-MIN KMSN 200800Z 34005KT 8SM CLR 00/M03 A3016 650 78 -900 340/05 RMK AO2 $
14837KMSN MSN20101120020509711/20/10 02:05:31  5-MIN KMSN 200805Z 34005KT 8SM CLR M01/M03 A3016 640 81 -1000 340/05 RMK AO2 $
14837KMSN MSN20101120021009711/20/10 02:10:31  5-MIN KMSN 200810Z 33006KT 8SM CLR M01/M03 A3016 640 81 -1000 330/06 RMK AO2 $
14837KMSN MSN20101120021509711/20/10 02:15:31  5-MIN KMSN 200815Z 33005KT 8SM CLR M01/M03 A3017 640 81 -1000 330/05 RMK AO2 $
14837KMSN MSN20101120022009711/20/10 02:20:31  5-MIN KMSN 200820Z 34004KT 8SM CLR M01/M03 A3017 640 81 -1000 340/04 RMK AO2 $
14837KMSN MSN20101120022509711/20/10 02:25:31  5-MIN KMSN 200825Z 00000KT 8SM CLR M01/M03 A3017 630 81 -1000 000/00 RMK AO2 $
14837KMSN MSN20101120023009711/20/10 02:30:31  5-MIN KMSN 200830Z 00000KT 8SM CLR M02/M04 A3017 630 85 -1200 000/00 RMK AO2 $
14837KMSN MSN20101120023509711/20/10 02:35:31  5-MIN KMSN 200835Z 02003KT 8SM CLR M02/M04 A3017 630 81 -1200 020/03 RMK AO2 $
14837KMSN MSN20101120024009711/20/10 02:40:31  5-MIN KMSN 200840Z 03003KT 8SM CLR M01/M04 A3017 630 81 -1100 030/03 RMK AO2 $
14837KMSN MSN20101120024509711/20/10 02:45:31  5-MIN KMSN 200845Z 01004KT 8SM CLR M01/M04 A3018 630 81 -1100 010/04 RMK AO2 $
14837KMSN MSN20101120025012011/20/10 02:50:31  5-MIN KMSN 200850Z 35006KT 8SM CLR M02/M04 A3018 620 81 -1200 350/06 RMK AO2 SLP229 T10171044 51024 $
14837KMSN MSN20101120025509711/20/10 02:55:31  5-MIN KMSN 200855Z 35005KT 9SM CLR M02/M05 A3019 620 78 -1200 350/05 RMK AO2 $
14837KMSN MSN20101120030009811/20/10 03:00:31  5-MIN KMSN 200900Z 35005KT 10SM CLR M02/M05 A3018 620 78 -1200 350/05 RMK AO2 $
14837KMSN MSN20101120030509811/20/10 03:05:31  5-MIN KMSN 200905Z 36005KT 10SM CLR M02/M05 A3019 620 78 -1200 360/05 RMK AO2 $
14837KMSN MSN20101120031009811/20/10 03:10:31  5-MIN KMSN 200910Z 36005KT 10SM CLR M02/M06 A3019 620 75 -1200 360/05 RMK AO2 $
14837KMSN MSN20101120031509811/20/10 03:15:31  5-MIN KMSN 200915Z 36006KT 10SM CLR M02/M06 A3019 620 78 -1300 360/06 RMK AO2 $
14837KMSN MSN20101120032009811/20/10 03:20:31  5-MIN KMSN 200920Z 36007KT 10SM CLR M02/M06 A3019 620 75 -1300 360/07 RMK AO2 $
14837KMSN MSN20101120032509811/20/10 03:25:31  5-MIN KMSN 200925Z 35008KT 10SM CLR M02/M07 A3019 620 72 -1300 350/08 RMK AO2 $
14837KMSN MSN20101120033009811/20/10 03:30:31  5-MIN KMSN 200930Z 35008KT 10SM CLR M02/M07 A3019 620 72 -1300 350/08 RMK AO2 $
14837KMSN MSN20101120033509811/20/10 03:35:31  5-MIN KMSN 200935Z 34010KT 10SM CLR M02/M07 A3019 620 72 -1300 340/10 RMK AO2 $
14837KMSN MSN20101120034009811/20/10 03:40:31  5-MIN KMSN 200940Z 35010KT 10SM CLR M02/M07 A3019 620 69 -1300 350/10 RMK AO2 $
14837KMSN MSN20101120034509811/20/10 03:45:31  5-MIN KMSN 200945Z 35009KT 10SM CLR M02/M08 A3019 620 66 -1300 350/09 RMK AO2 $
14837KMSN MSN20101120035011511/20/10 03:50:31  5-MIN KMSN 200950Z 35007KT 10SM CLR M02/M08 A3019 620 66 -1300 350/07 RMK AO2 SLP232 T10221078 $
14837KMSN MSN20101120035509811/20/10 03:55:31  5-MIN KMSN 200955Z 35007KT 10SM CLR M02/M08 A3019 620 66 -1300 350/07 RMK AO2 $
14837KMSN MSN20101120040009811/20/10 04:00:31  5-MIN KMSN 201000Z 36007KT 10SM CLR M03/M08 A3019 610 68 -1300 350/07 RMK AO2 $
14837KMSN MSN20101120040509811/20/10 04:05:31  5-MIN KMSN 201005Z 35007KT 10SM CLR M03/M08 A3019 610 68 -1300 350/07 RMK AO2 $
14837KMSN MSN20101120041009811/20/10 04:10:31  5-MIN KMSN 201010Z 35006KT 10SM CLR M03/M08 A3020 610 68 -1300 350/06 RMK AO2 $
14837KMSN MSN20101120041509811/20/10 04:15:31  5-MIN KMSN 201015Z 35005KT 10SM CLR M03/M08 A3020 610 68 -1300 350/05 RMK AO2 $
14837KMSN MSN20101120042009811/20/10 04:20:31  5-MIN KMSN 201020Z 34004KT 10SM CLR M03/M08 A3020 600 68 -1300 340/04 RMK AO2 $
14837KMSN MSN20101120042509811/20/10 04:25:31  5-MIN KMSN 201025Z 33004KT 10SM CLR M03/M08 A3021 600 68 -1300 330/04 RMK AO2 $
14837KMSN MSN20101120043009811/20/10 04:30:31  5-MIN KMSN 201030Z 33004KT 10SM CLR M03/M08 A3021 600 68 -1300 330/04 RMK AO2 $
14837KMSN MSN20101120043509811/20/10 04:35:31  5-MIN KMSN 201035Z 34006KT 10SM CLR M03/M08 A3021 600 68 -1300 330/06 RMK AO2 $
14837KMSN MSN20101120044009811/20/10 04:40:31  5-MIN KMSN 201040Z 34006KT 10SM CLR M02/M08 A3021 600 66 -1300 340/06 RMK AO2 $
14837KMSN MSN20101120044509811/20/10 04:45:31  5-MIN KMSN 201045Z 34006KT 10SM CLR M02/M08 A3021 600 66 -1300 340/06 RMK AO2 $
14837KMSN MSN20101120045011511/20/10 04:50:31  5-MIN KMSN 201050Z 34005KT 10SM CLR M03/M08 A3021 600 68 -1400 340/05 RMK AO2 SLP239 T10281078 $
14837KMSN MSN20101120045509811/20/10 04:55:31  5-MIN KMSN 201055Z 35005KT 10SM CLR M03/M08 A3021 600 68 -1300 340/05 RMK AO2 $
14837KMSN MSN20101120050009811/20/10 05:00:31  5-MIN KMSN 201100Z 35005KT 10SM CLR M03/M08 A3021 600 66 -1300 350/05 RMK AO2 $
14837KMSN MSN20101120050509811/20/10 05:05:31  5-MIN KMSN 201105Z 35006KT 10SM CLR M03/M08 A3021 600 66 -1400 350/06 RMK AO2 $
14837KMSN MSN20101120051009811/20/10 05:10:31  5-MIN KMSN 201110Z 35007KT 10SM CLR M03/M08 A3021 590 68 -1400 350/07 RMK AO2 $
14837KMSN MSN20101120051509811/20/10 05:15:31  5-MIN KMSN 201115Z 35008KT 10SM CLR M03/M08 A3022 590 68 -1400 350/08 RMK AO2 $
14837KMSN MSN20101120052009811/20/10 05:20:31  5-MIN KMSN 201120Z 34007KT 10SM CLR M03/M08 A3022 590 68 -1400 340/07 RMK AO2 $
14837KMSN MSN20101120052509811/20/10 05:25:31  5-MIN KMSN 201125Z 34007KT 10SM CLR M03/M08 A3022 590 68 -1400 340/07 RMK AO2 $
14837KMSN MSN20101120053009811/20/10 05:30:31  5-MIN KMSN 201130Z 35006KT 10SM CLR M03/M08 A3022 590 68 -1400 350/06 RMK AO2 $
14837KMSN MSN20101120053509811/20/10 05:35:31  5-MIN KMSN 201135Z 36007KT 10SM CLR M03/M08 A3022 590 68 -1400 360/07 RMK AO2 $
14837KMSN MSN20101120054009811/20/10 05:40:31  5-MIN KMSN 201140Z 35005KT 10SM CLR M03/M08 A3022 590 68 -1400 350/05 RMK AO2 $
14837KMSN MSN20101120054509811/20/10 05:45:31  5-MIN KMSN 201145Z 35005KT 10SM CLR M03/M08 A3023 580 68 -1400 350/05 RMK AO2 $
14837KMSN MSN20101120055013311/20/10 05:50:31  5-MIN KMSN 201150Z 36005KT 10SM CLR M04/M08 A3023 580 71 -1500 350/05 RMK AO2 SLP245 T10391083 10011 21039 53021 $
14837KMSN MSN20101120055509811/20/10 05:55:31  5-MIN KMSN 201155Z 35006KT 10SM CLR M04/M08 A3023 580 71 -1500 350/06 RMK AO2 $
14837KMSN MSN20101120060009811/20/10 06:00:31  5-MIN KMSN 201200Z 35007KT 10SM CLR M03/M08 A3023 580 68 -1400 350/07 RMK AO2 $
14837KMSN MSN20101120060509811/20/10 06:05:31  5-MIN KMSN 201205Z 35007KT 10SM CLR M04/M08 A3023 580 71 -1500 350/07 RMK AO2 $
14837KMSN MSN20101120061009811/20/10 06:10:31  5-MIN KMSN 201210Z 35004KT 10SM CLR M04/M08 A3023 580 71 -1500 350/04 RMK AO2 $
14837KMSN MSN20101120061509811/20/10 06:15:31  5-MIN KMSN 201215Z 35005KT 10SM CLR M03/M08 A3023 580 68 -1400 350/05 RMK AO2 $
14837KMSN MSN20101120062009811/20/10 06:20:31  5-MIN KMSN 201220Z 35005KT 10SM CLR M04/M08 A3024 570 71 -1500 350/05 RMK AO2 $
14837KMSN MSN20101120062509811/20/10 06:25:31  5-MIN KMSN 201225Z 35005KT 10SM CLR M03/M08 A3024 570 68 -1500 350/05 RMK AO2 $
14837KMSN MSN20101120063009811/20/10 06:30:31  5-MIN KMSN 201230Z 35005KT 10SM CLR M03/M08 A3025 560 68 -1500 350/05 RMK AO2 $
14837KMSN MSN20101120063509811/20/10 06:35:31  5-MIN KMSN 201235Z 35005KT 10SM CLR M04/M08 A3025 560 71 -1500 350/05 RMK AO2 $
14837KMSN MSN20101120064009811/20/10 06:40:31  5-MIN KMSN 201240Z 35005KT 10SM CLR M04/M09 A3025 560 68 -1500 350/05 RMK AO2 $
14837KMSN MSN20101120064509811/20/10 06:45:31  5-MIN KMSN 201245Z 35005KT 10SM CLR M04/M09 A3026 550 68 -1500 350/05 RMK AO2 $
14837KMSN MSN20101120065011511/20/10 06:50:31  5-MIN KMSN 201250Z 36004KT 10SM CLR M04/M09 A3026 550 68 -1600 360/04 RMK AO2 SLP257 T10391089 $
14837KMSN MSN20101120065509811/20/10 06:55:31  5-MIN KMSN 201255Z 36005KT 10SM CLR M04/M09 A3026 550 71 -1600 360/05 RMK AO2 $
14837KMSN MSN20101120070009811/20/10 07:00:31  5-MIN KMSN 201300Z 36007KT 10SM CLR M04/M09 A3026 550 68 -1600 360/07 RMK AO2 $
14837KMSN MSN20101120070509811/20/10 07:05:31  5-MIN KMSN 201305Z 35006KT 10SM CLR M04/M09 A3027 550 71 -1600 350/06 RMK AO2 $
14837KMSN MSN20101120071009811/20/10 07:10:31  5-MIN KMSN 201310Z 35005KT 10SM CLR M04/M09 A3027 540 65 -1600 350/05 RMK AO2 $
14837KMSN MSN20101120071509811/20/10 07:15:31  5-MIN KMSN 201315Z 35005KT 10SM CLR M04/M09 A3027 540 65 -1600 350/05 RMK AO2 $
14837KMSN MSN20101120072009811/20/10 07:20:31  5-MIN KMSN 201320Z 35006KT 10SM CLR M04/M09 A3027 540 65 -1600 350/06 RMK AO2 $
14837KMSN MSN20101120072509811/20/10 07:25:31  5-MIN KMSN 201325Z 36006KT 10SM CLR M03/M09 A3028 540 65 -1500 360/06 RMK AO2 $
14837KMSN MSN20101120073009811/20/10 07:30:31  5-MIN KMSN 201330Z 36005KT 10SM CLR M03/M09 A3028 540 65 -1500 350/05 RMK AO2 $
14837KMSN MSN20101120073509811/20/10 07:35:31  5-MIN KMSN 201335Z 35005KT 10SM CLR M03/M09 A3028 530 65 -1500 350/05 RMK AO2 $
14837KMSN MSN20101120074009811/20/10 07:40:31  5-MIN KMSN 201340Z 35006KT 10SM CLR M03/M09 A3028 540 65 -1500 350/06 RMK AO2 $
14837KMSN MSN20101120074509811/20/10 07:45:31  5-MIN KMSN 201345Z 35007KT 10SM CLR M03/M09 A3028 540 65 -1500 350/07 RMK AO2 $
14837KMSN MSN20101120075011511/20/10 07:50:31  5-MIN KMSN 201350Z 35005KT 10SM CLR M03/M09 A3028 530 65 -1500 350/05 RMK AO2 SLP264 T10331089 $
14837KMSN MSN20101120075509811/20/10 07:55:31  5-MIN KMSN 201355Z 36007KT 10SM CLR M03/M09 A3028 530 65 -1500 360/07 RMK AO2 $
14837KMSN MSN20101120080009811/20/10 08:00:31  5-MIN KMSN 201400Z 36007KT 10SM CLR M03/M08 A3028 530 68 -1500 350/07 RMK AO2 $
14837KMSN MSN20101120080509811/20/10 08:05:31  5-MIN KMSN 201405Z 36009KT 10SM CLR M03/M08 A3028 530 68 -1500 360/09 RMK AO2 $
14837KMSN MSN20101120081009811/20/10 08:10:31  5-MIN KMSN 201410Z 36008KT 10SM CLR M03/M08 A3028 530 68 -1500 360/08 RMK AO2 $
14837KMSN MSN20101120081509811/20/10 08:15:31  5-MIN KMSN 201415Z 36007KT 10SM CLR M03/M09 A3028 530 65 -1500 360/07 RMK AO2 $
14837KMSN MSN20101120082009811/20/10 08:20:31  5-MIN KMSN 201420Z 36007KT 10SM CLR M03/M08 A3028 530 66 -1400 360/07 RMK AO2 $
14837KMSN MSN20101120082509811/20/10 08:25:31  5-MIN KMSN 201425Z 36008KT 10SM CLR M02/M08 A3029 530 63 -1400 360/08 RMK AO2 $
14837KMSN MSN20101120083009811/20/10 08:30:31  5-MIN KMSN 201430Z 01009KT 10SM CLR M02/M08 A3029 530 63 -1400 360/09 RMK AO2 $
14837KMSN MSN20101120083509811/20/10 08:35:31  5-MIN KMSN 201435Z 36009KT 10SM CLR M02/M08 A3029 530 63 -1400 360/09 RMK AO2 $
14837KMSN MSN20101120084009811/20/10 08:40:31  5-MIN KMSN 201440Z 01010KT 10SM CLR M02/M08 A3029 530 63 -1300 010/10 RMK AO2 $
14837KMSN MSN20101120084509811/20/10 08:45:31  5-MIN KMSN 201445Z 01008KT 10SM CLR M02/M08 A3029 520 60 -1300 010/08 RMK AO2 $
14837KMSN MSN20101120085012111/20/10 08:50:31  5-MIN KMSN 201450Z 02011KT 10SM CLR M02/M08 A3029 520 60 -1300 020/11 RMK AO2 SLP269 T10171083 53015 $
14837KMSN MSN20101120085509811/20/10 08:55:31  5-MIN KMSN 201455Z 01010KT 10SM CLR M02/M08 A3029 520 60 -1300 010/10 RMK AO2 $
14837KMSN MSN20101120090009811/20/10 09:00:31  5-MIN KMSN 201500Z 02012KT 10SM CLR M02/M08 A3029 520 60 -1300 010/12 RMK AO2 $
14837KMSN MSN20101120090509811/20/10 09:05:31  5-MIN KMSN 201505Z 01012KT 10SM CLR M02/M08 A3029 520 60 -1300 010/12 RMK AO2 $
14837KMSN MSN20101120091009811/20/10 09:10:31  5-MIN KMSN 201510Z 01011KT 10SM CLR M01/M08 A3030 520 58 -1200 010/11 RMK AO2 $
14837KMSN MSN20101120091509811/20/10 09:15:31  5-MIN KMSN 201515Z 02009KT 10SM CLR M01/M08 A3030 510 58 -1200 020/09 RMK AO2 $
14837KMSN MSN20101120092009811/20/10 09:20:31  5-MIN KMSN 201520Z 02011KT 10SM CLR M01/M09 A3030 520 55 -1200 020/11 RMK AO2 $
14837KMSN MSN20101120092509811/20/10 09:25:31  5-MIN KMSN 201525Z 03009KT 10SM CLR M01/M09 A3030 520 55 -1200 030/09 RMK AO2 $
14837KMSN MSN20101120093009811/20/10 09:30:31  5-MIN KMSN 201530Z 04010KT 10SM CLR M01/M08 A3030 510 56 -1200 040/10 RMK AO2 $
14837KMSN MSN20101120093509811/20/10 09:35:31  5-MIN KMSN 201535Z 02009KT 10SM CLR M01/M09 A3030 510 53 -1200 020/09 RMK AO2 $
14837KMSN MSN20101120094009811/20/10 09:40:31  5-MIN KMSN 201540Z 03010KT 10SM CLR M01/M09 A3030 510 55 -1200 030/10 RMK AO2 $
14837KMSN MSN20101120094509811/20/10 09:45:31  5-MIN KMSN 201545Z 05008KT 10SM CLR M01/M09 A3031 510 53 -1300 050/08 RMK AO2 $
14837KMSN MSN20101120095011511/20/10 09:50:31  5-MIN KMSN 201550Z 05010KT 10SM CLR M01/M09 A3031 510 53 -1300 050/10 RMK AO2 SLP274 T10111094 $
14837KMSN MSN20101120095509811/20/10 09:55:31  5-MIN KMSN 201555Z 03008KT 10SM CLR M01/M09 A3031 500 51 -1200 030/08 RMK AO2 $
14837KMSN MSN20101120100009811/20/10 10:00:31  5-MIN KMSN 201600Z 02008KT 10SM CLR M01/M09 A3031 500 51 -1200 020/08 RMK AO2 $
14837KMSN MSN20101120100509811/20/10 10:05:31  5-MIN KMSN 201605Z 04008KT 10SM CLR M01/M09 A3031 510 53 -1300 040/08 RMK AO2 $
14837KMSN MSN20101120101009811/20/10 10:10:31  5-MIN KMSN 201610Z 05007KT 10SM CLR M01/M09 A3031 500 53 -1300 040/07 RMK AO2 $
14837KMSN MSN20101120101509811/20/10 10:15:31  5-MIN KMSN 201615Z 02008KT 10SM CLR M01/M09 A3032 500 53 -1200 020/08 RMK AO2 $
14837KMSN MSN20101120102009811/20/10 10:20:31  5-MIN KMSN 201620Z 02008KT 10SM CLR M01/M09 A3032 500 53 -1200 020/08 RMK AO2 $
14837KMSN MSN20101120102509711/20/10 10:25:31  5-MIN KMSN 201625Z 03009KT 10SM CLR 00/M09 A3032 500 51 -1100 030/09 RMK AO2 $
14837KMSN MSN20101120103009811/20/10 10:30:31  5-MIN KMSN 201630Z 04009KT 10SM CLR M01/M09 A3032 500 51 -1200 040/09 RMK AO2 $
14837KMSN MSN20101120103509711/20/10 10:35:31  5-MIN KMSN 201635Z 03009KT 10SM CLR 00/M09 A3032 500 49 -1100 030/09 RMK AO2 $
14837KMSN MSN20101120104009811/20/10 10:40:31  5-MIN KMSN 201640Z 02011KT 10SM CLR M01/M09 A3031 500 51 -1200 020/11 RMK AO2 $
14837KMSN MSN20101120104509711/20/10 10:45:31  5-MIN KMSN 201645Z 04010KT 10SM CLR 00/M09 A3031 510 49 -1100 030/10 RMK AO2 $
14837KMSN MSN20101120105011411/20/10 10:50:31  5-MIN KMSN 201650Z 02011KT 10SM CLR 00/M09 A3031 510 49 -1100 020/11 RMK AO2 SLP273 T00001094 $
14837KMSN MSN20101120105509711/20/10 10:55:31  5-MIN KMSN 201655Z 04010KT 10SM CLR 00/M09 A3031 510 51 -1100 040/10 RMK AO2 $
14837KMSN MSN20101120110009711/20/10 11:00:31  5-MIN KMSN 201700Z 03009KT 10SM CLR 00/M09 A3030 510 49 -1100 030/09 RMK AO2 $
14837KMSN MSN20101120110509711/20/10 11:05:31  5-MIN KMSN 201705Z 06009KT 10SM CLR 00/M09 A3030 510 49 -1100 060/09 RMK AO2 $
14837KMSN MSN20101120111009711/20/10 11:10:31  5-MIN KMSN 201710Z 03011KT 10SM CLR 01/M09 A3030 520 49 -1000 030/11 RMK AO2 $
14837KMSN MSN20101120111509711/20/10 11:15:31  5-MIN KMSN 201715Z 04009KT 10SM CLR 01/M09 A3030 520 47 -1000 040/09 RMK AO2 $
14837KMSN MSN20101120112009711/20/10 11:20:31  5-MIN KMSN 201720Z 06009KT 10SM CLR 01/M09 A3030 510 47 -1000 060/09 RMK AO2 $
14837KMSN MSN20101120112509711/20/10 11:25:31  5-MIN KMSN 201725Z 03008KT 10SM CLR 01/M09 A3030 520 47 -1000 020/08 RMK AO2 $
14837KMSN MSN20101120113010311/20/10 11:30:31  5-MIN KMSN 201730Z 04010G15KT 10SM CLR 01/M09 A3029 520 49 -1000 040/10G15 RMK AO2 $
14837KMSN MSN20101120113509711/20/10 11:35:31  5-MIN KMSN 201735Z 05010KT 10SM CLR 01/M09 A3029 530 49 -1000 050/10 RMK AO2 $
14837KMSN MSN20101120114009711/20/10 11:40:31  5-MIN KMSN 201740Z 04011KT 10SM CLR 01/M09 A3029 530 49 -1000 040/11 RMK AO2 $
14837KMSN MSN20101120114509711/20/10 11:45:31  5-MIN KMSN 201745Z 05011KT 10SM CLR 01/M09 A3029 530 49 -1000 050/11 RMK AO2 $
14837KMSN MSN20101120115013211/20/10 11:50:31  5-MIN KMSN 201750Z 03011KT 10SM CLR 01/M09 A3029 530 49 -1000 030/11 RMK AO2 SLP266 T00061089 10006 21044 51022 $
14837KMSN MSN20101120115509711/20/10 11:55:31  5-MIN KMSN 201755Z 04009KT 10SM CLR 00/M09 A3028 530 51 -1100 040/09 RMK AO2 $
14837KMSN MSN20101120120009711/20/10 12:00:31  5-MIN KMSN 201800Z 03012KT 10SM CLR 01/M09 A3028 530 49 -1000 030/12 RMK AO2 $
14837KMSN MSN20101120120509711/20/10 12:05:31  5-MIN KMSN 201805Z 04009KT 10SM CLR 01/M09 A3028 530 49 -1000 040/09 RMK AO2 $
14837KMSN MSN20101120121009711/20/10 12:10:31  5-MIN KMSN 201810Z 03007KT 10SM CLR 01/M09 A3029 520 49 -1000 030/07 RMK AO2 $
14837KMSN MSN20101120121509711/20/10 12:15:31  5-MIN KMSN 201815Z 05007KT 10SM CLR 01/M09 A3029 530 47 -1000 040/07 RMK AO2 $
14837KMSN MSN20101120122009611/20/10 12:20:31  5-MIN KMSN 201820Z 06009KT 10SM CLR 01/M09 A3029 530 47 -900 060/09 RMK AO2 $
14837KMSN MSN20101120122509711/20/10 12:25:31  5-MIN KMSN 201825Z 04011KT 10SM CLR 01/M09 A3028 530 49 -1000 040/11 RMK AO2 $
14837KMSN MSN20101120123009611/20/10 12:30:31  5-MIN KMSN 201830Z 06009KT 10SM CLR 01/M09 A3028 530 47 -900 050/09 RMK AO2 $
14837KMSN MSN20101120123509611/20/10 12:35:31  5-MIN KMSN 201835Z 05009KT 10SM CLR 01/M09 A3029 530 47 -900 050/09 RMK AO2 $
14837KMSN MSN20101120124009611/20/10 12:40:31  5-MIN KMSN 201840Z 05009KT 10SM CLR 02/M08 A3029 530 47 -900 050/09 RMK AO2 $
14837KMSN MSN20101120124509611/20/10 12:45:31  5-MIN KMSN 201845Z 05008KT 10SM CLR 01/M09 A3028 530 47 -900 050/08 RMK AO2 $
14837KMSN MSN20101120125011311/20/10 12:50:31  5-MIN KMSN 201850Z 05010KT 10SM CLR 02/M08 A3028 530 47 -900 050/10 RMK AO2 SLP263 T00171083 $
14837KMSN MSN20101120125511211/20/10 12:55:31  5-MIN KMSN 201855Z 05008KT 010V080 10SM CLR 01/M08 A3028 540 49 -900 050/08 010V080 RMK AO2 $
14837KMSN MSN20101120130009611/20/10 13:00:31  5-MIN KMSN 201900Z 05010KT 10SM CLR 01/M08 A3028 540 49 -900 040/10 RMK AO2 $
14837KMSN MSN20101120130509611/20/10 13:05:31  5-MIN KMSN 201905Z 05010KT 10SM CLR 01/M08 A3027 540 49 -900 050/10 RMK AO2 $
14837KMSN MSN20101120131009611/20/10 13:10:31  5-MIN KMSN 201910Z 04012KT 10SM CLR 01/M08 A3027 540 49 -900 040/12 RMK AO2 $
14837KMSN MSN20101120131509611/20/10 13:15:31  5-MIN KMSN 201915Z 04012KT 10SM CLR 01/M08 A3027 540 49 -900 040/12 RMK AO2 $
14837KMSN MSN20101120132009611/20/10 13:20:31  5-MIN KMSN 201920Z 05011KT 10SM CLR 01/M08 A3027 540 49 -900 050/11 RMK AO2 $
14837KMSN MSN20101120132509611/20/10 13:25:31  5-MIN KMSN 201925Z 03010KT 10SM CLR 01/M08 A3027 540 49 -900 030/10 RMK AO2 $
14837KMSN MSN20101120133009611/20/10 13:30:31  5-MIN KMSN 201930Z 04010KT 10SM CLR 01/M08 A3028 540 51 -900 040/10 RMK AO2 $
14837KMSN MSN20101120133509611/20/10 13:35:31  5-MIN KMSN 201935Z 04009KT 10SM CLR 01/M08 A3027 540 51 -900 040/09 RMK AO2 $
14837KMSN MSN20101120134009611/20/10 13:40:31  5-MIN KMSN 201940Z 07008KT 10SM CLR 01/M08 A3028 540 49 -900 060/08 RMK AO2 $
14837KMSN MSN20101120134509611/20/10 13:45:31  5-MIN KMSN 201945Z 06009KT 10SM CLR 02/M09 A3028 530 45 -900 060/09 RMK AO2 $
14837KMSN MSN20101120135011311/20/10 13:50:31  5-MIN KMSN 201950Z 08007KT 10SM CLR 02/M08 A3028 530 47 -900 080/07 RMK AO2 SLP263 T00171083 $
14837KMSN MSN20101120135509611/20/10 13:55:31  5-MIN KMSN 201955Z 09008KT 10SM CLR 01/M08 A3028 530 49 -900 080/08 RMK AO2 $
14837KMSN MSN20101120140009611/20/10 14:00:31  5-MIN KMSN 202000Z 09009KT 10SM CLR 01/M08 A3028 530 49 -900 090/09 RMK AO2 $
14837KMSN MSN20101120140509611/20/10 14:05:31  5-MIN KMSN 202005Z 09008KT 10SM CLR 01/M08 A3028 530 49 -900 090/08 RMK AO2 $
14837KMSN MSN20101120141009611/20/10 14:10:31  5-MIN KMSN 202010Z 08010KT 10SM CLR 01/M08 A3028 530 49 -900 080/10 RMK AO2 $
14837KMSN MSN20101120141509611/20/10 14:15:31  5-MIN KMSN 202015Z 08008KT 10SM CLR 01/M08 A3028 530 51 -900 070/08 RMK AO2 $
14837KMSN MSN20101120142009611/20/10 14:20:31  5-MIN KMSN 202020Z 07007KT 10SM CLR 01/M08 A3028 530 49 -900 070/07 RMK AO2 $
14837KMSN MSN20101120142509611/20/10 14:25:31  5-MIN KMSN 202025Z 06010KT 10SM CLR 01/M08 A3027 540 49 -900 060/10 RMK AO2 $
14837KMSN MSN20101120143009611/20/10 14:30:31  5-MIN KMSN 202030Z 07009KT 10SM CLR 01/M08 A3028 540 49 -900 070/09 RMK AO2 $
14837KMSN MSN20101120143509611/20/10 14:35:31  5-MIN KMSN 202035Z 05010KT 10SM CLR 01/M08 A3028 540 49 -900 050/10 RMK AO2 $
14837KMSN MSN20101120144009611/20/10 14:40:31  5-MIN KMSN 202040Z 05010KT 10SM CLR 01/M08 A3027 540 49 -900 040/10 RMK AO2 $
14837KMSN MSN20101120144509611/20/10 14:45:31  5-MIN KMSN 202045Z 05009KT 10SM CLR 01/M08 A3027 540 49 -900 050/09 RMK AO2 $
14837KMSN MSN20101120145011911/20/10 14:50:31  5-MIN KMSN 202050Z 05011KT 10SM CLR 01/M08 A3026 550 49 -900 040/11 RMK AO2 SLP258 T00111083 58003 $
14837KMSN MSN20101120145509611/20/10 14:55:31  5-MIN KMSN 202055Z 05012KT 10SM CLR 01/M08 A3026 550 49 -900 050/12 RMK AO2 $
14837KMSN MSN20101120150009711/20/10 15:00:31  5-MIN KMSN 202100Z 05011KT 10SM CLR 01/M08 A3026 550 51 -1000 050/11 RMK AO2 $
14837KMSN MSN20101120150509711/20/10 15:05:31  5-MIN KMSN 202105Z 05012KT 10SM CLR 01/M08 A3026 550 51 -1000 040/12 RMK AO2 $
14837KMSN MSN20101120151009711/20/10 15:10:31  5-MIN KMSN 202110Z 05010KT 10SM CLR 01/M08 A3026 550 51 -1000 050/10 RMK AO2 $
14837KMSN MSN20101120151509711/20/10 15:15:31  5-MIN KMSN 202115Z 05011KT 10SM CLR 01/M08 A3026 550 51 -1000 040/11 RMK AO2 $
14837KMSN MSN20101120152009711/20/10 15:20:31  5-MIN KMSN 202120Z 06010KT 10SM CLR 00/M08 A3027 550 56 -1100 060/10 RMK AO2 $
14837KMSN MSN20101120152509711/20/10 15:25:31  5-MIN KMSN 202125Z 04010KT 10SM CLR 00/M08 A3026 550 56 -1100 040/10 RMK AO2 $
14837KMSN MSN20101120153009711/20/10 15:30:31  5-MIN KMSN 202130Z 06007KT 10SM CLR 00/M08 A3026 550 56 -1100 060/07 RMK AO2 $
14837KMSN MSN20101120153509711/20/10 15:35:31  5-MIN KMSN 202135Z 05009KT 10SM CLR 00/M08 A3026 550 56 -1100 050/09 RMK AO2 $
14837KMSN MSN20101120154009711/20/10 15:40:31  5-MIN KMSN 202140Z 05010KT 10SM CLR 00/M08 A3026 550 56 -1100 050/10 RMK AO2 $
14837KMSN MSN20101120154509711/20/10 15:45:31  5-MIN KMSN 202145Z 05012KT 10SM CLR 00/M08 A3026 550 56 -1100 050/12 RMK AO2 $
14837KMSN MSN20101120155011511/20/10 15:50:31  5-MIN KMSN 202150Z 05011KT 10SM CLR M01/M08 A3026 550 58 -1100 050/11 RMK AO2 SLP258 T10061078 $
14837KMSN MSN20101120155509811/20/10 15:55:31  5-MIN KMSN 202155Z 06010KT 10SM CLR M01/M08 A3026 550 58 -1100 060/10 RMK AO2 $
14837KMSN MSN20101120160009811/20/10 16:00:31  5-MIN KMSN 202200Z 05009KT 10SM CLR M01/M08 A3026 550 58 -1100 050/09 RMK AO2 $
14837KMSN MSN20101120160509811/20/10 16:05:31  5-MIN KMSN 202205Z 05009KT 10SM CLR M01/M08 A3026 550 60 -1200 050/09 RMK AO2 $
14837KMSN MSN20101120161009811/20/10 16:10:31  5-MIN KMSN 202210Z 05008KT 10SM CLR M01/M08 A3026 550 60 -1200 050/08 RMK AO2 $
14837KMSN MSN20101120161509811/20/10 16:15:31  5-MIN KMSN 202215Z 05008KT 10SM CLR M01/M08 A3026 550 60 -1200 050/08 RMK AO2 $
14837KMSN MSN20101120162009811/20/10 16:20:31  5-MIN KMSN 202220Z 05008KT 10SM CLR M01/M08 A3026 550 60 -1200 050/08 RMK AO2 $
14837KMSN MSN20101120162509811/20/10 16:25:31  5-MIN KMSN 202225Z 05007KT 10SM CLR M01/M08 A3026 550 60 -1200 050/07 RMK AO2 $
14837KMSN MSN20101120163009811/20/10 16:30:31  5-MIN KMSN 202230Z 05007KT 10SM CLR M01/M08 A3026 550 60 -1200 050/07 RMK AO2 $
14837KMSN MSN20101120163509811/20/10 16:35:31  5-MIN KMSN 202235Z 05006KT 10SM CLR M02/M08 A3026 550 63 -1300 050/06 RMK AO2 $
14837KMSN MSN20101120164009811/20/10 16:40:31  5-MIN KMSN 202240Z 05007KT 10SM CLR M02/M08 A3026 550 63 -1300 050/07 RMK AO2 $
14837KMSN MSN20101120164509811/20/10 16:45:31  5-MIN KMSN 202245Z 05007KT 10SM CLR M01/M08 A3026 560 60 -1200 050/07 RMK AO2 $
14837KMSN MSN20101120165011511/20/10 16:50:31  5-MIN KMSN 202250Z 05006KT 10SM CLR M02/M07 A3026 560 66 -1300 050/06 RMK AO2 SLP257 T10171072 $
14837KMSN MSN20101120165509811/20/10 16:55:31  5-MIN KMSN 202255Z 05006KT 10SM CLR M02/M07 A3025 560 66 -1300 050/06 RMK AO2 $
14837KMSN MSN20101120170009811/20/10 17:00:31  5-MIN KMSN 202300Z 04006KT 10SM CLR M02/M07 A3025 560 66 -1300 040/06 RMK AO2 $
14837KMSN MSN20101120170509811/20/10 17:05:31  5-MIN KMSN 202305Z 05006KT 10SM CLR M02/M07 A3025 560 66 -1300 050/06 RMK AO2 $
14837KMSN MSN20101120171009811/20/10 17:10:31  5-MIN KMSN 202310Z 05006KT 10SM CLR M02/M07 A3025 560 66 -1300 050/06 RMK AO2 $
14837KMSN MSN20101120171509811/20/10 17:15:31  5-MIN KMSN 202315Z 05006KT 10SM CLR M02/M07 A3025 560 69 -1300 050/06 RMK AO2 $
14837KMSN MSN20101120172009811/20/10 17:20:31  5-MIN KMSN 202320Z 05005KT 10SM CLR M02/M07 A3025 560 69 -1300 050/05 RMK AO2 $
14837KMSN MSN20101120172509811/20/10 17:25:31  5-MIN KMSN 202325Z 05006KT 10SM CLR M02/M07 A3025 560 69 -1300 050/06 RMK AO2 $
14837KMSN MSN20101120173009811/20/10 17:30:31  5-MIN KMSN 202330Z 06006KT 10SM CLR M02/M07 A3025 560 69 -1300 060/06 RMK AO2 $
14837KMSN MSN20101120173509811/20/10 17:35:31  5-MIN KMSN 202335Z 07007KT 10SM CLR M02/M07 A3026 550 66 -1300 070/07 RMK AO2 $
14837KMSN MSN20101120174009811/20/10 17:40:31  5-MIN KMSN 202340Z 07009KT 10SM CLR M01/M07 A3026 560 63 -1200 070/09 RMK AO2 $
14837KMSN MSN20101120174509811/20/10 17:45:31  5-MIN KMSN 202345Z 08010KT 10SM CLR M01/M07 A3026 550 63 -1200 070/10 RMK AO2 $
14837KMSN MSN20101120175013311/20/10 17:50:31  5-MIN KMSN 202350Z 07009KT 10SM CLR M01/M07 A3026 550 66 -1200 070/09 RMK AO2 SLP259 T10111067 10017 21022 58008 $
14837KMSN MSN20101120175509811/20/10 17:55:31  5-MIN KMSN 202355Z 08009KT 10SM CLR M01/M07 A3026 550 66 -1200 080/09 RMK AO2 $
14837KMSN MSN20101120180009811/20/10 18:00:31  5-MIN KMSN 210000Z 07009KT 10SM CLR M01/M07 A3026 550 66 -1200 070/09 RMK AO2 $
14837KMSN MSN20101120180509811/20/10 18:05:31  5-MIN KMSN 210005Z 07009KT 10SM CLR M01/M07 A3026 550 66 -1200 070/09 RMK AO2 $
14837KMSN MSN20101120181009811/20/10 18:10:31  5-MIN KMSN 210010Z 08007KT 10SM CLR M01/M06 A3026 550 69 -1200 080/07 RMK AO2 $
14837KMSN MSN20101120181509811/20/10 18:15:31  5-MIN KMSN 210015Z 07008KT 10SM CLR M01/M06 A3026 550 69 -1200 070/08 RMK AO2 $
14837KMSN MSN20101120182009811/20/10 18:20:31  5-MIN KMSN 210020Z 07007KT 10SM CLR M01/M06 A3026 560 69 -1200 070/07 RMK AO2 $
14837KMSN MSN20101120182509811/20/10 18:25:31  5-MIN KMSN 210025Z 07008KT 10SM CLR M01/M06 A3025 560 69 -1200 070/08 RMK AO2 $
14837KMSN MSN20101120183009811/20/10 18:30:31  5-MIN KMSN 210030Z 08007KT 10SM CLR M01/M06 A3025 560 69 -1200 080/07 RMK AO2 $
14837KMSN MSN20101120183509811/20/10 18:35:31  5-MIN KMSN 210035Z 07007KT 10SM CLR M01/M06 A3025 560 69 -1200 070/07 RMK AO2 $
14837KMSN MSN20101120184009811/20/10 18:40:31  5-MIN KMSN 210040Z 07008KT 10SM CLR M01/M06 A3025 560 69 -1200 070/08 RMK AO2 $
14837KMSN MSN20101120184509811/20/10 18:45:31  5-MIN KMSN 210045Z 07007KT 10SM CLR M02/M06 A3025 560 75 -1300 070/07 RMK AO2 $
14837KMSN MSN20101120185011511/20/10 18:50:31  5-MIN KMSN 210050Z 06006KT 10SM CLR M02/M06 A3026 560 75 -1300 060/06 RMK AO2 SLP257 T10171056 $
14837KMSN MSN20101120185509811/20/10 18:55:31  5-MIN KMSN 210055Z 07006KT 10SM CLR M02/M06 A3026 550 75 -1300 070/06 RMK AO2 $
14837KMSN MSN20101120190009811/20/10 19:00:31  5-MIN KMSN 210100Z 07006KT 10SM CLR M02/M06 A3026 550 75 -1300 070/06 RMK AO2 $
14837KMSN MSN20101120190509811/20/10 19:05:31  5-MIN KMSN 210105Z 07006KT 10SM CLR M02/M06 A3025 560 75 -1300 070/06 RMK AO2 $
14837KMSN MSN20101120191009811/20/10 19:10:31  5-MIN KMSN 210110Z 07006KT 10SM CLR M02/M06 A3025 570 75 -1300 070/06 RMK AO2 $
14837KMSN MSN20101120191510511/20/10 19:15:31  5-MIN KMSN 210115Z 07008KT 10SM CLR M02/M06 A3023 570 75 -1200 070/08 RMK AO2 PRESFR $
14837KMSN MSN20101120192009811/20/10 19:20:31  5-MIN KMSN 210120Z 07008KT 10SM CLR M01/M06 A3023 580 72 -1200 070/08 RMK AO2 $
14837KMSN MSN20101120192510511/20/10 19:25:31  5-MIN KMSN 210125Z 07009KT 10SM CLR M01/M06 A3022 590 72 -1100 070/09 RMK AO2 PRESFR $
14837KMSN MSN20101120193010511/20/10 19:30:31  5-MIN KMSN 210130Z 07008KT 10SM CLR M01/M06 A3021 600 72 -1100 070/08 RMK AO2 PRESFR $
14837KMSN MSN20101120193510111/20/10 19:35:31  5-MIN KMSN 210135Z 07012KT 10SM FEW048 M01/M06 A3021 600 72 -1100 070/12 RMK AO2 $
14837KMSN MSN20101120194010811/20/10 19:40:31  5-MIN KMSN 210140Z 06009KT 10SM FEW030 SCT050 M01/M06 A3022 590 72 -1200 060/09 RMK AO2 $
14837KMSN MSN20101120194510811/20/10 19:45:31  5-MIN KMSN 210145Z 06007KT 10SM SCT030 BKN050 M01/M06 A3022 580 72 -1200 060/07 RMK AO2 $
14837KMSN MSN20101120195013211/20/10 19:50:31  5-MIN KMSN 210150Z 05006KT 10SM BKN030 BKN050 M01/M05 A3023 580 75 -1200 050/06 RMK AO2 PRESRR SLP249 T10111050 $
14837KMSN MSN20101120195510811/20/10 19:55:31  5-MIN KMSN 210155Z 06008KT 10SM BKN030 OVC050 M01/M05 A3023 580 75 -1200 050/08 RMK AO2 $
14837KMSN MSN20101120200010811/20/10 20:00:31  5-MIN KMSN 210200Z 06008KT 10SM BKN032 OVC050 M01/M05 A3023 580 72 -1100 060/08 RMK AO2 $
14837KMSN MSN20101120200510111/20/10 20:05:31  5-MIN KMSN 210205Z 08009KT 10SM OVC032 M01/M05 A3022 590 72 -1100 070/09 RMK AO2 $
14837KMSN MSN20101120201010111/20/10 20:10:31  5-MIN KMSN 210210Z 08010KT 10SM OVC032 M01/M05 A3021 590 72 -1100 070/10 RMK AO2 $
14837KMSN MSN20101120201510811/20/10 20:15:31  5-MIN KMSN 210215Z 08008KT 10SM OVC032 M01/M05 A3021 600 72 -1100 080/08 RMK AO2 PRESFR $
14837KMSN MSN20101120202010811/20/10 20:20:31  5-MIN KMSN 210220Z 07009KT 10SM OVC032 M01/M05 A3020 610 72 -1100 070/09 RMK AO2 PRESFR $
14837KMSN MSN20101120202510111/20/10 20:25:31  5-MIN KMSN 210225Z 08009KT 10SM OVC030 M01/M05 A3020 610 72 -1100 080/09 RMK AO2 $
14837KMSN MSN20101120203010811/20/10 20:30:31  5-MIN KMSN 210230Z 07012KT 10SM BKN030 OVC046 M01/M05 A3019 610 72 -1100 070/12 RMK AO2 $
14837KMSN MSN20101120203510811/20/10 20:35:31  5-MIN KMSN 210235Z 07009KT 10SM BKN030 OVC046 M01/M04 A3020 610 75 -1100 070/09 RMK AO2 $
14837KMSN MSN20101120204010811/20/10 20:40:31  5-MIN KMSN 210240Z 07009KT 10SM BKN030 OVC046 M01/M04 A3020 600 75 -1100 070/09 RMK AO2 $
14837KMSN MSN20101120204510811/20/10 20:45:31  5-MIN KMSN 210245Z 06009KT 10SM BKN030 OVC046 M01/M04 A3020 600 75 -1100 060/09 RMK AO2 $
14837KMSN MSN20101120205013111/20/10 20:50:31  5-MIN KMSN 210250Z 06008KT 10SM SCT030 OVC046 M01/M04 A3020 600 75 -1100 060/08 RMK AO2 SLP239 T10061044 55000 $
14837KMSN MSN20101120205510811/20/10 20:55:31  5-MIN KMSN 210255Z 06009KT 10SM SCT030 OVC046 M01/M04 A3020 610 75 -1100 050/09 RMK AO2 $
14837KMSN MSN20101120210010811/20/10 21:00:31  5-MIN KMSN 210300Z 06009KT 10SM SCT030 OVC046 M01/M04 A3019 610 75 -1100 060/09 RMK AO2 $
14837KMSN MSN20101120210510811/20/10 21:05:31  5-MIN KMSN 210305Z 06009KT 10SM SCT030 OVC046 M01/M04 A3020 600 75 -1100 060/09 RMK AO2 $
14837KMSN MSN20101120211010811/20/10 21:10:31  5-MIN KMSN 210310Z 06006KT 10SM BKN030 OVC046 M01/M04 A3021 600 75 -1100 060/06 RMK AO2 $
14837KMSN MSN20101120211510711/20/10 21:15:31  5-MIN KMSN 210315Z 05008KT 10SM BKN030 OVC046 00/M04 A3021 600 75 -1000 050/08 RMK AO2 $
14837KMSN MSN20101120212010711/20/10 21:20:31  5-MIN KMSN 210320Z 07009KT 10SM BKN032 OVC046 00/M04 A3020 610 75 -1000 070/09 RMK AO2 $
14837KMSN MSN20101120212510711/20/10 21:25:31  5-MIN KMSN 210325Z 08007KT 10SM BKN032 OVC046 00/M04 A3019 610 75 -1000 070/07 RMK AO2 $
14837KMSN MSN20101120213010011/20/10 21:30:31  5-MIN KMSN 210330Z 07009KT 10SM OVC032 00/M04 A3020 610 75 -1000 070/09 RMK AO2 $
14837KMSN MSN20101120213510011/20/10 21:35:31  5-MIN KMSN 210335Z 06008KT 10SM OVC032 00/M04 A3021 600 75 -1000 060/08 RMK AO2 $
14837KMSN MSN20101120214010011/20/10 21:40:31  5-MIN KMSN 210340Z 07006KT 10SM OVC032 00/M04 A3021 600 75 -1000 070/06 RMK AO2 $
14837KMSN MSN20101120214510011/20/10 21:45:31  5-MIN KMSN 210345Z 08008KT 10SM OVC032 00/M04 A3020 600 75 -1000 080/08 RMK AO2 $
14837KMSN MSN20101120215011711/20/10 21:50:31  5-MIN KMSN 210350Z 07006KT 10SM OVC032 00/M04 A3020 610 75 -1000 070/06 RMK AO2 SLP237 T00001039 $
14837KMSN MSN20101120215510011/20/10 21:55:31  5-MIN KMSN 210355Z 08007KT 10SM OVC032 00/M04 A3020 610 75 -1000 080/07 RMK AO2 $
14837KMSN MSN20101120220010011/20/10 22:00:31  5-MIN KMSN 210400Z 07006KT 10SM OVC032 00/M04 A3020 610 75 -1000 070/06 RMK AO2 $
14837KMSN MSN20101120220510011/20/10 22:05:31  5-MIN KMSN 210405Z 07006KT 10SM OVC032 00/M03 A3019 610 78 -1000 070/06 RMK AO2 $
14837KMSN MSN20101120221010011/20/10 22:10:31  5-MIN KMSN 210410Z 07006KT 10SM OVC032 00/M03 A3019 610 78 -1000 070/06 RMK AO2 $
14837KMSN MSN20101120221510011/20/10 22:15:31  5-MIN KMSN 210415Z 05007KT 10SM OVC032 00/M03 A3019 610 78 -1000 050/07 RMK AO2 $
14837KMSN MSN20101120222010011/20/10 22:20:31  5-MIN KMSN 210420Z 06006KT 10SM OVC032 00/M03 A3019 620 78 -1000 060/06 RMK AO2 $
14837KMSN MSN20101120222510011/20/10 22:25:31  5-MIN KMSN 210425Z 05006KT 10SM OVC032 00/M03 A3019 620 78 -1000 050/06 RMK AO2 $
14837KMSN MSN20101120223010011/20/10 22:30:31  5-MIN KMSN 210430Z 05006KT 10SM OVC032 00/M03 A3019 620 78 -1000 050/06 RMK AO2 $
14837KMSN MSN20101120223509911/20/10 22:35:31  5-MIN KMSN 210435Z 05006KT 10SM OVC032 01/M03 A3018 620 75 -900 050/06 RMK AO2 $
14837KMSN MSN20101120224009911/20/10 22:40:31  5-MIN KMSN 210440Z 05005KT 10SM OVC032 01/M03 A3018 620 75 -900 050/05 RMK AO2 $
14837KMSN MSN20101120224509911/20/10 22:45:31  5-MIN KMSN 210445Z 06006KT 10SM OVC032 01/M03 A3018 620 75 -900 060/06 RMK AO2 $
14837KMSN MSN20101120225011611/20/10 22:50:31  5-MIN KMSN 210450Z 05007KT 10SM BKN032 01/M03 A3018 630 75 -900 050/07 RMK AO2 SLP229 T00061033 $
14837KMSN MSN20101120225509911/20/10 22:55:31  5-MIN KMSN 210455Z 05008KT 10SM OVC032 01/M03 A3017 630 75 -900 050/08 RMK AO2 $
14837KMSN MSN20101120230010011/20/10 23:00:31  5-MIN KMSN 210500Z 05006KT 10SM BKN032 00/M03 A3017 640 78 -1000 050/06 RMK AO2 $
14837KMSN MSN20101120230510011/20/10 23:05:31  5-MIN KMSN 210505Z 05004KT 10SM SCT032 00/M03 A3017 630 78 -1000 040/04 RMK AO2 $
14837KMSN MSN20101120231010011/20/10 23:10:31  5-MIN KMSN 210510Z 05005KT 10SM SCT032 00/M03 A3017 640 78 -1000 050/05 RMK AO2 $
14837KMSN MSN20101120231510011/20/10 23:15:31  5-MIN KMSN 210515Z 05005KT 10SM FEW032 00/M03 A3017 640 78 -1000 050/05 RMK AO2 $
14837KMSN MSN20101120232010011/20/10 23:20:31  5-MIN KMSN 210520Z 05004KT 10SM FEW032 00/M03 A3017 640 78 -1000 050/04 RMK AO2 $
14837KMSN MSN20101120232510111/20/10 23:25:31  5-MIN KMSN 210525Z 05003KT 10SM FEW032 M01/M03 A3017 640 81 -1000 050/03 RMK AO2 $
14837KMSN MSN20101120233010111/20/10 23:30:31  5-MIN KMSN 210530Z 06004KT 10SM SCT032 M01/M03 A3016 640 81 -1000 060/04 RMK AO2 $
14837KMSN MSN20101120233510111/20/10 23:35:31  5-MIN KMSN 210535Z 06004KT 10SM BKN030 M01/M03 A3016 640 81 -1000 050/04 RMK AO2 $
14837KMSN MSN20101120234010111/20/10 23:40:31  5-MIN KMSN 210540Z 05005KT 10SM SCT030 M01/M03 A3015 650 81 -1000 050/05 RMK AO2 $
14837KMSN MSN20101120234510111/20/10 23:45:31  5-MIN KMSN 210545Z 04005KT 10SM SCT030 M01/M03 A3015 650 81 -1000 040/05 RMK AO2 $
14837KMSN MSN20101120235014611/20/10 23:50:31  5-MIN KMSN 210550Z 04004KT 10SM SCT030 M01/M03 A3015 650 81 -1000 040/04 RMK AO2 SLP220 T10061033 10006 21017 400171044 58019 $
14837KMSN MSN20101120235510111/20/10 23:55:31  5-MIN KMSN 210555Z 04005KT 10SM FEW030 M01/M03 A3015 660 81 -1000 040/05 RMK AO2 $
14837KMSN MSN20101121000010111/21/10 00:00:32  5-MIN KMSN 210600Z 03005KT 10SM FEW030 M01/M03 A3014 660 81 -1000 030/05 RMK AO2 $
14837KMSN MSN20101121000509811/21/10 00:05:31  5-MIN KMSN 210605Z 05004KT 10SM CLR M01/M03 A3014 660 81 -1000 050/04 RMK AO2 $
14837KMSN MSN20101121001009811/21/10 00:10:31  5-MIN KMSN 210610Z 05005KT 10SM CLR M01/M03 A3013 670 81 -1000 040/05 RMK AO2 $
14837KMSN MSN20101121001510511/21/10 00:15:31  5-MIN KMSN 210615Z 05005KT 10SM CLR M01/M03 A3013 670 81 -1000 050/05 RMK AO2 PRESFR $
14837KMSN MSN20101121002010511/21/10 00:20:31  5-MIN KMSN 210620Z 05005KT 10SM CLR M01/M03 A3012 680 81 -1000 050/05 RMK AO2 PRESFR $
14837KMSN MSN20101121002510511/21/10 00:25:31  5-MIN KMSN 210625Z 05005KT 10SM CLR M01/M03 A3011 690 81 -1000 050/05 RMK AO2 PRESFR $
14837KMSN MSN20101121003010811/21/10 00:30:31  5-MIN KMSN 210630Z 07007KT 10SM FEW031 M01/M03 A3011 690 81 -1000 070/07 RMK AO2 PRESFR $
14837KMSN MSN20101121003510611/21/10 00:35:31  5-MIN KMSN 210635Z 07006KT 10SM SCT031 00/M03 A3010 700 81 -900 070/06 RMK AO2 PRESFR $
14837KMSN MSN20101121004009911/21/10 00:40:31  5-MIN KMSN 210640Z 07006KT 10SM BKN031 00/M03 A3010 700 81 -900 070/06 RMK AO2 $
14837KMSN MSN20101121004509911/21/10 00:45:31  5-MIN KMSN 210645Z 07007KT 10SM BKN031 01/M03 A3010 700 78 -800 070/07 RMK AO2 $
14837KMSN MSN20101121005011611/21/10 00:50:31  5-MIN KMSN 210650Z 08007KT 10SM BKN031 01/M03 A3009 710 78 -800 070/07 RMK AO2 SLP199 T00061028 $
14837KMSN MSN20101121005509911/21/10 00:55:31  5-MIN KMSN 210655Z 07007KT 10SM OVC031 01/M02 A3009 700 78 -700 070/07 RMK AO2 $
14837KMSN MSN20101121010009911/21/10 01:00:31  5-MIN KMSN 210700Z 07007KT 10SM OVC031 01/M02 A3009 710 78 -700 070/07 RMK AO2 $
14837KMSN MSN20101121010509911/21/10 01:05:31  5-MIN KMSN 210705Z 07007KT 10SM OVC029 01/M02 A3009 710 78 -700 070/07 RMK AO2 $
14837KMSN MSN20101121011009911/21/10 01:10:31  5-MIN KMSN 210710Z 07007KT 10SM OVC029 01/M02 A3009 710 78 -700 070/07 RMK AO2 $
14837KMSN MSN20101121011510611/21/10 01:15:31  5-MIN KMSN 210715Z 07007KT 10SM BKN027 OVC032 01/M02 A3009 710 78 -700 070/07 RMK AO2 $
14837KMSN MSN20101121012009911/21/10 01:20:31  5-MIN KMSN 210720Z 07006KT 10SM OVC027 02/M02 A3009 710 75 -700 070/06 RMK AO2 $
14837KMSN MSN20101121012509911/21/10 01:25:31  5-MIN KMSN 210725Z 07006KT 10SM OVC025 02/M02 A3009 700 75 -700 070/06 RMK AO2 $
14837KMSN MSN20101121013009911/21/10 01:30:31  5-MIN KMSN 210730Z 06007KT 10SM OVC025 02/M02 A3009 710 75 -700 060/07 RMK AO2 $
14837KMSN MSN20101121013509911/21/10 01:35:31  5-MIN KMSN 210735Z 07007KT 10SM OVC023 02/M02 A3009 710 78 -600 070/07 RMK AO2 $
14837KMSN MSN20101121014009911/21/10 01:40:31  5-MIN KMSN 210740Z 07007KT 10SM OVC023 02/M02 A3009 710 78 -600 070/07 RMK AO2 $
14837KMSN MSN20101121014509911/21/10 01:45:31  5-MIN KMSN 210745Z 07007KT 10SM OVC023 02/M02 A3008 710 78 -600 070/07 RMK AO2 $
14837KMSN MSN20101121015011611/21/10 01:50:31  5-MIN KMSN 210750Z 07007KT 10SM OVC023 02/M02 A3008 710 78 -600 070/07 RMK AO2 SLP196 T00171017 $
14837KMSN MSN20101121015509911/21/10 01:55:31  5-MIN KMSN 210755Z 07007KT 10SM OVC023 02/M02 A3008 710 75 -600 070/07 RMK AO2 $
14837KMSN MSN20101121020009911/21/10 02:00:31  5-MIN KMSN 210800Z 07006KT 10SM OVC021 02/M02 A3008 710 75 -600 070/06 RMK AO2 $
14837KMSN MSN20101121020509911/21/10 02:05:31  5-MIN KMSN 210805Z 08006KT 10SM OVC021 02/M01 A3008 720 78 -600 080/06 RMK AO2 $
14837KMSN MSN20101121021009911/21/10 02:10:31  5-MIN KMSN 210810Z 08006KT 10SM OVC021 02/M01 A3008 720 78 -600 080/06 RMK AO2 $
14837KMSN MSN20101121021509911/21/10 02:15:31  5-MIN KMSN 210815Z 08006KT 10SM OVC021 02/M01 A3008 720 78 -600 080/06 RMK AO2 $
14837KMSN MSN20101121022009911/21/10 02:20:31  5-MIN KMSN 210820Z 07007KT 10SM OVC021 02/M01 A3007 720 78 -600 070/07 RMK AO2 $
14837KMSN MSN20101121022509911/21/10 02:25:31  5-MIN KMSN 210825Z 07008KT 10SM OVC019 02/M01 A3007 730 78 -600 070/08 RMK AO2 $
14837KMSN MSN20101121023009911/21/10 02:30:31  5-MIN KMSN 210830Z 07007KT 10SM OVC019 03/M01 A3007 730 75 -500 070/07 RMK AO2 $
14837KMSN MSN20101121023509911/21/10 02:35:31  5-MIN KMSN 210835Z 08006KT 10SM OVC019 03/M01 A3007 730 75 -500 080/06 RMK AO2 $
14837KMSN MSN20101121024009911/21/10 02:40:31  5-MIN KMSN 210840Z 09006KT 10SM OVC019 03/M01 A3007 730 75 -500 090/06 RMK AO2 $
14837KMSN MSN20101121024509911/21/10 02:45:31  5-MIN KMSN 210845Z 10006KT 10SM OVC019 03/M01 A3006 730 79 -500 100/06 RMK AO2 $
14837KMSN MSN20101121025012211/21/10 02:50:31  5-MIN KMSN 210850Z 10006KT 10SM OVC019 03/M01 A3006 730 79 -500 100/06 RMK AO2 SLP190 T00281006 58018 $
14837KMSN MSN20101121025509911/21/10 02:55:31  5-MIN KMSN 210855Z 10006KT 10SM OVC017 03/M01 A3006 740 79 -500 100/06 RMK AO2 $
14837KMSN MSN20101121030009911/21/10 03:00:31  5-MIN KMSN 210900Z 09006KT 10SM OVC017 03/M01 A3005 740 79 -500 090/06 RMK AO2 $
14837KMSN MSN20101121030509911/21/10 03:05:31  5-MIN KMSN 210905Z 09005KT 10SM OVC017 03/M01 A3005 740 79 -500 090/05 RMK AO2 $
14837KMSN MSN20101121031009911/21/10 03:10:31  5-MIN KMSN 210910Z 09006KT 10SM OVC017 03/M01 A3004 750 79 -500 090/06 RMK AO2 $
14837KMSN MSN20101121031509911/21/10 03:15:31  5-MIN KMSN 210915Z 09006KT 10SM OVC017 03/M01 A3004 750 79 -500 090/06 RMK AO2 $
14837KMSN MSN20101121032009911/21/10 03:20:31  5-MIN KMSN 210920Z 10006KT 10SM OVC015 03/M01 A3004 760 79 -500 100/06 RMK AO2 $
14837KMSN MSN20101121032510611/21/10 03:25:31  5-MIN KMSN 210925Z 10006KT 10SM OVC015 03/M01 A3003 760 79 -400 100/06 RMK AO2 PRESFR $
14837KMSN MSN20101121033010511/21/10 03:30:31  5-MIN KMSN 210930Z 10008KT 10SM OVC015 03/00 A3002 770 82 -400 100/08 RMK AO2 PRESFR $
14837KMSN MSN20101121033509711/21/10 03:35:31  5-MIN KMSN 210935Z 10010KT 9SM OVC013 03/00 A3001 780 82 -400 100/10 RMK AO2 $
14837KMSN MSN20101121034009711/21/10 03:40:31  5-MIN KMSN 210940Z 10009KT 8SM OVC013 03/00 A3001 780 82 -400 100/09 RMK AO2 $
14837KMSN MSN20101121034509711/21/10 03:45:31  5-MIN KMSN 210945Z 11008KT 8SM OVC013 03/01 A3001 780 85 -400 110/08 RMK AO2 $
14837KMSN MSN20101121035011411/21/10 03:50:31  5-MIN KMSN 210950Z 12006KT 9SM OVC013 03/01 A3002 780 85 -400 120/06 RMK AO2 SLP173 T00330011 $
14837KMSN MSN20101121035509711/21/10 03:55:31  5-MIN KMSN 210955Z 11007KT 9SM OVC013 03/01 A3001 780 85 -400 110/07 RMK AO2 $
14837KMSN MSN20101121040009711/21/10 04:00:31  5-MIN KMSN 211000Z 11009KT 8SM OVC011 03/01 A3000 790 85 -300 110/09 RMK AO2 $
14837KMSN MSN20101121040509711/21/10 04:05:31  5-MIN KMSN 211005Z 12007KT 7SM OVC011 03/01 A3000 790 85 -300 110/07 RMK AO2 $
14837KMSN MSN20101121041009711/21/10 04:10:31  5-MIN KMSN 211010Z 12007KT 7SM OVC011 03/01 A3001 790 85 -300 120/07 RMK AO2 $
14837KMSN MSN20101121041509711/21/10 04:15:31  5-MIN KMSN 211015Z 12006KT 7SM OVC011 03/01 A3001 780 85 -400 120/06 RMK AO2 $
14837KMSN MSN20101121042009711/21/10 04:20:31  5-MIN KMSN 211020Z 12006KT 7SM OVC011 03/02 A3001 780 89 -400 120/06 RMK AO2 $
14837KMSN MSN20101121042510011/21/10 04:25:31  5-MIN KMSN 211025Z 11006KT 6SM BR OVC011 03/02 A3000 790 89 -300 110/06 RMK AO2 $
14837KMSN MSN20101121043010011/21/10 04:30:31  5-MIN KMSN 211030Z 11007KT 6SM BR OVC011 03/02 A3000 790 89 -300 110/07 RMK AO2 $
14837KMSN MSN20101121043511211/21/10 04:35:31  5-MIN KMSN 211035Z 12005KT 6SM BR OVC011 03/02 A3000 790 89 -300 120/05 RMK AO2 CIG 007V013 $
14837KMSN MSN20101121044011911/21/10 04:40:31  5-MIN KMSN 211040Z 13004KT 5SM BR BKN008 OVC011 03/02 A3001 790 89 -300 120/04 RMK AO2 CIG 007V011 $
14837KMSN MSN20101121044511211/21/10 04:45:31  5-MIN KMSN 211045Z 12005KT 5SM BR OVC008 03/02 A3000 790 92 -300 120/05 RMK AO2 CIG 006V011 $
14837KMSN MSN20101121045012411/21/10 04:50:31  5-MIN KMSN 211050Z 11005KT 4SM BR BKN008 OVC011 03/02 A2999 800 92 -300 110/05 RMK AO2 SLP165 T00330022 $
14837KMSN MSN20101121045511211/21/10 04:55:31  5-MIN KMSN 211055Z 11005KT 3SM BR OVC008 03/02 A2999 800 92 -300 110/05 RMK AO2 CIG 006V010 $
14837KMSN MSN20101121050011611/21/10 05:00:31  5-MIN KMSN 211100Z 11005KT 2 1/2SM BR OVC006 03/02 A2999 800 92 -300 110/05 RMK AO2 CIG 005V011 $
14837KMSN MSN20101121050511211/21/10 05:05:31  5-MIN KMSN 211105Z 12004KT 3SM BR OVC006 03/02 A2999 800 92 -300 120/04 RMK AO2 CIG 005V011 $
14837KMSN MSN20101121051010011/21/10 05:10:31  5-MIN KMSN 211110Z 12005KT 2SM BR OVC006 03/02 A2998 810 92 -300 120/05 RMK AO2 $
14837KMSN MSN20101121051510011/21/10 05:15:31  5-MIN KMSN 211115Z 12006KT 2SM BR OVC006 03/02 A2998 810 92 -300 120/06 RMK AO2 $
14837KMSN MSN20101121052010411/21/10 05:20:31  5-MIN KMSN 211120Z 13005KT 1 3/4SM BR OVC004 03/03 A2998 810 96 -300 120/05 RMK AO2 $
14837KMSN MSN20101121052510411/21/10 05:25:31  5-MIN KMSN 211125Z 12005KT 1 3/4SM BR OVC004 03/03 A2998 810 96 -300 120/05 RMK AO2 $
14837KMSN MSN20101121053010411/21/10 05:30:31  5-MIN KMSN 211130Z 12004KT 1 3/4SM BR OVC004 03/03 A2998 810 96 -300 120/04 RMK AO2 $
14837KMSN MSN20101121053510411/21/10 05:35:31  5-MIN KMSN 211135Z 12004KT 1 3/4SM BR OVC004 03/03 A2998 810 96 -300 120/04 RMK AO2 $
14837KMSN MSN20101121054010511/21/10 05:40:31  5-MIN KMSN 211140Z 11005KT 1 3/4SM BR OVC004 03/03 A2997 820 100 -300 110/05 RMK AO2 $
14837KMSN MSN20101121054510511/21/10 05:45:31  5-MIN KMSN 211145Z 12005KT 1 1/2SM BR OVC004 03/03 A2997 810 100 -300 120/05 RMK AO2 $
14837KMSN MSN20101121055014011/21/10 05:50:31  5-MIN KMSN 211150Z 11005KT 1 1/2SM BR OVC004 03/03 A2997 820 100 -300 110/05 RMK AO2 SLP156 T00330033 10033 21006 56028 $
14837KMSN MSN20101121055511011/21/10 05:55:31  5-MIN KMSN 211155Z 11006KT 1SM BR OVC004 04/03 A2996 820 96 -200 110/06 RMK AO2 SFC VIS 2 $
14837KMSN MSN20101121060011011/21/10 06:00:31  5-MIN KMSN 211200Z 11005KT 1SM BR OVC004 04/03 A2996 830 96 -200 110/05 RMK AO2 SFC VIS 2 $
14837KMSN MSN20101121060511011/21/10 06:05:31  5-MIN KMSN 211205Z 11005KT 1SM BR OVC004 04/03 A2995 830 96 -200 110/05 RMK AO2 SFC VIS 2 $
14837KMSN MSN20101121061011011/21/10 06:10:31  5-MIN KMSN 211210Z 12006KT 1SM BR OVC004 04/03 A2995 840 96 -200 120/06 RMK AO2 SFC VIS 2 $
14837KMSN MSN20101121061511011/21/10 06:15:31  5-MIN KMSN 211215Z 12005KT 1SM BR OVC004 04/03 A2995 830 96 -200 120/05 RMK AO2 SFC VIS 2 $
14837KMSN MSN20101121062011011/21/10 06:20:31  5-MIN KMSN 211220Z 12004KT 1SM BR OVC004 04/03 A2995 830 96 -200 120/04 RMK AO2 SFC VIS 2 $
14837KMSN MSN20101121062511011/21/10 06:25:31  5-MIN KMSN 211225Z 12005KT 1SM BR OVC004 04/03 A2995 830 96 -200 120/05 RMK AO2 SFC VIS 2 $
14837KMSN MSN20101121063011011/21/10 06:30:31  5-MIN KMSN 211230Z 12006KT 1SM BR OVC004 04/03 A2995 840 96 -200 120/06 RMK AO2 SFC VIS 2 $
14837KMSN MSN20101121063511011/21/10 06:35:31  5-MIN KMSN 211235Z 13006KT 1SM BR OVC004 04/03 A2995 830 96 -200 130/06 RMK AO2 SFC VIS 2 $
14837KMSN MSN20101121064011011/21/10 06:40:31  5-MIN KMSN 211240Z 13005KT 1SM BR OVC004 04/03 A2995 840 96 -200 130/05 RMK AO2 SFC VIS 2 $
14837KMSN MSN20101121064511111/21/10 06:45:31  5-MIN KMSN 211245Z 13005KT 1SM BR OVC004 04/04 A2995 840 100 -200 130/05 RMK AO2 SFC VIS 2 $
14837KMSN MSN20101121065011311/21/10 06:50:31  5-MIN KMSN 211250Z 14005KT 3/4SM BR OVC004 04/04 A2995 840 100 -200 140/05 RMK AO2 SFC VIS 2 $
14837KMSN MSN20101121065511511/21/10 06:55:31  5-MIN KMSN 211255Z 13004KT 1SM BR OVC002 04/04 A2995 830 100 -200 130/04 RMK AO2 SFC VIS 1 1/4 $
14837KMSN MSN20101121070011511/21/10 07:00:31  5-MIN KMSN 211300Z 13005KT 1SM BR OVC002 04/04 A2995 840 100 -200 130/05 RMK AO2 SFC VIS 1 1/4 $
14837KMSN MSN20101121070511511/21/10 07:05:31  5-MIN KMSN 211305Z 12004KT 1SM BR OVC002 04/04 A2995 840 100 -200 120/04 RMK AO2 SFC VIS 1 1/4 $
14837KMSN MSN20101121071010011/21/10 07:10:31  5-MIN KMSN 211310Z 12005KT 1SM BR OVC002 04/04 A2995 840 96 -100 120/05 RMK AO2 $
14837KMSN MSN20101121071510011/21/10 07:15:31  5-MIN KMSN 211315Z 13005KT 1SM BR OVC002 04/04 A2995 840 96 -100 120/05 RMK AO2 $
14837KMSN MSN20101121072011211/21/10 07:20:31  5-MIN KMSN 211320Z 13004KT 1/2SM BR OVC002 04/04 A2995 840 96 -100 130/04 RMK AO2 SFC VIS 1 $
14837KMSN MSN20101121072511411/21/10 07:25:31  5-MIN KMSN 211325Z 13004KT 1/2SM BR OVC002 04/04 A2995 840 96 -100 130/04 RMK AO2 SFC VIS 3/4 $
14837KMSN MSN20101121073011411/21/10 07:30:31  5-MIN KMSN 211330Z 14004KT 1/2SM BR OVC002 04/04 A2995 840 96 -100 140/04 RMK AO2 SFC VIS 3/4 $
14837KMSN MSN20101121073511411/21/10 07:35:31  5-MIN KMSN 211335Z 13004KT 1/2SM BR OVC002 04/04 A2995 840 96 -100 130/04 RMK AO2 SFC VIS 3/4 $
14837KMSN MSN20101121074010311/21/10 07:40:31  5-MIN KMSN 211340Z 00000KT 1/2SM FG OVC002 04/04 A2995 840 100 -100 000/00 RMK AO2 $
14837KMSN MSN20101121074511511/21/10 07:45:31  5-MIN KMSN 211345Z 14003KT 1/4SM FG OVC002 04/04 A2995 830 100 -200 140/03 RMK AO2 TWR VIS 1/2 $
14837KMSN MSN20101121075010311/21/10 07:50:31  5-MIN KMSN 211350Z 14003KT 1/4SM FG OVC002 04/04 A2995 840 100 -100 140/03 RMK AO2 $
14837KMSN MSN20101121075511511/21/10 07:55:31  5-MIN KMSN 211355Z 11003KT 1/4SM FG OVC002 04/04 A2994 840 100 -100 110/03 RMK AO2 TWR VIS 1/4 $
14837KMSN MSN20101121080011511/21/10 08:00:31  5-MIN KMSN 211400Z 12004KT 1/4SM FG OVC002 04/04 A2994 850 100 -100 120/04 RMK AO2 TWR VIS 1/4 $
14837KMSN MSN20101121080511511/21/10 08:05:31  5-MIN KMSN 211405Z 13004KT 1/4SM FG OVC002 04/04 A2994 840 100 -100 130/04 RMK AO2 TWR VIS 1/4 $
14837KMSN MSN20101121081011511/21/10 08:10:31  5-MIN KMSN 211410Z 15003KT 1/4SM FG OVC002 04/04 A2994 840 100 -100 150/03 RMK AO2 TWR VIS 1/4 $
14837KMSN MSN20101121081510211/21/10 08:15:31  5-MIN KMSN 211415Z 17005KT 1/4SM FG OVC002 05/04 A2994 840 96 -100 170/05 RMK AO2 $
14837KMSN MSN20101121082010311/21/10 08:20:31  5-MIN KMSN 211420Z 16005KT 1/4SM FG OVC002 05/05 A2994 850 100 -100 160/05 RMK AO2 $
14837KMSN MSN20101121082510311/21/10 08:25:31  5-MIN KMSN 211425Z 16006KT 1/4SM FG OVC002 05/05 A2993 850 100 -100 160/06 RMK AO2 $
14837KMSN MSN20101121083010311/21/10 08:30:31  5-MIN KMSN 211430Z 15005KT 1/4SM FG OVC002 05/05 A2993 860 100 -100 150/05 RMK AO2 $
14837KMSN MSN20101121083510711/21/10 08:35:31  5-MIN KMSN 211435Z 14006KT 1/4SM FG OVC002 05/05 A2992 860 100 0 140/06 RMK AO2 PRESFR $
14837KMSN MSN20101121084010011/21/10 08:40:31  5-MIN KMSN 211440Z 15006KT 1/4SM FG OVC002 05/05 A2992 860 100 0 140/06 RMK AO2 $
14837KMSN MSN20101121084511511/21/10 08:45:31  5-MIN KMSN 211445Z 16006KT 1/4SM -DZ FG OVC002 06/05 A2993 860 96 0 160/06 RMK AO2 DZB45 P0001 $
14837KMSN MSN20101121085014411/21/10 08:50:31  5-MIN KMSN 211450Z 17005KT 1/4SM -DZ FG OVC002 06/05 A2993 860 96 0 170/05 RMK AO2 DZB45 SLP141 P0001 60001 T00560050 58016 $
14837KMSN MSN20101121085511011/21/10 08:55:31  5-MIN KMSN 211455Z 16006KT 1/4SM -DZ FG OVC002 06/06 A2993 860 100 0 160/06 RMK AO2 P0000 $
14837KMSN MSN20101121090010911/21/10 09:00:31  5-MIN KMSN 211500Z 16007KT 1/4SM -DZ FG OVC002 06/05 A2992 860 96 0 160/07 RMK AO2 P0000 $
14837KMSN MSN20101121090511011/21/10 09:05:31  5-MIN KMSN 211505Z 15009KT 1/4SM -DZ FG OVC002 06/06 A2992 870 100 0 150/09 RMK AO2 P0000 $
14837KMSN MSN20101121091011011/21/10 09:10:31  5-MIN KMSN 211510Z 16007KT 1/4SM -DZ FG OVC002 06/06 A2992 870 100 0 160/07 RMK AO2 P0000 $
14837KMSN MSN20101121091510911/21/10 09:15:31  5-MIN KMSN 211515Z 16009KT 1/4SM -DZ FG OVC002 06/06 A2992 870 96 0 160/09 RMK AO2 P0000 $
14837KMSN MSN20101121092011011/21/10 09:20:31  5-MIN KMSN 211520Z 16008KT 1/4SM -DZ FG OVC002 06/06 A2992 870 100 0 160/08 RMK AO2 P0000 $
14837KMSN MSN20101121092510911/21/10 09:25:31  5-MIN KMSN 211525Z 16007KT 1/4SM -DZ FG OVC002 06/06 A2991 870 96 0 160/07 RMK AO2 P0000 $
14837KMSN MSN20101121093011111/21/10 09:30:31  5-MIN KMSN 211530Z 16008KT 1/4SM -DZ FG OVC002 06/06 A2991 880 96 100 160/08 RMK AO2 P0000 $
14837KMSN MSN20101121093511111/21/10 09:35:31  5-MIN KMSN 211535Z 16009KT 1/4SM -DZ FG OVC002 06/06 A2990 880 96 100 160/09 RMK AO2 P0000 $
14837KMSN MSN20101121094012511/21/10 09:40:31  5-MIN KMSN 211540Z 16010KT 1/4SM FG OVC002 06/06 A2990 880 96 100 160/10 RMK AO2 TWR VIS 1/4 DZE36 P0000 $
14837KMSN MSN20101121094512511/21/10 09:45:31  5-MIN KMSN 211545Z 15008KT 1/4SM FG OVC002 06/06 A2990 890 96 100 150/08 RMK AO2 TWR VIS 1/4 DZE36 P0000 $
14837KMSN MSN20101121095014311/21/10 09:50:31  5-MIN KMSN 211550Z 14009KT 1/4SM FG OVC002 06/06 A2989 890 100 100 140/09 RMK AO2 TWR VIS 1/4 DZE36 SLP130 P0000 T00610061 $
14837KMSN MSN20101121095511411/21/10 09:55:31  5-MIN KMSN 211555Z 15009KT 1/4SM FG OVC002 06/06 A2990 890 100 100 150/09 RMK AO2 TWR VIS 1/4 $
14837KMSN MSN20101121100011411/21/10 10:00:31  5-MIN KMSN 211600Z 15009KT 1/4SM FG OVC002 06/06 A2989 890 100 100 150/09 RMK AO2 TWR VIS 1/2 $
14837KMSN MSN20101121100511311/21/10 10:05:31  5-MIN KMSN 211605Z 15010KT 1/4SM FG OVC002 07/06 A2988 900 96 100 150/10 RMK AO2 TWR VIS 1/2 $
14837KMSN MSN20101121101010111/21/10 10:10:31  5-MIN KMSN 211610Z 15009KT 1/2SM FG OVC002 07/06 A2988 900 96 200 150/09 RMK AO2 $
14837KMSN MSN20101121101510211/21/10 10:15:31  5-MIN KMSN 211615Z 16009KT 1/2SM FG OVC002 07/07 A2987 910 100 200 150/09 RMK AO2 $
14837KMSN MSN20101121102010211/21/10 10:20:31  5-MIN KMSN 211620Z 16010KT 1/2SM FG OVC002 07/07 A2987 910 100 200 160/10 RMK AO2 $
14837KMSN MSN20101121102510911/21/10 10:25:31  5-MIN KMSN 211625Z 16010KT 1/2SM FG OVC002 07/07 A2986 920 100 200 160/10 RMK AO2 PRESFR $
14837KMSN MSN20101121103010211/21/10 10:30:31  5-MIN KMSN 211630Z 16011KT 1/2SM FG OVC002 07/07 A2986 920 100 200 160/11 RMK AO2 $
14837KMSN MSN20101121103512011/21/10 10:35:31  5-MIN KMSN 211635Z 16011KT 1/2SM BR OVC002 07/07 A2986 920 100 200 160/11 RMK AO2 SFC VIS 3/4 P0001 $
14837KMSN MSN20101121104012911/21/10 10:40:31  5-MIN KMSN 211640Z 16012KT 1/2SM -DZ BR OVC002 07/07 A2985 930 96 300 160/12 RMK AO2 SFC VIS 3/4 DZB39 P0001 $
14837KMSN MSN20101121104512911/21/10 10:45:31  5-MIN KMSN 211645Z 16013KT 1/2SM -DZ BR OVC002 07/07 A2985 930 96 300 160/13 RMK AO2 SFC VIS 3/4 DZB39 P0001 $
14837KMSN MSN20101121105014411/21/10 10:50:31  5-MIN KMSN 211650Z 16014KT 1/2SM -DZ BR OVC002 07/07 A2985 930 96 300 160/14 RMK AO2 SFC VIS 1 DZB39 SLP115 P0001 T00720067 $
14837KMSN MSN20101121105510911/21/10 10:55:31  5-MIN KMSN 211655Z 17011KT 1SM -DZ BR OVC002 07/07 A2985 930 96 300 170/11 RMK AO2 P0000 $
14837KMSN MSN20101121110010911/21/10 11:00:31  5-MIN KMSN 211700Z 16011KT 1SM -DZ BR OVC002 07/07 A2984 940 96 300 160/11 RMK AO2 P0000 $
14837KMSN MSN20101121110510911/21/10 11:05:31  5-MIN KMSN 211705Z 17011KT 1SM -DZ BR OVC002 07/07 A2984 940 96 300 170/11 RMK AO2 P0000 $
14837KMSN MSN20101121111010911/21/10 11:10:31  5-MIN KMSN 211710Z 17011KT 1SM -DZ BR OVC002 07/07 A2984 940 96 300 160/11 RMK AO2 P0000 $
14837KMSN MSN20101121111510911/21/10 11:15:31  5-MIN KMSN 211715Z 17012KT 1SM -DZ BR OVC002 07/07 A2983 940 96 300 160/12 RMK AO2 P0000 $
14837KMSN MSN20101121112010911/21/10 11:20:31  5-MIN KMSN 211720Z 17013KT 1SM -DZ BR OVC002 07/07 A2983 950 96 300 160/13 RMK AO2 P0000 $
14837KMSN MSN20101121112511011/21/10 11:25:31  5-MIN KMSN 211725Z 16011KT 1SM -DZ BR OVC004 07/07 A2982 960 100 300 160/11 RMK AO2 P0000 $
14837KMSN MSN20101121113011011/21/10 11:30:31  5-MIN KMSN 211730Z 16012KT 1SM -DZ BR OVC004 07/07 A2982 960 100 300 160/12 RMK AO2 P0000 $
14837KMSN MSN20101121113510911/21/10 11:35:31  5-MIN KMSN 211735Z 16012KT 1SM -DZ BR OVC004 08/07 A2981 970 96 400 160/12 RMK AO2 P0000 $
14837KMSN MSN20101121114012311/21/10 11:40:31  5-MIN KMSN 211740Z 16009KT 1SM -DZ BR OVC004 08/07 A2981 970 96 400 160/09 RMK AO2 SFC VIS 1 1/4 P0000 $
14837KMSN MSN20101121114510911/21/10 11:45:31  5-MIN KMSN 211745Z 16013KT 1SM -DZ BR OVC004 08/07 A2981 970 96 400 160/13 RMK AO2 P0000 $
14837KMSN MSN20101121115015011/21/10 11:50:31  5-MIN KMSN 211750Z 17012KT 1SM -DZ BR OVC004 08/07 A2981 960 96 400 170/12 RMK AO2 SLP103 P0000 60002 T00780072 10078 20033 58008 $
14837KMSN MSN20101121115512311/21/10 11:55:31  5-MIN KMSN 211755Z 17011KT 1SM -DZ BR OVC004 08/07 A2981 970 96 400 170/11 RMK AO2 SFC VIS 1 1/4 P0000 $
14837KMSN MSN20101121120012311/21/10 12:00:31  5-MIN KMSN 211800Z 17013KT 1SM -DZ BR OVC004 08/07 A2981 970 96 400 170/13 RMK AO2 SFC VIS 1 1/4 P0000 $
14837KMSN MSN20101121120512311/21/10 12:05:31  5-MIN KMSN 211805Z 16011KT 1SM -DZ BR OVC004 08/07 A2980 970 96 400 160/11 RMK AO2 SFC VIS 1 1/4 P0000 $
14837KMSN MSN20101121121012311/21/10 12:10:31  5-MIN KMSN 211810Z 16012KT 1SM -DZ BR OVC004 08/07 A2980 970 96 400 160/12 RMK AO2 SFC VIS 1 1/4 P0000 $
14837KMSN MSN20101121121512311/21/10 12:15:31  5-MIN KMSN 211815Z 16011KT 1SM -DZ BR OVC004 08/07 A2980 970 96 400 160/11 RMK AO2 SFC VIS 1 1/4 P0000 $
14837KMSN MSN20101121122012311/21/10 12:20:31  5-MIN KMSN 211820Z 16010KT 1SM -DZ BR OVC004 08/07 A2980 980 96 400 160/10 RMK AO2 SFC VIS 1 1/4 P0000 $
14837KMSN MSN20101121122512311/21/10 12:25:31  5-MIN KMSN 211825Z 16011KT 1SM -DZ BR OVC004 08/07 A2979 980 96 400 160/11 RMK AO2 SFC VIS 1 1/4 P0000 $
14837KMSN MSN20101121123010911/21/10 12:30:31  5-MIN KMSN 211830Z 16011KT 1SM -DZ BR OVC004 08/07 A2979 990 96 400 160/11 RMK AO2 P0001 $
14837KMSN MSN20101121123510911/21/10 12:35:31  5-MIN KMSN 211835Z 16011KT 1SM -DZ BR OVC004 08/07 A2979 990 96 400 160/11 RMK AO2 P0001 $
14837KMSN MSN20101121124010911/21/10 12:40:31  5-MIN KMSN 211840Z 16011KT 1SM -DZ BR OVC004 08/07 A2978 990 96 400 160/11 RMK AO2 P0001 $
14837KMSN MSN20101121124510911/21/10 12:45:31  5-MIN KMSN 211845Z 16011KT 1SM -DZ BR OVC004 08/07 A2978 990 93 500 160/11 RMK AO2 P0001 $
14837KMSN MSN20101121125014111/21/10 12:50:31  5-MIN KMSN 211850Z 16011KT 1SM -DZ BR OVC004 08/08 A2978 1000 96 500 160/11 RMK AO2 SFC VIS 1 1/4 SLP090 P0001 T00830078 $
14837KMSN MSN20101121125512411/21/10 12:55:31  5-MIN KMSN 211855Z 15011KT 1SM -DZ BR OVC004 08/08 A2977 1000 96 500 150/11 RMK AO2 SFC VIS 1 1/4 P0000 $
14837KMSN MSN20101121130011011/21/10 13:00:31  5-MIN KMSN 211900Z 15012KT 1SM -DZ BR OVC004 08/08 A2977 1000 96 500 150/12 RMK AO2 P0000 $
14837KMSN MSN20101121130511011/21/10 13:05:31  5-MIN KMSN 211905Z 16011KT 1SM -DZ BR OVC004 08/08 A2977 1000 96 500 160/11 RMK AO2 P0000 $
14837KMSN MSN20101121131011011/21/10 13:10:31  5-MIN KMSN 211910Z 16012KT 1SM -DZ BR OVC004 08/08 A2977 1000 96 500 160/12 RMK AO2 P0000 $
14837KMSN MSN20101121131512411/21/10 13:15:31  5-MIN KMSN 211915Z 16010KT 1SM -DZ BR OVC004 08/08 A2977 1000 96 500 160/10 RMK AO2 SFC VIS 1 1/4 P0000 $
14837KMSN MSN20101121132012411/21/10 13:20:31  5-MIN KMSN 211920Z 16011KT 1SM -DZ BR OVC004 09/08 A2977 1000 93 600 160/11 RMK AO2 SFC VIS 1 1/4 P0000 $
14837KMSN MSN20101121132512411/21/10 13:25:31  5-MIN KMSN 211925Z 16012KT 1SM -DZ BR OVC004 09/08 A2977 1000 93 600 160/12 RMK AO2 SFC VIS 1 1/4 P0000 $
14837KMSN MSN20101121133012411/21/10 13:30:31  5-MIN KMSN 211930Z 16012KT 1SM -DZ BR OVC004 09/08 A2976 1010 93 600 160/12 RMK AO2 SFC VIS 1 1/4 P0000 $
14837KMSN MSN20101121133512411/21/10 13:35:31  5-MIN KMSN 211935Z 16012KT 1SM -DZ BR OVC004 09/08 A2976 1010 96 600 160/12 RMK AO2 SFC VIS 1 1/4 P0000 $
14837KMSN MSN20101121134012411/21/10 13:40:31  5-MIN KMSN 211940Z 16011KT 1SM -DZ BR OVC004 09/08 A2976 1020 96 600 160/11 RMK AO2 SFC VIS 1 1/4 P0000 $
14837KMSN MSN20101121134512411/21/10 13:45:31  5-MIN KMSN 211945Z 16012KT 1SM -DZ BR OVC004 09/08 A2975 1020 96 600 160/12 RMK AO2 SFC VIS 1 1/4 P0000 $
14837KMSN MSN20101121135014111/21/10 13:50:31  5-MIN KMSN 211950Z 16011KT 1SM -DZ BR OVC004 09/08 A2975 1020 96 600 160/11 RMK AO2 SFC VIS 1 1/4 SLP080 P0001 T00890083 $
14837KMSN MSN20101121135512411/21/10 13:55:31  5-MIN KMSN 211955Z 16011KT 1SM -DZ BR OVC004 09/08 A2975 1020 96 600 160/11 RMK AO2 SFC VIS 1 1/4 P0000 $
14837KMSN MSN20101121140012411/21/10 14:00:31  5-MIN KMSN 212000Z 17010KT 1SM -DZ BR OVC004 09/08 A2975 1020 96 600 170/10 RMK AO2 SFC VIS 1 1/4 P0000 $
14837KMSN MSN20101121140512411/21/10 14:05:31  5-MIN KMSN 212005Z 16011KT 1SM -DZ BR OVC004 09/08 A2975 1030 93 600 160/11 RMK AO2 SFC VIS 1 1/4 P0000 $
14837KMSN MSN20101121141012411/21/10 14:10:31  5-MIN KMSN 212010Z 17009KT 1SM -DZ BR OVC004 09/08 A2975 1030 93 600 160/09 RMK AO2 SFC VIS 1 1/4 P0000 $
14837KMSN MSN20101121141512411/21/10 14:15:31  5-MIN KMSN 212015Z 16009KT 1SM -DZ BR OVC004 09/08 A2974 1030 93 600 160/09 RMK AO2 SFC VIS 1 1/4 P0000 $
14837KMSN MSN20101121142012411/21/10 14:20:31  5-MIN KMSN 212020Z 16009KT 1SM -DZ BR OVC004 09/08 A2974 1030 93 600 160/09 RMK AO2 SFC VIS 1 1/4 P0000 $
14837KMSN MSN20101121142512411/21/10 14:25:31  5-MIN KMSN 212025Z 16010KT 1SM -DZ BR OVC004 09/08 A2974 1030 93 600 160/10 RMK AO2 SFC VIS 1 1/4 P0000 $
14837KMSN MSN20101121143011011/21/10 14:30:31  5-MIN KMSN 212030Z 16009KT 1SM -DZ BR OVC004 09/09 A2974 1030 96 700 160/09 RMK AO2 P0000 $
14837KMSN MSN20101121143511011/21/10 14:35:31  5-MIN KMSN 212035Z 16009KT 1SM -DZ BR OVC004 09/09 A2974 1030 96 700 160/09 RMK AO2 P0000 $
14837KMSN MSN20101121144011011/21/10 14:40:31  5-MIN KMSN 212040Z 16011KT 1SM -DZ BR OVC004 09/09 A2974 1030 96 700 160/11 RMK AO2 P0000 $
14837KMSN MSN20101121144511011/21/10 14:45:31  5-MIN KMSN 212045Z 17010KT 1SM -DZ BR OVC004 09/09 A2974 1040 96 700 160/10 RMK AO2 P0000 $
14837KMSN MSN20101121145013911/21/10 14:50:31  5-MIN KMSN 212050Z 17010KT 1SM -DZ BR OVC004 09/09 A2973 1040 96 700 160/10 RMK AO2 SLP073 P0000 60002 T00940089 58039 $
14837KMSN MSN20101121145511011/21/10 14:55:31  5-MIN KMSN 212055Z 17010KT 1SM -DZ BR OVC004 10/09 A2973 1040 93 700 170/10 RMK AO2 P0000 $
14837KMSN MSN20101121150011011/21/10 15:00:31  5-MIN KMSN 212100Z 17010KT 1SM -DZ BR OVC004 10/09 A2973 1040 96 700 170/10 RMK AO2 P0000 $
14837KMSN MSN20101121150511011/21/10 15:05:31  5-MIN KMSN 212105Z 17009KT 1SM -DZ BR OVC004 10/09 A2973 1040 96 700 170/09 RMK AO2 P0000 $
14837KMSN MSN20101121151012411/21/10 15:10:31  5-MIN KMSN 212110Z 17009KT 1SM -DZ BR OVC004 10/09 A2973 1040 96 700 170/09 RMK AO2 TWR VIS 1 1/4 P0000 $
14837KMSN MSN20101121151512811/21/10 15:15:31  5-MIN KMSN 212115Z 18008KT 1 1/4SM -DZ BR OVC004 10/09 A2973 1040 96 700 180/08 RMK AO2 SFC VIS 1 1/2 P0000 $
14837KMSN MSN20101121152012811/21/10 15:20:31  5-MIN KMSN 212120Z 18009KT 1 1/4SM -DZ BR OVC004 10/09 A2973 1040 96 700 180/09 RMK AO2 SFC VIS 1 1/2 P0000 $
14837KMSN MSN20101121152513011/21/10 15:25:31  5-MIN KMSN 212125Z 18008KT 1 1/4SM BR OVC004 10/09 A2973 1040 96 700 180/08 RMK AO2 SFC VIS 1 1/2 DZE25 P0000 $
14837KMSN MSN20101121153011611/21/10 15:30:31  5-MIN KMSN 212130Z 18010KT 1 1/4SM BR OVC004 11/09 A2973 1040 93 800 180/10 RMK AO2 DZE25 P0000 $
14837KMSN MSN20101121153511611/21/10 15:35:31  5-MIN KMSN 212135Z 17009KT 1 1/4SM BR OVC004 11/10 A2973 1040 96 800 170/09 RMK AO2 DZE25 P0001 $
14837KMSN MSN20101121154011611/21/10 15:40:31  5-MIN KMSN 212140Z 18009KT 1 1/4SM BR OVC004 11/10 A2973 1040 96 800 180/09 RMK AO2 DZE25 P0001 $
14837KMSN MSN20101121154511611/21/10 15:45:31  5-MIN KMSN 212145Z 17010KT 1 1/4SM BR OVC004 11/10 A2973 1040 96 800 170/10 RMK AO2 DZE25 P0001 $
14837KMSN MSN20101121155014711/21/10 15:50:31  5-MIN KMSN 212150Z 17008KT 1 1/4SM BR OVC004 11/10 A2973 1040 96 800 170/08 RMK AO2 SFC VIS 1 1/2 DZE25 SLP073 P0001 T01060100 $
14837KMSN MSN20101121155511811/21/10 15:55:31  5-MIN KMSN 212155Z 17008KT 1 1/4SM BR OVC004 11/10 A2973 1040 96 800 170/08 RMK AO2 SFC VIS 1 1/2 $
14837KMSN MSN20101121160011811/21/10 16:00:31  5-MIN KMSN 212200Z 17009KT 1 1/4SM BR OVC004 11/10 A2973 1040 96 800 170/09 RMK AO2 SFC VIS 1 1/2 $
14837KMSN MSN20101121160511811/21/10 16:05:31  5-MIN KMSN 212205Z 17008KT 1 1/4SM BR OVC004 11/10 A2973 1040 96 800 170/08 RMK AO2 SFC VIS 1 1/2 $
14837KMSN MSN20101121161011811/21/10 16:10:31  5-MIN KMSN 212210Z 18008KT 1 1/4SM BR OVC004 11/10 A2974 1040 96 800 170/08 RMK AO2 SFC VIS 1 3/4 $
14837KMSN MSN20101121161511411/21/10 16:15:31  5-MIN KMSN 212215Z 17007KT 1 1/4SM BR OVC004 11/10 A2973 1040 96 800 170/07 RMK AO2 SFC VIS 2 $
14837KMSN MSN20101121162011811/21/10 16:20:31  5-MIN KMSN 212220Z 17008KT 1 1/4SM BR OVC004 11/10 A2974 1040 96 800 170/08 RMK AO2 SFC VIS 2 1/2 $
14837KMSN MSN20101121162511811/21/10 16:25:31  5-MIN KMSN 212225Z 18008KT 1 1/4SM BR OVC004 11/10 A2974 1040 93 900 180/08 RMK AO2 SFC VIS 2 1/2 $
14837KMSN MSN20101121163011811/21/10 16:30:31  5-MIN KMSN 212230Z 18005KT 1 1/4SM BR OVC004 11/10 A2974 1030 93 900 180/05 RMK AO2 SFC VIS 2 1/2 $
14837KMSN MSN20101121163510011/21/10 16:35:31  5-MIN KMSN 212235Z 18006KT 2SM BR OVC004 11/10 A2974 1030 93 900 170/06 RMK AO2 $
14837KMSN MSN20101121164010011/21/10 16:40:31  5-MIN KMSN 212240Z 18005KT 2SM BR OVC006 11/10 A2974 1030 93 900 180/05 RMK AO2 $
14837KMSN MSN20101121164510011/21/10 16:45:31  5-MIN KMSN 212245Z 16007KT 2SM BR OVC006 11/10 A2973 1040 93 900 160/07 RMK AO2 $
14837KMSN MSN20101121165012911/21/10 16:50:31  5-MIN KMSN 212250Z 18006KT 2SM BR OVC006 11/10 A2974 1040 96 800 180/06 RMK AO2 CIG 005V010 SLP074 T01060100 $
14837KMSN MSN20101121165512211/21/10 16:55:31  5-MIN KMSN 212255Z 17006KT 2SM BR OVC006 11/11 A2973 1040 96 900 170/06 RMK AO2 SFC VIS 3 CIG 005V011 $
14837KMSN MSN20101121170011211/21/10 17:00:31  5-MIN KMSN 212300Z 19007KT 3SM BR OVC008 11/10 A2973 1040 93 900 190/07 RMK AO2 CIG 006V011 $
14837KMSN MSN20101121170512211/21/10 17:05:31  5-MIN KMSN 212305Z 19007KT 3SM BR OVC008 12/11 A2974 1040 93 900 190/07 RMK AO2 SFC VIS 3 CIG 006V011 $
14837KMSN MSN20101121171011011/21/10 17:10:31  5-MIN KMSN 212310Z 18006KT 3SM BR OVC008 12/11 A2974 1030 93 900 180/06 RMK AO2 SFC VIS 4 $
14837KMSN MSN20101121171510111/21/10 17:15:31  5-MIN KMSN 212315Z 19008KT 4SM BR OVC008 12/11 A2974 1030 89 1000 190/08 RMK AO2 $
14837KMSN MSN20101121172010111/21/10 17:20:31  5-MIN KMSN 212320Z 19008KT 4SM BR OVC008 12/11 A2974 1030 89 1000 180/08 RMK AO2 $
14837KMSN MSN20101121172510711/21/10 17:25:31  5-MIN KMSN 212325Z 19008KT 4SM BR OVC008 12/11 A2974 1030 89 1000 190/08 RMK AO2 P0001 $
14837KMSN MSN20101121173010711/21/10 17:30:31  5-MIN KMSN 212330Z 19009KT 4SM BR OVC008 12/11 A2974 1030 89 1000 190/09 RMK AO2 P0001 $
14837KMSN MSN20101121173512611/21/10 17:35:31  5-MIN KMSN 212335Z 19010KT 4SM BR BKN010 OVC015 12/11 A2974 1030 93 1000 180/10 RMK AO2 CIG 008V012 P0001 $
14837KMSN MSN20101121174010711/21/10 17:40:31  5-MIN KMSN 212340Z 19010G16KT 4SM BR OVC012 13/11 A2974 1030 89 1000 190/10G16 RMK AO2 $
14837KMSN MSN20101121174510111/21/10 17:45:31  5-MIN KMSN 212345Z 19009KT 4SM BR OVC012 13/11 A2974 1030 89 1000 190/09 RMK AO2 $
14837KMSN MSN20101121175014311/21/10 17:50:31  5-MIN KMSN 212350Z 19009KT 4SM BR BKN012 OVC016 13/11 A2974 1030 89 1000 190/09 RMK AO2 SLP075 T01280111 10128 20078 56026 $
14837KMSN MSN20101121175510111/21/10 17:55:31  5-MIN KMSN 212355Z 18011KT 5SM BR OVC012 13/11 A2974 1030 89 1100 180/11 RMK AO2 $
14837KMSN MSN20101121180010111/21/10 18:00:31  5-MIN KMSN 220000Z 18009KT 5SM BR OVC012 13/11 A2974 1030 89 1100 180/09 RMK AO2 $
14837KMSN MSN20101121180510811/21/10 18:05:31  5-MIN KMSN 220005Z 18010KT 4SM BR BKN012 OVC017 13/11 A2974 1040 89 1100 180/10 RMK AO2 $
14837KMSN MSN20101121181011511/21/10 18:10:31  5-MIN KMSN 220010Z 18009KT 5SM BR BKN012 BKN032 OVC050 13/11 A2974 1040 89 1100 180/09 RMK AO2 $
14837KMSN MSN20101121181511511/21/10 18:15:31  5-MIN KMSN 220015Z 18009KT 5SM BR BKN012 BKN035 OVC050 13/11 A2973 1040 89 1100 180/09 RMK AO2 $
14837KMSN MSN20101121182010111/21/10 18:20:31  5-MIN KMSN 220020Z 18007KT 5SM BR OVC012 12/11 A2973 1040 93 1000 180/07 RMK AO2 $
14837KMSN MSN20101121182510111/21/10 18:25:31  5-MIN KMSN 220025Z 18009KT 5SM BR BKN012 12/11 A2973 1040 93 1000 180/09 RMK AO2 $
14837KMSN MSN20101121183010111/21/10 18:30:31  5-MIN KMSN 220030Z 18009KT 5SM BR BKN012 12/11 A2973 1040 93 1000 180/09 RMK AO2 $
14837KMSN MSN20101121183510111/21/10 18:35:31  5-MIN KMSN 220035Z 18010KT 5SM BR OVC012 12/11 A2973 1040 93 1000 180/10 RMK AO2 $
14837KMSN MSN20101121184010111/21/10 18:40:31  5-MIN KMSN 220040Z 19009KT 5SM BR OVC012 12/11 A2974 1030 93 1000 190/09 RMK AO2 $
14837KMSN MSN20101121184510111/21/10 18:45:31  5-MIN KMSN 220045Z 29007KT 4SM BR OVC012 12/11 A2975 1020 93 1000 280/07 RMK AO2 $
14837KMSN MSN20101121185011811/21/10 18:50:31  5-MIN KMSN 220050Z 21004KT 4SM BR OVC012 12/11 A2974 1030 93 1000 210/04 RMK AO2 SLP076 T01220111 $
14837KMSN MSN20101121185512911/21/10 18:55:31  5-MIN KMSN 220055Z 21008KT 180V240 4SM BR OVC010 12/11 A2974 1030 93 1000 210/08 180V240 RMK AO2 CIG 009V014 $
14837KMSN MSN20101121190010811/21/10 19:00:31  5-MIN KMSN 220100Z 21003KT 4SM BR BKN010 OVC016 12/11 A2974 1030 93 1000 210/03 RMK AO2 $
14837KMSN MSN20101121190510811/21/10 19:05:31  5-MIN KMSN 220105Z 21008KT 4SM BR BKN010 OVC016 12/11 A2975 1030 93 1000 210/08 RMK AO2 $
14837KMSN MSN20101121191012111/21/10 19:10:31  5-MIN KMSN 220110Z 20010G15KT 5SM BR SCT010 BKN016 OVC020 13/11 A2975 1020 89 1000 200/10G15 RMK AO2 $
14837KMSN MSN20101121191512011/21/10 19:15:31  5-MIN KMSN 220115Z 20009G18KT 4SM BR BKN010 OVC016 13/11 A2975 1020 89 1000 200/09G18 RMK AO2 P0001 $
14837KMSN MSN20101121192010711/21/10 19:20:31  5-MIN KMSN 220120Z 20007G18KT 4SM BR OVC013 13/11 A2975 1020 89 1000 200/07G18 RMK AO2 $
14837KMSN MSN20101121192510111/21/10 19:25:31  5-MIN KMSN 220125Z 20008KT 4SM BR OVC013 13/11 A2975 1020 89 1000 190/08 RMK AO2 $
14837KMSN MSN20101121193010111/21/10 19:30:31  5-MIN KMSN 220130Z 20009KT 4SM BR OVC013 13/11 A2975 1020 89 1000 200/09 RMK AO2 $
14837KMSN MSN20101121193510711/21/10 19:35:31  5-MIN KMSN 220135Z 19010G14KT 4SM BR OVC013 13/11 A2975 1020 89 1000 190/10G14 RMK AO2 $
14837KMSN MSN20101121194010111/21/10 19:40:31  5-MIN KMSN 220140Z 19009KT 4SM BR OVC013 13/11 A2974 1030 89 1000 190/09 RMK AO2 $
14837KMSN MSN20101121194510111/21/10 19:45:31  5-MIN KMSN 220145Z 19008KT 4SM BR OVC013 13/11 A2974 1030 89 1000 190/08 RMK AO2 $
14837KMSN MSN20101121195011811/21/10 19:50:31  5-MIN KMSN 220150Z 19006KT 4SM BR OVC013 13/11 A2974 1030 89 1000 180/06 RMK AO2 SLP075 T01280111 $
14837KMSN MSN20101121195510111/21/10 19:55:31  5-MIN KMSN 220155Z 19007KT 4SM BR OVC013 13/11 A2975 1030 89 1000 190/07 RMK AO2 $
14837KMSN MSN20101121200010111/21/10 20:00:31  5-MIN KMSN 220200Z 19006KT 4SM BR OVC013 13/11 A2975 1030 89 1000 190/06 RMK AO2 $
14837KMSN MSN20101121200510111/21/10 20:05:31  5-MIN KMSN 220205Z 18008KT 4SM BR OVC013 13/11 A2974 1030 89 1000 180/08 RMK AO2 $
14837KMSN MSN20101121201010111/21/10 20:10:31  5-MIN KMSN 220210Z 18008KT 4SM BR OVC013 13/11 A2975 1030 86 1000 180/08 RMK AO2 $
14837KMSN MSN20101121201510111/21/10 20:15:31  5-MIN KMSN 220215Z 19008KT 4SM BR OVC013 13/11 A2975 1030 86 1000 190/08 RMK AO2 $
14837KMSN MSN20101121202010111/21/10 20:20:31  5-MIN KMSN 220220Z 18008KT 4SM BR OVC013 13/11 A2975 1030 86 1000 180/08 RMK AO2 $
14837KMSN MSN20101121202510111/21/10 20:25:31  5-MIN KMSN 220225Z 17009KT 4SM BR OVC013 13/11 A2974 1030 86 1000 170/09 RMK AO2 $
14837KMSN MSN20101121203010811/21/10 20:30:31  5-MIN KMSN 220230Z 18007KT 4SM BR BKN013 OVC023 13/11 A2975 1020 86 1000 180/07 RMK AO2 $
14837KMSN MSN20101121203510111/21/10 20:35:31  5-MIN KMSN 220235Z 18008KT 4SM BR OVC013 13/11 A2975 1030 86 1000 180/08 RMK AO2 $
14837KMSN MSN20101121204010111/21/10 20:40:31  5-MIN KMSN 220240Z 18008KT 4SM BR OVC013 12/11 A2975 1030 89 1000 180/08 RMK AO2 $
14837KMSN MSN20101121204510811/21/10 20:45:31  5-MIN KMSN 220245Z 18007KT 4SM BR BKN013 OVC020 12/11 A2975 1030 89 1000 180/07 RMK AO2 $
14837KMSN MSN20101121205010811/21/10 20:50:31  5-MIN KMSN 220250Z 18006KT 5SM BR BKN015 OVC020 12/11 A2975 1030 89 1000 180/06 RMK AO2 $
14837KMSN MSN20101121205510811/21/10 20:55:31  5-MIN KMSN 220255Z 18007KT 5SM BR BKN013 OVC020 12/11 A2975 1030 89 1000 180/07 RMK AO2 $
14837KMSN MSN20101121210010111/21/10 21:00:31  5-MIN KMSN 220300Z 18009KT 5SM BR OVC015 12/11 A2974 1030 89 1000 180/09 RMK AO2 $
14837KMSN MSN20101121210510111/21/10 21:05:31  5-MIN KMSN 220305Z 19007KT 5SM BR OVC015 12/11 A2974 1030 89 1000 180/07 RMK AO2 $
14837KMSN MSN20101121211010111/21/10 21:10:31  5-MIN KMSN 220310Z 19009KT 5SM BR OVC015 12/11 A2975 1020 89 1000 190/09 RMK AO2 $
14837KMSN MSN20101121211510111/21/10 21:15:31  5-MIN KMSN 220315Z 20007KT 5SM BR OVC015 13/11 A2975 1020 86 1000 200/07 RMK AO2 $
14837KMSN MSN20101121212010111/21/10 21:20:31  5-MIN KMSN 220320Z 20009KT 5SM BR OVC015 13/11 A2976 1020 86 1000 200/09 RMK AO2 $
14837KMSN MSN20101121212510111/21/10 21:25:31  5-MIN KMSN 220325Z 20007KT 5SM BR OVC015 13/11 A2976 1020 86 1000 200/07 RMK AO2 $
14837KMSN MSN20101121213010111/21/10 21:30:31  5-MIN KMSN 220330Z 20005KT 5SM BR OVC013 13/11 A2976 1020 86 1000 200/05 RMK AO2 $
14837KMSN MSN20101121213510111/21/10 21:35:31  5-MIN KMSN 220335Z 20007KT 5SM BR OVC013 13/11 A2976 1020 86 1000 190/07 RMK AO2 $
14837KMSN MSN20101121214010111/21/10 21:40:31  5-MIN KMSN 220340Z 20005KT 5SM BR OVC013 13/11 A2976 1010 86 1000 200/05 RMK AO2 $
14837KMSN MSN20101121214510111/21/10 21:45:31  5-MIN KMSN 220345Z 20007KT 5SM BR OVC013 13/11 A2976 1010 86 1000 200/07 RMK AO2 $
14837KMSN MSN20101121215011811/21/10 21:50:31  5-MIN KMSN 220350Z 20007KT 5SM BR OVC013 13/11 A2976 1010 86 1000 200/07 RMK AO2 SLP081 T01280106 $
14837KMSN MSN20101121215510111/21/10 21:55:31  5-MIN KMSN 220355Z 20006KT 5SM BR OVC011 13/11 A2976 1010 86 1000 200/06 RMK AO2 $
14837KMSN MSN20101121220010711/21/10 22:00:31  5-MIN KMSN 220400Z 24009G18KT 5SM BR OVC011 13/11 A2977 1010 86 1000 240/09G18 RMK AO2 $
14837KMSN MSN20101121220510711/21/10 22:05:31  5-MIN KMSN 220405Z 24007G18KT 5SM BR OVC011 12/10 A2977 1010 86 1000 240/07G18 RMK AO2 $
14837KMSN MSN20101121221010011/21/10 22:10:31  5-MIN KMSN 220410Z 24006KT 5SM BR OVC011 12/10 A2976 1010 89 900 240/06 RMK AO2 $
14837KMSN MSN20101121221510011/21/10 22:15:31  5-MIN KMSN 220415Z VRB05KT 5SM BR OVC011 12/09 A2977 1010 86 900 VRB/05 RMK AO2 $
14837KMSN MSN20101121222010011/21/10 22:20:31  5-MIN KMSN 220420Z 23006KT 5SM BR OVC011 11/09 A2977 1000 89 800 230/06 RMK AO2 $
14837KMSN MSN20101121222510011/21/10 22:25:31  5-MIN KMSN 220425Z 24005KT 5SM BR OVC011 11/09 A2977 1000 89 800 240/05 RMK AO2 $
14837KMSN MSN20101121223010011/21/10 22:30:31  5-MIN KMSN 220430Z 23006KT 5SM BR OVC011 11/09 A2977 1000 89 800 230/06 RMK AO2 $
14837KMSN MSN20101121223510011/21/10 22:35:31  5-MIN KMSN 220435Z 23005KT 5SM BR OVC013 11/09 A2977 1010 89 800 230/05 RMK AO2 $
14837KMSN MSN20101121224010011/21/10 22:40:31  5-MIN KMSN 220440Z 23004KT 5SM BR OVC013 11/09 A2976 1010 86 800 230/04 RMK AO2 $
14837KMSN MSN20101121224510011/21/10 22:45:31  5-MIN KMSN 220445Z 23005KT 6SM BR OVC015 11/09 A2977 1000 86 800 230/05 RMK AO2 $
14837KMSN MSN20101121225011711/21/10 22:50:31  5-MIN KMSN 220450Z 22005KT 6SM BR OVC015 11/09 A2976 1010 86 800 210/05 RMK AO2 SLP082 T01110089 $
14837KMSN MSN20101121225510711/21/10 22:55:31  5-MIN KMSN 220455Z 21004KT 6SM BR BKN017 OVC022 11/09 A2977 1010 86 800 210/04 RMK AO2 $
14837KMSN MSN20101121230010411/21/10 23:00:31  5-MIN KMSN 220500Z 21005KT 7SM BKN017 OVC022 11/08 A2977 1010 83 800 210/05 RMK AO2 $
14837KMSN MSN20101121230510411/21/10 23:05:31  5-MIN KMSN 220505Z 20006KT 7SM SCT017 OVC022 11/08 A2977 1010 83 800 200/06 RMK AO2 $
14837KMSN MSN20101121231010411/21/10 23:10:31  5-MIN KMSN 220510Z VRB05KT 7SM SCT017 OVC024 11/08 A2976 1010 83 800 VRB/05 RMK AO2 $
14837KMSN MSN20101121231509711/21/10 23:15:31  5-MIN KMSN 220515Z 22006KT 7SM OVC024 11/08 A2977 1000 80 800 220/06 RMK AO2 $
14837KMSN MSN20101121232009711/21/10 23:20:31  5-MIN KMSN 220520Z 24005KT 7SM OVC024 11/07 A2978 1000 77 800 240/05 RMK AO2 $
14837KMSN MSN20101121232509711/21/10 23:25:31  5-MIN KMSN 220525Z 24004KT 8SM OVC026 11/07 A2977 1000 77 800 240/04 RMK AO2 $
14837KMSN MSN20101121233009711/21/10 23:30:31  5-MIN KMSN 220530Z 22006KT 8SM OVC026 11/07 A2978 1000 77 800 220/06 RMK AO2 $
14837KMSN MSN20101121233509711/21/10 23:35:31  5-MIN KMSN 220535Z 23005KT 8SM OVC028 11/07 A2978 1000 74 800 220/05 RMK AO2 $
14837KMSN MSN20101122014509611/22/10 01:45:31  5-MIN KMSN 220745Z 27004KT 7SM OVC032 08/05 A2981 970 79 400 270/04 RMK AO2 $
14837KMSN MSN20101122015011311/22/10 01:50:31  5-MIN KMSN 220750Z 28004KT 7SM OVC032 08/05 A2981 970 79 400 280/04 RMK AO2 SLP098 T00830050 $
14837KMSN MSN20101122015509611/22/10 01:55:31  5-MIN KMSN 220755Z 29004KT 7SM OVC032 08/04 A2981 970 76 400 290/04 RMK AO2 $
14837KMSN MSN20101122020009611/22/10 02:00:31  5-MIN KMSN 220800Z 27004KT 7SM OVC032 08/04 A2982 960 76 400 270/04 RMK AO2 $
14837KMSN MSN20101122020509611/22/10 02:05:31  5-MIN KMSN 220805Z VRB04KT 7SM OVC034 08/04 A2982 950 76 400 VRB/04 RMK AO2 $
14837KMSN MSN20101122021009611/22/10 02:10:31  5-MIN KMSN 220810Z 29005KT 7SM OVC034 08/04 A2982 960 79 400 290/05 RMK AO2 $
14837KMSN MSN20101122021509611/22/10 02:15:31  5-MIN KMSN 220815Z VRB04KT 7SM OVC036 08/04 A2982 960 79 400 VRB/04 RMK AO2 $
14837KMSN MSN20101122022009611/22/10 02:20:31  5-MIN KMSN 220820Z 30006KT 7SM OVC036 08/04 A2982 960 79 400 300/06 RMK AO2 $
14837KMSN MSN20101122022509611/22/10 02:25:31  5-MIN KMSN 220825Z 29005KT 7SM OVC036 08/04 A2982 960 79 400 290/05 RMK AO2 $
14837KMSN MSN20101122023009611/22/10 02:30:31  5-MIN KMSN 220830Z 29006KT 7SM OVC036 08/04 A2982 960 79 400 290/06 RMK AO2 $
14837KMSN MSN20101122023509611/22/10 02:35:31  5-MIN KMSN 220835Z 29003KT 7SM OVC036 08/04 A2982 960 79 400 290/03 RMK AO2 $
14837KMSN MSN20101122024009611/22/10 02:40:31  5-MIN KMSN 220840Z 28005KT 7SM OVC036 08/04 A2982 950 79 400 280/05 RMK AO2 $
14837KMSN MSN20101122024509611/22/10 02:45:31  5-MIN KMSN 220845Z 29005KT 7SM OVC036 08/04 A2983 950 79 300 290/05 RMK AO2 $
14837KMSN MSN20101122025012611/22/10 02:50:31  5-MIN KMSN 220850Z 30004KT 7SM BKN036 OVC047 08/04 A2983 950 79 400 300/04 RMK AO2 SLP103 T00780044 52007 $
14837KMSN MSN20101122025510311/22/10 02:55:31  5-MIN KMSN 220855Z 29004KT 7SM BKN036 OVC045 08/04 A2983 950 79 400 290/04 RMK AO2 $
14837KMSN MSN20101122030010311/22/10 03:00:31  5-MIN KMSN 220900Z 28005KT 7SM BKN036 OVC045 08/04 A2983 950 79 300 280/05 RMK AO2 $
14837KMSN MSN20101122030509611/22/10 03:05:31  5-MIN KMSN 220905Z 29006KT 7SM OVC036 08/04 A2983 950 79 300 290/06 RMK AO2 $
14837KMSN MSN20101122031009611/22/10 03:10:31  5-MIN KMSN 220910Z 28005KT 7SM OVC036 07/04 A2983 940 79 300 280/05 RMK AO2 $
14837KMSN MSN20101122031509911/22/10 03:15:31  5-MIN KMSN 220915Z 28003KT 6SM HZ OVC036 07/04 A2983 950 79 300 280/03 RMK AO2 $
14837KMSN MSN20101122032009911/22/10 03:20:31  5-MIN KMSN 220920Z 29004KT 6SM HZ OVC036 07/04 A2983 950 82 300 290/04 RMK AO2 $
14837KMSN MSN20101122032509911/22/10 03:25:31  5-MIN KMSN 220925Z 30004KT 6SM HZ OVC034 07/04 A2983 950 79 300 300/04 RMK AO2 $
14837KMSN MSN20101122033009911/22/10 03:30:31  5-MIN KMSN 220930Z 29003KT 6SM HZ OVC034 07/04 A2983 950 82 300 290/03 RMK AO2 $
14837KMSN MSN20101122033509911/22/10 03:35:31  5-MIN KMSN 220935Z 00000KT 6SM HZ OVC034 07/04 A2983 950 82 300 000/00 RMK AO2 $
14837KMSN MSN20101122034009911/22/10 03:40:31  5-MIN KMSN 220940Z 00000KT 6SM HZ OVC034 07/04 A2983 950 82 300 000/00 RMK AO2 $
14837KMSN MSN20101122034509911/22/10 03:45:31  5-MIN KMSN 220945Z 00000KT 6SM HZ OVC032 07/04 A2983 950 82 300 000/00 RMK AO2 $
14837KMSN MSN20101122035011611/22/10 03:50:31  5-MIN KMSN 220950Z 00000KT 6SM HZ OVC032 07/04 A2983 950 82 300 000/00 RMK AO2 SLP105 T00720044 $
14837KMSN MSN20101122035509911/22/10 03:55:31  5-MIN KMSN 220955Z 31003KT 6SM HZ OVC030 07/04 A2983 940 82 300 310/03 RMK AO2 $
14837KMSN MSN20101122040009911/22/10 04:00:31  5-MIN KMSN 221000Z 00000KT 6SM HZ OVC030 07/04 A2984 940 82 300 000/00 RMK AO2 $
14837KMSN MSN20101122040509911/22/10 04:05:31  5-MIN KMSN 221005Z 00000KT 6SM HZ OVC030 07/04 A2984 940 82 300 000/00 RMK AO2 $
14837KMSN MSN20101122041009911/22/10 04:10:31  5-MIN KMSN 221010Z 00000KT 6SM HZ OVC030 07/04 A2984 940 82 300 000/00 RMK AO2 $
14837KMSN MSN20101122041509911/22/10 04:15:31  5-MIN KMSN 221015Z 00000KT 6SM HZ OVC030 07/04 A2983 950 82 300 000/00 RMK AO2 $
14837KMSN MSN20101122042009911/22/10 04:20:31  5-MIN KMSN 221020Z 00000KT 6SM HZ OVC030 07/04 A2983 950 82 300 000/00 RMK AO2 $
14837KMSN MSN20101122042509911/22/10 04:25:31  5-MIN KMSN 221025Z 00000KT 6SM HZ OVC030 07/04 A2982 950 82 300 000/00 RMK AO2 $
14837KMSN MSN20101122043010611/22/10 04:30:31  5-MIN KMSN 221030Z 00000KT 6SM HZ FEW015 OVC030 07/04 A2982 960 82 300 000/00 RMK AO2 $
14837KMSN MSN20101122043510611/22/10 04:35:31  5-MIN KMSN 221035Z 00000KT 6SM HZ FEW015 OVC030 07/04 A2982 960 82 300 000/00 RMK AO2 $
14837KMSN MSN20101122044010611/22/10 04:40:31  5-MIN KMSN 221040Z 00000KT 6SM HZ FEW015 OVC030 07/04 A2982 960 82 300 000/00 RMK AO2 $
14837KMSN MSN20101122044510611/22/10 04:45:31  5-MIN KMSN 221045Z 00000KT 6SM HZ FEW015 OVC030 07/04 A2982 960 82 300 000/00 RMK AO2 $
14837KMSN MSN20101122045012311/22/10 04:50:31  5-MIN KMSN 221050Z 00000KT 6SM HZ FEW015 OVC030 07/04 A2982 950 82 300 000/00 RMK AO2 SLP102 T00720044 $
14837KMSN MSN20101122045510611/22/10 04:55:31  5-MIN KMSN 221055Z 00000KT 6SM HZ FEW015 OVC030 07/04 A2982 960 82 300 000/00 RMK AO2 $
14837KMSN MSN20101122050009911/22/10 05:00:31  5-MIN KMSN 221100Z 00000KT 6SM HZ OVC028 07/04 A2981 970 82 300 000/00 RMK AO2 $
14837KMSN MSN20101122050509911/22/10 05:05:31  5-MIN KMSN 221105Z 00000KT 6SM HZ OVC028 07/04 A2981 970 82 300 000/00 RMK AO2 $
14837KMSN MSN20101122051009911/22/10 05:10:31  5-MIN KMSN 221110Z 00000KT 6SM HZ OVC026 07/04 A2981 970 82 300 000/00 RMK AO2 $
14837KMSN MSN20101122051509911/22/10 05:15:31  5-MIN KMSN 221115Z 00000KT 6SM HZ OVC026 07/04 A2981 970 82 300 000/00 RMK AO2 $
14837KMSN MSN20101122052009911/22/10 05:20:31  5-MIN KMSN 221120Z 00000KT 6SM HZ OVC026 07/04 A2981 970 82 300 000/00 RMK AO2 $
14837KMSN MSN20101122052509911/22/10 05:25:31  5-MIN KMSN 221125Z 00000KT 6SM HZ OVC024 07/04 A2980 970 82 300 000/00 RMK AO2 $
14837KMSN MSN20101122053009911/22/10 05:30:31  5-MIN KMSN 221130Z 10003KT 6SM HZ OVC024 07/04 A2980 970 82 300 100/03 RMK AO2 $
14837KMSN MSN20101122053509911/22/10 05:35:31  5-MIN KMSN 221135Z 00000KT 6SM HZ OVC024 07/04 A2980 970 82 300 000/00 RMK AO2 $
14837KMSN MSN20101122054009911/22/10 05:40:31  5-MIN KMSN 221140Z 08004KT 6SM HZ OVC024 07/04 A2979 980 82 300 080/04 RMK AO2 $
14837KMSN MSN20101122054509911/22/10 05:45:31  5-MIN KMSN 221145Z 09005KT 6SM HZ OVC022 07/04 A2979 980 82 300 090/05 RMK AO2 $
14837KMSN MSN20101122055014011/22/10 05:50:31  5-MIN KMSN 221150Z 06003KT 6SM HZ OVC022 07/04 A2979 990 82 300 060/03 RMK AO2 SLP089 70005 T00720044 10106 20072 53013 $
14837KMSN MSN20101122055509911/22/10 05:55:31  5-MIN KMSN 221155Z 00000KT 6SM HZ OVC022 07/04 A2979 990 82 300 000/00 RMK AO2 $
14837KMSN MSN20101122060009911/22/10 06:00:31  5-MIN KMSN 221200Z 09003KT 6SM HZ OVC020 07/04 A2979 990 82 300 090/03 RMK AO2 $
14837KMSN MSN20101122060509911/22/10 06:05:31  5-MIN KMSN 221205Z 09004KT 6SM HZ OVC020 07/04 A2978 990 82 300 090/04 RMK AO2 $
14837KMSN MSN20101122061010011/22/10 06:10:31  5-MIN KMSN 221210Z 08004KT 6SM HZ OVC020 07/04 A2978 1000 82 300 080/04 RMK AO2 $
14837KMSN MSN20101122061510011/22/10 06:15:31  5-MIN KMSN 221215Z 08004KT 6SM HZ OVC018 07/04 A2977 1000 82 300 080/04 RMK AO2 $
14837KMSN MSN20101122062010011/22/10 06:20:31  5-MIN KMSN 221220Z 08004KT 6SM HZ OVC018 07/04 A2977 1010 82 400 080/04 RMK AO2 $
14837KMSN MSN20101122062510011/22/10 06:25:31  5-MIN KMSN 221225Z 05003KT 6SM HZ OVC018 07/04 A2978 1000 82 300 050/03 RMK AO2 $
14837KMSN MSN20101122063010011/22/10 06:30:31  5-MIN KMSN 221230Z 06003KT 6SM HZ OVC018 07/04 A2978 1000 82 300 060/03 RMK AO2 $
14837KMSN MSN20101122063510011/22/10 06:35:31  5-MIN KMSN 221235Z 04003KT 6SM HZ OVC016 07/04 A2978 1000 82 300 040/03 RMK AO2 $
14837KMSN MSN20101122064009911/22/10 06:40:31  5-MIN KMSN 221240Z 00000KT 6SM HZ OVC016 07/04 A2978 990 82 300 000/00 RMK AO2 $
14837KMSN MSN20101122064509911/22/10 06:45:31  5-MIN KMSN 221245Z 00000KT 6SM HZ OVC016 07/04 A2978 990 82 300 000/00 RMK AO2 $
14837KMSN MSN20101122065014911/22/10 06:50:31  5-MIN KMSN 221250Z 12004KT 5SM -TSRA OVC016 07/04 A2978 1000 82 300 110/04 RMK AO2 TSB50RAB46 OCNL LTGIC OHD TS OHD MOV NE P0000 $
14837KMSN MSN20101122065513611/22/10 06:55:31  5-MIN KMSN 221255Z 11004KT 4SM -TSRA OVC016 07/04 A2978 990 86 300 110/04 RMK AO2 FRQ LTGIC OHD TS OHD MOV NE P0000 $
14837KMSN MSN20101122070013611/22/10 07:00:31  5-MIN KMSN 221300Z 00000KT 4SM -TSRA OVC016 07/04 A2979 990 86 300 000/00 RMK AO2 FRQ LTGIC OHD TS OHD MOV NE P0001 $
14837KMSN MSN20101122070513711/22/10 07:05:31  5-MIN KMSN 221305Z 12009KT 4SM -TSRA OVC016 07/05 A2976 1010 89 300 120/09 RMK AO2 FRQ LTGIC OHD TS OHD MOV NE P0002 $
14837KMSN MSN20101122071014311/22/10 07:10:31  5-MIN KMSN 221310Z 28007KT 4SM -TSRA OVC016 07/05 A2983 940 89 200 280/07 RMK AO2 PRESRR FRQ LTGIC OHD TS OHD MOV NE P0002 $
14837KMSN MSN20101122071515011/22/10 07:15:31  5-MIN KMSN 221315Z 17004KT 4SM -TSRA FEW012 BKN016 OVC050 07/05 A2981 960 89 200 170/04 RMK AO2 FRQ LTGIC OHD TS OHD MOV NE P0002 $
14837KMSN MSN20101122072015011/22/10 07:20:31  5-MIN KMSN 221320Z 14007KT 4SM -TSRA FEW012 BKN016 OVC046 07/05 A2979 980 89 300 140/07 RMK AO2 FRQ LTGIC OHD TS OHD MOV NE P0003 $
14837KMSN MSN20101122072515911/22/10 07:25:31  5-MIN KMSN 221325Z 13012KT 3SM -TSRA FEW012 SCT016 OVC040 07/05 A2976 1020 89 300 120/12 RMK AO2 TWR VIS 4 FRQ LTGIC OHD TS OHD MOV NE P0003
14837KMSN MSN20101122073015711/22/10 07:30:31  5-MIN KMSN 221330Z 12012KT 3SM -TSRA FEW012 BKN045 OVC070 07/05 A2974 1030 89 300 120/12 RMK AO2 PRESFR OCNL LTGIC OHD TS OHD MOV NE P0005
14837KMSN MSN20101122073512811/22/10 07:35:31  5-MIN KMSN 221335Z 13006KT 3SM -RA BR FEW014 BKN055 OVC070 07/06 A2976 1010 93 300 130/06 RMK AO2 TSE32 P0005
14837KMSN MSN20101122074012811/22/10 07:40:31  5-MIN KMSN 221340Z 12007KT 3SM -RA BR FEW012 BKN055 BKN070 07/06 A2975 1020 93 300 110/07 RMK AO2 TSE32 P0005
14837KMSN MSN20101122074513211/22/10 07:45:31  5-MIN KMSN 221345Z 09004KT 3SM BR SCT050 BKN100 07/06 A2976 1020 93 300 090/04 RMK AO2 SFC VIS 3 TSE32RAE44 P0005
14837KMSN MSN20101122075013911/22/10 07:50:31  5-MIN KMSN 221350Z 33007KT 3SM BR SCT055 BKN100 07/06 A2977 1000 93 300 330/07 RMK AO2 TSE32RAE44 SLP084 P0005 T00670056
14837KMSN MSN20101122075511211/22/10 07:55:31  5-MIN KMSN 221355Z 33004KT 3SM BR FEW021 SCT070 BKN100 07/06 A2978 1000 93 300 330/04 RMK AO2
14837KMSN MSN20101122080011211/22/10 08:00:31  5-MIN KMSN 221400Z 01003KT 3SM BR SCT021 BKN080 BKN100 07/06 A2977 1000 93 300 360/03 RMK AO2
14837KMSN MSN20101122080510511/22/10 08:05:31  5-MIN KMSN 221405Z 03004KT 3SM BR BKN019 BKN110 07/06 A2977 1010 96 300 020/04 RMK AO2
14837KMSN MSN20101122081011211/22/10 08:10:31  5-MIN KMSN 221410Z 01006KT 3SM BR BKN019 BKN070 BKN110 07/06 A2976 1010 96 300 010/06 RMK AO2
14837KMSN MSN20101122081511211/22/10 08:15:31  5-MIN KMSN 221415Z 01005KT 3SM BR FEW009 BKN019 BKN070 07/06 A2976 1010 93 300 010/05 RMK AO2
14837KMSN MSN20101122082011211/22/10 08:20:31  5-MIN KMSN 221420Z 03003KT 3SM BR FEW009 BKN019 OVC065 07/06 A2976 1010 93 300 030/03 RMK AO2
14837KMSN MSN20101122082511211/22/10 08:25:31  5-MIN KMSN 221425Z 00000KT 3SM BR FEW009 BKN019 OVC070 07/06 A2976 1010 89 400 000/00 RMK AO2
14837KMSN MSN20101122083011211/22/10 08:30:31  5-MIN KMSN 221430Z 08004KT 3SM BR FEW009 BKN017 OVC070 07/06 A2976 1020 89 400 080/04 RMK AO2
14837KMSN MSN20101122083511211/22/10 08:35:31  5-MIN KMSN 221435Z 00000KT 3SM BR FEW009 BKN015 OVC070 07/06 A2976 1020 93 400 000/00 RMK AO2
14837KMSN MSN20101122084011211/22/10 08:40:31  5-MIN KMSN 221440Z 07004KT 3SM BR FEW009 BKN015 OVC070 07/06 A2976 1020 93 400 070/04 RMK AO2
14837KMSN MSN20101122084513211/22/10 08:45:31  5-MIN KMSN 221445Z 09004KT 2 1/2SM -RA BKN015 OVC065 07/06 A2975 1020 93 400 090/04 RMK AO2 TWR VIS 3 RAB45 P0000
14837KMSN MSN20101122085015011/22/10 08:50:31  5-MIN KMSN 221450Z 09004KT 3SM -RA BR BKN015 OVC065 08/06 A2975 1020 89 400 090/04 RMK AO2 RAB45 SLP076 P0000 60006 T00780061 58013
14837KMSN MSN20101122085509811/22/10 08:55:31  5-MIN KMSN 221455Z 07003KT 3SM BR OVC013 08/07 A2975 1030 93 400 070/03 RMK AO2
14837KMSN MSN20101122090010511/22/10 09:00:31  5-MIN KMSN 221500Z 07003KT 3SM BR SCT013 BKN060 08/07 A2975 1030 93 400 070/03 RMK AO2
14837KMSN MSN20101122090510511/22/10 09:05:31  5-MIN KMSN 221505Z 07003KT 3SM BR SCT013 BKN060 08/07 A2974 1030 93 400 070/03 RMK AO2
14837KMSN MSN20101122091010511/22/10 09:10:31  5-MIN KMSN 221510Z 06004KT 3SM BR SCT013 BKN060 08/07 A2974 1030 93 500 060/04 RMK AO2
14837KMSN MSN20101122091510511/22/10 09:15:31  5-MIN KMSN 221515Z 07004KT 3SM BR BKN013 OVC060 08/07 A2974 1030 93 500 070/04 RMK AO2
14837KMSN MSN20101122092010511/22/10 09:20:31  5-MIN KMSN 221520Z 07004KT 3SM BR SCT011 OVC060 08/07 A2974 1040 93 500 070/04 RMK AO2
14837KMSN MSN20101122092510511/22/10 09:25:31  5-MIN KMSN 221525Z 08004KT 3SM BR SCT011 BKN060 08/07 A2973 1040 93 500 080/04 RMK AO2
14837KMSN MSN20101122093010511/22/10 09:30:31  5-MIN KMSN 221530Z 08005KT 3SM BR BKN011 OVC060 08/07 A2973 1040 93 500 080/05 RMK AO2
14837KMSN MSN20101122093510511/22/10 09:35:31  5-MIN KMSN 221535Z 10005KT 3SM BR BKN011 OVC060 08/08 A2973 1040 96 500 100/05 RMK AO2
14837KMSN MSN20101122094010511/22/10 09:40:31  5-MIN KMSN 221540Z 11006KT 3SM BR BKN011 OVC060 09/08 A2973 1040 93 600 110/06 RMK AO2
14837KMSN MSN20101122094511011/22/10 09:45:31  5-MIN KMSN 221545Z 11006KT 3SM BR OVC011 09/08 A2972 1050 93 600 110/06 RMK AO2 CIG 009V012
14837KMSN MSN20101122095012711/22/10 09:50:31  5-MIN KMSN 221550Z 12008KT 3SM BR OVC011 09/08 A2972 1050 93 600 120/08 RMK AO2 CIG 008V012 SLP065 T00890078
14837KMSN MSN20101122095511011/22/10 09:55:31  5-MIN KMSN 221555Z 13008KT 3SM BR OVC009 09/08 A2972 1050 89 700 130/08 RMK AO2 CIG 007V012
14837KMSN MSN20101122100011011/22/10 10:00:31  5-MIN KMSN 221600Z 12005KT 3SM BR OVC009 09/08 A2972 1050 93 700 120/05 RMK AO2 CIG 005V012
14837KMSN MSN20101122100511011/22/10 10:05:31  5-MIN KMSN 221605Z 12006KT 3SM BR OVC009 09/08 A2971 1060 93 700 120/06 RMK AO2 CIG 005V012
14837KMSN MSN20101122101012011/22/10 10:10:31  5-MIN KMSN 221610Z 12006KT 2SM BR OVC009 09/08 A2970 1070 93 700 120/06 RMK AO2 SFC VIS 3 CIG 006V012
14837KMSN MSN20101122101512011/22/10 10:15:31  5-MIN KMSN 221615Z 13006KT 2SM BR OVC009 10/09 A2970 1070 93 800 130/06 RMK AO2 SFC VIS 3 CIG 006V012
14837KMSN MSN20101122102012011/22/10 10:20:31  5-MIN KMSN 221620Z 13008KT 2SM BR OVC009 10/09 A2970 1070 93 800 130/08 RMK AO2 SFC VIS 3 CIG 006V012
14837KMSN MSN20101122102513611/22/10 10:25:31  5-MIN KMSN 221625Z 12008KT 2SM -RA BR OVC009 10/09 A2969 1080 93 800 120/08 RMK AO2 SFC VIS 3 RAB25 CIG 006V011 P0000
14837KMSN MSN20101122103013611/22/10 10:30:31  5-MIN KMSN 221630Z 12007KT 2SM -RA BR OVC009 10/09 A2969 1080 93 800 120/07 RMK AO2 SFC VIS 3 RAB25 CIG 007V011 P0001
14837KMSN MSN20101122103514311/22/10 10:35:31  5-MIN KMSN 221635Z 13006KT 2SM -RA BR BKN007 OVC011 10/09 A2969 1080 93 800 130/06 RMK AO2 SFC VIS 3 RAB25 CIG 006V010 P0001
14837KMSN MSN20101122104013511/22/10 10:40:31  5-MIN KMSN 221640Z 12005KT 2SM BR OVC007 10/09 A2968 1080 93 800 120/05 RMK AO2 SFC VIS 3 RAB25E38 CIG 006V011 P0001
14837KMSN MSN20101122104511311/22/10 10:45:31  5-MIN KMSN 221645Z 12004KT 3SM BR OVC007 10/09 A2968 1090 96 800 110/04 RMK AO2 RAB25E38 P0001
14837KMSN MSN20101122105013011/22/10 10:50:31  5-MIN KMSN 221650Z 12004KT 3SM BR OVC007 11/09 A2968 1090 93 900 120/04 RMK AO2 RAB25E38 SLP051 P0001 T01060094
14837KMSN MSN20101122105509811/22/10 10:55:31  5-MIN KMSN 221655Z 12003KT 3SM BR OVC007 11/09 A2967 1090 93 900 120/03 RMK AO2
14837KMSN MSN20101122110009811/22/10 11:00:31  5-MIN KMSN 221700Z 13003KT 3SM BR OVC007 11/09 A2967 1100 93 900 130/03 RMK AO2
14837KMSN MSN20101122110510511/22/10 11:05:31  5-MIN KMSN 221705Z 13008KT 3SM BR OVC007 11/10 A2966 1110 93 900 130/08 RMK AO2 PRESFR
14837KMSN MSN20101122111009811/22/10 11:10:31  5-MIN KMSN 221710Z 15006KT 3SM BR OVC007 11/10 A2966 1110 93 900 150/06 RMK AO2
14837KMSN MSN20101122111509911/22/10 11:15:31  5-MIN KMSN 221715Z 16006KT 3SM BR OVC007 11/10 A2965 1110 93 1000 160/06 RMK AO2
14837KMSN MSN20101122112009911/22/10 11:20:31  5-MIN KMSN 221720Z 15010KT 3SM BR OVC007 11/10 A2965 1120 93 1000 150/10 RMK AO2
14837KMSN MSN20101122112509911/22/10 11:25:31  5-MIN KMSN 221725Z 16010KT 3SM BR OVC007 12/11 A2964 1120 93 1000 160/10 RMK AO2
14837KMSN MSN20101122113009911/22/10 11:30:31  5-MIN KMSN 221730Z 16009KT 3SM BR OVC007 12/11 A2964 1120 93 1000 160/09 RMK AO2
14837KMSN MSN20101122113509911/22/10 11:35:31  5-MIN KMSN 221735Z 16009KT 3SM BR OVC007 12/11 A2964 1130 93 1000 160/09 RMK AO2
14837KMSN MSN20101122114011511/22/10 11:40:31  5-MIN KMSN 221740Z 15009KT 3SM -DZ BR OVC007 12/11 A2964 1130 93 1000 150/09 RMK AO2 DZB39 P0001
14837KMSN MSN20101122114511511/22/10 11:45:31  5-MIN KMSN 221745Z 16009KT 3SM -DZ BR OVC007 12/11 A2963 1130 93 1000 160/09 RMK AO2 DZB39 P0001
14837KMSN MSN20101122115016511/22/10 11:50:31  5-MIN KMSN 221750Z 16010KT 3SM BR OVC007 12/11 A2963 1140 93 1100 160/10 RMK AO2 SFC VIS 4 DZB39E46 SLP033 P0001 60008 T01220111 10122 20067 58013
14837KMSN MSN20101122115509911/22/10 11:55:31  5-MIN KMSN 221755Z 16010KT 3SM BR OVC007 12/11 A2962 1140 93 1100 160/10 RMK AO2
14837KMSN MSN20101122120009911/22/10 12:00:31  5-MIN KMSN 221800Z 16011KT 3SM BR OVC007 12/11 A2962 1140 93 1100 160/11 RMK AO2
14837KMSN MSN20101122120509911/22/10 12:05:31  5-MIN KMSN 221805Z 16010KT 3SM BR OVC007 13/12 A2961 1150 93 1200 160/10 RMK AO2
14837KMSN MSN20101122121009911/22/10 12:10:31  5-MIN KMSN 221810Z 16010KT 3SM BR OVC007 13/12 A2961 1150 93 1200 160/10 RMK AO2
14837KMSN MSN20101122121509911/22/10 12:15:31  5-MIN KMSN 221815Z 17009KT 3SM BR OVC007 13/12 A2960 1160 93 1300 170/09 RMK AO2
14837KMSN MSN20101122122012811/22/10 12:20:31  5-MIN KMSN 221820Z 17010KT 3SM BR BKN007 OVC011 13/12 A2960 1160 93 1300 160/10 RMK AO2 SFC VIS 3 CIG 006V010
14837KMSN MSN20101122122513511/22/10 12:25:31  5-MIN KMSN 221825Z 16009KT 3SM BR BKN007 BKN011 OVC018 14/12 A2959 1170 90 1300 160/09 RMK AO2 SFC VIS 3 CIG 006V010
14837KMSN MSN20101122123012311/22/10 12:30:31  5-MIN KMSN 221830Z 17010KT 3SM BR SCT007 BKN011 OVC018 14/13 A2960 1170 93 1300 160/10 RMK AO2 SFC VIS 4
14837KMSN MSN20101122123511611/22/10 12:35:31  5-MIN KMSN 221835Z 17009KT 3SM BR FEW007 OVC011 14/13 A2960 1170 93 1300 170/09 RMK AO2 SFC VIS 4
14837KMSN MSN20101122124011811/22/10 12:40:31  5-MIN KMSN 221840Z 16009KT 4SM BR BKN011 OVC016 14/13 A2959 1170 93 1400 160/09 RMK AO2 CIG 006V013
14837KMSN MSN20101122124510611/22/10 12:45:31  5-MIN KMSN 221845Z 16009KT 4SM BR BKN011 OVC019 14/13 A2959 1170 90 1400 160/09 RMK AO2
14837KMSN MSN20101122125012311/22/10 12:50:31  5-MIN KMSN 221850Z 17010KT 4SM BR BKN011 OVC021 15/13 A2958 1180 90 1500 170/10 RMK AO2 SLP019 T01500133
14837KMSN MSN20101122125511311/22/10 12:55:31  5-MIN KMSN 221855Z 17011KT 4SM BR SCT011 BKN016 OVC023 15/14 A2958 1180 93 1500 160/11 RMK AO2
14837KMSN MSN20101122130011911/22/10 13:00:31  5-MIN KMSN 221900Z 18009KT 4SM BR SCT011 BKN016 OVC023 16/14 A2958 1180 93 1600 170/09 RMK AO2 P0001
14837KMSN MSN20101122130512911/22/10 13:05:31  5-MIN KMSN 221905Z 18007KT 5SM -RA BR SCT011 BKN022 OVC031 16/14 A2958 1180 90 1600 180/07 RMK AO2 RAB02 P0001
14837KMSN MSN20101122131012911/22/10 13:10:31  5-MIN KMSN 221910Z 18011KT 5SM -RA BR FEW013 BKN022 BKN027 16/14 A2957 1190 90 1600 180/11 RMK AO2 RAB02 P0001
14837KMSN MSN20101122131512911/22/10 13:15:31  5-MIN KMSN 221915Z 18011KT 6SM -RA BR FEW015 SCT022 BKN026 16/14 A2957 1190 90 1600 180/11 RMK AO2 RAB02 P0001
14837KMSN MSN20101122132012911/22/10 13:20:31  5-MIN KMSN 221920Z 18010KT 6SM -RA BR FEW015 SCT022 BKN028 16/14 A2957 1190 90 1600 180/10 RMK AO2 RAB02 P0001
14837KMSN MSN20101122132512811/22/10 13:25:31  5-MIN KMSN 221925Z 18008KT 6SM BR SCT024 BKN030 BKN040 17/14 A2957 1190 86 1700 180/08 RMK AO2 RAB02E25 P0001
14837KMSN MSN20101122133012811/22/10 13:30:31  5-MIN KMSN 221930Z 18008KT 6SM BR SCT022 BKN028 BKN034 17/14 A2957 1190 86 1700 180/08 RMK AO2 RAB02E25 P0001
14837KMSN MSN20101122133512811/22/10 13:35:31  5-MIN KMSN 221935Z 19007KT 6SM HZ SCT022 BKN031 BKN049 17/14 A2956 1200 83 1800 190/07 RMK AO2 RAB02E25 P0001
14837KMSN MSN20101122134012511/22/10 13:40:31  5-MIN KMSN 221940Z 18008KT 7SM SCT024 BKN034 BKN047 17/14 A2956 1200 83 1800 180/08 RMK AO2 RAB02E25 P0001
14837KMSN MSN20101122134512511/22/10 13:45:31  5-MIN KMSN 221945Z 19009KT 7SM SCT024 BKN034 BKN046 17/14 A2956 1200 83 1800 190/09 RMK AO2 RAB02E25 P0001
14837KMSN MSN20101122135014211/22/10 13:50:31  5-MIN KMSN 221950Z 19008KT 7SM SCT024 BKN034 BKN046 17/14 A2955 1210 83 1800 190/08 RMK AO2 RAB02E25 SLP007 P0001 T01720144
14837KMSN MSN20101122135511711/22/10 13:55:31  5-MIN KMSN 221955Z 18008KT 7SM SCT024 BKN034 BKN046 17/14 A2954 1220 83 1800 180/08 RMK AO2 PRESFR
14837KMSN MSN20101122140011011/22/10 14:00:31  5-MIN KMSN 222000Z 18008KT 7SM FEW022 SCT028 BKN034 17/14 A2954 1220 83 1800 180/08 RMK AO2
14837KMSN MSN20101122140515311/22/10 14:05:31  5-MIN KMSN 222005Z 18010KT 7SM TS SCT026 BKN034 BKN043 17/14 A2954 1220 83 1800 180/10 RMK AO2 TSB04 FRQ LTGICCC VC SW TS VC SW MOV NE
14837KMSN MSN20101122141015311/22/10 14:10:31  5-MIN KMSN 222010Z 19008KT 8SM TS BKN026 BKN034 OVC045 17/14 A2954 1220 83 1800 190/08 RMK AO2 TSB04 FRQ LTGICCC VC SW TS VC SW MOV NE
14837KMSN MSN20101122141514211/22/10 14:15:31  5-MIN KMSN 222015Z 18011KT 8SM TS BKN026 BKN045 17/14 A2954 1220 83 1800 180/11 RMK AO2 TSB04 FRQ LTGICCC OHD TS OHD MOV NE
14837KMSN MSN20101122142016411/22/10 14:20:31  5-MIN KMSN 222020Z 19011KT 6SM -TSRA FEW026 SCT030 BKN040 17/14 A2953 1230 83 1800 190/11 RMK AO2 TSB04RAB19 OCNL LTGICCC OHD TS OHD MOV NE P0000
14837KMSN MSN20101122142515911/22/10 14:25:31  5-MIN KMSN 222025Z 19008KT 5SM -TSRA FEW024 BKN032 18/15 A2953 1230 83 1900 190/08 RMK AO2 TSB04RAB19 OCNL LTGICCC VC N TS VC N MOV NE P0001
14837KMSN MSN20101122143016211/22/10 14:30:31  5-MIN KMSN 222030Z 20007KT 6SM -TSRA BR FEW024 BKN032 17/15 A2953 1230 87 1800 200/07 RMK AO2 TSB04RAB19 OCNL LTGICCC VC N TS VC N MOV NE P0001
14837KMSN MSN20101122143516611/22/10 14:35:31  5-MIN KMSN 222035Z 19006KT 8SM -TSRA FEW024 SCT034 BKN046 17/14 A2952 1240 83 1800 190/06 RMK AO2 TSB04RAB19 OCNL LTGICCC VC N TS VC N MOV NE P0001
14837KMSN MSN20101122144016611/22/10 14:40:31  5-MIN KMSN 222040Z 20006KT 8SM -TSRA FEW028 BKN042 BKN095 17/14 A2953 1230 83 1800 200/06 RMK AO2 TSB04RAB19 OCNL LTGICCC VC N TS VC N MOV NE P0001
14837KMSN MSN20101122144516411/22/10 14:45:31  5-MIN KMSN 222045Z 28007KT 8SM -TSRA FEW021 BKN036 BKN090 17/14 A2953 1220 83 1800 280/07 RMK AO2 TSB04RAB19 OCNL LTGICCC OHD TS OHD MOV NE P0001
14837KMSN MSN20101122145019911/22/10 14:50:31  5-MIN KMSN 222050Z 25010G17KT 8SM -TSRA SCT021 BKN034 BKN047 17/14 A2954 1220 83 1800 250/10G17 RMK AO2 TSB04RAB19 SLP002 OCNL LTGICCC OHD TS OHD MOV NE P0001 60002 T01720144 58041
14837KMSN MSN20101122145515211/22/10 14:55:31  5-MIN KMSN 222055Z 25008G18KT 9SM TS SCT021 SCT031 BKN038 17/13 A2954 1220 78 1800 250/08G18 RMK AO2 OCNL LTGICCC VC E TS VC E MOV NE
14837KMSN MSN20101122150015311/22/10 15:00:31  5-MIN KMSN 222100Z VRB06G18KT 10SM TS SCT018 BKN031 BKN038 17/13 A2955 1210 78 1800 VRB/06G18 RMK AO2 OCNL LTGICCC VC E TS VC E MOV NE
14837KMSN MSN20101122150514611/22/10 15:05:31  5-MIN KMSN 222105Z 27006KT 9SM TS SCT020 BKN031 BKN047 17/13 A2955 1210 78 1800 270/06 RMK AO2 OCNL LTGICCC VC E TS VC E MOV NE
14837KMSN MSN20101122151013111/22/10 15:10:31  5-MIN KMSN 222110Z 27009G20KT 220V300 8SM SCT018 BKN031 17/13 A2955 1210 77 1700 270/09G20 220V300 RMK AO2 TSE08
14837KMSN MSN20101122151513111/22/10 15:15:31  5-MIN KMSN 222115Z 26010G20KT 230V300 7SM SCT018 BKN031 16/12 A2956 1200 77 1700 260/10G20 230V300 RMK AO2 TSE08
14837KMSN MSN20101122152013811/22/10 15:20:31  5-MIN KMSN 222120Z 27008G16KT 230V310 8SM SCT021 BKN026 BKN035 16/12 A2956 1200 75 1600 260/08G16 230V310 RMK AO2 TSE08
14837KMSN MSN20101122152513811/22/10 15:25:31  5-MIN KMSN 222125Z 25011G19KT 230V290 8SM FEW021 BKN026 BKN033 16/12 A2956 1200 75 1600 250/11G19 230V290 RMK AO2 TSE08
14837KMSN MSN20101122153013811/22/10 15:30:31  5-MIN KMSN 222130Z 26008G19KT 230V290 8SM FEW026 SCT033 BKN048 16/11 A2956 1200 74 1600 260/08G19 230V290 RMK AO2 TSE08
14837KMSN MSN20101122153513111/22/10 15:35:31  5-MIN KMSN 222135Z 24008G20KT 220V290 8SM FEW024 BKN046 16/11 A2956 1190 72 1600 240/08G20 220V290 RMK AO2 TSE08
14837KMSN MSN20101122154013811/22/10 15:40:31  5-MIN KMSN 222140Z 25007G20KT 230V310 8SM FEW024 BKN048 BKN060 15/11 A2957 1190 74 1500 250/07G20 230V310 RMK AO2 TSE08
14837KMSN MSN20101122154512211/22/10 15:45:31  5-MIN KMSN 222145Z VRB06G15KT 8SM FEW024 BKN048 BKN055 15/11 A2956 1200 74 1500 VRB/06G15 RMK AO2 TSE08
14837KMSN MSN20101122155014211/22/10 15:50:31  5-MIN KMSN 222150Z 25007KT 210V270 8SM BKN048 BKN055 15/11 A2956 1200 74 1500 250/07 210V270 RMK AO2 TSE08 SLP013 T01500106
14837KMSN MSN20101122155510311/22/10 15:55:31  5-MIN KMSN 222155Z 24007KT 7SM SCT048 SCT055 14/11 A2956 1200 77 1400 240/07 RMK AO2
14837KMSN MSN20101122160011011/22/10 16:00:31  5-MIN KMSN 222200Z 25007KT 7SM FEW024 SCT049 SCT055 14/11 A2956 1200 77 1400 250/07 RMK AO2
14837KMSN MSN20101122160511611/22/10 16:05:31  5-MIN KMSN 222205Z 27006G15KT 7SM FEW024 SCT049 SCT055 14/10 A2957 1190 74 1400 270/06G15 RMK AO2
14837KMSN MSN20101122161012511/22/10 16:10:31  5-MIN KMSN 222210Z 26007G15KT 230V290 8SM FEW026 SCT049 14/10 A2958 1180 77 1400 260/07G15 230V290 RMK AO2
14837KMSN MSN20101122161510211/22/10 16:15:31  5-MIN KMSN 222215Z 25011G22KT 8SM FEW026 13/09 A2958 1180 74 1300 250/11G22 RMK AO2
14837KMSN MSN20101122162010211/22/10 16:20:31  5-MIN KMSN 222220Z 24010G22KT 9SM FEW026 13/08 A2959 1180 71 1200 240/10G22 RMK AO2
14837KMSN MSN20101122162510211/22/10 16:25:31  5-MIN KMSN 222225Z 24008G19KT 9SM FEW026 12/08 A2959 1170 74 1200 240/08G19 RMK AO2
14837KMSN MSN20101122163010211/22/10 16:30:31  5-MIN KMSN 222230Z 24007G19KT 8SM FEW022 12/08 A2959 1170 74 1200 240/07G19 RMK AO2
14837KMSN MSN20101122163510211/22/10 16:35:31  5-MIN KMSN 222235Z 23005G17KT 8SM FEW022 12/08 A2959 1170 77 1100 230/05G17 RMK AO2
14837KMSN MSN20101122164011811/22/10 16:40:31  5-MIN KMSN 222240Z 24009G15KT 210V280 7SM FEW022 12/08 A2959 1170 77 1100 240/09G15 210V280 RMK AO2
14837KMSN MSN20101122164510211/22/10 16:45:31  5-MIN KMSN 222245Z VRB06G15KT 7SM FEW022 12/07 A2959 1170 74 1100 VRB/06G15 RMK AO2
14837KMSN MSN20101122165011911/22/10 16:50:31  5-MIN KMSN 222250Z 25011G20KT 7SM FEW022 11/07 A2960 1160 77 1000 250/11G20 RMK AO2 SLP025 T01110072
14837KMSN MSN20101122165511811/22/10 16:55:31  5-MIN KMSN 222255Z 24007G20KT 210V280 8SM BKN022 11/07 A2960 1160 77 1000 240/07G20 210V280 RMK AO2
14837KMSN MSN20101122170010111/22/10 17:00:31  5-MIN KMSN 222300Z 24010G19KT 8SM BKN022 11/07 A2961 1160 80 900 240/10G19 RMK AO2
14837KMSN MSN20101122170510111/22/10 17:05:31  5-MIN KMSN 222305Z 23008G19KT 9SM BKN022 11/07 A2961 1150 77 900 230/08G19 RMK AO2
14837KMSN MSN20101122171010811/22/10 17:10:31  5-MIN KMSN 222310Z 24009G18KT 9SM BKN022 BKN026 10/07 A2961 1150 80 900 240/09G18 RMK AO2
14837KMSN MSN20101122171510111/22/10 17:15:31  5-MIN KMSN 222315Z 24006G18KT 9SM BKN024 10/07 A2962 1150 80 900 240/06G18 RMK AO2
14837KMSN MSN20101122172009511/22/10 17:20:31  5-MIN KMSN 222320Z 24006KT 9SM OVC024 10/07 A2962 1140 80 900 240/06 RMK AO2
14837KMSN MSN20101122172510211/22/10 17:25:31  5-MIN KMSN 222325Z 29008KT 9SM BKN019 OVC026 10/07 A2963 1130 80 800 290/08 RMK AO2
14837KMSN MSN20101122173011511/22/10 17:30:31  5-MIN KMSN 222330Z 29011G18KT 9SM BKN019 OVC026 09/06 A2964 1130 79 800 290/11G18 RMK AO2 PRESRR
14837KMSN MSN20101122173512211/22/10 17:35:31  5-MIN KMSN 222335Z 30008G19KT 9SM FEW014 BKN019 OVC026 09/06 A2964 1120 79 700 290/08G19 RMK AO2 PRESRR
14837KMSN MSN20101122174011511/22/10 17:40:31  5-MIN KMSN 222340Z 29012G20KT 9SM BKN019 OVC026 08/06 A2965 1110 82 600 290/12G20 RMK AO2 PRESRR
14837KMSN MSN20101122174512311/22/10 17:45:31  5-MIN KMSN 222345Z 30014G23KT 10SM SCT014 BKN018 OVC024 08/05 A2966 1110 82 500 300/14G23 RMK AO2 PRESRR
14837KMSN MSN20101122175015711/22/10 17:50:31  5-MIN KMSN 222350Z 29015G23KT 10SM SCT014 OVC021 07/04 A2966 1100 82 500 290/15G23 RMK AO2 PRESRR SLP049 60002 T00720044 10178 20072 56029
14837KMSN MSN20101122175511611/22/10 17:55:31  5-MIN KMSN 222355Z 29016G23KT 10SM BKN014 OVC021 07/04 A2967 1100 79 500 290/16G23 RMK AO2 PRESRR
14837KMSN MSN20101122180010911/22/10 18:00:31  5-MIN KMSN 230000Z 28013G23KT 10SM BKN014 OVC021 07/04 A2968 1090 82 400 280/13G23 RMK AO2
14837KMSN MSN20101122180510911/22/10 18:05:31  5-MIN KMSN 230005Z 29011G19KT 10SM BKN014 OVC021 07/03 A2968 1090 79 400 290/11G19 RMK AO2
14837KMSN MSN20101122181010211/22/10 18:10:31  5-MIN KMSN 230010Z 29010G22KT 10SM OVC014 07/03 A2968 1090 79 400 290/10G22 RMK AO2
14837KMSN MSN20101122181510211/22/10 18:15:31  5-MIN KMSN 230015Z 29011G22KT 10SM OVC014 06/03 A2969 1080 82 300 290/11G22 RMK AO2
14837KMSN MSN20101122182010211/22/10 18:20:31  5-MIN KMSN 230020Z 28010G22KT 10SM OVC016 06/03 A2969 1080 79 300 280/10G22 RMK AO2
14837KMSN MSN20101122182511811/22/10 18:25:31  5-MIN KMSN 230025Z 28007G18KT 240V330 10SM OVC016 06/03 A2969 1080 79 300 270/07G18 240V330 RMK AO2
14837KMSN MSN20101122183010211/22/10 18:30:31  5-MIN KMSN 230030Z 28010G15KT 10SM OVC014 06/03 A2970 1070 79 300 280/10G15 RMK AO2
14837KMSN MSN20101122183510211/22/10 18:35:31  5-MIN KMSN 230035Z 29011G20KT 10SM OVC014 06/03 A2970 1070 82 200 290/11G20 RMK AO2
14837KMSN MSN20101122184010211/22/10 18:40:31  5-MIN KMSN 230040Z 27007G20KT 10SM OVC014 06/03 A2970 1070 82 200 270/07G20 RMK AO2
14837KMSN MSN20101122184509611/22/10 18:45:31  5-MIN KMSN 230045Z 29005KT 10SM OVC014 06/03 A2970 1070 82 200 290/05 RMK AO2
14837KMSN MSN20101122185011911/22/10 18:50:31  5-MIN KMSN 230050Z 29007G16KT 10SM OVC014 06/02 A2971 1060 79 200 290/07G16 RMK AO2 SLP065 T00560022
14837KMSN MSN20101122185510211/22/10 18:55:31  5-MIN KMSN 230055Z 29010G16KT 10SM OVC014 06/02 A2971 1060 79 200 280/10G16 RMK AO2
14837KMSN MSN20101122190010211/22/10 19:00:31  5-MIN KMSN 230100Z 30008G15KT 10SM OVC014 06/02 A2971 1060 79 200 300/08G15 RMK AO2
14837KMSN MSN20101122190510211/22/10 19:05:31  5-MIN KMSN 230105Z 28006G15KT 10SM OVC014 06/02 A2971 1060 79 200 280/06G15 RMK AO2
14837KMSN MSN20101122191009611/22/10 19:10:31  5-MIN KMSN 230110Z 30005KT 10SM OVC014 05/02 A2971 1060 82 200 290/05 RMK AO2
14837KMSN MSN20101122191509611/22/10 19:15:31  5-MIN KMSN 230115Z 30007KT 10SM OVC014 05/02 A2971 1060 82 100 300/07 RMK AO2
14837KMSN MSN20101122192009611/22/10 19:20:31  5-MIN KMSN 230120Z 30008KT 10SM OVC014 05/02 A2971 1060 82 100 300/08 RMK AO2
14837KMSN MSN20101122192510211/22/10 19:25:31  5-MIN KMSN 230125Z 29010G15KT 10SM OVC014 05/02 A2971 1060 79 100 290/10G15 RMK AO2
14837KMSN MSN20101122193010211/22/10 19:30:31  5-MIN KMSN 230130Z 30008G17KT 10SM OVC014 05/02 A2972 1050 79 100 290/08G17 RMK AO2
14837KMSN MSN20101122193510911/22/10 19:35:31  5-MIN KMSN 230135Z 29010G17KT 10SM BKN014 OVC020 05/02 A2972 1050 79 100 290/10G17 RMK AO2
14837KMSN MSN20101122194010211/22/10 19:40:31  5-MIN KMSN 230140Z 30008G15KT 10SM OVC016 04/02 A2972 1050 82 100 290/08G15 RMK AO2
14837KMSN MSN20101122194510211/22/10 19:45:31  5-MIN KMSN 230145Z 29012G19KT 10SM OVC018 04/02 A2972 1050 82 100 290/12G19 RMK AO2
14837KMSN MSN20101122195011911/22/10 19:50:31  5-MIN KMSN 230150Z 29012G19KT 10SM OVC018 04/01 A2972 1050 79 100 290/12G19 RMK AO2 SLP070 T00440011
14837KMSN MSN20101122195510211/22/10 19:55:31  5-MIN KMSN 230155Z 29012G19KT 10SM OVC018 04/01 A2973 1040 79 100 290/12G19 RMK AO2
14837KMSN MSN20101122200010011/22/10 20:00:31  5-MIN KMSN 230200Z 31008G19KT 10SM OVC018 04/01 A2974 1040 79 0 310/08G19 RMK AO2
14837KMSN MSN20101122200510011/22/10 20:05:31  5-MIN KMSN 230205Z 29009G16KT 10SM OVC018 04/01 A2974 1030 79 0 290/09G16 RMK AO2
14837KMSN MSN20101122201010011/22/10 20:10:31  5-MIN KMSN 230210Z 30011G17KT 10SM OVC016 04/01 A2974 1030 79 0 300/11G17 RMK AO2
14837KMSN MSN20101122201510011/22/10 20:15:31  5-MIN KMSN 230215Z 29010G17KT 10SM OVC016 04/01 A2975 1030 79 0 290/10G17 RMK AO2
14837KMSN MSN20101122202010311/22/10 20:20:31  5-MIN KMSN 230220Z 28011G19KT 10SM OVC016 03/00 A2975 1020 79 -100 280/11G19 RMK AO2
14837KMSN MSN20101122202510311/22/10 20:25:31  5-MIN KMSN 230225Z 29009G19KT 10SM OVC016 03/00 A2975 1020 79 -100 290/09G19 RMK AO2
14837KMSN MSN20101122203010311/22/10 20:30:31  5-MIN KMSN 230230Z 28008G15KT 10SM OVC016 03/01 A2975 1020 82 -100 280/08G15 RMK AO2
14837KMSN MSN20101122203510311/22/10 20:35:31  5-MIN KMSN 230235Z 29011G17KT 10SM OVC014 03/00 A2975 1020 79 -100 280/11G17 RMK AO2
14837KMSN MSN20101122204010311/22/10 20:40:31  5-MIN KMSN 230240Z 28010G17KT 10SM OVC014 03/00 A2976 1020 79 -100 280/10G17 RMK AO2
14837KMSN MSN20101122204510311/22/10 20:45:31  5-MIN KMSN 230245Z 29007G14KT 10SM OVC014 03/00 A2976 1020 79 -100 290/07G14 RMK AO2
14837KMSN MSN20101122205012011/22/10 20:50:31  5-MIN KMSN 230250Z 28008KT 10SM OVC014 03/00 A2976 1010 79 -100 280/08 RMK AO2 SLP082 T00330000 53044
14837KMSN MSN20101122205511911/22/10 20:55:31  5-MIN KMSN 230255Z 28011G17KT 250V310 10SM OVC014 03/00 A2976 1010 82 -100 280/11G17 250V310 RMK AO2
14837KMSN MSN20101122210011911/22/10 21:00:31  5-MIN KMSN 230300Z 29010G17KT 250V320 10SM OVC014 03/00 A2977 1010 82 -100 290/10G17 250V320 RMK AO2
14837KMSN MSN20101122210510311/22/10 21:05:31  5-MIN KMSN 230305Z 29009G15KT 10SM OVC014 03/00 A2977 1010 82 -100 290/09G15 RMK AO2
14837KMSN MSN20101122211010411/22/10 21:10:31  5-MIN KMSN 230310Z 30007G15KT 10SM OVC016 03/M01 A2977 1000 79 -100 290/07G15 RMK AO2
14837KMSN MSN20101122211510411/22/10 21:15:31  5-MIN KMSN 230315Z 29010G15KT 10SM OVC016 03/M01 A2978 1000 79 -200 290/10G15 RMK AO2
14837KMSN MSN20101122212010411/22/10 21:20:31  5-MIN KMSN 230320Z 28010G17KT 10SM OVC016 03/M01 A2978 1000 79 -200 280/10G17 RMK AO2
14837KMSN MSN20101122212510311/22/10 21:25:31  5-MIN KMSN 230325Z 29007G22KT 10SM OVC016 03/M01 A2978 990 79 -200 290/07G22 RMK AO2
14837KMSN MSN20101122213010311/22/10 21:30:31  5-MIN KMSN 230330Z 30009G22KT 10SM OVC016 03/M01 A2979 990 79 -200 290/09G22 RMK AO2
14837KMSN MSN20101122213510311/22/10 21:35:31  5-MIN KMSN 230335Z 30007G16KT 10SM OVC016 03/M01 A2979 990 75 -200 300/07G16 RMK AO2
14837KMSN MSN20101122214010311/22/10 21:40:31  5-MIN KMSN 230340Z 29011G17KT 10SM OVC018 03/M01 A2979 990 75 -200 290/11G17 RMK AO2
14837KMSN MSN20101122214510311/22/10 21:45:31  5-MIN KMSN 230345Z 30007G17KT 10SM OVC018 02/M01 A2979 990 78 -200 300/07G17 RMK AO2
14837KMSN MSN20101122215012011/22/10 21:50:31  5-MIN KMSN 230350Z 30010G16KT 10SM OVC018 02/M01 A2979 980 78 -200 290/10G16 RMK AO2 SLP093 T00221011
14837KMSN MSN20101122215510311/22/10 21:55:31  5-MIN KMSN 230355Z 29009G19KT 10SM OVC018 02/M02 A2980 980 75 -200 290/09G19 RMK AO2
14837KMSN MSN20101122220010311/22/10 22:00:31  5-MIN KMSN 230400Z 30006G19KT 10SM OVC018 02/M02 A2980 970 75 -300 290/06G19 RMK AO2
14837KMSN MSN20101122220511311/22/10 22:05:31  5-MIN KMSN 230405Z 29008KT 260V330 10SM OVC018 02/M01 A2980 970 78 -300 290/08 260V330 RMK AO2
14837KMSN MSN20101122221010311/22/10 22:10:31  5-MIN KMSN 230410Z 29010G15KT 10SM OVC018 02/M01 A2981 970 78 -300 290/10G15 RMK AO2
14837KMSN MSN20101122221510311/22/10 22:15:31  5-MIN KMSN 230415Z 28009G15KT 10SM OVC016 02/M02 A2981 970 75 -300 280/09G15 RMK AO2
14837KMSN MSN20101122222010311/22/10 22:20:31  5-MIN KMSN 230420Z 28008G16KT 10SM OVC016 02/M02 A2981 970 78 -300 280/08G16 RMK AO2
14837KMSN MSN20101122222510311/22/10 22:25:31  5-MIN KMSN 230425Z 28010G16KT 10SM OVC016 02/M02 A2981 970 78 -300 280/10G16 RMK AO2
14837KMSN MSN20101122223010311/22/10 22:30:31  5-MIN KMSN 230430Z 28013G19KT 10SM OVC016 02/M02 A2981 960 75 -300 280/13G19 RMK AO2
14837KMSN MSN20101122223511011/22/10 22:35:31  5-MIN KMSN 230435Z 29008G19KT 10SM BKN018 OVC022 02/M02 A2981 960 75 -300 290/08G19 RMK AO2
14837KMSN MSN20101122224011011/22/10 22:40:31  5-MIN KMSN 230440Z 29011G20KT 10SM BKN018 OVC022 02/M02 A2982 960 75 -300 290/11G20 RMK AO2
14837KMSN MSN20101122224510311/22/10 22:45:31  5-MIN KMSN 230445Z 28011G20KT 10SM OVC020 02/M03 A2982 960 72 -300 280/11G20 RMK AO2
14837KMSN MSN20101122225012011/22/10 22:50:31  5-MIN KMSN 230450Z 28009G19KT 10SM OVC020 02/M02 A2983 950 75 -400 280/09G19 RMK AO2 SLP105 T00171022
14837KMSN MSN20101122225510311/22/10 22:55:31  5-MIN KMSN 230455Z 28011G19KT 10SM OVC020 02/M03 A2983 950 72 -400 280/11G19 RMK AO2
14837KMSN MSN20101122230011011/22/10 23:00:31  5-MIN KMSN 230500Z 29014G19KT 10SM OVC020 02/M03 A2984 940 72 -400 280/14G19 RMK AO2 PRESRR
14837KMSN MSN20101122230510311/22/10 23:05:31  5-MIN KMSN 230505Z 29013G20KT 10SM OVC020 02/M03 A2984 940 72 -400 290/13G20 RMK AO2
14837KMSN MSN20101122231010311/22/10 23:10:31  5-MIN KMSN 230510Z 28011G20KT 10SM OVC022 02/M03 A2985 930 72 -400 280/11G20 RMK AO2
14837KMSN MSN20101122231510311/22/10 23:15:31  5-MIN KMSN 230515Z 28008G18KT 10SM OVC022 01/M03 A2985 930 72 -400 280/08G18 RMK AO2
14837KMSN MSN20101122232011911/22/10 23:20:31  5-MIN KMSN 230520Z 28008G18KT 250V310 10SM OVC022 01/M03 A2985 930 72 -500 280/08G18 250V310 RMK AO2
14837KMSN MSN20101122232510311/22/10 23:25:31  5-MIN KMSN 230525Z 29005G16KT 10SM OVC022 01/M03 A2986 920 72 -500 280/05G16 RMK AO2
14837KMSN MSN20101122233011911/22/10 23:30:31  5-MIN KMSN 230530Z 27011G18KT 240V300 10SM OVC022 01/M03 A2986 920 72 -500 270/11G18 240V300 RMK AO2
14837KMSN MSN20101122233510311/22/10 23:35:31  5-MIN KMSN 230535Z 28009G18KT 10SM OVC022 01/M03 A2985 930 75 -500 280/09G18 RMK AO2
14837KMSN MSN20101122234010311/22/10 23:40:31  5-MIN KMSN 230540Z 28009G16KT 10SM OVC022 01/M03 A2985 930 75 -500 280/09G16 RMK AO2
14837KMSN MSN20101122234510311/22/10 23:45:31  5-MIN KMSN 230545Z 28009G19KT 10SM OVC022 01/M04 A2984 940 72 -500 280/09G19 RMK AO2
14837KMSN MSN20101122235014811/22/10 23:50:31  5-MIN KMSN 230550Z 27011G19KT 10SM OVC022 00/M04 A2985 930 75 -600 270/11G19 RMK AO2 SLP112 T00001039 10072 20000 401780000 51030
14837KMSN MSN20101122235510011/22/10 23:55:31  5-MIN KMSN 230555Z 27011G18KT SCT022 00/M04 A2985 930 72 -600 270/11G18 RMK AO2 $
14837KMSN MSN20101123000012111/23/10 00:00:32  5-MIN KMSN 230600Z 27009G18KT 230V300 10SM SCT022 00/M04 A2985 930 72 -600 270/09G18 230V300 RMK AO2 $
14837KMSN MSN20101123000510611/23/10 00:05:31  5-MIN KMSN 230605Z 28009G16KT 10SM SCT022 M01/M04 A2985 930 75 -700 280/09G16 RMK AO2 $
14837KMSN MSN20101123001010611/23/10 00:10:31  5-MIN KMSN 230610Z VRB05G15KT 10SM SCT022 M01/M04 A2986 920 75 -700 VRB/05G15 RMK AO2 $
14837KMSN MSN20101123001512211/23/10 00:15:31  5-MIN KMSN 230615Z 27009G15KT 230V300 10SM SCT022 M01/M04 A2986 920 75 -700 270/09G15 230V300 RMK AO2 $
14837KMSN MSN20101123002010611/23/10 00:20:31  5-MIN KMSN 230620Z 27009G17KT 10SM SCT022 M01/M04 A2986 920 75 -700 270/09G17 RMK AO2 $
14837KMSN MSN20101123002510611/23/10 00:25:31  5-MIN KMSN 230625Z 28010G19KT 10SM SCT022 M01/M04 A2986 920 75 -700 280/10G19 RMK AO2 $
14837KMSN MSN20101123003010611/23/10 00:30:31  5-MIN KMSN 230630Z 28008G19KT 10SM SCT022 M01/M04 A2987 910 75 -700 280/08G19 RMK AO2 $
14837KMSN MSN20101123003510611/23/10 00:35:31  5-MIN KMSN 230635Z 28009G17KT 10SM SCT019 M01/M04 A2987 910 78 -700 280/09G17 RMK AO2 $
14837KMSN MSN20101123004010611/23/10 00:40:31  5-MIN KMSN 230640Z 28008G17KT 10SM SCT019 M01/M05 A2987 910 75 -800 280/08G17 RMK AO2 $
14837KMSN MSN20101123004510611/23/10 00:45:31  5-MIN KMSN 230645Z 27010G16KT 10SM SCT019 M01/M05 A2988 900 75 -800 270/10G16 RMK AO2 $
14837KMSN MSN20101123005010611/23/10 00:50:31  5-MIN KMSN 230650Z 28007G17KT 10SM BKN019 M01/M05 A2988 900 75 -800 280/07G17 RMK AO2 $
14837KMSN MSN20101123005510611/23/10 00:55:31  5-MIN KMSN 230655Z 28008G17KT 10SM BKN019 M02/M05 A2987 910 78 -800 280/08G17 RMK AO2 $
14837KMSN MSN20101123010012211/23/10 01:00:31  5-MIN KMSN 230700Z 26011G15KT 230V290 10SM BKN019 M02/M06 A2989 900 75 -800 260/11G15 230V290 RMK AO2 $
14837KMSN MSN20101123010510611/23/10 01:05:31  5-MIN KMSN 230705Z 28009G15KT 10SM BKN019 M02/M06 A2989 890 75 -800 280/09G15 RMK AO2 $
14837KMSN MSN20101123011010011/23/10 01:10:31  5-MIN KMSN 230710Z 28007KT 10SM BKN019 M02/M06 A2990 890 75 -800 270/07 RMK AO2 $
14837KMSN MSN20101123011510611/23/10 01:15:31  5-MIN KMSN 230715Z 28012G18KT 10SM BKN019 M02/M06 A2990 890 75 -900 280/12G18 RMK AO2 $
14837KMSN MSN20101123012010611/23/10 01:20:31  5-MIN KMSN 230720Z 28009G20KT 10SM SCT019 M02/M07 A2990 890 72 -900 280/09G20 RMK AO2 $
14837KMSN MSN20101123012512211/23/10 01:25:31  5-MIN KMSN 230725Z 27010G20KT 230V300 10SM FEW019 M02/M07 A2990 880 69 -900 270/10G20 230V300 RMK AO2 $
14837KMSN MSN20101123013010611/23/10 01:30:31  5-MIN KMSN 230730Z 28009G19KT 10SM FEW019 M02/M08 A2990 880 66 -900 270/09G19 RMK AO2 $
14837KMSN MSN20101123013510411/23/10 01:35:31  5-MIN KMSN 230735Z 27009G18KT 10SM CLR M03/M08 A2990 880 66 -1000 270/09G18 RMK AO2 $
14837KMSN MSN20101123014010411/23/10 01:40:31  5-MIN KMSN 230740Z 28007G18KT 10SM CLR M03/M08 A2990 880 66 -1000 280/07G18 RMK AO2 $
14837KMSN MSN20101123014510411/23/10 01:45:31  5-MIN KMSN 230745Z 27010G22KT 10SM CLR M03/M08 A2991 880 66 -1000 270/10G22 RMK AO2 $
14837KMSN MSN20101123015013711/23/10 01:50:31  5-MIN KMSN 230750Z 29007G22KT 250V320 10SM CLR M03/M08 A2991 880 68 -1000 280/07G22 250V320 RMK AO2 SLP132 T10281078 $
14837KMSN MSN20101123015510411/23/10 01:55:31  5-MIN KMSN 230755Z 27010G16KT 10SM CLR M03/M08 A2991 870 68 -1000 270/10G16 RMK AO2 $
14837KMSN MSN20101123020012311/23/10 02:00:31  5-MIN KMSN 230800Z 26007G16KT 230V300 10SM FEW023 M03/M08 A2992 870 68 -1000 260/07G16 230V300 RMK AO2 $
14837KMSN MSN20101123020511711/23/10 02:05:31  5-MIN KMSN 230805Z 26007KT 230V300 10SM FEW023 M03/M07 A2992 860 74 -1100 260/07 230V300 RMK AO2 $
14837KMSN MSN20101123021010111/23/10 02:10:31  5-MIN KMSN 230810Z 27007KT 10SM FEW023 M03/M07 A2993 860 74 -1100 270/07 RMK AO2 $
14837KMSN MSN20101123021510711/23/10 02:15:31  5-MIN KMSN 230815Z 28012G22KT 10SM FEW023 M03/M08 A2993 850 71 -1100 280/12G22 RMK AO2 $
14837KMSN MSN20101123022010711/23/10 02:20:31  5-MIN KMSN 230820Z 28013G22KT 10SM FEW023 M03/M08 A2993 850 68 -1100 280/13G22 RMK AO2 $
14837KMSN MSN20101123022510711/23/10 02:25:31  5-MIN KMSN 230825Z 28011G21KT 10SM FEW023 M04/M09 A2993 850 68 -1200 270/11G21 RMK AO2 $
14837KMSN MSN20101123023010411/23/10 02:30:31  5-MIN KMSN 230830Z 28008G19KT 10SM CLR M04/M09 A2993 850 68 -1200 280/08G19 RMK AO2 $
14837KMSN MSN20101123023512011/23/10 02:35:31  5-MIN KMSN 230835Z 28008G17KT 240V310 10SM CLR M04/M09 A2993 850 68 -1200 280/08G17 240V310 RMK AO2 $
14837KMSN MSN20101123024010411/23/10 02:40:31  5-MIN KMSN 230840Z 28012G20KT 10SM CLR M04/M09 A2994 850 68 -1200 280/12G20 RMK AO2 $
14837KMSN MSN20101123024510411/23/10 02:45:31  5-MIN KMSN 230845Z 28012G20KT 10SM CLR M04/M09 A2994 840 65 -1200 280/12G20 RMK AO2 $
14837KMSN MSN20101123025013011/23/10 02:50:31  5-MIN KMSN 230850Z 28015G24KT 10SM FEW025 M04/M09 A2994 840 68 -1300 280/15G24 RMK AO2 SLP145 T10441094 51029 $
14837KMSN MSN20101123025510411/23/10 02:55:31  5-MIN KMSN 230855Z 27010G24KT 10SM CLR M04/M09 A2994 850 71 -1300 270/10G24 RMK AO2 $
14837KMSN MSN20101123030010411/23/10 03:00:31  5-MIN KMSN 230900Z 28008G17KT 10SM CLR M04/M09 A2994 850 71 -1300 280/08G17 RMK AO2 $
14837KMSN MSN20101123030510411/23/10 03:05:31  5-MIN KMSN 230905Z 27010G23KT 10SM CLR M04/M09 A2994 840 68 -1300 270/10G23 RMK AO2 $
14837KMSN MSN20101123031012011/23/10 03:10:31  5-MIN KMSN 230910Z 28012G24KT 260V330 10SM CLR M04/M09 A2995 840 68 -1300 280/12G24 260V330 RMK AO2 $
14837KMSN MSN20101123031510411/23/10 03:15:31  5-MIN KMSN 230915Z 27008G24KT 10SM CLR M04/M09 A2995 840 68 -1300 270/08G24 RMK AO2 $
14837KMSN MSN20101123032010411/23/10 03:20:31  5-MIN KMSN 230920Z 28011G18KT 10SM CLR M04/M11 A2995 840 62 -1300 280/11G18 RMK AO2 $
14837KMSN MSN20101123032510411/23/10 03:25:31  5-MIN KMSN 230925Z 28009G19KT 10SM CLR M05/M11 A2995 840 65 -1300 280/09G19 RMK AO2 $
14837KMSN MSN20101123033012011/23/10 03:30:31  5-MIN KMSN 230930Z 29011G19KT 260V330 10SM CLR M05/M11 A2995 830 65 -1300 280/11G19 260V330 RMK AO2 $
14837KMSN MSN20101123033510411/23/10 03:35:31  5-MIN KMSN 230935Z 29010G20KT 10SM CLR M05/M11 A2996 830 65 -1300 290/10G20 RMK AO2 $
14837KMSN MSN20101123034010411/23/10 03:40:31  5-MIN KMSN 230940Z 28007G20KT 10SM CLR M05/M11 A2996 830 65 -1300 280/07G20 RMK AO2 $
14837KMSN MSN20101123034512011/23/10 03:45:31  5-MIN KMSN 230945Z 29008G14KT 240V310 10SM CLR M05/M11 A2996 830 65 -1300 280/08G14 240V310 RMK AO2 $
14837KMSN MSN20101123035012111/23/10 03:50:31  5-MIN KMSN 230950Z 29011G19KT 10SM CLR M05/M11 A2996 820 65 -1400 290/11G19 RMK AO2 SLP153 T10501106 $
14837KMSN MSN20101123035510411/23/10 03:55:31  5-MIN KMSN 230955Z VRB05G19KT 10SM CLR M05/M10 A2997 820 68 -1400 VRB/05G19 RMK AO2 $
14837KMSN MSN20101123040010411/23/10 04:00:31  5-MIN KMSN 231000Z 28008G14KT 10SM CLR M06/M10 A2996 820 71 -1400 280/08G14 RMK AO2 $
14837KMSN MSN20101123040512011/23/10 04:05:31  5-MIN KMSN 231005Z 28009G14KT 250V310 10SM CLR M06/M10 A2997 820 71 -1400 280/09G14 250V310 RMK AO2 $
14837KMSN MSN20101123041010411/23/10 04:10:31  5-MIN KMSN 231010Z 27009G18KT 10SM CLR M06/M11 A2997 820 68 -1400 270/09G18 RMK AO2 $
14837KMSN MSN20101123041510411/23/10 04:15:31  5-MIN KMSN 231015Z 28013G22KT 10SM CLR M06/M11 A2998 810 65 -1400 280/13G22 RMK AO2 $
14837KMSN MSN20101123042010411/23/10 04:20:31  5-MIN KMSN 231020Z 28014G24KT 10SM CLR M06/M11 A2998 810 65 -1400 280/14G24 RMK AO2 $
14837KMSN MSN20101123042510411/23/10 04:25:31  5-MIN KMSN 231025Z 27015G24KT 10SM CLR M06/M12 A2998 810 62 -1400 270/15G24 RMK AO2 $
14837KMSN MSN20101123043012011/23/10 04:30:31  5-MIN KMSN 231030Z 28011G23KT 240V300 10SM CLR M06/M12 A2998 810 62 -1400 280/11G23 240V300 RMK AO2 $
14837KMSN MSN20101123043510411/23/10 04:35:31  5-MIN KMSN 231035Z 29009G23KT 10SM CLR M06/M11 A2998 810 65 -1400 290/09G23 RMK AO2 $
14837KMSN MSN20101123044010411/23/10 04:40:31  5-MIN KMSN 231040Z 28012G22KT 10SM CLR M06/M11 A2998 810 65 -1400 270/12G22 RMK AO2 $
14837KMSN MSN20101123044510411/23/10 04:45:31  5-MIN KMSN 231045Z 28010G22KT 10SM CLR M06/M11 A2998 810 65 -1400 280/10G22 RMK AO2 $
14837KMSN MSN20101123045012111/23/10 04:50:31  5-MIN KMSN 231050Z 28010G20KT 10SM CLR M06/M11 A2998 810 68 -1500 280/10G20 RMK AO2 SLP160 T10611111 $
14837KMSN MSN20101123045512011/23/10 04:55:31  5-MIN KMSN 231055Z 28007G18KT 250V310 10SM CLR M06/M11 A2999 800 68 -1500 280/07G18 250V310 RMK AO2 $
14837KMSN MSN20101123050010411/23/10 05:00:31  5-MIN KMSN 231100Z 27009G19KT 10SM CLR M06/M11 A2999 800 68 -1500 270/09G19 RMK AO2 $
14837KMSN MSN20101123050510411/23/10 05:05:31  5-MIN KMSN 231105Z 29008G20KT 10SM CLR M06/M11 A2999 800 68 -1500 290/08G20 RMK AO2 $
14837KMSN MSN20101123051010411/23/10 05:10:31  5-MIN KMSN 231110Z 28008G20KT 10SM CLR M06/M11 A2999 800 68 -1500 280/08G20 RMK AO2 $
14837KMSN MSN20101123051512011/23/10 05:15:31  5-MIN KMSN 231115Z 27007G14KT 240V300 10SM CLR M06/M11 A2998 810 71 -1500 270/07G14 240V300 RMK AO2 $
14837KMSN MSN20101123052010411/23/10 05:20:31  5-MIN KMSN 231120Z 27007G16KT 10SM CLR M06/M11 A2999 800 68 -1500 270/07G16 RMK AO2 $
14837KMSN MSN20101123052510411/23/10 05:25:31  5-MIN KMSN 231125Z 28008G16KT 10SM CLR M06/M11 A3000 790 68 -1500 280/08G16 RMK AO2 $
14837KMSN MSN20101123053010411/23/10 05:30:31  5-MIN KMSN 231130Z 27008G14KT 10SM CLR M06/M11 A3000 790 71 -1500 270/08G14 RMK AO2 $
14837KMSN MSN20101123053509811/23/10 05:35:31  5-MIN KMSN 231135Z 28008KT 10SM CLR M06/M11 A3000 790 71 -1500 280/08 RMK AO2 $
14837KMSN MSN20101123054010411/23/10 05:40:31  5-MIN KMSN 231140Z 29009G16KT 10SM CLR M07/M11 A3001 780 74 -1600 290/09G16 RMK AO2 $
14837KMSN MSN20101123054510411/23/10 05:45:31  5-MIN KMSN 231145Z 29007G16KT 10SM CLR M07/M11 A3001 780 71 -1600 290/07G16 RMK AO2 $
14837KMSN MSN20101123055014811/23/10 05:50:31  5-MIN KMSN 231150Z 29009G18KT 10SM FEW026 M07/M11 A3001 780 71 -1600 290/09G18 RMK AO2 SLP173 70010 T10671111 10000 21067 53030 $
14837KMSN MSN20101123055510711/23/10 05:55:31  5-MIN KMSN 231155Z 30010G18KT 10SM FEW026 M07/M11 A3002 770 71 -1600 300/10G18 RMK AO2 $
14837KMSN MSN20101123060010711/23/10 06:00:31  5-MIN KMSN 231200Z 30012G20KT 10SM FEW025 M07/M12 A3002 770 68 -1600 300/12G20 RMK AO2 $
14837KMSN MSN20101123060510711/23/10 06:05:31  5-MIN KMSN 231205Z 30006G20KT 10SM FEW025 M07/M12 A3002 770 68 -1600 300/06G20 RMK AO2 $
14837KMSN MSN20101123061010211/23/10 06:10:31  5-MIN KMSN 231210Z 31008G17KT FEW025 M07/M12 A3003 760 68 -1600 310/08G17 RMK AO2 $
14837KMSN MSN20101123061510111/23/10 06:15:31  5-MIN KMSN 231215Z 30007KT 10SM FEW025 M07/M12 A3003 760 71 -1700 300/07 RMK AO2 $
14837KMSN MSN20101123062012311/23/10 06:20:31  5-MIN KMSN 231220Z 29011G19KT 260V330 10SM FEW025 M07/M12 A3003 760 71 -1700 290/11G19 260V330 RMK AO2 $
14837KMSN MSN20101123062510711/23/10 06:25:31  5-MIN KMSN 231225Z 29013G21KT 10SM FEW025 M07/M12 A3004 760 71 -1700 290/13G21 RMK AO2 $
14837KMSN MSN20101123063010711/23/10 06:30:31  5-MIN KMSN 231230Z 30010G21KT 10SM FEW025 M07/M12 A3004 760 68 -1700 290/10G21 RMK AO2 $
14837KMSN MSN20101123063510711/23/10 06:35:31  5-MIN KMSN 231235Z 29008G21KT 10SM FEW025 M07/M12 A3004 760 68 -1700 290/08G21 RMK AO2 $
14837KMSN MSN20101123064010111/23/10 06:40:31  5-MIN KMSN 231240Z 29008KT 10SM FEW026 M07/M12 A3004 760 71 -1700 290/08 RMK AO2 $
14837KMSN MSN20101123064510711/23/10 06:45:31  5-MIN KMSN 231245Z 29010G14KT 10SM FEW026 M07/M12 A3004 750 68 -1700 290/10G14 RMK AO2 $
14837KMSN MSN20101123065012411/23/10 06:50:31  5-MIN KMSN 231250Z 29009G15KT 10SM FEW026 M07/M12 A3005 750 68 -1700 290/09G15 RMK AO2 SLP185 T10721122 $
14837KMSN MSN20101123065511411/23/10 06:55:31  5-MIN KMSN 231255Z 29010KT 260V320 10SM CLR M07/M12 A3005 750 68 -1700 290/10 260V320 RMK AO2 $
14837KMSN MSN20101123070010411/23/10 07:00:31  5-MIN KMSN 231300Z 29011G20KT 10SM CLR M07/M12 A3005 740 68 -1700 280/11G20 RMK AO2 $
14837KMSN MSN20101123070510411/23/10 07:05:31  5-MIN KMSN 231305Z 29011G20KT 10SM CLR M07/M12 A3006 740 68 -1700 280/11G20 RMK AO2 $
14837KMSN MSN20101123071010411/23/10 07:10:31  5-MIN KMSN 231310Z 29010G19KT 10SM CLR M07/M12 A3006 740 68 -1700 290/10G19 RMK AO2 $
14837KMSN MSN20101123071510411/23/10 07:15:31  5-MIN KMSN 231315Z 29010G19KT 10SM CLR M07/M12 A3006 730 68 -1800 290/10G19 RMK AO2 $
14837KMSN MSN20101123072010411/23/10 07:20:31  5-MIN KMSN 231320Z 28007G16KT 10SM CLR M07/M12 A3006 730 68 -1800 280/07G16 RMK AO2 $
14837KMSN MSN20101123072510411/23/10 07:25:31  5-MIN KMSN 231325Z 28009G14KT 10SM CLR M07/M12 A3007 730 68 -1800 280/09G14 RMK AO2 $
14837KMSN MSN20101123073009811/23/10 07:30:31  5-MIN KMSN 231330Z 29007KT 10SM CLR M07/M12 A3007 730 68 -1800 290/07 RMK AO2 $
14837KMSN MSN20101123073510211/23/10 07:35:31  5-MIN KMSN 231335Z 29009G16KT 10SM CLR M07/M12 A3007 720 68 -1800 290/09G16 RMK AO2
14837KMSN MSN20101123074010211/23/10 07:40:31  5-MIN KMSN 231340Z 28012G18KT 10SM CLR M07/M12 A3008 720 71 -1800 280/12G18 RMK AO2
14837KMSN MSN20101123074510211/23/10 07:45:31  5-MIN KMSN 231345Z 29008G18KT 10SM CLR M07/M12 A3008 720 68 -1800 290/08G18 RMK AO2
14837KMSN MSN20101123075011911/23/10 07:50:31  5-MIN KMSN 231350Z 29008G16KT 10SM CLR M07/M12 A3008 720 68 -1700 290/08G16 RMK AO2 SLP197 T10671117
14837KMSN MSN20101123075509611/23/10 07:55:31  5-MIN KMSN 231355Z 27009KT 10SM CLR M07/M12 A3008 720 68 -1700 270/09 RMK AO2
14837KMSN MSN20101123080009611/23/10 08:00:31  5-MIN KMSN 231400Z 28009KT 10SM CLR M07/M12 A3009 710 68 -1700 280/09 RMK AO2
14837KMSN MSN20101123080510211/23/10 08:05:31  5-MIN KMSN 231405Z 27009G15KT 10SM CLR M07/M12 A3009 700 68 -1700 270/09G15 RMK AO2
14837KMSN MSN20101123081010511/23/10 08:10:31  5-MIN KMSN 231410Z 29006G15KT 10SM FEW024 M07/M12 A3009 700 68 -1700 290/06G15 RMK AO2
14837KMSN MSN20101123081510511/23/10 08:15:31  5-MIN KMSN 231415Z 29007G15KT 10SM FEW024 M07/M12 A3009 700 68 -1700 290/07G15 RMK AO2
14837KMSN MSN20101123082012111/23/10 08:20:31  5-MIN KMSN 231420Z 28007G15KT 260V320 10SM FEW024 M07/M12 A3010 700 68 -1700 280/07G15 260V320 RMK AO2
14837KMSN MSN20101123082510511/23/10 08:25:31  5-MIN KMSN 231425Z 28011G18KT 10SM FEW024 M07/M12 A3010 700 68 -1700 280/11G18 RMK AO2
14837KMSN MSN20101123083010511/23/10 08:30:31  5-MIN KMSN 231430Z 29006G18KT 10SM FEW024 M07/M12 A3010 700 68 -1700 290/06G18 RMK AO2
14837KMSN MSN20101123083509911/23/10 08:35:31  5-MIN KMSN 231435Z 28008KT 10SM FEW024 M06/M11 A3010 690 68 -1700 280/08 RMK AO2
14837KMSN MSN20101123084010511/23/10 08:40:31  5-MIN KMSN 231440Z 28009G18KT 10SM FEW024 M06/M12 A3011 690 65 -1700 280/09G18 RMK AO2
14837KMSN MSN20101123084510511/23/10 08:45:31  5-MIN KMSN 231445Z 28008G18KT 10SM FEW024 M06/M12 A3011 690 65 -1700 280/08G18 RMK AO2
14837KMSN MSN20101123085012811/23/10 08:50:31  5-MIN KMSN 231450Z 30012G16KT 10SM FEW024 M06/M12 A3011 690 65 -1700 300/12G16 RMK AO2 SLP206 T10611117 53025
14837KMSN MSN20101123085510511/23/10 08:55:31  5-MIN KMSN 231455Z 29008G16KT 10SM FEW028 M06/M11 A3011 690 68 -1700 290/08G16 RMK AO2
14837KMSN MSN20101123090012111/23/10 09:00:31  5-MIN KMSN 231500Z 28008G16KT 240V310 10SM FEW028 M06/M11 A3011 690 68 -1700 280/08G16 240V310 RMK AO2
14837KMSN MSN20101123090510511/23/10 09:05:31  5-MIN KMSN 231505Z 28007G16KT 10SM FEW028 M06/M11 A3012 680 68 -1700 280/07G16 RMK AO2
14837KMSN MSN20101123091010511/23/10 09:10:31  5-MIN KMSN 231510Z 28009G18KT 10SM FEW028 M06/M11 A3012 680 65 -1600 280/09G18 RMK AO2
14837KMSN MSN20101123091510511/23/10 09:15:31  5-MIN KMSN 231515Z 30008G18KT 10SM FEW028 M06/M11 A3012 680 65 -1600 300/08G18 RMK AO2
14837KMSN MSN20101123092011511/23/10 09:20:31  5-MIN KMSN 231520Z 29008KT 240V330 10SM FEW028 M05/M11 A3012 680 62 -1500 280/08 240V330 RMK AO2
14837KMSN MSN20101123092509911/23/10 09:25:31  5-MIN KMSN 231525Z 29009KT 10SM FEW028 M05/M11 A3013 670 62 -1500 290/09 RMK AO2
14837KMSN MSN20101123093009911/23/10 09:30:31  5-MIN KMSN 231530Z 31008KT 10SM FEW028 M06/M11 A3013 670 65 -1600 300/08 RMK AO2
14837KMSN MSN20101123093509911/23/10 09:35:31  5-MIN KMSN 231535Z 29009KT 10SM FEW028 M05/M11 A3013 670 62 -1500 290/09 RMK AO2
14837KMSN MSN20101123094010511/23/10 09:40:31  5-MIN KMSN 231540Z 29009G15KT 10SM FEW028 M05/M11 A3013 670 62 -1500 290/09G15 RMK AO2
14837KMSN MSN20101123094510511/23/10 09:45:31  5-MIN KMSN 231545Z 29010G16KT 10SM FEW028 M05/M11 A3014 660 62 -1600 290/10G16 RMK AO2
14837KMSN MSN20101123095012211/23/10 09:50:31  5-MIN KMSN 231550Z 29010G16KT 10SM FEW028 M05/M11 A3014 660 62 -1600 290/10G16 RMK AO2 SLP217 T10501111
14837KMSN MSN20101123095510511/23/10 09:55:31  5-MIN KMSN 231555Z 30011G16KT 10SM FEW030 M04/M11 A3014 660 60 -1500 300/11G16 RMK AO2
14837KMSN MSN20101123100012111/23/10 10:00:31  5-MIN KMSN 231600Z 29007G15KT 240V320 10SM FEW030 M04/M11 A3014 660 60 -1500 290/07G15 240V320 RMK AO2
14837KMSN MSN20101123100509911/23/10 10:05:31  5-MIN KMSN 231605Z 29008KT 10SM FEW030 M04/M11 A3014 660 62 -1500 290/08 RMK AO2
14837KMSN MSN20101123101010511/23/10 10:10:31  5-MIN KMSN 231610Z 31008G14KT 10SM FEW030 M04/M11 A3015 650 60 -1400 310/08G14 RMK AO2
14837KMSN MSN20101123101510211/23/10 10:15:31  5-MIN KMSN 231615Z 28009G15KT FEW030 M04/M11 A3015 650 62 -1500 280/09G15 RMK AO2 $
14837KMSN MSN20101123102010711/23/10 10:20:31  5-MIN KMSN 231620Z 28010G15KT 10SM FEW030 M04/M11 A3016 650 60 -1500 270/10G15 RMK AO2 $
14837KMSN MSN20101123102510111/23/10 10:25:31  5-MIN KMSN 231625Z 31011KT 10SM FEW030 M04/M11 A3016 650 62 -1500 310/11 RMK AO2 $
14837KMSN MSN20101123103010711/23/10 10:30:31  5-MIN KMSN 231630Z 30010G20KT 10SM FEW030 M04/M11 A3016 640 60 -1500 300/10G20 RMK AO2 $
14837KMSN MSN20101123103510511/23/10 10:35:31  5-MIN KMSN 231635Z 31010G20KT 10SM FEW030 M04/M11 A3016 640 60 -1500 310/10G20 RMK AO2
14837KMSN MSN20101123104012111/23/10 10:40:31  5-MIN KMSN 231640Z 28009G16KT 250V310 10SM FEW030 M04/M11 A3016 640 60 -1400 280/09G16 250V310 RMK AO2
14837KMSN MSN20101123104510511/23/10 10:45:31  5-MIN KMSN 231645Z 30013G17KT 10SM FEW030 M03/M11 A3016 640 57 -1400 300/13G17 RMK AO2
14837KMSN MSN20101123105012411/23/10 10:50:31  5-MIN KMSN 231650Z 30008G17KT 10SM FEW034 M04/M11 A3016 640 57 -1400 300/08G17 RMK AO2 SLP223 T10391111 $
14837KMSN MSN20101123105510711/23/10 10:55:31  5-MIN KMSN 231655Z 30011G16KT 10SM FEW034 M04/M11 A3016 640 57 -1400 300/11G16 RMK AO2 $
14837KMSN MSN20101123110010711/23/10 11:00:31  5-MIN KMSN 231700Z 30010G16KT 10SM FEW034 M03/M11 A3016 640 57 -1400 300/10G16 RMK AO2 $
14837KMSN MSN20101123110510711/23/10 11:05:31  5-MIN KMSN 231705Z 29007G16KT 10SM FEW034 M03/M11 A3016 640 57 -1400 290/07G16 RMK AO2 $
14837KMSN MSN20101123111010711/23/10 11:10:31  5-MIN KMSN 231710Z 30008G15KT 10SM FEW034 M03/M11 A3016 650 55 -1300 290/08G15 RMK AO2 $
14837KMSN MSN20101123111510111/23/10 11:15:31  5-MIN KMSN 231715Z 31008KT 10SM FEW034 M03/M11 A3016 640 55 -1300 300/08 RMK AO2 $
14837KMSN MSN20101123112011711/23/10 11:20:31  5-MIN KMSN 231720Z 28010KT 260V320 10SM FEW034 M03/M11 A3016 640 55 -1300 280/10 260V320 RMK AO2 $
14837KMSN MSN20101123112510111/23/10 11:25:31  5-MIN KMSN 231725Z 31010KT 10SM FEW034 M03/M11 A3017 630 55 -1300 300/10 RMK AO2 $
14837KMSN MSN20101123113010711/23/10 11:30:31  5-MIN KMSN 231730Z 30007G15KT 10SM FEW034 M03/M11 A3017 640 55 -1300 300/07G15 RMK AO2 $
14837KMSN MSN20101123113510111/23/10 11:35:31  5-MIN KMSN 231735Z 30007KT 10SM FEW034 M03/M10 A3017 640 58 -1300 300/07 RMK AO2 $
14837KMSN MSN20101123114010711/23/10 11:40:31  5-MIN KMSN 231740Z 28011G15KT 10SM FEW034 M03/M11 A3017 630 55 -1300 280/11G15 RMK AO2 $
14837KMSN MSN20101123114510711/23/10 11:45:31  5-MIN KMSN 231745Z 29007G15KT 10SM FEW034 M02/M11 A3017 630 53 -1200 280/07G15 RMK AO2 $
14837KMSN MSN20101123115013611/23/10 11:50:31  5-MIN KMSN 231750Z 30009KT 10SM FEW034 M02/M10 A3017 640 55 -1200 300/09 RMK AO2 SLP227 T10221100 11022 21072 51031 $
14837KMSN MSN20101123115510411/23/10 11:55:31  5-MIN KMSN 231755Z 30008G16KT 10SM CLR M02/M10 A3017 630 55 -1200 300/08G16 RMK AO2 $
14837KMSN MSN20101123120010411/23/10 12:00:31  5-MIN KMSN 231800Z 29007G16KT 10SM CLR M02/M11 A3017 640 53 -1200 290/07G16 RMK AO2 $
14837KMSN MSN20101123120511411/23/10 12:05:31  5-MIN KMSN 231805Z 28007KT 250V320 10SM CLR M02/M10 A3017 640 55 -1200 280/07 250V320 RMK AO2 $
14837KMSN MSN20101123121009811/23/10 12:10:31  5-MIN KMSN 231810Z 30007KT 10SM CLR M02/M11 A3017 640 53 -1200 300/07 RMK AO2 $
14837KMSN MSN20101123121510411/23/10 12:15:31  5-MIN KMSN 231815Z 28010G15KT 10SM CLR M02/M11 A3017 640 53 -1200 280/10G15 RMK AO2 $
14837KMSN MSN20101123122010411/23/10 12:20:31  5-MIN KMSN 231820Z 30008G15KT 10SM CLR M02/M11 A3017 630 53 -1200 300/08G15 RMK AO2 $
14837KMSN MSN20101123122509811/23/10 12:25:31  5-MIN KMSN 231825Z 30008KT 10SM CLR M02/M11 A3017 630 53 -1200 290/08 RMK AO2 $
14837KMSN MSN20101123123009811/23/10 12:30:31  5-MIN KMSN 231830Z 27005KT 10SM CLR M02/M11 A3017 630 51 -1200 270/05 RMK AO2 $
14837KMSN MSN20101123123509811/23/10 12:35:31  5-MIN KMSN 231835Z 27007KT 10SM CLR M02/M10 A3018 630 53 -1200 270/07 RMK AO2 $
14837KMSN MSN20101123124009811/23/10 12:40:31  5-MIN KMSN 231840Z 29006KT 10SM CLR M01/M10 A3018 620 51 -1100 290/06 RMK AO2 $
14837KMSN MSN20101123124509611/23/10 12:45:31  5-MIN KMSN 231845Z 29009KT 10SM CLR M02/M11 A3018 620 51 -1200 290/09 RMK AO2
14837KMSN MSN20101123125011911/23/10 12:50:31  5-MIN KMSN 231850Z 31011G16KT 10SM CLR M02/M11 A3019 620 49 -1200 300/11G16 RMK AO2 SLP233 T10171111
14837KMSN MSN20101123125510211/23/10 12:55:31  5-MIN KMSN 231855Z 30008G16KT 10SM CLR M01/M11 A3019 620 49 -1100 300/08G16 RMK AO2
14837KMSN MSN20101123130009611/23/10 13:00:31  5-MIN KMSN 231900Z 28009KT 10SM CLR M01/M11 A3019 620 49 -1100 280/09 RMK AO2
14837KMSN MSN20101123130511411/23/10 13:05:31  5-MIN KMSN 231905Z 28007KT 200V310 10SM CLR M01/M11 A3019 620 49 -1100 280/07 200V310 RMK AO2 $
14837KMSN MSN20101123131009811/23/10 13:10:31  5-MIN KMSN 231910Z 28007KT 10SM CLR M02/M11 A3019 610 51 -1200 280/07 RMK AO2 $
14837KMSN MSN20101123131511411/23/10 13:15:31  5-MIN KMSN 231915Z 30007KT 250V320 10SM CLR M01/M11 A3020 610 49 -1100 300/07 250V320 RMK AO2 $
14837KMSN MSN20101123132009811/23/10 13:20:31  5-MIN KMSN 231920Z 31009KT 10SM CLR M01/M10 A3020 610 51 -1100 300/09 RMK AO2 $
14837KMSN MSN20101123132509811/23/10 13:25:31  5-MIN KMSN 231925Z 30008KT 10SM CLR M01/M11 A3020 610 49 -1100 300/08 RMK AO2 $
14837KMSN MSN20101123133011411/23/10 13:30:31  5-MIN KMSN 231930Z 30011KT 260V320 10SM CLR M01/M11 A3020 610 49 -1100 290/11 260V320 RMK AO2 $
14837KMSN MSN20101123133511411/23/10 13:35:31  5-MIN KMSN 231935Z 30009KT 260V330 10SM CLR M01/M11 A3020 610 49 -1100 300/09 260V330 RMK AO2 $
14837KMSN MSN20101123134009811/23/10 13:40:31  5-MIN KMSN 231940Z 29006KT 10SM CLR M01/M11 A3020 610 49 -1100 290/06 RMK AO2 $
14837KMSN MSN20101123134509811/23/10 13:45:31  5-MIN KMSN 231945Z VRB04KT 10SM CLR M01/M11 A3020 610 49 -1100 VRB/04 RMK AO2 $
14837KMSN MSN20101123135011511/23/10 13:50:31  5-MIN KMSN 231950Z VRB06KT 10SM CLR M01/M10 A3020 610 49 -1100 VRB/06 RMK AO2 SLP237 T10061100 $
14837KMSN MSN20101123135509811/23/10 13:55:31  5-MIN KMSN 231955Z 29006KT 10SM CLR M01/M10 A3020 600 49 -1100 290/06 RMK AO2 $
14837KMSN MSN20101123140009811/23/10 14:00:31  5-MIN KMSN 232000Z 27007KT 10SM CLR M01/M11 A3020 610 47 -1100 270/07 RMK AO2 $
14837KMSN MSN20101123140509811/23/10 14:05:31  5-MIN KMSN 232005Z 29009KT 10SM CLR M01/M11 A3020 610 49 -1100 290/09 RMK AO2 $
14837KMSN MSN20101123141010411/23/10 14:10:31  5-MIN KMSN 232010Z 28008G14KT 10SM CLR M01/M11 A3020 610 49 -1100 280/08G14 RMK AO2 $
14837KMSN MSN20101123141510411/23/10 14:15:31  5-MIN KMSN 232015Z 30009G14KT 10SM CLR M01/M11 A3020 610 49 -1100 300/09G14 RMK AO2 $
14837KMSN MSN20101123142009811/23/10 14:20:31  5-MIN KMSN 232020Z 29006KT 10SM CLR M01/M11 A3020 600 49 -1100 290/06 RMK AO2 $
14837KMSN MSN20101123142509811/23/10 14:25:31  5-MIN KMSN 232025Z 28005KT 10SM CLR M01/M11 A3021 600 49 -1100 280/05 RMK AO2 $
14837KMSN MSN20101123143009811/23/10 14:30:31  5-MIN KMSN 232030Z 29004KT 10SM CLR M01/M10 A3021 600 49 -1100 290/04 RMK AO2 $
14837KMSN MSN20101123143509811/23/10 14:35:31  5-MIN KMSN 232035Z 27006KT 10SM CLR M01/M10 A3021 600 51 -1100 270/06 RMK AO2 $
14837KMSN MSN20101123144009811/23/10 14:40:31  5-MIN KMSN 232040Z 28006KT 10SM CLR M01/M10 A3021 600 51 -1100 280/06 RMK AO2 $
14837KMSN MSN20101123144509811/23/10 14:45:31  5-MIN KMSN 232045Z 27006KT 10SM CLR M01/M11 A3022 590 49 -1100 270/06 RMK AO2 $
14837KMSN MSN20101123145012111/23/10 14:50:31  5-MIN KMSN 232050Z VRB05KT 10SM CLR M01/M11 A3022 590 47 -1100 VRB/05 RMK AO2 SLP244 T10061106 51020 $
14837KMSN MSN20101123145509811/23/10 14:55:31  5-MIN KMSN 232055Z 31006KT 10SM CLR M01/M10 A3022 590 49 -1100 310/06 RMK AO2 $
14837KMSN MSN20101123150009811/23/10 15:00:31  5-MIN KMSN 232100Z 28007KT 10SM CLR M01/M10 A3022 590 49 -1100 280/07 RMK AO2 $
14837KMSN MSN20101123150509811/23/10 15:05:31  5-MIN KMSN 232105Z 30006KT 10SM CLR M01/M10 A3022 580 49 -1100 300/06 RMK AO2 $
14837KMSN MSN20101123151009811/23/10 15:10:31  5-MIN KMSN 232110Z 31008KT 10SM CLR M01/M10 A3023 580 49 -1100 310/08 RMK AO2 $
14837KMSN MSN20101123151509811/23/10 15:15:31  5-MIN KMSN 232115Z 31007KT 10SM CLR M01/M11 A3023 580 49 -1200 310/07 RMK AO2 $
14837KMSN MSN20101123152009811/23/10 15:20:31  5-MIN KMSN 232120Z 30005KT 10SM CLR M01/M10 A3023 580 49 -1100 300/05 RMK AO2 $
14837KMSN MSN20101123152509811/23/10 15:25:31  5-MIN KMSN 232125Z 30003KT 10SM CLR M01/M10 A3023 580 49 -1100 300/03 RMK AO2 $
14837KMSN MSN20101123153009811/23/10 15:30:31  5-MIN KMSN 232130Z 31006KT 10SM CLR M01/M10 A3024 570 51 -1200 310/06 RMK AO2 $
14837KMSN MSN20101123153509811/23/10 15:35:31  5-MIN KMSN 232135Z 28004KT 10SM CLR M01/M10 A3024 570 51 -1200 280/04 RMK AO2 $
14837KMSN MSN20101123154009811/23/10 15:40:31  5-MIN KMSN 232140Z 28005KT 10SM CLR M01/M11 A3024 570 49 -1200 280/05 RMK AO2 $
14837KMSN MSN20101123154509811/23/10 15:45:31  5-MIN KMSN 232145Z VRB04KT 10SM CLR M01/M11 A3024 570 49 -1200 VRB/04 RMK AO2 $
14837KMSN MSN20101123155011511/23/10 15:50:31  5-MIN KMSN 232150Z 30004KT 10SM CLR M01/M10 A3024 570 51 -1200 300/04 RMK AO2 SLP252 T10111100 $
14837KMSN MSN20101123155509811/23/10 15:55:31  5-MIN KMSN 232155Z 29005KT 10SM CLR M02/M11 A3024 570 51 -1200 290/05 RMK AO2 $
14837KMSN MSN20101123160009811/23/10 16:00:31  5-MIN KMSN 232200Z VRB03KT 10SM CLR M02/M11 A3024 570 51 -1200 VRB/03 RMK AO2 $
14837KMSN MSN20101123160509811/23/10 16:05:31  5-MIN KMSN 232205Z 31005KT 10SM CLR M02/M11 A3025 560 51 -1300 310/05 RMK AO2 $
14837KMSN MSN20101123161009811/23/10 16:10:31  5-MIN KMSN 232210Z 31005KT 10SM CLR M02/M11 A3025 560 53 -1300 310/05 RMK AO2 $
14837KMSN MSN20101123161509811/23/10 16:15:31  5-MIN KMSN 232215Z 31005KT 10SM CLR M02/M11 A3025 560 53 -1300 310/05 RMK AO2 $
14837KMSN MSN20101123162009811/23/10 16:20:31  5-MIN KMSN 232220Z 31003KT 10SM CLR M02/M10 A3025 560 55 -1300 310/03 RMK AO2 $
14837KMSN MSN20101123162509811/23/10 16:25:31  5-MIN KMSN 232225Z 00000KT 10SM CLR M02/M10 A3025 560 55 -1300 000/00 RMK AO2 $
14837KMSN MSN20101123163009811/23/10 16:30:31  5-MIN KMSN 232230Z 30003KT 10SM CLR M02/M10 A3026 560 55 -1300 300/03 RMK AO2 $
14837KMSN MSN20101123163509811/23/10 16:35:31  5-MIN KMSN 232235Z 31003KT 10SM CLR M02/M10 A3025 560 55 -1300 300/03 RMK AO2 $
14837KMSN MSN20101123164009811/23/10 16:40:31  5-MIN KMSN 232240Z 32003KT 10SM CLR M02/M10 A3026 550 55 -1300 320/03 RMK AO2 $
14837KMSN MSN20101123164509811/23/10 16:45:31  5-MIN KMSN 232245Z 31003KT 10SM CLR M03/M10 A3026 550 58 -1400 310/03 RMK AO2 $
14837KMSN MSN20101123165011511/23/10 16:50:31  5-MIN KMSN 232250Z 00000KT 10SM CLR M03/M10 A3026 550 58 -1400 000/00 RMK AO2 SLP261 T10281100 $
14837KMSN MSN20101123165509811/23/10 16:55:31  5-MIN KMSN 232255Z 30003KT 10SM CLR M03/M10 A3026 550 58 -1400 300/03 RMK AO2 $
14837KMSN MSN20101123170009811/23/10 17:00:31  5-MIN KMSN 232300Z 00000KT 10SM CLR M03/M10 A3026 550 58 -1400 000/00 RMK AO2 $
14837KMSN MSN20101123170509811/23/10 17:05:31  5-MIN KMSN 232305Z 29003KT 10SM CLR M03/M10 A3026 550 58 -1400 290/03 RMK AO2 $
14837KMSN MSN20101123171009811/23/10 17:10:31  5-MIN KMSN 232310Z 28003KT 10SM CLR M03/M09 A3027 550 60 -1400 280/03 RMK AO2 $
14837KMSN MSN20101123171509811/23/10 17:15:31  5-MIN KMSN 232315Z 00000KT 10SM CLR M03/M09 A3026 550 60 -1400 000/00 RMK AO2 $
14837KMSN MSN20101123172009811/23/10 17:20:31  5-MIN KMSN 232320Z 00000KT 10SM CLR M03/M09 A3026 550 60 -1400 000/00 RMK AO2 $
14837KMSN MSN20101123172509811/23/10 17:25:31  5-MIN KMSN 232325Z 00000KT 10SM CLR M03/M09 A3027 540 60 -1400 000/00 RMK AO2 $
14837KMSN MSN20101123173009811/23/10 17:30:31  5-MIN KMSN 232330Z 00000KT 10SM CLR M03/M09 A3027 540 63 -1500 000/00 RMK AO2 $
14837KMSN MSN20101123173509811/23/10 17:35:31  5-MIN KMSN 232335Z 00000KT 10SM CLR M04/M09 A3028 540 65 -1600 000/00 RMK AO2 $
14837KMSN MSN20101123174009811/23/10 17:40:31  5-MIN KMSN 232340Z 00000KT 10SM CLR M03/M09 A3028 530 63 -1500 000/00 RMK AO2 $
14837KMSN MSN20101123174509811/23/10 17:45:31  5-MIN KMSN 232345Z 29003KT 10SM CLR M04/M09 A3028 530 65 -1600 290/03 RMK AO2 $
14837KMSN MSN20101123175013311/23/10 17:50:31  5-MIN KMSN 232350Z 00000KT 10SM CLR M04/M09 A3028 530 65 -1600 000/00 RMK AO2 SLP269 T10391094 11006 21039 53016 $
14837KMSN MSN20101123175509811/23/10 17:55:31  5-MIN KMSN 232355Z 00000KT 10SM CLR M04/M09 A3029 530 65 -1600 000/00 RMK AO2 $
14837KMSN MSN20101123180009811/23/10 18:00:31  5-MIN KMSN 240000Z 29003KT 10SM CLR M03/M09 A3029 530 63 -1500 290/03 RMK AO2 $
14837KMSN MSN20101123180509811/23/10 18:05:31  5-MIN KMSN 240005Z 29003KT 10SM CLR M04/M09 A3029 520 65 -1600 290/03 RMK AO2 $
14837KMSN MSN20101123181009811/23/10 18:10:31  5-MIN KMSN 240010Z 00000KT 10SM CLR M03/M09 A3029 530 63 -1500 000/00 RMK AO2 $
14837KMSN MSN20101123181509811/23/10 18:15:31  5-MIN KMSN 240015Z 00000KT 10SM CLR M03/M10 A3029 530 60 -1500 000/00 RMK AO2 $
14837KMSN MSN20101123182009811/23/10 18:20:31  5-MIN KMSN 240020Z 00000KT 10SM CLR M04/M09 A3028 530 68 -1600 000/00 RMK AO2 $
14837KMSN MSN20101123182509811/23/10 18:25:31  5-MIN KMSN 240025Z 00000KT 10SM CLR M04/M09 A3028 530 68 -1600 000/00 RMK AO2 $
14837KMSN MSN20101123183009811/23/10 18:30:31  5-MIN KMSN 240030Z 00000KT 10SM CLR M04/M09 A3028 530 68 -1600 000/00 RMK AO2 $
14837KMSN MSN20101123183509811/23/10 18:35:31  5-MIN KMSN 240035Z 35003KT 10SM CLR M04/M09 A3029 530 68 -1700 340/03 RMK AO2 $
14837KMSN MSN20101123184009811/23/10 18:40:31  5-MIN KMSN 240040Z 01004KT 10SM CLR M04/M09 A3029 530 68 -1700 010/04 RMK AO2 $
14837KMSN MSN20101123184509811/23/10 18:45:31  5-MIN KMSN 240045Z 35005KT 10SM CLR M04/M09 A3029 530 68 -1700 350/05 RMK AO2 $
14837KMSN MSN20101123185011511/23/10 18:50:31  5-MIN KMSN 240050Z 36004KT 10SM CLR M04/M09 A3029 530 68 -1700 350/04 RMK AO2 SLP270 T10441094 $
14837KMSN MSN20101123185509811/23/10 18:55:31  5-MIN KMSN 240055Z 00000KT 10SM CLR M04/M09 A3029 530 68 -1700 000/00 RMK AO2 $
14837KMSN MSN20101123190009811/23/10 19:00:31  5-MIN KMSN 240100Z 36004KT 10SM CLR M04/M09 A3029 530 68 -1700 360/04 RMK AO2 $
14837KMSN MSN20101123190509811/23/10 19:05:31  5-MIN KMSN 240105Z 01004KT 10SM CLR M04/M09 A3029 530 68 -1700 010/04 RMK AO2 $
14837KMSN MSN20101123191009811/23/10 19:10:31  5-MIN KMSN 240110Z 01005KT 10SM CLR M05/M09 A3028 530 71 -1700 010/05 RMK AO2 $
14837KMSN MSN20101123191509811/23/10 19:15:31  5-MIN KMSN 240115Z 01005KT 10SM CLR M06/M09 A3028 530 74 -1800 010/05 RMK AO2 $
14837KMSN MSN20101123192009811/23/10 19:20:31  5-MIN KMSN 240120Z 01005KT 10SM CLR M06/M10 A3028 530 74 -1900 010/05 RMK AO2 $
14837KMSN MSN20101123192509811/23/10 19:25:31  5-MIN KMSN 240125Z 36004KT 10SM CLR M06/M10 A3028 530 71 -1800 360/04 RMK AO2 $
14837KMSN MSN20101123193009811/23/10 19:30:31  5-MIN KMSN 240130Z 02004KT 10SM CLR M06/M09 A3028 530 74 -1800 020/04 RMK AO2 $
14837KMSN MSN20101123193509811/23/10 19:35:31  5-MIN KMSN 240135Z 05003KT 10SM CLR M06/M10 A3029 530 74 -1900 050/03 RMK AO2 $
14837KMSN MSN20101123194009811/23/10 19:40:31  5-MIN KMSN 240140Z 05005KT 10SM CLR M06/M10 A3029 530 74 -1900 050/05 RMK AO2 $
14837KMSN MSN20101123194509811/23/10 19:45:31  5-MIN KMSN 240145Z 04005KT 10SM CLR M07/M10 A3029 530 77 -1900 040/05 RMK AO2 $
14837KMSN MSN20101123195011511/23/10 19:50:31  5-MIN KMSN 240150Z 05004KT 10SM CLR M07/M10 A3029 520 77 -1900 040/04 RMK AO2 SLP273 T10671100 $
14837KMSN MSN20101123195509811/23/10 19:55:31  5-MIN KMSN 240155Z 05005KT 10SM CLR M07/M10 A3029 520 77 -1900 050/05 RMK AO2 $
14837KMSN MSN20101123200009811/23/10 20:00:31  5-MIN KMSN 240200Z 04005KT 10SM CLR M06/M10 A3029 520 74 -1900 040/05 RMK AO2 $
14837KMSN MSN20101123200509811/23/10 20:05:31  5-MIN KMSN 240205Z 04006KT 10SM CLR M07/M10 A3029 520 77 -1900 040/06 RMK AO2 $
14837KMSN MSN20101123201009811/23/10 20:10:31  5-MIN KMSN 240210Z 04006KT 10SM CLR M07/M10 A3028 530 77 -1900 040/06 RMK AO2 $
14837KMSN MSN20101123201509811/23/10 20:15:31  5-MIN KMSN 240215Z 05005KT 10SM CLR M07/M10 A3029 530 77 -1900 050/05 RMK AO2 $
14837KMSN MSN20101123202009811/23/10 20:20:31  5-MIN KMSN 240220Z 05004KT 10SM CLR M07/M10 A3029 530 77 -1900 050/04 RMK AO2 $
14837KMSN MSN20101123202509811/23/10 20:25:31  5-MIN KMSN 240225Z 05003KT 10SM CLR M07/M10 A3029 520 77 -1900 050/03 RMK AO2 $
14837KMSN MSN20101123203009811/23/10 20:30:31  5-MIN KMSN 240230Z 03003KT 10SM CLR M07/M10 A3029 530 77 -1900 030/03 RMK AO2 $
14837KMSN MSN20101123203509811/23/10 20:35:31  5-MIN KMSN 240235Z 04003KT 10SM CLR M07/M10 A3029 520 77 -1900 040/03 RMK AO2 $
14837KMSN MSN20101123204009811/23/10 20:40:31  5-MIN KMSN 240240Z 05003KT 10SM CLR M07/M10 A3029 520 77 -1900 050/03 RMK AO2 $
14837KMSN MSN20101123204509811/23/10 20:45:31  5-MIN KMSN 240245Z 05003KT 10SM CLR M06/M11 A3029 530 71 -1900 050/03 RMK AO2 $
14837KMSN MSN20101123205012111/23/10 20:50:31  5-MIN KMSN 240250Z 04004KT 10SM CLR M06/M10 A3029 530 74 -1900 040/04 RMK AO2 SLP272 T10611100 53022 $
14837KMSN MSN20101123205509811/23/10 20:55:31  5-MIN KMSN 240255Z 04003KT 10SM CLR M07/M11 A3029 520 74 -1900 040/03 RMK AO2 $
14837KMSN MSN20101123210009811/23/10 21:00:31  5-MIN KMSN 240300Z 04003KT 10SM CLR M06/M10 A3029 520 74 -1900 040/03 RMK AO2 $
14837KMSN MSN20101123210509811/23/10 21:05:31  5-MIN KMSN 240305Z 04003KT 10SM CLR M06/M10 A3030 520 74 -1900 030/03 RMK AO2 $
14837KMSN MSN20101123211009811/23/10 21:10:31  5-MIN KMSN 240310Z 00000KT 10SM CLR M07/M11 A3030 520 74 -2000 000/00 RMK AO2 $
14837KMSN MSN20101123211509811/23/10 21:15:31  5-MIN KMSN 240315Z 00000KT 10SM CLR M07/M11 A3030 510 77 -2000 000/00 RMK AO2 $
14837KMSN MSN20101123212009811/23/10 21:20:31  5-MIN KMSN 240320Z 00000KT 10SM CLR M07/M10 A3030 510 77 -2000 000/00 RMK AO2 $
14837KMSN MSN20101123212509811/23/10 21:25:31  5-MIN KMSN 240325Z 03003KT 10SM CLR M07/M10 A3031 510 77 -2000 020/03 RMK AO2 $
14837KMSN MSN20101123213009811/23/10 21:30:31  5-MIN KMSN 240330Z 02003KT 10SM CLR M07/M10 A3031 510 77 -2000 020/03 RMK AO2 $
14837KMSN MSN20101123213509811/23/10 21:35:31  5-MIN KMSN 240335Z 00000KT 10SM CLR M06/M10 A3030 510 74 -1900 000/00 RMK AO2 $
14837KMSN MSN20101123214009811/23/10 21:40:31  5-MIN KMSN 240340Z 00000KT 10SM CLR M06/M10 A3031 510 74 -1900 000/00 RMK AO2 $
14837KMSN MSN20101123214509811/23/10 21:45:31  5-MIN KMSN 240345Z 00000KT 10SM CLR M07/M10 A3031 510 77 -2000 000/00 RMK AO2 $
14837KMSN MSN20101123215011511/23/10 21:50:31  5-MIN KMSN 240350Z 00000KT 10SM CLR M07/M10 A3032 500 77 -2000 000/00 RMK AO2 SLP280 T10671100 $
14837KMSN MSN20101123215509811/23/10 21:55:31  5-MIN KMSN 240355Z 00000KT 10SM CLR M07/M10 A3032 500 77 -2000 000/00 RMK AO2 $
14837KMSN MSN20101123220009711/23/10 22:00:31  5-MIN KMSN 240400Z 00000KT 9SM CLR M07/M10 A3032 500 77 -2000 000/00 RMK AO2 $
14837KMSN MSN20101123220509711/23/10 22:05:31  5-MIN KMSN 240405Z 04004KT 9SM CLR M07/M10 A3032 500 77 -2000 040/04 RMK AO2 $
14837KMSN MSN20101123221009711/23/10 22:10:31  5-MIN KMSN 240410Z 04005KT 9SM CLR M07/M11 A3031 510 77 -2000 040/05 RMK AO2 $
14837KMSN MSN20101123221509711/23/10 22:15:31  5-MIN KMSN 240415Z 04005KT 9SM CLR M07/M11 A3030 510 77 -2000 040/05 RMK AO2 $
14837KMSN MSN20101123222009711/23/10 22:20:31  5-MIN KMSN 240420Z 03005KT 9SM CLR M07/M11 A3030 520 77 -2000 030/05 RMK AO2 $
14837KMSN MSN20101123222509711/23/10 22:25:31  5-MIN KMSN 240425Z 03005KT 9SM CLR M07/M11 A3030 520 77 -2000 030/05 RMK AO2 $
14837KMSN MSN20101123223009711/23/10 22:30:31  5-MIN KMSN 240430Z 03004KT 9SM CLR M07/M11 A3030 510 77 -2000 030/04 RMK AO2 $
14837KMSN MSN20101123223509711/23/10 22:35:31  5-MIN KMSN 240435Z 03005KT 9SM CLR M07/M11 A3031 510 77 -2000 030/05 RMK AO2 $
14837KMSN MSN20101123224009711/23/10 22:40:31  5-MIN KMSN 240440Z 03004KT 9SM CLR M07/M11 A3031 510 77 -2000 030/04 RMK AO2 $
14837KMSN MSN20101123224509711/23/10 22:45:31  5-MIN KMSN 240445Z 04003KT 9SM CLR M07/M11 A3031 510 77 -2000 040/03 RMK AO2 $
14837KMSN MSN20101123225011411/23/10 22:50:31  5-MIN KMSN 240450Z 05003KT 9SM CLR M07/M11 A3031 500 77 -2000 050/03 RMK AO2 SLP279 T10721106 $
14837KMSN MSN20101123225509811/23/10 22:55:31  5-MIN KMSN 240455Z 06003KT 10SM CLR M07/M11 A3031 500 77 -2000 060/03 RMK AO2 $
14837KMSN MSN20101123230009811/23/10 23:00:31  5-MIN KMSN 240500Z 00000KT 10SM CLR M07/M11 A3032 500 77 -2000 000/00 RMK AO2 $
14837KMSN MSN20101123230509811/23/10 23:05:31  5-MIN KMSN 240505Z 07003KT 10SM CLR M07/M11 A3031 500 74 -2000 070/03 RMK AO2 $
14837KMSN MSN20101123231009811/23/10 23:10:31  5-MIN KMSN 240510Z 00000KT 10SM CLR M07/M11 A3032 500 77 -2000 000/00 RMK AO2 $
14837KMSN MSN20101123231509811/23/10 23:15:31  5-MIN KMSN 240515Z 00000KT 10SM CLR M08/M11 A3031 500 77 -2100 000/00 RMK AO2 $
14837KMSN MSN20101123232009811/23/10 23:20:31  5-MIN KMSN 240520Z 00000KT 10SM CLR M08/M11 A3032 500 80 -2200 000/00 RMK AO2 $
14837KMSN MSN20101123232509811/23/10 23:25:31  5-MIN KMSN 240525Z 00000KT 10SM CLR M08/M11 A3032 500 77 -2100 000/00 RMK AO2 $
14837KMSN MSN20101123233009811/23/10 23:30:31  5-MIN KMSN 240530Z 00000KT 10SM CLR M08/M11 A3031 500 84 -2200 000/00 RMK AO2 $
14837KMSN MSN20101123233509811/23/10 23:35:31  5-MIN KMSN 240535Z 00000KT 10SM CLR M08/M11 A3031 510 84 -2200 000/00 RMK AO2 $
14837KMSN MSN20101123234009811/23/10 23:40:31  5-MIN KMSN 240540Z 00000KT 10SM CLR M08/M10 A3031 510 84 -2100 000/00 RMK AO2 $
14837KMSN MSN20101123234509811/23/10 23:45:31  5-MIN KMSN 240545Z 00000KT 10SM CLR M08/M11 A3031 510 80 -2100 000/00 RMK AO2 $
14837KMSN MSN20101123235014311/23/10 23:50:31  5-MIN KMSN 240550Z 06003KT 10SM CLR M08/M11 A3031 510 80 -2100 060/03 RMK AO2 SLP278 T10781106 11033 21083 400001083 50001 $
14837KMSN MSN20101123235509811/23/10 23:55:31  5-MIN KMSN 240555Z 05003KT 10SM CLR M08/M11 A3031 500 80 -2100 050/03 RMK AO2 $
14837KMSN MSN20101124000009811/24/10 00:00:32  5-MIN KMSN 240600Z 00000KT 10SM CLR M08/M11 A3031 510 80 -2200 000/00 RMK AO2 $
14837KMSN MSN20101124000509811/24/10 00:05:31  5-MIN KMSN 240605Z 00000KT 10SM CLR M08/M11 A3031 510 80 -2100 000/00 RMK AO2 $
14837KMSN MSN20101124001009811/24/10 00:10:31  5-MIN KMSN 240610Z 00000KT 10SM CLR M07/M11 A3031 510 77 -2000 000/00 RMK AO2 $
14837KMSN MSN20101124001509811/24/10 00:15:31  5-MIN KMSN 240615Z 10003KT 10SM CLR M07/M11 A3031 510 77 -2000 100/03 RMK AO2 $
14837KMSN MSN20101124002009811/24/10 00:20:31  5-MIN KMSN 240620Z 09004KT 10SM CLR M07/M11 A3031 510 77 -2000 080/04 RMK AO2 $
14837KMSN MSN20101124002509811/24/10 00:25:31  5-MIN KMSN 240625Z 08003KT 10SM CLR M07/M11 A3031 510 77 -2000 080/03 RMK AO2 $
14837KMSN MSN20101124003009811/24/10 00:30:31  5-MIN KMSN 240630Z 07003KT 10SM CLR M07/M11 A3031 510 77 -2000 070/03 RMK AO2 $
14837KMSN MSN20101124003509811/24/10 00:35:31  5-MIN KMSN 240635Z 07004KT 10SM CLR M07/M11 A3031 510 77 -2000 070/04 RMK AO2 $
14837KMSN MSN20101124004009811/24/10 00:40:31  5-MIN KMSN 240640Z 07005KT 10SM CLR M08/M11 A3030 510 80 -2100 070/05 RMK AO2 $
14837KMSN MSN20101124004509811/24/10 00:45:31  5-MIN KMSN 240645Z 06005KT 10SM CLR M08/M11 A3030 520 80 -2100 060/05 RMK AO2 $
14837KMSN MSN20101124005011511/24/10 00:50:31  5-MIN KMSN 240650Z 05006KT 10SM CLR M08/M11 A3029 530 80 -2200 050/06 RMK AO2 SLP271 T10831111 $
14837KMSN MSN20101124005509811/24/10 00:55:31  5-MIN KMSN 240655Z 06005KT 10SM CLR M08/M11 A3029 520 77 -2100 060/05 RMK AO2 $
14837KMSN MSN20101124010009811/24/10 01:00:31  5-MIN KMSN 240700Z 08004KT 10SM CLR M08/M11 A3029 520 80 -2100 070/04 RMK AO2 $
14837KMSN MSN20101124010509811/24/10 01:05:31  5-MIN KMSN 240705Z 08004KT 10SM CLR M08/M11 A3029 520 84 -2200 070/04 RMK AO2 $
14837KMSN MSN20101124011009811/24/10 01:10:31  5-MIN KMSN 240710Z 08005KT 10SM CLR M08/M11 A3029 520 80 -2100 080/05 RMK AO2 $
14837KMSN MSN20101124011509811/24/10 01:15:31  5-MIN KMSN 240715Z 07005KT 10SM CLR M08/M11 A3029 520 80 -2100 070/05 RMK AO2 $
14837KMSN MSN20101124012009811/24/10 01:20:31  5-MIN KMSN 240720Z 08007KT 10SM CLR M08/M11 A3029 520 80 -2100 080/07 RMK AO2 $
14837KMSN MSN20101124012509811/24/10 01:25:31  5-MIN KMSN 240725Z 08007KT 10SM CLR M08/M10 A3029 520 84 -2100 080/07 RMK AO2 $
14837KMSN MSN20101124013009811/24/10 01:30:31  5-MIN KMSN 240730Z 08006KT 10SM CLR M08/M10 A3029 520 84 -2100 080/06 RMK AO2 $
14837KMSN MSN20101124013509811/24/10 01:35:31  5-MIN KMSN 240735Z 08006KT 10SM CLR M08/M10 A3029 520 84 -2100 080/06 RMK AO2 $
14837KMSN MSN20101124014009811/24/10 01:40:31  5-MIN KMSN 240740Z 08007KT 10SM CLR M07/M10 A3029 520 81 -2000 080/07 RMK AO2 $
14837KMSN MSN20101124014509811/24/10 01:45:31  5-MIN KMSN 240745Z 08007KT 10SM CLR M07/M10 A3029 520 81 -2000 080/07 RMK AO2 $
14837KMSN MSN20101124015011511/24/10 01:50:31  5-MIN KMSN 240750Z 08007KT 10SM CLR M07/M10 A3029 520 81 -2000 080/07 RMK AO2 SLP271 T10721100 $
14837KMSN MSN20101124015509811/24/10 01:55:31  5-MIN KMSN 240755Z 08006KT 10SM CLR M07/M10 A3029 530 81 -2000 080/06 RMK AO2 $
14837KMSN MSN20101124020009811/24/10 02:00:31  5-MIN KMSN 240800Z 08005KT 10SM CLR M07/M10 A3028 530 81 -2000 080/05 RMK AO2 $
14837KMSN MSN20101124020509811/24/10 02:05:31  5-MIN KMSN 240805Z 08005KT 10SM CLR M08/M10 A3028 530 84 -2100 080/05 RMK AO2 $
14837KMSN MSN20101124021009811/24/10 02:10:31  5-MIN KMSN 240810Z 08007KT 10SM CLR M07/M10 A3028 540 81 -2000 080/07 RMK AO2 $
14837KMSN MSN20101124021509811/24/10 02:15:31  5-MIN KMSN 240815Z 07007KT 10SM CLR M07/M10 A3027 540 81 -2000 070/07 RMK AO2 $
14837KMSN MSN20101124022009811/24/10 02:20:31  5-MIN KMSN 240820Z 08006KT 10SM CLR M07/M10 A3027 540 81 -2000 080/06 RMK AO2 $
14837KMSN MSN20101124022509811/24/10 02:25:31  5-MIN KMSN 240825Z 08007KT 10SM CLR M07/M10 A3027 540 81 -2000 080/07 RMK AO2 $
14837KMSN MSN20101124023009811/24/10 02:30:31  5-MIN KMSN 240830Z 08007KT 10SM CLR M07/M10 A3027 550 81 -2000 080/07 RMK AO2 $
14837KMSN MSN20101124023509811/24/10 02:35:31  5-MIN KMSN 240835Z 08007KT 10SM CLR M07/M10 A3026 550 77 -1900 080/07 RMK AO2 $
14837KMSN MSN20101124024009811/24/10 02:40:31  5-MIN KMSN 240840Z 10008KT 10SM CLR M07/M09 A3026 550 81 -1900 090/08 RMK AO2 $
14837KMSN MSN20101124024509811/24/10 02:45:31  5-MIN KMSN 240845Z 09008KT 10SM CLR M07/M09 A3026 550 81 -1900 090/08 RMK AO2 $
14837KMSN MSN20101124025012111/24/10 02:50:31  5-MIN KMSN 240850Z 10007KT 10SM CLR M07/M09 A3026 550 81 -1900 100/07 RMK AO2 SLP261 T10671094 50007 $
14837KMSN MSN20101124025509311/24/10 02:55:31  5-MIN KMSN 240855Z 10006KT CLR M07/M09 A3026 550 81 -1900 100/06 RMK AO2 $
14837KMSN MSN20101124030009811/24/10 03:00:31  5-MIN KMSN 240900Z 10007KT 10SM CLR M07/M09 A3026 560 81 -1900 090/07 RMK AO2 $
14837KMSN MSN20101124030509811/24/10 03:05:31  5-MIN KMSN 240905Z 10006KT 10SM CLR M07/M09 A3026 550 81 -1900 090/06 RMK AO2 $
14837KMSN MSN20101124031009811/24/10 03:10:31  5-MIN KMSN 240910Z 10005KT 10SM CLR M07/M09 A3026 560 81 -1900 100/05 RMK AO2 $
14837KMSN MSN20101124031509811/24/10 03:15:31  5-MIN KMSN 240915Z 10007KT 10SM CLR M07/M09 A3025 560 81 -1900 100/07 RMK AO2 $
14837KMSN MSN20101124032009811/24/10 03:20:31  5-MIN KMSN 240920Z 10006KT 10SM CLR M07/M09 A3025 560 81 -1900 100/06 RMK AO2 $
14837KMSN MSN20101124032509811/24/10 03:25:31  5-MIN KMSN 240925Z 10006KT 10SM CLR M07/M09 A3025 560 81 -1900 100/06 RMK AO2 $
14837KMSN MSN20101124033009811/24/10 03:30:31  5-MIN KMSN 240930Z 11005KT 10SM CLR M07/M09 A3025 560 81 -1900 110/05 RMK AO2 $
14837KMSN MSN20101124033509811/24/10 03:35:31  5-MIN KMSN 240935Z 11005KT 10SM CLR M07/M09 A3024 570 81 -1900 110/05 RMK AO2 $
14837KMSN MSN20101124034009811/24/10 03:40:31  5-MIN KMSN 240940Z 11005KT 10SM CLR M07/M09 A3024 570 81 -1900 110/05 RMK AO2 $
14837KMSN MSN20101124034509811/24/10 03:45:31  5-MIN KMSN 240945Z 12006KT 10SM CLR M07/M09 A3024 570 81 -1900 120/06 RMK AO2 $
14837KMSN MSN20101124035011511/24/10 03:50:31  5-MIN KMSN 240950Z 12004KT 10SM CLR M07/M09 A3024 570 81 -1900 120/04 RMK AO2 SLP254 T10671094 $
14837KMSN MSN20101124035509311/24/10 03:55:31  5-MIN KMSN 240955Z 12006KT CLR M07/M09 A3025 560 81 -1900 120/06 RMK AO2 $
14837KMSN MSN20101124040009811/24/10 04:00:31  5-MIN KMSN 241000Z 11005KT 10SM CLR M07/M09 A3024 570 81 -1900 110/05 RMK AO2 $
14837KMSN MSN20101124040509811/24/10 04:05:31  5-MIN KMSN 241005Z 11005KT 10SM CLR M07/M09 A3024 570 84 -2000 110/05 RMK AO2 $
14837KMSN MSN20101124041009811/24/10 04:10:31  5-MIN KMSN 241010Z 10005KT 10SM CLR M07/M09 A3024 570 81 -1900 100/05 RMK AO2 $
14837KMSN MSN20101124041509811/24/10 04:15:31  5-MIN KMSN 241015Z 09004KT 10SM CLR M07/M09 A3023 570 81 -1900 090/04 RMK AO2 $
14837KMSN MSN20101124042009811/24/10 04:20:31  5-MIN KMSN 241020Z 10005KT 10SM CLR M07/M09 A3023 580 81 -1900 100/05 RMK AO2 $
14837KMSN MSN20101124042509811/24/10 04:25:31  5-MIN KMSN 241025Z 08004KT 10SM CLR M07/M09 A3023 580 81 -1900 080/04 RMK AO2 $
14837KMSN MSN20101124043009811/24/10 04:30:31  5-MIN KMSN 241030Z 08004KT 10SM CLR M07/M09 A3022 590 81 -1900 080/04 RMK AO2 $
14837KMSN MSN20101124043509811/24/10 04:35:31  5-MIN KMSN 241035Z 06004KT 10SM CLR M07/M09 A3022 590 84 -1900 060/04 RMK AO2 $
14837KMSN MSN20101124044009811/24/10 04:40:31  5-MIN KMSN 241040Z 05004KT 10SM CLR M07/M09 A3022 590 84 -1900 050/04 RMK AO2 $
14837KMSN MSN20101124044509811/24/10 04:45:31  5-MIN KMSN 241045Z 07003KT 10SM CLR M07/M09 A3022 590 84 -1900 070/03 RMK AO2 $
14837KMSN MSN20101124045011511/24/10 04:50:31  5-MIN KMSN 241050Z 07003KT 10SM CLR M07/M09 A3022 590 84 -1900 070/03 RMK AO2 SLP246 T10671089 $
14837KMSN MSN20101124045509311/24/10 04:55:31  5-MIN KMSN 241055Z 06004KT CLR M07/M09 A3021 590 84 -1900 060/04 RMK AO2 $
14837KMSN MSN20101124050009311/24/10 05:00:31  5-MIN KMSN 241100Z 06003KT CLR M07/M09 A3022 590 84 -1900 060/03 RMK AO2 $
14837KMSN MSN20101124050509811/24/10 05:05:31  5-MIN KMSN 241105Z 06003KT 10SM CLR M07/M09 A3021 590 84 -1900 060/03 RMK AO2 $
14837KMSN MSN20101124051009811/24/10 05:10:31  5-MIN KMSN 241110Z 06003KT 10SM CLR M07/M09 A3021 600 84 -1900 060/03 RMK AO2 $
14837KMSN MSN20101124051510111/24/10 05:15:31  5-MIN KMSN 241115Z 05003KT 10SM FEW120 M07/M09 A3020 610 84 -1800 050/03 RMK AO2 $
14837KMSN MSN20101124052010111/24/10 05:20:31  5-MIN KMSN 241120Z 06003KT 10SM SCT120 M07/M09 A3020 610 84 -1800 060/03 RMK AO2 $
14837KMSN MSN20101124052510111/24/10 05:25:31  5-MIN KMSN 241125Z 00000KT 10SM BKN110 M07/M08 A3020 600 88 -1800 000/00 RMK AO2 $
14837KMSN MSN20101124053010111/24/10 05:30:31  5-MIN KMSN 241130Z 00000KT 10SM BKN110 M07/M08 A3020 610 88 -1800 000/00 RMK AO2 $
14837KMSN MSN20101124053510111/24/10 05:35:31  5-MIN KMSN 241135Z 09003KT 10SM BKN110 M06/M08 A3020 610 84 -1800 090/03 RMK AO2 $
14837KMSN MSN20101124054010111/24/10 05:40:31  5-MIN KMSN 241140Z 09003KT 10SM BKN110 M06/M08 A3020 610 84 -1800 090/03 RMK AO2 $
14837KMSN MSN20101124054510111/24/10 05:45:31  5-MIN KMSN 241145Z 09004KT 10SM BKN100 M06/M08 A3020 610 84 -1800 090/04 RMK AO2 $
14837KMSN MSN20101124055013611/24/10 05:50:31  5-MIN KMSN 241150Z 09005KT 10SM BKN110 M06/M08 A3019 620 84 -1700 090/05 RMK AO2 SLP237 T10561078 11056 21083 58016 $
14837KMSN MSN20101124055510111/24/10 05:55:31  5-MIN KMSN 241155Z 10007KT 10SM BKN110 M06/M08 A3019 620 84 -1700 100/07 RMK AO2 $
14837KMSN MSN20101124060010111/24/10 06:00:31  5-MIN KMSN 241200Z 10006KT 10SM BKN110 M06/M08 A3018 620 84 -1700 100/06 RMK AO2 $
14837KMSN MSN20101124060510111/24/10 06:05:31  5-MIN KMSN 241205Z 09006KT 10SM BKN110 M06/M08 A3018 620 84 -1700 090/06 RMK AO2 $
14837KMSN MSN20101124061010111/24/10 06:10:31  5-MIN KMSN 241210Z 09005KT 10SM BKN110 M06/M08 A3018 620 84 -1700 090/05 RMK AO2 $
14837KMSN MSN20101124061510111/24/10 06:15:31  5-MIN KMSN 241215Z 10004KT 10SM BKN110 M06/M07 A3018 620 88 -1700 090/04 RMK AO2 $
14837KMSN MSN20101124062010111/24/10 06:20:31  5-MIN KMSN 241220Z 11004KT 10SM BKN110 M05/M07 A3019 620 84 -1600 110/04 RMK AO2 $
14837KMSN MSN20101124062510111/24/10 06:25:31  5-MIN KMSN 241225Z 00000KT 10SM BKN110 M05/M07 A3020 610 84 -1600 000/00 RMK AO2 $
14837KMSN MSN20101124063010111/24/10 06:30:31  5-MIN KMSN 241230Z 00000KT 10SM BKN110 M05/M07 A3020 610 88 -1600 000/00 RMK AO2 $
14837KMSN MSN20101124063510111/24/10 06:35:31  5-MIN KMSN 241235Z 11005KT 10SM OVC110 M05/M07 A3019 610 88 -1600 110/05 RMK AO2 $
14837KMSN MSN20101124064010111/24/10 06:40:31  5-MIN KMSN 241240Z 11006KT 10SM OVC110 M04/M07 A3019 610 84 -1500 110/06 RMK AO2 $
14837KMSN MSN20101124064510111/24/10 06:45:31  5-MIN KMSN 241245Z 11007KT 10SM BKN110 M04/M07 A3019 610 84 -1500 110/07 RMK AO2 $
14837KMSN MSN20101124065011811/24/10 06:50:31  5-MIN KMSN 241250Z 11007KT 10SM BKN110 M04/M07 A3019 620 84 -1500 110/07 RMK AO2 SLP237 T10441067 $
14837KMSN MSN20101124065510011/24/10 06:55:31  5-MIN KMSN 241255Z 11005KT 9SM OVC110 M04/M07 A3020 610 84 -1500 110/05 RMK AO2 $
14837KMSN MSN20101124070010111/24/10 07:00:31  5-MIN KMSN 241300Z 11005KT 10SM OVC110 M04/M06 A3019 610 88 -1500 110/05 RMK AO2 $
14837KMSN MSN20101124070510111/24/10 07:05:31  5-MIN KMSN 241305Z 10004KT 10SM OVC110 M04/M06 A3019 610 88 -1500 100/04 RMK AO2 $
14837KMSN MSN20101124071010811/24/10 07:10:31  5-MIN KMSN 241310Z 10005KT 10SM FEW019 OVC100 M04/M06 A3019 610 88 -1500 100/05 RMK AO2 $
14837KMSN MSN20101124071510811/24/10 07:15:31  5-MIN KMSN 241315Z 10003KT 10SM SCT019 OVC100 M04/M06 A3019 620 85 -1500 100/03 RMK AO2 $
14837KMSN MSN20101124072010811/24/10 07:20:31  5-MIN KMSN 241320Z 09004KT 10SM SCT019 OVC110 M04/M06 A3018 620 85 -1500 090/04 RMK AO2 $
14837KMSN MSN20101124072510811/24/10 07:25:31  5-MIN KMSN 241325Z 11004KT 10SM SCT019 OVC100 M04/M06 A3018 620 88 -1500 110/04 RMK AO2 $
14837KMSN MSN20101124073010811/24/10 07:30:31  5-MIN KMSN 241330Z 11006KT 10SM SCT019 OVC100 M04/M06 A3017 630 88 -1500 110/06 RMK AO2 $
14837KMSN MSN20101124073510811/24/10 07:35:31  5-MIN KMSN 241335Z 10007KT 10SM SCT019 OVC100 M03/M06 A3017 630 85 -1400 100/07 RMK AO2 $
14837KMSN MSN20101124074010811/24/10 07:40:31  5-MIN KMSN 241340Z 10006KT 10SM BKN021 OVC100 M03/M06 A3017 640 85 -1400 100/06 RMK AO2 $
14837KMSN MSN20101124074510811/24/10 07:45:31  5-MIN KMSN 241345Z 10006KT 10SM BKN021 OVC100 M03/M06 A3016 640 85 -1400 100/06 RMK AO2 $
14837KMSN MSN20101124075012311/24/10 07:50:31  5-MIN KMSN 241350Z 10007KT 10SM BKN021 OVC100 M03/M05 A3016 640 88 -1400 100/07 RMK AO2 SLP228 T10331050
14837KMSN MSN20101124075510111/24/10 07:55:31  5-MIN KMSN 241355Z 09006KT BKN021 OVC100 M03/M05 A3016 640 85 -1300 090/06 RMK AO2
14837KMSN MSN20101124080009811/24/10 08:00:31  5-MIN KMSN 241400Z 09008KT 8SM OVC021 M03/M05 A3015 650 85 -1300 090/08 RMK AO2
14837KMSN MSN20101124080510511/24/10 08:05:31  5-MIN KMSN 241405Z 09009KT 8SM OVC021 M02/M04 A3014 660 85 -1200 090/09 RMK AO2 PRESFR
14837KMSN MSN20101124081009811/24/10 08:10:31  5-MIN KMSN 241410Z 10008KT 8SM OVC021 M02/M04 A3014 660 85 -1200 100/08 RMK AO2
14837KMSN MSN20101124081509811/24/10 08:15:31  5-MIN KMSN 241415Z 09007KT 8SM OVC021 M02/M04 A3014 660 85 -1200 090/07 RMK AO2
14837KMSN MSN20101124082009811/24/10 08:20:31  5-MIN KMSN 241420Z 10008KT 8SM OVC019 M02/M04 A3014 660 85 -1100 100/08 RMK AO2
14837KMSN MSN20101124082509811/24/10 08:25:31  5-MIN KMSN 241425Z 11007KT 8SM OVC019 M02/M04 A3015 660 85 -1100 110/07 RMK AO2
14837KMSN MSN20101124083009811/24/10 08:30:31  5-MIN KMSN 241430Z 12007KT 8SM OVC019 M02/M04 A3015 650 85 -1100 120/07 RMK AO2
14837KMSN MSN20101124083509811/24/10 08:35:31  5-MIN KMSN 241435Z 11009KT 8SM OVC019 M02/M04 A3015 650 85 -1100 110/09 RMK AO2
14837KMSN MSN20101124084009611/24/10 08:40:31  5-MIN KMSN 241440Z 10009KT OVC019 M01/M03 A3014 660 85 -1100 100/09 RMK AO2 $
14837KMSN MSN20101124084510011/24/10 08:45:31  5-MIN KMSN 241445Z 11009KT 8SM OVC019 M01/M03 A3015 660 85 -1100 110/09 RMK AO2 $
14837KMSN MSN20101124085012311/24/10 08:50:31  5-MIN KMSN 241450Z 11010KT 8SM OVC019 M01/M03 A3014 660 85 -1100 110/10 RMK AO2 SLP220 T10111033 58024 $
14837KMSN MSN20101124085510011/24/10 08:55:31  5-MIN KMSN 241455Z 11010KT 8SM OVC019 M01/M03 A3013 670 85 -1000 110/10 RMK AO2 $
14837KMSN MSN20101124090010011/24/10 09:00:31  5-MIN KMSN 241500Z 12009KT 8SM OVC017 M01/M03 A3015 650 85 -1000 120/09 RMK AO2 $
14837KMSN MSN20101124090510011/24/10 09:05:31  5-MIN KMSN 241505Z 12012KT 8SM OVC017 M01/M03 A3014 660 85 -1000 120/12 RMK AO2 $
14837KMSN MSN20101124091009811/24/10 09:10:31  5-MIN KMSN 241510Z 12011KT 8SM OVC017 00/M02 A3014 660 85 -900 120/11 RMK AO2 $
14837KMSN MSN20101124091509811/24/10 09:15:31  5-MIN KMSN 241515Z 12010KT 8SM OVC017 00/M02 A3015 660 85 -900 120/10 RMK AO2 $
14837KMSN MSN20101124092009811/24/10 09:20:31  5-MIN KMSN 241520Z 12010KT 8SM OVC017 00/M02 A3015 650 85 -900 120/10 RMK AO2 $
14837KMSN MSN20101124092509811/24/10 09:25:31  5-MIN KMSN 241525Z 12009KT 8SM OVC017 01/M02 A3015 650 82 -900 120/09 RMK AO2 $
14837KMSN MSN20101124093009811/24/10 09:30:31  5-MIN KMSN 241530Z 12012KT 8SM OVC017 01/M02 A3015 650 82 -900 120/12 RMK AO2 $
14837KMSN MSN20101124093510411/24/10 09:35:31  5-MIN KMSN 241535Z 12014G19KT 9SM OVC017 01/M02 A3014 660 82 -900 120/14G19 RMK AO2 $
14837KMSN MSN20101124094009811/24/10 09:40:31  5-MIN KMSN 241540Z 13013KT 9SM OVC017 01/M02 A3014 660 85 -900 130/13 RMK AO2 $
14837KMSN MSN20101124094510111/24/10 09:45:31  5-MIN KMSN 241545Z 12013KT OVC017 01/M02 A3013 670 78 -800 120/13 RMK AO2 PRESFR $
14837KMSN MSN20101124095012111/24/10 09:50:31  5-MIN KMSN 241550Z 12015G22KT 8SM OVC017 01/M02 A3013 670 78 -800 120/15G22 RMK AO2 SLP214 T00111022 $
14837KMSN MSN20101124095509911/24/10 09:55:31  5-MIN KMSN 241555Z 12015KT 10SM OVC019 01/M02 A3013 670 78 -800 120/15 RMK AO2 $
14837KMSN MSN20101124100010411/24/10 10:00:31  5-MIN KMSN 241600Z 12012G21KT 9SM OVC019 01/M02 A3013 670 82 -800 120/12G21 RMK AO2 $
14837KMSN MSN20101124100509811/24/10 10:05:31  5-MIN KMSN 241605Z 13016KT 9SM OVC019 01/M02 A3013 670 82 -800 130/16 RMK AO2 $
14837KMSN MSN20101124101010511/24/10 10:10:31  5-MIN KMSN 241610Z 13014KT 9SM BKN019 OVC090 01/M02 A3013 670 82 -800 130/14 RMK AO2 $
14837KMSN MSN20101124101511111/24/10 10:15:31  5-MIN KMSN 241615Z 11015G22KT 9SM BKN019 OVC090 02/M02 A3011 690 78 -700 110/15G22 RMK AO2 $
14837KMSN MSN20101124102011811/24/10 10:20:31  5-MIN KMSN 241620Z 11017G23KT 9SM BKN019 OVC090 01/M02 A3011 690 82 -700 110/17G23 RMK AO2 PRESFR $
14837KMSN MSN20101124102511111/24/10 10:25:31  5-MIN KMSN 241625Z 12016G23KT 9SM BKN019 OVC090 01/M02 A3010 700 78 -700 120/16G23 RMK AO2 $
14837KMSN MSN20101124103010511/24/10 10:30:31  5-MIN KMSN 241630Z 12015KT 9SM SCT019 OVC090 02/M02 A3010 700 78 -700 120/15 RMK AO2 $
14837KMSN MSN20101124103512911/24/10 10:35:31  5-MIN KMSN 241635Z 12017G26KT 9SM SCT019 OVC090 02/M02 A3011 690 75 -700 120/17G26 RMK AO2 PK WND 12026/1631 $
14837KMSN MSN20101124104012911/24/10 10:40:31  5-MIN KMSN 241640Z 12020G26KT 9SM SCT019 OVC090 02/M02 A3011 690 75 -700 120/20G26 RMK AO2 PK WND 12026/1631 $
14837KMSN MSN20101124104512911/24/10 10:45:31  5-MIN KMSN 241645Z 13018G25KT 9SM FEW019 OVC090 02/M03 A3010 700 72 -700 130/18G25 RMK AO2 PK WND 12026/1631 $
14837KMSN MSN20101124105014611/24/10 10:50:31  5-MIN KMSN 241650Z 12020G26KT 9SM FEW019 OVC090 02/M02 A3009 710 75 -700 120/20G26 RMK AO2 PK WND 12026/1650 SLP201 T00171022 $
14837KMSN MSN20101124105511811/24/10 10:55:31  5-MIN KMSN 241655Z 12019G27KT 8SM SCT019 OVC085 02/M03 A3008 720 72 -600 120/19G27 RMK AO2 PRESFR $
14837KMSN MSN20101124110011811/24/10 11:00:31  5-MIN KMSN 241700Z 12019G27KT 8SM FEW019 OVC085 02/M03 A3007 730 72 -600 120/19G27 RMK AO2 PRESFR $
14837KMSN MSN20101124110511111/24/10 11:05:31  5-MIN KMSN 241705Z 12018G25KT 8SM OVC085 02/M03 A3005 740 72 -600 120/18G25 RMK AO2 PRESFR $
14837KMSN MSN20101124111012911/24/10 11:10:31  5-MIN KMSN 241710Z 12020G27KT 8SM OVC085 02/M03 A3004 750 72 -600 120/20G27 RMK AO2 PK WND 11027/1710 PRESFR $
14837KMSN MSN20101124111512211/24/10 11:15:31  5-MIN KMSN 241715Z 12020G27KT 8SM BKN085 02/M03 A3006 740 72 -600 120/20G27 RMK AO2 PK WND 11027/1710 $
14837KMSN MSN20101124112012211/24/10 11:20:31  5-MIN KMSN 241720Z 12014G26KT 8SM BKN085 02/M03 A3006 740 72 -600 120/14G26 RMK AO2 PK WND 11027/1710 $
14837KMSN MSN20101124112512211/24/10 11:25:31  5-MIN KMSN 241725Z 12016G26KT 8SM OVC080 02/M03 A3006 740 72 -600 120/16G26 RMK AO2 PK WND 11027/1710 $
14837KMSN MSN20101124113012911/24/10 11:30:31  5-MIN KMSN 241730Z 13018G23KT 8SM FEW020 OVC080 02/M03 A3005 750 72 -600 130/18G23 RMK AO2 PK WND 11027/1710 $
14837KMSN MSN20101124113513611/24/10 11:35:31  5-MIN KMSN 241735Z 11017G23KT 8SM FEW020 OVC080 02/M03 A3003 760 72 -600 110/17G23 RMK AO2 PK WND 11027/1710 PRESFR $
14837KMSN MSN20101124114012911/24/10 11:40:31  5-MIN KMSN 241740Z 12018G25KT 8SM FEW020 OVC080 02/M03 A3003 760 72 -600 120/18G25 RMK AO2 PK WND 11027/1710 $
14837KMSN MSN20101124114512911/24/10 11:45:31  5-MIN KMSN 241745Z 12017G25KT 8SM FEW020 OVC080 02/M03 A3003 770 72 -600 110/17G25 RMK AO2 PK WND 11027/1710 $
14837KMSN MSN20101124115015111/24/10 11:50:31  5-MIN KMSN 241750Z 11018KT 8SM OVC080 02/M03 A3002 770 72 -600 110/18 RMK AO2 PK WND 11027/1710 SLP179 T00171028 10017 21056 58018 $
14837KMSN MSN20101124115509911/24/10 11:55:31  5-MIN KMSN 241755Z 11018KT 10SM OVC080 02/M03 A3002 780 72 -600 110/18 RMK AO2 $
14837KMSN MSN20101124120011211/24/10 12:00:31  5-MIN KMSN 241800Z 12016G22KT 10SM OVC080 02/M03 A3001 780 72 -600 120/16G22 RMK AO2 PRESFR $
14837KMSN MSN20101124120510511/24/10 12:05:31  5-MIN KMSN 241805Z 12018G25KT 10SM OVC080 02/M03 A3001 790 72 -600 120/18G25 RMK AO2 $
14837KMSN MSN20101124121010511/24/10 12:10:31  5-MIN KMSN 241810Z 11014G25KT 10SM BKN080 02/M03 A3000 790 69 -500 110/14G25 RMK AO2 $
14837KMSN MSN20101124121510511/24/10 12:15:31  5-MIN KMSN 241815Z 12020G24KT 10SM BKN080 02/M03 A3000 790 69 -500 120/20G24 RMK AO2 $
14837KMSN MSN20101124122010511/24/10 12:20:31  5-MIN KMSN 241820Z 12016G24KT 10SM OVC080 02/M03 A3000 790 69 -500 120/16G24 RMK AO2 $
14837KMSN MSN20101124122510511/24/10 12:25:31  5-MIN KMSN 241825Z 12017G24KT 10SM OVC080 02/M03 A2999 800 69 -500 120/17G24 RMK AO2 $
14837KMSN MSN20101124123010511/24/10 12:30:31  5-MIN KMSN 241830Z 12019G23KT 10SM OVC080 02/M03 A2998 810 69 -500 120/19G23 RMK AO2 $
14837KMSN MSN20101124123510511/24/10 12:35:31  5-MIN KMSN 241835Z 12018G25KT 10SM OVC080 02/M03 A2998 810 69 -500 120/18G25 RMK AO2 $
14837KMSN MSN20101124124011211/24/10 12:40:31  5-MIN KMSN 241840Z 13019G25KT 10SM OVC080 02/M03 A2997 820 69 -400 130/19G25 RMK AO2 PRESFR $
14837KMSN MSN20101124124511211/24/10 12:45:31  5-MIN KMSN 241845Z 12017G25KT 10SM OVC080 02/M03 A2996 820 69 -400 120/17G25 RMK AO2 PRESFR $
14837KMSN MSN20101124125014011/24/10 12:50:31  5-MIN KMSN 241850Z 12020G26KT 10SM OVC080 02/M03 A2996 830 69 -400 120/20G26 RMK AO2 PK WND 12026/1850 SLP157 T00221028 $
14837KMSN MSN20101124125510511/24/10 12:55:31  5-MIN KMSN 241855Z 12019G26KT 10SM BKN080 02/M03 A2996 830 69 -400 120/19G26 RMK AO2 $
14837KMSN MSN20101124130010511/24/10 13:00:31  5-MIN KMSN 241900Z 14017G26KT 10SM BKN080 02/M03 A2996 830 69 -400 140/17G26 RMK AO2 $
14837KMSN MSN20101124130512311/24/10 13:05:31  5-MIN KMSN 241905Z 14020G32KT 10SM BKN080 02/M03 A2996 830 69 -400 130/20G32 RMK AO2 PK WND 14032/1905 $
14837KMSN MSN20101124131012311/24/10 13:10:31  5-MIN KMSN 241910Z 13023G32KT 10SM BKN080 02/M03 A2995 840 69 -400 130/23G32 RMK AO2 PK WND 14032/1905 $
14837KMSN MSN20101124131512311/24/10 13:15:31  5-MIN KMSN 241915Z 13018G29KT 10SM BKN080 02/M03 A2995 840 69 -400 130/18G29 RMK AO2 PK WND 14032/1905 $
14837KMSN MSN20101124132012311/24/10 13:20:31  5-MIN KMSN 241920Z 13020G28KT 10SM OVC070 02/M03 A2994 850 69 -400 130/20G28 RMK AO2 PK WND 14032/1905 $
14837KMSN MSN20101124132512311/24/10 13:25:31  5-MIN KMSN 241925Z 13017G28KT 10SM OVC070 02/M03 A2993 850 67 -400 130/17G28 RMK AO2 PK WND 14032/1905 $
14837KMSN MSN20101124133012311/24/10 13:30:31  5-MIN KMSN 241930Z 12018G28KT 10SM OVC070 02/M03 A2993 860 69 -400 120/18G28 RMK AO2 PK WND 14032/1905 $
14837KMSN MSN20101124133512311/24/10 13:35:31  5-MIN KMSN 241935Z 12021G25KT 10SM OVC065 02/M03 A2993 850 67 -400 120/21G25 RMK AO2 PK WND 14032/1905 $
14837KMSN MSN20101124134012111/24/10 13:40:31  5-MIN KMSN 241940Z 13016G25KT 10SM OVC060 02/M03 A2993 850 67 -400 130/16G25 RMK AO2 PK WND 14032/1905
14837KMSN MSN20101124134513711/24/10 13:45:31  5-MIN KMSN 241945Z 12017G24KT 10SM -RA OVC060 02/M03 A2992 860 69 -400 120/17G24 RMK AO2 PK WND 14032/1905 RAB41 P0000
14837KMSN MSN20101124135015311/24/10 13:50:31  5-MIN KMSN 241950Z 12018G25KT 10SM OVC055 02/M03 A2992 870 72 -500 120/18G25 RMK AO2 PK WND 14032/1905 RAB41E50 SLP142 P0000 T00171028
14837KMSN MSN20101124135511011/24/10 13:55:31  5-MIN KMSN 241955Z 13014G25KT 10SM OVC055 02/M03 A2991 870 69 -400 130/14G25 RMK AO2 PRESFR
14837KMSN MSN20101124140011711/24/10 14:00:31  5-MIN KMSN 242000Z 12018G25KT 10SM BKN050 OVC060 02/M03 A2990 880 69 -400 120/18G25 RMK AO2 PRESFR
14837KMSN MSN20101124140511911/24/10 14:05:31  5-MIN KMSN 242005Z 12017G24KT 10SM -RA OVC050 02/M03 A2990 880 72 -400 120/17G24 RMK AO2 RAB04 P0000
14837KMSN MSN20101124141011911/24/10 14:10:31  5-MIN KMSN 242010Z 12016G24KT 10SM -RA OVC050 02/M03 A2990 890 72 -400 120/16G24 RMK AO2 RAB04 P0000
14837KMSN MSN20101124141511811/24/10 14:15:31  5-MIN KMSN 242015Z 13018G25KT 10SM OVC047 02/M03 A2990 890 72 -400 130/18G25 RMK AO2 RAB04E14 P0000
14837KMSN MSN20101124142011811/24/10 14:20:31  5-MIN KMSN 242020Z 13013G25KT 10SM OVC047 02/M03 A2990 890 72 -400 130/13G25 RMK AO2 RAB04E14 P0000
14837KMSN MSN20101124142511811/24/10 14:25:31  5-MIN KMSN 242025Z 13013G23KT 10SM OVC047 02/M03 A2990 880 72 -400 130/13G23 RMK AO2 RAB04E14 P0000
14837KMSN MSN20101124143011811/24/10 14:30:31  5-MIN KMSN 242030Z 13018G22KT 10SM OVC047 02/M03 A2990 890 72 -400 130/18G22 RMK AO2 RAB04E14 P0000
14837KMSN MSN20101124143511811/24/10 14:35:31  5-MIN KMSN 242035Z 13017G22KT 10SM OVC047 02/M03 A2989 890 72 -400 130/17G22 RMK AO2 RAB04E14 P0000
14837KMSN MSN20101124144011811/24/10 14:40:31  5-MIN KMSN 242040Z 12013G25KT 10SM OVC047 02/M03 A2989 890 72 -400 120/13G25 RMK AO2 RAB04E14 P0000
14837KMSN MSN20101124144511811/24/10 14:45:31  5-MIN KMSN 242045Z 12016G25KT 10SM OVC047 02/M03 A2989 890 72 -400 120/16G25 RMK AO2 RAB04E14 P0000
14837KMSN MSN20101124145014711/24/10 14:50:31  5-MIN KMSN 242050Z 11012G20KT 10SM OVC047 02/M03 A2989 890 72 -400 110/12G20 RMK AO2 RAB04E14 SLP132 P0000 60000 T00171028 58038
14837KMSN MSN20101124145511211/24/10 14:55:31  5-MIN KMSN 242055Z 12016G21KT 7SM -DZ OVC045 02/M02 A2989 890 75 -400 120/16G21 RMK AO2 P0000
14837KMSN MSN20101124150011611/24/10 15:00:31  5-MIN KMSN 242100Z 12015G21KT 9SM OVC045 02/M02 A2989 890 75 -400 120/15G21 RMK AO2 DZE2058 P0000
14837KMSN MSN20101124150511711/24/10 15:05:31  5-MIN KMSN 242105Z 12015G20KT 10SM OVC043 02/M02 A2989 890 75 -400 120/15G20 RMK AO2 DZE2058 P0000
14837KMSN MSN20101124151011711/24/10 15:10:31  5-MIN KMSN 242110Z 12013G20KT 10SM OVC041 02/M02 A2988 900 75 -400 120/13G20 RMK AO2 DZE2058 P0000
14837KMSN MSN20101124151513211/24/10 15:15:31  5-MIN KMSN 242115Z 13014G20KT 9SM -RA FEW021 OVC041 02/M02 A2988 900 75 -400 130/14G20 RMK AO2 DZE2058RAB11 P0000
14837KMSN MSN20101124152013911/24/10 15:20:31  5-MIN KMSN 242120Z 12017G23KT 7SM -RAPL FEW021 OVC039 01/M02 A2987 910 78 -500 120/17G23 RMK AO2 DZE2058RAB11PLB16 P0000
14837KMSN MSN20101124152513911/24/10 15:25:31  5-MIN KMSN 242125Z 12016G23KT 5SM -RAPL OVC039 01/M02 A2986 920 82 -500 120/16G23 RMK AO2 DZE2058RAB11PLB16 PRESFR P0001
14837KMSN MSN20101124153013311/24/10 15:30:31  5-MIN KMSN 242130Z 12015G22KT 4SM -RA OVC037 01/M02 A2986 920 82 -500 110/15G22 RMK AO2 DZE2058RAB11PLB16E28 P0001
14837KMSN MSN20101124153514011/24/10 15:35:31  5-MIN KMSN 242135Z 13016G22KT 4SM -RA FEW029 OVC037 01/M02 A2987 910 82 -500 130/16G22 RMK AO2 DZE2058RAB11PLB16E28 P0001
14837KMSN MSN20101124154014011/24/10 15:40:31  5-MIN KMSN 242140Z 13012G21KT 5SM -RA SCT029 OVC037 01/M02 A2986 920 82 -500 130/12G21 RMK AO2 DZE2058RAB11PLB16E28 P0003
14837KMSN MSN20101124154514211/24/10 15:45:31  5-MIN KMSN 242145Z 12015G20KT 4SM RA BR BKN029 OVC037 01/M01 A2985 930 85 -400 120/15G20 RMK AO2 DZE2058RAB11PLB16E28 P0004
14837KMSN MSN20101124155015911/24/10 15:50:31  5-MIN KMSN 242150Z 12015G21KT 4SM RA BR BKN027 OVC035 01/M01 A2985 930 85 -400 120/15G21 RMK AO2 DZE2058RAB11PLB16E28 SLP120 P0005 T00111011
14837KMSN MSN20101124155513811/24/10 15:55:31  5-MIN KMSN 242155Z 12012G21KT 3SM RA BR FEW019 BKN027 OVC035 01/M01 A2985 930 85 -400 120/12G21 RMK AO2 SFC VIS 4 P0000
14837KMSN MSN20101124160013311/24/10 16:00:31  5-MIN KMSN 242200Z 12013KT 3SM -RA BR FEW019 BKN027 OVC035 01/M01 A2985 930 85 -400 120/13 RMK AO2 SFC VIS 4 P0001
14837KMSN MSN20101124160511611/24/10 16:05:31  5-MIN KMSN 242205Z 12010KT 3SM -RA BR FEW016 OVC025 01/M01 A2986 920 85 -500 120/10 RMK AO2 P0003
14837KMSN MSN20101124161011611/24/10 16:10:31  5-MIN KMSN 242210Z 13011KT 3SM -RA BR SCT020 OVC025 01/M01 A2986 920 85 -500 120/11 RMK AO2 P0004
14837KMSN MSN20101124161511611/24/10 16:15:31  5-MIN KMSN 242215Z 13011KT 3SM -RA BR BKN020 OVC025 01/M01 A2986 920 85 -500 130/11 RMK AO2 P0005
14837KMSN MSN20101124162012211/24/10 16:20:31  5-MIN KMSN 242220Z 12015G23KT 3SM -RA BR BKN018 OVC025 01/M01 A2985 930 89 -400 120/15G23 RMK AO2 P0006
14837KMSN MSN20101124162512811/24/10 16:25:31  5-MIN KMSN 242225Z 12014G23KT 2SM RA BR OVC018 01/M01 A2984 940 89 -400 120/14G23 RMK AO2 SFC VIS 2 1/2 P0008
14837KMSN MSN20101124163012511/24/10 16:30:31  5-MIN KMSN 242230Z 13010G23KT 2SM -RA BR OVC018 01/M01 A2984 940 89 -400 120/10G23 RMK AO2 SFC VIS 3 P0009
14837KMSN MSN20101124163511911/24/10 16:35:31  5-MIN KMSN 242235Z 12013KT 2SM -RA BR OVC018 01/M01 A2983 950 89 -400 120/13 RMK AO2 SFC VIS 3 P0009
14837KMSN MSN20101124164012611/24/10 16:40:31  5-MIN KMSN 242240Z 12013KT 3SM -RA BR BKN016 OVC021 01/M01 A2983 950 89 -400 120/13 RMK AO2 TWR VIS 4 P0009
14837KMSN MSN20101124164512311/24/10 16:45:31  5-MIN KMSN 242245Z 11015KT 5SM -RA BR BKN016 OVC021 01/M01 A2981 970 89 -400 110/15 RMK AO2 PRESFR P0009
14837KMSN MSN20101124165013811/24/10 16:50:31  5-MIN KMSN 242250Z 12012G19KT 7SM BKN016 OVC021 01/M01 A2982 960 89 -400 120/12G19 RMK AO2 RAE48 SLP107 P0009 T00111006
14837KMSN MSN20101124165510911/24/10 16:55:31  5-MIN KMSN 242255Z 12012G19KT 7SM BKN016 OVC021 01/M01 A2983 950 89 -400 120/12G19 RMK AO2
14837KMSN MSN20101124170010311/24/10 17:00:31  5-MIN KMSN 242300Z 12011KT 7SM BKN014 OVC021 01/M01 A2982 960 89 -400 120/11 RMK AO2
14837KMSN MSN20101124170510311/24/10 17:05:31  5-MIN KMSN 242305Z 12015KT 7SM BKN014 OVC021 01/M01 A2981 960 89 -400 120/15 RMK AO2
14837KMSN MSN20101124171010311/24/10 17:10:31  5-MIN KMSN 242310Z 12013KT 7SM BKN014 OVC021 01/M01 A2981 970 89 -400 120/13 RMK AO2
14837KMSN MSN20101124171509611/24/10 17:15:31  5-MIN KMSN 242315Z 12014KT 9SM OVC014 01/M01 A2980 970 89 -400 120/14 RMK AO2
14837KMSN MSN20101124172009611/24/10 17:20:31  5-MIN KMSN 242320Z 12015KT 9SM OVC012 01/M01 A2980 980 89 -400 110/15 RMK AO2
14837KMSN MSN20101124172509511/24/10 17:25:31  5-MIN KMSN 242325Z 12012KT 9SM OVC012 01/00 A2980 970 92 -400 120/12 RMK AO2
14837KMSN MSN20101124173009511/24/10 17:30:31  5-MIN KMSN 242330Z 13011KT 8SM OVC012 01/00 A2980 980 92 -400 130/11 RMK AO2
14837KMSN MSN20101124173510111/24/10 17:35:31  5-MIN KMSN 242335Z 12012G18KT 8SM OVC012 01/00 A2979 980 92 -400 120/12G18 RMK AO2
14837KMSN MSN20101124174009511/24/10 17:40:31  5-MIN KMSN 242340Z 12011KT 8SM OVC012 01/00 A2979 990 92 -400 120/11 RMK AO2
14837KMSN MSN20101124174509511/24/10 17:45:31  5-MIN KMSN 242345Z 12012KT 8SM OVC010 01/00 A2978 990 92 -400 120/12 RMK AO2
14837KMSN MSN20101124175015111/24/10 17:50:31  5-MIN KMSN 242350Z 13013KT 8SM UP OVC010 02/00 A2979 990 89 -300 120/13 RMK AO2 UPB50 SLP097 P0000 60015 T00170000 10022 20011 56042
14837KMSN MSN20101124175510511/24/10 17:55:31  5-MIN KMSN 242355Z 12014KT 7SM -DZ OVC010 02/00 A2979 990 89 -300 120/14 RMK AO2 P0000
14837KMSN MSN20101124180011611/24/10 18:00:31  5-MIN KMSN 250000Z 12012KT 7SM -RA OVC010 02/00 A2978 990 89 -300 120/12 RMK AO2 DZE00RAB00 P0000
14837KMSN MSN20101124180512511/24/10 18:05:31  5-MIN KMSN 250005Z 12010G17KT 6SM -RA BR OVC010 02/00 A2979 990 89 -300 120/10G17 RMK AO2 DZE00RAB00 P0000
14837KMSN MSN20101124181012511/24/10 18:10:31  5-MIN KMSN 250010Z 12012G17KT 5SM -RA BR OVC010 02/00 A2979 990 89 -300 120/12G17 RMK AO2 DZE00RAB00 P0001
14837KMSN MSN20101124181511911/24/10 18:15:31  5-MIN KMSN 250015Z 12014KT 4SM -RA BR OVC010 02/01 A2978 990 92 -300 120/14 RMK AO2 DZE00RAB00 P0002
14837KMSN MSN20101124182013111/24/10 18:20:31  5-MIN KMSN 250020Z 13012KT 3SM -RA BR OVC010 02/01 A2978 990 92 -300 120/12 RMK AO2 DZE00RAB00 CIG 007V011 P0003
14837KMSN MSN20101124182513111/24/10 18:25:31  5-MIN KMSN 250025Z 12013KT 3SM RA BR OVC010 02/01 A2977 1000 92 -300 120/13 RMK AO2 DZE00RAB00 CIG 007V011 P0005
14837KMSN MSN20101124183013211/24/10 18:30:31  5-MIN KMSN 250030Z 13012KT 3SM -RA BR OVC010 02/01 A2977 1010 92 -300 120/12 RMK AO2 DZE00RAB00 CIG 007V013 P0006
14837KMSN MSN20101124183513211/24/10 18:35:31  5-MIN KMSN 250035Z 13014KT 3SM -RA BR OVC010 02/01 A2977 1010 92 -300 120/14 RMK AO2 DZE00RAB00 CIG 007V011 P0006
14837KMSN MSN20101124184013211/24/10 18:40:31  5-MIN KMSN 250040Z 12013KT 3SM -RA BR OVC010 02/01 A2977 1010 92 -300 120/13 RMK AO2 DZE00RAB00 CIG 007V011 P0006
14837KMSN MSN20101124184513211/24/10 18:45:31  5-MIN KMSN 250045Z 12013KT 3SM -RA BR OVC008 02/01 A2976 1010 92 -300 120/13 RMK AO2 DZE00RAB00 CIG 007V011 P0006
14837KMSN MSN20101124185015511/24/10 18:50:31  5-MIN KMSN 250050Z 12015G20KT 4SM -RA BR OVC008 02/01 A2975 1020 92 -200 120/15G20 RMK AO2 DZE00RAB00 CIG 007V013 SLP085 P0007 T00220011
14837KMSN MSN20101124185512711/24/10 18:55:31  5-MIN KMSN 250055Z 13013G20KT 4SM -RA BR OVC008 02/01 A2976 1020 92 -200 130/13G20 RMK AO2 CIG 007V011 P0001
14837KMSN MSN20101124190012111/24/10 19:00:31  5-MIN KMSN 250100Z 13012KT 4SM -RA BR OVC008 02/01 A2975 1020 92 -200 130/12 RMK AO2 CIG 007V010 P0001
14837KMSN MSN20101124190512111/24/10 19:05:31  5-MIN KMSN 250105Z 13012KT 4SM -RA BR OVC008 02/01 A2975 1020 92 -200 130/12 RMK AO2 CIG 006V010 P0001
14837KMSN MSN20101124191012711/24/10 19:10:31  5-MIN KMSN 250110Z 13011G19KT 4SM -RA BR OVC008 02/01 A2976 1020 92 -200 130/11G19 RMK AO2 CIG 006V010 P0001
14837KMSN MSN20101124191512711/24/10 19:15:31  5-MIN KMSN 250115Z 13010G19KT 3SM -RA BR OVC008 02/01 A2976 1010 92 -200 130/10G19 RMK AO2 CIG 006V010 P0002
14837KMSN MSN20101124192013111/24/10 19:20:31  5-MIN KMSN 250120Z 14011KT 3SM -RA BR OVC008 02/01 A2976 1010 92 -200 140/11 RMK AO2 TWR VIS 5 CIG 006V010 P0002
14837KMSN MSN20101124192510911/24/10 19:25:31  5-MIN KMSN 250125Z 13012KT 5SM -RA BR OVC008 02/01 A2975 1020 92 -200 130/12 RMK AO2 P0002
14837KMSN MSN20101124193012411/24/10 19:30:31  5-MIN KMSN 250130Z 13013G17KT 7SM -RA OVC008 02/01 A2974 1030 92 -200 130/13G17 RMK AO2 CIG 006V010 P0002
14837KMSN MSN20101124193512111/24/10 19:35:31  5-MIN KMSN 250135Z 13012KT 6SM -RA BR OVC008 02/02 A2975 1020 96 -200 130/12 RMK AO2 CIG 006V010 P0002
14837KMSN MSN20101124194012111/24/10 19:40:31  5-MIN KMSN 250140Z 13012KT 4SM -RA BR OVC008 03/02 A2974 1030 92 -100 130/12 RMK AO2 CIG 006V010 P0003
14837KMSN MSN20101124194512111/24/10 19:45:31  5-MIN KMSN 250145Z 13011KT 4SM -RA BR OVC008 03/02 A2973 1040 92 -100 130/11 RMK AO2 CIG 006V010 P0003
14837KMSN MSN20101124195013811/24/10 19:50:31  5-MIN KMSN 250150Z 13012KT 4SM -RA BR OVC008 03/02 A2973 1040 92 -100 130/12 RMK AO2 CIG 006V010 SLP075 P0004 T00280017
14837KMSN MSN20101124195512111/24/10 19:55:31  5-MIN KMSN 250155Z 14011KT 5SM -RA BR OVC008 03/02 A2973 1040 92 -100 140/11 RMK AO2 CIG 006V010 P0000
14837KMSN MSN20101124200012111/24/10 20:00:31  5-MIN KMSN 250200Z 14012KT 6SM -RA BR OVC008 03/02 A2973 1040 92 -100 140/12 RMK AO2 CIG 006V010 P0000
14837KMSN MSN20101124200512111/24/10 20:05:31  5-MIN KMSN 250205Z 13012KT 6SM -RA BR OVC008 03/02 A2972 1050 92 -100 130/12 RMK AO2 CIG 006V010 P0000
14837KMSN MSN20101124201012711/24/10 20:10:31  5-MIN KMSN 250210Z 14013G20KT 6SM -RA BR OVC008 03/02 A2971 1060 92 -100 130/13G20 RMK AO2 CIG 006V010 P0000
14837KMSN MSN20101124201511511/24/10 20:15:31  5-MIN KMSN 250215Z 13014G20KT 6SM -RA BR OVC008 03/02 A2971 1060 92 -100 130/14G20 RMK AO2 P0000
14837KMSN MSN20101124202010611/24/10 20:20:31  5-MIN KMSN 250220Z 14011KT 7SM -RA OVC008 03/02 A2971 1060 92 -100 140/11 RMK AO2 P0000
14837KMSN MSN20101124202510911/24/10 20:25:31  5-MIN KMSN 250225Z 14013KT 6SM -RA BR OVC008 03/02 A2971 1060 92 -100 140/13 RMK AO2 P0000
14837KMSN MSN20101124203011811/24/10 20:30:31  5-MIN KMSN 250230Z 15015KT 6SM -RA BR OVC008 03/02 A2972 1050 89 0 150/15 RMK AO2 CIG 007V011 P0000
14837KMSN MSN20101124203510611/24/10 20:35:31  5-MIN KMSN 250235Z 15012KT 6SM -RA BR OVC008 03/02 A2972 1050 89 0 140/12 RMK AO2 P0001
14837KMSN MSN20101124204010311/24/10 20:40:31  5-MIN KMSN 250240Z 15014KT 8SM -RA OVC008 03/02 A2972 1050 89 0 150/14 RMK AO2 P0001
14837KMSN MSN20101124204510311/24/10 20:45:31  5-MIN KMSN 250245Z 16013KT 8SM -RA OVC008 03/02 A2972 1050 89 0 160/13 RMK AO2 P0001
14837KMSN MSN20101124205013211/24/10 20:50:31  5-MIN KMSN 250250Z 16012KT 7SM -RA OVC008 03/02 A2972 1050 89 0 160/12 RMK AO2 SLP071 P0001 60012 T00330017 57036
14837KMSN MSN20101124205510311/24/10 20:55:31  5-MIN KMSN 250255Z 16013KT 7SM -RA OVC008 03/02 A2971 1060 92 0 150/13 RMK AO2 P0000
14837KMSN MSN20101124210010311/24/10 21:00:31  5-MIN KMSN 250300Z 14014KT 7SM -RA OVC008 03/02 A2971 1060 89 0 140/14 RMK AO2 P0000
14837KMSN MSN20101124210511511/24/10 21:05:31  5-MIN KMSN 250305Z 15011G18KT 6SM -RA BR OVC008 03/02 A2971 1060 96 -100 150/11G18 RMK AO2 P0000
14837KMSN MSN20101124211010911/24/10 21:10:31  5-MIN KMSN 250310Z 14014KT 4SM -RA BR OVC008 03/02 A2970 1070 96 -100 140/14 RMK AO2 P0000
14837KMSN MSN20101124211510911/24/10 21:15:31  5-MIN KMSN 250315Z 14013KT 3SM -RA BR OVC008 03/02 A2969 1070 96 -100 140/13 RMK AO2 P0000
14837KMSN MSN20101124212010911/24/10 21:20:31  5-MIN KMSN 250320Z 14014KT 3SM -RA BR OVC008 03/02 A2969 1080 96 -100 140/14 RMK AO2 P0001
14837KMSN MSN20101124212510911/24/10 21:25:31  5-MIN KMSN 250325Z 15014KT 3SM -RA BR OVC008 03/02 A2970 1070 96 -100 150/14 RMK AO2 P0001
14837KMSN MSN20101124213012111/24/10 21:30:31  5-MIN KMSN 250330Z 15012KT 3SM -RA BR OVC006 03/02 A2970 1070 96 -100 150/12 RMK AO2 CIG 005V010 P0001
14837KMSN MSN20101124213512111/24/10 21:35:31  5-MIN KMSN 250335Z 15010KT 3SM -RA BR OVC006 03/02 A2970 1070 96 -100 150/10 RMK AO2 CIG 005V010 P0001
14837KMSN MSN20101124214012111/24/10 21:40:31  5-MIN KMSN 250340Z 15012KT 3SM -RA BR OVC006 03/02 A2970 1070 96 -100 150/12 RMK AO2 CIG 005V010 P0001
14837KMSN MSN20101124214512111/24/10 21:45:31  5-MIN KMSN 250345Z 16011KT 3SM -RA BR OVC006 03/02 A2970 1070 96 -100 160/11 RMK AO2 CIG 005V010 P0001
14837KMSN MSN20101124215013811/24/10 21:50:31  5-MIN KMSN 250350Z 16011KT 3SM -RA BR OVC006 03/02 A2970 1070 96 -100 160/11 RMK AO2 CIG 005V010 SLP065 P0002 T00280022
14837KMSN MSN20101124215512111/24/10 21:55:31  5-MIN KMSN 250355Z 17009KT 3SM -RA BR OVC006 03/02 A2970 1070 96 -100 170/09 RMK AO2 CIG 005V010 P0000
14837KMSN MSN20101124220010911/24/10 22:00:31  5-MIN KMSN 250400Z 16009KT 3SM -RA BR OVC006 03/02 A2970 1070 96 -100 160/09 RMK AO2 P0000
14837KMSN MSN20101124220512111/24/10 22:05:31  5-MIN KMSN 250405Z 17010KT 3SM -RA BR OVC006 03/02 A2970 1070 96 -100 170/10 RMK AO2 CIG 004V009 P0000
14837KMSN MSN20101124221012111/24/10 22:10:31  5-MIN KMSN 250410Z 17010KT 3SM -RA BR OVC006 03/02 A2970 1070 96 -100 170/10 RMK AO2 CIG 004V008 P0000
14837KMSN MSN20101124221512111/24/10 22:15:31  5-MIN KMSN 250415Z 17009KT 3SM -RA BR OVC006 03/02 A2970 1070 96 -100 170/09 RMK AO2 CIG 004V008 P0001
14837KMSN MSN20101124222012111/24/10 22:20:31  5-MIN KMSN 250420Z 17009KT 3SM -RA BR OVC006 03/02 A2970 1070 96 -100 160/09 RMK AO2 CIG 004V011 P0001
14837KMSN MSN20101124222513111/24/10 22:25:31  5-MIN KMSN 250425Z 17008KT 2SM -RA BR OVC006 03/02 A2970 1070 96 -100 170/08 RMK AO2 TWR VIS 3 CIG 004V011 P0001
14837KMSN MSN20101124223013111/24/10 22:30:31  5-MIN KMSN 250430Z 16008KT 2SM -RA BR OVC006 03/02 A2970 1070 96 -100 160/08 RMK AO2 TWR VIS 3 CIG 004V011 P0001
14837KMSN MSN20101124223513111/24/10 22:35:31  5-MIN KMSN 250435Z 16008KT 2SM -RA BR OVC006 03/02 A2970 1070 96 -100 160/08 RMK AO2 TWR VIS 3 CIG 004V008 P0001
14837KMSN MSN20101124224013111/24/10 22:40:31  5-MIN KMSN 250440Z 16008KT 2SM -RA BR OVC006 03/02 A2970 1070 96 -100 160/08 RMK AO2 TWR VIS 3 CIG 004V010 P0001
14837KMSN MSN20101124224513111/24/10 22:45:31  5-MIN KMSN 250445Z 16008KT 2SM -RA BR OVC006 03/02 A2969 1070 96 -100 160/08 RMK AO2 TWR VIS 3 CIG 004V010 P0001
14837KMSN MSN20101124225014811/24/10 22:50:31  5-MIN KMSN 250450Z 17007KT 2SM -RA BR OVC006 03/02 A2969 1080 96 -100 170/07 RMK AO2 TWR VIS 3 CIG 004V010 SLP063 P0001 T00280022
14837KMSN MSN20101124225510911/24/10 22:55:31  5-MIN KMSN 250455Z 16006KT 2SM -RA BR OVC006 03/02 A2969 1080 96 -100 160/06 RMK AO2 P0000
14837KMSN MSN20101124230010911/24/10 23:00:31  5-MIN KMSN 250500Z 17005KT 2SM -RA BR OVC006 03/02 A2969 1070 96 -100 160/05 RMK AO2 P0001
14837KMSN MSN20101124230511011/24/10 23:05:31  5-MIN KMSN 250505Z 16005KT 2SM -RA BR OVC006 03/03 A2969 1080 100 -100 160/05 RMK AO2 P0001
14837KMSN MSN20101124231011411/24/10 23:10:31  5-MIN KMSN 250510Z 17005KT 2 1/2SM -RA BR OVC006 03/03 A2969 1080 100 -100 170/05 RMK AO2 P0001
14837KMSN MSN20101124231511311/24/10 23:15:31  5-MIN KMSN 250515Z 17006KT 2 1/2SM -RA BR OVC006 03/02 A2969 1080 96 -100 170/06 RMK AO2 P0001
14837KMSN MSN20101124232011411/24/10 23:20:31  5-MIN KMSN 250520Z 17004KT 2 1/2SM -RA BR OVC006 03/03 A2969 1080 100 -100 170/04 RMK AO2 P0001
14837KMSN MSN20101124232512511/24/10 23:25:31  5-MIN KMSN 250525Z 16006KT 2 1/2SM -RA BR OVC006 03/02 A2969 1080 96 -100 160/06 RMK AO2 CIG 003V007 P0001
14837KMSN MSN20101124233011311/24/10 23:30:31  5-MIN KMSN 250530Z 16005KT 2 1/2SM -RA BR OVC006 03/02 A2969 1080 96 -100 160/05 RMK AO2 P0001
14837KMSN MSN20101124233511411/24/10 23:35:31  5-MIN KMSN 250535Z 00000KT 2 1/2SM -RA BR OVC004 03/03 A2970 1070 100 -100 000/00 RMK AO2 P0001
14837KMSN MSN20101124234011411/24/10 23:40:31  5-MIN KMSN 250540Z 00000KT 2 1/2SM -RA BR OVC004 03/03 A2970 1070 100 -100 000/00 RMK AO2 P0001
14837KMSN MSN20101124234512511/24/10 23:45:31  5-MIN KMSN 250545Z 18003KT 2 1/2SM -DZ BR OVC004 03/03 A2970 1070 100 -100 170/03 RMK AO2 RAE41DZB41 P0001
14837KMSN MSN20101124235017511/24/10 23:50:31  5-MIN KMSN 250550Z 17004KT 2 1/2SM -DZ BR OVC004 03/02 A2970 1070 96 -100 170/04 RMK AO2 RAE41DZB41 SLP064 P0001 60016 T00280022 10033 20017 400331083 58013
14837KMSN MSN20101124235512511/24/10 23:55:31  5-MIN KMSN 250555Z 18005KT 2 1/2SM -DZ BR OVC004 03/02 A2970 1070 96 -100 170/05 RMK AO2 CIG 003V008 P0000
14837KMSN MSN20101125000012211/25/10 00:00:32  5-MIN KMSN 250600Z 18005KT 2 1/2SM -DZ BR OVC004 03/02 A2970 1070 92 0 180/05 RMK AO2 CIG 003V009 P0000
14837KMSN MSN20101125000512211/25/10 00:05:31  5-MIN KMSN 250605Z 18005KT 2 1/2SM -DZ BR OVC004 03/03 A2970 1070 96 0 180/05 RMK AO2 CIG 003V009 P0000
14837KMSN MSN20101125001012211/25/10 00:10:31  5-MIN KMSN 250610Z 18004KT 2 1/2SM -DZ BR OVC004 03/03 A2969 1070 96 0 180/04 RMK AO2 CIG 003V007 P0000
14837KMSN MSN20101125001511811/25/10 00:15:31  5-MIN KMSN 250615Z 18004KT 2SM -DZ BR OVC004 03/03 A2969 1070 96 0 180/04 RMK AO2 CIG 003V009 P0000
14837KMSN MSN20101125002011811/25/10 00:20:31  5-MIN KMSN 250620Z 19003KT 2SM -DZ BR OVC004 03/03 A2970 1070 96 0 190/03 RMK AO2 CIG 003V007 P0000
14837KMSN MSN20101125002511811/25/10 00:25:31  5-MIN KMSN 250625Z 18003KT 2SM -DZ BR OVC004 03/03 A2969 1070 96 0 180/03 RMK AO2 CIG 003V007 P0000
14837KMSN MSN20101125003012211/25/10 00:30:31  5-MIN KMSN 250630Z 18004KT 2 1/2SM -DZ BR OVC004 03/03 A2969 1070 96 0 180/04 RMK AO2 CIG 003V007 P0001
14837KMSN MSN20101125003512911/25/10 00:35:31  5-MIN KMSN 250635Z 19005KT 2 1/2SM -DZ BR BKN004 OVC009 03/03 A2969 1080 96 0 190/05 RMK AO2 CIG 003V007 P0001
14837KMSN MSN20101125004011811/25/10 00:40:31  5-MIN KMSN 250640Z 19003KT 3SM -DZ BR OVC007 03/03 A2969 1080 96 0 190/03 RMK AO2 CIG 003V008 P0001
14837KMSN MSN20101125004511811/25/10 00:45:31  5-MIN KMSN 250645Z 00000KT 3SM -DZ BR OVC005 03/03 A2969 1080 96 0 000/00 RMK AO2 CIG 003V010 P0001
14837KMSN MSN20101125005012211/25/10 00:50:31  5-MIN KMSN 250650Z 00000KT 2 1/2SM -DZ BR OVC005 03/03 A2969 1080 96 0 000/00 RMK AO2 CIG 003V008 P0001
14837KMSN MSN20101125005512511/25/10 00:55:31  5-MIN KMSN 250655Z 20003KT 2SM -DZ BR BKN005 OVC010 03/03 A2969 1070 96 0 200/03 RMK AO2 CIG 003V007 P0000
14837KMSN MSN20101125010011811/25/10 01:00:31  5-MIN KMSN 250700Z 20003KT 2SM -DZ BR OVC005 03/03 A2969 1070 96 0 200/03 RMK AO2 CIG 003V009 P0000
14837KMSN MSN20101125010513311/25/10 01:05:31  5-MIN KMSN 250705Z 20006KT 2 1/2SM -DZ BR BKN005 OVC009 03/03 A2970 1070 100 -100 200/06 RMK AO2 CIG 003V007 P0000
14837KMSN MSN20101125011012111/25/10 01:10:31  5-MIN KMSN 250710Z 21004KT 3SM -DZ BR OVC007 03/02 A2970 1070 96 -100 200/04 RMK AO2 CIG 003V011 P0000
14837KMSN MSN20101125011512111/25/10 01:15:31  5-MIN KMSN 250715Z 20004KT 3SM -DZ BR OVC007 03/02 A2969 1070 96 -100 200/04 RMK AO2 CIG 003V011 P0000
14837KMSN MSN20101125012012511/25/10 01:20:31  5-MIN KMSN 250720Z 19004KT 2 1/2SM -DZ BR OVC007 03/02 A2969 1080 96 -100 190/04 RMK AO2 CIG 003V011 P0000
14837KMSN MSN20101125012512511/25/10 01:25:31  5-MIN KMSN 250725Z 18005KT 2 1/2SM -DZ BR OVC007 03/02 A2969 1080 96 -100 180/05 RMK AO2 CIG 003V011 P0000
14837KMSN MSN20101125013012311/25/10 01:30:31  5-MIN KMSN 250730Z 17004KT 2 1/2SM -DZ BR OVC007 03/03 A2968 1080 100 0 170/04 RMK AO2 CIG 003V011 P0000
14837KMSN MSN20101125013512911/25/10 01:35:31  5-MIN KMSN 250735Z 16005KT 2 1/2SM -DZ BR BKN007 OVC011 03/02 A2968 1090 96 0 160/05 RMK AO2 CIG 003V009 P0000
14837KMSN MSN20101125014013611/25/10 01:40:31  5-MIN KMSN 250740Z 16005KT 2 1/2SM -DZ BR SCT005 OVC009 03/02 A2967 1100 96 0 160/05 RMK AO2 CIG 007V012 PRESFR P0000
14837KMSN MSN20101125014512411/25/10 01:45:31  5-MIN KMSN 250745Z 15006KT 2 1/2SM BR OVC007 03/02 A2967 1100 96 0 150/06 RMK AO2 DZE45 CIG 003V009 P0000
14837KMSN MSN20101125015014811/25/10 01:50:31  5-MIN KMSN 250750Z 16005KT 2 1/2SM BR BKN007 OVC011 03/02 A2967 1100 96 0 160/05 RMK AO2 DZE45 CIG 003V009 SLP054 P0000 T00280022
14837KMSN MSN20101125015511511/25/10 01:55:31  5-MIN KMSN 250755Z 16005KT 5SM BR BKN007 OVC011 03/02 A2967 1100 96 0 160/05 RMK AO2 CIG 003V009
14837KMSN MSN20101125020010811/25/10 02:00:31  5-MIN KMSN 250800Z 16006KT 6SM BR OVC007 03/02 A2967 1100 96 0 160/06 RMK AO2 CIG 003V012
14837KMSN MSN20101125020510511/25/10 02:05:31  5-MIN KMSN 250805Z 18004KT 7SM OVC007 03/02 A2967 1100 96 0 170/04 RMK AO2 CIG 004V011
14837KMSN MSN20101125021010511/25/10 02:10:31  5-MIN KMSN 250810Z 17005KT 8SM OVC007 03/02 A2968 1090 96 0 170/05 RMK AO2 CIG 004V010
14837KMSN MSN20101125021510511/25/10 02:15:31  5-MIN KMSN 250815Z 19006KT 8SM OVC007 03/02 A2968 1090 96 0 190/06 RMK AO2 CIG 004V010
14837KMSN MSN20101125022010511/25/10 02:20:31  5-MIN KMSN 250820Z 19005KT 9SM OVC007 03/02 A2968 1090 96 0 190/05 RMK AO2 CIG 004V010
14837KMSN MSN20101125022510611/25/10 02:25:31  5-MIN KMSN 250825Z 00000KT 10SM OVC007 03/02 A2968 1090 96 0 000/00 RMK AO2 CIG 004V009
14837KMSN MSN20101125023010611/25/10 02:30:31  5-MIN KMSN 250830Z 20003KT 10SM OVC007 03/02 A2968 1090 96 0 200/03 RMK AO2 CIG 004V009
14837KMSN MSN20101125023509411/25/10 02:35:31  5-MIN KMSN 250835Z 21003KT 10SM OVC007 03/02 A2968 1090 96 0 210/03 RMK AO2
14837KMSN MSN20101125024009411/25/10 02:40:31  5-MIN KMSN 250840Z 19003KT 10SM OVC007 03/02 A2967 1100 96 0 190/03 RMK AO2
14837KMSN MSN20101125024509411/25/10 02:45:31  5-MIN KMSN 250845Z 18004KT 10SM OVC007 03/02 A2967 1100 96 0 180/04 RMK AO2
14837KMSN MSN20101125025012311/25/10 02:50:31  5-MIN KMSN 250850Z 19003KT 10SM OVC007 03/02 A2967 1100 96 0 190/03 RMK AO2 SLP055 60001 T00280022 55006
14837KMSN MSN20101125025509411/25/10 02:55:31  5-MIN KMSN 250855Z 21003KT 10SM OVC007 03/02 A2968 1090 96 0 210/03 RMK AO2
14837KMSN MSN20101125030009311/25/10 03:00:31  5-MIN KMSN 250900Z 23003KT 9SM OVC007 03/02 A2968 1090 96 0 230/03 RMK AO2
14837KMSN MSN20101125030510511/25/10 03:05:31  5-MIN KMSN 250905Z 00000KT 9SM OVC007 03/02 A2968 1090 96 0 000/00 RMK AO2 CIG 005V010
14837KMSN MSN20101125031011211/25/10 03:10:31  5-MIN KMSN 250910Z 00000KT 8SM BKN007 OVC013 03/02 A2968 1090 96 0 000/00 RMK AO2 CIG 005V010
14837KMSN MSN20101125031511211/25/10 03:15:31  5-MIN KMSN 250915Z VRB03KT 8SM BKN007 OVC013 03/02 A2968 1090 96 0 VRB/03 RMK AO2 CIG 005V010
14837KMSN MSN20101125032010011/25/10 03:20:31  5-MIN KMSN 250920Z 22003KT 8SM BKN007 OVC011 03/02 A2968 1090 92 0 220/03 RMK AO2
14837KMSN MSN20101125032510011/25/10 03:25:31  5-MIN KMSN 250925Z 22003KT 8SM BKN007 OVC013 03/02 A2968 1090 96 0 220/03 RMK AO2
14837KMSN MSN20101125033010011/25/10 03:30:31  5-MIN KMSN 250930Z 20003KT 8SM BKN007 OVC013 03/02 A2968 1090 96 0 200/03 RMK AO2
14837KMSN MSN20101125033511211/25/10 03:35:31  5-MIN KMSN 250935Z 00000KT 8SM BKN007 OVC013 03/02 A2967 1100 96 0 000/00 RMK AO2 CIG 006V010
14837KMSN MSN20101125034010511/25/10 03:40:31  5-MIN KMSN 250940Z 00000KT 8SM OVC007 03/02 A2967 1100 96 0 000/00 RMK AO2 CIG 006V010
14837KMSN MSN20101125034509311/25/10 03:45:31  5-MIN KMSN 250945Z 00000KT 8SM OVC007 03/02 A2967 1090 96 0 000/00 RMK AO2
14837KMSN MSN20101125035012211/25/10 03:50:31  5-MIN KMSN 250950Z 00000KT 8SM OVC007 03/02 A2968 1090 96 0 000/00 RMK AO2 CIG 006V012 SLP057 T00280022
14837KMSN MSN20101125035510511/25/10 03:55:31  5-MIN KMSN 250955Z 00000KT 7SM OVC007 03/02 A2967 1090 96 0 000/00 RMK AO2 CIG 006V012
14837KMSN MSN20101125040010511/25/10 04:00:31  5-MIN KMSN 251000Z 00000KT 7SM OVC007 03/02 A2968 1090 96 0 000/00 RMK AO2 CIG 006V011
14837KMSN MSN20101125040510511/25/10 04:05:31  5-MIN KMSN 251005Z 00000KT 7SM OVC007 03/02 A2968 1090 96 0 000/00 RMK AO2 CIG 006V012
14837KMSN MSN20101125041010811/25/10 04:10:31  5-MIN KMSN 251010Z 00000KT 6SM BR OVC007 03/02 A2968 1090 96 0 000/00 RMK AO2 CIG 006V012
14837KMSN MSN20101125041511511/25/10 04:15:31  5-MIN KMSN 251015Z 28003KT 6SM BR BKN007 OVC013 03/02 A2968 1090 96 0 280/03 RMK AO2 CIG 006V009
14837KMSN MSN20101125042011511/25/10 04:20:31  5-MIN KMSN 251020Z 00000KT 6SM BR BKN007 OVC013 03/02 A2968 1090 92 0 000/00 RMK AO2 CIG 006V011
14837KMSN MSN20101125042510311/25/10 04:25:31  5-MIN KMSN 251025Z VRB03KT 6SM BR SCT007 OVC013 03/02 A2968 1090 92 0 VRB/03 RMK AO2
14837KMSN MSN20101125043010311/25/10 04:30:31  5-MIN KMSN 251030Z 00000KT 6SM BR SCT007 OVC013 03/02 A2968 1090 92 0 000/00 RMK AO2
14837KMSN MSN20101125043510311/25/10 04:35:31  5-MIN KMSN 251035Z 28003KT 6SM BR FEW007 OVC013 03/02 A2968 1090 92 0 280/03 RMK AO2
14837KMSN MSN20101125044010311/25/10 04:40:31  5-MIN KMSN 251040Z 00000KT 6SM BR FEW007 OVC013 03/02 A2967 1090 92 0 000/00 RMK AO2
14837KMSN MSN20101125044510311/25/10 04:45:31  5-MIN KMSN 251045Z 28004KT 6SM BR FEW007 OVC013 03/02 A2968 1090 92 0 280/04 RMK AO2
14837KMSN MSN20101125045011711/25/10 04:50:31  5-MIN KMSN 251050Z 30003KT 7SM FEW007 OVC013 03/02 A2968 1090 92 0 290/03 RMK AO2 SLP057 T00280017
14837KMSN MSN20101125045510711/25/10 04:55:31  5-MIN KMSN 251055Z VRB03KT 7SM FEW005 SCT010 OVC013 03/02 A2967 1090 92 0 VRB/03 RMK AO2
14837KMSN MSN20101125050010311/25/10 05:00:31  5-MIN KMSN 251100Z 29003KT 6SM BR FEW007 OVC013 03/02 A2967 1090 92 0 290/03 RMK AO2
14837KMSN MSN20101125050510311/25/10 05:05:31  5-MIN KMSN 251105Z VRB04KT 6SM BR SCT007 OVC013 03/02 A2967 1090 92 0 VRB/04 RMK AO2
14837KMSN MSN20101125051010611/25/10 05:10:31  5-MIN KMSN 251110Z 28004KT 5SM BR SCT005 OVC013 02/02 A2967 1100 96 -100 280/04 RMK AO2
14837KMSN MSN20101125051510611/25/10 05:15:31  5-MIN KMSN 251115Z 28004KT 5SM BR SCT005 OVC013 02/02 A2966 1100 96 -100 280/04 RMK AO2
14837KMSN MSN20101125052010611/25/10 05:20:31  5-MIN KMSN 251120Z 28004KT 5SM BR FEW005 OVC013 02/02 A2967 1100 96 -100 280/04 RMK AO2
14837KMSN MSN20101125052510611/25/10 05:25:31  5-MIN KMSN 251125Z 29004KT 6SM BR SCT007 OVC013 02/02 A2968 1090 96 -100 290/04 RMK AO2
14837KMSN MSN20101125053011811/25/10 05:30:31  5-MIN KMSN 251130Z 29006KT 5SM BR BKN007 OVC013 02/02 A2967 1090 96 -100 290/06 RMK AO2 CIG 004V009
14837KMSN MSN20101125053512511/25/10 05:35:31  5-MIN KMSN 251135Z 30006KT 4SM BR BKN007 BKN011 OVC016 02/02 A2967 1100 96 -100 290/06 RMK AO2 CIG 004V008
14837KMSN MSN20101125054011811/25/10 05:40:31  5-MIN KMSN 251140Z 29007KT 5SM BR BKN007 OVC014 02/02 A2969 1080 96 -100 280/07 RMK AO2 CIG 004V008
14837KMSN MSN20101125054512511/25/10 05:45:31  5-MIN KMSN 251145Z 27005KT 4SM BR BKN005 OVC014 02/02 A2970 1070 96 -100 270/05 RMK AO2 CIG 004V010 PRESRR
14837KMSN MSN20101125055016511/25/10 05:50:31  5-MIN KMSN 251150Z VRB06KT 3SM BR OVC005 02/01 A2970 1060 92 -100 VRB/06 RMK AO2 CIG 004V010 PRESRR SLP067 60001 70032 T00220011 10033 20022 55005
14837KMSN MSN20101125055509911/25/10 05:55:31  5-MIN KMSN 251155Z VRB04KT 4SM BR OVC005 02/01 A2971 1060 92 -100 VRB/04 RMK AO2
14837KMSN MSN20101125060009911/25/10 06:00:31  5-MIN KMSN 251200Z 28006KT 4SM BR OVC005 02/01 A2971 1060 92 -100 280/06 RMK AO2
14837KMSN MSN20101125060511111/25/10 06:05:31  5-MIN KMSN 251205Z 28007KT 4SM BR OVC005 02/01 A2970 1060 92 -100 280/07 RMK AO2 CIG 004V009
14837KMSN MSN20101125061012411/25/10 06:10:31  5-MIN KMSN 251210Z 30010G14KT 4SM BR BKN007 OVC014 02/01 A2970 1070 96 -200 300/10G14 RMK AO2 CIG 005V009
14837KMSN MSN20101125061511211/25/10 06:15:31  5-MIN KMSN 251215Z 30007G14KT 5SM BR BKN007 OVC014 02/01 A2969 1080 92 -200 290/07G14 RMK AO2
14837KMSN MSN20101125062012511/25/10 06:20:31  5-MIN KMSN 251220Z 31006KT 6SM BR BKN007 BKN014 OVC022 02/01 A2969 1070 92 -200 310/06 RMK AO2 CIG 005V010
14837KMSN MSN20101125062512211/25/10 06:25:31  5-MIN KMSN 251225Z 30006KT 8SM BKN007 BKN014 OVC030 02/01 A2970 1070 92 -200 300/06 RMK AO2 CIG 005V009
14837KMSN MSN20101125063011111/25/10 06:30:31  5-MIN KMSN 251230Z 29004KT 10SM SCT007 BKN014 OVC030 02/01 A2971 1060 92 -200 290/04 RMK AO2
14837KMSN MSN20101125063511811/25/10 06:35:31  5-MIN KMSN 251235Z 29008KT 10SM SCT007 BKN023 OVC030 02/01 A2971 1060 92 -200 290/08 RMK AO2 PRESRR
14837KMSN MSN20101125064011111/25/10 06:40:31  5-MIN KMSN 251240Z 30006KT 10SM SCT007 BKN023 OVC030 02/01 A2971 1060 92 -200 300/06 RMK AO2
14837KMSN MSN20101125064511111/25/10 06:45:31  5-MIN KMSN 251245Z 30006KT 10SM SCT007 BKN023 OVC030 02/00 A2971 1060 89 -200 300/06 RMK AO2
14837KMSN MSN20101125065012811/25/10 06:50:31  5-MIN KMSN 251250Z 29006KT 10SM SCT007 BKN023 OVC030 02/01 A2972 1050 92 -200 290/06 RMK AO2 SLP071 T00170006
14837KMSN MSN20101125065509711/25/10 06:55:31  5-MIN KMSN 251255Z 29005KT 10SM OVC028 01/01 A2972 1050 96 -300 290/05 RMK AO2
14837KMSN MSN20101125070009711/25/10 07:00:31  5-MIN KMSN 251300Z 30005KT 10SM OVC028 01/01 A2972 1050 96 -300 290/05 RMK AO2
14837KMSN MSN20101125070509711/25/10 07:05:31  5-MIN KMSN 251305Z 29005KT 10SM OVC028 01/01 A2972 1050 96 -300 290/05 RMK AO2
14837KMSN MSN20101125071009711/25/10 07:10:31  5-MIN KMSN 251310Z 29006KT 10SM OVC028 01/01 A2972 1050 96 -300 290/06 RMK AO2
14837KMSN MSN20101125071509711/25/10 07:15:31  5-MIN KMSN 251315Z 31005KT 10SM OVC026 01/00 A2971 1060 92 -300 310/05 RMK AO2
14837KMSN MSN20101125072010411/25/10 07:20:31  5-MIN KMSN 251320Z 30003KT 10SM FEW012 OVC026 01/00 A2971 1060 92 -300 300/03 RMK AO2
14837KMSN MSN20101125072510411/25/10 07:25:31  5-MIN KMSN 251325Z 30005KT 10SM SCT012 OVC026 01/00 A2971 1060 92 -300 300/05 RMK AO2
14837KMSN MSN20101125073010411/25/10 07:30:31  5-MIN KMSN 251330Z 29004KT 10SM SCT014 OVC026 01/01 A2971 1060 96 -300 290/04 RMK AO2
14837KMSN MSN20101125073510411/25/10 07:35:31  5-MIN KMSN 251335Z 30003KT 10SM SCT014 OVC026 02/00 A2971 1060 89 -200 300/03 RMK AO2
14837KMSN MSN20101125074010411/25/10 07:40:31  5-MIN KMSN 251340Z 29004KT 10SM FEW014 OVC026 01/01 A2971 1060 96 -300 290/04 RMK AO2
14837KMSN MSN20101125074510411/25/10 07:45:31  5-MIN KMSN 251345Z 30005KT 10SM SCT014 OVC026 01/00 A2971 1060 92 -300 300/05 RMK AO2
14837KMSN MSN20101125075010411/25/10 07:50:31  5-MIN KMSN 251350Z 30004KT 10SM BKN014 OVC026 02/00 A2971 1050 89 -200 300/04 RMK AO2
14837KMSN MSN20101125075510411/25/10 07:55:31  5-MIN KMSN 251355Z 29005KT 10SM BKN011 OVC026 02/00 A2972 1050 89 -200 290/05 RMK AO2
14837KMSN MSN20101125080010411/25/10 08:00:31  5-MIN KMSN 251400Z 30004KT 10SM BKN011 OVC026 02/00 A2972 1050 89 -200 300/04 RMK AO2
14837KMSN MSN20101125080510411/25/10 08:05:31  5-MIN KMSN 251405Z 30005KT 10SM BKN011 OVC026 02/00 A2971 1060 89 -200 300/05 RMK AO2
14837KMSN MSN20101125081010411/25/10 08:10:31  5-MIN KMSN 251410Z 29005KT 10SM BKN011 OVC017 01/00 A2972 1050 92 -300 290/05 RMK AO2
14837KMSN MSN20101125081510411/25/10 08:15:31  5-MIN KMSN 251415Z 29004KT 10SM BKN011 OVC019 01/00 A2972 1050 92 -300 290/04 RMK AO2
14837KMSN MSN20101125082011511/25/10 08:20:31  5-MIN KMSN 251420Z 28004KT 9SM BKN011 OVC019 01/00 A2972 1050 92 -300 280/04 RMK AO2 CIG 008V015
14837KMSN MSN20101125082509611/25/10 08:25:31  5-MIN KMSN 251425Z 29006KT 9SM OVC011 01/00 A2972 1050 92 -300 290/06 RMK AO2
14837KMSN MSN20101125083010411/25/10 08:30:31  5-MIN KMSN 251430Z 29006KT 10SM SCT010 OVC015 01/00 A2972 1050 92 -300 290/06 RMK AO2
14837KMSN MSN20101125083509711/25/10 08:35:31  5-MIN KMSN 251435Z 28004KT 10SM OVC013 01/00 A2972 1050 92 -300 280/04 RMK AO2
14837KMSN MSN20101125084009711/25/10 08:40:31  5-MIN KMSN 251440Z VRB04KT 10SM OVC013 01/00 A2972 1050 92 -300 VRB/04 RMK AO2
14837KMSN MSN20101125084511711/25/10 08:45:31  5-MIN KMSN 251445Z 30006KT 10SM BKN010 OVC015 01/M01 A2972 1050 89 -300 300/06 RMK AO2 CIG 008V013
14837KMSN MSN20101125085014011/25/10 08:50:31  5-MIN KMSN 251450Z 29006KT 10SM BKN010 OVC015 01/M01 A2972 1050 89 -300 280/06 RMK AO2 CIG 009V013 SLP073 T00111006 53011
14837KMSN MSN20101125085511011/25/10 08:55:31  5-MIN KMSN 251455Z 30008KT 10SM OVC010 01/M01 A2972 1050 89 -300 290/08 RMK AO2 CIG 009V014
14837KMSN MSN20101125090009811/25/10 09:00:31  5-MIN KMSN 251500Z 29007KT 10SM OVC010 01/M01 A2973 1040 92 -400 290/07 RMK AO2
14837KMSN MSN20101125090511311/25/10 09:05:31  5-MIN KMSN 251505Z 29007KT 260V330 9SM OVC010 01/M01 A2973 1050 92 -400 290/07 260V330 RMK AO2
14837KMSN MSN20101125091009711/25/10 09:10:31  5-MIN KMSN 251510Z 30008KT 9SM OVC010 01/M01 A2973 1040 89 -400 300/08 RMK AO2
14837KMSN MSN20101125091509711/25/10 09:15:31  5-MIN KMSN 251515Z 29007KT 9SM OVC010 01/M01 A2973 1040 89 -400 290/07 RMK AO2
14837KMSN MSN20101125092009811/25/10 09:20:31  5-MIN KMSN 251520Z 30006KT 10SM OVC012 01/M01 A2973 1040 89 -400 300/06 RMK AO2
14837KMSN MSN20101125092509811/25/10 09:25:31  5-MIN KMSN 251525Z 30007KT 10SM OVC012 01/M01 A2973 1040 89 -400 300/07 RMK AO2
14837KMSN MSN20101125093009811/25/10 09:30:31  5-MIN KMSN 251530Z 29006KT 10SM OVC012 01/M02 A2974 1040 85 -400 290/06 RMK AO2
14837KMSN MSN20101125093509811/25/10 09:35:31  5-MIN KMSN 251535Z 28007KT 10SM OVC012 01/M02 A2974 1030 85 -400 280/07 RMK AO2
14837KMSN MSN20101125094010311/25/10 09:40:31  5-MIN KMSN 251540Z 29008G15KT 9SM OVC012 00/M02 A2974 1030 88 -500 290/08G15 RMK AO2
14837KMSN MSN20101125094510311/25/10 09:45:31  5-MIN KMSN 251545Z 30007G15KT 8SM OVC012 00/M02 A2974 1030 88 -500 300/07G15 RMK AO2
14837KMSN MSN20101125095012011/25/10 09:50:31  5-MIN KMSN 251550Z 29010G15KT 7SM OVC012 00/M02 A2974 1030 88 -500 290/10G15 RMK AO2 SLP080 T00001017
14837KMSN MSN20101125095511811/25/10 09:55:31  5-MIN KMSN 251555Z 29008G16KT 5SM BR OVC010 00/M02 A2974 1030 85 -500 290/08G16 RMK AO2 CIG 009V013
14837KMSN MSN20101125100010711/25/10 10:00:31  5-MIN KMSN 251600Z 29011G16KT 5SM BR OVC010 M01/M02 A2975 1020 88 -500 290/11G16 RMK AO2
14837KMSN MSN20101125100510711/25/10 10:05:31  5-MIN KMSN 251605Z 30006G15KT 5SM BR OVC010 M01/M02 A2975 1020 88 -500 290/06G15 RMK AO2
14837KMSN MSN20101125101010711/25/10 10:10:31  5-MIN KMSN 251610Z 30009G15KT 5SM BR OVC010 M01/M02 A2976 1020 88 -500 300/09G15 RMK AO2
14837KMSN MSN20101125101510711/25/10 10:15:31  5-MIN KMSN 251615Z 30008G15KT 5SM BR OVC010 M01/M02 A2976 1010 88 -500 300/08G15 RMK AO2
14837KMSN MSN20101125102010111/25/10 10:20:31  5-MIN KMSN 251620Z 30008KT 5SM BR OVC010 M01/M02 A2977 1010 88 -600 300/08 RMK AO2
14837KMSN MSN20101125102511311/25/10 10:25:31  5-MIN KMSN 251625Z 28004KT 5SM BR OVC010 M01/M02 A2976 1010 88 -600 280/04 RMK AO2 CIG 009V013
14837KMSN MSN20101125103010711/25/10 10:30:31  5-MIN KMSN 251630Z 30009G18KT 5SM BR OVC010 M01/M02 A2975 1020 88 -500 290/09G18 RMK AO2
14837KMSN MSN20101125103510711/25/10 10:35:31  5-MIN KMSN 251635Z 31008G18KT 6SM HZ BKN010 M01/M03 A2976 1020 81 -500 310/08G18 RMK AO2
14837KMSN MSN20101125104011111/25/10 10:40:31  5-MIN KMSN 251640Z 29010G15KT 8SM BKN010 BKN017 M01/M03 A2976 1020 81 -500 290/10G15 RMK AO2
14837KMSN MSN20101125104511211/25/10 10:45:31  5-MIN KMSN 251645Z 29009G15KT 10SM SCT012 BKN017 M01/M04 A2975 1020 78 -500 290/09G15 RMK AO2
14837KMSN MSN20101125105012911/25/10 10:50:31  5-MIN KMSN 251650Z 30010G14KT 10SM SCT012 BKN017 M01/M04 A2975 1020 75 -500 300/10G14 RMK AO2 SLP082 T10061044
14837KMSN MSN20101125105510611/25/10 10:55:31  5-MIN KMSN 251655Z 29008KT 10SM FEW012 BKN019 M01/M04 A2975 1030 78 -600 290/08 RMK AO2
14837KMSN MSN20101125110009911/25/10 11:00:31  5-MIN KMSN 251700Z 31007KT 10SM BKN019 M01/M04 A2975 1020 75 -500 310/07 RMK AO2
14837KMSN MSN20101125110509911/25/10 11:05:31  5-MIN KMSN 251705Z 30009KT 10SM BKN019 M01/M04 A2975 1020 78 -600 300/09 RMK AO2
14837KMSN MSN20101125111010511/25/10 11:10:31  5-MIN KMSN 251710Z 31011G16KT 10SM BKN019 M01/M05 A2974 1030 72 -500 310/11G16 RMK AO2
14837KMSN MSN20101125111510511/25/10 11:15:31  5-MIN KMSN 251715Z 30011G16KT 10SM BKN019 M01/M05 A2975 1030 75 -600 300/11G16 RMK AO2
14837KMSN MSN20101125112010511/25/10 11:20:31  5-MIN KMSN 251720Z 28010G16KT 10SM BKN019 M01/M05 A2975 1020 75 -600 280/10G16 RMK AO2
14837KMSN MSN20101125112510511/25/10 11:25:31  5-MIN KMSN 251725Z 29009G16KT 10SM BKN019 M01/M05 A2975 1020 75 -600 290/09G16 RMK AO2
14837KMSN MSN20101125113009911/25/10 11:30:31  5-MIN KMSN 251730Z 30012KT 10SM BKN021 M01/M05 A2975 1020 75 -600 290/12 RMK AO2
14837KMSN MSN20101125113510511/25/10 11:35:31  5-MIN KMSN 251735Z 31013G19KT 10SM BKN021 M01/M06 A2974 1030 72 -600 310/13G19 RMK AO2
14837KMSN MSN20101125114010511/25/10 11:40:31  5-MIN KMSN 251740Z 31010G19KT 10SM BKN021 M01/M06 A2974 1030 72 -600 310/10G19 RMK AO2
14837KMSN MSN20101125114510511/25/10 11:45:31  5-MIN KMSN 251745Z 31011G16KT 10SM BKN021 M01/M06 A2975 1030 72 -600 310/11G16 RMK AO2
14837KMSN MSN20101125115014011/25/10 11:50:31  5-MIN KMSN 251750Z 30012G18KT 10SM BKN021 M02/M06 A2975 1030 75 -700 300/12G18 RMK AO2 SLP082 T10171056 10022 21017 51005
14837KMSN MSN20101125115510511/25/10 11:55:31  5-MIN KMSN 251755Z 29011G18KT 10SM BKN021 M02/M06 A2975 1030 75 -700 280/11G18 RMK AO2
14837KMSN MSN20101125120010511/25/10 12:00:31  5-MIN KMSN 251800Z 29011G19KT 10SM OVC021 M02/M06 A2974 1030 75 -700 280/11G19 RMK AO2
14837KMSN MSN20101125120510511/25/10 12:05:31  5-MIN KMSN 251805Z 29013G19KT 10SM OVC021 M02/M06 A2975 1020 75 -700 290/13G19 RMK AO2
14837KMSN MSN20101125121010511/25/10 12:10:31  5-MIN KMSN 251810Z 29011G19KT 10SM OVC021 M02/M07 A2975 1020 72 -800 290/11G19 RMK AO2
14837KMSN MSN20101125121510511/25/10 12:15:31  5-MIN KMSN 251815Z 29010G20KT 10SM OVC021 M02/M07 A2976 1010 69 -800 290/10G20 RMK AO2
14837KMSN MSN20101125122010511/25/10 12:20:31  5-MIN KMSN 251820Z 30009G20KT 10SM BKN021 M02/M07 A2975 1020 69 -800 300/09G20 RMK AO2
14837KMSN MSN20101125122510511/25/10 12:25:31  5-MIN KMSN 251825Z 30011G18KT 10SM BKN023 M02/M07 A2976 1020 69 -800 300/11G18 RMK AO2
14837KMSN MSN20101125123010511/25/10 12:30:31  5-MIN KMSN 251830Z 30010G19KT 10SM SCT021 M02/M08 A2975 1020 63 -700 300/10G19 RMK AO2
14837KMSN MSN20101125123510511/25/10 12:35:31  5-MIN KMSN 251835Z 29011G19KT 10SM SCT021 M03/M09 A2975 1020 63 -800 290/11G19 RMK AO2
14837KMSN MSN20101125124010511/25/10 12:40:31  5-MIN KMSN 251840Z 30012G16KT 10SM FEW023 M03/M09 A2975 1030 60 -800 300/12G16 RMK AO2
14837KMSN MSN20101125124510211/25/10 12:45:31  5-MIN KMSN 251845Z 29008G17KT 10SM CLR M03/M10 A2975 1020 58 -800 290/08G17 RMK AO2
14837KMSN MSN20101125125012211/25/10 12:50:31  5-MIN KMSN 251850Z 28008G17KT 10SM FEW021 M03/M09 A2975 1020 60 -800 280/08G17 RMK AO2 SLP084 T10281094
14837KMSN MSN20101125125510211/25/10 12:55:31  5-MIN KMSN 251855Z 29010G17KT 10SM CLR M03/M09 A2975 1020 60 -800 290/10G17 RMK AO2
14837KMSN MSN20101125130010211/25/10 13:00:31  5-MIN KMSN 251900Z 31010G16KT 10SM CLR M03/M10 A2976 1020 58 -800 300/10G16 RMK AO2
14837KMSN MSN20101125130510211/25/10 13:05:31  5-MIN KMSN 251905Z 29011G16KT 10SM CLR M03/M09 A2976 1010 60 -800 290/11G16 RMK AO2
14837KMSN MSN20101125131010211/25/10 13:10:31  5-MIN KMSN 251910Z 30009G16KT 10SM CLR M03/M09 A2976 1010 60 -800 300/09G16 RMK AO2
14837KMSN MSN20101125131510211/25/10 13:15:31  5-MIN KMSN 251915Z 31012G18KT 10SM CLR M03/M10 A2975 1020 58 -800 310/12G18 RMK AO2
14837KMSN MSN20101125132010211/25/10 13:20:31  5-MIN KMSN 251920Z 30009G18KT 10SM CLR M03/M11 A2975 1020 55 -800 300/09G18 RMK AO2
14837KMSN MSN20101125132510211/25/10 13:25:31  5-MIN KMSN 251925Z 29011G18KT 10SM CLR M03/M11 A2975 1020 53 -800 290/11G18 RMK AO2
14837KMSN MSN20101125133010211/25/10 13:30:31  5-MIN KMSN 251930Z 30013G18KT 10SM CLR M03/M12 A2975 1020 50 -800 300/13G18 RMK AO2
14837KMSN MSN20101125133510211/25/10 13:35:31  5-MIN KMSN 251935Z 31011G18KT 10SM CLR M03/M12 A2975 1020 50 -800 310/11G18 RMK AO2
14837KMSN MSN20101125134010211/25/10 13:40:31  5-MIN KMSN 251940Z 30007G17KT 10SM CLR M03/M11 A2974 1030 53 -800 290/07G17 RMK AO2
14837KMSN MSN20101125134510211/25/10 13:45:31  5-MIN KMSN 251945Z 29011G19KT 10SM CLR M03/M12 A2975 1030 48 -800 290/11G19 RMK AO2
14837KMSN MSN20101125135011911/25/10 13:50:31  5-MIN KMSN 251950Z 30012G19KT 10SM CLR M03/M13 A2974 1030 44 -800 300/12G19 RMK AO2 SLP080 T10281133
14837KMSN MSN20101125135510211/25/10 13:55:31  5-MIN KMSN 251955Z 31012G18KT 10SM CLR M03/M14 A2974 1040 42 -800 310/12G18 RMK AO2
14837KMSN MSN20101125140010211/25/10 14:00:31  5-MIN KMSN 252000Z 31009G18KT 10SM CLR M03/M13 A2974 1030 46 -900 310/09G18 RMK AO2
14837KMSN MSN20101125140509611/25/10 14:05:31  5-MIN KMSN 252005Z 29011KT 10SM CLR M03/M13 A2974 1030 46 -800 290/11 RMK AO2
14837KMSN MSN20101125141010211/25/10 14:10:31  5-MIN KMSN 252010Z 31012G17KT 10SM CLR M03/M13 A2973 1040 46 -900 310/12G17 RMK AO2
14837KMSN MSN20101125141510211/25/10 14:15:31  5-MIN KMSN 252015Z 32011G17KT 10SM CLR M03/M13 A2974 1040 48 -900 320/11G17 RMK AO2
14837KMSN MSN20101125142010211/25/10 14:20:31  5-MIN KMSN 252020Z 31007G16KT 10SM CLR M03/M13 A2974 1030 48 -900 310/07G16 RMK AO2
14837KMSN MSN20101125142509611/25/10 14:25:31  5-MIN KMSN 252025Z 30007KT 10SM CLR M03/M12 A2975 1020 50 -900 300/07 RMK AO2
14837KMSN MSN20101125143009611/25/10 14:30:31  5-MIN KMSN 252030Z 31007KT 10SM CLR M03/M12 A2975 1030 50 -800 310/07 RMK AO2
14837KMSN MSN20101125143510211/25/10 14:35:31  5-MIN KMSN 252035Z 29007G14KT 10SM CLR M03/M12 A2974 1030 50 -800 290/07G14 RMK AO2
14837KMSN MSN20101125144010211/25/10 14:40:31  5-MIN KMSN 252040Z 28008G14KT 10SM CLR M03/M11 A2975 1020 53 -800 280/08G14 RMK AO2
14837KMSN MSN20101125144510211/25/10 14:45:31  5-MIN KMSN 252045Z 31009G16KT 10SM CLR M03/M13 A2975 1020 48 -900 310/09G16 RMK AO2
14837KMSN MSN20101125145012511/25/10 14:50:31  5-MIN KMSN 252050Z 30010G16KT 10SM CLR M03/M13 A2975 1030 48 -900 300/10G16 RMK AO2 SLP082 T10331128 58000
14837KMSN MSN20101125145510211/25/10 14:55:31  5-MIN KMSN 252055Z 31009G15KT 10SM CLR M03/M13 A2975 1030 46 -900 300/09G15 RMK AO2
14837KMSN MSN20101125150010211/25/10 15:00:31  5-MIN KMSN 252100Z 30010G16KT 10SM CLR M03/M13 A2975 1020 46 -900 300/10G16 RMK AO2
14837KMSN MSN20101125150510211/25/10 15:05:31  5-MIN KMSN 252105Z 29011G16KT 10SM CLR M03/M13 A2975 1020 46 -900 290/11G16 RMK AO2
14837KMSN MSN20101125151010211/25/10 15:10:31  5-MIN KMSN 252110Z 30009G17KT 10SM CLR M03/M14 A2975 1020 44 -900 300/09G17 RMK AO2
14837KMSN MSN20101125151510211/25/10 15:15:31  5-MIN KMSN 252115Z 31006G17KT 10SM CLR M03/M13 A2975 1020 46 -900 310/06G17 RMK AO2
14837KMSN MSN20101125152009611/25/10 15:20:31  5-MIN KMSN 252120Z 30006KT 10SM CLR M03/M13 A2976 1020 48 -900 300/06 RMK AO2
14837KMSN MSN20101125152509611/25/10 15:25:31  5-MIN KMSN 252125Z 30007KT 10SM CLR M03/M12 A2975 1020 50 -900 300/07 RMK AO2
14837KMSN MSN20101125153009611/25/10 15:30:31  5-MIN KMSN 252130Z 30005KT 10SM CLR M03/M12 A2975 1020 48 -800 300/05 RMK AO2
14837KMSN MSN20101125153509611/25/10 15:35:31  5-MIN KMSN 252135Z 30008KT 10SM CLR M03/M12 A2976 1010 50 -900 300/08 RMK AO2
14837KMSN MSN20101125154009611/25/10 15:40:31  5-MIN KMSN 252140Z 31010KT 10SM CLR M03/M12 A2976 1010 50 -900 310/10 RMK AO2
14837KMSN MSN20101125154509611/25/10 15:45:31  5-MIN KMSN 252145Z 31010KT 10SM CLR M03/M13 A2976 1010 48 -900 310/10 RMK AO2
14837KMSN MSN20101125155011411/25/10 15:50:31  5-MIN KMSN 252150Z 31009KT 10SM CLR M04/M12 A2976 1010 52 -1000 310/09 RMK AO2 SLP087 T10391122
14837KMSN MSN20101125155509711/25/10 15:55:31  5-MIN KMSN 252155Z 30007KT 10SM CLR M04/M12 A2976 1010 52 -1000 300/07 RMK AO2
14837KMSN MSN20101125160009711/25/10 16:00:31  5-MIN KMSN 252200Z 29007KT 10SM CLR M04/M12 A2976 1010 52 -1000 290/07 RMK AO2
14837KMSN MSN20101125160510611/25/10 16:05:31  5-MIN KMSN 252205Z 28010G15KT 10SM FEW028 M04/M13 A2976 1020 50 -1000 280/10G15 RMK AO2
14837KMSN MSN20101125161010611/25/10 16:10:31  5-MIN KMSN 252210Z 29010G16KT 10SM FEW028 M04/M13 A2976 1020 48 -1000 290/10G16 RMK AO2
14837KMSN MSN20101125161510611/25/10 16:15:31  5-MIN KMSN 252215Z 28011G17KT 10SM FEW028 M04/M13 A2976 1010 50 -1000 280/11G17 RMK AO2
14837KMSN MSN20101125162010611/25/10 16:20:31  5-MIN KMSN 252220Z 29007G17KT 10SM FEW028 M04/M13 A2976 1020 50 -1000 290/07G17 RMK AO2
14837KMSN MSN20101125162510011/25/10 16:25:31  5-MIN KMSN 252225Z 29008KT 10SM FEW028 M04/M14 A2976 1010 48 -1000 290/08 RMK AO2
14837KMSN MSN20101125163010611/25/10 16:30:31  5-MIN KMSN 252230Z 28009G16KT 10SM FEW028 M04/M14 A2976 1010 48 -1000 280/09G16 RMK AO2
14837KMSN MSN20101125163510611/25/10 16:35:31  5-MIN KMSN 252235Z 29010G18KT 10SM FEW028 M05/M14 A2976 1010 48 -1100 290/10G18 RMK AO2
14837KMSN MSN20101125164010611/25/10 16:40:31  5-MIN KMSN 252240Z 29009G18KT 10SM FEW028 M05/M14 A2977 1010 48 -1100 290/09G18 RMK AO2
14837KMSN MSN20101125164510611/25/10 16:45:31  5-MIN KMSN 252245Z 28010G17KT 10SM FEW028 M05/M14 A2977 1000 48 -1100 280/10G17 RMK AO2
14837KMSN MSN20101125165013611/25/10 16:50:31  5-MIN KMSN 252250Z 29007G15KT 230V310 10SM CLR M05/M14 A2978 1000 48 -1100 290/07G15 230V310 RMK AO2 SLP093 T10501144
14837KMSN MSN20101125165510311/25/10 16:55:31  5-MIN KMSN 252255Z 28010G16KT 10SM CLR M05/M14 A2978 1000 48 -1100 280/10G16 RMK AO2
14837KMSN MSN20101125170010311/25/10 17:00:31  5-MIN KMSN 252300Z 28010G16KT 10SM CLR M05/M14 A2978 1000 48 -1100 280/10G16 RMK AO2
14837KMSN MSN20101125170510211/25/10 17:05:31  5-MIN KMSN 252305Z 29007G14KT 10SM CLR M05/M14 A2978 990 48 -1100 290/07G14 RMK AO2
14837KMSN MSN20101125171009611/25/10 17:10:31  5-MIN KMSN 252310Z 29007KT 10SM CLR M06/M14 A2978 990 50 -1200 290/07 RMK AO2
14837KMSN MSN20101125171509611/25/10 17:15:31  5-MIN KMSN 252315Z 29008KT 10SM CLR M06/M14 A2979 990 52 -1200 290/08 RMK AO2
14837KMSN MSN20101125172009611/25/10 17:20:31  5-MIN KMSN 252320Z 28005KT 10SM CLR M06/M14 A2979 980 52 -1200 280/05 RMK AO2
14837KMSN MSN20101125172509611/25/10 17:25:31  5-MIN KMSN 252325Z 27006KT 10SM CLR M06/M14 A2979 980 52 -1200 270/06 RMK AO2
14837KMSN MSN20101125173009611/25/10 17:30:31  5-MIN KMSN 252330Z VRB05KT 10SM CLR M06/M13 A2980 980 54 -1200 VRB/05 RMK AO2
14837KMSN MSN20101125173509611/25/10 17:35:31  5-MIN KMSN 252335Z 27008KT 10SM CLR M06/M14 A2980 970 52 -1200 270/08 RMK AO2
14837KMSN MSN20101125174011811/25/10 17:40:31  5-MIN KMSN 252340Z 27011G19KT 240V310 10SM CLR M06/M14 A2980 970 52 -1200 270/11G19 240V310 RMK AO2
14837KMSN MSN20101125174511811/25/10 17:45:31  5-MIN KMSN 252345Z 28009G19KT 240V310 10SM CLR M06/M14 A2980 970 50 -1200 280/09G19 240V310 RMK AO2
14837KMSN MSN20101125175013711/25/10 17:50:31  5-MIN KMSN 252350Z 27007G15KT 10SM CLR M06/M14 A2980 970 50 -1200 270/07G15 RMK AO2 SLP103 T10561144 11017 21056 53001
14837KMSN MSN20101125175511211/25/10 17:55:31  5-MIN KMSN 252355Z 27007KT 240V300 10SM CLR M06/M14 A2980 970 50 -1200 270/07 240V300 RMK AO2
14837KMSN MSN20101125180010211/25/10 18:00:31  5-MIN KMSN 260000Z 27006G17KT 10SM CLR M06/M14 A2981 970 50 -1200 270/06G17 RMK AO2
14837KMSN MSN20101125180510211/25/10 18:05:31  5-MIN KMSN 260005Z 27008G17KT 10SM CLR M06/M14 A2981 970 50 -1200 270/08G17 RMK AO2
14837KMSN MSN20101125181010211/25/10 18:10:31  5-MIN KMSN 260010Z 27007G16KT 10SM CLR M06/M14 A2981 970 52 -1200 270/07G16 RMK AO2
14837KMSN MSN20101125181511811/25/10 18:15:31  5-MIN KMSN 260015Z 27007G16KT 230V310 10SM CLR M06/M14 A2981 970 54 -1300 270/07G16 230V310 RMK AO2
14837KMSN MSN20101125182010211/25/10 18:20:31  5-MIN KMSN 260020Z 28006G19KT 10SM CLR M06/M14 A2981 970 50 -1200 280/06G19 RMK AO2
14837KMSN MSN20101125182510211/25/10 18:25:31  5-MIN KMSN 260025Z 28011G19KT 10SM CLR M06/M14 A2981 970 50 -1200 280/11G19 RMK AO2
14837KMSN MSN20101125183010211/25/10 18:30:31  5-MIN KMSN 260030Z 27010G20KT 10SM CLR M06/M15 A2981 970 48 -1200 270/10G20 RMK AO2
14837KMSN MSN20101125183510211/25/10 18:35:31  5-MIN KMSN 260035Z VRB06G20KT 10SM CLR M06/M14 A2981 960 52 -1300 VRB/06G20 RMK AO2
14837KMSN MSN20101125184011811/25/10 18:40:31  5-MIN KMSN 260040Z 27007G19KT 220V310 10SM CLR M06/M14 A2981 970 52 -1300 260/07G19 220V310 RMK AO2
14837KMSN MSN20101125184510511/25/10 18:45:31  5-MIN KMSN 260045Z 28008G17KT 10SM FEW080 M06/M14 A2981 970 52 -1300 280/08G17 RMK AO2
14837KMSN MSN20101125185012211/25/10 18:50:31  5-MIN KMSN 260050Z 27013G23KT 10SM FEW080 M06/M15 A2981 970 50 -1300 270/13G23 RMK AO2 SLP105 T10611150
14837KMSN MSN20101125185510211/25/10 18:55:31  5-MIN KMSN 260055Z 29012G25KT 10SM CLR M06/M15 A2981 970 50 -1300 280/12G25 RMK AO2
14837KMSN MSN20101125190012111/25/10 19:00:31  5-MIN KMSN 260100Z 27008G25KT 240V300 10SM SCT050 M06/M15 A2980 970 50 -1300 270/08G25 240V300 RMK AO2
14837KMSN MSN20101125190510511/25/10 19:05:31  5-MIN KMSN 260105Z 28009G19KT 10SM BKN050 M06/M14 A2981 970 52 -1300 280/09G19 RMK AO2
14837KMSN MSN20101125191010511/25/10 19:10:31  5-MIN KMSN 260110Z 28010G17KT 10SM BKN050 M06/M14 A2981 970 52 -1300 280/10G17 RMK AO2
14837KMSN MSN20101125191510511/25/10 19:15:31  5-MIN KMSN 260115Z 29010G19KT 10SM BKN048 M06/M14 A2981 970 52 -1300 290/10G19 RMK AO2
14837KMSN MSN20101125192010511/25/10 19:20:31  5-MIN KMSN 260120Z VRB06G19KT 10SM OVC048 M06/M14 A2980 970 52 -1300 VRB/06G19 RMK AO2
14837KMSN MSN20101125192510511/25/10 19:25:31  5-MIN KMSN 260125Z 28010G18KT 10SM OVC048 M06/M14 A2980 970 54 -1300 280/10G18 RMK AO2
14837KMSN MSN20101125193012111/25/10 19:30:31  5-MIN KMSN 260130Z 27009G18KT 220V320 10SM BKN048 M06/M14 A2980 980 52 -1300 270/09G18 220V320 RMK AO2
14837KMSN MSN20101125193510511/25/10 19:35:31  5-MIN KMSN 260135Z 28013G21KT 10SM BKN048 M06/M14 A2979 980 52 -1300 280/13G21 RMK AO2
14837KMSN MSN20101125194010511/25/10 19:40:31  5-MIN KMSN 260140Z 28009G21KT 10SM SCT046 M07/M14 A2979 980 54 -1400 280/09G21 RMK AO2
14837KMSN MSN20101125194512111/25/10 19:45:31  5-MIN KMSN 260145Z 26008G18KT 230V290 10SM FEW046 M07/M14 A2979 980 54 -1400 260/08G18 230V290 RMK AO2
14837KMSN MSN20101125195012211/25/10 19:50:31  5-MIN KMSN 260150Z 27007G15KT 10SM FEW046 M07/M14 A2979 980 57 -1400 270/07G15 RMK AO2 SLP099 T10671139
14837KMSN MSN20101125195512111/25/10 19:55:31  5-MIN KMSN 260155Z 26008G14KT 230V300 10SM FEW046 M07/M14 A2979 980 57 -1400 260/08G14 230V300 RMK AO2
14837KMSN MSN20101125200010511/25/10 20:00:31  5-MIN KMSN 260200Z 27006G17KT 10SM FEW046 M07/M14 A2979 980 57 -1400 260/06G17 RMK AO2
14837KMSN MSN20101125200510511/25/10 20:05:31  5-MIN KMSN 260205Z 27008G17KT 10SM FEW044 M07/M14 A2979 980 57 -1400 270/08G17 RMK AO2
14837KMSN MSN20101125201012111/25/10 20:10:31  5-MIN KMSN 260210Z 27009G14KT 240V300 10SM SCT044 M07/M14 A2979 980 57 -1400 270/09G14 240V300 RMK AO2
14837KMSN MSN20101125201512111/25/10 20:15:31  5-MIN KMSN 260215Z 26008G14KT 230V300 10SM BKN044 M07/M14 A2979 980 57 -1400 250/08G14 230V300 RMK AO2
14837KMSN MSN20101125202011511/25/10 20:20:31  5-MIN KMSN 260220Z 28008KT 240V310 10SM BKN044 M07/M14 A2979 980 57 -1400 280/08 240V310 RMK AO2
14837KMSN MSN20101125202512111/25/10 20:25:31  5-MIN KMSN 260225Z 25009G17KT 220V290 10SM BKN044 M07/M14 A2979 980 57 -1400 250/09G17 220V290 RMK AO2
14837KMSN MSN20101125203012111/25/10 20:30:31  5-MIN KMSN 260230Z 27008G17KT 210V310 10SM BKN042 M07/M14 A2979 990 57 -1400 260/08G17 210V310 RMK AO2
14837KMSN MSN20101125203512811/25/10 20:35:31  5-MIN KMSN 260235Z 26010G20KT 230V300 10SM SCT034 BKN044 M07/M13 A2979 990 59 -1400 260/10G20 230V300 RMK AO2
14837KMSN MSN20101125204012811/25/10 20:40:31  5-MIN KMSN 260240Z 27009G20KT 240V310 10SM BKN037 OVC044 M07/M13 A2979 990 59 -1400 270/09G20 240V310 RMK AO2
14837KMSN MSN20101125204512811/25/10 20:45:31  5-MIN KMSN 260245Z 26010G18KT 230V290 10SM BKN035 OVC044 M07/M13 A2979 980 59 -1400 260/10G18 230V290 RMK AO2
14837KMSN MSN20101125205014411/25/10 20:50:31  5-MIN KMSN 260250Z 27009G17KT 220V290 10SM OVC037 M07/M13 A2979 990 62 -1400 270/09G17 220V290 RMK AO2 SLP098 T10671128 53019
14837KMSN MSN20101125205512211/25/10 20:55:31  5-MIN KMSN 260255Z VRB05G18KT 10SM -SN SCT037 BKN044 M07/M13 A2979 990 62 -1400 VRB/05G18 RMK AO2 P0000
14837KMSN MSN20101125210012111/25/10 21:00:31  5-MIN KMSN 260300Z VRB06G18KT 9SM -SN SCT037 BKN044 M07/M13 A2978 990 62 -1400 VRB/06G18 RMK AO2 P0000
14837KMSN MSN20101125210511611/25/10 21:05:31  5-MIN KMSN 260305Z 26010G17KT 9SM FEW035 M07/M13 A2978 990 62 -1400 260/10G17 RMK AO2 SNE04 P0000
14837KMSN MSN20101125211011711/25/10 21:10:31  5-MIN KMSN 260310Z VRB06G17KT 10SM FEW035 M07/M13 A2979 990 62 -1400 VRB/06G17 RMK AO2 SNE04 P0000
14837KMSN MSN20101125211511111/25/10 21:15:31  5-MIN KMSN 260315Z VRB06KT 10SM FEW035 M07/M13 A2979 990 62 -1400 VRB/06 RMK AO2 SNE04 P0000
14837KMSN MSN20101125212012711/25/10 21:20:31  5-MIN KMSN 260320Z 28007KT 240V310 10SM FEW035 M07/M13 A2979 990 62 -1400 280/07 240V310 RMK AO2 SNE04 P0000
14837KMSN MSN20101125212511111/25/10 21:25:31  5-MIN KMSN 260325Z 29006KT 10SM FEW035 M07/M12 A2979 990 65 -1400 290/06 RMK AO2 SNE04 P0000
14837KMSN MSN20101125213011111/25/10 21:30:31  5-MIN KMSN 260330Z 29007KT 10SM FEW035 M07/M12 A2978 990 68 -1400 290/07 RMK AO2 SNE04 P0000
14837KMSN MSN20101125213511711/25/10 21:35:31  5-MIN KMSN 260335Z 29010G15KT 10SM FEW035 M07/M12 A2978 990 68 -1400 280/10G15 RMK AO2 SNE04 P0000
14837KMSN MSN20101125214011811/25/10 21:40:31  5-MIN KMSN 260340Z 28009G15KT 10SM SCT035 M07/M13 A2978 1000 65 -1400 280/09G15 RMK AO2 SNE04 P0000
14837KMSN MSN20101125214513411/25/10 21:45:31  5-MIN KMSN 260345Z 28009G15KT 260V320 10SM FEW035 M07/M13 A2978 1000 65 -1400 280/09G15 260V320 RMK AO2 SNE04 P0000
14837KMSN MSN20101125215013511/25/10 21:50:31  5-MIN KMSN 260350Z 28006G15KT 10SM FEW035 M07/M13 A2978 1000 65 -1400 280/06G15 RMK AO2 SNE04 SLP095 P0000 T10721128
14837KMSN MSN20101125215512111/25/10 21:55:31  5-MIN KMSN 260355Z 28008G14KT 230V300 10SM SCT033 M07/M13 A2978 990 65 -1400 280/08G14 230V300 RMK AO2
14837KMSN MSN20101125220010511/25/10 22:00:31  5-MIN KMSN 260400Z 27008G15KT 10SM SCT031 M07/M13 A2978 990 62 -1400 270/08G15 RMK AO2
14837KMSN MSN20101125220510511/25/10 22:05:31  5-MIN KMSN 260405Z 27009G18KT 10SM FEW031 M07/M13 A2979 990 62 -1400 260/09G18 RMK AO2
14837KMSN MSN20101125221010511/25/10 22:10:31  5-MIN KMSN 260410Z 27012G18KT 10SM SCT031 M07/M14 A2979 980 59 -1400 270/12G18 RMK AO2
14837KMSN MSN20101125221511211/25/10 22:15:31  5-MIN KMSN 260415Z 27009G18KT 10SM FEW025 BKN031 M07/M14 A2979 980 59 -1400 260/09G18 RMK AO2
14837KMSN MSN20101125222012111/25/10 22:20:31  5-MIN KMSN 260420Z 27011G22KT 240V300 10SM SCT033 M07/M14 A2980 980 59 -1400 270/11G22 240V300 RMK AO2
14837KMSN MSN20101125222510511/25/10 22:25:31  5-MIN KMSN 260425Z 27010G22KT 10SM FEW033 M08/M14 A2980 980 59 -1500 270/10G22 RMK AO2
14837KMSN MSN20101125223012111/25/10 22:30:31  5-MIN KMSN 260430Z 27012G22KT 240V300 10SM FEW033 M08/M14 A2980 970 59 -1500 270/12G22 240V300 RMK AO2
14837KMSN MSN20101125223510511/25/10 22:35:31  5-MIN KMSN 260435Z 27011G22KT 10SM FEW033 M08/M14 A2980 970 59 -1500 270/11G22 RMK AO2
14837KMSN MSN20101125224012111/25/10 22:40:31  5-MIN KMSN 260440Z 28008G18KT 230V310 10SM SCT033 M08/M14 A2980 970 62 -1500 270/08G18 230V310 RMK AO2
14837KMSN MSN20101125224512111/25/10 22:45:31  5-MIN KMSN 260445Z 28009G18KT 240V310 10SM FEW033 M08/M14 A2980 970 62 -1500 280/09G18 240V310 RMK AO2
14837KMSN MSN20101125225012211/25/10 22:50:31  5-MIN KMSN 260450Z 27009G18KT 10SM FEW033 M08/M14 A2980 970 59 -1500 270/09G18 RMK AO2 SLP103 T10781144
14837KMSN MSN20101125225510511/25/10 22:55:31  5-MIN KMSN 260455Z 28009G17KT 10SM FEW033 M08/M14 A2980 980 62 -1600 280/09G17 RMK AO2
14837KMSN MSN20101125230010511/25/10 23:00:31  5-MIN KMSN 260500Z 28011G20KT 10SM FEW033 M08/M14 A2980 980 62 -1600 280/11G20 RMK AO2
14837KMSN MSN20101125230510511/25/10 23:05:31  5-MIN KMSN 260505Z 27009G20KT 10SM FEW033 M08/M14 A2980 980 62 -1600 270/09G20 RMK AO2
14837KMSN MSN20101125231011811/25/10 23:10:31  5-MIN KMSN 260510Z 28008G20KT 250V310 10SM CLR M08/M15 A2980 980 59 -1600 280/08G20 250V310 RMK AO2
14837KMSN MSN20101125231511811/25/10 23:15:31  5-MIN KMSN 260515Z 27010G18KT 230V300 10SM CLR M08/M15 A2980 980 59 -1600 270/10G18 230V300 RMK AO2
14837KMSN MSN20101125232011811/25/10 23:20:31  5-MIN KMSN 260520Z 27007G18KT 240V300 10SM CLR M08/M15 A2980 970 59 -1600 270/07G18 240V300 RMK AO2
14837KMSN MSN20101125232510211/25/10 23:25:31  5-MIN KMSN 260525Z 28008G18KT 10SM CLR M08/M15 A2980 980 59 -1600 270/08G18 RMK AO2
14837KMSN MSN20101125233011811/25/10 23:30:31  5-MIN KMSN 260530Z 28008G16KT 240V310 10SM CLR M08/M15 A2980 980 59 -1600 280/08G16 240V310 RMK AO2
14837KMSN MSN20101125233511811/25/10 23:35:31  5-MIN KMSN 260535Z 26007G16KT 230V290 10SM CLR M09/M15 A2980 970 61 -1700 260/07G16 230V290 RMK AO2
14837KMSN MSN20101125234009611/25/10 23:40:31  5-MIN KMSN 260540Z VRB06KT 10SM CLR M09/M14 A2980 970 64 -1700 VRB/06 RMK AO2
14837KMSN MSN20101125234511811/25/10 23:45:31  5-MIN KMSN 260545Z 27011G19KT 240V300 10SM CLR M08/M14 A2980 970 62 -1600 270/11G19 240V300 RMK AO2
14837KMSN MSN20101125235015311/25/10 23:50:31  5-MIN KMSN 260550Z 27008G19KT 10SM CLR M09/M14 A2980 970 64 -1700 270/08G19 RMK AO2 SLP105 60000 T10891144 11056 21089 400331089 58006
14837KMSN MSN20101125235510211/25/10 23:55:31  5-MIN KMSN 260555Z VRB04G15KT 10SM CLR M09/M14 A2981 970 64 -1700 VRB/04G15 RMK AO2
14837KMSN MSN20101126000009611/26/10 00:00:32  5-MIN KMSN 260600Z 27008KT 10SM CLR M09/M14 A2981 970 64 -1700 270/08 RMK AO2
14837KMSN MSN20101126000510211/26/10 00:05:31  5-MIN KMSN 260605Z 27009G15KT 10SM CLR M09/M14 A2980 970 64 -1700 270/09G15 RMK AO2
14837KMSN MSN20101126001011811/26/10 00:10:31  5-MIN KMSN 260610Z 26009G17KT 220V280 10SM CLR M09/M14 A2980 970 64 -1700 260/09G17 220V280 RMK AO2
14837KMSN MSN20101126001510211/26/10 00:15:31  5-MIN KMSN 260615Z VRB04G17KT 10SM CLR M09/M14 A2981 970 64 -1700 VRB/04G17 RMK AO2
14837KMSN MSN20101126002009611/26/10 00:20:31  5-MIN KMSN 260620Z 26005KT 10SM CLR M09/M14 A2981 970 64 -1700 260/05 RMK AO2
14837KMSN MSN20101126002510211/26/10 00:25:31  5-MIN KMSN 260625Z 26009G14KT 10SM CLR M09/M14 A2981 970 64 -1700 260/09G14 RMK AO2
14837KMSN MSN20101126003010211/26/10 00:30:31  5-MIN KMSN 260630Z 27006G14KT 10SM CLR M09/M14 A2981 970 64 -1700 270/06G14 RMK AO2
14837KMSN MSN20101126003509611/26/10 00:35:31  5-MIN KMSN 260635Z VRB06KT 10SM CLR M09/M14 A2981 970 64 -1700 VRB/06 RMK AO2
14837KMSN MSN20101126004011211/26/10 00:40:31  5-MIN KMSN 260640Z 26008KT 210V290 10SM CLR M09/M14 A2981 970 64 -1700 260/08 210V290 RMK AO2
14837KMSN MSN20101126004509611/26/10 00:45:31  5-MIN KMSN 260645Z 26004KT 10SM CLR M09/M14 A2980 970 64 -1700 260/04 RMK AO2
14837KMSN MSN20101126005011311/26/10 00:50:31  5-MIN KMSN 260650Z 26006KT 10SM CLR M09/M14 A2980 980 64 -1700 260/06 RMK AO2 SLP104 T10891144
14837KMSN MSN20101126005509611/26/10 00:55:31  5-MIN KMSN 260655Z 25008KT 10SM CLR M09/M14 A2980 980 64 -1700 250/08 RMK AO2
14837KMSN MSN20101126010009611/26/10 01:00:31  5-MIN KMSN 260700Z VRB06KT 10SM CLR M09/M14 A2980 980 64 -1700 VRB/06 RMK AO2
14837KMSN MSN20101126010509611/26/10 01:05:31  5-MIN KMSN 260705Z 26005KT 10SM CLR M09/M14 A2980 970 64 -1700 260/05 RMK AO2
14837KMSN MSN20101126011011511/26/10 01:10:31  5-MIN KMSN 260710Z 25007KT 220V310 10SM FEW030 M09/M14 A2981 970 64 -1700 250/07 220V310 RMK AO2
14837KMSN MSN20101126011511511/26/10 01:15:31  5-MIN KMSN 260715Z 26007KT 210V290 10SM FEW030 M09/M14 A2981 970 64 -1700 260/07 210V290 RMK AO2
14837KMSN MSN20101126012009911/26/10 01:20:31  5-MIN KMSN 260720Z 26006KT 10SM FEW030 M09/M14 A2981 970 64 -1700 260/06 RMK AO2
14837KMSN MSN20101126012512111/26/10 01:25:31  5-MIN KMSN 260725Z 26009G16KT 230V300 10SM FEW030 M09/M14 A2981 970 64 -1700 260/09G16 230V300 RMK AO2
14837KMSN MSN20101126013010511/26/10 01:30:31  5-MIN KMSN 260730Z 25006G16KT 10SM FEW030 M09/M14 A2981 960 64 -1700 250/06G16 RMK AO2
14837KMSN MSN20101126013512111/26/10 01:35:31  5-MIN KMSN 260735Z 25009G17KT 190V290 10SM FEW030 M09/M14 A2982 960 64 -1700 250/09G17 190V290 RMK AO2
14837KMSN MSN20101126052009911/26/10 05:20:31  5-MIN KMSN 261120Z 25006KT 10SM FEW030 M09/M14 A2981 970 67 -1700 250/06 RMK AO2
14837KMSN MSN20101126052511511/26/10 05:25:31  5-MIN KMSN 261125Z 26007KT 210V290 10SM FEW030 M09/M14 A2981 970 67 -1700 260/07 210V290 RMK AO2
14837KMSN MSN20101126053009911/26/10 05:30:31  5-MIN KMSN 261130Z 26007KT 10SM FEW030 M09/M14 A2981 970 67 -1700 260/07 RMK AO2
14837KMSN MSN20101126053510511/26/10 05:35:31  5-MIN KMSN 261135Z 26009G15KT 10SM FEW030 M09/M14 A2981 970 67 -1700 260/09G15 RMK AO2
14837KMSN MSN20101126054010511/26/10 05:40:31  5-MIN KMSN 261140Z 25007G16KT 10SM FEW030 M09/M14 A2981 970 67 -1700 250/07G16 RMK AO2
14837KMSN MSN20101126054512111/26/10 05:45:31  5-MIN KMSN 261145Z 26007G16KT 230V290 10SM FEW030 M09/M14 A2981 970 67 -1700 260/07G16 230V290 RMK AO2
14837KMSN MSN20101126055013411/26/10 05:50:31  5-MIN KMSN 261150Z 26009KT 10SM FEW030 M09/M14 A2981 970 67 -1700 260/09 RMK AO2 SLP109 T10891139 11089 21089 53003
14837KMSN MSN20101126055509611/26/10 05:55:31  5-MIN KMSN 261155Z 25008KT 10SM CLR M09/M14 A2981 970 67 -1700 250/08 RMK AO2
14837KMSN MSN20101126060010511/26/10 06:00:31  5-MIN KMSN 261200Z VRB05G15KT 10SM FEW030 M09/M14 A2981 970 67 -1700 VRB/05G15 RMK AO2
14837KMSN MSN20101126060512111/26/10 06:05:31  5-MIN KMSN 261205Z 24008G15KT 200V270 10SM FEW030 M09/M14 A2980 970 67 -1700 240/08G15 200V270 RMK AO2
14837KMSN MSN20101126061012111/26/10 06:10:31  5-MIN KMSN 261210Z 26008G16KT 220V310 10SM FEW030 M09/M13 A2980 980 70 -1700 260/08G16 220V310 RMK AO2
14837KMSN MSN20101126061510511/26/10 06:15:31  5-MIN KMSN 261215Z VRB04G16KT 10SM FEW030 M09/M13 A2980 980 70 -1700 VRB/04G16 RMK AO2
14837KMSN MSN20101126062010511/26/10 06:20:31  5-MIN KMSN 261220Z VRB06G14KT 10SM FEW030 M09/M13 A2980 980 70 -1700 VRB/06G14 RMK AO2
14837KMSN MSN20101126062509611/26/10 06:25:31  5-MIN KMSN 261225Z VRB06KT 10SM CLR M09/M13 A2980 980 70 -1700 VRB/06 RMK AO2
14837KMSN MSN20101126063011211/26/10 06:30:31  5-MIN KMSN 261230Z 26008KT 220V300 10SM CLR M09/M13 A2980 970 70 -1700 260/08 220V300 RMK AO2
14837KMSN MSN20101126063510211/26/10 06:35:31  5-MIN KMSN 261235Z 25006G17KT 10SM CLR M09/M13 A2981 970 70 -1700 250/06G17 RMK AO2
14837KMSN MSN20101126064011811/26/10 06:40:31  5-MIN KMSN 261240Z 24007G17KT 200V270 10SM CLR M09/M13 A2981 970 70 -1700 240/07G17 200V270 RMK AO2
14837KMSN MSN20101126064509611/26/10 06:45:31  5-MIN KMSN 261245Z VRB06KT 10SM CLR M09/M13 A2981 970 70 -1700 VRB/06 RMK AO2
14837KMSN MSN20101126065013811/26/10 06:50:31  5-MIN KMSN 261250Z 24007G14KT 210V270 10SM FEW030 M09/M13 A2981 960 70 -1700 240/07G14 210V270 RMK AO2 SLP110 T10891133
14837KMSN MSN20101126065512111/26/10 06:55:31  5-MIN KMSN 261255Z 27007G14KT 240V300 10SM FEW030 M09/M13 A2981 960 70 -1700 270/07G14 240V300 RMK AO2
14837KMSN MSN20101126070012111/26/10 07:00:31  5-MIN KMSN 261300Z 26009G16KT 220V290 10SM FEW030 M09/M13 A2981 960 70 -1700 260/09G16 220V290 RMK AO2
14837KMSN MSN20101126070510511/26/10 07:05:31  5-MIN KMSN 261305Z VRB06G16KT 10SM FEW030 M09/M13 A2981 960 70 -1700 VRB/06G16 RMK AO2
14837KMSN MSN20101126071009911/26/10 07:10:31  5-MIN KMSN 261310Z VRB06KT 10SM FEW030 M09/M13 A2981 960 70 -1700 VRB/06 RMK AO2
14837KMSN MSN20101126071509911/26/10 07:15:31  5-MIN KMSN 261315Z 27007KT 10SM FEW030 M09/M13 A2981 960 70 -1700 270/07 RMK AO2
14837KMSN MSN20101126072012111/26/10 07:20:31  5-MIN KMSN 261320Z 25009G15KT 220V280 10SM FEW030 M09/M13 A2982 960 70 -1700 240/09G15 220V280 RMK AO2
14837KMSN MSN20101126072510511/26/10 07:25:31  5-MIN KMSN 261325Z 25008G15KT 10SM FEW030 M09/M13 A2982 960 70 -1700 250/08G15 RMK AO2
14837KMSN MSN20101126073010511/26/10 07:30:31  5-MIN KMSN 261330Z 26009G15KT 10SM FEW030 M09/M13 A2982 960 70 -1700 260/09G15 RMK AO2
14837KMSN MSN20101126073511511/26/10 07:35:31  5-MIN KMSN 261335Z 26009KT 220V290 10SM FEW030 M08/M13 A2981 960 67 -1600 260/09 220V290 RMK AO2
14837KMSN MSN20101126074010511/26/10 07:40:31  5-MIN KMSN 261340Z 26008G17KT 10SM FEW028 M08/M13 A2981 970 67 -1600 260/08G17 RMK AO2
14837KMSN MSN20101126074510211/26/10 07:45:31  5-MIN KMSN 261345Z 27007G17KT 10SM CLR M08/M13 A2981 970 67 -1600 260/07G17 RMK AO2
14837KMSN MSN20101126075011611/26/10 07:50:31  5-MIN KMSN 261350Z 27008KT 10SM FEW028 M08/M13 A2981 970 67 -1600 270/08 RMK AO2 SLP109 T10831133
14837KMSN MSN20101126075509911/26/10 07:55:31  5-MIN KMSN 261355Z 26006KT 10SM FEW028 M08/M13 A2981 970 67 -1600 260/06 RMK AO2
14837KMSN MSN20101126080009911/26/10 08:00:31  5-MIN KMSN 261400Z VRB05KT 10SM FEW028 M08/M13 A2981 970 67 -1600 VRB/05 RMK AO2
14837KMSN MSN20101126080509911/26/10 08:05:31  5-MIN KMSN 261405Z VRB06KT 10SM FEW028 M08/M13 A2981 970 67 -1500 VRB/06 RMK AO2
14837KMSN MSN20101126081011511/26/10 08:10:31  5-MIN KMSN 261410Z 27007KT 230V300 10SM FEW028 M08/M13 A2980 970 67 -1500 270/07 230V300 RMK AO2
14837KMSN MSN20101126081510511/26/10 08:15:31  5-MIN KMSN 261415Z 26010G16KT 10SM FEW028 M08/M13 A2980 970 67 -1500 260/10G16 RMK AO2
14837KMSN MSN20101126082010511/26/10 08:20:31  5-MIN KMSN 261420Z 26009G16KT 10SM FEW028 M08/M13 A2980 970 67 -1500 260/09G16 RMK AO2
14837KMSN MSN20101126082510511/26/10 08:25:31  5-MIN KMSN 261425Z 26007G14KT 10SM FEW028 M07/M13 A2980 970 65 -1500 260/07G14 RMK AO2
14837KMSN MSN20101126083010211/26/10 08:30:31  5-MIN KMSN 261430Z 27010G15KT 10SM CLR M07/M13 A2980 970 65 -1500 270/10G15 RMK AO2
14837KMSN MSN20101126083510211/26/10 08:35:31  5-MIN KMSN 261435Z 27011G18KT 10SM CLR M07/M13 A2980 970 62 -1500 270/11G18 RMK AO2
14837KMSN MSN20101126084011811/26/10 08:40:31  5-MIN KMSN 261440Z 25007G18KT 210V290 10SM CLR M08/M13 A2980 980 64 -1500 250/07G18 210V290 RMK AO2
14837KMSN MSN20101126084510211/26/10 08:45:31  5-MIN KMSN 261445Z 26008G17KT 10SM CLR M08/M13 A2980 980 64 -1500 260/08G17 RMK AO2
14837KMSN MSN20101126085012511/26/10 08:50:31  5-MIN KMSN 261450Z 27011G17KT 10SM CLR M07/M13 A2980 980 65 -1400 270/11G17 RMK AO2 SLP105 T10721128 56003
14837KMSN MSN20101126085511811/26/10 08:55:31  5-MIN KMSN 261455Z 26007G19KT 220V320 10SM CLR M07/M13 A2980 980 65 -1400 260/07G19 220V320 RMK AO2
14837KMSN MSN20101126090011811/26/10 09:00:31  5-MIN KMSN 261500Z 27007G19KT 240V300 10SM CLR M07/M13 A2980 980 62 -1400 270/07G19 240V300 RMK AO2
14837KMSN MSN20101126090510211/26/10 09:05:31  5-MIN KMSN 261505Z 25009G16KT 10SM CLR M07/M13 A2980 980 62 -1400 250/09G16 RMK AO2
14837KMSN MSN20101126091010211/26/10 09:10:31  5-MIN KMSN 261510Z 27008G15KT 10SM CLR M07/M13 A2980 980 62 -1400 260/08G15 RMK AO2
14837KMSN MSN20101126091510211/26/10 09:15:31  5-MIN KMSN 261515Z 26009G17KT 10SM CLR M07/M13 A2980 980 62 -1400 260/09G17 RMK AO2
14837KMSN MSN20101126092010211/26/10 09:20:31  5-MIN KMSN 261520Z 26010G18KT 10SM CLR M07/M13 A2980 980 59 -1400 260/10G18 RMK AO2
14837KMSN MSN20101126092510211/26/10 09:25:31  5-MIN KMSN 261525Z 26009G18KT 10SM CLR M07/M13 A2980 980 62 -1400 260/09G18 RMK AO2
14837KMSN MSN20101126093010211/26/10 09:30:31  5-MIN KMSN 261530Z 26007G16KT 10SM CLR M07/M13 A2979 980 62 -1400 250/07G16 RMK AO2
14837KMSN MSN20101126093511811/26/10 09:35:31  5-MIN KMSN 261535Z 27007G17KT 230V290 10SM CLR M07/M13 A2980 980 62 -1400 270/07G17 230V290 RMK AO2
14837KMSN MSN20101126094011811/26/10 09:40:31  5-MIN KMSN 261540Z 26010G18KT 240V300 10SM CLR M07/M13 A2980 980 62 -1400 260/10G18 240V300 RMK AO2
14837KMSN MSN20101126094510211/26/10 09:45:31  5-MIN KMSN 261545Z 26008G18KT 10SM CLR M07/M13 A2980 980 62 -1400 260/08G18 RMK AO2
14837KMSN MSN20101126095011911/26/10 09:50:31  5-MIN KMSN 261550Z 27009G18KT 10SM CLR M06/M13 A2980 980 59 -1300 270/09G18 RMK AO2 SLP105 T10611128
14837KMSN MSN20101126095510211/26/10 09:55:31  5-MIN KMSN 261555Z 24009G15KT 10SM CLR M06/M13 A2980 980 59 -1300 240/09G15 RMK AO2
14837KMSN MSN20101126100010211/26/10 10:00:31  5-MIN KMSN 261600Z 25006G15KT 10SM CLR M06/M13 A2980 980 59 -1300 250/06G15 RMK AO2
14837KMSN MSN20101126100510211/26/10 10:05:31  5-MIN KMSN 261605Z 26009G15KT 10SM CLR M06/M13 A2980 980 57 -1200 250/09G15 RMK AO2
14837KMSN MSN20101126101010211/26/10 10:10:31  5-MIN KMSN 261610Z 26009G19KT 10SM CLR M06/M13 A2980 980 57 -1200 260/09G19 RMK AO2
14837KMSN MSN20101126101510211/26/10 10:15:31  5-MIN KMSN 261615Z 23006G19KT 10SM CLR M05/M12 A2980 980 57 -1200 230/06G19 RMK AO2
14837KMSN MSN20101126102010211/26/10 10:20:31  5-MIN KMSN 261620Z 26007G15KT 10SM CLR M05/M12 A2980 980 57 -1200 260/07G15 RMK AO2
14837KMSN MSN20101126102510211/26/10 10:25:31  5-MIN KMSN 261625Z 25010G18KT 10SM CLR M05/M13 A2979 980 55 -1200 250/10G18 RMK AO2
14837KMSN MSN20101126103010211/26/10 10:30:31  5-MIN KMSN 261630Z 23010G18KT 10SM CLR M05/M13 A2979 980 55 -1200 230/10G18 RMK AO2
14837KMSN MSN20101126103511811/26/10 10:35:31  5-MIN KMSN 261635Z 23009G15KT 210V280 10SM CLR M05/M13 A2979 990 55 -1100 230/09G15 210V280 RMK AO2
14837KMSN MSN20101126104010211/26/10 10:40:31  5-MIN KMSN 261640Z 24008G15KT 10SM CLR M04/M13 A2979 990 52 -1100 240/08G15 RMK AO2
14837KMSN MSN20101126104511811/26/10 10:45:31  5-MIN KMSN 261645Z 24009G20KT 220V280 10SM CLR M04/M12 A2978 990 52 -1000 240/09G20 220V280 RMK AO2
14837KMSN MSN20101126105011911/26/10 10:50:31  5-MIN KMSN 261650Z VRB06G20KT 10SM CLR M04/M12 A2978 990 52 -1000 VRB/06G20 RMK AO2 SLP098 T10391122
14837KMSN MSN20101126105510311/26/10 10:55:31  5-MIN KMSN 261655Z 24009G15KT 10SM CLR M04/M12 A2978 1000 52 -1000 240/09G15 RMK AO2
14837KMSN MSN20101126110010311/26/10 11:00:31  5-MIN KMSN 261700Z 24008G16KT 10SM CLR M04/M12 A2978 1000 52 -1000 240/08G16 RMK AO2
14837KMSN MSN20101126110510311/26/10 11:05:31  5-MIN KMSN 261705Z 25008G16KT 10SM CLR M04/M12 A2977 1000 52 -1000 250/08G16 RMK AO2
14837KMSN MSN20101126111010211/26/10 11:10:31  5-MIN KMSN 261710Z 26007G16KT 10SM CLR M03/M12 A2977 1010 50 -900 260/07G16 RMK AO2
14837KMSN MSN20101126111511811/26/10 11:15:31  5-MIN KMSN 261715Z 25011G17KT 220V300 10SM CLR M03/M12 A2976 1010 50 -900 250/11G17 220V300 RMK AO2
14837KMSN MSN20101126112010311/26/10 11:20:31  5-MIN KMSN 261720Z 26007G17KT 10SM CLR M04/M13 A2976 1010 50 -1000 260/07G17 RMK AO2
14837KMSN MSN20101126112510211/26/10 11:25:31  5-MIN KMSN 261725Z 23007G16KT 10SM CLR M03/M12 A2977 1010 50 -900 230/07G16 RMK AO2
14837KMSN MSN20101126113010211/26/10 11:30:31  5-MIN KMSN 261730Z 26009G16KT 10SM CLR M03/M12 A2976 1010 53 -900 260/09G16 RMK AO2
14837KMSN MSN20101126113510211/26/10 11:35:31  5-MIN KMSN 261735Z VRB06G16KT 10SM CLR M03/M12 A2976 1010 50 -900 VRB/06G16 RMK AO2
14837KMSN MSN20101126114010211/26/10 11:40:31  5-MIN KMSN 261740Z 23011G16KT 10SM CLR M03/M12 A2976 1010 50 -900 230/11G16 RMK AO2
14837KMSN MSN20101126114511811/26/10 11:45:31  5-MIN KMSN 261745Z 26007G16KT 230V290 10SM CLR M03/M12 A2976 1010 50 -900 260/07G16 230V290 RMK AO2
14837KMSN MSN20101126115013111/26/10 11:50:31  5-MIN KMSN 261750Z 26008KT 10SM CLR M03/M12 A2976 1020 48 -800 260/08 RMK AO2 SLP089 T10281122 11028 21089 58003
14837KMSN MSN20101126115510211/26/10 11:55:31  5-MIN KMSN 261755Z 24010G15KT 10SM CLR M03/M12 A2976 1020 48 -800 240/10G15 RMK AO2
14837KMSN MSN20101126120010211/26/10 12:00:31  5-MIN KMSN 261800Z 24009G17KT 10SM CLR M03/M12 A2975 1020 48 -800 240/09G17 RMK AO2
14837KMSN MSN20101126120511811/26/10 12:05:31  5-MIN KMSN 261805Z 27008G18KT 230V320 10SM CLR M02/M12 A2975 1020 46 -800 270/08G18 230V320 RMK AO2
14837KMSN MSN20101126121010211/26/10 12:10:31  5-MIN KMSN 261810Z 27009G18KT 10SM CLR M02/M13 A2975 1020 44 -800 270/09G18 RMK AO2
14837KMSN MSN20101126121510211/26/10 12:15:31  5-MIN KMSN 261815Z 25008G16KT 10SM CLR M03/M13 A2975 1020 46 -800 250/08G16 RMK AO2
14837KMSN MSN20101126122011811/26/10 12:20:31  5-MIN KMSN 261820Z 25007G16KT 210V270 10SM CLR M02/M13 A2975 1030 44 -700 250/07G16 210V270 RMK AO2
14837KMSN MSN20101126122510211/26/10 12:25:31  5-MIN KMSN 261825Z 24008G15KT 10SM CLR M02/M12 A2975 1020 46 -700 240/08G15 RMK AO2
14837KMSN MSN20101126123009611/26/10 12:30:31  5-MIN KMSN 261830Z 24009KT 10SM CLR M02/M12 A2975 1030 46 -700 240/09 RMK AO2
14837KMSN MSN20101126123509611/26/10 12:35:31  5-MIN KMSN 261835Z 25009KT 10SM CLR M02/M12 A2975 1030 46 -700 250/09 RMK AO2
14837KMSN MSN20101126124010211/26/10 12:40:31  5-MIN KMSN 261840Z 24008G15KT 10SM CLR M02/M12 A2975 1030 46 -700 240/08G15 RMK AO2
14837KMSN MSN20101126124511811/26/10 12:45:31  5-MIN KMSN 261845Z 25008G16KT 200V290 10SM CLR M02/M12 A2975 1030 46 -700 240/08G16 200V290 RMK AO2
14837KMSN MSN20101126125013511/26/10 12:50:31  5-MIN KMSN 261850Z 25008G16KT 210V290 10SM CLR M02/M12 A2974 1030 44 -700 250/08G16 210V290 RMK AO2 SLP085 T10171122
14837KMSN MSN20101126125510211/26/10 12:55:31  5-MIN KMSN 261855Z 24010G17KT 10SM CLR M02/M12 A2974 1030 46 -700 240/10G17 RMK AO2
14837KMSN MSN20101126130011811/26/10 13:00:31  5-MIN KMSN 261900Z 25010G17KT 220V290 10SM CLR M02/M12 A2974 1030 44 -700 250/10G17 220V290 RMK AO2
14837KMSN MSN20101126130510211/26/10 13:05:31  5-MIN KMSN 261905Z 26010G15KT 10SM CLR M02/M12 A2974 1030 44 -700 250/10G15 RMK AO2
14837KMSN MSN20101126131010211/26/10 13:10:31  5-MIN KMSN 261910Z VRB06G15KT 10SM CLR M02/M12 A2974 1030 44 -700 VRB/06G15 RMK AO2
14837KMSN MSN20101126131511811/26/10 13:15:31  5-MIN KMSN 261915Z 24009G16KT 210V270 10SM CLR M02/M13 A2974 1030 42 -700 240/09G16 210V270 RMK AO2
14837KMSN MSN20101126132010211/26/10 13:20:31  5-MIN KMSN 261920Z 28007G17KT 10SM CLR M01/M13 A2974 1030 41 -600 280/07G17 RMK AO2
14837KMSN MSN20101126132511811/26/10 13:25:31  5-MIN KMSN 261925Z 29008G17KT 260V340 10SM CLR M01/M12 A2974 1030 41 -500 290/08G17 260V340 RMK AO2
14837KMSN MSN20101126133010211/26/10 13:30:31  5-MIN KMSN 261930Z 27010G17KT 10SM CLR M01/M12 A2974 1030 41 -500 270/10G17 RMK AO2
14837KMSN MSN20101126133510211/26/10 13:35:31  5-MIN KMSN 261935Z 28011G19KT 10SM CLR M01/M13 A2974 1030 41 -600 280/11G19 RMK AO2
14837KMSN MSN20101126134010211/26/10 13:40:31  5-MIN KMSN 261940Z 27009G19KT 10SM CLR M01/M13 A2974 1030 41 -600 270/09G19 RMK AO2
14837KMSN MSN20101126134511811/26/10 13:45:31  5-MIN KMSN 261945Z 27008G18KT 230V300 10SM CLR M01/M13 A2974 1030 41 -600 270/08G18 230V300 RMK AO2
14837KMSN MSN20101126135013511/26/10 13:50:31  5-MIN KMSN 261950Z 26009G18KT 220V290 10SM CLR M01/M12 A2974 1030 43 -600 260/09G18 220V290 RMK AO2 SLP084 T10111122
14837KMSN MSN20101126135511811/26/10 13:55:31  5-MIN KMSN 261955Z 28011G19KT 250V310 10SM CLR M01/M12 A2974 1030 43 -600 280/11G19 250V310 RMK AO2
14837KMSN MSN20101126140011811/26/10 14:00:31  5-MIN KMSN 262000Z 27008G19KT 230V320 10SM CLR M01/M12 A2974 1030 43 -600 270/08G19 230V320 RMK AO2
14837KMSN MSN20101126140510211/26/10 14:05:31  5-MIN KMSN 262005Z VRB06G16KT 10SM CLR M01/M12 A2974 1030 45 -600 VRB/06G16 RMK AO2
14837KMSN MSN20101126141010211/26/10 14:10:31  5-MIN KMSN 262010Z 27008G16KT 10SM CLR M01/M12 A2974 1030 41 -500 270/08G16 RMK AO2
14837KMSN MSN20101126141510211/26/10 14:15:31  5-MIN KMSN 262015Z 27010G16KT 10SM CLR M01/M12 A2974 1030 43 -600 270/10G16 RMK AO2
14837KMSN MSN20101126142010211/26/10 14:20:31  5-MIN KMSN 262020Z 27008G16KT 10SM CLR M01/M12 A2974 1030 43 -500 270/08G16 RMK AO2
14837KMSN MSN20101126142511811/26/10 14:25:31  5-MIN KMSN 262025Z 27008G15KT 240V300 10SM CLR M01/M12 A2974 1030 43 -500 270/08G15 240V300 RMK AO2
14837KMSN MSN20101126143010211/26/10 14:30:31  5-MIN KMSN 262030Z 28006G17KT 10SM CLR M01/M12 A2974 1030 43 -500 280/06G17 RMK AO2
14837KMSN MSN20101126143511811/26/10 14:35:31  5-MIN KMSN 262035Z 27010G17KT 230V300 10SM CLR M01/M12 A2974 1030 43 -600 270/10G17 230V300 RMK AO2
14837KMSN MSN20101126144010211/26/10 14:40:31  5-MIN KMSN 262040Z 29011G18KT 10SM CLR M01/M12 A2974 1030 43 -600 280/11G18 RMK AO2
14837KMSN MSN20101126144510211/26/10 14:45:31  5-MIN KMSN 262045Z 28011G18KT 10SM CLR M01/M12 A2974 1030 43 -600 280/11G18 RMK AO2
14837KMSN MSN20101126145012511/26/10 14:50:31  5-MIN KMSN 262050Z 28012G17KT 10SM CLR M01/M12 A2974 1030 43 -600 280/12G17 RMK AO2 SLP085 T10111122 58014
14837KMSN MSN20101126145511811/26/10 14:55:31  5-MIN KMSN 262055Z 28009G17KT 250V320 10SM CLR M01/M12 A2974 1030 45 -600 280/09G17 250V320 RMK AO2
14837KMSN MSN20101126150010211/26/10 15:00:31  5-MIN KMSN 262100Z 28009G16KT 10SM CLR M02/M12 A2974 1030 46 -700 280/09G16 RMK AO2
14837KMSN MSN20101126150510211/26/10 15:05:31  5-MIN KMSN 262105Z 28010G16KT 10SM CLR M02/M12 A2974 1030 46 -700 280/10G16 RMK AO2
14837KMSN MSN20101126151011811/26/10 15:10:31  5-MIN KMSN 262110Z 27008G18KT 230V310 10SM CLR M02/M12 A2974 1030 46 -700 270/08G18 230V310 RMK AO2
14837KMSN MSN20101126151510211/26/10 15:15:31  5-MIN KMSN 262115Z 28009G18KT 10SM CLR M02/M12 A2975 1030 46 -700 280/09G18 RMK AO2
14837KMSN MSN20101126152010211/26/10 15:20:31  5-MIN KMSN 262120Z 28008G17KT 10SM CLR M02/M12 A2975 1020 46 -700 280/08G17 RMK AO2
14837KMSN MSN20101126152510211/26/10 15:25:31  5-MIN KMSN 262125Z 27009G15KT 10SM CLR M02/M11 A2975 1020 49 -700 270/09G15 RMK AO2
14837KMSN MSN20101126153011811/26/10 15:30:31  5-MIN KMSN 262130Z 26010G16KT 230V290 10SM CLR M02/M11 A2975 1020 49 -700 260/10G16 230V290 RMK AO2
14837KMSN MSN20101126153510211/26/10 15:35:31  5-MIN KMSN 262135Z 27010G16KT 10SM CLR M02/M11 A2975 1020 49 -700 270/10G16 RMK AO2
14837KMSN MSN20101126154010211/26/10 15:40:31  5-MIN KMSN 262140Z 28007G17KT 10SM CLR M02/M12 A2975 1020 46 -700 280/07G17 RMK AO2
14837KMSN MSN20101126154510211/26/10 15:45:31  5-MIN KMSN 262145Z 28007G17KT 10SM CLR M02/M11 A2975 1020 49 -700 280/07G17 RMK AO2
14837KMSN MSN20101126155011911/26/10 15:50:31  5-MIN KMSN 262150Z 28010G16KT 10SM CLR M02/M11 A2975 1020 49 -700 280/10G16 RMK AO2 SLP088 T10171111
14837KMSN MSN20101126155510211/26/10 15:55:31  5-MIN KMSN 262155Z 27008G16KT 10SM CLR M02/M11 A2975 1020 51 -800 270/08G16 RMK AO2
14837KMSN MSN20101126160010211/26/10 16:00:31  5-MIN KMSN 262200Z 28007G15KT 10SM CLR M02/M11 A2975 1020 51 -800 280/07G15 RMK AO2
14837KMSN MSN20101126160510211/26/10 16:05:31  5-MIN KMSN 262205Z 28006G15KT 10SM CLR M02/M11 A2976 1020 51 -800 280/06G15 RMK AO2
14837KMSN MSN20101126161009611/26/10 16:10:31  5-MIN KMSN 262210Z 27006KT 10SM CLR M02/M11 A2976 1020 53 -800 270/06 RMK AO2
14837KMSN MSN20101126161511211/26/10 16:15:31  5-MIN KMSN 262215Z 28008KT 250V310 10SM CLR M02/M11 A2976 1010 53 -800 270/08 250V310 RMK AO2
14837KMSN MSN20101126162010211/26/10 16:20:31  5-MIN KMSN 262220Z 28010G18KT 10SM CLR M02/M11 A2976 1010 53 -800 280/10G18 RMK AO2
14837KMSN MSN20101126162510211/26/10 16:25:31  5-MIN KMSN 262225Z VRB04G18KT 10SM CLR M02/M11 A2976 1020 53 -800 VRB/04G18 RMK AO2
14837KMSN MSN20101126163009611/26/10 16:30:31  5-MIN KMSN 262230Z 26008KT 10SM CLR M03/M10 A2976 1020 58 -800 260/08 RMK AO2
14837KMSN MSN20101126163511211/26/10 16:35:31  5-MIN KMSN 262235Z 28007KT 240V310 10SM CLR M03/M10 A2976 1010 58 -800 270/07 240V310 RMK AO2
14837KMSN MSN20101126164009611/26/10 16:40:31  5-MIN KMSN 262240Z 27009KT 10SM CLR M03/M10 A2976 1010 58 -800 270/09 RMK AO2
14837KMSN MSN20101126164509611/26/10 16:45:31  5-MIN KMSN 262245Z 28005KT 10SM CLR M03/M10 A2977 1010 58 -800 280/05 RMK AO2
14837KMSN MSN20101126165011311/26/10 16:50:31  5-MIN KMSN 262250Z 28006KT 10SM CLR M03/M10 A2977 1000 58 -800 270/06 RMK AO2 SLP095 T10281100
14837KMSN MSN20101126165510211/26/10 16:55:31  5-MIN KMSN 262255Z 27009G24KT 10SM CLR M03/M10 A2977 1000 58 -800 270/09G24 RMK AO2
14837KMSN MSN20101126170010211/26/10 17:00:31  5-MIN KMSN 262300Z 28010G24KT 10SM CLR M03/M11 A2978 1000 55 -900 280/10G24 RMK AO2
14837KMSN MSN20101126170511711/26/10 17:05:31  5-MIN KMSN 262305Z 28009G19KT 250V310 10SM CLR M03/M11 A2978 990 55 -900 280/09G19 250V310 RMK AO2
14837KMSN MSN20101126171010111/26/10 17:10:31  5-MIN KMSN 262310Z 28010G15KT 10SM CLR M03/M11 A2978 990 55 -900 280/10G15 RMK AO2
14837KMSN MSN20101126171510111/26/10 17:15:31  5-MIN KMSN 262315Z 28011G17KT 10SM CLR M03/M11 A2979 990 55 -900 280/11G17 RMK AO2
14837KMSN MSN20101126172010111/26/10 17:20:31  5-MIN KMSN 262320Z 27007G17KT 10SM CLR M03/M11 A2979 990 57 -900 270/07G17 RMK AO2
14837KMSN MSN20101126172509511/26/10 17:25:31  5-MIN KMSN 262325Z 27007KT 10SM CLR M03/M11 A2979 990 57 -900 270/07 RMK AO2
14837KMSN MSN20101126173009511/26/10 17:30:31  5-MIN KMSN 262330Z 27007KT 10SM CLR M03/M11 A2979 990 57 -900 270/07 RMK AO2
14837KMSN MSN20101126173510111/26/10 17:35:31  5-MIN KMSN 262335Z 28006G16KT 10SM CLR M03/M10 A2979 990 60 -900 280/06G16 RMK AO2
14837KMSN MSN20101126174010111/26/10 17:40:31  5-MIN KMSN 262340Z 28008G16KT 10SM CLR M03/M10 A2979 990 60 -900 280/08G16 RMK AO2
14837KMSN MSN20101126174510111/26/10 17:45:31  5-MIN KMSN 262345Z 28008G16KT 10SM CLR M03/M10 A2979 990 60 -900 270/08G16 RMK AO2
14837KMSN MSN20101126175013011/26/10 17:50:31  5-MIN KMSN 262350Z 28008KT 10SM CLR M03/M10 A2979 980 60 -900 280/08 RMK AO2 SLP102 T10331100 11006 21033 55004
14837KMSN MSN20101126175509511/26/10 17:55:31  5-MIN KMSN 262355Z VRB05KT 10SM CLR M03/M10 A2979 980 60 -900 VRB/05 RMK AO2
14837KMSN MSN20101126180009511/26/10 18:00:31  5-MIN KMSN 270000Z VRB06KT 10SM CLR M03/M10 A2979 980 60 -900 VRB/06 RMK AO2
14837KMSN MSN20101126180511711/26/10 18:05:31  5-MIN KMSN 270005Z 28008G15KT 240V310 10SM CLR M03/M09 A2980 980 63 -900 280/08G15 240V310 RMK AO2
14837KMSN MSN20101126181010111/26/10 18:10:31  5-MIN KMSN 270010Z 27006G15KT 10SM CLR M03/M09 A2980 980 63 -900 270/06G15 RMK AO2
14837KMSN MSN20101126181509511/26/10 18:15:31  5-MIN KMSN 270015Z 28007KT 10SM CLR M03/M09 A2980 980 63 -900 280/07 RMK AO2
14837KMSN MSN20101126182009511/26/10 18:20:31  5-MIN KMSN 270020Z VRB05KT 10SM CLR M03/M09 A2980 980 63 -900 VRB/05 RMK AO2
14837KMSN MSN20101126182511211/26/10 18:25:31  5-MIN KMSN 270025Z 27007KT 240V310 10SM CLR M03/M09 A2980 970 63 -1000 270/07 240V310 RMK AO2
14837KMSN MSN20101126183009611/26/10 18:30:31  5-MIN KMSN 270030Z 28008KT 10SM CLR M03/M09 A2980 970 63 -1000 270/08 RMK AO2
14837KMSN MSN20101126183509611/26/10 18:35:31  5-MIN KMSN 270035Z 28006KT 10SM CLR M04/M09 A2980 970 65 -1000 280/06 RMK AO2
14837KMSN MSN20101126184009611/26/10 18:40:31  5-MIN KMSN 270040Z 29007KT 10SM CLR M04/M09 A2980 970 65 -1000 290/07 RMK AO2
14837KMSN MSN20101126184509611/26/10 18:45:31  5-MIN KMSN 270045Z VRB04KT 10SM CLR M04/M09 A2980 970 65 -1000 VRB/04 RMK AO2
14837KMSN MSN20101126185011311/26/10 18:50:31  5-MIN KMSN 270050Z 29005KT 10SM CLR M04/M09 A2980 970 65 -1000 280/05 RMK AO2 SLP106 T10391094
14837KMSN MSN20101126185509611/26/10 18:55:31  5-MIN KMSN 270055Z VRB06KT 10SM CLR M04/M09 A2980 970 65 -1000 VRB/06 RMK AO2
14837KMSN MSN20101126190009611/26/10 19:00:31  5-MIN KMSN 270100Z 28006KT 10SM CLR M04/M09 A2980 980 68 -1000 280/06 RMK AO2
14837KMSN MSN20101126190509611/26/10 19:05:31  5-MIN KMSN 270105Z 28004KT 10SM CLR M04/M09 A2980 980 68 -1000 280/04 RMK AO2
14837KMSN MSN20101126191009611/26/10 19:10:31  5-MIN KMSN 270110Z 27005KT 10SM CLR M04/M09 A2980 980 68 -1000 270/05 RMK AO2
14837KMSN MSN20101126191509611/26/10 19:15:31  5-MIN KMSN 270115Z 27004KT 10SM CLR M04/M09 A2980 980 68 -1000 270/04 RMK AO2
14837KMSN MSN20101126192009611/26/10 19:20:31  5-MIN KMSN 270120Z 28006KT 10SM CLR M04/M09 A2980 980 68 -1000 270/06 RMK AO2
14837KMSN MSN20101126192509611/26/10 19:25:31  5-MIN KMSN 270125Z VRB04KT 10SM CLR M04/M09 A2980 980 65 -1000 VRB/04 RMK AO2
14837KMSN MSN20101126193009611/26/10 19:30:31  5-MIN KMSN 270130Z VRB04KT 10SM CLR M04/M09 A2980 980 65 -1000 VRB/04 RMK AO2
14837KMSN MSN20101126193509611/26/10 19:35:31  5-MIN KMSN 270135Z 26006KT 10SM CLR M04/M09 A2980 980 65 -1000 260/06 RMK AO2
14837KMSN MSN20101126194009611/26/10 19:40:31  5-MIN KMSN 270140Z 00000KT 10SM CLR M04/M09 A2980 980 65 -1000 000/00 RMK AO2
14837KMSN MSN20101126194509611/26/10 19:45:31  5-MIN KMSN 270145Z VRB04KT 10SM CLR M04/M09 A2980 970 68 -1100 VRB/04 RMK AO2
14837KMSN MSN20101126195011311/26/10 19:50:31  5-MIN KMSN 270150Z 28006KT 10SM CLR M04/M09 A2981 970 68 -1100 280/06 RMK AO2 SLP107 T10441094
14837KMSN MSN20101126195509611/26/10 19:55:31  5-MIN KMSN 270155Z 29007KT 10SM CLR M04/M09 A2981 970 68 -1100 290/07 RMK AO2
14837KMSN MSN20101126200009611/26/10 20:00:31  5-MIN KMSN 270200Z VRB04KT 10SM CLR M04/M09 A2981 960 68 -1100 VRB/04 RMK AO2
14837KMSN MSN20101126200509611/26/10 20:05:31  5-MIN KMSN 270205Z 28005KT 10SM CLR M04/M09 A2981 960 68 -1100 280/05 RMK AO2
14837KMSN MSN20101126201009611/26/10 20:10:31  5-MIN KMSN 270210Z 27006KT 10SM CLR M04/M09 A2982 960 68 -1100 270/06 RMK AO2
14837KMSN MSN20101126201509611/26/10 20:15:31  5-MIN KMSN 270215Z 28007KT 10SM CLR M04/M09 A2982 960 68 -1100 280/07 RMK AO2
14837KMSN MSN20101126202009611/26/10 20:20:31  5-MIN KMSN 270220Z 28005KT 10SM CLR M04/M09 A2982 960 68 -1100 280/05 RMK AO2
14837KMSN MSN20101126202509611/26/10 20:25:31  5-MIN KMSN 270225Z 28006KT 10SM CLR M04/M09 A2982 960 68 -1100 280/06 RMK AO2
14837KMSN MSN20101126203009611/26/10 20:30:31  5-MIN KMSN 270230Z VRB04KT 10SM CLR M04/M09 A2982 960 68 -1100 VRB/04 RMK AO2
14837KMSN MSN20101126203509611/26/10 20:35:31  5-MIN KMSN 270235Z 29006KT 10SM CLR M04/M09 A2982 960 68 -1100 290/06 RMK AO2
14837KMSN MSN20101126204009611/26/10 20:40:31  5-MIN KMSN 270240Z 29004KT 10SM CLR M04/M09 A2982 960 68 -1100 290/04 RMK AO2
14837KMSN MSN20101126204509611/26/10 20:45:31  5-MIN KMSN 270245Z 29007KT 10SM CLR M04/M09 A2982 960 68 -1100 290/07 RMK AO2
14837KMSN MSN20101126205011911/26/10 20:50:31  5-MIN KMSN 270250Z 28008KT 10SM CLR M04/M09 A2982 960 68 -1100 280/08 RMK AO2 SLP111 T10441094 53016
14837KMSN MSN20101126205509611/26/10 20:55:31  5-MIN KMSN 270255Z 29005KT 10SM CLR M04/M09 A2982 960 68 -1100 290/05 RMK AO2
14837KMSN MSN20101126210009611/26/10 21:00:31  5-MIN KMSN 270300Z 30006KT 10SM CLR M04/M10 A2982 960 65 -1100 300/06 RMK AO2
14837KMSN MSN20101126210509611/26/10 21:05:31  5-MIN KMSN 270305Z 30008KT 10SM CLR M04/M10 A2982 960 65 -1100 300/08 RMK AO2
14837KMSN MSN20101126211009611/26/10 21:10:31  5-MIN KMSN 270310Z 29007KT 10SM CLR M04/M10 A2982 950 65 -1100 290/07 RMK AO2
14837KMSN MSN20101126211509611/26/10 21:15:31  5-MIN KMSN 270315Z 30008KT 10SM CLR M04/M10 A2982 950 65 -1100 300/08 RMK AO2
14837KMSN MSN20101126212009611/26/10 21:20:31  5-MIN KMSN 270320Z 30006KT 10SM CLR M04/M10 A2982 950 65 -1100 300/06 RMK AO2
14837KMSN MSN20101126212509611/26/10 21:25:31  5-MIN KMSN 270325Z 29009KT 10SM CLR M05/M10 A2983 950 68 -1200 290/09 RMK AO2
14837KMSN MSN20101126213010211/26/10 21:30:31  5-MIN KMSN 270330Z 30009G15KT 10SM CLR M04/M11 A2983 950 62 -1100 300/09G15 RMK AO2
14837KMSN MSN20101126213510211/26/10 21:35:31  5-MIN KMSN 270335Z 30007G15KT 10SM CLR M05/M11 A2983 950 65 -1200 300/07G15 RMK AO2
14837KMSN MSN20101126214009611/26/10 21:40:31  5-MIN KMSN 270340Z 30009KT 10SM CLR M05/M11 A2983 950 65 -1200 300/09 RMK AO2
14837KMSN MSN20101126214509611/26/10 21:45:31  5-MIN KMSN 270345Z 30008KT 10SM CLR M05/M11 A2983 950 65 -1200 290/08 RMK AO2
14837KMSN MSN20101126215011311/26/10 21:50:31  5-MIN KMSN 270350Z 30006KT 10SM CLR M05/M11 A2983 950 65 -1200 300/06 RMK AO2 SLP115 T10501106
14837KMSN MSN20101126215509611/26/10 21:55:31  5-MIN KMSN 270355Z 30008KT 10SM CLR M05/M11 A2983 950 65 -1200 300/08 RMK AO2
14837KMSN MSN20101126220009611/26/10 22:00:31  5-MIN KMSN 270400Z 30007KT 10SM CLR M05/M11 A2983 950 65 -1200 300/07 RMK AO2
14837KMSN MSN20101126220510211/26/10 22:05:31  5-MIN KMSN 270405Z 30010G15KT 10SM CLR M05/M11 A2983 940 65 -1200 300/10G15 RMK AO2
14837KMSN MSN20101126221010211/26/10 22:10:31  5-MIN KMSN 270410Z 30009G15KT 10SM CLR M05/M11 A2983 940 65 -1200 300/09G15 RMK AO2
14837KMSN MSN20101126221509611/26/10 22:15:31  5-MIN KMSN 270415Z 30008KT 10SM CLR M05/M11 A2983 940 65 -1200 290/08 RMK AO2
14837KMSN MSN20101126222010211/26/10 22:20:31  5-MIN KMSN 270420Z 29010G16KT 10SM CLR M05/M11 A2984 940 65 -1200 290/10G16 RMK AO2
14837KMSN MSN20101126222510211/26/10 22:25:31  5-MIN KMSN 270425Z 29007G16KT 10SM CLR M05/M11 A2984 940 65 -1200 290/07G16 RMK AO2
14837KMSN MSN20101126223009611/26/10 22:30:31  5-MIN KMSN 270430Z 29006KT 10SM CLR M05/M11 A2984 940 65 -1200 290/06 RMK AO2
14837KMSN MSN20101126223510211/26/10 22:35:31  5-MIN KMSN 270435Z 28008G14KT 10SM CLR M05/M11 A2984 940 65 -1200 280/08G14 RMK AO2
14837KMSN MSN20101126224011811/26/10 22:40:31  5-MIN KMSN 270440Z 28007G14KT 240V310 10SM CLR M05/M11 A2984 940 65 -1200 280/07G14 240V310 RMK AO2
14837KMSN MSN20101126224511211/26/10 22:45:31  5-MIN KMSN 270445Z 28007KT 240V310 10SM CLR M05/M11 A2984 940 62 -1200 280/07 240V310 RMK AO2
14837KMSN MSN20101126225011311/26/10 22:50:31  5-MIN KMSN 270450Z 28007KT 10SM CLR M06/M11 A2984 940 65 -1300 280/07 RMK AO2 SLP118 T10561111
14837KMSN MSN20101126225509611/26/10 22:55:31  5-MIN KMSN 270455Z 28007KT 10SM CLR M06/M11 A2984 940 65 -1300 280/07 RMK AO2
14837KMSN MSN20101126230009611/26/10 23:00:31  5-MIN KMSN 270500Z 27007KT 10SM CLR M06/M11 A2984 940 65 -1300 270/07 RMK AO2
14837KMSN MSN20101126230509611/26/10 23:05:31  5-MIN KMSN 270505Z 28007KT 10SM CLR M06/M11 A2984 940 65 -1300 280/07 RMK AO2
14837KMSN MSN20101126231009611/26/10 23:10:31  5-MIN KMSN 270510Z 28006KT 10SM CLR M06/M11 A2984 940 65 -1300 280/06 RMK AO2
14837KMSN MSN20101126231509611/26/10 23:15:31  5-MIN KMSN 270515Z 28006KT 10SM CLR M06/M11 A2984 930 65 -1300 280/06 RMK AO2
14837KMSN MSN20101126232010211/26/10 23:20:31  5-MIN KMSN 270520Z 27006G14KT 10SM CLR M06/M11 A2984 940 65 -1300 270/06G14 RMK AO2
14837KMSN MSN20101126232510211/26/10 23:25:31  5-MIN KMSN 270525Z 28005G14KT 10SM CLR M06/M11 A2985 930 65 -1300 280/05G14 RMK AO2
14837KMSN MSN20101126233009611/26/10 23:30:31  5-MIN KMSN 270530Z 28006KT 10SM CLR M06/M11 A2985 930 65 -1300 280/06 RMK AO2
14837KMSN MSN20101126233509611/26/10 23:35:31  5-MIN KMSN 270535Z 29007KT 10SM CLR M06/M11 A2985 930 65 -1300 290/07 RMK AO2
14837KMSN MSN20101126234010211/26/10 23:40:31  5-MIN KMSN 270540Z 29008G15KT 10SM CLR M06/M11 A2985 930 65 -1300 290/08G15 RMK AO2
14837KMSN MSN20101126234510211/26/10 23:45:31  5-MIN KMSN 270545Z 28006G15KT 10SM CLR M06/M11 A2985 930 65 -1300 280/06G15 RMK AO2
14837KMSN MSN20101126235014111/26/10 23:50:31  5-MIN KMSN 270550Z 29008KT 10SM CLR M06/M11 A2985 930 65 -1300 290/08 RMK AO2 SLP121 T10561111 11033 21056 410061089 53008
14837KMSN MSN20101126235509611/26/10 23:55:31  5-MIN KMSN 270555Z 29007KT 10SM CLR M06/M11 A2985 930 65 -1300 290/07 RMK AO2
14837KMSN MSN20101127000009611/27/10 00:00:32  5-MIN KMSN 270600Z VRB06KT 10SM CLR M06/M11 A2986 920 65 -1300 VRB/06 RMK AO2
14837KMSN MSN20101127000509611/27/10 00:05:31  5-MIN KMSN 270605Z 29006KT 10SM CLR M06/M11 A2986 920 65 -1300 290/06 RMK AO2
14837KMSN MSN20101127001009611/27/10 00:10:31  5-MIN KMSN 270610Z 29007KT 10SM CLR M06/M11 A2986 920 65 -1300 280/07 RMK AO2
14837KMSN MSN20101127001509611/27/10 00:15:31  5-MIN KMSN 270615Z 29006KT 10SM CLR M06/M11 A2986 920 65 -1300 290/06 RMK AO2
14837KMSN MSN20101127002009611/27/10 00:20:31  5-MIN KMSN 270620Z 29006KT 10SM CLR M06/M11 A2986 920 65 -1300 290/06 RMK AO2
14837KMSN MSN20101127002511211/27/10 00:25:31  5-MIN KMSN 270625Z 29007KT 270V330 10SM CLR M06/M11 A2986 920 65 -1300 290/07 270V330 RMK AO2
14837KMSN MSN20101127003009611/27/10 00:30:31  5-MIN KMSN 270630Z 30008KT 10SM CLR M06/M11 A2986 920 65 -1300 290/08 RMK AO2
14837KMSN MSN20101127003509611/27/10 00:35:31  5-MIN KMSN 270635Z VRB05KT 10SM CLR M06/M11 A2986 920 65 -1300 VRB/05 RMK AO2
14837KMSN MSN20101127004010211/27/10 00:40:31  5-MIN KMSN 270640Z 29009G14KT 10SM CLR M06/M11 A2986 920 65 -1300 290/09G14 RMK AO2
14837KMSN MSN20101127004510211/27/10 00:45:31  5-MIN KMSN 270645Z 30007G14KT 10SM CLR M06/M11 A2986 920 65 -1300 300/07G14 RMK AO2
14837KMSN MSN20101127005011311/27/10 00:50:31  5-MIN KMSN 270650Z 30005KT 10SM CLR M06/M11 A2986 920 65 -1300 300/05 RMK AO2 SLP124 T10561111
14837KMSN MSN20101127005509611/27/10 00:55:31  5-MIN KMSN 270655Z 30006KT 10SM CLR M06/M11 A2986 920 65 -1300 300/06 RMK AO2
14837KMSN MSN20101127010009611/27/10 01:00:31  5-MIN KMSN 270700Z 30007KT 10SM CLR M06/M11 A2987 920 65 -1300 300/07 RMK AO2
14837KMSN MSN20101127010509611/27/10 01:05:31  5-MIN KMSN 270705Z 29005KT 10SM CLR M06/M11 A2987 910 68 -1400 290/05 RMK AO2
14837KMSN MSN20101127011009611/27/10 01:10:31  5-MIN KMSN 270710Z 30007KT 10SM CLR M06/M11 A2987 910 68 -1400 300/07 RMK AO2
14837KMSN MSN20101127011509611/27/10 01:15:31  5-MIN KMSN 270715Z 30009KT 10SM CLR M06/M11 A2986 920 65 -1300 300/09 RMK AO2
14837KMSN MSN20101127012009611/27/10 01:20:31  5-MIN KMSN 270720Z 30007KT 10SM CLR M06/M11 A2986 920 68 -1400 300/07 RMK AO2
14837KMSN MSN20101127012509611/27/10 01:25:31  5-MIN KMSN 270725Z 30008KT 10SM CLR M06/M11 A2986 920 68 -1400 300/08 RMK AO2
14837KMSN MSN20101127013009611/27/10 01:30:31  5-MIN KMSN 270730Z 30006KT 10SM CLR M06/M11 A2987 910 68 -1400 300/06 RMK AO2
14837KMSN MSN20101127013509611/27/10 01:35:31  5-MIN KMSN 270735Z 30005KT 10SM CLR M06/M11 A2987 910 68 -1400 300/05 RMK AO2
14837KMSN MSN20101127014009611/27/10 01:40:31  5-MIN KMSN 270740Z 29005KT 10SM CLR M06/M11 A2987 910 68 -1400 290/05 RMK AO2
14837KMSN MSN20101127014509611/27/10 01:45:31  5-MIN KMSN 270745Z 30005KT 10SM CLR M06/M11 A2988 910 68 -1400 300/05 RMK AO2
14837KMSN MSN20101127015011311/27/10 01:50:31  5-MIN KMSN 270750Z 29006KT 10SM CLR M06/M11 A2988 900 68 -1400 290/06 RMK AO2 SLP129 T10611111
14837KMSN MSN20101127015509611/27/10 01:55:31  5-MIN KMSN 270755Z 29007KT 10SM CLR M06/M11 A2988 900 68 -1400 290/07 RMK AO2
14837KMSN MSN20101127020009611/27/10 02:00:31  5-MIN KMSN 270800Z 29006KT 10SM CLR M06/M11 A2988 900 68 -1400 290/06 RMK AO2
14837KMSN MSN20101127020510211/27/10 02:05:31  5-MIN KMSN 270805Z 30006G14KT 10SM CLR M06/M11 A2988 900 68 -1400 300/06G14 RMK AO2
14837KMSN MSN20101127021010211/27/10 02:10:31  5-MIN KMSN 270810Z 30008G14KT 10SM CLR M06/M11 A2988 900 68 -1400 300/08G14 RMK AO2
14837KMSN MSN20101127021509611/27/10 02:15:31  5-MIN KMSN 270815Z 30008KT 10SM CLR M06/M11 A2988 900 68 -1400 290/08 RMK AO2
14837KMSN MSN20101127022009611/27/10 02:20:31  5-MIN KMSN 270820Z 29007KT 10SM CLR M06/M11 A2988 900 68 -1400 290/07 RMK AO2
14837KMSN MSN20101127022509611/27/10 02:25:31  5-MIN KMSN 270825Z 30007KT 10SM CLR M06/M11 A2988 900 68 -1400 300/07 RMK AO2
14837KMSN MSN20101127023009611/27/10 02:30:31  5-MIN KMSN 270830Z 31007KT 10SM CLR M07/M11 A2988 900 71 -1500 300/07 RMK AO2
14837KMSN MSN20101127023509611/27/10 02:35:31  5-MIN KMSN 270835Z 31006KT 10SM CLR M07/M11 A2988 900 71 -1500 300/06 RMK AO2
14837KMSN MSN20101127024009611/27/10 02:40:31  5-MIN KMSN 270840Z 29006KT 10SM CLR M07/M11 A2988 900 71 -1500 290/06 RMK AO2
14837KMSN MSN20101127024509611/27/10 02:45:31  5-MIN KMSN 270845Z 30005KT 10SM CLR M07/M11 A2989 890 71 -1500 300/05 RMK AO2
14837KMSN MSN20101127025011911/27/10 02:50:31  5-MIN KMSN 270850Z 30007KT 10SM CLR M07/M11 A2989 890 71 -1500 300/07 RMK AO2 SLP134 T10671111 51011
14837KMSN MSN20101127025509611/27/10 02:55:31  5-MIN KMSN 270855Z 30003KT 10SM CLR M07/M11 A2989 890 71 -1500 300/03 RMK AO2
14837KMSN MSN20101127030009611/27/10 03:00:31  5-MIN KMSN 270900Z 30005KT 10SM CLR M07/M11 A2990 890 71 -1500 300/05 RMK AO2
14837KMSN MSN20101127030509611/27/10 03:05:31  5-MIN KMSN 270905Z VRB04KT 10SM CLR M07/M11 A2990 880 71 -1500 VRB/04 RMK AO2
14837KMSN MSN20101127031009611/27/10 03:10:31  5-MIN KMSN 270910Z 30005KT 10SM CLR M07/M11 A2990 880 71 -1500 300/05 RMK AO2
14837KMSN MSN20101127031509611/27/10 03:15:31  5-MIN KMSN 270915Z 29006KT 10SM CLR M07/M11 A2990 880 71 -1500 290/06 RMK AO2
14837KMSN MSN20101127032009611/27/10 03:20:31  5-MIN KMSN 270920Z 30006KT 10SM CLR M07/M11 A2990 880 71 -1500 300/06 RMK AO2
14837KMSN MSN20101127032509611/27/10 03:25:31  5-MIN KMSN 270925Z 30006KT 10SM CLR M07/M11 A2990 880 71 -1500 300/06 RMK AO2
14837KMSN MSN20101127033009611/27/10 03:30:31  5-MIN KMSN 270930Z 30007KT 10SM CLR M07/M11 A2991 880 71 -1500 300/07 RMK AO2
14837KMSN MSN20101127033509611/27/10 03:35:31  5-MIN KMSN 270935Z 29005KT 10SM CLR M07/M11 A2991 880 71 -1500 290/05 RMK AO2
14837KMSN MSN20101127034009611/27/10 03:40:31  5-MIN KMSN 270940Z 30005KT 10SM CLR M07/M11 A2991 880 71 -1500 300/05 RMK AO2
14837KMSN MSN20101127034509611/27/10 03:45:31  5-MIN KMSN 270945Z 28005KT 10SM CLR M07/M11 A2991 880 71 -1500 280/05 RMK AO2
14837KMSN MSN20101127035011311/27/10 03:50:31  5-MIN KMSN 270950Z 00000KT 10SM CLR M07/M11 A2991 870 71 -1500 000/00 RMK AO2 SLP141 T10671111
14837KMSN MSN20101127035509611/27/10 03:55:31  5-MIN KMSN 270955Z 29004KT 10SM CLR M07/M11 A2991 870 74 -1600 290/04 RMK AO2
14837KMSN MSN20101127040009611/27/10 04:00:31  5-MIN KMSN 271000Z 29004KT 10SM CLR M07/M11 A2992 870 74 -1600 290/04 RMK AO2
14837KMSN MSN20101127040509611/27/10 04:05:31  5-MIN KMSN 271005Z 29005KT 10SM CLR M07/M11 A2992 870 74 -1600 290/05 RMK AO2
14837KMSN MSN20101127041009611/27/10 04:10:31  5-MIN KMSN 271010Z 29004KT 10SM CLR M07/M11 A2992 860 74 -1600 290/04 RMK AO2
14837KMSN MSN20101127041509611/27/10 04:15:31  5-MIN KMSN 271015Z 29004KT 10SM CLR M07/M11 A2992 860 74 -1600 280/04 RMK AO2
14837KMSN MSN20101127042009611/27/10 04:20:31  5-MIN KMSN 271020Z 29006KT 10SM CLR M07/M11 A2992 860 74 -1600 290/06 RMK AO2
14837KMSN MSN20101127042509611/27/10 04:25:31  5-MIN KMSN 271025Z 29005KT 10SM CLR M07/M11 A2993 860 74 -1600 290/05 RMK AO2
14837KMSN MSN20101127043009611/27/10 04:30:31  5-MIN KMSN 271030Z 29004KT 10SM CLR M07/M11 A2993 850 74 -1600 290/04 RMK AO2
14837KMSN MSN20101127043509611/27/10 04:35:31  5-MIN KMSN 271035Z VRB04KT 10SM CLR M07/M11 A2993 850 74 -1600 VRB/04 RMK AO2
14837KMSN MSN20101127044009611/27/10 04:40:31  5-MIN KMSN 271040Z 29005KT 10SM CLR M07/M11 A2993 850 74 -1600 290/05 RMK AO2
14837KMSN MSN20101127044509611/27/10 04:45:31  5-MIN KMSN 271045Z 30004KT 10SM CLR M07/M12 A2993 850 71 -1600 300/04 RMK AO2
14837KMSN MSN20101127045011311/27/10 04:50:31  5-MIN KMSN 271050Z 31004KT 10SM CLR M07/M12 A2994 850 71 -1600 300/04 RMK AO2 SLP151 T10721117
14837KMSN MSN20101127045509611/27/10 04:55:31  5-MIN KMSN 271055Z 29005KT 10SM CLR M07/M12 A2994 850 71 -1600 290/05 RMK AO2
14837KMSN MSN20101127050009611/27/10 05:00:31  5-MIN KMSN 271100Z 30005KT 10SM CLR M07/M12 A2994 850 71 -1600 300/05 RMK AO2
14837KMSN MSN20101127050509611/27/10 05:05:31  5-MIN KMSN 271105Z 30004KT 10SM CLR M07/M12 A2994 850 71 -1600 300/04 RMK AO2
14837KMSN MSN20101127051009611/27/10 05:10:31  5-MIN KMSN 271110Z 29004KT 10SM CLR M07/M12 A2994 850 71 -1600 280/04 RMK AO2
14837KMSN MSN20101127051509611/27/10 05:15:31  5-MIN KMSN 271115Z 29005KT 10SM CLR M07/M12 A2994 850 71 -1600 290/05 RMK AO2
14837KMSN MSN20101127052009611/27/10 05:20:31  5-MIN KMSN 271120Z 28004KT 10SM CLR M07/M12 A2995 840 71 -1600 280/04 RMK AO2
14837KMSN MSN20101127052509611/27/10 05:25:31  5-MIN KMSN 271125Z 29003KT 10SM CLR M07/M12 A2995 840 71 -1600 280/03 RMK AO2
14837KMSN MSN20101127053009611/27/10 05:30:31  5-MIN KMSN 271130Z VRB05KT 10SM CLR M07/M12 A2995 840 71 -1600 VRB/05 RMK AO2
14837KMSN MSN20101127053509611/27/10 05:35:31  5-MIN KMSN 271135Z 28003KT 10SM CLR M07/M12 A2995 830 71 -1600 280/03 RMK AO2
14837KMSN MSN20101127054009611/27/10 05:40:31  5-MIN KMSN 271140Z 28003KT 10SM CLR M07/M12 A2996 830 71 -1600 280/03 RMK AO2
14837KMSN MSN20101127054509611/27/10 05:45:31  5-MIN KMSN 271145Z 29006KT 10SM CLR M07/M12 A2996 830 71 -1600 290/06 RMK AO2
14837KMSN MSN20101127055013111/27/10 05:50:31  5-MIN KMSN 271150Z 30005KT 10SM CLR M07/M12 A2996 830 71 -1600 290/05 RMK AO2 SLP158 T10721117 11056 21072 53012
14837KMSN MSN20101127055509611/27/10 05:55:31  5-MIN KMSN 271155Z 28004KT 10SM CLR M08/M12 A2996 830 74 -1700 280/04 RMK AO2
14837KMSN MSN20101127060009611/27/10 06:00:31  5-MIN KMSN 271200Z VRB05KT 10SM CLR M08/M12 A2996 820 74 -1700 VRB/05 RMK AO2
14837KMSN MSN20101127060509611/27/10 06:05:31  5-MIN KMSN 271205Z 29004KT 10SM CLR M08/M12 A2996 820 74 -1700 290/04 RMK AO2
14837KMSN MSN20101127061009611/27/10 06:10:31  5-MIN KMSN 271210Z 28006KT 10SM CLR M08/M12 A2997 820 74 -1700 280/06 RMK AO2
14837KMSN MSN20101127061509611/27/10 06:15:31  5-MIN KMSN 271215Z 29003KT 10SM CLR M08/M12 A2997 820 74 -1700 290/03 RMK AO2
14837KMSN MSN20101127062009611/27/10 06:20:31  5-MIN KMSN 271220Z 29004KT 10SM CLR M08/M12 A2997 820 74 -1700 290/04 RMK AO2
14837KMSN MSN20101127062509611/27/10 06:25:31  5-MIN KMSN 271225Z 29005KT 10SM CLR M08/M12 A2997 820 74 -1700 290/05 RMK AO2
14837KMSN MSN20101127063009611/27/10 06:30:31  5-MIN KMSN 271230Z 29005KT 10SM CLR M08/M12 A2997 820 74 -1700 290/05 RMK AO2
14837KMSN MSN20101127063509611/27/10 06:35:31  5-MIN KMSN 271235Z 30005KT 10SM CLR M08/M12 A2997 820 74 -1700 300/05 RMK AO2
14837KMSN MSN20101127064009611/27/10 06:40:31  5-MIN KMSN 271240Z 30004KT 10SM CLR M08/M12 A2998 810 74 -1700 300/04 RMK AO2
14837KMSN MSN20101127064509611/27/10 06:45:31  5-MIN KMSN 271245Z 00000KT 10SM CLR M08/M12 A2998 810 74 -1700 000/00 RMK AO2
14837KMSN MSN20101127065011311/27/10 06:50:31  5-MIN KMSN 271250Z 00000KT 10SM CLR M08/M12 A2998 810 74 -1700 000/00 RMK AO2 SLP164 T10781117
14837KMSN MSN20101127065509611/27/10 06:55:31  5-MIN KMSN 271255Z 00000KT 10SM CLR M08/M12 A2998 810 74 -1700 000/00 RMK AO2
14837KMSN MSN20101127070009611/27/10 07:00:31  5-MIN KMSN 271300Z 30004KT 10SM CLR M08/M12 A2998 810 74 -1700 300/04 RMK AO2
14837KMSN MSN20101127070509611/27/10 07:05:31  5-MIN KMSN 271305Z 29004KT 10SM CLR M08/M12 A2999 800 74 -1700 290/04 RMK AO2
14837KMSN MSN20101127071009611/27/10 07:10:31  5-MIN KMSN 271310Z 00000KT 10SM CLR M08/M12 A2999 800 74 -1700 000/00 RMK AO2
14837KMSN MSN20101127071509611/27/10 07:15:31  5-MIN KMSN 271315Z 31003KT 10SM CLR M08/M12 A2999 800 74 -1700 310/03 RMK AO2
14837KMSN MSN20101127072009611/27/10 07:20:31  5-MIN KMSN 271320Z 30003KT 10SM CLR M08/M12 A2999 800 74 -1700 300/03 RMK AO2
14837KMSN MSN20101127072509611/27/10 07:25:31  5-MIN KMSN 271325Z 30003KT 10SM CLR M08/M12 A2999 800 74 -1700 300/03 RMK AO2
14837KMSN MSN20101127073009611/27/10 07:30:31  5-MIN KMSN 271330Z 31003KT 10SM CLR M08/M12 A2999 800 74 -1700 310/03 RMK AO2
14837KMSN MSN20101127073509611/27/10 07:35:31  5-MIN KMSN 271335Z 30004KT 10SM CLR M08/M12 A3000 800 74 -1700 300/04 RMK AO2
14837KMSN MSN20101127074009611/27/10 07:40:31  5-MIN KMSN 271340Z 30003KT 10SM CLR M07/M12 A3000 800 71 -1700 300/03 RMK AO2
14837KMSN MSN20101127074509611/27/10 07:45:31  5-MIN KMSN 271345Z 29003KT 10SM CLR M07/M12 A3000 790 71 -1700 290/03 RMK AO2
14837KMSN MSN20101127075011311/27/10 07:50:31  5-MIN KMSN 271350Z 29004KT 10SM CLR M07/M12 A3000 800 71 -1700 290/04 RMK AO2 SLP171 T10721117
14837KMSN MSN20101127075509611/27/10 07:55:31  5-MIN KMSN 271355Z 30003KT 10SM CLR M07/M12 A3000 790 71 -1700 300/03 RMK AO2
14837KMSN MSN20101127080009611/27/10 08:00:31  5-MIN KMSN 271400Z 29004KT 10SM CLR M07/M12 A3000 790 71 -1700 290/04 RMK AO2
14837KMSN MSN20101127080509611/27/10 08:05:31  5-MIN KMSN 271405Z 30005KT 10SM CLR M07/M12 A3000 790 68 -1600 300/05 RMK AO2
14837KMSN MSN20101127081009611/27/10 08:10:31  5-MIN KMSN 271410Z 30003KT 10SM CLR M07/M11 A3000 790 71 -1600 300/03 RMK AO2
14837KMSN MSN20101127081509611/27/10 08:15:31  5-MIN KMSN 271415Z 30004KT 10SM CLR M07/M11 A3000 790 71 -1600 300/04 RMK AO2
14837KMSN MSN20101127082009611/27/10 08:20:31  5-MIN KMSN 271420Z 30004KT 10SM CLR M07/M11 A3001 790 71 -1600 300/04 RMK AO2
14837KMSN MSN20101127082509611/27/10 08:25:31  5-MIN KMSN 271425Z 30006KT 10SM CLR M07/M11 A3001 780 71 -1600 300/06 RMK AO2
14837KMSN MSN20101127083009611/27/10 08:30:31  5-MIN KMSN 271430Z 27005KT 10SM CLR M07/M11 A3002 770 71 -1600 270/05 RMK AO2
14837KMSN MSN20101127083509611/27/10 08:35:31  5-MIN KMSN 271435Z 29006KT 10SM CLR M06/M11 A3002 770 68 -1600 290/06 RMK AO2
14837KMSN MSN20101127084009611/27/10 08:40:31  5-MIN KMSN 271440Z 30004KT 10SM CLR M06/M11 A3002 770 68 -1600 300/04 RMK AO2
14837KMSN MSN20101127084509611/27/10 08:45:31  5-MIN KMSN 271445Z VRB03KT 10SM CLR M06/M11 A3002 770 71 -1600 VRB/03 RMK AO2
14837KMSN MSN20101127085011911/27/10 08:50:31  5-MIN KMSN 271450Z VRB05KT 10SM CLR M06/M11 A3002 770 68 -1600 VRB/05 RMK AO2 SLP179 T10611111 53024
14837KMSN MSN20101127085509611/27/10 08:55:31  5-MIN KMSN 271455Z 29006KT 10SM CLR M06/M11 A3002 770 68 -1500 290/06 RMK AO2
14837KMSN MSN20101127090009611/27/10 09:00:31  5-MIN KMSN 271500Z 28007KT 10SM CLR M06/M11 A3003 770 68 -1600 280/07 RMK AO2
14837KMSN MSN20101127090509611/27/10 09:05:31  5-MIN KMSN 271505Z 30007KT 10SM CLR M06/M11 A3003 760 68 -1600 300/07 RMK AO2
14837KMSN MSN20101127091009611/27/10 09:10:31  5-MIN KMSN 271510Z 28007KT 10SM CLR M06/M11 A3003 760 68 -1500 280/07 RMK AO2
14837KMSN MSN20101127091509611/27/10 09:15:31  5-MIN KMSN 271515Z VRB05KT 10SM CLR M06/M11 A3004 760 68 -1500 VRB/05 RMK AO2
14837KMSN MSN20101127092009611/27/10 09:20:31  5-MIN KMSN 271520Z 29006KT 10SM CLR M06/M11 A3004 750 65 -1500 290/06 RMK AO2
14837KMSN MSN20101127092509611/27/10 09:25:31  5-MIN KMSN 271525Z 30007KT 10SM CLR M06/M11 A3004 760 65 -1500 300/07 RMK AO2
14837KMSN MSN20101127093009611/27/10 09:30:31  5-MIN KMSN 271530Z 30007KT 10SM CLR M05/M11 A3004 760 62 -1400 300/07 RMK AO2
14837KMSN MSN20101127093509611/27/10 09:35:31  5-MIN KMSN 271535Z 30007KT 10SM CLR M05/M11 A3004 750 62 -1400 300/07 RMK AO2
14837KMSN MSN20101127094009611/27/10 09:40:31  5-MIN KMSN 271540Z 29007KT 10SM CLR M05/M11 A3004 750 62 -1400 290/07 RMK AO2
14837KMSN MSN20101127094509611/27/10 09:45:31  5-MIN KMSN 271545Z 28008KT 10SM CLR M05/M11 A3005 750 62 -1400 280/08 RMK AO2
14837KMSN MSN20101127095011311/27/10 09:50:31  5-MIN KMSN 271550Z 28008KT 10SM CLR M05/M11 A3005 750 62 -1400 270/08 RMK AO2 SLP188 T10501111
14837KMSN MSN20101127095509611/27/10 09:55:31  5-MIN KMSN 271555Z 27007KT 10SM CLR M05/M11 A3005 740 65 -1500 270/07 RMK AO2
14837KMSN MSN20101127100009611/27/10 10:00:31  5-MIN KMSN 271600Z 30007KT 10SM CLR M04/M11 A3006 740 62 -1400 300/07 RMK AO2
14837KMSN MSN20101127100509611/27/10 10:05:31  5-MIN KMSN 271605Z VRB05KT 10SM CLR M05/M11 A3006 740 65 -1500 VRB/05 RMK AO2
14837KMSN MSN20101127101009611/27/10 10:10:31  5-MIN KMSN 271610Z VRB06KT 10SM CLR M04/M11 A3006 740 62 -1400 VRB/06 RMK AO2
14837KMSN MSN20101127101509611/27/10 10:15:31  5-MIN KMSN 271615Z VRB05KT 10SM CLR M04/M11 A3006 740 62 -1400 VRB/05 RMK AO2
14837KMSN MSN20101127102009611/27/10 10:20:31  5-MIN KMSN 271620Z VRB06KT 10SM CLR M04/M11 A3006 740 62 -1400 VRB/06 RMK AO2
14837KMSN MSN20101127102509611/27/10 10:25:31  5-MIN KMSN 271625Z VRB06KT 10SM CLR M04/M11 A3006 740 62 -1400 VRB/06 RMK AO2
14837KMSN MSN20101127103009611/27/10 10:30:31  5-MIN KMSN 271630Z 26005KT 10SM CLR M04/M11 A3005 740 62 -1400 260/05 RMK AO2
14837KMSN MSN20101127103509611/27/10 10:35:31  5-MIN KMSN 271635Z 27005KT 10SM CLR M04/M11 A3006 740 60 -1300 270/05 RMK AO2
14837KMSN MSN20101127104009611/27/10 10:40:31  5-MIN KMSN 271640Z 26006KT 10SM CLR M04/M11 A3006 740 60 -1300 260/06 RMK AO2
14837KMSN MSN20101127104509611/27/10 10:45:31  5-MIN KMSN 271645Z VRB05KT 10SM CLR M04/M11 A3006 730 60 -1300 VRB/05 RMK AO2
14837KMSN MSN20101127105012911/27/10 10:50:31  5-MIN KMSN 271650Z 27007KT 240V300 10SM CLR M04/M11 A3006 730 60 -1300 270/07 240V300 RMK AO2 SLP193 T10391106
14837KMSN MSN20101127105509611/27/10 10:55:31  5-MIN KMSN 271655Z 27007KT 10SM CLR M03/M10 A3006 740 60 -1200 260/07 RMK AO2
14837KMSN MSN20101127110009611/27/10 11:00:31  5-MIN KMSN 271700Z 28007KT 10SM CLR M04/M11 A3006 740 60 -1300 280/07 RMK AO2
14837KMSN MSN20101127110509611/27/10 11:05:31  5-MIN KMSN 271705Z VRB05KT 10SM CLR M04/M11 A3005 740 60 -1300 VRB/05 RMK AO2
14837KMSN MSN20101127111009611/27/10 11:10:31  5-MIN KMSN 271710Z VRB06KT 10SM CLR M03/M10 A3005 740 60 -1200 VRB/06 RMK AO2
14837KMSN MSN20101127111509611/27/10 11:15:31  5-MIN KMSN 271715Z 29006KT 10SM CLR M03/M11 A3005 740 57 -1200 280/06 RMK AO2
14837KMSN MSN20101127112009611/27/10 11:20:31  5-MIN KMSN 271720Z 28005KT 10SM CLR M03/M11 A3005 740 57 -1200 280/05 RMK AO2
14837KMSN MSN20101127112509611/27/10 11:25:31  5-MIN KMSN 271725Z 27005KT 10SM CLR M03/M11 A3005 740 57 -1200 270/05 RMK AO2
14837KMSN MSN20101127113009611/27/10 11:30:31  5-MIN KMSN 271730Z 27006KT 10SM CLR M03/M10 A3005 740 58 -1200 270/06 RMK AO2
14837KMSN MSN20101127113509611/27/10 11:35:31  5-MIN KMSN 271735Z 24003KT 10SM CLR M03/M10 A3005 740 58 -1200 240/03 RMK AO2
14837KMSN MSN20101127114009611/27/10 11:40:31  5-MIN KMSN 271740Z 30007KT 10SM CLR M03/M10 A3005 740 58 -1200 300/07 RMK AO2
14837KMSN MSN20101127114509611/27/10 11:45:31  5-MIN KMSN 271745Z 30006KT 10SM CLR M03/M10 A3006 740 58 -1200 300/06 RMK AO2
14837KMSN MSN20101127115013111/27/10 11:50:31  5-MIN KMSN 271750Z 26007KT 10SM CLR M02/M10 A3005 740 55 -1100 260/07 RMK AO2 SLP190 T10221100 11022 21078 53019
14837KMSN MSN20101127115509611/27/10 11:55:31  5-MIN KMSN 271755Z VRB05KT 10SM CLR M02/M10 A3005 740 55 -1100 VRB/05 RMK AO2
14837KMSN MSN20101127120009611/27/10 12:00:31  5-MIN KMSN 271800Z 26005KT 10SM CLR M02/M10 A3006 740 55 -1100 260/05 RMK AO2
14837KMSN MSN20101127120509611/27/10 12:05:31  5-MIN KMSN 271805Z 28006KT 10SM CLR M02/M10 A3005 740 55 -1100 270/06 RMK AO2
14837KMSN MSN20101127121009611/27/10 12:10:31  5-MIN KMSN 271810Z 30005KT 10SM CLR M02/M10 A3005 740 53 -1000 300/05 RMK AO2
14837KMSN MSN20101127121509611/27/10 12:15:31  5-MIN KMSN 271815Z 31004KT 10SM CLR M02/M10 A3005 740 53 -1000 310/04 RMK AO2
14837KMSN MSN20101127122009611/27/10 12:20:31  5-MIN KMSN 271820Z 27005KT 10SM CLR M02/M10 A3005 750 53 -1000 270/05 RMK AO2
14837KMSN MSN20101127122509611/27/10 12:25:31  5-MIN KMSN 271825Z VRB04KT 10SM CLR M02/M10 A3005 750 53 -1000 VRB/04 RMK AO2
14837KMSN MSN20101127123009611/27/10 12:30:31  5-MIN KMSN 271830Z VRB04KT 10SM CLR M02/M10 A3005 750 53 -1000 VRB/04 RMK AO2
14837KMSN MSN20101127123509611/27/10 12:35:31  5-MIN KMSN 271835Z 25006KT 10SM CLR M02/M09 A3005 750 55 -1000 250/06 RMK AO2
14837KMSN MSN20101127124009611/27/10 12:40:31  5-MIN KMSN 271840Z 24006KT 10SM CLR M01/M09 A3005 750 53 -1000 240/06 RMK AO2
14837KMSN MSN20101127124509611/27/10 12:45:31  5-MIN KMSN 271845Z 25005KT 10SM CLR M02/M09 A3005 750 55 -1000 250/05 RMK AO2
14837KMSN MSN20101127125011311/27/10 12:50:31  5-MIN KMSN 271850Z 26006KT 10SM CLR M01/M09 A3005 750 53 -1000 260/06 RMK AO2 SLP188 T10111094
14837KMSN MSN20101127125509611/27/10 12:55:31  5-MIN KMSN 271855Z VRB05KT 10SM CLR M01/M09 A3005 740 53 -1000 VRB/05 RMK AO2
14837KMSN MSN20101127130009611/27/10 13:00:31  5-MIN KMSN 271900Z 27007KT 10SM CLR M01/M09 A3005 740 53 -1000 270/07 RMK AO2
14837KMSN MSN20101127130509611/27/10 13:05:31  5-MIN KMSN 271905Z 24006KT 10SM CLR M01/M09 A3005 740 53 -1000 230/06 RMK AO2
14837KMSN MSN20101127131009611/27/10 13:10:31  5-MIN KMSN 271910Z VRB03KT 10SM CLR M01/M09 A3005 750 53 -1000 VRB/03 RMK AO2
14837KMSN MSN20101127131509511/27/10 13:15:31  5-MIN KMSN 271915Z 29007KT 10SM CLR M01/M09 A3005 750 51 -900 290/07 RMK AO2
14837KMSN MSN20101127132009511/27/10 13:20:31  5-MIN KMSN 271920Z 28005KT 10SM CLR M01/M09 A3005 740 51 -900 280/05 RMK AO2
14837KMSN MSN20101127132509511/27/10 13:25:31  5-MIN KMSN 271925Z 29007KT 10SM CLR M01/M09 A3005 740 51 -900 290/07 RMK AO2
14837KMSN MSN20101127133009611/27/10 13:30:31  5-MIN KMSN 271930Z 24005KT 10SM CLR M01/M09 A3005 740 53 -1000 240/05 RMK AO2
14837KMSN MSN20101127133509511/27/10 13:35:31  5-MIN KMSN 271935Z 26005KT 10SM CLR M01/M09 A3005 740 51 -900 260/05 RMK AO2
14837KMSN MSN20101127134009411/27/10 13:40:31  5-MIN KMSN 271940Z 30004KT 10SM CLR 00/M09 A3005 740 49 -800 300/04 RMK AO2
14837KMSN MSN20101127134509411/27/10 13:45:31  5-MIN KMSN 271945Z 25004KT 10SM CLR 00/M09 A3005 740 49 -800 250/04 RMK AO2
14837KMSN MSN20101127135011111/27/10 13:50:31  5-MIN KMSN 271950Z 00000KT 10SM CLR 00/M09 A3005 740 49 -800 000/00 RMK AO2 SLP188 T00001094
14837KMSN MSN20101127135509411/27/10 13:55:31  5-MIN KMSN 271955Z 25005KT 10SM CLR 00/M09 A3005 740 49 -800 250/05 RMK AO2
14837KMSN MSN20101127140009411/27/10 14:00:31  5-MIN KMSN 272000Z VRB04KT 10SM CLR 00/M09 A3005 740 49 -800 VRB/04 RMK AO2
14837KMSN MSN20101127140509411/27/10 14:05:31  5-MIN KMSN 272005Z 29006KT 10SM CLR 00/M09 A3006 740 49 -800 290/06 RMK AO2
14837KMSN MSN20101127141009411/27/10 14:10:31  5-MIN KMSN 272010Z 29007KT 10SM CLR 00/M09 A3005 740 49 -800 290/07 RMK AO2
14837KMSN MSN20101127141509411/27/10 14:15:31  5-MIN KMSN 272015Z 29005KT 10SM CLR 00/M09 A3005 740 49 -800 290/05 RMK AO2
14837KMSN MSN20101127142009411/27/10 14:20:31  5-MIN KMSN 272020Z 28005KT 10SM CLR 00/M09 A3006 740 49 -800 280/05 RMK AO2
14837KMSN MSN20101127142509411/27/10 14:25:31  5-MIN KMSN 272025Z 27005KT 10SM CLR 00/M09 A3006 740 49 -800 270/05 RMK AO2
14837KMSN MSN20101127143009411/27/10 14:30:31  5-MIN KMSN 272030Z 29004KT 10SM CLR 01/M09 A3006 740 47 -800 290/04 RMK AO2
14837KMSN MSN20101127143509411/27/10 14:35:31  5-MIN KMSN 272035Z 29005KT 10SM CLR 01/M09 A3006 730 47 -800 290/05 RMK AO2
14837KMSN MSN20101127144009411/27/10 14:40:31  5-MIN KMSN 272040Z 29005KT 10SM CLR 01/M09 A3006 730 47 -800 290/05 RMK AO2
14837KMSN MSN20101127144509411/27/10 14:45:31  5-MIN KMSN 272045Z 29004KT 10SM CLR 01/M09 A3006 730 47 -800 290/04 RMK AO2
14837KMSN MSN20101127145011711/27/10 14:50:31  5-MIN KMSN 272050Z 29006KT 10SM CLR 01/M09 A3006 730 47 -800 290/06 RMK AO2 SLP191 T00061094 50012
14837KMSN MSN20101127145509411/27/10 14:55:31  5-MIN KMSN 272055Z VRB05KT 10SM CLR 01/M09 A3006 730 47 -800 VRB/05 RMK AO2
14837KMSN MSN20101127150009411/27/10 15:00:31  5-MIN KMSN 272100Z VRB03KT 10SM CLR 01/M09 A3007 730 47 -800 VRB/03 RMK AO2
14837KMSN MSN20101127150509411/27/10 15:05:31  5-MIN KMSN 272105Z 29006KT 10SM CLR 01/M09 A3007 730 47 -800 290/06 RMK AO2
14837KMSN MSN20101127151009411/27/10 15:10:31  5-MIN KMSN 272110Z 31006KT 10SM CLR 00/M09 A3006 730 49 -800 310/06 RMK AO2
14837KMSN MSN20101127151509411/27/10 15:15:31  5-MIN KMSN 272115Z 29003KT 10SM CLR 00/M09 A3006 730 49 -800 290/03 RMK AO2
14837KMSN MSN20101127152009411/27/10 15:20:31  5-MIN KMSN 272120Z 30004KT 10SM CLR 00/M09 A3007 730 49 -800 300/04 RMK AO2
14837KMSN MSN20101127152509411/27/10 15:25:31  5-MIN KMSN 272125Z 00000KT 10SM CLR 00/M09 A3007 730 49 -800 000/00 RMK AO2
14837KMSN MSN20101127153009511/27/10 15:30:31  5-MIN KMSN 272130Z 31003KT 10SM CLR M01/M09 A3007 730 53 -900 310/03 RMK AO2
14837KMSN MSN20101127153509511/27/10 15:35:31  5-MIN KMSN 272135Z 00000KT 10SM CLR M01/M09 A3007 730 51 -900 000/00 RMK AO2
14837KMSN MSN20101127154009511/27/10 15:40:31  5-MIN KMSN 272140Z 29004KT 10SM CLR M01/M09 A3007 720 53 -900 290/04 RMK AO2
14837KMSN MSN20101127154509511/27/10 15:45:31  5-MIN KMSN 272145Z 30003KT 10SM CLR M01/M09 A3007 720 51 -900 300/03 RMK AO2
14837KMSN MSN20101127155011211/27/10 15:50:31  5-MIN KMSN 272150Z 00000KT 10SM CLR M01/M09 A3007 720 53 -900 000/00 RMK AO2 SLP197 T10061089
14837KMSN MSN20101127155509511/27/10 15:55:31  5-MIN KMSN 272155Z 33003KT 10SM CLR M01/M09 A3007 720 51 -900 320/03 RMK AO2
14837KMSN MSN20101127160009611/27/10 16:00:31  5-MIN KMSN 272200Z 00000KT 10SM CLR M01/M09 A3008 720 55 -1000 000/00 RMK AO2
14837KMSN MSN20101127160509611/27/10 16:05:31  5-MIN KMSN 272205Z 30003KT 10SM CLR M01/M09 A3008 720 55 -1000 300/03 RMK AO2
14837KMSN MSN20101127161009611/27/10 16:10:31  5-MIN KMSN 272210Z 30003KT 10SM CLR M01/M09 A3008 720 55 -1000 300/03 RMK AO2
14837KMSN MSN20101127161509611/27/10 16:15:31  5-MIN KMSN 272215Z 30003KT 10SM CLR M01/M09 A3008 710 55 -1000 300/03 RMK AO2
14837KMSN MSN20101127162009611/27/10 16:20:31  5-MIN KMSN 272220Z 00000KT 10SM CLR M01/M09 A3008 720 55 -1000 000/00 RMK AO2
14837KMSN MSN20101127162509611/27/10 16:25:31  5-MIN KMSN 272225Z 00000KT 10SM CLR M02/M09 A3008 720 58 -1100 000/00 RMK AO2
14837KMSN MSN20101127163009611/27/10 16:30:31  5-MIN KMSN 272230Z 00000KT 10SM CLR M02/M09 A3008 720 55 -1100 000/00 RMK AO2
14837KMSN MSN20101127163509611/27/10 16:35:31  5-MIN KMSN 272235Z 30003KT 10SM CLR M02/M09 A3008 720 60 -1100 290/03 RMK AO2
14837KMSN MSN20101127164009611/27/10 16:40:31  5-MIN KMSN 272240Z 00000KT 10SM CLR M02/M09 A3008 710 60 -1100 000/00 RMK AO2
14837KMSN MSN20101127164509611/27/10 16:45:31  5-MIN KMSN 272245Z 29003KT 10SM CLR M02/M09 A3009 710 58 -1100 290/03 RMK AO2
14837KMSN MSN20101127165011311/27/10 16:50:31  5-MIN KMSN 272250Z 29003KT 10SM CLR M02/M09 A3009 710 60 -1100 290/03 RMK AO2 SLP202 T10221089
14837KMSN MSN20101127165509611/27/10 16:55:31  5-MIN KMSN 272255Z 29004KT 10SM CLR M02/M09 A3009 710 60 -1100 290/04 RMK AO2
14837KMSN MSN20101127170009611/27/10 17:00:31  5-MIN KMSN 272300Z 30003KT 10SM CLR M02/M09 A3009 710 58 -1100 300/03 RMK AO2
14837KMSN MSN20101127170509611/27/10 17:05:31  5-MIN KMSN 272305Z 00000KT 10SM CLR M02/M09 A3009 710 58 -1100 000/00 RMK AO2
14837KMSN MSN20101127171009611/27/10 17:10:31  5-MIN KMSN 272310Z 00000KT 10SM CLR M02/M09 A3009 710 58 -1100 000/00 RMK AO2
14837KMSN MSN20101127171509611/27/10 17:15:31  5-MIN KMSN 272315Z 00000KT 10SM CLR M02/M09 A3008 710 58 -1100 000/00 RMK AO2
14837KMSN MSN20101127172009611/27/10 17:20:31  5-MIN KMSN 272320Z 00000KT 10SM CLR M02/M09 A3008 710 58 -1100 000/00 RMK AO2
14837KMSN MSN20101127172509611/27/10 17:25:31  5-MIN KMSN 272325Z 00000KT 10SM CLR M03/M09 A3008 710 63 -1200 000/00 RMK AO2
14837KMSN MSN20101127173009611/27/10 17:30:31  5-MIN KMSN 272330Z 00000KT 10SM CLR M03/M09 A3008 710 63 -1200 000/00 RMK AO2
14837KMSN MSN20101127173509611/27/10 17:35:31  5-MIN KMSN 272335Z 00000KT 10SM CLR M03/M09 A3009 710 63 -1200 000/00 RMK AO2
14837KMSN MSN20101127174009611/27/10 17:40:31  5-MIN KMSN 272340Z 00000KT 10SM CLR M03/M09 A3009 710 65 -1300 000/00 RMK AO2
14837KMSN MSN20101127174509611/27/10 17:45:31  5-MIN KMSN 272345Z 00000KT 10SM CLR M03/M09 A3009 710 65 -1300 000/00 RMK AO2
14837KMSN MSN20101127175013111/27/10 17:50:31  5-MIN KMSN 272350Z 00000KT 10SM CLR M03/M08 A3009 710 66 -1200 000/00 RMK AO2 SLP202 T10281083 10006 21033 53003
14837KMSN MSN20101127175509611/27/10 17:55:31  5-MIN KMSN 272355Z 00000KT 10SM CLR M02/M08 A3009 710 63 -1100 000/00 RMK AO2
14837KMSN MSN20101127180009611/27/10 18:00:31  5-MIN KMSN 280000Z 00000KT 10SM CLR M02/M09 A3009 710 60 -1100 000/00 RMK AO2
14837KMSN MSN20101127180509611/27/10 18:05:31  5-MIN KMSN 280005Z 00000KT 10SM CLR M02/M09 A3009 710 60 -1100 000/00 RMK AO2
14837KMSN MSN20101127181009611/27/10 18:10:31  5-MIN KMSN 280010Z 00000KT 10SM CLR M02/M09 A3009 710 60 -1100 000/00 RMK AO2
14837KMSN MSN20101127181509611/27/10 18:15:31  5-MIN KMSN 280015Z 00000KT 10SM CLR M02/M09 A3009 710 60 -1100 000/00 RMK AO2
14837KMSN MSN20101127182009611/27/10 18:20:31  5-MIN KMSN 280020Z 00000KT 10SM CLR M03/M09 A3008 710 65 -1300 000/00 RMK AO2
14837KMSN MSN20101127182509611/27/10 18:25:31  5-MIN KMSN 280025Z 00000KT 10SM CLR M03/M09 A3009 710 65 -1300 000/00 RMK AO2
14837KMSN MSN20101127183009611/27/10 18:30:31  5-MIN KMSN 280030Z 00000KT 10SM CLR M04/M09 A3009 710 68 -1400 000/00 RMK AO2
14837KMSN MSN20101127183509611/27/10 18:35:31  5-MIN KMSN 280035Z 00000KT 10SM CLR M04/M09 A3009 710 68 -1400 000/00 RMK AO2
14837KMSN MSN20101127184009611/27/10 18:40:31  5-MIN KMSN 280040Z 00000KT 10SM CLR M03/M08 A3009 710 68 -1300 000/00 RMK AO2
14837KMSN MSN20101127184509611/27/10 18:45:31  5-MIN KMSN 280045Z 00000KT 10SM CLR M03/M08 A3009 710 68 -1300 000/00 RMK AO2
14837KMSN MSN20101127185011311/27/10 18:50:31  5-MIN KMSN 280050Z 00000KT 10SM CLR M03/M08 A3009 710 68 -1300 000/00 RMK AO2 SLP202 T10331083
14837KMSN MSN20101127185509611/27/10 18:55:31  5-MIN KMSN 280055Z 00000KT 10SM CLR M03/M08 A3009 710 68 -1300 000/00 RMK AO2
14837KMSN MSN20101127190009611/27/10 19:00:31  5-MIN KMSN 280100Z 00000KT 10SM CLR M04/M08 A3009 710 71 -1400 000/00 RMK AO2
14837KMSN MSN20101127190509611/27/10 19:05:31  5-MIN KMSN 280105Z 00000KT 10SM CLR M04/M09 A3009 710 71 -1400 000/00 RMK AO2
14837KMSN MSN20101127191009611/27/10 19:10:31  5-MIN KMSN 280110Z 00000KT 10SM CLR M04/M09 A3009 710 68 -1400 000/00 RMK AO2
14837KMSN MSN20101127191509611/27/10 19:15:31  5-MIN KMSN 280115Z 00000KT 10SM CLR M03/M08 A3009 710 68 -1300 000/00 RMK AO2
14837KMSN MSN20101127192009611/27/10 19:20:31  5-MIN KMSN 280120Z 00000KT 10SM CLR M03/M08 A3009 700 68 -1300 000/00 RMK AO2
14837KMSN MSN20101127192509611/27/10 19:25:31  5-MIN KMSN 280125Z 00000KT 10SM CLR M04/M08 A3010 700 71 -1400 000/00 RMK AO2
14837KMSN MSN20101127193009611/27/10 19:30:31  5-MIN KMSN 280130Z 00000KT 10SM CLR M04/M09 A3009 700 71 -1400 000/00 RMK AO2
14837KMSN MSN20101127193509611/27/10 19:35:31  5-MIN KMSN 280135Z 00000KT 10SM CLR M04/M08 A3009 700 71 -1400 000/00 RMK AO2
14837KMSN MSN20101127194009611/27/10 19:40:31  5-MIN KMSN 280140Z 00000KT 10SM CLR M04/M08 A3009 710 71 -1400 000/00 RMK AO2
14837KMSN MSN20101127194509611/27/10 19:45:31  5-MIN KMSN 280145Z 00000KT 10SM CLR M04/M09 A3009 710 68 -1400 000/00 RMK AO2
14837KMSN MSN20101127195011311/27/10 19:50:31  5-MIN KMSN 280150Z 00000KT 10SM CLR M04/M08 A3009 700 71 -1400 000/00 RMK AO2 SLP204 T10391083
14837KMSN MSN20101127195509611/27/10 19:55:31  5-MIN KMSN 280155Z 00000KT 10SM CLR M04/M09 A3009 700 71 -1400 000/00 RMK AO2
14837KMSN MSN20101127200009611/27/10 20:00:31  5-MIN KMSN 280200Z 00000KT 10SM CLR M04/M09 A3010 700 71 -1400 000/00 RMK AO2
14837KMSN MSN20101127200509611/27/10 20:05:31  5-MIN KMSN 280205Z 00000KT 10SM CLR M04/M09 A3009 700 71 -1400 000/00 RMK AO2
14837KMSN MSN20101127201009611/27/10 20:10:31  5-MIN KMSN 280210Z 00000KT 10SM CLR M05/M09 A3009 700 74 -1500 000/00 RMK AO2
14837KMSN MSN20101127201509611/27/10 20:15:31  5-MIN KMSN 280215Z 00000KT 10SM CLR M06/M09 A3010 700 77 -1600 000/00 RMK AO2
14837KMSN MSN20101127202009611/27/10 20:20:31  5-MIN KMSN 280220Z 00000KT 10SM CLR M05/M09 A3010 700 71 -1500 000/00 RMK AO2
14837KMSN MSN20101127202509611/27/10 20:25:31  5-MIN KMSN 280225Z 00000KT 10SM CLR M05/M09 A3010 700 74 -1500 000/00 RMK AO2
14837KMSN MSN20101127203009611/27/10 20:30:31  5-MIN KMSN 280230Z 00000KT 10SM CLR M05/M09 A3010 700 74 -1500 000/00 RMK AO2
14837KMSN MSN20101127203509611/27/10 20:35:31  5-MIN KMSN 280235Z 00000KT 10SM CLR M05/M09 A3010 700 71 -1500 000/00 RMK AO2
14837KMSN MSN20101127204009611/27/10 20:40:31  5-MIN KMSN 280240Z 00000KT 10SM CLR M05/M09 A3010 700 71 -1500 000/00 RMK AO2
14837KMSN MSN20101127204509611/27/10 20:45:31  5-MIN KMSN 280245Z 00000KT 10SM CLR M05/M09 A3009 700 71 -1500 000/00 RMK AO2
14837KMSN MSN20101127205011911/27/10 20:50:31  5-MIN KMSN 280250Z 00000KT 10SM CLR M06/M09 A3009 700 74 -1600 000/00 RMK AO2 SLP204 T10561094 50007
14837KMSN MSN20101127205509611/27/10 20:55:31  5-MIN KMSN 280255Z 00000KT 10SM CLR M06/M10 A3009 700 74 -1600 000/00 RMK AO2
14837KMSN MSN20101127210009611/27/10 21:00:31  5-MIN KMSN 280300Z 00000KT 10SM CLR M06/M09 A3009 700 74 -1600 000/00 RMK AO2
14837KMSN MSN20101127210509611/27/10 21:05:31  5-MIN KMSN 280305Z 00000KT 10SM CLR M06/M09 A3009 710 74 -1600 000/00 RMK AO2
14837KMSN MSN20101127211009611/27/10 21:10:31  5-MIN KMSN 280310Z 00000KT 10SM CLR M07/M10 A3010 700 77 -1700 000/00 RMK AO2
14837KMSN MSN20101127211509611/27/10 21:15:31  5-MIN KMSN 280315Z 00000KT 10SM CLR M07/M10 A3009 700 77 -1700 000/00 RMK AO2
14837KMSN MSN20101127212009611/27/10 21:20:31  5-MIN KMSN 280320Z 00000KT 10SM CLR M07/M10 A3010 700 77 -1700 000/00 RMK AO2
14837KMSN MSN20101127212509611/27/10 21:25:31  5-MIN KMSN 280325Z 00000KT 10SM CLR M06/M09 A3010 700 77 -1600 000/00 RMK AO2
14837KMSN MSN20101127213009611/27/10 21:30:31  5-MIN KMSN 280330Z 00000KT 10SM CLR M06/M09 A3010 700 77 -1600 000/00 RMK AO2
14837KMSN MSN20101127213509611/27/10 21:35:31  5-MIN KMSN 280335Z 00000KT 10SM CLR M06/M09 A3009 700 77 -1600 000/00 RMK AO2
14837KMSN MSN20101128015509611/28/10 01:55:31  5-MIN KMSN 280755Z 16005KT 10SM CLR M04/M08 A3010 700 78 -1400 160/05 RMK AO2
14837KMSN MSN20101128020009611/28/10 02:00:31  5-MIN KMSN 280800Z 16005KT 10SM CLR M04/M08 A3010 700 78 -1400 160/05 RMK AO2
14837KMSN MSN20101128020509611/28/10 02:05:31  5-MIN KMSN 280805Z 16005KT 10SM CLR M04/M08 A3010 700 78 -1400 160/05 RMK AO2
14837KMSN MSN20101128021009611/28/10 02:10:31  5-MIN KMSN 280810Z 17005KT 10SM CLR M04/M08 A3011 690 78 -1400 170/05 RMK AO2
14837KMSN MSN20101128021509611/28/10 02:15:31  5-MIN KMSN 280815Z 17005KT 10SM CLR M04/M08 A3011 690 78 -1400 170/05 RMK AO2
14837KMSN MSN20101128022009611/28/10 02:20:31  5-MIN KMSN 280820Z 16004KT 10SM CLR M04/M08 A3011 690 78 -1500 160/04 RMK AO2
14837KMSN MSN20101128022509611/28/10 02:25:31  5-MIN KMSN 280825Z 17004KT 10SM CLR M04/M08 A3011 690 74 -1500 170/04 RMK AO2
14837KMSN MSN20101128023009611/28/10 02:30:31  5-MIN KMSN 280830Z 17005KT 10SM CLR M04/M08 A3012 680 74 -1500 170/05 RMK AO2
14837KMSN MSN20101128023509611/28/10 02:35:31  5-MIN KMSN 280835Z 17004KT 10SM CLR M05/M08 A3012 680 77 -1500 170/04 RMK AO2
14837KMSN MSN20101128024009611/28/10 02:40:31  5-MIN KMSN 280840Z 00000KT 10SM CLR M05/M08 A3012 680 77 -1500 000/00 RMK AO2
14837KMSN MSN20101128024509611/28/10 02:45:31  5-MIN KMSN 280845Z 00000KT 10SM CLR M04/M08 A3012 680 74 -1500 000/00 RMK AO2
14837KMSN MSN20101128025011911/28/10 02:50:31  5-MIN KMSN 280850Z 00000KT 10SM CLR M04/M08 A3012 680 74 -1500 000/00 RMK AO2 SLP210 T10441083 53003
14837KMSN MSN20101128025509611/28/10 02:55:31  5-MIN KMSN 280855Z 00000KT 10SM CLR M04/M08 A3012 680 78 -1500 000/00 RMK AO2
14837KMSN MSN20101128030009611/28/10 03:00:31  5-MIN KMSN 280900Z 00000KT 10SM CLR M04/M08 A3012 680 78 -1500 000/00 RMK AO2
14837KMSN MSN20101128030509611/28/10 03:05:31  5-MIN KMSN 280905Z 00000KT 10SM CLR M04/M08 A3012 680 78 -1500 000/00 RMK AO2
14837KMSN MSN20101128031009611/28/10 03:10:31  5-MIN KMSN 280910Z 15003KT 10SM CLR M06/M08 A3012 680 81 -1600 150/03 RMK AO2
14837KMSN MSN20101128031509611/28/10 03:15:31  5-MIN KMSN 280915Z 13003KT 10SM CLR M04/M08 A3012 680 78 -1500 130/03 RMK AO2
14837KMSN MSN20101128032009611/28/10 03:20:31  5-MIN KMSN 280920Z 00000KT 10SM CLR M04/M08 A3012 680 78 -1500 000/00 RMK AO2
14837KMSN MSN20101128032509611/28/10 03:25:31  5-MIN KMSN 280925Z 00000KT 10SM CLR M06/M08 A3012 680 81 -1600 000/00 RMK AO2
14837KMSN MSN20101128033009611/28/10 03:30:31  5-MIN KMSN 280930Z 14003KT 10SM CLR M05/M08 A3012 680 77 -1500 140/03 RMK AO2
14837KMSN MSN20101128033509611/28/10 03:35:31  5-MIN KMSN 280935Z 17004KT 10SM CLR M05/M08 A3012 680 77 -1500 170/04 RMK AO2
14837KMSN MSN20101128034009611/28/10 03:40:31  5-MIN KMSN 280940Z 17004KT 10SM CLR M04/M08 A3012 680 78 -1500 170/04 RMK AO2
14837KMSN MSN20101128034509611/28/10 03:45:31  5-MIN KMSN 280945Z 17005KT 10SM CLR M04/M08 A3011 690 78 -1500 160/05 RMK AO2
14837KMSN MSN20101128035011311/28/10 03:50:31  5-MIN KMSN 280950Z 15004KT 10SM CLR M05/M08 A3011 690 77 -1500 150/04 RMK AO2 SLP208 T10501083
14837KMSN MSN20101128035509611/28/10 03:55:31  5-MIN KMSN 280955Z 16005KT 10SM CLR M05/M08 A3011 690 77 -1500 160/05 RMK AO2
14837KMSN MSN20101128040009611/28/10 04:00:31  5-MIN KMSN 281000Z 16007KT 10SM CLR M04/M08 A3011 690 78 -1400 160/07 RMK AO2
14837KMSN MSN20101128040509611/28/10 04:05:31  5-MIN KMSN 281005Z 15005KT 10SM CLR M04/M08 A3010 690 78 -1400 150/05 RMK AO2
14837KMSN MSN20101128041009611/28/10 04:10:31  5-MIN KMSN 281010Z 16005KT 10SM CLR M05/M08 A3011 690 81 -1500 160/05 RMK AO2
14837KMSN MSN20101128041509611/28/10 04:15:31  5-MIN KMSN 281015Z 16006KT 10SM CLR M04/M08 A3011 690 74 -1400 160/06 RMK AO2
14837KMSN MSN20101128042009611/28/10 04:20:31  5-MIN KMSN 281020Z 16005KT 10SM CLR M04/M08 A3010 700 74 -1400 160/05 RMK AO2
14837KMSN MSN20101128042509611/28/10 04:25:31  5-MIN KMSN 281025Z 16004KT 10SM CLR M05/M08 A3010 700 77 -1500 160/04 RMK AO2
14837KMSN MSN20101128043009611/28/10 04:30:31  5-MIN KMSN 281030Z 15004KT 10SM CLR M05/M08 A3010 700 77 -1500 150/04 RMK AO2
14837KMSN MSN20101128043509611/28/10 04:35:31  5-MIN KMSN 281035Z 16004KT 10SM CLR M05/M08 A3010 700 77 -1500 150/04 RMK AO2
14837KMSN MSN20101128044009611/28/10 04:40:31  5-MIN KMSN 281040Z 16005KT 10SM CLR M05/M08 A3010 700 77 -1500 160/05 RMK AO2
14837KMSN MSN20101128044509611/28/10 04:45:31  5-MIN KMSN 281045Z 16005KT 10SM CLR M04/M08 A3010 700 74 -1400 160/05 RMK AO2
14837KMSN MSN20101128045011311/28/10 04:50:31  5-MIN KMSN 281050Z 16005KT 10SM CLR M04/M08 A3010 700 74 -1400 160/05 RMK AO2 SLP206 T10441083
14837KMSN MSN20101128045509611/28/10 04:55:31  5-MIN KMSN 281055Z 16005KT 10SM CLR M04/M08 A3010 700 74 -1400 160/05 RMK AO2
14837KMSN MSN20101128050009611/28/10 05:00:31  5-MIN KMSN 281100Z 16004KT 10SM CLR M04/M08 A3010 700 74 -1400 160/04 RMK AO2
14837KMSN MSN20101128050509611/28/10 05:05:31  5-MIN KMSN 281105Z 16005KT 10SM CLR M05/M08 A3010 700 77 -1500 160/05 RMK AO2
14837KMSN MSN20101128051009611/28/10 05:10:31  5-MIN KMSN 281110Z 16006KT 10SM CLR M04/M08 A3010 700 78 -1400 160/06 RMK AO2
14837KMSN MSN20101128051509611/28/10 05:15:31  5-MIN KMSN 281115Z 17005KT 10SM CLR M04/M08 A3010 700 78 -1400 170/05 RMK AO2
14837KMSN MSN20101128052009611/28/10 05:20:31  5-MIN KMSN 281120Z 16005KT 10SM CLR M04/M08 A3010 700 78 -1400 160/05 RMK AO2
14837KMSN MSN20101128052509611/28/10 05:25:31  5-MIN KMSN 281125Z 16005KT 10SM CLR M05/M08 A3010 700 77 -1500 160/05 RMK AO2
14837KMSN MSN20101128053009611/28/10 05:30:31  5-MIN KMSN 281130Z 16005KT 10SM CLR M05/M08 A3010 700 81 -1500 160/05 RMK AO2
14837KMSN MSN20101128053509611/28/10 05:35:31  5-MIN KMSN 281135Z 15004KT 10SM CLR M05/M08 A3011 690 81 -1500 150/04 RMK AO2
14837KMSN MSN20101128054009611/28/10 05:40:31  5-MIN KMSN 281140Z 17005KT 10SM CLR M05/M08 A3011 690 81 -1500 160/05 RMK AO2
14837KMSN MSN20101128054509611/28/10 05:45:31  5-MIN KMSN 281145Z 17004KT 10SM CLR M04/M08 A3011 690 78 -1400 170/04 RMK AO2
14837KMSN MSN20101128055013111/28/10 05:50:31  5-MIN KMSN 281150Z 18003KT 10SM CLR M05/M08 A3011 690 81 -1500 180/03 RMK AO2 SLP210 T10501078 11044 21072 53006
14837KMSN MSN20101128055509611/28/10 05:55:31  5-MIN KMSN 281155Z 00000KT 10SM CLR M04/M08 A3011 690 78 -1500 000/00 RMK AO2
14837KMSN MSN20101128060009611/28/10 06:00:31  5-MIN KMSN 281200Z 00000KT 10SM CLR M05/M08 A3012 680 81 -1500 000/00 RMK AO2
14837KMSN MSN20101128060509611/28/10 06:05:31  5-MIN KMSN 281205Z 00000KT 10SM CLR M05/M08 A3012 680 77 -1500 000/00 RMK AO2
14837KMSN MSN20101128061009611/28/10 06:10:31  5-MIN KMSN 281210Z 00000KT 10SM CLR M04/M08 A3012 680 78 -1500 000/00 RMK AO2
14837KMSN MSN20101128061509611/28/10 06:15:31  5-MIN KMSN 281215Z 00000KT 10SM CLR M06/M08 A3012 680 81 -1600 000/00 RMK AO2
14837KMSN MSN20101128062009611/28/10 06:20:31  5-MIN KMSN 281220Z 10003KT 10SM CLR M06/M08 A3012 680 81 -1600 100/03 RMK AO2
14837KMSN MSN20101128062509611/28/10 06:25:31  5-MIN KMSN 281225Z 11003KT 10SM CLR M06/M09 A3012 680 81 -1700 110/03 RMK AO2
14837KMSN MSN20101128063009611/28/10 06:30:31  5-MIN KMSN 281230Z 13003KT 10SM CLR M06/M09 A3012 680 81 -1700 120/03 RMK AO2
14837KMSN MSN20101128063509611/28/10 06:35:31  5-MIN KMSN 281235Z 00000KT 10SM CLR M06/M08 A3012 680 81 -1600 000/00 RMK AO2
14837KMSN MSN20101128064009611/28/10 06:40:31  5-MIN KMSN 281240Z 15003KT 10SM CLR M06/M08 A3013 670 81 -1600 150/03 RMK AO2
14837KMSN MSN20101128064509611/28/10 06:45:31  5-MIN KMSN 281245Z 00000KT 10SM CLR M06/M08 A3013 670 81 -1600 000/00 RMK AO2
14837KMSN MSN20101128065011311/28/10 06:50:31  5-MIN KMSN 281250Z 17003KT 10SM CLR M06/M09 A3013 670 81 -1700 160/03 RMK AO2 SLP216 T10611089
14837KMSN MSN20101128065509611/28/10 06:55:31  5-MIN KMSN 281255Z 17003KT 10SM CLR M06/M09 A3013 670 81 -1700 170/03 RMK AO2
14837KMSN MSN20101128070009611/28/10 07:00:31  5-MIN KMSN 281300Z 00000KT 10SM CLR M06/M09 A3013 670 81 -1700 000/00 RMK AO2
14837KMSN MSN20101128070509611/28/10 07:05:31  5-MIN KMSN 281305Z 13003KT 10SM CLR M06/M09 A3013 670 81 -1700 130/03 RMK AO2
14837KMSN MSN20101128071009611/28/10 07:10:31  5-MIN KMSN 281310Z 15003KT 10SM CLR M06/M09 A3013 670 81 -1700 150/03 RMK AO2
14837KMSN MSN20101128071509611/28/10 07:15:31  5-MIN KMSN 281315Z 16003KT 10SM CLR M06/M08 A3014 660 81 -1600 160/03 RMK AO2
14837KMSN MSN20101128072009611/28/10 07:20:31  5-MIN KMSN 281320Z 00000KT 10SM CLR M06/M09 A3014 660 81 -1700 000/00 RMK AO2
14837KMSN MSN20101128072509611/28/10 07:25:31  5-MIN KMSN 281325Z 00000KT 10SM CLR M06/M08 A3014 660 81 -1600 000/00 RMK AO2
14837KMSN MSN20101128073009611/28/10 07:30:31  5-MIN KMSN 281330Z 00000KT 10SM CLR M06/M08 A3014 660 81 -1600 000/00 RMK AO2
14837KMSN MSN20101128073509611/28/10 07:35:31  5-MIN KMSN 281335Z 15003KT 10SM CLR M06/M08 A3014 660 81 -1600 140/03 RMK AO2
14837KMSN MSN20101128074009611/28/10 07:40:31  5-MIN KMSN 281340Z 15004KT 10SM CLR M06/M08 A3014 660 84 -1600 150/04 RMK AO2
14837KMSN MSN20101128074509611/28/10 07:45:31  5-MIN KMSN 281345Z 16004KT 10SM CLR M04/M08 A3014 660 78 -1500 160/04 RMK AO2
14837KMSN MSN20101128075011311/28/10 07:50:31  5-MIN KMSN 281350Z 17004KT 10SM CLR M04/M07 A3014 660 81 -1500 160/04 RMK AO2 SLP220 T10441072
14837KMSN MSN20101128075509611/28/10 07:55:31  5-MIN KMSN 281355Z 16004KT 10SM CLR M04/M07 A3014 660 81 -1500 160/04 RMK AO2
14837KMSN MSN20101128080009611/28/10 08:00:31  5-MIN KMSN 281400Z 15005KT 10SM CLR M04/M07 A3014 660 78 -1400 150/05 RMK AO2
14837KMSN MSN20101128080509611/28/10 08:05:31  5-MIN KMSN 281405Z 15006KT 10SM CLR M03/M07 A3014 660 78 -1300 150/06 RMK AO2
14837KMSN MSN20101128081009611/28/10 08:10:31  5-MIN KMSN 281410Z 15005KT 10SM CLR M03/M07 A3014 660 78 -1300 150/05 RMK AO2
14837KMSN MSN20101128081509611/28/10 08:15:31  5-MIN KMSN 281415Z 17005KT 10SM CLR M03/M06 A3014 660 78 -1300 170/05 RMK AO2
14837KMSN MSN20101128082009611/28/10 08:20:31  5-MIN KMSN 281420Z 17004KT 10SM CLR M03/M06 A3014 660 78 -1300 170/04 RMK AO2
14837KMSN MSN20101128082509611/28/10 08:25:31  5-MIN KMSN 281425Z 16005KT 10SM CLR M02/M06 A3015 660 78 -1200 160/05 RMK AO2
14837KMSN MSN20101128083009611/28/10 08:30:31  5-MIN KMSN 281430Z 17008KT 10SM CLR M02/M06 A3015 660 75 -1100 170/08 RMK AO2
14837KMSN MSN20101128083509611/28/10 08:35:31  5-MIN KMSN 281435Z 16006KT 10SM CLR M02/M06 A3015 660 78 -1200 160/06 RMK AO2
14837KMSN MSN20101128084009611/28/10 08:40:31  5-MIN KMSN 281440Z 16007KT 10SM CLR M02/M06 A3014 660 75 -1100 160/07 RMK AO2
14837KMSN MSN20101128084509611/28/10 08:45:31  5-MIN KMSN 281445Z 16006KT 10SM CLR M02/M06 A3014 660 75 -1100 160/06 RMK AO2
14837KMSN MSN20101128085011911/28/10 08:50:31  5-MIN KMSN 281450Z 16007KT 10SM CLR M02/M05 A3014 660 78 -1100 160/07 RMK AO2 SLP219 T10171050 55002
14837KMSN MSN20101128085509611/28/10 08:55:31  5-MIN KMSN 281455Z 16007KT 10SM CLR M02/M05 A3014 660 78 -1100 160/07 RMK AO2
14837KMSN MSN20101128090009611/28/10 09:00:31  5-MIN KMSN 281500Z 17007KT 10SM CLR M01/M04 A3014 670 78 -1100 170/07 RMK AO2
14837KMSN MSN20101128090509611/28/10 09:05:31  5-MIN KMSN 281505Z 17006KT 10SM CLR M01/M04 A3014 670 78 -1100 170/06 RMK AO2
14837KMSN MSN20101128091009611/28/10 09:10:31  5-MIN KMSN 281510Z 17006KT 10SM CLR M01/M04 A3013 670 75 -1000 170/06 RMK AO2
14837KMSN MSN20101128091509411/28/10 09:15:31  5-MIN KMSN 281515Z 16007KT 10SM CLR 00/M04 A3013 670 75 -900 160/07 RMK AO2
14837KMSN MSN20101128092009411/28/10 09:20:31  5-MIN KMSN 281520Z 16007KT 10SM CLR 00/M04 A3013 670 75 -900 160/07 RMK AO2
14837KMSN MSN20101128092509411/28/10 09:25:31  5-MIN KMSN 281525Z 16006KT 10SM CLR 00/M04 A3013 670 75 -900 160/06 RMK AO2
14837KMSN MSN20101128093009411/28/10 09:30:31  5-MIN KMSN 281530Z 16008KT 10SM CLR 01/M03 A3013 670 75 -800 160/08 RMK AO2
14837KMSN MSN20101128093509411/28/10 09:35:31  5-MIN KMSN 281535Z 17007KT 10SM CLR 01/M03 A3013 670 75 -800 170/07 RMK AO2
14837KMSN MSN20101128094009411/28/10 09:40:31  5-MIN KMSN 281540Z 17010KT 10SM CLR 01/M03 A3013 670 72 -800 170/10 RMK AO2
14837KMSN MSN20101128094509411/28/10 09:45:31  5-MIN KMSN 281545Z 17010KT 10SM CLR 01/M03 A3012 680 72 -800 170/10 RMK AO2
14837KMSN MSN20101128095011111/28/10 09:50:31  5-MIN KMSN 281550Z 17010KT 10SM CLR 01/M03 A3013 670 75 -800 170/10 RMK AO2 SLP213 T00111028
14837KMSN MSN20101128095509411/28/10 09:55:31  5-MIN KMSN 281555Z 17011KT 10SM CLR 02/M03 A3012 680 72 -700 170/11 RMK AO2
14837KMSN MSN20101128100009411/28/10 10:00:31  5-MIN KMSN 281600Z 17010KT 10SM CLR 02/M03 A3012 680 72 -700 170/10 RMK AO2
14837KMSN MSN20101128100509411/28/10 10:05:31  5-MIN KMSN 281605Z 17012KT 10SM CLR 02/M03 A3012 680 72 -700 170/12 RMK AO2
14837KMSN MSN20101128101009411/28/10 10:10:31  5-MIN KMSN 281610Z 18008KT 10SM CLR 02/M03 A3012 680 69 -700 180/08 RMK AO2
14837KMSN MSN20101128101509411/28/10 10:15:31  5-MIN KMSN 281615Z 17009KT 10SM CLR 02/M03 A3012 680 69 -600 170/09 RMK AO2
14837KMSN MSN20101128102009411/28/10 10:20:31  5-MIN KMSN 281620Z 16008KT 10SM CLR 02/M03 A3011 690 69 -600 160/08 RMK AO2
14837KMSN MSN20101128102509411/28/10 10:25:31  5-MIN KMSN 281625Z 16008KT 10SM CLR 03/M03 A3011 690 67 -500 160/08 RMK AO2
14837KMSN MSN20101128103009411/28/10 10:30:31  5-MIN KMSN 281630Z 17010KT 10SM CLR 03/M03 A3010 690 67 -500 160/10 RMK AO2
14837KMSN MSN20101128103509411/28/10 10:35:31  5-MIN KMSN 281635Z 17010KT 10SM CLR 03/M02 A3010 700 67 -500 170/10 RMK AO2
14837KMSN MSN20101128104009411/28/10 10:40:31  5-MIN KMSN 281640Z 16010KT 10SM CLR 03/M02 A3010 700 67 -500 160/10 RMK AO2
14837KMSN MSN20101128104509411/28/10 10:45:31  5-MIN KMSN 281645Z 16009KT 10SM CLR 04/M02 A3009 710 64 -400 160/09 RMK AO2
14837KMSN MSN20101128105011111/28/10 10:50:31  5-MIN KMSN 281650Z 15010KT 10SM CLR 04/M02 A3009 710 64 -400 150/10 RMK AO2 SLP200 T00391022
14837KMSN MSN20101128105509411/28/10 10:55:31  5-MIN KMSN 281655Z 16011KT 10SM CLR 04/M02 A3009 710 62 -300 160/11 RMK AO2
14837KMSN MSN20101128110009411/28/10 11:00:31  5-MIN KMSN 281700Z 15011KT 10SM CLR 04/M02 A3009 710 62 -300 150/11 RMK AO2
14837KMSN MSN20101128110509411/28/10 11:05:31  5-MIN KMSN 281705Z 16011KT 10SM CLR 04/M02 A3008 710 64 -300 160/11 RMK AO2
14837KMSN MSN20101128111009411/28/10 11:10:31  5-MIN KMSN 281710Z 17010KT 10SM CLR 04/M02 A3008 720 62 -300 170/10 RMK AO2
14837KMSN MSN20101128111509411/28/10 11:15:31  5-MIN KMSN 281715Z 17010KT 10SM CLR 05/M02 A3008 720 62 -200 160/10 RMK AO2
14837KMSN MSN20101128112009411/28/10 11:20:31  5-MIN KMSN 281720Z 17010KT 10SM CLR 05/M02 A3007 730 59 -200 170/10 RMK AO2
14837KMSN MSN20101128112509411/28/10 11:25:31  5-MIN KMSN 281725Z 16009KT 10SM CLR 06/M02 A3006 730 59 -100 160/09 RMK AO2
14837KMSN MSN20101128113009411/28/10 11:30:31  5-MIN KMSN 281730Z 16012KT 10SM CLR 05/M02 A3006 730 59 -200 160/12 RMK AO2
14837KMSN MSN20101128113509411/28/10 11:35:31  5-MIN KMSN 281735Z 16012KT 10SM CLR 06/M02 A3006 730 57 -100 160/12 RMK AO2
14837KMSN MSN20101128114009411/28/10 11:40:31  5-MIN KMSN 281740Z 17010KT 10SM CLR 06/M02 A3006 740 57 -100 160/10 RMK AO2
14837KMSN MSN20101128114509411/28/10 11:45:31  5-MIN KMSN 281745Z 16013KT 10SM CLR 06/M02 A3006 740 59 -100 160/13 RMK AO2
14837KMSN MSN20101128115012911/28/10 11:50:31  5-MIN KMSN 281750Z 16010KT 10SM CLR 06/M02 A3005 740 59 -100 160/10 RMK AO2 SLP188 T00561017 10056 21067 50008
14837KMSN MSN20101128115509411/28/10 11:55:31  5-MIN KMSN 281755Z 16010KT 10SM CLR 06/M02 A3005 740 59 -100 160/10 RMK AO2
14837KMSN MSN20101128120009411/28/10 12:00:31  5-MIN KMSN 281800Z 16011KT 10SM CLR 06/M02 A3005 750 57 -100 160/11 RMK AO2
14837KMSN MSN20101128120509411/28/10 12:05:31  5-MIN KMSN 281805Z 16011KT 10SM CLR 06/M02 A3005 750 57 -100 150/11 RMK AO2
14837KMSN MSN20101128121009111/28/10 12:10:31  5-MIN KMSN 281810Z 16012KT 10SM CLR 07/M02 A3005 750 55 0 160/12 RMK AO2
14837KMSN MSN20101128121509111/28/10 12:15:31  5-MIN KMSN 281815Z 16010KT 10SM CLR 07/M02 A3004 750 55 0 160/10 RMK AO2
14837KMSN MSN20101128122009111/28/10 12:20:31  5-MIN KMSN 281820Z 16010KT 10SM CLR 07/M02 A3004 750 55 0 160/10 RMK AO2
14837KMSN MSN20101128122509111/28/10 12:25:31  5-MIN KMSN 281825Z 16012KT 10SM CLR 07/M02 A3004 760 53 0 160/12 RMK AO2
14837KMSN MSN20101128123009111/28/10 12:30:31  5-MIN KMSN 281830Z 15012KT 10SM CLR 07/M02 A3004 760 53 0 150/12 RMK AO2
14837KMSN MSN20101128123509111/28/10 12:35:31  5-MIN KMSN 281835Z 16013KT 10SM CLR 07/M02 A3003 760 53 0 160/13 RMK AO2
14837KMSN MSN20101128124009111/28/10 12:40:31  5-MIN KMSN 281840Z 16011KT 10SM CLR 07/M02 A3003 760 53 0 160/11 RMK AO2
14837KMSN MSN20101128124509111/28/10 12:45:31  5-MIN KMSN 281845Z 15012KT 10SM CLR 07/M02 A3003 760 53 0 150/12 RMK AO2
14837KMSN MSN20101128125011011/28/10 12:50:31  5-MIN KMSN 281850Z 15011KT 10SM CLR 07/M01 A3003 760 55 100 150/11 RMK AO2 SLP177 T00721011
14837KMSN MSN20101128125509311/28/10 12:55:31  5-MIN KMSN 281855Z 16011KT 10SM CLR 07/M01 A3003 760 55 100 160/11 RMK AO2
14837KMSN MSN20101128130009311/28/10 13:00:31  5-MIN KMSN 281900Z 16014KT 10SM CLR 08/M01 A3003 770 53 100 160/14 RMK AO2
14837KMSN MSN20101128130509311/28/10 13:05:31  5-MIN KMSN 281905Z 16013KT 10SM CLR 08/M01 A3002 770 53 100 160/13 RMK AO2
14837KMSN MSN20101128131009311/28/10 13:10:31  5-MIN KMSN 281910Z 17014KT 10SM CLR 08/M01 A3002 770 53 100 170/14 RMK AO2
14837KMSN MSN20101128131509311/28/10 13:15:31  5-MIN KMSN 281915Z 16010KT 10SM CLR 08/M01 A3002 770 53 100 160/10 RMK AO2
14837KMSN MSN20101128132009311/28/10 13:20:31  5-MIN KMSN 281920Z 16012KT 10SM CLR 08/M01 A3002 770 53 100 160/12 RMK AO2
14837KMSN MSN20101128132509911/28/10 13:25:31  5-MIN KMSN 281925Z 16016G19KT 10SM CLR 08/M01 A3002 780 53 100 160/16G19 RMK AO2
14837KMSN MSN20101128133009911/28/10 13:30:31  5-MIN KMSN 281930Z 17015G19KT 10SM CLR 08/M01 A3002 780 53 100 160/15G19 RMK AO2
14837KMSN MSN20101128133509311/28/10 13:35:31  5-MIN KMSN 281935Z 16010KT 10SM CLR 08/M01 A3001 780 53 100 160/10 RMK AO2
14837KMSN MSN20101128134009311/28/10 13:40:31  5-MIN KMSN 281940Z 17013KT 10SM CLR 08/M01 A3001 780 53 100 170/13 RMK AO2
14837KMSN MSN20101128134509311/28/10 13:45:31  5-MIN KMSN 281945Z 16014KT 10SM CLR 08/M01 A3001 780 51 200 160/14 RMK AO2
14837KMSN MSN20101128135011011/28/10 13:50:31  5-MIN KMSN 281950Z 15017KT 10SM CLR 08/M01 A3000 790 53 100 150/17 RMK AO2 SLP169 T00781011
14837KMSN MSN20101128135509311/28/10 13:55:31  5-MIN KMSN 281955Z 16018KT 10SM CLR 08/M01 A3000 790 53 100 160/18 RMK AO2
14837KMSN MSN20101128140009311/28/10 14:00:31  5-MIN KMSN 282000Z 17014KT 10SM CLR 08/M01 A3000 790 53 100 170/14 RMK AO2
14837KMSN MSN20101128140509911/28/10 14:05:31  5-MIN KMSN 282005Z 16017G21KT 10SM CLR 08/M01 A3000 790 51 200 160/17G21 RMK AO2
14837KMSN MSN20101128141009911/28/10 14:10:31  5-MIN KMSN 282010Z 17012G21KT 10SM CLR 08/M01 A3000 790 51 200 170/12G21 RMK AO2
14837KMSN MSN20101128141509311/28/10 14:15:31  5-MIN KMSN 282015Z 16017KT 10SM CLR 08/M01 A3000 790 51 200 160/17 RMK AO2
14837KMSN MSN20101128142009311/28/10 14:20:31  5-MIN KMSN 282020Z 16013KT 10SM CLR 08/M01 A2999 800 51 200 160/13 RMK AO2
14837KMSN MSN20101128142509311/28/10 14:25:31  5-MIN KMSN 282025Z 17014KT 10SM CLR 08/M01 A2999 800 51 200 170/14 RMK AO2
14837KMSN MSN20101128143009311/28/10 14:30:31  5-MIN KMSN 282030Z 17015KT 10SM CLR 08/M01 A2999 800 51 200 170/15 RMK AO2
14837KMSN MSN20101128143509911/28/10 14:35:31  5-MIN KMSN 282035Z 16015G22KT 10SM CLR 08/M01 A2999 800 53 200 160/15G22 RMK AO2
14837KMSN MSN20101128144009911/28/10 14:40:31  5-MIN KMSN 282040Z 16012G22KT 10SM CLR 08/M01 A2999 800 53 200 160/12G22 RMK AO2
14837KMSN MSN20101128144509911/28/10 14:45:31  5-MIN KMSN 282045Z 17015G20KT 10SM CLR 08/M01 A2999 800 51 200 170/15G20 RMK AO2
14837KMSN MSN20101128145011611/28/10 14:50:31  5-MIN KMSN 282050Z 17015KT 10SM CLR 08/M01 A2999 800 51 200 170/15 RMK AO2 SLP164 T00831011 58029
14837KMSN MSN20101128145509311/28/10 14:55:31  5-MIN KMSN 282055Z 16015KT 10SM CLR 08/M01 A2999 800 51 200 160/15 RMK AO2
14837KMSN MSN20101128150009311/28/10 15:00:31  5-MIN KMSN 282100Z 17015KT 10SM CLR 08/M01 A2999 800 51 200 170/15 RMK AO2
14837KMSN MSN20101128150509311/28/10 15:05:31  5-MIN KMSN 282105Z 17015KT 10SM CLR 08/M01 A2998 810 53 200 160/15 RMK AO2
14837KMSN MSN20101128151009911/28/10 15:10:31  5-MIN KMSN 282110Z 16014G21KT 10SM CLR 08/M01 A2998 810 53 200 160/14G21 RMK AO2
14837KMSN MSN20101128151509311/28/10 15:15:31  5-MIN KMSN 282115Z 16015KT 10SM CLR 08/M01 A2998 810 53 200 160/15 RMK AO2
14837KMSN MSN20101128152009311/28/10 15:20:31  5-MIN KMSN 282120Z 16013KT 10SM CLR 07/M01 A2998 810 55 100 160/13 RMK AO2
14837KMSN MSN20101128152509311/28/10 15:25:31  5-MIN KMSN 282125Z 16015KT 10SM CLR 07/M01 A2998 810 55 100 160/15 RMK AO2
14837KMSN MSN20101128153009311/28/10 15:30:31  5-MIN KMSN 282130Z 16013KT 10SM CLR 07/M01 A2998 810 55 100 160/13 RMK AO2
14837KMSN MSN20101128153509311/28/10 15:35:31  5-MIN KMSN 282135Z 16016KT 10SM CLR 07/M01 A2998 810 57 100 150/16 RMK AO2
14837KMSN MSN20101128154009311/28/10 15:40:31  5-MIN KMSN 282140Z 16014KT 10SM CLR 07/M01 A2998 810 57 100 160/14 RMK AO2
14837KMSN MSN20101128154509311/28/10 15:45:31  5-MIN KMSN 282145Z 16015KT 10SM CLR 07/M01 A2998 810 57 100 160/15 RMK AO2
14837KMSN MSN20101128155011011/28/10 15:50:31  5-MIN KMSN 282150Z 16016KT 10SM CLR 07/M01 A2998 810 57 100 160/16 RMK AO2 SLP160 T00721006
14837KMSN MSN20101128155509311/28/10 15:55:31  5-MIN KMSN 282155Z 16013KT 10SM CLR 07/M01 A2998 810 57 100 160/13 RMK AO2
14837KMSN MSN20101128160009111/28/10 16:00:31  5-MIN KMSN 282200Z 15011KT 10SM CLR 07/M01 A2998 810 60 0 150/11 RMK AO2
14837KMSN MSN20101128160509111/28/10 16:05:31  5-MIN KMSN 282205Z 15011KT 10SM CLR 07/M01 A2997 810 60 0 150/11 RMK AO2
14837KMSN MSN20101128161009911/28/10 16:10:31  5-MIN KMSN 282210Z 15013G19KT 10SM CLR 07/M01 A2997 820 60 100 150/13G19 RMK AO2
14837KMSN MSN20101128161509111/28/10 16:15:31  5-MIN KMSN 282215Z 14012KT 10SM CLR 06/M01 A2997 820 62 0 140/12 RMK AO2
14837KMSN MSN20101128162009111/28/10 16:20:31  5-MIN KMSN 282220Z 15014KT 10SM CLR 06/M01 A2997 820 62 0 140/14 RMK AO2
14837KMSN MSN20101128162509111/28/10 16:25:31  5-MIN KMSN 282225Z 15014KT 10SM CLR 06/M01 A2997 820 62 0 150/14 RMK AO2
14837KMSN MSN20101128163009111/28/10 16:30:31  5-MIN KMSN 282230Z 15013KT 10SM CLR 06/M01 A2997 820 62 0 150/13 RMK AO2
14837KMSN MSN20101128163509111/28/10 16:35:31  5-MIN KMSN 282235Z 15013KT 10SM CLR 06/M01 A2997 820 65 0 150/13 RMK AO2
14837KMSN MSN20101128164009711/28/10 16:40:31  5-MIN KMSN 282240Z 15016G20KT 10SM CLR 06/M01 A2997 820 65 0 150/16G20 RMK AO2
14837KMSN MSN20101128164509111/28/10 16:45:31  5-MIN KMSN 282245Z 15013KT 10SM CLR 06/M01 A2997 820 65 0 140/13 RMK AO2
14837KMSN MSN20101128165011411/28/10 16:50:31  5-MIN KMSN 282250Z 15016G22KT 10SM CLR 06/M01 A2997 820 65 0 150/16G22 RMK AO2 SLP158 T00561006
14837KMSN MSN20101128165509711/28/10 16:55:31  5-MIN KMSN 282255Z 15015G22KT 10SM CLR 06/M01 A2997 820 65 0 150/15G22 RMK AO2
14837KMSN MSN20101128170009711/28/10 17:00:31  5-MIN KMSN 282300Z 15016G22KT 10SM CLR 06/M01 A2997 820 65 0 150/16G22 RMK AO2
14837KMSN MSN20101128170510011/28/10 17:05:31  5-MIN KMSN 282305Z 15015G21KT 10SM CLR 05/M01 A2997 820 67 -100 150/15G21 RMK AO2
14837KMSN MSN20101128171009411/28/10 17:10:31  5-MIN KMSN 282310Z 15012KT 10SM CLR 05/M01 A2997 820 67 -100 150/12 RMK AO2
14837KMSN MSN20101128171509411/28/10 17:15:31  5-MIN KMSN 282315Z 14015KT 10SM CLR 05/M01 A2997 820 67 -100 140/15 RMK AO2
14837KMSN MSN20101128172010011/28/10 17:20:31  5-MIN KMSN 282320Z 14018G23KT 10SM CLR 05/M01 A2996 820 67 -100 140/18G23 RMK AO2
14837KMSN MSN20101128172509911/28/10 17:25:31  5-MIN KMSN 282325Z 15016G23KT 10SM CLR 05/00 A2996 820 70 -100 150/16G23 RMK AO2
14837KMSN MSN20101128173009911/28/10 17:30:31  5-MIN KMSN 282330Z 15016G23KT 10SM CLR 04/00 A2996 830 73 -200 140/16G23 RMK AO2
14837KMSN MSN20101128173509911/28/10 17:35:31  5-MIN KMSN 282335Z 15017G23KT 10SM CLR 04/00 A2996 820 73 -200 150/17G23 RMK AO2
14837KMSN MSN20101128174009311/28/10 17:40:31  5-MIN KMSN 282340Z 15017KT 10SM CLR 04/00 A2997 820 73 -200 150/17 RMK AO2
14837KMSN MSN20101128174509911/28/10 17:45:31  5-MIN KMSN 282345Z 16016G24KT 10SM CLR 04/00 A2997 820 73 -200 160/16G24 RMK AO2
14837KMSN MSN20101128175013411/28/10 17:50:31  5-MIN KMSN 282350Z 15015G24KT 10SM CLR 04/00 A2996 820 73 -200 150/15G24 RMK AO2 SLP156 T00440000 10083 20044 56021
14837KMSN MSN20101128175509911/28/10 17:55:31  5-MIN KMSN 282355Z 16018G24KT 10SM CLR 04/00 A2996 820 73 -200 160/18G24 RMK AO2
14837KMSN MSN20101128180010011/28/10 18:00:31  5-MIN KMSN 290000Z 15015G24KT 10SM CLR 04/M01 A2996 830 70 -200 150/15G24 RMK AO2
14837KMSN MSN20101128180511811/28/10 18:05:31  5-MIN KMSN 290005Z 16017G26KT 10SM CLR 04/M01 A2996 830 70 -200 150/17G26 RMK AO2 PK WND 15026/0003
14837KMSN MSN20101128181011811/28/10 18:10:31  5-MIN KMSN 290010Z 15016G26KT 10SM CLR 04/M01 A2996 830 73 -200 150/16G26 RMK AO2 PK WND 15026/0003
14837KMSN MSN20101128181511811/28/10 18:15:31  5-MIN KMSN 290015Z 15017G24KT 10SM CLR 04/M01 A2996 830 73 -200 150/17G24 RMK AO2 PK WND 15026/0003
14837KMSN MSN20101128182011811/28/10 18:20:31  5-MIN KMSN 290020Z 15020G27KT 10SM CLR 04/M01 A2996 830 70 -200 150/20G27 RMK AO2 PK WND 14027/0018
14837KMSN MSN20101128182511811/28/10 18:25:31  5-MIN KMSN 290025Z 16019G27KT 10SM CLR 04/M01 A2996 830 70 -200 150/19G27 RMK AO2 PK WND 14027/0018
14837KMSN MSN20101128183011211/28/10 18:30:31  5-MIN KMSN 290030Z 15018KT 10SM CLR 04/M01 A2996 830 73 -200 150/18 RMK AO2 PK WND 14027/0018
14837KMSN MSN20101128183511211/28/10 18:35:31  5-MIN KMSN 290035Z 15017KT 10SM CLR 04/M01 A2996 830 73 -200 150/17 RMK AO2 PK WND 14027/0018
14837KMSN MSN20101128184011211/28/10 18:40:31  5-MIN KMSN 290040Z 15015KT 10SM CLR 04/M01 A2996 830 73 -200 150/15 RMK AO2 PK WND 14027/0018
14837KMSN MSN20101128184511211/28/10 18:45:31  5-MIN KMSN 290045Z 15014KT 10SM CLR 04/M01 A2996 830 73 -200 150/14 RMK AO2 PK WND 14027/0018
14837KMSN MSN20101128185012911/28/10 18:50:31  5-MIN KMSN 290050Z 15017KT 10SM CLR 04/M01 A2996 830 73 -200 150/17 RMK AO2 PK WND 14027/0018 SLP156 T00391006
14837KMSN MSN20101128185509411/28/10 18:55:31  5-MIN KMSN 290055Z 15014KT 10SM CLR 04/M01 A2996 830 73 -200 150/14 RMK AO2
14837KMSN MSN20101128190009411/28/10 19:00:31  5-MIN KMSN 290100Z 15017KT 10SM CLR 04/M01 A2996 830 73 -200 150/17 RMK AO2
14837KMSN MSN20101128190509411/28/10 19:05:31  5-MIN KMSN 290105Z 15017KT 10SM CLR 04/M01 A2996 830 73 -200 150/17 RMK AO2
14837KMSN MSN20101128191010011/28/10 19:10:31  5-MIN KMSN 290110Z 15017G22KT 10SM CLR 03/M01 A2995 830 76 -300 150/17G22 RMK AO2
14837KMSN MSN20101128191510011/28/10 19:15:31  5-MIN KMSN 290115Z 15015G23KT 10SM CLR 04/M01 A2995 830 73 -200 150/15G23 RMK AO2
14837KMSN MSN20101128192010011/28/10 19:20:31  5-MIN KMSN 290120Z 15016G24KT 10SM CLR 03/M01 A2996 830 76 -300 150/16G24 RMK AO2
14837KMSN MSN20101128192510011/28/10 19:25:31  5-MIN KMSN 290125Z 15016G24KT 10SM CLR 03/M01 A2996 830 76 -300 150/16G24 RMK AO2
14837KMSN MSN20101128193010011/28/10 19:30:31  5-MIN KMSN 290130Z 15017G23KT 10SM CLR 03/M01 A2996 830 76 -300 150/17G23 RMK AO2
14837KMSN MSN20101128193510011/28/10 19:35:31  5-MIN KMSN 290135Z 15016G23KT 10SM CLR 03/M01 A2995 830 76 -300 150/16G23 RMK AO2
14837KMSN MSN20101128194009411/28/10 19:40:31  5-MIN KMSN 290140Z 15015KT 10SM CLR 03/M01 A2996 830 76 -300 150/15 RMK AO2
14837KMSN MSN20101128194509411/28/10 19:45:31  5-MIN KMSN 290145Z 15015KT 10SM CLR 03/M01 A2996 830 76 -300 150/15 RMK AO2
14837KMSN MSN20101128195011111/28/10 19:50:31  5-MIN KMSN 290150Z 15015KT 10SM CLR 03/M01 A2995 830 76 -300 150/15 RMK AO2 SLP154 T00331006
14837KMSN MSN20101128195510011/28/10 19:55:31  5-MIN KMSN 290155Z 16016G22KT 10SM CLR 03/M01 A2996 830 76 -300 160/16G22 RMK AO2
14837KMSN MSN20101128200010011/28/10 20:00:31  5-MIN KMSN 290200Z 15015G22KT 10SM CLR 03/M01 A2995 840 79 -400 150/15G22 RMK AO2
14837KMSN MSN20101128200509411/28/10 20:05:31  5-MIN KMSN 290205Z 16015KT 10SM CLR 03/M01 A2996 830 72 -300 150/15 RMK AO2
14837KMSN MSN20101128201009411/28/10 20:10:31  5-MIN KMSN 290210Z 15014KT 10SM CLR 03/M01 A2995 840 75 -400 150/14 RMK AO2
14837KMSN MSN20101128201510011/28/10 20:15:31  5-MIN KMSN 290215Z 15016G22KT 10SM CLR 03/M01 A2995 840 75 -400 150/16G22 RMK AO2
14837KMSN MSN20101128202010011/28/10 20:20:31  5-MIN KMSN 290220Z 15015G22KT 10SM CLR 03/M01 A2995 830 75 -400 150/15G22 RMK AO2
14837KMSN MSN20101128202509411/28/10 20:25:31  5-MIN KMSN 290225Z 16016KT 10SM CLR 03/M01 A2995 830 75 -400 160/16 RMK AO2
14837KMSN MSN20101128203009411/28/10 20:30:31  5-MIN KMSN 290230Z 15015KT 10SM CLR 03/M01 A2995 840 75 -400 150/15 RMK AO2
14837KMSN MSN20101128203509411/28/10 20:35:31  5-MIN KMSN 290235Z 15016KT 10SM CLR 03/M01 A2995 840 75 -400 150/16 RMK AO2
14837KMSN MSN20101128204009411/28/10 20:40:31  5-MIN KMSN 290240Z 15015KT 10SM CLR 03/M01 A2995 840 75 -400 150/15 RMK AO2
14837KMSN MSN20101128204509411/28/10 20:45:31  5-MIN KMSN 290245Z 15017KT 10SM CLR 03/M01 A2995 840 75 -300 150/17 RMK AO2
14837KMSN MSN20101128205012311/28/10 20:50:31  5-MIN KMSN 290250Z 15015G22KT 10SM CLR 03/M01 A2995 840 75 -400 150/15G22 RMK AO2 SLP151 T00281011 56008
14837KMSN MSN20101128205511811/28/10 20:55:31  5-MIN KMSN 290255Z 15018G26KT 10SM CLR 03/M01 A2995 840 75 -400 150/18G26 RMK AO2 PK WND 14026/0255
14837KMSN MSN20101128210011811/28/10 21:00:31  5-MIN KMSN 290300Z 16018G26KT 10SM CLR 03/M01 A2995 840 75 -400 150/18G26 RMK AO2 PK WND 14026/0255
14837KMSN MSN20101128210511811/28/10 21:05:31  5-MIN KMSN 290305Z 16017G26KT 10SM CLR 03/M01 A2995 840 75 -400 160/17G26 RMK AO2 PK WND 15026/0302
14837KMSN MSN20101128211011811/28/10 21:10:31  5-MIN KMSN 290310Z 16015G26KT 10SM CLR 03/M01 A2995 840 75 -400 160/15G26 RMK AO2 PK WND 16026/0306
14837KMSN MSN20101128211511811/28/10 21:15:31  5-MIN KMSN 290315Z 16018G26KT 10SM CLR 03/M01 A2995 840 75 -400 160/18G26 RMK AO2 PK WND 16026/0306
14837KMSN MSN20101128212011811/28/10 21:20:31  5-MIN KMSN 290320Z 16017G24KT 10SM CLR 03/M01 A2995 830 75 -400 160/17G24 RMK AO2 PK WND 16026/0306
14837KMSN MSN20101128212511811/28/10 21:25:31  5-MIN KMSN 290325Z 16019G24KT 10SM CLR 03/M01 A2995 830 75 -400 160/19G24 RMK AO2 PK WND 16026/0306
14837KMSN MSN20101128213011811/28/10 21:30:31  5-MIN KMSN 290330Z 16017G26KT 10SM CLR 03/M01 A2996 830 75 -400 160/17G26 RMK AO2 PK WND 16026/0327
14837KMSN MSN20101128213511811/28/10 21:35:31  5-MIN KMSN 290335Z 16016G26KT 10SM CLR 03/M01 A2996 830 75 -400 160/16G26 RMK AO2 PK WND 16026/0327
14837KMSN MSN20101128214011211/28/10 21:40:31  5-MIN KMSN 290340Z 16015KT 10SM CLR 03/M01 A2996 830 75 -400 160/15 RMK AO2 PK WND 16026/0327
14837KMSN MSN20101128214511211/28/10 21:45:31  5-MIN KMSN 290345Z 16016KT 10SM CLR 03/M01 A2996 830 75 -400 160/16 RMK AO2 PK WND 16026/0327
14837KMSN MSN20101128215012911/28/10 21:50:31  5-MIN KMSN 290350Z 16015KT 10SM CLR 03/M01 A2995 830 75 -400 160/15 RMK AO2 PK WND 16026/0327 SLP152 T00281011
14837KMSN MSN20101128215509411/28/10 21:55:31  5-MIN KMSN 290355Z 16014KT 10SM CLR 03/M02 A2995 830 72 -400 160/14 RMK AO2
14837KMSN MSN20101128220009411/28/10 22:00:31  5-MIN KMSN 290400Z 16015KT 10SM CLR 02/M02 A2995 830 75 -400 160/15 RMK AO2
14837KMSN MSN20101128220510011/28/10 22:05:31  5-MIN KMSN 290405Z 16014G22KT 10SM CLR 03/M02 A2996 830 72 -400 160/14G22 RMK AO2
14837KMSN MSN20101128221010011/28/10 22:10:31  5-MIN KMSN 290410Z 16016G22KT 10SM CLR 03/M02 A2995 830 72 -400 160/16G22 RMK AO2
14837KMSN MSN20101128221509411/28/10 22:15:31  5-MIN KMSN 290415Z 16014KT 10SM CLR 03/M02 A2996 830 72 -400 160/14 RMK AO2
14837KMSN MSN20101128222009411/28/10 22:20:31  5-MIN KMSN 290420Z 16015KT 10SM CLR 02/M02 A2996 830 75 -400 160/15 RMK AO2
14837KMSN MSN20101128222509411/28/10 22:25:31  5-MIN KMSN 290425Z 16017KT 10SM CLR 03/M02 A2996 830 72 -400 160/17 RMK AO2
14837KMSN MSN20101128223009411/28/10 22:30:31  5-MIN KMSN 290430Z 16013KT 10SM CLR 03/M02 A2996 830 72 -400 160/13 RMK AO2
14837KMSN MSN20101128223509411/28/10 22:35:31  5-MIN KMSN 290435Z 16012KT 10SM CLR 02/M02 A2996 820 72 -400 160/12 RMK AO2
14837KMSN MSN20101128224009411/28/10 22:40:31  5-MIN KMSN 290440Z 16015KT 10SM CLR 02/M02 A2997 820 72 -400 160/15 RMK AO2
14837KMSN MSN20101128224509411/28/10 22:45:31  5-MIN KMSN 290445Z 17013KT 10SM CLR 02/M02 A2997 820 72 -400 170/13 RMK AO2
14837KMSN MSN20101128225011111/28/10 22:50:31  5-MIN KMSN 290450Z 16013KT 10SM CLR 02/M02 A2997 820 72 -400 160/13 RMK AO2 SLP155 T00221022
14837KMSN MSN20101128225509411/28/10 22:55:31  5-MIN KMSN 290455Z 16011KT 10SM CLR 02/M02 A2997 820 72 -400 160/11 RMK AO2
14837KMSN MSN20101128230009411/28/10 23:00:31  5-MIN KMSN 290500Z 15013KT 10SM CLR 02/M02 A2996 820 72 -400 150/13 RMK AO2
14837KMSN MSN20101128230510011/28/10 23:05:31  5-MIN KMSN 290505Z 15014G19KT 10SM CLR 03/M02 A2996 830 69 -400 150/14G19 RMK AO2
14837KMSN MSN20101128231009411/28/10 23:10:31  5-MIN KMSN 290510Z 15014KT 10SM CLR 03/M02 A2996 830 69 -400 150/14 RMK AO2
14837KMSN MSN20101128231509411/28/10 23:15:31  5-MIN KMSN 290515Z 15013KT 10SM CLR 03/M03 A2996 830 67 -400 140/13 RMK AO2
14837KMSN MSN20101128232009411/28/10 23:20:31  5-MIN KMSN 290520Z 15012KT 10SM CLR 03/M03 A2996 820 67 -400 150/12 RMK AO2
14837KMSN MSN20101128232509411/28/10 23:25:31  5-MIN KMSN 290525Z 15013KT 10SM CLR 02/M03 A2997 820 69 -400 150/13 RMK AO2
14837KMSN MSN20101128233009411/28/10 23:30:31  5-MIN KMSN 290530Z 14012KT 10SM CLR 02/M03 A2996 820 69 -400 140/12 RMK AO2
14837KMSN MSN20101128233509411/28/10 23:35:31  5-MIN KMSN 290535Z 14011KT 10SM CLR 02/M03 A2996 830 69 -400 140/11 RMK AO2
14837KMSN MSN20101128234009411/28/10 23:40:31  5-MIN KMSN 290540Z 15010KT 10SM CLR 02/M03 A2997 820 69 -400 150/10 RMK AO2
14837KMSN MSN20101128234509411/28/10 23:45:31  5-MIN KMSN 290545Z 15012KT 10SM CLR 02/M03 A2997 820 69 -400 150/12 RMK AO2
14837KMSN MSN20101128235013911/28/10 23:50:31  5-MIN KMSN 290550Z 15011KT 10SM CLR 03/M03 A2997 820 67 -400 150/11 RMK AO2 SLP156 T00281028 10044 20022 400831067 58005
14837KMSN MSN20101128235509411/28/10 23:55:31  5-MIN KMSN 290555Z 16011KT 10SM CLR 03/M03 A2997 820 67 -400 160/11 RMK AO2
14837KMSN MSN20101129000009411/29/10 00:00:32  5-MIN KMSN 290600Z 16012KT 10SM CLR 03/M03 A2997 820 67 -400 160/12 RMK AO2
14837KMSN MSN20101129000509411/29/10 00:05:31  5-MIN KMSN 290605Z 16011KT 10SM CLR 03/M03 A2997 820 67 -400 150/11 RMK AO2
14837KMSN MSN20101129013009411/29/10 01:30:31  5-MIN KMSN 290730Z 16010KT 10SM CLR 03/M03 A2997 820 67 -400 160/10 RMK AO2
14837KMSN MSN20101129013509411/29/10 01:35:31  5-MIN KMSN 290735Z 16012KT 10SM CLR 03/M03 A2997 820 67 -400 160/12 RMK AO2
14837KMSN MSN20101129014009411/29/10 01:40:31  5-MIN KMSN 290740Z 16013KT 10SM CLR 03/M03 A2996 820 67 -400 160/13 RMK AO2
14837KMSN MSN20101129014509411/29/10 01:45:31  5-MIN KMSN 290745Z 16011KT 10SM CLR 03/M03 A2996 830 67 -400 160/11 RMK AO2
14837KMSN MSN20101129015011111/29/10 01:50:31  5-MIN KMSN 290750Z 16012KT 10SM CLR 03/M03 A2996 830 67 -400 160/12 RMK AO2 SLP152 T00281028
14837KMSN MSN20101129015509411/29/10 01:55:31  5-MIN KMSN 290755Z 16015KT 10SM CLR 03/M02 A2996 830 69 -400 160/15 RMK AO2
14837KMSN MSN20101129020009411/29/10 02:00:31  5-MIN KMSN 290800Z 16012KT 10SM CLR 03/M02 A2996 830 69 -400 160/12 RMK AO2
14837KMSN MSN20101129020509411/29/10 02:05:31  5-MIN KMSN 290805Z 17011KT 10SM CLR 03/M02 A2997 820 69 -400 170/11 RMK AO2
14837KMSN MSN20101129021009411/29/10 02:10:31  5-MIN KMSN 290810Z 17011KT 10SM CLR 03/M02 A2997 820 69 -400 170/11 RMK AO2
14837KMSN MSN20101129021509411/29/10 02:15:31  5-MIN KMSN 290815Z 17010KT 10SM CLR 03/M02 A2997 820 69 -400 170/10 RMK AO2
14837KMSN MSN20101129022009411/29/10 02:20:31  5-MIN KMSN 290820Z 17010KT 10SM CLR 03/M02 A2997 820 69 -400 170/10 RMK AO2
14837KMSN MSN20101129022509411/29/10 02:25:31  5-MIN KMSN 290825Z 17010KT 10SM CLR 03/M02 A2997 820 69 -400 170/10 RMK AO2
14837KMSN MSN20101129023009411/29/10 02:30:31  5-MIN KMSN 290830Z 17009KT 10SM CLR 03/M02 A2997 820 69 -400 170/09 RMK AO2
14837KMSN MSN20101129023509411/29/10 02:35:31  5-MIN KMSN 290835Z 17009KT 10SM CLR 03/M02 A2996 830 69 -400 170/09 RMK AO2
14837KMSN MSN20101129024009411/29/10 02:40:31  5-MIN KMSN 290840Z 17010KT 10SM CLR 03/M02 A2996 830 69 -400 170/10 RMK AO2
14837KMSN MSN20101129024509411/29/10 02:45:31  5-MIN KMSN 290845Z 17011KT 10SM CLR 03/M02 A2996 830 69 -400 170/11 RMK AO2
14837KMSN MSN20101129025011711/29/10 02:50:31  5-MIN KMSN 290850Z 17010KT 10SM CLR 03/M02 A2996 830 69 -400 170/10 RMK AO2 SLP150 T00281022 51007
14837KMSN MSN20101129025510011/29/10 02:55:31  5-MIN KMSN 290855Z 17014G20KT 10SM CLR 03/M02 A2995 830 69 -400 170/14G20 RMK AO2
14837KMSN MSN20101129030010011/29/10 03:00:31  5-MIN KMSN 290900Z 17012G20KT 10SM CLR 03/M02 A2995 830 69 -400 170/12G20 RMK AO2
14837KMSN MSN20101129030509411/29/10 03:05:31  5-MIN KMSN 290905Z 17011KT 10SM CLR 03/M02 A2995 830 69 -400 170/11 RMK AO2
14837KMSN MSN20101129031009411/29/10 03:10:31  5-MIN KMSN 290910Z 17009KT 10SM CLR 03/M02 A2995 840 69 -400 170/09 RMK AO2
14837KMSN MSN20101129031509411/29/10 03:15:31  5-MIN KMSN 290915Z 17011KT 10SM CLR 03/M02 A2995 840 69 -400 170/11 RMK AO2
14837KMSN MSN20101129032009411/29/10 03:20:31  5-MIN KMSN 290920Z 17010KT 10SM CLR 03/M02 A2995 840 69 -400 170/10 RMK AO2
14837KMSN MSN20101129032509411/29/10 03:25:31  5-MIN KMSN 290925Z 17012KT 10SM CLR 03/M02 A2994 840 69 -300 160/12 RMK AO2
14837KMSN MSN20101129033009411/29/10 03:30:31  5-MIN KMSN 290930Z 17012KT 10SM CLR 03/M02 A2994 850 69 -300 170/12 RMK AO2
14837KMSN MSN20101129033509411/29/10 03:35:31  5-MIN KMSN 290935Z 16013KT 10SM CLR 03/M02 A2993 850 69 -300 160/13 RMK AO2
14837KMSN MSN20101129034009411/29/10 03:40:31  5-MIN KMSN 290940Z 17012KT 10SM CLR 03/M02 A2993 850 69 -300 170/12 RMK AO2
14837KMSN MSN20101129034509411/29/10 03:45:31  5-MIN KMSN 290945Z 16014KT 10SM CLR 03/M02 A2993 850 67 -300 160/14 RMK AO2
14837KMSN MSN20101129035011111/29/10 03:50:31  5-MIN KMSN 290950Z 16011KT 10SM CLR 03/M02 A2993 860 69 -300 160/11 RMK AO2 SLP141 T00281022
14837KMSN MSN20101129035509411/29/10 03:55:31  5-MIN KMSN 290955Z 16012KT 10SM CLR 03/M02 A2992 860 69 -300 160/12 RMK AO2
14837KMSN MSN20101129040009411/29/10 04:00:31  5-MIN KMSN 291000Z 16015KT 10SM CLR 03/M02 A2992 860 69 -300 160/15 RMK AO2
14837KMSN MSN20101129040509411/29/10 04:05:31  5-MIN KMSN 291005Z 16013KT 10SM CLR 03/M02 A2992 870 69 -300 160/13 RMK AO2
14837KMSN MSN20101129041009411/29/10 04:10:31  5-MIN KMSN 291010Z 16012KT 10SM CLR 03/M02 A2992 870 69 -300 160/12 RMK AO2
14837KMSN MSN20101129041509411/29/10 04:15:31  5-MIN KMSN 291015Z 16012KT 10SM CLR 03/M02 A2991 870 69 -300 160/12 RMK AO2
14837KMSN MSN20101129042009411/29/10 04:20:31  5-MIN KMSN 291020Z 16012KT 10SM CLR 03/M02 A2991 870 69 -300 160/12 RMK AO2
14837KMSN MSN20101129042509411/29/10 04:25:31  5-MIN KMSN 291025Z 16012KT 10SM CLR 03/M02 A2991 880 69 -300 160/12 RMK AO2
14837KMSN MSN20101129043009411/29/10 04:30:31  5-MIN KMSN 291030Z 15012KT 10SM CLR 03/M02 A2990 880 69 -300 150/12 RMK AO2
14837KMSN MSN20101129043509411/29/10 04:35:31  5-MIN KMSN 291035Z 16013KT 10SM CLR 03/M02 A2991 880 69 -300 160/13 RMK AO2
14837KMSN MSN20101129044009411/29/10 04:40:31  5-MIN KMSN 291040Z 15012KT 10SM CLR 03/M02 A2990 880 69 -300 150/12 RMK AO2
14837KMSN MSN20101129044509411/29/10 04:45:31  5-MIN KMSN 291045Z 15010KT 10SM CLR 03/M02 A2990 880 69 -300 150/10 RMK AO2
14837KMSN MSN20101129045011111/29/10 04:50:31  5-MIN KMSN 291050Z 16011KT 10SM CLR 02/M02 A2990 880 72 -400 160/11 RMK AO2 SLP133 T00221022
14837KMSN MSN20101129045509411/29/10 04:55:31  5-MIN KMSN 291055Z 16011KT 10SM CLR 02/M02 A2990 880 72 -400 160/11 RMK AO2
14837KMSN MSN20101129050009411/29/10 05:00:31  5-MIN KMSN 291100Z 15010KT 10SM CLR 02/M02 A2990 880 72 -400 150/10 RMK AO2
14837KMSN MSN20101129050509411/29/10 05:05:31  5-MIN KMSN 291105Z 15012KT 10SM CLR 02/M02 A2990 880 72 -400 150/12 RMK AO2
14837KMSN MSN20101129051009411/29/10 05:10:31  5-MIN KMSN 291110Z 16011KT 10SM CLR 02/M02 A2990 880 72 -400 150/11 RMK AO2
14837KMSN MSN20101129051509411/29/10 05:15:31  5-MIN KMSN 291115Z 16011KT 10SM CLR 02/M02 A2990 880 75 -400 150/11 RMK AO2
14837KMSN MSN20101129052009411/29/10 05:20:31  5-MIN KMSN 291120Z 16010KT 10SM CLR 02/M02 A2990 880 72 -400 160/10 RMK AO2
14837KMSN MSN20101129052509411/29/10 05:25:31  5-MIN KMSN 291125Z 16010KT 10SM CLR 02/M02 A2990 890 72 -400 160/10 RMK AO2
14837KMSN MSN20101129053009411/29/10 05:30:31  5-MIN KMSN 291130Z 16010KT 10SM CLR 02/M02 A2989 890 72 -400 160/10 RMK AO2
14837KMSN MSN20101129053509411/29/10 05:35:31  5-MIN KMSN 291135Z 16009KT 10SM CLR 02/M02 A2989 890 72 -400 160/09 RMK AO2
14837KMSN MSN20101129054009411/29/10 05:40:31  5-MIN KMSN 291140Z 16010KT 10SM CLR 02/M02 A2989 890 72 -400 160/10 RMK AO2
14837KMSN MSN20101129054509411/29/10 05:45:31  5-MIN KMSN 291145Z 16011KT 10SM CLR 02/M02 A2989 890 72 -400 160/11 RMK AO2
14837KMSN MSN20101129055012911/29/10 05:50:31  5-MIN KMSN 291150Z 16011KT 10SM CLR 02/M02 A2989 890 72 -400 160/11 RMK AO2 SLP130 T00221022 10033 20017 58005
14837KMSN MSN20101129055509411/29/10 05:55:31  5-MIN KMSN 291155Z 16011KT 10SM CLR 02/M02 A2989 890 72 -400 160/11 RMK AO2
14837KMSN MSN20101129060009411/29/10 06:00:31  5-MIN KMSN 291200Z 16011KT 10SM CLR 02/M02 A2989 890 75 -400 160/11 RMK AO2
14837KMSN MSN20101129060509411/29/10 06:05:31  5-MIN KMSN 291205Z 16012KT 10SM CLR 02/M02 A2989 890 75 -400 160/12 RMK AO2
14837KMSN MSN20101129061009411/29/10 06:10:31  5-MIN KMSN 291210Z 16010KT 10SM CLR 02/M02 A2989 890 72 -400 160/10 RMK AO2
14837KMSN MSN20101129061509411/29/10 06:15:31  5-MIN KMSN 291215Z 17009KT 10SM CLR 02/M02 A2989 890 78 -400 160/09 RMK AO2
14837KMSN MSN20101129062009411/29/10 06:20:31  5-MIN KMSN 291220Z 16010KT 10SM CLR 02/M02 A2989 890 75 -400 160/10 RMK AO2
14837KMSN MSN20101129062509411/29/10 06:25:31  5-MIN KMSN 291225Z 16009KT 10SM CLR 02/M02 A2989 890 78 -400 160/09 RMK AO2
14837KMSN MSN20101129063009411/29/10 06:30:31  5-MIN KMSN 291230Z 16009KT 10SM CLR 02/M02 A2990 890 78 -400 160/09 RMK AO2
14837KMSN MSN20101129063509411/29/10 06:35:31  5-MIN KMSN 291235Z 16010KT 10SM CLR 02/M02 A2989 890 78 -400 160/10 RMK AO2
14837KMSN MSN20101129064009411/29/10 06:40:31  5-MIN KMSN 291240Z 16011KT 10SM CLR 02/M02 A2989 890 78 -400 160/11 RMK AO2
14837KMSN MSN20101129064509411/29/10 06:45:31  5-MIN KMSN 291245Z 16012KT 10SM CLR 02/M02 A2990 890 75 -400 160/12 RMK AO2
14837KMSN MSN20101129065011111/29/10 06:50:31  5-MIN KMSN 291250Z 16010KT 10SM CLR 02/M02 A2990 890 78 -400 160/10 RMK AO2 SLP131 T00171017
14837KMSN MSN20101129065509411/29/10 06:55:31  5-MIN KMSN 291255Z 16009KT 10SM CLR 02/M02 A2990 880 78 -400 160/09 RMK AO2
14837KMSN MSN20101129070009411/29/10 07:00:31  5-MIN KMSN 291300Z 16010KT 10SM CLR 02/M02 A2990 890 78 -400 160/10 RMK AO2
14837KMSN MSN20101129070509411/29/10 07:05:31  5-MIN KMSN 291305Z 15010KT 10SM CLR 02/M02 A2990 890 78 -400 150/10 RMK AO2
14837KMSN MSN20101129071009411/29/10 07:10:31  5-MIN KMSN 291310Z 16011KT 10SM CLR 02/M02 A2990 880 78 -400 160/11 RMK AO2
14837KMSN MSN20101129071509411/29/10 07:15:31  5-MIN KMSN 291315Z 15010KT 10SM CLR 02/M02 A2990 880 78 -400 150/10 RMK AO2
14837KMSN MSN20101129072009411/29/10 07:20:31  5-MIN KMSN 291320Z 15010KT 10SM CLR 02/M02 A2990 880 78 -400 150/10 RMK AO2
14837KMSN MSN20101129072509411/29/10 07:25:31  5-MIN KMSN 291325Z 15009KT 10SM CLR 02/M02 A2990 890 78 -400 150/09 RMK AO2
14837KMSN MSN20101129073009411/29/10 07:30:31  5-MIN KMSN 291330Z 15010KT 10SM CLR 02/M02 A2990 880 78 -400 150/10 RMK AO2
14837KMSN MSN20101129073509411/29/10 07:35:31  5-MIN KMSN 291335Z 15009KT 10SM CLR 02/M02 A2990 880 78 -400 150/09 RMK AO2
14837KMSN MSN20101129074009411/29/10 07:40:31  5-MIN KMSN 291340Z 16010KT 10SM CLR 02/M02 A2990 880 78 -400 160/10 RMK AO2
14837KMSN MSN20101129074509411/29/10 07:45:31  5-MIN KMSN 291345Z 16010KT 10SM CLR 02/M02 A2990 880 78 -400 160/10 RMK AO2
14837KMSN MSN20101129075011111/29/10 07:50:31  5-MIN KMSN 291350Z 15011KT 10SM CLR 02/M02 A2990 880 78 -400 150/11 RMK AO2 SLP133 T00171017
14837KMSN MSN20101129075509411/29/10 07:55:31  5-MIN KMSN 291355Z 15011KT 10SM CLR 02/M02 A2990 880 75 -400 150/11 RMK AO2
14837KMSN MSN20101129080009411/29/10 08:00:31  5-MIN KMSN 291400Z 16010KT 10SM CLR 02/M02 A2990 880 75 -400 160/10 RMK AO2
14837KMSN MSN20101129080509411/29/10 08:05:31  5-MIN KMSN 291405Z 15011KT 10SM CLR 02/M02 A2990 880 75 -400 150/11 RMK AO2
14837KMSN MSN20101129081009411/29/10 08:10:31  5-MIN KMSN 291410Z 16012KT 10SM CLR 02/M02 A2990 880 75 -400 160/12 RMK AO2
14837KMSN MSN20101129081509411/29/10 08:15:31  5-MIN KMSN 291415Z 16013KT 10SM CLR 02/M02 A2990 880 75 -400 160/13 RMK AO2
14837KMSN MSN20101129082009411/29/10 08:20:31  5-MIN KMSN 291420Z 16011KT 10SM CLR 02/M02 A2990 880 75 -400 160/11 RMK AO2
14837KMSN MSN20101129082509411/29/10 08:25:31  5-MIN KMSN 291425Z 16010KT 10SM CLR 02/M02 A2990 880 75 -400 160/10 RMK AO2
14837KMSN MSN20101129083009411/29/10 08:30:31  5-MIN KMSN 291430Z 16012KT 10SM CLR 02/M02 A2990 880 75 -400 160/12 RMK AO2
14837KMSN MSN20101129083509411/29/10 08:35:31  5-MIN KMSN 291435Z 16011KT 10SM CLR 02/M02 A2990 880 75 -400 160/11 RMK AO2
14837KMSN MSN20101129084009411/29/10 08:40:31  5-MIN KMSN 291440Z 16011KT 10SM CLR 03/M02 A2990 880 72 -300 160/11 RMK AO2
14837KMSN MSN20101129084509711/29/10 08:45:31  5-MIN KMSN 291445Z 16013KT 10SM FEW075 03/M02 A2990 880 72 -300 160/13 RMK AO2
14837KMSN MSN20101129085012011/29/10 08:50:31  5-MIN KMSN 291450Z 16012KT 10SM BKN075 03/M02 A2990 880 72 -300 160/12 RMK AO2 SLP132 T00281017 56020
14837KMSN MSN20101129085509711/29/10 08:55:31  5-MIN KMSN 291455Z 16013KT 10SM BKN070 03/M01 A2990 890 75 -300 150/13 RMK AO2
14837KMSN MSN20101129090009711/29/10 09:00:31  5-MIN KMSN 291500Z 16013KT 10SM BKN070 03/M01 A2990 890 75 -300 160/13 RMK AO2
14837KMSN MSN20101129090509711/29/10 09:05:31  5-MIN KMSN 291505Z 16012KT 10SM BKN070 03/M01 A2990 890 75 -300 160/12 RMK AO2
14837KMSN MSN20101129091009711/29/10 09:10:31  5-MIN KMSN 291510Z 16013KT 10SM OVC070 03/M01 A2989 890 72 -200 160/13 RMK AO2
14837KMSN MSN20101129091509711/29/10 09:15:31  5-MIN KMSN 291515Z 16013KT 10SM OVC070 03/M01 A2989 890 72 -200 160/13 RMK AO2
14837KMSN MSN20101129092009711/29/10 09:20:31  5-MIN KMSN 291520Z 17015KT 10SM OVC070 03/M01 A2990 890 72 -200 170/15 RMK AO2
14837KMSN MSN20101129092510311/29/10 09:25:31  5-MIN KMSN 291525Z 16010G18KT 10SM OVC070 03/M01 A2990 890 72 -200 160/10G18 RMK AO2
14837KMSN MSN20101129093009711/29/10 09:30:31  5-MIN KMSN 291530Z 16010KT 10SM OVC070 04/M01 A2989 890 70 -200 160/10 RMK AO2
14837KMSN MSN20101129093509711/29/10 09:35:31  5-MIN KMSN 291535Z 15011KT 10SM OVC070 04/M01 A2989 890 70 -100 150/11 RMK AO2
14837KMSN MSN20101129094009711/29/10 09:40:31  5-MIN KMSN 291540Z 16011KT 10SM BKN070 04/M01 A2989 900 70 -100 160/11 RMK AO2
14837KMSN MSN20101129094509711/29/10 09:45:31  5-MIN KMSN 291545Z 16012KT 10SM BKN070 04/M01 A2988 900 70 -100 160/12 RMK AO2
14837KMSN MSN20101129095011411/29/10 09:50:31  5-MIN KMSN 291550Z 16014KT 10SM BKN070 04/M01 A2988 900 67 -100 160/14 RMK AO2 SLP127 T00441011
14837KMSN MSN20101129095509411/29/10 09:55:31  5-MIN KMSN 291555Z 16013KT 10SM BKN075 05/M01 A2988 900 67 0 160/13 RMK AO2
14837KMSN MSN20101129100009411/29/10 10:00:31  5-MIN KMSN 291600Z 17014KT 10SM BKN075 05/M01 A2988 900 67 0 170/14 RMK AO2
14837KMSN MSN20101129100509411/29/10 10:05:31  5-MIN KMSN 291605Z 16013KT 10SM BKN075 05/M01 A2988 910 67 0 160/13 RMK AO2
14837KMSN MSN20101129101010011/29/10 10:10:31  5-MIN KMSN 291610Z 16013G20KT 10SM BKN075 06/M01 A2987 910 65 0 160/13G20 RMK AO2
14837KMSN MSN20101129101509611/29/10 10:15:31  5-MIN KMSN 291615Z 16016KT 10SM BKN075 06/M01 A2987 910 62 100 160/16 RMK AO2
14837KMSN MSN20101129102009411/29/10 10:20:31  5-MIN KMSN 291620Z 16014KT 10SM BKN075 06/M01 A2986 920 65 0 160/14 RMK AO2
14837KMSN MSN20101129102510011/29/10 10:25:31  5-MIN KMSN 291625Z 16016G22KT 10SM BKN075 06/M01 A2986 920 65 0 160/16G22 RMK AO2
14837KMSN MSN20101129103010011/29/10 10:30:31  5-MIN KMSN 291630Z 16013G22KT 10SM BKN075 06/M01 A2986 920 65 0 160/13G22 RMK AO2
14837KMSN MSN20101129103509411/29/10 10:35:31  5-MIN KMSN 291635Z 16012KT 10SM BKN075 06/M01 A2986 920 65 0 160/12 RMK AO2
14837KMSN MSN20101129104009611/29/10 10:40:31  5-MIN KMSN 291640Z 16017KT 10SM BKN075 06/M01 A2986 920 62 100 160/17 RMK AO2
14837KMSN MSN20101129104509411/29/10 10:45:31  5-MIN KMSN 291645Z 16014KT 10SM BKN075 06/M01 A2985 930 65 0 160/14 RMK AO2
14837KMSN MSN20101129105011911/29/10 10:50:31  5-MIN KMSN 291650Z 16016G21KT 10SM BKN075 06/M01 A2985 930 62 100 160/16G21 RMK AO2 SLP114 T00611006
14837KMSN MSN20101129105510111/29/10 10:55:31  5-MIN KMSN 291655Z 17015G21KT 10SM BKN075 07/00 A2985 930 62 200 170/15G21 RMK AO2
14837KMSN MSN20101129110010211/29/10 11:00:31  5-MIN KMSN 291700Z 17018G23KT 10SM BKN075 06/M01 A2985 930 62 100 160/18G23 RMK AO2
14837KMSN MSN20101129110510211/29/10 11:05:31  5-MIN KMSN 291705Z 17014G23KT 10SM BKN075 06/M01 A2984 940 62 100 170/14G23 RMK AO2
14837KMSN MSN20101129111010111/29/10 11:10:31  5-MIN KMSN 291710Z 17017G22KT 10SM BKN075 06/00 A2984 940 65 100 170/17G22 RMK AO2
14837KMSN MSN20101129111510111/29/10 11:15:31  5-MIN KMSN 291715Z 17017G22KT 10SM BKN075 06/00 A2984 940 65 100 170/17G22 RMK AO2
14837KMSN MSN20101129112010111/29/10 11:20:31  5-MIN KMSN 291720Z 17014G21KT 10SM BKN075 06/00 A2983 950 65 100 170/14G21 RMK AO2
14837KMSN MSN20101129112509511/29/10 11:25:31  5-MIN KMSN 291725Z 17014KT 10SM BKN075 07/00 A2983 950 62 200 170/14 RMK AO2
14837KMSN MSN20101129113009511/29/10 11:30:31  5-MIN KMSN 291730Z 17014KT 10SM BKN075 07/00 A2982 950 60 300 170/14 RMK AO2
14837KMSN MSN20101129113509511/29/10 11:35:31  5-MIN KMSN 291735Z 16013KT 10SM BKN075 08/01 A2982 960 60 400 160/13 RMK AO2
14837KMSN MSN20101129114009511/29/10 11:40:31  5-MIN KMSN 291740Z 16015KT 10SM BKN075 07/00 A2982 960 62 200 160/15 RMK AO2
14837KMSN MSN20101129114510111/29/10 11:45:31  5-MIN KMSN 291745Z 16017G21KT 10SM BKN075 07/00 A2981 970 62 200 160/17G21 RMK AO2
14837KMSN MSN20101129115013611/29/10 11:50:31  5-MIN KMSN 291750Z 16015G21KT 10SM BKN075 07/01 A2981 970 65 200 160/15G21 RMK AO2 SLP100 T00670006 10078 20017 50001
14837KMSN MSN20101129115509511/29/10 11:55:31  5-MIN KMSN 291755Z 15014KT 10SM BKN080 07/01 A2980 970 62 300 150/14 RMK AO2
14837KMSN MSN20101129120010111/29/10 12:00:31  5-MIN KMSN 291800Z 16018G23KT 10SM BKN080 07/01 A2980 980 62 300 160/18G23 RMK AO2
14837KMSN MSN20101129120510111/29/10 12:05:31  5-MIN KMSN 291805Z 16018G23KT 10SM OVC080 08/01 A2980 970 60 400 160/18G23 RMK AO2
14837KMSN MSN20101129121010111/29/10 12:10:31  5-MIN KMSN 291810Z 16018G23KT 10SM BKN080 08/01 A2980 980 60 400 160/18G23 RMK AO2
14837KMSN MSN20101129121510111/29/10 12:15:31  5-MIN KMSN 291815Z 16013G23KT 10SM BKN080 08/01 A2980 980 60 400 160/13G23 RMK AO2
14837KMSN MSN20101129122009511/29/10 12:20:31  5-MIN KMSN 291820Z 17017KT 10SM BKN080 08/01 A2979 980 60 400 170/17 RMK AO2
14837KMSN MSN20101129122509511/29/10 12:25:31  5-MIN KMSN 291825Z 16018KT 10SM BKN080 08/01 A2979 980 60 400 160/18 RMK AO2
14837KMSN MSN20101129123009511/29/10 12:30:31  5-MIN KMSN 291830Z 16017KT 10SM BKN080 08/01 A2979 980 62 400 160/17 RMK AO2
14837KMSN MSN20101129123509511/29/10 12:35:31  5-MIN KMSN 291835Z 15018KT 10SM BKN080 08/01 A2979 990 62 400 150/18 RMK AO2
14837KMSN MSN20101129124009511/29/10 12:40:31  5-MIN KMSN 291840Z 16016KT 10SM BKN080 08/01 A2978 990 60 500 150/16 RMK AO2
14837KMSN MSN20101129124510111/29/10 12:45:31  5-MIN KMSN 291845Z 17014G22KT 10SM BKN080 08/01 A2978 990 62 400 160/14G22 RMK AO2
14837KMSN MSN20101129125011311/29/10 12:50:31  5-MIN KMSN 291850Z 16014KT 10SM BKN080 08/01 A2978 1000 62 400 160/14 RMK AO2 SLP088 T00780011
14837KMSN MSN20101129125509611/29/10 12:55:31  5-MIN KMSN 291855Z 17016KT 10SM SCT085 08/01 A2977 1000 62 400 160/16 RMK AO2
14837KMSN MSN20101129130009611/29/10 13:00:31  5-MIN KMSN 291900Z 15014KT 10SM SCT085 08/01 A2978 1000 60 500 150/14 RMK AO2
14837KMSN MSN20101129130509611/29/10 13:05:31  5-MIN KMSN 291905Z 15016KT 10SM SCT085 08/01 A2978 1000 60 500 150/16 RMK AO2
14837KMSN MSN20101129131010211/29/10 13:10:31  5-MIN KMSN 291910Z 15018G23KT 10SM BKN085 08/01 A2977 1000 62 400 150/18G23 RMK AO2
14837KMSN MSN20101129131510311/29/10 13:15:31  5-MIN KMSN 291915Z 15017KT 10SM FEW036 OVC085 08/02 A2976 1010 63 500 150/17 RMK AO2
14837KMSN MSN20101129132011011/29/10 13:20:31  5-MIN KMSN 291920Z 15014KT 10SM FEW036 BKN085 09/02 A2975 1020 60 600 150/14 RMK AO2 PRESFR
14837KMSN MSN20101129132510311/29/10 13:25:31  5-MIN KMSN 291925Z 15015KT 10SM FEW036 BKN085 08/01 A2975 1020 62 400 150/15 RMK AO2
14837KMSN MSN20101129133010311/29/10 13:30:31  5-MIN KMSN 291930Z 15015KT 10SM SCT036 BKN085 08/02 A2976 1010 65 400 150/15 RMK AO2
14837KMSN MSN20101129133510311/29/10 13:35:31  5-MIN KMSN 291935Z 15013KT 10SM SCT036 BKN085 08/02 A2976 1020 65 400 150/13 RMK AO2
14837KMSN MSN20101129134009611/29/10 13:40:31  5-MIN KMSN 291940Z 15013KT 10SM BKN034 08/02 A2976 1020 65 400 150/13 RMK AO2
14837KMSN MSN20101129134509611/29/10 13:45:31  5-MIN KMSN 291945Z 15015KT 10SM BKN034 08/02 A2976 1010 65 400 150/15 RMK AO2
14837KMSN MSN20101129135011311/29/10 13:50:31  5-MIN KMSN 291950Z 15015KT 10SM BKN034 08/02 A2976 1020 65 400 150/15 RMK AO2 SLP081 T00780017
14837KMSN MSN20101129135509611/29/10 13:55:31  5-MIN KMSN 291955Z 14016KT 10SM BKN034 08/02 A2976 1020 65 400 140/16 RMK AO2
14837KMSN MSN20101129140009611/29/10 14:00:31  5-MIN KMSN 292000Z 14016KT 10SM OVC034 08/02 A2976 1020 65 400 140/16 RMK AO2
14837KMSN MSN20101129140509611/29/10 14:05:31  5-MIN KMSN 292005Z 14013KT 10SM OVC034 08/02 A2976 1010 65 400 140/13 RMK AO2
14837KMSN MSN20101129141009611/29/10 14:10:31  5-MIN KMSN 292010Z 14013KT 10SM OVC032 08/02 A2975 1020 65 400 140/13 RMK AO2
14837KMSN MSN20101129141510211/29/10 14:15:31  5-MIN KMSN 292015Z 14016G21KT 10SM OVC032 08/02 A2975 1020 65 400 140/16G21 RMK AO2
14837KMSN MSN20101129142010211/29/10 14:20:31  5-MIN KMSN 292020Z 15012G21KT 10SM OVC032 08/02 A2976 1010 65 400 150/12G21 RMK AO2
14837KMSN MSN20101129142509611/29/10 14:25:31  5-MIN KMSN 292025Z 15013KT 10SM OVC032 07/02 A2977 1000 68 300 150/13 RMK AO2
14837KMSN MSN20101129143010211/29/10 14:30:31  5-MIN KMSN 292030Z 15012G19KT 10SM OVC032 07/02 A2977 1010 68 400 150/12G19 RMK AO2
14837KMSN MSN20101129143510211/29/10 14:35:31  5-MIN KMSN 292035Z 14017G22KT 10SM OVC032 07/02 A2976 1010 68 400 140/17G22 RMK AO2
14837KMSN MSN20101129144010911/29/10 14:40:31  5-MIN KMSN 292040Z 15014G22KT 10SM FEW024 OVC032 07/02 A2976 1010 68 400 150/14G22 RMK AO2
14837KMSN MSN20101129144511611/29/10 14:45:31  5-MIN KMSN 292045Z 13013G21KT 10SM SCT024 OVC032 07/02 A2974 1030 68 400 130/13G21 RMK AO2 PRESFR
14837KMSN MSN20101129145013911/29/10 14:50:31  5-MIN KMSN 292050Z 13018G21KT 10SM SCT024 OVC032 07/02 A2973 1040 68 400 130/18G21 RMK AO2 PRESFR SLP074 T00720017 58031
14837KMSN MSN20101129145510911/29/10 14:55:31  5-MIN KMSN 292055Z 13016G22KT 10SM BKN024 OVC032 07/02 A2973 1040 70 300 130/16G22 RMK AO2
14837KMSN MSN20101129150010911/29/10 15:00:31  5-MIN KMSN 292100Z 14014G22KT 10SM BKN022 OVC030 07/02 A2974 1030 70 300 140/14G22 RMK AO2
14837KMSN MSN20101129150509611/29/10 15:05:31  5-MIN KMSN 292105Z 14014KT 10SM OVC022 07/02 A2975 1020 70 300 140/14 RMK AO2
14837KMSN MSN20101129151010911/29/10 15:10:31  5-MIN KMSN 292110Z 15016G21KT 10SM OVC022 07/02 A2975 1020 70 300 140/16G21 RMK AO2 PRESRR
14837KMSN MSN20101129151510211/29/10 15:15:31  5-MIN KMSN 292115Z 14016G23KT 10SM OVC022 07/02 A2975 1020 70 300 140/16G23 RMK AO2
14837KMSN MSN20101129152010211/29/10 15:20:31  5-MIN KMSN 292120Z 15019G23KT 10SM OVC022 07/02 A2975 1020 70 300 150/19G23 RMK AO2
14837KMSN MSN20101129152510111/29/10 15:25:31  5-MIN KMSN 292125Z 14015G23KT 9SM OVC022 06/02 A2975 1020 76 200 140/15G23 RMK AO2
14837KMSN MSN20101129153010111/29/10 15:30:31  5-MIN KMSN 292130Z 14013G20KT 9SM OVC020 06/02 A2974 1030 76 200 140/13G20 RMK AO2
14837KMSN MSN20101129153511211/29/10 15:35:31  5-MIN KMSN 292135Z 14013KT 10SM -RA OVC020 06/02 A2974 1030 76 200 140/13 RMK AO2 RAB31 P0000
14837KMSN MSN20101129154011211/29/10 15:40:31  5-MIN KMSN 292140Z 14014KT 10SM -RA OVC018 06/02 A2974 1030 76 300 140/14 RMK AO2 RAB31 P0000
14837KMSN MSN20101129154511811/29/10 15:45:31  5-MIN KMSN 292145Z 14015G21KT 10SM -RA OVC018 06/02 A2974 1030 76 200 140/15G21 RMK AO2 RAB31 P0000
14837KMSN MSN20101129155012911/29/10 15:50:31  5-MIN KMSN 292150Z 14016KT 10SM -RA OVC018 06/02 A2975 1030 76 200 140/16 RMK AO2 RAB31 SLP079 P0000 T00610022
14837KMSN MSN20101129155511211/29/10 15:55:31  5-MIN KMSN 292155Z 15012G21KT 10SM -RA OVC018 06/02 A2975 1020 76 200 150/12G21 RMK AO2 P0000
14837KMSN MSN20101129160011311/29/10 16:00:31  5-MIN KMSN 292200Z 16013KT 10SM -RA OVC018 06/02 A2976 1010 76 200 160/13 RMK AO2 PRESRR P0000
14837KMSN MSN20101129160510611/29/10 16:05:31  5-MIN KMSN 292205Z 16014KT 10SM -RA OVC018 06/02 A2976 1010 76 200 160/14 RMK AO2 P0000
14837KMSN MSN20101129161011111/29/10 16:10:31  5-MIN KMSN 292210Z 16013G20KT 9SM -RA OVC018 06/02 A2976 1010 76 200 150/13G20 RMK AO2 P0000
14837KMSN MSN20101129161511111/29/10 16:15:31  5-MIN KMSN 292215Z 15012G20KT 8SM -RA OVC018 06/03 A2976 1020 79 200 150/12G20 RMK AO2 P0000
14837KMSN MSN20101129162011111/29/10 16:20:31  5-MIN KMSN 292220Z 15013G20KT 7SM -RA OVC018 06/03 A2975 1020 82 200 150/13G20 RMK AO2 P0000
14837KMSN MSN20101129162511911/29/10 16:25:31  5-MIN KMSN 292225Z 15014KT 6SM -RA BKN018 OVC070 06/03 A2974 1040 82 200 140/14 RMK AO2 PRESFR P0000
14837KMSN MSN20101129163012811/29/10 16:30:31  5-MIN KMSN 292230Z 14014G20KT 6SM -RA BR BKN018 OVC060 06/03 A2973 1040 85 200 140/14G20 RMK AO2 PRESFR P0000
14837KMSN MSN20101129163512811/29/10 16:35:31  5-MIN KMSN 292235Z 13016G22KT 4SM -RA BR SCT018 OVC065 06/03 A2972 1050 85 200 130/16G22 RMK AO2 PRESFR P0000
14837KMSN MSN20101129164012111/29/10 16:40:31  5-MIN KMSN 292240Z 14013G22KT 4SM -RA BR SCT018 OVC065 06/03 A2972 1050 85 200 140/13G22 RMK AO2 P0000
14837KMSN MSN20101129164511511/29/10 16:45:31  5-MIN KMSN 292245Z 14012KT 4SM -RA BR SCT018 OVC065 06/03 A2972 1050 85 200 140/12 RMK AO2 P0001
14837KMSN MSN20101129165013811/29/10 16:50:31  5-MIN KMSN 292250Z 15013G19KT 4SM -RA BR SCT018 OVC065 06/04 A2972 1050 89 200 140/13G19 RMK AO2 SLP071 P0002 T00560039
14837KMSN MSN20101129165512111/29/10 16:55:31  5-MIN KMSN 292255Z 14014G19KT 4SM -RA BR BKN018 OVC065 06/04 A2972 1050 89 200 140/14G19 RMK AO2 P0000
14837KMSN MSN20101129170012211/29/10 17:00:31  5-MIN KMSN 292300Z 14013KT 4SM -RA BR BKN018 BKN029 OVC070 06/04 A2972 1050 89 200 140/13 RMK AO2 P0001
14837KMSN MSN20101129170512211/29/10 17:05:31  5-MIN KMSN 292305Z 14012KT 4SM -RA BR BKN018 BKN031 OVC070 06/04 A2971 1060 89 200 140/12 RMK AO2 P0001
14837KMSN MSN20101129171011511/29/10 17:10:31  5-MIN KMSN 292310Z 14013KT 4SM -RA BR BKN018 OVC033 06/04 A2971 1060 89 200 140/13 RMK AO2 P0001
14837KMSN MSN20101129171512211/29/10 17:15:31  5-MIN KMSN 292315Z 14012KT 6SM -RA BR SCT018 BKN033 OVC048 06/04 A2971 1060 89 200 140/12 RMK AO2 P0001
14837KMSN MSN20101129172012211/29/10 17:20:31  5-MIN KMSN 292320Z 14011KT 6SM -RA BR SCT018 BKN033 OVC048 06/04 A2971 1060 89 200 140/11 RMK AO2 P0001
14837KMSN MSN20101129172512811/29/10 17:25:31  5-MIN KMSN 292325Z 14011G18KT 6SM -RA BR SCT018 BKN025 OVC048 06/04 A2970 1070 89 200 130/11G18 RMK AO2 P0001
14837KMSN MSN20101129173012211/29/10 17:30:31  5-MIN KMSN 292330Z 14012KT 6SM -RA BR SCT018 BKN023 OVC048 06/04 A2971 1060 89 200 140/12 RMK AO2 P0001
14837KMSN MSN20101129173512211/29/10 17:35:31  5-MIN KMSN 292335Z 13013KT 6SM -RA BR BKN020 BKN034 OVC048 06/04 A2971 1060 89 200 130/13 RMK AO2 P0001
14837KMSN MSN20101129174012211/29/10 17:40:31  5-MIN KMSN 292340Z 14011KT 6SM -RA BR FEW013 BKN018 OVC048 06/04 A2970 1070 89 200 130/11 RMK AO2 P0001
14837KMSN MSN20101129174511511/29/10 17:45:31  5-MIN KMSN 292345Z 14013KT 6SM -RA BR BKN018 OVC023 06/04 A2970 1070 92 200 140/13 RMK AO2 P0001
14837KMSN MSN20101129175015311/29/10 17:50:31  5-MIN KMSN 292350Z 14013KT 7SM -RA SCT013 OVC018 06/04 A2969 1070 92 200 140/13 RMK AO2 SLP062 P0001 60003 T00560044 10089 20050 57024
14837KMSN MSN20101129175511211/29/10 17:55:31  5-MIN KMSN 292355Z 14012KT 8SM -RA BKN013 OVC018 06/04 A2970 1070 89 300 140/12 RMK AO2 P0000
14837KMSN MSN20101129180010511/29/10 18:00:31  5-MIN KMSN 300000Z 14011KT 8SM -RA OVC015 06/04 A2969 1070 89 300 130/11 RMK AO2 P0000
14837KMSN MSN20101129180510511/29/10 18:05:31  5-MIN KMSN 300005Z 14011KT 8SM -RA OVC013 06/04 A2969 1080 89 300 140/11 RMK AO2 P0000
14837KMSN MSN20101129181010511/29/10 18:10:31  5-MIN KMSN 300010Z 15012KT 8SM -RA OVC011 06/04 A2969 1080 89 300 150/12 RMK AO2 P0000
14837KMSN MSN20101129181511711/29/10 18:15:31  5-MIN KMSN 300015Z 14013KT 7SM -RA OVC011 06/04 A2969 1080 89 300 140/13 RMK AO2 CIG 009V013 P0000
14837KMSN MSN20101129182012611/29/10 18:20:31  5-MIN KMSN 300020Z 15012G19KT 5SM -RA BR OVC011 06/04 A2969 1080 89 300 150/12G19 RMK AO2 CIG 009V013 P0000
14837KMSN MSN20101129182512011/29/10 18:25:31  5-MIN KMSN 300025Z 15014KT 5SM -RA BR OVC009 06/04 A2969 1080 89 300 150/14 RMK AO2 CIG 008V013 P0000
14837KMSN MSN20101129183012011/29/10 18:30:31  5-MIN KMSN 300030Z 15014KT 5SM -RA BR OVC009 06/04 A2969 1080 89 300 150/14 RMK AO2 CIG 008V013 P0000
14837KMSN MSN20101129183510811/29/10 18:35:31  5-MIN KMSN 300035Z 15015KT 5SM -RA BR OVC009 06/05 A2968 1080 93 300 150/15 RMK AO2 P0000
14837KMSN MSN20101129184011411/29/10 18:40:31  5-MIN KMSN 300040Z 15015G21KT 5SM -RA BR OVC009 06/05 A2969 1080 93 300 150/15G21 RMK AO2 P0000
14837KMSN MSN20101129184511411/29/10 18:45:31  5-MIN KMSN 300045Z 15015G21KT 5SM -RA BR OVC009 06/05 A2968 1090 93 300 150/15G21 RMK AO2 P0000
14837KMSN MSN20101129185012511/29/10 18:50:31  5-MIN KMSN 300050Z 15014KT 5SM -RA BR OVC009 06/05 A2967 1090 93 300 150/14 RMK AO2 SLP056 P0001 T00610050
14837KMSN MSN20101129185511111/29/10 18:55:31  5-MIN KMSN 300055Z 15012G21KT 7SM -RA OVC009 06/05 A2967 1100 93 300 150/12G21 RMK AO2 P0000
14837KMSN MSN20101129190010511/29/10 19:00:31  5-MIN KMSN 300100Z 15015KT 7SM -RA OVC009 06/05 A2967 1100 93 300 150/15 RMK AO2 P0000
14837KMSN MSN20101129190510511/29/10 19:05:31  5-MIN KMSN 300105Z 15012KT 7SM -RA OVC009 06/05 A2966 1100 93 300 150/12 RMK AO2 P0000
14837KMSN MSN20101129191010511/29/10 19:10:31  5-MIN KMSN 300110Z 16015KT 7SM -RA OVC009 07/05 A2966 1100 89 400 150/15 RMK AO2 P0000
14837KMSN MSN20101129191510511/29/10 19:15:31  5-MIN KMSN 300115Z 16014KT 7SM -RA OVC009 07/05 A2966 1100 89 400 160/14 RMK AO2 P0000
14837KMSN MSN20101129192010511/29/10 19:20:31  5-MIN KMSN 300120Z 16016KT 7SM -RA OVC009 07/05 A2967 1100 89 400 160/16 RMK AO2 P0000
14837KMSN MSN20101129192510811/29/10 19:25:31  5-MIN KMSN 300125Z 16013KT 6SM -RA BR OVC009 07/06 A2967 1100 93 400 160/13 RMK AO2 P0000
14837KMSN MSN20101129193010811/29/10 19:30:31  5-MIN KMSN 300130Z 16011KT 6SM -RA BR OVC009 07/06 A2966 1110 93 400 160/11 RMK AO2 P0000
14837KMSN MSN20101129193510811/29/10 19:35:31  5-MIN KMSN 300135Z 16012KT 5SM -RA BR OVC009 07/06 A2965 1110 93 400 150/12 RMK AO2 P0000
14837KMSN MSN20101129194010811/29/10 19:40:31  5-MIN KMSN 300140Z 15015KT 4SM -RA BR OVC009 07/06 A2965 1120 93 400 150/15 RMK AO2 P0000
14837KMSN MSN20101129194510811/29/10 19:45:31  5-MIN KMSN 300145Z 16013KT 4SM -RA BR OVC009 07/06 A2965 1120 93 400 160/13 RMK AO2 P0000
14837KMSN MSN20101129195012511/29/10 19:50:31  5-MIN KMSN 300150Z 15013KT 3SM -RA BR OVC007 07/06 A2964 1120 93 400 150/13 RMK AO2 SLP044 P0000 T00670056
14837KMSN MSN20101129195511411/29/10 19:55:31  5-MIN KMSN 300155Z 16012G19KT 4SM -DZ BR OVC007 07/06 A2964 1130 93 400 160/12G19 RMK AO2 P0000
14837KMSN MSN20101129200011411/29/10 20:00:31  5-MIN KMSN 300200Z 15013G19KT 4SM -DZ BR OVC007 07/06 A2965 1120 93 400 150/13G19 RMK AO2 P0000
14837KMSN MSN20101129200510811/29/10 20:05:31  5-MIN KMSN 300205Z 16015KT 4SM -DZ BR OVC007 07/06 A2964 1120 93 400 150/15 RMK AO2 P0000
14837KMSN MSN20101129201010811/29/10 20:10:31  5-MIN KMSN 300210Z 16012KT 4SM -DZ BR OVC007 07/06 A2963 1130 89 500 160/12 RMK AO2 P0000
14837KMSN MSN20101129201510811/29/10 20:15:31  5-MIN KMSN 300215Z 16012KT 4SM -DZ BR OVC007 07/06 A2963 1130 93 500 160/12 RMK AO2 P0000
14837KMSN MSN20101129202011011/29/10 20:20:31  5-MIN KMSN 300220Z 16013KT 5SM BR OVC007 07/06 A2963 1130 93 500 160/13 RMK AO2 DZE19 P0000
14837KMSN MSN20101129202511011/29/10 20:25:31  5-MIN KMSN 300225Z 17013KT 6SM BR OVC007 07/06 A2963 1140 93 500 160/13 RMK AO2 DZE19 P0000
14837KMSN MSN20101129211014111/29/10 21:10:31  5-MIN KMSN 300310Z 16013KT 2SM -RA BR OVC007 07/06 A2962 1150 93 500 160/13 RMK AO2 TWR VIS 3 DZE04RAB04 CIG 004V011 P0001
14837KMSN MSN20101129211514111/29/10 21:15:31  5-MIN KMSN 300315Z 15015KT 2SM -RA BR OVC007 07/06 A2961 1150 93 500 150/15 RMK AO2 TWR VIS 3 DZE04RAB04 CIG 004V011 P0001
14837KMSN MSN20101129212014811/29/10 21:20:31  5-MIN KMSN 300320Z 16012KT 2SM -RA BR BKN007 OVC010 07/06 A2961 1150 93 500 160/12 RMK AO2 TWR VIS 3 DZE04RAB04 CIG 004V009 P0002
14837KMSN MSN20101129212514111/29/10 21:25:31  5-MIN KMSN 300325Z 16012KT 2SM -RA BR OVC007 07/06 A2961 1150 93 500 160/12 RMK AO2 TWR VIS 3 DZE04RAB04 CIG 004V009 P0002
14837KMSN MSN20101129213014111/29/10 21:30:31  5-MIN KMSN 300330Z 16014KT 2SM -RA BR OVC007 07/07 A2960 1160 96 500 160/14 RMK AO2 TWR VIS 3 DZE04RAB04 CIG 004V011 P0002
14837KMSN MSN20101129213514111/29/10 21:35:31  5-MIN KMSN 300335Z 16012KT 2SM -RA BR OVC007 07/07 A2960 1160 96 500 160/12 RMK AO2 TWR VIS 3 DZE04RAB04 CIG 004V011 P0003
14837KMSN MSN20101129214014411/29/10 21:40:31  5-MIN KMSN 300340Z 16013KT 3SM -DZ BR BKN005 OVC009 07/07 A2960 1160 96 500 160/13 RMK AO2 DZE04B40RAB04E40 CIG 005V008 P0003
14837KMSN MSN20101129214513711/29/10 21:45:31  5-MIN KMSN 300345Z 16013KT 3SM -DZ BR OVC005 07/07 A2960 1160 96 500 160/13 RMK AO2 DZE04B40RAB04E40 CIG 005V008 P0003
14837KMSN MSN20101129215015411/29/10 21:50:31  5-MIN KMSN 300350Z 16013KT 3SM -DZ BR OVC005 07/07 A2960 1170 96 600 160/13 RMK AO2 DZE04B40RAB04E40 CIG 005V008 SLP026 P0003 T00720067
14837KMSN MSN20101129215512611/29/10 21:55:31  5-MIN KMSN 300355Z 16011G18KT 3SM -DZ BR OVC005 07/07 A2959 1170 96 600 160/11G18 RMK AO2 CIG 005V009 P0000
14837KMSN MSN20101129220011811/29/10 22:00:31  5-MIN KMSN 300400Z 17013KT 3SM -DZ BR OVC005 07/07 A2959 1170 96 600 170/13 RMK AO2 SFC VIS 3 P0000
14837KMSN MSN20101129220511811/29/10 22:05:31  5-MIN KMSN 300405Z 16011KT 3SM -DZ BR OVC005 07/07 A2959 1170 96 600 160/11 RMK AO2 SFC VIS 4 P0001
14837KMSN MSN20101129221011811/29/10 22:10:31  5-MIN KMSN 300410Z 17012KT 3SM -DZ BR OVC005 07/07 A2959 1170 96 600 170/12 RMK AO2 SFC VIS 4 P0001
14837KMSN MSN20101129221510811/29/10 22:15:31  5-MIN KMSN 300415Z 16011KT 3SM -DZ BR OVC005 07/07 A2958 1180 96 600 160/11 RMK AO2 P0001
14837KMSN MSN20101129222010811/29/10 22:20:31  5-MIN KMSN 300420Z 17009KT 3SM -DZ BR OVC005 07/07 A2958 1180 96 600 170/09 RMK AO2 P0001
14837KMSN MSN20101129222510811/29/10 22:25:31  5-MIN KMSN 300425Z 17012KT 3SM -DZ BR OVC005 07/07 A2958 1180 96 600 170/12 RMK AO2 P0001
14837KMSN MSN20101129223010811/29/10 22:30:31  5-MIN KMSN 300430Z 17012KT 3SM -DZ BR OVC005 07/07 A2959 1170 96 600 170/12 RMK AO2 P0001
14837KMSN MSN20101129223510811/29/10 22:35:31  5-MIN KMSN 300435Z 17011KT 3SM -DZ BR OVC005 08/07 A2958 1180 93 600 170/11 RMK AO2 P0002
14837KMSN MSN20101129224010811/29/10 22:40:31  5-MIN KMSN 300440Z 18009KT 3SM -DZ BR OVC005 08/07 A2958 1180 93 600 170/09 RMK AO2 P0003
14837KMSN MSN20101129224511911/29/10 22:45:31  5-MIN KMSN 300445Z 17011KT 3SM -RA BR OVC005 08/07 A2958 1180 93 600 170/11 RMK AO2 DZE45RAB45 P0003
14837KMSN MSN20101129225013611/29/10 22:50:31  5-MIN KMSN 300450Z 18010KT 3SM -RA BR OVC005 08/07 A2958 1180 93 600 180/10 RMK AO2 DZE45RAB45 SLP021 P0003 T00780067
14837KMSN MSN20101129225510811/29/10 22:55:31  5-MIN KMSN 300455Z 18010KT 3SM -RA BR OVC005 08/07 A2958 1180 96 600 180/10 RMK AO2 P0001
14837KMSN MSN20101129230010711/29/10 23:00:31  5-MIN KMSN 300500Z 18009KT 3SM RA BR OVC005 08/07 A2958 1180 96 600 180/09 RMK AO2 P0002
14837KMSN MSN20101129230511411/29/10 23:05:31  5-MIN KMSN 300505Z 17009KT 3SM RA BR BKN005 OVC009 08/07 A2958 1180 96 600 170/09 RMK AO2 P0003
14837KMSN MSN20101129231011411/29/10 23:10:31  5-MIN KMSN 300510Z 17010KT 3SM RA BR BKN005 OVC009 08/07 A2958 1180 96 600 170/10 RMK AO2 P0003
14837KMSN MSN20101129231512011/29/10 23:15:31  5-MIN KMSN 300515Z 17010KT 3SM -RA BR OVC007 08/07 A2957 1190 96 600 170/10 RMK AO2 CIG 003V011 P0003
14837KMSN MSN20101129232012011/29/10 23:20:31  5-MIN KMSN 300520Z 17010KT 3SM -RA BR OVC005 08/07 A2957 1190 96 600 170/10 RMK AO2 CIG 003V009 P0003
14837KMSN MSN20101129232512711/29/10 23:25:31  5-MIN KMSN 300525Z 17009KT 3SM -RA BR BKN005 OVC010 08/07 A2957 1190 96 600 170/09 RMK AO2 CIG 003V008 P0003
14837KMSN MSN20101129233013811/29/10 23:30:31  5-MIN KMSN 300530Z 18008KT 4SM -DZ BR BKN006 OVC010 08/07 A2956 1200 96 700 180/08 RMK AO2 RAE28DZB28 CIG 004V008 P0003
14837KMSN MSN20101129233513111/29/10 23:35:31  5-MIN KMSN 300535Z 17009KT 5SM -DZ BR OVC006 08/07 A2956 1200 96 700 170/09 RMK AO2 RAE28DZB28 CIG 004V008 P0003
14837KMSN MSN20101129234013111/29/10 23:40:31  5-MIN KMSN 300540Z 17010KT 5SM -DZ BR OVC006 08/07 A2956 1200 96 700 170/10 RMK AO2 RAE28DZB28 CIG 004V008 P0003
14837KMSN MSN20101129234513811/29/10 23:45:31  5-MIN KMSN 300545Z 17010KT 6SM -DZ BR OVC006 08/07 A2955 1210 96 700 170/10 RMK AO2 RAE28DZB28 CIG 004V008 PRESFR P0003
14837KMSN MSN20101129235018811/29/10 23:50:31  5-MIN KMSN 300550Z 18008KT 5SM BR OVC006 08/07 A2954 1220 96 700 180/08 RMK AO2 RAE28DZB28E50 CIG 004V010 PRESFR SLP007 P0003 60010 T00780072 10078 20061 400890017 56024
14837KMSN MSN20101129235509511/29/10 23:55:31  5-MIN KMSN 300555Z 18010KT 8SM OVC006 08/07 A2954 1220 96 700 180/10 RMK AO2
14837KMSN MSN20101130000009511/30/10 00:00:32  5-MIN KMSN 300600Z 18010KT 9SM OVC006 08/07 A2954 1220 96 700 180/10 RMK AO2
14837KMSN MSN20101130000509511/30/10 00:05:31  5-MIN KMSN 300605Z 18009KT 8SM OVC006 08/07 A2953 1220 96 700 180/09 RMK AO2
14837KMSN MSN20101130001009511/30/10 00:10:31  5-MIN KMSN 300610Z 19006KT 8SM OVC006 08/07 A2953 1230 96 700 190/06 RMK AO2
14837KMSN MSN20101130001509511/30/10 00:15:31  5-MIN KMSN 300615Z 19007KT 8SM OVC006 08/07 A2953 1220 96 700 180/07 RMK AO2
14837KMSN MSN20101130002009511/30/10 00:20:31  5-MIN KMSN 300620Z 19008KT 8SM OVC006 08/07 A2954 1220 96 700 190/08 RMK AO2
14837KMSN MSN20101130002509511/30/10 00:25:31  5-MIN KMSN 300625Z 18008KT 9SM OVC006 08/07 A2954 1220 96 700 180/08 RMK AO2
14837KMSN MSN20101130003009511/30/10 00:30:31  5-MIN KMSN 300630Z 19006KT 9SM OVC006 08/07 A2953 1220 96 700 190/06 RMK AO2
14837KMSN MSN20101130003510711/30/10 00:35:31  5-MIN KMSN 300635Z 18004KT 8SM OVC006 08/07 A2953 1230 96 700 180/04 RMK AO2 CIG 004V010
14837KMSN MSN20101130004010711/30/10 00:40:31  5-MIN KMSN 300640Z 18007KT 8SM OVC006 08/07 A2953 1220 96 700 180/07 RMK AO2 CIG 005V010
14837KMSN MSN20101130004509511/30/10 00:45:31  5-MIN KMSN 300645Z 18007KT 9SM OVC006 08/07 A2954 1220 93 700 180/07 RMK AO2
14837KMSN MSN20101130005011211/30/10 00:50:31  5-MIN KMSN 300650Z 18008KT 9SM OVC006 08/07 A2953 1220 93 700 180/08 RMK AO2 SLP005 T00780067
14837KMSN MSN20101130005509511/30/10 00:55:31  5-MIN KMSN 300655Z 19009KT 9SM OVC006 08/07 A2953 1230 93 700 190/09 RMK AO2
14837KMSN MSN20101130010009511/30/10 01:00:31  5-MIN KMSN 300700Z 19009KT 9SM OVC006 08/07 A2952 1230 96 700 190/09 RMK AO2
14837KMSN MSN20101130010509511/30/10 01:05:31  5-MIN KMSN 300705Z 19009KT 9SM OVC006 08/07 A2952 1230 93 800 190/09 RMK AO2
14837KMSN MSN20101130011009511/30/10 01:10:31  5-MIN KMSN 300710Z 19008KT 8SM OVC006 08/07 A2952 1230 96 700 190/08 RMK AO2
14837KMSN MSN20101130011509511/30/10 01:15:31  5-MIN KMSN 300715Z 19007KT 7SM OVC006 08/07 A2952 1230 96 700 190/07 RMK AO2
14837KMSN MSN20101130012009811/30/10 01:20:31  5-MIN KMSN 300720Z 20006KT 5SM BR OVC006 08/07 A2952 1240 96 700 190/06 RMK AO2
14837KMSN MSN20101130012509811/30/10 01:25:31  5-MIN KMSN 300725Z 19007KT 4SM BR OVC006 08/07 A2952 1240 96 700 190/07 RMK AO2
14837KMSN MSN20101130013009811/30/10 01:30:31  5-MIN KMSN 300730Z 19006KT 3SM BR OVC006 08/07 A2952 1240 96 700 190/06 RMK AO2
14837KMSN MSN20101130013509811/30/10 01:35:31  5-MIN KMSN 300735Z 19006KT 3SM BR OVC006 08/07 A2951 1240 96 700 180/06 RMK AO2
14837KMSN MSN20101130014009811/30/10 01:40:31  5-MIN KMSN 300740Z 19005KT 3SM BR OVC006 08/07 A2951 1250 96 700 190/05 RMK AO2
14837KMSN MSN20101130014509811/30/10 01:45:31  5-MIN KMSN 300745Z 20005KT 3SM BR OVC006 08/07 A2951 1250 96 700 200/05 RMK AO2
14837KMSN MSN20101130015012711/30/10 01:50:31  5-MIN KMSN 300750Z 19004KT 4SM BR OVC006 08/07 A2951 1250 96 700 190/04 RMK AO2 CIG 004V008 SLP996 T00780072
14837KMSN MSN20101130015509811/30/10 01:55:31  5-MIN KMSN 300755Z 20007KT 4SM BR OVC006 08/07 A2951 1240 96 700 200/07 RMK AO2
14837KMSN MSN20101130020009811/30/10 02:00:31  5-MIN KMSN 300800Z 20006KT 5SM BR OVC006 08/07 A2951 1240 96 700 200/06 RMK AO2
14837KMSN MSN20101130020511011/30/10 02:05:31  5-MIN KMSN 300805Z 20006KT 6SM BR OVC006 08/07 A2951 1240 96 700 200/06 RMK AO2 CIG 004V009
14837KMSN MSN20101130021010711/30/10 02:10:31  5-MIN KMSN 300810Z 19007KT 7SM OVC006 08/07 A2951 1250 96 700 190/07 RMK AO2 CIG 004V010
14837KMSN MSN20101130021510711/30/10 02:15:31  5-MIN KMSN 300815Z 19008KT 7SM OVC006 08/07 A2951 1250 93 800 190/08 RMK AO2 CIG 004V010
14837KMSN MSN20101130022011011/30/10 02:20:31  5-MIN KMSN 300820Z 19006KT 6SM BR OVC006 08/07 A2951 1250 96 700 190/06 RMK AO2 CIG 005V010
14837KMSN MSN20101130022511011/30/10 02:25:31  5-MIN KMSN 300825Z 19007KT 6SM BR OVC006 08/07 A2951 1250 96 700 190/07 RMK AO2 CIG 005V010
14837KMSN MSN20101130023011011/30/10 02:30:31  5-MIN KMSN 300830Z 19008KT 6SM BR OVC006 08/07 A2951 1250 96 700 190/08 RMK AO2 CIG 005V010
14837KMSN MSN20101130023511011/30/10 02:35:31  5-MIN KMSN 300835Z 19006KT 6SM BR OVC006 08/07 A2951 1250 96 700 190/06 RMK AO2 CIG 004V008
14837KMSN MSN20101130024009811/30/10 02:40:31  5-MIN KMSN 300840Z 18006KT 6SM BR OVC006 08/07 A2950 1250 96 700 180/06 RMK AO2
14837KMSN MSN20101130024509811/30/10 02:45:31  5-MIN KMSN 300845Z 19006KT 5SM BR OVC006 08/07 A2950 1250 96 700 190/06 RMK AO2
14837KMSN MSN20101130025012111/30/10 02:50:31  5-MIN KMSN 300850Z 20006KT 5SM BR OVC006 08/07 A2950 1260 96 700 200/06 RMK AO2 SLP993 T00780072 58026
14837KMSN MSN20101130025509811/30/10 02:55:31  5-MIN KMSN 300855Z 20005KT 5SM BR OVC006 08/07 A2950 1260 96 700 200/05 RMK AO2
14837KMSN MSN20101130030009811/30/10 03:00:31  5-MIN KMSN 300900Z 20005KT 4SM BR OVC006 08/07 A2950 1260 96 700 200/05 RMK AO2
14837KMSN MSN20101130030511011/30/10 03:05:31  5-MIN KMSN 300905Z 19006KT 4SM BR OVC006 08/07 A2950 1260 96 700 190/06 RMK AO2 CIG 004V010
14837KMSN MSN20101130031011011/30/10 03:10:31  5-MIN KMSN 300910Z 19006KT 4SM BR OVC006 08/07 A2950 1260 96 700 180/06 RMK AO2 CIG 004V008
14837KMSN MSN20101130031511011/30/10 03:15:31  5-MIN KMSN 300915Z 18007KT 5SM BR OVC006 08/07 A2950 1260 96 700 180/07 RMK AO2 CIG 004V010
14837KMSN MSN20101130032011011/30/10 03:20:31  5-MIN KMSN 300920Z 18006KT 5SM BR OVC006 08/07 A2949 1260 96 700 180/06 RMK AO2 CIG 004V010
14837KMSN MSN20101130032511711/30/10 03:25:31  5-MIN KMSN 300925Z 19006KT 5SM BR BKN006 OVC022 08/07 A2949 1260 96 700 180/06 RMK AO2 CIG 004V010
14837KMSN MSN20101130033012411/30/10 03:30:31  5-MIN KMSN 300930Z 19006KT 4SM BR BKN006 BKN015 OVC022 08/07 A2949 1270 96 700 190/06 RMK AO2 CIG 005V010
14837KMSN MSN20101130033511711/30/10 03:35:31  5-MIN KMSN 300935Z 19006KT 4SM BR BKN006 OVC020 08/07 A2949 1270 96 700 190/06 RMK AO2 CIG 005V010
14837KMSN MSN20101130034011711/30/10 03:40:31  5-MIN KMSN 300940Z 17005KT 4SM BR BKN008 OVC020 08/07 A2948 1270 93 800 170/05 RMK AO2 CIG 005V013
14837KMSN MSN20101130034510511/30/10 03:45:31  5-MIN KMSN 300945Z 17008KT 5SM BR SCT008 OVC022 08/07 A2948 1280 93 800 170/08 RMK AO2
14837KMSN MSN20101130035011211/30/10 03:50:31  5-MIN KMSN 300950Z 18008KT 5SM BR SCT008 BKN020 OVC026 07/07 A2948 1280 96 700 180/08 RMK AO2
14837KMSN MSN20101130035512411/30/10 03:55:31  5-MIN KMSN 300955Z 19005KT 5SM BR SCT005 BKN009 OVC026 08/07 A2948 1280 93 800 190/05 RMK AO2 CIG 009V013
14837KMSN MSN20101130040011211/30/10 04:00:31  5-MIN KMSN 301000Z 18006KT 5SM BR BKN005 BKN009 OVC023 08/07 A2948 1270 93 700 180/06 RMK AO2
14837KMSN MSN20101130040513311/30/10 04:05:31  5-MIN KMSN 301005Z 19005KT 4SM -RA BR BKN007 OVC025 08/07 A2948 1270 93 700 190/05 RMK AO2 RAB02 CIG 005V010 P0000
14837KMSN MSN20101130041014011/30/10 04:10:31  5-MIN KMSN 301010Z 19006KT 4SM -RA BR BKN007 BKN011 OVC027 08/07 A2948 1270 93 700 190/06 RMK AO2 RAB02 CIG 005V009 P0000
14837KMSN MSN20101130041513311/30/10 04:15:31  5-MIN KMSN 301015Z 19007KT 4SM -RA BR BKN007 OVC011 08/07 A2949 1270 93 700 190/07 RMK AO2 RAB02 CIG 005V009 P0000
14837KMSN MSN20101130042012611/30/10 04:20:31  5-MIN KMSN 301020Z 19007KT 4SM -RA BR OVC007 08/07 A2949 1270 93 700 190/07 RMK AO2 RAB02 CIG 005V011 P0000
14837KMSN MSN20101130042512511/30/10 04:25:31  5-MIN KMSN 301025Z 20007KT 6SM BR OVC007 08/07 A2949 1260 93 700 200/07 RMK AO2 RAB02E24 CIG 005V011 P0000
14837KMSN MSN20101130043012511/30/10 04:30:31  5-MIN KMSN 301030Z 22006KT 6SM BR OVC007 08/07 A2949 1260 93 700 220/06 RMK AO2 RAB02E24 CIG 005V011 P0000
14837KMSN MSN20101130043512511/30/10 04:35:31  5-MIN KMSN 301035Z 22005KT 6SM BR OVC009 08/07 A2949 1270 93 700 210/05 RMK AO2 RAB02E24 CIG 005V013 P0000
14837KMSN MSN20101130044013311/30/10 04:40:31  5-MIN KMSN 301040Z 22005KT 5SM -RA BR BKN009 OVC038 08/07 A2949 1260 93 700 220/05 RMK AO2 RAB02 CIG 005V013 P0000
14837KMSN MSN20101130044514011/30/10 04:45:31  5-MIN KMSN 301045Z VRB04KT 5SM -RA BR BKN009 BKN029 OVC042 08/07 A2950 1260 93 700 VRB/04 RMK AO2 RAB02 CIG 006V013 P0000
14837KMSN MSN20101130045015711/30/10 04:50:31  5-MIN KMSN 301050Z 21005KT 5SM -RA BR BKN009 BKN030 OVC046 08/07 A2950 1260 93 700 210/05 RMK AO2 RAB02 CIG 006V013 SLP993 P0000 T00780067
14837KMSN MSN20101130045512211/30/10 04:55:31  5-MIN KMSN 301055Z 21004KT 5SM -RA BR SCT007 BKN012 OVC042 08/07 A2950 1260 93 700 200/04 RMK AO2 P0001
14837KMSN MSN20101130050013411/30/10 05:00:31  5-MIN KMSN 301100Z 20005KT 4SM -RA BR BKN010 BKN017 OVC042 08/07 A2950 1260 93 700 200/05 RMK AO2 CIG 007V013 P0001
14837KMSN MSN20101130050513411/30/10 05:05:31  5-MIN KMSN 301105Z 21006KT 4SM -RA BR BKN010 BKN017 OVC042 08/07 A2950 1260 93 700 200/06 RMK AO2 CIG 007V013 P0001
14837KMSN MSN20101130051014011/30/10 05:10:31  5-MIN KMSN 301110Z 22013G22KT 3SM -RA BR BKN010 BKN017 OVC029 07/06 A2950 1250 93 700 220/13G22 RMK AO2 CIG 007V012 P0003
14837KMSN MSN20101130051513311/30/10 05:15:31  5-MIN KMSN 301115Z 23012G22KT 4SM -RA BR BKN010 OVC015 07/05 A2950 1250 89 600 220/12G22 RMK AO2 CIG 007V014 P0003
14837KMSN MSN20101130052013211/30/10 05:20:31  5-MIN KMSN 301120Z 22009G20KT 8SM BKN010 OVC015 06/04 A2950 1250 92 500 220/09G20 RMK AO2 RAE20 CIG 007V013 P0003
14837KMSN MSN20101130052513211/30/10 05:25:31  5-MIN KMSN 301125Z 23006G18KT 8SM BKN010 OVC015 06/04 A2950 1250 89 500 230/06G18 RMK AO2 RAE20 CIG 006V011 P0003
14837KMSN MSN20101130053012611/30/10 05:30:31  5-MIN KMSN 301130Z 23008KT 7SM BKN008 OVC015 05/04 A2950 1260 92 400 230/08 RMK AO2 RAE20 CIG 006V011 P0003
14837KMSN MSN20101130053512711/30/10 05:35:31  5-MIN KMSN 301135Z 24009G17KT 7SM SCT006 BKN010 OVC055 04/03 A2949 1260 92 300 240/09G17 RMK AO2 RAE20 P0003
14837KMSN MSN20101130054013911/30/10 05:40:31  5-MIN KMSN 301140Z 24007G17KT 7SM BKN006 BKN010 OVC055 04/03 A2949 1260 92 300 240/07G17 RMK AO2 RAE20 CIG 005V009 P0003
14837KMSN MSN20101130054514611/30/10 05:45:31  5-MIN KMSN 301145Z 25008G14KT 230V290 6SM BR BKN006 BKN010 OVC055 04/03 A2949 1270 92 300 250/08G14 230V290 RMK AO2 RAE20 P0003
14837KMSN MSN20101130055017011/30/10 05:50:31  5-MIN KMSN 301150Z VRB05G14KT 6SM BR BKN006 OVC055 04/03 A2949 1270 96 300 VRB/05G14 RMK AO2 RAE20 SLP990 P0003 60003 70016 T00390033 10083 20039 56014
14837KMSN MSN20101130055511111/30/10 05:55:31  5-MIN KMSN 301155Z 23009G19KT 5SM BR BKN006 OVC055 04/03 A2948 1270 92 300 230/09G19 RMK AO2
14837KMSN MSN20101130060011611/30/10 06:00:31  5-MIN KMSN 301200Z 23007G19KT 5SM BR OVC004 03/03 A2949 1270 96 200 230/07G19 RMK AO2 CIG 003V007
14837KMSN MSN20101130060511611/30/10 06:05:31  5-MIN KMSN 301205Z 22011G16KT 4SM BR OVC004 03/02 A2949 1270 92 200 220/11G16 RMK AO2 CIG 003V007
14837KMSN MSN20101130061010411/30/10 06:10:31  5-MIN KMSN 301210Z 22009G16KT 4SM BR OVC004 03/02 A2949 1260 96 100 220/09G16 RMK AO2
14837KMSN MSN20101130061510411/30/10 06:15:31  5-MIN KMSN 301215Z 21008G15KT 4SM BR OVC004 03/02 A2950 1260 96 100 210/08G15 RMK AO2
14837KMSN MSN20101130062010411/30/10 06:20:31  5-MIN KMSN 301220Z 21010G16KT 4SM BR OVC004 03/02 A2950 1260 96 100 210/10G16 RMK AO2
14837KMSN MSN20101130062512011/30/10 06:25:31  5-MIN KMSN 301225Z 23008G16KT 190V260 4SM BR OVC004 03/02 A2949 1260 92 100 230/08G16 190V260 RMK AO2
14837KMSN MSN20101130063010411/30/10 06:30:31  5-MIN KMSN 301230Z 22010G17KT 4SM BR OVC004 03/02 A2950 1260 92 100 220/10G17 RMK AO2
14837KMSN MSN20101130063510211/30/10 06:35:31  5-MIN KMSN 301235Z 23010G17KT 4SM BR OVC004 02/02 A2951 1250 96 0 230/10G17 RMK AO2
14837KMSN MSN20101130064010211/30/10 06:40:31  5-MIN KMSN 301240Z 24009G16KT 5SM BR OVC004 02/02 A2951 1240 96 0 240/09G16 RMK AO2
14837KMSN MSN20101130064512111/30/10 06:45:31  5-MIN KMSN 301245Z 24008G18KT 6SM BR BKN004 OVC008 02/01 A2951 1250 96 0 240/08G18 RMK AO2 CIG 003V007
14837KMSN MSN20101130065011411/30/10 06:50:31  5-MIN KMSN 301250Z 23012G19KT 6SM BR OVC006 02/01 A2951 1240 92 0 230/12G19 RMK AO2 CIG 003V010
14837KMSN MSN20101130065511411/30/10 06:55:31  5-MIN KMSN 301255Z 24010G19KT 6SM BR OVC006 02/01 A2951 1240 92 0 240/10G19 RMK AO2 CIG 003V010
14837KMSN MSN20101130070013011/30/10 07:00:31  5-MIN KMSN 301300Z 24007G19KT 220V280 6SM BR OVC006 02/01 A2951 1250 92 0 240/07G19 220V280 RMK AO2 CIG 004V010
14837KMSN MSN20101130070513311/30/10 07:05:31  5-MIN KMSN 301305Z 23011G20KT 200V260 5SM BR OVC006 01/01 A2951 1250 96 -100 230/11G20 200V260 RMK AO2 CIG 004V010
14837KMSN MSN20101130071011711/30/10 07:10:31  5-MIN KMSN 301310Z 22011G20KT 5SM BR OVC006 01/00 A2952 1240 92 -100 220/11G20 RMK AO2 CIG 004V010
14837KMSN MSN20101130071511811/30/10 07:15:31  5-MIN KMSN 301315Z 23014G21KT 5SM BR OVC004 01/M01 A2952 1240 92 -100 230/14G21 RMK AO2 CIG 004V007
14837KMSN MSN20101130072010611/30/10 07:20:31  5-MIN KMSN 301320Z 23009G21KT 5SM BR OVC004 01/M01 A2952 1240 92 -100 230/09G21 RMK AO2
14837KMSN MSN20101130072510611/30/10 07:25:31  5-MIN KMSN 301325Z 22009G21KT 5SM BR OVC004 01/M01 A2953 1230 92 -100 220/09G21 RMK AO2
14837KMSN MSN20101130073010511/30/10 07:30:31  5-MIN KMSN 301330Z 22006G21KT 5SM BR OVC004 01/00 A2954 1220 96 -200 220/06G21 RMK AO2
14837KMSN MSN20101130073509911/30/10 07:35:31  5-MIN KMSN 301335Z VRB03KT 5SM BR OVC004 01/00 A2954 1220 96 -200 VRB/03 RMK AO2
14837KMSN MSN20101130074011211/30/10 07:40:31  5-MIN KMSN 301340Z 21010G14KT 5SM BR OVC004 01/00 A2955 1210 96 -200 200/10G14 RMK AO2 PRESRR
14837KMSN MSN20101130074510611/30/10 07:45:31  5-MIN KMSN 301345Z 23009G15KT 4SM BR OVC004 01/M01 A2955 1210 92 -200 230/09G15 RMK AO2
14837KMSN MSN20101130075012311/30/10 07:50:31  5-MIN KMSN 301350Z 21010G17KT 4SM BR OVC004 01/M01 A2955 1210 92 -200 210/10G17 RMK AO2 SLP014 T00061006
14837KMSN MSN20101130075510611/30/10 07:55:31  5-MIN KMSN 301355Z 22009G17KT 4SM BR OVC004 00/M01 A2955 1210 96 -200 220/09G17 RMK AO2
14837KMSN MSN20101130080010611/30/10 08:00:31  5-MIN KMSN 301400Z VRB05G17KT 4SM BR OVC004 01/M01 A2955 1210 92 -200 VRB/05G17 RMK AO2
14837KMSN MSN20101130080514211/30/10 08:05:31  5-MIN KMSN 301405Z 22007KT 190V250 2SM BR OVC004 00/M01 A2956 1200 96 -200 220/07 190V250 RMK AO2 SFC VIS 2 1/2 VIS 1 3/4V4
14837KMSN MSN20101130081012011/30/10 08:10:31  5-MIN KMSN 301410Z 23010G19KT 1SM BR OVC004 00/M01 A2956 1200 92 -300 230/10G19 RMK AO2 SFC VIS 1 3/4
14837KMSN MSN20101130081512011/30/10 08:15:31  5-MIN KMSN 301415Z 23010G19KT 1SM BR OVC004 00/M01 A2957 1190 92 -300 230/10G19 RMK AO2 SFC VIS 1 1/2
14837KMSN MSN20101130082012011/30/10 08:20:31  5-MIN KMSN 301420Z 23010G22KT 1SM BR OVC004 00/M01 A2956 1200 92 -300 230/10G22 RMK AO2 SFC VIS 1 3/4
14837KMSN MSN20101130082512111/30/10 08:25:31  5-MIN KMSN 301425Z 22009G22KT 1 1/2SM BR OVC004 M01/M01 A2956 1200 96 -300 220/09G22 RMK AO2 SFC VIS 2
14837KMSN MSN20101130083010711/30/10 08:30:31  5-MIN KMSN 301430Z 22011G18KT 2SM BR OVC004 M01/M01 A2956 1200 96 -300 220/11G18 RMK AO2
14837KMSN MSN20101130083510711/30/10 08:35:31  5-MIN KMSN 301435Z 22009G19KT 2SM BR OVC004 M01/M01 A2957 1190 96 -300 220/09G19 RMK AO2
14837KMSN MSN20101130084013511/30/10 08:40:31  5-MIN KMSN 301440Z 22011G22KT 180V240 2SM BR OVC004 M01/M01 A2956 1200 96 -300 220/11G22 180V240 RMK AO2 CIG 003V007
14837KMSN MSN20101130084513311/30/10 08:45:31  5-MIN KMSN 301445Z 22010G22KT 2SM BR OVC004 M01/M02 A2957 1190 92 -300 220/10G22 RMK AO2 SFC VIS 2 1/2 CIG 003V007
14837KMSN MSN20101130085014011/30/10 08:50:31  5-MIN KMSN 301450Z 22011G18KT 2SM BR OVC004 M01/M01 A2957 1190 96 -300 220/11G18 RMK AO2 SFC VIS 3 SLP020 T10061011 50002
14837KMSN MSN20101130085511711/30/10 08:55:31  5-MIN KMSN 301455Z 24013G21KT 2SM BR OVC004 M01/M01 A2957 1190 96 -300 240/13G21 RMK AO2 SFC VIS 3
14837KMSN MSN20101130090011711/30/10 09:00:31  5-MIN KMSN 301500Z 22013G21KT 2SM BR OVC004 M01/M02 A2956 1200 92 -300 220/13G21 RMK AO2 SFC VIS 3
14837KMSN MSN20101130090511711/30/10 09:05:31  5-MIN KMSN 301505Z 23011G19KT 2SM BR OVC004 M01/M02 A2957 1190 92 -300 230/11G19 RMK AO2 SFC VIS 3
14837KMSN MSN20101130091012911/30/10 09:10:31  5-MIN KMSN 301510Z 22014G23KT 2SM BR OVC006 M01/M02 A2957 1190 96 -400 220/14G23 RMK AO2 SFC VIS 3 CIG 004V007
14837KMSN MSN20101130091512911/30/10 09:15:31  5-MIN KMSN 301515Z 23010G25KT 2SM BR OVC006 M01/M02 A2956 1200 92 -400 230/10G25 RMK AO2 SFC VIS 4 CIG 004V008
14837KMSN MSN20101130092011911/30/10 09:20:31  5-MIN KMSN 301520Z 23013G25KT 5SM BR OVC006 M01/M02 A2957 1190 92 -400 230/13G25 RMK AO2 CIG 004V009
14837KMSN MSN20101130092511911/30/10 09:25:31  5-MIN KMSN 301525Z 24011G19KT 5SM BR OVC006 M01/M02 A2956 1200 92 -400 240/11G19 RMK AO2 CIG 005V009
14837KMSN MSN20101130093011911/30/10 09:30:31  5-MIN KMSN 301530Z 25012G21KT 5SM BR OVC006 M01/M02 A2957 1190 92 -400 250/12G21 RMK AO2 CIG 005V009
14837KMSN MSN20101130093512311/30/10 09:35:31  5-MIN KMSN 301535Z 24011G23KT 210V280 4SM BR OVC006 M01/M02 A2958 1180 92 -400 230/11G23 210V280 RMK AO2
14837KMSN MSN20101130094010711/30/10 09:40:31  5-MIN KMSN 301540Z 23009G23KT 4SM BR OVC006 M01/M02 A2958 1180 92 -400 230/09G23 RMK AO2
14837KMSN MSN20101130094510711/30/10 09:45:31  5-MIN KMSN 301545Z 23012G21KT 4SM BR OVC006 M01/M02 A2957 1190 92 -400 230/12G21 RMK AO2
14837KMSN MSN20101130095014011/30/10 09:50:31  5-MIN KMSN 301550Z 23008G21KT 210V280 5SM BR OVC006 M01/M02 A2957 1190 92 -400 230/08G21 210V280 RMK AO2 SLP020 T10111022
14837KMSN MSN20101130095510711/30/10 09:55:31  5-MIN KMSN 301555Z VRB06G20KT 5SM BR OVC006 M01/M02 A2958 1180 92 -400 VRB/06G20 RMK AO2
14837KMSN MSN20101130100010711/30/10 10:00:31  5-MIN KMSN 301600Z 24011G20KT 5SM BR OVC006 M01/M02 A2958 1180 92 -400 240/11G20 RMK AO2
14837KMSN MSN20101130100512311/30/10 10:05:31  5-MIN KMSN 301605Z 24011G19KT 210V280 6SM BR OVC006 M01/M02 A2958 1180 92 -400 240/11G19 210V280 RMK AO2
14837KMSN MSN20101130101012011/30/10 10:10:31  5-MIN KMSN 301610Z 24011G19KT 200V270 7SM OVC008 M01/M02 A2958 1180 92 -400 240/11G19 200V270 RMK AO2
14837KMSN MSN20101130101512011/30/10 10:15:31  5-MIN KMSN 301615Z 24010G17KT 220V290 8SM OVC008 M01/M03 A2957 1190 88 -400 240/10G17 220V290 RMK AO2
14837KMSN MSN20101130102010411/30/10 10:20:31  5-MIN KMSN 301620Z 23010G19KT 8SM OVC008 M01/M03 A2958 1180 88 -400 230/10G19 RMK AO2
14837KMSN MSN20101130102510411/30/10 10:25:31  5-MIN KMSN 301625Z 24011G19KT 7SM OVC008 M01/M03 A2957 1190 88 -400 230/11G19 RMK AO2
14837KMSN MSN20101130103010411/30/10 10:30:31  5-MIN KMSN 301630Z 23010G17KT 7SM OVC008 M01/M03 A2957 1190 88 -400 230/10G17 RMK AO2
14837KMSN MSN20101130103510411/30/10 10:35:31  5-MIN KMSN 301635Z 23011G19KT 7SM OVC008 M01/M03 A2957 1190 88 -400 230/11G19 RMK AO2
14837KMSN MSN20101130104010411/30/10 10:40:31  5-MIN KMSN 301640Z VRB06G19KT 7SM OVC008 M01/M03 A2958 1180 88 -400 VRB/06G19 RMK AO2
14837KMSN MSN20101130104510411/30/10 10:45:31  5-MIN KMSN 301645Z 23010G18KT 8SM OVC008 M01/M03 A2958 1180 88 -400 230/10G18 RMK AO2
14837KMSN MSN20101130105013711/30/10 10:50:31  5-MIN KMSN 301650Z 23009G18KT 200V260 9SM OVC008 M01/M03 A2958 1180 88 -400 230/09G18 200V260 RMK AO2 SLP022 T10111028
14837KMSN MSN20101130105510411/30/10 10:55:31  5-MIN KMSN 301655Z 24009G16KT 9SM OVC008 M01/M03 A2958 1180 88 -400 230/09G16 RMK AO2
14837KMSN MSN20101130110010411/30/10 11:00:31  5-MIN KMSN 301700Z 24010G19KT 9SM OVC008 M01/M03 A2957 1190 88 -400 240/10G19 RMK AO2
14837KMSN MSN20101130110510511/30/10 11:05:31  5-MIN KMSN 301705Z 23008G19KT 10SM OVC008 M01/M03 A2957 1190 88 -400 230/08G19 RMK AO2
14837KMSN MSN20101130111012011/30/10 11:10:31  5-MIN KMSN 301710Z 23010G15KT 200V280 8SM OVC008 M01/M03 A2957 1190 88 -400 230/10G15 200V280 RMK AO2
14837KMSN MSN20101130111512311/30/10 11:15:31  5-MIN KMSN 301715Z 23011G17KT 6SM -SN BR OVC008 M01/M03 A2957 1190 88 -400 230/11G17 RMK AO2 SNB12 P0000
14837KMSN MSN20101130112012311/30/10 11:20:31  5-MIN KMSN 301720Z 24006G18KT 4SM -SN BR OVC008 M02/M03 A2957 1190 92 -500 230/06G18 RMK AO2 SNB12 P0000
14837KMSN MSN20101130112512311/30/10 11:25:31  5-MIN KMSN 301725Z 24007G18KT 4SM -SN BR OVC006 M02/M03 A2957 1190 92 -500 240/07G18 RMK AO2 SNB12 P0000
14837KMSN MSN20101130113013311/30/10 11:30:31  5-MIN KMSN 301730Z 24007KT 180V280 5SM -SN BR OVC006 M02/M03 A2957 1190 92 -500 240/07 180V280 RMK AO2 SNB12 P0000
14837KMSN MSN20101130113513811/30/10 11:35:31  5-MIN KMSN 301735Z 22010G17KT 180V250 6SM BR OVC006 M02/M03 A2958 1180 92 -500 220/10G17 180V250 RMK AO2 SNB12E33 P0000
14837KMSN MSN20101130114011911/30/10 11:40:31  5-MIN KMSN 301740Z 24011G21KT 7SM OVC006 M02/M03 A2958 1180 92 -500 240/11G21 RMK AO2 SNB12E33 P0000
14837KMSN MSN20101130114513511/30/10 11:45:31  5-MIN KMSN 301745Z 26007G21KT 240V310 7SM OVC006 M02/M03 A2958 1180 92 -500 260/07G21 240V310 RMK AO2 SNB12E33 P0000
14837KMSN MSN20101130115016111/30/10 11:50:31  5-MIN KMSN 301750Z VRB06KT 7SM -SN OVC006 M02/M03 A2959 1170 92 -500 VRB/06 RMK AO2 SNB12E33B49 SLP026 P0000 60000 T10171028 10039 21017 51028
14837KMSN MSN20101130115511111/30/10 11:55:31  5-MIN KMSN 301755Z VRB06KT 6SM -SN BR OVC006 M01/M03 A2959 1170 88 -400 VRB/06 RMK AO2 P0000
14837KMSN MSN20101130120011711/30/10 12:00:31  5-MIN KMSN 301800Z 24007G14KT 6SM -SN BR OVC006 M02/M03 A2959 1170 92 -500 240/07G14 RMK AO2 P0000
14837KMSN MSN20101130120513011/30/10 12:05:31  5-MIN KMSN 301805Z 22008G14KT 180V240 7SM -SN OVC006 M02/M03 A2959 1170 92 -500 220/08G14 180V240 RMK AO2 P0000
14837KMSN MSN20101130121011411/30/10 12:10:31  5-MIN KMSN 301810Z 23010G18KT 8SM -SN OVC006 M02/M03 A2959 1170 88 -500 230/10G18 RMK AO2 P0000
14837KMSN MSN20101130121511411/30/10 12:15:31  5-MIN KMSN 301815Z 24011G19KT 7SM -SN OVC006 M02/M03 A2959 1170 92 -500 240/11G19 RMK AO2 P0000
14837KMSN MSN20101130122012911/30/10 12:20:31  5-MIN KMSN 301820Z 25009G19KT 6SM -SN BR OVC008 M02/M03 A2959 1170 88 -500 250/09G19 RMK AO2 CIG 006V010 P0000
14837KMSN MSN20101130122512911/30/10 12:25:31  5-MIN KMSN 301825Z 23009G18KT 6SM -SN BR OVC008 M02/M03 A2959 1170 88 -500 230/09G18 RMK AO2 CIG 006V010 P0000
14837KMSN MSN20101130123011711/30/10 12:30:31  5-MIN KMSN 301830Z 23010G17KT 6SM -SN BR OVC008 M02/M03 A2960 1170 88 -500 230/10G17 RMK AO2 P0000
14837KMSN MSN20101130123513511/30/10 12:35:31  5-MIN KMSN 301835Z 24009G19KT 200V270 6SM BR OVC008 M02/M04 A2960 1160 85 -500 240/09G19 200V270 RMK AO2 SNE33 P0000
14837KMSN MSN20101130124011411/30/10 12:40:31  5-MIN KMSN 301840Z 24009G21KT 7SM -SN OVC008 M02/M03 A2960 1160 88 -500 240/09G21 RMK AO2 P0000
14837KMSN MSN20101130124511411/30/10 12:45:31  5-MIN KMSN 301845Z 23011G21KT 7SM -SN OVC008 M02/M03 A2960 1160 88 -500 230/11G21 RMK AO2 P0000
14837KMSN MSN20101130125013111/30/10 12:50:31  5-MIN KMSN 301850Z 24013G20KT 7SM -SN OVC008 M02/M04 A2960 1160 85 -500 240/13G20 RMK AO2 SLP030 P0000 T10171039
14837KMSN MSN20101130125511411/30/10 12:55:31  5-MIN KMSN 301855Z 24009G20KT 8SM -SN OVC010 M02/M04 A2960 1160 85 -500 240/09G20 RMK AO2 P0000
14837KMSN MSN20101130130011411/30/10 13:00:31  5-MIN KMSN 301900Z 24009G15KT 8SM -SN OVC010 M02/M03 A2960 1160 88 -500 240/09G15 RMK AO2 P0000
14837KMSN MSN20101130130511411/30/10 13:05:31  5-MIN KMSN 301905Z VRB06G14KT 8SM -SN OVC010 M02/M03 A2960 1160 88 -500 VRB/06G14 RMK AO2 P0000
14837KMSN MSN20101130131011411/30/10 13:10:31  5-MIN KMSN 301910Z 24009G19KT 9SM -SN OVC010 M02/M04 A2960 1160 85 -500 240/09G19 RMK AO2 P0000
14837KMSN MSN20101130131511411/30/10 13:15:31  5-MIN KMSN 301915Z 25010G19KT 9SM -SN OVC010 M02/M04 A2960 1160 85 -500 250/10G19 RMK AO2 P0000
14837KMSN MSN20101130132011411/30/10 13:20:31  5-MIN KMSN 301920Z 26008G16KT 9SM -SN OVC012 M02/M04 A2960 1160 85 -500 260/08G16 RMK AO2 P0000
14837KMSN MSN20101130132512411/30/10 13:25:31  5-MIN KMSN 301925Z 26007KT 210V300 9SM -SN OVC012 M02/M04 A2960 1160 85 -500 260/07 210V300 RMK AO2 P0000
14837KMSN MSN20101130133011411/30/10 13:30:31  5-MIN KMSN 301930Z 24011G17KT 9SM -SN OVC012 M02/M04 A2960 1160 81 -500 240/11G17 RMK AO2 P0000
14837KMSN MSN20101130133511411/30/10 13:35:31  5-MIN KMSN 301935Z 25008G17KT 9SM -SN OVC012 M02/M04 A2960 1160 81 -500 250/08G17 RMK AO2 P0000
14837KMSN MSN20101130134013011/30/10 13:40:31  5-MIN KMSN 301940Z 24007G18KT 210V270 9SM -SN OVC012 M02/M04 A2960 1160 81 -500 240/07G18 210V270 RMK AO2 P0000
14837KMSN MSN20101130134512111/30/10 13:45:31  5-MIN KMSN 301945Z 25010G18KT 9SM -SN BKN012 OVC019 M02/M04 A2961 1160 81 -500 250/10G18 RMK AO2 P0000
14837KMSN MSN20101130135015411/30/10 13:50:31  5-MIN KMSN 301950Z 26008G16KT 230V290 9SM -SN BKN012 OVC019 M02/M05 A2961 1160 78 -500 260/08G16 230V290 RMK AO2 SLP032 P0000 T10171050
14837KMSN MSN20101130135512111/30/10 13:55:31  5-MIN KMSN 301955Z 25007G17KT 9SM -SN SCT014 OVC019 M02/M05 A2961 1160 78 -500 250/07G17 RMK AO2 P0000
14837KMSN MSN20101130140011411/30/10 14:00:31  5-MIN KMSN 302000Z 24006G17KT 9SM -SN OVC017 M02/M05 A2961 1150 78 -500 240/06G17 RMK AO2 P0000
14837KMSN MSN20101130140513011/30/10 14:05:31  5-MIN KMSN 302005Z 25008G15KT 230V290 9SM -SN OVC017 M02/M05 A2961 1150 78 -500 250/08G15 230V290 RMK AO2 P0000
14837KMSN MSN20101130141011411/30/10 14:10:31  5-MIN KMSN 302010Z 25006G15KT 9SM -SN OVC019 M02/M05 A2961 1150 78 -500 250/06G15 RMK AO2 P0000
14837KMSN MSN20101130141511411/30/10 14:15:31  5-MIN KMSN 302015Z 24008G14KT 9SM -SN OVC019 M02/M05 A2961 1150 78 -500 240/08G14 RMK AO2 P0000
14837KMSN MSN20101130142010811/30/10 14:20:31  5-MIN KMSN 302020Z 25007KT 9SM -SN OVC019 M02/M05 A2961 1150 78 -500 250/07 RMK AO2 P0000
14837KMSN MSN20101130142511411/30/10 14:25:31  5-MIN KMSN 302025Z VRB05G14KT 9SM -SN OVC019 M02/M05 A2962 1150 78 -500 VRB/05G14 RMK AO2 P0000
14837KMSN MSN20101130143011411/30/10 14:30:31  5-MIN KMSN 302030Z 25008G18KT 9SM -SN OVC019 M02/M05 A2962 1150 78 -500 250/08G18 RMK AO2 P0000
14837KMSN MSN20101130143511411/30/10 14:35:31  5-MIN KMSN 302035Z 25009G18KT 9SM -SN OVC017 M02/M05 A2962 1140 78 -500 250/09G18 RMK AO2 P0000
14837KMSN MSN20101130144011411/30/10 14:40:31  5-MIN KMSN 302040Z 25009G16KT 9SM -SN OVC017 M02/M05 A2962 1140 78 -500 250/09G16 RMK AO2 P0000
14837KMSN MSN20101130144513211/30/10 14:45:31  5-MIN KMSN 302045Z 25010G16KT 220V290 9SM OVC017 M02/M05 A2962 1140 78 -500 240/10G16 220V290 RMK AO2 SNE44 P0000
14837KMSN MSN20101130145015911/30/10 14:50:31  5-MIN KMSN 302050Z 25008G16KT 220V300 9SM -SN OVC017 M02/M05 A2962 1140 78 -500 240/08G16 220V300 RMK AO2 SLP039 P0000 60000 T10171050 53006
14837KMSN MSN20101130145511411/30/10 14:55:31  5-MIN KMSN 302055Z 24008G15KT 9SM -SN OVC017 M02/M05 A2963 1140 78 -500 240/08G15 RMK AO2 P0000
14837KMSN MSN20101130150011411/30/10 15:00:31  5-MIN KMSN 302100Z 25007G15KT 9SM -SN OVC017 M02/M05 A2963 1130 78 -500 250/07G15 RMK AO2 P0000
14837KMSN MSN20101130150513011/30/10 15:05:31  5-MIN KMSN 302105Z 25007G14KT 220V310 9SM -SN OVC015 M02/M05 A2964 1130 78 -500 250/07G14 220V310 RMK AO2 P0000
14837KMSN MSN20101130151013011/30/10 15:10:31  5-MIN KMSN 302110Z 24007G19KT 200V270 9SM -SN OVC015 M02/M05 A2964 1130 81 -600 230/07G19 200V270 RMK AO2 P0000
14837KMSN MSN20101130151511411/30/10 15:15:31  5-MIN KMSN 302115Z VRB03G19KT 9SM -SN OVC015 M02/M05 A2964 1120 81 -600 VRB/03G19 RMK AO2 P0000
14837KMSN MSN20101130152012411/30/10 15:20:31  5-MIN KMSN 302120Z 26008KT 230V320 9SM -SN OVC015 M02/M05 A2965 1120 81 -600 260/08 230V320 RMK AO2 P0000
14837KMSN MSN20101130152511411/30/10 15:25:31  5-MIN KMSN 302125Z 26007G14KT 9SM -SN OVC015 M02/M05 A2965 1120 81 -600 260/07G14 RMK AO2 P0000
14837KMSN MSN20101130153013011/30/10 15:30:31  5-MIN KMSN 302130Z 26008G14KT 230V300 9SM -SN OVC015 M02/M05 A2965 1110 81 -600 260/08G14 230V300 RMK AO2 P0000
14837KMSN MSN20101130153512411/30/10 15:35:31  5-MIN KMSN 302135Z 26007KT 220V280 9SM -SN OVC015 M02/M05 A2965 1110 81 -600 260/07 220V280 RMK AO2 P0000
14837KMSN MSN20101130154011411/30/10 15:40:31  5-MIN KMSN 302140Z 25009G15KT 9SM -SN OVC015 M02/M05 A2966 1110 81 -600 250/09G15 RMK AO2 P0000
14837KMSN MSN20101130154511411/30/10 15:45:31  5-MIN KMSN 302145Z 24009G17KT 9SM -SN OVC015 M02/M06 A2966 1110 78 -600 240/09G17 RMK AO2 P0000
14837KMSN MSN20101130155013111/30/10 15:50:31  5-MIN KMSN 302150Z 24010G17KT 9SM -SN OVC015 M02/M06 A2966 1110 78 -600 240/10G17 RMK AO2 SLP050 P0000 T10221056
14837KMSN MSN20101130155511411/30/10 15:55:31  5-MIN KMSN 302155Z 26005G14KT 9SM -SN OVC015 M02/M06 A2966 1110 78 -600 250/05G14 RMK AO2 P0000
14837KMSN MSN20101130160013011/30/10 16:00:31  5-MIN KMSN 302200Z 26009G15KT 220V280 9SM -SN OVC015 M02/M05 A2966 1110 81 -600 250/09G15 220V280 RMK AO2 P0000
14837KMSN MSN20101130160511411/30/10 16:05:31  5-MIN KMSN 302205Z VRB06G15KT 9SM -SN OVC015 M02/M05 A2966 1100 81 -600 VRB/06G15 RMK AO2 P0000
14837KMSN MSN20101130161011411/30/10 16:10:31  5-MIN KMSN 302210Z 26010G15KT 9SM -SN OVC015 M02/M05 A2966 1100 81 -600 260/10G15 RMK AO2 P0000
14837KMSN MSN20101130161511411/30/10 16:15:31  5-MIN KMSN 302215Z VRB05G15KT 9SM -SN OVC015 M02/M06 A2966 1100 78 -600 VRB/05G15 RMK AO2 P0000
14837KMSN MSN20101130162012411/30/10 16:20:31  5-MIN KMSN 302220Z 26007KT 220V290 9SM -SN OVC015 M02/M05 A2967 1100 81 -700 260/07 220V290 RMK AO2 P0000
14837KMSN MSN20101130162510811/30/10 16:25:31  5-MIN KMSN 302225Z VRB05KT 9SM -SN OVC015 M02/M05 A2967 1100 81 -700 VRB/05 RMK AO2 P0000
14837KMSN MSN20101130163010811/30/10 16:30:31  5-MIN KMSN 302230Z VRB05KT 9SM -SN OVC015 M02/M05 A2967 1090 81 -700 VRB/05 RMK AO2 P0000
14837KMSN MSN20101130163512411/30/10 16:35:31  5-MIN KMSN 302235Z 25007KT 200V280 9SM -SN OVC015 M02/M05 A2967 1090 81 -700 250/07 200V280 RMK AO2 P0000
14837KMSN MSN20101130164012411/30/10 16:40:31  5-MIN KMSN 302240Z 27007KT 220V320 9SM -SN OVC015 M02/M06 A2967 1090 78 -700 270/07 220V320 RMK AO2 P0000
14837KMSN MSN20101130164510811/30/10 16:45:31  5-MIN KMSN 302245Z 26008KT 9SM -SN OVC015 M02/M06 A2967 1090 78 -700 260/08 RMK AO2 P0000
14837KMSN MSN20101130165014111/30/10 16:50:31  5-MIN KMSN 302250Z 25007KT 200V290 9SM -SN OVC015 M02/M06 A2968 1090 78 -700 250/07 200V290 RMK AO2 SLP056 P0000 T10221056
14837KMSN MSN20101130165511411/30/10 16:55:31  5-MIN KMSN 302255Z VRB05G16KT 9SM -SN OVC015 M03/M06 A2968 1090 81 -700 VRB/05G16 RMK AO2 P0000
14837KMSN MSN20101130170013011/30/10 17:00:31  5-MIN KMSN 302300Z 27007G14KT 230V300 9SM -SN OVC015 M03/M06 A2967 1090 81 -700 270/07G14 230V300 RMK AO2 P0000
14837KMSN MSN20101130170510811/30/10 17:05:31  5-MIN KMSN 302305Z 28006KT 9SM -SN OVC013 M03/M06 A2968 1090 81 -700 280/06 RMK AO2 P0000
14837KMSN MSN20101130171010811/30/10 17:10:31  5-MIN KMSN 302310Z VRB05KT 9SM -SN OVC013 M03/M06 A2968 1090 81 -700 VRB/05 RMK AO2 P0000
14837KMSN MSN20101130171510811/30/10 17:15:31  5-MIN KMSN 302315Z 27007KT 9SM -SN OVC013 M03/M06 A2968 1090 81 -700 270/07 RMK AO2 P0000
14837KMSN MSN20101130172011411/30/10 17:20:31  5-MIN KMSN 302320Z 28010G18KT 9SM -SN OVC013 M03/M06 A2968 1090 81 -700 280/10G18 RMK AO2 P0000
14837KMSN MSN20101130172511411/30/10 17:25:31  5-MIN KMSN 302325Z 28008G18KT 9SM -SN OVC015 M03/M06 A2968 1090 81 -700 280/08G18 RMK AO2 P0000
14837KMSN MSN20101130173011411/30/10 17:30:31  5-MIN KMSN 302330Z VRB06G17KT 9SM -SN OVC013 M03/M06 A2968 1090 81 -700 VRB/06G17 RMK AO2 P0000
14837KMSN MSN20101130173513011/30/10 17:35:31  5-MIN KMSN 302335Z 28012G17KT 230V310 9SM -SN OVC013 M03/M06 A2968 1090 81 -700 280/12G17 230V310 RMK AO2 P0000
14837KMSN MSN20101130174011411/30/10 17:40:31  5-MIN KMSN 302340Z 27008G17KT 9SM -SN OVC015 M03/M06 A2968 1080 81 -700 270/08G17 RMK AO2 P0000
14837KMSN MSN20101130174511411/30/10 17:45:31  5-MIN KMSN 302345Z 27008G17KT 9SM -SN OVC015 M03/M06 A2968 1080 81 -700 270/08G17 RMK AO2 P0000
14837KMSN MSN20101130175015511/30/10 17:50:31  5-MIN KMSN 302350Z 27010G15KT 9SM -SN OVC015 M03/M06 A2969 1080 78 -700 270/10G15 RMK AO2 SLP061 P0000 60000 T10281061 11011 21028 53013
14837KMSN MSN20101130175511411/30/10 17:55:31  5-MIN KMSN 302355Z 28007G15KT 9SM -SN OVC015 M03/M06 A2969 1080 78 -700 280/07G15 RMK AO2 P0000
14837KMSN MSN20101130180010811/30/10 18:00:31  5-MIN KMSN 010000Z 29006KT 9SM -SN OVC015 M03/M06 A2969 1080 78 -700 290/06 RMK AO2 P0000
14837KMSN MSN20101130180510811/30/10 18:05:31  5-MIN KMSN 010005Z 28008KT 9SM -SN OVC015 M03/M06 A2969 1080 78 -700 280/08 RMK AO2 P0000
14837KMSN MSN20101130181013011/30/10 18:10:31  5-MIN KMSN 010010Z 28008G14KT 240V300 9SM -SN OVC015 M03/M06 A2969 1080 78 -800 280/08G14 240V300 RMK AO2 P0000
14837KMSN MSN20101130181511411/30/10 18:15:31  5-MIN KMSN 010015Z 28007G14KT 9SM -SN OVC015 M03/M06 A2969 1080 78 -800 280/07G14 RMK AO2 P0000
14837KMSN MSN20101130184511711/30/10 18:45:31  5-MIN KMSN 010045Z 28010G16KT 10SM OVC017 M03/M07 A2970 1070 75 -800 270/10G16 RMK AO2 SNE30 P0000
14837KMSN MSN20101130185013411/30/10 18:50:31  5-MIN KMSN 010050Z 28007G14KT 10SM OVC019 M03/M07 A2970 1070 78 -800 280/07G14 RMK AO2 SNE30 SLP067 P0000 T10331067
14837KMSN MSN20101130185510511/30/10 18:55:31  5-MIN KMSN 010055Z 27009G16KT 10SM OVC019 M03/M07 A2970 1070 78 -800 270/09G16 RMK AO2
14837KMSN MSN20101130190012111/30/10 19:00:31  5-MIN KMSN 010100Z 28009G18KT 250V310 10SM OVC019 M03/M07 A2970 1070 78 -800 270/09G18 250V310 RMK AO2
14837KMSN MSN20101130190510511/30/10 19:05:31  5-MIN KMSN 010105Z 28010G19KT 10SM OVC019 M03/M07 A2971 1060 78 -800 270/10G19 RMK AO2
14837KMSN MSN20101130191010511/30/10 19:10:31  5-MIN KMSN 010110Z 28010G19KT 10SM OVC019 M03/M07 A2971 1060 78 -800 280/10G19 RMK AO2
14837KMSN MSN20101130191510511/30/10 19:15:31  5-MIN KMSN 010115Z VRB05G14KT 10SM OVC019 M03/M07 A2971 1060 78 -800 VRB/05G14 RMK AO2
14837KMSN MSN20101130192010511/30/10 19:20:31  5-MIN KMSN 010120Z 27011G16KT 10SM OVC019 M03/M07 A2971 1060 78 -800 270/11G16 RMK AO2
14837KMSN MSN20101130192510511/30/10 19:25:31  5-MIN KMSN 010125Z VRB05G16KT 10SM OVC019 M03/M07 A2971 1060 74 -800 VRB/05G16 RMK AO2
14837KMSN MSN20101130193010511/30/10 19:30:31  5-MIN KMSN 010130Z 28009G19KT 10SM OVC019 M03/M07 A2971 1060 78 -800 280/09G19 RMK AO2
14837KMSN MSN20101130193510511/30/10 19:35:31  5-MIN KMSN 010135Z 28009G19KT 10SM OVC019 M03/M07 A2971 1060 74 -800 280/09G19 RMK AO2
14837KMSN MSN20101130194010511/30/10 19:40:31  5-MIN KMSN 010140Z 28010G17KT 10SM OVC019 M03/M07 A2971 1060 74 -800 280/10G17 RMK AO2
14837KMSN MSN20101130194510511/30/10 19:45:31  5-MIN KMSN 010145Z 29012G19KT 10SM OVC019 M03/M07 A2972 1050 74 -900 280/12G19 RMK AO2
14837KMSN MSN20101130195012211/30/10 19:50:31  5-MIN KMSN 010150Z 29008G19KT 10SM OVC019 M03/M07 A2971 1060 74 -900 280/08G19 RMK AO2 SLP072 T10331072
14837KMSN MSN20101130195510511/30/10 19:55:31  5-MIN KMSN 010155Z 28008G15KT 10SM OVC021 M03/M07 A2971 1050 74 -900 280/08G15 RMK AO2
14837KMSN MSN20101130200009911/30/10 20:00:31  5-MIN KMSN 010200Z 28007KT 10SM OVC021 M03/M07 A2971 1060 74 -800 280/07 RMK AO2
14837KMSN MSN20101130200510511/30/10 20:05:31  5-MIN KMSN 010205Z 28010G17KT 10SM OVC021 M03/M08 A2972 1050 71 -900 280/10G17 RMK AO2
14837KMSN MSN20101130201010511/30/10 20:10:31  5-MIN KMSN 010210Z 27009G17KT 10SM OVC021 M03/M08 A2972 1050 71 -900 270/09G17 RMK AO2
14837KMSN MSN20101130201510511/30/10 20:15:31  5-MIN KMSN 010215Z 28009G15KT 10SM OVC021 M03/M08 A2972 1050 71 -900 280/09G15 RMK AO2
14837KMSN MSN20101130202012111/30/10 20:20:31  5-MIN KMSN 010220Z 27011G21KT 10SM -SN OVC021 M03/M08 A2972 1050 71 -900 270/11G21 RMK AO2 SNB18 P0000
14837KMSN MSN20101130202512011/30/10 20:25:31  5-MIN KMSN 010225Z 27008G21KT 9SM -SN OVC021 M04/M08 A2972 1050 74 -900 270/08G21 RMK AO2 SNB18 P0000
14837KMSN MSN20101130203012011/30/10 20:30:31  5-MIN KMSN 010230Z 27011G19KT 9SM -SN OVC021 M04/M08 A2972 1050 74 -900 270/11G19 RMK AO2 SNB18 P0000
14837KMSN MSN20101130203512011/30/10 20:35:31  5-MIN KMSN 010235Z 29010G16KT 9SM -SN OVC021 M04/M08 A2972 1050 74 -900 290/10G16 RMK AO2 SNB18 P0000
14837KMSN MSN20101130204012011/30/10 20:40:31  5-MIN KMSN 010240Z 29010G15KT 9SM -SN OVC021 M04/M08 A2972 1050 74 -900 290/10G15 RMK AO2 SNB18 P0000
14837KMSN MSN20101130204512011/30/10 20:45:31  5-MIN KMSN 010245Z 28007G15KT 9SM -SN OVC021 M04/M08 A2972 1050 74 -900 280/07G15 RMK AO2 SNB18 P0000
14837KMSN MSN20101130205016511/30/10 20:50:31  5-MIN KMSN 010250Z 28007G16KT 250V320 9SM -SN OVC021 M04/M08 A2972 1050 74 -900 280/07G16 250V320 RMK AO2 SNB18 SLP075 P0000 60000 T10391078 51020
14837KMSN MSN20101130205511411/30/10 20:55:31  5-MIN KMSN 010255Z 28009G16KT 9SM -SN OVC021 M04/M08 A2972 1050 74 -900 270/09G16 RMK AO2 P0000
14837KMSN MSN20101130210013011/30/10 21:00:31  5-MIN KMSN 010300Z 28007G14KT 200V300 9SM -SN OVC021 M04/M08 A2973 1040 74 -900 270/07G14 200V300 RMK AO2 P0000
14837KMSN MSN20101130210511411/30/10 21:05:31  5-MIN KMSN 010305Z 27006G14KT 9SM -SN OVC021 M04/M08 A2973 1040 74 -900 270/06G14 RMK AO2 P0000
14837KMSN MSN20101130211010811/30/10 21:10:31  5-MIN KMSN 010310Z 28008KT 9SM -SN OVC019 M04/M08 A2973 1040 74 -900 280/08 RMK AO2 P0000
14837KMSN MSN20101130211510811/30/10 21:15:31  5-MIN KMSN 010315Z 28005KT 9SM -SN OVC019 M04/M08 A2973 1040 74 -900 280/05 RMK AO2 P0000
14837KMSN MSN20101130212010811/30/10 21:20:31  5-MIN KMSN 010320Z VRB05KT 9SM -SN OVC019 M04/M08 A2973 1040 74 -900 VRB/05 RMK AO2 P0000
14837KMSN MSN20101130212511411/30/10 21:25:31  5-MIN KMSN 010325Z 28009G15KT 9SM -SN OVC019 M04/M08 A2973 1040 74 -900 280/09G15 RMK AO2 P0000
14837KMSN MSN20101130213013011/30/10 21:30:31  5-MIN KMSN 010330Z 29008G15KT 240V310 9SM -SN OVC019 M04/M08 A2973 1040 71 -900 290/08G15 240V310 RMK AO2 P0000
14837KMSN MSN20101130213511411/30/10 21:35:31  5-MIN KMSN 010335Z 27009G16KT 9SM -SN OVC019 M04/M08 A2973 1040 71 -900 270/09G16 RMK AO2 P0000
14837KMSN MSN20101130214011511/30/10 21:40:31  5-MIN KMSN 010340Z 27009G16KT 9SM -SN OVC019 M04/M08 A2973 1040 74 -1000 270/09G16 RMK AO2 P0000
14837KMSN MSN20101130214511511/30/10 21:45:31  5-MIN KMSN 010345Z 29008G16KT 9SM -SN OVC021 M04/M08 A2973 1040 74 -1000 290/08G16 RMK AO2 P0000
14837KMSN MSN20101130215012611/30/10 21:50:31  5-MIN KMSN 010350Z 28009KT 9SM -SN OVC021 M04/M08 A2973 1040 74 -1000 280/09 RMK AO2 SLP078 P0000 T10441083
14837KMSN MSN20101130215513111/30/10 21:55:31  5-MIN KMSN 010355Z 29009G15KT 260V330 9SM -SN OVC021 M04/M09 A2973 1040 71 -1000 290/09G15 260V330 RMK AO2 P0000
14837KMSN MSN20101130220011511/30/10 22:00:31  5-MIN KMSN 010400Z 29010G17KT 9SM -SN OVC021 M04/M09 A2973 1040 71 -1000 290/10G17 RMK AO2 P0000
14837KMSN MSN20101130220513111/30/10 22:05:31  5-MIN KMSN 010405Z 29012G18KT 240V310 9SM -SN OVC023 M04/M09 A2973 1040 71 -1000 290/12G18 240V310 RMK AO2 P0000
14837KMSN MSN20101130221011511/30/10 22:10:31  5-MIN KMSN 010410Z 29013G18KT 9SM -SN OVC023 M04/M09 A2973 1040 71 -1000 290/13G18 RMK AO2 P0000
14837KMSN MSN20101130221511511/30/10 22:15:31  5-MIN KMSN 010415Z 29014G19KT 9SM -SN OVC025 M04/M09 A2973 1040 68 -1000 290/14G19 RMK AO2 P0000
14837KMSN MSN20101130222011511/30/10 22:20:31  5-MIN KMSN 010420Z 30011G19KT 9SM -SN OVC025 M04/M09 A2973 1040 68 -1000 300/11G19 RMK AO2 P0000
14837KMSN MSN20101130222512211/30/10 22:25:31  5-MIN KMSN 010425Z 29005G18KT 9SM -SN BKN025 OVC032 M04/M09 A2973 1040 68 -1000 290/05G18 RMK AO2 P0000
14837KMSN MSN20101130223012211/30/10 22:30:31  5-MIN KMSN 010430Z 29008G15KT 9SM -SN BKN025 OVC032 M04/M09 A2973 1040 71 -1000 280/08G15 RMK AO2 P0000
14837KMSN MSN20101130223512311/30/10 22:35:31  5-MIN KMSN 010435Z 29007KT 9SM -SN BKN025 BKN032 OVC050 M04/M09 A2973 1040 71 -1000 290/07 RMK AO2 P0000
14837KMSN MSN20101130224012911/30/10 22:40:31  5-MIN KMSN 010440Z 29010G14KT 9SM -SN BKN025 BKN032 OVC050 M04/M09 A2973 1040 71 -1000 290/10G14 RMK AO2 P0000
14837KMSN MSN20101130224514511/30/10 22:45:31  5-MIN KMSN 010445Z 29009G15KT 260V330 9SM -SN BKN025 BKN030 OVC050 M04/M09 A2973 1040 71 -1000 290/09G15 260V330 RMK AO2 P0000
14837KMSN MSN20101130225014511/30/10 22:50:31  5-MIN KMSN 010450Z 28007G15KT 260V320 9SM -SN SCT025 BKN030 OVC050 M04/M09 A2973 1040 71 -1000 280/07G15 260V320 RMK AO2 P0000
14837KMSN MSN20101130225512911/30/10 22:55:31  5-MIN KMSN 010455Z 29011G18KT 9SM -SN BKN023 BKN030 OVC050 M04/M09 A2974 1040 71 -1000 290/11G18 RMK AO2 P0000
14837KMSN MSN20101130230012211/30/10 23:00:31  5-MIN KMSN 010500Z 29006G18KT 9SM -SN BKN023 OVC050 M04/M09 A2974 1030 71 -1000 290/06G18 RMK AO2 P0000
14837KMSN MSN20101130230511611/30/10 23:05:31  5-MIN KMSN 010505Z 28008KT 9SM -SN BKN023 OVC050 M04/M08 A2974 1030 74 -1000 280/08 RMK AO2 P0000
14837KMSN MSN20101130231012211/30/10 23:10:31  5-MIN KMSN 010510Z 28008G15KT 9SM -SN BKN021 OVC050 M04/M08 A2974 1030 74 -1000 280/08G15 RMK AO2 P0000
14837KMSN MSN20101130231511511/30/10 23:15:31  5-MIN KMSN 010515Z 29008G15KT 9SM -SN OVC021 M04/M08 A2974 1030 74 -1000 280/08G15 RMK AO2 P0000
14837KMSN MSN20101130232012511/30/10 23:20:31  5-MIN KMSN 010520Z 28007KT 250V310 9SM -SN OVC019 M04/M08 A2974 1030 74 -1000 280/07 250V310 RMK AO2 P0000
14837KMSN MSN20101130232510911/30/10 23:25:31  5-MIN KMSN 010525Z 28005KT 8SM -SN OVC019 M04/M08 A2974 1030 74 -1000 280/05 RMK AO2 P0000
14837KMSN MSN20101130233010911/30/10 23:30:31  5-MIN KMSN 010530Z VRB05KT 8SM -SN OVC019 M04/M08 A2974 1030 74 -1000 VRB/05 RMK AO2 P0000
14837KMSN MSN20101130233510911/30/10 23:35:31  5-MIN KMSN 010535Z 29004KT 8SM -SN OVC019 M04/M08 A2974 1030 74 -1000 290/04 RMK AO2 P0000
14837KMSN MSN20101130234012511/30/10 23:40:31  5-MIN KMSN 010540Z 29007KT 250V320 7SM -SN OVC019 M04/M08 A2975 1030 78 -1000 290/07 250V320 RMK AO2 P0000
14837KMSN MSN20101130234510911/30/10 23:45:31  5-MIN KMSN 010545Z 27004KT 7SM -SN OVC019 M04/M08 A2975 1030 74 -1000 270/04 RMK AO2 P0000
14837KMSN MSN20101130235016611/30/10 23:50:31  5-MIN KMSN 010550Z 29007G14KT 7SM -SN OVC021 M05/M08 A2975 1020 77 -1100 280/07G14 RMK AO2 SLP085 P0000 60000 T10501083 11028 21050 400831050 51012
14837KMSN MSN20101130235513111/30/10 23:55:31  5-MIN KMSN 010555Z 28007G14KT 240V300 7SM -SN OVC021 M05/M08 A2975 1020 77 -1100 280/07G14 240V300 RMK AO2 P0000
