14837KMSN MSN20020201000011102/01/02 00:00:31  5-MIN KMSN 010600Z 36013KT 1SM -SN BR VV005 M04/M06 A2972 1050 92 -1000 360/13 RMK AO2 P0000
14837KMSN MSN20020201000511102/01/02 00:05:31  5-MIN KMSN 010605Z 36012KT 1SM -SN BR VV006 M04/M06 A2972 1050 92 -1000 360/12 RMK AO2 P0000
14837KMSN MSN20020201001011102/01/02 00:10:31  5-MIN KMSN 010610Z 36012KT 1SM -SN BR VV007 M04/M06 A2972 1050 92 -1000 360/12 RMK AO2 P0000
14837KMSN MSN20020201001511102/01/02 00:15:31  5-MIN KMSN 010615Z 36011KT 1SM -SN BR VV008 M04/M06 A2972 1050 92 -1000 360/11 RMK AO2 P0000
14837KMSN MSN20020201002011102/01/02 00:20:31  5-MIN KMSN 010620Z 36012KT 1SM -SN BR VV008 M04/M06 A2972 1050 92 -1000 360/12 RMK AO2 P0000
14837KMSN MSN20020201002511102/01/02 00:25:31  5-MIN KMSN 010625Z 36011KT 1SM -SN BR VV008 M04/M05 A2972 1050 96 -1000 360/11 RMK AO2 P0000
14837KMSN MSN20020201003011702/01/02 00:30:31  5-MIN KMSN 010630Z 36012G18KT 1SM -SN BR VV009 M04/M06 A2972 1050 92 -1000 360/12G18 RMK AO2 P0000
14837KMSN MSN20020201003511102/01/02 00:35:31  5-MIN KMSN 010635Z 36013KT 1SM -SN BR VV009 M04/M05 A2971 1060 96 -1000 360/13 RMK AO2 P0000
14837KMSN MSN20020201004011102/01/02 00:40:31  5-MIN KMSN 010640Z 36012KT 1SM -SN BR VV008 M04/M05 A2971 1060 96 -1000 360/12 RMK AO2 P0000
14837KMSN MSN20020201004511102/01/02 00:45:31  5-MIN KMSN 010645Z 36012KT 1SM -SN BR VV008 M04/M05 A2971 1060 96 -1000 360/12 RMK AO2 P0000
14837KMSN MSN20020201005012702/01/02 00:50:31  5-MIN KMSN 010650Z 36013KT 1SM -SN BR VV009 M04/M06 A2971 1060 88 -900 360/13 RMK AO2 SLP071 P0000 T10391056
14837KMSN MSN20020201005512202/01/02 00:55:31  5-MIN KMSN 010655Z 36011KT 1 1/4SM -SN BR BKN009 OVC049 M04/M05 A2971 1060 92 -900 360/11 RMK AO2 P0000
14837KMSN MSN20020201010012202/01/02 01:00:31  5-MIN KMSN 010700Z 36011KT 1 1/4SM -SN BR BKN009 OVC049 M04/M06 A2971 1060 88 -900 360/11 RMK AO2 P0000
14837KMSN MSN20020201010512202/01/02 01:05:31  5-MIN KMSN 010705Z 36012KT 1 1/2SM -SN BR SCT009 OVC049 M04/M05 A2971 1060 92 -900 360/12 RMK AO2 P0000
14837KMSN MSN20020201011012202/01/02 01:10:31  5-MIN KMSN 010710Z 36012KT 1 3/4SM -SN BR FEW009 OVC047 M04/M05 A2971 1060 92 -900 360/12 RMK AO2 P0000
14837KMSN MSN20020201011512202/01/02 01:15:31  5-MIN KMSN 010715Z 36011KT 1 3/4SM -SN BR FEW011 OVC047 M04/M05 A2971 1060 92 -900 360/11 RMK AO2 P0000
14837KMSN MSN20020201012011802/01/02 01:20:31  5-MIN KMSN 010720Z 35010KT 2SM -SN BR SCT035 OVC047 M04/M05 A2972 1050 92 -900 350/10 RMK AO2 P0000
14837KMSN MSN20020201012512502/01/02 01:25:31  5-MIN KMSN 010725Z 34009KT 2SM -SN BR BKN035 OVC047 M04/M05 A2973 1040 92 -900 330/09 RMK AO2 PRESRR P0000
14837KMSN MSN20020201013011802/01/02 01:30:31  5-MIN KMSN 010730Z 35008KT 3SM -SN BR BKN033 OVC047 M04/M05 A2973 1040 92 -900 350/08 RMK AO2 P0000
14837KMSN MSN20020201013512502/01/02 01:35:31  5-MIN KMSN 010735Z 36012KT 5SM -SN BR FEW001 BKN033 OVC047 M04/M05 A2972 1050 92 -900 360/12 RMK AO2 P0000
14837KMSN MSN20020201014012502/01/02 01:40:31  5-MIN KMSN 010740Z 36013KT 5SM -SN BR FEW001 BKN033 OVC047 M04/M06 A2972 1050 88 -900 360/13 RMK AO2 P0000
14837KMSN MSN20020201014512502/01/02 01:45:31  5-MIN KMSN 010745Z 36013KT 5SM -SN BR FEW001 BKN033 OVC047 M04/M06 A2972 1050 88 -900 360/13 RMK AO2 P0000
14837KMSN MSN20020201015014202/01/02 01:50:31  5-MIN KMSN 010750Z 36014KT 5SM -SN BR FEW001 BKN033 OVC047 M04/M06 A2972 1050 88 -900 360/14 RMK AO2 SLP075 P0000 T10391056
14837KMSN MSN20020201015511102/01/02 01:55:31  5-MIN KMSN 010755Z 36013KT 4SM -SN BR OVC029 M04/M05 A2971 1060 92 -900 360/13 RMK AO2 P0000
14837KMSN MSN20020201020011102/01/02 02:00:31  5-MIN KMSN 010800Z 36014KT 4SM -SN BR OVC029 M04/M06 A2972 1050 88 -900 360/14 RMK AO2 P0000
14837KMSN MSN20020201020511702/01/02 02:05:31  5-MIN KMSN 010805Z 36011G19KT 4SM -SN BR OVC029 M04/M06 A2972 1050 88 -900 360/11G19 RMK AO2 P0000
14837KMSN MSN20020201021011702/01/02 02:10:31  5-MIN KMSN 010810Z 36011G19KT 5SM -SN BR OVC029 M04/M06 A2973 1040 88 -900 360/11G19 RMK AO2 P0000
14837KMSN MSN20020201021511102/01/02 02:15:31  5-MIN KMSN 010815Z 36011KT 5SM -SN BR OVC029 M04/M06 A2973 1040 88 -900 360/11 RMK AO2 P0000
14837KMSN MSN20020201022011102/01/02 02:20:31  5-MIN KMSN 010820Z 35012KT 6SM -SN BR OVC031 M04/M05 A2974 1040 92 -900 350/12 RMK AO2 P0000
14837KMSN MSN20020201022511502/01/02 02:25:31  5-MIN KMSN 010825Z 34010KT 8SM -SN FEW011 OVC031 M04/M06 A2974 1030 88 -900 340/10 RMK AO2 P0000
14837KMSN MSN20020201023011602/01/02 02:30:31  5-MIN KMSN 010830Z 34011KT 9SM -SN SCT011 OVC031 M04/M05 A2974 1030 92 -1000 340/11 RMK AO2 P0000
14837KMSN MSN20020201023511602/01/02 02:35:31  5-MIN KMSN 010835Z 34011KT 8SM -SN BKN011 OVC031 M04/M05 A2974 1030 92 -1000 340/11 RMK AO2 P0000
14837KMSN MSN20020201024012202/01/02 02:40:31  5-MIN KMSN 010840Z 34010G17KT 7SM -SN BKN011 OVC031 M04/M06 A2974 1030 88 -1000 340/10G17 RMK AO2 P0000
14837KMSN MSN20020201024512202/01/02 02:45:31  5-MIN KMSN 010845Z 34012G17KT 7SM -SN BKN011 OVC031 M04/M06 A2974 1030 88 -1000 340/12G17 RMK AO2 P0000
14837KMSN MSN20020201025014802/01/02 02:50:31  5-MIN KMSN 010850Z 33010KT 5SM -SN BR BKN011 OVC016 M04/M06 A2975 1030 88 -1000 320/10 RMK AO2 SLP084 P0000 60000 T10441061 56018
14837KMSN MSN20020201025511802/01/02 02:55:31  5-MIN KMSN 010855Z 33008G15KT 5SM -SN BR OVC013 M04/M06 A2975 1020 88 -1000 330/08G15 RMK AO2 P0000
14837KMSN MSN20020201030011802/01/02 03:00:31  5-MIN KMSN 010900Z 33010G15KT 4SM -SN BR OVC013 M04/M06 A2976 1020 88 -1000 330/10G15 RMK AO2 P0000
14837KMSN MSN20020201030511202/01/02 03:05:31  5-MIN KMSN 010905Z 33010KT 4SM -SN BR OVC014 M04/M06 A2976 1010 88 -1000 330/10 RMK AO2 P0000
14837KMSN MSN20020201031011802/01/02 03:10:31  5-MIN KMSN 010910Z 34011G16KT 4SM -SN BR OVC014 M04/M06 A2976 1010 88 -1000 340/11G16 RMK AO2 P0000
14837KMSN MSN20020201031512502/01/02 03:15:31  5-MIN KMSN 010915Z 33011G17KT 4SM -SN BR SCT012 OVC018 M05/M07 A2976 1010 88 -1100 330/11G17 RMK AO2 P0000
14837KMSN MSN20020201032012502/01/02 03:20:31  5-MIN KMSN 010920Z 32011G17KT 3SM -SN BR BKN015 OVC020 M05/M07 A2976 1010 88 -1100 320/11G17 RMK AO2 P0000
14837KMSN MSN20020201032512902/01/02 03:25:31  5-MIN KMSN 010925Z 33011G17KT 2 1/2SM -SN BR BKN015 OVC020 M05/M07 A2977 1010 88 -1100 330/11G17 RMK AO2 P0000
14837KMSN MSN20020201033012902/01/02 03:30:31  5-MIN KMSN 010930Z 33011G17KT 2 1/2SM -SN BR BKN015 OVC020 M05/M07 A2977 1000 88 -1100 330/11G17 RMK AO2 P0001
14837KMSN MSN20020201033511802/01/02 03:35:31  5-MIN KMSN 010935Z 33011G18KT 2SM -SN BR OVC017 M05/M07 A2977 1000 88 -1100 330/11G18 RMK AO2 P0001
14837KMSN MSN20020201034013602/01/02 03:40:31  5-MIN KMSN 010940Z 33011G18KT 1 1/4SM -SN BR BKN015 BKN021 OVC028 M05/M07 A2978 1000 88 -1100 330/11G18 RMK AO2 P0001
14837KMSN MSN20020201034513502/01/02 03:45:31  5-MIN KMSN 010945Z 33011G17KT 1 1/4SM -SN BR FEW010 BKN016 OVC028 M05/M07 A2978 990 88 -1100 320/11G17 RMK AO2 P0001
14837KMSN MSN20020201035015202/01/02 03:50:31  5-MIN KMSN 010950Z 33010G17KT 1 1/4SM -SN BR SCT010 BKN016 OVC021 M05/M07 A2978 990 88 -1100 330/10G17 RMK AO2 SLP096 P0001 T10501067
14837KMSN MSN20020201035512402/01/02 03:55:31  5-MIN KMSN 010955Z 33009G17KT 1SM -SN BR BKN012 OVC021 M05/M07 A2978 990 88 -1100 330/09G17 RMK AO2 P0000
14837KMSN MSN20020201040012202/01/02 04:00:31  5-MIN KMSN 011000Z 32011KT 1 1/4SM -SN BR BKN016 OVC027 M05/M07 A2978 990 88 -1100 320/11 RMK AO2 P0000
14837KMSN MSN20020201040512202/01/02 04:05:31  5-MIN KMSN 011005Z 32010KT 1 1/2SM -SN BR BKN018 OVC027 M05/M07 A2979 990 88 -1100 320/10 RMK AO2 P0000
14837KMSN MSN20020201041011502/01/02 04:10:31  5-MIN KMSN 011010Z 33011KT 1 1/2SM -SN BR OVC016 M05/M07 A2979 990 88 -1100 330/11 RMK AO2 P0000
14837KMSN MSN20020201041511502/01/02 04:15:31  5-MIN KMSN 011015Z 32011KT 1 1/2SM -SN BR OVC016 M05/M07 A2979 980 88 -1200 320/11 RMK AO2 P0000
14837KMSN MSN20020201042011502/01/02 04:20:31  5-MIN KMSN 011020Z 31011KT 1 1/2SM -SN BR OVC014 M05/M07 A2980 980 88 -1200 310/11 RMK AO2 P0000
14837KMSN MSN20020201042512202/01/02 04:25:31  5-MIN KMSN 011025Z 31011KT 1 1/2SM -SN BR BKN014 OVC027 M05/M07 A2980 970 88 -1200 310/11 RMK AO2 P0000
14837KMSN MSN20020201043012802/01/02 04:30:31  5-MIN KMSN 011030Z 31013G17KT 1 3/4SM -SN BR BKN014 OVC027 M05/M07 A2981 970 88 -1200 310/13G17 RMK AO2 P0000
14837KMSN MSN20020201043512402/01/02 04:35:31  5-MIN KMSN 011035Z 32011G17KT 2SM -SN BR BKN014 OVC027 M05/M07 A2981 970 88 -1200 320/11G17 RMK AO2 P0000
14837KMSN MSN20020201044012502/01/02 04:40:31  5-MIN KMSN 011040Z 31010KT 2SM -SN BR BKN018 BKN029 OVC050 M05/M07 A2981 960 88 -1200 310/10 RMK AO2 P0000
14837KMSN MSN20020201044512902/01/02 04:45:31  5-MIN KMSN 011045Z 32009KT 1 3/4SM -SN BR BKN023 BKN029 OVC050 M05/M07 A2982 960 88 -1200 320/09 RMK AO2 P0000
14837KMSN MSN20020201045015202/01/02 04:50:31  5-MIN KMSN 011050Z 31013G17KT 1 3/4SM -SN BR BKN027 BKN050 OVC085 M05/M07 A2982 950 88 -1200 310/13G17 RMK AO2 SLP110 P0000 T10501067
14837KMSN MSN20020201045513502/01/02 04:55:31  5-MIN KMSN 011055Z 32012G17KT 1 3/4SM -SN BR FEW014 BKN037 OVC085 M05/M07 A2983 950 88 -1200 320/12G17 RMK AO2 P0000
14837KMSN MSN20020201050013502/01/02 05:00:31  5-MIN KMSN 011100Z 32011G17KT 1 1/2SM -SN BR FEW032 BKN039 OVC085 M05/M07 A2983 950 88 -1200 320/11G17 RMK AO2 P0000
14837KMSN MSN20020201050512902/01/02 05:05:31  5-MIN KMSN 011105Z 31011KT 1 1/4SM -SN BR BKN037 BKN060 OVC085 M06/M07 A2983 940 92 -1300 310/11 RMK AO2 P0000
14837KMSN MSN20020201051015102/01/02 05:10:31  5-MIN KMSN 011110Z 31011G16KT 260V330 1 3/4SM -SN BR BKN035 BKN050 OVC085 M05/M07 A2984 940 88 -1200 310/11G16 260V330 RMK AO2 P0000
14837KMSN MSN20020201051513102/01/02 05:15:31  5-MIN KMSN 011115Z 31012G16KT 2SM -SN BR SCT031 BKN044 OVC085 M05/M07 A2984 940 84 -1200 310/12G16 RMK AO2 P0000
14837KMSN MSN20020201052011802/01/02 05:20:31  5-MIN KMSN 011120Z 31011KT 2SM -SN BR SCT031 OVC055 M06/M07 A2985 930 88 -1300 310/11 RMK AO2 P0000
14837KMSN MSN20020201052513102/01/02 05:25:31  5-MIN KMSN 011125Z 32012G17KT 3SM -SN BR FEW031 BKN055 OVC080 M05/M07 A2985 930 84 -1200 320/12G17 RMK AO2 P0000
14837KMSN MSN20020201053013102/01/02 05:30:31  5-MIN KMSN 011130Z 31009G17KT 2SM -SN BR FEW031 BKN046 OVC080 M05/M07 A2985 930 84 -1200 310/09G17 RMK AO2 P0000
14837KMSN MSN20020201053512502/01/02 05:35:31  5-MIN KMSN 011135Z 31010KT 2SM -SN BR FEW031 BKN046 OVC060 M06/M07 A2986 920 88 -1300 310/10 RMK AO2 P0000
14837KMSN MSN20020201054012502/01/02 05:40:31  5-MIN KMSN 011140Z 31011KT 2SM -SN BR FEW031 BKN048 OVC060 M06/M07 A2986 920 88 -1300 310/11 RMK AO2 P0000
14837KMSN MSN20020201054511802/01/02 05:45:31  5-MIN KMSN 011145Z 31010KT 2SM -SN BR BKN048 OVC060 M06/M07 A2986 920 88 -1300 310/10 RMK AO2 P0000
14837KMSN MSN20020201055016502/01/02 05:50:31  5-MIN KMSN 011150Z 31010KT 2SM -SN BR SCT044 OVC060 M06/M07 A2987 910 88 -1300 310/10 RMK AO2 SLP127 P0000 60001 70012 T10561072 11039 21056 53008
14837KMSN MSN20020201055512202/01/02 05:55:31  5-MIN KMSN 011155Z 31009KT 2 1/2SM -SN BR SCT044 OVC055 M06/M07 A2987 910 88 -1300 310/09 RMK AO2 P0000
14837KMSN MSN20020201060012202/01/02 06:00:31  5-MIN KMSN 011200Z 31008KT 2 1/2SM -SN BR SCT042 OVC055 M06/M07 A2988 900 88 -1300 310/08 RMK AO2 P0000
14837KMSN MSN20020201060511802/01/02 06:05:31  5-MIN KMSN 011205Z 30010KT 3SM -SN BR SCT039 OVC055 M06/M07 A2988 900 88 -1300 300/10 RMK AO2 P0000
14837KMSN MSN20020201061011802/01/02 06:10:31  5-MIN KMSN 011210Z 30007KT 3SM -SN BR BKN039 OVC050 M06/M07 A2989 890 88 -1300 300/07 RMK AO2 P0000
14837KMSN MSN20020201061511802/01/02 06:15:31  5-MIN KMSN 011215Z 30009KT 4SM -SN BR BKN039 OVC055 M06/M08 A2989 890 84 -1300 300/09 RMK AO2 P0000
14837KMSN MSN20020201062012402/01/02 06:20:31  5-MIN KMSN 011220Z 30010G15KT 5SM -SN BR SCT039 OVC055 M06/M07 A2990 890 88 -1300 300/10G15 RMK AO2 P0000
14837KMSN MSN20020201062514002/01/02 06:25:31  5-MIN KMSN 011225Z 30010G15KT 270V340 5SM -SN BR BKN041 OVC055 M06/M08 A2990 880 84 -1400 300/10G15 270V340 RMK AO2 P0000
14837KMSN MSN20020201063012502/01/02 06:30:31  5-MIN KMSN 011230Z 30009KT 5SM -SN BR BKN043 BKN050 OVC060 M06/M08 A2991 870 84 -1400 300/09 RMK AO2 P0000
14837KMSN MSN20020201063511802/01/02 06:35:31  5-MIN KMSN 011235Z 30011KT 5SM -SN BR BKN043 OVC055 M06/M08 A2991 870 84 -1400 300/11 RMK AO2 P0000
14837KMSN MSN20020201064011802/01/02 06:40:31  5-MIN KMSN 011240Z 30009KT 5SM -SN BR SCT045 OVC055 M06/M08 A2992 870 84 -1400 300/09 RMK AO2 P0000
14837KMSN MSN20020201064513102/01/02 06:45:31  5-MIN KMSN 011245Z 30011G15KT 5SM -SN BR BKN045 OVC055 M06/M08 A2993 860 84 -1400 300/11G15 RMK AO2 PRESRR P0000
14837KMSN MSN20020201065015502/01/02 06:50:31  5-MIN KMSN 011250Z 30010G15KT 6SM -SN BR FEW019 BKN045 OVC055 M06/M08 A2993 850 84 -1400 300/10G15 RMK AO2 PRESRR SLP149 P0000 T10561078
14837KMSN MSN20020201065512502/01/02 06:55:31  5-MIN KMSN 011255Z 30010KT 6SM -SN BR FEW019 BKN043 OVC055 M06/M08 A2994 850 84 -1400 300/10 RMK AO2 P0000
14837KMSN MSN20020201070012902/01/02 07:00:31  5-MIN KMSN 011300Z 30010KT 7SM -SN FEW019 SCT039 OVC050 M06/M08 A2994 840 84 -1400 300/10 RMK AO2 PRESRR P0000
14837KMSN MSN20020201070513102/01/02 07:05:31  5-MIN KMSN 011305Z 29009KT 7SM FEW019 BKN047 OVC055 M06/M08 A2995 840 84 -1400 290/09 RMK AO2 SNE03 PRESRR P0000
14837KMSN MSN20020201071012202/01/02 07:10:31  5-MIN KMSN 011310Z 30012KT 7SM -SN FEW019 BKN035 OVC055 M06/M08 A2995 830 84 -1400 300/12 RMK AO2 P0000
14837KMSN MSN20020201071512502/01/02 07:15:31  5-MIN KMSN 011315Z 31010KT 6SM -SN BR FEW019 BKN035 OVC046 M06/M08 A2996 830 84 -1400 300/10 RMK AO2 P0000
14837KMSN MSN20020201072013402/01/02 07:20:31  5-MIN KMSN 011320Z 31010KT 6SM BR FEW019 SCT035 OVC043 M06/M08 A2997 820 84 -1400 310/10 RMK AO2 SNE16 PRESRR P0000
14837KMSN MSN20020201072513302/01/02 07:25:31  5-MIN KMSN 011325Z 31009G16KT 6SM BR FEW020 SCT035 OVC043 M06/M08 A2997 820 84 -1400 310/09G16 RMK AO2 SNE16 P0000
14837KMSN MSN20020201073013302/01/02 07:30:31  5-MIN KMSN 011330Z 30010G16KT 6SM HZ FEW020 BKN035 OVC043 M05/M08 A2998 810 81 -1400 300/10G16 RMK AO2 SNE16 P0000
14837KMSN MSN20020201073512702/01/02 07:35:31  5-MIN KMSN 011335Z 30011KT 6SM HZ SCT025 BKN034 OVC043 M05/M08 A2998 810 81 -1400 300/11 RMK AO2 SNE16 P0000
14837KMSN MSN20020201074012402/01/02 07:40:31  5-MIN KMSN 011340Z 31011KT 7SM FEW025 BKN036 OVC043 M05/M08 A2998 810 81 -1400 310/11 RMK AO2 SNE16 P0000
14837KMSN MSN20020201074513002/01/02 07:45:31  5-MIN KMSN 011345Z 30012G18KT 7SM FEW020 BKN036 OVC043 M05/M08 A2999 800 81 -1400 300/12G18 RMK AO2 SNE16 P0000
14837KMSN MSN20020201075014702/01/02 07:50:31  5-MIN KMSN 011350Z 31011G18KT 8SM FEW018 BKN036 OVC043 M05/M08 A2999 800 81 -1400 300/11G18 RMK AO2 SNE16 SLP168 P0000 T10501078
14837KMSN MSN20020201075512502/01/02 07:55:31  5-MIN KMSN 011355Z 30014G17KT 9SM FEW018 SCT025 OVC038 M05/M08 A3000 790 81 -1400 300/14G17 RMK AO2 PRESRR
14837KMSN MSN20020201080011302/01/02 08:00:31  5-MIN KMSN 011400Z 30011KT 10SM FEW018 BKN038 OVC046 M05/M08 A3001 790 81 -1400 300/11 RMK AO2
14837KMSN MSN20020201080512602/01/02 08:05:31  5-MIN KMSN 011405Z 31011G15KT 10SM FEW018 BKN036 OVC044 M05/M08 A3001 780 81 -1400 310/11G15 RMK AO2 PRESRR
14837KMSN MSN20020201081012602/01/02 08:10:31  5-MIN KMSN 011410Z 31009G15KT 10SM SCT018 BKN025 OVC044 M05/M08 A3002 770 81 -1400 310/09G15 RMK AO2 PRESRR
14837KMSN MSN20020201081511302/01/02 08:15:31  5-MIN KMSN 011415Z 30011KT 10SM FEW018 BKN036 OVC047 M05/M08 A3002 770 81 -1400 300/11 RMK AO2
14837KMSN MSN20020201082011302/01/02 08:20:31  5-MIN KMSN 011420Z 32011KT 10SM FEW018 BKN038 OVC047 M05/M08 A3003 770 81 -1400 320/11 RMK AO2
14837KMSN MSN20020201082511902/01/02 08:25:31  5-MIN KMSN 011425Z 31011G17KT 10SM FEW018 SCT026 OVC049 M05/M08 A3003 760 81 -1400 310/11G17 RMK AO2
14837KMSN MSN20020201083011902/01/02 08:30:31  5-MIN KMSN 011430Z 31012G17KT 10SM FEW018 SCT026 SCT049 M05/M08 A3003 760 81 -1400 310/12G17 RMK AO2
14837KMSN MSN20020201083511302/01/02 08:35:31  5-MIN KMSN 011435Z 31011KT 10SM FEW018 SCT026 SCT049 M04/M08 A3004 750 78 -1400 310/11 RMK AO2
14837KMSN MSN20020201084011902/01/02 08:40:31  5-MIN KMSN 011440Z 30013G19KT 10SM FEW018 SCT026 SCT049 M04/M08 A3005 750 78 -1400 300/13G19 RMK AO2
14837KMSN MSN20020201084511202/01/02 08:45:31  5-MIN KMSN 011445Z 31013G19KT 10SM FEW039 SCT049 M04/M08 A3005 740 78 -1400 310/13G19 RMK AO2
14837KMSN MSN20020201085014102/01/02 08:50:31  5-MIN KMSN 011450Z 31010G18KT 10SM FEW039 SCT049 M04/M08 A3006 740 78 -1400 310/10G18 RMK AO2 SLP189 60000 T10441078 53041
14837KMSN MSN20020201085511902/01/02 08:55:31  5-MIN KMSN 011455Z 30014G17KT 10SM SCT041 OVC049 M04/M08 A3006 730 74 -1300 300/14G17 RMK AO2 PRESRR
14837KMSN MSN20020201090011202/01/02 09:00:31  5-MIN KMSN 011500Z 31010G17KT 10SM SCT042 OVC050 M04/M08 A3006 740 74 -1300 310/10G17 RMK AO2
14837KMSN MSN20020201090511302/01/02 09:05:31  5-MIN KMSN 011505Z 32010KT 10SM FEW042 SCT050 SCT055 M04/M08 A3006 730 74 -1300 320/10 RMK AO2
14837KMSN MSN20020201091011302/01/02 09:10:31  5-MIN KMSN 011510Z 31012KT 10SM FEW042 SCT050 SCT055 M04/M08 A3006 730 74 -1300 310/12 RMK AO2
14837KMSN MSN20020201091511902/01/02 09:15:31  5-MIN KMSN 011515Z 32011G19KT 10SM FEW042 SCT050 SCT055 M04/M08 A3007 730 74 -1300 320/11G19 RMK AO2
14837KMSN MSN20020201092011902/01/02 09:20:31  5-MIN KMSN 011520Z 31013G19KT 10SM FEW042 SCT050 SCT055 M04/M08 A3007 730 74 -1300 310/13G19 RMK AO2
14837KMSN MSN20020201092510502/01/02 09:25:31  5-MIN KMSN 011525Z 31012G18KT 10SM SCT055 M03/M08 A3007 720 71 -1300 310/12G18 RMK AO2
14837KMSN MSN20020201093009902/01/02 09:30:31  5-MIN KMSN 011530Z 31009KT 10SM FEW050 M03/M08 A3008 720 71 -1300 310/09 RMK AO2
14837KMSN MSN20020201093510202/01/02 09:35:31  5-MIN KMSN 011535Z 31011G18KT 10SM CLR M03/M08 A3008 720 71 -1300 310/11G18 RMK AO2
14837KMSN MSN20020201094010502/01/02 09:40:31  5-MIN KMSN 011540Z 32008G18KT 10SM FEW040 M03/M08 A3009 710 71 -1300 310/08G18 RMK AO2
14837KMSN MSN20020201094510502/01/02 09:45:31  5-MIN KMSN 011545Z 30011G18KT 10SM FEW040 M03/M08 A3009 710 71 -1300 300/11G18 RMK AO2
14837KMSN MSN20020201095012202/01/02 09:50:31  5-MIN KMSN 011550Z 31011G17KT 10SM FEW040 M03/M07 A3010 700 74 -1300 300/11G17 RMK AO2 SLP203 T10331072
14837KMSN MSN20020201095510202/01/02 09:55:31  5-MIN KMSN 011555Z 31010G16KT 10SM CLR M03/M08 A3010 700 71 -1300 300/10G16 RMK AO2
14837KMSN MSN20020201100010502/01/02 10:00:31  5-MIN KMSN 011600Z 30013G16KT 10SM FEW040 M03/M08 A3010 700 71 -1300 300/13G16 RMK AO2
14837KMSN MSN20020201100510502/01/02 10:05:31  5-MIN KMSN 011605Z 31012G16KT 10SM FEW040 M03/M08 A3011 690 68 -1200 310/12G16 RMK AO2
14837KMSN MSN20020201101010502/01/02 10:10:31  5-MIN KMSN 011610Z 31012G17KT 10SM FEW040 M03/M07 A3011 690 71 -1200 310/12G17 RMK AO2
14837KMSN MSN20020201101510502/01/02 10:15:31  5-MIN KMSN 011615Z 30014G17KT 10SM FEW040 M03/M08 A3012 680 68 -1200 300/14G17 RMK AO2
14837KMSN MSN20020201102011502/01/02 10:20:31  5-MIN KMSN 011620Z 31009KT 270V330 10SM FEW040 M03/M07 A3012 680 71 -1200 310/09 270V330 RMK AO2
14837KMSN MSN20020201102510602/01/02 10:25:31  5-MIN KMSN 011625Z 31011KT 10SM FEW040 M03/M07 A3013 670 71 -1300 310/11 RMK AO2 PRESRR
14837KMSN MSN20020201103009902/01/02 10:30:31  5-MIN KMSN 011630Z 30010KT 10SM FEW040 M03/M07 A3013 670 71 -1300 300/10 RMK AO2
14837KMSN MSN20020201103509902/01/02 10:35:31  5-MIN KMSN 011635Z 30010KT 10SM FEW040 M03/M08 A3014 660 68 -1300 290/10 RMK AO2
14837KMSN MSN20020201104010602/01/02 10:40:31  5-MIN KMSN 011640Z 30010KT 10SM FEW040 M02/M07 A3014 660 69 -1200 300/10 RMK AO2 PRESRR
14837KMSN MSN20020201104509902/01/02 10:45:31  5-MIN KMSN 011645Z 29007KT 10SM FEW040 M02/M08 A3015 660 66 -1200 290/07 RMK AO2
14837KMSN MSN20020201105011302/01/02 10:50:31  5-MIN KMSN 011650Z 31012KT 10SM CLR M02/M08 A3015 650 66 -1200 310/12 RMK AO2 SLP221 T10221078
14837KMSN MSN20020201105509602/01/02 10:55:31  5-MIN KMSN 011655Z 30011KT 10SM CLR M02/M07 A3015 650 69 -1200 300/11 RMK AO2
14837KMSN MSN20020201110009602/01/02 11:00:31  5-MIN KMSN 011700Z 30011KT 10SM CLR M02/M08 A3016 650 66 -1200 300/11 RMK AO2
14837KMSN MSN20020201110510202/01/02 11:05:31  5-MIN KMSN 011705Z 31013G18KT 10SM CLR M02/M08 A3016 640 66 -1200 310/13G18 RMK AO2
14837KMSN MSN20020201111010202/01/02 11:10:31  5-MIN KMSN 011710Z 30009G18KT 10SM CLR M02/M08 A3016 640 63 -1200 300/09G18 RMK AO2
14837KMSN MSN20020201111510202/01/02 11:15:31  5-MIN KMSN 011715Z 31011G16KT 10SM CLR M02/M08 A3016 640 63 -1200 300/11G16 RMK AO2
14837KMSN MSN20020201112010202/01/02 11:20:31  5-MIN KMSN 011720Z 30012G17KT 10SM CLR M02/M08 A3016 640 63 -1200 290/12G17 RMK AO2
14837KMSN MSN20020201112509602/01/02 11:25:31  5-MIN KMSN 011725Z 31011KT 10SM CLR M02/M08 A3016 640 63 -1200 300/11 RMK AO2
14837KMSN MSN20020201113009602/01/02 11:30:31  5-MIN KMSN 011730Z 31012KT 10SM CLR M02/M08 A3016 640 63 -1200 310/12 RMK AO2
14837KMSN MSN20020201113509602/01/02 11:35:31  5-MIN KMSN 011735Z 30010KT 10SM CLR M02/M08 A3016 640 63 -1200 300/10 RMK AO2
14837KMSN MSN20020201114009602/01/02 11:40:31  5-MIN KMSN 011740Z 31012KT 10SM CLR M02/M08 A3016 640 63 -1200 310/12 RMK AO2
14837KMSN MSN20020201114509602/01/02 11:45:31  5-MIN KMSN 011745Z 31009KT 10SM CLR M01/M07 A3017 640 63 -1100 310/09 RMK AO2
14837KMSN MSN20020201115014302/01/02 11:50:31  5-MIN KMSN 011750Z 31013G18KT 10SM CLR M01/M08 A3017 640 60 -1100 310/13G18 RMK AO2 SLP227 60000 T10111078 11011 21056 53062
14837KMSN MSN20020201115511802/01/02 11:55:31  5-MIN KMSN 011755Z 31009G18KT 280V350 10SM CLR M01/M08 A3016 640 60 -1100 310/09G18 280V350 RMK AO2
14837KMSN MSN20020201120010202/01/02 12:00:31  5-MIN KMSN 011800Z 32012G16KT 10SM CLR M01/M08 A3016 640 60 -1100 320/12G16 RMK AO2
14837KMSN MSN20020201120509902/01/02 12:05:31  5-MIN KMSN 011805Z 32011KT 10SM FEW040 M01/M08 A3017 640 60 -1100 320/11 RMK AO2
14837KMSN MSN20020201121009902/01/02 12:10:31  5-MIN KMSN 011810Z 31010KT 10SM FEW040 M01/M07 A3017 640 63 -1100 310/10 RMK AO2
14837KMSN MSN20020201121509902/01/02 12:15:31  5-MIN KMSN 011815Z 32010KT 10SM FEW040 M01/M08 A3017 640 60 -1100 320/10 RMK AO2
14837KMSN MSN20020201122011202/01/02 12:20:31  5-MIN KMSN 011820Z 31009KT 270V340 10SM CLR M01/M08 A3017 640 60 -1100 310/09 270V340 RMK AO2
14837KMSN MSN20020201122509902/01/02 12:25:31  5-MIN KMSN 011825Z 29008KT 10SM FEW040 M01/M07 A3017 640 63 -1100 290/08 RMK AO2
14837KMSN MSN20020201123009902/01/02 12:30:31  5-MIN KMSN 011830Z 29010KT 10SM FEW035 M01/M07 A3017 640 63 -1100 290/10 RMK AO2
14837KMSN MSN20020201123509902/01/02 12:35:31  5-MIN KMSN 011835Z 30008KT 10SM FEW035 M01/M07 A3017 640 63 -1100 300/08 RMK AO2
14837KMSN MSN20020201124009902/01/02 12:40:31  5-MIN KMSN 011840Z 29010KT 10SM FEW035 M01/M07 A3017 630 63 -1100 290/10 RMK AO2
14837KMSN MSN20020201124509902/01/02 12:45:31  5-MIN KMSN 011845Z 29008KT 10SM FEW035 M01/M07 A3017 630 63 -1100 290/08 RMK AO2
14837KMSN MSN20020201125011602/01/02 12:50:31  5-MIN KMSN 011850Z 28009KT 10SM FEW030 M01/M07 A3017 630 63 -1100 280/09 RMK AO2 SLP230 T10111072
14837KMSN MSN20020201125509602/01/02 12:55:31  5-MIN KMSN 011855Z 28009KT 10SM CLR M01/M07 A3018 630 63 -1100 280/09 RMK AO2
14837KMSN MSN20020201130010502/01/02 13:00:31  5-MIN KMSN 011900Z 31011G16KT 10SM FEW030 M01/M08 A3018 630 60 -1100 310/11G16 RMK AO2
14837KMSN MSN20020201130510502/01/02 13:05:31  5-MIN KMSN 011905Z 29010G16KT 10SM FEW030 M01/M08 A3018 620 60 -1100 290/10G16 RMK AO2
14837KMSN MSN20020201131009902/01/02 13:10:31  5-MIN KMSN 011910Z 29011KT 10SM FEW030 M01/M07 A3018 620 63 -1100 290/11 RMK AO2
14837KMSN MSN20020201131509902/01/02 13:15:31  5-MIN KMSN 011915Z 30009KT 10SM FEW030 M01/M07 A3018 620 63 -1100 290/09 RMK AO2
14837KMSN MSN20020201132009902/01/02 13:20:31  5-MIN KMSN 011920Z 30008KT 10SM SCT030 M01/M08 A3019 620 60 -1100 300/08 RMK AO2
14837KMSN MSN20020201132509902/01/02 13:25:31  5-MIN KMSN 011925Z 30011KT 10SM SCT030 M01/M07 A3019 620 63 -1100 300/11 RMK AO2
14837KMSN MSN20020201133009902/01/02 13:30:31  5-MIN KMSN 011930Z 30010KT 10SM SCT030 M01/M08 A3019 610 60 -1100 300/10 RMK AO2
14837KMSN MSN20020201133509902/01/02 13:35:31  5-MIN KMSN 011935Z 29008KT 10SM SCT030 M01/M08 A3020 610 60 -1100 290/08 RMK AO2
14837KMSN MSN20020201134009902/01/02 13:40:31  5-MIN KMSN 011940Z 29009KT 10SM SCT030 M01/M07 A3020 610 61 -1100 280/09 RMK AO2
14837KMSN MSN20020201134511502/01/02 13:45:31  5-MIN KMSN 011945Z 29009KT 260V330 10SM SCT030 M01/M08 A3020 610 58 -1100 290/09 260V330 RMK AO2
14837KMSN MSN20020201135011602/01/02 13:50:31  5-MIN KMSN 011950Z 28009KT 10SM SCT030 M01/M08 A3020 600 58 -1100 280/09 RMK AO2 SLP239 T10061078
14837KMSN MSN20020201135509902/01/02 13:55:31  5-MIN KMSN 011955Z 31008KT 10SM SCT030 M01/M08 A3020 600 58 -1100 310/08 RMK AO2
14837KMSN MSN20020201140009902/01/02 14:00:31  5-MIN KMSN 012000Z 30009KT 10SM SCT030 M01/M08 A3021 600 58 -1100 290/09 RMK AO2
14837KMSN MSN20020201140512102/01/02 14:05:31  5-MIN KMSN 012005Z 29007G14KT 250V320 10SM SCT030 M01/M08 A3021 600 58 -1100 290/07G14 250V320 RMK AO2
14837KMSN MSN20020201141010502/01/02 14:10:31  5-MIN KMSN 012010Z 29010G14KT 10SM SCT030 M01/M08 A3021 600 58 -1100 290/10G14 RMK AO2
14837KMSN MSN20020201141509902/01/02 14:15:31  5-MIN KMSN 012015Z 29007KT 10SM SCT030 M01/M08 A3021 590 58 -1100 290/07 RMK AO2
14837KMSN MSN20020201142010502/01/02 14:20:31  5-MIN KMSN 012020Z 28010G15KT 10SM SCT030 M01/M08 A3022 590 58 -1100 280/10G15 RMK AO2
14837KMSN MSN20020201142510502/01/02 14:25:31  5-MIN KMSN 012025Z 29011G15KT 10SM SCT030 M01/M08 A3022 590 56 -1100 290/11G15 RMK AO2
14837KMSN MSN20020201143009902/01/02 14:30:31  5-MIN KMSN 012030Z 30009KT 10SM FEW030 M01/M08 A3022 590 56 -1100 300/09 RMK AO2
14837KMSN MSN20020201143509902/01/02 14:35:31  5-MIN KMSN 012035Z 29010KT 10SM FEW030 M01/M08 A3023 580 56 -1100 290/10 RMK AO2
14837KMSN MSN20020201144012102/01/02 14:40:31  5-MIN KMSN 012040Z 28009G15KT 250V320 10SM FEW030 M01/M08 A3023 580 56 -1100 280/09G15 250V320 RMK AO2
14837KMSN MSN20020201144510502/01/02 14:45:31  5-MIN KMSN 012045Z 29010G16KT 10SM FEW030 M01/M09 A3023 580 53 -1100 290/10G16 RMK AO2
14837KMSN MSN20020201145012202/01/02 14:50:31  5-MIN KMSN 012050Z 28008KT 10SM FEW030 M01/M08 A3023 580 56 -1100 280/08 RMK AO2 SLP250 T10061083 51034
14837KMSN MSN20020201145509902/01/02 14:55:31  5-MIN KMSN 012055Z 29007KT 10SM FEW030 M01/M08 A3024 570 58 -1100 290/07 RMK AO2
14837KMSN MSN20020201150009902/01/02 15:00:31  5-MIN KMSN 012100Z 29007KT 10SM FEW030 M01/M08 A3024 570 56 -1100 290/07 RMK AO2
14837KMSN MSN20020201150509902/01/02 15:05:31  5-MIN KMSN 012105Z 30007KT 10SM FEW030 M01/M08 A3024 570 56 -1100 300/07 RMK AO2
14837KMSN MSN20020201151009902/01/02 15:10:31  5-MIN KMSN 012110Z 30010KT 10SM FEW030 M01/M09 A3025 570 53 -1100 300/10 RMK AO2
14837KMSN MSN20020201151510502/01/02 15:15:31  5-MIN KMSN 012115Z 29010G14KT 10SM FEW030 M01/M09 A3025 560 51 -1100 290/10G14 RMK AO2
14837KMSN MSN20020201152009902/01/02 15:20:31  5-MIN KMSN 012120Z 29007KT 10SM FEW030 M01/M09 A3025 560 51 -1100 290/07 RMK AO2
14837KMSN MSN20020201152509902/01/02 15:25:31  5-MIN KMSN 012125Z 28009KT 10SM FEW030 M01/M09 A3026 560 51 -1100 280/09 RMK AO2
14837KMSN MSN20020201153009902/01/02 15:30:31  5-MIN KMSN 012130Z 30008KT 10SM FEW030 M01/M09 A3026 550 51 -1100 300/08 RMK AO2
14837KMSN MSN20020201153509902/01/02 15:35:31  5-MIN KMSN 012135Z 29007KT 10SM FEW030 M01/M10 A3026 550 49 -1100 290/07 RMK AO2
14837KMSN MSN20020201154009902/01/02 15:40:31  5-MIN KMSN 012140Z VRB06KT 10SM FEW030 M01/M10 A3026 550 49 -1100 VRB/06 RMK AO2
14837KMSN MSN20020201154509902/01/02 15:45:31  5-MIN KMSN 012145Z 29008KT 10SM FEW030 M01/M10 A3026 550 49 -1100 290/08 RMK AO2
14837KMSN MSN20020201155011602/01/02 15:50:31  5-MIN KMSN 012150Z VRB06KT 10SM FEW030 M01/M10 A3027 540 49 -1100 VRB/06 RMK AO2 SLP262 T10061100
14837KMSN MSN20020201155509602/01/02 15:55:31  5-MIN KMSN 012155Z 29009KT 10SM CLR M01/M10 A3027 540 49 -1100 290/09 RMK AO2
14837KMSN MSN20020201160009902/01/02 16:00:31  5-MIN KMSN 012200Z 29006KT 10SM FEW030 M01/M10 A3027 540 49 -1100 290/06 RMK AO2
14837KMSN MSN20020201160509902/01/02 16:05:31  5-MIN KMSN 012205Z 29008KT 10SM FEW030 M01/M10 A3027 540 49 -1100 290/08 RMK AO2
14837KMSN MSN20020201161009902/01/02 16:10:31  5-MIN KMSN 012210Z 29007KT 10SM FEW030 M01/M10 A3028 540 49 -1100 290/07 RMK AO2
14837KMSN MSN20020201161509902/01/02 16:15:31  5-MIN KMSN 012215Z 28008KT 10SM FEW030 M01/M10 A3028 530 49 -1200 280/08 RMK AO2
14837KMSN MSN20020201162009902/01/02 16:20:31  5-MIN KMSN 012220Z 29007KT 10SM FEW030 M01/M10 A3028 530 49 -1200 290/07 RMK AO2
14837KMSN MSN20020201162509902/01/02 16:25:31  5-MIN KMSN 012225Z 28007KT 10SM FEW030 M01/M10 A3029 530 49 -1200 280/07 RMK AO2
14837KMSN MSN20020201163009902/01/02 16:30:31  5-MIN KMSN 012230Z 29006KT 10SM FEW030 M01/M10 A3029 530 49 -1200 290/06 RMK AO2
14837KMSN MSN20020201163509902/01/02 16:35:31  5-MIN KMSN 012235Z 29006KT 10SM FEW030 M01/M10 A3029 520 51 -1200 290/06 RMK AO2
14837KMSN MSN20020201164009902/01/02 16:40:31  5-MIN KMSN 012240Z 28006KT 10SM FEW030 M01/M10 A3029 520 51 -1200 280/06 RMK AO2
14837KMSN MSN20020201164509902/01/02 16:45:31  5-MIN KMSN 012245Z 28005KT 10SM FEW030 M01/M11 A3029 520 49 -1200 280/05 RMK AO2
14837KMSN MSN20020201165011602/01/02 16:50:31  5-MIN KMSN 012250Z VRB04KT 10SM FEW030 M01/M11 A3030 520 49 -1200 VRB/04 RMK AO2 SLP271 T10111106
14837KMSN MSN20020201165509602/01/02 16:55:31  5-MIN KMSN 012255Z 27004KT 10SM CLR M02/M11 A3030 520 49 -1300 270/04 RMK AO2
14837KMSN MSN20020201170009602/01/02 17:00:31  5-MIN KMSN 012300Z 27004KT 10SM CLR M02/M11 A3030 520 51 -1300 270/04 RMK AO2
14837KMSN MSN20020201170509602/01/02 17:05:31  5-MIN KMSN 012305Z VRB04KT 10SM CLR M02/M11 A3030 510 53 -1400 VRB/04 RMK AO2
14837KMSN MSN20020201171009602/01/02 17:10:31  5-MIN KMSN 012310Z 28005KT 10SM CLR M02/M11 A3030 510 51 -1300 270/05 RMK AO2
14837KMSN MSN20020201171509602/01/02 17:15:31  5-MIN KMSN 012315Z 27004KT 10SM CLR M02/M11 A3031 510 53 -1400 260/04 RMK AO2
14837KMSN MSN20020202114509802/02/02 11:45:31  5-MIN KMSN 021745Z 18011KT 8SM SCT016 M03/M08 A3025 560 71 -1500 180/11 RMK AO2
14837KMSN MSN20020202115013302/02/02 11:50:31  5-MIN KMSN 021750Z 19011KT 9SM FEW016 M03/M07 A3024 570 74 -1500 190/11 RMK AO2 SLP256 T10331072 11033 21117 58012
14837KMSN MSN20020202115510402/02/02 11:55:31  5-MIN KMSN 021755Z 19013G18KT 9SM FEW016 M03/M08 A3024 570 68 -1400 190/13G18 RMK AO2
14837KMSN MSN20020202120010402/02/02 12:00:31  5-MIN KMSN 021800Z 19011G18KT 9SM FEW016 M03/M07 A3023 580 71 -1400 190/11G18 RMK AO2
14837KMSN MSN20020202120511102/02/02 12:05:31  5-MIN KMSN 021805Z 19015G19KT 9SM FEW016 M03/M07 A3022 580 71 -1400 190/15G19 RMK AO2 PRESFR
14837KMSN MSN20020202121010402/02/02 12:10:31  5-MIN KMSN 021810Z 20014G19KT 9SM FEW016 M03/M07 A3022 590 71 -1400 200/14G19 RMK AO2
14837KMSN MSN20020202121509802/02/02 12:15:31  5-MIN KMSN 021815Z 19013KT 9SM FEW016 M03/M07 A3022 590 75 -1400 190/13 RMK AO2
14837KMSN MSN20020202122009802/02/02 12:20:31  5-MIN KMSN 021820Z 19013KT 9SM FEW016 M03/M07 A3022 590 75 -1400 190/13 RMK AO2
14837KMSN MSN20020202122509502/02/02 12:25:31  5-MIN KMSN 021825Z 19014KT 9SM CLR M03/M07 A3021 590 75 -1400 190/14 RMK AO2
14837KMSN MSN20020202123009502/02/02 12:30:31  5-MIN KMSN 021830Z 19013KT 9SM CLR M03/M07 A3021 600 75 -1400 190/13 RMK AO2
14837KMSN MSN20020202123509502/02/02 12:35:31  5-MIN KMSN 021835Z 18016KT 9SM CLR M03/M07 A3021 600 71 -1400 180/16 RMK AO2
14837KMSN MSN20020202124009502/02/02 12:40:31  5-MIN KMSN 021840Z 18015KT 9SM CLR M03/M07 A3021 600 71 -1300 180/15 RMK AO2
14837KMSN MSN20020202124509502/02/02 12:45:31  5-MIN KMSN 021845Z 19014KT 9SM CLR M03/M07 A3021 600 74 -1400 190/14 RMK AO2
14837KMSN MSN20020202125012102/02/02 12:50:31  5-MIN KMSN 021850Z 19012G19KT 9SM FEW016 M03/M07 A3021 600 74 -1400 190/12G19 RMK AO2 SLP243 T10331072
14837KMSN MSN20020202125509802/02/02 12:55:31  5-MIN KMSN 021855Z 19012KT 9SM FEW016 M03/M07 A3020 600 75 -1300 190/12 RMK AO2
14837KMSN MSN20020202130009802/02/02 13:00:31  5-MIN KMSN 021900Z 19012KT 9SM FEW016 M03/M07 A3020 610 75 -1300 190/12 RMK AO2
14837KMSN MSN20020202130509802/02/02 13:05:31  5-MIN KMSN 021905Z 19012KT 9SM FEW016 M03/M07 A3020 610 75 -1300 190/12 RMK AO2
14837KMSN MSN20020202131009802/02/02 13:10:31  5-MIN KMSN 021910Z 19012KT 9SM FEW016 M03/M07 A3020 610 75 -1300 190/12 RMK AO2
14837KMSN MSN20020202131509802/02/02 13:15:31  5-MIN KMSN 021915Z 20011KT 9SM FEW016 M02/M06 A3020 610 75 -1300 200/11 RMK AO2
14837KMSN MSN20020202132009802/02/02 13:20:31  5-MIN KMSN 021920Z 19014KT 9SM FEW016 M02/M06 A3020 610 75 -1300 190/14 RMK AO2
14837KMSN MSN20020202132509802/02/02 13:25:31  5-MIN KMSN 021925Z 20013KT 9SM FEW016 M02/M06 A3019 610 72 -1200 190/13 RMK AO2
14837KMSN MSN20020202133010102/02/02 13:30:31  5-MIN KMSN 021930Z 19015G19KT 8SM CLR M02/M06 A3019 620 72 -1200 190/15G19 RMK AO2
14837KMSN MSN20020202133510202/02/02 13:35:31  5-MIN KMSN 021935Z 20015G19KT 10SM CLR M02/M06 A3019 620 72 -1200 200/15G19 RMK AO2
14837KMSN MSN20020202134010202/02/02 13:40:31  5-MIN KMSN 021940Z 20014G19KT 10SM CLR M02/M07 A3018 620 69 -1200 200/14G19 RMK AO2
14837KMSN MSN20020202134510202/02/02 13:45:31  5-MIN KMSN 021945Z 19011G19KT 10SM CLR M02/M06 A3018 620 72 -1200 190/11G19 RMK AO2
14837KMSN MSN20020202135011902/02/02 13:50:31  5-MIN KMSN 021950Z 19016G22KT 10SM CLR M02/M07 A3018 630 69 -1200 190/16G22 RMK AO2 SLP235 T10171067
14837KMSN MSN20020202135510202/02/02 13:55:31  5-MIN KMSN 021955Z 19016G22KT 10SM CLR M02/M06 A3018 630 72 -1200 190/16G22 RMK AO2
14837KMSN MSN20020202140010202/02/02 14:00:31  5-MIN KMSN 022000Z 19016G20KT 10SM CLR M02/M07 A3017 630 69 -1200 190/16G20 RMK AO2
14837KMSN MSN20020202140509602/02/02 14:05:31  5-MIN KMSN 022005Z 20014KT 10SM CLR M02/M07 A3017 630 69 -1200 200/14 RMK AO2
14837KMSN MSN20020202141009602/02/02 14:10:31  5-MIN KMSN 022010Z 18013KT 10SM CLR M02/M06 A3017 640 72 -1200 180/13 RMK AO2
14837KMSN MSN20020202141509602/02/02 14:15:31  5-MIN KMSN 022015Z 18014KT 10SM CLR M02/M06 A3016 640 72 -1200 180/14 RMK AO2
14837KMSN MSN20020202142009602/02/02 14:20:31  5-MIN KMSN 022020Z 19014KT 10SM CLR M02/M06 A3016 640 72 -1200 190/14 RMK AO2
14837KMSN MSN20020202142509602/02/02 14:25:31  5-MIN KMSN 022025Z 19016KT 10SM CLR M02/M07 A3016 650 69 -1200 190/16 RMK AO2
14837KMSN MSN20020202143009602/02/02 14:30:31  5-MIN KMSN 022030Z 19016KT 10SM CLR M02/M07 A3016 640 69 -1200 190/16 RMK AO2
14837KMSN MSN20020202143509602/02/02 14:35:31  5-MIN KMSN 022035Z 19013KT 10SM CLR M02/M07 A3016 640 69 -1200 190/13 RMK AO2
14837KMSN MSN20020202144009602/02/02 14:40:31  5-MIN KMSN 022040Z 18016KT 10SM CLR M02/M06 A3015 650 72 -1100 180/16 RMK AO2
14837KMSN MSN20020202144510202/02/02 14:45:31  5-MIN KMSN 022045Z 19017G21KT 10SM CLR M02/M07 A3015 650 69 -1100 190/17G21 RMK AO2
14837KMSN MSN20020202145012502/02/02 14:50:31  5-MIN KMSN 022050Z 19015G21KT 10SM CLR M02/M07 A3015 650 69 -1100 190/15G21 RMK AO2 SLP225 T10171067 58029
14837KMSN MSN20020202145509602/02/02 14:55:31  5-MIN KMSN 022055Z 19014KT 10SM CLR M02/M06 A3015 650 72 -1100 190/14 RMK AO2
14837KMSN MSN20020202150009602/02/02 15:00:31  5-MIN KMSN 022100Z 19014KT 10SM CLR M02/M06 A3015 650 72 -1100 190/14 RMK AO2
14837KMSN MSN20020202150509602/02/02 15:05:31  5-MIN KMSN 022105Z 19013KT 10SM CLR M02/M06 A3015 650 72 -1100 190/13 RMK AO2
14837KMSN MSN20020202151010202/02/02 15:10:31  5-MIN KMSN 022110Z 19015G19KT 10SM CLR M02/M06 A3015 650 72 -1100 190/15G19 RMK AO2
14837KMSN MSN20020202151510202/02/02 15:15:31  5-MIN KMSN 022115Z 19014G19KT 10SM CLR M02/M06 A3015 650 72 -1100 190/14G19 RMK AO2
14837KMSN MSN20020202152010202/02/02 15:20:31  5-MIN KMSN 022120Z 19015G20KT 10SM CLR M02/M06 A3015 650 72 -1100 190/15G20 RMK AO2
14837KMSN MSN20020202152510202/02/02 15:25:31  5-MIN KMSN 022125Z 19014G20KT 10SM CLR M02/M06 A3015 650 72 -1100 190/14G20 RMK AO2
14837KMSN MSN20020202153009602/02/02 15:30:31  5-MIN KMSN 022130Z 19012KT 10SM CLR M02/M06 A3015 660 72 -1100 190/12 RMK AO2
14837KMSN MSN20020202153509602/02/02 15:35:31  5-MIN KMSN 022135Z 18014KT 10SM CLR M02/M06 A3014 660 72 -1100 180/14 RMK AO2
14837KMSN MSN20020202154009602/02/02 15:40:31  5-MIN KMSN 022140Z 19012KT 10SM CLR M02/M06 A3014 660 72 -1100 190/12 RMK AO2
14837KMSN MSN20020202154509602/02/02 15:45:31  5-MIN KMSN 022145Z 18014KT 10SM CLR M02/M06 A3013 670 72 -1100 180/14 RMK AO2
14837KMSN MSN20020202155011302/02/02 15:50:31  5-MIN KMSN 022150Z 19014KT 10SM CLR M02/M06 A3013 670 72 -1100 190/14 RMK AO2 SLP219 T10171061
14837KMSN MSN20020202155510202/02/02 15:55:31  5-MIN KMSN 022155Z 19015G21KT 10SM CLR M02/M06 A3013 670 75 -1100 190/15G21 RMK AO2
14837KMSN MSN20020202160010202/02/02 16:00:31  5-MIN KMSN 022200Z 19014G21KT 10SM CLR M02/M06 A3013 670 75 -1100 190/14G21 RMK AO2
14837KMSN MSN20020202160510202/02/02 16:05:31  5-MIN KMSN 022205Z 19013G20KT 10SM CLR M02/M06 A3013 670 75 -1100 190/13G20 RMK AO2
14837KMSN MSN20020202161010202/02/02 16:10:31  5-MIN KMSN 022210Z 19014G20KT 10SM CLR M02/M06 A3013 680 75 -1100 190/14G20 RMK AO2
14837KMSN MSN20020202161510202/02/02 16:15:31  5-MIN KMSN 022215Z 20014G19KT 10SM CLR M02/M06 A3012 680 75 -1100 200/14G19 RMK AO2
14837KMSN MSN20020202162010202/02/02 16:20:31  5-MIN KMSN 022220Z 18013G19KT 10SM CLR M02/M06 A3012 680 75 -1100 180/13G19 RMK AO2
14837KMSN MSN20020202162509602/02/02 16:25:31  5-MIN KMSN 022225Z 19013KT 10SM CLR M02/M06 A3012 680 75 -1100 190/13 RMK AO2
14837KMSN MSN20020202163009602/02/02 16:30:31  5-MIN KMSN 022230Z 19014KT 10SM CLR M02/M06 A3011 690 75 -1100 190/14 RMK AO2
14837KMSN MSN20020202163509602/02/02 16:35:31  5-MIN KMSN 022235Z 18015KT 10SM CLR M02/M06 A3011 690 75 -1100 180/15 RMK AO2
14837KMSN MSN20020202164009602/02/02 16:40:31  5-MIN KMSN 022240Z 19015KT 10SM CLR M02/M06 A3011 690 75 -1100 190/15 RMK AO2
14837KMSN MSN20020202164510202/02/02 16:45:31  5-MIN KMSN 022245Z 19014G20KT 10SM CLR M02/M06 A3011 690 75 -1100 190/14G20 RMK AO2
14837KMSN MSN20020202165011602/02/02 16:50:31  5-MIN KMSN 022250Z 19012KT 10SM SCT060 M02/M05 A3010 700 78 -1100 190/12 RMK AO2 SLP208 T10171050
14837KMSN MSN20020202165510702/02/02 16:55:31  5-MIN KMSN 022255Z 19014G19KT 6SM HZ BKN060 M02/M05 A3010 700 78 -1100 190/14G19 RMK AO2
14837KMSN MSN20020202170010402/02/02 17:00:31  5-MIN KMSN 022300Z 19014G19KT 7SM BKN060 M02/M05 A3010 700 78 -1100 190/14G19 RMK AO2
14837KMSN MSN20020202170509802/02/02 17:05:31  5-MIN KMSN 022305Z 19013KT 7SM BKN060 M02/M05 A3009 710 78 -1100 180/13 RMK AO2
14837KMSN MSN20020202171009802/02/02 17:10:31  5-MIN KMSN 022310Z 19013KT 7SM BKN060 M02/M05 A3009 710 78 -1100 190/13 RMK AO2
14837KMSN MSN20020202171509802/02/02 17:15:31  5-MIN KMSN 022315Z 19012KT 7SM OVC060 M02/M05 A3009 710 78 -1100 190/12 RMK AO2
14837KMSN MSN20020202172009802/02/02 17:20:31  5-MIN KMSN 022320Z 19012KT 7SM OVC065 M02/M05 A3009 700 78 -1100 190/12 RMK AO2
14837KMSN MSN20020202172509802/02/02 17:25:31  5-MIN KMSN 022325Z 20010KT 7SM OVC070 M02/M05 A3010 700 78 -1100 200/10 RMK AO2
14837KMSN MSN20020202173009802/02/02 17:30:31  5-MIN KMSN 022330Z 20011KT 8SM BKN070 M02/M05 A3010 700 78 -1100 200/11 RMK AO2
14837KMSN MSN20020202173509802/02/02 17:35:31  5-MIN KMSN 022335Z 19011KT 8SM BKN070 M02/M05 A3009 710 78 -1100 190/11 RMK AO2
14837KMSN MSN20020202174010402/02/02 17:40:31  5-MIN KMSN 022340Z 19012KT 8SM BKN070 M02/M06 A3008 710 75 -1100 190/12 RMK AO2 4/002
14837KMSN MSN20020202174510402/02/02 17:45:31  5-MIN KMSN 022345Z 19012KT 8SM BKN070 M02/M05 A3008 720 78 -1100 190/12 RMK AO2 4/002
14837KMSN MSN20020202175013902/02/02 17:50:31  5-MIN KMSN 022350Z 19012KT 8SM SCT070 M02/M05 A3008 720 78 -1100 190/12 RMK AO2 SLP201 4/002 T10171050 11017 21033 56030
14837KMSN MSN20020202175509802/02/02 17:55:31  5-MIN KMSN 022355Z 19012KT 8SM BKN070 M02/M05 A3007 720 78 -1100 180/12 RMK AO2
14837KMSN MSN20020202180009802/02/02 18:00:31  5-MIN KMSN 030000Z 19011KT 8SM BKN070 M02/M05 A3008 720 78 -1100 190/11 RMK AO2
14837KMSN MSN20020202180509802/02/02 18:05:31  5-MIN KMSN 030005Z 18014KT 8SM BKN070 M02/M05 A3007 730 78 -1000 180/14 RMK AO2
14837KMSN MSN20020202181010402/02/02 18:10:31  5-MIN KMSN 030010Z 19014G19KT 8SM BKN070 M02/M04 A3007 730 81 -1000 190/14G19 RMK AO2
14837KMSN MSN20020202181510402/02/02 18:15:31  5-MIN KMSN 030015Z 20010G19KT 9SM BKN070 M02/M04 A3007 730 81 -1100 200/10G19 RMK AO2
14837KMSN MSN20020202182009802/02/02 18:20:31  5-MIN KMSN 030020Z 20009KT 9SM BKN070 M02/M05 A3007 720 78 -1100 200/09 RMK AO2
14837KMSN MSN20020202182509802/02/02 18:25:31  5-MIN KMSN 030025Z 19009KT 8SM SCT070 M02/M05 A3007 720 78 -1100 190/09 RMK AO2
14837KMSN MSN20020202183009802/02/02 18:30:31  5-MIN KMSN 030030Z 20009KT 8SM FEW070 M02/M05 A3007 720 78 -1100 200/09 RMK AO2
14837KMSN MSN20020202183509802/02/02 18:35:31  5-MIN KMSN 030035Z 20010KT 8SM FEW070 M02/M04 A3007 720 81 -1100 200/10 RMK AO2
14837KMSN MSN20020202184009502/02/02 18:40:31  5-MIN KMSN 030040Z 20009KT 8SM CLR M02/M04 A3008 720 81 -1100 200/09 RMK AO2
14837KMSN MSN20020202184509502/02/02 18:45:31  5-MIN KMSN 030045Z 21009KT 8SM CLR M02/M04 A3008 720 81 -1100 210/09 RMK AO2
14837KMSN MSN20020202185011502/02/02 18:50:31  5-MIN KMSN 030050Z 20009KT 8SM FEW060 M02/M05 A3008 720 78 -1100 200/09 RMK AO2 SLP199 T10171050
14837KMSN MSN20020202185509802/02/02 18:55:31  5-MIN KMSN 030055Z 20009KT 8SM SCT055 M02/M04 A3008 720 81 -1100 200/09 RMK AO2
14837KMSN MSN20020202190010502/02/02 19:00:31  5-MIN KMSN 030100Z 20008KT 9SM SCT049 BKN060 M01/M04 A3007 720 78 -1000 200/08 RMK AO2
14837KMSN MSN20020202190511102/02/02 19:05:31  5-MIN KMSN 030105Z 20009G16KT 9SM BKN049 BKN060 M01/M04 A3007 730 78 -1000 200/09G16 RMK AO2
14837KMSN MSN20020202191011102/02/02 19:10:31  5-MIN KMSN 030110Z 20010G16KT 9SM BKN047 BKN060 M01/M04 A3007 730 78 -1000 200/10G16 RMK AO2
14837KMSN MSN20020202191511102/02/02 19:15:31  5-MIN KMSN 030115Z 20009G16KT 9SM BKN045 OVC055 M01/M04 A3006 730 78 -1000 200/09G16 RMK AO2
14837KMSN MSN20020202192010402/02/02 19:20:31  5-MIN KMSN 030120Z 20010G16KT 9SM OVC045 M01/M04 A3006 740 78 -1000 190/10G16 RMK AO2
14837KMSN MSN20020202192510502/02/02 19:25:31  5-MIN KMSN 030125Z 20010KT 9SM BKN041 OVC048 M01/M04 A3006 730 78 -1000 200/10 RMK AO2
14837KMSN MSN20020202193010502/02/02 19:30:31  5-MIN KMSN 030130Z 20008KT 9SM BKN041 OVC048 M01/M04 A3006 740 78 -1000 200/08 RMK AO2
14837KMSN MSN20020202193510402/02/02 19:35:31  5-MIN KMSN 030135Z 20011G15KT 9SM OVC041 M01/M04 A3006 740 78 -1000 200/11G15 RMK AO2
14837KMSN MSN20020202194010402/02/02 19:40:31  5-MIN KMSN 030140Z 20008G15KT 9SM OVC039 M01/M04 A3006 740 78 -1000 200/08G15 RMK AO2
14837KMSN MSN20020202194509802/02/02 19:45:31  5-MIN KMSN 030145Z 20010KT 9SM OVC039 M02/M04 A3005 740 81 -1000 200/10 RMK AO2
14837KMSN MSN20020202195011602/02/02 19:50:31  5-MIN KMSN 030150Z 20008KT 10SM BKN039 M01/M04 A3005 740 78 -1000 200/08 RMK AO2 SLP191 T10111044
14837KMSN MSN20020202195509802/02/02 19:55:31  5-MIN KMSN 030155Z 20008KT 9SM BKN039 M02/M04 A3005 740 81 -1000 200/08 RMK AO2
14837KMSN MSN20020202200009802/02/02 20:00:31  5-MIN KMSN 030200Z 20009KT 8SM BKN039 M02/M04 A3005 750 81 -1000 200/09 RMK AO2
14837KMSN MSN20020202200509802/02/02 20:05:31  5-MIN KMSN 030205Z 21008KT 8SM SCT039 M02/M04 A3005 750 81 -1000 210/08 RMK AO2
14837KMSN MSN20020202201009802/02/02 20:10:31  5-MIN KMSN 030210Z 21008KT 8SM FEW037 M02/M04 A3005 750 81 -1000 210/08 RMK AO2
14837KMSN MSN20020202201509702/02/02 20:15:31  5-MIN KMSN 030215Z 20009KT 8SM FEW037 M01/M04 A3004 750 78 -900 200/09 RMK AO2
14837KMSN MSN20020202202009502/02/02 20:20:31  5-MIN KMSN 030220Z 20008KT 8SM CLR M02/M05 A3004 750 78 -1000 200/08 RMK AO2
14837KMSN MSN20020202202509802/02/02 20:25:31  5-MIN KMSN 030225Z 21007KT 8SM FEW050 M02/M04 A3004 750 81 -1000 210/07 RMK AO2
14837KMSN MSN20020202203009702/02/02 20:30:31  5-MIN KMSN 030230Z 21008KT 9SM FEW050 M01/M04 A3004 760 78 -900 210/08 RMK AO2
14837KMSN MSN20020202203509802/02/02 20:35:31  5-MIN KMSN 030235Z 21008KT 9SM FEW050 M02/M05 A3004 760 78 -1000 210/08 RMK AO2
14837KMSN MSN20020202204009702/02/02 20:40:31  5-MIN KMSN 030240Z 22007KT 9SM FEW050 M01/M04 A3004 760 78 -900 210/07 RMK AO2
14837KMSN MSN20020202204509802/02/02 20:45:31  5-MIN KMSN 030245Z 21010KT 10SM FEW050 M01/M04 A3004 750 78 -900 210/10 RMK AO2
14837KMSN MSN20020202205012102/02/02 20:50:31  5-MIN KMSN 030250Z 21010KT 10SM SCT050 M01/M05 A3004 760 75 -900 210/10 RMK AO2 SLP185 T10111050 58024
14837KMSN MSN20020202205510502/02/02 20:55:31  5-MIN KMSN 030255Z 22010KT 10SM FEW050 SCT070 M01/M04 A3004 760 78 -900 220/10 RMK AO2
14837KMSN MSN20020202210010502/02/02 21:00:31  5-MIN KMSN 030300Z 22011KT 10SM SCT050 BKN070 M01/M04 A3004 760 75 -900 220/11 RMK AO2
14837KMSN MSN20020202210510502/02/02 21:05:31  5-MIN KMSN 030305Z 22008KT 10SM BKN048 BKN070 M01/M04 A3004 760 75 -900 220/08 RMK AO2
14837KMSN MSN20020202211010502/02/02 21:10:31  5-MIN KMSN 030310Z 22011KT 10SM BKN048 BKN070 M01/M04 A3004 760 75 -900 220/11 RMK AO2
14837KMSN MSN20020202211510502/02/02 21:15:31  5-MIN KMSN 030315Z 23010KT 10SM BKN048 OVC070 M01/M04 A3004 750 75 -900 220/10 RMK AO2
14837KMSN MSN20020202212009702/02/02 21:20:31  5-MIN KMSN 030320Z 23009KT 10SM OVC048 00/M04 A3004 750 72 -800 230/09 RMK AO2
14837KMSN MSN20020202212510302/02/02 21:25:31  5-MIN KMSN 030325Z 24008G17KT 10SM OVC048 00/M04 A3004 760 72 -800 240/08G17 RMK AO2
14837KMSN MSN20020202213011002/02/02 21:30:31  5-MIN KMSN 030330Z 23009G17KT 10SM FEW036 OVC048 00/M04 A3004 760 72 -800 230/09G17 RMK AO2
14837KMSN MSN20020202213511002/02/02 21:35:31  5-MIN KMSN 030335Z 24011G19KT 10SM FEW036 OVC048 00/M04 A3004 760 72 -800 240/11G19 RMK AO2
14837KMSN MSN20020202214012602/02/02 21:40:31  5-MIN KMSN 030340Z 24009G19KT 200V270 10SM FEW036 OVC048 00/M04 A3003 760 72 -800 240/09G19 200V270 RMK AO2
14837KMSN MSN20020202214512602/02/02 21:45:31  5-MIN KMSN 030345Z 25010G18KT 220V280 10SM FEW036 OVC050 00/M04 A3004 760 72 -800 250/10G18 220V280 RMK AO2
14837KMSN MSN20020202215012002/02/02 21:50:31  5-MIN KMSN 030350Z 24008G18KT 10SM OVC050 00/M04 A3003 760 72 -800 240/08G18 RMK AO2 SLP182 T00001044
14837KMSN MSN20020202215510402/02/02 21:55:31  5-MIN KMSN 030355Z 23010G18KT 10SM BKN050 M01/M05 A3003 760 72 -900 230/10G18 RMK AO2
14837KMSN MSN20020202220010402/02/02 22:00:31  5-MIN KMSN 030400Z 25008G18KT 10SM OVC050 M01/M05 A3003 760 72 -900 250/08G18 RMK AO2
14837KMSN MSN20020202220512102/02/02 22:05:31  5-MIN KMSN 030405Z 25007KT 210V280 10SM FEW024 BKN050 M01/M05 A3003 760 72 -900 250/07 210V280 RMK AO2
14837KMSN MSN20020202221012702/02/02 22:10:31  5-MIN KMSN 030410Z 25008G17KT 210V280 10SM SCT022 BKN050 M01/M05 A3003 760 72 -900 250/08G17 210V280 RMK AO2
14837KMSN MSN20020202221511102/02/02 22:15:31  5-MIN KMSN 030415Z 25007G17KT 10SM SCT022 BKN050 M01/M05 A3003 760 72 -900 250/07G17 RMK AO2
14837KMSN MSN20020202222010402/02/02 22:20:31  5-MIN KMSN 030420Z 25007KT 9SM SCT022 BKN050 M01/M06 A3003 760 69 -900 250/07 RMK AO2
14837KMSN MSN20020202222510402/02/02 22:25:31  5-MIN KMSN 030425Z 25008KT 9SM FEW022 SCT048 M01/M06 A3003 760 69 -900 250/08 RMK AO2
14837KMSN MSN20020202223010402/02/02 22:30:31  5-MIN KMSN 030430Z 25007KT 9SM FEW022 SCT048 M01/M06 A3003 760 72 -900 250/07 RMK AO2
14837KMSN MSN20020202223509702/02/02 22:35:31  5-MIN KMSN 030435Z 25009KT 9SM FEW022 M01/M06 A3003 760 72 -900 250/09 RMK AO2
14837KMSN MSN20020202224010402/02/02 22:40:31  5-MIN KMSN 030440Z 26007KT 9SM FEW022 SCT031 M01/M06 A3003 760 72 -900 260/07 RMK AO2
14837KMSN MSN20020202224509702/02/02 22:45:31  5-MIN KMSN 030445Z 25006KT 9SM BKN031 M01/M05 A3003 760 75 -900 250/06 RMK AO2
14837KMSN MSN20020202225013102/02/02 22:50:31  5-MIN KMSN 030450Z 25007KT 200V280 10SM BKN031 M01/M05 A3003 760 75 -900 250/07 200V280 RMK AO2 SLP182 T10111050
14837KMSN MSN20020202225511302/02/02 22:55:31  5-MIN KMSN 030455Z 25007KT 220V290 9SM BKN029 M01/M05 A3003 760 75 -900 250/07 220V290 RMK AO2
14837KMSN MSN20020202230009702/02/02 23:00:31  5-MIN KMSN 030500Z 26008KT 9SM OVC029 M01/M05 A3003 760 75 -900 250/08 RMK AO2
14837KMSN MSN20020202230511302/02/02 23:05:31  5-MIN KMSN 030505Z 26007KT 230V290 8SM OVC029 M01/M05 A3003 760 75 -900 260/07 230V290 RMK AO2
14837KMSN MSN20020202231009702/02/02 23:10:31  5-MIN KMSN 030510Z 25006KT 8SM OVC027 M01/M05 A3003 760 75 -900 250/06 RMK AO2
14837KMSN MSN20020202231509702/02/02 23:15:31  5-MIN KMSN 030515Z 26006KT 8SM OVC027 M01/M05 A3003 760 72 -900 260/06 RMK AO2
14837KMSN MSN20020202232009702/02/02 23:20:31  5-MIN KMSN 030520Z 26008KT 8SM OVC025 M01/M05 A3003 760 72 -900 250/08 RMK AO2
14837KMSN MSN20020202232509702/02/02 23:25:31  5-MIN KMSN 030525Z 25005KT 8SM OVC025 M01/M05 A3003 760 72 -900 250/05 RMK AO2
14837KMSN MSN20020202233009702/02/02 23:30:31  5-MIN KMSN 030530Z 24006KT 8SM OVC023 M01/M05 A3003 770 72 -900 240/06 RMK AO2
14837KMSN MSN20020202233509702/02/02 23:35:31  5-MIN KMSN 030535Z 26005KT 8SM OVC023 M01/M04 A3003 770 75 -900 260/05 RMK AO2
14837KMSN MSN20020202234009702/02/02 23:40:31  5-MIN KMSN 030540Z VRB05KT 8SM OVC023 M01/M05 A3003 770 72 -900 VRB/05 RMK AO2
14837KMSN MSN20020203235509602/03/02 23:55:31  5-MIN KMSN 040555Z 33012KT 10SM CLR M09/M16 A3025 560 61 -2300 330/12 RMK AO2
14837KMSN MSN20020204000009602/04/02 00:00:31  5-MIN KMSN 040600Z 33010KT 10SM CLR M09/M16 A3025 560 61 -2300 330/10 RMK AO2
14837KMSN MSN20020204000509602/04/02 00:05:31  5-MIN KMSN 040605Z 33010KT 10SM CLR M09/M16 A3025 560 61 -2300 330/10 RMK AO2
14837KMSN MSN20020204001009602/04/02 00:10:31  5-MIN KMSN 040610Z 34010KT 10SM CLR M09/M16 A3025 560 61 -2300 340/10 RMK AO2
14837KMSN MSN20020204001509602/04/02 00:15:31  5-MIN KMSN 040615Z 33011KT 10SM CLR M09/M16 A3026 550 61 -2300 330/11 RMK AO2
14837KMSN MSN20020204002009602/04/02 00:20:31  5-MIN KMSN 040620Z 33010KT 10SM CLR M10/M16 A3026 550 64 -2300 330/10 RMK AO2
14837KMSN MSN20020204002509602/04/02 00:25:31  5-MIN KMSN 040625Z 33009KT 10SM CLR M10/M16 A3026 550 64 -2300 330/09 RMK AO2
14837KMSN MSN20020204003009602/04/02 00:30:31  5-MIN KMSN 040630Z 33011KT 10SM CLR M10/M16 A3026 550 64 -2300 330/11 RMK AO2
14837KMSN MSN20020204003509602/04/02 00:35:31  5-MIN KMSN 040635Z 33011KT 10SM CLR M10/M16 A3026 550 64 -2300 320/11 RMK AO2
14837KMSN MSN20020204004010202/04/02 00:40:31  5-MIN KMSN 040640Z 33010G16KT 10SM CLR M10/M16 A3026 550 64 -2400 320/10G16 RMK AO2
14837KMSN MSN20020204004509602/04/02 00:45:31  5-MIN KMSN 040645Z 32010KT 10SM CLR M10/M16 A3027 550 64 -2400 320/10 RMK AO2
14837KMSN MSN20020204005011302/04/02 00:50:31  5-MIN KMSN 040650Z 33010KT 10SM CLR M10/M16 A3027 550 64 -2400 330/10 RMK AO2 SLP262 T11001156
14837KMSN MSN20020204005509602/04/02 00:55:31  5-MIN KMSN 040655Z 33010KT 10SM CLR M10/M16 A3027 540 64 -2400 330/10 RMK AO2
14837KMSN MSN20020204010009602/04/02 01:00:31  5-MIN KMSN 040700Z 33009KT 10SM CLR M11/M16 A3027 540 67 -2400 330/09 RMK AO2
14837KMSN MSN20020204010509602/04/02 01:05:31  5-MIN KMSN 040705Z 33008KT 10SM CLR M11/M16 A3027 540 67 -2400 330/08 RMK AO2
14837KMSN MSN20020204011011202/04/02 01:10:31  5-MIN KMSN 040710Z 32008KT 280V340 10SM CLR M11/M16 A3027 540 67 -2400 320/08 280V340 RMK AO2
14837KMSN MSN20020204011509602/04/02 01:15:31  5-MIN KMSN 040715Z 32009KT 10SM CLR M11/M16 A3028 540 67 -2400 320/09 RMK AO2
14837KMSN MSN20020204012009602/04/02 01:20:31  5-MIN KMSN 040720Z 33009KT 10SM CLR M11/M16 A3028 530 67 -2400 330/09 RMK AO2
14837KMSN MSN20020204012510202/04/02 01:25:31  5-MIN KMSN 040725Z 33007G15KT 10SM CLR M11/M16 A3028 530 67 -2400 330/07G15 RMK AO2
14837KMSN MSN20020204013009602/04/02 01:30:31  5-MIN KMSN 040730Z 33010KT 10SM CLR M11/M16 A3028 530 67 -2400 330/10 RMK AO2
14837KMSN MSN20020204013509602/04/02 01:35:31  5-MIN KMSN 040735Z 33008KT 10SM CLR M11/M16 A3029 530 67 -2500 330/08 RMK AO2
14837KMSN MSN20020204014009602/04/02 01:40:31  5-MIN KMSN 040740Z 33011KT 10SM CLR M11/M16 A3029 520 67 -2500 330/11 RMK AO2
14837KMSN MSN20020204014509602/04/02 01:45:31  5-MIN KMSN 040745Z 33009KT 10SM CLR M11/M16 A3030 520 67 -2500 330/09 RMK AO2
14837KMSN MSN20020204015011302/04/02 01:50:31  5-MIN KMSN 040750Z 32008KT 10SM CLR M11/M16 A3030 520 67 -2500 320/08 RMK AO2 SLP274 T11061156
14837KMSN MSN20020204015509602/04/02 01:55:31  5-MIN KMSN 040755Z 32009KT 10SM CLR M11/M16 A3030 510 67 -2500 320/09 RMK AO2
14837KMSN MSN20020204020009602/04/02 02:00:31  5-MIN KMSN 040800Z 32008KT 10SM CLR M11/M16 A3030 510 67 -2500 310/08 RMK AO2
14837KMSN MSN20020204020509602/04/02 02:05:31  5-MIN KMSN 040805Z 32008KT 10SM CLR M11/M16 A3030 510 70 -2500 320/08 RMK AO2
14837KMSN MSN20020204021009602/04/02 02:10:31  5-MIN KMSN 040810Z 32009KT 10SM CLR M11/M16 A3031 510 70 -2500 320/09 RMK AO2
14837KMSN MSN20020204021509602/04/02 02:15:31  5-MIN KMSN 040815Z 32009KT 10SM CLR M11/M16 A3031 510 67 -2500 320/09 RMK AO2
14837KMSN MSN20020204022009602/04/02 02:20:31  5-MIN KMSN 040820Z 32008KT 10SM CLR M11/M16 A3031 510 67 -2500 320/08 RMK AO2
14837KMSN MSN20020204022509602/04/02 02:25:31  5-MIN KMSN 040825Z 32008KT 10SM CLR M11/M16 A3031 500 67 -2600 320/08 RMK AO2
14837KMSN MSN20020204023009602/04/02 02:30:31  5-MIN KMSN 040830Z 32008KT 10SM CLR M11/M16 A3031 500 67 -2600 320/08 RMK AO2
14837KMSN MSN20020204023509602/04/02 02:35:31  5-MIN KMSN 040835Z 31008KT 10SM CLR M12/M16 A3031 500 70 -2600 310/08 RMK AO2
14837KMSN MSN20020204024009602/04/02 02:40:31  5-MIN KMSN 040840Z 32009KT 10SM CLR M12/M17 A3032 500 67 -2600 320/09 RMK AO2
14837KMSN MSN20020204024509602/04/02 02:45:31  5-MIN KMSN 040845Z 32009KT 10SM CLR M11/M17 A3032 500 64 -2600 320/09 RMK AO2
14837KMSN MSN20020204025011902/04/02 02:50:31  5-MIN KMSN 040850Z 32009KT 10SM CLR M12/M17 A3032 500 67 -2600 320/09 RMK AO2 SLP282 T11171167 53026
14837KMSN MSN20020204025509602/04/02 02:55:31  5-MIN KMSN 040855Z 33007KT 10SM CLR M12/M17 A3032 500 67 -2600 320/07 RMK AO2
14837KMSN MSN20020204030009602/04/02 03:00:31  5-MIN KMSN 040900Z 33006KT 10SM CLR M12/M17 A3032 490 67 -2600 320/06 RMK AO2
14837KMSN MSN20020204030509602/04/02 03:05:31  5-MIN KMSN 040905Z 32007KT 10SM CLR M12/M17 A3032 490 67 -2600 320/07 RMK AO2
14837KMSN MSN20020204031009602/04/02 03:10:31  5-MIN KMSN 040910Z 32005KT 10SM CLR M12/M17 A3032 490 67 -2600 310/05 RMK AO2
14837KMSN MSN20020204031509602/04/02 03:15:31  5-MIN KMSN 040915Z 31006KT 10SM CLR M12/M17 A3033 490 67 -2600 310/06 RMK AO2
14837KMSN MSN20020204032009602/04/02 03:20:31  5-MIN KMSN 040920Z 31005KT 10SM CLR M12/M17 A3033 490 67 -2600 310/05 RMK AO2
14837KMSN MSN20020204032509602/04/02 03:25:31  5-MIN KMSN 040925Z 31006KT 10SM CLR M12/M17 A3033 480 70 -2700 310/06 RMK AO2
14837KMSN MSN20020204033009602/04/02 03:30:31  5-MIN KMSN 040930Z 31006KT 10SM CLR M12/M17 A3034 480 70 -2700 310/06 RMK AO2
14837KMSN MSN20020204033509602/04/02 03:35:31  5-MIN KMSN 040935Z 31005KT 10SM CLR M12/M17 A3034 480 70 -2700 310/05 RMK AO2
14837KMSN MSN20020204034009602/04/02 03:40:31  5-MIN KMSN 040940Z 31005KT 10SM CLR M12/M17 A3034 480 70 -2700 310/05 RMK AO2
14837KMSN MSN20020204034509602/04/02 03:45:31  5-MIN KMSN 040945Z 32004KT 10SM CLR M12/M17 A3034 470 70 -2700 320/04 RMK AO2
14837KMSN MSN20020204035011302/04/02 03:50:31  5-MIN KMSN 040950Z 33004KT 10SM CLR M12/M16 A3035 470 73 -2700 330/04 RMK AO2 SLP291 T11221161
14837KMSN MSN20020204035509602/04/02 03:55:31  5-MIN KMSN 040955Z 32005KT 10SM CLR M12/M17 A3035 470 70 -2700 320/05 RMK AO2
14837KMSN MSN20020204040009602/04/02 04:00:31  5-MIN KMSN 041000Z 32005KT 10SM CLR M12/M17 A3035 470 70 -2700 320/05 RMK AO2
14837KMSN MSN20020204040509602/04/02 04:05:31  5-MIN KMSN 041005Z 32005KT 10SM CLR M12/M16 A3035 470 73 -2700 310/05 RMK AO2
14837KMSN MSN20020204041009602/04/02 04:10:31  5-MIN KMSN 041010Z 32004KT 10SM CLR M13/M17 A3035 470 73 -2800 320/04 RMK AO2
14837KMSN MSN20020204041509602/04/02 04:15:31  5-MIN KMSN 041015Z 32006KT 10SM CLR M12/M16 A3035 470 73 -2700 310/06 RMK AO2
14837KMSN MSN20020204042009602/04/02 04:20:31  5-MIN KMSN 041020Z 31005KT 10SM CLR M13/M17 A3036 460 73 -2800 310/05 RMK AO2
14837KMSN MSN20020204042509602/04/02 04:25:31  5-MIN KMSN 041025Z 31004KT 10SM CLR M13/M17 A3036 460 73 -2800 310/04 RMK AO2
14837KMSN MSN20020204043009602/04/02 04:30:31  5-MIN KMSN 041030Z 31005KT 10SM CLR M13/M17 A3036 460 73 -2800 310/05 RMK AO2
14837KMSN MSN20020204043509602/04/02 04:35:31  5-MIN KMSN 041035Z 31006KT 10SM CLR M13/M17 A3037 450 73 -2800 310/06 RMK AO2
14837KMSN MSN20020204044009602/04/02 04:40:31  5-MIN KMSN 041040Z 31006KT 10SM CLR M13/M17 A3037 450 73 -2800 310/06 RMK AO2
14837KMSN MSN20020204044509602/04/02 04:45:31  5-MIN KMSN 041045Z 32006KT 10SM CLR M12/M17 A3037 450 70 -2800 320/06 RMK AO2
14837KMSN MSN20020204045011302/04/02 04:50:31  5-MIN KMSN 041050Z 32005KT 10SM CLR M13/M17 A3038 450 73 -2800 320/05 RMK AO2 SLP302 T11281167
14837KMSN MSN20020204045509602/04/02 04:55:31  5-MIN KMSN 041055Z 32006KT 10SM CLR M13/M17 A3038 440 73 -2900 320/06 RMK AO2
14837KMSN MSN20020204050009602/04/02 05:00:31  5-MIN KMSN 041100Z 32005KT 10SM CLR M13/M17 A3038 440 73 -2900 320/05 RMK AO2
14837KMSN MSN20020204050509602/04/02 05:05:31  5-MIN KMSN 041105Z 32006KT 10SM CLR M13/M17 A3038 440 73 -2900 320/06 RMK AO2
14837KMSN MSN20020204051009602/04/02 05:10:31  5-MIN KMSN 041110Z 32006KT 10SM CLR M13/M17 A3038 440 73 -2900 320/06 RMK AO2
14837KMSN MSN20020204051509602/04/02 05:15:31  5-MIN KMSN 041115Z 32006KT 10SM CLR M13/M16 A3038 440 76 -2900 320/06 RMK AO2
14837KMSN MSN20020204052009602/04/02 05:20:31  5-MIN KMSN 041120Z 33006KT 10SM CLR M13/M17 A3039 430 73 -2900 330/06 RMK AO2
14837KMSN MSN20020204052509602/04/02 05:25:31  5-MIN KMSN 041125Z 33005KT 10SM CLR M13/M17 A3039 430 73 -2900 330/05 RMK AO2
14837KMSN MSN20020204053009602/04/02 05:30:31  5-MIN KMSN 041130Z 34004KT 10SM CLR M13/M17 A3039 430 76 -2900 340/04 RMK AO2
14837KMSN MSN20020204053510202/04/02 05:35:31  5-MIN KMSN 041135Z 34005KT 10SM CLR M13/M16 A3039 430 76 -2900 340/05 RMK AO2 4/002
14837KMSN MSN20020204054010202/04/02 05:40:31  5-MIN KMSN 041140Z 33006KT 10SM CLR M13/M17 A3040 430 73 -2900 330/06 RMK AO2 4/002
14837KMSN MSN20020204054510202/04/02 05:45:31  5-MIN KMSN 041145Z 32006KT 10SM CLR M13/M17 A3040 430 73 -2900 320/06 RMK AO2 4/002
14837KMSN MSN20020204055013702/04/02 05:50:31  5-MIN KMSN 041150Z 33006KT 10SM CLR M13/M17 A3040 430 76 -2900 330/06 RMK AO2 SLP310 4/002 T11331167 11094 21133 51024
14837KMSN MSN20020204055509602/04/02 05:55:31  5-MIN KMSN 041155Z 33007KT 10SM CLR M13/M17 A3040 420 76 -2900 330/07 RMK AO2
14837KMSN MSN20020204060009602/04/02 06:00:31  5-MIN KMSN 041200Z 33006KT 10SM CLR M13/M17 A3040 420 76 -3000 330/06 RMK AO2
14837KMSN MSN20020204060509602/04/02 06:05:31  5-MIN KMSN 041205Z 33007KT 10SM CLR M13/M16 A3041 420 76 -2900 330/07 RMK AO2
14837KMSN MSN20020204061009602/04/02 06:10:31  5-MIN KMSN 041210Z 33006KT 10SM CLR M13/M17 A3041 410 76 -3000 330/06 RMK AO2
14837KMSN MSN20020204061509602/04/02 06:15:31  5-MIN KMSN 041215Z 33005KT 10SM CLR M13/M17 A3041 410 76 -3000 330/05 RMK AO2
14837KMSN MSN20020204062009602/04/02 06:20:31  5-MIN KMSN 041220Z 33005KT 10SM CLR M13/M17 A3042 410 76 -3000 330/05 RMK AO2
14837KMSN MSN20020204062509602/04/02 06:25:31  5-MIN KMSN 041225Z 33005KT 10SM CLR M13/M17 A3042 400 76 -3000 320/05 RMK AO2
14837KMSN MSN20020204063009602/04/02 06:30:31  5-MIN KMSN 041230Z 32005KT 10SM CLR M13/M17 A3043 400 76 -3000 320/05 RMK AO2
14837KMSN MSN20020204063509602/04/02 06:35:31  5-MIN KMSN 041235Z 32005KT 10SM CLR M13/M17 A3043 400 76 -3000 320/05 RMK AO2
14837KMSN MSN20020204064009602/04/02 06:40:31  5-MIN KMSN 041240Z 32006KT 10SM CLR M13/M17 A3043 400 76 -3000 320/06 RMK AO2
14837KMSN MSN20020204064509602/04/02 06:45:31  5-MIN KMSN 041245Z 33006KT 10SM CLR M13/M17 A3043 390 76 -3000 330/06 RMK AO2
14837KMSN MSN20020204065011302/04/02 06:50:31  5-MIN KMSN 041250Z 32006KT 10SM CLR M13/M17 A3044 390 76 -3000 320/06 RMK AO2 SLP324 T11331167
14837KMSN MSN20020204065509602/04/02 06:55:31  5-MIN KMSN 041255Z 32007KT 10SM CLR M13/M17 A3044 390 76 -3000 320/07 RMK AO2
14837KMSN MSN20020204070009602/04/02 07:00:31  5-MIN KMSN 041300Z 32007KT 10SM CLR M13/M17 A3044 390 76 -3000 310/07 RMK AO2
14837KMSN MSN20020204070509602/04/02 07:05:31  5-MIN KMSN 041305Z 32008KT 10SM CLR M13/M17 A3044 380 76 -3000 320/08 RMK AO2
14837KMSN MSN20020204071009602/04/02 07:10:31  5-MIN KMSN 041310Z 32007KT 10SM CLR M13/M17 A3045 380 76 -3000 320/07 RMK AO2
14837KMSN MSN20020204071509602/04/02 07:15:31  5-MIN KMSN 041315Z 32007KT 10SM CLR M13/M17 A3045 380 76 -3000 320/07 RMK AO2
14837KMSN MSN20020204072009602/04/02 07:20:31  5-MIN KMSN 041320Z 32008KT 10SM CLR M13/M17 A3045 380 76 -3000 310/08 RMK AO2
14837KMSN MSN20020204072509602/04/02 07:25:31  5-MIN KMSN 041325Z 32007KT 10SM CLR M13/M17 A3045 370 76 -3000 320/07 RMK AO2
14837KMSN MSN20020204073009602/04/02 07:30:31  5-MIN KMSN 041330Z 32009KT 10SM CLR M13/M17 A3046 370 76 -3000 320/09 RMK AO2
14837KMSN MSN20020204073509602/04/02 07:35:31  5-MIN KMSN 041335Z 33008KT 10SM CLR M13/M17 A3046 370 76 -3000 320/08 RMK AO2
14837KMSN MSN20020204074009602/04/02 07:40:31  5-MIN KMSN 041340Z 32008KT 10SM CLR M13/M17 A3046 370 76 -3000 320/08 RMK AO2
14837KMSN MSN20020204074509602/04/02 07:45:31  5-MIN KMSN 041345Z 32007KT 10SM CLR M13/M17 A3046 370 73 -2900 320/07 RMK AO2
14837KMSN MSN20020204075011302/04/02 07:50:31  5-MIN KMSN 041350Z 33006KT 10SM CLR M13/M17 A3046 370 73 -2900 330/06 RMK AO2 SLP332 T11281167
14837KMSN MSN20020204075509602/04/02 07:55:31  5-MIN KMSN 041355Z 33006KT 10SM CLR M13/M17 A3046 370 73 -2900 330/06 RMK AO2
14837KMSN MSN20020204080009602/04/02 08:00:31  5-MIN KMSN 041400Z 33008KT 10SM CLR M13/M17 A3046 370 73 -3000 330/08 RMK AO2
14837KMSN MSN20020204080509602/04/02 08:05:31  5-MIN KMSN 041405Z 33007KT 10SM CLR M13/M17 A3046 360 73 -3000 330/07 RMK AO2
14837KMSN MSN20020204081009602/04/02 08:10:31  5-MIN KMSN 041410Z 33008KT 10SM CLR M13/M16 A3047 360 76 -3000 330/08 RMK AO2
14837KMSN MSN20020204081509602/04/02 08:15:31  5-MIN KMSN 041415Z 32007KT 10SM CLR M12/M17 A3047 360 70 -2900 320/07 RMK AO2
14837KMSN MSN20020204082009602/04/02 08:20:31  5-MIN KMSN 041420Z 32007KT 10SM CLR M12/M16 A3047 360 73 -2900 320/07 RMK AO2
14837KMSN MSN20020204082509602/04/02 08:25:31  5-MIN KMSN 041425Z 33009KT 10SM CLR M12/M16 A3048 350 73 -2900 330/09 RMK AO2
14837KMSN MSN20020204083009602/04/02 08:30:31  5-MIN KMSN 041430Z 33007KT 10SM CLR M12/M16 A3048 360 73 -2900 330/07 RMK AO2
14837KMSN MSN20020204083509602/04/02 08:35:31  5-MIN KMSN 041435Z 34006KT 10SM CLR M12/M16 A3048 350 73 -2900 340/06 RMK AO2
14837KMSN MSN20020204084009602/04/02 08:40:31  5-MIN KMSN 041440Z 34008KT 10SM CLR M12/M17 A3048 350 67 -2800 340/08 RMK AO2
14837KMSN MSN20020204084509602/04/02 08:45:31  5-MIN KMSN 041445Z 34007KT 10SM CLR M12/M17 A3048 350 67 -2800 340/07 RMK AO2
14837KMSN MSN20020204085011902/04/02 08:50:31  5-MIN KMSN 041450Z 33010KT 10SM CLR M12/M16 A3048 350 70 -2800 330/10 RMK AO2 SLP339 T11171161 51025
14837KMSN MSN20020204085509602/04/02 08:55:31  5-MIN KMSN 041455Z 34009KT 10SM CLR M12/M16 A3048 350 70 -2800 340/09 RMK AO2
14837KMSN MSN20020204090009602/04/02 09:00:31  5-MIN KMSN 041500Z 33008KT 10SM CLR M12/M17 A3048 350 67 -2800 330/08 RMK AO2
14837KMSN MSN20020204090509602/04/02 09:05:31  5-MIN KMSN 041505Z 34008KT 10SM CLR M12/M17 A3048 350 67 -2800 340/08 RMK AO2
14837KMSN MSN20020204091011202/04/02 09:10:31  5-MIN KMSN 041510Z 35007KT 290V360 10SM CLR M11/M16 A3048 350 67 -2800 350/07 290V360 RMK AO2
14837KMSN MSN20020204091509602/04/02 09:15:31  5-MIN KMSN 041515Z 34010KT 10SM CLR M11/M16 A3049 340 67 -2800 340/10 RMK AO2
14837KMSN MSN20020204092009602/04/02 09:20:31  5-MIN KMSN 041520Z 36010KT 10SM CLR M11/M17 A3049 340 64 -2800 360/10 RMK AO2
14837KMSN MSN20020204092509602/04/02 09:25:31  5-MIN KMSN 041525Z 34010KT 10SM CLR M11/M17 A3049 340 64 -2800 330/10 RMK AO2
14837KMSN MSN20020204093009602/04/02 09:30:31  5-MIN KMSN 041530Z 33009KT 10SM CLR M11/M16 A3049 340 64 -2700 330/09 RMK AO2
14837KMSN MSN20020204093509602/04/02 09:35:31  5-MIN KMSN 041535Z 33007KT 10SM CLR M11/M16 A3049 340 64 -2700 330/07 RMK AO2
14837KMSN MSN20020204094009602/04/02 09:40:31  5-MIN KMSN 041540Z 35006KT 10SM CLR M11/M16 A3049 340 64 -2700 350/06 RMK AO2
14837KMSN MSN20020204094509602/04/02 09:45:31  5-MIN KMSN 041545Z 35007KT 10SM CLR M11/M16 A3049 340 64 -2700 350/07 RMK AO2
14837KMSN MSN20020204095011302/04/02 09:50:31  5-MIN KMSN 041550Z 35009KT 10SM CLR M11/M16 A3049 340 64 -2700 350/09 RMK AO2 SLP343 T11061161
14837KMSN MSN20020204095509602/04/02 09:55:31  5-MIN KMSN 041555Z 36009KT 10SM CLR M10/M16 A3049 340 61 -2600 360/09 RMK AO2
14837KMSN MSN20020204100011202/04/02 10:00:31  5-MIN KMSN 041600Z 34007KT 300V360 10SM CLR M10/M16 A3049 340 61 -2600 340/07 300V360 RMK AO2
14837KMSN MSN20020204100509602/04/02 10:05:31  5-MIN KMSN 041605Z 34009KT 10SM CLR M10/M16 A3049 340 61 -2600 340/09 RMK AO2
14837KMSN MSN20020204101009602/04/02 10:10:31  5-MIN KMSN 041610Z 34006KT 10SM CLR M10/M16 A3049 340 61 -2600 330/06 RMK AO2
14837KMSN MSN20020204101509602/04/02 10:15:31  5-MIN KMSN 041615Z 36008KT 10SM CLR M10/M16 A3049 340 61 -2600 350/08 RMK AO2
14837KMSN MSN20020204102009602/04/02 10:20:31  5-MIN KMSN 041620Z 35008KT 10SM CLR M09/M16 A3049 340 59 -2500 350/08 RMK AO2
14837KMSN MSN20020204102509602/04/02 10:25:31  5-MIN KMSN 041625Z 36009KT 10SM CLR M10/M16 A3050 340 64 -2600 360/09 RMK AO2
14837KMSN MSN20020204103009602/04/02 10:30:31  5-MIN KMSN 041630Z 01009KT 10SM CLR M09/M16 A3050 340 59 -2500 010/09 RMK AO2
14837KMSN MSN20020204103509602/04/02 10:35:31  5-MIN KMSN 041635Z 01007KT 10SM CLR M09/M16 A3049 340 61 -2500 010/07 RMK AO2
14837KMSN MSN20020204104009602/04/02 10:40:31  5-MIN KMSN 041640Z 35005KT 10SM CLR M09/M16 A3050 340 61 -2500 350/05 RMK AO2
14837KMSN MSN20020204104509602/04/02 10:45:31  5-MIN KMSN 041645Z 35005KT 10SM CLR M09/M16 A3050 340 56 -2500 350/05 RMK AO2
14837KMSN MSN20020204105011302/04/02 10:50:31  5-MIN KMSN 041650Z 03006KT 10SM CLR M09/M16 A3050 340 59 -2500 030/06 RMK AO2 SLP344 T10891156
14837KMSN MSN20020204105509602/04/02 10:55:31  5-MIN KMSN 041655Z 03006KT 10SM CLR M09/M16 A3050 330 59 -2500 030/06 RMK AO2
14837KMSN MSN20020204110009602/04/02 11:00:31  5-MIN KMSN 041700Z 03006KT 10SM CLR M09/M16 A3050 330 61 -2500 030/06 RMK AO2
14837KMSN MSN20020204110509602/04/02 11:05:31  5-MIN KMSN 041705Z 03007KT 10SM CLR M09/M16 A3050 330 59 -2500 030/07 RMK AO2
14837KMSN MSN20020204111009602/04/02 11:10:31  5-MIN KMSN 041710Z 01006KT 10SM CLR M09/M16 A3050 330 59 -2500 010/06 RMK AO2
14837KMSN MSN20020204111509602/04/02 11:15:31  5-MIN KMSN 041715Z 03007KT 10SM CLR M09/M16 A3050 330 59 -2500 030/07 RMK AO2
14837KMSN MSN20020204112009602/04/02 11:20:31  5-MIN KMSN 041720Z 03006KT 10SM CLR M09/M15 A3049 340 61 -2500 030/06 RMK AO2
14837KMSN MSN20020204112509602/04/02 11:25:31  5-MIN KMSN 041725Z VRB03KT 10SM CLR M09/M16 A3049 340 56 -2500 VRB/03 RMK AO2
14837KMSN MSN20020204113009602/04/02 11:30:31  5-MIN KMSN 041730Z 05004KT 10SM CLR M08/M16 A3049 340 56 -2400 050/04 RMK AO2
14837KMSN MSN20020204113509602/04/02 11:35:31  5-MIN KMSN 041735Z VRB06KT 10SM CLR M08/M16 A3049 340 56 -2400 VRB/06 RMK AO2
14837KMSN MSN20020204114009602/04/02 11:40:31  5-MIN KMSN 041740Z 02005KT 10SM CLR M08/M15 A3049 340 59 -2400 010/05 RMK AO2
14837KMSN MSN20020204114509602/04/02 11:45:31  5-MIN KMSN 041745Z 28007KT 10SM CLR M08/M16 A3049 340 56 -2400 280/07 RMK AO2
14837KMSN MSN20020204115013102/04/02 11:50:31  5-MIN KMSN 041750Z VRB05KT 10SM CLR M08/M16 A3049 340 56 -2400 VRB/05 RMK AO2 SLP344 T10831156 11083 21133 51028
14837KMSN MSN20020204115509602/04/02 11:55:31  5-MIN KMSN 041755Z 29006KT 10SM CLR M08/M16 A3049 340 56 -2400 290/06 RMK AO2
14837KMSN MSN20020204120009602/04/02 12:00:31  5-MIN KMSN 041800Z 29005KT 10SM CLR M08/M16 A3049 340 56 -2400 280/05 RMK AO2
14837KMSN MSN20020204120509602/04/02 12:05:31  5-MIN KMSN 041805Z 30006KT 10SM CLR M08/M16 A3049 340 56 -2400 300/06 RMK AO2
14837KMSN MSN20020204121009602/04/02 12:10:31  5-MIN KMSN 041810Z VRB03KT 10SM CLR M08/M16 A3049 340 51 -2300 VRB/03 RMK AO2
14837KMSN MSN20020204121509602/04/02 12:15:31  5-MIN KMSN 041815Z 29006KT 10SM CLR M08/M16 A3049 340 54 -2400 290/06 RMK AO2
14837KMSN MSN20020204122009602/04/02 12:20:31  5-MIN KMSN 041820Z VRB04KT 10SM CLR M08/M17 A3048 350 51 -2400 VRB/04 RMK AO2
14837KMSN MSN20020204122509602/04/02 12:25:31  5-MIN KMSN 041825Z 34005KT 10SM CLR M08/M16 A3049 340 54 -2300 340/05 RMK AO2
14837KMSN MSN20020204123009602/04/02 12:30:31  5-MIN KMSN 041830Z VRB05KT 10SM CLR M07/M16 A3049 350 49 -2200 VRB/05 RMK AO2
14837KMSN MSN20020204123509602/04/02 12:35:31  5-MIN KMSN 041835Z VRB04KT 10SM CLR M08/M16 A3049 340 54 -2300 VRB/04 RMK AO2
14837KMSN MSN20020204124009602/04/02 12:40:31  5-MIN KMSN 041840Z 26005KT 10SM CLR M08/M16 A3049 340 54 -2300 260/05 RMK AO2
14837KMSN MSN20020204124509602/04/02 12:45:31  5-MIN KMSN 041845Z VRB05KT 10SM CLR M08/M17 A3049 340 49 -2300 VRB/05 RMK AO2
14837KMSN MSN20020204125011302/04/02 12:50:31  5-MIN KMSN 041850Z 33006KT 10SM CLR M08/M17 A3049 340 49 -2300 330/06 RMK AO2 SLP342 T10781167
14837KMSN MSN20020204125509602/04/02 12:55:31  5-MIN KMSN 041855Z 33005KT 10SM CLR M07/M16 A3049 340 52 -2200 330/05 RMK AO2
14837KMSN MSN20020204130009602/04/02 13:00:31  5-MIN KMSN 041900Z VRB04KT 10SM CLR M07/M16 A3048 350 49 -2200 VRB/04 RMK AO2
14837KMSN MSN20020204130509602/04/02 13:05:31  5-MIN KMSN 041905Z VRB04KT 10SM CLR M07/M16 A3048 350 49 -2200 VRB/04 RMK AO2
14837KMSN MSN20020204131009602/04/02 13:10:31  5-MIN KMSN 041910Z 23006KT 10SM CLR M07/M16 A3048 350 49 -2200 230/06 RMK AO2
14837KMSN MSN20020204131509602/04/02 13:15:31  5-MIN KMSN 041915Z VRB04KT 10SM CLR M07/M16 A3048 350 49 -2200 VRB/04 RMK AO2
14837KMSN MSN20020204132009602/04/02 13:20:31  5-MIN KMSN 041920Z 31006KT 10SM CLR M07/M16 A3048 350 49 -2200 310/06 RMK AO2
14837KMSN MSN20020204132509602/04/02 13:25:31  5-MIN KMSN 041925Z 31006KT 10SM CLR M07/M16 A3048 350 47 -2200 310/06 RMK AO2
14837KMSN MSN20020204133009602/04/02 13:30:31  5-MIN KMSN 041930Z 26005KT 10SM CLR M07/M16 A3048 350 47 -2200 260/05 RMK AO2
14837KMSN MSN20020204133509602/04/02 13:35:31  5-MIN KMSN 041935Z VRB04KT 10SM CLR M07/M16 A3048 350 49 -2200 VRB/04 RMK AO2
14837KMSN MSN20020204134009602/04/02 13:40:31  5-MIN KMSN 041940Z VRB06KT 10SM CLR M07/M16 A3048 350 49 -2200 VRB/06 RMK AO2
14837KMSN MSN20020204134509602/04/02 13:45:31  5-MIN KMSN 041945Z 26005KT 10SM CLR M07/M16 A3047 360 47 -2200 260/05 RMK AO2
14837KMSN MSN20020204135012902/04/02 13:50:31  5-MIN KMSN 041950Z 24008KT 220V280 10SM CLR M07/M16 A3047 360 49 -2200 240/08 220V280 RMK AO2 SLP337 T10671156
14837KMSN MSN20020204135509602/04/02 13:55:31  5-MIN KMSN 041955Z 27005KT 10SM CLR M07/M16 A3047 360 49 -2200 270/05 RMK AO2
14837KMSN MSN20020204140009602/04/02 14:00:31  5-MIN KMSN 042000Z 26007KT 10SM CLR M07/M16 A3047 360 47 -2200 260/07 RMK AO2
14837KMSN MSN20020204140509602/04/02 14:05:31  5-MIN KMSN 042005Z 26005KT 10SM CLR M07/M17 A3047 360 45 -2100 260/05 RMK AO2
14837KMSN MSN20020204141009602/04/02 14:10:31  5-MIN KMSN 042010Z 31007KT 10SM CLR M06/M16 A3047 360 45 -2100 310/07 RMK AO2
14837KMSN MSN20020204141509602/04/02 14:15:31  5-MIN KMSN 042015Z 31006KT 10SM CLR M06/M17 A3046 370 43 -2100 310/06 RMK AO2
14837KMSN MSN20020204142009602/04/02 14:20:31  5-MIN KMSN 042020Z VRB04KT 10SM CLR M06/M16 A3046 370 47 -2100 VRB/04 RMK AO2
14837KMSN MSN20020204142509602/04/02 14:25:31  5-MIN KMSN 042025Z 29005KT 10SM CLR M06/M16 A3046 370 43 -2000 290/05 RMK AO2
14837KMSN MSN20020204143009602/04/02 14:30:31  5-MIN KMSN 042030Z VRB03KT 10SM CLR M06/M16 A3046 370 45 -2000 VRB/03 RMK AO2
14837KMSN MSN20020204143509602/04/02 14:35:31  5-MIN KMSN 042035Z VRB04KT 10SM CLR M06/M16 A3046 370 47 -2100 VRB/04 RMK AO2
14837KMSN MSN20020204144009602/04/02 14:40:31  5-MIN KMSN 042040Z 22006KT 10SM CLR M06/M15 A3046 370 50 -2100 220/06 RMK AO2
14837KMSN MSN20020204144509602/04/02 14:45:31  5-MIN KMSN 042045Z VRB04KT 10SM CLR M06/M16 A3045 370 47 -2100 VRB/04 RMK AO2
14837KMSN MSN20020204145011902/04/02 14:50:31  5-MIN KMSN 042050Z 25006KT 10SM CLR M06/M16 A3045 380 47 -2100 250/06 RMK AO2 SLP329 T10611156 50005
14837KMSN MSN20020204145509602/04/02 14:55:31  5-MIN KMSN 042055Z 00000KT 10SM CLR M06/M16 A3045 380 45 -2000 000/00 RMK AO2
14837KMSN MSN20020204150009602/04/02 15:00:31  5-MIN KMSN 042100Z 00000KT 10SM CLR M06/M16 A3045 380 43 -2000 000/00 RMK AO2
14837KMSN MSN20020204150509602/04/02 15:05:31  5-MIN KMSN 042105Z 19005KT 10SM CLR M06/M16 A3044 380 43 -2000 190/05 RMK AO2
14837KMSN MSN20020204151009602/04/02 15:10:31  5-MIN KMSN 042110Z 21006KT 10SM CLR M06/M17 A3044 380 43 -2000 210/06 RMK AO2
14837KMSN MSN20020204151509602/04/02 15:15:31  5-MIN KMSN 042115Z 00000KT 10SM CLR M06/M17 A3044 390 41 -2000 000/00 RMK AO2
14837KMSN MSN20020204152009602/04/02 15:20:31  5-MIN KMSN 042120Z 20004KT 10SM CLR M06/M18 A3044 390 38 -2000 200/04 RMK AO2
14837KMSN MSN20020204152509602/04/02 15:25:31  5-MIN KMSN 042125Z 25005KT 10SM CLR M06/M17 A3044 380 40 -2000 250/05 RMK AO2
14837KMSN MSN20020204153009602/04/02 15:30:31  5-MIN KMSN 042130Z 27004KT 10SM CLR M06/M17 A3045 380 41 -2000 270/04 RMK AO2
14837KMSN MSN20020204153509602/04/02 15:35:31  5-MIN KMSN 042135Z VRB04KT 10SM CLR M06/M17 A3045 380 41 -2000 VRB/04 RMK AO2
14837KMSN MSN20020204154009602/04/02 15:40:31  5-MIN KMSN 042140Z VRB05KT 10SM CLR M06/M17 A3045 380 41 -2000 VRB/05 RMK AO2
14837KMSN MSN20020204154509602/04/02 15:45:31  5-MIN KMSN 042145Z 25006KT 10SM CLR M06/M17 A3045 380 41 -2000 250/06 RMK AO2
14837KMSN MSN20020204155011302/04/02 15:50:31  5-MIN KMSN 042150Z VRB04KT 10SM CLR M06/M17 A3045 380 41 -2000 VRB/04 RMK AO2 SLP328 T10561167
14837KMSN MSN20020204155509602/04/02 15:55:31  5-MIN KMSN 042155Z 22004KT 10SM CLR M06/M17 A3045 380 41 -2000 220/04 RMK AO2
14837KMSN MSN20020204160009602/04/02 16:00:31  5-MIN KMSN 042200Z 21004KT 10SM CLR M06/M17 A3045 380 41 -2000 210/04 RMK AO2
14837KMSN MSN20020204160509602/04/02 16:05:31  5-MIN KMSN 042205Z VRB03KT 10SM CLR M06/M16 A3045 380 43 -2000 VRB/03 RMK AO2
14837KMSN MSN20020204161009602/04/02 16:10:31  5-MIN KMSN 042210Z 26004KT 10SM CLR M06/M16 A3045 380 43 -2000 260/04 RMK AO2
14837KMSN MSN20020204161509602/04/02 16:15:31  5-MIN KMSN 042215Z 20004KT 10SM CLR M05/M16 A3045 380 42 -1900 200/04 RMK AO2
14837KMSN MSN20020204162009602/04/02 16:20:31  5-MIN KMSN 042220Z 23004KT 10SM CLR M05/M16 A3045 380 42 -1900 230/04 RMK AO2
14837KMSN MSN20020204162509602/04/02 16:25:31  5-MIN KMSN 042225Z 23005KT 10SM CLR M05/M16 A3045 380 42 -1900 230/05 RMK AO2
14837KMSN MSN20020204163009602/04/02 16:30:31  5-MIN KMSN 042230Z 23005KT 10SM CLR M05/M16 A3045 380 42 -1900 230/05 RMK AO2
14837KMSN MSN20020204163509602/04/02 16:35:31  5-MIN KMSN 042235Z 23005KT 10SM CLR M05/M16 A3045 380 42 -1900 230/05 RMK AO2
14837KMSN MSN20020204164009602/04/02 16:40:31  5-MIN KMSN 042240Z 23004KT 10SM CLR M05/M16 A3045 380 44 -1900 230/04 RMK AO2
14837KMSN MSN20020204164509602/04/02 16:45:31  5-MIN KMSN 042245Z 22006KT 10SM CLR M05/M16 A3045 380 44 -1900 220/06 RMK AO2
14837KMSN MSN20020204165011302/04/02 16:50:31  5-MIN KMSN 042250Z 23004KT 10SM CLR M05/M16 A3045 380 44 -1900 220/04 RMK AO2 SLP328 T10501156
14837KMSN MSN20020204165509602/04/02 16:55:31  5-MIN KMSN 042255Z 21006KT 10SM CLR M05/M16 A3045 380 44 -1900 210/06 RMK AO2
14837KMSN MSN20020204170009602/04/02 17:00:31  5-MIN KMSN 042300Z 22004KT 10SM CLR M05/M16 A3045 380 44 -1900 220/04 RMK AO2
14837KMSN MSN20020204170509602/04/02 17:05:31  5-MIN KMSN 042305Z 21004KT 10SM CLR M06/M16 A3045 380 45 -2000 210/04 RMK AO2
14837KMSN MSN20020204171009602/04/02 17:10:31  5-MIN KMSN 042310Z 22005KT 10SM CLR M06/M16 A3045 380 45 -2000 220/05 RMK AO2
14837KMSN MSN20020204171509602/04/02 17:15:31  5-MIN KMSN 042315Z 21003KT 10SM CLR M06/M16 A3045 380 45 -2000 210/03 RMK AO2
14837KMSN MSN20020204172009602/04/02 17:20:31  5-MIN KMSN 042320Z 22003KT 10SM CLR M06/M16 A3045 380 45 -2000 210/03 RMK AO2
14837KMSN MSN20020204172509602/04/02 17:25:31  5-MIN KMSN 042325Z 21004KT 10SM CLR M06/M16 A3045 380 45 -2000 210/04 RMK AO2
14837KMSN MSN20020204173009602/04/02 17:30:31  5-MIN KMSN 042330Z 21004KT 10SM CLR M06/M15 A3044 380 48 -2000 210/04 RMK AO2
14837KMSN MSN20020204173509602/04/02 17:35:31  5-MIN KMSN 042335Z 21004KT 10SM CLR M06/M16 A3044 390 45 -2000 210/04 RMK AO2
14837KMSN MSN20020204174009602/04/02 17:40:31  5-MIN KMSN 042340Z 20005KT 10SM CLR M06/M15 A3044 390 48 -2000 200/05 RMK AO2
14837KMSN MSN20020204174509602/04/02 17:45:31  5-MIN KMSN 042345Z 19005KT 10SM CLR M06/M16 A3044 390 45 -2000 190/05 RMK AO2
14837KMSN MSN20020204175013102/04/02 17:50:31  5-MIN KMSN 042350Z 20004KT 10SM CLR M06/M15 A3044 390 50 -2000 190/04 RMK AO2 SLP325 T10611150 11050 21083 58016
14837KMSN MSN20020204175509602/04/02 17:55:31  5-MIN KMSN 042355Z 21005KT 10SM CLR M06/M15 A3044 390 50 -2000 210/05 RMK AO2
14837KMSN MSN20020204180009602/04/02 18:00:31  5-MIN KMSN 050000Z 21004KT 10SM CLR M06/M14 A3044 380 52 -2000 210/04 RMK AO2
14837KMSN MSN20020204180509602/04/02 18:05:31  5-MIN KMSN 050005Z 21006KT 10SM CLR M06/M15 A3045 380 50 -2100 210/06 RMK AO2
14837KMSN MSN20020204181009602/04/02 18:10:31  5-MIN KMSN 050010Z 21006KT 10SM CLR M06/M14 A3045 380 52 -2100 210/06 RMK AO2
14837KMSN MSN20020204181509602/04/02 18:15:31  5-MIN KMSN 050015Z 21005KT 10SM CLR M06/M14 A3045 380 52 -2100 210/05 RMK AO2
14837KMSN MSN20020204182009602/04/02 18:20:31  5-MIN KMSN 050020Z 21008KT 10SM CLR M06/M14 A3045 380 52 -2100 210/08 RMK AO2
14837KMSN MSN20020204182509602/04/02 18:25:31  5-MIN KMSN 050025Z 21008KT 10SM CLR M06/M14 A3045 380 52 -2100 210/08 RMK AO2
14837KMSN MSN20020204183009602/04/02 18:30:31  5-MIN KMSN 050030Z 22006KT 10SM CLR M06/M14 A3046 370 52 -2100 220/06 RMK AO2
14837KMSN MSN20020204183509602/04/02 18:35:31  5-MIN KMSN 050035Z VRB06KT 10SM CLR M07/M14 A3045 370 54 -2100 VRB/06 RMK AO2
14837KMSN MSN20020204184009602/04/02 18:40:31  5-MIN KMSN 050040Z 22007KT 10SM CLR M07/M15 A3046 370 52 -2100 220/07 RMK AO2
14837KMSN MSN20020204184509602/04/02 18:45:31  5-MIN KMSN 050045Z 22007KT 10SM CLR M07/M14 A3046 370 54 -2100 220/07 RMK AO2
14837KMSN MSN20020204185011302/04/02 18:50:31  5-MIN KMSN 050050Z 23007KT 10SM CLR M07/M14 A3046 370 54 -2100 220/07 RMK AO2 SLP333 T10671144
14837KMSN MSN20020204185509602/04/02 18:55:31  5-MIN KMSN 050055Z 21007KT 10SM CLR M07/M14 A3046 370 54 -2100 210/07 RMK AO2
14837KMSN MSN20020204190009602/04/02 19:00:31  5-MIN KMSN 050100Z 22006KT 10SM CLR M07/M14 A3046 370 54 -2100 220/06 RMK AO2
14837KMSN MSN20020204190509602/04/02 19:05:31  5-MIN KMSN 050105Z 22006KT 10SM CLR M07/M14 A3046 370 54 -2100 220/06 RMK AO2
14837KMSN MSN20020204191009602/04/02 19:10:31  5-MIN KMSN 050110Z 23008KT 10SM CLR M07/M14 A3046 370 56 -2200 230/08 RMK AO2
14837KMSN MSN20020204191509602/04/02 19:15:31  5-MIN KMSN 050115Z 22005KT 10SM CLR M07/M14 A3046 370 54 -2100 220/05 RMK AO2
14837KMSN MSN20020204192009602/04/02 19:20:31  5-MIN KMSN 050120Z 21006KT 10SM CLR M07/M14 A3046 370 56 -2200 210/06 RMK AO2
14837KMSN MSN20020204192509602/04/02 19:25:31  5-MIN KMSN 050125Z 21005KT 10SM CLR M07/M14 A3045 370 59 -2200 210/05 RMK AO2
14837KMSN MSN20020204193009602/04/02 19:30:31  5-MIN KMSN 050130Z 22006KT 10SM CLR M07/M14 A3046 370 59 -2200 220/06 RMK AO2
14837KMSN MSN20020204193509602/04/02 19:35:31  5-MIN KMSN 050135Z 21006KT 10SM CLR M07/M14 A3045 380 59 -2200 210/06 RMK AO2
14837KMSN MSN20020204194009602/04/02 19:40:31  5-MIN KMSN 050140Z 21005KT 10SM CLR M07/M14 A3045 380 59 -2200 210/05 RMK AO2
14837KMSN MSN20020204194509602/04/02 19:45:31  5-MIN KMSN 050145Z 21005KT 10SM CLR M07/M14 A3044 380 59 -2200 210/05 RMK AO2
14837KMSN MSN20020204195011302/04/02 19:50:31  5-MIN KMSN 050150Z 22005KT 10SM CLR M07/M14 A3044 380 59 -2200 210/05 RMK AO2 SLP327 T10721139
14837KMSN MSN20020204195509602/04/02 19:55:31  5-MIN KMSN 050155Z VRB04KT 10SM CLR M08/M14 A3044 390 62 -2300 VRB/04 RMK AO2
14837KMSN MSN20020204200009602/04/02 20:00:31  5-MIN KMSN 050200Z 22006KT 10SM CLR M07/M14 A3044 390 56 -2200 220/06 RMK AO2
14837KMSN MSN20020204200509602/04/02 20:05:31  5-MIN KMSN 050205Z 21006KT 10SM CLR M08/M14 A3044 390 59 -2300 210/06 RMK AO2
14837KMSN MSN20020204201009602/04/02 20:10:31  5-MIN KMSN 050210Z 21006KT 10SM CLR M07/M14 A3044 390 56 -2200 210/06 RMK AO2
14837KMSN MSN20020204201509602/04/02 20:15:31  5-MIN KMSN 050215Z 22007KT 10SM CLR M07/M14 A3044 390 56 -2200 220/07 RMK AO2
14837KMSN MSN20020204202009602/04/02 20:20:31  5-MIN KMSN 050220Z 22008KT 10SM CLR M08/M14 A3043 390 59 -2300 220/08 RMK AO2
14837KMSN MSN20020204202509602/04/02 20:25:31  5-MIN KMSN 050225Z 21005KT 10SM CLR M08/M14 A3043 390 62 -2300 210/05 RMK AO2
14837KMSN MSN20020204203009602/04/02 20:30:31  5-MIN KMSN 050230Z 22007KT 10SM CLR M08/M14 A3043 390 59 -2300 210/07 RMK AO2
14837KMSN MSN20020204203509602/04/02 20:35:31  5-MIN KMSN 050235Z 20005KT 10SM CLR M08/M14 A3043 400 62 -2200 200/05 RMK AO2
14837KMSN MSN20020204204009602/04/02 20:40:31  5-MIN KMSN 050240Z 19005KT 10SM CLR M08/M14 A3043 400 62 -2300 190/05 RMK AO2
14837KMSN MSN20020204204509602/04/02 20:45:31  5-MIN KMSN 050245Z 19006KT 10SM CLR M08/M14 A3042 400 62 -2300 190/06 RMK AO2
14837KMSN MSN20020204205011902/04/02 20:50:31  5-MIN KMSN 050250Z 19006KT 10SM CLR M08/M14 A3042 400 62 -2300 190/06 RMK AO2 SLP320 T10831144 58003
14837KMSN MSN20020204205509602/04/02 20:55:31  5-MIN KMSN 050255Z 19008KT 10SM CLR M08/M14 A3042 410 62 -2300 190/08 RMK AO2
14837KMSN MSN20020204210009602/04/02 21:00:31  5-MIN KMSN 050300Z 20006KT 10SM CLR M08/M14 A3042 400 62 -2300 200/06 RMK AO2
14837KMSN MSN20020204210509602/04/02 21:05:31  5-MIN KMSN 050305Z 19006KT 10SM CLR M08/M14 A3042 410 62 -2300 190/06 RMK AO2
14837KMSN MSN20020204211009602/04/02 21:10:31  5-MIN KMSN 050310Z 20006KT 10SM CLR M08/M14 A3042 410 62 -2300 200/06 RMK AO2
14837KMSN MSN20020204211509602/04/02 21:15:31  5-MIN KMSN 050315Z 20006KT 10SM CLR M08/M14 A3042 410 62 -2300 200/06 RMK AO2
14837KMSN MSN20020204212009602/04/02 21:20:31  5-MIN KMSN 050320Z 20005KT 10SM CLR M09/M14 A3042 400 64 -2400 200/05 RMK AO2
14837KMSN MSN20020204212509602/04/02 21:25:31  5-MIN KMSN 050325Z 21004KT 10SM CLR M09/M14 A3042 400 64 -2400 210/04 RMK AO2
14837KMSN MSN20020204213009602/04/02 21:30:31  5-MIN KMSN 050330Z 22004KT 10SM CLR M09/M14 A3043 400 64 -2400 220/04 RMK AO2
14837KMSN MSN20020204213509602/04/02 21:35:31  5-MIN KMSN 050335Z 22005KT 10SM CLR M09/M14 A3042 400 64 -2400 220/05 RMK AO2
14837KMSN MSN20020204214009602/04/02 21:40:31  5-MIN KMSN 050340Z 21007KT 10SM CLR M08/M14 A3042 400 62 -2300 210/07 RMK AO2
14837KMSN MSN20020204214509602/04/02 21:45:31  5-MIN KMSN 050345Z 22006KT 10SM CLR M08/M14 A3042 400 62 -2300 220/06 RMK AO2
14837KMSN MSN20020204215011302/04/02 21:50:31  5-MIN KMSN 050350Z 22005KT 10SM CLR M08/M14 A3042 400 62 -2300 220/05 RMK AO2 SLP319 T10831144
14837KMSN MSN20020204215509602/04/02 21:55:31  5-MIN KMSN 050355Z 23004KT 10SM CLR M09/M14 A3042 400 64 -2400 230/04 RMK AO2
14837KMSN MSN20020204220009602/04/02 22:00:31  5-MIN KMSN 050400Z VRB05KT 10SM CLR M09/M14 A3042 400 64 -2400 VRB/05 RMK AO2
14837KMSN MSN20020204220509602/04/02 22:05:31  5-MIN KMSN 050405Z 22005KT 10SM CLR M09/M14 A3042 410 67 -2400 210/05 RMK AO2
14837KMSN MSN20020204221009602/04/02 22:10:31  5-MIN KMSN 050410Z 21006KT 10SM CLR M09/M14 A3041 410 64 -2400 210/06 RMK AO2
14837KMSN MSN20020204221509602/04/02 22:15:31  5-MIN KMSN 050415Z 21005KT 10SM CLR M09/M14 A3041 420 64 -2400 210/05 RMK AO2
14837KMSN MSN20020204222009602/04/02 22:20:31  5-MIN KMSN 050420Z 21007KT 10SM CLR M09/M14 A3041 420 64 -2400 210/07 RMK AO2
14837KMSN MSN20020204222509602/04/02 22:25:31  5-MIN KMSN 050425Z 22007KT 10SM CLR M08/M14 A3041 420 62 -2300 220/07 RMK AO2
14837KMSN MSN20020204223009602/04/02 22:30:31  5-MIN KMSN 050430Z 21007KT 10SM CLR M09/M14 A3041 420 64 -2400 210/07 RMK AO2
14837KMSN MSN20020204223509602/04/02 22:35:31  5-MIN KMSN 050435Z 22006KT 10SM CLR M09/M14 A3041 420 64 -2400 220/06 RMK AO2
14837KMSN MSN20020204224009602/04/02 22:40:31  5-MIN KMSN 050440Z 21005KT 10SM CLR M09/M14 A3040 420 64 -2400 210/05 RMK AO2
14837KMSN MSN20020204224509602/04/02 22:45:31  5-MIN KMSN 050445Z 22005KT 10SM CLR M09/M14 A3040 420 64 -2400 220/05 RMK AO2
14837KMSN MSN20020204225011302/04/02 22:50:31  5-MIN KMSN 050450Z 21006KT 10SM CLR M09/M14 A3040 420 64 -2400 210/06 RMK AO2 SLP313 T10891144
14837KMSN MSN20020204225509602/04/02 22:55:31  5-MIN KMSN 050455Z 22007KT 10SM CLR M09/M14 A3040 420 64 -2400 220/07 RMK AO2
14837KMSN MSN20020204230009602/04/02 23:00:31  5-MIN KMSN 050500Z 22007KT 10SM CLR M09/M14 A3041 420 64 -2400 210/07 RMK AO2
14837KMSN MSN20020204230509602/04/02 23:05:31  5-MIN KMSN 050505Z 23007KT 10SM CLR M09/M14 A3041 420 64 -2400 230/07 RMK AO2
14837KMSN MSN20020205020509602/05/02 02:05:31  5-MIN KMSN 050805Z 21008KT 10SM CLR M09/M16 A3037 450 59 -2300 210/08 RMK AO2
14837KMSN MSN20020205021009602/05/02 02:10:31  5-MIN KMSN 050810Z 21010KT 10SM CLR M09/M16 A3037 450 59 -2300 210/10 RMK AO2
14837KMSN MSN20020205021509602/05/02 02:15:31  5-MIN KMSN 050815Z 21008KT 10SM CLR M09/M15 A3037 450 61 -2300 210/08 RMK AO2
14837KMSN MSN20020205022010202/05/02 02:20:31  5-MIN KMSN 050820Z 22010G15KT 10SM CLR M09/M15 A3038 450 61 -2300 220/10G15 RMK AO2
14837KMSN MSN20020205022510202/05/02 02:25:31  5-MIN KMSN 050825Z 22008G15KT 10SM CLR M09/M15 A3038 450 61 -2300 210/08G15 RMK AO2
14837KMSN MSN20020205023009602/05/02 02:30:31  5-MIN KMSN 050830Z 21009KT 10SM CLR M09/M15 A3037 450 61 -2300 210/09 RMK AO2
14837KMSN MSN20020205023509602/05/02 02:35:31  5-MIN KMSN 050835Z 21008KT 10SM CLR M09/M15 A3037 450 61 -2300 210/08 RMK AO2
14837KMSN MSN20020205024009602/05/02 02:40:31  5-MIN KMSN 050840Z 22008KT 10SM CLR M09/M16 A3037 450 59 -2300 220/08 RMK AO2
14837KMSN MSN20020205024511202/05/02 02:45:31  5-MIN KMSN 050845Z 21009KT 180V240 10SM CLR M09/M15 A3036 460 61 -2300 210/09 180V240 RMK AO2
14837KMSN MSN20020205025011902/05/02 02:50:31  5-MIN KMSN 050850Z 22007KT 10SM CLR M09/M15 A3036 460 61 -2300 220/07 RMK AO2 SLP298 T10891150 58008
14837KMSN MSN20020205025509602/05/02 02:55:31  5-MIN KMSN 050855Z 22008KT 10SM CLR M08/M14 A3036 460 62 -2200 220/08 RMK AO2
14837KMSN MSN20020205030010202/05/02 03:00:31  5-MIN KMSN 050900Z 22009G17KT 10SM CLR M08/M14 A3036 460 62 -2200 220/09G17 RMK AO2
14837KMSN MSN20020205030510202/05/02 03:05:31  5-MIN KMSN 050905Z 22010G17KT 10SM CLR M08/M15 A3035 470 59 -2200 220/10G17 RMK AO2
14837KMSN MSN20020205031011202/05/02 03:10:31  5-MIN KMSN 050910Z 23008KT 200V270 10SM CLR M08/M14 A3035 470 62 -2200 230/08 200V270 RMK AO2
14837KMSN MSN20020205031511202/05/02 03:15:31  5-MIN KMSN 050915Z 22009KT 190V250 10SM CLR M08/M14 A3035 470 62 -2200 220/09 190V250 RMK AO2
14837KMSN MSN20020205032009602/05/02 03:20:31  5-MIN KMSN 050920Z 23009KT 10SM CLR M08/M14 A3035 470 62 -2200 230/09 RMK AO2
14837KMSN MSN20020205032510202/05/02 03:25:31  5-MIN KMSN 050925Z 23009G15KT 10SM CLR M09/M14 A3034 480 64 -2300 230/09G15 RMK AO2
14837KMSN MSN20020205033010202/05/02 03:30:31  5-MIN KMSN 050930Z 23011G15KT 10SM CLR M09/M14 A3034 480 64 -2300 230/11G15 RMK AO2
14837KMSN MSN20020205033510202/05/02 03:35:31  5-MIN KMSN 050935Z 23009G15KT 10SM CLR M09/M14 A3034 480 64 -2300 230/09G15 RMK AO2
14837KMSN MSN20020205034010202/05/02 03:40:31  5-MIN KMSN 050940Z 23010G15KT 10SM CLR M09/M14 A3033 480 64 -2300 230/10G15 RMK AO2
14837KMSN MSN20020205034510202/05/02 03:45:31  5-MIN KMSN 050945Z 23010G15KT 10SM CLR M09/M14 A3033 490 64 -2300 230/10G15 RMK AO2
14837KMSN MSN20020205035011302/05/02 03:50:31  5-MIN KMSN 050950Z 24009KT 10SM CLR M09/M14 A3033 490 64 -2300 240/09 RMK AO2 SLP287 T10891144
14837KMSN MSN20020205035509602/05/02 03:55:31  5-MIN KMSN 050955Z 24009KT 10SM CLR M09/M14 A3033 480 64 -2300 240/09 RMK AO2
14837KMSN MSN20020205040009602/05/02 04:00:31  5-MIN KMSN 051000Z 23008KT 10SM CLR M09/M14 A3034 480 64 -2300 230/08 RMK AO2
14837KMSN MSN20020205040510202/05/02 04:05:31  5-MIN KMSN 051005Z 24010G15KT 10SM CLR M09/M14 A3034 480 64 -2300 240/10G15 RMK AO2
14837KMSN MSN20020205041010202/05/02 04:10:31  5-MIN KMSN 051010Z 23008G15KT 10SM CLR M09/M14 A3033 480 64 -2300 230/08G15 RMK AO2
14837KMSN MSN20020205041510202/05/02 04:15:31  5-MIN KMSN 051015Z 23012G19KT 10SM CLR M09/M14 A3032 490 67 -2300 230/12G19 RMK AO2
14837KMSN MSN20020205042010202/05/02 04:20:31  5-MIN KMSN 051020Z 22011G19KT 10SM CLR M09/M14 A3032 490 64 -2300 220/11G19 RMK AO2
14837KMSN MSN20020205042509602/05/02 04:25:31  5-MIN KMSN 051025Z 22010KT 10SM CLR M09/M14 A3032 500 67 -2300 220/10 RMK AO2
14837KMSN MSN20020205043010202/05/02 04:30:31  5-MIN KMSN 051030Z 23010G18KT 10SM CLR M09/M14 A3032 500 67 -2300 220/10G18 RMK AO2
14837KMSN MSN20020205043510202/05/02 04:35:31  5-MIN KMSN 051035Z 23009G18KT 10SM CLR M09/M14 A3032 500 67 -2300 230/09G18 RMK AO2
14837KMSN MSN20020205044010202/05/02 04:40:31  5-MIN KMSN 051040Z 23008G14KT 10SM CLR M09/M14 A3032 500 67 -2300 230/08G14 RMK AO2
14837KMSN MSN20020205044510202/05/02 04:45:31  5-MIN KMSN 051045Z 25010G15KT 10SM CLR M09/M14 A3032 500 67 -2300 250/10G15 RMK AO2
14837KMSN MSN20020205045013502/05/02 04:50:31  5-MIN KMSN 051050Z 24007G15KT 200V280 10SM CLR M09/M14 A3032 500 67 -2300 240/07G15 200V280 RMK AO2 SLP283 T10891139
14837KMSN MSN20020205045509602/05/02 04:55:31  5-MIN KMSN 051055Z VRB05KT 10SM CLR M08/M14 A3032 500 64 -2200 VRB/05 RMK AO2
14837KMSN MSN20020205050011202/05/02 05:00:31  5-MIN KMSN 051100Z 25007KT 200V310 10SM CLR M09/M13 A3032 500 70 -2300 250/07 200V310 RMK AO2
14837KMSN MSN20020205050510202/05/02 05:05:31  5-MIN KMSN 051105Z 24011G14KT 10SM CLR M08/M14 A3032 500 64 -2200 240/11G14 RMK AO2
14837KMSN MSN20020205051010202/05/02 05:10:31  5-MIN KMSN 051110Z 24008G15KT 10SM CLR M08/M13 A3032 490 67 -2200 240/08G15 RMK AO2
14837KMSN MSN20020205051510202/05/02 05:15:31  5-MIN KMSN 051115Z 23008G15KT 10SM CLR M08/M13 A3032 500 67 -2200 230/08G15 RMK AO2
14837KMSN MSN20020205052010202/05/02 05:20:31  5-MIN KMSN 051120Z 24011G15KT 10SM CLR M08/M13 A3032 500 67 -2200 240/11G15 RMK AO2
14837KMSN MSN20020205052511802/05/02 05:25:31  5-MIN KMSN 051125Z 23008G15KT 200V260 10SM CLR M08/M13 A3031 500 67 -2200 230/08G15 200V260 RMK AO2
14837KMSN MSN20020205053010202/05/02 05:30:31  5-MIN KMSN 051130Z 23009G14KT 10SM CLR M08/M13 A3031 500 67 -2200 230/09G14 RMK AO2
14837KMSN MSN20020205053510202/05/02 05:35:31  5-MIN KMSN 051135Z 23010G15KT 10SM CLR M08/M13 A3031 500 67 -2200 230/10G15 RMK AO2
14837KMSN MSN20020205054010202/05/02 05:40:31  5-MIN KMSN 051140Z 23008G15KT 10SM CLR M08/M13 A3032 500 67 -2200 230/08G15 RMK AO2
14837KMSN MSN20020205054509602/05/02 05:45:31  5-MIN KMSN 051145Z 23008KT 10SM CLR M08/M13 A3032 500 67 -2200 230/08 RMK AO2
14837KMSN MSN20020205055014302/05/02 05:50:31  5-MIN KMSN 051150Z 23009G14KT 10SM CLR M08/M13 A3031 500 67 -2200 230/09G14 RMK AO2 SLP282 4/002 T10831133 11083 21094 58012
14837KMSN MSN20020205055510202/05/02 05:55:31  5-MIN KMSN 051155Z 25008G14KT 10SM CLR M08/M13 A3032 500 67 -2200 240/08G14 RMK AO2
14837KMSN MSN20020205060009602/05/02 06:00:31  5-MIN KMSN 051200Z 24007KT 10SM CLR M08/M13 A3032 500 67 -2200 240/07 RMK AO2
14837KMSN MSN20020205060509602/05/02 06:05:31  5-MIN KMSN 051205Z 23007KT 10SM CLR M08/M13 A3031 500 67 -2200 230/07 RMK AO2
14837KMSN MSN20020205061009602/05/02 06:10:31  5-MIN KMSN 051210Z 24007KT 10SM CLR M09/M13 A3032 500 70 -2300 240/07 RMK AO2
14837KMSN MSN20020205061509602/05/02 06:15:31  5-MIN KMSN 051215Z 24005KT 10SM CLR M09/M13 A3031 500 70 -2300 240/05 RMK AO2
14837KMSN MSN20020205062009602/05/02 06:20:31  5-MIN KMSN 051220Z 23008KT 10SM CLR M09/M13 A3031 500 70 -2300 230/08 RMK AO2
14837KMSN MSN20020205062509602/05/02 06:25:31  5-MIN KMSN 051225Z 23006KT 10SM CLR M09/M13 A3031 500 70 -2300 230/06 RMK AO2
14837KMSN MSN20020205063009602/05/02 06:30:31  5-MIN KMSN 051230Z 24005KT 10SM CLR M09/M13 A3031 500 70 -2300 240/05 RMK AO2
14837KMSN MSN20020205063509602/05/02 06:35:31  5-MIN KMSN 051235Z VRB06KT 10SM CLR M08/M13 A3032 500 70 -2200 VRB/06 RMK AO2
14837KMSN MSN20020205064009602/05/02 06:40:31  5-MIN KMSN 051240Z 23006KT 10SM CLR M09/M13 A3031 500 70 -2300 230/06 RMK AO2
14837KMSN MSN20020205064509602/05/02 06:45:31  5-MIN KMSN 051245Z 22007KT 10SM CLR M08/M13 A3031 500 70 -2200 220/07 RMK AO2
14837KMSN MSN20020205065011302/05/02 06:50:31  5-MIN KMSN 051250Z 23006KT 10SM CLR M08/M13 A3031 500 70 -2200 230/06 RMK AO2 SLP282 T10831128
14837KMSN MSN20020205065509602/05/02 06:55:31  5-MIN KMSN 051255Z 23005KT 10SM CLR M08/M13 A3031 500 67 -2200 230/05 RMK AO2
14837KMSN MSN20020205070009602/05/02 07:00:31  5-MIN KMSN 051300Z VRB05KT 10SM CLR M08/M13 A3031 500 70 -2200 VRB/05 RMK AO2
14837KMSN MSN20020205070509602/05/02 07:05:31  5-MIN KMSN 051305Z 23005KT 10SM CLR M08/M13 A3031 500 70 -2200 230/05 RMK AO2
14837KMSN MSN20020205071009502/05/02 07:10:31  5-MIN KMSN 051310Z 23006KT 9SM CLR M08/M13 A3031 500 70 -2200 230/06 RMK AO2
14837KMSN MSN20020205071509502/05/02 07:15:31  5-MIN KMSN 051315Z 23006KT 9SM CLR M08/M13 A3031 510 70 -2200 230/06 RMK AO2
14837KMSN MSN20020205072009502/05/02 07:20:31  5-MIN KMSN 051320Z 23007KT 9SM CLR M08/M13 A3031 500 70 -2200 230/07 RMK AO2
14837KMSN MSN20020205072509502/05/02 07:25:31  5-MIN KMSN 051325Z 24005KT 9SM CLR M08/M13 A3031 500 70 -2200 240/05 RMK AO2
14837KMSN MSN20020205073009502/05/02 07:30:31  5-MIN KMSN 051330Z 24005KT 9SM CLR M08/M13 A3031 500 70 -2200 240/05 RMK AO2
14837KMSN MSN20020205073509502/05/02 07:35:31  5-MIN KMSN 051335Z 23005KT 9SM CLR M08/M13 A3031 500 70 -2200 230/05 RMK AO2
14837KMSN MSN20020205074009502/05/02 07:40:31  5-MIN KMSN 051340Z 23005KT 8SM CLR M08/M13 A3031 510 70 -2200 230/05 RMK AO2
14837KMSN MSN20020205074509502/05/02 07:45:31  5-MIN KMSN 051345Z 24004KT 8SM CLR M08/M13 A3031 500 70 -2200 240/04 RMK AO2
14837KMSN MSN20020205075011302/05/02 07:50:31  5-MIN KMSN 051350Z VRB04KT 10SM CLR M08/M12 A3031 500 74 -2200 VRB/04 RMK AO2 SLP281 T10831122
14837KMSN MSN20020205075509502/05/02 07:55:31  5-MIN KMSN 051355Z VRB05KT 8SM CLR M08/M13 A3031 510 67 -2100 VRB/05 RMK AO2
14837KMSN MSN20020205080009602/05/02 08:00:31  5-MIN KMSN 051400Z VRB04KT 10SM CLR M08/M13 A3031 500 67 -2100 VRB/04 RMK AO2
14837KMSN MSN20020205080509602/05/02 08:05:31  5-MIN KMSN 051405Z VRB04KT 10SM CLR M08/M13 A3031 510 67 -2100 VRB/04 RMK AO2
14837KMSN MSN20020205081009602/05/02 08:10:31  5-MIN KMSN 051410Z VRB05KT 10SM CLR M08/M12 A3031 510 71 -2100 VRB/05 RMK AO2
14837KMSN MSN20020205081509602/05/02 08:15:31  5-MIN KMSN 051415Z 26006KT 10SM CLR M07/M13 A3031 510 65 -2000 260/06 RMK AO2
14837KMSN MSN20020205082009602/05/02 08:20:31  5-MIN KMSN 051420Z 25006KT 10SM CLR M07/M13 A3031 500 65 -2000 250/06 RMK AO2
14837KMSN MSN20020205082509602/05/02 08:25:31  5-MIN KMSN 051425Z VRB06KT 10SM CLR M07/M13 A3031 500 65 -2000 VRB/06 RMK AO2
14837KMSN MSN20020205083009602/05/02 08:30:31  5-MIN KMSN 051430Z 25007KT 10SM CLR M07/M13 A3031 500 65 -2000 250/07 RMK AO2
14837KMSN MSN20020205083509602/05/02 08:35:31  5-MIN KMSN 051435Z 25008KT 10SM CLR M07/M13 A3031 500 65 -2000 250/08 RMK AO2
14837KMSN MSN20020205084009602/05/02 08:40:31  5-MIN KMSN 051440Z 28008KT 10SM CLR M07/M13 A3032 500 65 -2000 280/08 RMK AO2
14837KMSN MSN20020205084509602/05/02 08:45:31  5-MIN KMSN 051445Z 27006KT 10SM CLR M07/M13 A3032 500 62 -2000 270/06 RMK AO2
14837KMSN MSN20020205085011902/05/02 08:50:31  5-MIN KMSN 051450Z 25009KT 10SM CLR M07/M13 A3032 500 62 -2000 250/09 RMK AO2 SLP283 T10671128 56015
14837KMSN MSN20020205085509502/05/02 08:55:31  5-MIN KMSN 051455Z 25007KT 9SM CLR M07/M13 A3032 500 62 -2000 250/07 RMK AO2
14837KMSN MSN20020205090009602/05/02 09:00:31  5-MIN KMSN 051500Z 25009KT 10SM CLR M07/M13 A3032 500 62 -2000 250/09 RMK AO2
14837KMSN MSN20020205090511202/05/02 09:05:31  5-MIN KMSN 051505Z 25008KT 200V290 10SM CLR M07/M12 A3031 500 65 -2000 250/08 200V290 RMK AO2
14837KMSN MSN20020205091009602/05/02 09:10:31  5-MIN KMSN 051510Z 27011KT 10SM CLR M07/M12 A3031 500 65 -2000 270/11 RMK AO2
14837KMSN MSN20020205091509602/05/02 09:15:31  5-MIN KMSN 051515Z 26009KT 10SM CLR M07/M12 A3031 500 65 -2000 260/09 RMK AO2
14837KMSN MSN20020205092009602/05/02 09:20:31  5-MIN KMSN 051520Z 26008KT 10SM CLR M07/M12 A3031 510 65 -2000 260/08 RMK AO2
14837KMSN MSN20020205092509602/05/02 09:25:31  5-MIN KMSN 051525Z VRB06KT 10SM CLR M07/M12 A3031 510 65 -2000 VRB/06 RMK AO2
14837KMSN MSN20020205093009602/05/02 09:30:31  5-MIN KMSN 051530Z VRB06KT 10SM CLR M06/M12 A3031 510 62 -1900 VRB/06 RMK AO2
14837KMSN MSN20020205093509602/05/02 09:35:31  5-MIN KMSN 051535Z VRB06KT 10SM CLR M06/M12 A3031 500 62 -1900 VRB/06 RMK AO2
14837KMSN MSN20020205094011202/05/02 09:40:31  5-MIN KMSN 051540Z 24007KT 220V280 10SM CLR M06/M12 A3031 510 65 -1900 240/07 220V280 RMK AO2
14837KMSN MSN20020205094509602/05/02 09:45:31  5-MIN KMSN 051545Z 27007KT 10SM CLR M06/M12 A3031 500 62 -1900 270/07 RMK AO2
14837KMSN MSN20020205095011302/05/02 09:50:31  5-MIN KMSN 051550Z 27006KT 10SM CLR M06/M12 A3032 500 65 -1900 270/06 RMK AO2 SLP282 T10611117
14837KMSN MSN20020205095509602/05/02 09:55:31  5-MIN KMSN 051555Z 26007KT 10SM CLR M06/M12 A3031 500 62 -1800 260/07 RMK AO2
14837KMSN MSN20020205100009602/05/02 10:00:31  5-MIN KMSN 051600Z 25007KT 10SM CLR M06/M12 A3031 500 65 -1900 250/07 RMK AO2
14837KMSN MSN20020205100509602/05/02 10:05:31  5-MIN KMSN 051605Z 27008KT 10SM CLR M06/M12 A3031 500 62 -1800 270/08 RMK AO2
14837KMSN MSN20020205101009602/05/02 10:10:31  5-MIN KMSN 051610Z 25008KT 10SM CLR M06/M12 A3031 510 62 -1800 250/08 RMK AO2
14837KMSN MSN20020205101509602/05/02 10:15:31  5-MIN KMSN 051615Z 28009KT 10SM CLR M06/M12 A3031 500 62 -1800 280/09 RMK AO2
14837KMSN MSN20020205102009602/05/02 10:20:31  5-MIN KMSN 051620Z 28009KT 10SM CLR M05/M12 A3031 500 60 -1800 280/09 RMK AO2
14837KMSN MSN20020205102509602/05/02 10:25:31  5-MIN KMSN 051625Z 26008KT 10SM CLR M05/M12 A3031 500 60 -1800 260/08 RMK AO2
14837KMSN MSN20020205103011202/05/02 10:30:31  5-MIN KMSN 051630Z 27008KT 230V290 10SM CLR M05/M12 A3031 500 60 -1800 270/08 230V290 RMK AO2
14837KMSN MSN20020205103509602/05/02 10:35:31  5-MIN KMSN 051635Z 28007KT 10SM CLR M05/M12 A3031 500 60 -1800 280/07 RMK AO2
14837KMSN MSN20020205104009602/05/02 10:40:31  5-MIN KMSN 051640Z 28010KT 10SM CLR M05/M11 A3031 500 62 -1800 280/10 RMK AO2
14837KMSN MSN20020205104511202/05/02 10:45:31  5-MIN KMSN 051645Z 26009KT 230V300 10SM CLR M05/M12 A3031 500 60 -1800 260/09 230V300 RMK AO2
14837KMSN MSN20020205105011302/05/02 10:50:31  5-MIN KMSN 051650Z 27008KT 10SM CLR M05/M12 A3031 500 60 -1800 270/08 RMK AO2 SLP280 T10501117
14837KMSN MSN20020205105509602/05/02 10:55:31  5-MIN KMSN 051655Z VRB05KT 10SM CLR M04/M11 A3031 500 60 -1700 VRB/05 RMK AO2
14837KMSN MSN20020205110011202/05/02 11:00:31  5-MIN KMSN 051700Z 26008KT 230V310 10SM CLR M04/M11 A3031 510 60 -1700 260/08 230V310 RMK AO2
14837KMSN MSN20020205110509602/05/02 11:05:31  5-MIN KMSN 051705Z 26007KT 10SM CLR M05/M11 A3030 510 62 -1700 260/07 RMK AO2
14837KMSN MSN20020205111009602/05/02 11:10:31  5-MIN KMSN 051710Z 26007KT 10SM CLR M04/M11 A3030 510 60 -1700 250/07 RMK AO2
14837KMSN MSN20020205111509602/05/02 11:15:31  5-MIN KMSN 051715Z VRB05KT 10SM CLR M04/M11 A3030 510 60 -1700 VRB/05 RMK AO2
14837KMSN MSN20020205112009602/05/02 11:20:31  5-MIN KMSN 051720Z VRB04KT 10SM CLR M04/M11 A3030 510 60 -1700 VRB/04 RMK AO2
14837KMSN MSN20020205112509602/05/02 11:25:31  5-MIN KMSN 051725Z 26007KT 10SM CLR M04/M11 A3030 520 60 -1700 260/07 RMK AO2
14837KMSN MSN20020205113009602/05/02 11:30:31  5-MIN KMSN 051730Z 26007KT 10SM CLR M04/M11 A3030 520 57 -1600 260/07 RMK AO2
14837KMSN MSN20020205113509602/05/02 11:35:31  5-MIN KMSN 051735Z 26007KT 10SM CLR M04/M11 A3029 520 60 -1700 250/07 RMK AO2
14837KMSN MSN20020205114009602/05/02 11:40:31  5-MIN KMSN 051740Z 26007KT 10SM CLR M04/M11 A3030 520 57 -1600 260/07 RMK AO2
14837KMSN MSN20020205114509602/05/02 11:45:31  5-MIN KMSN 051745Z VRB05KT 10SM CLR M04/M11 A3029 520 57 -1600 VRB/05 RMK AO2
14837KMSN MSN20020205115013102/05/02 11:50:31  5-MIN KMSN 051750Z 28007KT 10SM CLR M03/M11 A3029 520 57 -1500 280/07 RMK AO2 SLP273 T10331106 11033 21089 53000
14837KMSN MSN20020205115509502/05/02 11:55:31  5-MIN KMSN 051755Z VRB04KT 9SM CLR M04/M11 A3029 520 60 -1600 VRB/04 RMK AO2
14837KMSN MSN20020205120009602/05/02 12:00:31  5-MIN KMSN 051800Z 28006KT 10SM CLR M03/M11 A3029 520 57 -1500 270/06 RMK AO2
14837KMSN MSN20020205120509602/05/02 12:05:31  5-MIN KMSN 051805Z VRB06KT 10SM CLR M03/M11 A3029 530 57 -1500 VRB/06 RMK AO2
14837KMSN MSN20020205121009602/05/02 12:10:31  5-MIN KMSN 051810Z 24007KT 10SM CLR M03/M10 A3028 530 60 -1500 240/07 RMK AO2
14837KMSN MSN20020205121509602/05/02 12:15:31  5-MIN KMSN 051815Z 25007KT 10SM CLR M03/M11 A3028 530 57 -1500 250/07 RMK AO2
14837KMSN MSN20020205122009602/05/02 12:20:31  5-MIN KMSN 051820Z 24007KT 10SM CLR M03/M11 A3028 540 57 -1500 240/07 RMK AO2
14837KMSN MSN20020205122509602/05/02 12:25:31  5-MIN KMSN 051825Z VRB06KT 10SM CLR M03/M11 A3027 540 55 -1400 VRB/06 RMK AO2
14837KMSN MSN20020205123009602/05/02 12:30:31  5-MIN KMSN 051830Z 25008KT 10SM CLR M03/M11 A3027 540 55 -1400 250/08 RMK AO2
14837KMSN MSN20020205123509602/05/02 12:35:31  5-MIN KMSN 051835Z 28006KT 10SM CLR M03/M10 A3027 540 58 -1400 270/06 RMK AO2
14837KMSN MSN20020205124009602/05/02 12:40:31  5-MIN KMSN 051840Z VRB05KT 10SM CLR M02/M10 A3027 540 55 -1300 VRB/05 RMK AO2
14837KMSN MSN20020205124509602/05/02 12:45:31  5-MIN KMSN 051845Z 23005KT 10SM CLR M03/M10 A3027 540 58 -1400 230/05 RMK AO2
14837KMSN MSN20020205125011302/05/02 12:50:31  5-MIN KMSN 051850Z 25006KT 10SM CLR M02/M10 A3027 550 55 -1300 250/06 RMK AO2 SLP263 T10221100
14837KMSN MSN20020205125509602/05/02 12:55:31  5-MIN KMSN 051855Z VRB06KT 10SM CLR M02/M10 A3026 550 55 -1300 VRB/06 RMK AO2
14837KMSN MSN20020205130009602/05/02 13:00:31  5-MIN KMSN 051900Z 21006KT 10SM CLR M02/M10 A3026 550 55 -1300 210/06 RMK AO2
14837KMSN MSN20020205130509602/05/02 13:05:31  5-MIN KMSN 051905Z 20005KT 10SM CLR M02/M09 A3026 550 58 -1300 200/05 RMK AO2
14837KMSN MSN20020205131009602/05/02 13:10:31  5-MIN KMSN 051910Z 22005KT 10SM CLR M02/M09 A3026 550 58 -1300 220/05 RMK AO2
14837KMSN MSN20020205131509602/05/02 13:15:31  5-MIN KMSN 051915Z 23005KT 10SM CLR M02/M09 A3026 560 58 -1300 230/05 RMK AO2
14837KMSN MSN20020205132009602/05/02 13:20:31  5-MIN KMSN 051920Z 22005KT 10SM CLR M02/M09 A3026 560 58 -1300 220/05 RMK AO2
14837KMSN MSN20020205132509602/05/02 13:25:31  5-MIN KMSN 051925Z VRB05KT 10SM CLR M02/M09 A3025 560 58 -1300 VRB/05 RMK AO2
14837KMSN MSN20020205133009602/05/02 13:30:31  5-MIN KMSN 051930Z 20007KT 10SM CLR M02/M09 A3024 570 58 -1300 200/07 RMK AO2
14837KMSN MSN20020205133509602/05/02 13:35:31  5-MIN KMSN 051935Z VRB06KT 10SM CLR M02/M09 A3024 570 58 -1300 VRB/06 RMK AO2
14837KMSN MSN20020205134009602/05/02 13:40:31  5-MIN KMSN 051940Z 25007KT 10SM CLR M02/M10 A3024 570 53 -1200 250/07 RMK AO2
14837KMSN MSN20020205134509602/05/02 13:45:31  5-MIN KMSN 051945Z 21007KT 10SM CLR M02/M10 A3024 570 53 -1200 210/07 RMK AO2
14837KMSN MSN20020205135011302/05/02 13:50:31  5-MIN KMSN 051950Z VRB05KT 10SM CLR M02/M09 A3024 570 55 -1200 VRB/05 RMK AO2 SLP255 T10171094
14837KMSN MSN20020205135509602/05/02 13:55:31  5-MIN KMSN 051955Z 24006KT 10SM CLR M02/M09 A3024 570 55 -1200 240/06 RMK AO2
14837KMSN MSN20020205140009602/05/02 14:00:31  5-MIN KMSN 052000Z 20006KT 10SM CLR M02/M09 A3024 570 55 -1200 200/06 RMK AO2
14837KMSN MSN20020205144509602/05/02 14:45:31  5-MIN KMSN 052045Z 23006KT 10SM CLR M01/M09 A3022 590 53 -1100 230/06 RMK AO2
14837KMSN MSN20020205145011902/05/02 14:50:31  5-MIN KMSN 052050Z 26005KT 10SM CLR M01/M09 A3022 590 53 -1100 250/05 RMK AO2 SLP248 T10061089 58008
14837KMSN MSN20020205145509502/05/02 14:55:31  5-MIN KMSN 052055Z 24007KT 9SM CLR M01/M09 A3022 590 53 -1100 240/07 RMK AO2
14837KMSN MSN20020205150009502/05/02 15:00:31  5-MIN KMSN 052100Z 25008KT 9SM CLR M01/M09 A3022 590 53 -1100 250/08 RMK AO2
14837KMSN MSN20020205150509602/05/02 15:05:31  5-MIN KMSN 052105Z 22007KT 10SM CLR M01/M09 A3022 590 53 -1100 220/07 RMK AO2
14837KMSN MSN20020205151009602/05/02 15:10:31  5-MIN KMSN 052110Z 23006KT 10SM CLR M01/M09 A3022 590 53 -1100 230/06 RMK AO2
14837KMSN MSN20020205151509602/05/02 15:15:31  5-MIN KMSN 052115Z 22006KT 10SM CLR M01/M09 A3022 590 53 -1100 220/06 RMK AO2
14837KMSN MSN20020205152009602/05/02 15:20:31  5-MIN KMSN 052120Z 24004KT 10SM CLR M01/M08 A3022 590 56 -1100 230/04 RMK AO2
14837KMSN MSN20020205152509602/05/02 15:25:31  5-MIN KMSN 052125Z 22005KT 10SM CLR M01/M08 A3022 590 56 -1100 220/05 RMK AO2
14837KMSN MSN20020205153009602/05/02 15:30:31  5-MIN KMSN 052130Z 22008KT 10SM CLR M01/M08 A3022 590 56 -1100 220/08 RMK AO2
14837KMSN MSN20020205153509602/05/02 15:35:31  5-MIN KMSN 052135Z 22006KT 10SM CLR M01/M08 A3022 580 56 -1100 220/06 RMK AO2
14837KMSN MSN20020205154009602/05/02 15:40:31  5-MIN KMSN 052140Z 21006KT 10SM CLR M01/M08 A3022 580 56 -1100 210/06 RMK AO2
14837KMSN MSN20020205154509602/05/02 15:45:31  5-MIN KMSN 052145Z 21005KT 10SM CLR M01/M08 A3023 580 56 -1100 210/05 RMK AO2
14837KMSN MSN20020205155011302/05/02 15:50:31  5-MIN KMSN 052150Z 22006KT 10SM CLR M01/M08 A3022 590 56 -1100 220/06 RMK AO2 SLP248 T10061083
14837KMSN MSN20020205155509502/05/02 15:55:31  5-MIN KMSN 052155Z 24004KT 9SM CLR M01/M08 A3022 590 56 -1100 240/04 RMK AO2
14837KMSN MSN20020205160009502/05/02 16:00:31  5-MIN KMSN 052200Z VRB04KT 10SM CLR 00/M08 A3022 580 56 -1000 VRB/04 RMK AO2
14837KMSN MSN20020205160509502/05/02 16:05:31  5-MIN KMSN 052205Z 23005KT 10SM CLR 00/M08 A3022 580 56 -1000 230/05 RMK AO2
14837KMSN MSN20020205161009502/05/02 16:10:31  5-MIN KMSN 052210Z 23004KT 10SM CLR 00/M08 A3022 590 56 -1000 230/04 RMK AO2
14837KMSN MSN20020205161509502/05/02 16:15:31  5-MIN KMSN 052215Z 24004KT 10SM CLR 00/M08 A3022 590 56 -1000 240/04 RMK AO2
14837KMSN MSN20020205162009502/05/02 16:20:31  5-MIN KMSN 052220Z VRB04KT 10SM CLR 00/M08 A3022 590 53 -1000 VRB/04 RMK AO2
14837KMSN MSN20020205162509502/05/02 16:25:31  5-MIN KMSN 052225Z 25003KT 10SM CLR 00/M08 A3022 590 53 -1000 250/03 RMK AO2
14837KMSN MSN20020205163009502/05/02 16:30:31  5-MIN KMSN 052230Z VRB03KT 10SM CLR 00/M08 A3022 590 56 -1000 VRB/03 RMK AO2
14837KMSN MSN20020205163509502/05/02 16:35:31  5-MIN KMSN 052235Z VRB04KT 10SM CLR 00/M08 A3022 590 53 -1000 VRB/04 RMK AO2
14837KMSN MSN20020205164009502/05/02 16:40:31  5-MIN KMSN 052240Z VRB04KT 10SM CLR 00/M08 A3022 590 53 -1000 VRB/04 RMK AO2
14837KMSN MSN20020205164509502/05/02 16:45:31  5-MIN KMSN 052245Z 23003KT 10SM CLR 00/M08 A3022 580 53 -1000 230/03 RMK AO2
14837KMSN MSN20020205165011302/05/02 16:50:31  5-MIN KMSN 052250Z VRB03KT 10SM CLR M01/M08 A3022 580 58 -1100 VRB/03 RMK AO2 SLP249 T10061078
14837KMSN MSN20020205165509502/05/02 16:55:31  5-MIN KMSN 052255Z 22003KT 8SM CLR M01/M08 A3022 580 58 -1100 220/03 RMK AO2
14837KMSN MSN20020205170009602/05/02 17:00:31  5-MIN KMSN 052300Z 23004KT 10SM CLR M01/M08 A3023 580 58 -1100 230/04 RMK AO2
14837KMSN MSN20020205170509602/05/02 17:05:31  5-MIN KMSN 052305Z VRB03KT 10SM CLR M01/M08 A3023 580 58 -1100 VRB/03 RMK AO2
14837KMSN MSN20020205171009602/05/02 17:10:31  5-MIN KMSN 052310Z 26003KT 10SM CLR M01/M08 A3023 580 58 -1100 250/03 RMK AO2
14837KMSN MSN20020205171509602/05/02 17:15:31  5-MIN KMSN 052315Z 24003KT 10SM CLR M01/M08 A3023 580 58 -1100 240/03 RMK AO2
14837KMSN MSN20020205172009602/05/02 17:20:31  5-MIN KMSN 052320Z VRB03KT 10SM CLR M01/M08 A3023 580 60 -1200 VRB/03 RMK AO2
14837KMSN MSN20020205172509602/05/02 17:25:31  5-MIN KMSN 052325Z 24003KT 10SM CLR M01/M08 A3023 580 60 -1200 240/03 RMK AO2
14837KMSN MSN20020205173009602/05/02 17:30:31  5-MIN KMSN 052330Z VRB03KT 10SM CLR M01/M08 A3023 580 60 -1200 VRB/03 RMK AO2
14837KMSN MSN20020205173509602/05/02 17:35:31  5-MIN KMSN 052335Z 22005KT 10SM CLR M01/M08 A3023 580 60 -1200 220/05 RMK AO2
14837KMSN MSN20020205174010202/05/02 17:40:31  5-MIN KMSN 052340Z 22005KT 10SM CLR M01/M08 A3023 580 60 -1200 220/05 RMK AO2 4/002
14837KMSN MSN20020205174510202/05/02 17:45:31  5-MIN KMSN 052345Z 22005KT 10SM CLR M02/M07 A3023 580 66 -1200 220/05 RMK AO2 4/002
14837KMSN MSN20020205175013702/05/02 17:50:31  5-MIN KMSN 052350Z 23005KT 10SM CLR M02/M08 A3023 580 63 -1200 220/05 RMK AO2 SLP251 4/002 T10171078 10000 21039 56023
14837KMSN MSN20020205175509502/05/02 17:55:31  5-MIN KMSN 052355Z 23004KT 9SM CLR M02/M08 A3023 580 63 -1200 230/04 RMK AO2
14837KMSN MSN20020205180009502/05/02 18:00:31  5-MIN KMSN 060000Z VRB03KT 9SM CLR M02/M08 A3023 580 63 -1200 VRB/03 RMK AO2
14837KMSN MSN20020205180509502/05/02 18:05:31  5-MIN KMSN 060005Z VRB04KT 9SM CLR M02/M08 A3023 580 63 -1200 VRB/04 RMK AO2
14837KMSN MSN20020205181009502/05/02 18:10:31  5-MIN KMSN 060010Z 24003KT 9SM CLR M02/M08 A3023 580 63 -1200 240/03 RMK AO2
14837KMSN MSN20020205181509502/05/02 18:15:31  5-MIN KMSN 060015Z 22003KT 8SM CLR M02/M08 A3022 580 66 -1300 220/03 RMK AO2
14837KMSN MSN20020205182009502/05/02 18:20:31  5-MIN KMSN 060020Z 00000KT 8SM CLR M02/M08 A3022 580 66 -1300 000/00 RMK AO2
14837KMSN MSN20020205182509502/05/02 18:25:31  5-MIN KMSN 060025Z VRB03KT 8SM CLR M02/M08 A3022 590 66 -1300 VRB/03 RMK AO2
14837KMSN MSN20020205183009502/05/02 18:30:31  5-MIN KMSN 060030Z 23003KT 8SM CLR M02/M08 A3022 590 66 -1300 230/03 RMK AO2
14837KMSN MSN20020205183509502/05/02 18:35:31  5-MIN KMSN 060035Z VRB03KT 8SM CLR M03/M08 A3022 590 68 -1400 VRB/03 RMK AO2
14837KMSN MSN20020205184009502/05/02 18:40:31  5-MIN KMSN 060040Z VRB03KT 8SM CLR M02/M08 A3022 590 66 -1300 VRB/03 RMK AO2
14837KMSN MSN20020205184509502/05/02 18:45:31  5-MIN KMSN 060045Z VRB03KT 8SM CLR M02/M08 A3022 590 66 -1300 VRB/03 RMK AO2
14837KMSN MSN20020205185011302/05/02 18:50:31  5-MIN KMSN 060050Z VRB03KT 10SM CLR M02/M08 A3022 580 66 -1300 VRB/03 RMK AO2 SLP249 T10221078
14837KMSN MSN20020205185509502/05/02 18:55:31  5-MIN KMSN 060055Z 24004KT 8SM CLR M02/M08 A3023 580 66 -1300 240/04 RMK AO2
14837KMSN MSN20020205190009502/05/02 19:00:31  5-MIN KMSN 060100Z VRB03KT 8SM CLR M02/M08 A3022 580 66 -1300 VRB/03 RMK AO2
14837KMSN MSN20020205190509502/05/02 19:05:31  5-MIN KMSN 060105Z 00000KT 8SM CLR M03/M08 A3022 590 68 -1400 000/00 RMK AO2
14837KMSN MSN20020205191009502/05/02 19:10:31  5-MIN KMSN 060110Z VRB03KT 8SM CLR M03/M08 A3022 590 68 -1400 VRB/03 RMK AO2
14837KMSN MSN20020205191509502/05/02 19:15:31  5-MIN KMSN 060115Z 00000KT 8SM CLR M03/M08 A3022 590 68 -1400 000/00 RMK AO2
14837KMSN MSN20020205192009502/05/02 19:20:31  5-MIN KMSN 060120Z 21003KT 8SM CLR M03/M08 A3022 590 68 -1400 210/03 RMK AO2
14837KMSN MSN20020205192509502/05/02 19:25:31  5-MIN KMSN 060125Z 22004KT 8SM CLR M03/M08 A3022 590 68 -1400 220/04 RMK AO2
14837KMSN MSN20020205193009502/05/02 19:30:31  5-MIN KMSN 060130Z 21005KT 8SM CLR M03/M08 A3022 590 68 -1400 210/05 RMK AO2
14837KMSN MSN20020205193509502/05/02 19:35:31  5-MIN KMSN 060135Z 22004KT 7SM CLR M03/M08 A3022 590 71 -1400 220/04 RMK AO2
14837KMSN MSN20020205194009502/05/02 19:40:31  5-MIN KMSN 060140Z 22005KT 7SM CLR M03/M08 A3021 590 71 -1400 220/05 RMK AO2
14837KMSN MSN20020205194509502/05/02 19:45:31  5-MIN KMSN 060145Z 21005KT 7SM CLR M03/M08 A3021 590 68 -1400 210/05 RMK AO2
14837KMSN MSN20020205195011302/05/02 19:50:31  5-MIN KMSN 060150Z 22005KT 10SM CLR M03/M07 A3022 590 74 -1400 220/05 RMK AO2 SLP246 T10331072
14837KMSN MSN20020205195509502/05/02 19:55:31  5-MIN KMSN 060155Z 21006KT 7SM CLR M03/M08 A3021 590 68 -1400 210/06 RMK AO2
14837KMSN MSN20020205200009502/05/02 20:00:31  5-MIN KMSN 060200Z 22004KT 9SM CLR M03/M08 A3022 590 68 -1400 220/04 RMK AO2
14837KMSN MSN20020205200509502/05/02 20:05:31  5-MIN KMSN 060205Z 23006KT 9SM CLR M03/M08 A3021 590 71 -1400 220/06 RMK AO2
14837KMSN MSN20020205201009502/05/02 20:10:31  5-MIN KMSN 060210Z 22006KT 9SM CLR M03/M08 A3021 590 71 -1400 220/06 RMK AO2
14837KMSN MSN20020205201509502/05/02 20:15:31  5-MIN KMSN 060215Z 21006KT 9SM CLR M03/M08 A3021 590 71 -1400 210/06 RMK AO2
14837KMSN MSN20020205202009502/05/02 20:20:31  5-MIN KMSN 060220Z 21006KT 9SM CLR M03/M08 A3021 590 71 -1400 210/06 RMK AO2
14837KMSN MSN20020205202509502/05/02 20:25:31  5-MIN KMSN 060225Z 22006KT 9SM CLR M03/M08 A3021 590 71 -1400 220/06 RMK AO2
14837KMSN MSN20020205203009502/05/02 20:30:31  5-MIN KMSN 060230Z 22006KT 9SM CLR M03/M08 A3021 590 71 -1400 220/06 RMK AO2
14837KMSN MSN20020205203509502/05/02 20:35:31  5-MIN KMSN 060235Z 22006KT 9SM CLR M03/M08 A3021 590 71 -1400 220/06 RMK AO2
14837KMSN MSN20020205204009502/05/02 20:40:31  5-MIN KMSN 060240Z 22007KT 9SM CLR M03/M08 A3021 590 71 -1400 220/07 RMK AO2
14837KMSN MSN20020205204509502/05/02 20:45:31  5-MIN KMSN 060245Z 22007KT 9SM CLR M03/M08 A3021 590 71 -1400 220/07 RMK AO2
14837KMSN MSN20020205205011802/05/02 20:50:31  5-MIN KMSN 060250Z 22006KT 9SM CLR M03/M07 A3021 590 74 -1400 220/06 RMK AO2 SLP245 T10331072 53002
14837KMSN MSN20020205205509802/05/02 20:55:31  5-MIN KMSN 060255Z 22006KT 6SM HZ CLR M04/M07 A3021 590 78 -1500 220/06 RMK AO2
14837KMSN MSN20020205210009502/05/02 21:00:31  5-MIN KMSN 060300Z 22006KT 8SM CLR M04/M08 A3021 600 74 -1500 220/06 RMK AO2
14837KMSN MSN20020205210509502/05/02 21:05:31  5-MIN KMSN 060305Z VRB05KT 8SM CLR M04/M08 A3021 600 74 -1500 VRB/05 RMK AO2
14837KMSN MSN20020205211009502/05/02 21:10:31  5-MIN KMSN 060310Z 23006KT 8SM CLR M04/M08 A3021 600 74 -1500 230/06 RMK AO2
14837KMSN MSN20020205211509502/05/02 21:15:31  5-MIN KMSN 060315Z 23006KT 8SM CLR M04/M08 A3021 600 74 -1500 230/06 RMK AO2
14837KMSN MSN20020205212009502/05/02 21:20:31  5-MIN KMSN 060320Z 23006KT 8SM CLR M04/M08 A3020 600 74 -1500 230/06 RMK AO2
14837KMSN MSN20020205212509502/05/02 21:25:31  5-MIN KMSN 060325Z 23006KT 8SM CLR M04/M08 A3020 600 74 -1500 230/06 RMK AO2
14837KMSN MSN20020205213009502/05/02 21:30:31  5-MIN KMSN 060330Z 23008KT 8SM CLR M04/M08 A3020 610 78 -1600 230/08 RMK AO2
14837KMSN MSN20020205213509502/05/02 21:35:31  5-MIN KMSN 060335Z 22007KT 8SM CLR M04/M08 A3020 610 78 -1600 220/07 RMK AO2
14837KMSN MSN20020205214009502/05/02 21:40:31  5-MIN KMSN 060340Z 22008KT 8SM CLR M04/M08 A3020 610 78 -1500 220/08 RMK AO2
14837KMSN MSN20020205214509502/05/02 21:45:31  5-MIN KMSN 060345Z VRB06KT 8SM CLR M04/M08 A3019 610 78 -1500 VRB/06 RMK AO2
14837KMSN MSN20020205215011202/05/02 21:50:31  5-MIN KMSN 060350Z 22007KT 8SM CLR M04/M07 A3020 610 81 -1500 220/07 RMK AO2 SLP239 T10441072
14837KMSN MSN20020205215509802/05/02 21:55:31  5-MIN KMSN 060355Z 23008KT 5SM HZ CLR M04/M08 A3019 610 78 -1500 230/08 RMK AO2
14837KMSN MSN20020205220009802/05/02 22:00:31  5-MIN KMSN 060400Z 23006KT 5SM HZ CLR M04/M07 A3019 620 81 -1500 230/06 RMK AO2
14837KMSN MSN20020205220509802/05/02 22:05:31  5-MIN KMSN 060405Z 23005KT 5SM HZ CLR M04/M08 A3019 620 78 -1500 230/05 RMK AO2
14837KMSN MSN20020205221009802/05/02 22:10:31  5-MIN KMSN 060410Z 23006KT 5SM HZ CLR M04/M08 A3019 620 78 -1500 230/06 RMK AO2
14837KMSN MSN20020205221509802/05/02 22:15:31  5-MIN KMSN 060415Z 22005KT 5SM HZ CLR M04/M08 A3019 620 78 -1500 220/05 RMK AO2
14837KMSN MSN20020205222009802/05/02 22:20:31  5-MIN KMSN 060420Z VRB05KT 5SM HZ CLR M04/M08 A3019 620 78 -1500 VRB/05 RMK AO2
14837KMSN MSN20020205222509802/05/02 22:25:31  5-MIN KMSN 060425Z VRB05KT 5SM HZ CLR M04/M08 A3019 620 78 -1500 VRB/05 RMK AO2
14837KMSN MSN20020205223009802/05/02 22:30:31  5-MIN KMSN 060430Z VRB03KT 5SM HZ CLR M04/M08 A3019 620 78 -1500 VRB/03 RMK AO2
14837KMSN MSN20020205223509802/05/02 22:35:31  5-MIN KMSN 060435Z VRB03KT 5SM HZ CLR M04/M08 A3019 620 78 -1500 VRB/03 RMK AO2
14837KMSN MSN20020205224009802/05/02 22:40:31  5-MIN KMSN 060440Z 00000KT 5SM HZ CLR M04/M08 A3019 620 78 -1500 000/00 RMK AO2
14837KMSN MSN20020205224509802/05/02 22:45:31  5-MIN KMSN 060445Z 00000KT 5SM HZ CLR M05/M08 A3019 620 81 -1600 000/00 RMK AO2
14837KMSN MSN20020205225011202/05/02 22:50:31  5-MIN KMSN 060450Z 00000KT 8SM CLR M05/M08 A3019 620 81 -1600 000/00 RMK AO2 SLP236 T10501078
14837KMSN MSN20020205225509802/05/02 22:55:31  5-MIN KMSN 060455Z 00000KT 5SM HZ CLR M05/M08 A3019 620 81 -1600 000/00 RMK AO2
14837KMSN MSN20020205230009802/05/02 23:00:31  5-MIN KMSN 060500Z 28004KT 5SM HZ CLR M05/M08 A3019 620 77 -1600 280/04 RMK AO2
14837KMSN MSN20020205230509802/05/02 23:05:31  5-MIN KMSN 060505Z 00000KT 5SM HZ CLR M05/M08 A3019 620 77 -1600 000/00 RMK AO2
14837KMSN MSN20020205231009802/05/02 23:10:31  5-MIN KMSN 060510Z 00000KT 5SM HZ CLR M05/M08 A3019 620 77 -1600 000/00 RMK AO2
14837KMSN MSN20020205231509802/05/02 23:15:31  5-MIN KMSN 060515Z 00000KT 5SM HZ CLR M05/M08 A3018 620 77 -1600 000/00 RMK AO2
14837KMSN MSN20020205232009802/05/02 23:20:31  5-MIN KMSN 060520Z 00000KT 5SM HZ CLR M05/M08 A3019 620 77 -1600 000/00 RMK AO2
14837KMSN MSN20020205232509802/05/02 23:25:31  5-MIN KMSN 060525Z 00000KT 5SM HZ CLR M06/M08 A3018 620 81 -1700 000/00 RMK AO2
14837KMSN MSN20020205233009802/05/02 23:30:31  5-MIN KMSN 060530Z 00000KT 5SM HZ CLR M06/M08 A3018 620 81 -1700 000/00 RMK AO2
14837KMSN MSN20020205233509802/05/02 23:35:31  5-MIN KMSN 060535Z 00000KT 5SM HZ CLR M06/M08 A3018 630 81 -1700 000/00 RMK AO2
14837KMSN MSN20020205234009802/05/02 23:40:31  5-MIN KMSN 060540Z 00000KT 5SM HZ CLR M06/M08 A3018 620 81 -1700 000/00 RMK AO2
14837KMSN MSN20020205234509802/05/02 23:45:31  5-MIN KMSN 060545Z 22003KT 5SM HZ CLR M06/M09 A3018 620 77 -1700 220/03 RMK AO2
14837KMSN MSN20020205235014002/05/02 23:50:31  5-MIN KMSN 060550Z 21003KT 5SM CLR M06/M08 A3018 620 81 -1700 210/03 RMK AO2 SLP234 T10561083 11017 21056 400001094 56005
14837KMSN MSN20020205235509802/05/02 23:55:31  5-MIN KMSN 060555Z 00000KT 5SM HZ CLR M06/M09 A3018 620 81 -1700 000/00 RMK AO2
14837KMSN MSN20020206000009802/06/02 00:00:31  5-MIN KMSN 060600Z 00000KT 5SM HZ CLR M06/M09 A3018 620 81 -1700 000/00 RMK AO2
14837KMSN MSN20020206000509802/06/02 00:05:31  5-MIN KMSN 060605Z 00000KT 5SM BR CLR M07/M09 A3018 620 84 -1800 000/00 RMK AO2
14837KMSN MSN20020206001009802/06/02 00:10:31  5-MIN KMSN 060610Z 21003KT 5SM BR CLR M07/M08 A3018 620 88 -1800 210/03 RMK AO2
14837KMSN MSN20020206001509802/06/02 00:15:31  5-MIN KMSN 060615Z 00000KT 5SM BR CLR M06/M08 A3018 630 84 -1700 000/00 RMK AO2
14837KMSN MSN20020206002009802/06/02 00:20:31  5-MIN KMSN 060620Z 22003KT 5SM HZ CLR M06/M09 A3018 630 81 -1700 220/03 RMK AO2
14837KMSN MSN20020206002509802/06/02 00:25:31  5-MIN KMSN 060625Z 00000KT 5SM BR CLR M06/M08 A3017 630 84 -1700 000/00 RMK AO2
14837KMSN MSN20020206003009802/06/02 00:30:31  5-MIN KMSN 060630Z 00000KT 5SM BR CLR M06/M08 A3017 630 84 -1700 000/00 RMK AO2
14837KMSN MSN20020206003509802/06/02 00:35:31  5-MIN KMSN 060635Z 00000KT 5SM BR CLR M06/M08 A3017 630 84 -1700 000/00 RMK AO2
14837KMSN MSN20020206004009802/06/02 00:40:31  5-MIN KMSN 060640Z 00000KT 5SM BR CLR M07/M09 A3017 630 84 -1800 000/00 RMK AO2
14837KMSN MSN20020206004509802/06/02 00:45:31  5-MIN KMSN 060645Z 00000KT 5SM BR CLR M07/M09 A3017 640 84 -1800 000/00 RMK AO2
14837KMSN MSN20020206005011502/06/02 00:50:31  5-MIN KMSN 060650Z 00000KT 5SM BR CLR M07/M09 A3017 640 84 -1800 000/00 RMK AO2 SLP229 T10671089
14837KMSN MSN20020206005509802/06/02 00:55:31  5-MIN KMSN 060655Z 20003KT 5SM BR CLR M06/M08 A3016 640 84 -1700 200/03 RMK AO2
14837KMSN MSN20020206010009802/06/02 01:00:31  5-MIN KMSN 060700Z 00000KT 5SM BR CLR M06/M08 A3016 640 84 -1700 000/00 RMK AO2
14837KMSN MSN20020206010509802/06/02 01:05:31  5-MIN KMSN 060705Z 20003KT 4SM HZ CLR M07/M09 A3016 640 81 -1800 200/03 RMK AO2
14837KMSN MSN20020206011009802/06/02 01:10:31  5-MIN KMSN 060710Z VRB03KT 4SM BR CLR M07/M08 A3016 640 88 -1800 VRB/03 RMK AO2
14837KMSN MSN20020206011509802/06/02 01:15:31  5-MIN KMSN 060715Z 21004KT 4SM BR CLR M07/M09 A3016 650 84 -1800 210/04 RMK AO2
14837KMSN MSN20020206012009802/06/02 01:20:31  5-MIN KMSN 060720Z 21005KT 4SM BR CLR M07/M08 A3015 650 88 -1800 210/05 RMK AO2
14837KMSN MSN20020206012509802/06/02 01:25:31  5-MIN KMSN 060725Z 21005KT 4SM BR CLR M06/M08 A3015 650 84 -1700 210/05 RMK AO2
14837KMSN MSN20020206013009802/06/02 01:30:31  5-MIN KMSN 060730Z 21005KT 4SM BR CLR M06/M08 A3015 650 84 -1700 210/05 RMK AO2
14837KMSN MSN20020206013509802/06/02 01:35:31  5-MIN KMSN 060735Z 21005KT 4SM BR CLR M06/M08 A3016 650 84 -1700 210/05 RMK AO2
14837KMSN MSN20020206014009802/06/02 01:40:31  5-MIN KMSN 060740Z 22005KT 4SM BR CLR M06/M08 A3015 650 84 -1700 220/05 RMK AO2
14837KMSN MSN20020206014509802/06/02 01:45:31  5-MIN KMSN 060745Z 22005KT 4SM BR CLR M06/M08 A3016 650 84 -1700 220/05 RMK AO2
14837KMSN MSN20020206015011502/06/02 01:50:31  5-MIN KMSN 060750Z 21004KT 4SM BR CLR M06/M08 A3016 650 84 -1700 210/04 RMK AO2 SLP225 T10611083
14837KMSN MSN20020206015509802/06/02 01:55:31  5-MIN KMSN 060755Z 21004KT 4SM BR CLR M06/M08 A3016 650 84 -1600 210/04 RMK AO2
14837KMSN MSN20020206020009802/06/02 02:00:31  5-MIN KMSN 060800Z 19004KT 4SM HZ CLR M06/M08 A3015 650 81 -1600 190/04 RMK AO2
14837KMSN MSN20020206020509802/06/02 02:05:31  5-MIN KMSN 060805Z 21005KT 4SM BR CLR M06/M08 A3015 650 84 -1700 210/05 RMK AO2
14837KMSN MSN20020206021009802/06/02 02:10:31  5-MIN KMSN 060810Z 20005KT 4SM BR CLR M06/M08 A3015 650 84 -1700 200/05 RMK AO2
14837KMSN MSN20020206021509802/06/02 02:15:31  5-MIN KMSN 060815Z 20005KT 4SM BR CLR M06/M08 A3015 660 84 -1700 200/05 RMK AO2
14837KMSN MSN20020206022009802/06/02 02:20:31  5-MIN KMSN 060820Z 21005KT 4SM BR CLR M06/M08 A3015 660 84 -1700 200/05 RMK AO2
14837KMSN MSN20020206022509802/06/02 02:25:31  5-MIN KMSN 060825Z 21006KT 4SM BR CLR M06/M08 A3014 660 84 -1700 210/06 RMK AO2
14837KMSN MSN20020206023009802/06/02 02:30:31  5-MIN KMSN 060830Z 22003KT 4SM BR CLR M06/M08 A3014 660 84 -1700 220/03 RMK AO2
14837KMSN MSN20020206023509802/06/02 02:35:31  5-MIN KMSN 060835Z 22004KT 4SM BR CLR M06/M08 A3014 660 84 -1700 220/04 RMK AO2
14837KMSN MSN20020206024009802/06/02 02:40:31  5-MIN KMSN 060840Z 22004KT 4SM HZ CLR M06/M10 A3014 660 74 -1700 220/04 RMK AO2
14837KMSN MSN20020206024509802/06/02 02:45:31  5-MIN KMSN 060845Z 22003KT 3SM HZ CLR M06/M09 A3015 660 77 -1700 220/03 RMK AO2
14837KMSN MSN20020206025012102/06/02 02:50:31  5-MIN KMSN 060850Z 00000KT 4SM BR CLR M07/M09 A3014 660 84 -1800 000/00 RMK AO2 SLP221 T10671089 56011
14837KMSN MSN20020206025509802/06/02 02:55:31  5-MIN KMSN 060855Z 00000KT 3SM BR CLR M07/M09 A3015 660 84 -1800 000/00 RMK AO2
14837KMSN MSN20020206030009802/06/02 03:00:31  5-MIN KMSN 060900Z 00000KT 3SM BR CLR M07/M09 A3015 660 84 -1800 000/00 RMK AO2
14837KMSN MSN20020206030509802/06/02 03:05:31  5-MIN KMSN 060905Z 21003KT 3SM BR CLR M08/M09 A3014 660 88 -1900 210/03 RMK AO2
14837KMSN MSN20020206031009802/06/02 03:10:31  5-MIN KMSN 060910Z VRB03KT 3SM BR CLR M07/M09 A3014 660 88 -1800 VRB/03 RMK AO2
14837KMSN MSN20020206031509802/06/02 03:15:31  5-MIN KMSN 060915Z 21003KT 3SM BR CLR M07/M08 A3014 660 88 -1800 210/03 RMK AO2
14837KMSN MSN20020206032009802/06/02 03:20:31  5-MIN KMSN 060920Z 00000KT 3SM BR CLR M07/M08 A3014 660 88 -1800 000/00 RMK AO2
14837KMSN MSN20020206032509802/06/02 03:25:31  5-MIN KMSN 060925Z 00000KT 3SM BR CLR M07/M09 A3014 660 84 -1800 000/00 RMK AO2
14837KMSN MSN20020206033009802/06/02 03:30:31  5-MIN KMSN 060930Z 00000KT 3SM BR CLR M07/M09 A3014 660 84 -1800 000/00 RMK AO2
14837KMSN MSN20020206033509802/06/02 03:35:31  5-MIN KMSN 060935Z 00000KT 3SM BR CLR M07/M08 A3014 660 88 -1800 000/00 RMK AO2
14837KMSN MSN20020206034009802/06/02 03:40:31  5-MIN KMSN 060940Z 22003KT 3SM BR CLR M07/M08 A3014 670 88 -1800 220/03 RMK AO2
14837KMSN MSN20020206034509802/06/02 03:45:31  5-MIN KMSN 060945Z 00000KT 3SM BR CLR M07/M08 A3013 670 88 -1800 000/00 RMK AO2
14837KMSN MSN20020206035011502/06/02 03:50:31  5-MIN KMSN 060950Z 21003KT 4SM BR CLR M07/M08 A3013 670 88 -1800 210/03 RMK AO2 SLP217 T10671083
14837KMSN MSN20020206035509802/06/02 03:55:31  5-MIN KMSN 060955Z 22004KT 3SM BR CLR M07/M08 A3013 670 88 -1800 210/04 RMK AO2
14837KMSN MSN20020206040009802/06/02 04:00:31  5-MIN KMSN 061000Z 22003KT 3SM BR CLR M06/M08 A3013 670 88 -1700 220/03 RMK AO2
14837KMSN MSN20020206040509802/06/02 04:05:31  5-MIN KMSN 061005Z VRB03KT 3SM BR CLR M06/M08 A3013 670 88 -1700 VRB/03 RMK AO2
14837KMSN MSN20020206041009802/06/02 04:10:31  5-MIN KMSN 061010Z VRB03KT 3SM BR CLR M06/M08 A3013 670 88 -1700 VRB/03 RMK AO2
14837KMSN MSN20020206041509802/06/02 04:15:31  5-MIN KMSN 061015Z VRB04KT 3SM BR CLR M06/M08 A3013 670 88 -1700 VRB/04 RMK AO2
14837KMSN MSN20020206042009802/06/02 04:20:31  5-MIN KMSN 061020Z VRB04KT 3SM BR CLR M06/M08 A3013 670 88 -1700 VRB/04 RMK AO2
14837KMSN MSN20020206042509802/06/02 04:25:31  5-MIN KMSN 061025Z VRB03KT 3SM BR CLR M06/M08 A3013 670 88 -1700 VRB/03 RMK AO2
14837KMSN MSN20020206043009802/06/02 04:30:31  5-MIN KMSN 061030Z VRB05KT 3SM BR CLR M06/M08 A3013 670 88 -1700 VRB/05 RMK AO2
14837KMSN MSN20020206043509802/06/02 04:35:31  5-MIN KMSN 061035Z 21005KT 3SM BR CLR M06/M08 A3012 680 88 -1700 210/05 RMK AO2
14837KMSN MSN20020206044009802/06/02 04:40:31  5-MIN KMSN 061040Z 21005KT 3SM BR CLR M06/M08 A3013 680 84 -1600 210/05 RMK AO2
14837KMSN MSN20020206044509802/06/02 04:45:31  5-MIN KMSN 061045Z 22004KT 3SM BR CLR M06/M08 A3013 670 84 -1600 220/04 RMK AO2
14837KMSN MSN20020206045011502/06/02 04:50:31  5-MIN KMSN 061050Z 23004KT 3SM BR CLR M06/M08 A3012 680 84 -1600 230/04 RMK AO2 SLP213 T10561078
14837KMSN MSN20020206045509802/06/02 04:55:31  5-MIN KMSN 061055Z VRB03KT 3SM BR CLR M06/M08 A3012 680 88 -1700 VRB/03 RMK AO2
14837KMSN MSN20020206050009802/06/02 05:00:31  5-MIN KMSN 061100Z 22005KT 3SM BR CLR M06/M08 A3012 680 84 -1600 220/05 RMK AO2
14837KMSN MSN20020206050509802/06/02 05:05:31  5-MIN KMSN 061105Z 22006KT 3SM BR CLR M06/M08 A3012 680 84 -1600 220/06 RMK AO2
14837KMSN MSN20020206051009802/06/02 05:10:31  5-MIN KMSN 061110Z 22003KT 3SM BR CLR M06/M08 A3012 680 84 -1600 220/03 RMK AO2
14837KMSN MSN20020206051509802/06/02 05:15:31  5-MIN KMSN 061115Z 23004KT 3SM BR CLR M06/M08 A3012 680 84 -1600 230/04 RMK AO2
14837KMSN MSN20020206052009802/06/02 05:20:31  5-MIN KMSN 061120Z 23004KT 3SM BR CLR M06/M08 A3012 680 84 -1600 230/04 RMK AO2
14837KMSN MSN20020206052509802/06/02 05:25:31  5-MIN KMSN 061125Z 22004KT 3SM BR CLR M06/M08 A3012 680 88 -1700 220/04 RMK AO2
14837KMSN MSN20020206053009802/06/02 05:30:31  5-MIN KMSN 061130Z 21004KT 3SM BR CLR M06/M08 A3012 680 84 -1600 210/04 RMK AO2
14837KMSN MSN20020206053509802/06/02 05:35:31  5-MIN KMSN 061135Z 00000KT 3SM BR CLR M06/M08 A3012 680 84 -1600 000/00 RMK AO2
14837KMSN MSN20020206054010402/06/02 05:40:31  5-MIN KMSN 061140Z 20003KT 3SM BR CLR M06/M08 A3012 680 88 -1700 200/03 RMK AO2 4/002
14837KMSN MSN20020206054510402/06/02 05:45:31  5-MIN KMSN 061145Z 20003KT 3SM BR CLR M06/M08 A3012 680 88 -1700 190/03 RMK AO2 4/002
14837KMSN MSN20020206055013902/06/02 05:50:31  5-MIN KMSN 061150Z 21003KT 3SM BR CLR M06/M08 A3012 680 88 -1700 210/03 RMK AO2 SLP211 4/002 T10611078 11056 21078 56012
14837KMSN MSN20020206055509802/06/02 05:55:31  5-MIN KMSN 061155Z 21003KT 3SM BR CLR M06/M08 A3012 680 88 -1700 210/03 RMK AO2
14837KMSN MSN20020206060009802/06/02 06:00:31  5-MIN KMSN 061200Z 20003KT 3SM BR CLR M06/M08 A3012 680 88 -1700 200/03 RMK AO2
14837KMSN MSN20020206060509802/06/02 06:05:31  5-MIN KMSN 061205Z 21004KT 3SM BR CLR M07/M08 A3012 680 92 -1700 210/04 RMK AO2
14837KMSN MSN20020206061009802/06/02 06:10:31  5-MIN KMSN 061210Z 21003KT 3SM BR CLR M07/M08 A3012 680 92 -1700 200/03 RMK AO2
14837KMSN MSN20020206061509802/06/02 06:15:31  5-MIN KMSN 061215Z 20004KT 3SM BR CLR M07/M08 A3012 680 92 -1700 200/04 RMK AO2
14837KMSN MSN20020206062009802/06/02 06:20:31  5-MIN KMSN 061220Z 21003KT 3SM BR CLR M07/M08 A3011 690 92 -1700 200/03 RMK AO2
14837KMSN MSN20020206062509802/06/02 06:25:31  5-MIN KMSN 061225Z 00000KT 3SM BR CLR M06/M08 A3011 690 88 -1700 000/00 RMK AO2
14837KMSN MSN20020206063009802/06/02 06:30:31  5-MIN KMSN 061230Z 00000KT 3SM BR CLR M06/M08 A3011 690 88 -1700 000/00 RMK AO2
14837KMSN MSN20020206063509802/06/02 06:35:31  5-MIN KMSN 061235Z 00000KT 3SM BR CLR M08/M09 A3011 690 92 -2000 000/00 RMK AO2
14837KMSN MSN20020206064009802/06/02 06:40:31  5-MIN KMSN 061240Z 00000KT 3SM BR CLR M08/M10 A3011 690 88 -2000 000/00 RMK AO2
14837KMSN MSN20020206064509802/06/02 06:45:31  5-MIN KMSN 061245Z 00000KT 3SM BR CLR M08/M09 A3011 690 92 -1900 000/00 RMK AO2
14837KMSN MSN20020206065011902/06/02 06:50:31  5-MIN KMSN 061250Z 16004KT 2 1/2SM BR CLR M08/M09 A3011 690 88 -1900 160/04 RMK AO2 SLP209 T10781094
14837KMSN MSN20020206065510202/06/02 06:55:31  5-MIN KMSN 061255Z 17004KT 2 1/2SM BR CLR M08/M09 A3011 690 88 -1900 170/04 RMK AO2
14837KMSN MSN20020206070010202/06/02 07:00:31  5-MIN KMSN 061300Z 18004KT 2 1/2SM BR CLR M08/M09 A3011 690 92 -1900 170/04 RMK AO2
14837KMSN MSN20020206070510202/06/02 07:05:31  5-MIN KMSN 061305Z 17004KT 2 1/2SM BR CLR M07/M09 A3010 690 88 -1800 170/04 RMK AO2
14837KMSN MSN20020206071011202/06/02 07:10:31  5-MIN KMSN 061310Z 17004KT 2SM BR CLR M08/M09 A3010 700 92 -1900 170/04 RMK AO2 TWR VIS 2 1/2
14837KMSN MSN20020206071511202/06/02 07:15:31  5-MIN KMSN 061315Z 17006KT 2SM BR CLR M08/M09 A3010 700 92 -1900 170/06 RMK AO2 TWR VIS 2 1/2
14837KMSN MSN20020206072011202/06/02 07:20:31  5-MIN KMSN 061320Z 17006KT 2SM BR CLR M08/M09 A3010 700 92 -1900 170/06 RMK AO2 TWR VIS 2 1/2
14837KMSN MSN20020206072511202/06/02 07:25:31  5-MIN KMSN 061325Z 16006KT 2SM BR CLR M08/M09 A3010 700 92 -1900 160/06 RMK AO2 TWR VIS 2 1/2
14837KMSN MSN20020206073011202/06/02 07:30:31  5-MIN KMSN 061330Z 17007KT 2SM BR CLR M08/M09 A3010 700 92 -1900 170/07 RMK AO2 TWR VIS 2 1/2
14837KMSN MSN20020206073511202/06/02 07:35:31  5-MIN KMSN 061335Z 17005KT 2SM BR CLR M08/M09 A3010 700 92 -1900 170/05 RMK AO2 TWR VIS 2 1/2
14837KMSN MSN20020206074011202/06/02 07:40:31  5-MIN KMSN 061340Z 17006KT 2SM BR CLR M08/M09 A3010 700 92 -1900 170/06 RMK AO2 TWR VIS 2 1/2
14837KMSN MSN20020206074511202/06/02 07:45:31  5-MIN KMSN 061345Z 17006KT 2SM BR CLR M08/M10 A3010 700 88 -1900 170/06 RMK AO2 TWR VIS 2 1/2
14837KMSN MSN20020206075012902/06/02 07:50:31  5-MIN KMSN 061350Z 17005KT 2SM BR CLR M08/M10 A3010 700 88 -1900 170/05 RMK AO2 TWR VIS 2 1/2 SLP207 T10831100
14837KMSN MSN20020206075510202/06/02 07:55:31  5-MIN KMSN 061355Z 17005KT 2 1/2SM BR CLR M08/M10 A3010 700 88 -1900 170/05 RMK AO2
14837KMSN MSN20020206080010202/06/02 08:00:31  5-MIN KMSN 061400Z 17004KT 2 1/2SM BR CLR M08/M09 A3010 700 88 -1900 170/04 RMK AO2
14837KMSN MSN20020206080510202/06/02 08:05:31  5-MIN KMSN 061405Z 17004KT 2 1/2SM BR CLR M08/M09 A3010 700 88 -1900 170/04 RMK AO2
14837KMSN MSN20020206081010202/06/02 08:10:31  5-MIN KMSN 061410Z 18005KT 2 1/2SM BR CLR M07/M09 A3010 700 84 -1800 170/05 RMK AO2
14837KMSN MSN20020206081510202/06/02 08:15:31  5-MIN KMSN 061415Z 18005KT 2 1/2SM BR CLR M07/M09 A3010 700 88 -1800 180/05 RMK AO2
14837KMSN MSN20020206082010202/06/02 08:20:31  5-MIN KMSN 061420Z 19006KT 2 1/2SM BR CLR M06/M08 A3010 700 88 -1600 180/06 RMK AO2
14837KMSN MSN20020206082510202/06/02 08:25:31  5-MIN KMSN 061425Z 19007KT 2 1/2SM BR CLR M06/M08 A3010 700 88 -1700 180/07 RMK AO2
14837KMSN MSN20020206083010202/06/02 08:30:31  5-MIN KMSN 061430Z 19006KT 2 1/2SM BR CLR M06/M08 A3010 700 88 -1600 190/06 RMK AO2
14837KMSN MSN20020206083510202/06/02 08:35:31  5-MIN KMSN 061435Z 19006KT 2 1/2SM BR CLR M06/M08 A3009 700 84 -1600 190/06 RMK AO2
14837KMSN MSN20020206084010202/06/02 08:40:31  5-MIN KMSN 061440Z 20004KT 2 1/2SM BR CLR M06/M08 A3009 700 84 -1600 200/04 RMK AO2
14837KMSN MSN20020206084511202/06/02 08:45:31  5-MIN KMSN 061445Z 20005KT 2SM BR CLR M06/M08 A3009 700 84 -1600 200/05 RMK AO2 SFC VIS 2 1/2
14837KMSN MSN20020206085013502/06/02 08:50:31  5-MIN KMSN 061450Z 20005KT 2SM BR CLR M05/M07 A3009 700 84 -1500 200/05 RMK AO2 SFC VIS 2 1/2 SLP203 T10501072 56009
14837KMSN MSN20020206085511202/06/02 08:55:31  5-MIN KMSN 061455Z VRB03KT 2SM BR CLR M05/M07 A3009 700 84 -1500 VRB/03 RMK AO2 SFC VIS 2 1/2
14837KMSN MSN20020206090011202/06/02 09:00:31  5-MIN KMSN 061500Z 24005KT 2SM HZ CLR M04/M07 A3010 700 81 -1400 230/05 RMK AO2 SFC VIS 2 1/2
14837KMSN MSN20020206090511202/06/02 09:05:31  5-MIN KMSN 061505Z VRB04KT 2SM HZ CLR M04/M07 A3010 700 81 -1400 VRB/04 RMK AO2 SFC VIS 2 1/2
14837KMSN MSN20020206091011202/06/02 09:10:31  5-MIN KMSN 061510Z 21007KT 2SM HZ CLR M04/M07 A3010 700 81 -1400 210/07 RMK AO2 SFC VIS 2 1/2
14837KMSN MSN20020206091511202/06/02 09:15:31  5-MIN KMSN 061515Z 21005KT 2SM HZ CLR M04/M07 A3010 700 81 -1400 210/05 RMK AO2 SFC VIS 2 1/2
14837KMSN MSN20020206092011202/06/02 09:20:31  5-MIN KMSN 061520Z 20006KT 2 1/2SM HZ CLR M04/M07 A3010 700 81 -1400 200/06 RMK AO2 TWR VIS 3
14837KMSN MSN20020206092511202/06/02 09:25:31  5-MIN KMSN 061525Z 21005KT 2 1/2SM HZ CLR M04/M07 A3010 700 81 -1400 210/05 RMK AO2 TWR VIS 3
14837KMSN MSN20020206093011202/06/02 09:30:31  5-MIN KMSN 061530Z 20006KT 2 1/2SM HZ CLR M04/M07 A3010 700 81 -1400 200/06 RMK AO2 TWR VIS 3
14837KMSN MSN20020206093509802/06/02 09:35:31  5-MIN KMSN 061535Z 23008KT 3SM HZ CLR M04/M07 A3010 700 81 -1400 230/08 RMK AO2
14837KMSN MSN20020206094009802/06/02 09:40:31  5-MIN KMSN 061540Z 22008KT 3SM HZ CLR M03/M07 A3010 700 78 -1300 220/08 RMK AO2
14837KMSN MSN20020206094509802/06/02 09:45:31  5-MIN KMSN 061545Z 21009KT 3SM HZ CLR M03/M07 A3010 700 78 -1300 210/09 RMK AO2
14837KMSN MSN20020206095011502/06/02 09:50:31  5-MIN KMSN 061550Z VRB05KT 3SM HZ CLR M03/M06 A3010 700 81 -1300 VRB/05 RMK AO2 SLP206 T10331061
14837KMSN MSN20020206095509802/06/02 09:55:31  5-MIN KMSN 061555Z 23010KT 3SM HZ CLR M03/M06 A3010 700 81 -1300 230/10 RMK AO2
14837KMSN MSN20020206100009802/06/02 10:00:31  5-MIN KMSN 061600Z 23005KT 3SM HZ CLR M03/M06 A3010 700 81 -1300 230/05 RMK AO2
14837KMSN MSN20020206100509802/06/02 10:05:31  5-MIN KMSN 061605Z VRB05KT 3SM HZ CLR M03/M06 A3010 700 78 -1200 VRB/05 RMK AO2
14837KMSN MSN20020206101009802/06/02 10:10:31  5-MIN KMSN 061610Z VRB06KT 3SM HZ CLR M03/M06 A3009 710 78 -1200 VRB/06 RMK AO2
14837KMSN MSN20020206101511402/06/02 10:15:31  5-MIN KMSN 061615Z 23007KT 190V250 3SM HZ CLR M03/M06 A3009 710 78 -1200 230/07 190V250 RMK AO2
14837KMSN MSN20020206102009802/06/02 10:20:31  5-MIN KMSN 061620Z 23008KT 3SM HZ CLR M03/M06 A3009 710 78 -1200 230/08 RMK AO2
14837KMSN MSN20020206102509802/06/02 10:25:31  5-MIN KMSN 061625Z 22007KT 3SM HZ CLR M02/M06 A3009 710 78 -1100 220/07 RMK AO2
14837KMSN MSN20020206103010802/06/02 10:30:31  5-MIN KMSN 061630Z 22009KT 3SM HZ CLR M02/M06 A3009 710 78 -1100 220/09 RMK AO2 SFC VIS 3
14837KMSN MSN20020206103510802/06/02 10:35:31  5-MIN KMSN 061635Z 22009KT 3SM HZ CLR M02/M06 A3008 710 75 -1100 220/09 RMK AO2 SFC VIS 3
14837KMSN MSN20020206104010802/06/02 10:40:31  5-MIN KMSN 061640Z 23007KT 3SM HZ CLR M02/M06 A3009 710 75 -1100 230/07 RMK AO2 SFC VIS 4
14837KMSN MSN20020206104510802/06/02 10:45:31  5-MIN KMSN 061645Z 23007KT 3SM HZ CLR M01/M05 A3009 710 75 -1000 230/07 RMK AO2 SFC VIS 4
14837KMSN MSN20020206105012502/06/02 10:50:31  5-MIN KMSN 061650Z 24007KT 3SM HZ CLR M01/M05 A3008 710 75 -1000 230/07 RMK AO2 SFC VIS 4 SLP198 T10111050
14837KMSN MSN20020206105510702/06/02 10:55:31  5-MIN KMSN 061655Z 22007KT 3SM HZ CLR M01/M04 A3008 720 75 -900 210/07 RMK AO2 SFC VIS 4
14837KMSN MSN20020206110010702/06/02 11:00:31  5-MIN KMSN 061700Z 22009KT 3SM HZ CLR M01/M04 A3008 720 75 -900 220/09 RMK AO2 SFC VIS 4
14837KMSN MSN20020206110510602/06/02 11:05:31  5-MIN KMSN 061705Z 21007KT 3SM HZ CLR 00/M04 A3008 720 72 -800 200/07 RMK AO2 SFC VIS 4
14837KMSN MSN20020206111010602/06/02 11:10:31  5-MIN KMSN 061710Z 22007KT 3SM HZ CLR 00/M04 A3007 720 72 -800 220/07 RMK AO2 SFC VIS 4
14837KMSN MSN20020206111512202/06/02 11:15:31  5-MIN KMSN 061715Z 23007KT 190V260 3SM HZ CLR 01/M04 A3007 730 69 -800 230/07 190V260 RMK AO2 SFC VIS 4
14837KMSN MSN20020206112010602/06/02 11:20:31  5-MIN KMSN 061720Z 23008KT 3SM HZ CLR 01/M04 A3007 730 72 -800 230/08 RMK AO2 SFC VIS 4
14837KMSN MSN20020206112510602/06/02 11:25:31  5-MIN KMSN 061725Z 23007KT 3SM HZ CLR 01/M04 A3006 730 69 -800 230/07 RMK AO2 SFC VIS 4
14837KMSN MSN20020206113010602/06/02 11:30:31  5-MIN KMSN 061730Z 23007KT 3SM HZ CLR 01/M04 A3006 740 72 -800 230/07 RMK AO2 SFC VIS 5
14837KMSN MSN20020206113509602/06/02 11:35:31  5-MIN KMSN 061735Z 23009KT 5SM HZ CLR 01/M04 A3006 740 69 -700 230/09 RMK AO2
14837KMSN MSN20020206114009602/06/02 11:40:31  5-MIN KMSN 061740Z 24007KT 5SM HZ CLR 01/M04 A3005 740 69 -700 240/07 RMK AO2
14837KMSN MSN20020206114511202/06/02 11:45:31  5-MIN KMSN 061745Z 23007KT 190V250 5SM HZ CLR 02/M03 A3005 750 69 -600 230/07 190V250 RMK AO2
14837KMSN MSN20020206115013102/06/02 11:50:31  5-MIN KMSN 061750Z 22009KT 5SM HZ CLR 02/M04 A3005 750 66 -600 220/09 RMK AO2 SLP185 T00171039 10017 21083 56007
14837KMSN MSN20020206115509602/06/02 11:55:31  5-MIN KMSN 061755Z 23009KT 5SM HZ CLR 02/M03 A3004 750 69 -600 230/09 RMK AO2
14837KMSN MSN20020206120009302/06/02 12:00:31  5-MIN KMSN 061800Z 22009KT 7SM CLR 02/M03 A3004 750 67 -500 220/09 RMK AO2
14837KMSN MSN20020206120509302/06/02 12:05:31  5-MIN KMSN 061805Z 23009KT 7SM CLR 02/M03 A3004 750 67 -500 230/09 RMK AO2
14837KMSN MSN20020206121009302/06/02 12:10:31  5-MIN KMSN 061810Z 23008KT 7SM CLR 02/M03 A3004 760 67 -500 230/08 RMK AO2
14837KMSN MSN20020206121509302/06/02 12:15:31  5-MIN KMSN 061815Z 24009KT 7SM CLR 03/M03 A3004 760 67 -500 230/09 RMK AO2
14837KMSN MSN20020206122009302/06/02 12:20:31  5-MIN KMSN 061820Z 23007KT 7SM CLR 03/M03 A3003 760 67 -400 230/07 RMK AO2
14837KMSN MSN20020206122509302/06/02 12:25:31  5-MIN KMSN 061825Z 23007KT 7SM CLR 03/M03 A3003 760 67 -400 230/07 RMK AO2
14837KMSN MSN20020206123009302/06/02 12:30:31  5-MIN KMSN 061830Z 22010KT 7SM CLR 03/M03 A3003 770 64 -400 220/10 RMK AO2
14837KMSN MSN20020206123510902/06/02 12:35:31  5-MIN KMSN 061835Z 22008KT 200V270 7SM CLR 03/M03 A3002 770 64 -400 220/08 200V270 RMK AO2
14837KMSN MSN20020206124009302/06/02 12:40:31  5-MIN KMSN 061840Z 22007KT 7SM CLR 03/M03 A3002 770 64 -400 220/07 RMK AO2
14837KMSN MSN20020206141009402/06/02 14:10:31  5-MIN KMSN 062010Z 23008KT 10SM CLR 06/M02 A2999 800 59 -100 230/08 RMK AO2
14837KMSN MSN20020206141509102/06/02 14:15:31  5-MIN KMSN 062015Z 23008KT 10SM CLR 06/M02 A2998 810 57 0 230/08 RMK AO2
14837KMSN MSN20020206142009402/06/02 14:20:31  5-MIN KMSN 062020Z 22009KT 10SM CLR 06/M02 A2998 810 57 -100 220/09 RMK AO2
14837KMSN MSN20020206142509102/06/02 14:25:31  5-MIN KMSN 062025Z 22012KT 10SM CLR 06/M02 A2998 810 55 0 220/12 RMK AO2
14837KMSN MSN20020206143009102/06/02 14:30:31  5-MIN KMSN 062030Z 22009KT 10SM CLR 06/M02 A2998 810 55 0 220/09 RMK AO2
14837KMSN MSN20020206143510702/06/02 14:35:31  5-MIN KMSN 062035Z 23008KT 190V260 10SM CLR 06/M02 A2998 810 55 0 230/08 190V260 RMK AO2
14837KMSN MSN20020206144011302/06/02 14:40:31  5-MIN KMSN 062040Z 23009G14KT 190V260 10SM CLR 06/M02 A2998 810 55 0 230/09G14 190V260 RMK AO2
14837KMSN MSN20020206144509102/06/02 14:45:31  5-MIN KMSN 062045Z 23009KT 10SM CLR 06/M02 A2998 810 55 0 230/09 RMK AO2
14837KMSN MSN20020206145011402/06/02 14:50:31  5-MIN KMSN 062050Z 23010KT 10SM CLR 06/M02 A2998 810 55 0 230/10 RMK AO2 SLP161 T00611022 58017
14837KMSN MSN20020206145509002/06/02 14:55:31  5-MIN KMSN 062055Z 21008KT 9SM CLR 06/M02 A2998 810 57 0 210/08 RMK AO2
14837KMSN MSN20020206150009702/06/02 15:00:31  5-MIN KMSN 062100Z 22009G15KT 10SM CLR 06/M02 A2998 810 59 0 220/09G15 RMK AO2
14837KMSN MSN20020206150509702/06/02 15:05:31  5-MIN KMSN 062105Z 22012G15KT 10SM CLR 06/M02 A2998 810 57 0 220/12G15 RMK AO2
14837KMSN MSN20020206151009102/06/02 15:10:31  5-MIN KMSN 062110Z 22009KT 10SM CLR 06/M02 A2998 810 59 0 220/09 RMK AO2
14837KMSN MSN20020206151509702/06/02 15:15:31  5-MIN KMSN 062115Z 21009G16KT 10SM CLR 06/M02 A2998 810 57 0 210/09G16 RMK AO2
14837KMSN MSN20020206152009702/06/02 15:20:31  5-MIN KMSN 062120Z 20008G16KT 10SM CLR 06/M02 A2998 810 59 0 200/08G16 RMK AO2
14837KMSN MSN20020206152509102/06/02 15:25:31  5-MIN KMSN 062125Z 22008KT 10SM CLR 06/M02 A2998 810 59 0 220/08 RMK AO2
14837KMSN MSN20020206153010702/06/02 15:30:31  5-MIN KMSN 062130Z 21007KT 190V250 10SM CLR 06/M02 A2997 820 59 0 210/07 190V250 RMK AO2
14837KMSN MSN20020206153509102/06/02 15:35:31  5-MIN KMSN 062135Z 22009KT 10SM CLR 06/M02 A2997 820 59 0 220/09 RMK AO2
14837KMSN MSN20020206154009702/06/02 15:40:31  5-MIN KMSN 062140Z 21010G15KT 10SM CLR 06/M02 A2997 820 57 0 210/10G15 RMK AO2
14837KMSN MSN20020206154509702/06/02 15:45:31  5-MIN KMSN 062145Z 20009G15KT 10SM CLR 06/M02 A2997 820 59 0 200/09G15 RMK AO2
14837KMSN MSN20020206155012402/06/02 15:50:31  5-MIN KMSN 062150Z 22008KT 180V250 10SM CLR 06/M02 A2997 820 59 0 220/08 180V250 RMK AO2 SLP159 T00561017
14837KMSN MSN20020206155509302/06/02 15:55:31  5-MIN KMSN 062155Z 21008KT 9SM CLR 05/M02 A2997 820 62 -100 210/08 RMK AO2
14837KMSN MSN20020206160009402/06/02 16:00:31  5-MIN KMSN 062200Z 21008KT 10SM CLR 05/M02 A2997 820 62 -100 210/08 RMK AO2
14837KMSN MSN20020206160509402/06/02 16:05:31  5-MIN KMSN 062205Z 21007KT 10SM CLR 05/M02 A2997 820 62 -100 210/07 RMK AO2
14837KMSN MSN20020206161009402/06/02 16:10:31  5-MIN KMSN 062210Z 20008KT 10SM CLR 05/M02 A2997 820 62 -100 200/08 RMK AO2
14837KMSN MSN20020206161509402/06/02 16:15:31  5-MIN KMSN 062215Z 20010KT 10SM CLR 04/M02 A2997 820 64 -200 200/10 RMK AO2
14837KMSN MSN20020206162009402/06/02 16:20:31  5-MIN KMSN 062220Z 20009KT 10SM CLR 04/M02 A2997 820 64 -200 200/09 RMK AO2
14837KMSN MSN20020206162509402/06/02 16:25:31  5-MIN KMSN 062225Z 20007KT 10SM CLR 04/M02 A2997 820 64 -200 200/07 RMK AO2
14837KMSN MSN20020206163009402/06/02 16:30:31  5-MIN KMSN 062230Z 20008KT 10SM CLR 04/M02 A2996 820 64 -200 200/08 RMK AO2
14837KMSN MSN20020206163509402/06/02 16:35:31  5-MIN KMSN 062235Z 20008KT 10SM CLR 04/M02 A2996 830 64 -200 200/08 RMK AO2
14837KMSN MSN20020206164009402/06/02 16:40:31  5-MIN KMSN 062240Z 20008KT 10SM CLR 04/M02 A2996 830 67 -200 200/08 RMK AO2
14837KMSN MSN20020206164509402/06/02 16:45:31  5-MIN KMSN 062245Z 19009KT 10SM CLR 04/M02 A2996 830 67 -200 190/09 RMK AO2
14837KMSN MSN20020206165011102/06/02 16:50:31  5-MIN KMSN 062250Z 20008KT 10SM CLR 04/M02 A2996 830 67 -200 200/08 RMK AO2 SLP154 T00391017
14837KMSN MSN20020206165509302/06/02 16:55:31  5-MIN KMSN 062255Z 20007KT 8SM CLR 04/M02 A2995 830 67 -200 200/07 RMK AO2
14837KMSN MSN20020206170009302/06/02 17:00:31  5-MIN KMSN 062300Z 21006KT 8SM CLR 04/M02 A2995 840 64 -200 210/06 RMK AO2
14837KMSN MSN20020206170509302/06/02 17:05:31  5-MIN KMSN 062305Z 20007KT 8SM CLR 03/M02 A2995 840 70 -300 200/07 RMK AO2
14837KMSN MSN20020206171009302/06/02 17:10:31  5-MIN KMSN 062310Z 21008KT 8SM CLR 03/M02 A2995 840 67 -300 210/08 RMK AO2
14837KMSN MSN20020206171510902/06/02 17:15:31  5-MIN KMSN 062315Z 20008KT 170V240 8SM CLR 03/M02 A2995 840 67 -300 200/08 170V240 RMK AO2
14837KMSN MSN20020206172009302/06/02 17:20:31  5-MIN KMSN 062320Z 21008KT 8SM CLR 03/M02 A2995 840 67 -300 210/08 RMK AO2
14837KMSN MSN20020206172509302/06/02 17:25:31  5-MIN KMSN 062325Z 20006KT 8SM CLR 03/M02 A2995 830 67 -300 200/06 RMK AO2
14837KMSN MSN20020206173009302/06/02 17:30:31  5-MIN KMSN 062330Z 20008KT 8SM CLR 03/M02 A2995 830 69 -400 200/08 RMK AO2
14837KMSN MSN20020206173509902/06/02 17:35:31  5-MIN KMSN 062335Z 20007KT 8SM CLR 03/M02 A2995 830 69 -400 200/07 RMK AO2 4/001
14837KMSN MSN20020206174009902/06/02 17:40:31  5-MIN KMSN 062340Z 20008KT 8SM CLR 03/M02 A2995 840 69 -400 200/08 RMK AO2 4/001
14837KMSN MSN20020206174509902/06/02 17:45:31  5-MIN KMSN 062345Z 20009KT 8SM CLR 03/M02 A2995 840 69 -400 200/09 RMK AO2 4/001
14837KMSN MSN20020206175013502/06/02 17:50:31  5-MIN KMSN 062350Z 20010KT 10SM CLR 03/M02 A2995 840 69 -400 200/10 RMK AO2 SLP153 4/001 T00281022 10061 20017 56022
14837KMSN MSN20020206175509402/06/02 17:55:31  5-MIN KMSN 062355Z 20007KT 10SM CLR 03/M02 A2995 830 69 -400 200/07 RMK AO2
14837KMSN MSN20020206180009402/06/02 18:00:31  5-MIN KMSN 070000Z 21008KT 10SM CLR 02/M02 A2996 830 72 -400 210/08 RMK AO2
14837KMSN MSN20020206180509402/06/02 18:05:31  5-MIN KMSN 070005Z 20010KT 10SM CLR 02/M02 A2996 830 72 -400 200/10 RMK AO2
14837KMSN MSN20020206181009402/06/02 18:10:31  5-MIN KMSN 070010Z 21008KT 10SM CLR 02/M02 A2996 830 72 -400 210/08 RMK AO2
14837KMSN MSN20020206181509402/06/02 18:15:31  5-MIN KMSN 070015Z 20008KT 10SM CLR 02/M02 A2996 830 72 -400 200/08 RMK AO2
14837KMSN MSN20020206182009402/06/02 18:20:31  5-MIN KMSN 070020Z 20009KT 10SM CLR 02/M02 A2996 830 72 -400 200/09 RMK AO2
14837KMSN MSN20020206182509402/06/02 18:25:31  5-MIN KMSN 070025Z 20011KT 10SM CLR 02/M02 A2995 830 75 -500 200/11 RMK AO2
14837KMSN MSN20020206183009402/06/02 18:30:31  5-MIN KMSN 070030Z 19010KT 10SM CLR 02/M02 A2995 840 75 -500 190/10 RMK AO2
14837KMSN MSN20020206183509402/06/02 18:35:31  5-MIN KMSN 070035Z 19010KT 10SM CLR 02/M02 A2995 840 75 -500 190/10 RMK AO2
14837KMSN MSN20020206184009402/06/02 18:40:31  5-MIN KMSN 070040Z 20011KT 10SM CLR 02/M02 A2995 840 75 -500 190/11 RMK AO2
14837KMSN MSN20020206184509402/06/02 18:45:31  5-MIN KMSN 070045Z 20012KT 10SM CLR 02/M02 A2995 840 75 -500 190/12 RMK AO2
14837KMSN MSN20020206185011102/06/02 18:50:31  5-MIN KMSN 070050Z 19009KT 10SM CLR 02/M03 A2994 840 72 -500 190/09 RMK AO2 SLP152 T00171028
14837KMSN MSN20020206185509402/06/02 18:55:31  5-MIN KMSN 070055Z 20009KT 10SM CLR 01/M03 A2995 840 75 -600 200/09 RMK AO2
14837KMSN MSN20020206190009402/06/02 19:00:31  5-MIN KMSN 070100Z 20008KT 10SM CLR 01/M03 A2994 840 75 -600 200/08 RMK AO2
14837KMSN MSN20020206190509302/06/02 19:05:31  5-MIN KMSN 070105Z 20009KT 8SM CLR 01/M03 A2994 840 75 -600 200/09 RMK AO2
14837KMSN MSN20020206191009302/06/02 19:10:31  5-MIN KMSN 070110Z 20009KT 8SM CLR 01/M03 A2994 850 75 -500 200/09 RMK AO2
14837KMSN MSN20020206191509302/06/02 19:15:31  5-MIN KMSN 070115Z 20009KT 8SM CLR 01/M03 A2994 850 75 -500 200/09 RMK AO2
14837KMSN MSN20020206192009302/06/02 19:20:31  5-MIN KMSN 070120Z 20008KT 8SM CLR 01/M03 A2994 850 78 -600 200/08 RMK AO2
14837KMSN MSN20020206192509302/06/02 19:25:31  5-MIN KMSN 070125Z 20009KT 8SM CLR 01/M03 A2994 850 75 -500 200/09 RMK AO2
14837KMSN MSN20020206193009302/06/02 19:30:31  5-MIN KMSN 070130Z 20008KT 8SM CLR 01/M03 A2994 850 75 -500 190/08 RMK AO2
14837KMSN MSN20020206193509302/06/02 19:35:31  5-MIN KMSN 070135Z 20008KT 8SM CLR 01/M03 A2993 850 78 -600 200/08 RMK AO2
14837KMSN MSN20020206194009302/06/02 19:40:31  5-MIN KMSN 070140Z 20008KT 8SM CLR 01/M03 A2993 850 78 -600 200/08 RMK AO2
14837KMSN MSN20020206194509302/06/02 19:45:31  5-MIN KMSN 070145Z 20007KT 8SM CLR 01/M03 A2993 850 78 -600 200/07 RMK AO2
14837KMSN MSN20020206195011002/06/02 19:50:31  5-MIN KMSN 070150Z 20008KT 8SM CLR 01/M03 A2993 860 78 -600 200/08 RMK AO2 SLP146 T00061028
14837KMSN MSN20020206195509602/06/02 19:55:31  5-MIN KMSN 070155Z 20007KT 6SM HZ CLR 01/M03 A2993 860 78 -600 190/07 RMK AO2
14837KMSN MSN20020206200009302/06/02 20:00:31  5-MIN KMSN 070200Z 20008KT 7SM CLR 01/M03 A2993 860 78 -600 200/08 RMK AO2
14837KMSN MSN20020206200509302/06/02 20:05:31  5-MIN KMSN 070205Z 20007KT 7SM CLR 01/M03 A2992 860 78 -600 200/07 RMK AO2
14837KMSN MSN20020206201009302/06/02 20:10:31  5-MIN KMSN 070210Z 21007KT 7SM CLR 01/M03 A2992 860 78 -600 200/07 RMK AO2
14837KMSN MSN20020206201509302/06/02 20:15:31  5-MIN KMSN 070215Z 20008KT 7SM CLR 01/M03 A2992 860 78 -600 200/08 RMK AO2
14837KMSN MSN20020206202009302/06/02 20:20:31  5-MIN KMSN 070220Z 22009KT 7SM CLR 01/M03 A2992 860 78 -600 220/09 RMK AO2
14837KMSN MSN20020206202509902/06/02 20:25:31  5-MIN KMSN 070225Z 21008G15KT 7SM CLR 01/M03 A2992 860 78 -600 200/08G15 RMK AO2
14837KMSN MSN20020206203009902/06/02 20:30:31  5-MIN KMSN 070230Z 21007G15KT 7SM CLR 01/M03 A2992 860 78 -600 200/07G15 RMK AO2
14837KMSN MSN20020206203509302/06/02 20:35:31  5-MIN KMSN 070235Z VRB06KT 7SM CLR 01/M03 A2992 870 78 -600 VRB/06 RMK AO2
14837KMSN MSN20020206204009302/06/02 20:40:31  5-MIN KMSN 070240Z 20011KT 7SM CLR 01/M03 A2992 870 78 -600 200/11 RMK AO2
14837KMSN MSN20020206204509902/06/02 20:45:31  5-MIN KMSN 070245Z 20009G15KT 7SM CLR 01/M03 A2991 870 78 -600 200/09G15 RMK AO2
14837KMSN MSN20020206205011602/06/02 20:50:31  5-MIN KMSN 070250Z 21008KT 7SM CLR 01/M03 A2991 870 78 -600 210/08 RMK AO2 SLP141 T00061028 56008
14837KMSN MSN20020206205509602/06/02 20:55:31  5-MIN KMSN 070255Z 21011KT 6SM HZ CLR 01/M03 A2992 870 78 -600 210/11 RMK AO2
14837KMSN MSN20020206210009302/06/02 21:00:31  5-MIN KMSN 070300Z 21010KT 7SM CLR 01/M03 A2992 860 78 -600 210/10 RMK AO2
14837KMSN MSN20020206210509302/06/02 21:05:31  5-MIN KMSN 070305Z 23008KT 7SM CLR 01/M03 A2993 860 78 -600 230/08 RMK AO2
14837KMSN MSN20020206211009302/06/02 21:10:31  5-MIN KMSN 070310Z 23008KT 7SM CLR 01/M03 A2993 860 78 -600 230/08 RMK AO2
14837KMSN MSN20020206211509302/06/02 21:15:31  5-MIN KMSN 070315Z 22010KT 7SM CLR 00/M03 A2993 860 81 -700 220/10 RMK AO2
14837KMSN MSN20020206212009302/06/02 21:20:31  5-MIN KMSN 070320Z 23009KT 7SM CLR 00/M03 A2993 860 81 -700 230/09 RMK AO2
14837KMSN MSN20020206212509302/06/02 21:25:31  5-MIN KMSN 070325Z 22009KT 7SM CLR 00/M03 A2993 850 81 -700 220/09 RMK AO2
14837KMSN MSN20020206213009302/06/02 21:30:31  5-MIN KMSN 070330Z 22010KT 7SM CLR 00/M03 A2993 860 81 -700 220/10 RMK AO2
14837KMSN MSN20020206213509302/06/02 21:35:31  5-MIN KMSN 070335Z 22009KT 7SM CLR 00/M03 A2992 860 81 -700 220/09 RMK AO2
14837KMSN MSN20020206214009902/06/02 21:40:31  5-MIN KMSN 070340Z 22009G16KT 7SM CLR 00/M03 A2992 860 81 -700 220/09G16 RMK AO2
14837KMSN MSN20020206214509902/06/02 21:45:31  5-MIN KMSN 070345Z 23008G16KT 7SM CLR 00/M03 A2992 860 81 -700 230/08G16 RMK AO2
14837KMSN MSN20020206215011902/06/02 21:50:31  5-MIN KMSN 070350Z 23007G16KT 6SM HZ CLR 00/M03 A2992 860 81 -700 220/07G16 RMK AO2 SLP143 T00001028
14837KMSN MSN20020206215509602/06/02 21:55:31  5-MIN KMSN 070355Z 22009KT 6SM HZ CLR 00/M03 A2992 860 81 -700 220/09 RMK AO2
14837KMSN MSN20020206220009602/06/02 22:00:31  5-MIN KMSN 070400Z 22010KT 6SM HZ CLR 00/M03 A2992 870 81 -700 220/10 RMK AO2
14837KMSN MSN20020206220510202/06/02 22:05:31  5-MIN KMSN 070405Z 23011G15KT 6SM HZ CLR 00/M03 A2992 870 81 -700 230/11G15 RMK AO2
14837KMSN MSN20020206221010202/06/02 22:10:31  5-MIN KMSN 070410Z 23008G15KT 6SM HZ CLR 00/M03 A2992 870 81 -700 230/08G15 RMK AO2
14837KMSN MSN20020206221510202/06/02 22:15:31  5-MIN KMSN 070415Z 22008G15KT 6SM HZ CLR 00/M03 A2992 870 81 -700 220/08G15 RMK AO2
14837KMSN MSN20020206222010202/06/02 22:20:31  5-MIN KMSN 070420Z 22009G15KT 6SM HZ CLR 00/M03 A2992 870 81 -700 220/09G15 RMK AO2
14837KMSN MSN20020206222509602/06/02 22:25:31  5-MIN KMSN 070425Z 23009KT 6SM HZ CLR 00/M03 A2991 870 81 -700 230/09 RMK AO2
14837KMSN MSN20020206223009602/06/02 22:30:31  5-MIN KMSN 070430Z 24010KT 5SM HZ CLR 00/M03 A2992 870 81 -700 240/10 RMK AO2
14837KMSN MSN20020206223510202/06/02 22:35:31  5-MIN KMSN 070435Z 23010G15KT 5SM HZ CLR 00/M03 A2991 870 81 -700 230/10G15 RMK AO2
14837KMSN MSN20020206224010202/06/02 22:40:31  5-MIN KMSN 070440Z 24008G15KT 5SM HZ CLR 00/M03 A2991 870 78 -700 230/08G15 RMK AO2
14837KMSN MSN20020206224509602/06/02 22:45:31  5-MIN KMSN 070445Z 23009KT 5SM HZ CLR 00/M03 A2990 880 81 -600 230/09 RMK AO2
14837KMSN MSN20020206225011302/06/02 22:50:31  5-MIN KMSN 070450Z 23008KT 5SM HZ CLR 00/M03 A2991 880 81 -700 230/08 RMK AO2 SLP137 T00001028
14837KMSN MSN20020206225511802/06/02 22:55:31  5-MIN KMSN 070455Z 24009G15KT 200V260 5SM HZ CLR 00/M03 A2991 880 81 -600 230/09G15 200V260 RMK AO2
14837KMSN MSN20020206230010302/06/02 23:00:31  5-MIN KMSN 070500Z 23007G15KT 5SM HZ CLR M01/M03 A2991 880 81 -700 230/07G15 RMK AO2
14837KMSN MSN20020206230509602/06/02 23:05:31  5-MIN KMSN 070505Z 23009KT 5SM HZ CLR 00/M03 A2991 880 81 -700 230/09 RMK AO2
14837KMSN MSN20020206231011302/06/02 23:10:31  5-MIN KMSN 070510Z 24007KT 210V280 5SM BR CLR M01/M03 A2991 880 85 -700 240/07 210V280 RMK AO2
14837KMSN MSN20020206231511302/06/02 23:15:31  5-MIN KMSN 070515Z 24007KT 200V270 5SM BR CLR M01/M03 A2991 880 85 -700 240/07 200V270 RMK AO2
14837KMSN MSN20020206232009702/06/02 23:20:31  5-MIN KMSN 070520Z 23006KT 5SM BR CLR M01/M03 A2991 870 85 -700 230/06 RMK AO2
14837KMSN MSN20020206232511302/06/02 23:25:31  5-MIN KMSN 070525Z 25007KT 220V280 5SM HZ CLR M01/M03 A2991 880 81 -700 250/07 220V280 RMK AO2
14837KMSN MSN20020206233009702/06/02 23:30:31  5-MIN KMSN 070530Z VRB04KT 5SM BR CLR M01/M03 A2991 870 85 -700 VRB/04 RMK AO2
14837KMSN MSN20020206233509702/06/02 23:35:31  5-MIN KMSN 070535Z VRB04KT 5SM HZ CLR M01/M03 A2991 870 81 -700 VRB/04 RMK AO2
14837KMSN MSN20020206234009702/06/02 23:40:31  5-MIN KMSN 070540Z VRB05KT 5SM HZ CLR M01/M03 A2991 870 81 -700 VRB/05 RMK AO2
14837KMSN MSN20020206234509702/06/02 23:45:31  5-MIN KMSN 070545Z VRB05KT 5SM HZ CLR M01/M03 A2991 870 81 -700 VRB/05 RMK AO2
14837KMSN MSN20020206235014202/06/02 23:50:31  5-MIN KMSN 070550Z VRB05KT 5SM HZ CLR M01/M03 A2991 870 81 -700 VRB/05 RMK AO2 SLP137 T10061033 10028 21006 400611083 58013
14837KMSN MSN20020206235509702/06/02 23:55:31  5-MIN KMSN 070555Z 24007KT 5SM HZ CLR M01/M03 A2991 870 81 -700 240/07 RMK AO2
14837KMSN MSN20020207000009702/07/02 00:00:31  5-MIN KMSN 070600Z VRB04KT 5SM HZ CLR M01/M03 A2991 870 81 -700 VRB/04 RMK AO2
14837KMSN MSN20020207000509702/07/02 00:05:31  5-MIN KMSN 070605Z VRB04KT 5SM HZ CLR M01/M03 A2991 880 81 -700 VRB/04 RMK AO2
14837KMSN MSN20020207001009702/07/02 00:10:31  5-MIN KMSN 070610Z VRB03KT 5SM HZ CLR M01/M03 A2991 880 81 -700 VRB/03 RMK AO2
14837KMSN MSN20020207001509702/07/02 00:15:31  5-MIN KMSN 070615Z VRB04KT 5SM HZ CLR M01/M03 A2990 880 81 -700 VRB/04 RMK AO2
14837KMSN MSN20020207002009702/07/02 00:20:31  5-MIN KMSN 070620Z VRB03KT 5SM HZ CLR M01/M03 A2990 880 81 -700 VRB/03 RMK AO2
14837KMSN MSN20020207002509702/07/02 00:25:31  5-MIN KMSN 070625Z VRB03KT 5SM HZ CLR M01/M03 A2990 880 81 -700 VRB/03 RMK AO2
14837KMSN MSN20020207003009702/07/02 00:30:31  5-MIN KMSN 070630Z VRB03KT 5SM HZ CLR M01/M03 A2990 880 81 -700 VRB/03 RMK AO2
14837KMSN MSN20020207003509702/07/02 00:35:31  5-MIN KMSN 070635Z VRB03KT 5SM HZ CLR M01/M03 A2990 880 81 -700 VRB/03 RMK AO2
14837KMSN MSN20020207004009702/07/02 00:40:31  5-MIN KMSN 070640Z VRB04KT 5SM BR CLR M01/M03 A2990 880 85 -800 VRB/04 RMK AO2
14837KMSN MSN20020207004511302/07/02 00:45:31  5-MIN KMSN 070645Z 23007KT 180V260 5SM BR CLR M01/M03 A2990 890 85 -800 230/07 180V260 RMK AO2
14837KMSN MSN20020207005011402/07/02 00:50:31  5-MIN KMSN 070650Z VRB06KT 5SM BR CLR M01/M03 A2989 890 85 -800 VRB/06 RMK AO2 SLP131 T10111033
14837KMSN MSN20020207005509702/07/02 00:55:31  5-MIN KMSN 070655Z VRB04KT 5SM BR CLR M01/M03 A2989 890 85 -800 VRB/04 RMK AO2
14837KMSN MSN20020207010009702/07/02 01:00:31  5-MIN KMSN 070700Z VRB04KT 5SM BR CLR M01/M03 A2990 890 85 -800 VRB/04 RMK AO2
14837KMSN MSN20020207010509702/07/02 01:05:31  5-MIN KMSN 070705Z VRB05KT 5SM BR CLR M01/M03 A2989 890 85 -800 VRB/05 RMK AO2
14837KMSN MSN20020207011009702/07/02 01:10:31  5-MIN KMSN 070710Z 25006KT 5SM BR CLR M01/M03 A2989 890 85 -800 250/06 RMK AO2
14837KMSN MSN20020207011509702/07/02 01:15:31  5-MIN KMSN 070715Z VRB04KT 5SM BR CLR M01/M03 A2989 890 85 -800 VRB/04 RMK AO2
14837KMSN MSN20020207012009702/07/02 01:20:31  5-MIN KMSN 070720Z VRB05KT 5SM BR CLR M01/M03 A2989 890 85 -800 VRB/05 RMK AO2
14837KMSN MSN20020207012509702/07/02 01:25:31  5-MIN KMSN 070725Z VRB05KT 5SM BR CLR M01/M03 A2989 890 85 -800 VRB/05 RMK AO2
14837KMSN MSN20020207013009702/07/02 01:30:31  5-MIN KMSN 070730Z VRB04KT 5SM BR CLR M01/M03 A2989 890 85 -800 VRB/04 RMK AO2
14837KMSN MSN20020207013509702/07/02 01:35:31  5-MIN KMSN 070735Z VRB04KT 5SM BR CLR M01/M03 A2989 890 85 -800 VRB/04 RMK AO2
14837KMSN MSN20020207014009702/07/02 01:40:31  5-MIN KMSN 070740Z VRB04KT 5SM BR CLR M02/M03 A2989 890 88 -800 VRB/04 RMK AO2
14837KMSN MSN20020207014509702/07/02 01:45:31  5-MIN KMSN 070745Z VRB04KT 5SM BR CLR M02/M03 A2989 890 88 -800 VRB/04 RMK AO2
14837KMSN MSN20020207015011402/07/02 01:50:31  5-MIN KMSN 070750Z VRB05KT 5SM BR CLR M02/M03 A2989 890 88 -800 VRB/05 RMK AO2 SLP130 T10171033
14837KMSN MSN20020207015509702/07/02 01:55:31  5-MIN KMSN 070755Z 22005KT 5SM BR CLR M02/M03 A2989 890 88 -800 220/05 RMK AO2
14837KMSN MSN20020207020009702/07/02 02:00:31  5-MIN KMSN 070800Z 23005KT 5SM BR CLR M02/M03 A2989 890 88 -800 230/05 RMK AO2
14837KMSN MSN20020207020509702/07/02 02:05:31  5-MIN KMSN 070805Z VRB04KT 5SM BR CLR M02/M03 A2989 890 88 -800 VRB/04 RMK AO2
14837KMSN MSN20020207032009702/07/02 03:20:31  5-MIN KMSN 070920Z VRB04KT 4SM BR CLR M02/M03 A2990 890 92 -900 VRB/04 RMK AO2
14837KMSN MSN20020207032509702/07/02 03:25:31  5-MIN KMSN 070925Z 22004KT 4SM BR CLR M02/M03 A2989 890 88 -800 220/04 RMK AO2
14837KMSN MSN20020207033009702/07/02 03:30:31  5-MIN KMSN 070930Z 23004KT 4SM BR CLR M02/M03 A2990 890 92 -900 230/04 RMK AO2
14837KMSN MSN20020207033509702/07/02 03:35:31  5-MIN KMSN 070935Z 22005KT 4SM BR CLR M02/M03 A2990 890 92 -900 220/05 RMK AO2
14837KMSN MSN20020207034009702/07/02 03:40:31  5-MIN KMSN 070940Z 23003KT 4SM BR CLR M02/M03 A2990 890 92 -900 230/03 RMK AO2
14837KMSN MSN20020207034509702/07/02 03:45:31  5-MIN KMSN 070945Z 26004KT 4SM BR CLR M02/M03 A2990 890 92 -900 260/04 RMK AO2
14837KMSN MSN20020207035011402/07/02 03:50:31  5-MIN KMSN 070950Z VRB04KT 4SM BR CLR M02/M03 A2990 880 92 -900 VRB/04 RMK AO2 SLP133 T10221033
14837KMSN MSN20020207035509702/07/02 03:55:31  5-MIN KMSN 070955Z 26004KT 4SM BR CLR M02/M03 A2990 880 92 -900 260/04 RMK AO2
14837KMSN MSN20020207040009702/07/02 04:00:31  5-MIN KMSN 071000Z 25005KT 4SM BR CLR M02/M03 A2990 880 92 -900 240/05 RMK AO2
14837KMSN MSN20020207040509702/07/02 04:05:31  5-MIN KMSN 071005Z VRB04KT 4SM BR CLR M02/M03 A2990 880 88 -900 VRB/04 RMK AO2
14837KMSN MSN20020207041009702/07/02 04:10:31  5-MIN KMSN 071010Z VRB05KT 4SM BR CLR M02/M03 A2990 880 92 -900 VRB/05 RMK AO2
14837KMSN MSN20020207041509702/07/02 04:15:31  5-MIN KMSN 071015Z VRB06KT 4SM BR CLR M02/M03 A2990 880 92 -900 VRB/06 RMK AO2
14837KMSN MSN20020207042009702/07/02 04:20:31  5-MIN KMSN 071020Z 25005KT 4SM BR CLR M02/M03 A2990 890 88 -900 250/05 RMK AO2
14837KMSN MSN20020207042509702/07/02 04:25:31  5-MIN KMSN 071025Z VRB05KT 4SM BR CLR M02/M03 A2990 880 88 -900 VRB/05 RMK AO2
14837KMSN MSN20020207043009702/07/02 04:30:31  5-MIN KMSN 071030Z VRB05KT 4SM BR CLR M02/M03 A2990 880 88 -900 VRB/05 RMK AO2
14837KMSN MSN20020207043509702/07/02 04:35:31  5-MIN KMSN 071035Z VRB04KT 4SM BR CLR M02/M03 A2990 890 88 -900 VRB/04 RMK AO2
14837KMSN MSN20020207044009702/07/02 04:40:31  5-MIN KMSN 071040Z 26006KT 4SM BR CLR M02/M03 A2990 880 88 -900 260/06 RMK AO2
14837KMSN MSN20020207044509702/07/02 04:45:31  5-MIN KMSN 071045Z 26005KT 4SM BR CLR M02/M03 A2990 880 88 -900 250/05 RMK AO2
14837KMSN MSN20020207045011402/07/02 04:50:31  5-MIN KMSN 071050Z VRB05KT 4SM BR CLR M02/M03 A2990 880 92 -900 VRB/05 RMK AO2 SLP134 T10221033
14837KMSN MSN20020207045509702/07/02 04:55:31  5-MIN KMSN 071055Z VRB05KT 4SM BR CLR M02/M03 A2990 880 92 -900 VRB/05 RMK AO2
14837KMSN MSN20020207050009702/07/02 05:00:31  5-MIN KMSN 071100Z VRB06KT 4SM BR CLR M02/M03 A2990 880 92 -900 VRB/06 RMK AO2
14837KMSN MSN20020207050509702/07/02 05:05:31  5-MIN KMSN 071105Z VRB04KT 4SM BR CLR M02/M03 A2990 880 92 -900 VRB/04 RMK AO2
14837KMSN MSN20020207051009702/07/02 05:10:31  5-MIN KMSN 071110Z VRB05KT 4SM BR CLR M02/M03 A2990 880 88 -900 VRB/05 RMK AO2
14837KMSN MSN20020207051509702/07/02 05:15:31  5-MIN KMSN 071115Z VRB05KT 4SM BR CLR M02/M03 A2990 880 88 -900 VRB/05 RMK AO2
14837KMSN MSN20020207052009702/07/02 05:20:31  5-MIN KMSN 071120Z 25005KT 4SM BR CLR M02/M03 A2990 880 92 -900 250/05 RMK AO2
14837KMSN MSN20020207052509702/07/02 05:25:31  5-MIN KMSN 071125Z VRB06KT 4SM BR CLR M02/M03 A2990 880 92 -900 VRB/06 RMK AO2
14837KMSN MSN20020207053009702/07/02 05:30:31  5-MIN KMSN 071130Z VRB04KT 4SM BR CLR M02/M03 A2991 880 88 -900 VRB/04 RMK AO2
14837KMSN MSN20020207053509702/07/02 05:35:31  5-MIN KMSN 071135Z VRB04KT 4SM BR CLR M02/M03 A2991 880 92 -900 VRB/04 RMK AO2
14837KMSN MSN20020207054009702/07/02 05:40:31  5-MIN KMSN 071140Z VRB04KT 4SM BR CLR M02/M03 A2991 870 92 -900 VRB/04 RMK AO2
14837KMSN MSN20020207054509702/07/02 05:45:31  5-MIN KMSN 071145Z VRB04KT 4SM BR CLR M02/M03 A2991 870 92 -900 VRB/04 RMK AO2
14837KMSN MSN20020207055013202/07/02 05:50:31  5-MIN KMSN 071150Z VRB06KT 4SM BR CLR M02/M03 A2992 870 92 -900 VRB/06 RMK AO2 SLP139 T10221033 11006 21022 56008
14837KMSN MSN20020207055509702/07/02 05:55:31  5-MIN KMSN 071155Z 25005KT 4SM BR CLR M02/M03 A2991 870 92 -900 250/05 RMK AO2
14837KMSN MSN20020207060009702/07/02 06:00:31  5-MIN KMSN 071200Z 27005KT 5SM BR CLR M02/M04 A2992 870 88 -900 270/05 RMK AO2
14837KMSN MSN20020207060509702/07/02 06:05:31  5-MIN KMSN 071205Z VRB05KT 5SM BR CLR M02/M04 A2992 870 88 -900 VRB/05 RMK AO2
14837KMSN MSN20020207061009802/07/02 06:10:31  5-MIN KMSN 071210Z 26005KT 5SM BR CLR M02/M04 A2992 860 88 -1000 260/05 RMK AO2
14837KMSN MSN20020207061509802/07/02 06:15:31  5-MIN KMSN 071215Z 26005KT 5SM BR CLR M02/M04 A2992 860 88 -1000 260/05 RMK AO2
14837KMSN MSN20020207062009802/07/02 06:20:31  5-MIN KMSN 071220Z VRB05KT 5SM BR CLR M02/M04 A2993 860 88 -1000 VRB/05 RMK AO2
14837KMSN MSN20020207062509802/07/02 06:25:31  5-MIN KMSN 071225Z VRB06KT 5SM BR CLR M02/M04 A2993 860 88 -1000 VRB/06 RMK AO2
14837KMSN MSN20020207063009802/07/02 06:30:31  5-MIN KMSN 071230Z 26006KT 5SM BR CLR M02/M04 A2993 850 88 -1000 260/06 RMK AO2
14837KMSN MSN20020207063509802/07/02 06:35:31  5-MIN KMSN 071235Z VRB05KT 5SM BR CLR M02/M04 A2993 850 88 -1000 VRB/05 RMK AO2
14837KMSN MSN20020207064009802/07/02 06:40:31  5-MIN KMSN 071240Z 27005KT 5SM BR CLR M02/M04 A2993 850 88 -1000 270/05 RMK AO2
14837KMSN MSN20020207064509802/07/02 06:45:31  5-MIN KMSN 071245Z 27005KT 5SM BR CLR M02/M04 A2993 850 88 -1000 270/05 RMK AO2
14837KMSN MSN20020207065011502/07/02 06:50:31  5-MIN KMSN 071250Z 27006KT 5SM BR CLR M02/M04 A2994 850 88 -1000 270/06 RMK AO2 SLP147 T10221039
14837KMSN MSN20020207065509802/07/02 06:55:31  5-MIN KMSN 071255Z VRB04KT 5SM BR CLR M02/M04 A2994 850 88 -1000 VRB/04 RMK AO2
14837KMSN MSN20020207070009802/07/02 07:00:31  5-MIN KMSN 071300Z 27005KT 5SM BR CLR M02/M04 A2994 840 88 -1000 270/05 RMK AO2
14837KMSN MSN20020207070509802/07/02 07:05:31  5-MIN KMSN 071305Z 26006KT 4SM BR CLR M03/M04 A2995 840 92 -1000 260/06 RMK AO2
14837KMSN MSN20020207071009802/07/02 07:10:31  5-MIN KMSN 071310Z 26006KT 4SM BR CLR M02/M04 A2995 840 88 -1000 260/06 RMK AO2
14837KMSN MSN20020207071509802/07/02 07:15:31  5-MIN KMSN 071315Z 27005KT 4SM BR CLR M02/M04 A2995 830 88 -1000 270/05 RMK AO2
14837KMSN MSN20020207072009802/07/02 07:20:31  5-MIN KMSN 071320Z 26006KT 4SM BR CLR M02/M04 A2995 830 88 -1000 260/06 RMK AO2
14837KMSN MSN20020207072509802/07/02 07:25:31  5-MIN KMSN 071325Z 27006KT 4SM BR CLR M02/M04 A2996 830 88 -1000 260/06 RMK AO2
14837KMSN MSN20020207073009802/07/02 07:30:31  5-MIN KMSN 071330Z 27005KT 4SM BR CLR M02/M04 A2996 830 88 -1000 270/05 RMK AO2
14837KMSN MSN20020207073509802/07/02 07:35:31  5-MIN KMSN 071335Z 26004KT 4SM BR CLR M02/M04 A2996 830 88 -1000 260/04 RMK AO2
14837KMSN MSN20020207074009802/07/02 07:40:31  5-MIN KMSN 071340Z 26005KT 4SM BR CLR M02/M04 A2996 820 88 -1000 260/05 RMK AO2
14837KMSN MSN20020207074509802/07/02 07:45:31  5-MIN KMSN 071345Z 26005KT 4SM BR CLR M02/M04 A2997 820 88 -1000 260/05 RMK AO2
14837KMSN MSN20020207075011502/07/02 07:50:31  5-MIN KMSN 071350Z VRB05KT 4SM BR CLR M02/M04 A2996 820 88 -1000 VRB/05 RMK AO2 SLP157 T10221039
14837KMSN MSN20020207075509802/07/02 07:55:31  5-MIN KMSN 071355Z 27007KT 4SM BR CLR M02/M04 A2997 820 88 -1000 270/07 RMK AO2
14837KMSN MSN20020207080009702/07/02 08:00:31  5-MIN KMSN 071400Z VRB06KT 4SM BR CLR M02/M04 A2997 820 85 -900 VRB/06 RMK AO2
14837KMSN MSN20020207080509702/07/02 08:05:31  5-MIN KMSN 071405Z 28007KT 5SM BR CLR M02/M04 A2997 820 85 -900 270/07 RMK AO2
14837KMSN MSN20020207081009702/07/02 08:10:31  5-MIN KMSN 071410Z 28006KT 5SM BR CLR M02/M04 A2997 820 85 -900 280/06 RMK AO2
14837KMSN MSN20020207081509702/07/02 08:15:31  5-MIN KMSN 071415Z 28006KT 5SM BR CLR M02/M04 A2997 810 85 -900 270/06 RMK AO2
14837KMSN MSN20020207082009702/07/02 08:20:31  5-MIN KMSN 071420Z 28007KT 5SM BR CLR M02/M04 A2998 810 85 -900 280/07 RMK AO2
14837KMSN MSN20020207082509702/07/02 08:25:31  5-MIN KMSN 071425Z 28006KT 5SM HZ CLR M01/M04 A2998 810 81 -900 270/06 RMK AO2
14837KMSN MSN20020207083009702/07/02 08:30:31  5-MIN KMSN 071430Z 28006KT 6SM HZ CLR M01/M04 A2997 810 81 -900 280/06 RMK AO2
14837KMSN MSN20020207083509702/07/02 08:35:31  5-MIN KMSN 071435Z 28007KT 6SM HZ CLR M01/M04 A2998 810 81 -900 280/07 RMK AO2
14837KMSN MSN20020207084009702/07/02 08:40:31  5-MIN KMSN 071440Z 28006KT 6SM BR CLR M01/M03 A2998 810 85 -900 280/06 RMK AO2
14837KMSN MSN20020207084509702/07/02 08:45:31  5-MIN KMSN 071445Z VRB05KT 6SM HZ CLR M01/M03 A2998 810 81 -800 VRB/05 RMK AO2
14837KMSN MSN20020207085012002/07/02 08:50:31  5-MIN KMSN 071450Z VRB05KT 6SM HZ CLR M01/M03 A2998 810 81 -800 VRB/05 RMK AO2 SLP162 T10061033 51009
14837KMSN MSN20020207085509702/07/02 08:55:31  5-MIN KMSN 071455Z 28006KT 6SM HZ CLR M01/M03 A2998 810 81 -800 280/06 RMK AO2
14837KMSN MSN20020207090009602/07/02 09:00:31  5-MIN KMSN 071500Z 28008KT 6SM HZ CLR 00/M03 A2998 810 78 -700 280/08 RMK AO2
14837KMSN MSN20020207090509602/07/02 09:05:31  5-MIN KMSN 071505Z 29007KT 6SM HZ CLR 00/M03 A2998 810 78 -700 290/07 RMK AO2
14837KMSN MSN20020207091009602/07/02 09:10:31  5-MIN KMSN 071510Z VRB05KT 6SM HZ CLR 00/M03 A2998 810 81 -700 VRB/05 RMK AO2
14837KMSN MSN20020207091509302/07/02 09:15:31  5-MIN KMSN 071515Z 30006KT 7SM CLR 01/M03 A2998 810 78 -700 300/06 RMK AO2
14837KMSN MSN20020207092009302/07/02 09:20:31  5-MIN KMSN 071520Z VRB06KT 7SM CLR 01/M03 A2998 810 78 -700 VRB/06 RMK AO2
14837KMSN MSN20020207092509302/07/02 09:25:31  5-MIN KMSN 071525Z VRB05KT 7SM CLR 01/M03 A2998 810 78 -700 VRB/05 RMK AO2
14837KMSN MSN20020207093009302/07/02 09:30:31  5-MIN KMSN 071530Z VRB06KT 7SM CLR 01/M03 A2998 810 78 -700 VRB/06 RMK AO2
14837KMSN MSN20020207093509302/07/02 09:35:31  5-MIN KMSN 071535Z 29005KT 8SM CLR 01/M03 A2998 810 75 -600 280/05 RMK AO2
14837KMSN MSN20020207094009402/07/02 09:40:31  5-MIN KMSN 071540Z 28007KT 10SM CLR 01/M03 A2999 800 75 -600 280/07 RMK AO2
14837KMSN MSN20020207094509402/07/02 09:45:31  5-MIN KMSN 071545Z VRB04KT 10SM CLR 01/M03 A2999 800 75 -600 VRB/04 RMK AO2
14837KMSN MSN20020207095011102/07/02 09:50:31  5-MIN KMSN 071550Z VRB05KT 10SM CLR 02/M03 A2999 800 72 -500 VRB/05 RMK AO2 SLP163 T00171028
14837KMSN MSN20020207095509402/07/02 09:55:31  5-MIN KMSN 071555Z VRB05KT 10SM CLR 02/M03 A2999 800 72 -500 VRB/05 RMK AO2
14837KMSN MSN20020207100009402/07/02 10:00:31  5-MIN KMSN 071600Z 26007KT 10SM CLR 02/M03 A2999 800 72 -500 260/07 RMK AO2
14837KMSN MSN20020207100509402/07/02 10:05:31  5-MIN KMSN 071605Z 28006KT 10SM CLR 02/M03 A2999 800 72 -500 280/06 RMK AO2
14837KMSN MSN20020207101009402/07/02 10:10:31  5-MIN KMSN 071610Z 30007KT 10SM CLR 02/M03 A2999 800 69 -500 300/07 RMK AO2
14837KMSN MSN20020207101509402/07/02 10:15:31  5-MIN KMSN 071615Z 29007KT 10SM CLR 02/M03 A3000 790 69 -500 290/07 RMK AO2
14837KMSN MSN20020207102009402/07/02 10:20:31  5-MIN KMSN 071620Z 29006KT 10SM CLR 02/M03 A3000 790 69 -500 290/06 RMK AO2
14837KMSN MSN20020207102509402/07/02 10:25:31  5-MIN KMSN 071625Z 31007KT 10SM CLR 02/M03 A3000 790 69 -500 310/07 RMK AO2
14837KMSN MSN20020207103009402/07/02 10:30:31  5-MIN KMSN 071630Z 29009KT 10SM CLR 02/M03 A3000 790 69 -500 290/09 RMK AO2
14837KMSN MSN20020207103509402/07/02 10:35:31  5-MIN KMSN 071635Z 29007KT 10SM CLR 03/M03 A3000 790 67 -400 290/07 RMK AO2
14837KMSN MSN20020207104009402/07/02 10:40:31  5-MIN KMSN 071640Z 28007KT 10SM CLR 03/M03 A3000 790 67 -400 280/07 RMK AO2
14837KMSN MSN20020207104509402/07/02 10:45:31  5-MIN KMSN 071645Z VRB06KT 10SM CLR 03/M03 A3000 790 67 -400 VRB/06 RMK AO2
14837KMSN MSN20020207105011102/07/02 10:50:31  5-MIN KMSN 071650Z 31008KT 10SM CLR 03/M03 A3000 790 67 -400 300/08 RMK AO2 SLP169 T00281028
14837KMSN MSN20020207105509402/07/02 10:55:31  5-MIN KMSN 071655Z VRB06KT 10SM CLR 03/M03 A3001 790 67 -400 VRB/06 RMK AO2
14837KMSN MSN20020207110009402/07/02 11:00:31  5-MIN KMSN 071700Z 31007KT 10SM CLR 03/M03 A3001 780 64 -400 310/07 RMK AO2
14837KMSN MSN20020207110509402/07/02 11:05:31  5-MIN KMSN 071705Z 30009KT 10SM CLR 03/M03 A3001 780 64 -400 300/09 RMK AO2
14837KMSN MSN20020207111009402/07/02 11:10:31  5-MIN KMSN 071710Z 31007KT 10SM CLR 03/M03 A3001 780 64 -400 300/07 RMK AO2
14837KMSN MSN20020207111509402/07/02 11:15:31  5-MIN KMSN 071715Z 31009KT 10SM CLR 04/M03 A3001 780 62 -300 310/09 RMK AO2
14837KMSN MSN20020207112009402/07/02 11:20:31  5-MIN KMSN 071720Z 30007KT 10SM CLR 04/M03 A3001 780 59 -300 300/07 RMK AO2
14837KMSN MSN20020207112509402/07/02 11:25:31  5-MIN KMSN 071725Z 31007KT 10SM CLR 04/M03 A3001 780 59 -200 310/07 RMK AO2
14837KMSN MSN20020207113009402/07/02 11:30:31  5-MIN KMSN 071730Z 31007KT 10SM CLR 04/M03 A3001 780 57 -200 310/07 RMK AO2
14837KMSN MSN20020207113509402/07/02 11:35:31  5-MIN KMSN 071735Z 32008KT 10SM CLR 04/M03 A3000 790 59 -300 320/08 RMK AO2
14837KMSN MSN20020207114009402/07/02 11:40:31  5-MIN KMSN 071740Z 31007KT 10SM CLR 04/M04 A3000 790 57 -300 310/07 RMK AO2
14837KMSN MSN20020207114509402/07/02 11:45:31  5-MIN KMSN 071745Z 31007KT 10SM CLR 04/M03 A3000 790 59 -200 310/07 RMK AO2
14837KMSN MSN20020207115012902/07/02 11:50:31  5-MIN KMSN 071750Z 32008KT 10SM CLR 04/M03 A2999 800 57 -200 320/08 RMK AO2 SLP165 T00441033 10044 21028 51022
14837KMSN MSN20020207115509402/07/02 11:55:31  5-MIN KMSN 071755Z 32007KT 10SM CLR 04/M04 A2999 800 55 -200 310/07 RMK AO2
14837KMSN MSN20020207120009402/07/02 12:00:31  5-MIN KMSN 071800Z 31006KT 10SM CLR 04/M03 A2999 800 57 -200 310/06 RMK AO2
14837KMSN MSN20020207120509402/07/02 12:05:31  5-MIN KMSN 071805Z 31005KT 10SM CLR 04/M03 A2999 800 57 -200 310/05 RMK AO2
14837KMSN MSN20020207121009402/07/02 12:10:31  5-MIN KMSN 071810Z VRB06KT 10SM CLR 05/M03 A2999 800 55 -100 VRB/06 RMK AO2
14837KMSN MSN20020207121509402/07/02 12:15:31  5-MIN KMSN 071815Z 28005KT 10SM CLR 04/M04 A2999 800 55 -200 280/05 RMK AO2
14837KMSN MSN20020207122009402/07/02 12:20:31  5-MIN KMSN 071820Z 29007KT 10SM CLR 05/M03 A2999 800 55 -100 290/07 RMK AO2
14837KMSN MSN20020207122509402/07/02 12:25:31  5-MIN KMSN 071825Z 29006KT 10SM CLR 05/M04 A2998 800 52 -100 290/06 RMK AO2
14837KMSN MSN20020207123009402/07/02 12:30:31  5-MIN KMSN 071830Z 26006KT 10SM CLR 05/M03 A2998 800 55 -100 260/06 RMK AO2
14837KMSN MSN20020207123509402/07/02 12:35:31  5-MIN KMSN 071835Z VRB06KT 10SM CLR 05/M03 A2998 810 55 -100 VRB/06 RMK AO2
14837KMSN MSN20020207124009102/07/02 12:40:31  5-MIN KMSN 071840Z 29007KT 10SM CLR 06/M03 A2998 810 53 0 290/07 RMK AO2
14837KMSN MSN20020207124509102/07/02 12:45:31  5-MIN KMSN 071845Z 30006KT 10SM CLR 06/M03 A2998 810 53 0 300/06 RMK AO2
14837KMSN MSN20020207125010802/07/02 12:50:31  5-MIN KMSN 071850Z 30006KT 10SM CLR 06/M03 A2998 810 53 0 300/06 RMK AO2 SLP161 T00561033
14837KMSN MSN20020207125509102/07/02 12:55:31  5-MIN KMSN 071855Z 30007KT 10SM CLR 06/M04 A2998 810 48 0 300/07 RMK AO2
14837KMSN MSN20020207130009102/07/02 13:00:31  5-MIN KMSN 071900Z 25005KT 10SM CLR 06/M03 A2998 810 53 0 250/05 RMK AO2
14837KMSN MSN20020207130509102/07/02 13:05:31  5-MIN KMSN 071905Z 28007KT 10SM CLR 06/M03 A2997 820 53 0 280/07 RMK AO2
14837KMSN MSN20020207131009102/07/02 13:10:31  5-MIN KMSN 071910Z VRB04KT 10SM CLR 06/M03 A2997 810 51 0 VRB/04 RMK AO2
14837KMSN MSN20020207131509102/07/02 13:15:31  5-MIN KMSN 071915Z 26006KT 10SM CLR 06/M03 A2997 810 53 0 260/06 RMK AO2
14837KMSN MSN20020207132009102/07/02 13:20:31  5-MIN KMSN 071920Z 26006KT 10SM CLR 06/M03 A2997 820 51 0 260/06 RMK AO2
14837KMSN MSN20020207132509102/07/02 13:25:31  5-MIN KMSN 071925Z VRB05KT 10SM CLR 06/M03 A2997 820 53 0 VRB/05 RMK AO2
14837KMSN MSN20020207133009102/07/02 13:30:31  5-MIN KMSN 071930Z 24007KT 10SM CLR 06/M03 A2997 820 53 0 240/07 RMK AO2
14837KMSN MSN20020207133509102/07/02 13:35:31  5-MIN KMSN 071935Z 25006KT 10SM CLR 06/M03 A2997 820 53 0 250/06 RMK AO2
14837KMSN MSN20020207134009102/07/02 13:40:31  5-MIN KMSN 071940Z 24005KT 10SM CLR 06/M03 A2997 820 53 0 240/05 RMK AO2
14837KMSN MSN20020207134509102/07/02 13:45:31  5-MIN KMSN 071945Z VRB05KT 10SM CLR 07/M03 A2997 820 51 0 VRB/05 RMK AO2
14837KMSN MSN20020207135010802/07/02 13:50:31  5-MIN KMSN 071950Z 24005KT 10SM CLR 06/M03 A2997 820 51 0 230/05 RMK AO2 SLP157 T00611033
14837KMSN MSN20020207135509102/07/02 13:55:31  5-MIN KMSN 071955Z VRB05KT 10SM CLR 06/M03 A2997 820 53 0 VRB/05 RMK AO2
14837KMSN MSN20020207140009102/07/02 14:00:31  5-MIN KMSN 072000Z VRB05KT 10SM CLR 06/M03 A2997 820 51 0 VRB/05 RMK AO2
14837KMSN MSN20020207140510902/07/02 14:05:31  5-MIN KMSN 072005Z 28007KT 250V320 10SM CLR 07/M03 A2997 820 49 100 280/07 250V320 RMK AO2
14837KMSN MSN20020207141009302/07/02 14:10:31  5-MIN KMSN 072010Z 24006KT 10SM CLR 07/M04 A2997 820 47 100 240/06 RMK AO2
14837KMSN MSN20020207141509302/07/02 14:15:31  5-MIN KMSN 072015Z 26007KT 10SM CLR 07/M04 A2997 820 47 100 260/07 RMK AO2
14837KMSN MSN20020207142009302/07/02 14:20:31  5-MIN KMSN 072020Z 28007KT 10SM CLR 07/M04 A2997 820 43 100 280/07 RMK AO2
14837KMSN MSN20020207142509302/07/02 14:25:31  5-MIN KMSN 072025Z VRB06KT 10SM CLR 07/M04 A2997 820 45 100 VRB/06 RMK AO2
14837KMSN MSN20020207143009302/07/02 14:30:31  5-MIN KMSN 072030Z VRB05KT 10SM CLR 07/M04 A2997 820 43 100 VRB/05 RMK AO2
14837KMSN MSN20020207143510902/07/02 14:35:31  5-MIN KMSN 072035Z 26007KT 220V280 10SM CLR 07/M04 A2997 820 45 100 260/07 220V280 RMK AO2
14837KMSN MSN20020207144010902/07/02 14:40:31  5-MIN KMSN 072040Z 26007KT 230V290 10SM CLR 07/M04 A2997 820 43 100 260/07 230V290 RMK AO2
14837KMSN MSN20020207144509302/07/02 14:45:31  5-MIN KMSN 072045Z 27008KT 10SM CLR 07/M04 A2997 820 43 100 270/08 RMK AO2
14837KMSN MSN20020207145011602/07/02 14:50:31  5-MIN KMSN 072050Z VRB06KT 10SM CLR 07/M04 A2997 820 43 100 VRB/06 RMK AO2 SLP156 T00721044 50004
14837KMSN MSN20020207145509302/07/02 14:55:31  5-MIN KMSN 072055Z VRB05KT 10SM CLR 07/M04 A2997 820 43 100 VRB/05 RMK AO2
14837KMSN MSN20020207150009302/07/02 15:00:31  5-MIN KMSN 072100Z 00000KT 10SM CLR 07/M04 A2997 820 43 100 000/00 RMK AO2
14837KMSN MSN20020207150509302/07/02 15:05:31  5-MIN KMSN 072105Z 23004KT 10SM CLR 07/M04 A2997 820 43 100 230/04 RMK AO2
14837KMSN MSN20020207151009302/07/02 15:10:31  5-MIN KMSN 072110Z 24004KT 10SM CLR 08/M04 A2997 820 41 200 240/04 RMK AO2
14837KMSN MSN20020207151509302/07/02 15:15:31  5-MIN KMSN 072115Z VRB04KT 10SM CLR 08/M04 A2997 820 41 200 VRB/04 RMK AO2
14837KMSN MSN20020207152009302/07/02 15:20:31  5-MIN KMSN 072120Z 24004KT 10SM CLR 08/M05 A2997 820 40 200 240/04 RMK AO2
14837KMSN MSN20020207152509302/07/02 15:25:31  5-MIN KMSN 072125Z VRB04KT 10SM CLR 08/M05 A2997 820 40 200 VRB/04 RMK AO2
14837KMSN MSN20020207153009302/07/02 15:30:31  5-MIN KMSN 072130Z 22003KT 10SM CLR 08/M05 A2997 820 40 200 220/03 RMK AO2
14837KMSN MSN20020207153509302/07/02 15:35:31  5-MIN KMSN 072135Z 24004KT 10SM CLR 08/M04 A2997 820 41 200 230/04 RMK AO2
14837KMSN MSN20020207154009302/07/02 15:40:31  5-MIN KMSN 072140Z 26004KT 10SM CLR 08/M05 A2998 810 40 200 260/04 RMK AO2
14837KMSN MSN20020207154509302/07/02 15:45:31  5-MIN KMSN 072145Z 24004KT 10SM CLR 08/M06 A2998 810 38 200 240/04 RMK AO2
14837KMSN MSN20020207155011002/07/02 15:50:31  5-MIN KMSN 072150Z 24004KT 10SM CLR 08/M06 A2998 810 38 200 240/04 RMK AO2 SLP159 T00781056
14837KMSN MSN20020207155509302/07/02 15:55:31  5-MIN KMSN 072155Z 23003KT 10SM CLR 08/M06 A2998 810 38 200 230/03 RMK AO2
14837KMSN MSN20020207160009302/07/02 16:00:31  5-MIN KMSN 072200Z 22004KT 10SM CLR 08/M06 A2997 820 38 200 220/04 RMK AO2
14837KMSN MSN20020207160509302/07/02 16:05:31  5-MIN KMSN 072205Z 21004KT 10SM CLR 08/M06 A2997 820 38 200 210/04 RMK AO2
14837KMSN MSN20020207161009302/07/02 16:10:31  5-MIN KMSN 072210Z 22004KT 10SM CLR 08/M06 A2997 820 38 200 220/04 RMK AO2
14837KMSN MSN20020207161509302/07/02 16:15:31  5-MIN KMSN 072215Z 23004KT 10SM CLR 08/M06 A2997 820 38 200 220/04 RMK AO2
14837KMSN MSN20020207162009302/07/02 16:20:31  5-MIN KMSN 072220Z 00000KT 10SM CLR 08/M05 A2997 820 40 200 000/00 RMK AO2
14837KMSN MSN20020207162509302/07/02 16:25:31  5-MIN KMSN 072225Z 00000KT 10SM CLR 08/M05 A2997 820 40 200 000/00 RMK AO2
14837KMSN MSN20020207163009302/07/02 16:30:31  5-MIN KMSN 072230Z 21005KT 10SM CLR 07/M04 A2998 810 45 100 210/05 RMK AO2
14837KMSN MSN20020207163509302/07/02 16:35:31  5-MIN KMSN 072235Z 20004KT 10SM CLR 07/M04 A2997 810 45 100 200/04 RMK AO2
14837KMSN MSN20020207164009302/07/02 16:40:31  5-MIN KMSN 072240Z 21003KT 10SM CLR 07/M04 A2998 810 45 100 210/03 RMK AO2
14837KMSN MSN20020207164509302/07/02 16:45:31  5-MIN KMSN 072245Z VRB04KT 10SM CLR 07/M04 A2998 810 45 100 VRB/04 RMK AO2
14837KMSN MSN20020207165010802/07/02 16:50:31  5-MIN KMSN 072250Z 19004KT 10SM CLR 07/M04 A2998 810 47 0 190/04 RMK AO2 SLP159 T00671039
14837KMSN MSN20020207165509102/07/02 16:55:31  5-MIN KMSN 072255Z 20004KT 10SM CLR 07/M04 A2998 810 47 0 200/04 RMK AO2
14837KMSN MSN20020207170009102/07/02 17:00:31  5-MIN KMSN 072300Z 19005KT 10SM CLR 06/M03 A2998 810 51 0 190/05 RMK AO2
14837KMSN MSN20020207170509102/07/02 17:05:31  5-MIN KMSN 072305Z 18004KT 10SM CLR 06/M03 A2998 810 53 0 180/04 RMK AO2
14837KMSN MSN20020207171009402/07/02 17:10:31  5-MIN KMSN 072310Z 19004KT 10SM CLR 03/M02 A2998 810 69 -400 190/04 RMK AO2
14837KMSN MSN20020207171509402/07/02 17:15:31  5-MIN KMSN 072315Z 20004KT 10SM CLR 04/M02 A2998 810 62 -200 190/04 RMK AO2
14837KMSN MSN20020207172009402/07/02 17:20:31  5-MIN KMSN 072320Z 20004KT 10SM CLR 06/M02 A2998 810 57 -100 200/04 RMK AO2
14837KMSN MSN20020207172509402/07/02 17:25:31  5-MIN KMSN 072325Z 20005KT 10SM CLR 06/M03 A2998 800 55 -100 200/05 RMK AO2
14837KMSN MSN20020207173009402/07/02 17:30:31  5-MIN KMSN 072330Z 21006KT 10SM CLR 05/M03 A2999 800 57 -100 210/06 RMK AO2
14837KMSN MSN20020207173509402/07/02 17:35:31  5-MIN KMSN 072335Z 21006KT 10SM CLR 05/M03 A2999 800 57 -100 210/06 RMK AO2
14837KMSN MSN20020207174009402/07/02 17:40:31  5-MIN KMSN 072340Z 21007KT 10SM CLR 05/M03 A2999 800 57 -100 210/07 RMK AO2
14837KMSN MSN20020207174509402/07/02 17:45:31  5-MIN KMSN 072345Z 21007KT 10SM CLR 05/M03 A2999 800 57 -100 210/07 RMK AO2
14837KMSN MSN20020207175012902/07/02 17:50:31  5-MIN KMSN 072350Z 20005KT 10SM CLR 05/M03 A2999 800 57 -100 200/05 RMK AO2 SLP166 T00501028 10078 20028 56008
14837KMSN MSN20020207175509402/07/02 17:55:31  5-MIN KMSN 072355Z 20005KT 10SM CLR 04/M03 A3000 790 59 -200 200/05 RMK AO2
14837KMSN MSN20020207180009402/07/02 18:00:31  5-MIN KMSN 080000Z 21006KT 10SM CLR 04/M03 A3000 790 59 -200 210/06 RMK AO2
14837KMSN MSN20020207180509402/07/02 18:05:31  5-MIN KMSN 080005Z 21007KT 10SM CLR 04/M03 A3000 790 59 -200 210/07 RMK AO2
14837KMSN MSN20020207181009402/07/02 18:10:31  5-MIN KMSN 080010Z 22006KT 10SM CLR 04/M03 A3000 790 59 -200 210/06 RMK AO2
14837KMSN MSN20020207181509402/07/02 18:15:31  5-MIN KMSN 080015Z 22006KT 10SM CLR 04/M03 A3000 790 59 -200 220/06 RMK AO2
14837KMSN MSN20020207182009402/07/02 18:20:31  5-MIN KMSN 080020Z 22006KT 10SM CLR 04/M03 A3000 790 59 -200 220/06 RMK AO2
14837KMSN MSN20020207182509402/07/02 18:25:31  5-MIN KMSN 080025Z 21005KT 10SM CLR 04/M03 A3000 790 62 -300 210/05 RMK AO2
14837KMSN MSN20020207183009402/07/02 18:30:31  5-MIN KMSN 080030Z 22007KT 10SM CLR 04/M03 A3000 790 62 -300 220/07 RMK AO2
14837KMSN MSN20020207183509402/07/02 18:35:31  5-MIN KMSN 080035Z 22007KT 10SM CLR 04/M03 A3000 790 62 -300 220/07 RMK AO2
14837KMSN MSN20020207184009402/07/02 18:40:31  5-MIN KMSN 080040Z 22007KT 10SM CLR 04/M03 A3000 790 62 -300 220/07 RMK AO2
14837KMSN MSN20020207184509402/07/02 18:45:31  5-MIN KMSN 080045Z 23006KT 10SM CLR 03/M03 A3000 790 64 -300 230/06 RMK AO2
14837KMSN MSN20020207185011102/07/02 18:50:31  5-MIN KMSN 080050Z 22006KT 10SM CLR 03/M03 A3000 790 64 -300 220/06 RMK AO2 SLP170 T00331028
14837KMSN MSN20020207185509402/07/02 18:55:31  5-MIN KMSN 080055Z 22005KT 10SM CLR 03/M03 A3000 790 64 -300 210/05 RMK AO2
14837KMSN MSN20020207190009402/07/02 19:00:31  5-MIN KMSN 080100Z 22006KT 10SM CLR 03/M03 A3000 790 64 -300 220/06 RMK AO2
14837KMSN MSN20020207190509402/07/02 19:05:31  5-MIN KMSN 080105Z 22007KT 10SM CLR 03/M03 A3000 790 64 -300 220/07 RMK AO2
14837KMSN MSN20020207191009402/07/02 19:10:31  5-MIN KMSN 080110Z 21006KT 10SM CLR 03/M03 A2999 800 64 -300 210/06 RMK AO2
14837KMSN MSN20020207191509402/07/02 19:15:31  5-MIN KMSN 080115Z 21005KT 10SM CLR 03/M03 A2999 800 64 -300 210/05 RMK AO2
14837KMSN MSN20020207192009402/07/02 19:20:31  5-MIN KMSN 080120Z 21006KT 10SM CLR 03/M03 A2999 800 67 -400 210/06 RMK AO2
14837KMSN MSN20020207192509402/07/02 19:25:31  5-MIN KMSN 080125Z 21008KT 10SM CLR 03/M03 A2999 800 67 -400 210/08 RMK AO2
14837KMSN MSN20020207193009402/07/02 19:30:31  5-MIN KMSN 080130Z 21008KT 10SM CLR 03/M03 A2999 800 64 -300 210/08 RMK AO2
14837KMSN MSN20020207193509402/07/02 19:35:31  5-MIN KMSN 080135Z 21008KT 10SM CLR 03/M03 A2999 800 67 -400 210/08 RMK AO2
14837KMSN MSN20020207194009402/07/02 19:40:31  5-MIN KMSN 080140Z 21008KT 10SM CLR 03/M03 A2999 800 67 -400 210/08 RMK AO2
14837KMSN MSN20020207194509402/07/02 19:45:31  5-MIN KMSN 080145Z 22009KT 10SM CLR 03/M03 A2998 810 67 -400 210/09 RMK AO2
14837KMSN MSN20020207195011102/07/02 19:50:31  5-MIN KMSN 080150Z 21009KT 10SM CLR 03/M03 A2998 810 67 -400 210/09 RMK AO2 SLP162 T00281028
14837KMSN MSN20020207195509402/07/02 19:55:31  5-MIN KMSN 080155Z 21009KT 10SM CLR 03/M03 A2998 810 67 -400 210/09 RMK AO2
14837KMSN MSN20020207200009402/07/02 20:00:31  5-MIN KMSN 080200Z 22008KT 10SM CLR 03/M03 A2997 810 67 -400 210/08 RMK AO2
14837KMSN MSN20020207200509402/07/02 20:05:31  5-MIN KMSN 080205Z 21008KT 10SM CLR 03/M03 A2997 820 67 -400 210/08 RMK AO2
14837KMSN MSN20020207201009402/07/02 20:10:31  5-MIN KMSN 080210Z 21008KT 10SM CLR 02/M03 A2997 820 69 -400 210/08 RMK AO2
14837KMSN MSN20020207201509402/07/02 20:15:31  5-MIN KMSN 080215Z 21008KT 10SM CLR 02/M03 A2997 820 69 -400 210/08 RMK AO2
14837KMSN MSN20020207202009402/07/02 20:20:31  5-MIN KMSN 080220Z 21008KT 10SM CLR 02/M03 A2996 820 69 -400 210/08 RMK AO2
14837KMSN MSN20020207202509402/07/02 20:25:31  5-MIN KMSN 080225Z 21007KT 10SM CLR 02/M03 A2996 830 69 -400 210/07 RMK AO2
14837KMSN MSN20020207203009402/07/02 20:30:31  5-MIN KMSN 080230Z 20006KT 10SM CLR 02/M03 A2995 830 72 -500 190/06 RMK AO2
14837KMSN MSN20020207203509402/07/02 20:35:31  5-MIN KMSN 080235Z 20007KT 10SM CLR 02/M03 A2995 830 72 -500 200/07 RMK AO2
14837KMSN MSN20020207204009402/07/02 20:40:31  5-MIN KMSN 080240Z 20007KT 10SM CLR 02/M03 A2995 840 69 -400 200/07 RMK AO2
14837KMSN MSN20020207204509402/07/02 20:45:31  5-MIN KMSN 080245Z 20006KT 10SM CLR 02/M03 A2994 840 72 -500 200/06 RMK AO2
14837KMSN MSN20020207205011702/07/02 20:50:31  5-MIN KMSN 080250Z 20007KT 10SM CLR 02/M03 A2994 840 72 -500 200/07 RMK AO2 SLP149 T00171028 53009
14837KMSN MSN20020207205509402/07/02 20:55:31  5-MIN KMSN 080255Z 20009KT 10SM CLR 02/M03 A2994 850 72 -500 200/09 RMK AO2
14837KMSN MSN20020207210009402/07/02 21:00:31  5-MIN KMSN 080300Z 21009KT 10SM CLR 02/M03 A2994 840 72 -500 210/09 RMK AO2
14837KMSN MSN20020207210509402/07/02 21:05:31  5-MIN KMSN 080305Z 21009KT 10SM CLR 02/M03 A2994 840 72 -500 210/09 RMK AO2
14837KMSN MSN20020207211009402/07/02 21:10:31  5-MIN KMSN 080310Z 21009KT 10SM CLR 02/M03 A2994 840 72 -500 210/09 RMK AO2
14837KMSN MSN20020207211509402/07/02 21:15:31  5-MIN KMSN 080315Z 21008KT 10SM CLR 02/M03 A2994 850 72 -500 210/08 RMK AO2
14837KMSN MSN20020207212009402/07/02 21:20:31  5-MIN KMSN 080320Z 21007KT 10SM CLR 02/M03 A2994 850 72 -500 210/07 RMK AO2
14837KMSN MSN20020207212509402/07/02 21:25:31  5-MIN KMSN 080325Z 21008KT 10SM CLR 02/M03 A2994 850 72 -500 210/08 RMK AO2
14837KMSN MSN20020207213009402/07/02 21:30:31  5-MIN KMSN 080330Z 21007KT 10SM CLR 02/M03 A2993 850 72 -500 210/07 RMK AO2
14837KMSN MSN20020207213509402/07/02 21:35:31  5-MIN KMSN 080335Z 22007KT 10SM CLR 02/M03 A2994 850 72 -500 220/07 RMK AO2
14837KMSN MSN20020207215011102/07/02 21:50:31  5-MIN KMSN 080350Z 20006KT 10SM CLR 01/M03 A2994 850 75 -500 200/06 RMK AO2 SLP146 T00111028
14837KMSN MSN20020207215509302/07/02 21:55:31  5-MIN KMSN 080355Z VRB04KT 9SM CLR 01/M03 A2994 850 75 -600 VRB/04 RMK AO2
14837KMSN MSN20020207220009302/07/02 22:00:31  5-MIN KMSN 080400Z 21006KT 8SM CLR 01/M03 A2995 840 78 -600 210/06 RMK AO2
14837KMSN MSN20020207220509402/07/02 22:05:31  5-MIN KMSN 080405Z 22008KT 10SM CLR 01/M03 A2995 840 78 -600 220/08 RMK AO2
14837KMSN MSN20020207221009402/07/02 22:10:31  5-MIN KMSN 080410Z 21006KT 10SM CLR 01/M03 A2995 840 78 -600 210/06 RMK AO2
14837KMSN MSN20020207221509402/07/02 22:15:31  5-MIN KMSN 080415Z 20009KT 10SM CLR 01/M03 A2994 840 78 -600 200/09 RMK AO2
14837KMSN MSN20020207222009402/07/02 22:20:31  5-MIN KMSN 080420Z 20007KT 10SM CLR 00/M03 A2995 840 81 -700 200/07 RMK AO2
14837KMSN MSN20020207222509402/07/02 22:25:31  5-MIN KMSN 080425Z 20008KT 10SM CLR 00/M03 A2994 840 81 -700 200/08 RMK AO2
14837KMSN MSN20020207223009402/07/02 22:30:31  5-MIN KMSN 080430Z 21008KT 10SM CLR 01/M03 A2994 840 78 -600 210/08 RMK AO2
14837KMSN MSN20020207223509302/07/02 22:35:31  5-MIN KMSN 080435Z 21007KT 7SM CLR 01/M03 A2994 840 78 -600 210/07 RMK AO2
14837KMSN MSN20020207224009302/07/02 22:40:31  5-MIN KMSN 080440Z 22006KT 7SM CLR 01/M03 A2995 840 78 -600 220/06 RMK AO2
14837KMSN MSN20020207224509302/07/02 22:45:31  5-MIN KMSN 080445Z 22006KT 7SM CLR 01/M03 A2994 840 78 -600 220/06 RMK AO2
14837KMSN MSN20020207225011002/07/02 22:50:31  5-MIN KMSN 080450Z 21007KT 7SM CLR 01/M03 A2994 840 78 -600 210/07 RMK AO2 SLP147 T00061028
14837KMSN MSN20020207225509302/07/02 22:55:31  5-MIN KMSN 080455Z 21008KT 7SM CLR 01/M03 A2994 850 78 -600 200/08 RMK AO2
14837KMSN MSN20020207230009302/07/02 23:00:31  5-MIN KMSN 080500Z 21008KT 7SM CLR 00/M03 A2993 850 81 -700 210/08 RMK AO2
14837KMSN MSN20020207230509302/07/02 23:05:31  5-MIN KMSN 080505Z 20009KT 7SM CLR 01/M03 A2993 860 78 -600 200/09 RMK AO2
14837KMSN MSN20020207231009602/07/02 23:10:31  5-MIN KMSN 080510Z 21009KT 6SM HZ CLR 00/M03 A2993 860 81 -700 210/09 RMK AO2
14837KMSN MSN20020207231509602/07/02 23:15:31  5-MIN KMSN 080515Z 21009KT 6SM HZ CLR 00/M03 A2993 850 81 -700 210/09 RMK AO2
14837KMSN MSN20020207232009602/07/02 23:20:31  5-MIN KMSN 080520Z 21010KT 6SM HZ CLR 01/M03 A2993 860 78 -600 210/10 RMK AO2
14837KMSN MSN20020207232510202/07/02 23:25:31  5-MIN KMSN 080525Z 22010G16KT 6SM HZ CLR 01/M03 A2993 860 78 -600 220/10G16 RMK AO2
14837KMSN MSN20020207233009602/07/02 23:30:31  5-MIN KMSN 080530Z 21011KT 6SM HZ CLR 01/M03 A2993 860 78 -600 210/11 RMK AO2
14837KMSN MSN20020207233509602/07/02 23:35:31  5-MIN KMSN 080535Z 23009KT 6SM HZ CLR 01/M03 A2993 860 78 -600 220/09 RMK AO2
14837KMSN MSN20020207234010202/07/02 23:40:31  5-MIN KMSN 080540Z 22008G14KT 6SM HZ CLR 01/M03 A2993 850 78 -600 220/08G14 RMK AO2
14837KMSN MSN20020207234510202/07/02 23:45:31  5-MIN KMSN 080545Z 23008G15KT 6SM HZ CLR 01/M03 A2993 850 78 -600 230/08G15 RMK AO2
14837KMSN MSN20020207235014402/07/02 23:50:31  5-MIN KMSN 080550Z 23007G15KT 7SM CLR 01/M03 A2994 850 75 -600 230/07G15 RMK AO2 SLP145 T00061033 10044 20000 400781028 58018
14837KMSN MSN20020207235509602/07/02 23:55:31  5-MIN KMSN 080555Z 22008KT 6SM HZ CLR 01/M03 A2993 850 78 -600 220/08 RMK AO2
14837KMSN MSN20020208000009602/08/02 00:00:31  5-MIN KMSN 080600Z 23009KT 6SM HZ CLR 01/M03 A2993 850 78 -600 230/09 RMK AO2
14837KMSN MSN20020208000510202/08/02 00:05:31  5-MIN KMSN 080605Z 23009G16KT 6SM HZ CLR 01/M03 A2993 850 75 -600 230/09G16 RMK AO2
14837KMSN MSN20020208001010202/08/02 00:10:31  5-MIN KMSN 080610Z 22008G16KT 6SM HZ CLR 01/M03 A2993 850 78 -600 220/08G16 RMK AO2
14837KMSN MSN20020208001509602/08/02 00:15:31  5-MIN KMSN 080615Z 22010KT 6SM HZ CLR 01/M03 A2993 860 78 -600 220/10 RMK AO2
14837KMSN MSN20020208002010202/08/02 00:20:31  5-MIN KMSN 080620Z 22009G15KT 6SM HZ CLR 01/M03 A2993 860 78 -600 220/09G15 RMK AO2
14837KMSN MSN20020208002509602/08/02 00:25:31  5-MIN KMSN 080625Z 22009KT 6SM HZ CLR 01/M03 A2993 860 78 -600 220/09 RMK AO2
14837KMSN MSN20020208003009602/08/02 00:30:31  5-MIN KMSN 080630Z 22010KT 6SM HZ CLR 01/M03 A2993 860 78 -600 220/10 RMK AO2
14837KMSN MSN20020208003509602/08/02 00:35:31  5-MIN KMSN 080635Z 22009KT 6SM HZ CLR 01/M03 A2992 860 78 -600 220/09 RMK AO2
14837KMSN MSN20020208004010902/08/02 00:40:31  5-MIN KMSN 080640Z 22010KT 6SM -SN CLR 01/M03 A2992 860 78 -600 220/10 RMK AO2 SNB39 P0000
14837KMSN MSN20020208004510202/08/02 00:45:31  5-MIN KMSN 080645Z 23008KT 6SM HZ CLR 01/M03 A2992 870 78 -600 230/08 RMK AO2 P0000
14837KMSN MSN20020208005011002/08/02 00:50:31  5-MIN KMSN 080650Z 22009KT 7SM CLR 01/M03 A2992 870 78 -600 220/09 RMK AO2 SLP138 T00061028
14837KMSN MSN20020208005509602/08/02 00:55:31  5-MIN KMSN 080655Z 22008KT 6SM HZ CLR 00/M03 A2992 870 81 -700 210/08 RMK AO2
14837KMSN MSN20020208010009602/08/02 01:00:31  5-MIN KMSN 080700Z 22009KT 5SM HZ CLR 00/M03 A2991 870 81 -700 220/09 RMK AO2
14837KMSN MSN20020208010509602/08/02 01:05:31  5-MIN KMSN 080705Z 22008KT 5SM HZ CLR 00/M03 A2991 870 81 -700 220/08 RMK AO2
14837KMSN MSN20020208011009602/08/02 01:10:31  5-MIN KMSN 080710Z 22007KT 6SM HZ CLR 00/M03 A2992 870 81 -700 220/07 RMK AO2
14837KMSN MSN20020208011509602/08/02 01:15:31  5-MIN KMSN 080715Z 23007KT 6SM HZ CLR 00/M03 A2992 870 78 -700 230/07 RMK AO2
14837KMSN MSN20020208012009602/08/02 01:20:31  5-MIN KMSN 080720Z 23008KT 6SM HZ CLR 00/M03 A2992 870 81 -700 230/08 RMK AO2
14837KMSN MSN20020208012509602/08/02 01:25:31  5-MIN KMSN 080725Z 22008KT 6SM HZ CLR 00/M03 A2992 870 81 -700 220/08 RMK AO2
14837KMSN MSN20020208013011202/08/02 01:30:31  5-MIN KMSN 080730Z 23007KT 190V260 6SM HZ CLR 00/M03 A2992 860 78 -700 230/07 190V260 RMK AO2
14837KMSN MSN20020208013509602/08/02 01:35:31  5-MIN KMSN 080735Z 23008KT 6SM HZ CLR 00/M03 A2992 860 78 -700 230/08 RMK AO2
14837KMSN MSN20020208014009602/08/02 01:40:31  5-MIN KMSN 080740Z 23008KT 6SM HZ CLR 00/M03 A2992 870 78 -700 230/08 RMK AO2
14837KMSN MSN20020208014509602/08/02 01:45:31  5-MIN KMSN 080745Z 24007KT 6SM HZ CLR 00/M03 A2992 870 78 -700 240/07 RMK AO2
14837KMSN MSN20020208015011002/08/02 01:50:31  5-MIN KMSN 080750Z 23006KT 7SM CLR 00/M03 A2992 870 78 -700 230/06 RMK AO2 SLP139 T00001033
14837KMSN MSN20020208015509602/08/02 01:55:31  5-MIN KMSN 080755Z 22008KT 6SM HZ CLR 00/M03 A2992 870 78 -700 220/08 RMK AO2
14837KMSN MSN20020208020009602/08/02 02:00:31  5-MIN KMSN 080800Z 22006KT 6SM HZ CLR 00/M03 A2992 870 78 -700 220/06 RMK AO2
14837KMSN MSN20020208020509702/08/02 02:05:31  5-MIN KMSN 080805Z VRB04KT 6SM HZ CLR M01/M03 A2991 870 81 -700 VRB/04 RMK AO2
14837KMSN MSN20020208021009602/08/02 02:10:31  5-MIN KMSN 080810Z VRB06KT 6SM HZ CLR 00/M03 A2991 870 78 -700 VRB/06 RMK AO2
14837KMSN MSN20020208021509602/08/02 02:15:31  5-MIN KMSN 080815Z 22006KT 6SM HZ CLR 00/M03 A2991 870 78 -700 220/06 RMK AO2
14837KMSN MSN20020208022009602/08/02 02:20:31  5-MIN KMSN 080820Z VRB06KT 6SM HZ CLR 00/M03 A2992 870 78 -700 VRB/06 RMK AO2
14837KMSN MSN20020208022509702/08/02 02:25:31  5-MIN KMSN 080825Z VRB04KT 6SM HZ CLR M01/M03 A2992 870 81 -700 VRB/04 RMK AO2
14837KMSN MSN20020208023009602/08/02 02:30:31  5-MIN KMSN 080830Z VRB04KT 6SM HZ CLR 00/M03 A2992 860 78 -700 VRB/04 RMK AO2
14837KMSN MSN20020208023509702/08/02 02:35:31  5-MIN KMSN 080835Z VRB03KT 6SM HZ CLR M01/M03 A2992 860 81 -700 VRB/03 RMK AO2
14837KMSN MSN20020208024009702/08/02 02:40:31  5-MIN KMSN 080840Z 22005KT 6SM HZ CLR M01/M04 A2992 860 78 -700 220/05 RMK AO2
14837KMSN MSN20020208024509702/08/02 02:45:31  5-MIN KMSN 080845Z VRB04KT 6SM HZ CLR M01/M04 A2992 860 78 -700 VRB/04 RMK AO2
14837KMSN MSN20020208025011702/08/02 02:50:31  5-MIN KMSN 080850Z 21005KT 7SM CLR M01/M04 A2992 870 78 -700 210/05 RMK AO2 SLP139 T10061039 57002
14837KMSN MSN20020208025509702/08/02 02:55:31  5-MIN KMSN 080855Z 21006KT 6SM HZ CLR M01/M04 A2992 870 78 -700 210/06 RMK AO2
14837KMSN MSN20020208030009702/08/02 03:00:31  5-MIN KMSN 080900Z VRB04KT 6SM HZ CLR M01/M04 A2992 870 78 -700 VRB/04 RMK AO2
14837KMSN MSN20020208030509702/08/02 03:05:31  5-MIN KMSN 080905Z 00000KT 6SM HZ CLR M01/M04 A2992 860 78 -700 000/00 RMK AO2
14837KMSN MSN20020208031009702/08/02 03:10:31  5-MIN KMSN 080910Z VRB03KT 6SM HZ CLR M01/M04 A2992 860 78 -700 VRB/03 RMK AO2
14837KMSN MSN20020208031509702/08/02 03:15:31  5-MIN KMSN 080915Z VRB03KT 6SM HZ CLR M01/M04 A2992 860 78 -700 VRB/03 RMK AO2
14837KMSN MSN20020208032009702/08/02 03:20:31  5-MIN KMSN 080920Z 21006KT 6SM HZ CLR M01/M04 A2992 860 78 -700 210/06 RMK AO2
14837KMSN MSN20020208032509702/08/02 03:25:31  5-MIN KMSN 080925Z 23007KT 6SM HZ CLR M01/M04 A2992 860 75 -700 220/07 RMK AO2
14837KMSN MSN20020208033009702/08/02 03:30:31  5-MIN KMSN 080930Z VRB05KT 6SM HZ CLR M01/M04 A2992 870 78 -700 VRB/05 RMK AO2
14837KMSN MSN20020208033509402/08/02 03:35:31  5-MIN KMSN 080935Z 23005KT 7SM CLR M01/M04 A2992 870 78 -700 220/05 RMK AO2
14837KMSN MSN20020208034009402/08/02 03:40:31  5-MIN KMSN 080940Z 22005KT 7SM CLR M01/M04 A2992 870 75 -700 220/05 RMK AO2
14837KMSN MSN20020208034509402/08/02 03:45:31  5-MIN KMSN 080945Z 22006KT 7SM CLR M01/M04 A2992 870 75 -700 220/06 RMK AO2
14837KMSN MSN20020208035011402/08/02 03:50:31  5-MIN KMSN 080950Z 23005KT 6SM HZ CLR M01/M04 A2991 870 75 -700 230/05 RMK AO2 SLP137 T10061044
14837KMSN MSN20020208035509702/08/02 03:55:31  5-MIN KMSN 080955Z 23005KT 6SM HZ CLR M01/M04 A2991 870 78 -800 230/05 RMK AO2
14837KMSN MSN20020208040009402/08/02 04:00:31  5-MIN KMSN 081000Z 24006KT 7SM CLR M01/M05 A2992 870 72 -700 240/06 RMK AO2
14837KMSN MSN20020208040509402/08/02 04:05:31  5-MIN KMSN 081005Z 25007KT 7SM CLR M01/M04 A2992 860 78 -800 250/07 RMK AO2
14837KMSN MSN20020208041009402/08/02 04:10:31  5-MIN KMSN 081010Z 24007KT 7SM CLR M01/M04 A2992 860 81 -800 240/07 RMK AO2
14837KMSN MSN20020208041509402/08/02 04:15:31  5-MIN KMSN 081015Z 23007KT 7SM CLR M01/M04 A2992 860 81 -800 230/07 RMK AO2
14837KMSN MSN20020208042009402/08/02 04:20:31  5-MIN KMSN 081020Z VRB04KT 7SM CLR M01/M04 A2992 860 78 -700 VRB/04 RMK AO2
14837KMSN MSN20020208042509402/08/02 04:25:31  5-MIN KMSN 081025Z VRB03KT 7SM CLR M01/M04 A2993 860 81 -800 VRB/03 RMK AO2
14837KMSN MSN20020208043009402/08/02 04:30:31  5-MIN KMSN 081030Z 24005KT 7SM CLR M01/M04 A2993 860 81 -800 240/05 RMK AO2
14837KMSN MSN20020208043509402/08/02 04:35:31  5-MIN KMSN 081035Z 23005KT 7SM CLR M01/M04 A2993 850 81 -800 230/05 RMK AO2
14837KMSN MSN20020208044009702/08/02 04:40:31  5-MIN KMSN 081040Z 24006KT 6SM HZ CLR M01/M04 A2993 850 81 -800 240/06 RMK AO2
14837KMSN MSN20020208044509402/08/02 04:45:31  5-MIN KMSN 081045Z VRB04KT 7SM CLR M01/M04 A2993 860 81 -800 VRB/04 RMK AO2
14837KMSN MSN20020208045011102/08/02 04:50:31  5-MIN KMSN 081050Z VRB03KT 8SM CLR M01/M04 A2994 850 81 -800 VRB/03 RMK AO2 SLP145 T10111039
14837KMSN MSN20020208045509702/08/02 04:55:31  5-MIN KMSN 081055Z 25005KT 6SM HZ CLR M01/M04 A2994 850 81 -800 250/05 RMK AO2
14837KMSN MSN20020208050009702/08/02 05:00:31  5-MIN KMSN 081100Z 26005KT 6SM HZ CLR M01/M04 A2994 850 81 -800 260/05 RMK AO2
14837KMSN MSN20020208050509702/08/02 05:05:31  5-MIN KMSN 081105Z VRB05KT 6SM BR CLR M02/M04 A2994 850 85 -900 VRB/05 RMK AO2
14837KMSN MSN20020208051009702/08/02 05:10:31  5-MIN KMSN 081110Z 24005KT 6SM BR CLR M02/M04 A2993 850 85 -900 240/05 RMK AO2
14837KMSN MSN20020208051509402/08/02 05:15:31  5-MIN KMSN 081115Z 24004KT 7SM CLR M01/M04 A2993 860 81 -800 230/04 RMK AO2
14837KMSN MSN20020208052009402/08/02 05:20:31  5-MIN KMSN 081120Z VRB04KT 7SM CLR M01/M04 A2993 850 81 -800 VRB/04 RMK AO2
14837KMSN MSN20020208052509402/08/02 05:25:31  5-MIN KMSN 081125Z 23004KT 7SM CLR M01/M04 A2993 860 81 -800 230/04 RMK AO2
14837KMSN MSN20020208053009402/08/02 05:30:31  5-MIN KMSN 081130Z VRB03KT 7SM CLR M01/M04 A2993 850 81 -800 VRB/03 RMK AO2
14837KMSN MSN20020208053509402/08/02 05:35:31  5-MIN KMSN 081135Z VRB03KT 7SM CLR M01/M04 A2993 850 81 -800 VRB/03 RMK AO2
14837KMSN MSN20020208054009402/08/02 05:40:31  5-MIN KMSN 081140Z VRB03KT 7SM CLR M01/M04 A2994 850 81 -800 VRB/03 RMK AO2
14837KMSN MSN20020208054509402/08/02 05:45:31  5-MIN KMSN 081145Z VRB03KT 7SM CLR M02/M04 A2994 850 85 -900 VRB/03 RMK AO2
14837KMSN MSN20020208055012902/08/02 05:50:31  5-MIN KMSN 081150Z 23004KT 8SM CLR M02/M04 A2994 850 85 -900 230/04 RMK AO2 SLP146 T10171039 10006 21017 56006
14837KMSN MSN20020208055509402/08/02 05:55:31  5-MIN KMSN 081155Z 00000KT 7SM CLR M02/M04 A2994 850 85 -900 000/00 RMK AO2
14837KMSN MSN20020208060009402/08/02 06:00:31  5-MIN KMSN 081200Z 00000KT 7SM CLR M02/M04 A2994 840 85 -900 000/00 RMK AO2
14837KMSN MSN20020208060509402/08/02 06:05:31  5-MIN KMSN 081205Z 00000KT 7SM CLR M02/M04 A2995 840 85 -900 000/00 RMK AO2
14837KMSN MSN20020208061009402/08/02 06:10:31  5-MIN KMSN 081210Z VRB03KT 7SM CLR M02/M04 A2995 840 85 -900 VRB/03 RMK AO2
14837KMSN MSN20020208061509402/08/02 06:15:31  5-MIN KMSN 081215Z 15003KT 7SM CLR M02/M04 A2995 840 85 -900 150/03 RMK AO2
14837KMSN MSN20020208062009402/08/02 06:20:31  5-MIN KMSN 081220Z 00000KT 7SM CLR M02/M04 A2995 830 85 -900 000/00 RMK AO2
14837KMSN MSN20020208062509402/08/02 06:25:31  5-MIN KMSN 081225Z VRB03KT 7SM CLR M02/M04 A2995 830 85 -900 VRB/03 RMK AO2
14837KMSN MSN20020208063009402/08/02 06:30:31  5-MIN KMSN 081230Z 00000KT 7SM CLR M02/M04 A2996 830 85 -900 000/00 RMK AO2
14837KMSN MSN20020208063509402/08/02 06:35:31  5-MIN KMSN 081235Z VRB04KT 7SM CLR M02/M04 A2995 830 85 -900 VRB/04 RMK AO2
14837KMSN MSN20020208064009402/08/02 06:40:31  5-MIN KMSN 081240Z VRB03KT 7SM CLR M01/M04 A2995 830 81 -800 VRB/03 RMK AO2
14837KMSN MSN20020208064509402/08/02 06:45:31  5-MIN KMSN 081245Z 00000KT 7SM CLR M02/M04 A2996 830 85 -900 000/00 RMK AO2
14837KMSN MSN20020208065011102/08/02 06:50:31  5-MIN KMSN 081250Z 17004KT 7SM CLR M02/M04 A2996 830 85 -900 170/04 RMK AO2 SLP154 T10171039
14837KMSN MSN20020208065509402/08/02 06:55:31  5-MIN KMSN 081255Z 16003KT 7SM CLR M02/M04 A2996 830 81 -900 160/03 RMK AO2
14837KMSN MSN20020208070009802/08/02 07:00:31  5-MIN KMSN 081300Z 15004KT 6SM BR CLR M02/M04 A2996 820 85 -1000 150/04 RMK AO2
14837KMSN MSN20020208070509802/08/02 07:05:31  5-MIN KMSN 081305Z 17003KT 6SM BR CLR M02/M04 A2997 820 85 -1000 160/03 RMK AO2
14837KMSN MSN20020208071009802/08/02 07:10:31  5-MIN KMSN 081310Z 00000KT 5SM BR CLR M02/M04 A2996 820 85 -1000 000/00 RMK AO2
14837KMSN MSN20020208071509702/08/02 07:15:31  5-MIN KMSN 081315Z 00000KT 5SM HZ CLR M01/M04 A2996 820 81 -900 000/00 RMK AO2
14837KMSN MSN20020208072009702/08/02 07:20:31  5-MIN KMSN 081320Z 21004KT 6SM HZ CLR M01/M04 A2997 820 81 -900 210/04 RMK AO2
14837KMSN MSN20020208072509702/08/02 07:25:31  5-MIN KMSN 081325Z VRB03KT 6SM HZ CLR M01/M04 A2997 820 81 -900 VRB/03 RMK AO2
14837KMSN MSN20020208073009702/08/02 07:30:31  5-MIN KMSN 081330Z 20003KT 6SM HZ CLR M01/M04 A2997 820 81 -900 200/03 RMK AO2
14837KMSN MSN20020208073509702/08/02 07:35:31  5-MIN KMSN 081335Z VRB03KT 6SM HZ CLR M01/M04 A2997 820 81 -900 VRB/03 RMK AO2
14837KMSN MSN20020208074009702/08/02 07:40:31  5-MIN KMSN 081340Z 00000KT 6SM HZ CLR M01/M04 A2997 820 81 -900 000/00 RMK AO2
14837KMSN MSN20020208074509702/08/02 07:45:31  5-MIN KMSN 081345Z 22004KT 6SM HZ CLR M01/M04 A2997 820 81 -900 220/04 RMK AO2
14837KMSN MSN20020208075011402/08/02 07:50:31  5-MIN KMSN 081350Z 00000KT 6SM HZ CLR M01/M04 A2997 810 81 -900 000/00 RMK AO2 SLP159 T10111039
14837KMSN MSN20020208075509702/08/02 07:55:31  5-MIN KMSN 081355Z 00000KT 6SM HZ CLR M01/M04 A2998 810 78 -800 000/00 RMK AO2
14837KMSN MSN20020208080009702/08/02 08:00:31  5-MIN KMSN 081400Z 00000KT 6SM HZ CLR M01/M04 A2998 810 78 -800 000/00 RMK AO2
14837KMSN MSN20020208080509702/08/02 08:05:31  5-MIN KMSN 081405Z 22003KT 6SM HZ CLR M01/M04 A2998 810 78 -800 210/03 RMK AO2
14837KMSN MSN20020208081009702/08/02 08:10:31  5-MIN KMSN 081410Z 00000KT 6SM HZ CLR M01/M04 A2998 810 78 -800 000/00 RMK AO2
14837KMSN MSN20020208081509702/08/02 08:15:31  5-MIN KMSN 081415Z VRB03KT 6SM HZ CLR M01/M03 A2998 810 81 -800 VRB/03 RMK AO2
14837KMSN MSN20020208082009302/08/02 08:20:31  5-MIN KMSN 081420Z 21004KT 7SM CLR 00/M03 A2998 810 78 -700 210/04 RMK AO2
14837KMSN MSN20020208082509302/08/02 08:25:31  5-MIN KMSN 081425Z 21003KT 7SM CLR 00/M03 A2998 810 78 -700 210/03 RMK AO2
14837KMSN MSN20020208083009402/08/02 08:30:31  5-MIN KMSN 081430Z 22004KT 10SM CLR 00/M03 A2998 810 78 -700 220/04 RMK AO2
14837KMSN MSN20020208083509402/08/02 08:35:31  5-MIN KMSN 081435Z VRB04KT 10SM CLR 01/M03 A2998 810 75 -700 VRB/04 RMK AO2
14837KMSN MSN20020208084009402/08/02 08:40:31  5-MIN KMSN 081440Z VRB03KT 10SM CLR 01/M03 A2998 810 75 -700 VRB/03 RMK AO2
14837KMSN MSN20020208084509402/08/02 08:45:31  5-MIN KMSN 081445Z 23003KT 10SM CLR 01/M03 A2999 800 75 -700 230/03 RMK AO2
14837KMSN MSN20020208085011702/08/02 08:50:31  5-MIN KMSN 081450Z 23004KT 10SM CLR 01/M03 A2999 800 75 -700 230/04 RMK AO2 SLP163 T00061033 53007
14837KMSN MSN20020208085509402/08/02 08:55:31  5-MIN KMSN 081455Z VRB04KT 10SM CLR 01/M03 A2999 800 72 -600 VRB/04 RMK AO2
14837KMSN MSN20020208090009402/08/02 09:00:31  5-MIN KMSN 081500Z 22005KT 10SM CLR 01/M03 A2999 800 75 -600 220/05 RMK AO2
14837KMSN MSN20020208090509402/08/02 09:05:31  5-MIN KMSN 081505Z 25005KT 10SM CLR 01/M03 A2999 800 72 -600 250/05 RMK AO2
14837KMSN MSN20020208091009402/08/02 09:10:31  5-MIN KMSN 081510Z 22005KT 10SM CLR 01/M03 A2999 800 72 -600 220/05 RMK AO2
14837KMSN MSN20020208091509402/08/02 09:15:31  5-MIN KMSN 081515Z 24005KT 10SM CLR 01/M03 A2999 800 72 -600 240/05 RMK AO2
14837KMSN MSN20020208092009402/08/02 09:20:31  5-MIN KMSN 081520Z 23006KT 10SM CLR 01/M03 A2999 800 72 -600 230/06 RMK AO2
14837KMSN MSN20020208092509402/08/02 09:25:31  5-MIN KMSN 081525Z VRB03KT 10SM CLR 01/M03 A2999 800 72 -600 VRB/03 RMK AO2
14837KMSN MSN20020208093009402/08/02 09:30:31  5-MIN KMSN 081530Z 23005KT 10SM CLR 02/M03 A2999 800 69 -500 230/05 RMK AO2
14837KMSN MSN20020208093509402/08/02 09:35:31  5-MIN KMSN 081535Z 24005KT 10SM CLR 02/M03 A2999 800 69 -500 240/05 RMK AO2
14837KMSN MSN20020208094009402/08/02 09:40:31  5-MIN KMSN 081540Z 24005KT 10SM CLR 02/M03 A2999 800 69 -500 240/05 RMK AO2
14837KMSN MSN20020208094509402/08/02 09:45:31  5-MIN KMSN 081545Z 21005KT 10SM CLR 02/M03 A3000 790 69 -500 210/05 RMK AO2
14837KMSN MSN20020208095011102/08/02 09:50:31  5-MIN KMSN 081550Z VRB04KT 10SM CLR 02/M03 A3000 790 69 -500 VRB/04 RMK AO2 SLP167 T00171033
14837KMSN MSN20020208095509402/08/02 09:55:31  5-MIN KMSN 081555Z 23005KT 10SM CLR 02/M03 A3000 790 69 -500 230/05 RMK AO2
14837KMSN MSN20020208100009402/08/02 10:00:31  5-MIN KMSN 081600Z 22005KT 10SM CLR 02/M03 A3000 790 69 -500 220/05 RMK AO2
14837KMSN MSN20020208100509402/08/02 10:05:31  5-MIN KMSN 081605Z 23006KT 10SM CLR 02/M03 A3000 790 69 -500 230/06 RMK AO2
14837KMSN MSN20020208101009402/08/02 10:10:31  5-MIN KMSN 081610Z 22005KT 10SM CLR 02/M03 A3001 780 67 -500 220/05 RMK AO2
14837KMSN MSN20020208101509402/08/02 10:15:31  5-MIN KMSN 081615Z VRB03KT 10SM CLR 03/M03 A3001 780 67 -400 VRB/03 RMK AO2
14837KMSN MSN20020208102009402/08/02 10:20:31  5-MIN KMSN 081620Z 23004KT 10SM CLR 03/M03 A3001 780 67 -400 230/04 RMK AO2
14837KMSN MSN20020208102509402/08/02 10:25:31  5-MIN KMSN 081625Z 24004KT 10SM CLR 03/M03 A3001 780 64 -400 240/04 RMK AO2
14837KMSN MSN20020208103009402/08/02 10:30:31  5-MIN KMSN 081630Z 23005KT 10SM CLR 03/M03 A3001 780 64 -400 230/05 RMK AO2
14837KMSN MSN20020208103509402/08/02 10:35:31  5-MIN KMSN 081635Z VRB03KT 10SM CLR 03/M03 A3001 780 64 -400 VRB/03 RMK AO2
14837KMSN MSN20020208104009402/08/02 10:40:31  5-MIN KMSN 081640Z 25004KT 10SM CLR 04/M03 A3001 780 62 -300 250/04 RMK AO2
14837KMSN MSN20020208104509402/08/02 10:45:31  5-MIN KMSN 081645Z 24004KT 10SM CLR 04/M03 A3001 780 62 -300 240/04 RMK AO2
14837KMSN MSN20020208105011102/08/02 10:50:31  5-MIN KMSN 081650Z VRB03KT 10SM CLR 04/M02 A3001 780 62 -200 VRB/03 RMK AO2 SLP170 T00441022
14837KMSN MSN20020208105509302/08/02 10:55:31  5-MIN KMSN 081655Z 20004KT 9SM CLR 05/M02 A3001 780 59 -200 200/04 RMK AO2
14837KMSN MSN20020208110009402/08/02 11:00:31  5-MIN KMSN 081700Z 22006KT 10SM CLR 05/M02 A3001 780 59 -200 210/06 RMK AO2
14837KMSN MSN20020208110509402/08/02 11:05:31  5-MIN KMSN 081705Z VRB05KT 10SM CLR 04/M03 A3001 780 59 -200 VRB/05 RMK AO2
14837KMSN MSN20020208111009402/08/02 11:10:31  5-MIN KMSN 081710Z VRB03KT 10SM CLR 05/M03 A3001 780 57 -200 VRB/03 RMK AO2
14837KMSN MSN20020208111509402/08/02 11:15:31  5-MIN KMSN 081715Z 26005KT 10SM CLR 06/M02 A3001 780 57 -100 260/05 RMK AO2
14837KMSN MSN20020208112009402/08/02 11:20:31  5-MIN KMSN 081720Z 24005KT 10SM CLR 05/M03 A3001 780 57 -100 240/05 RMK AO2
14837KMSN MSN20020208112509402/08/02 11:25:31  5-MIN KMSN 081725Z VRB04KT 10SM CLR 06/M02 A3001 780 57 -100 VRB/04 RMK AO2
14837KMSN MSN20020208113009402/08/02 11:30:31  5-MIN KMSN 081730Z VRB04KT 10SM CLR 06/M02 A3001 780 57 -100 VRB/04 RMK AO2
14837KMSN MSN20020208113509402/08/02 11:35:31  5-MIN KMSN 081735Z 24005KT 10SM CLR 06/M02 A3001 790 57 -100 240/05 RMK AO2
14837KMSN MSN20020208114009402/08/02 11:40:31  5-MIN KMSN 081740Z 25006KT 10SM CLR 06/M03 A3000 790 55 -100 240/06 RMK AO2
14837KMSN MSN20020208114509402/08/02 11:45:31  5-MIN KMSN 081745Z 23006KT 10SM CLR 06/M03 A3000 790 55 -100 230/06 RMK AO2
14837KMSN MSN20020208115012602/08/02 11:50:31  5-MIN KMSN 081750Z 25005KT 10SM CLR 06/M02 A3000 790 55 0 250/05 RMK AO2 SLP166 T00611022 10061 21028 51016
14837KMSN MSN20020208115509102/08/02 11:55:31  5-MIN KMSN 081755Z 27004KT 10SM CLR 06/M02 A3000 790 55 0 270/04 RMK AO2
14837KMSN MSN20020208120009102/08/02 12:00:31  5-MIN KMSN 081800Z 26004KT 10SM CLR 07/M02 A3000 790 55 0 260/04 RMK AO2
14837KMSN MSN20020208120509102/08/02 12:05:31  5-MIN KMSN 081805Z VRB04KT 10SM CLR 07/M02 A3000 790 53 0 VRB/04 RMK AO2
14837KMSN MSN20020208121009302/08/02 12:10:31  5-MIN KMSN 081810Z VRB04KT 10SM CLR 07/M02 A3000 790 51 100 VRB/04 RMK AO2
14837KMSN MSN20020208121509102/08/02 12:15:31  5-MIN KMSN 081815Z 22005KT 10SM CLR 07/M02 A3000 800 53 0 220/05 RMK AO2
14837KMSN MSN20020208122009302/08/02 12:20:31  5-MIN KMSN 081820Z 22005KT 10SM CLR 07/M02 A3000 790 51 100 220/05 RMK AO2
14837KMSN MSN20020208122509302/08/02 12:25:31  5-MIN KMSN 081825Z 23004KT 10SM CLR 07/M02 A3000 790 51 100 230/04 RMK AO2
14837KMSN MSN20020208123009302/08/02 12:30:31  5-MIN KMSN 081830Z 21006KT 10SM CLR 08/M02 A2999 800 49 200 210/06 RMK AO2
14837KMSN MSN20020208123509302/08/02 12:35:31  5-MIN KMSN 081835Z 21005KT 10SM CLR 08/M02 A2999 800 49 200 210/05 RMK AO2
14837KMSN MSN20020208124009302/08/02 12:40:31  5-MIN KMSN 081840Z 21005KT 10SM CLR 08/M02 A2999 800 49 200 210/05 RMK AO2
14837KMSN MSN20020208124509302/08/02 12:45:31  5-MIN KMSN 081845Z 24005KT 10SM CLR 08/M02 A2999 800 49 200 240/05 RMK AO2
14837KMSN MSN20020208125011002/08/02 12:50:31  5-MIN KMSN 081850Z 23005KT 10SM CLR 08/M02 A2999 800 47 200 230/05 RMK AO2 SLP162 T00831022
14837KMSN MSN20020208125509302/08/02 12:55:31  5-MIN KMSN 081855Z 27004KT 10SM CLR 08/M02 A2999 800 47 200 270/04 RMK AO2
14837KMSN MSN20020208130009302/08/02 13:00:31  5-MIN KMSN 081900Z VRB03KT 10SM CLR 09/M02 A2999 800 47 300 VRB/03 RMK AO2
14837KMSN MSN20020208130509302/08/02 13:05:31  5-MIN KMSN 081905Z 00000KT 10SM CLR 09/M02 A2999 800 47 300 000/00 RMK AO2
14837KMSN MSN20020208131009302/08/02 13:10:31  5-MIN KMSN 081910Z 28004KT 10SM CLR 09/M02 A2999 800 45 400 280/04 RMK AO2
14837KMSN MSN20020208131509302/08/02 13:15:31  5-MIN KMSN 081915Z 25004KT 10SM CLR 09/M02 A2999 800 45 400 250/04 RMK AO2
14837KMSN MSN20020208132009302/08/02 13:20:31  5-MIN KMSN 081920Z 21003KT 10SM CLR 09/M02 A2999 800 45 400 210/03 RMK AO2
14837KMSN MSN20020208132509302/08/02 13:25:31  5-MIN KMSN 081925Z VRB03KT 10SM CLR 10/M02 A2998 810 44 400 VRB/03 RMK AO2
14837KMSN MSN20020208133009302/08/02 13:30:31  5-MIN KMSN 081930Z 24003KT 10SM CLR 09/M02 A2998 810 45 400 240/03 RMK AO2
14837KMSN MSN20020208133509302/08/02 13:35:31  5-MIN KMSN 081935Z 16005KT 10SM CLR 10/M02 A2998 810 44 400 160/05 RMK AO2
14837KMSN MSN20020208134009302/08/02 13:40:31  5-MIN KMSN 081940Z 17005KT 10SM CLR 10/M02 A2998 810 44 400 160/05 RMK AO2
14837KMSN MSN20020208134509302/08/02 13:45:31  5-MIN KMSN 081945Z 18006KT 10SM CLR 10/M01 A2998 810 46 400 180/06 RMK AO2
14837KMSN MSN20020208135011002/08/02 13:50:31  5-MIN KMSN 081950Z 19004KT 10SM CLR 10/M02 A2998 810 44 400 190/04 RMK AO2 SLP157 T01001017
14837KMSN MSN20020208135509302/08/02 13:55:31  5-MIN KMSN 081955Z 16006KT 10SM CLR 11/M01 A2998 810 44 500 160/06 RMK AO2
14837KMSN MSN20020208140009302/08/02 14:00:31  5-MIN KMSN 082000Z 13004KT 10SM CLR 11/M01 A2997 810 44 500 130/04 RMK AO2
14837KMSN MSN20020208140509302/08/02 14:05:31  5-MIN KMSN 082005Z 17004KT 10SM CLR 10/M01 A2997 810 46 500 170/04 RMK AO2
14837KMSN MSN20020208141009302/08/02 14:10:31  5-MIN KMSN 082010Z 16005KT 10SM CLR 11/M01 A2997 820 44 500 160/05 RMK AO2
14837KMSN MSN20020208141509302/08/02 14:15:31  5-MIN KMSN 082015Z 16005KT 10SM CLR 11/M01 A2997 810 44 500 160/05 RMK AO2
14837KMSN MSN20020208142009302/08/02 14:20:31  5-MIN KMSN 082020Z 19005KT 10SM CLR 11/M01 A2998 810 44 500 190/05 RMK AO2
14837KMSN MSN20020208142509302/08/02 14:25:31  5-MIN KMSN 082025Z 17006KT 10SM CLR 10/M02 A2998 810 44 400 170/06 RMK AO2
14837KMSN MSN20020208143009302/08/02 14:30:31  5-MIN KMSN 082030Z 19005KT 10SM CLR 09/M01 A2998 810 47 400 180/05 RMK AO2
14837KMSN MSN20020208143509302/08/02 14:35:31  5-MIN KMSN 082035Z 17007KT 10SM CLR 10/M01 A2998 810 46 400 170/07 RMK AO2
14837KMSN MSN20020208144009302/08/02 14:40:31  5-MIN KMSN 082040Z 16007KT 10SM CLR 10/M01 A2998 810 46 400 160/07 RMK AO2
14837KMSN MSN20020208144509302/08/02 14:45:31  5-MIN KMSN 082045Z 16007KT 10SM CLR 09/M01 A2998 810 49 400 160/07 RMK AO2
14837KMSN MSN20020208145011902/08/02 14:50:31  5-MIN KMSN 082050Z 18007KT 10SM SCT110 10/M01 A2998 810 47 400 180/07 RMK AO2 SLP158 T01001006 50004
14837KMSN MSN20020208145509302/08/02 14:55:31  5-MIN KMSN 082055Z 18005KT 10SM CLR 10/M01 A2998 810 47 400 180/05 RMK AO2
14837KMSN MSN20020208150009602/08/02 15:00:31  5-MIN KMSN 082100Z 17006KT 10SM SCT110 10/M01 A2998 810 47 400 170/06 RMK AO2
14837KMSN MSN20020208150509602/08/02 15:05:31  5-MIN KMSN 082105Z 16007KT 10SM SCT110 09/M01 A2998 810 49 400 160/07 RMK AO2
14837KMSN MSN20020208151009602/08/02 15:10:31  5-MIN KMSN 082110Z 16007KT 10SM SCT110 09/M01 A2998 810 51 300 160/07 RMK AO2
14837KMSN MSN20020208151509602/08/02 15:15:31  5-MIN KMSN 082115Z 16008KT 10SM SCT110 09/M01 A2998 810 49 400 160/08 RMK AO2
14837KMSN MSN20020208152009602/08/02 15:20:31  5-MIN KMSN 082120Z 16007KT 10SM SCT110 09/M01 A2998 810 51 300 160/07 RMK AO2
14837KMSN MSN20020208152509602/08/02 15:25:31  5-MIN KMSN 082125Z 16006KT 10SM SCT110 09/M01 A2998 810 49 400 160/06 RMK AO2
14837KMSN MSN20020208153009602/08/02 15:30:31  5-MIN KMSN 082130Z 16006KT 10SM SCT110 09/M01 A2998 810 49 400 160/06 RMK AO2
14837KMSN MSN20020208153509602/08/02 15:35:31  5-MIN KMSN 082135Z 17006KT 10SM SCT110 09/M01 A2998 810 49 400 170/06 RMK AO2
14837KMSN MSN20020208154009602/08/02 15:40:31  5-MIN KMSN 082140Z 18007KT 10SM SCT110 09/M01 A2998 810 51 300 180/07 RMK AO2
14837KMSN MSN20020208154509602/08/02 15:45:31  5-MIN KMSN 082145Z 18006KT 10SM SCT110 09/M01 A2998 810 49 400 180/06 RMK AO2
14837KMSN MSN20020208155011002/08/02 15:50:31  5-MIN KMSN 082150Z 18006KT 10SM CLR 09/M01 A2998 810 49 400 170/06 RMK AO2 SLP160 T00941006
14837KMSN MSN20020208155509302/08/02 15:55:31  5-MIN KMSN 082155Z 18007KT 10SM CLR 09/M01 A2999 800 51 300 180/07 RMK AO2
14837KMSN MSN20020208160009302/08/02 16:00:31  5-MIN KMSN 082200Z 17006KT 10SM CLR 09/M01 A2998 810 51 300 170/06 RMK AO2
14837KMSN MSN20020208160509302/08/02 16:05:31  5-MIN KMSN 082205Z 16005KT 10SM CLR 09/M01 A2998 800 51 300 160/05 RMK AO2
14837KMSN MSN20020208161009302/08/02 16:10:31  5-MIN KMSN 082210Z 14006KT 10SM CLR 09/M01 A2999 800 49 300 140/06 RMK AO2
14837KMSN MSN20020208161509302/08/02 16:15:31  5-MIN KMSN 082215Z 14007KT 10SM CLR 08/M01 A2999 800 51 200 140/07 RMK AO2
14837KMSN MSN20020208162009302/08/02 16:20:31  5-MIN KMSN 082220Z 14006KT 10SM CLR 08/M01 A2999 800 53 200 140/06 RMK AO2
14837KMSN MSN20020208162509302/08/02 16:25:31  5-MIN KMSN 082225Z 14005KT 10SM CLR 07/M01 A2999 800 55 100 140/05 RMK AO2
14837KMSN MSN20020208163009102/08/02 16:30:31  5-MIN KMSN 082230Z 14007KT 10SM CLR 07/M01 A2999 800 57 0 140/07 RMK AO2
14837KMSN MSN20020208163509102/08/02 16:35:31  5-MIN KMSN 082235Z 15007KT 10SM CLR 07/M01 A2999 800 57 0 150/07 RMK AO2
14837KMSN MSN20020208164009102/08/02 16:40:31  5-MIN KMSN 082240Z 13006KT 10SM CLR 06/M01 A2999 800 60 0 130/06 RMK AO2
14837KMSN MSN20020208164509102/08/02 16:45:31  5-MIN KMSN 082245Z 14007KT 10SM CLR 06/M01 A2999 800 60 0 130/07 RMK AO2
14837KMSN MSN20020208165011102/08/02 16:50:31  5-MIN KMSN 082250Z 14005KT 10SM CLR 06/M01 A2999 800 62 -100 140/05 RMK AO2 SLP164 T00561011
14837KMSN MSN20020208165509602/08/02 16:55:31  5-MIN KMSN 082255Z 15007KT 6SM HZ CLR 05/M01 A3000 800 64 -100 150/07 RMK AO2
14837KMSN MSN20020208170009402/08/02 17:00:31  5-MIN KMSN 082300Z 15009KT 10SM CLR 05/M01 A3000 790 67 -100 150/09 RMK AO2
14837KMSN MSN20020208170509402/08/02 17:05:31  5-MIN KMSN 082305Z 16006KT 10SM CLR 05/M01 A3000 790 67 -100 160/06 RMK AO2
14837KMSN MSN20020208171009402/08/02 17:10:31  5-MIN KMSN 082310Z 16006KT 10SM CLR 04/M01 A3000 790 70 -200 160/06 RMK AO2
14837KMSN MSN20020208171509402/08/02 17:15:31  5-MIN KMSN 082315Z 16008KT 10SM CLR 04/M01 A3001 780 70 -200 160/08 RMK AO2
14837KMSN MSN20020208172009402/08/02 17:20:31  5-MIN KMSN 082320Z 16008KT 10SM CLR 04/M01 A3001 780 73 -300 160/08 RMK AO2
14837KMSN MSN20020208172509402/08/02 17:25:31  5-MIN KMSN 082325Z 16007KT 10SM CLR 04/M01 A3001 780 73 -300 160/07 RMK AO2
14837KMSN MSN20020208173009402/08/02 17:30:31  5-MIN KMSN 082330Z 16006KT 10SM CLR 04/M01 A3001 780 73 -300 160/06 RMK AO2
14837KMSN MSN20020208173509402/08/02 17:35:31  5-MIN KMSN 082335Z 16007KT 10SM CLR 04/M01 A3002 780 73 -300 160/07 RMK AO2
14837KMSN MSN20020208174009602/08/02 17:40:31  5-MIN KMSN 082340Z 16007KT 6SM HZ CLR 04/M01 A3001 780 70 -300 160/07 RMK AO2
14837KMSN MSN20020208174509602/08/02 17:45:31  5-MIN KMSN 082345Z 16006KT 6SM HZ CLR 04/M01 A3002 780 70 -300 160/06 RMK AO2
14837KMSN MSN20020208175013102/08/02 17:50:31  5-MIN KMSN 082350Z 16006KT 6SM HZ CLR 03/M01 A3002 770 76 -400 160/06 RMK AO2 SLP173 T00331006 10106 20033 56008
14837KMSN MSN20020208175509602/08/02 17:55:31  5-MIN KMSN 082355Z 15006KT 6SM HZ CLR 03/M01 A3002 770 79 -400 150/06 RMK AO2
14837KMSN MSN20020208180009602/08/02 18:00:31  5-MIN KMSN 090000Z 15009KT 6SM HZ CLR 03/M01 A3002 770 75 -400 150/09 RMK AO2
14837KMSN MSN20020208180509602/08/02 18:05:31  5-MIN KMSN 090005Z 16009KT 6SM HZ CLR 03/M01 A3002 770 75 -400 160/09 RMK AO2
14837KMSN MSN20020208181009602/08/02 18:10:31  5-MIN KMSN 090010Z 15008KT 6SM HZ CLR 03/M01 A3002 770 75 -400 150/08 RMK AO2
14837KMSN MSN20020208181509602/08/02 18:15:31  5-MIN KMSN 090015Z 16008KT 5SM HZ CLR 02/M01 A3003 770 78 -500 160/08 RMK AO2
14837KMSN MSN20020208182009602/08/02 18:20:31  5-MIN KMSN 090020Z 16008KT 6SM HZ CLR 03/M01 A3003 770 75 -400 160/08 RMK AO2
14837KMSN MSN20020208182509602/08/02 18:25:31  5-MIN KMSN 090025Z 16007KT 6SM HZ CLR 03/M01 A3003 770 75 -400 160/07 RMK AO2
14837KMSN MSN20020208183009602/08/02 18:30:31  5-MIN KMSN 090030Z 14007KT 6SM HZ CLR 02/M02 A3003 770 75 -500 140/07 RMK AO2
14837KMSN MSN20020208183509602/08/02 18:35:31  5-MIN KMSN 090035Z 13006KT 6SM HZ CLR 02/M02 A3002 770 75 -500 130/06 RMK AO2
14837KMSN MSN20020208184009602/08/02 18:40:31  5-MIN KMSN 090040Z 14005KT 6SM HZ CLR 03/M02 A3003 760 72 -400 140/05 RMK AO2
14837KMSN MSN20020208184509602/08/02 18:45:31  5-MIN KMSN 090045Z 14005KT 6SM HZ CLR 02/M02 A3003 760 75 -500 140/05 RMK AO2
14837KMSN MSN20020208185011302/08/02 18:50:31  5-MIN KMSN 090050Z 14006KT 6SM HZ CLR 02/M02 A3003 760 75 -500 140/06 RMK AO2 SLP179 T00221017
14837KMSN MSN20020208185509602/08/02 18:55:31  5-MIN KMSN 090055Z 14006KT 6SM HZ CLR 02/M02 A3003 760 78 -600 140/06 RMK AO2
14837KMSN MSN20020208190009602/08/02 19:00:31  5-MIN KMSN 090100Z 14006KT 6SM HZ CLR 02/M02 A3003 760 78 -600 140/06 RMK AO2
14837KMSN MSN20020208190509602/08/02 19:05:31  5-MIN KMSN 090105Z 14005KT 6SM HZ CLR 02/M02 A3003 760 75 -500 140/05 RMK AO2
14837KMSN MSN20020208191009602/08/02 19:10:31  5-MIN KMSN 090110Z 14005KT 6SM HZ CLR 02/M02 A3003 760 78 -600 140/05 RMK AO2
14837KMSN MSN20020208191509602/08/02 19:15:31  5-MIN KMSN 090115Z 13006KT 5SM HZ CLR 02/M02 A3003 760 75 -600 130/06 RMK AO2
14837KMSN MSN20020208192009602/08/02 19:20:31  5-MIN KMSN 090120Z 13007KT 5SM HZ CLR 02/M02 A3003 760 75 -600 130/07 RMK AO2
14837KMSN MSN20020208192509602/08/02 19:25:31  5-MIN KMSN 090125Z 14008KT 5SM HZ CLR 02/M02 A3004 760 78 -600 140/08 RMK AO2
14837KMSN MSN20020208193009602/08/02 19:30:31  5-MIN KMSN 090130Z 14007KT 5SM HZ CLR 02/M02 A3004 750 78 -600 140/07 RMK AO2
14837KMSN MSN20020208193509602/08/02 19:35:31  5-MIN KMSN 090135Z 14006KT 5SM HZ CLR 02/M02 A3004 750 78 -600 140/06 RMK AO2
14837KMSN MSN20020208194009602/08/02 19:40:31  5-MIN KMSN 090140Z 14006KT 5SM HZ CLR 02/M02 A3004 750 78 -600 140/06 RMK AO2
14837KMSN MSN20020208194509602/08/02 19:45:31  5-MIN KMSN 090145Z 15003KT 5SM HZ CLR 01/M02 A3004 750 82 -700 150/03 RMK AO2
14837KMSN MSN20020208195011302/08/02 19:50:31  5-MIN KMSN 090150Z 14004KT 5SM HZ CLR 02/M02 A3004 750 78 -600 140/04 RMK AO2 SLP182 T00171017
14837KMSN MSN20020208195509602/08/02 19:55:31  5-MIN KMSN 090155Z 12003KT 5SM HZ CLR 01/M02 A3004 760 82 -700 120/03 RMK AO2
14837KMSN MSN20020208200009602/08/02 20:00:31  5-MIN KMSN 090200Z 11004KT 5SM HZ CLR 02/M02 A3004 760 78 -600 110/04 RMK AO2
14837KMSN MSN20020208200509602/08/02 20:05:31  5-MIN KMSN 090205Z 14005KT 5SM HZ CLR 02/M02 A3004 750 78 -600 140/05 RMK AO2
14837KMSN MSN20020208201009602/08/02 20:10:31  5-MIN KMSN 090210Z 15005KT 5SM HZ CLR 01/M02 A3004 750 82 -700 150/05 RMK AO2
14837KMSN MSN20020208201509602/08/02 20:15:31  5-MIN KMSN 090215Z 15006KT 5SM HZ CLR 01/M02 A3004 760 78 -700 150/06 RMK AO2
14837KMSN MSN20020208202009602/08/02 20:20:31  5-MIN KMSN 090220Z 14007KT 5SM HZ CLR 01/M02 A3004 760 82 -700 140/07 RMK AO2
14837KMSN MSN20020208202509602/08/02 20:25:31  5-MIN KMSN 090225Z 14005KT 4SM BR CLR 01/M02 A3004 760 85 -700 140/05 RMK AO2
14837KMSN MSN20020208203009602/08/02 20:30:31  5-MIN KMSN 090230Z 16005KT 4SM BR CLR 01/M02 A3004 750 85 -700 160/05 RMK AO2
14837KMSN MSN20020208203509602/08/02 20:35:31  5-MIN KMSN 090235Z 17006KT 4SM HZ CLR 01/M02 A3004 750 82 -700 160/06 RMK AO2
14837KMSN MSN20020208204009602/08/02 20:40:31  5-MIN KMSN 090240Z 16007KT 4SM BR CLR 01/M02 A3004 750 85 -700 160/07 RMK AO2
14837KMSN MSN20020208204509602/08/02 20:45:31  5-MIN KMSN 090245Z 16008KT 4SM BR CLR 01/M01 A3004 750 89 -700 160/08 RMK AO2
14837KMSN MSN20020208205011902/08/02 20:50:31  5-MIN KMSN 090250Z 16009KT 4SM BR CLR 01/M01 A3004 750 89 -700 160/09 RMK AO2 SLP183 T00061011 53014
14837KMSN MSN20020208205509602/08/02 20:55:31  5-MIN KMSN 090255Z 16009KT 4SM BR CLR 01/M01 A3004 750 89 -700 160/09 RMK AO2
14837KMSN MSN20020208210009602/08/02 21:00:31  5-MIN KMSN 090300Z 16008KT 4SM BR CLR 01/M01 A3004 750 89 -700 160/08 RMK AO2
14837KMSN MSN20020208210509602/08/02 21:05:31  5-MIN KMSN 090305Z 16008KT 4SM BR CLR 01/M01 A3005 750 89 -700 160/08 RMK AO2
14837KMSN MSN20020208211009602/08/02 21:10:31  5-MIN KMSN 090310Z 15007KT 4SM BR CLR 01/M01 A3005 750 89 -700 150/07 RMK AO2
14837KMSN MSN20020208211509602/08/02 21:15:31  5-MIN KMSN 090315Z 16007KT 4SM BR CLR 01/M02 A3004 750 85 -700 160/07 RMK AO2
14837KMSN MSN20020208212009602/08/02 21:20:31  5-MIN KMSN 090320Z 16007KT 4SM BR CLR 01/M01 A3005 750 89 -700 150/07 RMK AO2
14837KMSN MSN20020208212509602/08/02 21:25:31  5-MIN KMSN 090325Z 16006KT 4SM BR CLR 01/M02 A3005 750 85 -700 160/06 RMK AO2
14837KMSN MSN20020208213009602/08/02 21:30:31  5-MIN KMSN 090330Z 15006KT 4SM BR CLR 00/M02 A3005 750 88 -800 150/06 RMK AO2
14837KMSN MSN20020208213509602/08/02 21:35:31  5-MIN KMSN 090335Z 15007KT 4SM BR CLR 00/M02 A3005 750 85 -800 140/07 RMK AO2
14837KMSN MSN20020208214009602/08/02 21:40:31  5-MIN KMSN 090340Z 14006KT 4SM BR CLR 01/M02 A3004 750 85 -700 140/06 RMK AO2
14837KMSN MSN20020208214509602/08/02 21:45:31  5-MIN KMSN 090345Z 12006KT 4SM BR CLR 00/M02 A3005 750 85 -800 120/06 RMK AO2
14837KMSN MSN20020208215011302/08/02 21:50:31  5-MIN KMSN 090350Z 13007KT 4SM BR CLR 00/M02 A3005 750 85 -800 130/07 RMK AO2 SLP184 T00001022
14837KMSN MSN20020208215509602/08/02 21:55:31  5-MIN KMSN 090355Z 14006KT 4SM BR CLR 00/M02 A3005 740 85 -800 140/06 RMK AO2
14837KMSN MSN20020208220009602/08/02 22:00:31  5-MIN KMSN 090400Z 14006KT 4SM HZ CLR 01/M02 A3005 740 82 -700 140/06 RMK AO2
14837KMSN MSN20020208220509602/08/02 22:05:31  5-MIN KMSN 090405Z 13006KT 4SM HZ CLR 01/M02 A3005 740 82 -700 130/06 RMK AO2
14837KMSN MSN20020208221009602/08/02 22:10:31  5-MIN KMSN 090410Z 14006KT 4SM BR CLR 00/M02 A3005 740 88 -800 140/06 RMK AO2
14837KMSN MSN20020208221509602/08/02 22:15:31  5-MIN KMSN 090415Z 13007KT 4SM HZ CLR 01/M02 A3005 740 82 -700 130/07 RMK AO2
14837KMSN MSN20020208222009602/08/02 22:20:31  5-MIN KMSN 090420Z 13007KT 4SM BR CLR 00/M02 A3005 740 85 -800 130/07 RMK AO2
14837KMSN MSN20020208222509602/08/02 22:25:31  5-MIN KMSN 090425Z 13005KT 4SM BR CLR 00/M02 A3005 740 85 -800 130/05 RMK AO2
14837KMSN MSN20020208223009702/08/02 22:30:31  5-MIN KMSN 090430Z 12005KT 4SM BR CLR M01/M02 A3005 750 88 -900 120/05 RMK AO2
14837KMSN MSN20020208223509702/08/02 22:35:31  5-MIN KMSN 090435Z 12006KT 4SM BR CLR M01/M02 A3005 750 88 -900 120/06 RMK AO2
14837KMSN MSN20020208224009702/08/02 22:40:31  5-MIN KMSN 090440Z 12006KT 4SM BR CLR M01/M02 A3005 750 88 -900 120/06 RMK AO2
14837KMSN MSN20020208224509702/08/02 22:45:31  5-MIN KMSN 090445Z 12006KT 4SM BR CLR M01/M02 A3004 750 88 -900 120/06 RMK AO2
14837KMSN MSN20020208225011402/08/02 22:50:31  5-MIN KMSN 090450Z 12006KT 4SM BR CLR M01/M02 A3005 750 88 -900 120/06 RMK AO2 SLP183 T10061022
14837KMSN MSN20020208225509702/08/02 22:55:31  5-MIN KMSN 090455Z 13005KT 4SM BR CLR M01/M02 A3005 750 88 -900 130/05 RMK AO2
14837KMSN MSN20020208230009702/08/02 23:00:31  5-MIN KMSN 090500Z 12005KT 4SM BR CLR M01/M02 A3004 750 88 -900 120/05 RMK AO2
14837KMSN MSN20020208230509702/08/02 23:05:31  5-MIN KMSN 090505Z 11005KT 4SM BR CLR M01/M02 A3004 750 88 -900 110/05 RMK AO2
14837KMSN MSN20020208231009702/08/02 23:10:31  5-MIN KMSN 090510Z 11005KT 4SM BR CLR M01/M02 A3004 750 88 -900 110/05 RMK AO2
14837KMSN MSN20020208231509702/08/02 23:15:31  5-MIN KMSN 090515Z 12005KT 4SM BR CLR M01/M02 A3005 750 88 -900 120/05 RMK AO2
14837KMSN MSN20020208232009702/08/02 23:20:31  5-MIN KMSN 090520Z 13005KT 4SM BR CLR M01/M02 A3005 750 88 -900 130/05 RMK AO2
14837KMSN MSN20020208232509702/08/02 23:25:31  5-MIN KMSN 090525Z 13007KT 4SM BR CLR M01/M02 A3005 750 88 -900 130/07 RMK AO2
14837KMSN MSN20020208233009602/08/02 23:30:31  5-MIN KMSN 090530Z 13006KT 4SM BR CLR 00/M02 A3005 750 85 -800 130/06 RMK AO2
14837KMSN MSN20020208233509602/08/02 23:35:31  5-MIN KMSN 090535Z 12006KT 4SM BR CLR 00/M02 A3005 750 85 -800 120/06 RMK AO2
14837KMSN MSN20020208234009702/08/02 23:40:31  5-MIN KMSN 090540Z 12005KT 4SM BR CLR M01/M02 A3004 750 88 -900 120/05 RMK AO2
14837KMSN MSN20020208234509702/08/02 23:45:31  5-MIN KMSN 090545Z 13004KT 4SM BR CLR M01/M02 A3004 750 88 -900 130/04 RMK AO2
14837KMSN MSN20020208235014102/08/02 23:50:31  5-MIN KMSN 090550Z 12006KT 4SM BR CLR 00/M02 A3005 750 85 -800 120/06 RMK AO2 SLP182 T00001022 10033 21006 401061028 51009
14837KMSN MSN20020208235509702/08/02 23:55:31  5-MIN KMSN 090555Z 11004KT 4SM BR CLR M01/M03 A3004 750 85 -900 110/04 RMK AO2
14837KMSN MSN20020209000009702/09/02 00:00:31  5-MIN KMSN 090600Z 11003KT 4SM BR CLR M01/M02 A3004 750 88 -900 110/03 RMK AO2
14837KMSN MSN20020209000509702/09/02 00:05:31  5-MIN KMSN 090605Z 12003KT 4SM BR CLR M01/M03 A3004 760 85 -900 120/03 RMK AO2
14837KMSN MSN20020209001009702/09/02 00:10:31  5-MIN KMSN 090610Z 13003KT 4SM BR CLR M01/M03 A3004 750 85 -900 130/03 RMK AO2
14837KMSN MSN20020209001509602/09/02 00:15:31  5-MIN KMSN 090615Z 00000KT 4SM BR CLR 00/M02 A3004 760 85 -800 000/00 RMK AO2
14837KMSN MSN20020209002009602/09/02 00:20:31  5-MIN KMSN 090620Z 14004KT 4SM BR CLR 00/M02 A3004 760 85 -800 140/04 RMK AO2
14837KMSN MSN20020209002509602/09/02 00:25:31  5-MIN KMSN 090625Z 14004KT 4SM BR CLR 00/M02 A3004 750 85 -800 140/04 RMK AO2
14837KMSN MSN20020209003009702/09/02 00:30:31  5-MIN KMSN 090630Z 14005KT 4SM BR CLR M01/M03 A3004 760 85 -900 130/05 RMK AO2
14837KMSN MSN20020209003509602/09/02 00:35:31  5-MIN KMSN 090635Z 13006KT 4SM BR CLR 00/M02 A3004 760 85 -800 130/06 RMK AO2
14837KMSN MSN20020209004009602/09/02 00:40:31  5-MIN KMSN 090640Z 13006KT 4SM BR CLR 00/M02 A3003 760 85 -800 130/06 RMK AO2
14837KMSN MSN20020209004509602/09/02 00:45:31  5-MIN KMSN 090645Z 13005KT 4SM BR CLR 00/M02 A3004 760 88 -800 130/05 RMK AO2
14837KMSN MSN20020209005011302/09/02 00:50:31  5-MIN KMSN 090650Z 14005KT 4SM BR CLR 00/M02 A3004 760 85 -800 140/05 RMK AO2 SLP178 T00001022
14837KMSN MSN20020209005509602/09/02 00:55:31  5-MIN KMSN 090655Z 14006KT 4SM BR CLR 01/M02 A3004 760 85 -700 140/06 RMK AO2
14837KMSN MSN20020209010009602/09/02 01:00:31  5-MIN KMSN 090700Z 14006KT 4SM BR CLR 01/M02 A3004 750 85 -700 140/06 RMK AO2
14837KMSN MSN20020209010509602/09/02 01:05:31  5-MIN KMSN 090705Z 14007KT 4SM BR CLR 01/M02 A3004 760 85 -700 140/07 RMK AO2
14837KMSN MSN20020209011009602/09/02 01:10:31  5-MIN KMSN 090710Z 13006KT 4SM BR CLR 01/M02 A3004 760 85 -700 130/06 RMK AO2
14837KMSN MSN20020209011509602/09/02 01:15:31  5-MIN KMSN 090715Z 13005KT 4SM BR CLR 01/M02 A3004 760 85 -700 120/05 RMK AO2
14837KMSN MSN20020209012009602/09/02 01:20:31  5-MIN KMSN 090720Z 12005KT 4SM BR CLR 00/M02 A3004 760 88 -800 120/05 RMK AO2
14837KMSN MSN20020209012509602/09/02 01:25:31  5-MIN KMSN 090725Z 12006KT 4SM BR CLR 00/M02 A3003 760 85 -800 110/06 RMK AO2
14837KMSN MSN20020209013009602/09/02 01:30:31  5-MIN KMSN 090730Z 10005KT 4SM BR CLR 00/M02 A3003 760 85 -800 100/05 RMK AO2
14837KMSN MSN20020209013509602/09/02 01:35:31  5-MIN KMSN 090735Z 10005KT 4SM BR CLR 00/M02 A3003 760 85 -800 100/05 RMK AO2
14837KMSN MSN20020209014009602/09/02 01:40:31  5-MIN KMSN 090740Z 10005KT 4SM BR CLR 00/M02 A3003 760 85 -800 100/05 RMK AO2
14837KMSN MSN20020209014509602/09/02 01:45:31  5-MIN KMSN 090745Z 10005KT 4SM BR CLR 00/M02 A3003 760 88 -800 100/05 RMK AO2
14837KMSN MSN20020209015011302/09/02 01:50:31  5-MIN KMSN 090750Z 11004KT 4SM BR CLR 01/M02 A3003 760 85 -700 110/04 RMK AO2 SLP174 T00061017
14837KMSN MSN20020209015509602/09/02 01:55:31  5-MIN KMSN 090755Z 12004KT 4SM BR CLR 01/M02 A3003 760 85 -700 120/04 RMK AO2
14837KMSN MSN20020209020009602/09/02 02:00:31  5-MIN KMSN 090800Z 12004KT 4SM BR CLR 01/M02 A3003 760 85 -700 120/04 RMK AO2
14837KMSN MSN20020209020509602/09/02 02:05:31  5-MIN KMSN 090805Z 13004KT 4SM BR CLR 00/M02 A3003 760 88 -800 120/04 RMK AO2
14837KMSN MSN20020209021009602/09/02 02:10:31  5-MIN KMSN 090810Z 12005KT 4SM BR CLR 01/M02 A3003 770 85 -700 120/05 RMK AO2
14837KMSN MSN20020209021509602/09/02 02:15:31  5-MIN KMSN 090815Z 12003KT 4SM BR CLR 00/M02 A3003 770 88 -800 120/03 RMK AO2
14837KMSN MSN20020209022009602/09/02 02:20:31  5-MIN KMSN 090820Z 00000KT 4SM BR CLR 00/M02 A3003 770 88 -800 000/00 RMK AO2
14837KMSN MSN20020209022509602/09/02 02:25:31  5-MIN KMSN 090825Z 00000KT 4SM BR CLR 00/M02 A3003 770 88 -800 000/00 RMK AO2
14837KMSN MSN20020209023009602/09/02 02:30:31  5-MIN KMSN 090830Z 08003KT 4SM BR CLR 01/M01 A3002 770 89 -700 080/03 RMK AO2
14837KMSN MSN20020209023509602/09/02 02:35:31  5-MIN KMSN 090835Z 08004KT 4SM BR CLR 00/M01 A3002 770 92 -800 080/04 RMK AO2
14837KMSN MSN20020209024009702/09/02 02:40:31  5-MIN KMSN 090840Z 09003KT 3SM BR CLR M01/M03 A3002 770 85 -900 090/03 RMK AO2
14837KMSN MSN20020209024509702/09/02 02:45:31  5-MIN KMSN 090845Z 00000KT 3SM BR CLR M01/M02 A3002 770 88 -900 000/00 RMK AO2
14837KMSN MSN20020209025012002/09/02 02:50:31  5-MIN KMSN 090850Z 10003KT 4SM BR CLR M01/M02 A3002 770 88 -900 090/03 RMK AO2 SLP172 T10061022 50000
14837KMSN MSN20020209025509602/09/02 02:55:31  5-MIN KMSN 090855Z 10004KT 4SM BR CLR 00/M02 A3002 780 85 -800 100/04 RMK AO2
14837KMSN MSN20020209030009702/09/02 03:00:31  5-MIN KMSN 090900Z 11006KT 4SM BR CLR M01/M02 A3002 780 88 -800 110/06 RMK AO2
14837KMSN MSN20020209030509702/09/02 03:05:31  5-MIN KMSN 090905Z 11005KT 4SM BR CLR M01/M03 A3001 780 88 -900 110/05 RMK AO2
14837KMSN MSN20020209031009702/09/02 03:10:31  5-MIN KMSN 090910Z 11005KT 4SM BR CLR M01/M02 A3001 780 88 -800 100/05 RMK AO2
14837KMSN MSN20020209031509702/09/02 03:15:31  5-MIN KMSN 090915Z 10006KT 4SM BR CLR M01/M02 A3000 790 92 -800 100/06 RMK AO2
14837KMSN MSN20020209032009602/09/02 03:20:31  5-MIN KMSN 090920Z 11006KT 4SM BR CLR 00/M02 A3000 790 88 -800 100/06 RMK AO2
14837KMSN MSN20020209032509602/09/02 03:25:31  5-MIN KMSN 090925Z 12004KT 4SM BR CLR 00/M02 A3000 790 88 -800 120/04 RMK AO2
14837KMSN MSN20020209033009602/09/02 03:30:31  5-MIN KMSN 090930Z 12006KT 4SM BR CLR 00/M02 A3000 790 88 -800 120/06 RMK AO2
14837KMSN MSN20020209033509602/09/02 03:35:31  5-MIN KMSN 090935Z 11006KT 4SM BR CLR 00/M01 A3000 790 92 -800 110/06 RMK AO2
14837KMSN MSN20020209034009602/09/02 03:40:31  5-MIN KMSN 090940Z 11006KT 4SM BR CLR 00/M02 A3000 790 88 -800 110/06 RMK AO2
14837KMSN MSN20020209034509602/09/02 03:45:31  5-MIN KMSN 090945Z 11008KT 4SM BR CLR 00/M02 A2999 800 88 -700 110/08 RMK AO2
14837KMSN MSN20020209035011302/09/02 03:50:31  5-MIN KMSN 090950Z 10007KT 4SM BR CLR 00/M01 A2999 800 92 -700 100/07 RMK AO2 SLP162 T00001011
14837KMSN MSN20020209035509602/09/02 03:55:31  5-MIN KMSN 090955Z 10007KT 4SM BR CLR 00/M01 A2999 800 92 -700 100/07 RMK AO2
14837KMSN MSN20020209040009602/09/02 04:00:31  5-MIN KMSN 091000Z 11006KT 4SM BR CLR 00/M01 A2999 800 92 -700 110/06 RMK AO2
14837KMSN MSN20020209040509602/09/02 04:05:31  5-MIN KMSN 091005Z 11006KT 4SM BR CLR 00/M01 A2999 800 92 -700 100/06 RMK AO2
14837KMSN MSN20020209041009602/09/02 04:10:31  5-MIN KMSN 091010Z 11006KT 4SM BR CLR 00/M01 A2999 800 92 -700 100/06 RMK AO2
14837KMSN MSN20020209041509602/09/02 04:15:31  5-MIN KMSN 091015Z 11006KT 4SM BR CLR 00/M01 A2999 800 92 -700 110/06 RMK AO2
14837KMSN MSN20020209042009602/09/02 04:20:31  5-MIN KMSN 091020Z 11005KT 4SM BR CLR 00/M02 A2999 800 88 -700 110/05 RMK AO2
14837KMSN MSN20020209042509602/09/02 04:25:31  5-MIN KMSN 091025Z 11005KT 4SM BR CLR 00/M01 A2999 800 92 -700 110/05 RMK AO2
14837KMSN MSN20020209043009602/09/02 04:30:31  5-MIN KMSN 091030Z 11004KT 4SM BR CLR 01/M01 A2999 800 89 -700 110/04 RMK AO2
14837KMSN MSN20020209043509602/09/02 04:35:31  5-MIN KMSN 091035Z 11005KT 4SM BR CLR 01/M01 A2999 800 89 -700 110/05 RMK AO2
14837KMSN MSN20020209044009602/09/02 04:40:31  5-MIN KMSN 091040Z 10004KT 4SM BR CLR 01/M01 A2999 800 89 -700 100/04 RMK AO2
14837KMSN MSN20020209044509602/09/02 04:45:31  5-MIN KMSN 091045Z 10004KT 4SM BR CLR 00/M02 A2999 800 88 -700 100/04 RMK AO2
14837KMSN MSN20020209045011402/09/02 04:50:31  5-MIN KMSN 091050Z 10005KT 4SM BR CLR M01/M02 A2999 800 92 -800 090/05 RMK AO2 SLP162 T10061017
14837KMSN MSN20020209045509702/09/02 04:55:31  5-MIN KMSN 091055Z 09004KT 4SM BR CLR M01/M02 A2999 800 92 -900 090/04 RMK AO2
14837KMSN MSN20020209050009702/09/02 05:00:31  5-MIN KMSN 091100Z 08004KT 4SM BR CLR M01/M02 A2999 800 92 -900 070/04 RMK AO2
14837KMSN MSN20020209050509702/09/02 05:05:31  5-MIN KMSN 091105Z 09004KT 4SM BR CLR M01/M02 A2999 800 92 -900 090/04 RMK AO2
14837KMSN MSN20020209051009702/09/02 05:10:31  5-MIN KMSN 091110Z 09005KT 4SM BR CLR M01/M02 A2998 810 92 -900 090/05 RMK AO2
14837KMSN MSN20020209051509702/09/02 05:15:31  5-MIN KMSN 091115Z 09006KT 4SM BR CLR M01/M02 A2998 810 92 -900 090/06 RMK AO2
14837KMSN MSN20020209052009702/09/02 05:20:31  5-MIN KMSN 091120Z 08005KT 4SM BR CLR M01/M03 A2998 810 88 -900 080/05 RMK AO2
14837KMSN MSN20020209052509702/09/02 05:25:31  5-MIN KMSN 091125Z 08006KT 4SM BR CLR M01/M02 A2998 810 92 -900 080/06 RMK AO2
14837KMSN MSN20020209053009702/09/02 05:30:31  5-MIN KMSN 091130Z 08005KT 3SM BR CLR M01/M02 A2998 810 92 -900 080/05 RMK AO2
14837KMSN MSN20020209053509702/09/02 05:35:31  5-MIN KMSN 091135Z 08005KT 3SM BR CLR M01/M02 A2998 810 92 -900 080/05 RMK AO2
14837KMSN MSN20020209054009702/09/02 05:40:31  5-MIN KMSN 091140Z 08004KT 3SM BR CLR M01/M02 A2998 810 92 -900 080/04 RMK AO2
14837KMSN MSN20020209054509702/09/02 05:45:31  5-MIN KMSN 091145Z 09004KT 3SM BR CLR M01/M02 A2998 810 88 -800 080/04 RMK AO2
14837KMSN MSN20020209055013202/09/02 05:50:31  5-MIN KMSN 091150Z 08005KT 3SM BR CLR M01/M02 A2998 810 92 -800 080/05 RMK AO2 SLP162 T10061017 10006 21017 58009
14837KMSN MSN20020209055509702/09/02 05:55:31  5-MIN KMSN 091155Z 10004KT 3SM BR CLR M01/M02 A2999 800 92 -800 100/04 RMK AO2
14837KMSN MSN20020209060009702/09/02 06:00:31  5-MIN KMSN 091200Z 10005KT 3SM BR CLR M01/M02 A2998 810 92 -900 100/05 RMK AO2
14837KMSN MSN20020209060509702/09/02 06:05:31  5-MIN KMSN 091205Z 11005KT 3SM BR CLR M01/M02 A2998 810 92 -800 110/05 RMK AO2
14837KMSN MSN20020209061009702/09/02 06:10:31  5-MIN KMSN 091210Z 10006KT 3SM BR CLR M01/M02 A2998 810 92 -800 100/06 RMK AO2
14837KMSN MSN20020209061509702/09/02 06:15:31  5-MIN KMSN 091215Z 10006KT 3SM BR CLR M01/M01 A2998 810 96 -800 100/06 RMK AO2
14837KMSN MSN20020209062009602/09/02 06:20:31  5-MIN KMSN 091220Z 09005KT 3SM BR CLR 00/M02 A2998 810 88 -700 090/05 RMK AO2
14837KMSN MSN20020209062509602/09/02 06:25:31  5-MIN KMSN 091225Z 09006KT 3SM BR CLR 00/M01 A2998 810 92 -700 090/06 RMK AO2
14837KMSN MSN20020209063009702/09/02 06:30:31  5-MIN KMSN 091230Z 10007KT 3SM BR CLR M01/M02 A2998 810 92 -800 100/07 RMK AO2
14837KMSN MSN20020209063509602/09/02 06:35:31  5-MIN KMSN 091235Z 10007KT 3SM BR CLR 00/M01 A2998 810 92 -700 100/07 RMK AO2
14837KMSN MSN20020209064009602/09/02 06:40:31  5-MIN KMSN 091240Z 11007KT 3SM BR CLR 00/M01 A2998 810 92 -700 110/07 RMK AO2
14837KMSN MSN20020209064509602/09/02 06:45:31  5-MIN KMSN 091245Z 12007KT 3SM BR CLR 01/M01 A2999 800 89 -700 120/07 RMK AO2
14837KMSN MSN20020209065011702/09/02 06:50:31  5-MIN KMSN 091250Z 11007KT 2 1/2SM BR CLR 00/M01 A2998 810 92 -700 110/07 RMK AO2 SLP162 T00001011
14837KMSN MSN20020209065510002/09/02 06:55:31  5-MIN KMSN 091255Z 12007KT 2 1/2SM BR CLR 00/M01 A2998 810 92 -700 120/07 RMK AO2
14837KMSN MSN20020209070010002/09/02 07:00:31  5-MIN KMSN 091300Z 12006KT 2 1/2SM BR CLR 00/M01 A2999 800 92 -700 120/06 RMK AO2
14837KMSN MSN20020209070510002/09/02 07:05:31  5-MIN KMSN 091305Z 12005KT 2 1/2SM BR CLR 00/M01 A2999 800 92 -700 120/05 RMK AO2
14837KMSN MSN20020209071010002/09/02 07:10:31  5-MIN KMSN 091310Z 12007KT 2 1/2SM BR CLR 00/M01 A2999 800 92 -700 120/07 RMK AO2
14837KMSN MSN20020209071510002/09/02 07:15:31  5-MIN KMSN 091315Z 12007KT 2 1/2SM BR CLR 00/M01 A2998 800 92 -700 120/07 RMK AO2
14837KMSN MSN20020209072010002/09/02 07:20:31  5-MIN KMSN 091320Z 12008KT 2 1/2SM BR CLR 00/M01 A2999 800 92 -700 120/08 RMK AO2
14837KMSN MSN20020209072510002/09/02 07:25:31  5-MIN KMSN 091325Z 12007KT 2 1/2SM BR CLR 00/M01 A2999 800 92 -700 120/07 RMK AO2
14837KMSN MSN20020209073010002/09/02 07:30:31  5-MIN KMSN 091330Z 12008KT 2 1/2SM BR CLR 01/M01 A2999 800 89 -700 120/08 RMK AO2
14837KMSN MSN20020209073510002/09/02 07:35:31  5-MIN KMSN 091335Z 12007KT 2 1/2SM BR CLR 01/M01 A2999 800 92 -700 120/07 RMK AO2
14837KMSN MSN20020209074010002/09/02 07:40:31  5-MIN KMSN 091340Z 13007KT 2 1/2SM BR CLR 01/M01 A2999 800 92 -700 130/07 RMK AO2
14837KMSN MSN20020209074510002/09/02 07:45:31  5-MIN KMSN 091345Z 13006KT 2 1/2SM BR CLR 01/M01 A3000 790 92 -700 130/06 RMK AO2
14837KMSN MSN20020209075011702/09/02 07:50:31  5-MIN KMSN 091350Z 13005KT 2 1/2SM BR CLR 01/M01 A3000 790 92 -700 130/05 RMK AO2 SLP168 T00061006
14837KMSN MSN20020209075510002/09/02 07:55:31  5-MIN KMSN 091355Z 14004KT 2 1/2SM BR CLR 01/M01 A3001 790 92 -700 130/04 RMK AO2
14837KMSN MSN20020209080010002/09/02 08:00:31  5-MIN KMSN 091400Z 13004KT 2 1/2SM BR CLR 01/M01 A3001 790 92 -700 130/04 RMK AO2
14837KMSN MSN20020209080510002/09/02 08:05:31  5-MIN KMSN 091405Z 13004KT 2 1/2SM BR CLR 01/M01 A3001 780 92 -700 130/04 RMK AO2
14837KMSN MSN20020209081010002/09/02 08:10:31  5-MIN KMSN 091410Z 12005KT 2 1/2SM BR CLR 01/M01 A3001 790 89 -600 120/05 RMK AO2
14837KMSN MSN20020209081510002/09/02 08:15:31  5-MIN KMSN 091415Z 12006KT 2 1/2SM BR CLR 01/M01 A3001 790 89 -600 110/06 RMK AO2
14837KMSN MSN20020209082009602/09/02 08:20:31  5-MIN KMSN 091420Z 12006KT 3SM BR CLR 01/M01 A3001 790 89 -600 120/06 RMK AO2
14837KMSN MSN20020209082509602/09/02 08:25:31  5-MIN KMSN 091425Z 12007KT 3SM BR CLR 01/M01 A3001 780 89 -600 120/07 RMK AO2
14837KMSN MSN20020209083009602/09/02 08:30:31  5-MIN KMSN 091430Z 12006KT 3SM BR CLR 01/M01 A3001 780 89 -600 120/06 RMK AO2
14837KMSN MSN20020209083509602/09/02 08:35:31  5-MIN KMSN 091435Z 12006KT 3SM BR CLR 01/M01 A3001 780 89 -600 120/06 RMK AO2
14837KMSN MSN20020209084009502/09/02 08:40:31  5-MIN KMSN 091440Z 12007KT 3SM BR CLR 01/00 A3001 780 92 -600 120/07 RMK AO2
14837KMSN MSN20020209084509502/09/02 08:45:31  5-MIN KMSN 091445Z 12007KT 3SM BR CLR 01/00 A3001 780 92 -600 120/07 RMK AO2
14837KMSN MSN20020209085011802/09/02 08:50:31  5-MIN KMSN 091450Z 13007KT 3SM BR CLR 01/00 A3001 780 92 -600 130/07 RMK AO2 SLP172 T00110000 56010
14837KMSN MSN20020209085509502/09/02 08:55:31  5-MIN KMSN 091455Z 14007KT 3SM BR CLR 02/00 A3001 780 89 -600 140/07 RMK AO2
14837KMSN MSN20020209090009502/09/02 09:00:31  5-MIN KMSN 091500Z 14007KT 3SM BR CLR 02/00 A3002 780 89 -600 140/07 RMK AO2
14837KMSN MSN20020209090509502/09/02 09:05:31  5-MIN KMSN 091505Z 13008KT 3SM BR CLR 02/00 A3001 780 89 -600 130/08 RMK AO2
14837KMSN MSN20020209091009502/09/02 09:10:31  5-MIN KMSN 091510Z 13010KT 3SM BR CLR 02/00 A3001 780 85 -500 130/10 RMK AO2
14837KMSN MSN20020209091509502/09/02 09:15:31  5-MIN KMSN 091515Z 14011KT 4SM BR CLR 02/01 A3001 780 89 -500 140/11 RMK AO2
14837KMSN MSN20020209092009502/09/02 09:20:31  5-MIN KMSN 091520Z 14009KT 4SM BR CLR 03/01 A3001 780 85 -400 140/09 RMK AO2
14837KMSN MSN20020209092509502/09/02 09:25:31  5-MIN KMSN 091525Z 14011KT 4SM BR CLR 02/01 A3001 780 89 -500 140/11 RMK AO2
14837KMSN MSN20020209093009502/09/02 09:30:31  5-MIN KMSN 091530Z 14009KT 4SM BR CLR 02/00 A3001 780 85 -500 140/09 RMK AO2
14837KMSN MSN20020209093509502/09/02 09:35:31  5-MIN KMSN 091535Z 14009KT 4SM BR CLR 03/01 A3001 780 85 -400 140/09 RMK AO2
14837KMSN MSN20020209094009502/09/02 09:40:31  5-MIN KMSN 091540Z 15009KT 5SM BR CLR 03/01 A3001 790 85 -400 140/09 RMK AO2
14837KMSN MSN20020209094509502/09/02 09:45:31  5-MIN KMSN 091545Z 14010KT 5SM BR CLR 03/01 A3000 790 85 -400 140/10 RMK AO2
14837KMSN MSN20020209095011202/09/02 09:50:31  5-MIN KMSN 091550Z 14011KT 5SM BR CLR 03/01 A3000 790 85 -400 140/11 RMK AO2 SLP169 T00280006
14837KMSN MSN20020209095509502/09/02 09:55:31  5-MIN KMSN 091555Z 14010KT 5SM HZ CLR 03/01 A3001 790 82 -300 140/10 RMK AO2
14837KMSN MSN20020209100009502/09/02 10:00:31  5-MIN KMSN 091600Z 15008KT 5SM HZ CLR 03/01 A3000 790 82 -300 150/08 RMK AO2
14837KMSN MSN20020209100509502/09/02 10:05:31  5-MIN KMSN 091605Z 14009KT 6SM HZ CLR 03/01 A3000 790 82 -300 140/09 RMK AO2
14837KMSN MSN20020209101009502/09/02 10:10:31  5-MIN KMSN 091610Z 14010KT 6SM HZ CLR 03/00 A3000 790 79 -300 140/10 RMK AO2
14837KMSN MSN20020209101509502/09/02 10:15:31  5-MIN KMSN 091615Z 15011KT 6SM HZ CLR 03/01 A3000 790 82 -300 150/11 RMK AO2
14837KMSN MSN20020209102009502/09/02 10:20:31  5-MIN KMSN 091620Z 14009KT 6SM HZ CLR 04/01 A3000 790 79 -200 130/09 RMK AO2
14837KMSN MSN20020209102509502/09/02 10:25:31  5-MIN KMSN 091625Z 14009KT 6SM HZ CLR 04/01 A3000 790 76 -200 140/09 RMK AO2
14837KMSN MSN20020209103009202/09/02 10:30:31  5-MIN KMSN 091630Z 14011KT 7SM CLR 04/01 A3000 790 76 -200 140/11 RMK AO2
14837KMSN MSN20020209103509202/09/02 10:35:31  5-MIN KMSN 091635Z 14010KT 7SM CLR 05/01 A3000 790 76 -100 140/10 RMK AO2
14837KMSN MSN20020209104009202/09/02 10:40:31  5-MIN KMSN 091640Z 14010KT 7SM CLR 05/01 A3000 790 73 -100 140/10 RMK AO2
14837KMSN MSN20020209104509202/09/02 10:45:31  5-MIN KMSN 091645Z 15010KT 7SM CLR 04/01 A3000 790 76 -200 150/10 RMK AO2
14837KMSN MSN20020209105010902/09/02 10:50:31  5-MIN KMSN 091650Z 14012KT 7SM CLR 05/01 A3000 790 73 -100 140/12 RMK AO2 SLP167 T00500006
14837KMSN MSN20020209105509202/09/02 10:55:31  5-MIN KMSN 091655Z 14008KT 8SM CLR 06/01 A3000 790 70 -100 140/08 RMK AO2
14837KMSN MSN20020209110008902/09/02 11:00:31  5-MIN KMSN 091700Z 15012KT 8SM CLR 06/01 A3000 790 67 0 150/12 RMK AO2
14837KMSN MSN20020209110508902/09/02 11:05:31  5-MIN KMSN 091705Z 14008KT 9SM CLR 06/01 A3000 790 70 0 140/08 RMK AO2
14837KMSN MSN20020209111008902/09/02 11:10:31  5-MIN KMSN 091710Z 15008KT 9SM CLR 07/01 A3000 790 67 0 150/08 RMK AO2
14837KMSN MSN20020209111509102/09/02 11:15:31  5-MIN KMSN 091715Z 15010KT 9SM CLR 07/01 A3000 790 65 100 150/10 RMK AO2
14837KMSN MSN20020209112009802/09/02 11:20:31  5-MIN KMSN 091720Z 15010G15KT 10SM CLR 07/01 A3000 790 62 100 150/10G15 RMK AO2
14837KMSN MSN20020209112509002/09/02 11:25:31  5-MIN KMSN 091725Z 14012KT 10SM CLR 07/01 A2999 800 65 0 140/12 RMK AO2
14837KMSN MSN20020209113009202/09/02 11:30:31  5-MIN KMSN 091730Z 15011KT 10SM CLR 07/01 A2999 800 62 100 150/11 RMK AO2
14837KMSN MSN20020209113509202/09/02 11:35:31  5-MIN KMSN 091735Z 14011KT 10SM CLR 07/01 A2999 800 62 100 140/11 RMK AO2
14837KMSN MSN20020209114009002/09/02 11:40:31  5-MIN KMSN 091740Z 15009KT 10SM CLR 06/00 A2999 800 65 0 150/09 RMK AO2
14837KMSN MSN20020209114509102/09/02 11:45:31  5-MIN KMSN 091745Z 16009KT 10SM CLR 06/M01 A2999 800 62 0 160/09 RMK AO2
14837KMSN MSN20020209115012702/09/02 11:50:31  5-MIN KMSN 091750Z 16008KT 10SM CLR 07/00 A2999 800 60 100 160/08 RMK AO2 SLP162 T00720000 10072 21011 53009
14837KMSN MSN20020209115509202/09/02 11:55:31  5-MIN KMSN 091755Z 14007KT 10SM CLR 08/01 A2998 810 60 200 140/07 RMK AO2
14837KMSN MSN20020209120009202/09/02 12:00:31  5-MIN KMSN 091800Z 14010KT 10SM CLR 08/00 A2998 810 58 200 140/10 RMK AO2
14837KMSN MSN20020209120509802/09/02 12:05:31  5-MIN KMSN 091805Z 13010G15KT 10SM CLR 07/00 A2998 810 60 100 130/10G15 RMK AO2
14837KMSN MSN20020209121009202/09/02 12:10:31  5-MIN KMSN 091810Z 15007KT 10SM CLR 07/00 A2998 810 60 100 140/07 RMK AO2
14837KMSN MSN20020209121509202/09/02 12:15:31  5-MIN KMSN 091815Z 14007KT 10SM CLR 07/00 A2998 810 60 100 130/07 RMK AO2
14837KMSN MSN20020209122009202/09/02 12:20:31  5-MIN KMSN 091820Z 14010KT 10SM CLR 08/00 A2998 810 58 200 140/10 RMK AO2
14837KMSN MSN20020209122509302/09/02 12:25:31  5-MIN KMSN 091825Z 15008KT 10SM CLR 07/M01 A2998 810 57 100 150/08 RMK AO2
14837KMSN MSN20020209123009302/09/02 12:30:31  5-MIN KMSN 091830Z 15010KT 10SM CLR 07/M01 A2998 810 57 100 150/10 RMK AO2
14837KMSN MSN20020209123509202/09/02 12:35:31  5-MIN KMSN 091835Z 14009KT 10SM CLR 08/00 A2998 810 58 200 140/09 RMK AO2
14837KMSN MSN20020209124009202/09/02 12:40:31  5-MIN KMSN 091840Z 16010KT 10SM CLR 08/00 A2998 810 58 200 160/10 RMK AO2
14837KMSN MSN20020209124509202/09/02 12:45:31  5-MIN KMSN 091845Z 11008KT 10SM CLR 07/01 A2997 810 62 100 110/08 RMK AO2
14837KMSN MSN20020209125010902/09/02 12:50:31  5-MIN KMSN 091850Z 12009KT 10SM CLR 07/01 A2998 810 62 100 120/09 RMK AO2 SLP158 T00720006
14837KMSN MSN20020209125509202/09/02 12:55:31  5-MIN KMSN 091855Z 11009KT 10SM CLR 07/01 A2998 810 62 100 110/09 RMK AO2
14837KMSN MSN20020209130009002/09/02 13:00:31  5-MIN KMSN 091900Z 12010KT 10SM CLR 07/01 A2997 810 65 0 110/10 RMK AO2
14837KMSN MSN20020209130509202/09/02 13:05:31  5-MIN KMSN 091905Z 11010KT 10SM CLR 07/01 A2997 820 62 100 110/10 RMK AO2
14837KMSN MSN20020209131009202/09/02 13:10:31  5-MIN KMSN 091910Z 11009KT 10SM CLR 07/01 A2997 820 62 100 110/09 RMK AO2
14837KMSN MSN20020209131509202/09/02 13:15:31  5-MIN KMSN 091915Z 11011KT 10SM CLR 07/01 A2997 820 62 100 110/11 RMK AO2
14837KMSN MSN20020209132009202/09/02 13:20:31  5-MIN KMSN 091920Z 12012KT 10SM CLR 07/01 A2996 820 62 100 120/12 RMK AO2
14837KMSN MSN20020209132509202/09/02 13:25:31  5-MIN KMSN 091925Z 13011KT 10SM CLR 08/01 A2996 830 60 200 130/11 RMK AO2
14837KMSN MSN20020209133009202/09/02 13:30:31  5-MIN KMSN 091930Z 13008KT 10SM CLR 08/01 A2996 830 60 200 130/08 RMK AO2
14837KMSN MSN20020209133509202/09/02 13:35:31  5-MIN KMSN 091935Z 12009KT 10SM CLR 08/01 A2995 830 60 200 120/09 RMK AO2
14837KMSN MSN20020209134009202/09/02 13:40:31  5-MIN KMSN 091940Z 11011KT 10SM CLR 08/01 A2995 830 60 300 110/11 RMK AO2
14837KMSN MSN20020209134509202/09/02 13:45:31  5-MIN KMSN 091945Z 13011KT 10SM CLR 08/01 A2995 840 62 200 120/11 RMK AO2
14837KMSN MSN20020209135010902/09/02 13:50:31  5-MIN KMSN 091950Z 12012KT 10SM CLR 08/01 A2995 830 60 200 120/12 RMK AO2 SLP149 T00780006
14837KMSN MSN20020209135509202/09/02 13:55:31  5-MIN KMSN 091955Z 13010KT 10SM CLR 07/01 A2995 830 62 100 130/10 RMK AO2
14837KMSN MSN20020209140009202/09/02 14:00:31  5-MIN KMSN 092000Z 12011KT 10SM CLR 07/01 A2995 830 62 100 120/11 RMK AO2
14837KMSN MSN20020209140509202/09/02 14:05:31  5-MIN KMSN 092005Z 13011KT 10SM CLR 07/01 A2995 830 65 100 130/11 RMK AO2
14837KMSN MSN20020209141009202/09/02 14:10:31  5-MIN KMSN 092010Z 13009KT 10SM CLR 07/01 A2995 840 65 100 130/09 RMK AO2
14837KMSN MSN20020209141509202/09/02 14:15:31  5-MIN KMSN 092015Z 13008KT 10SM CLR 08/01 A2995 840 62 200 130/08 RMK AO2
14837KMSN MSN20020209142009202/09/02 14:20:31  5-MIN KMSN 092020Z 12011KT 10SM CLR 07/01 A2995 840 65 100 120/11 RMK AO2
14837KMSN MSN20020209142509202/09/02 14:25:31  5-MIN KMSN 092025Z 12012KT 10SM CLR 07/01 A2995 840 65 100 120/12 RMK AO2
14837KMSN MSN20020209143009202/09/02 14:30:31  5-MIN KMSN 092030Z 12011KT 10SM CLR 08/02 A2995 840 65 200 120/11 RMK AO2
14837KMSN MSN20020209143509202/09/02 14:35:31  5-MIN KMSN 092035Z 13011KT 10SM CLR 08/02 A2995 840 63 300 130/11 RMK AO2
14837KMSN MSN20020209144009202/09/02 14:40:31  5-MIN KMSN 092040Z 13010KT 10SM CLR 08/02 A2995 840 63 300 130/10 RMK AO2
14837KMSN MSN20020209144509202/09/02 14:45:31  5-MIN KMSN 092045Z 13009KT 10SM CLR 08/02 A2995 840 65 200 130/09 RMK AO2
14837KMSN MSN20020209145011502/09/02 14:50:31  5-MIN KMSN 092050Z 13012KT 10SM CLR 08/02 A2995 840 63 300 130/12 RMK AO2 SLP148 T00830017 58009
14837KMSN MSN20020209145509202/09/02 14:55:31  5-MIN KMSN 092055Z 13011KT 10SM CLR 08/02 A2994 840 63 300 130/11 RMK AO2
14837KMSN MSN20020209150009202/09/02 15:00:31  5-MIN KMSN 092100Z 13012KT 10SM CLR 08/02 A2994 840 63 300 130/12 RMK AO2
14837KMSN MSN20020209150509202/09/02 15:05:31  5-MIN KMSN 092105Z 14011KT 10SM CLR 08/02 A2995 840 63 300 140/11 RMK AO2
14837KMSN MSN20020209151009202/09/02 15:10:31  5-MIN KMSN 092110Z 14011KT 10SM CLR 08/02 A2995 840 63 300 140/11 RMK AO2
14837KMSN MSN20020209151509202/09/02 15:15:31  5-MIN KMSN 092115Z 14012KT 10SM CLR 08/02 A2995 840 65 200 130/12 RMK AO2
14837KMSN MSN20020209152009202/09/02 15:20:31  5-MIN KMSN 092120Z 14012KT 10SM CLR 08/02 A2995 830 65 200 140/12 RMK AO2
14837KMSN MSN20020209152509202/09/02 15:25:31  5-MIN KMSN 092125Z 13013KT 10SM CLR 08/02 A2995 830 65 200 130/13 RMK AO2
14837KMSN MSN20020209153009202/09/02 15:30:31  5-MIN KMSN 092130Z 13014KT 10SM CLR 08/02 A2995 840 63 300 130/14 RMK AO2
14837KMSN MSN20020209153509202/09/02 15:35:31  5-MIN KMSN 092135Z 14010KT 10SM CLR 08/02 A2995 840 63 300 130/10 RMK AO2
14837KMSN MSN20020209154009202/09/02 15:40:31  5-MIN KMSN 092140Z 14015KT 10SM CLR 08/02 A2995 840 63 300 140/15 RMK AO2
14837KMSN MSN20020209154509202/09/02 15:45:31  5-MIN KMSN 092145Z 15013KT 10SM CLR 08/02 A2995 840 65 200 140/13 RMK AO2
14837KMSN MSN20020209155010902/09/02 15:50:31  5-MIN KMSN 092150Z 14014KT 10SM CLR 08/02 A2995 840 65 200 140/14 RMK AO2 SLP150 T00780017
14837KMSN MSN20020209155509202/09/02 15:55:31  5-MIN KMSN 092155Z 15010KT 10SM CLR 08/02 A2995 830 65 200 150/10 RMK AO2
14837KMSN MSN20020209160009202/09/02 16:00:31  5-MIN KMSN 092200Z 15009KT 10SM CLR 08/02 A2995 830 65 200 150/09 RMK AO2
14837KMSN MSN20020209160509802/09/02 16:05:31  5-MIN KMSN 092205Z 14012G17KT 10SM CLR 08/02 A2995 830 65 200 140/12G17 RMK AO2
14837KMSN MSN20020209161009802/09/02 16:10:31  5-MIN KMSN 092210Z 15010G17KT 10SM CLR 08/02 A2995 840 65 200 150/10G17 RMK AO2
14837KMSN MSN20020209161509202/09/02 16:15:31  5-MIN KMSN 092215Z 15010KT 10SM CLR 08/02 A2995 830 65 200 140/10 RMK AO2
14837KMSN MSN20020209162009202/09/02 16:20:31  5-MIN KMSN 092220Z 14010KT 10SM CLR 08/02 A2995 840 65 200 140/10 RMK AO2
14837KMSN MSN20020209162509202/09/02 16:25:31  5-MIN KMSN 092225Z 13008KT 10SM CLR 08/02 A2995 840 65 200 130/08 RMK AO2
14837KMSN MSN20020209163009202/09/02 16:30:31  5-MIN KMSN 092230Z 13008KT 10SM CLR 07/02 A2995 840 68 100 130/08 RMK AO2
14837KMSN MSN20020209163509202/09/02 16:35:31  5-MIN KMSN 092235Z 12007KT 10SM CLR 07/02 A2995 840 68 100 120/07 RMK AO2
14837KMSN MSN20020209164009202/09/02 16:40:31  5-MIN KMSN 092240Z 11005KT 10SM CLR 07/02 A2995 840 68 100 110/05 RMK AO2
14837KMSN MSN20020209164509202/09/02 16:45:31  5-MIN KMSN 092245Z 12006KT 10SM CLR 07/02 A2995 840 68 100 120/06 RMK AO2
14837KMSN MSN20020209165010902/09/02 16:50:31  5-MIN KMSN 092250Z 11006KT 10SM CLR 07/02 A2995 840 70 100 110/06 RMK AO2 SLP148 T00670017
14837KMSN MSN20020209165509002/09/02 16:55:31  5-MIN KMSN 092255Z 10006KT 10SM CLR 06/02 A2995 840 73 0 100/06 RMK AO2
14837KMSN MSN20020209170009002/09/02 17:00:31  5-MIN KMSN 092300Z 11005KT 10SM CLR 06/01 A2995 840 70 0 110/05 RMK AO2
14837KMSN MSN20020209170509002/09/02 17:05:31  5-MIN KMSN 092305Z 11007KT 10SM CLR 06/01 A2995 840 70 0 110/07 RMK AO2
14837KMSN MSN20020209171009302/09/02 17:10:31  5-MIN KMSN 092310Z 11005KT 10SM FEW043 06/01 A2996 830 70 0 110/05 RMK AO2
14837KMSN MSN20020209171509302/09/02 17:15:31  5-MIN KMSN 092315Z 11006KT 10SM SCT043 06/01 A2996 830 70 0 110/06 RMK AO2
14837KMSN MSN20020209172009302/09/02 17:20:31  5-MIN KMSN 092320Z 09006KT 10SM BKN043 06/01 A2995 830 70 0 090/06 RMK AO2
14837KMSN MSN20020209172509302/09/02 17:25:31  5-MIN KMSN 092325Z 10005KT 10SM BKN043 06/01 A2995 830 73 0 100/05 RMK AO2
14837KMSN MSN20020209173009502/09/02 17:30:31  5-MIN KMSN 092330Z 10007KT 10SM BKN043 07/01 A2995 830 67 100 100/07 RMK AO2
14837KMSN MSN20020209173509502/09/02 17:35:31  5-MIN KMSN 092335Z 09009KT 10SM OVC043 07/01 A2995 830 67 100 090/09 RMK AO2
14837KMSN MSN20020209174009502/09/02 17:40:31  5-MIN KMSN 092340Z 09008KT 10SM OVC043 07/01 A2995 830 67 100 090/08 RMK AO2
14837KMSN MSN20020209174509502/09/02 17:45:31  5-MIN KMSN 092345Z 08007KT 10SM OVC043 07/01 A2996 830 67 100 080/07 RMK AO2
14837KMSN MSN20020209175012802/09/02 17:50:31  5-MIN KMSN 092350Z 07008KT 10SM OVC043 06/01 A2995 830 70 0 070/08 RMK AO2 SLP151 T00610011 10083 20056 56013
14837KMSN MSN20020209175509302/09/02 17:55:31  5-MIN KMSN 092355Z 08009KT 10SM OVC043 06/01 A2996 830 70 0 080/09 RMK AO2
14837KMSN MSN20020209180009302/09/02 18:00:31  5-MIN KMSN 100000Z 08010KT 10SM OVC043 06/02 A2996 830 73 0 070/10 RMK AO2
14837KMSN MSN20020209180509302/09/02 18:05:31  5-MIN KMSN 100005Z 08011KT 10SM OVC043 06/02 A2996 830 73 0 080/11 RMK AO2
14837KMSN MSN20020209181009302/09/02 18:10:31  5-MIN KMSN 100010Z 08009KT 10SM OVC043 06/02 A2996 830 73 0 080/09 RMK AO2
14837KMSN MSN20020209181509302/09/02 18:15:31  5-MIN KMSN 100015Z 07010KT 10SM OVC043 06/02 A2996 830 73 0 070/10 RMK AO2
14837KMSN MSN20020209182009302/09/02 18:20:31  5-MIN KMSN 100020Z 08011KT 10SM OVC043 06/02 A2996 830 76 0 080/11 RMK AO2
14837KMSN MSN20020209182509302/09/02 18:25:31  5-MIN KMSN 100025Z 07009KT 10SM OVC043 06/02 A2996 830 76 0 070/09 RMK AO2
14837KMSN MSN20020209183009302/09/02 18:30:31  5-MIN KMSN 100030Z 07009KT 10SM OVC043 06/02 A2996 830 76 0 070/09 RMK AO2
14837KMSN MSN20020209183509202/09/02 18:35:31  5-MIN KMSN 100035Z 07008KT 9SM OVC045 06/02 A2996 820 76 0 070/08 RMK AO2
14837KMSN MSN20020209184009202/09/02 18:40:31  5-MIN KMSN 100040Z 07010KT 9SM OVC045 06/02 A2997 820 76 0 070/10 RMK AO2
14837KMSN MSN20020209184509202/09/02 18:45:31  5-MIN KMSN 100045Z 07009KT 9SM OVC045 06/02 A2997 820 76 0 070/09 RMK AO2
14837KMSN MSN20020209185011302/09/02 18:50:31  5-MIN KMSN 100050Z 07009KT 10SM OVC045 05/02 A2997 820 79 -100 070/09 RMK AO2 SLP156 T00500017
14837KMSN MSN20020209185509502/09/02 18:55:31  5-MIN KMSN 100055Z 07008KT 8SM OVC045 05/02 A2997 820 79 -100 070/08 RMK AO2
14837KMSN MSN20020209190009502/09/02 19:00:31  5-MIN KMSN 100100Z 07008KT 8SM OVC045 05/01 A2997 820 76 -100 070/08 RMK AO2
14837KMSN MSN20020209190509502/09/02 19:05:31  5-MIN KMSN 100105Z 07007KT 8SM OVC047 05/01 A2997 820 76 -100 070/07 RMK AO2
14837KMSN MSN20020209191009502/09/02 19:10:31  5-MIN KMSN 100110Z 07008KT 8SM OVC047 05/01 A2997 820 76 -100 070/08 RMK AO2
14837KMSN MSN20020209191509502/09/02 19:15:31  5-MIN KMSN 100115Z 07009KT 8SM OVC049 05/01 A2998 810 76 -100 070/09 RMK AO2
14837KMSN MSN20020209192009502/09/02 19:20:31  5-MIN KMSN 100120Z 08010KT 8SM OVC049 05/01 A2998 810 76 -100 080/10 RMK AO2
14837KMSN MSN20020209192510202/09/02 19:25:31  5-MIN KMSN 100125Z 07010KT 8SM BKN049 OVC055 05/01 A2997 810 76 -100 070/10 RMK AO2
14837KMSN MSN20020209193009502/09/02 19:30:31  5-MIN KMSN 100130Z 07009KT 8SM OVC049 04/01 A2997 820 79 -200 070/09 RMK AO2
14837KMSN MSN20020209193510202/09/02 19:35:31  5-MIN KMSN 100135Z 07009KT 7SM BKN049 OVC055 05/02 A2997 820 79 -100 070/09 RMK AO2
14837KMSN MSN20020209194010202/09/02 19:40:31  5-MIN KMSN 100140Z 07009KT 7SM BKN049 OVC055 04/02 A2997 820 82 -200 070/09 RMK AO2
14837KMSN MSN20020209194510202/09/02 19:45:31  5-MIN KMSN 100145Z 07010KT 7SM BKN049 OVC060 04/02 A2997 820 82 -200 070/10 RMK AO2
14837KMSN MSN20020209195011202/09/02 19:50:31  5-MIN KMSN 100150Z 07009KT 8SM OVC055 04/02 A2997 820 82 -200 070/09 RMK AO2 SLP155 T00440017
14837KMSN MSN20020209195510202/09/02 19:55:31  5-MIN KMSN 100155Z 08011KT 7SM BKN050 OVC060 04/02 A2996 820 82 -200 070/11 RMK AO2
14837KMSN MSN20020209200010202/09/02 20:00:31  5-MIN KMSN 100200Z 07012KT 7SM BKN050 OVC060 04/02 A2996 820 82 -200 070/12 RMK AO2
14837KMSN MSN20020209200510202/09/02 20:05:31  5-MIN KMSN 100205Z 08012KT 7SM BKN050 OVC060 05/02 A2996 820 79 -100 080/12 RMK AO2
14837KMSN MSN20020209201009502/09/02 20:10:31  5-MIN KMSN 100210Z 08013KT 7SM OVC050 04/02 A2996 830 82 -200 080/13 RMK AO2
14837KMSN MSN20020209201509502/09/02 20:15:31  5-MIN KMSN 100215Z 08014KT 7SM OVC050 04/01 A2996 830 79 -200 080/14 RMK AO2
14837KMSN MSN20020209202009502/09/02 20:20:31  5-MIN KMSN 100220Z 08014KT 7SM OVC048 04/01 A2996 830 79 -200 080/14 RMK AO2
14837KMSN MSN20020209202510502/09/02 20:25:31  5-MIN KMSN 100225Z 08012KT 6SM HZ BKN048 OVC060 04/01 A2996 830 79 -200 080/12 RMK AO2
14837KMSN MSN20020209203009802/09/02 20:30:31  5-MIN KMSN 100230Z 07013KT 6SM HZ OVC048 04/01 A2995 830 79 -200 070/13 RMK AO2
14837KMSN MSN20020209203509802/09/02 20:35:31  5-MIN KMSN 100235Z 08012KT 6SM HZ OVC048 04/01 A2995 840 79 -200 070/12 RMK AO2
14837KMSN MSN20020209204009802/09/02 20:40:31  5-MIN KMSN 100240Z 08012KT 6SM HZ OVC048 04/01 A2995 840 79 -200 080/12 RMK AO2
14837KMSN MSN20020209204509802/09/02 20:45:31  5-MIN KMSN 100245Z 08012KT 6SM HZ OVC048 04/01 A2995 840 79 -100 080/12 RMK AO2
14837KMSN MSN20020209205012502/09/02 20:50:31  5-MIN KMSN 100250Z 08012KT 8SM BKN048 OVC060 04/01 A2995 840 79 -100 080/12 RMK AO2 SLP148 T00440011 53004
14837KMSN MSN20020209205510502/09/02 20:55:31  5-MIN KMSN 100255Z 08013KT 6SM HZ BKN050 OVC065 04/01 A2995 840 79 -100 080/13 RMK AO2
14837KMSN MSN20020209210010502/09/02 21:00:31  5-MIN KMSN 100300Z 08013KT 6SM HZ BKN048 OVC060 04/01 A2994 840 79 -100 080/13 RMK AO2
14837KMSN MSN20020209210510502/09/02 21:05:31  5-MIN KMSN 100305Z 08012KT 6SM HZ BKN048 OVC060 04/01 A2994 840 79 -100 080/12 RMK AO2
14837KMSN MSN20020209211011202/09/02 21:10:31  5-MIN KMSN 100310Z 08012KT 6SM HZ BKN048 BKN055 OVC065 04/01 A2994 850 79 -100 080/12 RMK AO2
14837KMSN MSN20020209211510502/09/02 21:15:31  5-MIN KMSN 100315Z 08012KT 6SM HZ BKN048 OVC065 04/01 A2994 850 79 -100 080/12 RMK AO2
14837KMSN MSN20020209212010502/09/02 21:20:31  5-MIN KMSN 100320Z 08011KT 6SM HZ BKN048 OVC065 04/01 A2994 840 79 -100 080/11 RMK AO2
14837KMSN MSN20020209212509802/09/02 21:25:31  5-MIN KMSN 100325Z 08012KT 6SM HZ OVC048 04/01 A2994 840 79 -100 080/12 RMK AO2
14837KMSN MSN20020209213009802/09/02 21:30:31  5-MIN KMSN 100330Z 08012KT 6SM HZ OVC048 04/01 A2994 840 79 -100 080/12 RMK AO2
14837KMSN MSN20020209213509802/09/02 21:35:31  5-MIN KMSN 100335Z 08011KT 6SM HZ OVC048 04/01 A2994 850 79 -100 080/11 RMK AO2
14837KMSN MSN20020209214009802/09/02 21:40:31  5-MIN KMSN 100340Z 08011KT 5SM HZ OVC048 04/01 A2994 840 79 -100 080/11 RMK AO2
14837KMSN MSN20020209214509802/09/02 21:45:31  5-MIN KMSN 100345Z 08010KT 5SM HZ OVC046 04/01 A2994 850 79 -100 080/10 RMK AO2
14837KMSN MSN20020209215011202/09/02 21:50:31  5-MIN KMSN 100350Z 08010KT 7SM OVC048 04/01 A2994 850 79 -100 080/10 RMK AO2 SLP146 T00440011
14837KMSN MSN20020209215509802/09/02 21:55:31  5-MIN KMSN 100355Z 08010KT 5SM HZ OVC048 04/01 A2994 850 79 -100 080/10 RMK AO2
14837KMSN MSN20020209220009802/09/02 22:00:31  5-MIN KMSN 100400Z 07011KT 5SM HZ OVC048 04/01 A2994 850 79 -100 070/11 RMK AO2
14837KMSN MSN20020209220509802/09/02 22:05:31  5-MIN KMSN 100405Z 07010KT 5SM HZ OVC048 04/01 A2994 850 79 -100 070/10 RMK AO2
14837KMSN MSN20020209221010502/09/02 22:10:31  5-MIN KMSN 100410Z 07012KT 5SM HZ BKN048 OVC060 04/01 A2993 850 79 -100 070/12 RMK AO2
14837KMSN MSN20020209221510502/09/02 22:15:31  5-MIN KMSN 100415Z 07012KT 5SM HZ BKN050 OVC060 04/01 A2993 850 79 -100 070/12 RMK AO2
14837KMSN MSN20020209222010502/09/02 22:20:31  5-MIN KMSN 100420Z 07012KT 5SM HZ BKN050 OVC060 04/01 A2993 860 79 -100 060/12 RMK AO2
14837KMSN MSN20020209222510502/09/02 22:25:31  5-MIN KMSN 100425Z 06011KT 6SM HZ BKN050 OVC060 04/01 A2993 860 79 -100 060/11 RMK AO2
14837KMSN MSN20020209223010502/09/02 22:30:31  5-MIN KMSN 100430Z 06012KT 5SM HZ BKN050 OVC060 04/01 A2993 860 79 -100 060/12 RMK AO2
14837KMSN MSN20020209223510502/09/02 22:35:31  5-MIN KMSN 100435Z 06011KT 5SM HZ BKN048 OVC060 04/01 A2992 860 79 -100 060/11 RMK AO2
14837KMSN MSN20020209224010502/09/02 22:40:31  5-MIN KMSN 100440Z 05010KT 5SM HZ BKN048 OVC060 04/01 A2992 860 79 -100 050/10 RMK AO2
14837KMSN MSN20020209224509802/09/02 22:45:31  5-MIN KMSN 100445Z 06009KT 5SM HZ OVC048 04/01 A2993 860 79 -100 060/09 RMK AO2
14837KMSN MSN20020209225012802/09/02 22:50:31  5-MIN KMSN 100450Z 06007KT 5SM -RA OVC048 04/02 A2993 850 82 -100 060/07 RMK AO2 RAB50 SLP142 P0000 T00440017
14837KMSN MSN20020209225510502/09/02 22:55:31  5-MIN KMSN 100455Z 07006KT 4SM -RA OVC048 04/02 A2994 850 82 -100 070/06 RMK AO2 P0000
14837KMSN MSN20020209230010502/09/02 23:00:31  5-MIN KMSN 100500Z VRB05KT 4SM -RA OVC048 04/02 A2993 850 85 -200 VRB/05 RMK AO2 P0000
14837KMSN MSN20020209230511202/09/02 23:05:31  5-MIN KMSN 100505Z 06006KT 4SM -RA SCT038 OVC048 04/02 A2993 850 85 -200 060/06 RMK AO2 P0000
14837KMSN MSN20020209231011202/09/02 23:10:31  5-MIN KMSN 100510Z 05006KT 4SM -RA BKN038 OVC048 04/02 A2994 850 85 -200 050/06 RMK AO2 P0001
14837KMSN MSN20020209231511202/09/02 23:15:31  5-MIN KMSN 100515Z 06007KT 3SM -RA BKN038 OVC048 04/02 A2993 850 85 -200 060/07 RMK AO2 P0001
14837KMSN MSN20020209232011202/09/02 23:20:31  5-MIN KMSN 100520Z 05008KT 3SM -RA BKN036 OVC048 03/02 A2993 860 92 -300 050/08 RMK AO2 P0002
14837KMSN MSN20020209232510502/09/02 23:25:31  5-MIN KMSN 100525Z 05009KT 3SM -RA OVC036 03/02 A2993 860 92 -300 050/09 RMK AO2 P0002
14837KMSN MSN20020209233010502/09/02 23:30:31  5-MIN KMSN 100530Z 05009KT 3SM -RA OVC036 03/02 A2993 860 92 -300 050/09 RMK AO2 P0003
14837KMSN MSN20020209233510502/09/02 23:35:31  5-MIN KMSN 100535Z 05011KT 3SM -RA OVC034 03/02 A2993 860 92 -300 050/11 RMK AO2 P0004
14837KMSN MSN20020209234010502/09/02 23:40:31  5-MIN KMSN 100540Z 05010KT 3SM -RA OVC034 03/02 A2992 860 92 -300 050/10 RMK AO2 P0004
14837KMSN MSN20020209234510502/09/02 23:45:31  5-MIN KMSN 100545Z 04009KT 3SM -RA OVC034 03/02 A2992 860 92 -300 040/09 RMK AO2 P0005
14837KMSN MSN20020209235016002/09/02 23:50:31  5-MIN KMSN 100550Z 05009KT 2 1/2SM -RA OVC034 03/02 A2992 860 92 -300 040/09 RMK AO2 SLP139 P0006 60006 T00280017 10061 20028 400831017 58003
14837KMSN MSN20020209235510802/09/02 23:55:31  5-MIN KMSN 100555Z 05011KT 3SM -RA BR OVC034 03/02 A2992 860 92 -300 050/11 RMK AO2 P0000
14837KMSN MSN20020210000010802/10/02 00:00:31  5-MIN KMSN 100600Z 04010KT 3SM -RA BR OVC032 03/02 A2992 870 92 -300 040/10 RMK AO2 P0001
14837KMSN MSN20020210000510802/10/02 00:05:31  5-MIN KMSN 100605Z 05010KT 3SM -RA BR OVC034 03/02 A2992 870 92 -300 050/10 RMK AO2 P0002
14837KMSN MSN20020210001010802/10/02 00:10:31  5-MIN KMSN 100610Z 05009KT 3SM -RA BR OVC034 03/02 A2992 870 92 -300 050/09 RMK AO2 P0002
14837KMSN MSN20020210001510802/10/02 00:15:31  5-MIN KMSN 100615Z 05011KT 3SM -RA BR OVC032 03/02 A2992 870 92 -300 050/11 RMK AO2 P0002
14837KMSN MSN20020210002011802/10/02 00:20:31  5-MIN KMSN 100620Z 05010KT 3SM BR OVC032 03/02 A2991 870 92 -300 050/10 RMK AO2 RAE17UPB17E20 P0002
14837KMSN MSN20020210002511902/10/02 00:25:31  5-MIN KMSN 100625Z 05008KT 2 1/2SM -RA BR BKN030 OVC035 02/02 A2991 870 96 -400 050/08 RMK AO2 P0002
14837KMSN MSN20020210003012602/10/02 00:30:31  5-MIN KMSN 100630Z 09007KT 2 1/2SM -RA BR FEW007 BKN030 OVC035 02/02 A2991 870 96 -400 090/07 RMK AO2 P0003
14837KMSN MSN20020210003511902/10/02 00:35:31  5-MIN KMSN 100635Z 04009KT 2 1/2SM -RA BR SCT007 OVC030 02/02 A2991 870 96 -400 040/09 RMK AO2 P0003
14837KMSN MSN20020210004011902/10/02 00:40:31  5-MIN KMSN 100640Z 04011KT 2 1/2SM -RA BR SCT007 OVC028 02/01 A2991 880 92 -400 040/11 RMK AO2 P0004
14837KMSN MSN20020210004511502/10/02 00:45:31  5-MIN KMSN 100645Z 04011KT 2SM -RA BR BKN007 OVC028 02/01 A2991 880 92 -400 040/11 RMK AO2 P0004
14837KMSN MSN20020210005013202/10/02 00:50:31  5-MIN KMSN 100650Z 04013KT 2SM -RA BR SCT007 OVC028 02/01 A2990 880 92 -400 040/13 RMK AO2 SLP132 P0004 T00220011
14837KMSN MSN20020210005512202/10/02 00:55:31  5-MIN KMSN 100655Z 04011KT 2SM -RA BR SCT007 BKN026 OVC031 02/01 A2990 880 96 -400 040/11 RMK AO2 P0000
14837KMSN MSN20020210010012602/10/02 01:00:31  5-MIN KMSN 100700Z 04012KT 2 1/2SM -RA BR SCT007 BKN026 OVC031 02/01 A2990 890 96 -400 040/12 RMK AO2 P0000
14837KMSN MSN20020210010512202/10/02 01:05:31  5-MIN KMSN 100705Z 04014KT 2SM -RA BR FEW007 BKN026 OVC031 02/01 A2989 890 96 -400 040/14 RMK AO2 P0001
14837KMSN MSN20020210011012202/10/02 01:10:31  5-MIN KMSN 100710Z 04014KT 2SM -RA BR FEW007 BKN024 OVC031 02/01 A2989 890 96 -400 040/14 RMK AO2 P0001
14837KMSN MSN20020210011512202/10/02 01:15:31  5-MIN KMSN 100715Z 04014KT 2SM -RA BR FEW006 BKN024 OVC031 02/01 A2989 890 96 -400 040/14 RMK AO2 P0002
14837KMSN MSN20020210012011902/10/02 01:20:31  5-MIN KMSN 100720Z 04013KT 2 1/2SM -RA BR FEW006 OVC024 02/01 A2989 890 96 -400 040/13 RMK AO2 P0002
14837KMSN MSN20020210012511902/10/02 01:25:31  5-MIN KMSN 100725Z 04013KT 2 1/2SM -RA BR FEW006 OVC024 02/01 A2989 890 96 -400 040/13 RMK AO2 P0002
14837KMSN MSN20020210013011902/10/02 01:30:31  5-MIN KMSN 100730Z 04013KT 2 1/2SM -RA BR SCT006 OVC024 02/01 A2989 900 96 -400 040/13 RMK AO2 P0003
14837KMSN MSN20020210013511902/10/02 01:35:31  5-MIN KMSN 100735Z 05013KT 2 1/2SM -RA BR BKN006 OVC022 02/01 A2989 890 96 -400 050/13 RMK AO2 P0004
14837KMSN MSN20020210014011902/10/02 01:40:31  5-MIN KMSN 100740Z 05013KT 2 1/2SM -RA BR BKN006 OVC022 02/01 A2989 890 96 -400 050/13 RMK AO2 P0004
14837KMSN MSN20020210014511902/10/02 01:45:31  5-MIN KMSN 100745Z 05013KT 2 1/2SM -RA BR BKN006 OVC022 02/01 A2989 890 96 -400 040/13 RMK AO2 P0005
14837KMSN MSN20020210015012502/10/02 01:50:31  5-MIN KMSN 100750Z 05015KT 2SM -RA BR OVC006 02/01 A2989 900 96 -400 050/15 RMK AO2 SLP127 P0005 T00170011
14837KMSN MSN20020210015511502/10/02 01:55:31  5-MIN KMSN 100755Z 05012KT 2SM -RA BR BKN006 OVC017 02/01 A2988 900 96 -400 050/12 RMK AO2 P0000
14837KMSN MSN20020210020011502/10/02 02:00:31  5-MIN KMSN 100800Z 04015KT 2SM -RA BR BKN006 OVC017 02/01 A2988 900 96 -400 040/15 RMK AO2 P0001
14837KMSN MSN20020210020511502/10/02 02:05:31  5-MIN KMSN 100805Z 04014KT 2SM -RA BR BKN006 OVC017 02/01 A2988 900 96 -400 040/14 RMK AO2 P0001
14837KMSN MSN20020210021012202/10/02 02:10:31  5-MIN KMSN 100810Z 04013KT 2SM -RA BR BKN006 BKN010 OVC017 02/01 A2988 900 96 -400 040/13 RMK AO2 P0002
14837KMSN MSN20020210021511502/10/02 02:15:31  5-MIN KMSN 100815Z 04014KT 2SM -RA BR BKN006 OVC017 02/01 A2988 900 92 -400 040/14 RMK AO2 P0002
14837KMSN MSN20020210022011502/10/02 02:20:31  5-MIN KMSN 100820Z 04014KT 2SM -RA BR BKN006 OVC017 02/01 A2988 900 92 -400 040/14 RMK AO2 P0003
14837KMSN MSN20020210022510802/10/02 02:25:31  5-MIN KMSN 100825Z 04014KT 2SM -RA BR OVC006 02/01 A2988 900 92 -400 040/14 RMK AO2 P0004
14837KMSN MSN20020210023010802/10/02 02:30:31  5-MIN KMSN 100830Z 04012KT 2SM -RA BR OVC006 01/01 A2988 900 96 -500 040/12 RMK AO2 P0004
14837KMSN MSN20020210023512002/10/02 02:35:31  5-MIN KMSN 100835Z 04014KT 2SM -RA BR OVC006 01/01 A2988 900 96 -500 040/14 RMK AO2 CIG 005V009 P0005
14837KMSN MSN20020210024012002/10/02 02:40:31  5-MIN KMSN 100840Z 04014KT 2SM -RA BR OVC006 01/01 A2988 900 96 -500 040/14 RMK AO2 CIG 004V009 P0006
14837KMSN MSN20020210024512002/10/02 02:45:31  5-MIN KMSN 100845Z 04012KT 2SM -RA BR OVC006 01/00 A2988 900 92 -500 040/12 RMK AO2 CIG 004V009 P0006
14837KMSN MSN20020210025016102/10/02 02:50:31  5-MIN KMSN 100850Z 04011KT 1 3/4SM -RASN BR OVC006 01/00 A2988 900 96 -500 040/11 RMK AO2 SNB46 CIG 004V009 SLP123 P0007 60018 T00060000 58009
14837KMSN MSN20020210025512602/10/02 02:55:31  5-MIN KMSN 100855Z 04012KT 1 3/4SM -RASN BR OVC006 01/00 A2988 910 96 -500 030/12 RMK AO2 CIG 004V009 P0000
14837KMSN MSN20020210030011802/10/02 03:00:31  5-MIN KMSN 100900Z 04011KT 1 3/4SM -SN BR OVC006 01/00 A2988 910 96 -500 040/11 RMK AO2 RAE00 P0000
14837KMSN MSN20020210030511802/10/02 03:05:31  5-MIN KMSN 100905Z 03011KT 1 3/4SM -SN BR OVC006 01/00 A2988 900 96 -500 030/11 RMK AO2 RAE00 P0001
14837KMSN MSN20020210031011802/10/02 03:10:31  5-MIN KMSN 100910Z 03010KT 1 1/4SM -SN BR OVC006 01/00 A2988 900 96 -500 030/10 RMK AO2 RAE00 P0001
14837KMSN MSN20020210031511802/10/02 03:15:31  5-MIN KMSN 100915Z 03011KT 1 1/4SM -SN BR OVC006 01/00 A2988 900 96 -500 030/11 RMK AO2 RAE00 P0001
14837KMSN MSN20020210032011802/10/02 03:20:31  5-MIN KMSN 100920Z 03011KT 1 1/4SM -SN BR OVC006 01/00 A2988 900 96 -500 030/11 RMK AO2 RAE00 P0001
14837KMSN MSN20020210032511802/10/02 03:25:31  5-MIN KMSN 100925Z 03012KT 1 1/4SM -SN BR OVC006 01/00 A2988 900 96 -600 020/12 RMK AO2 RAE00 P0002
14837KMSN MSN20020210033011802/10/02 03:30:31  5-MIN KMSN 100930Z 03011KT 1 1/4SM -SN BR OVC006 01/00 A2988 900 96 -600 030/11 RMK AO2 RAE00 P0002
14837KMSN MSN20020210033511802/10/02 03:35:31  5-MIN KMSN 100935Z 02012KT 1 1/4SM -SN BR OVC006 01/00 A2988 900 96 -600 020/12 RMK AO2 RAE00 P0002
14837KMSN MSN20020210034011802/10/02 03:40:31  5-MIN KMSN 100940Z 02012KT 1 1/4SM -SN BR OVC006 01/00 A2989 900 96 -600 020/12 RMK AO2 RAE00 P0003
14837KMSN MSN20020210034511802/10/02 03:45:31  5-MIN KMSN 100945Z 03012KT 1 1/4SM -SN BR OVC006 01/00 A2989 890 96 -600 020/12 RMK AO2 RAE00 P0003
14837KMSN MSN20020210035014102/10/02 03:50:31  5-MIN KMSN 100950Z 02016G21KT 1 1/4SM -SN BR OVC006 01/00 A2989 890 96 -600 020/16G21 RMK AO2 RAE00 SLP128 P0003 T00060000
14837KMSN MSN20020210035513002/10/02 03:55:31  5-MIN KMSN 100955Z 02013G21KT 1 1/4SM -SN BR OVC006 01/00 A2989 890 96 -600 020/13G21 RMK AO2 CIG 004V008 P0000
14837KMSN MSN20020210040012402/10/02 04:00:31  5-MIN KMSN 101000Z 03014KT 1 1/4SM -SN BR OVC006 01/00 A2989 890 96 -600 020/14 RMK AO2 CIG 004V010 P0000
14837KMSN MSN20020210040512402/10/02 04:05:31  5-MIN KMSN 101005Z 02013KT 1 1/4SM -SN BR OVC006 01/00 A2990 890 96 -600 020/13 RMK AO2 CIG 004V010 P0000
14837KMSN MSN20020210041012402/10/02 04:10:31  5-MIN KMSN 101010Z 02013KT 1 1/4SM -SN BR OVC006 01/00 A2990 880 96 -600 020/13 RMK AO2 CIG 004V011 P0000
14837KMSN MSN20020210041512002/10/02 04:15:31  5-MIN KMSN 101015Z 02014KT 2SM -SN BR OVC006 01/00 A2990 880 96 -600 020/14 RMK AO2 CIG 005V011 P0000
14837KMSN MSN20020210042012002/10/02 04:20:31  5-MIN KMSN 101020Z 02014KT 2SM -SN BR OVC006 01/00 A2990 880 96 -600 020/14 RMK AO2 CIG 005V011 P0000
14837KMSN MSN20020210042512002/10/02 04:25:31  5-MIN KMSN 101025Z 02015KT 2SM -SN BR OVC006 01/00 A2991 880 96 -600 010/15 RMK AO2 CIG 005V011 P0000
14837KMSN MSN20020210043012002/10/02 04:30:31  5-MIN KMSN 101030Z 01014KT 2SM -SN BR OVC006 01/00 A2991 880 96 -600 010/14 RMK AO2 CIG 005V011 P0000
14837KMSN MSN20020210043512002/10/02 04:35:31  5-MIN KMSN 101035Z 02013KT 2SM -SN BR OVC006 01/00 A2991 870 96 -600 020/13 RMK AO2 CIG 005V010 P0000
14837KMSN MSN20020210044012002/10/02 04:40:31  5-MIN KMSN 101040Z 02015KT 2SM -SN BR OVC006 01/00 A2991 870 96 -600 020/15 RMK AO2 CIG 005V010 P0001
14837KMSN MSN20020210044512002/10/02 04:45:31  5-MIN KMSN 101045Z 01016KT 2SM -SN BR OVC006 01/00 A2991 870 96 -600 010/16 RMK AO2 CIG 005V009 P0001
14837KMSN MSN20020210045013802/10/02 04:50:31  5-MIN KMSN 101050Z 02015KT 2SM -SN BR OVC006 01/M01 A2991 870 92 -600 010/15 RMK AO2 CIG 005V012 SLP137 P0001 T00061006
14837KMSN MSN20020210045511302/10/02 04:55:31  5-MIN KMSN 101055Z 01014KT 1 1/2SM -SN BR OVC006 01/M01 A2992 870 92 -600 010/14 RMK AO2 P0001
14837KMSN MSN20020210050010902/10/02 05:00:31  5-MIN KMSN 101100Z 01014KT 1SM -SN BR OVC006 00/M01 A2992 860 96 -700 010/14 RMK AO2 P0001
14837KMSN MSN20020210050511602/10/02 05:05:31  5-MIN KMSN 101105Z 01013KT 1SM -SN BR BKN006 OVC009 00/M01 A2992 860 96 -700 010/13 RMK AO2 P0001
14837KMSN MSN20020210051011602/10/02 05:10:31  5-MIN KMSN 101110Z 01015KT 1SM -SN BR BKN004 OVC008 00/M01 A2992 860 96 -700 010/15 RMK AO2 P0002
14837KMSN MSN20020210051511602/10/02 05:15:31  5-MIN KMSN 101115Z 01016KT 1SM -SN BR BKN004 OVC008 00/M01 A2993 860 96 -700 010/16 RMK AO2 P0002
14837KMSN MSN20020210052011402/10/02 05:20:31  5-MIN KMSN 101120Z 01013KT 1/2SM SN BKN004 OVC008 00/M01 A2993 860 96 -700 010/13 RMK AO2 P0002
14837KMSN MSN20020210052511402/10/02 05:25:31  5-MIN KMSN 101125Z 01013KT 1/2SM SN BKN004 OVC008 00/M01 A2993 850 96 -700 010/13 RMK AO2 P0002
14837KMSN MSN20020210053010702/10/02 05:30:31  5-MIN KMSN 101130Z 01015KT 1/2SM SN OVC004 00/M01 A2994 850 96 -700 010/15 RMK AO2 P0003
14837KMSN MSN20020210053510802/10/02 05:35:31  5-MIN KMSN 101135Z 01012KT 3/4SM -SN OVC004 00/M01 A2994 850 96 -700 360/12 RMK AO2 P0003
14837KMSN MSN20020210054010802/10/02 05:40:31  5-MIN KMSN 101140Z 36013KT 3/4SM -SN OVC006 00/M01 A2994 840 96 -700 360/13 RMK AO2 P0003
14837KMSN MSN20020210054510802/10/02 05:45:31  5-MIN KMSN 101145Z 36014KT 3/4SM -SN OVC006 00/M01 A2995 840 96 -700 360/14 RMK AO2 P0004
14837KMSN MSN20020210055016702/10/02 05:50:31  5-MIN KMSN 101150Z 36015KT 3/4SM -SN OVC006 00/M01 A2995 840 96 -700 360/15 RMK AO2 CIG 003V009 SLP149 P0004 60027 70033 T00001006 10028 20000 56015
14837KMSN MSN20020210055512002/10/02 05:55:31  5-MIN KMSN 101155Z 36015KT 3/4SM -SN OVC006 00/M01 A2995 830 96 -700 360/15 RMK AO2 CIG 003V009 P0000
14837KMSN MSN20020210060013302/10/02 06:00:31  5-MIN KMSN 101200Z 01017G21KT 3/4SM -SN BKN006 OVC011 00/M01 A2996 830 96 -700 010/17G21 RMK AO2 CIG 003V009 P0000
14837KMSN MSN20020210060513102/10/02 06:05:31  5-MIN KMSN 101205Z 01014G21KT 1SM -SN BKN006 OVC011 00/M01 A2996 830 96 -700 360/14G21 RMK AO2 CIG 003V010 P0000
14837KMSN MSN20020210061012502/10/02 06:10:31  5-MIN KMSN 101210Z 36013KT 1SM -SN BKN006 OVC011 00/M01 A2996 830 96 -700 360/13 RMK AO2 CIG 004V010 P0000
14837KMSN MSN20020210061511302/10/02 06:15:31  5-MIN KMSN 101215Z 36013KT 1SM -SN BKN006 OVC011 00/M01 A2997 820 96 -700 360/13 RMK AO2 P0001
14837KMSN MSN20020210062011302/10/02 06:20:31  5-MIN KMSN 101220Z 36012KT 1SM -SN BKN008 OVC011 00/M01 A2997 820 96 -700 360/12 RMK AO2 P0001
14837KMSN MSN20020210062511302/10/02 06:25:31  5-MIN KMSN 101225Z 36012KT 1SM -SN BKN008 OVC013 00/M01 A2998 810 96 -700 360/12 RMK AO2 P0001
14837KMSN MSN20020210063013002/10/02 06:30:31  5-MIN KMSN 101230Z 36013KT 1 1/2SM -SN BR BKN008 OVC013 00/M01 A2998 810 96 -700 360/13 RMK AO2 TWR VIS 2 P0001
14837KMSN MSN20020210063513002/10/02 06:35:31  5-MIN KMSN 101235Z 36013KT 1 1/2SM -SN BR BKN008 OVC013 00/M01 A2998 810 96 -700 360/13 RMK AO2 TWR VIS 2 P0001
14837KMSN MSN20020210064013002/10/02 06:40:31  5-MIN KMSN 101240Z 36014KT 1 1/2SM -SN BR BKN008 OVC012 00/M01 A2998 800 96 -700 360/14 RMK AO2 TWR VIS 2 P0001
14837KMSN MSN20020210064513502/10/02 06:45:31  5-MIN KMSN 101245Z 36013KT 1 1/2SM -SN BR OVC008 00/M01 A2999 800 96 -700 360/13 RMK AO2 TWR VIS 2 CIG 006V014 P0001
14837KMSN MSN20020210065014502/10/02 06:50:31  5-MIN KMSN 101250Z 36015KT 2SM -SN BR BKN008 OVC032 00/M01 A2999 800 96 -800 360/15 RMK AO2 CIG 006V012 SLP165 P0001 T00001006
14837KMSN MSN20020210065514202/10/02 06:55:31  5-MIN KMSN 101255Z 36014KT 1SM -SN BR BKN008 OVC033 00/M01 A3000 790 92 -800 360/14 RMK AO2 SFC VIS 1 1/2 CIG 005V012 P0000
14837KMSN MSN20020210070014202/10/02 07:00:31  5-MIN KMSN 101300Z 36015KT 1SM -SN BR BKN008 OVC035 00/M01 A3000 790 92 -800 360/15 RMK AO2 SFC VIS 1 1/2 CIG 005V015 P0000
14837KMSN MSN20020210070513502/10/02 07:05:31  5-MIN KMSN 101305Z 36015KT 1SM -SN BR BKN008 BKN014 OVC035 00/M01 A3000 790 92 -800 360/15 RMK AO2 CIG 005V012 P0000
14837KMSN MSN20020210071012802/10/02 07:10:31  5-MIN KMSN 101310Z 36014KT 1SM -SN BR BKN010 OVC015 00/M01 A3001 790 92 -800 360/14 RMK AO2 CIG 005V013 P0000
14837KMSN MSN20020210071512802/10/02 07:15:31  5-MIN KMSN 101315Z 36015KT 1SM -SN BR BKN010 OVC015 00/M01 A3001 780 92 -800 360/15 RMK AO2 CIG 005V013 P0000
14837KMSN MSN20020210072011502/10/02 07:20:31  5-MIN KMSN 101320Z 36014G20KT 1SM -SN BR OVC010 00/M01 A3001 780 92 -800 360/14G20 RMK AO2 P0000
14837KMSN MSN20020210072511502/10/02 07:25:31  5-MIN KMSN 101325Z 36016G20KT 1SM -SN BR OVC010 00/M01 A3002 770 92 -800 360/16G20 RMK AO2 P0000
14837KMSN MSN20020210073010902/10/02 07:30:31  5-MIN KMSN 101330Z 36014KT 1SM -SN BR OVC010 00/M01 A3002 770 92 -800 360/14 RMK AO2 P0000
14837KMSN MSN20020210073511502/10/02 07:35:31  5-MIN KMSN 101335Z 36017G22KT 1SM -SN BR OVC010 00/M01 A3002 770 92 -800 360/17G22 RMK AO2 P0000
14837KMSN MSN20020210074011502/10/02 07:40:31  5-MIN KMSN 101340Z 36017G22KT 1SM -SN BR OVC010 00/M01 A3003 760 92 -800 360/17G22 RMK AO2 P0000
14837KMSN MSN20020210074513602/10/02 07:45:31  5-MIN KMSN 101345Z 36018G23KT 1/2SM -SN BR BKN008 OVC013 00/M01 A3003 760 92 -800 360/18G23 RMK AO2 SFC VIS 3/4 P0000
14837KMSN MSN20020210075014902/10/02 07:50:31  5-MIN KMSN 101350Z 36016G23KT 1/2SM SN BKN006 OVC010 00/M01 A3004 760 92 -800 360/16G23 RMK AO2 TWR VIS 3/4 SLP180 P0000 T00001011
14837KMSN MSN20020210075511502/10/02 07:55:31  5-MIN KMSN 101355Z 36016KT 3/4SM -SN BKN006 OVC010 00/M01 A3004 750 92 -800 360/16 RMK AO2 P0000
14837KMSN MSN20020210080011502/10/02 08:00:31  5-MIN KMSN 101400Z 36015KT 3/4SM -SN BKN006 OVC012 00/M01 A3004 750 92 -800 360/15 RMK AO2 P0000
14837KMSN MSN20020210080511502/10/02 08:05:31  5-MIN KMSN 101405Z 36014KT 3/4SM -SN BKN006 OVC015 00/M01 A3005 750 92 -800 360/14 RMK AO2 P0000
14837KMSN MSN20020210081011502/10/02 08:10:31  5-MIN KMSN 101410Z 36014KT 3/4SM -SN BKN008 OVC015 00/M01 A3005 750 92 -800 360/14 RMK AO2 P0000
14837KMSN MSN20020210081512102/10/02 08:15:31  5-MIN KMSN 101415Z 36015G19KT 3/4SM -SN BKN008 OVC015 00/M01 A3005 740 92 -800 360/15G19 RMK AO2 P0000
14837KMSN MSN20020210082013502/10/02 08:20:31  5-MIN KMSN 101420Z 36015G19KT 3/4SM -SN BKN008 OVC013 00/M01 A3006 740 92 -800 360/15G19 RMK AO2 SFC VIS 1 1/4 P0000
14837KMSN MSN20020210082512902/10/02 08:25:31  5-MIN KMSN 101425Z 36013KT 3/4SM -SN BKN010 OVC018 00/M01 A3006 740 92 -800 360/13 RMK AO2 SFC VIS 1 1/2 P0000
14837KMSN MSN20020210083013502/10/02 08:30:31  5-MIN KMSN 101430Z 36013G17KT 3/4SM -SN BKN008 OVC016 00/M01 A3006 740 92 -800 360/13G17 RMK AO2 SFC VIS 1 1/2 P0000
14837KMSN MSN20020210083512902/10/02 08:35:31  5-MIN KMSN 101435Z 36013KT 3/4SM -SN BKN008 OVC016 00/M01 A3006 740 92 -800 360/13 RMK AO2 SFC VIS 1 1/2 P0000
14837KMSN MSN20020210084012902/10/02 08:40:31  5-MIN KMSN 101440Z 36012KT 3/4SM -SN BKN008 OVC016 00/M01 A3006 730 92 -800 360/12 RMK AO2 SFC VIS 1 1/2 P0000
14837KMSN MSN20020210084513602/10/02 08:45:31  5-MIN KMSN 101445Z 36011KT 3/4SM -SN SCT008 BKN016 OVC025 00/M01 A3006 730 92 -800 360/11 RMK AO2 SFC VIS 1 3/4 P0000
14837KMSN MSN20020210085016502/10/02 08:50:31  5-MIN KMSN 101450Z 36011KT 3/4SM -SN SCT010 BKN013 OVC024 00/M01 A3006 730 92 -800 350/11 RMK AO2 SFC VIS 1 3/4 SLP189 P0000 60008 T00001011 53025
14837KMSN MSN20020210085512402/10/02 08:55:31  5-MIN KMSN 101455Z 36012KT 1 3/4SM -SN FEW010 BKN014 OVC030 00/M01 A3007 730 92 -800 360/12 RMK AO2 P0000
14837KMSN MSN20020210090012402/10/02 09:00:31  5-MIN KMSN 101500Z 36012KT 1 3/4SM -SN FEW010 BKN015 OVC030 00/M01 A3007 730 92 -800 360/12 RMK AO2 P0000
14837KMSN MSN20020210090512402/10/02 09:05:31  5-MIN KMSN 101505Z 36012KT 1 3/4SM -SN FEW010 BKN015 OVC030 00/M01 A3007 730 92 -800 360/12 RMK AO2 P0000
14837KMSN MSN20020210091013402/10/02 09:10:31  5-MIN KMSN 101510Z 36012KT 1 3/4SM -SN SCT010 BKN013 OVC019 01/M01 A3007 730 89 -800 350/12 RMK AO2 SFC VIS 2 P0000
14837KMSN MSN20020210091513102/10/02 09:15:31  5-MIN KMSN 101515Z 35010KT 1 3/4SM -SN BKN011 OVC019 01/M01 A3007 720 89 -800 350/10 RMK AO2 SFC VIS 2 1/2 P0000
14837KMSN MSN20020210092011702/10/02 09:20:31  5-MIN KMSN 101520Z 35012KT 2 1/2SM -SN BKN013 OVC019 01/M01 A3007 720 89 -800 350/12 RMK AO2 P0000
14837KMSN MSN20020210092513402/10/02 09:25:31  5-MIN KMSN 101525Z 35009KT 2SM -SN SCT011 BKN014 OVC019 01/M01 A3008 720 89 -800 350/09 RMK AO2 TWR VIS 2 1/2 P0000
14837KMSN MSN20020210093011702/10/02 09:30:31  5-MIN KMSN 101530Z 35008KT 2 1/2SM -SN BKN012 OVC019 01/M01 A3008 720 89 -800 350/08 RMK AO2 P0000
14837KMSN MSN20020210093512302/10/02 09:35:31  5-MIN KMSN 101535Z 35011G18KT 2 1/2SM -SN BKN012 OVC019 01/M01 A3008 710 89 -800 350/11G18 RMK AO2 P0000
14837KMSN MSN20020210094013002/10/02 09:40:31  5-MIN KMSN 101540Z 35009G18KT 2 1/2SM -SN BKN012 BKN017 OVC023 01/M01 A3008 710 92 -800 350/09G18 RMK AO2 P0000
14837KMSN MSN20020210094512402/10/02 09:45:31  5-MIN KMSN 101545Z 35009KT 2 1/2SM -SN FEW008 BKN012 OVC017 01/M01 A3009 710 92 -800 350/09 RMK AO2 P0000
14837KMSN MSN20020210095013002/10/02 09:50:31  5-MIN KMSN 101550Z 35011KT 2SM -SN SCT010 OVC017 01/M01 A3009 710 92 -800 350/11 RMK AO2 SLP197 P0000 T00061006
14837KMSN MSN20020210095513402/10/02 09:55:31  5-MIN KMSN 101555Z 35013KT 2SM -SN SCT010 BKN013 OVC017 01/M01 A3009 710 92 -800 350/13 RMK AO2 SFC VIS 2 1/2 P0000
14837KMSN MSN20020210100011302/10/02 10:00:31  5-MIN KMSN 101600Z 35012KT 2SM -SN SCT010 OVC013 01/M01 A3010 700 89 -800 350/12 RMK AO2 P0000
14837KMSN MSN20020210100512602/10/02 10:05:31  5-MIN KMSN 101605Z 36015G18KT 2SM -SN SCT010 BKN013 OVC020 01/M01 A3010 700 89 -800 360/15G18 RMK AO2 P0000
14837KMSN MSN20020210101013402/10/02 10:10:31  5-MIN KMSN 101610Z 36013KT 2SM -SN SCT010 BKN013 OVC020 01/M01 A3010 700 89 -800 360/13 RMK AO2 SFC VIS 2 1/2 P0000
14837KMSN MSN20020210101514002/10/02 10:15:31  5-MIN KMSN 101615Z 35015G23KT 2SM -SN FEW010 BKN014 OVC021 01/M01 A3011 690 89 -800 350/15G23 RMK AO2 SFC VIS 2 1/2 P0000
14837KMSN MSN20020210102013602/10/02 10:20:31  5-MIN KMSN 101620Z 36016G23KT 2SM -SN FEW010 BKN014 OVC021 01/M02 A3011 690 85 -800 360/16G23 RMK AO2 SFC VIS 3 P0000
14837KMSN MSN20020210102513602/10/02 10:25:31  5-MIN KMSN 101625Z 36019G23KT 2SM -SN SCT012 BKN020 OVC026 01/M02 A3011 690 82 -800 360/19G23 RMK AO2 SFC VIS 3 P0001
14837KMSN MSN20020210103013602/10/02 10:30:31  5-MIN KMSN 101630Z 36018G23KT 2SM -SN SCT014 BKN023 OVC027 01/M02 A3011 690 82 -800 360/18G23 RMK AO2 SFC VIS 3 P0001
14837KMSN MSN20020210103513602/10/02 10:35:31  5-MIN KMSN 101635Z 36016G21KT 2SM -SN SCT016 BKN021 OVC027 01/M02 A3012 680 82 -800 360/16G21 RMK AO2 SFC VIS 3 P0001
14837KMSN MSN20020210104011302/10/02 10:40:31  5-MIN KMSN 101640Z 36016KT 4SM -SN FEW016 OVC023 01/M02 A3012 680 82 -800 360/16 RMK AO2 P0001
14837KMSN MSN20020210104511302/10/02 10:45:31  5-MIN KMSN 101645Z 36014KT 5SM -SN FEW016 OVC025 01/M02 A3012 680 82 -800 360/14 RMK AO2 P0001
14837KMSN MSN20020210105013702/10/02 10:50:31  5-MIN KMSN 101650Z 36014KT 5SM -SN SCT018 BKN022 OVC027 01/M02 A3012 680 85 -800 360/14 RMK AO2 SLP207 P0001 T00061017
14837KMSN MSN20020210105510902/10/02 10:55:31  5-MIN KMSN 101655Z 35012G17KT 9SM SCT018 OVC025 01/M02 A3012 680 85 -800 350/12G17 RMK AO2
14837KMSN MSN20020210110011602/10/02 11:00:31  5-MIN KMSN 101700Z 35011G18KT 7SM SCT018 BKN023 OVC029 01/M02 A3012 680 85 -800 350/11G18 RMK AO2
14837KMSN MSN20020210110510902/10/02 11:05:31  5-MIN KMSN 101705Z 35013G18KT 7SM SCT016 OVC025 01/M02 A3012 680 82 -800 350/13G18 RMK AO2
14837KMSN MSN20020210111011002/10/02 11:10:31  5-MIN KMSN 101710Z 35014KT 7SM SCT016 BKN022 OVC028 01/M02 A3012 680 82 -800 350/14 RMK AO2
14837KMSN MSN20020210111512502/10/02 11:15:31  5-MIN KMSN 101715Z 36015G21KT 7SM -SN BKN020 OVC028 01/M02 A3013 670 82 -800 350/15G21 RMK AO2 SNB12 P0000
14837KMSN MSN20020210112012502/10/02 11:20:31  5-MIN KMSN 101720Z 36016G23KT 9SM -SN BKN020 OVC026 01/M02 A3013 670 82 -800 360/16G23 RMK AO2 SNB12 P0000
14837KMSN MSN20020210112511702/10/02 11:25:31  5-MIN KMSN 101725Z 36013G23KT 9SM OVC023 01/M02 A3013 670 82 -800 360/13G23 RMK AO2 SNB12E23 P0000
14837KMSN MSN20020210113011802/10/02 11:30:31  5-MIN KMSN 101730Z 36018G23KT 9SM -SN OVC021 01/M02 A3013 670 82 -800 360/18G23 RMK AO2 SNB12 P0000
14837KMSN MSN20020210113512502/10/02 11:35:31  5-MIN KMSN 101735Z 36020G25KT 9SM -SN BKN021 OVC027 01/M02 A3013 670 82 -800 360/20G25 RMK AO2 SNB12 P0000
14837KMSN MSN20020210114012502/10/02 11:40:31  5-MIN KMSN 101740Z 36014G25KT 9SM -SN BKN021 OVC027 01/M02 A3013 670 82 -800 360/14G25 RMK AO2 SNB12 P0000
14837KMSN MSN20020210114511902/10/02 11:45:31  5-MIN KMSN 101745Z 01019KT 9SM -SN BKN019 OVC025 01/M02 A3013 670 82 -800 010/19 RMK AO2 SNB12 P0000
14837KMSN MSN20020210115016602/10/02 11:50:31  5-MIN KMSN 101750Z 36018KT 9SM -SN BKN019 OVC027 01/M02 A3013 670 82 -800 360/18 RMK AO2 SNB12 SLP213 P0000 60009 4/002 T00061022 10006 20000 51037
14837KMSN MSN20020210115510902/10/02 11:55:31  5-MIN KMSN 101755Z 36016G23KT 9SM BKN019 OVC027 00/M02 A3014 670 85 -900 360/16G23 RMK AO2
14837KMSN MSN20020210120011002/10/02 12:00:31  5-MIN KMSN 101800Z 35017G23KT 10SM BKN019 OVC025 01/M02 A3013 670 82 -800 350/17G23 RMK AO2
14837KMSN MSN20020210120511702/10/02 12:05:31  5-MIN KMSN 101805Z 36015G24KT 10SM BKN019 BKN023 OVC028 01/M02 A3013 670 82 -800 360/15G24 RMK AO2
14837KMSN MSN20020210121011002/10/02 12:10:31  5-MIN KMSN 101810Z 36015G24KT 10SM BKN020 OVC026 01/M02 A3014 670 82 -800 350/15G24 RMK AO2
14837KMSN MSN20020210121510402/10/02 12:15:31  5-MIN KMSN 101815Z 36017KT 10SM BKN020 OVC026 01/M03 A3014 660 78 -800 360/17 RMK AO2
14837KMSN MSN20020210122010402/10/02 12:20:31  5-MIN KMSN 101820Z 36018KT 10SM BKN020 OVC026 01/M03 A3014 660 78 -800 360/18 RMK AO2
14837KMSN MSN20020210122511002/10/02 12:25:31  5-MIN KMSN 101825Z 36016G24KT 10SM BKN022 OVC026 01/M03 A3014 670 78 -800 360/16G24 RMK AO2
14837KMSN MSN20020210123012802/10/02 12:30:31  5-MIN KMSN 101830Z 36019G26KT 10SM FEW017 OVC024 01/M03 A3014 660 78 -800 360/19G26 RMK AO2 PK WND 01026/1829
14837KMSN MSN20020210123512102/10/02 12:35:31  5-MIN KMSN 101835Z 36014G26KT 10SM OVC022 01/M03 A3014 660 78 -800 360/14G26 RMK AO2 PK WND 01026/1829
14837KMSN MSN20020210124012802/10/02 12:40:31  5-MIN KMSN 101840Z 35013G20KT 10SM BKN020 OVC024 00/M03 A3014 660 81 -900 350/13G20 RMK AO2 PK WND 01026/1829
14837KMSN MSN20020210124512802/10/02 12:45:31  5-MIN KMSN 101845Z 36017G24KT 10SM SCT017 OVC026 00/M03 A3014 660 81 -900 360/17G24 RMK AO2 PK WND 01026/1829
14837KMSN MSN20020210125014502/10/02 12:50:31  5-MIN KMSN 101850Z 36015G24KT 10SM SCT019 OVC026 01/M03 A3014 660 75 -900 360/15G24 RMK AO2 PK WND 01026/1829 SLP217 T00061033
14837KMSN MSN20020210125510402/10/02 12:55:31  5-MIN KMSN 101855Z 36014KT 10SM BKN019 OVC026 01/M02 A3015 660 82 -900 360/14 RMK AO2
14837KMSN MSN20020210130011002/10/02 13:00:31  5-MIN KMSN 101900Z 36016G21KT 10SM BKN019 OVC026 00/M03 A3015 650 78 -900 350/16G21 RMK AO2
14837KMSN MSN20020210130511702/10/02 13:05:31  5-MIN KMSN 101905Z 36016G21KT 10SM SCT019 BKN024 OVC029 00/M03 A3015 650 78 -900 360/16G21 RMK AO2
14837KMSN MSN20020210131011002/10/02 13:10:31  5-MIN KMSN 101910Z 36018G22KT 10SM BKN022 OVC029 01/M03 A3015 650 75 -900 350/18G22 RMK AO2
14837KMSN MSN20020210131510302/10/02 13:15:31  5-MIN KMSN 101915Z 35011G23KT 10SM OVC022 00/M04 A3016 650 75 -900 350/11G23 RMK AO2
14837KMSN MSN20020210132010302/10/02 13:20:31  5-MIN KMSN 101920Z 35013G23KT 10SM OVC022 00/M04 A3016 640 75 -900 350/13G23 RMK AO2
14837KMSN MSN20020210132510302/10/02 13:25:31  5-MIN KMSN 101925Z 36015G20KT 10SM OVC022 00/M04 A3016 650 75 -900 350/15G20 RMK AO2
14837KMSN MSN20020210133010302/10/02 13:30:31  5-MIN KMSN 101930Z 35015G19KT 10SM OVC022 00/M04 A3016 640 72 -900 350/15G19 RMK AO2
14837KMSN MSN20020210133511002/10/02 13:35:31  5-MIN KMSN 101935Z 36015G21KT 10SM BKN022 OVC028 00/M04 A3016 640 72 -900 360/15G21 RMK AO2
14837KMSN MSN20020210134011002/10/02 13:40:31  5-MIN KMSN 101940Z 36012G21KT 10SM BKN022 OVC030 00/M04 A3016 640 75 -900 360/12G21 RMK AO2
14837KMSN MSN20020210134511002/10/02 13:45:31  5-MIN KMSN 101945Z 35011G17KT 10SM SCT022 OVC032 00/M04 A3016 640 72 -900 350/11G17 RMK AO2
14837KMSN MSN20020210135013402/10/02 13:50:31  5-MIN KMSN 101950Z 35011G17KT 10SM FEW022 BKN030 BKN035 01/M04 A3016 640 72 -900 350/11G17 RMK AO2 SLP222 T00061039
14837KMSN MSN20020210135511002/10/02 13:55:31  5-MIN KMSN 101955Z 35010G17KT 10SM FEW022 SCT030 01/M04 A3016 640 72 -900 350/10G17 RMK AO2
14837KMSN MSN20020210140010402/10/02 14:00:31  5-MIN KMSN 102000Z 34009KT 10SM FEW024 SCT030 01/M04 A3016 640 69 -800 340/09 RMK AO2
14837KMSN MSN20020210140511002/10/02 14:05:31  5-MIN KMSN 102005Z 35012G16KT 10SM SCT033 SCT041 01/M04 A3016 640 69 -800 350/12G16 RMK AO2
14837KMSN MSN20020210141011002/10/02 14:10:31  5-MIN KMSN 102010Z 34010G16KT 10SM SCT033 SCT041 01/M04 A3016 640 69 -800 340/10G16 RMK AO2
14837KMSN MSN20020210141511002/10/02 14:15:31  5-MIN KMSN 102015Z 34010G16KT 10SM SCT033 SCT041 01/M04 A3016 640 69 -800 340/10G16 RMK AO2
14837KMSN MSN20020210142011002/10/02 14:20:31  5-MIN KMSN 102020Z 35011G17KT 10SM SCT030 SCT037 01/M04 A3016 640 66 -800 350/11G17 RMK AO2
14837KMSN MSN20020210142510302/10/02 14:25:31  5-MIN KMSN 102025Z 35011G17KT 10SM SCT032 01/M04 A3017 640 66 -800 350/11G17 RMK AO2
14837KMSN MSN20020210143009702/10/02 14:30:31  5-MIN KMSN 102030Z 34010KT 10SM SCT032 02/M04 A3017 640 64 -700 340/10 RMK AO2
14837KMSN MSN20020210143509702/10/02 14:35:31  5-MIN KMSN 102035Z 35010KT 10SM FEW032 01/M04 A3017 630 66 -800 350/10 RMK AO2
14837KMSN MSN20020210144010302/10/02 14:40:31  5-MIN KMSN 102040Z 34012G17KT 10SM FEW032 02/M04 A3018 630 64 -800 340/12G17 RMK AO2
14837KMSN MSN20020210144510302/10/02 14:45:31  5-MIN KMSN 102045Z 34012G17KT 10SM FEW032 01/M05 A3018 620 64 -800 340/12G17 RMK AO2
14837KMSN MSN20020210145012002/10/02 14:50:31  5-MIN KMSN 102050Z 34012KT 10SM FEW032 02/M06 A3018 620 59 -800 340/12 RMK AO2 SLP230 T00171056 51023
14837KMSN MSN20020210145509702/10/02 14:55:31  5-MIN KMSN 102055Z 35012KT 10SM FEW032 01/M05 A3018 620 64 -800 350/12 RMK AO2
14837KMSN MSN20020210150009702/10/02 15:00:31  5-MIN KMSN 102100Z 34009KT 10SM FEW032 01/M05 A3019 620 64 -800 340/09 RMK AO2
14837KMSN MSN20020210150510302/10/02 15:05:31  5-MIN KMSN 102105Z 34012G17KT 10SM FEW032 02/M06 A3019 620 59 -800 340/12G17 RMK AO2
14837KMSN MSN20020210151010302/10/02 15:10:31  5-MIN KMSN 102110Z 33012G18KT 10SM FEW032 01/M06 A3020 610 61 -800 330/12G18 RMK AO2
14837KMSN MSN20020210151510302/10/02 15:15:31  5-MIN KMSN 102115Z 35011G19KT 10SM FEW032 01/M06 A3020 610 61 -800 340/11G19 RMK AO2
14837KMSN MSN20020210152010302/10/02 15:20:31  5-MIN KMSN 102120Z 35011G19KT 10SM FEW032 01/M06 A3020 610 58 -800 350/11G19 RMK AO2
14837KMSN MSN20020210152510302/10/02 15:25:31  5-MIN KMSN 102125Z 35014G18KT 10SM FEW032 01/M06 A3019 610 58 -800 340/14G18 RMK AO2
14837KMSN MSN20020210153010302/10/02 15:30:31  5-MIN KMSN 102130Z 34012G18KT 10SM FEW032 01/M06 A3020 610 58 -800 340/12G18 RMK AO2
14837KMSN MSN20020210153509702/10/02 15:35:31  5-MIN KMSN 102135Z 34010KT 10SM FEW032 01/M06 A3020 600 58 -900 340/10 RMK AO2
14837KMSN MSN20020210154009702/10/02 15:40:31  5-MIN KMSN 102140Z 34009KT 10SM FEW032 01/M06 A3021 600 58 -900 340/09 RMK AO2
14837KMSN MSN20020210154509702/10/02 15:45:31  5-MIN KMSN 102145Z 34010KT 10SM FEW032 01/M06 A3021 590 58 -900 340/10 RMK AO2
14837KMSN MSN20020210155012002/10/02 15:50:31  5-MIN KMSN 102150Z 34013G19KT 10SM FEW032 01/M07 A3022 590 56 -900 340/13G19 RMK AO2 SLP242 T00111067
14837KMSN MSN20020210155510002/10/02 15:55:31  5-MIN KMSN 102155Z 33008G19KT 10SM CLR 01/M06 A3022 590 58 -900 330/08G19 RMK AO2
14837KMSN MSN20020210160009402/10/02 16:00:31  5-MIN KMSN 102200Z 32008KT 10SM CLR 01/M06 A3022 590 58 -900 320/08 RMK AO2
14837KMSN MSN20020210160509402/10/02 16:05:31  5-MIN KMSN 102205Z 33008KT 10SM CLR 01/M06 A3022 590 58 -900 330/08 RMK AO2
14837KMSN MSN20020210161009402/10/02 16:10:31  5-MIN KMSN 102210Z 33009KT 10SM CLR 01/M06 A3022 580 61 -900 330/09 RMK AO2
14837KMSN MSN20020210161511002/10/02 16:15:31  5-MIN KMSN 102215Z 33007KT 300V360 10SM CLR 01/M06 A3022 590 61 -900 330/07 300V360 RMK AO2
14837KMSN MSN20020210162009402/10/02 16:20:31  5-MIN KMSN 102220Z 34009KT 10SM CLR 01/M06 A3023 580 61 -900 340/09 RMK AO2
14837KMSN MSN20020210162509502/10/02 16:25:31  5-MIN KMSN 102225Z 32007KT 10SM CLR 01/M06 A3023 580 61 -1000 320/07 RMK AO2
14837KMSN MSN20020210163009502/10/02 16:30:31  5-MIN KMSN 102230Z 32008KT 10SM CLR 01/M07 A3023 580 58 -1000 320/08 RMK AO2
14837KMSN MSN20020210163509502/10/02 16:35:31  5-MIN KMSN 102235Z 31007KT 10SM CLR 01/M06 A3023 580 61 -1000 310/07 RMK AO2
14837KMSN MSN20020210164009502/10/02 16:40:31  5-MIN KMSN 102240Z 33008KT 10SM CLR 01/M06 A3024 570 63 -1000 320/08 RMK AO2
14837KMSN MSN20020210164509502/10/02 16:45:31  5-MIN KMSN 102245Z 32007KT 10SM CLR 00/M06 A3024 570 63 -1000 320/07 RMK AO2
14837KMSN MSN20020210165011202/10/02 16:50:31  5-MIN KMSN 102250Z 32007KT 10SM CLR 00/M06 A3025 560 63 -1000 310/07 RMK AO2 SLP253 T00001061
14837KMSN MSN20020210165509502/10/02 16:55:31  5-MIN KMSN 102255Z 32006KT 10SM CLR 00/M06 A3025 560 63 -1000 320/06 RMK AO2
14837KMSN MSN20020210170009502/10/02 17:00:31  5-MIN KMSN 102300Z 32006KT 10SM CLR 00/M06 A3025 560 63 -1000 320/06 RMK AO2
14837KMSN MSN20020210170509602/10/02 17:05:31  5-MIN KMSN 102305Z 33006KT 10SM CLR M01/M06 A3025 560 66 -1100 330/06 RMK AO2
14837KMSN MSN20020210171009602/10/02 17:10:31  5-MIN KMSN 102310Z 32006KT 10SM CLR M01/M06 A3025 560 66 -1100 320/06 RMK AO2
14837KMSN MSN20020210171509602/10/02 17:15:31  5-MIN KMSN 102315Z 32006KT 10SM CLR M01/M07 A3026 550 63 -1100 320/06 RMK AO2
14837KMSN MSN20020210172009602/10/02 17:20:31  5-MIN KMSN 102320Z 33006KT 10SM CLR M01/M07 A3026 550 63 -1100 320/06 RMK AO2
14837KMSN MSN20020210172509602/10/02 17:25:31  5-MIN KMSN 102325Z 33005KT 10SM CLR M01/M07 A3026 550 66 -1200 330/05 RMK AO2
14837KMSN MSN20020210173010202/10/02 17:30:31  5-MIN KMSN 102330Z 33007KT 10SM CLR M01/M07 A3027 540 66 -1200 330/07 RMK AO2 4/001
14837KMSN MSN20020210173510202/10/02 17:35:31  5-MIN KMSN 102335Z 32007KT 10SM CLR M01/M07 A3027 540 63 -1200 320/07 RMK AO2 4/001
14837KMSN MSN20020210174010202/10/02 17:40:31  5-MIN KMSN 102340Z 33007KT 10SM CLR M01/M07 A3027 540 63 -1200 330/07 RMK AO2 4/001
14837KMSN MSN20020210174510202/10/02 17:45:31  5-MIN KMSN 102345Z 34007KT 10SM CLR M01/M08 A3027 540 60 -1200 340/07 RMK AO2 4/001
14837KMSN MSN20020210175013702/10/02 17:50:31  5-MIN KMSN 102350Z 35007KT 10SM CLR M01/M08 A3027 540 60 -1200 350/07 RMK AO2 SLP263 4/001 T10111078 10017 21011 53016
14837KMSN MSN20020210175509602/10/02 17:55:31  5-MIN KMSN 102355Z 35006KT 10SM CLR M02/M08 A3028 530 63 -1300 340/06 RMK AO2
14837KMSN MSN20020210180009602/10/02 18:00:31  5-MIN KMSN 110000Z 33007KT 10SM CLR M01/M09 A3028 530 55 -1200 330/07 RMK AO2
14837KMSN MSN20020210180509602/10/02 18:05:31  5-MIN KMSN 110005Z 33006KT 10SM CLR M02/M08 A3029 530 60 -1300 330/06 RMK AO2
14837KMSN MSN20020210181010302/10/02 18:10:31  5-MIN KMSN 110010Z 32006KT 10SM CLR M02/M08 A3030 520 60 -1300 320/06 RMK AO2 PRESRR
14837KMSN MSN20020210181509602/10/02 18:15:31  5-MIN KMSN 110015Z 33005KT 10SM CLR M02/M08 A3030 510 60 -1300 330/05 RMK AO2
14837KMSN MSN20020210182009602/10/02 18:20:31  5-MIN KMSN 110020Z 33004KT 10SM CLR M02/M08 A3030 510 63 -1400 330/04 RMK AO2
14837KMSN MSN20020210182509602/10/02 18:25:31  5-MIN KMSN 110025Z 33005KT 10SM CLR M02/M08 A3030 510 63 -1400 330/05 RMK AO2
14837KMSN MSN20020210183009602/10/02 18:30:31  5-MIN KMSN 110030Z 34003KT 10SM CLR M02/M08 A3031 510 63 -1400 340/03 RMK AO2
14837KMSN MSN20020210183509602/10/02 18:35:31  5-MIN KMSN 110035Z 34004KT 10SM CLR M02/M08 A3031 510 63 -1400 340/04 RMK AO2
14837KMSN MSN20020210184009602/10/02 18:40:31  5-MIN KMSN 110040Z 34004KT 10SM CLR M02/M08 A3031 500 63 -1400 340/04 RMK AO2
14837KMSN MSN20020210184509602/10/02 18:45:31  5-MIN KMSN 110045Z 33003KT 10SM CLR M02/M08 A3031 510 66 -1400 330/03 RMK AO2
14837KMSN MSN20020210185011302/10/02 18:50:31  5-MIN KMSN 110050Z 33003KT 10SM CLR M02/M08 A3031 510 66 -1400 330/03 RMK AO2 SLP275 T10221078
14837KMSN MSN20020210185509602/10/02 18:55:31  5-MIN KMSN 110055Z 33004KT 10SM CLR M03/M08 A3031 510 68 -1500 330/04 RMK AO2
14837KMSN MSN20020210190009602/10/02 19:00:31  5-MIN KMSN 110100Z 33005KT 10SM CLR M03/M08 A3031 500 66 -1500 330/05 RMK AO2
14837KMSN MSN20020210190509602/10/02 19:05:31  5-MIN KMSN 110105Z 33004KT 10SM CLR M03/M08 A3031 500 68 -1500 320/04 RMK AO2
14837KMSN MSN20020210191009602/10/02 19:10:31  5-MIN KMSN 110110Z 33004KT 10SM CLR M03/M08 A3031 500 66 -1500 320/04 RMK AO2
14837KMSN MSN20020210191509602/10/02 19:15:31  5-MIN KMSN 110115Z 33006KT 10SM CLR M03/M08 A3032 500 68 -1500 330/06 RMK AO2
14837KMSN MSN20020210192009602/10/02 19:20:31  5-MIN KMSN 110120Z 33005KT 10SM CLR M03/M08 A3032 500 66 -1500 330/05 RMK AO2
14837KMSN MSN20020210192509602/10/02 19:25:31  5-MIN KMSN 110125Z 34005KT 10SM CLR M03/M08 A3032 490 68 -1500 340/05 RMK AO2
14837KMSN MSN20020210193009602/10/02 19:30:31  5-MIN KMSN 110130Z 34008KT 10SM CLR M03/M08 A3033 490 66 -1500 340/08 RMK AO2
14837KMSN MSN20020210193509602/10/02 19:35:31  5-MIN KMSN 110135Z 34005KT 10SM CLR M03/M08 A3033 490 66 -1500 340/05 RMK AO2
14837KMSN MSN20020210194009602/10/02 19:40:31  5-MIN KMSN 110140Z 34007KT 10SM CLR M03/M08 A3033 490 66 -1500 330/07 RMK AO2
14837KMSN MSN20020210194509602/10/02 19:45:31  5-MIN KMSN 110145Z 33007KT 10SM CLR M03/M08 A3033 480 66 -1500 330/07 RMK AO2
14837KMSN MSN20020210195011302/10/02 19:50:31  5-MIN KMSN 110150Z 33007KT 10SM CLR M03/M08 A3034 480 66 -1500 330/07 RMK AO2 SLP284 T10281083
14837KMSN MSN20020210195509602/10/02 19:55:31  5-MIN KMSN 110155Z 33007KT 10SM CLR M03/M09 A3034 480 63 -1500 330/07 RMK AO2
14837KMSN MSN20020210200009602/10/02 20:00:31  5-MIN KMSN 110200Z 34006KT 10SM CLR M03/M09 A3034 480 63 -1500 340/06 RMK AO2
14837KMSN MSN20020210200509602/10/02 20:05:31  5-MIN KMSN 110205Z 34007KT 10SM CLR M03/M09 A3034 480 63 -1500 330/07 RMK AO2
14837KMSN MSN20020210201009602/10/02 20:10:31  5-MIN KMSN 110210Z 34006KT 10SM CLR M03/M09 A3034 480 63 -1500 340/06 RMK AO2
14837KMSN MSN20020210201509602/10/02 20:15:31  5-MIN KMSN 110215Z 34007KT 10SM CLR M03/M08 A3034 480 68 -1600 340/07 RMK AO2
14837KMSN MSN20020210202009602/10/02 20:20:31  5-MIN KMSN 110220Z 34007KT 10SM CLR M03/M09 A3034 470 65 -1600 340/07 RMK AO2
14837KMSN MSN20020210202509602/10/02 20:25:31  5-MIN KMSN 110225Z 34006KT 10SM CLR M03/M09 A3035 470 65 -1600 340/06 RMK AO2
14837KMSN MSN20020210203009602/10/02 20:30:31  5-MIN KMSN 110230Z 34007KT 10SM CLR M03/M09 A3035 470 63 -1600 340/07 RMK AO2
14837KMSN MSN20020210203509602/10/02 20:35:31  5-MIN KMSN 110235Z 34005KT 10SM CLR M03/M09 A3035 470 63 -1600 340/05 RMK AO2
14837KMSN MSN20020210204009602/10/02 20:40:31  5-MIN KMSN 110240Z 33006KT 10SM CLR M04/M09 A3035 470 65 -1700 330/06 RMK AO2
14837KMSN MSN20020210204509602/10/02 20:45:31  5-MIN KMSN 110245Z 33006KT 10SM CLR M04/M09 A3035 470 65 -1700 330/06 RMK AO2
14837KMSN MSN20020210205011902/10/02 20:50:31  5-MIN KMSN 110250Z 32006KT 10SM CLR M04/M09 A3035 470 65 -1700 320/06 RMK AO2 SLP290 T10391094 51031
14837KMSN MSN20020210205509602/10/02 20:55:31  5-MIN KMSN 110255Z 32005KT 10SM CLR M04/M09 A3035 460 65 -1700 320/05 RMK AO2
14837KMSN MSN20020210210009602/10/02 21:00:31  5-MIN KMSN 110300Z 32005KT 10SM CLR M04/M09 A3036 460 65 -1700 310/05 RMK AO2
14837KMSN MSN20020210210509602/10/02 21:05:31  5-MIN KMSN 110305Z 32005KT 10SM CLR M04/M09 A3036 460 65 -1700 320/05 RMK AO2
14837KMSN MSN20020210211009602/10/02 21:10:31  5-MIN KMSN 110310Z 31005KT 10SM CLR M04/M09 A3036 460 68 -1700 310/05 RMK AO2
14837KMSN MSN20020210211509602/10/02 21:15:31  5-MIN KMSN 110315Z 31005KT 10SM CLR M04/M09 A3036 460 68 -1700 310/05 RMK AO2
14837KMSN MSN20020210212009602/10/02 21:20:31  5-MIN KMSN 110320Z 31006KT 10SM CLR M04/M09 A3036 460 68 -1700 310/06 RMK AO2
14837KMSN MSN20020210212509602/10/02 21:25:31  5-MIN KMSN 110325Z 31006KT 10SM CLR M04/M10 A3036 460 65 -1700 310/06 RMK AO2
14837KMSN MSN20020210213009602/10/02 21:30:31  5-MIN KMSN 110330Z 31006KT 10SM CLR M04/M11 A3037 460 62 -1700 310/06 RMK AO2
14837KMSN MSN20020210213509602/10/02 21:35:31  5-MIN KMSN 110335Z 32006KT 10SM CLR M04/M10 A3037 450 65 -1700 320/06 RMK AO2
14837KMSN MSN20020210214009602/10/02 21:40:31  5-MIN KMSN 110340Z 32006KT 10SM CLR M04/M10 A3037 450 65 -1700 320/06 RMK AO2
14837KMSN MSN20020210214509602/10/02 21:45:31  5-MIN KMSN 110345Z 31005KT 10SM CLR M04/M10 A3037 450 65 -1800 310/05 RMK AO2
14837KMSN MSN20020210215011302/10/02 21:50:31  5-MIN KMSN 110350Z 32005KT 10SM CLR M04/M10 A3038 450 65 -1800 320/05 RMK AO2 SLP297 T10441100
14837KMSN MSN20020210215509602/10/02 21:55:31  5-MIN KMSN 110355Z 32006KT 10SM CLR M04/M10 A3038 450 65 -1800 320/06 RMK AO2
14837KMSN MSN20020210220009602/10/02 22:00:31  5-MIN KMSN 110400Z 31005KT 10SM CLR M05/M10 A3038 440 68 -1800 310/05 RMK AO2
14837KMSN MSN20020210220509602/10/02 22:05:31  5-MIN KMSN 110405Z 31005KT 10SM CLR M05/M10 A3038 440 68 -1800 310/05 RMK AO2
14837KMSN MSN20020210221009602/10/02 22:10:31  5-MIN KMSN 110410Z 31006KT 10SM CLR M05/M10 A3038 440 68 -1800 310/06 RMK AO2
14837KMSN MSN20020210221509602/10/02 22:15:31  5-MIN KMSN 110415Z 31005KT 10SM CLR M05/M10 A3038 440 68 -1800 310/05 RMK AO2
14837KMSN MSN20020210222009602/10/02 22:20:31  5-MIN KMSN 110420Z 31004KT 10SM CLR M05/M10 A3038 450 68 -1800 310/04 RMK AO2
14837KMSN MSN20020210222509602/10/02 22:25:31  5-MIN KMSN 110425Z 30004KT 10SM CLR M05/M11 A3038 440 65 -1800 300/04 RMK AO2
14837KMSN MSN20020210223009602/10/02 22:30:31  5-MIN KMSN 110430Z 30004KT 10SM CLR M05/M10 A3038 440 68 -1800 300/04 RMK AO2
14837KMSN MSN20020210223509602/10/02 22:35:31  5-MIN KMSN 110435Z 30003KT 10SM CLR M06/M11 A3038 440 68 -1900 300/03 RMK AO2
14837KMSN MSN20020210224009602/10/02 22:40:31  5-MIN KMSN 110440Z 32003KT 10SM CLR M05/M10 A3038 440 68 -1800 310/03 RMK AO2
14837KMSN MSN20020210224509602/10/02 22:45:31  5-MIN KMSN 110445Z 31003KT 10SM CLR M06/M11 A3038 440 68 -1900 310/03 RMK AO2
14837KMSN MSN20020210225011302/10/02 22:50:31  5-MIN KMSN 110450Z 32005KT 10SM CLR M06/M11 A3038 440 68 -1900 320/05 RMK AO2 SLP300 T10561106
14837KMSN MSN20020210225509602/10/02 22:55:31  5-MIN KMSN 110455Z 33005KT 10SM CLR M06/M11 A3038 440 68 -1900 330/05 RMK AO2
14837KMSN MSN20020210230009602/10/02 23:00:31  5-MIN KMSN 110500Z 33005KT 10SM CLR M06/M11 A3038 440 68 -1900 330/05 RMK AO2
14837KMSN MSN20020210230509602/10/02 23:05:31  5-MIN KMSN 110505Z 33004KT 10SM CLR M06/M11 A3038 450 65 -1900 330/04 RMK AO2
14837KMSN MSN20020210231009602/10/02 23:10:31  5-MIN KMSN 110510Z 34004KT 10SM CLR M06/M11 A3037 450 68 -1900 340/04 RMK AO2
14837KMSN MSN20020210231509602/10/02 23:15:31  5-MIN KMSN 110515Z 34004KT 10SM CLR M06/M11 A3037 450 65 -1900 340/04 RMK AO2
14837KMSN MSN20020210232009602/10/02 23:20:31  5-MIN KMSN 110520Z 34004KT 10SM CLR M06/M11 A3037 450 68 -1900 340/04 RMK AO2
14837KMSN MSN20020210232509602/10/02 23:25:31  5-MIN KMSN 110525Z 34004KT 10SM CLR M06/M11 A3037 450 71 -2000 340/04 RMK AO2
14837KMSN MSN20020210233009602/10/02 23:30:31  5-MIN KMSN 110530Z 34004KT 10SM CLR M06/M11 A3037 450 68 -2000 340/04 RMK AO2
14837KMSN MSN20020210233509602/10/02 23:35:31  5-MIN KMSN 110535Z 34003KT 10SM CLR M06/M11 A3037 450 71 -2000 340/03 RMK AO2
14837KMSN MSN20020210234009602/10/02 23:40:31  5-MIN KMSN 110540Z 32004KT 10SM CLR M06/M11 A3037 450 71 -2000 320/04 RMK AO2
14837KMSN MSN20020210234509602/10/02 23:45:31  5-MIN KMSN 110545Z 32004KT 10SM CLR M06/M11 A3038 450 68 -2000 320/04 RMK AO2
14837KMSN MSN20020210235014102/10/02 23:50:31  5-MIN KMSN 110550Z 33004KT 10SM CLR M07/M11 A3038 450 71 -2000 320/04 RMK AO2 SLP299 T10671111 11011 21067 400281067 51025
14837KMSN MSN20020210235509602/10/02 23:55:31  5-MIN KMSN 110555Z 32003KT 10SM CLR M07/M11 A3038 450 71 -2000 320/03 RMK AO2
14837KMSN MSN20020211000009602/11/02 00:00:31  5-MIN KMSN 110600Z 31003KT 10SM CLR M07/M11 A3038 440 71 -2000 310/03 RMK AO2
14837KMSN MSN20020211000509602/11/02 00:05:31  5-MIN KMSN 110605Z 30003KT 10SM CLR M07/M11 A3038 440 77 -2100 290/03 RMK AO2
14837KMSN MSN20020211001009602/11/02 00:10:31  5-MIN KMSN 110610Z 00000KT 10SM CLR M07/M10 A3038 440 81 -2100 000/00 RMK AO2
14837KMSN MSN20020211001509602/11/02 00:15:31  5-MIN KMSN 110615Z 00000KT 10SM CLR M07/M09 A3038 440 84 -2100 000/00 RMK AO2
14837KMSN MSN20020211002009602/11/02 00:20:31  5-MIN KMSN 110620Z 00000KT 10SM CLR M08/M11 A3038 450 80 -2200 000/00 RMK AO2
14837KMSN MSN20020211002509602/11/02 00:25:31  5-MIN KMSN 110625Z 00000KT 10SM CLR M07/M11 A3037 450 77 -2100 000/00 RMK AO2
14837KMSN MSN20020211003009602/11/02 00:30:31  5-MIN KMSN 110630Z 00000KT 10SM CLR M07/M11 A3037 450 74 -2100 000/00 RMK AO2
14837KMSN MSN20020211003509602/11/02 00:35:31  5-MIN KMSN 110635Z 00000KT 10SM CLR M07/M10 A3037 450 81 -2100 000/00 RMK AO2
14837KMSN MSN20020211004009602/11/02 00:40:31  5-MIN KMSN 110640Z 00000KT 10SM CLR M07/M10 A3037 450 81 -2100 000/00 RMK AO2
14837KMSN MSN20020211004509602/11/02 00:45:31  5-MIN KMSN 110645Z 00000KT 10SM CLR M08/M11 A3037 450 80 -2200 000/00 RMK AO2
14837KMSN MSN20020211005011302/11/02 00:50:31  5-MIN KMSN 110650Z 00000KT 10SM CLR M08/M11 A3037 450 80 -2200 000/00 RMK AO2 SLP299 T10781106
14837KMSN MSN20020211005509602/11/02 00:55:31  5-MIN KMSN 110655Z 00000KT 10SM CLR M08/M10 A3038 450 88 -2300 000/00 RMK AO2
14837KMSN MSN20020211010009602/11/02 01:00:31  5-MIN KMSN 110700Z 00000KT 10SM CLR M09/M10 A3037 450 92 -2300 000/00 RMK AO2
14837KMSN MSN20020211010509602/11/02 01:05:31  5-MIN KMSN 110705Z 00000KT 10SM CLR M08/M10 A3037 450 88 -2300 000/00 RMK AO2
14837KMSN MSN20020211011009602/11/02 01:10:31  5-MIN KMSN 110710Z 32003KT 10SM CLR M09/M11 A3037 450 88 -2300 320/03 RMK AO2
14837KMSN MSN20020211011509602/11/02 01:15:31  5-MIN KMSN 110715Z 34003KT 10SM CLR M09/M11 A3037 450 88 -2300 340/03 RMK AO2
14837KMSN MSN20020211012009602/11/02 01:20:31  5-MIN KMSN 110720Z 33003KT 10SM CLR M08/M11 A3037 450 80 -2300 330/03 RMK AO2
14837KMSN MSN20020211012509602/11/02 01:25:31  5-MIN KMSN 110725Z 34004KT 10SM CLR M09/M11 A3037 450 84 -2300 340/04 RMK AO2
14837KMSN MSN20020211013009602/11/02 01:30:31  5-MIN KMSN 110730Z 33004KT 10SM CLR M09/M11 A3037 450 84 -2300 330/04 RMK AO2
14837KMSN MSN20020211013509602/11/02 01:35:31  5-MIN KMSN 110735Z 32004KT 10SM CLR M09/M11 A3037 450 84 -2300 320/04 RMK AO2
14837KMSN MSN20020211014009602/11/02 01:40:31  5-MIN KMSN 110740Z 29003KT 10SM CLR M08/M11 A3037 450 80 -2300 290/03 RMK AO2
14837KMSN MSN20020211014509602/11/02 01:45:31  5-MIN KMSN 110745Z 29003KT 10SM CLR M09/M11 A3037 450 88 -2300 280/03 RMK AO2
14837KMSN MSN20020211015011302/11/02 01:50:31  5-MIN KMSN 110750Z 31003KT 10SM CLR M09/M11 A3037 450 88 -2300 300/03 RMK AO2 SLP296 T10891106
14837KMSN MSN20020211015509602/11/02 01:55:31  5-MIN KMSN 110755Z 32004KT 10SM CLR M08/M11 A3036 460 80 -2200 320/04 RMK AO2
14837KMSN MSN20020211020009602/11/02 02:00:31  5-MIN KMSN 110800Z 33004KT 10SM CLR M08/M11 A3036 460 80 -2200 330/04 RMK AO2
14837KMSN MSN20020211020509602/11/02 02:05:31  5-MIN KMSN 110805Z 34003KT 10SM CLR M09/M11 A3036 460 88 -2300 340/03 RMK AO2
14837KMSN MSN20020211021009602/11/02 02:10:31  5-MIN KMSN 110810Z 00000KT 10SM CLR M09/M11 A3037 460 88 -2400 000/00 RMK AO2
14837KMSN MSN20020211021509602/11/02 02:15:31  5-MIN KMSN 110815Z 33003KT 10SM CLR M09/M11 A3036 460 84 -2300 330/03 RMK AO2
14837KMSN MSN20020211022009602/11/02 02:20:31  5-MIN KMSN 110820Z 32003KT 10SM CLR M09/M11 A3035 470 88 -2400 320/03 RMK AO2
14837KMSN MSN20020211022509602/11/02 02:25:31  5-MIN KMSN 110825Z 31003KT 10SM CLR M09/M11 A3035 470 88 -2400 310/03 RMK AO2
14837KMSN MSN20020211023009602/11/02 02:30:31  5-MIN KMSN 110830Z 31003KT 10SM CLR M09/M11 A3035 470 88 -2400 300/03 RMK AO2
14837KMSN MSN20020211023509602/11/02 02:35:31  5-MIN KMSN 110835Z 31003KT 10SM CLR M09/M11 A3035 470 88 -2400 310/03 RMK AO2
14837KMSN MSN20020211024009602/11/02 02:40:31  5-MIN KMSN 110840Z 32004KT 10SM CLR M09/M12 A3035 470 80 -2400 320/04 RMK AO2
14837KMSN MSN20020211024509602/11/02 02:45:31  5-MIN KMSN 110845Z 33003KT 10SM CLR M09/M12 A3035 470 80 -2400 320/03 RMK AO2
14837KMSN MSN20020211025011902/11/02 02:50:31  5-MIN KMSN 110850Z 31003KT 10SM CLR M09/M12 A3035 470 84 -2400 310/03 RMK AO2 SLP290 T10941117 50007
14837KMSN MSN20020211025509602/11/02 02:55:31  5-MIN KMSN 110855Z 28003KT 10SM CLR M09/M11 A3036 460 84 -2300 280/03 RMK AO2
14837KMSN MSN20020211030009602/11/02 03:00:31  5-MIN KMSN 110900Z 00000KT 10SM CLR M09/M11 A3036 460 88 -2400 000/00 RMK AO2
14837KMSN MSN20020211030509602/11/02 03:05:31  5-MIN KMSN 110905Z 00000KT 10SM CLR M09/M11 A3036 460 88 -2400 000/00 RMK AO2
14837KMSN MSN20020211031009602/11/02 03:10:31  5-MIN KMSN 110910Z 00000KT 10SM CLR M09/M12 A3035 470 84 -2400 000/00 RMK AO2
14837KMSN MSN20020211031509602/11/02 03:15:31  5-MIN KMSN 110915Z 17003KT 10SM CLR M09/M12 A3036 460 80 -2400 170/03 RMK AO2
14837KMSN MSN20020211032009602/11/02 03:20:31  5-MIN KMSN 110920Z 00000KT 10SM CLR M09/M12 A3035 470 84 -2400 000/00 RMK AO2
14837KMSN MSN20020211032509602/11/02 03:25:31  5-MIN KMSN 110925Z 00000KT 10SM CLR M09/M12 A3035 470 84 -2400 000/00 RMK AO2
14837KMSN MSN20020211033009602/11/02 03:30:31  5-MIN KMSN 110930Z 00000KT 10SM CLR M09/M12 A3035 470 84 -2400 000/00 RMK AO2
14837KMSN MSN20020211033509602/11/02 03:35:31  5-MIN KMSN 110935Z 00000KT 10SM CLR M10/M12 A3035 470 88 -2400 000/00 RMK AO2
14837KMSN MSN20020211034009602/11/02 03:40:31  5-MIN KMSN 110940Z 00000KT 10SM CLR M09/M11 A3034 470 88 -2400 000/00 RMK AO2
14837KMSN MSN20020211034509602/11/02 03:45:31  5-MIN KMSN 110945Z 00000KT 10SM CLR M10/M11 A3034 470 92 -2400 000/00 RMK AO2
14837KMSN MSN20020211035011302/11/02 03:50:31  5-MIN KMSN 110950Z 00000KT 10SM CLR M10/M11 A3035 470 92 -2400 000/00 RMK AO2 SLP290 T11001111
14837KMSN MSN20020211035509602/11/02 03:55:31  5-MIN KMSN 110955Z 00000KT 10SM CLR M10/M11 A3034 470 92 -2400 000/00 RMK AO2
14837KMSN MSN20020211040009602/11/02 04:00:31  5-MIN KMSN 111000Z 00000KT 10SM CLR M10/M11 A3034 480 92 -2400 000/00 RMK AO2
14837KMSN MSN20020211040509602/11/02 04:05:31  5-MIN KMSN 111005Z 00000KT 10SM CLR M10/M11 A3034 480 92 -2400 000/00 RMK AO2
14837KMSN MSN20020211041009602/11/02 04:10:31  5-MIN KMSN 111010Z 00000KT 10SM CLR M10/M11 A3034 480 92 -2400 000/00 RMK AO2
14837KMSN MSN20020211041509602/11/02 04:15:31  5-MIN KMSN 111015Z 00000KT 10SM CLR M11/M12 A3034 480 92 -2500 000/00 RMK AO2
14837KMSN MSN20020211042009602/11/02 04:20:31  5-MIN KMSN 111020Z 00000KT 10SM CLR M10/M12 A3034 480 88 -2400 000/00 RMK AO2
14837KMSN MSN20020211042509602/11/02 04:25:31  5-MIN KMSN 111025Z 00000KT 10SM CLR M10/M12 A3034 480 88 -2400 000/00 RMK AO2
14837KMSN MSN20020211043009602/11/02 04:30:31  5-MIN KMSN 111030Z 00000KT 10SM CLR M10/M12 A3034 480 88 -2400 000/00 RMK AO2
14837KMSN MSN20020211043509602/11/02 04:35:31  5-MIN KMSN 111035Z 00000KT 10SM CLR M11/M12 A3034 480 92 -2500 000/00 RMK AO2
14837KMSN MSN20020211044009602/11/02 04:40:31  5-MIN KMSN 111040Z 00000KT 10SM CLR M11/M12 A3034 480 92 -2500 000/00 RMK AO2
14837KMSN MSN20020211044509602/11/02 04:45:31  5-MIN KMSN 111045Z 00000KT 10SM CLR M11/M12 A3034 480 92 -2500 000/00 RMK AO2
14837KMSN MSN20020211045011302/11/02 04:50:31  5-MIN KMSN 111050Z 00000KT 10SM CLR M11/M12 A3034 480 92 -2500 000/00 RMK AO2 SLP288 T11061117
14837KMSN MSN20020211045509602/11/02 04:55:31  5-MIN KMSN 111055Z 00000KT 10SM CLR M11/M12 A3034 480 92 -2500 000/00 RMK AO2
14837KMSN MSN20020211050009602/11/02 05:00:31  5-MIN KMSN 111100Z 00000KT 10SM CLR M11/M12 A3034 480 92 -2500 000/00 RMK AO2
14837KMSN MSN20020211050509602/11/02 05:05:31  5-MIN KMSN 111105Z 00000KT 10SM CLR M11/M12 A3033 480 92 -2500 000/00 RMK AO2
14837KMSN MSN20020211051009602/11/02 05:10:31  5-MIN KMSN 111110Z 00000KT 10SM CLR M11/M12 A3033 490 88 -2500 000/00 RMK AO2
14837KMSN MSN20020211051509602/11/02 05:15:31  5-MIN KMSN 111115Z 00000KT 10SM CLR M11/M12 A3033 490 92 -2500 000/00 RMK AO2
14837KMSN MSN20020211052009602/11/02 05:20:31  5-MIN KMSN 111120Z 00000KT 10SM CLR M11/M12 A3033 490 92 -2500 000/00 RMK AO2
14837KMSN MSN20020211052509602/11/02 05:25:31  5-MIN KMSN 111125Z 00000KT 10SM CLR M11/M12 A3033 490 92 -2500 000/00 RMK AO2
14837KMSN MSN20020211053009602/11/02 05:30:31  5-MIN KMSN 111130Z 00000KT 10SM CLR M11/M12 A3032 490 92 -2500 000/00 RMK AO2
14837KMSN MSN20020211053509602/11/02 05:35:31  5-MIN KMSN 111135Z 00000KT 10SM CLR M11/M11 A3032 490 96 -2500 000/00 RMK AO2
14837KMSN MSN20020211054009602/11/02 05:40:31  5-MIN KMSN 111140Z 00000KT 10SM CLR M11/M12 A3032 490 92 -2500 000/00 RMK AO2
14837KMSN MSN20020211054510202/11/02 05:45:31  5-MIN KMSN 111145Z 00000KT 10SM CLR M11/M12 A3032 500 92 -2500 000/00 RMK AO2 4/001
14837KMSN MSN20020211055014402/11/02 05:50:31  5-MIN KMSN 111150Z 00000KT 10SM CLR M10/M12 A3032 500 88 -2400 000/00 RMK AO2 SLP282 4/001 7/0001 T11001117 11067 21106 58007
14837KMSN MSN20020211055509602/11/02 05:55:31  5-MIN KMSN 111155Z 00000KT 10SM CLR M10/M11 A3032 500 92 -2400 000/00 RMK AO2
14837KMSN MSN20020211060009602/11/02 06:00:31  5-MIN KMSN 111200Z 00000KT 10SM CLR M10/M12 A3032 500 88 -2400 000/00 RMK AO2
14837KMSN MSN20020211060509602/11/02 06:05:31  5-MIN KMSN 111205Z 00000KT 10SM CLR M10/M11 A3031 500 92 -2400 000/00 RMK AO2
14837KMSN MSN20020211061009602/11/02 06:10:31  5-MIN KMSN 111210Z 00000KT 10SM CLR M10/M12 A3031 510 88 -2400 000/00 RMK AO2
14837KMSN MSN20020211061509602/11/02 06:15:31  5-MIN KMSN 111215Z 15003KT 10SM CLR M10/M11 A3031 510 92 -2400 150/03 RMK AO2
14837KMSN MSN20020211062009602/11/02 06:20:31  5-MIN KMSN 111220Z 15005KT 10SM CLR M10/M11 A3031 510 92 -2400 150/05 RMK AO2
14837KMSN MSN20020211062509602/11/02 06:25:31  5-MIN KMSN 111225Z 15005KT 10SM CLR M09/M11 A3031 510 88 -2300 150/05 RMK AO2
14837KMSN MSN20020211063009602/11/02 06:30:31  5-MIN KMSN 111230Z 17004KT 10SM CLR M09/M11 A3031 510 88 -2300 170/04 RMK AO2
14837KMSN MSN20020211063509602/11/02 06:35:31  5-MIN KMSN 111235Z 18005KT 10SM CLR M09/M11 A3031 510 88 -2300 180/05 RMK AO2
14837KMSN MSN20020211064009602/11/02 06:40:31  5-MIN KMSN 111240Z 17006KT 10SM CLR M08/M11 A3031 510 80 -2200 170/06 RMK AO2
14837KMSN MSN20020211064509602/11/02 06:45:31  5-MIN KMSN 111245Z 18006KT 10SM CLR M08/M11 A3031 510 84 -2200 180/06 RMK AO2
14837KMSN MSN20020211065011302/11/02 06:50:31  5-MIN KMSN 111250Z 18006KT 10SM CLR M08/M11 A3030 510 84 -2200 180/06 RMK AO2 SLP276 T10831106
14837KMSN MSN20020211065509602/11/02 06:55:31  5-MIN KMSN 111255Z 18006KT 10SM CLR M08/M11 A3030 510 84 -2200 180/06 RMK AO2
14837KMSN MSN20020211070009602/11/02 07:00:31  5-MIN KMSN 111300Z 18006KT 10SM CLR M08/M11 A3030 520 80 -2200 180/06 RMK AO2
14837KMSN MSN20020211070509602/11/02 07:05:31  5-MIN KMSN 111305Z 17006KT 10SM CLR M08/M11 A3030 520 84 -2200 170/06 RMK AO2
14837KMSN MSN20020211071009602/11/02 07:10:31  5-MIN KMSN 111310Z 16007KT 10SM CLR M09/M11 A3029 520 84 -2200 160/07 RMK AO2
14837KMSN MSN20020211071509602/11/02 07:15:31  5-MIN KMSN 111315Z 16006KT 10SM CLR M09/M11 A3029 520 84 -2200 160/06 RMK AO2
14837KMSN MSN20020211072009602/11/02 07:20:31  5-MIN KMSN 111320Z 16005KT 10SM CLR M09/M11 A3030 520 84 -2200 160/05 RMK AO2
14837KMSN MSN20020211072509602/11/02 07:25:31  5-MIN KMSN 111325Z 17004KT 10SM CLR M09/M11 A3030 510 84 -2200 170/04 RMK AO2
14837KMSN MSN20020211073009602/11/02 07:30:31  5-MIN KMSN 111330Z 16005KT 10SM CLR M08/M11 A3029 520 80 -2200 160/05 RMK AO2
14837KMSN MSN20020211073509602/11/02 07:35:31  5-MIN KMSN 111335Z 16005KT 10SM CLR M08/M11 A3029 520 84 -2200 160/05 RMK AO2
14837KMSN MSN20020211074009602/11/02 07:40:31  5-MIN KMSN 111340Z 17006KT 10SM CLR M08/M11 A3029 530 84 -2200 160/06 RMK AO2
14837KMSN MSN20020211074509602/11/02 07:45:31  5-MIN KMSN 111345Z 16006KT 10SM CLR M08/M11 A3028 530 80 -2100 160/06 RMK AO2
14837KMSN MSN20020211075011302/11/02 07:50:31  5-MIN KMSN 111350Z 16007KT 10SM CLR M08/M11 A3028 540 77 -2100 160/07 RMK AO2 SLP266 T10781111
14837KMSN MSN20020211075510302/11/02 07:55:31  5-MIN KMSN 111355Z 16007KT 10SM CLR M07/M11 A3027 540 77 -2000 160/07 RMK AO2 PRESFR
14837KMSN MSN20020211080009602/11/02 08:00:31  5-MIN KMSN 111400Z 16006KT 10SM CLR M07/M11 A3027 550 77 -2000 160/06 RMK AO2
14837KMSN MSN20020211080509602/11/02 08:05:31  5-MIN KMSN 111405Z 17007KT 10SM CLR M07/M10 A3027 550 81 -2000 170/07 RMK AO2
14837KMSN MSN20020211081009602/11/02 08:10:31  5-MIN KMSN 111410Z 18008KT 10SM CLR M07/M11 A3027 540 74 -1900 180/08 RMK AO2
14837KMSN MSN20020211081509602/11/02 08:15:31  5-MIN KMSN 111415Z 18008KT 10SM CLR M07/M10 A3027 550 77 -1900 180/08 RMK AO2
14837KMSN MSN20020211082009602/11/02 08:20:31  5-MIN KMSN 111420Z 18009KT 10SM CLR M06/M10 A3026 550 74 -1800 180/09 RMK AO2
14837KMSN MSN20020211082509602/11/02 08:25:31  5-MIN KMSN 111425Z 18009KT 10SM CLR M06/M10 A3025 560 74 -1800 180/09 RMK AO2
14837KMSN MSN20020211083009602/11/02 08:30:31  5-MIN KMSN 111430Z 18010KT 10SM CLR M06/M10 A3025 560 74 -1800 180/10 RMK AO2
14837KMSN MSN20020211083509602/11/02 08:35:31  5-MIN KMSN 111435Z 19010KT 10SM CLR M06/M10 A3025 560 74 -1800 190/10 RMK AO2
14837KMSN MSN20020211084009602/11/02 08:40:31  5-MIN KMSN 111440Z 18011KT 10SM CLR M06/M11 A3025 560 68 -1800 180/11 RMK AO2
14837KMSN MSN20020211084509602/11/02 08:45:31  5-MIN KMSN 111445Z 19009KT 10SM CLR M06/M10 A3025 560 74 -1800 180/09 RMK AO2
14837KMSN MSN20020211085011902/11/02 08:50:31  5-MIN KMSN 111450Z 18008KT 10SM CLR M06/M10 A3025 560 71 -1700 180/08 RMK AO2 SLP256 T10561100 58012
14837KMSN MSN20020211085509602/11/02 08:55:31  5-MIN KMSN 111455Z 18010KT 10SM CLR M06/M10 A3024 570 71 -1700 180/10 RMK AO2
14837KMSN MSN20020211090009602/11/02 09:00:31  5-MIN KMSN 111500Z 18011KT 10SM CLR M06/M10 A3024 570 71 -1700 180/11 RMK AO2
14837KMSN MSN20020211090509602/11/02 09:05:31  5-MIN KMSN 111505Z 18011KT 10SM CLR M05/M10 A3024 570 68 -1700 170/11 RMK AO2
14837KMSN MSN20020211091009602/11/02 09:10:31  5-MIN KMSN 111510Z 18011KT 10SM CLR M05/M09 A3023 580 71 -1700 170/11 RMK AO2
14837KMSN MSN20020211091509602/11/02 09:15:31  5-MIN KMSN 111515Z 18012KT 10SM CLR M05/M09 A3022 580 71 -1700 180/12 RMK AO2
14837KMSN MSN20020211092009602/11/02 09:20:31  5-MIN KMSN 111520Z 19013KT 10SM CLR M05/M09 A3022 580 71 -1700 190/13 RMK AO2
14837KMSN MSN20020211092509602/11/02 09:25:31  5-MIN KMSN 111525Z 19010KT 10SM CLR M04/M09 A3023 580 68 -1600 190/10 RMK AO2
14837KMSN MSN20020211093009602/11/02 09:30:31  5-MIN KMSN 111530Z 19012KT 10SM CLR M04/M09 A3022 590 68 -1600 190/12 RMK AO2
14837KMSN MSN20020211093509602/11/02 09:35:31  5-MIN KMSN 111535Z 19012KT 10SM CLR M04/M09 A3022 590 68 -1600 180/12 RMK AO2
14837KMSN MSN20020211094009602/11/02 09:40:31  5-MIN KMSN 111540Z 19013KT 10SM CLR M04/M09 A3021 600 68 -1600 180/13 RMK AO2
14837KMSN MSN20020211094509602/11/02 09:45:31  5-MIN KMSN 111545Z 19012KT 10SM CLR M04/M09 A3021 600 65 -1500 190/12 RMK AO2
14837KMSN MSN20020211095011302/11/02 09:50:31  5-MIN KMSN 111550Z 18014KT 10SM CLR M04/M09 A3021 600 65 -1500 180/14 RMK AO2 SLP242 T10391094
14837KMSN MSN20020211095509602/11/02 09:55:31  5-MIN KMSN 111555Z 18012KT 10SM CLR M04/M09 A3020 600 65 -1500 180/12 RMK AO2
14837KMSN MSN20020211100009602/11/02 10:00:31  5-MIN KMSN 111600Z 19011KT 10SM CLR M03/M09 A3020 610 63 -1400 190/11 RMK AO2
14837KMSN MSN20020211100509602/11/02 10:05:31  5-MIN KMSN 111605Z 18011KT 10SM CLR M03/M09 A3020 610 65 -1400 180/11 RMK AO2
14837KMSN MSN20020211101009602/11/02 10:10:31  5-MIN KMSN 111610Z 18012KT 10SM CLR M03/M09 A3020 600 65 -1400 180/12 RMK AO2
14837KMSN MSN20020211101509602/11/02 10:15:31  5-MIN KMSN 111615Z 18014KT 10SM CLR M03/M09 A3020 600 65 -1400 180/14 RMK AO2
14837KMSN MSN20020211102009602/11/02 10:20:31  5-MIN KMSN 111620Z 18010KT 10SM CLR M03/M09 A3020 610 63 -1300 180/10 RMK AO2
14837KMSN MSN20020211102509602/11/02 10:25:31  5-MIN KMSN 111625Z 18013KT 10SM CLR M03/M09 A3019 620 63 -1300 180/13 RMK AO2
14837KMSN MSN20020211103009602/11/02 10:30:31  5-MIN KMSN 111630Z 19015KT 10SM CLR M03/M09 A3019 620 63 -1300 190/15 RMK AO2
14837KMSN MSN20020211103509602/11/02 10:35:31  5-MIN KMSN 111635Z 18013KT 10SM CLR M03/M09 A3018 620 63 -1300 180/13 RMK AO2
14837KMSN MSN20020211104009602/11/02 10:40:31  5-MIN KMSN 111640Z 19014KT 10SM CLR M03/M09 A3018 630 63 -1300 190/14 RMK AO2
14837KMSN MSN20020211104509602/11/02 10:45:31  5-MIN KMSN 111645Z 19012KT 10SM CLR M02/M09 A3018 630 60 -1200 180/12 RMK AO2
14837KMSN MSN20020211105011302/11/02 10:50:31  5-MIN KMSN 111650Z 19013KT 10SM CLR M02/M08 A3018 620 63 -1200 190/13 RMK AO2 SLP233 T10221083
14837KMSN MSN20020211105509602/11/02 10:55:31  5-MIN KMSN 111655Z 18015KT 10SM CLR M02/M09 A3017 630 60 -1200 180/15 RMK AO2
14837KMSN MSN20020211110009602/11/02 11:00:31  5-MIN KMSN 111700Z 19016KT 10SM CLR M02/M09 A3017 640 60 -1200 190/16 RMK AO2
14837KMSN MSN20020211110509602/11/02 11:05:31  5-MIN KMSN 111705Z 19013KT 10SM CLR M02/M09 A3016 640 58 -1200 190/13 RMK AO2
14837KMSN MSN20020211111010202/11/02 11:10:31  5-MIN KMSN 111710Z 20014G19KT 10SM CLR M02/M09 A3016 640 58 -1200 200/14G19 RMK AO2
14837KMSN MSN20020211111510202/11/02 11:15:31  5-MIN KMSN 111715Z 19015G19KT 10SM CLR M02/M09 A3016 650 58 -1100 180/15G19 RMK AO2
14837KMSN MSN20020211112009602/11/02 11:20:31  5-MIN KMSN 111720Z 20011KT 10SM CLR M02/M09 A3015 650 58 -1100 200/11 RMK AO2
14837KMSN MSN20020211112510202/11/02 11:25:31  5-MIN KMSN 111725Z 19015G20KT 10SM CLR M02/M09 A3015 660 58 -1100 190/15G20 RMK AO2
14837KMSN MSN20020211113010202/11/02 11:30:31  5-MIN KMSN 111730Z 19015G20KT 10SM CLR M02/M09 A3015 660 58 -1100 180/15G20 RMK AO2
14837KMSN MSN20020211113510202/11/02 11:35:31  5-MIN KMSN 111735Z 19015G22KT 10SM CLR M01/M08 A3014 660 58 -1100 190/15G22 RMK AO2
14837KMSN MSN20020211114010202/11/02 11:40:31  5-MIN KMSN 111740Z 19013G22KT 10SM CLR M01/M09 A3013 670 55 -1100 190/13G22 RMK AO2
14837KMSN MSN20020211114510902/11/02 11:45:31  5-MIN KMSN 111745Z 18013G18KT 10SM CLR M01/M08 A3012 680 58 -1000 180/13G18 RMK AO2 PRESFR
14837KMSN MSN20020211115013702/11/02 11:50:31  5-MIN KMSN 111750Z 19015G19KT 10SM CLR M01/M08 A3012 680 58 -1000 190/15G19 RMK AO2 SLP211 T10111083 11011 21100 58025
14837KMSN MSN20020211115510202/11/02 11:55:31  5-MIN KMSN 111755Z 19012G19KT 10SM CLR M01/M08 A3011 690 58 -1000 190/12G19 RMK AO2
14837KMSN MSN20020211120010202/11/02 12:00:31  5-MIN KMSN 111800Z 19017G22KT 10SM CLR M01/M08 A3011 690 58 -1000 190/17G22 RMK AO2
14837KMSN MSN20020211120510902/11/02 12:05:31  5-MIN KMSN 111805Z 20017G22KT 10SM CLR M01/M08 A3010 700 58 -1000 190/17G22 RMK AO2 PRESFR
14837KMSN MSN20020211121010902/11/02 12:10:31  5-MIN KMSN 111810Z 18014G22KT 10SM CLR M01/M08 A3009 700 58 -1000 180/14G22 RMK AO2 PRESFR
14837KMSN MSN20020211121510302/11/02 12:15:31  5-MIN KMSN 111815Z 18015KT 10SM CLR M01/M08 A3009 710 60 -1000 180/15 RMK AO2 PRESFR
14837KMSN MSN20020211122010202/11/02 12:20:31  5-MIN KMSN 111820Z 19018G22KT 10SM CLR M01/M08 A3009 710 60 -1000 180/18G22 RMK AO2
14837KMSN MSN20020211122510202/11/02 12:25:31  5-MIN KMSN 111825Z 19014G22KT 10SM CLR M01/M08 A3008 710 60 -1000 190/14G22 RMK AO2
14837KMSN MSN20020211123010202/11/02 12:30:31  5-MIN KMSN 111830Z 19017G22KT 10SM CLR M01/M08 A3007 720 58 -1000 190/17G22 RMK AO2
14837KMSN MSN20020211123510102/11/02 12:35:31  5-MIN KMSN 111835Z 18014G21KT 10SM CLR M01/M08 A3007 730 58 -900 180/14G21 RMK AO2
14837KMSN MSN20020211124009502/11/02 12:40:31  5-MIN KMSN 111840Z 19015KT 10SM CLR M01/M08 A3006 730 58 -900 190/15 RMK AO2
14837KMSN MSN20020211124509502/11/02 12:45:31  5-MIN KMSN 111845Z 19011KT 10SM CLR M01/M08 A3006 740 58 -900 190/11 RMK AO2
14837KMSN MSN20020211125011802/11/02 12:50:31  5-MIN KMSN 111850Z 19015G20KT 10SM CLR M01/M08 A3005 740 58 -900 190/15G20 RMK AO2 SLP190 T10061078
14837KMSN MSN20020211125510102/11/02 12:55:31  5-MIN KMSN 111855Z 19013G20KT 10SM CLR M01/M08 A3005 740 58 -900 190/13G20 RMK AO2
14837KMSN MSN20020211130009502/11/02 13:00:31  5-MIN KMSN 111900Z 20013KT 10SM CLR M01/M07 A3005 750 61 -900 200/13 RMK AO2
14837KMSN MSN20020211130509502/11/02 13:05:31  5-MIN KMSN 111905Z 18016KT 10SM CLR M01/M07 A3005 750 61 -900 180/16 RMK AO2
14837KMSN MSN20020211131009502/11/02 13:10:31  5-MIN KMSN 111910Z 19015KT 10SM CLR M01/M07 A3004 750 61 -900 190/15 RMK AO2
14837KMSN MSN20020211131510702/11/02 13:15:31  5-MIN KMSN 111915Z 18012G19KT 10SM CLR 00/M07 A3003 760 58 -800 180/12G19 RMK AO2 PRESFR
14837KMSN MSN20020211132010002/11/02 13:20:31  5-MIN KMSN 111920Z 19015G20KT 10SM CLR 00/M07 A3003 770 58 -800 180/15G20 RMK AO2
14837KMSN MSN20020211132510002/11/02 13:25:31  5-MIN KMSN 111925Z 19015G20KT 10SM CLR 00/M07 A3002 770 58 -800 190/15G20 RMK AO2
14837KMSN MSN20020211133010102/11/02 13:30:31  5-MIN KMSN 111930Z 18013KT 10SM CLR 00/M07 A3001 780 58 -800 180/13 RMK AO2 PRESFR
14837KMSN MSN20020211133509402/11/02 13:35:31  5-MIN KMSN 111935Z 18016KT 10SM CLR 00/M07 A3001 780 61 -800 180/16 RMK AO2
14837KMSN MSN20020211134010702/11/02 13:40:31  5-MIN KMSN 111940Z 19017G23KT 10SM CLR 00/M07 A3000 790 61 -800 190/17G23 RMK AO2 PRESFR
14837KMSN MSN20020211134510702/11/02 13:45:31  5-MIN KMSN 111945Z 19016G23KT 10SM CLR 00/M07 A3000 790 58 -800 190/16G23 RMK AO2 PRESFR
14837KMSN MSN20020211135011802/11/02 13:50:31  5-MIN KMSN 111950Z 19018KT 10SM CLR 00/M07 A2999 800 58 -700 190/18 RMK AO2 PRESFR SLP168 T00001072
14837KMSN MSN20020211135510002/11/02 13:55:31  5-MIN KMSN 111955Z 19016G24KT 10SM CLR 00/M07 A2998 810 61 -700 190/16G24 RMK AO2
14837KMSN MSN20020211140010002/11/02 14:00:31  5-MIN KMSN 112000Z 19015G24KT 10SM CLR 00/M07 A2998 810 61 -700 190/15G24 RMK AO2
14837KMSN MSN20020211140510002/11/02 14:05:31  5-MIN KMSN 112005Z 19016G22KT 10SM CLR 00/M07 A2998 810 61 -700 190/16G22 RMK AO2
14837KMSN MSN20020211141010002/11/02 14:10:31  5-MIN KMSN 112010Z 19017G22KT 10SM CLR 00/M07 A2997 820 61 -700 190/17G22 RMK AO2
14837KMSN MSN20020211141510702/11/02 14:15:31  5-MIN KMSN 112015Z 18015G22KT 10SM CLR 00/M07 A2996 830 61 -700 180/15G22 RMK AO2 PRESFR
14837KMSN MSN20020211142010702/11/02 14:20:31  5-MIN KMSN 112020Z 19015G24KT 10SM CLR 00/M06 A2996 830 63 -700 190/15G24 RMK AO2 PRESFR
14837KMSN MSN20020211142510002/11/02 14:25:31  5-MIN KMSN 112025Z 19014G24KT 10SM CLR 00/M06 A2995 830 63 -700 180/14G24 RMK AO2
14837KMSN MSN20020211143010002/11/02 14:30:31  5-MIN KMSN 112030Z 19017G20KT 10SM CLR 00/M06 A2995 840 63 -700 180/17G20 RMK AO2
14837KMSN MSN20020211143510002/11/02 14:35:31  5-MIN KMSN 112035Z 18017G21KT 10SM CLR 00/M06 A2994 840 63 -700 180/17G21 RMK AO2
14837KMSN MSN20020211144010002/11/02 14:40:31  5-MIN KMSN 112040Z 18017G21KT 10SM CLR 00/M06 A2993 850 63 -700 180/17G21 RMK AO2
14837KMSN MSN20020211144511802/11/02 14:45:31  5-MIN KMSN 112045Z 19020G26KT 10SM CLR 00/M06 A2993 850 63 -700 180/20G26 RMK AO2 PK WND 19026/2045
14837KMSN MSN20020211145014802/11/02 14:50:31  5-MIN KMSN 112050Z 18021G26KT 10SM CLR 00/M06 A2992 860 63 -700 180/21G26 RMK AO2 PK WND 19026/2045 PRESFR SLP146 T00001061 58041
14837KMSN MSN20020211145510702/11/02 14:55:31  5-MIN KMSN 112055Z 18016G24KT 10SM CLR 00/M06 A2991 870 63 -700 180/16G24 RMK AO2 PRESFR
14837KMSN MSN20020211150010002/11/02 15:00:31  5-MIN KMSN 112100Z 18018G24KT 10SM CLR 00/M06 A2991 870 63 -700 180/18G24 RMK AO2
14837KMSN MSN20020211150510002/11/02 15:05:31  5-MIN KMSN 112105Z 19018G24KT 10SM CLR 00/M06 A2990 880 63 -600 190/18G24 RMK AO2
14837KMSN MSN20020211151010002/11/02 15:10:31  5-MIN KMSN 112110Z 18015G24KT 10SM CLR 00/M06 A2990 880 63 -600 180/15G24 RMK AO2
14837KMSN MSN20020211151510002/11/02 15:15:31  5-MIN KMSN 112115Z 18015G24KT 10SM CLR 00/M06 A2990 890 63 -600 180/15G24 RMK AO2
14837KMSN MSN20020211152010002/11/02 15:20:31  5-MIN KMSN 112120Z 18015G23KT 10SM CLR 00/M06 A2989 890 63 -600 180/15G23 RMK AO2
14837KMSN MSN20020211152510702/11/02 15:25:31  5-MIN KMSN 112125Z 19018G23KT 10SM CLR 00/M06 A2988 900 63 -600 180/18G23 RMK AO2 PRESFR
14837KMSN MSN20020211153010702/11/02 15:30:31  5-MIN KMSN 112130Z 18017G23KT 10SM CLR 00/M06 A2987 910 63 -600 180/17G23 RMK AO2 PRESFR
14837KMSN MSN20020211153510702/11/02 15:35:31  5-MIN KMSN 112135Z 19018G23KT 10SM CLR 00/M06 A2986 920 63 -600 180/18G23 RMK AO2 PRESFR
14837KMSN MSN20020211154010002/11/02 15:40:31  5-MIN KMSN 112140Z 19017G23KT 10SM CLR 00/M06 A2986 920 66 -600 190/17G23 RMK AO2
14837KMSN MSN20020211154510002/11/02 15:45:31  5-MIN KMSN 112145Z 19015G24KT 10SM CLR 00/M06 A2985 930 63 -600 190/15G24 RMK AO2
14837KMSN MSN20020211155012402/11/02 15:50:31  5-MIN KMSN 112150Z 18019G24KT 10SM CLR 00/M06 A2984 940 66 -600 180/19G24 RMK AO2 PRESFR SLP119 T00001056
14837KMSN MSN20020211155510002/11/02 15:55:31  5-MIN KMSN 112155Z 18018G25KT 10SM CLR 00/M06 A2984 940 63 -600 180/18G25 RMK AO2
14837KMSN MSN20020211160010002/11/02 16:00:31  5-MIN KMSN 112200Z 19014G25KT 10SM CLR 00/M06 A2984 940 66 -600 190/14G25 RMK AO2
14837KMSN MSN20020211160512502/11/02 16:05:31  5-MIN KMSN 112205Z 19020G26KT 10SM CLR 00/M06 A2983 950 66 -600 190/20G26 RMK AO2 PK WND 19026/2203 PRESFR
14837KMSN MSN20020211161011802/11/02 16:10:31  5-MIN KMSN 112210Z 18020G27KT 10SM CLR 00/M06 A2982 960 66 -600 180/20G27 RMK AO2 PK WND 19027/2210
14837KMSN MSN20020211161511802/11/02 16:15:31  5-MIN KMSN 112215Z 19018G27KT 10SM CLR 00/M06 A2982 960 66 -600 190/18G27 RMK AO2 PK WND 19027/2210
14837KMSN MSN20020211162011802/11/02 16:20:31  5-MIN KMSN 112220Z 18017G26KT 10SM CLR 00/M06 A2981 960 66 -500 180/17G26 RMK AO2 PK WND 19027/2210
14837KMSN MSN20020211162512502/11/02 16:25:31  5-MIN KMSN 112225Z 18019G24KT 10SM CLR 00/M06 A2980 980 66 -500 180/19G24 RMK AO2 PK WND 19027/2210 PRESFR
14837KMSN MSN20020211163011802/11/02 16:30:31  5-MIN KMSN 112230Z 18020G26KT 10SM CLR 00/M06 A2980 980 66 -500 180/20G26 RMK AO2 PK WND 19027/2210
14837KMSN MSN20020211163511802/11/02 16:35:31  5-MIN KMSN 112235Z 18019G26KT 10SM CLR 00/M06 A2979 980 66 -500 180/19G26 RMK AO2 PK WND 19027/2210
14837KMSN MSN20020211164012502/11/02 16:40:31  5-MIN KMSN 112240Z 18019G26KT 10SM CLR 00/M05 A2978 990 69 -500 180/19G26 RMK AO2 PK WND 19027/2210 PRESFR
14837KMSN MSN20020211164512602/11/02 16:45:31  5-MIN KMSN 112245Z 19021G28KT 10SM CLR 00/M05 A2977 1000 69 -500 190/21G28 RMK AO2 PK WND 18028/2241 PRESFR
14837KMSN MSN20020211165013602/11/02 16:50:31  5-MIN KMSN 112250Z 19021G28KT 10SM CLR 00/M05 A2978 1000 69 -500 190/21G28 RMK AO2 PK WND 18028/2241 SLP096 T00001050
14837KMSN MSN20020211165511902/11/02 16:55:31  5-MIN KMSN 112255Z 19020G26KT 10SM CLR 00/M05 A2978 1000 69 -500 190/20G26 RMK AO2 PK WND 19026/2254
14837KMSN MSN20020211170011902/11/02 17:00:31  5-MIN KMSN 112300Z 19021G26KT 10SM CLR 00/M05 A2978 1000 69 -500 190/21G26 RMK AO2 PK WND 19026/2254
14837KMSN MSN20020211170511802/11/02 17:05:31  5-MIN KMSN 112305Z 19015G25KT 10SM CLR 00/M05 A2978 990 69 -500 190/15G25 RMK AO2 PK WND 19026/2254
14837KMSN MSN20020211171012502/11/02 17:10:31  5-MIN KMSN 112310Z 20013G23KT 10SM CLR 00/M05 A2980 980 69 -500 200/13G23 RMK AO2 PK WND 19026/2254 PRESRR
14837KMSN MSN20020211171511802/11/02 17:15:31  5-MIN KMSN 112315Z 19014G20KT 10SM CLR 00/M05 A2980 980 69 -500 190/14G20 RMK AO2 PK WND 19026/2254
14837KMSN MSN20020211172011802/11/02 17:20:31  5-MIN KMSN 112320Z 19023G28KT 10SM CLR 00/M06 A2979 980 66 -500 190/23G28 RMK AO2 PK WND 19028/2319
14837KMSN MSN20020211172511802/11/02 17:25:31  5-MIN KMSN 112325Z 20017G28KT 10SM CLR 00/M05 A2980 980 69 -500 200/17G28 RMK AO2 PK WND 19028/2319
14837KMSN MSN20020211173011802/11/02 17:30:31  5-MIN KMSN 112330Z 20016G23KT 10SM CLR 00/M05 A2980 970 69 -500 200/16G23 RMK AO2 PK WND 19028/2319
14837KMSN MSN20020211173511802/11/02 17:35:31  5-MIN KMSN 112335Z 20014G22KT 10SM CLR 00/M04 A2981 970 72 -500 200/14G22 RMK AO2 PK WND 19028/2319
14837KMSN MSN20020211174011802/11/02 17:40:31  5-MIN KMSN 112340Z 20014G22KT 10SM CLR 00/M05 A2980 970 69 -500 200/14G22 RMK AO2 PK WND 19028/2319
14837KMSN MSN20020211174511802/11/02 17:45:31  5-MIN KMSN 112345Z 20015G23KT 10SM CLR 00/M05 A2980 980 69 -500 200/15G23 RMK AO2 PK WND 19028/2319
14837KMSN MSN20020211175015302/11/02 17:50:31  5-MIN KMSN 112350Z 20016G23KT 10SM CLR 00/M05 A2980 980 69 -500 200/16G23 RMK AO2 PK WND 19028/2319 SLP102 T00001050 10000 21011 57067
14837KMSN MSN20020211175510002/11/02 17:55:31  5-MIN KMSN 112355Z 20017G23KT 10SM CLR 00/M05 A2980 980 69 -500 200/17G23 RMK AO2
14837KMSN MSN20020211180010002/11/02 18:00:31  5-MIN KMSN 120000Z 20015G22KT 10SM CLR 00/M04 A2980 980 72 -500 200/15G22 RMK AO2
14837KMSN MSN20020211180510002/11/02 18:05:31  5-MIN KMSN 120005Z 20013G21KT 10SM CLR 00/M04 A2980 980 72 -500 200/13G21 RMK AO2
14837KMSN MSN20020211181010002/11/02 18:10:31  5-MIN KMSN 120010Z 20017G21KT 10SM CLR 00/M04 A2980 980 72 -500 200/17G21 RMK AO2
14837KMSN MSN20020211181510002/11/02 18:15:31  5-MIN KMSN 120015Z 20014G22KT 10SM CLR 01/M04 A2979 980 69 -400 200/14G22 RMK AO2
14837KMSN MSN20020211182010002/11/02 18:20:31  5-MIN KMSN 120020Z 20014G22KT 10SM CLR 01/M04 A2979 990 69 -400 200/14G22 RMK AO2
14837KMSN MSN20020211182510002/11/02 18:25:31  5-MIN KMSN 120025Z 21013G22KT 10SM CLR 01/M04 A2978 990 69 -400 200/13G22 RMK AO2
14837KMSN MSN20020211183010002/11/02 18:30:31  5-MIN KMSN 120030Z 20016G23KT 10SM CLR 01/M04 A2979 990 69 -400 200/16G23 RMK AO2
14837KMSN MSN20020211183510002/11/02 18:35:31  5-MIN KMSN 120035Z 20014G23KT 10SM CLR 01/M04 A2978 990 69 -400 200/14G23 RMK AO2
14837KMSN MSN20020211184010102/11/02 18:40:31  5-MIN KMSN 120040Z 20013G22KT 10SM CLR 01/M04 A2978 1000 69 -400 200/13G22 RMK AO2
14837KMSN MSN20020211184510102/11/02 18:45:31  5-MIN KMSN 120045Z 20015G22KT 10SM CLR 01/M04 A2977 1000 69 -400 200/15G22 RMK AO2
14837KMSN MSN20020211185011802/11/02 18:50:31  5-MIN KMSN 120050Z 20014G21KT 10SM CLR 01/M04 A2977 1010 69 -400 190/14G21 RMK AO2 SLP092 T00061044
14837KMSN MSN20020211185510802/11/02 18:55:31  5-MIN KMSN 120055Z 20013G21KT 10SM CLR 01/M04 A2976 1020 69 -400 200/13G21 RMK AO2 PRESFR
14837KMSN MSN20020211190010102/11/02 19:00:31  5-MIN KMSN 120100Z 22012G21KT 10SM CLR 01/M04 A2976 1010 69 -400 220/12G21 RMK AO2
14837KMSN MSN20020211190510102/11/02 19:05:31  5-MIN KMSN 120105Z 21011G19KT 10SM CLR 01/M05 A2977 1010 66 -400 200/11G19 RMK AO2
14837KMSN MSN20020211191011702/11/02 19:10:31  5-MIN KMSN 120110Z 22008G18KT 180V250 10SM CLR 01/M05 A2977 1000 66 -400 220/08G18 180V250 RMK AO2
14837KMSN MSN20020211191510102/11/02 19:15:31  5-MIN KMSN 120115Z 20013G17KT 10SM CLR 01/M05 A2976 1020 66 -400 200/13G17 RMK AO2
14837KMSN MSN20020211192010102/11/02 19:20:31  5-MIN KMSN 120120Z 22013G21KT 10SM CLR 01/M05 A2976 1010 66 -400 220/13G21 RMK AO2
14837KMSN MSN20020211192510102/11/02 19:25:31  5-MIN KMSN 120125Z 20011G21KT 10SM CLR 01/M05 A2976 1020 64 -300 200/11G21 RMK AO2
14837KMSN MSN20020211193010102/11/02 19:30:31  5-MIN KMSN 120130Z 21013G21KT 10SM CLR 01/M05 A2976 1010 64 -300 210/13G21 RMK AO2
14837KMSN MSN20020211193510102/11/02 19:35:31  5-MIN KMSN 120135Z 21010G21KT 10SM CLR 01/M05 A2975 1020 64 -300 210/10G21 RMK AO2
14837KMSN MSN20020211194010102/11/02 19:40:31  5-MIN KMSN 120140Z 21013G18KT 10SM CLR 01/M05 A2975 1020 64 -300 210/13G18 RMK AO2
14837KMSN MSN20020211194510102/11/02 19:45:31  5-MIN KMSN 120145Z 20014G24KT 10SM CLR 01/M05 A2974 1030 64 -300 200/14G24 RMK AO2
14837KMSN MSN20020211195011802/11/02 19:50:31  5-MIN KMSN 120150Z 21014G24KT 10SM CLR 01/M05 A2974 1030 64 -300 210/14G24 RMK AO2 SLP083 T00111050
14837KMSN MSN20020211195510102/11/02 19:55:31  5-MIN KMSN 120155Z 22009G20KT 10SM CLR 01/M05 A2975 1030 64 -300 220/09G20 RMK AO2
14837KMSN MSN20020211200010102/11/02 20:00:31  5-MIN KMSN 120200Z 21011G20KT 10SM CLR 01/M05 A2974 1030 64 -300 210/11G20 RMK AO2
14837KMSN MSN20020211200510102/11/02 20:05:31  5-MIN KMSN 120205Z 21012G21KT 10SM CLR 01/M05 A2974 1030 64 -300 210/12G21 RMK AO2
14837KMSN MSN20020211201010102/11/02 20:10:31  5-MIN KMSN 120210Z 21015G21KT 10SM CLR 01/M05 A2974 1030 64 -300 210/15G21 RMK AO2
14837KMSN MSN20020211201510102/11/02 20:15:31  5-MIN KMSN 120215Z 21012G19KT 10SM CLR 01/M05 A2974 1030 64 -300 210/12G19 RMK AO2
14837KMSN MSN20020211202010102/11/02 20:20:31  5-MIN KMSN 120220Z 21011G19KT 10SM CLR 01/M05 A2974 1030 64 -300 210/11G19 RMK AO2
14837KMSN MSN20020211202510102/11/02 20:25:31  5-MIN KMSN 120225Z 20015G21KT 10SM CLR 02/M05 A2973 1040 61 -200 200/15G21 RMK AO2
14837KMSN MSN20020211203010102/11/02 20:30:31  5-MIN KMSN 120230Z 21014G21KT 10SM CLR 02/M05 A2973 1040 61 -200 210/14G21 RMK AO2
14837KMSN MSN20020211203510102/11/02 20:35:31  5-MIN KMSN 120235Z 21013G21KT 10SM CLR 02/M05 A2973 1040 61 -200 200/13G21 RMK AO2
14837KMSN MSN20020211204010102/11/02 20:40:31  5-MIN KMSN 120240Z 20011G19KT 10SM CLR 02/M05 A2972 1050 61 -200 200/11G19 RMK AO2
14837KMSN MSN20020211204510102/11/02 20:45:31  5-MIN KMSN 120245Z 20012G19KT 10SM CLR 01/M05 A2972 1050 64 -300 200/12G19 RMK AO2
14837KMSN MSN20020211205012402/11/02 20:50:31  5-MIN KMSN 120250Z 21010G19KT 10SM CLR 01/M05 A2972 1050 64 -300 210/10G19 RMK AO2 SLP077 T00111050 55040
14837KMSN MSN20020211205510102/11/02 20:55:31  5-MIN KMSN 120255Z 21011G18KT 10SM CLR 02/M05 A2972 1050 61 -200 200/11G18 RMK AO2
14837KMSN MSN20020211210010102/11/02 21:00:31  5-MIN KMSN 120300Z 22013G18KT 10SM CLR 02/M05 A2972 1050 61 -200 220/13G18 RMK AO2
14837KMSN MSN20020211210510102/11/02 21:05:31  5-MIN KMSN 120305Z 21011G18KT 10SM CLR 02/M05 A2971 1060 61 -200 200/11G18 RMK AO2
14837KMSN MSN20020211211010102/11/02 21:10:31  5-MIN KMSN 120310Z 20009G17KT 10SM CLR 02/M05 A2971 1060 61 -200 200/09G17 RMK AO2
14837KMSN MSN20020211211510102/11/02 21:15:31  5-MIN KMSN 120315Z 20010G17KT 10SM CLR 02/M04 A2971 1060 64 -200 200/10G17 RMK AO2
14837KMSN MSN20020211212010102/11/02 21:20:31  5-MIN KMSN 120320Z 21012G18KT 10SM CLR 02/M05 A2970 1060 61 -200 210/12G18 RMK AO2
14837KMSN MSN20020211212511702/11/02 21:25:31  5-MIN KMSN 120325Z 21009G18KT 180V250 10SM CLR 02/M05 A2971 1060 61 -200 210/09G18 180V250 RMK AO2
14837KMSN MSN20020211213010102/11/02 21:30:31  5-MIN KMSN 120330Z 22013G20KT 10SM CLR 02/M05 A2970 1070 59 -100 210/13G20 RMK AO2
14837KMSN MSN20020211213510102/11/02 21:35:31  5-MIN KMSN 120335Z 22013G20KT 10SM CLR 02/M05 A2970 1070 59 -100 220/13G20 RMK AO2
14837KMSN MSN20020211214010102/11/02 21:40:31  5-MIN KMSN 120340Z 22013G20KT 10SM CLR 02/M04 A2970 1070 61 -100 220/13G20 RMK AO2
14837KMSN MSN20020211214510102/11/02 21:45:31  5-MIN KMSN 120345Z 22012G21KT 10SM CLR 02/M04 A2970 1070 61 -100 220/12G21 RMK AO2
14837KMSN MSN20020211215011802/11/02 21:50:31  5-MIN KMSN 120350Z 22012G22KT 10SM CLR 02/M04 A2970 1070 61 -100 220/12G22 RMK AO2 SLP066 T00221044
14837KMSN MSN20020211215510102/11/02 21:55:31  5-MIN KMSN 120355Z 23011G22KT 10SM CLR 02/M04 A2970 1070 61 -100 220/11G22 RMK AO2
14837KMSN MSN20020211220010102/11/02 22:00:31  5-MIN KMSN 120400Z 22011G21KT 10SM CLR 02/M04 A2969 1080 61 -100 220/11G21 RMK AO2
14837KMSN MSN20020211220510102/11/02 22:05:31  5-MIN KMSN 120405Z 23012G22KT 10SM CLR 02/M04 A2969 1080 61 -100 230/12G22 RMK AO2
14837KMSN MSN20020211221010102/11/02 22:10:31  5-MIN KMSN 120410Z 22011G22KT 10SM CLR 02/M04 A2968 1080 61 -100 220/11G22 RMK AO2
14837KMSN MSN20020211221509502/11/02 22:15:31  5-MIN KMSN 120415Z 22012KT 10SM CLR 02/M04 A2968 1090 61 -100 220/12 RMK AO2
14837KMSN MSN20020211222010102/11/02 22:20:31  5-MIN KMSN 120420Z 22013G19KT 10SM CLR 02/M04 A2968 1090 61 -100 220/13G19 RMK AO2
14837KMSN MSN20020211222510102/11/02 22:25:31  5-MIN KMSN 120425Z 23011G19KT 10SM CLR 02/M04 A2967 1090 61 -100 230/11G19 RMK AO2
14837KMSN MSN20020211223009502/11/02 22:30:31  5-MIN KMSN 120430Z 22010KT 10SM CLR 02/M04 A2967 1100 61 -100 220/10 RMK AO2
14837KMSN MSN20020211223511702/11/02 22:35:31  5-MIN KMSN 120435Z 23008G15KT 190V260 10SM CLR 02/M04 A2967 1100 64 -100 230/08G15 190V260 RMK AO2
14837KMSN MSN20020211224009502/11/02 22:40:31  5-MIN KMSN 120440Z 23009KT 10SM CLR 02/M04 A2967 1100 64 -100 230/09 RMK AO2
14837KMSN MSN20020211224510102/11/02 22:45:31  5-MIN KMSN 120445Z 23011G15KT 10SM CLR 02/M04 A2967 1100 64 -100 230/11G15 RMK AO2
14837KMSN MSN20020211225011802/11/02 22:50:31  5-MIN KMSN 120450Z 23013G20KT 10SM CLR 02/M04 A2967 1100 64 -100 230/13G20 RMK AO2 SLP054 T00221039
14837KMSN MSN20020211225510102/11/02 22:55:31  5-MIN KMSN 120455Z 22010G20KT 10SM CLR 02/M04 A2967 1100 64 -100 220/10G20 RMK AO2
14837KMSN MSN20020211230010102/11/02 23:00:31  5-MIN KMSN 120500Z 23010G17KT 10SM CLR 02/M04 A2967 1100 64 -100 230/10G17 RMK AO2
14837KMSN MSN20020211230510102/11/02 23:05:31  5-MIN KMSN 120505Z 23010G17KT 10SM CLR 02/M04 A2967 1100 64 -100 230/10G17 RMK AO2
14837KMSN MSN20020211231010102/11/02 23:10:31  5-MIN KMSN 120510Z 24011G16KT 10SM CLR 02/M03 A2967 1100 67 -100 240/11G16 RMK AO2
14837KMSN MSN20020211231510102/11/02 23:15:31  5-MIN KMSN 120515Z 23011G18KT 10SM CLR 02/M03 A2967 1100 67 -100 230/11G18 RMK AO2
14837KMSN MSN20020211232010102/11/02 23:20:31  5-MIN KMSN 120520Z 23009G18KT 10SM CLR 02/M03 A2967 1100 67 -100 230/09G18 RMK AO2
14837KMSN MSN20020211232510102/11/02 23:25:31  5-MIN KMSN 120525Z 23012G17KT 10SM CLR 02/M03 A2967 1100 67 -100 230/12G17 RMK AO2
14837KMSN MSN20020211233011702/11/02 23:30:31  5-MIN KMSN 120530Z 24009G17KT 210V270 10SM CLR 02/M03 A2967 1100 67 -100 230/09G17 210V270 RMK AO2
14837KMSN MSN20020211233509802/11/02 23:35:31  5-MIN KMSN 120535Z 24007KT 10SM FEW040 02/M03 A2967 1090 67 -100 240/07 RMK AO2
14837KMSN MSN20020211234010402/11/02 23:40:31  5-MIN KMSN 120540Z 24009G14KT 10SM SCT040 02/M03 A2967 1100 67 -100 240/09G14 RMK AO2
14837KMSN MSN20020211234510402/11/02 23:45:31  5-MIN KMSN 120545Z 24010G16KT 10SM BKN040 02/M03 A2967 1100 67 -100 240/10G16 RMK AO2
14837KMSN MSN20020211235014902/11/02 23:50:31  5-MIN KMSN 120550Z 23008G16KT 10SM BKN040 02/M03 A2967 1100 67 -100 230/08G16 RMK AO2 SLP056 T00221033 10022 20000 400221106 56024
14837KMSN MSN20020211235510402/11/02 23:55:31  5-MIN KMSN 120555Z 24009G15KT 10SM BKN040 02/M03 A2967 1100 69 -100 240/09G15 RMK AO2
14837KMSN MSN20020212000010402/12/02 00:00:31  5-MIN KMSN 120600Z 24009G15KT 10SM BKN040 02/M03 A2967 1100 69 -100 240/09G15 RMK AO2
14837KMSN MSN20020212000509802/12/02 00:05:31  5-MIN KMSN 120605Z 24008KT 10SM BKN040 02/M03 A2967 1100 69 -100 240/08 RMK AO2
14837KMSN MSN20020212001010102/12/02 00:10:31  5-MIN KMSN 120610Z 24011G16KT 10SM BKN040 03/M03 A2967 1100 67 0 240/11G16 RMK AO2
14837KMSN MSN20020212001510102/12/02 00:15:31  5-MIN KMSN 120615Z 26010G16KT 10SM BKN038 03/M03 A2966 1100 67 0 260/10G16 RMK AO2
14837KMSN MSN20020212002011702/12/02 00:20:31  5-MIN KMSN 120620Z 25010G17KT 210V290 10SM SCT038 03/M03 A2967 1100 67 0 250/10G17 210V290 RMK AO2
14837KMSN MSN20020212002510102/12/02 00:25:31  5-MIN KMSN 120625Z 26010G17KT 10SM SCT038 03/M03 A2966 1100 67 0 260/10G17 RMK AO2
14837KMSN MSN20020212003010102/12/02 00:30:31  5-MIN KMSN 120630Z 26011G17KT 10SM SCT038 03/M03 A2966 1100 67 0 260/11G17 RMK AO2
14837KMSN MSN20020212003510102/12/02 00:35:31  5-MIN KMSN 120635Z 26013G19KT 10SM FEW038 03/M03 A2966 1100 64 0 260/13G19 RMK AO2
14837KMSN MSN20020212004010302/12/02 00:40:31  5-MIN KMSN 120640Z 27011G19KT 10SM FEW038 04/M03 A2966 1100 62 100 260/11G19 RMK AO2
14837KMSN MSN20020212004510102/12/02 00:45:31  5-MIN KMSN 120645Z 27010G19KT 10SM FEW038 03/M03 A2966 1100 64 0 270/10G19 RMK AO2
14837KMSN MSN20020212005011502/12/02 00:50:31  5-MIN KMSN 120650Z 26012G16KT 10SM CLR 03/M03 A2966 1100 64 0 260/12G16 RMK AO2 SLP052 T00331028
14837KMSN MSN20020212005510102/12/02 00:55:31  5-MIN KMSN 120655Z 27010G16KT 10SM FEW037 03/M03 A2966 1100 64 0 270/10G16 RMK AO2
14837KMSN MSN20020212010010102/12/02 01:00:31  5-MIN KMSN 120700Z 26010G17KT 10SM FEW037 03/M02 A2966 1100 67 0 260/10G17 RMK AO2
14837KMSN MSN20020212010509802/12/02 01:05:31  5-MIN KMSN 120705Z 26009G17KT 10SM CLR 03/M02 A2966 1100 67 0 260/09G17 RMK AO2
14837KMSN MSN20020212011009502/12/02 01:10:31  5-MIN KMSN 120710Z 25009KT 10SM FEW037 03/M02 A2967 1100 67 0 250/09 RMK AO2
14837KMSN MSN20020212011510102/12/02 01:15:31  5-MIN KMSN 120715Z 27010G15KT 10SM SCT039 03/M02 A2967 1100 67 0 270/10G15 RMK AO2
14837KMSN MSN20020212012011902/12/02 01:20:31  5-MIN KMSN 120720Z 27010G19KT 240V310 10SM BKN039 04/M02 A2967 1090 64 100 260/10G19 240V310 RMK AO2
14837KMSN MSN20020212012510102/12/02 01:25:31  5-MIN KMSN 120725Z 26010G19KT 10SM BKN039 04/M02 A2968 1090 64 0 260/10G19 RMK AO2
14837KMSN MSN20020212013010102/12/02 01:30:31  5-MIN KMSN 120730Z 26010G17KT 10SM BKN039 04/M02 A2968 1090 64 0 260/10G17 RMK AO2
14837KMSN MSN20020212013510102/12/02 01:35:31  5-MIN KMSN 120735Z 27010G18KT 10SM OVC039 04/M02 A2968 1090 64 0 270/10G18 RMK AO2
14837KMSN MSN20020212014010102/12/02 01:40:31  5-MIN KMSN 120740Z 26013G21KT 10SM OVC039 04/M03 A2968 1090 62 0 260/13G21 RMK AO2
14837KMSN MSN20020212014510102/12/02 01:45:31  5-MIN KMSN 120745Z 26012G21KT 10SM OVC039 04/M03 A2968 1090 62 0 260/12G21 RMK AO2
14837KMSN MSN20020212015011802/12/02 01:50:31  5-MIN KMSN 120750Z 27012G19KT 10SM OVC039 04/M03 A2968 1080 62 0 270/12G19 RMK AO2 SLP059 T00391028
14837KMSN MSN20020212015510102/12/02 01:55:31  5-MIN KMSN 120755Z 28012G20KT 10SM OVC037 04/M03 A2969 1080 62 0 270/12G20 RMK AO2
14837KMSN MSN20020212020010102/12/02 02:00:31  5-MIN KMSN 120800Z 27012G20KT 10SM OVC037 04/M03 A2969 1080 62 0 270/12G20 RMK AO2
14837KMSN MSN20020212020510102/12/02 02:05:31  5-MIN KMSN 120805Z 27011G18KT 10SM OVC037 04/M03 A2969 1080 62 0 270/11G18 RMK AO2
14837KMSN MSN20020212021009502/12/02 02:10:31  5-MIN KMSN 120810Z 27012KT 10SM OVC037 04/M03 A2969 1080 62 0 270/12 RMK AO2
14837KMSN MSN20020212021510102/12/02 02:15:31  5-MIN KMSN 120815Z 27010G20KT 10SM OVC037 03/M03 A2969 1080 64 0 270/10G20 RMK AO2
14837KMSN MSN20020212022011702/12/02 02:20:31  5-MIN KMSN 120820Z 27010G20KT 230V300 10SM OVC037 03/M03 A2969 1080 64 0 270/10G20 230V300 RMK AO2
14837KMSN MSN20020212022510102/12/02 02:25:31  5-MIN KMSN 120825Z 28011G25KT 10SM OVC037 04/M03 A2969 1080 59 0 280/11G25 RMK AO2
14837KMSN MSN20020212023010102/12/02 02:30:31  5-MIN KMSN 120830Z 28018G25KT 10SM OVC037 04/M03 A2969 1070 59 0 280/18G25 RMK AO2
14837KMSN MSN20020212023511902/12/02 02:35:31  5-MIN KMSN 120835Z 28016G27KT 10SM OVC039 04/M03 A2969 1070 59 0 280/16G27 RMK AO2 PK WND 27027/0833
14837KMSN MSN20020212024011902/12/02 02:40:31  5-MIN KMSN 120840Z 29013G27KT 10SM OVC039 04/M04 A2970 1070 57 0 290/13G27 RMK AO2 PK WND 27027/0833
14837KMSN MSN20020212024513502/12/02 02:45:31  5-MIN KMSN 120845Z 28009G17KT 240V300 10SM OVC041 03/M03 A2970 1070 61 0 280/09G17 240V300 RMK AO2 PK WND 27027/0833
14837KMSN MSN20020212025015802/12/02 02:50:31  5-MIN KMSN 120850Z 27009G17KT 250V310 10SM OVC041 03/M03 A2970 1070 61 0 270/09G17 250V310 RMK AO2 PK WND 27027/0833 SLP065 T00331033 56019
14837KMSN MSN20020212025510102/12/02 02:55:31  5-MIN KMSN 120855Z 28009G16KT 10SM OVC041 03/M03 A2970 1070 61 0 280/09G16 RMK AO2
14837KMSN MSN20020212030009502/12/02 03:00:31  5-MIN KMSN 120900Z 27010KT 10SM OVC041 03/M03 A2970 1070 61 0 270/10 RMK AO2
14837KMSN MSN20020212030509502/12/02 03:05:31  5-MIN KMSN 120905Z 28007KT 10SM OVC039 03/M03 A2970 1070 64 0 280/07 RMK AO2
14837KMSN MSN20020212031009502/12/02 03:10:31  5-MIN KMSN 120910Z 26008KT 10SM OVC039 03/M03 A2970 1070 64 0 260/08 RMK AO2
14837KMSN MSN20020212031509502/12/02 03:15:31  5-MIN KMSN 120915Z 27008KT 10SM OVC039 03/M03 A2971 1060 64 0 270/08 RMK AO2
14837KMSN MSN20020212032009502/12/02 03:20:31  5-MIN KMSN 120920Z 26008KT 10SM OVC039 03/M03 A2971 1060 64 0 260/08 RMK AO2
14837KMSN MSN20020212032511102/12/02 03:25:31  5-MIN KMSN 120925Z 27009KT 230V290 10SM OVC039 03/M02 A2971 1060 67 0 270/09 230V290 RMK AO2
14837KMSN MSN20020212033009502/12/02 03:30:31  5-MIN KMSN 120930Z 27009KT 10SM OVC039 03/M03 A2971 1060 64 0 270/09 RMK AO2
14837KMSN MSN20020212033509502/12/02 03:35:31  5-MIN KMSN 120935Z 26008KT 10SM OVC039 03/M02 A2971 1060 67 0 260/08 RMK AO2
14837KMSN MSN20020212034009502/12/02 03:40:31  5-MIN KMSN 120940Z VRB06KT 10SM OVC039 03/M02 A2971 1060 67 0 VRB/06 RMK AO2
14837KMSN MSN20020212034510102/12/02 03:45:31  5-MIN KMSN 120945Z VRB05G14KT 10SM OVC039 03/M02 A2971 1060 67 0 VRB/05G14 RMK AO2
14837KMSN MSN20020212035011802/12/02 03:50:31  5-MIN KMSN 120950Z 28011G14KT 10SM OVC041 03/M02 A2972 1050 67 0 280/11G14 RMK AO2 SLP071 T00331022
14837KMSN MSN20020212035510102/12/02 03:55:31  5-MIN KMSN 120955Z 29012G16KT 10SM OVC041 03/M03 A2972 1050 64 0 280/12G16 RMK AO2
14837KMSN MSN20020212040010102/12/02 04:00:31  5-MIN KMSN 121000Z 29010G16KT 10SM OVC041 03/M03 A2972 1050 64 0 290/10G16 RMK AO2
14837KMSN MSN20020212040510202/12/02 04:05:31  5-MIN KMSN 121005Z 29010KT 10SM BKN037 OVC045 03/M03 A2972 1050 64 0 290/10 RMK AO2
14837KMSN MSN20020212041010102/12/02 04:10:31  5-MIN KMSN 121010Z 28008G15KT 10SM OVC039 03/M03 A2972 1050 64 0 280/08G15 RMK AO2
14837KMSN MSN20020212041510102/12/02 04:15:31  5-MIN KMSN 121015Z 29010G15KT 10SM OVC041 03/M03 A2972 1050 64 0 280/10G15 RMK AO2
14837KMSN MSN20020212042010102/12/02 04:20:31  5-MIN KMSN 121020Z 28011G15KT 10SM OVC041 03/M03 A2973 1040 64 0 280/11G15 RMK AO2
14837KMSN MSN20020212042510102/12/02 04:25:31  5-MIN KMSN 121025Z 28010G16KT 10SM OVC041 03/M03 A2973 1040 61 0 280/10G16 RMK AO2
14837KMSN MSN20020212043010402/12/02 04:30:31  5-MIN KMSN 121030Z 28011G16KT 10SM OVC041 03/M03 A2973 1040 64 -100 280/11G16 RMK AO2
14837KMSN MSN20020212043510402/12/02 04:35:31  5-MIN KMSN 121035Z 28012G17KT 10SM OVC043 03/M03 A2973 1040 64 -100 280/12G17 RMK AO2
14837KMSN MSN20020212044010402/12/02 04:40:31  5-MIN KMSN 121040Z 27008G17KT 10SM OVC043 03/M04 A2973 1040 61 -100 270/08G17 RMK AO2
14837KMSN MSN20020212044509802/12/02 04:45:31  5-MIN KMSN 121045Z 27009KT 10SM OVC043 03/M04 A2973 1040 61 -100 270/09 RMK AO2
14837KMSN MSN20020212045013702/12/02 04:50:31  5-MIN KMSN 121050Z 28010G17KT 260V320 10SM OVC041 03/M04 A2973 1040 61 -100 280/10G17 260V320 RMK AO2 SLP077 T00281039
14837KMSN MSN20020212045510402/12/02 04:55:31  5-MIN KMSN 121055Z 28010G17KT 10SM OVC041 03/M04 A2974 1030 61 -100 280/10G17 RMK AO2
14837KMSN MSN20020212050010402/12/02 05:00:31  5-MIN KMSN 121100Z 28009G16KT 10SM OVC041 03/M04 A2974 1030 61 -100 280/09G16 RMK AO2
14837KMSN MSN20020212050510402/12/02 05:05:31  5-MIN KMSN 121105Z 27010G15KT 10SM OVC043 03/M04 A2974 1030 61 -100 270/10G15 RMK AO2
14837KMSN MSN20020212051010402/12/02 05:10:31  5-MIN KMSN 121110Z 27011G16KT 10SM OVC043 03/M04 A2975 1030 59 -100 270/11G16 RMK AO2
14837KMSN MSN20020212051512002/12/02 05:15:31  5-MIN KMSN 121115Z 28012G16KT 250V320 10SM OVC043 03/M04 A2975 1030 59 -100 280/12G16 250V320 RMK AO2
14837KMSN MSN20020212052010402/12/02 05:20:31  5-MIN KMSN 121120Z 28009G16KT 10SM OVC043 03/M04 A2975 1020 61 -100 280/09G16 RMK AO2
14837KMSN MSN20020212052509802/12/02 05:25:31  5-MIN KMSN 121125Z 28010KT 10SM OVC043 03/M04 A2975 1020 61 -100 280/10 RMK AO2
14837KMSN MSN20020212053010402/12/02 05:30:31  5-MIN KMSN 121130Z 28013G18KT 10SM OVC043 03/M04 A2975 1020 61 -100 280/13G18 RMK AO2
14837KMSN MSN20020212053510402/12/02 05:35:31  5-MIN KMSN 121135Z 28010G18KT 10SM OVC041 03/M04 A2975 1020 61 -100 280/10G18 RMK AO2
14837KMSN MSN20020212054010402/12/02 05:40:31  5-MIN KMSN 121140Z 28013G19KT 10SM OVC041 03/M04 A2975 1020 61 -100 280/13G19 RMK AO2
14837KMSN MSN20020212054510402/12/02 05:45:31  5-MIN KMSN 121145Z 28011G19KT 10SM OVC043 03/M04 A2976 1020 61 -100 280/11G19 RMK AO2
14837KMSN MSN20020212055013902/12/02 05:50:31  5-MIN KMSN 121150Z 29009KT 10SM OVC041 02/M04 A2976 1010 64 -200 280/09 RMK AO2 SLP085 4/001 T00221039 10039 20022 53011
14837KMSN MSN20020212055510502/12/02 05:55:31  5-MIN KMSN 121155Z 28007KT 10SM SCT034 OVC043 02/M04 A2976 1010 64 -200 280/07 RMK AO2
14837KMSN MSN20020212060010502/12/02 06:00:31  5-MIN KMSN 121200Z 29009KT 10SM BKN032 OVC043 02/M04 A2976 1010 64 -200 290/09 RMK AO2
14837KMSN MSN20020212060510502/12/02 06:05:31  5-MIN KMSN 121205Z 29008KT 10SM BKN032 OVC043 02/M04 A2977 1010 64 -200 290/08 RMK AO2
14837KMSN MSN20020212061010502/12/02 06:10:31  5-MIN KMSN 121210Z 29008KT 10SM BKN032 OVC043 02/M04 A2977 1000 64 -200 290/08 RMK AO2
14837KMSN MSN20020212061511102/12/02 06:15:31  5-MIN KMSN 121215Z 29014G18KT 10SM BKN032 OVC043 02/M04 A2978 1000 64 -200 290/14G18 RMK AO2
14837KMSN MSN20020212062010402/12/02 06:20:31  5-MIN KMSN 121220Z 30013G20KT 10SM OVC034 02/M04 A2978 1000 61 -200 300/13G20 RMK AO2
14837KMSN MSN20020212062512102/12/02 06:25:31  5-MIN KMSN 121225Z 29012G27KT 10SM OVC034 02/M06 A2978 990 56 -200 290/12G27 RMK AO2 PK WND 30027/1222
14837KMSN MSN20020212063012802/12/02 06:30:31  5-MIN KMSN 121230Z 29013G27KT 10SM BKN034 OVC043 02/M06 A2979 990 56 -300 290/13G27 RMK AO2 PK WND 30027/1222
14837KMSN MSN20020212063512802/12/02 06:35:31  5-MIN KMSN 121235Z 29011G20KT 10SM BKN034 OVC043 02/M06 A2979 990 59 -300 290/11G20 RMK AO2 PK WND 30027/1222
14837KMSN MSN20020212064012802/12/02 06:40:31  5-MIN KMSN 121240Z 29013G20KT 10SM BKN036 BKN043 02/M06 A2979 990 59 -300 290/13G20 RMK AO2 PK WND 30027/1222
14837KMSN MSN20020212064512102/12/02 06:45:31  5-MIN KMSN 121245Z 29011G21KT 10SM BKN040 02/M06 A2979 990 59 -300 290/11G21 RMK AO2 PK WND 30027/1222
14837KMSN MSN20020212065013802/12/02 06:50:31  5-MIN KMSN 121250Z 30013G21KT 10SM BKN040 02/M06 A2979 990 56 -300 290/13G21 RMK AO2 PK WND 30027/1222 SLP095 T00171061
14837KMSN MSN20020212065510302/12/02 06:55:31  5-MIN KMSN 121255Z 29016G24KT 10SM BKN042 02/M06 A2979 980 56 -300 290/16G24 RMK AO2
14837KMSN MSN20020212070010302/12/02 07:00:31  5-MIN KMSN 121300Z 29014G24KT 10SM BKN042 02/M06 A2979 980 56 -300 290/14G24 RMK AO2
14837KMSN MSN20020212070510302/12/02 07:05:31  5-MIN KMSN 121305Z 29014G22KT 10SM BKN042 02/M06 A2980 980 59 -300 280/14G22 RMK AO2
14837KMSN MSN20020212071010302/12/02 07:10:31  5-MIN KMSN 121310Z 28009G20KT 10SM BKN042 02/M05 A2980 970 61 -300 280/09G20 RMK AO2
14837KMSN MSN20020212071510302/12/02 07:15:31  5-MIN KMSN 121315Z 29011G17KT 10SM OVC042 02/M05 A2981 970 61 -300 290/11G17 RMK AO2
14837KMSN MSN20020212072010302/12/02 07:20:31  5-MIN KMSN 121320Z 29016G24KT 10SM OVC042 02/M06 A2981 970 59 -300 290/16G24 RMK AO2
14837KMSN MSN20020212072510302/12/02 07:25:31  5-MIN KMSN 121325Z 29013G24KT 10SM OVC042 02/M06 A2981 960 59 -300 290/13G24 RMK AO2
14837KMSN MSN20020212073011902/12/02 07:30:31  5-MIN KMSN 121330Z 29009G19KT 250V320 10SM OVC042 02/M05 A2982 960 61 -300 290/09G19 250V320 RMK AO2
14837KMSN MSN20020212073509702/12/02 07:35:31  5-MIN KMSN 121335Z 28010KT 10SM OVC040 02/M05 A2982 950 61 -300 280/10 RMK AO2
14837KMSN MSN20020212074012602/12/02 07:40:31  5-MIN KMSN 121340Z 28013G19KT 250V310 10SM BKN040 OVC047 02/M05 A2983 950 61 -300 280/13G19 250V310 RMK AO2
14837KMSN MSN20020212074511002/12/02 07:45:31  5-MIN KMSN 121345Z 29012G19KT 10SM BKN040 BKN047 02/M05 A2983 950 61 -400 280/12G19 RMK AO2
14837KMSN MSN20020212075012702/12/02 07:50:31  5-MIN KMSN 121350Z 28012G18KT 10SM BKN040 BKN047 01/M06 A2983 950 61 -400 280/12G18 RMK AO2 SLP110 T00111056
14837KMSN MSN20020212075512602/12/02 07:55:31  5-MIN KMSN 121355Z 29009G18KT 250V320 10SM SCT038 BKN047 01/M06 A2983 950 61 -400 290/09G18 250V320 RMK AO2
14837KMSN MSN20020212080010302/12/02 08:00:31  5-MIN KMSN 121400Z 29009G18KT 10SM SCT040 01/M06 A2983 940 61 -400 290/09G18 RMK AO2
14837KMSN MSN20020212080511002/12/02 08:05:31  5-MIN KMSN 121405Z 30010G15KT 10SM FEW040 SCT047 02/M06 A2984 940 59 -400 300/10G15 RMK AO2
14837KMSN MSN20020212081009702/12/02 08:10:31  5-MIN KMSN 121410Z 29011KT 10SM FEW038 02/M06 A2984 940 59 -400 290/11 RMK AO2
14837KMSN MSN20020212081509402/12/02 08:15:31  5-MIN KMSN 121415Z 30010KT 10SM CLR 02/M05 A2985 930 61 -400 300/10 RMK AO2
14837KMSN MSN20020212082010002/12/02 08:20:31  5-MIN KMSN 121420Z 29011G15KT 10SM CLR 02/M05 A2985 930 61 -400 290/11G15 RMK AO2
14837KMSN MSN20020212082510302/12/02 08:25:31  5-MIN KMSN 121425Z 29013G20KT 10SM FEW040 02/M06 A2985 930 59 -400 290/13G20 RMK AO2
14837KMSN MSN20020212083010302/12/02 08:30:31  5-MIN KMSN 121430Z 29009G20KT 10SM FEW040 02/M06 A2986 920 56 -400 290/09G20 RMK AO2
14837KMSN MSN20020212083509402/12/02 08:35:31  5-MIN KMSN 121435Z 30011KT 10SM CLR 02/M06 A2986 920 56 -400 300/11 RMK AO2
14837KMSN MSN20020212084011602/12/02 08:40:31  5-MIN KMSN 121440Z 28007G15KT 250V320 10SM CLR 02/M06 A2986 920 56 -400 280/07G15 250V320 RMK AO2
14837KMSN MSN20020212084510002/12/02 08:45:31  5-MIN KMSN 121445Z 28010G15KT 10SM CLR 02/M06 A2986 920 56 -400 280/10G15 RMK AO2
14837KMSN MSN20020212085013902/12/02 08:50:31  5-MIN KMSN 121450Z 28008G15KT 240V300 10SM CLR 02/M06 A2986 920 59 -400 280/08G15 240V300 RMK AO2 SLP120 T00171056 53020
14837KMSN MSN20020212085511002/12/02 08:55:31  5-MIN KMSN 121455Z 28007KT 250V320 10SM CLR 02/M06 A2986 920 56 -400 280/07 250V320 RMK AO2
14837KMSN MSN20020212090010002/12/02 09:00:31  5-MIN KMSN 121500Z 27010G14KT 10SM CLR 02/M06 A2986 920 56 -400 270/10G14 RMK AO2
14837KMSN MSN20020212090510002/12/02 09:05:31  5-MIN KMSN 121505Z 27013G18KT 10SM CLR 02/M06 A2986 920 56 -400 270/13G18 RMK AO2
14837KMSN MSN20020212091010002/12/02 09:10:31  5-MIN KMSN 121510Z 29011G18KT 10SM CLR 02/M07 A2986 920 54 -400 290/11G18 RMK AO2
14837KMSN MSN20020212091510002/12/02 09:15:31  5-MIN KMSN 121515Z 26007G15KT 10SM CLR 02/M06 A2986 920 54 -300 260/07G15 RMK AO2
14837KMSN MSN20020212092010002/12/02 09:20:31  5-MIN KMSN 121520Z 27011G18KT 10SM CLR 02/M06 A2986 920 54 -300 270/11G18 RMK AO2
14837KMSN MSN20020212092510302/12/02 09:25:31  5-MIN KMSN 121525Z 27009G18KT 10SM SCT065 02/M06 A2986 920 54 -300 270/09G18 RMK AO2
14837KMSN MSN20020212093011902/12/02 09:30:31  5-MIN KMSN 121530Z 27010G18KT 220V290 10SM FEW065 02/M06 A2986 920 54 -300 270/10G18 220V290 RMK AO2
14837KMSN MSN20020212093509702/12/02 09:35:31  5-MIN KMSN 121535Z 27008KT 10SM FEW065 02/M06 A2986 920 54 -300 270/08 RMK AO2
14837KMSN MSN20020212094010302/12/02 09:40:31  5-MIN KMSN 121540Z 26009G15KT 10SM FEW065 02/M06 A2986 920 54 -300 260/09G15 RMK AO2
14837KMSN MSN20020212094511902/12/02 09:45:31  5-MIN KMSN 121545Z 24010G15KT 200V280 10SM FEW065 02/M06 A2986 920 56 -300 240/10G15 200V280 RMK AO2
14837KMSN MSN20020212095012002/12/02 09:50:31  5-MIN KMSN 121550Z 26011G18KT 10SM FEW065 02/M06 A2985 930 56 -300 260/11G18 RMK AO2 SLP118 T00221056
14837KMSN MSN20020212095510302/12/02 09:55:31  5-MIN KMSN 121555Z 26010G18KT 10SM SCT070 02/M06 A2986 920 56 -300 260/10G18 RMK AO2
14837KMSN MSN20020212100010302/12/02 10:00:31  5-MIN KMSN 121600Z 27009G15KT 10SM BKN080 02/M05 A2987 910 59 -300 270/09G15 RMK AO2
14837KMSN MSN20020212100510302/12/02 10:05:31  5-MIN KMSN 121605Z 26013G18KT 10SM BKN080 02/M06 A2987 910 56 -300 260/13G18 RMK AO2
14837KMSN MSN20020212101010302/12/02 10:10:31  5-MIN KMSN 121610Z 26014G18KT 10SM BKN080 02/M06 A2987 910 56 -300 260/14G18 RMK AO2
14837KMSN MSN20020212101511002/12/02 10:15:31  5-MIN KMSN 121615Z 26012G21KT 10SM FEW055 BKN080 02/M06 A2987 910 56 -300 260/12G21 RMK AO2
14837KMSN MSN20020212102012602/12/02 10:20:31  5-MIN KMSN 121620Z 26011G21KT 220V290 10SM SCT055 OVC080 03/M06 A2987 910 54 -300 260/11G21 220V290 RMK AO2
14837KMSN MSN20020212102512602/12/02 10:25:31  5-MIN KMSN 121625Z 27012G21KT 220V300 10SM BKN055 OVC080 02/M06 A2987 910 56 -300 260/12G21 220V300 RMK AO2
14837KMSN MSN20020212103011702/12/02 10:30:31  5-MIN KMSN 121630Z 27014G21KT 10SM FEW047 BKN060 OVC080 02/M06 A2988 910 56 -300 270/14G21 RMK AO2
14837KMSN MSN20020212103513302/12/02 10:35:31  5-MIN KMSN 121635Z 27012G20KT 250V310 10SM FEW047 BKN060 OVC080 02/M06 A2988 900 54 -300 270/12G20 250V310 RMK AO2
14837KMSN MSN20020212104011002/12/02 10:40:31  5-MIN KMSN 121640Z 27014G19KT 10SM FEW043 OVC060 02/M06 A2988 900 54 -300 270/14G19 RMK AO2
14837KMSN MSN20020212104512602/12/02 10:45:31  5-MIN KMSN 121645Z 27015G24KT 230V300 10SM SCT043 OVC060 02/M06 A2988 900 54 -300 270/15G24 230V300 RMK AO2
14837KMSN MSN20020212105013402/12/02 10:50:31  5-MIN KMSN 121650Z 27010G24KT 10SM SCT041 BKN050 OVC060 02/M06 A2988 900 54 -300 270/10G24 RMK AO2 SLP127 T00221061
14837KMSN MSN20020212105511002/12/02 10:55:31  5-MIN KMSN 121655Z 26010G24KT 10SM BKN041 OVC060 02/M06 A2988 900 54 -300 260/10G24 RMK AO2
14837KMSN MSN20020212110013302/12/02 11:00:31  5-MIN KMSN 121700Z 26013G24KT 230V300 10SM BKN041 BKN050 OVC065 03/M06 A2988 900 54 -300 260/13G24 230V300 RMK AO2
14837KMSN MSN20020212110511702/12/02 11:05:31  5-MIN KMSN 121705Z 28012G19KT 10SM BKN041 BKN047 OVC055 03/M06 A2988 900 54 -300 270/12G19 RMK AO2
14837KMSN MSN20020212111011002/12/02 11:10:31  5-MIN KMSN 121710Z 26016G21KT 10SM BKN041 OVC050 02/M06 A2988 900 56 -300 260/16G21 RMK AO2
14837KMSN MSN20020212111511002/12/02 11:15:31  5-MIN KMSN 121715Z 26012G21KT 10SM BKN041 OVC055 02/M06 A2988 900 56 -300 260/12G21 RMK AO2
14837KMSN MSN20020212112013302/12/02 11:20:31  5-MIN KMSN 121720Z 27010G20KT 230V310 10SM BKN041 BKN055 OVC075 02/M06 A2988 900 56 -300 270/10G20 230V310 RMK AO2
14837KMSN MSN20020212112511702/12/02 11:25:31  5-MIN KMSN 121725Z 27013G19KT 10SM SCT041 BKN055 BKN075 03/M05 A2988 900 56 -300 270/13G19 RMK AO2
14837KMSN MSN20020212113011702/12/02 11:30:31  5-MIN KMSN 121730Z 26011G20KT 10SM SCT041 BKN055 BKN075 03/M05 A2988 910 56 -300 260/11G20 RMK AO2
14837KMSN MSN20020212113511702/12/02 11:35:31  5-MIN KMSN 121735Z 27015G21KT 10SM SCT041 BKN055 BKN075 03/M05 A2987 910 56 -300 260/15G21 RMK AO2
14837KMSN MSN20020212114012602/12/02 11:40:31  5-MIN KMSN 121740Z 26012G22KT 220V300 10SM FEW041 OVC080 03/M05 A2987 910 54 -200 260/12G22 220V300 RMK AO2
14837KMSN MSN20020212114511002/12/02 11:45:31  5-MIN KMSN 121745Z 28013G22KT 10SM FEW041 BKN080 03/M05 A2987 910 54 -200 280/13G22 RMK AO2
14837KMSN MSN20020212115014502/12/02 11:50:31  5-MIN KMSN 121750Z 28014G20KT 10SM FEW041 BKN080 03/M04 A2987 910 57 -200 270/14G20 RMK AO2 SLP123 T00331044 10033 20011 53033
14837KMSN MSN20020212115511702/12/02 11:55:31  5-MIN KMSN 121755Z 27014G23KT 10SM FEW038 BKN046 OVC075 03/M04 A2987 910 57 -200 270/14G23 RMK AO2
14837KMSN MSN20020212120011702/12/02 12:00:31  5-MIN KMSN 121800Z 27012G23KT 10SM BKN040 BKN047 OVC075 03/M04 A2987 910 59 -300 270/12G23 RMK AO2
14837KMSN MSN20020212120511702/12/02 12:05:31  5-MIN KMSN 121805Z 27013G19KT 10SM BKN038 BKN047 OVC075 03/M04 A2987 910 59 -300 260/13G19 RMK AO2
14837KMSN MSN20020212121013302/12/02 12:10:31  5-MIN KMSN 121810Z 26012G20KT 10SM -SN SCT040 BKN047 BKN060 03/M04 A2987 910 61 -300 260/12G20 RMK AO2 SNB09 P0000
14837KMSN MSN20020212121513202/12/02 12:15:31  5-MIN KMSN 121815Z 25013G20KT 10SM SCT040 BKN047 BKN060 03/M03 A2987 910 61 -200 250/13G20 RMK AO2 SNB09E15 P0000
14837KMSN MSN20020212122014802/12/02 12:20:31  5-MIN KMSN 121820Z 26015G20KT 230V290 10SM FEW036 BKN045 BKN060 03/M03 A2987 910 64 -200 260/15G20 230V290 RMK AO2 SNB09E15 P0000
14837KMSN MSN20020212122514802/12/02 12:25:31  5-MIN KMSN 121825Z 26016G23KT 220V290 10SM FEW036 BKN045 BKN060 03/M03 A2987 910 64 -300 260/16G23 220V290 RMK AO2 SNB09E15 P0000
14837KMSN MSN20020212123014802/12/02 12:30:31  5-MIN KMSN 121830Z 27012G23KT 240V310 10SM FEW036 BKN045 BKN060 03/M04 A2987 910 61 -300 270/12G23 240V310 RMK AO2 SNB09E15 P0000
14837KMSN MSN20020212123513202/12/02 12:35:31  5-MIN KMSN 121835Z 27011G22KT 10SM FEW036 BKN045 BKN060 03/M04 A2987 910 61 -300 270/11G22 RMK AO2 SNB09E15 P0000
14837KMSN MSN20020212124013902/12/02 12:40:31  5-MIN KMSN 121840Z 27012G21KT 10SM -SN FEW036 BKN045 BKN060 03/M04 A2987 910 61 -300 270/12G21 RMK AO2 SNB09E15B40 P0000
14837KMSN MSN20020212124513102/12/02 12:45:31  5-MIN KMSN 121845Z 27012G21KT 9SM -SN SCT045 BKN060 03/M04 A2986 920 61 -300 270/12G21 RMK AO2 SNB09E15B40 P0000
14837KMSN MSN20020212125017202/12/02 12:50:31  5-MIN KMSN 121850Z 28012G19KT 250V310 10SM -SN FEW040 SCT047 OVC055 03/M04 A2986 920 61 -300 280/12G19 250V310 RMK AO2 SNB09E15B40 SLP120 P0000 T00281039
14837KMSN MSN20020212125512002/12/02 12:55:31  5-MIN KMSN 121855Z 27008G19KT 10SM -SN SCT042 OVC055 03/M04 A2986 920 61 -300 270/08G19 RMK AO2 P0000
14837KMSN MSN20020212130012702/12/02 13:00:31  5-MIN KMSN 121900Z 28010G15KT 10SM -SN FEW040 BKN047 OVC055 03/M04 A2986 920 59 -300 280/10G15 RMK AO2 P0000
14837KMSN MSN20020212130512002/12/02 13:05:31  5-MIN KMSN 121905Z 29012G20KT 10SM -SN SCT042 OVC055 03/M04 A2986 920 57 -200 280/12G20 RMK AO2 P0000
14837KMSN MSN20020212131012702/12/02 13:10:31  5-MIN KMSN 121910Z 29009G20KT 10SM -SN SCT040 BKN050 OVC060 03/M05 A2986 920 54 -200 280/09G20 RMK AO2 P0000
14837KMSN MSN20020212131512202/12/02 13:15:31  5-MIN KMSN 121915Z 28010G19KT 10SM SCT042 BKN055 03/M04 A2986 920 57 -200 280/10G19 RMK AO2 SNE11 P0000
14837KMSN MSN20020212132012202/12/02 13:20:31  5-MIN KMSN 121920Z 26012G19KT 10SM SCT042 BKN060 03/M04 A2986 920 57 -200 260/12G19 RMK AO2 SNE11 P0000
14837KMSN MSN20020212132514002/12/02 13:25:31  5-MIN KMSN 121925Z 28018G30KT 10SM SCT042 BKN060 04/M06 A2986 920 50 -100 280/18G30 RMK AO2 PK WND 28030/1923 SNE11 P0000
14837KMSN MSN20020212133014002/12/02 13:30:31  5-MIN KMSN 121930Z 29013G30KT 10SM SCT042 BKN060 04/M07 A2987 910 46 -100 290/13G30 RMK AO2 PK WND 28030/1923 SNE11 P0000
14837KMSN MSN20020212133515602/12/02 13:35:31  5-MIN KMSN 121935Z 30015G24KT 260V320 10SM SCT042 BKN060 03/M06 A2987 910 50 -200 290/15G24 260V320 RMK AO2 PK WND 28030/1923 SNE11 P0000
14837KMSN MSN20020212134014002/12/02 13:40:31  5-MIN KMSN 121940Z 30018G24KT 10SM SCT042 BKN060 03/M06 A2987 910 54 -300 300/18G24 RMK AO2 PK WND 28030/1923 SNE11 P0000
14837KMSN MSN20020212134514002/12/02 13:45:31  5-MIN KMSN 121945Z 29014G23KT 10SM SCT042 BKN060 03/M06 A2988 900 52 -300 290/14G23 RMK AO2 PK WND 28030/1923 SNE11 P0000
14837KMSN MSN20020212135015702/12/02 13:50:31  5-MIN KMSN 121950Z 29018G23KT 10SM SCT042 BKN060 03/M07 A2988 900 50 -300 290/18G23 RMK AO2 PK WND 28030/1923 SNE11 SLP125 P0000 T00281067
14837KMSN MSN20020212135511002/12/02 13:55:31  5-MIN KMSN 121955Z 29017G23KT 10SM SCT050 BKN060 03/M07 A2988 900 48 -300 290/17G23 RMK AO2
14837KMSN MSN20020212140011002/12/02 14:00:31  5-MIN KMSN 122000Z 29016G24KT 10SM BKN055 BKN070 03/M07 A2988 900 48 -300 290/16G24 RMK AO2
14837KMSN MSN20020212140511002/12/02 14:05:31  5-MIN KMSN 122005Z 29014G25KT 10SM FEW048 BKN060 03/M07 A2989 900 48 -300 290/14G25 RMK AO2
14837KMSN MSN20020212141012802/12/02 14:10:31  5-MIN KMSN 122010Z 30018G28KT 10SM FEW048 OVC060 03/M07 A2989 890 48 -200 290/18G28 RMK AO2 PK WND 31028/2008
14837KMSN MSN20020212141512102/12/02 14:15:31  5-MIN KMSN 122015Z 30017G28KT 10SM SCT060 03/M07 A2989 890 48 -300 300/17G28 RMK AO2 PK WND 31028/2008
14837KMSN MSN20020212142012102/12/02 14:20:31  5-MIN KMSN 122020Z 29016G23KT 10SM SCT060 02/M08 A2990 890 47 -400 290/16G23 RMK AO2 PK WND 31028/2008
14837KMSN MSN20020212142512102/12/02 14:25:31  5-MIN KMSN 122025Z 29015G23KT 10SM SCT060 02/M08 A2990 880 47 -400 290/15G23 RMK AO2 PK WND 31028/2008
14837KMSN MSN20020212143012102/12/02 14:30:31  5-MIN KMSN 122030Z 28016G23KT 10SM SCT060 02/M07 A2990 880 50 -400 280/16G23 RMK AO2 PK WND 31028/2008
14837KMSN MSN20020212143512102/12/02 14:35:31  5-MIN KMSN 122035Z 29014G24KT 10SM BKN055 02/M08 A2991 880 47 -400 290/14G24 RMK AO2 PK WND 31028/2008
14837KMSN MSN20020212144012102/12/02 14:40:31  5-MIN KMSN 122040Z 30013G24KT 10SM BKN060 02/M07 A2991 880 50 -400 300/13G24 RMK AO2 PK WND 31028/2008
14837KMSN MSN20020212144512102/12/02 14:45:31  5-MIN KMSN 122045Z 29015G23KT 10SM BKN060 02/M08 A2991 870 47 -400 290/15G23 RMK AO2 PK WND 31028/2008
14837KMSN MSN20020212145015002/12/02 14:50:31  5-MIN KMSN 122050Z 29014G25KT 10SM BKN060 02/M08 A2991 870 47 -400 280/14G25 RMK AO2 PK WND 31028/2008 SLP137 60000 T00221078 50003
14837KMSN MSN20020212145510302/12/02 14:55:31  5-MIN KMSN 122055Z 30011G25KT 10SM BKN060 02/M08 A2992 870 45 -400 300/11G25 RMK AO2
14837KMSN MSN20020212150010302/12/02 15:00:31  5-MIN KMSN 122100Z 30015G20KT 10SM BKN060 03/M08 A2992 860 44 -300 300/15G20 RMK AO2
14837KMSN MSN20020212150510302/12/02 15:05:31  5-MIN KMSN 122105Z 29012G20KT 10SM OVC060 03/M08 A2992 860 46 -300 290/12G20 RMK AO2
14837KMSN MSN20020212151010302/12/02 15:10:31  5-MIN KMSN 122110Z 28013G22KT 10SM OVC060 03/M08 A2993 860 46 -300 280/13G22 RMK AO2
14837KMSN MSN20020212151510302/12/02 15:15:31  5-MIN KMSN 122115Z 29014G22KT 10SM OVC060 03/M08 A2993 860 46 -300 290/14G22 RMK AO2
14837KMSN MSN20020212152012102/12/02 15:20:31  5-MIN KMSN 122120Z 29015G26KT 10SM OVC055 03/M08 A2993 850 44 -300 290/15G26 RMK AO2 PK WND 29026/2120
14837KMSN MSN20020212152512102/12/02 15:25:31  5-MIN KMSN 122125Z 29013G26KT 10SM OVC055 03/M09 A2993 850 42 -300 290/13G26 RMK AO2 PK WND 29026/2120
14837KMSN MSN20020212153012102/12/02 15:30:31  5-MIN KMSN 122130Z 29014G20KT 10SM OVC055 03/M08 A2994 850 44 -300 290/14G20 RMK AO2 PK WND 29026/2120
14837KMSN MSN20020212153512102/12/02 15:35:31  5-MIN KMSN 122135Z 30014G22KT 10SM BKN055 02/M09 A2994 840 44 -400 290/14G22 RMK AO2 PK WND 29026/2120
14837KMSN MSN20020212154012102/12/02 15:40:31  5-MIN KMSN 122140Z 28013G22KT 10SM BKN055 02/M08 A2995 840 45 -400 280/13G22 RMK AO2 PK WND 29026/2120
14837KMSN MSN20020212154512102/12/02 15:45:31  5-MIN KMSN 122145Z 29013G24KT 10SM BKN055 02/M09 A2995 840 44 -400 290/13G24 RMK AO2 PK WND 29026/2120
14837KMSN MSN20020212155013802/12/02 15:50:31  5-MIN KMSN 122150Z 29012G24KT 10SM BKN055 02/M09 A2995 830 45 -500 290/12G24 RMK AO2 PK WND 29026/2120 SLP150 T00171089
14837KMSN MSN20020212155510302/12/02 15:55:31  5-MIN KMSN 122155Z 29013G19KT 10SM BKN060 02/M08 A2996 830 47 -500 290/13G19 RMK AO2
14837KMSN MSN20020212160011002/12/02 16:00:31  5-MIN KMSN 122200Z 30014G20KT 10SM BKN049 OVC060 02/M08 A2996 830 47 -500 300/14G20 RMK AO2
14837KMSN MSN20020212160512602/12/02 16:05:31  5-MIN KMSN 122205Z 31013G22KT 10SM -SN BKN047 BKN060 01/M07 A2997 820 56 -600 310/13G22 RMK AO2 SNB01 P0000
14837KMSN MSN20020212161012502/12/02 16:10:31  5-MIN KMSN 122210Z 30019G25KT 9SM -SN BKN047 BKN060 02/M08 A2997 820 47 -500 300/19G25 RMK AO2 SNB01 P0000
14837KMSN MSN20020212161512402/12/02 16:15:31  5-MIN KMSN 122215Z 31013G25KT 9SM SCT047 BKN060 02/M09 A2998 810 45 -500 310/13G25 RMK AO2 SNB01E11 P0000
14837KMSN MSN20020212162012502/12/02 16:20:31  5-MIN KMSN 122220Z 32009G20KT 10SM SCT047 BKN060 01/M09 A2998 810 47 -600 320/09G20 RMK AO2 SNB01E11 P0000
14837KMSN MSN20020212162512502/12/02 16:25:31  5-MIN KMSN 122225Z 31011G19KT 10SM SCT047 BKN055 01/M08 A2998 800 49 -600 310/11G19 RMK AO2 SNB01E11 P0000
14837KMSN MSN20020212163011802/12/02 16:30:31  5-MIN KMSN 122230Z 32010G19KT 10SM BKN049 02/M08 A2999 800 49 -500 320/10G19 RMK AO2 SNB01E11 P0000
14837KMSN MSN20020212163512502/12/02 16:35:31  5-MIN KMSN 122235Z 31013G20KT 10SM BKN049 BKN055 01/M08 A2999 800 49 -600 310/13G20 RMK AO2 SNB01E11 P0000
14837KMSN MSN20020212164012502/12/02 16:40:31  5-MIN KMSN 122240Z 32015G20KT 10SM BKN049 BKN055 01/M09 A3000 790 47 -600 310/15G20 RMK AO2 SNB01E11 P0000
14837KMSN MSN20020212164511802/12/02 16:45:31  5-MIN KMSN 122245Z 31011G20KT 10SM SCT049 01/M09 A3000 790 47 -700 310/11G20 RMK AO2 SNB01E11 P0000
14837KMSN MSN20020212165012902/12/02 16:50:31  5-MIN KMSN 122250Z 31011KT 10SM SCT049 01/M09 A3000 790 49 -700 310/11 RMK AO2 SNB01E11 SLP168 P0000 T00061089
14837KMSN MSN20020212165510302/12/02 16:55:31  5-MIN KMSN 122255Z 31013G19KT 10SM BKN049 01/M09 A3001 790 49 -700 310/13G19 RMK AO2
14837KMSN MSN20020212170010302/12/02 17:00:31  5-MIN KMSN 122300Z 31012G19KT 10SM SCT049 01/M09 A3001 780 49 -700 310/12G19 RMK AO2
14837KMSN MSN20020212170510302/12/02 17:05:31  5-MIN KMSN 122305Z 31012G19KT 10SM FEW049 00/M10 A3002 770 47 -800 300/12G19 RMK AO2
14837KMSN MSN20020212171011002/12/02 17:10:31  5-MIN KMSN 122310Z 30012G19KT 10SM FEW049 00/M11 A3003 770 45 -800 300/12G19 RMK AO2 PRESRR
14837KMSN MSN20020212171510302/12/02 17:15:31  5-MIN KMSN 122315Z 30013G20KT 10SM FEW049 00/M11 A3003 760 43 -800 300/13G20 RMK AO2
14837KMSN MSN20020212172010302/12/02 17:20:31  5-MIN KMSN 122320Z 31010G20KT 10SM FEW049 00/M11 A3003 760 43 -800 310/10G20 RMK AO2
14837KMSN MSN20020212172510102/12/02 17:25:31  5-MIN KMSN 122325Z 31013G16KT 10SM CLR M01/M11 A3003 760 47 -900 300/13G16 RMK AO2
14837KMSN MSN20020212173010002/12/02 17:30:31  5-MIN KMSN 122330Z 31011G20KT 10SM CLR 00/M11 A3004 750 45 -800 310/11G20 RMK AO2
14837KMSN MSN20020212173510102/12/02 17:35:31  5-MIN KMSN 122335Z 31010G20KT 10SM CLR M01/M11 A3004 750 47 -900 310/10G20 RMK AO2
14837KMSN MSN20020212174010102/12/02 17:40:31  5-MIN KMSN 122340Z 31013G17KT 10SM CLR M01/M10 A3005 750 49 -900 310/13G17 RMK AO2
14837KMSN MSN20020212174510102/12/02 17:45:31  5-MIN KMSN 122345Z 31011G17KT 10SM CLR M01/M10 A3005 740 49 -900 310/11G17 RMK AO2
14837KMSN MSN20020212175013602/12/02 17:50:31  5-MIN KMSN 122350Z 31011KT 10SM CLR M01/M10 A3006 740 49 -900 310/11 RMK AO2 SLP187 60000 T10061100 10039 21006 53015
14837KMSN MSN20020212175509502/12/02 17:55:31  5-MIN KMSN 122355Z 31011KT 10SM CLR M01/M11 A3006 730 47 -900 310/11 RMK AO2
14837KMSN MSN20020212180010202/12/02 18:00:31  5-MIN KMSN 130000Z 32009G15KT 10SM CLR M01/M10 A3006 730 51 -1000 320/09G15 RMK AO2
14837KMSN MSN20020212180509602/12/02 18:05:31  5-MIN KMSN 130005Z 32007KT 10SM CLR M01/M10 A3007 730 51 -1000 320/07 RMK AO2
14837KMSN MSN20020212181009602/12/02 18:10:31  5-MIN KMSN 130010Z 32008KT 10SM CLR M01/M10 A3008 720 51 -1000 320/08 RMK AO2
14837KMSN MSN20020212181509602/12/02 18:15:31  5-MIN KMSN 130015Z 32008KT 10SM CLR M01/M10 A3008 720 51 -1000 320/08 RMK AO2
14837KMSN MSN20020212182009602/12/02 18:20:31  5-MIN KMSN 130020Z 32007KT 10SM CLR M02/M11 A3008 710 51 -1100 320/07 RMK AO2
14837KMSN MSN20020212182509602/12/02 18:25:31  5-MIN KMSN 130025Z 33008KT 10SM CLR M02/M11 A3009 710 49 -1100 330/08 RMK AO2
14837KMSN MSN20020212183010202/12/02 18:30:31  5-MIN KMSN 130030Z 33012G17KT 10SM CLR M02/M11 A3009 710 49 -1100 330/12G17 RMK AO2
14837KMSN MSN20020212183510202/12/02 18:35:31  5-MIN KMSN 130035Z 33008G17KT 10SM CLR M02/M12 A3010 700 46 -1100 330/08G17 RMK AO2
14837KMSN MSN20020212184009602/12/02 18:40:31  5-MIN KMSN 130040Z 33008KT 10SM CLR M02/M12 A3010 700 46 -1100 330/08 RMK AO2
14837KMSN MSN20020212184511202/12/02 18:45:31  5-MIN KMSN 130045Z 33009KT 280V360 10SM CLR M02/M12 A3010 700 46 -1100 330/09 280V360 RMK AO2
14837KMSN MSN20020212185011902/12/02 18:50:31  5-MIN KMSN 130050Z 32010G16KT 10SM CLR M02/M12 A3011 690 48 -1200 320/10G16 RMK AO2 SLP205 T10221117
14837KMSN MSN20020212185510202/12/02 18:55:31  5-MIN KMSN 130055Z 33012G17KT 10SM CLR M02/M12 A3011 690 44 -1100 330/12G17 RMK AO2
14837KMSN MSN20020212190010202/12/02 19:00:31  5-MIN KMSN 130100Z 33013G17KT 10SM CLR M02/M13 A3012 680 44 -1200 320/13G17 RMK AO2
14837KMSN MSN20020212190510202/12/02 19:05:31  5-MIN KMSN 130105Z 33010G17KT 10SM CLR M02/M12 A3012 680 46 -1200 330/10G17 RMK AO2
14837KMSN MSN20020212191010302/12/02 19:10:31  5-MIN KMSN 130110Z 33007KT 10SM CLR M02/M12 A3013 670 46 -1200 330/07 RMK AO2 PRESRR
14837KMSN MSN20020212191509602/12/02 19:15:31  5-MIN KMSN 130115Z 34008KT 10SM CLR M02/M12 A3013 670 46 -1200 330/08 RMK AO2
14837KMSN MSN20020212192009602/12/02 19:20:31  5-MIN KMSN 130120Z 33009KT 10SM CLR M02/M12 A3013 670 46 -1200 330/09 RMK AO2
14837KMSN MSN20020212192509602/12/02 19:25:31  5-MIN KMSN 130125Z 33008KT 10SM CLR M03/M12 A3014 660 48 -1300 330/08 RMK AO2
14837KMSN MSN20020212193009602/12/02 19:30:31  5-MIN KMSN 130130Z 34008KT 10SM CLR M03/M12 A3014 660 48 -1300 340/08 RMK AO2
14837KMSN MSN20020212193509602/12/02 19:35:31  5-MIN KMSN 130135Z 34007KT 10SM CLR M03/M12 A3014 660 48 -1300 330/07 RMK AO2
14837KMSN MSN20020212194011202/12/02 19:40:31  5-MIN KMSN 130140Z 34007KT 310V010 10SM CLR M03/M12 A3015 660 48 -1300 340/07 310V010 RMK AO2
14837KMSN MSN20020212194509602/12/02 19:45:31  5-MIN KMSN 130145Z 33006KT 10SM CLR M03/M12 A3015 650 50 -1400 330/06 RMK AO2
14837KMSN MSN20020212195011302/12/02 19:50:31  5-MIN KMSN 130150Z 33008KT 10SM CLR M03/M12 A3015 650 48 -1300 330/08 RMK AO2 SLP221 T10281122
14837KMSN MSN20020212195509602/12/02 19:55:31  5-MIN KMSN 130155Z 33008KT 10SM CLR M03/M12 A3015 650 50 -1400 330/08 RMK AO2
14837KMSN MSN20020212200009602/12/02 20:00:31  5-MIN KMSN 130200Z 33007KT 10SM CLR M03/M13 A3016 650 48 -1400 330/07 RMK AO2
14837KMSN MSN20020212200509602/12/02 20:05:31  5-MIN KMSN 130205Z 33007KT 10SM CLR M03/M13 A3016 640 48 -1400 330/07 RMK AO2
14837KMSN MSN20020212201009602/12/02 20:10:31  5-MIN KMSN 130210Z 33006KT 10SM CLR M03/M12 A3016 640 50 -1400 330/06 RMK AO2
14837KMSN MSN20020212201509602/12/02 20:15:31  5-MIN KMSN 130215Z 34006KT 10SM CLR M04/M12 A3017 640 52 -1400 340/06 RMK AO2
14837KMSN MSN20020212202009602/12/02 20:20:31  5-MIN KMSN 130220Z 34005KT 10SM CLR M04/M12 A3017 640 52 -1400 340/05 RMK AO2
14837KMSN MSN20020212202509602/12/02 20:25:31  5-MIN KMSN 130225Z 33008KT 10SM CLR M04/M12 A3017 630 52 -1500 330/08 RMK AO2
14837KMSN MSN20020212203009602/12/02 20:30:31  5-MIN KMSN 130230Z 33007KT 10SM CLR M04/M13 A3018 630 50 -1500 330/07 RMK AO2
14837KMSN MSN20020212203509602/12/02 20:35:31  5-MIN KMSN 130235Z 33008KT 10SM CLR M04/M13 A3018 630 50 -1500 330/08 RMK AO2
14837KMSN MSN20020212204009602/12/02 20:40:31  5-MIN KMSN 130240Z 34006KT 10SM CLR M04/M13 A3018 620 50 -1500 330/06 RMK AO2
14837KMSN MSN20020212204509602/12/02 20:45:31  5-MIN KMSN 130245Z 32007KT 10SM CLR M04/M13 A3018 620 50 -1500 320/07 RMK AO2
14837KMSN MSN20020212205011902/12/02 20:50:31  5-MIN KMSN 130250Z 33007KT 10SM CLR M04/M13 A3019 620 48 -1500 330/07 RMK AO2 SLP233 T10391133 53047
14837KMSN MSN20020212205509602/12/02 20:55:31  5-MIN KMSN 130255Z 33006KT 10SM CLR M04/M13 A3019 620 50 -1500 330/06 RMK AO2
14837KMSN MSN20020212210009602/12/02 21:00:31  5-MIN KMSN 130300Z 33007KT 10SM CLR M04/M13 A3019 610 52 -1500 330/07 RMK AO2
14837KMSN MSN20020212210509602/12/02 21:05:31  5-MIN KMSN 130305Z 32008KT 10SM CLR M04/M13 A3020 610 50 -1500 320/08 RMK AO2
14837KMSN MSN20020212211009602/12/02 21:10:31  5-MIN KMSN 130310Z 32008KT 10SM CLR M04/M14 A3020 610 46 -1500 320/08 RMK AO2
14837KMSN MSN20020212211509602/12/02 21:15:31  5-MIN KMSN 130315Z 32008KT 10SM CLR M04/M13 A3020 610 48 -1500 320/08 RMK AO2
14837KMSN MSN20020212212009602/12/02 21:20:31  5-MIN KMSN 130320Z 32008KT 10SM CLR M04/M13 A3020 600 48 -1500 310/08 RMK AO2
14837KMSN MSN20020212212509602/12/02 21:25:31  5-MIN KMSN 130325Z 32010KT 10SM CLR M04/M13 A3020 600 48 -1500 320/10 RMK AO2
14837KMSN MSN20020212213009602/12/02 21:30:31  5-MIN KMSN 130330Z 32011KT 10SM CLR M04/M14 A3021 600 48 -1600 320/11 RMK AO2
14837KMSN MSN20020212213509602/12/02 21:35:31  5-MIN KMSN 130335Z 33008KT 10SM CLR M04/M13 A3021 600 50 -1600 330/08 RMK AO2
14837KMSN MSN20020212214009602/12/02 21:40:31  5-MIN KMSN 130340Z 33009KT 10SM CLR M04/M14 A3021 600 48 -1600 330/09 RMK AO2
14837KMSN MSN20020212214509602/12/02 21:45:31  5-MIN KMSN 130345Z 34009KT 10SM CLR M04/M14 A3021 590 48 -1600 330/09 RMK AO2
14837KMSN MSN20020212215011302/12/02 21:50:31  5-MIN KMSN 130350Z 33007KT 10SM CLR M04/M14 A3021 590 48 -1600 330/07 RMK AO2 SLP242 T10441139
14837KMSN MSN20020212215509602/12/02 21:55:31  5-MIN KMSN 130355Z 32006KT 10SM CLR M04/M14 A3022 590 48 -1600 320/06 RMK AO2
14837KMSN MSN20020212220009602/12/02 22:00:31  5-MIN KMSN 130400Z 32007KT 10SM CLR M05/M14 A3022 590 50 -1600 320/07 RMK AO2
14837KMSN MSN20020212220509602/12/02 22:05:31  5-MIN KMSN 130405Z 33005KT 10SM CLR M05/M13 A3022 590 52 -1700 320/05 RMK AO2
14837KMSN MSN20020212221009602/12/02 22:10:31  5-MIN KMSN 130410Z 33007KT 10SM CLR M05/M13 A3023 580 52 -1700 330/07 RMK AO2
14837KMSN MSN20020212221509602/12/02 22:15:31  5-MIN KMSN 130415Z 34007KT 10SM CLR M05/M13 A3023 580 52 -1700 330/07 RMK AO2
14837KMSN MSN20020212222009602/12/02 22:20:31  5-MIN KMSN 130420Z 33008KT 10SM CLR M05/M13 A3023 580 52 -1700 330/08 RMK AO2
14837KMSN MSN20020212222509602/12/02 22:25:31  5-MIN KMSN 130425Z 33009KT 10SM CLR M05/M14 A3023 580 50 -1700 330/09 RMK AO2
14837KMSN MSN20020212223009602/12/02 22:30:31  5-MIN KMSN 130430Z 33007KT 10SM CLR M05/M14 A3024 570 50 -1700 330/07 RMK AO2
14837KMSN MSN20020212223509602/12/02 22:35:31  5-MIN KMSN 130435Z 32006KT 10SM CLR M06/M14 A3024 570 52 -1700 320/06 RMK AO2
14837KMSN MSN20020212224009602/12/02 22:40:31  5-MIN KMSN 130440Z 32004KT 10SM CLR M06/M14 A3024 570 52 -1700 320/04 RMK AO2
14837KMSN MSN20020212224509602/12/02 22:45:31  5-MIN KMSN 130445Z 32005KT 10SM CLR M06/M13 A3024 570 54 -1700 320/05 RMK AO2
14837KMSN MSN20020212225011302/12/02 22:50:31  5-MIN KMSN 130450Z 36005KT 10SM CLR M06/M13 A3024 570 54 -1700 360/05 RMK AO2 SLP252 T10561133
14837KMSN MSN20020212225509602/12/02 22:55:31  5-MIN KMSN 130455Z 36006KT 10SM CLR M07/M13 A3025 560 62 -2000 350/06 RMK AO2
14837KMSN MSN20020212230009602/12/02 23:00:31  5-MIN KMSN 130500Z 34004KT 10SM CLR M06/M13 A3025 560 57 -1800 340/04 RMK AO2
14837KMSN MSN20020212230509602/12/02 23:05:31  5-MIN KMSN 130505Z 35003KT 10SM CLR M06/M13 A3025 560 57 -1800 350/03 RMK AO2
14837KMSN MSN20020212231009602/12/02 23:10:31  5-MIN KMSN 130510Z 34004KT 10SM CLR M07/M13 A3025 560 59 -1900 340/04 RMK AO2
14837KMSN MSN20020212231509602/12/02 23:15:31  5-MIN KMSN 130515Z 35004KT 10SM CLR M07/M13 A3025 560 59 -1900 350/04 RMK AO2
14837KMSN MSN20020212232009602/12/02 23:20:31  5-MIN KMSN 130520Z 35004KT 10SM CLR M06/M13 A3025 560 57 -1800 340/04 RMK AO2
14837KMSN MSN20020212232509602/12/02 23:25:31  5-MIN KMSN 130525Z 35005KT 10SM CLR M07/M14 A3025 560 57 -1900 340/05 RMK AO2
14837KMSN MSN20020212233009602/12/02 23:30:31  5-MIN KMSN 130530Z 34005KT 10SM CLR M07/M14 A3026 560 57 -1900 340/05 RMK AO2
14837KMSN MSN20020212233509602/12/02 23:35:31  5-MIN KMSN 130535Z 34007KT 10SM CLR M07/M14 A3026 550 57 -1900 340/07 RMK AO2
14837KMSN MSN20020212234009602/12/02 23:40:31  5-MIN KMSN 130540Z 35006KT 10SM CLR M06/M14 A3026 550 52 -1800 350/06 RMK AO2
14837KMSN MSN20020212234509602/12/02 23:45:31  5-MIN KMSN 130545Z 35005KT 10SM CLR M07/M15 A3026 550 52 -1900 340/05 RMK AO2
14837KMSN MSN20020212235014102/12/02 23:50:31  5-MIN KMSN 130550Z 35004KT 10SM CLR M07/M15 A3026 550 54 -2000 350/04 RMK AO2 SLP259 T10721150 11006 21072 400391072 51043
14837KMSN MSN20020212235509602/12/02 23:55:31  5-MIN KMSN 130555Z 35003KT 10SM CLR M07/M15 A3026 550 54 -2000 350/03 RMK AO2
14837KMSN MSN20020213000009602/13/02 00:00:31  5-MIN KMSN 130600Z 35004KT 10SM CLR M07/M15 A3027 550 54 -2000 350/04 RMK AO2
14837KMSN MSN20020213000509602/13/02 00:05:31  5-MIN KMSN 130605Z 35004KT 10SM CLR M07/M14 A3027 540 56 -2000 350/04 RMK AO2
14837KMSN MSN20020213001009602/13/02 00:10:31  5-MIN KMSN 130610Z 35005KT 10SM CLR M07/M14 A3027 550 56 -2000 350/05 RMK AO2
14837KMSN MSN20020213001509602/13/02 00:15:31  5-MIN KMSN 130615Z 35004KT 10SM CLR M07/M14 A3027 540 56 -2000 340/04 RMK AO2
14837KMSN MSN20020213002009602/13/02 00:20:31  5-MIN KMSN 130620Z 34005KT 10SM CLR M07/M14 A3027 540 56 -2000 340/05 RMK AO2
14837KMSN MSN20020213002509602/13/02 00:25:31  5-MIN KMSN 130625Z 34004KT 10SM CLR M07/M14 A3027 540 56 -2000 340/04 RMK AO2
14837KMSN MSN20020213003009602/13/02 00:30:31  5-MIN KMSN 130630Z 34004KT 10SM CLR M07/M14 A3027 540 56 -2000 340/04 RMK AO2
14837KMSN MSN20020213003509602/13/02 00:35:31  5-MIN KMSN 130635Z 35003KT 10SM CLR M07/M14 A3027 540 56 -2000 350/03 RMK AO2
14837KMSN MSN20020213004009602/13/02 00:40:31  5-MIN KMSN 130640Z 34003KT 10SM CLR M08/M14 A3027 540 59 -2100 340/03 RMK AO2
14837KMSN MSN20020213004509602/13/02 00:45:31  5-MIN KMSN 130645Z 33003KT 10SM CLR M07/M14 A3027 540 59 -2000 330/03 RMK AO2
14837KMSN MSN20020213005011302/13/02 00:50:31  5-MIN KMSN 130650Z 00000KT 10SM CLR M08/M14 A3027 540 62 -2100 000/00 RMK AO2 SLP264 T10781139
14837KMSN MSN20020213005509602/13/02 00:55:31  5-MIN KMSN 130655Z 00000KT 10SM CLR M08/M14 A3027 540 59 -2100 000/00 RMK AO2
14837KMSN MSN20020213010009602/13/02 01:00:31  5-MIN KMSN 130700Z 00000KT 10SM CLR M08/M13 A3028 540 64 -2100 000/00 RMK AO2
14837KMSN MSN20020213010509602/13/02 01:05:31  5-MIN KMSN 130705Z 00000KT 10SM CLR M08/M13 A3028 530 70 -2100 000/00 RMK AO2
14837KMSN MSN20020213011009602/13/02 01:10:31  5-MIN KMSN 130710Z 00000KT 10SM CLR M08/M13 A3028 530 67 -2100 000/00 RMK AO2
14837KMSN MSN20020213011509602/13/02 01:15:31  5-MIN KMSN 130715Z 00000KT 10SM CLR M08/M14 A3028 530 64 -2100 000/00 RMK AO2
14837KMSN MSN20020213012009602/13/02 01:20:31  5-MIN KMSN 130720Z 00000KT 10SM CLR M08/M14 A3028 530 62 -2200 000/00 RMK AO2
14837KMSN MSN20020213012509602/13/02 01:25:31  5-MIN KMSN 130725Z 00000KT 10SM CLR M08/M14 A3028 530 64 -2200 000/00 RMK AO2
14837KMSN MSN20020213013009602/13/02 01:30:31  5-MIN KMSN 130730Z 00000KT 10SM CLR M08/M14 A3028 530 64 -2200 000/00 RMK AO2
14837KMSN MSN20020213013509602/13/02 01:35:31  5-MIN KMSN 130735Z 00000KT 10SM CLR M08/M12 A3028 530 74 -2200 000/00 RMK AO2
14837KMSN MSN20020213014009602/13/02 01:40:31  5-MIN KMSN 130740Z 00000KT 10SM CLR M08/M13 A3028 530 67 -2200 000/00 RMK AO2
14837KMSN MSN20020213014509602/13/02 01:45:31  5-MIN KMSN 130745Z 00000KT 10SM CLR M08/M14 A3028 530 64 -2200 000/00 RMK AO2
14837KMSN MSN20020213015011302/13/02 01:50:31  5-MIN KMSN 130750Z 00000KT 10SM CLR M08/M13 A3029 530 67 -2200 000/00 RMK AO2 SLP268 T10831133
14837KMSN MSN20020213015509602/13/02 01:55:31  5-MIN KMSN 130755Z 00000KT 10SM CLR M08/M13 A3029 530 67 -2200 000/00 RMK AO2
14837KMSN MSN20020213020009602/13/02 02:00:31  5-MIN KMSN 130800Z 00000KT 10SM CLR M09/M13 A3029 530 74 -2200 000/00 RMK AO2
14837KMSN MSN20020213020509602/13/02 02:05:31  5-MIN KMSN 130805Z 00000KT 10SM CLR M09/M13 A3029 530 74 -2200 000/00 RMK AO2
14837KMSN MSN20020213021009602/13/02 02:10:31  5-MIN KMSN 130810Z 00000KT 10SM CLR M09/M12 A3029 530 77 -2200 000/00 RMK AO2
14837KMSN MSN20020213021509602/13/02 02:15:31  5-MIN KMSN 130815Z 00000KT 10SM CLR M09/M12 A3029 530 80 -2300 000/00 RMK AO2
14837KMSN MSN20020213022009602/13/02 02:20:31  5-MIN KMSN 130820Z 00000KT 10SM CLR M10/M13 A3029 520 77 -2400 000/00 RMK AO2
14837KMSN MSN20020213022509602/13/02 02:25:31  5-MIN KMSN 130825Z 00000KT 10SM CLR M10/M13 A3029 520 80 -2400 000/00 RMK AO2
14837KMSN MSN20020213023009602/13/02 02:30:31  5-MIN KMSN 130830Z 00000KT 10SM CLR M09/M13 A3029 520 77 -2300 000/00 RMK AO2
14837KMSN MSN20020213023509602/13/02 02:35:31  5-MIN KMSN 130835Z 00000KT 10SM CLR M10/M13 A3029 520 80 -2400 000/00 RMK AO2
14837KMSN MSN20020213024009602/13/02 02:40:31  5-MIN KMSN 130840Z 00000KT 10SM CLR M10/M15 A3029 520 67 -2400 000/00 RMK AO2
14837KMSN MSN20020213024509602/13/02 02:45:31  5-MIN KMSN 130845Z 00000KT 10SM CLR M10/M14 A3029 520 70 -2400 000/00 RMK AO2
14837KMSN MSN20020213025011902/13/02 02:50:31  5-MIN KMSN 130850Z 00000KT 10SM CLR M10/M15 A3029 520 67 -2400 000/00 RMK AO2 SLP270 T11001150 51025
14837KMSN MSN20020213025509602/13/02 02:55:31  5-MIN KMSN 130855Z 00000KT 10SM CLR M10/M14 A3029 520 73 -2400 000/00 RMK AO2
14837KMSN MSN20020213030009602/13/02 03:00:31  5-MIN KMSN 130900Z 00000KT 10SM CLR M10/M14 A3029 530 73 -2400 000/00 RMK AO2
14837KMSN MSN20020213030509602/13/02 03:05:31  5-MIN KMSN 130905Z 00000KT 10SM CLR M11/M14 A3029 530 77 -2500 000/00 RMK AO2
14837KMSN MSN20020213031009602/13/02 03:10:31  5-MIN KMSN 130910Z 00000KT 10SM CLR M10/M14 A3029 530 73 -2400 000/00 RMK AO2
14837KMSN MSN20020213031509602/13/02 03:15:31  5-MIN KMSN 130915Z 00000KT 10SM CLR M11/M14 A3029 530 73 -2400 000/00 RMK AO2
14837KMSN MSN20020213032009602/13/02 03:20:31  5-MIN KMSN 130920Z 00000KT 10SM CLR M09/M15 A3029 530 64 -2300 000/00 RMK AO2
14837KMSN MSN20020213032509602/13/02 03:25:31  5-MIN KMSN 130925Z 00000KT 10SM CLR M09/M15 A3029 530 64 -2300 000/00 RMK AO2
14837KMSN MSN20020213033009602/13/02 03:30:31  5-MIN KMSN 130930Z 00000KT 10SM CLR M09/M14 A3029 530 70 -2300 000/00 RMK AO2
14837KMSN MSN20020213033509602/13/02 03:35:31  5-MIN KMSN 130935Z 00000KT 10SM CLR M09/M14 A3029 520 70 -2300 000/00 RMK AO2
14837KMSN MSN20020213034009602/13/02 03:40:31  5-MIN KMSN 130940Z 00000KT 10SM CLR M09/M14 A3029 520 70 -2300 000/00 RMK AO2
14837KMSN MSN20020213034509602/13/02 03:45:31  5-MIN KMSN 130945Z 00000KT 10SM CLR M10/M14 A3029 520 73 -2400 000/00 RMK AO2
14837KMSN MSN20020213035011302/13/02 03:50:31  5-MIN KMSN 130950Z 00000KT 10SM CLR M10/M14 A3029 530 70 -2400 000/00 RMK AO2 SLP270 T11001144
14837KMSN MSN20020213035509602/13/02 03:55:31  5-MIN KMSN 130955Z 00000KT 10SM CLR M11/M14 A3029 520 73 -2500 000/00 RMK AO2
14837KMSN MSN20020213040009602/13/02 04:00:31  5-MIN KMSN 131000Z 00000KT 10SM CLR M10/M14 A3029 520 73 -2400 000/00 RMK AO2
14837KMSN MSN20020213040509602/13/02 04:05:31  5-MIN KMSN 131005Z 00000KT 10SM CLR M10/M13 A3029 520 77 -2400 000/00 RMK AO2
14837KMSN MSN20020213041009602/13/02 04:10:31  5-MIN KMSN 131010Z 00000KT 10SM CLR M10/M13 A3029 520 77 -2400 000/00 RMK AO2
14837KMSN MSN20020213041509602/13/02 04:15:31  5-MIN KMSN 131015Z 00000KT 10SM CLR M11/M13 A3029 520 80 -2500 000/00 RMK AO2
14837KMSN MSN20020213042009602/13/02 04:20:31  5-MIN KMSN 131020Z 00000KT 10SM CLR M10/M14 A3029 520 73 -2400 000/00 RMK AO2
14837KMSN MSN20020213042509602/13/02 04:25:31  5-MIN KMSN 131025Z 00000KT 10SM CLR M10/M14 A3030 520 73 -2400 000/00 RMK AO2
14837KMSN MSN20020213043009602/13/02 04:30:31  5-MIN KMSN 131030Z 00000KT 10SM CLR M10/M13 A3029 520 77 -2400 000/00 RMK AO2
14837KMSN MSN20020213043509602/13/02 04:35:31  5-MIN KMSN 131035Z 00000KT 10SM CLR M10/M13 A3029 520 80 -2400 000/00 RMK AO2
14837KMSN MSN20020213044009602/13/02 04:40:31  5-MIN KMSN 131040Z 00000KT 10SM CLR M10/M13 A3029 520 80 -2400 000/00 RMK AO2
14837KMSN MSN20020213044509602/13/02 04:45:31  5-MIN KMSN 131045Z 00000KT 10SM CLR M11/M13 A3030 520 80 -2500 000/00 RMK AO2
14837KMSN MSN20020213045011302/13/02 04:50:31  5-MIN KMSN 131050Z 00000KT 10SM CLR M11/M13 A3030 520 80 -2500 000/00 RMK AO2 SLP273 T11061133
14837KMSN MSN20020213045509602/13/02 04:55:31  5-MIN KMSN 131055Z 00000KT 10SM CLR M11/M14 A3030 520 77 -2500 000/00 RMK AO2
14837KMSN MSN20020213050009602/13/02 05:00:31  5-MIN KMSN 131100Z 00000KT 10SM CLR M11/M14 A3030 520 77 -2500 000/00 RMK AO2
14837KMSN MSN20020213050509602/13/02 05:05:31  5-MIN KMSN 131105Z 00000KT 10SM CLR M12/M14 A3030 510 84 -2600 000/00 RMK AO2
14837KMSN MSN20020213051009602/13/02 05:10:31  5-MIN KMSN 131110Z 00000KT 10SM CLR M11/M14 A3030 510 80 -2500 000/00 RMK AO2
14837KMSN MSN20020213051509602/13/02 05:15:31  5-MIN KMSN 131115Z 00000KT 10SM CLR M11/M13 A3030 510 80 -2500 000/00 RMK AO2
14837KMSN MSN20020213052009602/13/02 05:20:31  5-MIN KMSN 131120Z 00000KT 10SM CLR M11/M13 A3030 510 80 -2500 000/00 RMK AO2
14837KMSN MSN20020213052509602/13/02 05:25:31  5-MIN KMSN 131125Z 00000KT 10SM CLR M11/M14 A3030 510 77 -2500 000/00 RMK AO2
14837KMSN MSN20020213053009602/13/02 05:30:31  5-MIN KMSN 131130Z 00000KT 10SM CLR M11/M14 A3030 510 80 -2500 000/00 RMK AO2
14837KMSN MSN20020213053509602/13/02 05:35:31  5-MIN KMSN 131135Z 00000KT 10SM CLR M11/M14 A3030 510 80 -2500 000/00 RMK AO2
14837KMSN MSN20020213054009602/13/02 05:40:31  5-MIN KMSN 131140Z 00000KT 10SM CLR M11/M14 A3030 510 80 -2500 000/00 RMK AO2
14837KMSN MSN20020213054509602/13/02 05:45:31  5-MIN KMSN 131145Z 00000KT 10SM CLR M11/M14 A3030 510 80 -2500 000/00 RMK AO2
14837KMSN MSN20020213055013102/13/02 05:50:31  5-MIN KMSN 131150Z 00000KT 10SM CLR M11/M14 A3031 510 77 -2500 000/00 RMK AO2 SLP276 T11111144 11067 21117 51009
14837KMSN MSN20020213055509602/13/02 05:55:31  5-MIN KMSN 131155Z 00000KT 10SM CLR M11/M14 A3031 510 73 -2500 000/00 RMK AO2
14837KMSN MSN20020213060009602/13/02 06:00:31  5-MIN KMSN 131200Z 00000KT 10SM CLR M11/M14 A3031 510 73 -2500 000/00 RMK AO2
14837KMSN MSN20020213060509602/13/02 06:05:31  5-MIN KMSN 131205Z 00000KT 10SM CLR M11/M14 A3031 510 80 -2500 000/00 RMK AO2
14837KMSN MSN20020213061009602/13/02 06:10:31  5-MIN KMSN 131210Z 00000KT 10SM CLR M11/M14 A3031 510 77 -2500 000/00 RMK AO2
14837KMSN MSN20020213061509602/13/02 06:15:31  5-MIN KMSN 131215Z 00000KT 10SM CLR M11/M14 A3031 510 77 -2500 000/00 RMK AO2
14837KMSN MSN20020213062009602/13/02 06:20:31  5-MIN KMSN 131220Z 00000KT 10SM CLR M11/M15 A3031 510 70 -2500 000/00 RMK AO2
14837KMSN MSN20020213062509602/13/02 06:25:31  5-MIN KMSN 131225Z 00000KT 10SM CLR M11/M14 A3031 510 73 -2500 000/00 RMK AO2
14837KMSN MSN20020213063009602/13/02 06:30:31  5-MIN KMSN 131230Z 00000KT 10SM CLR M11/M14 A3031 500 77 -2600 000/00 RMK AO2
14837KMSN MSN20020213063509602/13/02 06:35:31  5-MIN KMSN 131235Z 00000KT 10SM CLR M11/M13 A3031 500 84 -2600 000/00 RMK AO2
14837KMSN MSN20020213064009602/13/02 06:40:31  5-MIN KMSN 131240Z 00000KT 10SM CLR M11/M13 A3031 500 84 -2600 000/00 RMK AO2
14837KMSN MSN20020213064509602/13/02 06:45:31  5-MIN KMSN 131245Z 00000KT 10SM CLR M11/M13 A3031 500 84 -2600 000/00 RMK AO2
14837KMSN MSN20020213065011302/13/02 06:50:31  5-MIN KMSN 131250Z 00000KT 10SM CLR M11/M14 A3031 500 80 -2600 000/00 RMK AO2 SLP280 T11111139
14837KMSN MSN20020213065509602/13/02 06:55:31  5-MIN KMSN 131255Z 20003KT 10SM CLR M11/M13 A3031 500 84 -2600 200/03 RMK AO2
14837KMSN MSN20020213070009602/13/02 07:00:31  5-MIN KMSN 131300Z 21003KT 10SM CLR M11/M13 A3032 500 84 -2600 200/03 RMK AO2
14837KMSN MSN20020213070509602/13/02 07:05:31  5-MIN KMSN 131305Z 00000KT 10SM CLR M11/M13 A3031 500 84 -2600 000/00 RMK AO2
14837KMSN MSN20020213071009602/13/02 07:10:31  5-MIN KMSN 131310Z 00000KT 10SM CLR M11/M13 A3031 500 84 -2600 000/00 RMK AO2
14837KMSN MSN20020213071509602/13/02 07:15:31  5-MIN KMSN 131315Z 19003KT 10SM CLR M11/M14 A3031 500 80 -2600 190/03 RMK AO2
14837KMSN MSN20020213072009602/13/02 07:20:31  5-MIN KMSN 131320Z 00000KT 10SM CLR M11/M13 A3032 500 84 -2600 000/00 RMK AO2
14837KMSN MSN20020213072509602/13/02 07:25:31  5-MIN KMSN 131325Z 19003KT 10SM CLR M11/M13 A3032 500 84 -2500 190/03 RMK AO2
14837KMSN MSN20020213073009602/13/02 07:30:31  5-MIN KMSN 131330Z 00000KT 10SM CLR M09/M13 A3031 500 77 -2300 000/00 RMK AO2
14837KMSN MSN20020213073509602/13/02 07:35:31  5-MIN KMSN 131335Z 00000KT 10SM CLR M09/M12 A3031 500 80 -2300 000/00 RMK AO2
14837KMSN MSN20020213074009602/13/02 07:40:31  5-MIN KMSN 131340Z 00000KT 10SM CLR M09/M12 A3032 500 77 -2300 000/00 RMK AO2
14837KMSN MSN20020213074509602/13/02 07:45:31  5-MIN KMSN 131345Z 18003KT 10SM CLR M08/M12 A3031 500 74 -2200 180/03 RMK AO2
14837KMSN MSN20020213075011302/13/02 07:50:31  5-MIN KMSN 131350Z 17004KT 10SM CLR M09/M12 A3031 500 77 -2300 170/04 RMK AO2 SLP279 T10891122
14837KMSN MSN20020213075509602/13/02 07:55:31  5-MIN KMSN 131355Z 18003KT 10SM CLR M08/M12 A3031 500 77 -2200 170/03 RMK AO2
14837KMSN MSN20020213080009602/13/02 08:00:31  5-MIN KMSN 131400Z 20003KT 10SM CLR M07/M12 A3031 500 71 -2000 200/03 RMK AO2
14837KMSN MSN20020213080509602/13/02 08:05:31  5-MIN KMSN 131405Z VRB04KT 10SM CLR M07/M12 A3031 500 65 -2000 VRB/04 RMK AO2
14837KMSN MSN20020213081009602/13/02 08:10:31  5-MIN KMSN 131410Z 21003KT 10SM CLR M07/M12 A3031 500 68 -2000 200/03 RMK AO2
14837KMSN MSN20020213081509602/13/02 08:15:31  5-MIN KMSN 131415Z 22004KT 10SM CLR M06/M12 A3032 500 62 -1900 220/04 RMK AO2
14837KMSN MSN20020213082009602/13/02 08:20:31  5-MIN KMSN 131420Z 22005KT 10SM CLR M06/M12 A3031 500 65 -1900 220/05 RMK AO2
14837KMSN MSN20020213082509602/13/02 08:25:31  5-MIN KMSN 131425Z 22004KT 10SM CLR M06/M12 A3031 500 65 -1900 220/04 RMK AO2
14837KMSN MSN20020213083009602/13/02 08:30:31  5-MIN KMSN 131430Z 23005KT 10SM CLR M06/M12 A3032 500 59 -1800 230/05 RMK AO2
14837KMSN MSN20020213083509602/13/02 08:35:31  5-MIN KMSN 131435Z 23007KT 10SM CLR M06/M12 A3032 500 59 -1800 230/07 RMK AO2
14837KMSN MSN20020213084009602/13/02 08:40:31  5-MIN KMSN 131440Z VRB05KT 10SM CLR M06/M12 A3032 500 59 -1800 VRB/05 RMK AO2
14837KMSN MSN20020213084509602/13/02 08:45:31  5-MIN KMSN 131445Z 24007KT 10SM CLR M06/M12 A3032 500 59 -1800 240/07 RMK AO2
14837KMSN MSN20020213085011902/13/02 08:50:31  5-MIN KMSN 131450Z 22008KT 10SM CLR M06/M12 A3032 500 59 -1800 220/08 RMK AO2 SLP281 T10561122 53005
14837KMSN MSN20020213085511202/13/02 08:55:31  5-MIN KMSN 131455Z 21008KT 180V240 10SM CLR M06/M13 A3032 500 57 -1800 210/08 180V240 RMK AO2
14837KMSN MSN20020213090009602/13/02 09:00:31  5-MIN KMSN 131500Z 23009KT 10SM CLR M05/M12 A3032 500 57 -1800 230/09 RMK AO2
14837KMSN MSN20020213090509602/13/02 09:05:31  5-MIN KMSN 131505Z 22007KT 10SM CLR M05/M12 A3032 500 57 -1800 220/07 RMK AO2
14837KMSN MSN20020213091009602/13/02 09:10:31  5-MIN KMSN 131510Z 20008KT 10SM CLR M05/M12 A3032 500 57 -1800 200/08 RMK AO2
14837KMSN MSN20020213091509602/13/02 09:15:31  5-MIN KMSN 131515Z 22009KT 10SM CLR M05/M13 A3032 500 55 -1800 220/09 RMK AO2
14837KMSN MSN20020213092009602/13/02 09:20:31  5-MIN KMSN 131520Z 22008KT 10SM CLR M05/M13 A3031 500 55 -1800 220/08 RMK AO2
14837KMSN MSN20020213092509602/13/02 09:25:31  5-MIN KMSN 131525Z 20009KT 10SM CLR M04/M12 A3032 500 57 -1700 200/09 RMK AO2
14837KMSN MSN20020213093011202/13/02 09:30:31  5-MIN KMSN 131530Z 22007KT 180V250 10SM CLR M04/M13 A3032 500 52 -1700 210/07 180V250 RMK AO2
14837KMSN MSN20020213093510202/13/02 09:35:31  5-MIN KMSN 131535Z VRB05G14KT 10SM CLR M04/M13 A3032 500 50 -1700 VRB/05G14 RMK AO2
14837KMSN MSN20020213094010202/13/02 09:40:31  5-MIN KMSN 131540Z 21009G14KT 10SM CLR M04/M12 A3032 500 52 -1600 210/09G14 RMK AO2
14837KMSN MSN20020213094509602/13/02 09:45:31  5-MIN KMSN 131545Z 20008KT 10SM CLR M04/M13 A3032 500 50 -1600 200/08 RMK AO2
14837KMSN MSN20020213095011302/13/02 09:50:31  5-MIN KMSN 131550Z 23009KT 10SM CLR M04/M13 A3032 500 48 -1600 230/09 RMK AO2 SLP279 T10391133
14837KMSN MSN20020213095511202/13/02 09:55:31  5-MIN KMSN 131555Z 23008KT 200V260 10SM CLR M04/M13 A3032 500 48 -1600 230/08 200V260 RMK AO2
14837KMSN MSN20020213100009602/13/02 10:00:31  5-MIN KMSN 131600Z 21011KT 10SM CLR M04/M13 A3032 500 48 -1600 210/11 RMK AO2
14837KMSN MSN20020213100509602/13/02 10:05:31  5-MIN KMSN 131605Z 22009KT 10SM CLR M03/M13 A3031 500 46 -1500 220/09 RMK AO2
14837KMSN MSN20020213101010202/13/02 10:10:31  5-MIN KMSN 131610Z 23010G15KT 10SM CLR M04/M13 A3031 500 48 -1600 230/10G15 RMK AO2
14837KMSN MSN20020213101509602/13/02 10:15:31  5-MIN KMSN 131615Z 23008KT 10SM CLR M03/M13 A3031 510 46 -1500 230/08 RMK AO2
14837KMSN MSN20020213102011202/13/02 10:20:31  5-MIN KMSN 131620Z 23008KT 200V270 10SM CLR M03/M13 A3031 500 48 -1500 230/08 200V270 RMK AO2
14837KMSN MSN20020213102511202/13/02 10:25:31  5-MIN KMSN 131625Z 23009KT 210V270 10SM CLR M03/M13 A3031 500 48 -1500 230/09 210V270 RMK AO2
14837KMSN MSN20020213103009602/13/02 10:30:31  5-MIN KMSN 131630Z 22007KT 10SM CLR M03/M12 A3031 510 48 -1500 220/07 RMK AO2
14837KMSN MSN20020213103509602/13/02 10:35:31  5-MIN KMSN 131635Z 24010KT 10SM CLR M03/M12 A3031 500 48 -1500 240/10 RMK AO2
14837KMSN MSN20020213104009602/13/02 10:40:31  5-MIN KMSN 131640Z 22011KT 10SM CLR M03/M13 A3031 500 46 -1500 220/11 RMK AO2
14837KMSN MSN20020213104511202/13/02 10:45:31  5-MIN KMSN 131645Z 23010KT 210V270 10SM CLR M03/M13 A3031 510 46 -1500 230/10 210V270 RMK AO2
14837KMSN MSN20020213105011902/13/02 10:50:31  5-MIN KMSN 131650Z 23011G16KT 10SM CLR M03/M12 A3031 510 48 -1500 230/11G16 RMK AO2 SLP276 T10281122
14837KMSN MSN20020213105510202/13/02 10:55:31  5-MIN KMSN 131655Z 23009G16KT 10SM CLR M02/M12 A3031 510 46 -1400 230/09G16 RMK AO2
14837KMSN MSN20020213110010202/13/02 11:00:31  5-MIN KMSN 131700Z 22009G15KT 10SM CLR M02/M12 A3030 510 48 -1400 220/09G15 RMK AO2
14837KMSN MSN20020213110510202/13/02 11:05:31  5-MIN KMSN 131705Z 23009G15KT 10SM CLR M02/M12 A3030 510 48 -1400 230/09G15 RMK AO2
14837KMSN MSN20020213111011202/13/02 11:10:31  5-MIN KMSN 131710Z 20009KT 170V240 10SM CLR M02/M12 A3030 510 46 -1300 200/09 170V240 RMK AO2
14837KMSN MSN20020213111510202/13/02 11:15:31  5-MIN KMSN 131715Z 21009G16KT 10SM CLR M02/M12 A3030 520 48 -1400 210/09G16 RMK AO2
14837KMSN MSN20020213112010202/13/02 11:20:31  5-MIN KMSN 131720Z 23010G16KT 10SM CLR M02/M11 A3030 520 49 -1300 230/10G16 RMK AO2
14837KMSN MSN20020213112512102/13/02 11:25:31  5-MIN KMSN 131725Z 24010G16KT 210V270 10SM SCT085 M02/M12 A3030 520 46 -1300 240/10G16 210V270 RMK AO2
14837KMSN MSN20020213113012102/13/02 11:30:31  5-MIN KMSN 131730Z 23010G16KT 180V260 10SM SCT085 M02/M11 A3030 520 49 -1300 230/10G16 180V260 RMK AO2
14837KMSN MSN20020213113512102/13/02 11:35:31  5-MIN KMSN 131735Z 23007G15KT 200V260 10SM SCT085 M01/M11 A3029 520 49 -1200 230/07G15 200V260 RMK AO2
14837KMSN MSN20020213114010502/13/02 11:40:31  5-MIN KMSN 131740Z 22011G15KT 10SM SCT085 M01/M11 A3029 520 47 -1200 220/11G15 RMK AO2
14837KMSN MSN20020213114512102/13/02 11:45:31  5-MIN KMSN 131745Z 24010G15KT 200V260 10SM SCT085 M02/M12 A3029 520 46 -1300 240/10G15 200V260 RMK AO2
14837KMSN MSN20020213115015002/13/02 11:50:31  5-MIN KMSN 131750Z 22009KT 190V260 10SM FEW085 M01/M11 A3029 520 47 -1200 220/09 190V260 RMK AO2 SLP270 T10111111 11011 21111 51004
14837KMSN MSN20020213115510502/13/02 11:55:31  5-MIN KMSN 131755Z 23009G15KT 10SM SCT085 M01/M11 A3029 520 47 -1200 230/09G15 RMK AO2
14837KMSN MSN20020213120010502/13/02 12:00:31  5-MIN KMSN 131800Z 24008G15KT 10SM FEW085 M01/M11 A3029 530 49 -1200 240/08G15 RMK AO2
14837KMSN MSN20020213120510502/13/02 12:05:31  5-MIN KMSN 131805Z 23011G15KT 10SM FEW085 M01/M11 A3029 530 47 -1200 230/11G15 RMK AO2
14837KMSN MSN20020213121009902/13/02 12:10:31  5-MIN KMSN 131810Z 23008KT 10SM FEW085 M01/M11 A3028 530 47 -1200 230/08 RMK AO2
14837KMSN MSN20020213121509602/13/02 12:15:31  5-MIN KMSN 131815Z 23010KT 10SM CLR M01/M10 A3028 530 49 -1200 230/10 RMK AO2
14837KMSN MSN20020213122009602/13/02 12:20:31  5-MIN KMSN 131820Z 23011KT 10SM CLR M01/M11 A3028 530 49 -1200 230/11 RMK AO2
14837KMSN MSN20020213122509602/13/02 12:25:31  5-MIN KMSN 131825Z 22010KT 10SM CLR M01/M10 A3027 540 49 -1100 220/10 RMK AO2
14837KMSN MSN20020213123009602/13/02 12:30:31  5-MIN KMSN 131830Z 22010KT 10SM CLR M01/M10 A3027 540 49 -1100 220/10 RMK AO2
14837KMSN MSN20020213123509602/13/02 12:35:31  5-MIN KMSN 131835Z 24011KT 10SM CLR M01/M10 A3027 550 49 -1100 230/11 RMK AO2
14837KMSN MSN20020213124011202/13/02 12:40:31  5-MIN KMSN 131840Z 23009KT 190V270 10SM CLR M01/M11 A3026 550 47 -1100 230/09 190V270 RMK AO2
14837KMSN MSN20020213124509502/13/02 12:45:31  5-MIN KMSN 131845Z 23010KT 10SM CLR 00/M10 A3026 550 47 -1100 230/10 RMK AO2
14837KMSN MSN20020213125011202/13/02 12:50:31  5-MIN KMSN 131850Z 23008KT 10SM CLR 00/M10 A3026 550 47 -1100 230/08 RMK AO2 SLP259 T00001100
14837KMSN MSN20020213125511102/13/02 12:55:31  5-MIN KMSN 131855Z 23008KT 200V260 10SM CLR 00/M09 A3026 550 49 -1100 230/08 200V260 RMK AO2
14837KMSN MSN20020213130009502/13/02 13:00:31  5-MIN KMSN 131900Z 23009KT 10SM CLR 00/M09 A3026 560 49 -1100 220/09 RMK AO2
14837KMSN MSN20020213130509502/13/02 13:05:31  5-MIN KMSN 131905Z 22010KT 10SM CLR 00/M09 A3026 560 49 -1100 220/10 RMK AO2
14837KMSN MSN20020213131009502/13/02 13:10:31  5-MIN KMSN 131910Z 23007KT 10SM CLR 01/M09 A3025 560 47 -1000 230/07 RMK AO2
14837KMSN MSN20020213131509502/13/02 13:15:31  5-MIN KMSN 131915Z 22011KT 10SM CLR 01/M09 A3025 560 49 -1000 220/11 RMK AO2
14837KMSN MSN20020213132009502/13/02 13:20:31  5-MIN KMSN 131920Z 23012KT 10SM CLR 01/M09 A3025 560 49 -1000 230/12 RMK AO2
14837KMSN MSN20020213132509502/13/02 13:25:31  5-MIN KMSN 131925Z 23010KT 10SM CLR 01/M09 A3025 570 49 -1000 230/10 RMK AO2
14837KMSN MSN20020213133009502/13/02 13:30:31  5-MIN KMSN 131930Z 23011KT 10SM CLR 01/M09 A3024 570 49 -1000 230/11 RMK AO2
14837KMSN MSN20020213133509502/13/02 13:35:31  5-MIN KMSN 131935Z 23010KT 10SM CLR 01/M08 A3024 570 51 -1000 230/10 RMK AO2
14837KMSN MSN20020213134009502/13/02 13:40:31  5-MIN KMSN 131940Z 22010KT 10SM CLR 01/M08 A3024 570 51 -1000 220/10 RMK AO2
14837KMSN MSN20020213134511702/13/02 13:45:31  5-MIN KMSN 131945Z 22007G15KT 180V240 10SM CLR 01/M08 A3023 580 51 -1000 220/07G15 180V240 RMK AO2
14837KMSN MSN20020213135011102/13/02 13:50:31  5-MIN KMSN 131950Z 23009KT 10SM CLR 01/M08 A3023 580 51 -900 230/09 RMK AO2 SLP249 T00111078
14837KMSN MSN20020213135509402/13/02 13:55:31  5-MIN KMSN 131955Z 22007KT 10SM CLR 01/M08 A3022 580 51 -900 220/07 RMK AO2
14837KMSN MSN20020213140009402/13/02 14:00:31  5-MIN KMSN 132000Z 23010KT 10SM CLR 01/M08 A3023 580 51 -900 230/10 RMK AO2
14837KMSN MSN20020213140509402/13/02 14:05:31  5-MIN KMSN 132005Z 24011KT 10SM CLR 01/M08 A3022 580 51 -900 240/11 RMK AO2
14837KMSN MSN20020213141010002/13/02 14:10:31  5-MIN KMSN 132010Z 22011G16KT 10SM CLR 01/M08 A3022 590 51 -900 220/11G16 RMK AO2
14837KMSN MSN20020213141510002/13/02 14:15:31  5-MIN KMSN 132015Z 23011G16KT 10SM CLR 01/M08 A3022 590 51 -900 230/11G16 RMK AO2
14837KMSN MSN20020213142009402/13/02 14:20:31  5-MIN KMSN 132020Z 23010KT 10SM CLR 01/M08 A3022 590 51 -900 230/10 RMK AO2
14837KMSN MSN20020213142511002/13/02 14:25:31  5-MIN KMSN 132025Z 22009KT 200V260 10SM CLR 02/M07 A3022 590 52 -800 220/09 200V260 RMK AO2
14837KMSN MSN20020213143009402/13/02 14:30:31  5-MIN KMSN 132030Z 23010KT 10SM CLR 02/M07 A3022 590 52 -800 220/10 RMK AO2
14837KMSN MSN20020213143509402/13/02 14:35:31  5-MIN KMSN 132035Z 23010KT 10SM CLR 02/M07 A3022 590 54 -800 230/10 RMK AO2
14837KMSN MSN20020213144010002/13/02 14:40:31  5-MIN KMSN 132040Z 22011G15KT 10SM CLR 02/M07 A3022 590 52 -800 210/11G15 RMK AO2
14837KMSN MSN20020213144510002/13/02 14:45:31  5-MIN KMSN 132045Z 23009G15KT 10SM CLR 02/M07 A3021 600 52 -800 220/09G15 RMK AO2
14837KMSN MSN20020213145012302/13/02 14:50:31  5-MIN KMSN 132050Z 23009G15KT 10SM CLR 02/M07 A3021 600 52 -800 230/09G15 RMK AO2 SLP243 T00171072 58009
14837KMSN MSN20020213145509402/13/02 14:55:31  5-MIN KMSN 132055Z 22008KT 10SM CLR 02/M07 A3021 600 54 -800 220/08 RMK AO2
14837KMSN MSN20020213150011002/13/02 15:00:31  5-MIN KMSN 132100Z 22009KT 200V270 10SM CLR 02/M07 A3021 600 54 -800 220/09 200V270 RMK AO2
14837KMSN MSN20020213150509402/13/02 15:05:31  5-MIN KMSN 132105Z 22009KT 10SM CLR 02/M07 A3020 600 54 -800 220/09 RMK AO2
14837KMSN MSN20020213151009402/13/02 15:10:31  5-MIN KMSN 132110Z 23010KT 10SM CLR 02/M07 A3020 600 52 -800 230/10 RMK AO2
14837KMSN MSN20020213151509402/13/02 15:15:31  5-MIN KMSN 132115Z 22008KT 10SM CLR 02/M07 A3020 610 52 -700 220/08 RMK AO2
14837KMSN MSN20020213152009402/13/02 15:20:31  5-MIN KMSN 132120Z 22008KT 10SM CLR 02/M07 A3020 610 52 -700 220/08 RMK AO2
14837KMSN MSN20020213152511002/13/02 15:25:31  5-MIN KMSN 132125Z 22007KT 200V260 10SM CLR 02/M07 A3020 610 52 -700 220/07 200V260 RMK AO2
14837KMSN MSN20020213153009402/13/02 15:30:31  5-MIN KMSN 132130Z 22008KT 10SM CLR 02/M07 A3019 610 52 -700 220/08 RMK AO2
14837KMSN MSN20020213153509402/13/02 15:35:31  5-MIN KMSN 132135Z 23008KT 10SM CLR 02/M07 A3019 610 52 -700 230/08 RMK AO2
14837KMSN MSN20020213154009402/13/02 15:40:31  5-MIN KMSN 132140Z 22009KT 10SM CLR 02/M07 A3019 620 52 -700 220/09 RMK AO2
14837KMSN MSN20020213154509402/13/02 15:45:31  5-MIN KMSN 132145Z 22008KT 10SM CLR 02/M07 A3019 620 52 -700 220/08 RMK AO2
14837KMSN MSN20020213155011102/13/02 15:50:31  5-MIN KMSN 132150Z 22008KT 10SM CLR 02/M07 A3019 620 52 -700 220/08 RMK AO2 SLP234 T00221067
14837KMSN MSN20020213155509402/13/02 15:55:31  5-MIN KMSN 132155Z 21011KT 10SM CLR 02/M07 A3018 620 52 -700 210/11 RMK AO2
14837KMSN MSN20020213160009402/13/02 16:00:31  5-MIN KMSN 132200Z 20009KT 10SM CLR 02/M07 A3018 620 52 -700 190/09 RMK AO2
14837KMSN MSN20020213160509402/13/02 16:05:31  5-MIN KMSN 132205Z 20009KT 10SM CLR 02/M07 A3018 630 52 -700 200/09 RMK AO2
14837KMSN MSN20020213161009402/13/02 16:10:31  5-MIN KMSN 132210Z 21008KT 10SM CLR 02/M07 A3018 630 52 -700 210/08 RMK AO2
14837KMSN MSN20020213161509402/13/02 16:15:31  5-MIN KMSN 132215Z 22011KT 10SM CLR 02/M07 A3018 630 52 -700 220/11 RMK AO2
14837KMSN MSN20020213162010002/13/02 16:20:31  5-MIN KMSN 132220Z 21009G16KT 10SM CLR 02/M07 A3018 630 50 -700 210/09G16 RMK AO2
14837KMSN MSN20020213162510002/13/02 16:25:31  5-MIN KMSN 132225Z 21008G16KT 10SM CLR 02/M07 A3018 630 52 -700 210/08G16 RMK AO2
14837KMSN MSN20020213163009402/13/02 16:30:31  5-MIN KMSN 132230Z 21009KT 10SM CLR 02/M07 A3018 630 52 -700 210/09 RMK AO2
14837KMSN MSN20020213163510002/13/02 16:35:31  5-MIN KMSN 132235Z 21010G14KT 10SM CLR 02/M07 A3018 630 52 -700 210/10G14 RMK AO2
14837KMSN MSN20020213164010002/13/02 16:40:31  5-MIN KMSN 132240Z 22012G19KT 10SM CLR 02/M07 A3017 630 52 -700 220/12G19 RMK AO2
14837KMSN MSN20020213164510002/13/02 16:45:31  5-MIN KMSN 132245Z 20007G19KT 10SM CLR 02/M07 A3017 630 54 -700 200/07G19 RMK AO2
14837KMSN MSN20020213165011702/13/02 16:50:31  5-MIN KMSN 132250Z 21009G16KT 10SM CLR 02/M07 A3017 630 52 -700 210/09G16 RMK AO2 SLP230 T00221067
14837KMSN MSN20020213165509402/13/02 16:55:31  5-MIN KMSN 132255Z 21009KT 10SM CLR 02/M07 A3017 630 50 -700 210/09 RMK AO2
14837KMSN MSN20020213170009402/13/02 17:00:31  5-MIN KMSN 132300Z 21008KT 10SM CLR 02/M07 A3017 640 54 -700 210/08 RMK AO2
14837KMSN MSN20020213170509402/13/02 17:05:31  5-MIN KMSN 132305Z 21008KT 10SM CLR 02/M07 A3017 640 54 -700 210/08 RMK AO2
14837KMSN MSN20020213171009402/13/02 17:10:31  5-MIN KMSN 132310Z 21008KT 10SM CLR 02/M07 A3017 640 54 -700 210/08 RMK AO2
14837KMSN MSN20020213171509402/13/02 17:15:31  5-MIN KMSN 132315Z 21010KT 10SM CLR 02/M07 A3017 630 52 -700 210/10 RMK AO2
14837KMSN MSN20020213172009402/13/02 17:20:31  5-MIN KMSN 132320Z 22008KT 10SM CLR 02/M07 A3017 640 52 -700 220/08 RMK AO2
14837KMSN MSN20020213172510002/13/02 17:25:31  5-MIN KMSN 132325Z 20006G14KT 10SM CLR 02/M07 A3017 640 54 -700 200/06G14 RMK AO2
14837KMSN MSN20020213173009402/13/02 17:30:31  5-MIN KMSN 132330Z 21007KT 10SM CLR 01/M07 A3017 640 56 -800 210/07 RMK AO2
14837KMSN MSN20020213173509402/13/02 17:35:31  5-MIN KMSN 132335Z 21008KT 10SM CLR 01/M07 A3017 640 56 -800 210/08 RMK AO2
14837KMSN MSN20020213174009402/13/02 17:40:31  5-MIN KMSN 132340Z 20007KT 10SM CLR 01/M07 A3016 640 56 -800 200/07 RMK AO2
14837KMSN MSN20020213174509402/13/02 17:45:31  5-MIN KMSN 132345Z 20009KT 10SM CLR 01/M07 A3016 640 56 -800 200/09 RMK AO2
14837KMSN MSN20020213175012902/13/02 17:50:31  5-MIN KMSN 132350Z 20008KT 10SM CLR 01/M07 A3016 640 56 -800 200/08 RMK AO2 SLP228 T00111067 10022 21011 56026
14837KMSN MSN20020213175509402/13/02 17:55:31  5-MIN KMSN 132355Z 20010KT 10SM CLR 01/M07 A3016 640 56 -800 190/10 RMK AO2
14837KMSN MSN20020213180009402/13/02 18:00:31  5-MIN KMSN 140000Z 20008KT 10SM CLR 01/M07 A3016 640 56 -800 200/08 RMK AO2
14837KMSN MSN20020213180509402/13/02 18:05:31  5-MIN KMSN 140005Z 20010KT 10SM CLR 01/M07 A3017 640 56 -800 200/10 RMK AO2
14837KMSN MSN20020213181009402/13/02 18:10:31  5-MIN KMSN 140010Z 20009KT 10SM CLR 01/M07 A3016 640 56 -800 200/09 RMK AO2
14837KMSN MSN20020213181509402/13/02 18:15:31  5-MIN KMSN 140015Z 20007KT 10SM CLR 01/M07 A3017 640 58 -900 190/07 RMK AO2
14837KMSN MSN20020213182009402/13/02 18:20:31  5-MIN KMSN 140020Z 19010KT 10SM CLR 01/M07 A3016 640 58 -900 190/10 RMK AO2
14837KMSN MSN20020213182509402/13/02 18:25:31  5-MIN KMSN 140025Z 19011KT 10SM CLR 01/M07 A3016 640 58 -900 190/11 RMK AO2
14837KMSN MSN20020213183009402/13/02 18:30:31  5-MIN KMSN 140030Z 20010KT 10SM CLR 01/M06 A3016 640 61 -900 200/10 RMK AO2
14837KMSN MSN20020213183509402/13/02 18:35:31  5-MIN KMSN 140035Z 19011KT 10SM CLR 01/M06 A3017 640 61 -900 190/11 RMK AO2
14837KMSN MSN20020213184009402/13/02 18:40:31  5-MIN KMSN 140040Z 20009KT 10SM CLR 01/M06 A3016 640 61 -900 190/09 RMK AO2
14837KMSN MSN20020213184509402/13/02 18:45:31  5-MIN KMSN 140045Z 19011KT 10SM CLR 01/M06 A3016 640 61 -900 190/11 RMK AO2
14837KMSN MSN20020213185011102/13/02 18:50:31  5-MIN KMSN 140050Z 19011KT 10SM CLR 01/M06 A3016 640 61 -900 190/11 RMK AO2 SLP227 T00061061
14837KMSN MSN20020213185510002/13/02 18:55:31  5-MIN KMSN 140055Z 20009G16KT 10SM CLR 00/M06 A3016 640 63 -900 200/09G16 RMK AO2
14837KMSN MSN20020213190009402/13/02 19:00:31  5-MIN KMSN 140100Z 20011KT 10SM CLR 00/M06 A3016 650 63 -900 200/11 RMK AO2
14837KMSN MSN20020213190509402/13/02 19:05:31  5-MIN KMSN 140105Z 20009KT 10SM CLR 00/M06 A3016 650 63 -900 190/09 RMK AO2
14837KMSN MSN20020213191010002/13/02 19:10:31  5-MIN KMSN 140110Z 19012G16KT 10SM CLR 00/M06 A3015 650 66 -900 190/12G16 RMK AO2
14837KMSN MSN20020213191509402/13/02 19:15:31  5-MIN KMSN 140115Z 19011KT 10SM CLR 00/M06 A3015 650 63 -900 190/11 RMK AO2
14837KMSN MSN20020213192009402/13/02 19:20:31  5-MIN KMSN 140120Z 20011KT 10SM CLR 00/M06 A3015 650 66 -900 190/11 RMK AO2
14837KMSN MSN20020213192509402/13/02 19:25:31  5-MIN KMSN 140125Z 20010KT 10SM CLR 00/M06 A3015 650 66 -900 200/10 RMK AO2
14837KMSN MSN20020213193009402/13/02 19:30:31  5-MIN KMSN 140130Z 19010KT 10SM CLR 00/M06 A3015 650 66 -900 190/10 RMK AO2
14837KMSN MSN20020213193509402/13/02 19:35:31  5-MIN KMSN 140135Z 19012KT 10SM CLR 00/M06 A3015 650 66 -900 190/12 RMK AO2
14837KMSN MSN20020213194010002/13/02 19:40:31  5-MIN KMSN 140140Z 19009G16KT 10SM CLR 00/M06 A3015 650 66 -900 190/09G16 RMK AO2
14837KMSN MSN20020213194510002/13/02 19:45:31  5-MIN KMSN 140145Z 20008G16KT 10SM CLR 00/M06 A3015 650 66 -900 200/08G16 RMK AO2
14837KMSN MSN20020213195011102/13/02 19:50:31  5-MIN KMSN 140150Z 19009KT 10SM CLR 00/M06 A3015 650 66 -900 190/09 RMK AO2 SLP223 T00001056
14837KMSN MSN20020213195510002/13/02 19:55:31  5-MIN KMSN 140155Z 20011G17KT 10SM CLR 00/M06 A3015 650 66 -900 190/11G17 RMK AO2
14837KMSN MSN20020213200010202/13/02 20:00:31  5-MIN KMSN 140200Z 19012G17KT 10SM CLR M01/M06 A3015 650 69 -1000 190/12G17 RMK AO2
14837KMSN MSN20020213200510002/13/02 20:05:31  5-MIN KMSN 140205Z 19010G16KT 10SM CLR 00/M06 A3015 650 66 -900 190/10G16 RMK AO2
14837KMSN MSN20020213201009602/13/02 20:10:31  5-MIN KMSN 140210Z 20010KT 10SM CLR M01/M06 A3015 650 69 -1000 200/10 RMK AO2
14837KMSN MSN20020213201509402/13/02 20:15:31  5-MIN KMSN 140215Z 19011KT 10SM CLR 00/M06 A3015 650 66 -900 190/11 RMK AO2
14837KMSN MSN20020213202009602/13/02 20:20:31  5-MIN KMSN 140220Z 19010KT 10SM CLR M01/M06 A3015 650 69 -1000 190/10 RMK AO2
14837KMSN MSN20020213202509602/13/02 20:25:31  5-MIN KMSN 140225Z 20008KT 10SM CLR M01/M06 A3015 650 69 -1000 200/08 RMK AO2
14837KMSN MSN20020213203009602/13/02 20:30:31  5-MIN KMSN 140230Z 19011KT 10SM CLR M01/M06 A3015 660 69 -1000 190/11 RMK AO2
14837KMSN MSN20020213203509602/13/02 20:35:31  5-MIN KMSN 140235Z 20009KT 10SM CLR M01/M06 A3014 660 69 -1000 200/09 RMK AO2
14837KMSN MSN20020213204009602/13/02 20:40:31  5-MIN KMSN 140240Z 20008KT 10SM CLR M01/M06 A3014 660 69 -1000 200/08 RMK AO2
14837KMSN MSN20020213204510202/13/02 20:45:31  5-MIN KMSN 140245Z 20010G17KT 10SM CLR M01/M06 A3014 660 69 -1000 200/10G17 RMK AO2
14837KMSN MSN20020213205012502/13/02 20:50:31  5-MIN KMSN 140250Z 20010G17KT 10SM CLR M01/M06 A3014 660 69 -1000 200/10G17 RMK AO2 SLP218 T10061056 56015
14837KMSN MSN20020213205510002/13/02 20:55:31  5-MIN KMSN 140255Z 20008G16KT 10SM CLR 00/M06 A3014 660 66 -900 200/08G16 RMK AO2
14837KMSN MSN20020213210009602/13/02 21:00:31  5-MIN KMSN 140300Z 20009KT 10SM CLR M01/M06 A3014 660 69 -1000 200/09 RMK AO2
14837KMSN MSN20020213210509602/13/02 21:05:31  5-MIN KMSN 140305Z 19009KT 10SM CLR M01/M06 A3014 660 69 -1000 190/09 RMK AO2
14837KMSN MSN20020213211009602/13/02 21:10:31  5-MIN KMSN 140310Z 20007KT 10SM CLR M01/M06 A3014 670 69 -1000 200/07 RMK AO2
14837KMSN MSN20020213211510202/13/02 21:15:31  5-MIN KMSN 140315Z 20011G16KT 10SM CLR M01/M06 A3014 670 69 -1000 190/11G16 RMK AO2
14837KMSN MSN20020213212010202/13/02 21:20:31  5-MIN KMSN 140320Z 21008G16KT 10SM CLR M01/M06 A3014 670 69 -1000 210/08G16 RMK AO2
14837KMSN MSN20020213212509602/13/02 21:25:31  5-MIN KMSN 140325Z 20008KT 10SM CLR M01/M06 A3014 670 69 -1000 200/08 RMK AO2
14837KMSN MSN20020213213009602/13/02 21:30:31  5-MIN KMSN 140330Z 20010KT 10SM CLR M01/M06 A3013 670 69 -1000 200/10 RMK AO2
14837KMSN MSN20020213213509602/13/02 21:35:31  5-MIN KMSN 140335Z 20009KT 10SM CLR M01/M06 A3013 670 69 -1000 200/09 RMK AO2
14837KMSN MSN20020213214009602/13/02 21:40:31  5-MIN KMSN 140340Z 20010KT 10SM CLR M01/M06 A3013 670 69 -1000 200/10 RMK AO2
14837KMSN MSN20020213214509602/13/02 21:45:31  5-MIN KMSN 140345Z 21008KT 10SM CLR M01/M06 A3013 670 69 -1000 210/08 RMK AO2
14837KMSN MSN20020213215011302/13/02 21:50:31  5-MIN KMSN 140350Z 21008KT 10SM CLR M01/M06 A3013 670 69 -1000 210/08 RMK AO2 SLP215 T10061056
14837KMSN MSN20020213215510202/13/02 21:55:31  5-MIN KMSN 140355Z 21009G15KT 10SM CLR M01/M06 A3013 670 69 -1000 210/09G15 RMK AO2
14837KMSN MSN20020213220010202/13/02 22:00:31  5-MIN KMSN 140400Z 20008G15KT 10SM CLR M01/M06 A3013 670 69 -1000 200/08G15 RMK AO2
14837KMSN MSN20020213220510202/13/02 22:05:31  5-MIN KMSN 140405Z 21010G15KT 10SM CLR M01/M06 A3013 670 69 -1000 210/10G15 RMK AO2
14837KMSN MSN20020213221009602/13/02 22:10:31  5-MIN KMSN 140410Z 21009KT 10SM CLR M01/M06 A3013 670 69 -1000 210/09 RMK AO2
14837KMSN MSN20020213221509602/13/02 22:15:31  5-MIN KMSN 140415Z 20008KT 10SM CLR M01/M06 A3012 680 69 -1000 200/08 RMK AO2
14837KMSN MSN20020213222009602/13/02 22:20:31  5-MIN KMSN 140420Z 21009KT 10SM CLR M01/M06 A3012 680 69 -1000 200/09 RMK AO2
14837KMSN MSN20020213222509602/13/02 22:25:31  5-MIN KMSN 140425Z 20010KT 10SM CLR M01/M06 A3013 680 69 -1000 200/10 RMK AO2
14837KMSN MSN20020213223009602/13/02 22:30:31  5-MIN KMSN 140430Z 20007KT 10SM CLR M01/M06 A3012 680 69 -1000 200/07 RMK AO2
14837KMSN MSN20020213223509602/13/02 22:35:31  5-MIN KMSN 140435Z 20009KT 10SM CLR M01/M06 A3012 680 69 -1000 200/09 RMK AO2
14837KMSN MSN20020213224009602/13/02 22:40:31  5-MIN KMSN 140440Z 20008KT 10SM CLR M01/M06 A3012 680 69 -1000 200/08 RMK AO2
14837KMSN MSN20020213224509602/13/02 22:45:31  5-MIN KMSN 140445Z 20010KT 10SM CLR M01/M06 A3012 680 69 -1000 200/10 RMK AO2
14837KMSN MSN20020213225011302/13/02 22:50:31  5-MIN KMSN 140450Z 20008KT 10SM CLR M01/M06 A3011 690 69 -1000 200/08 RMK AO2 SLP208 T10061056
14837KMSN MSN20020213225509602/13/02 22:55:31  5-MIN KMSN 140455Z 20008KT 10SM CLR M01/M06 A3011 690 69 -1000 190/08 RMK AO2
14837KMSN MSN20020213230009602/13/02 23:00:31  5-MIN KMSN 140500Z 20007KT 10SM CLR M01/M06 A3011 690 69 -1000 200/07 RMK AO2
14837KMSN MSN20020213230509602/13/02 23:05:31  5-MIN KMSN 140505Z 20009KT 10SM CLR M01/M06 A3011 690 69 -1000 200/09 RMK AO2
14837KMSN MSN20020213231009602/13/02 23:10:31  5-MIN KMSN 140510Z 21008KT 10SM CLR M01/M06 A3011 690 69 -1000 210/08 RMK AO2
14837KMSN MSN20020213231510202/13/02 23:15:31  5-MIN KMSN 140515Z 19009G14KT 10SM CLR M01/M06 A3011 690 69 -1000 190/09G14 RMK AO2
14837KMSN MSN20020213232010202/13/02 23:20:31  5-MIN KMSN 140520Z 21010G14KT 10SM CLR M01/M06 A3011 690 69 -1000 210/10G14 RMK AO2
14837KMSN MSN20020213232509602/13/02 23:25:31  5-MIN KMSN 140525Z 21009KT 10SM CLR M01/M06 A3011 690 69 -1000 210/09 RMK AO2
14837KMSN MSN20020213233009502/13/02 23:30:31  5-MIN KMSN 140530Z 20008KT 10SM CLR M01/M06 A3010 690 69 -900 200/08 RMK AO2
14837KMSN MSN20020213233509602/13/02 23:35:31  5-MIN KMSN 140535Z 20009KT 10SM CLR M01/M06 A3010 700 72 -1000 200/09 RMK AO2
14837KMSN MSN20020213234009502/13/02 23:40:31  5-MIN KMSN 140540Z 21008KT 10SM CLR M01/M06 A3010 700 69 -900 210/08 RMK AO2
14837KMSN MSN20020213234509502/13/02 23:45:31  5-MIN KMSN 140545Z 21008KT 10SM CLR M01/M06 A3010 690 69 -900 210/08 RMK AO2
14837KMSN MSN20020213235014002/13/02 23:50:31  5-MIN KMSN 140550Z 20010KT 10SM CLR M01/M06 A3010 690 69 -900 200/10 RMK AO2 SLP205 T10061056 10011 21011 400221117 58009
14837KMSN MSN20020213235510202/13/02 23:55:31  5-MIN KMSN 140555Z 21009G15KT 10SM CLR M01/M06 A3011 690 69 -1000 210/09G15 RMK AO2
14837KMSN MSN20020214000009602/14/02 00:00:31  5-MIN KMSN 140600Z 20009KT 10SM CLR M01/M06 A3011 690 69 -1000 200/09 RMK AO2
14837KMSN MSN20020214000509602/14/02 00:05:31  5-MIN KMSN 140605Z 21009KT 10SM CLR M01/M06 A3011 690 69 -1000 210/09 RMK AO2
14837KMSN MSN20020214001009602/14/02 00:10:31  5-MIN KMSN 140610Z 21006KT 10SM CLR M01/M06 A3011 690 69 -1000 200/06 RMK AO2
14837KMSN MSN20020214001509602/14/02 00:15:31  5-MIN KMSN 140615Z 20008KT 10SM CLR M01/M06 A3011 690 69 -1000 200/08 RMK AO2
14837KMSN MSN20020214002009602/14/02 00:20:31  5-MIN KMSN 140620Z 20006KT 10SM CLR M01/M06 A3010 690 72 -1000 200/06 RMK AO2
14837KMSN MSN20020214002509602/14/02 00:25:31  5-MIN KMSN 140625Z 20009KT 10SM CLR M01/M06 A3010 700 72 -1000 200/09 RMK AO2
14837KMSN MSN20020214003009602/14/02 00:30:31  5-MIN KMSN 140630Z 20009KT 10SM CLR M01/M06 A3010 700 72 -1000 200/09 RMK AO2
14837KMSN MSN20020214003509502/14/02 00:35:31  5-MIN KMSN 140635Z 20010KT 10SM CLR M01/M06 A3010 700 69 -900 190/10 RMK AO2
14837KMSN MSN20020214004010102/14/02 00:40:31  5-MIN KMSN 140640Z 20007G14KT 10SM CLR M01/M06 A3010 700 69 -900 200/07G14 RMK AO2
14837KMSN MSN20020214004509502/14/02 00:45:31  5-MIN KMSN 140645Z 20009KT 10SM CLR M01/M06 A3010 700 69 -900 200/09 RMK AO2
14837KMSN MSN20020214005011302/14/02 00:50:31  5-MIN KMSN 140650Z 20007KT 10SM CLR M01/M06 A3010 700 72 -1000 190/07 RMK AO2 SLP203 T10111056
14837KMSN MSN20020214005509602/14/02 00:55:31  5-MIN KMSN 140655Z 20009KT 10SM CLR M01/M06 A3010 700 72 -1000 200/09 RMK AO2
14837KMSN MSN20020214010009602/14/02 01:00:31  5-MIN KMSN 140700Z 20009KT 10SM CLR M01/M06 A3009 710 72 -1000 200/09 RMK AO2
14837KMSN MSN20020214010509502/14/02 01:05:31  5-MIN KMSN 140705Z 20007KT 10SM CLR M01/M06 A3009 710 69 -900 200/07 RMK AO2
14837KMSN MSN20020214011009502/14/02 01:10:31  5-MIN KMSN 140710Z 21008KT 10SM CLR M01/M06 A3009 710 66 -900 200/08 RMK AO2
14837KMSN MSN20020214011509502/14/02 01:15:31  5-MIN KMSN 140715Z 21008KT 10SM CLR M01/M06 A3009 700 69 -900 210/08 RMK AO2
14837KMSN MSN20020214012009602/14/02 01:20:31  5-MIN KMSN 140720Z 20009KT 10SM CLR M01/M06 A3009 700 72 -1000 200/09 RMK AO2
14837KMSN MSN20020214012509502/14/02 01:25:31  5-MIN KMSN 140725Z 20008KT 10SM CLR M01/M06 A3009 700 69 -900 200/08 RMK AO2
14837KMSN MSN20020214013009602/14/02 01:30:31  5-MIN KMSN 140730Z 20007KT 10SM CLR M01/M06 A3009 710 69 -1000 200/07 RMK AO2
14837KMSN MSN20020214013509602/14/02 01:35:31  5-MIN KMSN 140735Z 21007KT 10SM CLR M01/M06 A3009 710 72 -1000 210/07 RMK AO2
14837KMSN MSN20020214014009602/14/02 01:40:31  5-MIN KMSN 140740Z 21008KT 10SM CLR M01/M06 A3009 710 72 -1000 210/08 RMK AO2
14837KMSN MSN20020214014509502/14/02 01:45:31  5-MIN KMSN 140745Z 21008KT 10SM CLR M01/M06 A3009 710 69 -900 200/08 RMK AO2
14837KMSN MSN20020214015011302/14/02 01:50:31  5-MIN KMSN 140750Z 20007KT 10SM CLR M01/M06 A3009 710 69 -1000 200/07 RMK AO2 SLP199 T10111061
14837KMSN MSN20020214015509502/14/02 01:55:31  5-MIN KMSN 140755Z 20008KT 10SM CLR M01/M06 A3009 710 69 -900 200/08 RMK AO2
14837KMSN MSN20020214020009502/14/02 02:00:31  5-MIN KMSN 140800Z 21007KT 10SM CLR M01/M06 A3009 710 66 -900 200/07 RMK AO2
14837KMSN MSN20020214020509502/14/02 02:05:31  5-MIN KMSN 140805Z 20010KT 10SM CLR M01/M06 A3009 710 66 -900 200/10 RMK AO2
14837KMSN MSN20020214021009502/14/02 02:10:31  5-MIN KMSN 140810Z 21008KT 10SM CLR M01/M06 A3009 710 66 -900 210/08 RMK AO2
14837KMSN MSN20020214021509502/14/02 02:15:31  5-MIN KMSN 140815Z 20008KT 10SM CLR M01/M06 A3009 710 69 -900 200/08 RMK AO2
14837KMSN MSN20020214022009502/14/02 02:20:31  5-MIN KMSN 140820Z 21007KT 10SM CLR M01/M06 A3009 710 66 -900 210/07 RMK AO2
14837KMSN MSN20020214022509502/14/02 02:25:31  5-MIN KMSN 140825Z 21009KT 10SM CLR M01/M05 A3009 710 72 -900 210/09 RMK AO2
14837KMSN MSN20020214023009502/14/02 02:30:31  5-MIN KMSN 140830Z 21007KT 10SM CLR M01/M05 A3009 710 72 -900 210/07 RMK AO2
14837KMSN MSN20020214023509602/14/02 02:35:31  5-MIN KMSN 140835Z 21006KT 10SM CLR M01/M05 A3009 710 75 -1000 210/06 RMK AO2
14837KMSN MSN20020214024009502/14/02 02:40:31  5-MIN KMSN 140840Z 21008KT 10SM CLR M01/M07 A3008 710 63 -900 210/08 RMK AO2
14837KMSN MSN20020214024509502/14/02 02:45:31  5-MIN KMSN 140845Z 20008KT 10SM CLR M01/M07 A3008 720 63 -900 200/08 RMK AO2
14837KMSN MSN20020214025011902/14/02 02:50:31  5-MIN KMSN 140850Z 20008KT 10SM CLR M01/M07 A3008 720 66 -1000 200/08 RMK AO2 SLP195 T10111067 56011
14837KMSN MSN20020214025509502/14/02 02:55:31  5-MIN KMSN 140855Z 20009KT 10SM CLR M01/M07 A3008 720 63 -900 200/09 RMK AO2
14837KMSN MSN20020214030009502/14/02 03:00:31  5-MIN KMSN 140900Z 21008KT 10SM CLR M01/M07 A3007 720 63 -900 200/08 RMK AO2
14837KMSN MSN20020214030509502/14/02 03:05:31  5-MIN KMSN 140905Z 21008KT 10SM CLR M01/M07 A3007 730 63 -900 210/08 RMK AO2
14837KMSN MSN20020214031009502/14/02 03:10:31  5-MIN KMSN 140910Z 21010KT 10SM CLR M01/M07 A3007 730 63 -900 210/10 RMK AO2
14837KMSN MSN20020214031509502/14/02 03:15:31  5-MIN KMSN 140915Z 21008KT 10SM CLR M01/M07 A3007 730 63 -900 210/08 RMK AO2
14837KMSN MSN20020214032010102/14/02 03:20:31  5-MIN KMSN 140920Z 21010G15KT 10SM CLR M01/M07 A3007 730 63 -900 210/10G15 RMK AO2
14837KMSN MSN20020214032510102/14/02 03:25:31  5-MIN KMSN 140925Z 21008G15KT 10SM CLR M01/M07 A3006 730 63 -900 200/08G15 RMK AO2
14837KMSN MSN20020214033009502/14/02 03:30:31  5-MIN KMSN 140930Z 21008KT 10SM CLR M01/M07 A3006 730 63 -900 210/08 RMK AO2
14837KMSN MSN20020214033509502/14/02 03:35:31  5-MIN KMSN 140935Z 21008KT 10SM CLR M01/M07 A3006 740 63 -900 210/08 RMK AO2
14837KMSN MSN20020214034009502/14/02 03:40:31  5-MIN KMSN 140940Z 20008KT 10SM CLR M01/M07 A3006 740 63 -900 200/08 RMK AO2
14837KMSN MSN20020214034509502/14/02 03:45:31  5-MIN KMSN 140945Z 20008KT 10SM CLR M01/M07 A3005 740 63 -900 200/08 RMK AO2
14837KMSN MSN20020214035011202/14/02 03:50:31  5-MIN KMSN 140950Z 20010KT 10SM CLR M01/M07 A3005 740 63 -900 200/10 RMK AO2 SLP185 T10061067
14837KMSN MSN20020214035509502/14/02 03:55:31  5-MIN KMSN 140955Z 20010KT 10SM CLR M01/M07 A3005 740 63 -900 200/10 RMK AO2
14837KMSN MSN20020214040009602/14/02 04:00:31  5-MIN KMSN 141000Z 21010KT 10SM CLR M01/M07 A3005 740 66 -1000 210/10 RMK AO2
14837KMSN MSN20020214040510202/14/02 04:05:31  5-MIN KMSN 141005Z 20008G15KT 10SM CLR M01/M07 A3005 750 63 -1000 200/08G15 RMK AO2
14837KMSN MSN20020214041010102/14/02 04:10:31  5-MIN KMSN 141010Z 20008G15KT 10SM CLR M01/M07 A3005 750 61 -900 200/08G15 RMK AO2
14837KMSN MSN20020214041509602/14/02 04:15:31  5-MIN KMSN 141015Z 21011KT 10SM CLR M01/M07 A3005 750 63 -1000 200/11 RMK AO2
14837KMSN MSN20020214042010102/14/02 04:20:31  5-MIN KMSN 141020Z 20008G16KT 10SM CLR M01/M06 A3005 750 66 -900 200/08G16 RMK AO2
14837KMSN MSN20020214042510202/14/02 04:25:31  5-MIN KMSN 141025Z 20008G16KT 10SM CLR M01/M06 A3005 750 69 -1000 200/08G16 RMK AO2
14837KMSN MSN20020214043009502/14/02 04:30:31  5-MIN KMSN 141030Z 20010KT 10SM CLR M01/M06 A3005 750 66 -900 200/10 RMK AO2
14837KMSN MSN20020214043509502/14/02 04:35:31  5-MIN KMSN 141035Z 20008KT 10SM CLR M01/M06 A3004 750 69 -900 200/08 RMK AO2
14837KMSN MSN20020214044009502/14/02 04:40:31  5-MIN KMSN 141040Z 21009KT 10SM CLR M01/M07 A3004 750 63 -900 210/09 RMK AO2
14837KMSN MSN20020214044509502/14/02 04:45:31  5-MIN KMSN 141045Z 20010KT 10SM CLR M01/M07 A3004 750 63 -900 200/10 RMK AO2
14837KMSN MSN20020214045011202/14/02 04:50:31  5-MIN KMSN 141050Z 21009KT 10SM CLR M01/M07 A3004 760 63 -900 210/09 RMK AO2 SLP181 T10061067
14837KMSN MSN20020214045509502/14/02 04:55:31  5-MIN KMSN 141055Z 21008KT 10SM CLR M01/M07 A3004 760 63 -900 210/08 RMK AO2
14837KMSN MSN20020214050009502/14/02 05:00:31  5-MIN KMSN 141100Z 20008KT 10SM CLR M01/M07 A3004 760 63 -900 200/08 RMK AO2
14837KMSN MSN20020214050509502/14/02 05:05:31  5-MIN KMSN 141105Z 21008KT 10SM CLR M01/M07 A3004 760 63 -900 210/08 RMK AO2
14837KMSN MSN20020214051009502/14/02 05:10:31  5-MIN KMSN 141110Z 19008KT 10SM CLR M01/M07 A3003 760 63 -900 190/08 RMK AO2
14837KMSN MSN20020214051509502/14/02 05:15:31  5-MIN KMSN 141115Z 20009KT 10SM CLR M01/M07 A3003 760 63 -900 200/09 RMK AO2
14837KMSN MSN20020214052009502/14/02 05:20:31  5-MIN KMSN 141120Z 21008KT 10SM CLR M01/M07 A3003 760 63 -900 210/08 RMK AO2
14837KMSN MSN20020214052509502/14/02 05:25:31  5-MIN KMSN 141125Z 20010KT 10SM CLR M01/M07 A3003 760 63 -900 200/10 RMK AO2
14837KMSN MSN20020214053009502/14/02 05:30:31  5-MIN KMSN 141130Z 20009KT 10SM CLR M01/M07 A3003 760 63 -900 200/09 RMK AO2
14837KMSN MSN20020214053509502/14/02 05:35:31  5-MIN KMSN 141135Z 20008KT 10SM CLR M01/M07 A3003 770 63 -900 200/08 RMK AO2
14837KMSN MSN20020214054009502/14/02 05:40:31  5-MIN KMSN 141140Z 20010KT 10SM CLR M01/M07 A3003 770 63 -900 190/10 RMK AO2
14837KMSN MSN20020214054509502/14/02 05:45:31  5-MIN KMSN 141145Z 20011KT 10SM CLR M01/M07 A3002 770 63 -900 200/11 RMK AO2
14837KMSN MSN20020214055013002/14/02 05:50:31  5-MIN KMSN 141150Z 20012KT 10SM CLR M01/M07 A3003 760 63 -900 200/12 RMK AO2 SLP178 T10061067 11006 21011 58009
14837KMSN MSN20020214055509502/14/02 05:55:31  5-MIN KMSN 141155Z 20008KT 10SM CLR M01/M07 A3003 760 63 -900 200/08 RMK AO2
14837KMSN MSN20020214060010102/14/02 06:00:31  5-MIN KMSN 141200Z 19013G19KT 10SM CLR M01/M07 A3002 770 66 -900 190/13G19 RMK AO2
14837KMSN MSN20020214060510102/14/02 06:05:31  5-MIN KMSN 141205Z 19011G19KT 10SM CLR M01/M07 A3002 770 63 -900 190/11G19 RMK AO2
14837KMSN MSN20020214061009502/14/02 06:10:31  5-MIN KMSN 141210Z 19011KT 10SM CLR M01/M07 A3002 770 66 -900 190/11 RMK AO2
14837KMSN MSN20020214061509502/14/02 06:15:31  5-MIN KMSN 141215Z 19011KT 10SM CLR M01/M07 A3001 780 66 -900 190/11 RMK AO2
14837KMSN MSN20020214062010102/14/02 06:20:31  5-MIN KMSN 141220Z 19014G18KT 10SM CLR M01/M07 A3001 780 66 -900 190/14G18 RMK AO2
14837KMSN MSN20020214062509502/14/02 06:25:31  5-MIN KMSN 141225Z 19011KT 10SM CLR M01/M06 A3001 780 69 -900 190/11 RMK AO2
14837KMSN MSN20020214063010102/14/02 06:30:31  5-MIN KMSN 141230Z 19012G17KT 10SM CLR M01/M07 A3001 780 66 -900 190/12G17 RMK AO2
14837KMSN MSN20020214063510102/14/02 06:35:31  5-MIN KMSN 141235Z 20011G17KT 10SM CLR M01/M07 A3002 780 66 -900 200/11G17 RMK AO2
14837KMSN MSN20020214064009502/14/02 06:40:31  5-MIN KMSN 141240Z 20009KT 10SM CLR M01/M07 A3002 780 66 -900 200/09 RMK AO2
14837KMSN MSN20020214064509502/14/02 06:45:31  5-MIN KMSN 141245Z 20010KT 10SM CLR M01/M07 A3002 780 66 -900 200/10 RMK AO2
14837KMSN MSN20020214065011202/14/02 06:50:31  5-MIN KMSN 141250Z 20009KT 10SM CLR M01/M07 A3002 770 66 -900 200/09 RMK AO2 SLP175 T10111067
14837KMSN MSN20020214065509502/14/02 06:55:31  5-MIN KMSN 141255Z 19009KT 10SM CLR M01/M07 A3001 780 66 -900 190/09 RMK AO2
14837KMSN MSN20020214070010102/14/02 07:00:31  5-MIN KMSN 141300Z 19009G16KT 10SM CLR M01/M07 A3002 780 66 -900 190/09G16 RMK AO2
14837KMSN MSN20020214070510102/14/02 07:05:31  5-MIN KMSN 141305Z 19008G16KT 10SM CLR M01/M07 A3001 780 63 -800 190/08G16 RMK AO2
14837KMSN MSN20020214071010102/14/02 07:10:31  5-MIN KMSN 141310Z 19011G17KT 10SM CLR M01/M07 A3001 780 63 -800 190/11G17 RMK AO2
14837KMSN MSN20020214071510102/14/02 07:15:31  5-MIN KMSN 141315Z 19009G17KT 10SM CLR M01/M07 A3001 780 63 -800 190/09G17 RMK AO2
14837KMSN MSN20020214072009502/14/02 07:20:31  5-MIN KMSN 141320Z 20009KT 10SM CLR M01/M07 A3001 780 63 -800 200/09 RMK AO2
14837KMSN MSN20020214072509502/14/02 07:25:31  5-MIN KMSN 141325Z 21009KT 10SM CLR M01/M07 A3002 780 63 -800 210/09 RMK AO2
14837KMSN MSN20020214073009402/14/02 07:30:31  5-MIN KMSN 141330Z 19010KT 10SM CLR 00/M06 A3001 780 63 -800 190/10 RMK AO2
14837KMSN MSN20020214073509402/14/02 07:35:31  5-MIN KMSN 141335Z 20010KT 10SM CLR 00/M07 A3001 780 61 -800 200/10 RMK AO2
14837KMSN MSN20020214074010002/14/02 07:40:31  5-MIN KMSN 141340Z 20011G17KT 10SM CLR 00/M07 A3001 780 61 -800 200/11G17 RMK AO2
14837KMSN MSN20020214114509902/14/02 11:45:31  5-MIN KMSN 141745Z 19014G18KT 10SM CLR 07/M06 A2994 840 41 100 190/14G18 RMK AO2
14837KMSN MSN20020214115013402/14/02 11:50:31  5-MIN KMSN 141750Z 19018G25KT 10SM CLR 07/M06 A2994 850 39 100 190/18G25 RMK AO2 SLP145 T00671061 10067 21011 56006
14837KMSN MSN20020214115510602/14/02 11:55:31  5-MIN KMSN 141755Z 19017G25KT 10SM CLR 07/M06 A2993 850 39 100 190/17G25 RMK AO2 PRESFR
14837KMSN MSN20020214120009902/14/02 12:00:31  5-MIN KMSN 141800Z 20014G23KT 10SM CLR 07/M06 A2993 860 39 100 190/14G23 RMK AO2
14837KMSN MSN20020214120509902/14/02 12:05:31  5-MIN KMSN 141805Z 20013G23KT 10SM CLR 07/M06 A2992 860 41 100 200/13G23 RMK AO2
14837KMSN MSN20020214121011702/14/02 12:10:31  5-MIN KMSN 141810Z 20019G27KT 10SM CLR 07/M06 A2992 860 40 200 190/19G27 RMK AO2 PK WND 19027/1809
14837KMSN MSN20020214121511702/14/02 12:15:31  5-MIN KMSN 141815Z 20016G27KT 10SM CLR 07/M06 A2992 860 38 200 190/16G27 RMK AO2 PK WND 21027/1812
14837KMSN MSN20020214122011702/14/02 12:20:31  5-MIN KMSN 141820Z 20014G27KT 10SM CLR 07/M06 A2992 860 40 200 190/14G27 RMK AO2 PK WND 21027/1812
14837KMSN MSN20020214122511702/14/02 12:25:31  5-MIN KMSN 141825Z 20016G22KT 10SM CLR 08/M06 A2992 860 38 200 200/16G22 RMK AO2 PK WND 21027/1812
14837KMSN MSN20020214123011902/14/02 12:30:31  5-MIN KMSN 141830Z 20020G27KT 10SM CLR 08/M06 A2992 860 38 200 190/20G27 RMK AO2 PK WND 20027/1830 $
14837KMSN MSN20020214123511902/14/02 12:35:31  5-MIN KMSN 141835Z 20014G27KT 10SM CLR 08/M06 A2992 860 38 200 200/14G27 RMK AO2 PK WND 20027/1830 $
14837KMSN MSN20020214124011902/14/02 12:40:31  5-MIN KMSN 141840Z 20016G24KT 10SM CLR 08/M06 A2992 860 38 200 200/16G24 RMK AO2 PK WND 20027/1830 $
14837KMSN MSN20020214124511902/14/02 12:45:31  5-MIN KMSN 141845Z 20013G23KT 10SM CLR 08/M06 A2991 870 38 200 200/13G23 RMK AO2 PK WND 20027/1830 $
14837KMSN MSN20020214125013602/14/02 12:50:31  5-MIN KMSN 141850Z 21015G23KT 10SM CLR 08/M06 A2991 870 38 300 210/15G23 RMK AO2 PK WND 20027/1830 SLP136 T00781056 $
14837KMSN MSN20020214125508902/14/02 12:55:31  5-MIN KMSN 141855Z 20017G23KT 10SM CLR A2991 M M M 200/17G23 RMK AO2 $
14837KMSN MSN20020214130011902/14/02 13:00:31  5-MIN KMSN 141900Z 21018G26KT 10SM CLR 08/M05 A2990 880 38 300 210/18G26 RMK AO2 PK WND 23026/1859 $
14837KMSN MSN20020214130511902/14/02 13:05:31  5-MIN KMSN 141905Z 20014G26KT 10SM CLR 08/M05 A2990 890 38 300 200/14G26 RMK AO2 PK WND 23026/1859 $
14837KMSN MSN20020214131011902/14/02 13:10:31  5-MIN KMSN 141910Z 21019G30KT 10SM CLR 08/M06 A2989 890 35 300 210/19G30 RMK AO2 PK WND 20030/1908 $
14837KMSN MSN20020214131511902/14/02 13:15:31  5-MIN KMSN 141915Z 20016G30KT 10SM CLR 08/M06 A2989 890 35 300 200/16G30 RMK AO2 PK WND 20030/1908 $
14837KMSN MSN20020214132011702/14/02 13:20:31  5-MIN KMSN 141920Z 20020G28KT 10SM CLR 08/M06 A2989 890 35 300 200/20G28 RMK AO2 PK WND 20030/1908
14837KMSN MSN20020214132511702/14/02 13:25:31  5-MIN KMSN 141925Z 20018G28KT 10SM CLR 09/M06 A2988 900 34 400 200/18G28 RMK AO2 PK WND 20030/1908
14837KMSN MSN20020214133011702/14/02 13:30:31  5-MIN KMSN 141930Z 20012G25KT 10SM CLR 08/M06 A2988 900 35 400 200/12G25 RMK AO2 PK WND 20030/1908
14837KMSN MSN20020214133511702/14/02 13:35:31  5-MIN KMSN 141935Z 20016G25KT 10SM CLR 08/M06 A2988 900 37 400 200/16G25 RMK AO2 PK WND 20030/1908
14837KMSN MSN20020214134011702/14/02 13:40:31  5-MIN KMSN 141940Z 20013G24KT 10SM CLR 08/M06 A2988 900 35 400 200/13G24 RMK AO2 PK WND 20030/1908
14837KMSN MSN20020214134511702/14/02 13:45:31  5-MIN KMSN 141945Z 20012G24KT 10SM CLR 09/M06 A2988 900 35 400 200/12G24 RMK AO2 PK WND 20030/1908
14837KMSN MSN20020214135013402/14/02 13:50:31  5-MIN KMSN 141950Z 21015G22KT 10SM CLR 09/M06 A2988 910 34 400 200/15G22 RMK AO2 PK WND 20030/1908 SLP124 T00891061
14837KMSN MSN20020214135511702/14/02 13:55:31  5-MIN KMSN 141955Z 19020G26KT 10SM CLR 08/M06 A2987 910 35 400 190/20G26 RMK AO2 PK WND 19026/1955
14837KMSN MSN20020214140011702/14/02 14:00:31  5-MIN KMSN 142000Z 20015G26KT 10SM CLR 08/M06 A2987 910 35 400 200/15G26 RMK AO2 PK WND 19026/1955
14837KMSN MSN20020214140511702/14/02 14:05:31  5-MIN KMSN 142005Z 19019G25KT 10SM CLR 08/M06 A2987 910 35 400 190/19G25 RMK AO2 PK WND 19026/1955
14837KMSN MSN20020214141013302/14/02 14:10:31  5-MIN KMSN 142010Z 20015G27KT 170V230 10SM CLR 08/M06 A2986 920 35 400 200/15G27 170V230 RMK AO2 PK WND 18027/2007
14837KMSN MSN20020214141511702/14/02 14:15:31  5-MIN KMSN 142015Z 20017G27KT 10SM CLR 09/M06 A2986 920 34 400 200/17G27 RMK AO2 PK WND 21027/2015
14837KMSN MSN20020214142011702/14/02 14:20:31  5-MIN KMSN 142020Z 20019G27KT 10SM CLR 08/M06 A2986 920 35 400 200/19G27 RMK AO2 PK WND 19027/2019
14837KMSN MSN20020214142511702/14/02 14:25:31  5-MIN KMSN 142025Z 20014G27KT 10SM CLR 08/M06 A2985 930 35 400 200/14G27 RMK AO2 PK WND 19027/2019
14837KMSN MSN20020214143011702/14/02 14:30:31  5-MIN KMSN 142030Z 20014G24KT 10SM CLR 08/M06 A2985 930 35 400 200/14G24 RMK AO2 PK WND 19027/2019
14837KMSN MSN20020214143511702/14/02 14:35:31  5-MIN KMSN 142035Z 20014G20KT 10SM CLR 08/M06 A2985 930 37 400 200/14G20 RMK AO2 PK WND 19027/2019
14837KMSN MSN20020214144011702/14/02 14:40:31  5-MIN KMSN 142040Z 19017G25KT 10SM CLR 08/M06 A2984 940 37 400 190/17G25 RMK AO2 PK WND 19027/2019
14837KMSN MSN20020214144511702/14/02 14:45:31  5-MIN KMSN 142045Z 19017G25KT 10SM CLR 08/M06 A2984 940 37 400 190/17G25 RMK AO2 PK WND 19027/2019
14837KMSN MSN20020214145014002/14/02 14:50:31  5-MIN KMSN 142050Z 18017G25KT 10SM CLR 08/M05 A2984 940 38 400 180/17G25 RMK AO2 PK WND 19027/2019 SLP110 T00831050 58025
14837KMSN MSN20020214145509302/14/02 14:55:31  5-MIN KMSN 142055Z 19018KT 10SM CLR 08/M04 A2984 940 40 400 190/18 RMK AO2
14837KMSN MSN20020214150009902/14/02 15:00:31  5-MIN KMSN 142100Z 19016G24KT 10SM CLR 08/M04 A2983 950 40 400 180/16G24 RMK AO2
14837KMSN MSN20020214150509902/14/02 15:05:31  5-MIN KMSN 142105Z 19018G24KT 10SM CLR 08/M05 A2983 940 38 400 190/18G24 RMK AO2
14837KMSN MSN20020214151009902/14/02 15:10:31  5-MIN KMSN 142110Z 19014G23KT 10SM CLR 08/M04 A2984 940 40 400 180/14G23 RMK AO2
14837KMSN MSN20020214151509902/14/02 15:15:31  5-MIN KMSN 142115Z 19017G23KT 10SM CLR 08/M04 A2983 940 40 400 190/17G23 RMK AO2
14837KMSN MSN20020214152009902/14/02 15:20:31  5-MIN KMSN 142120Z 19015G23KT 10SM CLR 08/M05 A2984 940 38 400 190/15G23 RMK AO2
14837KMSN MSN20020214152509902/14/02 15:25:31  5-MIN KMSN 142125Z 19015G21KT 10SM CLR 08/M04 A2984 940 41 300 190/15G21 RMK AO2
14837KMSN MSN20020214153009902/14/02 15:30:31  5-MIN KMSN 142130Z 18017G22KT 10SM CLR 08/M04 A2983 950 41 300 180/17G22 RMK AO2
14837KMSN MSN20020214153509902/14/02 15:35:31  5-MIN KMSN 142135Z 19018G22KT 10SM CLR 07/M04 A2984 940 43 300 180/18G22 RMK AO2
14837KMSN MSN20020214154011702/14/02 15:40:31  5-MIN KMSN 142140Z 18020G26KT 10SM CLR 07/M04 A2983 940 43 300 180/20G26 RMK AO2 PK WND 18026/2138
14837KMSN MSN20020214154511702/14/02 15:45:31  5-MIN KMSN 142145Z 19017G26KT 10SM CLR 07/M04 A2983 940 45 200 190/17G26 RMK AO2 PK WND 20026/2143
14837KMSN MSN20020214155013402/14/02 15:50:31  5-MIN KMSN 142150Z 19019G26KT 10SM CLR 07/M04 A2983 950 45 200 190/19G26 RMK AO2 PK WND 20026/2143 SLP109 T00671044
14837KMSN MSN20020214155509902/14/02 15:55:31  5-MIN KMSN 142155Z 19020G26KT 10SM CLR 07/M04 A2983 950 45 200 190/20G26 RMK AO2
14837KMSN MSN20020214160009902/14/02 16:00:31  5-MIN KMSN 142200Z 19017G26KT 10SM CLR 07/M04 A2983 950 45 200 190/17G26 RMK AO2
14837KMSN MSN20020214160509902/14/02 16:05:31  5-MIN KMSN 142205Z 19016G25KT 10SM CLR 06/M04 A2983 940 46 100 190/16G25 RMK AO2
14837KMSN MSN20020214161009902/14/02 16:10:31  5-MIN KMSN 142210Z 19014G25KT 10SM CLR 06/M04 A2983 940 46 100 190/14G25 RMK AO2
14837KMSN MSN20020214161509902/14/02 16:15:31  5-MIN KMSN 142215Z 19016G22KT 10SM CLR 06/M04 A2983 940 50 100 190/16G22 RMK AO2
14837KMSN MSN20020214162009902/14/02 16:20:31  5-MIN KMSN 142220Z 19017G23KT 10SM CLR 06/M04 A2983 950 50 100 190/17G23 RMK AO2
14837KMSN MSN20020214162509902/14/02 16:25:31  5-MIN KMSN 142225Z 19017G23KT 10SM CLR 06/M04 A2983 950 50 100 190/17G23 RMK AO2
14837KMSN MSN20020214163009902/14/02 16:30:31  5-MIN KMSN 142230Z 19015G21KT 10SM CLR 06/M04 A2983 950 50 100 190/15G21 RMK AO2
14837KMSN MSN20020214163509302/14/02 16:35:31  5-MIN KMSN 142235Z 19016KT 10SM CLR 06/M04 A2983 950 50 100 190/16 RMK AO2
14837KMSN MSN20020214164009902/14/02 16:40:31  5-MIN KMSN 142240Z 19016G20KT 10SM CLR 06/M04 A2982 950 50 100 180/16G20 RMK AO2
14837KMSN MSN20020214164509902/14/02 16:45:31  5-MIN KMSN 142245Z 19017G22KT 10SM CLR 06/M04 A2982 950 50 100 180/17G22 RMK AO2
14837KMSN MSN20020214165011602/14/02 16:50:31  5-MIN KMSN 142250Z 18017G22KT 10SM CLR 06/M03 A2982 950 53 100 180/17G22 RMK AO2 SLP106 T00561033
14837KMSN MSN20020214165509902/14/02 16:55:31  5-MIN KMSN 142255Z 18015G22KT 10SM CLR 06/M03 A2982 950 53 100 180/15G22 RMK AO2
14837KMSN MSN20020214170009902/14/02 17:00:31  5-MIN KMSN 142300Z 19015G21KT 10SM CLR 06/M04 A2983 950 50 100 190/15G21 RMK AO2
14837KMSN MSN20020214170509302/14/02 17:05:31  5-MIN KMSN 142305Z 19014KT 10SM CLR 06/M03 A2983 950 53 100 190/14 RMK AO2
14837KMSN MSN20020214171009302/14/02 17:10:31  5-MIN KMSN 142310Z 19013KT 10SM CLR 06/M03 A2983 950 53 100 190/13 RMK AO2
14837KMSN MSN20020214171509902/14/02 17:15:31  5-MIN KMSN 142315Z 19015G19KT 10SM CLR 06/M03 A2983 950 53 100 190/15G19 RMK AO2
14837KMSN MSN20020214172009902/14/02 17:20:31  5-MIN KMSN 142320Z 19013G19KT 10SM CLR 06/M03 A2983 950 53 100 190/13G19 RMK AO2
14837KMSN MSN20020214172509302/14/02 17:25:31  5-MIN KMSN 142325Z 19013KT 10SM CLR 06/M03 A2983 950 53 100 190/13 RMK AO2
14837KMSN MSN20020214173009302/14/02 17:30:31  5-MIN KMSN 142330Z 19013KT 10SM CLR 06/M04 A2983 950 50 100 190/13 RMK AO2
14837KMSN MSN20020214173509302/14/02 17:35:31  5-MIN KMSN 142335Z 19014KT 10SM CLR 06/M04 A2983 940 50 100 190/14 RMK AO2
14837KMSN MSN20020214174009302/14/02 17:40:31  5-MIN KMSN 142340Z 19014KT 10SM CLR 06/M04 A2983 940 50 100 190/14 RMK AO2
14837KMSN MSN20020214174509302/14/02 17:45:31  5-MIN KMSN 142345Z 19013KT 10SM CLR 06/M04 A2983 950 50 100 190/13 RMK AO2
14837KMSN MSN20020214175012802/14/02 17:50:31  5-MIN KMSN 142350Z 19014KT 10SM CLR 06/M04 A2983 950 50 100 190/14 RMK AO2 SLP109 T00561039 10089 20056 58033
14837KMSN MSN20020214175509902/14/02 17:55:31  5-MIN KMSN 142355Z 19015G20KT 10SM CLR 06/M04 A2983 950 50 100 190/15G20 RMK AO2
14837KMSN MSN20020214180009902/14/02 18:00:31  5-MIN KMSN 150000Z 19014G20KT 10SM CLR 06/M04 A2983 950 50 100 190/14G20 RMK AO2
14837KMSN MSN20020214180509902/14/02 18:05:31  5-MIN KMSN 150005Z 19015G20KT 10SM CLR 06/M04 A2983 950 48 100 190/15G20 RMK AO2
14837KMSN MSN20020214181009302/14/02 18:10:31  5-MIN KMSN 150010Z 19018KT 10SM CLR 06/M04 A2983 950 48 100 190/18 RMK AO2
14837KMSN MSN20020214181509902/14/02 18:15:31  5-MIN KMSN 150015Z 19014G22KT 10SM CLR 06/M04 A2983 950 48 100 190/14G22 RMK AO2
14837KMSN MSN20020214182009902/14/02 18:20:31  5-MIN KMSN 150020Z 19015G20KT 10SM CLR 06/M04 A2983 950 48 100 190/15G20 RMK AO2
14837KMSN MSN20020214182509902/14/02 18:25:31  5-MIN KMSN 150025Z 19013G22KT 10SM CLR 06/M04 A2983 950 48 100 190/13G22 RMK AO2
14837KMSN MSN20020214183009702/14/02 18:30:31  5-MIN KMSN 150030Z 19014G22KT 10SM CLR 05/M04 A2983 950 50 0 190/14G22 RMK AO2
14837KMSN MSN20020214183509102/14/02 18:35:31  5-MIN KMSN 150035Z 19012KT 10SM CLR 05/M04 A2983 940 50 0 190/12 RMK AO2
14837KMSN MSN20020214184009702/14/02 18:40:31  5-MIN KMSN 150040Z 19013G19KT 10SM CLR 05/M04 A2983 950 50 0 190/13G19 RMK AO2
14837KMSN MSN20020214184509102/14/02 18:45:31  5-MIN KMSN 150045Z 19016KT 10SM CLR 05/M04 A2983 950 50 0 190/16 RMK AO2
14837KMSN MSN20020214185010802/14/02 18:50:31  5-MIN KMSN 150050Z 19012KT 10SM CLR 05/M04 A2983 950 50 0 190/12 RMK AO2 SLP110 T00501044
14837KMSN MSN20020214185509102/14/02 18:55:31  5-MIN KMSN 150055Z 19013KT 10SM CLR 05/M04 A2983 950 50 0 190/13 RMK AO2
14837KMSN MSN20020214190009102/14/02 19:00:31  5-MIN KMSN 150100Z 19013KT 10SM CLR 05/M04 A2983 950 50 0 190/13 RMK AO2
14837KMSN MSN20020214190509102/14/02 19:05:31  5-MIN KMSN 150105Z 19013KT 10SM CLR 05/M04 A2983 950 50 0 190/13 RMK AO2
14837KMSN MSN20020214191009102/14/02 19:10:31  5-MIN KMSN 150110Z 19013KT 10SM CLR 04/M04 A2983 950 52 0 190/13 RMK AO2
14837KMSN MSN20020214191509102/14/02 19:15:31  5-MIN KMSN 150115Z 19013KT 10SM CLR 04/M04 A2983 950 52 0 190/13 RMK AO2
14837KMSN MSN20020214192009102/14/02 19:20:31  5-MIN KMSN 150120Z 18013KT 10SM CLR 05/M04 A2983 950 50 0 180/13 RMK AO2
14837KMSN MSN20020214192509102/14/02 19:25:31  5-MIN KMSN 150125Z 19011KT 10SM CLR 04/M04 A2983 950 52 0 190/11 RMK AO2
14837KMSN MSN20020214193009702/14/02 19:30:31  5-MIN KMSN 150130Z 20013G18KT 10SM CLR 04/M04 A2982 950 52 0 200/13G18 RMK AO2
14837KMSN MSN20020214193509702/14/02 19:35:31  5-MIN KMSN 150135Z 19012G18KT 10SM CLR 04/M04 A2982 960 52 0 190/12G18 RMK AO2
14837KMSN MSN20020214194009702/14/02 19:40:31  5-MIN KMSN 150140Z 19015G18KT 10SM CLR 04/M04 A2982 960 52 0 190/15G18 RMK AO2
14837KMSN MSN20020214194509702/14/02 19:45:31  5-MIN KMSN 150145Z 19012G20KT 10SM CLR 04/M04 A2982 960 52 0 190/12G20 RMK AO2
14837KMSN MSN20020214195011402/14/02 19:50:31  5-MIN KMSN 150150Z 19012G20KT 10SM CLR 04/M04 A2982 960 52 0 190/12G20 RMK AO2 SLP105 T00441044
14837KMSN MSN20020214195509702/14/02 19:55:31  5-MIN KMSN 150155Z 19011G18KT 10SM CLR 04/M04 A2981 960 52 0 190/11G18 RMK AO2
14837KMSN MSN20020214200009702/14/02 20:00:31  5-MIN KMSN 150200Z 19014G21KT 10SM CLR 04/M04 A2981 960 52 0 190/14G21 RMK AO2
14837KMSN MSN20020214200509702/14/02 20:05:31  5-MIN KMSN 150205Z 19014G21KT 10SM CLR 04/M04 A2981 970 52 0 190/14G21 RMK AO2
14837KMSN MSN20020214201009102/14/02 20:10:31  5-MIN KMSN 150210Z 19012KT 10SM CLR 04/M04 A2981 970 52 0 190/12 RMK AO2
14837KMSN MSN20020214201509102/14/02 20:15:31  5-MIN KMSN 150215Z 19012KT 10SM CLR 04/M04 A2981 970 52 0 180/12 RMK AO2
14837KMSN MSN20020214202009102/14/02 20:20:31  5-MIN KMSN 150220Z 19014KT 10SM CLR 04/M04 A2981 970 52 0 190/14 RMK AO2
14837KMSN MSN20020214202509702/14/02 20:25:31  5-MIN KMSN 150225Z 19015G20KT 10SM CLR 04/M04 A2980 970 52 0 190/15G20 RMK AO2
14837KMSN MSN20020214203009702/14/02 20:30:31  5-MIN KMSN 150230Z 19013G20KT 10SM CLR 04/M04 A2980 970 52 0 190/13G20 RMK AO2
14837KMSN MSN20020214203509102/14/02 20:35:31  5-MIN KMSN 150235Z 19013KT 10SM CLR 04/M04 A2980 980 55 0 190/13 RMK AO2
14837KMSN MSN20020214204009102/14/02 20:40:31  5-MIN KMSN 150240Z 19012KT 10SM CLR 04/M04 A2980 980 55 0 190/12 RMK AO2
14837KMSN MSN20020214204509102/14/02 20:45:31  5-MIN KMSN 150245Z 19013KT 10SM CLR 04/M04 A2980 980 55 0 190/13 RMK AO2
14837KMSN MSN20020214205012002/14/02 20:50:31  5-MIN KMSN 150250Z 19015G19KT 10SM CLR 04/M04 A2980 980 55 0 190/15G19 RMK AO2 SLP097 T00441039 55002
14837KMSN MSN20020214205509702/14/02 20:55:31  5-MIN KMSN 150255Z 19013G19KT 10SM CLR 04/M04 A2979 980 55 0 190/13G19 RMK AO2
14837KMSN MSN20020214210009702/14/02 21:00:31  5-MIN KMSN 150300Z 19012G19KT 10SM CLR 04/M04 A2979 980 55 0 190/12G19 RMK AO2
14837KMSN MSN20020214210509102/14/02 21:05:31  5-MIN KMSN 150305Z 19012KT 10SM CLR 04/M04 A2979 980 55 0 190/12 RMK AO2
14837KMSN MSN20020214211009702/14/02 21:10:31  5-MIN KMSN 150310Z 19013G19KT 10SM CLR 04/M04 A2979 990 55 0 190/13G19 RMK AO2
14837KMSN MSN20020214211510002/14/02 21:15:31  5-MIN KMSN 150315Z 19012G19KT 10SM FEW120 04/M04 A2979 990 57 0 190/12G19 RMK AO2
14837KMSN MSN20020214212009702/14/02 21:20:31  5-MIN KMSN 150320Z 19013G18KT 10SM CLR 04/M04 A2978 990 57 0 190/13G18 RMK AO2
14837KMSN MSN20020214212509702/14/02 21:25:31  5-MIN KMSN 150325Z 19014G19KT 10SM CLR 04/M04 A2978 990 57 0 190/14G19 RMK AO2
14837KMSN MSN20020214213009702/14/02 21:30:31  5-MIN KMSN 150330Z 19014G20KT 10SM CLR 04/M04 A2978 990 55 0 190/14G20 RMK AO2
14837KMSN MSN20020214213509802/14/02 21:35:31  5-MIN KMSN 150335Z 19013G20KT 10SM CLR 04/M04 A2978 1000 57 0 190/13G20 RMK AO2
14837KMSN MSN20020214214009802/14/02 21:40:31  5-MIN KMSN 150340Z 19012G22KT 10SM CLR 04/M04 A2978 1000 57 0 190/12G22 RMK AO2
14837KMSN MSN20020214214509802/14/02 21:45:31  5-MIN KMSN 150345Z 19014G22KT 10SM CLR 04/M04 A2978 1000 57 0 190/14G22 RMK AO2
14837KMSN MSN20020214215010902/14/02 21:50:31  5-MIN KMSN 150350Z 19013KT 10SM CLR 04/M04 A2977 1000 57 0 190/13 RMK AO2 SLP089 T00391039
14837KMSN MSN20020214215509502/14/02 21:55:31  5-MIN KMSN 150355Z 19014KT 10SM SCT120 04/M04 A2977 1000 57 0 190/14 RMK AO2
14837KMSN MSN20020214220010102/14/02 22:00:31  5-MIN KMSN 150400Z 19014G19KT 10SM SCT120 04/M04 A2977 1010 57 0 190/14G19 RMK AO2
14837KMSN MSN20020214220510102/14/02 22:05:31  5-MIN KMSN 150405Z 19013G19KT 10SM SCT120 04/M04 A2977 1010 57 0 190/13G19 RMK AO2
14837KMSN MSN20020214221010102/14/02 22:10:31  5-MIN KMSN 150410Z 19012G19KT 10SM SCT120 04/M04 A2976 1010 57 0 190/12G19 RMK AO2
14837KMSN MSN20020214221510102/14/02 22:15:31  5-MIN KMSN 150415Z 19015G21KT 10SM SCT120 04/M04 A2976 1010 55 0 190/15G21 RMK AO2
14837KMSN MSN20020214222010102/14/02 22:20:31  5-MIN KMSN 150420Z 20014G21KT 10SM SCT120 04/M04 A2976 1020 57 0 200/14G21 RMK AO2
14837KMSN MSN20020214222510102/14/02 22:25:31  5-MIN KMSN 150425Z 19015G20KT 10SM FEW120 04/M04 A2976 1020 57 0 190/15G20 RMK AO2
14837KMSN MSN20020214223010102/14/02 22:30:31  5-MIN KMSN 150430Z 19013G20KT 10SM FEW120 04/M04 A2975 1020 57 0 190/13G20 RMK AO2
14837KMSN MSN20020214223510102/14/02 22:35:31  5-MIN KMSN 150435Z 19012G18KT 10SM FEW120 04/M04 A2975 1020 57 0 190/12G18 RMK AO2
14837KMSN MSN20020214224009802/14/02 22:40:31  5-MIN KMSN 150440Z 20012G18KT 10SM CLR 04/M04 A2975 1020 57 0 190/12G18 RMK AO2
14837KMSN MSN20020214224509802/14/02 22:45:31  5-MIN KMSN 150445Z 19010G18KT 10SM CLR 04/M04 A2975 1020 57 0 190/10G18 RMK AO2
14837KMSN MSN20020214225010902/14/02 22:50:31  5-MIN KMSN 150450Z 19011KT 10SM CLR 04/M04 A2975 1020 57 0 190/11 RMK AO2 SLP080 T00391039
14837KMSN MSN20020214225509202/14/02 22:55:31  5-MIN KMSN 150455Z 20009KT 10SM CLR 04/M04 A2975 1030 57 0 200/09 RMK AO2
14837KMSN MSN20020214230009802/14/02 23:00:31  5-MIN KMSN 150500Z 19012G17KT 10SM CLR 04/M04 A2974 1030 57 0 190/12G17 RMK AO2
14837KMSN MSN20020214230509202/14/02 23:05:31  5-MIN KMSN 150505Z 19012KT 10SM CLR 04/M04 A2974 1030 57 0 190/12 RMK AO2
14837KMSN MSN20020214231009202/14/02 23:10:31  5-MIN KMSN 150510Z 19011KT 10SM CLR 04/M04 A2974 1030 57 0 190/11 RMK AO2
14837KMSN MSN20020214231509202/14/02 23:15:31  5-MIN KMSN 150515Z 19010KT 10SM CLR 04/M04 A2974 1030 57 0 190/10 RMK AO2
14837KMSN MSN20020214232009202/14/02 23:20:31  5-MIN KMSN 150520Z 19010KT 10SM CLR 04/M04 A2974 1030 57 0 190/10 RMK AO2
14837KMSN MSN20020214232509202/14/02 23:25:31  5-MIN KMSN 150525Z 19011KT 10SM CLR 04/M04 A2974 1030 57 0 190/11 RMK AO2
14837KMSN MSN20020214233009202/14/02 23:30:31  5-MIN KMSN 150530Z 19009KT 10SM CLR 04/M04 A2974 1030 57 0 190/09 RMK AO2
14837KMSN MSN20020214233509802/14/02 23:35:31  5-MIN KMSN 150535Z 19011G17KT 10SM CLR 04/M04 A2973 1040 57 0 190/11G17 RMK AO2
14837KMSN MSN20020214234010102/14/02 23:40:31  5-MIN KMSN 150540Z 19011G17KT 10SM FEW095 04/M04 A2973 1040 57 0 190/11G17 RMK AO2
14837KMSN MSN20020214234510102/14/02 23:45:31  5-MIN KMSN 150545Z 19013G18KT 10SM SCT095 04/M04 A2973 1040 57 0 190/13G18 RMK AO2
14837KMSN MSN20020214235015302/14/02 23:50:31  5-MIN KMSN 150550Z 19011G18KT 10SM FEW095 SCT110 04/M04 A2973 1040 57 0 190/11G18 RMK AO2 SLP073 T00391039 10056 20039 401061011 58012
14837KMSN MSN20020214235510202/14/02 23:55:31  5-MIN KMSN 150555Z 19011KT 10SM FEW100 BKN110 04/M04 A2973 1040 57 0 190/11 RMK AO2
14837KMSN MSN20020215000009502/15/02 00:00:31  5-MIN KMSN 150600Z 19011KT 10SM BKN110 04/M04 A2973 1040 57 0 190/11 RMK AO2
14837KMSN MSN20020215000510102/15/02 00:05:31  5-MIN KMSN 150605Z 19007G15KT 10SM OVC110 04/M04 A2973 1040 57 0 190/07G15 RMK AO2
14837KMSN MSN20020215001009502/15/02 00:10:31  5-MIN KMSN 150610Z 20008KT 10SM OVC110 04/M04 A2973 1040 57 0 200/08 RMK AO2
14837KMSN MSN20020215001509502/15/02 00:15:31  5-MIN KMSN 150615Z 20009KT 10SM OVC110 04/M04 A2973 1040 57 0 200/09 RMK AO2
14837KMSN MSN20020215002009502/15/02 00:20:31  5-MIN KMSN 150620Z 20007KT 10SM BKN110 03/M04 A2973 1040 59 0 200/07 RMK AO2
14837KMSN MSN20020215002509502/15/02 00:25:31  5-MIN KMSN 150625Z 20010KT 10SM BKN110 04/M04 A2973 1040 57 0 200/10 RMK AO2
14837KMSN MSN20020215003009502/15/02 00:30:31  5-MIN KMSN 150630Z 20009KT 10SM SCT110 04/M04 A2973 1040 57 0 200/09 RMK AO2
14837KMSN MSN20020215003509502/15/02 00:35:31  5-MIN KMSN 150635Z 20008KT 10SM SCT110 03/M04 A2972 1050 59 0 200/08 RMK AO2
14837KMSN MSN20020215004009502/15/02 00:40:31  5-MIN KMSN 150640Z 20009KT 10SM FEW110 03/M04 A2972 1050 59 0 200/09 RMK AO2
14837KMSN MSN20020215004509502/15/02 00:45:31  5-MIN KMSN 150645Z 20010KT 10SM FEW110 03/M04 A2972 1050 59 0 200/10 RMK AO2
14837KMSN MSN20020215005011202/15/02 00:50:31  5-MIN KMSN 150650Z 20010KT 10SM FEW110 04/M04 A2971 1060 57 0 200/10 RMK AO2 SLP066 T00391039
14837KMSN MSN20020215005509502/15/02 00:55:31  5-MIN KMSN 150655Z 19012KT 10SM FEW110 03/M04 A2970 1070 59 0 190/12 RMK AO2
14837KMSN MSN20020215010009502/15/02 01:00:31  5-MIN KMSN 150700Z 19011KT 10SM FEW110 03/M04 A2970 1070 59 0 190/11 RMK AO2
14837KMSN MSN20020215010509502/15/02 01:05:31  5-MIN KMSN 150705Z 19011KT 10SM FEW110 03/M04 A2970 1070 59 0 190/11 RMK AO2
14837KMSN MSN20020215011009502/15/02 01:10:31  5-MIN KMSN 150710Z 20009KT 10SM FEW120 03/M04 A2970 1070 59 0 200/09 RMK AO2
14837KMSN MSN20020215011510102/15/02 01:15:31  5-MIN KMSN 150715Z 20010G15KT 10SM SCT120 03/M04 A2970 1060 59 0 200/10G15 RMK AO2
14837KMSN MSN20020215012010102/15/02 01:20:31  5-MIN KMSN 150720Z 21007G15KT 10SM BKN120 03/M04 A2970 1070 59 0 200/07G15 RMK AO2
14837KMSN MSN20020215012509502/15/02 01:25:31  5-MIN KMSN 150725Z 22007KT 10SM BKN120 03/M04 A2971 1060 59 0 220/07 RMK AO2
14837KMSN MSN20020215013009502/15/02 01:30:31  5-MIN KMSN 150730Z 21007KT 10SM SCT120 03/M04 A2971 1060 59 0 210/07 RMK AO2
14837KMSN MSN20020215013509502/15/02 01:35:31  5-MIN KMSN 150735Z 21008KT 10SM SCT120 03/M04 A2971 1060 59 0 210/08 RMK AO2
14837KMSN MSN20020215014009502/15/02 01:40:31  5-MIN KMSN 150740Z 21008KT 10SM BKN120 03/M04 A2971 1060 59 0 210/08 RMK AO2
14837KMSN MSN20020215014509502/15/02 01:45:31  5-MIN KMSN 150745Z 21007KT 10SM BKN120 03/M04 A2971 1060 59 0 210/07 RMK AO2
14837KMSN MSN20020215015012802/15/02 01:50:31  5-MIN KMSN 150750Z 21007KT 190V260 10SM SCT120 03/M04 A2971 1060 59 0 210/07 190V260 RMK AO2 SLP065 T00331039
14837KMSN MSN20020215015509502/15/02 01:55:31  5-MIN KMSN 150755Z 22006KT 10SM FEW120 03/M04 A2971 1060 57 0 210/06 RMK AO2
14837KMSN MSN20020215020009502/15/02 02:00:31  5-MIN KMSN 150800Z 21008KT 10SM FEW120 03/M04 A2971 1060 57 0 210/08 RMK AO2
14837KMSN MSN20020215020509502/15/02 02:05:31  5-MIN KMSN 150805Z 21006KT 10SM FEW120 03/M04 A2971 1060 57 0 210/06 RMK AO2
14837KMSN MSN20020215021009502/15/02 02:10:31  5-MIN KMSN 150810Z 21007KT 10SM FEW120 03/M04 A2971 1060 59 0 210/07 RMK AO2
14837KMSN MSN20020215021509202/15/02 02:15:31  5-MIN KMSN 150815Z 21007KT 10SM CLR 03/M04 A2970 1060 59 0 210/07 RMK AO2
14837KMSN MSN20020215022009202/15/02 02:20:31  5-MIN KMSN 150820Z 22007KT 10SM CLR 03/M04 A2971 1060 59 0 220/07 RMK AO2
14837KMSN MSN20020215022509202/15/02 02:25:31  5-MIN KMSN 150825Z 22005KT 10SM CLR 03/M04 A2970 1070 59 0 220/05 RMK AO2
14837KMSN MSN20020215023009202/15/02 02:30:31  5-MIN KMSN 150830Z 23007KT 10SM CLR 04/M04 A2970 1070 57 0 230/07 RMK AO2
14837KMSN MSN20020215023509202/15/02 02:35:31  5-MIN KMSN 150835Z 23007KT 10SM CLR 03/M04 A2970 1070 59 0 230/07 RMK AO2
14837KMSN MSN20020215024009202/15/02 02:40:31  5-MIN KMSN 150840Z 22007KT 10SM CLR 03/M03 A2970 1070 61 0 220/07 RMK AO2
14837KMSN MSN20020215024509202/15/02 02:45:31  5-MIN KMSN 150845Z 23008KT 10SM CLR 04/M03 A2970 1070 59 0 230/08 RMK AO2
14837KMSN MSN20020215025011502/15/02 02:50:31  5-MIN KMSN 150850Z 23009KT 10SM CLR 03/M03 A2970 1070 61 0 230/09 RMK AO2 SLP063 T00331033 56021
14837KMSN MSN20020215025510802/15/02 02:55:31  5-MIN KMSN 150855Z 24007KT 200V260 10SM CLR 03/M03 A2970 1070 64 0 240/07 200V260 RMK AO2
14837KMSN MSN20020215030009202/15/02 03:00:31  5-MIN KMSN 150900Z 23007KT 10SM CLR 03/M03 A2970 1070 64 0 230/07 RMK AO2
14837KMSN MSN20020215030509202/15/02 03:05:31  5-MIN KMSN 150905Z 23008KT 10SM CLR 03/M03 A2970 1070 64 0 230/08 RMK AO2
14837KMSN MSN20020215031009202/15/02 03:10:31  5-MIN KMSN 150910Z 24007KT 10SM CLR 03/M03 A2970 1070 64 0 240/07 RMK AO2
14837KMSN MSN20020215031509202/15/02 03:15:31  5-MIN KMSN 150915Z 24008KT 10SM CLR 03/M03 A2970 1070 64 0 240/08 RMK AO2
14837KMSN MSN20020215032009202/15/02 03:20:31  5-MIN KMSN 150920Z 24008KT 10SM CLR 03/M03 A2970 1070 64 0 240/08 RMK AO2
14837KMSN MSN20020215032509202/15/02 03:25:31  5-MIN KMSN 150925Z 23006KT 10SM CLR 03/M03 A2970 1070 64 0 230/06 RMK AO2
14837KMSN MSN20020215033009202/15/02 03:30:31  5-MIN KMSN 150930Z 24008KT 10SM CLR 03/M03 A2970 1070 64 0 240/08 RMK AO2
14837KMSN MSN20020215033509502/15/02 03:35:31  5-MIN KMSN 150935Z 24007KT 10SM FEW120 03/M03 A2970 1070 64 0 240/07 RMK AO2
14837KMSN MSN20020215034009502/15/02 03:40:31  5-MIN KMSN 150940Z 25007KT 10SM SCT120 03/M03 A2969 1070 64 0 250/07 RMK AO2
14837KMSN MSN20020215034509502/15/02 03:45:31  5-MIN KMSN 150945Z VRB06KT 10SM BKN120 03/M03 A2969 1070 64 0 VRB/06 RMK AO2
14837KMSN MSN20020215035011202/15/02 03:50:31  5-MIN KMSN 150950Z 26008KT 10SM BKN120 03/M03 A2970 1070 64 0 260/08 RMK AO2 SLP062 T00331028
14837KMSN MSN20020215035509502/15/02 03:55:31  5-MIN KMSN 150955Z 25006KT 10SM SCT120 03/M03 A2970 1070 64 0 250/06 RMK AO2
14837KMSN MSN20020215040009802/15/02 04:00:31  5-MIN KMSN 151000Z 25005KT 10SM SCT120 03/M03 A2970 1070 67 -100 250/05 RMK AO2
14837KMSN MSN20020215040509802/15/02 04:05:31  5-MIN KMSN 151005Z 25007KT 10SM SCT120 03/M03 A2970 1070 67 -100 250/07 RMK AO2
14837KMSN MSN20020215041009802/15/02 04:10:31  5-MIN KMSN 151010Z VRB06KT 10SM FEW120 03/M03 A2970 1070 67 -100 VRB/06 RMK AO2
14837KMSN MSN20020215041511102/15/02 04:15:31  5-MIN KMSN 151015Z 26007KT 220V280 10SM CLR 03/M03 A2970 1070 67 -100 250/07 220V280 RMK AO2
14837KMSN MSN20020215042009502/15/02 04:20:31  5-MIN KMSN 151020Z 26008KT 10SM CLR 03/M02 A2971 1060 69 -100 260/08 RMK AO2
14837KMSN MSN20020215042509802/15/02 04:25:31  5-MIN KMSN 151025Z 26006KT 10SM FEW120 03/M02 A2971 1060 69 -100 250/06 RMK AO2
14837KMSN MSN20020215043009802/15/02 04:30:31  5-MIN KMSN 151030Z 26007KT 10SM FEW120 03/M02 A2971 1060 69 -100 260/07 RMK AO2
14837KMSN MSN20020215043509802/15/02 04:35:31  5-MIN KMSN 151035Z 26006KT 10SM FEW120 02/M02 A2971 1060 72 -100 250/06 RMK AO2
14837KMSN MSN20020215044009802/15/02 04:40:31  5-MIN KMSN 151040Z 26007KT 10SM SCT120 02/M02 A2970 1060 72 -100 260/07 RMK AO2
14837KMSN MSN20020215044509802/15/02 04:45:31  5-MIN KMSN 151045Z VRB06KT 10SM SCT120 02/M02 A2971 1060 75 -200 VRB/06 RMK AO2
14837KMSN MSN20020215045011502/15/02 04:50:31  5-MIN KMSN 151050Z 26008KT 10SM SCT120 02/M02 A2971 1060 72 -100 260/08 RMK AO2 SLP067 T00221022
14837KMSN MSN20020215045509802/15/02 04:55:31  5-MIN KMSN 151055Z 27007KT 10SM FEW120 02/M02 A2971 1060 72 -100 270/07 RMK AO2
14837KMSN MSN20020215050009802/15/02 05:00:31  5-MIN KMSN 151100Z 27008KT 10SM SCT110 02/M02 A2971 1060 72 -100 270/08 RMK AO2
14837KMSN MSN20020215050509802/15/02 05:05:31  5-MIN KMSN 151105Z 26007KT 10SM SCT110 02/M02 A2971 1060 75 -200 260/07 RMK AO2
14837KMSN MSN20020215051009802/15/02 05:10:31  5-MIN KMSN 151110Z 27008KT 10SM FEW110 02/M02 A2971 1060 75 -200 270/08 RMK AO2
14837KMSN MSN20020215051509802/15/02 05:15:31  5-MIN KMSN 151115Z 27007KT 10SM FEW110 02/M02 A2971 1060 75 -200 260/07 RMK AO2
14837KMSN MSN20020215052009802/15/02 05:20:31  5-MIN KMSN 151120Z 26006KT 10SM FEW110 02/M02 A2971 1060 75 -200 260/06 RMK AO2
14837KMSN MSN20020215052509802/15/02 05:25:31  5-MIN KMSN 151125Z 26007KT 10SM FEW110 02/M02 A2971 1060 75 -200 260/07 RMK AO2
14837KMSN MSN20020215053009502/15/02 05:30:31  5-MIN KMSN 151130Z 26007KT 10SM CLR 02/M02 A2971 1060 75 -200 260/07 RMK AO2
14837KMSN MSN20020215053509502/15/02 05:35:31  5-MIN KMSN 151135Z 26006KT 10SM CLR 02/M02 A2971 1060 75 -200 260/06 RMK AO2
14837KMSN MSN20020215054009502/15/02 05:40:31  5-MIN KMSN 151140Z 26005KT 10SM CLR 01/M02 A2971 1060 78 -300 250/05 RMK AO2
14837KMSN MSN20020215054509502/15/02 05:45:31  5-MIN KMSN 151145Z 25007KT 10SM CLR 01/M02 A2971 1060 78 -300 250/07 RMK AO2
14837KMSN MSN20020215055014602/15/02 05:50:31  5-MIN KMSN 151150Z 26007KT 230V290 10SM CLR 01/M02 A2972 1050 78 -300 260/07 230V290 RMK AO2 SLP070 T00111022 10039 20011 56010
14837KMSN MSN20020215055509502/15/02 05:55:31  5-MIN KMSN 151155Z 26007KT 10SM CLR 01/M02 A2972 1050 78 -300 250/07 RMK AO2
14837KMSN MSN20020215060009502/15/02 06:00:31  5-MIN KMSN 151200Z 25006KT 10SM CLR 01/M02 A2972 1050 78 -300 250/06 RMK AO2
14837KMSN MSN20020215060509502/15/02 06:05:31  5-MIN KMSN 151205Z VRB06KT 10SM CLR 01/M02 A2972 1050 78 -300 VRB/06 RMK AO2
14837KMSN MSN20020215061009502/15/02 06:10:31  5-MIN KMSN 151210Z VRB05KT 10SM CLR 01/M02 A2972 1050 78 -300 VRB/05 RMK AO2
14837KMSN MSN20020215061509502/15/02 06:15:31  5-MIN KMSN 151215Z VRB05KT 10SM CLR 01/M02 A2972 1050 78 -300 VRB/05 RMK AO2
14837KMSN MSN20020215062009802/15/02 06:20:31  5-MIN KMSN 151220Z VRB05KT 10SM FEW110 01/M02 A2973 1040 78 -300 VRB/05 RMK AO2
14837KMSN MSN20020215062511402/15/02 06:25:31  5-MIN KMSN 151225Z 26008KT 230V290 10SM FEW110 01/M02 A2973 1040 78 -300 260/08 230V290 RMK AO2
14837KMSN MSN20020215063011402/15/02 06:30:31  5-MIN KMSN 151230Z 26008KT 220V300 10SM SCT110 01/M02 A2973 1040 78 -300 260/08 220V300 RMK AO2
14837KMSN MSN20020215063509802/15/02 06:35:31  5-MIN KMSN 151235Z 27008KT 10SM BKN110 01/M02 A2973 1040 78 -300 270/08 RMK AO2
14837KMSN MSN20020215064010402/15/02 06:40:31  5-MIN KMSN 151240Z 27011G18KT 10SM BKN110 01/M02 A2973 1040 78 -300 270/11G18 RMK AO2
14837KMSN MSN20020215064510402/15/02 06:45:31  5-MIN KMSN 151245Z 27009G18KT 10SM SCT110 01/M02 A2973 1040 78 -300 270/09G18 RMK AO2
14837KMSN MSN20020215065012202/15/02 06:50:31  5-MIN KMSN 151250Z 27010KT 10SM FEW080 SCT110 01/M02 A2974 1030 78 -300 270/10 RMK AO2 SLP077 T00111022
14837KMSN MSN20020215065512802/15/02 06:55:31  5-MIN KMSN 151255Z 27010G17KT 10SM -SN FEW050 SCT080 BKN110 01/M02 A2974 1030 78 -300 270/10G17 RMK AO2 P0000
14837KMSN MSN20020215070012702/15/02 07:00:31  5-MIN KMSN 151300Z 27009G17KT 9SM -SN FEW055 SCT070 BKN080 01/M02 A2974 1030 78 -300 270/09G17 RMK AO2 P0000
14837KMSN MSN20020215070511402/15/02 07:05:31  5-MIN KMSN 151305Z 28010KT 9SM -SN FEW055 BKN065 01/M02 A2975 1030 78 -300 280/10 RMK AO2 P0000
14837KMSN MSN20020215071010702/15/02 07:10:31  5-MIN KMSN 151310Z 28008KT 9SM -SN BKN065 01/M02 A2975 1020 78 -300 280/08 RMK AO2 P0000
14837KMSN MSN20020215071511402/15/02 07:15:31  5-MIN KMSN 151315Z 28009KT 9SM -SN SCT050 BKN065 02/M02 A2975 1020 75 -300 280/09 RMK AO2 P0000
14837KMSN MSN20020215072011402/15/02 07:20:31  5-MIN KMSN 151320Z 28009KT 9SM -SN SCT055 OVC070 02/M02 A2976 1020 78 -300 280/09 RMK AO2 P0000
14837KMSN MSN20020215072512102/15/02 07:25:31  5-MIN KMSN 151325Z 28009KT 9SM -SN FEW050 BKN065 OVC090 02/M02 A2976 1010 78 -300 280/09 RMK AO2 P0000
14837KMSN MSN20020215073012102/15/02 07:30:31  5-MIN KMSN 151330Z 28011KT 9SM -SN BKN060 BKN090 OVC120 02/M02 A2976 1010 78 -300 270/11 RMK AO2 P0000
14837KMSN MSN20020215073513102/15/02 07:35:31  5-MIN KMSN 151335Z 28010KT 2SM -SN BKN041 BKN070 OVC090 02/M02 A2976 1010 78 -300 280/10 RMK AO2 SFC VIS 5 P0000
14837KMSN MSN20020215074012702/15/02 07:40:31  5-MIN KMSN 151340Z 28010KT 2SM -SN BR BKN034 OVC090 01/M01 A2977 1010 85 -300 280/10 RMK AO2 SFC VIS 3 P0000
14837KMSN MSN20020215074513002/15/02 07:45:31  5-MIN KMSN 151345Z 28010G16KT 5SM -SN BR FEW016 BKN036 OVC085 01/M01 A2977 1000 89 -400 280/10G16 RMK AO2 P0000
14837KMSN MSN20020215075016302/15/02 07:50:31  5-MIN KMSN 151350Z 28011G16KT 250V320 6SM -SN BR SCT012 BKN036 OVC090 01/M01 A2977 1000 89 -400 280/11G16 250V320 RMK AO2 SLP089 P0000 T00111006
14837KMSN MSN20020215075511102/15/02 07:55:31  5-MIN KMSN 151355Z 28012KT 7SM BKN012 BKN026 OVC090 01/M01 A2978 1000 89 -400 280/12 RMK AO2
14837KMSN MSN20020215080010702/15/02 08:00:31  5-MIN KMSN 151400Z 29009KT 6SM BR BKN012 OVC026 01/M01 A2978 1000 89 -400 290/09 RMK AO2
14837KMSN MSN20020215080511302/15/02 08:05:31  5-MIN KMSN 151405Z 28009G15KT 6SM BR BKN012 OVC028 01/M01 A2978 1000 89 -400 280/09G15 RMK AO2
14837KMSN MSN20020215081010602/15/02 08:10:31  5-MIN KMSN 151410Z 28009KT 6SM BR BKN012 BKN026 01/M01 A2978 990 89 -400 280/09 RMK AO2
14837KMSN MSN20020215081510602/15/02 08:15:31  5-MIN KMSN 151415Z 28010KT 6SM BR BKN012 OVC034 01/M01 A2978 990 89 -400 280/10 RMK AO2
14837KMSN MSN20020215082010602/15/02 08:20:31  5-MIN KMSN 151420Z 28009KT 6SM BR SCT012 OVC034 02/M01 A2978 990 85 -300 280/09 RMK AO2
14837KMSN MSN20020215082511902/15/02 08:25:31  5-MIN KMSN 151425Z 29007KT 250V310 7SM SCT012 OVC034 02/M01 A2978 990 85 -300 290/07 250V310 RMK AO2
14837KMSN MSN20020215083010302/15/02 08:30:31  5-MIN KMSN 151430Z 28009KT 7SM FEW012 OVC036 02/M01 A2979 990 85 -300 280/09 RMK AO2
14837KMSN MSN20020215083510302/15/02 08:35:31  5-MIN KMSN 151435Z 29008KT 7SM FEW014 OVC036 02/M01 A2979 990 85 -300 290/08 RMK AO2
14837KMSN MSN20020215084010902/15/02 08:40:31  5-MIN KMSN 151440Z 29010G16KT 7SM FEW014 OVC036 02/M01 A2979 990 82 -300 290/10G16 RMK AO2
14837KMSN MSN20020215084510202/15/02 08:45:31  5-MIN KMSN 151445Z 29008G16KT 8SM OVC036 02/M01 A2979 980 82 -300 290/08G16 RMK AO2
14837KMSN MSN20020215085015402/15/02 08:50:31  5-MIN KMSN 151450Z 28009G16KT 250V320 8SM FEW014 OVC038 02/M01 A2980 980 82 -300 280/09G16 250V320 RMK AO2 SLP097 60000 T00171011 53006
14837KMSN MSN20020215085510902/15/02 08:55:31  5-MIN KMSN 151455Z 28010G15KT 7SM SCT014 OVC038 02/M01 A2980 970 82 -300 280/10G15 RMK AO2
14837KMSN MSN20020215090012502/15/02 09:00:31  5-MIN KMSN 151500Z 29007G15KT 220V300 7SM SCT014 OVC038 02/M01 A2980 970 82 -300 290/07G15 220V300 RMK AO2
14837KMSN MSN20020215090510902/15/02 09:05:31  5-MIN KMSN 151505Z 29010G14KT 8SM BKN014 OVC038 02/M01 A2981 970 82 -300 290/10G14 RMK AO2
14837KMSN MSN20020215091010902/15/02 09:10:31  5-MIN KMSN 151510Z 29012G15KT 8SM BKN014 OVC038 02/M01 A2981 970 82 -300 290/12G15 RMK AO2
14837KMSN MSN20020215091510902/15/02 09:15:31  5-MIN KMSN 151515Z 30010G17KT 8SM BKN014 BKN038 02/M01 A2981 970 78 -300 300/10G17 RMK AO2
14837KMSN MSN20020215092010902/15/02 09:20:31  5-MIN KMSN 151520Z 30010G19KT 8SM BKN014 BKN038 02/M01 A2981 970 78 -300 290/10G19 RMK AO2
14837KMSN MSN20020215092510902/15/02 09:25:31  5-MIN KMSN 151525Z 29013G19KT 8SM BKN016 BKN038 02/M01 A2981 960 78 -300 290/13G19 RMK AO2
14837KMSN MSN20020215093012502/15/02 09:30:31  5-MIN KMSN 151530Z 29010G19KT 270V350 8SM BKN016 BKN038 02/M02 A2982 960 75 -300 290/10G19 270V350 RMK AO2
14837KMSN MSN20020215093510902/15/02 09:35:31  5-MIN KMSN 151535Z 29009G18KT 8SM BKN018 BKN038 02/M02 A2982 960 75 -300 290/09G18 RMK AO2
14837KMSN MSN20020215094010202/15/02 09:40:31  5-MIN KMSN 151540Z 28016G20KT 8SM BKN018 03/M02 A2982 950 72 -200 280/16G20 RMK AO2
14837KMSN MSN20020215094510202/15/02 09:45:31  5-MIN KMSN 151545Z 29013G20KT 8SM BKN020 02/M02 A2983 950 72 -300 290/13G20 RMK AO2
14837KMSN MSN20020215095011902/15/02 09:50:31  5-MIN KMSN 151550Z 29010G17KT 8SM OVC020 02/M02 A2983 950 72 -300 290/10G17 RMK AO2 SLP108 T00221022
14837KMSN MSN20020215095510202/15/02 09:55:31  5-MIN KMSN 151555Z 30013G19KT 8SM OVC020 02/M02 A2983 940 72 -300 300/13G19 RMK AO2
14837KMSN MSN20020215100010202/15/02 10:00:31  5-MIN KMSN 151600Z 30012G19KT 8SM OVC020 02/M02 A2984 940 72 -300 300/12G19 RMK AO2
14837KMSN MSN20020215100510202/15/02 10:05:31  5-MIN KMSN 151605Z 29011G23KT 8SM OVC020 02/M02 A2984 940 72 -300 290/11G23 RMK AO2
14837KMSN MSN20020215101010202/15/02 10:10:31  5-MIN KMSN 151610Z 29014G23KT 9SM OVC020 02/M02 A2984 940 72 -300 290/14G23 RMK AO2
14837KMSN MSN20020215101510302/15/02 10:15:31  5-MIN KMSN 151615Z 30014G19KT 10SM OVC020 02/M03 A2984 940 69 -300 300/14G19 RMK AO2
14837KMSN MSN20020215102010302/15/02 10:20:31  5-MIN KMSN 151620Z 29009G19KT 10SM OVC022 02/M03 A2985 930 69 -300 290/09G19 RMK AO2
14837KMSN MSN20020215102510302/15/02 10:25:31  5-MIN KMSN 151625Z 30012G16KT 10SM OVC022 02/M03 A2985 930 69 -300 300/12G16 RMK AO2
14837KMSN MSN20020215103010302/15/02 10:30:31  5-MIN KMSN 151630Z 29013G17KT 10SM OVC022 02/M03 A2985 930 69 -300 290/13G17 RMK AO2
14837KMSN MSN20020215103510302/15/02 10:35:31  5-MIN KMSN 151635Z 29011G17KT 10SM OVC022 02/M03 A2985 930 69 -300 290/11G17 RMK AO2
14837KMSN MSN20020215104010302/15/02 10:40:31  5-MIN KMSN 151640Z 30012G18KT 10SM OVC022 02/M03 A2985 930 69 -300 300/12G18 RMK AO2
14837KMSN MSN20020215104510302/15/02 10:45:31  5-MIN KMSN 151645Z 29016G23KT 10SM OVC022 02/M03 A2986 920 69 -300 290/16G23 RMK AO2
14837KMSN MSN20020215105012002/15/02 10:50:31  5-MIN KMSN 151650Z 31011G23KT 10SM OVC022 02/M03 A2986 920 69 -300 300/11G23 RMK AO2 SLP118 T00221028
14837KMSN MSN20020215105510302/15/02 10:55:31  5-MIN KMSN 151655Z 30014G21KT 10SM OVC022 02/M03 A2986 920 69 -300 300/14G21 RMK AO2
14837KMSN MSN20020215110010302/15/02 11:00:31  5-MIN KMSN 151700Z 30013G21KT 10SM OVC022 02/M03 A2986 920 69 -300 300/13G21 RMK AO2
14837KMSN MSN20020215110510302/15/02 11:05:31  5-MIN KMSN 151705Z 29010G19KT 10SM OVC022 02/M03 A2987 920 69 -300 290/10G19 RMK AO2
14837KMSN MSN20020215111010302/15/02 11:10:31  5-MIN KMSN 151710Z 30009G19KT 10SM OVC020 02/M03 A2987 910 69 -300 300/09G19 RMK AO2
14837KMSN MSN20020215111510302/15/02 11:15:31  5-MIN KMSN 151715Z 30012G19KT 10SM OVC020 02/M03 A2987 910 69 -300 300/12G19 RMK AO2
14837KMSN MSN20020215112010302/15/02 11:20:31  5-MIN KMSN 151720Z 30013G19KT 10SM OVC020 02/M03 A2987 910 69 -300 300/13G19 RMK AO2
14837KMSN MSN20020215112509702/15/02 11:25:31  5-MIN KMSN 151725Z 29012KT 10SM OVC020 02/M03 A2987 910 69 -300 290/12 RMK AO2
14837KMSN MSN20020215113009702/15/02 11:30:31  5-MIN KMSN 151730Z 29010KT 10SM OVC020 02/M03 A2987 910 69 -300 290/10 RMK AO2
14837KMSN MSN20020215113509702/15/02 11:35:31  5-MIN KMSN 151735Z 31009KT 10SM OVC020 02/M03 A2987 910 69 -300 300/09 RMK AO2
14837KMSN MSN20020215114009702/15/02 11:40:31  5-MIN KMSN 151740Z 31008KT 10SM OVC020 02/M03 A2987 910 69 -300 310/08 RMK AO2
14837KMSN MSN20020215114509702/15/02 11:45:31  5-MIN KMSN 151745Z 30009KT 10SM OVC020 02/M03 A2987 910 69 -300 290/09 RMK AO2
14837KMSN MSN20020215115014402/15/02 11:50:31  5-MIN KMSN 151750Z 30009G16KT 10SM OVC020 02/M03 A2987 910 69 -300 300/09G16 RMK AO2 SLP122 60000 T00221028 10028 20011 53027
14837KMSN MSN20020215115510302/15/02 11:55:31  5-MIN KMSN 151755Z 29011G16KT 10SM OVC022 02/M03 A2987 910 69 -300 290/11G16 RMK AO2
14837KMSN MSN20020215120010302/15/02 12:00:31  5-MIN KMSN 151800Z 30012G19KT 10SM OVC022 02/M03 A2987 910 69 -300 300/12G19 RMK AO2
14837KMSN MSN20020215120510302/15/02 12:05:31  5-MIN KMSN 151805Z 30012G19KT 10SM OVC022 02/M03 A2987 910 69 -300 300/12G19 RMK AO2
14837KMSN MSN20020215121011302/15/02 12:10:31  5-MIN KMSN 151810Z 30008KT 270V340 10SM OVC022 02/M03 A2987 910 69 -300 300/08 270V340 RMK AO2
14837KMSN MSN20020215121509702/15/02 12:15:31  5-MIN KMSN 151815Z 31008KT 10SM OVC022 02/M03 A2987 910 69 -300 310/08 RMK AO2
14837KMSN MSN20020215122009702/15/02 12:20:31  5-MIN KMSN 151820Z 31009KT 10SM OVC022 02/M03 A2987 910 69 -300 310/09 RMK AO2
14837KMSN MSN20020215122509702/15/02 12:25:31  5-MIN KMSN 151825Z 30010KT 10SM OVC022 02/M03 A2987 910 69 -300 300/10 RMK AO2
14837KMSN MSN20020215123009702/15/02 12:30:31  5-MIN KMSN 151830Z 30009KT 10SM OVC022 02/M03 A2987 910 69 -300 300/09 RMK AO2
14837KMSN MSN20020215123510302/15/02 12:35:31  5-MIN KMSN 151835Z 31008G14KT 10SM OVC022 02/M03 A2987 910 69 -300 310/08G14 RMK AO2
14837KMSN MSN20020215124011302/15/02 12:40:31  5-MIN KMSN 151840Z 31008KT 280V340 10SM OVC022 02/M03 A2987 910 69 -300 300/08 280V340 RMK AO2
14837KMSN MSN20020215124509702/15/02 12:45:31  5-MIN KMSN 151845Z 30008KT 10SM OVC022 02/M03 A2987 910 69 -300 300/08 RMK AO2
14837KMSN MSN20020215125011402/15/02 12:50:31  5-MIN KMSN 151850Z 30008KT 10SM OVC022 02/M03 A2987 920 69 -300 300/08 RMK AO2 SLP121 T00221028
14837KMSN MSN20020215125509702/15/02 12:55:31  5-MIN KMSN 151855Z 31008KT 10SM OVC022 02/M03 A2987 910 69 -300 300/08 RMK AO2
14837KMSN MSN20020215130009702/15/02 13:00:31  5-MIN KMSN 151900Z 30008KT 10SM OVC022 02/M03 A2987 910 67 -300 300/08 RMK AO2
14837KMSN MSN20020215130509702/15/02 13:05:31  5-MIN KMSN 151905Z 31007KT 10SM OVC022 02/M03 A2987 910 69 -300 300/07 RMK AO2
14837KMSN MSN20020215131009702/15/02 13:10:31  5-MIN KMSN 151910Z 29009KT 10SM OVC022 02/M03 A2987 910 67 -300 290/09 RMK AO2
14837KMSN MSN20020215131509702/15/02 13:15:31  5-MIN KMSN 151915Z 30008KT 10SM OVC022 02/M03 A2987 910 67 -300 300/08 RMK AO2
14837KMSN MSN20020215132009702/15/02 13:20:31  5-MIN KMSN 151920Z 29008KT 10SM OVC024 02/M03 A2987 910 67 -300 290/08 RMK AO2
14837KMSN MSN20020215132509702/15/02 13:25:31  5-MIN KMSN 151925Z 29008KT 10SM OVC024 02/M03 A2987 910 67 -300 290/08 RMK AO2
14837KMSN MSN20020215133010302/15/02 13:30:31  5-MIN KMSN 151930Z 30011G15KT 10SM OVC026 03/M03 A2987 910 64 -300 300/11G15 RMK AO2
14837KMSN MSN20020215133510302/15/02 13:35:31  5-MIN KMSN 151935Z 28006G15KT 10SM OVC026 03/M03 A2987 910 64 -300 280/06G15 RMK AO2
14837KMSN MSN20020215134009702/15/02 13:40:31  5-MIN KMSN 151940Z 28011KT 10SM OVC026 03/M03 A2987 910 64 -300 280/11 RMK AO2
14837KMSN MSN20020215134511002/15/02 13:45:31  5-MIN KMSN 151945Z 28010G15KT 10SM BKN028 OVC032 03/M03 A2987 910 61 -200 280/10G15 RMK AO2
14837KMSN MSN20020215135014302/15/02 13:50:31  5-MIN KMSN 151950Z 30010G15KT 260V320 10SM BKN028 OVC032 04/M03 A2986 920 59 -100 300/10G15 260V320 RMK AO2 SLP120 T00391033
14837KMSN MSN20020215135511702/15/02 13:55:31  5-MIN KMSN 151955Z 30008KT 270V330 10SM BKN028 BKN034 04/M03 A2986 920 57 0 300/08 270V330 RMK AO2
14837KMSN MSN20020215140009702/15/02 14:00:31  5-MIN KMSN 152000Z 30008KT 10SM SCT030 04/M04 A2987 920 57 -100 300/08 RMK AO2
14837KMSN MSN20020215140509402/15/02 14:05:31  5-MIN KMSN 152005Z 30011KT 10SM SCT030 04/M04 A2986 920 55 0 300/11 RMK AO2
14837KMSN MSN20020215141010302/15/02 14:10:31  5-MIN KMSN 152010Z 28010G17KT 10SM SCT030 04/M04 A2986 920 57 -100 280/10G17 RMK AO2
14837KMSN MSN20020215141510302/15/02 14:15:31  5-MIN KMSN 152015Z 29013G17KT 10SM SCT030 04/M04 A2986 920 57 -100 290/13G17 RMK AO2
14837KMSN MSN20020215142009402/15/02 14:20:31  5-MIN KMSN 152020Z 29011KT 10SM SCT030 04/M04 A2986 920 55 0 290/11 RMK AO2
14837KMSN MSN20020215142511002/15/02 14:25:31  5-MIN KMSN 152025Z 26009KT 220V290 10SM SCT030 04/M04 A2986 920 55 0 260/09 220V290 RMK AO2
14837KMSN MSN20020215143009402/15/02 14:30:31  5-MIN KMSN 152030Z 27010KT 10SM SCT030 04/M04 A2986 920 55 0 270/10 RMK AO2
14837KMSN MSN20020215143509402/15/02 14:35:31  5-MIN KMSN 152035Z 27010KT 10SM SCT030 04/M04 A2986 920 52 0 270/10 RMK AO2
14837KMSN MSN20020215144010002/15/02 14:40:31  5-MIN KMSN 152040Z 27011G17KT 10SM SCT030 04/M04 A2986 920 55 0 260/11G17 RMK AO2
14837KMSN MSN20020215144510002/15/02 14:45:31  5-MIN KMSN 152045Z 27011G17KT 10SM SCT030 05/M04 A2986 920 52 0 270/11G17 RMK AO2
14837KMSN MSN20020215145012302/15/02 14:50:31  5-MIN KMSN 152050Z 28008G14KT 10SM SCT030 04/M04 A2986 920 52 0 280/08G14 RMK AO2 SLP119 T00441044 51023
14837KMSN MSN20020215145509402/15/02 14:55:31  5-MIN KMSN 152055Z 28007KT 10SM FEW035 04/M04 A2986 920 52 0 280/07 RMK AO2
14837KMSN MSN20020215150009402/15/02 15:00:31  5-MIN KMSN 152100Z 27009KT 10SM FEW035 05/M04 A2986 920 50 0 270/09 RMK AO2
14837KMSN MSN20020215150509402/15/02 15:05:31  5-MIN KMSN 152105Z VRB06KT 10SM FEW030 05/M04 A2986 920 50 0 VRB/06 RMK AO2
14837KMSN MSN20020215151009402/15/02 15:10:31  5-MIN KMSN 152110Z 28007KT 10SM FEW030 06/M04 A2986 920 48 0 280/07 RMK AO2
14837KMSN MSN20020215151511002/15/02 15:15:31  5-MIN KMSN 152115Z 25007KT 210V270 10SM FEW030 06/M04 A2986 920 48 0 250/07 210V270 RMK AO2
14837KMSN MSN20020215152009402/15/02 15:20:31  5-MIN KMSN 152120Z 27005KT 10SM FEW030 06/M04 A2986 920 48 0 270/05 RMK AO2
14837KMSN MSN20020215152509602/15/02 15:25:31  5-MIN KMSN 152125Z 27010KT 10SM FEW030 06/M04 A2986 920 46 100 270/10 RMK AO2
14837KMSN MSN20020215153011202/15/02 15:30:31  5-MIN KMSN 152130Z 27008KT 220V300 10SM FEW030 06/M05 A2986 920 45 100 270/08 220V300 RMK AO2
14837KMSN MSN20020215153511802/15/02 15:35:31  5-MIN KMSN 152135Z 26009G15KT 230V290 10SM FEW030 06/M05 A2986 920 45 100 260/09G15 230V290 RMK AO2
14837KMSN MSN20020215154011802/15/02 15:40:31  5-MIN KMSN 152140Z 26008G15KT 200V290 10SM FEW030 06/M06 A2986 920 43 100 260/08G15 200V290 RMK AO2
14837KMSN MSN20020215154510202/15/02 15:45:31  5-MIN KMSN 152145Z 27011G15KT 10SM FEW030 06/M06 A2986 920 41 100 260/11G15 RMK AO2
14837KMSN MSN20020215155011902/15/02 15:50:31  5-MIN KMSN 152150Z 27010G14KT 10SM FEW030 06/M06 A2986 920 41 100 270/10G14 RMK AO2 SLP118 T00611061
14837KMSN MSN20020215155510202/15/02 15:55:31  5-MIN KMSN 152155Z 28012G15KT 10SM FEW045 06/M06 A2986 920 41 100 280/12G15 RMK AO2
14837KMSN MSN20020215160009902/15/02 16:00:31  5-MIN KMSN 152200Z 27010G15KT 10SM CLR 06/M07 A2986 920 39 100 270/10G15 RMK AO2
14837KMSN MSN20020215160509102/15/02 16:05:31  5-MIN KMSN 152205Z 28010KT 10SM CLR 06/M07 A2986 920 41 0 280/10 RMK AO2
14837KMSN MSN20020215161009102/15/02 16:10:31  5-MIN KMSN 152210Z 26010KT 10SM CLR 06/M07 A2986 920 41 0 260/10 RMK AO2
14837KMSN MSN20020215161510702/15/02 16:15:31  5-MIN KMSN 152215Z 26008KT 240V300 10SM CLR 06/M07 A2986 920 41 0 260/08 240V300 RMK AO2
14837KMSN MSN20020215162010002/15/02 16:20:31  5-MIN KMSN 152220Z 26007G15KT 10SM FEW040 06/M07 A2986 920 41 0 260/07G15 RMK AO2
14837KMSN MSN20020215162511602/15/02 16:25:31  5-MIN KMSN 152225Z 25007G15KT 220V280 10SM FEW040 06/M06 A2986 920 43 0 250/07G15 220V280 RMK AO2
14837KMSN MSN20020215163011002/15/02 16:30:31  5-MIN KMSN 152230Z 26007KT 230V300 10SM FEW040 06/M06 A2986 920 43 0 260/07 230V300 RMK AO2
14837KMSN MSN20020215163509402/15/02 16:35:31  5-MIN KMSN 152235Z 26007KT 10SM FEW040 06/M06 A2986 920 43 0 260/07 RMK AO2
14837KMSN MSN20020215164009402/15/02 16:40:31  5-MIN KMSN 152240Z VRB06KT 10SM FEW040 05/M06 A2987 920 46 0 VRB/06 RMK AO2
14837KMSN MSN20020215164509402/15/02 16:45:31  5-MIN KMSN 152245Z 26007KT 10SM FEW040 05/M06 A2987 910 44 0 260/07 RMK AO2
14837KMSN MSN20020215165011102/15/02 16:50:31  5-MIN KMSN 152250Z 26009KT 10SM FEW040 05/M06 A2987 910 44 0 260/09 RMK AO2 SLP122 T00501061
14837KMSN MSN20020215165509102/15/02 16:55:31  5-MIN KMSN 152255Z 26008KT 10SM CLR 05/M07 A2987 910 42 0 250/08 RMK AO2
14837KMSN MSN20020215170010002/15/02 17:00:31  5-MIN KMSN 152300Z 26005G14KT 10SM CLR 04/M07 A2988 900 44 -100 260/05G14 RMK AO2
14837KMSN MSN20020215170509402/15/02 17:05:31  5-MIN KMSN 152305Z 26008KT 10SM CLR 04/M07 A2988 900 44 -100 260/08 RMK AO2
14837KMSN MSN20020215171009402/15/02 17:10:31  5-MIN KMSN 152310Z 25007KT 10SM CLR 04/M07 A2988 900 44 -100 250/07 RMK AO2
14837KMSN MSN20020215171509402/15/02 17:15:31  5-MIN KMSN 152315Z 26008KT 10SM CLR 04/M07 A2988 900 46 -100 260/08 RMK AO2
14837KMSN MSN20020215172009402/15/02 17:20:31  5-MIN KMSN 152320Z 26009KT 10SM CLR 04/M07 A2988 900 46 -100 260/09 RMK AO2
14837KMSN MSN20020215172511002/15/02 17:25:31  5-MIN KMSN 152325Z 25007KT 220V280 10SM CLR 04/M07 A2988 900 46 -100 250/07 220V280 RMK AO2
14837KMSN MSN20020215173009402/15/02 17:30:31  5-MIN KMSN 152330Z 26008KT 10SM CLR 04/M07 A2989 900 46 -100 260/08 RMK AO2
14837KMSN MSN20020215173509402/15/02 17:35:31  5-MIN KMSN 152335Z 25006KT 10SM CLR 03/M07 A2989 900 48 -200 250/06 RMK AO2
14837KMSN MSN20020215174009402/15/02 17:40:31  5-MIN KMSN 152340Z 24006KT 10SM CLR 03/M07 A2988 900 48 -200 240/06 RMK AO2
14837KMSN MSN20020215174509402/15/02 17:45:31  5-MIN KMSN 152345Z 26006KT 10SM CLR 03/M07 A2988 900 48 -200 260/06 RMK AO2
14837KMSN MSN20020215175012902/15/02 17:50:31  5-MIN KMSN 152350Z 26008KT 10SM CLR 03/M07 A2989 900 48 -200 260/08 RMK AO2 SLP129 T00331067 10061 20022 57004
14837KMSN MSN20020215175509402/15/02 17:55:31  5-MIN KMSN 152355Z 26007KT 10SM CLR 03/M07 A2989 890 48 -200 260/07 RMK AO2
14837KMSN MSN20020215180009402/15/02 18:00:31  5-MIN KMSN 160000Z 25006KT 10SM CLR 03/M07 A2989 890 48 -200 240/06 RMK AO2
14837KMSN MSN20020215180509402/15/02 18:05:31  5-MIN KMSN 160005Z VRB06KT 10SM CLR 03/M07 A2989 890 48 -200 VRB/06 RMK AO2
14837KMSN MSN20020215181009402/15/02 18:10:31  5-MIN KMSN 160010Z 26005KT 10SM CLR 03/M06 A2989 890 50 -200 260/05 RMK AO2
14837KMSN MSN20020215181509402/15/02 18:15:31  5-MIN KMSN 160015Z 24005KT 10SM CLR 03/M06 A2989 900 50 -200 240/05 RMK AO2
14837KMSN MSN20020215182009402/15/02 18:20:31  5-MIN KMSN 160020Z VRB05KT 10SM CLR 03/M06 A2988 900 50 -200 VRB/05 RMK AO2
14837KMSN MSN20020215182509402/15/02 18:25:31  5-MIN KMSN 160025Z 21005KT 10SM CLR 03/M06 A2988 900 50 -200 210/05 RMK AO2
14837KMSN MSN20020215183009402/15/02 18:30:31  5-MIN KMSN 160030Z 22006KT 10SM CLR 03/M06 A2988 900 54 -300 220/06 RMK AO2
14837KMSN MSN20020215183509402/15/02 18:35:31  5-MIN KMSN 160035Z 23006KT 10SM CLR 03/M04 A2988 900 59 -300 220/06 RMK AO2
14837KMSN MSN20020215184009402/15/02 18:40:31  5-MIN KMSN 160040Z 23006KT 10SM CLR 03/M04 A2988 900 61 -300 230/06 RMK AO2
14837KMSN MSN20020215184509702/15/02 18:45:31  5-MIN KMSN 160045Z 24006KT 10SM FEW120 03/M04 A2989 900 61 -300 240/06 RMK AO2
14837KMSN MSN20020215185011402/15/02 18:50:31  5-MIN KMSN 160050Z 23006KT 10SM FEW120 03/M04 A2989 890 61 -300 230/06 RMK AO2 SLP129 T00281039
14837KMSN MSN20020215185509702/15/02 18:55:31  5-MIN KMSN 160055Z 23006KT 10SM SCT120 03/M04 A2989 900 61 -300 230/06 RMK AO2
14837KMSN MSN20020215190009702/15/02 19:00:31  5-MIN KMSN 160100Z 22006KT 10SM BKN120 03/M04 A2988 900 61 -300 220/06 RMK AO2
14837KMSN MSN20020215190509702/15/02 19:05:31  5-MIN KMSN 160105Z 22005KT 10SM BKN120 03/M04 A2988 900 61 -300 220/05 RMK AO2
14837KMSN MSN20020215191010402/15/02 19:10:31  5-MIN KMSN 160110Z 22004KT 10SM FEW050 SCT120 03/M04 A2988 900 61 -300 220/04 RMK AO2
14837KMSN MSN20020215191510402/15/02 19:15:31  5-MIN KMSN 160115Z 22005KT 10SM SCT050 BKN120 03/M04 A2988 900 61 -300 220/05 RMK AO2
14837KMSN MSN20020215192010402/15/02 19:20:31  5-MIN KMSN 160120Z 22006KT 10SM SCT050 BKN120 03/M04 A2988 900 61 -300 210/06 RMK AO2
14837KMSN MSN20020215192510402/15/02 19:25:31  5-MIN KMSN 160125Z 22008KT 10SM SCT050 BKN120 03/M04 A2988 900 61 -300 220/08 RMK AO2
14837KMSN MSN20020215193009702/15/02 19:30:31  5-MIN KMSN 160130Z 22006KT 10SM SCT050 03/M04 A2988 910 61 -300 220/06 RMK AO2
14837KMSN MSN20020215193509702/15/02 19:35:31  5-MIN KMSN 160135Z 22007KT 10SM SCT050 03/M04 A2987 910 61 -300 220/07 RMK AO2
14837KMSN MSN20020215194009702/15/02 19:40:31  5-MIN KMSN 160140Z 22006KT 10SM FEW050 03/M04 A2987 910 61 -300 220/06 RMK AO2
14837KMSN MSN20020215194509702/15/02 19:45:31  5-MIN KMSN 160145Z 22007KT 10SM FEW050 03/M04 A2987 910 61 -300 220/07 RMK AO2
14837KMSN MSN20020215195011102/15/02 19:50:31  5-MIN KMSN 160150Z 22007KT 10SM CLR 03/M04 A2987 910 61 -300 220/07 RMK AO2 SLP122 T00281039
14837KMSN MSN20020215195509702/15/02 19:55:31  5-MIN KMSN 160155Z 21007KT 10SM FEW100 03/M04 A2986 920 61 -300 210/07 RMK AO2
14837KMSN MSN20020215200009702/15/02 20:00:31  5-MIN KMSN 160200Z 22007KT 10SM SCT100 03/M04 A2986 920 61 -300 210/07 RMK AO2
14837KMSN MSN20020215200509702/15/02 20:05:31  5-MIN KMSN 160205Z 22007KT 10SM BKN095 03/M04 A2986 920 61 -300 220/07 RMK AO2
14837KMSN MSN20020215201010402/15/02 20:10:31  5-MIN KMSN 160210Z 21008KT 10SM BKN090 BKN110 03/M04 A2986 920 59 -200 210/08 RMK AO2
14837KMSN MSN20020215201509702/15/02 20:15:31  5-MIN KMSN 160215Z 22006KT 10SM BKN090 03/M04 A2986 920 61 -300 210/06 RMK AO2
14837KMSN MSN20020215202009702/15/02 20:20:31  5-MIN KMSN 160220Z 22007KT 10SM OVC095 03/M04 A2986 920 61 -300 220/07 RMK AO2
14837KMSN MSN20020215202511302/15/02 20:25:31  5-MIN KMSN 160225Z 23007KT 190V250 10SM OVC095 03/M04 A2986 920 61 -200 220/07 190V250 RMK AO2
14837KMSN MSN20020215203009702/15/02 20:30:31  5-MIN KMSN 160230Z 22008KT 10SM OVC100 03/M03 A2986 920 64 -200 220/08 RMK AO2
14837KMSN MSN20020215203509702/15/02 20:35:31  5-MIN KMSN 160235Z 23007KT 10SM OVC100 03/M03 A2986 920 64 -200 220/07 RMK AO2
14837KMSN MSN20020215204009702/15/02 20:40:31  5-MIN KMSN 160240Z 22006KT 10SM OVC100 03/M03 A2985 930 64 -200 220/06 RMK AO2
14837KMSN MSN20020215204509702/15/02 20:45:31  5-MIN KMSN 160245Z 23007KT 10SM OVC100 03/M03 A2985 930 67 -200 220/07 RMK AO2
14837KMSN MSN20020215205012002/15/02 20:50:31  5-MIN KMSN 160250Z 22006KT 10SM BKN100 03/M03 A2985 930 67 -200 220/06 RMK AO2 SLP117 T00281028 53010
14837KMSN MSN20020215205509702/15/02 20:55:31  5-MIN KMSN 160255Z 22007KT 10SM OVC095 03/M03 A2985 930 67 -200 220/07 RMK AO2
14837KMSN MSN20020215210009702/15/02 21:00:31  5-MIN KMSN 160300Z 23007KT 10SM OVC100 03/M03 A2985 930 67 -200 220/07 RMK AO2
14837KMSN MSN20020215210509702/15/02 21:05:31  5-MIN KMSN 160305Z 22008KT 10SM OVC095 03/M03 A2985 930 67 -200 220/08 RMK AO2
14837KMSN MSN20020215211009702/15/02 21:10:31  5-MIN KMSN 160310Z 22006KT 10SM OVC090 03/M03 A2985 930 67 -200 220/06 RMK AO2
14837KMSN MSN20020215211509702/15/02 21:15:31  5-MIN KMSN 160315Z 22007KT 10SM OVC090 03/M03 A2984 940 67 -200 220/07 RMK AO2
14837KMSN MSN20020215212010402/15/02 21:20:31  5-MIN KMSN 160320Z VRB06KT 10SM BKN090 OVC110 03/M03 A2984 940 67 -200 VRB/06 RMK AO2
14837KMSN MSN20020215212510402/15/02 21:25:31  5-MIN KMSN 160325Z 23007KT 10SM BKN100 OVC110 03/M03 A2984 940 67 -200 230/07 RMK AO2
14837KMSN MSN20020215213010402/15/02 21:30:31  5-MIN KMSN 160330Z 23005KT 10SM BKN100 OVC110 03/M03 A2984 940 67 -200 230/05 RMK AO2
14837KMSN MSN20020215213510402/15/02 21:35:31  5-MIN KMSN 160335Z 23008KT 10SM BKN090 OVC110 03/M03 A2984 940 67 -200 230/08 RMK AO2
14837KMSN MSN20020215214010402/15/02 21:40:31  5-MIN KMSN 160340Z 23006KT 10SM BKN090 OVC110 03/M02 A2984 940 69 -200 230/06 RMK AO2
14837KMSN MSN20020215214510402/15/02 21:45:31  5-MIN KMSN 160345Z 23007KT 10SM BKN090 OVC110 03/M02 A2983 940 69 -200 230/07 RMK AO2
14837KMSN MSN20020215215012102/15/02 21:50:31  5-MIN KMSN 160350Z 23008KT 10SM BKN090 OVC110 03/M02 A2983 940 69 -200 230/08 RMK AO2 SLP110 T00281022
14837KMSN MSN20020215215510402/15/02 21:55:31  5-MIN KMSN 160355Z 23008KT 10SM BKN090 OVC120 03/M02 A2983 950 69 -200 230/08 RMK AO2
14837KMSN MSN20020215220010402/15/02 22:00:31  5-MIN KMSN 160400Z 24008KT 10SM BKN090 OVC120 03/M02 A2983 950 69 -200 230/08 RMK AO2
14837KMSN MSN20020215220510402/15/02 22:05:31  5-MIN KMSN 160405Z 23007KT 10SM BKN085 OVC120 03/M02 A2983 950 69 -200 230/07 RMK AO2
14837KMSN MSN20020215221010402/15/02 22:10:31  5-MIN KMSN 160410Z 23007KT 10SM BKN085 OVC120 03/M02 A2983 950 69 -200 230/07 RMK AO2
14837KMSN MSN20020215221510402/15/02 22:15:31  5-MIN KMSN 160415Z 23008KT 10SM BKN085 OVC120 03/M02 A2983 950 69 -200 230/08 RMK AO2
14837KMSN MSN20020215222009702/15/02 22:20:31  5-MIN KMSN 160420Z 22007KT 10SM OVC090 03/M02 A2983 950 69 -200 220/07 RMK AO2
14837KMSN MSN20020215222509702/15/02 22:25:31  5-MIN KMSN 160425Z 23007KT 10SM OVC090 03/M02 A2983 950 69 -200 230/07 RMK AO2
14837KMSN MSN20020215223009702/15/02 22:30:31  5-MIN KMSN 160430Z 23005KT 10SM OVC085 03/M02 A2982 950 69 -200 230/05 RMK AO2
14837KMSN MSN20020215223510402/15/02 22:35:31  5-MIN KMSN 160435Z 23005KT 10SM FEW070 OVC090 03/M02 A2982 960 69 -200 230/05 RMK AO2
14837KMSN MSN20020215224010402/15/02 22:40:31  5-MIN KMSN 160440Z VRB05KT 10SM SCT065 OVC090 03/M02 A2982 960 69 -200 VRB/05 RMK AO2
14837KMSN MSN20020215224510402/15/02 22:45:31  5-MIN KMSN 160445Z 22006KT 10SM BKN065 OVC090 03/M02 A2982 960 69 -200 220/06 RMK AO2
14837KMSN MSN20020215225012102/15/02 22:50:31  5-MIN KMSN 160450Z 22006KT 10SM BKN065 OVC090 03/M02 A2981 970 69 -200 220/06 RMK AO2 SLP101 T00281022
14837KMSN MSN20020215225510402/15/02 22:55:31  5-MIN KMSN 160455Z 22004KT 10SM BKN065 OVC085 03/M02 A2980 970 67 -100 220/04 RMK AO2
14837KMSN MSN20020215230010402/15/02 23:00:31  5-MIN KMSN 160500Z 23005KT 10SM BKN065 OVC090 03/M02 A2980 970 67 -100 220/05 RMK AO2
14837KMSN MSN20020215230511102/15/02 23:05:31  5-MIN KMSN 160505Z 22006KT 10SM BKN065 BKN090 OVC110 03/M02 A2980 970 69 -200 220/06 RMK AO2
14837KMSN MSN20020215231011102/15/02 23:10:31  5-MIN KMSN 160510Z 23006KT 10SM SCT065 BKN090 OVC110 03/M02 A2980 980 67 -100 230/06 RMK AO2
14837KMSN MSN20020215231511102/15/02 23:15:31  5-MIN KMSN 160515Z 22006KT 10SM SCT065 BKN085 OVC110 03/M02 A2980 980 67 -100 220/06 RMK AO2
14837KMSN MSN20020215232011102/15/02 23:20:31  5-MIN KMSN 160520Z 22007KT 10SM SCT070 BKN085 OVC110 03/M02 A2979 980 67 -100 220/07 RMK AO2
14837KMSN MSN20020215232511102/15/02 23:25:31  5-MIN KMSN 160525Z 22006KT 10SM SCT070 BKN090 OVC110 03/M02 A2979 980 67 -100 220/06 RMK AO2
14837KMSN MSN20020215233011102/15/02 23:30:31  5-MIN KMSN 160530Z 22007KT 10SM SCT070 BKN090 OVC110 03/M02 A2979 990 67 -100 220/07 RMK AO2
14837KMSN MSN20020215233510402/15/02 23:35:31  5-MIN KMSN 160535Z 22007KT 10SM BKN070 OVC110 03/M02 A2979 990 67 -100 220/07 RMK AO2
14837KMSN MSN20020215234010402/15/02 23:40:31  5-MIN KMSN 160540Z 23006KT 10SM BKN075 OVC110 03/M02 A2979 990 67 -100 230/06 RMK AO2
14837KMSN MSN20020215234510402/15/02 23:45:31  5-MIN KMSN 160545Z 22007KT 10SM BKN075 OVC110 03/M02 A2978 990 67 -100 220/07 RMK AO2
14837KMSN MSN20020215235015002/15/02 23:50:31  5-MIN KMSN 160550Z 22006KT 10SM BKN075 BKN110 03/M02 A2978 1000 67 -100 220/06 RMK AO2 SLP091 T00331022 10033 20022 400610011 58013
14837KMSN MSN20020215235510502/15/02 23:55:31  5-MIN KMSN 160555Z 22006KT 10SM SCT075 OVC110 03/M02 A2978 1000 67 -100 220/06 RMK AO2
14837KMSN MSN20020216000010502/16/02 00:00:31  5-MIN KMSN 160600Z 22007KT 10SM FEW080 OVC110 03/M02 A2977 1000 67 -100 220/07 RMK AO2
14837KMSN MSN20020216000510502/16/02 00:05:31  5-MIN KMSN 160605Z 22007KT 10SM FEW080 OVC110 03/M02 A2977 1000 67 -100 220/07 RMK AO2
14837KMSN MSN20020216001010502/16/02 00:10:31  5-MIN KMSN 160610Z VRB06KT 10SM FEW080 OVC120 03/M02 A2977 1000 67 -100 VRB/06 RMK AO2
14837KMSN MSN20020216001510502/16/02 00:15:31  5-MIN KMSN 160615Z 22007KT 10SM FEW095 OVC120 03/M02 A2977 1010 67 -100 220/07 RMK AO2
14837KMSN MSN20020216002010502/16/02 00:20:31  5-MIN KMSN 160620Z 22006KT 10SM FEW090 OVC120 03/M02 A2976 1010 67 -100 220/06 RMK AO2
14837KMSN MSN20020216002510502/16/02 00:25:31  5-MIN KMSN 160625Z 22007KT 10SM SCT090 OVC120 03/M02 A2976 1010 67 -100 220/07 RMK AO2
14837KMSN MSN20020216003010502/16/02 00:30:31  5-MIN KMSN 160630Z 22008KT 10SM SCT090 OVC120 03/M03 A2976 1020 64 -100 220/08 RMK AO2
14837KMSN MSN20020216003510502/16/02 00:35:31  5-MIN KMSN 160635Z 22007KT 10SM BKN090 OVC120 03/M03 A2976 1020 64 -100 220/07 RMK AO2
14837KMSN MSN20020216004010502/16/02 00:40:31  5-MIN KMSN 160640Z 22008KT 10SM BKN090 OVC120 03/M03 A2976 1020 64 -100 220/08 RMK AO2
14837KMSN MSN20020216004510502/16/02 00:45:31  5-MIN KMSN 160645Z 22007KT 10SM BKN090 OVC120 03/M03 A2975 1020 64 -100 220/07 RMK AO2
14837KMSN MSN20020216005011502/16/02 00:50:31  5-MIN KMSN 160650Z 22007KT 10SM OVC090 03/M03 A2975 1020 64 -100 220/07 RMK AO2 SLP082 T00331028
14837KMSN MSN20020216005509802/16/02 00:55:31  5-MIN KMSN 160655Z 23006KT 10SM OVC090 03/M03 A2975 1020 64 -100 230/06 RMK AO2
14837KMSN MSN20020216010009802/16/02 01:00:31  5-MIN KMSN 160700Z 22006KT 10SM OVC090 03/M03 A2975 1020 64 -100 220/06 RMK AO2
14837KMSN MSN20020216010510502/16/02 01:05:31  5-MIN KMSN 160705Z 23007KT 10SM BKN090 OVC120 03/M03 A2975 1030 64 -100 220/07 RMK AO2
14837KMSN MSN20020216011010202/16/02 01:10:31  5-MIN KMSN 160710Z 23007KT 10SM BKN090 OVC120 03/M03 A2974 1030 64 0 230/07 RMK AO2
14837KMSN MSN20020216011510502/16/02 01:15:31  5-MIN KMSN 160715Z 22006KT 10SM BKN090 OVC120 03/M03 A2974 1030 67 -100 220/06 RMK AO2
14837KMSN MSN20020216012010202/16/02 01:20:31  5-MIN KMSN 160720Z 23007KT 10SM BKN090 OVC110 03/M03 A2974 1030 64 0 220/07 RMK AO2
14837KMSN MSN20020216012510202/16/02 01:25:31  5-MIN KMSN 160725Z 22006KT 10SM BKN090 OVC120 03/M03 A2974 1030 64 0 220/06 RMK AO2
14837KMSN MSN20020216013010202/16/02 01:30:31  5-MIN KMSN 160730Z 22006KT 10SM BKN085 OVC110 03/M03 A2974 1030 64 0 220/06 RMK AO2
14837KMSN MSN20020216013509802/16/02 01:35:31  5-MIN KMSN 160735Z 23007KT 10SM OVC085 03/M03 A2974 1030 67 -100 230/07 RMK AO2
14837KMSN MSN20020216014009802/16/02 01:40:31  5-MIN KMSN 160740Z 23006KT 10SM OVC085 03/M03 A2974 1030 67 -100 230/06 RMK AO2
14837KMSN MSN20020216014509802/16/02 01:45:31  5-MIN KMSN 160745Z VRB06KT 10SM OVC080 03/M03 A2974 1030 67 -100 VRB/06 RMK AO2
14837KMSN MSN20020216015011502/16/02 01:50:31  5-MIN KMSN 160750Z 22008KT 10SM OVC085 03/M03 A2974 1030 67 -100 220/08 RMK AO2 SLP078 T00281028
14837KMSN MSN20020216015509802/16/02 01:55:31  5-MIN KMSN 160755Z 23008KT 10SM OVC085 03/M03 A2974 1030 67 -100 220/08 RMK AO2
14837KMSN MSN20020216020009802/16/02 02:00:31  5-MIN KMSN 160800Z 23007KT 10SM OVC085 03/M03 A2974 1030 67 -100 230/07 RMK AO2
14837KMSN MSN20020216020509802/16/02 02:05:31  5-MIN KMSN 160805Z 23007KT 10SM OVC085 03/M03 A2973 1040 67 -100 230/07 RMK AO2
14837KMSN MSN20020216021009802/16/02 02:10:31  5-MIN KMSN 160810Z 23007KT 10SM OVC080 03/M03 A2973 1040 67 -100 230/07 RMK AO2
14837KMSN MSN20020216021509802/16/02 02:15:31  5-MIN KMSN 160815Z 23007KT 10SM OVC085 03/M03 A2973 1040 67 -100 230/07 RMK AO2
14837KMSN MSN20020216022009802/16/02 02:20:31  5-MIN KMSN 160820Z 23007KT 10SM OVC080 03/M03 A2973 1040 67 -100 220/07 RMK AO2
14837KMSN MSN20020216022509802/16/02 02:25:31  5-MIN KMSN 160825Z 23006KT 10SM OVC080 03/M03 A2973 1040 67 -100 230/06 RMK AO2
14837KMSN MSN20020216023009802/16/02 02:30:31  5-MIN KMSN 160830Z 23006KT 10SM OVC080 03/M03 A2972 1050 67 -100 230/06 RMK AO2
14837KMSN MSN20020216023509802/16/02 02:35:31  5-MIN KMSN 160835Z 23005KT 10SM OVC080 02/M03 A2972 1050 69 -200 230/05 RMK AO2
14837KMSN MSN20020216024009802/16/02 02:40:31  5-MIN KMSN 160840Z 22006KT 10SM OVC080 02/M03 A2972 1050 69 -200 220/06 RMK AO2
14837KMSN MSN20020216024509802/16/02 02:45:31  5-MIN KMSN 160845Z 23005KT 10SM BKN080 02/M03 A2972 1050 69 -200 230/05 RMK AO2
14837KMSN MSN20020216025012102/16/02 02:50:31  5-MIN KMSN 160850Z 23005KT 10SM BKN080 02/M03 A2971 1060 69 -200 230/05 RMK AO2 SLP069 T00221028 58024
14837KMSN MSN20020216025509802/16/02 02:55:31  5-MIN KMSN 160855Z 23006KT 10SM SCT080 02/M03 A2971 1060 72 -200 230/06 RMK AO2
14837KMSN MSN20020216030009802/16/02 03:00:31  5-MIN KMSN 160900Z VRB05KT 10SM FEW080 02/M03 A2971 1060 72 -200 VRB/05 RMK AO2
14837KMSN MSN20020216030509802/16/02 03:05:31  5-MIN KMSN 160905Z 23006KT 10SM FEW080 02/M03 A2971 1060 72 -200 230/06 RMK AO2
14837KMSN MSN20020216031009502/16/02 03:10:31  5-MIN KMSN 160910Z 24006KT 10SM CLR 02/M03 A2972 1050 72 -200 240/06 RMK AO2
14837KMSN MSN20020216031509502/16/02 03:15:31  5-MIN KMSN 160915Z 24005KT 10SM CLR 02/M03 A2971 1060 72 -200 240/05 RMK AO2
14837KMSN MSN20020216032009502/16/02 03:20:31  5-MIN KMSN 160920Z 24005KT 10SM CLR 02/M03 A2971 1060 72 -200 240/05 RMK AO2
14837KMSN MSN20020216032509502/16/02 03:25:31  5-MIN KMSN 160925Z 23006KT 10SM CLR 02/M03 A2971 1060 72 -200 230/06 RMK AO2
14837KMSN MSN20020216033009502/16/02 03:30:31  5-MIN KMSN 160930Z 24004KT 10SM CLR 02/M03 A2971 1060 72 -200 240/04 RMK AO2
14837KMSN MSN20020216033509502/16/02 03:35:31  5-MIN KMSN 160935Z VRB04KT 10SM CLR 02/M03 A2971 1060 72 -200 VRB/04 RMK AO2
14837KMSN MSN20020216034009502/16/02 03:40:31  5-MIN KMSN 160940Z VRB05KT 10SM CLR 02/M03 A2970 1070 72 -200 VRB/05 RMK AO2
14837KMSN MSN20020216034509802/16/02 03:45:31  5-MIN KMSN 160945Z 23005KT 10SM FEW045 02/M03 A2970 1070 72 -200 230/05 RMK AO2
14837KMSN MSN20020216035011502/16/02 03:50:31  5-MIN KMSN 160950Z 23005KT 10SM SCT045 02/M03 A2970 1060 72 -200 230/05 RMK AO2 SLP066 T00171028
14837KMSN MSN20020216035509802/16/02 03:55:31  5-MIN KMSN 160955Z VRB04KT 10SM BKN045 02/M03 A2971 1060 72 -200 VRB/04 RMK AO2
14837KMSN MSN20020216040009802/16/02 04:00:31  5-MIN KMSN 161000Z VRB04KT 10SM BKN047 02/M03 A2970 1070 69 -100 VRB/04 RMK AO2
14837KMSN MSN20020216040509802/16/02 04:05:31  5-MIN KMSN 161005Z VRB04KT 10SM BKN047 02/M03 A2970 1070 72 -200 VRB/04 RMK AO2
14837KMSN MSN20020216041010502/16/02 04:10:31  5-MIN KMSN 161010Z 24005KT 10SM BKN047 BKN070 02/M03 A2970 1070 72 -200 240/05 RMK AO2
14837KMSN MSN20020216041510502/16/02 04:15:31  5-MIN KMSN 161015Z VRB05KT 10SM SCT047 BKN070 02/M03 A2970 1070 72 -200 VRB/05 RMK AO2
14837KMSN MSN20020216042010502/16/02 04:20:31  5-MIN KMSN 161020Z 25004KT 10SM FEW047 BKN070 02/M03 A2970 1070 69 -200 250/04 RMK AO2
14837KMSN MSN20020216042510502/16/02 04:25:31  5-MIN KMSN 161025Z 24004KT 10SM FEW047 BKN070 02/M03 A2970 1070 69 -200 240/04 RMK AO2
14837KMSN MSN20020216043009802/16/02 04:30:31  5-MIN KMSN 161030Z VRB06KT 10SM BKN070 02/M03 A2970 1070 69 -200 VRB/06 RMK AO2
14837KMSN MSN20020216043509802/16/02 04:35:31  5-MIN KMSN 161035Z 24006KT 10SM SCT070 02/M03 A2970 1070 69 -200 240/06 RMK AO2
14837KMSN MSN20020216044010502/16/02 04:40:31  5-MIN KMSN 161040Z VRB04KT 10SM FEW045 BKN070 02/M03 A2970 1070 69 -200 VRB/04 RMK AO2
14837KMSN MSN20020216044510502/16/02 04:45:31  5-MIN KMSN 161045Z 25005KT 10SM FEW045 BKN070 02/M03 A2970 1070 69 -200 250/05 RMK AO2
14837KMSN MSN20020216045012202/16/02 04:50:31  5-MIN KMSN 161050Z 25006KT 10SM FEW045 BKN065 02/M03 A2970 1070 69 -200 250/06 RMK AO2 SLP064 T00171033
14837KMSN MSN20020216045509802/16/02 04:55:31  5-MIN KMSN 161055Z VRB06KT 10SM BKN065 02/M03 A2970 1070 67 -100 VRB/06 RMK AO2
14837KMSN MSN20020216050009802/16/02 05:00:31  5-MIN KMSN 161100Z 25006KT 10SM OVC065 02/M03 A2970 1070 67 -100 250/06 RMK AO2
14837KMSN MSN20020216050509802/16/02 05:05:31  5-MIN KMSN 161105Z 26005KT 10SM OVC065 02/M03 A2970 1070 69 -200 260/05 RMK AO2
14837KMSN MSN20020216051009802/16/02 05:10:31  5-MIN KMSN 161110Z 26006KT 10SM OVC060 02/M03 A2970 1070 67 -100 260/06 RMK AO2
14837KMSN MSN20020216051509802/16/02 05:15:31  5-MIN KMSN 161115Z 27006KT 10SM OVC060 02/M03 A2971 1060 67 -100 270/06 RMK AO2
14837KMSN MSN20020216052009802/16/02 05:20:31  5-MIN KMSN 161120Z VRB05KT 10SM OVC055 02/M03 A2970 1060 67 -100 VRB/05 RMK AO2
14837KMSN MSN20020216052510502/16/02 05:25:31  5-MIN KMSN 161125Z VRB06KT 10SM FEW045 OVC055 02/M03 A2971 1060 67 -100 VRB/06 RMK AO2
14837KMSN MSN20020216053009802/16/02 05:30:31  5-MIN KMSN 161130Z 26005KT 10SM OVC050 02/M03 A2971 1060 67 -100 260/05 RMK AO2
14837KMSN MSN20020216053509802/16/02 05:35:31  5-MIN KMSN 161135Z 26006KT 10SM OVC050 02/M03 A2971 1060 67 -100 260/06 RMK AO2
14837KMSN MSN20020216054009802/16/02 05:40:31  5-MIN KMSN 161140Z 26007KT 10SM OVC050 02/M03 A2971 1060 67 -100 260/07 RMK AO2
14837KMSN MSN20020216054509802/16/02 05:45:31  5-MIN KMSN 161145Z 26006KT 10SM BKN050 02/M03 A2971 1060 67 -100 260/06 RMK AO2
14837KMSN MSN20020216055013302/16/02 05:50:31  5-MIN KMSN 161150Z 27005KT 10SM BKN050 02/M03 A2971 1060 67 -100 270/05 RMK AO2 SLP066 T00221033 10033 20017 56021
14837KMSN MSN20020216055510502/16/02 05:55:31  5-MIN KMSN 161155Z 28007KT 10SM SCT039 BKN048 02/M03 A2971 1060 67 -100 280/07 RMK AO2
14837KMSN MSN20020216060010502/16/02 06:00:31  5-MIN KMSN 161200Z 28007KT 10SM SCT039 BKN048 02/M03 A2971 1060 67 -100 280/07 RMK AO2
14837KMSN MSN20020216060510502/16/02 06:05:31  5-MIN KMSN 161205Z 29007KT 10SM SCT039 BKN048 02/M03 A2971 1060 67 -100 290/07 RMK AO2
14837KMSN MSN20020216061010502/16/02 06:10:31  5-MIN KMSN 161210Z 28007KT 10SM SCT039 BKN048 02/M03 A2971 1060 67 -100 280/07 RMK AO2
14837KMSN MSN20020216061510502/16/02 06:15:31  5-MIN KMSN 161215Z 28007KT 10SM SCT039 BKN048 02/M03 A2971 1060 67 -100 280/07 RMK AO2
14837KMSN MSN20020216062012802/16/02 06:20:31  5-MIN KMSN 161220Z 28007KT 10SM -SN FEW037 BKN043 OVC100 02/M03 A2971 1060 67 -100 280/07 RMK AO2 SNB16 P0000
14837KMSN MSN20020216062512702/16/02 06:25:31  5-MIN KMSN 161225Z 28007KT 9SM -SN BKN041 BKN070 OVC100 02/M03 A2971 1060 67 -100 280/07 RMK AO2 SNB16 P0000
14837KMSN MSN20020216063012702/16/02 06:30:31  5-MIN KMSN 161230Z 29008KT 9SM -SN SCT035 BKN043 OVC100 02/M03 A2971 1060 67 -200 290/08 RMK AO2 SNB16 P0000
14837KMSN MSN20020216063512702/16/02 06:35:31  5-MIN KMSN 161235Z 29006KT 8SM -SN FEW025 BKN035 OVC070 02/M03 A2972 1050 67 -200 290/06 RMK AO2 SNB16 P0000
14837KMSN MSN20020216064014402/16/02 06:40:31  5-MIN KMSN 161240Z 30007KT 270V330 10SM -SN SCT027 BKN035 OVC100 02/M03 A2972 1050 69 -200 300/07 270V330 RMK AO2 SNB16 P0000
14837KMSN MSN20020216064514402/16/02 06:45:31  5-MIN KMSN 161245Z 30009KT 260V320 10SM -SN SCT025 BKN030 OVC070 02/M03 A2972 1050 69 -200 300/09 260V320 RMK AO2 SNB16 P0000
14837KMSN MSN20020216065014402/16/02 06:50:31  5-MIN KMSN 161250Z 29007KT 10SM SCT025 BKN030 OVC037 02/M03 A2972 1050 69 -200 290/07 RMK AO2 SNB16E48 SLP071 P0000 T00221028
14837KMSN MSN20020216065511202/16/02 06:55:31  5-MIN KMSN 161255Z 29007KT 10SM FEW025 BKN030 OVC060 02/M03 A2972 1050 69 -200 290/07 RMK AO2
14837KMSN MSN20020216070012802/16/02 07:00:31  5-MIN KMSN 161300Z 29007KT 260V320 10SM FEW025 BKN030 BKN060 02/M03 A2972 1050 72 -200 290/07 260V320 RMK AO2
14837KMSN MSN20020216070511202/16/02 07:05:31  5-MIN KMSN 161305Z 29009KT 10SM BKN028 BKN039 BKN060 02/M03 A2972 1050 69 -200 290/09 RMK AO2
14837KMSN MSN20020216071011202/16/02 07:10:31  5-MIN KMSN 161310Z 30008KT 10SM SCT028 BKN039 BKN060 02/M03 A2973 1040 72 -200 300/08 RMK AO2
14837KMSN MSN20020216071513102/16/02 07:15:31  5-MIN KMSN 161315Z 30008KT 2 1/2SM -SN FEW018 BKN028 OVC060 02/M02 A2973 1040 75 -200 300/08 RMK AO2 SNB12 P0000
14837KMSN MSN20020216072012702/16/02 07:20:31  5-MIN KMSN 161320Z 30008KT 5SM -SN SCT020 BKN028 OVC060 02/M02 A2974 1030 75 -200 300/08 RMK AO2 SNB12 P0000
14837KMSN MSN20020216072513402/16/02 07:25:31  5-MIN KMSN 161325Z 29010KT 9SM -SNDZ SCT020 BKN028 OVC060 02/M02 A2974 1030 78 -300 290/10 RMK AO2 DZB25SNB12 P0000
14837KMSN MSN20020216073013402/16/02 07:30:31  5-MIN KMSN 161330Z 29007KT 4SM -SNDZ BKN018 BKN028 OVC038 02/M01 A2974 1030 82 -300 290/07 RMK AO2 DZB25SNB12 P0000
14837KMSN MSN20020216073512702/16/02 07:35:31  5-MIN KMSN 161335Z 29007KT 8SM -SNDZ BKN018 OVC024 02/M01 A2975 1030 82 -300 290/07 RMK AO2 DZB25SNB12 P0000
14837KMSN MSN20020216074013402/16/02 07:40:31  5-MIN KMSN 161340Z 30008G16KT 10SM BKN018 OVC060 02/M01 A2975 1020 82 -300 290/08G16 RMK AO2 DZB25E37SNB12E37 P0000
14837KMSN MSN20020216074513402/16/02 07:45:31  5-MIN KMSN 161345Z 29008G16KT 10SM BKN018 OVC060 02/M01 A2975 1020 82 -300 290/08G16 RMK AO2 DZB25E37SNB12E37 P0000
14837KMSN MSN20020216075014502/16/02 07:50:31  5-MIN KMSN 161350Z 30008KT 10SM BKN018 OVC060 02/M01 A2975 1020 82 -300 300/08 RMK AO2 DZB25E37SNB12E37 SLP084 P0000 T00171011
14837KMSN MSN20020216075509802/16/02 07:55:31  5-MIN KMSN 161355Z 30008KT 10SM OVC016 02/M01 A2976 1010 82 -300 300/08 RMK AO2
14837KMSN MSN20020216080009802/16/02 08:00:31  5-MIN KMSN 161400Z 30008KT 10SM OVC016 02/M01 A2976 1010 82 -300 300/08 RMK AO2
14837KMSN MSN20020216080511402/16/02 08:05:31  5-MIN KMSN 161405Z 31009KT 10SM -SN OVC016 02/M01 A2976 1010 82 -300 310/09 RMK AO2 SNB03 P0000
14837KMSN MSN20020216081011302/16/02 08:10:31  5-MIN KMSN 161410Z 30008KT 9SM -SN OVC018 02/M01 A2977 1010 82 -300 300/08 RMK AO2 SNB03 P0000
14837KMSN MSN20020216081511302/16/02 08:15:31  5-MIN KMSN 161415Z 31007KT 9SM -SN OVC016 02/M01 A2977 1000 82 -300 310/07 RMK AO2 SNB03 P0000
14837KMSN MSN20020216082012002/16/02 08:20:31  5-MIN KMSN 161420Z 31009KT 9SM -SN BKN016 OVC021 02/M01 A2977 1000 85 -300 300/09 RMK AO2 SNB03 P0000
14837KMSN MSN20020216082513302/16/02 08:25:31  5-MIN KMSN 161425Z 32013G16KT 9SM -SN BKN016 BKN021 OVC026 02/M01 A2978 1000 85 -300 310/13G16 RMK AO2 SNB03 P0000
14837KMSN MSN20020216083013202/16/02 08:30:31  5-MIN KMSN 161430Z 31010G17KT 9SM -SN BKN018 BKN026 OVC035 02/M01 A2978 990 82 -300 310/10G17 RMK AO2 SNB03 P0000
14837KMSN MSN20020216083513102/16/02 08:35:31  5-MIN KMSN 161435Z 30012G17KT 9SM BKN018 BKN026 OVC034 02/M01 A2978 990 82 -300 300/12G17 RMK AO2 SNB03E35 P0000
14837KMSN MSN20020216084012502/16/02 08:40:31  5-MIN KMSN 161440Z 32013KT 9SM SCT016 BKN023 OVC032 02/M01 A2979 990 82 -300 320/13 RMK AO2 SNB03E35 P0000
14837KMSN MSN20020216084512602/16/02 08:45:31  5-MIN KMSN 161445Z 32010KT 10SM SCT018 SCT023 OVC034 02/M01 A2979 990 82 -300 320/10 RMK AO2 SNB03E35 P0000
14837KMSN MSN20020216085015502/16/02 08:50:31  5-MIN KMSN 161450Z 32010KT 10SM FEW016 SCT022 OVC034 02/M01 A2979 990 78 -200 320/10 RMK AO2 SNB03E35 SLP095 P0000 60000 T00221011 55003
14837KMSN MSN20020216085511102/16/02 08:55:31  5-MIN KMSN 161455Z 32010KT 10SM FEW019 SCT023 OVC034 02/M02 A2979 980 75 -200 320/10 RMK AO2
14837KMSN MSN20020216090011702/16/02 09:00:31  5-MIN KMSN 161500Z 33013G16KT 10SM SCT019 BKN024 OVC034 02/M02 A2980 980 75 -300 330/13G16 RMK AO2
14837KMSN MSN20020216090511102/16/02 09:05:31  5-MIN KMSN 161505Z 33012KT 10SM SCT019 BKN029 OVC034 02/M02 A2980 970 75 -300 320/12 RMK AO2
14837KMSN MSN20020216091011702/16/02 09:10:31  5-MIN KMSN 161510Z 33010G15KT 10SM FEW017 BKN029 OVC034 02/M02 A2980 970 72 -300 330/10G15 RMK AO2
14837KMSN MSN20020216091511702/16/02 09:15:31  5-MIN KMSN 161515Z 34013G16KT 10SM FEW017 SCT023 BKN036 03/M02 A2981 970 69 -200 340/13G16 RMK AO2
14837KMSN MSN20020216092011102/16/02 09:20:31  5-MIN KMSN 161520Z 32011KT 10SM FEW017 SCT023 BKN036 02/M02 A2981 970 72 -300 320/11 RMK AO2
14837KMSN MSN20020216092511702/16/02 09:25:31  5-MIN KMSN 161525Z 31011G19KT 10SM FEW017 SCT023 BKN036 02/M02 A2981 960 72 -300 310/11G19 RMK AO2
14837KMSN MSN20020216093011702/16/02 09:30:31  5-MIN KMSN 161530Z 31011G19KT 10SM SCT021 BKN029 OVC046 02/M02 A2981 960 72 -300 310/11G19 RMK AO2
14837KMSN MSN20020216093513302/16/02 09:35:31  5-MIN KMSN 161535Z 31010G17KT 280V340 10SM SCT021 BKN036 OVC046 02/M02 A2982 960 72 -300 310/10G17 280V340 RMK AO2
14837KMSN MSN20020216094011702/16/02 09:40:31  5-MIN KMSN 161540Z 31014G18KT 10SM SCT021 BKN031 OVC049 02/M03 A2982 960 69 -300 310/14G18 RMK AO2
14837KMSN MSN20020216094511702/16/02 09:45:31  5-MIN KMSN 161545Z 31010G18KT 10SM FEW021 BKN033 OVC047 02/M03 A2982 950 69 -300 310/10G18 RMK AO2
14837KMSN MSN20020216095013402/16/02 09:50:31  5-MIN KMSN 161550Z 32012G18KT 10SM BKN024 BKN033 OVC049 02/M03 A2982 950 69 -300 320/12G18 RMK AO2 SLP107 T00221028
14837KMSN MSN20020216095511702/16/02 09:55:31  5-MIN KMSN 161555Z 32013G19KT 10SM BKN022 BKN031 OVC049 02/M03 A2983 950 69 -300 320/13G19 RMK AO2
14837KMSN MSN20020216100011702/16/02 10:00:31  5-MIN KMSN 161600Z 33011G18KT 10SM BKN026 BKN033 OVC049 03/M03 A2983 950 67 -200 330/11G18 RMK AO2
14837KMSN MSN20020216100511702/16/02 10:05:31  5-MIN KMSN 161605Z 33012G19KT 10SM SCT026 BKN031 OVC049 03/M03 A2983 950 67 -200 330/12G19 RMK AO2
14837KMSN MSN20020216101011702/16/02 10:10:31  5-MIN KMSN 161610Z 31011G19KT 10SM BKN026 BKN031 OVC049 03/M03 A2983 950 67 -200 310/11G19 RMK AO2
14837KMSN MSN20020216101511702/16/02 10:15:31  5-MIN KMSN 161615Z 32011G20KT 10SM SCT024 BKN031 OVC049 03/M03 A2983 950 67 -200 320/11G20 RMK AO2
14837KMSN MSN20020216102011702/16/02 10:20:31  5-MIN KMSN 161620Z 32012G22KT 10SM SCT024 BKN031 OVC049 03/M03 A2984 940 64 -200 320/12G22 RMK AO2
14837KMSN MSN20020216102511002/16/02 10:25:31  5-MIN KMSN 161625Z 33013G22KT 10SM SCT028 OVC049 03/M03 A2984 940 64 -200 330/13G22 RMK AO2
14837KMSN MSN20020216103011702/16/02 10:30:31  5-MIN KMSN 161630Z 33012G19KT 10SM FEW026 SCT031 OVC049 03/M03 A2984 940 64 -200 320/12G19 RMK AO2
14837KMSN MSN20020216103511002/16/02 10:35:31  5-MIN KMSN 161635Z 32013G20KT 10SM FEW026 OVC049 03/M03 A2985 930 64 -200 320/13G20 RMK AO2
14837KMSN MSN20020216104011002/16/02 10:40:31  5-MIN KMSN 161640Z 31013G20KT 10SM FEW026 OVC049 03/M03 A2985 930 64 -200 310/13G20 RMK AO2
14837KMSN MSN20020216104511002/16/02 10:45:31  5-MIN KMSN 161645Z 32015G19KT 10SM FEW026 OVC049 03/M03 A2985 930 64 -200 320/15G19 RMK AO2
14837KMSN MSN20020216105012702/16/02 10:50:31  5-MIN KMSN 161650Z 32012G22KT 10SM FEW026 OVC049 03/M03 A2985 930 61 -200 320/12G22 RMK AO2 SLP117 T00331033
14837KMSN MSN20020216105512602/16/02 10:55:31  5-MIN KMSN 161655Z 32009G22KT 300V360 10SM FEW028 OVC049 03/M03 A2986 920 64 -200 320/09G22 300V360 RMK AO2
14837KMSN MSN20020216110011702/16/02 11:00:31  5-MIN KMSN 161700Z 33012G18KT 10SM FEW028 SCT041 OVC049 03/M03 A2986 920 64 -200 330/12G18 RMK AO2
14837KMSN MSN20020216110511702/16/02 11:05:31  5-MIN KMSN 161705Z 31014G18KT 10SM FEW028 BKN041 OVC049 03/M04 A2986 920 61 -300 310/14G18 RMK AO2
14837KMSN MSN20020216111011702/16/02 11:10:31  5-MIN KMSN 161710Z 32011G18KT 10SM FEW030 BKN041 OVC049 03/M04 A2986 920 61 -300 320/11G18 RMK AO2
14837KMSN MSN20020216111511702/16/02 11:15:31  5-MIN KMSN 161715Z 32011G17KT 10SM FEW027 BKN042 OVC049 03/M03 A2986 920 64 -300 320/11G17 RMK AO2
14837KMSN MSN20020216112011002/16/02 11:20:31  5-MIN KMSN 161720Z 31012G19KT 10SM FEW027 OVC042 03/M04 A2987 920 61 -300 310/12G19 RMK AO2
14837KMSN MSN20020216112511002/16/02 11:25:31  5-MIN KMSN 161725Z 33012G19KT 10SM FEW032 OVC042 03/M04 A2987 920 59 -300 330/12G19 RMK AO2
14837KMSN MSN20020216113011002/16/02 11:30:31  5-MIN KMSN 161730Z 32009G16KT 10SM SCT035 OVC042 03/M04 A2987 910 59 -300 320/09G16 RMK AO2
14837KMSN MSN20020216113511102/16/02 11:35:31  5-MIN KMSN 161735Z 33012KT 10SM FEW027 BKN038 OVC044 03/M04 A2987 910 59 -300 330/12 RMK AO2
14837KMSN MSN20020216114011002/16/02 11:40:31  5-MIN KMSN 161740Z 31012G17KT 10SM FEW027 OVC037 03/M05 A2987 910 56 -300 310/12G17 RMK AO2
14837KMSN MSN20020216114510302/16/02 11:45:31  5-MIN KMSN 161745Z 31016G23KT 10SM OVC039 03/M06 A2987 910 54 -300 310/16G23 RMK AO2
14837KMSN MSN20020216115016002/16/02 11:50:31  5-MIN KMSN 161750Z 31016G25KT 270V330 10SM BKN039 04/M06 A2987 910 48 -100 310/16G25 270V330 RMK AO2 SLP121 60000 T00391061 10039 20017 53029
14837KMSN MSN20020216115510302/16/02 11:55:31  5-MIN KMSN 161755Z 31016G25KT 10SM OVC039 03/M07 A2987 910 48 -200 310/16G25 RMK AO2
14837KMSN MSN20020216120010302/16/02 12:00:31  5-MIN KMSN 161800Z 32016G23KT 10SM OVC039 03/M07 A2987 910 48 -200 320/16G23 RMK AO2
14837KMSN MSN20020216120510302/16/02 12:05:31  5-MIN KMSN 161805Z 32016G23KT 10SM OVC041 04/M06 A2987 910 48 -100 320/16G23 RMK AO2
14837KMSN MSN20020216121010302/16/02 12:10:31  5-MIN KMSN 161810Z 33014G23KT 10SM BKN041 04/M06 A2987 910 48 -100 330/14G23 RMK AO2
14837KMSN MSN20020216121510302/16/02 12:15:31  5-MIN KMSN 161815Z 33015G20KT 10SM BKN039 04/M06 A2987 910 48 -100 330/15G20 RMK AO2
14837KMSN MSN20020216122010302/16/02 12:20:31  5-MIN KMSN 161820Z 33012G20KT 10SM BKN039 03/M06 A2987 910 50 -200 330/12G20 RMK AO2
14837KMSN MSN20020216122510302/16/02 12:25:31  5-MIN KMSN 161825Z 33014G19KT 10SM BKN039 03/M06 A2988 900 50 -200 330/14G19 RMK AO2
14837KMSN MSN20020216123011002/16/02 12:30:31  5-MIN KMSN 161830Z 31010G19KT 10SM SCT033 BKN040 04/M05 A2988 900 52 -100 310/10G19 RMK AO2
14837KMSN MSN20020216123511002/16/02 12:35:31  5-MIN KMSN 161835Z 32014G20KT 10SM FEW029 BKN037 03/M04 A2988 900 57 -200 320/14G20 RMK AO2
14837KMSN MSN20020216124011002/16/02 12:40:31  5-MIN KMSN 161840Z 29014G20KT 10SM BKN036 OVC048 03/M04 A2988 900 57 -200 290/14G20 RMK AO2
14837KMSN MSN20020216124511702/16/02 12:45:31  5-MIN KMSN 161845Z 31014G20KT 10SM FEW029 BKN036 OVC046 04/M04 A2988 900 54 -100 310/14G20 RMK AO2
14837KMSN MSN20020216125013402/16/02 12:50:31  5-MIN KMSN 161850Z 30015G19KT 10SM FEW029 BKN038 OVC046 03/M05 A2988 900 54 -200 300/15G19 RMK AO2 SLP126 T00331050
14837KMSN MSN20020216125511002/16/02 12:55:31  5-MIN KMSN 161855Z 32013G19KT 10SM BKN038 OVC046 04/M05 A2988 900 52 -100 320/13G19 RMK AO2
14837KMSN MSN20020216130010402/16/02 13:00:31  5-MIN KMSN 161900Z 31015KT 10SM BKN038 OVC046 03/M05 A2989 900 54 -200 310/15 RMK AO2
14837KMSN MSN20020216130510402/16/02 13:05:31  5-MIN KMSN 161905Z 31012KT 10SM BKN036 OVC046 03/M05 A2989 900 54 -200 310/12 RMK AO2
14837KMSN MSN20020216131011002/16/02 13:10:31  5-MIN KMSN 161910Z 31013G20KT 10SM SCT036 BKN044 04/M05 A2988 900 50 -100 310/13G20 RMK AO2
14837KMSN MSN20020216131510302/16/02 13:15:31  5-MIN KMSN 161915Z 32014G20KT 10SM BKN038 04/M06 A2989 900 48 -100 320/14G20 RMK AO2
14837KMSN MSN20020216132011002/16/02 13:20:31  5-MIN KMSN 161920Z 30014G20KT 10SM BKN038 BKN044 04/M06 A2989 890 48 -100 300/14G20 RMK AO2
14837KMSN MSN20020216132511002/16/02 13:25:31  5-MIN KMSN 161925Z 30014G19KT 10SM BKN036 BKN044 03/M06 A2989 890 52 -200 300/14G19 RMK AO2
14837KMSN MSN20020216133011002/16/02 13:30:31  5-MIN KMSN 161930Z 31016G20KT 10SM BKN038 BKN044 03/M06 A2989 890 52 -200 310/16G20 RMK AO2
14837KMSN MSN20020216133510302/16/02 13:35:31  5-MIN KMSN 161935Z 31015G21KT 10SM BKN038 04/M06 A2989 890 46 -100 310/15G21 RMK AO2
14837KMSN MSN20020216134011002/16/02 13:40:31  5-MIN KMSN 161940Z 31012G21KT 10SM BKN038 BKN045 04/M06 A2989 890 46 -100 300/12G21 RMK AO2
14837KMSN MSN20020216134510302/16/02 13:45:31  5-MIN KMSN 161945Z 31012G18KT 10SM BKN038 04/M07 A2989 890 44 -100 310/12G18 RMK AO2
14837KMSN MSN20020216135012002/16/02 13:50:31  5-MIN KMSN 161950Z 32012G18KT 10SM SCT038 04/M07 A2989 900 44 -100 320/12G18 RMK AO2 SLP128 T00441067
14837KMSN MSN20020216135510302/16/02 13:55:31  5-MIN KMSN 161955Z 30013G20KT 10SM SCT041 04/M07 A2989 890 42 -100 290/13G20 RMK AO2
14837KMSN MSN20020216140010302/16/02 14:00:31  5-MIN KMSN 162000Z 32011G20KT 10SM SCT041 04/M07 A2989 890 44 -100 320/11G20 RMK AO2
14837KMSN MSN20020216140510002/16/02 14:05:31  5-MIN KMSN 162005Z 31015G20KT 10SM FEW041 05/M07 A2989 890 41 0 310/15G20 RMK AO2
14837KMSN MSN20020216141010302/16/02 14:10:31  5-MIN KMSN 162010Z 32014G20KT 10SM FEW041 04/M07 A2989 890 42 -100 310/14G20 RMK AO2
14837KMSN MSN20020216141511902/16/02 14:15:31  5-MIN KMSN 162015Z 32010G19KT 260V340 10SM FEW041 04/M07 A2989 890 42 -100 320/10G19 260V340 RMK AO2
14837KMSN MSN20020216142010302/16/02 14:20:31  5-MIN KMSN 162020Z 30012G18KT 10SM FEW041 04/M07 A2989 890 44 -100 300/12G18 RMK AO2
14837KMSN MSN20020216142510002/16/02 14:25:31  5-MIN KMSN 162025Z 32012G18KT 10SM FEW043 05/M06 A2990 890 44 0 320/12G18 RMK AO2
14837KMSN MSN20020216143010302/16/02 14:30:31  5-MIN KMSN 162030Z 33013G22KT 10SM FEW043 04/M07 A2990 890 42 -100 330/13G22 RMK AO2
14837KMSN MSN20020216143510002/16/02 14:35:31  5-MIN KMSN 162035Z 33008G22KT 10SM FEW043 05/M07 A2990 890 42 0 330/08G22 RMK AO2
14837KMSN MSN20020216144009702/16/02 14:40:31  5-MIN KMSN 162040Z 32011G18KT 10SM CLR 06/M06 A2990 890 43 0 320/11G18 RMK AO2
14837KMSN MSN20020216144509702/16/02 14:45:31  5-MIN KMSN 162045Z 30011G16KT 10SM CLR 05/M06 A2990 880 46 0 290/11G16 RMK AO2
14837KMSN MSN20020216145011702/16/02 14:50:31  5-MIN KMSN 162050Z 30014KT 10SM FEW042 05/M06 A2990 880 46 0 300/14 RMK AO2 SLP132 T00501056 51026
14837KMSN MSN20020216145509402/16/02 14:55:31  5-MIN KMSN 162055Z 32012KT 10SM FEW042 05/M06 A2990 880 44 0 310/12 RMK AO2
14837KMSN MSN20020216150010002/16/02 15:00:31  5-MIN KMSN 162100Z 30013G20KT 10SM FEW042 05/M06 A2990 880 44 0 300/13G20 RMK AO2
14837KMSN MSN20020216150510002/16/02 15:05:31  5-MIN KMSN 162105Z 30013G20KT 10SM FEW042 05/M06 A2991 870 44 0 300/13G20 RMK AO2
14837KMSN MSN20020216151010002/16/02 15:10:31  5-MIN KMSN 162110Z 29014G19KT 10SM FEW042 05/M07 A2991 880 42 0 290/14G19 RMK AO2
14837KMSN MSN20020216151510002/16/02 15:15:31  5-MIN KMSN 162115Z 30010G18KT 10SM FEW042 05/M07 A2991 870 42 0 290/10G18 RMK AO2
14837KMSN MSN20020216152010002/16/02 15:20:31  5-MIN KMSN 162120Z 29012G16KT 10SM FEW042 05/M06 A2991 870 44 0 290/12G16 RMK AO2
14837KMSN MSN20020216152509702/16/02 15:25:31  5-MIN KMSN 162125Z 32014G20KT 10SM CLR 05/M07 A2991 870 42 0 320/14G20 RMK AO2
14837KMSN MSN20020216153009702/16/02 15:30:31  5-MIN KMSN 162130Z 31013G20KT 10SM CLR 05/M07 A2991 870 42 0 310/13G20 RMK AO2
14837KMSN MSN20020216153509702/16/02 15:35:31  5-MIN KMSN 162135Z 30013G18KT 10SM CLR 05/M07 A2992 870 42 0 300/13G18 RMK AO2
14837KMSN MSN20020216154010002/16/02 15:40:31  5-MIN KMSN 162140Z 31014G18KT 10SM CLR 04/M07 A2992 870 44 -100 310/14G18 RMK AO2
14837KMSN MSN20020216154509702/16/02 15:45:31  5-MIN KMSN 162145Z 31013G19KT 10SM CLR 05/M07 A2992 860 42 0 300/13G19 RMK AO2
14837KMSN MSN20020216155011702/16/02 15:50:31  5-MIN KMSN 162150Z 30014G24KT 10SM FEW042 05/M07 A2992 860 42 0 300/14G24 RMK AO2 SLP140 T00501067
14837KMSN MSN20020216155510002/16/02 15:55:31  5-MIN KMSN 162155Z 30012G24KT 10SM CLR 04/M07 A2993 860 42 -100 300/12G24 RMK AO2
14837KMSN MSN20020216160010302/16/02 16:00:31  5-MIN KMSN 162200Z 30011G20KT 10SM FEW042 04/M07 A2993 860 42 -100 300/11G20 RMK AO2
14837KMSN MSN20020216160510302/16/02 16:05:31  5-MIN KMSN 162205Z 31007G17KT 10SM FEW042 04/M07 A2993 850 42 -100 310/07G17 RMK AO2
14837KMSN MSN20020216161010302/16/02 16:10:31  5-MIN KMSN 162210Z 30010G19KT 10SM FEW042 04/M07 A2993 850 42 -100 300/10G19 RMK AO2
14837KMSN MSN20020216161510302/16/02 16:15:31  5-MIN KMSN 162215Z 32009G20KT 10SM FEW042 04/M07 A2994 850 42 -100 320/09G20 RMK AO2
14837KMSN MSN20020216162010302/16/02 16:20:31  5-MIN KMSN 162220Z 32012G20KT 10SM FEW042 04/M07 A2994 850 42 -100 320/12G20 RMK AO2
14837KMSN MSN20020216162510302/16/02 16:25:31  5-MIN KMSN 162225Z 30012G18KT 10SM FEW042 04/M08 A2994 850 41 -100 300/12G18 RMK AO2
14837KMSN MSN20020216163010302/16/02 16:30:31  5-MIN KMSN 162230Z 31012G18KT 10SM FEW042 04/M08 A2994 850 41 -100 300/12G18 RMK AO2
14837KMSN MSN20020216163510302/16/02 16:35:31  5-MIN KMSN 162235Z 30009G18KT 10SM FEW042 04/M08 A2994 850 41 -100 300/09G18 RMK AO2
14837KMSN MSN20020216164011302/16/02 16:40:31  5-MIN KMSN 162240Z 32012KT 290V350 10SM FEW042 04/M07 A2994 840 42 -100 320/12 290V350 RMK AO2
14837KMSN MSN20020216164509702/16/02 16:45:31  5-MIN KMSN 162245Z 32010KT 10SM FEW042 04/M07 A2995 840 44 -200 320/10 RMK AO2
14837KMSN MSN20020216165011402/16/02 16:50:31  5-MIN KMSN 162250Z 32009KT 10SM FEW042 04/M08 A2995 840 42 -200 320/09 RMK AO2 SLP148 T00391078
14837KMSN MSN20020216165509702/16/02 16:55:31  5-MIN KMSN 162255Z 33007KT 10SM FEW042 04/M08 A2995 840 42 -200 320/07 RMK AO2
14837KMSN MSN20020216170009702/16/02 17:00:31  5-MIN KMSN 162300Z 32010KT 10SM FEW042 03/M08 A2995 840 44 -300 320/10 RMK AO2
14837KMSN MSN20020216170509702/16/02 17:05:31  5-MIN KMSN 162305Z 31007KT 10SM FEW042 03/M08 A2995 840 44 -300 310/07 RMK AO2
14837KMSN MSN20020216171009702/16/02 17:10:31  5-MIN KMSN 162310Z 31007KT 10SM SCT042 03/M08 A2995 830 44 -300 310/07 RMK AO2
14837KMSN MSN20020216171509702/16/02 17:15:31  5-MIN KMSN 162315Z 31007KT 10SM SCT062 03/M08 A2996 830 46 -400 310/07 RMK AO2
14837KMSN MSN20020216172009702/16/02 17:20:31  5-MIN KMSN 162320Z 31006KT 10SM SCT062 03/M07 A2996 830 48 -400 310/06 RMK AO2
14837KMSN MSN20020216172509702/16/02 17:25:31  5-MIN KMSN 162325Z 31006KT 10SM SCT062 03/M07 A2996 830 48 -400 310/06 RMK AO2
14837KMSN MSN20020216173009702/16/02 17:30:31  5-MIN KMSN 162330Z 31006KT 10SM BKN062 03/M07 A2996 830 48 -400 310/06 RMK AO2
14837KMSN MSN20020216173509702/16/02 17:35:31  5-MIN KMSN 162335Z 31006KT 10SM BKN062 03/M07 A2996 830 48 -400 310/06 RMK AO2
14837KMSN MSN20020216174009702/16/02 17:40:31  5-MIN KMSN 162340Z 31008KT 10SM SCT062 03/M07 A2996 820 48 -400 310/08 RMK AO2
14837KMSN MSN20020216174509702/16/02 17:45:31  5-MIN KMSN 162345Z 31007KT 10SM SCT062 02/M07 A2997 820 50 -400 310/07 RMK AO2
14837KMSN MSN20020216175013202/16/02 17:50:31  5-MIN KMSN 162350Z 30007KT 10SM SCT062 02/M07 A2997 820 50 -400 300/07 RMK AO2 SLP157 T00221072 10056 20022 53010
14837KMSN MSN20020216175509702/16/02 17:55:31  5-MIN KMSN 162355Z 31008KT 10SM SCT060 02/M07 A2997 820 50 -500 310/08 RMK AO2
14837KMSN MSN20020216180009702/16/02 18:00:31  5-MIN KMSN 170000Z 31008KT 10SM SCT060 02/M07 A2998 810 50 -500 310/08 RMK AO2
14837KMSN MSN20020216180509702/16/02 18:05:31  5-MIN KMSN 170005Z 31009KT 10SM SCT060 02/M07 A2998 810 50 -500 310/09 RMK AO2
14837KMSN MSN20020216181009702/16/02 18:10:31  5-MIN KMSN 170010Z 31008KT 10SM SCT060 02/M07 A2998 800 52 -500 310/08 RMK AO2
14837KMSN MSN20020216181509702/16/02 18:15:31  5-MIN KMSN 170015Z 32007KT 10SM SCT060 02/M07 A2999 800 52 -500 320/07 RMK AO2
14837KMSN MSN20020216182009702/16/02 18:20:31  5-MIN KMSN 170020Z 32006KT 10SM SCT060 02/M07 A2999 800 52 -500 320/06 RMK AO2
14837KMSN MSN20020216182509702/16/02 18:25:31  5-MIN KMSN 170025Z 32007KT 10SM BKN055 02/M07 A2999 800 52 -500 320/07 RMK AO2
14837KMSN MSN20020216183009702/16/02 18:30:31  5-MIN KMSN 170030Z 31008KT 10SM BKN055 02/M06 A3000 790 54 -500 310/08 RMK AO2
14837KMSN MSN20020216183509702/16/02 18:35:31  5-MIN KMSN 170035Z 31010KT 10SM BKN055 02/M06 A3000 790 54 -500 310/10 RMK AO2
14837KMSN MSN20020216184009702/16/02 18:40:31  5-MIN KMSN 170040Z 31008KT 10SM BKN055 02/M06 A3000 790 54 -500 310/08 RMK AO2
14837KMSN MSN20020216184509702/16/02 18:45:31  5-MIN KMSN 170045Z 30011KT 10SM BKN055 02/M06 A3000 790 54 -500 300/11 RMK AO2
14837KMSN MSN20020216185012002/16/02 18:50:31  5-MIN KMSN 170050Z 31009G17KT 10SM BKN050 02/M06 A3000 790 54 -500 310/09G17 RMK AO2 SLP168 T00221061
14837KMSN MSN20020216185510302/16/02 18:55:31  5-MIN KMSN 170055Z 30008G17KT 10SM BKN050 02/M06 A3001 780 54 -500 300/08G17 RMK AO2
14837KMSN MSN20020216190009702/16/02 19:00:31  5-MIN KMSN 170100Z 31009KT 10SM BKN050 02/M06 A3001 780 54 -500 310/09 RMK AO2
14837KMSN MSN20020216190510302/16/02 19:05:31  5-MIN KMSN 170105Z 32011G15KT 10SM BKN050 02/M06 A3001 780 56 -500 320/11G15 RMK AO2
14837KMSN MSN20020216191010302/16/02 19:10:31  5-MIN KMSN 170110Z 32012G17KT 10SM BKN050 02/M06 A3001 780 56 -600 320/12G17 RMK AO2
14837KMSN MSN20020216191510302/16/02 19:15:31  5-MIN KMSN 170115Z 32009G17KT 10SM BKN050 02/M06 A3002 780 56 -600 320/09G17 RMK AO2
14837KMSN MSN20020216192010302/16/02 19:20:31  5-MIN KMSN 170120Z 32010G17KT 10SM BKN050 02/M06 A3002 780 59 -600 320/10G17 RMK AO2
14837KMSN MSN20020216192510302/16/02 19:25:31  5-MIN KMSN 170125Z 32010G17KT 10SM BKN045 01/M06 A3002 780 58 -600 320/10G17 RMK AO2
14837KMSN MSN20020216193009702/16/02 19:30:31  5-MIN KMSN 170130Z 33006KT 10SM BKN045 01/M06 A3002 780 58 -600 320/06 RMK AO2
14837KMSN MSN20020216193509702/16/02 19:35:31  5-MIN KMSN 170135Z 31009KT 10SM SCT045 01/M07 A3002 780 56 -600 310/09 RMK AO2
14837KMSN MSN20020216194009702/16/02 19:40:31  5-MIN KMSN 170140Z 32006KT 10SM SCT045 01/M07 A3001 780 56 -600 320/06 RMK AO2
14837KMSN MSN20020216194509702/16/02 19:45:31  5-MIN KMSN 170145Z 32006KT 10SM SCT045 01/M07 A3001 780 58 -700 320/06 RMK AO2
14837KMSN MSN20020216195011402/16/02 19:50:31  5-MIN KMSN 170150Z 31004KT 10SM FEW045 01/M07 A3001 780 58 -700 310/04 RMK AO2 SLP171 T00061067
14837KMSN MSN20020216195509702/16/02 19:55:31  5-MIN KMSN 170155Z 31004KT 10SM FEW065 00/M07 A3001 780 61 -800 310/04 RMK AO2
14837KMSN MSN20020216200009702/16/02 20:00:31  5-MIN KMSN 170200Z 00000KT 10SM FEW065 01/M07 A3001 780 58 -700 000/00 RMK AO2
14837KMSN MSN20020216200509702/16/02 20:05:31  5-MIN KMSN 170205Z 28003KT 10SM FEW065 01/M06 A3001 780 61 -700 280/03 RMK AO2
14837KMSN MSN20020216201009702/16/02 20:10:31  5-MIN KMSN 170210Z 29004KT 10SM FEW045 00/M06 A3001 780 63 -800 290/04 RMK AO2
14837KMSN MSN20020216201509702/16/02 20:15:31  5-MIN KMSN 170215Z VRB04KT 10SM FEW045 00/M06 A3001 780 63 -800 VRB/04 RMK AO2
14837KMSN MSN20020216202009702/16/02 20:20:31  5-MIN KMSN 170220Z 30004KT 10SM FEW075 00/M06 A3001 780 63 -800 300/04 RMK AO2
14837KMSN MSN20020216202509702/16/02 20:25:31  5-MIN KMSN 170225Z 30003KT 10SM SCT080 00/M06 A3001 780 63 -800 300/03 RMK AO2
14837KMSN MSN20020216203009702/16/02 20:30:31  5-MIN KMSN 170230Z 29004KT 10SM BKN080 00/M06 A3001 780 63 -800 290/04 RMK AO2
14837KMSN MSN20020216203509702/16/02 20:35:31  5-MIN KMSN 170235Z 29004KT 10SM BKN080 01/M06 A3001 780 61 -700 290/04 RMK AO2
14837KMSN MSN20020216204009702/16/02 20:40:31  5-MIN KMSN 170240Z 29004KT 10SM BKN080 01/M06 A3001 780 61 -700 290/04 RMK AO2
14837KMSN MSN20020216204509702/16/02 20:45:31  5-MIN KMSN 170245Z 30005KT 10SM BKN080 01/M06 A3001 780 61 -700 300/05 RMK AO2
14837KMSN MSN20020216205012002/16/02 20:50:31  5-MIN KMSN 170250Z 30004KT 10SM BKN080 01/M06 A3001 780 61 -700 290/04 RMK AO2 SLP170 T00061061 53023
14837KMSN MSN20020216205509702/16/02 20:55:31  5-MIN KMSN 170255Z 27006KT 10SM OVC080 01/M06 A3001 790 61 -700 270/06 RMK AO2
14837KMSN MSN20020216210009702/16/02 21:00:31  5-MIN KMSN 170300Z 26007KT 10SM OVC080 01/M06 A3000 790 61 -700 260/07 RMK AO2
14837KMSN MSN20020216210509702/16/02 21:05:31  5-MIN KMSN 170305Z 26007KT 10SM OVC075 01/M06 A3000 790 61 -700 260/07 RMK AO2
14837KMSN MSN20020216211009702/16/02 21:10:31  5-MIN KMSN 170310Z 28005KT 10SM OVC075 01/M06 A3001 780 61 -700 270/05 RMK AO2
14837KMSN MSN20020216211509702/16/02 21:15:31  5-MIN KMSN 170315Z 27006KT 10SM OVC080 01/M06 A3001 780 61 -700 270/06 RMK AO2
14837KMSN MSN20020216212009702/16/02 21:20:31  5-MIN KMSN 170320Z 28007KT 10SM OVC080 01/M06 A3001 780 61 -700 280/07 RMK AO2
14837KMSN MSN20020216212509702/16/02 21:25:31  5-MIN KMSN 170325Z 27005KT 10SM OVC080 01/M06 A3001 780 61 -700 270/05 RMK AO2
14837KMSN MSN20020216213010402/16/02 21:30:31  5-MIN KMSN 170330Z VRB05KT 10SM FEW050 OVC080 01/M06 A3001 780 61 -700 VRB/05 RMK AO2
14837KMSN MSN20020216213511302/16/02 21:35:31  5-MIN KMSN 170335Z 28007KT 240V300 10SM OVC080 01/M06 A3001 780 63 -700 280/07 240V300 RMK AO2
14837KMSN MSN20020216214010402/16/02 21:40:31  5-MIN KMSN 170340Z 28008KT 10SM FEW050 OVC080 01/M06 A3001 780 61 -600 280/08 RMK AO2
14837KMSN MSN20020216214510402/16/02 21:45:31  5-MIN KMSN 170345Z 29005KT 10SM FEW039 OVC080 01/M06 A3001 780 61 -600 290/05 RMK AO2
14837KMSN MSN20020216215012802/16/02 21:50:31  5-MIN KMSN 170350Z 29008KT 10SM SCT037 SCT049 OVC080 01/M06 A3002 780 61 -600 290/08 RMK AO2 SLP173 T00111056
14837KMSN MSN20020216215511702/16/02 21:55:31  5-MIN KMSN 170355Z 31011G14KT 10SM SCT039 SCT048 OVC080 01/M05 A3002 770 64 -600 310/11G14 RMK AO2
14837KMSN MSN20020216220013402/16/02 22:00:31  5-MIN KMSN 170400Z 30011G16KT 5SM -SN SCT037 BKN046 OVC080 01/M04 A3002 770 66 -600 300/11G16 RMK AO2 SNB0357 P0000
14837KMSN MSN20020216220513402/16/02 22:05:31  5-MIN KMSN 170405Z 31012G19KT 5SM -SN SCT037 BKN048 OVC075 01/M04 A3002 770 69 -600 310/12G19 RMK AO2 SNB0357 P0000
14837KMSN MSN20020216221013402/16/02 22:10:31  5-MIN KMSN 170410Z 35016G22KT 5SM -SN FEW027 BKN048 OVC075 01/M04 A3003 760 72 -700 350/16G22 RMK AO2 SNB0357 P0000
14837KMSN MSN20020216221514502/16/02 22:15:31  5-MIN KMSN 170415Z 35014G22KT 7SM -SN FEW027 BKN039 OVC075 00/M03 A3004 760 78 -800 350/14G22 RMK AO2 WSHFT 0401 SNB0357 P0000
14837KMSN MSN20020216222014002/16/02 22:20:31  5-MIN KMSN 170420Z 36015KT 7SM -SN FEW030 BKN041 OVC075 M01/M04 A3004 760 78 -900 360/15 RMK AO2 WSHFT 0401 SNB0357 P0000
14837KMSN MSN20020216222514602/16/02 22:25:31  5-MIN KMSN 170425Z 36016G20KT 9SM -SN FEW030 BKN048 OVC075 M01/M05 A3004 760 72 -900 360/16G20 RMK AO2 WSHFT 0401 SNB0357 P0000
14837KMSN MSN20020216223016402/16/02 22:30:31  5-MIN KMSN 170430Z 35014G26KT 9SM -SN FEW030 BKN048 OVC075 M01/M06 A3004 750 66 -900 350/14G26 RMK AO2 PK WND 01026/0427 WSHFT 0401 SNB0357 P0000
14837KMSN MSN20020216223516402/16/02 22:35:31  5-MIN KMSN 170435Z 35009G26KT 9SM -SN FEW028 BKN041 OVC075 M01/M06 A3004 750 66 -900 350/09G26 RMK AO2 PK WND 01026/0427 WSHFT 0401 SNB0357 P0000
14837KMSN MSN20020216224016402/16/02 22:40:31  5-MIN KMSN 170440Z 35011G20KT 9SM -SN SCT041 BKN049 OVC070 M01/M06 A3005 750 66 -900 350/11G20 RMK AO2 PK WND 01026/0427 WSHFT 0401 SNB0357 P0000
14837KMSN MSN20020216224516502/16/02 22:45:31  5-MIN KMSN 170445Z 34010G21KT 6SM -SN FEW039 SCT049 OVC070 M01/M06 A3005 750 69 -1000 340/10G21 RMK AO2 PK WND 01026/0427 WSHFT 0401 SNB0357 P0000
14837KMSN MSN20020216225018102/16/02 22:50:31  5-MIN KMSN 170450Z 35010G21KT 9SM -SN SCT039 SCT049 OVC075 M01/M07 A3005 750 63 -900 350/10G21 RMK AO2 PK WND 01026/0427 WSHFT 0401 SNB0357 SLP184 P0000 T10061067
14837KMSN MSN20020216225512102/16/02 22:55:31  5-MIN KMSN 170455Z 34007KT 9SM -SN SCT039 BKN047 OVC070 M01/M07 A3005 750 63 -900 340/07 RMK AO2 P0000
14837KMSN MSN20020216230012102/16/02 23:00:31  5-MIN KMSN 170500Z 34008KT 9SM -SN BKN039 BKN047 OVC070 M01/M07 A3005 750 63 -900 330/08 RMK AO2 P0000
14837KMSN MSN20020216230511502/16/02 23:05:31  5-MIN KMSN 170505Z 34008KT 9SM -SN BKN042 BKN070 M01/M07 A3005 750 66 -1000 340/08 RMK AO2 P0000
14837KMSN MSN20020216231011702/16/02 23:10:31  5-MIN KMSN 170510Z 33008KT 9SM BKN042 BKN070 M01/M07 A3005 740 66 -1000 330/08 RMK AO2 SNE10 P0000
14837KMSN MSN20020216231511002/16/02 23:15:31  5-MIN KMSN 170515Z 33008KT 9SM BKN042 M01/M07 A3005 740 66 -1000 330/08 RMK AO2 SNE10 P0000
14837KMSN MSN20020216232011102/16/02 23:20:31  5-MIN KMSN 170520Z 33006KT 10SM BKN042 M01/M07 A3005 740 66 -1000 330/06 RMK AO2 SNE10 P0000
14837KMSN MSN20020216232511702/16/02 23:25:31  5-MIN KMSN 170525Z 32006KT 10SM BKN042 BKN050 M01/M06 A3005 740 66 -900 320/06 RMK AO2 SNE10 P0000
14837KMSN MSN20020216233011802/16/02 23:30:31  5-MIN KMSN 170530Z 33006KT 10SM SCT044 OVC055 M01/M06 A3006 740 69 -1000 330/06 RMK AO2 SNE10 P0000
14837KMSN MSN20020216233512402/16/02 23:35:31  5-MIN KMSN 170535Z 31006KT 10SM SCT044 BKN055 OVC065 M01/M06 A3006 740 66 -900 310/06 RMK AO2 SNE10 P0000
14837KMSN MSN20020216234012402/16/02 23:40:31  5-MIN KMSN 170540Z 32007KT 10SM FEW040 BKN055 OVC065 M01/M06 A3006 740 66 -900 320/07 RMK AO2 SNE10 P0000
14837KMSN MSN20020216234512502/16/02 23:45:31  5-MIN KMSN 170545Z 31007KT 10SM FEW040 BKN055 OVC070 M01/M06 A3006 740 69 -1000 310/07 RMK AO2 SNE10 P0000
14837KMSN MSN20020216235016902/16/02 23:50:31  5-MIN KMSN 170550Z 31007KT 10SM BKN055 OVC065 M01/M06 A3006 730 69 -1000 310/07 RMK AO2 SNE10 SLP188 P0000 60000 T10111061 10022 21011 400561011 50012
14837KMSN MSN20020216235510602/16/02 23:55:31  5-MIN KMSN 170555Z 31007KT 10SM BKN055 OVC065 M01/M06 A3006 730 69 -1000 310/07 RMK AO2
14837KMSN MSN20020217000010602/17/02 00:00:31  5-MIN KMSN 170600Z 32006KT 10SM BKN055 OVC065 M01/M06 A3006 730 69 -1000 320/06 RMK AO2
14837KMSN MSN20020217000510602/17/02 00:05:31  5-MIN KMSN 170605Z 32006KT 10SM BKN055 OVC070 M01/M06 A3006 730 69 -1000 320/06 RMK AO2
14837KMSN MSN20020217001009902/17/02 00:10:31  5-MIN KMSN 170610Z 31005KT 10SM OVC060 M01/M06 A3007 730 69 -1000 310/05 RMK AO2
14837KMSN MSN20020217001509902/17/02 00:15:31  5-MIN KMSN 170615Z 32006KT 10SM OVC060 M01/M06 A3007 730 69 -1000 320/06 RMK AO2
14837KMSN MSN20020217002009902/17/02 00:20:31  5-MIN KMSN 170620Z 31007KT 10SM OVC060 M01/M06 A3007 730 69 -1000 310/07 RMK AO2
14837KMSN MSN20020217002509902/17/02 00:25:31  5-MIN KMSN 170625Z 31006KT 10SM OVC060 M01/M06 A3007 720 69 -1000 310/06 RMK AO2
14837KMSN MSN20020217003009902/17/02 00:30:31  5-MIN KMSN 170630Z 32007KT 10SM BKN060 M02/M07 A3007 720 69 -1100 320/07 RMK AO2
14837KMSN MSN20020217003509902/17/02 00:35:31  5-MIN KMSN 170635Z 32006KT 10SM SCT060 M01/M07 A3008 720 66 -1000 320/06 RMK AO2
14837KMSN MSN20020217004009902/17/02 00:40:31  5-MIN KMSN 170640Z 33008KT 10SM SCT060 M01/M07 A3008 720 66 -1000 330/08 RMK AO2
14837KMSN MSN20020217004509902/17/02 00:45:31  5-MIN KMSN 170645Z 33007KT 10SM SCT060 M02/M06 A3008 720 72 -1100 330/07 RMK AO2
14837KMSN MSN20020217005011602/17/02 00:50:31  5-MIN KMSN 170650Z 33008KT 10SM FEW060 M02/M06 A3008 710 72 -1100 330/08 RMK AO2 SLP196 T10171061
14837KMSN MSN20020217005509902/17/02 00:55:31  5-MIN KMSN 170655Z 33008KT 10SM FEW060 M02/M08 A3008 710 63 -1100 330/08 RMK AO2
14837KMSN MSN20020217010009602/17/02 01:00:31  5-MIN KMSN 170700Z 34008KT 10SM CLR M02/M08 A3008 710 60 -1100 340/08 RMK AO2
14837KMSN MSN20020217010509602/17/02 01:05:31  5-MIN KMSN 170705Z 33009KT 10SM CLR M02/M08 A3009 710 60 -1100 330/09 RMK AO2
14837KMSN MSN20020217011009602/17/02 01:10:31  5-MIN KMSN 170710Z 33006KT 10SM CLR M02/M08 A3009 710 60 -1100 320/06 RMK AO2
14837KMSN MSN20020217011509602/17/02 01:15:31  5-MIN KMSN 170715Z 33006KT 10SM CLR M02/M08 A3009 710 60 -1100 320/06 RMK AO2
14837KMSN MSN20020217012009602/17/02 01:20:31  5-MIN KMSN 170720Z 33009KT 10SM CLR M02/M08 A3009 700 60 -1100 330/09 RMK AO2
14837KMSN MSN20020217012509602/17/02 01:25:31  5-MIN KMSN 170725Z 33007KT 10SM CLR M02/M08 A3010 700 60 -1100 330/07 RMK AO2
14837KMSN MSN20020217013009602/17/02 01:30:31  5-MIN KMSN 170730Z 33007KT 10SM CLR M02/M09 A3010 700 58 -1100 330/07 RMK AO2
14837KMSN MSN20020217013509602/17/02 01:35:31  5-MIN KMSN 170735Z 33006KT 10SM CLR M02/M09 A3010 700 58 -1100 330/06 RMK AO2
14837KMSN MSN20020217014009602/17/02 01:40:31  5-MIN KMSN 170740Z 33008KT 10SM CLR M02/M09 A3010 690 60 -1200 330/08 RMK AO2
14837KMSN MSN20020217014509602/17/02 01:45:31  5-MIN KMSN 170745Z 33008KT 10SM CLR M02/M09 A3011 690 60 -1200 330/08 RMK AO2
14837KMSN MSN20020217015011302/17/02 01:50:31  5-MIN KMSN 170750Z 33008KT 10SM CLR M02/M09 A3011 690 60 -1200 330/08 RMK AO2 SLP204 T10221089
14837KMSN MSN20020217015509602/17/02 01:55:31  5-MIN KMSN 170755Z 33007KT 10SM CLR M02/M09 A3011 690 60 -1200 330/07 RMK AO2
14837KMSN MSN20020217020009602/17/02 02:00:31  5-MIN KMSN 170800Z 33008KT 10SM CLR M02/M09 A3011 690 60 -1200 330/08 RMK AO2
14837KMSN MSN20020217020509602/17/02 02:05:31  5-MIN KMSN 170805Z 33008KT 10SM CLR M02/M09 A3011 690 60 -1200 330/08 RMK AO2
14837KMSN MSN20020217021009602/17/02 02:10:31  5-MIN KMSN 170810Z 33008KT 10SM CLR M02/M09 A3011 690 60 -1200 330/08 RMK AO2
14837KMSN MSN20020217021509602/17/02 02:15:31  5-MIN KMSN 170815Z 34007KT 10SM CLR M02/M09 A3011 690 60 -1200 340/07 RMK AO2
14837KMSN MSN20020217022009602/17/02 02:20:31  5-MIN KMSN 170820Z 34007KT 10SM CLR M03/M09 A3011 690 63 -1200 340/07 RMK AO2
14837KMSN MSN20020217022509602/17/02 02:25:31  5-MIN KMSN 170825Z 34008KT 10SM CLR M03/M09 A3011 690 63 -1200 340/08 RMK AO2
14837KMSN MSN20020217023009602/17/02 02:30:31  5-MIN KMSN 170830Z 34008KT 10SM CLR M03/M09 A3011 690 63 -1200 330/08 RMK AO2
14837KMSN MSN20020217023509602/17/02 02:35:31  5-MIN KMSN 170835Z 34008KT 10SM CLR M03/M08 A3012 680 66 -1200 340/08 RMK AO2
14837KMSN MSN20020217024009602/17/02 02:40:31  5-MIN KMSN 170840Z 33006KT 10SM CLR M03/M08 A3012 680 66 -1200 330/06 RMK AO2
14837KMSN MSN20020217024509602/17/02 02:45:31  5-MIN KMSN 170845Z 33008KT 10SM CLR M03/M08 A3012 680 66 -1200 330/08 RMK AO2
14837KMSN MSN20020217025011902/17/02 02:50:31  5-MIN KMSN 170850Z 34007KT 10SM CLR M03/M08 A3012 680 66 -1300 340/07 RMK AO2 SLP209 T10281083 53018
14837KMSN MSN20020217025509602/17/02 02:55:31  5-MIN KMSN 170855Z 33006KT 10SM CLR M03/M08 A3012 680 71 -1300 330/06 RMK AO2
14837KMSN MSN20020217030009602/17/02 03:00:31  5-MIN KMSN 170900Z VRB05KT 10SM CLR M03/M08 A3013 680 66 -1300 VRB/05 RMK AO2
14837KMSN MSN20020217030509602/17/02 03:05:31  5-MIN KMSN 170905Z 32004KT 10SM CLR M03/M08 A3013 670 66 -1300 320/04 RMK AO2
14837KMSN MSN20020217031009602/17/02 03:10:31  5-MIN KMSN 170910Z 32006KT 10SM CLR M03/M08 A3013 670 68 -1300 320/06 RMK AO2
14837KMSN MSN20020217031509602/17/02 03:15:31  5-MIN KMSN 170915Z 32006KT 10SM CLR M03/M08 A3013 670 68 -1300 320/06 RMK AO2
14837KMSN MSN20020217032009602/17/02 03:20:31  5-MIN KMSN 170920Z 32005KT 10SM CLR M03/M08 A3013 670 68 -1300 320/05 RMK AO2
14837KMSN MSN20020217032509602/17/02 03:25:31  5-MIN KMSN 170925Z 33006KT 10SM CLR M03/M08 A3013 670 68 -1300 320/06 RMK AO2
14837KMSN MSN20020217033009602/17/02 03:30:31  5-MIN KMSN 170930Z 34005KT 10SM CLR M03/M08 A3013 670 68 -1300 340/05 RMK AO2
14837KMSN MSN20020217033509602/17/02 03:35:31  5-MIN KMSN 170935Z 34005KT 10SM CLR M03/M08 A3013 670 68 -1300 340/05 RMK AO2
14837KMSN MSN20020217034009602/17/02 03:40:31  5-MIN KMSN 170940Z 34004KT 10SM CLR M03/M08 A3013 670 68 -1300 340/04 RMK AO2
14837KMSN MSN20020217034509602/17/02 03:45:31  5-MIN KMSN 170945Z 34005KT 10SM CLR M04/M08 A3014 660 71 -1400 340/05 RMK AO2
14837KMSN MSN20020217035011302/17/02 03:50:31  5-MIN KMSN 170950Z 34005KT 10SM CLR M04/M08 A3014 660 71 -1400 340/05 RMK AO2 SLP216 T10391083
14837KMSN MSN20020217035509602/17/02 03:55:31  5-MIN KMSN 170955Z 33006KT 10SM CLR M04/M08 A3014 660 71 -1400 330/06 RMK AO2
14837KMSN MSN20020217040009602/17/02 04:00:31  5-MIN KMSN 171000Z 34006KT 10SM CLR M04/M08 A3015 660 74 -1400 340/06 RMK AO2
14837KMSN MSN20020217040509602/17/02 04:05:31  5-MIN KMSN 171005Z 33006KT 10SM CLR M03/M08 A3015 660 71 -1300 330/06 RMK AO2
14837KMSN MSN20020217041009602/17/02 04:10:31  5-MIN KMSN 171010Z 34006KT 10SM CLR M03/M08 A3015 650 71 -1400 340/06 RMK AO2
14837KMSN MSN20020217041509602/17/02 04:15:31  5-MIN KMSN 171015Z 34006KT 10SM CLR M04/M08 A3015 660 74 -1400 330/06 RMK AO2
14837KMSN MSN20020217042009602/17/02 04:20:31  5-MIN KMSN 171020Z 33007KT 10SM CLR M03/M08 A3015 650 71 -1400 330/07 RMK AO2
14837KMSN MSN20020217042509602/17/02 04:25:31  5-MIN KMSN 171025Z 33006KT 10SM CLR M03/M08 A3016 650 68 -1400 330/06 RMK AO2
14837KMSN MSN20020217043009602/17/02 04:30:31  5-MIN KMSN 171030Z 33007KT 10SM CLR M04/M08 A3016 650 74 -1400 330/07 RMK AO2
14837KMSN MSN20020217043509602/17/02 04:35:31  5-MIN KMSN 171035Z 33006KT 10SM CLR M04/M08 A3016 640 71 -1400 330/06 RMK AO2
14837KMSN MSN20020217044009602/17/02 04:40:31  5-MIN KMSN 171040Z 32004KT 10SM CLR M04/M08 A3016 640 71 -1400 320/04 RMK AO2
14837KMSN MSN20020217044509602/17/02 04:45:31  5-MIN KMSN 171045Z 32006KT 10SM CLR M04/M08 A3017 640 71 -1400 320/06 RMK AO2
14837KMSN MSN20020217045011302/17/02 04:50:31  5-MIN KMSN 171050Z 33006KT 10SM CLR M04/M08 A3017 640 71 -1400 330/06 RMK AO2 SLP225 T10391083
14837KMSN MSN20020217045509602/17/02 04:55:31  5-MIN KMSN 171055Z 33006KT 10SM CLR M04/M08 A3017 640 71 -1400 330/06 RMK AO2
14837KMSN MSN20020217050009602/17/02 05:00:31  5-MIN KMSN 171100Z 34007KT 10SM CLR M04/M08 A3017 640 71 -1400 340/07 RMK AO2
14837KMSN MSN20020217050509602/17/02 05:05:31  5-MIN KMSN 171105Z 34006KT 10SM CLR M04/M08 A3017 640 71 -1400 340/06 RMK AO2
14837KMSN MSN20020217051009602/17/02 05:10:31  5-MIN KMSN 171110Z 34006KT 10SM CLR M04/M08 A3017 630 71 -1400 340/06 RMK AO2
14837KMSN MSN20020217051509602/17/02 05:15:31  5-MIN KMSN 171115Z 34006KT 10SM CLR M04/M08 A3017 630 71 -1500 340/06 RMK AO2
14837KMSN MSN20020217052009602/17/02 05:20:31  5-MIN KMSN 171120Z 35006KT 10SM CLR M04/M08 A3018 630 74 -1500 350/06 RMK AO2
14837KMSN MSN20020217052509602/17/02 05:25:31  5-MIN KMSN 171125Z 34006KT 10SM CLR M04/M08 A3018 630 74 -1500 340/06 RMK AO2
14837KMSN MSN20020217053009602/17/02 05:30:31  5-MIN KMSN 171130Z 34005KT 10SM CLR M04/M08 A3018 620 74 -1500 340/05 RMK AO2
14837KMSN MSN20020217053509602/17/02 05:35:31  5-MIN KMSN 171135Z 35004KT 10SM CLR M05/M08 A3018 630 77 -1600 350/04 RMK AO2
14837KMSN MSN20020217054009602/17/02 05:40:31  5-MIN KMSN 171140Z 33004KT 10SM CLR M05/M08 A3018 620 77 -1600 330/04 RMK AO2
14837KMSN MSN20020217054509602/17/02 05:45:31  5-MIN KMSN 171145Z 33004KT 10SM CLR M05/M08 A3018 620 77 -1600 330/04 RMK AO2
14837KMSN MSN20020217055013102/17/02 05:50:31  5-MIN KMSN 171150Z 33005KT 10SM CLR M05/M08 A3018 620 77 -1600 330/05 RMK AO2 SLP231 T10501083 11011 21050 51020
14837KMSN MSN20020217055509602/17/02 05:55:31  5-MIN KMSN 171155Z 33005KT 10SM CLR M05/M08 A3018 620 77 -1600 330/05 RMK AO2
14837KMSN MSN20020217060009602/17/02 06:00:31  5-MIN KMSN 171200Z 33005KT 10SM CLR M05/M08 A3019 620 77 -1600 330/05 RMK AO2
14837KMSN MSN20020217060509602/17/02 06:05:31  5-MIN KMSN 171205Z 33005KT 10SM CLR M05/M08 A3019 620 77 -1600 330/05 RMK AO2
14837KMSN MSN20020217061009602/17/02 06:10:31  5-MIN KMSN 171210Z 34004KT 10SM CLR M05/M09 A3019 620 74 -1600 340/04 RMK AO2
14837KMSN MSN20020217061509602/17/02 06:15:31  5-MIN KMSN 171215Z 35005KT 10SM CLR M05/M09 A3019 610 74 -1600 340/05 RMK AO2
14837KMSN MSN20020217062009602/17/02 06:20:31  5-MIN KMSN 171220Z 36004KT 10SM CLR M05/M09 A3019 610 74 -1600 360/04 RMK AO2
14837KMSN MSN20020217062509602/17/02 06:25:31  5-MIN KMSN 171225Z 36004KT 10SM CLR M06/M09 A3020 610 77 -1800 360/04 RMK AO2
14837KMSN MSN20020217063009602/17/02 06:30:31  5-MIN KMSN 171230Z 36004KT 10SM CLR M06/M09 A3020 610 81 -1800 360/04 RMK AO2
14837KMSN MSN20020217063509602/17/02 06:35:31  5-MIN KMSN 171235Z 36004KT 10SM CLR M06/M09 A3020 610 81 -1800 360/04 RMK AO2
14837KMSN MSN20020217064009602/17/02 06:40:31  5-MIN KMSN 171240Z 36004KT 10SM CLR M06/M08 A3020 610 81 -1700 350/04 RMK AO2
14837KMSN MSN20020217064509602/17/02 06:45:31  5-MIN KMSN 171245Z 34004KT 10SM CLR M06/M08 A3020 610 81 -1700 340/04 RMK AO2
14837KMSN MSN20020217065011302/17/02 06:50:31  5-MIN KMSN 171250Z 34005KT 10SM CLR M06/M08 A3020 610 81 -1700 340/05 RMK AO2 SLP237 T10561083
14837KMSN MSN20020217065509602/17/02 06:55:31  5-MIN KMSN 171255Z 33005KT 10SM CLR M06/M09 A3020 610 77 -1700 330/05 RMK AO2
14837KMSN MSN20020217070009602/17/02 07:00:31  5-MIN KMSN 171300Z 35005KT 10SM CLR M06/M09 A3020 610 77 -1700 340/05 RMK AO2
14837KMSN MSN20020217070509602/17/02 07:05:31  5-MIN KMSN 171305Z 35004KT 10SM CLR M06/M08 A3020 600 81 -1700 350/04 RMK AO2
14837KMSN MSN20020217071009602/17/02 07:10:31  5-MIN KMSN 171310Z 34003KT 10SM CLR M06/M09 A3021 600 77 -1700 340/03 RMK AO2
14837KMSN MSN20020217071509602/17/02 07:15:31  5-MIN KMSN 171315Z 31003KT 10SM CLR M06/M08 A3022 590 81 -1700 310/03 RMK AO2
14837KMSN MSN20020217072010302/17/02 07:20:31  5-MIN KMSN 171320Z 31004KT 10SM CLR M05/M08 A3023 580 77 -1700 310/04 RMK AO2 PRESRR
14837KMSN MSN20020217072509602/17/02 07:25:31  5-MIN KMSN 171325Z 33003KT 10SM CLR M05/M08 A3023 580 77 -1700 320/03 RMK AO2
14837KMSN MSN20020217073009602/17/02 07:30:31  5-MIN KMSN 171330Z 00000KT 10SM CLR M05/M08 A3022 580 77 -1700 000/00 RMK AO2
14837KMSN MSN20020217073509602/17/02 07:35:31  5-MIN KMSN 171335Z 34003KT 10SM CLR M05/M08 A3023 580 77 -1700 340/03 RMK AO2
14837KMSN MSN20020217074009602/17/02 07:40:31  5-MIN KMSN 171340Z 33003KT 10SM CLR M04/M08 A3023 580 74 -1600 330/03 RMK AO2
14837KMSN MSN20020217074509602/17/02 07:45:31  5-MIN KMSN 171345Z 34003KT 10SM CLR M04/M08 A3023 580 78 -1600 340/03 RMK AO2
14837KMSN MSN20020217075011302/17/02 07:50:31  5-MIN KMSN 171350Z VRB03KT 10SM CLR M04/M08 A3023 580 78 -1600 VRB/03 RMK AO2 SLP249 T10441078
14837KMSN MSN20020217075509602/17/02 07:55:31  5-MIN KMSN 171355Z 33006KT 10SM CLR M04/M08 A3023 580 74 -1600 330/06 RMK AO2
14837KMSN MSN20020217080009602/17/02 08:00:31  5-MIN KMSN 171400Z 33005KT 10SM CLR M04/M08 A3024 570 74 -1500 330/05 RMK AO2
14837KMSN MSN20020217080509602/17/02 08:05:31  5-MIN KMSN 171405Z 31005KT 10SM CLR M04/M08 A3024 570 74 -1500 310/05 RMK AO2
14837KMSN MSN20020217081009602/17/02 08:10:31  5-MIN KMSN 171410Z 32007KT 10SM CLR M04/M08 A3024 570 74 -1500 320/07 RMK AO2
14837KMSN MSN20020217081509602/17/02 08:15:31  5-MIN KMSN 171415Z 34006KT 10SM CLR M03/M08 A3024 570 71 -1500 340/06 RMK AO2
14837KMSN MSN20020217082009602/17/02 08:20:31  5-MIN KMSN 171420Z 36006KT 10SM CLR M03/M08 A3025 560 71 -1500 360/06 RMK AO2
14837KMSN MSN20020217082509602/17/02 08:25:31  5-MIN KMSN 171425Z 35006KT 10SM CLR M03/M08 A3025 560 68 -1400 340/06 RMK AO2
14837KMSN MSN20020217083009602/17/02 08:30:31  5-MIN KMSN 171430Z 36006KT 10SM CLR M03/M08 A3024 570 68 -1400 360/06 RMK AO2
14837KMSN MSN20020217083509602/17/02 08:35:31  5-MIN KMSN 171435Z 02007KT 10SM CLR M03/M08 A3025 570 68 -1400 010/07 RMK AO2
14837KMSN MSN20020217084009602/17/02 08:40:31  5-MIN KMSN 171440Z 36006KT 10SM CLR M03/M08 A3025 560 68 -1400 360/06 RMK AO2
14837KMSN MSN20020217084509602/17/02 08:45:31  5-MIN KMSN 171445Z 02008KT 10SM CLR M03/M08 A3025 560 68 -1400 020/08 RMK AO2
14837KMSN MSN20020217085011902/17/02 08:50:31  5-MIN KMSN 171450Z 01006KT 10SM CLR M03/M08 A3026 560 68 -1400 010/06 RMK AO2 SLP257 T10281078 51020
14837KMSN MSN20020217085509602/17/02 08:55:31  5-MIN KMSN 171455Z 36007KT 10SM CLR M03/M08 A3026 550 68 -1400 360/07 RMK AO2
14837KMSN MSN20020217090009602/17/02 09:00:31  5-MIN KMSN 171500Z 01006KT 10SM CLR M02/M07 A3026 550 69 -1300 010/06 RMK AO2
14837KMSN MSN20020217090509602/17/02 09:05:31  5-MIN KMSN 171505Z 03006KT 10SM CLR M02/M08 A3026 550 66 -1300 030/06 RMK AO2
14837KMSN MSN20020217091009602/17/02 09:10:31  5-MIN KMSN 171510Z 02005KT 10SM CLR M02/M07 A3026 550 69 -1300 020/05 RMK AO2
14837KMSN MSN20020217091509602/17/02 09:15:31  5-MIN KMSN 171515Z 02004KT 10SM CLR M02/M07 A3026 550 69 -1300 020/04 RMK AO2
14837KMSN MSN20020217092009602/17/02 09:20:31  5-MIN KMSN 171520Z 03006KT 10SM CLR M02/M07 A3026 550 69 -1300 030/06 RMK AO2
14837KMSN MSN20020217092509602/17/02 09:25:31  5-MIN KMSN 171525Z 04004KT 10SM CLR M02/M08 A3026 550 66 -1300 040/04 RMK AO2
14837KMSN MSN20020217093009602/17/02 09:30:31  5-MIN KMSN 171530Z VRB04KT 10SM CLR M02/M07 A3026 550 66 -1300 VRB/04 RMK AO2
14837KMSN MSN20020217093509602/17/02 09:35:31  5-MIN KMSN 171535Z 06005KT 10SM CLR M02/M08 A3026 550 63 -1300 050/05 RMK AO2
14837KMSN MSN20020217094009602/17/02 09:40:31  5-MIN KMSN 171540Z VRB03KT 10SM CLR M02/M08 A3026 550 66 -1300 VRB/03 RMK AO2
14837KMSN MSN20020217094509602/17/02 09:45:31  5-MIN KMSN 171545Z 00000KT 10SM CLR M02/M07 A3027 550 66 -1300 000/00 RMK AO2
14837KMSN MSN20020217095011602/17/02 09:50:31  5-MIN KMSN 171550Z VRB04KT 10SM FEW021 M01/M07 A3027 540 63 -1200 VRB/04 RMK AO2 SLP260 T10111072
14837KMSN MSN20020217095509902/17/02 09:55:31  5-MIN KMSN 171555Z VRB03KT 10SM FEW021 M01/M07 A3027 540 63 -1200 VRB/03 RMK AO2
14837KMSN MSN20020217100009602/17/02 10:00:31  5-MIN KMSN 171600Z 36004KT 10SM CLR M02/M08 A3027 540 63 -1300 360/04 RMK AO2
14837KMSN MSN20020217100509602/17/02 10:05:31  5-MIN KMSN 171605Z 00000KT 10SM CLR M02/M08 A3027 540 63 -1300 000/00 RMK AO2
14837KMSN MSN20020217101009602/17/02 10:10:31  5-MIN KMSN 171610Z 03005KT 10SM CLR M01/M07 A3027 540 63 -1100 030/05 RMK AO2
14837KMSN MSN20020217101509602/17/02 10:15:31  5-MIN KMSN 171615Z 01003KT 10SM CLR M01/M08 A3027 540 60 -1200 010/03 RMK AO2
14837KMSN MSN20020217102009602/17/02 10:20:31  5-MIN KMSN 171620Z 35003KT 10SM CLR M01/M08 A3027 540 60 -1200 350/03 RMK AO2
14837KMSN MSN20020217102509902/17/02 10:25:31  5-MIN KMSN 171625Z VRB03KT 10SM SCT021 M01/M08 A3027 550 60 -1200 VRB/03 RMK AO2
14837KMSN MSN20020217103009902/17/02 10:30:31  5-MIN KMSN 171630Z 02005KT 10SM SCT021 M01/M08 A3027 550 60 -1200 020/05 RMK AO2
14837KMSN MSN20020217103509902/17/02 10:35:31  5-MIN KMSN 171635Z 36003KT 10SM SCT021 M02/M08 A3027 550 63 -1300 360/03 RMK AO2
14837KMSN MSN20020217104009902/17/02 10:40:31  5-MIN KMSN 171640Z 03003KT 10SM SCT021 M01/M07 A3027 540 63 -1200 030/03 RMK AO2
14837KMSN MSN20020217104509902/17/02 10:45:31  5-MIN KMSN 171645Z 02004KT 10SM SCT021 M01/M08 A3027 540 60 -1200 020/04 RMK AO2
14837KMSN MSN20020217105011602/17/02 10:50:31  5-MIN KMSN 171650Z 00000KT 10SM SCT021 M01/M08 A3027 540 58 -1200 000/00 RMK AO2 SLP261 T10111083
14837KMSN MSN20020217105509602/17/02 10:55:31  5-MIN KMSN 171655Z 01004KT 10SM CLR M01/M08 A3027 540 58 -1100 010/04 RMK AO2
14837KMSN MSN20020217110009602/17/02 11:00:31  5-MIN KMSN 171700Z 00000KT 10SM CLR M01/M08 A3027 540 58 -1100 000/00 RMK AO2
14837KMSN MSN20020217110509502/17/02 11:05:31  5-MIN KMSN 171705Z 00000KT 10SM CLR 00/M08 A3027 540 56 -1100 000/00 RMK AO2
14837KMSN MSN20020217111009502/17/02 11:10:31  5-MIN KMSN 171710Z VRB03KT 10SM CLR 00/M08 A3027 540 56 -1100 VRB/03 RMK AO2
14837KMSN MSN20020217111509502/17/02 11:15:31  5-MIN KMSN 171715Z 36003KT 10SM CLR 00/M08 A3027 540 56 -1100 360/03 RMK AO2
14837KMSN MSN20020217112009502/17/02 11:20:31  5-MIN KMSN 171720Z VRB03KT 10SM CLR 00/M08 A3027 540 56 -1100 VRB/03 RMK AO2
14837KMSN MSN20020217112509502/17/02 11:25:31  5-MIN KMSN 171725Z 00000KT 10SM CLR 00/M08 A3027 540 53 -1100 000/00 RMK AO2
14837KMSN MSN20020217113009502/17/02 11:30:31  5-MIN KMSN 171730Z 28003KT 10SM CLR 00/M08 A3027 550 53 -1100 280/03 RMK AO2
14837KMSN MSN20020217113509502/17/02 11:35:31  5-MIN KMSN 171735Z 00000KT 10SM CLR 00/M08 A3026 550 53 -1100 000/00 RMK AO2
14837KMSN MSN20020217114009502/17/02 11:40:31  5-MIN KMSN 171740Z 00000KT 10SM CLR 00/M09 A3027 550 51 -1100 000/00 RMK AO2
14837KMSN MSN20020217114509502/17/02 11:45:31  5-MIN KMSN 171745Z 22004KT 10SM CLR 00/M08 A3026 550 53 -1100 220/04 RMK AO2
14837KMSN MSN20020217115013302/17/02 11:50:31  5-MIN KMSN 171750Z VRB04KT 10SM FEW020 00/M08 A3026 550 53 -1100 VRB/04 RMK AO2 SLP258 T00001083 10000 21061 53024
14837KMSN MSN20020217115509502/17/02 11:55:31  5-MIN KMSN 171755Z VRB03KT 10SM CLR 01/M08 A3026 550 51 -1000 VRB/03 RMK AO2
14837KMSN MSN20020217120009502/17/02 12:00:31  5-MIN KMSN 171800Z VRB05KT 10SM CLR 01/M08 A3026 550 51 -1000 VRB/05 RMK AO2
14837KMSN MSN20020217120509502/17/02 12:05:31  5-MIN KMSN 171805Z 17004KT 10SM CLR 00/M09 A3026 550 51 -1100 170/04 RMK AO2
14837KMSN MSN20020217121009502/17/02 12:10:31  5-MIN KMSN 171810Z VRB04KT 10SM CLR 01/M08 A3025 560 51 -1000 VRB/04 RMK AO2
14837KMSN MSN20020217121509502/17/02 12:15:31  5-MIN KMSN 171815Z 00000KT 10SM CLR 00/M09 A3025 560 51 -1000 000/00 RMK AO2
14837KMSN MSN20020217122009502/17/02 12:20:31  5-MIN KMSN 171820Z VRB03KT 10SM CLR 01/M08 A3025 560 51 -1000 VRB/03 RMK AO2
14837KMSN MSN20020217122509402/17/02 12:25:31  5-MIN KMSN 171825Z 00000KT 10SM CLR 01/M08 A3026 550 49 -900 000/00 RMK AO2
14837KMSN MSN20020217123009402/17/02 12:30:31  5-MIN KMSN 171830Z 00000KT 10SM CLR 01/M08 A3026 560 49 -900 000/00 RMK AO2
14837KMSN MSN20020217123509402/17/02 12:35:31  5-MIN KMSN 171835Z 22004KT 10SM CLR 01/M09 A3025 560 47 -900 220/04 RMK AO2
14837KMSN MSN20020217124009502/17/02 12:40:31  5-MIN KMSN 171840Z 19003KT 10SM CLR 01/M09 A3025 560 47 -1000 190/03 RMK AO2
14837KMSN MSN20020217124509402/17/02 12:45:31  5-MIN KMSN 171845Z 00000KT 10SM CLR 01/M08 A3025 560 49 -900 000/00 RMK AO2
14837KMSN MSN20020217125011102/17/02 12:50:31  5-MIN KMSN 171850Z VRB05KT 10SM CLR 02/M08 A3024 570 49 -800 VRB/05 RMK AO2 SLP251 T00171078
14837KMSN MSN20020217125509402/17/02 12:55:31  5-MIN KMSN 171855Z VRB05KT 10SM CLR 01/M08 A3024 570 49 -900 VRB/05 RMK AO2
14837KMSN MSN20020217130009502/17/02 13:00:31  5-MIN KMSN 171900Z VRB03KT 10SM CLR 01/M08 A3024 570 51 -1000 VRB/03 RMK AO2
14837KMSN MSN20020217130509402/17/02 13:05:31  5-MIN KMSN 171905Z VRB05KT 10SM CLR 01/M08 A3024 570 51 -900 VRB/05 RMK AO2
14837KMSN MSN20020217131009402/17/02 13:10:31  5-MIN KMSN 171910Z 30006KT 10SM CLR 01/M08 A3024 570 51 -900 300/06 RMK AO2
14837KMSN MSN20020217131509402/17/02 13:15:31  5-MIN KMSN 171915Z 29003KT 10SM CLR 01/M08 A3024 570 49 -900 290/03 RMK AO2
14837KMSN MSN20020217132009402/17/02 13:20:31  5-MIN KMSN 171920Z 00000KT 10SM CLR 02/M08 A3024 570 49 -800 000/00 RMK AO2
14837KMSN MSN20020217132509402/17/02 13:25:31  5-MIN KMSN 171925Z 00000KT 10SM CLR 02/M08 A3024 570 49 -800 000/00 RMK AO2
14837KMSN MSN20020217133009402/17/02 13:30:31  5-MIN KMSN 171930Z VRB04KT 10SM CLR 02/M08 A3023 580 49 -800 VRB/04 RMK AO2
14837KMSN MSN20020217133509402/17/02 13:35:31  5-MIN KMSN 171935Z VRB04KT 10SM CLR 02/M08 A3023 580 47 -800 VRB/04 RMK AO2
14837KMSN MSN20020217134009402/17/02 13:40:31  5-MIN KMSN 171940Z 15005KT 10SM CLR 02/M08 A3023 580 47 -800 150/05 RMK AO2
14837KMSN MSN20020217134509402/17/02 13:45:31  5-MIN KMSN 171945Z 00000KT 10SM CLR 01/M09 A3023 580 47 -900 000/00 RMK AO2
14837KMSN MSN20020217135011102/17/02 13:50:31  5-MIN KMSN 171950Z VRB04KT 10SM CLR 02/M08 A3023 580 47 -800 VRB/04 RMK AO2 SLP246 T00171083
14837KMSN MSN20020217135509402/17/02 13:55:31  5-MIN KMSN 171955Z VRB04KT 10SM CLR 02/M09 A3023 580 45 -800 VRB/04 RMK AO2
14837KMSN MSN20020217140009402/17/02 14:00:31  5-MIN KMSN 172000Z 15004KT 10SM CLR 02/M09 A3023 580 45 -800 150/04 RMK AO2
14837KMSN MSN20020217140509402/17/02 14:05:31  5-MIN KMSN 172005Z VRB05KT 10SM CLR 02/M09 A3023 580 44 -700 VRB/05 RMK AO2
14837KMSN MSN20020217141009402/17/02 14:10:31  5-MIN KMSN 172010Z VRB05KT 10SM CLR 02/M09 A3023 580 44 -700 VRB/05 RMK AO2
14837KMSN MSN20020217141509402/17/02 14:15:31  5-MIN KMSN 172015Z 16005KT 10SM CLR 02/M09 A3023 580 44 -700 160/05 RMK AO2
14837KMSN MSN20020217142009402/17/02 14:20:31  5-MIN KMSN 172020Z VRB04KT 10SM CLR 02/M09 A3023 580 44 -700 VRB/04 RMK AO2
14837KMSN MSN20020217142509402/17/02 14:25:31  5-MIN KMSN 172025Z 25005KT 10SM CLR 03/M09 A3023 580 42 -700 250/05 RMK AO2
14837KMSN MSN20020217143009402/17/02 14:30:31  5-MIN KMSN 172030Z 21006KT 10SM CLR 02/M09 A3023 580 44 -700 210/06 RMK AO2
14837KMSN MSN20020217143509402/17/02 14:35:31  5-MIN KMSN 172035Z 23005KT 10SM CLR 02/M09 A3023 580 43 -800 230/05 RMK AO2
14837KMSN MSN20020217144009402/17/02 14:40:31  5-MIN KMSN 172040Z VRB04KT 10SM CLR 02/M09 A3023 580 44 -700 VRB/04 RMK AO2
14837KMSN MSN20020217144509402/17/02 14:45:31  5-MIN KMSN 172045Z VRB05KT 10SM CLR 03/M08 A3023 580 44 -700 VRB/05 RMK AO2
14837KMSN MSN20020217145011702/17/02 14:50:31  5-MIN KMSN 172050Z 26003KT 10SM CLR 02/M08 A3023 580 45 -700 260/03 RMK AO2 SLP246 T00221083 50001
14837KMSN MSN20020217145509402/17/02 14:55:31  5-MIN KMSN 172055Z 21006KT 10SM CLR 02/M09 A3023 580 44 -700 210/06 RMK AO2
14837KMSN MSN20020217150009402/17/02 15:00:31  5-MIN KMSN 172100Z VRB06KT 10SM CLR 02/M09 A3023 580 44 -700 VRB/06 RMK AO2
14837KMSN MSN20020217150509402/17/02 15:05:31  5-MIN KMSN 172105Z 20006KT 10SM CLR 02/M09 A3022 580 44 -700 200/06 RMK AO2
14837KMSN MSN20020217151009402/17/02 15:10:31  5-MIN KMSN 172110Z 18006KT 10SM CLR 02/M09 A3022 580 44 -700 180/06 RMK AO2
14837KMSN MSN20020217151509402/17/02 15:15:31  5-MIN KMSN 172115Z 18004KT 10SM CLR 02/M09 A3022 590 42 -700 180/04 RMK AO2
14837KMSN MSN20020217152009402/17/02 15:20:31  5-MIN KMSN 172120Z 19006KT 10SM CLR 03/M09 A3022 590 42 -700 190/06 RMK AO2
14837KMSN MSN20020217152509402/17/02 15:25:31  5-MIN KMSN 172125Z VRB03KT 10SM CLR 02/M09 A3022 590 42 -700 VRB/03 RMK AO2
14837KMSN MSN20020217153009402/17/02 15:30:31  5-MIN KMSN 172130Z 18005KT 10SM CLR 02/M09 A3022 590 42 -700 180/05 RMK AO2
14837KMSN MSN20020217153509402/17/02 15:35:31  5-MIN KMSN 172135Z 14004KT 10SM CLR 02/M09 A3022 590 42 -700 140/04 RMK AO2
14837KMSN MSN20020217154009402/17/02 15:40:31  5-MIN KMSN 172140Z 16004KT 10SM CLR 03/M09 A3022 590 40 -700 160/04 RMK AO2
14837KMSN MSN20020217154509402/17/02 15:45:31  5-MIN KMSN 172145Z 20004KT 10SM CLR 02/M09 A3022 590 42 -700 200/04 RMK AO2
14837KMSN MSN20020217155011102/17/02 15:50:31  5-MIN KMSN 172150Z VRB03KT 10SM CLR 02/M09 A3022 590 42 -700 VRB/03 RMK AO2 SLP243 T00221094
14837KMSN MSN20020217155509402/17/02 15:55:31  5-MIN KMSN 172155Z 19005KT 10SM CLR 03/M09 A3022 590 40 -700 190/05 RMK AO2
14837KMSN MSN20020217160009402/17/02 16:00:31  5-MIN KMSN 172200Z 18005KT 10SM CLR 02/M10 A3021 590 40 -700 180/05 RMK AO2
14837KMSN MSN20020217160509402/17/02 16:05:31  5-MIN KMSN 172205Z 16007KT 10SM CLR 03/M09 A3021 600 40 -700 160/07 RMK AO2
14837KMSN MSN20020217161009402/17/02 16:10:31  5-MIN KMSN 172210Z 17007KT 10SM CLR 03/M10 A3021 600 38 -600 170/07 RMK AO2
14837KMSN MSN20020217161509402/17/02 16:15:31  5-MIN KMSN 172215Z 17008KT 10SM CLR 03/M09 A3020 600 40 -600 170/08 RMK AO2
14837KMSN MSN20020217162009402/17/02 16:20:31  5-MIN KMSN 172220Z 15009KT 10SM CLR 03/M09 A3020 600 40 -600 150/09 RMK AO2
14837KMSN MSN20020217162509402/17/02 16:25:31  5-MIN KMSN 172225Z 16008KT 10SM CLR 03/M09 A3020 600 40 -600 160/08 RMK AO2
14837KMSN MSN20020217163009402/17/02 16:30:31  5-MIN KMSN 172230Z 18008KT 10SM CLR 03/M09 A3020 610 40 -600 180/08 RMK AO2
14837KMSN MSN20020217163509402/17/02 16:35:31  5-MIN KMSN 172235Z 17007KT 10SM CLR 02/M09 A3020 610 42 -700 170/07 RMK AO2
14837KMSN MSN20020217164009402/17/02 16:40:31  5-MIN KMSN 172240Z 16008KT 10SM CLR 02/M09 A3020 600 42 -700 160/08 RMK AO2
14837KMSN MSN20020217164509402/17/02 16:45:31  5-MIN KMSN 172245Z 16007KT 10SM CLR 02/M09 A3020 600 42 -700 160/07 RMK AO2
14837KMSN MSN20020217165011102/17/02 16:50:31  5-MIN KMSN 172250Z 18007KT 10SM CLR 02/M09 A3020 600 42 -700 180/07 RMK AO2 SLP238 T00221094
14837KMSN MSN20020217165509402/17/02 16:55:31  5-MIN KMSN 172255Z 16007KT 10SM CLR 02/M09 A3020 600 42 -700 160/07 RMK AO2
14837KMSN MSN20020217170009402/17/02 17:00:31  5-MIN KMSN 172300Z 17006KT 10SM CLR 02/M09 A3020 600 42 -700 170/06 RMK AO2
14837KMSN MSN20020217170509402/17/02 17:05:31  5-MIN KMSN 172305Z 18007KT 10SM CLR 02/M09 A3020 600 43 -800 180/07 RMK AO2
14837KMSN MSN20020217171009402/17/02 17:10:31  5-MIN KMSN 172310Z 18007KT 10SM CLR 02/M09 A3020 600 43 -800 170/07 RMK AO2
14837KMSN MSN20020217171509402/17/02 17:15:31  5-MIN KMSN 172315Z 15008KT 10SM CLR 01/M09 A3020 610 45 -800 150/08 RMK AO2
14837KMSN MSN20020217172009402/17/02 17:20:31  5-MIN KMSN 172320Z 15007KT 10SM CLR 01/M09 A3020 610 47 -900 150/07 RMK AO2
14837KMSN MSN20020217172509402/17/02 17:25:31  5-MIN KMSN 172325Z 15006KT 10SM CLR 01/M09 A3020 610 47 -900 150/06 RMK AO2
14837KMSN MSN20020217173009402/17/02 17:30:31  5-MIN KMSN 172330Z 15008KT 10SM CLR 01/M09 A3019 610 47 -900 150/08 RMK AO2
14837KMSN MSN20020217173509402/17/02 17:35:31  5-MIN KMSN 172335Z 16008KT 10SM CLR 01/M09 A3019 610 49 -900 160/08 RMK AO2
14837KMSN MSN20020217174009402/17/02 17:40:31  5-MIN KMSN 172340Z 16008KT 10SM CLR 01/M09 A3019 610 49 -900 160/08 RMK AO2
14837KMSN MSN20020217174509402/17/02 17:45:31  5-MIN KMSN 172345Z 17006KT 10SM CLR 01/M08 A3019 610 51 -900 170/06 RMK AO2
14837KMSN MSN20020217175012902/17/02 17:50:31  5-MIN KMSN 172350Z 17006KT 10SM CLR 01/M08 A3020 610 51 -900 170/06 RMK AO2 SLP237 T00061083 10028 20000 56011
14837KMSN MSN20020217175509402/17/02 17:55:31  5-MIN KMSN 172355Z 15007KT 10SM CLR 01/M08 A3019 610 51 -900 150/07 RMK AO2
14837KMSN MSN20020217180009502/17/02 18:00:31  5-MIN KMSN 180000Z 16007KT 10SM CLR 00/M09 A3019 610 51 -1000 160/07 RMK AO2
14837KMSN MSN20020217180509402/17/02 18:05:31  5-MIN KMSN 180005Z 16008KT 10SM CLR 01/M08 A3019 610 51 -900 160/08 RMK AO2
14837KMSN MSN20020217181009502/17/02 18:10:31  5-MIN KMSN 180010Z 16007KT 10SM CLR 00/M08 A3020 610 53 -1000 160/07 RMK AO2
14837KMSN MSN20020217181509602/17/02 18:15:31  5-MIN KMSN 180015Z 16007KT 10SM CLR M01/M09 A3019 610 53 -1100 160/07 RMK AO2
14837KMSN MSN20020217182009502/17/02 18:20:31  5-MIN KMSN 180020Z 17006KT 10SM CLR 00/M08 A3020 610 53 -1000 170/06 RMK AO2
14837KMSN MSN20020217182509502/17/02 18:25:31  5-MIN KMSN 180025Z 17005KT 10SM CLR 00/M08 A3020 610 53 -1000 170/05 RMK AO2
14837KMSN MSN20020217183009502/17/02 18:30:31  5-MIN KMSN 180030Z 17006KT 10SM CLR 00/M08 A3019 610 53 -1000 160/06 RMK AO2
14837KMSN MSN20020217183509602/17/02 18:35:31  5-MIN KMSN 180035Z 17006KT 10SM CLR M01/M08 A3019 610 56 -1100 170/06 RMK AO2
14837KMSN MSN20020217184009502/17/02 18:40:31  5-MIN KMSN 180040Z 17006KT 10SM CLR 00/M08 A3019 610 53 -1000 170/06 RMK AO2
14837KMSN MSN20020217184509602/17/02 18:45:31  5-MIN KMSN 180045Z 17006KT 10SM CLR M01/M08 A3019 610 56 -1000 170/06 RMK AO2
14837KMSN MSN20020217185011302/17/02 18:50:31  5-MIN KMSN 180050Z 17006KT 10SM CLR M01/M08 A3019 620 56 -1000 160/06 RMK AO2 SLP235 T10061083
14837KMSN MSN20020217185509602/17/02 18:55:31  5-MIN KMSN 180055Z 17006KT 10SM CLR M01/M08 A3019 620 56 -1000 170/06 RMK AO2
14837KMSN MSN20020217190009602/17/02 19:00:31  5-MIN KMSN 180100Z 17006KT 10SM CLR M01/M08 A3019 620 56 -1000 170/06 RMK AO2
14837KMSN MSN20020217190509602/17/02 19:05:31  5-MIN KMSN 180105Z 16006KT 10SM CLR M01/M08 A3018 620 58 -1100 160/06 RMK AO2
14837KMSN MSN20020217191009602/17/02 19:10:31  5-MIN KMSN 180110Z 17006KT 10SM CLR M01/M08 A3018 620 60 -1100 170/06 RMK AO2
14837KMSN MSN20020217191509602/17/02 19:15:31  5-MIN KMSN 180115Z 16006KT 10SM CLR M01/M08 A3018 630 56 -1000 160/06 RMK AO2
14837KMSN MSN20020217192009602/17/02 19:20:31  5-MIN KMSN 180120Z 15006KT 10SM CLR M01/M09 A3017 630 55 -1100 150/06 RMK AO2
14837KMSN MSN20020217192509602/17/02 19:25:31  5-MIN KMSN 180125Z 14007KT 10SM CLR M02/M09 A3017 640 58 -1200 140/07 RMK AO2
14837KMSN MSN20020217193009602/17/02 19:30:31  5-MIN KMSN 180130Z 14007KT 10SM CLR M02/M09 A3017 640 60 -1200 140/07 RMK AO2
14837KMSN MSN20020217193509602/17/02 19:35:31  5-MIN KMSN 180135Z 15007KT 10SM CLR M02/M08 A3017 640 60 -1200 150/07 RMK AO2
14837KMSN MSN20020217194009602/17/02 19:40:31  5-MIN KMSN 180140Z 16008KT 10SM CLR M01/M08 A3016 640 60 -1100 150/08 RMK AO2
14837KMSN MSN20020217194509602/17/02 19:45:31  5-MIN KMSN 180145Z 16006KT 10SM CLR M01/M08 A3016 640 60 -1100 160/06 RMK AO2
14837KMSN MSN20020217195011302/17/02 19:50:31  5-MIN KMSN 180150Z 17006KT 10SM CLR M01/M08 A3016 640 60 -1100 170/06 RMK AO2 SLP226 T10111078
14837KMSN MSN20020217195509602/17/02 19:55:31  5-MIN KMSN 180155Z 17006KT 10SM CLR M01/M08 A3016 640 60 -1100 170/06 RMK AO2
14837KMSN MSN20020217200009602/17/02 20:00:31  5-MIN KMSN 180200Z 17007KT 10SM CLR M01/M08 A3016 640 58 -1100 170/07 RMK AO2
14837KMSN MSN20020217200509602/17/02 20:05:31  5-MIN KMSN 180205Z 17007KT 10SM CLR M01/M08 A3016 640 56 -1000 170/07 RMK AO2
14837KMSN MSN20020217201009602/17/02 20:10:31  5-MIN KMSN 180210Z 17007KT 10SM CLR M01/M08 A3016 640 56 -1000 170/07 RMK AO2
14837KMSN MSN20020217201509602/17/02 20:15:31  5-MIN KMSN 180215Z 17006KT 10SM CLR M01/M08 A3016 640 56 -1000 170/06 RMK AO2
14837KMSN MSN20020217202009602/17/02 20:20:31  5-MIN KMSN 180220Z 18005KT 10SM CLR M01/M08 A3017 640 58 -1100 180/05 RMK AO2
14837KMSN MSN20020217202509602/17/02 20:25:31  5-MIN KMSN 180225Z 18005KT 10SM CLR M01/M08 A3017 640 58 -1100 180/05 RMK AO2
14837KMSN MSN20020217203009602/17/02 20:30:31  5-MIN KMSN 180230Z 17005KT 10SM CLR M01/M08 A3017 640 60 -1100 170/05 RMK AO2
14837KMSN MSN20020217203509602/17/02 20:35:31  5-MIN KMSN 180235Z 18005KT 10SM CLR M01/M08 A3017 640 58 -1100 180/05 RMK AO2
14837KMSN MSN20020217204009602/17/02 20:40:31  5-MIN KMSN 180240Z 18006KT 10SM CLR M01/M08 A3017 630 60 -1100 180/06 RMK AO2
14837KMSN MSN20020217204509602/17/02 20:45:31  5-MIN KMSN 180245Z 17006KT 10SM CLR M01/M08 A3017 640 60 -1100 170/06 RMK AO2
14837KMSN MSN20020217205011902/17/02 20:50:31  5-MIN KMSN 180250Z 18006KT 10SM CLR M01/M08 A3017 630 60 -1100 180/06 RMK AO2 SLP227 T10111078 56010
14837KMSN MSN20020217205509602/17/02 20:55:31  5-MIN KMSN 180255Z 18006KT 10SM CLR M01/M08 A3017 640 58 -1000 180/06 RMK AO2
14837KMSN MSN20020217210009602/17/02 21:00:31  5-MIN KMSN 180300Z 18006KT 10SM CLR M01/M08 A3017 640 60 -1100 180/06 RMK AO2
14837KMSN MSN20020217210509602/17/02 21:05:31  5-MIN KMSN 180305Z 18006KT 10SM CLR M01/M08 A3017 640 60 -1100 180/06 RMK AO2
14837KMSN MSN20020217211009602/17/02 21:10:31  5-MIN KMSN 180310Z 18006KT 10SM CLR M01/M08 A3017 640 58 -1000 180/06 RMK AO2
14837KMSN MSN20020217211509602/17/02 21:15:31  5-MIN KMSN 180315Z 18006KT 10SM CLR M01/M08 A3017 640 60 -1100 180/06 RMK AO2
14837KMSN MSN20020217212009602/17/02 21:20:31  5-MIN KMSN 180320Z 18006KT 10SM CLR M01/M08 A3017 640 60 -1100 180/06 RMK AO2
14837KMSN MSN20020217212509602/17/02 21:25:31  5-MIN KMSN 180325Z 18006KT 10SM CLR M01/M08 A3017 640 60 -1100 180/06 RMK AO2
14837KMSN MSN20020217213009602/17/02 21:30:31  5-MIN KMSN 180330Z 17005KT 10SM CLR M02/M08 A3017 640 63 -1200 170/05 RMK AO2
14837KMSN MSN20020217213509602/17/02 21:35:31  5-MIN KMSN 180335Z 16006KT 10SM CLR M02/M08 A3016 640 66 -1200 160/06 RMK AO2
14837KMSN MSN20020217214009602/17/02 21:40:31  5-MIN KMSN 180340Z 16007KT 10SM CLR M03/M08 A3016 650 68 -1300 160/07 RMK AO2
14837KMSN MSN20020217214509602/17/02 21:45:31  5-MIN KMSN 180345Z 16006KT 10SM CLR M03/M08 A3016 650 68 -1300 160/06 RMK AO2
14837KMSN MSN20020217215011302/17/02 21:50:31  5-MIN KMSN 180350Z 17006KT 10SM CLR M02/M07 A3015 650 66 -1100 170/06 RMK AO2 SLP222 T10171072
14837KMSN MSN20020217215509602/17/02 21:55:31  5-MIN KMSN 180355Z 18007KT 10SM CLR M02/M07 A3015 650 66 -1100 180/07 RMK AO2
14837KMSN MSN20020217220009602/17/02 22:00:31  5-MIN KMSN 180400Z 18006KT 10SM CLR M01/M08 A3015 650 60 -1100 180/06 RMK AO2
14837KMSN MSN20020217220509602/17/02 22:05:31  5-MIN KMSN 180405Z 18007KT 10SM CLR M01/M08 A3015 650 60 -1100 180/07 RMK AO2
14837KMSN MSN20020217221009602/17/02 22:10:31  5-MIN KMSN 180410Z 18008KT 10SM CLR M01/M08 A3015 650 60 -1100 180/08 RMK AO2
14837KMSN MSN20020217221509602/17/02 22:15:31  5-MIN KMSN 180415Z 18008KT 10SM CLR M01/M08 A3016 650 60 -1100 180/08 RMK AO2
14837KMSN MSN20020217222009602/17/02 22:20:31  5-MIN KMSN 180420Z 18007KT 10SM CLR M01/M08 A3016 650 60 -1100 180/07 RMK AO2
14837KMSN MSN20020217222509602/17/02 22:25:31  5-MIN KMSN 180425Z 17006KT 10SM CLR M01/M08 A3015 650 60 -1100 170/06 RMK AO2
14837KMSN MSN20020217223009602/17/02 22:30:31  5-MIN KMSN 180430Z 17007KT 10SM CLR M02/M08 A3015 650 63 -1100 170/07 RMK AO2
14837KMSN MSN20020217223509602/17/02 22:35:31  5-MIN KMSN 180435Z 18007KT 10SM CLR M01/M07 A3015 650 63 -1100 170/07 RMK AO2
14837KMSN MSN20020217224009602/17/02 22:40:31  5-MIN KMSN 180440Z 17007KT 10SM CLR M01/M08 A3015 650 60 -1100 170/07 RMK AO2
14837KMSN MSN20020217224509602/17/02 22:45:31  5-MIN KMSN 180445Z 16007KT 10SM CLR M02/M07 A3015 660 66 -1100 160/07 RMK AO2
14837KMSN MSN20020217225011302/17/02 22:50:31  5-MIN KMSN 180450Z 16007KT 10SM CLR M02/M07 A3014 660 69 -1200 160/07 RMK AO2 SLP218 T10221072
14837KMSN MSN20020217225509602/17/02 22:55:31  5-MIN KMSN 180455Z 17008KT 10SM CLR M02/M07 A3014 660 66 -1100 170/08 RMK AO2
14837KMSN MSN20020217230009602/17/02 23:00:31  5-MIN KMSN 180500Z 18007KT 10SM CLR M01/M07 A3014 660 63 -1100 180/07 RMK AO2
14837KMSN MSN20020217230509602/17/02 23:05:31  5-MIN KMSN 180505Z 18008KT 10SM CLR M01/M07 A3014 660 63 -1100 180/08 RMK AO2
14837KMSN MSN20020217231009602/17/02 23:10:31  5-MIN KMSN 180510Z 18008KT 10SM CLR M01/M07 A3014 660 63 -1100 180/08 RMK AO2
14837KMSN MSN20020217231509602/17/02 23:15:31  5-MIN KMSN 180515Z 17007KT 10SM CLR M01/M07 A3014 660 63 -1100 170/07 RMK AO2
14837KMSN MSN20020217232009602/17/02 23:20:31  5-MIN KMSN 180520Z 17008KT 10SM CLR M01/M07 A3014 660 63 -1100 170/08 RMK AO2
14837KMSN MSN20020217232509602/17/02 23:25:31  5-MIN KMSN 180525Z 16008KT 10SM CLR M02/M07 A3014 670 66 -1100 160/08 RMK AO2
14837KMSN MSN20020217233009602/17/02 23:30:31  5-MIN KMSN 180530Z 17007KT 10SM CLR M02/M07 A3014 670 69 -1100 170/07 RMK AO2
14837KMSN MSN20020217233509602/17/02 23:35:31  5-MIN KMSN 180535Z 18008KT 10SM CLR M02/M07 A3014 660 69 -1100 180/08 RMK AO2
14837KMSN MSN20020217234009602/17/02 23:40:31  5-MIN KMSN 180540Z 18009KT 10SM CLR M01/M07 A3014 670 66 -1100 180/09 RMK AO2
14837KMSN MSN20020217234509602/17/02 23:45:31  5-MIN KMSN 180545Z 18007KT 10SM CLR M01/M07 A3013 670 63 -1100 180/07 RMK AO2
14837KMSN MSN20020217235014102/17/02 23:50:31  5-MIN KMSN 180550Z 17007KT 10SM CLR M01/M07 A3013 670 63 -1100 170/07 RMK AO2 SLP215 T10111072 10006 21028 400281061 55009
14837KMSN MSN20020217235509602/17/02 23:55:31  5-MIN KMSN 180555Z 18008KT 10SM CLR M01/M07 A3013 670 63 -1100 180/08 RMK AO2
14837KMSN MSN20020218000009602/18/02 00:00:31  5-MIN KMSN 180600Z 18007KT 10SM CLR M01/M07 A3013 670 63 -1100 170/07 RMK AO2
14837KMSN MSN20020218235016302/18/02 23:50:31  5-MIN KMSN 190550Z 14007KT 7SM -RA FEW031 OVC046 04/03 A2992 870 92 -200 140/07 RMK AO2 SLP137 P0004 60007 T00390028 10078 20039 400941028 53009
14837KMSN MSN20020218235510502/18/02 23:55:31  5-MIN KMSN 190555Z 14008KT 7SM -RA OVC046 04/03 A2991 870 92 -200 140/08 RMK AO2 P0000
14837KMSN MSN20020219000011502/19/02 00:00:31  5-MIN KMSN 190600Z 14008KT 6SM -RA BR FEW038 OVC048 04/02 A2991 870 85 -100 130/08 RMK AO2 P0001
14837KMSN MSN20020219000511202/19/02 00:05:31  5-MIN KMSN 190605Z 15007KT 7SM -RA FEW036 OVC048 04/03 A2992 870 89 -100 150/07 RMK AO2 P0001
14837KMSN MSN20020219001011202/19/02 00:10:31  5-MIN KMSN 190610Z 14009KT 7SM -RA FEW034 OVC048 04/03 A2991 870 89 -100 140/09 RMK AO2 P0001
14837KMSN MSN20020219001511502/19/02 00:15:31  5-MIN KMSN 190615Z 15010KT 6SM -RA BR BKN042 OVC050 04/03 A2991 870 89 -100 150/10 RMK AO2 P0002
14837KMSN MSN20020219002011502/19/02 00:20:31  5-MIN KMSN 190620Z 14010KT 6SM -RA BR BKN040 OVC050 04/03 A2991 870 89 -100 140/10 RMK AO2 P0002
14837KMSN MSN20020219002511502/19/02 00:25:31  5-MIN KMSN 190625Z 14009KT 5SM -RA BR SCT037 OVC048 04/03 A2991 880 89 -100 140/09 RMK AO2 P0003
14837KMSN MSN20020219003012202/19/02 00:30:31  5-MIN KMSN 190630Z 13009KT 5SM -RA BR SCT036 SCT043 OVC050 04/03 A2990 880 89 -100 130/09 RMK AO2 P0004
14837KMSN MSN20020219003511502/19/02 00:35:31  5-MIN KMSN 190635Z 14009KT 5SM -RA BR SCT039 OVC050 04/03 A2990 880 92 -200 140/09 RMK AO2 P0005
14837KMSN MSN20020219004011502/19/02 00:40:31  5-MIN KMSN 190640Z 14008KT 5SM -RA BR SCT039 OVC050 04/03 A2990 880 92 -200 140/08 RMK AO2 P0006
14837KMSN MSN20020219004511502/19/02 00:45:31  5-MIN KMSN 190645Z 15008KT 6SM -RA BR FEW039 OVC055 04/03 A2990 880 92 -200 140/08 RMK AO2 P0006
14837KMSN MSN20020219005013202/19/02 00:50:31  5-MIN KMSN 190650Z 15008KT 6SM -RA BR FEW037 OVC055 04/03 A2990 880 92 -200 150/08 RMK AO2 SLP130 P0007 T00390028
14837KMSN MSN20020219005511502/19/02 00:55:31  5-MIN KMSN 190655Z 16008KT 6SM -RA BR SCT043 OVC055 04/02 A2989 890 85 -100 150/08 RMK AO2 P0001
14837KMSN MSN20020219010011502/19/02 01:00:31  5-MIN KMSN 190700Z 15008KT 6SM -RA BR BKN041 OVC055 04/02 A2989 890 89 -200 150/08 RMK AO2 P0001
14837KMSN MSN20020219010512202/19/02 01:05:31  5-MIN KMSN 190705Z 14007KT 6SM -RA BR BKN037 BKN044 OVC055 04/02 A2989 890 89 -100 140/07 RMK AO2 P0001
14837KMSN MSN20020219011011502/19/02 01:10:31  5-MIN KMSN 190710Z 15009KT 6SM -RA BR BKN039 OVC055 04/02 A2989 890 85 -100 150/09 RMK AO2 P0002
14837KMSN MSN20020219011511502/19/02 01:15:31  5-MIN KMSN 190715Z 16007KT 6SM -RA BR BKN039 OVC055 04/02 A2989 890 89 -200 160/07 RMK AO2 P0002
14837KMSN MSN20020219012010802/19/02 01:20:31  5-MIN KMSN 190720Z 16008KT 6SM -RA BR OVC039 04/02 A2990 880 89 -200 160/08 RMK AO2 P0002
14837KMSN MSN20020219012510502/19/02 01:25:31  5-MIN KMSN 190725Z 18007KT 7SM -RA OVC037 04/02 A2991 880 85 -100 180/07 RMK AO2 P0003
14837KMSN MSN20020219013011502/19/02 01:30:31  5-MIN KMSN 190730Z 17006KT 5SM -RA BR FEW027 OVC037 04/03 A2990 880 92 -200 170/06 RMK AO2 P0003
14837KMSN MSN20020219013512202/19/02 01:35:31  5-MIN KMSN 190735Z 17006KT 4SM -RA BR FEW027 BKN035 OVC042 04/03 A2990 880 92 -200 170/06 RMK AO2 P0004
14837KMSN MSN20020219014012202/19/02 01:40:31  5-MIN KMSN 190740Z 16007KT 4SM -RA BR FEW027 BKN033 OVC042 04/03 A2990 890 92 -200 160/07 RMK AO2 P0006
14837KMSN MSN20020219014512102/19/02 01:45:31  5-MIN KMSN 190745Z 15009KT 4SM RA BR FEW027 BKN035 OVC042 04/03 A2989 890 92 -100 150/09 RMK AO2 P0007
14837KMSN MSN20020219015013902/19/02 01:50:31  5-MIN KMSN 190750Z 15008KT 4SM -RA BR FEW027 BKN035 OVC042 04/03 A2989 890 92 -200 150/08 RMK AO2 SLP128 P0007 T00390028
14837KMSN MSN20020219015511502/19/02 01:55:31  5-MIN KMSN 190755Z 16008KT 5SM -RA BR BKN033 OVC042 04/03 A2989 890 92 -100 160/08 RMK AO2 P0000
14837KMSN MSN20020219020012202/19/02 02:00:31  5-MIN KMSN 190800Z 16008KT 4SM -RA BR SCT031 BKN040 OVC050 04/03 A2989 890 92 -100 160/08 RMK AO2 P0000
14837KMSN MSN20020219020512202/19/02 02:05:31  5-MIN KMSN 190805Z 16009KT 5SM -RA BR FEW031 BKN040 OVC050 04/03 A2989 890 92 -100 150/09 RMK AO2 P0001
14837KMSN MSN20020219021012202/19/02 02:10:31  5-MIN KMSN 190810Z 16009KT 5SM -RA BR FEW030 BKN039 OVC055 04/03 A2989 890 92 -100 160/09 RMK AO2 P0001
14837KMSN MSN20020219021512202/19/02 02:15:31  5-MIN KMSN 190815Z 15009KT 4SM -RA BR FEW030 BKN040 OVC055 04/03 A2988 900 92 -100 150/09 RMK AO2 P0002
14837KMSN MSN20020219022012202/19/02 02:20:31  5-MIN KMSN 190820Z 16008KT 4SM -RA BR FEW030 BKN040 OVC055 04/03 A2988 900 92 -100 160/08 RMK AO2 P0003
14837KMSN MSN20020219022512202/19/02 02:25:31  5-MIN KMSN 190825Z 16008KT 5SM -RA BR BKN038 BKN048 OVC055 04/03 A2989 900 92 -100 160/08 RMK AO2 P0003
14837KMSN MSN20020219023011502/19/02 02:30:31  5-MIN KMSN 190830Z 17009KT 5SM -RA BR BKN038 OVC048 04/03 A2989 890 92 -100 160/09 RMK AO2 P0004
14837KMSN MSN20020219023510802/19/02 02:35:31  5-MIN KMSN 190835Z 16008KT 5SM -RA BR OVC041 04/03 A2989 890 92 -100 160/08 RMK AO2 P0004
14837KMSN MSN20020219024011502/19/02 02:40:31  5-MIN KMSN 190840Z 15008KT 5SM -RA BR BKN041 OVC049 04/03 A2988 900 92 -100 150/08 RMK AO2 P0004
14837KMSN MSN20020219024511502/19/02 02:45:31  5-MIN KMSN 190845Z 15008KT 5SM -RA BR SCT038 OVC049 04/03 A2987 910 92 -100 150/08 RMK AO2 P0005
14837KMSN MSN20020219025014402/19/02 02:50:31  5-MIN KMSN 190850Z 16008KT 5SM -RA BR FEW038 OVC050 04/03 A2988 900 92 -100 160/08 RMK AO2 SLP123 P0006 60022 T00390028 58005
14837KMSN MSN20020219025511502/19/02 02:55:31  5-MIN KMSN 190855Z 17009KT 6SM -RA BR FEW040 OVC050 04/03 A2988 900 92 -100 160/09 RMK AO2 P0000
14837KMSN MSN20020219030011202/19/02 03:00:31  5-MIN KMSN 190900Z 17007KT 6SM BR OVC050 04/03 A2988 900 92 -100 160/07 RMK AO2 RAE0857 P0000
14837KMSN MSN20020219030510802/19/02 03:05:31  5-MIN KMSN 190905Z 15008KT 5SM -RA BR OVC055 04/03 A2987 910 92 -100 150/08 RMK AO2 P0000
14837KMSN MSN20020219031010802/19/02 03:10:31  5-MIN KMSN 190910Z 16007KT 5SM -RA BR OVC055 04/03 A2987 910 92 -100 160/07 RMK AO2 P0000
14837KMSN MSN20020219031510802/19/02 03:15:31  5-MIN KMSN 190915Z 16006KT 5SM -RA BR OVC050 04/03 A2987 910 92 -100 160/06 RMK AO2 P0000
14837KMSN MSN20020219032010802/19/02 03:20:31  5-MIN KMSN 190920Z 16007KT 5SM -RA BR OVC050 04/03 A2987 910 92 -100 160/07 RMK AO2 P0001
14837KMSN MSN20020219032510802/19/02 03:25:31  5-MIN KMSN 190925Z 15008KT 4SM -RA BR OVC050 04/03 A2986 920 92 -100 150/08 RMK AO2 P0002
14837KMSN MSN20020219033011502/19/02 03:30:31  5-MIN KMSN 190930Z 14009KT 4SM -RA BR OVC050 04/03 A2985 930 92 -100 130/09 RMK AO2 PRESFR P0003
14837KMSN MSN20020219033510802/19/02 03:35:31  5-MIN KMSN 190935Z 14009KT 4SM -RA BR OVC050 04/03 A2985 930 92 -100 140/09 RMK AO2 P0004
14837KMSN MSN20020219034011502/19/02 03:40:31  5-MIN KMSN 190940Z 14007KT 4SM -RA BR BKN048 OVC060 04/03 A2985 930 92 -100 140/07 RMK AO2 P0004
14837KMSN MSN20020219034512202/19/02 03:45:31  5-MIN KMSN 190945Z 15007KT 4SM -RA BR FEW035 BKN048 OVC060 04/03 A2985 930 92 -100 150/07 RMK AO2 P0005
14837KMSN MSN20020219035013902/19/02 03:50:31  5-MIN KMSN 190950Z 15008KT 4SM -RA BR FEW028 BKN048 OVC060 04/03 A2984 940 92 -100 150/08 RMK AO2 SLP111 P0006 T00390028
14837KMSN MSN20020219035512202/19/02 03:55:31  5-MIN KMSN 190955Z 15011KT 4SM -RA BR SCT026 BKN046 OVC060 04/03 A2985 930 92 -100 150/11 RMK AO2 P0000
14837KMSN MSN20020219040012202/19/02 04:00:31  5-MIN KMSN 191000Z 16008KT 4SM -RA BR FEW012 BKN029 OVC060 04/03 A2985 930 92 -100 150/08 RMK AO2 P0001
14837KMSN MSN20020219040512202/19/02 04:05:31  5-MIN KMSN 191005Z 15009KT 4SM -RA BR FEW012 BKN022 OVC045 04/03 A2985 930 92 -100 150/09 RMK AO2 P0001
14837KMSN MSN20020219041012202/19/02 04:10:31  5-MIN KMSN 191010Z 16009KT 3SM -RA BR FEW010 BKN022 OVC039 04/03 A2984 930 96 -100 160/09 RMK AO2 P0002
14837KMSN MSN20020219041512202/19/02 04:15:31  5-MIN KMSN 191015Z 16009KT 3SM -RA BR FEW010 BKN020 OVC027 04/03 A2985 930 96 -100 160/09 RMK AO2 P0003
14837KMSN MSN20020219042012202/19/02 04:20:31  5-MIN KMSN 191020Z 15009KT 4SM -RA BR FEW010 BKN020 OVC027 04/03 A2984 940 96 -100 150/09 RMK AO2 P0004
14837KMSN MSN20020219042512202/19/02 04:25:31  5-MIN KMSN 191025Z 16008KT 4SM -RA BR SCT010 BKN020 OVC027 04/03 A2984 940 96 -100 160/08 RMK AO2 P0004
14837KMSN MSN20020219043012202/19/02 04:30:31  5-MIN KMSN 191030Z 15007KT 3SM -RA BR FEW007 BKN020 OVC027 04/03 A2984 940 96 -100 150/07 RMK AO2 P0005
14837KMSN MSN20020219043512202/19/02 04:35:31  5-MIN KMSN 191035Z 15008KT 3SM -RA BR SCT010 BKN018 OVC027 04/03 A2984 940 96 -100 150/08 RMK AO2 P0005
14837KMSN MSN20020219044012202/19/02 04:40:31  5-MIN KMSN 191040Z 15009KT 3SM -RA BR FEW007 BKN018 OVC035 04/03 A2984 940 96 -100 150/09 RMK AO2 P0006
14837KMSN MSN20020219044512202/19/02 04:45:31  5-MIN KMSN 191045Z 15007KT 3SM -RA BR SCT007 BKN011 OVC029 04/03 A2984 940 96 -100 150/07 RMK AO2 P0007
14837KMSN MSN20020219045014402/19/02 04:50:31  5-MIN KMSN 191050Z 15009KT 3SM -RA BR BKN007 OVC029 04/03 A2984 940 96 -100 150/09 RMK AO2 CIG 005V012 SLP109 P0007 T00390033
14837KMSN MSN20020219045512702/19/02 04:55:31  5-MIN KMSN 191055Z 16009KT 3SM -RA BR BKN007 OVC029 04/03 A2984 940 96 -100 160/09 RMK AO2 CIG 005V011 P0000
14837KMSN MSN20020219050012702/19/02 05:00:31  5-MIN KMSN 191100Z 16007KT 4SM -RA BR BKN007 OVC029 04/03 A2984 940 96 -100 160/07 RMK AO2 CIG 005V011 P0000
14837KMSN MSN20020219050512002/19/02 05:05:31  5-MIN KMSN 191105Z 16008KT 4SM -RA BR OVC007 04/03 A2984 940 96 -100 160/08 RMK AO2 CIG 005V011 P0001
14837KMSN MSN20020219051011502/19/02 05:10:31  5-MIN KMSN 191110Z 16010KT 4SM -RA BR BKN005 OVC009 04/03 A2984 940 96 -100 160/10 RMK AO2 P0001
14837KMSN MSN20020219051510802/19/02 05:15:31  5-MIN KMSN 191115Z 15008KT 3SM -RA BR OVC005 04/03 A2983 940 96 -100 150/08 RMK AO2 P0001
14837KMSN MSN20020219052010802/19/02 05:20:31  5-MIN KMSN 191120Z 15009KT 3SM -RA BR OVC005 04/03 A2983 950 96 -100 150/09 RMK AO2 P0002
14837KMSN MSN20020219052510802/19/02 05:25:31  5-MIN KMSN 191125Z 15009KT 3SM -RA BR OVC005 04/03 A2983 950 96 -100 150/09 RMK AO2 P0002
14837KMSN MSN20020219053010802/19/02 05:30:31  5-MIN KMSN 191130Z 15008KT 4SM -RA BR OVC005 04/03 A2983 950 96 -100 150/08 RMK AO2 P0002
14837KMSN MSN20020219053511002/19/02 05:35:31  5-MIN KMSN 191135Z 15007KT 4SM BR OVC005 04/03 A2983 950 96 -100 150/07 RMK AO2 RAE33 P0002
14837KMSN MSN20020219054011002/19/02 05:40:31  5-MIN KMSN 191140Z 15006KT 4SM BR OVC005 04/03 A2983 950 96 -100 150/06 RMK AO2 RAE33 P0002
14837KMSN MSN20020219054511002/19/02 05:45:31  5-MIN KMSN 191145Z 15006KT 4SM BR OVC005 04/03 A2983 950 96 -100 140/06 RMK AO2 RAE33 P0002
14837KMSN MSN20020219055015402/19/02 05:50:31  5-MIN KMSN 191150Z 14006KT 4SM BR OVC005 04/03 A2982 950 92 0 140/06 RMK AO2 RAE33 SLP105 P0003 60039 70046 T00440033 10044 20039 56013
14837KMSN MSN20020219055509502/19/02 05:55:31  5-MIN KMSN 191155Z 14006KT 4SM BR OVC005 04/04 A2982 950 96 0 140/06 RMK AO2
14837KMSN MSN20020219060011302/19/02 06:00:31  5-MIN KMSN 191200Z 14006KT 4SM -RA BR OVC005 04/04 A2982 950 96 0 140/06 RMK AO2 RAB1159 P0000
14837KMSN MSN20020219060511302/19/02 06:05:31  5-MIN KMSN 191205Z 14006KT 4SM -RA BR OVC005 04/04 A2982 950 96 0 140/06 RMK AO2 RAB1159 P0000
14837KMSN MSN20020219061012502/19/02 06:10:31  5-MIN KMSN 191210Z 15007KT 4SM -RA BR OVC005 04/04 A2982 950 96 0 140/07 RMK AO2 RAB1159 CIG 005V009 P0001
14837KMSN MSN20020219061511302/19/02 06:15:31  5-MIN KMSN 191215Z 15006KT 3SM -RA BR OVC005 04/04 A2982 950 96 0 150/06 RMK AO2 RAB1159 P0001
14837KMSN MSN20020219062011702/19/02 06:20:31  5-MIN KMSN 191220Z 15008KT 2 1/2SM -RA BR OVC005 04/04 A2982 950 96 0 150/08 RMK AO2 RAB1159 P0002
14837KMSN MSN20020219062513402/19/02 06:25:31  5-MIN KMSN 191225Z 14007KT 2SM RA BR OVC005 04/04 A2982 950 96 0 140/07 RMK AO2 TWR VIS 3 RAB1159 CIG 004V008 P0003
14837KMSN MSN20020219063013502/19/02 06:30:31  5-MIN KMSN 191230Z 14008KT 2SM -RA BR OVC005 04/04 A2982 960 96 0 140/08 RMK AO2 TWR VIS 3 RAB1159 CIG 004V010 P0004
14837KMSN MSN20020219063513502/19/02 06:35:31  5-MIN KMSN 191235Z 14008KT 2SM -RA BR OVC005 04/04 A2982 960 96 0 130/08 RMK AO2 TWR VIS 3 RAB1159 CIG 004V010 P0005
14837KMSN MSN20020219064014602/19/02 06:40:31  5-MIN KMSN 191240Z 14007KT 2 1/2SM -RA BR BKN005 OVC011 04/04 A2982 960 96 0 140/07 RMK AO2 TWR VIS 3 RAB1159 CIG 004V008 P0005
14837KMSN MSN20020219064514602/19/02 06:45:31  5-MIN KMSN 191245Z 14009KT 2 1/2SM -RA BR BKN005 OVC011 04/04 A2982 960 96 0 140/09 RMK AO2 TWR VIS 3 RAB1159 CIG 004V008 P0005
14837KMSN MSN20020219065014202/19/02 06:50:31  5-MIN KMSN 191250Z 15009KT 3SM -RA BR OVC007 04/04 A2982 960 96 0 150/09 RMK AO2 RAB1159 CIG 004V010 SLP102 P0007 T00440039
14837KMSN MSN20020219065511202/19/02 06:55:31  5-MIN KMSN 191255Z 15009KT 3SM -RA BR BKN007 OVC010 04/04 A2981 960 96 0 150/09 RMK AO2 P0000
14837KMSN MSN20020219070012702/19/02 07:00:31  5-MIN KMSN 191300Z 15009KT 3SM -RA BR OVC007 05/04 A2981 970 92 0 150/09 RMK AO2 SFC VIS 4 CIG 005V010 P0001
14837KMSN MSN20020219070512702/19/02 07:05:31  5-MIN KMSN 191305Z 14008KT 3SM -RA BR OVC007 05/04 A2980 970 92 0 140/08 RMK AO2 SFC VIS 4 CIG 005V008 P0001
14837KMSN MSN20020219071011702/19/02 07:10:31  5-MIN KMSN 191310Z 14009KT 3SM BR OVC007 04/04 A2980 980 96 0 140/09 RMK AO2 SFC VIS 4 RAE10 P0001
14837KMSN MSN20020219071512902/19/02 07:15:31  5-MIN KMSN 191315Z 14007KT 3SM BR OVC007 04/04 A2980 980 96 0 140/07 RMK AO2 SFC VIS 3 RAE10 CIG 005V008 P0001
14837KMSN MSN20020219072011902/19/02 07:20:31  5-MIN KMSN 191320Z 14009KT 2SM BR OVC007 04/04 A2979 980 96 0 140/09 RMK AO2 RAE10 CIG 005V008 P0001
14837KMSN MSN20020219072513302/19/02 07:25:31  5-MIN KMSN 191325Z 13009KT 1 1/2SM BR OVC005 04/04 A2979 990 96 0 130/09 RMK AO2 TWR VIS 2 RAE10 CIG 005V010 P0001
14837KMSN MSN20020219073013302/19/02 07:30:31  5-MIN KMSN 191330Z 13010KT 1 1/2SM BR OVC005 04/04 A2979 990 96 0 130/10 RMK AO2 TWR VIS 2 RAE10 CIG 005V010 P0001
14837KMSN MSN20020219073513302/19/02 07:35:31  5-MIN KMSN 191335Z 14011KT 1 1/2SM BR OVC005 04/04 A2979 990 96 0 140/11 RMK AO2 TWR VIS 2 RAE10 CIG 005V010 P0001
14837KMSN MSN20020219074013302/19/02 07:40:31  5-MIN KMSN 191340Z 15010KT 1 3/4SM BR OVC005 04/04 A2979 990 96 0 150/10 RMK AO2 TWR VIS 2 RAE10 CIG 005V008 P0001
14837KMSN MSN20020219074512302/19/02 07:45:31  5-MIN KMSN 191345Z 15011KT 1 3/4SM BR OVC005 05/04 A2979 990 92 100 150/11 RMK AO2 TWR VIS 2 RAE10 P0001
14837KMSN MSN20020219075012602/19/02 07:50:31  5-MIN KMSN 191350Z 15011KT 2SM BR OVC005 05/04 A2979 990 92 100 150/11 RMK AO2 RAE10 SLP092 P0000 T00500039
14837KMSN MSN20020219075509702/19/02 07:55:31  5-MIN KMSN 191355Z 16010KT 2SM BR OVC005 05/04 A2978 990 92 100 150/10 RMK AO2
14837KMSN MSN20020219080011102/19/02 08:00:31  5-MIN KMSN 191400Z 15011KT 2SM BR OVC005 05/04 A2978 990 92 100 150/11 RMK AO2 SFC VIS 2 1/2
14837KMSN MSN20020219080511102/19/02 08:05:31  5-MIN KMSN 191405Z 16009KT 2SM BR OVC005 05/04 A2978 990 92 100 160/09 RMK AO2 SFC VIS 2 1/2
14837KMSN MSN20020219081011602/19/02 08:10:31  5-MIN KMSN 191410Z 15008KT 3SM BR BKN005 OVC010 05/04 A2978 990 92 100 150/08 RMK AO2 CIG 005V008
14837KMSN MSN20020219081509702/19/02 08:15:31  5-MIN KMSN 191415Z 15009KT 3SM BR OVC005 05/04 A2979 990 92 100 150/09 RMK AO2
14837KMSN MSN20020219082009702/19/02 08:20:31  5-MIN KMSN 191420Z 15010KT 3SM BR OVC005 05/04 A2979 990 92 100 150/10 RMK AO2
14837KMSN MSN20020219082509702/19/02 08:25:31  5-MIN KMSN 191425Z 16009KT 3SM BR OVC005 05/04 A2979 980 96 100 160/09 RMK AO2
14837KMSN MSN20020219083009702/19/02 08:30:31  5-MIN KMSN 191430Z 16009KT 3SM BR OVC005 05/04 A2979 980 92 100 160/09 RMK AO2
14837KMSN MSN20020219083509702/19/02 08:35:31  5-MIN KMSN 191435Z 16009KT 3SM BR OVC005 05/04 A2979 990 92 100 160/09 RMK AO2
14837KMSN MSN20020219084009702/19/02 08:40:31  5-MIN KMSN 191440Z 16007KT 3SM BR OVC005 05/04 A2979 990 92 100 160/07 RMK AO2
14837KMSN MSN20020219084509702/19/02 08:45:31  5-MIN KMSN 191445Z 16008KT 3SM BR OVC005 05/04 A2979 990 92 100 160/08 RMK AO2
14837KMSN MSN20020219085013802/19/02 08:50:31  5-MIN KMSN 191450Z 17008KT 2 1/2SM BR OVC005 05/04 A2980 980 92 0 170/08 RMK AO2 SFC VIS 3 SLP095 60007 T00500039 56018
14837KMSN MSN20020219085510902/19/02 08:55:31  5-MIN KMSN 191455Z 17010KT 2 1/2SM BR OVC005 05/04 A2980 980 92 0 170/10 RMK AO2 SFC VIS 3
14837KMSN MSN20020219090012302/19/02 09:00:31  5-MIN KMSN 191500Z 17009KT 2 1/2SM BR OVC005 05/04 A2979 980 92 100 170/09 RMK AO2 SFC VIS 3 CIG 005V010
14837KMSN MSN20020219090511102/19/02 09:05:31  5-MIN KMSN 191505Z 17009KT 2 1/2SM BR OVC005 05/04 A2979 980 92 100 170/09 RMK AO2 SFC VIS 3
14837KMSN MSN20020219091011102/19/02 09:10:31  5-MIN KMSN 191510Z 16011KT 2 1/2SM BR OVC005 05/04 A2979 990 92 100 160/11 RMK AO2 SFC VIS 3
14837KMSN MSN20020219091511102/19/02 09:15:31  5-MIN KMSN 191515Z 17009KT 2 1/2SM BR OVC005 05/04 A2979 990 92 100 160/09 RMK AO2 SFC VIS 3
14837KMSN MSN20020219092013502/19/02 09:20:31  5-MIN KMSN 191520Z 16010KT 1SM -RA BR OVC005 05/04 A2978 990 96 100 160/10 RMK AO2 SFC VIS 1 1/2 DZB16E19RAB19 P0001
14837KMSN MSN20020219092513502/19/02 09:25:31  5-MIN KMSN 191525Z 16009KT 1SM -RA BR OVC005 05/04 A2978 990 96 100 160/09 RMK AO2 SFC VIS 1 1/2 DZB16E19RAB19 P0001
14837KMSN MSN20020219093013202/19/02 09:30:31  5-MIN KMSN 191530Z 16008KT 1SM -RA BR OVC005 05/04 A2978 1000 96 100 160/08 RMK AO2 SFC VIS 2 DZB16E19RAB19 P0001
14837KMSN MSN20020219093513102/19/02 09:35:31  5-MIN KMSN 191535Z 16008KT 1SM -RA BR OVC005 05/04 A2978 990 96 100 160/08 RMK AO2 SFC VIS 2 DZB16E19RAB19 P0001
14837KMSN MSN20020219094013002/19/02 09:40:31  5-MIN KMSN 191540Z 17009KT 2SM BR OVC005 05/04 A2978 990 96 100 170/09 RMK AO2 SFC VIS 3 DZB16E19RAB19E37 P0001
14837KMSN MSN20020219094513502/19/02 09:45:31  5-MIN KMSN 191545Z 17008KT 2SM -RA BKN007 OVC028 05/04 A2979 990 96 100 170/08 RMK AO2 SFC VIS 3 DZB16E19RAB19 P0001
14837KMSN MSN20020219095016802/19/02 09:50:31  5-MIN KMSN 191550Z 16010KT 2SM -RA BKN007 OVC028 06/04 A2978 990 92 100 160/10 RMK AO2 SFC VIS 2 1/2 DZB16E19RAB19 CIG 004V010 SLP091 P0002 T00560044
14837KMSN MSN20020219095513602/19/02 09:55:31  5-MIN KMSN 191555Z 16010KT 2SM -RA BR BKN007 OVC028 05/04 A2979 990 96 100 160/10 RMK AO2 SFC VIS 3 CIG 004V010 P0000
14837KMSN MSN20020219100013802/19/02 10:00:31  5-MIN KMSN 191600Z 16008KT 2SM BR BKN007 OVC028 06/04 A2979 980 92 100 160/08 RMK AO2 SFC VIS 3 RAE00 CIG 004V010 P0000
14837KMSN MSN20020219100513802/19/02 10:05:31  5-MIN KMSN 191605Z 16008KT 2SM BR BKN007 OVC028 05/04 A2979 990 96 100 160/08 RMK AO2 SFC VIS 3 RAE00 CIG 005V010 P0000
14837KMSN MSN20020219101013802/19/02 10:10:31  5-MIN KMSN 191610Z 16010KT 2SM BR BKN007 OVC028 06/04 A2978 990 92 100 160/10 RMK AO2 SFC VIS 3 RAE00 CIG 005V010 P0000
14837KMSN MSN20020219101513902/19/02 10:15:31  5-MIN KMSN 191615Z 16010KT 2SM BR BKN007 OVC028 06/04 A2978 1000 92 100 160/10 RMK AO2 SFC VIS 3 RAE00 CIG 005V010 P0000
14837KMSN MSN20020219102013902/19/02 10:20:31  5-MIN KMSN 191620Z 16009KT 3SM BR BKN007 OVC028 06/04 A2978 1000 92 100 160/09 RMK AO2 SFC VIS 4 RAE00 CIG 005V010 P0000
14837KMSN MSN20020219102512802/19/02 10:25:31  5-MIN KMSN 191625Z 16011KT 4SM BR BKN007 OVC028 06/04 A2978 990 92 100 160/11 RMK AO2 RAE00 CIG 005V010 P0000
14837KMSN MSN20020219103011702/19/02 10:30:31  5-MIN KMSN 191630Z 16010KT 4SM BR SCT007 OVC028 06/04 A2978 1000 92 100 160/10 RMK AO2 RAE00 P0000
14837KMSN MSN20020219103511702/19/02 10:35:31  5-MIN KMSN 191635Z 16010KT 4SM BR SCT007 OVC028 06/05 A2978 1000 96 100 160/10 RMK AO2 RAE00 P0000
14837KMSN MSN20020219104011602/19/02 10:40:31  5-MIN KMSN 191640Z 16011KT 4SM BR FEW007 OVC028 06/04 A2978 990 92 100 160/11 RMK AO2 RAE00 P0000
14837KMSN MSN20020219104511602/19/02 10:45:31  5-MIN KMSN 191645Z 16010KT 5SM BR FEW007 OVC028 06/04 A2978 990 92 100 160/10 RMK AO2 RAE00 P0000
14837KMSN MSN20020219105013402/19/02 10:50:31  5-MIN KMSN 191650Z 16009KT 5SM BR FEW009 OVC026 06/04 A2977 1000 92 100 160/09 RMK AO2 RAE00 SLP086 P0000 T00560044
14837KMSN MSN20020219105510502/19/02 10:55:31  5-MIN KMSN 191655Z 16010KT 5SM BR FEW009 OVC026 06/04 A2978 1000 89 200 160/10 RMK AO2
14837KMSN MSN20020219110010502/19/02 11:00:31  5-MIN KMSN 191700Z 16010KT 6SM BR FEW009 OVC026 06/05 A2978 1000 93 200 160/10 RMK AO2
14837KMSN MSN20020219110510202/19/02 11:05:31  5-MIN KMSN 191705Z 17008KT 6SM FEW009 OVC026 06/04 A2978 1000 89 200 160/08 RMK AO2
14837KMSN MSN20020219111010202/19/02 11:10:31  5-MIN KMSN 191710Z 17008KT 7SM FEW009 OVC026 06/05 A2977 1000 93 200 160/08 RMK AO2
14837KMSN MSN20020219111510202/19/02 11:15:31  5-MIN KMSN 191715Z 17009KT 7SM FEW009 OVC026 06/05 A2977 1000 93 200 170/09 RMK AO2
14837KMSN MSN20020219112010202/19/02 11:20:31  5-MIN KMSN 191720Z 16010KT 7SM FEW009 OVC026 06/04 A2977 1000 89 200 160/10 RMK AO2
14837KMSN MSN20020219112510202/19/02 11:25:31  5-MIN KMSN 191725Z 16011KT 7SM FEW009 OVC026 06/04 A2977 1010 89 200 160/11 RMK AO2
14837KMSN MSN20020219113011802/19/02 11:30:31  5-MIN KMSN 191730Z 16010KT 7SM -RA FEW009 OVC026 06/04 A2976 1010 89 200 160/10 RMK AO2 RAB26 P0000
14837KMSN MSN20020219113511402/19/02 11:35:31  5-MIN KMSN 191735Z 16010KT 6SM -RA BR OVC024 06/05 A2976 1010 93 200 160/10 RMK AO2 RAB26 P0000
14837KMSN MSN20020219114011402/19/02 11:40:31  5-MIN KMSN 191740Z 17010KT 6SM -RA BR OVC024 06/05 A2976 1010 93 200 170/10 RMK AO2 RAB26 P0000
14837KMSN MSN20020219114511102/19/02 11:45:31  5-MIN KMSN 191745Z 16012KT 7SM -RA OVC024 06/04 A2976 1010 89 200 160/12 RMK AO2 RAB26 P0000
14837KMSN MSN20020219115015202/19/02 11:50:31  5-MIN KMSN 191750Z 16011KT 6SM -RA OVC022 06/05 A2975 1020 93 200 160/11 RMK AO2 RAB26 SLP081 P0000 60009 T00610050 10061 20044 55009
14837KMSN MSN20020219115510502/19/02 11:55:31  5-MIN KMSN 191755Z 16011KT 6SM -RA OVC022 06/05 A2974 1030 93 200 160/11 RMK AO2 P0000
14837KMSN MSN20020219120010502/19/02 12:00:31  5-MIN KMSN 191800Z 16010KT 6SM -RA OVC022 06/05 A2974 1030 93 200 160/10 RMK AO2 P0000
14837KMSN MSN20020219120510502/19/02 12:05:31  5-MIN KMSN 191805Z 16011KT 6SM -RA OVC022 07/05 A2974 1030 89 300 160/11 RMK AO2 P0000
14837KMSN MSN20020219121010502/19/02 12:10:31  5-MIN KMSN 191810Z 16010KT 6SM -RA OVC022 07/05 A2974 1030 89 300 160/10 RMK AO2 P0000
14837KMSN MSN20020219121511202/19/02 12:15:31  5-MIN KMSN 191815Z 16010KT 6SM -RA FEW009 OVC022 07/05 A2974 1040 89 300 160/10 RMK AO2 P0000
14837KMSN MSN20020219122011702/19/02 12:20:31  5-MIN KMSN 191820Z 16008KT 6SM BR FEW009 OVC022 07/05 A2973 1040 89 300 160/08 RMK AO2 RAE20 P0000
14837KMSN MSN20020219122511702/19/02 12:25:31  5-MIN KMSN 191825Z 16009KT 6SM BR SCT009 OVC022 07/05 A2973 1040 89 300 160/09 RMK AO2 RAE20 P0000
14837KMSN MSN20020219123012902/19/02 12:30:31  5-MIN KMSN 191830Z 16010KT 6SM BR BKN009 OVC022 07/05 A2973 1040 89 300 160/10 RMK AO2 RAE20 CIG 007V013 P0000
14837KMSN MSN20020219123512902/19/02 12:35:31  5-MIN KMSN 191835Z 16009KT 6SM BR BKN009 OVC022 07/05 A2973 1040 89 300 160/09 RMK AO2 RAE20 CIG 007V013 P0000
14837KMSN MSN20020219124012902/19/02 12:40:31  5-MIN KMSN 191840Z 16008KT 6SM BR BKN009 OVC024 07/05 A2973 1040 89 300 150/08 RMK AO2 RAE20 CIG 007V013 P0000
14837KMSN MSN20020219124512902/19/02 12:45:31  5-MIN KMSN 191845Z 16010KT 6SM BR BKN009 OVC024 07/05 A2973 1040 89 300 160/10 RMK AO2 RAE20 CIG 007V013 P0000
14837KMSN MSN20020219125013902/19/02 12:50:31  5-MIN KMSN 191850Z 16010KT 5SM BR OVC009 07/05 A2973 1040 89 300 160/10 RMK AO2 RAE20 CIG 007V013 SLP072 P0000 T00670050
14837KMSN MSN20020219125511702/19/02 12:55:31  5-MIN KMSN 191855Z 17009KT 5SM -RA OVC009 07/05 A2972 1050 89 300 170/09 RMK AO2 CIG 008V013 P0000
14837KMSN MSN20020219130011702/19/02 13:00:31  5-MIN KMSN 191900Z 16009KT 5SM -RA OVC009 06/05 A2972 1050 93 300 160/09 RMK AO2 CIG 008V013 P0000
14837KMSN MSN20020219130511702/19/02 13:05:31  5-MIN KMSN 191905Z 16010KT 5SM -RA OVC009 06/05 A2972 1050 93 300 160/10 RMK AO2 CIG 008V013 P0000
14837KMSN MSN20020219131011702/19/02 13:10:31  5-MIN KMSN 191910Z 17008KT 5SM -RA OVC009 06/05 A2972 1050 93 300 170/08 RMK AO2 CIG 007V013 P0000
14837KMSN MSN20020219131511702/19/02 13:15:31  5-MIN KMSN 191915Z 16008KT 5SM -RA OVC009 06/05 A2971 1060 93 300 160/08 RMK AO2 CIG 007V014 P0000
14837KMSN MSN20020219132011702/19/02 13:20:31  5-MIN KMSN 191920Z 16009KT 5SM -RA OVC009 06/05 A2971 1060 93 300 160/09 RMK AO2 CIG 007V014 P0000
14837KMSN MSN20020219132510502/19/02 13:25:31  5-MIN KMSN 191925Z 17011KT 4SM -RA OVC011 06/05 A2971 1050 93 300 160/11 RMK AO2 P0000
14837KMSN MSN20020219133010502/19/02 13:30:31  5-MIN KMSN 191930Z 16011KT 4SM -RA OVC011 06/05 A2971 1060 93 300 160/11 RMK AO2 P0001
14837KMSN MSN20020219133511202/19/02 13:35:31  5-MIN KMSN 191935Z 16010KT 4SM -RA BKN011 OVC020 06/05 A2971 1060 93 300 160/10 RMK AO2 P0001
14837KMSN MSN20020219134011202/19/02 13:40:31  5-MIN KMSN 191940Z 16010KT 4SM -RA BKN011 OVC020 06/05 A2971 1060 93 300 160/10 RMK AO2 P0001
14837KMSN MSN20020219134510502/19/02 13:45:31  5-MIN KMSN 191945Z 17010KT 3SM -RA OVC011 06/05 A2971 1060 93 300 170/10 RMK AO2 P0001
14837KMSN MSN20020219135012202/19/02 13:50:31  5-MIN KMSN 191950Z 17010KT 3SM -RA OVC011 06/05 A2971 1060 93 300 170/10 RMK AO2 SLP065 P0001 T00610050
14837KMSN MSN20020219135510502/19/02 13:55:31  5-MIN KMSN 191955Z 16009KT 3SM -RA OVC011 06/05 A2970 1060 93 300 160/09 RMK AO2 P0000
14837KMSN MSN20020219140010502/19/02 14:00:31  5-MIN KMSN 192000Z 17007KT 3SM -RA OVC011 06/05 A2971 1060 93 300 170/07 RMK AO2 P0001
14837KMSN MSN20020219140510902/19/02 14:05:31  5-MIN KMSN 192005Z 17007KT 2 1/2SM -RA OVC011 06/06 A2971 1060 96 300 170/07 RMK AO2 P0001
14837KMSN MSN20020219141010902/19/02 14:10:31  5-MIN KMSN 192010Z 18008KT 2 1/2SM -RA OVC011 06/06 A2971 1060 96 300 180/08 RMK AO2 P0001
14837KMSN MSN20020219141512102/19/02 14:15:31  5-MIN KMSN 192015Z 18009KT 2 1/2SM -RA OVC011 06/06 A2971 1060 96 300 180/09 RMK AO2 CIG 008V012 P0002
14837KMSN MSN20020219142010902/19/02 14:20:31  5-MIN KMSN 192020Z 18008KT 2 1/2SM -RA OVC011 06/06 A2971 1060 96 300 180/08 RMK AO2 P0003
14837KMSN MSN20020219142510502/19/02 14:25:31  5-MIN KMSN 192025Z 17007KT 2SM -RA OVC011 06/06 A2971 1060 96 300 170/07 RMK AO2 P0004
14837KMSN MSN20020219143010502/19/02 14:30:31  5-MIN KMSN 192030Z 16008KT 2SM -RA OVC011 06/06 A2971 1060 96 300 160/08 RMK AO2 P0004
14837KMSN MSN20020219143510502/19/02 14:35:31  5-MIN KMSN 192035Z 16007KT 2SM -RA OVC011 06/06 A2970 1060 96 300 160/07 RMK AO2 P0005
14837KMSN MSN20020219144011202/19/02 14:40:31  5-MIN KMSN 192040Z 16007KT 2SM -RA BKN009 OVC014 06/06 A2970 1070 96 300 160/07 RMK AO2 P0006
14837KMSN MSN20020219144511202/19/02 14:45:31  5-MIN KMSN 192045Z 15007KT 2SM -RA BKN009 OVC014 06/06 A2970 1070 96 300 150/07 RMK AO2 P0007
14837KMSN MSN20020219145015702/19/02 14:50:31  5-MIN KMSN 192050Z 15007KT 2 1/2SM -RA BKN007 OVC012 06/06 A2969 1070 96 300 150/07 RMK AO2 CIG 004V011 SLP061 P0008 60009 T00610056 58017
14837KMSN MSN20020219145512802/19/02 14:55:31  5-MIN KMSN 192055Z 15007KT 2 1/2SM -RA BKN007 OVC012 06/06 A2969 1080 96 300 140/07 RMK AO2 CIG 004V010 P0000
14837KMSN MSN20020219150012802/19/02 15:00:31  5-MIN KMSN 192100Z 15006KT 2 1/2SM -RA BKN007 OVC012 06/06 A2969 1080 96 300 150/06 RMK AO2 CIG 004V010 P0001
14837KMSN MSN20020219150513802/19/02 15:05:31  5-MIN KMSN 192105Z 14005KT 2 1/2SM -RA BKN007 OVC011 07/06 A2969 1080 93 400 140/05 RMK AO2 SFC VIS 3 CIG 004V008 P0001
14837KMSN MSN20020219151012102/19/02 15:10:31  5-MIN KMSN 192110Z 14008KT 2 1/2SM -RA OVC005 06/06 A2968 1090 96 300 140/08 RMK AO2 CIG 004V011 P0001
14837KMSN MSN20020219151510902/19/02 15:15:31  5-MIN KMSN 192115Z 13008KT 2 1/2SM -RA OVC005 06/06 A2968 1090 96 300 130/08 RMK AO2 P0002
14837KMSN MSN20020219152011602/19/02 15:20:31  5-MIN KMSN 192120Z 13008KT 2 1/2SM -RA OVC005 06/06 A2967 1100 96 300 130/08 RMK AO2 PRESFR P0002
14837KMSN MSN20020219152513802/19/02 15:25:31  5-MIN KMSN 192125Z 13008KT 2 1/2SM -RA OVC005 06/06 A2966 1100 96 300 130/08 RMK AO2 SFC VIS 3 CIG 004V008 PRESFR P0002
14837KMSN MSN20020219153011902/19/02 15:30:31  5-MIN KMSN 192130Z 13008KT 2 1/2SM -RA OVC005 07/06 A2966 1110 93 400 130/08 RMK AO2 SFC VIS 3 P0002
14837KMSN MSN20020219153511902/19/02 15:35:31  5-MIN KMSN 192135Z 13008KT 2 1/2SM -RA OVC005 07/06 A2966 1110 93 400 130/08 RMK AO2 SFC VIS 3 P0002
14837KMSN MSN20020219154011902/19/02 15:40:31  5-MIN KMSN 192140Z 13008KT 2 1/2SM -RA OVC005 07/06 A2966 1110 93 400 130/08 RMK AO2 SFC VIS 3 P0002
14837KMSN MSN20020219154512502/19/02 15:45:31  5-MIN KMSN 192145Z 13009KT 2 1/2SM -RA OVC005 07/06 A2965 1110 96 400 130/09 RMK AO2 SFC VIS 3 P0006 P0002
14837KMSN MSN20020219155013602/19/02 15:50:31  5-MIN KMSN 192150Z 14008KT 2 1/2SM -RA OVC005 07/06 A2966 1110 96 400 130/08 RMK AO2 SFC VIS 3 SLP048 P0006 T00670061
14837KMSN MSN20020219155511902/19/02 15:55:31  5-MIN KMSN 192155Z 14007KT 2 1/2SM -RA OVC005 07/06 A2966 1100 96 400 140/07 RMK AO2 SFC VIS 4 P0000
14837KMSN MSN20020219160011902/19/02 16:00:31  5-MIN KMSN 192200Z 14010KT 2 1/2SM -RA OVC005 07/06 A2966 1110 96 400 140/10 RMK AO2 SFC VIS 4 P0000
14837KMSN MSN20020219160512402/19/02 16:05:31  5-MIN KMSN 192205Z 14010KT 2 1/2SM BR OVC005 07/06 A2966 1100 96 400 140/10 RMK AO2 SFC VIS 4 RAE04 P0000
14837KMSN MSN20020219161012402/19/02 16:10:31  5-MIN KMSN 192210Z 15009KT 2 1/2SM BR OVC005 07/06 A2967 1100 96 400 150/09 RMK AO2 SFC VIS 4 RAE04 P0000
14837KMSN MSN20020219161512402/19/02 16:15:31  5-MIN KMSN 192215Z 15010KT 2 1/2SM BR OVC005 07/06 A2966 1100 96 400 150/10 RMK AO2 SFC VIS 4 RAE04 P0000
14837KMSN MSN20020219162012402/19/02 16:20:31  5-MIN KMSN 192220Z 15008KT 2 1/2SM BR OVC005 07/06 A2966 1100 96 400 150/08 RMK AO2 SFC VIS 4 RAE04 P0000
14837KMSN MSN20020219162512002/19/02 16:25:31  5-MIN KMSN 192225Z 15007KT 3SM BR OVC005 07/06 A2966 1110 96 400 150/07 RMK AO2 SFC VIS 4 RAE04 P0000
14837KMSN MSN20020219163012002/19/02 16:30:31  5-MIN KMSN 192230Z 16007KT 3SM BR OVC005 07/06 A2966 1100 96 400 150/07 RMK AO2 SFC VIS 4 RAE04 P0000
14837KMSN MSN20020219163512002/19/02 16:35:31  5-MIN KMSN 192235Z 16006KT 3SM BR OVC005 07/06 A2966 1100 96 400 160/06 RMK AO2 SFC VIS 4 RAE04 P0000
14837KMSN MSN20020219164012002/19/02 16:40:31  5-MIN KMSN 192240Z 16006KT 3SM BR OVC005 07/06 A2967 1100 96 400 150/06 RMK AO2 SFC VIS 4 RAE04 P0000
14837KMSN MSN20020219164512002/19/02 16:45:31  5-MIN KMSN 192245Z 15008KT 3SM BR OVC005 07/06 A2967 1100 96 400 150/08 RMK AO2 SFC VIS 4 RAE04 P0000
14837KMSN MSN20020219165013402/19/02 16:50:31  5-MIN KMSN 192250Z 14007KT 3SM -RA BR OVC005 07/06 A2966 1100 96 400 140/07 RMK AO2 RAE04B46 SLP050 P0001 T00670061
14837KMSN MSN20020219165510802/19/02 16:55:31  5-MIN KMSN 192255Z 15008KT 3SM -RA BR OVC005 07/06 A2966 1110 96 400 150/08 RMK AO2 P0000
14837KMSN MSN20020219170010802/19/02 17:00:31  5-MIN KMSN 192300Z 15007KT 3SM -RA BR OVC005 07/06 A2966 1110 96 400 150/07 RMK AO2 P0000
14837KMSN MSN20020219170512202/19/02 17:05:31  5-MIN KMSN 192305Z 15008KT 2 1/2SM -RA BR OVC005 07/06 A2966 1100 96 400 150/08 RMK AO2 TWR VIS 3 P0001
14837KMSN MSN20020219171012202/19/02 17:10:31  5-MIN KMSN 192310Z 16008KT 2 1/2SM -RA BR OVC005 07/06 A2967 1100 96 400 160/08 RMK AO2 TWR VIS 3 P0001
14837KMSN MSN20020219171512202/19/02 17:15:31  5-MIN KMSN 192315Z 15008KT 2 1/2SM -RA BR OVC005 07/06 A2967 1100 96 400 150/08 RMK AO2 SFC VIS 3 P0002
14837KMSN MSN20020219172012202/19/02 17:20:31  5-MIN KMSN 192320Z 15010KT 2 1/2SM -RA BR OVC005 07/06 A2967 1100 96 400 150/10 RMK AO2 SFC VIS 4 P0002
14837KMSN MSN20020219172512202/19/02 17:25:31  5-MIN KMSN 192325Z 16007KT 2 1/2SM -RA BR OVC005 07/06 A2967 1100 96 400 160/07 RMK AO2 SFC VIS 5 P0002
14837KMSN MSN20020219173012202/19/02 17:30:31  5-MIN KMSN 192330Z 15007KT 2 1/2SM -RA BR OVC005 07/06 A2966 1110 96 400 150/07 RMK AO2 SFC VIS 4 P0002
14837KMSN MSN20020219173512202/19/02 17:35:31  5-MIN KMSN 192335Z 16007KT 2 1/2SM -RA BR OVC005 07/06 A2965 1110 96 400 160/07 RMK AO2 SFC VIS 4 P0002
14837KMSN MSN20020219174012402/19/02 17:40:31  5-MIN KMSN 192340Z 15007KT 2 1/2SM BR OVC005 07/06 A2966 1110 96 400 150/07 RMK AO2 SFC VIS 4 RAE36 P0003
14837KMSN MSN20020219174512402/19/02 17:45:31  5-MIN KMSN 192345Z 15008KT 2 1/2SM BR OVC005 07/06 A2966 1110 96 400 150/08 RMK AO2 SFC VIS 4 RAE36 P0003
14837KMSN MSN20020219175016502/19/02 17:50:31  5-MIN KMSN 192350Z 15008KT 2 1/2SM BR OVC005 07/06 A2966 1110 96 400 150/08 RMK AO2 SFC VIS 4 RAE36 SLP049 P0003 60016 T00670061 10067 20061 56018
14837KMSN MSN20020219175511302/19/02 17:55:31  5-MIN KMSN 192355Z 15007KT 2 1/2SM BR OVC005 06/06 A2966 1110 100 300 150/07 RMK AO2 SFC VIS 5
14837KMSN MSN20020219180013002/19/02 18:00:31  5-MIN KMSN 200000Z 15007KT 2 1/2SM -DZ BR OVC005 07/06 A2966 1110 96 400 150/07 RMK AO2 SFC VIS 4 DZB2357 P0000
14837KMSN MSN20020219180513102/19/02 18:05:31  5-MIN KMSN 200005Z 14007KT 2 1/2SM -DZ BR OVC005 06/06 A2966 1110 100 300 140/07 RMK AO2 SFC VIS 4 DZB2357 P0000
14837KMSN MSN20020219181013002/19/02 18:10:31  5-MIN KMSN 200010Z 15006KT 2 1/2SM -DZ BR OVC005 06/06 A2966 1110 96 300 150/06 RMK AO2 SFC VIS 4 DZB2357 P0000
14837KMSN MSN20020219181513002/19/02 18:15:31  5-MIN KMSN 200015Z 15006KT 2 1/2SM -DZ BR OVC005 06/06 A2965 1110 96 300 150/06 RMK AO2 SFC VIS 4 DZB2357 P0000
14837KMSN MSN20020219182013102/19/02 18:20:31  5-MIN KMSN 200020Z 14008KT 2 1/2SM -DZ BR OVC005 06/06 A2965 1110 100 400 140/08 RMK AO2 SFC VIS 4 DZB2357 P0000
14837KMSN MSN20020219182513002/19/02 18:25:31  5-MIN KMSN 200025Z 14007KT 2 1/2SM -DZ BR OVC005 06/06 A2965 1110 96 400 140/07 RMK AO2 SFC VIS 5 DZB2357 P0000
14837KMSN MSN20020219183013002/19/02 18:30:31  5-MIN KMSN 200030Z 14007KT 2 1/2SM -DZ BR OVC005 06/06 A2965 1120 96 400 140/07 RMK AO2 SFC VIS 5 DZB2357 P0000
14837KMSN MSN20020219183513002/19/02 18:35:31  5-MIN KMSN 200035Z 14007KT 2 1/2SM -DZ BR OVC005 06/06 A2965 1120 96 400 140/07 RMK AO2 SFC VIS 5 DZB2357 P0000
14837KMSN MSN20020219184013002/19/02 18:40:31  5-MIN KMSN 200040Z 14006KT 2 1/2SM -DZ BR OVC005 06/06 A2965 1120 96 400 140/06 RMK AO2 SFC VIS 5 DZB2357 P0000
14837KMSN MSN20020219184513002/19/02 18:45:31  5-MIN KMSN 200045Z 13007KT 2 1/2SM -DZ BR OVC005 06/06 A2965 1120 96 400 130/07 RMK AO2 SFC VIS 4 DZB2357 P0000
14837KMSN MSN20020219185013302/19/02 18:50:31  5-MIN KMSN 200050Z 13007KT 4SM -DZ BR OVC005 06/06 A2965 1120 96 400 130/07 RMK AO2 DZB2357 SLP044 P0000 T00610056
14837KMSN MSN20020219185510802/19/02 18:55:31  5-MIN KMSN 200055Z 14006KT 4SM -DZ BR OVC005 06/06 A2965 1120 96 400 140/06 RMK AO2 P0000
14837KMSN MSN20020219190010802/19/02 19:00:31  5-MIN KMSN 200100Z 14007KT 4SM -DZ BR OVC005 06/06 A2964 1120 96 400 140/07 RMK AO2 P0000
14837KMSN MSN20020219190510802/19/02 19:05:31  5-MIN KMSN 200105Z 14007KT 4SM -DZ BR OVC005 06/06 A2964 1120 96 400 140/07 RMK AO2 P0000
14837KMSN MSN20020219191010802/19/02 19:10:31  5-MIN KMSN 200110Z 14006KT 4SM -DZ BR OVC003 06/06 A2964 1130 96 400 140/06 RMK AO2 P0000
14837KMSN MSN20020219191510802/19/02 19:15:31  5-MIN KMSN 200115Z 14008KT 4SM -DZ BR OVC003 06/06 A2964 1120 96 400 140/08 RMK AO2 P0000
14837KMSN MSN20020219192010902/19/02 19:20:31  5-MIN KMSN 200120Z 14007KT 4SM -DZ BR OVC003 06/06 A2964 1130 100 400 140/07 RMK AO2 P0000
14837KMSN MSN20020219192510802/19/02 19:25:31  5-MIN KMSN 200125Z 14008KT 4SM -DZ BR OVC003 06/06 A2964 1130 96 400 140/08 RMK AO2 P0000
14837KMSN MSN20020219193010802/19/02 19:30:31  5-MIN KMSN 200130Z 14008KT 3SM -DZ BR OVC003 06/06 A2963 1130 96 400 140/08 RMK AO2 P0000
14837KMSN MSN20020219193510802/19/02 19:35:31  5-MIN KMSN 200135Z 13007KT 3SM -DZ BR OVC003 06/06 A2962 1140 96 400 130/07 RMK AO2 P0000
14837KMSN MSN20020219194010802/19/02 19:40:31  5-MIN KMSN 200140Z 13006KT 3SM -DZ BR OVC003 06/06 A2963 1140 96 400 130/06 RMK AO2 P0000
14837KMSN MSN20020219194510802/19/02 19:45:31  5-MIN KMSN 200145Z 13006KT 4SM -DZ BR OVC003 06/06 A2962 1140 96 400 130/06 RMK AO2 P0000
14837KMSN MSN20020219195012502/19/02 19:50:31  5-MIN KMSN 200150Z 12006KT 3SM -DZ BR OVC003 06/06 A2962 1140 96 400 120/06 RMK AO2 SLP036 P0000 T00610056
14837KMSN MSN20020219195510802/19/02 19:55:31  5-MIN KMSN 200155Z 12007KT 3SM -DZ BR OVC003 06/06 A2962 1140 96 400 120/07 RMK AO2 P0000
14837KMSN MSN20020219200010802/19/02 20:00:31  5-MIN KMSN 200200Z 13007KT 4SM -DZ BR OVC003 06/06 A2962 1140 96 400 130/07 RMK AO2 P0000
14837KMSN MSN20020219200510802/19/02 20:05:31  5-MIN KMSN 200205Z 14006KT 4SM -DZ BR OVC003 06/06 A2963 1140 96 400 140/06 RMK AO2 P0000
14837KMSN MSN20020219201010802/19/02 20:10:31  5-MIN KMSN 200210Z 14005KT 4SM -DZ BR OVC003 06/06 A2963 1140 96 400 140/05 RMK AO2 P0000
14837KMSN MSN20020219201510802/19/02 20:15:31  5-MIN KMSN 200215Z 14007KT 4SM -DZ BR OVC003 06/06 A2963 1140 96 400 140/07 RMK AO2 P0000
14837KMSN MSN20020219202010802/19/02 20:20:31  5-MIN KMSN 200220Z 14007KT 3SM -DZ BR OVC003 06/06 A2962 1140 96 400 140/07 RMK AO2 P0000
14837KMSN MSN20020219202510802/19/02 20:25:31  5-MIN KMSN 200225Z 13006KT 3SM -DZ BR OVC003 06/06 A2962 1150 96 400 130/06 RMK AO2 P0000
14837KMSN MSN20020219203010802/19/02 20:30:31  5-MIN KMSN 200230Z 13006KT 3SM -DZ BR OVC003 06/06 A2962 1150 96 400 130/06 RMK AO2 P0000
14837KMSN MSN20020219203510802/19/02 20:35:31  5-MIN KMSN 200235Z 13007KT 3SM -DZ BR OVC003 06/06 A2961 1150 96 400 130/07 RMK AO2 P0000
14837KMSN MSN20020219204010802/19/02 20:40:31  5-MIN KMSN 200240Z 13006KT 3SM -DZ BR OVC003 06/06 A2961 1150 96 400 130/06 RMK AO2 P0000
14837KMSN MSN20020219204511202/19/02 20:45:31  5-MIN KMSN 200245Z 12006KT 2 1/2SM -DZ BR OVC003 06/06 A2961 1150 96 400 120/06 RMK AO2 P0000
14837KMSN MSN20020219205015102/19/02 20:50:31  5-MIN KMSN 200250Z 12007KT 2SM -DZ BR OVC003 06/06 A2961 1150 96 400 120/07 RMK AO2 SFC VIS 2 1/2 SLP032 P0000 60000 T00610056 56011
14837KMSN MSN20020219205512202/19/02 20:55:31  5-MIN KMSN 200255Z 13006KT 2SM -DZ BR OVC003 06/06 A2961 1150 96 400 130/06 RMK AO2 SFC VIS 2 1/2 P0000
14837KMSN MSN20020219210010802/19/02 21:00:31  5-MIN KMSN 200300Z 13007KT 2SM -DZ BR OVC003 06/06 A2961 1150 96 400 130/07 RMK AO2 P0000
14837KMSN MSN20020219210510802/19/02 21:05:31  5-MIN KMSN 200305Z 13005KT 2SM -DZ BR OVC003 06/06 A2961 1150 96 400 130/05 RMK AO2 P0000
14837KMSN MSN20020219211010802/19/02 21:10:31  5-MIN KMSN 200310Z 13005KT 2SM -DZ BR OVC003 06/06 A2961 1160 96 400 130/05 RMK AO2 P0000
14837KMSN MSN20020219211510802/19/02 21:15:31  5-MIN KMSN 200315Z 13007KT 2SM -DZ BR OVC003 06/06 A2961 1160 96 400 130/07 RMK AO2 P0000
14837KMSN MSN20020219212010802/19/02 21:20:31  5-MIN KMSN 200320Z 13005KT 2SM -DZ BR OVC003 06/06 A2960 1160 96 400 130/05 RMK AO2 P0000
14837KMSN MSN20020219212510802/19/02 21:25:31  5-MIN KMSN 200325Z 13006KT 2SM -DZ BR OVC003 06/06 A2960 1160 96 400 130/06 RMK AO2 P0000
14837KMSN MSN20020219213010802/19/02 21:30:31  5-MIN KMSN 200330Z 13004KT 2SM -DZ BR OVC003 06/06 A2960 1160 96 400 130/04 RMK AO2 P0000
14837KMSN MSN20020219213510802/19/02 21:35:31  5-MIN KMSN 200335Z 13004KT 2SM -DZ BR OVC003 06/06 A2960 1160 96 400 130/04 RMK AO2 P0000
14837KMSN MSN20020219214010802/19/02 21:40:31  5-MIN KMSN 200340Z 13005KT 2SM -DZ BR OVC003 06/06 A2960 1170 96 400 130/05 RMK AO2 P0000
14837KMSN MSN20020219214510802/19/02 21:45:31  5-MIN KMSN 200345Z 13005KT 2SM -DZ BR OVC003 06/06 A2959 1170 96 400 130/05 RMK AO2 P0000
14837KMSN MSN20020219215012502/19/02 21:50:31  5-MIN KMSN 200350Z 12004KT 2SM -DZ BR OVC003 06/06 A2959 1170 96 400 120/04 RMK AO2 SLP024 P0000 T00610056
14837KMSN MSN20020219215512202/19/02 21:55:31  5-MIN KMSN 200355Z 12004KT 1 3/4SM -DZ BR OVC003 06/06 A2958 1180 96 400 120/04 RMK AO2 TWR VIS 2 P0000
14837KMSN MSN20020219220011202/19/02 22:00:31  5-MIN KMSN 200400Z 12003KT 1 1/2SM -DZ BR OVC003 06/06 A2958 1180 96 400 120/03 RMK AO2 P0000
14837KMSN MSN20020219220511202/19/02 22:05:31  5-MIN KMSN 200405Z 12004KT 1 1/2SM -DZ BR OVC003 06/06 A2958 1180 96 400 120/04 RMK AO2 P0000
14837KMSN MSN20020219221011202/19/02 22:10:31  5-MIN KMSN 200410Z 13005KT 1 1/2SM -DZ BR OVC003 06/06 A2958 1180 96 400 130/05 RMK AO2 P0000
14837KMSN MSN20020219221511302/19/02 22:15:31  5-MIN KMSN 200415Z 12005KT 1 1/2SM -DZ BR OVC003 06/06 A2957 1190 100 400 120/05 RMK AO2 P0000
14837KMSN MSN20020219222012702/19/02 22:20:31  5-MIN KMSN 200420Z 13004KT 1 1/4SM -DZ BR OVC003 06/06 A2957 1190 100 400 120/04 RMK AO2 TWR VIS 1 1/2 P0000
14837KMSN MSN20020219222512302/19/02 22:25:31  5-MIN KMSN 200425Z 12005KT 1SM -DZ BR OVC003 06/06 A2957 1190 100 400 120/05 RMK AO2 SFC VIS 1 1/4 P0000
14837KMSN MSN20020219223012302/19/02 22:30:31  5-MIN KMSN 200430Z 13006KT 1SM -DZ BR OVC003 06/06 A2957 1190 100 400 130/06 RMK AO2 SFC VIS 1 1/4 P0000
14837KMSN MSN20020219223512302/19/02 22:35:31  5-MIN KMSN 200435Z 13006KT 1SM -DZ BR OVC003 06/06 A2957 1190 100 400 130/06 RMK AO2 SFC VIS 1 1/4 P0000
14837KMSN MSN20020219224012302/19/02 22:40:31  5-MIN KMSN 200440Z 14006KT 1SM -DZ BR OVC003 06/06 A2957 1190 100 400 140/06 RMK AO2 SFC VIS 1 1/4 P0000
14837KMSN MSN20020219224512302/19/02 22:45:31  5-MIN KMSN 200445Z 14006KT 1SM -DZ BR OVC003 06/06 A2957 1190 100 400 140/06 RMK AO2 SFC VIS 1 1/4 P0000
14837KMSN MSN20020219225014202/19/02 22:50:31  5-MIN KMSN 200450Z 14005KT 3/4SM -DZ BR OVC003 06/06 A2957 1190 100 400 140/05 RMK AO2 SFC VIS 1 1/4 SLP017 P0001 T00610061
14837KMSN MSN20020219225512102/19/02 22:55:31  5-MIN KMSN 200455Z 13005KT 3/4SM -DZ BR OVC003 06/06 A2956 1200 100 500 130/05 RMK AO2 SFC VIS 1 P0000
14837KMSN MSN20020219230012102/19/02 23:00:31  5-MIN KMSN 200500Z 14005KT 3/4SM -DZ BR OVC001 06/06 A2956 1200 100 500 140/05 RMK AO2 SFC VIS 1 P0000
14837KMSN MSN20020219230511302/19/02 23:05:31  5-MIN KMSN 200505Z 14005KT 1 1/4SM -DZ BR OVC001 06/06 A2956 1200 100 500 140/05 RMK AO2 P0000
14837KMSN MSN20020219231011302/19/02 23:10:31  5-MIN KMSN 200510Z 14005KT 1 1/4SM -DZ BR OVC001 06/06 A2956 1200 100 500 140/05 RMK AO2 P0000
14837KMSN MSN20020219231510902/19/02 23:15:31  5-MIN KMSN 200515Z 14004KT 1SM -DZ BR OVC001 06/06 A2955 1210 100 500 140/04 RMK AO2 P0000
14837KMSN MSN20020219232010902/19/02 23:20:31  5-MIN KMSN 200520Z 14004KT 1SM -DZ BR OVC001 06/06 A2955 1210 100 500 130/04 RMK AO2 P0000
14837KMSN MSN20020219232510902/19/02 23:25:31  5-MIN KMSN 200525Z 13005KT 1SM -DZ BR OVC001 06/06 A2955 1210 100 500 120/05 RMK AO2 P0000
14837KMSN MSN20020219233010902/19/02 23:30:31  5-MIN KMSN 200530Z 13005KT 1SM -DZ BR OVC001 06/06 A2955 1210 100 500 130/05 RMK AO2 P0000
14837KMSN MSN20020219233511102/19/02 23:35:31  5-MIN KMSN 200535Z 14005KT 3/4SM -DZ BR OVC001 06/06 A2955 1210 100 500 140/05 RMK AO2 P0000
14837KMSN MSN20020219234011102/19/02 23:40:31  5-MIN KMSN 200540Z 14004KT 3/4SM -DZ BR OVC001 06/06 A2955 1210 100 500 140/04 RMK AO2 P0000
14837KMSN MSN20020219234511102/19/02 23:45:31  5-MIN KMSN 200545Z 15005KT 3/4SM -DZ BR OVC001 06/06 A2955 1210 100 500 150/05 RMK AO2 P0000
14837KMSN MSN20020219235016202/19/02 23:50:31  5-MIN KMSN 200550Z 15003KT 3/4SM -DZ BR OVC001 06/06 A2955 1210 100 500 150/03 RMK AO2 SLP010 P0000 60001 T00610061 10067 20061 400670039 56016
14837KMSN MSN20020219235511002/19/02 23:55:31  5-MIN KMSN 200555Z 16005KT 3/4SM -DZ BR OVC001 07/06 A2955 1210 96 500 160/05 RMK AO2 P0000
14837KMSN MSN20020220000011102/20/02 00:00:31  5-MIN KMSN 200600Z 15005KT 3/4SM -DZ BR OVC001 06/06 A2954 1210 100 500 150/05 RMK AO2 P0000
14837KMSN MSN20020220000511102/20/02 00:05:31  5-MIN KMSN 200605Z 15004KT 1/2SM -DZ FG OVC001 06/06 A2954 1210 100 500 150/04 RMK AO2 P0000
14837KMSN MSN20020220001011002/20/02 00:10:31  5-MIN KMSN 200610Z 15005KT 1/2SM -DZ FG OVC001 07/06 A2954 1220 96 500 150/05 RMK AO2 P0000
14837KMSN MSN20020220001511002/20/02 00:15:31  5-MIN KMSN 200615Z 13004KT 1/2SM -DZ FG OVC001 07/06 A2953 1220 96 600 130/04 RMK AO2 P0000
14837KMSN MSN20020220002011002/20/02 00:20:31  5-MIN KMSN 200620Z 13004KT 1/2SM -DZ FG OVC001 07/06 A2953 1230 96 600 130/04 RMK AO2 P0000
14837KMSN MSN20020220002511002/20/02 00:25:31  5-MIN KMSN 200625Z 14004KT 1/2SM -DZ FG OVC001 07/06 A2953 1230 96 600 140/04 RMK AO2 P0000
14837KMSN MSN20020220003011102/20/02 00:30:31  5-MIN KMSN 200630Z 13004KT 1/2SM -DZ FG OVC001 07/07 A2953 1230 100 600 130/04 RMK AO2 P0000
14837KMSN MSN20020220003511102/20/02 00:35:31  5-MIN KMSN 200635Z 14005KT 1/2SM -DZ FG OVC001 06/06 A2953 1230 100 500 140/05 RMK AO2 P0000
14837KMSN MSN20020220004011002/20/02 00:40:31  5-MIN KMSN 200640Z 14004KT 1/2SM -DZ FG OVC001 07/06 A2953 1230 96 600 140/04 RMK AO2 P0000
14837KMSN MSN20020220004510902/20/02 00:45:31  5-MIN KMSN 200645Z 14004KT 1/2SM -DZ FG VV001 07/06 A2953 1230 96 600 140/04 RMK AO2 P0000
14837KMSN MSN20020220005012702/20/02 00:50:31  5-MIN KMSN 200650Z 14004KT 1/2SM -DZ FG VV001 07/07 A2952 1230 100 600 140/04 RMK AO2 SLP003 P0000 T00670067
14837KMSN MSN20020220005511002/20/02 00:55:31  5-MIN KMSN 200655Z 14004KT 1/2SM -DZ FG VV001 07/07 A2952 1230 100 600 140/04 RMK AO2 P0000
14837KMSN MSN20020220010011002/20/02 01:00:31  5-MIN KMSN 200700Z 14004KT 1/2SM -DZ FG VV001 07/07 A2952 1240 100 600 140/04 RMK AO2 P0000
14837KMSN MSN20020220010510902/20/02 01:05:31  5-MIN KMSN 200705Z 13004KT 1/2SM -DZ FG VV001 07/06 A2952 1240 96 600 130/04 RMK AO2 P0000
14837KMSN MSN20020220011011002/20/02 01:10:31  5-MIN KMSN 200710Z 13004KT 1/2SM -DZ FG VV001 07/07 A2951 1240 100 600 130/04 RMK AO2 P0000
14837KMSN MSN20020220011511102/20/02 01:15:31  5-MIN KMSN 200715Z 14004KT 1/2SM -DZ FG OVC001 07/07 A2951 1240 100 600 130/04 RMK AO2 P0000
14837KMSN MSN20020220012011102/20/02 01:20:31  5-MIN KMSN 200720Z 13004KT 1/2SM -DZ FG OVC001 07/07 A2951 1240 100 600 130/04 RMK AO2 P0000
14837KMSN MSN20020220012511102/20/02 01:25:31  5-MIN KMSN 200725Z 11004KT 1/2SM -DZ FG OVC001 06/06 A2951 1250 100 500 110/04 RMK AO2 P0000
14837KMSN MSN20020220013011002/20/02 01:30:31  5-MIN KMSN 200730Z 12004KT 1/2SM -DZ FG VV001 06/06 A2951 1250 100 500 120/04 RMK AO2 P0000
14837KMSN MSN20020220013511002/20/02 01:35:31  5-MIN KMSN 200735Z 14003KT 1/2SM -DZ FG VV001 06/06 A2951 1250 100 500 140/03 RMK AO2 P0000
14837KMSN MSN20020220014011002/20/02 01:40:31  5-MIN KMSN 200740Z 00000KT 1/2SM -DZ FG VV001 06/06 A2951 1250 100 500 000/00 RMK AO2 P0000
14837KMSN MSN20020220014511002/20/02 01:45:31  5-MIN KMSN 200745Z 16003KT 1/2SM -DZ FG VV001 07/07 A2951 1250 100 600 160/03 RMK AO2 P0000
14837KMSN MSN20020220015012702/20/02 01:50:31  5-MIN KMSN 200750Z 15003KT 1/2SM -DZ FG VV001 07/07 A2951 1250 100 600 150/03 RMK AO2 SLP996 P0000 T00670067
14837KMSN MSN20020220015511002/20/02 01:55:31  5-MIN KMSN 200755Z 00000KT 1/2SM -DZ FG VV001 07/07 A2950 1250 100 600 000/00 RMK AO2 P0000
14837KMSN MSN20020220020011002/20/02 02:00:31  5-MIN KMSN 200800Z 00000KT 1/4SM -DZ FG VV001 07/07 A2950 1250 100 600 000/00 RMK AO2 P0000
14837KMSN MSN20020220020511002/20/02 02:05:31  5-MIN KMSN 200805Z 00000KT 1/4SM -DZ FG VV001 07/07 A2950 1260 100 600 000/00 RMK AO2 P0000
14837KMSN MSN20020220021011002/20/02 02:10:31  5-MIN KMSN 200810Z 00000KT 1/4SM -DZ FG VV001 07/07 A2949 1260 100 600 000/00 RMK AO2 P0000
14837KMSN MSN20020220021511002/20/02 02:15:31  5-MIN KMSN 200815Z 00000KT 1/4SM -DZ FG VV001 07/07 A2949 1270 100 600 000/00 RMK AO2 P0000
14837KMSN MSN20020220022011002/20/02 02:20:31  5-MIN KMSN 200820Z 00000KT 1/4SM -DZ FG VV001 07/07 A2949 1270 100 600 000/00 RMK AO2 P0000
14837KMSN MSN20020220022510902/20/02 02:25:31  5-MIN KMSN 200825Z 00000KT 1/4SM -DZ FG VV001 07/06 A2948 1270 96 600 000/00 RMK AO2 P0000
14837KMSN MSN20020220023011002/20/02 02:30:31  5-MIN KMSN 200830Z 00000KT 1/4SM -DZ FG VV001 07/07 A2949 1270 100 600 000/00 RMK AO2 P0000
14837KMSN MSN20020220023511002/20/02 02:35:31  5-MIN KMSN 200835Z 00000KT 1/4SM -DZ FG VV001 06/06 A2948 1280 100 600 000/00 RMK AO2 P0000
14837KMSN MSN20020220024011002/20/02 02:40:31  5-MIN KMSN 200840Z 00000KT 1/4SM -DZ FG VV001 06/06 A2947 1280 100 600 000/00 RMK AO2 P0000
14837KMSN MSN20020220024511002/20/02 02:45:31  5-MIN KMSN 200845Z 12003KT 1/4SM -DZ FG VV001 06/06 A2948 1280 100 600 120/03 RMK AO2 P0000
14837KMSN MSN20020220025013902/20/02 02:50:31  5-MIN KMSN 200850Z 12003KT 1/4SM -DZ FG VV001 06/06 A2947 1280 100 600 120/03 RMK AO2 SLP984 P0000 60000 T00610061 56021
14837KMSN MSN20020220025511002/20/02 02:55:31  5-MIN KMSN 200855Z 13004KT 1/4SM -DZ FG VV001 06/06 A2947 1280 100 600 130/04 RMK AO2 P0000
14837KMSN MSN20020220030011002/20/02 03:00:31  5-MIN KMSN 200900Z 12003KT 1/4SM -DZ FG VV001 06/06 A2947 1280 100 600 120/03 RMK AO2 P0000
14837KMSN MSN20020220030511002/20/02 03:05:31  5-MIN KMSN 200905Z 11003KT 1/4SM -DZ FG VV001 06/06 A2947 1280 100 600 110/03 RMK AO2 P0000
14837KMSN MSN20020220031011002/20/02 03:10:31  5-MIN KMSN 200910Z 13004KT 1/4SM -DZ FG VV001 06/06 A2947 1280 100 600 130/04 RMK AO2 P0000
14837KMSN MSN20020220031511002/20/02 03:15:31  5-MIN KMSN 200915Z 13004KT 1/4SM -DZ FG VV001 06/06 A2947 1280 100 600 130/04 RMK AO2 P0000
14837KMSN MSN20020220032011002/20/02 03:20:31  5-MIN KMSN 200920Z 14003KT 1/4SM -DZ FG VV001 06/06 A2947 1280 100 600 140/03 RMK AO2 P0000
14837KMSN MSN20020220032511202/20/02 03:25:31  5-MIN KMSN 200925Z 15003KT 1/4SM FG VV001 06/06 A2947 1280 100 600 150/03 RMK AO2 DZE24 P0000
14837KMSN MSN20020220033011202/20/02 03:30:31  5-MIN KMSN 200930Z 00000KT 1/4SM FG VV001 06/06 A2947 1280 100 600 000/00 RMK AO2 DZE24 P0000
14837KMSN MSN20020220033511202/20/02 03:35:31  5-MIN KMSN 200935Z 17003KT 1/4SM FG VV001 07/07 A2947 1280 100 600 170/03 RMK AO2 DZE24 P0000
14837KMSN MSN20020220034011202/20/02 03:40:31  5-MIN KMSN 200940Z 17003KT 1/4SM FG VV001 07/07 A2946 1290 100 600 170/03 RMK AO2 DZE24 P0000
14837KMSN MSN20020220034511202/20/02 03:45:31  5-MIN KMSN 200945Z 00000KT 1/4SM FG VV001 07/07 A2946 1290 100 600 000/00 RMK AO2 DZE24 P0000
14837KMSN MSN20020220035012902/20/02 03:50:31  5-MIN KMSN 200950Z 00000KT 1/4SM FG VV001 06/06 A2946 1290 100 600 000/00 RMK AO2 DZE24 SLP980 P0001 T00610061
14837KMSN MSN20020220035510002/20/02 03:55:31  5-MIN KMSN 200955Z 10004KT 1/4SM FG VV001 06/06 A2946 1300 100 600 100/04 RMK AO2
14837KMSN MSN20020220040010002/20/02 04:00:31  5-MIN KMSN 201000Z 11006KT 1/4SM FG VV001 06/06 A2946 1300 100 600 110/06 RMK AO2
14837KMSN MSN20020220040510002/20/02 04:05:31  5-MIN KMSN 201005Z 11006KT 1/4SM FG VV001 06/06 A2946 1300 100 600 110/06 RMK AO2
14837KMSN MSN20020220041010002/20/02 04:10:31  5-MIN KMSN 201010Z 12005KT 1/4SM FG VV001 06/06 A2946 1300 100 600 120/05 RMK AO2
14837KMSN MSN20020220041510002/20/02 04:15:31  5-MIN KMSN 201015Z 13003KT 1/4SM FG VV001 06/06 A2945 1300 100 600 130/03 RMK AO2
14837KMSN MSN20020220042010002/20/02 04:20:31  5-MIN KMSN 201020Z 13003KT 1/4SM FG VV001 06/06 A2945 1300 100 600 130/03 RMK AO2
14837KMSN MSN20020220042510002/20/02 04:25:31  5-MIN KMSN 201025Z 12003KT 1/4SM FG VV001 06/06 A2945 1300 100 600 120/03 RMK AO2
14837KMSN MSN20020220043010002/20/02 04:30:31  5-MIN KMSN 201030Z 11003KT 1/4SM FG VV001 06/06 A2944 1310 100 600 110/03 RMK AO2
14837KMSN MSN20020220043510002/20/02 04:35:31  5-MIN KMSN 201035Z 13003KT 1/4SM FG VV001 06/06 A2945 1310 100 600 130/03 RMK AO2
14837KMSN MSN20020220044010002/20/02 04:40:31  5-MIN KMSN 201040Z 13003KT 1/4SM FG VV001 06/06 A2945 1310 100 600 130/03 RMK AO2
14837KMSN MSN20020220044510002/20/02 04:45:31  5-MIN KMSN 201045Z 13003KT 1/4SM FG VV001 06/06 A2944 1310 100 600 120/03 RMK AO2
14837KMSN MSN20020220045011702/20/02 04:50:31  5-MIN KMSN 201050Z 13004KT 1/4SM FG VV001 06/06 A2944 1310 100 600 130/04 RMK AO2 SLP974 T00610061
14837KMSN MSN20020220045510002/20/02 04:55:31  5-MIN KMSN 201055Z 13004KT 1/4SM FG VV001 06/06 A2944 1320 100 600 130/04 RMK AO2
14837KMSN MSN20020220050009902/20/02 05:00:31  5-MIN KMSN 201100Z 13004KT 1/4SM FG VV001 07/06 A2943 1320 96 700 130/04 RMK AO2
14837KMSN MSN20020220050510002/20/02 05:05:31  5-MIN KMSN 201105Z 13004KT 1/4SM FG VV001 07/07 A2943 1320 100 700 130/04 RMK AO2
14837KMSN MSN20020220051010602/20/02 05:10:31  5-MIN KMSN 201110Z 13003KT 1/4SM FG VV001 07/07 A2943 1320 100 700 130/03 RMK AO2 P0001
14837KMSN MSN20020220051510002/20/02 05:15:31  5-MIN KMSN 201115Z 14004KT 1/8SM FG VV001 06/06 A2943 1320 100 600 140/04 RMK AO2
14837KMSN MSN20020220052010002/20/02 05:20:31  5-MIN KMSN 201120Z 14004KT 1/8SM FG VV001 07/07 A2942 1330 100 700 140/04 RMK AO2
14837KMSN MSN20020220052510002/20/02 05:25:31  5-MIN KMSN 201125Z 00000KT 1/8SM FG VV001 07/07 A2942 1330 100 700 000/00 RMK AO2
14837KMSN MSN20020220053010002/20/02 05:30:31  5-MIN KMSN 201130Z 00000KT 1/8SM FG VV001 06/06 A2941 1340 100 600 000/00 RMK AO2
14837KMSN MSN20020220053510002/20/02 05:35:31  5-MIN KMSN 201135Z 00000KT 1/8SM FG VV001 06/06 A2941 1340 100 600 000/00 RMK AO2
14837KMSN MSN20020220054010002/20/02 05:40:31  5-MIN KMSN 201140Z 00000KT 1/8SM FG VV001 06/06 A2941 1340 100 600 000/00 RMK AO2
14837KMSN MSN20020220054510002/20/02 05:45:31  5-MIN KMSN 201145Z 00000KT 1/8SM FG VV001 06/06 A2941 1340 100 600 000/00 RMK AO2
14837KMSN MSN20020220055014702/20/02 05:50:31  5-MIN KMSN 201150Z 00000KT 1/8SM FG VV001 06/06 A2940 1350 100 600 000/00 RMK AO2 SLP961 60001 70030 T00610061 10067 20061 58025
14837KMSN MSN20020220055510002/20/02 05:55:31  5-MIN KMSN 201155Z 00000KT 1/8SM FG VV001 06/06 A2940 1350 100 600 000/00 RMK AO2
14837KMSN MSN20020220060009902/20/02 06:00:31  5-MIN KMSN 201200Z 34004KT 1/8SM FG VV001 06/06 A2940 1350 96 600 340/04 RMK AO2
14837KMSN MSN20020220060510002/20/02 06:05:31  5-MIN KMSN 201205Z 35003KT 1/8SM FG VV001 06/06 A2940 1350 100 600 350/03 RMK AO2
14837KMSN MSN20020220061010002/20/02 06:10:31  5-MIN KMSN 201210Z 31003KT 1/8SM FG VV001 06/06 A2940 1350 100 600 310/03 RMK AO2
14837KMSN MSN20020220061509902/20/02 06:15:31  5-MIN KMSN 201215Z 00000KT 1/8SM FG VV001 06/06 A2940 1350 96 600 000/00 RMK AO2
14837KMSN MSN20020220062010002/20/02 06:20:31  5-MIN KMSN 201220Z 01005KT 1/8SM FG VV001 06/06 A2940 1350 100 600 010/05 RMK AO2
14837KMSN MSN20020220062510002/20/02 06:25:31  5-MIN KMSN 201225Z 01004KT 1/8SM FG VV001 06/06 A2940 1350 100 600 010/04 RMK AO2
14837KMSN MSN20020220063011602/20/02 06:30:31  5-MIN KMSN 201230Z 02003KT 1/8SM -RA FG VV001 06/06 A2940 1350 100 600 020/03 RMK AO2 RAB26 P0000
14837KMSN MSN20020220063511602/20/02 06:35:31  5-MIN KMSN 201235Z 00000KT 1/8SM -RA FG VV001 06/06 A2939 1360 100 600 000/00 RMK AO2 RAB26 P0000
14837KMSN MSN20020220064011602/20/02 06:40:31  5-MIN KMSN 201240Z 00000KT 1/8SM -RA FG VV001 06/06 A2939 1360 100 600 000/00 RMK AO2 RAB26 P0001
14837KMSN MSN20020220064511602/20/02 06:45:31  5-MIN KMSN 201245Z 02003KT 1/8SM -RA FG VV001 06/06 A2939 1360 100 600 020/03 RMK AO2 RAB26 P0001
14837KMSN MSN20020220065013302/20/02 06:50:31  5-MIN KMSN 201250Z 00000KT 1/8SM -RA FG VV001 06/06 A2939 1360 100 600 000/00 RMK AO2 RAB26 SLP956 P0002 T00560056
14837KMSN MSN20020220065511002/20/02 06:55:31  5-MIN KMSN 201255Z 00000KT 1/4SM -RA FG VV001 06/06 A2939 1360 100 600 000/00 RMK AO2 P0001
14837KMSN MSN20020220070013002/20/02 07:00:31  5-MIN KMSN 201300Z 00000KT 1/4SM -RA FG BKN001 OVC007 06/06 A2938 1360 100 600 000/00 RMK AO2 SFC VIS 1/2 P0001
14837KMSN MSN20020220070513002/20/02 07:05:31  5-MIN KMSN 201305Z 00000KT 1/4SM -RA FG BKN001 OVC007 06/06 A2939 1360 100 600 000/00 RMK AO2 SFC VIS 1/2 P0001
14837KMSN MSN20020220071013002/20/02 07:10:31  5-MIN KMSN 201310Z 00000KT 1/4SM -RA FG BKN001 OVC007 06/06 A2939 1360 100 600 000/00 RMK AO2 SFC VIS 1/2 P0002
14837KMSN MSN20020220071512302/20/02 07:15:31  5-MIN KMSN 201315Z 00000KT 1/4SM -RA FG OVC001 06/06 A2939 1360 100 600 000/00 RMK AO2 SFC VIS 1/2 P0002
14837KMSN MSN20020220072013002/20/02 07:20:31  5-MIN KMSN 201320Z 00000KT 1/4SM -RA BR BKN001 OVC008 06/06 A2939 1360 100 600 000/00 RMK AO2 SFC VIS 3/4 P0003
14837KMSN MSN20020220072513002/20/02 07:25:31  5-MIN KMSN 201325Z 00000KT 1/4SM -RA FG BKN001 OVC008 06/06 A2939 1360 100 600 000/00 RMK AO2 SFC VIS 1/2 P0004
14837KMSN MSN20020220073012402/20/02 07:30:31  5-MIN KMSN 201330Z 00000KT 1/2SM RA FG BKN001 BKN008 OVC021 06/06 A2938 1360 100 600 000/00 RMK AO2 P0006
14837KMSN MSN20020220073512502/20/02 07:35:31  5-MIN KMSN 201335Z 00000KT 1/2SM -RA FG SCT001 BKN008 OVC021 06/06 A2938 1370 100 600 000/00 RMK AO2 P0007
14837KMSN MSN20020220074012502/20/02 07:40:31  5-MIN KMSN 201340Z 01004KT 1/2SM -RA FG FEW001 SCT007 OVC021 06/06 A2938 1370 100 600 360/04 RMK AO2 P0008
14837KMSN MSN20020220074512502/20/02 07:45:31  5-MIN KMSN 201345Z 36005KT 1/2SM -RA FG FEW001 BKN023 OVC029 06/06 A2938 1370 100 600 360/05 RMK AO2 P0009
14837KMSN MSN20020220075015202/20/02 07:50:31  5-MIN KMSN 201350Z 33003KT 1/2SM -RA BR FEW006 BKN023 OVC034 06/06 A2938 1370 100 600 330/03 RMK AO2 SFC VIS 1 SLP952 P0009 T00560056
14837KMSN MSN20020220075513202/20/02 07:55:31  5-MIN KMSN 201355Z 35003KT 1/2SM -RA BR SCT002 OVC023 06/06 A2938 1370 100 600 350/03 RMK AO2 SFC VIS 1 1/4 P0000
14837KMSN MSN20020220080013902/20/02 08:00:31  5-MIN KMSN 201400Z 01004KT 1/2SM -RA BR SCT002 BKN009 OVC024 06/06 A2937 1370 100 600 360/04 RMK AO2 SFC VIS 1 1/2 P0001
14837KMSN MSN20020220080513902/20/02 08:05:31  5-MIN KMSN 201405Z 01004KT 1/2SM -RA BR SCT002 BKN009 OVC033 06/06 A2937 1370 100 600 010/04 RMK AO2 SFC VIS 1 1/4 P0002
14837KMSN MSN20020220081013902/20/02 08:10:31  5-MIN KMSN 201410Z 01004KT 1/2SM -RA BR BKN002 BKN009 OVC033 06/06 A2937 1370 100 600 360/04 RMK AO2 SFC VIS 1 1/2 P0003
14837KMSN MSN20020220081513802/20/02 08:15:31  5-MIN KMSN 201415Z 32005KT 1/2SM RA BR BKN002 BKN009 OVC024 06/06 A2937 1380 100 600 310/05 RMK AO2 SFC VIS 1 1/2 P0005
14837KMSN MSN20020220082013102/20/02 08:20:31  5-MIN KMSN 201420Z 32004KT 1/2SM RA BR BKN002 OVC009 06/06 A2937 1380 100 600 320/04 RMK AO2 SFC VIS 1 1/2 P0005
14837KMSN MSN20020220082513102/20/02 08:25:31  5-MIN KMSN 201425Z 35005KT 1/2SM RA BR BKN002 OVC009 06/06 A2937 1380 100 600 350/05 RMK AO2 SFC VIS 1 3/4 P0006
14837KMSN MSN20020220083013602/20/02 08:30:31  5-MIN KMSN 201430Z 33004KT 1/2SM RA BR OVC002 06/06 A2937 1380 100 600 330/04 RMK AO2 SFC VIS 1 3/4 CIG 001V005 P0007
14837KMSN MSN20020220083513402/20/02 08:35:31  5-MIN KMSN 201435Z 34006KT 1 1/2SM RA BR OVC002 06/06 A2937 1380 100 600 340/06 RMK AO2 SFC VIS 2 CIG 001V005 P0008
14837KMSN MSN20020220084013402/20/02 08:40:31  5-MIN KMSN 201440Z 33005KT 1 1/2SM RA BR OVC002 06/06 A2937 1380 100 600 330/05 RMK AO2 SFC VIS 2 CIG 001V005 P0009
14837KMSN MSN20020220084513402/20/02 08:45:31  5-MIN KMSN 201445Z 34005KT 1 1/2SM RA BR OVC002 06/06 A2937 1380 100 600 340/05 RMK AO2 SFC VIS 2 CIG 001V005 P0010
14837KMSN MSN20020220085016702/20/02 08:50:31  5-MIN KMSN 201450Z 34005KT 1 1/2SM RA BR OVC002 06/06 A2937 1380 100 600 340/05 RMK AO2 SFC VIS 2 1/2 CIG 001V005 SLP948 P0012 60026 T00560056 58023
14837KMSN MSN20020220085512602/20/02 08:55:31  5-MIN KMSN 201455Z 33006KT 1 1/2SM RA BR OVC002 06/06 A2936 1380 100 600 330/06 RMK AO2 SFC VIS 2 1/2 P0000
14837KMSN MSN20020220090012602/20/02 09:00:31  5-MIN KMSN 201500Z 33007KT 1 1/2SM RA BR OVC002 06/06 A2936 1380 100 600 330/07 RMK AO2 SFC VIS 2 1/2 P0000
14837KMSN MSN20020220090512602/20/02 09:05:31  5-MIN KMSN 201505Z 34009KT 1 1/2SM RA BR OVC002 05/05 A2936 1380 100 500 340/09 RMK AO2 SFC VIS 2 1/2 P0001
14837KMSN MSN20020220091012402/20/02 09:10:31  5-MIN KMSN 201510Z 34009KT 2 1/2SM RA BR OVC002 04/04 A2937 1380 100 500 340/09 RMK AO2 CIG 001V006 P0001
14837KMSN MSN20020220091512402/20/02 09:15:31  5-MIN KMSN 201515Z 33008KT 2 1/2SM RA BR OVC002 04/04 A2937 1380 100 500 330/08 RMK AO2 CIG 001V007 P0001
14837KMSN MSN20020220092012402/20/02 09:20:31  5-MIN KMSN 201520Z 33006KT 2 1/2SM RA BR OVC004 04/04 A2937 1380 100 500 330/06 RMK AO2 CIG 001V007 P0002
14837KMSN MSN20020220092512402/20/02 09:25:31  5-MIN KMSN 201525Z 32007KT 2 1/2SM RA BR OVC004 04/04 A2936 1380 100 500 320/07 RMK AO2 CIG 002V007 P0002
14837KMSN MSN20020220093012302/20/02 09:30:31  5-MIN KMSN 201530Z 32007KT 2 1/2SM RA BR OVC004 04/04 A2936 1380 96 500 320/07 RMK AO2 CIG 002V008 P0003
14837KMSN MSN20020220093513402/20/02 09:35:31  5-MIN KMSN 201535Z 32009KT 2 1/2SM RA BR OVC004 04/04 A2936 1380 100 400 320/09 RMK AO2 SFC VIS 3 CIG 003V009 P0003
14837KMSN MSN20020220094012002/20/02 09:40:31  5-MIN KMSN 201540Z 33009KT 3SM -RA BR OVC006 04/03 A2936 1380 96 400 330/09 RMK AO2 CIG 003V009 P0004
14837KMSN MSN20020220094512002/20/02 09:45:31  5-MIN KMSN 201545Z 33006KT 4SM -RA BR OVC006 04/03 A2936 1380 96 400 330/06 RMK AO2 CIG 003V009 P0004
14837KMSN MSN20020220095013702/20/02 09:50:31  5-MIN KMSN 201550Z 33008KT 4SM -RA BR OVC006 04/03 A2936 1380 96 400 330/08 RMK AO2 CIG 003V009 SLP949 P0006 T00390033
14837KMSN MSN20020220095512302/20/02 09:55:31  5-MIN KMSN 201555Z 33006KT 5SM -RA OVC006 04/03 A2936 1380 96 400 330/06 RMK AO2 RAB55 CIG 004V009 P0000
14837KMSN MSN20020220100012502/20/02 10:00:31  5-MIN KMSN 201600Z 33007KT 5SM -RA OVC006 04/03 A2936 1380 96 400 330/07 RMK AO2 RAB1555 CIG 004V009 P0001
14837KMSN MSN20020220100512502/20/02 10:05:31  5-MIN KMSN 201605Z 34008KT 5SM -RA OVC006 04/03 A2936 1380 96 400 330/08 RMK AO2 RAB1555 CIG 004V008 P0001
14837KMSN MSN20020220101012502/20/02 10:10:31  5-MIN KMSN 201610Z 32007KT 3SM -RA OVC006 04/03 A2936 1380 96 400 320/07 RMK AO2 RAB1555 CIG 004V009 P0002
14837KMSN MSN20020220101511302/20/02 10:15:31  5-MIN KMSN 201615Z 33009KT 3SM -RA OVC006 04/03 A2936 1380 96 400 330/09 RMK AO2 RAB1555 P0002
14837KMSN MSN20020220102012502/20/02 10:20:31  5-MIN KMSN 201620Z 33008KT 3SM -RA OVC006 04/03 A2936 1390 92 400 330/08 RMK AO2 RAB1555 CIG 004V010 P0003
14837KMSN MSN20020220102513202/20/02 10:25:31  5-MIN KMSN 201625Z 32008KT 3SM -RA BKN006 OVC025 04/03 A2936 1390 96 400 320/08 RMK AO2 RAB1555 CIG 004V010 P0004
14837KMSN MSN20020220103012002/20/02 10:30:31  5-MIN KMSN 201630Z 33008KT 3SM -RA BKN006 OVC010 04/03 A2936 1390 96 400 330/08 RMK AO2 RAB1555 P0005
14837KMSN MSN20020220103512502/20/02 10:35:31  5-MIN KMSN 201635Z 32008KT 4SM -RA OVC006 04/03 A2936 1390 96 400 320/08 RMK AO2 RAB1555 CIG 004V012 P0005
14837KMSN MSN20020220104012502/20/02 10:40:31  5-MIN KMSN 201640Z 33008KT 4SM -RA OVC006 04/03 A2936 1390 92 400 320/08 RMK AO2 RAB1555 CIG 004V012 P0006
14837KMSN MSN20020220104512502/20/02 10:45:31  5-MIN KMSN 201645Z 33009KT 4SM -RA OVC006 04/03 A2936 1390 96 400 330/09 RMK AO2 RAB1555 CIG 004V012 P0006
14837KMSN MSN20020220105014202/20/02 10:50:31  5-MIN KMSN 201650Z 33008KT 4SM -RA OVC006 04/03 A2936 1390 96 400 320/08 RMK AO2 RAB1555 CIG 005V012 SLP946 P0007 T00390033
14837KMSN MSN20020220105510502/20/02 10:55:31  5-MIN KMSN 201655Z 33009KT 4SM -RA OVC006 04/03 A2936 1390 96 400 320/09 RMK AO2 P0000
14837KMSN MSN20020220110011102/20/02 11:00:31  5-MIN KMSN 201700Z 33008G15KT 4SM -RA OVC006 04/03 A2936 1390 96 400 330/08G15 RMK AO2 P0000
14837KMSN MSN20020220110511102/20/02 11:05:31  5-MIN KMSN 201705Z 32009G15KT 5SM -RA OVC006 04/03 A2936 1390 96 400 320/09G15 RMK AO2 P0001
14837KMSN MSN20020220111010502/20/02 11:10:31  5-MIN KMSN 201710Z 32009KT 5SM -RA OVC006 04/03 A2936 1390 96 400 320/09 RMK AO2 P0001
14837KMSN MSN20020220111510502/20/02 11:15:31  5-MIN KMSN 201715Z 32010KT 5SM -RA OVC006 04/03 A2936 1390 96 400 320/10 RMK AO2 P0002
14837KMSN MSN20020220112010502/20/02 11:20:31  5-MIN KMSN 201720Z 33008KT 6SM -RA OVC006 04/03 A2936 1390 96 400 330/08 RMK AO2 P0002
14837KMSN MSN20020220112510502/20/02 11:25:31  5-MIN KMSN 201725Z 32008KT 6SM -RA OVC006 04/03 A2936 1390 96 400 320/08 RMK AO2 P0002
14837KMSN MSN20020220113010502/20/02 11:30:31  5-MIN KMSN 201730Z 32007KT 7SM -RA OVC006 04/03 A2936 1390 96 400 320/07 RMK AO2 P0002
14837KMSN MSN20020220113510502/20/02 11:35:31  5-MIN KMSN 201735Z 33009KT 7SM -RA OVC006 04/03 A2935 1390 96 400 320/09 RMK AO2 P0002
14837KMSN MSN20020220114011702/20/02 11:40:31  5-MIN KMSN 201740Z 31008KT 7SM -RA OVC006 04/03 A2935 1390 96 400 310/08 RMK AO2 CIG 005V009 P0002
14837KMSN MSN20020220114511702/20/02 11:45:31  5-MIN KMSN 201745Z 32009KT 7SM -RA OVC006 04/03 A2935 1390 96 400 320/09 RMK AO2 CIG 005V009 P0003
14837KMSN MSN20020220115015802/20/02 11:50:31  5-MIN KMSN 201750Z 32008KT 7SM -RA OVC006 04/03 A2935 1390 96 400 320/08 RMK AO2 CIG 005V009 SLP945 P0003 60038 T00390033 10061 20039 56012
14837KMSN MSN20020220115511702/20/02 11:55:31  5-MIN KMSN 201755Z 32010KT 7SM -RA OVC006 04/03 A2935 1390 96 400 320/10 RMK AO2 CIG 005V009 P0000
14837KMSN MSN20020220120011702/20/02 12:00:31  5-MIN KMSN 201800Z 32008KT 6SM -RA OVC006 04/03 A2935 1390 96 400 320/08 RMK AO2 CIG 005V009 P0001
14837KMSN MSN20020220120510502/20/02 12:05:31  5-MIN KMSN 201805Z 32008KT 6SM -RA OVC006 04/03 A2935 1390 96 400 320/08 RMK AO2 P0001
14837KMSN MSN20020220121010502/20/02 12:10:31  5-MIN KMSN 201810Z 32010KT 6SM -RA OVC006 04/03 A2935 1400 92 400 320/10 RMK AO2 P0001
14837KMSN MSN20020220121510502/20/02 12:15:31  5-MIN KMSN 201815Z 32008KT 6SM -RA OVC006 04/03 A2935 1390 92 400 320/08 RMK AO2 P0002
14837KMSN MSN20020220122010502/20/02 12:20:31  5-MIN KMSN 201820Z 32009KT 6SM -RA OVC006 04/03 A2935 1390 96 400 320/09 RMK AO2 P0002
14837KMSN MSN20020220122511702/20/02 12:25:31  5-MIN KMSN 201825Z 33010KT 6SM -RA OVC006 04/03 A2935 1390 96 400 330/10 RMK AO2 CIG 005V010 P0002
14837KMSN MSN20020220123011702/20/02 12:30:31  5-MIN KMSN 201830Z 32008KT 6SM -RA OVC006 04/03 A2935 1390 96 400 320/08 RMK AO2 CIG 005V010 P0003
14837KMSN MSN20020220123510502/20/02 12:35:31  5-MIN KMSN 201835Z 32008KT 5SM -RA OVC006 04/03 A2935 1390 96 400 320/08 RMK AO2 P0003
14837KMSN MSN20020220124011702/20/02 12:40:31  5-MIN KMSN 201840Z 31010KT 5SM -RA OVC006 04/03 A2935 1390 92 400 310/10 RMK AO2 CIG 005V009 P0003
14837KMSN MSN20020220124511702/20/02 12:45:31  5-MIN KMSN 201845Z 31007KT 6SM -RA OVC006 04/03 A2935 1390 92 400 310/07 RMK AO2 CIG 005V009 P0004
14837KMSN MSN20020220125013402/20/02 12:50:31  5-MIN KMSN 201850Z 31007KT 7SM -RA OVC006 04/03 A2935 1390 92 400 310/07 RMK AO2 CIG 006V012 SLP944 P0004 T00390028
14837KMSN MSN20020220125511702/20/02 12:55:31  5-MIN KMSN 201855Z 31007KT 7SM -RA OVC006 04/03 A2935 1390 92 400 310/07 RMK AO2 CIG 006V012 P0000
14837KMSN MSN20020220130011702/20/02 13:00:31  5-MIN KMSN 201900Z 31008KT 7SM -RA OVC008 04/03 A2935 1390 92 400 310/08 RMK AO2 CIG 006V012 P0001
14837KMSN MSN20020220130511702/20/02 13:05:31  5-MIN KMSN 201905Z 32008KT 8SM -RA OVC008 04/03 A2935 1390 92 400 320/08 RMK AO2 CIG 006V012 P0001
14837KMSN MSN20020220131011702/20/02 13:10:31  5-MIN KMSN 201910Z 31009KT 8SM -RA OVC008 04/03 A2935 1390 92 400 310/09 RMK AO2 CIG 006V012 P0001
14837KMSN MSN20020220131510502/20/02 13:15:31  5-MIN KMSN 201915Z 31009KT 8SM -RA OVC008 04/03 A2935 1390 92 400 310/09 RMK AO2 P0002
14837KMSN MSN20020220132010502/20/02 13:20:31  5-MIN KMSN 201920Z 31008KT 7SM -RA OVC008 04/03 A2936 1390 92 400 310/08 RMK AO2 P0002
14837KMSN MSN20020220132510502/20/02 13:25:31  5-MIN KMSN 201925Z 30008KT 7SM -RA OVC008 04/03 A2936 1390 92 400 300/08 RMK AO2 P0002
14837KMSN MSN20020220133011702/20/02 13:30:31  5-MIN KMSN 201930Z 30007KT 6SM -RA OVC008 03/03 A2936 1390 96 300 300/07 RMK AO2 CIG 006V012 P0003
14837KMSN MSN20020220133512302/20/02 13:35:31  5-MIN KMSN 201935Z 31009G15KT 6SM -RA OVC008 03/02 A2936 1380 92 300 310/09G15 RMK AO2 CIG 006V012 P0004
14837KMSN MSN20020220134012302/20/02 13:40:31  5-MIN KMSN 201940Z 30010G15KT 6SM -RA OVC008 03/02 A2937 1380 92 300 300/10G15 RMK AO2 CIG 006V010 P0004
14837KMSN MSN20020220134511702/20/02 13:45:31  5-MIN KMSN 201945Z 31009KT 6SM -RA OVC008 03/02 A2937 1380 92 300 310/09 RMK AO2 CIG 006V012 P0004
14837KMSN MSN20020220135013402/20/02 13:50:31  5-MIN KMSN 201950Z 31010KT 6SM -RA OVC008 03/02 A2937 1380 92 300 310/10 RMK AO2 CIG 006V012 SLP950 P0005 T00280017
14837KMSN MSN20020220135511702/20/02 13:55:31  5-MIN KMSN 201955Z 30009KT 7SM -RA OVC008 02/02 A2937 1380 96 200 300/09 RMK AO2 CIG 006V011 P0000
14837KMSN MSN20020220140011702/20/02 14:00:31  5-MIN KMSN 202000Z 30010KT 6SM -RA OVC008 02/01 A2937 1380 92 200 300/10 RMK AO2 CIG 006V011 P0001
14837KMSN MSN20020220140512502/20/02 14:05:31  5-MIN KMSN 202005Z 29008KT 6SM -RASN OVC008 02/01 A2937 1370 96 100 290/08 RMK AO2 SNB02 CIG 004V011 P0001
14837KMSN MSN20020220141013502/20/02 14:10:31  5-MIN KMSN 202010Z 29009KT 3SM -SN BKN006 OVC011 02/01 A2938 1370 92 100 290/09 RMK AO2 RAE07SNB02 CIG 004V009 P0002
14837KMSN MSN20020220141512802/20/02 14:15:31  5-MIN KMSN 202015Z 30008KT 2SM -SN OVC006 01/01 A2938 1370 96 100 300/08 RMK AO2 RAE07SNB02 CIG 004V009 P0002
14837KMSN MSN20020220142013502/20/02 14:20:31  5-MIN KMSN 202020Z 30008KT 1 1/2SM -SN BKN006 OVC010 01/01 A2938 1370 96 0 300/08 RMK AO2 TWR VIS 2 RAE07SNB02 P0003
14837KMSN MSN20020220142513202/20/02 14:25:31  5-MIN KMSN 202025Z 29008KT 1 1/4SM -SN OVC006 01/00 A2938 1360 96 0 290/08 RMK AO2 TWR VIS 1 1/2 RAE07SNB02 P0003
14837KMSN MSN20020220143011402/20/02 14:30:31  5-MIN KMSN 202030Z 29008KT 1SM -SN OVC006 01/00 A2939 1360 96 0 290/08 RMK AO2 RAE07SNB02 P0004
14837KMSN MSN20020220143513502/20/02 14:35:31  5-MIN KMSN 202035Z 29007KT 1SM -SN BKN006 OVC015 01/00 A2939 1360 96 0 290/07 RMK AO2 SFC VIS 1 1/2 RAE07SNB02 P0004
14837KMSN MSN20020220144013502/20/02 14:40:31  5-MIN KMSN 202040Z 29006KT 1SM -SN BKN004 OVC015 01/00 A2939 1360 96 0 290/06 RMK AO2 SFC VIS 1 1/2 RAE07SNB02 P0005
14837KMSN MSN20020220144513802/20/02 14:45:31  5-MIN KMSN 202045Z 29007KT 1SM -SN BKN004 BKN011 OVC015 01/00 A2939 1350 96 0 290/07 RMK AO2 SFC VIS 2 RAE07SNB02 P0005
14837KMSN MSN20020220145016102/20/02 14:50:31  5-MIN KMSN 202050Z 29008KT 2 1/2SM -SN BKN004 BKN016 OVC026 01/00 A2940 1350 96 0 290/08 RMK AO2 RAE07SNB02 SLP961 P0006 60015 T00060000 58004
14837KMSN MSN20020220145512102/20/02 14:55:31  5-MIN KMSN 202055Z 29008KT 2 1/2SM -SN SCT006 BKN016 OVC026 01/01 A2940 1350 96 0 290/08 RMK AO2 P0000
14837KMSN MSN20020220150013702/20/02 15:00:31  5-MIN KMSN 202100Z 29010G15KT 2 1/2SM -RASN SCT006 BKN016 OVC028 01/01 A2940 1350 96 0 290/10G15 RMK AO2 RAB2059 P0000
14837KMSN MSN20020220150514002/20/02 15:05:31  5-MIN KMSN 202105Z 29009G15KT 2 1/2SM -RA FEW004 BKN016 OVC028 01/01 A2940 1350 96 0 280/09G15 RMK AO2 RAB2059SNE04 P0000
14837KMSN MSN20020220151013802/20/02 15:10:31  5-MIN KMSN 202110Z 29011KT 2 1/2SM -RASN BKN008 OVC028 02/01 A2940 1350 92 100 290/11 RMK AO2 RAB2059 CIG 004V012 P0000
14837KMSN MSN20020220151513402/20/02 15:15:31  5-MIN KMSN 202115Z 29009KT 2SM -RASN BKN006 OVC028 01/01 A2941 1340 96 0 290/09 RMK AO2 TWR VIS 2 1/2 RAB2059 P0000
14837KMSN MSN20020220152013402/20/02 15:20:31  5-MIN KMSN 202120Z 29008KT 2SM -RASN BKN008 OVC028 01/01 A2941 1340 96 0 290/08 RMK AO2 TWR VIS 2 1/2 RAB2059 P0001
14837KMSN MSN20020220152512402/20/02 15:25:31  5-MIN KMSN 202125Z 29009KT 2 1/2SM -RASN BKN008 OVC028 01/01 A2941 1340 96 0 290/09 RMK AO2 RAB2059 P0001
14837KMSN MSN20020220153012402/20/02 15:30:31  5-MIN KMSN 202130Z 30008KT 2 1/2SM -RASN BKN008 OVC030 01/01 A2941 1340 96 0 300/08 RMK AO2 RAB2059 P0001
14837KMSN MSN20020220153512602/20/02 15:35:31  5-MIN KMSN 202135Z 30007KT 2 1/2SM -RASN BKN008 OVC030 02/01 A2941 1340 92 100 300/07 RMK AO2 RAB2059 P0001
14837KMSN MSN20020220154012602/20/02 15:40:31  5-MIN KMSN 202140Z 30009KT 2 1/2SM -RASN BKN008 OVC032 02/01 A2942 1330 92 100 300/09 RMK AO2 RAB2059 P0001
14837KMSN MSN20020220154512402/20/02 15:45:31  5-MIN KMSN 202145Z 30010KT 2 1/2SM -RASN BKN008 OVC032 01/01 A2942 1330 96 0 300/10 RMK AO2 RAB2059 P0001
14837KMSN MSN20020220155014102/20/02 15:50:31  5-MIN KMSN 202150Z 31008KT 2 1/2SM -RASN BKN008 OVC032 01/01 A2942 1330 96 0 310/08 RMK AO2 RAB2059 SLP970 P0003 T00110006
14837KMSN MSN20020220155511602/20/02 15:55:31  5-MIN KMSN 202155Z 30010KT 2 1/2SM -RASN BKN008 OVC032 01/01 A2943 1320 96 0 300/10 RMK AO2 P0000
14837KMSN MSN20020220160012202/20/02 16:00:31  5-MIN KMSN 202200Z 30008G16KT 2 1/2SM -RASN BKN008 OVC032 01/01 A2943 1320 96 0 300/08G16 RMK AO2 P0000
14837KMSN MSN20020220160512202/20/02 16:05:31  5-MIN KMSN 202205Z 30009G16KT 2 1/2SM -RASN BKN008 OVC032 01/01 A2943 1320 96 0 300/09G16 RMK AO2 P0000
14837KMSN MSN20020220161011602/20/02 16:10:31  5-MIN KMSN 202210Z 30009KT 2 1/2SM -RASN BKN008 OVC034 01/01 A2943 1320 96 0 300/09 RMK AO2 P0000
14837KMSN MSN20020220161511602/20/02 16:15:31  5-MIN KMSN 202215Z 30009KT 2 1/2SM -RASN BKN008 OVC012 01/01 A2944 1310 96 0 300/09 RMK AO2 P0000
14837KMSN MSN20020220162011902/20/02 16:20:31  5-MIN KMSN 202220Z 30008KT 2SM -RASN OVC008 01/01 A2944 1310 96 0 300/08 RMK AO2 TWR VIS 2 1/2 P0001
14837KMSN MSN20020220162512302/20/02 16:25:31  5-MIN KMSN 202225Z 30008KT 1 1/2SM -RASN OVC008 01/00 A2945 1310 92 0 300/08 RMK AO2 SFC VIS 1 3/4 P0001
14837KMSN MSN20020220163012902/20/02 16:30:31  5-MIN KMSN 202230Z 30006G14KT 1 1/2SM -RASN OVC008 01/00 A2945 1300 92 0 300/06G14 RMK AO2 SFC VIS 1 3/4 P0001
14837KMSN MSN20020220163512902/20/02 16:35:31  5-MIN KMSN 202235Z 30008G14KT 1 1/2SM -RASN OVC008 01/00 A2945 1300 92 0 300/08G14 RMK AO2 SFC VIS 1 3/4 P0002
14837KMSN MSN20020220164012302/20/02 16:40:31  5-MIN KMSN 202240Z 30008KT 1 1/2SM -RASN OVC008 01/00 A2945 1300 92 0 300/08 RMK AO2 SFC VIS 2 1/2 P0002
14837KMSN MSN20020220164510902/20/02 16:45:31  5-MIN KMSN 202245Z 30008KT 2 1/2SM -RASN OVC008 01/00 A2946 1300 92 0 300/08 RMK AO2 P0002
14837KMSN MSN20020220165014302/20/02 16:50:31  5-MIN KMSN 202250Z 30009KT 2SM -RASN BKN008 OVC028 01/00 A2946 1290 92 0 300/09 RMK AO2 TWR VIS 2 1/2 SLP982 P0002 T00110000
14837KMSN MSN20020220165512602/20/02 16:55:31  5-MIN KMSN 202255Z 30007KT 2 1/2SM -RASN BKN008 OVC012 01/00 A2946 1290 92 0 300/07 RMK AO2 SFC VIS 5 P0000
14837KMSN MSN20020220170012602/20/02 17:00:31  5-MIN KMSN 202300Z 30007KT 2SM -RASN BKN008 OVC012 01/00 A2946 1290 92 0 290/07 RMK AO2 TWR VIS 2 1/2 P0000
14837KMSN MSN20020220170514202/20/02 17:05:31  5-MIN KMSN 202305Z 30007KT 260V320 2SM -RASN BKN008 OVC012 01/00 A2947 1290 92 0 300/07 260V320 RMK AO2 TWR VIS 2 1/2 P0000
14837KMSN MSN20020220171013702/20/02 17:10:31  5-MIN KMSN 202310Z 30008KT 1 3/4SM -SN BKN008 OVC012 01/00 A2947 1280 96 -100 300/08 RMK AO2 TWR VIS 2 1/2 RAE07 P0001
14837KMSN MSN20020220171512602/20/02 17:15:31  5-MIN KMSN 202315Z 30007KT 1 1/2SM -SN OVC006 01/00 A2947 1280 96 -100 300/07 RMK AO2 TWR VIS 2 RAE07 P0001
14837KMSN MSN20020220172011602/20/02 17:20:31  5-MIN KMSN 202320Z 30007KT 1 1/2SM -SN OVC006 01/00 A2948 1280 96 -100 300/07 RMK AO2 RAE07 P0001
14837KMSN MSN20020220172511202/20/02 17:25:31  5-MIN KMSN 202325Z 31007KT 1SM -SN OVC006 01/00 A2948 1280 96 -100 300/07 RMK AO2 RAE07 P0001
14837KMSN MSN20020220173011202/20/02 17:30:31  5-MIN KMSN 202330Z 30007KT 1SM -SN OVC006 01/00 A2948 1270 96 -100 300/07 RMK AO2 RAE07 P0002
14837KMSN MSN20020220173511202/20/02 17:35:31  5-MIN KMSN 202335Z 30006KT 1SM -SN OVC006 01/00 A2949 1270 96 -100 300/06 RMK AO2 RAE07 P0002
14837KMSN MSN20020220174011202/20/02 17:40:31  5-MIN KMSN 202340Z 30007KT 1SM -SN OVC006 01/00 A2949 1270 96 -100 300/07 RMK AO2 RAE07 P0002
14837KMSN MSN20020220174512402/20/02 17:45:31  5-MIN KMSN 202345Z 30007KT 3/4SM -SN OVC006 01/00 A2949 1260 96 -100 300/07 RMK AO2 SFC VIS 1 RAE07 P0002
14837KMSN MSN20020220175016502/20/02 17:50:31  5-MIN KMSN 202350Z 31006KT 3/4SM -SN OVC006 01/00 A2949 1260 96 -100 300/06 RMK AO2 SFC VIS 1 RAE07 SLP994 P0002 60023 T00060000 10039 20006 53015
14837KMSN MSN20020220175511802/20/02 17:55:31  5-MIN KMSN 202355Z 30007KT 3/4SM -SN OVC006 01/00 A2950 1260 96 -100 290/07 RMK AO2 SFC VIS 1 P0000
14837KMSN MSN20020220180014102/20/02 18:00:31  5-MIN KMSN 210000Z 30007KT 270V330 3/4SM -SN BKN006 OVC011 01/00 A2950 1250 96 -100 300/07 270V330 RMK AO2 SFC VIS 1 P0001
14837KMSN MSN20020220180512502/20/02 18:05:31  5-MIN KMSN 210005Z 30006KT 3/4SM -SN BKN006 OVC011 01/00 A2951 1250 96 -100 300/06 RMK AO2 SFC VIS 1 P0001
14837KMSN MSN20020220181011802/20/02 18:10:31  5-MIN KMSN 210010Z 31007KT 3/4SM -SN OVC006 01/00 A2951 1250 96 -100 310/07 RMK AO2 SFC VIS 1 P0001
14837KMSN MSN20020220181511802/20/02 18:15:31  5-MIN KMSN 210015Z 30008KT 3/4SM -SN OVC006 01/00 A2951 1250 96 -100 300/08 RMK AO2 SFC VIS 1 P0001
14837KMSN MSN20020220182011802/20/02 18:20:31  5-MIN KMSN 210020Z 30007KT 3/4SM -SN OVC006 01/00 A2951 1240 96 -100 300/07 RMK AO2 SFC VIS 1 P0002
14837KMSN MSN20020220182511802/20/02 18:25:31  5-MIN KMSN 210025Z 30006KT 3/4SM -SN OVC006 01/00 A2951 1240 96 -100 300/06 RMK AO2 SFC VIS 1 P0002
14837KMSN MSN20020220183013002/20/02 18:30:31  5-MIN KMSN 210030Z 30008KT 3/4SM -SN OVC006 01/00 A2951 1240 96 -100 300/08 RMK AO2 SFC VIS 1 CIG 003V009 P0002
14837KMSN MSN20020220183513002/20/02 18:35:31  5-MIN KMSN 210035Z 30007KT 3/4SM -SN OVC006 01/00 A2952 1240 96 -100 290/07 RMK AO2 SFC VIS 1 CIG 003V009 P0002
14837KMSN MSN20020220184013002/20/02 18:40:31  5-MIN KMSN 210040Z 30006KT 3/4SM -SN OVC006 01/00 A2952 1240 96 -100 300/06 RMK AO2 SFC VIS 1 CIG 003V008 P0003
14837KMSN MSN20020220184511802/20/02 18:45:31  5-MIN KMSN 210045Z 29006KT 3/4SM -SN OVC006 01/00 A2952 1240 96 -100 290/06 RMK AO2 SFC VIS 1 P0003
14837KMSN MSN20020220185013702/20/02 18:50:31  5-MIN KMSN 210050Z 30008KT 1SM -SN OVC006 01/00 A2952 1230 96 -100 300/08 RMK AO2 TWR VIS 1 1/2 SLP004 P0004 T00060000
14837KMSN MSN20020220185511702/20/02 18:55:31  5-MIN KMSN 210055Z 30007KT 1 1/2SM -SN BKN006 OVC012 01/00 A2953 1230 96 -100 300/07 RMK AO2 P0000
14837KMSN MSN20020220190011702/20/02 19:00:31  5-MIN KMSN 210100Z 30008KT 1 1/2SM -SN BKN006 OVC012 01/00 A2953 1230 96 -100 300/08 RMK AO2 P0000
14837KMSN MSN20020220190511002/20/02 19:05:31  5-MIN KMSN 210105Z 30006KT 1 1/2SM -SN OVC006 01/00 A2953 1230 96 -100 300/06 RMK AO2 P0000
14837KMSN MSN20020220191011002/20/02 19:10:31  5-MIN KMSN 210110Z 30006KT 1 1/2SM -SN OVC006 01/00 A2953 1220 96 -100 290/06 RMK AO2 P0000
14837KMSN MSN20020220191510602/20/02 19:15:31  5-MIN KMSN 210115Z 30007KT 2SM -SN OVC006 01/00 A2953 1220 96 -100 300/07 RMK AO2 P0000
14837KMSN MSN20020220192010602/20/02 19:20:31  5-MIN KMSN 210120Z 30007KT 2SM -SN OVC006 01/00 A2954 1220 96 -200 300/07 RMK AO2 P0000
14837KMSN MSN20020220192510602/20/02 19:25:31  5-MIN KMSN 210125Z 30006KT 2SM -SN OVC006 01/00 A2954 1220 96 -200 300/06 RMK AO2 P0001
14837KMSN MSN20020220193010602/20/02 19:30:31  5-MIN KMSN 210130Z 30006KT 2SM -SN OVC006 01/00 A2954 1220 96 -200 300/06 RMK AO2 P0001
14837KMSN MSN20020220193511002/20/02 19:35:31  5-MIN KMSN 210135Z 29007KT 2 1/2SM -SN OVC006 01/00 A2954 1220 96 -200 290/07 RMK AO2 P0001
14837KMSN MSN20020220194010602/20/02 19:40:31  5-MIN KMSN 210140Z 30007KT 3SM -SN OVC006 01/00 A2954 1210 96 -200 300/07 RMK AO2 P0002
14837KMSN MSN20020220194510602/20/02 19:45:31  5-MIN KMSN 210145Z 29006KT 3SM -SN OVC006 01/00 A2955 1210 96 -200 290/06 RMK AO2 P0002
14837KMSN MSN20020220195013002/20/02 19:50:31  5-MIN KMSN 210150Z 30007KT 3SM -SN BKN006 OVC016 01/00 A2955 1210 96 -200 290/07 RMK AO2 SLP013 P0002 T00060000
14837KMSN MSN20020220195512002/20/02 19:55:31  5-MIN KMSN 210155Z 30008KT 3SM -SN BKN006 BKN014 OVC029 01/00 A2955 1210 96 -200 300/08 RMK AO2 P0000
14837KMSN MSN20020220200012002/20/02 20:00:31  5-MIN KMSN 210200Z 30006KT 3SM -SN BKN006 BKN014 OVC029 01/00 A2955 1210 96 -200 300/06 RMK AO2 P0000
14837KMSN MSN20020220200512002/20/02 20:05:31  5-MIN KMSN 210205Z 30007KT 3SM -SN SCT006 BKN011 OVC017 01/00 A2955 1210 96 -200 290/07 RMK AO2 P0000
14837KMSN MSN20020220201012002/20/02 20:10:31  5-MIN KMSN 210210Z 30008KT 3SM -SN SCT006 BKN013 OVC019 01/00 A2956 1200 96 -200 300/08 RMK AO2 P0000
14837KMSN MSN20020220201512002/20/02 20:15:31  5-MIN KMSN 210215Z 30008KT 3SM -SN SCT006 BKN013 OVC029 01/00 A2956 1200 96 -200 300/08 RMK AO2 P0000
14837KMSN MSN20020220202012002/20/02 20:20:31  5-MIN KMSN 210220Z 30008KT 3SM -SN SCT008 BKN013 OVC020 01/00 A2956 1200 96 -200 300/08 RMK AO2 P0000
14837KMSN MSN20020220202512002/20/02 20:25:31  5-MIN KMSN 210225Z 30008KT 3SM -SN SCT008 BKN013 OVC020 01/00 A2956 1200 96 -200 300/08 RMK AO2 P0000
14837KMSN MSN20020220203012002/20/02 20:30:31  5-MIN KMSN 210230Z 30008KT 3SM -SN FEW008 BKN013 OVC020 01/00 A2956 1200 96 -200 300/08 RMK AO2 P0000
14837KMSN MSN20020220203512002/20/02 20:35:31  5-MIN KMSN 210235Z 31008KT 3SM -SN FEW008 SCT012 OVC020 01/00 A2956 1200 96 -200 300/08 RMK AO2 P0000
14837KMSN MSN20020220204012402/20/02 20:40:31  5-MIN KMSN 210240Z 30008KT 3SM -SN BR FEW008 BKN014 OVC020 01/M01 A2957 1190 92 -200 300/08 RMK AO2 P0000
14837KMSN MSN20020220204512402/20/02 20:45:31  5-MIN KMSN 210245Z 31008KT 3SM -SN BR FEW008 BKN014 OVC020 01/M01 A2957 1190 92 -200 310/08 RMK AO2 P0000
14837KMSN MSN20020220205014602/20/02 20:50:31  5-MIN KMSN 210250Z 31007KT 4SM -SN BR BKN014 OVC020 01/M01 A2957 1190 92 -200 310/07 RMK AO2 SLP020 P0000 60006 T00061006 53033
14837KMSN MSN20020220205511702/20/02 20:55:31  5-MIN KMSN 210255Z 31008KT 9SM -SN BR BKN014 OVC020 01/M01 A2957 1190 92 -200 310/08 RMK AO2 P0000
14837KMSN MSN20020220210012402/20/02 21:00:31  5-MIN KMSN 210300Z 32008KT 4SM -SN BR BKN014 BKN021 OVC048 01/M01 A2957 1190 92 -200 310/08 RMK AO2 P0000
14837KMSN MSN20020220210512402/20/02 21:05:31  5-MIN KMSN 210305Z 31008KT 4SM -SN BR BKN014 BKN023 OVC048 01/M01 A2958 1180 92 -200 310/08 RMK AO2 P0000
14837KMSN MSN20020220211011702/20/02 21:10:31  5-MIN KMSN 210310Z 31008KT 4SM -SN BR BKN014 OVC023 01/M01 A2958 1180 92 -200 310/08 RMK AO2 P0000
14837KMSN MSN20020220211511702/20/02 21:15:31  5-MIN KMSN 210315Z 31008KT 4SM -SN BR BKN014 OVC023 01/M01 A2958 1180 92 -200 310/08 RMK AO2 P0000
14837KMSN MSN20020220212011602/20/02 21:20:31  5-MIN KMSN 210320Z 32008KT 7SM BKN014 OVC023 01/M01 A2958 1180 92 -200 320/08 RMK AO2 SNE16 P0000
14837KMSN MSN20020220212511602/20/02 21:25:31  5-MIN KMSN 210325Z 32009KT 7SM BKN014 OVC047 01/M01 A2958 1180 92 -200 320/09 RMK AO2 SNE16 P0000
14837KMSN MSN20020220213010902/20/02 21:30:31  5-MIN KMSN 210330Z 32009KT 7SM OVC014 01/M01 A2959 1170 92 -200 320/09 RMK AO2 SNE16 P0000
14837KMSN MSN20020220213510902/20/02 21:35:31  5-MIN KMSN 210335Z 31008KT 8SM OVC014 01/M01 A2959 1170 92 -200 310/08 RMK AO2 SNE16 P0000
14837KMSN MSN20020220214010902/20/02 21:40:31  5-MIN KMSN 210340Z 32008KT 8SM OVC012 01/M01 A2959 1170 92 -200 320/08 RMK AO2 SNE16 P0000
14837KMSN MSN20020220214510902/20/02 21:45:31  5-MIN KMSN 210345Z 33007KT 8SM OVC012 01/M01 A2959 1170 92 -200 320/07 RMK AO2 SNE16 P0000
14837KMSN MSN20020220215013402/20/02 21:50:31  5-MIN KMSN 210350Z 33009KT 10SM BKN012 OVC017 01/M01 A2960 1170 92 -200 320/09 RMK AO2 SNE16 SLP030 P0000 T00061006
14837KMSN MSN20020220215510502/20/02 21:55:31  5-MIN KMSN 210355Z 33009KT 10SM BKN012 OVC048 01/M01 A2960 1160 92 -200 330/09 RMK AO2
14837KMSN MSN20020220220010502/20/02 22:00:31  5-MIN KMSN 210400Z 33007KT 10SM BKN012 OVC048 01/M01 A2960 1160 92 -200 330/07 RMK AO2
14837KMSN MSN20020220220511202/20/02 22:05:31  5-MIN KMSN 210405Z 33008KT 10SM BKN012 BKN016 OVC048 01/M01 A2960 1160 92 -200 330/08 RMK AO2
14837KMSN MSN20020220221011202/20/02 22:10:31  5-MIN KMSN 210410Z 33008KT 10SM BKN012 BKN016 OVC048 01/M01 A2961 1160 89 -200 330/08 RMK AO2
14837KMSN MSN20020220221511202/20/02 22:15:31  5-MIN KMSN 210415Z 34009KT 10SM BKN012 BKN040 OVC048 01/M01 A2961 1150 89 -200 340/09 RMK AO2
14837KMSN MSN20020220222010502/20/02 22:20:31  5-MIN KMSN 210420Z 33009KT 10SM BKN014 OVC048 01/M01 A2961 1150 89 -200 330/09 RMK AO2
14837KMSN MSN20020220222509802/20/02 22:25:31  5-MIN KMSN 210425Z 34009KT 10SM OVC014 01/M01 A2961 1150 89 -200 340/09 RMK AO2
14837KMSN MSN20020220223011202/20/02 22:30:31  5-MIN KMSN 210430Z 33009KT 10SM BKN012 BKN017 OVC040 01/M01 A2962 1150 89 -200 330/09 RMK AO2
14837KMSN MSN20020220223509802/20/02 22:35:31  5-MIN KMSN 210435Z 33007KT 10SM OVC014 01/M01 A2962 1150 89 -200 330/07 RMK AO2
14837KMSN MSN20020220224010502/20/02 22:40:31  5-MIN KMSN 210440Z 34006KT 10SM BKN012 OVC017 01/M01 A2962 1140 89 -200 340/06 RMK AO2
14837KMSN MSN20020220224510502/20/02 22:45:31  5-MIN KMSN 210445Z 34008KT 10SM BKN012 OVC017 01/M01 A2962 1140 89 -300 330/08 RMK AO2
14837KMSN MSN20020220225012202/20/02 22:50:31  5-MIN KMSN 210450Z 33009KT 10SM BKN012 OVC049 01/M01 A2962 1140 89 -300 330/09 RMK AO2 SLP039 T00061011
14837KMSN MSN20020220225510502/20/02 22:55:31  5-MIN KMSN 210455Z 34009KT 10SM BKN012 OVC049 00/M01 A2963 1140 92 -300 330/09 RMK AO2
14837KMSN MSN20020220230011202/20/02 23:00:31  5-MIN KMSN 210500Z 34008KT 10SM BKN012 BKN016 OVC049 00/M01 A2963 1140 92 -300 340/08 RMK AO2
14837KMSN MSN20020220230511202/20/02 23:05:31  5-MIN KMSN 210505Z 34007KT 10SM SCT010 BKN014 OVC049 00/M01 A2963 1130 92 -300 340/07 RMK AO2
14837KMSN MSN20020220231010502/20/02 23:10:31  5-MIN KMSN 210510Z 33005KT 10SM BKN010 OVC049 00/M01 A2963 1130 92 -300 330/05 RMK AO2
14837KMSN MSN20020220231511102/20/02 23:15:31  5-MIN KMSN 210515Z 32006KT 8SM SCT010 BKN013 OVC049 00/M01 A2963 1130 92 -300 320/06 RMK AO2
14837KMSN MSN20020220232013902/20/02 23:20:31  5-MIN KMSN 210520Z 34009KT 7SM -SN BKN010 BKN018 OVC047 00/M01 A2964 1130 92 -300 340/09 RMK AO2 SNB20 CIG 007V015 P0000
14837KMSN MSN20020220232513002/20/02 23:25:31  5-MIN KMSN 210525Z 34008KT 6SM -SN BR SCT010 BKN017 OVC047 00/M01 A2964 1120 92 -300 340/08 RMK AO2 SNB20 P0000
14837KMSN MSN20020220233012702/20/02 23:30:31  5-MIN KMSN 210530Z 00000KT 7SM -SN SCT010 BKN017 OVC047 00/M01 A2964 1120 92 -300 000/00 RMK AO2 SNB20 P0000
14837KMSN MSN20020220233512702/20/02 23:35:31  5-MIN KMSN 210535Z 00000KT 7SM -SN SCT010 BKN013 OVC047 00/M01 A2964 1120 92 -300 000/00 RMK AO2 SNB20 P0000
14837KMSN MSN20020220234012702/20/02 23:40:31  5-MIN KMSN 210540Z 00000KT 7SM -SN SCT010 BKN017 OVC049 00/M02 A2964 1120 88 -300 000/00 RMK AO2 SNB20 P0000
14837KMSN MSN20020220234512702/20/02 23:45:31  5-MIN KMSN 210545Z 00000KT 8SM -SN SCT010 BKN017 OVC049 00/M01 A2965 1120 92 -400 000/00 RMK AO2 SNB20 P0000
14837KMSN MSN20020220235017702/20/02 23:50:31  5-MIN KMSN 210550Z 00000KT 8SM -SN BKN012 OVC049 00/M01 A2965 1120 92 -400 000/00 RMK AO2 SNB20 SLP048 P0000 60009 4/001 T00001011 10006 20000 400670000 51025
14837KMSN MSN20020220235511402/20/02 23:55:31  5-MIN KMSN 210555Z 00000KT 7SM -SN BKN012 OVC049 00/M01 A2965 1110 92 -400 000/00 RMK AO2 P0000
14837KMSN MSN20020221000012402/21/02 00:00:31  5-MIN KMSN 210600Z 00000KT 5SM -SN BR BKN012 BKN016 OVC049 00/M01 A2966 1110 92 -400 000/00 RMK AO2 P0000
14837KMSN MSN20020221000513602/21/02 00:05:31  5-MIN KMSN 210605Z 00000KT 5SM -SN BR BKN010 BKN014 OVC049 00/M01 A2966 1110 92 -400 000/00 RMK AO2 CIG 008V012 P0000
14837KMSN MSN20020221001012402/21/02 00:10:31  5-MIN KMSN 210610Z 00000KT 4SM -SN BR BKN010 BKN017 OVC065 00/M01 A2966 1110 92 -400 000/00 RMK AO2 P0000
14837KMSN MSN20020221001512402/21/02 00:15:31  5-MIN KMSN 210615Z 00000KT 4SM -SN BR BKN012 BKN017 OVC065 00/M02 A2966 1110 88 -400 000/00 RMK AO2 P0000
14837KMSN MSN20020221002012402/21/02 00:20:31  5-MIN KMSN 210620Z 00000KT 5SM -SN BR BKN012 BKN017 OVC065 00/M02 A2966 1100 88 -400 000/00 RMK AO2 P0000
14837KMSN MSN20020221002513602/21/02 00:25:31  5-MIN KMSN 210625Z 00000KT 5SM -SN BR BKN010 BKN017 OVC065 00/M01 A2966 1100 92 -400 000/00 RMK AO2 CIG 008V013 P0000
14837KMSN MSN20020221003011702/21/02 00:30:31  5-MIN KMSN 210630Z 00000KT 5SM -SN BR BKN012 OVC019 00/M01 A2967 1100 92 -400 000/00 RMK AO2 P0000
14837KMSN MSN20020221003512902/21/02 00:35:31  5-MIN KMSN 210635Z 00000KT 5SM -SN BR BKN010 OVC017 00/M02 A2967 1100 88 -400 000/00 RMK AO2 CIG 008V012 P0000
14837KMSN MSN20020221004012902/21/02 00:40:31  5-MIN KMSN 210640Z 00000KT 4SM -SN BR BKN010 OVC017 00/M02 A2967 1100 88 -400 000/00 RMK AO2 CIG 007V014 P0000
14837KMSN MSN20020221004511102/21/02 00:45:31  5-MIN KMSN 210645Z 00000KT 4SM -SN BR OVC010 M01/M02 A2967 1090 92 -400 000/00 RMK AO2 P0000
14837KMSN MSN20020221005013502/21/02 00:50:31  5-MIN KMSN 210650Z 00000KT 3SM -SN BR BKN010 OVC016 M01/M02 A2968 1090 92 -500 000/00 RMK AO2 SLP057 P0000 T10061017
14837KMSN MSN20020221005511802/21/02 00:55:31  5-MIN KMSN 210655Z 00000KT 3SM -SN BR BKN012 OVC018 M01/M02 A2968 1090 88 -500 000/00 RMK AO2 P0000
14837KMSN MSN20020221010012502/21/02 01:00:31  5-MIN KMSN 210700Z 00000KT 3SM -SN BR BKN012 BKN018 OVC023 M01/M02 A2968 1090 88 -500 000/00 RMK AO2 P0000
14837KMSN MSN20020221010512502/21/02 01:05:31  5-MIN KMSN 210705Z 00000KT 4SM -SN BR SCT012 BKN021 OVC031 M01/M02 A2968 1090 88 -500 000/00 RMK AO2 P0000
14837KMSN MSN20020221011012502/21/02 01:10:31  5-MIN KMSN 210710Z 00000KT 4SM -SN BR FEW012 BKN024 OVC033 M01/M03 A2969 1080 85 -500 000/00 RMK AO2 P0000
14837KMSN MSN20020221011512502/21/02 01:15:31  5-MIN KMSN 210715Z 00000KT 3SM -SN BR SCT015 BKN020 OVC033 M01/M03 A2969 1080 85 -500 000/00 RMK AO2 P0000
14837KMSN MSN20020221012012902/21/02 01:20:31  5-MIN KMSN 210720Z 00000KT 2 1/2SM -SN BR BKN015 BKN021 OVC033 M01/M03 A2969 1080 85 -500 000/00 RMK AO2 P0000
14837KMSN MSN20020221012512902/21/02 01:25:31  5-MIN KMSN 210725Z 00000KT 1 1/2SM -SN BR BKN015 BKN024 OVC033 M01/M02 A2969 1070 88 -500 000/00 RMK AO2 P0000
14837KMSN MSN20020221013012902/21/02 01:30:31  5-MIN KMSN 210730Z 00000KT 1 1/2SM -SN BR BKN015 BKN026 OVC033 M01/M02 A2970 1070 92 -500 000/00 RMK AO2 P0000
14837KMSN MSN20020221013512902/21/02 01:35:31  5-MIN KMSN 210735Z 00000KT 1 3/4SM -SN BR SCT015 BKN028 OVC033 M01/M02 A2970 1070 92 -600 000/00 RMK AO2 P0000
14837KMSN MSN20020221014012502/21/02 01:40:31  5-MIN KMSN 210740Z 00000KT 2SM -SN BR SCT015 BKN028 OVC035 M01/M03 A2970 1070 88 -600 000/00 RMK AO2 P0000
14837KMSN MSN20020221014512502/21/02 01:45:31  5-MIN KMSN 210745Z 00000KT 2SM -SN BR SCT015 BKN028 OVC035 M01/M03 A2970 1060 88 -600 000/00 RMK AO2 P0000
14837KMSN MSN20020221015014202/21/02 01:50:31  5-MIN KMSN 210750Z 00000KT 2SM -SN BR BKN015 BKN022 OVC035 M01/M03 A2971 1060 88 -600 000/00 RMK AO2 SLP067 P0002 T10111028
14837KMSN MSN20020221015512502/21/02 01:55:31  5-MIN KMSN 210755Z 00000KT 2SM -SN BR SCT015 BKN022 OVC035 M01/M03 A2971 1060 88 -600 000/00 RMK AO2 P0000
14837KMSN MSN20020221020012502/21/02 02:00:31  5-MIN KMSN 210800Z 00000KT 3SM -SN BR SCT014 BKN019 OVC035 M01/M03 A2971 1060 88 -600 000/00 RMK AO2 P0000
14837KMSN MSN20020221020512502/21/02 02:05:31  5-MIN KMSN 210805Z 00000KT 4SM -SN BR SCT013 BKN019 OVC035 M01/M03 A2971 1060 88 -600 000/00 RMK AO2 P0001
14837KMSN MSN20020221021012502/21/02 02:10:31  5-MIN KMSN 210810Z 00000KT 4SM -SN BR SCT013 BKN019 OVC027 M01/M03 A2971 1060 88 -600 000/00 RMK AO2 P0001
14837KMSN MSN20020221021512502/21/02 02:15:31  5-MIN KMSN 210815Z 00000KT 3SM -SN BR FEW013 BKN027 OVC050 M01/M03 A2972 1050 85 -600 000/00 RMK AO2 P0001
14837KMSN MSN20020221022012202/21/02 02:20:31  5-MIN KMSN 210820Z 00000KT 4SM -SN FEW013 BKN029 OVC050 M01/M04 A2972 1050 81 -600 000/00 RMK AO2 P0001
14837KMSN MSN20020221022512402/21/02 02:25:31  5-MIN KMSN 210825Z 00000KT 7SM FEW013 BKN029 OVC050 M01/M04 A2972 1050 81 -600 000/00 RMK AO2 SNE24 P0001
14837KMSN MSN20020221023012402/21/02 02:30:31  5-MIN KMSN 210830Z 00000KT 9SM FEW020 SCT029 OVC050 M01/M04 A2972 1050 81 -600 000/00 RMK AO2 SNE24 P0001
14837KMSN MSN20020221023511502/21/02 02:35:31  5-MIN KMSN 210835Z 00000KT 9SM -SN FEW029 OVC050 M01/M04 A2972 1050 81 -600 000/00 RMK AO2 P0000
14837KMSN MSN20020221024011502/21/02 02:40:31  5-MIN KMSN 210840Z 00000KT 7SM -SN FEW029 OVC048 M01/M04 A2972 1050 81 -600 000/00 RMK AO2 P0000
14837KMSN MSN20020221024511502/21/02 02:45:31  5-MIN KMSN 210845Z 00000KT 6SM -SN FEW029 OVC048 M01/M04 A2972 1050 81 -600 000/00 RMK AO2 P0000
14837KMSN MSN20020221025013702/21/02 02:50:31  5-MIN KMSN 210850Z 00000KT 6SM -SN OVC048 M01/M04 A2973 1050 81 -600 000/00 RMK AO2 SLP075 P0000 60002 T10111039 51026
14837KMSN MSN20020221025511502/21/02 02:55:31  5-MIN KMSN 210855Z 00000KT 7SM -SN FEW020 OVC046 M01/M04 A2973 1040 81 -600 000/00 RMK AO2 P0000
14837KMSN MSN20020221030012202/21/02 03:00:31  5-MIN KMSN 210900Z 00000KT 8SM -SN SCT017 BKN022 OVC046 M01/M04 A2973 1040 81 -600 000/00 RMK AO2 P0000
14837KMSN MSN20020221030511502/21/02 03:05:31  5-MIN KMSN 210905Z 00000KT 9SM -SN BKN019 OVC046 M01/M03 A2973 1040 85 -600 000/00 RMK AO2 P0000
14837KMSN MSN20020221031011502/21/02 03:10:31  5-MIN KMSN 210910Z 00000KT 9SM -SN BKN019 OVC046 M01/M03 A2973 1040 85 -600 000/00 RMK AO2 P0000
14837KMSN MSN20020221031511502/21/02 03:15:31  5-MIN KMSN 210915Z 00000KT 9SM -SN BKN019 OVC046 M01/M03 A2973 1040 85 -600 000/00 RMK AO2 P0000
14837KMSN MSN20020221032010802/21/02 03:20:31  5-MIN KMSN 210920Z 00000KT 9SM -SN OVC019 M01/M03 A2973 1040 85 -600 000/00 RMK AO2 P0000
14837KMSN MSN20020221032510802/21/02 03:25:31  5-MIN KMSN 210925Z 00000KT 9SM -SN OVC017 M01/M03 A2974 1040 85 -600 000/00 RMK AO2 P0000
14837KMSN MSN20020221033010802/21/02 03:30:31  5-MIN KMSN 210930Z 00000KT 8SM -SN OVC017 M01/M03 A2974 1030 85 -600 000/00 RMK AO2 P0000
14837KMSN MSN20020221033510802/21/02 03:35:31  5-MIN KMSN 210935Z 00000KT 7SM -SN OVC017 M01/M03 A2974 1030 85 -600 000/00 RMK AO2 P0000
14837KMSN MSN20020221034010802/21/02 03:40:31  5-MIN KMSN 210940Z 00000KT 7SM -SN OVC017 M01/M03 A2974 1030 85 -600 000/00 RMK AO2 P0000
14837KMSN MSN20020221034510802/21/02 03:45:31  5-MIN KMSN 210945Z 00000KT 9SM -SN OVC017 M01/M04 A2975 1030 81 -600 000/00 RMK AO2 P0000
14837KMSN MSN20020221035012502/21/02 03:50:31  5-MIN KMSN 210950Z 00000KT 9SM -SN OVC017 M01/M04 A2975 1020 81 -600 000/00 RMK AO2 SLP083 P0000 T10111039
14837KMSN MSN20020221035510802/21/02 03:55:31  5-MIN KMSN 210955Z 00000KT 9SM -SN OVC017 M01/M04 A2975 1020 81 -600 000/00 RMK AO2 P0000
14837KMSN MSN20020221040010802/21/02 04:00:31  5-MIN KMSN 211000Z 00000KT 8SM -SN OVC017 M01/M04 A2976 1020 81 -600 000/00 RMK AO2 P0000
14837KMSN MSN20020221040510802/21/02 04:05:31  5-MIN KMSN 211005Z 00000KT 6SM -SN OVC017 M01/M04 A2976 1010 81 -600 000/00 RMK AO2 P0000
14837KMSN MSN20020221041010802/21/02 04:10:31  5-MIN KMSN 211010Z 00000KT 4SM -SN OVC017 M01/M04 A2976 1010 81 -600 000/00 RMK AO2 P0000
14837KMSN MSN20020221041511102/21/02 04:15:31  5-MIN KMSN 211015Z 00000KT 3SM -SN BR OVC017 M02/M04 A2977 1010 85 -700 000/00 RMK AO2 P0000
14837KMSN MSN20020221042011102/21/02 04:20:31  5-MIN KMSN 211020Z 00000KT 5SM -SN BR OVC017 M02/M04 A2977 1000 85 -700 000/00 RMK AO2 P0000
14837KMSN MSN20020221042510802/21/02 04:25:31  5-MIN KMSN 211025Z 00000KT 8SM -SN OVC019 M02/M04 A2977 1000 85 -700 000/00 RMK AO2 P0000
14837KMSN MSN20020221043010802/21/02 04:30:31  5-MIN KMSN 211030Z 00000KT 9SM -SN OVC021 M02/M04 A2978 1000 85 -700 000/00 RMK AO2 P0000
14837KMSN MSN20020221043510702/21/02 04:35:31  5-MIN KMSN 211035Z 00000KT 9SM -SN OVC021 M02/M04 A2978 990 85 -700 000/00 RMK AO2 P0000
14837KMSN MSN20020221044010702/21/02 04:40:31  5-MIN KMSN 211040Z 00000KT 9SM -SN OVC021 M01/M04 A2978 990 81 -600 000/00 RMK AO2 P0000
14837KMSN MSN20020221044511402/21/02 04:45:31  5-MIN KMSN 211045Z 00000KT 9SM -SN FEW015 OVC021 M01/M04 A2979 990 81 -700 000/00 RMK AO2 P0000
14837KMSN MSN20020221045013102/21/02 04:50:31  5-MIN KMSN 211050Z 00000KT 9SM -SN FEW015 OVC023 M01/M04 A2979 990 81 -700 000/00 RMK AO2 SLP096 P0001 T10111039
14837KMSN MSN20020221045511402/21/02 04:55:31  5-MIN KMSN 211055Z 00000KT 9SM -SN FEW015 OVC023 M01/M04 A2979 980 81 -700 000/00 RMK AO2 P0000
14837KMSN MSN20020221050011402/21/02 05:00:31  5-MIN KMSN 211100Z 00000KT 9SM -SN BKN023 OVC038 M01/M04 A2979 980 81 -700 000/00 RMK AO2 P0000
14837KMSN MSN20020221050512102/21/02 05:05:31  5-MIN KMSN 211105Z 00000KT 8SM -SN FEW014 BKN023 OVC036 M01/M04 A2979 980 81 -700 000/00 RMK AO2 P0000
14837KMSN MSN20020221051012102/21/02 05:10:31  5-MIN KMSN 211110Z 00000KT 8SM -SN FEW014 BKN023 OVC047 M02/M04 A2980 980 85 -700 000/00 RMK AO2 P0000
14837KMSN MSN20020221051512102/21/02 05:15:31  5-MIN KMSN 211115Z 00000KT 9SM -SN FEW014 BKN023 OVC037 M02/M04 A2980 980 85 -700 000/00 RMK AO2 P0000
14837KMSN MSN20020221052012102/21/02 05:20:31  5-MIN KMSN 211120Z 00000KT 9SM -SN FEW012 BKN023 OVC047 M02/M04 A2980 980 85 -700 000/00 RMK AO2 P0000
14837KMSN MSN20020221052512302/21/02 05:25:31  5-MIN KMSN 211125Z 00000KT 9SM FEW012 BKN038 OVC047 M02/M04 A2980 970 85 -700 000/00 RMK AO2 SNE25 P0000
14837KMSN MSN20020221053012302/21/02 05:30:31  5-MIN KMSN 211130Z 00000KT 9SM FEW012 SCT024 OVC049 M02/M04 A2980 970 85 -700 000/00 RMK AO2 SNE25 P0000
14837KMSN MSN20020221053512402/21/02 05:35:31  5-MIN KMSN 211135Z 00000KT 10SM FEW016 SCT024 OVC049 M02/M04 A2981 970 81 -700 000/00 RMK AO2 SNE25 P0000
14837KMSN MSN20020221054011702/21/02 05:40:31  5-MIN KMSN 211140Z 00000KT 10SM FEW018 OVC049 M02/M04 A2981 970 85 -700 000/00 RMK AO2 SNE25 P0000
14837KMSN MSN20020221054511002/21/02 05:45:31  5-MIN KMSN 211145Z 00000KT 10SM OVC049 M02/M04 A2981 970 81 -700 000/00 RMK AO2 SNE25 P0000
14837KMSN MSN20020221055016302/21/02 05:50:31  5-MIN KMSN 211150Z 00000KT 10SM OVC049 M02/M04 A2981 970 81 -800 000/00 RMK AO2 SNE25 SLP105 P0000 60003 70079 4/001 T10171044 10000 21017 51025
14837KMSN MSN20020221055510502/21/02 05:55:31  5-MIN KMSN 211155Z 00000KT 10SM FEW014 OVC049 M02/M04 A2981 960 81 -800 000/00 RMK AO2
14837KMSN MSN20020221060009802/21/02 06:00:31  5-MIN KMSN 211200Z 00000KT 10SM OVC047 M02/M04 A2982 960 81 -800 000/00 RMK AO2
14837KMSN MSN20020221060509702/21/02 06:05:31  5-MIN KMSN 211205Z 00000KT 9SM OVC047 M02/M04 A2982 960 81 -800 000/00 RMK AO2
14837KMSN MSN20020221061009702/21/02 06:10:31  5-MIN KMSN 211210Z 00000KT 8SM OVC045 M02/M04 A2982 960 81 -800 000/00 RMK AO2
14837KMSN MSN20020221061509702/21/02 06:15:31  5-MIN KMSN 211215Z 00000KT 7SM OVC045 M02/M04 A2983 950 81 -800 000/00 RMK AO2
14837KMSN MSN20020221062010402/21/02 06:20:31  5-MIN KMSN 211220Z 00000KT 7SM FEW014 OVC045 M02/M04 A2983 950 81 -800 000/00 RMK AO2
14837KMSN MSN20020221062510702/21/02 06:25:31  5-MIN KMSN 211225Z 00000KT 6SM HZ FEW016 OVC045 M02/M04 A2983 950 81 -800 000/00 RMK AO2
14837KMSN MSN20020221063010702/21/02 06:30:31  5-MIN KMSN 211230Z 00000KT 6SM HZ FEW016 OVC045 M02/M04 A2983 940 81 -800 000/00 RMK AO2
14837KMSN MSN20020221063510402/21/02 06:35:31  5-MIN KMSN 211235Z 00000KT 7SM SCT016 OVC045 M02/M04 A2984 940 81 -800 000/00 RMK AO2
14837KMSN MSN20020221064010402/21/02 06:40:31  5-MIN KMSN 211240Z 00000KT 8SM BKN016 OVC045 M02/M04 A2984 940 81 -800 000/00 RMK AO2
14837KMSN MSN20020221064510402/21/02 06:45:31  5-MIN KMSN 211245Z 34010KT 8SM BKN016 OVC045 M02/M04 A2984 940 81 -800 340/10 RMK AO2
14837KMSN MSN20020221065012102/21/02 06:50:31  5-MIN KMSN 211250Z 34010KT 8SM BKN016 OVC045 M02/M04 A2984 930 81 -800 340/10 RMK AO2 SLP116 T10171044
14837KMSN MSN20020221065511102/21/02 06:55:31  5-MIN KMSN 211255Z 00000KT 8SM BKN014 BKN019 OVC045 M02/M04 A2985 930 81 -800 000/00 RMK AO2
14837KMSN MSN20020221070011102/21/02 07:00:31  5-MIN KMSN 211300Z 34010KT 9SM BKN014 BKN020 OVC045 M02/M04 A2985 930 81 -800 340/10 RMK AO2
14837KMSN MSN20020221070509802/21/02 07:05:31  5-MIN KMSN 211305Z 34010KT 10SM OVC014 M02/M04 A2985 930 81 -800 340/10 RMK AO2
14837KMSN MSN20020221071009802/21/02 07:10:31  5-MIN KMSN 211310Z 34012KT 10SM OVC016 M02/M04 A2986 920 81 -800 340/12 RMK AO2
14837KMSN MSN20020221071509802/21/02 07:15:31  5-MIN KMSN 211315Z 34012KT 10SM OVC016 M02/M04 A2986 920 81 -800 340/12 RMK AO2
14837KMSN MSN20020221072009802/21/02 07:20:31  5-MIN KMSN 211320Z 34012KT 10SM OVC016 M02/M04 A2986 920 81 -800 340/12 RMK AO2
14837KMSN MSN20020221072511302/21/02 07:25:31  5-MIN KMSN 211325Z 34012KT 9SM -SN OVC016 M02/M04 A2987 910 81 -800 340/12 RMK AO2 SNB21 P0000
14837KMSN MSN20020221073011302/21/02 07:30:31  5-MIN KMSN 211330Z 34012KT 9SM -SN OVC016 M02/M04 A2987 910 81 -800 340/12 RMK AO2 SNB21 P0000
14837KMSN MSN20020221073511302/21/02 07:35:31  5-MIN KMSN 211335Z 34012KT 9SM -SN OVC016 M02/M04 A2987 910 81 -800 340/12 RMK AO2 SNB21 P0000
14837KMSN MSN20020221074011302/21/02 07:40:31  5-MIN KMSN 211340Z 34012KT 9SM -SN OVC016 M02/M04 A2988 900 81 -800 340/12 RMK AO2 SNB21 P0000
14837KMSN MSN20020221074511302/21/02 07:45:31  5-MIN KMSN 211345Z 34010KT 9SM -SN OVC016 M02/M04 A2988 900 81 -800 340/10 RMK AO2 SNB21 P0000
14837KMSN MSN20020221075013002/21/02 07:50:31  5-MIN KMSN 211350Z 34010KT 9SM -SN OVC016 M02/M04 A2988 900 81 -800 340/10 RMK AO2 SNB21 SLP130 P0000 T10171044
14837KMSN MSN20020221075510702/21/02 07:55:31  5-MIN KMSN 211355Z 34010KT 8SM -SN OVC016 M02/M04 A2989 890 81 -800 340/10 RMK AO2 P0000
14837KMSN MSN20020221080010702/21/02 08:00:31  5-MIN KMSN 211400Z 34010KT 7SM -SN OVC014 M02/M04 A2989 890 81 -800 340/10 RMK AO2 P0000
14837KMSN MSN20020221080510702/21/02 08:05:31  5-MIN KMSN 211405Z 34015KT 5SM -SN OVC014 M02/M04 A2989 890 81 -800 340/15 RMK AO2 P0000
14837KMSN MSN20020221081010702/21/02 08:10:31  5-MIN KMSN 211410Z 34015KT 5SM -SN OVC014 M02/M04 A2989 890 81 -800 340/15 RMK AO2 P0000
14837KMSN MSN20020221081511002/21/02 08:15:31  5-MIN KMSN 211415Z 34015KT 5SM -SN BR OVC014 M02/M04 A2990 890 85 -900 340/15 RMK AO2 P0000
14837KMSN MSN20020221082011002/21/02 08:20:31  5-MIN KMSN 211420Z 34015KT 4SM -SN BR OVC014 M02/M04 A2990 880 85 -900 340/15 RMK AO2 P0000
14837KMSN MSN20020221082512002/21/02 08:25:31  5-MIN KMSN 211425Z 34015KT 3SM -SN BR OVC014 M02/M04 A2990 880 85 -900 340/15 RMK AO2 SFC VIS 4 P0000
14837KMSN MSN20020221083012002/21/02 08:30:31  5-MIN KMSN 211430Z 34015KT 3SM -SN BR OVC016 M02/M04 A2990 880 85 -900 340/15 RMK AO2 SFC VIS 4 P0000
14837KMSN MSN20020221083511002/21/02 08:35:31  5-MIN KMSN 211435Z 34015KT 3SM -SN BR OVC016 M02/M04 A2991 880 85 -900 340/15 RMK AO2 P0000
14837KMSN MSN20020221084011002/21/02 08:40:31  5-MIN KMSN 211440Z 34015KT 3SM -SN BR OVC016 M02/M04 A2991 870 85 -900 340/15 RMK AO2 P0000
14837KMSN MSN20020221084512002/21/02 08:45:31  5-MIN KMSN 211445Z 34015KT 3SM -SN BR OVC016 M02/M04 A2991 870 85 -900 340/15 RMK AO2 SFC VIS 4 P0000
14837KMSN MSN20020221085015302/21/02 08:50:31  5-MIN KMSN 211450Z 35015KT 3SM -SN BKN016 OVC022 M02/M04 A2991 870 81 -900 350/15 RMK AO2 SFC VIS 4 SLP140 P0000 60000 T10171044 51029
14837KMSN MSN20020221085511402/21/02 08:55:31  5-MIN KMSN 211455Z 00000KT 3SM -SN BKN016 OVC024 M02/M04 A2991 870 81 -900 000/00 RMK AO2 P0000
14837KMSN MSN20020221090012402/21/02 09:00:31  5-MIN KMSN 211500Z 00000KT 3SM -SN BKN016 OVC024 M02/M04 A2992 870 81 -900 000/00 RMK AO2 SFC VIS 3 P0000
14837KMSN MSN20020221090512702/21/02 09:05:31  5-MIN KMSN 211505Z 00000KT 3SM -SN BR BKN018 OVC024 M02/M04 A2992 870 85 -900 000/00 RMK AO2 SFC VIS 4 P0000
14837KMSN MSN20020221091012702/21/02 09:10:31  5-MIN KMSN 211510Z 35015KT 3SM -SN BR BKN018 OVC024 M02/M04 A2992 860 85 -900 350/15 RMK AO2 SFC VIS 4 P0000
14837KMSN MSN20020221091512702/21/02 09:15:31  5-MIN KMSN 211515Z 35015KT 3SM -SN BR BKN018 OVC024 M02/M04 A2992 860 85 -900 350/15 RMK AO2 SFC VIS 5 P0000
14837KMSN MSN20020221092012702/21/02 09:20:31  5-MIN KMSN 211520Z 35015KT 3SM -SN BR BKN018 OVC024 M02/M04 A2993 860 85 -900 350/15 RMK AO2 SFC VIS 6 P0000
14837KMSN MSN20020221092511702/21/02 09:25:31  5-MIN KMSN 211525Z 35015KT 6SM -SN BR BKN016 OVC022 M02/M04 A2993 850 85 -900 350/15 RMK AO2 P0000
14837KMSN MSN20020221093011002/21/02 09:30:31  5-MIN KMSN 211530Z 35015KT 6SM -SN BR OVC016 M02/M04 A2993 850 85 -900 350/15 RMK AO2 P0000
14837KMSN MSN20020221093511002/21/02 09:35:31  5-MIN KMSN 211535Z 35015KT 5SM -SN BR OVC016 M02/M04 A2994 850 85 -900 350/15 RMK AO2 P0000
14837KMSN MSN20020221094011002/21/02 09:40:31  5-MIN KMSN 211540Z 35015KT 5SM -SN BR OVC016 M02/M04 A2994 850 85 -900 350/15 RMK AO2 P0000
14837KMSN MSN20020221094511002/21/02 09:45:31  5-MIN KMSN 211545Z 35015KT 5SM -SN BR OVC016 M02/M04 A2994 840 85 -900 350/15 RMK AO2 P0000
14837KMSN MSN20020221095012602/21/02 09:50:31  5-MIN KMSN 211550Z 35015KT 7SM OVC016 M02/M04 A2994 840 85 -900 350/15 RMK AO2 SNE48 SLP150 P0000 T10171039
14837KMSN MSN20020221095509802/21/02 09:55:31  5-MIN KMSN 211555Z 00000KT 10SM OVC016 M02/M04 A2995 840 81 -900 000/00 RMK AO2
14837KMSN MSN20020221100009802/21/02 10:00:31  5-MIN KMSN 211600Z 35015KT 10SM OVC014 M02/M04 A2995 840 85 -900 350/15 RMK AO2
14837KMSN MSN20020221100509802/21/02 10:05:31  5-MIN KMSN 211605Z 35015KT 10SM OVC014 M02/M04 A2995 830 85 -900 350/15 RMK AO2
14837KMSN MSN20020221101009802/21/02 10:10:31  5-MIN KMSN 211610Z 35015KT 10SM OVC014 M02/M04 A2996 830 81 -900 350/15 RMK AO2
14837KMSN MSN20020221101509802/21/02 10:15:31  5-MIN KMSN 211615Z 35015KT 10SM OVC014 M02/M04 A2996 830 81 -900 350/15 RMK AO2
14837KMSN MSN20020221102009802/21/02 10:20:31  5-MIN KMSN 211620Z 35015KT 10SM OVC014 M02/M04 A2997 820 81 -900 350/15 RMK AO2
14837KMSN MSN20020221102509802/21/02 10:25:31  5-MIN KMSN 211625Z 35015KT 10SM OVC014 M02/M04 A2997 820 81 -900 350/15 RMK AO2
14837KMSN MSN20020221103009802/21/02 10:30:31  5-MIN KMSN 211630Z 35015KT 10SM OVC014 M02/M04 A2997 820 81 -900 350/15 RMK AO2
14837KMSN MSN20020221103509802/21/02 10:35:31  5-MIN KMSN 211635Z 35015KT 10SM OVC014 M02/M04 A2998 810 85 -900 350/15 RMK AO2
14837KMSN MSN20020221104009802/21/02 10:40:31  5-MIN KMSN 211640Z 34009KT 10SM OVC014 M02/M04 A2998 810 81 -900 340/09 RMK AO2
14837KMSN MSN20020221104509802/21/02 10:45:31  5-MIN KMSN 211645Z 35009KT 10SM OVC016 M02/M04 A2998 810 81 -900 350/09 RMK AO2
14837KMSN MSN20020221105012202/21/02 10:50:31  5-MIN KMSN 211650Z 34010G16KT 10SM OVC016 M02/M04 A2999 800 81 -1000 340/10G16 RMK AO2 SLP164 T10171044
14837KMSN MSN20020221105510502/21/02 10:55:31  5-MIN KMSN 211655Z 35010G16KT 10SM OVC016 M02/M04 A2999 800 81 -1000 340/10G16 RMK AO2
14837KMSN MSN20020221110009902/21/02 11:00:31  5-MIN KMSN 211700Z 35009KT 10SM OVC016 M02/M04 A2999 800 81 -1000 350/09 RMK AO2
14837KMSN MSN20020221110510502/21/02 11:05:31  5-MIN KMSN 211705Z 35010G15KT 10SM OVC016 M02/M04 A2999 800 81 -1000 350/10G15 RMK AO2
14837KMSN MSN20020221111010502/21/02 11:10:31  5-MIN KMSN 211710Z 35011G16KT 10SM OVC016 M02/M04 A2999 800 81 -1000 350/11G16 RMK AO2
14837KMSN MSN20020221111510502/21/02 11:15:31  5-MIN KMSN 211715Z 35008G16KT 10SM OVC016 M02/M04 A3000 790 81 -1000 350/08G16 RMK AO2
14837KMSN MSN20020221112010502/21/02 11:20:31  5-MIN KMSN 211720Z 35014G18KT 10SM OVC016 M02/M04 A3000 790 81 -1000 350/14G18 RMK AO2
14837KMSN MSN20020221112510502/21/02 11:25:31  5-MIN KMSN 211725Z 35011G18KT 10SM OVC016 M02/M04 A3000 790 81 -1000 350/11G18 RMK AO2
14837KMSN MSN20020221113009902/21/02 11:30:31  5-MIN KMSN 211730Z 35008KT 10SM OVC016 M02/M04 A3001 790 81 -1000 350/08 RMK AO2
14837KMSN MSN20020221113509902/21/02 11:35:31  5-MIN KMSN 211735Z 35010KT 10SM OVC016 M02/M04 A3001 780 81 -1000 350/10 RMK AO2
14837KMSN MSN20020221114009902/21/02 11:40:31  5-MIN KMSN 211740Z 34009KT 10SM OVC016 M02/M04 A3001 780 81 -1000 340/09 RMK AO2
14837KMSN MSN20020221114509902/21/02 11:45:31  5-MIN KMSN 211745Z 35008KT 10SM OVC016 M02/M04 A3001 780 85 -1000 350/08 RMK AO2
14837KMSN MSN20020221115014002/21/02 11:50:31  5-MIN KMSN 211750Z 34011KT 10SM OVC016 M02/M04 A3001 780 81 -1000 340/11 RMK AO2 SLP173 60000 T10171044 11017 21022 51033
14837KMSN MSN20020221115509902/21/02 11:55:31  5-MIN KMSN 211755Z 34013KT 10SM OVC016 M02/M04 A3001 780 81 -1000 340/13 RMK AO2
14837KMSN MSN20020221120010502/21/02 12:00:31  5-MIN KMSN 211800Z 35009G17KT 10SM OVC016 M02/M04 A3001 780 81 -1000 350/09G17 RMK AO2
14837KMSN MSN20020221120510502/21/02 12:05:31  5-MIN KMSN 211805Z 35012G17KT 10SM OVC016 M02/M04 A3002 780 81 -1000 350/12G17 RMK AO2
14837KMSN MSN20020221121010502/21/02 12:10:31  5-MIN KMSN 211810Z 34010G17KT 10SM OVC016 M02/M04 A3002 780 81 -1000 340/10G17 RMK AO2
14837KMSN MSN20020221121510502/21/02 12:15:31  5-MIN KMSN 211815Z 35011G16KT 10SM OVC016 M02/M04 A3002 770 81 -1000 350/11G16 RMK AO2
14837KMSN MSN20020221122010502/21/02 12:20:31  5-MIN KMSN 211820Z 35009G16KT 10SM OVC018 M02/M04 A3002 770 81 -1000 350/09G16 RMK AO2
14837KMSN MSN20020221122509802/21/02 12:25:31  5-MIN KMSN 211825Z 34012KT 10SM OVC018 M01/M04 A3002 770 78 -900 340/12 RMK AO2
14837KMSN MSN20020221123010502/21/02 12:30:31  5-MIN KMSN 211830Z 35011G16KT 10SM OVC018 M02/M04 A3002 770 81 -1000 350/11G16 RMK AO2
14837KMSN MSN20020221123510502/21/02 12:35:31  5-MIN KMSN 211835Z 35012G17KT 10SM OVC018 M02/M04 A3002 770 81 -1000 350/12G17 RMK AO2
14837KMSN MSN20020221124010402/21/02 12:40:31  5-MIN KMSN 211840Z 36011G17KT 10SM OVC018 M01/M04 A3003 770 78 -900 360/11G17 RMK AO2
14837KMSN MSN20020221124510402/21/02 12:45:31  5-MIN KMSN 211845Z 36011G17KT 10SM OVC018 M01/M04 A3003 770 78 -900 350/11G17 RMK AO2
14837KMSN MSN20020221125011502/21/02 12:50:31  5-MIN KMSN 211850Z 35010KT 10SM OVC018 M01/M04 A3003 760 78 -900 350/10 RMK AO2 SLP179 T10111044
14837KMSN MSN20020221125509802/21/02 12:55:31  5-MIN KMSN 211855Z 36009KT 10SM OVC018 M01/M04 A3003 760 78 -900 360/09 RMK AO2
14837KMSN MSN20020221130010402/21/02 13:00:31  5-MIN KMSN 211900Z 36013G18KT 10SM OVC018 M01/M04 A3003 760 78 -900 360/13G18 RMK AO2
14837KMSN MSN20020221130510402/21/02 13:05:31  5-MIN KMSN 211905Z 34011G18KT 10SM OVC018 M01/M04 A3003 760 78 -900 340/11G18 RMK AO2
14837KMSN MSN20020221131010402/21/02 13:10:31  5-MIN KMSN 211910Z 34011G16KT 10SM OVC018 M01/M04 A3003 760 78 -900 340/11G16 RMK AO2
14837KMSN MSN20020221131510402/21/02 13:15:31  5-MIN KMSN 211915Z 35013G19KT 10SM OVC020 M01/M04 A3004 760 78 -900 350/13G19 RMK AO2
14837KMSN MSN20020221132010402/21/02 13:20:31  5-MIN KMSN 211920Z 35011G19KT 10SM OVC020 M01/M04 A3004 760 78 -900 350/11G19 RMK AO2
14837KMSN MSN20020221132510402/21/02 13:25:31  5-MIN KMSN 211925Z 34008G19KT 10SM OVC020 M01/M04 A3004 750 78 -900 340/08G19 RMK AO2
14837KMSN MSN20020221133009802/21/02 13:30:31  5-MIN KMSN 211930Z 34010KT 10SM OVC020 M01/M04 A3004 750 78 -900 340/10 RMK AO2
14837KMSN MSN20020221133509802/21/02 13:35:31  5-MIN KMSN 211935Z 34010KT 10SM OVC020 M01/M04 A3004 750 78 -900 330/10 RMK AO2
14837KMSN MSN20020221134011402/21/02 13:40:31  5-MIN KMSN 211940Z 34012KT 310V010 10SM OVC020 M01/M04 A3004 750 78 -900 330/12 310V010 RMK AO2
14837KMSN MSN20020221134509902/21/02 13:45:31  5-MIN KMSN 211945Z 33011KT 10SM OVC020 M01/M04 A3005 750 78 -1000 330/11 RMK AO2
14837KMSN MSN20020221135012202/21/02 13:50:31  5-MIN KMSN 211950Z 34012G17KT 10SM OVC018 M01/M04 A3005 750 78 -1000 340/12G17 RMK AO2 SLP186 T10111044
14837KMSN MSN20020221135510502/21/02 13:55:31  5-MIN KMSN 211955Z 34011G18KT 10SM OVC018 M01/M04 A3005 740 78 -1000 340/11G18 RMK AO2
14837KMSN MSN20020221140010502/21/02 14:00:31  5-MIN KMSN 212000Z 34013G17KT 10SM OVC018 M01/M04 A3005 740 78 -1000 340/13G17 RMK AO2
14837KMSN MSN20020221140510502/21/02 14:05:31  5-MIN KMSN 212005Z 35009G17KT 10SM OVC018 M01/M04 A3006 740 78 -1000 340/09G17 RMK AO2
14837KMSN MSN20020221141009902/21/02 14:10:31  5-MIN KMSN 212010Z 33012KT 10SM OVC018 M01/M04 A3006 740 78 -1000 330/12 RMK AO2
14837KMSN MSN20020221141509902/21/02 14:15:31  5-MIN KMSN 212015Z 32010KT 10SM OVC020 M01/M04 A3006 730 78 -1000 320/10 RMK AO2
14837KMSN MSN20020221142009902/21/02 14:20:31  5-MIN KMSN 212020Z 33011KT 10SM OVC020 M01/M04 A3006 730 78 -1000 330/11 RMK AO2
14837KMSN MSN20020221142510502/21/02 14:25:31  5-MIN KMSN 212025Z 33012G20KT 10SM OVC020 M01/M04 A3007 730 78 -1000 330/12G20 RMK AO2
14837KMSN MSN20020221143010502/21/02 14:30:31  5-MIN KMSN 212030Z 34014G20KT 10SM OVC020 M01/M04 A3007 730 78 -1000 330/14G20 RMK AO2
14837KMSN MSN20020221143511202/21/02 14:35:31  5-MIN KMSN 212035Z 33011G17KT 10SM BKN020 OVC027 M01/M04 A3007 730 78 -1000 330/11G17 RMK AO2
14837KMSN MSN20020221144010502/21/02 14:40:31  5-MIN KMSN 212040Z 33014G18KT 10SM OVC023 M01/M04 A3007 720 78 -1000 320/14G18 RMK AO2
14837KMSN MSN20020221144511202/21/02 14:45:31  5-MIN KMSN 212045Z 33012G18KT 10SM BKN025 OVC034 M01/M04 A3008 720 78 -1000 330/12G18 RMK AO2
14837KMSN MSN20020221145014202/21/02 14:50:31  5-MIN KMSN 212050Z 33009G16KT 10SM FEW019 BKN025 OVC036 M01/M04 A3008 720 78 -1000 330/09G16 RMK AO2 SLP196 T10111044 51032
14837KMSN MSN20020221145511902/21/02 14:55:31  5-MIN KMSN 212055Z 32011G17KT 10SM FEW019 BKN025 OVC036 M01/M04 A3008 720 78 -1000 320/11G17 RMK AO2
14837KMSN MSN20020221150011202/21/02 15:00:31  5-MIN KMSN 212100Z 33012G17KT 10SM SCT025 OVC036 M01/M04 A3009 710 78 -1000 320/12G17 RMK AO2
14837KMSN MSN20020221150510602/21/02 15:05:31  5-MIN KMSN 212105Z 33011KT 10SM FEW025 OVC036 M01/M04 A3009 710 81 -1000 330/11 RMK AO2
14837KMSN MSN20020221151011302/21/02 15:10:31  5-MIN KMSN 212110Z 33010KT 10SM FEW018 SCT028 OVC036 M01/M04 A3009 710 81 -1000 330/10 RMK AO2
14837KMSN MSN20020221151510602/21/02 15:15:31  5-MIN KMSN 212115Z 33011KT 10SM FEW020 OVC036 M01/M04 A3009 710 81 -1000 330/11 RMK AO2
14837KMSN MSN20020221152011202/21/02 15:20:31  5-MIN KMSN 212120Z 33009G18KT 10SM FEW020 OVC036 M01/M04 A3009 700 78 -1000 330/09G18 RMK AO2
14837KMSN MSN20020221152511202/21/02 15:25:31  5-MIN KMSN 212125Z 33013G18KT 10SM FEW020 OVC034 M01/M04 A3010 700 78 -1000 330/13G18 RMK AO2
14837KMSN MSN20020221153011302/21/02 15:30:31  5-MIN KMSN 212130Z 32011KT 10SM FEW020 BKN034 OVC050 M01/M04 A3010 700 78 -1000 320/11 RMK AO2
14837KMSN MSN20020221153511302/21/02 15:35:31  5-MIN KMSN 212135Z 33013KT 10SM FEW020 BKN034 OVC050 M01/M04 A3010 700 78 -1000 330/13 RMK AO2
14837KMSN MSN20020221154011202/21/02 15:40:31  5-MIN KMSN 212140Z 33012G18KT 10SM SCT034 OVC050 M01/M04 A3010 700 78 -1000 330/12G18 RMK AO2
14837KMSN MSN20020221154511202/21/02 15:45:31  5-MIN KMSN 212145Z 32009G18KT 10SM FEW034 OVC050 M01/M04 A3010 700 78 -1000 320/09G18 RMK AO2
14837KMSN MSN20020221155012902/21/02 15:50:31  5-MIN KMSN 212150Z 33011G17KT 10SM FEW034 BKN050 M01/M04 A3010 700 78 -1000 330/11G17 RMK AO2 SLP204 T10111044
14837KMSN MSN20020221155510602/21/02 15:55:31  5-MIN KMSN 212155Z 32012KT 10SM FEW032 OVC050 M01/M05 A3010 700 75 -1000 320/12 RMK AO2
14837KMSN MSN20020221160010502/21/02 16:00:31  5-MIN KMSN 212200Z 33011KT 10SM FEW032 OVC050 M01/M04 A3010 690 75 -900 330/11 RMK AO2
14837KMSN MSN20020221160510602/21/02 16:05:31  5-MIN KMSN 212205Z 32011KT 10SM FEW032 BKN050 M01/M05 A3011 690 75 -1000 320/11 RMK AO2
14837KMSN MSN20020221161010602/21/02 16:10:31  5-MIN KMSN 212210Z 33012KT 10SM FEW032 BKN050 M01/M05 A3011 690 75 -1000 330/12 RMK AO2
14837KMSN MSN20020221161511202/21/02 16:15:31  5-MIN KMSN 212215Z 33012G16KT 10SM FEW032 BKN050 M01/M05 A3011 690 75 -1000 330/12G16 RMK AO2
14837KMSN MSN20020221162011202/21/02 16:20:31  5-MIN KMSN 212220Z 33012G16KT 10SM FEW032 BKN050 M01/M05 A3011 690 72 -1000 330/12G16 RMK AO2
14837KMSN MSN20020221162510602/21/02 16:25:31  5-MIN KMSN 212225Z 33012KT 10SM FEW032 BKN050 M01/M05 A3011 690 75 -1000 330/12 RMK AO2
14837KMSN MSN20020221163011202/21/02 16:30:31  5-MIN KMSN 212230Z 33010G16KT 10SM FEW032 BKN050 M01/M05 A3012 680 75 -1000 330/10G16 RMK AO2
14837KMSN MSN20020221163511202/21/02 16:35:31  5-MIN KMSN 212235Z 33011G16KT 10SM FEW032 BKN050 M01/M05 A3012 680 75 -1000 330/11G16 RMK AO2
14837KMSN MSN20020221164011202/21/02 16:40:31  5-MIN KMSN 212240Z 33011G17KT 10SM FEW032 BKN050 M01/M05 A3012 680 75 -1000 320/11G17 RMK AO2
14837KMSN MSN20020221164511202/21/02 16:45:31  5-MIN KMSN 212245Z 32010G17KT 10SM FEW032 BKN050 M01/M05 A3012 680 75 -1000 320/10G17 RMK AO2
14837KMSN MSN20020221165011602/21/02 16:50:31  5-MIN KMSN 212250Z 32010KT 10SM FEW050 M01/M05 A3013 680 75 -1000 320/10 RMK AO2 SLP212 T10111050
14837KMSN MSN20020221165510202/21/02 16:55:31  5-MIN KMSN 212255Z 32011G17KT 10SM CLR M01/M05 A3013 670 75 -1000 320/11G17 RMK AO2
14837KMSN MSN20020221170010202/21/02 17:00:31  5-MIN KMSN 212300Z 32011G17KT 10SM CLR M01/M05 A3013 670 75 -1000 320/11G17 RMK AO2
14837KMSN MSN20020221170509602/21/02 17:05:31  5-MIN KMSN 212305Z 32008KT 10SM CLR M01/M04 A3013 670 78 -1100 320/08 RMK AO2
14837KMSN MSN20020221171009602/21/02 17:10:31  5-MIN KMSN 212310Z 33008KT 10SM CLR M01/M05 A3014 660 75 -1100 320/08 RMK AO2
14837KMSN MSN20020221171509602/21/02 17:15:31  5-MIN KMSN 212315Z 33010KT 10SM CLR M01/M06 A3014 660 72 -1100 330/10 RMK AO2
14837KMSN MSN20020221172009602/21/02 17:20:31  5-MIN KMSN 212320Z 33009KT 10SM CLR M01/M06 A3014 660 72 -1100 330/09 RMK AO2
14837KMSN MSN20020221172509602/21/02 17:25:31  5-MIN KMSN 212325Z 32009KT 10SM CLR M01/M06 A3014 660 72 -1100 320/09 RMK AO2
14837KMSN MSN20020221173009602/21/02 17:30:31  5-MIN KMSN 212330Z 32009KT 10SM CLR M01/M06 A3014 660 72 -1100 320/09 RMK AO2
14837KMSN MSN20020221173510202/21/02 17:35:31  5-MIN KMSN 212335Z 32009G15KT 10SM CLR M01/M06 A3015 660 72 -1100 320/09G15 RMK AO2
14837KMSN MSN20020221174009602/21/02 17:40:31  5-MIN KMSN 212340Z 32007KT 10SM CLR M02/M06 A3015 650 75 -1100 320/07 RMK AO2
14837KMSN MSN20020221174510202/21/02 17:45:31  5-MIN KMSN 212345Z 32009KT 10SM CLR M02/M06 A3015 650 75 -1100 320/09 RMK AO2 4/001
14837KMSN MSN20020221175014002/21/02 17:50:31  5-MIN KMSN 212350Z 33009KT 10SM FEW050 M02/M06 A3016 650 75 -1100 320/09 RMK AO2 SLP222 4/001 T10171056 11006 21017 53023
14837KMSN MSN20020221175509602/21/02 17:55:31  5-MIN KMSN 212355Z 33008KT 10SM CLR M02/M06 A3016 650 75 -1100 330/08 RMK AO2
14837KMSN MSN20020221180009602/21/02 18:00:31  5-MIN KMSN 220000Z 32009KT 10SM CLR M02/M06 A3016 640 75 -1200 320/09 RMK AO2
14837KMSN MSN20020221180509602/21/02 18:05:31  5-MIN KMSN 220005Z 32010KT 10SM CLR M02/M06 A3016 640 75 -1200 320/10 RMK AO2
14837KMSN MSN20020221181009602/21/02 18:10:31  5-MIN KMSN 220010Z 32008KT 10SM CLR M02/M06 A3016 640 75 -1200 320/08 RMK AO2
14837KMSN MSN20020221181509602/21/02 18:15:31  5-MIN KMSN 220015Z 32009KT 10SM CLR M02/M06 A3016 640 75 -1200 320/09 RMK AO2
14837KMSN MSN20020221182009602/21/02 18:20:31  5-MIN KMSN 220020Z 32008KT 10SM CLR M02/M06 A3016 640 75 -1200 320/08 RMK AO2
14837KMSN MSN20020221182509602/21/02 18:25:31  5-MIN KMSN 220025Z 32010KT 10SM CLR M02/M06 A3016 640 78 -1200 320/10 RMK AO2
14837KMSN MSN20020221183009602/21/02 18:30:31  5-MIN KMSN 220030Z 33008KT 10SM CLR M02/M06 A3016 640 72 -1200 330/08 RMK AO2
14837KMSN MSN20020221183509602/21/02 18:35:31  5-MIN KMSN 220035Z 33010KT 10SM CLR M02/M06 A3017 640 72 -1200 330/10 RMK AO2
14837KMSN MSN20020221184009602/21/02 18:40:31  5-MIN KMSN 220040Z 33007KT 10SM CLR M02/M06 A3017 640 75 -1200 330/07 RMK AO2
14837KMSN MSN20020221184509602/21/02 18:45:31  5-MIN KMSN 220045Z 33009KT 10SM CLR M02/M06 A3017 640 75 -1200 330/09 RMK AO2
14837KMSN MSN20020221185011302/21/02 18:50:31  5-MIN KMSN 220050Z 32009KT 10SM CLR M02/M06 A3017 640 75 -1200 320/09 RMK AO2 SLP227 T10221061
14837KMSN MSN20020221185509602/21/02 18:55:31  5-MIN KMSN 220055Z 33010KT 10SM CLR M02/M06 A3017 640 75 -1200 330/10 RMK AO2
14837KMSN MSN20020221190009602/21/02 19:00:31  5-MIN KMSN 220100Z 33009KT 10SM CLR M02/M06 A3017 630 75 -1200 330/09 RMK AO2
14837KMSN MSN20020221190509602/21/02 19:05:31  5-MIN KMSN 220105Z 33009KT 10SM CLR M02/M06 A3017 630 75 -1200 330/09 RMK AO2
14837KMSN MSN20020221191009602/21/02 19:10:31  5-MIN KMSN 220110Z 33009KT 10SM CLR M02/M06 A3017 630 75 -1200 330/09 RMK AO2
14837KMSN MSN20020221191509602/21/02 19:15:31  5-MIN KMSN 220115Z 33009KT 10SM CLR M02/M06 A3017 630 75 -1200 330/09 RMK AO2
14837KMSN MSN20020221192009602/21/02 19:20:31  5-MIN KMSN 220120Z 34011KT 10SM CLR M02/M06 A3017 630 75 -1200 340/11 RMK AO2
14837KMSN MSN20020221192509602/21/02 19:25:31  5-MIN KMSN 220125Z 33009KT 10SM CLR M02/M06 A3017 630 75 -1200 330/09 RMK AO2
14837KMSN MSN20020221193009602/21/02 19:30:31  5-MIN KMSN 220130Z 33009KT 10SM CLR M02/M06 A3018 630 75 -1200 330/09 RMK AO2
14837KMSN MSN20020221193509602/21/02 19:35:31  5-MIN KMSN 220135Z 33009KT 10SM CLR M02/M06 A3018 630 75 -1200 330/09 RMK AO2
14837KMSN MSN20020221194009602/21/02 19:40:31  5-MIN KMSN 220140Z 33008KT 10SM CLR M02/M06 A3018 630 75 -1200 330/08 RMK AO2
14837KMSN MSN20020221194509602/21/02 19:45:31  5-MIN KMSN 220145Z 33009KT 10SM CLR M02/M06 A3018 630 75 -1200 330/09 RMK AO2
14837KMSN MSN20020221195011302/21/02 19:50:31  5-MIN KMSN 220150Z 33008KT 10SM CLR M02/M06 A3018 630 75 -1200 330/08 RMK AO2 SLP230 T10221061
14837KMSN MSN20020221195509602/21/02 19:55:31  5-MIN KMSN 220155Z 33010KT 10SM CLR M02/M06 A3018 630 75 -1200 330/10 RMK AO2
14837KMSN MSN20020221200009602/21/02 20:00:31  5-MIN KMSN 220200Z 33010KT 10SM CLR M02/M06 A3018 620 75 -1200 330/10 RMK AO2
14837KMSN MSN20020221200509602/21/02 20:05:31  5-MIN KMSN 220205Z 34010KT 10SM CLR M02/M06 A3018 620 75 -1300 340/10 RMK AO2
14837KMSN MSN20020221201009602/21/02 20:10:31  5-MIN KMSN 220210Z 33008KT 10SM CLR M02/M06 A3018 620 75 -1300 330/08 RMK AO2
14837KMSN MSN20020221201509602/21/02 20:15:31  5-MIN KMSN 220215Z 33009KT 10SM CLR M02/M06 A3019 620 75 -1300 330/09 RMK AO2
14837KMSN MSN20020221202009602/21/02 20:20:31  5-MIN KMSN 220220Z 34008KT 10SM CLR M02/M06 A3019 620 75 -1300 340/08 RMK AO2
14837KMSN MSN20020221202509602/21/02 20:25:31  5-MIN KMSN 220225Z 34010KT 10SM CLR M02/M06 A3019 620 75 -1300 340/10 RMK AO2
14837KMSN MSN20020221203009602/21/02 20:30:31  5-MIN KMSN 220230Z 34010KT 10SM CLR M02/M06 A3019 620 75 -1300 330/10 RMK AO2
14837KMSN MSN20020221203509602/21/02 20:35:31  5-MIN KMSN 220235Z 33010KT 10SM CLR M02/M06 A3019 620 75 -1300 330/10 RMK AO2
14837KMSN MSN20020221204009602/21/02 20:40:31  5-MIN KMSN 220240Z 34011KT 10SM CLR M02/M06 A3019 620 75 -1300 340/11 RMK AO2
14837KMSN MSN20020221204509602/21/02 20:45:31  5-MIN KMSN 220245Z 34011KT 10SM CLR M02/M07 A3019 620 72 -1300 340/11 RMK AO2
14837KMSN MSN20020221205011902/21/02 20:50:31  5-MIN KMSN 220250Z 34009KT 10SM CLR M02/M07 A3019 620 72 -1300 340/09 RMK AO2 SLP234 T10221067 53025
14837KMSN MSN20020221205509602/21/02 20:55:31  5-MIN KMSN 220255Z 34010KT 10SM CLR M03/M07 A3019 610 75 -1300 330/10 RMK AO2
14837KMSN MSN20020221210009602/21/02 21:00:31  5-MIN KMSN 220300Z 34009KT 10SM CLR M03/M06 A3019 610 78 -1300 330/09 RMK AO2
14837KMSN MSN20020221210509602/21/02 21:05:31  5-MIN KMSN 220305Z 34009KT 10SM CLR M03/M06 A3020 610 78 -1300 340/09 RMK AO2
14837KMSN MSN20020221211009602/21/02 21:10:31  5-MIN KMSN 220310Z 34008KT 10SM CLR M03/M06 A3020 610 78 -1300 330/08 RMK AO2
14837KMSN MSN20020221211509602/21/02 21:15:31  5-MIN KMSN 220315Z 34008KT 10SM CLR M03/M07 A3020 610 75 -1300 340/08 RMK AO2
14837KMSN MSN20020221212009602/21/02 21:20:31  5-MIN KMSN 220320Z 34010KT 10SM CLR M03/M06 A3020 610 78 -1300 340/10 RMK AO2
14837KMSN MSN20020221212509602/21/02 21:25:31  5-MIN KMSN 220325Z 34007KT 10SM CLR M03/M06 A3020 610 78 -1300 340/07 RMK AO2
14837KMSN MSN20020221213009602/21/02 21:30:31  5-MIN KMSN 220330Z 34008KT 10SM CLR M03/M06 A3020 610 78 -1300 340/08 RMK AO2
14837KMSN MSN20020221213509602/21/02 21:35:31  5-MIN KMSN 220335Z 34007KT 10SM CLR M03/M06 A3020 610 78 -1300 340/07 RMK AO2
14837KMSN MSN20020221214009602/21/02 21:40:31  5-MIN KMSN 220340Z 34008KT 10SM CLR M03/M06 A3020 610 78 -1300 340/08 RMK AO2
14837KMSN MSN20020221214509602/21/02 21:45:31  5-MIN KMSN 220345Z 34008KT 10SM CLR M03/M07 A3020 600 78 -1400 340/08 RMK AO2
14837KMSN MSN20020221215011302/21/02 21:50:31  5-MIN KMSN 220350Z 34008KT 10SM CLR M03/M06 A3020 600 78 -1300 340/08 RMK AO2 SLP239 T10281061
14837KMSN MSN20020221215509602/21/02 21:55:31  5-MIN KMSN 220355Z 33010KT 10SM CLR M03/M06 A3021 600 81 -1400 330/10 RMK AO2
14837KMSN MSN20020221220009602/21/02 22:00:31  5-MIN KMSN 220400Z 34009KT 10SM CLR M03/M06 A3021 600 81 -1400 340/09 RMK AO2
14837KMSN MSN20020221220509602/21/02 22:05:31  5-MIN KMSN 220405Z 34009KT 10SM CLR M03/M06 A3021 600 81 -1400 340/09 RMK AO2
14837KMSN MSN20020221221009602/21/02 22:10:31  5-MIN KMSN 220410Z 33009KT 10SM CLR M03/M06 A3021 600 81 -1400 330/09 RMK AO2
14837KMSN MSN20020221221509602/21/02 22:15:31  5-MIN KMSN 220415Z 33007KT 10SM CLR M03/M07 A3021 600 78 -1400 330/07 RMK AO2
14837KMSN MSN20020221222009602/21/02 22:20:31  5-MIN KMSN 220420Z 33009KT 10SM CLR M03/M07 A3021 590 78 -1400 330/09 RMK AO2
14837KMSN MSN20020221222509602/21/02 22:25:31  5-MIN KMSN 220425Z 33008KT 10SM CLR M03/M06 A3021 590 81 -1400 330/08 RMK AO2
14837KMSN MSN20020221223009602/21/02 22:30:31  5-MIN KMSN 220430Z 33008KT 10SM CLR M03/M07 A3021 590 78 -1400 330/08 RMK AO2
14837KMSN MSN20020221223509602/21/02 22:35:31  5-MIN KMSN 220435Z 34008KT 10SM CLR M03/M07 A3022 590 78 -1400 340/08 RMK AO2
14837KMSN MSN20020221224009602/21/02 22:40:31  5-MIN KMSN 220440Z 33008KT 10SM CLR M03/M07 A3022 590 78 -1400 330/08 RMK AO2
14837KMSN MSN20020221224509602/21/02 22:45:31  5-MIN KMSN 220445Z 33006KT 10SM CLR M03/M07 A3022 590 78 -1400 330/06 RMK AO2
14837KMSN MSN20020221225011302/21/02 22:50:31  5-MIN KMSN 220450Z 34007KT 10SM CLR M04/M07 A3022 590 81 -1500 340/07 RMK AO2 SLP244 T10391067
14837KMSN MSN20020221225509602/21/02 22:55:31  5-MIN KMSN 220455Z 34005KT 10SM CLR M04/M07 A3022 590 81 -1500 340/05 RMK AO2
14837KMSN MSN20020221230009602/21/02 23:00:31  5-MIN KMSN 220500Z 35006KT 10SM CLR M04/M07 A3022 590 81 -1500 340/06 RMK AO2
14837KMSN MSN20020221230511202/21/02 23:05:31  5-MIN KMSN 220505Z 34007KT 300V360 10SM CLR M04/M07 A3022 590 81 -1500 330/07 300V360 RMK AO2
14837KMSN MSN20020221231009602/21/02 23:10:31  5-MIN KMSN 220510Z 34006KT 10SM CLR M04/M07 A3022 590 81 -1500 340/06 RMK AO2
14837KMSN MSN20020221231509602/21/02 23:15:31  5-MIN KMSN 220515Z 34006KT 10SM CLR M04/M07 A3022 590 81 -1600 340/06 RMK AO2
14837KMSN MSN20020221232009602/21/02 23:20:31  5-MIN KMSN 220520Z 33006KT 10SM CLR M04/M07 A3022 590 84 -1600 330/06 RMK AO2
14837KMSN MSN20020221232509602/21/02 23:25:31  5-MIN KMSN 220525Z 33006KT 10SM CLR M04/M07 A3022 590 81 -1600 330/06 RMK AO2
14837KMSN MSN20020221233008802/21/02 23:30:31  5-MIN KMSN 220530Z 10SM CLR M04/M07 A3022 590 81 -1600 M /M RMK AO2 $
14837KMSN MSN20020221233508802/21/02 23:35:31  5-MIN KMSN 220535Z 10SM CLR M04/M07 A3022 590 84 -1600 M /M RMK AO2 $
14837KMSN MSN20020221234009802/21/02 23:40:31  5-MIN KMSN 220540Z 35004KT 10SM CLR M04/M07 A3022 580 81 -1600 350/04 RMK AO2 $
14837KMSN MSN20020221234509802/21/02 23:45:31  5-MIN KMSN 220545Z 34007KT 10SM CLR M04/M08 A3023 580 78 -1600 340/07 RMK AO2 $
14837KMSN MSN20020221235014302/21/02 23:50:31  5-MIN KMSN 220550Z 32006KT 10SM CLR M05/M08 A3023 580 81 -1700 320/06 RMK AO2 SLP249 T10501078 11017 21050 400001050 52012 $
14837KMSN MSN20020221235509802/21/02 23:55:31  5-MIN KMSN 220555Z 33007KT 10SM CLR M04/M08 A3023 580 78 -1600 320/07 RMK AO2 $
14837KMSN MSN20020222000008802/22/02 00:00:31  5-MIN KMSN 220600Z 10SM CLR M04/M07 A3023 580 81 -1600 M /M RMK AO2 $
14837KMSN MSN20020222000508802/22/02 00:05:31  5-MIN KMSN 220605Z 10SM CLR M05/M08 A3023 580 81 -1700 M /M RMK AO2 $
14837KMSN MSN20020222001008802/22/02 00:10:31  5-MIN KMSN 220610Z 10SM CLR M05/M08 A3023 580 81 -1700 M /M RMK AO2 $
14837KMSN MSN20020222001508802/22/02 00:15:31  5-MIN KMSN 220615Z 10SM CLR M05/M08 A3023 580 81 -1700 M /M RMK AO2 $
14837KMSN MSN20020222002008802/22/02 00:20:31  5-MIN KMSN 220620Z 10SM CLR M05/M08 A3024 570 81 -1700 M /M RMK AO2 $
14837KMSN MSN20020222002508802/22/02 00:25:31  5-MIN KMSN 220625Z 10SM CLR M05/M08 A3024 570 81 -1700 M /M RMK AO2 $
14837KMSN MSN20020222003008802/22/02 00:30:31  5-MIN KMSN 220630Z 10SM CLR M05/M08 A3024 570 81 -1700 M /M RMK AO2 $
14837KMSN MSN20020222003508802/22/02 00:35:31  5-MIN KMSN 220635Z 10SM CLR M06/M08 A3024 570 84 -1700 M /M RMK AO2 $
14837KMSN MSN20020222004008802/22/02 00:40:31  5-MIN KMSN 220640Z 10SM CLR M06/M08 A3024 570 84 -1700 M /M RMK AO2 $
14837KMSN MSN20020222004508802/22/02 00:45:31  5-MIN KMSN 220645Z 10SM CLR M06/M08 A3024 570 84 -1700 M /M RMK AO2 $
14837KMSN MSN20020222005011502/22/02 00:50:31  5-MIN KMSN 220650Z 35006KT 10SM CLR M06/M09 A3024 570 74 -1700 350/06 RMK AO2 SLP254 T10561094 $
14837KMSN MSN20020222005508802/22/02 00:55:31  5-MIN KMSN 220655Z 10SM CLR M06/M09 A3024 570 74 -1700 M /M RMK AO2 $
14837KMSN MSN20020222010008802/22/02 01:00:31  5-MIN KMSN 220700Z 10SM CLR M06/M09 A3025 560 77 -1800 M /M RMK AO2 $
14837KMSN MSN20020222010508802/22/02 01:05:31  5-MIN KMSN 220705Z 10SM CLR M06/M09 A3025 570 74 -1700 M /M RMK AO2 $
14837KMSN MSN20020222011008802/22/02 01:10:31  5-MIN KMSN 220710Z 10SM CLR M06/M09 A3025 570 74 -1700 M /M RMK AO2 $
14837KMSN MSN20020222011508802/22/02 01:15:31  5-MIN KMSN 220715Z 10SM CLR M06/M09 A3024 570 74 -1700 M /M RMK AO2 $
14837KMSN MSN20020222012008802/22/02 01:20:31  5-MIN KMSN 220720Z 10SM CLR M06/M09 A3024 570 74 -1700 M /M RMK AO2 $
14837KMSN MSN20020222012508802/22/02 01:25:31  5-MIN KMSN 220725Z 10SM CLR M06/M10 A3024 570 74 -1800 M /M RMK AO2 $
14837KMSN MSN20020222013008802/22/02 01:30:31  5-MIN KMSN 220730Z 10SM CLR M06/M10 A3024 570 74 -1800 M /M RMK AO2 $
14837KMSN MSN20020222013508802/22/02 01:35:31  5-MIN KMSN 220735Z 10SM CLR M06/M09 A3024 570 77 -1800 M /M RMK AO2 $
14837KMSN MSN20020222014009802/22/02 01:40:31  5-MIN KMSN 220740Z 33005KT 10SM CLR M06/M10 A3024 570 74 -1800 330/05 RMK AO2 $
14837KMSN MSN20020222014509802/22/02 01:45:31  5-MIN KMSN 220745Z 33005KT 10SM CLR M06/M10 A3024 570 74 -1800 330/05 RMK AO2 $
14837KMSN MSN20020222015011502/22/02 01:50:31  5-MIN KMSN 220750Z 35005KT 10SM CLR M06/M10 A3024 570 74 -1800 350/05 RMK AO2 SLP253 T10611100 $
14837KMSN MSN20020222015509802/22/02 01:55:31  5-MIN KMSN 220755Z 35005KT 10SM CLR M07/M10 A3024 570 77 -1900 350/05 RMK AO2 $
14837KMSN MSN20020222020009802/22/02 02:00:31  5-MIN KMSN 220800Z 35005KT 10SM CLR M07/M10 A3024 570 77 -1900 350/05 RMK AO2 $
14837KMSN MSN20020222020509802/22/02 02:05:31  5-MIN KMSN 220805Z 35005KT 10SM CLR M07/M10 A3024 570 77 -1900 350/05 RMK AO2 $
14837KMSN MSN20020222021009802/22/02 02:10:31  5-MIN KMSN 220810Z 35005KT 10SM CLR M06/M10 A3024 570 74 -1800 350/05 RMK AO2 $
14837KMSN MSN20020222021509802/22/02 02:15:31  5-MIN KMSN 220815Z 35005KT 10SM CLR M06/M11 A3024 570 71 -1800 350/05 RMK AO2 $
14837KMSN MSN20020222022009802/22/02 02:20:31  5-MIN KMSN 220820Z 35005KT 10SM CLR M06/M11 A3024 570 71 -1800 350/05 RMK AO2 $
14837KMSN MSN20020222022509802/22/02 02:25:31  5-MIN KMSN 220825Z 35005KT 10SM CLR M07/M11 A3024 570 71 -1900 350/05 RMK AO2 $
14837KMSN MSN20020222023009802/22/02 02:30:31  5-MIN KMSN 220830Z 35005KT 10SM CLR M07/M11 A3024 570 71 -1900 350/05 RMK AO2 $
14837KMSN MSN20020222023509802/22/02 02:35:31  5-MIN KMSN 220835Z 35005KT 10SM CLR M07/M09 A3025 570 81 -1900 350/05 RMK AO2 $
14837KMSN MSN20020222024009802/22/02 02:40:31  5-MIN KMSN 220840Z 35005KT 10SM CLR M07/M09 A3024 570 81 -1900 350/05 RMK AO2 $
14837KMSN MSN20020222024509802/22/02 02:45:31  5-MIN KMSN 220845Z 35005KT 10SM CLR M07/M09 A3024 570 81 -1900 350/05 RMK AO2 $
14837KMSN MSN20020222025012102/22/02 02:50:31  5-MIN KMSN 220850Z 35005KT 10SM CLR M07/M09 A3025 560 81 -1900 350/05 RMK AO2 SLP255 T10671094 51012 $
14837KMSN MSN20020222025509802/22/02 02:55:31  5-MIN KMSN 220855Z 35005KT 10SM CLR M07/M09 A3025 560 81 -1900 350/05 RMK AO2 $
14837KMSN MSN20020222030009802/22/02 03:00:31  5-MIN KMSN 220900Z 35005KT 10SM CLR M07/M09 A3025 560 81 -1900 350/05 RMK AO2 $
14837KMSN MSN20020222030509802/22/02 03:05:31  5-MIN KMSN 220905Z 35005KT 10SM CLR M07/M09 A3025 560 81 -1900 350/05 RMK AO2 $
14837KMSN MSN20020222031009802/22/02 03:10:31  5-MIN KMSN 220910Z 35005KT 10SM CLR M07/M09 A3025 560 81 -1900 350/05 RMK AO2 $
14837KMSN MSN20020222031509802/22/02 03:15:31  5-MIN KMSN 220915Z 35005KT 10SM CLR M07/M09 A3025 560 81 -1900 350/05 RMK AO2 $
14837KMSN MSN20020222032009802/22/02 03:20:31  5-MIN KMSN 220920Z 35005KT 10SM CLR M07/M09 A3025 560 81 -1900 350/05 RMK AO2 $
14837KMSN MSN20020222032509802/22/02 03:25:31  5-MIN KMSN 220925Z 35005KT 10SM CLR M07/M09 A3025 560 81 -1900 350/05 RMK AO2 $
14837KMSN MSN20020222033009802/22/02 03:30:31  5-MIN KMSN 220930Z 35005KT 10SM CLR M07/M09 A3025 560 81 -1900 350/05 RMK AO2 $
14837KMSN MSN20020222033509802/22/02 03:35:31  5-MIN KMSN 220935Z 35005KT 10SM CLR M07/M09 A3025 560 84 -2000 350/05 RMK AO2 $
14837KMSN MSN20020222034009802/22/02 03:40:31  5-MIN KMSN 220940Z 35005KT 10SM CLR M07/M09 A3025 560 84 -2000 350/05 RMK AO2 $
14837KMSN MSN20020222034509802/22/02 03:45:31  5-MIN KMSN 220945Z 35005KT 10SM CLR M07/M09 A3025 560 84 -2000 350/05 RMK AO2 $
14837KMSN MSN20020222035011502/22/02 03:50:31  5-MIN KMSN 220950Z 00000KT 10SM CLR M07/M09 A3025 560 84 -2000 000/00 RMK AO2 SLP258 T10721094 $
14837KMSN MSN20020222035509802/22/02 03:55:31  5-MIN KMSN 220955Z 00000KT 10SM CLR M07/M09 A3026 550 84 -2000 000/00 RMK AO2 $
14837KMSN MSN20020222040009802/22/02 04:00:31  5-MIN KMSN 221000Z 00000KT 10SM CLR M07/M09 A3026 550 84 -2000 000/00 RMK AO2 $
14837KMSN MSN20020222040509802/22/02 04:05:31  5-MIN KMSN 221005Z 00000KT 10SM CLR M07/M09 A3025 560 84 -2000 000/00 RMK AO2 $
14837KMSN MSN20020222041009802/22/02 04:10:31  5-MIN KMSN 221010Z 00000KT 10SM CLR M07/M09 A3025 560 84 -2000 000/00 RMK AO2 $
14837KMSN MSN20020222041509802/22/02 04:15:31  5-MIN KMSN 221015Z 00000KT 10SM CLR M07/M10 A3026 560 81 -2000 000/00 RMK AO2 $
14837KMSN MSN20020222042009802/22/02 04:20:31  5-MIN KMSN 221020Z 00000KT 10SM CLR M07/M09 A3026 550 84 -2000 000/00 RMK AO2 $
14837KMSN MSN20020222042509802/22/02 04:25:31  5-MIN KMSN 221025Z 00000KT 10SM CLR M07/M10 A3026 550 81 -2000 000/00 RMK AO2 $
14837KMSN MSN20020222043009802/22/02 04:30:31  5-MIN KMSN 221030Z 00000KT 10SM CLR M07/M10 A3026 550 81 -2000 000/00 RMK AO2 $
14837KMSN MSN20020222043509802/22/02 04:35:31  5-MIN KMSN 221035Z 00000KT 10SM CLR M08/M09 A3026 550 88 -2100 000/00 RMK AO2 $
14837KMSN MSN20020222044009802/22/02 04:40:31  5-MIN KMSN 221040Z 00000KT 10SM CLR M07/M09 A3026 550 84 -2000 000/00 RMK AO2 $
14837KMSN MSN20020222044509802/22/02 04:45:31  5-MIN KMSN 221045Z 00000KT 10SM CLR M07/M10 A3026 550 81 -2000 000/00 RMK AO2 $
14837KMSN MSN20020222045011502/22/02 04:50:31  5-MIN KMSN 221050Z 00000KT 10SM CLR M08/M10 A3026 550 84 -2100 000/00 RMK AO2 SLP260 T10781100 $
14837KMSN MSN20020222045509802/22/02 04:55:31  5-MIN KMSN 221055Z 00000KT 10SM CLR M08/M10 A3026 550 84 -2100 000/00 RMK AO2 $
14837KMSN MSN20020222050009802/22/02 05:00:31  5-MIN KMSN 221100Z 00000KT 10SM CLR M08/M10 A3026 550 84 -2100 000/00 RMK AO2 $
14837KMSN MSN20020222050509802/22/02 05:05:31  5-MIN KMSN 221105Z 00000KT 10SM CLR M08/M10 A3026 550 84 -2100 000/00 RMK AO2 $
14837KMSN MSN20020222051009802/22/02 05:10:31  5-MIN KMSN 221110Z 00000KT 10SM CLR M08/M10 A3026 550 84 -2100 000/00 RMK AO2 $
14837KMSN MSN20020222051509802/22/02 05:15:31  5-MIN KMSN 221115Z 33003KT 10SM CLR M08/M10 A3026 550 84 -2100 330/03 RMK AO2 $
14837KMSN MSN20020222052009802/22/02 05:20:31  5-MIN KMSN 221120Z 33003KT 10SM CLR M08/M10 A3026 550 84 -2100 330/03 RMK AO2 $
14837KMSN MSN20020222052509802/22/02 05:25:31  5-MIN KMSN 221125Z 33003KT 10SM CLR M08/M10 A3026 550 84 -2100 330/03 RMK AO2 $
14837KMSN MSN20020222053009802/22/02 05:30:31  5-MIN KMSN 221130Z 34003KT 10SM CLR M08/M10 A3026 560 84 -2000 340/03 RMK AO2 $
14837KMSN MSN20020222053509802/22/02 05:35:31  5-MIN KMSN 221135Z 34003KT 10SM CLR M08/M10 A3026 560 84 -2000 340/03 RMK AO2 $
14837KMSN MSN20020222054009802/22/02 05:40:31  5-MIN KMSN 221140Z 34003KT 10SM CLR M08/M10 A3026 550 88 -2100 340/03 RMK AO2 $
14837KMSN MSN20020222054509802/22/02 05:45:31  5-MIN KMSN 221145Z 00000KT 10SM CLR M09/M10 A3025 560 92 -2200 000/00 RMK AO2 $
14837KMSN MSN20020222055013902/22/02 05:50:31  5-MIN KMSN 221150Z 00000KT 10SM CLR M09/M10 A3026 550 92 -2200 000/00 RMK AO2 SLP261 4/001 T10891100 11044 21089 51007 $
14837KMSN MSN20020222055509802/22/02 05:55:31  5-MIN KMSN 221155Z 32005KT 10SM CLR M09/M10 A3026 550 92 -2200 320/05 RMK AO2 $
14837KMSN MSN20020222060009802/22/02 06:00:31  5-MIN KMSN 221200Z 32005KT 10SM CLR M09/M11 A3026 550 88 -2200 320/05 RMK AO2 $
14837KMSN MSN20020222060509802/22/02 06:05:31  5-MIN KMSN 221205Z 32005KT 10SM CLR M08/M10 A3026 550 88 -2100 320/05 RMK AO2 $
14837KMSN MSN20020222061009802/22/02 06:10:31  5-MIN KMSN 221210Z 30004KT 10SM CLR M08/M10 A3026 550 88 -2100 300/04 RMK AO2 $
14837KMSN MSN20020222061509802/22/02 06:15:31  5-MIN KMSN 221215Z 30004KT 10SM CLR M08/M10 A3026 550 88 -2100 300/04 RMK AO2 $
14837KMSN MSN20020222062009802/22/02 06:20:31  5-MIN KMSN 221220Z 30004KT 10SM CLR M09/M11 A3026 550 88 -2200 300/04 RMK AO2 $
14837KMSN MSN20020222062509802/22/02 06:25:31  5-MIN KMSN 221225Z 30004KT 10SM CLR M08/M10 A3026 550 88 -2100 300/04 RMK AO2 $
14837KMSN MSN20020222063009802/22/02 06:30:31  5-MIN KMSN 221230Z 30004KT 10SM CLR M09/M10 A3026 550 92 -2200 300/04 RMK AO2 $
14837KMSN MSN20020222063509802/22/02 06:35:31  5-MIN KMSN 221235Z 00000KT 10SM CLR M09/M10 A3026 550 92 -2200 000/00 RMK AO2 $
14837KMSN MSN20020222064009802/22/02 06:40:31  5-MIN KMSN 221240Z 00000KT 10SM CLR M09/M11 A3026 550 88 -2200 000/00 RMK AO2 $
14837KMSN MSN20020222064509802/22/02 06:45:31  5-MIN KMSN 221245Z 00000KT 10SM CLR M09/M11 A3026 550 88 -2200 000/00 RMK AO2 $
14837KMSN MSN20020222065011502/22/02 06:50:31  5-MIN KMSN 221250Z 00000KT 10SM CLR M09/M10 A3027 550 96 -2300 000/00 RMK AO2 SLP263 T10941100 $
14837KMSN MSN20020222065509802/22/02 06:55:31  5-MIN KMSN 221255Z 00000KT 10SM CLR M09/M11 A3027 550 92 -2300 000/00 RMK AO2 $
14837KMSN MSN20020222070009802/22/02 07:00:31  5-MIN KMSN 221300Z 00000KT 10SM CLR M09/M11 A3027 540 92 -2300 000/00 RMK AO2 $
14837KMSN MSN20020222070509802/22/02 07:05:31  5-MIN KMSN 221305Z 00000KT 10SM CLR M09/M11 A3027 540 92 -2300 000/00 RMK AO2 $
14837KMSN MSN20020222071009802/22/02 07:10:31  5-MIN KMSN 221310Z 00000KT 10SM CLR M09/M10 A3027 540 92 -2200 000/00 RMK AO2 $
14837KMSN MSN20020222071509802/22/02 07:15:31  5-MIN KMSN 221315Z 00000KT 10SM CLR M09/M11 A3027 540 88 -2200 000/00 RMK AO2 $
14837KMSN MSN20020222072009802/22/02 07:20:31  5-MIN KMSN 221320Z 00000KT 10SM CLR M08/M10 A3027 540 88 -2100 000/00 RMK AO2 $
14837KMSN MSN20020222072509802/22/02 07:25:31  5-MIN KMSN 221325Z 00000KT 10SM CLR M08/M10 A3027 540 84 -2100 000/00 RMK AO2 $
14837KMSN MSN20020222073009802/22/02 07:30:31  5-MIN KMSN 221330Z 00000KT 10SM CLR M08/M10 A3027 540 84 -2100 000/00 RMK AO2 $
14837KMSN MSN20020222073509802/22/02 07:35:31  5-MIN KMSN 221335Z 00000KT 10SM CLR M08/M10 A3028 540 84 -2100 000/00 RMK AO2 $
14837KMSN MSN20020222074009802/22/02 07:40:31  5-MIN KMSN 221340Z 34004KT 10SM CLR M07/M10 A3028 540 81 -2000 340/04 RMK AO2 $
14837KMSN MSN20020222074509802/22/02 07:45:31  5-MIN KMSN 221345Z 34004KT 10SM CLR M07/M10 A3027 540 81 -2000 340/04 RMK AO2 $
14837KMSN MSN20020222075011502/22/02 07:50:31  5-MIN KMSN 221350Z 34005KT 10SM CLR M07/M10 A3028 530 77 -1900 340/05 RMK AO2 SLP267 T10671100 $
14837KMSN MSN20020222075509802/22/02 07:55:31  5-MIN KMSN 221355Z 34005KT 10SM CLR M07/M10 A3028 540 77 -1900 340/05 RMK AO2 $
14837KMSN MSN20020222080009802/22/02 08:00:31  5-MIN KMSN 221400Z 34005KT 10SM CLR M07/M10 A3028 540 77 -1900 340/05 RMK AO2 $
14837KMSN MSN20020222080509802/22/02 08:05:31  5-MIN KMSN 221405Z 34005KT 10SM CLR M06/M10 A3027 540 74 -1900 340/05 RMK AO2 $
14837KMSN MSN20020222081009802/22/02 08:10:31  5-MIN KMSN 221410Z 34005KT 10SM CLR M06/M10 A3027 540 74 -1900 340/05 RMK AO2 $
14837KMSN MSN20020222081509802/22/02 08:15:31  5-MIN KMSN 221415Z 34005KT 10SM CLR M06/M10 A3027 540 71 -1800 340/05 RMK AO2 $
14837KMSN MSN20020222082009802/22/02 08:20:31  5-MIN KMSN 221420Z 34005KT 10SM CLR M06/M09 A3027 540 74 -1800 340/05 RMK AO2 $
14837KMSN MSN20020222082509802/22/02 08:25:31  5-MIN KMSN 221425Z 34005KT 10SM CLR M06/M09 A3027 540 74 -1800 340/05 RMK AO2 $
14837KMSN MSN20020222083009802/22/02 08:30:31  5-MIN KMSN 221430Z 34005KT 10SM CLR M05/M10 A3027 540 68 -1700 340/05 RMK AO2 $
14837KMSN MSN20020222083509802/22/02 08:35:31  5-MIN KMSN 221435Z 34005KT 10SM CLR M05/M10 A3027 540 68 -1700 340/05 RMK AO2 $
14837KMSN MSN20020222084009602/22/02 08:40:31  5-MIN KMSN 221440Z 34005KT 10SM CLR M05/M10 A3027 550 68 -1700 340/05 RMK AO2
14837KMSN MSN20020222084509602/22/02 08:45:31  5-MIN KMSN 221445Z 34005KT 10SM CLR M04/M09 A3027 540 68 -1600 340/05 RMK AO2
14837KMSN MSN20020222085011902/22/02 08:50:31  5-MIN KMSN 221450Z 33005KT 10SM CLR M04/M09 A3027 550 68 -1600 330/05 RMK AO2 SLP262 T10441094 51005
14837KMSN MSN20020222085509602/22/02 08:55:31  5-MIN KMSN 221455Z 33005KT 10SM CLR M04/M09 A3026 550 68 -1600 330/05 RMK AO2
14837KMSN MSN20020222090009602/22/02 09:00:31  5-MIN KMSN 221500Z 36005KT 10SM CLR M04/M09 A3026 550 68 -1600 360/05 RMK AO2
14837KMSN MSN20020222090509602/22/02 09:05:31  5-MIN KMSN 221505Z 36005KT 10SM CLR M04/M09 A3026 550 68 -1600 360/05 RMK AO2
14837KMSN MSN20020222091009602/22/02 09:10:31  5-MIN KMSN 221510Z 36004KT 10SM CLR M04/M09 A3026 550 65 -1600 360/04 RMK AO2
14837KMSN MSN20020222091509602/22/02 09:15:31  5-MIN KMSN 221515Z 36004KT 10SM CLR M04/M09 A3026 550 68 -1600 360/04 RMK AO2
14837KMSN MSN20020222092009602/22/02 09:20:31  5-MIN KMSN 221520Z 36004KT 10SM CLR M04/M09 A3027 550 68 -1600 360/04 RMK AO2
14837KMSN MSN20020222092509602/22/02 09:25:31  5-MIN KMSN 221525Z 36005KT 10SM CLR M04/M09 A3027 550 68 -1600 360/05 RMK AO2
14837KMSN MSN20020222093009602/22/02 09:30:31  5-MIN KMSN 221530Z 36004KT 10SM CLR M03/M09 A3027 540 65 -1500 360/04 RMK AO2
14837KMSN MSN20020222093509602/22/02 09:35:31  5-MIN KMSN 221535Z 36005KT 10SM CLR M03/M08 A3027 540 68 -1500 360/05 RMK AO2
14837KMSN MSN20020222094009602/22/02 09:40:31  5-MIN KMSN 221540Z 33004KT 10SM CLR M03/M08 A3027 540 68 -1500 330/04 RMK AO2
14837KMSN MSN20020222094509602/22/02 09:45:31  5-MIN KMSN 221545Z 34003KT 10SM CLR M03/M08 A3027 540 68 -1500 340/03 RMK AO2
14837KMSN MSN20020222095011302/22/02 09:50:31  5-MIN KMSN 221550Z VRB04KT 10SM CLR M03/M09 A3027 540 65 -1500 VRB/04 RMK AO2 SLP263 T10331089
14837KMSN MSN20020222095509602/22/02 09:55:31  5-MIN KMSN 221555Z 30005KT 10SM CLR M03/M08 A3027 540 68 -1500 300/05 RMK AO2
14837KMSN MSN20020222100009602/22/02 10:00:31  5-MIN KMSN 221600Z 01004KT 10SM CLR M03/M08 A3027 540 68 -1500 010/04 RMK AO2
14837KMSN MSN20020222100509602/22/02 10:05:31  5-MIN KMSN 221605Z 33004KT 10SM CLR M03/M08 A3027 540 68 -1500 330/04 RMK AO2
14837KMSN MSN20020222101009602/22/02 10:10:31  5-MIN KMSN 221610Z 32004KT 10SM CLR M03/M08 A3027 540 68 -1500 310/04 RMK AO2
14837KMSN MSN20020222101509602/22/02 10:15:31  5-MIN KMSN 221615Z 35003KT 10SM CLR M03/M08 A3027 540 66 -1400 350/03 RMK AO2
14837KMSN MSN20020222102009602/22/02 10:20:31  5-MIN KMSN 221620Z 00000KT 10SM CLR M03/M08 A3027 540 66 -1400 000/00 RMK AO2
14837KMSN MSN20020222102509602/22/02 10:25:31  5-MIN KMSN 221625Z 34004KT 10SM CLR M03/M08 A3028 540 68 -1400 330/04 RMK AO2
14837KMSN MSN20020222103009602/22/02 10:30:31  5-MIN KMSN 221630Z VRB05KT 10SM CLR M03/M08 A3028 540 66 -1400 VRB/05 RMK AO2
14837KMSN MSN20020222103509602/22/02 10:35:31  5-MIN KMSN 221635Z 29003KT 10SM CLR M03/M09 A3027 540 63 -1400 290/03 RMK AO2
14837KMSN MSN20020222104009602/22/02 10:40:31  5-MIN KMSN 221640Z 33004KT 10SM CLR M03/M08 A3027 540 66 -1400 330/04 RMK AO2
14837KMSN MSN20020222104509602/22/02 10:45:31  5-MIN KMSN 221645Z 30005KT 10SM CLR M03/M08 A3027 540 66 -1400 300/05 RMK AO2
14837KMSN MSN20020222105011302/22/02 10:50:31  5-MIN KMSN 221650Z 30005KT 10SM CLR M03/M08 A3027 540 66 -1400 300/05 RMK AO2 SLP263 T10281083
14837KMSN MSN20020222105509602/22/02 10:55:31  5-MIN KMSN 221655Z VRB04KT 10SM CLR M03/M08 A3027 540 66 -1400 VRB/04 RMK AO2
14837KMSN MSN20020222110009602/22/02 11:00:31  5-MIN KMSN 221700Z VRB04KT 10SM CLR M02/M08 A3027 540 66 -1300 VRB/04 RMK AO2
14837KMSN MSN20020222110509602/22/02 11:05:31  5-MIN KMSN 221705Z VRB03KT 10SM CLR M02/M08 A3027 540 66 -1300 VRB/03 RMK AO2
14837KMSN MSN20020222111009602/22/02 11:10:31  5-MIN KMSN 221710Z 02004KT 10SM CLR M02/M08 A3027 550 63 -1300 020/04 RMK AO2
14837KMSN MSN20020222111509602/22/02 11:15:31  5-MIN KMSN 221715Z VRB03KT 10SM CLR M02/M08 A3027 550 63 -1300 VRB/03 RMK AO2
14837KMSN MSN20020222112009602/22/02 11:20:31  5-MIN KMSN 221720Z 00000KT 10SM CLR M02/M08 A3026 550 63 -1300 000/00 RMK AO2
14837KMSN MSN20020222112509602/22/02 11:25:31  5-MIN KMSN 221725Z 00000KT 10SM CLR M02/M08 A3026 550 60 -1300 000/00 RMK AO2
14837KMSN MSN20020222113009602/22/02 11:30:31  5-MIN KMSN 221730Z VRB03KT 10SM CLR M02/M08 A3026 550 63 -1300 VRB/03 RMK AO2
14837KMSN MSN20020222113509602/22/02 11:35:31  5-MIN KMSN 221735Z 02004KT 10SM CLR M01/M08 A3026 550 60 -1200 020/04 RMK AO2
14837KMSN MSN20020222114009602/22/02 11:40:31  5-MIN KMSN 221740Z VRB04KT 10SM CLR M02/M07 A3026 550 66 -1300 VRB/04 RMK AO2
14837KMSN MSN20020222114509602/22/02 11:45:31  5-MIN KMSN 221745Z 02004KT 10SM CLR M01/M08 A3026 560 60 -1200 020/04 RMK AO2
14837KMSN MSN20020222115013102/22/02 11:50:31  5-MIN KMSN 221750Z VRB04KT 10SM CLR M01/M08 A3025 560 60 -1200 VRB/04 RMK AO2 SLP257 T10111078 11011 21094 50001
14837KMSN MSN20020222115509602/22/02 11:55:31  5-MIN KMSN 221755Z 00000KT 10SM CLR M01/M08 A3025 560 60 -1200 000/00 RMK AO2
14837KMSN MSN20020222120009602/22/02 12:00:31  5-MIN KMSN 221800Z 29005KT 10SM CLR M01/M07 A3025 560 63 -1200 290/05 RMK AO2
14837KMSN MSN20020222120509602/22/02 12:05:31  5-MIN KMSN 221805Z VRB05KT 10SM CLR M01/M08 A3025 560 58 -1100 VRB/05 RMK AO2
14837KMSN MSN20020222121009602/22/02 12:10:31  5-MIN KMSN 221810Z 01004KT 10SM CLR M01/M08 A3024 570 58 -1100 010/04 RMK AO2
14837KMSN MSN20020222121509602/22/02 12:15:31  5-MIN KMSN 221815Z VRB04KT 10SM CLR M01/M08 A3024 570 58 -1100 VRB/04 RMK AO2
14837KMSN MSN20020222122009602/22/02 12:20:31  5-MIN KMSN 221820Z VRB04KT 10SM CLR M01/M09 A3024 570 51 -1100 VRB/04 RMK AO2
14837KMSN MSN20020222122509602/22/02 12:25:31  5-MIN KMSN 221825Z VRB04KT 10SM CLR M01/M08 A3023 580 56 -1100 VRB/04 RMK AO2
14837KMSN MSN20020222123009602/22/02 12:30:31  5-MIN KMSN 221830Z 00000KT 10SM CLR M01/M09 A3023 580 55 -1200 000/00 RMK AO2
14837KMSN MSN20020222123509502/22/02 12:35:31  5-MIN KMSN 221835Z 35004KT 10SM CLR 00/M08 A3023 580 56 -1000 350/04 RMK AO2
14837KMSN MSN20020222124009602/22/02 12:40:31  5-MIN KMSN 221840Z VRB03KT 10SM CLR M01/M08 A3023 580 56 -1100 VRB/03 RMK AO2
14837KMSN MSN20020222124509602/22/02 12:45:31  5-MIN KMSN 221845Z 00000KT 10SM CLR M01/M08 A3023 580 56 -1100 000/00 RMK AO2
14837KMSN MSN20020222125011202/22/02 12:50:31  5-MIN KMSN 221850Z 00000KT 10SM CLR 00/M08 A3022 580 53 -1000 000/00 RMK AO2 SLP247 T00001083
14837KMSN MSN20020222125509502/22/02 12:55:31  5-MIN KMSN 221855Z VRB04KT 10SM CLR 00/M08 A3022 590 53 -1000 VRB/04 RMK AO2
14837KMSN MSN20020222130009502/22/02 13:00:31  5-MIN KMSN 221900Z VRB04KT 10SM CLR 00/M08 A3022 590 53 -1000 VRB/04 RMK AO2
14837KMSN MSN20020222130509602/22/02 13:05:31  5-MIN KMSN 221905Z 29005KT 10SM CLR M01/M09 A3022 590 53 -1100 290/05 RMK AO2
14837KMSN MSN20020222131009502/22/02 13:10:31  5-MIN KMSN 221910Z 31005KT 10SM CLR 00/M09 A3022 590 51 -1000 310/05 RMK AO2
14837KMSN MSN20020222131509502/22/02 13:15:31  5-MIN KMSN 221915Z VRB04KT 10SM CLR 00/M09 A3021 590 51 -1000 VRB/04 RMK AO2
14837KMSN MSN20020222132009402/22/02 13:20:31  5-MIN KMSN 221920Z VRB03KT 10SM CLR 01/M09 A3021 600 47 -900 VRB/03 RMK AO2
14837KMSN MSN20020222132509402/22/02 13:25:31  5-MIN KMSN 221925Z 00000KT 10SM CLR 01/M08 A3021 600 51 -900 000/00 RMK AO2
14837KMSN MSN20020222133009502/22/02 13:30:31  5-MIN KMSN 221930Z 24004KT 10SM CLR 00/M09 A3020 600 51 -1000 240/04 RMK AO2
14837KMSN MSN20020222133509402/22/02 13:35:31  5-MIN KMSN 221935Z 00000KT 10SM CLR 01/M09 A3020 610 49 -900 000/00 RMK AO2
14837KMSN MSN20020222134009402/22/02 13:40:31  5-MIN KMSN 221940Z 00000KT 10SM CLR 01/M09 A3020 610 47 -900 000/00 RMK AO2
14837KMSN MSN20020222134509402/22/02 13:45:31  5-MIN KMSN 221945Z 00000KT 10SM CLR 01/M10 A3019 610 45 -900 000/00 RMK AO2
14837KMSN MSN20020222135011102/22/02 13:50:31  5-MIN KMSN 221950Z 00000KT 10SM CLR 01/M11 A3019 610 43 -900 000/00 RMK AO2 SLP237 T00061106
14837KMSN MSN20020222135509402/22/02 13:55:31  5-MIN KMSN 221955Z VRB03KT 10SM CLR 01/M09 A3019 610 45 -800 VRB/03 RMK AO2
14837KMSN MSN20020222140009402/22/02 14:00:31  5-MIN KMSN 222000Z 00000KT 10SM CLR 01/M09 A3019 610 47 -800 000/00 RMK AO2
14837KMSN MSN20020222140509402/22/02 14:05:31  5-MIN KMSN 222005Z VRB03KT 10SM CLR 01/M09 A3019 610 47 -800 VRB/03 RMK AO2
14837KMSN MSN20020222141009402/22/02 14:10:31  5-MIN KMSN 222010Z 00000KT 10SM CLR 01/M10 A3019 610 43 -800 000/00 RMK AO2
14837KMSN MSN20020222141509402/22/02 14:15:31  5-MIN KMSN 222015Z 00000KT 10SM CLR 02/M08 A3019 610 47 -800 000/00 RMK AO2
14837KMSN MSN20020222142009402/22/02 14:20:31  5-MIN KMSN 222020Z VRB03KT 10SM CLR 01/M08 A3019 610 49 -800 VRB/03 RMK AO2
14837KMSN MSN20020222142509402/22/02 14:25:31  5-MIN KMSN 222025Z 33004KT 10SM CLR 02/M08 A3019 620 47 -800 330/04 RMK AO2
14837KMSN MSN20020222143009402/22/02 14:30:31  5-MIN KMSN 222030Z 00000KT 10SM CLR 01/M09 A3019 620 47 -800 000/00 RMK AO2
14837KMSN MSN20020222143509402/22/02 14:35:31  5-MIN KMSN 222035Z 00000KT 10SM CLR 02/M07 A3019 620 52 -800 000/00 RMK AO2
14837KMSN MSN20020222144009402/22/02 14:40:31  5-MIN KMSN 222040Z 00000KT 10SM CLR 02/M07 A3018 620 50 -700 000/00 RMK AO2
14837KMSN MSN20020222144509402/22/02 14:45:31  5-MIN KMSN 222045Z 00000KT 10SM CLR 02/M08 A3018 620 49 -800 000/00 RMK AO2
14837KMSN MSN20020222145011702/22/02 14:50:31  5-MIN KMSN 222050Z VRB03KT 10SM CLR 02/M08 A3018 620 47 -800 VRB/03 RMK AO2 SLP233 T00171083 58003
14837KMSN MSN20020222145509402/22/02 14:55:31  5-MIN KMSN 222055Z VRB03KT 10SM CLR 02/M08 A3018 620 49 -800 VRB/03 RMK AO2
14837KMSN MSN20020222150009402/22/02 15:00:31  5-MIN KMSN 222100Z 11004KT 10SM CLR 02/M08 A3018 620 49 -800 110/04 RMK AO2
14837KMSN MSN20020222150509402/22/02 15:05:31  5-MIN KMSN 222105Z 10004KT 10SM CLR 02/M08 A3018 630 49 -800 100/04 RMK AO2
14837KMSN MSN20020222151009402/22/02 15:10:31  5-MIN KMSN 222110Z 09003KT 10SM CLR 02/M08 A3018 630 49 -800 090/03 RMK AO2
14837KMSN MSN20020222151509402/22/02 15:15:31  5-MIN KMSN 222115Z 00000KT 10SM CLR 02/M08 A3018 630 47 -800 000/00 RMK AO2
14837KMSN MSN20020222152009402/22/02 15:20:31  5-MIN KMSN 222120Z 00000KT 10SM CLR 02/M08 A3018 630 47 -800 000/00 RMK AO2
14837KMSN MSN20020222152509402/22/02 15:25:31  5-MIN KMSN 222125Z 00000KT 10SM CLR 01/M09 A3018 630 47 -800 000/00 RMK AO2
14837KMSN MSN20020222153009402/22/02 15:30:31  5-MIN KMSN 222130Z 00000KT 10SM CLR 02/M08 A3018 630 47 -800 000/00 RMK AO2
14837KMSN MSN20020222153509402/22/02 15:35:31  5-MIN KMSN 222135Z 00000KT 10SM CLR 02/M08 A3017 630 47 -800 000/00 RMK AO2
14837KMSN MSN20020222154009402/22/02 15:40:31  5-MIN KMSN 222140Z 00000KT 10SM CLR 02/M08 A3018 630 47 -800 000/00 RMK AO2
14837KMSN MSN20020222154509402/22/02 15:45:31  5-MIN KMSN 222145Z 08003KT 10SM CLR 02/M09 A3018 630 45 -800 080/03 RMK AO2
14837KMSN MSN20020222155011102/22/02 15:50:31  5-MIN KMSN 222150Z 00000KT 10SM CLR 02/M08 A3018 630 47 -800 000/00 RMK AO2 SLP231 T00171083
14837KMSN MSN20020222155509402/22/02 15:55:31  5-MIN KMSN 222155Z 00000KT 10SM CLR 02/M08 A3018 630 47 -800 000/00 RMK AO2
14837KMSN MSN20020222160009402/22/02 16:00:31  5-MIN KMSN 222200Z 00000KT 10SM CLR 02/M08 A3018 630 47 -800 000/00 RMK AO2
14837KMSN MSN20020222160509402/22/02 16:05:31  5-MIN KMSN 222205Z 00000KT 10SM CLR 02/M09 A3018 630 43 -800 000/00 RMK AO2
14837KMSN MSN20020222161009402/22/02 16:10:31  5-MIN KMSN 222210Z 27003KT 10SM CLR 02/M10 A3018 630 42 -800 270/03 RMK AO2
14837KMSN MSN20020222161509402/22/02 16:15:31  5-MIN KMSN 222215Z 00000KT 10SM CLR 01/M12 A3018 630 38 -800 000/00 RMK AO2
14837KMSN MSN20020222162009402/22/02 16:20:31  5-MIN KMSN 222220Z 28003KT 10SM CLR 01/M12 A3018 630 38 -800 280/03 RMK AO2
14837KMSN MSN20020222162509402/22/02 16:25:31  5-MIN KMSN 222225Z 00000KT 10SM CLR 01/M12 A3018 630 36 -800 000/00 RMK AO2
14837KMSN MSN20020222163009402/22/02 16:30:31  5-MIN KMSN 222230Z 27003KT 10SM CLR 01/M13 A3018 630 35 -800 270/03 RMK AO2
14837KMSN MSN20020222163509402/22/02 16:35:31  5-MIN KMSN 222235Z VRB03KT 10SM CLR 01/M13 A3018 630 35 -800 VRB/03 RMK AO2
14837KMSN MSN20020222164009402/22/02 16:40:31  5-MIN KMSN 222240Z 00000KT 10SM CLR 01/M12 A3018 630 38 -800 000/00 RMK AO2
14837KMSN MSN20020222164509402/22/02 16:45:31  5-MIN KMSN 222245Z 00000KT 10SM CLR 01/M11 A3017 630 40 -800 000/00 RMK AO2
14837KMSN MSN20020222165011102/22/02 16:50:31  5-MIN KMSN 222250Z 00000KT 10SM CLR 01/M09 A3017 630 47 -800 000/00 RMK AO2 SLP231 T00111089
14837KMSN MSN20020222165509402/22/02 16:55:31  5-MIN KMSN 222255Z 04003KT 10SM CLR 01/M08 A3017 630 54 -900 040/03 RMK AO2
14837KMSN MSN20020222170009402/22/02 17:00:31  5-MIN KMSN 222300Z 06004KT 10SM CLR 01/M07 A3017 630 58 -900 060/04 RMK AO2
14837KMSN MSN20020222170509402/22/02 17:05:31  5-MIN KMSN 222305Z 07004KT 10SM CLR 01/M07 A3017 630 58 -900 070/04 RMK AO2
14837KMSN MSN20020222171009402/22/02 17:10:31  5-MIN KMSN 222310Z 06003KT 10SM CLR 01/M07 A3017 630 58 -900 060/03 RMK AO2
14837KMSN MSN20020222171509402/22/02 17:15:31  5-MIN KMSN 222315Z 08004KT 10SM CLR 01/M06 A3017 630 61 -900 080/04 RMK AO2
14837KMSN MSN20020222172009502/22/02 17:20:31  5-MIN KMSN 222320Z 08004KT 10SM CLR 00/M06 A3017 630 66 -1000 080/04 RMK AO2
14837KMSN MSN20020222172509502/22/02 17:25:31  5-MIN KMSN 222325Z 08005KT 10SM CLR 00/M06 A3017 630 63 -1000 080/05 RMK AO2
14837KMSN MSN20020222173009502/22/02 17:30:31  5-MIN KMSN 222330Z 08005KT 10SM CLR 00/M06 A3017 630 63 -1000 080/05 RMK AO2
14837KMSN MSN20020222173509602/22/02 17:35:31  5-MIN KMSN 222335Z 08004KT 10SM CLR M01/M06 A3017 630 66 -1000 080/04 RMK AO2
14837KMSN MSN20020222174009602/22/02 17:40:31  5-MIN KMSN 222340Z 08005KT 10SM CLR M01/M06 A3017 630 69 -1000 080/05 RMK AO2
14837KMSN MSN20020222174509602/22/02 17:45:31  5-MIN KMSN 222345Z 09004KT 10SM CLR M01/M06 A3017 630 69 -1000 090/04 RMK AO2
14837KMSN MSN20020222175013102/22/02 17:50:31  5-MIN KMSN 222350Z 11004KT 10SM CLR M01/M06 A3017 630 69 -1000 110/04 RMK AO2 SLP231 T10061056 10022 21011 56023
14837KMSN MSN20020222175509602/22/02 17:55:31  5-MIN KMSN 222355Z 10005KT 10SM CLR M01/M06 A3017 630 69 -1000 100/05 RMK AO2
14837KMSN MSN20020222180009502/22/02 18:00:31  5-MIN KMSN 230000Z 11004KT 10SM CLR 00/M06 A3017 640 63 -1000 110/04 RMK AO2
14837KMSN MSN20020222180509602/22/02 18:05:31  5-MIN KMSN 230005Z 10005KT 10SM CLR M01/M06 A3017 640 66 -1000 100/05 RMK AO2
14837KMSN MSN20020222181009602/22/02 18:10:31  5-MIN KMSN 230010Z 10004KT 10SM CLR M01/M06 A3017 640 66 -1000 100/04 RMK AO2
14837KMSN MSN20020222181509602/22/02 18:15:31  5-MIN KMSN 230015Z 11004KT 10SM CLR M01/M06 A3017 640 66 -1000 100/04 RMK AO2
14837KMSN MSN20020222182009602/22/02 18:20:31  5-MIN KMSN 230020Z 11004KT 10SM CLR M01/M06 A3017 640 66 -1000 100/04 RMK AO2
14837KMSN MSN20020222182509602/22/02 18:25:31  5-MIN KMSN 230025Z 11005KT 10SM CLR M01/M06 A3017 640 66 -1000 110/05 RMK AO2
14837KMSN MSN20020222183009602/22/02 18:30:31  5-MIN KMSN 230030Z 11007KT 10SM CLR M01/M07 A3017 640 66 -1100 110/07 RMK AO2
14837KMSN MSN20020222183509602/22/02 18:35:31  5-MIN KMSN 230035Z 11006KT 10SM CLR M01/M07 A3017 640 66 -1100 110/06 RMK AO2
14837KMSN MSN20020222184009602/22/02 18:40:31  5-MIN KMSN 230040Z 12005KT 10SM CLR M02/M07 A3017 640 69 -1200 110/05 RMK AO2
14837KMSN MSN20020222184509602/22/02 18:45:31  5-MIN KMSN 230045Z 12004KT 10SM CLR M02/M07 A3017 630 69 -1200 120/04 RMK AO2
14837KMSN MSN20020222185011302/22/02 18:50:31  5-MIN KMSN 230050Z 13003KT 10SM CLR M02/M07 A3017 630 69 -1200 130/03 RMK AO2 SLP230 T10171067
14837KMSN MSN20020222185509602/22/02 18:55:31  5-MIN KMSN 230055Z 13004KT 10SM CLR M02/M07 A3017 640 69 -1200 120/04 RMK AO2
14837KMSN MSN20020222190009602/22/02 19:00:31  5-MIN KMSN 230100Z 13004KT 10SM CLR M02/M07 A3017 640 69 -1200 130/04 RMK AO2
14837KMSN MSN20020222190509602/22/02 19:05:31  5-MIN KMSN 230105Z 13004KT 10SM CLR M02/M07 A3017 640 69 -1200 130/04 RMK AO2
14837KMSN MSN20020222191009602/22/02 19:10:31  5-MIN KMSN 230110Z 13003KT 10SM CLR M02/M07 A3017 640 69 -1200 130/03 RMK AO2
14837KMSN MSN20020222191509602/22/02 19:15:31  5-MIN KMSN 230115Z 14004KT 10SM CLR M02/M07 A3017 640 66 -1200 140/04 RMK AO2
14837KMSN MSN20020222192009602/22/02 19:20:31  5-MIN KMSN 230120Z 14004KT 10SM CLR M02/M07 A3016 640 69 -1200 140/04 RMK AO2
14837KMSN MSN20020222192509602/22/02 19:25:31  5-MIN KMSN 230125Z 13004KT 10SM CLR M02/M07 A3016 640 66 -1200 130/04 RMK AO2
14837KMSN MSN20020222193009602/22/02 19:30:31  5-MIN KMSN 230130Z 13005KT 10SM CLR M02/M08 A3016 640 66 -1200 130/05 RMK AO2
14837KMSN MSN20020222193509602/22/02 19:35:31  5-MIN KMSN 230135Z 13004KT 10SM CLR M02/M08 A3016 650 66 -1200 130/04 RMK AO2
14837KMSN MSN20020222194009602/22/02 19:40:31  5-MIN KMSN 230140Z 14004KT 10SM CLR M02/M08 A3016 640 63 -1200 140/04 RMK AO2
14837KMSN MSN20020222194509602/22/02 19:45:31  5-MIN KMSN 230145Z 14004KT 10SM CLR M02/M07 A3016 650 66 -1200 140/04 RMK AO2
14837KMSN MSN20020222195011302/22/02 19:50:31  5-MIN KMSN 230150Z 15003KT 10SM CLR M02/M08 A3016 640 63 -1200 150/03 RMK AO2 SLP225 T10171078
14837KMSN MSN20020222195509602/22/02 19:55:31  5-MIN KMSN 230155Z 16004KT 10SM CLR M02/M08 A3016 650 60 -1100 150/04 RMK AO2
14837KMSN MSN20020222200009602/22/02 20:00:31  5-MIN KMSN 230200Z 15004KT 10SM CLR M02/M08 A3015 650 60 -1100 150/04 RMK AO2
14837KMSN MSN20020222200509602/22/02 20:05:31  5-MIN KMSN 230205Z 16004KT 10SM CLR M02/M08 A3015 650 60 -1100 150/04 RMK AO2
14837KMSN MSN20020222201009602/22/02 20:10:31  5-MIN KMSN 230210Z 15005KT 10SM CLR M02/M08 A3016 650 60 -1100 150/05 RMK AO2
14837KMSN MSN20020222201509602/22/02 20:15:31  5-MIN KMSN 230215Z 15004KT 10SM CLR M02/M08 A3016 650 60 -1100 150/04 RMK AO2
14837KMSN MSN20020222202009602/22/02 20:20:31  5-MIN KMSN 230220Z 14003KT 10SM CLR M02/M08 A3016 650 63 -1100 140/03 RMK AO2
14837KMSN MSN20020222202509602/22/02 20:25:31  5-MIN KMSN 230225Z 14004KT 10SM CLR M02/M08 A3015 650 63 -1200 140/04 RMK AO2
14837KMSN MSN20020222203009602/22/02 20:30:31  5-MIN KMSN 230230Z 13004KT 10SM CLR M03/M08 A3015 650 66 -1300 130/04 RMK AO2
14837KMSN MSN20020222203509602/22/02 20:35:31  5-MIN KMSN 230235Z 13005KT 10SM CLR M03/M08 A3015 660 71 -1400 130/05 RMK AO2
14837KMSN MSN20020222204009602/22/02 20:40:31  5-MIN KMSN 230240Z 14005KT 10SM CLR M03/M08 A3015 660 71 -1300 140/05 RMK AO2
14837KMSN MSN20020222204509602/22/02 20:45:31  5-MIN KMSN 230245Z 14004KT 10SM CLR M02/M08 A3015 660 66 -1200 140/04 RMK AO2
14837KMSN MSN20020222205011902/22/02 20:50:31  5-MIN KMSN 230250Z 15004KT 10SM CLR M02/M08 A3015 660 66 -1200 150/04 RMK AO2 SLP221 T10221078 56004
14837KMSN MSN20020222205509602/22/02 20:55:31  5-MIN KMSN 230255Z 16004KT 10SM CLR M02/M08 A3014 660 63 -1100 160/04 RMK AO2
14837KMSN MSN20020222210009602/22/02 21:00:31  5-MIN KMSN 230300Z 16005KT 10SM CLR M02/M08 A3014 660 63 -1100 160/05 RMK AO2
14837KMSN MSN20020222210509602/22/02 21:05:31  5-MIN KMSN 230305Z 16006KT 10SM CLR M02/M08 A3014 670 66 -1200 160/06 RMK AO2
14837KMSN MSN20020222211009602/22/02 21:10:31  5-MIN KMSN 230310Z 17006KT 10SM CLR M02/M08 A3013 670 66 -1200 160/06 RMK AO2
14837KMSN MSN20020222211509602/22/02 21:15:31  5-MIN KMSN 230315Z 16006KT 10SM CLR M02/M07 A3013 670 66 -1100 160/06 RMK AO2
14837KMSN MSN20020222212009602/22/02 21:20:31  5-MIN KMSN 230320Z 16006KT 10SM CLR M02/M08 A3013 670 66 -1200 160/06 RMK AO2
14837KMSN MSN20020222212509602/22/02 21:25:31  5-MIN KMSN 230325Z 16005KT 10SM CLR M03/M07 A3013 670 71 -1300 160/05 RMK AO2
14837KMSN MSN20020222213009602/22/02 21:30:31  5-MIN KMSN 230330Z 16005KT 10SM CLR M02/M08 A3013 670 66 -1200 160/05 RMK AO2
14837KMSN MSN20020222213509602/22/02 21:35:31  5-MIN KMSN 230335Z 17005KT 10SM CLR M02/M08 A3013 670 66 -1200 170/05 RMK AO2
14837KMSN MSN20020222214009602/22/02 21:40:31  5-MIN KMSN 230340Z 18005KT 10SM CLR M02/M08 A3013 670 66 -1200 170/05 RMK AO2
14837KMSN MSN20020222214509602/22/02 21:45:31  5-MIN KMSN 230345Z 17005KT 10SM CLR M02/M08 A3013 670 63 -1100 170/05 RMK AO2
14837KMSN MSN20020222215011302/22/02 21:50:31  5-MIN KMSN 230350Z 17006KT 10SM CLR M02/M08 A3013 670 66 -1200 160/06 RMK AO2 SLP213 T10221078
14837KMSN MSN20020222215509602/22/02 21:55:31  5-MIN KMSN 230355Z 17004KT 10SM CLR M02/M08 A3013 670 66 -1200 170/04 RMK AO2
14837KMSN MSN20020222220009602/22/02 22:00:31  5-MIN KMSN 230400Z 18006KT 10SM CLR M02/M08 A3013 670 66 -1200 180/06 RMK AO2
14837KMSN MSN20020222220509602/22/02 22:05:31  5-MIN KMSN 230405Z 17006KT 10SM CLR M02/M08 A3013 670 66 -1200 170/06 RMK AO2
14837KMSN MSN20020222221009602/22/02 22:10:31  5-MIN KMSN 230410Z 17007KT 10SM CLR M02/M08 A3013 670 63 -1100 170/07 RMK AO2
14837KMSN MSN20020222221509602/22/02 22:15:31  5-MIN KMSN 230415Z 18005KT 10SM CLR M02/M07 A3013 670 66 -1100 180/05 RMK AO2
14837KMSN MSN20020222222009602/22/02 22:20:31  5-MIN KMSN 230420Z 16006KT 10SM CLR M02/M08 A3013 670 66 -1200 160/06 RMK AO2
14837KMSN MSN20020222222509902/22/02 22:25:31  5-MIN KMSN 230425Z 17005KT 10SM FEW120 M03/M08 A3013 670 68 -1300 170/05 RMK AO2
14837KMSN MSN20020222223009902/22/02 22:30:31  5-MIN KMSN 230430Z 16006KT 10SM SCT120 M02/M08 A3013 670 66 -1200 160/06 RMK AO2
14837KMSN MSN20020222223509902/22/02 22:35:31  5-MIN KMSN 230435Z 17006KT 10SM BKN120 M02/M07 A3013 670 69 -1200 170/06 RMK AO2
14837KMSN MSN20020222224009902/22/02 22:40:31  5-MIN KMSN 230440Z 16007KT 10SM BKN120 M03/M07 A3012 680 71 -1300 160/07 RMK AO2
14837KMSN MSN20020222224509902/22/02 22:45:31  5-MIN KMSN 230445Z 17008KT 10SM BKN120 M03/M07 A3012 680 71 -1300 160/08 RMK AO2
14837KMSN MSN20020222225011602/22/02 22:50:31  5-MIN KMSN 230450Z 16008KT 10SM OVC110 M02/M06 A3012 680 75 -1200 160/08 RMK AO2 SLP212 T10221061
14837KMSN MSN20020222225509902/22/02 22:55:31  5-MIN KMSN 230455Z 16008KT 10SM OVC110 M02/M07 A3012 680 72 -1200 160/08 RMK AO2
14837KMSN MSN20020222230009902/22/02 23:00:31  5-MIN KMSN 230500Z 17006KT 10SM OVC110 M02/M07 A3012 680 72 -1200 170/06 RMK AO2
14837KMSN MSN20020222230509902/22/02 23:05:31  5-MIN KMSN 230505Z 17006KT 10SM OVC110 M02/M07 A3012 680 69 -1200 170/06 RMK AO2
14837KMSN MSN20020222231009902/22/02 23:10:31  5-MIN KMSN 230510Z 17005KT 10SM OVC120 M02/M07 A3012 680 72 -1200 170/05 RMK AO2
14837KMSN MSN20020222231509902/22/02 23:15:31  5-MIN KMSN 230515Z 17005KT 10SM OVC120 M02/M07 A3012 680 72 -1200 170/05 RMK AO2
14837KMSN MSN20020222232009902/22/02 23:20:31  5-MIN KMSN 230520Z 17005KT 10SM OVC120 M02/M07 A3012 680 72 -1200 170/05 RMK AO2
14837KMSN MSN20020222232509902/22/02 23:25:31  5-MIN KMSN 230525Z 16005KT 10SM OVC120 M02/M07 A3012 680 69 -1100 160/05 RMK AO2
14837KMSN MSN20020222233009902/22/02 23:30:31  5-MIN KMSN 230530Z 16005KT 10SM OVC120 M02/M07 A3012 680 72 -1200 160/05 RMK AO2
14837KMSN MSN20020222233509902/22/02 23:35:31  5-MIN KMSN 230535Z 16005KT 10SM OVC120 M02/M06 A3012 680 75 -1200 160/05 RMK AO2
14837KMSN MSN20020222234009902/22/02 23:40:31  5-MIN KMSN 230540Z 17004KT 10SM OVC110 M02/M06 A3012 680 75 -1200 170/04 RMK AO2
14837KMSN MSN20020222234509902/22/02 23:45:31  5-MIN KMSN 230545Z 16005KT 10SM OVC110 M02/M06 A3012 680 78 -1200 160/05 RMK AO2
14837KMSN MSN20020222235014402/22/02 23:50:31  5-MIN KMSN 230550Z 17004KT 10SM OVC110 M02/M06 A3012 680 78 -1200 170/04 RMK AO2 SLP209 T10221056 10000 21033 400221094 58009
14837KMSN MSN20020222235509902/22/02 23:55:31  5-MIN KMSN 230555Z 16005KT 10SM OVC110 M02/M06 A3012 680 78 -1200 160/05 RMK AO2
14837KMSN MSN20020223000009902/23/02 00:00:31  5-MIN KMSN 230600Z 16006KT 10SM OVC110 M02/M06 A3011 690 75 -1100 160/06 RMK AO2
14837KMSN MSN20020223000509902/23/02 00:05:31  5-MIN KMSN 230605Z 16006KT 10SM OVC100 M02/M06 A3011 690 75 -1100 160/06 RMK AO2
14837KMSN MSN20020223001009902/23/02 00:10:31  5-MIN KMSN 230610Z 16007KT 10SM OVC100 M02/M06 A3011 690 75 -1100 160/07 RMK AO2
14837KMSN MSN20020223001509902/23/02 00:15:31  5-MIN KMSN 230615Z 16007KT 10SM OVC100 M02/M06 A3011 690 75 -1100 160/07 RMK AO2
14837KMSN MSN20020223002009902/23/02 00:20:31  5-MIN KMSN 230620Z 16007KT 10SM OVC100 M02/M06 A3010 690 75 -1100 160/07 RMK AO2
14837KMSN MSN20020223002509902/23/02 00:25:31  5-MIN KMSN 230625Z 16007KT 10SM OVC100 M02/M06 A3010 700 75 -1100 160/07 RMK AO2
14837KMSN MSN20020223003009902/23/02 00:30:31  5-MIN KMSN 230630Z 17007KT 10SM OVC100 M01/M06 A3010 700 72 -1000 170/07 RMK AO2
14837KMSN MSN20020223003509902/23/02 00:35:31  5-MIN KMSN 230635Z 17006KT 10SM OVC095 M01/M06 A3010 700 72 -1000 170/06 RMK AO2
14837KMSN MSN20020223004009902/23/02 00:40:31  5-MIN KMSN 230640Z 17006KT 10SM OVC095 M01/M05 A3010 700 75 -1000 170/06 RMK AO2
14837KMSN MSN20020223004509902/23/02 00:45:31  5-MIN KMSN 230645Z 18008KT 10SM OVC095 M01/M05 A3010 700 75 -1000 180/08 RMK AO2
14837KMSN MSN20020223005011602/23/02 00:50:31  5-MIN KMSN 230650Z 17007KT 10SM OVC100 M01/M07 A3010 700 66 -1000 170/07 RMK AO2 SLP203 T10111067
14837KMSN MSN20020223005509902/23/02 00:55:31  5-MIN KMSN 230655Z 17007KT 10SM OVC095 M01/M06 A3010 700 69 -1000 170/07 RMK AO2
14837KMSN MSN20020223010009902/23/02 01:00:31  5-MIN KMSN 230700Z 17008KT 10SM OVC095 M01/M07 A3010 700 66 -1000 170/08 RMK AO2
14837KMSN MSN20020223010509902/23/02 01:05:31  5-MIN KMSN 230705Z 17008KT 10SM OVC090 M01/M06 A3010 700 69 -1000 170/08 RMK AO2
14837KMSN MSN20020223011009902/23/02 01:10:31  5-MIN KMSN 230710Z 17008KT 10SM OVC095 M01/M07 A3009 700 66 -1000 170/08 RMK AO2
14837KMSN MSN20020223011509902/23/02 01:15:31  5-MIN KMSN 230715Z 18007KT 10SM OVC095 M01/M06 A3009 700 69 -1000 170/07 RMK AO2
14837KMSN MSN20020223012009902/23/02 01:20:31  5-MIN KMSN 230720Z 17007KT 10SM OVC090 M01/M06 A3009 700 69 -1000 170/07 RMK AO2
14837KMSN MSN20020223012509802/23/02 01:25:31  5-MIN KMSN 230725Z 18007KT 10SM OVC095 M01/M06 A3009 710 66 -900 180/07 RMK AO2
14837KMSN MSN20020223013009802/23/02 01:30:31  5-MIN KMSN 230730Z 18008KT 10SM OVC095 M01/M07 A3009 710 63 -900 180/08 RMK AO2
14837KMSN MSN20020223013509802/23/02 01:35:31  5-MIN KMSN 230735Z 18007KT 10SM OVC095 M01/M06 A3009 710 66 -900 180/07 RMK AO2
14837KMSN MSN20020223014009802/23/02 01:40:31  5-MIN KMSN 230740Z 18007KT 10SM OVC095 M01/M06 A3009 710 66 -900 180/07 RMK AO2
14837KMSN MSN20020223014509802/23/02 01:45:31  5-MIN KMSN 230745Z 18007KT 10SM OVC095 M01/M06 A3009 710 66 -900 180/07 RMK AO2
14837KMSN MSN20020223015011502/23/02 01:50:31  5-MIN KMSN 230750Z 18006KT 10SM OVC095 M01/M06 A3009 710 66 -900 180/06 RMK AO2 SLP198 T10061061
14837KMSN MSN20020223015509802/23/02 01:55:31  5-MIN KMSN 230755Z 18007KT 10SM OVC095 M01/M07 A3009 710 63 -900 180/07 RMK AO2
14837KMSN MSN20020223020009802/23/02 02:00:31  5-MIN KMSN 230800Z 17006KT 10SM OVC095 M01/M07 A3009 710 63 -900 170/06 RMK AO2
14837KMSN MSN20020223020509802/23/02 02:05:31  5-MIN KMSN 230805Z 17005KT 10SM OVC095 M01/M07 A3009 710 63 -900 170/05 RMK AO2
14837KMSN MSN20020223021009802/23/02 02:10:31  5-MIN KMSN 230810Z 17006KT 10SM OVC095 M01/M06 A3008 710 66 -900 170/06 RMK AO2
14837KMSN MSN20020223021509902/23/02 02:15:31  5-MIN KMSN 230815Z 17005KT 10SM OVC095 M01/M06 A3008 720 69 -1000 160/05 RMK AO2
14837KMSN MSN20020223022009902/23/02 02:20:31  5-MIN KMSN 230820Z 17005KT 10SM OVC095 M01/M06 A3008 720 72 -1000 170/05 RMK AO2
14837KMSN MSN20020223022509902/23/02 02:25:31  5-MIN KMSN 230825Z 17005KT 10SM OVC095 M01/M06 A3008 720 72 -1000 170/05 RMK AO2
14837KMSN MSN20020223023009902/23/02 02:30:31  5-MIN KMSN 230830Z 16006KT 10SM OVC090 M01/M06 A3008 720 72 -1000 160/06 RMK AO2
14837KMSN MSN20020223023509902/23/02 02:35:31  5-MIN KMSN 230835Z 17006KT 10SM OVC090 M01/M06 A3007 720 72 -1000 170/06 RMK AO2
14837KMSN MSN20020223024009902/23/02 02:40:31  5-MIN KMSN 230840Z 17006KT 10SM OVC095 M01/M06 A3007 730 72 -1000 170/06 RMK AO2
14837KMSN MSN20020223024509802/23/02 02:45:31  5-MIN KMSN 230845Z 17007KT 10SM OVC095 M01/M06 A3007 730 69 -900 170/07 RMK AO2
14837KMSN MSN20020223025012102/23/02 02:50:31  5-MIN KMSN 230850Z 17006KT 10SM OVC090 M01/M06 A3007 730 69 -900 170/06 RMK AO2 SLP191 T10061056 56009
14837KMSN MSN20020223025509802/23/02 02:55:31  5-MIN KMSN 230855Z 17006KT 10SM OVC095 M01/M06 A3007 730 69 -900 170/06 RMK AO2
14837KMSN MSN20020223030009802/23/02 03:00:31  5-MIN KMSN 230900Z 18006KT 10SM OVC095 M01/M06 A3006 730 66 -900 170/06 RMK AO2
14837KMSN MSN20020223030509702/23/02 03:05:31  5-MIN KMSN 230905Z 17006KT 10SM OVC095 00/M06 A3006 730 63 -800 170/06 RMK AO2
14837KMSN MSN20020223031009702/23/02 03:10:31  5-MIN KMSN 230910Z 18006KT 10SM OVC095 00/M06 A3006 740 63 -800 170/06 RMK AO2
14837KMSN MSN20020223031509802/23/02 03:15:31  5-MIN KMSN 230915Z 17006KT 10SM OVC095 M01/M06 A3006 740 69 -900 170/06 RMK AO2
14837KMSN MSN20020223032009802/23/02 03:20:31  5-MIN KMSN 230920Z 17007KT 10SM OVC095 M01/M06 A3005 740 66 -900 170/07 RMK AO2
14837KMSN MSN20020223032509702/23/02 03:25:31  5-MIN KMSN 230925Z 18007KT 10SM BKN095 00/M06 A3005 740 63 -800 170/07 RMK AO2
14837KMSN MSN20020223033009702/23/02 03:30:31  5-MIN KMSN 230930Z 18006KT 10SM BKN095 00/M06 A3005 740 63 -800 180/06 RMK AO2
14837KMSN MSN20020223033509702/23/02 03:35:31  5-MIN KMSN 230935Z 18006KT 10SM SCT095 00/M06 A3005 750 63 -800 180/06 RMK AO2
14837KMSN MSN20020224193010402/24/02 19:30:31  5-MIN KMSN 250130Z 18010KT 10SM BKN080 OVC095 12/04 A2969 1080 58 1000 180/10 RMK AO2
14837KMSN MSN20020224193510402/24/02 19:35:31  5-MIN KMSN 250135Z 18010KT 10SM BKN080 OVC095 12/04 A2969 1080 56 1000 180/10 RMK AO2
14837KMSN MSN20020224194010402/24/02 19:40:31  5-MIN KMSN 250140Z 18010KT 10SM BKN080 OVC090 12/04 A2969 1080 56 1000 180/10 RMK AO2
14837KMSN MSN20020224194509702/24/02 19:45:31  5-MIN KMSN 250145Z 18009KT 10SM OVC085 12/04 A2969 1080 56 1000 180/09 RMK AO2
14837KMSN MSN20020224195012102/24/02 19:50:31  5-MIN KMSN 250150Z 19009KT 10SM SCT080 OVC095 12/03 A2969 1080 54 1000 180/09 RMK AO2 SLP058 T01220033
14837KMSN MSN20020224195510402/24/02 19:55:31  5-MIN KMSN 250155Z 19010KT 10SM FEW080 OVC095 12/03 A2969 1070 54 1000 190/10 RMK AO2
14837KMSN MSN20020224200010402/24/02 20:00:31  5-MIN KMSN 250200Z 18009KT 10SM FEW080 OVC095 12/03 A2970 1070 54 1000 180/09 RMK AO2
14837KMSN MSN20020224200509702/24/02 20:05:31  5-MIN KMSN 250205Z 18008KT 10SM OVC090 12/03 A2970 1070 56 1000 180/08 RMK AO2
14837KMSN MSN20020224201009702/24/02 20:10:31  5-MIN KMSN 250210Z 19008KT 10SM OVC090 12/03 A2970 1070 56 1000 180/08 RMK AO2
14837KMSN MSN20020224201509702/24/02 20:15:31  5-MIN KMSN 250215Z 18007KT 10SM OVC090 12/03 A2970 1070 56 1000 180/07 RMK AO2
14837KMSN MSN20020224202009702/24/02 20:20:31  5-MIN KMSN 250220Z 18007KT 10SM OVC090 12/03 A2970 1070 56 1000 180/07 RMK AO2
14837KMSN MSN20020224202510402/24/02 20:25:31  5-MIN KMSN 250225Z 18007KT 10SM FEW075 OVC090 12/03 A2970 1070 56 1000 180/07 RMK AO2
14837KMSN MSN20020224203010402/24/02 20:30:31  5-MIN KMSN 250230Z 18007KT 10SM FEW075 OVC090 12/03 A2970 1070 56 1000 180/07 RMK AO2
14837KMSN MSN20020224203510302/24/02 20:35:31  5-MIN KMSN 250235Z 18007KT 10SM FEW075 OVC090 11/03 A2970 1070 58 900 180/07 RMK AO2
14837KMSN MSN20020224204010302/24/02 20:40:31  5-MIN KMSN 250240Z 18008KT 10SM FEW075 OVC090 11/03 A2970 1070 58 900 180/08 RMK AO2
14837KMSN MSN20020224204510302/24/02 20:45:31  5-MIN KMSN 250245Z 18007KT 10SM FEW075 OVC095 11/03 A2970 1070 61 800 180/07 RMK AO2
14837KMSN MSN20020224205012602/24/02 20:50:31  5-MIN KMSN 250250Z 17006KT 10SM FEW075 BKN095 10/03 A2970 1070 63 800 170/06 RMK AO2 SLP061 T01000033 53005
14837KMSN MSN20020224205509602/24/02 20:55:31  5-MIN KMSN 250255Z 17007KT 10SM BKN095 10/03 A2970 1070 63 800 170/07 RMK AO2
14837KMSN MSN20020224210009602/24/02 21:00:31  5-MIN KMSN 250300Z 18006KT 10SM BKN095 09/03 A2970 1070 65 700 170/06 RMK AO2
14837KMSN MSN20020224210509602/24/02 21:05:31  5-MIN KMSN 250305Z 17007KT 10SM SCT095 09/03 A2970 1070 63 700 170/07 RMK AO2
14837KMSN MSN20020224211009602/24/02 21:10:31  5-MIN KMSN 250310Z 17008KT 10SM SCT095 09/03 A2970 1070 63 700 170/08 RMK AO2
14837KMSN MSN20020224211509602/24/02 21:15:31  5-MIN KMSN 250315Z 17007KT 10SM FEW090 09/03 A2970 1070 65 700 170/07 RMK AO2
14837KMSN MSN20020224212009602/24/02 21:20:31  5-MIN KMSN 250320Z 16008KT 10SM FEW090 09/03 A2970 1070 68 600 160/08 RMK AO2
14837KMSN MSN20020224212509602/24/02 21:25:31  5-MIN KMSN 250325Z 15009KT 10SM FEW085 09/03 A2969 1080 68 600 150/09 RMK AO2
14837KMSN MSN20020224213009602/24/02 21:30:31  5-MIN KMSN 250330Z 16009KT 10SM FEW085 09/03 A2969 1080 68 600 160/09 RMK AO2
14837KMSN MSN20020224213509602/24/02 21:35:31  5-MIN KMSN 250335Z 15010KT 10SM FEW085 09/03 A2969 1080 68 600 150/10 RMK AO2
14837KMSN MSN20020224214009602/24/02 21:40:31  5-MIN KMSN 250340Z 16009KT 10SM FEW085 09/03 A2969 1080 68 600 160/09 RMK AO2
14837KMSN MSN20020224214509302/24/02 21:45:31  5-MIN KMSN 250345Z 16010KT 10SM CLR 09/03 A2969 1080 68 600 160/10 RMK AO2
14837KMSN MSN20020224215011002/24/02 21:50:31  5-MIN KMSN 250350Z 17010KT 10SM CLR 09/03 A2969 1080 68 600 160/10 RMK AO2 SLP057 T00890033
14837KMSN MSN20020224215509302/24/02 21:55:31  5-MIN KMSN 250355Z 17008KT 10SM CLR 09/03 A2969 1080 68 600 170/08 RMK AO2
14837KMSN MSN20020224220009302/24/02 22:00:31  5-MIN KMSN 250400Z 17008KT 10SM CLR 09/03 A2969 1080 68 600 170/08 RMK AO2
14837KMSN MSN20020224220509302/24/02 22:05:31  5-MIN KMSN 250405Z 17007KT 10SM CLR 08/03 A2969 1080 70 600 170/07 RMK AO2
14837KMSN MSN20020224221009302/24/02 22:10:31  5-MIN KMSN 250410Z 18005KT 10SM CLR 08/03 A2969 1080 68 600 180/05 RMK AO2
14837KMSN MSN20020224221509302/24/02 22:15:31  5-MIN KMSN 250415Z VRB03KT 10SM CLR 08/03 A2970 1070 68 600 VRB/03 RMK AO2
14837KMSN MSN20020224222009302/24/02 22:20:31  5-MIN KMSN 250420Z VRB04KT 10SM CLR 08/03 A2970 1070 68 600 VRB/04 RMK AO2
14837KMSN MSN20020224222509302/24/02 22:25:31  5-MIN KMSN 250425Z 33006KT 10SM CLR 07/03 A2971 1060 76 400 330/06 RMK AO2
14837KMSN MSN20020224223009302/24/02 22:30:31  5-MIN KMSN 250430Z 32005KT 10SM CLR 07/03 A2971 1060 73 400 320/05 RMK AO2
14837KMSN MSN20020224223509302/24/02 22:35:31  5-MIN KMSN 250435Z VRB06KT 10SM CLR 07/02 A2971 1060 73 300 VRB/06 RMK AO2
14837KMSN MSN20020224224009202/24/02 22:40:31  5-MIN KMSN 250440Z 33006KT 9SM CLR 06/02 A2972 1050 76 200 330/06 RMK AO2
14837KMSN MSN20020224224509202/24/02 22:45:31  5-MIN KMSN 250445Z 33009KT 7SM CLR 04/02 A2972 1050 82 100 330/09 RMK AO2
14837KMSN MSN20020224225010702/24/02 22:50:31  5-MIN KMSN 250450Z 33009KT 7SM CLR 04/02 A2972 1050 85 0 330/09 RMK AO2 SLP069 T00390017
14837KMSN MSN20020224225509302/24/02 22:55:31  5-MIN KMSN 250455Z 34009KT 6SM BR CLR 03/01 A2973 1050 85 0 340/09 RMK AO2
14837KMSN MSN20020224230009302/24/02 23:00:31  5-MIN KMSN 250500Z 33008KT 6SM BR CLR 03/01 A2973 1040 85 0 330/08 RMK AO2
14837KMSN MSN20020224230509302/24/02 23:05:31  5-MIN KMSN 250505Z 34008KT 6SM BR CLR 03/01 A2973 1040 85 0 340/08 RMK AO2
14837KMSN MSN20020224231009302/24/02 23:10:31  5-MIN KMSN 250510Z 34008KT 6SM BR CLR 03/01 A2973 1040 85 0 340/08 RMK AO2
14837KMSN MSN20020224231509602/24/02 23:15:31  5-MIN KMSN 250515Z 34007KT 6SM BR CLR 03/01 A2973 1040 89 -100 340/07 RMK AO2
14837KMSN MSN20020224232009602/24/02 23:20:31  5-MIN KMSN 250520Z 34007KT 6SM BR CLR 03/01 A2973 1040 89 -100 330/07 RMK AO2
14837KMSN MSN20020224232509602/24/02 23:25:31  5-MIN KMSN 250525Z 35008KT 6SM BR CLR 03/01 A2973 1040 89 -100 350/08 RMK AO2
14837KMSN MSN20020224233009602/24/02 23:30:31  5-MIN KMSN 250530Z 34007KT 6SM BR CLR 03/01 A2973 1040 89 -100 340/07 RMK AO2
14837KMSN MSN20020224233509602/24/02 23:35:31  5-MIN KMSN 250535Z 35006KT 6SM BR CLR 03/01 A2973 1040 85 -100 350/06 RMK AO2
14837KMSN MSN20020224234009602/24/02 23:40:31  5-MIN KMSN 250540Z 35007KT 5SM BR CLR 02/01 A2973 1040 89 -200 350/07 RMK AO2
14837KMSN MSN20020224234509602/24/02 23:45:31  5-MIN KMSN 250545Z 36006KT 5SM BR CLR 02/01 A2974 1040 89 -200 350/06 RMK AO2
14837KMSN MSN20020224235014102/24/02 23:50:31  5-MIN KMSN 250550Z 35006KT 5SM BR CLR 02/01 A2974 1030 89 -200 350/06 RMK AO2 SLP074 T00220006 10128 20022 401670022 51006
14837KMSN MSN20020224235509602/24/02 23:55:31  5-MIN KMSN 250555Z 35006KT 5SM BR CLR 02/01 A2974 1040 89 -200 350/06 RMK AO2
14837KMSN MSN20020225000009602/25/02 00:00:31  5-MIN KMSN 250600Z 34006KT 5SM BR CLR 02/01 A2974 1030 89 -200 340/06 RMK AO2
14837KMSN MSN20020225000509602/25/02 00:05:31  5-MIN KMSN 250605Z 34005KT 5SM BR CLR 02/01 A2974 1030 89 -200 340/05 RMK AO2
14837KMSN MSN20020225001009902/25/02 00:10:31  5-MIN KMSN 250610Z 34007KT 5SM BR FEW008 02/01 A2974 1030 89 -200 340/07 RMK AO2
14837KMSN MSN20020225001509902/25/02 00:15:31  5-MIN KMSN 250615Z 33007KT 5SM BR SCT008 02/01 A2974 1030 92 -200 330/07 RMK AO2
14837KMSN MSN20020225002009902/25/02 00:20:31  5-MIN KMSN 250620Z 33006KT 5SM BR BKN008 02/01 A2975 1030 92 -200 330/06 RMK AO2
14837KMSN MSN20020225002509902/25/02 00:25:31  5-MIN KMSN 250625Z 34008KT 5SM BR BKN008 02/01 A2975 1020 92 -200 340/08 RMK AO2
14837KMSN MSN20020225003009902/25/02 00:30:31  5-MIN KMSN 250630Z 34009KT 5SM BR BKN008 03/01 A2975 1020 89 -100 340/09 RMK AO2
14837KMSN MSN20020225003509902/25/02 00:35:31  5-MIN KMSN 250635Z 34008KT 5SM BR OVC008 03/01 A2975 1020 89 -100 340/08 RMK AO2
14837KMSN MSN20020225004009902/25/02 00:40:31  5-MIN KMSN 250640Z 34008KT 5SM BR OVC008 03/01 A2976 1020 89 -100 340/08 RMK AO2
14837KMSN MSN20020225004510502/25/02 00:45:31  5-MIN KMSN 250645Z 34011G16KT 5SM BR OVC008 03/01 A2976 1020 89 -100 340/11G16 RMK AO2
14837KMSN MSN20020225005011602/25/02 00:50:31  5-MIN KMSN 250650Z 34011KT 5SM BR OVC008 03/01 A2976 1010 89 -100 340/11 RMK AO2 SLP081 T00280011
14837KMSN MSN20020225005509902/25/02 00:55:31  5-MIN KMSN 250655Z 34009KT 5SM BR OVC008 03/01 A2976 1010 89 -100 340/09 RMK AO2
14837KMSN MSN20020225010010502/25/02 01:00:31  5-MIN KMSN 250700Z 34010G16KT 5SM BR OVC008 03/01 A2976 1010 89 -100 340/10G16 RMK AO2
14837KMSN MSN20020225010512102/25/02 01:05:31  5-MIN KMSN 250705Z 34009G16KT 300V360 4SM BR OVC008 03/01 A2977 1010 89 -100 340/09G16 300V360 RMK AO2
14837KMSN MSN20020225011009902/25/02 01:10:31  5-MIN KMSN 250710Z 34010KT 4SM BR OVC008 03/01 A2977 1010 89 -100 340/10 RMK AO2
14837KMSN MSN20020225011509902/25/02 01:15:31  5-MIN KMSN 250715Z 34010KT 4SM BR OVC008 03/01 A2977 1000 89 -100 340/10 RMK AO2
14837KMSN MSN20020225012009902/25/02 01:20:31  5-MIN KMSN 250720Z 34008KT 4SM BR OVC008 03/01 A2978 1000 89 -200 340/08 RMK AO2
14837KMSN MSN20020225012511502/25/02 01:25:31  5-MIN KMSN 250725Z 33009KT 290V030 4SM BR OVC008 03/01 A2977 1000 89 -200 330/09 290V030 RMK AO2
14837KMSN MSN20020225013009902/25/02 01:30:31  5-MIN KMSN 250730Z 33009KT 4SM BR OVC008 03/01 A2978 1000 89 -200 330/09 RMK AO2
14837KMSN MSN20020225013509802/25/02 01:35:31  5-MIN KMSN 250735Z 34009KT 4SM BR OVC008 03/01 A2978 990 89 -200 340/09 RMK AO2
14837KMSN MSN20020225014009802/25/02 01:40:31  5-MIN KMSN 250740Z 34010KT 4SM BR OVC008 03/01 A2978 990 89 -200 340/10 RMK AO2
14837KMSN MSN20020225014509902/25/02 01:45:31  5-MIN KMSN 250745Z 34008KT 5SM BR OVC008 03/01 A2978 1000 89 -200 340/08 RMK AO2
14837KMSN MSN20020225015011602/25/02 01:50:31  5-MIN KMSN 250750Z 34009KT 5SM BR OVC008 03/01 A2977 1000 89 -200 340/09 RMK AO2 SLP086 T00280011
14837KMSN MSN20020225015509802/25/02 01:55:31  5-MIN KMSN 250755Z 34009KT 5SM BR OVC008 03/01 A2978 990 89 -200 340/09 RMK AO2
14837KMSN MSN20020225020009802/25/02 02:00:31  5-MIN KMSN 250800Z 34010KT 5SM BR OVC008 03/01 A2978 990 89 -200 340/10 RMK AO2
14837KMSN MSN20020225020509802/25/02 02:05:31  5-MIN KMSN 250805Z 35008KT 5SM BR OVC008 03/01 A2978 990 89 -200 350/08 RMK AO2
14837KMSN MSN20020225021009802/25/02 02:10:31  5-MIN KMSN 250810Z 34009KT 5SM BR OVC008 03/01 A2979 990 89 -200 340/09 RMK AO2
14837KMSN MSN20020225021509802/25/02 02:15:31  5-MIN KMSN 250815Z 35009KT 5SM BR OVC008 03/01 A2979 990 89 -200 350/09 RMK AO2
14837KMSN MSN20020225022009802/25/02 02:20:31  5-MIN KMSN 250820Z 34010KT 5SM BR OVC008 03/01 A2978 990 89 -200 340/10 RMK AO2
14837KMSN MSN20020225022509802/25/02 02:25:31  5-MIN KMSN 250825Z 35009KT 5SM BR OVC008 03/01 A2978 990 89 -200 350/09 RMK AO2
14837KMSN MSN20020225023009802/25/02 02:30:31  5-MIN KMSN 250830Z 35009KT 5SM BR OVC008 03/01 A2979 990 89 -200 340/09 RMK AO2
14837KMSN MSN20020225023510402/25/02 02:35:31  5-MIN KMSN 250835Z 35011G17KT 5SM BR OVC008 03/01 A2978 990 89 -200 350/11G17 RMK AO2
14837KMSN MSN20020225024010402/25/02 02:40:31  5-MIN KMSN 250840Z 35010G17KT 5SM BR OVC008 03/01 A2978 990 89 -200 350/10G17 RMK AO2
14837KMSN MSN20020225024509802/25/02 02:45:31  5-MIN KMSN 250845Z 36012KT 5SM BR OVC008 03/01 A2978 990 89 -200 360/12 RMK AO2
14837KMSN MSN20020225025012702/25/02 02:50:31  5-MIN KMSN 250850Z 35012G17KT 5SM BR OVC008 03/01 A2978 990 89 -200 350/12G17 RMK AO2 SLP089 T00280011 53013
14837KMSN MSN20020225025510402/25/02 02:55:31  5-MIN KMSN 250855Z 34012G17KT 5SM BR OVC008 03/01 A2979 990 89 -200 340/12G17 RMK AO2
14837KMSN MSN20020225030009802/25/02 03:00:31  5-MIN KMSN 250900Z 35011KT 5SM BR OVC008 02/01 A2979 990 92 -200 350/11 RMK AO2
14837KMSN MSN20020225030510402/25/02 03:05:31  5-MIN KMSN 250905Z 35012G17KT 5SM BR OVC008 02/01 A2979 980 92 -200 350/12G17 RMK AO2
14837KMSN MSN20020225031009802/25/02 03:10:31  5-MIN KMSN 250910Z 35009KT 5SM BR OVC008 02/01 A2979 980 92 -200 350/09 RMK AO2
14837KMSN MSN20020225031509802/25/02 03:15:31  5-MIN KMSN 250915Z 35008KT 5SM BR OVC008 02/01 A2979 980 92 -200 340/08 RMK AO2
14837KMSN MSN20020225032009802/25/02 03:20:31  5-MIN KMSN 250920Z 35010KT 5SM BR OVC008 02/01 A2980 980 92 -200 350/10 RMK AO2
14837KMSN MSN20020225032510402/25/02 03:25:31  5-MIN KMSN 250925Z 34010G16KT 5SM BR OVC008 02/01 A2980 970 92 -300 340/10G16 RMK AO2
14837KMSN MSN20020225033010402/25/02 03:30:31  5-MIN KMSN 250930Z 36010G16KT 5SM BR OVC008 02/01 A2980 970 92 -300 360/10G16 RMK AO2
14837KMSN MSN20020225033509802/25/02 03:35:31  5-MIN KMSN 250935Z 36009KT 5SM BR OVC006 02/01 A2980 970 92 -300 360/09 RMK AO2
14837KMSN MSN20020225034009802/25/02 03:40:31  5-MIN KMSN 250940Z 36008KT 5SM BR OVC006 02/01 A2981 970 92 -300 360/08 RMK AO2
14837KMSN MSN20020225034509802/25/02 03:45:31  5-MIN KMSN 250945Z 36011KT 5SM BR OVC006 02/01 A2981 970 92 -300 360/11 RMK AO2
14837KMSN MSN20020225035011502/25/02 03:50:31  5-MIN KMSN 250950Z 36010KT 5SM BR OVC006 02/01 A2981 960 92 -300 360/10 RMK AO2 SLP099 T00220011
14837KMSN MSN20020225035509802/25/02 03:55:31  5-MIN KMSN 250955Z 36012KT 5SM BR OVC006 02/01 A2982 960 92 -300 360/12 RMK AO2
14837KMSN MSN20020225040009802/25/02 04:00:31  5-MIN KMSN 251000Z 35011KT 6SM BR OVC006 02/01 A2982 960 89 -300 350/11 RMK AO2
14837KMSN MSN20020225040509502/25/02 04:05:31  5-MIN KMSN 251005Z 36011KT 7SM OVC006 02/01 A2982 950 89 -300 360/11 RMK AO2
14837KMSN MSN20020225041012302/25/02 04:10:31  5-MIN KMSN 251010Z 36012KT 7SM -SN OVC006 02/01 A2983 950 92 -400 360/12 RMK AO2 SNB08 CIG 006V009 P0000
14837KMSN MSN20020225041512602/25/02 04:15:31  5-MIN KMSN 251015Z 36011KT 6SM -SN BR OVC008 02/01 A2983 940 92 -400 360/11 RMK AO2 SNB08 CIG 006V010 P0000
14837KMSN MSN20020225042011402/25/02 04:20:31  5-MIN KMSN 251020Z 36012KT 5SM -SN BR OVC008 02/01 A2984 940 92 -400 360/12 RMK AO2 SNB08 P0000
14837KMSN MSN20020225042511402/25/02 04:25:31  5-MIN KMSN 251025Z 36012KT 5SM -SN BR OVC008 02/01 A2984 940 92 -400 360/12 RMK AO2 SNB08 P0000
14837KMSN MSN20020225043011402/25/02 04:30:31  5-MIN KMSN 251030Z 36011KT 5SM -SN BR OVC008 02/01 A2984 940 92 -400 360/11 RMK AO2 SNB08 P0000
14837KMSN MSN20020225043511402/25/02 04:35:31  5-MIN KMSN 251035Z 01010KT 5SM -SN BR OVC008 01/01 A2984 940 96 -400 010/10 RMK AO2 SNB08 P0001
14837KMSN MSN20020225044011402/25/02 04:40:31  5-MIN KMSN 251040Z 01012KT 5SM -SN BR OVC008 01/01 A2984 940 96 -400 010/12 RMK AO2 SNB08 P0001
14837KMSN MSN20020225044511402/25/02 04:45:31  5-MIN KMSN 251045Z 01012KT 5SM -SN BR OVC011 01/00 A2985 930 92 -400 360/12 RMK AO2 SNB08 P0001
14837KMSN MSN20020225045013102/25/02 04:50:31  5-MIN KMSN 251050Z 01012KT 5SM -SN BR OVC011 01/00 A2985 930 92 -400 360/12 RMK AO2 SNB08 SLP113 P0001 T00110000
14837KMSN MSN20020225045510802/25/02 04:55:31  5-MIN KMSN 251055Z 36013KT 5SM -SN BR OVC011 01/00 A2986 920 92 -500 360/13 RMK AO2 P0000
14837KMSN MSN20020225050010802/25/02 05:00:31  5-MIN KMSN 251100Z 36011KT 4SM -SN BR OVC013 01/00 A2986 920 92 -500 360/11 RMK AO2 P0000
14837KMSN MSN20020225050511502/25/02 05:05:31  5-MIN KMSN 251105Z 36010KT 3SM -SN BR FEW009 OVC015 01/00 A2986 920 96 -500 360/10 RMK AO2 P0000
14837KMSN MSN20020225051011902/25/02 05:10:31  5-MIN KMSN 251110Z 36010KT 2 1/2SM -SN BR BKN015 OVC020 01/00 A2986 920 96 -500 360/10 RMK AO2 P0000
14837KMSN MSN20020225051511902/25/02 05:15:31  5-MIN KMSN 251115Z 36010KT 1 3/4SM -SN BR BKN015 OVC020 01/00 A2986 920 96 -500 360/10 RMK AO2 P0000
14837KMSN MSN20020225052012202/25/02 05:20:31  5-MIN KMSN 251120Z 36009KT 2SM -SN BR BKN017 BKN022 OVC030 01/00 A2987 910 96 -500 360/09 RMK AO2 P0001
14837KMSN MSN20020225052512202/25/02 05:25:31  5-MIN KMSN 251125Z 36009KT 2SM -SN BR SCT015 BKN022 OVC030 01/00 A2987 910 96 -500 360/09 RMK AO2 P0001
14837KMSN MSN20020225053012602/25/02 05:30:31  5-MIN KMSN 251130Z 36009KT 1 3/4SM -SN BR SCT007 BKN017 OVC030 01/00 A2987 910 96 -500 360/09 RMK AO2 P0001
14837KMSN MSN20020225053512602/25/02 05:35:31  5-MIN KMSN 251135Z 36008KT 1 1/4SM -SN BR BKN007 BKN017 OVC030 01/00 A2987 910 96 -500 360/08 RMK AO2 P0001
14837KMSN MSN20020225054012602/25/02 05:40:31  5-MIN KMSN 251140Z 36008KT 1 1/4SM -SN BR BKN007 BKN023 OVC030 01/00 A2987 910 96 -500 360/08 RMK AO2 P0001
14837KMSN MSN20020225054512602/25/02 05:45:31  5-MIN KMSN 251145Z 36008KT 1 3/4SM -SN BR SCT007 BKN023 OVC030 01/00 A2988 910 96 -500 360/08 RMK AO2 P0002
14837KMSN MSN20020225055016902/25/02 05:50:31  5-MIN KMSN 251150Z 36008KT 3SM -SN BR SCT007 BKN023 OVC030 01/00 A2988 900 96 -600 360/08 RMK AO2 SLP124 P0002 60003 70003 T00060000 10028 20006 51017
14837KMSN MSN20020225055512202/25/02 05:55:31  5-MIN KMSN 251155Z 35007KT 4SM -SN BR SCT007 BKN020 OVC026 01/00 A2989 900 96 -600 350/07 RMK AO2 P0000
14837KMSN MSN20020225060012202/25/02 06:00:31  5-MIN KMSN 251200Z 35008KT 4SM -SN BR FEW005 BKN010 OVC025 01/00 A2989 890 96 -600 350/08 RMK AO2 P0000
14837KMSN MSN20020225060512202/25/02 06:05:31  5-MIN KMSN 251205Z 35009KT 3SM -SN BR SCT007 BKN019 OVC025 01/00 A2989 890 96 -600 350/09 RMK AO2 P0000
14837KMSN MSN20020225061012202/25/02 06:10:31  5-MIN KMSN 251210Z 36010KT 3SM -SN BR SCT009 BKN019 OVC027 01/00 A2989 890 96 -600 360/10 RMK AO2 P0000
14837KMSN MSN20020225061512602/25/02 06:15:31  5-MIN KMSN 251215Z 36008KT 2 1/2SM -SN BR SCT009 BKN019 OVC027 01/00 A2990 880 96 -600 360/08 RMK AO2 P0000
14837KMSN MSN20020225062012202/25/02 06:20:31  5-MIN KMSN 251220Z 36010KT 2SM -SN BR SCT009 BKN019 OVC027 01/00 A2990 880 96 -600 360/10 RMK AO2 P0000
14837KMSN MSN20020225062512902/25/02 06:25:31  5-MIN KMSN 251225Z 36008KT 1 1/4SM -SN BR SCT007 OVC019 01/00 A2990 880 96 -600 360/08 RMK AO2 TWR VIS 2 P0000
14837KMSN MSN20020225063012902/25/02 06:30:31  5-MIN KMSN 251230Z 36008KT 1 3/4SM -SN BR SCT007 OVC020 01/00 A2991 880 96 -600 360/08 RMK AO2 TWR VIS 2 P0000
14837KMSN MSN20020225063512202/25/02 06:35:31  5-MIN KMSN 251235Z 35007KT 2SM -SN BR SCT007 BKN016 OVC024 01/00 A2991 880 96 -600 350/07 RMK AO2 P0000
14837KMSN MSN20020225064013202/25/02 06:40:31  5-MIN KMSN 251240Z 36007KT 2SM -SN BR FEW007 BKN016 OVC022 01/00 A2991 880 96 -600 350/07 RMK AO2 SFC VIS 3 P0000
14837KMSN MSN20020225064512502/25/02 06:45:31  5-MIN KMSN 251245Z 35007KT 2SM -SN BR FEW007 OVC016 01/00 A2991 880 96 -600 350/07 RMK AO2 SFC VIS 3 P0000
14837KMSN MSN20020225065014502/25/02 06:50:31  5-MIN KMSN 251250Z 35009KT 2SM BR FEW007 OVC018 01/M01 A2991 880 92 -600 350/09 RMK AO2 SFC VIS 3 SNE49 SLP132 P0000 T00061006
14837KMSN MSN20020225065510302/25/02 06:55:31  5-MIN KMSN 251255Z 36009KT 8SM FEW007 OVC016 01/M01 A2991 870 92 -600 350/09 RMK AO2
14837KMSN MSN20020225070009702/25/02 07:00:31  5-MIN KMSN 251300Z 36008KT 10SM OVC016 01/M01 A2992 870 92 -600 350/08 RMK AO2
14837KMSN MSN20020225070509702/25/02 07:05:31  5-MIN KMSN 251305Z 35007KT 10SM OVC016 01/M01 A2992 870 92 -600 350/07 RMK AO2
14837KMSN MSN20020225071009702/25/02 07:10:31  5-MIN KMSN 251310Z 36008KT 10SM OVC016 01/M01 A2992 860 89 -600 350/08 RMK AO2
14837KMSN MSN20020225071509702/25/02 07:15:31  5-MIN KMSN 251315Z 36009KT 10SM OVC016 01/M01 A2993 860 89 -600 360/09 RMK AO2
14837KMSN MSN20020225072010302/25/02 07:20:31  5-MIN KMSN 251320Z 36010G15KT 10SM OVC016 01/M01 A2993 860 89 -600 360/10G15 RMK AO2
14837KMSN MSN20020225072509702/25/02 07:25:31  5-MIN KMSN 251325Z 35011KT 10SM OVC016 01/M01 A2993 850 89 -600 350/11 RMK AO2
14837KMSN MSN20020225073010302/25/02 07:30:31  5-MIN KMSN 251330Z 35010G16KT 10SM OVC014 01/M01 A2994 850 89 -600 350/10G16 RMK AO2
14837KMSN MSN20020225073509702/25/02 07:35:31  5-MIN KMSN 251335Z 34011KT 10SM OVC014 01/M01 A2994 850 89 -600 340/11 RMK AO2
14837KMSN MSN20020225074009702/25/02 07:40:31  5-MIN KMSN 251340Z 34010KT 10SM OVC016 01/M01 A2994 840 89 -600 340/10 RMK AO2
14837KMSN MSN20020225074509702/25/02 07:45:31  5-MIN KMSN 251345Z 34011KT 10SM OVC016 01/M02 A2995 840 85 -600 340/11 RMK AO2
14837KMSN MSN20020225075012002/25/02 07:50:31  5-MIN KMSN 251350Z 34012G18KT 10SM OVC016 01/M02 A2995 840 85 -600 340/12G18 RMK AO2 SLP148 T00061017
14837KMSN MSN20020225075510302/25/02 07:55:31  5-MIN KMSN 251355Z 35010G18KT 10SM OVC016 00/M01 A2995 840 92 -700 350/10G18 RMK AO2
14837KMSN MSN20020225080011002/25/02 08:00:31  5-MIN KMSN 251400Z 34007G15KT 10SM SCT013 OVC018 00/M01 A2995 830 92 -700 340/07G15 RMK AO2
14837KMSN MSN20020225080510302/25/02 08:05:31  5-MIN KMSN 251405Z 34009KT 8SM FEW011 OVC018 00/M01 A2995 830 92 -700 340/09 RMK AO2
14837KMSN MSN20020225081011002/25/02 08:10:31  5-MIN KMSN 251410Z 34008KT 7SM FEW008 BKN018 OVC023 00/M01 A2995 830 92 -700 340/08 RMK AO2
14837KMSN MSN20020225081510602/25/02 08:15:31  5-MIN KMSN 251415Z 35010KT 6SM BR BKN013 OVC018 00/M01 A2996 830 92 -700 340/10 RMK AO2
14837KMSN MSN20020225082010302/25/02 08:20:31  5-MIN KMSN 251420Z 34009KT 7SM BKN013 OVC018 00/M01 A2996 830 92 -700 340/09 RMK AO2
14837KMSN MSN20020225082510302/25/02 08:25:31  5-MIN KMSN 251425Z 35010KT 8SM BKN011 OVC020 00/M01 A2996 830 92 -700 340/10 RMK AO2
14837KMSN MSN20020225083010302/25/02 08:30:31  5-MIN KMSN 251430Z 34010KT 8SM BKN011 OVC020 00/M02 A2996 830 88 -700 340/10 RMK AO2
14837KMSN MSN20020225083510302/25/02 08:35:31  5-MIN KMSN 251435Z 33011KT 8SM BKN013 OVC020 00/M02 A2996 820 88 -700 330/11 RMK AO2
14837KMSN MSN20020225084010302/25/02 08:40:31  5-MIN KMSN 251440Z 34009KT 8SM BKN011 OVC020 00/M02 A2997 820 88 -700 340/09 RMK AO2
14837KMSN MSN20020225084511002/25/02 08:45:31  5-MIN KMSN 251445Z 35007KT 8SM FEW011 BKN015 OVC020 00/M01 A2997 820 92 -700 350/07 RMK AO2
14837KMSN MSN20020225085013202/25/02 08:50:31  5-MIN KMSN 251450Z 34007KT 7SM SCT011 OVC017 00/M01 A2997 820 92 -700 340/07 RMK AO2 SLP155 60000 T00001011 53033
14837KMSN MSN20020225085512202/25/02 08:55:31  5-MIN KMSN 251455Z 34008KT 7SM BKN011 BKN016 OVC021 00/M01 A2997 820 92 -700 340/08 RMK AO2 CIG 008V014
14837KMSN MSN20020225090011002/25/02 09:00:31  5-MIN KMSN 251500Z 33007KT 8SM FEW009 BKN014 OVC021 00/M02 A2998 810 88 -700 330/07 RMK AO2
14837KMSN MSN20020225090511002/25/02 09:05:31  5-MIN KMSN 251505Z 34009KT 9SM SCT009 BKN014 OVC021 00/M02 A2998 810 88 -700 340/09 RMK AO2
14837KMSN MSN20020225091011702/25/02 09:10:31  5-MIN KMSN 251510Z 34008G14KT 10SM FEW009 BKN013 OVC021 00/M02 A2998 810 85 -700 340/08G14 RMK AO2
14837KMSN MSN20020225091511102/25/02 09:15:31  5-MIN KMSN 251515Z 34008KT 10SM FEW009 SCT012 OVC021 00/M02 A2998 810 85 -700 340/08 RMK AO2
14837KMSN MSN20020225092010402/25/02 09:20:31  5-MIN KMSN 251520Z 33009KT 10SM FEW012 OVC021 00/M02 A2999 800 85 -700 330/09 RMK AO2
14837KMSN MSN20020225092510402/25/02 09:25:31  5-MIN KMSN 251525Z 34009KT 10SM FEW012 OVC021 00/M03 A2999 800 81 -700 340/09 RMK AO2
14837KMSN MSN20020225093009702/25/02 09:30:31  5-MIN KMSN 251530Z 34007KT 10SM OVC021 00/M03 A2999 800 81 -700 340/07 RMK AO2
14837KMSN MSN20020225093509702/25/02 09:35:31  5-MIN KMSN 251535Z 34010KT 10SM OVC019 00/M02 A2999 800 85 -700 340/10 RMK AO2
14837KMSN MSN20020225094011302/25/02 09:40:31  5-MIN KMSN 251540Z 34010KT 310V010 10SM OVC019 00/M03 A2999 800 81 -700 340/10 310V010 RMK AO2
14837KMSN MSN20020225094509702/25/02 09:45:31  5-MIN KMSN 251545Z 34009KT 10SM OVC019 00/M03 A2999 800 81 -800 340/09 RMK AO2
14837KMSN MSN20020225095011402/25/02 09:50:31  5-MIN KMSN 251550Z 35008KT 10SM OVC019 00/M03 A3000 790 81 -800 350/08 RMK AO2 SLP164 T00001028
14837KMSN MSN20020225095509702/25/02 09:55:31  5-MIN KMSN 251555Z 35009KT 10SM OVC019 00/M03 A3000 790 81 -800 350/09 RMK AO2
14837KMSN MSN20020225100009702/25/02 10:00:31  5-MIN KMSN 251600Z 35011KT 10SM OVC019 00/M03 A3001 790 78 -800 350/11 RMK AO2
14837KMSN MSN20020225100509702/25/02 10:05:31  5-MIN KMSN 251605Z 34010KT 10SM OVC019 00/M03 A3001 780 78 -800 340/10 RMK AO2
14837KMSN MSN20020225101009702/25/02 10:10:31  5-MIN KMSN 251610Z 34009KT 10SM OVC019 00/M04 A3001 780 75 -800 340/09 RMK AO2
14837KMSN MSN20020225101509702/25/02 10:15:31  5-MIN KMSN 251615Z 34010KT 10SM OVC019 00/M04 A3002 780 75 -800 340/10 RMK AO2
14837KMSN MSN20020225102010302/25/02 10:20:31  5-MIN KMSN 251620Z 35008G16KT 10SM OVC021 00/M04 A3002 770 75 -800 350/08G16 RMK AO2
14837KMSN MSN20020225102510302/25/02 10:25:31  5-MIN KMSN 251625Z 34008G16KT 10SM OVC021 00/M04 A3002 770 75 -800 340/08G16 RMK AO2
14837KMSN MSN20020225103009702/25/02 10:30:31  5-MIN KMSN 251630Z 34010KT 10SM OVC023 00/M04 A3002 770 75 -800 340/10 RMK AO2
14837KMSN MSN20020225103509702/25/02 10:35:31  5-MIN KMSN 251635Z 35010KT 10SM OVC023 00/M04 A3002 770 75 -800 350/10 RMK AO2
14837KMSN MSN20020225104009702/25/02 10:40:31  5-MIN KMSN 251640Z 35008KT 10SM OVC023 00/M04 A3002 770 75 -800 350/08 RMK AO2
14837KMSN MSN20020225104511302/25/02 10:45:31  5-MIN KMSN 251645Z 35007KT 320V020 10SM OVC023 00/M04 A3002 770 75 -800 350/07 320V020 RMK AO2
14837KMSN MSN20020225105011402/25/02 10:50:31  5-MIN KMSN 251650Z 35007KT 10SM OVC023 00/M04 A3002 770 75 -800 350/07 RMK AO2 SLP175 T00001039
14837KMSN MSN20020225105509702/25/02 10:55:31  5-MIN KMSN 251655Z 33007KT 10SM OVC023 00/M04 A3002 770 75 -800 330/07 RMK AO2
14837KMSN MSN20020225110009702/25/02 11:00:31  5-MIN KMSN 251700Z 35008KT 10SM OVC023 00/M04 A3002 770 75 -800 340/08 RMK AO2
14837KMSN MSN20020225110509702/25/02 11:05:31  5-MIN KMSN 251705Z 34006KT 10SM OVC023 00/M03 A3002 770 78 -800 340/06 RMK AO2
14837KMSN MSN20020225111009702/25/02 11:10:31  5-MIN KMSN 251710Z 35008KT 10SM OVC023 00/M03 A3002 770 78 -800 350/08 RMK AO2
14837KMSN MSN20020225111509702/25/02 11:15:31  5-MIN KMSN 251715Z 33009KT 10SM OVC021 00/M04 A3002 770 75 -800 330/09 RMK AO2
14837KMSN MSN20020225112010302/25/02 11:20:31  5-MIN KMSN 251720Z 35009G17KT 10SM OVC021 00/M04 A3002 770 75 -800 350/09G17 RMK AO2
14837KMSN MSN20020225112510302/25/02 11:25:31  5-MIN KMSN 251725Z 33009G17KT 10SM OVC021 00/M04 A3002 770 72 -800 330/09G17 RMK AO2
14837KMSN MSN20020225113009702/25/02 11:30:31  5-MIN KMSN 251730Z 34010KT 10SM OVC021 00/M04 A3002 770 72 -800 340/10 RMK AO2
14837KMSN MSN20020225113509802/25/02 11:35:31  5-MIN KMSN 251735Z 33008KT 10SM OVC021 M01/M04 A3002 780 75 -800 330/08 RMK AO2
14837KMSN MSN20020225114009802/25/02 11:40:31  5-MIN KMSN 251740Z 34009KT 10SM OVC021 M01/M04 A3002 770 75 -900 340/09 RMK AO2
14837KMSN MSN20020225114510402/25/02 11:45:31  5-MIN KMSN 251745Z 33009G15KT 10SM OVC021 M01/M04 A3002 770 75 -900 330/09G15 RMK AO2
14837KMSN MSN20020225115013902/25/02 11:50:31  5-MIN KMSN 251750Z 34007KT 10SM OVC021 M01/M04 A3002 770 75 -900 340/07 RMK AO2 SLP175 60000 T10061044 10006 21006 51028
14837KMSN MSN20020225115509802/25/02 11:55:31  5-MIN KMSN 251755Z 34008KT 10SM OVC021 M01/M04 A3002 770 75 -900 340/08 RMK AO2
14837KMSN MSN20020225120009802/25/02 12:00:31  5-MIN KMSN 251800Z 34008KT 10SM OVC021 M01/M04 A3002 780 75 -800 330/08 RMK AO2
14837KMSN MSN20020225120510402/25/02 12:05:31  5-MIN KMSN 251805Z 33011G15KT 10SM OVC021 M01/M05 A3001 780 72 -800 330/11G15 RMK AO2
14837KMSN MSN20020225121010402/25/02 12:10:31  5-MIN KMSN 251810Z 33006G15KT 10SM OVC021 M01/M04 A3002 780 75 -800 330/06G15 RMK AO2
14837KMSN MSN20020225121509802/25/02 12:15:31  5-MIN KMSN 251815Z 33006KT 10SM OVC021 M01/M04 A3001 780 75 -800 330/06 RMK AO2
14837KMSN MSN20020225122009802/25/02 12:20:31  5-MIN KMSN 251820Z 35009KT 10SM OVC021 M01/M05 A3001 780 72 -800 340/09 RMK AO2
14837KMSN MSN20020225122509802/25/02 12:25:31  5-MIN KMSN 251825Z 35009KT 10SM OVC021 M01/M05 A3000 790 72 -800 350/09 RMK AO2
14837KMSN MSN20020225123009802/25/02 12:30:31  5-MIN KMSN 251830Z 33008KT 10SM OVC021 M01/M04 A3001 780 75 -800 330/08 RMK AO2
14837KMSN MSN20020225123509802/25/02 12:35:31  5-MIN KMSN 251835Z 35010KT 10SM OVC023 M01/M04 A3001 780 75 -800 350/10 RMK AO2
14837KMSN MSN20020225124009802/25/02 12:40:31  5-MIN KMSN 251840Z 35010KT 10SM OVC023 M01/M05 A3001 790 72 -800 350/10 RMK AO2
14837KMSN MSN20020225124511402/25/02 12:45:31  5-MIN KMSN 251845Z 33008KT 300V360 10SM OVC023 M01/M05 A3001 790 72 -800 330/08 300V360 RMK AO2
14837KMSN MSN20020225125011402/25/02 12:50:31  5-MIN KMSN 251850Z 34008KT 10SM OVC023 00/M05 A3000 790 69 -800 340/08 RMK AO2 SLP169 T00001050
14837KMSN MSN20020225125509702/25/02 12:55:31  5-MIN KMSN 251855Z 33007KT 10SM OVC023 00/M04 A3001 790 72 -800 330/07 RMK AO2
14837KMSN MSN20020225130009702/25/02 13:00:31  5-MIN KMSN 251900Z 33006KT 10SM OVC023 00/M05 A3001 790 69 -800 330/06 RMK AO2
14837KMSN MSN20020225130509702/25/02 13:05:31  5-MIN KMSN 251905Z 35008KT 10SM OVC023 00/M05 A3000 790 69 -800 350/08 RMK AO2
14837KMSN MSN20020225131009702/25/02 13:10:31  5-MIN KMSN 251910Z 34006KT 10SM OVC023 00/M05 A3001 790 69 -800 340/06 RMK AO2
14837KMSN MSN20020225131509702/25/02 13:15:31  5-MIN KMSN 251915Z 35009KT 10SM OVC023 00/M05 A3001 780 69 -800 350/09 RMK AO2
14837KMSN MSN20020225132009702/25/02 13:20:31  5-MIN KMSN 251920Z 35008KT 10SM OVC023 00/M06 A3001 780 66 -800 350/08 RMK AO2
14837KMSN MSN20020225132509702/25/02 13:25:31  5-MIN KMSN 251925Z 33006KT 10SM OVC025 00/M06 A3002 780 66 -800 330/06 RMK AO2
14837KMSN MSN20020225133009702/25/02 13:30:31  5-MIN KMSN 251930Z 35009KT 10SM OVC025 00/M06 A3001 780 66 -800 350/09 RMK AO2
14837KMSN MSN20020225133509702/25/02 13:35:31  5-MIN KMSN 251935Z 35007KT 10SM OVC027 00/M06 A3001 780 66 -800 350/07 RMK AO2
14837KMSN MSN20020225134009702/25/02 13:40:31  5-MIN KMSN 251940Z 35007KT 10SM OVC027 00/M06 A3001 780 66 -800 340/07 RMK AO2
14837KMSN MSN20020225134509702/25/02 13:45:31  5-MIN KMSN 251945Z 34007KT 10SM OVC027 00/M05 A3001 780 69 -800 340/07 RMK AO2
14837KMSN MSN20020225135011402/25/02 13:50:31  5-MIN KMSN 251950Z 35006KT 10SM OVC027 00/M05 A3001 790 69 -800 340/06 RMK AO2 SLP169 T00001050
14837KMSN MSN20020225135509702/25/02 13:55:31  5-MIN KMSN 251955Z 34009KT 10SM OVC027 00/M06 A3000 790 66 -800 340/09 RMK AO2
14837KMSN MSN20020225140009702/25/02 14:00:31  5-MIN KMSN 252000Z 35008KT 10SM OVC027 00/M06 A3000 790 66 -800 340/08 RMK AO2
14837KMSN MSN20020225140509702/25/02 14:05:31  5-MIN KMSN 252005Z 35009KT 10SM OVC027 00/M06 A3000 790 63 -800 350/09 RMK AO2
14837KMSN MSN20020225141009702/25/02 14:10:31  5-MIN KMSN 252010Z 35008KT 10SM OVC027 00/M06 A3000 790 66 -800 350/08 RMK AO2
14837KMSN MSN20020225141509702/25/02 14:15:31  5-MIN KMSN 252015Z 34008KT 10SM OVC027 00/M06 A3001 790 66 -800 340/08 RMK AO2
14837KMSN MSN20020225142009702/25/02 14:20:31  5-MIN KMSN 252020Z 32006KT 10SM OVC027 00/M05 A3001 790 69 -800 320/06 RMK AO2
14837KMSN MSN20020225142509702/25/02 14:25:31  5-MIN KMSN 252025Z 34005KT 10SM OVC027 00/M05 A3001 780 69 -800 330/05 RMK AO2
14837KMSN MSN20020225143011302/25/02 14:30:31  5-MIN KMSN 252030Z 31008KT 280V350 10SM OVC027 00/M06 A3001 780 63 -800 310/08 280V350 RMK AO2
14837KMSN MSN20020225143509702/25/02 14:35:31  5-MIN KMSN 252035Z 32009KT 10SM OVC027 00/M06 A3001 780 66 -800 320/09 RMK AO2
14837KMSN MSN20020225144009702/25/02 14:40:31  5-MIN KMSN 252040Z 33009KT 10SM OVC027 00/M06 A3001 780 66 -800 330/09 RMK AO2
14837KMSN MSN20020225144509702/25/02 14:45:31  5-MIN KMSN 252045Z 31010KT 10SM OVC027 00/M06 A3001 780 63 -800 310/10 RMK AO2
14837KMSN MSN20020225145012002/25/02 14:50:31  5-MIN KMSN 252050Z 34008KT 10SM OVC027 00/M06 A3001 780 66 -800 340/08 RMK AO2 SLP172 T00001056 50016
14837KMSN MSN20020225145509702/25/02 14:55:31  5-MIN KMSN 252055Z 33008KT 10SM OVC027 00/M06 A3001 780 66 -800 330/08 RMK AO2
14837KMSN MSN20020225150009702/25/02 15:00:31  5-MIN KMSN 252100Z 32009KT 10SM OVC027 00/M06 A3001 780 66 -800 310/09 RMK AO2
14837KMSN MSN20020225150509702/25/02 15:05:31  5-MIN KMSN 252105Z 32009KT 10SM OVC027 00/M06 A3001 780 63 -800 320/09 RMK AO2
14837KMSN MSN20020225151009702/25/02 15:10:31  5-MIN KMSN 252110Z 34008KT 10SM OVC029 00/M06 A3002 770 63 -800 340/08 RMK AO2
14837KMSN MSN20020225151509702/25/02 15:15:31  5-MIN KMSN 252115Z 33006KT 10SM OVC029 00/M06 A3002 770 66 -800 330/06 RMK AO2
14837KMSN MSN20020225152009702/25/02 15:20:31  5-MIN KMSN 252120Z 31007KT 10SM OVC029 00/M06 A3002 770 63 -800 310/07 RMK AO2
14837KMSN MSN20020225152509702/25/02 15:25:31  5-MIN KMSN 252125Z 32009KT 10SM OVC029 00/M06 A3002 770 63 -800 320/09 RMK AO2
14837KMSN MSN20020225153009702/25/02 15:30:31  5-MIN KMSN 252130Z 32009KT 10SM OVC029 00/M07 A3002 770 61 -800 320/09 RMK AO2
14837KMSN MSN20020225153509702/25/02 15:35:31  5-MIN KMSN 252135Z 34007KT 10SM OVC031 00/M07 A3002 770 61 -800 340/07 RMK AO2
14837KMSN MSN20020225154009702/25/02 15:40:31  5-MIN KMSN 252140Z 33006KT 10SM OVC031 00/M07 A3002 770 61 -800 330/06 RMK AO2
14837KMSN MSN20020225154509702/25/02 15:45:31  5-MIN KMSN 252145Z 35006KT 10SM OVC033 00/M07 A3002 770 61 -800 350/06 RMK AO2
14837KMSN MSN20020225155011402/25/02 15:50:31  5-MIN KMSN 252150Z 32007KT 10SM OVC033 00/M07 A3002 770 61 -800 320/07 RMK AO2 SLP174 T00001067
14837KMSN MSN20020225155509702/25/02 15:55:31  5-MIN KMSN 252155Z VRB04KT 10SM OVC035 00/M06 A3002 770 63 -800 VRB/04 RMK AO2
14837KMSN MSN20020225160009702/25/02 16:00:31  5-MIN KMSN 252200Z 34008KT 10SM OVC035 00/M06 A3002 770 63 -800 340/08 RMK AO2
14837KMSN MSN20020225160509702/25/02 16:05:31  5-MIN KMSN 252205Z 33006KT 10SM OVC037 00/M06 A3002 780 63 -800 330/06 RMK AO2
14837KMSN MSN20020225161009702/25/02 16:10:31  5-MIN KMSN 252210Z 34007KT 10SM OVC037 00/M06 A3002 770 63 -800 340/07 RMK AO2
14837KMSN MSN20020225161509702/25/02 16:15:31  5-MIN KMSN 252215Z 34006KT 10SM OVC039 00/M06 A3002 770 63 -800 340/06 RMK AO2
14837KMSN MSN20020225162009702/25/02 16:20:31  5-MIN KMSN 252220Z 34005KT 10SM OVC039 00/M06 A3001 780 66 -800 330/05 RMK AO2
14837KMSN MSN20020225162510402/25/02 16:25:31  5-MIN KMSN 252225Z 35005KT 10SM FEW032 OVC041 01/M06 A3001 780 63 -700 340/05 RMK AO2
14837KMSN MSN20020225163009702/25/02 16:30:31  5-MIN KMSN 252230Z 34007KT 10SM OVC041 01/M06 A3001 780 63 -700 340/07 RMK AO2
14837KMSN MSN20020225163509702/25/02 16:35:31  5-MIN KMSN 252235Z 34007KT 10SM OVC039 01/M06 A3001 780 63 -700 340/07 RMK AO2
14837KMSN MSN20020225164009702/25/02 16:40:31  5-MIN KMSN 252240Z 33007KT 10SM OVC039 01/M06 A3001 780 61 -700 330/07 RMK AO2
14837KMSN MSN20020225164509702/25/02 16:45:31  5-MIN KMSN 252245Z 34009KT 10SM OVC039 01/M06 A3001 780 61 -700 340/09 RMK AO2
14837KMSN MSN20020225165012002/25/02 16:50:31  5-MIN KMSN 252250Z 34008G14KT 10SM OVC039 00/M06 A3001 780 63 -800 340/08G14 RMK AO2 SLP173 T00001061
14837KMSN MSN20020225165509702/25/02 16:55:31  5-MIN KMSN 252255Z 34006KT 10SM OVC039 00/M06 A3001 780 63 -800 330/06 RMK AO2
14837KMSN MSN20020225170009702/25/02 17:00:31  5-MIN KMSN 252300Z 34009KT 10SM OVC039 00/M06 A3002 780 63 -800 330/09 RMK AO2
14837KMSN MSN20020225170509702/25/02 17:05:31  5-MIN KMSN 252305Z 33007KT 10SM OVC039 00/M06 A3001 780 63 -800 330/07 RMK AO2
14837KMSN MSN20020225171009702/25/02 17:10:31  5-MIN KMSN 252310Z 33008KT 10SM OVC039 00/M06 A3002 780 66 -800 330/08 RMK AO2
14837KMSN MSN20020225171509702/25/02 17:15:31  5-MIN KMSN 252315Z 34010KT 10SM OVC039 00/M06 A3002 770 63 -800 340/10 RMK AO2
14837KMSN MSN20020225172009702/25/02 17:20:31  5-MIN KMSN 252320Z 32008KT 10SM OVC039 00/M06 A3002 770 63 -800 320/08 RMK AO2
14837KMSN MSN20020225172509702/25/02 17:25:31  5-MIN KMSN 252325Z 33007KT 10SM OVC039 00/M06 A3002 770 63 -800 330/07 RMK AO2
14837KMSN MSN20020225173009702/25/02 17:30:31  5-MIN KMSN 252330Z 34006KT 10SM OVC039 00/M06 A3003 770 63 -800 340/06 RMK AO2
14837KMSN MSN20020225173509702/25/02 17:35:31  5-MIN KMSN 252335Z 33008KT 10SM OVC039 00/M06 A3003 770 63 -800 330/08 RMK AO2
14837KMSN MSN20020225174009702/25/02 17:40:31  5-MIN KMSN 252340Z 33008KT 10SM OVC039 00/M06 A3003 770 63 -800 330/08 RMK AO2
14837KMSN MSN20020225174509702/25/02 17:45:31  5-MIN KMSN 252345Z 33008KT 10SM OVC039 00/M06 A3003 760 63 -800 330/08 RMK AO2
14837KMSN MSN20020225175013202/25/02 17:50:31  5-MIN KMSN 252350Z 33007KT 10SM OVC039 00/M06 A3003 760 63 -800 330/07 RMK AO2 SLP179 T00001061 10006 21006 55002
14837KMSN MSN20020225175509702/25/02 17:55:31  5-MIN KMSN 252355Z 32006KT 10SM OVC039 00/M06 A3003 760 63 -800 320/06 RMK AO2
14837KMSN MSN20020225180009702/25/02 18:00:31  5-MIN KMSN 260000Z 33007KT 10SM OVC039 00/M06 A3003 760 63 -800 330/07 RMK AO2
14837KMSN MSN20020225180509702/25/02 18:05:31  5-MIN KMSN 260005Z 33009KT 10SM OVC039 00/M06 A3003 760 63 -800 330/09 RMK AO2
14837KMSN MSN20020225181009702/25/02 18:10:31  5-MIN KMSN 260010Z 33007KT 10SM OVC039 00/M06 A3003 760 66 -800 330/07 RMK AO2
14837KMSN MSN20020225181509702/25/02 18:15:31  5-MIN KMSN 260015Z 32006KT 10SM OVC039 00/M06 A3003 760 63 -800 320/06 RMK AO2
14837KMSN MSN20020225182009802/25/02 18:20:31  5-MIN KMSN 260020Z 32006KT 10SM OVC039 M01/M06 A3004 760 69 -900 320/06 RMK AO2
14837KMSN MSN20020225182509802/25/02 18:25:31  5-MIN KMSN 260025Z 33007KT 10SM OVC039 M01/M06 A3004 760 69 -900 330/07 RMK AO2
14837KMSN MSN20020225183009802/25/02 18:30:31  5-MIN KMSN 260030Z 32008KT 10SM OVC039 M01/M06 A3004 760 69 -900 320/08 RMK AO2
14837KMSN MSN20020225183509802/25/02 18:35:31  5-MIN KMSN 260035Z 32009KT 10SM OVC039 M01/M06 A3004 760 69 -900 320/09 RMK AO2
14837KMSN MSN20020225184009802/25/02 18:40:31  5-MIN KMSN 260040Z 33011KT 10SM OVC039 M01/M06 A3004 760 69 -900 330/11 RMK AO2
14837KMSN MSN20020225184509802/25/02 18:45:31  5-MIN KMSN 260045Z 33009KT 10SM OVC037 M01/M06 A3004 750 66 -900 330/09 RMK AO2
14837KMSN MSN20020225185011502/25/02 18:50:31  5-MIN KMSN 260050Z 33009KT 10SM OVC037 M01/M06 A3004 750 66 -900 330/09 RMK AO2 SLP183 T10061061
14837KMSN MSN20020225185509802/25/02 18:55:31  5-MIN KMSN 260055Z 33009KT 10SM OVC037 M01/M06 A3004 750 66 -900 330/09 RMK AO2
14837KMSN MSN20020225190009802/25/02 19:00:31  5-MIN KMSN 260100Z 32008KT 10SM OVC037 M01/M06 A3004 750 69 -900 320/08 RMK AO2
14837KMSN MSN20020225190510402/25/02 19:05:31  5-MIN KMSN 260105Z 32009G15KT 10SM OVC039 M01/M06 A3004 750 69 -900 320/09G15 RMK AO2
14837KMSN MSN20020225191009802/25/02 19:10:31  5-MIN KMSN 260110Z 33010KT 10SM OVC039 M01/M06 A3004 750 69 -900 330/10 RMK AO2
14837KMSN MSN20020225191510402/25/02 19:15:31  5-MIN KMSN 260115Z 34008G16KT 10SM OVC039 M01/M06 A3004 760 69 -900 340/08G16 RMK AO2
14837KMSN MSN20020225192010402/25/02 19:20:31  5-MIN KMSN 260120Z 33011G16KT 10SM OVC039 M01/M06 A3004 760 69 -900 330/11G16 RMK AO2
14837KMSN MSN20020225192509802/25/02 19:25:31  5-MIN KMSN 260125Z 33008KT 10SM OVC039 M01/M06 A3004 760 69 -900 330/08 RMK AO2
14837KMSN MSN20020225193010402/25/02 19:30:31  5-MIN KMSN 260130Z 34010G16KT 10SM OVC039 M01/M06 A3004 760 69 -900 340/10G16 RMK AO2
14837KMSN MSN20020225193510402/25/02 19:35:31  5-MIN KMSN 260135Z 33008G16KT 10SM OVC039 M01/M06 A3004 760 69 -900 330/08G16 RMK AO2
14837KMSN MSN20020225194010502/25/02 19:40:31  5-MIN KMSN 260140Z 35006KT 10SM FEW025 OVC039 M01/M06 A3003 760 69 -900 350/06 RMK AO2
14837KMSN MSN20020225194510502/25/02 19:45:31  5-MIN KMSN 260145Z 34009KT 10SM FEW025 OVC039 M01/M06 A3003 760 69 -900 340/09 RMK AO2
14837KMSN MSN20020225195011502/25/02 19:50:31  5-MIN KMSN 260150Z 33011KT 10SM OVC037 M01/M06 A3003 760 69 -900 330/11 RMK AO2 SLP179 T10111061
14837KMSN MSN20020225195509902/25/02 19:55:31  5-MIN KMSN 260155Z 34011KT 10SM OVC037 M02/M07 A3003 760 69 -1000 340/11 RMK AO2
14837KMSN MSN20020225200009902/25/02 20:00:31  5-MIN KMSN 260200Z 34013KT 10SM OVC037 M02/M07 A3003 760 69 -1000 330/13 RMK AO2
14837KMSN MSN20020225200510502/25/02 20:05:31  5-MIN KMSN 260205Z 34012G17KT 10SM OVC037 M02/M07 A3003 760 69 -1000 340/12G17 RMK AO2
14837KMSN MSN20020225201010502/25/02 20:10:31  5-MIN KMSN 260210Z 34010G18KT 10SM OVC037 M02/M07 A3003 760 69 -1000 340/10G18 RMK AO2
14837KMSN MSN20020225201510502/25/02 20:15:31  5-MIN KMSN 260215Z 33010G18KT 10SM OVC037 M02/M07 A3003 760 69 -1000 330/10G18 RMK AO2
14837KMSN MSN20020225202010502/25/02 20:20:31  5-MIN KMSN 260220Z 33008G16KT 10SM OVC037 M02/M07 A3003 770 69 -1000 330/08G16 RMK AO2
14837KMSN MSN20020225202509902/25/02 20:25:31  5-MIN KMSN 260225Z 34009KT 10SM OVC037 M02/M07 A3002 770 69 -1000 330/09 RMK AO2
14837KMSN MSN20020225203009902/25/02 20:30:31  5-MIN KMSN 260230Z 33009KT 10SM OVC037 M02/M07 A3002 770 69 -1000 330/09 RMK AO2
14837KMSN MSN20020225203511502/25/02 20:35:31  5-MIN KMSN 260235Z 33010KT 10SM -SN OVC037 M02/M07 A3002 770 69 -1000 330/10 RMK AO2 SNB32 P0000
14837KMSN MSN20020225204011402/25/02 20:40:31  5-MIN KMSN 260240Z 33008KT 9SM -SN OVC037 M02/M07 A3002 770 69 -1000 330/08 RMK AO2 SNB32 P0000
14837KMSN MSN20020225204511402/25/02 20:45:31  5-MIN KMSN 260245Z 33011KT 9SM -SN OVC037 M02/M07 A3003 770 69 -1000 330/11 RMK AO2 SNB32 P0000
14837KMSN MSN20020225205014302/25/02 20:50:31  5-MIN KMSN 260250Z 33009KT 9SM -SN OVC037 M02/M07 A3002 770 66 -1000 330/09 RMK AO2 SNB32 SLP178 P0000 60000 T10171072 53006
14837KMSN MSN20020225205510802/25/02 20:55:31  5-MIN KMSN 260255Z 34009KT 9SM -SN OVC035 M02/M07 A3003 770 66 -1000 340/09 RMK AO2 P0000
14837KMSN MSN20020225210010802/25/02 21:00:31  5-MIN KMSN 260300Z 34010KT 9SM -SN OVC035 M02/M07 A3002 770 69 -1100 340/10 RMK AO2 P0000
14837KMSN MSN20020225210510802/25/02 21:05:31  5-MIN KMSN 260305Z 33009KT 9SM -SN OVC035 M02/M07 A3002 770 69 -1100 330/09 RMK AO2 P0000
14837KMSN MSN20020225211011402/25/02 21:10:31  5-MIN KMSN 260310Z 33012G17KT 9SM -SN OVC035 M02/M07 A3002 770 69 -1100 330/12G17 RMK AO2 P0000
14837KMSN MSN20020225211511602/25/02 21:15:31  5-MIN KMSN 260315Z 34010G17KT 9SM OVC037 M02/M07 A3002 770 69 -1100 340/10G17 RMK AO2 SNE15 P0000
14837KMSN MSN20020225212011602/25/02 21:20:31  5-MIN KMSN 260320Z 33010G15KT 9SM OVC037 M02/M08 A3002 770 66 -1100 330/10G15 RMK AO2 SNE15 P0000
14837KMSN MSN20020225212512402/25/02 21:25:31  5-MIN KMSN 260325Z 34010G15KT 10SM FEW030 OVC039 M02/M08 A3002 770 66 -1100 340/10G15 RMK AO2 SNE15 P0000
14837KMSN MSN20020225213012402/25/02 21:30:31  5-MIN KMSN 260330Z 34008G15KT 10SM FEW030 OVC039 M02/M08 A3002 770 66 -1100 340/08G15 RMK AO2 SNE15 P0000
14837KMSN MSN20020225213511802/25/02 21:35:31  5-MIN KMSN 260335Z 34007KT 10SM FEW030 OVC039 M02/M08 A3002 770 66 -1100 340/07 RMK AO2 SNE15 P0000
14837KMSN MSN20020225214011802/25/02 21:40:31  5-MIN KMSN 260340Z 33010KT 10SM FEW030 OVC041 M02/M07 A3002 770 69 -1100 330/10 RMK AO2 SNE15 P0000
14837KMSN MSN20020225214512402/25/02 21:45:31  5-MIN KMSN 260345Z 34011G17KT 10SM FEW030 OVC041 M02/M08 A3002 770 66 -1100 340/11G17 RMK AO2 SNE15 P0000
14837KMSN MSN20020225215014802/25/02 21:50:31  5-MIN KMSN 260350Z 34009G17KT 10SM -SN FEW030 OVC041 M02/M08 A3002 780 66 -1100 340/09G17 RMK AO2 SNE15B49 SLP175 P0000 T10221078
14837KMSN MSN20020225215510802/25/02 21:55:31  5-MIN KMSN 260355Z 34009KT 9SM -SN OVC043 M02/M08 A3002 780 63 -1100 340/09 RMK AO2 P0000
14837KMSN MSN20020225220010802/25/02 22:00:31  5-MIN KMSN 260400Z 35009KT 9SM -SN OVC043 M03/M08 A3001 780 66 -1100 350/09 RMK AO2 P0000
14837KMSN MSN20020225220510802/25/02 22:05:31  5-MIN KMSN 260405Z 35009KT 9SM -SN OVC043 M03/M08 A3001 780 66 -1100 350/09 RMK AO2 P0000
14837KMSN MSN20020225221010802/25/02 22:10:31  5-MIN KMSN 260410Z 35010KT 9SM -SN OVC043 M03/M08 A3001 780 66 -1100 340/10 RMK AO2 P0000
14837KMSN MSN20020225221510802/25/02 22:15:31  5-MIN KMSN 260415Z 35009KT 9SM -SN OVC043 M03/M08 A3001 780 66 -1100 350/09 RMK AO2 P0000
14837KMSN MSN20020225222011502/25/02 22:20:31  5-MIN KMSN 260420Z 35009KT 9SM -SN FEW027 OVC043 M03/M08 A3001 790 68 -1100 350/09 RMK AO2 P0000
14837KMSN MSN20020225222511502/25/02 22:25:31  5-MIN KMSN 260425Z 36009KT 9SM -SN FEW027 OVC043 M03/M08 A3000 790 68 -1100 360/09 RMK AO2 P0000
14837KMSN MSN20020225223012102/25/02 22:30:31  5-MIN KMSN 260430Z 36011G16KT 9SM -SN FEW027 OVC043 M03/M08 A3001 790 68 -1100 360/11G16 RMK AO2 P0000
14837KMSN MSN20020225223512802/25/02 22:35:31  5-MIN KMSN 260435Z 35009G16KT 9SM -SN FEW027 BKN039 OVC046 M03/M08 A3000 790 66 -1100 350/09G16 RMK AO2 P0000
14837KMSN MSN20020225224011502/25/02 22:40:31  5-MIN KMSN 260440Z 35011KT 9SM -SN FEW027 OVC039 M03/M08 A3000 790 66 -1100 350/11 RMK AO2 P0000
14837KMSN MSN20020225224511502/25/02 22:45:31  5-MIN KMSN 260445Z 35011KT 9SM -SN FEW027 OVC039 M03/M08 A2999 800 66 -1100 350/11 RMK AO2 P0000
14837KMSN MSN20020225225013302/25/02 22:50:31  5-MIN KMSN 260450Z 35011KT 10SM -SN FEW027 OVC039 M03/M08 A2999 800 66 -1100 350/11 RMK AO2 SLP168 P0000 T10281083
14837KMSN MSN20020225225510802/25/02 22:55:31  5-MIN KMSN 260455Z 35009KT 9SM -SN OVC041 M03/M08 A2999 800 66 -1100 350/09 RMK AO2 P0000
14837KMSN MSN20020225230010802/25/02 23:00:31  5-MIN KMSN 260500Z 34009KT 9SM -SN OVC041 M03/M08 A3000 790 66 -1100 340/09 RMK AO2 P0000
14837KMSN MSN20020225230510802/25/02 23:05:31  5-MIN KMSN 260505Z 35009KT 9SM -SN OVC041 M03/M08 A3000 800 66 -1100 350/09 RMK AO2 P0000
14837KMSN MSN20020225231010802/25/02 23:10:31  5-MIN KMSN 260510Z 36009KT 9SM -SN OVC041 M03/M08 A2999 800 68 -1200 360/09 RMK AO2 P0000
14837KMSN MSN20020225231510802/25/02 23:15:31  5-MIN KMSN 260515Z 35009KT 9SM -SN OVC041 M03/M09 A2999 800 65 -1200 350/09 RMK AO2 P0000
14837KMSN MSN20020225232010802/25/02 23:20:31  5-MIN KMSN 260520Z 36012KT 9SM -SN OVC041 M03/M08 A2999 800 68 -1200 360/12 RMK AO2 P0000
14837KMSN MSN20020225232510802/25/02 23:25:31  5-MIN KMSN 260525Z 36013KT 9SM -SN OVC041 M03/M08 A2999 800 68 -1200 360/13 RMK AO2 P0000
14837KMSN MSN20020225233011502/25/02 23:30:31  5-MIN KMSN 260530Z 36012KT 8SM -SN FEW028 OVC041 M03/M08 A2999 800 68 -1200 360/12 RMK AO2 P0000
14837KMSN MSN20020225233512202/25/02 23:35:31  5-MIN KMSN 260535Z 36013KT 4SM -SN FEW023 SCT028 OVC041 M03/M08 A2999 800 71 -1200 360/13 RMK AO2 P0000
14837KMSN MSN20020225234012202/25/02 23:40:31  5-MIN KMSN 260540Z 35011KT 3SM -SN FEW023 SCT028 OVC039 M03/M08 A2999 800 71 -1200 350/11 RMK AO2 P0000
14837KMSN MSN20020225234512202/25/02 23:45:31  5-MIN KMSN 260545Z 36013KT 3SM -SN SCT027 BKN033 OVC041 M04/M08 A2998 810 74 -1200 360/13 RMK AO2 P0000
14837KMSN MSN20020225235017202/25/02 23:50:31  5-MIN KMSN 260550Z 36014G19KT 4SM -SN BKN029 OVC038 M04/M08 A2998 810 74 -1200 360/14G19 RMK AO2 SLP164 P0000 60000 T10391078 10000 21039 400281039 58002
14837KMSN MSN20020225235512802/25/02 23:55:31  5-MIN KMSN 260555Z 36013G19KT 4SM -SN BKN027 BKN034 OVC045 M04/M08 A2998 810 74 -1200 360/13G19 RMK AO2 P0000
14837KMSN MSN20020226000012202/26/02 00:00:31  5-MIN KMSN 260600Z 35011KT 4SM -SN SCT020 BKN029 OVC036 M04/M07 A2998 810 78 -1200 350/11 RMK AO2 P0000
14837KMSN MSN20020226000512202/26/02 00:05:31  5-MIN KMSN 260605Z 35012KT 5SM -SN BKN020 BKN029 OVC036 M04/M08 A2998 810 74 -1200 350/12 RMK AO2 P0000
14837KMSN MSN20020226001012802/26/02 00:10:31  5-MIN KMSN 260610Z 36013G18KT 5SM -SN BKN020 BKN029 OVC036 M04/M08 A2998 810 74 -1200 360/13G18 RMK AO2 P0000
14837KMSN MSN20020226001512102/26/02 00:15:31  5-MIN KMSN 260615Z 35009G18KT 4SM -SN BKN020 OVC029 M04/M08 A2998 810 74 -1300 350/09G18 RMK AO2 P0000
14837KMSN MSN20020226002011502/26/02 00:20:31  5-MIN KMSN 260620Z 34010KT 3SM -SN BKN020 OVC029 M04/M08 A2998 810 74 -1300 340/10 RMK AO2 P0000
14837KMSN MSN20020226002511502/26/02 00:25:31  5-MIN KMSN 260625Z 34010KT 3SM -SN BKN020 OVC031 M04/M08 A2998 810 74 -1300 340/10 RMK AO2 P0000
14837KMSN MSN20020226003012202/26/02 00:30:31  5-MIN KMSN 260630Z 34008KT 3SM -SN BKN022 BKN031 OVC043 M04/M08 A2998 810 74 -1300 340/08 RMK AO2 P0000
14837KMSN MSN20020226003512802/26/02 00:35:31  5-MIN KMSN 260635Z 35010G16KT 4SM -SN BKN022 BKN031 OVC043 M04/M08 A2998 810 74 -1300 350/10G16 RMK AO2 P0000
14837KMSN MSN20020226004012802/26/02 00:40:31  5-MIN KMSN 260640Z 34010G16KT 4SM -SN BKN024 BKN031 OVC043 M04/M08 A2997 820 74 -1300 340/10G16 RMK AO2 P0000
14837KMSN MSN20020226004512202/26/02 00:45:31  5-MIN KMSN 260645Z 33009KT 5SM -SN BKN026 BKN031 OVC043 M04/M08 A2997 820 74 -1300 330/09 RMK AO2 P0000
14837KMSN MSN20020226005013802/26/02 00:50:31  5-MIN KMSN 260650Z 34010G16KT 4SM -SN BKN028 OVC043 M04/M10 A2997 820 65 -1300 330/10G16 RMK AO2 SLP161 P0000 T10441100
14837KMSN MSN20020226005512102/26/02 00:55:31  5-MIN KMSN 260655Z 33008G16KT 4SM -SN BKN028 OVC043 M04/M10 A2997 820 65 -1300 330/08G16 RMK AO2 P0000
14837KMSN MSN20020226010012102/26/02 01:00:31  5-MIN KMSN 260700Z 33010G15KT 5SM -SN BKN026 OVC043 M04/M09 A2997 820 68 -1300 330/10G15 RMK AO2 P0000
14837KMSN MSN20020226010512802/26/02 01:05:31  5-MIN KMSN 260705Z 34011G16KT 5SM -SN SCT022 BKN026 OVC043 M04/M10 A2997 820 65 -1300 340/11G16 RMK AO2 P0000
14837KMSN MSN20020226011011502/26/02 01:10:31  5-MIN KMSN 260710Z 33012KT 3SM -SN BKN024 OVC032 M05/M09 A2997 820 71 -1400 330/12 RMK AO2 P0000
14837KMSN MSN20020226011510802/26/02 01:15:31  5-MIN KMSN 260715Z 34007KT 3SM -SN OVC022 M05/M10 A2997 820 68 -1400 340/07 RMK AO2 P0000
14837KMSN MSN20020226012011402/26/02 01:20:31  5-MIN KMSN 260720Z 32007G16KT 3SM -SN OVC022 M05/M11 A2997 820 65 -1400 320/07G16 RMK AO2 P0000
14837KMSN MSN20020226012511402/26/02 01:25:31  5-MIN KMSN 260725Z 33008G16KT 3SM -SN OVC022 M05/M11 A2997 820 65 -1400 330/08G16 RMK AO2 P0000
14837KMSN MSN20020226013010802/26/02 01:30:31  5-MIN KMSN 260730Z 32011KT 3SM -SN OVC020 M05/M11 A2997 820 62 -1400 320/11 RMK AO2 P0000
14837KMSN MSN20020226013510802/26/02 01:35:31  5-MIN KMSN 260735Z 34009KT 3SM -SN OVC020 M05/M11 A2997 820 62 -1400 330/09 RMK AO2 P0000
14837KMSN MSN20020226014012302/26/02 01:40:31  5-MIN KMSN 260740Z 33008G15KT 9SM BKN020 OVC044 M05/M11 A2997 820 62 -1400 330/08G15 RMK AO2 SNE36 P0000
14837KMSN MSN20020226014512402/26/02 01:45:31  5-MIN KMSN 260745Z 34014G18KT 10SM BKN020 OVC044 M05/M12 A2997 820 60 -1400 340/14G18 RMK AO2 SNE36 P0000
14837KMSN MSN20020226015014102/26/02 01:50:31  5-MIN KMSN 260750Z 34011G18KT 10SM SCT020 OVC042 M05/M12 A2997 820 60 -1400 340/11G18 RMK AO2 SNE36 SLP159 P0000 T10501117
14837KMSN MSN20020226015510602/26/02 01:55:31  5-MIN KMSN 260755Z 33012KT 10SM FEW020 OVC042 M05/M12 A2997 820 60 -1400 330/12 RMK AO2
14837KMSN MSN20020226020011102/26/02 02:00:31  5-MIN KMSN 260800Z 34010G18KT 9SM FEW020 OVC042 M06/M12 A2997 820 62 -1400 340/10G18 RMK AO2
14837KMSN MSN20020226020512102/26/02 02:05:31  5-MIN KMSN 260805Z 34010KT 8SM -SN FEW024 OVC042 M05/M11 A2996 820 62 -1400 340/10 RMK AO2 SNB02 P0000
14837KMSN MSN20020226021012102/26/02 02:10:31  5-MIN KMSN 260810Z 34009KT 7SM -SN FEW022 OVC042 M06/M11 A2996 820 65 -1400 340/09 RMK AO2 SNB02 P0000
14837KMSN MSN20020226021512702/26/02 02:15:31  5-MIN KMSN 260815Z 33009G15KT 6SM -SN FEW022 OVC042 M06/M11 A2996 830 65 -1400 330/09G15 RMK AO2 SNB02 P0000
14837KMSN MSN20020226022012702/26/02 02:20:31  5-MIN KMSN 260820Z 34011G15KT 6SM -SN FEW022 OVC042 M06/M11 A2996 830 65 -1400 330/11G15 RMK AO2 SNB02 P0000
14837KMSN MSN20020226022512102/26/02 02:25:31  5-MIN KMSN 260825Z 33010KT 5SM -SN FEW022 OVC042 M06/M11 A2996 830 65 -1400 330/10 RMK AO2 SNB02 P0000
14837KMSN MSN20020226023012102/26/02 02:30:31  5-MIN KMSN 260830Z 34011KT 5SM -SN FEW022 OVC042 M06/M11 A2996 830 65 -1400 340/11 RMK AO2 SNB02 P0000
14837KMSN MSN20020226023512102/26/02 02:35:31  5-MIN KMSN 260835Z 34009KT 6SM -SN FEW022 OVC042 M06/M10 A2996 830 71 -1400 340/09 RMK AO2 SNB02 P0000
14837KMSN MSN20020226024011302/26/02 02:40:31  5-MIN KMSN 260840Z 34010KT 7SM OVC042 M06/M09 A2996 830 74 -1400 340/10 RMK AO2 SNB02E39 P0000
14837KMSN MSN20020226024511302/26/02 02:45:31  5-MIN KMSN 260845Z 33009KT 8SM OVC042 M06/M09 A2996 830 74 -1400 330/09 RMK AO2 SNB02E39 P0000
14837KMSN MSN20020226025014202/26/02 02:50:31  5-MIN KMSN 260850Z 34008KT 9SM OVC042 M06/M09 A2996 830 74 -1400 340/08 RMK AO2 SNB02E39 SLP155 P0000 60000 T10561094 58015
14837KMSN MSN20020226025510602/26/02 02:55:31  5-MIN KMSN 260855Z 33010KT 10SM FEW024 OVC042 M06/M09 A2995 830 77 -1400 330/10 RMK AO2
14837KMSN MSN20020226030010602/26/02 03:00:31  5-MIN KMSN 260900Z 34010KT 10SM SCT024 OVC042 M06/M09 A2995 830 77 -1400 340/10 RMK AO2
14837KMSN MSN20020226030510602/26/02 03:05:31  5-MIN KMSN 260905Z 35010KT 10SM BKN024 OVC042 M06/M09 A2995 830 74 -1400 350/10 RMK AO2
14837KMSN MSN20020226031011302/26/02 03:10:31  5-MIN KMSN 260910Z 33007KT 10SM FEW020 BKN024 OVC042 M06/M10 A2995 840 71 -1400 330/07 RMK AO2
14837KMSN MSN20020226031511302/26/02 03:15:31  5-MIN KMSN 260915Z 32009KT 10SM FEW020 BKN026 OVC042 M06/M09 A2995 840 74 -1400 320/09 RMK AO2
14837KMSN MSN20020226032011302/26/02 03:20:31  5-MIN KMSN 260920Z 33010KT 10SM FEW020 BKN026 OVC042 M06/M09 A2995 840 74 -1400 330/10 RMK AO2
14837KMSN MSN20020226032511902/26/02 03:25:31  5-MIN KMSN 260925Z 33007G15KT 10SM SCT020 BKN026 OVC044 M06/M09 A2995 840 74 -1400 330/07G15 RMK AO2
14837KMSN MSN20020226033011902/26/02 03:30:31  5-MIN KMSN 260930Z 33011G15KT 10SM SCT020 BKN026 OVC044 M06/M09 A2995 840 74 -1400 330/11G15 RMK AO2
14837KMSN MSN20020226033511902/26/02 03:35:31  5-MIN KMSN 260935Z 32009G15KT 10SM BKN022 BKN028 OVC040 M06/M09 A2995 840 74 -1400 320/09G15 RMK AO2
14837KMSN MSN20020226034010602/26/02 03:40:31  5-MIN KMSN 260940Z 33008KT 10SM BKN022 OVC028 M06/M09 A2995 840 74 -1400 330/08 RMK AO2
14837KMSN MSN20020226034510602/26/02 03:45:31  5-MIN KMSN 260945Z 33008KT 10SM BKN022 OVC045 M06/M09 A2995 840 74 -1400 320/08 RMK AO2
14837KMSN MSN20020226035013002/26/02 03:50:31  5-MIN KMSN 260950Z 34008KT 10SM BKN022 BKN026 OVC045 M06/M09 A2995 840 77 -1400 340/08 RMK AO2 SLP152 T10561089
14837KMSN MSN20020226035509902/26/02 03:55:31  5-MIN KMSN 260955Z 34009KT 10SM OVC024 M06/M09 A2995 840 74 -1400 340/09 RMK AO2
14837KMSN MSN20020226040010602/26/02 04:00:31  5-MIN KMSN 261000Z 34008KT 10SM BKN024 OVC028 M06/M10 A2995 840 71 -1400 340/08 RMK AO2
14837KMSN MSN20020226040511202/26/02 04:05:31  5-MIN KMSN 261005Z 34010G15KT 10SM BKN024 OVC028 M06/M10 A2994 840 71 -1400 340/10G15 RMK AO2
14837KMSN MSN20020226041010602/26/02 04:10:31  5-MIN KMSN 261010Z 34009KT 10SM BKN024 OVC028 M06/M10 A2994 840 71 -1400 340/09 RMK AO2
14837KMSN MSN20020226041510602/26/02 04:15:31  5-MIN KMSN 261015Z 33009KT 10SM BKN024 OVC028 M06/M10 A2994 840 71 -1400 330/09 RMK AO2
14837KMSN MSN20020226042011202/26/02 04:20:31  5-MIN KMSN 261020Z 34009G16KT 10SM BKN024 OVC028 M06/M10 A2994 840 71 -1400 330/09G16 RMK AO2
14837KMSN MSN20020226042511202/26/02 04:25:31  5-MIN KMSN 261025Z 34009G16KT 10SM BKN024 OVC029 M06/M09 A2994 850 74 -1400 340/09G16 RMK AO2
14837KMSN MSN20020226043011802/26/02 04:30:31  5-MIN KMSN 261030Z 34012G16KT 9SM BKN024 BKN029 OVC055 M06/M10 A2994 850 74 -1500 340/12G16 RMK AO2
14837KMSN MSN20020226043511802/26/02 04:35:31  5-MIN KMSN 261035Z 34006G16KT 9SM BKN024 BKN029 OVC055 M06/M10 A2994 850 74 -1500 340/06G16 RMK AO2
14837KMSN MSN20020226044011202/26/02 04:40:31  5-MIN KMSN 261040Z 33008KT 9SM BKN024 BKN029 OVC055 M06/M10 A2994 850 74 -1500 330/08 RMK AO2
14837KMSN MSN20020226044513402/26/02 04:45:31  5-MIN KMSN 261045Z 33012G16KT 7SM -SN BKN024 BKN029 OVC055 M06/M09 A2994 850 77 -1500 330/12G16 RMK AO2 SNB45 P0000
14837KMSN MSN20020226045014402/26/02 04:50:31  5-MIN KMSN 261050Z 33009G16KT 5SM -SN BKN026 OVC055 M06/M09 A2994 850 77 -1500 330/09G16 RMK AO2 SNB45 SLP149 P0000 T10611094
14837KMSN MSN20020226045512202/26/02 04:55:31  5-MIN KMSN 261055Z 33011KT 5SM -SN FEW019 BKN026 OVC085 M06/M09 A2994 850 77 -1500 330/11 RMK AO2 P0000
14837KMSN MSN20020226050013802/26/02 05:00:31  5-MIN KMSN 261100Z 34009KT 300V360 6SM -SN BKN024 BKN055 OVC080 M06/M10 A2994 850 74 -1500 340/09 300V360 RMK AO2 P0000
14837KMSN MSN20020226050513702/26/02 05:05:31  5-MIN KMSN 261105Z 34007G16KT 300V010 6SM -SN BKN024 OVC080 M06/M09 A2994 850 77 -1500 330/07G16 300V010 RMK AO2 P0000
14837KMSN MSN20020226051012102/26/02 05:10:31  5-MIN KMSN 261110Z 33010G16KT 7SM -SN BKN024 OVC080 M06/M09 A2993 850 77 -1500 330/10G16 RMK AO2 P0000
14837KMSN MSN20020226051513002/26/02 05:15:31  5-MIN KMSN 261115Z 34008G15KT 7SM FEW020 BKN026 OVC080 M06/M09 A2993 850 77 -1500 340/08G15 RMK AO2 SNE11 P0000
14837KMSN MSN20020226052012202/26/02 05:20:31  5-MIN KMSN 261120Z 33010KT 5SM -SN FEW020 BKN026 OVC080 M06/M09 A2993 850 77 -1500 330/10 RMK AO2 P0000
14837KMSN MSN20020226052512202/26/02 05:25:31  5-MIN KMSN 261125Z 34008KT 4SM -SN FEW020 SCT026 OVC039 M06/M09 A2993 860 81 -1500 340/08 RMK AO2 P0000
14837KMSN MSN20020226053012802/26/02 05:30:31  5-MIN KMSN 261130Z 34009G15KT 4SM -SN FEW020 SCT026 OVC039 M06/M09 A2993 860 81 -1500 340/09G15 RMK AO2 P0000
14837KMSN MSN20020226053511502/26/02 05:35:31  5-MIN KMSN 261135Z 33009KT 3SM -SN FEW020 OVC039 M06/M09 A2993 860 81 -1500 330/09 RMK AO2 P0000
14837KMSN MSN20020226054011802/26/02 05:40:31  5-MIN KMSN 261140Z 34009KT 3SM -SN BR FEW027 OVC039 M06/M08 A2992 860 84 -1400 340/09 RMK AO2 P0000
14837KMSN MSN20020226054511102/26/02 05:45:31  5-MIN KMSN 261145Z 33007KT 3SM -SN BR OVC039 M06/M08 A2992 860 84 -1400 330/07 RMK AO2 P0000
14837KMSN MSN20020226055016502/26/02 05:50:31  5-MIN KMSN 261150Z 33011G15KT 3SM -SN BR BKN039 OVC048 M06/M08 A2992 860 84 -1400 330/11G15 RMK AO2 SLP143 P0000 60000 T10611083 11039 21061 58008
14837KMSN MSN20020226055512102/26/02 05:55:31  5-MIN KMSN 261155Z 33011G15KT 3SM -SN BKN039 OVC048 M06/M09 A2992 870 81 -1400 330/11G15 RMK AO2 P0000
14837KMSN MSN20020226060011802/26/02 06:00:31  5-MIN KMSN 261200Z 33009KT 3SM -SN BR BKN038 OVC048 M06/M08 A2992 870 84 -1400 330/09 RMK AO2 P0000
14837KMSN MSN20020226060513202/26/02 06:05:31  5-MIN KMSN 261205Z 33008KT 2SM -SN BR SCT038 OVC048 M06/M08 A2992 870 84 -1400 330/08 RMK AO2 TWR VIS 2 1/2 P0000
14837KMSN MSN20020226061013602/26/02 06:10:31  5-MIN KMSN 261210Z 33011KT 1 3/4SM -SN BR FEW038 OVC048 M06/M08 A2992 870 84 -1400 330/11 RMK AO2 TWR VIS 2 1/2 P0000
14837KMSN MSN20020226061513602/26/02 06:15:31  5-MIN KMSN 261215Z 34009KT 1 1/2SM -SN BR FEW036 OVC046 M06/M08 A2992 870 84 -1400 340/09 RMK AO2 TWR VIS 2 1/2 P0000
14837KMSN MSN20020226062013602/26/02 06:20:31  5-MIN KMSN 261220Z 34008KT 1 3/4SM -SN BR FEW036 OVC046 M06/M08 A2991 870 88 -1400 340/08 RMK AO2 TWR VIS 2 1/2 P0000
14837KMSN MSN20020226062513602/26/02 06:25:31  5-MIN KMSN 261225Z 33007KT 1 3/4SM -SN BR FEW036 OVC046 M06/M08 A2991 870 84 -1400 330/07 RMK AO2 TWR VIS 2 1/2 P0000
14837KMSN MSN20020226063013602/26/02 06:30:31  5-MIN KMSN 261230Z 34008KT 1 1/4SM -SN BR FEW036 OVC046 M06/M08 A2991 870 84 -1400 340/08 RMK AO2 TWR VIS 1 3/4 P0000
14837KMSN MSN20020226063513602/26/02 06:35:31  5-MIN KMSN 261235Z 34008KT 1 1/4SM -SN BR FEW020 OVC046 M06/M08 A2991 870 88 -1400 340/08 RMK AO2 TWR VIS 1 3/4 P0000
14837KMSN MSN20020226064013602/26/02 06:40:31  5-MIN KMSN 261240Z 33010KT 1 1/4SM -SN BR FEW020 OVC048 M06/M08 A2991 870 84 -1400 330/10 RMK AO2 TWR VIS 1 3/4 P0000
14837KMSN MSN20020226064514302/26/02 06:45:31  5-MIN KMSN 261245Z 32008KT 1 1/4SM -SN BR FEW013 SCT019 OVC048 M06/M08 A2991 870 84 -1400 320/08 RMK AO2 TWR VIS 1 3/4 P0000
14837KMSN MSN20020226065015602/26/02 06:50:31  5-MIN KMSN 261250Z 31009KT 1SM -SN BR SCT013 BKN021 OVC048 M06/M08 A2991 870 84 -1400 310/09 RMK AO2 SFC VIS 1 1/4 SLP140 P0001 T10611083
14837KMSN MSN20020226065512502/26/02 06:55:31  5-MIN KMSN 261255Z 31010KT 1SM -SN BR SCT013 BKN021 OVC048 M06/M08 A2991 880 84 -1400 310/10 RMK AO2 P0000
14837KMSN MSN20020226070012502/26/02 07:00:31  5-MIN KMSN 261300Z 31010KT 1SM -SN BR SCT015 BKN019 OVC048 M07/M08 A2991 880 88 -1500 310/10 RMK AO2 P0000
14837KMSN MSN20020226070512502/26/02 07:05:31  5-MIN KMSN 261305Z 32011KT 1SM -SN BR FEW012 BKN017 OVC048 M07/M08 A2991 880 88 -1500 310/11 RMK AO2 P0000
14837KMSN MSN20020226071012502/26/02 07:10:31  5-MIN KMSN 261310Z 32011KT 1SM -SN BR FEW012 BKN019 OVC028 M07/M08 A2991 880 88 -1500 320/11 RMK AO2 P0000
14837KMSN MSN20020226071513902/26/02 07:15:31  5-MIN KMSN 261315Z 32012KT 1SM -SN BR FEW012 BKN019 OVC028 M07/M09 A2991 880 84 -1500 320/12 RMK AO2 SFC VIS 1 1/4 P0000
14837KMSN MSN20020226072013202/26/02 07:20:31  5-MIN KMSN 261320Z 32011KT 1 3/4SM -SN BR BKN021 OVC028 M07/M08 A2991 880 88 -1500 320/11 RMK AO2 TWR VIS 2 P0000
14837KMSN MSN20020226072513502/26/02 07:25:31  5-MIN KMSN 261325Z 33008KT 2SM -SN BR BKN025 BKN034 OVC041 M07/M08 A2991 880 88 -1500 320/08 RMK AO2 SFC VIS 3 P0000
14837KMSN MSN20020226073013502/26/02 07:30:31  5-MIN KMSN 261330Z 32010KT 3SM -SN BR FEW015 BKN025 OVC043 M07/M09 A2991 880 84 -1500 320/10 RMK AO2 SFC VIS 4 P0000
14837KMSN MSN20020226073512202/26/02 07:35:31  5-MIN KMSN 261335Z 33012KT 3SM -SN FEW016 SCT027 OVC043 M06/M09 A2991 880 77 -1400 330/12 RMK AO2 P0000
14837KMSN MSN20020226074012202/26/02 07:40:31  5-MIN KMSN 261340Z 33009KT 3SM -SN FEW016 SCT030 OVC043 M06/M09 A2991 880 77 -1400 330/09 RMK AO2 P0000
14837KMSN MSN20020226074512202/26/02 07:45:31  5-MIN KMSN 261345Z 34008KT 3SM -SN FEW032 BKN043 OVC060 M06/M09 A2990 880 81 -1400 330/08 RMK AO2 P0000
14837KMSN MSN20020226075015302/26/02 07:50:31  5-MIN KMSN 261350Z 32012KT 2 1/2SM -SN SCT038 BKN045 OVC060 M06/M09 A2990 880 81 -1400 320/12 RMK AO2 TWR VIS 3 SLP139 P0000 T10611089
14837KMSN MSN20020226075514502/26/02 07:55:31  5-MIN KMSN 261355Z 32010G17KT 2SM -SN BR BKN042 BKN050 OVC060 M07/M09 A2990 880 84 -1500 320/10G17 RMK AO2 SFC VIS 2 1/2 P0000
14837KMSN MSN20020226080014102/26/02 08:00:31  5-MIN KMSN 261400Z 33010G17KT 2SM -SN BR BKN042 BKN050 OVC060 M06/M08 A2990 880 84 -1400 330/10G17 RMK AO2 SFC VIS 3 P0000
14837KMSN MSN20020226080513402/26/02 08:05:31  5-MIN KMSN 261405Z 32011G15KT 2SM -SN BR SCT042 OVC060 M06/M08 A2990 880 84 -1400 320/11G15 RMK AO2 SFC VIS 3 P0000
14837KMSN MSN20020226081013102/26/02 08:10:31  5-MIN KMSN 261410Z 32010G17KT 2SM -SN SCT042 OVC060 M06/M09 A2990 880 81 -1400 320/10G17 RMK AO2 SFC VIS 3 P0000
14837KMSN MSN20020226081513402/26/02 08:15:31  5-MIN KMSN 261415Z 32008G17KT 2SM -SN BR FEW042 OVC065 M06/M08 A2990 880 88 -1400 320/08G17 RMK AO2 SFC VIS 3 P0000
14837KMSN MSN20020226082012802/26/02 08:20:31  5-MIN KMSN 261420Z 31011KT 2SM -SN BR FEW042 OVC060 M06/M08 A2990 880 88 -1400 310/11 RMK AO2 SFC VIS 3 P0000
14837KMSN MSN20020226082514402/26/02 08:25:31  5-MIN KMSN 261425Z 32011KT 290V350 2SM -SN BR FEW018 OVC065 M06/M08 A2990 880 84 -1400 320/11 290V350 RMK AO2 SFC VIS 3 P0000
14837KMSN MSN20020226083013802/26/02 08:30:31  5-MIN KMSN 261430Z 32009G17KT 2SM -SN FEW018 SCT034 OVC065 M06/M09 A2990 880 81 -1400 320/09G17 RMK AO2 SFC VIS 3 P0000
14837KMSN MSN20020226083514502/26/02 08:35:31  5-MIN KMSN 261435Z 32011G17KT 2SM -SN BR FEW018 SCT032 OVC060 M06/M08 A2990 890 84 -1400 320/11G17 RMK AO2 SFC VIS 2 1/2 P0000
14837KMSN MSN20020226084012502/26/02 08:40:31  5-MIN KMSN 261440Z 32009KT 2SM -SN BR FEW020 BKN043 OVC060 M06/M08 A2990 890 84 -1400 320/09 RMK AO2 P0000
14837KMSN MSN20020226084512802/26/02 08:45:31  5-MIN KMSN 261445Z 32008G15KT 2SM -SN SCT018 BKN036 OVC065 M06/M08 A2990 890 81 -1300 320/08G15 RMK AO2 P0000
14837KMSN MSN20020226085016002/26/02 08:50:31  5-MIN KMSN 261450Z 31010G15KT 2SM -SN BR SCT018 BKN028 OVC049 M06/M08 A2990 890 84 -1400 310/10G15 RMK AO2 SLP136 P0000 60002 T10611083 58012
14837KMSN MSN20020226085513102/26/02 08:55:31  5-MIN KMSN 261455Z 32012G17KT 2SM -SN BR SCT018 BKN030 OVC044 M06/M08 A2990 890 84 -1400 320/12G17 RMK AO2 P0000
14837KMSN MSN20020226090012402/26/02 09:00:31  5-MIN KMSN 261500Z 32009G17KT 2SM -SN BR BKN020 OVC032 M06/M08 A2989 890 84 -1400 320/09G17 RMK AO2 P0000
14837KMSN MSN20020226090513902/26/02 09:05:31  5-MIN KMSN 261505Z 32009KT 2SM -SN BR FEW015 BKN020 OVC032 M06/M08 A2989 890 84 -1400 320/09 RMK AO2 SFC VIS 2 1/2 P0000
14837KMSN MSN20020226091013602/26/02 09:10:31  5-MIN KMSN 261510Z 33008KT 2SM -SN FEW015 BKN022 OVC032 M06/M08 A2989 890 81 -1300 330/08 RMK AO2 SFC VIS 2 1/2 P0000
14837KMSN MSN20020226091513802/26/02 09:15:31  5-MIN KMSN 261515Z 33013G18KT 2SM -SN BKN022 BKN027 OVC045 M06/M08 A2989 890 81 -1300 330/13G18 RMK AO2 SFC VIS 4 P0000
14837KMSN MSN20020226092013102/26/02 09:20:31  5-MIN KMSN 261520Z 31012G18KT 3SM -SN BKN022 OVC030 M06/M08 A2989 890 81 -1300 310/12G18 RMK AO2 SFC VIS 4 P0000
14837KMSN MSN20020226092513802/26/02 09:25:31  5-MIN KMSN 261525Z 31011G17KT 3SM -SN BKN020 BKN031 OVC044 M06/M09 A2989 890 77 -1300 310/11G17 RMK AO2 SFC VIS 4 P0000
14837KMSN MSN20020226093013802/26/02 09:30:31  5-MIN KMSN 261530Z 31011G17KT 3SM -SN FEW016 BKN021 OVC042 M06/M09 A2989 890 77 -1300 310/11G17 RMK AO2 SFC VIS 4 P0000
14837KMSN MSN20020226093513202/26/02 09:35:31  5-MIN KMSN 261535Z 33009KT 3SM -SN FEW016 BKN021 OVC046 M06/M08 A2989 890 81 -1300 330/09 RMK AO2 SFC VIS 4 P0000
14837KMSN MSN20020226094013102/26/02 09:40:31  5-MIN KMSN 261540Z 32011G16KT 3SM -SN BKN021 OVC046 M06/M09 A2989 890 77 -1300 320/11G16 RMK AO2 SFC VIS 5 P0000
14837KMSN MSN20020226094514302/26/02 09:45:31  5-MIN KMSN 261545Z 32013G17KT 3SM HZ BKN021 BKN039 OVC046 M05/M09 A2989 890 74 -1300 320/13G17 RMK AO2 SFC VIS 5 SNE43 P0000
14837KMSN MSN20020226095014502/26/02 09:50:31  5-MIN KMSN 261550Z 32011G17KT 5SM -SN BKN021 BKN037 OVC046 M06/M09 A2989 890 77 -1300 320/11G17 RMK AO2 SLP134 P0000 T10561089
14837KMSN MSN20020226095512202/26/02 09:55:31  5-MIN KMSN 261555Z 32010KT 5SM -SN BKN021 BKN035 OVC046 M05/M09 A2989 890 74 -1300 320/10 RMK AO2 P0000
14837KMSN MSN20020226100012802/26/02 10:00:31  5-MIN KMSN 261600Z 31013G19KT 4SM -SN SCT021 BKN035 OVC048 M06/M09 A2989 890 77 -1300 310/13G19 RMK AO2 P0000
14837KMSN MSN20020226100512802/26/02 10:05:31  5-MIN KMSN 261605Z 31009G19KT 4SM -SN FEW017 BKN032 OVC048 M05/M09 A2989 890 74 -1300 310/09G19 RMK AO2 P0000
14837KMSN MSN20020226101012802/26/02 10:10:31  5-MIN KMSN 261610Z 30014G21KT 4SM -SN SCT021 BKN032 OVC039 M05/M08 A2989 890 77 -1300 300/14G21 RMK AO2 P0000
14837KMSN MSN20020226101512802/26/02 10:15:31  5-MIN KMSN 261615Z 33010G21KT 4SM -SN FEW019 BKN030 OVC039 M05/M08 A2989 890 77 -1300 330/10G21 RMK AO2 P0000
14837KMSN MSN20020226102012802/26/02 10:20:31  5-MIN KMSN 261620Z 32014G17KT 3SM -SN FEW018 BKN025 OVC039 M05/M08 A2989 890 77 -1300 320/14G17 RMK AO2 P0000
14837KMSN MSN20020226102512802/26/02 10:25:31  5-MIN KMSN 261625Z 31011G18KT 3SM -SN FEW020 BKN025 OVC039 M05/M08 A2989 890 77 -1300 310/11G18 RMK AO2 P0000
14837KMSN MSN20020226103014102/26/02 10:30:31  5-MIN KMSN 261630Z 31012G19KT 280V360 2 1/2SM -SN BKN023 OVC030 M05/M09 A2989 900 74 -1300 310/12G19 280V360 RMK AO2 P0000
14837KMSN MSN20020226103512502/26/02 10:35:31  5-MIN KMSN 261635Z 31012G19KT 2 1/2SM -SN FEW017 OVC025 M05/M08 A2989 900 77 -1300 310/12G19 RMK AO2 P0000
14837KMSN MSN20020226104012502/26/02 10:40:31  5-MIN KMSN 261640Z 31011G19KT 2 1/2SM -SN BKN020 OVC026 M05/M08 A2989 900 77 -1300 310/11G19 RMK AO2 P0000
14837KMSN MSN20020226104513502/26/02 10:45:31  5-MIN KMSN 261645Z 32014G19KT 2SM -SN BKN020 OVC026 M05/M09 A2989 900 74 -1300 320/14G19 RMK AO2 TWR VIS 2 1/2 P0000
14837KMSN MSN20020226105015202/26/02 10:50:31  5-MIN KMSN 261650Z 33011G19KT 2SM -SN BKN020 OVC026 M05/M08 A2988 900 77 -1300 330/11G19 RMK AO2 TWR VIS 2 1/2 SLP132 P0000 T10501083
14837KMSN MSN20020226105511902/26/02 10:55:31  5-MIN KMSN 261655Z 31011KT 2 1/2SM -SN BKN020 OVC026 M05/M08 A2989 900 77 -1300 310/11 RMK AO2 P0000
14837KMSN MSN20020226110012502/26/02 11:00:31  5-MIN KMSN 261700Z 31013G21KT 2 1/2SM -SN BKN020 OVC026 M05/M08 A2988 900 77 -1300 300/13G21 RMK AO2 P0000
14837KMSN MSN20020226110513502/26/02 11:05:31  5-MIN KMSN 261705Z 32014G21KT 2SM -SN BKN020 OVC026 M05/M08 A2988 900 77 -1300 320/14G21 RMK AO2 TWR VIS 2 1/2 P0000
14837KMSN MSN20020226111012802/26/02 11:10:31  5-MIN KMSN 261710Z 31015G20KT 2SM -SN OVC020 M05/M08 A2988 900 77 -1300 310/15G20 RMK AO2 TWR VIS 2 1/2 P0000
14837KMSN MSN20020226111514402/26/02 11:15:31  5-MIN KMSN 261715Z 31012G20KT 280V340 2SM -SN OVC020 M05/M08 A2988 900 77 -1300 310/12G20 280V340 RMK AO2 TWR VIS 2 1/2 P0000
14837KMSN MSN20020226112012102/26/02 11:20:31  5-MIN KMSN 261720Z 33013G19KT 2SM -SN BKN018 OVC023 M05/M08 A2988 900 77 -1300 320/13G19 RMK AO2 P0000
14837KMSN MSN20020226112513502/26/02 11:25:31  5-MIN KMSN 261725Z 31013G19KT 1 1/2SM -SN BKN018 OVC023 M05/M08 A2988 900 77 -1300 310/13G19 RMK AO2 SFC VIS 2 P0000
14837KMSN MSN20020226113012802/26/02 11:30:31  5-MIN KMSN 261730Z 32010G18KT 1 1/2SM -SN OVC020 M05/M08 A2988 900 81 -1300 320/10G18 RMK AO2 SFC VIS 2 P0000
14837KMSN MSN20020226113512802/26/02 11:35:31  5-MIN KMSN 261735Z 30012G17KT 1 1/2SM -SN OVC020 M05/M08 A2988 900 77 -1300 300/12G17 RMK AO2 SFC VIS 2 P0000
14837KMSN MSN20020226114013502/26/02 11:40:31  5-MIN KMSN 261740Z 31012G17KT 1 1/2SM -SN BKN020 OVC036 M05/M08 A2988 900 77 -1300 310/12G17 RMK AO2 SFC VIS 2 P0000
14837KMSN MSN20020226114513602/26/02 11:45:31  5-MIN KMSN 261745Z 33013KT 1 1/2SM -SN SCT020 BKN029 OVC047 M04/M08 A2988 910 74 -1200 320/13 RMK AO2 SFC VIS 2 P0000
14837KMSN MSN20020226115017702/26/02 11:50:31  5-MIN KMSN 261750Z 31015KT 1 1/2SM -SN SCT020 BKN032 OVC045 M05/M09 A2987 910 74 -1200 310/15 RMK AO2 SFC VIS 2 SLP129 P0001 60003 T10501089 11044 21067 56008
14837KMSN MSN20020226115514202/26/02 11:55:31  5-MIN KMSN 261755Z 31011G18KT 1 1/2SM -SN SCT019 BKN034 OVC045 M05/M08 A2987 910 77 -1200 310/11G18 RMK AO2 SFC VIS 2 P0000
14837KMSN MSN20020226120013602/26/02 12:00:31  5-MIN KMSN 261800Z 31013KT 1 1/2SM -SN SCT018 BKN032 OVC039 M04/M08 A2987 910 74 -1200 310/13 RMK AO2 SFC VIS 2 P0000
14837KMSN MSN20020226120515802/26/02 12:05:31  5-MIN KMSN 261805Z 32013G18KT 1 1/2SM -SN SCT019 BKN029 OVC041 M05/M08 A2987 910 77 -1200 320/13G18 RMK AO2 SFC VIS 2 1/2 VIS 1 3/4V3 P0000
14837KMSN MSN20020226121014202/26/02 12:10:31  5-MIN KMSN 261810Z 32012G19KT 1 1/2SM -SN FEW016 BKN025 OVC043 M05/M08 A2987 910 77 -1200 320/12G19 RMK AO2 SFC VIS 2 P0000
14837KMSN MSN20020226121514202/26/02 12:15:31  5-MIN KMSN 261815Z 30010G19KT 1 1/2SM -SN FEW016 BKN023 OVC040 M05/M08 A2986 920 81 -1200 300/10G19 RMK AO2 SFC VIS 2 P0000
14837KMSN MSN20020226122014602/26/02 12:20:31  5-MIN KMSN 261820Z 30011G17KT 1 1/2SM -SN FEW016 BKN026 OVC038 M05/M08 A2986 920 77 -1200 300/11G17 RMK AO2 SFC VIS 2 1/2 P0000
14837KMSN MSN20020226122514202/26/02 12:25:31  5-MIN KMSN 261825Z 31015G19KT 1 1/2SM -SN FEW016 BKN024 OVC038 M05/M08 A2986 920 77 -1200 310/15G19 RMK AO2 SFC VIS 2 P0000
14837KMSN MSN20020226123015802/26/02 12:30:31  5-MIN KMSN 261830Z 32014G19KT 290V360 1 1/2SM -SN FEW016 BKN024 OVC036 M04/M09 A2986 920 71 -1200 320/14G19 290V360 RMK AO2 SFC VIS 2 P0000
14837KMSN MSN20020226123514202/26/02 12:35:31  5-MIN KMSN 261835Z 30014G19KT 1 1/2SM -SN FEW016 BKN024 OVC036 M04/M08 A2986 920 74 -1200 300/14G19 RMK AO2 SFC VIS 2 P0000
14837KMSN MSN20020226124014202/26/02 12:40:31  5-MIN KMSN 261840Z 31014G19KT 1 1/2SM -SN FEW016 BKN022 OVC039 M05/M08 A2986 920 77 -1200 300/14G19 RMK AO2 SFC VIS 2 P0000
14837KMSN MSN20020226124514602/26/02 12:45:31  5-MIN KMSN 261845Z 30011G18KT 1 1/2SM -SN FEW016 BKN024 OVC032 M04/M09 A2986 920 71 -1200 300/11G18 RMK AO2 SFC VIS 2 1/2 P0000
14837KMSN MSN20020226125015302/26/02 12:50:31  5-MIN KMSN 261850Z 31012KT 1 1/2SM -SN FEW017 BKN023 OVC033 M04/M08 A2985 930 74 -1200 310/12 RMK AO2 SFC VIS 3 SLP122 P0000 T10441083
14837KMSN MSN20020226125512802/26/02 12:55:31  5-MIN KMSN 261855Z 31012G20KT 6SM -SN SCT021 BKN026 OVC033 M04/M08 A2985 930 74 -1200 310/12G20 RMK AO2 P0000
14837KMSN MSN20020226130012802/26/02 13:00:31  5-MIN KMSN 261900Z 30013G20KT 5SM -SN SCT021 BKN025 OVC035 M04/M08 A2985 930 74 -1200 300/13G20 RMK AO2 P0000
14837KMSN MSN20020226130512802/26/02 13:05:31  5-MIN KMSN 261905Z 30013G17KT 4SM -SN FEW021 SCT025 OVC035 M05/M08 A2985 930 77 -1200 300/13G17 RMK AO2 P0000
14837KMSN MSN20020226131014002/26/02 13:10:31  5-MIN KMSN 261910Z 30011G17KT 2SM -SN FEW019 BKN025 OVC035 M04/M08 A2985 930 78 -1200 290/11G17 RMK AO2 SFC VIS 3 P0000 $
14837KMSN MSN20020226131514002/26/02 13:15:31  5-MIN KMSN 261915Z 31013G17KT 2SM -SN SCT024 BKN029 OVC036 M04/M08 A2985 930 78 -1100 310/13G17 RMK AO2 SFC VIS 4 P0000 $
14837KMSN MSN20020226132014402/26/02 13:20:31  5-MIN KMSN 261920Z 31011G19KT 1 1/2SM -SN SCT022 BKN030 OVC036 M04/M08 A2985 930 78 -1200 310/11G19 RMK AO2 TWR VIS 2 P0000 $
14837KMSN MSN20020226132513002/26/02 13:25:31  5-MIN KMSN 261925Z 31012G20KT 2SM -SN SCT022 BKN026 OVC040 M04/M08 A2985 930 74 -1100 310/12G20 RMK AO2 P0000 $
14837KMSN MSN20020226133014102/26/02 13:30:31  5-MIN KMSN 261930Z 29012G20KT 2SM -SN SCT022 BKN030 OVC040 M04/M08 A2985 930 78 -1100 290/12G20 RMK AO2 SFC VIS 10 P0000 $
14837KMSN MSN20020226133514002/26/02 13:35:31  5-MIN KMSN 261935Z 31012G18KT 2SM -SN SCT022 BKN028 OVC042 M04/M08 A2985 930 74 -1100 310/12G18 RMK AO2 SFC VIS 5 P0000 $
14837KMSN MSN20020226134014002/26/02 13:40:31  5-MIN KMSN 261940Z 32012G20KT 1SM -SN SCT015 BKN020 OVC033 M05/M08 A2985 930 77 -1200 320/12G20 RMK AO2 TWR VIS 2 P0000 $
14837KMSN MSN20020226134514402/26/02 13:45:31  5-MIN KMSN 261945Z 30009G20KT 2SM -SN SCT015 BKN019 OVC033 M05/M08 A2985 930 81 -1200 300/09G20 RMK AO2 SFC VIS 2 1/2 P0000 $
14837KMSN MSN20020226135016102/26/02 13:50:31  5-MIN KMSN 261950Z 30014G20KT 1SM -SN SCT015 BKN020 OVC033 M05/M08 A2985 930 81 -1200 300/14G20 RMK AO2 SFC VIS 1 1/2 SLP121 P0000 T10501078 $
14837KMSN MSN20020226135514402/26/02 13:55:31  5-MIN KMSN 261955Z 30013G20KT 1SM -SN SCT012 BKN020 OVC029 M05/M08 A2985 930 81 -1200 300/13G20 RMK AO2 SFC VIS 1 1/4 P0000 $
14837KMSN MSN20020226140013502/26/02 14:00:31  5-MIN KMSN 262000Z 30012G18KT 1SM -SN BKN014 OVC020 M05/M08 A2985 930 81 -1200 300/12G18 RMK AO2 SFC VIS 1 1/4 P0000
14837KMSN MSN20020226140512702/26/02 14:05:31  5-MIN KMSN 262005Z 31015KT 3/4SM -SN SCT011 OVC018 M05/M08 A2985 930 81 -1200 310/15 RMK AO2 TWR VIS 1 P0000
14837KMSN MSN20020226141013302/26/02 14:10:31  5-MIN KMSN 262010Z 30012G17KT 3/4SM -SN BKN011 OVC018 M05/M08 A2985 930 81 -1200 300/12G17 RMK AO2 TWR VIS 1 P0000
14837KMSN MSN20020226141514202/26/02 14:15:31  5-MIN KMSN 262015Z 31011G17KT 1SM -SN SCT011 BKN018 OVC028 M05/M08 A2985 930 81 -1200 300/11G17 RMK AO2 SFC VIS 1 1/2 P0000
14837KMSN MSN20020226142012902/26/02 14:20:31  5-MIN KMSN 262020Z 30011KT 1SM -SN SCT011 OVC018 M05/M08 A2985 930 81 -1200 300/11 RMK AO2 SFC VIS 1 1/2 P0000
14837KMSN MSN20020226142513802/26/02 14:25:31  5-MIN KMSN 262025Z 30011G19KT 1SM -SN SCT009 BKN018 OVC024 M05/M07 A2985 930 84 -1200 300/11G19 RMK AO2 SFC VIS 2 P0000
14837KMSN MSN20020226143013802/26/02 14:30:31  5-MIN KMSN 262030Z 30010G19KT 1SM -SN SCT012 BKN018 OVC024 M05/M08 A2985 930 81 -1200 290/10G19 RMK AO2 SFC VIS 2 P0000
14837KMSN MSN20020226143513502/26/02 14:35:31  5-MIN KMSN 262035Z 30013G18KT 1SM -SN BKN016 OVC024 M05/M08 A2985 930 81 -1200 300/13G18 RMK AO2 SFC VIS 1 3/4 P0000
14837KMSN MSN20020226144014202/26/02 14:40:31  5-MIN KMSN 262040Z 31010G18KT 1SM -SN SCT018 BKN024 OVC028 M05/M08 A2985 930 77 -1200 310/10G18 RMK AO2 SFC VIS 2 1/2 P0000
14837KMSN MSN20020226144512802/26/02 14:45:31  5-MIN KMSN 262045Z 31014G19KT 4SM -SN SCT018 BKN026 OVC035 M04/M08 A2985 930 74 -1200 310/14G19 RMK AO2 P0000
14837KMSN MSN20020226145015702/26/02 14:50:31  5-MIN KMSN 262050Z 31010G21KT 1SM -SN BKN021 BKN028 OVC035 M05/M08 A2986 920 77 -1200 310/10G21 RMK AO2 SLP123 P0001 60002 T10501083 58007
14837KMSN MSN20020226145512802/26/02 14:55:31  5-MIN KMSN 262055Z 31010G21KT 1SM -SN BKN021 BKN026 OVC033 M05/M08 A2986 920 81 -1200 310/10G21 RMK AO2 P0000
14837KMSN MSN20020226150013602/26/02 15:00:31  5-MIN KMSN 262100Z 30008KT 1SM -SN FEW021 BKN025 OVC035 M05/M08 A2986 920 81 -1200 300/08 RMK AO2 SFC VIS 2 1/2 P0000
14837KMSN MSN20020226150514202/26/02 15:05:31  5-MIN KMSN 262105Z 30012G15KT 1SM -SN FEW019 BKN025 OVC035 M05/M08 A2986 920 81 -1200 300/12G15 RMK AO2 SFC VIS 1 1/2 P0000
14837KMSN MSN20020226151013602/26/02 15:10:31  5-MIN KMSN 262110Z 30011KT 1SM -SN FEW017 BKN022 OVC037 M05/M08 A2986 920 81 -1200 300/11 RMK AO2 SFC VIS 2 1/2 P0000
14837KMSN MSN20020226151513802/26/02 15:15:31  5-MIN KMSN 262115Z 30009G16KT 1SM -SN FEW013 BKN022 OVC035 M05/M08 A2986 920 81 -1200 300/09G16 RMK AO2 SFC VIS 3 P0000
14837KMSN MSN20020226152015802/26/02 15:20:31  5-MIN KMSN 262120Z 29010G15KT 250V320 1SM -SN SCT016 BKN024 OVC035 M05/M08 A2986 920 81 -1200 290/10G15 250V320 RMK AO2 SFC VIS 1 3/4 P0000
14837KMSN MSN20020226152512402/26/02 15:25:31  5-MIN KMSN 262125Z 29010KT 3/4SM -SN BKN017 BKN023 OVC035 M06/M07 A2986 920 88 -1300 290/10 RMK AO2 P0000
14837KMSN MSN20020226153012402/26/02 15:30:31  5-MIN KMSN 262130Z 30011KT 3/4SM -SN BKN015 BKN020 OVC035 M06/M07 A2986 920 88 -1300 300/11 RMK AO2 P0000
14837KMSN MSN20020226153513802/26/02 15:35:31  5-MIN KMSN 262135Z 30011KT 3/4SM -SN BKN015 BKN020 OVC027 M06/M08 A2986 920 84 -1300 300/11 RMK AO2 SFC VIS 1 1/2 P0000
14837KMSN MSN20020226154015302/26/02 15:40:31  5-MIN KMSN 262140Z 29011G16KT 270V340 3/4SM -SN BKN015 OVC020 M05/M08 A2986 920 81 -1200 290/11G16 270V340 RMK AO2 SFC VIS 1 1/2 P0000
14837KMSN MSN20020226154514902/26/02 15:45:31  5-MIN KMSN 262145Z 30009G16KT 260V320 3/4SM -SN BKN015 OVC020 M06/M08 A2986 920 84 -1300 300/09G16 260V320 RMK AO2 SFC VIS 1 P0000
14837KMSN MSN20020226155015602/26/02 15:50:31  5-MIN KMSN 262150Z 30007G16KT 270V330 3/4SM -SN BKN013 OVC020 M06/M08 A2986 920 84 -1300 300/07G16 270V330 RMK AO2 SLP126 P0000 T10561078
14837KMSN MSN20020226155512302/26/02 15:55:31  5-MIN KMSN 262155Z 30008KT 1/2SM SN SCT009 BKN013 OVC018 M06/M07 A2987 910 88 -1300 300/08 RMK AO2 P0000
14837KMSN MSN20020226160011602/26/02 16:00:31  5-MIN KMSN 262200Z 30012KT 1/2SM SN BKN009 OVC016 M06/M07 A2987 920 88 -1300 300/12 RMK AO2 P0000
14837KMSN MSN20020226160512902/26/02 16:05:31  5-MIN KMSN 262205Z 30012G17KT 1/2SM SN BKN012 BKN018 OVC027 M06/M08 A2987 910 84 -1300 300/12G17 RMK AO2 P0000
14837KMSN MSN20020226161014202/26/02 16:10:31  5-MIN KMSN 262210Z 30012G17KT 1/2SM -SN BKN012 BKN018 OVC027 M06/M08 A2987 910 84 -1300 300/12G17 RMK AO2 SFC VIS 3/4 P0000
14837KMSN MSN20020226161514202/26/02 16:15:31  5-MIN KMSN 262215Z 30009G16KT 1/2SM -SN BKN010 BKN016 OVC025 M06/M07 A2987 910 88 -1300 300/09G16 RMK AO2 SFC VIS 3/4 P0000
14837KMSN MSN20020226162013302/26/02 16:20:31  5-MIN KMSN 262220Z 30011G17KT 1/2SM -SN BKN012 OVC022 M06/M08 A2987 910 84 -1300 290/11G17 RMK AO2 SFC VIS 1 P0000
14837KMSN MSN20020226162514002/26/02 16:25:31  5-MIN KMSN 262225Z 30013G17KT 1/2SM -SN BKN014 BKN019 OVC027 M06/M08 A2987 910 81 -1300 300/13G17 RMK AO2 SFC VIS 1 P0000
14837KMSN MSN20020226163013402/26/02 16:30:31  5-MIN KMSN 262230Z 30014KT 1/2SM -SN BKN014 BKN019 OVC027 M06/M08 A2987 910 84 -1400 300/14 RMK AO2 SFC VIS 1 P0000
14837KMSN MSN20020226163513402/26/02 16:35:31  5-MIN KMSN 262235Z 30012KT 1/2SM -SN BKN014 BKN021 OVC034 M06/M09 A2987 910 81 -1400 300/12 RMK AO2 SFC VIS 1 P0000
14837KMSN MSN20020226164014002/26/02 16:40:31  5-MIN KMSN 262240Z 30011G19KT 3/4SM -SN BKN016 BKN025 OVC034 M06/M08 A2987 910 84 -1400 290/11G19 RMK AO2 SFC VIS 1 P0000
14837KMSN MSN20020226164514002/26/02 16:45:31  5-MIN KMSN 262245Z 29011G19KT 3/4SM -SN BKN016 BKN028 OVC034 M06/M08 A2987 910 84 -1400 290/11G19 RMK AO2 SFC VIS 1 P0000
14837KMSN MSN20020226165015002/26/02 16:50:31  5-MIN KMSN 262250Z 30010G17KT 3/4SM -SN BKN014 OVC028 M06/M08 A2987 910 88 -1400 300/10G17 RMK AO2 SFC VIS 1 SLP130 P0000 T10611078
14837KMSN MSN20020226165513002/26/02 16:55:31  5-MIN KMSN 262255Z 29011G17KT 3/4SM -SN BKN011 BKN017 OVC027 M06/M08 A2988 910 88 -1400 290/11G17 RMK AO2 P0000
14837KMSN MSN20020226170013602/26/02 17:00:31  5-MIN KMSN 262300Z 29010KT 1/2SM -SN BKN009 BKN017 OVC027 M06/M08 A2988 900 88 -1400 290/10 RMK AO2 SFC VIS 3/4 P0000
14837KMSN MSN20020226170512402/26/02 17:05:31  5-MIN KMSN 262305Z 30009KT 3/4SM -SN BKN009 BKN019 OVC024 M06/M08 A2988 900 88 -1400 300/09 RMK AO2 P0000
14837KMSN MSN20020226171013002/26/02 17:10:31  5-MIN KMSN 262310Z 30012G16KT 3/4SM -SN BKN009 BKN019 OVC024 M07/M07 A2988 900 96 -1500 300/12G16 RMK AO2 P0000
14837KMSN MSN20020226171513002/26/02 17:15:31  5-MIN KMSN 262315Z 30008G16KT 3/4SM -SN BKN009 BKN019 OVC024 M07/M08 A2988 900 92 -1500 300/08G16 RMK AO2 P0000
14837KMSN MSN20020226172012402/26/02 17:20:31  5-MIN KMSN 262320Z 30008KT 3/4SM -SN BKN009 BKN020 OVC026 M07/M08 A2988 900 92 -1500 300/08 RMK AO2 P0000
14837KMSN MSN20020226172513402/26/02 17:25:31  5-MIN KMSN 262325Z 30008KT 3/4SM -SN BKN009 BKN020 OVC029 M07/M08 A2988 900 88 -1500 290/08 RMK AO2 SFC VIS 1 P0000
14837KMSN MSN20020226173015402/26/02 17:30:31  5-MIN KMSN 262330Z 30007KT 270V330 3/4SM -SN BKN011 BKN024 OVC031 M07/M08 A2988 900 92 -1500 300/07 270V330 RMK AO2 SFC VIS 1 1/4 P0000
14837KMSN MSN20020226173513802/26/02 17:35:31  5-MIN KMSN 262335Z 30010KT 3/4SM -SN BKN013 BKN022 OVC030 M07/M08 A2988 900 88 -1500 300/10 RMK AO2 SFC VIS 1 1/4 P0000
14837KMSN MSN20020226174013802/26/02 17:40:31  5-MIN KMSN 262340Z 30007KT 3/4SM -SN BKN015 BKN022 OVC028 M07/M08 A2988 900 92 -1500 290/07 RMK AO2 SFC VIS 1 1/4 P0000
14837KMSN MSN20020226174513402/26/02 17:45:31  5-MIN KMSN 262345Z 28008KT 3/4SM -SN BKN015 BKN024 OVC030 M07/M09 A2988 900 84 -1500 280/08 RMK AO2 SFC VIS 1 P0000
14837KMSN MSN20020226175019702/26/02 17:50:31  5-MIN KMSN 262350Z 29010KT 260V330 3/4SM -SN BKN019 BKN028 OVC033 M07/M08 A2988 900 88 -1500 290/10 260V330 RMK AO2 SFC VIS 1 SLP133 P0002 60007 4/002 T10671083 11044 21067 55006
14837KMSN MSN20020226175513802/26/02 17:55:31  5-MIN KMSN 262355Z 29009KT 3/4SM -SN BKN019 BKN029 OVC033 M07/M08 A2988 900 88 -1500 290/09 RMK AO2 SFC VIS 1 1/4 P0000
14837KMSN MSN20020226180014002/26/02 18:00:31  5-MIN KMSN 270000Z 30008G17KT 3/4SM -SN BKN021 BKN029 OVC033 M07/M08 A2989 900 92 -1500 290/08G17 RMK AO2 SFC VIS 1 P0000
14837KMSN MSN20020226180513302/26/02 18:05:31  5-MIN KMSN 270005Z 30010G17KT 3/4SM -SN BKN021 OVC031 M07/M08 A2989 890 88 -1500 300/10G17 RMK AO2 SFC VIS 1 P0000
14837KMSN MSN20020226181013802/26/02 18:10:31  5-MIN KMSN 270010Z 29010KT 3/4SM -SN SCT016 BKN021 OVC033 M07/M08 A2989 890 88 -1500 290/10 RMK AO2 SFC VIS 1 1/4 P0000
14837KMSN MSN20020226181513802/26/02 18:15:31  5-MIN KMSN 270015Z 30007KT 3/4SM -SN SCT016 BKN021 OVC033 M07/M08 A2989 890 88 -1500 300/07 RMK AO2 SFC VIS 1 1/4 P0000
14837KMSN MSN20020226182013802/26/02 18:20:31  5-MIN KMSN 270020Z 29009KT 3/4SM -SN SCT014 BKN027 OVC035 M07/M09 A2989 890 84 -1500 290/09 RMK AO2 SFC VIS 1 1/4 P0000
14837KMSN MSN20020226182513402/26/02 18:25:31  5-MIN KMSN 270025Z 29008KT 3/4SM -SN SCT012 BKN021 OVC035 M07/M08 A2989 890 88 -1500 290/08 RMK AO2 SFC VIS 1 P0000
14837KMSN MSN20020226183013202/26/02 18:30:31  5-MIN KMSN 270030Z 30011G17KT 1 1/4SM -SN BKN014 BKN027 OVC033 M07/M09 A2989 890 84 -1500 290/11G17 RMK AO2 P0001
14837KMSN MSN20020226183514602/26/02 18:35:31  5-MIN KMSN 270035Z 29012G17KT 1 1/4SM -SN BKN016 BKN027 OVC035 M07/M09 A2989 890 84 -1500 290/12G17 RMK AO2 SFC VIS 1 3/4 P0001
14837KMSN MSN20020226184012802/26/02 18:40:31  5-MIN KMSN 270040Z 30011G17KT 2SM -SN BKN018 BKN027 OVC037 M07/M09 A2990 890 84 -1500 300/11G17 RMK AO2 P0001
14837KMSN MSN20020226184512202/26/02 18:45:31  5-MIN KMSN 270045Z 30009KT 2SM -SN BKN020 BKN027 OVC033 M07/M09 A2990 890 84 -1500 290/09 RMK AO2 P0001
14837KMSN MSN20020226185015902/26/02 18:50:31  5-MIN KMSN 270050Z 30009G16KT 2SM -SN BKN022 BKN033 OVC043 M07/M09 A2990 890 84 -1500 300/09G16 RMK AO2 SFC VIS 2 1/2 SLP138 P0001 T10671089
14837KMSN MSN20020226185512802/26/02 18:55:31  5-MIN KMSN 270055Z 30009G16KT 3SM -SN BKN028 BKN042 OVC050 M07/M09 A2989 890 81 -1500 300/09G16 RMK AO2 P0000
14837KMSN MSN20020226190012802/26/02 19:00:31  5-MIN KMSN 270100Z 30009G16KT 6SM -SN BKN030 BKN042 OVC060 M07/M09 A2990 890 81 -1500 300/09G16 RMK AO2 P0000
14837KMSN MSN20020226190513802/26/02 19:05:31  5-MIN KMSN 270105Z 30010KT 270V330 6SM -SN FEW023 BKN032 OVC060 M07/M09 A2989 890 81 -1500 300/10 270V330 RMK AO2 P0000
14837KMSN MSN20020226191012802/26/02 19:10:31  5-MIN KMSN 270110Z 29008G15KT 6SM -SN FEW023 BKN034 OVC048 M07/M09 A2990 890 81 -1500 290/08G15 RMK AO2 P0000
14837KMSN MSN20020226191512802/26/02 19:15:31  5-MIN KMSN 270115Z 29008G15KT 5SM -SN FEW025 BKN036 OVC050 M07/M09 A2990 890 81 -1500 290/08G15 RMK AO2 P0000
14837KMSN MSN20020226192012802/26/02 19:20:31  5-MIN KMSN 270120Z 29007G15KT 3SM -SN FEW027 BKN036 OVC048 M07/M09 A2989 890 81 -1500 290/07G15 RMK AO2 P0000
14837KMSN MSN20020226192512202/26/02 19:25:31  5-MIN KMSN 270125Z 29009KT 3SM -SN FEW025 BKN036 OVC048 M07/M09 A2989 890 84 -1500 290/09 RMK AO2 P0000
14837KMSN MSN20020226193012202/26/02 19:30:31  5-MIN KMSN 270130Z 29007KT 3SM -SN FEW025 BKN034 OVC047 M07/M09 A2989 890 88 -1600 290/07 RMK AO2 P0000
14837KMSN MSN20020226193512202/26/02 19:35:31  5-MIN KMSN 270135Z 29008KT 3SM -SN FEW025 BKN034 OVC045 M07/M09 A2989 890 88 -1600 290/08 RMK AO2 P0000
14837KMSN MSN20020226194011502/26/02 19:40:31  5-MIN KMSN 270140Z 29008KT 3SM -SN SCT028 OVC039 M07/M09 A2989 890 88 -1600 290/08 RMK AO2 P0000
14837KMSN MSN20020226194512202/26/02 19:45:31  5-MIN KMSN 270145Z 30008KT 3SM -SN SCT025 BKN030 OVC039 M07/M09 A2989 890 88 -1600 300/08 RMK AO2 P0000
14837KMSN MSN20020226195014502/26/02 19:50:31  5-MIN KMSN 270150Z 29010G14KT 3SM -SN SCT025 BKN030 OVC039 M07/M09 A2989 890 84 -1600 290/10G14 RMK AO2 SLP137 P0000 T10721094
14837KMSN MSN20020226195512102/26/02 19:55:31  5-MIN KMSN 270155Z 30010G15KT 3SM -SN SCT027 OVC039 M07/M09 A2989 890 84 -1600 300/10G15 RMK AO2 P0000
14837KMSN MSN20020226200012102/26/02 20:00:31  5-MIN KMSN 270200Z 30008G15KT 3SM -SN SCT027 OVC041 M07/M09 A2989 890 84 -1600 300/08G15 RMK AO2 P0000
14837KMSN MSN20020226200512202/26/02 20:05:31  5-MIN KMSN 270205Z 30010KT 3SM -SN FEW025 SCT032 OVC041 M07/M09 A2989 890 84 -1600 300/10 RMK AO2 P0000
14837KMSN MSN20020226201012202/26/02 20:10:31  5-MIN KMSN 270210Z 30009KT 3SM -SN SCT025 SCT031 OVC041 M07/M09 A2989 890 84 -1600 300/09 RMK AO2 P0000
14837KMSN MSN20020226201512202/26/02 20:15:31  5-MIN KMSN 270215Z 30009KT 3SM -SN SCT023 BKN029 OVC041 M07/M09 A2989 890 84 -1600 300/09 RMK AO2 P0000
14837KMSN MSN20020226202012202/26/02 20:20:31  5-MIN KMSN 270220Z 30008KT 3SM -SN SCT023 BKN029 OVC039 M07/M09 A2989 890 84 -1600 300/08 RMK AO2 P0000
14837KMSN MSN20020226202512202/26/02 20:25:31  5-MIN KMSN 270225Z 30010KT 3SM -SN SCT025 BKN033 OVC041 M07/M09 A2989 890 84 -1600 300/10 RMK AO2 P0000
14837KMSN MSN20020226203012202/26/02 20:30:31  5-MIN KMSN 270230Z 30008KT 3SM -SN SCT025 BKN030 OVC037 M07/M10 A2989 890 81 -1600 300/08 RMK AO2 P0000
14837KMSN MSN20020226203512102/26/02 20:35:31  5-MIN KMSN 270235Z 30010G16KT 3SM -SN SCT023 OVC035 M07/M10 A2989 890 81 -1600 300/10G16 RMK AO2 P0000
14837KMSN MSN20020226204011502/26/02 20:40:31  5-MIN KMSN 270240Z 30010KT 3SM -SN SCT023 OVC033 M07/M11 A2989 890 77 -1600 300/10 RMK AO2 P0000
14837KMSN MSN20020226204511502/26/02 20:45:31  5-MIN KMSN 270245Z 30009KT 3SM -SN SCT023 OVC035 M07/M10 A2990 890 81 -1600 300/09 RMK AO2 P0000
14837KMSN MSN20020226205015002/26/02 20:50:31  5-MIN KMSN 270250Z 31008G15KT 3SM -SN SCT023 OVC035 M07/M09 A2990 890 84 -1600 310/08G15 RMK AO2 SLP138 P0000 60001 T10721094 51009
14837KMSN MSN20020226205512102/26/02 20:55:31  5-MIN KMSN 270255Z 30010G15KT 2SM -SN FEW023 OVC035 M07/M09 A2990 890 84 -1600 300/10G15 RMK AO2 P0000
14837KMSN MSN20020226210011502/26/02 21:00:31  5-MIN KMSN 270300Z 31009KT 2SM -SN FEW023 OVC035 M07/M09 A2990 890 84 -1600 310/09 RMK AO2 P0000
14837KMSN MSN20020226210512202/26/02 21:05:31  5-MIN KMSN 270305Z 30008KT 2SM -SN FEW021 SCT028 OVC035 M07/M09 A2990 890 84 -1600 300/08 RMK AO2 P0000
14837KMSN MSN20020226211011502/26/02 21:10:31  5-MIN KMSN 270310Z 30007KT 2SM -SN FEW024 OVC035 M07/M09 A2990 890 88 -1600 300/07 RMK AO2 P0000
14837KMSN MSN20020226211511502/26/02 21:15:31  5-MIN KMSN 270315Z 30009KT 2SM -SN SCT026 OVC033 M07/M09 A2990 890 88 -1600 300/09 RMK AO2 P0000
14837KMSN MSN20020226212013602/26/02 21:20:31  5-MIN KMSN 270320Z 29010KT 2SM -SN FEW022 BKN029 OVC035 M07/M09 A2990 880 84 -1600 290/10 RMK AO2 SFC VIS 2 1/2 P0000
14837KMSN MSN20020226212514202/26/02 21:25:31  5-MIN KMSN 270325Z 30011G16KT 2SM -SN FEW022 BKN029 OVC035 M07/M10 A2990 890 81 -1600 300/11G16 RMK AO2 SFC VIS 2 1/2 P0000
14837KMSN MSN20020226213013102/26/02 21:30:31  5-MIN KMSN 270330Z 30009G16KT 2SM -SN SCT025 OVC033 M07/M10 A2990 890 81 -1600 300/09G16 RMK AO2 SFC VIS 3 P0000
14837KMSN MSN20020226213513202/26/02 21:35:31  5-MIN KMSN 270335Z 31009KT 2SM -SN SCT023 BKN030 OVC035 M07/M10 A2990 890 81 -1600 310/09 RMK AO2 SFC VIS 4 P0000
14837KMSN MSN20020226214013202/26/02 21:40:31  5-MIN KMSN 270340Z 30009KT 2SM -SN FEW021 BKN026 OVC035 M07/M10 A2990 890 81 -1600 300/09 RMK AO2 SFC VIS 4 P0000
14837KMSN MSN20020226214513802/26/02 21:45:31  5-MIN KMSN 270345Z 30008G15KT 2SM -SN SCT023 BKN030 OVC035 M07/M10 A2989 890 81 -1600 300/08G15 RMK AO2 SFC VIS 4 P0000
14837KMSN MSN20020226215014902/26/02 21:50:31  5-MIN KMSN 270350Z 30008KT 3SM -SN SCT023 BKN028 OVC035 M08/M10 A2989 890 84 -1600 300/08 RMK AO2 SFC VIS 4 SLP137 P0000 T10781100
14837KMSN MSN20020226215513202/26/02 21:55:31  5-MIN KMSN 270355Z 31008KT 3SM -SN SCT023 BKN029 OVC035 M08/M10 A2989 890 84 -1600 310/08 RMK AO2 SFC VIS 4 P0000
14837KMSN MSN20020226220013202/26/02 22:00:31  5-MIN KMSN 270400Z 31009KT 3SM -SN SCT023 BKN029 OVC037 M08/M09 A2989 890 88 -1600 310/09 RMK AO2 SFC VIS 4 P0000
14837KMSN MSN20020226220512202/26/02 22:05:31  5-MIN KMSN 270405Z 31008KT 3SM -SN SCT023 BKN030 OVC045 M08/M10 A2989 890 84 -1600 310/08 RMK AO2 P0000
14837KMSN MSN20020226221013202/26/02 22:10:31  5-MIN KMSN 270410Z 31009KT 3SM -SN SCT023 BKN030 OVC045 M08/M10 A2989 890 84 -1600 310/09 RMK AO2 SFC VIS 4 P0000
14837KMSN MSN20020226221513202/26/02 22:15:31  5-MIN KMSN 270415Z 30008KT 3SM -SN SCT025 BKN035 OVC045 M08/M11 A2989 890 80 -1600 300/08 RMK AO2 SFC VIS 4 P0000
14837KMSN MSN20020226222013202/26/02 22:20:31  5-MIN KMSN 270420Z 31007KT 3SM -SN FEW024 BKN033 OVC055 M08/M10 A2989 890 84 -1600 310/07 RMK AO2 SFC VIS 4 P0000
14837KMSN MSN20020226222513202/26/02 22:25:31  5-MIN KMSN 270425Z 30007KT 3SM -SN FEW022 BKN033 OVC055 M08/M10 A2989 890 88 -1700 300/07 RMK AO2 SFC VIS 4 P0000
14837KMSN MSN20020226223013202/26/02 22:30:31  5-MIN KMSN 270430Z 30008KT 3SM -SN FEW022 BKN033 OVC055 M08/M10 A2989 890 88 -1700 300/08 RMK AO2 SFC VIS 4 P0000
14837KMSN MSN20020226223513202/26/02 22:35:31  5-MIN KMSN 270435Z 30006KT 3SM -SN FEW022 BKN033 OVC055 M08/M10 A2989 890 88 -1700 300/06 RMK AO2 SFC VIS 4 P0000
14837KMSN MSN20020226224013202/26/02 22:40:31  5-MIN KMSN 270440Z 31009KT 3SM -SN FEW022 BKN033 OVC050 M08/M10 A2989 890 88 -1700 300/09 RMK AO2 SFC VIS 5 P0000
14837KMSN MSN20020226224513202/26/02 22:45:31  5-MIN KMSN 270445Z 31006KT 3SM -SN FEW022 BKN035 OVC055 M08/M10 A2989 890 84 -1600 310/06 RMK AO2 SFC VIS 5 P0000
14837KMSN MSN20020226225014502/26/02 22:50:31  5-MIN KMSN 270450Z 31008G14KT 5SM -SN FEW022 BKN037 OVC065 M08/M10 A2989 890 84 -1600 310/08G14 RMK AO2 SLP135 P0000 T10781100
14837KMSN MSN20020226225512202/26/02 22:55:31  5-MIN KMSN 270455Z 31007KT 4SM -SN FEW024 BKN037 OVC060 M08/M10 A2989 890 84 -1600 310/07 RMK AO2 P0000
14837KMSN MSN20020226230012202/26/02 23:00:31  5-MIN KMSN 270500Z 31007KT 5SM -SN FEW024 BKN044 OVC060 M08/M11 A2989 890 80 -1600 310/07 RMK AO2 P0000
14837KMSN MSN20020226230512202/26/02 23:05:31  5-MIN KMSN 270505Z 31007KT 5SM -SN FEW024 BKN044 OVC055 M08/M10 A2989 890 84 -1600 310/07 RMK AO2 P0000
14837KMSN MSN20020226231012802/26/02 23:10:31  5-MIN KMSN 270510Z 31008G14KT 5SM -SN SCT024 BKN044 OVC060 M08/M10 A2989 890 84 -1600 310/08G14 RMK AO2 P0000
14837KMSN MSN20020226231512202/26/02 23:15:31  5-MIN KMSN 270515Z 31009KT 5SM -SN FEW024 BKN047 OVC060 M08/M10 A2989 890 88 -1700 310/09 RMK AO2 P0000
14837KMSN MSN20020226232012202/26/02 23:20:31  5-MIN KMSN 270520Z 31010KT 5SM -SN FEW024 BKN049 OVC060 M08/M11 A2989 890 84 -1700 310/10 RMK AO2 P0000
14837KMSN MSN20020226232512802/26/02 23:25:31  5-MIN KMSN 270525Z 31012G18KT 6SM -SN FEW024 BKN045 OVC060 M08/M11 A2989 890 84 -1700 310/12G18 RMK AO2 P0000
14837KMSN MSN20020226233012802/26/02 23:30:31  5-MIN KMSN 270530Z 31008G18KT 6SM -SN FEW024 BKN041 OVC065 M08/M10 A2989 890 88 -1700 310/08G18 RMK AO2 P0000
14837KMSN MSN20020226233512202/26/02 23:35:31  5-MIN KMSN 270535Z 31009KT 6SM -SN FEW024 BKN041 OVC060 M08/M11 A2989 890 84 -1700 310/09 RMK AO2 P0000
14837KMSN MSN20020226234012202/26/02 23:40:31  5-MIN KMSN 270540Z 31010KT 7SM -SN FEW024 BKN043 OVC050 M08/M11 A2989 890 84 -1700 310/10 RMK AO2 P0000
14837KMSN MSN20020226234512802/26/02 23:45:31  5-MIN KMSN 270545Z 31008G16KT 8SM -SN FEW024 BKN041 OVC050 M08/M11 A2989 890 80 -1700 310/08G16 RMK AO2 P0000
14837KMSN MSN20020226235018502/26/02 23:50:31  5-MIN KMSN 270550Z 31010G16KT 9SM -SN FEW026 BKN043 OVC055 M08/M11 A2989 900 80 -1700 310/10G16 RMK AO2 SLP135 4/002 P0000 60001 T10831111 11067 21083 410391083 51004
14837KMSN MSN20020226235512202/26/02 23:55:31  5-MIN KMSN 270555Z 32009KT 9SM -SN FEW026 BKN045 OVC060 M08/M11 A2989 890 80 -1700 320/09 RMK AO2 P0000
14837KMSN MSN20020227000012202/27/02 00:00:31  5-MIN KMSN 270600Z 31010KT 9SM -SN FEW026 BKN045 OVC055 M08/M11 A2989 890 80 -1700 310/10 RMK AO2 P0000
14837KMSN MSN20020227000511502/27/02 00:05:31  5-MIN KMSN 270605Z 31008KT 9SM -SN BKN045 OVC055 M08/M12 A2989 890 77 -1700 310/08 RMK AO2 P0000
14837KMSN MSN20020227001011502/27/02 00:10:31  5-MIN KMSN 270610Z 31009KT 9SM -SN BKN043 OVC060 M08/M12 A2989 890 77 -1700 310/09 RMK AO2 P0000
14837KMSN MSN20020227001511502/27/02 00:15:31  5-MIN KMSN 270615Z 31010KT 8SM -SN BKN043 OVC060 M08/M11 A2989 890 80 -1700 310/10 RMK AO2 P0000
14837KMSN MSN20020227002012102/27/02 00:20:31  5-MIN KMSN 270620Z 31010G16KT 8SM -SN BKN041 OVC060 M08/M12 A2989 890 77 -1700 310/10G16 RMK AO2 P0000
14837KMSN MSN20020227002512102/27/02 00:25:31  5-MIN KMSN 270625Z 31010G16KT 9SM -SN BKN041 OVC055 M08/M11 A2989 890 80 -1700 310/10G16 RMK AO2 P0000
14837KMSN MSN20020227003012202/27/02 00:30:31  5-MIN KMSN 270630Z 31009KT 9SM -SN BKN041 BKN060 OVC070 M08/M12 A2989 890 77 -1700 310/09 RMK AO2 P0000
14837KMSN MSN20020227003512202/27/02 00:35:31  5-MIN KMSN 270635Z 31008KT 9SM -SN BKN043 BKN055 OVC070 M08/M12 A2989 890 77 -1700 310/08 RMK AO2 P0000
14837KMSN MSN20020227004011502/27/02 00:40:31  5-MIN KMSN 270640Z 31011KT 8SM -SN BKN045 OVC055 M08/M11 A2989 890 80 -1700 310/11 RMK AO2 P0000
14837KMSN MSN20020227004511502/27/02 00:45:31  5-MIN KMSN 270645Z 31008KT 7SM -SN BKN045 OVC060 M08/M11 A2989 890 80 -1700 310/08 RMK AO2 P0000
14837KMSN MSN20020227005013202/27/02 00:50:31  5-MIN KMSN 270650Z 30010KT 6SM -SN BKN047 OVC060 M08/M13 A2989 890 67 -1700 300/10 RMK AO2 SLP137 P0000 T10831133
14837KMSN MSN20020227005511502/27/02 00:55:31  5-MIN KMSN 270655Z 31011KT 6SM -SN BKN049 OVC060 M08/M13 A2989 890 67 -1700 310/11 RMK AO2 P0000
14837KMSN MSN20020227010011502/27/02 01:00:31  5-MIN KMSN 270700Z 31010KT 5SM -SN BKN049 OVC060 M08/M13 A2989 890 67 -1700 310/10 RMK AO2 P0000
14837KMSN MSN20020227010511502/27/02 01:05:31  5-MIN KMSN 270705Z 31010KT 4SM -SN BKN043 OVC055 M08/M13 A2989 890 67 -1700 310/10 RMK AO2 P0000
14837KMSN MSN20020227011011502/27/02 01:10:31  5-MIN KMSN 270710Z 31012KT 5SM -SN SCT043 OVC060 M08/M13 A2989 890 67 -1700 310/12 RMK AO2 P0000
14837KMSN MSN20020227011511502/27/02 01:15:31  5-MIN KMSN 270715Z 31011KT 5SM -SN SCT041 OVC060 M08/M13 A2989 890 67 -1700 310/11 RMK AO2 P0000
14837KMSN MSN20020227012012102/27/02 01:20:31  5-MIN KMSN 270720Z 31012G18KT 6SM -SN BKN035 OVC060 M08/M13 A2990 890 67 -1700 310/12G18 RMK AO2 P0000
14837KMSN MSN20020227012512802/27/02 01:25:31  5-MIN KMSN 270725Z 31012G18KT 8SM -SN FEW022 BKN033 OVC060 M08/M13 A2990 890 67 -1700 310/12G18 RMK AO2 P0000
14837KMSN MSN20020227013012802/27/02 01:30:31  5-MIN KMSN 270730Z 32013G16KT 9SM -SN FEW022 BKN036 OVC065 M08/M14 A2990 890 64 -1700 320/13G16 RMK AO2 P0000
14837KMSN MSN20020227013512802/27/02 01:35:31  5-MIN KMSN 270735Z 31011G18KT 8SM -SN FEW022 BKN036 OVC065 M08/M14 A2990 880 64 -1700 310/11G18 RMK AO2 P0000
14837KMSN MSN20020227014012802/27/02 01:40:31  5-MIN KMSN 270740Z 32011G18KT 7SM -SN FEW022 BKN032 OVC065 M08/M14 A2990 880 64 -1700 320/11G18 RMK AO2 P0000
14837KMSN MSN20020227014512202/27/02 01:45:31  5-MIN KMSN 270745Z 31008KT 7SM -SN FEW022 SCT037 OVC070 M08/M14 A2990 880 64 -1700 310/08 RMK AO2 P0000
14837KMSN MSN20020227015014502/27/02 01:50:31  5-MIN KMSN 270750Z 31007G15KT 7SM -SN FEW022 SCT045 OVC070 M08/M14 A2990 880 64 -1700 310/07G15 RMK AO2 SLP139 P0000 T10831139
14837KMSN MSN20020227015512802/27/02 01:55:31  5-MIN KMSN 270755Z 31012G16KT 8SM -SN FEW022 SCT045 OVC070 M08/M14 A2990 880 64 -1700 310/12G16 RMK AO2 P0000
14837KMSN MSN20020227020012102/27/02 02:00:31  5-MIN KMSN 270800Z 31009G16KT 9SM -SN FEW022 OVC070 M08/M14 A2990 890 62 -1700 310/09G16 RMK AO2 P0000
14837KMSN MSN20020227020511402/27/02 02:05:31  5-MIN KMSN 270805Z 31007G15KT 8SM -SN OVC070 M08/M13 A2990 880 67 -1700 310/07G15 RMK AO2 P0000
14837KMSN MSN20020227021012102/27/02 02:10:31  5-MIN KMSN 270810Z 31009G15KT 8SM -SN BKN065 OVC080 M09/M13 A2990 880 74 -1800 310/09G15 RMK AO2 P0000
14837KMSN MSN20020227021512102/27/02 02:15:31  5-MIN KMSN 270815Z 31012G17KT 9SM -SN BKN070 OVC095 M08/M12 A2990 890 74 -1700 310/12G17 RMK AO2 P0000
14837KMSN MSN20020227022012102/27/02 02:20:31  5-MIN KMSN 270820Z 32012G17KT 9SM -SN BKN070 OVC100 M08/M12 A2990 890 74 -1700 320/12G17 RMK AO2 P0000
14837KMSN MSN20020227022511502/27/02 02:25:31  5-MIN KMSN 270825Z 31012KT 9SM -SN SCT075 OVC100 M08/M12 A2990 890 77 -1700 310/12 RMK AO2 P0000
14837KMSN MSN20020227023012302/27/02 02:30:31  5-MIN KMSN 270830Z 32013G17KT 9SM FEW070 OVC100 M08/M12 A2990 890 74 -1700 320/13G17 RMK AO2 SNE28 P0000
14837KMSN MSN20020227023512402/27/02 02:35:31  5-MIN KMSN 270835Z 31013G17KT 10SM FEW075 OVC100 M08/M12 A2990 880 74 -1700 310/13G17 RMK AO2 SNE28 P0000
14837KMSN MSN20020227024012402/27/02 02:40:31  5-MIN KMSN 270840Z 31011G17KT 10SM FEW070 OVC100 M08/M12 A2990 880 74 -1700 310/11G17 RMK AO2 SNE28 P0000
14837KMSN MSN20020227024511102/27/02 02:45:31  5-MIN KMSN 270845Z 32009KT 10SM OVC100 M08/M13 A2990 880 70 -1700 320/09 RMK AO2 SNE28 P0000
14837KMSN MSN20020227025014002/27/02 02:50:31  5-MIN KMSN 270850Z 31011KT 10SM OVC100 M08/M13 A2990 880 70 -1700 310/11 RMK AO2 SNE28 SLP139 P0000 60000 T10831128 56003
14837KMSN MSN20020227025509902/27/02 02:55:31  5-MIN KMSN 270855Z 32011KT 10SM OVC100 M08/M12 A2990 880 74 -1700 320/11 RMK AO2
14837KMSN MSN20020227030009902/27/02 03:00:31  5-MIN KMSN 270900Z 31010KT 10SM OVC100 M09/M12 A2990 880 77 -1800 310/10 RMK AO2
14837KMSN MSN20020227030509902/27/02 03:05:31  5-MIN KMSN 270905Z 32009KT 10SM OVC100 M08/M13 A2990 880 70 -1700 320/09 RMK AO2
14837KMSN MSN20020227031010502/27/02 03:10:31  5-MIN KMSN 270910Z 31010G16KT 10SM OVC100 M09/M12 A2990 880 77 -1800 310/10G16 RMK AO2
14837KMSN MSN20020227031510502/27/02 03:15:31  5-MIN KMSN 270915Z 31011G16KT 10SM OVC095 M09/M13 A2990 880 74 -1800 310/11G16 RMK AO2
14837KMSN MSN20020227032010502/27/02 03:20:31  5-MIN KMSN 270920Z 31012G16KT 10SM OVC095 M09/M13 A2990 880 74 -1800 310/12G16 RMK AO2
14837KMSN MSN20020227032510502/27/02 03:25:31  5-MIN KMSN 270925Z 32012G16KT 10SM OVC095 M09/M13 A2990 880 70 -1800 310/12G16 RMK AO2
14837KMSN MSN20020227033010502/27/02 03:30:31  5-MIN KMSN 270930Z 31010G16KT 10SM OVC095 M09/M13 A2990 880 70 -1800 310/10G16 RMK AO2
14837KMSN MSN20020227033509902/27/02 03:35:31  5-MIN KMSN 270935Z 31011KT 10SM OVC095 M09/M13 A2990 880 70 -1800 310/11 RMK AO2
14837KMSN MSN20020227034011502/27/02 03:40:31  5-MIN KMSN 270940Z 31009KT 270V330 10SM OVC095 M09/M13 A2990 880 70 -1800 310/09 270V330 RMK AO2
14837KMSN MSN20020227034509902/27/02 03:45:31  5-MIN KMSN 270945Z 32009KT 10SM OVC095 M09/M13 A2991 880 70 -1800 310/09 RMK AO2
14837KMSN MSN20020227035011602/27/02 03:50:31  5-MIN KMSN 270950Z 31012KT 10SM OVC095 M09/M13 A2990 880 70 -1800 310/12 RMK AO2 SLP142 T10891133
14837KMSN MSN20020227035510502/27/02 03:55:31  5-MIN KMSN 270955Z 32011G17KT 10SM OVC095 M09/M13 A2991 880 70 -1800 320/11G17 RMK AO2
14837KMSN MSN20020227040010502/27/02 04:00:31  5-MIN KMSN 271000Z 32011G18KT 10SM OVC095 M09/M13 A2991 880 70 -1800 320/11G18 RMK AO2
14837KMSN MSN20020227040510502/27/02 04:05:31  5-MIN KMSN 271005Z 31012G18KT 10SM OVC095 M09/M14 A2991 880 67 -1800 310/12G18 RMK AO2
14837KMSN MSN20020227041010502/27/02 04:10:31  5-MIN KMSN 271010Z 32013G19KT 10SM OVC095 M09/M14 A2991 880 64 -1800 320/13G19 RMK AO2
14837KMSN MSN20020227041510502/27/02 04:15:31  5-MIN KMSN 271015Z 32014G19KT 10SM OVC095 M09/M14 A2991 880 64 -1800 320/14G19 RMK AO2
14837KMSN MSN20020227042010502/27/02 04:20:31  5-MIN KMSN 271020Z 31010G19KT 10SM BKN095 M09/M14 A2991 870 64 -1800 310/10G19 RMK AO2
14837KMSN MSN20020227042510502/27/02 04:25:31  5-MIN KMSN 271025Z 32010G17KT 10SM BKN095 M09/M14 A2991 870 64 -1800 320/10G17 RMK AO2
14837KMSN MSN20020227043010502/27/02 04:30:31  5-MIN KMSN 271030Z 31011G17KT 10SM SCT095 M09/M14 A2991 870 64 -1800 310/11G17 RMK AO2
14837KMSN MSN20020227043510502/27/02 04:35:31  5-MIN KMSN 271035Z 31013G17KT 10SM SCT095 M09/M14 A2991 870 67 -1800 310/13G17 RMK AO2
14837KMSN MSN20020227044010502/27/02 04:40:31  5-MIN KMSN 271040Z 31009G17KT 10SM FEW095 M09/M14 A2991 870 64 -1800 310/09G17 RMK AO2
14837KMSN MSN20020227044510202/27/02 04:45:31  5-MIN KMSN 271045Z 31013G18KT 10SM CLR M09/M14 A2991 870 64 -1800 310/13G18 RMK AO2
14837KMSN MSN20020227045011902/27/02 04:50:31  5-MIN KMSN 271050Z 32010G18KT 10SM CLR M09/M15 A2992 870 61 -1800 320/10G18 RMK AO2 SLP146 T10891150
14837KMSN MSN20020227045510202/27/02 04:55:31  5-MIN KMSN 271055Z 31012G17KT 10SM CLR M09/M14 A2992 870 64 -1800 310/12G17 RMK AO2
14837KMSN MSN20020227050010202/27/02 05:00:31  5-MIN KMSN 271100Z 31011G17KT 10SM CLR M09/M14 A2992 860 64 -1800 310/11G17 RMK AO2
14837KMSN MSN20020227050509602/27/02 05:05:31  5-MIN KMSN 271105Z 32010KT 10SM CLR M09/M14 A2992 860 67 -1800 320/10 RMK AO2
14837KMSN MSN20020227051009602/27/02 05:10:31  5-MIN KMSN 271110Z 32011KT 10SM CLR M09/M15 A2992 860 61 -1800 320/11 RMK AO2
14837KMSN MSN20020227051509602/27/02 05:15:31  5-MIN KMSN 271115Z 31011KT 10SM CLR M09/M14 A2992 860 64 -1800 310/11 RMK AO2
14837KMSN MSN20020227052009602/27/02 05:20:31  5-MIN KMSN 271120Z 31009KT 10SM CLR M09/M14 A2993 860 64 -1800 310/09 RMK AO2
14837KMSN MSN20020227052509602/27/02 05:25:31  5-MIN KMSN 271125Z 31009KT 10SM CLR M09/M14 A2993 860 67 -1900 310/09 RMK AO2
14837KMSN MSN20020227053010202/27/02 05:30:31  5-MIN KMSN 271130Z 31011G19KT 10SM CLR M09/M15 A2993 860 61 -1800 310/11G19 RMK AO2
14837KMSN MSN20020227053510202/27/02 05:35:31  5-MIN KMSN 271135Z 32010G19KT 10SM CLR M09/M15 A2993 860 64 -1900 320/10G19 RMK AO2
14837KMSN MSN20020227054011402/27/02 05:40:31  5-MIN KMSN 271140Z 32011G18KT 10SM CLR M09/M15 A2993 850 64 -1900 310/11G18 RMK AO2 70011 4/002
14837KMSN MSN20020227054511402/27/02 05:45:31  5-MIN KMSN 271145Z 32009G18KT 10SM CLR M09/M15 A2993 850 64 -1900 320/09G18 RMK AO2 70011 4/002
14837KMSN MSN20020227055015502/27/02 05:50:31  5-MIN KMSN 271150Z 32010G17KT 10SM CLR M09/M15 A2994 850 64 -1900 320/10G17 RMK AO2 SLP152 60000 70011 4/002 T10941150 11083 21094 51004
14837KMSN MSN20020227055510202/27/02 05:55:31  5-MIN KMSN 271155Z 31011G17KT 10SM CLR M09/M15 A2994 850 64 -1900 310/11G17 RMK AO2
14837KMSN MSN20020227060009602/27/02 06:00:31  5-MIN KMSN 271200Z 32009KT 10SM CLR M09/M14 A2994 850 67 -1900 310/09 RMK AO2
14837KMSN MSN20020227060510202/27/02 06:05:31  5-MIN KMSN 271205Z 32012G18KT 10SM CLR M09/M15 A2994 840 64 -1900 320/12G18 RMK AO2
14837KMSN MSN20020227061010202/27/02 06:10:31  5-MIN KMSN 271210Z 32008G18KT 10SM CLR M09/M15 A2994 840 64 -1900 320/08G18 RMK AO2
14837KMSN MSN20020227061510202/27/02 06:15:31  5-MIN KMSN 271215Z 32010G16KT 10SM CLR M09/M16 A2994 840 61 -1900 320/10G16 RMK AO2
14837KMSN MSN20020227062009602/27/02 06:20:31  5-MIN KMSN 271220Z 32011KT 10SM CLR M09/M15 A2994 840 64 -1900 320/11 RMK AO2
14837KMSN MSN20020227062510202/27/02 06:25:31  5-MIN KMSN 271225Z 32012G17KT 10SM CLR M09/M15 A2994 840 64 -1900 320/12G17 RMK AO2
14837KMSN MSN20020227063010202/27/02 06:30:31  5-MIN KMSN 271230Z 32010G17KT 10SM CLR M09/M15 A2995 840 64 -1900 320/10G17 RMK AO2
14837KMSN MSN20020227063510202/27/02 06:35:31  5-MIN KMSN 271235Z 31012G17KT 10SM CLR M10/M15 A2995 840 67 -2000 310/12G17 RMK AO2
14837KMSN MSN20020227064009602/27/02 06:40:31  5-MIN KMSN 271240Z 31008KT 10SM CLR M10/M14 A2995 840 70 -2000 310/08 RMK AO2
14837KMSN MSN20020227064509602/27/02 06:45:31  5-MIN KMSN 271245Z 31010KT 10SM CLR M10/M15 A2995 830 67 -2000 310/10 RMK AO2
14837KMSN MSN20020227065011302/27/02 06:50:31  5-MIN KMSN 271250Z 31009KT 10SM CLR M10/M15 A2995 830 67 -2000 310/09 RMK AO2 SLP159 T11001150
14837KMSN MSN20020227065510202/27/02 06:55:31  5-MIN KMSN 271255Z 31011G17KT 10SM CLR M10/M15 A2995 830 67 -2000 310/11G17 RMK AO2
14837KMSN MSN20020227070009602/27/02 07:00:31  5-MIN KMSN 271300Z 31011KT 10SM CLR M10/M16 A2996 830 64 -2000 310/11 RMK AO2
14837KMSN MSN20020227070509602/27/02 07:05:31  5-MIN KMSN 271305Z 31011KT 10SM CLR M10/M16 A2996 830 64 -2000 310/11 RMK AO2
14837KMSN MSN20020227071010202/27/02 07:10:31  5-MIN KMSN 271310Z 32009G16KT 10SM CLR M10/M16 A2996 830 64 -2000 320/09G16 RMK AO2
14837KMSN MSN20020227071510202/27/02 07:15:31  5-MIN KMSN 271315Z 31009G16KT 10SM CLR M10/M16 A2996 830 64 -2000 310/09G16 RMK AO2
14837KMSN MSN20020227072009602/27/02 07:20:31  5-MIN KMSN 271320Z 30008KT 10SM CLR M10/M16 A2996 830 64 -2000 300/08 RMK AO2
14837KMSN MSN20020227072509902/27/02 07:25:31  5-MIN KMSN 271325Z 31008KT 10SM FEW025 M10/M15 A2997 820 67 -2000 310/08 RMK AO2
14837KMSN MSN20020227073010602/27/02 07:30:31  5-MIN KMSN 271330Z 30009KT 10SM FEW025 SCT031 M10/M16 A2997 820 64 -2000 300/09 RMK AO2
14837KMSN MSN20020227073510602/27/02 07:35:31  5-MIN KMSN 271335Z 30009KT 10SM FEW025 BKN031 M10/M16 A2997 820 64 -2000 300/09 RMK AO2
14837KMSN MSN20020227074010602/27/02 07:40:31  5-MIN KMSN 271340Z 31009KT 10SM FEW025 BKN031 M10/M16 A2997 820 61 -2000 300/09 RMK AO2
14837KMSN MSN20020227074509902/27/02 07:45:31  5-MIN KMSN 271345Z 30009KT 10SM BKN031 M10/M16 A2997 810 64 -2000 300/09 RMK AO2
14837KMSN MSN20020227075011602/27/02 07:50:31  5-MIN KMSN 271350Z 31009KT 10SM BKN031 M10/M16 A2998 810 64 -2000 310/09 RMK AO2 SLP167 T11001156
14837KMSN MSN20020227075509902/27/02 07:55:31  5-MIN KMSN 271355Z 30009KT 10SM SCT031 M10/M16 A2998 810 64 -2000 300/09 RMK AO2
14837KMSN MSN20020227080009902/27/02 08:00:31  5-MIN KMSN 271400Z 30011KT 10SM FEW031 M10/M16 A2998 810 64 -2000 300/11 RMK AO2
14837KMSN MSN20020227080509902/27/02 08:05:31  5-MIN KMSN 271405Z 31010KT 10SM FEW031 M10/M15 A2998 810 67 -2000 310/10 RMK AO2
14837KMSN MSN20020227081009902/27/02 08:10:31  5-MIN KMSN 271410Z 31011KT 10SM FEW031 M10/M15 A2998 810 67 -2000 310/11 RMK AO2
14837KMSN MSN20020227081509602/27/02 08:15:31  5-MIN KMSN 271415Z 31011KT 10SM CLR M10/M16 A2998 810 64 -2000 310/11 RMK AO2
14837KMSN MSN20020227082009602/27/02 08:20:31  5-MIN KMSN 271420Z 31009KT 10SM CLR M10/M16 A2999 800 61 -2000 300/09 RMK AO2
14837KMSN MSN20020227082509602/27/02 08:25:31  5-MIN KMSN 271425Z 30011KT 10SM CLR M09/M16 A2999 800 61 -2000 300/11 RMK AO2
14837KMSN MSN20020227083010202/27/02 08:30:31  5-MIN KMSN 271430Z 31012G17KT 10SM CLR M09/M15 A2999 800 64 -2000 310/12G17 RMK AO2
14837KMSN MSN20020227083510202/27/02 08:35:31  5-MIN KMSN 271435Z 31011G17KT 10SM CLR M09/M16 A2999 800 61 -2000 310/11G17 RMK AO2
14837KMSN MSN20020227084009602/27/02 08:40:31  5-MIN KMSN 271440Z 31009KT 10SM CLR M09/M16 A2999 800 61 -2000 310/09 RMK AO2
14837KMSN MSN20020227084509602/27/02 08:45:31  5-MIN KMSN 271445Z 32010KT 10SM CLR M09/M16 A2999 800 61 -2000 320/10 RMK AO2
14837KMSN MSN20020227085011902/27/02 08:50:31  5-MIN KMSN 271450Z 32010KT 10SM CLR M09/M15 A2999 800 64 -2000 320/10 RMK AO2 SLP172 T10941150 53012
14837KMSN MSN20020227085509602/27/02 08:55:31  5-MIN KMSN 271455Z 32011KT 10SM CLR M09/M15 A2999 800 64 -2000 310/11 RMK AO2
14837KMSN MSN20020227090009602/27/02 09:00:31  5-MIN KMSN 271500Z 31012KT 10SM CLR M09/M15 A2999 800 61 -1900 310/12 RMK AO2
14837KMSN MSN20020227090509602/27/02 09:05:31  5-MIN KMSN 271505Z 33011KT 10SM CLR M09/M16 A3000 790 59 -1900 330/11 RMK AO2
14837KMSN MSN20020227091011202/27/02 09:10:31  5-MIN KMSN 271510Z 32009KT 290V360 10SM CLR M09/M15 A3000 790 61 -1900 320/09 290V360 RMK AO2
14837KMSN MSN20020227091509602/27/02 09:15:31  5-MIN KMSN 271515Z 32011KT 10SM CLR M09/M15 A3000 790 61 -1900 320/11 RMK AO2
14837KMSN MSN20020227092010202/27/02 09:20:31  5-MIN KMSN 271520Z 32015G19KT 10SM CLR M09/M15 A3000 790 61 -1900 320/15G19 RMK AO2
14837KMSN MSN20020227092510202/27/02 09:25:31  5-MIN KMSN 271525Z 31009G19KT 10SM CLR M09/M15 A3000 790 61 -1900 310/09G19 RMK AO2
14837KMSN MSN20020227093010202/27/02 09:30:31  5-MIN KMSN 271530Z 31013G18KT 10SM CLR M08/M15 A3000 790 59 -1800 310/13G18 RMK AO2
14837KMSN MSN20020227093510202/27/02 09:35:31  5-MIN KMSN 271535Z 31012G18KT 10SM CLR M08/M15 A3000 790 59 -1800 310/12G18 RMK AO2
14837KMSN MSN20020227094010202/27/02 09:40:31  5-MIN KMSN 271540Z 31013G17KT 10SM CLR M08/M14 A3000 790 62 -1800 310/13G17 RMK AO2
14837KMSN MSN20020227094509602/27/02 09:45:31  5-MIN KMSN 271545Z 33011KT 10SM CLR M08/M14 A3001 780 62 -1800 330/11 RMK AO2
14837KMSN MSN20020227095011902/27/02 09:50:31  5-MIN KMSN 271550Z 33013G17KT 10SM CLR M08/M15 A3001 780 59 -1800 330/13G17 RMK AO2 SLP177 T10831150
14837KMSN MSN20020227095510202/27/02 09:55:31  5-MIN KMSN 271555Z 32010G17KT 10SM CLR M08/M15 A3001 780 59 -1800 320/10G17 RMK AO2
14837KMSN MSN20020227100009602/27/02 10:00:31  5-MIN KMSN 271600Z 32012KT 10SM CLR M08/M15 A3001 780 59 -1800 320/12 RMK AO2
14837KMSN MSN20020227100509602/27/02 10:05:31  5-MIN KMSN 271605Z 32012KT 10SM CLR M08/M14 A3001 780 62 -1800 320/12 RMK AO2
14837KMSN MSN20020227101009602/27/02 10:10:31  5-MIN KMSN 271610Z 30011KT 10SM CLR M08/M15 A3001 780 59 -1800 300/11 RMK AO2
14837KMSN MSN20020227101509602/27/02 10:15:31  5-MIN KMSN 271615Z 32009KT 10SM CLR M08/M14 A3001 780 59 -1800 310/09 RMK AO2
14837KMSN MSN20020227102009602/27/02 10:20:31  5-MIN KMSN 271620Z 33012KT 10SM CLR M08/M14 A3001 780 59 -1800 330/12 RMK AO2
14837KMSN MSN20020227102510202/27/02 10:25:31  5-MIN KMSN 271625Z 34010G17KT 10SM CLR M08/M14 A3001 780 59 -1800 340/10G17 RMK AO2
14837KMSN MSN20020227103010202/27/02 10:30:31  5-MIN KMSN 271630Z 33010G17KT 10SM CLR M08/M14 A3001 780 59 -1800 320/10G17 RMK AO2
14837KMSN MSN20020227103509602/27/02 10:35:31  5-MIN KMSN 271635Z 33012KT 10SM CLR M08/M14 A3002 780 62 -1800 330/12 RMK AO2
14837KMSN MSN20020227104009602/27/02 10:40:31  5-MIN KMSN 271640Z 33011KT 10SM CLR M08/M14 A3002 780 59 -1800 330/11 RMK AO2
14837KMSN MSN20020227104510202/27/02 10:45:31  5-MIN KMSN 271645Z 30013G17KT 10SM CLR M07/M14 A3002 780 59 -1700 300/13G17 RMK AO2
14837KMSN MSN20020227105011902/27/02 10:50:31  5-MIN KMSN 271650Z 32012G17KT 10SM CLR M07/M14 A3002 780 56 -1700 320/12G17 RMK AO2 SLP179 T10721144
14837KMSN MSN20020227105509602/27/02 10:55:31  5-MIN KMSN 271655Z 32009KT 10SM CLR M07/M14 A3002 770 59 -1700 310/09 RMK AO2
14837KMSN MSN20020227110009602/27/02 11:00:31  5-MIN KMSN 271700Z 33011KT 10SM CLR M07/M14 A3002 780 59 -1700 330/11 RMK AO2
14837KMSN MSN20020227110509602/27/02 11:05:31  5-MIN KMSN 271705Z 32008KT 10SM CLR M07/M14 A3002 770 56 -1700 320/08 RMK AO2
14837KMSN MSN20020227111010202/27/02 11:10:31  5-MIN KMSN 271710Z 33011G15KT 10SM CLR M07/M14 A3002 770 59 -1700 330/11G15 RMK AO2
14837KMSN MSN20020227111510202/27/02 11:15:31  5-MIN KMSN 271715Z 32011G15KT 10SM CLR M07/M14 A3002 770 56 -1700 320/11G15 RMK AO2
14837KMSN MSN20020227112009602/27/02 11:20:31  5-MIN KMSN 271720Z 31008KT 10SM CLR M07/M14 A3002 770 56 -1700 310/08 RMK AO2
14837KMSN MSN20020227112509602/27/02 11:25:31  5-MIN KMSN 271725Z 32010KT 10SM CLR M07/M14 A3002 770 57 -1600 320/10 RMK AO2
14837KMSN MSN20020227113009602/27/02 11:30:31  5-MIN KMSN 271730Z 30008KT 10SM CLR M07/M14 A3002 770 57 -1600 300/08 RMK AO2
14837KMSN MSN20020227113509602/27/02 11:35:31  5-MIN KMSN 271735Z 31009KT 10SM CLR M07/M14 A3002 770 57 -1600 310/09 RMK AO2
14837KMSN MSN20020227114009602/27/02 11:40:31  5-MIN KMSN 271740Z 30010KT 10SM CLR M07/M14 A3002 770 57 -1600 290/10 RMK AO2
14837KMSN MSN20020227114509602/27/02 11:45:31  5-MIN KMSN 271745Z 30011KT 10SM CLR M07/M14 A3002 770 54 -1600 300/11 RMK AO2
14837KMSN MSN20020227115013102/27/02 11:50:31  5-MIN KMSN 271750Z 33010KT 10SM CLR M07/M14 A3002 770 57 -1600 320/10 RMK AO2 SLP182 T10671139 11067 21100 51018
14837KMSN MSN20020227115509902/27/02 11:55:31  5-MIN KMSN 271755Z 32010KT 10SM FEW030 M07/M14 A3002 770 57 -1600 320/10 RMK AO2
14837KMSN MSN20020227120009902/27/02 12:00:31  5-MIN KMSN 271800Z 32011KT 10SM FEW030 M06/M14 A3002 770 54 -1600 320/11 RMK AO2
14837KMSN MSN20020227120509902/27/02 12:05:31  5-MIN KMSN 271805Z 31009KT 10SM FEW030 M07/M14 A3002 770 57 -1600 310/09 RMK AO2
14837KMSN MSN20020227121009902/27/02 12:10:31  5-MIN KMSN 271810Z 28010KT 10SM FEW030 M07/M14 A3002 770 57 -1600 280/10 RMK AO2
14837KMSN MSN20020227121509902/27/02 12:15:31  5-MIN KMSN 271815Z 33010KT 10SM FEW030 M06/M14 A3002 770 54 -1600 330/10 RMK AO2
14837KMSN MSN20020227122009902/27/02 12:20:31  5-MIN KMSN 271820Z 32008KT 10SM FEW030 M06/M14 A3002 770 54 -1600 320/08 RMK AO2
14837KMSN MSN20020227122509902/27/02 12:25:31  5-MIN KMSN 271825Z 31009KT 10SM FEW030 M06/M14 A3002 770 54 -1600 310/09 RMK AO2
14837KMSN MSN20020227123009902/27/02 12:30:31  5-MIN KMSN 271830Z 32009KT 10SM FEW030 M06/M14 A3002 780 52 -1500 320/09 RMK AO2
14837KMSN MSN20020227123509902/27/02 12:35:31  5-MIN KMSN 271835Z 30009KT 10SM FEW030 M06/M14 A3001 780 52 -1500 300/09 RMK AO2
14837KMSN MSN20020227124009902/27/02 12:40:31  5-MIN KMSN 271840Z 31010KT 10SM FEW030 M06/M14 A3001 780 52 -1500 310/10 RMK AO2
14837KMSN MSN20020227124509902/27/02 12:45:31  5-MIN KMSN 271845Z 32008KT 10SM FEW030 M06/M14 A3001 780 50 -1500 310/08 RMK AO2
14837KMSN MSN20020227125013202/27/02 12:50:31  5-MIN KMSN 271850Z 31009KT 270V350 10SM FEW030 M06/M14 A3001 780 52 -1500 310/09 270V350 RMK AO2 SLP177 T10561139
14837KMSN MSN20020227125509602/27/02 12:55:31  5-MIN KMSN 271855Z 33007KT 10SM CLR M05/M14 A3001 780 50 -1400 330/07 RMK AO2
14837KMSN MSN20020227130010402/27/02 13:00:31  5-MIN KMSN 271900Z 30010G15KT 10SM CLR M06/M14 A3001 780 52 -1500 300/10G15 RMK AO2 $
14837KMSN MSN20020227130509802/27/02 13:05:31  5-MIN KMSN 271905Z 31010KT 10SM CLR M05/M14 A3001 780 50 -1400 310/10 RMK AO2 $
14837KMSN MSN20020227131009802/27/02 13:10:31  5-MIN KMSN 271910Z 30008KT 10SM CLR M05/M14 A3001 780 50 -1400 300/08 RMK AO2 $
14837KMSN MSN20020227131510402/27/02 13:15:31  5-MIN KMSN 271915Z 31011G16KT 10SM CLR M05/M14 A3001 780 50 -1400 310/11G16 RMK AO2 $
14837KMSN MSN20020227132010402/27/02 13:20:31  5-MIN KMSN 271920Z 32010G16KT 10SM CLR M05/M14 A3001 780 50 -1400 320/10G16 RMK AO2 $
14837KMSN MSN20020227132509802/27/02 13:25:31  5-MIN KMSN 271925Z 29007KT 10SM CLR M05/M14 A3001 780 48 -1400 290/07 RMK AO2 $
14837KMSN MSN20020227133009802/27/02 13:30:31  5-MIN KMSN 271930Z 33010KT 10SM CLR M05/M14 A3001 790 50 -1400 330/10 RMK AO2 $
14837KMSN MSN20020227133509802/27/02 13:35:31  5-MIN KMSN 271935Z 32010KT 10SM CLR M05/M14 A3000 790 50 -1400 320/10 RMK AO2 $
14837KMSN MSN20020227134009802/27/02 13:40:31  5-MIN KMSN 271940Z 31009KT 10SM CLR M04/M13 A3000 790 50 -1300 310/09 RMK AO2 $
14837KMSN MSN20020227134511202/27/02 13:45:31  5-MIN KMSN 271945Z 31009KT 270V340 10SM CLR M05/M14 A3001 780 50 -1400 310/09 270V340 RMK AO2
14837KMSN MSN20020227135011302/27/02 13:50:31  5-MIN KMSN 271950Z 32011KT 10SM CLR M04/M14 A3001 780 48 -1300 320/11 RMK AO2 SLP176 T10441139
14837KMSN MSN20020227135511202/27/02 13:55:31  5-MIN KMSN 271955Z 29008KT 250V320 10SM CLR M04/M14 A3001 780 48 -1300 290/08 250V320 RMK AO2
14837KMSN MSN20020227140011802/27/02 14:00:31  5-MIN KMSN 272000Z 27007G14KT 240V300 10SM CLR M04/M14 A3001 780 48 -1300 270/07G14 240V300 RMK AO2
14837KMSN MSN20020227140510202/27/02 14:05:31  5-MIN KMSN 272005Z 32008G14KT 10SM CLR M04/M14 A3001 780 46 -1300 320/08G14 RMK AO2
14837KMSN MSN20020227141009602/27/02 14:10:31  5-MIN KMSN 272010Z 30010KT 10SM CLR M04/M13 A3001 790 50 -1300 300/10 RMK AO2
14837KMSN MSN20020227141509602/27/02 14:15:31  5-MIN KMSN 272015Z 32009KT 10SM CLR M04/M13 A3001 780 48 -1300 320/09 RMK AO2
14837KMSN MSN20020227142009602/27/02 14:20:31  5-MIN KMSN 272020Z 31010KT 10SM CLR M04/M13 A3001 780 48 -1300 310/10 RMK AO2
14837KMSN MSN20020227142509602/27/02 14:25:31  5-MIN KMSN 272025Z 32010KT 10SM CLR M04/M14 A3001 780 48 -1300 320/10 RMK AO2
14837KMSN MSN20020227143009602/27/02 14:30:31  5-MIN KMSN 272030Z 29010KT 10SM CLR M04/M13 A3001 780 48 -1300 290/10 RMK AO2
14837KMSN MSN20020227143509602/27/02 14:35:31  5-MIN KMSN 272035Z 31008KT 10SM CLR M04/M13 A3001 780 48 -1300 310/08 RMK AO2
14837KMSN MSN20020227144011202/27/02 14:40:31  5-MIN KMSN 272040Z 26007KT 230V290 10SM CLR M04/M13 A3001 780 48 -1300 260/07 230V290 RMK AO2
14837KMSN MSN20020227144511202/27/02 14:45:31  5-MIN KMSN 272045Z 28007KT 230V310 10SM CLR M04/M13 A3001 780 48 -1300 280/07 230V310 RMK AO2
14837KMSN MSN20020227145011902/27/02 14:50:31  5-MIN KMSN 272050Z 26007KT 10SM CLR M04/M14 A3001 780 46 -1300 260/07 RMK AO2 SLP178 T10391139 51010
14837KMSN MSN20020227145509602/27/02 14:55:31  5-MIN KMSN 272055Z 27010KT 10SM CLR M04/M13 A3001 780 48 -1300 270/10 RMK AO2
14837KMSN MSN20020227150011202/27/02 15:00:31  5-MIN KMSN 272100Z 27009KT 240V320 10SM CLR M04/M14 A3001 780 46 -1300 270/09 240V320 RMK AO2
14837KMSN MSN20020227150511202/27/02 15:05:31  5-MIN KMSN 272105Z 29009KT 250V310 10SM CLR M04/M13 A3001 780 48 -1300 290/09 250V310 RMK AO2
14837KMSN MSN20020227151009602/27/02 15:10:31  5-MIN KMSN 272110Z VRB06KT 10SM CLR M03/M13 A3001 780 46 -1200 VRB/06 RMK AO2
14837KMSN MSN20020227151509602/27/02 15:15:31  5-MIN KMSN 272115Z 31007KT 10SM CLR M03/M13 A3001 780 46 -1200 310/07 RMK AO2
14837KMSN MSN20020227152009602/27/02 15:20:31  5-MIN KMSN 272120Z 32008KT 10SM CLR M03/M13 A3001 780 46 -1200 320/08 RMK AO2
14837KMSN MSN20020227152509602/27/02 15:25:31  5-MIN KMSN 272125Z 27007KT 10SM CLR M03/M13 A3002 780 46 -1200 270/07 RMK AO2
14837KMSN MSN20020227153009602/27/02 15:30:31  5-MIN KMSN 272130Z 27008KT 10SM CLR M03/M14 A3002 770 44 -1200 270/08 RMK AO2
14837KMSN MSN20020227153511202/27/02 15:35:31  5-MIN KMSN 272135Z 28008KT 250V310 10SM CLR M03/M14 A3002 770 44 -1200 280/08 250V310 RMK AO2
14837KMSN MSN20020227154009602/27/02 15:40:31  5-MIN KMSN 272140Z 26009KT 10SM CLR M03/M14 A3002 770 44 -1200 260/09 RMK AO2
14837KMSN MSN20020227154509602/27/02 15:45:31  5-MIN KMSN 272145Z VRB04KT 10SM CLR M03/M13 A3002 780 46 -1200 VRB/04 RMK AO2
14837KMSN MSN20020227155011302/27/02 15:50:31  5-MIN KMSN 272150Z 27008KT 10SM CLR M03/M13 A3002 770 46 -1200 270/08 RMK AO2 SLP179 T10331133
14837KMSN MSN20020227155509602/27/02 15:55:31  5-MIN KMSN 272155Z 30007KT 10SM CLR M03/M14 A3002 780 44 -1200 300/07 RMK AO2
14837KMSN MSN20020227160011202/27/02 16:00:31  5-MIN KMSN 272200Z 30009KT 280V340 10SM CLR M03/M14 A3002 780 42 -1200 300/09 280V340 RMK AO2
14837KMSN MSN20020227160509602/27/02 16:05:31  5-MIN KMSN 272205Z 30008KT 10SM CLR M03/M14 A3002 780 42 -1200 300/08 RMK AO2
14837KMSN MSN20020227161009602/27/02 16:10:31  5-MIN KMSN 272210Z 30008KT 10SM CLR M03/M14 A3002 780 42 -1200 300/08 RMK AO2
14837KMSN MSN20020227161509602/27/02 16:15:31  5-MIN KMSN 272215Z 29007KT 10SM CLR M03/M15 A3002 770 40 -1200 290/07 RMK AO2
14837KMSN MSN20020227162009602/27/02 16:20:31  5-MIN KMSN 272220Z 28008KT 10SM CLR M03/M15 A3002 770 40 -1200 280/08 RMK AO2
14837KMSN MSN20020227162511202/27/02 16:25:31  5-MIN KMSN 272225Z 28008KT 250V320 10SM CLR M03/M14 A3002 770 42 -1200 280/08 250V320 RMK AO2
14837KMSN MSN20020227163009602/27/02 16:30:31  5-MIN KMSN 272230Z 30008KT 10SM CLR M03/M14 A3002 770 42 -1200 300/08 RMK AO2
14837KMSN MSN20020227163509602/27/02 16:35:31  5-MIN KMSN 272235Z 30005KT 10SM CLR M03/M15 A3002 770 40 -1200 300/05 RMK AO2
14837KMSN MSN20020227164009602/27/02 16:40:31  5-MIN KMSN 272240Z 29006KT 10SM CLR M03/M14 A3002 770 42 -1200 290/06 RMK AO2
14837KMSN MSN20020227164509602/27/02 16:45:31  5-MIN KMSN 272245Z 29008KT 10SM CLR M03/M15 A3002 770 40 -1200 290/08 RMK AO2
14837KMSN MSN20020227165011302/27/02 16:50:31  5-MIN KMSN 272250Z 29004KT 10SM CLR M03/M15 A3002 770 40 -1200 290/04 RMK AO2 SLP181 T10331150
14837KMSN MSN20020227165509602/27/02 16:55:31  5-MIN KMSN 272255Z 31005KT 10SM CLR M03/M14 A3002 770 42 -1200 310/05 RMK AO2
14837KMSN MSN20020227170009602/27/02 17:00:31  5-MIN KMSN 272300Z 30006KT 10SM CLR M03/M14 A3002 770 42 -1200 300/06 RMK AO2
14837KMSN MSN20020227170509602/27/02 17:05:31  5-MIN KMSN 272305Z 31007KT 10SM CLR M03/M14 A3003 770 42 -1200 310/07 RMK AO2
14837KMSN MSN20020227171009602/27/02 17:10:31  5-MIN KMSN 272310Z 29005KT 10SM CLR M03/M14 A3003 770 42 -1200 290/05 RMK AO2
14837KMSN MSN20020227171509602/27/02 17:15:31  5-MIN KMSN 272315Z 29007KT 10SM CLR M04/M14 A3003 770 44 -1300 290/07 RMK AO2
14837KMSN MSN20020227172009602/27/02 17:20:31  5-MIN KMSN 272320Z 30004KT 10SM CLR M04/M14 A3003 770 44 -1300 300/04 RMK AO2
14837KMSN MSN20020227172509602/27/02 17:25:31  5-MIN KMSN 272325Z 29007KT 10SM CLR M04/M14 A3003 770 44 -1300 290/07 RMK AO2
14837KMSN MSN20020227173009602/27/02 17:30:31  5-MIN KMSN 272330Z 29006KT 10SM CLR M04/M15 A3003 760 42 -1300 290/06 RMK AO2
14837KMSN MSN20020227173509602/27/02 17:35:31  5-MIN KMSN 272335Z 29006KT 10SM CLR M04/M14 A3003 760 44 -1300 290/06 RMK AO2
14837KMSN MSN20020227174009602/27/02 17:40:31  5-MIN KMSN 272340Z 29004KT 10SM CLR M04/M14 A3003 760 44 -1300 290/04 RMK AO2
14837KMSN MSN20020227174509602/27/02 17:45:31  5-MIN KMSN 272345Z 27005KT 10SM CLR M04/M14 A3003 760 44 -1300 270/05 RMK AO2
14837KMSN MSN20020227175013702/27/02 17:50:31  5-MIN KMSN 272350Z 25005KT 10SM CLR M04/M14 A3003 760 44 -1300 250/05 RMK AO2 SLP183 4/002 T10391144 11033 21067 55003
14837KMSN MSN20020227175509602/27/02 17:55:31  5-MIN KMSN 272355Z 25004KT 10SM CLR M04/M14 A3003 760 48 -1400 250/04 RMK AO2
14837KMSN MSN20020227210009602/27/02 21:00:31  5-MIN KMSN 280300Z 22003KT 10SM CLR M06/M14 A3004 760 52 -1600 220/03 RMK AO2
14837KMSN MSN20020227210509602/27/02 21:05:31  5-MIN KMSN 280305Z 00000KT 10SM CLR M06/M14 A3003 760 54 -1600 000/00 RMK AO2
14837KMSN MSN20020227211009602/27/02 21:10:31  5-MIN KMSN 280310Z 22003KT 10SM CLR M06/M14 A3004 760 54 -1600 220/03 RMK AO2
14837KMSN MSN20020227211509602/27/02 21:15:31  5-MIN KMSN 280315Z 22004KT 10SM CLR M06/M14 A3004 750 54 -1600 220/04 RMK AO2
14837KMSN MSN20020227212009602/27/02 21:20:31  5-MIN KMSN 280320Z 22004KT 10SM CLR M07/M13 A3004 750 59 -1700 220/04 RMK AO2
14837KMSN MSN20020227212509602/27/02 21:25:31  5-MIN KMSN 280325Z 23004KT 10SM CLR M06/M13 A3004 750 57 -1600 230/04 RMK AO2
14837KMSN MSN20020227213009602/27/02 21:30:31  5-MIN KMSN 280330Z 22004KT 10SM CLR M07/M14 A3004 750 57 -1700 220/04 RMK AO2
14837KMSN MSN20020227213509602/27/02 21:35:31  5-MIN KMSN 280335Z VRB05KT 10SM CLR M07/M13 A3004 750 59 -1700 VRB/05 RMK AO2
14837KMSN MSN20020227214009602/27/02 21:40:31  5-MIN KMSN 280340Z VRB04KT 10SM CLR M07/M13 A3004 760 59 -1700 VRB/04 RMK AO2
14837KMSN MSN20020227214509602/27/02 21:45:31  5-MIN KMSN 280345Z 23005KT 10SM CLR M07/M13 A3004 760 59 -1700 230/05 RMK AO2
14837KMSN MSN20020227215011302/27/02 21:50:31  5-MIN KMSN 280350Z VRB05KT 10SM CLR M07/M13 A3004 760 59 -1700 VRB/05 RMK AO2 SLP187 T10671133
14837KMSN MSN20020227215509602/27/02 21:55:31  5-MIN KMSN 280355Z 22005KT 10SM CLR M07/M13 A3004 760 59 -1700 220/05 RMK AO2
14837KMSN MSN20020227220009602/27/02 22:00:31  5-MIN KMSN 280400Z VRB05KT 10SM CLR M07/M14 A3004 760 57 -1700 VRB/05 RMK AO2
14837KMSN MSN20020227220509602/27/02 22:05:31  5-MIN KMSN 280405Z VRB04KT 10SM CLR M07/M13 A3004 760 59 -1700 VRB/04 RMK AO2
14837KMSN MSN20020227221009602/27/02 22:10:31  5-MIN KMSN 280410Z VRB06KT 10SM CLR M07/M14 A3004 760 57 -1700 VRB/06 RMK AO2
14837KMSN MSN20020227221509602/27/02 22:15:31  5-MIN KMSN 280415Z VRB04KT 10SM CLR M07/M13 A3003 760 59 -1600 VRB/04 RMK AO2
14837KMSN MSN20020227222009602/27/02 22:20:31  5-MIN KMSN 280420Z 22006KT 10SM CLR M07/M13 A3003 760 59 -1600 220/06 RMK AO2
14837KMSN MSN20020227222509602/27/02 22:25:31  5-MIN KMSN 280425Z 23005KT 10SM CLR M07/M14 A3003 760 57 -1600 230/05 RMK AO2
14837KMSN MSN20020227223009602/27/02 22:30:31  5-MIN KMSN 280430Z 24004KT 10SM CLR M07/M14 A3003 760 57 -1600 240/04 RMK AO2
14837KMSN MSN20020227223509602/27/02 22:35:31  5-MIN KMSN 280435Z 23006KT 10SM CLR M07/M14 A3003 760 57 -1600 230/06 RMK AO2
14837KMSN MSN20020227224009602/27/02 22:40:31  5-MIN KMSN 280440Z VRB04KT 10SM CLR M07/M13 A3003 760 59 -1600 VRB/04 RMK AO2
14837KMSN MSN20020227224511202/27/02 22:45:31  5-MIN KMSN 280445Z 25007KT 210V280 10SM CLR M07/M13 A3003 760 59 -1600 250/07 210V280 RMK AO2
14837KMSN MSN20020227225011302/27/02 22:50:31  5-MIN KMSN 280450Z VRB05KT 10SM CLR M07/M14 A3003 760 57 -1600 VRB/05 RMK AO2 SLP184 T10671139
14837KMSN MSN20020227225509602/27/02 22:55:31  5-MIN KMSN 280455Z 24007KT 10SM CLR M07/M14 A3003 760 57 -1600 240/07 RMK AO2
14837KMSN MSN20020227230009602/27/02 23:00:31  5-MIN KMSN 280500Z 24005KT 10SM CLR M07/M13 A3003 760 59 -1600 240/05 RMK AO2
14837KMSN MSN20020227230509602/27/02 23:05:31  5-MIN KMSN 280505Z 24006KT 10SM CLR M07/M13 A3003 760 62 -1600 240/06 RMK AO2
14837KMSN MSN20020227231009602/27/02 23:10:31  5-MIN KMSN 280510Z 25007KT 10SM CLR M07/M13 A3003 760 59 -1600 250/07 RMK AO2
14837KMSN MSN20020227231509602/27/02 23:15:31  5-MIN KMSN 280515Z 25006KT 10SM CLR M07/M14 A3003 760 57 -1600 250/06 RMK AO2
14837KMSN MSN20020227232009602/27/02 23:20:31  5-MIN KMSN 280520Z VRB05KT 10SM CLR M07/M14 A3003 770 57 -1600 VRB/05 RMK AO2
14837KMSN MSN20020227232509602/27/02 23:25:31  5-MIN KMSN 280525Z VRB05KT 10SM CLR M07/M13 A3002 770 59 -1600 VRB/05 RMK AO2
14837KMSN MSN20020227233009602/27/02 23:30:31  5-MIN KMSN 280530Z VRB04KT 10SM CLR M07/M13 A3002 770 62 -1700 VRB/04 RMK AO2
14837KMSN MSN20020227233509602/27/02 23:35:31  5-MIN KMSN 280535Z VRB05KT 10SM CLR M07/M13 A3002 770 62 -1700 VRB/05 RMK AO2
14837KMSN MSN20020227234009602/27/02 23:40:31  5-MIN KMSN 280540Z 24006KT 10SM CLR M07/M13 A3002 770 62 -1700 240/06 RMK AO2
14837KMSN MSN20020227234509602/27/02 23:45:31  5-MIN KMSN 280545Z 24005KT 10SM CLR M07/M13 A3002 770 62 -1700 240/05 RMK AO2
14837KMSN MSN20020227235014102/27/02 23:50:31  5-MIN KMSN 280550Z VRB06KT 10SM CLR M07/M13 A3002 770 62 -1700 VRB/06 RMK AO2 SLP180 T10721133 11039 21072 410331100 51003
14837KMSN MSN20020227235509602/27/02 23:55:31  5-MIN KMSN 280555Z 23006KT 10SM CLR M07/M13 A3002 770 65 -1700 230/06 RMK AO2
14837KMSN MSN20020228000009602/28/02 00:00:31  5-MIN KMSN 280600Z 23006KT 10SM CLR M07/M12 A3002 770 68 -1700 230/06 RMK AO2
14837KMSN MSN20020228000509602/28/02 00:05:31  5-MIN KMSN 280605Z 24006KT 10SM CLR M07/M13 A3002 770 65 -1700 240/06 RMK AO2
14837KMSN MSN20020228001009602/28/02 00:10:31  5-MIN KMSN 280610Z VRB04KT 10SM CLR M07/M13 A3002 770 62 -1700 VRB/04 RMK AO2
14837KMSN MSN20020228001509602/28/02 00:15:31  5-MIN KMSN 280615Z 23005KT 10SM CLR M07/M13 A3002 780 65 -1700 230/05 RMK AO2
14837KMSN MSN20020228002009602/28/02 00:20:31  5-MIN KMSN 280620Z VRB04KT 10SM CLR M07/M13 A3002 780 65 -1700 VRB/04 RMK AO2
14837KMSN MSN20020228002509602/28/02 00:25:31  5-MIN KMSN 280625Z 23005KT 10SM CLR M07/M12 A3002 780 68 -1700 230/05 RMK AO2
14837KMSN MSN20020228003009602/28/02 00:30:31  5-MIN KMSN 280630Z 23005KT 10SM CLR M07/M12 A3002 780 68 -1700 230/05 RMK AO2
14837KMSN MSN20020228003509602/28/02 00:35:31  5-MIN KMSN 280635Z 23006KT 10SM CLR M07/M12 A3001 780 68 -1700 230/06 RMK AO2
14837KMSN MSN20020228004009602/28/02 00:40:31  5-MIN KMSN 280640Z VRB04KT 10SM CLR M07/M12 A3001 780 68 -1700 VRB/04 RMK AO2
14837KMSN MSN20020228004509602/28/02 00:45:31  5-MIN KMSN 280645Z 22005KT 10SM CLR M07/M12 A3001 780 68 -1700 220/05 RMK AO2
14837KMSN MSN20020228005011302/28/02 00:50:31  5-MIN KMSN 280650Z 23005KT 10SM CLR M07/M15 A3001 780 54 -1700 220/05 RMK AO2 SLP177 T10721150
14837KMSN MSN20020228005509602/28/02 00:55:31  5-MIN KMSN 280655Z 22005KT 10SM CLR M07/M15 A3001 780 54 -1700 220/05 RMK AO2
14837KMSN MSN20020228010009602/28/02 01:00:31  5-MIN KMSN 280700Z 22006KT 10SM CLR M07/M15 A3001 780 54 -1700 220/06 RMK AO2
14837KMSN MSN20020228010509602/28/02 01:05:31  5-MIN KMSN 280705Z 22005KT 10SM CLR M07/M15 A3001 790 54 -1700 220/05 RMK AO2
14837KMSN MSN20020228011009602/28/02 01:10:31  5-MIN KMSN 280710Z 22005KT 10SM CLR M07/M16 A3001 780 52 -1700 220/05 RMK AO2
14837KMSN MSN20020228011509602/28/02 01:15:31  5-MIN KMSN 280715Z 22004KT 10SM CLR M07/M16 A3001 790 52 -1700 220/04 RMK AO2
14837KMSN MSN20020228012009602/28/02 01:20:31  5-MIN KMSN 280720Z 22006KT 10SM CLR M07/M16 A3000 790 52 -1700 210/06 RMK AO2
14837KMSN MSN20020228012509602/28/02 01:25:31  5-MIN KMSN 280725Z 22006KT 10SM CLR M07/M16 A3000 790 52 -1700 210/06 RMK AO2
14837KMSN MSN20020228013009602/28/02 01:30:31  5-MIN KMSN 280730Z 21005KT 10SM CLR M07/M16 A3000 790 52 -1700 210/05 RMK AO2
14837KMSN MSN20020228013509602/28/02 01:35:31  5-MIN KMSN 280735Z 21005KT 10SM CLR M07/M16 A3000 790 49 -1700 210/05 RMK AO2
14837KMSN MSN20020228014009602/28/02 01:40:31  5-MIN KMSN 280740Z 21005KT 10SM CLR M07/M16 A3000 790 52 -1700 200/05 RMK AO2
14837KMSN MSN20020228014509602/28/02 01:45:31  5-MIN KMSN 280745Z 21006KT 10SM CLR M07/M16 A2999 800 52 -1700 210/06 RMK AO2
14837KMSN MSN20020228015011302/28/02 01:50:31  5-MIN KMSN 280750Z 21006KT 10SM CLR M07/M16 A2999 800 52 -1700 210/06 RMK AO2 SLP170 T10721156
14837KMSN MSN20020228015509602/28/02 01:55:31  5-MIN KMSN 280755Z 21007KT 10SM CLR M07/M16 A2999 800 52 -1700 210/07 RMK AO2
14837KMSN MSN20020228020009602/28/02 02:00:31  5-MIN KMSN 280800Z 22007KT 10SM CLR M07/M15 A2999 800 54 -1700 210/07 RMK AO2
14837KMSN MSN20020228020509602/28/02 02:05:31  5-MIN KMSN 280805Z 22009KT 10SM CLR M07/M14 A2999 800 56 -1700 220/09 RMK AO2
14837KMSN MSN20020228021009602/28/02 02:10:31  5-MIN KMSN 280810Z 22007KT 10SM CLR M07/M13 A2999 800 62 -1700 220/07 RMK AO2
14837KMSN MSN20020228021509602/28/02 02:15:31  5-MIN KMSN 280815Z 21005KT 10SM CLR M07/M13 A2999 800 62 -1700 210/05 RMK AO2
14837KMSN MSN20020228022009602/28/02 02:20:31  5-MIN KMSN 280820Z 22007KT 10SM CLR M07/M13 A2999 800 62 -1700 220/07 RMK AO2
14837KMSN MSN20020228022509602/28/02 02:25:31  5-MIN KMSN 280825Z 21006KT 10SM CLR M07/M13 A2999 800 62 -1700 210/06 RMK AO2
14837KMSN MSN20020228023009602/28/02 02:30:31  5-MIN KMSN 280830Z 21006KT 10SM CLR M07/M13 A2998 810 65 -1700 210/06 RMK AO2
14837KMSN MSN20020228023509602/28/02 02:35:31  5-MIN KMSN 280835Z 21008KT 10SM CLR M07/M13 A2998 810 65 -1700 210/08 RMK AO2
14837KMSN MSN20020228024009602/28/02 02:40:31  5-MIN KMSN 280840Z 21004KT 10SM CLR M07/M13 A2998 810 65 -1700 200/04 RMK AO2
14837KMSN MSN20020228024509602/28/02 02:45:31  5-MIN KMSN 280845Z 20006KT 10SM CLR M08/M13 A2998 810 67 -1700 200/06 RMK AO2
14837KMSN MSN20020228025011902/28/02 02:50:31  5-MIN KMSN 280850Z 20006KT 10SM CLR M08/M13 A2997 820 67 -1700 200/06 RMK AO2 SLP163 T10781128 58006
14837KMSN MSN20020228025509602/28/02 02:55:31  5-MIN KMSN 280855Z 20006KT 10SM CLR M08/M12 A2997 820 71 -1700 190/06 RMK AO2
14837KMSN MSN20020228030009602/28/02 03:00:31  5-MIN KMSN 280900Z 20007KT 10SM CLR M08/M13 A2997 820 67 -1700 200/07 RMK AO2
14837KMSN MSN20020228030509602/28/02 03:05:31  5-MIN KMSN 280905Z 20006KT 10SM CLR M08/M13 A2997 820 67 -1700 200/06 RMK AO2
14837KMSN MSN20020228031009602/28/02 03:10:31  5-MIN KMSN 280910Z 20006KT 10SM CLR M08/M13 A2997 820 67 -1700 200/06 RMK AO2
14837KMSN MSN20020228031509602/28/02 03:15:31  5-MIN KMSN 280915Z 19006KT 10SM CLR M08/M13 A2997 820 67 -1700 190/06 RMK AO2
14837KMSN MSN20020228032009602/28/02 03:20:31  5-MIN KMSN 280920Z 20007KT 10SM CLR M08/M13 A2997 820 67 -1700 200/07 RMK AO2
14837KMSN MSN20020228032509602/28/02 03:25:31  5-MIN KMSN 280925Z 20007KT 10SM CLR M08/M13 A2996 820 67 -1700 200/07 RMK AO2
14837KMSN MSN20020228033009602/28/02 03:30:31  5-MIN KMSN 280930Z 20005KT 10SM CLR M08/M13 A2996 820 67 -1700 200/05 RMK AO2
14837KMSN MSN20020228033509602/28/02 03:35:31  5-MIN KMSN 280935Z 20005KT 10SM CLR M08/M13 A2996 820 67 -1700 200/05 RMK AO2
14837KMSN MSN20020228034009602/28/02 03:40:31  5-MIN KMSN 280940Z 20005KT 10SM CLR M08/M13 A2996 830 67 -1700 200/05 RMK AO2
14837KMSN MSN20020228034509602/28/02 03:45:31  5-MIN KMSN 280945Z 19005KT 10SM CLR M08/M13 A2996 830 64 -1700 190/05 RMK AO2
14837KMSN MSN20020228035011302/28/02 03:50:31  5-MIN KMSN 280950Z 19006KT 10SM CLR M08/M13 A2995 830 64 -1700 190/06 RMK AO2 SLP157 T10781133
14837KMSN MSN20020228035509602/28/02 03:55:31  5-MIN KMSN 280955Z 19006KT 10SM CLR M08/M13 A2995 830 64 -1700 190/06 RMK AO2
14837KMSN MSN20020228040009602/28/02 04:00:31  5-MIN KMSN 281000Z 19008KT 10SM CLR M08/M13 A2995 840 67 -1700 190/08 RMK AO2
14837KMSN MSN20020228040509602/28/02 04:05:31  5-MIN KMSN 281005Z 19008KT 10SM CLR M08/M13 A2995 840 64 -1700 190/08 RMK AO2
14837KMSN MSN20020228041009602/28/02 04:10:31  5-MIN KMSN 281010Z 19008KT 10SM CLR M08/M14 A2995 840 62 -1700 190/08 RMK AO2
14837KMSN MSN20020228041509602/28/02 04:15:31  5-MIN KMSN 281015Z 19007KT 10SM CLR M08/M14 A2995 840 62 -1700 190/07 RMK AO2
14837KMSN MSN20020228042009602/28/02 04:20:31  5-MIN KMSN 281020Z 18006KT 10SM CLR M08/M13 A2995 840 64 -1700 180/06 RMK AO2
14837KMSN MSN20020228042509602/28/02 04:25:31  5-MIN KMSN 281025Z 17007KT 10SM CLR M08/M13 A2994 840 64 -1700 170/07 RMK AO2
14837KMSN MSN20020228043009602/28/02 04:30:31  5-MIN KMSN 281030Z 18007KT 10SM CLR M08/M13 A2994 840 70 -1800 180/07 RMK AO2
14837KMSN MSN20020228043509602/28/02 04:35:31  5-MIN KMSN 281035Z 19006KT 10SM CLR M08/M13 A2995 840 67 -1700 190/06 RMK AO2
14837KMSN MSN20020228044009602/28/02 04:40:31  5-MIN KMSN 281040Z 19007KT 10SM CLR M08/M13 A2994 840 64 -1700 190/07 RMK AO2
14837KMSN MSN20020228044509602/28/02 04:45:31  5-MIN KMSN 281045Z 19008KT 10SM CLR M08/M12 A2994 850 71 -1700 190/08 RMK AO2
14837KMSN MSN20020228045011302/28/02 04:50:31  5-MIN KMSN 281050Z 19009KT 10SM CLR M07/M12 A2994 850 68 -1600 190/09 RMK AO2 SLP151 T10721122
14837KMSN MSN20020228045509902/28/02 04:55:31  5-MIN KMSN 281055Z 18007KT 10SM FEW120 M07/M13 A2994 850 62 -1600 180/07 RMK AO2
14837KMSN MSN20020228050009902/28/02 05:00:31  5-MIN KMSN 281100Z 19008KT 10SM FEW110 M07/M14 A2993 850 59 -1600 180/08 RMK AO2
14837KMSN MSN20020228050509902/28/02 05:05:31  5-MIN KMSN 281105Z 19008KT 10SM SCT110 M07/M14 A2993 850 59 -1600 190/08 RMK AO2
14837KMSN MSN20020228051009902/28/02 05:10:31  5-MIN KMSN 281110Z 19008KT 10SM BKN110 M07/M14 A2993 850 59 -1600 190/08 RMK AO2
14837KMSN MSN20020228051509902/28/02 05:15:31  5-MIN KMSN 281115Z 18008KT 10SM BKN110 M07/M14 A2993 860 59 -1600 180/08 RMK AO2
14837KMSN MSN20020228052009902/28/02 05:20:31  5-MIN KMSN 281120Z 18008KT 10SM BKN110 M07/M13 A2993 860 62 -1600 180/08 RMK AO2
14837KMSN MSN20020228052509902/28/02 05:25:31  5-MIN KMSN 281125Z 19007KT 10SM BKN110 M07/M14 A2992 860 59 -1600 180/07 RMK AO2
14837KMSN MSN20020228053009902/28/02 05:30:31  5-MIN KMSN 281130Z 18007KT 10SM BKN110 M07/M14 A2992 860 59 -1600 180/07 RMK AO2
14837KMSN MSN20020228053509902/28/02 05:35:31  5-MIN KMSN 281135Z 18006KT 10SM OVC110 M07/M13 A2992 860 65 -1600 180/06 RMK AO2
14837KMSN MSN20020228054009902/28/02 05:40:31  5-MIN KMSN 281140Z 18008KT 10SM BKN110 M07/M13 A2992 860 62 -1600 180/08 RMK AO2
14837KMSN MSN20020228054509902/28/02 05:45:31  5-MIN KMSN 281145Z 18008KT 10SM BKN110 M08/M13 A2992 860 67 -1700 180/08 RMK AO2
14837KMSN MSN20020228055014002/28/02 05:50:31  5-MIN KMSN 281150Z 18007KT 10SM BKN110 M08/M14 A2992 860 62 -1700 180/07 RMK AO2 SLP145 4/001 T10781139 11072 21083 58016
14837KMSN MSN20020228055510602/28/02 05:55:31  5-MIN KMSN 281155Z 18008KT 10SM SCT090 BKN110 M08/M14 A2992 860 62 -1700 180/08 RMK AO2
14837KMSN MSN20020228060010602/28/02 06:00:31  5-MIN KMSN 281200Z 18008KT 10SM SCT090 BKN110 M08/M13 A2992 870 64 -1700 180/08 RMK AO2
14837KMSN MSN20020228060510602/28/02 06:05:31  5-MIN KMSN 281205Z 19008KT 10SM SCT085 BKN120 M08/M13 A2992 870 64 -1700 180/08 RMK AO2
14837KMSN MSN20020228061010602/28/02 06:10:31  5-MIN KMSN 281210Z 18007KT 10SM BKN085 BKN120 M08/M13 A2992 870 64 -1700 180/07 RMK AO2
14837KMSN MSN20020228061510602/28/02 06:15:31  5-MIN KMSN 281215Z 19008KT 10SM BKN085 BKN120 M08/M13 A2992 870 64 -1700 180/08 RMK AO2
14837KMSN MSN20020228062010602/28/02 06:20:31  5-MIN KMSN 281220Z 18009KT 10SM BKN085 BKN120 M07/M13 A2991 870 65 -1600 180/09 RMK AO2
14837KMSN MSN20020228062510602/28/02 06:25:31  5-MIN KMSN 281225Z 18008KT 10SM BKN085 BKN120 M07/M13 A2991 870 65 -1600 180/08 RMK AO2
14837KMSN MSN20020228063009902/28/02 06:30:31  5-MIN KMSN 281230Z 18009KT 10SM OVC085 M07/M13 A2991 870 62 -1600 180/09 RMK AO2
14837KMSN MSN20020228063509902/28/02 06:35:31  5-MIN KMSN 281235Z 19007KT 10SM OVC085 M07/M13 A2991 880 65 -1600 190/07 RMK AO2
14837KMSN MSN20020228064009902/28/02 06:40:31  5-MIN KMSN 281240Z 18009KT 10SM OVC090 M07/M14 A2990 880 59 -1600 180/09 RMK AO2
14837KMSN MSN20020228064510602/28/02 06:45:31  5-MIN KMSN 281245Z 19010KT 10SM BKN080 OVC095 M07/M14 A2990 880 59 -1600 180/10 RMK AO2
14837KMSN MSN20020228065012302/28/02 06:50:31  5-MIN KMSN 281250Z 19009KT 10SM BKN080 OVC100 M07/M13 A2990 880 62 -1600 190/09 RMK AO2 SLP140 T10721133
14837KMSN MSN20020228065510602/28/02 06:55:31  5-MIN KMSN 281255Z 19009KT 10SM BKN080 OVC095 M07/M13 A2990 880 62 -1600 190/09 RMK AO2
14837KMSN MSN20020228070010602/28/02 07:00:31  5-MIN KMSN 281300Z 19011KT 10SM BKN075 OVC095 M07/M13 A2990 880 65 -1600 190/11 RMK AO2
14837KMSN MSN20020228070510602/28/02 07:05:31  5-MIN KMSN 281305Z 19010KT 10SM BKN070 OVC080 M07/M13 A2990 880 62 -1600 190/10 RMK AO2
14837KMSN MSN20020228071010602/28/02 07:10:31  5-MIN KMSN 281310Z 18010KT 10SM BKN060 OVC080 M07/M12 A2990 890 71 -1600 180/10 RMK AO2
14837KMSN MSN20020228071510602/28/02 07:15:31  5-MIN KMSN 281315Z 18009KT 10SM BKN060 OVC080 M07/M13 A2989 890 65 -1600 180/09 RMK AO2
14837KMSN MSN20020228072009902/28/02 07:20:31  5-MIN KMSN 281320Z 18010KT 10SM OVC060 M07/M13 A2989 890 62 -1500 180/10 RMK AO2
14837KMSN MSN20020228072509902/28/02 07:25:31  5-MIN KMSN 281325Z 18011KT 10SM OVC065 M07/M13 A2989 890 59 -1500 180/11 RMK AO2
14837KMSN MSN20020228073010602/28/02 07:30:31  5-MIN KMSN 281330Z 18011KT 10SM BKN060 OVC075 M07/M13 A2989 890 62 -1500 180/11 RMK AO2
14837KMSN MSN20020228073510602/28/02 07:35:31  5-MIN KMSN 281335Z 19013KT 10SM BKN060 OVC070 M07/M13 A2990 880 62 -1500 190/13 RMK AO2
14837KMSN MSN20020228074009902/28/02 07:40:31  5-MIN KMSN 281340Z 19012KT 10SM OVC070 M07/M13 A2990 890 62 -1500 190/12 RMK AO2
14837KMSN MSN20020228074510602/28/02 07:45:31  5-MIN KMSN 281345Z 19010KT 10SM BKN070 OVC085 M07/M13 A2990 890 62 -1500 190/10 RMK AO2
14837KMSN MSN20020228075012302/28/02 07:50:31  5-MIN KMSN 281350Z 20007KT 10SM BKN070 OVC085 M07/M13 A2990 880 62 -1500 190/07 RMK AO2 SLP140 T10671128
14837KMSN MSN20020228075510602/28/02 07:55:31  5-MIN KMSN 281355Z 19009KT 10SM BKN065 OVC085 M07/M12 A2990 880 65 -1500 190/09 RMK AO2
14837KMSN MSN20020228080009902/28/02 08:00:31  5-MIN KMSN 281400Z 19009KT 10SM OVC065 M07/M12 A2990 880 68 -1500 190/09 RMK AO2
14837KMSN MSN20020228080509902/28/02 08:05:31  5-MIN KMSN 281405Z 19011KT 10SM OVC065 M07/M12 A2990 880 65 -1500 190/11 RMK AO2
14837KMSN MSN20020228081009902/28/02 08:10:31  5-MIN KMSN 281410Z 20009KT 10SM OVC060 M07/M13 A2990 890 59 -1500 200/09 RMK AO2
14837KMSN MSN20020228081509902/28/02 08:15:31  5-MIN KMSN 281415Z 20008KT 10SM OVC060 M07/M13 A2990 890 59 -1500 200/08 RMK AO2
14837KMSN MSN20020228082010602/28/02 08:20:31  5-MIN KMSN 281420Z 20008KT 10SM FEW049 OVC060 M06/M12 A2989 890 62 -1400 190/08 RMK AO2
14837KMSN MSN20020228082510602/28/02 08:25:31  5-MIN KMSN 281425Z 19009KT 10SM BKN050 OVC065 M06/M12 A2989 890 62 -1400 190/09 RMK AO2
14837KMSN MSN20020228083010602/28/02 08:30:31  5-MIN KMSN 281430Z 21009KT 10SM BKN048 OVC060 M06/M12 A2989 890 62 -1400 210/09 RMK AO2
14837KMSN MSN20020228083510602/28/02 08:35:31  5-MIN KMSN 281435Z 21006KT 10SM BKN048 OVC060 M06/M12 A2989 890 62 -1400 210/06 RMK AO2
14837KMSN MSN20020228084010602/28/02 08:40:31  5-MIN KMSN 281440Z 21008KT 10SM SCT048 OVC060 M06/M12 A2989 890 65 -1400 210/08 RMK AO2
14837KMSN MSN20020228084512202/28/02 08:45:31  5-MIN KMSN 281445Z 22007KT 180V250 10SM SCT048 OVC060 M06/M12 A2989 890 65 -1400 220/07 180V250 RMK AO2
14837KMSN MSN20020228085012902/28/02 08:50:31  5-MIN KMSN 281450Z 22008KT 10SM SCT048 OVC060 M06/M12 A2989 890 65 -1400 220/08 RMK AO2 SLP137 T10611117 56018
14837KMSN MSN20020228085510602/28/02 08:55:31  5-MIN KMSN 281455Z 21008KT 10SM SCT050 OVC060 M06/M11 A2989 890 65 -1300 210/08 RMK AO2
14837KMSN MSN20020228090009902/28/02 09:00:31  5-MIN KMSN 281500Z 21007KT 10SM OVC060 M06/M12 A2989 890 62 -1300 210/07 RMK AO2
14837KMSN MSN20020228090510602/28/02 09:05:31  5-MIN KMSN 281505Z 23008KT 10SM SCT050 OVC065 M06/M12 A2989 890 62 -1300 220/08 RMK AO2
14837KMSN MSN20020228091012702/28/02 09:10:31  5-MIN KMSN 281510Z 23010G15KT 9SM -SN BKN048 OVC060 M06/M12 A2989 890 59 -1300 230/10G15 RMK AO2 SNB09 P0000
14837KMSN MSN20020228091512702/28/02 09:15:31  5-MIN KMSN 281515Z 22010G16KT 8SM -SN SCT043 OVC055 M06/M12 A2989 890 62 -1300 220/10G16 RMK AO2 SNB09 P0000
14837KMSN MSN20020228092014302/28/02 09:20:31  5-MIN KMSN 281520Z 23008G16KT 200V280 8SM -SN BKN041 OVC055 M06/M11 A2989 900 65 -1300 220/08G16 200V280 RMK AO2 SNB09 P0000
14837KMSN MSN20020228092512802/28/02 09:25:31  5-MIN KMSN 281525Z 22010KT 6SM -SN SCT036 BKN043 OVC050 M06/M11 A2989 890 68 -1300 220/10 RMK AO2 SNB09 P0000
14837KMSN MSN20020228093014302/28/02 09:30:31  5-MIN KMSN 281530Z 23010G17KT 210V270 5SM -SN BKN037 OVC050 M06/M10 A2988 900 71 -1300 230/10G17 210V270 RMK AO2 SNB09 P0000
14837KMSN MSN20020228093512002/28/02 09:35:31  5-MIN KMSN 281535Z 22010G17KT 4SM -SN OVC037 M06/M10 A2988 900 71 -1300 220/10G17 RMK AO2 SNB09 P0000
14837KMSN MSN20020228094012702/28/02 09:40:31  5-MIN KMSN 281540Z 22009G15KT 4SM -SN BKN032 OVC039 M06/M10 A2988 900 71 -1300 220/09G15 RMK AO2 SNB09 P0000
14837KMSN MSN20020228094513602/28/02 09:45:31  5-MIN KMSN 281545Z 22010G15KT 180V240 10SM OVC034 M06/M09 A2988 900 74 -1300 220/10G15 180V240 RMK AO2 SNB09E45 P0000
14837KMSN MSN20020228095014702/28/02 09:50:31  5-MIN KMSN 281550Z 23008KT 200V260 10SM BKN034 M06/M09 A2988 900 74 -1300 230/08 200V260 RMK AO2 SNB09E45 SLP133 P0000 T10561094
14837KMSN MSN20020228095511902/28/02 09:55:31  5-MIN KMSN 281555Z 23010G16KT 10SM FEW022 BKN031 OVC040 M05/M09 A2988 900 71 -1300 230/10G16 RMK AO2
14837KMSN MSN20020228100011902/28/02 10:00:31  5-MIN KMSN 281600Z 23009G16KT 10SM FEW022 SCT031 BKN040 M04/M09 A2988 900 68 -1200 230/09G16 RMK AO2
14837KMSN MSN20020228100511902/28/02 10:05:31  5-MIN KMSN 281605Z 23010G18KT 10SM SCT022 BKN031 OVC050 M04/M09 A2988 900 71 -1200 230/10G18 RMK AO2
14837KMSN MSN20020228101013502/28/02 10:10:31  5-MIN KMSN 281610Z 26010G18KT 220V280 10SM SCT022 BKN031 OVC050 M04/M09 A2988 900 71 -1200 250/10G18 220V280 RMK AO2
14837KMSN MSN20020228101513502/28/02 10:15:31  5-MIN KMSN 281615Z 23008G14KT 200V270 10SM BKN022 BKN031 OVC050 M04/M09 A2988 900 68 -1200 230/08G14 200V270 RMK AO2
14837KMSN MSN20020228102011302/28/02 10:20:31  5-MIN KMSN 281620Z 24010KT 10SM BKN022 BKN031 OVC048 M04/M10 A2988 900 65 -1200 240/10 RMK AO2
14837KMSN MSN20020228102511302/28/02 10:25:31  5-MIN KMSN 281625Z 24010KT 10SM BKN022 BKN042 OVC050 M04/M09 A2988 900 68 -1200 230/10 RMK AO2
14837KMSN MSN20020228103011902/28/02 10:30:31  5-MIN KMSN 281630Z 24010G15KT 10SM BKN022 BKN031 OVC040 M04/M09 A2988 900 68 -1200 240/10G15 RMK AO2
14837KMSN MSN20020228103511902/28/02 10:35:31  5-MIN KMSN 281635Z 24010G15KT 10SM BKN022 BKN031 OVC040 M04/M09 A2988 900 68 -1200 240/10G15 RMK AO2
14837KMSN MSN20020228104010602/28/02 10:40:31  5-MIN KMSN 281640Z 24009KT 10SM BKN024 OVC031 M04/M09 A2988 900 68 -1200 240/09 RMK AO2
14837KMSN MSN20020228104510602/28/02 10:45:31  5-MIN KMSN 281645Z 25009KT 10SM BKN024 OVC041 M04/M09 A2988 900 68 -1100 250/09 RMK AO2
14837KMSN MSN20020228105014502/28/02 10:50:31  5-MIN KMSN 281650Z 24011G15KT 210V270 10SM BKN024 OVC031 M04/M09 A2988 900 68 -1100 240/11G15 210V270 RMK AO2 SLP132 T10391089
14837KMSN MSN20020228105510502/28/02 10:55:31  5-MIN KMSN 281655Z 25012G16KT 10SM OVC024 M04/M09 A2988 900 68 -1100 250/12G16 RMK AO2
14837KMSN MSN20020228110010502/28/02 11:00:31  5-MIN KMSN 281700Z 25009G16KT 10SM OVC024 M04/M09 A2988 900 68 -1100 250/09G16 RMK AO2
14837KMSN MSN20020228110511502/28/02 11:05:31  5-MIN KMSN 281705Z 23009KT 200V290 10SM OVC024 M04/M08 A2988 900 71 -1100 230/09 200V290 RMK AO2
14837KMSN MSN20020228111011502/28/02 11:10:31  5-MIN KMSN 281710Z 24008KT 200V270 10SM BKN024 M04/M09 A2988 900 68 -1100 240/08 200V270 RMK AO2
14837KMSN MSN20020228111510502/28/02 11:15:31  5-MIN KMSN 281715Z 24009G15KT 10SM BKN024 M03/M08 A2988 900 68 -1000 240/09G15 RMK AO2
14837KMSN MSN20020228112010502/28/02 11:20:31  5-MIN KMSN 281720Z 23009G16KT 10SM BKN024 M03/M08 A2988 900 68 -1000 230/09G16 RMK AO2
14837KMSN MSN20020228112512102/28/02 11:25:31  5-MIN KMSN 281725Z 24009G16KT 210V290 10SM BKN024 M03/M08 A2989 900 68 -1000 240/09G16 210V290 RMK AO2
14837KMSN MSN20020228113009902/28/02 11:30:31  5-MIN KMSN 281730Z 27009KT 10SM BKN024 M03/M08 A2989 890 68 -1100 270/09 RMK AO2
14837KMSN MSN20020228113510502/28/02 11:35:31  5-MIN KMSN 281735Z 25010G16KT 10SM BKN024 M03/M09 A2989 890 65 -1100 250/10G16 RMK AO2
14837KMSN MSN20020228114010502/28/02 11:40:31  5-MIN KMSN 281740Z 25010G17KT 10SM OVC026 M03/M08 A2989 890 68 -1100 250/10G17 RMK AO2
14837KMSN MSN20020228114510502/28/02 11:45:31  5-MIN KMSN 281745Z 26010G17KT 10SM OVC026 M03/M08 A2989 890 68 -1100 260/10G17 RMK AO2
14837KMSN MSN20020228115014602/28/02 11:50:31  5-MIN KMSN 281750Z 24010G14KT 10SM OVC026 M03/M08 A2989 890 68 -1100 240/10G14 RMK AO2 SLP135 60000 T10331083 11033 21078 56009
14837KMSN MSN20020228115510502/28/02 11:55:31  5-MIN KMSN 281755Z 29012G16KT 10SM OVC026 M03/M08 A2989 890 68 -1100 290/12G16 RMK AO2
14837KMSN MSN20020228120010502/28/02 12:00:31  5-MIN KMSN 281800Z 27011G18KT 10SM OVC026 M03/M08 A2989 890 71 -1100 260/11G18 RMK AO2
14837KMSN MSN20020228120510502/28/02 12:05:31  5-MIN KMSN 281805Z 27012G18KT 10SM OVC028 M03/M08 A2989 890 68 -1100 260/12G18 RMK AO2
14837KMSN MSN20020228121011202/28/02 12:10:31  5-MIN KMSN 281810Z 25012G18KT 10SM BKN028 OVC035 M03/M09 A2989 890 63 -1100 250/12G18 RMK AO2
14837KMSN MSN20020228121511202/28/02 12:15:31  5-MIN KMSN 281815Z 28009G15KT 10SM BKN026 OVC035 M03/M09 A2989 890 60 -1000 280/09G15 RMK AO2
14837KMSN MSN20020228122012802/28/02 12:20:31  5-MIN KMSN 281820Z 26010G19KT 230V300 10SM SCT028 OVC035 M03/M09 A2989 890 60 -1000 260/10G19 230V300 RMK AO2
14837KMSN MSN20020228122512802/28/02 12:25:31  5-MIN KMSN 281825Z 26008G19KT 10SM -SN SCT028 OVC035 M03/M09 A2989 890 63 -1000 260/08G19 RMK AO2 SNB22 P0000
14837KMSN MSN20020228123012702/28/02 12:30:31  5-MIN KMSN 281830Z 26011G15KT 8SM -SN FEW028 OVC035 M03/M09 A2989 890 63 -1000 260/11G15 RMK AO2 SNB22 P0000
14837KMSN MSN20020228123513602/28/02 12:35:31  5-MIN KMSN 281835Z 28007G15KT 230V310 8SM -SN OVC037 M03/M08 A2989 890 66 -1000 280/07G15 230V310 RMK AO2 SNB22 P0000
14837KMSN MSN20020228124012002/28/02 12:40:31  5-MIN KMSN 281840Z 27008KT 8SM -SN FEW024 OVC037 M02/M08 A2989 900 66 -900 270/08 RMK AO2 SNB22 P0000
14837KMSN MSN20020228124512702/28/02 12:45:31  5-MIN KMSN 281845Z 29012G18KT 8SM -SN FEW024 OVC037 M03/M08 A2989 900 66 -1000 290/12G18 RMK AO2 SNB22 P0000
14837KMSN MSN20020228125014402/28/02 12:50:31  5-MIN KMSN 281850Z 26013G18KT 8SM -SN FEW027 OVC037 M03/M08 A2989 900 66 -1000 260/13G18 RMK AO2 SNB22 SLP134 P0000 T10281083
14837KMSN MSN20020228125512102/28/02 12:55:31  5-MIN KMSN 281855Z 27010G17KT 9SM -SN SCT027 OVC037 M03/M08 A2989 900 66 -1000 270/10G17 RMK AO2 P0000
14837KMSN MSN20020228130012602/28/02 13:00:31  5-MIN KMSN 281900Z 26012G17KT 10SM FEW027 OVC037 M03/M09 A2989 900 63 -1000 260/12G17 RMK AO2 SNE1856 P0000
14837KMSN MSN20020228130512602/28/02 13:05:31  5-MIN KMSN 281905Z 27007G18KT 10SM FEW025 OVC037 M03/M09 A2989 900 63 -1000 270/07G18 RMK AO2 SNE1856 P0000
14837KMSN MSN20020228131012602/28/02 13:10:31  5-MIN KMSN 281910Z 27011G16KT 10SM FEW025 OVC037 M03/M08 A2988 900 66 -1000 260/11G16 RMK AO2 SNE1856 P0000
14837KMSN MSN20020228131511802/28/02 13:15:31  5-MIN KMSN 281915Z 26011G16KT 10SM OVC035 M02/M08 A2988 900 63 -900 260/11G16 RMK AO2 SNE1856 P0000
14837KMSN MSN20020228132014802/28/02 13:20:31  5-MIN KMSN 281920Z 27010G16KT 230V300 10SM -SN SCT030 OVC037 M02/M09 A2988 900 60 -900 270/10G16 230V300 RMK AO2 SNE1856B16 P0000
14837KMSN MSN20020228132512602/28/02 13:25:31  5-MIN KMSN 281925Z 26012G18KT 10SM -SN OVC034 M03/M09 A2988 900 60 -1000 260/12G18 RMK AO2 SNE1856B16 P0000
14837KMSN MSN20020228133013302/28/02 13:30:31  5-MIN KMSN 281930Z 27010G18KT 10SM -SN FEW029 OVC036 M03/M09 A2989 900 63 -1000 270/10G18 RMK AO2 SNE1856B16 P0000
14837KMSN MSN20020228133512602/28/02 13:35:31  5-MIN KMSN 281935Z 28011G18KT 10SM -SN OVC033 M03/M09 A2989 890 63 -1000 280/11G18 RMK AO2 SNE1856B16 P0000
14837KMSN MSN20020228134012602/28/02 13:40:31  5-MIN KMSN 281940Z 28010G18KT 10SM -SN OVC034 M03/M08 A2989 890 66 -1000 280/10G18 RMK AO2 SNE1856B16 P0000
14837KMSN MSN20020228134512002/28/02 13:45:31  5-MIN KMSN 281945Z 27009KT 10SM -SN OVC034 M03/M09 A2989 890 63 -1000 270/09 RMK AO2 SNE1856B16 P0000
14837KMSN MSN20020228135013602/28/02 13:50:31  5-MIN KMSN 281950Z 28012KT 10SM OVC032 M03/M09 A2989 890 63 -1000 280/12 RMK AO2 SNE1856B16E49 SLP135 P0000 T10281089
14837KMSN MSN20020228135509902/28/02 13:55:31  5-MIN KMSN 281955Z 30012KT 10SM OVC032 M03/M09 A2989 890 63 -1000 300/12 RMK AO2
14837KMSN MSN20020228140010402/28/02 14:00:31  5-MIN KMSN 282000Z 28011G16KT 10SM OVC032 M02/M09 A2990 880 60 -900 280/11G16 RMK AO2
14837KMSN MSN20020228140510502/28/02 14:05:31  5-MIN KMSN 282005Z 28013G18KT 10SM OVC032 M03/M09 A2990 880 60 -1000 280/13G18 RMK AO2
14837KMSN MSN20020228141010502/28/02 14:10:31  5-MIN KMSN 282010Z 28009G18KT 10SM OVC032 M03/M11 A2991 880 55 -1000 280/09G18 RMK AO2
14837KMSN MSN20020228141509802/28/02 14:15:31  5-MIN KMSN 282015Z 25011KT 10SM OVC034 M02/M11 A2990 880 53 -900 250/11 RMK AO2
14837KMSN MSN20020228142009802/28/02 14:20:31  5-MIN KMSN 282020Z 26011KT 10SM OVC034 M02/M10 A2991 880 55 -900 260/11 RMK AO2
14837KMSN MSN20020228142510402/28/02 14:25:31  5-MIN KMSN 282025Z 27011G18KT 10SM OVC034 M02/M10 A2991 880 55 -900 270/11G18 RMK AO2
14837KMSN MSN20020228143010402/28/02 14:30:31  5-MIN KMSN 282030Z 26009G18KT 10SM OVC036 M02/M10 A2991 880 55 -900 260/09G18 RMK AO2
14837KMSN MSN20020228143509802/28/02 14:35:31  5-MIN KMSN 282035Z 27010KT 10SM OVC036 M02/M10 A2991 870 55 -900 270/10 RMK AO2
14837KMSN MSN20020228144010402/28/02 14:40:31  5-MIN KMSN 282040Z 28013G17KT 10SM OVC038 M02/M09 A2991 870 58 -900 280/13G17 RMK AO2
14837KMSN MSN20020228144510402/28/02 14:45:31  5-MIN KMSN 282045Z 26008G17KT 10SM BKN038 M02/M10 A2991 880 55 -900 260/08G17 RMK AO2
14837KMSN MSN20020228145012702/28/02 14:50:31  5-MIN KMSN 282050Z 28010KT 10SM BKN038 M02/M10 A2991 880 55 -900 280/10 RMK AO2 SLP141 60000 T10221100 55001
14837KMSN MSN20020228145510402/28/02 14:55:31  5-MIN KMSN 282055Z 27010G16KT 10SM BKN040 M02/M10 A2991 870 55 -900 270/10G16 RMK AO2
14837KMSN MSN20020228150009802/28/02 15:00:31  5-MIN KMSN 282100Z 29010KT 10SM BKN040 M02/M10 A2991 870 55 -900 280/10 RMK AO2
14837KMSN MSN20020228150510402/28/02 15:05:31  5-MIN KMSN 282105Z 27011G16KT 10SM BKN040 M02/M10 A2991 870 55 -900 270/11G16 RMK AO2
14837KMSN MSN20020228151010402/28/02 15:10:31  5-MIN KMSN 282110Z 27011G16KT 10SM BKN040 M02/M10 A2991 870 55 -900 270/11G16 RMK AO2
14837KMSN MSN20020228151511402/28/02 15:15:31  5-MIN KMSN 282115Z 26012KT 230V290 10SM BKN040 M02/M10 A2992 870 55 -900 260/12 230V290 RMK AO2
14837KMSN MSN20020228152010402/28/02 15:20:31  5-MIN KMSN 282120Z 28010G16KT 10SM BKN040 M02/M10 A2992 870 55 -900 280/10G16 RMK AO2
14837KMSN MSN20020228152509802/28/02 15:25:31  5-MIN KMSN 282125Z 28011KT 10SM BKN040 M02/M10 A2992 870 55 -900 280/11 RMK AO2
14837KMSN MSN20020228153009802/28/02 15:30:31  5-MIN KMSN 282130Z 26009KT 10SM BKN040 M02/M10 A2992 860 55 -900 260/09 RMK AO2
14837KMSN MSN20020228153509902/28/02 15:35:31  5-MIN KMSN 282135Z 27010KT 10SM BKN040 M02/M10 A2992 860 55 -1000 270/10 RMK AO2
14837KMSN MSN20020228154009902/28/02 15:40:31  5-MIN KMSN 282140Z 28007KT 10SM BKN040 M02/M10 A2993 860 55 -1000 270/07 RMK AO2
14837KMSN MSN20020228154509902/28/02 15:45:31  5-MIN KMSN 282145Z 29008KT 10SM BKN040 M02/M10 A2992 860 55 -1000 280/08 RMK AO2
14837KMSN MSN20020228155011602/28/02 15:50:31  5-MIN KMSN 282150Z 29007KT 10SM BKN043 M02/M10 A2993 860 55 -1000 290/07 RMK AO2 SLP147 T10221100
14837KMSN MSN20020228155509802/28/02 15:55:31  5-MIN KMSN 282155Z 31008KT 10SM BKN043 M02/M09 A2993 860 55 -900 310/08 RMK AO2
14837KMSN MSN20020228160009802/28/02 16:00:31  5-MIN KMSN 282200Z 28009KT 10SM BKN043 M02/M09 A2993 860 55 -900 280/09 RMK AO2
14837KMSN MSN20020228160509802/28/02 16:05:31  5-MIN KMSN 282205Z 28010KT 10SM BKN043 M02/M10 A2993 850 53 -900 280/10 RMK AO2
14837KMSN MSN20020228161009802/28/02 16:10:31  5-MIN KMSN 282210Z VRB05KT 10SM BKN043 M02/M10 A2994 850 53 -900 VRB/05 RMK AO2
14837KMSN MSN20020228161512102/28/02 16:15:31  5-MIN KMSN 282215Z 26008KT 240V310 10SM BKN043 BKN050 M02/M10 A2994 850 53 -900 260/08 240V310 RMK AO2
14837KMSN MSN20020228162010502/28/02 16:20:31  5-MIN KMSN 282220Z 27008KT 10SM BKN043 BKN050 M02/M10 A2994 850 53 -900 270/08 RMK AO2
14837KMSN MSN20020228162510502/28/02 16:25:31  5-MIN KMSN 282225Z 25008KT 10SM BKN043 BKN050 M02/M10 A2994 850 53 -900 250/08 RMK AO2
14837KMSN MSN20020228163010502/28/02 16:30:31  5-MIN KMSN 282230Z 26005KT 10SM BKN043 BKN050 M02/M10 A2994 850 53 -900 260/05 RMK AO2
14837KMSN MSN20020228163510502/28/02 16:35:31  5-MIN KMSN 282235Z 28006KT 10SM BKN043 BKN050 M02/M10 A2994 850 53 -900 270/06 RMK AO2
14837KMSN MSN20020228164010502/28/02 16:40:31  5-MIN KMSN 282240Z VRB06KT 10SM BKN043 BKN050 M02/M10 A2994 850 53 -900 VRB/06 RMK AO2
14837KMSN MSN20020228164510502/28/02 16:45:31  5-MIN KMSN 282245Z VRB04KT 10SM BKN043 BKN050 M02/M10 A2994 840 53 -900 VRB/04 RMK AO2
14837KMSN MSN20020228165012202/28/02 16:50:31  5-MIN KMSN 282250Z VRB04KT 10SM BKN043 BKN050 M02/M10 A2995 840 53 -900 VRB/04 RMK AO2 SLP154 T10171100
14837KMSN MSN20020228165510502/28/02 16:55:31  5-MIN KMSN 282255Z VRB05KT 10SM BKN043 BKN050 M02/M10 A2995 840 53 -900 VRB/05 RMK AO2
14837KMSN MSN20020228170010502/28/02 17:00:31  5-MIN KMSN 282300Z VRB05KT 10SM BKN043 BKN050 M02/M10 A2995 840 53 -900 VRB/05 RMK AO2
14837KMSN MSN20020228170510502/28/02 17:05:31  5-MIN KMSN 282305Z 27007KT 10SM BKN043 BKN050 M02/M10 A2995 830 53 -900 270/07 RMK AO2
14837KMSN MSN20020228171010502/28/02 17:10:31  5-MIN KMSN 282310Z VRB05KT 10SM BKN043 BKN050 M02/M10 A2996 830 53 -900 VRB/05 RMK AO2
14837KMSN MSN20020228171510502/28/02 17:15:31  5-MIN KMSN 282315Z 26008KT 10SM BKN043 BKN050 M02/M10 A2996 830 53 -900 260/08 RMK AO2
14837KMSN MSN20020228172010502/28/02 17:20:31  5-MIN KMSN 282320Z 27008KT 10SM BKN043 BKN050 M02/M11 A2996 830 49 -900 270/08 RMK AO2
14837KMSN MSN20020228172510402/28/02 17:25:31  5-MIN KMSN 282325Z 27010G17KT 10SM BKN048 M02/M11 A2997 820 49 -900 270/10G17 RMK AO2
14837KMSN MSN20020228173012102/28/02 17:30:31  5-MIN KMSN 282330Z 27007G17KT 250V310 10SM BKN048 M02/M11 A2997 820 53 -1000 270/07G17 250V310 RMK AO2
14837KMSN MSN20020228173509902/28/02 17:35:31  5-MIN KMSN 282335Z 27008KT 10SM BKN048 M02/M11 A2997 820 53 -1000 270/08 RMK AO2
14837KMSN MSN20020228174009902/28/02 17:40:31  5-MIN KMSN 282340Z 26009KT 10SM BKN048 M02/M11 A2998 810 53 -1000 260/09 RMK AO2
14837KMSN MSN20020228174510502/28/02 17:45:31  5-MIN KMSN 282345Z 26010G15KT 10SM BKN048 M02/M11 A2998 810 53 -1000 260/10G15 RMK AO2
14837KMSN MSN20020228175015202/28/02 17:50:31  5-MIN KMSN 282350Z 26007G15KT 10SM BKN048 M02/M11 A2998 810 53 -1000 260/07G15 RMK AO2 SLP165 4/001 60000 T10221106 11017 21033 53007
14837KMSN MSN20020228175509902/28/02 17:55:31  5-MIN KMSN 282355Z 26007KT 10SM OVC048 M02/M11 A2998 810 51 -1000 260/07 RMK AO2
14837KMSN MSN20020228180011502/28/02 18:00:31  5-MIN KMSN 010000Z 27007KT 230V300 10SM OVC048 M02/M11 A2998 810 53 -1000 270/07 230V300 RMK AO2
14837KMSN MSN20020228180509902/28/02 18:05:31  5-MIN KMSN 010005Z 27007KT 10SM OVC048 M02/M11 A2999 800 51 -1000 270/07 RMK AO2
14837KMSN MSN20020228181012102/28/02 18:10:31  5-MIN KMSN 010010Z 26010G14KT 230V290 10SM OVC048 M02/M11 A2999 800 53 -1000 260/10G14 230V290 RMK AO2
14837KMSN MSN20020228181510502/28/02 18:15:31  5-MIN KMSN 010015Z 26007G14KT 10SM OVC048 M02/M11 A2999 800 51 -1000 260/07G14 RMK AO2
14837KMSN MSN20020228182009902/28/02 18:20:31  5-MIN KMSN 010020Z 27008KT 10SM OVC046 M02/M11 A2999 800 51 -1000 270/08 RMK AO2
14837KMSN MSN20020228182509902/28/02 18:25:31  5-MIN KMSN 010025Z 27008KT 10SM OVC044 M02/M11 A3000 790 51 -1000 270/08 RMK AO2
14837KMSN MSN20020228183011502/28/02 18:30:31  5-MIN KMSN 010030Z 27007KT 220V300 10SM OVC044 M02/M11 A3000 790 51 -1000 270/07 220V300 RMK AO2
14837KMSN MSN20020228183510502/28/02 18:35:31  5-MIN KMSN 010035Z 27007G14KT 10SM BKN044 M02/M11 A3000 790 51 -1000 270/07G14 RMK AO2
14837KMSN MSN20020228184010502/28/02 18:40:31  5-MIN KMSN 010040Z 27006G14KT 10SM BKN044 M03/M11 A3000 790 53 -1100 270/06G14 RMK AO2
14837KMSN MSN20020228184509902/28/02 18:45:31  5-MIN KMSN 010045Z 27006KT 10SM SCT044 M03/M11 A3000 790 53 -1100 270/06 RMK AO2
14837KMSN MSN20020228185011602/28/02 18:50:31  5-MIN KMSN 010050Z 27006KT 10SM SCT044 M03/M11 A3001 790 53 -1100 270/06 RMK AO2 SLP174 T10281111
14837KMSN MSN20020228185509902/28/02 18:55:31  5-MIN KMSN 010055Z 28005KT 10SM FEW044 M03/M11 A3001 780 53 -1100 280/05 RMK AO2
14837KMSN MSN20020228190009602/28/02 19:00:31  5-MIN KMSN 010100Z 28004KT 10SM CLR M03/M11 A3001 780 53 -1100 280/04 RMK AO2
14837KMSN MSN20020228190509602/28/02 19:05:31  5-MIN KMSN 010105Z 29005KT 10SM CLR M03/M11 A3001 780 53 -1100 290/05 RMK AO2
14837KMSN MSN20020228191009602/28/02 19:10:31  5-MIN KMSN 010110Z 29005KT 10SM CLR M03/M11 A3001 780 55 -1200 290/05 RMK AO2
14837KMSN MSN20020228191509602/28/02 19:15:31  5-MIN KMSN 010115Z 29006KT 10SM CLR M03/M11 A3002 770 55 -1200 290/06 RMK AO2
14837KMSN MSN20020228192009602/28/02 19:20:31  5-MIN KMSN 010120Z 30006KT 10SM CLR M03/M11 A3002 770 55 -1200 290/06 RMK AO2
14837KMSN MSN20020228192509602/28/02 19:25:31  5-MIN KMSN 010125Z 29005KT 10SM CLR M03/M11 A3002 770 55 -1200 290/05 RMK AO2
14837KMSN MSN20020228193009602/28/02 19:30:31  5-MIN KMSN 010130Z 29006KT 10SM CLR M03/M11 A3002 770 55 -1200 290/06 RMK AO2
14837KMSN MSN20020228195011302/28/02 19:50:31  5-MIN KMSN 010150Z VRB04KT 10SM CLR M03/M11 A3003 760 55 -1200 VRB/04 RMK AO2 SLP182 T10331111
14837KMSN MSN20020228195509602/28/02 19:55:31  5-MIN KMSN 010155Z 28003KT 10SM CLR M04/M12 A3003 760 55 -1300 280/03 RMK AO2
14837KMSN MSN20020228200009602/28/02 20:00:31  5-MIN KMSN 010200Z 27004KT 10SM CLR M04/M11 A3003 760 57 -1300 270/04 RMK AO2
14837KMSN MSN20020228200509602/28/02 20:05:31  5-MIN KMSN 010205Z VRB03KT 10SM CLR M04/M11 A3003 760 60 -1300 VRB/03 RMK AO2
14837KMSN MSN20020228201009602/28/02 20:10:31  5-MIN KMSN 010210Z 00000KT 10SM CLR M04/M11 A3003 760 60 -1300 000/00 RMK AO2
14837KMSN MSN20020228201509602/28/02 20:15:31  5-MIN KMSN 010215Z 26003KT 10SM CLR M04/M11 A3003 760 60 -1300 260/03 RMK AO2
14837KMSN MSN20020228202009602/28/02 20:20:31  5-MIN KMSN 010220Z 00000KT 10SM CLR M04/M11 A3003 760 60 -1300 000/00 RMK AO2
14837KMSN MSN20020228202509602/28/02 20:25:31  5-MIN KMSN 010225Z VRB03KT 10SM CLR M04/M11 A3004 760 60 -1300 VRB/03 RMK AO2
14837KMSN MSN20020228203009602/28/02 20:30:31  5-MIN KMSN 010230Z 28004KT 10SM CLR M04/M11 A3003 760 60 -1300 280/04 RMK AO2
14837KMSN MSN20020228203509602/28/02 20:35:31  5-MIN KMSN 010235Z 28004KT 10SM CLR M04/M11 A3004 760 57 -1300 280/04 RMK AO2
14837KMSN MSN20020228204009602/28/02 20:40:31  5-MIN KMSN 010240Z 28005KT 10SM CLR M04/M11 A3004 760 57 -1300 280/05 RMK AO2
14837KMSN MSN20020228204509602/28/02 20:45:31  5-MIN KMSN 010245Z 28005KT 10SM CLR M04/M11 A3004 750 57 -1300 280/05 RMK AO2
14837KMSN MSN20020228205011902/28/02 20:50:31  5-MIN KMSN 010250Z 28004KT 10SM CLR M04/M11 A3005 750 57 -1300 280/04 RMK AO2 SLP188 T10391111 53024
14837KMSN MSN20020228205509602/28/02 20:55:31  5-MIN KMSN 010255Z 28005KT 10SM CLR M04/M11 A3005 740 60 -1300 280/05 RMK AO2
14837KMSN MSN20020228210009602/28/02 21:00:31  5-MIN KMSN 010300Z 28006KT 10SM CLR M04/M11 A3005 740 57 -1300 280/06 RMK AO2
14837KMSN MSN20020228210509602/28/02 21:05:31  5-MIN KMSN 010305Z 28005KT 10SM CLR M04/M10 A3005 740 63 -1300 280/05 RMK AO2
14837KMSN MSN20020228211009602/28/02 21:10:31  5-MIN KMSN 010310Z 28005KT 10SM CLR M04/M11 A3006 740 60 -1300 270/05 RMK AO2
14837KMSN MSN20020228211509602/28/02 21:15:31  5-MIN KMSN 010315Z 28004KT 10SM CLR M04/M12 A3006 740 55 -1300 280/04 RMK AO2
14837KMSN MSN20020228212009602/28/02 21:20:31  5-MIN KMSN 010320Z 27004KT 10SM CLR M04/M11 A3006 740 57 -1300 270/04 RMK AO2
14837KMSN MSN20020228212509602/28/02 21:25:31  5-MIN KMSN 010325Z 28004KT 10SM CLR M04/M11 A3006 730 57 -1300 280/04 RMK AO2
14837KMSN MSN20020228213009602/28/02 21:30:31  5-MIN KMSN 010330Z 27005KT 10SM CLR M04/M11 A3006 730 57 -1300 270/05 RMK AO2
14837KMSN MSN20020228213509602/28/02 21:35:31  5-MIN KMSN 010335Z 27005KT 10SM CLR M04/M11 A3007 730 57 -1300 270/05 RMK AO2
14837KMSN MSN20020228214009902/28/02 21:40:31  5-MIN KMSN 010340Z 27005KT 10SM FEW100 M04/M11 A3007 730 60 -1300 270/05 RMK AO2
14837KMSN MSN20020228214509902/28/02 21:45:31  5-MIN KMSN 010345Z 27006KT 10SM FEW100 M04/M11 A3007 730 60 -1300 270/06 RMK AO2
14837KMSN MSN20020228215011602/28/02 21:50:31  5-MIN KMSN 010350Z 28005KT 10SM SCT110 M04/M11 A3007 730 60 -1300 280/05 RMK AO2 SLP196 T10391106
14837KMSN MSN20020228215509902/28/02 21:55:31  5-MIN KMSN 010355Z 28005KT 10SM SCT110 M04/M11 A3007 730 57 -1300 280/05 RMK AO2
14837KMSN MSN20020228220009902/28/02 22:00:31  5-MIN KMSN 010400Z 28006KT 10SM FEW110 M04/M11 A3007 720 60 -1300 280/06 RMK AO2
14837KMSN MSN20020228220509902/28/02 22:05:31  5-MIN KMSN 010405Z 28005KT 10SM FEW110 M04/M11 A3007 720 60 -1300 280/05 RMK AO2
14837KMSN MSN20020228221009902/28/02 22:10:31  5-MIN KMSN 010410Z 28005KT 10SM FEW110 M04/M11 A3007 720 60 -1300 280/05 RMK AO2
14837KMSN MSN20020228221509902/28/02 22:15:31  5-MIN KMSN 010415Z 28005KT 10SM FEW110 M04/M11 A3008 720 62 -1400 280/05 RMK AO2
14837KMSN MSN20020228222009602/28/02 22:20:31  5-MIN KMSN 010420Z 29005KT 10SM CLR M04/M11 A3008 720 60 -1400 280/05 RMK AO2
14837KMSN MSN20020228222509602/28/02 22:25:31  5-MIN KMSN 010425Z 28005KT 10SM CLR M04/M10 A3008 710 65 -1400 280/05 RMK AO2
14837KMSN MSN20020228223009602/28/02 22:30:31  5-MIN KMSN 010430Z 28006KT 10SM CLR M04/M11 A3009 710 60 -1400 280/06 RMK AO2
14837KMSN MSN20020228223509602/28/02 22:35:31  5-MIN KMSN 010435Z 28007KT 10SM CLR M04/M11 A3009 710 62 -1400 280/07 RMK AO2
14837KMSN MSN20020228224009902/28/02 22:40:31  5-MIN KMSN 010440Z 28006KT 10SM FEW036 M04/M11 A3009 710 60 -1400 280/06 RMK AO2
14837KMSN MSN20020228224509902/28/02 22:45:31  5-MIN KMSN 010445Z 28005KT 10SM SCT036 M04/M11 A3009 710 62 -1400 280/05 RMK AO2
14837KMSN MSN20020228225011602/28/02 22:50:31  5-MIN KMSN 010450Z 28006KT 10SM SCT036 M04/M11 A3009 710 62 -1400 280/06 RMK AO2 SLP202 T10441106
14837KMSN MSN20020228225510602/28/02 22:55:31  5-MIN KMSN 010455Z 29004KT 10SM FEW030 BKN036 M04/M11 A3009 710 62 -1400 290/04 RMK AO2
14837KMSN MSN20020228230010602/28/02 23:00:31  5-MIN KMSN 010500Z 29005KT 10SM FEW028 BKN036 M04/M11 A3010 700 62 -1400 290/05 RMK AO2
14837KMSN MSN20020228230510602/28/02 23:05:31  5-MIN KMSN 010505Z 29004KT 10SM FEW028 BKN036 M04/M11 A3010 700 62 -1400 290/04 RMK AO2
14837KMSN MSN20020228231009902/28/02 23:10:31  5-MIN KMSN 010510Z VRB04KT 10SM OVC036 M04/M11 A3010 700 62 -1400 VRB/04 RMK AO2
14837KMSN MSN20020228231509902/28/02 23:15:31  5-MIN KMSN 010515Z 31003KT 10SM OVC036 M04/M11 A3010 700 62 -1400 310/03 RMK AO2
14837KMSN MSN20020228232009902/28/02 23:20:31  5-MIN KMSN 010520Z 31004KT 10SM OVC036 M05/M10 A3010 700 68 -1500 310/04 RMK AO2
14837KMSN MSN20020228232509902/28/02 23:25:31  5-MIN KMSN 010525Z 31006KT 10SM BKN036 M05/M10 A3010 700 68 -1500 310/06 RMK AO2
14837KMSN MSN20020228233009902/28/02 23:30:31  5-MIN KMSN 010530Z 31004KT 10SM BKN036 M05/M11 A3010 700 65 -1500 310/04 RMK AO2
14837KMSN MSN20020228233509902/28/02 23:35:31  5-MIN KMSN 010535Z 32004KT 10SM BKN036 M05/M11 A3010 700 62 -1500 320/04 RMK AO2
14837KMSN MSN20020228234009902/28/02 23:40:31  5-MIN KMSN 010540Z 32004KT 10SM BKN036 M05/M11 A3011 690 62 -1500 320/04 RMK AO2
14837KMSN MSN20020228234509902/28/02 23:45:31  5-MIN KMSN 010545Z 31005KT 10SM BKN036 M05/M11 A3011 690 62 -1500 310/05 RMK AO2
14837KMSN MSN20020228235014402/28/02 23:50:31  5-MIN KMSN 010550Z 31005KT 10SM BKN036 M06/M11 A3011 690 65 -1600 310/05 RMK AO2 SLP210 T10561111 11022 21056 410171083 51022
14837KMSN MSN20020228235509902/28/02 23:55:31  5-MIN KMSN 010555Z 31005KT 10SM FEW033 M06/M11 A3011 690 65 -1600 310/05 RMK AO2
