14837KMSN MSN20120601000009506/01/12 00:00:35  5-MIN KMSN 010600Z 02005KT 10SM OVC085 10/06 A2993 850 74 500 020/05 RMK AO2
14837KMSN MSN20120601000510206/01/12 00:05:31  5-MIN KMSN 010605Z 02005KT 10SM FEW037 OVC085 10/05 A2993 850 71 500 020/05 RMK AO2
14837KMSN MSN20120601001010206/01/12 00:10:31  5-MIN KMSN 010610Z 01005KT 10SM SCT037 OVC085 10/05 A2993 860 71 500 010/05 RMK AO2
14837KMSN MSN20120601001510206/01/12 00:15:31  5-MIN KMSN 010615Z 36004KT 10SM BKN035 OVC085 10/05 A2993 860 71 500 360/04 RMK AO2
14837KMSN MSN20120601002010206/01/12 00:20:31  5-MIN KMSN 010620Z 34004KT 10SM BKN035 OVC085 10/06 A2993 860 74 500 350/04 RMK AO2
14837KMSN MSN20120601002510206/01/12 00:25:31  5-MIN KMSN 010625Z 33004KT 10SM BKN035 OVC085 10/06 A2992 860 74 500 330/04 RMK AO2
14837KMSN MSN20120601003010206/01/12 00:30:31  5-MIN KMSN 010630Z 33003KT 10SM SCT035 OVC085 10/06 A2992 860 74 500 330/03 RMK AO2
14837KMSN MSN20120601003510906/01/12 00:35:31  5-MIN KMSN 010635Z 32003KT 10SM SCT035 BKN075 OVC085 10/06 A2992 860 74 500 320/03 RMK AO2
14837KMSN MSN20120601004010906/01/12 00:40:31  5-MIN KMSN 010640Z 31003KT 10SM FEW035 BKN075 OVC090 10/06 A2992 860 74 500 310/03 RMK AO2
14837KMSN MSN20120601004510906/01/12 00:45:31  5-MIN KMSN 010645Z 31003KT 10SM FEW035 BKN075 OVC090 09/06 A2992 860 76 400 310/03 RMK AO2
14837KMSN MSN20120601005011206/01/12 00:50:31  5-MIN KMSN 010650Z 30004KT 10SM OVC080 10/06 A2992 870 74 500 310/04 RMK AO2 SLP134 T01000056
14837KMSN MSN20120601005510206/01/12 00:55:31  5-MIN KMSN 010655Z VRB06KT 10SM BKN075 OVC100 10/06 A2992 870 74 500 VRB/06 RMK AO2
14837KMSN MSN20120601010010906/01/12 01:00:31  5-MIN KMSN 010700Z 34004KT 10SM FEW060 BKN080 OVC100 10/06 A2992 870 74 500 340/04 RMK AO2
14837KMSN MSN20120601010510906/01/12 01:05:31  5-MIN KMSN 010705Z 34004KT 10SM FEW060 BKN080 OVC095 09/06 A2992 870 79 500 340/04 RMK AO2
14837KMSN MSN20120601011010906/01/12 01:10:31  5-MIN KMSN 010710Z 34004KT 10SM FEW060 BKN080 OVC100 09/06 A2991 870 76 500 340/04 RMK AO2
14837KMSN MSN20120601011510906/01/12 01:15:31  5-MIN KMSN 010715Z 34004KT 10SM SCT060 BKN080 OVC100 09/06 A2991 870 76 500 340/04 RMK AO2
14837KMSN MSN20120601012010906/01/12 01:20:31  5-MIN KMSN 010720Z 34004KT 10SM SCT060 BKN080 OVC100 09/06 A2991 870 76 500 340/04 RMK AO2
14837KMSN MSN20120601012510206/01/12 01:25:31  5-MIN KMSN 010725Z 34005KT 10SM BKN060 OVC100 09/06 A2991 870 76 500 340/05 RMK AO2
14837KMSN MSN20120601013010206/01/12 01:30:31  5-MIN KMSN 010730Z 34005KT 10SM BKN065 OVC100 09/06 A2991 870 76 500 340/05 RMK AO2
14837KMSN MSN20120601013510206/01/12 01:35:31  5-MIN KMSN 010735Z 34005KT 10SM BKN065 OVC100 09/06 A2991 870 76 500 350/05 RMK AO2
14837KMSN MSN20120601014009506/01/12 01:40:31  5-MIN KMSN 010740Z 34004KT 10SM OVC065 09/06 A2991 880 79 500 340/04 RMK AO2
14837KMSN MSN20120601014509506/01/12 01:45:31  5-MIN KMSN 010745Z 35004KT 10SM OVC065 09/06 A2991 870 79 500 350/04 RMK AO2
14837KMSN MSN20120601015011206/01/12 01:50:31  5-MIN KMSN 010750Z 35003KT 10SM OVC065 09/06 A2991 880 79 500 350/03 RMK AO2 SLP130 T00940061
14837KMSN MSN20120601015509506/01/12 01:55:31  5-MIN KMSN 010755Z 34003KT 10SM OVC065 09/06 A2991 880 79 500 340/03 RMK AO2
14837KMSN MSN20120601020009506/01/12 02:00:31  5-MIN KMSN 010800Z 34003KT 10SM OVC070 09/06 A2991 880 79 500 340/03 RMK AO2
14837KMSN MSN20120601020509506/01/12 02:05:31  5-MIN KMSN 010805Z 34004KT 10SM OVC070 09/06 A2991 880 79 500 340/04 RMK AO2
14837KMSN MSN20120601021009506/01/12 02:10:31  5-MIN KMSN 010810Z 34004KT 10SM OVC070 09/06 A2991 880 79 500 340/04 RMK AO2
14837KMSN MSN20120601021509506/01/12 02:15:31  5-MIN KMSN 010815Z 33004KT 10SM OVC070 09/06 A2990 880 79 500 340/04 RMK AO2
14837KMSN MSN20120601022009506/01/12 02:20:31  5-MIN KMSN 010820Z 34004KT 10SM OVC070 09/06 A2990 880 79 500 340/04 RMK AO2
14837KMSN MSN20120601022509506/01/12 02:25:31  5-MIN KMSN 010825Z 34005KT 10SM OVC070 09/06 A2990 880 79 500 340/05 RMK AO2
14837KMSN MSN20120601023009506/01/12 02:30:31  5-MIN KMSN 010830Z 34005KT 10SM OVC065 09/06 A2990 880 76 500 340/05 RMK AO2
14837KMSN MSN20120601023509506/01/12 02:35:31  5-MIN KMSN 010835Z 34005KT 10SM OVC065 09/06 A2990 880 76 500 350/05 RMK AO2
14837KMSN MSN20120601024010206/01/12 02:40:31  5-MIN KMSN 010840Z 35004KT 10SM BKN060 OVC070 09/06 A2990 880 76 500 350/04 RMK AO2
14837KMSN MSN20120601024510206/01/12 02:45:31  5-MIN KMSN 010845Z 34005KT 10SM BKN060 OVC070 09/06 A2990 880 76 500 340/05 RMK AO2
14837KMSN MSN20120601025011006/01/12 02:50:31  5-MIN KMSN 010850Z 10SM OVC060 09/06 A2990 880 76 500 M /M RMK AO2 SLP128 T00940056 58006 $
14837KMSN MSN20120601025508706/01/12 02:55:31  5-MIN KMSN 010855Z 10SM OVC060 09/06 A2990 880 76 500 M /M RMK AO2 $
14837KMSN MSN20120601030009706/01/12 03:00:31  5-MIN KMSN 010900Z 34005KT 10SM OVC060 09/06 A2990 880 76 500 340/05 RMK AO2 $
14837KMSN MSN20120601030508706/01/12 03:05:31  5-MIN KMSN 010905Z 10SM OVC060 09/06 A2990 880 76 500 M /M RMK AO2 $
14837KMSN MSN20120601031008706/01/12 03:10:31  5-MIN KMSN 010910Z 10SM OVC060 09/06 A2990 880 76 500 M /M RMK AO2 $
14837KMSN MSN20120601031510406/01/12 03:15:31  5-MIN KMSN 010915Z 34007KT 10SM BKN060 OVC080 09/06 A2990 880 76 500 340/07 RMK AO2 $
14837KMSN MSN20120601032010406/01/12 03:20:31  5-MIN KMSN 010920Z 34006KT 10SM BKN060 OVC080 09/06 A2990 880 76 500 340/06 RMK AO2 $
14837KMSN MSN20120601032509706/01/12 03:25:31  5-MIN KMSN 010925Z 34007KT 10SM OVC060 09/06 A2990 880 76 500 340/07 RMK AO2 $
14837KMSN MSN20120601033010406/01/12 03:30:31  5-MIN KMSN 010930Z 34006KT 10SM BKN060 OVC080 09/06 A2990 880 76 500 340/06 RMK AO2 $
14837KMSN MSN20120601033510406/01/12 03:35:31  5-MIN KMSN 010935Z 34007KT 10SM BKN060 OVC080 09/06 A2990 880 76 500 340/07 RMK AO2 $
14837KMSN MSN20120601034010406/01/12 03:40:31  5-MIN KMSN 010940Z 34005KT 10SM BKN060 OVC080 09/06 A2990 880 76 500 350/05 RMK AO2 $
14837KMSN MSN20120601034510406/01/12 03:45:31  5-MIN KMSN 010945Z 34005KT 10SM BKN060 OVC085 09/06 A2990 890 76 500 340/05 RMK AO2 $
14837KMSN MSN20120601035012106/01/12 03:50:31  5-MIN KMSN 010950Z 33004KT 10SM BKN060 OVC085 09/06 A2990 890 79 400 330/04 RMK AO2 SLP127 T00890056 $
14837KMSN MSN20120601035510406/01/12 03:55:31  5-MIN KMSN 010955Z 33006KT 10SM BKN060 OVC085 09/06 A2990 890 79 400 330/06 RMK AO2 $
14837KMSN MSN20120601040010406/01/12 04:00:31  5-MIN KMSN 011000Z 33005KT 10SM BKN060 OVC080 09/06 A2990 890 76 500 330/05 RMK AO2 $
14837KMSN MSN20120601040510406/01/12 04:05:31  5-MIN KMSN 011005Z 33005KT 10SM BKN060 OVC080 09/06 A2990 880 76 500 330/05 RMK AO2 $
14837KMSN MSN20120601041010406/01/12 04:10:31  5-MIN KMSN 011010Z 34006KT 10SM FEW044 OVC060 09/06 A2990 890 76 500 340/06 RMK AO2 $
14837KMSN MSN20120601041510406/01/12 04:15:31  5-MIN KMSN 011015Z 34006KT 10SM SCT048 OVC060 09/06 A2990 890 76 500 340/06 RMK AO2 $
14837KMSN MSN20120601042010406/01/12 04:20:31  5-MIN KMSN 011020Z 34005KT 10SM BKN046 OVC060 09/06 A2990 880 76 500 340/05 RMK AO2 $
14837KMSN MSN20120601042510406/01/12 04:25:31  5-MIN KMSN 011025Z 34005KT 10SM BKN044 OVC060 09/06 A2990 880 76 500 340/05 RMK AO2 $
14837KMSN MSN20120601043011106/01/12 04:30:31  5-MIN KMSN 011030Z 33006KT 10SM BKN042 BKN049 OVC060 09/06 A2990 880 76 500 340/06 RMK AO2 $
14837KMSN MSN20120601043511106/01/12 04:35:31  5-MIN KMSN 011035Z 34007KT 10SM BKN044 BKN050 OVC060 09/06 A2990 880 76 500 350/07 RMK AO2 $
14837KMSN MSN20120601044011106/01/12 04:40:31  5-MIN KMSN 011040Z 34005KT 10SM SCT044 SCT050 OVC065 09/05 A2990 890 74 500 340/05 RMK AO2 $
14837KMSN MSN20120601044511106/01/12 04:45:31  5-MIN KMSN 011045Z 34005KT 10SM SCT042 SCT049 OVC060 09/06 A2990 890 76 500 340/05 RMK AO2 $
14837KMSN MSN20120601045012806/01/12 04:50:31  5-MIN KMSN 011050Z 33005KT 10SM FEW042 BKN050 OVC060 09/05 A2990 890 74 500 340/05 RMK AO2 SLP126 T00940050 $
14837KMSN MSN20120601045510406/01/12 04:55:31  5-MIN KMSN 011055Z 33005KT 10SM FEW042 OVC060 09/05 A2990 890 74 500 340/05 RMK AO2 $
14837KMSN MSN20120601050011106/01/12 05:00:31  5-MIN KMSN 011100Z 34006KT 10SM SCT048 BKN060 OVC085 09/05 A2990 890 74 500 340/06 RMK AO2 $
14837KMSN MSN20120601050511106/01/12 05:05:31  5-MIN KMSN 011105Z 34005KT 10SM BKN048 BKN060 OVC085 09/05 A2990 890 74 500 350/05 RMK AO2 $
14837KMSN MSN20120601051009906/01/12 05:10:31  5-MIN KMSN 011110Z 10SM BKN046 BKN055 OVC085 09/05 A2989 890 74 500 M /M RMK AO2
14837KMSN MSN20120601051510206/01/12 05:15:31  5-MIN KMSN 011115Z 34004KT 10SM BKN048 OVC085 09/05 A2990 890 74 500 340/04 RMK AO2
14837KMSN MSN20120601052010206/01/12 05:20:31  5-MIN KMSN 011120Z 34007KT 10SM BKN046 OVC085 09/05 A2989 890 74 500 340/07 RMK AO2
14837KMSN MSN20120601052509506/01/12 05:25:31  5-MIN KMSN 011125Z 35006KT 10SM OVC048 09/05 A2989 890 74 500 350/06 RMK AO2
14837KMSN MSN20120601053009506/01/12 05:30:31  5-MIN KMSN 011130Z 35006KT 10SM OVC046 09/05 A2989 890 74 500 350/06 RMK AO2
14837KMSN MSN20120601053509506/01/12 05:35:31  5-MIN KMSN 011135Z 34005KT 10SM OVC046 10/05 A2989 890 71 500 340/05 RMK AO2
14837KMSN MSN20120601054010206/01/12 05:40:31  5-MIN KMSN 011140Z 35007KT 10SM BKN046 OVC110 10/06 A2989 890 74 500 350/07 RMK AO2
14837KMSN MSN20120601054510206/01/12 05:45:31  5-MIN KMSN 011145Z 34007KT 10SM BKN046 OVC110 10/05 A2989 890 71 500 340/07 RMK AO2
14837KMSN MSN20120601055013706/01/12 05:50:31  5-MIN KMSN 011150Z 34008KT 10SM SCT046 BKN110 10/05 A2989 890 71 500 340/08 RMK AO2 SLP125 T01000050 10100 20089 56012
14837KMSN MSN20120601055510206/01/12 05:55:31  5-MIN KMSN 011155Z 34006KT 10SM FEW046 BKN110 10/04 A2989 890 68 500 340/06 RMK AO2
14837KMSN MSN20120601060010206/01/12 06:00:31  5-MIN KMSN 011200Z 34007KT 10SM FEW046 SCT110 10/05 A2989 890 71 500 340/07 RMK AO2
14837KMSN MSN20120601060509506/01/12 06:05:31  5-MIN KMSN 011205Z 34007KT 10SM FEW110 09/05 A2989 890 74 500 340/07 RMK AO2
14837KMSN MSN20120601061009506/01/12 06:10:31  5-MIN KMSN 011210Z 34008KT 10SM FEW110 10/04 A2989 890 68 500 340/08 RMK AO2
14837KMSN MSN20120601061509206/01/12 06:15:31  5-MIN KMSN 011215Z 35008KT 10SM CLR 10/04 A2989 890 68 500 350/08 RMK AO2
14837KMSN MSN20120601062010206/01/12 06:20:31  5-MIN KMSN 011220Z 35007KT 10SM FEW100 SCT120 11/04 A2989 900 66 600 360/07 RMK AO2
14837KMSN MSN20120601062510206/01/12 06:25:31  5-MIN KMSN 011225Z 35011KT 10SM SCT095 SCT120 11/05 A2989 900 66 700 350/11 RMK AO2
14837KMSN MSN20120601063009506/01/12 06:30:31  5-MIN KMSN 011230Z 35008KT 10SM SCT095 11/04 A2989 900 63 700 350/08 RMK AO2
14837KMSN MSN20120601063509506/01/12 06:35:31  5-MIN KMSN 011235Z 36008KT 10SM BKN100 11/05 A2989 900 66 700 360/08 RMK AO2
14837KMSN MSN20120601064009506/01/12 06:40:31  5-MIN KMSN 011240Z 35008KT 10SM BKN100 11/05 A2989 900 66 700 350/08 RMK AO2
14837KMSN MSN20120601064509506/01/12 06:45:31  5-MIN KMSN 011245Z 35008KT 10SM OVC100 11/05 A2989 900 66 700 350/08 RMK AO2
14837KMSN MSN20120601065011206/01/12 06:50:31  5-MIN KMSN 011250Z 34007KT 10SM BKN100 11/05 A2989 890 68 600 350/07 RMK AO2 SLP123 T01060050
14837KMSN MSN20120601065509506/01/12 06:55:31  5-MIN KMSN 011255Z 35009KT 10SM OVC100 11/05 A2989 890 66 700 350/09 RMK AO2
14837KMSN MSN20120601070009506/01/12 07:00:31  5-MIN KMSN 011300Z 35009KT 10SM BKN100 11/05 A2989 890 66 700 350/09 RMK AO2
14837KMSN MSN20120601070510106/01/12 07:05:31  5-MIN KMSN 011305Z 35007G16KT 10SM BKN100 11/05 A2989 890 66 700 350/07G16 RMK AO2
14837KMSN MSN20120601071009506/01/12 07:10:31  5-MIN KMSN 011310Z 34009KT 10SM BKN100 11/05 A2989 890 66 700 340/09 RMK AO2
14837KMSN MSN20120601071509506/01/12 07:15:31  5-MIN KMSN 011315Z 34007KT 10SM BKN100 11/05 A2989 900 66 700 340/07 RMK AO2
14837KMSN MSN20120601072010106/01/12 07:20:31  5-MIN KMSN 011320Z 34010G15KT 10SM BKN100 12/06 A2989 900 66 800 350/10G15 RMK AO2
14837KMSN MSN20120601072509506/01/12 07:25:31  5-MIN KMSN 011325Z 35008KT 10SM BKN100 12/05 A2988 900 63 800 350/08 RMK AO2
14837KMSN MSN20120601073009506/01/12 07:30:31  5-MIN KMSN 011330Z 35007KT 10SM BKN100 12/06 A2988 900 66 800 350/07 RMK AO2
14837KMSN MSN20120601073509506/01/12 07:35:31  5-MIN KMSN 011335Z 35011KT 10SM BKN100 12/06 A2988 900 63 800 350/11 RMK AO2
14837KMSN MSN20120601074009506/01/12 07:40:31  5-MIN KMSN 011340Z 35012KT 10SM BKN100 13/06 A2988 900 63 900 360/12 RMK AO2
14837KMSN MSN20120601074509506/01/12 07:45:31  5-MIN KMSN 011345Z 36010KT 10SM BKN100 13/06 A2988 900 63 900 360/10 RMK AO2
14837KMSN MSN20120601075011306/01/12 07:50:31  5-MIN KMSN 011350Z 01011KT 10SM SCT100 13/06 A2988 900 61 1000 020/11 RMK AO2 SLP120 T01330061
14837KMSN MSN20120601075509606/01/12 07:55:31  5-MIN KMSN 011355Z 36013KT 10SM SCT100 13/06 A2988 900 61 1000 360/13 RMK AO2
14837KMSN MSN20120601080009606/01/12 08:00:31  5-MIN KMSN 011400Z 02011KT 10SM SCT100 14/06 A2988 900 59 1000 020/11 RMK AO2
14837KMSN MSN20120601080509606/01/12 08:05:31  5-MIN KMSN 011405Z 02012KT 10SM FEW100 14/05 A2988 900 53 1100 020/12 RMK AO2
14837KMSN MSN20120601081009606/01/12 08:10:31  5-MIN KMSN 011410Z 01014KT 10SM FEW100 14/05 A2988 900 55 1000 010/14 RMK AO2
14837KMSN MSN20120601081509606/01/12 08:15:31  5-MIN KMSN 011415Z 02013KT 10SM FEW100 14/05 A2988 900 53 1100 030/13 RMK AO2
14837KMSN MSN20120601082009606/01/12 08:20:31  5-MIN KMSN 011420Z 01012KT 10SM FEW100 14/05 A2988 900 55 1000 010/12 RMK AO2
14837KMSN MSN20120601082509606/01/12 08:25:31  5-MIN KMSN 011425Z 01013KT 10SM FEW100 14/05 A2988 900 53 1100 020/13 RMK AO2
14837KMSN MSN20120601083010206/01/12 08:30:31  5-MIN KMSN 011430Z 35014G19KT 10SM FEW100 14/05 A2988 910 53 1100 350/14G19 RMK AO2
14837KMSN MSN20120601083509606/01/12 08:35:31  5-MIN KMSN 011435Z 36013KT 10SM FEW100 14/05 A2987 910 53 1100 360/13 RMK AO2
14837KMSN MSN20120601084009606/01/12 08:40:31  5-MIN KMSN 011440Z 01011KT 10SM FEW100 14/05 A2987 910 53 1100 010/11 RMK AO2
14837KMSN MSN20120601084509606/01/12 08:45:31  5-MIN KMSN 011445Z 01012KT 10SM FEW110 16/06 A2987 910 51 1200 010/12 RMK AO2
14837KMSN MSN20120601085013206/01/12 08:50:31  5-MIN KMSN 011450Z 36013G19KT 10SM FEW040 SCT110 15/05 A2987 910 51 1200 360/13G19 RMK AO2 SLP117 T01500050 56003
14837KMSN MSN20120601085510906/01/12 08:55:31  5-MIN KMSN 011455Z 01010G19KT 10SM FEW040 SCT110 16/05 A2987 910 49 1200 010/10G19 RMK AO2
14837KMSN MSN20120601090010906/01/12 09:00:31  5-MIN KMSN 011500Z 02014G18KT 10SM FEW040 SCT110 16/06 A2987 910 49 1300 020/14G18 RMK AO2
14837KMSN MSN20120601090510906/01/12 09:05:31  5-MIN KMSN 011505Z 36012G18KT 10SM FEW040 SCT110 16/06 A2987 910 51 1200 010/12G18 RMK AO2
14837KMSN MSN20120601091010906/01/12 09:10:31  5-MIN KMSN 011510Z 36010G17KT 10SM FEW040 SCT110 16/06 A2987 910 51 1200 360/10G17 RMK AO2
14837KMSN MSN20120601091510906/01/12 09:15:31  5-MIN KMSN 011515Z 35011G19KT 10SM FEW040 SCT110 16/05 A2987 910 47 1300 350/11G19 RMK AO2
14837KMSN MSN20120601092010906/01/12 09:20:31  5-MIN KMSN 011520Z 35011G19KT 10SM FEW040 SCT110 16/04 A2987 910 45 1300 360/11G19 RMK AO2
14837KMSN MSN20120601092510906/01/12 09:25:31  5-MIN KMSN 011525Z 01013G19KT 10SM FEW040 SCT110 16/04 A2987 910 45 1300 010/13G19 RMK AO2
14837KMSN MSN20120601093010906/01/12 09:30:31  5-MIN KMSN 011530Z 01013G18KT 10SM FEW040 SCT110 16/05 A2987 910 47 1300 020/13G18 RMK AO2
14837KMSN MSN20120601093510906/01/12 09:35:31  5-MIN KMSN 011535Z 36014G19KT 10SM FEW040 SCT110 16/04 A2987 910 45 1300 010/14G19 RMK AO2
14837KMSN MSN20120601094010906/01/12 09:40:31  5-MIN KMSN 011540Z 01014G21KT 10SM FEW040 SCT110 16/04 A2987 910 44 1300 020/14G21 RMK AO2
14837KMSN MSN20120601094510906/01/12 09:45:31  5-MIN KMSN 011545Z 01015G21KT 10SM FEW040 SCT110 16/04 A2987 910 44 1300 010/15G21 RMK AO2
14837KMSN MSN20120601095012606/01/12 09:50:31  5-MIN KMSN 011550Z 01013G22KT 10SM SCT045 SCT100 16/04 A2987 910 44 1300 010/13G22 RMK AO2 SLP116 T01610039
14837KMSN MSN20120601095510906/01/12 09:55:31  5-MIN KMSN 011555Z 03017G22KT 10SM SCT045 SCT100 16/04 A2987 910 44 1300 030/17G22 RMK AO2
14837KMSN MSN20120601100010306/01/12 10:00:31  5-MIN KMSN 011600Z 02013KT 10SM SCT045 BKN100 17/04 A2987 910 42 1400 020/13 RMK AO2
14837KMSN MSN20120601100510306/01/12 10:05:31  5-MIN KMSN 011605Z 01014KT 10SM SCT045 BKN100 16/04 A2987 910 44 1300 020/14 RMK AO2
14837KMSN MSN20120601101010906/01/12 10:10:31  5-MIN KMSN 011610Z 01013G20KT 10SM SCT045 BKN100 17/04 A2987 910 42 1400 020/13G20 RMK AO2
14837KMSN MSN20120601101510906/01/12 10:15:31  5-MIN KMSN 011615Z 01013G19KT 10SM SCT045 BKN100 17/04 A2987 910 42 1400 010/13G19 RMK AO2
14837KMSN MSN20120601102010906/01/12 10:20:31  5-MIN KMSN 011620Z 36014G19KT 10SM SCT045 BKN100 17/04 A2987 910 42 1400 360/14G19 RMK AO2
14837KMSN MSN20120601102510906/01/12 10:25:31  5-MIN KMSN 011625Z 01012G20KT 10SM SCT045 BKN100 17/04 A2987 910 41 1400 010/12G20 RMK AO2
14837KMSN MSN20120601103010906/01/12 10:30:31  5-MIN KMSN 011630Z 02015G20KT 10SM SCT045 BKN100 18/04 A2987 910 41 1500 020/15G20 RMK AO2
14837KMSN MSN20120601103510906/01/12 10:35:31  5-MIN KMSN 011635Z 01013G21KT 10SM SCT045 BKN100 17/03 A2986 920 40 1400 010/13G21 RMK AO2
14837KMSN MSN20120601104010906/01/12 10:40:31  5-MIN KMSN 011640Z 02016G22KT 10SM SCT045 BKN100 17/03 A2986 920 39 1400 030/16G22 RMK AO2
14837KMSN MSN20120601104510906/01/12 10:45:31  5-MIN KMSN 011645Z 03012G22KT 10SM SCT045 BKN100 17/04 A2986 920 41 1400 030/12G22 RMK AO2
14837KMSN MSN20120601105012606/01/12 10:50:31  5-MIN KMSN 011650Z 36014G21KT 10SM SCT045 BKN100 17/04 A2986 920 41 1400 360/14G21 RMK AO2 SLP112 T01720039
14837KMSN MSN20120601105510906/01/12 10:55:31  5-MIN KMSN 011655Z 36014G22KT 10SM SCT055 BKN100 18/04 A2986 920 39 1500 360/14G22 RMK AO2
14837KMSN MSN20120601110010906/01/12 11:00:31  5-MIN KMSN 011700Z 36016G22KT 10SM SCT055 BKN100 17/04 A2986 920 41 1400 360/16G22 RMK AO2
14837KMSN MSN20120601110510906/01/12 11:05:31  5-MIN KMSN 011705Z 36012G21KT 10SM SCT055 BKN100 17/04 A2986 920 41 1400 010/12G21 RMK AO2
14837KMSN MSN20120601111010906/01/12 11:10:31  5-MIN KMSN 011710Z 36010G21KT 10SM SCT055 BKN100 17/04 A2985 930 41 1400 360/10G21 RMK AO2
14837KMSN MSN20120601111510906/01/12 11:15:31  5-MIN KMSN 011715Z 35013G22KT 10SM SCT055 BKN100 18/04 A2985 930 39 1500 350/13G22 RMK AO2
14837KMSN MSN20120601112010906/01/12 11:20:31  5-MIN KMSN 011720Z 34010G22KT 10SM SCT055 BKN100 17/03 A2985 930 39 1400 350/10G22 RMK AO2
14837KMSN MSN20120601112510906/01/12 11:25:31  5-MIN KMSN 011725Z 01014G21KT 10SM SCT055 BKN100 17/03 A2985 930 40 1400 010/14G21 RMK AO2
14837KMSN MSN20120601113010206/01/12 11:30:31  5-MIN KMSN 011730Z 34010G21KT 10SM SCT060 17/04 A2985 930 41 1400 340/10G21 RMK AO2
14837KMSN MSN20120601113510206/01/12 11:35:31  5-MIN KMSN 011735Z 36010G20KT 10SM BKN060 17/04 A2985 930 41 1500 360/10G20 RMK AO2
14837KMSN MSN20120601114009606/01/12 11:40:31  5-MIN KMSN 011740Z 01018KT 10SM BKN060 17/03 A2985 930 39 1500 020/18 RMK AO2
14837KMSN MSN20120601114510206/01/12 11:45:31  5-MIN KMSN 011745Z 35011G20KT 10SM SCT060 18/04 A2984 930 39 1500 350/11G20 RMK AO2
14837KMSN MSN20120601115013806/01/12 11:50:31  5-MIN KMSN 011750Z 01014KT 10SM SCT060 SCT110 18/04 A2984 940 38 1600 010/14 RMK AO2 SLP106 T01830039 10183 20094 58007
14837KMSN MSN20120601115510306/01/12 11:55:31  5-MIN KMSN 011755Z 36012KT 10SM BKN060 BKN110 18/03 A2984 940 38 1500 360/12 RMK AO2
14837KMSN MSN20120601120010906/01/12 12:00:31  5-MIN KMSN 011800Z 34013G18KT 10SM BKN060 BKN110 17/03 A2984 940 39 1500 340/13G18 RMK AO2
14837KMSN MSN20120601120510906/01/12 12:05:31  5-MIN KMSN 011805Z 36010G19KT 10SM BKN060 BKN110 18/03 A2984 940 38 1500 360/10G19 RMK AO2
14837KMSN MSN20120601121010906/01/12 12:10:31  5-MIN KMSN 011810Z 02011G19KT 10SM BKN060 BKN110 18/04 A2984 940 38 1600 020/11G19 RMK AO2
14837KMSN MSN20120601121510906/01/12 12:15:31  5-MIN KMSN 011815Z 34008G19KT 10SM BKN060 BKN110 18/03 A2984 940 38 1500 340/08G19 RMK AO2
14837KMSN MSN20120601122010906/01/12 12:20:31  5-MIN KMSN 011820Z 34010G19KT 10SM BKN060 BKN110 17/03 A2984 940 39 1500 340/10G19 RMK AO2
14837KMSN MSN20120601122510906/01/12 12:25:31  5-MIN KMSN 011825Z 36011G19KT 10SM BKN060 BKN110 17/03 A2984 940 39 1500 360/11G19 RMK AO2
14837KMSN MSN20120601123010306/01/12 12:30:31  5-MIN KMSN 011830Z 02010KT 10SM BKN060 BKN110 18/04 A2984 940 39 1600 020/10 RMK AO2
14837KMSN MSN20120601131510206/01/12 13:15:31  5-MIN KMSN 011915Z 35006G16KT 10SM BKN070 17/03 A2982 950 40 1400 350/06G16 RMK AO2
14837KMSN MSN20120601132009606/01/12 13:20:31  5-MIN KMSN 011920Z 34010KT 10SM BKN070 18/04 A2982 950 39 1500 340/10 RMK AO2
14837KMSN MSN20120601132509606/01/12 13:25:31  5-MIN KMSN 011925Z 36008KT 10SM SCT065 17/03 A2982 960 39 1500 360/08 RMK AO2
14837KMSN MSN20120601133010206/01/12 13:30:31  5-MIN KMSN 011930Z 35009G15KT 10SM SCT070 18/04 A2982 960 38 1600 360/09G15 RMK AO2
14837KMSN MSN20120601133510906/01/12 13:35:31  5-MIN KMSN 011935Z 36008G15KT 10SM FEW060 SCT075 18/04 A2982 960 39 1500 010/08G15 RMK AO2
14837KMSN MSN20120601134009606/01/12 13:40:31  5-MIN KMSN 011940Z 01007KT 10SM BKN070 19/04 A2982 960 38 1700 020/07 RMK AO2
14837KMSN MSN20120601134509606/01/12 13:45:31  5-MIN KMSN 011945Z 33008KT 10SM BKN075 18/04 A2982 960 39 1600 330/08 RMK AO2
14837KMSN MSN20120601135011906/01/12 13:50:31  5-MIN KMSN 011950Z 34009G15KT 10SM BKN075 18/04 A2982 960 38 1600 340/09G15 RMK AO2 SLP097 T01830039
14837KMSN MSN20120601135511806/01/12 13:55:31  5-MIN KMSN 011955Z 34009G15KT 310V010 10SM BKN075 18/04 A2981 960 38 1600 340/09G15 310V010 RMK AO2
14837KMSN MSN20120601140009606/01/12 14:00:31  5-MIN KMSN 012000Z 01012KT 10SM BKN075 18/04 A2981 960 39 1600 010/12 RMK AO2
14837KMSN MSN20120601140509606/01/12 14:05:31  5-MIN KMSN 012005Z 01007KT 10SM SCT075 19/04 A2981 970 38 1700 010/07 RMK AO2
14837KMSN MSN20120601141010306/01/12 14:10:31  5-MIN KMSN 012010Z 36006KT 10SM SCT075 SCT110 18/03 A2981 970 38 1600 360/06 RMK AO2
14837KMSN MSN20120601141510306/01/12 14:15:31  5-MIN KMSN 012015Z 33007KT 10SM SCT080 SCT100 19/04 A2981 970 37 1800 330/07 RMK AO2
14837KMSN MSN20120601142010206/01/12 14:20:31  5-MIN KMSN 012020Z 33010G14KT 10SM BKN085 19/04 A2981 970 37 1800 330/10G14 RMK AO2
14837KMSN MSN20120601142510906/01/12 14:25:31  5-MIN KMSN 012025Z 01006G14KT 10SM FEW065 BKN085 19/04 A2980 970 37 1800 010/06G14 RMK AO2
14837KMSN MSN20120601143010906/01/12 14:30:31  5-MIN KMSN 012030Z 32009G15KT 10SM SCT065 BKN085 19/04 A2980 970 36 1700 320/09G15 RMK AO2
14837KMSN MSN20120601143510906/01/12 14:35:31  5-MIN KMSN 012035Z 32009G16KT 10SM SCT065 BKN085 18/03 A2980 970 36 1600 320/09G16 RMK AO2
14837KMSN MSN20120601144010906/01/12 14:40:31  5-MIN KMSN 012040Z 32007G16KT 10SM SCT065 BKN090 18/03 A2980 970 38 1600 320/07G16 RMK AO2
14837KMSN MSN20120601144510306/01/12 14:45:31  5-MIN KMSN 012045Z 00000KT 10SM SCT070 BKN085 18/03 A2980 980 36 1600 000/00 RMK AO2
14837KMSN MSN20120601145013206/01/12 14:50:31  5-MIN KMSN 012050Z 35010G14KT 10SM BKN070 BKN085 18/03 A2980 980 38 1600 350/10G14 RMK AO2 SLP092 T01780033 58009
14837KMSN MSN20120601145510906/01/12 14:55:31  5-MIN KMSN 012055Z 34007G14KT 10SM BKN070 BKN085 18/03 A2980 980 38 1600 350/07G14 RMK AO2
14837KMSN MSN20120601150011606/01/12 15:00:31  5-MIN KMSN 012100Z 36011G17KT 10SM FEW070 SCT080 SCT100 19/04 A2980 980 36 1700 360/11G17 RMK AO2
14837KMSN MSN20120601150510906/01/12 15:05:31  5-MIN KMSN 012105Z 31007G17KT 10SM FEW070 BKN090 20/03 A2980 980 33 1800 310/07G17 RMK AO2
14837KMSN MSN20120601151010906/01/12 15:10:31  5-MIN KMSN 012110Z 35010G14KT 10SM SCT070 BKN095 20/04 A2979 980 34 1800 350/10G14 RMK AO2
14837KMSN MSN20120601151510906/01/12 15:15:31  5-MIN KMSN 012115Z 36008G14KT 10SM SCT070 BKN095 19/04 A2979 980 35 1800 360/08G14 RMK AO2
14837KMSN MSN20120601152010306/01/12 15:20:31  5-MIN KMSN 012120Z 35009KT 10SM SCT075 BKN095 18/03 A2979 980 36 1600 360/09 RMK AO2
14837KMSN MSN20120601152510306/01/12 15:25:31  5-MIN KMSN 012125Z 35008KT 10SM SCT075 BKN095 18/03 A2979 980 36 1600 350/08 RMK AO2
14837KMSN MSN20120601153010306/01/12 15:30:31  5-MIN KMSN 012130Z 35007KT 10SM FEW075 BKN095 18/03 A2979 990 36 1600 350/07 RMK AO2
14837KMSN MSN20120601153510906/01/12 15:35:31  5-MIN KMSN 012135Z 35006G14KT 10SM FEW075 SCT095 18/03 A2979 990 38 1600 350/06G14 RMK AO2
14837KMSN MSN20120601154009606/01/12 15:40:31  5-MIN KMSN 012140Z 35005KT 10SM FEW075 19/04 A2979 990 36 1700 350/05 RMK AO2
14837KMSN MSN20120601154509606/01/12 15:45:31  5-MIN KMSN 012145Z 35007KT 10SM FEW075 19/04 A2979 990 35 1800 350/07 RMK AO2
14837KMSN MSN20120601155011306/01/12 15:50:31  5-MIN KMSN 012150Z 34008KT 10SM SCT075 19/03 A2979 990 34 1700 350/08 RMK AO2 SLP087 T01890028
14837KMSN MSN20120601155509606/01/12 15:55:31  5-MIN KMSN 012155Z 35005KT 10SM FEW080 19/03 A2979 990 35 1700 350/05 RMK AO2
14837KMSN MSN20120601160009606/01/12 16:00:31  5-MIN KMSN 012200Z 31006KT 10SM SCT075 19/03 A2979 990 35 1700 320/06 RMK AO2
14837KMSN MSN20120601160510906/01/12 16:05:31  5-MIN KMSN 012205Z 30007G14KT 10SM SCT075 BKN090 19/02 A2978 990 31 1800 310/07G14 RMK AO2
14837KMSN MSN20120601161010306/01/12 16:10:31  5-MIN KMSN 012210Z 33011KT 10SM BKN075 BKN090 19/03 A2978 990 33 1800 330/11 RMK AO2
14837KMSN MSN20120601161510906/01/12 16:15:31  5-MIN KMSN 012215Z 33009G15KT 10SM BKN080 BKN090 20/03 A2978 990 31 1800 330/09G15 RMK AO2
14837KMSN MSN20120601162010306/01/12 16:20:31  5-MIN KMSN 012220Z 31009KT 10SM SCT075 BKN090 20/03 A2978 990 31 1800 310/09 RMK AO2
14837KMSN MSN20120601162510406/01/12 16:25:31  5-MIN KMSN 012225Z 33007KT 10SM BKN080 BKN090 19/02 A2978 1000 31 1800 330/07 RMK AO2
14837KMSN MSN20120601163010406/01/12 16:30:31  5-MIN KMSN 012230Z 32008KT 10SM SCT080 BKN090 19/02 A2978 1000 32 1700 330/08 RMK AO2
14837KMSN MSN20120601163510406/01/12 16:35:31  5-MIN KMSN 012235Z 32005KT 10SM SCT080 BKN090 19/03 A2978 1000 33 1800 320/05 RMK AO2
14837KMSN MSN20120601164009706/01/12 16:40:31  5-MIN KMSN 012240Z 33007KT 10SM SCT085 19/03 A2977 1000 34 1800 330/07 RMK AO2
14837KMSN MSN20120601164510406/01/12 16:45:31  5-MIN KMSN 012245Z 32007KT 10SM FEW080 SCT095 19/03 A2978 1000 34 1700 320/07 RMK AO2
14837KMSN MSN20120601165012106/01/12 16:50:31  5-MIN KMSN 012250Z 32005KT 10SM FEW080 BKN095 19/02 A2977 1000 32 1700 320/05 RMK AO2 SLP082 T01890022
14837KMSN MSN20120601165509706/01/12 16:55:31  5-MIN KMSN 012255Z 33005KT 10SM BKN090 19/02 A2977 1000 31 1700 340/05 RMK AO2
14837KMSN MSN20120601170009706/01/12 17:00:31  5-MIN KMSN 012300Z 33004KT 10SM SCT090 19/03 A2977 1000 34 1700 330/04 RMK AO2
14837KMSN MSN20120601170509706/01/12 17:05:31  5-MIN KMSN 012305Z 33005KT 10SM BKN090 19/03 A2977 1000 33 1800 330/05 RMK AO2
14837KMSN MSN20120601171009706/01/12 17:10:31  5-MIN KMSN 012310Z VRB03KT 10SM BKN090 19/03 A2977 1000 33 1800 VRB/03 RMK AO2
14837KMSN MSN20120601171511906/01/12 17:15:31  5-MIN KMSN 012315Z 31009G14KT 270V350 10SM BKN085 20/03 A2977 1000 31 1900 310/09G14 270V350 RMK AO2
14837KMSN MSN20120601172011006/01/12 17:20:31  5-MIN KMSN 012320Z 31007G14KT 10SM SCT080 BKN090 19/02 A2977 1000 31 1800 320/07G14 RMK AO2
14837KMSN MSN20120601172509706/01/12 17:25:31  5-MIN KMSN 012325Z 29008KT 10SM BKN085 19/02 A2977 1010 30 1800 290/08 RMK AO2
14837KMSN MSN20120601173010306/01/12 17:30:31  5-MIN KMSN 012330Z 30007G14KT 10SM SCT085 19/02 A2977 1000 31 1800 300/07G14 RMK AO2
14837KMSN MSN20120601173510306/01/12 17:35:31  5-MIN KMSN 012335Z 29007G14KT 10SM SCT080 19/02 A2977 1010 30 1800 300/07G14 RMK AO2
14837KMSN MSN20120601174009706/01/12 17:40:31  5-MIN KMSN 012340Z 31007KT 10SM FEW075 19/02 A2977 1010 30 1800 310/07 RMK AO2
14837KMSN MSN20120601174509706/01/12 17:45:31  5-MIN KMSN 012345Z 32007KT 10SM SCT080 19/02 A2977 1010 31 1800 320/07 RMK AO2
14837KMSN MSN20120601175013206/01/12 17:50:31  5-MIN KMSN 012350Z 31008KT 10SM SCT080 19/02 A2977 1000 32 1700 310/08 RMK AO2 SLP081 T01890022 10200 20167 57014
14837KMSN MSN20120601175509706/01/12 17:55:31  5-MIN KMSN 012355Z 32005KT 10SM FEW080 18/02 A2977 1000 32 1700 320/05 RMK AO2
14837KMSN MSN20120601180009706/01/12 18:00:31  5-MIN KMSN 020000Z 31006KT 10SM FEW080 19/02 A2977 1000 32 1700 310/06 RMK AO2
14837KMSN MSN20120601180509706/01/12 18:05:31  5-MIN KMSN 020005Z 30006KT 10SM FEW080 19/02 A2977 1000 32 1700 310/06 RMK AO2
14837KMSN MSN20120601181009706/01/12 18:10:31  5-MIN KMSN 020010Z 31006KT 10SM FEW080 19/02 A2977 1010 32 1700 320/06 RMK AO2
14837KMSN MSN20120601181509706/01/12 18:15:31  5-MIN KMSN 020015Z VRB03KT 10SM FEW080 19/03 A2977 1010 34 1700 VRB/03 RMK AO2
14837KMSN MSN20120601182009706/01/12 18:20:31  5-MIN KMSN 020020Z 30005KT 10SM FEW080 19/02 A2977 1010 32 1700 300/05 RMK AO2
14837KMSN MSN20120601182509706/01/12 18:25:31  5-MIN KMSN 020025Z VRB05KT 10SM FEW080 19/02 A2977 1010 31 1700 VRB/05 RMK AO2
14837KMSN MSN20120601183009706/01/12 18:30:31  5-MIN KMSN 020030Z 29007KT 10SM FEW080 19/02 A2977 1010 32 1700 300/07 RMK AO2
14837KMSN MSN20120601183509706/01/12 18:35:31  5-MIN KMSN 020035Z 30006KT 10SM SCT090 18/02 A2977 1010 34 1700 300/06 RMK AO2
14837KMSN MSN20120601184009706/01/12 18:40:31  5-MIN KMSN 020040Z 29005KT 10SM SCT090 18/02 A2977 1010 34 1700 290/05 RMK AO2
14837KMSN MSN20120601184509706/01/12 18:45:31  5-MIN KMSN 020045Z 29005KT 10SM SCT090 18/02 A2977 1010 34 1700 290/05 RMK AO2
14837KMSN MSN20120601185011406/01/12 18:50:31  5-MIN KMSN 020050Z VRB04KT 10SM BKN090 18/03 A2976 1010 35 1700 VRB/04 RMK AO2 SLP079 T01830028
14837KMSN MSN20120601185509706/01/12 18:55:31  5-MIN KMSN 020055Z 28003KT 10SM BKN090 18/03 A2977 1010 35 1700 280/03 RMK AO2
14837KMSN MSN20120601190009706/01/12 19:00:31  5-MIN KMSN 020100Z 29003KT 10SM SCT090 18/03 A2977 1010 38 1600 290/03 RMK AO2
14837KMSN MSN20120601190509706/01/12 19:05:31  5-MIN KMSN 020105Z 00000KT 10SM SCT090 18/03 A2976 1010 36 1600 000/00 RMK AO2
14837KMSN MSN20120601191009706/01/12 19:10:31  5-MIN KMSN 020110Z 00000KT 10SM SCT090 18/03 A2976 1010 38 1600 000/00 RMK AO2
14837KMSN MSN20120601191509706/01/12 19:15:31  5-MIN KMSN 020115Z VRB03KT 10SM OVC100 17/03 A2976 1010 39 1500 VRB/03 RMK AO2
14837KMSN MSN20120601192009706/01/12 19:20:31  5-MIN KMSN 020120Z 00000KT 10SM OVC100 17/03 A2976 1020 39 1600 000/00 RMK AO2
14837KMSN MSN20120601192509706/01/12 19:25:31  5-MIN KMSN 020125Z 00000KT 10SM BKN100 17/04 A2976 1010 41 1600 000/00 RMK AO2
14837KMSN MSN20120601193009706/01/12 19:30:31  5-MIN KMSN 020130Z VRB04KT 10SM BKN100 17/04 A2976 1020 42 1500 VRB/04 RMK AO2
14837KMSN MSN20120601193509706/01/12 19:35:31  5-MIN KMSN 020135Z 00000KT 10SM BKN100 17/04 A2975 1020 42 1500 000/00 RMK AO2
14837KMSN MSN20120601194009706/01/12 19:40:31  5-MIN KMSN 020140Z VRB03KT 10SM BKN100 17/04 A2975 1020 42 1500 VRB/03 RMK AO2
14837KMSN MSN20120601194509706/01/12 19:45:31  5-MIN KMSN 020145Z VRB03KT 10SM BKN100 17/04 A2975 1020 42 1500 VRB/03 RMK AO2
14837KMSN MSN20120601195011406/01/12 19:50:31  5-MIN KMSN 020150Z VRB03KT 10SM BKN100 17/04 A2976 1020 44 1500 VRB/03 RMK AO2 SLP075 T01670044
14837KMSN MSN20120601195509706/01/12 19:55:31  5-MIN KMSN 020155Z VRB03KT 10SM SCT100 16/04 A2976 1020 45 1400 VRB/03 RMK AO2
14837KMSN MSN20120601200009706/01/12 20:00:31  5-MIN KMSN 020200Z VRB03KT 10SM SCT100 16/04 A2976 1020 45 1400 VRB/03 RMK AO2
14837KMSN MSN20120601200509706/01/12 20:05:31  5-MIN KMSN 020205Z VRB04KT 10SM SCT100 16/04 A2976 1020 45 1400 VRB/04 RMK AO2
14837KMSN MSN20120601201009706/01/12 20:10:31  5-MIN KMSN 020210Z VRB04KT 10SM SCT100 16/04 A2976 1020 45 1400 VRB/04 RMK AO2
14837KMSN MSN20120601201509706/01/12 20:15:31  5-MIN KMSN 020215Z VRB03KT 10SM SCT100 16/05 A2976 1020 47 1400 VRB/03 RMK AO2
14837KMSN MSN20120601202009706/01/12 20:20:31  5-MIN KMSN 020220Z 28004KT 10SM SCT100 16/05 A2976 1020 49 1400 280/04 RMK AO2
14837KMSN MSN20120601202509706/01/12 20:25:31  5-MIN KMSN 020225Z 28003KT 10SM SCT100 16/04 A2976 1020 47 1400 280/03 RMK AO2
14837KMSN MSN20120601203009706/01/12 20:30:31  5-MIN KMSN 020230Z VRB04KT 10SM SCT100 16/05 A2975 1020 49 1400 VRB/04 RMK AO2
14837KMSN MSN20120601203509706/01/12 20:35:31  5-MIN KMSN 020235Z 28004KT 10SM SCT100 16/05 A2975 1020 49 1400 280/04 RMK AO2
14837KMSN MSN20120601204009406/01/12 20:40:31  5-MIN KMSN 020240Z VRB04KT 10SM CLR 16/05 A2975 1020 49 1400 VRB/04 RMK AO2
14837KMSN MSN20120601204509406/01/12 20:45:31  5-MIN KMSN 020245Z 27004KT 10SM CLR 16/05 A2975 1020 49 1400 270/04 RMK AO2
14837KMSN MSN20120601205012006/01/12 20:50:31  5-MIN KMSN 020250Z VRB05KT 10SM FEW100 16/05 A2975 1020 49 1400 VRB/05 RMK AO2 SLP074 T01560050 56010
14837KMSN MSN20120601205509706/01/12 20:55:31  5-MIN KMSN 020255Z VRB04KT 10SM FEW100 16/05 A2975 1020 49 1400 VRB/04 RMK AO2
14837KMSN MSN20120601210009706/01/12 21:00:31  5-MIN KMSN 020300Z 27006KT 10SM FEW100 16/05 A2975 1020 49 1400 270/06 RMK AO2
14837KMSN MSN20120601210509406/01/12 21:05:31  5-MIN KMSN 020305Z VRB05KT 10SM CLR 16/05 A2975 1020 49 1400 VRB/05 RMK AO2
14837KMSN MSN20120601211009406/01/12 21:10:31  5-MIN KMSN 020310Z 28006KT 10SM CLR 16/05 A2975 1020 49 1400 280/06 RMK AO2
14837KMSN MSN20120601211509406/01/12 21:15:31  5-MIN KMSN 020315Z 27005KT 10SM CLR 16/05 A2975 1020 49 1400 270/05 RMK AO2
14837KMSN MSN20120601212009406/01/12 21:20:31  5-MIN KMSN 020320Z VRB04KT 10SM CLR 15/06 A2975 1020 53 1300 VRB/04 RMK AO2
14837KMSN MSN20120601212509406/01/12 21:25:31  5-MIN KMSN 020325Z VRB04KT 10SM CLR 15/06 A2975 1020 53 1300 VRB/04 RMK AO2
14837KMSN MSN20120601213009406/01/12 21:30:31  5-MIN KMSN 020330Z VRB03KT 10SM CLR 15/06 A2975 1020 53 1300 VRB/03 RMK AO2
14837KMSN MSN20120601213509406/01/12 21:35:31  5-MIN KMSN 020335Z VRB05KT 10SM CLR 15/06 A2975 1020 53 1300 VRB/05 RMK AO2
14837KMSN MSN20120601214009406/01/12 21:40:31  5-MIN KMSN 020340Z 28005KT 10SM CLR 15/06 A2975 1020 53 1300 280/05 RMK AO2
14837KMSN MSN20120601214509406/01/12 21:45:31  5-MIN KMSN 020345Z VRB04KT 10SM CLR 15/06 A2975 1020 53 1300 VRB/04 RMK AO2
14837KMSN MSN20120601215011106/01/12 21:50:31  5-MIN KMSN 020350Z 29003KT 10SM CLR 14/06 A2975 1020 55 1200 290/03 RMK AO2 SLP073 T01440056
14837KMSN MSN20120601215509406/01/12 21:55:31  5-MIN KMSN 020355Z VRB04KT 10SM CLR 14/06 A2975 1030 55 1200 VRB/04 RMK AO2
14837KMSN MSN20120601220009406/01/12 22:00:31  5-MIN KMSN 020400Z 28004KT 10SM CLR 14/06 A2975 1030 55 1200 290/04 RMK AO2
14837KMSN MSN20120601220509406/01/12 22:05:31  5-MIN KMSN 020405Z VRB05KT 10SM CLR 14/06 A2975 1030 55 1200 VRB/05 RMK AO2
14837KMSN MSN20120601221009406/01/12 22:10:31  5-MIN KMSN 020410Z 28005KT 10SM CLR 14/06 A2974 1030 55 1200 290/05 RMK AO2
14837KMSN MSN20120601221509406/01/12 22:15:31  5-MIN KMSN 020415Z VRB05KT 10SM CLR 14/06 A2974 1030 55 1200 VRB/05 RMK AO2
14837KMSN MSN20120601222009406/01/12 22:20:31  5-MIN KMSN 020420Z 29003KT 10SM CLR 14/06 A2974 1030 55 1200 290/03 RMK AO2
14837KMSN MSN20120601222509406/01/12 22:25:31  5-MIN KMSN 020425Z VRB05KT 10SM CLR 14/06 A2974 1030 55 1200 VRB/05 RMK AO2
14837KMSN MSN20120601223009406/01/12 22:30:31  5-MIN KMSN 020430Z 28005KT 10SM CLR 14/06 A2974 1030 55 1200 280/05 RMK AO2
14837KMSN MSN20120601223509406/01/12 22:35:31  5-MIN KMSN 020435Z 29005KT 10SM CLR 14/06 A2974 1030 55 1200 290/05 RMK AO2
14837KMSN MSN20120601224009406/01/12 22:40:31  5-MIN KMSN 020440Z VRB05KT 10SM CLR 14/06 A2974 1030 57 1200 VRB/05 RMK AO2
14837KMSN MSN20120601224509406/01/12 22:45:31  5-MIN KMSN 020445Z 28005KT 10SM CLR 14/06 A2975 1030 57 1200 280/05 RMK AO2
14837KMSN MSN20120601225011106/01/12 22:50:31  5-MIN KMSN 020450Z 29006KT 10SM CLR 14/06 A2974 1030 57 1200 290/06 RMK AO2 SLP072 T01390056
14837KMSN MSN20120601225509406/01/12 22:55:31  5-MIN KMSN 020455Z 28005KT 10SM CLR 14/06 A2974 1030 57 1200 280/05 RMK AO2
14837KMSN MSN20120601230009406/01/12 23:00:31  5-MIN KMSN 020500Z 28004KT 10SM CLR 14/06 A2974 1030 57 1200 290/04 RMK AO2
14837KMSN MSN20120601230509406/01/12 23:05:31  5-MIN KMSN 020505Z 28004KT 10SM CLR 14/05 A2974 1030 55 1200 280/04 RMK AO2
14837KMSN MSN20120601231009406/01/12 23:10:31  5-MIN KMSN 020510Z 29004KT 10SM CLR 14/05 A2974 1030 55 1200 290/04 RMK AO2
14837KMSN MSN20120601231509406/01/12 23:15:31  5-MIN KMSN 020515Z VRB05KT 10SM CLR 14/05 A2974 1030 55 1200 VRB/05 RMK AO2
14837KMSN MSN20120601232009406/01/12 23:20:31  5-MIN KMSN 020520Z VRB04KT 10SM CLR 13/05 A2974 1030 57 1100 VRB/04 RMK AO2
14837KMSN MSN20120601232509406/01/12 23:25:31  5-MIN KMSN 020525Z 28004KT 10SM CLR 13/05 A2974 1030 57 1100 280/04 RMK AO2
14837KMSN MSN20120601233009406/01/12 23:30:31  5-MIN KMSN 020530Z 28005KT 10SM CLR 13/05 A2974 1040 57 1100 290/05 RMK AO2
14837KMSN MSN20120601233509406/01/12 23:35:31  5-MIN KMSN 020535Z VRB04KT 10SM CLR 13/05 A2973 1040 57 1100 VRB/04 RMK AO2
14837KMSN MSN20120601234009406/01/12 23:40:31  5-MIN KMSN 020540Z VRB04KT 10SM CLR 13/05 A2973 1040 57 1100 VRB/04 RMK AO2
14837KMSN MSN20120601234509406/01/12 23:45:31  5-MIN KMSN 020545Z VRB05KT 10SM CLR 13/05 A2973 1040 57 1100 VRB/05 RMK AO2
14837KMSN MSN20120601235015906/01/12 23:50:31  5-MIN KMSN 020550Z 32007KT 10SM CLR 13/05 A2973 1040 57 1100 320/07 RMK AO2 PK WND 09039/0550 SLP066 T01330050 10189 20133 402000089 57006 $
14837KMSN MSN20120601235509606/01/12 23:55:31  5-MIN KMSN 020555Z VRB03KT 10SM CLR 13/05 A2973 1040 57 1100 VRB/03 RMK AO2 $
14837KMSN MSN20120602000009606/02/12 00:00:32  5-MIN KMSN 020600Z VRB03KT 10SM CLR 13/05 A2973 1040 57 1100 VRB/03 RMK AO2 $
14837KMSN MSN20120602000509606/02/12 00:05:31  5-MIN KMSN 020605Z VRB03KT 10SM CLR 13/05 A2973 1040 57 1100 VRB/03 RMK AO2 $
14837KMSN MSN20120602001009606/02/12 00:10:31  5-MIN KMSN 020610Z VRB03KT 10SM CLR 13/05 A2972 1050 57 1100 VRB/03 RMK AO2 $
14837KMSN MSN20120602001509606/02/12 00:15:31  5-MIN KMSN 020615Z VRB03KT 10SM CLR 13/05 A2972 1050 57 1100 VRB/03 RMK AO2 $
14837KMSN MSN20120602002009606/02/12 00:20:31  5-MIN KMSN 020620Z VRB05KT 10SM CLR 13/05 A2972 1050 57 1100 VRB/05 RMK AO2 $
14837KMSN MSN20120602002509606/02/12 00:25:31  5-MIN KMSN 020625Z VRB06KT 10SM CLR 13/05 A2972 1050 57 1100 VRB/06 RMK AO2 $
14837KMSN MSN20120602003009406/02/12 00:30:31  5-MIN KMSN 020630Z VRB04KT 10SM CLR 13/05 A2972 1050 57 1100 VRB/04 RMK AO2
14837KMSN MSN20120602003509406/02/12 00:35:31  5-MIN KMSN 020635Z VRB05KT 10SM CLR 13/05 A2972 1050 57 1100 VRB/05 RMK AO2
14837KMSN MSN20120602004009406/02/12 00:40:31  5-MIN KMSN 020640Z 27004KT 10SM CLR 13/05 A2972 1050 57 1100 270/04 RMK AO2
14837KMSN MSN20120602004509406/02/12 00:45:31  5-MIN KMSN 020645Z VRB05KT 10SM CLR 13/05 A2971 1050 57 1100 VRB/05 RMK AO2
14837KMSN MSN20120602005011106/02/12 00:50:31  5-MIN KMSN 020650Z VRB05KT 10SM CLR 13/04 A2972 1050 54 1100 VRB/05 RMK AO2 SLP061 T01330044
14837KMSN MSN20120602005509406/02/12 00:55:31  5-MIN KMSN 020655Z VRB05KT 10SM CLR 13/04 A2972 1050 54 1100 VRB/05 RMK AO2
14837KMSN MSN20120602010009406/02/12 01:00:31  5-MIN KMSN 020700Z VRB04KT 10SM CLR 13/04 A2972 1050 54 1100 VRB/04 RMK AO2
14837KMSN MSN20120602010509406/02/12 01:05:31  5-MIN KMSN 020705Z 28005KT 10SM CLR 13/04 A2971 1060 54 1100 280/05 RMK AO2
14837KMSN MSN20120602011009406/02/12 01:10:31  5-MIN KMSN 020710Z 27005KT 10SM CLR 13/04 A2971 1060 54 1100 280/05 RMK AO2
14837KMSN MSN20120602011509406/02/12 01:15:31  5-MIN KMSN 020715Z VRB05KT 10SM CLR 13/04 A2971 1060 54 1100 VRB/05 RMK AO2
14837KMSN MSN20120602012009406/02/12 01:20:31  5-MIN KMSN 020720Z VRB05KT 10SM CLR 13/04 A2971 1060 54 1100 VRB/05 RMK AO2
14837KMSN MSN20120602012509406/02/12 01:25:31  5-MIN KMSN 020725Z 27005KT 10SM CLR 13/04 A2971 1060 56 1100 270/05 RMK AO2
14837KMSN MSN20120602013009406/02/12 01:30:31  5-MIN KMSN 020730Z 27004KT 10SM CLR 13/04 A2971 1060 56 1100 270/04 RMK AO2
14837KMSN MSN20120602013509406/02/12 01:35:31  5-MIN KMSN 020735Z 27004KT 10SM CLR 13/04 A2971 1060 56 1100 270/04 RMK AO2
14837KMSN MSN20120602014009406/02/12 01:40:31  5-MIN KMSN 020740Z VRB03KT 10SM CLR 13/04 A2971 1060 56 1100 VRB/03 RMK AO2
14837KMSN MSN20120602014509406/02/12 01:45:31  5-MIN KMSN 020745Z VRB05KT 10SM CLR 13/04 A2971 1060 56 1100 VRB/05 RMK AO2
14837KMSN MSN20120602015011106/02/12 01:50:31  5-MIN KMSN 020750Z 29005KT 10SM CLR 13/04 A2970 1060 56 1100 290/05 RMK AO2 SLP058 T01280044
14837KMSN MSN20120602015509406/02/12 01:55:31  5-MIN KMSN 020755Z 28005KT 10SM CLR 13/04 A2970 1060 56 1100 280/05 RMK AO2
14837KMSN MSN20120602020009406/02/12 02:00:31  5-MIN KMSN 020800Z 28006KT 10SM CLR 13/04 A2970 1070 56 1100 280/06 RMK AO2
14837KMSN MSN20120602020509406/02/12 02:05:31  5-MIN KMSN 020805Z 27006KT 10SM CLR 12/04 A2970 1070 59 1000 280/06 RMK AO2
14837KMSN MSN20120602021009406/02/12 02:10:31  5-MIN KMSN 020810Z 28006KT 10SM CLR 12/04 A2970 1070 59 1000 290/06 RMK AO2
14837KMSN MSN20120602021509406/02/12 02:15:31  5-MIN KMSN 020815Z VRB06KT 10SM CLR 12/04 A2970 1070 59 1000 VRB/06 RMK AO2
14837KMSN MSN20120602022009406/02/12 02:20:31  5-MIN KMSN 020820Z 29005KT 10SM CLR 12/04 A2970 1070 59 1000 290/05 RMK AO2
14837KMSN MSN20120602022509406/02/12 02:25:31  5-MIN KMSN 020825Z 30006KT 10SM CLR 12/05 A2970 1070 61 1000 300/06 RMK AO2
14837KMSN MSN20120602023009406/02/12 02:30:31  5-MIN KMSN 020830Z 30007KT 10SM CLR 12/04 A2970 1070 59 1000 310/07 RMK AO2
14837KMSN MSN20120602023509406/02/12 02:35:31  5-MIN KMSN 020835Z 29006KT 10SM CLR 12/04 A2970 1060 61 1000 290/06 RMK AO2
14837KMSN MSN20120602024009406/02/12 02:40:31  5-MIN KMSN 020840Z 29005KT 10SM CLR 12/05 A2970 1070 63 1000 290/05 RMK AO2
14837KMSN MSN20120602024509406/02/12 02:45:31  5-MIN KMSN 020845Z 29004KT 10SM CLR 12/05 A2970 1070 63 1000 290/04 RMK AO2
14837KMSN MSN20120602025011606/02/12 02:50:31  5-MIN KMSN 020850Z VRB03KT 10SM CLR 11/05 A2970 1070 66 900 VRB/03 RMK AO2 SLP058 T01110050 58007
14837KMSN MSN20120602025509306/02/12 02:55:31  5-MIN KMSN 020855Z VRB03KT 10SM CLR 11/05 A2970 1070 66 900 VRB/03 RMK AO2
14837KMSN MSN20120602030009406/02/12 03:00:31  5-MIN KMSN 020900Z 29004KT 10SM CLR 12/05 A2970 1070 63 1000 290/04 RMK AO2
14837KMSN MSN20120602030509406/02/12 03:05:31  5-MIN KMSN 020905Z VRB03KT 10SM CLR 12/05 A2970 1070 63 1000 VRB/03 RMK AO2
14837KMSN MSN20120602031009306/02/12 03:10:31  5-MIN KMSN 020910Z VRB05KT 10SM CLR 11/05 A2970 1070 66 900 VRB/05 RMK AO2
14837KMSN MSN20120602031509306/02/12 03:15:31  5-MIN KMSN 020915Z VRB03KT 10SM CLR 11/05 A2970 1070 66 900 VRB/03 RMK AO2
14837KMSN MSN20120602032009406/02/12 03:20:31  5-MIN KMSN 020920Z VRB04KT 10SM CLR 12/05 A2970 1070 63 1000 VRB/04 RMK AO2
14837KMSN MSN20120602032509306/02/12 03:25:31  5-MIN KMSN 020925Z VRB03KT 10SM CLR 11/05 A2970 1070 66 900 VRB/03 RMK AO2
14837KMSN MSN20120602033009306/02/12 03:30:31  5-MIN KMSN 020930Z 28004KT 10SM CLR 11/05 A2970 1070 66 900 290/04 RMK AO2
14837KMSN MSN20120602033509306/02/12 03:35:31  5-MIN KMSN 020935Z 28004KT 10SM CLR 11/05 A2970 1060 66 900 290/04 RMK AO2
14837KMSN MSN20120602034009306/02/12 03:40:31  5-MIN KMSN 020940Z VRB05KT 10SM CLR 11/05 A2970 1070 66 900 VRB/05 RMK AO2
14837KMSN MSN20120602034509306/02/12 03:45:31  5-MIN KMSN 020945Z 28004KT 10SM CLR 11/05 A2970 1070 66 900 280/04 RMK AO2
14837KMSN MSN20120602035011006/02/12 03:50:31  5-MIN KMSN 020950Z VRB04KT 10SM CLR 11/05 A2970 1070 66 900 VRB/04 RMK AO2 SLP057 T01110050
14837KMSN MSN20120602035509306/02/12 03:55:31  5-MIN KMSN 020955Z VRB04KT 10SM CLR 11/05 A2970 1070 66 900 VRB/04 RMK AO2
14837KMSN MSN20120602040009306/02/12 04:00:31  5-MIN KMSN 021000Z 00000KT 10SM CLR 11/05 A2970 1070 66 900 000/00 RMK AO2
14837KMSN MSN20120602040509306/02/12 04:05:31  5-MIN KMSN 021005Z VRB03KT 10SM CLR 11/05 A2970 1070 66 900 VRB/03 RMK AO2
14837KMSN MSN20120602041009306/02/12 04:10:31  5-MIN KMSN 021010Z VRB04KT 10SM CLR 11/05 A2970 1070 66 900 VRB/04 RMK AO2
14837KMSN MSN20120602041509306/02/12 04:15:31  5-MIN KMSN 021015Z VRB03KT 10SM CLR 11/05 A2970 1060 66 900 VRB/03 RMK AO2
14837KMSN MSN20120602042009306/02/12 04:20:31  5-MIN KMSN 021020Z 27004KT 10SM CLR 11/05 A2971 1060 66 900 270/04 RMK AO2
14837KMSN MSN20120602042509306/02/12 04:25:31  5-MIN KMSN 021025Z VRB05KT 10SM CLR 11/05 A2971 1060 66 900 VRB/05 RMK AO2
14837KMSN MSN20120602043009306/02/12 04:30:31  5-MIN KMSN 021030Z VRB05KT 10SM CLR 11/05 A2971 1060 66 900 VRB/05 RMK AO2
14837KMSN MSN20120602043509306/02/12 04:35:31  5-MIN KMSN 021035Z VRB03KT 10SM CLR 11/05 A2971 1060 66 900 VRB/03 RMK AO2
14837KMSN MSN20120602044009306/02/12 04:40:31  5-MIN KMSN 021040Z VRB04KT 10SM CLR 11/05 A2971 1060 66 900 VRB/04 RMK AO2
14837KMSN MSN20120602044509306/02/12 04:45:31  5-MIN KMSN 021045Z 28005KT 10SM CLR 11/05 A2971 1060 66 900 280/05 RMK AO2
14837KMSN MSN20120602045011006/02/12 04:50:31  5-MIN KMSN 021050Z VRB04KT 10SM CLR 12/05 A2971 1060 63 900 VRB/04 RMK AO2 SLP060 T01170050
14837KMSN MSN20120602045509306/02/12 04:55:31  5-MIN KMSN 021055Z 27005KT 10SM CLR 12/05 A2971 1060 63 900 280/05 RMK AO2
14837KMSN MSN20120602050009306/02/12 05:00:31  5-MIN KMSN 021100Z VRB05KT 10SM CLR 12/05 A2972 1050 63 900 VRB/05 RMK AO2
14837KMSN MSN20120602050509306/02/12 05:05:31  5-MIN KMSN 021105Z 27005KT 10SM CLR 12/05 A2972 1050 63 900 270/05 RMK AO2
14837KMSN MSN20120602051009306/02/12 05:10:31  5-MIN KMSN 021110Z VRB03KT 10SM CLR 12/05 A2972 1050 63 900 VRB/03 RMK AO2
14837KMSN MSN20120602051509306/02/12 05:15:31  5-MIN KMSN 021115Z 28004KT 10SM CLR 12/05 A2972 1050 63 900 280/04 RMK AO2
14837KMSN MSN20120602052009306/02/12 05:20:31  5-MIN KMSN 021120Z VRB05KT 10SM CLR 12/05 A2972 1050 63 900 VRB/05 RMK AO2
14837KMSN MSN20120602052509306/02/12 05:25:31  5-MIN KMSN 021125Z VRB05KT 10SM CLR 12/05 A2972 1050 63 900 VRB/05 RMK AO2
14837KMSN MSN20120602053009406/02/12 05:30:31  5-MIN KMSN 021130Z VRB04KT 10SM CLR 12/06 A2972 1050 63 1000 VRB/04 RMK AO2
14837KMSN MSN20120602053509406/02/12 05:35:31  5-MIN KMSN 021135Z 29005KT 10SM CLR 12/06 A2972 1050 63 1000 290/05 RMK AO2
14837KMSN MSN20120602054009406/02/12 05:40:31  5-MIN KMSN 021140Z 29005KT 10SM CLR 12/06 A2972 1050 63 1000 290/05 RMK AO2
14837KMSN MSN20120602054509406/02/12 05:45:31  5-MIN KMSN 021145Z VRB06KT 10SM CLR 12/06 A2972 1050 63 1000 VRB/06 RMK AO2
14837KMSN MSN20120602055012906/02/12 05:50:31  5-MIN KMSN 021150Z 29005KT 10SM CLR 13/06 A2972 1050 61 1100 290/05 RMK AO2 SLP062 T01280056 10133 20111 56009
14837KMSN MSN20120602055509406/02/12 05:55:31  5-MIN KMSN 021155Z 29005KT 10SM CLR 13/06 A2972 1050 61 1100 290/05 RMK AO2
14837KMSN MSN20120602060009406/02/12 06:00:31  5-MIN KMSN 021200Z VRB05KT 10SM CLR 13/06 A2972 1050 61 1100 VRB/05 RMK AO2
14837KMSN MSN20120602060509406/02/12 06:05:31  5-MIN KMSN 021205Z VRB03KT 10SM CLR 13/06 A2972 1050 59 1100 VRB/03 RMK AO2
14837KMSN MSN20120602061009406/02/12 06:10:31  5-MIN KMSN 021210Z 28005KT 10SM CLR 13/06 A2973 1040 59 1100 280/05 RMK AO2
14837KMSN MSN20120602061509406/02/12 06:15:31  5-MIN KMSN 021215Z VRB05KT 10SM CLR 13/06 A2973 1040 59 1100 VRB/05 RMK AO2
14837KMSN MSN20120602062009406/02/12 06:20:31  5-MIN KMSN 021220Z 29004KT 10SM CLR 14/06 A2973 1040 57 1200 290/04 RMK AO2
14837KMSN MSN20120602062509406/02/12 06:25:31  5-MIN KMSN 021225Z 28005KT 10SM CLR 14/06 A2973 1040 59 1200 280/05 RMK AO2
14837KMSN MSN20120602063009406/02/12 06:30:31  5-MIN KMSN 021230Z VRB04KT 10SM CLR 14/06 A2973 1040 59 1200 VRB/04 RMK AO2
14837KMSN MSN20120602063509406/02/12 06:35:31  5-MIN KMSN 021235Z VRB06KT 10SM CLR 14/06 A2973 1040 57 1300 VRB/06 RMK AO2
14837KMSN MSN20120602064009406/02/12 06:40:31  5-MIN KMSN 021240Z 27005KT 10SM CLR 14/06 A2973 1040 57 1300 270/05 RMK AO2
14837KMSN MSN20120602064509406/02/12 06:45:31  5-MIN KMSN 021245Z VRB04KT 10SM CLR 15/06 A2973 1040 55 1300 VRB/04 RMK AO2
14837KMSN MSN20120602065011106/02/12 06:50:31  5-MIN KMSN 021250Z VRB05KT 10SM CLR 15/06 A2974 1040 55 1300 VRB/05 RMK AO2 SLP067 T01500061
14837KMSN MSN20120602065509406/02/12 06:55:31  5-MIN KMSN 021255Z 29007KT 10SM CLR 15/06 A2974 1030 55 1300 300/07 RMK AO2
14837KMSN MSN20120602070009406/02/12 07:00:31  5-MIN KMSN 021300Z 30004KT 10SM CLR 16/06 A2974 1030 53 1400 300/04 RMK AO2
14837KMSN MSN20120602070509406/02/12 07:05:31  5-MIN KMSN 021305Z 29005KT 10SM CLR 16/06 A2974 1030 53 1400 290/05 RMK AO2
14837KMSN MSN20120602071009406/02/12 07:10:31  5-MIN KMSN 021310Z VRB03KT 10SM CLR 16/06 A2974 1030 53 1400 VRB/03 RMK AO2
14837KMSN MSN20120602071509406/02/12 07:15:31  5-MIN KMSN 021315Z VRB06KT 10SM CLR 16/06 A2974 1030 51 1400 VRB/06 RMK AO2
14837KMSN MSN20120602072009406/02/12 07:20:31  5-MIN KMSN 021320Z 28006KT 10SM CLR 16/06 A2974 1030 51 1400 290/06 RMK AO2
14837KMSN MSN20120602072509406/02/12 07:25:31  5-MIN KMSN 021325Z 26006KT 10SM CLR 16/06 A2974 1040 51 1400 270/06 RMK AO2
14837KMSN MSN20120602073009406/02/12 07:30:31  5-MIN KMSN 021330Z 28007KT 10SM CLR 17/06 A2974 1030 49 1500 280/07 RMK AO2
14837KMSN MSN20120602073509406/02/12 07:35:31  5-MIN KMSN 021335Z VRB05KT 10SM CLR 17/06 A2974 1030 49 1500 VRB/05 RMK AO2
14837KMSN MSN20120602074009406/02/12 07:40:31  5-MIN KMSN 021340Z VRB06KT 10SM CLR 17/06 A2974 1030 49 1500 VRB/06 RMK AO2
14837KMSN MSN20120602074509406/02/12 07:45:31  5-MIN KMSN 021345Z VRB04KT 10SM CLR 17/07 A2974 1030 49 1600 VRB/04 RMK AO2
14837KMSN MSN20120602075011106/02/12 07:50:31  5-MIN KMSN 021350Z 28006KT 10SM CLR 17/06 A2974 1030 47 1600 290/06 RMK AO2 SLP069 T01720061
14837KMSN MSN20120602075509406/02/12 07:55:31  5-MIN KMSN 021355Z 29004KT 10SM CLR 18/07 A2974 1030 48 1600 290/04 RMK AO2
14837KMSN MSN20120602080009406/02/12 08:00:31  5-MIN KMSN 021400Z 27006KT 10SM CLR 18/07 A2974 1030 48 1600 270/06 RMK AO2
14837KMSN MSN20120602080509406/02/12 08:05:31  5-MIN KMSN 021405Z 27007KT 10SM CLR 18/07 A2974 1030 48 1600 270/07 RMK AO2
14837KMSN MSN20120602081009406/02/12 08:10:31  5-MIN KMSN 021410Z VRB04KT 10SM CLR 18/06 A2974 1030 46 1600 VRB/04 RMK AO2
14837KMSN MSN20120602081509406/02/12 08:15:31  5-MIN KMSN 021415Z 27007KT 10SM CLR 18/07 A2974 1030 46 1700 270/07 RMK AO2
14837KMSN MSN20120602082009406/02/12 08:20:31  5-MIN KMSN 021420Z VRB06KT 10SM CLR 18/07 A2974 1030 46 1700 VRB/06 RMK AO2
14837KMSN MSN20120602082509406/02/12 08:25:31  5-MIN KMSN 021425Z VRB06KT 10SM CLR 18/07 A2974 1030 46 1700 VRB/06 RMK AO2
14837KMSN MSN20120602083009406/02/12 08:30:31  5-MIN KMSN 021430Z VRB06KT 10SM CLR 18/07 A2974 1030 46 1700 VRB/06 RMK AO2
14837KMSN MSN20120602083509406/02/12 08:35:31  5-MIN KMSN 021435Z 28007KT 10SM CLR 19/07 A2974 1030 46 1800 280/07 RMK AO2
14837KMSN MSN20120602084009406/02/12 08:40:31  5-MIN KMSN 021440Z 29007KT 10SM CLR 19/07 A2974 1030 44 1800 290/07 RMK AO2
14837KMSN MSN20120602084509406/02/12 08:45:31  5-MIN KMSN 021445Z VRB04KT 10SM CLR 19/07 A2974 1030 46 1800 VRB/04 RMK AO2
14837KMSN MSN20120602085011706/02/12 08:50:31  5-MIN KMSN 021450Z 29005KT 10SM CLR 19/07 A2974 1030 44 1800 290/05 RMK AO2 SLP069 T01940072 53006
14837KMSN MSN20120602085509406/02/12 08:55:31  5-MIN KMSN 021455Z 28005KT 10SM CLR 19/07 A2974 1030 44 1800 280/05 RMK AO2
14837KMSN MSN20120602090009406/02/12 09:00:31  5-MIN KMSN 021500Z 27008KT 10SM CLR 19/07 A2974 1030 43 1800 270/08 RMK AO2
14837KMSN MSN20120602090511006/02/12 09:05:31  5-MIN KMSN 021505Z 28008KT 250V310 10SM CLR 19/07 A2974 1030 43 1800 280/08 250V310 RMK AO2
14837KMSN MSN20120602091010006/02/12 09:10:31  5-MIN KMSN 021510Z VRB06G15KT 10SM CLR 19/07 A2974 1030 43 1800 VRB/06G15 RMK AO2
14837KMSN MSN20120602091510006/02/12 09:15:31  5-MIN KMSN 021515Z 30007G15KT 10SM CLR 20/07 A2974 1030 43 1900 300/07G15 RMK AO2
14837KMSN MSN20120602092009406/02/12 09:20:31  5-MIN KMSN 021520Z 29008KT 10SM CLR 20/07 A2974 1030 41 1900 290/08 RMK AO2
14837KMSN MSN20120602092510006/02/12 09:25:31  5-MIN KMSN 021525Z 29009G14KT 10SM CLR 20/07 A2974 1030 43 1900 290/09G14 RMK AO2
14837KMSN MSN20120602093010006/02/12 09:30:31  5-MIN KMSN 021530Z 31007G14KT 10SM CLR 20/07 A2974 1030 41 1900 310/07G14 RMK AO2
14837KMSN MSN20120602093509406/02/12 09:35:31  5-MIN KMSN 021535Z 30008KT 10SM CLR 21/07 A2974 1030 41 2000 300/08 RMK AO2
14837KMSN MSN20120602094009406/02/12 09:40:31  5-MIN KMSN 021540Z 31008KT 10SM CLR 21/07 A2974 1030 40 2000 310/08 RMK AO2
14837KMSN MSN20120602094509406/02/12 09:45:31  5-MIN KMSN 021545Z 31008KT 10SM CLR 21/07 A2974 1030 41 2000 310/08 RMK AO2
14837KMSN MSN20120602095011706/02/12 09:50:31  5-MIN KMSN 021550Z 30010G14KT 10SM CLR 21/08 A2974 1040 42 2000 310/10G14 RMK AO2 SLP067 T02110078
14837KMSN MSN20120602095510306/02/12 09:55:31  5-MIN KMSN 021555Z VRB06G14KT 10SM FEW055 21/07 A2973 1040 41 2000 VRB/06G14 RMK AO2
14837KMSN MSN20120602100010306/02/12 10:00:31  5-MIN KMSN 021600Z 30011G15KT 10SM FEW055 21/07 A2974 1040 38 2000 300/11G15 RMK AO2
14837KMSN MSN20120602100510306/02/12 10:05:31  5-MIN KMSN 021605Z 28009G15KT 10SM FEW055 21/06 A2974 1040 38 2000 280/09G15 RMK AO2
14837KMSN MSN20120602101010306/02/12 10:10:31  5-MIN KMSN 021610Z 28008G16KT 10SM FEW055 21/07 A2974 1040 38 2000 280/08G16 RMK AO2
14837KMSN MSN20120602101511906/02/12 10:15:31  5-MIN KMSN 021615Z 29008G16KT 230V330 10SM FEW055 21/07 A2973 1040 38 2000 290/08G16 230V330 RMK AO2
14837KMSN MSN20120602102009706/02/12 10:20:31  5-MIN KMSN 021620Z VRB06KT 10SM FEW055 22/06 A2973 1040 36 2100 VRB/06 RMK AO2
14837KMSN MSN20120602102509706/02/12 10:25:31  5-MIN KMSN 021625Z 29009KT 10SM FEW055 22/06 A2973 1040 36 2100 290/09 RMK AO2
14837KMSN MSN20120602103011906/02/12 10:30:31  5-MIN KMSN 021630Z 30007G16KT 240V330 10SM FEW060 22/06 A2973 1040 36 2100 300/07G16 240V330 RMK AO2
14837KMSN MSN20120602103510306/02/12 10:35:31  5-MIN KMSN 021635Z 30011G18KT 10SM FEW060 22/06 A2973 1040 34 2100 300/11G18 RMK AO2
14837KMSN MSN20120602104011906/02/12 10:40:31  5-MIN KMSN 021640Z 28008G18KT 240V300 10SM FEW060 22/05 A2973 1040 33 2100 280/08G18 240V300 RMK AO2
14837KMSN MSN20120602104511906/02/12 10:45:31  5-MIN KMSN 021645Z 29011G17KT 260V330 10SM FEW060 22/05 A2973 1040 33 2100 290/11G17 260V330 RMK AO2
14837KMSN MSN20120602105013606/02/12 10:50:31  5-MIN KMSN 021650Z 30008G17KT 260V320 10SM FEW060 22/05 A2973 1040 33 2100 300/08G17 260V320 RMK AO2 SLP065 T02170050
14837KMSN MSN20120602105511906/02/12 10:55:31  5-MIN KMSN 021655Z 30010G16KT 270V340 10SM FEW060 22/05 A2973 1040 33 2100 300/10G16 270V340 RMK AO2
14837KMSN MSN20120602110010306/02/12 11:00:31  5-MIN KMSN 021700Z 29008G18KT 10SM FEW060 22/05 A2973 1040 33 2100 290/08G18 RMK AO2
14837KMSN MSN20120602110510306/02/12 11:05:31  5-MIN KMSN 021705Z VRB06G18KT 10SM FEW060 22/06 A2973 1040 34 2100 VRB/06G18 RMK AO2
14837KMSN MSN20120602111010306/02/12 11:10:31  5-MIN KMSN 021710Z 30011G15KT 10SM FEW060 22/06 A2973 1050 35 2200 310/11G15 RMK AO2
14837KMSN MSN20120602111510306/02/12 11:15:31  5-MIN KMSN 021715Z 28009G15KT 10SM FEW060 22/05 A2973 1040 33 2100 280/09G15 RMK AO2
14837KMSN MSN20120602112010306/02/12 11:20:31  5-MIN KMSN 021720Z 30006G16KT 10SM FEW065 22/05 A2973 1050 33 2100 300/06G16 RMK AO2
14837KMSN MSN20120602112510306/02/12 11:25:31  5-MIN KMSN 021725Z 30008G16KT 10SM FEW065 23/06 A2973 1040 33 2200 310/08G16 RMK AO2
14837KMSN MSN20120602113009706/02/12 11:30:31  5-MIN KMSN 021730Z VRB06KT 10SM FEW065 22/06 A2973 1050 35 2200 VRB/06 RMK AO2
14837KMSN MSN20120602113511306/02/12 11:35:31  5-MIN KMSN 021735Z 27007KT 240V310 10SM FEW065 22/06 A2973 1050 33 2200 280/07 240V310 RMK AO2
14837KMSN MSN20120602114011306/02/12 11:40:31  5-MIN KMSN 021740Z 27009KT 230V320 10SM FEW065 23/06 A2973 1040 33 2200 280/09 230V320 RMK AO2
14837KMSN MSN20120602114510306/02/12 11:45:31  5-MIN KMSN 021745Z 30010G14KT 10SM FEW065 22/05 A2972 1050 32 2200 300/10G14 RMK AO2
14837KMSN MSN20120602115013806/02/12 11:50:31  5-MIN KMSN 021750Z 30011G17KT 10SM FEW065 22/06 A2972 1050 35 2200 310/11G17 RMK AO2 SLP063 T02220061 10228 20128 51007
14837KMSN MSN20120602115510306/02/12 11:55:31  5-MIN KMSN 021755Z 28006G17KT 10SM FEW065 22/05 A2972 1050 33 2100 280/06G17 RMK AO2
14837KMSN MSN20120602120011906/02/12 12:00:31  5-MIN KMSN 021800Z 28009G16KT 220V320 10SM FEW065 22/05 A2972 1050 32 2200 280/09G16 220V320 RMK AO2
14837KMSN MSN20120602120510306/02/12 12:05:31  5-MIN KMSN 021805Z 28009G18KT 10SM FEW065 22/05 A2972 1050 32 2200 290/09G18 RMK AO2
14837KMSN MSN20120602121010306/02/12 12:10:31  5-MIN KMSN 021810Z VRB05G18KT 10SM FEW065 23/06 A2972 1050 32 2200 VRB/05G18 RMK AO2
14837KMSN MSN20120602121511906/02/12 12:15:31  5-MIN KMSN 021815Z 28009G18KT 240V310 10SM FEW065 22/06 A2972 1050 33 2200 280/09G18 240V310 RMK AO2
14837KMSN MSN20120602122010306/02/12 12:20:31  5-MIN KMSN 021820Z 30007G18KT 10SM FEW065 22/05 A2972 1050 32 2200 300/07G18 RMK AO2
14837KMSN MSN20120602122509706/02/12 12:25:31  5-MIN KMSN 021825Z 26007KT 10SM FEW065 22/05 A2972 1050 32 2200 260/07 RMK AO2
14837KMSN MSN20120602123010306/02/12 12:30:31  5-MIN KMSN 021830Z 29009G14KT 10SM FEW065 22/05 A2972 1050 32 2200 290/09G14 RMK AO2
14837KMSN MSN20120602123510306/02/12 12:35:31  5-MIN KMSN 021835Z 28007G17KT 10SM FEW065 23/05 A2972 1050 31 2200 290/07G17 RMK AO2
14837KMSN MSN20120602124010306/02/12 12:40:31  5-MIN KMSN 021840Z VRB05G17KT 10SM FEW065 23/05 A2972 1050 31 2200 VRB/05G17 RMK AO2
14837KMSN MSN20120602124510306/02/12 12:45:31  5-MIN KMSN 021845Z 29009G15KT 10SM FEW070 23/05 A2972 1050 31 2200 290/09G15 RMK AO2
14837KMSN MSN20120602125012006/02/12 12:50:31  5-MIN KMSN 021850Z 28008G15KT 10SM FEW070 23/05 A2972 1050 31 2200 290/08G15 RMK AO2 SLP061 T02280050
14837KMSN MSN20120602125510306/02/12 12:55:31  5-MIN KMSN 021855Z VRB05G14KT 10SM FEW075 23/06 A2972 1050 32 2200 VRB/05G14 RMK AO2
14837KMSN MSN20120602130009706/02/12 13:00:31  5-MIN KMSN 021900Z VRB04KT 10SM FEW085 23/05 A2972 1050 30 2300 VRB/04 RMK AO2
14837KMSN MSN20120602130511306/02/12 13:05:31  5-MIN KMSN 021905Z 25008KT 210V280 10SM SCT080 23/05 A2972 1050 31 2200 250/08 210V280 RMK AO2
14837KMSN MSN20120602131009706/02/12 13:10:31  5-MIN KMSN 021910Z VRB05KT 10SM FEW080 23/04 A2972 1050 30 2200 VRB/05 RMK AO2
14837KMSN MSN20120602131511306/02/12 13:15:31  5-MIN KMSN 021915Z 24007KT 220V280 10SM FEW080 23/06 A2972 1050 31 2300 250/07 220V280 RMK AO2
14837KMSN MSN20120602132009706/02/12 13:20:31  5-MIN KMSN 021920Z 25008KT 10SM SCT075 22/04 A2972 1050 30 2200 250/08 RMK AO2
14837KMSN MSN20120602132509706/02/12 13:25:31  5-MIN KMSN 021925Z VRB06KT 10SM SCT075 23/05 A2971 1060 31 2200 VRB/06 RMK AO2
14837KMSN MSN20120602133011906/02/12 13:30:31  5-MIN KMSN 021930Z 28010G16KT 240V310 10SM FEW075 23/05 A2971 1060 31 2200 280/10G16 240V310 RMK AO2
14837KMSN MSN20120602133511906/02/12 13:35:31  5-MIN KMSN 021935Z 25009G16KT 220V290 10SM FEW075 23/04 A2971 1060 30 2200 250/09G16 220V290 RMK AO2
14837KMSN MSN20120602134011906/02/12 13:40:31  5-MIN KMSN 021940Z 28007G15KT 230V330 10SM SCT075 23/05 A2971 1060 30 2300 290/07G15 230V330 RMK AO2
14837KMSN MSN20120602134510306/02/12 13:45:31  5-MIN KMSN 021945Z 27008G14KT 10SM SCT075 23/04 A2971 1060 30 2200 270/08G14 RMK AO2
14837KMSN MSN20120602135012006/02/12 13:50:31  5-MIN KMSN 021950Z 29005G14KT 10SM FEW080 23/04 A2971 1060 30 2200 290/05G14 RMK AO2 SLP059 T02280044
14837KMSN MSN20120602135509706/02/12 13:55:31  5-MIN KMSN 021955Z 29007KT 10SM FEW080 23/06 A2971 1060 31 2300 290/07 RMK AO2
14837KMSN MSN20120602140009706/02/12 14:00:31  5-MIN KMSN 022000Z 29006KT 10SM SCT080 23/06 A2971 1060 32 2200 290/06 RMK AO2
14837KMSN MSN20120602140509706/02/12 14:05:31  5-MIN KMSN 022005Z VRB05KT 10SM SCT080 23/06 A2971 1060 31 2300 VRB/05 RMK AO2
14837KMSN MSN20120602141009706/02/12 14:10:31  5-MIN KMSN 022010Z VRB06KT 10SM FEW080 23/06 A2971 1060 31 2300 VRB/06 RMK AO2
14837KMSN MSN20120602141509706/02/12 14:15:31  5-MIN KMSN 022015Z VRB06KT 10SM FEW080 23/05 A2971 1060 30 2300 VRB/06 RMK AO2
14837KMSN MSN20120602142011306/02/12 14:20:31  5-MIN KMSN 022020Z 28008KT 240V310 10SM FEW080 23/04 A2971 1060 29 2300 280/08 240V310 RMK AO2
14837KMSN MSN20120602142510306/02/12 14:25:31  5-MIN KMSN 022025Z VRB05G16KT 10SM FEW080 23/06 A2971 1060 31 2300 VRB/05G16 RMK AO2
14837KMSN MSN20120602143011906/02/12 14:30:31  5-MIN KMSN 022030Z 28008G16KT 250V320 10SM FEW075 23/06 A2971 1060 31 2300 280/08G16 250V320 RMK AO2
14837KMSN MSN20120602143511906/02/12 14:35:31  5-MIN KMSN 022035Z 27007G15KT 230V330 10SM FEW075 23/05 A2971 1060 30 2300 270/07G15 230V330 RMK AO2
14837KMSN MSN20120602144010306/02/12 14:40:31  5-MIN KMSN 022040Z VRB06G15KT 10SM FEW075 23/05 A2971 1060 30 2300 VRB/06G15 RMK AO2
14837KMSN MSN20120602144511306/02/12 14:45:31  5-MIN KMSN 022045Z 28008KT 240V320 10SM SCT075 23/06 A2971 1060 31 2300 290/08 240V320 RMK AO2
14837KMSN MSN20120602145013606/02/12 14:50:31  5-MIN KMSN 022050Z 26009KT 230V300 10SM SCT080 23/05 A2971 1060 30 2300 270/09 230V300 RMK AO2 SLP058 T02330050 56006
14837KMSN MSN20120602145511306/02/12 14:55:31  5-MIN KMSN 022055Z 26007KT 240V300 10SM FEW075 23/05 A2971 1060 31 2200 260/07 240V300 RMK AO2
14837KMSN MSN20120602150009706/02/12 15:00:31  5-MIN KMSN 022100Z 28011KT 10SM FEW075 23/05 A2971 1060 31 2200 280/11 RMK AO2
14837KMSN MSN20120602150511306/02/12 15:05:31  5-MIN KMSN 022105Z 29008KT 250V320 10SM SCT075 23/05 A2971 1060 30 2300 290/08 250V320 RMK AO2
14837KMSN MSN20120602151010306/02/12 15:10:31  5-MIN KMSN 022110Z VRB06G14KT 10SM SCT075 23/06 A2971 1060 32 2200 VRB/06G14 RMK AO2
14837KMSN MSN20120602151511906/02/12 15:15:31  5-MIN KMSN 022115Z 27008G14KT 240V320 10SM FEW075 23/06 A2971 1060 31 2300 270/08G14 240V320 RMK AO2
14837KMSN MSN20120602152010306/02/12 15:20:31  5-MIN KMSN 022120Z 27008G15KT 10SM FEW075 23/04 A2971 1060 30 2200 270/08G15 RMK AO2
14837KMSN MSN20120602152510306/02/12 15:25:31  5-MIN KMSN 022125Z 31009G15KT 10SM FEW075 23/04 A2971 1060 30 2200 310/09G15 RMK AO2
14837KMSN MSN20120602153010306/02/12 15:30:31  5-MIN KMSN 022130Z 28011G17KT 10SM FEW075 23/04 A2971 1060 29 2300 280/11G17 RMK AO2
14837KMSN MSN20120602153510006/02/12 15:35:31  5-MIN KMSN 022135Z 28009G17KT 10SM CLR 23/04 A2971 1060 29 2300 280/09G17 RMK AO2
14837KMSN MSN20120602154010006/02/12 15:40:31  5-MIN KMSN 022140Z 26008G16KT 10SM CLR 23/04 A2971 1060 29 2200 270/08G16 RMK AO2
14837KMSN MSN20120602154511606/02/12 15:45:31  5-MIN KMSN 022145Z 27008G16KT 220V310 10SM CLR 23/04 A2971 1060 29 2200 280/08G16 220V310 RMK AO2
14837KMSN MSN20120602155012006/02/12 15:50:31  5-MIN KMSN 022150Z VRB06G17KT 10SM FEW080 23/04 A2971 1060 29 2300 VRB/06G17 RMK AO2 SLP057 T02330044
14837KMSN MSN20120602155511606/02/12 15:55:31  5-MIN KMSN 022155Z 29008G18KT 270V330 10SM CLR 23/04 A2971 1060 29 2300 290/08G18 270V330 RMK AO2
14837KMSN MSN20120602160010006/02/12 16:00:31  5-MIN KMSN 022200Z 27010G19KT 10SM CLR 23/04 A2971 1060 30 2200 270/10G19 RMK AO2
14837KMSN MSN20120602160510006/02/12 16:05:31  5-MIN KMSN 022205Z 27008G19KT 10SM CLR 23/04 A2971 1060 30 2200 280/08G19 RMK AO2
14837KMSN MSN20120602161011006/02/12 16:10:31  5-MIN KMSN 022210Z 27008KT 230V300 10SM CLR 23/04 A2971 1060 29 2300 270/08 230V300 RMK AO2
14837KMSN MSN20120602161511606/02/12 16:15:31  5-MIN KMSN 022215Z 26009G14KT 240V320 10SM CLR 23/04 A2971 1060 29 2200 270/09G14 240V320 RMK AO2
14837KMSN MSN20120602162011606/02/12 16:20:31  5-MIN KMSN 022220Z 28008G14KT 240V310 10SM CLR 23/03 A2971 1060 27 2200 280/08G14 240V310 RMK AO2
14837KMSN MSN20120602162510006/02/12 16:25:31  5-MIN KMSN 022225Z 30010G17KT 10SM CLR 23/03 A2971 1060 27 2200 300/10G17 RMK AO2
14837KMSN MSN20120602163010006/02/12 16:30:31  5-MIN KMSN 022230Z 29008G17KT 10SM CLR 23/04 A2971 1060 29 2200 300/08G17 RMK AO2
14837KMSN MSN20120602163510006/02/12 16:35:31  5-MIN KMSN 022235Z 28008G15KT 10SM CLR 23/03 A2971 1060 27 2200 280/08G15 RMK AO2
14837KMSN MSN20120602164010006/02/12 16:40:31  5-MIN KMSN 022240Z 29010G16KT 10SM CLR 23/04 A2971 1060 29 2200 300/10G16 RMK AO2
14837KMSN MSN20120602164510006/02/12 16:45:31  5-MIN KMSN 022245Z 30011G16KT 10SM CLR 23/04 A2971 1060 29 2200 300/11G16 RMK AO2
14837KMSN MSN20120602165012006/02/12 16:50:31  5-MIN KMSN 022250Z VRB05G15KT 10SM FEW085 23/04 A2971 1060 29 2200 VRB/05G15 RMK AO2 SLP059 T02280039
14837KMSN MSN20120602165510006/02/12 16:55:31  5-MIN KMSN 022255Z 30009G15KT 10SM CLR 23/04 A2971 1060 29 2200 310/09G15 RMK AO2
14837KMSN MSN20120602170010006/02/12 17:00:31  5-MIN KMSN 022300Z 27008G15KT 10SM CLR 23/04 A2971 1060 30 2200 280/08G15 RMK AO2
14837KMSN MSN20120602170510006/02/12 17:05:31  5-MIN KMSN 022305Z 29007G15KT 10SM CLR 23/04 A2971 1060 29 2200 290/07G15 RMK AO2
14837KMSN MSN20120602171010006/02/12 17:10:31  5-MIN KMSN 022310Z 28008G16KT 10SM CLR 23/04 A2971 1060 29 2200 280/08G16 RMK AO2
14837KMSN MSN20120602171510006/02/12 17:15:31  5-MIN KMSN 022315Z 29007G16KT 10SM CLR 23/04 A2971 1060 30 2200 290/07G16 RMK AO2
14837KMSN MSN20120602172009406/02/12 17:20:31  5-MIN KMSN 022320Z 30005KT 10SM CLR 23/04 A2971 1060 30 2200 300/05 RMK AO2
14837KMSN MSN20120602172511006/02/12 17:25:31  5-MIN KMSN 022325Z 28007KT 250V330 10SM CLR 23/04 A2971 1060 30 2200 290/07 250V330 RMK AO2
14837KMSN MSN20120602173009406/02/12 17:30:31  5-MIN KMSN 022330Z 29008KT 10SM CLR 23/04 A2972 1050 30 2200 300/08 RMK AO2
14837KMSN MSN20120602173511006/02/12 17:35:31  5-MIN KMSN 022335Z 28008KT 260V320 10SM CLR 23/04 A2971 1050 29 2200 280/08 260V320 RMK AO2
14837KMSN MSN20120602174009406/02/12 17:40:31  5-MIN KMSN 022340Z 29007KT 10SM CLR 23/04 A2972 1050 29 2200 290/07 RMK AO2
14837KMSN MSN20120602174509406/02/12 17:45:31  5-MIN KMSN 022345Z 29009KT 10SM CLR 23/03 A2972 1050 27 2200 300/09 RMK AO2
14837KMSN MSN20120602175012906/02/12 17:50:31  5-MIN KMSN 022350Z VRB05KT 10SM CLR 22/03 A2972 1050 28 2200 VRB/05 RMK AO2 SLP061 T02220033 10239 20211 57006
14837KMSN MSN20120602175509406/02/12 17:55:31  5-MIN KMSN 022355Z 28007KT 10SM CLR 22/03 A2972 1050 28 2200 290/07 RMK AO2
14837KMSN MSN20120602180009406/02/12 18:00:31  5-MIN KMSN 030000Z VRB05KT 10SM CLR 22/04 A2972 1050 30 2200 VRB/05 RMK AO2
14837KMSN MSN20120602180509406/02/12 18:05:31  5-MIN KMSN 030005Z 29006KT 10SM CLR 22/04 A2972 1050 30 2200 290/06 RMK AO2
14837KMSN MSN20120602181009406/02/12 18:10:31  5-MIN KMSN 030010Z VRB04KT 10SM CLR 22/04 A2972 1050 31 2200 VRB/04 RMK AO2
14837KMSN MSN20120602181509406/02/12 18:15:31  5-MIN KMSN 030015Z VRB06KT 10SM CLR 22/04 A2972 1050 31 2200 VRB/06 RMK AO2
14837KMSN MSN20120602182009406/02/12 18:20:31  5-MIN KMSN 030020Z 29006KT 10SM CLR 22/04 A2972 1050 30 2200 290/06 RMK AO2
14837KMSN MSN20120602182509406/02/12 18:25:31  5-MIN KMSN 030025Z 29004KT 10SM CLR 22/04 A2973 1050 32 2100 290/04 RMK AO2
14837KMSN MSN20120602183009406/02/12 18:30:31  5-MIN KMSN 030030Z 29004KT 10SM CLR 22/04 A2973 1040 32 2100 290/04 RMK AO2
14837KMSN MSN20120602183509406/02/12 18:35:31  5-MIN KMSN 030035Z 30006KT 10SM CLR 22/04 A2973 1040 32 2100 300/06 RMK AO2
14837KMSN MSN20120602184009406/02/12 18:40:31  5-MIN KMSN 030040Z 29006KT 10SM CLR 21/04 A2973 1040 33 2000 290/06 RMK AO2
14837KMSN MSN20120602184509406/02/12 18:45:31  5-MIN KMSN 030045Z 29006KT 10SM CLR 21/04 A2973 1040 33 2000 290/06 RMK AO2
14837KMSN MSN20120602185011106/02/12 18:50:31  5-MIN KMSN 030050Z 28003KT 10SM CLR 21/04 A2973 1040 33 2000 280/03 RMK AO2 SLP065 T02110044
14837KMSN MSN20120602185509406/02/12 18:55:31  5-MIN KMSN 030055Z 29003KT 10SM CLR 21/04 A2973 1040 33 2000 290/03 RMK AO2
14837KMSN MSN20120602190009406/02/12 19:00:31  5-MIN KMSN 030100Z VRB03KT 10SM CLR 21/04 A2973 1040 34 2000 VRB/03 RMK AO2
14837KMSN MSN20120602190509406/02/12 19:05:31  5-MIN KMSN 030105Z 00000KT 10SM CLR 21/05 A2973 1040 35 2000 000/00 RMK AO2
14837KMSN MSN20120602191009406/02/12 19:10:31  5-MIN KMSN 030110Z 29003KT 10SM CLR 21/05 A2973 1040 35 2000 290/03 RMK AO2
14837KMSN MSN20120602191509406/02/12 19:15:31  5-MIN KMSN 030115Z VRB03KT 10SM CLR 20/05 A2973 1040 37 1900 VRB/03 RMK AO2
14837KMSN MSN20120602192009406/02/12 19:20:31  5-MIN KMSN 030120Z 28003KT 10SM CLR 20/05 A2973 1040 37 1900 290/03 RMK AO2
14837KMSN MSN20120602192509406/02/12 19:25:31  5-MIN KMSN 030125Z 29003KT 10SM CLR 20/05 A2973 1040 37 1900 290/03 RMK AO2
14837KMSN MSN20120602193009406/02/12 19:30:31  5-MIN KMSN 030130Z 00000KT 10SM CLR 19/05 A2973 1040 38 1800 000/00 RMK AO2
14837KMSN MSN20120602193509406/02/12 19:35:31  5-MIN KMSN 030135Z 00000KT 10SM CLR 20/05 A2974 1040 37 1900 000/00 RMK AO2
14837KMSN MSN20120602194009406/02/12 19:40:31  5-MIN KMSN 030140Z 00000KT 10SM CLR 19/05 A2974 1030 38 1800 000/00 RMK AO2
14837KMSN MSN20120602194509406/02/12 19:45:31  5-MIN KMSN 030145Z 27004KT 10SM CLR 19/05 A2974 1030 38 1800 280/04 RMK AO2
14837KMSN MSN20120602195011106/02/12 19:50:31  5-MIN KMSN 030150Z 00000KT 10SM CLR 19/05 A2974 1030 38 1800 000/00 RMK AO2 SLP068 T01940050
14837KMSN MSN20120602195509406/02/12 19:55:31  5-MIN KMSN 030155Z VRB03KT 10SM CLR 19/05 A2974 1030 38 1800 VRB/03 RMK AO2
14837KMSN MSN20120602200009406/02/12 20:00:31  5-MIN KMSN 030200Z 27003KT 10SM CLR 19/05 A2974 1030 39 1800 270/03 RMK AO2
14837KMSN MSN20120602200509406/02/12 20:05:31  5-MIN KMSN 030205Z 00000KT 10SM CLR 19/05 A2974 1030 39 1800 000/00 RMK AO2
14837KMSN MSN20120602201009406/02/12 20:10:31  5-MIN KMSN 030210Z 00000KT 10SM CLR 18/06 A2974 1030 42 1700 000/00 RMK AO2
14837KMSN MSN20120602201509406/02/12 20:15:31  5-MIN KMSN 030215Z 00000KT 10SM CLR 18/06 A2974 1030 42 1700 000/00 RMK AO2
14837KMSN MSN20120602202009406/02/12 20:20:31  5-MIN KMSN 030220Z 00000KT 10SM CLR 18/06 A2975 1030 42 1700 000/00 RMK AO2
14837KMSN MSN20120602202509406/02/12 20:25:31  5-MIN KMSN 030225Z 00000KT 10SM CLR 18/06 A2975 1030 46 1600 000/00 RMK AO2
14837KMSN MSN20120602203009406/02/12 20:30:31  5-MIN KMSN 030230Z 00000KT 10SM CLR 18/06 A2975 1020 46 1600 000/00 RMK AO2
14837KMSN MSN20120602203509406/02/12 20:35:31  5-MIN KMSN 030235Z 00000KT 10SM CLR 18/06 A2975 1020 46 1600 000/00 RMK AO2
14837KMSN MSN20120602204009406/02/12 20:40:31  5-MIN KMSN 030240Z 24003KT 10SM CLR 18/06 A2975 1020 44 1600 240/03 RMK AO2
14837KMSN MSN20120602204509406/02/12 20:45:31  5-MIN KMSN 030245Z 00000KT 10SM CLR 17/06 A2975 1020 47 1600 000/00 RMK AO2
14837KMSN MSN20120602205011706/02/12 20:50:31  5-MIN KMSN 030250Z 00000KT 10SM CLR 17/06 A2975 1020 49 1500 000/00 RMK AO2 SLP072 T01670061 53004
14837KMSN MSN20120602205509406/02/12 20:55:31  5-MIN KMSN 030255Z 00000KT 10SM CLR 17/07 A2975 1020 51 1500 000/00 RMK AO2
14837KMSN MSN20120602210009406/02/12 21:00:31  5-MIN KMSN 030300Z 00000KT 10SM CLR 17/07 A2976 1020 51 1500 000/00 RMK AO2
14837KMSN MSN20120602210509406/02/12 21:05:31  5-MIN KMSN 030305Z 00000KT 10SM CLR 17/06 A2976 1020 47 1600 000/00 RMK AO2
14837KMSN MSN20120602211009406/02/12 21:10:31  5-MIN KMSN 030310Z 00000KT 10SM CLR 17/07 A2976 1010 51 1500 000/00 RMK AO2
14837KMSN MSN20120602211509406/02/12 21:15:31  5-MIN KMSN 030315Z 00000KT 10SM CLR 17/07 A2976 1010 51 1500 000/00 RMK AO2
14837KMSN MSN20120602212009406/02/12 21:20:31  5-MIN KMSN 030320Z 00000KT 10SM CLR 17/06 A2976 1010 47 1600 000/00 RMK AO2
14837KMSN MSN20120602212509406/02/12 21:25:31  5-MIN KMSN 030325Z 00000KT 10SM CLR 17/07 A2976 1010 51 1500 000/00 RMK AO2
14837KMSN MSN20120602213009406/02/12 21:30:31  5-MIN KMSN 030330Z 23003KT 10SM CLR 17/07 A2976 1010 51 1500 230/03 RMK AO2
14837KMSN MSN20120602213509406/02/12 21:35:31  5-MIN KMSN 030335Z 00000KT 10SM CLR 17/07 A2976 1010 51 1500 000/00 RMK AO2
14837KMSN MSN20120602214009406/02/12 21:40:31  5-MIN KMSN 030340Z 00000KT 10SM CLR 17/07 A2976 1010 51 1500 000/00 RMK AO2
14837KMSN MSN20120602214509406/02/12 21:45:31  5-MIN KMSN 030345Z VRB03KT 10SM CLR 17/06 A2976 1010 47 1500 VRB/03 RMK AO2
14837KMSN MSN20120602215011106/02/12 21:50:31  5-MIN KMSN 030350Z VRB03KT 10SM CLR 17/06 A2976 1010 47 1500 VRB/03 RMK AO2 SLP075 T01720061
14837KMSN MSN20120602215509406/02/12 21:55:31  5-MIN KMSN 030355Z 00000KT 10SM CLR 17/06 A2976 1010 47 1500 000/00 RMK AO2
14837KMSN MSN20120602220009406/02/12 22:00:31  5-MIN KMSN 030400Z VRB03KT 10SM CLR 17/07 A2976 1010 51 1500 VRB/03 RMK AO2
14837KMSN MSN20120602220509406/02/12 22:05:31  5-MIN KMSN 030405Z 00000KT 10SM CLR 17/06 A2976 1010 47 1500 000/00 RMK AO2
14837KMSN MSN20120602221009406/02/12 22:10:31  5-MIN KMSN 030410Z 00000KT 10SM CLR 17/06 A2977 1010 47 1500 000/00 RMK AO2
14837KMSN MSN20120602221509406/02/12 22:15:31  5-MIN KMSN 030415Z 00000KT 10SM CLR 17/07 A2977 1010 51 1500 000/00 RMK AO2
14837KMSN MSN20120602222009406/02/12 22:20:31  5-MIN KMSN 030420Z 00000KT 10SM CLR 17/07 A2977 1010 49 1500 000/00 RMK AO2
14837KMSN MSN20120602222509406/02/12 22:25:31  5-MIN KMSN 030425Z 00000KT 10SM CLR 17/07 A2977 1010 49 1500 000/00 RMK AO2
14837KMSN MSN20120602223009406/02/12 22:30:31  5-MIN KMSN 030430Z 00000KT 10SM CLR 17/07 A2977 1010 51 1500 000/00 RMK AO2
14837KMSN MSN20120602223509406/02/12 22:35:31  5-MIN KMSN 030435Z 00000KT 10SM CLR 17/07 A2977 1010 51 1500 000/00 RMK AO2
14837KMSN MSN20120602224009406/02/12 22:40:31  5-MIN KMSN 030440Z 00000KT 10SM CLR 16/07 A2977 1000 53 1400 000/00 RMK AO2
14837KMSN MSN20120602224509406/02/12 22:45:31  5-MIN KMSN 030445Z 00000KT 10SM CLR 16/07 A2977 1000 53 1400 000/00 RMK AO2
14837KMSN MSN20120602225011106/02/12 22:50:31  5-MIN KMSN 030450Z 00000KT 10SM CLR 16/07 A2977 1000 55 1400 000/00 RMK AO2 SLP078 T01610072
14837KMSN MSN20120602225509406/02/12 22:55:31  5-MIN KMSN 030455Z 00000KT 10SM CLR 16/07 A2977 1000 53 1400 000/00 RMK AO2
14837KMSN MSN20120602230009406/02/12 23:00:31  5-MIN KMSN 030500Z 00000KT 10SM CLR 16/07 A2977 1000 55 1400 000/00 RMK AO2
14837KMSN MSN20120602230509406/02/12 23:05:31  5-MIN KMSN 030505Z VRB03KT 10SM CLR 16/07 A2977 1000 53 1400 VRB/03 RMK AO2
14837KMSN MSN20120602231009406/02/12 23:10:31  5-MIN KMSN 030510Z VRB03KT 10SM CLR 16/07 A2977 1000 53 1400 VRB/03 RMK AO2
14837KMSN MSN20120602231509406/02/12 23:15:31  5-MIN KMSN 030515Z 00000KT 10SM CLR 17/07 A2977 1000 51 1500 000/00 RMK AO2
14837KMSN MSN20120602232009406/02/12 23:20:31  5-MIN KMSN 030520Z VRB03KT 10SM CLR 17/07 A2977 1000 51 1500 VRB/03 RMK AO2
14837KMSN MSN20120602232509406/02/12 23:25:31  5-MIN KMSN 030525Z 00000KT 10SM CLR 16/07 A2977 1000 53 1400 000/00 RMK AO2
14837KMSN MSN20120602233009406/02/12 23:30:31  5-MIN KMSN 030530Z 00000KT 10SM CLR 16/07 A2977 1000 55 1400 000/00 RMK AO2
14837KMSN MSN20120602233509406/02/12 23:35:31  5-MIN KMSN 030535Z 00000KT 10SM CLR 16/07 A2977 1000 55 1400 000/00 RMK AO2
14837KMSN MSN20120602234009406/02/12 23:40:31  5-MIN KMSN 030540Z 00000KT 10SM CLR 16/07 A2977 1000 55 1400 000/00 RMK AO2
14837KMSN MSN20120602234509406/02/12 23:45:31  5-MIN KMSN 030545Z 00000KT 10SM CLR 16/07 A2977 1000 57 1300 000/00 RMK AO2
14837KMSN MSN20120602235013906/02/12 23:50:31  5-MIN KMSN 030550Z VRB03KT 10SM CLR 16/07 A2977 1000 57 1300 VRB/03 RMK AO2 SLP079 T01560072 10222 20156 402390111 53011
14837KMSN MSN20120602235509406/02/12 23:55:31  5-MIN KMSN 030555Z 27005KT 10SM CLR 16/07 A2977 1000 55 1400 270/05 RMK AO2
14837KMSN MSN20120603000009406/03/12 00:00:32  5-MIN KMSN 030600Z 00000KT 10SM CLR 16/07 A2977 1000 57 1300 000/00 RMK AO2
14837KMSN MSN20120603000509406/03/12 00:05:31  5-MIN KMSN 030605Z VRB04KT 10SM CLR 16/07 A2977 1000 55 1400 VRB/04 RMK AO2
14837KMSN MSN20120603001009406/03/12 00:10:31  5-MIN KMSN 030610Z VRB03KT 10SM CLR 16/07 A2977 1000 57 1300 VRB/03 RMK AO2
14837KMSN MSN20120603001509406/03/12 00:15:31  5-MIN KMSN 030615Z VRB03KT 10SM CLR 16/07 A2977 1000 57 1300 VRB/03 RMK AO2
14837KMSN MSN20120603002009406/03/12 00:20:31  5-MIN KMSN 030620Z VRB03KT 10SM CLR 16/07 A2978 1000 57 1300 VRB/03 RMK AO2
14837KMSN MSN20120603002509406/03/12 00:25:31  5-MIN KMSN 030625Z 27003KT 10SM CLR 16/07 A2977 1000 57 1300 280/03 RMK AO2
14837KMSN MSN20120603003009406/03/12 00:30:31  5-MIN KMSN 030630Z VRB03KT 10SM CLR 16/07 A2977 1000 57 1300 VRB/03 RMK AO2
14837KMSN MSN20120603003509406/03/12 00:35:31  5-MIN KMSN 030635Z VRB03KT 10SM CLR 16/07 A2977 1000 57 1300 VRB/03 RMK AO2
14837KMSN MSN20120603004009406/03/12 00:40:31  5-MIN KMSN 030640Z VRB03KT 10SM CLR 15/07 A2977 1000 59 1300 VRB/03 RMK AO2
14837KMSN MSN20120603004509406/03/12 00:45:31  5-MIN KMSN 030645Z 28003KT 10SM CLR 15/07 A2977 1000 59 1300 280/03 RMK AO2
14837KMSN MSN20120603005011106/03/12 00:50:31  5-MIN KMSN 030650Z VRB04KT 10SM CLR 15/07 A2977 1000 59 1300 VRB/04 RMK AO2 SLP080 T01500072
14837KMSN MSN20120603005509406/03/12 00:55:31  5-MIN KMSN 030655Z 00000KT 10SM CLR 16/07 A2978 1000 57 1300 000/00 RMK AO2
14837KMSN MSN20120603010009406/03/12 01:00:31  5-MIN KMSN 030700Z 00000KT 10SM CLR 15/07 A2978 1000 59 1300 000/00 RMK AO2
14837KMSN MSN20120603010509306/03/12 01:05:31  5-MIN KMSN 030705Z VRB03KT 10SM CLR 15/07 A2978 990 59 1300 VRB/03 RMK AO2
14837KMSN MSN20120603011009406/03/12 01:10:31  5-MIN KMSN 030710Z VRB03KT 10SM CLR 15/07 A2978 1000 59 1300 VRB/03 RMK AO2
14837KMSN MSN20120603011509406/03/12 01:15:31  5-MIN KMSN 030715Z VRB06KT 10SM CLR 15/07 A2978 1000 59 1300 VRB/06 RMK AO2
14837KMSN MSN20120603012009606/03/12 01:20:31  5-MIN KMSN 030720Z 27003KT 10SM CLR 15/07 A2978 1000 59 1300 270/03 RMK AO2 $
14837KMSN MSN20120603012509606/03/12 01:25:31  5-MIN KMSN 030725Z 27003KT 10SM CLR 15/07 A2978 1000 59 1300 270/03 RMK AO2 $
14837KMSN MSN20120603013009606/03/12 01:30:31  5-MIN KMSN 030730Z VRB03KT 10SM CLR 15/07 A2978 1000 59 1300 VRB/03 RMK AO2 $
14837KMSN MSN20120603013509606/03/12 01:35:31  5-MIN KMSN 030735Z VRB03KT 10SM CLR 15/07 A2978 1000 59 1300 VRB/03 RMK AO2 $
14837KMSN MSN20120603014009606/03/12 01:40:31  5-MIN KMSN 030740Z 15004KT 10SM CLR 14/07 A2977 1000 61 1200 150/04 RMK AO2 $
14837KMSN MSN20120603014509606/03/12 01:45:31  5-MIN KMSN 030745Z 15004KT 10SM CLR 14/07 A2977 1000 61 1200 150/04 RMK AO2 $
14837KMSN MSN20120603015011306/03/12 01:50:31  5-MIN KMSN 030750Z 00000KT 10SM CLR 14/07 A2977 1000 61 1200 000/00 RMK AO2 SLP080 T01440072 $
14837KMSN MSN20120603015509606/03/12 01:55:31  5-MIN KMSN 030755Z 00000KT 10SM CLR 14/07 A2977 1000 61 1200 000/00 RMK AO2 $
14837KMSN MSN20120603020009606/03/12 02:00:31  5-MIN KMSN 030800Z 00000KT 10SM CLR 14/07 A2977 1000 64 1100 000/00 RMK AO2 $
14837KMSN MSN20120603020509606/03/12 02:05:31  5-MIN KMSN 030805Z 00000KT 10SM CLR 14/07 A2978 1000 64 1100 000/00 RMK AO2 $
14837KMSN MSN20120603021009606/03/12 02:10:31  5-MIN KMSN 030810Z 27003KT 10SM CLR 14/07 A2977 1000 61 1200 270/03 RMK AO2 $
14837KMSN MSN20120603021509606/03/12 02:15:31  5-MIN KMSN 030815Z 27003KT 10SM CLR 14/07 A2978 1000 61 1200 270/03 RMK AO2 $
14837KMSN MSN20120603022009606/03/12 02:20:31  5-MIN KMSN 030820Z 27003KT 10SM CLR 14/07 A2978 1000 59 1200 270/03 RMK AO2 $
14837KMSN MSN20120603022509506/03/12 02:25:31  5-MIN KMSN 030825Z 27003KT 10SM CLR 14/07 A2978 990 61 1200 270/03 RMK AO2 $
14837KMSN MSN20120603023009506/03/12 02:30:31  5-MIN KMSN 030830Z 00000KT 10SM CLR 14/07 A2978 990 61 1200 000/00 RMK AO2 $
14837KMSN MSN20120603023509506/03/12 02:35:31  5-MIN KMSN 030835Z 00000KT 10SM CLR 14/07 A2978 990 64 1100 000/00 RMK AO2 $
14837KMSN MSN20120603024009506/03/12 02:40:31  5-MIN KMSN 030840Z 00000KT 10SM CLR 14/07 A2979 990 64 1100 000/00 RMK AO2 $
14837KMSN MSN20120603024509506/03/12 02:45:31  5-MIN KMSN 030845Z 00000KT 10SM CLR 14/07 A2979 990 64 1100 000/00 RMK AO2 $
14837KMSN MSN20120603025011806/03/12 02:50:31  5-MIN KMSN 030850Z 00000KT 10SM CLR 14/07 A2979 990 64 1100 000/00 RMK AO2 SLP084 T01390072 51006 $
14837KMSN MSN20120603025509506/03/12 02:55:31  5-MIN KMSN 030855Z 00000KT 10SM CLR 13/07 A2979 990 66 1100 000/00 RMK AO2 $
14837KMSN MSN20120603030009506/03/12 03:00:31  5-MIN KMSN 030900Z 00000KT 10SM CLR 13/07 A2979 990 64 1100 000/00 RMK AO2 $
14837KMSN MSN20120603030509406/03/12 03:05:31  5-MIN KMSN 030905Z 00000KT 10SM CLR 12/07 A2979 990 68 900 000/00 RMK AO2 $
14837KMSN MSN20120603031009406/03/12 03:10:31  5-MIN KMSN 030910Z 00000KT 10SM CLR 12/07 A2979 990 68 900 000/00 RMK AO2 $
14837KMSN MSN20120603031509406/03/12 03:15:31  5-MIN KMSN 030915Z 00000KT 10SM CLR 12/07 A2979 990 71 900 000/00 RMK AO2 $
14837KMSN MSN20120603032009406/03/12 03:20:31  5-MIN KMSN 030920Z 00000KT 10SM CLR 12/07 A2978 990 68 900 000/00 RMK AO2 $
14837KMSN MSN20120603032509506/03/12 03:25:31  5-MIN KMSN 030925Z 00000KT 10SM CLR 13/07 A2979 990 66 1000 000/00 RMK AO2 $
14837KMSN MSN20120603033009506/03/12 03:30:31  5-MIN KMSN 030930Z 00000KT 10SM CLR 13/07 A2979 990 66 1000 000/00 RMK AO2 $
14837KMSN MSN20120603033509406/03/12 03:35:31  5-MIN KMSN 030935Z 00000KT 10SM CLR 12/07 A2979 990 68 900 000/00 RMK AO2 $
14837KMSN MSN20120603034009506/03/12 03:40:31  5-MIN KMSN 030940Z 00000KT 10SM CLR 13/07 A2979 990 66 1000 000/00 RMK AO2 $
14837KMSN MSN20120603034509506/03/12 03:45:31  5-MIN KMSN 030945Z 00000KT 10SM CLR 13/07 A2979 990 66 1100 000/00 RMK AO2 $
14837KMSN MSN20120603035011106/03/12 03:50:31  5-MIN KMSN 030950Z 00000KT 10SM CLR 12/07 A2979 990 68 900 000/00 RMK AO2 SLP084 T01220067 $
14837KMSN MSN20120603035509406/03/12 03:55:31  5-MIN KMSN 030955Z 00000KT 10SM CLR 12/07 A2978 990 68 900 000/00 RMK AO2 $
14837KMSN MSN20120603040009406/03/12 04:00:31  5-MIN KMSN 031000Z 00000KT 10SM CLR 12/07 A2979 990 71 900 000/00 RMK AO2 $
14837KMSN MSN20120603040509406/03/12 04:05:31  5-MIN KMSN 031005Z 00000KT 10SM CLR 11/07 A2979 980 74 800 000/00 RMK AO2 $
14837KMSN MSN20120603041009406/03/12 04:10:31  5-MIN KMSN 031010Z 00000KT 10SM CLR 11/07 A2979 980 74 800 000/00 RMK AO2 $
14837KMSN MSN20120603041509406/03/12 04:15:31  5-MIN KMSN 031015Z 00000KT 10SM CLR 12/07 A2979 980 71 900 000/00 RMK AO2 $
14837KMSN MSN20120603042009406/03/12 04:20:31  5-MIN KMSN 031020Z 00000KT 10SM CLR 12/07 A2979 980 71 900 000/00 RMK AO2 $
14837KMSN MSN20120603042509406/03/12 04:25:31  5-MIN KMSN 031025Z 00000KT 10SM CLR 12/07 A2979 980 71 900 000/00 RMK AO2 $
14837KMSN MSN20120603043009406/03/12 04:30:31  5-MIN KMSN 031030Z 00000KT 10SM CLR 11/07 A2979 980 77 700 000/00 RMK AO2 $
14837KMSN MSN20120603043509406/03/12 04:35:31  5-MIN KMSN 031035Z 00000KT 10SM CLR 11/07 A2979 980 77 700 000/00 RMK AO2 $
14837KMSN MSN20120603044009406/03/12 04:40:31  5-MIN KMSN 031040Z 00000KT 10SM CLR 11/07 A2979 980 74 800 000/00 RMK AO2 $
14837KMSN MSN20120603044509406/03/12 04:45:31  5-MIN KMSN 031045Z 00000KT 10SM CLR 11/07 A2979 980 74 800 000/00 RMK AO2 $
14837KMSN MSN20120603045011106/03/12 04:50:31  5-MIN KMSN 031050Z 00000KT 10SM CLR 11/06 A2980 980 74 700 000/00 RMK AO2 SLP088 T01060061 $
14837KMSN MSN20120603045509406/03/12 04:55:31  5-MIN KMSN 031055Z 00000KT 10SM CLR 11/07 A2980 980 77 700 000/00 RMK AO2 $
14837KMSN MSN20120603050009406/03/12 05:00:31  5-MIN KMSN 031100Z 00000KT 10SM CLR 11/07 A2980 980 74 800 000/00 RMK AO2 $
14837KMSN MSN20120603050509406/03/12 05:05:31  5-MIN KMSN 031105Z 00000KT 10SM CLR 12/07 A2980 980 71 900 000/00 RMK AO2 $
14837KMSN MSN20120603051009506/03/12 05:10:31  5-MIN KMSN 031110Z 00000KT 10SM CLR 13/07 A2980 980 69 1000 000/00 RMK AO2 $
14837KMSN MSN20120603051509506/03/12 05:15:31  5-MIN KMSN 031115Z 00000KT 10SM CLR 13/07 A2980 970 66 1000 000/00 RMK AO2 $
14837KMSN MSN20120603052009506/03/12 05:20:31  5-MIN KMSN 031120Z 00000KT 10SM CLR 13/07 A2980 970 66 1000 000/00 RMK AO2 $
14837KMSN MSN20120603052509506/03/12 05:25:31  5-MIN KMSN 031125Z 00000KT 10SM CLR 14/08 A2981 970 66 1100 000/00 RMK AO2 $
14837KMSN MSN20120603053009506/03/12 05:30:31  5-MIN KMSN 031130Z 00000KT 10SM CLR 14/08 A2981 970 66 1100 000/00 RMK AO2 $
14837KMSN MSN20120603053509506/03/12 05:35:31  5-MIN KMSN 031135Z 00000KT 10SM CLR 14/08 A2981 960 69 1100 000/00 RMK AO2 $
14837KMSN MSN20120603054009506/03/12 05:40:31  5-MIN KMSN 031140Z 00000KT 10SM CLR 14/08 A2981 960 66 1200 000/00 RMK AO2 $
14837KMSN MSN20120603054509506/03/12 05:45:31  5-MIN KMSN 031145Z 00000KT 10SM CLR 14/08 A2981 960 66 1200 000/00 RMK AO2 $
14837KMSN MSN20120603055013006/03/12 05:50:31  5-MIN KMSN 031150Z 00000KT 10SM CLR 15/08 A2981 970 64 1200 000/00 RMK AO2 SLP092 T01500083 10161 20100 53005 $
14837KMSN MSN20120603055509506/03/12 05:55:31  5-MIN KMSN 031155Z 00000KT 10SM CLR 16/08 A2981 970 62 1300 000/00 RMK AO2 $
14837KMSN MSN20120603060009506/03/12 06:00:31  5-MIN KMSN 031200Z 30003KT 10SM CLR 16/08 A2981 970 62 1300 300/03 RMK AO2 $
14837KMSN MSN20120603060509506/03/12 06:05:31  5-MIN KMSN 031205Z 30004KT 10SM CLR 16/08 A2981 970 62 1300 300/04 RMK AO2 $
14837KMSN MSN20120603061009506/03/12 06:10:31  5-MIN KMSN 031210Z 29003KT 10SM CLR 16/08 A2981 970 62 1300 300/03 RMK AO2 $
14837KMSN MSN20120603061509506/03/12 06:15:31  5-MIN KMSN 031215Z 30004KT 10SM CLR 16/08 A2981 970 62 1300 300/04 RMK AO2 $
14837KMSN MSN20120603062009506/03/12 06:20:31  5-MIN KMSN 031220Z 00000KT 10SM CLR 16/08 A2981 970 59 1400 000/00 RMK AO2 $
14837KMSN MSN20120603062509506/03/12 06:25:31  5-MIN KMSN 031225Z 32003KT 10SM CLR 17/09 A2981 970 60 1400 320/03 RMK AO2 $
14837KMSN MSN20120603063009506/03/12 06:30:31  5-MIN KMSN 031230Z 31004KT 10SM CLR 17/09 A2981 960 60 1400 310/04 RMK AO2 $
14837KMSN MSN20120603063509506/03/12 06:35:31  5-MIN KMSN 031235Z 30005KT 10SM CLR 17/09 A2982 960 60 1400 300/05 RMK AO2 $
14837KMSN MSN20120603064009506/03/12 06:40:31  5-MIN KMSN 031240Z VRB05KT 10SM CLR 17/09 A2982 960 57 1500 VRB/05 RMK AO2 $
14837KMSN MSN20120603064509506/03/12 06:45:31  5-MIN KMSN 031245Z 28003KT 10SM CLR 17/09 A2982 960 57 1500 290/03 RMK AO2 $
14837KMSN MSN20120603065011206/03/12 06:50:31  5-MIN KMSN 031250Z VRB05KT 10SM CLR 18/09 A2982 960 58 1500 VRB/05 RMK AO2 SLP095 T01780094 $
14837KMSN MSN20120603065509506/03/12 06:55:31  5-MIN KMSN 031255Z VRB04KT 10SM CLR 18/09 A2982 960 58 1500 VRB/04 RMK AO2 $
14837KMSN MSN20120603070009506/03/12 07:00:31  5-MIN KMSN 031300Z 29004KT 10SM CLR 18/09 A2982 950 58 1500 300/04 RMK AO2 $
14837KMSN MSN20120603070509506/03/12 07:05:31  5-MIN KMSN 031305Z 29006KT 10SM CLR 18/09 A2982 950 56 1600 290/06 RMK AO2 $
14837KMSN MSN20120603071009506/03/12 07:10:31  5-MIN KMSN 031310Z 29005KT 10SM CLR 18/09 A2982 950 56 1600 290/05 RMK AO2 $
14837KMSN MSN20120603071509506/03/12 07:15:31  5-MIN KMSN 031315Z 28006KT 10SM CLR 19/10 A2983 950 56 1700 280/06 RMK AO2 $
14837KMSN MSN20120603072009506/03/12 07:20:31  5-MIN KMSN 031320Z 29007KT 10SM CLR 19/10 A2983 950 54 1700 290/07 RMK AO2 $
14837KMSN MSN20120603072509506/03/12 07:25:31  5-MIN KMSN 031325Z VRB06KT 10SM CLR 19/11 A2983 950 56 1700 VRB/06 RMK AO2 $
14837KMSN MSN20120603073009506/03/12 07:30:31  5-MIN KMSN 031330Z VRB05KT 10SM CLR 19/10 A2982 950 54 1700 VRB/05 RMK AO2 $
14837KMSN MSN20120603073509506/03/12 07:35:31  5-MIN KMSN 031335Z VRB05KT 10SM CLR 20/11 A2982 950 54 1800 VRB/05 RMK AO2 $
14837KMSN MSN20120603074009506/03/12 07:40:31  5-MIN KMSN 031340Z VRB04KT 10SM CLR 20/11 A2982 950 54 1800 VRB/04 RMK AO2 $
14837KMSN MSN20120603074509506/03/12 07:45:31  5-MIN KMSN 031345Z VRB04KT 10SM CLR 20/11 A2983 950 54 1800 VRB/04 RMK AO2 $
14837KMSN MSN20120603075011206/03/12 07:50:31  5-MIN KMSN 031350Z 29006KT 10SM CLR 21/11 A2983 950 52 1900 300/06 RMK AO2 SLP097 T02060106 $
14837KMSN MSN20120603075509506/03/12 07:55:31  5-MIN KMSN 031355Z 29005KT 10SM CLR 21/11 A2983 950 52 1900 290/05 RMK AO2 $
14837KMSN MSN20120603080009506/03/12 08:00:31  5-MIN KMSN 031400Z 29006KT 10SM CLR 21/11 A2983 950 52 1900 290/06 RMK AO2 $
14837KMSN MSN20120603080509506/03/12 08:05:31  5-MIN KMSN 031405Z 27007KT 10SM CLR 21/11 A2983 950 52 1900 270/07 RMK AO2 $
14837KMSN MSN20120603081009506/03/12 08:10:31  5-MIN KMSN 031410Z 27006KT 10SM CLR 21/11 A2983 950 50 1900 280/06 RMK AO2 $
14837KMSN MSN20120603081509506/03/12 08:15:31  5-MIN KMSN 031415Z VRB04KT 10SM CLR 21/11 A2983 950 52 1900 VRB/04 RMK AO2 $
14837KMSN MSN20120603082009306/03/12 08:20:31  5-MIN KMSN 031420Z VRB03KT 10SM CLR 21/11 A2983 950 52 1900 VRB/03 RMK AO2
14837KMSN MSN20120603082509306/03/12 08:25:31  5-MIN KMSN 031425Z 27006KT 10SM CLR 22/11 A2983 950 50 2000 270/06 RMK AO2
14837KMSN MSN20120603083009306/03/12 08:30:31  5-MIN KMSN 031430Z VRB06KT 10SM CLR 22/11 A2983 950 50 2000 VRB/06 RMK AO2
14837KMSN MSN20120603083509306/03/12 08:35:31  5-MIN KMSN 031435Z VRB05KT 10SM CLR 22/12 A2983 940 51 2000 VRB/05 RMK AO2
14837KMSN MSN20120603084009306/03/12 08:40:31  5-MIN KMSN 031440Z 29007KT 10SM CLR 22/11 A2984 940 49 2000 300/07 RMK AO2
14837KMSN MSN20120603084509306/03/12 08:45:31  5-MIN KMSN 031445Z 27004KT 10SM CLR 22/11 A2984 940 49 2000 270/04 RMK AO2
14837KMSN MSN20120603085011906/03/12 08:50:31  5-MIN KMSN 031450Z VRB05KT 10SM FEW045 23/11 A2984 940 47 2100 VRB/05 RMK AO2 SLP100 T02280111 53007
14837KMSN MSN20120603085509606/03/12 08:55:31  5-MIN KMSN 031455Z 29007KT 10SM FEW045 22/11 A2983 940 47 2000 290/07 RMK AO2
14837KMSN MSN20120603090009606/03/12 09:00:31  5-MIN KMSN 031500Z VRB06KT 10SM FEW045 22/11 A2983 940 49 2000 VRB/06 RMK AO2
14837KMSN MSN20120603090509606/03/12 09:05:31  5-MIN KMSN 031505Z VRB05KT 10SM FEW045 22/11 A2983 940 49 2000 VRB/05 RMK AO2
14837KMSN MSN20120603091009606/03/12 09:10:31  5-MIN KMSN 031510Z 30008KT 10SM FEW045 23/11 A2983 950 47 2100 300/08 RMK AO2
14837KMSN MSN20120603091509606/03/12 09:15:31  5-MIN KMSN 031515Z 30005KT 10SM FEW049 23/11 A2983 950 45 2100 300/05 RMK AO2
14837KMSN MSN20120603092009606/03/12 09:20:31  5-MIN KMSN 031520Z VRB06KT 10SM FEW048 23/11 A2983 950 47 2100 VRB/06 RMK AO2
14837KMSN MSN20120603092509606/03/12 09:25:31  5-MIN KMSN 031525Z VRB04KT 10SM FEW048 23/11 A2983 950 47 2100 VRB/04 RMK AO2
14837KMSN MSN20120603093009606/03/12 09:30:31  5-MIN KMSN 031530Z VRB05KT 10SM FEW048 23/11 A2983 950 47 2100 VRB/05 RMK AO2
14837KMSN MSN20120603093509606/03/12 09:35:31  5-MIN KMSN 031535Z 32005KT 10SM FEW048 23/11 A2983 950 45 2200 320/05 RMK AO2
14837KMSN MSN20120603094009606/03/12 09:40:31  5-MIN KMSN 031540Z VRB05KT 10SM FEW048 24/11 A2983 950 44 2200 VRB/05 RMK AO2
14837KMSN MSN20120603094509606/03/12 09:45:31  5-MIN KMSN 031545Z 29007KT 10SM FEW050 23/10 A2983 950 42 2200 290/07 RMK AO2
14837KMSN MSN20120603095011306/03/12 09:50:31  5-MIN KMSN 031550Z VRB06KT 10SM FEW050 24/11 A2983 940 42 2200 VRB/06 RMK AO2 SLP099 T02390106
14837KMSN MSN20120603095509606/03/12 09:55:31  5-MIN KMSN 031555Z VRB05KT 10SM FEW055 23/11 A2984 940 44 2200 VRB/05 RMK AO2
14837KMSN MSN20120603100010206/03/12 10:00:31  5-MIN KMSN 031600Z 31010G16KT 10SM FEW055 24/09 A2984 940 38 2200 310/10G16 RMK AO2
14837KMSN MSN20120603100510206/03/12 10:05:31  5-MIN KMSN 031605Z 31006G16KT 10SM FEW060 24/09 A2983 940 38 2200 310/06G16 RMK AO2
14837KMSN MSN20120603101010206/03/12 10:10:31  5-MIN KMSN 031610Z 27010G16KT 10SM FEW060 24/09 A2984 940 39 2200 280/10G16 RMK AO2
14837KMSN MSN20120603101511806/03/12 10:15:31  5-MIN KMSN 031615Z 29007G16KT 260V320 10SM FEW060 24/09 A2983 940 38 2300 300/07G16 260V320 RMK AO2
14837KMSN MSN20120603102011806/03/12 10:20:31  5-MIN KMSN 031620Z 30009G14KT 260V340 10SM FEW060 24/09 A2983 940 39 2200 300/09G14 260V340 RMK AO2
14837KMSN MSN20120603102510206/03/12 10:25:31  5-MIN KMSN 031625Z VRB06G14KT 10SM FEW060 24/09 A2983 940 36 2300 VRB/06G14 RMK AO2
14837KMSN MSN20120603103010206/03/12 10:30:31  5-MIN KMSN 031630Z VRB06G14KT 10SM FEW060 24/09 A2983 950 38 2300 VRB/06G14 RMK AO2
14837KMSN MSN20120603103510206/03/12 10:35:31  5-MIN KMSN 031635Z 28009G19KT 10SM FEW060 24/09 A2983 950 36 2300 280/09G19 RMK AO2
14837KMSN MSN20120603104011806/03/12 10:40:31  5-MIN KMSN 031640Z 28008G19KT 220V310 10SM FEW060 24/08 A2983 950 35 2200 280/08G19 220V310 RMK AO2
14837KMSN MSN20120603104510206/03/12 10:45:31  5-MIN KMSN 031645Z 27008G15KT 10SM FEW060 24/08 A2983 950 35 2300 270/08G15 RMK AO2
14837KMSN MSN20120603105011306/03/12 10:50:31  5-MIN KMSN 031650Z 30006KT 10SM FEW060 24/08 A2983 950 35 2300 300/06 RMK AO2 SLP098 T02440083
14837KMSN MSN20120603105511806/03/12 10:55:31  5-MIN KMSN 031655Z 29009G16KT 260V330 10SM FEW065 25/09 A2983 950 37 2400 300/09G16 260V330 RMK AO2
14837KMSN MSN20120603110010206/03/12 11:00:31  5-MIN KMSN 031700Z 31008G16KT 10SM FEW065 25/09 A2983 950 37 2400 310/08G16 RMK AO2
14837KMSN MSN20120603110509306/03/12 11:05:31  5-MIN KMSN 031705Z 30006KT 10SM CLR 25/09 A2983 950 37 2400 300/06 RMK AO2
14837KMSN MSN20120603111011806/03/12 11:10:31  5-MIN KMSN 031710Z 29007G15KT 250V330 10SM FEW065 25/09 A2983 950 37 2400 290/07G15 250V330 RMK AO2
14837KMSN MSN20120603111510206/03/12 11:15:31  5-MIN KMSN 031715Z VRB06G15KT 10SM FEW065 24/09 A2983 950 38 2300 VRB/06G15 RMK AO2
14837KMSN MSN20120603112011906/03/12 11:20:31  5-MIN KMSN 031720Z 27007KT 200V310 10SM FEW065 SCT080 25/09 A2983 950 37 2400 280/07 200V310 RMK AO2
14837KMSN MSN20120603112510206/03/12 11:25:31  5-MIN KMSN 031725Z 30007G16KT 10SM FEW065 25/09 A2983 950 35 2400 300/07G16 RMK AO2
14837KMSN MSN20120603113010206/03/12 11:30:31  5-MIN KMSN 031730Z VRB06G16KT 10SM FEW065 25/09 A2983 950 37 2400 VRB/06G16 RMK AO2
14837KMSN MSN20120603113510306/03/12 11:35:31  5-MIN KMSN 031735Z 32009KT 10SM FEW065 SCT080 26/10 A2982 950 37 2400 320/09 RMK AO2
14837KMSN MSN20120603114011906/03/12 11:40:31  5-MIN KMSN 031740Z 32007KT 270V330 10SM FEW065 SCT080 24/09 A2983 950 38 2300 320/07 270V330 RMK AO2
14837KMSN MSN20120603114509606/03/12 11:45:31  5-MIN KMSN 031745Z VRB05KT 10SM SCT065 24/09 A2982 950 36 2300 VRB/05 RMK AO2
14837KMSN MSN20120603115013106/03/12 11:50:31  5-MIN KMSN 031750Z 29007KT 10SM SCT065 24/09 A2983 950 38 2300 290/07 RMK AO2 SLP096 T02440094 10256 20156 51008
14837KMSN MSN20120603115509606/03/12 11:55:31  5-MIN KMSN 031755Z VRB05KT 10SM SCT070 25/09 A2982 950 37 2400 VRB/05 RMK AO2
14837KMSN MSN20120603120009606/03/12 12:00:31  5-MIN KMSN 031800Z 31006KT 10SM SCT070 26/10 A2982 950 36 2500 320/06 RMK AO2
14837KMSN MSN20120603120509606/03/12 12:05:31  5-MIN KMSN 031805Z 34010KT 10SM FEW065 26/09 A2982 950 34 2500 340/10 RMK AO2
14837KMSN MSN20120603121010206/03/12 12:10:31  5-MIN KMSN 031810Z 31006G14KT 10SM SCT070 26/10 A2982 960 37 2400 310/06G14 RMK AO2
14837KMSN MSN20120603121509606/03/12 12:15:31  5-MIN KMSN 031815Z 32006KT 10SM SCT070 25/09 A2982 960 35 2400 320/06 RMK AO2
14837KMSN MSN20120603122010206/03/12 12:20:31  5-MIN KMSN 031820Z 31007G15KT 10SM SCT070 25/09 A2982 960 37 2400 310/07G15 RMK AO2
14837KMSN MSN20120603122510206/03/12 12:25:31  5-MIN KMSN 031825Z 31007G15KT 10SM SCT075 26/10 A2982 960 36 2500 310/07G15 RMK AO2
14837KMSN MSN20120603123011206/03/12 12:30:31  5-MIN KMSN 031830Z 29008KT 250V340 10SM SCT075 26/09 A2982 960 34 2400 290/08 250V340 RMK AO2
14837KMSN MSN20120603123509606/03/12 12:35:31  5-MIN KMSN 031835Z 32008KT 10SM SCT075 26/09 A2982 960 33 2500 320/08 RMK AO2
14837KMSN MSN20120603124009606/03/12 12:40:31  5-MIN KMSN 031840Z 33006KT 10SM SCT075 26/09 A2982 960 34 2400 330/06 RMK AO2
14837KMSN MSN20120603124509606/03/12 12:45:31  5-MIN KMSN 031845Z 33006KT 10SM SCT080 26/10 A2982 960 36 2500 330/06 RMK AO2
14837KMSN MSN20120603125011306/03/12 12:50:31  5-MIN KMSN 031850Z 28008KT 10SM SCT080 26/09 A2982 960 34 2500 280/08 RMK AO2 SLP093 T02610094
14837KMSN MSN20120603125509606/03/12 12:55:31  5-MIN KMSN 031855Z 31007KT 10SM SCT080 26/09 A2982 960 34 2500 310/07 RMK AO2
14837KMSN MSN20120603130009606/03/12 13:00:31  5-MIN KMSN 031900Z 30005KT 10SM SCT075 26/09 A2981 960 34 2500 300/05 RMK AO2
14837KMSN MSN20120603130511206/03/12 13:05:31  5-MIN KMSN 031905Z 28007KT 250V310 10SM SCT075 27/09 A2982 960 33 2600 280/07 250V310 RMK AO2
14837KMSN MSN20120603131009606/03/12 13:10:31  5-MIN KMSN 031910Z 32006KT 10SM FEW075 26/09 A2982 960 34 2500 320/06 RMK AO2
14837KMSN MSN20120603131511206/03/12 13:15:31  5-MIN KMSN 031915Z 31007KT 280V010 10SM FEW075 26/09 A2981 960 33 2500 310/07 280V010 RMK AO2
14837KMSN MSN20120603132010206/03/12 13:20:31  5-MIN KMSN 031920Z 33009G14KT 10SM FEW075 26/08 A2981 960 32 2500 330/09G14 RMK AO2
14837KMSN MSN20120603132509606/03/12 13:25:31  5-MIN KMSN 031925Z 33009KT 10SM FEW075 26/09 A2981 960 33 2500 330/09 RMK AO2
14837KMSN MSN20120603133009606/03/12 13:30:31  5-MIN KMSN 031930Z 32009KT 10SM FEW075 26/08 A2981 960 32 2500 320/09 RMK AO2
14837KMSN MSN20120603133509606/03/12 13:35:31  5-MIN KMSN 031935Z VRB06KT 10SM FEW075 26/09 A2981 960 34 2400 VRB/06 RMK AO2
14837KMSN MSN20120603134009606/03/12 13:40:31  5-MIN KMSN 031940Z 33009KT 10SM FEW075 26/09 A2981 960 33 2500 340/09 RMK AO2
14837KMSN MSN20120603134509606/03/12 13:45:31  5-MIN KMSN 031945Z 31006KT 10SM FEW080 26/08 A2982 960 32 2400 310/06 RMK AO2
14837KMSN MSN20120603135011306/03/12 13:50:31  5-MIN KMSN 031950Z 30007KT 10SM FEW080 26/08 A2982 960 33 2400 310/07 RMK AO2 SLP093 T02560083
14837KMSN MSN20120603135509606/03/12 13:55:31  5-MIN KMSN 031955Z 30007KT 10SM FEW080 26/08 A2982 960 33 2400 310/07 RMK AO2
14837KMSN MSN20120603140010206/03/12 14:00:31  5-MIN KMSN 032000Z 33010G14KT 10SM SCT075 26/09 A2982 960 34 2400 330/10G14 RMK AO2
14837KMSN MSN20120603140510206/03/12 14:05:31  5-MIN KMSN 032005Z 34009G15KT 10SM BKN075 26/09 A2981 960 34 2400 340/09G15 RMK AO2
14837KMSN MSN20120603141010206/03/12 14:10:31  5-MIN KMSN 032010Z 32008G17KT 10SM BKN075 25/09 A2981 960 35 2400 330/08G17 RMK AO2
14837KMSN MSN20120603141510206/03/12 14:15:31  5-MIN KMSN 032015Z 31006G17KT 10SM SCT075 25/09 A2981 960 35 2400 310/06G17 RMK AO2
14837KMSN MSN20120603142009606/03/12 14:20:31  5-MIN KMSN 032020Z 31004KT 10SM SCT075 25/09 A2981 970 37 2400 310/04 RMK AO2
14837KMSN MSN20120603142511206/03/12 14:25:31  5-MIN KMSN 032025Z 31007KT 280V350 10SM SCT075 26/09 A2981 960 35 2400 310/07 280V350 RMK AO2
14837KMSN MSN20120603143009606/03/12 14:30:31  5-MIN KMSN 032030Z 32006KT 10SM SCT075 25/09 A2981 970 35 2400 320/06 RMK AO2
14837KMSN MSN20120603143509606/03/12 14:35:31  5-MIN KMSN 032035Z VRB05KT 10SM SCT075 26/09 A2981 970 35 2400 VRB/05 RMK AO2
14837KMSN MSN20120603144009606/03/12 14:40:31  5-MIN KMSN 032040Z 00000KT 10SM SCT075 26/09 A2981 970 35 2400 000/00 RMK AO2
14837KMSN MSN20120603144509606/03/12 14:45:31  5-MIN KMSN 032045Z 31007KT 10SM SCT075 26/09 A2981 970 35 2400 310/07 RMK AO2
14837KMSN MSN20120603145011906/03/12 14:50:31  5-MIN KMSN 032050Z VRB06KT 10SM FEW075 25/08 A2981 970 33 2400 VRB/06 RMK AO2 SLP090 T02500078 58003
14837KMSN MSN20120603145509606/03/12 14:55:31  5-MIN KMSN 032055Z 31007KT 10SM FEW075 25/08 A2981 970 33 2400 310/07 RMK AO2
14837KMSN MSN20120603150009606/03/12 15:00:31  5-MIN KMSN 032100Z 00000KT 10SM FEW075 26/09 A2981 970 34 2400 000/00 RMK AO2
14837KMSN MSN20120603150511206/03/12 15:05:31  5-MIN KMSN 032105Z 31008KT 260V330 10SM FEW075 27/10 A2981 970 34 2600 310/08 260V330 RMK AO2
14837KMSN MSN20120603151010906/03/12 15:10:31  5-MIN KMSN 032110Z 31008KT 260V330 10SM CLR 27/11 A2981 970 37 2600 310/08 260V330 RMK AO2
14837KMSN MSN20120603151509906/03/12 15:15:31  5-MIN KMSN 032115Z 29007G14KT 10SM CLR 26/10 A2980 970 36 2500 290/07G14 RMK AO2
14837KMSN MSN20120603152011506/03/12 15:20:31  5-MIN KMSN 032120Z 28007G15KT 250V310 10SM CLR 26/10 A2980 970 36 2500 280/07G15 250V310 RMK AO2
14837KMSN MSN20120603152509906/03/12 15:25:31  5-MIN KMSN 032125Z 30009G15KT 10SM CLR 26/10 A2980 970 36 2500 300/09G15 RMK AO2
14837KMSN MSN20120603153009306/03/12 15:30:31  5-MIN KMSN 032130Z VRB06KT 10SM CLR 26/10 A2980 970 36 2500 VRB/06 RMK AO2
14837KMSN MSN20120603153510906/03/12 15:35:31  5-MIN KMSN 032135Z 28007KT 240V300 10SM CLR 26/09 A2980 970 35 2500 280/07 240V300 RMK AO2
14837KMSN MSN20120603154009306/03/12 15:40:31  5-MIN KMSN 032140Z 30008KT 10SM CLR 25/09 A2981 970 35 2400 300/08 RMK AO2
14837KMSN MSN20120603154509306/03/12 15:45:31  5-MIN KMSN 032145Z 29006KT 10SM CLR 25/09 A2981 970 35 2400 290/06 RMK AO2
14837KMSN MSN20120603155011306/03/12 15:50:31  5-MIN KMSN 032150Z VRB05KT 10SM FEW075 26/09 A2980 970 35 2500 VRB/05 RMK AO2 SLP090 T02560094
14837KMSN MSN20120603155509306/03/12 15:55:31  5-MIN KMSN 032155Z 29006KT 10SM CLR 26/09 A2981 970 34 2500 290/06 RMK AO2
14837KMSN MSN20120603160009306/03/12 16:00:31  5-MIN KMSN 032200Z VRB05KT 10SM CLR 26/09 A2980 970 34 2500 VRB/05 RMK AO2
14837KMSN MSN20120603160509306/03/12 16:05:31  5-MIN KMSN 032205Z 29006KT 10SM CLR 25/09 A2980 970 35 2400 290/06 RMK AO2
14837KMSN MSN20120603161009306/03/12 16:10:31  5-MIN KMSN 032210Z 31006KT 10SM CLR 26/09 A2980 970 35 2500 310/06 RMK AO2
14837KMSN MSN20120603161509306/03/12 16:15:31  5-MIN KMSN 032215Z 28005KT 10SM CLR 26/09 A2980 980 34 2500 280/05 RMK AO2
14837KMSN MSN20120603162009306/03/12 16:20:31  5-MIN KMSN 032220Z VRB05KT 10SM CLR 26/09 A2980 980 34 2500 VRB/05 RMK AO2
14837KMSN MSN20120603162509306/03/12 16:25:31  5-MIN KMSN 032225Z VRB04KT 10SM CLR 25/09 A2980 970 37 2400 VRB/04 RMK AO2
14837KMSN MSN20120603163009306/03/12 16:30:31  5-MIN KMSN 032230Z 30006KT 10SM CLR 26/10 A2980 970 37 2500 300/06 RMK AO2
14837KMSN MSN20120603163509306/03/12 16:35:31  5-MIN KMSN 032235Z 30003KT 10SM CLR 25/09 A2980 970 35 2400 300/03 RMK AO2
14837KMSN MSN20120603164009306/03/12 16:40:31  5-MIN KMSN 032240Z 30005KT 10SM CLR 25/09 A2980 980 35 2400 300/05 RMK AO2
14837KMSN MSN20120603164509306/03/12 16:45:31  5-MIN KMSN 032245Z VRB04KT 10SM CLR 24/09 A2980 980 38 2300 VRB/04 RMK AO2
14837KMSN MSN20120603165011306/03/12 16:50:31  5-MIN KMSN 032250Z 29003KT 10SM FEW075 24/09 A2980 980 36 2300 290/03 RMK AO2 SLP087 T02440089
14837KMSN MSN20120603165509306/03/12 16:55:31  5-MIN KMSN 032255Z 27006KT 10SM CLR 24/09 A2980 980 36 2300 280/06 RMK AO2
14837KMSN MSN20120603170009606/03/12 17:00:31  5-MIN KMSN 032300Z VRB04KT 10SM FEW120 24/09 A2980 980 36 2300 VRB/04 RMK AO2
14837KMSN MSN20120603170509606/03/12 17:05:31  5-MIN KMSN 032305Z 28005KT 10SM SCT120 24/08 A2980 980 35 2300 290/05 RMK AO2
14837KMSN MSN20120603171009606/03/12 17:10:31  5-MIN KMSN 032310Z 00000KT 10SM SCT120 24/08 A2980 980 36 2300 000/00 RMK AO2
14837KMSN MSN20120603171509606/03/12 17:15:31  5-MIN KMSN 032315Z 27004KT 10SM BKN120 24/08 A2980 980 36 2300 270/04 RMK AO2
14837KMSN MSN20120603172009606/03/12 17:20:31  5-MIN KMSN 032320Z VRB04KT 10SM SCT120 24/08 A2980 980 36 2300 VRB/04 RMK AO2
14837KMSN MSN20120603172509606/03/12 17:25:31  5-MIN KMSN 032325Z VRB04KT 10SM SCT120 24/09 A2980 970 38 2300 VRB/04 RMK AO2
14837KMSN MSN20120603173009606/03/12 17:30:31  5-MIN KMSN 032330Z VRB04KT 10SM BKN120 24/09 A2980 970 38 2300 VRB/04 RMK AO2
14837KMSN MSN20120603173509606/03/12 17:35:31  5-MIN KMSN 032335Z VRB03KT 10SM BKN120 24/09 A2981 970 38 2300 VRB/03 RMK AO2
14837KMSN MSN20120603174009606/03/12 17:40:31  5-MIN KMSN 032340Z 29003KT 10SM BKN120 24/09 A2981 970 38 2300 290/03 RMK AO2
14837KMSN MSN20120603174509606/03/12 17:45:31  5-MIN KMSN 032345Z VRB05KT 10SM BKN120 23/09 A2981 970 39 2200 VRB/05 RMK AO2
14837KMSN MSN20120603175014106/03/12 17:50:31  5-MIN KMSN 032350Z VRB03KT 10SM BKN120 23/08 A2981 970 38 2200 VRB/03 RMK AO2 SLP090 VIRGA OHD T02330083 10267 20233 58006
14837KMSN MSN20120603175509606/03/12 17:55:31  5-MIN KMSN 032355Z 28003KT 10SM OVC120 23/08 A2981 970 38 2200 280/03 RMK AO2
14837KMSN MSN20120603180009606/03/12 18:00:31  5-MIN KMSN 040000Z 29003KT 10SM OVC110 23/08 A2981 970 38 2200 290/03 RMK AO2
14837KMSN MSN20120603180509606/03/12 18:05:31  5-MIN KMSN 040005Z 29003KT 10SM OVC110 23/08 A2981 960 38 2200 300/03 RMK AO2
14837KMSN MSN20120603181009606/03/12 18:10:31  5-MIN KMSN 040010Z 00000KT 10SM OVC110 23/08 A2981 960 38 2200 000/00 RMK AO2
14837KMSN MSN20120603181509606/03/12 18:15:31  5-MIN KMSN 040015Z 00000KT 10SM OVC110 23/08 A2981 960 38 2200 000/00 RMK AO2
14837KMSN MSN20120603182009606/03/12 18:20:31  5-MIN KMSN 040020Z 00000KT 10SM OVC110 23/09 A2981 960 39 2200 000/00 RMK AO2
14837KMSN MSN20120603182509606/03/12 18:25:31  5-MIN KMSN 040025Z 00000KT 10SM OVC110 23/09 A2982 960 39 2200 000/00 RMK AO2
14837KMSN MSN20120603183009606/03/12 18:30:31  5-MIN KMSN 040030Z 27003KT 10SM OVC110 23/09 A2982 950 42 2100 270/03 RMK AO2
14837KMSN MSN20120603183509606/03/12 18:35:31  5-MIN KMSN 040035Z VRB03KT 10SM OVC110 23/09 A2982 960 42 2100 VRB/03 RMK AO2
14837KMSN MSN20120603184009606/03/12 18:40:31  5-MIN KMSN 040040Z VRB04KT 10SM OVC110 23/10 A2982 960 44 2100 VRB/04 RMK AO2
14837KMSN MSN20120603184509606/03/12 18:45:31  5-MIN KMSN 040045Z 27006KT 10SM OVC110 23/10 A2982 950 44 2100 280/06 RMK AO2
14837KMSN MSN20120603185011306/03/12 18:50:31  5-MIN KMSN 040050Z VRB03KT 10SM BKN110 22/11 A2982 950 47 2100 VRB/03 RMK AO2 SLP095 T02220106
14837KMSN MSN20120603185509606/03/12 18:55:31  5-MIN KMSN 040055Z 28005KT 10SM OVC110 22/11 A2983 950 47 2000 280/05 RMK AO2
14837KMSN MSN20120603190009606/03/12 19:00:31  5-MIN KMSN 040100Z 27005KT 10SM OVC110 22/11 A2983 950 47 2000 270/05 RMK AO2
14837KMSN MSN20120603190509606/03/12 19:05:31  5-MIN KMSN 040105Z 27004KT 10SM OVC110 22/11 A2983 950 49 2000 270/04 RMK AO2
14837KMSN MSN20120603191009606/03/12 19:10:31  5-MIN KMSN 040110Z 28004KT 10SM OVC110 22/11 A2983 950 49 2000 280/04 RMK AO2
14837KMSN MSN20120603191509606/03/12 19:15:31  5-MIN KMSN 040115Z 28003KT 10SM OVC110 22/11 A2983 950 49 2000 290/03 RMK AO2
14837KMSN MSN20120603192009606/03/12 19:20:31  5-MIN KMSN 040120Z 28005KT 10SM OVC100 22/11 A2983 950 49 2000 280/05 RMK AO2
14837KMSN MSN20120603192509606/03/12 19:25:31  5-MIN KMSN 040125Z 28005KT 10SM OVC100 22/10 A2983 950 47 2000 280/05 RMK AO2
14837KMSN MSN20120603193009606/03/12 19:30:31  5-MIN KMSN 040130Z 28007KT 10SM OVC100 22/10 A2983 940 47 2000 290/07 RMK AO2
14837KMSN MSN20120603193509606/03/12 19:35:31  5-MIN KMSN 040135Z 28004KT 10SM OVC110 22/10 A2984 940 47 2000 280/04 RMK AO2
14837KMSN MSN20120603194009606/03/12 19:40:31  5-MIN KMSN 040140Z 28006KT 10SM OVC110 21/10 A2984 940 48 1900 280/06 RMK AO2
14837KMSN MSN20120603194510306/03/12 19:45:31  5-MIN KMSN 040145Z 29005KT 10SM BKN100 OVC120 21/10 A2984 940 48 1900 290/05 RMK AO2
14837KMSN MSN20120603195012006/03/12 19:50:31  5-MIN KMSN 040150Z 29004KT 10SM BKN100 BKN120 21/11 A2984 940 50 1900 300/04 RMK AO2 SLP101 T02110106
14837KMSN MSN20120603195509606/03/12 19:55:31  5-MIN KMSN 040155Z 30003KT 10SM OVC110 21/11 A2984 930 50 1900 300/03 RMK AO2
14837KMSN MSN20120603200009606/03/12 20:00:31  5-MIN KMSN 040200Z 30004KT 10SM OVC110 21/11 A2985 930 52 1800 300/04 RMK AO2
14837KMSN MSN20120603200510306/03/12 20:05:31  5-MIN KMSN 040205Z 31005KT 10SM BKN100 OVC120 21/11 A2985 930 52 1800 310/05 RMK AO2
14837KMSN MSN20120603201009606/03/12 20:10:31  5-MIN KMSN 040210Z 31004KT 10SM OVC100 21/11 A2985 930 52 1800 310/04 RMK AO2
14837KMSN MSN20120603201509606/03/12 20:15:31  5-MIN KMSN 040215Z VRB03KT 10SM OVC100 21/11 A2985 930 52 1800 VRB/03 RMK AO2
14837KMSN MSN20120603202009606/03/12 20:20:31  5-MIN KMSN 040220Z 29006KT 10SM OVC100 21/11 A2985 930 52 1800 290/06 RMK AO2
14837KMSN MSN20120603202509606/03/12 20:25:31  5-MIN KMSN 040225Z 29005KT 10SM OVC100 21/11 A2985 930 52 1800 290/05 RMK AO2
14837KMSN MSN20120603203009606/03/12 20:30:31  5-MIN KMSN 040230Z 29005KT 10SM OVC100 21/11 A2986 920 52 1800 290/05 RMK AO2
14837KMSN MSN20120603203509606/03/12 20:35:31  5-MIN KMSN 040235Z 30006KT 10SM OVC100 21/11 A2986 920 52 1800 300/06 RMK AO2
14837KMSN MSN20120603204009606/03/12 20:40:31  5-MIN KMSN 040240Z 30007KT 10SM OVC100 20/11 A2986 920 54 1800 300/07 RMK AO2
14837KMSN MSN20120603204510306/03/12 20:45:31  5-MIN KMSN 040245Z 29006KT 10SM FEW075 OVC100 20/11 A2986 920 54 1800 290/06 RMK AO2
14837KMSN MSN20120603205014706/03/12 20:50:31  5-MIN KMSN 040250Z 28006KT 9SM -RA FEW060 OVC100 20/11 A2986 920 56 1800 280/06 RMK AO2 RAB46 SLP108 P0000 60000 T02000111 55000
14837KMSN MSN20120603205511306/03/12 20:55:31  5-MIN KMSN 040255Z 28005KT 10SM -RA FEW075 OVC100 19/11 A2986 920 58 1700 280/05 RMK AO2 P0000
14837KMSN MSN20120603210011506/03/12 21:00:31  5-MIN KMSN 040300Z 29005KT 10SM FEW075 OVC100 19/11 A2986 920 58 1700 290/05 RMK AO2 RAE00 P0000
14837KMSN MSN20120603210511506/03/12 21:05:31  5-MIN KMSN 040305Z VRB04KT 10SM FEW075 OVC100 19/12 A2986 920 62 1600 VRB/04 RMK AO2 RAE00 P0000
14837KMSN MSN20120603211011506/03/12 21:10:31  5-MIN KMSN 040310Z VRB04KT 10SM FEW075 OVC100 19/12 A2986 920 62 1600 VRB/04 RMK AO2 RAE00 P0000
14837KMSN MSN20120603211510806/03/12 21:15:31  5-MIN KMSN 040315Z 29006KT 10SM OVC100 19/12 A2986 920 62 1600 290/06 RMK AO2 RAE00 P0000
14837KMSN MSN20120603212010806/03/12 21:20:31  5-MIN KMSN 040320Z 29005KT 10SM OVC100 19/12 A2986 920 62 1600 290/05 RMK AO2 RAE00 P0000
14837KMSN MSN20120603212510806/03/12 21:25:31  5-MIN KMSN 040325Z 27003KT 10SM OVC100 19/12 A2986 920 62 1600 280/03 RMK AO2 RAE00 P0000
14837KMSN MSN20120603213011506/03/12 21:30:31  5-MIN KMSN 040330Z VRB03KT 10SM BKN100 BKN120 19/12 A2986 920 62 1600 VRB/03 RMK AO2 RAE00 P0000
14837KMSN MSN20120603213511506/03/12 21:35:31  5-MIN KMSN 040335Z 00000KT 10SM BKN100 OVC120 19/12 A2986 920 62 1600 000/00 RMK AO2 RAE00 P0000
14837KMSN MSN20120603214011506/03/12 21:40:31  5-MIN KMSN 040340Z 21003KT 10SM BKN100 OVC120 19/12 A2986 920 62 1600 210/03 RMK AO2 RAE00 P0000
14837KMSN MSN20120603214511506/03/12 21:45:31  5-MIN KMSN 040345Z 00000KT 10SM BKN100 BKN120 19/12 A2986 920 62 1600 000/00 RMK AO2 RAE00 P0000
14837KMSN MSN20120603215013206/03/12 21:50:31  5-MIN KMSN 040350Z VRB03KT 10SM BKN100 BKN120 19/12 A2985 930 62 1600 VRB/03 RMK AO2 RAE00 SLP104 P0000 T01890117
14837KMSN MSN20120603215510306/03/12 21:55:31  5-MIN KMSN 040355Z VRB03KT 10SM BKN100 OVC120 19/12 A2985 930 62 1600 VRB/03 RMK AO2
14837KMSN MSN20120603220009606/03/12 22:00:31  5-MIN KMSN 040400Z VRB03KT 10SM OVC100 19/12 A2985 930 62 1600 VRB/03 RMK AO2
14837KMSN MSN20120603220509606/03/12 22:05:31  5-MIN KMSN 040405Z 28004KT 10SM OVC100 18/12 A2985 930 67 1600 280/04 RMK AO2
14837KMSN MSN20120603221009606/03/12 22:10:31  5-MIN KMSN 040410Z VRB04KT 10SM OVC100 19/12 A2986 920 65 1600 VRB/04 RMK AO2
14837KMSN MSN20120603221509606/03/12 22:15:31  5-MIN KMSN 040415Z VRB03KT 10SM OVC100 19/12 A2986 920 65 1600 VRB/03 RMK AO2
14837KMSN MSN20120603222009606/03/12 22:20:31  5-MIN KMSN 040420Z 00000KT 10SM OVC100 18/12 A2986 920 67 1600 000/00 RMK AO2
14837KMSN MSN20120603222509606/03/12 22:25:31  5-MIN KMSN 040425Z 00000KT 10SM OVC100 19/12 A2986 920 62 1600 000/00 RMK AO2
14837KMSN MSN20120603223009606/03/12 22:30:31  5-MIN KMSN 040430Z 00000KT 10SM OVC100 19/12 A2986 920 62 1600 000/00 RMK AO2
14837KMSN MSN20120603223509606/03/12 22:35:31  5-MIN KMSN 040435Z 00000KT 10SM OVC100 19/12 A2986 920 62 1600 000/00 RMK AO2
14837KMSN MSN20120603224009606/03/12 22:40:31  5-MIN KMSN 040440Z 00000KT 10SM OVC100 19/12 A2986 920 62 1600 000/00 RMK AO2
14837KMSN MSN20120603224509606/03/12 22:45:31  5-MIN KMSN 040445Z 00000KT 10SM OVC100 19/12 A2986 920 62 1600 000/00 RMK AO2
14837KMSN MSN20120603225011306/03/12 22:50:31  5-MIN KMSN 040450Z 00000KT 10SM OVC100 18/12 A2986 920 65 1600 000/00 RMK AO2 SLP106 T01830117
14837KMSN MSN20120603225509606/03/12 22:55:31  5-MIN KMSN 040455Z 00000KT 10SM OVC100 18/12 A2986 920 65 1600 000/00 RMK AO2
14837KMSN MSN20120603230010306/03/12 23:00:31  5-MIN KMSN 040500Z 00000KT 10SM BKN100 OVC110 18/12 A2985 920 65 1600 000/00 RMK AO2
14837KMSN MSN20120603230511006/03/12 23:05:31  5-MIN KMSN 040505Z 00000KT 10SM FEW055 BKN100 OVC110 18/12 A2985 930 69 1500 000/00 RMK AO2
14837KMSN MSN20120603231011006/03/12 23:10:31  5-MIN KMSN 040510Z 00000KT 10SM FEW055 SCT100 OVC120 18/12 A2985 930 67 1600 000/00 RMK AO2
14837KMSN MSN20120603231510306/03/12 23:15:31  5-MIN KMSN 040515Z 00000KT 10SM FEW100 OVC120 18/12 A2985 930 65 1600 000/00 RMK AO2
14837KMSN MSN20120603232010306/03/12 23:20:31  5-MIN KMSN 040520Z 00000KT 10SM FEW095 OVC120 18/12 A2984 940 65 1600 000/00 RMK AO2
14837KMSN MSN20120603232509606/03/12 23:25:31  5-MIN KMSN 040525Z 00000KT 10SM OVC120 17/12 A2984 930 72 1500 000/00 RMK AO2
14837KMSN MSN20120603233009606/03/12 23:30:31  5-MIN KMSN 040530Z 00000KT 10SM OVC120 18/12 A2984 940 67 1500 000/00 RMK AO2
14837KMSN MSN20120603233509606/03/12 23:35:31  5-MIN KMSN 040535Z 00000KT 10SM BKN120 18/12 A2984 940 67 1500 000/00 RMK AO2
14837KMSN MSN20120603234009606/03/12 23:40:31  5-MIN KMSN 040540Z 00000KT 10SM BKN120 18/12 A2984 940 67 1500 000/00 RMK AO2
14837KMSN MSN20120603234509606/03/12 23:45:31  5-MIN KMSN 040545Z 00000KT 10SM BKN120 18/12 A2984 940 67 1500 000/00 RMK AO2
14837KMSN MSN20120603235014706/03/12 23:50:31  5-MIN KMSN 040550Z 27003KT 10SM BKN120 18/12 A2984 940 69 1500 270/03 RMK AO2 SLP100 60000 T01780122 10233 20172 402670100 53018
14837KMSN MSN20120603235509606/03/12 23:55:31  5-MIN KMSN 040555Z VRB03KT 10SM SCT110 17/12 A2984 940 69 1500 VRB/03 RMK AO2
14837KMSN MSN20120604000009606/04/12 00:00:32  5-MIN KMSN 040600Z 30003KT 10SM SCT110 18/12 A2984 940 67 1500 300/03 RMK AO2
14837KMSN MSN20120604000509606/04/12 00:05:31  5-MIN KMSN 040605Z 00000KT 10SM BKN120 17/12 A2984 940 69 1500 000/00 RMK AO2
14837KMSN MSN20120604001009606/04/12 00:10:31  5-MIN KMSN 040610Z 00000KT 10SM BKN120 18/12 A2984 940 67 1500 000/00 RMK AO2
14837KMSN MSN20120604001509606/04/12 00:15:31  5-MIN KMSN 040615Z 00000KT 10SM BKN110 18/12 A2984 940 67 1500 000/00 RMK AO2
14837KMSN MSN20120604002009606/04/12 00:20:31  5-MIN KMSN 040620Z 00000KT 10SM BKN110 18/12 A2983 940 67 1500 000/00 RMK AO2
14837KMSN MSN20120604002509606/04/12 00:25:31  5-MIN KMSN 040625Z 00000KT 10SM OVC110 18/12 A2983 950 67 1500 000/00 RMK AO2
14837KMSN MSN20120604003009606/04/12 00:30:31  5-MIN KMSN 040630Z 00000KT 10SM OVC110 17/12 A2983 950 69 1500 000/00 RMK AO2
14837KMSN MSN20120604003509606/04/12 00:35:31  5-MIN KMSN 040635Z 00000KT 10SM OVC110 17/12 A2983 950 72 1500 000/00 RMK AO2
14837KMSN MSN20120604004009606/04/12 00:40:31  5-MIN KMSN 040640Z 00000KT 10SM OVC100 17/12 A2983 950 75 1400 000/00 RMK AO2
14837KMSN MSN20120604004509606/04/12 00:45:31  5-MIN KMSN 040645Z 06003KT 10SM OVC100 17/12 A2983 950 72 1500 060/03 RMK AO2
14837KMSN MSN20120604005011306/04/12 00:50:31  5-MIN KMSN 040650Z 00000KT 10SM OVC100 17/12 A2983 950 75 1400 000/00 RMK AO2 SLP097 T01670122
14837KMSN MSN20120604005509606/04/12 00:55:31  5-MIN KMSN 040655Z 00000KT 10SM OVC100 17/12 A2983 950 75 1400 000/00 RMK AO2
14837KMSN MSN20120604010009606/04/12 01:00:31  5-MIN KMSN 040700Z 00000KT 10SM OVC100 17/12 A2983 940 75 1400 000/00 RMK AO2
14837KMSN MSN20120604010509606/04/12 01:05:31  5-MIN KMSN 040705Z 00000KT 10SM OVC100 16/12 A2984 940 77 1300 000/00 RMK AO2
14837KMSN MSN20120604011009606/04/12 01:10:31  5-MIN KMSN 040710Z 00000KT 10SM OVC100 16/12 A2984 940 77 1300 000/00 RMK AO2
14837KMSN MSN20120604011509606/04/12 01:15:31  5-MIN KMSN 040715Z 00000KT 10SM OVC100 16/13 A2984 940 83 1300 000/00 RMK AO2
14837KMSN MSN20120604012009606/04/12 01:20:31  5-MIN KMSN 040720Z 35003KT 10SM OVC100 16/13 A2984 940 80 1300 350/03 RMK AO2
14837KMSN MSN20120604012510306/04/12 01:25:31  5-MIN KMSN 040725Z 02003KT 10SM FEW070 OVC100 16/13 A2984 940 80 1300 020/03 RMK AO2
14837KMSN MSN20120604013010306/04/12 01:30:31  5-MIN KMSN 040730Z 36003KT 10SM FEW070 OVC100 16/13 A2985 930 80 1300 360/03 RMK AO2
14837KMSN MSN20120604013511906/04/12 01:35:31  5-MIN KMSN 040735Z 01006KT 10SM -RA FEW075 OVC100 16/13 A2985 930 80 1300 010/06 RMK AO2 RAB33 P0000
14837KMSN MSN20120604014012606/04/12 01:40:31  5-MIN KMSN 040740Z 03006KT 10SM -RA FEW070 OVC095 16/13 A2986 920 80 1300 030/06 RMK AO2 RAB33 PRESRR P0000
14837KMSN MSN20120604014511906/04/12 01:45:31  5-MIN KMSN 040745Z 00000KT 10SM -RA FEW070 OVC090 17/13 A2987 910 77 1400 000/00 RMK AO2 RAB33 P0000
14837KMSN MSN20120604015013606/04/12 01:50:31  5-MIN KMSN 040750Z 00000KT 10SM -RA FEW070 OVC085 17/12 A2985 930 75 1400 000/00 RMK AO2 RAB33 SLP104 P0000 T01670122
14837KMSN MSN20120604015510306/04/12 01:55:31  5-MIN KMSN 040755Z 07005KT 10SM FEW070 OVC085 17/12 A2985 930 75 1400 070/05 RMK AO2
14837KMSN MSN20120604020011006/04/12 02:00:31  5-MIN KMSN 040800Z 26004KT 10SM FEW060 BKN085 OVC100 17/12 A2985 930 75 1400 260/04 RMK AO2
14837KMSN MSN20120604020510306/04/12 02:05:31  5-MIN KMSN 040805Z 00000KT 10SM FEW060 OVC090 17/12 A2986 920 75 1400 000/00 RMK AO2
14837KMSN MSN20120604021010306/04/12 02:10:31  5-MIN KMSN 040810Z 00000KT 10SM FEW070 OVC095 17/12 A2986 920 75 1400 000/00 RMK AO2
14837KMSN MSN20120604021511006/04/12 02:15:31  5-MIN KMSN 040815Z 26003KT 10SM FEW070 SCT085 OVC100 17/12 A2985 930 75 1400 260/03 RMK AO2
14837KMSN MSN20120604022010306/04/12 02:20:31  5-MIN KMSN 040820Z 00000KT 10SM FEW070 OVC100 17/12 A2986 920 75 1400 000/00 RMK AO2
14837KMSN MSN20120604022510306/04/12 02:25:31  5-MIN KMSN 040825Z 00000KT 10SM FEW080 OVC100 17/12 A2985 930 72 1400 000/00 RMK AO2
14837KMSN MSN20120604023010306/04/12 02:30:31  5-MIN KMSN 040830Z 00000KT 10SM FEW080 OVC100 17/12 A2985 930 72 1400 000/00 RMK AO2
14837KMSN MSN20120604023510306/04/12 02:35:31  5-MIN KMSN 040835Z 00000KT 10SM SCT080 OVC100 17/12 A2985 930 75 1400 000/00 RMK AO2
14837KMSN MSN20120604024010306/04/12 02:40:31  5-MIN KMSN 040840Z 00000KT 10SM SCT080 OVC100 17/12 A2985 930 72 1400 000/00 RMK AO2
14837KMSN MSN20120604024510306/04/12 02:45:31  5-MIN KMSN 040845Z 00000KT 10SM BKN080 OVC100 17/12 A2985 930 72 1400 000/00 RMK AO2
14837KMSN MSN20120604025013206/04/12 02:50:31  5-MIN KMSN 040850Z 00000KT 10SM BKN080 OVC100 17/13 A2985 930 77 1400 000/00 RMK AO2 SLP105 60000 T01670128 58008
14837KMSN MSN20120604025510306/04/12 02:55:31  5-MIN KMSN 040855Z 00000KT 10SM BKN080 OVC100 16/13 A2985 930 80 1300 000/00 RMK AO2
14837KMSN MSN20120604030010306/04/12 03:00:31  5-MIN KMSN 040900Z 05004KT 10SM BKN080 OVC100 16/13 A2985 930 80 1300 050/04 RMK AO2
14837KMSN MSN20120604030509606/04/12 03:05:31  5-MIN KMSN 040905Z 04004KT 10SM OVC080 17/13 A2985 930 77 1400 050/04 RMK AO2
14837KMSN MSN20120604031009606/04/12 03:10:31  5-MIN KMSN 040910Z 05004KT 10SM OVC080 16/13 A2985 930 80 1300 050/04 RMK AO2
14837KMSN MSN20120604031509606/04/12 03:15:31  5-MIN KMSN 040915Z 03003KT 10SM OVC080 16/13 A2985 930 80 1300 030/03 RMK AO2
14837KMSN MSN20120604032009606/04/12 03:20:31  5-MIN KMSN 040920Z 04005KT 10SM OVC080 16/13 A2985 930 83 1300 040/05 RMK AO2
14837KMSN MSN20120604032509606/04/12 03:25:31  5-MIN KMSN 040925Z 03003KT 10SM OVC080 16/13 A2985 930 80 1300 030/03 RMK AO2
14837KMSN MSN20120604033009606/04/12 03:30:31  5-MIN KMSN 040930Z 00000KT 10SM OVC080 17/13 A2985 930 77 1400 000/00 RMK AO2
14837KMSN MSN20120604033511106/04/12 03:35:31  5-MIN KMSN 040935Z 00000KT 8SM -RA OVC075 16/13 A2985 930 80 1300 000/00 RMK AO2 RAB31 P0000
14837KMSN MSN20120604034011106/04/12 03:40:31  5-MIN KMSN 040940Z 00000KT 8SM -RA OVC080 16/13 A2985 930 80 1300 000/00 RMK AO2 RAB31 P0000
14837KMSN MSN20120604034511206/04/12 03:45:31  5-MIN KMSN 040945Z 00000KT 10SM -RA OVC080 16/13 A2985 930 86 1200 000/00 RMK AO2 RAB31 P0000
14837KMSN MSN20120604035013506/04/12 03:50:31  5-MIN KMSN 040950Z 00000KT 10SM BKN080 OVC100 16/13 A2985 930 86 1200 000/00 RMK AO2 RAB31E48 SLP106 P0000 T01560133
14837KMSN MSN20120604035511306/04/12 03:55:31  5-MIN KMSN 040955Z 04003KT 10SM -RA BKN080 OVC100 16/13 A2986 920 86 1200 040/03 RMK AO2 P0000
14837KMSN MSN20120604040010806/04/12 04:00:31  5-MIN KMSN 041000Z 00000KT 10SM OVC080 16/13 A2986 920 86 1200 000/00 RMK AO2 RAE00 P0000
14837KMSN MSN20120604040510806/04/12 04:05:31  5-MIN KMSN 041005Z 00000KT 10SM OVC080 16/13 A2986 920 86 1200 000/00 RMK AO2 RAE00 P0000
14837KMSN MSN20120604041010806/04/12 04:10:31  5-MIN KMSN 041010Z 00000KT 10SM OVC080 15/13 A2986 920 90 1200 000/00 RMK AO2 RAE00 P0000
14837KMSN MSN20120604041510806/04/12 04:15:31  5-MIN KMSN 041015Z 00000KT 10SM OVC080 16/13 A2986 920 86 1200 000/00 RMK AO2 RAE00 P0000
14837KMSN MSN20120604042010806/04/12 04:20:31  5-MIN KMSN 041020Z 00000KT 10SM OVC085 16/14 A2987 910 90 1200 000/00 RMK AO2 RAE00 P0000
14837KMSN MSN20120604042510806/04/12 04:25:31  5-MIN KMSN 041025Z 00000KT 10SM OVC085 16/13 A2987 910 86 1200 000/00 RMK AO2 RAE00 P0000
14837KMSN MSN20120604043010806/04/12 04:30:31  5-MIN KMSN 041030Z 00000KT 10SM OVC085 16/14 A2987 910 90 1200 000/00 RMK AO2 RAE00 P0000
14837KMSN MSN20120604043510806/04/12 04:35:31  5-MIN KMSN 041035Z 00000KT 10SM OVC085 16/14 A2987 910 90 1200 000/00 RMK AO2 RAE00 P0000
14837KMSN MSN20120604044010806/04/12 04:40:31  5-MIN KMSN 041040Z 00000KT 10SM OVC085 16/13 A2987 910 86 1200 000/00 RMK AO2 RAE00 P0000
14837KMSN MSN20120604044510806/04/12 04:45:31  5-MIN KMSN 041045Z 00000KT 10SM OVC085 16/13 A2987 910 86 1200 000/00 RMK AO2 RAE00 P0000
14837KMSN MSN20120604045012506/04/12 04:50:31  5-MIN KMSN 041050Z 00000KT 10SM BKN085 16/14 A2987 910 90 1200 000/00 RMK AO2 RAE00 SLP111 P0000 T01560139
14837KMSN MSN20120604045509606/04/12 04:55:31  5-MIN KMSN 041055Z 00000KT 10SM OVC090 16/14 A2987 910 90 1200 000/00 RMK AO2
14837KMSN MSN20120604050009606/04/12 05:00:31  5-MIN KMSN 041100Z 00000KT 10SM BKN090 16/13 A2987 910 86 1200 000/00 RMK AO2
14837KMSN MSN20120604050509606/04/12 05:05:31  5-MIN KMSN 041105Z 00000KT 10SM BKN090 16/14 A2987 910 90 1200 000/00 RMK AO2
14837KMSN MSN20120604051009606/04/12 05:10:31  5-MIN KMSN 041110Z 00000KT 10SM BKN090 16/14 A2987 910 86 1300 000/00 RMK AO2
14837KMSN MSN20120604051509606/04/12 05:15:31  5-MIN KMSN 041115Z 00000KT 10SM SCT100 16/14 A2988 900 90 1200 000/00 RMK AO2
14837KMSN MSN20120604052009606/04/12 05:20:31  5-MIN KMSN 041120Z 00000KT 10SM BKN100 15/14 A2988 900 93 1200 000/00 RMK AO2
14837KMSN MSN20120604052509606/04/12 05:25:31  5-MIN KMSN 041125Z 00000KT 10SM BKN100 16/14 A2988 900 90 1200 000/00 RMK AO2
14837KMSN MSN20120604053009606/04/12 05:30:31  5-MIN KMSN 041130Z 00000KT 10SM BKN100 16/13 A2989 900 83 1300 000/00 RMK AO2
14837KMSN MSN20120604053509606/04/12 05:35:31  5-MIN KMSN 041135Z 00000KT 10SM BKN100 16/14 A2988 900 90 1300 000/00 RMK AO2
14837KMSN MSN20120604054009606/04/12 05:40:31  5-MIN KMSN 041140Z 00000KT 10SM BKN100 16/14 A2988 900 90 1300 000/00 RMK AO2
14837KMSN MSN20120604054509606/04/12 05:45:31  5-MIN KMSN 041145Z 00000KT 10SM BKN100 17/14 A2988 900 83 1300 000/00 RMK AO2
14837KMSN MSN20120604055013706/04/12 05:50:31  5-MIN KMSN 041150Z 00000KT 10SM BKN095 17/14 A2988 900 83 1300 000/00 RMK AO2 SLP116 60000 T01670139 10178 20150 53004
14837KMSN MSN20120604055509606/04/12 05:55:31  5-MIN KMSN 041155Z 00000KT 10SM BKN095 17/14 A2989 900 80 1400 000/00 RMK AO2
14837KMSN MSN20120604060009606/04/12 06:00:31  5-MIN KMSN 041200Z 00000KT 10SM BKN095 17/13 A2988 900 78 1400 000/00 RMK AO2
14837KMSN MSN20120604060509606/04/12 06:05:31  5-MIN KMSN 041205Z 07003KT 10SM OVC100 17/13 A2988 900 75 1400 070/03 RMK AO2
14837KMSN MSN20120604061009606/04/12 06:10:31  5-MIN KMSN 041210Z 07003KT 10SM BKN100 18/13 A2988 900 72 1500 070/03 RMK AO2
14837KMSN MSN20120604061509606/04/12 06:15:31  5-MIN KMSN 041215Z 06005KT 10SM BKN100 18/13 A2989 900 70 1500 060/05 RMK AO2
14837KMSN MSN20120604062009606/04/12 06:20:31  5-MIN KMSN 041220Z 07004KT 10SM BKN100 18/12 A2989 900 69 1500 070/04 RMK AO2
14837KMSN MSN20120604062509606/04/12 06:25:31  5-MIN KMSN 041225Z 09003KT 10SM BKN100 18/12 A2989 900 67 1500 090/03 RMK AO2
14837KMSN MSN20120604063009606/04/12 06:30:31  5-MIN KMSN 041230Z 08004KT 10SM SCT100 18/12 A2989 890 65 1500 080/04 RMK AO2
14837KMSN MSN20120604063509606/04/12 06:35:31  5-MIN KMSN 041235Z 09004KT 10SM SCT100 18/12 A2989 890 65 1500 090/04 RMK AO2
14837KMSN MSN20120604064009606/04/12 06:40:31  5-MIN KMSN 041240Z 11003KT 10SM SCT100 19/12 A2989 890 62 1600 120/03 RMK AO2
14837KMSN MSN20120604064509606/04/12 06:45:31  5-MIN KMSN 041245Z 13005KT 10SM SCT100 19/11 A2989 890 60 1600 130/05 RMK AO2
14837KMSN MSN20120604065011306/04/12 06:50:31  5-MIN KMSN 041250Z 10005KT 10SM FEW110 19/11 A2989 890 60 1600 100/05 RMK AO2 SLP119 T01890111
14837KMSN MSN20120604065509606/04/12 06:55:31  5-MIN KMSN 041255Z 10005KT 10SM FEW100 19/11 A2989 890 60 1600 100/05 RMK AO2
14837KMSN MSN20120604070009606/04/12 07:00:31  5-MIN KMSN 041300Z 09008KT 10SM FEW100 19/11 A2990 890 60 1600 100/08 RMK AO2
14837KMSN MSN20120604070509606/04/12 07:05:31  5-MIN KMSN 041305Z 09006KT 10SM FEW110 19/11 A2989 890 60 1600 090/06 RMK AO2
14837KMSN MSN20120604071009606/04/12 07:10:31  5-MIN KMSN 041310Z 08006KT 10SM FEW110 19/12 A2990 890 62 1600 090/06 RMK AO2
14837KMSN MSN20120604071509606/04/12 07:15:31  5-MIN KMSN 041315Z 08008KT 10SM FEW110 19/11 A2990 890 60 1600 080/08 RMK AO2
14837KMSN MSN20120604072009606/04/12 07:20:31  5-MIN KMSN 041320Z 07006KT 10SM FEW110 19/12 A2990 890 62 1600 070/06 RMK AO2
14837KMSN MSN20120604072509306/04/12 07:25:31  5-MIN KMSN 041325Z 08007KT 10SM CLR 19/12 A2990 880 60 1600 080/07 RMK AO2
14837KMSN MSN20120604073009306/04/12 07:30:31  5-MIN KMSN 041330Z 07008KT 10SM CLR 19/11 A2990 880 58 1600 070/08 RMK AO2
14837KMSN MSN20120604073509306/04/12 07:35:31  5-MIN KMSN 041335Z 07007KT 10SM CLR 19/11 A2990 880 58 1600 070/07 RMK AO2
14837KMSN MSN20120604074009306/04/12 07:40:31  5-MIN KMSN 041340Z 08006KT 10SM CLR 19/11 A2991 880 58 1600 090/06 RMK AO2
14837KMSN MSN20120604074509306/04/12 07:45:31  5-MIN KMSN 041345Z 08007KT 10SM CLR 19/12 A2990 880 60 1600 080/07 RMK AO2
14837KMSN MSN20120604075011306/04/12 07:50:31  5-MIN KMSN 041350Z 08008KT 10SM FEW100 19/11 A2991 880 58 1600 080/08 RMK AO2 SLP123 T01940111
14837KMSN MSN20120604075509306/04/12 07:55:31  5-MIN KMSN 041355Z 11007KT 10SM CLR 19/11 A2990 880 58 1600 110/07 RMK AO2
14837KMSN MSN20120604080009306/04/12 08:00:31  5-MIN KMSN 041400Z 09005KT 10SM CLR 20/12 A2990 880 58 1700 090/05 RMK AO2
14837KMSN MSN20120604080509606/04/12 08:05:31  5-MIN KMSN 041405Z 08007KT 10SM FEW100 20/11 A2990 880 56 1700 080/07 RMK AO2
14837KMSN MSN20120604081009606/04/12 08:10:31  5-MIN KMSN 041410Z 09006KT 10SM FEW100 20/11 A2990 880 56 1700 090/06 RMK AO2
14837KMSN MSN20120604081509606/04/12 08:15:31  5-MIN KMSN 041415Z 08005KT 10SM FEW100 20/11 A2990 880 56 1700 080/05 RMK AO2
14837KMSN MSN20120604082009606/04/12 08:20:31  5-MIN KMSN 041420Z 12005KT 10SM FEW100 20/11 A2991 880 56 1700 120/05 RMK AO2
14837KMSN MSN20120604082509606/04/12 08:25:31  5-MIN KMSN 041425Z 09004KT 10SM FEW100 21/11 A2991 880 54 1800 090/04 RMK AO2
14837KMSN MSN20120604083009606/04/12 08:30:31  5-MIN KMSN 041430Z 12005KT 10SM FEW100 21/12 A2991 880 56 1800 120/05 RMK AO2
14837KMSN MSN20120604083509606/04/12 08:35:31  5-MIN KMSN 041435Z 13004KT 10SM FEW100 20/11 A2991 880 54 1700 130/04 RMK AO2
14837KMSN MSN20120604084009606/04/12 08:40:31  5-MIN KMSN 041440Z VRB03KT 10SM FEW100 21/11 A2991 870 52 1800 VRB/03 RMK AO2
14837KMSN MSN20120604084509606/04/12 08:45:31  5-MIN KMSN 041445Z 12005KT 10SM FEW100 21/11 A2991 870 54 1800 120/05 RMK AO2
14837KMSN MSN20120604085011906/04/12 08:50:31  5-MIN KMSN 041450Z 08004KT 10SM FEW100 21/11 A2991 870 52 1800 080/04 RMK AO2 SLP126 T02110111 53011
14837KMSN MSN20120604085509606/04/12 08:55:31  5-MIN KMSN 041455Z VRB04KT 10SM FEW120 21/11 A2991 870 52 1800 VRB/04 RMK AO2
14837KMSN MSN20120604090009606/04/12 09:00:31  5-MIN KMSN 041500Z VRB03KT 10SM FEW120 21/11 A2991 870 52 1800 VRB/03 RMK AO2
14837KMSN MSN20120604090509606/04/12 09:05:31  5-MIN KMSN 041505Z 12004KT 10SM FEW120 21/11 A2991 870 52 1800 130/04 RMK AO2
14837KMSN MSN20120604091009606/04/12 09:10:31  5-MIN KMSN 041510Z 12004KT 10SM FEW120 22/12 A2992 870 52 1900 120/04 RMK AO2
14837KMSN MSN20120604091509606/04/12 09:15:31  5-MIN KMSN 041515Z 11003KT 10SM FEW120 21/11 A2992 870 52 1800 110/03 RMK AO2
14837KMSN MSN20120604092009306/04/12 09:20:31  5-MIN KMSN 041520Z 09004KT 10SM CLR 21/11 A2992 870 52 1800 100/04 RMK AO2
14837KMSN MSN20120604092509306/04/12 09:25:31  5-MIN KMSN 041525Z 07006KT 10SM CLR 22/11 A2992 870 50 1900 070/06 RMK AO2
14837KMSN MSN20120604093009306/04/12 09:30:31  5-MIN KMSN 041530Z 00000KT 10SM CLR 22/12 A2991 870 51 2000 000/00 RMK AO2
14837KMSN MSN20120604093509306/04/12 09:35:31  5-MIN KMSN 041535Z 08003KT 10SM CLR 22/11 A2991 870 49 2000 090/03 RMK AO2
14837KMSN MSN20120604094009306/04/12 09:40:31  5-MIN KMSN 041540Z 00000KT 10SM CLR 22/11 A2991 870 49 2000 000/00 RMK AO2
14837KMSN MSN20120604094509306/04/12 09:45:31  5-MIN KMSN 041545Z VRB04KT 10SM CLR 22/11 A2991 870 50 1900 VRB/04 RMK AO2
14837KMSN MSN20120604095011006/04/12 09:50:31  5-MIN KMSN 041550Z 00000KT 10SM CLR 22/11 A2992 870 47 1900 000/00 RMK AO2 SLP128 T02220106
14837KMSN MSN20120604095509306/04/12 09:55:31  5-MIN KMSN 041555Z 05004KT 10SM CLR 23/11 A2992 870 45 2000 060/04 RMK AO2
14837KMSN MSN20120604100009306/04/12 10:00:31  5-MIN KMSN 041600Z 13005KT 10SM CLR 22/11 A2992 870 49 1900 130/05 RMK AO2
14837KMSN MSN20120604100509306/04/12 10:05:31  5-MIN KMSN 041605Z VRB03KT 10SM CLR 23/11 A2992 870 45 2000 VRB/03 RMK AO2
14837KMSN MSN20120604101009306/04/12 10:10:31  5-MIN KMSN 041610Z 00000KT 10SM CLR 23/11 A2992 870 47 2000 000/00 RMK AO2
14837KMSN MSN20120604101509306/04/12 10:15:31  5-MIN KMSN 041615Z 00000KT 10SM CLR 23/11 A2992 870 45 2000 000/00 RMK AO2
14837KMSN MSN20120604102009306/04/12 10:20:31  5-MIN KMSN 041620Z VRB04KT 10SM CLR 23/12 A2992 870 47 2100 VRB/04 RMK AO2
14837KMSN MSN20120604102509306/04/12 10:25:31  5-MIN KMSN 041625Z 09004KT 10SM CLR 23/11 A2992 870 47 2000 090/04 RMK AO2
14837KMSN MSN20120604103009306/04/12 10:30:31  5-MIN KMSN 041630Z 00000KT 10SM CLR 23/10 A2992 870 44 2000 000/00 RMK AO2
14837KMSN MSN20120604103509306/04/12 10:35:31  5-MIN KMSN 041635Z 00000KT 10SM CLR 23/11 A2992 870 45 2100 000/00 RMK AO2
14837KMSN MSN20120604104009306/04/12 10:40:31  5-MIN KMSN 041640Z 08005KT 10SM CLR 24/11 A2992 870 42 2100 080/05 RMK AO2
14837KMSN MSN20120604104509306/04/12 10:45:31  5-MIN KMSN 041645Z 06004KT 10SM CLR 24/11 A2992 870 42 2100 060/04 RMK AO2
14837KMSN MSN20120604105011006/04/12 10:50:31  5-MIN KMSN 041650Z 06005KT 10SM CLR 24/11 A2992 870 44 2100 060/05 RMK AO2 SLP127 T02390111
14837KMSN MSN20120604105509306/04/12 10:55:31  5-MIN KMSN 041655Z 00000KT 10SM CLR 24/11 A2992 870 44 2100 000/00 RMK AO2
14837KMSN MSN20120604110009306/04/12 11:00:31  5-MIN KMSN 041700Z 02004KT 10SM CLR 24/12 A2992 870 44 2200 020/04 RMK AO2
14837KMSN MSN20120604110509306/04/12 11:05:31  5-MIN KMSN 041705Z VRB06KT 10SM CLR 24/12 A2992 870 44 2200 VRB/06 RMK AO2
14837KMSN MSN20120604111011006/04/12 11:10:31  5-MIN KMSN 041710Z 08005KT 10SM R36/3500VP6000FT CLR 24/12 A2992 870 44 2200 090/05 RMK AO2
14837KMSN MSN20120604111511006/04/12 11:15:31  5-MIN KMSN 041715Z 09005KT 10SM R36/2000VP6000FT CLR 24/12 A2992 870 44 2200 090/05 RMK AO2
14837KMSN MSN20120604112011006/04/12 11:20:31  5-MIN KMSN 041720Z 00000KT 10SM R36/2000VP6000FT CLR 24/11 A2992 870 42 2100 000/00 RMK AO2
14837KMSN MSN20120604112511006/04/12 11:25:31  5-MIN KMSN 041725Z 06005KT 10SM R36/2000VP6000FT CLR 25/11 A2991 870 41 2300 060/05 RMK AO2
14837KMSN MSN20120604113011006/04/12 11:30:31  5-MIN KMSN 041730Z 04003KT 10SM R36/1600VP6000FT CLR 24/11 A2991 870 42 2200 040/03 RMK AO2
14837KMSN MSN20120604113511006/04/12 11:35:31  5-MIN KMSN 041735Z VRB04KT 10SM R36/1600VP6000FT CLR 25/11 A2991 870 41 2300 VRB/04 RMK AO2
14837KMSN MSN20120604114011006/04/12 11:40:31  5-MIN KMSN 041740Z 36005KT 10SM R36/2200VP6000FT CLR 25/11 A2992 870 41 2300 010/05 RMK AO2
14837KMSN MSN20120604114511006/04/12 11:45:31  5-MIN KMSN 041745Z 06005KT 10SM R36/1400VP6000FT CLR 25/11 A2992 870 39 2300 060/05 RMK AO2
14837KMSN MSN20120604115014506/04/12 11:50:31  5-MIN KMSN 041750Z VRB03KT 10SM R36/1400VP6000FT CLR 25/11 A2992 870 39 2300 VRB/03 RMK AO2 SLP126 T02500106 10250 20172 53010
14837KMSN MSN20120604115509306/04/12 11:55:31  5-MIN KMSN 041755Z 00000KT 10SM CLR 25/10 A2991 870 38 2300 000/00 RMK AO2
14837KMSN MSN20120604120009306/04/12 12:00:31  5-MIN KMSN 041800Z VRB03KT 10SM CLR 26/11 A2991 870 38 2300 VRB/03 RMK AO2
14837KMSN MSN20120604120509306/04/12 12:05:31  5-MIN KMSN 041805Z 10003KT 10SM CLR 25/11 A2992 870 39 2300 100/03 RMK AO2
14837KMSN MSN20120604121009306/04/12 12:10:31  5-MIN KMSN 041810Z 00000KT 10SM CLR 24/10 A2992 860 39 2200 000/00 RMK AO2
14837KMSN MSN20120604121509306/04/12 12:15:31  5-MIN KMSN 041815Z 26004KT 10SM CLR 25/10 A2992 870 38 2300 260/04 RMK AO2
14837KMSN MSN20120604122009306/04/12 12:20:31  5-MIN KMSN 041820Z 03004KT 10SM CLR 26/11 A2992 870 38 2300 030/04 RMK AO2
14837KMSN MSN20120604122509306/04/12 12:25:31  5-MIN KMSN 041825Z 10004KT 10SM CLR 26/10 A2992 870 37 2300 100/04 RMK AO2
14837KMSN MSN20120604123009306/04/12 12:30:31  5-MIN KMSN 041830Z 09005KT 10SM CLR 26/11 A2992 870 38 2300 090/05 RMK AO2
14837KMSN MSN20120604123509306/04/12 12:35:31  5-MIN KMSN 041835Z 11004KT 10SM CLR 26/11 A2992 860 38 2300 110/04 RMK AO2
14837KMSN MSN20120604124009306/04/12 12:40:31  5-MIN KMSN 041840Z 12004KT 10SM CLR 25/10 A2992 860 38 2300 120/04 RMK AO2
14837KMSN MSN20120604124509606/04/12 12:45:31  5-MIN KMSN 041845Z 11005KT 10SM FEW060 25/09 A2992 870 37 2300 110/05 RMK AO2
14837KMSN MSN20120604125011306/04/12 12:50:31  5-MIN KMSN 041850Z 11003KT 10SM FEW060 25/10 A2991 870 38 2300 110/03 RMK AO2 SLP126 T02500100
14837KMSN MSN20120604125510306/04/12 12:55:31  5-MIN KMSN 041855Z 00000KT 10SM FEW060 SCT100 26/09 A2991 870 34 2300 000/00 RMK AO2
14837KMSN MSN20120604130010306/04/12 13:00:31  5-MIN KMSN 041900Z 00000KT 10SM FEW060 SCT100 26/10 A2991 870 37 2300 000/00 RMK AO2
14837KMSN MSN20120604130510306/04/12 13:05:31  5-MIN KMSN 041905Z 09003KT 10SM FEW060 SCT100 26/10 A2991 870 37 2300 100/03 RMK AO2
14837KMSN MSN20120604131010306/04/12 13:10:31  5-MIN KMSN 041910Z 00000KT 10SM FEW060 SCT100 26/11 A2991 870 37 2400 000/00 RMK AO2
14837KMSN MSN20120604131510306/04/12 13:15:31  5-MIN KMSN 041915Z 00000KT 10SM FEW060 SCT100 26/11 A2991 880 38 2300 000/00 RMK AO2
14837KMSN MSN20120604132010306/04/12 13:20:31  5-MIN KMSN 041920Z 00000KT 10SM FEW060 SCT100 26/11 A2991 880 37 2400 000/00 RMK AO2
14837KMSN MSN20120604132510306/04/12 13:25:31  5-MIN KMSN 041925Z VRB03KT 10SM FEW060 SCT100 27/11 A2991 880 37 2500 VRB/03 RMK AO2
14837KMSN MSN20120604133010306/04/12 13:30:31  5-MIN KMSN 041930Z 04006KT 10SM FEW060 SCT100 27/11 A2991 880 37 2500 040/06 RMK AO2
14837KMSN MSN20120604133510306/04/12 13:35:31  5-MIN KMSN 041935Z 02006KT 10SM FEW060 SCT100 27/11 A2991 880 36 2500 020/06 RMK AO2
14837KMSN MSN20120604134010306/04/12 13:40:31  5-MIN KMSN 041940Z 01003KT 10SM FEW060 SCT100 26/10 A2991 880 36 2400 010/03 RMK AO2
14837KMSN MSN20120604134510306/04/12 13:45:31  5-MIN KMSN 041945Z 00000KT 10SM FEW060 SCT100 26/09 A2990 880 34 2400 000/00 RMK AO2
14837KMSN MSN20120604135011306/04/12 13:50:31  5-MIN KMSN 041950Z VRB04KT 10SM SCT065 27/10 A2990 880 34 2500 VRB/04 RMK AO2 SLP122 T02670100
14837KMSN MSN20120604135509606/04/12 13:55:31  5-MIN KMSN 041955Z 29005KT 10SM SCT065 27/11 A2991 880 36 2500 290/05 RMK AO2
14837KMSN MSN20120604140009606/04/12 14:00:31  5-MIN KMSN 042000Z 30005KT 10SM SCT065 26/10 A2990 880 36 2400 300/05 RMK AO2
14837KMSN MSN20120604140509606/04/12 14:05:31  5-MIN KMSN 042005Z 00000KT 10SM SCT065 26/10 A2990 880 36 2400 000/00 RMK AO2
14837KMSN MSN20120604141009606/04/12 14:10:31  5-MIN KMSN 042010Z VRB03KT 10SM SCT065 26/11 A2991 880 37 2400 VRB/03 RMK AO2
14837KMSN MSN20120604141509606/04/12 14:15:31  5-MIN KMSN 042015Z 35006KT 10SM SCT065 28/12 A2991 880 36 2600 360/06 RMK AO2
14837KMSN MSN20120604142009606/04/12 14:20:31  5-MIN KMSN 042020Z 35006KT 10SM SCT065 27/11 A2991 880 34 2500 350/06 RMK AO2
14837KMSN MSN20120604142509606/04/12 14:25:31  5-MIN KMSN 042025Z 00000KT 10SM SCT065 27/10 A2991 880 33 2500 000/00 RMK AO2
14837KMSN MSN20120604143010306/04/12 14:30:31  5-MIN KMSN 042030Z 35004KT 10SM SCT065 BKN090 27/11 A2991 880 36 2500 350/04 RMK AO2
14837KMSN MSN20120604143510306/04/12 14:35:31  5-MIN KMSN 042035Z 04005KT 10SM SCT065 BKN090 27/11 A2991 880 36 2500 040/05 RMK AO2
14837KMSN MSN20120604144010306/04/12 14:40:31  5-MIN KMSN 042040Z 05006KT 10SM SCT065 BKN090 27/11 A2990 880 36 2500 050/06 RMK AO2
14837KMSN MSN20120604144510306/04/12 14:45:31  5-MIN KMSN 042045Z 03006KT 10SM SCT065 BKN090 27/11 A2990 880 34 2500 030/06 RMK AO2
14837KMSN MSN20120604145012606/04/12 14:50:31  5-MIN KMSN 042050Z 00000KT 10SM SCT070 BKN095 27/09 A2990 880 32 2500 000/00 RMK AO2 SLP121 T02720094 50000
14837KMSN MSN20120604145509606/04/12 14:55:31  5-MIN KMSN 042055Z 00000KT 10SM FEW080 27/09 A2990 890 32 2500 000/00 RMK AO2
14837KMSN MSN20120604150009606/04/12 15:00:31  5-MIN KMSN 042100Z 33004KT 10SM FEW080 27/09 A2990 890 32 2500 340/04 RMK AO2
14837KMSN MSN20120604150509306/04/12 15:05:31  5-MIN KMSN 042105Z VRB03KT 10SM CLR 27/11 A2990 890 34 2500 VRB/03 RMK AO2
14837KMSN MSN20120604151009306/04/12 15:10:31  5-MIN KMSN 042110Z 32003KT 10SM CLR 27/10 A2990 890 33 2500 320/03 RMK AO2
14837KMSN MSN20120604151509606/04/12 15:15:31  5-MIN KMSN 042115Z VRB03KT 10SM SCT085 28/10 A2989 890 32 2600 VRB/03 RMK AO2
14837KMSN MSN20120604152009606/04/12 15:20:31  5-MIN KMSN 042120Z 00000KT 10SM BKN085 27/09 A2989 890 32 2500 000/00 RMK AO2
14837KMSN MSN20120604152509606/04/12 15:25:31  5-MIN KMSN 042125Z 00000KT 10SM BKN085 26/09 A2989 890 34 2400 000/00 RMK AO2
14837KMSN MSN20120604153009606/04/12 15:30:31  5-MIN KMSN 042130Z 32003KT 10SM BKN085 26/10 A2989 890 37 2400 320/03 RMK AO2
14837KMSN MSN20120604153509606/04/12 15:35:31  5-MIN KMSN 042135Z 35003KT 10SM BKN085 26/11 A2989 890 40 2400 350/03 RMK AO2
14837KMSN MSN20120604154009606/04/12 15:40:31  5-MIN KMSN 042140Z 35004KT 10SM OVC080 26/12 A2989 890 41 2400 350/04 RMK AO2
14837KMSN MSN20120604154509606/04/12 15:45:31  5-MIN KMSN 042145Z 36003KT 10SM BKN085 26/11 A2989 890 38 2400 360/03 RMK AO2
14837KMSN MSN20120604155011306/04/12 15:50:31  5-MIN KMSN 042150Z 06005KT 10SM BKN085 26/11 A2989 890 40 2400 060/05 RMK AO2 SLP119 T02560111
14837KMSN MSN20120604155509606/04/12 15:55:31  5-MIN KMSN 042155Z 04005KT 10SM BKN085 26/10 A2989 890 37 2400 040/05 RMK AO2
14837KMSN MSN20120604160009606/04/12 16:00:31  5-MIN KMSN 042200Z 09008KT 10SM BKN085 26/11 A2989 890 38 2400 090/08 RMK AO2
14837KMSN MSN20120604160509606/04/12 16:05:31  5-MIN KMSN 042205Z 00000KT 10SM BKN085 26/10 A2989 890 37 2400 000/00 RMK AO2
14837KMSN MSN20120604161009606/04/12 16:10:31  5-MIN KMSN 042210Z 08003KT 10SM SCT085 27/11 A2989 890 36 2500 080/03 RMK AO2
14837KMSN MSN20120604161510306/04/12 16:15:31  5-MIN KMSN 042215Z 07003KT 10SM FEW070 SCT090 26/10 A2989 890 36 2400 070/03 RMK AO2
14837KMSN MSN20120604162011006/04/12 16:20:31  5-MIN KMSN 042220Z 06009KT 10SM SCT070 BKN090 BKN100 27/11 A2989 890 36 2500 060/09 RMK AO2
14837KMSN MSN20120604162510306/04/12 16:25:31  5-MIN KMSN 042225Z 06009KT 10SM SCT070 BKN095 27/11 A2989 890 37 2500 060/09 RMK AO2
14837KMSN MSN20120604163010306/04/12 16:30:31  5-MIN KMSN 042230Z 06008KT 10SM BKN070 BKN100 26/11 A2989 890 38 2400 060/08 RMK AO2
14837KMSN MSN20120604163510306/04/12 16:35:31  5-MIN KMSN 042235Z 05006KT 10SM BKN070 BKN100 26/11 A2989 890 40 2300 050/06 RMK AO2
14837KMSN MSN20120604164010306/04/12 16:40:31  5-MIN KMSN 042240Z 05006KT 10SM BKN070 OVC100 26/11 A2989 890 40 2300 050/06 RMK AO2
14837KMSN MSN20120604164511006/04/12 16:45:31  5-MIN KMSN 042245Z 06007KT 10SM BKN070 BKN085 OVC100 25/11 A2989 890 41 2300 060/07 RMK AO2
14837KMSN MSN20120604165013806/04/12 16:50:31  5-MIN KMSN 042250Z 06006KT 10SM SCT070 BKN085 BKN100 26/11 A2989 890 40 2400 060/06 RMK AO2 SLP118 SCSL NE-SE T02560111
14837KMSN MSN20120604165511006/04/12 16:55:31  5-MIN KMSN 042255Z 07007KT 10SM SCT070 SCT085 OVC100 25/12 A2989 890 43 2300 070/07 RMK AO2
14837KMSN MSN20120604170011006/04/12 17:00:31  5-MIN KMSN 042300Z 07006KT 10SM FEW070 SCT085 OVC100 25/12 A2989 890 43 2300 070/06 RMK AO2
14837KMSN MSN20120604170510306/04/12 17:05:31  5-MIN KMSN 042305Z 07005KT 10SM FEW075 OVC110 25/12 A2989 890 43 2300 070/05 RMK AO2
14837KMSN MSN20120604171010306/04/12 17:10:31  5-MIN KMSN 042310Z 02009KT 10SM FEW085 OVC110 25/12 A2989 890 43 2300 030/09 RMK AO2
14837KMSN MSN20120604171509606/04/12 17:15:31  5-MIN KMSN 042315Z 04008KT 10SM OVC110 25/12 A2990 890 43 2300 040/08 RMK AO2
14837KMSN MSN20120604172009606/04/12 17:20:31  5-MIN KMSN 042320Z 05008KT 10SM OVC110 24/12 A2990 880 44 2200 050/08 RMK AO2
14837KMSN MSN20120604172509606/04/12 17:25:31  5-MIN KMSN 042325Z 04008KT 10SM OVC110 24/12 A2990 880 44 2200 050/08 RMK AO2
14837KMSN MSN20120604173010306/04/12 17:30:31  5-MIN KMSN 042330Z 06009KT 10SM FEW090 OVC110 24/11 A2990 880 42 2200 060/09 RMK AO2
14837KMSN MSN20120604173510306/04/12 17:35:31  5-MIN KMSN 042335Z 06006KT 10SM FEW090 OVC110 24/11 A2990 880 42 2200 060/06 RMK AO2
14837KMSN MSN20120604174010306/04/12 17:40:31  5-MIN KMSN 042340Z 04008KT 10SM SCT090 BKN110 24/11 A2990 880 44 2200 050/08 RMK AO2
14837KMSN MSN20120604174510306/04/12 17:45:31  5-MIN KMSN 042345Z 05011KT 10SM SCT090 BKN110 24/11 A2990 880 44 2200 050/11 RMK AO2
14837KMSN MSN20120604175013806/04/12 17:50:31  5-MIN KMSN 042350Z 04008KT 10SM FEW090 BKN110 24/11 A2990 880 42 2200 050/08 RMK AO2 SLP123 T02390106 10278 20239 58005
14837KMSN MSN20120604175510306/04/12 17:55:31  5-MIN KMSN 042355Z 04009KT 10SM SCT090 BKN110 24/11 A2991 880 42 2100 050/09 RMK AO2
14837KMSN MSN20120604180010306/04/12 18:00:31  5-MIN KMSN 050000Z 04008KT 10SM SCT090 SCT110 24/11 A2991 880 42 2100 040/08 RMK AO2
14837KMSN MSN20120604180509606/04/12 18:05:31  5-MIN KMSN 050005Z 03007KT 10SM SCT090 24/11 A2991 880 42 2100 030/07 RMK AO2
14837KMSN MSN20120604181009606/04/12 18:10:31  5-MIN KMSN 050010Z 04009KT 10SM BKN090 24/11 A2991 870 42 2100 040/09 RMK AO2
14837KMSN MSN20120604181510306/04/12 18:15:31  5-MIN KMSN 050015Z 04010KT 10SM SCT090 SCT110 24/11 A2991 870 42 2100 040/10 RMK AO2
14837KMSN MSN20120604182010306/04/12 18:20:31  5-MIN KMSN 050020Z 04009KT 10SM SCT090 SCT110 24/11 A2991 870 42 2100 050/09 RMK AO2
14837KMSN MSN20120604182509606/04/12 18:25:31  5-MIN KMSN 050025Z 04009KT 10SM SCT090 24/11 A2991 870 42 2100 040/09 RMK AO2
14837KMSN MSN20120604183009606/04/12 18:30:31  5-MIN KMSN 050030Z 03008KT 10SM SCT090 24/11 A2991 870 42 2100 040/08 RMK AO2
14837KMSN MSN20120604183509606/04/12 18:35:31  5-MIN KMSN 050035Z 04009KT 10SM BKN090 24/11 A2992 870 42 2100 040/09 RMK AO2
14837KMSN MSN20120604184009606/04/12 18:40:31  5-MIN KMSN 050040Z 04010KT 10SM BKN090 24/11 A2992 870 42 2100 040/10 RMK AO2
14837KMSN MSN20120604184509606/04/12 18:45:31  5-MIN KMSN 050045Z 04009KT 10SM BKN090 24/11 A2992 870 42 2100 050/09 RMK AO2
14837KMSN MSN20120604185012006/04/12 18:50:31  5-MIN KMSN 050050Z 05009KT 10SM SCT075 BKN090 23/11 A2992 870 44 2100 050/09 RMK AO2 SLP127 T02330106
14837KMSN MSN20120604185511006/04/12 18:55:31  5-MIN KMSN 050055Z 06007KT 10SM FEW075 BKN090 OVC110 23/11 A2992 870 44 2100 060/07 RMK AO2
14837KMSN MSN20120604190010306/04/12 19:00:31  5-MIN KMSN 050100Z 05007KT 10SM BKN090 OVC110 23/11 A2992 870 44 2100 050/07 RMK AO2
14837KMSN MSN20120604190510306/04/12 19:05:31  5-MIN KMSN 050105Z 04008KT 10SM BKN090 OVC110 23/11 A2992 860 44 2100 050/08 RMK AO2
14837KMSN MSN20120604191010306/04/12 19:10:31  5-MIN KMSN 050110Z 06009KT 10SM FEW075 OVC095 23/11 A2992 860 45 2000 060/09 RMK AO2
14837KMSN MSN20120604191510306/04/12 19:15:31  5-MIN KMSN 050115Z 09012KT 10SM FEW075 OVC100 23/11 A2992 860 47 2000 090/12 RMK AO2
14837KMSN MSN20120604192009606/04/12 19:20:31  5-MIN KMSN 050120Z 09012KT 10SM OVC100 22/11 A2992 860 47 1900 090/12 RMK AO2
14837KMSN MSN20120604192509606/04/12 19:25:31  5-MIN KMSN 050125Z 09010KT 10SM OVC095 22/11 A2993 860 47 1900 090/10 RMK AO2
14837KMSN MSN20120604193009606/04/12 19:30:31  5-MIN KMSN 050130Z 09009KT 10SM OVC095 22/11 A2993 860 47 1900 090/09 RMK AO2
14837KMSN MSN20120604193509606/04/12 19:35:31  5-MIN KMSN 050135Z 09009KT 10SM OVC090 22/11 A2993 860 49 1900 090/09 RMK AO2
14837KMSN MSN20120604194009606/04/12 19:40:31  5-MIN KMSN 050140Z 09008KT 10SM OVC090 22/11 A2993 850 49 1900 090/08 RMK AO2
14837KMSN MSN20120604194509606/04/12 19:45:31  5-MIN KMSN 050145Z 11008KT 10SM OVC090 21/11 A2993 860 50 1800 110/08 RMK AO2
14837KMSN MSN20120604195012606/04/12 19:50:31  5-MIN KMSN 050150Z 10011G17KT 10SM FEW075 BKN090 21/11 A2993 850 50 1800 100/11G17 RMK AO2 SLP133 T02110106
14837KMSN MSN20120604195510906/04/12 19:55:31  5-MIN KMSN 050155Z 10010G17KT 10SM BKN085 OVC100 21/09 A2994 850 47 1800 100/10G17 RMK AO2
14837KMSN MSN20120604200011006/04/12 20:00:31  5-MIN KMSN 050200Z 11009KT 10SM SCT075 BKN090 OVC100 21/09 A2994 840 48 1700 110/09 RMK AO2
14837KMSN MSN20120604200511006/04/12 20:05:31  5-MIN KMSN 050205Z 11009KT 10SM SCT075 BKN090 OVC110 21/09 A2994 850 48 1700 110/09 RMK AO2
14837KMSN MSN20120604201011006/04/12 20:10:31  5-MIN KMSN 050210Z 12005KT 10SM FEW070 SCT090 BKN110 20/09 A2994 850 50 1700 130/05 RMK AO2
14837KMSN MSN20120604201510306/04/12 20:15:31  5-MIN KMSN 050215Z 12008KT 10SM FEW070 OVC100 20/09 A2994 840 50 1700 120/08 RMK AO2
14837KMSN MSN20120604202010306/04/12 20:20:31  5-MIN KMSN 050220Z 11008KT 10SM FEW070 OVC110 20/09 A2994 840 48 1700 110/08 RMK AO2
14837KMSN MSN20120604202510306/04/12 20:25:31  5-MIN KMSN 050225Z 10008KT 10SM FEW070 OVC110 20/09 A2994 850 48 1700 100/08 RMK AO2
14837KMSN MSN20120604203009606/04/12 20:30:31  5-MIN KMSN 050230Z 10008KT 10SM OVC110 20/09 A2994 840 48 1700 100/08 RMK AO2
14837KMSN MSN20120604203509606/04/12 20:35:31  5-MIN KMSN 050235Z 12006KT 10SM OVC110 19/09 A2994 840 52 1600 120/06 RMK AO2
14837KMSN MSN20120604204009606/04/12 20:40:31  5-MIN KMSN 050240Z 12009KT 10SM BKN110 19/09 A2994 840 54 1500 120/09 RMK AO2
14837KMSN MSN20120604204509606/04/12 20:45:31  5-MIN KMSN 050245Z 12009KT 10SM BKN110 19/09 A2994 840 52 1500 120/09 RMK AO2
14837KMSN MSN20120604205011906/04/12 20:50:31  5-MIN KMSN 050250Z 12007KT 10SM SCT110 19/09 A2995 840 52 1500 120/07 RMK AO2 SLP137 T01890089 53002
14837KMSN MSN20120604205510306/04/12 20:55:31  5-MIN KMSN 050255Z 11006KT 10SM FEW070 SCT110 18/09 A2995 840 54 1500 110/06 RMK AO2
14837KMSN MSN20120604210010306/04/12 21:00:31  5-MIN KMSN 050300Z 10007KT 10SM SCT070 BKN110 19/09 A2995 840 52 1500 110/07 RMK AO2
14837KMSN MSN20120604210509606/04/12 21:05:31  5-MIN KMSN 050305Z 11006KT 10SM BKN070 18/09 A2995 840 54 1500 110/06 RMK AO2
14837KMSN MSN20120604211009606/04/12 21:10:31  5-MIN KMSN 050310Z 11005KT 10SM BKN070 18/09 A2995 840 56 1500 110/05 RMK AO2
14837KMSN MSN20120604211509606/04/12 21:15:31  5-MIN KMSN 050315Z 10005KT 10SM BKN070 19/09 A2995 830 54 1500 110/05 RMK AO2
14837KMSN MSN20120604212009606/04/12 21:20:31  5-MIN KMSN 050320Z 11005KT 10SM OVC070 19/09 A2996 830 54 1500 110/05 RMK AO2
14837KMSN MSN20120604212509606/04/12 21:25:31  5-MIN KMSN 050325Z 11005KT 10SM OVC070 19/09 A2996 830 54 1500 110/05 RMK AO2
14837KMSN MSN20120604213009606/04/12 21:30:31  5-MIN KMSN 050330Z 11004KT 10SM OVC070 18/09 A2996 830 56 1500 110/04 RMK AO2
14837KMSN MSN20120604213509606/04/12 21:35:31  5-MIN KMSN 050335Z 11004KT 10SM OVC070 18/09 A2996 830 56 1500 110/04 RMK AO2
14837KMSN MSN20120604214009606/04/12 21:40:31  5-MIN KMSN 050340Z 11004KT 10SM OVC070 18/09 A2996 830 56 1500 120/04 RMK AO2
14837KMSN MSN20120604214509606/04/12 21:45:31  5-MIN KMSN 050345Z 12005KT 10SM BKN070 18/09 A2996 830 56 1500 130/05 RMK AO2
14837KMSN MSN20120604215012006/04/12 21:50:31  5-MIN KMSN 050350Z 12004KT 10SM BKN070 BKN110 18/09 A2996 830 58 1400 130/04 RMK AO2 SLP141 T01780094
14837KMSN MSN20120604215510306/04/12 21:55:31  5-MIN KMSN 050355Z 12003KT 10SM BKN070 BKN100 18/09 A2996 830 58 1400 130/03 RMK AO2
14837KMSN MSN20120604220009606/04/12 22:00:31  5-MIN KMSN 050400Z 12003KT 10SM BKN070 18/09 A2996 830 58 1400 120/03 RMK AO2
14837KMSN MSN20120604220509606/04/12 22:05:31  5-MIN KMSN 050405Z 10004KT 10SM BKN070 18/09 A2995 830 58 1400 110/04 RMK AO2
14837KMSN MSN20120604221009606/04/12 22:10:31  5-MIN KMSN 050410Z 11003KT 10SM BKN070 18/09 A2996 830 58 1400 110/03 RMK AO2
14837KMSN MSN20120604221509606/04/12 22:15:31  5-MIN KMSN 050415Z 00000KT 10SM BKN070 18/09 A2996 830 58 1400 000/00 RMK AO2
14837KMSN MSN20120604222009606/04/12 22:20:31  5-MIN KMSN 050420Z 00000KT 10SM BKN070 18/09 A2996 830 58 1400 000/00 RMK AO2
14837KMSN MSN20120604222509606/04/12 22:25:31  5-MIN KMSN 050425Z 00000KT 10SM BKN070 17/09 A2996 830 60 1300 000/00 RMK AO2
14837KMSN MSN20120604223010306/04/12 22:30:31  5-MIN KMSN 050430Z 00000KT 10SM BKN070 OVC080 17/10 A2996 830 64 1300 000/00 RMK AO2
14837KMSN MSN20120604223510306/04/12 22:35:31  5-MIN KMSN 050435Z 00000KT 10SM BKN070 OVC080 16/11 A2996 830 69 1200 000/00 RMK AO2
14837KMSN MSN20120604224010306/04/12 22:40:31  5-MIN KMSN 050440Z 00000KT 10SM SCT065 OVC080 17/10 A2996 830 64 1300 000/00 RMK AO2
14837KMSN MSN20120604224510306/04/12 22:45:31  5-MIN KMSN 050445Z 00000KT 10SM FEW065 OVC085 18/09 A2996 830 58 1400 000/00 RMK AO2
14837KMSN MSN20120604225012006/04/12 22:50:31  5-MIN KMSN 050450Z 00000KT 10SM FEW065 OVC085 17/10 A2996 830 62 1300 000/00 RMK AO2 SLP142 T01720100
14837KMSN MSN20120604225509606/04/12 22:55:31  5-MIN KMSN 050455Z 00000KT 10SM BKN085 16/11 A2996 830 69 1200 000/00 RMK AO2
14837KMSN MSN20120604230010306/04/12 23:00:31  5-MIN KMSN 050500Z 00000KT 10SM BKN085 BKN110 16/10 A2996 830 69 1100 000/00 RMK AO2
14837KMSN MSN20120604230510306/04/12 23:05:31  5-MIN KMSN 050505Z 00000KT 10SM SCT085 BKN110 16/10 A2996 830 69 1100 000/00 RMK AO2
14837KMSN MSN20120604231010306/04/12 23:10:31  5-MIN KMSN 050510Z 00000KT 10SM BKN085 BKN110 15/10 A2996 830 72 1100 000/00 RMK AO2
14837KMSN MSN20120604231510306/04/12 23:15:31  5-MIN KMSN 050515Z 00000KT 10SM BKN085 BKN110 15/10 A2996 830 72 1100 000/00 RMK AO2
14837KMSN MSN20120604232010306/04/12 23:20:31  5-MIN KMSN 050520Z 00000KT 10SM FEW085 BKN110 16/10 A2996 830 69 1100 000/00 RMK AO2
14837KMSN MSN20120604232510306/04/12 23:25:31  5-MIN KMSN 050525Z 00000KT 10SM FEW085 OVC110 16/10 A2995 830 69 1100 000/00 RMK AO2
14837KMSN MSN20120604233010306/04/12 23:30:31  5-MIN KMSN 050530Z 00000KT 10SM FEW085 OVC100 15/10 A2995 830 72 1100 000/00 RMK AO2
14837KMSN MSN20120604233510306/04/12 23:35:31  5-MIN KMSN 050535Z 00000KT 10SM FEW085 OVC100 15/10 A2995 830 72 1100 000/00 RMK AO2
14837KMSN MSN20120604234009606/04/12 23:40:31  5-MIN KMSN 050540Z 00000KT 10SM OVC100 15/10 A2995 830 72 1100 000/00 RMK AO2
14837KMSN MSN20120604234509606/04/12 23:45:31  5-MIN KMSN 050545Z 00000KT 10SM OVC100 15/11 A2995 830 74 1100 000/00 RMK AO2
14837KMSN MSN20120604235014106/04/12 23:50:31  5-MIN KMSN 050550Z 00000KT 10SM OVC100 15/11 A2995 840 74 1100 000/00 RMK AO2 SLP139 T01500106 10239 20150 402780150 51014
14837KMSN MSN20120604235509606/04/12 23:55:31  5-MIN KMSN 050555Z 00000KT 10SM OVC100 15/11 A2995 830 74 1100 000/00 RMK AO2
14837KMSN MSN20120605000009606/05/12 00:00:32  5-MIN KMSN 050600Z 00000KT 10SM OVC100 15/11 A2995 830 77 1100 000/00 RMK AO2
14837KMSN MSN20120605000509606/05/12 00:05:31  5-MIN KMSN 050605Z 00000KT 10SM OVC100 15/11 A2996 830 77 1100 000/00 RMK AO2
14837KMSN MSN20120605001009606/05/12 00:10:31  5-MIN KMSN 050610Z 00000KT 10SM OVC100 15/11 A2996 830 77 1100 000/00 RMK AO2
14837KMSN MSN20120605001509806/05/12 00:15:31  5-MIN KMSN 050615Z 36005KT 10SM OVC100 16/11 A2996 830 72 1100 010/05 RMK AO2 $
14837KMSN MSN20120605002009806/05/12 00:20:31  5-MIN KMSN 050620Z 00000KT 10SM OVC100 16/11 A2996 830 74 1100 000/00 RMK AO2 $
14837KMSN MSN20120605002509806/05/12 00:25:31  5-MIN KMSN 050625Z 00000KT 10SM OVC100 15/11 A2996 830 74 1100 000/00 RMK AO2 $
14837KMSN MSN20120605003009806/05/12 00:30:31  5-MIN KMSN 050630Z 00000KT 10SM OVC100 15/11 A2996 830 74 1100 000/00 RMK AO2 $
14837KMSN MSN20120605003509806/05/12 00:35:31  5-MIN KMSN 050635Z 00000KT 10SM OVC100 15/11 A2996 830 77 1100 000/00 RMK AO2 $
14837KMSN MSN20120605004009806/05/12 00:40:31  5-MIN KMSN 050640Z 00000KT 10SM OVC100 14/11 A2996 830 77 1000 000/00 RMK AO2 $
14837KMSN MSN20120605004509806/05/12 00:45:31  5-MIN KMSN 050645Z 00000KT 10SM OVC100 15/11 A2996 830 74 1100 000/00 RMK AO2 $
14837KMSN MSN20120605005011506/05/12 00:50:31  5-MIN KMSN 050650Z 00000KT 10SM OVC100 14/11 A2996 820 77 1000 000/00 RMK AO2 SLP143 T01440106 $
14837KMSN MSN20120605005509806/05/12 00:55:31  5-MIN KMSN 050655Z 00000KT 10SM OVC100 15/11 A2996 830 74 1100 000/00 RMK AO2 $
14837KMSN MSN20120605010009806/05/12 01:00:31  5-MIN KMSN 050700Z 00000KT 10SM OVC100 14/11 A2997 820 77 1000 000/00 RMK AO2 $
14837KMSN MSN20120605010509806/05/12 01:05:31  5-MIN KMSN 050705Z 00000KT 10SM OVC100 15/11 A2997 820 74 1100 000/00 RMK AO2 $
14837KMSN MSN20120605011009806/05/12 01:10:31  5-MIN KMSN 050710Z 00000KT 10SM OVC100 15/11 A2996 820 74 1100 000/00 RMK AO2 $
14837KMSN MSN20120605011509806/05/12 01:15:31  5-MIN KMSN 050715Z 00000KT 10SM OVC100 15/11 A2997 820 77 1100 000/00 RMK AO2 $
14837KMSN MSN20120605012009806/05/12 01:20:31  5-MIN KMSN 050720Z 00000KT 10SM OVC100 15/11 A2997 820 74 1100 000/00 RMK AO2 $
14837KMSN MSN20120605012509706/05/12 01:25:31  5-MIN KMSN 050725Z 00000KT 10SM OVC100 14/11 A2997 820 83 900 000/00 RMK AO2 $
14837KMSN MSN20120605013009806/05/12 01:30:31  5-MIN KMSN 050730Z 00000KT 10SM OVC100 14/11 A2997 820 77 1000 000/00 RMK AO2 $
14837KMSN MSN20120605013509806/05/12 01:35:31  5-MIN KMSN 050735Z 00000KT 10SM OVC100 14/11 A2997 820 77 1000 000/00 RMK AO2 $
14837KMSN MSN20120605014009806/05/12 01:40:31  5-MIN KMSN 050740Z 00000KT 10SM BKN100 14/11 A2997 820 77 1000 000/00 RMK AO2 $
14837KMSN MSN20120605014509806/05/12 01:45:31  5-MIN KMSN 050745Z 00000KT 10SM BKN100 14/11 A2997 820 77 1000 000/00 RMK AO2 $
14837KMSN MSN20120605015011506/05/12 01:50:31  5-MIN KMSN 050750Z 02003KT 10SM SCT100 14/11 A2997 820 77 1000 020/03 RMK AO2 SLP146 T01440106 $
14837KMSN MSN20120605015509806/05/12 01:55:31  5-MIN KMSN 050755Z 36003KT 10SM SCT100 14/11 A2997 820 77 1000 010/03 RMK AO2 $
14837KMSN MSN20120605020009706/05/12 02:00:31  5-MIN KMSN 050800Z 00000KT 10SM SCT100 13/11 A2997 820 83 900 000/00 RMK AO2 $
14837KMSN MSN20120605020509706/05/12 02:05:31  5-MIN KMSN 050805Z 00000KT 10SM FEW110 13/11 A2997 820 83 900 000/00 RMK AO2 $
14837KMSN MSN20120605021009706/05/12 02:10:31  5-MIN KMSN 050810Z 00000KT 10SM FEW110 14/11 A2997 820 80 900 000/00 RMK AO2 $
14837KMSN MSN20120605021509806/05/12 02:15:31  5-MIN KMSN 050815Z 00000KT 10SM FEW110 14/10 A2997 820 74 1000 000/00 RMK AO2 $
14837KMSN MSN20120605022009806/05/12 02:20:31  5-MIN KMSN 050820Z 00000KT 10SM SCT110 14/10 A2997 820 74 1000 000/00 RMK AO2 $
14837KMSN MSN20120605022509706/05/12 02:25:31  5-MIN KMSN 050825Z 00000KT 10SM BKN110 13/10 A2997 810 80 800 000/00 RMK AO2 $
14837KMSN MSN20120605023009706/05/12 02:30:31  5-MIN KMSN 050830Z 00000KT 10SM BKN110 13/10 A2997 810 80 800 000/00 RMK AO2 $
14837KMSN MSN20120605023509706/05/12 02:35:31  5-MIN KMSN 050835Z 00000KT 10SM SCT110 13/10 A2997 810 80 800 000/00 RMK AO2 $
14837KMSN MSN20120605024009706/05/12 02:40:31  5-MIN KMSN 050840Z 03003KT 10SM SCT110 14/10 A2998 810 77 900 030/03 RMK AO2 $
14837KMSN MSN20120605024509706/05/12 02:45:31  5-MIN KMSN 050845Z 01003KT 10SM SCT110 13/10 A2998 810 80 800 010/03 RMK AO2 $
14837KMSN MSN20120605025012006/05/12 02:50:31  5-MIN KMSN 050850Z 00000KT 10SM FEW110 12/10 A2998 810 86 700 000/00 RMK AO2 SLP148 T01220100 50002 $
14837KMSN MSN20120605025509406/05/12 02:55:31  5-MIN KMSN 050855Z 00000KT 10SM CLR 13/10 A2998 810 83 800 000/00 RMK AO2 $
14837KMSN MSN20120605030009706/05/12 03:00:31  5-MIN KMSN 050900Z 00000KT 10SM FEW085 13/10 A2998 810 83 800 000/00 RMK AO2 $
14837KMSN MSN20120605030509706/05/12 03:05:31  5-MIN KMSN 050905Z 00000KT 10SM SCT085 13/10 A2998 810 83 800 000/00 RMK AO2 $
14837KMSN MSN20120605031010406/05/12 03:10:31  5-MIN KMSN 050910Z 02003KT 10SM SCT085 BKN110 13/10 A2998 810 80 800 020/03 RMK AO2 $
14837KMSN MSN20120605031510406/05/12 03:15:31  5-MIN KMSN 050915Z 02003KT 10SM FEW085 BKN110 14/11 A2998 810 80 900 020/03 RMK AO2 $
14837KMSN MSN20120605032010406/05/12 03:20:31  5-MIN KMSN 050920Z 01003KT 10SM FEW085 BKN100 13/11 A2998 810 83 800 010/03 RMK AO2 $
14837KMSN MSN20120605032510406/05/12 03:25:31  5-MIN KMSN 050925Z 01003KT 10SM FEW085 BKN100 13/11 A2999 800 86 800 010/03 RMK AO2 $
14837KMSN MSN20120605033010406/05/12 03:30:31  5-MIN KMSN 050930Z 04003KT 10SM FEW085 SCT100 13/11 A2999 800 83 800 040/03 RMK AO2 $
14837KMSN MSN20120605033509706/05/12 03:35:31  5-MIN KMSN 050935Z 03003KT 10SM SCT100 13/10 A2999 800 83 800 040/03 RMK AO2 $
14837KMSN MSN20120605034009706/05/12 03:40:31  5-MIN KMSN 050940Z 00000KT 10SM FEW100 13/10 A2999 800 83 800 000/00 RMK AO2 $
14837KMSN MSN20120605034509706/05/12 03:45:31  5-MIN KMSN 050945Z 01003KT 10SM FEW100 13/11 A2999 800 86 800 010/03 RMK AO2 $
14837KMSN MSN20120605035011106/05/12 03:50:31  5-MIN KMSN 050950Z 02003KT 10SM CLR 12/11 A2999 800 89 700 020/03 RMK AO2 SLP153 T01220106 $
14837KMSN MSN20120605035509406/05/12 03:55:31  5-MIN KMSN 050955Z 02003KT 10SM CLR 12/11 A2999 800 89 700 020/03 RMK AO2 $
14837KMSN MSN20120605040009406/05/12 04:00:31  5-MIN KMSN 051000Z 02003KT 10SM CLR 12/11 A2999 800 89 700 020/03 RMK AO2 $
14837KMSN MSN20120605040509406/05/12 04:05:31  5-MIN KMSN 051005Z 03003KT 10SM CLR 12/11 A2999 800 89 700 030/03 RMK AO2 $
14837KMSN MSN20120605041009406/05/12 04:10:31  5-MIN KMSN 051010Z 00000KT 10SM CLR 12/10 A3000 790 86 700 000/00 RMK AO2 $
14837KMSN MSN20120605041509406/05/12 04:15:31  5-MIN KMSN 051015Z 00000KT 10SM CLR 13/10 A3000 790 83 800 000/00 RMK AO2 $
14837KMSN MSN20120605042009406/05/12 04:20:31  5-MIN KMSN 051020Z 05003KT 10SM CLR 13/09 A3000 790 80 800 050/03 RMK AO2 $
14837KMSN MSN20120605042509406/05/12 04:25:31  5-MIN KMSN 051025Z 05003KT 10SM CLR 13/09 A3000 790 80 800 050/03 RMK AO2 $
14837KMSN MSN20120605043009406/05/12 04:30:31  5-MIN KMSN 051030Z 04003KT 10SM CLR 12/08 A3000 790 77 700 040/03 RMK AO2 $
14837KMSN MSN20120612154009906/12/12 15:40:31  5-MIN KMSN 122140Z 35011G16KT 10SM CLR 22/07 A3010 700 37 1700 350/11G16 RMK AO2
14837KMSN MSN20120612154509906/12/12 15:45:31  5-MIN KMSN 122145Z 32008G16KT 10SM CLR 21/06 A3010 700 37 1600 330/08G16 RMK AO2
14837KMSN MSN20120612155011606/12/12 15:50:31  5-MIN KMSN 122150Z 32007G14KT 10SM CLR 21/07 A3010 700 38 1600 330/07G14 RMK AO2 SLP191 T02110067
14837KMSN MSN20120612155509906/12/12 15:55:31  5-MIN KMSN 122155Z 33009G14KT 10SM CLR 21/07 A3010 700 38 1600 330/09G14 RMK AO2
14837KMSN MSN20120612160009306/12/12 16:00:31  5-MIN KMSN 122200Z 32007KT 10SM CLR 21/06 A3010 700 37 1600 320/07 RMK AO2
14837KMSN MSN20120612160509306/12/12 16:05:31  5-MIN KMSN 122205Z 32008KT 10SM CLR 21/06 A3010 700 37 1600 320/08 RMK AO2
14837KMSN MSN20120612161009306/12/12 16:10:31  5-MIN KMSN 122210Z 34006KT 10SM CLR 21/07 A3010 700 38 1600 340/06 RMK AO2
14837KMSN MSN20120612161509306/12/12 16:15:31  5-MIN KMSN 122215Z 33007KT 10SM CLR 21/07 A3010 700 38 1600 330/07 RMK AO2
14837KMSN MSN20120612162009306/12/12 16:20:31  5-MIN KMSN 122220Z VRB05KT 10SM CLR 21/07 A3010 700 38 1600 VRB/05 RMK AO2
14837KMSN MSN20120612162509306/12/12 16:25:31  5-MIN KMSN 122225Z 30008KT 10SM CLR 21/07 A3010 700 38 1600 300/08 RMK AO2
14837KMSN MSN20120612163010906/12/12 16:30:31  5-MIN KMSN 122230Z 33007KT 290V360 10SM CLR 21/07 A3010 700 38 1600 330/07 290V360 RMK AO2
14837KMSN MSN20120612163509906/12/12 16:35:31  5-MIN KMSN 122235Z 34010G15KT 10SM CLR 21/06 A3011 690 37 1600 340/10G15 RMK AO2
14837KMSN MSN20120612164009906/12/12 16:40:31  5-MIN KMSN 122240Z VRB06G15KT 10SM CLR 21/06 A3011 690 37 1600 VRB/06G15 RMK AO2
14837KMSN MSN20120612164509306/12/12 16:45:31  5-MIN KMSN 122245Z 32008KT 10SM CLR 21/06 A3011 690 37 1600 320/08 RMK AO2
14837KMSN MSN20120612165011006/12/12 16:50:31  5-MIN KMSN 122250Z 34007KT 10SM CLR 21/06 A3011 690 37 1600 340/07 RMK AO2 SLP194 T02110061
14837KMSN MSN20120612165509306/12/12 16:55:31  5-MIN KMSN 122255Z 32007KT 10SM CLR 21/07 A3010 690 38 1600 320/07 RMK AO2
14837KMSN MSN20120612170009306/12/12 17:00:31  5-MIN KMSN 122300Z 33009KT 10SM CLR 21/06 A3011 690 37 1600 330/09 RMK AO2
14837KMSN MSN20120612170509306/12/12 17:05:31  5-MIN KMSN 122305Z 31006KT 10SM CLR 21/06 A3011 690 37 1600 310/06 RMK AO2
14837KMSN MSN20120612171009306/12/12 17:10:31  5-MIN KMSN 122310Z 33007KT 10SM CLR 21/06 A3010 690 37 1600 330/07 RMK AO2
14837KMSN MSN20120612171509306/12/12 17:15:31  5-MIN KMSN 122315Z 33008KT 10SM CLR 21/07 A3010 700 38 1600 330/08 RMK AO2
14837KMSN MSN20120612172009306/12/12 17:20:31  5-MIN KMSN 122320Z 33007KT 10SM CLR 21/06 A3010 690 38 1500 330/07 RMK AO2
14837KMSN MSN20120612172509306/12/12 17:25:31  5-MIN KMSN 122325Z 32005KT 10SM CLR 21/06 A3010 700 38 1500 320/05 RMK AO2
14837KMSN MSN20120612173009306/12/12 17:30:31  5-MIN KMSN 122330Z 32006KT 10SM CLR 21/07 A3010 700 40 1500 320/06 RMK AO2
14837KMSN MSN20120612173509306/12/12 17:35:31  5-MIN KMSN 122335Z 32007KT 10SM CLR 21/06 A3010 700 38 1500 320/07 RMK AO2
14837KMSN MSN20120612174009306/12/12 17:40:31  5-MIN KMSN 122340Z 29006KT 10SM CLR 21/06 A3010 700 38 1500 290/06 RMK AO2
14837KMSN MSN20120612174509306/12/12 17:45:31  5-MIN KMSN 122345Z 33005KT 10SM CLR 21/06 A3010 700 38 1500 330/05 RMK AO2
14837KMSN MSN20120612175012806/12/12 17:50:31  5-MIN KMSN 122350Z 35006KT 10SM CLR 21/06 A3010 700 38 1500 350/06 RMK AO2 SLP191 T02060061 10217 20183 51004
14837KMSN MSN20120612175509306/12/12 17:55:31  5-MIN KMSN 122355Z 34004KT 10SM CLR 21/07 A3010 700 41 1500 340/04 RMK AO2
14837KMSN MSN20120612180009306/12/12 18:00:31  5-MIN KMSN 130000Z 32004KT 10SM CLR 21/07 A3010 700 41 1500 320/04 RMK AO2
14837KMSN MSN20120612180509306/12/12 18:05:31  5-MIN KMSN 130005Z 32006KT 10SM CLR 21/07 A3011 690 40 1500 320/06 RMK AO2
14837KMSN MSN20120612181009306/12/12 18:10:31  5-MIN KMSN 130010Z 33008KT 10SM CLR 20/06 A3011 690 40 1500 330/08 RMK AO2
14837KMSN MSN20120612181509306/12/12 18:15:31  5-MIN KMSN 130015Z VRB05KT 10SM CLR 20/07 A3010 690 41 1500 VRB/05 RMK AO2
14837KMSN MSN20120612182009306/12/12 18:20:31  5-MIN KMSN 130020Z 33007KT 10SM CLR 20/07 A3010 690 41 1500 330/07 RMK AO2
14837KMSN MSN20120612182509306/12/12 18:25:31  5-MIN KMSN 130025Z 34004KT 10SM CLR 20/07 A3010 690 41 1500 340/04 RMK AO2
14837KMSN MSN20120612183009306/12/12 18:30:31  5-MIN KMSN 130030Z 33007KT 10SM CLR 20/06 A3010 690 40 1500 330/07 RMK AO2
14837KMSN MSN20120612183509306/12/12 18:35:31  5-MIN KMSN 130035Z 32006KT 10SM CLR 19/06 A3010 690 41 1400 330/06 RMK AO2
14837KMSN MSN20120612184009306/12/12 18:40:31  5-MIN KMSN 130040Z 32004KT 10SM CLR 19/06 A3010 690 41 1400 320/04 RMK AO2
14837KMSN MSN20120612184509306/12/12 18:45:31  5-MIN KMSN 130045Z 33004KT 10SM CLR 19/06 A3010 690 41 1400 330/04 RMK AO2
14837KMSN MSN20120612185011006/12/12 18:50:31  5-MIN KMSN 130050Z 32004KT 10SM CLR 19/06 A3011 690 41 1400 320/04 RMK AO2 SLP194 T01940061
14837KMSN MSN20120612185509306/12/12 18:55:31  5-MIN KMSN 130055Z 32005KT 10SM CLR 19/06 A3011 690 43 1300 320/05 RMK AO2
14837KMSN MSN20120612190009306/12/12 19:00:31  5-MIN KMSN 130100Z 32005KT 10SM CLR 19/06 A3011 690 43 1300 320/05 RMK AO2
14837KMSN MSN20120612190509306/12/12 19:05:31  5-MIN KMSN 130105Z 33003KT 10SM CLR 19/06 A3011 690 43 1300 330/03 RMK AO2
14837KMSN MSN20120612191009306/12/12 19:10:31  5-MIN KMSN 130110Z 00000KT 10SM CLR 18/07 A3010 690 46 1300 000/00 RMK AO2
14837KMSN MSN20120612191509306/12/12 19:15:31  5-MIN KMSN 130115Z 00000KT 10SM CLR 18/07 A3010 700 48 1200 000/00 RMK AO2
14837KMSN MSN20120612192009306/12/12 19:20:31  5-MIN KMSN 130120Z 32004KT 10SM CLR 18/06 A3011 690 46 1200 320/04 RMK AO2
14837KMSN MSN20120612192509306/12/12 19:25:31  5-MIN KMSN 130125Z 32004KT 10SM CLR 17/07 A3011 690 49 1200 320/04 RMK AO2
14837KMSN MSN20120612193009306/12/12 19:30:31  5-MIN KMSN 130130Z 32004KT 10SM CLR 17/07 A3011 690 49 1200 320/04 RMK AO2
14837KMSN MSN20120612193509306/12/12 19:35:31  5-MIN KMSN 130135Z 32004KT 10SM CLR 17/07 A3011 690 51 1100 320/04 RMK AO2
14837KMSN MSN20120612194009306/12/12 19:40:31  5-MIN KMSN 130140Z 31003KT 10SM CLR 16/07 A3011 690 53 1000 310/03 RMK AO2
14837KMSN MSN20120612194509306/12/12 19:45:31  5-MIN KMSN 130145Z 31003KT 10SM CLR 16/07 A3011 690 53 1000 310/03 RMK AO2
14837KMSN MSN20120612195010906/12/12 19:50:31  5-MIN KMSN 130150Z 00000KT 10SM CLR 16/07 A3011 680 57 900 000/00 RMK AO2 SLP198 T01560072
14837KMSN MSN20120612195509306/12/12 19:55:31  5-MIN KMSN 130155Z 00000KT 10SM CLR 16/07 A3012 680 55 1000 000/00 RMK AO2
14837KMSN MSN20120612200009206/12/12 20:00:31  5-MIN KMSN 130200Z 00000KT 10SM CLR 16/08 A3012 680 59 900 000/00 RMK AO2
14837KMSN MSN20120612200509206/12/12 20:05:31  5-MIN KMSN 130205Z 00000KT 10SM CLR 16/08 A3012 680 59 900 000/00 RMK AO2
14837KMSN MSN20120612201009206/12/12 20:10:31  5-MIN KMSN 130210Z 00000KT 10SM CLR 16/08 A3012 680 59 900 000/00 RMK AO2
14837KMSN MSN20120612201509206/12/12 20:15:31  5-MIN KMSN 130215Z 00000KT 10SM CLR 15/08 A3012 680 62 900 000/00 RMK AO2
14837KMSN MSN20120612202009206/12/12 20:20:31  5-MIN KMSN 130220Z 00000KT 10SM CLR 14/08 A3013 670 64 800 000/00 RMK AO2
14837KMSN MSN20120612202509206/12/12 20:25:31  5-MIN KMSN 130225Z 00000KT 10SM CLR 14/07 A3013 670 61 800 000/00 RMK AO2
14837KMSN MSN20120612203009206/12/12 20:30:31  5-MIN KMSN 130230Z 00000KT 10SM CLR 14/08 A3013 670 66 700 000/00 RMK AO2
14837KMSN MSN20120612203509206/12/12 20:35:31  5-MIN KMSN 130235Z 00000KT 10SM CLR 14/08 A3013 670 66 700 000/00 RMK AO2
14837KMSN MSN20120612204009206/12/12 20:40:31  5-MIN KMSN 130240Z 00000KT 10SM CLR 13/08 A3013 670 71 600 000/00 RMK AO2
14837KMSN MSN20120612204509206/12/12 20:45:31  5-MIN KMSN 130245Z 00000KT 10SM CLR 13/07 A3013 670 66 700 000/00 RMK AO2
14837KMSN MSN20120612205011506/12/12 20:50:31  5-MIN KMSN 130250Z 00000KT 10SM CLR 13/07 A3014 670 66 700 000/00 RMK AO2 SLP205 T01330072 54000
14837KMSN MSN20120612205509206/12/12 20:55:31  5-MIN KMSN 130255Z 00000KT 10SM CLR 13/08 A3014 670 71 600 000/00 RMK AO2
14837KMSN MSN20120612210009206/12/12 21:00:31  5-MIN KMSN 130300Z 04003KT 10SM CLR 13/08 A3014 660 71 600 040/03 RMK AO2
14837KMSN MSN20120612210509206/12/12 21:05:31  5-MIN KMSN 130305Z 00000KT 10SM CLR 13/07 A3014 660 66 700 000/00 RMK AO2
14837KMSN MSN20120612211009206/12/12 21:10:31  5-MIN KMSN 130310Z 00000KT 10SM CLR 12/08 A3014 660 77 500 000/00 RMK AO2
14837KMSN MSN20120612211509206/12/12 21:15:31  5-MIN KMSN 130315Z 02003KT 10SM CLR 13/08 A3014 670 74 600 020/03 RMK AO2
14837KMSN MSN20120612212009206/12/12 21:20:31  5-MIN KMSN 130320Z 01003KT 10SM CLR 13/08 A3014 670 71 600 010/03 RMK AO2
14837KMSN MSN20120612212509206/12/12 21:25:31  5-MIN KMSN 130325Z 00000KT 10SM CLR 12/08 A3014 670 74 500 000/00 RMK AO2
14837KMSN MSN20120612213009206/12/12 21:30:31  5-MIN KMSN 130330Z 00000KT 10SM CLR 13/08 A3014 670 71 600 000/00 RMK AO2
14837KMSN MSN20120612213509206/12/12 21:35:31  5-MIN KMSN 130335Z 00000KT 10SM CLR 13/08 A3014 670 69 700 000/00 RMK AO2
14837KMSN MSN20120612214009206/12/12 21:40:31  5-MIN KMSN 130340Z 00000KT 10SM CLR 12/08 A3014 670 74 500 000/00 RMK AO2
14837KMSN MSN20120612214509206/12/12 21:45:31  5-MIN KMSN 130345Z 00000KT 10SM CLR 13/07 A3013 670 66 700 000/00 RMK AO2
14837KMSN MSN20120612215010906/12/12 21:50:31  5-MIN KMSN 130350Z 00000KT 10SM CLR 12/08 A3013 670 74 500 000/00 RMK AO2 SLP204 T01220078
14837KMSN MSN20120612215509206/12/12 21:55:31  5-MIN KMSN 130355Z 00000KT 10SM CLR 12/08 A3014 670 77 500 000/00 RMK AO2
14837KMSN MSN20120612220009206/12/12 22:00:31  5-MIN KMSN 130400Z 00000KT 10SM CLR 12/08 A3014 670 77 500 000/00 RMK AO2
14837KMSN MSN20120612220509206/12/12 22:05:31  5-MIN KMSN 130405Z 00000KT 10SM CLR 11/08 A3014 670 80 400 000/00 RMK AO2
14837KMSN MSN20120612221009206/12/12 22:10:31  5-MIN KMSN 130410Z 00000KT 10SM CLR 11/08 A3013 670 80 400 000/00 RMK AO2
14837KMSN MSN20120612221509206/12/12 22:15:31  5-MIN KMSN 130415Z 00000KT 10SM CLR 11/08 A3013 670 80 400 000/00 RMK AO2
14837KMSN MSN20120612222009206/12/12 22:20:31  5-MIN KMSN 130420Z 00000KT 10SM CLR 11/08 A3013 670 80 400 000/00 RMK AO2
14837KMSN MSN20120612222509206/12/12 22:25:31  5-MIN KMSN 130425Z 00000KT 10SM CLR 11/08 A3013 670 80 400 000/00 RMK AO2
14837KMSN MSN20120612223009206/12/12 22:30:31  5-MIN KMSN 130430Z 00000KT 10SM CLR 12/08 A3013 670 77 500 000/00 RMK AO2
14837KMSN MSN20120612223509206/12/12 22:35:31  5-MIN KMSN 130435Z 00000KT 10SM CLR 11/08 A3014 660 80 400 000/00 RMK AO2
14837KMSN MSN20120612224009206/12/12 22:40:31  5-MIN KMSN 130440Z 00000KT 10SM CLR 10/07 A3014 660 83 300 000/00 RMK AO2
14837KMSN MSN20120612224509206/12/12 22:45:31  5-MIN KMSN 130445Z 00000KT 10SM CLR 11/07 A3014 660 80 300 000/00 RMK AO2
14837KMSN MSN20120612225010906/12/12 22:50:31  5-MIN KMSN 130450Z 00000KT 10SM CLR 11/08 A3014 660 83 300 000/00 RMK AO2 SLP207 T01060078
14837KMSN MSN20120612225509206/12/12 22:55:31  5-MIN KMSN 130455Z 00000KT 10SM CLR 11/08 A3014 660 83 400 000/00 RMK AO2
14837KMSN MSN20120612230009206/12/12 23:00:31  5-MIN KMSN 130500Z 00000KT 10SM CLR 11/08 A3014 660 80 400 000/00 RMK AO2
14837KMSN MSN20120612230509206/12/12 23:05:31  5-MIN KMSN 130505Z 00000KT 10SM CLR 11/08 A3014 660 80 400 000/00 RMK AO2
14837KMSN MSN20120612231009206/12/12 23:10:31  5-MIN KMSN 130510Z 00000KT 10SM CLR 10/07 A3014 660 83 300 000/00 RMK AO2
14837KMSN MSN20120612231509206/12/12 23:15:31  5-MIN KMSN 130515Z 00000KT 10SM CLR 10/07 A3014 660 83 300 000/00 RMK AO2
14837KMSN MSN20120612232009206/12/12 23:20:31  5-MIN KMSN 130520Z 00000KT 10SM CLR 10/07 A3014 660 83 300 000/00 RMK AO2
14837KMSN MSN20120612232509206/12/12 23:25:31  5-MIN KMSN 130525Z 00000KT 10SM CLR 10/07 A3014 660 83 300 000/00 RMK AO2
14837KMSN MSN20120612233009206/12/12 23:30:31  5-MIN KMSN 130530Z 00000KT 10SM CLR 10/08 A3014 660 86 300 000/00 RMK AO2
14837KMSN MSN20120612233509206/12/12 23:35:31  5-MIN KMSN 130535Z 00000KT 10SM CLR 10/08 A3014 660 86 300 000/00 RMK AO2
14837KMSN MSN20120612234009206/12/12 23:40:31  5-MIN KMSN 130540Z 00000KT 10SM CLR 10/08 A3014 660 86 300 000/00 RMK AO2
14837KMSN MSN20120612234509206/12/12 23:45:31  5-MIN KMSN 130545Z 00000KT 10SM CLR 10/07 A3014 660 83 300 000/00 RMK AO2
14837KMSN MSN20120612235013706/12/12 23:50:31  5-MIN KMSN 130550Z 00000KT 10SM CLR 10/07 A3014 660 83 300 000/00 RMK AO2 SLP208 T01000072 10206 20100 402170100 53011
14837KMSN MSN20120612235509206/12/12 23:55:31  5-MIN KMSN 130555Z 00000KT 10SM CLR 10/07 A3014 660 83 300 000/00 RMK AO2
14837KMSN MSN20120613000009206/13/12 00:00:32  5-MIN KMSN 130600Z 00000KT 10SM CLR 09/08 A3015 660 89 200 000/00 RMK AO2
14837KMSN MSN20120613000509206/13/12 00:05:31  5-MIN KMSN 130605Z 00000KT 10SM CLR 09/08 A3015 650 89 200 000/00 RMK AO2
14837KMSN MSN20120613001009206/13/12 00:10:31  5-MIN KMSN 130610Z 00000KT 10SM CLR 09/08 A3015 650 89 200 000/00 RMK AO2
14837KMSN MSN20120613001509206/13/12 00:15:31  5-MIN KMSN 130615Z 00000KT 10SM CLR 09/08 A3015 650 89 200 000/00 RMK AO2
14837KMSN MSN20120613002009206/13/12 00:20:31  5-MIN KMSN 130620Z 27003KT 10SM CLR 09/07 A3015 650 89 100 270/03 RMK AO2
14837KMSN MSN20120613002509206/13/12 00:25:31  5-MIN KMSN 130625Z 28003KT 10SM CLR 09/07 A3016 650 89 100 280/03 RMK AO2
14837KMSN MSN20120613003009206/13/12 00:30:31  5-MIN KMSN 130630Z 00000KT 10SM CLR 09/08 A3016 650 93 100 000/00 RMK AO2
14837KMSN MSN20120613003509206/13/12 00:35:31  5-MIN KMSN 130635Z 00000KT 10SM CLR 09/08 A3015 650 89 200 000/00 RMK AO2
14837KMSN MSN20120613004009206/13/12 00:40:31  5-MIN KMSN 130640Z 06003KT 10SM CLR 10/07 A3015 650 83 200 060/03 RMK AO2
14837KMSN MSN20120613004509206/13/12 00:45:31  5-MIN KMSN 130645Z 00000KT 10SM CLR 09/07 A3015 660 86 200 000/00 RMK AO2
14837KMSN MSN20120613005010906/13/12 00:50:31  5-MIN KMSN 130650Z 08003KT 10SM CLR 09/07 A3015 660 86 100 080/03 RMK AO2 SLP209 T00890067
14837KMSN MSN20120613005509006/13/12 00:55:31  5-MIN KMSN 130655Z 00000KT 10SM CLR 08/06 A3015 650 86 0 000/00 RMK AO2
14837KMSN MSN20120613010009206/13/12 01:00:31  5-MIN KMSN 130700Z 00000KT 10SM CLR 09/06 A3016 650 83 100 000/00 RMK AO2
14837KMSN MSN20120613010509206/13/12 01:05:31  5-MIN KMSN 130705Z 00000KT 10SM CLR 09/07 A3016 640 86 100 000/00 RMK AO2
14837KMSN MSN20120613011009006/13/12 01:10:31  5-MIN KMSN 130710Z 00000KT 10SM CLR 08/07 A3016 640 89 0 000/00 RMK AO2
14837KMSN MSN20120613011509206/13/12 01:15:31  5-MIN KMSN 130715Z 00000KT 10SM CLR 09/07 A3016 650 89 100 000/00 RMK AO2
14837KMSN MSN20120613012009206/13/12 01:20:31  5-MIN KMSN 130720Z 00000KT 10SM CLR 09/07 A3015 650 89 100 000/00 RMK AO2
14837KMSN MSN20120613012509206/13/12 01:25:31  5-MIN KMSN 130725Z 00000KT 10SM CLR 09/07 A3016 650 89 100 000/00 RMK AO2
14837KMSN MSN20120613013009206/13/12 01:30:31  5-MIN KMSN 130730Z 00000KT 10SM CLR 09/07 A3016 650 86 200 000/00 RMK AO2
14837KMSN MSN20120613013509206/13/12 01:35:31  5-MIN KMSN 130735Z 00000KT 10SM CLR 09/07 A3015 650 89 100 000/00 RMK AO2
14837KMSN MSN20120613014009206/13/12 01:40:31  5-MIN KMSN 130740Z 00000KT 10SM CLR 09/07 A3016 640 86 100 000/00 RMK AO2
14837KMSN MSN20120613014509006/13/12 01:45:31  5-MIN KMSN 130745Z 00000KT 10SM CLR 08/07 A3016 640 89 0 000/00 RMK AO2
14837KMSN MSN20120613015010706/13/12 01:50:31  5-MIN KMSN 130750Z 00000KT 10SM CLR 08/07 A3016 640 93 0 000/00 RMK AO2 SLP215 T00780067
14837KMSN MSN20120613015509006/13/12 01:55:31  5-MIN KMSN 130755Z 00000KT 10SM CLR 08/07 A3016 640 93 0 000/00 RMK AO2
14837KMSN MSN20120613020009006/13/12 02:00:31  5-MIN KMSN 130800Z 00000KT 10SM CLR 08/07 A3016 640 93 0 000/00 RMK AO2
14837KMSN MSN20120613020509006/13/12 02:05:31  5-MIN KMSN 130805Z 00000KT 10SM CLR 08/07 A3016 640 93 0 000/00 RMK AO2
14837KMSN MSN20120613021009006/13/12 02:10:31  5-MIN KMSN 130810Z 00000KT 10SM CLR 08/07 A3016 640 93 0 000/00 RMK AO2
14837KMSN MSN20120613021509006/13/12 02:15:31  5-MIN KMSN 130815Z 00000KT 10SM CLR 08/07 A3016 640 93 0 000/00 RMK AO2
14837KMSN MSN20120613022009306/13/12 02:20:31  5-MIN KMSN 130820Z 00000KT 10SM CLR 07/06 A3016 640 93 -100 000/00 RMK AO2
14837KMSN MSN20120613022509306/13/12 02:25:31  5-MIN KMSN 130825Z 00000KT 10SM CLR 07/06 A3016 640 93 -100 000/00 RMK AO2
14837KMSN MSN20120613023009006/13/12 02:30:31  5-MIN KMSN 130830Z 00000KT 10SM CLR 08/07 A3016 640 93 0 000/00 RMK AO2
14837KMSN MSN20120613023509206/13/12 02:35:31  5-MIN KMSN 130835Z 00000KT 10SM CLR 09/07 A3017 640 89 100 000/00 RMK AO2
14837KMSN MSN20120613024009006/13/12 02:40:31  5-MIN KMSN 130840Z 02003KT 10SM CLR 08/07 A3017 640 96 0 030/03 RMK AO2
14837KMSN MSN20120613024509006/13/12 02:45:31  5-MIN KMSN 130845Z 05003KT 10SM CLR 08/07 A3017 640 93 0 060/03 RMK AO2
14837KMSN MSN20120613025011306/13/12 02:50:31  5-MIN KMSN 130850Z 00000KT 10SM CLR 08/06 A3017 640 89 0 000/00 RMK AO2 SLP216 T00780061 53002
14837KMSN MSN20120613025509006/13/12 02:55:31  5-MIN KMSN 130855Z 00000KT 10SM CLR 08/07 A3017 640 89 0 000/00 RMK AO2
14837KMSN MSN20120613030009006/13/12 03:00:31  5-MIN KMSN 130900Z 00000KT 10SM CLR 08/07 A3017 640 93 0 000/00 RMK AO2
14837KMSN MSN20120613030509006/13/12 03:05:31  5-MIN KMSN 130905Z 00000KT 10SM CLR 08/07 A3017 630 89 0 000/00 RMK AO2
14837KMSN MSN20120613031009006/13/12 03:10:31  5-MIN KMSN 130910Z 00000KT 10SM CLR 08/07 A3017 630 89 0 000/00 RMK AO2
14837KMSN MSN20120613031509006/13/12 03:15:31  5-MIN KMSN 130915Z 00000KT 10SM CLR 08/07 A3017 630 93 0 000/00 RMK AO2
14837KMSN MSN20120613032009006/13/12 03:20:31  5-MIN KMSN 130920Z 00000KT 10SM CLR 08/07 A3017 630 93 0 000/00 RMK AO2
14837KMSN MSN20120613032509006/13/12 03:25:31  5-MIN KMSN 130925Z 00000KT 10SM CLR 08/07 A3017 640 93 0 000/00 RMK AO2
14837KMSN MSN20120613033009006/13/12 03:30:31  5-MIN KMSN 130930Z 00000KT 10SM CLR 08/07 A3017 640 93 0 000/00 RMK AO2
14837KMSN MSN20120613033509006/13/12 03:35:31  5-MIN KMSN 130935Z 00000KT 10SM CLR 08/07 A3017 630 93 0 000/00 RMK AO2
14837KMSN MSN20120613034009006/13/12 03:40:31  5-MIN KMSN 130940Z 00000KT 10SM CLR 08/07 A3017 630 93 0 000/00 RMK AO2
14837KMSN MSN20120613034509006/13/12 03:45:31  5-MIN KMSN 130945Z 00000KT 10SM CLR 08/07 A3018 630 93 0 000/00 RMK AO2
14837KMSN MSN20120613035010706/13/12 03:50:31  5-MIN KMSN 130950Z 00000KT 10SM CLR 08/07 A3018 630 96 0 000/00 RMK AO2 SLP220 T00780072
14837KMSN MSN20120613035509006/13/12 03:55:31  5-MIN KMSN 130955Z 00000KT 10SM CLR 08/07 A3018 620 96 0 000/00 RMK AO2
14837KMSN MSN20120613040009006/13/12 04:00:31  5-MIN KMSN 131000Z 00000KT 10SM CLR 08/07 A3018 620 93 0 000/00 RMK AO2
14837KMSN MSN20120613040509006/13/12 04:05:31  5-MIN KMSN 131005Z 00000KT 10SM CLR 08/07 A3018 630 93 0 000/00 RMK AO2
14837KMSN MSN20120613041009006/13/12 04:10:31  5-MIN KMSN 131010Z 00000KT 10SM CLR 08/07 A3018 630 96 0 000/00 RMK AO2
14837KMSN MSN20120613041509006/13/12 04:15:31  5-MIN KMSN 131015Z 00000KT 10SM CLR 08/07 A3018 630 93 0 000/00 RMK AO2
14837KMSN MSN20120613042009306/13/12 04:20:31  5-MIN KMSN 131020Z 00000KT 10SM CLR 07/06 A3018 630 93 -100 000/00 RMK AO2
14837KMSN MSN20120613042509306/13/12 04:25:31  5-MIN KMSN 131025Z 00000KT 10SM CLR 07/06 A3017 630 93 -100 000/00 RMK AO2
14837KMSN MSN20120613043009306/13/12 04:30:31  5-MIN KMSN 131030Z 00000KT 10SM CLR 07/06 A3018 630 93 -100 000/00 RMK AO2
14837KMSN MSN20120613043509006/13/12 04:35:31  5-MIN KMSN 131035Z 00000KT 10SM CLR 08/07 A3018 630 93 0 000/00 RMK AO2
14837KMSN MSN20120613044009006/13/12 04:40:31  5-MIN KMSN 131040Z 00000KT 10SM CLR 08/07 A3018 630 93 0 000/00 RMK AO2
14837KMSN MSN20120613044509006/13/12 04:45:31  5-MIN KMSN 131045Z 00000KT 10SM CLR 08/07 A3018 620 93 0 000/00 RMK AO2
14837KMSN MSN20120613045010706/13/12 04:50:31  5-MIN KMSN 131050Z 00000KT 10SM CLR 08/07 A3018 620 93 0 000/00 RMK AO2 SLP222 T00780067
14837KMSN MSN20120613045509006/13/12 04:55:31  5-MIN KMSN 131055Z 00000KT 10SM CLR 08/07 A3018 620 93 0 000/00 RMK AO2
14837KMSN MSN20120613050009006/13/12 05:00:31  5-MIN KMSN 131100Z 00000KT 10SM CLR 08/07 A3018 620 93 0 000/00 RMK AO2
14837KMSN MSN20120613050509006/13/12 05:05:31  5-MIN KMSN 131105Z 00000KT 10SM CLR 08/07 A3018 620 93 0 000/00 RMK AO2
14837KMSN MSN20120613051009006/13/12 05:10:31  5-MIN KMSN 131110Z 00000KT 10SM CLR 08/07 A3019 620 89 0 000/00 RMK AO2
14837KMSN MSN20120613051509006/13/12 05:15:31  5-MIN KMSN 131115Z 00000KT 10SM CLR 08/07 A3019 620 93 0 000/00 RMK AO2
14837KMSN MSN20120613052009206/13/12 05:20:31  5-MIN KMSN 131120Z 00000KT 10SM CLR 09/07 A3019 620 89 100 000/00 RMK AO2
14837KMSN MSN20120613052509206/13/12 05:25:31  5-MIN KMSN 131125Z 00000KT 10SM CLR 09/07 A3019 620 89 100 000/00 RMK AO2
14837KMSN MSN20120613053009206/13/12 05:30:31  5-MIN KMSN 131130Z 00000KT 10SM CLR 09/08 A3019 620 89 100 000/00 RMK AO2
14837KMSN MSN20120613053509206/13/12 05:35:31  5-MIN KMSN 131135Z 00000KT 10SM CLR 10/08 A3019 610 86 200 000/00 RMK AO2
14837KMSN MSN20120613054009206/13/12 05:40:31  5-MIN KMSN 131140Z 00000KT 10SM CLR 10/08 A3019 610 86 200 000/00 RMK AO2
14837KMSN MSN20120613054509206/13/12 05:45:31  5-MIN KMSN 131145Z 00000KT 10SM CLR 10/08 A3020 610 86 200 000/00 RMK AO2
14837KMSN MSN20120613055012706/13/12 05:50:31  5-MIN KMSN 131150Z 00000KT 10SM CLR 10/08 A3020 610 86 200 000/00 RMK AO2 SLP226 T01000078 10100 20067 51008
14837KMSN MSN20120613055509206/13/12 05:55:31  5-MIN KMSN 131155Z 00000KT 10SM CLR 11/08 A3020 610 83 300 000/00 RMK AO2
14837KMSN MSN20120613060009206/13/12 06:00:31  5-MIN KMSN 131200Z 00000KT 10SM CLR 11/08 A3020 610 83 300 000/00 RMK AO2
14837KMSN MSN20120613060509206/13/12 06:05:31  5-MIN KMSN 131205Z 00000KT 10SM CLR 11/08 A3019 610 86 300 000/00 RMK AO2
14837KMSN MSN20120613061009206/13/12 06:10:31  5-MIN KMSN 131210Z 00000KT 10SM CLR 11/09 A3019 620 86 300 000/00 RMK AO2
14837KMSN MSN20120613061509206/13/12 06:15:31  5-MIN KMSN 131215Z 00000KT 10SM CLR 11/09 A3019 610 86 300 000/00 RMK AO2
14837KMSN MSN20120613062009206/13/12 06:20:31  5-MIN KMSN 131220Z 00000KT 10SM CLR 11/09 A3019 610 86 300 000/00 RMK AO2
14837KMSN MSN20120613062509206/13/12 06:25:31  5-MIN KMSN 131225Z 00000KT 10SM CLR 12/09 A3019 610 80 500 000/00 RMK AO2
14837KMSN MSN20120613063009206/13/12 06:30:31  5-MIN KMSN 131230Z 00000KT 10SM CLR 13/09 A3019 620 80 500 000/00 RMK AO2
14837KMSN MSN20120613063509206/13/12 06:35:31  5-MIN KMSN 131235Z 00000KT 10SM CLR 13/09 A3019 620 74 600 000/00 RMK AO2
14837KMSN MSN20120613064009206/13/12 06:40:31  5-MIN KMSN 131240Z 00000KT 10SM CLR 14/09 A3019 620 71 700 000/00 RMK AO2
14837KMSN MSN20120613064509206/13/12 06:45:31  5-MIN KMSN 131245Z 00000KT 10SM CLR 14/09 A3019 620 71 700 000/00 RMK AO2
14837KMSN MSN20120613065010906/13/12 06:50:31  5-MIN KMSN 131250Z 00000KT 10SM CLR 14/09 A3019 620 72 700 000/00 RMK AO2 SLP222 T01440094
14837KMSN MSN20120613065509206/13/12 06:55:31  5-MIN KMSN 131255Z 00000KT 10SM CLR 15/09 A3019 610 69 800 000/00 RMK AO2
14837KMSN MSN20120613070009206/13/12 07:00:31  5-MIN KMSN 131300Z 00000KT 10SM CLR 15/09 A3019 610 69 800 000/00 RMK AO2
14837KMSN MSN20120613070509206/13/12 07:05:31  5-MIN KMSN 131305Z 00000KT 10SM CLR 16/09 A3019 610 67 900 000/00 RMK AO2
14837KMSN MSN20120613071009206/13/12 07:10:31  5-MIN KMSN 131310Z 00000KT 10SM CLR 16/10 A3019 610 67 900 000/00 RMK AO2
14837KMSN MSN20120613071509306/13/12 07:15:31  5-MIN KMSN 131315Z 00000KT 10SM CLR 17/09 A3019 620 62 1000 000/00 RMK AO2
14837KMSN MSN20120613072009306/13/12 07:20:31  5-MIN KMSN 131320Z 00000KT 10SM CLR 17/09 A3019 620 62 1000 000/00 RMK AO2
14837KMSN MSN20120613072509306/13/12 07:25:31  5-MIN KMSN 131325Z 00000KT 10SM CLR 17/09 A3019 620 60 1000 000/00 RMK AO2
14837KMSN MSN20120613073009306/13/12 07:30:31  5-MIN KMSN 131330Z VRB03KT 10SM CLR 17/09 A3019 620 57 1100 VRB/03 RMK AO2
14837KMSN MSN20120613073509306/13/12 07:35:31  5-MIN KMSN 131335Z 13003KT 10SM CLR 18/09 A3019 620 58 1100 130/03 RMK AO2
14837KMSN MSN20120613074009306/13/12 07:40:31  5-MIN KMSN 131340Z 17003KT 10SM CLR 18/09 A3019 620 58 1100 180/03 RMK AO2
14837KMSN MSN20120613074509306/13/12 07:45:31  5-MIN KMSN 131345Z 19006KT 10SM CLR 18/09 A3019 620 55 1100 190/06 RMK AO2
14837KMSN MSN20120613075011006/13/12 07:50:31  5-MIN KMSN 131350Z 18004KT 10SM CLR 18/09 A3019 610 54 1200 190/04 RMK AO2 SLP224 T01830089
14837KMSN MSN20120613075509306/13/12 07:55:31  5-MIN KMSN 131355Z 15003KT 10SM CLR 18/09 A3020 610 56 1200 150/03 RMK AO2
14837KMSN MSN20120613080009306/13/12 08:00:31  5-MIN KMSN 131400Z 17006KT 10SM CLR 18/09 A3020 610 56 1200 170/06 RMK AO2
14837KMSN MSN20120613080509306/13/12 08:05:31  5-MIN KMSN 131405Z 18005KT 10SM CLR 18/09 A3020 600 56 1200 180/05 RMK AO2
14837KMSN MSN20120613081009306/13/12 08:10:31  5-MIN KMSN 131410Z 16007KT 10SM CLR 19/09 A3020 610 54 1200 170/07 RMK AO2
14837KMSN MSN20120613081509306/13/12 08:15:31  5-MIN KMSN 131415Z 19008KT 10SM CLR 19/09 A3020 610 54 1200 200/08 RMK AO2
14837KMSN MSN20120613082009306/13/12 08:20:31  5-MIN KMSN 131420Z 18006KT 10SM CLR 19/09 A3020 610 54 1200 180/06 RMK AO2
14837KMSN MSN20120613082509306/13/12 08:25:31  5-MIN KMSN 131425Z 17008KT 10SM CLR 19/09 A3020 610 52 1300 180/08 RMK AO2
14837KMSN MSN20120613083009306/13/12 08:30:31  5-MIN KMSN 131430Z 17005KT 10SM CLR 19/09 A3020 610 54 1200 170/05 RMK AO2
14837KMSN MSN20120613083509306/13/12 08:35:31  5-MIN KMSN 131435Z 17009KT 10SM CLR 19/10 A3020 610 54 1300 180/09 RMK AO2
14837KMSN MSN20120613084009306/13/12 08:40:31  5-MIN KMSN 131440Z 17006KT 10SM CLR 19/10 A3019 610 54 1300 180/06 RMK AO2
14837KMSN MSN20120613084509306/13/12 08:45:31  5-MIN KMSN 131445Z 18008KT 10SM CLR 20/10 A3019 610 52 1400 190/08 RMK AO2
14837KMSN MSN20120613085011906/13/12 08:50:31  5-MIN KMSN 131450Z 17005KT 10SM FEW040 19/09 A3019 610 50 1300 170/05 RMK AO2 SLP223 T01940089 51010
14837KMSN MSN20120613085509606/13/12 08:55:31  5-MIN KMSN 131455Z 15009KT 10SM FEW040 20/09 A3019 610 50 1400 160/09 RMK AO2
14837KMSN MSN20120613090009606/13/12 09:00:31  5-MIN KMSN 131500Z 16007KT 10SM FEW040 20/09 A3019 620 50 1400 160/07 RMK AO2
14837KMSN MSN20120613090509606/13/12 09:05:31  5-MIN KMSN 131505Z 18006KT 10SM FEW040 21/09 A3019 620 46 1400 180/06 RMK AO2
14837KMSN MSN20120613091009606/13/12 09:10:31  5-MIN KMSN 131510Z 13007KT 10SM FEW040 20/09 A3019 620 48 1400 130/07 RMK AO2
14837KMSN MSN20120613091509606/13/12 09:15:31  5-MIN KMSN 131515Z 11006KT 10SM FEW040 20/09 A3019 620 50 1400 120/06 RMK AO2
14837KMSN MSN20120613092009606/13/12 09:20:31  5-MIN KMSN 131520Z 14006KT 10SM FEW040 20/09 A3018 620 50 1400 140/06 RMK AO2
14837KMSN MSN20120613092509606/13/12 09:25:31  5-MIN KMSN 131525Z 17008KT 10SM FEW040 21/08 A3018 620 45 1500 170/08 RMK AO2
14837KMSN MSN20120613093009606/13/12 09:30:31  5-MIN KMSN 131530Z 18008KT 10SM FEW040 21/08 A3019 620 43 1500 190/08 RMK AO2
14837KMSN MSN20120613093509606/13/12 09:35:31  5-MIN KMSN 131535Z 18004KT 10SM FEW040 21/08 A3019 620 43 1400 180/04 RMK AO2
14837KMSN MSN20120613094009606/13/12 09:40:31  5-MIN KMSN 131540Z 17006KT 10SM FEW040 21/08 A3019 620 43 1400 170/06 RMK AO2
14837KMSN MSN20120613094509606/13/12 09:45:31  5-MIN KMSN 131545Z VRB05KT 10SM FEW040 21/08 A3019 620 43 1400 VRB/05 RMK AO2
14837KMSN MSN20120613095011306/13/12 09:50:31  5-MIN KMSN 131550Z 17010KT 10SM FEW040 21/08 A3019 620 43 1500 170/10 RMK AO2 SLP221 T02060078
14837KMSN MSN20120613095509606/13/12 09:55:31  5-MIN KMSN 131555Z 15007KT 10SM FEW048 21/08 A3019 620 43 1500 150/07 RMK AO2
14837KMSN MSN20120613100009606/13/12 10:00:31  5-MIN KMSN 131600Z 13005KT 10SM FEW048 21/08 A3018 620 45 1500 130/05 RMK AO2
14837KMSN MSN20120613100511206/13/12 10:05:31  5-MIN KMSN 131605Z 18008KT 150V220 10SM FEW048 21/08 A3019 620 42 1500 180/08 150V220 RMK AO2
14837KMSN MSN20120613101009606/13/12 10:10:31  5-MIN KMSN 131610Z 16004KT 10SM FEW048 21/08 A3019 620 42 1500 160/04 RMK AO2
14837KMSN MSN20120613101509606/13/12 10:15:31  5-MIN KMSN 131615Z 16006KT 10SM FEW048 21/08 A3019 620 43 1500 170/06 RMK AO2
14837KMSN MSN20120613102009606/13/12 10:20:31  5-MIN KMSN 131620Z 20006KT 10SM FEW048 21/08 A3019 620 42 1500 200/06 RMK AO2
14837KMSN MSN20120613102509606/13/12 10:25:31  5-MIN KMSN 131625Z 23005KT 10SM FEW048 21/08 A3018 620 42 1500 230/05 RMK AO2
14837KMSN MSN20120613103009606/13/12 10:30:31  5-MIN KMSN 131630Z 20005KT 10SM FEW048 21/08 A3018 620 42 1500 200/05 RMK AO2
14837KMSN MSN20120613103509606/13/12 10:35:31  5-MIN KMSN 131635Z 16008KT 10SM FEW048 22/08 A3019 620 39 1600 160/08 RMK AO2
14837KMSN MSN20120613104009606/13/12 10:40:31  5-MIN KMSN 131640Z 17007KT 10SM FEW048 22/08 A3019 620 40 1600 170/07 RMK AO2
14837KMSN MSN20120613104509606/13/12 10:45:31  5-MIN KMSN 131645Z 16007KT 10SM FEW048 22/08 A3019 620 40 1600 160/07 RMK AO2
14837KMSN MSN20120613105011906/13/12 10:50:31  5-MIN KMSN 131650Z 17009G14KT 10SM FEW048 22/08 A3019 620 40 1600 170/09G14 RMK AO2 SLP221 T02220083
14837KMSN MSN20120613105510906/13/12 10:55:31  5-MIN KMSN 131655Z 18008G14KT 10SM FEW055 SCT120 22/08 A3019 620 40 1600 180/08G14 RMK AO2
14837KMSN MSN20120613110010906/13/12 11:00:31  5-MIN KMSN 131700Z 17011G17KT 10SM FEW055 SCT120 22/08 A3019 620 39 1600 170/11G17 RMK AO2
14837KMSN MSN20120613110510306/13/12 11:05:31  5-MIN KMSN 131705Z 18011KT 10SM FEW055 SCT120 22/07 A3019 620 39 1600 180/11 RMK AO2
14837KMSN MSN20120613111010306/13/12 11:10:31  5-MIN KMSN 131710Z 17010KT 10SM FEW055 SCT120 22/07 A3019 620 39 1600 170/10 RMK AO2
14837KMSN MSN20120613111510306/13/12 11:15:31  5-MIN KMSN 131715Z 17008KT 10SM FEW055 SCT120 22/07 A3019 620 39 1600 170/08 RMK AO2
14837KMSN MSN20120613112010306/13/12 11:20:31  5-MIN KMSN 131720Z 18009KT 10SM FEW055 SCT120 22/08 A3018 620 40 1600 180/09 RMK AO2
14837KMSN MSN20120613112510306/13/12 11:25:31  5-MIN KMSN 131725Z 17008KT 10SM FEW055 SCT120 22/07 A3018 620 39 1600 170/08 RMK AO2
14837KMSN MSN20120613113010306/13/12 11:30:31  5-MIN KMSN 131730Z 14009KT 10SM FEW055 SCT120 22/08 A3018 620 40 1600 150/09 RMK AO2
14837KMSN MSN20120613113510306/13/12 11:35:31  5-MIN KMSN 131735Z 17009KT 10SM FEW055 SCT120 22/08 A3018 620 40 1600 170/09 RMK AO2
14837KMSN MSN20120613114010306/13/12 11:40:31  5-MIN KMSN 131740Z 18006KT 10SM FEW055 SCT120 22/08 A3018 620 40 1600 180/06 RMK AO2
14837KMSN MSN20120613114511906/13/12 11:45:31  5-MIN KMSN 131745Z 17007KT 150V220 10SM FEW055 SCT120 23/09 A3018 620 40 1700 170/07 150V220 RMK AO2
14837KMSN MSN20120613115014406/13/12 11:50:31  5-MIN KMSN 131750Z 19009G16KT 10SM FEW055 SCT120 23/08 A3018 630 37 1700 190/09G16 RMK AO2 SLP219 T02280078 10228 20106 56002
14837KMSN MSN20120613115512506/13/12 11:55:31  5-MIN KMSN 131755Z 17007G16KT 110V210 10SM FEW060 BKN120 22/08 A3018 630 40 1700 170/07G16 110V210 RMK AO2
14837KMSN MSN20120613120010306/13/12 12:00:31  5-MIN KMSN 131800Z 15006KT 10SM FEW060 BKN120 22/08 A3018 630 40 1600 150/06 RMK AO2
14837KMSN MSN20120613120510306/13/12 12:05:31  5-MIN KMSN 131805Z 17011KT 10SM FEW060 BKN120 22/08 A3018 630 42 1600 170/11 RMK AO2
14837KMSN MSN20120613121010906/13/12 12:10:31  5-MIN KMSN 131810Z 17011G15KT 10SM FEW060 BKN120 22/08 A3018 630 40 1700 180/11G15 RMK AO2
14837KMSN MSN20120613121510906/13/12 12:15:31  5-MIN KMSN 131815Z 19008G15KT 10SM FEW060 BKN120 22/08 A3018 630 39 1700 190/08G15 RMK AO2
14837KMSN MSN20120613122010906/13/12 12:20:31  5-MIN KMSN 131820Z 19007G14KT 10SM FEW060 BKN120 22/07 A3017 630 39 1600 190/07G14 RMK AO2
14837KMSN MSN20120613122510906/13/12 12:25:31  5-MIN KMSN 131825Z 16008G14KT 10SM FEW060 BKN120 22/08 A3017 630 40 1600 160/08G14 RMK AO2
14837KMSN MSN20120613123010306/13/12 12:30:31  5-MIN KMSN 131830Z 20007KT 10SM FEW060 BKN120 22/08 A3017 630 40 1600 200/07 RMK AO2
14837KMSN MSN20120613123510306/13/12 12:35:31  5-MIN KMSN 131835Z 18010KT 10SM FEW060 BKN120 22/08 A3017 630 39 1700 180/10 RMK AO2
14837KMSN MSN20120613124010306/13/12 12:40:31  5-MIN KMSN 131840Z 16008KT 10SM FEW060 BKN120 22/08 A3017 630 40 1600 160/08 RMK AO2
14837KMSN MSN20120613124510306/13/12 12:45:31  5-MIN KMSN 131845Z VRB05KT 10SM FEW060 SCT120 22/08 A3017 640 40 1600 VRB/05 RMK AO2
14837KMSN MSN20120613125012006/13/12 12:50:31  5-MIN KMSN 131850Z VRB05KT 10SM FEW060 BKN120 22/08 A3017 640 40 1600 VRB/05 RMK AO2 SLP215 T02170078
14837KMSN MSN20120613125510306/13/12 12:55:31  5-MIN KMSN 131855Z 22006KT 10SM FEW060 BKN120 22/07 A3017 640 37 1700 220/06 RMK AO2
14837KMSN MSN20120613130010306/13/12 13:00:31  5-MIN KMSN 131900Z 23006KT 10SM FEW060 BKN120 22/07 A3016 640 37 1700 230/06 RMK AO2
14837KMSN MSN20120613130510306/13/12 13:05:31  5-MIN KMSN 131905Z VRB04KT 10SM FEW060 BKN120 22/07 A3016 640 37 1700 VRB/04 RMK AO2
14837KMSN MSN20120613131010306/13/12 13:10:31  5-MIN KMSN 131910Z VRB05KT 10SM FEW060 BKN120 22/07 A3016 640 37 1700 VRB/05 RMK AO2
14837KMSN MSN20120613131510306/13/12 13:15:31  5-MIN KMSN 131915Z 24006KT 10SM FEW060 BKN120 22/07 A3016 640 36 1700 240/06 RMK AO2
14837KMSN MSN20120613132010306/13/12 13:20:31  5-MIN KMSN 131920Z 00000KT 10SM FEW060 SCT120 23/07 A3015 650 35 1700 000/00 RMK AO2
14837KMSN MSN20120613132510306/13/12 13:25:31  5-MIN KMSN 131925Z VRB03KT 10SM FEW060 SCT120 22/07 A3015 650 36 1700 VRB/03 RMK AO2
14837KMSN MSN20120613133010306/13/12 13:30:31  5-MIN KMSN 131930Z 23006KT 10SM FEW060 SCT120 22/07 A3015 650 37 1700 230/06 RMK AO2
14837KMSN MSN20120613133510306/13/12 13:35:31  5-MIN KMSN 131935Z VRB05KT 10SM FEW060 SCT120 22/07 A3015 660 37 1700 VRB/05 RMK AO2
14837KMSN MSN20120613134010306/13/12 13:40:31  5-MIN KMSN 131940Z 21004KT 10SM FEW060 SCT120 22/08 A3014 660 39 1700 210/04 RMK AO2
14837KMSN MSN20120613134510306/13/12 13:45:31  5-MIN KMSN 131945Z 25005KT 10SM FEW060 SCT120 22/08 A3014 660 39 1700 260/05 RMK AO2
14837KMSN MSN20120613135012006/13/12 13:50:31  5-MIN KMSN 131950Z VRB05KT 10SM FEW060 SCT120 22/08 A3014 660 39 1700 VRB/05 RMK AO2 SLP207 T02220078
14837KMSN MSN20120613135509606/13/12 13:55:31  5-MIN KMSN 131955Z 17006KT 10SM BKN120 23/08 A3014 660 37 1800 170/06 RMK AO2
14837KMSN MSN20120613140009606/13/12 14:00:31  5-MIN KMSN 132000Z 15008KT 10SM BKN120 23/08 A3014 670 39 1800 160/08 RMK AO2
14837KMSN MSN20120613140509606/13/12 14:05:31  5-MIN KMSN 132005Z 16008KT 10SM BKN120 22/08 A3013 670 40 1700 160/08 RMK AO2
14837KMSN MSN20120613141009606/13/12 14:10:31  5-MIN KMSN 132010Z VRB04KT 10SM BKN120 22/08 A3013 670 39 1700 VRB/04 RMK AO2
14837KMSN MSN20120613141509606/13/12 14:15:31  5-MIN KMSN 132015Z 19007KT 10SM BKN120 23/08 A3013 670 37 1800 190/07 RMK AO2
14837KMSN MSN20120613142009606/13/12 14:20:31  5-MIN KMSN 132020Z VRB04KT 10SM BKN120 23/07 A3013 670 36 1800 VRB/04 RMK AO2
14837KMSN MSN20120613142509606/13/12 14:25:31  5-MIN KMSN 132025Z 19007KT 10SM SCT120 23/08 A3013 670 39 1800 190/07 RMK AO2
14837KMSN MSN20120613143009606/13/12 14:30:31  5-MIN KMSN 132030Z 21004KT 10SM FEW120 23/07 A3013 670 36 1800 210/04 RMK AO2
14837KMSN MSN20120613143509606/13/12 14:35:31  5-MIN KMSN 132035Z 18006KT 10SM SCT120 23/08 A3013 670 36 1800 180/06 RMK AO2
14837KMSN MSN20120613144009606/13/12 14:40:31  5-MIN KMSN 132040Z 17009KT 10SM SCT120 23/07 A3012 680 36 1800 170/09 RMK AO2
14837KMSN MSN20120613144509606/13/12 14:45:31  5-MIN KMSN 132045Z 15006KT 10SM SCT120 23/08 A3012 680 37 1800 160/06 RMK AO2
14837KMSN MSN20120613145011906/13/12 14:50:31  5-MIN KMSN 132050Z 00000KT 10SM SCT120 23/08 A3012 680 36 1800 000/00 RMK AO2 SLP200 T02330078 58005
14837KMSN MSN20120613145509306/13/12 14:55:31  5-MIN KMSN 132055Z 20005KT 10SM CLR 23/08 A3012 680 36 1800 200/05 RMK AO2
14837KMSN MSN20120613150009306/13/12 15:00:31  5-MIN KMSN 132100Z 18006KT 10SM CLR 23/07 A3012 680 36 1800 180/06 RMK AO2
14837KMSN MSN20120613150509306/13/12 15:05:31  5-MIN KMSN 132105Z 00000KT 10SM CLR 23/07 A3012 680 36 1800 000/00 RMK AO2
14837KMSN MSN20120613151009306/13/12 15:10:31  5-MIN KMSN 132110Z 23003KT 10SM CLR 23/07 A3012 680 35 1800 230/03 RMK AO2
14837KMSN MSN20120613151509306/13/12 15:15:31  5-MIN KMSN 132115Z 17006KT 10SM CLR 24/08 A3011 690 36 1900 180/06 RMK AO2
14837KMSN MSN20120613152009306/13/12 15:20:31  5-MIN KMSN 132120Z 17008KT 10SM CLR 23/08 A3011 690 36 1900 170/08 RMK AO2
14837KMSN MSN20120613152509306/13/12 15:25:31  5-MIN KMSN 132125Z 17007KT 10SM CLR 23/07 A3011 690 35 1900 170/07 RMK AO2
14837KMSN MSN20120613153009306/13/12 15:30:31  5-MIN KMSN 132130Z 18006KT 10SM CLR 24/07 A3010 690 34 1900 190/06 RMK AO2
14837KMSN MSN20120613153509306/13/12 15:35:31  5-MIN KMSN 132135Z 18006KT 10SM CLR 24/07 A3010 700 32 1900 180/06 RMK AO2
14837KMSN MSN20120613154009306/13/12 15:40:31  5-MIN KMSN 132140Z 19005KT 10SM CLR 24/07 A3010 700 32 1900 190/05 RMK AO2
14837KMSN MSN20120613154509306/13/12 15:45:31  5-MIN KMSN 132145Z 20006KT 10SM CLR 23/06 A3010 700 32 1900 200/06 RMK AO2
14837KMSN MSN20120613155011006/13/12 15:50:31  5-MIN KMSN 132150Z 21004KT 10SM CLR 23/07 A3010 700 33 1900 220/04 RMK AO2 SLP192 T02330067
14837KMSN MSN20120613155510906/13/12 15:55:31  5-MIN KMSN 132155Z 16008KT 120V190 10SM CLR 24/07 A3010 700 34 1900 160/08 120V190 RMK AO2
14837KMSN MSN20120613160009306/13/12 16:00:31  5-MIN KMSN 132200Z 13008KT 10SM CLR 24/07 A3010 700 34 1900 140/08 RMK AO2
14837KMSN MSN20120613160509306/13/12 16:05:31  5-MIN KMSN 132205Z 16008KT 10SM CLR 23/07 A3010 700 33 1900 160/08 RMK AO2
14837KMSN MSN20120613161010906/13/12 16:10:31  5-MIN KMSN 132210Z 14007KT 100V170 10SM CLR 24/07 A3010 700 32 1900 140/07 100V170 RMK AO2
14837KMSN MSN20120613161509306/13/12 16:15:31  5-MIN KMSN 132215Z 17007KT 10SM CLR 23/07 A3010 700 35 1900 170/07 RMK AO2
14837KMSN MSN20120613162009306/13/12 16:20:31  5-MIN KMSN 132220Z 17009KT 10SM CLR 23/07 A3009 700 35 1800 170/09 RMK AO2
14837KMSN MSN20120613162509306/13/12 16:25:31  5-MIN KMSN 132225Z 17007KT 10SM CLR 23/07 A3009 700 33 1900 180/07 RMK AO2
14837KMSN MSN20120613163009306/13/12 16:30:31  5-MIN KMSN 132230Z 16006KT 10SM CLR 23/07 A3009 710 36 1800 160/06 RMK AO2
14837KMSN MSN20120613163509306/13/12 16:35:31  5-MIN KMSN 132235Z 19007KT 10SM CLR 23/07 A3009 710 35 1800 190/07 RMK AO2
14837KMSN MSN20120613164009306/13/12 16:40:31  5-MIN KMSN 132240Z 17008KT 10SM CLR 23/07 A3009 710 33 1900 170/08 RMK AO2
14837KMSN MSN20120613164509306/13/12 16:45:31  5-MIN KMSN 132245Z 15008KT 10SM CLR 23/07 A3009 710 33 1900 150/08 RMK AO2
14837KMSN MSN20120613165011006/13/12 16:50:31  5-MIN KMSN 132250Z 19005KT 10SM CLR 23/07 A3009 710 35 1800 190/05 RMK AO2 SLP188 T02280067
14837KMSN MSN20120613165509306/13/12 16:55:31  5-MIN KMSN 132255Z 18007KT 10SM CLR 23/07 A3009 710 35 1900 180/07 RMK AO2
14837KMSN MSN20120613170009306/13/12 17:00:31  5-MIN KMSN 132300Z 17008KT 10SM CLR 23/07 A3008 710 33 1900 170/08 RMK AO2
14837KMSN MSN20120613170509306/13/12 17:05:31  5-MIN KMSN 132305Z 17006KT 10SM CLR 23/07 A3008 720 36 1800 170/06 RMK AO2
14837KMSN MSN20120613171009306/13/12 17:10:31  5-MIN KMSN 132310Z 19004KT 10SM CLR 23/07 A3008 720 35 1800 190/04 RMK AO2
14837KMSN MSN20120613171509306/13/12 17:15:31  5-MIN KMSN 132315Z 19006KT 10SM CLR 23/07 A3008 720 35 1900 200/06 RMK AO2
14837KMSN MSN20120613172009306/13/12 17:20:31  5-MIN KMSN 132320Z 17009KT 10SM CLR 24/07 A3008 720 34 2000 170/09 RMK AO2
14837KMSN MSN20120613172509306/13/12 17:25:31  5-MIN KMSN 132325Z 14010KT 10SM CLR 24/07 A3008 720 34 2000 140/10 RMK AO2
14837KMSN MSN20120613173009306/13/12 17:30:31  5-MIN KMSN 132330Z 13010KT 10SM CLR 23/07 A3007 720 35 1900 130/10 RMK AO2
14837KMSN MSN20120613173509306/13/12 17:35:31  5-MIN KMSN 132335Z 14009KT 10SM CLR 23/08 A3007 730 36 1900 140/09 RMK AO2
14837KMSN MSN20120613174009306/13/12 17:40:31  5-MIN KMSN 132340Z 16011KT 10SM CLR 23/07 A3007 730 36 1800 160/11 RMK AO2
14837KMSN MSN20120613174509306/13/12 17:45:31  5-MIN KMSN 132345Z 15010KT 10SM CLR 23/07 A3007 730 35 1900 160/10 RMK AO2
14837KMSN MSN20120613175012806/13/12 17:50:31  5-MIN KMSN 132350Z 14010KT 10SM CLR 23/07 A3007 730 35 1900 140/10 RMK AO2 SLP180 T02330072 10239 20217 58018
14837KMSN MSN20120613175509306/13/12 17:55:31  5-MIN KMSN 132355Z 13009KT 10SM CLR 22/07 A3007 730 37 1800 140/09 RMK AO2
14837KMSN MSN20120613180009306/13/12 18:00:31  5-MIN KMSN 140000Z 15010KT 10SM CLR 22/07 A3007 730 37 1800 150/10 RMK AO2
14837KMSN MSN20120613180509306/13/12 18:05:31  5-MIN KMSN 140005Z 13007KT 10SM CLR 22/07 A3007 730 37 1800 130/07 RMK AO2
14837KMSN MSN20120613181009306/13/12 18:10:31  5-MIN KMSN 140010Z 13010KT 10SM CLR 22/08 A3007 730 39 1800 130/10 RMK AO2
14837KMSN MSN20120613181509306/13/12 18:15:31  5-MIN KMSN 140015Z 13009KT 10SM CLR 23/07 A3007 730 36 1800 130/09 RMK AO2
14837KMSN MSN20120613182009306/13/12 18:20:31  5-MIN KMSN 140020Z 14009KT 10SM CLR 23/07 A3007 730 36 1800 140/09 RMK AO2
14837KMSN MSN20120613182509306/13/12 18:25:31  5-MIN KMSN 140025Z 14011KT 10SM CLR 23/07 A3007 730 35 1800 150/11 RMK AO2
14837KMSN MSN20120613183009306/13/12 18:30:31  5-MIN KMSN 140030Z 13008KT 10SM CLR 23/07 A3007 730 35 1800 130/08 RMK AO2
14837KMSN MSN20120613183509906/13/12 18:35:31  5-MIN KMSN 140035Z 14018G23KT 10SM CLR 22/08 A3007 720 39 1800 140/18G23 RMK AO2
14837KMSN MSN20120613184009906/13/12 18:40:31  5-MIN KMSN 140040Z 14015G23KT 10SM CLR 21/09 A3007 720 45 1600 140/15G23 RMK AO2
14837KMSN MSN20120613184509906/13/12 18:45:31  5-MIN KMSN 140045Z 14016G21KT 10SM CLR 21/09 A3008 720 45 1600 140/16G21 RMK AO2
14837KMSN MSN20120613185011006/13/12 18:50:31  5-MIN KMSN 140050Z 14017KT 10SM CLR 21/09 A3008 720 46 1600 140/17 RMK AO2 SLP184 T02060089
14837KMSN MSN20120613185509306/13/12 18:55:31  5-MIN KMSN 140055Z 14018KT 10SM CLR 21/09 A3008 720 46 1600 140/18 RMK AO2
14837KMSN MSN20120613190009306/13/12 19:00:31  5-MIN KMSN 140100Z 15016KT 10SM CLR 21/08 A3008 720 45 1600 150/16 RMK AO2
14837KMSN MSN20120613190509906/13/12 19:05:31  5-MIN KMSN 140105Z 15012G19KT 10SM CLR 21/09 A3008 720 46 1600 150/12G19 RMK AO2
14837KMSN MSN20120613191009906/13/12 19:10:31  5-MIN KMSN 140110Z 14014G20KT 10SM CLR 21/08 A3008 720 45 1600 140/14G20 RMK AO2
14837KMSN MSN20120613191509306/13/12 19:15:31  5-MIN KMSN 140115Z 15014KT 10SM CLR 20/08 A3008 720 46 1500 150/14 RMK AO2
14837KMSN MSN20120613192009306/13/12 19:20:31  5-MIN KMSN 140120Z 14016KT 10SM CLR 20/08 A3008 720 46 1500 140/16 RMK AO2
14837KMSN MSN20120613192509306/13/12 19:25:31  5-MIN KMSN 140125Z 14014KT 10SM CLR 20/08 A3008 720 45 1500 140/14 RMK AO2
14837KMSN MSN20120613193009306/13/12 19:30:31  5-MIN KMSN 140130Z 14013KT 10SM CLR 19/08 A3008 720 46 1400 150/13 RMK AO2
14837KMSN MSN20120613193509306/13/12 19:35:31  5-MIN KMSN 140135Z 14014KT 10SM CLR 19/08 A3008 720 46 1400 140/14 RMK AO2
14837KMSN MSN20120613194009306/13/12 19:40:31  5-MIN KMSN 140140Z 15016KT 10SM CLR 19/08 A3008 720 46 1400 150/16 RMK AO2
14837KMSN MSN20120613194510206/13/12 19:45:31  5-MIN KMSN 140145Z 14014G21KT 10SM FEW110 19/08 A3008 720 46 1400 150/14G21 RMK AO2
14837KMSN MSN20120613195011306/13/12 19:50:31  5-MIN KMSN 140150Z 15013KT 10SM FEW110 19/08 A3008 720 46 1400 150/13 RMK AO2 SLP184 T01940078
14837KMSN MSN20120613195509906/13/12 19:55:31  5-MIN KMSN 140155Z 15011G19KT 10SM CLR 19/08 A3009 710 48 1400 150/11G19 RMK AO2
14837KMSN MSN20120613200009906/13/12 20:00:31  5-MIN KMSN 140200Z 15011G18KT 10SM CLR 19/08 A3009 710 48 1400 150/11G18 RMK AO2
14837KMSN MSN20120613200509306/13/12 20:05:31  5-MIN KMSN 140205Z 15014KT 10SM CLR 19/08 A3009 710 48 1400 150/14 RMK AO2
14837KMSN MSN20120613201009306/13/12 20:10:31  5-MIN KMSN 140210Z 15013KT 10SM CLR 19/07 A3009 700 46 1400 150/13 RMK AO2
14837KMSN MSN20120613201509306/13/12 20:15:31  5-MIN KMSN 140215Z 15013KT 10SM CLR 19/07 A3010 700 46 1400 150/13 RMK AO2
14837KMSN MSN20120613202009306/13/12 20:20:31  5-MIN KMSN 140220Z 15012KT 10SM CLR 19/07 A3010 700 46 1400 150/12 RMK AO2
14837KMSN MSN20120613202509306/13/12 20:25:31  5-MIN KMSN 140225Z 14010KT 10SM CLR 19/07 A3010 700 46 1400 150/10 RMK AO2
14837KMSN MSN20120613203009306/13/12 20:30:31  5-MIN KMSN 140230Z 14011KT 10SM CLR 18/07 A3010 700 48 1300 140/11 RMK AO2
14837KMSN MSN20120613203509306/13/12 20:35:31  5-MIN KMSN 140235Z 15012KT 10SM CLR 18/07 A3010 700 48 1300 160/12 RMK AO2
14837KMSN MSN20120613204009306/13/12 20:40:31  5-MIN KMSN 140240Z 15009KT 10SM CLR 18/07 A3010 700 48 1300 150/09 RMK AO2
14837KMSN MSN20120613204509306/13/12 20:45:31  5-MIN KMSN 140245Z 16013KT 10SM CLR 18/07 A3010 700 46 1300 160/13 RMK AO2
14837KMSN MSN20120613205011606/13/12 20:50:31  5-MIN KMSN 140250Z 15013KT 10SM CLR 18/07 A3010 700 46 1300 150/13 RMK AO2 SLP191 T01830067 56018
14837KMSN MSN20120613205509306/13/12 20:55:31  5-MIN KMSN 140255Z 15013KT 10SM CLR 18/06 A3010 700 44 1300 150/13 RMK AO2
14837KMSN MSN20120613210009306/13/12 21:00:31  5-MIN KMSN 140300Z 15011KT 10SM CLR 18/06 A3011 690 44 1300 150/11 RMK AO2
14837KMSN MSN20120613210509306/13/12 21:05:31  5-MIN KMSN 140305Z 15012KT 10SM CLR 18/06 A3011 690 44 1300 150/12 RMK AO2
14837KMSN MSN20120613211009306/13/12 21:10:31  5-MIN KMSN 140310Z 15010KT 10SM CLR 18/06 A3011 690 46 1200 150/10 RMK AO2
14837KMSN MSN20120613211509306/13/12 21:15:31  5-MIN KMSN 140315Z 15011KT 10SM CLR 18/06 A3010 700 46 1200 150/11 RMK AO2
14837KMSN MSN20120613212009306/13/12 21:20:31  5-MIN KMSN 140320Z 15011KT 10SM CLR 18/06 A3010 700 46 1200 150/11 RMK AO2
14837KMSN MSN20120613212509306/13/12 21:25:31  5-MIN KMSN 140325Z 16010KT 10SM CLR 18/06 A3010 700 44 1200 160/10 RMK AO2
14837KMSN MSN20120613213009306/13/12 21:30:31  5-MIN KMSN 140330Z 15010KT 10SM CLR 18/06 A3010 700 44 1200 150/10 RMK AO2
14837KMSN MSN20120613213509306/13/12 21:35:31  5-MIN KMSN 140335Z 15009KT 10SM CLR 17/06 A3010 700 46 1200 150/09 RMK AO2
14837KMSN MSN20120613214009306/13/12 21:40:31  5-MIN KMSN 140340Z 15011KT 10SM CLR 17/06 A3010 700 46 1200 160/11 RMK AO2
14837KMSN MSN20120613214509306/13/12 21:45:31  5-MIN KMSN 140345Z 15008KT 10SM CLR 17/06 A3010 700 46 1200 150/08 RMK AO2
14837KMSN MSN20120613215011006/13/12 21:50:31  5-MIN KMSN 140350Z 15008KT 10SM CLR 17/06 A3010 690 46 1200 160/08 RMK AO2 SLP192 T01720056
14837KMSN MSN20120613215509306/13/12 21:55:31  5-MIN KMSN 140355Z 15008KT 10SM CLR 17/06 A3011 690 46 1200 150/08 RMK AO2
14837KMSN MSN20120613220009306/13/12 22:00:31  5-MIN KMSN 140400Z 15008KT 10SM CLR 17/06 A3010 690 46 1200 150/08 RMK AO2
14837KMSN MSN20120613220509306/13/12 22:05:31  5-MIN KMSN 140405Z 15010KT 10SM CLR 17/05 A3010 690 44 1200 160/10 RMK AO2
14837KMSN MSN20120613221009306/13/12 22:10:31  5-MIN KMSN 140410Z 15007KT 10SM CLR 17/05 A3011 690 44 1200 150/07 RMK AO2
14837KMSN MSN20120613221509306/13/12 22:15:31  5-MIN KMSN 140415Z 16007KT 10SM CLR 17/05 A3011 690 44 1200 160/07 RMK AO2
14837KMSN MSN20120613222009306/13/12 22:20:31  5-MIN KMSN 140420Z 16008KT 10SM CLR 17/05 A3011 690 44 1200 160/08 RMK AO2
14837KMSN MSN20120613222509306/13/12 22:25:31  5-MIN KMSN 140425Z 15006KT 10SM CLR 17/05 A3011 690 44 1200 150/06 RMK AO2
14837KMSN MSN20120613223009306/13/12 22:30:31  5-MIN KMSN 140430Z 15007KT 10SM CLR 17/05 A3011 690 44 1200 150/07 RMK AO2
14837KMSN MSN20120613223509306/13/12 22:35:31  5-MIN KMSN 140435Z 15007KT 10SM CLR 17/05 A3011 690 44 1200 160/07 RMK AO2
14837KMSN MSN20120613224009306/13/12 22:40:31  5-MIN KMSN 140440Z 15007KT 10SM CLR 17/05 A3011 690 44 1200 150/07 RMK AO2
14837KMSN MSN20120613224509306/13/12 22:45:31  5-MIN KMSN 140445Z 16006KT 10SM CLR 17/05 A3011 690 44 1200 170/06 RMK AO2
14837KMSN MSN20120613225011306/13/12 22:50:31  5-MIN KMSN 140450Z 17006KT 10SM FEW120 17/05 A3011 690 44 1200 170/06 RMK AO2 SLP192 T01720050
14837KMSN MSN20120613225509306/13/12 22:55:31  5-MIN KMSN 140455Z 16007KT 10SM CLR 17/05 A3010 700 45 1100 160/07 RMK AO2
14837KMSN MSN20120613230009306/13/12 23:00:31  5-MIN KMSN 140500Z 16005KT 10SM CLR 17/05 A3010 690 45 1100 160/05 RMK AO2
14837KMSN MSN20120613230509306/13/12 23:05:31  5-MIN KMSN 140505Z 15006KT 10SM CLR 17/04 A3010 700 44 1100 150/06 RMK AO2
14837KMSN MSN20120613231009306/13/12 23:10:31  5-MIN KMSN 140510Z 15006KT 10SM CLR 17/04 A3010 700 44 1100 150/06 RMK AO2
14837KMSN MSN20120613231509306/13/12 23:15:31  5-MIN KMSN 140515Z 15007KT 10SM CLR 16/04 A3010 700 45 1000 150/07 RMK AO2
14837KMSN MSN20120613232009306/13/12 23:20:31  5-MIN KMSN 140520Z 15005KT 10SM CLR 16/04 A3010 700 45 1000 150/05 RMK AO2
14837KMSN MSN20120613232509306/13/12 23:25:31  5-MIN KMSN 140525Z 15006KT 10SM CLR 16/04 A3010 690 45 1000 160/06 RMK AO2
14837KMSN MSN20120613233009306/13/12 23:30:31  5-MIN KMSN 140530Z 16005KT 10SM CLR 16/04 A3010 690 45 1000 160/05 RMK AO2
14837KMSN MSN20120613233509306/13/12 23:35:31  5-MIN KMSN 140535Z 14006KT 10SM CLR 16/04 A3010 700 47 1000 150/06 RMK AO2
14837KMSN MSN20120613234009306/13/12 23:40:31  5-MIN KMSN 140540Z 15005KT 10SM CLR 16/04 A3010 700 47 1000 150/05 RMK AO2
14837KMSN MSN20120613234509206/13/12 23:45:31  5-MIN KMSN 140545Z 14004KT 10SM CLR 15/04 A3010 700 49 900 140/04 RMK AO2
14837KMSN MSN20120613235013706/13/12 23:50:31  5-MIN KMSN 140550Z 14005KT 10SM CLR 15/04 A3010 700 49 900 140/05 RMK AO2 SLP192 T01500044 10228 20150 402390067 53012
14837KMSN MSN20120613235509206/13/12 23:55:31  5-MIN KMSN 140555Z 14005KT 10SM CLR 15/04 A3010 690 49 900 150/05 RMK AO2
14837KMSN MSN20120614000009306/14/12 00:00:32  5-MIN KMSN 140600Z 15005KT 10SM CLR 16/04 A3010 700 45 1000 150/05 RMK AO2
14837KMSN MSN20120614000509206/14/12 00:05:31  5-MIN KMSN 140605Z 15004KT 10SM CLR 15/04 A3010 700 47 900 150/04 RMK AO2
14837KMSN MSN20120614001009206/14/12 00:10:31  5-MIN KMSN 140610Z 14005KT 10SM CLR 15/04 A3010 700 47 900 140/05 RMK AO2
14837KMSN MSN20120614001509206/14/12 00:15:31  5-MIN KMSN 140615Z 14005KT 10SM CLR 15/04 A3010 690 47 900 150/05 RMK AO2
14837KMSN MSN20120614002009206/14/12 00:20:31  5-MIN KMSN 140620Z 14006KT 10SM CLR 15/04 A3011 690 47 900 140/06 RMK AO2
14837KMSN MSN20120614002509206/14/12 00:25:31  5-MIN KMSN 140625Z 15004KT 10SM CLR 15/04 A3011 690 47 900 150/04 RMK AO2
14837KMSN MSN20120614003009206/14/12 00:30:31  5-MIN KMSN 140630Z 14004KT 10SM CLR 15/04 A3011 690 49 900 140/04 RMK AO2
14837KMSN MSN20120614003509206/14/12 00:35:31  5-MIN KMSN 140635Z 13005KT 10SM CLR 15/04 A3011 690 49 900 140/05 RMK AO2
14837KMSN MSN20120614004009206/14/12 00:40:31  5-MIN KMSN 140640Z 13004KT 10SM CLR 14/05 A3011 690 53 800 130/04 RMK AO2
14837KMSN MSN20120614004509206/14/12 00:45:31  5-MIN KMSN 140645Z 11003KT 10SM CLR 14/04 A3011 690 52 800 110/03 RMK AO2
14837KMSN MSN20120614005010906/14/12 00:50:31  5-MIN KMSN 140650Z 10003KT 10SM CLR 14/05 A3011 690 55 800 100/03 RMK AO2 SLP194 T01390050
14837KMSN MSN20120614005509206/14/12 00:55:31  5-MIN KMSN 140655Z 11003KT 10SM CLR 14/05 A3011 690 53 800 110/03 RMK AO2
14837KMSN MSN20120614010009506/14/12 01:00:31  5-MIN KMSN 140700Z 12003KT 10SM FEW120 14/05 A3011 690 53 800 120/03 RMK AO2
14837KMSN MSN20120614010509506/14/12 01:05:31  5-MIN KMSN 140705Z 11003KT 10SM FEW120 14/05 A3011 690 53 800 110/03 RMK AO2
14837KMSN MSN20120614011009506/14/12 01:10:31  5-MIN KMSN 140710Z 00000KT 10SM FEW120 14/06 A3010 700 57 800 000/00 RMK AO2
14837KMSN MSN20120614011509506/14/12 01:15:31  5-MIN KMSN 140715Z 09004KT 10SM FEW120 13/06 A3010 700 59 700 090/04 RMK AO2
14837KMSN MSN20120614012009506/14/12 01:20:31  5-MIN KMSN 140720Z 09004KT 10SM FEW120 12/06 A3010 700 63 600 090/04 RMK AO2
14837KMSN MSN20120614012509506/14/12 01:25:31  5-MIN KMSN 140725Z 00000KT 10SM FEW120 12/06 A3010 700 66 500 000/00 RMK AO2
14837KMSN MSN20120614013009206/14/12 01:30:31  5-MIN KMSN 140730Z 00000KT 10SM CLR 11/06 A3010 700 68 400 000/00 RMK AO2
14837KMSN MSN20120614013509206/14/12 01:35:31  5-MIN KMSN 140735Z 00000KT 10SM CLR 12/06 A3010 700 68 500 000/00 RMK AO2
14837KMSN MSN20120614014009206/14/12 01:40:31  5-MIN KMSN 140740Z 12003KT 10SM CLR 12/06 A3010 700 68 500 120/03 RMK AO2
14837KMSN MSN20120614014509206/14/12 01:45:31  5-MIN KMSN 140745Z 00000KT 10SM CLR 12/06 A3010 700 63 600 000/00 RMK AO2
14837KMSN MSN20120614015010906/14/12 01:50:31  5-MIN KMSN 140750Z 00000KT 10SM CLR 12/06 A3009 710 68 500 000/00 RMK AO2 SLP189 T01170061
14837KMSN MSN20120614015509206/14/12 01:55:31  5-MIN KMSN 140755Z 00000KT 10SM CLR 11/06 A3009 710 71 400 000/00 RMK AO2
14837KMSN MSN20120614020009206/14/12 02:00:31  5-MIN KMSN 140800Z 00000KT 10SM CLR 11/06 A3009 710 74 400 000/00 RMK AO2
14837KMSN MSN20120614020509206/14/12 02:05:31  5-MIN KMSN 140805Z 00000KT 10SM CLR 11/06 A3009 700 74 400 000/00 RMK AO2
14837KMSN MSN20120614021009206/14/12 02:10:31  5-MIN KMSN 140810Z 00000KT 10SM CLR 11/06 A3009 700 71 400 000/00 RMK AO2
14837KMSN MSN20120614021509206/14/12 02:15:31  5-MIN KMSN 140815Z 00000KT 10SM CLR 11/06 A3010 700 71 400 000/00 RMK AO2
14837KMSN MSN20120614022009206/14/12 02:20:31  5-MIN KMSN 140820Z 00000KT 10SM CLR 11/06 A3010 700 71 400 000/00 RMK AO2
14837KMSN MSN20120614022509206/14/12 02:25:31  5-MIN KMSN 140825Z 00000KT 10SM CLR 11/06 A3010 700 74 400 000/00 RMK AO2
14837KMSN MSN20120614023009206/14/12 02:30:31  5-MIN KMSN 140830Z 00000KT 10SM CLR 11/06 A3010 700 71 400 000/00 RMK AO2
14837KMSN MSN20120614023509206/14/12 02:35:31  5-MIN KMSN 140835Z 00000KT 10SM CLR 11/06 A3010 700 74 400 000/00 RMK AO2
14837KMSN MSN20120614024009206/14/12 02:40:31  5-MIN KMSN 140840Z 00000KT 10SM CLR 11/06 A3009 700 74 400 000/00 RMK AO2
14837KMSN MSN20120614024509206/14/12 02:45:31  5-MIN KMSN 140845Z 00000KT 10SM CLR 11/06 A3009 710 74 400 000/00 RMK AO2
14837KMSN MSN20120614025011506/14/12 02:50:31  5-MIN KMSN 140850Z 00000KT 10SM CLR 11/06 A3009 710 74 400 000/00 RMK AO2 SLP189 T01060061 51001
14837KMSN MSN20120614025509206/14/12 02:55:31  5-MIN KMSN 140855Z 00000KT 10SM CLR 10/06 A3009 700 77 300 000/00 RMK AO2
14837KMSN MSN20120614030009206/14/12 03:00:31  5-MIN KMSN 140900Z 00000KT 10SM CLR 10/06 A3009 700 77 300 000/00 RMK AO2
14837KMSN MSN20120614030509206/14/12 03:05:31  5-MIN KMSN 140905Z 00000KT 10SM CLR 10/06 A3009 700 77 300 000/00 RMK AO2
14837KMSN MSN20120614031009206/14/12 03:10:31  5-MIN KMSN 140910Z 00000KT 10SM CLR 10/06 A3009 710 74 300 000/00 RMK AO2
14837KMSN MSN20120614031509206/14/12 03:15:31  5-MIN KMSN 140915Z 00000KT 10SM CLR 11/06 A3009 700 71 400 000/00 RMK AO2
14837KMSN MSN20120614032009206/14/12 03:20:31  5-MIN KMSN 140920Z 00000KT 10SM CLR 11/06 A3010 700 71 400 000/00 RMK AO2
14837KMSN MSN20120614032509206/14/12 03:25:31  5-MIN KMSN 140925Z 00000KT 10SM CLR 11/06 A3010 700 71 400 000/00 RMK AO2
14837KMSN MSN20120614033009206/14/12 03:30:31  5-MIN KMSN 140930Z 00000KT 10SM CLR 11/06 A3010 700 71 400 000/00 RMK AO2
14837KMSN MSN20120614033509206/14/12 03:35:31  5-MIN KMSN 140935Z 00000KT 10SM CLR 10/06 A3010 700 74 300 000/00 RMK AO2
14837KMSN MSN20120614034009206/14/12 03:40:31  5-MIN KMSN 140940Z 00000KT 10SM CLR 11/06 A3010 700 71 400 000/00 RMK AO2
14837KMSN MSN20120614034509206/14/12 03:45:31  5-MIN KMSN 140945Z 13003KT 10SM CLR 12/06 A3010 700 66 500 130/03 RMK AO2
14837KMSN MSN20120614035010906/14/12 03:50:31  5-MIN KMSN 140950Z 13004KT 10SM CLR 12/06 A3010 700 66 600 130/04 RMK AO2 SLP190 T01220061
14837KMSN MSN20120614035509206/14/12 03:55:31  5-MIN KMSN 140955Z 13003KT 10SM CLR 12/06 A3010 700 68 500 130/03 RMK AO2
14837KMSN MSN20120614040009206/14/12 04:00:31  5-MIN KMSN 141000Z 12004KT 10SM CLR 12/06 A3009 710 68 500 120/04 RMK AO2
14837KMSN MSN20120614040509206/14/12 04:05:31  5-MIN KMSN 141005Z 12004KT 10SM CLR 12/06 A3009 710 68 500 120/04 RMK AO2
14837KMSN MSN20120614041009206/14/12 04:10:31  5-MIN KMSN 141010Z 13004KT 10SM CLR 12/06 A3009 700 68 500 130/04 RMK AO2
14837KMSN MSN20120614041509206/14/12 04:15:31  5-MIN KMSN 141015Z 13005KT 10SM CLR 12/06 A3009 710 66 600 130/05 RMK AO2
14837KMSN MSN20120614042009206/14/12 04:20:31  5-MIN KMSN 141020Z 12004KT 10SM CLR 12/06 A3009 710 66 600 120/04 RMK AO2
14837KMSN MSN20120614042509206/14/12 04:25:31  5-MIN KMSN 141025Z 13003KT 10SM CLR 12/06 A3009 710 66 600 130/03 RMK AO2
14837KMSN MSN20120614043009206/14/12 04:30:31  5-MIN KMSN 141030Z 14003KT 10SM CLR 12/06 A3009 710 66 600 140/03 RMK AO2
14837KMSN MSN20120614043509206/14/12 04:35:31  5-MIN KMSN 141035Z 13006KT 10SM CLR 13/07 A3009 710 66 700 140/06 RMK AO2
14837KMSN MSN20120614044009206/14/12 04:40:31  5-MIN KMSN 141040Z 15006KT 10SM CLR 13/07 A3009 710 69 700 150/06 RMK AO2
14837KMSN MSN20120614044509206/14/12 04:45:31  5-MIN KMSN 141045Z 14005KT 10SM CLR 13/07 A3009 710 66 700 150/05 RMK AO2
14837KMSN MSN20120614045010906/14/12 04:50:31  5-MIN KMSN 141050Z 14005KT 10SM CLR 13/07 A3009 710 66 700 150/05 RMK AO2 SLP188 T01330072
14837KMSN MSN20120614045509206/14/12 04:55:31  5-MIN KMSN 141055Z 15006KT 10SM CLR 13/07 A3009 710 66 700 150/06 RMK AO2
14837KMSN MSN20120614050009206/14/12 05:00:31  5-MIN KMSN 141100Z 15008KT 10SM CLR 14/07 A3009 710 64 800 150/08 RMK AO2
14837KMSN MSN20120614050509206/14/12 05:05:31  5-MIN KMSN 141105Z 15007KT 10SM CLR 14/08 A3009 710 66 800 150/07 RMK AO2
14837KMSN MSN20120614051009206/14/12 05:10:31  5-MIN KMSN 141110Z 15007KT 10SM CLR 14/08 A3008 710 66 800 150/07 RMK AO2
14837KMSN MSN20120614051509206/14/12 05:15:31  5-MIN KMSN 141115Z 14007KT 10SM CLR 14/08 A3008 710 64 900 140/07 RMK AO2
14837KMSN MSN20120614052009206/14/12 05:20:31  5-MIN KMSN 141120Z 13007KT 10SM CLR 14/08 A3008 720 64 900 130/07 RMK AO2
14837KMSN MSN20120614052509206/14/12 05:25:31  5-MIN KMSN 141125Z 14008KT 10SM CLR 14/08 A3008 720 64 900 140/08 RMK AO2
14837KMSN MSN20120614053009206/14/12 05:30:31  5-MIN KMSN 141130Z 15008KT 10SM CLR 15/08 A3008 720 62 900 150/08 RMK AO2
14837KMSN MSN20120614053509206/14/12 05:35:31  5-MIN KMSN 141135Z 15008KT 10SM CLR 15/08 A3008 720 62 900 150/08 RMK AO2
14837KMSN MSN20120614054009206/14/12 05:40:31  5-MIN KMSN 141140Z 15010KT 10SM CLR 15/08 A3008 720 62 900 150/10 RMK AO2
14837KMSN MSN20120614054509206/14/12 05:45:31  5-MIN KMSN 141145Z 15007KT 10SM CLR 15/08 A3009 710 62 900 150/07 RMK AO2
14837KMSN MSN20120614055013006/14/12 05:50:31  5-MIN KMSN 141150Z 15008KT 10SM FEW080 15/08 A3009 710 64 900 150/08 RMK AO2 SLP187 T01500083 10156 20100 58004
14837KMSN MSN20120614055509306/14/12 05:55:31  5-MIN KMSN 141155Z 15008KT 10SM CLR 16/08 A3009 710 62 1000 150/08 RMK AO2
14837KMSN MSN20120614060009306/14/12 06:00:31  5-MIN KMSN 141200Z 15007KT 10SM CLR 16/08 A3009 710 62 1000 150/07 RMK AO2
14837KMSN MSN20120614060509306/14/12 06:05:31  5-MIN KMSN 141205Z 15007KT 10SM CLR 16/08 A3009 710 59 1000 150/07 RMK AO2
14837KMSN MSN20120614061009306/14/12 06:10:31  5-MIN KMSN 141210Z 15006KT 10SM CLR 16/08 A3010 700 59 1000 150/06 RMK AO2
14837KMSN MSN20120614061509306/14/12 06:15:31  5-MIN KMSN 141215Z 16007KT 10SM CLR 17/08 A3009 700 57 1100 160/07 RMK AO2
14837KMSN MSN20120614062009306/14/12 06:20:31  5-MIN KMSN 141220Z 16008KT 10SM CLR 17/08 A3009 710 57 1100 160/08 RMK AO2
14837KMSN MSN20120614062509306/14/12 06:25:31  5-MIN KMSN 141225Z 16008KT 10SM CLR 17/08 A3009 710 55 1200 170/08 RMK AO2
14837KMSN MSN20120614063009306/14/12 06:30:31  5-MIN KMSN 141230Z 16008KT 10SM CLR 17/08 A3009 710 55 1200 160/08 RMK AO2
14837KMSN MSN20120614063509306/14/12 06:35:31  5-MIN KMSN 141235Z 17009KT 10SM CLR 17/08 A3010 700 55 1200 170/09 RMK AO2
14837KMSN MSN20120614064009306/14/12 06:40:31  5-MIN KMSN 141240Z 16010KT 10SM CLR 18/08 A3010 700 51 1200 160/10 RMK AO2
14837KMSN MSN20120614064509306/14/12 06:45:31  5-MIN KMSN 141245Z 17010KT 10SM CLR 18/08 A3010 700 51 1200 170/10 RMK AO2
14837KMSN MSN20120614065011006/14/12 06:50:31  5-MIN KMSN 141250Z 16011KT 10SM CLR 18/08 A3010 700 50 1300 160/11 RMK AO2 SLP190 T01830078
14837KMSN MSN20120614065509306/14/12 06:55:31  5-MIN KMSN 141255Z 16011KT 10SM CLR 18/08 A3010 700 50 1300 160/11 RMK AO2
14837KMSN MSN20120614070009306/14/12 07:00:31  5-MIN KMSN 141300Z 15009KT 10SM CLR 18/08 A3010 700 52 1300 160/09 RMK AO2
14837KMSN MSN20120614070509306/14/12 07:05:31  5-MIN KMSN 141305Z 16009KT 10SM CLR 19/08 A3010 690 50 1400 160/09 RMK AO2
14837KMSN MSN20120614071009306/14/12 07:10:31  5-MIN KMSN 141310Z 16009KT 10SM CLR 19/08 A3010 700 50 1400 160/09 RMK AO2
14837KMSN MSN20120614071509306/14/12 07:15:31  5-MIN KMSN 141315Z 15010KT 10SM CLR 19/08 A3010 700 50 1400 150/10 RMK AO2
14837KMSN MSN20120614072009306/14/12 07:20:31  5-MIN KMSN 141320Z 16009KT 10SM CLR 19/08 A3010 700 48 1400 170/09 RMK AO2
14837KMSN MSN20120614072509306/14/12 07:25:31  5-MIN KMSN 141325Z 17009KT 10SM CLR 19/08 A3010 700 48 1400 170/09 RMK AO2
14837KMSN MSN20120614073009306/14/12 07:30:31  5-MIN KMSN 141330Z 17011KT 10SM CLR 20/08 A3011 690 46 1500 170/11 RMK AO2
14837KMSN MSN20120614073509306/14/12 07:35:31  5-MIN KMSN 141335Z 16011KT 10SM CLR 20/08 A3011 690 45 1500 160/11 RMK AO2
14837KMSN MSN20120614074009306/14/12 07:40:31  5-MIN KMSN 141340Z 17010KT 10SM CLR 20/08 A3011 690 46 1500 170/10 RMK AO2
14837KMSN MSN20120614074509906/14/12 07:45:31  5-MIN KMSN 141345Z 16012G18KT 10SM CLR 21/08 A3011 690 43 1500 170/12G18 RMK AO2
14837KMSN MSN20120614075011606/14/12 07:50:31  5-MIN KMSN 141350Z 17011G18KT 10SM CLR 21/08 A3010 700 45 1500 170/11G18 RMK AO2 SLP190 T02060083
14837KMSN MSN20120614075509306/14/12 07:55:31  5-MIN KMSN 141355Z 16012KT 10SM CLR 21/08 A3010 700 43 1600 160/12 RMK AO2
14837KMSN MSN20120614080009906/14/12 08:00:31  5-MIN KMSN 141400Z 16014G18KT 10SM CLR 21/08 A3009 710 43 1600 160/14G18 RMK AO2
14837KMSN MSN20120614080509906/14/12 08:05:31  5-MIN KMSN 141405Z 16011G18KT 10SM CLR 21/08 A3009 710 43 1600 160/11G18 RMK AO2
14837KMSN MSN20120614081009306/14/12 08:10:31  5-MIN KMSN 141410Z 17012KT 10SM CLR 22/08 A3009 710 42 1700 180/12 RMK AO2
14837KMSN MSN20120614081509306/14/12 08:15:31  5-MIN KMSN 141415Z 17013KT 10SM CLR 22/08 A3009 710 42 1700 170/13 RMK AO2
14837KMSN MSN20120614082009906/14/12 08:20:31  5-MIN KMSN 141420Z 18014G19KT 10SM CLR 22/08 A3009 710 42 1700 180/14G19 RMK AO2
14837KMSN MSN20120614082509306/14/12 08:25:31  5-MIN KMSN 141425Z 18013KT 10SM CLR 22/08 A3008 720 42 1700 180/13 RMK AO2
14837KMSN MSN20120614083009306/14/12 08:30:31  5-MIN KMSN 141430Z 18013KT 10SM CLR 22/09 A3008 720 42 1800 180/13 RMK AO2
14837KMSN MSN20120614083509306/14/12 08:35:31  5-MIN KMSN 141435Z 16016KT 10SM CLR 22/09 A3008 720 42 1800 160/16 RMK AO2
14837KMSN MSN20120614084009906/14/12 08:40:31  5-MIN KMSN 141440Z 17015G20KT 10SM CLR 22/09 A3007 720 42 1800 170/15G20 RMK AO2
14837KMSN MSN20120614084509906/14/12 08:45:31  5-MIN KMSN 141445Z 18012G20KT 10SM CLR 22/09 A3007 720 42 1800 180/12G20 RMK AO2
14837KMSN MSN20120614085011606/14/12 08:50:31  5-MIN KMSN 141450Z 16012KT 10SM CLR 23/09 A3007 730 42 1800 160/12 RMK AO2 SLP180 T02280094 58001
14837KMSN MSN20120614085509306/14/12 08:55:31  5-MIN KMSN 141455Z 16014KT 10SM CLR 23/09 A3007 730 39 1900 170/14 RMK AO2
14837KMSN MSN20120614090009306/14/12 09:00:31  5-MIN KMSN 141500Z 18012KT 10SM CLR 23/09 A3006 730 41 1900 180/12 RMK AO2
14837KMSN MSN20120614090509306/14/12 09:05:31  5-MIN KMSN 141505Z 17011KT 10SM CLR 23/09 A3006 730 41 1900 170/11 RMK AO2
14837KMSN MSN20120614091009306/14/12 09:10:31  5-MIN KMSN 141510Z 17013KT 10SM CLR 24/09 A3006 730 39 2000 170/13 RMK AO2
14837KMSN MSN20120614091509306/14/12 09:15:31  5-MIN KMSN 141515Z 16014KT 10SM CLR 24/09 A3006 740 39 2000 160/14 RMK AO2
14837KMSN MSN20120614092009306/14/12 09:20:31  5-MIN KMSN 141520Z 16010KT 10SM CLR 24/10 A3006 740 41 2000 170/10 RMK AO2
14837KMSN MSN20120614092509306/14/12 09:25:31  5-MIN KMSN 141525Z 17015KT 10SM CLR 24/10 A3006 730 39 2000 170/15 RMK AO2
14837KMSN MSN20120614093009306/14/12 09:30:31  5-MIN KMSN 141530Z 16013KT 10SM CLR 24/09 A3006 740 39 2000 170/13 RMK AO2
14837KMSN MSN20120614093509306/14/12 09:35:31  5-MIN KMSN 141535Z 18013KT 10SM CLR 24/10 A3005 740 41 2000 180/13 RMK AO2
14837KMSN MSN20120614094009306/14/12 09:40:31  5-MIN KMSN 141540Z 16015KT 10SM CLR 24/10 A3006 740 39 2000 160/15 RMK AO2
14837KMSN MSN20120614094509906/14/12 09:45:31  5-MIN KMSN 141545Z 18011G19KT 10SM CLR 24/10 A3005 740 39 2000 190/11G19 RMK AO2
14837KMSN MSN20120614095011606/14/12 09:50:31  5-MIN KMSN 141550Z 16015G18KT 10SM CLR 25/10 A3005 740 38 2100 160/15G18 RMK AO2 SLP172 T02500100
14837KMSN MSN20120614095509906/14/12 09:55:31  5-MIN KMSN 141555Z 17016G19KT 10SM CLR 24/10 A3004 750 39 2100 170/16G19 RMK AO2
14837KMSN MSN20120614100009906/14/12 10:00:31  5-MIN KMSN 141600Z 17013G22KT 10SM CLR 24/10 A3004 750 39 2100 170/13G22 RMK AO2
14837KMSN MSN20120614100509906/14/12 10:05:31  5-MIN KMSN 141605Z 17014G22KT 10SM CLR 25/10 A3004 750 38 2100 170/14G22 RMK AO2
14837KMSN MSN20120614101009306/14/12 10:10:31  5-MIN KMSN 141610Z 16016KT 10SM CLR 25/11 A3004 760 39 2100 170/16 RMK AO2
14837KMSN MSN20120614101509306/14/12 10:15:31  5-MIN KMSN 141615Z 17011KT 10SM CLR 26/11 A3004 750 38 2200 170/11 RMK AO2
14837KMSN MSN20120614102009306/14/12 10:20:31  5-MIN KMSN 141620Z 17013KT 10SM CLR 26/11 A3004 750 38 2200 170/13 RMK AO2
14837KMSN MSN20120614102509906/14/12 10:25:31  5-MIN KMSN 141625Z 18010G17KT 10SM CLR 26/11 A3004 750 38 2200 180/10G17 RMK AO2
14837KMSN MSN20120614103009906/14/12 10:30:31  5-MIN KMSN 141630Z 18013G19KT 10SM CLR 26/11 A3005 750 38 2200 180/13G19 RMK AO2
14837KMSN MSN20120614103509306/14/12 10:35:31  5-MIN KMSN 141635Z 19013KT 10SM CLR 26/11 A3005 740 38 2200 190/13 RMK AO2
14837KMSN MSN20120614104009306/14/12 10:40:31  5-MIN KMSN 141640Z 18012KT 10SM CLR 26/11 A3005 740 38 2200 180/12 RMK AO2
14837KMSN MSN20120614104509906/14/12 10:45:31  5-MIN KMSN 141645Z 18013G19KT 10SM CLR 26/11 A3005 740 37 2200 180/13G19 RMK AO2
14837KMSN MSN20120614105011606/14/12 10:50:31  5-MIN KMSN 141650Z 17012G21KT 10SM CLR 26/11 A3006 740 37 2200 180/12G21 RMK AO2 SLP174 T02610106
14837KMSN MSN20120614105509906/14/12 10:55:31  5-MIN KMSN 141655Z 17017G23KT 10SM CLR 26/11 A3006 740 37 2200 170/17G23 RMK AO2
14837KMSN MSN20120614110009906/14/12 11:00:31  5-MIN KMSN 141700Z 17013G23KT 10SM CLR 26/11 A3005 740 38 2200 170/13G23 RMK AO2
14837KMSN MSN20120614110509906/14/12 11:05:31  5-MIN KMSN 141705Z 17017G20KT 10SM CLR 26/11 A3005 740 37 2200 170/17G20 RMK AO2
14837KMSN MSN20120614111009906/14/12 11:10:31  5-MIN KMSN 141710Z 17014G20KT 10SM CLR 26/11 A3005 740 37 2200 170/14G20 RMK AO2
14837KMSN MSN20120614111509306/14/12 11:15:31  5-MIN KMSN 141715Z 17014KT 10SM CLR 26/11 A3005 740 37 2200 170/14 RMK AO2
14837KMSN MSN20120614112009306/14/12 11:20:31  5-MIN KMSN 141720Z 17014KT 10SM CLR 26/11 A3005 740 37 2200 170/14 RMK AO2
14837KMSN MSN20120614112509306/14/12 11:25:31  5-MIN KMSN 141725Z 17013KT 10SM CLR 26/11 A3005 740 37 2200 170/13 RMK AO2
14837KMSN MSN20120614113009906/14/12 11:30:31  5-MIN KMSN 141730Z 16015G21KT 10SM CLR 26/11 A3005 750 38 2200 160/15G21 RMK AO2
14837KMSN MSN20120614113509306/14/12 11:35:31  5-MIN KMSN 141735Z 17016KT 10SM CLR 27/11 A3005 750 36 2300 170/16 RMK AO2
14837KMSN MSN20120614114009906/14/12 11:40:31  5-MIN KMSN 141740Z 16015G21KT 10SM CLR 27/10 A3005 750 34 2300 160/15G21 RMK AO2
14837KMSN MSN20120614114509906/14/12 11:45:31  5-MIN KMSN 141745Z 17015G21KT 10SM CLR 27/10 A3005 740 34 2300 180/15G21 RMK AO2
14837KMSN MSN20120614115012806/14/12 11:50:31  5-MIN KMSN 141750Z 17015KT 10SM CLR 27/10 A3006 740 34 2300 170/15 RMK AO2 SLP174 T02670100 10267 20156 58007
14837KMSN MSN20120614115509906/14/12 11:55:31  5-MIN KMSN 141755Z 19014G20KT 10SM CLR 27/10 A3006 740 34 2300 190/14G20 RMK AO2
14837KMSN MSN20120614120009306/14/12 12:00:31  5-MIN KMSN 141800Z 19011KT 10SM CLR 27/10 A3006 740 34 2300 200/11 RMK AO2
14837KMSN MSN20120614120509906/14/12 12:05:31  5-MIN KMSN 141805Z 17014G21KT 10SM CLR 27/10 A3006 740 34 2300 170/14G21 RMK AO2
14837KMSN MSN20120614121009906/14/12 12:10:31  5-MIN KMSN 141810Z 17015G21KT 10SM CLR 27/11 A3006 740 36 2300 170/15G21 RMK AO2
14837KMSN MSN20120614121509306/14/12 12:15:31  5-MIN KMSN 141815Z 16014KT 10SM CLR 27/11 A3006 730 36 2300 160/14 RMK AO2
14837KMSN MSN20120614122009306/14/12 12:20:31  5-MIN KMSN 141820Z 17014KT 10SM CLR 27/11 A3006 730 34 2300 170/14 RMK AO2
14837KMSN MSN20120614122509906/14/12 12:25:31  5-MIN KMSN 141825Z 17014G19KT 10SM CLR 27/10 A3006 740 33 2300 180/14G19 RMK AO2
14837KMSN MSN20120614123009306/14/12 12:30:31  5-MIN KMSN 141830Z 19013KT 10SM CLR 27/10 A3006 730 33 2300 190/13 RMK AO2
14837KMSN MSN20120614123509306/14/12 12:35:31  5-MIN KMSN 141835Z 18011KT 10SM CLR 27/10 A3006 740 33 2400 190/11 RMK AO2
14837KMSN MSN20120614124009306/14/12 12:40:31  5-MIN KMSN 141840Z 19012KT 10SM CLR 27/11 A3006 740 34 2400 190/12 RMK AO2
14837KMSN MSN20120614124509306/14/12 12:45:31  5-MIN KMSN 141845Z 18013KT 10SM CLR 27/11 A3006 740 34 2300 180/13 RMK AO2
14837KMSN MSN20120614125011006/14/12 12:50:31  5-MIN KMSN 141850Z 16011KT 10SM CLR 27/11 A3006 730 34 2300 160/11 RMK AO2 SLP177 T02720106
14837KMSN MSN20120614125509906/14/12 12:55:31  5-MIN KMSN 141855Z 16012G19KT 10SM CLR 27/11 A3007 730 34 2300 160/12G19 RMK AO2
14837KMSN MSN20120614130009906/14/12 13:00:31  5-MIN KMSN 141900Z 17011G19KT 10SM CLR 28/11 A3007 730 33 2400 180/11G19 RMK AO2
14837KMSN MSN20120614130509306/14/12 13:05:31  5-MIN KMSN 141905Z 18011KT 10SM CLR 27/11 A3007 730 34 2300 180/11 RMK AO2
14837KMSN MSN20120614131009306/14/12 13:10:31  5-MIN KMSN 141910Z 17009KT 10SM CLR 27/11 A3007 730 34 2300 170/09 RMK AO2
14837KMSN MSN20120614131509306/14/12 13:15:31  5-MIN KMSN 141915Z 18010KT 10SM CLR 28/11 A3007 730 33 2400 180/10 RMK AO2
14837KMSN MSN20120614132009306/14/12 13:20:31  5-MIN KMSN 141920Z 18011KT 10SM CLR 27/11 A3007 730 34 2300 190/11 RMK AO2
14837KMSN MSN20120614132509306/14/12 13:25:31  5-MIN KMSN 141925Z 17012KT 10SM CLR 27/11 A3007 730 36 2300 170/12 RMK AO2
14837KMSN MSN20120614133009906/14/12 13:30:31  5-MIN KMSN 141930Z 17010G16KT 10SM CLR 27/11 A3006 730 36 2300 180/10G16 RMK AO2
14837KMSN MSN20120614133509906/14/12 13:35:31  5-MIN KMSN 141935Z 17007G17KT 10SM CLR 28/11 A3006 740 33 2400 180/07G17 RMK AO2
14837KMSN MSN20120614134009906/14/12 13:40:31  5-MIN KMSN 141940Z 19009G17KT 10SM CLR 28/11 A3006 740 35 2400 190/09G17 RMK AO2
14837KMSN MSN20120614134509306/14/12 13:45:31  5-MIN KMSN 141945Z 17012KT 10SM CLR 28/11 A3006 740 33 2400 170/12 RMK AO2
14837KMSN MSN20120614135011006/14/12 13:50:31  5-MIN KMSN 141950Z 18010KT 10SM CLR 28/11 A3006 740 33 2400 180/10 RMK AO2 SLP175 T02780106
14837KMSN MSN20120614135509306/14/12 13:55:31  5-MIN KMSN 141955Z 18012KT 10SM CLR 27/11 A3006 740 34 2400 180/12 RMK AO2
14837KMSN MSN20120614140009306/14/12 14:00:31  5-MIN KMSN 142000Z 18013KT 10SM CLR 28/11 A3006 740 33 2400 180/13 RMK AO2
14837KMSN MSN20120614140509306/14/12 14:05:31  5-MIN KMSN 142005Z 18011KT 10SM CLR 28/11 A3006 740 33 2400 180/11 RMK AO2
14837KMSN MSN20120614141009306/14/12 14:10:31  5-MIN KMSN 142010Z 18012KT 10SM CLR 28/11 A3006 740 33 2400 180/12 RMK AO2
14837KMSN MSN20120614141509306/14/12 14:15:31  5-MIN KMSN 142015Z 18008KT 10SM CLR 28/11 A3006 740 33 2400 180/08 RMK AO2
14837KMSN MSN20120614142009906/14/12 14:20:31  5-MIN KMSN 142020Z 18012G17KT 10SM CLR 28/11 A3006 740 33 2400 180/12G17 RMK AO2
14837KMSN MSN20120614142509906/14/12 14:25:31  5-MIN KMSN 142025Z 17011G17KT 10SM CLR 28/10 A3005 740 32 2400 170/11G17 RMK AO2
14837KMSN MSN20120614143009306/14/12 14:30:31  5-MIN KMSN 142030Z 15013KT 10SM CLR 28/11 A3005 740 33 2400 150/13 RMK AO2
14837KMSN MSN20120614143509306/14/12 14:35:31  5-MIN KMSN 142035Z 17013KT 10SM CLR 28/11 A3005 740 32 2500 170/13 RMK AO2
14837KMSN MSN20120614144009306/14/12 14:40:31  5-MIN KMSN 142040Z 16016KT 10SM CLR 28/11 A3005 750 33 2400 160/16 RMK AO2
14837KMSN MSN20120614144509306/14/12 14:45:31  5-MIN KMSN 142045Z 17015KT 10SM CLR 28/10 A3005 750 31 2500 170/15 RMK AO2
14837KMSN MSN20120614145011606/14/12 14:50:31  5-MIN KMSN 142050Z 18013KT 10SM CLR 28/10 A3005 740 31 2500 180/13 RMK AO2 SLP173 T02830100 56004
14837KMSN MSN20120614145509306/14/12 14:55:31  5-MIN KMSN 142055Z 17012KT 10SM CLR 28/11 A3005 740 33 2400 180/12 RMK AO2
14837KMSN MSN20120614150009306/14/12 15:00:31  5-MIN KMSN 142100Z 18011KT 10SM CLR 28/11 A3005 740 32 2500 180/11 RMK AO2
14837KMSN MSN20120614150509306/14/12 15:05:31  5-MIN KMSN 142105Z 18011KT 10SM CLR 28/11 A3005 740 32 2500 180/11 RMK AO2
14837KMSN MSN20120614151009906/14/12 15:10:31  5-MIN KMSN 142110Z 18013G19KT 10SM CLR 28/11 A3005 750 32 2500 180/13G19 RMK AO2
14837KMSN MSN20120614151509906/14/12 15:15:31  5-MIN KMSN 142115Z 17013G19KT 10SM CLR 28/11 A3004 750 32 2500 170/13G19 RMK AO2
14837KMSN MSN20120614152009306/14/12 15:20:31  5-MIN KMSN 142120Z 18013KT 10SM CLR 28/11 A3004 760 32 2500 180/13 RMK AO2
14837KMSN MSN20120614152509306/14/12 15:25:31  5-MIN KMSN 142125Z 18014KT 10SM CLR 28/11 A3003 760 32 2500 180/14 RMK AO2
14837KMSN MSN20120614153009306/14/12 15:30:31  5-MIN KMSN 142130Z 14013KT 10SM CLR 28/11 A3003 760 35 2400 140/13 RMK AO2
14837KMSN MSN20120614153509306/14/12 15:35:31  5-MIN KMSN 142135Z 16012KT 10SM CLR 28/11 A3003 760 35 2400 170/12 RMK AO2
14837KMSN MSN20120614154009306/14/12 15:40:31  5-MIN KMSN 142140Z 17011KT 10SM CLR 28/11 A3002 770 33 2500 170/11 RMK AO2
14837KMSN MSN20120614154509906/14/12 15:45:31  5-MIN KMSN 142145Z 16014G20KT 10SM CLR 28/11 A3002 770 35 2500 160/14G20 RMK AO2
14837KMSN MSN20120614155011606/14/12 15:50:31  5-MIN KMSN 142150Z 15015G20KT 10SM CLR 28/11 A3002 770 35 2500 150/15G20 RMK AO2 SLP163 T02780111
14837KMSN MSN20120614155509306/14/12 15:55:31  5-MIN KMSN 142155Z 15014KT 10SM CLR 28/12 A3002 770 36 2500 160/14 RMK AO2
14837KMSN MSN20120614160009306/14/12 16:00:31  5-MIN KMSN 142200Z 15014KT 10SM CLR 28/11 A3002 770 35 2500 150/14 RMK AO2
14837KMSN MSN20120614160509306/14/12 16:05:31  5-MIN KMSN 142205Z 16011KT 10SM CLR 28/12 A3001 780 36 2500 160/11 RMK AO2
14837KMSN MSN20120614161009306/14/12 16:10:31  5-MIN KMSN 142210Z 17012KT 10SM CLR 28/12 A3001 780 36 2500 170/12 RMK AO2
14837KMSN MSN20120614161509306/14/12 16:15:31  5-MIN KMSN 142215Z 16012KT 10SM CLR 28/11 A3001 780 33 2500 170/12 RMK AO2
14837KMSN MSN20120614162009306/14/12 16:20:31  5-MIN KMSN 142220Z 17014KT 10SM CLR 28/11 A3000 790 35 2500 170/14 RMK AO2
14837KMSN MSN20120614162509306/14/12 16:25:31  5-MIN KMSN 142225Z 18013KT 10SM CLR 28/11 A3000 790 35 2500 180/13 RMK AO2
14837KMSN MSN20120614163009306/14/12 16:30:31  5-MIN KMSN 142230Z 16012KT 10SM CLR 28/12 A3000 790 36 2500 170/12 RMK AO2
14837KMSN MSN20120614163509306/14/12 16:35:31  5-MIN KMSN 142235Z 17013KT 10SM CLR 28/12 A2999 800 36 2500 170/13 RMK AO2
14837KMSN MSN20120614164009906/14/12 16:40:31  5-MIN KMSN 142240Z 16015G20KT 10SM CLR 28/12 A2999 800 36 2500 160/15G20 RMK AO2
14837KMSN MSN20120614164509906/14/12 16:45:31  5-MIN KMSN 142245Z 16015G20KT 10SM CLR 28/12 A2998 810 36 2500 170/15G20 RMK AO2
14837KMSN MSN20120614165011006/14/12 16:50:31  5-MIN KMSN 142250Z 16012KT 10SM CLR 28/12 A2998 810 36 2500 160/12 RMK AO2 SLP149 T02780117
14837KMSN MSN20120614165509306/14/12 16:55:31  5-MIN KMSN 142255Z 16014KT 10SM CLR 27/12 A2998 810 37 2400 160/14 RMK AO2
14837KMSN MSN20120614170009306/14/12 17:00:31  5-MIN KMSN 142300Z 16012KT 10SM CLR 28/12 A2998 810 36 2500 160/12 RMK AO2
14837KMSN MSN20120614170509306/14/12 17:05:31  5-MIN KMSN 142305Z 15010KT 10SM CLR 28/12 A2999 800 36 2500 150/10 RMK AO2
14837KMSN MSN20120614171009306/14/12 17:10:31  5-MIN KMSN 142310Z 15013KT 10SM CLR 27/12 A2999 800 39 2400 160/13 RMK AO2
14837KMSN MSN20120614171509306/14/12 17:15:31  5-MIN KMSN 142315Z 16015KT 10SM CLR 27/12 A2999 800 37 2400 160/15 RMK AO2
14837KMSN MSN20120614172009306/14/12 17:20:31  5-MIN KMSN 142320Z 15011KT 10SM CLR 27/12 A2999 800 37 2400 160/11 RMK AO2
14837KMSN MSN20120614172509306/14/12 17:25:31  5-MIN KMSN 142325Z 16012KT 10SM CLR 27/12 A2999 800 39 2400 160/12 RMK AO2
14837KMSN MSN20120614173009306/14/12 17:30:31  5-MIN KMSN 142330Z 16010KT 10SM CLR 27/12 A2999 800 37 2400 160/10 RMK AO2
14837KMSN MSN20120614173509306/14/12 17:35:31  5-MIN KMSN 142335Z 16012KT 10SM CLR 27/12 A2999 800 37 2400 160/12 RMK AO2
14837KMSN MSN20120614174009306/14/12 17:40:31  5-MIN KMSN 142340Z 16012KT 10SM CLR 27/12 A2998 810 37 2400 160/12 RMK AO2
14837KMSN MSN20120614174509306/14/12 17:45:31  5-MIN KMSN 142345Z 15012KT 10SM CLR 27/12 A2998 810 37 2400 150/12 RMK AO2
14837KMSN MSN20120614175012806/14/12 17:50:31  5-MIN KMSN 142350Z 15011KT 10SM CLR 27/12 A2998 810 37 2400 150/11 RMK AO2 SLP148 T02720117 10283 20267 58001
14837KMSN MSN20120614175509306/14/12 17:55:31  5-MIN KMSN 142355Z 15009KT 10SM CLR 27/12 A2998 810 37 2400 150/09 RMK AO2
14837KMSN MSN20120614180009306/14/12 18:00:31  5-MIN KMSN 150000Z 15012KT 10SM CLR 27/12 A2998 810 39 2400 150/12 RMK AO2
14837KMSN MSN20120614180509306/14/12 18:05:31  5-MIN KMSN 150005Z 14009KT 10SM CLR 27/12 A2999 800 39 2400 140/09 RMK AO2
14837KMSN MSN20120614181009306/14/12 18:10:31  5-MIN KMSN 150010Z 15009KT 10SM CLR 27/12 A2998 810 39 2400 150/09 RMK AO2
14837KMSN MSN20120614181509306/14/12 18:15:31  5-MIN KMSN 150015Z 15010KT 10SM CLR 27/12 A2998 810 39 2400 150/10 RMK AO2
14837KMSN MSN20120614182009306/14/12 18:20:31  5-MIN KMSN 150020Z 14010KT 10SM CLR 27/12 A2998 810 37 2400 150/10 RMK AO2
14837KMSN MSN20120614182509306/14/12 18:25:31  5-MIN KMSN 150025Z 15010KT 10SM CLR 27/12 A2998 810 39 2400 150/10 RMK AO2
14837KMSN MSN20120614183009306/14/12 18:30:31  5-MIN KMSN 150030Z 14010KT 10SM CLR 27/12 A2998 810 39 2400 140/10 RMK AO2
14837KMSN MSN20120614183509306/14/12 18:35:31  5-MIN KMSN 150035Z 14009KT 10SM CLR 27/12 A2999 800 39 2400 150/09 RMK AO2
14837KMSN MSN20120614184009306/14/12 18:40:31  5-MIN KMSN 150040Z 14008KT 10SM CLR 27/12 A2999 800 40 2400 140/08 RMK AO2
14837KMSN MSN20120614184509306/14/12 18:45:31  5-MIN KMSN 150045Z 14010KT 10SM CLR 27/12 A2998 810 40 2400 140/10 RMK AO2
14837KMSN MSN20120614185011006/14/12 18:50:31  5-MIN KMSN 150050Z 13009KT 10SM CLR 27/12 A2997 810 40 2400 130/09 RMK AO2 SLP145 T02670122
14837KMSN MSN20120614185509306/14/12 18:55:31  5-MIN KMSN 150055Z 13007KT 10SM CLR 26/12 A2997 820 41 2300 130/07 RMK AO2
14837KMSN MSN20120614190009906/14/12 19:00:31  5-MIN KMSN 150100Z 12014G19KT 10SM CLR 26/12 A2997 820 43 2300 120/14G19 RMK AO2
14837KMSN MSN20120614190509906/14/12 19:05:31  5-MIN KMSN 150105Z 12016G19KT 10SM CLR 26/12 A2996 830 43 2300 120/16G19 RMK AO2
14837KMSN MSN20120614191009906/14/12 19:10:31  5-MIN KMSN 150110Z 13010G19KT 10SM CLR 25/12 A2996 830 44 2200 130/10G19 RMK AO2
14837KMSN MSN20120614191509306/14/12 19:15:31  5-MIN KMSN 150115Z 13013KT 10SM CLR 24/12 A2996 830 46 2200 130/13 RMK AO2
14837KMSN MSN20120614192009306/14/12 19:20:31  5-MIN KMSN 150120Z 13012KT 10SM CLR 24/12 A2996 830 46 2200 130/12 RMK AO2
14837KMSN MSN20120614192509306/14/12 19:25:31  5-MIN KMSN 150125Z 13011KT 10SM CLR 24/12 A2996 830 46 2200 130/11 RMK AO2
14837KMSN MSN20120614193009906/14/12 19:30:31  5-MIN KMSN 150130Z 13010G17KT 10SM CLR 24/12 A2996 830 44 2200 130/10G17 RMK AO2
14837KMSN MSN20120614193509306/14/12 19:35:31  5-MIN KMSN 150135Z 12010KT 10SM CLR 24/12 A2996 830 44 2100 120/10 RMK AO2
14837KMSN MSN20120614194009306/14/12 19:40:31  5-MIN KMSN 150140Z 12008KT 10SM CLR 23/12 A2996 820 47 2000 120/08 RMK AO2
14837KMSN MSN20120614194509306/14/12 19:45:31  5-MIN KMSN 150145Z 13008KT 10SM CLR 23/12 A2997 820 47 2000 130/08 RMK AO2
14837KMSN MSN20120614195011706/14/12 19:50:31  5-MIN KMSN 150150Z 13008KT 10SM CLR 24/12 A2998 810 46 2100 130/08 RMK AO2 PRESRR SLP148 T02390117
14837KMSN MSN20120614195509306/14/12 19:55:31  5-MIN KMSN 150155Z 13008KT 10SM CLR 23/12 A2998 810 47 2000 130/08 RMK AO2
14837KMSN MSN20120614200009306/14/12 20:00:31  5-MIN KMSN 150200Z 13009KT 10SM CLR 23/12 A2998 810 47 2000 130/09 RMK AO2
14837KMSN MSN20120614200509306/14/12 20:05:31  5-MIN KMSN 150205Z 13006KT 10SM CLR 23/12 A2999 800 47 2000 130/06 RMK AO2
14837KMSN MSN20120614201010006/14/12 20:10:31  5-MIN KMSN 150210Z 11005KT 10SM CLR 23/12 A3000 790 49 1900 110/05 RMK AO2 PRESRR
14837KMSN MSN20120614201510006/14/12 20:15:31  5-MIN KMSN 150215Z 11005KT 10SM CLR 22/12 A3001 780 51 1800 110/05 RMK AO2 PRESRR
14837KMSN MSN20120614202009306/14/12 20:20:31  5-MIN KMSN 150220Z 12006KT 10SM CLR 22/12 A3001 780 51 1800 120/06 RMK AO2
14837KMSN MSN20120614202509306/14/12 20:25:31  5-MIN KMSN 150225Z 13008KT 10SM CLR 22/12 A3000 790 51 1800 130/08 RMK AO2
14837KMSN MSN20120614203009306/14/12 20:30:31  5-MIN KMSN 150230Z 13008KT 10SM CLR 23/11 A3001 780 47 1900 140/08 RMK AO2
14837KMSN MSN20120614203509306/14/12 20:35:31  5-MIN KMSN 150235Z 13007KT 10SM CLR 23/11 A3001 780 47 1900 130/07 RMK AO2
14837KMSN MSN20120614204009306/14/12 20:40:31  5-MIN KMSN 150240Z 13008KT 10SM CLR 22/11 A3001 780 49 1800 140/08 RMK AO2
14837KMSN MSN20120614204509306/14/12 20:45:31  5-MIN KMSN 150245Z 14006KT 10SM CLR 22/11 A3001 780 49 1800 140/06 RMK AO2
14837KMSN MSN20120614205011606/14/12 20:50:31  5-MIN KMSN 150250Z 13006KT 10SM CLR 22/11 A3001 780 50 1800 140/06 RMK AO2 SLP159 T02170111 55023
14837KMSN MSN20120614205509306/14/12 20:55:31  5-MIN KMSN 150255Z 14008KT 10SM CLR 22/11 A3001 780 49 1800 140/08 RMK AO2
14837KMSN MSN20120614210009306/14/12 21:00:31  5-MIN KMSN 150300Z 14009KT 10SM CLR 22/11 A3000 790 49 1800 150/09 RMK AO2
14837KMSN MSN20120614210509306/14/12 21:05:31  5-MIN KMSN 150305Z 14009KT 10SM CLR 22/11 A3000 790 49 1800 140/09 RMK AO2
14837KMSN MSN20120614211009306/14/12 21:10:31  5-MIN KMSN 150310Z 14009KT 10SM CLR 22/11 A3000 790 49 1800 140/09 RMK AO2
14837KMSN MSN20120614211509306/14/12 21:15:31  5-MIN KMSN 150315Z 15006KT 10SM CLR 22/11 A3001 780 49 1800 150/06 RMK AO2
14837KMSN MSN20120614212009306/14/12 21:20:31  5-MIN KMSN 150320Z 14008KT 10SM CLR 22/11 A3001 780 49 1800 150/08 RMK AO2
14837KMSN MSN20120614212509306/14/12 21:25:31  5-MIN KMSN 150325Z 15009KT 10SM CLR 22/11 A3001 790 47 1800 150/09 RMK AO2
14837KMSN MSN20120614213009306/14/12 21:30:31  5-MIN KMSN 150330Z 15009KT 10SM CLR 22/11 A3000 790 49 1800 150/09 RMK AO2
14837KMSN MSN20120614213509306/14/12 21:35:31  5-MIN KMSN 150335Z 14007KT 10SM CLR 22/11 A3000 790 47 1900 140/07 RMK AO2
14837KMSN MSN20120614214009306/14/12 21:40:31  5-MIN KMSN 150340Z 14008KT 10SM CLR 22/11 A3000 790 47 1900 140/08 RMK AO2
14837KMSN MSN20120614214509306/14/12 21:45:31  5-MIN KMSN 150345Z 14006KT 10SM CLR 22/11 A3000 790 49 1800 140/06 RMK AO2
14837KMSN MSN20120614215011006/14/12 21:50:31  5-MIN KMSN 150350Z 13006KT 10SM CLR 22/11 A3000 790 49 1800 130/06 RMK AO2 SLP155 T02170106
14837KMSN MSN20120614215509306/14/12 21:55:31  5-MIN KMSN 150355Z 14006KT 10SM CLR 21/11 A3000 790 50 1700 140/06 RMK AO2
14837KMSN MSN20120614220009306/14/12 22:00:31  5-MIN KMSN 150400Z 14006KT 10SM CLR 21/11 A3001 780 50 1700 140/06 RMK AO2
14837KMSN MSN20120614220509306/14/12 22:05:31  5-MIN KMSN 150405Z 14004KT 10SM CLR 21/11 A3001 780 50 1700 140/04 RMK AO2
14837KMSN MSN20120614221009306/14/12 22:10:31  5-MIN KMSN 150410Z 14005KT 10SM CLR 21/11 A3001 780 50 1700 140/05 RMK AO2
14837KMSN MSN20120614221509306/14/12 22:15:31  5-MIN KMSN 150415Z 13005KT 10SM CLR 21/11 A3002 780 52 1600 130/05 RMK AO2
14837KMSN MSN20120614222009306/14/12 22:20:31  5-MIN KMSN 150420Z 12003KT 10SM CLR 21/11 A3002 770 52 1600 120/03 RMK AO2
14837KMSN MSN20120614222509306/14/12 22:25:31  5-MIN KMSN 150425Z 13004KT 10SM CLR 21/10 A3002 770 48 1700 140/04 RMK AO2
14837KMSN MSN20120614223009306/14/12 22:30:31  5-MIN KMSN 150430Z 15003KT 10SM CLR 21/10 A3002 770 50 1600 150/03 RMK AO2
14837KMSN MSN20120614223509306/14/12 22:35:31  5-MIN KMSN 150435Z 14003KT 10SM CLR 19/11 A3002 770 58 1400 140/03 RMK AO2
14837KMSN MSN20120614224009306/14/12 22:40:31  5-MIN KMSN 150440Z 14003KT 10SM CLR 19/11 A3002 770 56 1500 150/03 RMK AO2
14837KMSN MSN20120614224509306/14/12 22:45:31  5-MIN KMSN 150445Z 00000KT 10SM CLR 18/11 A3003 770 60 1400 000/00 RMK AO2
14837KMSN MSN20120614225011006/14/12 22:50:31  5-MIN KMSN 150450Z 00000KT 10SM CLR 18/11 A3003 760 62 1300 000/00 RMK AO2 SLP165 T01780106
14837KMSN MSN20120614225509306/14/12 22:55:31  5-MIN KMSN 150455Z 00000KT 10SM CLR 18/11 A3003 760 60 1400 000/00 RMK AO2
14837KMSN MSN20120614230009306/14/12 23:00:31  5-MIN KMSN 150500Z 03003KT 10SM CLR 19/11 A3004 760 58 1400 030/03 RMK AO2
14837KMSN MSN20120614230509306/14/12 23:05:31  5-MIN KMSN 150505Z 01005KT 10SM CLR 18/11 A3004 750 62 1300 010/05 RMK AO2
14837KMSN MSN20120614231009306/14/12 23:10:31  5-MIN KMSN 150510Z 36006KT 10SM CLR 18/11 A3004 750 62 1300 360/06 RMK AO2
14837KMSN MSN20120614231509306/14/12 23:15:31  5-MIN KMSN 150515Z 35006KT 10SM CLR 17/11 A3005 750 64 1200 350/06 RMK AO2
14837KMSN MSN20120614232009306/14/12 23:20:31  5-MIN KMSN 150520Z 34004KT 10SM CLR 17/11 A3005 750 64 1200 350/04 RMK AO2
14837KMSN MSN20120614232509306/14/12 23:25:31  5-MIN KMSN 150525Z 00000KT 10SM CLR 18/11 A3004 750 62 1300 000/00 RMK AO2
14837KMSN MSN20120614233009306/14/12 23:30:31  5-MIN KMSN 150530Z 00000KT 10SM CLR 18/11 A3004 760 60 1400 000/00 RMK AO2
14837KMSN MSN20120614233509306/14/12 23:35:31  5-MIN KMSN 150535Z 00000KT 10SM CLR 17/11 A3003 760 64 1200 000/00 RMK AO2
14837KMSN MSN20120614234009306/14/12 23:40:31  5-MIN KMSN 150540Z 00000KT 10SM CLR 18/11 A3003 760 60 1400 000/00 RMK AO2
14837KMSN MSN20120614234509306/14/12 23:45:31  5-MIN KMSN 150545Z 00000KT 10SM CLR 18/11 A3003 760 60 1400 000/00 RMK AO2
14837KMSN MSN20120614235013806/14/12 23:50:31  5-MIN KMSN 150550Z 02003KT 10SM CLR 18/10 A3003 760 58 1400 030/03 RMK AO2 SLP165 T01830100 10272 20172 402830100 53009
14837KMSN MSN20120614235509306/14/12 23:55:31  5-MIN KMSN 150555Z 02003KT 10SM CLR 17/11 A3003 760 67 1200 020/03 RMK AO2
14837KMSN MSN20120615000009306/15/12 00:00:32  5-MIN KMSN 150600Z 00000KT 10SM CLR 16/11 A3004 760 69 1100 000/00 RMK AO2
14837KMSN MSN20120615000509306/15/12 00:05:31  5-MIN KMSN 150605Z 33004KT 10SM CLR 16/11 A3004 750 72 1000 330/04 RMK AO2
14837KMSN MSN20120615001009306/15/12 00:10:31  5-MIN KMSN 150610Z 00000KT 10SM CLR 17/11 A3004 750 67 1200 000/00 RMK AO2
14837KMSN MSN20120615001509306/15/12 00:15:31  5-MIN KMSN 150615Z 00000KT 10SM CLR 17/11 A3004 750 67 1200 000/00 RMK AO2
14837KMSN MSN20120615002009306/15/12 00:20:31  5-MIN KMSN 150620Z 00000KT 10SM CLR 16/11 A3005 750 69 1100 000/00 RMK AO2
14837KMSN MSN20120615002509306/15/12 00:25:31  5-MIN KMSN 150625Z 00000KT 10SM CLR 15/11 A3005 740 74 1000 000/00 RMK AO2
14837KMSN MSN20120615003009306/15/12 00:30:31  5-MIN KMSN 150630Z 32003KT 10SM CLR 16/11 A3005 740 72 1000 320/03 RMK AO2
14837KMSN MSN20120615003509306/15/12 00:35:31  5-MIN KMSN 150635Z 33003KT 10SM CLR 16/11 A3006 740 72 1000 340/03 RMK AO2
14837KMSN MSN20120615004009306/15/12 00:40:31  5-MIN KMSN 150640Z 33003KT 10SM CLR 16/11 A3006 740 72 1000 330/03 RMK AO2
14837KMSN MSN20120615004509306/15/12 00:45:31  5-MIN KMSN 150645Z 33004KT 10SM CLR 16/11 A3006 730 72 1000 330/04 RMK AO2
14837KMSN MSN20120615005011006/15/12 00:50:31  5-MIN KMSN 150650Z 34003KT 10SM CLR 16/11 A3006 740 69 1100 340/03 RMK AO2 SLP175 T01610106
14837KMSN MSN20120615005509306/15/12 00:55:31  5-MIN KMSN 150655Z 33003KT 10SM CLR 16/11 A3006 740 69 1100 330/03 RMK AO2
14837KMSN MSN20120615010009306/15/12 01:00:31  5-MIN KMSN 150700Z 00000KT 10SM CLR 16/11 A3006 740 72 1000 000/00 RMK AO2
14837KMSN MSN20120615010509306/15/12 01:05:31  5-MIN KMSN 150705Z 00000KT 10SM CLR 16/11 A3006 740 69 1100 000/00 RMK AO2
14837KMSN MSN20120615011009306/15/12 01:10:31  5-MIN KMSN 150710Z 00000KT 10SM CLR 16/11 A3006 740 72 1000 000/00 RMK AO2
14837KMSN MSN20120615011509306/15/12 01:15:31  5-MIN KMSN 150715Z 00000KT 10SM CLR 16/11 A3006 740 69 1100 000/00 RMK AO2
14837KMSN MSN20120615012009306/15/12 01:20:31  5-MIN KMSN 150720Z 00000KT 10SM CLR 17/11 A3005 740 67 1200 000/00 RMK AO2
14837KMSN MSN20120615012509306/15/12 01:25:31  5-MIN KMSN 150725Z 00000KT 10SM CLR 16/10 A3005 740 67 1100 000/00 RMK AO2
14837KMSN MSN20120615013009306/15/12 01:30:31  5-MIN KMSN 150730Z 00000KT 10SM CLR 15/11 A3005 750 74 1000 000/00 RMK AO2
14837KMSN MSN20120615013509306/15/12 01:35:31  5-MIN KMSN 150735Z 00000KT 10SM CLR 15/11 A3005 750 74 1000 000/00 RMK AO2
14837KMSN MSN20120615014009306/15/12 01:40:31  5-MIN KMSN 150740Z 00000KT 10SM CLR 16/11 A3004 750 72 1000 000/00 RMK AO2
14837KMSN MSN20120615014509306/15/12 01:45:31  5-MIN KMSN 150745Z 00000KT 10SM CLR 16/11 A3004 750 69 1100 000/00 RMK AO2
14837KMSN MSN20120615015011006/15/12 01:50:31  5-MIN KMSN 150750Z 00000KT 10SM CLR 16/11 A3004 750 69 1100 000/00 RMK AO2 SLP169 T01610106
14837KMSN MSN20120615015509306/15/12 01:55:31  5-MIN KMSN 150755Z 00000KT 10SM CLR 16/10 A3004 750 67 1100 000/00 RMK AO2
14837KMSN MSN20120615020009306/15/12 02:00:31  5-MIN KMSN 150800Z 00000KT 10SM CLR 16/10 A3004 750 67 1100 000/00 RMK AO2
14837KMSN MSN20120615020509306/15/12 02:05:31  5-MIN KMSN 150805Z 00000KT 10SM CLR 16/10 A3004 760 67 1100 000/00 RMK AO2
14837KMSN MSN20120615021009306/15/12 02:10:31  5-MIN KMSN 150810Z 00000KT 10SM CLR 16/10 A3004 760 69 1000 000/00 RMK AO2
14837KMSN MSN20120615021509206/15/12 02:15:31  5-MIN KMSN 150815Z 00000KT 10SM CLR 14/10 A3004 760 74 900 000/00 RMK AO2
14837KMSN MSN20120615022009206/15/12 02:20:31  5-MIN KMSN 150820Z 00000KT 10SM CLR 14/10 A3004 750 74 900 000/00 RMK AO2
14837KMSN MSN20120615022509306/15/12 02:25:31  5-MIN KMSN 150825Z 00000KT 10SM CLR 16/10 A3004 750 69 1000 000/00 RMK AO2
14837KMSN MSN20120615023009306/15/12 02:30:31  5-MIN KMSN 150830Z 00000KT 10SM CLR 17/10 A3004 760 64 1200 000/00 RMK AO2
14837KMSN MSN20120615023509306/15/12 02:35:31  5-MIN KMSN 150835Z 15003KT 10SM CLR 17/10 A3003 760 62 1200 150/03 RMK AO2
14837KMSN MSN20120615024009306/15/12 02:40:31  5-MIN KMSN 150840Z 14003KT 10SM CLR 17/10 A3003 760 62 1200 140/03 RMK AO2
14837KMSN MSN20120615024509306/15/12 02:45:31  5-MIN KMSN 150845Z 13003KT 10SM CLR 17/10 A3003 770 64 1200 130/03 RMK AO2
14837KMSN MSN20120615025011606/15/12 02:50:31  5-MIN KMSN 150850Z 13003KT 10SM CLR 17/10 A3002 770 64 1200 130/03 RMK AO2 SLP161 T01670100 53008
14837KMSN MSN20120615025509306/15/12 02:55:31  5-MIN KMSN 150855Z 13003KT 10SM CLR 16/10 A3002 770 67 1100 130/03 RMK AO2
14837KMSN MSN20120615030009306/15/12 03:00:31  5-MIN KMSN 150900Z 15003KT 10SM CLR 16/10 A3002 780 67 1100 150/03 RMK AO2
14837KMSN MSN20120615030509306/15/12 03:05:31  5-MIN KMSN 150905Z 16004KT 10SM CLR 17/10 A3001 780 64 1200 160/04 RMK AO2
14837KMSN MSN20120615031009306/15/12 03:10:31  5-MIN KMSN 150910Z 17004KT 10SM CLR 16/10 A3001 780 67 1100 170/04 RMK AO2
14837KMSN MSN20120615031509306/15/12 03:15:31  5-MIN KMSN 150915Z 17005KT 10SM CLR 17/10 A3001 780 62 1300 170/05 RMK AO2
14837KMSN MSN20120615032009306/15/12 03:20:31  5-MIN KMSN 150920Z 17005KT 10SM CLR 18/10 A3001 780 60 1300 180/05 RMK AO2
14837KMSN MSN20120615032509306/15/12 03:25:31  5-MIN KMSN 150925Z 17006KT 10SM CLR 18/10 A3001 790 60 1300 170/06 RMK AO2
14837KMSN MSN20120615033009306/15/12 03:30:31  5-MIN KMSN 150930Z 17006KT 10SM CLR 18/10 A3000 790 60 1300 170/06 RMK AO2
14837KMSN MSN20120615033509306/15/12 03:35:31  5-MIN KMSN 150935Z 17006KT 10SM CLR 18/10 A3000 790 58 1400 170/06 RMK AO2
14837KMSN MSN20120615034009306/15/12 03:40:31  5-MIN KMSN 150940Z 17005KT 10SM CLR 18/10 A3000 790 58 1400 180/05 RMK AO2
14837KMSN MSN20120615034509306/15/12 03:45:31  5-MIN KMSN 150945Z 18005KT 10SM CLR 18/10 A3000 790 58 1400 180/05 RMK AO2
14837KMSN MSN20120615035011006/15/12 03:50:31  5-MIN KMSN 150950Z 18005KT 10SM CLR 18/10 A3000 790 58 1400 180/05 RMK AO2 SLP155 T01830100
14837KMSN MSN20120615035509306/15/12 03:55:31  5-MIN KMSN 150955Z 18005KT 10SM CLR 18/10 A3000 790 58 1400 180/05 RMK AO2
14837KMSN MSN20120615040009306/15/12 04:00:31  5-MIN KMSN 151000Z 18006KT 10SM CLR 18/11 A3000 790 60 1400 180/06 RMK AO2
14837KMSN MSN20120615040509306/15/12 04:05:31  5-MIN KMSN 151005Z 18006KT 10SM CLR 18/11 A3000 790 60 1400 180/06 RMK AO2
14837KMSN MSN20120615041009306/15/12 04:10:31  5-MIN KMSN 151010Z 18006KT 10SM CLR 18/11 A3000 790 60 1400 180/06 RMK AO2
14837KMSN MSN20120615041509306/15/12 04:15:31  5-MIN KMSN 151015Z 18006KT 10SM CLR 18/11 A3000 790 60 1400 180/06 RMK AO2
14837KMSN MSN20120615042009306/15/12 04:20:31  5-MIN KMSN 151020Z 18006KT 10SM CLR 19/11 A3000 790 60 1500 190/06 RMK AO2
14837KMSN MSN20120615042509306/15/12 04:25:31  5-MIN KMSN 151025Z 18007KT 10SM CLR 19/11 A3000 790 60 1500 180/07 RMK AO2
14837KMSN MSN20120615043009306/15/12 04:30:31  5-MIN KMSN 151030Z 18007KT 10SM CLR 19/11 A3000 790 60 1500 180/07 RMK AO2
14837KMSN MSN20120615043509306/15/12 04:35:31  5-MIN KMSN 151035Z 18007KT 10SM CLR 19/11 A3000 790 60 1500 180/07 RMK AO2
14837KMSN MSN20120615044009306/15/12 04:40:31  5-MIN KMSN 151040Z 18006KT 10SM CLR 19/11 A3000 790 60 1500 180/06 RMK AO2
14837KMSN MSN20120615044509306/15/12 04:45:31  5-MIN KMSN 151045Z 18006KT 10SM CLR 19/11 A3000 790 60 1500 180/06 RMK AO2
14837KMSN MSN20120615045011006/15/12 04:50:31  5-MIN KMSN 151050Z 18007KT 10SM CLR 19/11 A3000 790 60 1500 180/07 RMK AO2 SLP153 T01890111
14837KMSN MSN20120615045509306/15/12 04:55:31  5-MIN KMSN 151055Z 19006KT 10SM CLR 19/11 A3000 790 60 1500 190/06 RMK AO2
14837KMSN MSN20120615050009306/15/12 05:00:31  5-MIN KMSN 151100Z 18007KT 10SM CLR 19/11 A3001 790 58 1500 190/07 RMK AO2
14837KMSN MSN20120615050509306/15/12 05:05:31  5-MIN KMSN 151105Z 19008KT 10SM CLR 19/11 A3001 780 58 1500 190/08 RMK AO2
14837KMSN MSN20120615051009306/15/12 05:10:31  5-MIN KMSN 151110Z 19008KT 10SM CLR 19/11 A3001 780 56 1500 190/08 RMK AO2
14837KMSN MSN20120615051509306/15/12 05:15:31  5-MIN KMSN 151115Z 19009KT 10SM CLR 19/11 A3001 780 56 1500 190/09 RMK AO2
14837KMSN MSN20120615052009306/15/12 05:20:31  5-MIN KMSN 151120Z 19009KT 10SM CLR 19/11 A3001 780 56 1500 190/09 RMK AO2
14837KMSN MSN20120615052509306/15/12 05:25:31  5-MIN KMSN 151125Z 19008KT 10SM CLR 19/11 A3001 780 56 1500 190/08 RMK AO2
14837KMSN MSN20120615053009306/15/12 05:30:31  5-MIN KMSN 151130Z 19007KT 10SM CLR 19/11 A3001 780 56 1500 190/07 RMK AO2
14837KMSN MSN20120615053509306/15/12 05:35:31  5-MIN KMSN 151135Z 19007KT 10SM CLR 20/11 A3001 780 54 1600 190/07 RMK AO2
14837KMSN MSN20120615054009306/15/12 05:40:31  5-MIN KMSN 151140Z 19005KT 10SM CLR 20/11 A3001 780 54 1600 190/05 RMK AO2
14837KMSN MSN20120615054509306/15/12 05:45:31  5-MIN KMSN 151145Z 20006KT 10SM CLR 20/11 A3002 780 54 1600 200/06 RMK AO2
14837KMSN MSN20120615055012806/15/12 05:50:31  5-MIN KMSN 151150Z 19007KT 10SM CLR 21/11 A3002 780 52 1600 190/07 RMK AO2 SLP159 T02060106 10206 20144 58005
14837KMSN MSN20120615055509306/15/12 05:55:31  5-MIN KMSN 151155Z 19006KT 10SM CLR 21/11 A3002 770 52 1600 190/06 RMK AO2
14837KMSN MSN20120615060009306/15/12 06:00:31  5-MIN KMSN 151200Z 19005KT 10SM CLR 21/11 A3002 770 52 1700 190/05 RMK AO2
14837KMSN MSN20120615060509306/15/12 06:05:31  5-MIN KMSN 151205Z 19005KT 10SM CLR 21/11 A3002 770 52 1700 190/05 RMK AO2
14837KMSN MSN20120615061009306/15/12 06:10:31  5-MIN KMSN 151210Z 18005KT 10SM CLR 22/11 A3002 770 50 1800 180/05 RMK AO2
14837KMSN MSN20120615061509306/15/12 06:15:31  5-MIN KMSN 151215Z 18007KT 10SM CLR 22/11 A3002 770 50 1800 180/07 RMK AO2
14837KMSN MSN20120615062009306/15/12 06:20:31  5-MIN KMSN 151220Z 17006KT 10SM CLR 22/11 A3003 770 50 1800 170/06 RMK AO2
14837KMSN MSN20120615062509306/15/12 06:25:31  5-MIN KMSN 151225Z 17006KT 10SM CLR 22/12 A3003 770 52 1800 170/06 RMK AO2
14837KMSN MSN20120615063009306/15/12 06:30:31  5-MIN KMSN 151230Z 17006KT 10SM CLR 22/12 A3003 770 52 1800 170/06 RMK AO2
14837KMSN MSN20120615063509306/15/12 06:35:31  5-MIN KMSN 151235Z 18005KT 10SM CLR 22/12 A3003 770 52 1800 180/05 RMK AO2
14837KMSN MSN20120615064009306/15/12 06:40:31  5-MIN KMSN 151240Z 18004KT 10SM CLR 22/12 A3003 760 51 1800 180/04 RMK AO2
14837KMSN MSN20120615064509306/15/12 06:45:31  5-MIN KMSN 151245Z 18004KT 10SM CLR 22/12 A3003 760 51 1800 180/04 RMK AO2
14837KMSN MSN20120615065011006/15/12 06:50:31  5-MIN KMSN 151250Z 17005KT 10SM CLR 22/12 A3003 760 52 1800 180/05 RMK AO2 SLP164 T02220122
14837KMSN MSN20120615065509306/15/12 06:55:31  5-MIN KMSN 151255Z 19005KT 10SM CLR 23/12 A3003 760 51 1900 190/05 RMK AO2
14837KMSN MSN20120615070009306/15/12 07:00:31  5-MIN KMSN 151300Z 18007KT 10SM CLR 23/12 A3003 760 49 1900 180/07 RMK AO2
14837KMSN MSN20120615070509306/15/12 07:05:31  5-MIN KMSN 151305Z 18006KT 10SM CLR 23/12 A3003 760 47 1900 180/06 RMK AO2
14837KMSN MSN20120615071009306/15/12 07:10:31  5-MIN KMSN 151310Z 19007KT 10SM CLR 23/12 A3004 760 47 1900 200/07 RMK AO2
14837KMSN MSN20120615071509306/15/12 07:15:31  5-MIN KMSN 151315Z 18007KT 10SM CLR 24/12 A3004 760 46 2000 190/07 RMK AO2
14837KMSN MSN20120615072009306/15/12 07:20:31  5-MIN KMSN 151320Z 18009KT 10SM CLR 24/12 A3004 760 47 2000 180/09 RMK AO2
14837KMSN MSN20120615072509306/15/12 07:25:31  5-MIN KMSN 151325Z 18008KT 10SM CLR 24/12 A3004 760 47 2000 180/08 RMK AO2
14837KMSN MSN20120615073009306/15/12 07:30:31  5-MIN KMSN 151330Z 18008KT 10SM CLR 24/12 A3004 760 47 2000 190/08 RMK AO2
14837KMSN MSN20120615073509306/15/12 07:35:31  5-MIN KMSN 151335Z 19009KT 10SM CLR 24/12 A3004 750 47 2000 190/09 RMK AO2
14837KMSN MSN20120615074009306/15/12 07:40:31  5-MIN KMSN 151340Z 19008KT 10SM CLR 23/12 A3004 750 49 1900 190/08 RMK AO2
14837KMSN MSN20120615074509306/15/12 07:45:31  5-MIN KMSN 151345Z 18009KT 10SM CLR 23/12 A3004 750 49 1900 190/09 RMK AO2
14837KMSN MSN20120615075011006/15/12 07:50:31  5-MIN KMSN 151350Z 19008KT 10SM CLR 24/12 A3004 750 47 2000 190/08 RMK AO2 SLP169 T02390122
14837KMSN MSN20120615075509306/15/12 07:55:31  5-MIN KMSN 151355Z 19010KT 10SM CLR 24/12 A3004 750 47 2000 190/10 RMK AO2
14837KMSN MSN20120615080009306/15/12 08:00:31  5-MIN KMSN 151400Z 19009KT 10SM CLR 24/12 A3004 750 47 2000 200/09 RMK AO2
14837KMSN MSN20120615080509306/15/12 08:05:31  5-MIN KMSN 151405Z 20006KT 10SM CLR 24/13 A3005 750 49 2000 200/06 RMK AO2
14837KMSN MSN20120615081009306/15/12 08:10:31  5-MIN KMSN 151410Z 21005KT 10SM CLR 24/13 A3005 750 47 2100 220/05 RMK AO2
14837KMSN MSN20120615081509306/15/12 08:15:31  5-MIN KMSN 151415Z 20006KT 10SM CLR 24/13 A3005 750 47 2100 200/06 RMK AO2
14837KMSN MSN20120615082009306/15/12 08:20:31  5-MIN KMSN 151420Z 20007KT 10SM CLR 24/13 A3005 750 47 2100 200/07 RMK AO2
14837KMSN MSN20120615082509306/15/12 08:25:31  5-MIN KMSN 151425Z 19008KT 10SM CLR 25/13 A3005 750 46 2100 200/08 RMK AO2
14837KMSN MSN20120615083009306/15/12 08:30:31  5-MIN KMSN 151430Z 18010KT 10SM CLR 25/13 A3004 750 48 2100 180/10 RMK AO2
14837KMSN MSN20120615083509306/15/12 08:35:31  5-MIN KMSN 151435Z 19011KT 10SM CLR 25/13 A3004 750 48 2100 190/11 RMK AO2
14837KMSN MSN20120615084009306/15/12 08:40:31  5-MIN KMSN 151440Z 18010KT 10SM CLR 26/13 A3004 750 46 2200 180/10 RMK AO2
14837KMSN MSN20120615084509306/15/12 08:45:31  5-MIN KMSN 151445Z 18009KT 10SM CLR 26/13 A3004 750 46 2200 190/09 RMK AO2
14837KMSN MSN20120615085011606/15/12 08:50:31  5-MIN KMSN 151450Z 18011KT 10SM CLR 26/13 A3005 750 44 2200 180/11 RMK AO2 SLP169 T02610133 55000
14837KMSN MSN20120615085509306/15/12 08:55:31  5-MIN KMSN 151455Z 19010KT 10SM CLR 26/13 A3005 750 46 2200 200/10 RMK AO2
14837KMSN MSN20120615090009306/15/12 09:00:31  5-MIN KMSN 151500Z 18012KT 10SM CLR 26/13 A3004 750 46 2200 180/12 RMK AO2
14837KMSN MSN20120615090509306/15/12 09:05:31  5-MIN KMSN 151505Z 18010KT 10SM CLR 26/13 A3005 750 44 2200 190/10 RMK AO2
14837KMSN MSN20120615091009306/15/12 09:10:31  5-MIN KMSN 151510Z 18009KT 10SM CLR 26/14 A3004 750 46 2200 180/09 RMK AO2
14837KMSN MSN20120615091509306/15/12 09:15:31  5-MIN KMSN 151515Z 19010KT 10SM CLR 27/14 A3004 750 43 2400 190/10 RMK AO2
14837KMSN MSN20120615092009306/15/12 09:20:31  5-MIN KMSN 151520Z 18011KT 10SM CLR 27/14 A3005 750 43 2400 180/11 RMK AO2
14837KMSN MSN20120615092509306/15/12 09:25:31  5-MIN KMSN 151525Z 19008KT 10SM CLR 27/14 A3005 750 43 2400 200/08 RMK AO2
14837KMSN MSN20120615093009306/15/12 09:30:31  5-MIN KMSN 151530Z 18010KT 10SM CLR 28/14 A3005 750 42 2400 180/10 RMK AO2
14837KMSN MSN20120615093509306/15/12 09:35:31  5-MIN KMSN 151535Z 18012KT 10SM CLR 27/14 A3005 750 43 2400 180/12 RMK AO2
14837KMSN MSN20120615094009306/15/12 09:40:31  5-MIN KMSN 151540Z 19009KT 10SM CLR 27/14 A3005 740 43 2400 190/09 RMK AO2
14837KMSN MSN20120615094509306/15/12 09:45:31  5-MIN KMSN 151545Z 20009KT 10SM CLR 27/14 A3005 750 45 2300 200/09 RMK AO2
14837KMSN MSN20120615095011006/15/12 09:50:31  5-MIN KMSN 151550Z 19009KT 10SM CLR 28/14 A3005 750 43 2400 190/09 RMK AO2 SLP169 T02780144
14837KMSN MSN20120615095509306/15/12 09:55:31  5-MIN KMSN 151555Z 18009KT 10SM CLR 28/14 A3004 750 43 2400 180/09 RMK AO2
14837KMSN MSN20120615100009306/15/12 10:00:31  5-MIN KMSN 151600Z 19008KT 10SM CLR 28/14 A3004 750 42 2500 190/08 RMK AO2
14837KMSN MSN20120615100509306/15/12 10:05:31  5-MIN KMSN 151605Z 20006KT 10SM CLR 28/14 A3004 750 42 2500 200/06 RMK AO2
14837KMSN MSN20120615101009306/15/12 10:10:31  5-MIN KMSN 151610Z 17013KT 10SM CLR 29/14 A3004 750 40 2600 170/13 RMK AO2
14837KMSN MSN20120615101509306/15/12 10:15:31  5-MIN KMSN 151615Z 18011KT 10SM CLR 29/14 A3004 750 40 2600 180/11 RMK AO2
14837KMSN MSN20120615102011506/15/12 10:20:31  5-MIN KMSN 151620Z 18007G16KT 160V230 10SM CLR 29/14 A3004 750 40 2600 190/07G16 160V230 RMK AO2
14837KMSN MSN20120615102509306/15/12 10:25:31  5-MIN KMSN 151625Z 21008KT 10SM CLR 29/14 A3004 750 39 2600 210/08 RMK AO2
14837KMSN MSN20120615103009906/15/12 10:30:31  5-MIN KMSN 151630Z 21008G17KT 10SM CLR 29/14 A3004 750 40 2600 220/08G17 RMK AO2
14837KMSN MSN20120615103509906/15/12 10:35:31  5-MIN KMSN 151635Z 21007G17KT 10SM CLR 29/14 A3004 750 39 2600 210/07G17 RMK AO2
14837KMSN MSN20120615104010906/15/12 10:40:31  5-MIN KMSN 151640Z 21007KT 170V250 10SM CLR 29/14 A3004 750 38 2600 220/07 170V250 RMK AO2
14837KMSN MSN20120615104509306/15/12 10:45:31  5-MIN KMSN 151645Z 22008KT 10SM CLR 29/14 A3004 750 39 2600 220/08 RMK AO2
14837KMSN MSN20120615105012606/15/12 10:50:31  5-MIN KMSN 151650Z 23007KT 180V270 10SM CLR 29/14 A3004 750 38 2600 230/07 180V270 RMK AO2 SLP168 T02940139
14837KMSN MSN20120615105509306/15/12 10:55:31  5-MIN KMSN 151655Z 21008KT 10SM CLR 29/14 A3004 750 38 2600 210/08 RMK AO2
14837KMSN MSN20120615110009906/15/12 11:00:31  5-MIN KMSN 151700Z 21010G16KT 10SM CLR 30/14 A3004 750 36 2700 210/10G16 RMK AO2
14837KMSN MSN20120615110511506/15/12 11:05:31  5-MIN KMSN 151705Z 19008G16KT 180V240 10SM CLR 31/14 A3004 750 35 2700 200/08G16 180V240 RMK AO2
14837KMSN MSN20120615111009306/15/12 11:10:31  5-MIN KMSN 151710Z 21007KT 10SM CLR 30/14 A3004 750 36 2700 210/07 RMK AO2
14837KMSN MSN20120615111509306/15/12 11:15:31  5-MIN KMSN 151715Z 25008KT 10SM CLR 30/14 A3004 750 36 2700 250/08 RMK AO2
14837KMSN MSN20120615112009906/15/12 11:20:31  5-MIN KMSN 151720Z 23011G16KT 10SM CLR 30/14 A3004 750 36 2700 230/11G16 RMK AO2
14837KMSN MSN20120615112509906/15/12 11:25:31  5-MIN KMSN 151725Z 22007G16KT 10SM CLR 30/14 A3004 750 36 2700 220/07G16 RMK AO2
14837KMSN MSN20120615113009306/15/12 11:30:31  5-MIN KMSN 151730Z 19008KT 10SM CLR 30/14 A3004 750 36 2700 190/08 RMK AO2
14837KMSN MSN20120615113509306/15/12 11:35:31  5-MIN KMSN 151735Z 20006KT 10SM CLR 31/14 A3004 760 35 2700 200/06 RMK AO2
14837KMSN MSN20120615114009906/15/12 11:40:31  5-MIN KMSN 151740Z 18011G17KT 10SM CLR 31/14 A3004 760 35 2700 180/11G17 RMK AO2
14837KMSN MSN20120615114511506/15/12 11:45:31  5-MIN KMSN 151745Z 19009G17KT 170V230 10SM CLR 31/14 A3004 760 35 2700 200/09G17 170V230 RMK AO2
14837KMSN MSN20120615115013406/15/12 11:50:31  5-MIN KMSN 151750Z 18010G16KT 10SM CLR 31/14 A3004 760 35 2700 180/10G16 RMK AO2 SLP166 T03060139 10311 20206 51009
14837KMSN MSN20120615115509906/15/12 11:55:31  5-MIN KMSN 151755Z 17012G19KT 10SM CLR 31/14 A3004 760 34 2800 170/12G19 RMK AO2
14837KMSN MSN20120615120009906/15/12 12:00:31  5-MIN KMSN 151800Z 18012G19KT 10SM CLR 31/14 A3003 760 34 2800 190/12G19 RMK AO2
14837KMSN MSN20120615120509906/15/12 12:05:31  5-MIN KMSN 151805Z 17013G18KT 10SM CLR 31/14 A3004 760 34 2800 170/13G18 RMK AO2
14837KMSN MSN20120615121009906/15/12 12:10:31  5-MIN KMSN 151810Z 19010G18KT 10SM CLR 31/13 A3004 760 33 2800 190/10G18 RMK AO2
14837KMSN MSN20120615121509906/15/12 12:15:31  5-MIN KMSN 151815Z 18011G16KT 10SM CLR 31/13 A3004 760 33 2800 180/11G16 RMK AO2
14837KMSN MSN20120615122009306/15/12 12:20:31  5-MIN KMSN 151820Z 19011KT 10SM CLR 31/13 A3003 760 32 2800 190/11 RMK AO2
14837KMSN MSN20120615122509306/15/12 12:25:31  5-MIN KMSN 151825Z 19011KT 10SM CLR 31/12 A3003 760 31 2800 190/11 RMK AO2
14837KMSN MSN20120615123011506/15/12 12:30:31  5-MIN KMSN 151830Z 20011G16KT 160V230 10SM CLR 31/12 A3003 760 31 2800 200/11G16 160V230 RMK AO2
14837KMSN MSN20120615123509306/15/12 12:35:31  5-MIN KMSN 151835Z 18012KT 10SM CLR 31/13 A3003 760 32 2800 180/12 RMK AO2
14837KMSN MSN20120615124009906/15/12 12:40:31  5-MIN KMSN 151840Z 17011G15KT 10SM CLR 31/13 A3003 760 32 2800 170/11G15 RMK AO2
14837KMSN MSN20120615124509906/15/12 12:45:31  5-MIN KMSN 151845Z 17014G18KT 10SM CLR 31/13 A3003 760 32 2800 170/14G18 RMK AO2
14837KMSN MSN20120615125011606/15/12 12:50:31  5-MIN KMSN 151850Z 17014G18KT 10SM CLR 32/13 A3003 760 31 2900 170/14G18 RMK AO2 SLP164 T03170128
14837KMSN MSN20120615125509306/15/12 12:55:31  5-MIN KMSN 151855Z 18009KT 10SM CLR 31/12 A3003 760 31 2800 190/09 RMK AO2
14837KMSN MSN20120615130009306/15/12 13:00:31  5-MIN KMSN 151900Z 18011KT 10SM CLR 32/12 A3003 760 30 2900 180/11 RMK AO2
14837KMSN MSN20120615130509306/15/12 13:05:31  5-MIN KMSN 151905Z 20010KT 10SM CLR 32/12 A3003 760 29 2900 200/10 RMK AO2
14837KMSN MSN20120615131009306/15/12 13:10:31  5-MIN KMSN 151910Z 16011KT 10SM CLR 32/12 A3003 760 30 2900 160/11 RMK AO2
14837KMSN MSN20120615131509306/15/12 13:15:31  5-MIN KMSN 151915Z 17011KT 10SM CLR 32/12 A3003 760 30 2900 170/11 RMK AO2
14837KMSN MSN20120615132009906/15/12 13:20:31  5-MIN KMSN 151920Z 17012G17KT 10SM CLR 32/12 A3003 760 30 2900 170/12G17 RMK AO2
14837KMSN MSN20120615132509906/15/12 13:25:31  5-MIN KMSN 151925Z 19007G17KT 10SM CLR 32/12 A3003 770 29 2900 190/07G17 RMK AO2
14837KMSN MSN20120615133009906/15/12 13:30:31  5-MIN KMSN 151930Z 19008G20KT 10SM CLR 32/12 A3003 770 30 2900 190/08G20 RMK AO2
14837KMSN MSN20120615133509906/15/12 13:35:31  5-MIN KMSN 151935Z 19009G20KT 10SM CLR 32/12 A3003 770 29 2900 190/09G20 RMK AO2
14837KMSN MSN20120615134009306/15/12 13:40:31  5-MIN KMSN 151940Z 19007KT 10SM CLR 32/12 A3002 770 29 2900 190/07 RMK AO2
14837KMSN MSN20120615134509306/15/12 13:45:31  5-MIN KMSN 151945Z 16009KT 10SM CLR 32/12 A3002 770 28 2900 160/09 RMK AO2
14837KMSN MSN20120615135011006/15/12 13:50:31  5-MIN KMSN 151950Z 18010KT 10SM CLR 32/11 A3002 770 27 2900 180/10 RMK AO2 SLP162 T03220111
14837KMSN MSN20120615135509306/15/12 13:55:31  5-MIN KMSN 151955Z 18010KT 10SM CLR 32/11 A3002 770 27 2900 180/10 RMK AO2
14837KMSN MSN20120615140009306/15/12 14:00:31  5-MIN KMSN 152000Z 18008KT 10SM CLR 32/12 A3002 770 30 2900 180/08 RMK AO2
14837KMSN MSN20120615140510906/15/12 14:05:31  5-MIN KMSN 152005Z 18008KT 150V210 10SM CLR 32/12 A3002 770 29 2900 180/08 150V210 RMK AO2
14837KMSN MSN20120615141009306/15/12 14:10:31  5-MIN KMSN 152010Z 17009KT 10SM CLR 32/12 A3002 770 30 2900 170/09 RMK AO2
14837KMSN MSN20120615141509306/15/12 14:15:31  5-MIN KMSN 152015Z 16010KT 10SM CLR 32/13 A3002 770 30 2900 170/10 RMK AO2
14837KMSN MSN20120615142009306/15/12 14:20:31  5-MIN KMSN 152020Z 17011KT 10SM CLR 33/12 A3002 770 28 3000 170/11 RMK AO2
14837KMSN MSN20120615142509306/15/12 14:25:31  5-MIN KMSN 152025Z 17011KT 10SM CLR 32/12 A3002 780 29 3000 170/11 RMK AO2
14837KMSN MSN20120615143009906/15/12 14:30:31  5-MIN KMSN 152030Z 18011G19KT 10SM CLR 33/12 A3001 780 27 3000 180/11G19 RMK AO2
14837KMSN MSN20120615143509906/15/12 14:35:31  5-MIN KMSN 152035Z 19010G19KT 10SM CLR 33/12 A3001 780 27 3000 190/10G19 RMK AO2
14837KMSN MSN20120615144009306/15/12 14:40:31  5-MIN KMSN 152040Z 17013KT 10SM CLR 33/12 A3001 780 27 3000 170/13 RMK AO2
14837KMSN MSN20120615144509306/15/12 14:45:31  5-MIN KMSN 152045Z 17010KT 10SM CLR 32/12 A3001 780 28 3000 170/10 RMK AO2
14837KMSN MSN20120615145011606/15/12 14:50:31  5-MIN KMSN 152050Z 16013KT 10SM CLR 33/12 A3001 780 27 3000 160/13 RMK AO2 SLP156 T03280117 58003
14837KMSN MSN20120615145509306/15/12 14:55:31  5-MIN KMSN 152055Z 19011KT 10SM CLR 33/11 A3001 780 26 3000 190/11 RMK AO2
14837KMSN MSN20120615150009306/15/12 15:00:31  5-MIN KMSN 152100Z 18012KT 10SM CLR 33/11 A3001 780 26 3000 180/12 RMK AO2
14837KMSN MSN20120615150509306/15/12 15:05:31  5-MIN KMSN 152105Z 18011KT 10SM CLR 32/11 A3001 790 27 3000 180/11 RMK AO2
14837KMSN MSN20120615151009306/15/12 15:10:31  5-MIN KMSN 152110Z 17012KT 10SM CLR 32/11 A3001 780 26 3000 170/12 RMK AO2
14837KMSN MSN20120615151509306/15/12 15:15:31  5-MIN KMSN 152115Z 16011KT 10SM CLR 33/11 A3001 780 26 3000 170/11 RMK AO2
14837KMSN MSN20120615152009306/15/12 15:20:31  5-MIN KMSN 152120Z 18009KT 10SM CLR 33/11 A3000 790 26 3000 180/09 RMK AO2
14837KMSN MSN20120615152509306/15/12 15:25:31  5-MIN KMSN 152125Z 19010KT 10SM CLR 32/11 A3000 790 26 3000 190/10 RMK AO2
14837KMSN MSN20120615153009906/15/12 15:30:31  5-MIN KMSN 152130Z 17008G16KT 10SM CLR 33/12 A3000 790 27 3000 170/08G16 RMK AO2
14837KMSN MSN20120615153509306/15/12 15:35:31  5-MIN KMSN 152135Z 18012KT 10SM CLR 33/12 A3000 790 27 3000 180/12 RMK AO2
14837KMSN MSN20120615154009306/15/12 15:40:31  5-MIN KMSN 152140Z 18011KT 10SM CLR 32/12 A3000 790 28 3000 180/11 RMK AO2
14837KMSN MSN20120615154509906/15/12 15:45:31  5-MIN KMSN 152145Z 17014G18KT 10SM CLR 32/11 A3000 790 27 3000 170/14G18 RMK AO2
14837KMSN MSN20120615155011606/15/12 15:50:31  5-MIN KMSN 152150Z 18011G18KT 10SM CLR 32/11 A3000 790 27 3000 180/11G18 RMK AO2 SLP153 T03220111
14837KMSN MSN20120615155509906/15/12 15:55:31  5-MIN KMSN 152155Z 16012G17KT 10SM CLR 32/11 A3000 790 27 3000 160/12G17 RMK AO2
14837KMSN MSN20120615160009306/15/12 16:00:31  5-MIN KMSN 152200Z 17010KT 10SM CLR 32/11 A3000 790 27 3000 170/10 RMK AO2
14837KMSN MSN20120615160509306/15/12 16:05:31  5-MIN KMSN 152205Z 19012KT 10SM CLR 32/11 A3000 790 27 3000 190/12 RMK AO2
14837KMSN MSN20120615161009306/15/12 16:10:31  5-MIN KMSN 152210Z 18011KT 10SM CLR 32/11 A3000 790 27 2900 180/11 RMK AO2
14837KMSN MSN20120615161509306/15/12 16:15:31  5-MIN KMSN 152215Z 17010KT 10SM CLR 32/11 A3000 790 26 2900 180/10 RMK AO2
14837KMSN MSN20120615162009306/15/12 16:20:31  5-MIN KMSN 152220Z 18009KT 10SM CLR 32/11 A2999 800 26 2900 190/09 RMK AO2
14837KMSN MSN20120615162509906/15/12 16:25:31  5-MIN KMSN 152225Z 18011G15KT 10SM CLR 32/11 A2999 800 27 3000 180/11G15 RMK AO2
14837KMSN MSN20120615163009306/15/12 16:30:31  5-MIN KMSN 152230Z 18010KT 10SM CLR 32/11 A2999 800 26 2900 180/10 RMK AO2
14837KMSN MSN20120615163509306/15/12 16:35:31  5-MIN KMSN 152235Z 18008KT 10SM CLR 32/11 A2999 800 27 2900 190/08 RMK AO2
14837KMSN MSN20120615164009306/15/12 16:40:31  5-MIN KMSN 152240Z 18010KT 10SM CLR 32/12 A2999 800 29 2900 180/10 RMK AO2
14837KMSN MSN20120615164509306/15/12 16:45:31  5-MIN KMSN 152245Z 18010KT 10SM CLR 32/12 A2999 800 29 2900 180/10 RMK AO2
14837KMSN MSN20120615165011006/15/12 16:50:31  5-MIN KMSN 152250Z 19009KT 10SM CLR 32/11 A2999 800 27 2900 190/09 RMK AO2 SLP148 T03170111
14837KMSN MSN20120615165509906/15/12 16:55:31  5-MIN KMSN 152255Z 16013G18KT 10SM CLR 32/10 A2999 800 25 2900 170/13G18 RMK AO2
14837KMSN MSN20120615170009306/15/12 17:00:31  5-MIN KMSN 152300Z 16012KT 10SM CLR 32/11 A2999 800 26 2900 160/12 RMK AO2
14837KMSN MSN20120615170509306/15/12 17:05:31  5-MIN KMSN 152305Z 18007KT 10SM CLR 32/11 A2999 800 26 2900 180/07 RMK AO2
14837KMSN MSN20120615171009306/15/12 17:10:31  5-MIN KMSN 152310Z 20007KT 10SM CLR 32/11 A2999 800 26 2900 200/07 RMK AO2
14837KMSN MSN20120615171509306/15/12 17:15:31  5-MIN KMSN 152315Z 19009KT 10SM CLR 31/11 A3000 790 27 2900 190/09 RMK AO2
14837KMSN MSN20120615172009306/15/12 17:20:31  5-MIN KMSN 152320Z 19008KT 10SM CLR 31/11 A3000 790 27 2900 190/08 RMK AO2
14837KMSN MSN20120615172509306/15/12 17:25:31  5-MIN KMSN 152325Z 19008KT 10SM CLR 31/11 A2999 800 27 2900 190/08 RMK AO2
14837KMSN MSN20120615173009306/15/12 17:30:31  5-MIN KMSN 152330Z 19008KT 10SM CLR 31/10 A2999 800 26 2900 190/08 RMK AO2
14837KMSN MSN20120615173509306/15/12 17:35:31  5-MIN KMSN 152335Z 17009KT 10SM CLR 31/11 A2999 800 27 2900 170/09 RMK AO2
14837KMSN MSN20120615174009306/15/12 17:40:31  5-MIN KMSN 152340Z 17007KT 10SM CLR 31/11 A2999 800 29 2800 170/07 RMK AO2
14837KMSN MSN20120615174509306/15/12 17:45:31  5-MIN KMSN 152345Z 17007KT 10SM CLR 31/12 A2999 800 30 2800 170/07 RMK AO2
14837KMSN MSN20120615175012806/15/12 17:50:31  5-MIN KMSN 152350Z 16006KT 10SM CLR 31/12 A2999 800 30 2800 170/06 RMK AO2 SLP149 T03060117 10328 20306 58009
14837KMSN MSN20120615175509306/15/12 17:55:31  5-MIN KMSN 152355Z 16006KT 10SM CLR 31/11 A2999 800 29 2800 170/06 RMK AO2
14837KMSN MSN20120615180009306/15/12 18:00:31  5-MIN KMSN 160000Z 16007KT 10SM CLR 31/11 A2999 800 28 2900 160/07 RMK AO2
14837KMSN MSN20120615180509306/15/12 18:05:31  5-MIN KMSN 160005Z 16006KT 10SM CLR 31/12 A2999 800 32 2800 160/06 RMK AO2
14837KMSN MSN20120615181009306/15/12 18:10:31  5-MIN KMSN 160010Z 17006KT 10SM CLR 31/13 A2999 800 33 2800 170/06 RMK AO2
14837KMSN MSN20120615181509306/15/12 18:15:31  5-MIN KMSN 160015Z 15005KT 10SM CLR 31/13 A2999 800 33 2800 150/05 RMK AO2
14837KMSN MSN20120615182009306/15/12 18:20:31  5-MIN KMSN 160020Z 15005KT 10SM CLR 30/13 A2999 800 35 2700 150/05 RMK AO2
14837KMSN MSN20120615182509306/15/12 18:25:31  5-MIN KMSN 160025Z 14008KT 10SM CLR 29/13 A2998 810 36 2700 140/08 RMK AO2
14837KMSN MSN20120615183009306/15/12 18:30:31  5-MIN KMSN 160030Z 14008KT 10SM CLR 29/13 A2998 810 36 2700 140/08 RMK AO2
14837KMSN MSN20120615183509306/15/12 18:35:31  5-MIN KMSN 160035Z 15007KT 10SM CLR 30/13 A2999 800 34 2700 150/07 RMK AO2
14837KMSN MSN20120615184009306/15/12 18:40:31  5-MIN KMSN 160040Z 15006KT 10SM CLR 29/13 A2999 800 36 2700 150/06 RMK AO2
14837KMSN MSN20120615184509306/15/12 18:45:31  5-MIN KMSN 160045Z 15007KT 10SM CLR 29/13 A2999 800 36 2700 150/07 RMK AO2
14837KMSN MSN20120615185011006/15/12 18:50:31  5-MIN KMSN 160050Z 15007KT 10SM CLR 29/13 A2998 800 36 2700 150/07 RMK AO2 SLP148 T02940133
14837KMSN MSN20120615185509306/15/12 18:55:31  5-MIN KMSN 160055Z 14005KT 10SM CLR 29/13 A2998 810 38 2600 140/05 RMK AO2
14837KMSN MSN20120615190009306/15/12 19:00:31  5-MIN KMSN 160100Z 14006KT 10SM CLR 29/13 A2998 810 38 2600 140/06 RMK AO2
14837KMSN MSN20120615190509306/15/12 19:05:31  5-MIN KMSN 160105Z 13008KT 10SM CLR 28/13 A2999 800 39 2600 130/08 RMK AO2
14837KMSN MSN20120615191009306/15/12 19:10:31  5-MIN KMSN 160110Z 13008KT 10SM CLR 28/13 A2999 800 39 2600 130/08 RMK AO2
14837KMSN MSN20120615191509306/15/12 19:15:31  5-MIN KMSN 160115Z 13011KT 10SM CLR 28/13 A2999 800 37 2600 130/11 RMK AO2
14837KMSN MSN20120615192009306/15/12 19:20:31  5-MIN KMSN 160120Z 13009KT 10SM CLR 28/13 A2999 800 37 2600 130/09 RMK AO2
14837KMSN MSN20120615192509306/15/12 19:25:31  5-MIN KMSN 160125Z 13007KT 10SM CLR 28/13 A2999 800 37 2500 140/07 RMK AO2
14837KMSN MSN20120615193009306/15/12 19:30:31  5-MIN KMSN 160130Z 13009KT 10SM CLR 28/13 A3000 790 39 2500 130/09 RMK AO2
14837KMSN MSN20120615193509306/15/12 19:35:31  5-MIN KMSN 160135Z 13008KT 10SM CLR 28/13 A3000 790 37 2500 140/08 RMK AO2
14837KMSN MSN20120615194009306/15/12 19:40:31  5-MIN KMSN 160140Z 13008KT 10SM CLR 28/13 A3000 790 39 2500 130/08 RMK AO2
14837KMSN MSN20120615194509306/15/12 19:45:31  5-MIN KMSN 160145Z 13007KT 10SM CLR 28/13 A3000 790 39 2500 130/07 RMK AO2
14837KMSN MSN20120615195011006/15/12 19:50:31  5-MIN KMSN 160150Z 13006KT 10SM CLR 28/13 A3000 790 39 2500 130/06 RMK AO2 SLP153 T02780128
14837KMSN MSN20120615195509306/15/12 19:55:31  5-MIN KMSN 160155Z 13007KT 10SM CLR 27/13 A3000 790 40 2400 130/07 RMK AO2
14837KMSN MSN20120615200009306/15/12 20:00:31  5-MIN KMSN 160200Z 13006KT 10SM CLR 27/13 A3000 790 40 2400 130/06 RMK AO2
14837KMSN MSN20120615200509306/15/12 20:05:31  5-MIN KMSN 160205Z 14006KT 10SM CLR 27/13 A3001 780 41 2300 140/06 RMK AO2
14837KMSN MSN20120615201009306/15/12 20:10:31  5-MIN KMSN 160210Z 13006KT 10SM CLR 27/13 A3001 780 40 2400 140/06 RMK AO2
14837KMSN MSN20120615201509306/15/12 20:15:31  5-MIN KMSN 160215Z 14005KT 10SM CLR 27/13 A3001 780 41 2300 140/05 RMK AO2
14837KMSN MSN20120615202009306/15/12 20:20:31  5-MIN KMSN 160220Z 14005KT 10SM CLR 27/12 A3001 780 40 2300 140/05 RMK AO2
14837KMSN MSN20120615202509306/15/12 20:25:31  5-MIN KMSN 160225Z 13005KT 10SM CLR 27/12 A3002 780 40 2300 140/05 RMK AO2
14837KMSN MSN20120615203009306/15/12 20:30:31  5-MIN KMSN 160230Z 14004KT 10SM CLR 27/12 A3002 770 40 2300 140/04 RMK AO2
14837KMSN MSN20120615203509306/15/12 20:35:31  5-MIN KMSN 160235Z 14005KT 10SM CLR 27/12 A3002 770 40 2300 140/05 RMK AO2
14837KMSN MSN20120615204009306/15/12 20:40:31  5-MIN KMSN 160240Z 14004KT 10SM CLR 26/12 A3002 770 41 2300 140/04 RMK AO2
14837KMSN MSN20120615204509306/15/12 20:45:31  5-MIN KMSN 160245Z 14004KT 10SM CLR 26/12 A3002 770 41 2300 140/04 RMK AO2
14837KMSN MSN20120615205011606/15/12 20:50:31  5-MIN KMSN 160250Z 15004KT 10SM CLR 26/12 A3002 770 41 2300 150/04 RMK AO2 SLP161 T02610122 55006
14837KMSN MSN20120615205509306/15/12 20:55:31  5-MIN KMSN 160255Z 14004KT 10SM CLR 26/12 A3002 770 41 2300 150/04 RMK AO2
14837KMSN MSN20120615210009306/15/12 21:00:31  5-MIN KMSN 160300Z 14005KT 10SM CLR 26/12 A3003 770 41 2300 140/05 RMK AO2
14837KMSN MSN20120615210509306/15/12 21:05:31  5-MIN KMSN 160305Z 13006KT 10SM CLR 26/12 A3002 770 43 2200 130/06 RMK AO2
14837KMSN MSN20120615211009306/15/12 21:10:31  5-MIN KMSN 160310Z 13005KT 10SM CLR 26/12 A3003 770 43 2200 130/05 RMK AO2
14837KMSN MSN20120615211509306/15/12 21:15:31  5-MIN KMSN 160315Z 13005KT 10SM CLR 25/12 A3003 770 44 2100 140/05 RMK AO2
14837KMSN MSN20120615212009306/15/12 21:20:31  5-MIN KMSN 160320Z 13005KT 10SM CLR 26/12 A3002 770 43 2200 140/05 RMK AO2
14837KMSN MSN20120615212509306/15/12 21:25:31  5-MIN KMSN 160325Z 14004KT 10SM CLR 25/12 A3002 770 44 2100 140/04 RMK AO2
14837KMSN MSN20120615213009306/15/12 21:30:31  5-MIN KMSN 160330Z 14005KT 10SM CLR 25/12 A3002 770 44 2100 140/05 RMK AO2
14837KMSN MSN20120615213509306/15/12 21:35:31  5-MIN KMSN 160335Z 14005KT 10SM CLR 25/12 A3002 770 44 2100 150/05 RMK AO2
14837KMSN MSN20120615214009306/15/12 21:40:31  5-MIN KMSN 160340Z 14005KT 10SM CLR 25/12 A3002 770 44 2100 140/05 RMK AO2
14837KMSN MSN20120615214509306/15/12 21:45:31  5-MIN KMSN 160345Z 15004KT 10SM CLR 25/12 A3002 770 44 2100 160/04 RMK AO2
14837KMSN MSN20120615215011006/15/12 21:50:31  5-MIN KMSN 160350Z 17005KT 10SM CLR 26/12 A3002 770 41 2200 170/05 RMK AO2 SLP160 T02560117
14837KMSN MSN20120615215509306/15/12 21:55:31  5-MIN KMSN 160355Z 17004KT 10SM CLR 26/12 A3003 770 43 2200 180/04 RMK AO2
14837KMSN MSN20120615220009306/15/12 22:00:31  5-MIN KMSN 160400Z 17004KT 10SM CLR 27/12 A3003 770 40 2300 180/04 RMK AO2
14837KMSN MSN20120615220509306/15/12 22:05:31  5-MIN KMSN 160405Z 17004KT 10SM CLR 26/12 A3003 770 43 2200 170/04 RMK AO2
14837KMSN MSN20120615221009306/15/12 22:10:31  5-MIN KMSN 160410Z 16004KT 10SM CLR 26/12 A3003 770 43 2200 160/04 RMK AO2
14837KMSN MSN20120615221509306/15/12 22:15:31  5-MIN KMSN 160415Z 15004KT 10SM CLR 25/12 A3002 770 44 2100 150/04 RMK AO2
14837KMSN MSN20120615222009306/15/12 22:20:31  5-MIN KMSN 160420Z 14003KT 10SM CLR 24/12 A3002 770 46 2100 140/03 RMK AO2
14837KMSN MSN20120615222509306/15/12 22:25:31  5-MIN KMSN 160425Z 14003KT 10SM CLR 24/12 A3002 770 46 2100 150/03 RMK AO2
14837KMSN MSN20120615223009306/15/12 22:30:31  5-MIN KMSN 160430Z VRB03KT 10SM CLR 24/12 A3003 770 46 2100 VRB/03 RMK AO2
14837KMSN MSN20120615223509306/15/12 22:35:31  5-MIN KMSN 160435Z 18003KT 10SM CLR 24/12 A3003 770 46 2100 180/03 RMK AO2
14837KMSN MSN20120615224009306/15/12 22:40:31  5-MIN KMSN 160440Z 18003KT 10SM CLR 24/12 A3003 770 46 2100 180/03 RMK AO2
14837KMSN MSN20120615224509306/15/12 22:45:31  5-MIN KMSN 160445Z 18005KT 10SM CLR 25/12 A3003 760 44 2100 180/05 RMK AO2
14837KMSN MSN20120615225011006/15/12 22:50:31  5-MIN KMSN 160450Z 18005KT 10SM CLR 25/12 A3003 770 44 2100 180/05 RMK AO2 SLP161 T02500122
14837KMSN MSN20120615225509306/15/12 22:55:31  5-MIN KMSN 160455Z 17005KT 10SM CLR 25/12 A3003 770 44 2100 170/05 RMK AO2
14837KMSN MSN20120615230009306/15/12 23:00:31  5-MIN KMSN 160500Z 17006KT 10SM CLR 25/12 A3002 770 44 2100 170/06 RMK AO2
14837KMSN MSN20120615230509306/15/12 23:05:31  5-MIN KMSN 160505Z 17006KT 10SM CLR 25/12 A3002 770 44 2100 170/06 RMK AO2
14837KMSN MSN20120615231009306/15/12 23:10:31  5-MIN KMSN 160510Z 18007KT 10SM CLR 25/12 A3002 770 44 2100 180/07 RMK AO2
14837KMSN MSN20120615231509306/15/12 23:15:31  5-MIN KMSN 160515Z 17007KT 10SM CLR 25/12 A3002 770 43 2100 180/07 RMK AO2
14837KMSN MSN20120615232009306/15/12 23:20:31  5-MIN KMSN 160520Z 18008KT 10SM CLR 25/12 A3002 780 43 2100 180/08 RMK AO2
14837KMSN MSN20120615232509306/15/12 23:25:31  5-MIN KMSN 160525Z 17009KT 10SM CLR 26/11 A3001 780 40 2200 180/09 RMK AO2
14837KMSN MSN20120615233009306/15/12 23:30:31  5-MIN KMSN 160530Z 17010KT 10SM CLR 26/11 A3001 780 38 2300 170/10 RMK AO2
14837KMSN MSN20120615233509306/15/12 23:35:31  5-MIN KMSN 160535Z 17011KT 10SM CLR 26/11 A3001 780 37 2300 170/11 RMK AO2
14837KMSN MSN20120615234009306/15/12 23:40:31  5-MIN KMSN 160540Z 17010KT 10SM CLR 26/11 A3001 780 37 2300 170/10 RMK AO2
14837KMSN MSN20120615234509306/15/12 23:45:31  5-MIN KMSN 160545Z 18008KT 10SM CLR 26/11 A3001 780 37 2300 180/08 RMK AO2
14837KMSN MSN20120615235013806/15/12 23:50:31  5-MIN KMSN 160550Z 18008KT 10SM CLR 26/11 A3001 780 37 2300 180/08 RMK AO2 SLP155 T02610106 10311 20244 403280144 53012
14837KMSN MSN20120615235509306/15/12 23:55:31  5-MIN KMSN 160555Z 18008KT 10SM CLR 26/11 A3001 780 40 2200 180/08 RMK AO2
14837KMSN MSN20120616000009306/16/12 00:00:32  5-MIN KMSN 160600Z 18007KT 10SM CLR 26/11 A3001 780 40 2200 180/07 RMK AO2
14837KMSN MSN20120616000509306/16/12 00:05:31  5-MIN KMSN 160605Z 18008KT 10SM CLR 26/11 A3001 780 40 2200 180/08 RMK AO2
14837KMSN MSN20120616001009306/16/12 00:10:31  5-MIN KMSN 160610Z 17007KT 10SM CLR 26/11 A3001 780 40 2200 180/07 RMK AO2
14837KMSN MSN20120616001509306/16/12 00:15:31  5-MIN KMSN 160615Z 17008KT 10SM CLR 26/11 A3001 790 40 2200 180/08 RMK AO2
14837KMSN MSN20120616002009306/16/12 00:20:31  5-MIN KMSN 160620Z 17007KT 10SM CLR 26/11 A3001 790 40 2200 180/07 RMK AO2
14837KMSN MSN20120616002509306/16/12 00:25:31  5-MIN KMSN 160625Z 18006KT 10SM CLR 26/11 A3000 790 40 2200 180/06 RMK AO2
14837KMSN MSN20120616003009306/16/12 00:30:31  5-MIN KMSN 160630Z 17006KT 10SM CLR 26/11 A3000 790 40 2200 180/06 RMK AO2
14837KMSN MSN20120616003509306/16/12 00:35:31  5-MIN KMSN 160635Z 18007KT 10SM CLR 26/11 A3000 790 38 2200 180/07 RMK AO2
14837KMSN MSN20120616004009306/16/12 00:40:31  5-MIN KMSN 160640Z 18006KT 10SM CLR 26/11 A3000 790 38 2200 180/06 RMK AO2
14837KMSN MSN20120616004509306/16/12 00:45:31  5-MIN KMSN 160645Z 18007KT 10SM CLR 26/11 A3000 790 38 2200 180/07 RMK AO2
14837KMSN MSN20120616005011006/16/12 00:50:31  5-MIN KMSN 160650Z 17007KT 10SM CLR 25/11 A3000 790 39 2200 180/07 RMK AO2 SLP153 T02500106
14837KMSN MSN20120616005509306/16/12 00:55:31  5-MIN KMSN 160655Z 18006KT 10SM CLR 26/11 A3000 790 38 2200 180/06 RMK AO2
14837KMSN MSN20120616010009306/16/12 01:00:31  5-MIN KMSN 160700Z 18006KT 10SM CLR 25/11 A3000 790 39 2200 180/06 RMK AO2
14837KMSN MSN20120616010509306/16/12 01:05:31  5-MIN KMSN 160705Z 18006KT 10SM CLR 25/11 A3000 790 39 2200 180/06 RMK AO2
14837KMSN MSN20120616011009306/16/12 01:10:31  5-MIN KMSN 160710Z 17007KT 10SM CLR 25/11 A3000 790 39 2200 170/07 RMK AO2
14837KMSN MSN20120616011509306/16/12 01:15:31  5-MIN KMSN 160715Z 17005KT 10SM CLR 25/10 A3000 790 38 2200 180/05 RMK AO2
14837KMSN MSN20120616012009306/16/12 01:20:31  5-MIN KMSN 160720Z 17006KT 10SM CLR 25/10 A3000 790 38 2200 170/06 RMK AO2
14837KMSN MSN20120616012509306/16/12 01:25:31  5-MIN KMSN 160725Z 16006KT 10SM CLR 25/11 A3000 790 39 2200 160/06 RMK AO2
14837KMSN MSN20120616013009306/16/12 01:30:31  5-MIN KMSN 160730Z 16007KT 10SM CLR 24/11 A3000 790 41 2100 160/07 RMK AO2
14837KMSN MSN20120616013509306/16/12 01:35:31  5-MIN KMSN 160735Z 16005KT 10SM CLR 25/11 A3000 800 39 2200 170/05 RMK AO2
14837KMSN MSN20120616014009306/16/12 01:40:31  5-MIN KMSN 160740Z 17005KT 10SM CLR 24/11 A2999 800 41 2100 170/05 RMK AO2
14837KMSN MSN20120616014509306/16/12 01:45:31  5-MIN KMSN 160745Z 17006KT 10SM CLR 24/11 A2999 800 41 2100 170/06 RMK AO2
14837KMSN MSN20120616015011006/16/12 01:50:31  5-MIN KMSN 160750Z 17005KT 10SM CLR 25/11 A2999 800 39 2200 170/05 RMK AO2 SLP149 T02500106
14837KMSN MSN20120616015509306/16/12 01:55:31  5-MIN KMSN 160755Z 17004KT 10SM CLR 25/11 A2999 800 39 2200 170/04 RMK AO2
14837KMSN MSN20120616020009306/16/12 02:00:31  5-MIN KMSN 160800Z 17005KT 10SM CLR 24/11 A2999 800 41 2100 170/05 RMK AO2
14837KMSN MSN20120616020509306/16/12 02:05:31  5-MIN KMSN 160805Z 17005KT 10SM CLR 24/11 A2999 800 42 2100 170/05 RMK AO2
14837KMSN MSN20120616021009306/16/12 02:10:31  5-MIN KMSN 160810Z 18005KT 10SM CLR 24/11 A3000 800 41 2100 180/05 RMK AO2
14837KMSN MSN20120616021509306/16/12 02:15:31  5-MIN KMSN 160815Z 17006KT 10SM CLR 24/11 A3000 800 41 2100 170/06 RMK AO2
14837KMSN MSN20120616022009306/16/12 02:20:31  5-MIN KMSN 160820Z 17005KT 10SM CLR 24/11 A2999 800 41 2100 170/05 RMK AO2
14837KMSN MSN20120616022509306/16/12 02:25:31  5-MIN KMSN 160825Z 17006KT 10SM CLR 24/11 A2999 800 41 2100 170/06 RMK AO2
14837KMSN MSN20120616023009306/16/12 02:30:31  5-MIN KMSN 160830Z 17005KT 10SM CLR 24/11 A2999 800 41 2100 170/05 RMK AO2
14837KMSN MSN20120616023509306/16/12 02:35:31  5-MIN KMSN 160835Z 17005KT 10SM CLR 24/11 A2999 800 41 2100 170/05 RMK AO2
14837KMSN MSN20120616024009306/16/12 02:40:31  5-MIN KMSN 160840Z 17005KT 10SM CLR 24/11 A2999 800 42 2100 170/05 RMK AO2
14837KMSN MSN20120616024509306/16/12 02:45:31  5-MIN KMSN 160845Z 17005KT 10SM CLR 24/11 A2999 800 42 2100 170/05 RMK AO2
14837KMSN MSN20120616025011606/16/12 02:50:31  5-MIN KMSN 160850Z 17005KT 10SM CLR 24/11 A2999 800 44 2100 170/05 RMK AO2 SLP149 T02390111 58005
14837KMSN MSN20120616025509306/16/12 02:55:31  5-MIN KMSN 160855Z 17004KT 10SM CLR 24/11 A2999 800 42 2100 170/04 RMK AO2
14837KMSN MSN20120616030009306/16/12 03:00:31  5-MIN KMSN 160900Z 16004KT 10SM CLR 24/11 A2999 800 42 2100 170/04 RMK AO2
14837KMSN MSN20120616030509306/16/12 03:05:31  5-MIN KMSN 160905Z 16005KT 10SM CLR 23/11 A2999 800 44 2000 160/05 RMK AO2
14837KMSN MSN20120616031009306/16/12 03:10:31  5-MIN KMSN 160910Z 15004KT 10SM CLR 23/11 A2999 800 44 2000 150/04 RMK AO2
14837KMSN MSN20120616031509306/16/12 03:15:31  5-MIN KMSN 160915Z 15005KT 10SM CLR 23/11 A2999 800 44 2000 150/05 RMK AO2
14837KMSN MSN20120616032009306/16/12 03:20:31  5-MIN KMSN 160920Z 16004KT 10SM CLR 23/11 A2999 800 44 2000 160/04 RMK AO2
14837KMSN MSN20120616032509306/16/12 03:25:31  5-MIN KMSN 160925Z 16004KT 10SM CLR 23/11 A2998 810 44 2000 160/04 RMK AO2
14837KMSN MSN20120616033009306/16/12 03:30:31  5-MIN KMSN 160930Z 15005KT 10SM CLR 23/11 A2998 810 45 2000 150/05 RMK AO2
14837KMSN MSN20120616033509306/16/12 03:35:31  5-MIN KMSN 160935Z 15005KT 10SM CLR 23/11 A2998 810 45 2000 160/05 RMK AO2
14837KMSN MSN20120616034009306/16/12 03:40:31  5-MIN KMSN 160940Z 18003KT 10SM CLR 23/11 A2999 800 45 2000 180/03 RMK AO2
14837KMSN MSN20120616034509306/16/12 03:45:31  5-MIN KMSN 160945Z 17004KT 10SM CLR 23/11 A2999 800 45 2000 180/04 RMK AO2
14837KMSN MSN20120616035011006/16/12 03:50:31  5-MIN KMSN 160950Z 17005KT 10SM CLR 23/11 A2999 800 45 2000 170/05 RMK AO2 SLP147 T02330111
14837KMSN MSN20120616035509306/16/12 03:55:31  5-MIN KMSN 160955Z 16004KT 10SM CLR 23/11 A2999 800 45 2000 160/04 RMK AO2
14837KMSN MSN20120616040009306/16/12 04:00:31  5-MIN KMSN 161000Z 17004KT 10SM CLR 23/11 A2999 800 47 1900 170/04 RMK AO2
14837KMSN MSN20120616040509306/16/12 04:05:31  5-MIN KMSN 161005Z 17004KT 10SM CLR 23/11 A2999 800 45 2000 170/04 RMK AO2
14837KMSN MSN20120616041009306/16/12 04:10:31  5-MIN KMSN 161010Z 16005KT 10SM CLR 24/11 A2998 810 44 2100 170/05 RMK AO2
14837KMSN MSN20120616041509306/16/12 04:15:31  5-MIN KMSN 161015Z 17005KT 10SM CLR 23/11 A2999 800 45 2000 170/05 RMK AO2
14837KMSN MSN20120616042009306/16/12 04:20:31  5-MIN KMSN 161020Z 16006KT 10SM CLR 23/11 A2998 810 45 2000 170/06 RMK AO2
14837KMSN MSN20120616042509306/16/12 04:25:31  5-MIN KMSN 161025Z 16006KT 10SM CLR 23/11 A2998 810 45 2000 170/06 RMK AO2
14837KMSN MSN20120616043009306/16/12 04:30:31  5-MIN KMSN 161030Z 16006KT 10SM CLR 23/11 A2998 810 45 2000 160/06 RMK AO2
14837KMSN MSN20120616043509306/16/12 04:35:31  5-MIN KMSN 161035Z 16006KT 10SM CLR 23/11 A2998 810 45 2000 160/06 RMK AO2
14837KMSN MSN20120616044009306/16/12 04:40:31  5-MIN KMSN 161040Z 16005KT 10SM CLR 23/11 A2998 810 45 2000 160/05 RMK AO2
14837KMSN MSN20120616044509306/16/12 04:45:31  5-MIN KMSN 161045Z 15006KT 10SM CLR 23/11 A2998 810 45 2000 150/06 RMK AO2
14837KMSN MSN20120616045011006/16/12 04:50:31  5-MIN KMSN 161050Z 16005KT 10SM CLR 23/11 A2998 810 45 2000 160/05 RMK AO2 SLP145 T02330111
14837KMSN MSN20120616045509306/16/12 04:55:31  5-MIN KMSN 161055Z 17006KT 10SM CLR 23/11 A2998 810 45 2000 170/06 RMK AO2
14837KMSN MSN20120616050009306/16/12 05:00:31  5-MIN KMSN 161100Z 17005KT 10SM CLR 24/11 A2998 810 44 2100 170/05 RMK AO2
14837KMSN MSN20120616050509306/16/12 05:05:31  5-MIN KMSN 161105Z 16006KT 10SM CLR 23/11 A2998 810 45 2000 160/06 RMK AO2
14837KMSN MSN20120616051009306/16/12 05:10:31  5-MIN KMSN 161110Z 15006KT 10SM CLR 23/12 A2998 810 47 2000 150/06 RMK AO2
14837KMSN MSN20120616051509306/16/12 05:15:31  5-MIN KMSN 161115Z 15005KT 10SM CLR 23/12 A2998 810 47 2000 150/05 RMK AO2
14837KMSN MSN20120616052009306/16/12 05:20:31  5-MIN KMSN 161120Z 16007KT 10SM CLR 23/12 A2998 810 47 2000 170/07 RMK AO2
14837KMSN MSN20120616052509306/16/12 05:25:31  5-MIN KMSN 161125Z 17006KT 10SM CLR 24/11 A2998 800 44 2100 170/06 RMK AO2
14837KMSN MSN20120616053009306/16/12 05:30:31  5-MIN KMSN 161130Z 16006KT 10SM CLR 23/12 A2998 810 47 2000 160/06 RMK AO2
14837KMSN MSN20120616053509306/16/12 05:35:31  5-MIN KMSN 161135Z 17004KT 10SM CLR 23/12 A2999 800 47 2000 180/04 RMK AO2
14837KMSN MSN20120616054009306/16/12 05:40:31  5-MIN KMSN 161140Z 17005KT 10SM CLR 23/12 A2999 800 47 2000 170/05 RMK AO2
14837KMSN MSN20120616054509306/16/12 05:45:31  5-MIN KMSN 161145Z 15004KT 10SM CLR 23/12 A2999 800 47 2000 160/04 RMK AO2
14837KMSN MSN20120616055012806/16/12 05:50:31  5-MIN KMSN 161150Z 15005KT 10SM CLR 23/12 A2998 810 47 2000 150/05 RMK AO2 SLP146 T02330117 10256 20228 56006
14837KMSN MSN20120616055509306/16/12 05:55:31  5-MIN KMSN 161155Z 14004KT 10SM CLR 23/12 A2998 810 47 2000 140/04 RMK AO2
14837KMSN MSN20120616060009306/16/12 06:00:31  5-MIN KMSN 161200Z 15006KT 10SM CLR 23/12 A2998 810 49 2000 150/06 RMK AO2
14837KMSN MSN20120616060509306/16/12 06:05:31  5-MIN KMSN 161205Z 15006KT 10SM CLR 23/12 A2998 810 49 2000 160/06 RMK AO2
14837KMSN MSN20120616061009306/16/12 06:10:31  5-MIN KMSN 161210Z 15007KT 10SM CLR 23/12 A2998 810 47 2000 160/07 RMK AO2
14837KMSN MSN20120616061509306/16/12 06:15:31  5-MIN KMSN 161215Z 16006KT 10SM CLR 23/12 A2999 800 49 2000 160/06 RMK AO2
14837KMSN MSN20120616062009306/16/12 06:20:31  5-MIN KMSN 161220Z 17006KT 10SM CLR 23/12 A2999 800 49 2000 170/06 RMK AO2
14837KMSN MSN20120616062509306/16/12 06:25:31  5-MIN KMSN 161225Z 17007KT 10SM CLR 24/12 A2999 800 47 2100 170/07 RMK AO2
14837KMSN MSN20120616063009306/16/12 06:30:31  5-MIN KMSN 161230Z 17007KT 10SM CLR 23/12 A2999 800 49 2000 170/07 RMK AO2
14837KMSN MSN20120616063509306/16/12 06:35:31  5-MIN KMSN 161235Z 17007KT 10SM CLR 23/12 A2999 800 49 2000 170/07 RMK AO2
14837KMSN MSN20120616064009306/16/12 06:40:31  5-MIN KMSN 161240Z 16008KT 10SM CLR 23/12 A2999 800 49 2000 160/08 RMK AO2
14837KMSN MSN20120616064509306/16/12 06:45:31  5-MIN KMSN 161245Z 17008KT 10SM CLR 23/12 A2999 800 49 2000 170/08 RMK AO2
14837KMSN MSN20120616065011006/16/12 06:50:31  5-MIN KMSN 161250Z 16007KT 10SM CLR 23/12 A2998 810 49 2000 160/07 RMK AO2 SLP146 T02330122
14837KMSN MSN20120616065509306/16/12 06:55:31  5-MIN KMSN 161255Z 16008KT 10SM CLR 23/12 A2998 810 49 2000 170/08 RMK AO2
14837KMSN MSN20120616070009306/16/12 07:00:31  5-MIN KMSN 161300Z 16008KT 10SM CLR 23/13 A2998 810 51 2000 160/08 RMK AO2
14837KMSN MSN20120616070509306/16/12 07:05:31  5-MIN KMSN 161305Z 16008KT 10SM CLR 24/13 A2998 810 49 2100 160/08 RMK AO2
14837KMSN MSN20120616071009306/16/12 07:10:31  5-MIN KMSN 161310Z 17009KT 10SM CLR 24/13 A2998 810 49 2100 170/09 RMK AO2
14837KMSN MSN20120616071509306/16/12 07:15:31  5-MIN KMSN 161315Z 17010KT 10SM CLR 24/13 A2998 810 49 2100 170/10 RMK AO2
14837KMSN MSN20120616072009306/16/12 07:20:31  5-MIN KMSN 161320Z 17011KT 10SM CLR 24/13 A2998 810 49 2100 170/11 RMK AO2
14837KMSN MSN20120616072509306/16/12 07:25:31  5-MIN KMSN 161325Z 17010KT 10SM CLR 24/13 A2998 810 49 2100 170/10 RMK AO2
14837KMSN MSN20120616073009306/16/12 07:30:31  5-MIN KMSN 161330Z 17010KT 10SM CLR 24/13 A2998 810 51 2100 170/10 RMK AO2
14837KMSN MSN20120616073509306/16/12 07:35:31  5-MIN KMSN 161335Z 16008KT 10SM CLR 24/13 A2997 810 51 2100 170/08 RMK AO2
14837KMSN MSN20120616074009306/16/12 07:40:31  5-MIN KMSN 161340Z 17011KT 10SM CLR 24/13 A2997 820 49 2100 170/11 RMK AO2
14837KMSN MSN20120616074509306/16/12 07:45:31  5-MIN KMSN 161345Z 17011KT 10SM CLR 24/13 A2997 820 49 2100 170/11 RMK AO2
14837KMSN MSN20120616075011006/16/12 07:50:31  5-MIN KMSN 161350Z 17012KT 10SM CLR 24/14 A2997 820 51 2100 170/12 RMK AO2 SLP141 T02440139
14837KMSN MSN20120616075509306/16/12 07:55:31  5-MIN KMSN 161355Z 17010KT 10SM CLR 24/14 A2997 820 51 2100 180/10 RMK AO2
14837KMSN MSN20120616080009306/16/12 08:00:31  5-MIN KMSN 161400Z 17010KT 10SM CLR 24/14 A2997 820 51 2100 180/10 RMK AO2
14837KMSN MSN20120616080509306/16/12 08:05:31  5-MIN KMSN 161405Z 18010KT 10SM CLR 24/14 A2997 820 51 2100 180/10 RMK AO2
14837KMSN MSN20120616081009306/16/12 08:10:31  5-MIN KMSN 161410Z 18009KT 10SM CLR 24/14 A2997 820 53 2100 180/09 RMK AO2
14837KMSN MSN20120616081509306/16/12 08:15:31  5-MIN KMSN 161415Z 18010KT 10SM CLR 24/14 A2997 820 53 2100 180/10 RMK AO2
14837KMSN MSN20120616082009306/16/12 08:20:31  5-MIN KMSN 161420Z 19010KT 10SM CLR 24/14 A2997 820 53 2100 190/10 RMK AO2
14837KMSN MSN20120616082509306/16/12 08:25:31  5-MIN KMSN 161425Z 18009KT 10SM CLR 24/15 A2997 820 55 2100 190/09 RMK AO2
14837KMSN MSN20120616083009306/16/12 08:30:31  5-MIN KMSN 161430Z 18010KT 10SM CLR 24/15 A2997 820 55 2100 180/10 RMK AO2
14837KMSN MSN20120616083509606/16/12 08:35:31  5-MIN KMSN 161435Z 19009KT 10SM FEW038 24/16 A2997 820 57 2100 190/09 RMK AO2
14837KMSN MSN20120616084010306/16/12 08:40:31  5-MIN KMSN 161440Z 21008KT 10SM SCT041 SCT055 24/16 A2997 820 59 2100 210/08 RMK AO2
14837KMSN MSN20120616084511006/16/12 08:45:31  5-MIN KMSN 161445Z 20009KT 10SM FEW037 SCT055 SCT120 24/16 A2997 820 59 2100 200/09 RMK AO2
14837KMSN MSN20120616085014806/16/12 08:50:31  5-MIN KMSN 161450Z 19013G19KT 10SM FEW040 SCT055 SCT120 24/16 A2997 820 59 2100 200/13G19 RMK AO2 SLP143 VIRGA SE T02440161 55002
14837KMSN MSN20120616085512506/16/12 08:55:31  5-MIN KMSN 161455Z 19015G19KT 10SM -RA FEW040 BKN110 24/17 A2997 810 61 2100 200/15G19 RMK AO2 RAB54 P0000
14837KMSN MSN20120616090013406/16/12 09:00:31  5-MIN KMSN 161500Z 20014G20KT 10SM -RA SCT047 BKN100 BKN120 24/17 A2998 810 66 2100 200/14G20 RMK AO2 RAB1454 P0000
14837KMSN MSN20120616090513406/16/12 09:05:31  5-MIN KMSN 161505Z 19010G20KT 10SM -RA FEW055 SCT095 BKN110 23/18 A2998 810 70 2000 190/10G20 RMK AO2 RAB1454 P0000
14837KMSN MSN20120616091012806/16/12 09:10:31  5-MIN KMSN 161510Z 19011KT 10SM -RA FEW055 BKN100 BKN120 23/18 A2998 810 70 2000 190/11 RMK AO2 RAB1454 P0000
14837KMSN MSN20120616091513406/16/12 09:15:31  5-MIN KMSN 161515Z 19014G20KT 10SM -RA FEW055 BKN100 OVC120 23/18 A2998 810 73 1900 190/14G20 RMK AO2 RAB1454 P0000
14837KMSN MSN20120616092013306/16/12 09:20:31  5-MIN KMSN 161520Z 19010G20KT 10SM FEW025 SCT055 OVC100 23/18 A2998 810 73 1900 190/10G20 RMK AO2 RAB1454E19 P0000
14837KMSN MSN20120616092512706/16/12 09:25:31  5-MIN KMSN 161525Z 19010KT 6SM -RA SCT028 BKN055 OVC100 22/18 A2998 810 78 1900 190/10 RMK AO2 RAB1454 P0000
14837KMSN MSN20120616093013306/16/12 09:30:31  5-MIN KMSN 161530Z 18009G16KT 4SM -RA SCT024 BKN034 OVC100 22/18 A2998 810 81 1800 180/09G16 RMK AO2 RAB1454 P0001
14837KMSN MSN20120616093512606/16/12 09:35:31  5-MIN KMSN 161535Z 18009KT 7SM BKN022 BKN034 OVC100 22/19 A2998 810 84 1800 180/09 RMK AO2 RAB1454E34 P0001
14837KMSN MSN20120616094012706/16/12 09:40:31  5-MIN KMSN 161540Z 18010KT 10SM BKN021 BKN033 OVC095 22/19 A2998 810 84 1800 180/10 RMK AO2 RAB1454E34 P0001
14837KMSN MSN20120616094512706/16/12 09:45:31  5-MIN KMSN 161545Z 17010KT 10SM BKN019 BKN024 OVC034 22/19 A2997 810 81 1900 180/10 RMK AO2 RAB1454E34 P0001
14837KMSN MSN20120616095014406/16/12 09:50:31  5-MIN KMSN 161550Z 18009KT 10SM BKN019 BKN024 OVC034 22/19 A2997 820 81 1900 180/09 RMK AO2 RAB1454E34 SLP143 P0001 T02220189
14837KMSN MSN20120616095509606/16/12 09:55:31  5-MIN KMSN 161555Z 17012KT 10SM BKN019 23/19 A2996 820 81 2000 170/12 RMK AO2
14837KMSN MSN20120616100009606/16/12 10:00:31  5-MIN KMSN 161600Z 17011KT 10SM BKN019 23/20 A2996 830 81 2000 170/11 RMK AO2
14837KMSN MSN20120616100510306/16/12 10:05:31  5-MIN KMSN 161605Z 18013KT 10SM SCT017 SCT120 23/19 A2996 830 81 2000 180/13 RMK AO2
14837KMSN MSN20120616101010306/16/12 10:10:31  5-MIN KMSN 161610Z 18011KT 10SM FEW017 SCT120 23/19 A2996 830 78 2000 180/11 RMK AO2
14837KMSN MSN20120616101510906/16/12 10:15:31  5-MIN KMSN 161615Z 18012G19KT 10SM FEW017 SCT120 23/19 A2996 820 78 2000 180/12G19 RMK AO2
14837KMSN MSN20120616102009606/16/12 10:20:31  5-MIN KMSN 161620Z 17013KT 10SM SCT120 23/19 A2996 830 78 2000 180/13 RMK AO2
14837KMSN MSN20120616102509606/16/12 10:25:31  5-MIN KMSN 161625Z 18013KT 10SM SCT120 23/19 A2996 830 76 2000 180/13 RMK AO2
14837KMSN MSN20120616103010306/16/12 10:30:31  5-MIN KMSN 161630Z 16013KT 10SM FEW020 SCT120 24/19 A2996 830 73 2100 170/13 RMK AO2
14837KMSN MSN20120616103510306/16/12 10:35:31  5-MIN KMSN 161635Z 17011KT 10SM FEW020 SCT120 24/19 A2996 830 73 2100 170/11 RMK AO2
14837KMSN MSN20120616104010306/16/12 10:40:31  5-MIN KMSN 161640Z 18011KT 10SM FEW020 SCT120 24/19 A2996 830 73 2100 180/11 RMK AO2
14837KMSN MSN20120616104510306/16/12 10:45:31  5-MIN KMSN 161645Z 18011KT 10SM FEW020 SCT120 24/19 A2995 830 71 2200 180/11 RMK AO2
14837KMSN MSN20120616105012006/16/12 10:50:31  5-MIN KMSN 161650Z 18011KT 10SM FEW020 SCT120 24/19 A2995 840 71 2200 180/11 RMK AO2 SLP135 T02440189
14837KMSN MSN20120616105509606/16/12 10:55:31  5-MIN KMSN 161655Z 18013KT 10SM BKN022 25/19 A2995 840 68 2200 190/13 RMK AO2
14837KMSN MSN20120616110009606/16/12 11:00:31  5-MIN KMSN 161700Z 19011KT 10SM BKN022 26/19 A2994 840 66 2300 200/11 RMK AO2
14837KMSN MSN20120616110510906/16/12 11:05:31  5-MIN KMSN 161705Z 18011G18KT 10SM BKN022 BKN028 26/19 A2994 840 66 2300 180/11G18 RMK AO2
14837KMSN MSN20120616111010206/16/12 11:10:31  5-MIN KMSN 161710Z 19010G18KT 10SM BKN024 26/19 A2994 840 64 2400 190/10G18 RMK AO2
14837KMSN MSN20120616111510206/16/12 11:15:31  5-MIN KMSN 161715Z 19014G20KT 10SM BKN024 26/19 A2994 850 64 2400 190/14G20 RMK AO2
14837KMSN MSN20120616112011806/16/12 11:20:31  5-MIN KMSN 161720Z 20010G20KT 170V230 10SM BKN026 27/19 A2994 850 62 2400 200/10G20 170V230 RMK AO2
14837KMSN MSN20120616112510906/16/12 11:25:31  5-MIN KMSN 161725Z 20010G18KT 10SM BKN026 BKN035 26/19 A2993 850 64 2400 200/10G18 RMK AO2
14837KMSN MSN20120616113010906/16/12 11:30:31  5-MIN KMSN 161730Z 19011G18KT 10SM BKN026 BKN035 26/19 A2993 850 64 2400 190/11G18 RMK AO2
14837KMSN MSN20120616113510906/16/12 11:35:31  5-MIN KMSN 161735Z 22008G18KT 10SM BKN026 BKN035 26/19 A2993 850 64 2400 220/08G18 RMK AO2
14837KMSN MSN20120616114010906/16/12 11:40:31  5-MIN KMSN 161740Z 19007G15KT 10SM BKN028 OVC035 26/19 A2993 860 64 2400 200/07G15 RMK AO2
14837KMSN MSN20120616114510906/16/12 11:45:31  5-MIN KMSN 161745Z 18013G16KT 10SM BKN028 OVC039 27/19 A2992 860 62 2400 180/13G16 RMK AO2
14837KMSN MSN20120616115011606/16/12 11:50:31  5-MIN KMSN 161750Z 18014G18KT 10SM BKN030 BKN039 OVC046 27/19 A2992 860 62 2400 190/14G18 RMK AO2
14837KMSN MSN20120616115511006/16/12 11:55:31  5-MIN KMSN 161755Z 19013KT 10SM SCT028 BKN035 OVC045 27/18 A2992 860 60 2400 200/13 RMK AO2
14837KMSN MSN20120616120011606/16/12 12:00:31  5-MIN KMSN 161800Z 18013G18KT 10SM BKN030 BKN040 OVC050 26/19 A2992 870 64 2400 190/13G18 RMK AO2
14837KMSN MSN20120616120511506/16/12 12:05:31  5-MIN KMSN 161805Z 20012G18KT 9SM SCT030 BKN042 OVC060 26/20 A2992 860 71 2300 200/12G18 RMK AO2
14837KMSN MSN20120616121010906/16/12 12:10:31  5-MIN KMSN 161810Z 19008KT 9SM SCT030 BKN038 OVC060 26/20 A2992 870 71 2300 190/08 RMK AO2
14837KMSN MSN20120616121511006/16/12 12:15:31  5-MIN KMSN 161815Z 19010KT 10SM FEW028 BKN036 OVC045 26/20 A2992 870 71 2300 190/10 RMK AO2
14837KMSN MSN20120616122011606/16/12 12:20:31  5-MIN KMSN 161820Z 19011G16KT 10SM BKN031 BKN040 OVC047 26/19 A2992 870 66 2400 190/11G16 RMK AO2
14837KMSN MSN20120616122511006/16/12 12:25:31  5-MIN KMSN 161825Z 19010KT 10SM SCT029 BKN034 OVC050 26/19 A2992 870 68 2300 190/10 RMK AO2
14837KMSN MSN20120616123010906/16/12 12:30:31  5-MIN KMSN 161830Z 20008KT 8SM BKN031 BKN042 OVC050 26/19 A2991 870 68 2300 200/08 RMK AO2
14837KMSN MSN20120616123510906/16/12 12:35:31  5-MIN KMSN 161835Z 18006KT 8SM SCT029 BKN034 OVC055 26/20 A2991 880 71 2300 180/06 RMK AO2
14837KMSN MSN20120616124011606/16/12 12:40:31  5-MIN KMSN 161840Z 19012G16KT 10SM BKN031 BKN042 OVC055 26/20 A2990 880 71 2300 190/12G16 RMK AO2
14837KMSN MSN20120616124513206/16/12 12:45:31  5-MIN KMSN 161845Z 19012G18KT 10SM -RA BKN031 BKN042 OVC055 26/20 A2990 880 68 2400 190/12G18 RMK AO2 RAB44 P0001
14837KMSN MSN20120616125014906/16/12 12:50:31  5-MIN KMSN 161850Z 21009G18KT 10SM -RA SCT031 BKN042 BKN055 27/21 A2990 880 66 2500 210/09G18 RMK AO2 RAB44 SLP118 P0001 T02720206
14837KMSN MSN20120616125511606/16/12 12:55:31  5-MIN KMSN 161855Z 20010G16KT 10SM FEW029 SCT034 BKN055 27/20 A2990 890 64 2500 200/10G16 RMK AO2
14837KMSN MSN20120616130011606/16/12 13:00:31  5-MIN KMSN 161900Z 22007G16KT 10SM FEW029 SCT034 BKN042 27/20 A2990 890 64 2500 220/07G16 RMK AO2
14837KMSN MSN20120616130511606/16/12 13:05:31  5-MIN KMSN 161905Z 20011G16KT 10SM FEW029 SCT034 BKN041 27/19 A2989 890 62 2500 200/11G16 RMK AO2
14837KMSN MSN20120616131011606/16/12 13:10:31  5-MIN KMSN 161910Z 21008G16KT 10SM FEW032 SCT040 BKN065 28/19 A2989 890 58 2600 210/08G16 RMK AO2
14837KMSN MSN20120616131511606/16/12 13:15:31  5-MIN KMSN 161915Z 19011G16KT 10SM SCT040 BKN065 BKN095 28/19 A2989 890 58 2700 200/11G16 RMK AO2
14837KMSN MSN20120616132012606/16/12 13:20:31  5-MIN KMSN 161920Z 21010KT 180V250 10SM SCT038 SCT046 BKN060 28/19 A2989 900 56 2700 210/10 180V250 RMK AO2
14837KMSN MSN20120616132511606/16/12 13:25:31  5-MIN KMSN 161925Z 20009G16KT 10SM SCT041 BKN060 OVC095 28/18 A2988 900 56 2600 200/09G16 RMK AO2
14837KMSN MSN20120616133011606/16/12 13:30:31  5-MIN KMSN 161930Z 23006G14KT 10SM SCT041 BKN060 OVC095 28/18 A2988 900 56 2600 230/06G14 RMK AO2
14837KMSN MSN20120616133511606/16/12 13:35:31  5-MIN KMSN 161935Z 22010G17KT 10SM SCT041 BKN060 OVC070 27/18 A2988 900 58 2500 230/10G17 RMK AO2
14837KMSN MSN20120616134013206/16/12 13:40:31  5-MIN KMSN 161940Z 23009G17KT 190V260 10SM SCT041 BKN060 OVC075 28/18 A2988 900 54 2600 230/09G17 190V260 RMK AO2
14837KMSN MSN20120616134513206/16/12 13:45:31  5-MIN KMSN 161945Z 23009G16KT 200V260 10SM SCT043 SCT060 BKN075 29/18 A2988 910 52 2700 230/09G16 200V260 RMK AO2
14837KMSN MSN20120616135013306/16/12 13:50:31  5-MIN KMSN 161950Z 22006G16KT 10SM FEW043 SCT065 BKN075 29/18 A2988 910 52 2700 220/06G16 RMK AO2 SLP109 T02890183
14837KMSN MSN20120616135511006/16/12 13:55:31  5-MIN KMSN 161955Z 23006KT 10SM FEW043 SCT065 BKN075 29/18 A2987 910 52 2700 230/06 RMK AO2
14837KMSN MSN20120616140011906/16/12 14:00:31  5-MIN KMSN 162000Z 23008KT 190V250 10SM FEW043 BKN080 28/18 A2987 910 54 2700 230/08 190V250 RMK AO2
14837KMSN MSN20120616140510306/16/12 14:05:31  5-MIN KMSN 162005Z 24006KT 10SM FEW045 SCT080 29/18 A2987 910 52 2700 250/06 RMK AO2
14837KMSN MSN20120616141013206/16/12 14:10:31  5-MIN KMSN 162010Z 23010G16KT 200V280 10SM FEW047 SCT060 BKN085 28/18 A2987 910 54 2600 240/10G16 200V280 RMK AO2
14837KMSN MSN20120616141511606/16/12 14:15:31  5-MIN KMSN 162015Z 23007G16KT 10SM FEW047 SCT055 BKN070 28/18 A2987 910 54 2600 230/07G16 RMK AO2
14837KMSN MSN20120616142011006/16/12 14:20:31  5-MIN KMSN 162020Z VRB05KT 10SM SCT048 BKN070 BKN085 27/18 A2987 910 58 2600 VRB/05 RMK AO2
14837KMSN MSN20120616142511906/16/12 14:25:31  5-MIN KMSN 162025Z 25008KT 220V300 10SM SCT048 OVC075 28/18 A2987 910 54 2700 250/08 220V300 RMK AO2
14837KMSN MSN20120616143010306/16/12 14:30:31  5-MIN KMSN 162030Z VRB06KT 10SM FEW045 OVC070 28/19 A2987 910 56 2700 VRB/06 RMK AO2
14837KMSN MSN20120616143511006/16/12 14:35:31  5-MIN KMSN 162035Z 25006KT 10SM FEW048 BKN070 BKN080 29/19 A2987 920 54 2800 250/06 RMK AO2
14837KMSN MSN20120616144010306/16/12 14:40:31  5-MIN KMSN 162040Z 23006KT 10SM FEW048 BKN070 29/19 A2987 910 54 2800 230/06 RMK AO2
14837KMSN MSN20120616144511906/16/12 14:45:31  5-MIN KMSN 162045Z 25007KT 210V300 10SM FEW048 BKN070 28/18 A2987 910 54 2700 250/07 210V300 RMK AO2
14837KMSN MSN20120616145013206/16/12 14:50:31  5-MIN KMSN 162050Z 23008KT 10SM FEW048 BKN070 29/18 A2986 920 52 2800 240/08 RMK AO2 SLP105 60001 T02890183 58017
14837KMSN MSN20120616145510306/16/12 14:55:31  5-MIN KMSN 162055Z 25006KT 10SM FEW048 BKN070 29/18 A2986 920 52 2800 250/06 RMK AO2
14837KMSN MSN20120616150010306/16/12 15:00:31  5-MIN KMSN 162100Z 22008KT 10SM FEW048 BKN070 28/18 A2986 920 52 2700 230/08 RMK AO2
14837KMSN MSN20120616150510306/16/12 15:05:31  5-MIN KMSN 162105Z 22006KT 10SM FEW048 BKN070 28/18 A2986 920 52 2700 220/06 RMK AO2
14837KMSN MSN20120616151010906/16/12 15:10:31  5-MIN KMSN 162110Z 23007G14KT 10SM FEW048 BKN070 28/18 A2986 920 52 2700 230/07G14 RMK AO2
14837KMSN MSN20120616151510206/16/12 15:15:31  5-MIN KMSN 162115Z 23008G14KT 10SM BKN070 29/18 A2986 920 50 2800 230/08G14 RMK AO2
14837KMSN MSN20120616152009606/16/12 15:20:31  5-MIN KMSN 162120Z 23006KT 10SM SCT070 29/18 A2986 920 50 2800 240/06 RMK AO2
14837KMSN MSN20120616152510306/16/12 15:25:31  5-MIN KMSN 162125Z 23006KT 10SM FEW049 BKN070 28/18 A2986 920 52 2700 230/06 RMK AO2
14837KMSN MSN20120616153012506/16/12 15:30:31  5-MIN KMSN 162130Z 23008G19KT 190V270 10SM FEW049 BKN070 29/18 A2986 920 50 2800 230/08G19 190V270 RMK AO2
14837KMSN MSN20120616153510906/16/12 15:35:31  5-MIN KMSN 162135Z 24009G19KT 10SM FEW047 BKN070 29/18 A2986 920 50 2800 240/09G19 RMK AO2
14837KMSN MSN20120616154012506/16/12 15:40:31  5-MIN KMSN 162140Z 22007G17KT 200V260 10SM FEW049 SCT070 28/18 A2986 920 52 2700 230/07G17 200V260 RMK AO2
14837KMSN MSN20120616154510906/16/12 15:45:31  5-MIN KMSN 162145Z 23010G14KT 10SM FEW049 BKN070 28/18 A2985 930 52 2700 230/10G14 RMK AO2
14837KMSN MSN20120616155012606/16/12 15:50:31  5-MIN KMSN 162150Z 23008G15KT 10SM FEW049 SCT070 29/17 A2985 930 48 2800 240/08G15 RMK AO2 SLP102 T02890172
14837KMSN MSN20120616155510906/16/12 15:55:31  5-MIN KMSN 162155Z 23008G16KT 10SM FEW049 SCT070 29/17 A2985 930 47 2800 240/08G16 RMK AO2
14837KMSN MSN20120616160010206/16/12 16:00:31  5-MIN KMSN 162200Z 24006G16KT 10SM FEW049 29/18 A2984 930 50 2800 240/06G16 RMK AO2
14837KMSN MSN20120616160511806/16/12 16:05:31  5-MIN KMSN 162205Z 23009G14KT 210V270 10SM FEW049 29/18 A2984 930 50 2800 230/09G14 210V270 RMK AO2
14837KMSN MSN20120616161010206/16/12 16:10:31  5-MIN KMSN 162210Z 23007G14KT 10SM FEW070 29/18 A2985 930 50 2800 240/07G14 RMK AO2
14837KMSN MSN20120616161510206/16/12 16:15:31  5-MIN KMSN 162215Z 24008G16KT 10SM FEW070 28/18 A2985 930 52 2700 240/08G16 RMK AO2
14837KMSN MSN20120616162011506/16/12 16:20:31  5-MIN KMSN 162220Z 24008G16KT 210V270 10SM CLR 28/18 A2985 930 52 2700 240/08G16 210V270 RMK AO2
14837KMSN MSN20120616162511506/16/12 16:25:31  5-MIN KMSN 162225Z 24008G17KT 200V280 10SM CLR 29/17 A2985 930 48 2800 240/08G17 200V280 RMK AO2
14837KMSN MSN20120616163011506/16/12 16:30:31  5-MIN KMSN 162230Z 24007G17KT 220V280 10SM CLR 29/18 A2985 930 50 2800 240/07G17 220V280 RMK AO2
14837KMSN MSN20120616163509906/16/12 16:35:31  5-MIN KMSN 162235Z VRB05G16KT 10SM CLR 29/18 A2984 940 50 2800 VRB/05G16 RMK AO2
14837KMSN MSN20120616164009906/16/12 16:40:31  5-MIN KMSN 162240Z 23007G16KT 10SM CLR 28/18 A2984 940 52 2700 230/07G16 RMK AO2
14837KMSN MSN20120616164509306/16/12 16:45:31  5-MIN KMSN 162245Z 24006KT 10SM CLR 28/17 A2984 940 50 2700 240/06 RMK AO2
14837KMSN MSN20120616165011306/16/12 16:50:31  5-MIN KMSN 162250Z 23008KT 10SM FEW050 28/18 A2984 940 52 2700 230/08 RMK AO2 SLP097 T02830178
14837KMSN MSN20120616165509906/16/12 16:55:31  5-MIN KMSN 162255Z 23008G16KT 10SM CLR 28/17 A2984 940 50 2700 230/08G16 RMK AO2
14837KMSN MSN20120616170009306/16/12 17:00:31  5-MIN KMSN 162300Z VRB06KT 10SM CLR 28/17 A2984 940 50 2700 VRB/06 RMK AO2
14837KMSN MSN20120616170509306/16/12 17:05:31  5-MIN KMSN 162305Z VRB05KT 10SM CLR 28/17 A2983 940 50 2700 VRB/05 RMK AO2
14837KMSN MSN20120616171009306/16/12 17:10:31  5-MIN KMSN 162310Z VRB05KT 10SM CLR 28/17 A2983 950 50 2700 VRB/05 RMK AO2
14837KMSN MSN20120616171510906/16/12 17:15:31  5-MIN KMSN 162315Z 23008KT 200V260 10SM CLR 28/17 A2983 950 50 2700 230/08 200V260 RMK AO2
14837KMSN MSN20120616172009306/16/12 17:20:31  5-MIN KMSN 162320Z 23006KT 10SM CLR 28/17 A2983 950 48 2700 240/06 RMK AO2
14837KMSN MSN20120616172509306/16/12 17:25:31  5-MIN KMSN 162325Z VRB05KT 10SM CLR 28/17 A2983 950 50 2700 VRB/05 RMK AO2
14837KMSN MSN20120616173009306/16/12 17:30:31  5-MIN KMSN 162330Z 24006KT 10SM CLR 28/17 A2983 950 48 2700 240/06 RMK AO2
14837KMSN MSN20120616173509306/16/12 17:35:31  5-MIN KMSN 162335Z 24004KT 10SM CLR 28/17 A2983 950 52 2700 240/04 RMK AO2
14837KMSN MSN20120616174009306/16/12 17:40:31  5-MIN KMSN 162340Z VRB04KT 10SM CLR 28/17 A2983 950 50 2700 VRB/04 RMK AO2
14837KMSN MSN20120616174509306/16/12 17:45:31  5-MIN KMSN 162345Z VRB04KT 10SM CLR 28/17 A2983 950 50 2700 VRB/04 RMK AO2
14837KMSN MSN20120616175013406/16/12 17:50:31  5-MIN KMSN 162350Z VRB06KT 10SM CLR 28/17 A2983 950 52 2700 VRB/06 RMK AO2 SLP096 60001 T02780172 10294 20256 56018
14837KMSN MSN20120616175509306/16/12 17:55:31  5-MIN KMSN 162355Z 23005KT 10SM CLR 28/17 A2983 950 52 2700 230/05 RMK AO2
14837KMSN MSN20120616180009306/16/12 18:00:31  5-MIN KMSN 170000Z VRB06KT 10SM CLR 28/17 A2983 950 52 2700 VRB/06 RMK AO2
14837KMSN MSN20120616180509306/16/12 18:05:31  5-MIN KMSN 170005Z VRB04KT 10SM CLR 27/17 A2983 950 54 2600 VRB/04 RMK AO2
14837KMSN MSN20120616181009306/16/12 18:10:31  5-MIN KMSN 170010Z VRB03KT 10SM CLR 27/17 A2983 950 54 2600 VRB/03 RMK AO2
14837KMSN MSN20120616181509306/16/12 18:15:31  5-MIN KMSN 170015Z 23005KT 10SM CLR 27/17 A2983 950 54 2600 230/05 RMK AO2
14837KMSN MSN20120616182009306/16/12 18:20:31  5-MIN KMSN 170020Z 24005KT 10SM CLR 27/17 A2983 940 54 2600 240/05 RMK AO2
14837KMSN MSN20120616182509306/16/12 18:25:31  5-MIN KMSN 170025Z VRB05KT 10SM CLR 27/17 A2983 940 54 2600 VRB/05 RMK AO2
14837KMSN MSN20120616183009306/16/12 18:30:31  5-MIN KMSN 170030Z VRB04KT 10SM CLR 27/17 A2983 950 54 2600 VRB/04 RMK AO2
14837KMSN MSN20120616183509306/16/12 18:35:31  5-MIN KMSN 170035Z VRB04KT 10SM CLR 27/17 A2983 950 54 2600 VRB/04 RMK AO2
14837KMSN MSN20120616184009306/16/12 18:40:31  5-MIN KMSN 170040Z VRB05KT 10SM CLR 27/17 A2983 950 54 2600 VRB/05 RMK AO2
14837KMSN MSN20120616184509306/16/12 18:45:31  5-MIN KMSN 170045Z VRB04KT 10SM CLR 27/17 A2983 950 54 2600 VRB/04 RMK AO2
14837KMSN MSN20120616185011306/16/12 18:50:31  5-MIN KMSN 170050Z VRB04KT 10SM FEW060 27/17 A2983 950 55 2500 VRB/04 RMK AO2 SLP095 T02670172
14837KMSN MSN20120616185509306/16/12 18:55:31  5-MIN KMSN 170055Z 23003KT 10SM CLR 27/17 A2983 950 55 2500 230/03 RMK AO2
14837KMSN MSN20120616190009306/16/12 19:00:31  5-MIN KMSN 170100Z 00000KT 10SM CLR 27/17 A2983 950 55 2500 000/00 RMK AO2
14837KMSN MSN20120616190509306/16/12 19:05:31  5-MIN KMSN 170105Z 00000KT 10SM CLR 27/17 A2983 950 55 2500 000/00 RMK AO2
14837KMSN MSN20120616191009306/16/12 19:10:31  5-MIN KMSN 170110Z 21003KT 10SM CLR 27/17 A2983 950 55 2500 220/03 RMK AO2
14837KMSN MSN20120616191509306/16/12 19:15:31  5-MIN KMSN 170115Z 23004KT 10SM CLR 27/17 A2983 940 55 2500 230/04 RMK AO2
14837KMSN MSN20120616192009306/16/12 19:20:31  5-MIN KMSN 170120Z 21003KT 10SM CLR 27/18 A2983 950 57 2500 210/03 RMK AO2
14837KMSN MSN20120616192509306/16/12 19:25:31  5-MIN KMSN 170125Z 22003KT 10SM CLR 27/18 A2983 950 57 2500 220/03 RMK AO2
14837KMSN MSN20120616193009306/16/12 19:30:31  5-MIN KMSN 170130Z 22003KT 10SM CLR 26/18 A2983 950 59 2500 220/03 RMK AO2
14837KMSN MSN20120616193509306/16/12 19:35:31  5-MIN KMSN 170135Z VRB05KT 10SM CLR 26/18 A2982 950 59 2500 VRB/05 RMK AO2
14837KMSN MSN20120616194009306/16/12 19:40:31  5-MIN KMSN 170140Z 22004KT 10SM CLR 26/18 A2982 960 59 2500 230/04 RMK AO2
14837KMSN MSN20120616194509306/16/12 19:45:31  5-MIN KMSN 170145Z 21004KT 10SM CLR 26/18 A2982 960 59 2500 210/04 RMK AO2
14837KMSN MSN20120616195011006/16/12 19:50:31  5-MIN KMSN 170150Z 22004KT 10SM CLR 26/18 A2982 960 59 2500 220/04 RMK AO2 SLP091 T02610178
14837KMSN MSN20120616195509306/16/12 19:55:31  5-MIN KMSN 170155Z 23005KT 10SM CLR 26/18 A2982 960 59 2500 230/05 RMK AO2
14837KMSN MSN20120616200009306/16/12 20:00:31  5-MIN KMSN 170200Z 23005KT 10SM CLR 26/18 A2981 960 59 2500 230/05 RMK AO2
14837KMSN MSN20120616200509306/16/12 20:05:31  5-MIN KMSN 170205Z 23005KT 10SM CLR 26/17 A2981 960 57 2500 230/05 RMK AO2
14837KMSN MSN20120616201009306/16/12 20:10:31  5-MIN KMSN 170210Z 21004KT 10SM CLR 26/17 A2981 960 57 2500 220/04 RMK AO2
14837KMSN MSN20120616201509306/16/12 20:15:31  5-MIN KMSN 170215Z 22003KT 10SM CLR 26/17 A2981 960 57 2500 220/03 RMK AO2
14837KMSN MSN20120616202009306/16/12 20:20:31  5-MIN KMSN 170220Z 22005KT 10SM CLR 26/17 A2982 960 57 2500 230/05 RMK AO2
14837KMSN MSN20120616202509306/16/12 20:25:31  5-MIN KMSN 170225Z 22004KT 10SM CLR 26/17 A2982 960 59 2400 230/04 RMK AO2
14837KMSN MSN20120616203009306/16/12 20:30:31  5-MIN KMSN 170230Z 22005KT 10SM CLR 26/17 A2982 960 57 2500 220/05 RMK AO2
14837KMSN MSN20120616203509306/16/12 20:35:31  5-MIN KMSN 170235Z 23003KT 10SM CLR 26/17 A2982 960 57 2500 230/03 RMK AO2
14837KMSN MSN20120616204009306/16/12 20:40:31  5-MIN KMSN 170240Z 00000KT 10SM CLR 26/17 A2982 960 59 2400 000/00 RMK AO2
14837KMSN MSN20120616204509306/16/12 20:45:31  5-MIN KMSN 170245Z 00000KT 10SM CLR 26/17 A2983 950 59 2400 000/00 RMK AO2
14837KMSN MSN20120616205011606/16/12 20:50:31  5-MIN KMSN 170250Z 00000KT 10SM CLR 26/17 A2983 950 59 2400 000/00 RMK AO2 SLP095 T02560172 56011
14837KMSN MSN20120616205509306/16/12 20:55:31  5-MIN KMSN 170255Z 23003KT 10SM CLR 26/18 A2983 940 61 2400 230/03 RMK AO2
14837KMSN MSN20120616210009306/16/12 21:00:31  5-MIN KMSN 170300Z 22005KT 10SM CLR 26/18 A2984 940 61 2400 220/05 RMK AO2
14837KMSN MSN20120616210509306/16/12 21:05:31  5-MIN KMSN 170305Z 23004KT 10SM CLR 26/18 A2984 940 61 2400 230/04 RMK AO2
14837KMSN MSN20120616211009306/16/12 21:10:31  5-MIN KMSN 170310Z VRB05KT 10SM CLR 26/18 A2985 930 61 2400 VRB/05 RMK AO2
14837KMSN MSN20120616211509606/16/12 21:15:31  5-MIN KMSN 170315Z VRB03KT 10SM FEW050 26/18 A2985 930 61 2400 VRB/03 RMK AO2
14837KMSN MSN20120616212009606/16/12 21:20:31  5-MIN KMSN 170320Z VRB05KT 10SM FEW050 26/18 A2985 930 61 2400 VRB/05 RMK AO2
14837KMSN MSN20120616212510306/16/12 21:25:31  5-MIN KMSN 170325Z VRB05KT 10SM FEW050 SCT120 26/18 A2985 930 61 2400 VRB/05 RMK AO2
14837KMSN MSN20120616213010306/16/12 21:30:31  5-MIN KMSN 170330Z VRB05KT 10SM FEW050 SCT120 26/18 A2986 920 61 2400 VRB/05 RMK AO2
14837KMSN MSN20120616213510306/16/12 21:35:31  5-MIN KMSN 170335Z 24004KT 10SM FEW050 SCT120 26/18 A2986 920 61 2400 240/04 RMK AO2
14837KMSN MSN20120616214010306/16/12 21:40:31  5-MIN KMSN 170340Z 00000KT 10SM FEW050 SCT120 26/18 A2986 920 61 2400 000/00 RMK AO2
14837KMSN MSN20120616214509606/16/12 21:45:31  5-MIN KMSN 170345Z VRB05KT 10SM SCT120 25/18 A2986 920 64 2300 VRB/05 RMK AO2
14837KMSN MSN20120616215011306/16/12 21:50:31  5-MIN KMSN 170350Z VRB04KT 10SM SCT120 26/18 A2986 920 61 2400 VRB/04 RMK AO2 SLP107 T02560178
14837KMSN MSN20120616215509606/16/12 21:55:31  5-MIN KMSN 170355Z VRB06KT 10SM SCT120 26/18 A2987 920 61 2400 VRB/06 RMK AO2
14837KMSN MSN20120616220009606/16/12 22:00:31  5-MIN KMSN 170400Z 23006KT 10SM BKN120 26/18 A2987 910 61 2400 230/06 RMK AO2
14837KMSN MSN20120616220509606/16/12 22:05:31  5-MIN KMSN 170405Z 23005KT 10SM BKN120 26/18 A2987 910 61 2400 230/05 RMK AO2
14837KMSN MSN20120616221009606/16/12 22:10:31  5-MIN KMSN 170410Z 23005KT 10SM BKN120 25/18 A2986 920 64 2300 230/05 RMK AO2
14837KMSN MSN20120616221509606/16/12 22:15:31  5-MIN KMSN 170415Z 22007KT 10SM BKN120 26/18 A2986 920 61 2400 220/07 RMK AO2
14837KMSN MSN20120616222009606/16/12 22:20:31  5-MIN KMSN 170420Z 22007KT 10SM OVC120 26/18 A2986 920 61 2400 230/07 RMK AO2
14837KMSN MSN20120616222509606/16/12 22:25:31  5-MIN KMSN 170425Z 23007KT 10SM OVC120 25/18 A2986 920 64 2300 230/07 RMK AO2
14837KMSN MSN20120616223009606/16/12 22:30:31  5-MIN KMSN 170430Z 23006KT 10SM OVC120 25/18 A2986 920 64 2300 230/06 RMK AO2
14837KMSN MSN20120616223509606/16/12 22:35:31  5-MIN KMSN 170435Z 22006KT 10SM OVC120 25/18 A2986 920 64 2300 220/06 RMK AO2
14837KMSN MSN20120616224009606/16/12 22:40:31  5-MIN KMSN 170440Z VRB05KT 10SM OVC120 25/18 A2986 920 66 2300 VRB/05 RMK AO2
14837KMSN MSN20120616224509606/16/12 22:45:31  5-MIN KMSN 170445Z 22005KT 10SM OVC120 25/18 A2986 920 66 2300 220/05 RMK AO2
14837KMSN MSN20120616225011306/16/12 22:50:31  5-MIN KMSN 170450Z 23005KT 10SM OVC120 25/18 A2986 920 66 2300 230/05 RMK AO2 SLP106 T02500183
14837KMSN MSN20120616225509606/16/12 22:55:31  5-MIN KMSN 170455Z VRB05KT 10SM BKN120 25/18 A2986 920 66 2300 VRB/05 RMK AO2
14837KMSN MSN20120616230009606/16/12 23:00:31  5-MIN KMSN 170500Z 21006KT 10SM BKN120 24/18 A2986 920 68 2300 220/06 RMK AO2
14837KMSN MSN20120616230509606/16/12 23:05:31  5-MIN KMSN 170505Z 22005KT 10SM SCT120 24/18 A2986 920 68 2300 220/05 RMK AO2
14837KMSN MSN20120616231010306/16/12 23:10:31  5-MIN KMSN 170510Z 22005KT 10SM FEW041 SCT120 24/18 A2986 920 68 2300 230/05 RMK AO2
14837KMSN MSN20120616231509606/16/12 23:15:31  5-MIN KMSN 170515Z 22004KT 10SM FEW120 24/18 A2985 930 68 2300 230/04 RMK AO2
14837KMSN MSN20120616232009306/16/12 23:20:31  5-MIN KMSN 170520Z VRB04KT 10SM CLR 24/19 A2985 930 71 2300 VRB/04 RMK AO2
14837KMSN MSN20120616232509606/16/12 23:25:31  5-MIN KMSN 170525Z 22005KT 10SM FEW110 24/19 A2985 930 71 2300 220/05 RMK AO2
14837KMSN MSN20120616233009606/16/12 23:30:31  5-MIN KMSN 170530Z 22005KT 10SM SCT110 24/19 A2985 930 71 2300 220/05 RMK AO2
14837KMSN MSN20120616233509606/16/12 23:35:31  5-MIN KMSN 170535Z VRB06KT 10SM BKN110 24/19 A2985 930 71 2300 VRB/06 RMK AO2
14837KMSN MSN20120616234009606/16/12 23:40:31  5-MIN KMSN 170540Z 22007KT 10SM BKN110 24/19 A2986 920 71 2300 220/07 RMK AO2
14837KMSN MSN20120616234509606/16/12 23:45:31  5-MIN KMSN 170545Z VRB04KT 10SM BKN110 24/19 A2986 920 71 2300 VRB/04 RMK AO2
14837KMSN MSN20120616235014106/16/12 23:50:31  5-MIN KMSN 170550Z 22005KT 10SM OVC110 24/19 A2986 920 71 2300 220/05 RMK AO2 SLP104 T02440189 10278 20244 402940217 53001
14837KMSN MSN20120616235509606/16/12 23:55:31  5-MIN KMSN 170555Z 22005KT 10SM OVC100 24/19 A2986 920 73 2200 220/05 RMK AO2
14837KMSN MSN20120617000009606/17/12 00:00:32  5-MIN KMSN 170600Z 22005KT 10SM OVC100 24/19 A2986 920 73 2200 220/05 RMK AO2
14837KMSN MSN20120617000509606/17/12 00:05:31  5-MIN KMSN 170605Z 23005KT 10SM BKN100 24/19 A2986 920 73 2200 230/05 RMK AO2
14837KMSN MSN20120617001009606/17/12 00:10:31  5-MIN KMSN 170610Z 23005KT 10SM BKN100 24/19 A2986 920 73 2200 240/05 RMK AO2
14837KMSN MSN20120617001510306/17/12 00:15:31  5-MIN KMSN 170615Z 23004KT 10SM SCT041 BKN100 24/19 A2986 920 73 2200 230/04 RMK AO2
14837KMSN MSN20120617002011006/17/12 00:20:31  5-MIN KMSN 170620Z 23005KT 10SM SCT041 BKN095 BKN110 24/19 A2986 920 73 2200 230/05 RMK AO2
14837KMSN MSN20120617002511006/17/12 00:25:31  5-MIN KMSN 170625Z 23004KT 10SM FEW043 BKN090 BKN110 24/19 A2986 920 73 2200 230/04 RMK AO2
14837KMSN MSN20120617003011006/17/12 00:30:31  5-MIN KMSN 170630Z VRB03KT 10SM FEW043 SCT090 BKN110 24/19 A2986 920 73 2200 VRB/03 RMK AO2
14837KMSN MSN20120617003511006/17/12 00:35:31  5-MIN KMSN 170635Z 23003KT 10SM FEW043 SCT055 BKN090 24/19 A2986 920 73 2200 230/03 RMK AO2
14837KMSN MSN20120617004011006/17/12 00:40:31  5-MIN KMSN 170640Z VRB03KT 10SM FEW036 BKN060 OVC110 24/19 A2987 920 76 2200 VRB/03 RMK AO2
14837KMSN MSN20120617004511006/17/12 00:45:31  5-MIN KMSN 170645Z 23003KT 10SM FEW031 BKN060 OVC110 24/19 A2986 920 76 2200 230/03 RMK AO2
14837KMSN MSN20120617005012706/17/12 00:50:31  5-MIN KMSN 170650Z VRB03KT 10SM FEW025 BKN042 OVC110 24/19 A2986 920 76 2200 VRB/03 RMK AO2 SLP106 T02390194
14837KMSN MSN20120617005511006/17/12 00:55:31  5-MIN KMSN 170655Z VRB03KT 10SM SCT027 BKN044 OVC120 24/19 A2986 920 76 2200 VRB/03 RMK AO2
14837KMSN MSN20120617010012606/17/12 01:00:31  5-MIN KMSN 170700Z VRB05KT 10SM -RA SCT022 BKN033 OVC060 23/19 A2986 920 78 2100 VRB/05 RMK AO2 RAB00 P0000
14837KMSN MSN20120617010512606/17/12 01:05:31  5-MIN KMSN 170705Z 28004KT 10SM -RA FEW022 BKN036 OVC060 23/19 A2987 910 78 2100 280/04 RMK AO2 RAB00 P0000
14837KMSN MSN20120617011014206/17/12 01:10:31  5-MIN KMSN 170710Z 29007KT 240V310 10SM -RA SCT022 BKN029 OVC046 23/19 A2987 910 76 2100 290/07 240V310 RMK AO2 RAB00 P0000
14837KMSN MSN20120617011513206/17/12 01:15:31  5-MIN KMSN 170715Z 30008G16KT 10SM -RA SCT024 BKN033 OVC046 23/19 A2987 910 76 2100 300/08G16 RMK AO2 RAB00 P0000
14837KMSN MSN20120617012013206/17/12 01:20:31  5-MIN KMSN 170720Z 30006G16KT 10SM -RA SCT024 BKN033 OVC110 23/18 A2987 910 76 2100 310/06G16 RMK AO2 RAB00 P0000
14837KMSN MSN20120617012513206/17/12 01:25:31  5-MIN KMSN 170725Z 30005G14KT 10SM -RA FEW024 BKN033 OVC110 22/19 A2987 910 81 2000 300/05G14 RMK AO2 RAB00 P0000
14837KMSN MSN20120617013012606/17/12 01:30:31  5-MIN KMSN 170730Z 29006KT 10SM -RA FEW024 BKN045 OVC060 22/19 A2987 910 81 2000 290/06 RMK AO2 RAB00 P0000
14837KMSN MSN20120617013512506/17/12 01:35:31  5-MIN KMSN 170735Z 30005KT 10SM FEW032 BKN045 OVC110 22/19 A2987 910 84 1900 310/05 RMK AO2 RAB00E33 P0000
14837KMSN MSN20120617014012506/17/12 01:40:31  5-MIN KMSN 170740Z 31005KT 10SM FEW033 BKN047 OVC055 22/19 A2987 920 84 1900 310/05 RMK AO2 RAB00E33 P0000
14837KMSN MSN20120617014512506/17/12 01:45:31  5-MIN KMSN 170745Z 31005KT 10SM FEW036 BKN050 OVC065 22/18 A2986 920 81 1900 310/05 RMK AO2 RAB00E33 P0000
14837KMSN MSN20120617015013506/17/12 01:50:31  5-MIN KMSN 170750Z 32004KT 10SM BKN050 OVC065 22/18 A2986 920 81 1900 320/04 RMK AO2 RAB00E33 SLP106 P0000 T02170183
14837KMSN MSN20120617015510306/17/12 01:55:31  5-MIN KMSN 170755Z 30004KT 10SM SCT047 BKN055 21/18 A2987 920 84 1900 300/04 RMK AO2
14837KMSN MSN20120617020010306/17/12 02:00:31  5-MIN KMSN 170800Z 31004KT 10SM BKN050 BKN070 22/18 A2986 920 81 1900 310/04 RMK AO2
14837KMSN MSN20120617020510306/17/12 02:05:31  5-MIN KMSN 170805Z 32005KT 10SM SCT050 BKN070 21/18 A2986 920 81 1900 320/05 RMK AO2
14837KMSN MSN20120617021010306/17/12 02:10:31  5-MIN KMSN 170810Z 31003KT 10SM SCT050 BKN070 21/18 A2986 920 81 1900 310/03 RMK AO2
14837KMSN MSN20120617021510306/17/12 02:15:31  5-MIN KMSN 170815Z 31004KT 10SM FEW050 SCT070 21/18 A2986 920 81 1900 320/04 RMK AO2
14837KMSN MSN20120617022009606/17/12 02:20:31  5-MIN KMSN 170820Z 32004KT 10SM FEW060 21/18 A2986 920 84 1800 320/04 RMK AO2
14837KMSN MSN20120617022509606/17/12 02:25:31  5-MIN KMSN 170825Z 32003KT 10SM FEW065 21/18 A2986 920 84 1800 330/03 RMK AO2
14837KMSN MSN20120617023009606/17/12 02:30:31  5-MIN KMSN 170830Z 32003KT 10SM FEW065 20/17 A2986 920 84 1800 320/03 RMK AO2
14837KMSN MSN20120617023509606/17/12 02:35:31  5-MIN KMSN 170835Z 32003KT 10SM FEW065 20/17 A2986 920 84 1800 320/03 RMK AO2
14837KMSN MSN20120617024009306/17/12 02:40:31  5-MIN KMSN 170840Z 33003KT 10SM CLR 20/17 A2986 920 84 1800 330/03 RMK AO2
14837KMSN MSN20120617024509306/17/12 02:45:31  5-MIN KMSN 170845Z 33003KT 10SM CLR 20/17 A2986 920 84 1800 330/03 RMK AO2
14837KMSN MSN20120617025012506/17/12 02:50:31  5-MIN KMSN 170850Z 00000KT 10SM FEW050 19/17 A2986 920 87 1700 000/00 RMK AO2 SLP105 60000 T01940172 50009
14837KMSN MSN20120617025509306/17/12 02:55:31  5-MIN KMSN 170855Z 00000KT 10SM CLR 19/17 A2986 920 84 1700 000/00 RMK AO2
14837KMSN MSN20120617030009306/17/12 03:00:31  5-MIN KMSN 170900Z 00000KT 10SM CLR 19/17 A2986 920 84 1700 000/00 RMK AO2
14837KMSN MSN20120617030509306/17/12 03:05:31  5-MIN KMSN 170905Z 00000KT 10SM CLR 19/17 A2986 920 84 1700 000/00 RMK AO2
14837KMSN MSN20120617031009606/17/12 03:10:31  5-MIN KMSN 170910Z 00000KT 10SM FEW070 19/17 A2986 920 87 1600 000/00 RMK AO2
14837KMSN MSN20120617031509606/17/12 03:15:31  5-MIN KMSN 170915Z 00000KT 10SM SCT070 18/17 A2986 920 90 1600 000/00 RMK AO2
14837KMSN MSN20120617032009606/17/12 03:20:31  5-MIN KMSN 170920Z 00000KT 10SM BKN070 18/17 A2986 920 90 1600 000/00 RMK AO2
14837KMSN MSN20120617032509606/17/12 03:25:31  5-MIN KMSN 170925Z 00000KT 10SM BKN070 19/17 A2986 920 87 1600 000/00 RMK AO2
14837KMSN MSN20120617033009606/17/12 03:30:31  5-MIN KMSN 170930Z 00000KT 10SM BKN070 19/17 A2986 920 87 1600 000/00 RMK AO2
14837KMSN MSN20120617033509606/17/12 03:35:31  5-MIN KMSN 170935Z 00000KT 10SM BKN065 19/17 A2986 920 87 1600 000/00 RMK AO2
14837KMSN MSN20120617034009606/17/12 03:40:31  5-MIN KMSN 170940Z 00000KT 10SM BKN065 18/17 A2986 920 93 1500 000/00 RMK AO2
14837KMSN MSN20120617034509606/17/12 03:45:31  5-MIN KMSN 170945Z 00000KT 10SM BKN065 18/17 A2986 920 93 1500 000/00 RMK AO2
14837KMSN MSN20120617035011306/17/12 03:50:31  5-MIN KMSN 170950Z 00000KT 10SM BKN060 18/17 A2987 910 93 1500 000/00 RMK AO2 SLP108 T01780167
14837KMSN MSN20120617035509606/17/12 03:55:31  5-MIN KMSN 170955Z 00000KT 10SM SCT060 18/17 A2987 910 93 1500 000/00 RMK AO2
14837KMSN MSN20120617040009606/17/12 04:00:31  5-MIN KMSN 171000Z 00000KT 10SM FEW060 17/16 A2987 910 93 1400 000/00 RMK AO2
14837KMSN MSN20120617040509606/17/12 04:05:31  5-MIN KMSN 171005Z 00000KT 10SM SCT060 17/16 A2987 910 93 1400 000/00 RMK AO2
14837KMSN MSN20120617041009606/17/12 04:10:31  5-MIN KMSN 171010Z 00000KT 10SM SCT060 17/16 A2987 910 93 1400 000/00 RMK AO2
14837KMSN MSN20120617041509606/17/12 04:15:31  5-MIN KMSN 171015Z 00000KT 10SM SCT060 17/16 A2987 910 93 1400 000/00 RMK AO2
14837KMSN MSN20120617042009606/17/12 04:20:31  5-MIN KMSN 171020Z 00000KT 10SM FEW060 17/16 A2987 910 96 1400 000/00 RMK AO2
14837KMSN MSN20120617042509606/17/12 04:25:31  5-MIN KMSN 171025Z 00000KT 10SM FEW060 16/16 A2987 910 96 1300 000/00 RMK AO2
14837KMSN MSN20120617043009606/17/12 04:30:31  5-MIN KMSN 171030Z 00000KT 10SM FEW060 16/16 A2987 910 96 1300 000/00 RMK AO2
14837KMSN MSN20120617043509606/17/12 04:35:31  5-MIN KMSN 171035Z 00000KT 10SM FEW060 16/16 A2987 910 96 1300 000/00 RMK AO2
14837KMSN MSN20120617044009606/17/12 04:40:31  5-MIN KMSN 171040Z 00000KT 10SM FEW060 16/16 A2987 910 96 1300 000/00 RMK AO2
14837KMSN MSN20120617044509606/17/12 04:45:31  5-MIN KMSN 171045Z 00000KT 10SM FEW060 16/16 A2987 910 96 1300 000/00 RMK AO2
14837KMSN MSN20120617045011306/17/12 04:50:31  5-MIN KMSN 171050Z 00000KT 10SM FEW070 16/15 A2988 910 93 1300 000/00 RMK AO2 SLP112 T01610150
14837KMSN MSN20120617045509606/17/12 04:55:31  5-MIN KMSN 171055Z 00000KT 10SM FEW070 16/16 A2987 910 96 1300 000/00 RMK AO2
14837KMSN MSN20120617050009606/17/12 05:00:31  5-MIN KMSN 171100Z 00000KT 10SM FEW070 17/16 A2987 910 93 1400 000/00 RMK AO2
14837KMSN MSN20120617050509606/17/12 05:05:31  5-MIN KMSN 171105Z 00000KT 10SM FEW070 17/16 A2987 910 90 1400 000/00 RMK AO2
14837KMSN MSN20120617051009606/17/12 05:10:31  5-MIN KMSN 171110Z 00000KT 10SM FEW070 17/16 A2987 910 90 1400 000/00 RMK AO2
14837KMSN MSN20120617051509606/17/12 05:15:31  5-MIN KMSN 171115Z 00000KT 10SM FEW070 18/16 A2987 910 87 1500 000/00 RMK AO2
14837KMSN MSN20120617052009306/17/12 05:20:31  5-MIN KMSN 171120Z 00000KT 10SM CLR 18/16 A2987 910 87 1500 000/00 RMK AO2
14837KMSN MSN20120617052509306/17/12 05:25:31  5-MIN KMSN 171125Z 00000KT 10SM CLR 18/16 A2987 910 87 1500 000/00 RMK AO2
14837KMSN MSN20120617053009306/17/12 05:30:31  5-MIN KMSN 171130Z 00000KT 10SM CLR 18/16 A2987 910 87 1500 000/00 RMK AO2
14837KMSN MSN20120617053509306/17/12 05:35:31  5-MIN KMSN 171135Z 00000KT 10SM CLR 19/16 A2987 910 84 1600 000/00 RMK AO2
14837KMSN MSN20120617054009306/17/12 05:40:31  5-MIN KMSN 171140Z 00000KT 10SM CLR 19/16 A2988 910 84 1600 000/00 RMK AO2
14837KMSN MSN20120617054509306/17/12 05:45:31  5-MIN KMSN 171145Z 00000KT 10SM CLR 19/16 A2988 900 81 1700 000/00 RMK AO2
14837KMSN MSN20120617055014006/17/12 05:50:31  5-MIN KMSN 171150Z 00000KT 10SM CLR 19/16 A2988 900 81 1700 000/00 RMK AO2 SLP112 60000 70002 T01940161 10239 20161 50000
14837KMSN MSN20120617055509306/17/12 05:55:31  5-MIN KMSN 171155Z 00000KT 10SM CLR 21/16 A2988 900 75 1800 000/00 RMK AO2
14837KMSN MSN20120617060009306/17/12 06:00:31  5-MIN KMSN 171200Z 00000KT 10SM CLR 21/16 A2988 900 75 1800 000/00 RMK AO2
14837KMSN MSN20120617060509306/17/12 06:05:31  5-MIN KMSN 171205Z VRB03KT 10SM CLR 21/16 A2988 900 73 1800 VRB/03 RMK AO2
14837KMSN MSN20120617061009306/17/12 06:10:31  5-MIN KMSN 171210Z VRB03KT 10SM CLR 21/16 A2989 900 73 1800 VRB/03 RMK AO2
14837KMSN MSN20120617061509306/17/12 06:15:31  5-MIN KMSN 171215Z 00000KT 10SM CLR 21/16 A2989 900 73 1900 000/00 RMK AO2
14837KMSN MSN20120617062009306/17/12 06:20:31  5-MIN KMSN 171220Z VRB03KT 10SM CLR 21/16 A2989 900 73 1900 VRB/03 RMK AO2
14837KMSN MSN20120617062509306/17/12 06:25:31  5-MIN KMSN 171225Z 27004KT 10SM CLR 21/16 A2989 890 73 1900 270/04 RMK AO2
14837KMSN MSN20120617063009306/17/12 06:30:31  5-MIN KMSN 171230Z VRB04KT 10SM CLR 21/16 A2989 900 73 1900 VRB/04 RMK AO2
14837KMSN MSN20120617063509306/17/12 06:35:31  5-MIN KMSN 171235Z 29005KT 10SM CLR 21/16 A2989 890 70 1900 300/05 RMK AO2
14837KMSN MSN20120617064009306/17/12 06:40:31  5-MIN KMSN 171240Z 29004KT 10SM CLR 21/16 A2989 890 73 1800 290/04 RMK AO2
14837KMSN MSN20120617064509306/17/12 06:45:31  5-MIN KMSN 171245Z 27006KT 10SM CLR 22/16 A2989 890 70 1900 280/06 RMK AO2
14837KMSN MSN20120617065011006/17/12 06:50:31  5-MIN KMSN 171250Z VRB03KT 10SM CLR 22/16 A2990 890 70 1900 VRB/03 RMK AO2 SLP118 T02170161
14837KMSN MSN20120617065509306/17/12 06:55:31  5-MIN KMSN 171255Z 31005KT 10SM CLR 22/16 A2990 880 70 1900 310/05 RMK AO2
14837KMSN MSN20120617070009306/17/12 07:00:31  5-MIN KMSN 171300Z VRB04KT 10SM CLR 22/16 A2990 880 70 1900 VRB/04 RMK AO2
14837KMSN MSN20120617070509306/17/12 07:05:31  5-MIN KMSN 171305Z 30005KT 10SM CLR 22/16 A2990 880 68 2000 300/05 RMK AO2
14837KMSN MSN20120617071009306/17/12 07:10:31  5-MIN KMSN 171310Z 29004KT 10SM CLR 22/16 A2990 880 68 2000 290/04 RMK AO2
14837KMSN MSN20120617071509306/17/12 07:15:31  5-MIN KMSN 171315Z 29004KT 10SM CLR 22/16 A2990 880 65 2000 290/04 RMK AO2
14837KMSN MSN20120617072009306/17/12 07:20:31  5-MIN KMSN 171320Z 00000KT 10SM CLR 22/16 A2990 880 65 2000 000/00 RMK AO2
14837KMSN MSN20120617072509306/17/12 07:25:31  5-MIN KMSN 171325Z 24005KT 10SM CLR 22/15 A2990 880 63 2000 250/05 RMK AO2
14837KMSN MSN20120617073009306/17/12 07:30:31  5-MIN KMSN 171330Z VRB03KT 10SM CLR 22/15 A2990 880 63 2000 VRB/03 RMK AO2
14837KMSN MSN20120617073509306/17/12 07:35:31  5-MIN KMSN 171335Z 27004KT 10SM CLR 22/15 A2990 880 63 2000 270/04 RMK AO2
14837KMSN MSN20120617074009306/17/12 07:40:31  5-MIN KMSN 171340Z 23005KT 10SM CLR 23/15 A2990 880 61 2000 230/05 RMK AO2
14837KMSN MSN20120617074509306/17/12 07:45:31  5-MIN KMSN 171345Z VRB03KT 10SM CLR 23/15 A2990 880 59 2100 VRB/03 RMK AO2
14837KMSN MSN20120617075011006/17/12 07:50:31  5-MIN KMSN 171350Z 28004KT 10SM CLR 23/14 A2990 880 59 2000 280/04 RMK AO2 SLP121 T02280144
14837KMSN MSN20120617075509606/17/12 07:55:31  5-MIN KMSN 171355Z VRB03KT 10SM FEW040 23/14 A2990 880 57 2000 VRB/03 RMK AO2
14837KMSN MSN20120617080009606/17/12 08:00:31  5-MIN KMSN 171400Z VRB04KT 10SM FEW040 23/14 A2990 880 57 2100 VRB/04 RMK AO2
14837KMSN MSN20120617080509606/17/12 08:05:31  5-MIN KMSN 171405Z 26004KT 10SM FEW040 23/14 A2990 880 57 2100 270/04 RMK AO2
14837KMSN MSN20120617081009606/17/12 08:10:31  5-MIN KMSN 171410Z VRB03KT 10SM FEW040 23/14 A2990 880 55 2100 VRB/03 RMK AO2
14837KMSN MSN20120617081509606/17/12 08:15:31  5-MIN KMSN 171415Z VRB05KT 10SM FEW040 24/14 A2991 880 55 2100 VRB/05 RMK AO2
14837KMSN MSN20120617082009606/17/12 08:20:31  5-MIN KMSN 171420Z 24004KT 10SM FEW040 23/14 A2991 880 57 2100 240/04 RMK AO2
14837KMSN MSN20120617082509606/17/12 08:25:31  5-MIN KMSN 171425Z 24003KT 10SM FEW040 23/14 A2991 880 57 2100 250/03 RMK AO2
14837KMSN MSN20120617083009606/17/12 08:30:31  5-MIN KMSN 171430Z VRB03KT 10SM FEW040 24/14 A2990 880 55 2200 VRB/03 RMK AO2
14837KMSN MSN20120617083509606/17/12 08:35:31  5-MIN KMSN 171435Z 20006KT 10SM FEW040 24/14 A2990 880 55 2200 210/06 RMK AO2
14837KMSN MSN20120617084009606/17/12 08:40:31  5-MIN KMSN 171440Z 23006KT 10SM FEW040 24/14 A2990 880 53 2200 230/06 RMK AO2
14837KMSN MSN20120617084509606/17/12 08:45:31  5-MIN KMSN 171445Z 23005KT 10SM FEW040 24/14 A2990 880 53 2200 230/05 RMK AO2
14837KMSN MSN20120617085011906/17/12 08:50:31  5-MIN KMSN 171450Z 22005KT 10SM FEW040 24/14 A2990 890 53 2200 220/05 RMK AO2 SLP118 T02390139 51006
14837KMSN MSN20120617085509606/17/12 08:55:31  5-MIN KMSN 171455Z VRB05KT 10SM FEW040 24/13 A2990 890 49 2200 VRB/05 RMK AO2
14837KMSN MSN20120617090009606/17/12 09:00:31  5-MIN KMSN 171500Z VRB04KT 10SM FEW040 24/13 A2990 890 49 2200 VRB/04 RMK AO2
14837KMSN MSN20120617090509606/17/12 09:05:31  5-MIN KMSN 171505Z VRB05KT 10SM FEW045 25/13 A2990 890 48 2300 VRB/05 RMK AO2
14837KMSN MSN20120617091009606/17/12 09:10:31  5-MIN KMSN 171510Z VRB05KT 10SM FEW045 24/13 A2989 890 47 2200 VRB/05 RMK AO2
14837KMSN MSN20120617091509606/17/12 09:15:31  5-MIN KMSN 171515Z VRB04KT 10SM FEW045 25/13 A2989 890 48 2300 VRB/04 RMK AO2
14837KMSN MSN20120617092009606/17/12 09:20:31  5-MIN KMSN 171520Z VRB05KT 10SM FEW048 25/13 A2989 890 48 2300 VRB/05 RMK AO2
14837KMSN MSN20120617092509606/17/12 09:25:31  5-MIN KMSN 171525Z VRB06KT 10SM FEW048 25/13 A2989 890 46 2300 VRB/06 RMK AO2
14837KMSN MSN20120617093009606/17/12 09:30:31  5-MIN KMSN 171530Z VRB04KT 10SM FEW050 25/12 A2989 890 44 2300 VRB/04 RMK AO2
14837KMSN MSN20120617093509606/17/12 09:35:31  5-MIN KMSN 171535Z VRB04KT 10SM FEW050 24/12 A2989 890 44 2200 VRB/04 RMK AO2
14837KMSN MSN20120617094009606/17/12 09:40:31  5-MIN KMSN 171540Z 30008KT 10SM FEW050 24/12 A2989 890 44 2200 300/08 RMK AO2
14837KMSN MSN20120617094509606/17/12 09:45:31  5-MIN KMSN 171545Z 28007KT 10SM FEW050 25/11 A2989 890 41 2300 280/07 RMK AO2
14837KMSN MSN20120617095011306/17/12 09:50:31  5-MIN KMSN 171550Z 28005KT 10SM FEW050 26/12 A2989 890 41 2400 290/05 RMK AO2 SLP116 T02560117
14837KMSN MSN20120617095509606/17/12 09:55:31  5-MIN KMSN 171555Z VRB03KT 10SM FEW050 26/12 A2989 890 40 2400 VRB/03 RMK AO2
14837KMSN MSN20120617100009606/17/12 10:00:31  5-MIN KMSN 171600Z VRB04KT 10SM FEW060 26/12 A2989 900 40 2400 VRB/04 RMK AO2
14837KMSN MSN20120617100509606/17/12 10:05:31  5-MIN KMSN 171605Z VRB06KT 10SM FEW060 26/11 A2989 890 40 2400 VRB/06 RMK AO2
14837KMSN MSN20120617101009606/17/12 10:10:31  5-MIN KMSN 171610Z VRB04KT 10SM FEW060 26/11 A2989 890 40 2400 VRB/04 RMK AO2
14837KMSN MSN20120617101509606/17/12 10:15:31  5-MIN KMSN 171615Z 31004KT 10SM FEW060 26/11 A2989 890 40 2400 310/04 RMK AO2
14837KMSN MSN20120617102009606/17/12 10:20:31  5-MIN KMSN 171620Z VRB04KT 10SM FEW060 26/11 A2989 890 40 2400 VRB/04 RMK AO2
14837KMSN MSN20120617102511206/17/12 10:25:31  5-MIN KMSN 171625Z 24007KT 210V290 10SM FEW060 26/12 A2989 890 40 2400 250/07 210V290 RMK AO2
14837KMSN MSN20120617103009606/17/12 10:30:31  5-MIN KMSN 171630Z VRB05KT 10SM FEW060 26/11 A2989 900 37 2400 VRB/05 RMK AO2
14837KMSN MSN20120617103509606/17/12 10:35:31  5-MIN KMSN 171635Z 23006KT 10SM FEW060 26/11 A2988 900 38 2400 240/06 RMK AO2
14837KMSN MSN20120617104009606/17/12 10:40:31  5-MIN KMSN 171640Z VRB03KT 10SM FEW060 26/11 A2988 900 37 2400 VRB/03 RMK AO2
14837KMSN MSN20120617104509606/17/12 10:45:31  5-MIN KMSN 171645Z VRB06KT 10SM FEW065 27/11 A2988 900 36 2500 VRB/06 RMK AO2
14837KMSN MSN20120617105011306/17/12 10:50:31  5-MIN KMSN 171650Z VRB05KT 10SM FEW065 27/10 A2988 900 34 2500 VRB/05 RMK AO2 SLP112 T02670100
14837KMSN MSN20120617105509606/17/12 10:55:31  5-MIN KMSN 171655Z 26007KT 10SM FEW065 26/09 A2988 900 34 2400 270/07 RMK AO2
14837KMSN MSN20120617110009606/17/12 11:00:31  5-MIN KMSN 171700Z VRB05KT 10SM FEW070 27/09 A2988 910 33 2500 VRB/05 RMK AO2
14837KMSN MSN20120617110509606/17/12 11:05:31  5-MIN KMSN 171705Z VRB03KT 10SM FEW070 27/10 A2987 910 34 2500 VRB/03 RMK AO2
14837KMSN MSN20120617111009606/17/12 11:10:31  5-MIN KMSN 171710Z VRB06KT 10SM FEW070 27/09 A2987 910 33 2500 VRB/06 RMK AO2
14837KMSN MSN20120617111511206/17/12 11:15:31  5-MIN KMSN 171715Z 23007KT 180V270 10SM FEW070 27/09 A2987 910 33 2500 230/07 180V270 RMK AO2
14837KMSN MSN20120617112009606/17/12 11:20:31  5-MIN KMSN 171720Z VRB06KT 10SM FEW070 27/09 A2987 920 32 2500 VRB/06 RMK AO2
14837KMSN MSN20120617112509606/17/12 11:25:31  5-MIN KMSN 171725Z 24006KT 10SM FEW070 27/09 A2986 920 32 2500 250/06 RMK AO2
14837KMSN MSN20120617113009606/17/12 11:30:31  5-MIN KMSN 171730Z 00000KT 10SM FEW070 27/09 A2986 920 32 2500 000/00 RMK AO2
14837KMSN MSN20120617113509606/17/12 11:35:31  5-MIN KMSN 171735Z 26005KT 10SM FEW070 27/09 A2986 920 32 2600 260/05 RMK AO2
14837KMSN MSN20120617114009606/17/12 11:40:31  5-MIN KMSN 171740Z 24006KT 10SM FEW070 27/09 A2986 920 32 2600 250/06 RMK AO2
14837KMSN MSN20120617114509606/17/12 11:45:31  5-MIN KMSN 171745Z VRB04KT 10SM FEW070 27/09 A2986 920 32 2500 VRB/04 RMK AO2
14837KMSN MSN20120617115012806/17/12 11:50:31  5-MIN KMSN 171750Z 30005KT 10SM CLR 27/09 A2985 930 31 2600 300/05 RMK AO2 SLP103 T02720089 10272 20206 50006
14837KMSN MSN20120617115509306/17/12 11:55:31  5-MIN KMSN 171755Z 20007KT 10SM CLR 27/09 A2985 930 31 2600 210/07 RMK AO2
14837KMSN MSN20120617120009306/17/12 12:00:31  5-MIN KMSN 171800Z 23005KT 10SM CLR 27/08 A2985 930 31 2500 240/05 RMK AO2
14837KMSN MSN20120617120509306/17/12 12:05:31  5-MIN KMSN 171805Z 23006KT 10SM CLR 27/09 A2985 930 31 2600 230/06 RMK AO2
14837KMSN MSN20120617121009306/17/12 12:10:31  5-MIN KMSN 171810Z 22004KT 10SM CLR 27/08 A2984 930 30 2600 220/04 RMK AO2
14837KMSN MSN20120617121509306/17/12 12:15:31  5-MIN KMSN 171815Z 21006KT 10SM CLR 27/08 A2984 940 30 2600 210/06 RMK AO2
14837KMSN MSN20120617122009306/17/12 12:20:31  5-MIN KMSN 171820Z 20007KT 10SM CLR 28/08 A2984 940 29 2700 200/07 RMK AO2
14837KMSN MSN20120617122509306/17/12 12:25:31  5-MIN KMSN 171825Z 23006KT 10SM CLR 28/09 A2984 940 30 2700 230/06 RMK AO2
14837KMSN MSN20120617123009306/17/12 12:30:31  5-MIN KMSN 171830Z VRB03KT 10SM CLR 28/09 A2983 950 30 2700 VRB/03 RMK AO2
14837KMSN MSN20120617123509306/17/12 12:35:31  5-MIN KMSN 171835Z VRB03KT 10SM CLR 28/09 A2983 950 31 2700 VRB/03 RMK AO2
14837KMSN MSN20120617124009306/17/12 12:40:31  5-MIN KMSN 171840Z VRB04KT 10SM CLR 28/09 A2983 950 30 2700 VRB/04 RMK AO2
14837KMSN MSN20120617124509306/17/12 12:45:31  5-MIN KMSN 171845Z VRB05KT 10SM CLR 28/09 A2983 950 30 2700 VRB/05 RMK AO2
14837KMSN MSN20120617125011006/17/12 12:50:31  5-MIN KMSN 171850Z VRB05KT 10SM CLR 28/09 A2983 950 30 2700 VRB/05 RMK AO2 SLP095 T02830094
14837KMSN MSN20120617125509306/17/12 12:55:31  5-MIN KMSN 171855Z 23008KT 10SM CLR 28/09 A2983 950 31 2700 230/08 RMK AO2
14837KMSN MSN20120617130009306/17/12 13:00:31  5-MIN KMSN 171900Z VRB06KT 10SM CLR 28/09 A2982 950 30 2700 VRB/06 RMK AO2
14837KMSN MSN20120617130509306/17/12 13:05:31  5-MIN KMSN 171905Z 25004KT 10SM CLR 28/08 A2982 950 28 2700 250/04 RMK AO2
14837KMSN MSN20120617131009306/17/12 13:10:31  5-MIN KMSN 171910Z 00000KT 10SM CLR 28/08 A2982 950 28 2700 000/00 RMK AO2
14837KMSN MSN20120617131509306/17/12 13:15:31  5-MIN KMSN 171915Z 24005KT 10SM CLR 29/09 A2982 960 28 2800 250/05 RMK AO2
14837KMSN MSN20120617132009306/17/12 13:20:31  5-MIN KMSN 171920Z VRB04KT 10SM CLR 29/08 A2982 960 27 2800 VRB/04 RMK AO2
14837KMSN MSN20120617132509306/17/12 13:25:31  5-MIN KMSN 171925Z VRB06KT 10SM CLR 29/08 A2982 960 27 2800 VRB/06 RMK AO2
14837KMSN MSN20120617133009306/17/12 13:30:31  5-MIN KMSN 171930Z 24005KT 10SM CLR 29/08 A2982 960 27 2800 250/05 RMK AO2
14837KMSN MSN20120617133509306/17/12 13:35:31  5-MIN KMSN 171935Z 25008KT 10SM CLR 29/08 A2982 960 26 2800 250/08 RMK AO2
14837KMSN MSN20120617134009306/17/12 13:40:31  5-MIN KMSN 171940Z 24007KT 10SM CLR 29/07 A2982 960 25 2800 240/07 RMK AO2
14837KMSN MSN20120617134509306/17/12 13:45:31  5-MIN KMSN 171945Z VRB06KT 10SM CLR 29/07 A2982 960 24 2900 VRB/06 RMK AO2
14837KMSN MSN20120617135011006/17/12 13:50:31  5-MIN KMSN 171950Z VRB05KT 10SM CLR 29/08 A2981 960 26 2800 VRB/05 RMK AO2 SLP090 T02890078
14837KMSN MSN20120617135509306/17/12 13:55:31  5-MIN KMSN 171955Z 22006KT 10SM CLR 29/08 A2981 960 26 2800 220/06 RMK AO2
14837KMSN MSN20120617140009306/17/12 14:00:31  5-MIN KMSN 172000Z 20004KT 10SM CLR 29/08 A2981 960 26 2800 210/04 RMK AO2
14837KMSN MSN20120617140509306/17/12 14:05:31  5-MIN KMSN 172005Z 22007KT 10SM CLR 29/08 A2981 960 26 2900 220/07 RMK AO2
14837KMSN MSN20120617141009306/17/12 14:10:31  5-MIN KMSN 172010Z 24005KT 10SM CLR 29/08 A2981 970 26 2800 240/05 RMK AO2
14837KMSN MSN20120617141509306/17/12 14:15:31  5-MIN KMSN 172015Z VRB04KT 10SM CLR 29/08 A2981 970 26 2900 VRB/04 RMK AO2
14837KMSN MSN20120617142009306/17/12 14:20:31  5-MIN KMSN 172020Z VRB06KT 10SM CLR 29/08 A2981 970 26 2900 VRB/06 RMK AO2
14837KMSN MSN20120617142509306/17/12 14:25:31  5-MIN KMSN 172025Z VRB04KT 10SM CLR 29/08 A2980 970 27 2800 VRB/04 RMK AO2
14837KMSN MSN20120617143009306/17/12 14:30:31  5-MIN KMSN 172030Z 24005KT 10SM CLR 29/09 A2980 970 27 2900 240/05 RMK AO2
14837KMSN MSN20120617143509306/17/12 14:35:31  5-MIN KMSN 172035Z 27004KT 10SM CLR 30/09 A2980 970 27 2900 270/04 RMK AO2
14837KMSN MSN20120617144009306/17/12 14:40:31  5-MIN KMSN 172040Z VRB06KT 10SM CLR 29/09 A2980 970 28 2900 VRB/06 RMK AO2
14837KMSN MSN20120617144509306/17/12 14:45:31  5-MIN KMSN 172045Z 26004KT 10SM CLR 29/09 A2980 970 28 2900 260/04 RMK AO2
14837KMSN MSN20120617145011606/17/12 14:50:31  5-MIN KMSN 172050Z VRB03KT 10SM CLR 30/10 A2980 970 28 2900 VRB/03 RMK AO2 SLP086 T03000100 58015
14837KMSN MSN20120617145509306/17/12 14:55:31  5-MIN KMSN 172055Z 25005KT 10SM CLR 29/10 A2980 970 29 2900 250/05 RMK AO2
14837KMSN MSN20120617150009306/17/12 15:00:31  5-MIN KMSN 172100Z 23007KT 10SM CLR 29/09 A2980 980 28 2900 230/07 RMK AO2
14837KMSN MSN20120617150509306/17/12 15:05:31  5-MIN KMSN 172105Z 24006KT 10SM CLR 29/09 A2980 980 28 2900 240/06 RMK AO2
14837KMSN MSN20120617151009306/17/12 15:10:31  5-MIN KMSN 172110Z 22007KT 10SM CLR 29/09 A2980 980 28 2900 230/07 RMK AO2
14837KMSN MSN20120617151509306/17/12 15:15:31  5-MIN KMSN 172115Z 26006KT 10SM CLR 29/09 A2980 980 27 2900 260/06 RMK AO2
14837KMSN MSN20120617152009306/17/12 15:20:31  5-MIN KMSN 172120Z VRB04KT 10SM CLR 29/09 A2980 970 27 2900 VRB/04 RMK AO2
14837KMSN MSN20120617152509306/17/12 15:25:31  5-MIN KMSN 172125Z 21005KT 10SM CLR 29/09 A2980 970 27 2900 220/05 RMK AO2
14837KMSN MSN20120617153009306/17/12 15:30:31  5-MIN KMSN 172130Z VRB04KT 10SM CLR 29/10 A2980 970 29 2900 VRB/04 RMK AO2
14837KMSN MSN20120617153509306/17/12 15:35:31  5-MIN KMSN 172135Z 23006KT 10SM CLR 29/11 A2980 980 30 2900 230/06 RMK AO2
14837KMSN MSN20120617154009306/17/12 15:40:31  5-MIN KMSN 172140Z VRB04KT 10SM CLR 29/10 A2980 980 29 2900 VRB/04 RMK AO2
14837KMSN MSN20120617154509306/17/12 15:45:31  5-MIN KMSN 172145Z VRB05KT 10SM CLR 29/10 A2980 980 29 2900 VRB/05 RMK AO2
14837KMSN MSN20120617155012606/17/12 15:50:31  5-MIN KMSN 172150Z 23007KT 200V260 10SM CLR 29/10 A2980 980 29 2900 230/07 200V260 RMK AO2 SLP085 T02940100
14837KMSN MSN20120617155509306/17/12 15:55:31  5-MIN KMSN 172155Z 25005KT 10SM CLR 29/10 A2980 980 29 2900 250/05 RMK AO2
14837KMSN MSN20120617160009306/17/12 16:00:31  5-MIN KMSN 172200Z 24004KT 10SM CLR 29/10 A2980 980 30 2800 240/04 RMK AO2
14837KMSN MSN20120617160509306/17/12 16:05:31  5-MIN KMSN 172205Z VRB04KT 10SM CLR 29/11 A2980 980 31 2800 VRB/04 RMK AO2
14837KMSN MSN20120617161009306/17/12 16:10:31  5-MIN KMSN 172210Z 24005KT 10SM CLR 29/11 A2980 980 31 2900 240/05 RMK AO2
14837KMSN MSN20120617161509306/17/12 16:15:31  5-MIN KMSN 172215Z VRB05KT 10SM CLR 29/11 A2980 980 31 2800 VRB/05 RMK AO2
14837KMSN MSN20120617162009606/17/12 16:20:31  5-MIN KMSN 172220Z 25005KT 10SM FEW110 28/11 A2980 980 32 2800 260/05 RMK AO2
14837KMSN MSN20120617162509606/17/12 16:25:31  5-MIN KMSN 172225Z 23005KT 10SM SCT110 28/11 A2980 980 32 2800 230/05 RMK AO2
14837KMSN MSN20120617163009606/17/12 16:30:31  5-MIN KMSN 172230Z 23004KT 10SM BKN110 28/11 A2980 980 35 2700 230/04 RMK AO2
14837KMSN MSN20120617163509606/17/12 16:35:31  5-MIN KMSN 172235Z VRB04KT 10SM BKN110 28/11 A2979 980 33 2800 VRB/04 RMK AO2
14837KMSN MSN20120617164009606/17/12 16:40:31  5-MIN KMSN 172240Z 23004KT 10SM BKN110 28/11 A2979 980 33 2800 230/04 RMK AO2
14837KMSN MSN20120617164509606/17/12 16:45:31  5-MIN KMSN 172245Z 23004KT 10SM OVC110 28/11 A2979 980 33 2800 230/04 RMK AO2
14837KMSN MSN20120617165011306/17/12 16:50:31  5-MIN KMSN 172250Z 24004KT 10SM SCT110 28/11 A2979 980 33 2800 240/04 RMK AO2 SLP084 T02830111
14837KMSN MSN20120617165509606/17/12 16:55:31  5-MIN KMSN 172255Z 23005KT 10SM BKN110 28/12 A2979 980 35 2800 230/05 RMK AO2
14837KMSN MSN20120617170009606/17/12 17:00:31  5-MIN KMSN 172300Z 23003KT 10SM BKN110 28/12 A2979 980 37 2700 240/03 RMK AO2
14837KMSN MSN20120617170509606/17/12 17:05:31  5-MIN KMSN 172305Z VRB03KT 10SM SCT110 28/12 A2979 980 37 2700 VRB/03 RMK AO2
14837KMSN MSN20120617171009606/17/12 17:10:31  5-MIN KMSN 172310Z VRB03KT 10SM SCT110 28/12 A2979 980 37 2700 VRB/03 RMK AO2
14837KMSN MSN20120617171509606/17/12 17:15:31  5-MIN KMSN 172315Z VRB04KT 10SM FEW110 28/12 A2980 980 37 2700 VRB/04 RMK AO2
14837KMSN MSN20120617172009306/17/12 17:20:31  5-MIN KMSN 172320Z 23004KT 10SM CLR 28/12 A2980 980 37 2700 230/04 RMK AO2
14837KMSN MSN20120617172509306/17/12 17:25:31  5-MIN KMSN 172325Z 23005KT 10SM CLR 28/13 A2980 980 39 2700 230/05 RMK AO2
14837KMSN MSN20120617173009306/17/12 17:30:31  5-MIN KMSN 172330Z 23004KT 10SM CLR 28/13 A2980 980 40 2700 240/04 RMK AO2
14837KMSN MSN20120617173509606/17/12 17:35:31  5-MIN KMSN 172335Z 23005KT 10SM FEW100 27/13 A2980 980 42 2600 230/05 RMK AO2
14837KMSN MSN20120617174009606/17/12 17:40:31  5-MIN KMSN 172340Z 23005KT 10SM FEW100 28/13 A2980 980 39 2700 230/05 RMK AO2
14837KMSN MSN20120617174509306/17/12 17:45:31  5-MIN KMSN 172345Z 22005KT 10SM CLR 28/12 A2980 980 37 2700 220/05 RMK AO2
14837KMSN MSN20120617175013106/17/12 17:50:31  5-MIN KMSN 172350Z 21006KT 10SM FEW100 28/12 A2980 980 37 2700 220/06 RMK AO2 SLP084 T02780122 10300 20267 56017
14837KMSN MSN20120617175509306/17/12 17:55:31  5-MIN KMSN 172355Z VRB05KT 10SM CLR 28/12 A2980 980 37 2700 VRB/05 RMK AO2
14837KMSN MSN20120617180009306/17/12 18:00:31  5-MIN KMSN 180000Z 23008KT 10SM CLR 28/13 A2980 980 39 2700 230/08 RMK AO2
14837KMSN MSN20120617180509306/17/12 18:05:31  5-MIN KMSN 180005Z 22005KT 10SM CLR 28/13 A2980 980 39 2700 230/05 RMK AO2
14837KMSN MSN20120617181009306/17/12 18:10:31  5-MIN KMSN 180010Z 21004KT 10SM CLR 27/13 A2980 980 40 2600 210/04 RMK AO2
14837KMSN MSN20120617181509306/17/12 18:15:31  5-MIN KMSN 180015Z 20008KT 10SM CLR 28/13 A2979 980 39 2700 200/08 RMK AO2
14837KMSN MSN20120617182009906/17/12 18:20:31  5-MIN KMSN 180020Z 20006G14KT 10SM CLR 28/12 A2979 980 37 2700 210/06G14 RMK AO2
14837KMSN MSN20120617182509906/17/12 18:25:31  5-MIN KMSN 180025Z 21008G14KT 10SM CLR 27/12 A2979 980 39 2600 220/08G14 RMK AO2
14837KMSN MSN20120617183009306/17/12 18:30:31  5-MIN KMSN 180030Z 22005KT 10SM CLR 27/12 A2979 980 39 2600 220/05 RMK AO2
14837KMSN MSN20120617183509306/17/12 18:35:31  5-MIN KMSN 180035Z 22004KT 10SM CLR 27/12 A2979 980 39 2600 220/04 RMK AO2
14837KMSN MSN20120617184009306/17/12 18:40:31  5-MIN KMSN 180040Z 22004KT 10SM CLR 27/12 A2979 980 39 2600 220/04 RMK AO2
14837KMSN MSN20120617184509306/17/12 18:45:31  5-MIN KMSN 180045Z 20005KT 10SM CLR 27/12 A2979 980 39 2700 210/05 RMK AO2
14837KMSN MSN20120617185011006/17/12 18:50:31  5-MIN KMSN 180050Z 18006KT 10SM CLR 27/12 A2979 990 39 2700 180/06 RMK AO2 SLP082 T02720122
14837KMSN MSN20120617185509306/17/12 18:55:31  5-MIN KMSN 180055Z 18008KT 10SM CLR 27/12 A2979 990 39 2700 180/08 RMK AO2
14837KMSN MSN20120617190009306/17/12 19:00:31  5-MIN KMSN 180100Z 18008KT 10SM CLR 27/12 A2979 990 40 2600 180/08 RMK AO2
14837KMSN MSN20120617190509306/17/12 19:05:31  5-MIN KMSN 180105Z 18008KT 10SM CLR 27/13 A2979 990 41 2600 190/08 RMK AO2
14837KMSN MSN20120617191009306/17/12 19:10:31  5-MIN KMSN 180110Z 18008KT 10SM CLR 27/13 A2978 990 41 2600 190/08 RMK AO2
14837KMSN MSN20120617191509306/17/12 19:15:31  5-MIN KMSN 180115Z 18007KT 10SM CLR 27/13 A2978 990 41 2600 190/07 RMK AO2
14837KMSN MSN20120617192009306/17/12 19:20:31  5-MIN KMSN 180120Z 19007KT 10SM CLR 27/13 A2978 990 41 2600 190/07 RMK AO2
14837KMSN MSN20120617192509306/17/12 19:25:31  5-MIN KMSN 180125Z 19007KT 10SM CLR 27/13 A2978 990 41 2600 190/07 RMK AO2
14837KMSN MSN20120617193009306/17/12 19:30:31  5-MIN KMSN 180130Z 19009KT 10SM CLR 26/13 A2978 990 43 2500 190/09 RMK AO2
14837KMSN MSN20120617193509306/17/12 19:35:31  5-MIN KMSN 180135Z 19008KT 10SM CLR 26/13 A2978 990 43 2500 190/08 RMK AO2
14837KMSN MSN20120617194009306/17/12 19:40:31  5-MIN KMSN 180140Z 18007KT 10SM CLR 26/13 A2978 990 43 2500 190/07 RMK AO2
14837KMSN MSN20120617194509406/17/12 19:45:31  5-MIN KMSN 180145Z 18007KT 10SM CLR 26/13 A2978 1000 43 2500 180/07 RMK AO2
14837KMSN MSN20120617195011106/17/12 19:50:31  5-MIN KMSN 180150Z 18007KT 10SM CLR 26/13 A2978 1000 43 2500 180/07 RMK AO2 SLP078 T02610128
14837KMSN MSN20120617195509406/17/12 19:55:31  5-MIN KMSN 180155Z 18007KT 10SM CLR 26/13 A2978 1000 44 2500 190/07 RMK AO2
14837KMSN MSN20120617200009406/17/12 20:00:31  5-MIN KMSN 180200Z 18006KT 10SM CLR 26/13 A2977 1000 44 2500 180/06 RMK AO2
14837KMSN MSN20120617200509406/17/12 20:05:31  5-MIN KMSN 180205Z 18007KT 10SM CLR 26/13 A2977 1000 44 2500 180/07 RMK AO2
14837KMSN MSN20120617201009406/17/12 20:10:31  5-MIN KMSN 180210Z 18006KT 10SM CLR 25/13 A2977 1010 46 2400 180/06 RMK AO2
14837KMSN MSN20120617201509406/17/12 20:15:31  5-MIN KMSN 180215Z 18006KT 10SM CLR 25/13 A2976 1010 46 2400 180/06 RMK AO2
14837KMSN MSN20120617202009406/17/12 20:20:31  5-MIN KMSN 180220Z 17007KT 10SM CLR 24/13 A2976 1010 49 2400 180/07 RMK AO2
14837KMSN MSN20120617202509406/17/12 20:25:31  5-MIN KMSN 180225Z 18006KT 10SM CLR 24/13 A2976 1010 49 2400 180/06 RMK AO2
14837KMSN MSN20120617203009406/17/12 20:30:31  5-MIN KMSN 180230Z 18006KT 10SM CLR 24/13 A2977 1010 49 2400 180/06 RMK AO2
14837KMSN MSN20120617203509406/17/12 20:35:31  5-MIN KMSN 180235Z 18006KT 10SM CLR 24/13 A2976 1010 49 2400 180/06 RMK AO2
14837KMSN MSN20120617204009406/17/12 20:40:31  5-MIN KMSN 180240Z 18006KT 10SM CLR 24/13 A2976 1010 49 2400 180/06 RMK AO2
14837KMSN MSN20120617204509406/17/12 20:45:31  5-MIN KMSN 180245Z 17007KT 10SM CLR 24/13 A2976 1010 49 2400 170/07 RMK AO2
14837KMSN MSN20120617205011706/17/12 20:50:31  5-MIN KMSN 180250Z 17007KT 10SM CLR 24/13 A2977 1010 49 2400 170/07 RMK AO2 SLP074 T02440133 55002
14837KMSN MSN20120617205509406/17/12 20:55:31  5-MIN KMSN 180255Z 18005KT 10SM CLR 24/13 A2977 1010 49 2400 180/05 RMK AO2
14837KMSN MSN20120617210009706/17/12 21:00:31  5-MIN KMSN 180300Z 18005KT 10SM FEW110 24/14 A2977 1000 51 2400 180/05 RMK AO2
14837KMSN MSN20120617210509706/17/12 21:05:31  5-MIN KMSN 180305Z 18005KT 10SM FEW110 24/14 A2977 1000 51 2400 180/05 RMK AO2
14837KMSN MSN20120617211009706/17/12 21:10:31  5-MIN KMSN 180310Z 18005KT 10SM FEW110 24/14 A2976 1010 51 2400 180/05 RMK AO2
14837KMSN MSN20120617211509706/17/12 21:15:31  5-MIN KMSN 180315Z 17007KT 10SM FEW110 24/14 A2976 1010 51 2400 170/07 RMK AO2
14837KMSN MSN20120617212009706/17/12 21:20:31  5-MIN KMSN 180320Z 18006KT 10SM FEW110 24/14 A2976 1010 51 2400 180/06 RMK AO2
14837KMSN MSN20120617212509706/17/12 21:25:31  5-MIN KMSN 180325Z 18007KT 10SM FEW110 24/14 A2976 1010 51 2400 190/07 RMK AO2
14837KMSN MSN20120617213009706/17/12 21:30:31  5-MIN KMSN 180330Z 18008KT 10SM FEW110 24/14 A2976 1010 51 2400 180/08 RMK AO2
14837KMSN MSN20120617213509706/17/12 21:35:31  5-MIN KMSN 180335Z 18008KT 10SM SCT110 24/14 A2976 1010 51 2400 180/08 RMK AO2
14837KMSN MSN20120617214009706/17/12 21:40:31  5-MIN KMSN 180340Z 18008KT 10SM SCT110 24/14 A2976 1010 51 2400 180/08 RMK AO2
14837KMSN MSN20120617214509706/17/12 21:45:31  5-MIN KMSN 180345Z 18008KT 10SM BKN110 24/14 A2975 1020 51 2400 180/08 RMK AO2
14837KMSN MSN20120617215011406/17/12 21:50:31  5-MIN KMSN 180350Z 18008KT 10SM SCT110 24/14 A2975 1020 53 2300 180/08 RMK AO2 SLP069 T02390139
14837KMSN MSN20120617215509706/17/12 21:55:31  5-MIN KMSN 180355Z 18008KT 10SM BKN110 24/14 A2975 1020 53 2300 180/08 RMK AO2
14837KMSN MSN20120617220009706/17/12 22:00:31  5-MIN KMSN 180400Z 17010KT 10SM BKN100 24/14 A2975 1030 53 2300 170/10 RMK AO2
14837KMSN MSN20120617220509706/17/12 22:05:31  5-MIN KMSN 180405Z 17009KT 10SM SCT100 24/14 A2975 1030 53 2300 170/09 RMK AO2
14837KMSN MSN20120617221009706/17/12 22:10:31  5-MIN KMSN 180410Z 18009KT 10SM FEW100 24/14 A2975 1020 53 2300 180/09 RMK AO2
14837KMSN MSN20120617221509706/17/12 22:15:31  5-MIN KMSN 180415Z 17009KT 10SM FEW100 24/14 A2975 1020 53 2300 180/09 RMK AO2
14837KMSN MSN20120617222009706/17/12 22:20:31  5-MIN KMSN 180420Z 17010KT 10SM FEW100 24/14 A2975 1030 53 2300 170/10 RMK AO2
14837KMSN MSN20120617222509706/17/12 22:25:31  5-MIN KMSN 180425Z 17010KT 10SM FEW100 24/14 A2974 1030 53 2300 170/10 RMK AO2
14837KMSN MSN20120617223009706/17/12 22:30:31  5-MIN KMSN 180430Z 17009KT 10SM FEW100 24/14 A2975 1030 53 2300 180/09 RMK AO2
14837KMSN MSN20120617223509706/17/12 22:35:31  5-MIN KMSN 180435Z 18008KT 10SM SCT100 24/14 A2975 1030 53 2300 180/08 RMK AO2
14837KMSN MSN20120617224009706/17/12 22:40:31  5-MIN KMSN 180440Z 17008KT 10SM BKN100 24/14 A2974 1030 53 2300 180/08 RMK AO2
14837KMSN MSN20120617224509706/17/12 22:45:31  5-MIN KMSN 180445Z 18009KT 10SM BKN100 24/14 A2974 1030 53 2300 180/09 RMK AO2
14837KMSN MSN20120617225011406/17/12 22:50:31  5-MIN KMSN 180450Z 17009KT 10SM BKN100 24/14 A2974 1030 53 2300 180/09 RMK AO2 SLP063 T02390139
14837KMSN MSN20120617225509706/17/12 22:55:31  5-MIN KMSN 180455Z 17011KT 10SM BKN100 24/14 A2973 1040 53 2300 170/11 RMK AO2
14837KMSN MSN20120617230009706/17/12 23:00:31  5-MIN KMSN 180500Z 18012KT 10SM BKN100 24/14 A2973 1040 53 2300 180/12 RMK AO2
14837KMSN MSN20120617230510406/17/12 23:05:31  5-MIN KMSN 180505Z 18011KT 10SM BKN100 BKN120 24/14 A2973 1040 53 2300 180/11 RMK AO2
14837KMSN MSN20120617231009706/17/12 23:10:31  5-MIN KMSN 180510Z 17013KT 10SM SCT100 24/14 A2972 1050 53 2400 170/13 RMK AO2
14837KMSN MSN20120617231509706/17/12 23:15:31  5-MIN KMSN 180515Z 17012KT 10SM BKN100 24/14 A2972 1050 53 2400 170/12 RMK AO2
14837KMSN MSN20120617232010406/17/12 23:20:31  5-MIN KMSN 180520Z 17012KT 10SM BKN100 BKN110 24/14 A2972 1050 53 2400 170/12 RMK AO2
14837KMSN MSN20120617232509706/17/12 23:25:31  5-MIN KMSN 180525Z 18012KT 10SM SCT095 24/14 A2972 1050 53 2400 180/12 RMK AO2
14837KMSN MSN20120617233009706/17/12 23:30:31  5-MIN KMSN 180530Z 18011KT 10SM FEW095 24/14 A2973 1040 53 2400 190/11 RMK AO2
14837KMSN MSN20120617233509706/17/12 23:35:31  5-MIN KMSN 180535Z 18009KT 10SM SCT100 24/14 A2973 1040 53 2300 190/09 RMK AO2
14837KMSN MSN20120617234009706/17/12 23:40:31  5-MIN KMSN 180540Z 18010KT 10SM FEW100 24/14 A2973 1040 53 2400 190/10 RMK AO2
14837KMSN MSN20120617234509706/17/12 23:45:31  5-MIN KMSN 180545Z 19010KT 10SM FEW100 24/14 A2973 1040 55 2300 190/10 RMK AO2
14837KMSN MSN20120617235014206/17/12 23:50:31  5-MIN KMSN 180550Z 19009KT 10SM FEW110 24/14 A2973 1040 55 2400 190/09 RMK AO2 SLP060 T02390144 10278 20239 403000161 58010
14837KMSN MSN20120617235509706/17/12 23:55:31  5-MIN KMSN 180555Z 19009KT 10SM FEW110 24/14 A2973 1040 55 2400 190/09 RMK AO2
14837KMSN MSN20120618000010406/18/12 00:00:32  5-MIN KMSN 180600Z 18008KT 10SM FEW080 SCT110 24/14 A2973 1040 55 2400 190/08 RMK AO2
14837KMSN MSN20120618000512006/18/12 00:05:31  5-MIN KMSN 180605Z 18007KT 10SM -RA FEW055 BKN110 24/15 A2972 1050 57 2400 180/07 RMK AO2 RAB02 P0000
14837KMSN MSN20120618001011306/18/12 00:10:31  5-MIN KMSN 180610Z 18008KT 10SM -RA SCT110 23/16 A2972 1050 61 2300 190/08 RMK AO2 RAB02 P0000
14837KMSN MSN20120618001512006/18/12 00:15:31  5-MIN KMSN 180615Z 18008KT 10SM -RA FEW100 BKN110 23/16 A2972 1050 63 2300 180/08 RMK AO2 RAB02 P0000
14837KMSN MSN20120618002011206/18/12 00:20:31  5-MIN KMSN 180620Z 17009KT 10SM BKN100 23/16 A2972 1050 63 2300 180/09 RMK AO2 RAB02E18 P0000
14837KMSN MSN20120618002511206/18/12 00:25:31  5-MIN KMSN 180625Z 18010KT 10SM BKN100 23/16 A2971 1050 63 2300 180/10 RMK AO2 RAB02E18 P0000
14837KMSN MSN20120618003011906/18/12 00:30:31  5-MIN KMSN 180630Z 18011KT 10SM BKN100 OVC110 24/16 A2971 1060 59 2400 180/11 RMK AO2 RAB02E18 P0000
14837KMSN MSN20120618003512606/18/12 00:35:31  5-MIN KMSN 180635Z 17010KT 10SM FEW075 BKN095 OVC110 24/16 A2971 1060 59 2400 170/10 RMK AO2 RAB02E18 P0000
14837KMSN MSN20120618004011906/18/12 00:40:31  5-MIN KMSN 180640Z 17010KT 10SM SCT075 OVC100 23/16 A2970 1060 63 2300 170/10 RMK AO2 RAB02E18 P0000
14837KMSN MSN20120618004511906/18/12 00:45:31  5-MIN KMSN 180645Z 17012KT 10SM SCT075 BKN100 23/16 A2970 1070 63 2300 170/12 RMK AO2 RAB02E18 P0000
14837KMSN MSN20120618005013606/18/12 00:50:31  5-MIN KMSN 180650Z 17010KT 10SM FEW075 BKN100 24/16 A2970 1070 59 2400 170/10 RMK AO2 RAB02E18 SLP051 P0000 T02390156
14837KMSN MSN20120618005510406/18/12 00:55:31  5-MIN KMSN 180655Z 17010KT 10SM FEW075 OVC100 24/16 A2970 1070 59 2400 170/10 RMK AO2
14837KMSN MSN20120618010011106/18/12 01:00:31  5-MIN KMSN 180700Z 16010KT 10SM FEW055 SCT070 OVC100 24/16 A2969 1070 59 2400 170/10 RMK AO2
14837KMSN MSN20120618010511106/18/12 01:05:31  5-MIN KMSN 180705Z 16014KT 10SM SCT055 BKN080 BKN100 24/16 A2969 1080 59 2400 160/14 RMK AO2
14837KMSN MSN20120618011010406/18/12 01:10:31  5-MIN KMSN 180710Z 17014KT 10SM BKN055 OVC100 24/16 A2968 1080 59 2400 170/14 RMK AO2
14837KMSN MSN20120618011510406/18/12 01:15:31  5-MIN KMSN 180715Z 17015KT 10SM BKN055 BKN110 24/16 A2968 1080 59 2400 170/15 RMK AO2
14837KMSN MSN20120618012010406/18/12 01:20:31  5-MIN KMSN 180720Z 17015KT 10SM BKN055 BKN110 24/16 A2968 1090 59 2400 170/15 RMK AO2
14837KMSN MSN20120618012509706/18/12 01:25:31  5-MIN KMSN 180725Z 17016KT 10SM BKN055 24/16 A2967 1090 59 2400 170/16 RMK AO2
14837KMSN MSN20120618013009706/18/12 01:30:31  5-MIN KMSN 180730Z 16016KT 10SM SCT055 24/16 A2967 1100 59 2400 160/16 RMK AO2
14837KMSN MSN20120618013510406/18/12 01:35:31  5-MIN KMSN 180735Z 16015KT 10SM FEW050 23/16 A2966 1110 63 2400 160/15 RMK AO2 PRESFR
14837KMSN MSN20120618014009706/18/12 01:40:31  5-MIN KMSN 180740Z 16013KT 10SM FEW055 23/16 A2966 1100 63 2400 160/13 RMK AO2
14837KMSN MSN20120618014509706/18/12 01:45:31  5-MIN KMSN 180745Z 17013KT 10SM FEW055 23/16 A2966 1100 63 2400 170/13 RMK AO2
14837KMSN MSN20120618015011106/18/12 01:50:31  5-MIN KMSN 180750Z 17013KT 10SM CLR 23/16 A2967 1100 63 2400 170/13 RMK AO2 SLP039 T02330161
14837KMSN MSN20120618015509406/18/12 01:55:31  5-MIN KMSN 180755Z 18013KT 10SM CLR 23/17 A2967 1100 66 2400 180/13 RMK AO2
14837KMSN MSN20120618020009706/18/12 02:00:31  5-MIN KMSN 180800Z 17010KT 10SM SCT070 23/17 A2967 1100 66 2400 180/10 RMK AO2
14837KMSN MSN20120618020510406/18/12 02:05:31  5-MIN KMSN 180805Z 18011KT 10SM FEW050 BKN070 23/17 A2967 1100 68 2400 180/11 RMK AO2
14837KMSN MSN20120618021010406/18/12 02:10:31  5-MIN KMSN 180810Z 17011KT 10SM BKN050 BKN070 24/17 A2967 1100 66 2400 170/11 RMK AO2
14837KMSN MSN20120618021510406/18/12 02:15:31  5-MIN KMSN 180815Z 18011KT 10SM BKN050 BKN070 24/17 A2966 1100 66 2400 180/11 RMK AO2
14837KMSN MSN20120618022010406/18/12 02:20:31  5-MIN KMSN 180820Z 18011KT 10SM BKN050 OVC070 24/17 A2966 1100 66 2400 180/11 RMK AO2
14837KMSN MSN20120618022510406/18/12 02:25:31  5-MIN KMSN 180825Z 18011KT 10SM BKN050 OVC070 24/18 A2966 1100 68 2400 180/11 RMK AO2
14837KMSN MSN20120618023009706/18/12 02:30:31  5-MIN KMSN 180830Z 18011KT 10SM OVC050 24/18 A2966 1100 68 2400 180/11 RMK AO2
14837KMSN MSN20120618023509706/18/12 02:35:31  5-MIN KMSN 180835Z 19012KT 10SM OVC050 24/18 A2966 1100 68 2400 190/12 RMK AO2
14837KMSN MSN20120618024009706/18/12 02:40:31  5-MIN KMSN 180840Z 18013KT 10SM OVC050 24/18 A2966 1110 68 2500 180/13 RMK AO2
14837KMSN MSN20120618024511006/18/12 02:45:31  5-MIN KMSN 180845Z 19014G20KT 10SM BKN050 OVC070 24/18 A2965 1110 68 2500 200/14G20 RMK AO2
14837KMSN MSN20120618025013206/18/12 02:50:31  5-MIN KMSN 180850Z 19015G20KT 10SM BKN055 24/18 A2965 1110 68 2500 190/15G20 RMK AO2 SLP034 60000 T02440183 56013
14837KMSN MSN20120618025510306/18/12 02:55:31  5-MIN KMSN 180855Z 19014G20KT 10SM BKN055 24/18 A2965 1120 68 2500 190/14G20 RMK AO2
14837KMSN MSN20120618030011006/18/12 03:00:31  5-MIN KMSN 180900Z 19015G21KT 10SM SCT055 BKN075 24/18 A2964 1120 71 2400 190/15G21 RMK AO2
14837KMSN MSN20120618030511006/18/12 03:05:31  5-MIN KMSN 180905Z 19012G21KT 10SM SCT055 SCT070 24/18 A2964 1120 71 2400 190/12G21 RMK AO2
14837KMSN MSN20120618031011006/18/12 03:10:31  5-MIN KMSN 180910Z 19012G20KT 10SM SCT060 SCT075 24/18 A2964 1120 71 2400 190/12G20 RMK AO2
14837KMSN MSN20120618031511006/18/12 03:15:31  5-MIN KMSN 180915Z 19009G20KT 10SM FEW060 SCT075 24/18 A2965 1120 71 2400 190/09G20 RMK AO2
14837KMSN MSN20120618032009706/18/12 03:20:31  5-MIN KMSN 180920Z 19009KT 10SM SCT070 24/18 A2965 1110 71 2400 190/09 RMK AO2
14837KMSN MSN20120618032509706/18/12 03:25:31  5-MIN KMSN 180925Z 19011KT 10SM BKN070 24/18 A2966 1110 71 2400 190/11 RMK AO2
14837KMSN MSN20120618033009706/18/12 03:30:31  5-MIN KMSN 180930Z 19009KT 10SM BKN070 24/18 A2965 1110 71 2400 190/09 RMK AO2
14837KMSN MSN20120618033509706/18/12 03:35:31  5-MIN KMSN 180935Z 19010KT 10SM BKN070 24/18 A2965 1110 71 2400 190/10 RMK AO2
14837KMSN MSN20120618034009706/18/12 03:40:31  5-MIN KMSN 180940Z 19010KT 10SM BKN070 24/18 A2965 1110 71 2400 190/10 RMK AO2
14837KMSN MSN20120618034510306/18/12 03:45:31  5-MIN KMSN 180945Z 19010G16KT 10SM BKN070 24/18 A2965 1110 71 2400 190/10G16 RMK AO2
14837KMSN MSN20120618035012006/18/12 03:50:31  5-MIN KMSN 180950Z 19010G16KT 10SM BKN075 24/18 A2966 1110 71 2400 190/10G16 RMK AO2 SLP034 T02390183
14837KMSN MSN20120618035509706/18/12 03:55:31  5-MIN KMSN 180955Z 18011KT 10SM BKN075 24/19 A2965 1110 73 2400 190/11 RMK AO2
14837KMSN MSN20120618040009706/18/12 04:00:31  5-MIN KMSN 181000Z 18010KT 10SM SCT075 24/19 A2965 1110 73 2400 190/10 RMK AO2
14837KMSN MSN20120618040509706/18/12 04:05:31  5-MIN KMSN 181005Z 19010KT 10SM SCT075 24/19 A2966 1110 73 2400 190/10 RMK AO2
14837KMSN MSN20120618041009706/18/12 04:10:31  5-MIN KMSN 181010Z 19010KT 10SM BKN075 24/19 A2966 1110 73 2400 190/10 RMK AO2
14837KMSN MSN20120618041509706/18/12 04:15:31  5-MIN KMSN 181015Z 19009KT 10SM SCT075 24/19 A2966 1110 73 2400 190/09 RMK AO2
14837KMSN MSN20120618042009706/18/12 04:20:31  5-MIN KMSN 181020Z 19008KT 10SM FEW075 24/19 A2965 1110 73 2400 190/08 RMK AO2
14837KMSN MSN20120618042509706/18/12 04:25:31  5-MIN KMSN 181025Z 19008KT 10SM FEW075 24/19 A2966 1110 73 2400 190/08 RMK AO2
14837KMSN MSN20120618043009706/18/12 04:30:31  5-MIN KMSN 181030Z 19008KT 10SM FEW075 24/19 A2966 1110 73 2400 190/08 RMK AO2
14837KMSN MSN20120618043509706/18/12 04:35:31  5-MIN KMSN 181035Z 19009KT 10SM FEW075 24/19 A2965 1110 73 2400 190/09 RMK AO2
14837KMSN MSN20120618044009406/18/12 04:40:31  5-MIN KMSN 181040Z 18008KT 10SM CLR 24/19 A2965 1120 73 2400 180/08 RMK AO2
14837KMSN MSN20120618044509406/18/12 04:45:31  5-MIN KMSN 181045Z 18010KT 10SM CLR 24/19 A2964 1120 73 2400 190/10 RMK AO2
14837KMSN MSN20120618045012106/18/12 04:50:31  5-MIN KMSN 181050Z 19010KT 10SM SCT075 OVC120 24/19 A2964 1120 73 2400 190/10 RMK AO2 SLP030 T02390189
14837KMSN MSN20120618045510006/18/12 04:55:31  5-MIN KMSN 181055Z 19010G16KT 10SM CLR 24/19 A2964 1120 73 2400 190/10G16 RMK AO2
14837KMSN MSN20120618050010006/18/12 05:00:31  5-MIN KMSN 181100Z 18012G16KT 10SM CLR 24/19 A2964 1130 73 2500 180/12G16 RMK AO2
14837KMSN MSN20120618050509406/18/12 05:05:31  5-MIN KMSN 181105Z 18011KT 10SM CLR 24/19 A2963 1130 73 2500 190/11 RMK AO2
14837KMSN MSN20120618051009406/18/12 05:10:31  5-MIN KMSN 181110Z 19010KT 10SM CLR 24/19 A2963 1130 76 2500 190/10 RMK AO2
14837KMSN MSN20120618051509406/18/12 05:15:31  5-MIN KMSN 181115Z 19011KT 10SM CLR 24/19 A2963 1130 76 2500 190/11 RMK AO2
14837KMSN MSN20120618052009406/18/12 05:20:31  5-MIN KMSN 181120Z 18010KT 10SM CLR 24/19 A2963 1130 76 2500 180/10 RMK AO2
14837KMSN MSN20120618052509406/18/12 05:25:31  5-MIN KMSN 181125Z 19010KT 10SM CLR 24/19 A2963 1130 76 2500 190/10 RMK AO2
14837KMSN MSN20120618053009406/18/12 05:30:31  5-MIN KMSN 181130Z 19010KT 10SM CLR 24/19 A2963 1130 76 2500 190/10 RMK AO2
14837KMSN MSN20120618053509406/18/12 05:35:31  5-MIN KMSN 181135Z 19009KT 10SM CLR 24/19 A2963 1130 73 2500 190/09 RMK AO2
14837KMSN MSN20120618054010006/18/12 05:40:31  5-MIN KMSN 181140Z 19009G18KT 10SM CLR 24/19 A2963 1130 73 2500 190/09G18 RMK AO2
14837KMSN MSN20120618054510006/18/12 05:45:31  5-MIN KMSN 181145Z 19012G20KT 10SM CLR 24/19 A2963 1130 73 2500 190/12G20 RMK AO2
14837KMSN MSN20120618055015106/18/12 05:50:31  5-MIN KMSN 181150Z 19010G20KT 10SM SCT080 OVC120 24/19 A2963 1130 73 2500 190/10G20 RMK AO2 SLP028 60000 T02440194 10244 20233 56025
14837KMSN MSN20120618055509406/18/12 05:55:31  5-MIN KMSN 181155Z 19010KT 10SM CLR 24/19 A2963 1130 73 2500 190/10 RMK AO2
14837KMSN MSN20120618060010006/18/12 06:00:31  5-MIN KMSN 181200Z 19008G15KT 10SM CLR 24/19 A2963 1130 73 2500 190/08G15 RMK AO2
14837KMSN MSN20120618060510006/18/12 06:05:31  5-MIN KMSN 181205Z 19010G17KT 10SM CLR 25/19 A2963 1130 71 2600 190/10G17 RMK AO2
14837KMSN MSN20120618061010006/18/12 06:10:31  5-MIN KMSN 181210Z 20013G18KT 10SM CLR 25/19 A2963 1130 71 2600 200/13G18 RMK AO2
14837KMSN MSN20120618061510006/18/12 06:15:31  5-MIN KMSN 181215Z 20011G18KT 10SM CLR 25/19 A2964 1130 71 2600 200/11G18 RMK AO2
14837KMSN MSN20120618062010006/18/12 06:20:31  5-MIN KMSN 181220Z 19010G18KT 10SM CLR 25/19 A2964 1130 71 2600 190/10G18 RMK AO2
14837KMSN MSN20120618062510006/18/12 06:25:31  5-MIN KMSN 181225Z 19012G19KT 10SM CLR 25/19 A2964 1130 71 2600 190/12G19 RMK AO2
14837KMSN MSN20120618063010006/18/12 06:30:31  5-MIN KMSN 181230Z 18013G19KT 10SM CLR 25/19 A2963 1130 71 2600 190/13G19 RMK AO2
14837KMSN MSN20120618063510006/18/12 06:35:31  5-MIN KMSN 181235Z 19011G20KT 10SM CLR 25/20 A2963 1130 73 2600 190/11G20 RMK AO2
14837KMSN MSN20120618064010006/18/12 06:40:31  5-MIN KMSN 181240Z 19013G20KT 10SM CLR 26/20 A2963 1130 71 2600 190/13G20 RMK AO2
14837KMSN MSN20120618064510006/18/12 06:45:31  5-MIN KMSN 181245Z 18015G23KT 10SM CLR 26/20 A2963 1140 71 2700 190/15G23 RMK AO2
14837KMSN MSN20120618065011706/18/12 06:50:31  5-MIN KMSN 181250Z 19018G23KT 10SM CLR 26/20 A2963 1140 71 2700 190/18G23 RMK AO2 SLP025 T02560200
14837KMSN MSN20120618065510006/18/12 06:55:31  5-MIN KMSN 181255Z 19013G22KT 10SM CLR 26/20 A2963 1140 71 2700 200/13G22 RMK AO2
14837KMSN MSN20120618070010006/18/12 07:00:31  5-MIN KMSN 181300Z 19017G22KT 10SM CLR 26/20 A2963 1130 71 2600 190/17G22 RMK AO2
14837KMSN MSN20120618070510006/18/12 07:05:31  5-MIN KMSN 181305Z 19011G22KT 10SM CLR 26/20 A2963 1130 71 2600 190/11G22 RMK AO2
14837KMSN MSN20120618071010306/18/12 07:10:31  5-MIN KMSN 181310Z 19011G20KT 10SM FEW100 26/20 A2963 1130 71 2600 190/11G20 RMK AO2
14837KMSN MSN20120618071510306/18/12 07:15:31  5-MIN KMSN 181315Z 20018G23KT 10SM FEW100 26/20 A2963 1130 71 2600 200/18G23 RMK AO2
14837KMSN MSN20120618072010306/18/12 07:20:31  5-MIN KMSN 181320Z 19012G23KT 10SM FEW100 26/20 A2964 1130 68 2700 190/12G23 RMK AO2
14837KMSN MSN20120618072510306/18/12 07:25:31  5-MIN KMSN 181325Z 18013G19KT 10SM FEW100 26/20 A2963 1130 68 2700 190/13G19 RMK AO2
14837KMSN MSN20120618073009706/18/12 07:30:31  5-MIN KMSN 181330Z 19013KT 10SM FEW100 26/20 A2963 1130 68 2700 190/13 RMK AO2
14837KMSN MSN20120618073510306/18/12 07:35:31  5-MIN KMSN 181335Z 19013G19KT 10SM FEW100 26/20 A2964 1130 68 2700 190/13G19 RMK AO2
14837KMSN MSN20120618074010306/18/12 07:40:31  5-MIN KMSN 181340Z 19011G19KT 10SM FEW100 26/20 A2963 1130 68 2700 190/11G19 RMK AO2
14837KMSN MSN20120618074510306/18/12 07:45:31  5-MIN KMSN 181345Z 19013G18KT 10SM SCT100 26/20 A2964 1130 68 2700 190/13G18 RMK AO2
14837KMSN MSN20120618075012006/18/12 07:50:31  5-MIN KMSN 181350Z 19014G19KT 10SM SCT100 27/20 A2963 1130 66 2800 190/14G19 RMK AO2 SLP027 T02670200
14837KMSN MSN20120618075510306/18/12 07:55:31  5-MIN KMSN 181355Z 19015G21KT 10SM SCT110 27/21 A2963 1130 66 2800 200/15G21 RMK AO2
14837KMSN MSN20120618080010306/18/12 08:00:31  5-MIN KMSN 181400Z 20012G21KT 10SM SCT110 28/21 A2963 1130 64 2900 200/12G21 RMK AO2
14837KMSN MSN20120618080509706/18/12 08:05:31  5-MIN KMSN 181405Z 19013KT 10SM SCT110 28/21 A2963 1130 64 2900 190/13 RMK AO2
14837KMSN MSN20120618081012106/18/12 08:10:31  5-MIN KMSN 181410Z 20014G26KT 10SM SCT110 28/20 A2963 1130 62 2900 200/14G26 RMK AO2 PK WND 19026/1407
14837KMSN MSN20120618081512106/18/12 08:15:31  5-MIN KMSN 181415Z 19012G26KT 10SM SCT110 28/21 A2963 1140 64 2900 200/12G26 RMK AO2 PK WND 19026/1407
14837KMSN MSN20120618082012106/18/12 08:20:31  5-MIN KMSN 181420Z 19015G21KT 10SM SCT110 28/21 A2963 1130 62 3000 200/15G21 RMK AO2 PK WND 19026/1407
14837KMSN MSN20120618082512106/18/12 08:25:31  5-MIN KMSN 181425Z 19013G21KT 10SM FEW120 29/21 A2963 1140 60 3000 190/13G21 RMK AO2 PK WND 19026/1407
14837KMSN MSN20120618083012106/18/12 08:30:31  5-MIN KMSN 181430Z 18016G21KT 10SM FEW120 28/21 A2963 1140 62 3000 190/16G21 RMK AO2 PK WND 19026/1407
14837KMSN MSN20120618083513706/18/12 08:35:31  5-MIN KMSN 181435Z 20010G21KT 180V240 10SM FEW120 29/21 A2962 1140 60 3000 200/10G21 180V240 RMK AO2 PK WND 19026/1407
14837KMSN MSN20120618084013706/18/12 08:40:31  5-MIN KMSN 181440Z 21010G16KT 180V240 10SM FEW120 29/21 A2963 1140 60 3000 210/10G16 180V240 RMK AO2 PK WND 19026/1407
14837KMSN MSN20120618084512106/18/12 08:45:31  5-MIN KMSN 181445Z 20014G22KT 10SM FEW120 29/20 A2963 1140 58 3000 200/14G22 RMK AO2 PK WND 19026/1407
14837KMSN MSN20120618085014406/18/12 08:50:31  5-MIN KMSN 181450Z 20009G25KT 10SM FEW120 29/20 A2962 1140 58 3000 200/09G25 RMK AO2 PK WND 19026/1407 SLP024 T02890200 58005
14837KMSN MSN20120618085511006/18/12 08:55:31  5-MIN KMSN 181455Z 19014G25KT 10SM FEW040 SCT120 29/21 A2962 1140 60 3000 190/14G25 RMK AO2
14837KMSN MSN20120618090011006/18/12 09:00:31  5-MIN KMSN 181500Z 19010G22KT 10SM FEW040 SCT120 29/21 A2963 1140 60 3000 190/10G22 RMK AO2
14837KMSN MSN20120618090511006/18/12 09:05:31  5-MIN KMSN 181505Z 22010G22KT 10SM FEW040 SCT120 29/21 A2963 1140 60 3000 220/10G22 RMK AO2
14837KMSN MSN20120618091010306/18/12 09:10:31  5-MIN KMSN 181510Z 20011G19KT 10SM FEW040 29/21 A2963 1140 58 3100 200/11G19 RMK AO2
14837KMSN MSN20120618091510306/18/12 09:15:31  5-MIN KMSN 181515Z 20012G19KT 10SM FEW040 29/21 A2962 1140 58 3100 200/12G19 RMK AO2
14837KMSN MSN20120618092010306/18/12 09:20:31  5-MIN KMSN 181520Z 20013G21KT 10SM FEW040 29/20 A2962 1140 56 3100 200/13G21 RMK AO2
14837KMSN MSN20120618092510306/18/12 09:25:31  5-MIN KMSN 181525Z 21012G21KT 10SM FEW040 29/20 A2962 1140 56 3100 210/12G21 RMK AO2
14837KMSN MSN20120618093010306/18/12 09:30:31  5-MIN KMSN 181530Z 19015G21KT 10SM FEW040 30/20 A2962 1140 54 3200 190/15G21 RMK AO2
14837KMSN MSN20120618093510306/18/12 09:35:31  5-MIN KMSN 181535Z 20012G21KT 10SM FEW040 29/20 A2962 1140 56 3100 200/12G21 RMK AO2
14837KMSN MSN20120618094010306/18/12 09:40:31  5-MIN KMSN 181540Z 19017G24KT 10SM FEW040 30/20 A2962 1150 54 3200 190/17G24 RMK AO2
14837KMSN MSN20120618094510306/18/12 09:45:31  5-MIN KMSN 181545Z 20015G24KT 10SM FEW040 29/20 A2962 1150 56 3100 200/15G24 RMK AO2
14837KMSN MSN20120618095012006/18/12 09:50:31  5-MIN KMSN 181550Z 22012G21KT 10SM FEW040 30/20 A2962 1150 54 3200 220/12G21 RMK AO2 SLP021 T03000200
14837KMSN MSN20120618095510306/18/12 09:55:31  5-MIN KMSN 181555Z 20013G22KT 10SM FEW100 30/20 A2961 1150 54 3200 200/13G22 RMK AO2
14837KMSN MSN20120618100010306/18/12 10:00:31  5-MIN KMSN 181600Z 21012G22KT 10SM FEW100 31/20 A2961 1150 52 3200 220/12G22 RMK AO2
14837KMSN MSN20120618100510006/18/12 10:05:31  5-MIN KMSN 181605Z 21011G20KT 10SM CLR 31/20 A2961 1150 52 3200 220/11G20 RMK AO2
14837KMSN MSN20120618101010306/18/12 10:10:31  5-MIN KMSN 181610Z 20011G21KT 10SM FEW100 31/20 A2961 1160 52 3200 200/11G21 RMK AO2
14837KMSN MSN20120618101510306/18/12 10:15:31  5-MIN KMSN 181615Z 20015G23KT 10SM FEW100 31/20 A2961 1160 51 3300 210/15G23 RMK AO2
14837KMSN MSN20120618102010306/18/12 10:20:31  5-MIN KMSN 181620Z 19017G24KT 10SM FEW100 31/20 A2960 1160 51 3300 190/17G24 RMK AO2
14837KMSN MSN20120618102511906/18/12 10:25:31  5-MIN KMSN 181625Z 21011G24KT 180V260 10SM FEW100 31/20 A2961 1160 51 3300 210/11G24 180V260 RMK AO2
14837KMSN MSN20120618103010306/18/12 10:30:31  5-MIN KMSN 181630Z 20013G22KT 10SM FEW100 31/19 A2961 1160 49 3300 200/13G22 RMK AO2
14837KMSN MSN20120618103510306/18/12 10:35:31  5-MIN KMSN 181635Z 21012G25KT 10SM FEW100 32/20 A2961 1150 49 3400 220/12G25 RMK AO2
14837KMSN MSN20120618104011906/18/12 10:40:31  5-MIN KMSN 181640Z 22013G25KT 190V250 10SM FEW100 31/20 A2961 1160 51 3300 220/13G25 190V250 RMK AO2
14837KMSN MSN20120618104510306/18/12 10:45:31  5-MIN KMSN 181645Z 21010G24KT 10SM FEW100 32/20 A2960 1160 49 3400 220/10G24 RMK AO2
14837KMSN MSN20120618105012006/18/12 10:50:31  5-MIN KMSN 181650Z 21009G22KT 10SM FEW100 32/19 A2960 1160 47 3400 210/09G22 RMK AO2 SLP015 T03170194
14837KMSN MSN20120618105510306/18/12 10:55:31  5-MIN KMSN 181655Z 19014G22KT 10SM FEW110 32/20 A2959 1170 48 3400 190/14G22 RMK AO2
14837KMSN MSN20120618110010306/18/12 11:00:31  5-MIN KMSN 181700Z 18015G22KT 10SM FEW110 32/20 A2959 1170 48 3400 190/15G22 RMK AO2
14837KMSN MSN20120618110510306/18/12 11:05:31  5-MIN KMSN 181705Z 19018G23KT 10SM FEW110 33/20 A2958 1180 46 3500 190/18G23 RMK AO2
14837KMSN MSN20120618111010306/18/12 11:10:31  5-MIN KMSN 181710Z 20015G24KT 10SM FEW110 32/20 A2958 1180 48 3400 200/15G24 RMK AO2
14837KMSN MSN20120618111512106/18/12 11:15:31  5-MIN KMSN 181715Z 19018G27KT 10SM FEW110 32/20 A2958 1180 48 3400 190/18G27 RMK AO2 PK WND 20027/1715
14837KMSN MSN20120618112012106/18/12 11:20:31  5-MIN KMSN 181720Z 19018G28KT 10SM FEW110 32/20 A2958 1180 48 3400 190/18G28 RMK AO2 PK WND 18028/1718
14837KMSN MSN20120618112512106/18/12 11:25:31  5-MIN KMSN 181725Z 18020G28KT 10SM FEW110 33/20 A2958 1180 46 3500 190/20G28 RMK AO2 PK WND 18028/1725
14837KMSN MSN20120618113012106/18/12 11:30:31  5-MIN KMSN 181730Z 18021G28KT 10SM FEW110 32/19 A2958 1180 46 3400 190/21G28 RMK AO2 PK WND 18028/1727
14837KMSN MSN20120618113512106/18/12 11:35:31  5-MIN KMSN 181735Z 20020G28KT 10SM FEW110 32/19 A2959 1180 46 3400 200/20G28 RMK AO2 PK WND 18028/1727
14837KMSN MSN20120618114012106/18/12 11:40:31  5-MIN KMSN 181740Z 21016G27KT 10SM FEW110 32/19 A2959 1170 46 3400 210/16G27 RMK AO2 PK WND 18028/1727
14837KMSN MSN20120618114512106/18/12 11:45:31  5-MIN KMSN 181745Z 19018G27KT 10SM FEW110 33/19 A2959 1170 44 3500 190/18G27 RMK AO2 PK WND 18028/1727
14837KMSN MSN20120618115015606/18/12 11:50:31  5-MIN KMSN 181750Z 21011G27KT 10SM FEW110 33/19 A2959 1170 44 3500 210/11G27 RMK AO2 PK WND 18028/1727 SLP012 T03280194 10328 20244 56004
14837KMSN MSN20120618115511006/18/12 11:55:31  5-MIN KMSN 181755Z 22011G24KT 10SM FEW050 SCT110 33/19 A2959 1170 44 3500 220/11G24 RMK AO2
14837KMSN MSN20120618120011006/18/12 12:00:31  5-MIN KMSN 181800Z 21009G19KT 10SM FEW050 SCT110 33/20 A2959 1170 46 3500 210/09G19 RMK AO2
14837KMSN MSN20120618120512806/18/12 12:05:31  5-MIN KMSN 181805Z 23013G26KT 10SM FEW050 SCT110 33/20 A2959 1170 46 3500 230/13G26 RMK AO2 PK WND 23026/1805
14837KMSN MSN20120618121014406/18/12 12:10:31  5-MIN KMSN 181810Z 20015G26KT 180V240 10SM FEW050 SCT110 33/20 A2959 1170 46 3500 200/15G26 180V240 RMK AO2 PK WND 23026/1805
14837KMSN MSN20120618121512806/18/12 12:15:31  5-MIN KMSN 181815Z 19017G25KT 10SM FEW050 SCT110 33/19 A2959 1170 44 3500 190/17G25 RMK AO2 PK WND 23026/1805
14837KMSN MSN20120618122014406/18/12 12:20:31  5-MIN KMSN 181820Z 21015G26KT 170V240 10SM FEW050 SCT110 33/19 A2959 1170 44 3500 210/15G26 170V240 RMK AO2 PK WND 19026/1818
14837KMSN MSN20120618122512806/18/12 12:25:31  5-MIN KMSN 181825Z 21012G26KT 10SM FEW050 SCT110 33/19 A2959 1170 44 3500 210/12G26 RMK AO2 PK WND 19026/1818
14837KMSN MSN20120618123012806/18/12 12:30:31  5-MIN KMSN 181830Z 20014G21KT 10SM FEW050 SCT120 33/20 A2959 1170 46 3500 210/14G21 RMK AO2 PK WND 19026/1818
14837KMSN MSN20120618123512806/18/12 12:35:31  5-MIN KMSN 181835Z 20014G22KT 10SM FEW050 SCT120 33/20 A2958 1180 45 3600 200/14G22 RMK AO2 PK WND 19026/1818
14837KMSN MSN20120618124012806/18/12 12:40:31  5-MIN KMSN 181840Z 20015G25KT 10SM FEW050 SCT120 34/19 A2958 1180 42 3600 200/15G25 RMK AO2 PK WND 19026/1818
14837KMSN MSN20120618124511806/18/12 12:45:31  5-MIN KMSN 181845Z 21014G25KT 10SM CLR 33/19 A2957 1190 43 3600 210/14G25 RMK AO2 PK WND 19026/1818
14837KMSN MSN20120618125013506/18/12 12:50:31  5-MIN KMSN 181850Z 21014G24KT 10SM CLR 33/19 A2957 1190 44 3500 220/14G24 RMK AO2 PK WND 19026/1818 SLP006 T03280194
14837KMSN MSN20120618125511006/18/12 12:55:31  5-MIN KMSN 181855Z 20014G24KT 10SM FEW055 SCT120 33/19 A2957 1190 43 3600 200/14G24 RMK AO2
14837KMSN MSN20120618130012806/18/12 13:00:31  5-MIN KMSN 181900Z 20019G27KT 10SM FEW055 SCT120 34/19 A2957 1190 42 3600 200/19G27 RMK AO2 PK WND 19027/1859
14837KMSN MSN20120618130512806/18/12 13:05:31  5-MIN KMSN 181905Z 20014G27KT 10SM FEW055 SCT120 33/19 A2957 1190 43 3600 200/14G27 RMK AO2 PK WND 19027/1859
14837KMSN MSN20120618131012806/18/12 13:10:31  5-MIN KMSN 181910Z 20017G27KT 10SM FEW055 SCT120 34/19 A2957 1190 42 3600 200/17G27 RMK AO2 PK WND 19027/1906
14837KMSN MSN20120618131512806/18/12 13:15:31  5-MIN KMSN 181915Z 21012G27KT 10SM FEW055 SCT120 34/19 A2956 1190 40 3600 210/12G27 RMK AO2 PK WND 19027/1906
14837KMSN MSN20120618132012806/18/12 13:20:31  5-MIN KMSN 181920Z 21013G26KT 10SM FEW055 SCT120 33/19 A2956 1200 43 3600 210/13G26 RMK AO2 PK WND 19027/1906
14837KMSN MSN20120618132512806/18/12 13:25:31  5-MIN KMSN 181925Z 20015G26KT 10SM FEW055 SCT120 34/19 A2956 1200 42 3600 200/15G26 RMK AO2 PK WND 19027/1906
14837KMSN MSN20120618133012806/18/12 13:30:31  5-MIN KMSN 181930Z 21016G24KT 10SM FEW055 SCT120 34/19 A2956 1200 42 3600 210/16G24 RMK AO2 PK WND 19027/1906
14837KMSN MSN20120618133512806/18/12 13:35:31  5-MIN KMSN 181935Z 20017G30KT 10SM FEW055 SCT120 33/19 A2956 1200 42 3600 200/17G30 RMK AO2 PK WND 20030/1932
14837KMSN MSN20120618134012806/18/12 13:40:31  5-MIN KMSN 181940Z 20021G30KT 10SM FEW055 SCT120 33/19 A2957 1190 42 3600 200/21G30 RMK AO2 PK WND 20030/1932
14837KMSN MSN20120618134512106/18/12 13:45:31  5-MIN KMSN 181945Z 21015G29KT 10SM FEW055 33/19 A2957 1190 42 3600 210/15G29 RMK AO2 PK WND 20030/1932
14837KMSN MSN20120618135013806/18/12 13:50:31  5-MIN KMSN 181950Z 21013G28KT 10SM FEW055 34/19 A2958 1180 42 3600 210/13G28 RMK AO2 PK WND 20030/1932 SLP006 T03390194
14837KMSN MSN20120618135512806/18/12 13:55:31  5-MIN KMSN 181955Z 20017G26KT 10SM FEW055 SCT120 34/19 A2957 1190 42 3600 200/17G26 RMK AO2 PK WND 20026/1955
14837KMSN MSN20120618140012806/18/12 14:00:31  5-MIN KMSN 182000Z 20018G29KT 10SM FEW055 SCT120 34/19 A2958 1180 40 3600 200/18G29 RMK AO2 PK WND 21029/1959
14837KMSN MSN20120618140512806/18/12 14:05:31  5-MIN KMSN 182005Z 20014G29KT 10SM FEW055 SCT120 33/19 A2958 1180 43 3600 200/14G29 RMK AO2 PK WND 21029/1959
14837KMSN MSN20120618141012806/18/12 14:10:31  5-MIN KMSN 182010Z 22013G25KT 10SM FEW055 SCT120 33/19 A2957 1190 43 3600 220/13G25 RMK AO2 PK WND 21029/1959
14837KMSN MSN20120618141512106/18/12 14:15:31  5-MIN KMSN 182015Z 22013G22KT 10SM FEW055 33/19 A2957 1190 43 3600 230/13G22 RMK AO2 PK WND 21029/1959
14837KMSN MSN20120618142012106/18/12 14:20:31  5-MIN KMSN 182020Z 21013G26KT 10SM FEW055 33/19 A2957 1190 43 3600 220/13G26 RMK AO2 PK WND 21029/1959
14837KMSN MSN20120618142512106/18/12 14:25:31  5-MIN KMSN 182025Z 23017G26KT 10SM FEW055 33/19 A2957 1190 43 3600 230/17G26 RMK AO2 PK WND 21029/1959
14837KMSN MSN20120618143012106/18/12 14:30:31  5-MIN KMSN 182030Z 20016G26KT 10SM FEW055 33/19 A2957 1190 43 3600 200/16G26 RMK AO2 PK WND 21029/1959
14837KMSN MSN20120618143512106/18/12 14:35:31  5-MIN KMSN 182035Z 22013G26KT 10SM FEW055 33/19 A2957 1190 43 3600 220/13G26 RMK AO2 PK WND 21029/1959
14837KMSN MSN20120618144012106/18/12 14:40:31  5-MIN KMSN 182040Z 20017G26KT 10SM FEW055 34/19 A2957 1190 42 3600 200/17G26 RMK AO2 PK WND 21029/1959
14837KMSN MSN20120618144512106/18/12 14:45:31  5-MIN KMSN 182045Z 20017G28KT 10SM FEW055 33/19 A2957 1190 43 3600 210/17G28 RMK AO2 PK WND 21029/1959
14837KMSN MSN20120618145014406/18/12 14:50:31  5-MIN KMSN 182050Z 22015G28KT 10SM FEW055 33/19 A2957 1190 43 3600 220/15G28 RMK AO2 PK WND 21029/1959 SLP004 T03330194 56010
14837KMSN MSN20120618145510306/18/12 14:55:31  5-MIN KMSN 182055Z 21013G27KT 10SM SCT055 33/20 A2957 1190 46 3500 210/13G27 RMK AO2
14837KMSN MSN20120618150010306/18/12 15:00:31  5-MIN KMSN 182100Z 21014G22KT 10SM SCT060 33/20 A2957 1190 46 3500 210/14G22 RMK AO2
14837KMSN MSN20120618150510306/18/12 15:05:31  5-MIN KMSN 182105Z 21011G25KT 10SM SCT060 33/20 A2957 1190 46 3500 210/11G25 RMK AO2
14837KMSN MSN20120618151010306/18/12 15:10:31  5-MIN KMSN 182110Z 22013G25KT 10SM BKN060 32/20 A2957 1190 48 3500 220/13G25 RMK AO2
14837KMSN MSN20120618151510306/18/12 15:15:31  5-MIN KMSN 182115Z 22013G22KT 10SM BKN055 32/20 A2958 1190 48 3400 220/13G22 RMK AO2
14837KMSN MSN20120618152012106/18/12 15:20:31  5-MIN KMSN 182120Z 22016G30KT 10SM BKN060 32/20 A2957 1190 48 3500 220/16G30 RMK AO2 PK WND 20030/2120
14837KMSN MSN20120618152512106/18/12 15:25:31  5-MIN KMSN 182125Z 22011G30KT 10SM BKN060 32/20 A2958 1180 48 3400 220/11G30 RMK AO2 PK WND 20030/2120
14837KMSN MSN20120618153012106/18/12 15:30:31  5-MIN KMSN 182130Z 22013G21KT 10SM OVC060 33/20 A2958 1180 46 3500 220/13G21 RMK AO2 PK WND 20030/2120
14837KMSN MSN20120618153512106/18/12 15:35:31  5-MIN KMSN 182135Z 23012G21KT 10SM BKN060 32/20 A2958 1180 48 3400 230/12G21 RMK AO2 PK WND 20030/2120
14837KMSN MSN20120618154012106/18/12 15:40:31  5-MIN KMSN 182140Z 22015G23KT 10SM BKN060 32/20 A2958 1180 48 3400 230/15G23 RMK AO2 PK WND 20030/2120
14837KMSN MSN20120618154512106/18/12 15:45:31  5-MIN KMSN 182145Z 22014G28KT 10SM BKN060 32/20 A2959 1180 48 3400 220/14G28 RMK AO2 PK WND 20030/2120
14837KMSN MSN20120618155014506/18/12 15:50:31  5-MIN KMSN 182150Z 22010G28KT 10SM BKN055 BKN065 32/20 A2959 1170 48 3400 220/10G28 RMK AO2 PK WND 20030/2120 SLP012 T03220200
14837KMSN MSN20120618155511006/18/12 15:55:31  5-MIN KMSN 182155Z 22014G24KT 10SM BKN055 BKN070 32/20 A2959 1170 48 3400 220/14G24 RMK AO2
14837KMSN MSN20120618160011006/18/12 16:00:31  5-MIN KMSN 182200Z 22015G24KT 10SM SCT050 BKN070 32/20 A2959 1170 48 3400 220/15G24 RMK AO2
14837KMSN MSN20120618160512806/18/12 16:05:31  5-MIN KMSN 182205Z 22014G27KT 10SM SCT050 BKN075 32/20 A2959 1170 48 3400 220/14G27 RMK AO2 PK WND 21027/2205
14837KMSN MSN20120618161015106/18/12 16:10:31  5-MIN KMSN 182210Z 22013G27KT 180V250 10SM FEW050 SCT060 BKN080 32/20 A2959 1170 48 3400 220/13G27 180V250 RMK AO2 PK WND 21027/2205
14837KMSN MSN20120618161515106/18/12 16:15:31  5-MIN KMSN 182215Z 23010G23KT 210V270 10SM FEW050 BKN075 BKN085 32/20 A2959 1170 48 3400 230/10G23 210V270 RMK AO2 PK WND 21027/2205
14837KMSN MSN20120618162012106/18/12 16:20:31  5-MIN KMSN 182220Z 23014G22KT 10SM BKN080 32/20 A2959 1170 48 3400 230/14G22 RMK AO2 PK WND 21027/2205
14837KMSN MSN20120618162512106/18/12 16:25:31  5-MIN KMSN 182225Z 22010G22KT 10SM BKN085 32/20 A2959 1170 48 3400 220/10G22 RMK AO2 PK WND 21027/2205
14837KMSN MSN20120618163012106/18/12 16:30:31  5-MIN KMSN 182230Z 22010G20KT 10SM BKN085 32/21 A2959 1170 49 3400 220/10G20 RMK AO2 PK WND 21027/2205
14837KMSN MSN20120618163512106/18/12 16:35:31  5-MIN KMSN 182235Z 22010G19KT 10SM BKN085 32/21 A2959 1170 49 3400 220/10G19 RMK AO2 PK WND 21027/2205
14837KMSN MSN20120618164012106/18/12 16:40:31  5-MIN KMSN 182240Z 23011G19KT 10SM BKN085 32/21 A2959 1170 51 3400 230/11G19 RMK AO2 PK WND 21027/2205
14837KMSN MSN20120618164512806/18/12 16:45:31  5-MIN KMSN 182245Z 22013G19KT 10SM FEW050 BKN085 32/21 A2959 1170 49 3400 220/13G19 RMK AO2 PK WND 21027/2205
14837KMSN MSN20120618165014506/18/12 16:50:31  5-MIN KMSN 182250Z 22012G25KT 10SM FEW050 BKN085 32/21 A2960 1170 49 3400 220/12G25 RMK AO2 PK WND 21027/2205 SLP014 T03220206
14837KMSN MSN20120618165511006/18/12 16:55:31  5-MIN KMSN 182255Z 22011G25KT 10SM FEW050 SCT085 32/21 A2960 1170 49 3400 220/11G25 RMK AO2
14837KMSN MSN20120618170011006/18/12 17:00:31  5-MIN KMSN 182300Z 22012G25KT 10SM FEW050 SCT085 32/20 A2960 1160 48 3400 220/12G25 RMK AO2
14837KMSN MSN20120618170511006/18/12 17:05:31  5-MIN KMSN 182305Z 22010G22KT 10SM FEW050 SCT085 32/20 A2960 1160 48 3400 220/10G22 RMK AO2
14837KMSN MSN20120618171011006/18/12 17:10:31  5-MIN KMSN 182310Z 22013G21KT 10SM FEW050 SCT080 32/21 A2960 1160 51 3400 220/13G21 RMK AO2
14837KMSN MSN20120618171513306/18/12 17:15:31  5-MIN KMSN 182315Z 22009G20KT 190V260 10SM FEW050 SCT060 SCT080 32/21 A2961 1160 51 3400 220/09G20 190V260 RMK AO2
14837KMSN MSN20120618172011006/18/12 17:20:31  5-MIN KMSN 182320Z 23014G22KT 10SM SCT050 BKN065 32/21 A2961 1160 49 3400 230/14G22 RMK AO2
14837KMSN MSN20120618172511006/18/12 17:25:31  5-MIN KMSN 182325Z 23009G22KT 10SM SCT050 BKN065 32/21 A2961 1150 49 3400 230/09G22 RMK AO2
14837KMSN MSN20120618173011006/18/12 17:30:31  5-MIN KMSN 182330Z 21010G17KT 10SM SCT050 BKN070 32/21 A2961 1150 51 3300 220/10G17 RMK AO2
14837KMSN MSN20120618173511006/18/12 17:35:31  5-MIN KMSN 182335Z 20010G18KT 10SM BKN050 BKN070 32/21 A2961 1150 51 3300 210/10G18 RMK AO2
14837KMSN MSN20120618174011006/18/12 17:40:31  5-MIN KMSN 182340Z 22009G19KT 10SM BKN050 BKN065 32/21 A2961 1150 51 3300 220/09G19 RMK AO2
14837KMSN MSN20120618174511006/18/12 17:45:31  5-MIN KMSN 182345Z 22008G19KT 10SM BKN050 BKN065 32/21 A2962 1150 51 3300 230/08G19 RMK AO2
14837KMSN MSN20120618175016806/18/12 17:50:31  5-MIN KMSN 182350Z 22009G17KT 200V260 10SM SCT050 BKN060 BKN075 32/21 A2962 1140 51 3300 220/09G17 200V260 RMK AO2 SLP022 T03170206 10339 20317 56008
14837KMSN MSN20120618175511706/18/12 17:55:31  5-MIN KMSN 182355Z 22013G22KT 10SM SCT050 BKN065 BKN075 32/21 A2962 1140 51 3300 220/13G22 RMK AO2
14837KMSN MSN20120618180011706/18/12 18:00:31  5-MIN KMSN 190000Z 21008G23KT 10SM SCT050 BKN065 OVC075 32/21 A2962 1140 51 3300 210/08G23 RMK AO2
14837KMSN MSN20120618180511706/18/12 18:05:31  5-MIN KMSN 190005Z 22012G23KT 10SM FEW050 BKN060 BKN075 32/21 A2962 1140 51 3300 220/12G23 RMK AO2
14837KMSN MSN20120618181012606/18/12 18:10:31  5-MIN KMSN 190010Z 22012G21KT 190V250 10SM SCT060 BKN070 32/21 A2962 1140 51 3300 220/12G21 190V250 RMK AO2
14837KMSN MSN20120618181511006/18/12 18:15:31  5-MIN KMSN 190015Z 22009G21KT 10SM SCT060 BKN070 32/21 A2963 1140 51 3300 220/09G21 RMK AO2
14837KMSN MSN20120618202009706/18/12 20:20:31  5-MIN KMSN 190220Z 21007KT 10SM FEW075 30/21 A2968 1090 56 3100 210/07 RMK AO2
14837KMSN MSN20120618202510306/18/12 20:25:31  5-MIN KMSN 190225Z 20010G14KT 10SM FEW075 29/21 A2968 1090 58 3000 210/10G14 RMK AO2
14837KMSN MSN20120618203010306/18/12 20:30:31  5-MIN KMSN 190230Z 21007G14KT 10SM FEW075 30/21 A2968 1080 56 3100 210/07G14 RMK AO2
14837KMSN MSN20120618203510306/18/12 20:35:31  5-MIN KMSN 190235Z 20008G14KT 10SM FEW075 29/21 A2969 1080 58 3000 200/08G14 RMK AO2
14837KMSN MSN20120618204009706/18/12 20:40:31  5-MIN KMSN 190240Z VRB06KT 10SM FEW075 29/21 A2969 1080 58 3000 VRB/06 RMK AO2
14837KMSN MSN20120618204509706/18/12 20:45:31  5-MIN KMSN 190245Z 21007KT 10SM FEW075 29/21 A2969 1070 58 3000 210/07 RMK AO2
14837KMSN MSN20120618205012306/18/12 20:50:31  5-MIN KMSN 190250Z 21008G15KT 10SM CLR 29/21 A2969 1070 58 3000 210/08G15 RMK AO2 SLP047 T02940206 53017
14837KMSN MSN20120618205510006/18/12 20:55:31  5-MIN KMSN 190255Z 20008G15KT 10SM CLR 29/21 A2970 1070 58 3000 210/08G15 RMK AO2
14837KMSN MSN20120618210009406/18/12 21:00:31  5-MIN KMSN 190300Z 21009KT 10SM CLR 29/21 A2970 1070 58 3000 210/09 RMK AO2
14837KMSN MSN20120618210509406/18/12 21:05:31  5-MIN KMSN 190305Z 21007KT 10SM CLR 29/21 A2970 1070 58 3000 210/07 RMK AO2
14837KMSN MSN20120618211010006/18/12 21:10:31  5-MIN KMSN 190310Z 21008G17KT 10SM CLR 29/21 A2971 1060 58 3000 210/08G17 RMK AO2
14837KMSN MSN20120618211510006/18/12 21:15:31  5-MIN KMSN 190315Z 20006G17KT 10SM CLR 29/21 A2971 1060 58 3000 200/06G17 RMK AO2
14837KMSN MSN20120618212010006/18/12 21:20:31  5-MIN KMSN 190320Z 20009G14KT 10SM CLR 29/21 A2971 1060 58 3000 200/09G14 RMK AO2
14837KMSN MSN20120618212509406/18/12 21:25:31  5-MIN KMSN 190325Z 21009KT 10SM CLR 29/20 A2971 1060 56 3000 210/09 RMK AO2
14837KMSN MSN20120618213010006/18/12 21:30:31  5-MIN KMSN 190330Z 20009G15KT 10SM CLR 29/20 A2971 1060 56 3000 200/09G15 RMK AO2
14837KMSN MSN20120618213510006/18/12 21:35:31  5-MIN KMSN 190335Z 20010G15KT 10SM CLR 29/20 A2972 1050 56 3000 200/10G15 RMK AO2
14837KMSN MSN20120618214010006/18/12 21:40:31  5-MIN KMSN 190340Z 19009G14KT 10SM CLR 29/20 A2972 1050 56 3000 200/09G14 RMK AO2
14837KMSN MSN20120618214510006/18/12 21:45:31  5-MIN KMSN 190345Z 19010G17KT 10SM CLR 29/20 A2972 1050 58 2900 190/10G17 RMK AO2
14837KMSN MSN20120618215011706/18/12 21:50:31  5-MIN KMSN 190350Z 19009G17KT 10SM CLR 29/20 A2972 1050 58 2900 190/09G17 RMK AO2 SLP055 T02890200
14837KMSN MSN20120618215509406/18/12 21:55:31  5-MIN KMSN 190355Z 19009KT 10SM CLR 29/20 A2972 1050 58 2900 190/09 RMK AO2
14837KMSN MSN20120618220009406/18/12 22:00:31  5-MIN KMSN 190400Z 19010KT 10SM CLR 29/20 A2972 1050 58 2900 190/10 RMK AO2
14837KMSN MSN20120618220509406/18/12 22:05:31  5-MIN KMSN 190405Z 20009KT 10SM CLR 29/20 A2973 1040 58 2900 200/09 RMK AO2
14837KMSN MSN20120618221009406/18/12 22:10:31  5-MIN KMSN 190410Z 20009KT 10SM CLR 29/19 A2973 1040 56 2900 200/09 RMK AO2
14837KMSN MSN20120618221509406/18/12 22:15:31  5-MIN KMSN 190415Z 20009KT 10SM CLR 29/19 A2973 1040 56 2900 200/09 RMK AO2
14837KMSN MSN20120618222009406/18/12 22:20:31  5-MIN KMSN 190420Z 19008KT 10SM CLR 29/19 A2973 1040 56 2900 190/08 RMK AO2
14837KMSN MSN20120618222509406/18/12 22:25:31  5-MIN KMSN 190425Z 19009KT 10SM CLR 29/19 A2973 1040 56 2900 190/09 RMK AO2
14837KMSN MSN20120618223009406/18/12 22:30:31  5-MIN KMSN 190430Z 19008KT 10SM CLR 28/19 A2974 1040 58 2800 190/08 RMK AO2
14837KMSN MSN20120618223509406/18/12 22:35:31  5-MIN KMSN 190435Z 19008KT 10SM CLR 28/19 A2974 1030 58 2800 190/08 RMK AO2
14837KMSN MSN20120618224009406/18/12 22:40:31  5-MIN KMSN 190440Z 19008KT 10SM CLR 28/19 A2974 1030 58 2800 190/08 RMK AO2
14837KMSN MSN20120618224509706/18/12 22:45:31  5-MIN KMSN 190445Z 19007KT 10SM FEW060 28/19 A2974 1030 58 2800 190/07 RMK AO2
14837KMSN MSN20120618225011406/18/12 22:50:31  5-MIN KMSN 190450Z 19007KT 10SM FEW060 28/19 A2974 1030 58 2800 190/07 RMK AO2 SLP063 T02830194
14837KMSN MSN20120618225509706/18/12 22:55:31  5-MIN KMSN 190455Z 18008KT 10SM FEW060 28/19 A2974 1030 58 2800 190/08 RMK AO2
14837KMSN MSN20120618230009706/18/12 23:00:31  5-MIN KMSN 190500Z 19009KT 10SM FEW060 28/19 A2974 1030 58 2800 190/09 RMK AO2
14837KMSN MSN20120618230509706/18/12 23:05:31  5-MIN KMSN 190505Z 19008KT 10SM FEW060 28/19 A2974 1030 58 2800 190/08 RMK AO2
14837KMSN MSN20120618231009706/18/12 23:10:31  5-MIN KMSN 190510Z 19008KT 10SM FEW060 28/19 A2974 1030 56 2800 190/08 RMK AO2
14837KMSN MSN20120618231509706/18/12 23:15:31  5-MIN KMSN 190515Z 19008KT 10SM SCT060 28/19 A2975 1030 56 2800 190/08 RMK AO2
14837KMSN MSN20120618232009706/18/12 23:20:31  5-MIN KMSN 190520Z 19008KT 10SM BKN060 28/19 A2975 1020 56 2800 190/08 RMK AO2
14837KMSN MSN20120618232509706/18/12 23:25:31  5-MIN KMSN 190525Z 19010KT 10SM BKN060 28/19 A2975 1020 56 2800 200/10 RMK AO2
14837KMSN MSN20120618233009706/18/12 23:30:31  5-MIN KMSN 190530Z 19009KT 10SM BKN060 28/19 A2975 1020 56 2800 200/09 RMK AO2
14837KMSN MSN20120618233510306/18/12 23:35:31  5-MIN KMSN 190535Z 20008G16KT 10SM OVC060 28/19 A2975 1030 56 2800 200/08G16 RMK AO2
14837KMSN MSN20120618234010306/18/12 23:40:31  5-MIN KMSN 190540Z 19010G16KT 10SM OVC060 28/19 A2975 1020 56 2800 190/10G16 RMK AO2
14837KMSN MSN20120618234509706/18/12 23:45:31  5-MIN KMSN 190545Z 20011KT 10SM OVC060 28/19 A2975 1020 56 2800 200/11 RMK AO2
14837KMSN MSN20120618235014206/18/12 23:50:31  5-MIN KMSN 190550Z 19010KT 10SM OVC065 28/19 A2975 1020 56 2800 200/10 RMK AO2 SLP066 T02830189 10317 20283 403390233 53026
14837KMSN MSN20120618235509706/18/12 23:55:31  5-MIN KMSN 190555Z 19008KT 10SM OVC065 28/19 A2975 1020 56 2800 200/08 RMK AO2
14837KMSN MSN20120619000009706/19/12 00:00:32  5-MIN KMSN 190600Z 19008KT 10SM OVC070 28/19 A2975 1020 56 2800 190/08 RMK AO2
14837KMSN MSN20120619000510306/19/12 00:05:31  5-MIN KMSN 190605Z 19009G16KT 10SM BKN065 28/19 A2975 1020 56 2800 190/09G16 RMK AO2
14837KMSN MSN20120619001010306/19/12 00:10:31  5-MIN KMSN 190610Z 19009G16KT 10SM BKN070 28/19 A2975 1020 56 2800 200/09G16 RMK AO2
14837KMSN MSN20120619001509706/19/12 00:15:31  5-MIN KMSN 190615Z 20010KT 10SM BKN070 28/19 A2975 1020 56 2800 200/10 RMK AO2
14837KMSN MSN20120619002010306/19/12 00:20:31  5-MIN KMSN 190620Z 19014G20KT 10SM BKN070 28/19 A2975 1020 56 2800 200/14G20 RMK AO2
14837KMSN MSN20120619002510306/19/12 00:25:31  5-MIN KMSN 190625Z 20009G20KT 10SM SCT070 28/19 A2975 1020 56 2800 200/09G20 RMK AO2
14837KMSN MSN20120619003010306/19/12 00:30:31  5-MIN KMSN 190630Z 20010G18KT 10SM SCT070 28/19 A2975 1020 56 2800 200/10G18 RMK AO2
14837KMSN MSN20120619003510306/19/12 00:35:31  5-MIN KMSN 190635Z 20009G18KT 10SM SCT070 28/19 A2975 1020 56 2800 200/09G18 RMK AO2
14837KMSN MSN20120619004010306/19/12 00:40:31  5-MIN KMSN 190640Z 19010G18KT 10SM BKN070 28/19 A2976 1020 56 2800 200/10G18 RMK AO2
14837KMSN MSN20120619004510306/19/12 00:45:31  5-MIN KMSN 190645Z 19008G15KT 10SM BKN070 28/19 A2976 1020 56 2800 190/08G15 RMK AO2
14837KMSN MSN20120619005012706/19/12 00:50:31  5-MIN KMSN 190650Z 19010G18KT 10SM SCT065 BKN075 28/19 A2976 1020 58 2800 200/10G18 RMK AO2 SLP068 T02780189
14837KMSN MSN20120619005510306/19/12 00:55:31  5-MIN KMSN 190655Z 19008G18KT 10SM BKN070 28/19 A2975 1020 58 2800 190/08G18 RMK AO2
14837KMSN MSN20120619010009706/19/12 01:00:31  5-MIN KMSN 190700Z 19008KT 10SM BKN070 28/19 A2975 1020 58 2800 200/08 RMK AO2
14837KMSN MSN20120619010509706/19/12 01:05:31  5-MIN KMSN 190705Z 20008KT 10SM SCT070 28/19 A2975 1020 58 2800 200/08 RMK AO2
14837KMSN MSN20120619011010306/19/12 01:10:31  5-MIN KMSN 190710Z 20009G17KT 10SM FEW070 28/19 A2975 1020 58 2800 200/09G17 RMK AO2
14837KMSN MSN20120619011510306/19/12 01:15:31  5-MIN KMSN 190715Z 19010G17KT 10SM FEW070 28/19 A2975 1020 58 2800 200/10G17 RMK AO2
14837KMSN MSN20120619012010006/19/12 01:20:31  5-MIN KMSN 190720Z 19009G16KT 10SM CLR 28/19 A2975 1020 58 2800 190/09G16 RMK AO2
14837KMSN MSN20120619012510006/19/12 01:25:31  5-MIN KMSN 190725Z 20009G16KT 10SM CLR 28/19 A2975 1020 58 2800 200/09G16 RMK AO2
14837KMSN MSN20120619013010006/19/12 01:30:31  5-MIN KMSN 190730Z 19009G15KT 10SM CLR 28/19 A2975 1020 58 2800 190/09G15 RMK AO2
14837KMSN MSN20120619013509406/19/12 01:35:31  5-MIN KMSN 190735Z 19009KT 10SM CLR 27/19 A2975 1020 60 2700 190/09 RMK AO2
14837KMSN MSN20120619014009406/19/12 01:40:31  5-MIN KMSN 190740Z 20010KT 10SM CLR 27/19 A2975 1020 60 2700 200/10 RMK AO2
14837KMSN MSN20120619014510006/19/12 01:45:31  5-MIN KMSN 190745Z 20006G15KT 10SM CLR 27/19 A2975 1020 60 2700 200/06G15 RMK AO2
14837KMSN MSN20120619015011406/19/12 01:50:31  5-MIN KMSN 190750Z 19010KT 10SM FEW070 27/19 A2975 1020 60 2700 190/10 RMK AO2 SLP066 T02720189
14837KMSN MSN20120619015509406/19/12 01:55:31  5-MIN KMSN 190755Z 19008KT 10SM CLR 27/19 A2975 1020 62 2700 190/08 RMK AO2
14837KMSN MSN20120619020009406/19/12 02:00:31  5-MIN KMSN 190800Z 18007KT 10SM CLR 27/19 A2975 1020 64 2600 180/07 RMK AO2
14837KMSN MSN20120619020509406/19/12 02:05:31  5-MIN KMSN 190805Z 18008KT 10SM CLR 27/19 A2976 1020 64 2600 180/08 RMK AO2
14837KMSN MSN20120619021009406/19/12 02:10:31  5-MIN KMSN 190810Z 19008KT 10SM CLR 27/19 A2976 1020 64 2600 190/08 RMK AO2
14837KMSN MSN20120619021509406/19/12 02:15:31  5-MIN KMSN 190815Z 19007KT 10SM CLR 27/19 A2975 1020 64 2600 190/07 RMK AO2
14837KMSN MSN20120619022009406/19/12 02:20:31  5-MIN KMSN 190820Z 18008KT 10SM CLR 27/19 A2975 1020 62 2600 180/08 RMK AO2
14837KMSN MSN20120619022509406/19/12 02:25:31  5-MIN KMSN 190825Z 19008KT 10SM CLR 27/19 A2976 1020 62 2600 190/08 RMK AO2
14837KMSN MSN20120619023009406/19/12 02:30:31  5-MIN KMSN 190830Z 18008KT 10SM CLR 27/19 A2976 1020 62 2600 190/08 RMK AO2
14837KMSN MSN20120619023509406/19/12 02:35:31  5-MIN KMSN 190835Z 18009KT 10SM CLR 27/19 A2976 1020 62 2600 190/09 RMK AO2
14837KMSN MSN20120619024009406/19/12 02:40:31  5-MIN KMSN 190840Z 19008KT 10SM CLR 27/19 A2976 1020 62 2600 190/08 RMK AO2
14837KMSN MSN20120619024509406/19/12 02:45:31  5-MIN KMSN 190845Z 20007KT 10SM CLR 26/19 A2976 1010 64 2600 200/07 RMK AO2
14837KMSN MSN20120619025012006/19/12 02:50:31  5-MIN KMSN 190850Z 20006KT 10SM FEW075 27/19 A2976 1010 62 2600 210/06 RMK AO2 SLP069 T02670189 51017
14837KMSN MSN20120619025509706/19/12 02:55:31  5-MIN KMSN 190855Z 20005KT 10SM SCT075 27/19 A2976 1010 62 2600 200/05 RMK AO2
14837KMSN MSN20120619030009706/19/12 03:00:31  5-MIN KMSN 190900Z 21006KT 10SM SCT075 27/19 A2976 1010 62 2600 210/06 RMK AO2
14837KMSN MSN20120619030509706/19/12 03:05:31  5-MIN KMSN 190905Z 20007KT 10SM BKN075 27/19 A2976 1010 62 2600 200/07 RMK AO2
14837KMSN MSN20120619031009706/19/12 03:10:31  5-MIN KMSN 190910Z 21007KT 10SM BKN075 27/18 A2976 1010 60 2600 210/07 RMK AO2
14837KMSN MSN20120619031509706/19/12 03:15:31  5-MIN KMSN 190915Z 22005KT 10SM BKN075 27/18 A2977 1010 60 2600 220/05 RMK AO2
14837KMSN MSN20120619032009706/19/12 03:20:31  5-MIN KMSN 190920Z 21005KT 10SM OVC075 27/18 A2977 1010 60 2600 210/05 RMK AO2
14837KMSN MSN20120619032511306/19/12 03:25:31  5-MIN KMSN 190925Z 23007KT 180V240 10SM BKN075 27/18 A2977 1010 60 2600 230/07 180V240 RMK AO2
14837KMSN MSN20120619033009706/19/12 03:30:31  5-MIN KMSN 190930Z 22006KT 10SM BKN075 27/18 A2977 1000 60 2600 230/06 RMK AO2
14837KMSN MSN20120619033509706/19/12 03:35:31  5-MIN KMSN 190935Z VRB05KT 10SM BKN075 27/18 A2977 1000 60 2600 VRB/05 RMK AO2
14837KMSN MSN20120619034009706/19/12 03:40:31  5-MIN KMSN 190940Z 22006KT 10SM BKN075 27/18 A2977 1000 60 2600 220/06 RMK AO2
14837KMSN MSN20120619034509706/19/12 03:45:31  5-MIN KMSN 190945Z 21004KT 10SM BKN075 27/18 A2978 1000 60 2600 210/04 RMK AO2
14837KMSN MSN20120619035011406/19/12 03:50:31  5-MIN KMSN 190950Z 21005KT 10SM BKN075 26/18 A2977 1000 62 2500 210/05 RMK AO2 SLP074 T02610183
14837KMSN MSN20120619035509706/19/12 03:55:31  5-MIN KMSN 190955Z 20006KT 10SM SCT075 27/18 A2977 1000 60 2600 210/06 RMK AO2
14837KMSN MSN20120619040009706/19/12 04:00:31  5-MIN KMSN 191000Z 21007KT 10SM SCT075 26/18 A2977 1000 62 2500 210/07 RMK AO2
14837KMSN MSN20120619040509706/19/12 04:05:31  5-MIN KMSN 191005Z 20007KT 10SM SCT075 26/18 A2978 1000 62 2500 200/07 RMK AO2
14837KMSN MSN20120619041009706/19/12 04:10:31  5-MIN KMSN 191010Z 21007KT 10SM SCT080 26/18 A2978 1000 59 2500 210/07 RMK AO2
14837KMSN MSN20120619041509706/19/12 04:15:31  5-MIN KMSN 191015Z 20008KT 10SM SCT080 26/18 A2978 1000 59 2500 200/08 RMK AO2
14837KMSN MSN20120619042009606/19/12 04:20:31  5-MIN KMSN 191020Z 20007KT 10SM FEW080 26/18 A2978 990 59 2500 210/07 RMK AO2
14837KMSN MSN20120619042509606/19/12 04:25:31  5-MIN KMSN 191025Z 19007KT 10SM FEW080 26/18 A2978 990 59 2500 190/07 RMK AO2
14837KMSN MSN20120619043009606/19/12 04:30:31  5-MIN KMSN 191030Z 20008KT 10SM FEW080 26/18 A2978 990 59 2500 200/08 RMK AO2
14837KMSN MSN20120619043509606/19/12 04:35:31  5-MIN KMSN 191035Z 18007KT 10SM FEW080 26/18 A2978 990 59 2500 190/07 RMK AO2
14837KMSN MSN20120619044009606/19/12 04:40:31  5-MIN KMSN 191040Z 19007KT 10SM FEW080 26/18 A2978 990 61 2500 190/07 RMK AO2
14837KMSN MSN20120619044509306/19/12 04:45:31  5-MIN KMSN 191045Z 19007KT 10SM CLR 26/18 A2979 990 61 2500 190/07 RMK AO2
14837KMSN MSN20120619045011006/19/12 04:50:31  5-MIN KMSN 191050Z 20008KT 10SM CLR 26/18 A2979 990 61 2500 200/08 RMK AO2 SLP078 T02560178
14837KMSN MSN20120619045511506/19/12 04:55:31  5-MIN KMSN 191055Z 20010G15KT 170V240 10SM CLR 26/18 A2979 990 61 2500 200/10G15 170V240 RMK AO2
14837KMSN MSN20120619050009906/19/12 05:00:31  5-MIN KMSN 191100Z 20011G15KT 10SM CLR 26/18 A2979 990 61 2500 200/11G15 RMK AO2
14837KMSN MSN20120619050509906/19/12 05:05:31  5-MIN KMSN 191105Z 19008G15KT 10SM CLR 26/17 A2979 980 59 2500 190/08G15 RMK AO2
14837KMSN MSN20120619051009306/19/12 05:10:31  5-MIN KMSN 191110Z VRB06KT 10SM CLR 26/18 A2979 980 61 2500 VRB/06 RMK AO2
14837KMSN MSN20120619051509306/19/12 05:15:31  5-MIN KMSN 191115Z VRB04KT 10SM CLR 26/18 A2980 980 61 2500 VRB/04 RMK AO2
14837KMSN MSN20120619052009306/19/12 05:20:31  5-MIN KMSN 191120Z 21004KT 10SM CLR 26/18 A2980 980 61 2500 210/04 RMK AO2
14837KMSN MSN20120619052509306/19/12 05:25:31  5-MIN KMSN 191125Z 19008KT 10SM CLR 26/18 A2979 980 61 2500 200/08 RMK AO2
14837KMSN MSN20120619053009306/19/12 05:30:31  5-MIN KMSN 191130Z 21007KT 10SM CLR 26/17 A2980 980 59 2500 210/07 RMK AO2
14837KMSN MSN20120619053509306/19/12 05:35:31  5-MIN KMSN 191135Z 20005KT 10SM CLR 26/18 A2980 980 61 2500 200/05 RMK AO2
14837KMSN MSN20120619054009306/19/12 05:40:31  5-MIN KMSN 191140Z 21007KT 10SM CLR 26/18 A2979 980 61 2500 210/07 RMK AO2
14837KMSN MSN20120619054510906/19/12 05:45:31  5-MIN KMSN 191145Z 21008KT 180V240 10SM CLR 26/18 A2980 980 61 2500 210/08 180V240 RMK AO2
14837KMSN MSN20120619055012806/19/12 05:50:31  5-MIN KMSN 191150Z 23008KT 10SM CLR 26/18 A2980 970 61 2500 230/08 RMK AO2 SLP084 T02560178 10283 20256 53003
14837KMSN MSN20120619055510906/19/12 05:55:31  5-MIN KMSN 191155Z 21009KT 190V250 10SM CLR 26/18 A2981 970 61 2400 220/09 190V250 RMK AO2
14837KMSN MSN20120619060009306/19/12 06:00:31  5-MIN KMSN 191200Z 22008KT 10SM CLR 26/18 A2981 960 61 2400 220/08 RMK AO2
14837KMSN MSN20120619060509306/19/12 06:05:31  5-MIN KMSN 191205Z 22008KT 10SM CLR 26/18 A2981 960 61 2400 220/08 RMK AO2
14837KMSN MSN20120619061009906/19/12 06:10:31  5-MIN KMSN 191210Z 22010G15KT 10SM CLR 26/18 A2982 960 61 2400 220/10G15 RMK AO2
14837KMSN MSN20120619061509906/19/12 06:15:31  5-MIN KMSN 191215Z 21009G16KT 10SM CLR 26/18 A2981 960 61 2400 210/09G16 RMK AO2
14837KMSN MSN20120619062009906/19/12 06:20:31  5-MIN KMSN 191220Z 21006G16KT 10SM CLR 26/18 A2982 960 59 2500 210/06G16 RMK AO2
14837KMSN MSN20120619062509306/19/12 06:25:31  5-MIN KMSN 191225Z 21008KT 10SM CLR 26/18 A2982 960 59 2500 220/08 RMK AO2
14837KMSN MSN20120619063009906/19/12 06:30:31  5-MIN KMSN 191230Z 21008G16KT 10SM CLR 26/18 A2983 950 59 2500 210/08G16 RMK AO2
14837KMSN MSN20120619063509906/19/12 06:35:31  5-MIN KMSN 191235Z 21011G16KT 10SM CLR 26/18 A2983 950 59 2500 220/11G16 RMK AO2
14837KMSN MSN20120619064009906/19/12 06:40:31  5-MIN KMSN 191240Z 22009G16KT 10SM CLR 27/18 A2984 940 57 2500 220/09G16 RMK AO2
14837KMSN MSN20120619064509906/19/12 06:45:31  5-MIN KMSN 191245Z 21009G14KT 10SM CLR 27/18 A2984 940 60 2500 210/09G14 RMK AO2
14837KMSN MSN20120619065011606/19/12 06:50:31  5-MIN KMSN 191250Z 21009G15KT 10SM CLR 27/18 A2984 940 57 2500 210/09G15 RMK AO2 SLP097 T02670178
14837KMSN MSN20120619065509906/19/12 06:55:31  5-MIN KMSN 191255Z 21007G15KT 10SM CLR 27/18 A2984 940 60 2500 210/07G15 RMK AO2
14837KMSN MSN20120619070009306/19/12 07:00:31  5-MIN KMSN 191300Z 21008KT 10SM CLR 27/18 A2984 940 60 2500 210/08 RMK AO2
14837KMSN MSN20120619070509306/19/12 07:05:31  5-MIN KMSN 191305Z 20007KT 10SM CLR 27/18 A2984 940 58 2600 210/07 RMK AO2
14837KMSN MSN20120619071009306/19/12 07:10:31  5-MIN KMSN 191310Z 21007KT 10SM CLR 27/18 A2985 930 58 2600 210/07 RMK AO2
14837KMSN MSN20120619071509306/19/12 07:15:31  5-MIN KMSN 191315Z 21008KT 10SM CLR 28/18 A2985 930 56 2600 210/08 RMK AO2
14837KMSN MSN20120619072009306/19/12 07:20:31  5-MIN KMSN 191320Z 22008KT 10SM CLR 28/18 A2985 920 56 2600 220/08 RMK AO2
14837KMSN MSN20120619072509306/19/12 07:25:31  5-MIN KMSN 191325Z 21007KT 10SM CLR 28/18 A2986 920 56 2600 210/07 RMK AO2
14837KMSN MSN20120619073009306/19/12 07:30:31  5-MIN KMSN 191330Z 22008KT 10SM CLR 28/18 A2986 920 56 2600 220/08 RMK AO2
14837KMSN MSN20120619073509306/19/12 07:35:31  5-MIN KMSN 191335Z VRB06KT 10SM CLR 28/18 A2987 920 56 2600 VRB/06 RMK AO2
14837KMSN MSN20120619074009306/19/12 07:40:31  5-MIN KMSN 191340Z 21007KT 10SM CLR 28/18 A2987 910 56 2600 220/07 RMK AO2
14837KMSN MSN20120619074509306/19/12 07:45:31  5-MIN KMSN 191345Z 22007KT 10SM CLR 28/18 A2987 910 56 2600 220/07 RMK AO2
14837KMSN MSN20120619075011006/19/12 07:50:31  5-MIN KMSN 191350Z 22006KT 10SM CLR 28/18 A2987 910 54 2700 220/06 RMK AO2 SLP107 T02830183
14837KMSN MSN20120619075509306/19/12 07:55:31  5-MIN KMSN 191355Z 21007KT 10SM CLR 28/18 A2987 910 54 2700 210/07 RMK AO2
14837KMSN MSN20120619080009906/19/12 08:00:31  5-MIN KMSN 191400Z 22010G16KT 10SM CLR 28/18 A2987 910 54 2700 230/10G16 RMK AO2
14837KMSN MSN20120619080511506/19/12 08:05:31  5-MIN KMSN 191405Z 21007G16KT 180V250 10SM CLR 28/18 A2987 910 54 2700 210/07G16 180V250 RMK AO2
14837KMSN MSN20120619081009306/19/12 08:10:31  5-MIN KMSN 191410Z 20008KT 10SM CLR 28/18 A2987 910 54 2700 200/08 RMK AO2
14837KMSN MSN20120619081509306/19/12 08:15:31  5-MIN KMSN 191415Z 20010KT 10SM CLR 29/18 A2987 910 52 2700 200/10 RMK AO2
14837KMSN MSN20120619082009906/19/12 08:20:31  5-MIN KMSN 191420Z 20009G16KT 10SM CLR 28/18 A2987 910 54 2700 200/09G16 RMK AO2
14837KMSN MSN20120619082509906/19/12 08:25:31  5-MIN KMSN 191425Z 20010G16KT 10SM CLR 28/18 A2987 910 54 2700 200/10G16 RMK AO2
14837KMSN MSN20120619083009306/19/12 08:30:31  5-MIN KMSN 191430Z 20006KT 10SM CLR 29/18 A2987 910 52 2700 210/06 RMK AO2
14837KMSN MSN20120619083509906/19/12 08:35:31  5-MIN KMSN 191435Z VRB06G14KT 10SM CLR 29/19 A2987 910 52 2800 VRB/06G14 RMK AO2
14837KMSN MSN20120619084009906/19/12 08:40:31  5-MIN KMSN 191440Z 20008G14KT 10SM CLR 29/19 A2987 910 52 2800 200/08G14 RMK AO2
14837KMSN MSN20120619084509306/19/12 08:45:31  5-MIN KMSN 191445Z 22008KT 10SM CLR 29/18 A2987 910 52 2700 220/08 RMK AO2
14837KMSN MSN20120619085013206/19/12 08:50:31  5-MIN KMSN 191450Z 22009KT 190V250 10SM CLR 29/18 A2987 910 52 2700 220/09 190V250 RMK AO2 SLP107 T02890183 53015
14837KMSN MSN20120619085509906/19/12 08:55:31  5-MIN KMSN 191455Z VRB06G14KT 10SM CLR 29/19 A2987 910 52 2800 VRB/06G14 RMK AO2
14837KMSN MSN20120619090009306/19/12 09:00:31  5-MIN KMSN 191500Z 20007KT 10SM CLR 29/19 A2987 910 52 2800 200/07 RMK AO2
14837KMSN MSN20120619090509306/19/12 09:05:31  5-MIN KMSN 191505Z VRB06KT 10SM CLR 29/18 A2987 910 50 2800 VRB/06 RMK AO2
14837KMSN MSN20120619091010906/19/12 09:10:31  5-MIN KMSN 191510Z 22008KT 180V250 10SM CLR 30/19 A2987 910 51 2900 220/08 180V250 RMK AO2
14837KMSN MSN20120619091509906/19/12 09:15:31  5-MIN KMSN 191515Z 22007G14KT 10SM CLR 30/18 A2987 910 49 2900 220/07G14 RMK AO2
14837KMSN MSN20120619092009906/19/12 09:20:31  5-MIN KMSN 191520Z 23008G14KT 10SM CLR 30/19 A2987 910 51 2900 240/08G14 RMK AO2
14837KMSN MSN20120619092509906/19/12 09:25:31  5-MIN KMSN 191525Z 22006G14KT 10SM CLR 30/18 A2987 910 49 2900 220/06G14 RMK AO2
14837KMSN MSN20120619093009906/19/12 09:30:31  5-MIN KMSN 191530Z 22009G14KT 10SM CLR 31/18 A2987 910 47 2900 230/09G14 RMK AO2
14837KMSN MSN20120619093509306/19/12 09:35:31  5-MIN KMSN 191535Z VRB04KT 10SM CLR 31/18 A2987 910 47 2900 VRB/04 RMK AO2
14837KMSN MSN20120619094009306/19/12 09:40:31  5-MIN KMSN 191540Z 24007KT 10SM CLR 31/18 A2988 900 47 2900 250/07 RMK AO2
14837KMSN MSN20120619094510906/19/12 09:45:31  5-MIN KMSN 191545Z 24008KT 210V270 10SM CLR 31/18 A2988 900 46 2900 240/08 210V270 RMK AO2
14837KMSN MSN20120619095011006/19/12 09:50:31  5-MIN KMSN 191550Z VRB05KT 10SM CLR 31/18 A2988 900 47 2900 VRB/05 RMK AO2 SLP109 T03060183
14837KMSN MSN20120619095509306/19/12 09:55:31  5-MIN KMSN 191555Z VRB06KT 10SM CLR 31/18 A2988 900 47 2900 VRB/06 RMK AO2
14837KMSN MSN20120619100009306/19/12 10:00:31  5-MIN KMSN 191600Z 23005KT 10SM CLR 31/18 A2988 900 46 2900 230/05 RMK AO2
14837KMSN MSN20120619100509306/19/12 10:05:31  5-MIN KMSN 191605Z 23006KT 10SM CLR 31/18 A2988 900 44 3000 230/06 RMK AO2
14837KMSN MSN20120619101009306/19/12 10:10:31  5-MIN KMSN 191610Z 20009KT 10SM CLR 32/18 A2988 900 44 3000 200/09 RMK AO2
14837KMSN MSN20120619101509906/19/12 10:15:31  5-MIN KMSN 191615Z 19010G14KT 10SM CLR 32/18 A2988 900 43 3000 190/10G14 RMK AO2
14837KMSN MSN20120619102009906/19/12 10:20:31  5-MIN KMSN 191620Z 20007G17KT 10SM CLR 32/18 A2987 910 43 3000 200/07G17 RMK AO2
14837KMSN MSN20120619102509906/19/12 10:25:31  5-MIN KMSN 191625Z 21010G17KT 10SM CLR 32/18 A2987 910 43 3100 210/10G17 RMK AO2
14837KMSN MSN20120619103009906/19/12 10:30:31  5-MIN KMSN 191630Z 22008G14KT 10SM CLR 32/18 A2988 910 43 3000 220/08G14 RMK AO2
14837KMSN MSN20120619103509306/19/12 10:35:31  5-MIN KMSN 191635Z 20009KT 10SM CLR 32/18 A2988 910 41 3100 210/09 RMK AO2
14837KMSN MSN20120619104009906/19/12 10:40:31  5-MIN KMSN 191640Z 20010G16KT 10SM CLR 32/18 A2988 900 41 3100 200/10G16 RMK AO2
14837KMSN MSN20120619104509906/19/12 10:45:31  5-MIN KMSN 191645Z 19011G16KT 10SM CLR 32/18 A2988 910 43 3100 190/11G16 RMK AO2
14837KMSN MSN20120619105011606/19/12 10:50:31  5-MIN KMSN 191650Z 21008G16KT 10SM CLR 32/18 A2987 910 43 3100 210/08G16 RMK AO2 SLP108 T03220183
14837KMSN MSN20120619105510906/19/12 10:55:31  5-MIN KMSN 191655Z 21010KT 180V240 10SM CLR 32/18 A2987 910 43 3100 220/10 180V240 RMK AO2
14837KMSN MSN20120619110009906/19/12 11:00:31  5-MIN KMSN 191700Z 19010G15KT 10SM CLR 32/18 A2987 910 41 3100 200/10G15 RMK AO2
14837KMSN MSN20120619110509906/19/12 11:05:31  5-MIN KMSN 191705Z 20010G18KT 10SM CLR 32/18 A2988 910 41 3100 210/10G18 RMK AO2
14837KMSN MSN20120619111009906/19/12 11:10:31  5-MIN KMSN 191710Z 22008G18KT 10SM CLR 32/18 A2987 910 41 3100 220/08G18 RMK AO2
14837KMSN MSN20120619111509906/19/12 11:15:31  5-MIN KMSN 191715Z 23008G15KT 10SM CLR 32/18 A2987 910 41 3100 230/08G15 RMK AO2
14837KMSN MSN20120619112011506/19/12 11:20:31  5-MIN KMSN 191720Z 21008G15KT 180V240 10SM CLR 32/18 A2988 910 43 3100 210/08G15 180V240 RMK AO2
14837KMSN MSN20120619112509906/19/12 11:25:31  5-MIN KMSN 191725Z 19012G18KT 10SM CLR 33/18 A2988 910 41 3200 190/12G18 RMK AO2
14837KMSN MSN20120619113009906/19/12 11:30:31  5-MIN KMSN 191730Z 20014G21KT 10SM CLR 33/18 A2987 910 41 3200 200/14G21 RMK AO2
14837KMSN MSN20120619113509906/19/12 11:35:31  5-MIN KMSN 191735Z 19012G21KT 10SM CLR 33/18 A2987 910 41 3200 190/12G21 RMK AO2
14837KMSN MSN20120619114009906/19/12 11:40:31  5-MIN KMSN 191740Z 18013G19KT 10SM CLR 33/18 A2988 910 41 3200 180/13G19 RMK AO2
14837KMSN MSN20120619114509906/19/12 11:45:31  5-MIN KMSN 191745Z 18013G21KT 10SM CLR 33/19 A2987 910 42 3200 180/13G21 RMK AO2
14837KMSN MSN20120619115013406/19/12 11:50:31  5-MIN KMSN 191750Z 19016G21KT 10SM CLR 33/18 A2987 910 41 3200 190/16G21 RMK AO2 SLP108 T03280183 10333 20256 51022
14837KMSN MSN20120619115509906/19/12 11:55:31  5-MIN KMSN 191755Z 19014G20KT 10SM CLR 33/18 A2987 910 41 3200 190/14G20 RMK AO2
14837KMSN MSN20120619120009906/19/12 12:00:31  5-MIN KMSN 191800Z 19014G21KT 10SM CLR 33/18 A2987 910 40 3200 190/14G21 RMK AO2
14837KMSN MSN20120619120509906/19/12 12:05:31  5-MIN KMSN 191805Z 18014G21KT 10SM CLR 33/18 A2987 910 39 3200 190/14G21 RMK AO2
14837KMSN MSN20120619121009906/19/12 12:10:31  5-MIN KMSN 191810Z 17014G21KT 10SM CLR 33/18 A2987 910 40 3200 180/14G21 RMK AO2
14837KMSN MSN20120619121511506/19/12 12:15:31  5-MIN KMSN 191815Z 18013G23KT 160V230 10SM CLR 33/19 A2987 910 42 3200 180/13G23 160V230 RMK AO2
14837KMSN MSN20120619122009906/19/12 12:20:31  5-MIN KMSN 191820Z 19014G23KT 10SM CLR 33/18 A2987 910 40 3200 190/14G23 RMK AO2
14837KMSN MSN20120619122509906/19/12 12:25:31  5-MIN KMSN 191825Z 18014G21KT 10SM CLR 33/18 A2987 910 40 3200 190/14G21 RMK AO2
14837KMSN MSN20120619123009906/19/12 12:30:31  5-MIN KMSN 191830Z 19014G19KT 10SM CLR 33/18 A2987 910 39 3200 200/14G19 RMK AO2
14837KMSN MSN20120619123509906/19/12 12:35:31  5-MIN KMSN 191835Z 19012G19KT 10SM CLR 34/18 A2987 910 39 3300 200/12G19 RMK AO2
14837KMSN MSN20120619124009906/19/12 12:40:31  5-MIN KMSN 191840Z 18014G20KT 10SM CLR 33/18 A2986 920 40 3200 190/14G20 RMK AO2
14837KMSN MSN20120619124509906/19/12 12:45:31  5-MIN KMSN 191845Z 18014G22KT 10SM CLR 34/19 A2987 910 40 3300 180/14G22 RMK AO2
14837KMSN MSN20120619125011906/19/12 12:50:31  5-MIN KMSN 191850Z 18015G22KT 10SM FEW060 34/18 A2987 920 39 3300 180/15G22 RMK AO2 SLP104 T03390183
14837KMSN MSN20120619125510206/19/12 12:55:31  5-MIN KMSN 191855Z 20010G21KT 10SM FEW060 34/18 A2987 910 39 3300 210/10G21 RMK AO2
14837KMSN MSN20120619130010206/19/12 13:00:31  5-MIN KMSN 191900Z 21012G21KT 10SM FEW060 34/18 A2986 920 39 3300 210/12G21 RMK AO2
14837KMSN MSN20120619130510206/19/12 13:05:31  5-MIN KMSN 191905Z 19013G19KT 10SM SCT060 34/18 A2986 920 39 3300 200/13G19 RMK AO2
14837KMSN MSN20120619131010206/19/12 13:10:31  5-MIN KMSN 191910Z 18016G23KT 10SM SCT060 34/18 A2986 920 37 3300 180/16G23 RMK AO2
14837KMSN MSN20120619131510206/19/12 13:15:31  5-MIN KMSN 191915Z 19012G23KT 10SM SCT060 34/18 A2986 920 37 3300 200/12G23 RMK AO2
14837KMSN MSN20120619132010206/19/12 13:20:31  5-MIN KMSN 191920Z 19014G22KT 10SM SCT060 34/18 A2986 920 36 3400 190/14G22 RMK AO2
14837KMSN MSN20120619132510206/19/12 13:25:31  5-MIN KMSN 191925Z 19018G25KT 10SM SCT060 34/17 A2986 920 36 3300 190/18G25 RMK AO2
14837KMSN MSN20120619133010206/19/12 13:30:31  5-MIN KMSN 191930Z 19016G25KT 10SM SCT060 34/17 A2985 920 36 3300 190/16G25 RMK AO2
14837KMSN MSN20120619133510206/19/12 13:35:31  5-MIN KMSN 191935Z 20015G25KT 10SM SCT060 34/17 A2985 920 36 3300 210/15G25 RMK AO2
14837KMSN MSN20120619134010206/19/12 13:40:31  5-MIN KMSN 191940Z 18015G24KT 10SM SCT060 34/18 A2985 930 37 3300 190/15G24 RMK AO2
14837KMSN MSN20120619134510206/19/12 13:45:31  5-MIN KMSN 191945Z 19011G24KT 10SM SCT060 34/18 A2985 930 36 3400 190/11G24 RMK AO2
14837KMSN MSN20120619135013706/19/12 13:50:31  5-MIN KMSN 191950Z 19016G26KT 10SM SCT060 34/18 A2985 930 36 3400 190/16G26 RMK AO2 PK WND 18026/1950 SLP100 T03440178
14837KMSN MSN20120619135510206/19/12 13:55:31  5-MIN KMSN 191955Z 20015G27KT 10SM FEW060 34/18 A2985 920 37 3300 200/15G27 RMK AO2
14837KMSN MSN20120619140010206/19/12 14:00:31  5-MIN KMSN 192000Z 18018G27KT 10SM SCT060 34/18 A2985 930 37 3300 180/18G27 RMK AO2
14837KMSN MSN20120619140510206/19/12 14:05:31  5-MIN KMSN 192005Z 21014G24KT 10SM SCT060 34/18 A2985 930 36 3400 210/14G24 RMK AO2
14837KMSN MSN20120619141010206/19/12 14:10:31  5-MIN KMSN 192010Z 20014G23KT 10SM SCT060 34/18 A2985 930 37 3300 200/14G23 RMK AO2
14837KMSN MSN20120619141510206/19/12 14:15:31  5-MIN KMSN 192015Z 20012G22KT 10SM SCT060 34/18 A2985 930 36 3400 200/12G22 RMK AO2
14837KMSN MSN20120619142010206/19/12 14:20:31  5-MIN KMSN 192020Z 19015G23KT 10SM SCT060 34/17 A2985 930 35 3400 190/15G23 RMK AO2
14837KMSN MSN20120619142510206/19/12 14:25:31  5-MIN KMSN 192025Z 20014G24KT 10SM SCT060 34/18 A2985 930 36 3400 200/14G24 RMK AO2
14837KMSN MSN20120619143010206/19/12 14:30:31  5-MIN KMSN 192030Z 19015G24KT 10SM SCT060 34/18 A2985 930 36 3400 190/15G24 RMK AO2
14837KMSN MSN20120619143510206/19/12 14:35:31  5-MIN KMSN 192035Z 20012G20KT 10SM SCT060 34/18 A2985 930 38 3400 200/12G20 RMK AO2
14837KMSN MSN20120619144010206/19/12 14:40:31  5-MIN KMSN 192040Z 20012G20KT 10SM SCT060 35/18 A2985 930 35 3400 200/12G20 RMK AO2
14837KMSN MSN20120619144510206/19/12 14:45:31  5-MIN KMSN 192045Z 19016G24KT 10SM SCT060 34/18 A2985 930 36 3400 190/16G24 RMK AO2
14837KMSN MSN20120619145014306/19/12 14:50:31  5-MIN KMSN 192050Z 19020G27KT 10SM SCT060 34/18 A2984 930 37 3300 190/20G27 RMK AO2 PK WND 18027/2049 SLP098 T03390178 50001
14837KMSN MSN20120619145510206/19/12 14:55:31  5-MIN KMSN 192055Z 19016G27KT 10SM SCT060 34/18 A2985 930 37 3300 190/16G27 RMK AO2
14837KMSN MSN20120619150012006/19/12 15:00:31  5-MIN KMSN 192100Z 19022G27KT 10SM FEW060 34/18 A2984 940 37 3300 190/22G27 RMK AO2 PK WND 20027/2100
14837KMSN MSN20120619150512006/19/12 15:05:31  5-MIN KMSN 192105Z 19015G27KT 10SM SCT065 33/18 A2984 940 39 3300 190/15G27 RMK AO2 PK WND 20027/2100
14837KMSN MSN20120619151012006/19/12 15:10:31  5-MIN KMSN 192110Z 19016G28KT 10SM SCT065 34/18 A2984 940 39 3300 190/16G28 RMK AO2 PK WND 18028/2106
14837KMSN MSN20120619151512006/19/12 15:15:31  5-MIN KMSN 192115Z 19017G28KT 10SM FEW065 34/18 A2984 940 39 3300 190/17G28 RMK AO2 PK WND 18028/2106
14837KMSN MSN20120619152013606/19/12 15:20:31  5-MIN KMSN 192120Z 20014G24KT 170V240 10SM FEW060 34/18 A2984 940 39 3300 210/14G24 170V240 RMK AO2 PK WND 18028/2106
14837KMSN MSN20120619152512006/19/12 15:25:31  5-MIN KMSN 192125Z 20014G21KT 10SM FEW060 34/18 A2984 940 36 3400 200/14G21 RMK AO2 PK WND 18028/2106
14837KMSN MSN20120619153012006/19/12 15:30:31  5-MIN KMSN 192130Z 19016G27KT 10SM FEW060 34/18 A2984 940 36 3400 190/16G27 RMK AO2 PK WND 18028/2106
14837KMSN MSN20120619153513606/19/12 15:35:31  5-MIN KMSN 192135Z 20012G27KT 170V240 10SM FEW060 34/18 A2984 940 39 3300 210/12G27 170V240 RMK AO2 PK WND 18028/2106
14837KMSN MSN20120619154012006/19/12 15:40:31  5-MIN KMSN 192140Z 18015G23KT 10SM FEW060 34/19 A2984 940 39 3400 180/15G23 RMK AO2 PK WND 18028/2106
14837KMSN MSN20120619154512006/19/12 15:45:31  5-MIN KMSN 192145Z 20011G22KT 10SM SCT060 34/19 A2984 940 39 3400 200/11G22 RMK AO2 PK WND 18028/2106
14837KMSN MSN20120619155013706/19/12 15:50:31  5-MIN KMSN 192150Z 19016G23KT 10SM SCT060 34/19 A2984 940 39 3400 190/16G23 RMK AO2 PK WND 18028/2106 SLP095 T03440189
14837KMSN MSN20120619155510206/19/12 15:55:31  5-MIN KMSN 192155Z 19014G25KT 10SM SCT060 34/18 A2984 940 39 3300 190/14G25 RMK AO2
14837KMSN MSN20120619160010206/19/12 16:00:31  5-MIN KMSN 192200Z 21012G25KT 10SM SCT060 34/18 A2983 940 39 3300 210/12G25 RMK AO2
14837KMSN MSN20120619160512006/19/12 16:05:31  5-MIN KMSN 192205Z 18019G27KT 10SM SCT060 34/18 A2983 950 39 3300 190/19G27 RMK AO2 PK WND 17027/2204
14837KMSN MSN20120619161012006/19/12 16:10:31  5-MIN KMSN 192210Z 19018G27KT 10SM SCT060 34/18 A2983 950 39 3300 190/18G27 RMK AO2 PK WND 17027/2204
14837KMSN MSN20120619161512006/19/12 16:15:31  5-MIN KMSN 192215Z 20016G26KT 10SM SCT060 34/19 A2983 950 40 3300 200/16G26 RMK AO2 PK WND 17027/2204
14837KMSN MSN20120619162012006/19/12 16:20:31  5-MIN KMSN 192220Z 19016G24KT 10SM SCT060 34/19 A2983 950 40 3300 190/16G24 RMK AO2 PK WND 17027/2204
14837KMSN MSN20120619162512006/19/12 16:25:31  5-MIN KMSN 192225Z 19014G24KT 10SM FEW060 34/19 A2983 950 40 3300 200/14G24 RMK AO2 PK WND 17027/2204
14837KMSN MSN20120619163012006/19/12 16:30:31  5-MIN KMSN 192230Z 19019G25KT 10SM SCT060 34/19 A2983 950 40 3300 190/19G25 RMK AO2 PK WND 17027/2204
14837KMSN MSN20120619163512006/19/12 16:35:31  5-MIN KMSN 192235Z 19016G27KT 10SM SCT060 34/19 A2983 950 40 3300 190/16G27 RMK AO2 PK WND 17027/2231
14837KMSN MSN20120619164012006/19/12 16:40:31  5-MIN KMSN 192240Z 19019G27KT 10SM SCT060 33/19 A2983 950 42 3300 190/19G27 RMK AO2 PK WND 17027/2231
14837KMSN MSN20120619164512006/19/12 16:45:31  5-MIN KMSN 192245Z 19015G26KT 10SM FEW060 33/19 A2983 950 43 3200 190/15G26 RMK AO2 PK WND 17027/2231
14837KMSN MSN20120619165013706/19/12 16:50:31  5-MIN KMSN 192250Z 19016G23KT 10SM SCT055 33/19 A2983 950 44 3200 200/16G23 RMK AO2 PK WND 17027/2231 SLP092 T03280194
14837KMSN MSN20120619165512006/19/12 16:55:31  5-MIN KMSN 192255Z 20017G27KT 10SM SCT060 33/19 A2983 950 43 3300 200/17G27 RMK AO2 PK WND 20027/2255
14837KMSN MSN20120619170012006/19/12 17:00:31  5-MIN KMSN 192300Z 18020G27KT 10SM SCT055 33/19 A2983 950 42 3300 190/20G27 RMK AO2 PK WND 20027/2255
14837KMSN MSN20120619170512006/19/12 17:05:31  5-MIN KMSN 192305Z 19018G28KT 10SM FEW060 33/19 A2983 950 43 3200 190/18G28 RMK AO2 PK WND 20028/2305
14837KMSN MSN20120619171012006/19/12 17:10:31  5-MIN KMSN 192310Z 20014G28KT 10SM FEW060 33/19 A2983 950 43 3200 200/14G28 RMK AO2 PK WND 20028/2305
14837KMSN MSN20120619171512006/19/12 17:15:31  5-MIN KMSN 192315Z 19016G24KT 10SM FEW060 33/19 A2983 950 43 3200 190/16G24 RMK AO2 PK WND 20028/2305
14837KMSN MSN20120619172012006/19/12 17:20:31  5-MIN KMSN 192320Z 20015G25KT 10SM FEW060 33/19 A2983 950 44 3200 200/15G25 RMK AO2 PK WND 20028/2305
14837KMSN MSN20120619172512006/19/12 17:25:31  5-MIN KMSN 192325Z 20017G25KT 10SM FEW060 33/19 A2983 950 44 3200 200/17G25 RMK AO2 PK WND 20028/2305
14837KMSN MSN20120619173012006/19/12 17:30:31  5-MIN KMSN 192330Z 19014G23KT 10SM FEW060 33/19 A2983 950 44 3200 190/14G23 RMK AO2 PK WND 20028/2305
14837KMSN MSN20120619173512006/19/12 17:35:31  5-MIN KMSN 192335Z 19015G22KT 10SM FEW055 32/19 A2983 950 46 3200 190/15G22 RMK AO2 PK WND 20028/2305
14837KMSN MSN20120619174012006/19/12 17:40:31  5-MIN KMSN 192340Z 19016G24KT 10SM FEW055 33/19 A2983 950 44 3200 190/16G24 RMK AO2 PK WND 20028/2305
14837KMSN MSN20120619174512006/19/12 17:45:31  5-MIN KMSN 192345Z 20014G24KT 10SM FEW055 32/19 A2983 950 46 3200 200/14G24 RMK AO2 PK WND 20028/2305
14837KMSN MSN20120619175015506/19/12 17:50:31  5-MIN KMSN 192350Z 19019G27KT 10SM FEW055 32/19 A2983 950 46 3200 190/19G27 RMK AO2 PK WND 20028/2305 SLP094 T03220194 10350 20322 58009
14837KMSN MSN20120619175510906/19/12 17:55:31  5-MIN KMSN 192355Z 19013G27KT 10SM FEW050 SCT060 32/19 A2983 950 46 3200 190/13G27 RMK AO2
14837KMSN MSN20120619180010906/19/12 18:00:31  5-MIN KMSN 200000Z 20012G22KT 10SM FEW050 SCT060 32/19 A2983 940 46 3200 200/12G22 RMK AO2
14837KMSN MSN20120619180512006/19/12 18:05:31  5-MIN KMSN 200005Z 20015G27KT 10SM FEW055 32/19 A2983 940 47 3100 200/15G27 RMK AO2 PK WND 20027/0005
14837KMSN MSN20120619181012006/19/12 18:10:31  5-MIN KMSN 200010Z 19016G27KT 10SM FEW055 32/19 A2984 940 46 3200 200/16G27 RMK AO2 PK WND 20027/0005
14837KMSN MSN20120619181512006/19/12 18:15:31  5-MIN KMSN 200015Z 19013G23KT 10SM FEW055 32/19 A2984 940 46 3200 190/13G23 RMK AO2 PK WND 20027/0005
14837KMSN MSN20120619182012006/19/12 18:20:31  5-MIN KMSN 200020Z 19013G24KT 10SM FEW055 32/19 A2984 940 47 3100 190/13G24 RMK AO2 PK WND 20027/0005
14837KMSN MSN20120619182511706/19/12 18:25:31  5-MIN KMSN 200025Z 19015G24KT 10SM CLR 32/19 A2984 940 47 3100 190/15G24 RMK AO2 PK WND 20027/0005
14837KMSN MSN20120619183011706/19/12 18:30:31  5-MIN KMSN 200030Z 20015G22KT 10SM CLR 32/19 A2984 940 47 3100 200/15G22 RMK AO2 PK WND 20027/0005
14837KMSN MSN20120619183511706/19/12 18:35:31  5-MIN KMSN 200035Z 19013G22KT 10SM CLR 32/19 A2984 940 47 3100 190/13G22 RMK AO2 PK WND 20027/0005
14837KMSN MSN20120619184011706/19/12 18:40:31  5-MIN KMSN 200040Z 19017G23KT 10SM CLR 32/19 A2984 940 47 3100 190/17G23 RMK AO2 PK WND 20027/0005
14837KMSN MSN20120619184512006/19/12 18:45:31  5-MIN KMSN 200045Z 19014G25KT 10SM FEW060 32/19 A2984 940 47 3100 190/14G25 RMK AO2 PK WND 20027/0005
14837KMSN MSN20120619185013706/19/12 18:50:31  5-MIN KMSN 200050Z 20015G25KT 10SM FEW060 32/19 A2984 940 47 3100 200/15G25 RMK AO2 PK WND 20027/0005 SLP095 T03170194
14837KMSN MSN20120619185510206/19/12 18:55:31  5-MIN KMSN 200055Z 19015G24KT 10SM FEW060 31/19 A2984 940 49 3000 190/15G24 RMK AO2
14837KMSN MSN20120619190010206/19/12 19:00:31  5-MIN KMSN 200100Z 19014G24KT 10SM FEW060 31/19 A2983 940 49 3000 200/14G24 RMK AO2
14837KMSN MSN20120619190510206/19/12 19:05:31  5-MIN KMSN 200105Z 19013G24KT 10SM FEW060 31/19 A2984 940 49 3000 190/13G24 RMK AO2
14837KMSN MSN20120619191010206/19/12 19:10:31  5-MIN KMSN 200110Z 19012G20KT 10SM FEW060 31/19 A2984 940 49 3000 190/12G20 RMK AO2
14837KMSN MSN20120619191509906/19/12 19:15:31  5-MIN KMSN 200115Z 19010G19KT 10SM CLR 31/19 A2984 940 49 3000 190/10G19 RMK AO2
14837KMSN MSN20120619192009306/19/12 19:20:31  5-MIN KMSN 200120Z 19013KT 10SM CLR 31/20 A2984 940 52 3000 190/13 RMK AO2
14837KMSN MSN20120619192509306/19/12 19:25:31  5-MIN KMSN 200125Z 19009KT 10SM CLR 31/20 A2984 940 52 3000 190/09 RMK AO2
14837KMSN MSN20120619193009306/19/12 19:30:31  5-MIN KMSN 200130Z 19010KT 10SM CLR 31/20 A2984 940 52 3000 190/10 RMK AO2
14837KMSN MSN20120619193509306/19/12 19:35:31  5-MIN KMSN 200135Z 19011KT 10SM CLR 31/20 A2984 940 52 3000 190/11 RMK AO2
14837KMSN MSN20120619194009906/19/12 19:40:31  5-MIN KMSN 200140Z 19013G18KT 10SM CLR 31/20 A2984 940 52 3000 190/13G18 RMK AO2
14837KMSN MSN20120619194509906/19/12 19:45:31  5-MIN KMSN 200145Z 19012G18KT 10SM CLR 31/20 A2984 940 52 3000 190/12G18 RMK AO2
14837KMSN MSN20120619195011606/19/12 19:50:31  5-MIN KMSN 200150Z 19016G24KT 10SM CLR 31/19 A2984 940 51 3000 190/16G24 RMK AO2 SLP097 T03060194
14837KMSN MSN20120619195509906/19/12 19:55:31  5-MIN KMSN 200155Z 19012G24KT 10SM CLR 31/19 A2984 940 51 3000 190/12G24 RMK AO2
14837KMSN MSN20120619200009906/19/12 20:00:31  5-MIN KMSN 200200Z 19013G20KT 10SM CLR 30/19 A2984 940 52 2900 190/13G20 RMK AO2
14837KMSN MSN20120619200509906/19/12 20:05:31  5-MIN KMSN 200205Z 18013G19KT 10SM CLR 30/20 A2984 940 54 2900 190/13G19 RMK AO2
14837KMSN MSN20120619201009906/19/12 20:10:31  5-MIN KMSN 200210Z 19012G19KT 10SM CLR 30/20 A2984 940 54 2900 190/12G19 RMK AO2
14837KMSN MSN20120619201509906/19/12 20:15:31  5-MIN KMSN 200215Z 19014G22KT 10SM CLR 30/20 A2985 930 54 2900 190/14G22 RMK AO2
14837KMSN MSN20120619202009906/19/12 20:20:31  5-MIN KMSN 200220Z 19014G22KT 10SM CLR 30/20 A2985 930 54 2900 190/14G22 RMK AO2
14837KMSN MSN20120619202509906/19/12 20:25:31  5-MIN KMSN 200225Z 19011G21KT 10SM CLR 30/20 A2985 930 54 2900 190/11G21 RMK AO2
14837KMSN MSN20120619203009906/19/12 20:30:31  5-MIN KMSN 200230Z 19013G21KT 10SM CLR 30/20 A2985 930 54 2900 190/13G21 RMK AO2
14837KMSN MSN20120619203509906/19/12 20:35:31  5-MIN KMSN 200235Z 19012G18KT 10SM CLR 30/20 A2985 930 54 2900 190/12G18 RMK AO2
14837KMSN MSN20120619204009906/19/12 20:40:31  5-MIN KMSN 200240Z 20014G19KT 10SM CLR 30/20 A2985 930 54 2900 200/14G19 RMK AO2
14837KMSN MSN20120619204509906/19/12 20:45:31  5-MIN KMSN 200245Z 19015G24KT 10SM CLR 29/20 A2985 930 56 2800 190/15G24 RMK AO2
14837KMSN MSN20120619205012206/19/12 20:50:31  5-MIN KMSN 200250Z 19012G24KT 10SM CLR 29/20 A2985 930 56 2800 190/12G24 RMK AO2 SLP099 T02940200 55005
14837KMSN MSN20120619205509906/19/12 20:55:31  5-MIN KMSN 200255Z 18015G23KT 10SM CLR 29/20 A2985 930 56 2800 190/15G23 RMK AO2
14837KMSN MSN20120619210009906/19/12 21:00:31  5-MIN KMSN 200300Z 19011G23KT 10SM CLR 29/20 A2985 930 56 2800 190/11G23 RMK AO2
14837KMSN MSN20120619210509906/19/12 21:05:31  5-MIN KMSN 200305Z 19014G19KT 10SM CLR 29/20 A2985 930 56 2800 190/14G19 RMK AO2
14837KMSN MSN20120619211009906/19/12 21:10:31  5-MIN KMSN 200310Z 19012G19KT 10SM CLR 29/20 A2986 920 56 2800 190/12G19 RMK AO2
14837KMSN MSN20120619211509306/19/12 21:15:31  5-MIN KMSN 200315Z 19011KT 10SM CLR 29/20 A2986 920 58 2800 190/11 RMK AO2
14837KMSN MSN20120619212009906/19/12 21:20:31  5-MIN KMSN 200320Z 18014G20KT 10SM CLR 29/20 A2986 920 58 2800 190/14G20 RMK AO2
14837KMSN MSN20120619212509906/19/12 21:25:31  5-MIN KMSN 200325Z 19013G20KT 10SM CLR 29/20 A2986 920 58 2800 190/13G20 RMK AO2
14837KMSN MSN20120619213009906/19/12 21:30:31  5-MIN KMSN 200330Z 18014G19KT 10SM CLR 29/20 A2986 920 58 2800 190/14G19 RMK AO2
14837KMSN MSN20120619213509906/19/12 21:35:31  5-MIN KMSN 200335Z 19013G19KT 10SM CLR 29/20 A2987 910 58 2800 190/13G19 RMK AO2
14837KMSN MSN20120619214009906/19/12 21:40:31  5-MIN KMSN 200340Z 19011G19KT 10SM CLR 29/20 A2987 910 58 2800 190/11G19 RMK AO2
14837KMSN MSN20120619214509906/19/12 21:45:31  5-MIN KMSN 200345Z 19013G19KT 10SM CLR 29/20 A2987 910 58 2800 190/13G19 RMK AO2
14837KMSN MSN20120619215011606/19/12 21:50:31  5-MIN KMSN 200350Z 18012G19KT 10SM CLR 29/20 A2987 910 58 2800 190/12G19 RMK AO2 SLP106 T02890200
14837KMSN MSN20120619215509906/19/12 21:55:31  5-MIN KMSN 200355Z 19012G20KT 10SM CLR 29/20 A2987 910 58 2800 190/12G20 RMK AO2
14837KMSN MSN20120619220009906/19/12 22:00:31  5-MIN KMSN 200400Z 19012G20KT 10SM CLR 29/20 A2987 910 58 2700 190/12G20 RMK AO2
14837KMSN MSN20120619220509306/19/12 22:05:31  5-MIN KMSN 200405Z 19011KT 10SM CLR 28/20 A2987 910 60 2700 190/11 RMK AO2
14837KMSN MSN20120619221009906/19/12 22:10:31  5-MIN KMSN 200410Z 19016G20KT 10SM CLR 28/20 A2987 910 60 2700 190/16G20 RMK AO2
14837KMSN MSN20120619221509906/19/12 22:15:31  5-MIN KMSN 200415Z 19015G22KT 10SM CLR 28/20 A2987 910 60 2700 190/15G22 RMK AO2
14837KMSN MSN20120619222009906/19/12 22:20:31  5-MIN KMSN 200420Z 19012G22KT 10SM CLR 28/20 A2987 910 60 2700 190/12G22 RMK AO2
14837KMSN MSN20120619222509906/19/12 22:25:31  5-MIN KMSN 200425Z 19011G18KT 10SM CLR 28/20 A2987 910 60 2700 190/11G18 RMK AO2
14837KMSN MSN20120619223009906/19/12 22:30:31  5-MIN KMSN 200430Z 19011G18KT 10SM CLR 28/20 A2988 910 60 2700 190/11G18 RMK AO2
14837KMSN MSN20120619223509306/19/12 22:35:31  5-MIN KMSN 200435Z 19012KT 10SM CLR 28/20 A2988 900 60 2700 200/12 RMK AO2
14837KMSN MSN20120619224009906/19/12 22:40:31  5-MIN KMSN 200440Z 20010G18KT 10SM CLR 28/20 A2988 900 60 2700 200/10G18 RMK AO2
14837KMSN MSN20120619224509306/19/12 22:45:31  5-MIN KMSN 200445Z 20010KT 10SM CLR 28/20 A2988 910 60 2700 200/10 RMK AO2
14837KMSN MSN20120619225011606/19/12 22:50:31  5-MIN KMSN 200450Z 19013G19KT 10SM CLR 28/20 A2988 900 60 2700 190/13G19 RMK AO2 SLP109 T02830200
14837KMSN MSN20120619225509906/19/12 22:55:31  5-MIN KMSN 200455Z 20013G19KT 10SM CLR 28/20 A2988 900 60 2700 200/13G19 RMK AO2
14837KMSN MSN20120619230009906/19/12 23:00:31  5-MIN KMSN 200500Z 20010G18KT 10SM CLR 28/19 A2988 900 58 2700 200/10G18 RMK AO2
14837KMSN MSN20120619230509906/19/12 23:05:31  5-MIN KMSN 200505Z 19013G19KT 10SM CLR 28/19 A2988 910 58 2700 190/13G19 RMK AO2
14837KMSN MSN20120619231009906/19/12 23:10:31  5-MIN KMSN 200510Z 20012G19KT 10SM CLR 28/19 A2988 900 58 2700 200/12G19 RMK AO2
14837KMSN MSN20120619231509906/19/12 23:15:31  5-MIN KMSN 200515Z 19015G19KT 10SM CLR 28/19 A2988 900 58 2700 190/15G19 RMK AO2
14837KMSN MSN20120619232009906/19/12 23:20:31  5-MIN KMSN 200520Z 19012G19KT 10SM CLR 28/19 A2988 900 60 2600 190/12G19 RMK AO2
14837KMSN MSN20120619232509906/19/12 23:25:31  5-MIN KMSN 200525Z 19011G18KT 10SM CLR 28/19 A2988 910 60 2600 200/11G18 RMK AO2
14837KMSN MSN20120619233009906/19/12 23:30:31  5-MIN KMSN 200530Z 20014G20KT 10SM CLR 28/19 A2987 910 60 2600 200/14G20 RMK AO2
14837KMSN MSN20120619233509906/19/12 23:35:31  5-MIN KMSN 200535Z 19013G20KT 10SM CLR 28/19 A2987 910 60 2600 190/13G20 RMK AO2
14837KMSN MSN20120619234009906/19/12 23:40:31  5-MIN KMSN 200540Z 20010G18KT 10SM CLR 28/19 A2987 910 60 2600 200/10G18 RMK AO2
14837KMSN MSN20120619234509906/19/12 23:45:31  5-MIN KMSN 200545Z 19013G20KT 10SM CLR 28/19 A2987 910 60 2600 190/13G20 RMK AO2
14837KMSN MSN20120619235014406/19/12 23:50:31  5-MIN KMSN 200550Z 20012G20KT 10SM CLR 28/19 A2987 910 58 2600 200/12G20 RMK AO2 SLP108 T02780189 10322 20278 403500256 53005
14837KMSN MSN20120619235509906/19/12 23:55:31  5-MIN KMSN 200555Z 19012G17KT 10SM CLR 28/19 A2987 910 58 2600 190/12G17 RMK AO2
14837KMSN MSN20120620000009906/20/12 00:00:32  5-MIN KMSN 200600Z 20011G17KT 10SM CLR 28/19 A2987 910 58 2600 200/11G17 RMK AO2
14837KMSN MSN20120620000509906/20/12 00:05:31  5-MIN KMSN 200605Z 19011G18KT 10SM CLR 28/19 A2987 910 58 2600 190/11G18 RMK AO2
14837KMSN MSN20120620001009906/20/12 00:10:31  5-MIN KMSN 200610Z 20010G18KT 10SM CLR 28/19 A2988 900 58 2600 200/10G18 RMK AO2
14837KMSN MSN20120620001511506/20/12 00:15:31  5-MIN KMSN 200615Z 20009G18KT 180V250 10SM CLR 28/19 A2988 900 58 2600 210/09G18 180V250 RMK AO2
14837KMSN MSN20120620002009906/20/12 00:20:31  5-MIN KMSN 200620Z 20009G17KT 10SM CLR 28/19 A2988 900 58 2600 200/09G17 RMK AO2
14837KMSN MSN20120620010509306/20/12 01:05:31  5-MIN KMSN 200705Z 19011KT 10SM CLR 27/19 A2988 900 62 2500 190/11 RMK AO2
14837KMSN MSN20120620011009906/20/12 01:10:31  5-MIN KMSN 200710Z 19014G17KT 10SM CLR 27/19 A2988 900 62 2500 200/14G17 RMK AO2
14837KMSN MSN20120620011509906/20/12 01:15:31  5-MIN KMSN 200715Z 18011G17KT 10SM CLR 27/19 A2988 900 62 2500 180/11G17 RMK AO2
14837KMSN MSN20120620012009306/20/12 01:20:31  5-MIN KMSN 200720Z 19011KT 10SM CLR 27/19 A2988 900 64 2500 190/11 RMK AO2
14837KMSN MSN20120620012509306/20/12 01:25:31  5-MIN KMSN 200725Z 19010KT 10SM CLR 27/19 A2988 900 64 2500 190/10 RMK AO2
14837KMSN MSN20120620013009906/20/12 01:30:31  5-MIN KMSN 200730Z 19010G17KT 10SM CLR 27/19 A2988 900 64 2500 190/10G17 RMK AO2
14837KMSN MSN20120620013509306/20/12 01:35:31  5-MIN KMSN 200735Z 19012KT 10SM CLR 27/19 A2988 900 64 2500 190/12 RMK AO2
14837KMSN MSN20120620014009306/20/12 01:40:31  5-MIN KMSN 200740Z 19011KT 10SM CLR 27/19 A2988 900 64 2500 190/11 RMK AO2
14837KMSN MSN20120620014509906/20/12 01:45:31  5-MIN KMSN 200745Z 19011G17KT 10SM CLR 26/19 A2988 900 66 2400 190/11G17 RMK AO2
14837KMSN MSN20120620015011006/20/12 01:50:31  5-MIN KMSN 200750Z 19011KT 10SM CLR 26/19 A2988 900 66 2400 190/11 RMK AO2 SLP110 T02610194
14837KMSN MSN20120620015509306/20/12 01:55:31  5-MIN KMSN 200755Z 19009KT 10SM CLR 27/19 A2988 900 64 2500 190/09 RMK AO2
14837KMSN MSN20120620020009306/20/12 02:00:31  5-MIN KMSN 200800Z 19010KT 10SM CLR 26/19 A2988 900 66 2400 190/10 RMK AO2
14837KMSN MSN20120620020509306/20/12 02:05:31  5-MIN KMSN 200805Z 19011KT 10SM CLR 26/19 A2988 900 66 2400 190/11 RMK AO2
14837KMSN MSN20120620021009306/20/12 02:10:31  5-MIN KMSN 200810Z 19009KT 10SM CLR 26/19 A2988 900 66 2400 190/09 RMK AO2
14837KMSN MSN20120620021509306/20/12 02:15:31  5-MIN KMSN 200815Z 20009KT 10SM CLR 26/19 A2988 900 66 2400 200/09 RMK AO2
14837KMSN MSN20120620022009906/20/12 02:20:31  5-MIN KMSN 200820Z 19012G16KT 10SM CLR 26/19 A2988 900 66 2400 190/12G16 RMK AO2
14837KMSN MSN20120620022509906/20/12 02:25:31  5-MIN KMSN 200825Z 19010G16KT 10SM CLR 26/19 A2988 900 66 2400 190/10G16 RMK AO2
14837KMSN MSN20120620023009306/20/12 02:30:31  5-MIN KMSN 200830Z 19010KT 10SM CLR 26/19 A2988 900 66 2400 190/10 RMK AO2
14837KMSN MSN20120620023509306/20/12 02:35:31  5-MIN KMSN 200835Z 19009KT 10SM CLR 26/19 A2989 900 66 2400 190/09 RMK AO2
14837KMSN MSN20120620024009906/20/12 02:40:31  5-MIN KMSN 200840Z 19011G18KT 10SM CLR 26/19 A2989 900 66 2400 190/11G18 RMK AO2
14837KMSN MSN20120620024509906/20/12 02:45:31  5-MIN KMSN 200845Z 19008G18KT 10SM CLR 26/19 A2989 890 66 2400 190/08G18 RMK AO2
14837KMSN MSN20120620025011606/20/12 02:50:31  5-MIN KMSN 200850Z 19009KT 10SM CLR 26/19 A2989 890 68 2400 190/09 RMK AO2 SLP113 T02560194 50008
14837KMSN MSN20120620025509906/20/12 02:55:31  5-MIN KMSN 200855Z 19011G15KT 10SM CLR 26/19 A2989 890 68 2400 200/11G15 RMK AO2
14837KMSN MSN20120620030009906/20/12 03:00:31  5-MIN KMSN 200900Z 19010G16KT 10SM CLR 26/19 A2989 890 68 2400 190/10G16 RMK AO2
14837KMSN MSN20120620030509906/20/12 03:05:31  5-MIN KMSN 200905Z 19010G16KT 10SM CLR 26/19 A2989 890 68 2400 190/10G16 RMK AO2
14837KMSN MSN20120620031009906/20/12 03:10:31  5-MIN KMSN 200910Z 19012G16KT 10SM CLR 26/19 A2989 890 68 2400 190/12G16 RMK AO2
14837KMSN MSN20120620031509906/20/12 03:15:31  5-MIN KMSN 200915Z 19008G16KT 10SM CLR 26/19 A2989 890 68 2400 200/08G16 RMK AO2
14837KMSN MSN20120620032009906/20/12 03:20:31  5-MIN KMSN 200920Z 19009G17KT 10SM CLR 26/19 A2989 890 68 2400 190/09G17 RMK AO2
14837KMSN MSN20120620032509906/20/12 03:25:31  5-MIN KMSN 200925Z 19010G17KT 10SM CLR 26/19 A2989 890 68 2400 200/10G17 RMK AO2
14837KMSN MSN20120620033009306/20/12 03:30:31  5-MIN KMSN 200930Z 19010KT 10SM CLR 26/19 A2989 890 68 2400 190/10 RMK AO2
14837KMSN MSN20120620033509306/20/12 03:35:31  5-MIN KMSN 200935Z 19009KT 10SM CLR 26/19 A2989 890 68 2400 190/09 RMK AO2
14837KMSN MSN20120620034009306/20/12 03:40:31  5-MIN KMSN 200940Z 19009KT 10SM CLR 26/19 A2989 890 68 2300 200/09 RMK AO2
14837KMSN MSN20120620034509606/20/12 03:45:31  5-MIN KMSN 200945Z 19008KT 10SM FEW060 26/19 A2990 890 68 2300 190/08 RMK AO2
14837KMSN MSN20120620035011306/20/12 03:50:31  5-MIN KMSN 200950Z 19008KT 10SM FEW060 26/19 A2990 880 68 2300 190/08 RMK AO2 SLP116 T02560194
14837KMSN MSN20120620035509606/20/12 03:55:31  5-MIN KMSN 200955Z 19009KT 10SM FEW060 26/19 A2990 880 66 2300 190/09 RMK AO2
14837KMSN MSN20120620040010206/20/12 04:00:31  5-MIN KMSN 201000Z 19010G16KT 10SM FEW060 26/19 A2990 880 66 2300 190/10G16 RMK AO2
14837KMSN MSN20120620040510206/20/12 04:05:31  5-MIN KMSN 201005Z 19008G16KT 10SM FEW060 25/19 A2990 880 68 2300 190/08G16 RMK AO2
14837KMSN MSN20120620041009606/20/12 04:10:31  5-MIN KMSN 201010Z 19008KT 10SM FEW060 25/19 A2990 880 68 2300 190/08 RMK AO2
14837KMSN MSN20120620041509306/20/12 04:15:31  5-MIN KMSN 201015Z 19011KT 10SM CLR 25/19 A2990 880 68 2300 190/11 RMK AO2
14837KMSN MSN20120620042009906/20/12 04:20:31  5-MIN KMSN 201020Z 19009G15KT 10SM CLR 25/19 A2990 880 68 2300 190/09G15 RMK AO2
14837KMSN MSN20120620042509306/20/12 04:25:31  5-MIN KMSN 201025Z 19008KT 10SM CLR 25/19 A2991 880 68 2300 190/08 RMK AO2
14837KMSN MSN20120620043009306/20/12 04:30:31  5-MIN KMSN 201030Z 18008KT 10SM CLR 25/19 A2991 880 68 2300 190/08 RMK AO2
14837KMSN MSN20120620043509306/20/12 04:35:31  5-MIN KMSN 201035Z 19008KT 10SM CLR 25/19 A2991 880 68 2300 190/08 RMK AO2
14837KMSN MSN20120620044009306/20/12 04:40:31  5-MIN KMSN 201040Z 19007KT 10SM CLR 25/19 A2991 880 68 2300 190/07 RMK AO2
14837KMSN MSN20120620044509306/20/12 04:45:31  5-MIN KMSN 201045Z 19009KT 10SM CLR 25/19 A2991 880 68 2300 190/09 RMK AO2
14837KMSN MSN20120620045011006/20/12 04:50:31  5-MIN KMSN 201050Z 19012KT 10SM CLR 25/19 A2991 880 68 2300 190/12 RMK AO2 SLP120 T02500189
14837KMSN MSN20120620045509306/20/12 04:55:31  5-MIN KMSN 201055Z 18010KT 10SM CLR 25/19 A2991 870 68 2300 180/10 RMK AO2
14837KMSN MSN20120620050009306/20/12 05:00:31  5-MIN KMSN 201100Z 19011KT 10SM CLR 25/19 A2991 870 68 2300 190/11 RMK AO2
14837KMSN MSN20120620050509306/20/12 05:05:31  5-MIN KMSN 201105Z 19012KT 10SM CLR 25/19 A2991 870 68 2300 190/12 RMK AO2
14837KMSN MSN20120620051009306/20/12 05:10:31  5-MIN KMSN 201110Z 19012KT 10SM CLR 25/19 A2992 870 68 2300 190/12 RMK AO2
14837KMSN MSN20120620051509306/20/12 05:15:31  5-MIN KMSN 201115Z 19012KT 10SM CLR 25/19 A2992 870 68 2300 190/12 RMK AO2
14837KMSN MSN20120620052009306/20/12 05:20:31  5-MIN KMSN 201120Z 19013KT 10SM CLR 25/19 A2992 870 68 2300 190/13 RMK AO2
14837KMSN MSN20120620052509906/20/12 05:25:31  5-MIN KMSN 201125Z 19011G17KT 10SM CLR 25/19 A2992 870 68 2300 190/11G17 RMK AO2
14837KMSN MSN20120620053009906/20/12 05:30:31  5-MIN KMSN 201130Z 19012G18KT 10SM CLR 26/19 A2992 870 66 2300 190/12G18 RMK AO2
14837KMSN MSN20120620053509906/20/12 05:35:31  5-MIN KMSN 201135Z 19010G18KT 10SM CLR 26/19 A2992 870 66 2300 190/10G18 RMK AO2
14837KMSN MSN20120620054009906/20/12 05:40:31  5-MIN KMSN 201140Z 19011G17KT 10SM CLR 26/19 A2992 860 66 2300 190/11G17 RMK AO2
14837KMSN MSN20120620054509906/20/12 05:45:31  5-MIN KMSN 201145Z 19010G17KT 10SM CLR 26/19 A2992 860 66 2300 190/10G17 RMK AO2
14837KMSN MSN20120620055013406/20/12 05:50:31  5-MIN KMSN 201150Z 19010G17KT 10SM CLR 26/19 A2992 860 66 2300 190/10G17 RMK AO2 SLP125 T02560189 10278 20250 53004
14837KMSN MSN20120620055509306/20/12 05:55:31  5-MIN KMSN 201155Z 19011KT 10SM CLR 26/19 A2993 860 66 2300 190/11 RMK AO2
14837KMSN MSN20120620060009606/20/12 06:00:31  5-MIN KMSN 201200Z 19010KT 10SM FEW070 26/19 A2993 860 66 2300 200/10 RMK AO2
14837KMSN MSN20120620060510206/20/12 06:05:31  5-MIN KMSN 201205Z 19009G15KT 10SM FEW070 26/19 A2993 860 64 2400 190/09G15 RMK AO2
14837KMSN MSN20120620061010206/20/12 06:10:31  5-MIN KMSN 201210Z 19010G15KT 10SM FEW065 26/19 A2993 860 64 2400 200/10G15 RMK AO2
14837KMSN MSN20120620061510206/20/12 06:15:31  5-MIN KMSN 201215Z 19012G19KT 10SM SCT065 26/19 A2993 860 64 2400 190/12G19 RMK AO2
14837KMSN MSN20120620062010906/20/12 06:20:31  5-MIN KMSN 201220Z 20011G21KT 10SM FEW055 BKN070 26/19 A2993 850 64 2400 200/11G21 RMK AO2
14837KMSN MSN20120620062510906/20/12 06:25:31  5-MIN KMSN 201225Z 20010G21KT 10SM FEW060 BKN070 26/19 A2993 860 64 2400 200/10G21 RMK AO2
14837KMSN MSN20120620063010206/20/12 06:30:31  5-MIN KMSN 201230Z 20011G18KT 10SM BKN070 26/19 A2993 860 64 2400 200/11G18 RMK AO2
14837KMSN MSN20120620063510206/20/12 06:35:31  5-MIN KMSN 201235Z 20011G16KT 10SM BKN070 26/19 A2993 850 64 2400 200/11G16 RMK AO2
14837KMSN MSN20120620064010206/20/12 06:40:31  5-MIN KMSN 201240Z 19009G17KT 10SM BKN070 27/19 A2993 850 62 2400 190/09G17 RMK AO2
14837KMSN MSN20120620064510206/20/12 06:45:31  5-MIN KMSN 201245Z 21008G17KT 10SM BKN065 27/19 A2993 850 62 2400 210/08G17 RMK AO2
14837KMSN MSN20120620065011906/20/12 06:50:31  5-MIN KMSN 201250Z 20011G19KT 10SM BKN065 26/19 A2993 850 64 2400 200/11G19 RMK AO2 SLP128 T02610189
14837KMSN MSN20120620065510206/20/12 06:55:31  5-MIN KMSN 201255Z 19011G19KT 10SM BKN070 26/19 A2993 850 64 2400 190/11G19 RMK AO2
14837KMSN MSN20120620070010206/20/12 07:00:31  5-MIN KMSN 201300Z 19009G18KT 10SM BKN070 26/19 A2994 850 64 2400 190/09G18 RMK AO2
14837KMSN MSN20120620070511806/20/12 07:05:31  5-MIN KMSN 201305Z 21009G15KT 170V240 10SM BKN070 26/19 A2993 850 64 2400 210/09G15 170V240 RMK AO2
14837KMSN MSN20120620071010206/20/12 07:10:31  5-MIN KMSN 201310Z 21009G16KT 10SM BKN070 26/19 A2994 850 64 2400 210/09G16 RMK AO2
14837KMSN MSN20120620071510206/20/12 07:15:31  5-MIN KMSN 201315Z 20011G17KT 10SM BKN070 26/19 A2994 850 64 2400 200/11G17 RMK AO2
14837KMSN MSN20120620072010206/20/12 07:20:31  5-MIN KMSN 201320Z 19008G17KT 10SM BKN070 27/19 A2994 850 62 2400 190/08G17 RMK AO2
14837KMSN MSN20120620072510206/20/12 07:25:31  5-MIN KMSN 201325Z 20008G17KT 10SM SCT070 27/19 A2994 850 62 2400 200/08G17 RMK AO2
14837KMSN MSN20120620073010206/20/12 07:30:31  5-MIN KMSN 201330Z 20011G17KT 10SM SCT070 27/19 A2993 850 62 2400 200/11G17 RMK AO2
14837KMSN MSN20120620073510206/20/12 07:35:31  5-MIN KMSN 201335Z 19010G18KT 10SM SCT070 27/19 A2993 850 60 2500 190/10G18 RMK AO2
14837KMSN MSN20120620074010206/20/12 07:40:31  5-MIN KMSN 201340Z 19013G20KT 10SM SCT070 28/19 A2993 850 58 2600 190/13G20 RMK AO2
14837KMSN MSN20120620074510206/20/12 07:45:31  5-MIN KMSN 201345Z 20007G20KT 10SM FEW070 28/19 A2993 850 60 2600 200/07G20 RMK AO2
14837KMSN MSN20120620075011906/20/12 07:50:31  5-MIN KMSN 201350Z 22009G15KT 10SM FEW070 28/19 A2993 850 60 2600 220/09G15 RMK AO2 SLP128 T02780194
14837KMSN MSN20120620075511806/20/12 07:55:31  5-MIN KMSN 201355Z 20009G17KT 180V240 10SM FEW070 28/19 A2993 850 58 2600 200/09G17 180V240 RMK AO2
14837KMSN MSN20120620080010206/20/12 08:00:31  5-MIN KMSN 201400Z 20009G17KT 10SM FEW070 28/19 A2993 850 58 2600 200/09G17 RMK AO2
14837KMSN MSN20120620080510206/20/12 08:05:31  5-MIN KMSN 201405Z 19010G19KT 10SM FEW070 28/19 A2993 850 58 2600 190/10G19 RMK AO2
14837KMSN MSN20120620081011806/20/12 08:10:31  5-MIN KMSN 201410Z 20008G19KT 130V240 10SM FEW070 29/19 A2994 850 56 2700 200/08G19 130V240 RMK AO2
14837KMSN MSN20120620081510206/20/12 08:15:31  5-MIN KMSN 201415Z 21012G18KT 10SM FEW070 28/19 A2993 850 58 2600 210/12G18 RMK AO2
14837KMSN MSN20120620082010206/20/12 08:20:31  5-MIN KMSN 201420Z 21013G18KT 10SM FEW070 29/19 A2993 850 56 2700 210/13G18 RMK AO2
14837KMSN MSN20120620082510206/20/12 08:25:31  5-MIN KMSN 201425Z 19011G18KT 10SM FEW070 29/19 A2993 850 56 2700 190/11G18 RMK AO2
14837KMSN MSN20120620083009906/20/12 08:30:31  5-MIN KMSN 201430Z 20009G18KT 10SM CLR 29/19 A2993 850 56 2700 210/09G18 RMK AO2
14837KMSN MSN20120620083509906/20/12 08:35:31  5-MIN KMSN 201435Z 22013G21KT 10SM CLR 29/19 A2993 860 54 2700 220/13G21 RMK AO2
14837KMSN MSN20120620084009906/20/12 08:40:31  5-MIN KMSN 201440Z 21008G21KT 10SM CLR 29/19 A2993 860 54 2700 210/08G21 RMK AO2
14837KMSN MSN20120620084509906/20/12 08:45:31  5-MIN KMSN 201445Z 21009G20KT 10SM CLR 30/19 A2993 850 52 2800 210/09G20 RMK AO2
14837KMSN MSN20120620085012206/20/12 08:50:31  5-MIN KMSN 201450Z 20015G24KT 10SM CLR 30/19 A2993 860 52 2800 200/15G24 RMK AO2 SLP126 T03000194 53013
14837KMSN MSN20120620085510206/20/12 08:55:31  5-MIN KMSN 201455Z 20013G24KT 10SM FEW045 30/19 A2993 860 51 2800 210/13G24 RMK AO2
14837KMSN MSN20120620090010206/20/12 09:00:31  5-MIN KMSN 201500Z 20013G22KT 10SM FEW045 30/19 A2993 860 51 2800 200/13G22 RMK AO2
14837KMSN MSN20120620090510206/20/12 09:05:31  5-MIN KMSN 201505Z 22009G21KT 10SM FEW045 30/19 A2992 860 51 2800 220/09G21 RMK AO2
14837KMSN MSN20120620091010206/20/12 09:10:31  5-MIN KMSN 201510Z 20014G21KT 10SM FEW048 30/19 A2992 860 51 2800 200/14G21 RMK AO2
14837KMSN MSN20120620091510206/20/12 09:15:31  5-MIN KMSN 201515Z 22011G24KT 10SM FEW048 30/19 A2992 860 51 2800 220/11G24 RMK AO2
14837KMSN MSN20120620092010206/20/12 09:20:31  5-MIN KMSN 201520Z 20013G24KT 10SM FEW048 30/19 A2992 860 51 2800 200/13G24 RMK AO2
14837KMSN MSN20120620092510206/20/12 09:25:31  5-MIN KMSN 201525Z 19011G20KT 10SM FEW048 31/19 A2992 860 49 2900 200/11G20 RMK AO2
14837KMSN MSN20120620093011806/20/12 09:30:31  5-MIN KMSN 201530Z 22008G18KT 180V240 10SM FEW048 31/19 A2992 870 51 2900 220/08G18 180V240 RMK AO2
14837KMSN MSN20120620093510206/20/12 09:35:31  5-MIN KMSN 201535Z 22009G18KT 10SM FEW048 31/19 A2992 870 47 2900 220/09G18 RMK AO2
14837KMSN MSN20120620094010206/20/12 09:40:31  5-MIN KMSN 201540Z 20014G19KT 10SM FEW048 31/19 A2992 870 49 2900 200/14G19 RMK AO2
14837KMSN MSN20120620094510206/20/12 09:45:31  5-MIN KMSN 201545Z 21011G19KT 10SM FEW048 31/19 A2992 870 47 2900 210/11G19 RMK AO2
14837KMSN MSN20120620095011906/20/12 09:50:31  5-MIN KMSN 201550Z 21013G20KT 10SM FEW050 31/19 A2992 870 47 2900 210/13G20 RMK AO2 SLP122 T03110189
14837KMSN MSN20120620095510206/20/12 09:55:31  5-MIN KMSN 201555Z 23010G20KT 10SM FEW050 31/19 A2992 870 49 2900 230/10G20 RMK AO2
14837KMSN MSN20120620100010206/20/12 10:00:31  5-MIN KMSN 201600Z 21013G21KT 10SM FEW050 31/19 A2991 870 49 2900 210/13G21 RMK AO2
14837KMSN MSN20120620100510206/20/12 10:05:31  5-MIN KMSN 201605Z 21011G21KT 10SM FEW050 31/19 A2991 870 47 2900 210/11G21 RMK AO2
14837KMSN MSN20120620101010206/20/12 10:10:31  5-MIN KMSN 201610Z 19015G20KT 10SM FEW050 31/19 A2991 870 47 2900 190/15G20 RMK AO2
14837KMSN MSN20120620101510206/20/12 10:15:31  5-MIN KMSN 201615Z 20014G22KT 10SM FEW050 32/19 A2991 870 46 3000 200/14G22 RMK AO2
14837KMSN MSN20120620102010206/20/12 10:20:31  5-MIN KMSN 201620Z 19013G22KT 10SM FEW050 32/19 A2991 870 46 3000 200/13G22 RMK AO2
14837KMSN MSN20120620102510206/20/12 10:25:31  5-MIN KMSN 201625Z 19016G23KT 10SM FEW055 32/19 A2991 880 46 3000 190/16G23 RMK AO2
14837KMSN MSN20120620103010206/20/12 10:30:31  5-MIN KMSN 201630Z 20011G23KT 10SM FEW055 32/19 A2991 880 46 3000 200/11G23 RMK AO2
14837KMSN MSN20120620103510206/20/12 10:35:31  5-MIN KMSN 201635Z 19017G23KT 10SM FEW055 32/19 A2991 880 44 3100 190/17G23 RMK AO2
14837KMSN MSN20120620104010206/20/12 10:40:31  5-MIN KMSN 201640Z 20011G24KT 10SM FEW055 32/19 A2990 880 46 3000 200/11G24 RMK AO2
14837KMSN MSN20120620104510206/20/12 10:45:31  5-MIN KMSN 201645Z 21014G24KT 10SM FEW055 32/19 A2990 880 46 3100 210/14G24 RMK AO2
14837KMSN MSN20120620105013706/20/12 10:50:31  5-MIN KMSN 201650Z 19018G27KT 10SM FEW050 32/19 A2990 880 44 3100 190/18G27 RMK AO2 PK WND 18027/1650 SLP118 T03220189
14837KMSN MSN20120620105510206/20/12 10:55:31  5-MIN KMSN 201655Z 20013G27KT 10SM FEW050 32/19 A2990 880 44 3100 200/13G27 RMK AO2
14837KMSN MSN20120620110010206/20/12 11:00:31  5-MIN KMSN 201700Z 22010G21KT 10SM FEW050 32/19 A2990 880 46 3000 230/10G21 RMK AO2
14837KMSN MSN20120620110510206/20/12 11:05:31  5-MIN KMSN 201705Z 19014G21KT 10SM FEW050 32/19 A2990 880 44 3100 200/14G21 RMK AO2
14837KMSN MSN20120620111010206/20/12 11:10:31  5-MIN KMSN 201710Z 21014G25KT 10SM FEW050 32/19 A2990 880 44 3100 210/14G25 RMK AO2
14837KMSN MSN20120620111510206/20/12 11:15:31  5-MIN KMSN 201715Z 19017G25KT 10SM FEW050 32/19 A2990 880 44 3100 190/17G25 RMK AO2
14837KMSN MSN20120620112010206/20/12 11:20:31  5-MIN KMSN 201720Z 19016G23KT 10SM FEW050 32/19 A2990 880 44 3100 190/16G23 RMK AO2
14837KMSN MSN20120620112510206/20/12 11:25:31  5-MIN KMSN 201725Z 20017G25KT 10SM FEW050 32/19 A2990 890 44 3100 200/17G25 RMK AO2
14837KMSN MSN20120620113010206/20/12 11:30:31  5-MIN KMSN 201730Z 20013G25KT 10SM FEW050 32/19 A2990 890 44 3100 200/13G25 RMK AO2
14837KMSN MSN20120620113510206/20/12 11:35:31  5-MIN KMSN 201735Z 21010G20KT 10SM FEW050 32/19 A2989 890 44 3100 210/10G20 RMK AO2
14837KMSN MSN20120620114010206/20/12 11:40:31  5-MIN KMSN 201740Z 20013G23KT 10SM FEW050 33/19 A2989 890 43 3200 200/13G23 RMK AO2
14837KMSN MSN20120620114510206/20/12 11:45:31  5-MIN KMSN 201745Z 20015G23KT 10SM FEW050 33/19 A2989 890 43 3200 200/15G23 RMK AO2
14837KMSN MSN20120620115013706/20/12 11:50:31  5-MIN KMSN 201750Z 19018G23KT 10SM FEW050 33/19 A2989 890 43 3200 190/18G23 RMK AO2 SLP112 T03280189 10333 20256 50000
14837KMSN MSN20120620115510206/20/12 11:55:31  5-MIN KMSN 201755Z 19014G23KT 10SM FEW050 33/18 A2989 890 40 3200 190/14G23 RMK AO2
14837KMSN MSN20120620120010206/20/12 12:00:31  5-MIN KMSN 201800Z 21015G22KT 10SM FEW050 33/19 A2989 900 43 3200 210/15G22 RMK AO2
14837KMSN MSN20120620120510206/20/12 12:05:31  5-MIN KMSN 201805Z 20014G22KT 10SM FEW050 33/19 A2988 900 43 3200 200/14G22 RMK AO2
14837KMSN MSN20120620121011806/20/12 12:10:31  5-MIN KMSN 201810Z 21012G21KT 180V250 10SM FEW050 33/19 A2988 900 43 3200 210/12G21 180V250 RMK AO2
14837KMSN MSN20120620121512006/20/12 12:15:31  5-MIN KMSN 201815Z 21014G27KT 10SM FEW050 33/19 A2988 900 42 3200 210/14G27 RMK AO2 PK WND 19027/1813
14837KMSN MSN20120620122012006/20/12 12:20:31  5-MIN KMSN 201820Z 19017G27KT 10SM FEW050 33/19 A2988 900 43 3200 190/17G27 RMK AO2 PK WND 19027/1813
14837KMSN MSN20120620122512006/20/12 12:25:31  5-MIN KMSN 201825Z 20011G22KT 10SM FEW050 33/19 A2988 900 42 3200 200/11G22 RMK AO2 PK WND 19027/1813
14837KMSN MSN20120620123012006/20/12 12:30:31  5-MIN KMSN 201830Z 20014G25KT 10SM FEW050 33/18 A2988 900 40 3200 210/14G25 RMK AO2 PK WND 19027/1813
14837KMSN MSN20120620123513606/20/12 12:35:31  5-MIN KMSN 201835Z 21011G25KT 180V240 10SM FEW050 33/18 A2988 900 40 3200 210/11G25 180V240 RMK AO2 PK WND 19027/1813
14837KMSN MSN20120620124013606/20/12 12:40:31  5-MIN KMSN 201840Z 21009G18KT 170V230 10SM FEW050 33/19 A2988 900 42 3200 210/09G18 170V230 RMK AO2 PK WND 19027/1813
14837KMSN MSN20120620124512006/20/12 12:45:31  5-MIN KMSN 201845Z 20015G21KT 10SM FEW050 33/19 A2988 910 42 3200 200/15G21 RMK AO2 PK WND 19027/1813
14837KMSN MSN20120620125013706/20/12 12:50:31  5-MIN KMSN 201850Z 20014G23KT 10SM FEW050 34/18 A2988 910 39 3300 200/14G23 RMK AO2 PK WND 19027/1813 SLP109 T03390183
14837KMSN MSN20120620125510206/20/12 12:55:31  5-MIN KMSN 201855Z 19012G23KT 10SM FEW060 33/18 A2987 910 40 3200 200/12G23 RMK AO2
14837KMSN MSN20120620130011806/20/12 13:00:31  5-MIN KMSN 201900Z 21010G21KT 180V250 10SM FEW060 34/18 A2987 910 39 3300 210/10G21 180V250 RMK AO2
14837KMSN MSN20120620130510206/20/12 13:05:31  5-MIN KMSN 201905Z 20013G22KT 10SM FEW060 33/18 A2987 910 40 3200 200/13G22 RMK AO2
14837KMSN MSN20120620131010206/20/12 13:10:31  5-MIN KMSN 201910Z 21009G22KT 10SM FEW060 33/18 A2987 910 40 3200 220/09G22 RMK AO2
14837KMSN MSN20120620131510206/20/12 13:15:31  5-MIN KMSN 201915Z 19013G24KT 10SM FEW060 34/18 A2987 910 39 3300 200/13G24 RMK AO2
14837KMSN MSN20120620132010206/20/12 13:20:31  5-MIN KMSN 201920Z 20010G24KT 10SM FEW060 34/18 A2987 910 37 3300 210/10G24 RMK AO2
14837KMSN MSN20120620132510206/20/12 13:25:31  5-MIN KMSN 201925Z 22013G24KT 10SM FEW060 33/18 A2987 910 39 3200 220/13G24 RMK AO2
14837KMSN MSN20120620133011806/20/12 13:30:31  5-MIN KMSN 201930Z 22013G22KT 190V250 10SM FEW060 34/18 A2987 910 37 3300 220/13G22 190V250 RMK AO2
14837KMSN MSN20120620133510206/20/12 13:35:31  5-MIN KMSN 201935Z 23013G22KT 10SM FEW060 33/18 A2986 920 39 3200 230/13G22 RMK AO2
14837KMSN MSN20120620134012006/20/12 13:40:31  5-MIN KMSN 201940Z 19012G26KT 10SM FEW060 34/18 A2986 920 37 3300 200/12G26 RMK AO2 PK WND 19026/1938
14837KMSN MSN20120620134512006/20/12 13:45:31  5-MIN KMSN 201945Z 21012G26KT 10SM FEW060 34/18 A2986 920 37 3300 220/12G26 RMK AO2 PK WND 19026/1938
14837KMSN MSN20120620135013706/20/12 13:50:31  5-MIN KMSN 201950Z 20011G21KT 10SM FEW060 34/18 A2986 920 39 3300 210/11G21 RMK AO2 PK WND 19026/1938 SLP102 T03390183
14837KMSN MSN20120620135510206/20/12 13:55:31  5-MIN KMSN 201955Z 19014G20KT 10SM FEW060 34/18 A2985 930 37 3300 200/14G20 RMK AO2
14837KMSN MSN20120620140012006/20/12 14:00:31  5-MIN KMSN 202000Z 22014G28KT 10SM FEW060 34/18 A2985 930 37 3300 220/14G28 RMK AO2 PK WND 22028/2000
14837KMSN MSN20120620140513606/20/12 14:05:31  5-MIN KMSN 202005Z 22012G28KT 180V240 10SM FEW060 34/18 A2985 930 37 3300 220/12G28 180V240 RMK AO2 PK WND 22028/2000
14837KMSN MSN20120620141013606/20/12 14:10:31  5-MIN KMSN 202010Z 20014G21KT 180V250 10SM FEW060 34/18 A2985 930 36 3400 210/14G21 180V250 RMK AO2 PK WND 22028/2000
14837KMSN MSN20120620141512006/20/12 14:15:31  5-MIN KMSN 202015Z 22015G26KT 10SM FEW060 34/18 A2985 930 37 3300 230/15G26 RMK AO2 PK WND 22028/2000
14837KMSN MSN20120620142012006/20/12 14:20:31  5-MIN KMSN 202020Z 21010G26KT 10SM FEW060 34/18 A2985 930 37 3300 210/10G26 RMK AO2 PK WND 22028/2000
14837KMSN MSN20120620142512006/20/12 14:25:31  5-MIN KMSN 202025Z 20012G23KT 10SM FEW060 34/18 A2984 940 37 3300 200/12G23 RMK AO2 PK WND 22028/2000
14837KMSN MSN20120620143012006/20/12 14:30:31  5-MIN KMSN 202030Z 20011G23KT 10SM FEW060 34/18 A2984 940 37 3300 200/11G23 RMK AO2 PK WND 22028/2000
14837KMSN MSN20120620143512006/20/12 14:35:31  5-MIN KMSN 202035Z 21014G25KT 10SM FEW060 33/18 A2984 940 39 3300 210/14G25 RMK AO2 PK WND 22028/2000
14837KMSN MSN20120620144012006/20/12 14:40:31  5-MIN KMSN 202040Z 20014G27KT 10SM FEW060 34/18 A2984 940 37 3300 200/14G27 RMK AO2 PK WND 22028/2000
14837KMSN MSN20120620144512006/20/12 14:45:31  5-MIN KMSN 202045Z 19017G27KT 10SM FEW060 34/18 A2983 940 36 3400 190/17G27 RMK AO2 PK WND 22028/2000
14837KMSN MSN20120620145014306/20/12 14:50:31  5-MIN KMSN 202050Z 22015G24KT 10SM FEW060 34/17 A2983 940 36 3300 220/15G24 RMK AO2 PK WND 22028/2000 SLP094 T03390172 58013
14837KMSN MSN20120620145510206/20/12 14:55:31  5-MIN KMSN 202055Z 19018G25KT 10SM FEW060 34/18 A2983 950 37 3300 190/18G25 RMK AO2
14837KMSN MSN20120620150012006/20/12 15:00:31  5-MIN KMSN 202100Z 19020G28KT 10SM FEW060 34/18 A2983 950 37 3300 190/20G28 RMK AO2 PK WND 19028/2059
14837KMSN MSN20120620150512006/20/12 15:05:31  5-MIN KMSN 202105Z 19022G32KT 10SM FEW060 34/18 A2983 950 37 3300 200/22G32 RMK AO2 PK WND 19032/2101
14837KMSN MSN20120620151012006/20/12 15:10:31  5-MIN KMSN 202110Z 20019G32KT 10SM SCT060 34/18 A2982 950 36 3400 200/19G32 RMK AO2 PK WND 19032/2101
14837KMSN MSN20120620151512006/20/12 15:15:31  5-MIN KMSN 202115Z 19018G27KT 10SM SCT060 34/18 A2982 960 37 3400 190/18G27 RMK AO2 PK WND 19032/2101
14837KMSN MSN20120620152012006/20/12 15:20:31  5-MIN KMSN 202120Z 19018G26KT 10SM FEW060 33/18 A2982 960 39 3300 200/18G26 RMK AO2 PK WND 19032/2101
14837KMSN MSN20120620152512006/20/12 15:25:31  5-MIN KMSN 202125Z 20012G24KT 10SM FEW060 34/18 A2982 960 37 3400 200/12G24 RMK AO2 PK WND 19032/2101
14837KMSN MSN20120620153012006/20/12 15:30:31  5-MIN KMSN 202130Z 22010G23KT 10SM FEW060 34/18 A2982 960 37 3400 220/10G23 RMK AO2 PK WND 19032/2101
14837KMSN MSN20120620153512006/20/12 15:35:31  5-MIN KMSN 202135Z 21010G22KT 10SM FEW060 34/18 A2982 960 39 3400 210/10G22 RMK AO2 PK WND 19032/2101
14837KMSN MSN20120620154012006/20/12 15:40:31  5-MIN KMSN 202140Z 19019G25KT 10SM FEW060 34/18 A2981 960 39 3400 190/19G25 RMK AO2 PK WND 19032/2101
14837KMSN MSN20120620154512006/20/12 15:45:31  5-MIN KMSN 202145Z 20014G26KT 10SM FEW060 34/18 A2981 960 39 3400 200/14G26 RMK AO2 PK WND 19032/2101
14837KMSN MSN20120620155013706/20/12 15:50:31  5-MIN KMSN 202150Z 20015G26KT 10SM FEW060 34/18 A2981 970 37 3400 200/15G26 RMK AO2 PK WND 19032/2101 SLP086 T03390178
14837KMSN MSN20120620155512006/20/12 15:55:31  5-MIN KMSN 202155Z 20018G26KT 10SM FEW060 33/18 A2981 970 39 3300 200/18G26 RMK AO2 PK WND 19026/2154
14837KMSN MSN20120620160012006/20/12 16:00:31  5-MIN KMSN 202200Z 19018G30KT 10SM FEW060 33/18 A2980 980 39 3300 190/18G30 RMK AO2 PK WND 19030/2158
14837KMSN MSN20120620160512706/20/12 16:05:31  5-MIN KMSN 202205Z 20018G30KT 10SM FEW060 34/18 A2979 980 39 3400 200/18G30 RMK AO2 PK WND 19030/2158 PRESFR
14837KMSN MSN20120620161012006/20/12 16:10:31  5-MIN KMSN 202210Z 19021G27KT 10SM FEW060 34/18 A2979 980 39 3400 190/21G27 RMK AO2 PK WND 19030/2158
14837KMSN MSN20120620161512006/20/12 16:15:31  5-MIN KMSN 202215Z 19022G30KT 10SM FEW060 33/18 A2979 980 40 3300 190/22G30 RMK AO2 PK WND 20030/2214
14837KMSN MSN20120620162012006/20/12 16:20:31  5-MIN KMSN 202220Z 19020G30KT 10SM FEW060 33/18 A2979 990 40 3300 190/20G30 RMK AO2 PK WND 19030/2220
14837KMSN MSN20120620162512006/20/12 16:25:31  5-MIN KMSN 202225Z 19020G30KT 10SM FEW060 33/18 A2978 990 39 3300 190/20G30 RMK AO2 PK WND 19030/2220
14837KMSN MSN20120620163012006/20/12 16:30:31  5-MIN KMSN 202230Z 19015G28KT 10SM FEW060 34/18 A2978 990 37 3400 190/15G28 RMK AO2 PK WND 19030/2220
14837KMSN MSN20120620163512006/20/12 16:35:31  5-MIN KMSN 202235Z 19023G30KT 10SM FEW060 33/18 A2978 990 40 3300 200/23G30 RMK AO2 PK WND 20030/2234
14837KMSN MSN20120620164012006/20/12 16:40:31  5-MIN KMSN 202240Z 19022G34KT 10SM FEW060 33/17 A2978 990 37 3300 190/22G34 RMK AO2 PK WND 20034/2237
14837KMSN MSN20120620164512106/20/12 16:45:31  5-MIN KMSN 202245Z 20015G34KT 10SM FEW060 33/17 A2978 1000 37 3300 200/15G34 RMK AO2 PK WND 20034/2237
14837KMSN MSN20120620165013706/20/12 16:50:31  5-MIN KMSN 202250Z 19013G29KT 10SM FEW060 33/18 A2978 990 39 3300 200/13G29 RMK AO2 PK WND 20034/2237 SLP076 T03330178
14837KMSN MSN20120620165512106/20/12 16:55:31  5-MIN KMSN 202255Z 19015G28KT 10SM FEW060 33/18 A2978 1000 39 3300 190/15G28 RMK AO2 PK WND 21026/2255
14837KMSN MSN20120620170012106/20/12 17:00:31  5-MIN KMSN 202300Z 19021G28KT 10SM FEW060 33/17 A2978 1000 37 3300 190/21G28 RMK AO2 PK WND 19028/2259
14837KMSN MSN20120620170512106/20/12 17:05:31  5-MIN KMSN 202305Z 19022G29KT 10SM FEW060 33/17 A2977 1010 37 3400 190/22G29 RMK AO2 PK WND 19029/2304
14837KMSN MSN20120620171012106/20/12 17:10:31  5-MIN KMSN 202310Z 20015G29KT 10SM FEW060 33/18 A2977 1000 39 3300 200/15G29 RMK AO2 PK WND 18029/2306
14837KMSN MSN20120620171512106/20/12 17:15:31  5-MIN KMSN 202315Z 19020G30KT 10SM FEW060 33/17 A2977 1010 37 3400 190/20G30 RMK AO2 PK WND 20030/2315
14837KMSN MSN20120620172012106/20/12 17:20:31  5-MIN KMSN 202320Z 20018G30KT 10SM FEW060 33/18 A2977 1000 39 3300 200/18G30 RMK AO2 PK WND 18030/2316
14837KMSN MSN20120620172512106/20/12 17:25:31  5-MIN KMSN 202325Z 21019G30KT 10SM FEW060 33/18 A2977 1000 39 3300 210/19G30 RMK AO2 PK WND 18030/2316
14837KMSN MSN20120620173012106/20/12 17:30:31  5-MIN KMSN 202330Z 20017G28KT 10SM FEW060 33/18 A2977 1000 39 3400 200/17G28 RMK AO2 PK WND 18030/2316
14837KMSN MSN20120620173512106/20/12 17:35:31  5-MIN KMSN 202335Z 20013G28KT 10SM FEW060 33/18 A2977 1000 40 3300 210/13G28 RMK AO2 PK WND 18030/2316
14837KMSN MSN20120620174012106/20/12 17:40:31  5-MIN KMSN 202340Z 21017G24KT 10SM FEW060 33/18 A2977 1000 41 3300 210/17G24 RMK AO2 PK WND 18030/2316
14837KMSN MSN20120620174512106/20/12 17:45:31  5-MIN KMSN 202345Z 20015G28KT 10SM FEW060 33/18 A2977 1000 40 3300 200/15G28 RMK AO2 PK WND 18030/2316
14837KMSN MSN20120620175015606/20/12 17:50:31  5-MIN KMSN 202350Z 21014G28KT 10SM FEW060 33/18 A2978 1000 40 3300 220/14G28 RMK AO2 PK WND 18030/2316 SLP076 T03280178 10344 20322 58018
14837KMSN MSN20120620175510206/20/12 17:55:31  5-MIN KMSN 202355Z 21013G23KT 10SM FEW060 32/18 A2978 990 41 3200 220/13G23 RMK AO2
14837KMSN MSN20120620180010206/20/12 18:00:31  5-MIN KMSN 210000Z 22015G23KT 10SM FEW065 32/18 A2978 990 41 3200 220/15G23 RMK AO2
14837KMSN MSN20120620180510206/20/12 18:05:31  5-MIN KMSN 210005Z 21013G24KT 10SM FEW065 32/18 A2978 990 44 3200 210/13G24 RMK AO2
14837KMSN MSN20120620181010206/20/12 18:10:31  5-MIN KMSN 210010Z 21012G24KT 10SM FEW065 32/18 A2978 990 44 3200 210/12G24 RMK AO2
14837KMSN MSN20120620181510206/20/12 18:15:31  5-MIN KMSN 210015Z 21010G23KT 10SM FEW060 32/18 A2978 990 44 3200 210/10G23 RMK AO2
14837KMSN MSN20120620182010206/20/12 18:20:31  5-MIN KMSN 210020Z 21011G23KT 10SM FEW060 32/18 A2978 990 44 3200 210/11G23 RMK AO2
14837KMSN MSN20120620182511806/20/12 18:25:31  5-MIN KMSN 210025Z 21009G22KT 180V250 10SM FEW060 32/18 A2979 990 44 3100 210/09G22 180V250 RMK AO2
14837KMSN MSN20120620183010206/20/12 18:30:31  5-MIN KMSN 210030Z 22013G21KT 10SM FEW060 32/18 A2979 990 44 3100 220/13G21 RMK AO2
14837KMSN MSN20120620183510206/20/12 18:35:31  5-MIN KMSN 210035Z 21010G23KT 10SM FEW060 32/18 A2979 990 44 3100 210/10G23 RMK AO2
14837KMSN MSN20120620184010206/20/12 18:40:31  5-MIN KMSN 210040Z 21011G23KT 10SM FEW060 32/18 A2979 980 44 3100 220/11G23 RMK AO2
14837KMSN MSN20120620184510206/20/12 18:45:31  5-MIN KMSN 210045Z 21010G20KT 10SM FEW060 32/19 A2979 980 46 3100 210/10G20 RMK AO2
14837KMSN MSN20120620185011906/20/12 18:50:31  5-MIN KMSN 210050Z 21009G17KT 10SM FEW060 32/19 A2979 980 46 3100 210/09G17 RMK AO2 SLP080 T03170189
14837KMSN MSN20120620185510206/20/12 18:55:31  5-MIN KMSN 210055Z 21014G20KT 10SM FEW060 32/19 A2979 980 46 3100 210/14G20 RMK AO2
14837KMSN MSN20120620190010206/20/12 19:00:31  5-MIN KMSN 210100Z 21014G24KT 10SM FEW060 31/19 A2979 980 47 3100 210/14G24 RMK AO2
14837KMSN MSN20120620190510206/20/12 19:05:31  5-MIN KMSN 210105Z 21013G24KT 10SM FEW060 31/19 A2979 980 47 3100 210/13G24 RMK AO2
14837KMSN MSN20120620191010206/20/12 19:10:31  5-MIN KMSN 210110Z 20015G25KT 10SM FEW060 31/19 A2979 980 47 3100 210/15G25 RMK AO2
14837KMSN MSN20120620191510206/20/12 19:15:31  5-MIN KMSN 210115Z 21013G25KT 10SM FEW060 31/19 A2980 980 47 3100 210/13G25 RMK AO2
14837KMSN MSN20120620192010206/20/12 19:20:31  5-MIN KMSN 210120Z 20015G24KT 10SM FEW060 31/19 A2980 980 47 3100 200/15G24 RMK AO2
14837KMSN MSN20120620192511806/20/12 19:25:31  5-MIN KMSN 210125Z 21009G21KT 190V250 10SM SCT065 31/19 A2980 980 47 3100 210/09G21 190V250 RMK AO2
14837KMSN MSN20120620193010906/20/12 19:30:31  5-MIN KMSN 210130Z 22010G19KT 10SM BKN065 BKN080 31/19 A2980 970 47 3100 220/10G19 RMK AO2
14837KMSN MSN20120620193510906/20/12 19:35:31  5-MIN KMSN 210135Z 21009G19KT 10SM BKN065 BKN080 31/19 A2980 970 51 3000 210/09G19 RMK AO2
14837KMSN MSN20120620194012506/20/12 19:40:31  5-MIN KMSN 210140Z 21010G17KT 180V240 10SM FEW055 BKN070 31/19 A2981 970 51 3000 220/10G17 180V240 RMK AO2
14837KMSN MSN20120620194510906/20/12 19:45:31  5-MIN KMSN 210145Z 21009G17KT 10SM BKN060 BKN080 31/19 A2981 970 51 3000 210/09G17 RMK AO2
14837KMSN MSN20120620195014206/20/12 19:50:31  5-MIN KMSN 210150Z 20009G15KT 180V240 10SM SCT055 BKN070 31/19 A2981 970 51 3000 210/09G15 180V240 RMK AO2 SLP086 T03060194
14837KMSN MSN20120620195510906/20/12 19:55:31  5-MIN KMSN 210155Z 22012G20KT 10SM BKN060 OVC080 31/19 A2981 970 51 3000 220/12G20 RMK AO2
14837KMSN MSN20120620200011606/20/12 20:00:31  5-MIN KMSN 210200Z 21011G20KT 10SM BKN060 BKN070 BKN085 31/19 A2981 960 51 3000 210/11G20 RMK AO2
14837KMSN MSN20120620200511606/20/12 20:05:31  5-MIN KMSN 210205Z 20012G20KT 10SM BKN060 BKN070 BKN085 31/19 A2981 960 51 3000 210/12G20 RMK AO2
14837KMSN MSN20120620201011606/20/12 20:10:31  5-MIN KMSN 210210Z 20009G20KT 10SM BKN060 BKN070 BKN085 31/19 A2981 960 51 3000 200/09G20 RMK AO2
14837KMSN MSN20120620201513206/20/12 20:15:31  5-MIN KMSN 210215Z 21009G16KT 180V240 10SM BKN060 BKN070 BKN085 31/19 A2981 960 51 3000 210/09G16 180V240 RMK AO2
14837KMSN MSN20120620202011606/20/12 20:20:31  5-MIN KMSN 210220Z 20011G17KT 10SM BKN060 BKN070 BKN085 31/19 A2982 960 51 3000 200/11G17 RMK AO2
14837KMSN MSN20120620202511606/20/12 20:25:31  5-MIN KMSN 210225Z 20011G20KT 10SM BKN060 BKN070 BKN085 31/19 A2981 960 51 3000 200/11G20 RMK AO2
14837KMSN MSN20120620203010906/20/12 20:30:31  5-MIN KMSN 210230Z 21010G20KT 10SM BKN060 BKN075 30/19 A2982 960 52 2900 210/10G20 RMK AO2
14837KMSN MSN20120620203510906/20/12 20:35:31  5-MIN KMSN 210235Z 21009G22KT 10SM SCT060 BKN075 30/19 A2982 960 52 2900 210/09G22 RMK AO2
14837KMSN MSN20120620204010206/20/12 20:40:31  5-MIN KMSN 210240Z 19008G22KT 10SM SCT060 30/20 A2982 960 54 2900 190/08G22 RMK AO2
14837KMSN MSN20120620204509606/20/12 20:45:31  5-MIN KMSN 210245Z 19008KT 10SM FEW060 29/20 A2982 960 56 2900 190/08 RMK AO2
14837KMSN MSN20120620205011906/20/12 20:50:31  5-MIN KMSN 210250Z 19011KT 10SM FEW060 29/20 A2982 960 56 2900 200/11 RMK AO2 SLP089 T02940200 55017
14837KMSN MSN20120620205510206/20/12 20:55:31  5-MIN KMSN 210255Z 19012G17KT 10SM FEW060 29/20 A2982 960 56 2900 190/12G17 RMK AO2
14837KMSN MSN20120620210010206/20/12 21:00:31  5-MIN KMSN 210300Z 19010G18KT 10SM FEW055 29/20 A2982 960 56 2900 190/10G18 RMK AO2
14837KMSN MSN20120620210509906/20/12 21:05:31  5-MIN KMSN 210305Z 20011G18KT 10SM CLR 29/20 A2982 960 56 2900 200/11G18 RMK AO2
14837KMSN MSN20120620211009906/20/12 21:10:31  5-MIN KMSN 210310Z 20009G16KT 10SM CLR 29/20 A2982 960 56 2900 200/09G16 RMK AO2
14837KMSN MSN20120620211509906/20/12 21:15:31  5-MIN KMSN 210315Z 19011G17KT 10SM CLR 29/20 A2982 960 56 2900 200/11G17 RMK AO2
14837KMSN MSN20120620212009306/20/12 21:20:31  5-MIN KMSN 210320Z 20010KT 10SM CLR 29/20 A2982 960 56 2900 200/10 RMK AO2
14837KMSN MSN20120620212509306/20/12 21:25:31  5-MIN KMSN 210325Z 19012KT 10SM CLR 29/20 A2982 960 56 2900 190/12 RMK AO2
14837KMSN MSN20120620213009906/20/12 21:30:31  5-MIN KMSN 210330Z 19010G17KT 10SM CLR 29/20 A2982 960 58 2800 190/10G17 RMK AO2
14837KMSN MSN20120620213509906/20/12 21:35:31  5-MIN KMSN 210335Z 19011G18KT 10SM CLR 29/20 A2981 960 58 2800 190/11G18 RMK AO2
14837KMSN MSN20120620214009906/20/12 21:40:31  5-MIN KMSN 210340Z 19011G18KT 10SM CLR 29/20 A2981 960 58 2800 190/11G18 RMK AO2
14837KMSN MSN20120620214509306/20/12 21:45:31  5-MIN KMSN 210345Z 20010KT 10SM CLR 29/20 A2981 960 58 2800 200/10 RMK AO2
14837KMSN MSN20120620215011606/20/12 21:50:31  5-MIN KMSN 210350Z 19012G18KT 10SM CLR 29/20 A2981 970 58 2800 190/12G18 RMK AO2 SLP087 T02890200
14837KMSN MSN20120620215509906/20/12 21:55:31  5-MIN KMSN 210355Z 19011G21KT 10SM CLR 29/20 A2981 960 56 2900 190/11G21 RMK AO2
14837KMSN MSN20120620220009906/20/12 22:00:31  5-MIN KMSN 210400Z 20007G21KT 10SM CLR 29/20 A2981 960 58 2800 200/07G21 RMK AO2
14837KMSN MSN20120620220509306/20/12 22:05:31  5-MIN KMSN 210405Z 19009KT 10SM CLR 29/20 A2982 960 58 2800 200/09 RMK AO2
14837KMSN MSN20120620221010206/20/12 22:10:31  5-MIN KMSN 210410Z 20011G17KT 10SM FEW060 29/20 A2981 960 58 2800 200/11G17 RMK AO2
14837KMSN MSN20120620221510206/20/12 22:15:31  5-MIN KMSN 210415Z 20010G17KT 10SM SCT060 29/20 A2982 960 58 2800 200/10G17 RMK AO2
14837KMSN MSN20120620222010206/20/12 22:20:31  5-MIN KMSN 210420Z 20011G17KT 10SM BKN065 29/20 A2981 960 58 2800 200/11G17 RMK AO2
14837KMSN MSN20120620222510206/20/12 22:25:31  5-MIN KMSN 210425Z 19011G16KT 10SM BKN060 29/20 A2981 960 58 2800 200/11G16 RMK AO2
14837KMSN MSN20120620223010206/20/12 22:30:31  5-MIN KMSN 210430Z 20011G20KT 10SM BKN060 29/20 A2981 960 58 2800 200/11G20 RMK AO2
14837KMSN MSN20120620223510206/20/12 22:35:31  5-MIN KMSN 210435Z 20008G20KT 10SM BKN060 29/20 A2981 970 58 2800 200/08G20 RMK AO2
14837KMSN MSN20120620224010206/20/12 22:40:31  5-MIN KMSN 210440Z 19010G20KT 10SM BKN060 29/20 A2981 970 58 2800 200/10G20 RMK AO2
14837KMSN MSN20120620224511606/20/12 22:45:31  5-MIN KMSN 210445Z 19011G16KT 10SM SCT060 BKN070 BKN100 29/20 A2981 970 58 2800 200/11G16 RMK AO2
14837KMSN MSN20120620225012006/20/12 22:50:31  5-MIN KMSN 210450Z 19010KT 10SM BKN060 BKN100 29/20 A2981 970 58 2800 200/10 RMK AO2 SLP085 T02890200
14837KMSN MSN20120620225511206/20/12 22:55:31  5-MIN KMSN 210455Z 30009KT 270V330 10SM BKN055 28/20 A2983 950 60 2700 300/09 270V330 RMK AO2
14837KMSN MSN20120620230012306/20/12 23:00:31  5-MIN KMSN 210500Z 31013G19KT 10SM FEW035 BKN055 BKN065 27/19 A2984 940 62 2500 310/13G19 RMK AO2 PRESRR
14837KMSN MSN20120620230511606/20/12 23:05:31  5-MIN KMSN 210505Z 33012G20KT 10SM FEW035 BKN050 BKN065 25/18 A2984 940 64 2300 330/12G20 RMK AO2
14837KMSN MSN20120620231012706/20/12 23:10:31  5-MIN KMSN 210510Z 32012G20KT 10SM FEW040 BKN055 OVC100 24/18 A2984 940 66 2300 320/12G20 RMK AO2 WSHFT 0456
14837KMSN MSN20120620231517706/20/12 23:15:31  5-MIN KMSN 210515Z 31009G17KT 5SM -TSRA SCT042 BKN055 OVC085 23/18 A2984 940 73 2200 310/09G17 RMK AO2 WSHFT 0456 TSB14RAB12 FRQ LTGIC OHD TS OHD MOV NE P0000
14837KMSN MSN20120620232018106/20/12 23:20:31  5-MIN KMSN 210520Z 32006G16KT 2 1/2SM +TSRA SCT041 BKN049 OVC080 22/19 A2984 940 81 2000 320/06G16 RMK AO2 WSHFT 0456 TSB14RAB12 FRQ LTGIC OHD TS OHD MOV NE P0006
14837KMSN MSN20120620232518006/20/12 23:25:31  5-MIN KMSN 210525Z 32005G14KT 4SM -TSRA BR SCT041 BKN049 OVC075 22/19 A2985 930 87 2000 320/05G14 RMK AO2 WSHFT 0456 TSB14RAB12 FRQ LTGIC OHD TS OHD MOV NE P0010
14837KMSN MSN20120620233017206/20/12 23:30:31  5-MIN KMSN 210530Z 31004KT 10SM -TSRA SCT046 BKN055 OVC080 22/19 A2984 940 87 2000 310/04 RMK AO2 WSHFT 0456 TSB14RAB12 FRQ LTGIC OHD TS OHD MOV NE P0010
14837KMSN MSN20120620233517206/20/12 23:35:31  5-MIN KMSN 210535Z 00000KT 10SM -TSRA SCT048 BKN060 OVC085 22/19 A2985 930 87 2000 000/00 RMK AO2 WSHFT 0456 TSB14RAB12 FRQ LTGIC OHD TS OHD MOV NE P0010
14837KMSN MSN20120620234017206/20/12 23:40:31  5-MIN KMSN 210540Z 00000KT 10SM -TSRA SCT044 BKN055 OVC070 22/19 A2985 930 87 2000 000/00 RMK AO2 WSHFT 0456 TSB14RAB12 FRQ LTGIC OHD TS OHD MOV NE P0010
14837KMSN MSN20120620234513706/20/12 23:45:31  5-MIN KMSN 210545Z 00000KT 10SM BKN045 OVC060 22/19 A2986 920 84 2000 000/00 RMK AO2 WSHFT 0456 TSB14E42RAB12E43 P0010
14837KMSN MSN20120620235018806/20/12 23:50:31  5-MIN KMSN 210550Z 00000KT 10SM BKN044 OVC055 22/20 A2985 930 90 2000 000/00 RMK AO2 WSHFT 0456 TSB14E42RAB12E43 SLP102 P0010 60010 T02170200 10328 20217 403440217 51012
14837KMSN MSN20120620235512006/20/12 23:55:31  5-MIN KMSN 210555Z 00000KT 10SM -RA SCT040 BKN047 OVC055 22/19 A2986 920 87 1900 000/00 RMK AO2 P0000
14837KMSN MSN20120621000011206/21/12 00:00:32  5-MIN KMSN 210600Z 25003KT 8SM -RA BKN044 OVC060 22/19 A2986 920 87 1900 260/03 RMK AO2 P0000
14837KMSN MSN20120621000513206/21/12 00:05:31  5-MIN KMSN 210605Z VRB04KT 2SM +RA BR BKN043 BKN060 OVC070 22/19 A2986 920 87 1900 VRB/04 RMK AO2 VIS 3/4V5 P0002
14837KMSN MSN20120621001017006/21/12 00:10:31  5-MIN KMSN 210610Z VRB03KT 2SM -TSRA BR FEW040 BKN060 OVC070 21/19 A2987 910 90 1900 VRB/03 RMK AO2 VIS 3/4V5 TSB10 FRQ LTGIC VC W TS VC W MOV NE P0006
14837KMSN MSN20120621001515906/21/12 00:15:31  5-MIN KMSN 210615Z 31004KT 4SM TSRA BR FEW031 BKN060 OVC075 21/19 A2986 920 87 1900 310/04 RMK AO2 TSB10 FRQ LTGIC VC W TS VC W MOV NE P0007
14837KMSN MSN20120621002015806/21/12 00:20:31  5-MIN KMSN 210620Z 30004KT 5SM -TSRA BR SCT037 BKN060 OVC120 21/19 A2985 930 90 1900 300/04 RMK AO2 TSB10 FRQ LTGIC OHD TS OHD MOV NE P0009
14837KMSN MSN20120621002515606/21/12 00:25:31  5-MIN KMSN 210625Z 00000KT 10SM -TSRA SCT036 BKN060 OVC090 21/19 A2985 930 90 1900 000/00 RMK AO2 TSB10 FRQ LTGIC OHD TS OHD MOV NE P0009
14837KMSN MSN20120621003015606/21/12 00:30:31  5-MIN KMSN 210630Z VRB03KT 10SM -TSRA SCT034 BKN075 OVC090 21/19 A2985 930 90 1900 VRB/03 RMK AO2 TSB10 FRQ LTGIC OHD TS OHD MOV NE P0009
14837KMSN MSN20120621003515806/21/12 00:35:31  5-MIN KMSN 210635Z VRB03KT 10SM TS FEW034 BKN080 OVC110 21/19 A2985 930 90 1900 VRB/03 RMK AO2 TSB10RAE35 FRQ LTGIC OHD TS OHD MOV NE P0009
14837KMSN MSN20120621004016006/21/12 00:40:31  5-MIN KMSN 210640Z 00000KT 10SM TS FEW034 SCT080 BKN100 21/19 A2985 930 90 1900 000/00 RMK AO2 TSB10RAE35 FRQ LTGIC VC E TS VC E MOV NE P0009
14837KMSN MSN20120621004516006/21/12 00:45:31  5-MIN KMSN 210645Z 00000KT 10SM TS FEW038 SCT080 BKN100 21/19 A2985 930 90 1900 000/00 RMK AO2 TSB10RAE35 FRQ LTGIC VC E TS VC E MOV NE P0009
14837KMSN MSN20120621005015506/21/12 00:50:31  5-MIN KMSN 210650Z 30003KT 10SM FEW029 SCT095 BKN110 21/19 A2985 930 93 1800 300/03 RMK AO2 TSB10E49RAE35 FRQ LTG DSNT E TS DSNT E P0009
14837KMSN MSN20120621005509606/21/12 00:55:31  5-MIN KMSN 210655Z 30004KT 10SM BKN085 21/19 A2984 940 93 1800 310/04 RMK AO2
14837KMSN MSN20120621010009606/21/12 01:00:31  5-MIN KMSN 210700Z 30004KT 10SM BKN085 21/19 A2984 930 93 1800 300/04 RMK AO2
14837KMSN MSN20120621010509606/21/12 01:05:31  5-MIN KMSN 210705Z 00000KT 10SM BKN095 21/19 A2984 940 90 1800 000/00 RMK AO2
14837KMSN MSN20120621011009606/21/12 01:10:31  5-MIN KMSN 210710Z 00000KT 10SM BKN095 21/19 A2984 940 90 1800 000/00 RMK AO2
14837KMSN MSN20120621011510306/21/12 01:15:31  5-MIN KMSN 210715Z 00000KT 10SM BKN090 BKN110 21/19 A2983 950 87 1900 000/00 RMK AO2
14837KMSN MSN20120621012010306/21/12 01:20:31  5-MIN KMSN 210720Z 00000KT 10SM SCT090 BKN110 21/19 A2983 950 87 1900 000/00 RMK AO2
14837KMSN MSN20120621012509606/21/12 01:25:31  5-MIN KMSN 210725Z 00000KT 10SM SCT095 21/19 A2983 950 87 1900 000/00 RMK AO2
14837KMSN MSN20120621013010306/21/12 01:30:31  5-MIN KMSN 210730Z 00000KT 10SM FEW100 SCT110 21/19 A2983 950 93 1900 000/00 RMK AO2
14837KMSN MSN20120621013510306/21/12 01:35:31  5-MIN KMSN 210735Z 00000KT 10SM FEW095 SCT110 21/19 A2983 950 90 1900 000/00 RMK AO2
14837KMSN MSN20120621014009606/21/12 01:40:31  5-MIN KMSN 210740Z 23003KT 10SM FEW110 21/19 A2983 950 90 1900 230/03 RMK AO2
14837KMSN MSN20120621014509606/21/12 01:45:31  5-MIN KMSN 210745Z 00000KT 10SM FEW110 21/19 A2983 950 90 1900 000/00 RMK AO2
14837KMSN MSN20120621015011306/21/12 01:50:31  5-MIN KMSN 210750Z 00000KT 10SM SCT110 21/19 A2983 950 90 1900 000/00 RMK AO2 SLP093 T02060189
14837KMSN MSN20120621015509606/21/12 01:55:31  5-MIN KMSN 210755Z 00000KT 10SM SCT110 21/19 A2983 950 90 1900 000/00 RMK AO2
14837KMSN MSN20120621020010306/21/12 02:00:31  5-MIN KMSN 210800Z 23004KT 10SM FEW016 BKN110 21/19 A2983 950 93 1900 240/04 RMK AO2
14837KMSN MSN20120621020510306/21/12 02:05:31  5-MIN KMSN 210805Z 00000KT 10SM SCT016 BKN110 21/19 A2983 950 93 1900 000/00 RMK AO2
14837KMSN MSN20120621021010306/21/12 02:10:31  5-MIN KMSN 210810Z 00000KT 10SM BKN016 BKN110 21/19 A2983 950 93 1900 000/00 RMK AO2
14837KMSN MSN20120621021510306/21/12 02:15:31  5-MIN KMSN 210815Z 29003KT 10SM BKN016 OVC110 21/19 A2983 940 93 1800 290/03 RMK AO2
14837KMSN MSN20120621022010306/21/12 02:20:31  5-MIN KMSN 210820Z 00000KT 10SM BKN016 OVC110 21/19 A2984 940 93 1800 000/00 RMK AO2
14837KMSN MSN20120621022509606/21/12 02:25:31  5-MIN KMSN 210825Z 00000KT 10SM OVC016 21/19 A2984 940 93 1800 000/00 RMK AO2
14837KMSN MSN20120621023009606/21/12 02:30:31  5-MIN KMSN 210830Z 28004KT 10SM OVC016 21/19 A2984 940 93 1800 280/04 RMK AO2
14837KMSN MSN20120621023509606/21/12 02:35:31  5-MIN KMSN 210835Z 28004KT 10SM OVC014 21/19 A2985 930 93 1800 280/04 RMK AO2
14837KMSN MSN20120621024009606/21/12 02:40:31  5-MIN KMSN 210840Z VRB04KT 10SM OVC014 21/19 A2985 930 93 1800 VRB/04 RMK AO2
14837KMSN MSN20120621024509606/21/12 02:45:31  5-MIN KMSN 210845Z VRB04KT 10SM OVC014 21/19 A2985 930 93 1800 VRB/04 RMK AO2
14837KMSN MSN20120621025012506/21/12 02:50:31  5-MIN KMSN 210850Z VRB03KT 10SM OVC014 21/19 A2985 930 93 1800 VRB/03 RMK AO2 SLP101 60009 T02060194 53014
14837KMSN MSN20120621025509606/21/12 02:55:31  5-MIN KMSN 210855Z 28005KT 10SM OVC014 21/19 A2985 930 93 1800 280/05 RMK AO2
14837KMSN MSN20120621030011306/21/12 03:00:31  5-MIN KMSN 210900Z 28004KT 9SM -RA OVC014 21/19 A2985 920 93 1800 280/04 RMK AO2 RAB0859 P0000
14837KMSN MSN20120621030512006/21/12 03:05:31  5-MIN KMSN 210905Z 30010KT 8SM -RA SCT007 OVC014 21/19 A2987 920 90 1800 300/10 RMK AO2 RAB0859 P0000
14837KMSN MSN20120621031012606/21/12 03:10:31  5-MIN KMSN 210910Z 30006G14KT 9SM -RA BKN007 OVC014 20/18 A2987 910 90 1700 300/06G14 RMK AO2 RAB0859 P0000
14837KMSN MSN20120621031512606/21/12 03:15:31  5-MIN KMSN 210915Z 31008G14KT 9SM -RA BKN007 OVC014 19/18 A2987 910 93 1700 310/08G14 RMK AO2 RAB0859 P0000
14837KMSN MSN20120621032013506/21/12 03:20:31  5-MIN KMSN 210920Z 31009KT 5SM -RA BR BKN007 OVC014 19/18 A2987 910 90 1700 310/09 RMK AO2 RAB0859 CIG 005V011 P0000
14837KMSN MSN20120621032514106/21/12 03:25:31  5-MIN KMSN 210925Z 32005G14KT 5SM -RA BR BKN009 OVC013 19/18 A2986 920 93 1600 320/05G14 RMK AO2 RAB0859 CIG 005V011 P0000
14837KMSN MSN20120621033013206/21/12 03:30:31  5-MIN KMSN 210930Z 31005KT 9SM -RA BKN009 OVC013 19/18 A2986 920 93 1600 310/05 RMK AO2 RAB0859 CIG 005V011 P0000
14837KMSN MSN20120621033512106/21/12 03:35:31  5-MIN KMSN 210935Z 32005KT 10SM -RA SCT009 OVC013 19/17 A2986 920 87 1700 320/05 RMK AO2 RAB0859 P0000
14837KMSN MSN20120621034013206/21/12 03:40:31  5-MIN KMSN 210940Z 32008KT 10SM BKN009 OVC018 19/17 A2986 920 90 1600 320/08 RMK AO2 RAB0859E40 CIG 007V014 P0000
14837KMSN MSN20120621034512706/21/12 03:45:31  5-MIN KMSN 210945Z 32006KT 10SM FEW009 BKN020 OVC027 19/17 A2986 920 90 1600 330/06 RMK AO2 RAB0859E40 P0000
14837KMSN MSN20120621035014406/21/12 03:50:31  5-MIN KMSN 210950Z 31005KT 10SM SCT013 BKN022 OVC027 19/17 A2987 910 87 1600 320/05 RMK AO2 RAB0859E40 SLP107 P0000 T01890167
14837KMSN MSN20120621035510306/21/12 03:55:31  5-MIN KMSN 210955Z 32008KT 10SM FEW015 OVC025 19/17 A2987 910 87 1600 320/08 RMK AO2
14837KMSN MSN20120621040010306/21/12 04:00:31  5-MIN KMSN 211000Z 32006KT 10SM FEW017 OVC025 19/17 A2987 910 87 1600 320/06 RMK AO2
14837KMSN MSN20120621040509606/21/12 04:05:31  5-MIN KMSN 211005Z 30006KT 10SM OVC025 19/17 A2988 900 87 1600 310/06 RMK AO2
14837KMSN MSN20120621041010306/21/12 04:10:31  5-MIN KMSN 211010Z 31004KT 10SM BKN025 OVC035 19/16 A2988 900 84 1600 310/04 RMK AO2
14837KMSN MSN20120621041510306/21/12 04:15:31  5-MIN KMSN 211015Z 30005KT 10SM BKN025 OVC037 19/17 A2989 900 87 1600 310/05 RMK AO2
14837KMSN MSN20120621042010306/21/12 04:20:31  5-MIN KMSN 211020Z VRB03KT 10SM SCT027 OVC037 19/17 A2988 900 87 1600 VRB/03 RMK AO2
14837KMSN MSN20120621042510306/21/12 04:25:31  5-MIN KMSN 211025Z 31003KT 10SM FEW027 OVC037 19/17 A2988 900 87 1600 310/03 RMK AO2
14837KMSN MSN20120621043011906/21/12 04:30:31  5-MIN KMSN 211030Z VRB03KT 10SM -RA FEW029 OVC037 19/17 A2988 900 87 1600 VRB/03 RMK AO2 RAB26 P0000
14837KMSN MSN20120621043511906/21/12 04:35:31  5-MIN KMSN 211035Z 31003KT 10SM -RA BKN037 OVC080 19/17 A2988 900 87 1600 310/03 RMK AO2 RAB26 P0000
14837KMSN MSN20120621044011806/21/12 04:40:31  5-MIN KMSN 211040Z 00000KT 10SM BKN037 BKN080 19/17 A2988 900 87 1600 000/00 RMK AO2 RAB26E36 P0000
14837KMSN MSN20120621044511806/21/12 04:45:31  5-MIN KMSN 211045Z 00000KT 10SM SCT037 BKN080 19/17 A2988 900 87 1600 000/00 RMK AO2 RAB26E36 P0000
14837KMSN MSN20120621045014206/21/12 04:50:31  5-MIN KMSN 211050Z 00000KT 10SM FEW037 SCT046 BKN080 19/17 A2989 900 87 1600 000/00 RMK AO2 RAB26E36 SLP114 P0000 T01890167
14837KMSN MSN20120621045511006/21/12 04:55:31  5-MIN KMSN 211055Z 00000KT 10SM FEW037 BKN046 BKN075 19/17 A2989 890 87 1600 000/00 RMK AO2
14837KMSN MSN20120621050010306/21/12 05:00:31  5-MIN KMSN 211100Z 27003KT 10SM BKN046 BKN080 19/17 A2990 890 87 1600 270/03 RMK AO2
14837KMSN MSN20120621050510306/21/12 05:05:31  5-MIN KMSN 211105Z 00000KT 10SM BKN048 OVC075 19/17 A2990 880 87 1600 000/00 RMK AO2
14837KMSN MSN20120621051011006/21/12 05:10:31  5-MIN KMSN 211110Z 30003KT 10SM BKN048 BKN055 OVC075 19/17 A2990 880 87 1600 300/03 RMK AO2
14837KMSN MSN20120621051511006/21/12 05:15:31  5-MIN KMSN 211115Z 30004KT 10SM SCT047 BKN060 OVC075 19/17 A2990 890 87 1600 300/04 RMK AO2
14837KMSN MSN20120621052011006/21/12 05:20:31  5-MIN KMSN 211120Z 00000KT 10SM SCT047 BKN060 OVC075 19/17 A2990 880 87 1600 000/00 RMK AO2
14837KMSN MSN20120621052511006/21/12 05:25:31  5-MIN KMSN 211125Z VRB03KT 10SM SCT049 BKN060 BKN080 19/17 A2990 880 87 1600 VRB/03 RMK AO2
14837KMSN MSN20120621053010306/21/12 05:30:31  5-MIN KMSN 211130Z 00000KT 10SM SCT055 BKN080 19/17 A2991 880 87 1600 000/00 RMK AO2
14837KMSN MSN20120621053510306/21/12 05:35:31  5-MIN KMSN 211135Z 29004KT 10SM SCT060 BKN080 19/17 A2991 880 87 1600 290/04 RMK AO2
14837KMSN MSN20120621054010306/21/12 05:40:31  5-MIN KMSN 211140Z 29003KT 10SM FEW060 BKN080 19/17 A2991 870 87 1600 300/03 RMK AO2
14837KMSN MSN20120621054510306/21/12 05:45:31  5-MIN KMSN 211145Z 29005KT 10SM FEW060 SCT085 19/17 A2991 880 87 1600 290/05 RMK AO2
14837KMSN MSN20120621055014306/21/12 05:50:31  5-MIN KMSN 211150Z 29005KT 10SM FEW080 19/17 A2991 870 87 1600 300/05 RMK AO2 SLP123 60009 70019 T01890167 10217 20189 55003
14837KMSN MSN20120621055509606/21/12 05:55:31  5-MIN KMSN 211155Z 29004KT 10SM SCT085 19/16 A2991 870 84 1600 290/04 RMK AO2
14837KMSN MSN20120621060010306/21/12 06:00:31  5-MIN KMSN 211200Z VRB04KT 10SM FEW090 SCT120 19/17 A2991 870 87 1600 VRB/04 RMK AO2
14837KMSN MSN20120621060510306/21/12 06:05:31  5-MIN KMSN 211205Z VRB04KT 10SM FEW090 SCT120 19/17 A2991 870 84 1600 VRB/04 RMK AO2
14837KMSN MSN20120621061009606/21/12 06:10:31  5-MIN KMSN 211210Z 29005KT 10SM FEW120 19/17 A2992 870 84 1600 290/05 RMK AO2
14837KMSN MSN20120621061509606/21/12 06:15:31  5-MIN KMSN 211215Z 29005KT 10SM SCT120 19/17 A2992 870 87 1600 300/05 RMK AO2
14837KMSN MSN20120621062009606/21/12 06:20:31  5-MIN KMSN 211220Z 30005KT 10SM SCT120 19/17 A2992 870 84 1600 300/05 RMK AO2
14837KMSN MSN20120621062509606/21/12 06:25:31  5-MIN KMSN 211225Z VRB04KT 10SM FEW120 19/17 A2992 860 84 1600 VRB/04 RMK AO2
14837KMSN MSN20120621063009606/21/12 06:30:31  5-MIN KMSN 211230Z 30004KT 10SM FEW120 19/17 A2992 860 84 1600 300/04 RMK AO2
14837KMSN MSN20120621063509606/21/12 06:35:31  5-MIN KMSN 211235Z 29005KT 10SM FEW120 19/17 A2993 860 84 1600 290/05 RMK AO2
14837KMSN MSN20120621064009606/21/12 06:40:31  5-MIN KMSN 211240Z 30005KT 10SM FEW120 19/16 A2993 860 81 1600 310/05 RMK AO2
14837KMSN MSN20120621064509306/21/12 06:45:31  5-MIN KMSN 211245Z 31005KT 10SM CLR 20/17 A2993 860 81 1700 310/05 RMK AO2
14837KMSN MSN20120621065011306/21/12 06:50:31  5-MIN KMSN 211250Z 32007KT 10SM SCT120 20/16 A2992 860 78 1700 320/07 RMK AO2 SLP127 T02000161
14837KMSN MSN20120621065509306/21/12 06:55:31  5-MIN KMSN 211255Z 32006KT 10SM CLR 20/16 A2992 860 78 1700 320/06 RMK AO2
14837KMSN MSN20120621070009606/21/12 07:00:31  5-MIN KMSN 211300Z 31005KT 10SM SCT120 21/16 A2993 860 75 1700 310/05 RMK AO2
14837KMSN MSN20120621070510306/21/12 07:05:31  5-MIN KMSN 211305Z 29005KT 10SM FEW020 SCT120 20/16 A2993 860 78 1700 290/05 RMK AO2
14837KMSN MSN20120621071010306/21/12 07:10:31  5-MIN KMSN 211310Z VRB06KT 10SM FEW020 SCT120 20/16 A2993 860 78 1700 VRB/06 RMK AO2
14837KMSN MSN20120621071510306/21/12 07:15:31  5-MIN KMSN 211315Z 30006KT 10SM FEW020 SCT120 20/16 A2993 850 78 1700 300/06 RMK AO2
14837KMSN MSN20120621072010306/21/12 07:20:31  5-MIN KMSN 211320Z 32006KT 10SM SCT018 BKN120 20/16 A2993 850 78 1700 320/06 RMK AO2
14837KMSN MSN20120621072510306/21/12 07:25:31  5-MIN KMSN 211325Z 31005KT 10SM SCT018 BKN120 21/16 A2993 850 75 1700 310/05 RMK AO2
14837KMSN MSN20120621073010306/21/12 07:30:31  5-MIN KMSN 211330Z 30006KT 10SM SCT018 BKN120 22/17 A2993 850 73 1900 300/06 RMK AO2
14837KMSN MSN20120621073511906/21/12 07:35:31  5-MIN KMSN 211335Z 30007KT 250V320 10SM SCT018 BKN120 21/16 A2993 850 75 1700 300/07 250V320 RMK AO2
14837KMSN MSN20120621074010306/21/12 07:40:31  5-MIN KMSN 211340Z 32007KT 10SM FEW018 SCT120 21/16 A2993 850 73 1800 320/07 RMK AO2
14837KMSN MSN20120621074510306/21/12 07:45:31  5-MIN KMSN 211345Z 32007KT 10SM FEW018 SCT120 21/16 A2994 850 73 1800 330/07 RMK AO2
14837KMSN MSN20120621075012006/21/12 07:50:31  5-MIN KMSN 211350Z 31006KT 10SM FEW018 SCT120 22/17 A2994 850 73 1900 310/06 RMK AO2 SLP132 T02170167
14837KMSN MSN20120621075510306/21/12 07:55:31  5-MIN KMSN 211355Z VRB05KT 10SM FEW020 SCT120 21/16 A2994 850 73 1800 VRB/05 RMK AO2
14837KMSN MSN20120621080010306/21/12 08:00:31  5-MIN KMSN 211400Z VRB06KT 10SM FEW020 SCT120 22/16 A2994 850 70 1900 VRB/06 RMK AO2
14837KMSN MSN20120621080510306/21/12 08:05:31  5-MIN KMSN 211405Z 30007KT 10SM FEW020 SCT120 22/16 A2994 850 70 1900 300/07 RMK AO2
14837KMSN MSN20120621081009606/21/12 08:10:31  5-MIN KMSN 211410Z 31006KT 10SM FEW018 22/16 A2994 840 68 1900 310/06 RMK AO2
14837KMSN MSN20120621081509606/21/12 08:15:31  5-MIN KMSN 211415Z 29007KT 10SM FEW018 22/16 A2994 840 68 1900 300/07 RMK AO2
14837KMSN MSN20120621082009606/21/12 08:20:31  5-MIN KMSN 211420Z VRB04KT 10SM FEW018 22/16 A2994 840 68 1900 VRB/04 RMK AO2
14837KMSN MSN20120621082509606/21/12 08:25:31  5-MIN KMSN 211425Z 29006KT 10SM FEW020 22/16 A2994 840 65 1900 290/06 RMK AO2
14837KMSN MSN20120621083009806/21/12 08:30:31  5-MIN KMSN 211430Z 32008KT 10SM FEW020 22/16 A2994 840 68 1900 320/08 RMK AO2 $
14837KMSN MSN20120621083509806/21/12 08:35:31  5-MIN KMSN 211435Z 32008KT 10SM FEW020 23/16 A2994 840 65 2000 320/08 RMK AO2 $
14837KMSN MSN20120621084009806/21/12 08:40:31  5-MIN KMSN 211440Z 32008KT 10SM FEW020 23/16 A2995 840 63 2000 320/08 RMK AO2 $
14837KMSN MSN20120621084509806/21/12 08:45:31  5-MIN KMSN 211445Z 32008KT 10SM FEW020 23/16 A2995 840 63 2000 320/08 RMK AO2 $
14837KMSN MSN20120621085012006/21/12 08:50:31  5-MIN KMSN 211450Z 32008KT 9SM FEW020 22/16 A2995 840 65 1900 320/08 RMK AO2 SLP135 T02220156 51020 $
14837KMSN MSN20120621085509806/21/12 08:55:31  5-MIN KMSN 211455Z 28008KT 10SM FEW025 22/16 A2995 840 65 1900 280/08 RMK AO2 $
14837KMSN MSN20120621090010506/21/12 09:00:31  5-MIN KMSN 211500Z 28008KT 10SM FEW025 SCT110 22/16 A2995 840 65 1900 280/08 RMK AO2 $
14837KMSN MSN20120621090510506/21/12 09:05:31  5-MIN KMSN 211505Z 28008KT 10SM FEW025 SCT110 22/16 A2995 840 68 1800 280/08 RMK AO2 $
14837KMSN MSN20120621091010506/21/12 09:10:31  5-MIN KMSN 211510Z 28008KT 10SM FEW025 SCT110 22/16 A2995 840 68 1800 280/08 RMK AO2 $
14837KMSN MSN20120621091510406/21/12 09:15:31  5-MIN KMSN 211515Z 28008KT 9SM FEW025 SCT110 22/16 A2995 840 65 1900 280/08 RMK AO2 $
14837KMSN MSN20120621092009706/21/12 09:20:31  5-MIN KMSN 211520Z 28008KT 9SM FEW110 23/16 A2995 840 63 2000 280/08 RMK AO2 $
14837KMSN MSN20120621092509806/21/12 09:25:31  5-MIN KMSN 211525Z 28008KT 10SM FEW110 23/15 A2995 840 61 2000 280/08 RMK AO2 $
14837KMSN MSN20120621093011206/21/12 09:30:31  5-MIN KMSN 211530Z 29007KT 260V330 10SM FEW110 23/16 A2995 840 61 2000 290/07 260V330 RMK AO2
14837KMSN MSN20120621093509606/21/12 09:35:31  5-MIN KMSN 211535Z VRB04KT 10SM FEW110 23/16 A2995 840 61 2000 VRB/04 RMK AO2
14837KMSN MSN20120621094009606/21/12 09:40:31  5-MIN KMSN 211540Z 29007KT 10SM FEW110 23/16 A2995 840 61 2000 300/07 RMK AO2
14837KMSN MSN20120621094509606/21/12 09:45:31  5-MIN KMSN 211545Z VRB03KT 10SM FEW110 24/16 A2995 840 59 2100 VRB/03 RMK AO2
14837KMSN MSN20120621095011306/21/12 09:50:31  5-MIN KMSN 211550Z 27005KT 10SM FEW110 24/16 A2995 840 57 2200 270/05 RMK AO2 SLP134 T02440156
14837KMSN MSN20120621095510306/21/12 09:55:31  5-MIN KMSN 211555Z VRB03KT 10SM FEW030 SCT120 24/16 A2995 840 57 2200 VRB/03 RMK AO2
14837KMSN MSN20120621100010306/21/12 10:00:31  5-MIN KMSN 211600Z 27006KT 10SM FEW030 SCT120 24/16 A2995 840 57 2200 270/06 RMK AO2
14837KMSN MSN20120621100510306/21/12 10:05:31  5-MIN KMSN 211605Z 28007KT 10SM FEW030 SCT120 24/15 A2995 840 55 2200 280/07 RMK AO2
14837KMSN MSN20120621101010306/21/12 10:10:31  5-MIN KMSN 211610Z VRB04KT 10SM FEW030 SCT120 24/16 A2995 840 57 2200 VRB/04 RMK AO2
14837KMSN MSN20120621101510306/21/12 10:15:31  5-MIN KMSN 211615Z 29008KT 10SM FEW030 SCT120 25/16 A2995 840 55 2200 290/08 RMK AO2
14837KMSN MSN20120621102011906/21/12 10:20:31  5-MIN KMSN 211620Z 27007KT 240V300 10SM FEW030 SCT120 24/15 A2995 840 55 2200 270/07 240V300 RMK AO2
14837KMSN MSN20120621102509606/21/12 10:25:31  5-MIN KMSN 211625Z VRB06KT 10SM FEW120 24/15 A2995 840 55 2200 VRB/06 RMK AO2
14837KMSN MSN20120621103009606/21/12 10:30:31  5-MIN KMSN 211630Z 30009KT 10SM FEW120 25/16 A2995 840 55 2200 300/09 RMK AO2
14837KMSN MSN20120621103510206/21/12 10:35:31  5-MIN KMSN 211635Z 30008G14KT 10SM FEW040 25/15 A2995 840 53 2200 310/08G14 RMK AO2
14837KMSN MSN20120621104009606/21/12 10:40:31  5-MIN KMSN 211640Z 31006KT 10SM FEW040 25/15 A2995 840 53 2200 310/06 RMK AO2
14837KMSN MSN20120621104509606/21/12 10:45:31  5-MIN KMSN 211645Z 26005KT 10SM FEW040 26/16 A2995 840 55 2300 260/05 RMK AO2
14837KMSN MSN20120621105011306/21/12 10:50:31  5-MIN KMSN 211650Z VRB04KT 10SM FEW040 26/16 A2994 840 53 2300 VRB/04 RMK AO2 SLP133 T02560156
14837KMSN MSN20120621105509606/21/12 10:55:31  5-MIN KMSN 211655Z 25008KT 10SM FEW042 26/16 A2994 840 51 2400 250/08 RMK AO2
14837KMSN MSN20120621110009606/21/12 11:00:31  5-MIN KMSN 211700Z VRB06KT 10SM SCT042 26/14 A2994 840 49 2300 VRB/06 RMK AO2
14837KMSN MSN20120621110511206/21/12 11:05:31  5-MIN KMSN 211705Z 26007KT 220V300 10SM SCT042 26/14 A2994 840 48 2400 260/07 220V300 RMK AO2
14837KMSN MSN20120621111010206/21/12 11:10:31  5-MIN KMSN 211710Z 28008G14KT 10SM SCT042 26/14 A2994 850 46 2400 280/08G14 RMK AO2
14837KMSN MSN20120621111510206/21/12 11:15:31  5-MIN KMSN 211715Z VRB05G16KT 10SM SCT042 26/14 A2994 850 48 2300 VRB/05G16 RMK AO2
14837KMSN MSN20120621112010206/21/12 11:20:31  5-MIN KMSN 211720Z 29010G16KT 10SM SCT042 26/14 A2994 850 46 2400 290/10G16 RMK AO2
14837KMSN MSN20120621112510206/21/12 11:25:31  5-MIN KMSN 211725Z 28009G14KT 10SM SCT042 26/13 A2994 850 44 2400 280/09G14 RMK AO2
14837KMSN MSN20120621113011806/21/12 11:30:31  5-MIN KMSN 211730Z 29009G14KT 260V320 10SM SCT042 26/14 A2993 850 48 2400 290/09G14 260V320 RMK AO2
14837KMSN MSN20120621113509606/21/12 11:35:31  5-MIN KMSN 211735Z 31006KT 10SM SCT042 27/14 A2993 850 45 2400 310/06 RMK AO2
14837KMSN MSN20120621114009606/21/12 11:40:31  5-MIN KMSN 211740Z VRB04KT 10SM SCT042 27/14 A2993 850 45 2500 VRB/04 RMK AO2
14837KMSN MSN20120621114511206/21/12 11:45:31  5-MIN KMSN 211745Z 26008KT 220V290 10SM SCT042 27/14 A2993 850 45 2500 270/08 220V290 RMK AO2
14837KMSN MSN20120621115013706/21/12 11:50:31  5-MIN KMSN 211750Z 28007G15KT 10SM SCT050 26/14 A2993 850 48 2400 280/07G15 RMK AO2 SLP131 T02610144 10272 20189 51012
14837KMSN MSN20120621115510206/21/12 11:55:31  5-MIN KMSN 211755Z 30010G14KT 10SM SCT050 26/14 A2993 850 46 2400 300/10G14 RMK AO2
14837KMSN MSN20120621120010206/21/12 12:00:31  5-MIN KMSN 211800Z 28008G14KT 10SM SCT050 27/14 A2993 860 45 2400 280/08G14 RMK AO2
14837KMSN MSN20120621120511206/21/12 12:05:31  5-MIN KMSN 211805Z 26008KT 220V300 10SM SCT050 27/14 A2993 860 45 2400 270/08 220V300 RMK AO2
14837KMSN MSN20120621121010206/21/12 12:10:31  5-MIN KMSN 211810Z 29008G14KT 10SM SCT050 26/13 A2993 860 44 2400 290/08G14 RMK AO2
14837KMSN MSN20120621121511806/21/12 12:15:31  5-MIN KMSN 211815Z 27007G14KT 220V320 10SM SCT050 26/13 A2993 860 44 2400 270/07G14 220V320 RMK AO2
14837KMSN MSN20120621122011206/21/12 12:20:31  5-MIN KMSN 211820Z 30009KT 260V330 10SM SCT050 26/13 A2993 860 46 2300 300/09 260V330 RMK AO2
14837KMSN MSN20120621122511206/21/12 12:25:31  5-MIN KMSN 211825Z 32008KT 270V330 10SM SCT050 26/14 A2993 860 48 2300 320/08 270V330 RMK AO2
14837KMSN MSN20120621123011806/21/12 12:30:31  5-MIN KMSN 211830Z 28009G14KT 250V310 10SM SCT060 27/14 A2993 860 45 2400 280/09G14 250V310 RMK AO2
14837KMSN MSN20120621123510206/21/12 12:35:31  5-MIN KMSN 211835Z 29006G16KT 10SM SCT060 27/12 A2992 860 40 2400 290/06G16 RMK AO2
14837KMSN MSN20120621124010206/21/12 12:40:31  5-MIN KMSN 211840Z VRB05G16KT 10SM SCT060 27/13 A2992 860 40 2500 VRB/05G16 RMK AO2
14837KMSN MSN20120621124509606/21/12 12:45:31  5-MIN KMSN 211845Z VRB06KT 10SM SCT060 28/13 A2992 860 40 2600 VRB/06 RMK AO2
14837KMSN MSN20120621125011306/21/12 12:50:31  5-MIN KMSN 211850Z 28009KT 10SM SCT060 27/13 A2992 860 40 2500 290/09 RMK AO2 SLP128 T02720128
14837KMSN MSN20120621125510206/21/12 12:55:31  5-MIN KMSN 211855Z 31011G17KT 10SM SCT060 27/13 A2992 860 41 2400 310/11G17 RMK AO2
14837KMSN MSN20120621130010206/21/12 13:00:31  5-MIN KMSN 211900Z 29011G18KT 10SM SCT060 27/12 A2993 860 37 2500 290/11G18 RMK AO2
14837KMSN MSN20120621130510206/21/12 13:05:31  5-MIN KMSN 211905Z 30009G18KT 10SM SCT060 27/12 A2993 860 37 2500 300/09G18 RMK AO2
14837KMSN MSN20120621131010206/21/12 13:10:31  5-MIN KMSN 211910Z 30009G17KT 10SM SCT060 27/12 A2992 860 37 2500 300/09G17 RMK AO2
14837KMSN MSN20120621131511806/21/12 13:15:31  5-MIN KMSN 211915Z 31010G17KT 280V340 10SM SCT060 28/12 A2992 860 36 2600 310/10G17 280V340 RMK AO2
14837KMSN MSN20120621132010206/21/12 13:20:31  5-MIN KMSN 211920Z 29008G17KT 10SM SCT060 27/11 A2993 860 36 2500 290/08G17 RMK AO2
14837KMSN MSN20120621132511806/21/12 13:25:31  5-MIN KMSN 211925Z 29007G16KT 260V330 10SM SCT060 28/12 A2992 860 36 2600 290/07G16 260V330 RMK AO2
14837KMSN MSN20120621133009606/21/12 13:30:31  5-MIN KMSN 211930Z 30007KT 10SM SCT060 28/12 A2992 860 36 2600 300/07 RMK AO2
14837KMSN MSN20120621133510206/21/12 13:35:31  5-MIN KMSN 211935Z 30011G16KT 10SM SCT060 28/12 A2992 860 36 2600 300/11G16 RMK AO2
14837KMSN MSN20120621134010206/21/12 13:40:31  5-MIN KMSN 211940Z 31009G16KT 10SM SCT060 27/11 A2992 870 36 2500 310/09G16 RMK AO2
14837KMSN MSN20120621134510206/21/12 13:45:31  5-MIN KMSN 211945Z 30008G16KT 10SM SCT060 28/12 A2992 860 36 2600 300/08G16 RMK AO2
14837KMSN MSN20120621135011906/21/12 13:50:31  5-MIN KMSN 211950Z VRB05G15KT 10SM SCT060 27/12 A2992 860 37 2500 VRB/05G15 RMK AO2 SLP127 T02720117
14837KMSN MSN20120621135510206/21/12 13:55:31  5-MIN KMSN 211955Z 28007G14KT 10SM SCT065 27/12 A2992 870 37 2500 280/07G14 RMK AO2
14837KMSN MSN20120621140010206/21/12 14:00:31  5-MIN KMSN 212000Z 29009G15KT 10SM SCT065 27/12 A2992 870 39 2500 290/09G15 RMK AO2
14837KMSN MSN20120621140511806/21/12 14:05:31  5-MIN KMSN 212005Z 29009G17KT 240V320 10SM SCT065 28/12 A2992 870 37 2600 290/09G17 240V320 RMK AO2
14837KMSN MSN20120621141010206/21/12 14:10:31  5-MIN KMSN 212010Z 28007G17KT 10SM SCT065 27/12 A2992 870 37 2500 280/07G17 RMK AO2
14837KMSN MSN20120621141510206/21/12 14:15:31  5-MIN KMSN 212015Z 30010G19KT 10SM SCT065 27/12 A2992 870 37 2500 300/10G19 RMK AO2
14837KMSN MSN20120621142010206/21/12 14:20:31  5-MIN KMSN 212020Z 26005G19KT 10SM SCT065 27/12 A2992 870 37 2500 260/05G19 RMK AO2
14837KMSN MSN20120621142510206/21/12 14:25:31  5-MIN KMSN 212025Z 30009G15KT 10SM SCT065 28/12 A2991 870 37 2600 300/09G15 RMK AO2
14837KMSN MSN20120621143010206/21/12 14:30:31  5-MIN KMSN 212030Z 29010G17KT 10SM SCT065 28/12 A2992 870 36 2600 290/10G17 RMK AO2
14837KMSN MSN20120621143511806/21/12 14:35:31  5-MIN KMSN 212035Z 28007G17KT 230V320 10SM SCT065 28/12 A2992 870 36 2600 280/07G17 230V320 RMK AO2
14837KMSN MSN20120621144010206/21/12 14:40:31  5-MIN KMSN 212040Z 28009G14KT 10SM SCT065 28/12 A2991 870 36 2600 280/09G14 RMK AO2
14837KMSN MSN20120621144511806/21/12 14:45:31  5-MIN KMSN 212045Z 30007G14KT 260V340 10SM SCT065 27/12 A2992 870 37 2500 310/07G14 260V340 RMK AO2
14837KMSN MSN20120621145012506/21/12 14:50:31  5-MIN KMSN 212050Z 30012G18KT 10SM SCT065 28/12 A2992 870 36 2600 300/12G18 RMK AO2 SLP125 T02780117 58005
14837KMSN MSN20120621145510206/21/12 14:55:31  5-MIN KMSN 212055Z 32008G18KT 10SM SCT060 27/11 A2992 870 36 2500 320/08G18 RMK AO2
14837KMSN MSN20120621150010206/21/12 15:00:31  5-MIN KMSN 212100Z 30010G16KT 10SM SCT060 28/12 A2991 870 36 2600 300/10G16 RMK AO2
14837KMSN MSN20120621150510206/21/12 15:05:31  5-MIN KMSN 212105Z 31010G16KT 10SM BKN060 28/12 A2991 870 36 2600 310/10G16 RMK AO2
14837KMSN MSN20120621151010206/21/12 15:10:31  5-MIN KMSN 212110Z 29006G16KT 10SM SCT065 27/12 A2991 870 37 2500 300/06G16 RMK AO2
14837KMSN MSN20120621151509606/21/12 15:15:31  5-MIN KMSN 212115Z 31008KT 10SM SCT065 26/12 A2992 870 41 2400 320/08 RMK AO2
14837KMSN MSN20120621152009606/21/12 15:20:31  5-MIN KMSN 212120Z 33006KT 10SM BKN060 27/12 A2991 870 40 2500 330/06 RMK AO2
14837KMSN MSN20120621152510206/21/12 15:25:31  5-MIN KMSN 212125Z 31012G17KT 10SM BKN060 28/13 A2992 870 39 2600 310/12G17 RMK AO2
14837KMSN MSN20120621153010206/21/12 15:30:31  5-MIN KMSN 212130Z 32010G19KT 10SM SCT060 27/12 A2992 870 37 2500 320/10G19 RMK AO2
14837KMSN MSN20120621153510206/21/12 15:35:31  5-MIN KMSN 212135Z 31007G19KT 10SM SCT060 27/12 A2992 870 40 2400 310/07G19 RMK AO2
14837KMSN MSN20120621154010206/21/12 15:40:31  5-MIN KMSN 212140Z VRB05G14KT 10SM BKN060 27/12 A2992 870 39 2500 VRB/05G14 RMK AO2
14837KMSN MSN20120621154509606/21/12 15:45:31  5-MIN KMSN 212145Z 30008KT 10SM SCT060 27/12 A2992 870 39 2500 300/08 RMK AO2
14837KMSN MSN20120621155012906/21/12 15:50:31  5-MIN KMSN 212150Z 31009KT 270V340 10SM SCT060 27/12 A2992 870 39 2500 310/09 270V340 RMK AO2 SLP125 T02720122
14837KMSN MSN20120621155509606/21/12 15:55:31  5-MIN KMSN 212155Z 33007KT 10SM BKN060 27/12 A2992 870 40 2400 330/07 RMK AO2
14837KMSN MSN20120621160010206/21/12 16:00:31  5-MIN KMSN 212200Z 30009G16KT 10SM BKN060 27/12 A2992 870 37 2500 300/09G16 RMK AO2
14837KMSN MSN20120621160510206/21/12 16:05:31  5-MIN KMSN 212205Z 31009G16KT 10SM SCT060 26/12 A2992 870 40 2400 320/09G16 RMK AO2
14837KMSN MSN20120621161010206/21/12 16:10:31  5-MIN KMSN 212210Z 31006G14KT 10SM SCT060 27/12 A2992 870 38 2400 310/06G14 RMK AO2
14837KMSN MSN20120621161509606/21/12 16:15:31  5-MIN KMSN 212215Z 30008KT 10SM BKN060 27/12 A2992 870 37 2500 300/08 RMK AO2
14837KMSN MSN20120621162009606/21/12 16:20:31  5-MIN KMSN 212220Z 30006KT 10SM SCT060 27/12 A2992 870 40 2400 310/06 RMK AO2
14837KMSN MSN20120621162509606/21/12 16:25:31  5-MIN KMSN 212225Z 32007KT 10SM SCT060 27/12 A2992 870 38 2400 320/07 RMK AO2
14837KMSN MSN20120621163009606/21/12 16:30:31  5-MIN KMSN 212230Z 33007KT 10SM BKN060 27/12 A2992 860 39 2500 330/07 RMK AO2
14837KMSN MSN20120621163509606/21/12 16:35:31  5-MIN KMSN 212235Z 30008KT 10SM SCT060 27/13 A2992 860 40 2500 300/08 RMK AO2
14837KMSN MSN20120621164009606/21/12 16:40:31  5-MIN KMSN 212240Z 30007KT 10SM SCT060 26/12 A2992 870 40 2400 300/07 RMK AO2
14837KMSN MSN20120621164510206/21/12 16:45:31  5-MIN KMSN 212245Z 30008G14KT 10SM SCT060 26/12 A2992 870 40 2400 300/08G14 RMK AO2
14837KMSN MSN20120621165011906/21/12 16:50:31  5-MIN KMSN 212250Z 32010G16KT 10SM SCT060 27/12 A2992 870 38 2400 320/10G16 RMK AO2 SLP126 T02670117
14837KMSN MSN20120621165510206/21/12 16:55:31  5-MIN KMSN 212255Z 31010G16KT 10SM FEW060 26/12 A2992 870 40 2400 310/10G16 RMK AO2
14837KMSN MSN20120621170011806/21/12 17:00:31  5-MIN KMSN 212300Z 29007G15KT 260V320 10SM FEW060 26/12 A2992 870 40 2400 290/07G15 260V320 RMK AO2
14837KMSN MSN20120621170509606/21/12 17:05:31  5-MIN KMSN 212305Z 33007KT 10SM FEW060 26/12 A2992 870 41 2400 330/07 RMK AO2
14837KMSN MSN20120621171009606/21/12 17:10:31  5-MIN KMSN 212310Z 30004KT 10SM FEW060 26/12 A2992 860 40 2400 310/04 RMK AO2
14837KMSN MSN20120621171509606/21/12 17:15:31  5-MIN KMSN 212315Z 28008KT 10SM FEW060 27/12 A2992 860 40 2400 290/08 RMK AO2
14837KMSN MSN20120621172009606/21/12 17:20:31  5-MIN KMSN 212320Z 30007KT 10SM FEW060 26/12 A2992 860 41 2400 310/07 RMK AO2
14837KMSN MSN20120621172510206/21/12 17:25:31  5-MIN KMSN 212325Z 32009G14KT 10SM FEW060 26/12 A2992 860 41 2400 320/09G14 RMK AO2
14837KMSN MSN20120621173011806/21/12 17:30:31  5-MIN KMSN 212330Z 31007G14KT 270V330 10SM FEW060 26/12 A2993 860 41 2400 310/07G14 270V330 RMK AO2
14837KMSN MSN20120621173510206/21/12 17:35:31  5-MIN KMSN 212335Z 32007G14KT 10SM FEW060 26/12 A2993 860 40 2400 320/07G14 RMK AO2
14837KMSN MSN20120621174009606/21/12 17:40:31  5-MIN KMSN 212340Z 30007KT 10SM FEW060 26/12 A2993 860 41 2300 300/07 RMK AO2
14837KMSN MSN20120621174509606/21/12 17:45:31  5-MIN KMSN 212345Z 31007KT 10SM FEW060 26/12 A2993 860 40 2400 320/07 RMK AO2
14837KMSN MSN20120621175013106/21/12 17:50:31  5-MIN KMSN 212350Z 29008KT 10SM FEW060 26/12 A2993 860 40 2400 290/08 RMK AO2 SLP129 T02610117 10278 20256 56005
14837KMSN MSN20120621175509606/21/12 17:55:31  5-MIN KMSN 212355Z 31007KT 10SM FEW055 26/12 A2993 860 41 2300 320/07 RMK AO2
14837KMSN MSN20120621180009606/21/12 18:00:31  5-MIN KMSN 220000Z 32006KT 10SM FEW055 26/12 A2993 860 41 2300 320/06 RMK AO2
14837KMSN MSN20120621180509606/21/12 18:05:31  5-MIN KMSN 220005Z 32005KT 10SM FEW055 26/12 A2993 850 41 2300 320/05 RMK AO2
14837KMSN MSN20120621181009606/21/12 18:10:31  5-MIN KMSN 220010Z 31005KT 10SM FEW055 26/12 A2993 850 41 2300 310/05 RMK AO2
14837KMSN MSN20120621181509606/21/12 18:15:31  5-MIN KMSN 220015Z 29007KT 10SM FEW055 25/12 A2993 850 43 2200 290/07 RMK AO2
14837KMSN MSN20120621182009606/21/12 18:20:31  5-MIN KMSN 220020Z 30007KT 10SM FEW055 25/12 A2994 850 43 2200 300/07 RMK AO2
14837KMSN MSN20120621182509606/21/12 18:25:31  5-MIN KMSN 220025Z 31006KT 10SM FEW055 25/12 A2994 850 43 2200 310/06 RMK AO2
14837KMSN MSN20120621183009606/21/12 18:30:31  5-MIN KMSN 220030Z 30006KT 10SM FEW055 25/12 A2994 850 43 2200 300/06 RMK AO2
14837KMSN MSN20120621183509606/21/12 18:35:31  5-MIN KMSN 220035Z 31005KT 10SM FEW055 25/12 A2994 850 43 2200 320/05 RMK AO2
14837KMSN MSN20120621184009606/21/12 18:40:31  5-MIN KMSN 220040Z 32004KT 10SM FEW055 24/12 A2994 840 44 2200 320/04 RMK AO2
14837KMSN MSN20120621184509606/21/12 18:45:31  5-MIN KMSN 220045Z 31006KT 10SM FEW055 24/12 A2994 840 46 2100 320/06 RMK AO2
14837KMSN MSN20120621185011306/21/12 18:50:31  5-MIN KMSN 220050Z 32003KT 10SM FEW055 24/12 A2994 840 44 2200 320/03 RMK AO2 SLP136 T02440117
14837KMSN MSN20120621185509606/21/12 18:55:31  5-MIN KMSN 220055Z 31007KT 10SM FEW060 24/12 A2994 840 46 2100 320/07 RMK AO2
14837KMSN MSN20120621190009606/21/12 19:00:31  5-MIN KMSN 220100Z 32005KT 10SM FEW060 24/12 A2995 840 46 2100 320/05 RMK AO2
14837KMSN MSN20120621190509606/21/12 19:05:31  5-MIN KMSN 220105Z 31005KT 10SM FEW060 24/12 A2995 840 46 2100 310/05 RMK AO2
14837KMSN MSN20120621191009606/21/12 19:10:31  5-MIN KMSN 220110Z 32008KT 10SM FEW060 24/12 A2995 840 46 2100 320/08 RMK AO2
14837KMSN MSN20120621191509606/21/12 19:15:31  5-MIN KMSN 220115Z 32005KT 10SM FEW060 23/12 A2995 840 47 2000 330/05 RMK AO2
14837KMSN MSN20120621192009606/21/12 19:20:31  5-MIN KMSN 220120Z 32006KT 10SM FEW060 23/12 A2995 840 47 2000 330/06 RMK AO2
14837KMSN MSN20120621192509606/21/12 19:25:31  5-MIN KMSN 220125Z 32004KT 10SM FEW060 23/12 A2995 840 49 2000 320/04 RMK AO2
14837KMSN MSN20120621193009606/21/12 19:30:31  5-MIN KMSN 220130Z 31004KT 10SM FEW060 23/12 A2995 830 49 2000 310/04 RMK AO2
14837KMSN MSN20120621193509606/21/12 19:35:31  5-MIN KMSN 220135Z 31004KT 10SM FEW060 23/12 A2995 830 49 2000 320/04 RMK AO2
14837KMSN MSN20120621194009306/21/12 19:40:31  5-MIN KMSN 220140Z 31004KT 10SM CLR 22/12 A2995 830 51 1900 320/04 RMK AO2
14837KMSN MSN20120621194509306/21/12 19:45:31  5-MIN KMSN 220145Z 31006KT 10SM CLR 22/12 A2996 830 51 1900 320/06 RMK AO2
14837KMSN MSN20120621195011306/21/12 19:50:31  5-MIN KMSN 220150Z 31004KT 10SM FEW060 22/12 A2996 830 51 1900 310/04 RMK AO2 SLP140 T02220117
14837KMSN MSN20120621195509606/21/12 19:55:31  5-MIN KMSN 220155Z 32004KT 10SM FEW060 22/12 A2996 830 51 1900 320/04 RMK AO2
14837KMSN MSN20120621200009606/21/12 20:00:31  5-MIN KMSN 220200Z 32004KT 10SM FEW060 22/12 A2996 830 54 1800 320/04 RMK AO2
14837KMSN MSN20120621200509606/21/12 20:05:31  5-MIN KMSN 220205Z 31003KT 10SM FEW060 22/12 A2996 830 54 1800 310/03 RMK AO2
14837KMSN MSN20120621201009606/21/12 20:10:31  5-MIN KMSN 220210Z 32004KT 10SM FEW060 22/12 A2996 820 52 1800 320/04 RMK AO2
14837KMSN MSN20120621201509606/21/12 20:15:31  5-MIN KMSN 220215Z 32004KT 10SM FEW060 22/12 A2997 820 54 1800 320/04 RMK AO2
14837KMSN MSN20120621202009606/21/12 20:20:31  5-MIN KMSN 220220Z 32003KT 10SM FEW060 21/12 A2997 820 56 1800 330/03 RMK AO2
14837KMSN MSN20120621202509606/21/12 20:25:31  5-MIN KMSN 220225Z 32003KT 10SM FEW060 21/12 A2997 820 56 1800 320/03 RMK AO2
14837KMSN MSN20120621203009606/21/12 20:30:31  5-MIN KMSN 220230Z 32004KT 10SM FEW060 21/12 A2997 820 56 1800 320/04 RMK AO2
14837KMSN MSN20120621203509606/21/12 20:35:31  5-MIN KMSN 220235Z 32004KT 10SM FEW060 21/12 A2997 820 56 1800 320/04 RMK AO2
14837KMSN MSN20120621204009606/21/12 20:40:31  5-MIN KMSN 220240Z 32005KT 10SM FEW060 21/12 A2997 820 56 1700 320/05 RMK AO2
14837KMSN MSN20120621204509606/21/12 20:45:31  5-MIN KMSN 220245Z 32005KT 10SM FEW060 21/12 A2997 810 54 1800 330/05 RMK AO2
14837KMSN MSN20120621205011906/21/12 20:50:31  5-MIN KMSN 220250Z 32005KT 10SM FEW060 21/12 A2998 810 54 1800 330/05 RMK AO2 SLP146 T02110117 53004
14837KMSN MSN20120621205509606/21/12 20:55:31  5-MIN KMSN 220255Z 32006KT 10SM SCT055 21/12 A2998 810 56 1700 320/06 RMK AO2
14837KMSN MSN20120621210009606/21/12 21:00:31  5-MIN KMSN 220300Z 32005KT 10SM FEW055 21/12 A2998 810 56 1700 320/05 RMK AO2
14837KMSN MSN20120621210509606/21/12 21:05:31  5-MIN KMSN 220305Z 32005KT 10SM FEW055 21/12 A2998 810 56 1700 320/05 RMK AO2
14837KMSN MSN20120621211009606/21/12 21:10:31  5-MIN KMSN 220310Z 33005KT 10SM FEW055 21/12 A2998 810 56 1700 330/05 RMK AO2
14837KMSN MSN20120621211509606/21/12 21:15:31  5-MIN KMSN 220315Z 33004KT 10SM FEW055 20/12 A2998 810 60 1600 330/04 RMK AO2
14837KMSN MSN20120621212009606/21/12 21:20:31  5-MIN KMSN 220320Z 33005KT 10SM FEW055 20/12 A2999 800 60 1600 330/05 RMK AO2
14837KMSN MSN20120621212509306/21/12 21:25:31  5-MIN KMSN 220325Z 33004KT 10SM CLR 20/12 A2999 800 60 1600 330/04 RMK AO2
14837KMSN MSN20120621213009306/21/12 21:30:31  5-MIN KMSN 220330Z 33004KT 10SM CLR 20/12 A2999 800 60 1600 330/04 RMK AO2
14837KMSN MSN20120621213509306/21/12 21:35:31  5-MIN KMSN 220335Z 00000KT 10SM CLR 20/12 A2999 800 60 1600 000/00 RMK AO2
14837KMSN MSN20120621214009306/21/12 21:40:31  5-MIN KMSN 220340Z 32003KT 10SM CLR 19/12 A2999 800 62 1500 320/03 RMK AO2
14837KMSN MSN20120621214509306/21/12 21:45:31  5-MIN KMSN 220345Z 31003KT 10SM CLR 20/12 A2999 800 60 1600 320/03 RMK AO2
14837KMSN MSN20120621215011006/21/12 21:50:31  5-MIN KMSN 220350Z 00000KT 10SM CLR 19/12 A2999 800 65 1500 000/00 RMK AO2 SLP153 T01890122
14837KMSN MSN20120621215509306/21/12 21:55:31  5-MIN KMSN 220355Z 00000KT 10SM CLR 19/12 A3000 800 65 1500 000/00 RMK AO2
14837KMSN MSN20120621220009306/21/12 22:00:31  5-MIN KMSN 220400Z 00000KT 10SM CLR 19/12 A3000 790 65 1500 000/00 RMK AO2
14837KMSN MSN20120621220509306/21/12 22:05:31  5-MIN KMSN 220405Z 00000KT 10SM CLR 18/12 A3000 790 67 1400 000/00 RMK AO2
14837KMSN MSN20120621221009306/21/12 22:10:31  5-MIN KMSN 220410Z 00000KT 10SM CLR 18/12 A3000 790 69 1300 000/00 RMK AO2
14837KMSN MSN20120621221509306/21/12 22:15:31  5-MIN KMSN 220415Z 00000KT 10SM CLR 18/13 A3000 790 72 1300 000/00 RMK AO2
14837KMSN MSN20120621222009306/21/12 22:20:31  5-MIN KMSN 220420Z 00000KT 10SM CLR 18/13 A3000 790 72 1300 000/00 RMK AO2
14837KMSN MSN20120621222509306/21/12 22:25:31  5-MIN KMSN 220425Z 00000KT 10SM CLR 17/13 A3000 790 75 1300 000/00 RMK AO2
14837KMSN MSN20120621223009306/21/12 22:30:31  5-MIN KMSN 220430Z 31003KT 10SM CLR 17/13 A3000 790 75 1300 310/03 RMK AO2
14837KMSN MSN20120621223509306/21/12 22:35:31  5-MIN KMSN 220435Z 31003KT 10SM CLR 17/13 A3000 790 77 1200 310/03 RMK AO2
14837KMSN MSN20120621224009306/21/12 22:40:31  5-MIN KMSN 220440Z 31003KT 10SM CLR 17/13 A3000 790 77 1200 310/03 RMK AO2
14837KMSN MSN20120621224509306/21/12 22:45:31  5-MIN KMSN 220445Z 30003KT 10SM CLR 17/13 A3000 790 77 1200 300/03 RMK AO2
14837KMSN MSN20120621225011006/21/12 22:50:31  5-MIN KMSN 220450Z 29003KT 10SM CLR 17/13 A3000 790 77 1200 290/03 RMK AO2 SLP155 T01670128
14837KMSN MSN20120621225509306/21/12 22:55:31  5-MIN KMSN 220455Z 00000KT 10SM CLR 17/13 A3000 790 75 1300 000/00 RMK AO2
14837KMSN MSN20120621230009306/21/12 23:00:31  5-MIN KMSN 220500Z 29003KT 10SM CLR 18/13 A3000 790 72 1300 290/03 RMK AO2
14837KMSN MSN20120621230509306/21/12 23:05:31  5-MIN KMSN 220505Z 29004KT 10SM CLR 18/12 A3000 790 67 1400 290/04 RMK AO2
14837KMSN MSN20120621231009306/21/12 23:10:31  5-MIN KMSN 220510Z 29003KT 10SM CLR 18/12 A3000 790 67 1400 300/03 RMK AO2
14837KMSN MSN20120621231509306/21/12 23:15:31  5-MIN KMSN 220515Z 30004KT 10SM CLR 18/12 A3000 790 69 1300 300/04 RMK AO2
14837KMSN MSN20120621232009306/21/12 23:20:31  5-MIN KMSN 220520Z 30003KT 10SM CLR 17/12 A3000 790 72 1300 300/03 RMK AO2
14837KMSN MSN20120621232509306/21/12 23:25:31  5-MIN KMSN 220525Z 30004KT 10SM CLR 17/12 A3000 790 72 1300 300/04 RMK AO2
14837KMSN MSN20120621233009306/21/12 23:30:31  5-MIN KMSN 220530Z 30003KT 10SM CLR 17/12 A3000 790 72 1300 300/03 RMK AO2
14837KMSN MSN20120621233509306/21/12 23:35:31  5-MIN KMSN 220535Z 30003KT 10SM CLR 17/12 A3000 790 72 1300 300/03 RMK AO2
14837KMSN MSN20120621234009306/21/12 23:40:31  5-MIN KMSN 220540Z 29003KT 10SM CLR 17/12 A3000 790 72 1300 300/03 RMK AO2
14837KMSN MSN20120621234509306/21/12 23:45:31  5-MIN KMSN 220545Z 29003KT 10SM CLR 17/12 A3000 790 72 1300 300/03 RMK AO2
14837KMSN MSN20120621235013806/21/12 23:50:31  5-MIN KMSN 220550Z 30004KT 10SM CLR 17/12 A3000 790 72 1300 300/04 RMK AO2 SLP153 T01720122 10256 20167 402780167 53016
14837KMSN MSN20120621235509306/21/12 23:55:31  5-MIN KMSN 220555Z 30003KT 10SM CLR 17/12 A3000 790 75 1200 300/03 RMK AO2
14837KMSN MSN20120622000009306/22/12 00:00:32  5-MIN KMSN 220600Z 30004KT 10SM CLR 17/12 A3000 790 75 1200 300/04 RMK AO2
14837KMSN MSN20120622000509306/22/12 00:05:31  5-MIN KMSN 220605Z 30003KT 10SM CLR 16/12 A3000 790 77 1100 300/03 RMK AO2
14837KMSN MSN20120622001009306/22/12 00:10:31  5-MIN KMSN 220610Z 29004KT 10SM CLR 16/12 A3000 790 77 1100 300/04 RMK AO2
14837KMSN MSN20120622001509306/22/12 00:15:31  5-MIN KMSN 220615Z 29003KT 10SM CLR 17/12 A3000 790 75 1200 300/03 RMK AO2
14837KMSN MSN20120622002009306/22/12 00:20:31  5-MIN KMSN 220620Z 29004KT 10SM CLR 17/12 A3000 790 75 1200 300/04 RMK AO2
14837KMSN MSN20120622002509306/22/12 00:25:31  5-MIN KMSN 220625Z 30004KT 10SM CLR 17/12 A3000 790 75 1200 300/04 RMK AO2
14837KMSN MSN20120622003009306/22/12 00:30:31  5-MIN KMSN 220630Z 30005KT 10SM CLR 17/12 A3000 790 75 1200 300/05 RMK AO2
14837KMSN MSN20120622003509306/22/12 00:35:31  5-MIN KMSN 220635Z 30004KT 10SM CLR 17/12 A3000 790 75 1200 300/04 RMK AO2
14837KMSN MSN20120622004009306/22/12 00:40:31  5-MIN KMSN 220640Z 30004KT 10SM CLR 17/12 A3000 790 75 1200 300/04 RMK AO2
14837KMSN MSN20120622004509306/22/12 00:45:31  5-MIN KMSN 220645Z 29005KT 10SM CLR 17/12 A3000 790 72 1300 300/05 RMK AO2
14837KMSN MSN20120622005011006/22/12 00:50:31  5-MIN KMSN 220650Z 30005KT 10SM CLR 17/12 A3000 790 72 1300 300/05 RMK AO2 SLP154 T01720122
14837KMSN MSN20120622005509306/22/12 00:55:31  5-MIN KMSN 220655Z 30004KT 10SM CLR 17/12 A3000 790 72 1300 300/04 RMK AO2
14837KMSN MSN20120622010009306/22/12 01:00:31  5-MIN KMSN 220700Z 29004KT 10SM CLR 17/12 A3000 790 72 1300 290/04 RMK AO2
14837KMSN MSN20120622010509306/22/12 01:05:31  5-MIN KMSN 220705Z 30005KT 10SM CLR 17/12 A3000 790 72 1300 300/05 RMK AO2
14837KMSN MSN20120622011009306/22/12 01:10:31  5-MIN KMSN 220710Z 30006KT 10SM CLR 17/12 A3000 790 72 1300 300/06 RMK AO2
14837KMSN MSN20120622011509306/22/12 01:15:31  5-MIN KMSN 220715Z 30005KT 10SM CLR 17/12 A3000 790 72 1300 300/05 RMK AO2
14837KMSN MSN20120622012009306/22/12 01:20:31  5-MIN KMSN 220720Z 29006KT 10SM CLR 17/12 A3000 790 72 1300 290/06 RMK AO2
14837KMSN MSN20120622012509306/22/12 01:25:31  5-MIN KMSN 220725Z 29006KT 10SM CLR 18/12 A3000 790 69 1300 300/06 RMK AO2
14837KMSN MSN20120622013009306/22/12 01:30:31  5-MIN KMSN 220730Z 29006KT 10SM CLR 17/12 A3000 790 72 1300 300/06 RMK AO2
14837KMSN MSN20120622013509306/22/12 01:35:31  5-MIN KMSN 220735Z 30006KT 10SM CLR 17/12 A3000 790 72 1300 300/06 RMK AO2
14837KMSN MSN20120622014009306/22/12 01:40:31  5-MIN KMSN 220740Z 30006KT 10SM CLR 17/12 A3000 790 69 1300 300/06 RMK AO2
14837KMSN MSN20120622014509306/22/12 01:45:31  5-MIN KMSN 220745Z 29006KT 10SM CLR 17/12 A3000 800 69 1300 300/06 RMK AO2
14837KMSN MSN20120622015011006/22/12 01:50:31  5-MIN KMSN 220750Z 30005KT 10SM CLR 17/12 A2999 800 69 1300 300/05 RMK AO2 SLP153 T01720117
14837KMSN MSN20120622015509306/22/12 01:55:31  5-MIN KMSN 220755Z 30005KT 10SM CLR 17/12 A2999 800 69 1300 300/05 RMK AO2
14837KMSN MSN20120622020009306/22/12 02:00:31  5-MIN KMSN 220800Z 30005KT 10SM CLR 17/12 A2999 800 72 1200 310/05 RMK AO2
14837KMSN MSN20120622020509306/22/12 02:05:31  5-MIN KMSN 220805Z 30005KT 10SM CLR 17/12 A2999 800 72 1200 300/05 RMK AO2
14837KMSN MSN20120622021009306/22/12 02:10:31  5-MIN KMSN 220810Z 30005KT 10SM CLR 17/12 A3000 800 72 1200 300/05 RMK AO2
14837KMSN MSN20120622021509306/22/12 02:15:31  5-MIN KMSN 220815Z 30005KT 10SM CLR 17/12 A2999 800 72 1200 300/05 RMK AO2
14837KMSN MSN20120622022009306/22/12 02:20:31  5-MIN KMSN 220820Z 30006KT 10SM CLR 17/12 A2999 800 72 1200 300/06 RMK AO2
14837KMSN MSN20120622022509306/22/12 02:25:31  5-MIN KMSN 220825Z 30006KT 10SM CLR 17/12 A3000 790 72 1200 300/06 RMK AO2
14837KMSN MSN20120622023009306/22/12 02:30:31  5-MIN KMSN 220830Z 30005KT 10SM CLR 17/12 A3000 800 75 1200 300/05 RMK AO2
14837KMSN MSN20120622023509306/22/12 02:35:31  5-MIN KMSN 220835Z 30005KT 10SM CLR 17/12 A3000 790 75 1200 300/05 RMK AO2
14837KMSN MSN20120622024009306/22/12 02:40:31  5-MIN KMSN 220840Z 30006KT 10SM CLR 17/12 A3000 790 75 1200 300/06 RMK AO2
14837KMSN MSN20120622024509306/22/12 02:45:31  5-MIN KMSN 220845Z 31005KT 10SM CLR 17/12 A3000 790 75 1200 310/05 RMK AO2
14837KMSN MSN20120622025011606/22/12 02:50:31  5-MIN KMSN 220850Z 30005KT 10SM CLR 17/12 A3000 790 75 1200 300/05 RMK AO2 SLP154 T01670122 50006
14837KMSN MSN20120622025509306/22/12 02:55:31  5-MIN KMSN 220855Z 30005KT 10SM CLR 17/12 A3000 790 75 1200 300/05 RMK AO2
14837KMSN MSN20120622030009306/22/12 03:00:31  5-MIN KMSN 220900Z 30005KT 10SM CLR 17/12 A3000 790 75 1200 300/05 RMK AO2
14837KMSN MSN20120622030509306/22/12 03:05:31  5-MIN KMSN 220905Z 30005KT 10SM CLR 17/12 A3000 790 75 1200 300/05 RMK AO2
14837KMSN MSN20120622031009306/22/12 03:10:31  5-MIN KMSN 220910Z 30005KT 10SM CLR 17/12 A3000 790 75 1200 300/05 RMK AO2
14837KMSN MSN20120622031509306/22/12 03:15:31  5-MIN KMSN 220915Z 30005KT 10SM CLR 17/12 A3000 790 75 1200 300/05 RMK AO2
14837KMSN MSN20120622032009306/22/12 03:20:31  5-MIN KMSN 220920Z 30004KT 10SM CLR 17/12 A3000 790 75 1200 300/04 RMK AO2
14837KMSN MSN20120622032509306/22/12 03:25:31  5-MIN KMSN 220925Z 30004KT 10SM CLR 17/12 A3000 790 75 1200 300/04 RMK AO2
14837KMSN MSN20120622033009306/22/12 03:30:31  5-MIN KMSN 220930Z 30004KT 10SM CLR 17/12 A3000 790 75 1200 310/04 RMK AO2
14837KMSN MSN20120622033509306/22/12 03:35:31  5-MIN KMSN 220935Z 30005KT 10SM CLR 17/12 A3000 790 75 1200 300/05 RMK AO2
14837KMSN MSN20120622034009306/22/12 03:40:31  5-MIN KMSN 220940Z 31004KT 10SM CLR 17/12 A3000 790 75 1200 310/04 RMK AO2
14837KMSN MSN20120622034509306/22/12 03:45:31  5-MIN KMSN 220945Z 30004KT 10SM CLR 16/12 A3000 790 77 1100 300/04 RMK AO2
14837KMSN MSN20120622035011006/22/12 03:50:31  5-MIN KMSN 220950Z 30004KT 10SM CLR 16/12 A3000 790 77 1100 310/04 RMK AO2 SLP155 T01610122
14837KMSN MSN20120622035509306/22/12 03:55:31  5-MIN KMSN 220955Z 30005KT 10SM CLR 16/12 A3000 790 77 1100 310/05 RMK AO2
14837KMSN MSN20120622040009306/22/12 04:00:31  5-MIN KMSN 221000Z 30004KT 10SM CLR 16/12 A3000 790 77 1100 300/04 RMK AO2
14837KMSN MSN20120622040509306/22/12 04:05:31  5-MIN KMSN 221005Z 30004KT 10SM CLR 16/12 A3000 790 77 1100 300/04 RMK AO2
14837KMSN MSN20120622041009306/22/12 04:10:31  5-MIN KMSN 221010Z 30005KT 10SM CLR 16/12 A3000 790 77 1100 300/05 RMK AO2
14837KMSN MSN20120622041509306/22/12 04:15:31  5-MIN KMSN 221015Z 30004KT 10SM CLR 16/12 A3000 790 77 1100 300/04 RMK AO2
14837KMSN MSN20120622042009306/22/12 04:20:31  5-MIN KMSN 221020Z 30004KT 10SM CLR 16/12 A3000 790 77 1100 300/04 RMK AO2
14837KMSN MSN20120622042509306/22/12 04:25:31  5-MIN KMSN 221025Z 30003KT 10SM CLR 16/12 A3000 790 77 1100 310/03 RMK AO2
14837KMSN MSN20120622043009306/22/12 04:30:31  5-MIN KMSN 221030Z VRB03KT 10SM CLR 16/12 A3000 790 77 1100 VRB/03 RMK AO2
14837KMSN MSN20120622043509306/22/12 04:35:31  5-MIN KMSN 221035Z 30003KT 10SM CLR 16/12 A3000 790 77 1100 300/03 RMK AO2
14837KMSN MSN20120622044009306/22/12 04:40:31  5-MIN KMSN 221040Z 30003KT 10SM CLR 16/12 A3000 790 77 1100 310/03 RMK AO2
14837KMSN MSN20120622044509306/22/12 04:45:31  5-MIN KMSN 221045Z 00000KT 10SM CLR 16/12 A3000 790 77 1100 000/00 RMK AO2
14837KMSN MSN20120622045011006/22/12 04:50:31  5-MIN KMSN 221050Z 31003KT 10SM CLR 16/12 A3001 790 77 1100 310/03 RMK AO2 SLP157 T01610122
14837KMSN MSN20120622045509306/22/12 04:55:31  5-MIN KMSN 221055Z 00000KT 10SM CLR 16/12 A3001 780 77 1100 000/00 RMK AO2
14837KMSN MSN20120622050009306/22/12 05:00:31  5-MIN KMSN 221100Z 00000KT 10SM CLR 17/12 A3001 780 75 1200 000/00 RMK AO2
14837KMSN MSN20120622050509306/22/12 05:05:31  5-MIN KMSN 221105Z 00000KT 10SM CLR 17/12 A3001 780 75 1200 000/00 RMK AO2
14837KMSN MSN20120622051009306/22/12 05:10:31  5-MIN KMSN 221110Z 00000KT 10SM CLR 17/12 A3001 780 75 1200 000/00 RMK AO2
14837KMSN MSN20120622051509306/22/12 05:15:31  5-MIN KMSN 221115Z 00000KT 10SM CLR 17/13 A3001 780 77 1200 000/00 RMK AO2
14837KMSN MSN20120622052009306/22/12 05:20:31  5-MIN KMSN 221120Z 00000KT 10SM CLR 17/13 A3002 780 75 1300 000/00 RMK AO2
14837KMSN MSN20120622052509306/22/12 05:25:31  5-MIN KMSN 221125Z 00000KT 10SM CLR 17/13 A3002 780 75 1300 000/00 RMK AO2
14837KMSN MSN20120622053009306/22/12 05:30:31  5-MIN KMSN 221130Z 00000KT 10SM CLR 17/13 A3002 780 75 1300 000/00 RMK AO2
14837KMSN MSN20120622053509306/22/12 05:35:31  5-MIN KMSN 221135Z 32003KT 10SM CLR 17/13 A3002 780 75 1300 320/03 RMK AO2
14837KMSN MSN20120622054009306/22/12 05:40:31  5-MIN KMSN 221140Z 31004KT 10SM CLR 17/13 A3002 770 75 1300 320/04 RMK AO2
14837KMSN MSN20120622054509306/22/12 05:45:31  5-MIN KMSN 221145Z 31004KT 10SM CLR 18/13 A3002 770 72 1300 310/04 RMK AO2
14837KMSN MSN20120622055012806/22/12 05:50:31  5-MIN KMSN 221150Z 31004KT 10SM CLR 18/13 A3002 770 75 1300 310/04 RMK AO2 SLP161 T01780133 10178 20161 53001
14837KMSN MSN20120622055509306/22/12 05:55:31  5-MIN KMSN 221155Z 31004KT 10SM CLR 18/13 A3002 770 72 1400 310/04 RMK AO2
14837KMSN MSN20120622060009306/22/12 06:00:31  5-MIN KMSN 221200Z 30004KT 10SM CLR 18/13 A3002 770 72 1400 310/04 RMK AO2
14837KMSN MSN20120622060509306/22/12 06:05:31  5-MIN KMSN 221205Z 31003KT 10SM CLR 19/13 A3002 770 70 1400 310/03 RMK AO2
14837KMSN MSN20120622061009306/22/12 06:10:31  5-MIN KMSN 221210Z 00000KT 10SM CLR 19/13 A3002 770 70 1400 000/00 RMK AO2
14837KMSN MSN20120622061509306/22/12 06:15:31  5-MIN KMSN 221215Z 30003KT 10SM CLR 19/13 A3002 770 67 1500 300/03 RMK AO2
14837KMSN MSN20120622062009306/22/12 06:20:31  5-MIN KMSN 221220Z 29004KT 10SM CLR 19/13 A3002 770 67 1500 290/04 RMK AO2
14837KMSN MSN20120622062509306/22/12 06:25:31  5-MIN KMSN 221225Z 30004KT 10SM CLR 19/13 A3002 770 67 1500 300/04 RMK AO2
14837KMSN MSN20120622063009306/22/12 06:30:31  5-MIN KMSN 221230Z 30005KT 10SM CLR 19/13 A3002 770 67 1500 300/05 RMK AO2
14837KMSN MSN20120622063509306/22/12 06:35:31  5-MIN KMSN 221235Z 31005KT 10SM CLR 20/13 A3002 780 65 1600 310/05 RMK AO2
14837KMSN MSN20120622064009306/22/12 06:40:31  5-MIN KMSN 221240Z 29004KT 10SM CLR 20/13 A3002 780 65 1600 300/04 RMK AO2
14837KMSN MSN20120622064509306/22/12 06:45:31  5-MIN KMSN 221245Z VRB03KT 10SM CLR 21/13 A3002 780 63 1600 VRB/03 RMK AO2
14837KMSN MSN20120622065011306/22/12 06:50:31  5-MIN KMSN 221250Z 31003KT 10SM FEW040 21/14 A3002 780 65 1600 310/03 RMK AO2 SLP159 T02060139
14837KMSN MSN20120622065509306/22/12 06:55:31  5-MIN KMSN 221255Z VRB03KT 10SM CLR 21/14 A3002 780 63 1700 VRB/03 RMK AO2
14837KMSN MSN20120622070009306/22/12 07:00:31  5-MIN KMSN 221300Z VRB04KT 10SM CLR 21/13 A3002 780 61 1700 VRB/04 RMK AO2
14837KMSN MSN20120622070509306/22/12 07:05:31  5-MIN KMSN 221305Z 29005KT 10SM CLR 21/14 A3002 780 63 1700 300/05 RMK AO2
14837KMSN MSN20120622071009306/22/12 07:10:31  5-MIN KMSN 221310Z 28004KT 10SM CLR 21/13 A3002 770 61 1700 280/04 RMK AO2
14837KMSN MSN20120622071509306/22/12 07:15:31  5-MIN KMSN 221315Z 29004KT 10SM CLR 22/14 A3002 770 61 1800 290/04 RMK AO2
14837KMSN MSN20120622072009306/22/12 07:20:31  5-MIN KMSN 221320Z VRB04KT 10SM CLR 22/14 A3002 770 61 1800 VRB/04 RMK AO2
14837KMSN MSN20120622072509306/22/12 07:25:31  5-MIN KMSN 221325Z VRB03KT 10SM CLR 22/14 A3002 770 59 1800 VRB/03 RMK AO2
14837KMSN MSN20120622073009306/22/12 07:30:31  5-MIN KMSN 221330Z 29007KT 10SM CLR 22/13 A3002 770 56 1800 290/07 RMK AO2
14837KMSN MSN20120622073510906/22/12 07:35:31  5-MIN KMSN 221335Z 30007KT 270V340 10SM CLR 22/13 A3002 770 56 1800 300/07 270V340 RMK AO2
14837KMSN MSN20120622074009306/22/12 07:40:31  5-MIN KMSN 221340Z 30006KT 10SM CLR 23/13 A3002 770 55 1900 300/06 RMK AO2
14837KMSN MSN20120622074509306/22/12 07:45:31  5-MIN KMSN 221345Z VRB06KT 10SM CLR 23/13 A3002 770 53 1900 VRB/06 RMK AO2
14837KMSN MSN20120622075011006/22/12 07:50:31  5-MIN KMSN 221350Z VRB05KT 10SM CLR 23/13 A3003 770 55 1900 VRB/05 RMK AO2 SLP162 T02280133
14837KMSN MSN20120622075509306/22/12 07:55:31  5-MIN KMSN 221355Z VRB06KT 10SM CLR 23/13 A3003 770 55 1900 VRB/06 RMK AO2
14837KMSN MSN20120622080009306/22/12 08:00:31  5-MIN KMSN 221400Z 29007KT 10SM CLR 23/13 A3003 770 53 1900 290/07 RMK AO2
14837KMSN MSN20120622080509306/22/12 08:05:31  5-MIN KMSN 221405Z 29009KT 10SM CLR 23/13 A3003 770 53 1900 290/09 RMK AO2
14837KMSN MSN20120622081010906/22/12 08:10:31  5-MIN KMSN 221410Z 27007KT 250V320 10SM CLR 23/13 A3003 770 51 1900 280/07 250V320 RMK AO2
14837KMSN MSN20120622081509306/22/12 08:15:31  5-MIN KMSN 221415Z 29006KT 10SM CLR 23/13 A3003 760 53 1900 290/06 RMK AO2
14837KMSN MSN20120622082009306/22/12 08:20:31  5-MIN KMSN 221420Z 29008KT 10SM CLR 23/13 A3003 760 51 1900 300/08 RMK AO2
14837KMSN MSN20120622082509306/22/12 08:25:31  5-MIN KMSN 221425Z 29007KT 10SM CLR 23/13 A3003 760 51 1900 290/07 RMK AO2
14837KMSN MSN20120622083009306/22/12 08:30:31  5-MIN KMSN 221430Z 29006KT 10SM CLR 24/13 A3003 770 49 2000 290/06 RMK AO2
14837KMSN MSN20120622083509306/22/12 08:35:31  5-MIN KMSN 221435Z VRB06KT 10SM CLR 24/13 A3003 770 49 2000 VRB/06 RMK AO2
14837KMSN MSN20120622084009306/22/12 08:40:31  5-MIN KMSN 221440Z VRB05KT 10SM CLR 24/13 A3003 770 47 2100 VRB/05 RMK AO2
14837KMSN MSN20120622084509306/22/12 08:45:31  5-MIN KMSN 221445Z 28006KT 10SM CLR 24/13 A3003 770 47 2100 280/06 RMK AO2
14837KMSN MSN20120622085013206/22/12 08:50:31  5-MIN KMSN 221450Z 30007KT 260V330 10SM CLR 24/13 A3003 770 49 2000 300/07 260V330 RMK AO2 SLP163 T02390128 53006
14837KMSN MSN20120622085509306/22/12 08:55:31  5-MIN KMSN 221455Z VRB05KT 10SM CLR 24/13 A3003 770 47 2100 VRB/05 RMK AO2
14837KMSN MSN20120622090009306/22/12 09:00:31  5-MIN KMSN 221500Z 28008KT 10SM CLR 24/13 A3003 770 47 2100 280/08 RMK AO2
14837KMSN MSN20120622090509306/22/12 09:05:31  5-MIN KMSN 221505Z VRB04KT 10SM CLR 24/13 A3002 770 47 2100 VRB/04 RMK AO2
14837KMSN MSN20120622091009306/22/12 09:10:31  5-MIN KMSN 221510Z 26007KT 10SM CLR 25/13 A3002 770 46 2100 260/07 RMK AO2
14837KMSN MSN20120622091509306/22/12 09:15:31  5-MIN KMSN 221515Z 28008KT 10SM CLR 24/12 A3002 770 46 2100 280/08 RMK AO2
14837KMSN MSN20120622092010906/22/12 09:20:31  5-MIN KMSN 221520Z 27007KT 230V320 10SM CLR 24/12 A3002 770 46 2100 280/07 230V320 RMK AO2
14837KMSN MSN20120622092509306/22/12 09:25:31  5-MIN KMSN 221525Z 26007KT 10SM CLR 25/12 A3002 770 44 2100 260/07 RMK AO2
14837KMSN MSN20120622093010906/22/12 09:30:31  5-MIN KMSN 221530Z 28007KT 230V300 10SM CLR 25/12 A3002 770 44 2100 280/07 230V300 RMK AO2
14837KMSN MSN20120622093510906/22/12 09:35:31  5-MIN KMSN 221535Z 26007KT 220V310 10SM CLR 25/12 A3002 770 44 2100 270/07 220V310 RMK AO2
14837KMSN MSN20120622094009306/22/12 09:40:31  5-MIN KMSN 221540Z VRB06KT 10SM CLR 26/12 A3002 770 43 2200 VRB/06 RMK AO2
14837KMSN MSN20120622094510906/22/12 09:45:31  5-MIN KMSN 221545Z 26007KT 210V310 10SM CLR 26/12 A3002 770 43 2200 260/07 210V310 RMK AO2
14837KMSN MSN20120622095011006/22/12 09:50:31  5-MIN KMSN 221550Z VRB06KT 10SM CLR 26/12 A3002 780 43 2200 VRB/06 RMK AO2 SLP160 T02560122
14837KMSN MSN20120622095509306/22/12 09:55:31  5-MIN KMSN 221555Z VRB04KT 10SM CLR 26/12 A3001 780 43 2200 VRB/04 RMK AO2
14837KMSN MSN20120622100010906/22/12 10:00:31  5-MIN KMSN 221600Z 27007KT 240V330 10SM CLR 26/12 A3002 780 43 2200 280/07 240V330 RMK AO2
14837KMSN MSN20120622100509306/22/12 10:05:31  5-MIN KMSN 221605Z 29007KT 10SM CLR 26/13 A3001 780 43 2300 290/07 RMK AO2
14837KMSN MSN20120622101009306/22/12 10:10:31  5-MIN KMSN 221610Z VRB06KT 10SM CLR 26/13 A3001 780 43 2300 VRB/06 RMK AO2
14837KMSN MSN20120622101509306/22/12 10:15:31  5-MIN KMSN 221615Z VRB06KT 10SM CLR 27/12 A3001 780 40 2300 VRB/06 RMK AO2
14837KMSN MSN20120622102011806/22/12 10:20:31  5-MIN KMSN 221620Z 28008G14KT 250V320 10SM FEW055 26/12 A3001 780 43 2200 280/08G14 250V320 RMK AO2
14837KMSN MSN20120622102510206/22/12 10:25:31  5-MIN KMSN 221625Z 29006G14KT 10SM FEW055 26/12 A3001 780 41 2200 290/06G14 RMK AO2
14837KMSN MSN20120622103011206/22/12 10:30:31  5-MIN KMSN 221630Z 28008KT 240V300 10SM FEW055 27/12 A3001 780 40 2300 290/08 240V300 RMK AO2
14837KMSN MSN20120622103511806/22/12 10:35:31  5-MIN KMSN 221635Z 26008G14KT 230V310 10SM FEW055 26/11 A3001 780 38 2300 270/08G14 230V310 RMK AO2
14837KMSN MSN20120622104011806/22/12 10:40:31  5-MIN KMSN 221640Z 28008G14KT 240V330 10SM FEW055 26/11 A3001 780 38 2300 280/08G14 240V330 RMK AO2
14837KMSN MSN20120622104509606/22/12 10:45:31  5-MIN KMSN 221645Z VRB04KT 10SM FEW055 26/11 A3001 780 37 2300 VRB/04 RMK AO2
14837KMSN MSN20120622105011906/22/12 10:50:31  5-MIN KMSN 221650Z VRB05G15KT 10SM SCT060 26/11 A3001 780 38 2300 VRB/05G15 RMK AO2 SLP159 T02610111
14837KMSN MSN20120622105510206/22/12 10:55:31  5-MIN KMSN 221655Z 29010G15KT 10SM FEW060 27/12 A3001 780 38 2300 300/10G15 RMK AO2
14837KMSN MSN20120622110010206/22/12 11:00:31  5-MIN KMSN 221700Z VRB05G14KT 10SM FEW060 27/12 A3001 780 38 2300 VRB/05G14 RMK AO2
14837KMSN MSN20120622110509606/22/12 11:05:31  5-MIN KMSN 221705Z 31008KT 10SM FEW060 27/12 A3001 780 38 2300 310/08 RMK AO2
14837KMSN MSN20120622111010206/22/12 11:10:31  5-MIN KMSN 221710Z VRB05G14KT 10SM FEW060 27/11 A3001 780 36 2300 VRB/05G14 RMK AO2
14837KMSN MSN20120622111510906/22/12 11:15:31  5-MIN KMSN 221715Z VRB05G14KT 10SM FEW060 SCT080 27/12 A3001 780 37 2400 VRB/05G14 RMK AO2
14837KMSN MSN20120622112011006/22/12 11:20:31  5-MIN KMSN 221720Z 28005KT 10SM SCT060 SCT075 BKN090 26/11 A3001 780 38 2300 280/05 RMK AO2
14837KMSN MSN20120622112510306/22/12 11:25:31  5-MIN KMSN 221725Z 32008KT 10SM SCT060 SCT080 27/11 A3001 780 37 2300 330/08 RMK AO2
14837KMSN MSN20120622113010306/22/12 11:30:31  5-MIN KMSN 221730Z 31006KT 10SM FEW065 SCT080 27/11 A3001 780 37 2300 310/06 RMK AO2
14837KMSN MSN20120622113510306/22/12 11:35:31  5-MIN KMSN 221735Z 28007KT 10SM SCT065 SCT080 27/12 A3001 780 37 2400 290/07 RMK AO2
14837KMSN MSN20120622114009606/22/12 11:40:31  5-MIN KMSN 221740Z VRB06KT 10SM BKN065 26/11 A3001 780 38 2300 VRB/06 RMK AO2
14837KMSN MSN20120622114509606/22/12 11:45:31  5-MIN KMSN 221745Z 28009KT 10SM SCT065 27/11 A3001 780 36 2300 280/09 RMK AO2
14837KMSN MSN20120622115013806/22/12 11:50:31  5-MIN KMSN 221750Z VRB06KT 10SM SCT065 BKN080 27/10 A3000 790 34 2300 VRB/06 RMK AO2 SLP156 T02670100 10272 20178 53002
14837KMSN MSN20120622115509606/22/12 11:55:31  5-MIN KMSN 221755Z 31007KT 10SM FEW065 27/10 A3000 790 33 2400 320/07 RMK AO2
14837KMSN MSN20120622120009606/22/12 12:00:31  5-MIN KMSN 221800Z 31008KT 10SM FEW065 28/10 A3000 790 32 2500 310/08 RMK AO2
14837KMSN MSN20120622120510906/22/12 12:05:31  5-MIN KMSN 221805Z 31006G15KT 10SM FEW070 SCT090 26/09 A3000 790 34 2300 310/06G15 RMK AO2
14837KMSN MSN20120622121010906/22/12 12:10:31  5-MIN KMSN 221810Z VRB05G15KT 10SM FEW070 BKN090 26/10 A3000 790 36 2300 VRB/05G15 RMK AO2
14837KMSN MSN20120622121510306/22/12 12:15:31  5-MIN KMSN 221815Z 33007KT 10SM FEW070 SCT090 27/10 A3000 790 34 2400 330/07 RMK AO2
14837KMSN MSN20120622122010306/22/12 12:20:31  5-MIN KMSN 221820Z 32006KT 10SM FEW070 SCT090 27/11 A3000 790 36 2400 320/06 RMK AO2
14837KMSN MSN20120622122512506/22/12 12:25:31  5-MIN KMSN 221825Z 28008G16KT 240V320 10SM SCT070 SCT090 28/11 A3000 790 33 2500 280/08G16 240V320 RMK AO2
14837KMSN MSN20120622123010906/22/12 12:30:31  5-MIN KMSN 221830Z VRB06G16KT 10SM SCT070 SCT085 28/11 A2999 800 33 2500 VRB/06G16 RMK AO2
14837KMSN MSN20120622123510206/22/12 12:35:31  5-MIN KMSN 221835Z 30008G16KT 10SM FEW070 28/11 A2999 800 33 2500 300/08G16 RMK AO2
14837KMSN MSN20120622124010206/22/12 12:40:31  5-MIN KMSN 221840Z VRB05G16KT 10SM FEW070 27/11 A2999 800 36 2400 VRB/05G16 RMK AO2
14837KMSN MSN20120622124509606/22/12 12:45:31  5-MIN KMSN 221845Z 32008KT 10SM SCT070 27/11 A2999 800 34 2400 320/08 RMK AO2
14837KMSN MSN20120622125011306/22/12 12:50:31  5-MIN KMSN 221850Z 28007KT 10SM SCT070 28/11 A2999 800 32 2600 290/07 RMK AO2 SLP150 T02830106
14837KMSN MSN20120622125510306/22/12 12:55:31  5-MIN KMSN 221855Z 28006KT 10SM FEW070 SCT100 28/10 A2999 800 32 2500 280/06 RMK AO2
14837KMSN MSN20120622130010306/22/12 13:00:31  5-MIN KMSN 221900Z VRB06KT 10SM FEW070 BKN100 27/10 A2999 800 34 2400 VRB/06 RMK AO2
14837KMSN MSN20120622130510906/22/12 13:05:31  5-MIN KMSN 221905Z 32010G14KT 10SM FEW070 BKN100 26/11 A2999 800 37 2300 320/10G14 RMK AO2
14837KMSN MSN20120622131010906/22/12 13:10:31  5-MIN KMSN 221910Z 31008G14KT 10SM FEW070 BKN100 27/11 A2999 800 34 2400 310/08G14 RMK AO2
14837KMSN MSN20120622131509606/22/12 13:15:31  5-MIN KMSN 221915Z 28008KT 10SM SCT100 28/11 A2998 810 33 2500 280/08 RMK AO2
14837KMSN MSN20120622132009606/22/12 13:20:31  5-MIN KMSN 221920Z VRB04KT 10SM SCT100 28/11 A2998 810 33 2500 VRB/04 RMK AO2
14837KMSN MSN20120622132509606/22/12 13:25:31  5-MIN KMSN 221925Z 26005KT 10SM FEW100 27/10 A2998 810 34 2400 270/05 RMK AO2
14837KMSN MSN20120622133009606/22/12 13:30:31  5-MIN KMSN 221930Z 28007KT 10SM FEW070 27/11 A2998 810 34 2400 290/07 RMK AO2
14837KMSN MSN20120622133509606/22/12 13:35:31  5-MIN KMSN 221935Z 30006KT 10SM FEW070 27/10 A2998 810 34 2400 300/06 RMK AO2
14837KMSN MSN20120622134009606/22/12 13:40:31  5-MIN KMSN 221940Z VRB03KT 10SM FEW070 27/10 A2998 810 33 2400 VRB/03 RMK AO2
14837KMSN MSN20120622134509606/22/12 13:45:31  5-MIN KMSN 221945Z VRB04KT 10SM SCT075 28/11 A2997 820 33 2500 VRB/04 RMK AO2
14837KMSN MSN20120622135012006/22/12 13:50:31  5-MIN KMSN 221950Z 30006KT 10SM SCT075 SCT100 29/11 A2997 820 31 2600 300/06 RMK AO2 SLP144 T02890106
14837KMSN MSN20120622135509606/22/12 13:55:31  5-MIN KMSN 221955Z VRB06KT 10SM SCT070 28/11 A2997 820 32 2600 VRB/06 RMK AO2
14837KMSN MSN20120622140009606/22/12 14:00:31  5-MIN KMSN 222000Z 32006KT 10SM BKN075 29/11 A2997 820 31 2600 330/06 RMK AO2
14837KMSN MSN20120622140510206/22/12 14:05:31  5-MIN KMSN 222005Z 32009G14KT 10SM BKN075 28/11 A2997 820 33 2500 320/09G14 RMK AO2
14837KMSN MSN20120622141010206/22/12 14:10:31  5-MIN KMSN 222010Z 33010G14KT 10SM SCT075 28/11 A2996 820 33 2500 330/10G14 RMK AO2
14837KMSN MSN20120622141509606/22/12 14:15:31  5-MIN KMSN 222015Z VRB05KT 10SM SCT075 28/11 A2996 820 32 2600 VRB/05 RMK AO2
14837KMSN MSN20120622142009606/22/12 14:20:31  5-MIN KMSN 222020Z 29008KT 10SM SCT075 28/10 A2996 820 31 2600 290/08 RMK AO2
14837KMSN MSN20120622142509606/22/12 14:25:31  5-MIN KMSN 222025Z VRB06KT 10SM SCT075 28/09 A2996 830 30 2600 VRB/06 RMK AO2
14837KMSN MSN20120622143009606/22/12 14:30:31  5-MIN KMSN 222030Z VRB06KT 10SM SCT075 29/10 A2996 830 30 2600 VRB/06 RMK AO2
14837KMSN MSN20120622143509606/22/12 14:35:31  5-MIN KMSN 222035Z VRB04KT 10SM SCT075 28/09 A2996 830 31 2500 VRB/04 RMK AO2
14837KMSN MSN20120622144011206/22/12 14:40:31  5-MIN KMSN 222040Z 29007KT 230V320 10SM SCT075 29/10 A2996 830 30 2700 290/07 230V320 RMK AO2
14837KMSN MSN20120622144512506/22/12 14:45:31  5-MIN KMSN 222045Z 32007G14KT 280V340 10SM FEW075 SCT100 29/10 A2996 830 30 2700 320/07G14 280V340 RMK AO2
14837KMSN MSN20120622145013206/22/12 14:50:31  5-MIN KMSN 222050Z 31008G17KT 10SM SCT075 SCT100 29/09 A2996 830 29 2700 310/08G17 RMK AO2 SLP139 T02890094 56007
14837KMSN MSN20120622145510206/22/12 14:55:31  5-MIN KMSN 222055Z 28010G17KT 10SM FEW075 29/09 A2996 830 29 2700 290/10G17 RMK AO2
14837KMSN MSN20120622150010206/22/12 15:00:31  5-MIN KMSN 222100Z 30009G16KT 10SM FEW070 28/09 A2996 830 29 2600 310/09G16 RMK AO2
14837KMSN MSN20120622150510206/22/12 15:05:31  5-MIN KMSN 222105Z 30009G16KT 10SM FEW100 28/09 A2996 830 31 2500 300/09G16 RMK AO2
14837KMSN MSN20120622151009606/22/12 15:10:31  5-MIN KMSN 222110Z 32006KT 10SM FEW100 28/09 A2995 830 31 2500 320/06 RMK AO2
14837KMSN MSN20120622151509606/22/12 15:15:31  5-MIN KMSN 222115Z 30005KT 10SM FEW080 28/09 A2995 830 30 2600 300/05 RMK AO2
14837KMSN MSN20120622152009606/22/12 15:20:31  5-MIN KMSN 222120Z 32009KT 10SM SCT085 28/10 A2995 830 32 2500 320/09 RMK AO2
14837KMSN MSN20120622152509606/22/12 15:25:31  5-MIN KMSN 222125Z 30009KT 10SM FEW080 28/09 A2995 830 30 2500 300/09 RMK AO2
14837KMSN MSN20120622153010306/22/12 15:30:31  5-MIN KMSN 222130Z 31009KT 10SM FEW080 SCT095 28/09 A2995 830 31 2500 310/09 RMK AO2
14837KMSN MSN20120622153510906/22/12 15:35:31  5-MIN KMSN 222135Z 32008G15KT 10SM FEW080 SCT095 27/09 A2995 830 32 2500 320/08G15 RMK AO2
14837KMSN MSN20120622154010306/22/12 15:40:31  5-MIN KMSN 222140Z 32009KT 10SM FEW075 SCT095 28/09 A2995 830 30 2600 320/09 RMK AO2
14837KMSN MSN20120622154510306/22/12 15:45:31  5-MIN KMSN 222145Z 31007KT 10SM SCT080 SCT100 28/10 A2995 830 31 2600 310/07 RMK AO2
14837KMSN MSN20120622155013606/22/12 15:50:31  5-MIN KMSN 222150Z 28007KT 240V310 10SM SCT080 SCT100 28/11 A2995 830 32 2600 280/07 240V310 RMK AO2 SLP138 T02830106
14837KMSN MSN20120622155510306/22/12 15:55:31  5-MIN KMSN 222155Z 27008KT 10SM FEW075 SCT100 28/10 A2995 840 32 2500 280/08 RMK AO2
14837KMSN MSN20120622160009606/22/12 16:00:31  5-MIN KMSN 222200Z VRB04KT 10SM FEW075 28/09 A2995 840 31 2500 VRB/04 RMK AO2
14837KMSN MSN20120622160509606/22/12 16:05:31  5-MIN KMSN 222205Z 31007KT 10SM FEW075 28/11 A2995 830 32 2600 310/07 RMK AO2
14837KMSN MSN20120622161009606/22/12 16:10:31  5-MIN KMSN 222210Z VRB04KT 10SM FEW075 28/11 A2995 840 32 2600 VRB/04 RMK AO2
14837KMSN MSN20120622161509306/22/12 16:15:31  5-MIN KMSN 222215Z 31007KT 10SM CLR 29/11 A2995 840 31 2700 320/07 RMK AO2
14837KMSN MSN20120622162009906/22/12 16:20:31  5-MIN KMSN 222220Z 29008G14KT 10SM CLR 28/10 A2995 840 31 2600 290/08G14 RMK AO2
14837KMSN MSN20120622162509906/22/12 16:25:31  5-MIN KMSN 222225Z 29008G14KT 10SM CLR 28/10 A2995 840 31 2600 290/08G14 RMK AO2
14837KMSN MSN20120622163009306/22/12 16:30:31  5-MIN KMSN 222230Z 30005KT 10SM CLR 28/10 A2995 840 31 2600 300/05 RMK AO2
14837KMSN MSN20120622163509906/22/12 16:35:31  5-MIN KMSN 222235Z 30010G14KT 10SM CLR 28/09 A2995 840 30 2600 300/10G14 RMK AO2
14837KMSN MSN20120622164009906/22/12 16:40:31  5-MIN KMSN 222240Z 31009G16KT 10SM CLR 28/09 A2995 840 30 2600 310/09G16 RMK AO2
14837KMSN MSN20120622164510206/22/12 16:45:31  5-MIN KMSN 222245Z 31007G16KT 10SM FEW080 28/09 A2995 840 31 2500 310/07G16 RMK AO2
14837KMSN MSN20120622165011906/22/12 16:50:31  5-MIN KMSN 222250Z 33010G15KT 10SM FEW100 28/10 A2995 840 31 2600 330/10G15 RMK AO2 SLP136 T02830100
14837KMSN MSN20120622165510906/22/12 16:55:31  5-MIN KMSN 222255Z 34007G15KT 10SM FEW075 BKN100 28/11 A2994 840 32 2600 340/07G15 RMK AO2
14837KMSN MSN20120622170010306/22/12 17:00:31  5-MIN KMSN 222300Z 34006KT 10SM FEW075 BKN100 28/11 A2995 840 32 2600 340/06 RMK AO2
14837KMSN MSN20120622170510306/22/12 17:05:31  5-MIN KMSN 222305Z VRB06KT 10SM SCT080 BKN100 28/11 A2994 840 33 2600 VRB/06 RMK AO2
14837KMSN MSN20120622171010306/22/12 17:10:31  5-MIN KMSN 222310Z 33007KT 10SM FEW080 BKN100 27/11 A2995 840 34 2500 330/07 RMK AO2
14837KMSN MSN20120622171510306/22/12 17:15:31  5-MIN KMSN 222315Z 32006KT 10SM FEW075 SCT100 26/11 A2995 840 37 2400 320/06 RMK AO2
14837KMSN MSN20120622172009606/22/12 17:20:31  5-MIN KMSN 222320Z 32005KT 10SM FEW080 26/11 A2995 840 38 2300 320/05 RMK AO2
14837KMSN MSN20120622172509606/22/12 17:25:31  5-MIN KMSN 222325Z 32004KT 10SM FEW080 26/11 A2995 840 37 2400 330/04 RMK AO2
14837KMSN MSN20120622173009606/22/12 17:30:31  5-MIN KMSN 222330Z 32008KT 10SM FEW080 27/11 A2995 840 34 2500 320/08 RMK AO2
14837KMSN MSN20120622173509306/22/12 17:35:31  5-MIN KMSN 222335Z 32007KT 10SM CLR 27/10 A2995 840 33 2500 320/07 RMK AO2
14837KMSN MSN20120622174009606/22/12 17:40:31  5-MIN KMSN 222340Z 33006KT 10SM FEW070 27/10 A2995 840 33 2500 330/06 RMK AO2
14837KMSN MSN20120622174509606/22/12 17:45:31  5-MIN KMSN 222345Z 33007KT 10SM FEW070 27/11 A2995 840 34 2500 330/07 RMK AO2
14837KMSN MSN20120622175013106/22/12 17:50:31  5-MIN KMSN 222350Z 31005KT 10SM FEW070 27/11 A2995 840 34 2500 310/05 RMK AO2 SLP137 T02720106 10289 20256 56015
14837KMSN MSN20120622175509606/22/12 17:55:31  5-MIN KMSN 222355Z 32004KT 10SM FEW070 27/11 A2995 840 34 2500 320/04 RMK AO2
14837KMSN MSN20120622180009606/22/12 18:00:31  5-MIN KMSN 230000Z 31004KT 10SM FEW070 27/11 A2995 830 36 2500 310/04 RMK AO2
14837KMSN MSN20120622180509606/22/12 18:05:31  5-MIN KMSN 230005Z 33005KT 10SM FEW070 27/11 A2995 840 34 2500 330/05 RMK AO2
14837KMSN MSN20120622181009606/22/12 18:10:31  5-MIN KMSN 230010Z 32006KT 10SM FEW070 27/11 A2995 840 36 2400 320/06 RMK AO2
14837KMSN MSN20120622181509606/22/12 18:15:31  5-MIN KMSN 230015Z 32004KT 10SM FEW070 27/11 A2995 840 36 2400 320/04 RMK AO2
14837KMSN MSN20120622182009606/22/12 18:20:31  5-MIN KMSN 230020Z 32006KT 10SM FEW070 27/10 A2995 840 34 2400 320/06 RMK AO2
14837KMSN MSN20120622182509606/22/12 18:25:31  5-MIN KMSN 230025Z 32005KT 10SM FEW070 26/11 A2995 830 37 2300 320/05 RMK AO2
14837KMSN MSN20120622183009606/22/12 18:30:31  5-MIN KMSN 230030Z 33005KT 10SM FEW070 26/11 A2995 830 37 2300 330/05 RMK AO2
14837KMSN MSN20120622183509606/22/12 18:35:31  5-MIN KMSN 230035Z 32005KT 10SM FEW070 26/11 A2996 830 37 2300 320/05 RMK AO2
14837KMSN MSN20120622184009606/22/12 18:40:31  5-MIN KMSN 230040Z 33004KT 10SM FEW070 26/11 A2996 830 38 2300 330/04 RMK AO2
14837KMSN MSN20120622184509606/22/12 18:45:31  5-MIN KMSN 230045Z 33003KT 10SM FEW070 26/11 A2996 830 40 2300 330/03 RMK AO2
14837KMSN MSN20120622185011306/22/12 18:50:31  5-MIN KMSN 230050Z 33004KT 10SM FEW070 26/11 A2996 830 40 2300 330/04 RMK AO2 SLP139 T02560111
14837KMSN MSN20120622185509606/22/12 18:55:31  5-MIN KMSN 230055Z 33003KT 10SM FEW070 25/11 A2996 830 41 2200 330/03 RMK AO2
14837KMSN MSN20120622190009606/22/12 19:00:31  5-MIN KMSN 230100Z 32003KT 10SM FEW070 25/12 A2996 830 43 2200 330/03 RMK AO2
14837KMSN MSN20120622190509606/22/12 19:05:31  5-MIN KMSN 230105Z 00000KT 10SM FEW070 24/12 A2996 830 44 2200 000/00 RMK AO2
14837KMSN MSN20120622191009606/22/12 19:10:31  5-MIN KMSN 230110Z 33003KT 10SM FEW070 24/12 A2995 830 44 2200 330/03 RMK AO2
14837KMSN MSN20120622191509606/22/12 19:15:31  5-MIN KMSN 230115Z 32003KT 10SM FEW070 23/12 A2996 830 49 2000 330/03 RMK AO2
14837KMSN MSN20120622192009606/22/12 19:20:31  5-MIN KMSN 230120Z 01007KT 10SM FEW070 23/12 A2996 830 47 2000 010/07 RMK AO2
14837KMSN MSN20120622192510206/22/12 19:25:31  5-MIN KMSN 230125Z 05009G14KT 10SM FEW070 23/12 A2996 830 51 2000 050/09G14 RMK AO2
14837KMSN MSN20120622193010206/22/12 19:30:31  5-MIN KMSN 230130Z 05009G14KT 10SM FEW070 22/12 A2996 830 52 1900 050/09G14 RMK AO2
14837KMSN MSN20120622193510206/22/12 19:35:31  5-MIN KMSN 230135Z 05008G14KT 10SM FEW070 22/13 A2996 830 54 1900 050/08G14 RMK AO2
14837KMSN MSN20120622194009606/22/12 19:40:31  5-MIN KMSN 230140Z 05007KT 10SM FEW070 22/13 A2996 830 56 1800 060/07 RMK AO2
14837KMSN MSN20120622194509606/22/12 19:45:31  5-MIN KMSN 230145Z 05006KT 10SM FEW065 21/13 A2996 830 58 1800 060/06 RMK AO2
14837KMSN MSN20120622195011306/22/12 19:50:31  5-MIN KMSN 230150Z 05006KT 10SM FEW065 21/13 A2996 830 60 1700 050/06 RMK AO2 SLP141 T02060128
14837KMSN MSN20120622195509606/22/12 19:55:31  5-MIN KMSN 230155Z 05006KT 10SM FEW070 21/13 A2996 830 60 1700 050/06 RMK AO2
14837KMSN MSN20120622200009606/22/12 20:00:31  5-MIN KMSN 230200Z 05006KT 10SM FEW070 21/13 A2996 820 60 1700 050/06 RMK AO2
14837KMSN MSN20120622200509606/22/12 20:05:31  5-MIN KMSN 230205Z 04005KT 10SM FEW070 21/13 A2997 820 60 1700 040/05 RMK AO2
14837KMSN MSN20120622201009606/22/12 20:10:31  5-MIN KMSN 230210Z 04004KT 10SM FEW070 21/13 A2997 820 60 1700 040/04 RMK AO2
14837KMSN MSN20120622201509606/22/12 20:15:31  5-MIN KMSN 230215Z 04005KT 10SM FEW070 20/13 A2997 820 63 1600 040/05 RMK AO2
14837KMSN MSN20120622202009606/22/12 20:20:31  5-MIN KMSN 230220Z 04004KT 10SM FEW075 20/13 A2997 820 63 1600 040/04 RMK AO2
14837KMSN MSN20120622202509606/22/12 20:25:31  5-MIN KMSN 230225Z 03006KT 10SM FEW075 20/13 A2998 810 63 1600 030/06 RMK AO2
14837KMSN MSN20120622203009606/22/12 20:30:31  5-MIN KMSN 230230Z 03004KT 10SM FEW075 20/13 A2998 810 63 1600 030/04 RMK AO2
14837KMSN MSN20120622203509306/22/12 20:35:31  5-MIN KMSN 230235Z 03004KT 10SM CLR 20/13 A2998 810 63 1600 030/04 RMK AO2
14837KMSN MSN20120622204009306/22/12 20:40:31  5-MIN KMSN 230240Z 04004KT 10SM CLR 20/13 A2998 810 63 1600 040/04 RMK AO2
14837KMSN MSN20120622204509306/22/12 20:45:31  5-MIN KMSN 230245Z 03003KT 10SM CLR 19/13 A2998 800 65 1600 030/03 RMK AO2
14837KMSN MSN20120622205011606/22/12 20:50:31  5-MIN KMSN 230250Z 04003KT 10SM CLR 19/13 A2999 800 65 1500 050/03 RMK AO2 SLP150 T01940128 55001
14837KMSN MSN20120622205509306/22/12 20:55:31  5-MIN KMSN 230255Z 05003KT 10SM CLR 19/13 A2999 800 65 1500 050/03 RMK AO2
14837KMSN MSN20120622210009306/22/12 21:00:31  5-MIN KMSN 230300Z 05004KT 10SM CLR 20/13 A2999 800 63 1600 050/04 RMK AO2
14837KMSN MSN20120622210509306/22/12 21:05:31  5-MIN KMSN 230305Z 06004KT 10SM CLR 19/13 A2999 800 65 1500 060/04 RMK AO2
14837KMSN MSN20120622211009306/22/12 21:10:31  5-MIN KMSN 230310Z 07004KT 10SM CLR 19/13 A2999 800 65 1500 070/04 RMK AO2
14837KMSN MSN20120622211509306/22/12 21:15:31  5-MIN KMSN 230315Z 06003KT 10SM CLR 19/13 A2999 800 67 1500 060/03 RMK AO2
14837KMSN MSN20120622212009306/22/12 21:20:31  5-MIN KMSN 230320Z 07003KT 10SM CLR 19/13 A3000 790 67 1500 080/03 RMK AO2
14837KMSN MSN20120622212509306/22/12 21:25:31  5-MIN KMSN 230325Z 07005KT 10SM CLR 19/13 A3000 790 67 1500 070/05 RMK AO2
14837KMSN MSN20120622213009306/22/12 21:30:31  5-MIN KMSN 230330Z 07005KT 10SM CLR 19/13 A3000 790 67 1500 080/05 RMK AO2
14837KMSN MSN20120622213509306/22/12 21:35:31  5-MIN KMSN 230335Z 07004KT 10SM CLR 18/13 A3000 790 70 1400 080/04 RMK AO2
14837KMSN MSN20120622214009306/22/12 21:40:31  5-MIN KMSN 230340Z 08004KT 10SM CLR 18/13 A3000 790 70 1400 080/04 RMK AO2
14837KMSN MSN20120622214509306/22/12 21:45:31  5-MIN KMSN 230345Z 07004KT 10SM CLR 18/13 A3000 790 70 1400 070/04 RMK AO2
14837KMSN MSN20120622215011006/22/12 21:50:31  5-MIN KMSN 230350Z 08003KT 10SM CLR 18/12 A3000 790 69 1300 080/03 RMK AO2 SLP154 T01780122
14837KMSN MSN20120622215509306/22/12 21:55:31  5-MIN KMSN 230355Z 09003KT 10SM CLR 18/12 A3000 790 69 1300 090/03 RMK AO2
14837KMSN MSN20120622220009606/22/12 22:00:31  5-MIN KMSN 230400Z 00000KT 10SM FEW070 18/12 A3000 790 67 1400 000/00 RMK AO2
14837KMSN MSN20120622220509606/22/12 22:05:31  5-MIN KMSN 230405Z 00000KT 10SM FEW070 18/12 A3000 790 67 1400 000/00 RMK AO2
14837KMSN MSN20120622221009306/22/12 22:10:31  5-MIN KMSN 230410Z 00000KT 10SM CLR 17/12 A3000 790 72 1300 000/00 RMK AO2
14837KMSN MSN20120622221509306/22/12 22:15:31  5-MIN KMSN 230415Z 00000KT 10SM CLR 17/12 A3001 790 72 1300 000/00 RMK AO2
14837KMSN MSN20120622222009306/22/12 22:20:31  5-MIN KMSN 230420Z 00000KT 10SM CLR 18/12 A3001 790 69 1300 000/00 RMK AO2
14837KMSN MSN20120622222509306/22/12 22:25:31  5-MIN KMSN 230425Z 14003KT 10SM CLR 18/12 A3001 780 67 1400 140/03 RMK AO2
14837KMSN MSN20120622223009606/22/12 22:30:31  5-MIN KMSN 230430Z 13005KT 10SM FEW070 18/12 A3001 790 67 1400 130/05 RMK AO2
14837KMSN MSN20120622223509606/22/12 22:35:31  5-MIN KMSN 230435Z 13005KT 10SM FEW070 18/12 A3001 790 67 1400 130/05 RMK AO2
14837KMSN MSN20120622224009306/22/12 22:40:31  5-MIN KMSN 230440Z 13005KT 10SM CLR 18/12 A3000 790 69 1300 130/05 RMK AO2
14837KMSN MSN20120622224509306/22/12 22:45:31  5-MIN KMSN 230445Z 11004KT 10SM CLR 18/12 A3000 790 69 1300 120/04 RMK AO2
14837KMSN MSN20120622225011006/22/12 22:50:31  5-MIN KMSN 230450Z 10003KT 10SM CLR 18/12 A3001 790 69 1300 100/03 RMK AO2 SLP157 T01780122
14837KMSN MSN20120622225509306/22/12 22:55:31  5-MIN KMSN 230455Z 00000KT 10SM CLR 18/12 A3001 790 69 1300 000/00 RMK AO2
14837KMSN MSN20120622230009606/22/12 23:00:31  5-MIN KMSN 230500Z 00000KT 10SM FEW070 18/12 A3001 780 67 1400 000/00 RMK AO2
14837KMSN MSN20120622230509606/22/12 23:05:31  5-MIN KMSN 230505Z 00000KT 10SM FEW070 18/12 A3001 790 69 1300 000/00 RMK AO2
14837KMSN MSN20120622231009606/22/12 23:10:31  5-MIN KMSN 230510Z 00000KT 10SM FEW070 18/12 A3000 790 69 1300 000/00 RMK AO2
14837KMSN MSN20120622231509606/22/12 23:15:31  5-MIN KMSN 230515Z 10003KT 10SM FEW070 18/12 A3000 790 69 1300 100/03 RMK AO2
14837KMSN MSN20120622232009606/22/12 23:20:31  5-MIN KMSN 230520Z 11004KT 10SM FEW070 18/12 A3000 790 69 1300 110/04 RMK AO2
14837KMSN MSN20120622232509606/22/12 23:25:31  5-MIN KMSN 230525Z 09003KT 10SM FEW070 17/12 A3000 790 75 1200 090/03 RMK AO2
14837KMSN MSN20120622233009606/22/12 23:30:31  5-MIN KMSN 230530Z 10003KT 10SM FEW070 17/12 A3000 790 72 1300 110/03 RMK AO2
14837KMSN MSN20120622233509606/22/12 23:35:31  5-MIN KMSN 230535Z 00000KT 10SM FEW070 17/12 A3000 790 72 1300 000/00 RMK AO2
14837KMSN MSN20120622234009606/22/12 23:40:31  5-MIN KMSN 230540Z 11003KT 10SM FEW070 17/12 A3000 790 72 1300 110/03 RMK AO2
14837KMSN MSN20120622234509606/22/12 23:45:31  5-MIN KMSN 230545Z 00000KT 10SM FEW070 17/12 A3000 790 72 1300 000/00 RMK AO2
14837KMSN MSN20120622235013806/22/12 23:50:31  5-MIN KMSN 230550Z 00000KT 10SM CLR 17/12 A3000 790 72 1300 000/00 RMK AO2 SLP156 T01720122 10272 20167 402890161 53012
14837KMSN MSN20120622235509306/22/12 23:55:31  5-MIN KMSN 230555Z 00000KT 10SM CLR 17/12 A3000 790 72 1300 000/00 RMK AO2
14837KMSN MSN20120623000009306/23/12 00:00:32  5-MIN KMSN 230600Z 00000KT 10SM CLR 16/12 A3001 780 77 1100 000/00 RMK AO2
14837KMSN MSN20120623000509306/23/12 00:05:31  5-MIN KMSN 230605Z 00000KT 10SM CLR 16/12 A3001 790 80 1100 000/00 RMK AO2
14837KMSN MSN20120623001009306/23/12 00:10:31  5-MIN KMSN 230610Z 00000KT 10SM CLR 16/12 A3001 790 80 1100 000/00 RMK AO2
14837KMSN MSN20120623001509306/23/12 00:15:31  5-MIN KMSN 230615Z 00000KT 10SM CLR 16/12 A3001 780 80 1100 000/00 RMK AO2
14837KMSN MSN20120623002009306/23/12 00:20:31  5-MIN KMSN 230620Z 00000KT 10SM CLR 15/12 A3001 790 83 1000 000/00 RMK AO2
14837KMSN MSN20120623002509306/23/12 00:25:31  5-MIN KMSN 230625Z 00000KT 10SM CLR 16/12 A3001 790 80 1100 000/00 RMK AO2
14837KMSN MSN20120623003009306/23/12 00:30:31  5-MIN KMSN 230630Z 00000KT 10SM CLR 16/12 A3001 790 77 1100 000/00 RMK AO2
14837KMSN MSN20120623003509306/23/12 00:35:31  5-MIN KMSN 230635Z 00000KT 10SM CLR 16/12 A3001 780 77 1100 000/00 RMK AO2
14837KMSN MSN20120623004009306/23/12 00:40:31  5-MIN KMSN 230640Z 00000KT 10SM CLR 15/12 A3001 780 80 1000 000/00 RMK AO2
14837KMSN MSN20120623004509306/23/12 00:45:31  5-MIN KMSN 230645Z 00000KT 10SM CLR 16/12 A3001 780 80 1100 000/00 RMK AO2
14837KMSN MSN20120623005011006/23/12 00:50:31  5-MIN KMSN 230650Z 00000KT 10SM CLR 16/12 A3001 780 80 1100 000/00 RMK AO2 SLP157 T01560122
14837KMSN MSN20120623005509306/23/12 00:55:31  5-MIN KMSN 230655Z 00000KT 10SM CLR 15/12 A3001 780 83 1000 000/00 RMK AO2
14837KMSN MSN20120623010009206/23/12 01:00:31  5-MIN KMSN 230700Z 00000KT 10SM CLR 14/12 A3001 780 90 900 000/00 RMK AO2
14837KMSN MSN20120623010509206/23/12 01:05:31  5-MIN KMSN 230705Z 00000KT 10SM CLR 14/12 A3001 780 86 900 000/00 RMK AO2
14837KMSN MSN20120623011009206/23/12 01:10:31  5-MIN KMSN 230710Z 00000KT 10SM CLR 14/12 A3001 780 86 900 000/00 RMK AO2
14837KMSN MSN20120623011509206/23/12 01:15:31  5-MIN KMSN 230715Z 00000KT 10SM CLR 14/12 A3001 780 86 900 000/00 RMK AO2
14837KMSN MSN20120623012009206/23/12 01:20:31  5-MIN KMSN 230720Z 00000KT 10SM CLR 14/12 A3001 780 90 900 000/00 RMK AO2
14837KMSN MSN20120623012509206/23/12 01:25:31  5-MIN KMSN 230725Z 00000KT 10SM CLR 14/12 A3001 780 90 900 000/00 RMK AO2
14837KMSN MSN20120623013009206/23/12 01:30:31  5-MIN KMSN 230730Z 00000KT 10SM CLR 14/12 A3001 780 86 900 000/00 RMK AO2
14837KMSN MSN20120623013509206/23/12 01:35:31  5-MIN KMSN 230735Z 00000KT 10SM CLR 14/12 A3001 780 90 900 000/00 RMK AO2
14837KMSN MSN20120623014009206/23/12 01:40:31  5-MIN KMSN 230740Z 00000KT 10SM CLR 14/12 A3001 780 90 900 000/00 RMK AO2
14837KMSN MSN20120623014509206/23/12 01:45:31  5-MIN KMSN 230745Z 00000KT 10SM CLR 14/12 A3001 780 90 900 000/00 RMK AO2
14837KMSN MSN20120623015010906/23/12 01:50:31  5-MIN KMSN 230750Z 00000KT 10SM CLR 14/12 A3001 790 90 900 000/00 RMK AO2 SLP157 T01390122
14837KMSN MSN20120623015509206/23/12 01:55:31  5-MIN KMSN 230755Z 00000KT 10SM CLR 13/12 A3000 790 93 800 000/00 RMK AO2
14837KMSN MSN20120623020009206/23/12 02:00:31  5-MIN KMSN 230800Z 00000KT 10SM CLR 13/12 A3000 790 93 800 000/00 RMK AO2
14837KMSN MSN20120623020509206/23/12 02:05:31  5-MIN KMSN 230805Z 00000KT 10SM CLR 14/12 A3000 790 90 900 000/00 RMK AO2
14837KMSN MSN20120623021009206/23/12 02:10:31  5-MIN KMSN 230810Z 00000KT 10SM CLR 13/12 A3000 790 93 800 000/00 RMK AO2
14837KMSN MSN20120623021509206/23/12 02:15:31  5-MIN KMSN 230815Z 00000KT 10SM CLR 13/12 A3000 790 93 800 000/00 RMK AO2
14837KMSN MSN20120623022009206/23/12 02:20:31  5-MIN KMSN 230820Z 00000KT 10SM CLR 13/12 A3000 790 93 800 000/00 RMK AO2
14837KMSN MSN20120623022509206/23/12 02:25:31  5-MIN KMSN 230825Z 00000KT 10SM CLR 13/12 A3000 790 93 800 000/00 RMK AO2
14837KMSN MSN20120623023009206/23/12 02:30:31  5-MIN KMSN 230830Z 00000KT 10SM CLR 13/12 A3000 790 93 700 000/00 RMK AO2
14837KMSN MSN20120623023509206/23/12 02:35:31  5-MIN KMSN 230835Z 00000KT 10SM CLR 13/12 A3001 780 93 700 000/00 RMK AO2
14837KMSN MSN20120623024009206/23/12 02:40:31  5-MIN KMSN 230840Z 00000KT 10SM CLR 13/12 A3001 780 93 700 000/00 RMK AO2
14837KMSN MSN20120623024509206/23/12 02:45:31  5-MIN KMSN 230845Z 00000KT 10SM CLR 13/12 A3001 780 89 800 000/00 RMK AO2
14837KMSN MSN20120623025011506/23/12 02:50:31  5-MIN KMSN 230850Z 00000KT 10SM CLR 13/12 A3001 790 89 800 000/00 RMK AO2 SLP156 T01330117 50005
14837KMSN MSN20120623025509206/23/12 02:55:31  5-MIN KMSN 230855Z 00000KT 10SM CLR 13/12 A3000 790 93 800 000/00 RMK AO2
14837KMSN MSN20120623030009206/23/12 03:00:31  5-MIN KMSN 230900Z 00000KT 10SM CLR 13/12 A3000 790 93 800 000/00 RMK AO2
14837KMSN MSN20120623030509206/23/12 03:05:31  5-MIN KMSN 230905Z 00000KT 10SM CLR 13/12 A3000 790 89 800 000/00 RMK AO2
14837KMSN MSN20120623031009206/23/12 03:10:31  5-MIN KMSN 230910Z 00000KT 10SM CLR 13/12 A3000 790 93 800 000/00 RMK AO2
14837KMSN MSN20120623031509206/23/12 03:15:31  5-MIN KMSN 230915Z 00000KT 10SM CLR 13/11 A3000 800 89 800 000/00 RMK AO2
14837KMSN MSN20120623032009206/23/12 03:20:31  5-MIN KMSN 230920Z 00000KT 10SM CLR 13/11 A2999 800 89 800 000/00 RMK AO2
14837KMSN MSN20120623032509206/23/12 03:25:31  5-MIN KMSN 230925Z 00000KT 10SM CLR 12/11 A3000 790 89 700 000/00 RMK AO2
14837KMSN MSN20120623033009206/23/12 03:30:31  5-MIN KMSN 230930Z 00000KT 10SM CLR 12/11 A3000 790 89 700 000/00 RMK AO2
14837KMSN MSN20120623033509206/23/12 03:35:31  5-MIN KMSN 230935Z 00000KT 10SM CLR 12/11 A3000 790 89 700 000/00 RMK AO2
14837KMSN MSN20120623034009206/23/12 03:40:31  5-MIN KMSN 230940Z 00000KT 10SM CLR 12/11 A3000 790 89 700 000/00 RMK AO2
14837KMSN MSN20120623034509206/23/12 03:45:31  5-MIN KMSN 230945Z 00000KT 10SM CLR 13/11 A2999 800 86 800 000/00 RMK AO2
14837KMSN MSN20120623035011206/23/12 03:50:31  5-MIN KMSN 230950Z 00000KT 10SM FEW090 13/11 A2999 800 89 800 000/00 RMK AO2 SLP153 T01280111
14837KMSN MSN20120623035509506/23/12 03:55:31  5-MIN KMSN 230955Z 00000KT 10SM FEW090 13/11 A2999 800 89 800 000/00 RMK AO2
14837KMSN MSN20120623040009406/23/12 04:00:31  5-MIN KMSN 231000Z 00000KT 9SM FEW090 12/11 A2999 800 93 700 000/00 RMK AO2
14837KMSN MSN20120623040509406/23/12 04:05:31  5-MIN KMSN 231005Z 00000KT 9SM FEW090 12/11 A2999 800 93 700 000/00 RMK AO2
14837KMSN MSN20120623041009506/23/12 04:10:31  5-MIN KMSN 231010Z 00000KT 10SM FEW090 13/11 A2999 800 89 800 000/00 RMK AO2
14837KMSN MSN20120623041509506/23/12 04:15:31  5-MIN KMSN 231015Z 00000KT 10SM FEW070 12/11 A2999 800 93 700 000/00 RMK AO2
14837KMSN MSN20120623042009506/23/12 04:20:31  5-MIN KMSN 231020Z 00000KT 10SM FEW070 12/11 A3000 790 93 700 000/00 RMK AO2
14837KMSN MSN20120623042509506/23/12 04:25:31  5-MIN KMSN 231025Z 00000KT 10SM FEW070 13/12 A3000 790 93 800 000/00 RMK AO2
14837KMSN MSN20120623043009506/23/12 04:30:31  5-MIN KMSN 231030Z 00000KT 10SM FEW070 12/12 A3000 790 96 700 000/00 RMK AO2
14837KMSN MSN20120623043509506/23/12 04:35:31  5-MIN KMSN 231035Z 00000KT 10SM FEW070 13/12 A3001 780 93 700 000/00 RMK AO2
14837KMSN MSN20120623044009506/23/12 04:40:31  5-MIN KMSN 231040Z 00000KT 10SM SCT065 12/11 A3001 780 93 700 000/00 RMK AO2
14837KMSN MSN20120623044509506/23/12 04:45:31  5-MIN KMSN 231045Z 00000KT 10SM SCT065 12/12 A3001 780 96 700 000/00 RMK AO2
14837KMSN MSN20120623045011206/23/12 04:50:31  5-MIN KMSN 231050Z 00000KT 10SM SCT065 13/12 A3001 780 93 700 000/00 RMK AO2 SLP161 T01280117
14837KMSN MSN20120623045509506/23/12 04:55:31  5-MIN KMSN 231055Z 00000KT 10SM SCT065 13/12 A3002 780 93 800 000/00 RMK AO2
14837KMSN MSN20120623050009506/23/12 05:00:31  5-MIN KMSN 231100Z 00000KT 10SM SCT065 13/12 A3002 770 93 800 000/00 RMK AO2
14837KMSN MSN20120623050509506/23/12 05:05:31  5-MIN KMSN 231105Z 00000KT 10SM SCT065 14/12 A3002 770 86 900 000/00 RMK AO2
14837KMSN MSN20120623051009506/23/12 05:10:31  5-MIN KMSN 231110Z 00000KT 10SM SCT065 14/12 A3002 770 86 900 000/00 RMK AO2
14837KMSN MSN20120623051509506/23/12 05:15:31  5-MIN KMSN 231115Z 00000KT 10SM SCT065 14/12 A3002 770 90 900 000/00 RMK AO2
14837KMSN MSN20120623052009506/23/12 05:20:31  5-MIN KMSN 231120Z 00000KT 10SM SCT065 14/12 A3002 770 90 900 000/00 RMK AO2
14837KMSN MSN20120623052509506/23/12 05:25:31  5-MIN KMSN 231125Z 00000KT 10SM FEW070 14/13 A3002 770 90 900 000/00 RMK AO2
14837KMSN MSN20120623053009506/23/12 05:30:31  5-MIN KMSN 231130Z 00000KT 10SM FEW070 14/13 A3002 770 90 900 000/00 RMK AO2
14837KMSN MSN20120623053509606/23/12 05:35:31  5-MIN KMSN 231135Z 00000KT 10SM FEW070 15/13 A3002 770 86 1000 000/00 RMK AO2
14837KMSN MSN20120623054009606/23/12 05:40:31  5-MIN KMSN 231140Z 00000KT 10SM FEW070 16/13 A3002 770 83 1100 000/00 RMK AO2
14837KMSN MSN20120623054509606/23/12 05:45:31  5-MIN KMSN 231145Z 00000KT 10SM FEW070 16/13 A3002 770 83 1100 000/00 RMK AO2
14837KMSN MSN20120623055013106/23/12 05:50:31  5-MIN KMSN 231150Z 00000KT 10SM FEW080 16/13 A3002 770 83 1100 000/00 RMK AO2 SLP163 T01610133 10172 20117 58000
14837KMSN MSN20120623055509606/23/12 05:55:31  5-MIN KMSN 231155Z 00000KT 10SM FEW080 17/13 A3002 770 80 1200 000/00 RMK AO2
14837KMSN MSN20120623060009606/23/12 06:00:31  5-MIN KMSN 231200Z 00000KT 10SM FEW080 17/13 A3002 770 78 1200 000/00 RMK AO2
14837KMSN MSN20120623060509606/23/12 06:05:31  5-MIN KMSN 231205Z 00000KT 10SM FEW080 17/13 A3002 770 78 1200 000/00 RMK AO2
14837KMSN MSN20120623061009606/23/12 06:10:31  5-MIN KMSN 231210Z 17003KT 10SM FEW080 18/14 A3002 770 78 1300 170/03 RMK AO2
14837KMSN MSN20120623061509606/23/12 06:15:31  5-MIN KMSN 231215Z 17003KT 10SM FEW080 18/14 A3002 770 78 1400 170/03 RMK AO2
14837KMSN MSN20120623062009606/23/12 06:20:31  5-MIN KMSN 231220Z 18003KT 10SM FEW080 19/14 A3002 770 75 1400 180/03 RMK AO2
14837KMSN MSN20120623062509606/23/12 06:25:31  5-MIN KMSN 231225Z 18004KT 10SM FEW080 19/14 A3002 770 75 1400 180/04 RMK AO2
14837KMSN MSN20120623063009606/23/12 06:30:31  5-MIN KMSN 231230Z 18004KT 10SM FEW080 19/15 A3002 770 75 1500 180/04 RMK AO2
14837KMSN MSN20120623063509606/23/12 06:35:31  5-MIN KMSN 231235Z 18005KT 10SM FEW080 19/15 A3002 770 75 1500 180/05 RMK AO2
14837KMSN MSN20120623064009606/23/12 06:40:31  5-MIN KMSN 231240Z 18004KT 10SM FEW080 20/14 A3002 770 70 1600 190/04 RMK AO2
14837KMSN MSN20120623064509606/23/12 06:45:31  5-MIN KMSN 231245Z 18004KT 10SM FEW080 20/15 A3002 770 72 1600 190/04 RMK AO2
14837KMSN MSN20120623065011306/23/12 06:50:31  5-MIN KMSN 231250Z 18005KT 10SM FEW080 21/15 A3003 770 70 1600 180/05 RMK AO2 SLP163 T02060150
14837KMSN MSN20120623065509606/23/12 06:55:31  5-MIN KMSN 231255Z 17005KT 10SM FEW070 21/15 A3003 760 70 1600 170/05 RMK AO2
14837KMSN MSN20120623070009606/23/12 07:00:31  5-MIN KMSN 231300Z 17005KT 10SM FEW070 21/15 A3003 770 68 1700 170/05 RMK AO2
14837KMSN MSN20120623070509606/23/12 07:05:31  5-MIN KMSN 231305Z 17004KT 10SM FEW070 21/15 A3003 770 68 1700 170/04 RMK AO2
14837KMSN MSN20120623071009606/23/12 07:10:31  5-MIN KMSN 231310Z 17004KT 10SM FEW070 21/14 A3003 770 65 1700 170/04 RMK AO2
14837KMSN MSN20120623071509606/23/12 07:15:31  5-MIN KMSN 231315Z 17004KT 10SM FEW070 21/15 A3003 770 68 1700 180/04 RMK AO2
14837KMSN MSN20120623072009606/23/12 07:20:31  5-MIN KMSN 231320Z 19006KT 10SM FEW070 22/15 A3003 770 65 1800 190/06 RMK AO2
14837KMSN MSN20120623072509606/23/12 07:25:31  5-MIN KMSN 231325Z 19005KT 10SM FEW070 22/14 A3003 760 63 1800 190/05 RMK AO2
14837KMSN MSN20120623073009606/23/12 07:30:31  5-MIN KMSN 231330Z 19004KT 10SM FEW070 22/14 A3003 760 61 1800 190/04 RMK AO2
14837KMSN MSN20120623073509606/23/12 07:35:31  5-MIN KMSN 231335Z 18005KT 10SM FEW070 23/15 A3003 760 61 1900 180/05 RMK AO2
14837KMSN MSN20120623074009606/23/12 07:40:31  5-MIN KMSN 231340Z 19004KT 10SM FEW070 23/14 A3003 760 59 1900 190/04 RMK AO2
14837KMSN MSN20120623074509606/23/12 07:45:31  5-MIN KMSN 231345Z 19003KT 10SM FEW070 23/15 A3004 760 61 1900 190/03 RMK AO2
14837KMSN MSN20120623075011306/23/12 07:50:31  5-MIN KMSN 231350Z 00000KT 10SM FEW070 23/14 A3004 760 59 1900 000/00 RMK AO2 SLP168 T02280144
14837KMSN MSN20120623075509606/23/12 07:55:31  5-MIN KMSN 231355Z 00000KT 10SM FEW070 23/14 A3004 760 57 1900 000/00 RMK AO2
14837KMSN MSN20120623080009606/23/12 08:00:31  5-MIN KMSN 231400Z VRB03KT 10SM FEW070 23/15 A3004 750 59 1900 VRB/03 RMK AO2
14837KMSN MSN20120623080509606/23/12 08:05:31  5-MIN KMSN 231405Z 00000KT 10SM FEW070 23/15 A3004 750 59 1900 000/00 RMK AO2
14837KMSN MSN20120623081009606/23/12 08:10:31  5-MIN KMSN 231410Z 00000KT 10SM SCT110 23/15 A3004 750 59 1900 000/00 RMK AO2
14837KMSN MSN20120623081509606/23/12 08:15:31  5-MIN KMSN 231415Z 29003KT 10SM BKN110 23/14 A3005 750 57 1900 290/03 RMK AO2
14837KMSN MSN20120623082009606/23/12 08:20:31  5-MIN KMSN 231420Z 27003KT 10SM BKN110 23/15 A3005 750 59 1900 270/03 RMK AO2
14837KMSN MSN20120623082509606/23/12 08:25:31  5-MIN KMSN 231425Z 25003KT 10SM BKN110 23/14 A3005 750 57 1900 250/03 RMK AO2
14837KMSN MSN20120623083009606/23/12 08:30:31  5-MIN KMSN 231430Z 00000KT 10SM BKN110 23/14 A3004 750 57 1900 000/00 RMK AO2
14837KMSN MSN20120623083509606/23/12 08:35:31  5-MIN KMSN 231435Z 00000KT 10SM BKN110 23/15 A3004 750 59 1900 000/00 RMK AO2
14837KMSN MSN20120623084010306/23/12 08:40:31  5-MIN KMSN 231440Z 27003KT 10SM FEW090 BKN110 24/15 A3004 750 57 2000 270/03 RMK AO2
14837KMSN MSN20120623084510306/23/12 08:45:31  5-MIN KMSN 231445Z 00000KT 10SM FEW043 BKN110 24/15 A3004 750 57 2000 000/00 RMK AO2
14837KMSN MSN20120623085013306/23/12 08:50:31  5-MIN KMSN 231450Z VRB03KT 10SM FEW033 SCT075 BKN110 24/15 A3004 750 57 2000 VRB/03 RMK AO2 SLP168 T02390150 53007
14837KMSN MSN20120623085512006/23/12 08:55:31  5-MIN KMSN 231455Z 27003KT 10SM -RA FEW036 SCT070 BKN110 24/15 A3004 760 57 2000 270/03 RMK AO2 P0000
14837KMSN MSN20120623090012006/23/12 09:00:31  5-MIN KMSN 231500Z 00000KT 10SM -RA FEW036 SCT080 BKN110 24/15 A3003 760 57 2000 000/00 RMK AO2 P0000
14837KMSN MSN20120623090511506/23/12 09:05:31  5-MIN KMSN 231505Z 00000KT 10SM FEW035 SCT110 24/15 A3003 760 55 2100 000/00 RMK AO2 RAE03 P0000
14837KMSN MSN20120623091010806/23/12 09:10:31  5-MIN KMSN 231510Z 00000KT 10SM FEW070 24/15 A3003 760 55 2100 000/00 RMK AO2 RAE03 P0000
14837KMSN MSN20120623091510806/23/12 09:15:31  5-MIN KMSN 231515Z 00000KT 10SM FEW046 24/15 A3003 760 55 2100 000/00 RMK AO2 RAE03 P0000
14837KMSN MSN20120623092010506/23/12 09:20:31  5-MIN KMSN 231520Z 00000KT 10SM CLR 24/14 A3003 760 53 2100 000/00 RMK AO2 RAE03 P0000
14837KMSN MSN20120623092510506/23/12 09:25:31  5-MIN KMSN 231525Z 25003KT 10SM CLR 24/14 A3003 760 53 2100 250/03 RMK AO2 RAE03 P0000
14837KMSN MSN20120623093010506/23/12 09:30:31  5-MIN KMSN 231530Z 00000KT 10SM CLR 24/14 A3003 760 53 2100 000/00 RMK AO2 RAE03 P0000
14837KMSN MSN20120623093510506/23/12 09:35:31  5-MIN KMSN 231535Z 00000KT 10SM CLR 25/14 A3003 760 51 2100 000/00 RMK AO2 RAE03 P0000
14837KMSN MSN20120623094010506/23/12 09:40:31  5-MIN KMSN 231540Z 00000KT 10SM CLR 25/14 A3003 770 51 2100 000/00 RMK AO2 RAE03 P0000
14837KMSN MSN20120623094510506/23/12 09:45:31  5-MIN KMSN 231545Z 00000KT 10SM CLR 25/14 A3002 770 49 2100 000/00 RMK AO2 RAE03 P0000
14837KMSN MSN20120623095012206/23/12 09:50:31  5-MIN KMSN 231550Z 19003KT 10SM CLR 26/13 A3002 770 46 2200 200/03 RMK AO2 RAE03 SLP161 P0000 T02560133
14837KMSN MSN20120623095509306/23/12 09:55:31  5-MIN KMSN 231555Z 00000KT 10SM CLR 26/13 A3002 780 44 2300 000/00 RMK AO2
14837KMSN MSN20120623100009306/23/12 10:00:31  5-MIN KMSN 231600Z VRB03KT 10SM CLR 26/13 A3002 780 44 2300 VRB/03 RMK AO2
14837KMSN MSN20120623100509306/23/12 10:05:31  5-MIN KMSN 231605Z 19005KT 10SM CLR 26/13 A3001 780 43 2300 190/05 RMK AO2
14837KMSN MSN20120623101009306/23/12 10:10:31  5-MIN KMSN 231610Z 00000KT 10SM CLR 26/12 A3001 780 40 2300 000/00 RMK AO2
14837KMSN MSN20120623101509306/23/12 10:15:31  5-MIN KMSN 231615Z VRB05KT 10SM CLR 27/12 A3001 780 40 2300 VRB/05 RMK AO2
14837KMSN MSN20120623102009306/23/12 10:20:31  5-MIN KMSN 231620Z 19005KT 10SM CLR 27/12 A3001 780 38 2300 190/05 RMK AO2
14837KMSN MSN20120623102509306/23/12 10:25:31  5-MIN KMSN 231625Z 23006KT 10SM CLR 27/12 A3001 780 40 2300 230/06 RMK AO2
14837KMSN MSN20120623103009306/23/12 10:30:31  5-MIN KMSN 231630Z 23004KT 10SM CLR 26/12 A3001 780 40 2300 240/04 RMK AO2
14837KMSN MSN20120623103509306/23/12 10:35:31  5-MIN KMSN 231635Z 24005KT 10SM CLR 26/12 A3001 780 41 2300 240/05 RMK AO2
14837KMSN MSN20120623104009306/23/12 10:40:31  5-MIN KMSN 231640Z 21005KT 10SM CLR 26/12 A3001 780 41 2300 210/05 RMK AO2
14837KMSN MSN20120623104509306/23/12 10:45:31  5-MIN KMSN 231645Z 24004KT 10SM CLR 26/12 A3001 780 41 2300 240/04 RMK AO2
14837KMSN MSN20120623105011006/23/12 10:50:31  5-MIN KMSN 231650Z VRB03KT 10SM CLR 26/12 A3001 780 41 2300 VRB/03 RMK AO2 SLP159 T02610122
14837KMSN MSN20120623105509306/23/12 10:55:31  5-MIN KMSN 231655Z 25004KT 10SM CLR 26/12 A3001 780 41 2300 250/04 RMK AO2
14837KMSN MSN20120623110009306/23/12 11:00:31  5-MIN KMSN 231700Z 24003KT 10SM CLR 26/12 A3002 770 41 2300 240/03 RMK AO2
14837KMSN MSN20120623110509306/23/12 11:05:31  5-MIN KMSN 231705Z 22005KT 10SM CLR 26/12 A3002 770 40 2300 220/05 RMK AO2
14837KMSN MSN20120623111009306/23/12 11:10:31  5-MIN KMSN 231710Z 22003KT 10SM CLR 26/12 A3002 770 41 2300 220/03 RMK AO2
14837KMSN MSN20120623111509306/23/12 11:15:31  5-MIN KMSN 231715Z VRB03KT 10SM CLR 27/13 A3002 770 41 2300 VRB/03 RMK AO2
14837KMSN MSN20120623112009306/23/12 11:20:31  5-MIN KMSN 231720Z 25004KT 10SM CLR 27/13 A3002 770 41 2300 250/04 RMK AO2
14837KMSN MSN20120623112509306/23/12 11:25:31  5-MIN KMSN 231725Z VRB03KT 10SM CLR 27/12 A3002 770 40 2300 VRB/03 RMK AO2
14837KMSN MSN20120623113009306/23/12 11:30:31  5-MIN KMSN 231730Z 22004KT 10SM CLR 27/12 A3003 770 40 2300 220/04 RMK AO2
14837KMSN MSN20120623113509606/23/12 11:35:31  5-MIN KMSN 231735Z 27004KT 10SM FEW120 27/13 A3002 770 41 2300 270/04 RMK AO2
14837KMSN MSN20120623114009606/23/12 11:40:31  5-MIN KMSN 231740Z 00000KT 10SM FEW120 27/13 A3003 770 41 2300 000/00 RMK AO2
14837KMSN MSN20120623114509606/23/12 11:45:31  5-MIN KMSN 231745Z VRB03KT 10SM FEW120 27/13 A3002 770 41 2300 VRB/03 RMK AO2
14837KMSN MSN20120623115014406/23/12 11:50:31  5-MIN KMSN 231750Z VRB04KT 10SM FEW060 SCT120 27/13 A3002 770 43 2300 VRB/04 RMK AO2 SLP161 60000 T02670133 10272 20167 50005
14837KMSN MSN20120623115510306/23/12 11:55:31  5-MIN KMSN 231755Z 00000KT 10SM FEW055 SCT120 27/13 A3002 770 43 2300 000/00 RMK AO2
14837KMSN MSN20120623120010306/23/12 12:00:31  5-MIN KMSN 231800Z 26004KT 10SM FEW055 SCT120 27/13 A3002 780 41 2300 260/04 RMK AO2
14837KMSN MSN20120623120510306/23/12 12:05:31  5-MIN KMSN 231805Z 24003KT 10SM FEW055 SCT120 27/13 A3002 780 41 2300 240/03 RMK AO2
14837KMSN MSN20120623121010306/23/12 12:10:31  5-MIN KMSN 231810Z 23003KT 10SM FEW055 SCT120 27/12 A3002 780 40 2300 230/03 RMK AO2
14837KMSN MSN20120623121510306/23/12 12:15:31  5-MIN KMSN 231815Z 24003KT 10SM FEW055 SCT120 27/13 A3002 780 41 2300 240/03 RMK AO2
14837KMSN MSN20120623122010306/23/12 12:20:31  5-MIN KMSN 231820Z VRB03KT 10SM FEW055 SCT120 26/12 A3002 780 41 2300 VRB/03 RMK AO2
14837KMSN MSN20120623122510306/23/12 12:25:31  5-MIN KMSN 231825Z 25003KT 10SM FEW055 SCT120 27/12 A3002 780 40 2300 250/03 RMK AO2
14837KMSN MSN20120623123010306/23/12 12:30:31  5-MIN KMSN 231830Z 28004KT 10SM FEW055 SCT120 27/12 A3001 780 40 2300 280/04 RMK AO2
14837KMSN MSN20120623123510306/23/12 12:35:31  5-MIN KMSN 231835Z VRB04KT 10SM FEW055 SCT120 28/13 A3001 780 39 2500 VRB/04 RMK AO2
14837KMSN MSN20120623124010306/23/12 12:40:31  5-MIN KMSN 231840Z 00000KT 10SM FEW055 SCT120 27/12 A3001 780 37 2400 000/00 RMK AO2
14837KMSN MSN20120623124510306/23/12 12:45:31  5-MIN KMSN 231845Z 00000KT 10SM FEW055 SCT120 27/12 A3001 780 37 2400 000/00 RMK AO2
14837KMSN MSN20120623125012006/23/12 12:50:31  5-MIN KMSN 231850Z 27003KT 10SM FEW055 SCT120 27/12 A3001 780 37 2400 270/03 RMK AO2 SLP159 T02720117
14837KMSN MSN20120623125509606/23/12 12:55:31  5-MIN KMSN 231855Z 00000KT 10SM FEW060 27/12 A3001 780 39 2400 000/00 RMK AO2
14837KMSN MSN20120623130009606/23/12 13:00:31  5-MIN KMSN 231900Z 00000KT 10SM FEW060 27/12 A3000 790 39 2400 000/00 RMK AO2
14837KMSN MSN20120623130509606/23/12 13:05:31  5-MIN KMSN 231905Z 24004KT 10SM FEW060 27/12 A3000 790 40 2300 240/04 RMK AO2
14837KMSN MSN20120623131009606/23/12 13:10:31  5-MIN KMSN 231910Z 00000KT 10SM FEW060 27/12 A3000 790 40 2300 000/00 RMK AO2
14837KMSN MSN20120623131509606/23/12 13:15:31  5-MIN KMSN 231915Z VRB03KT 10SM FEW060 27/12 A3000 790 40 2400 VRB/03 RMK AO2
14837KMSN MSN20120623132009606/23/12 13:20:31  5-MIN KMSN 231920Z 00000KT 10SM FEW060 27/12 A3000 790 40 2300 000/00 RMK AO2
14837KMSN MSN20120623132509606/23/12 13:25:31  5-MIN KMSN 231925Z VRB03KT 10SM FEW060 27/12 A3000 790 40 2300 VRB/03 RMK AO2
14837KMSN MSN20120623133009606/23/12 13:30:31  5-MIN KMSN 231930Z 00000KT 10SM FEW060 27/13 A3000 790 43 2400 000/00 RMK AO2
14837KMSN MSN20120623133509606/23/12 13:35:31  5-MIN KMSN 231935Z 00000KT 10SM FEW060 27/13 A3000 790 41 2400 000/00 RMK AO2
14837KMSN MSN20120623134009606/23/12 13:40:31  5-MIN KMSN 231940Z 00000KT 10SM FEW060 27/12 A3000 790 39 2400 000/00 RMK AO2
14837KMSN MSN20120623134509606/23/12 13:45:31  5-MIN KMSN 231945Z 00000KT 10SM FEW060 28/12 A3000 790 36 2500 000/00 RMK AO2
14837KMSN MSN20120623135011306/23/12 13:50:31  5-MIN KMSN 231950Z 00000KT 10SM FEW060 28/12 A2999 800 36 2500 000/00 RMK AO2 SLP153 T02780117
14837KMSN MSN20120623135509606/23/12 13:55:31  5-MIN KMSN 231955Z 00000KT 10SM FEW065 28/12 A2999 800 37 2500 000/00 RMK AO2
14837KMSN MSN20120623140009606/23/12 14:00:31  5-MIN KMSN 232000Z 00000KT 10SM FEW065 28/12 A2999 800 36 2500 000/00 RMK AO2
14837KMSN MSN20120623140509306/23/12 14:05:31  5-MIN KMSN 232005Z VRB04KT 10SM CLR 28/12 A2999 800 36 2500 VRB/04 RMK AO2
14837KMSN MSN20120623141009306/23/12 14:10:31  5-MIN KMSN 232010Z VRB03KT 10SM CLR 27/12 A2999 800 39 2400 VRB/03 RMK AO2
14837KMSN MSN20120623141509306/23/12 14:15:31  5-MIN KMSN 232015Z 00000KT 10SM CLR 27/12 A2999 800 39 2400 000/00 RMK AO2
14837KMSN MSN20120623142009606/23/12 14:20:31  5-MIN KMSN 232020Z 00000KT 10SM FEW120 27/13 A2999 800 42 2400 000/00 RMK AO2
14837KMSN MSN20120623142509306/23/12 14:25:31  5-MIN KMSN 232025Z 00000KT 10SM CLR 28/12 A2999 800 36 2500 000/00 RMK AO2
14837KMSN MSN20120623143009606/23/12 14:30:31  5-MIN KMSN 232030Z 26003KT 10SM FEW120 28/12 A2999 800 36 2500 270/03 RMK AO2
14837KMSN MSN20120623143509606/23/12 14:35:31  5-MIN KMSN 232035Z 00000KT 10SM FEW120 28/12 A2999 800 36 2500 000/00 RMK AO2
14837KMSN MSN20120623144009606/23/12 14:40:31  5-MIN KMSN 232040Z 00000KT 10SM FEW120 28/13 A2999 800 39 2500 000/00 RMK AO2
14837KMSN MSN20120623144509606/23/12 14:45:31  5-MIN KMSN 232045Z VRB04KT 10SM FEW120 28/13 A2999 800 39 2500 VRB/04 RMK AO2
14837KMSN MSN20120623145011906/23/12 14:50:31  5-MIN KMSN 232050Z 23003KT 10SM FEW120 27/13 A2999 800 40 2400 240/03 RMK AO2 SLP154 T02720128 55006
14837KMSN MSN20120623145510306/23/12 14:55:31  5-MIN KMSN 232055Z 24003KT 10SM FEW060 SCT120 27/13 A2999 800 40 2400 240/03 RMK AO2
14837KMSN MSN20120623150010306/23/12 15:00:31  5-MIN KMSN 232100Z 00000KT 10SM FEW060 SCT120 27/13 A2999 800 40 2400 000/00 RMK AO2
14837KMSN MSN20120623150510306/23/12 15:05:31  5-MIN KMSN 232105Z 00000KT 10SM FEW060 SCT120 27/12 A2999 800 39 2400 000/00 RMK AO2
14837KMSN MSN20120623151010306/23/12 15:10:31  5-MIN KMSN 232110Z 15006KT 10SM FEW060 SCT120 27/12 A2999 800 39 2400 150/06 RMK AO2
14837KMSN MSN20120623151510306/23/12 15:15:31  5-MIN KMSN 232115Z 16006KT 10SM FEW060 SCT120 27/12 A2999 800 39 2400 160/06 RMK AO2
14837KMSN MSN20120623152010306/23/12 15:20:31  5-MIN KMSN 232120Z 17006KT 10SM FEW060 SCT120 28/12 A2999 800 37 2500 170/06 RMK AO2
14837KMSN MSN20120623152510306/23/12 15:25:31  5-MIN KMSN 232125Z 18006KT 10SM FEW060 SCT120 28/12 A2999 800 37 2500 180/06 RMK AO2
14837KMSN MSN20120623153010306/23/12 15:30:31  5-MIN KMSN 232130Z 17008KT 10SM FEW060 SCT120 28/12 A2999 800 37 2500 170/08 RMK AO2
14837KMSN MSN20120623153509606/23/12 15:35:31  5-MIN KMSN 232135Z 17009KT 10SM FEW110 28/12 A2999 800 37 2500 170/09 RMK AO2
14837KMSN MSN20120623154009606/23/12 15:40:31  5-MIN KMSN 232140Z 18008KT 10SM FEW110 28/12 A2999 800 36 2500 190/08 RMK AO2
14837KMSN MSN20120623154509306/23/12 15:45:31  5-MIN KMSN 232145Z 18007KT 10SM CLR 28/12 A2999 800 36 2500 180/07 RMK AO2
14837KMSN MSN20120623155012006/23/12 15:50:31  5-MIN KMSN 232150Z 18007KT 10SM FEW065 SCT110 27/12 A2999 800 39 2400 180/07 RMK AO2 SLP152 T02720122
14837KMSN MSN20120623155509306/23/12 15:55:31  5-MIN KMSN 232155Z 17006KT 10SM CLR 27/12 A2999 800 37 2400 170/06 RMK AO2
14837KMSN MSN20120623160009606/23/12 16:00:31  5-MIN KMSN 232200Z 17009KT 10SM FEW120 27/12 A2999 800 37 2400 170/09 RMK AO2
14837KMSN MSN20120623160509606/23/12 16:05:31  5-MIN KMSN 232205Z 17009KT 10SM SCT120 27/12 A2999 800 37 2400 180/09 RMK AO2
14837KMSN MSN20120623161009606/23/12 16:10:31  5-MIN KMSN 232210Z 19007KT 10SM SCT120 27/12 A2998 800 39 2400 200/07 RMK AO2
14837KMSN MSN20120623161509606/23/12 16:15:31  5-MIN KMSN 232215Z 20006KT 10SM SCT120 27/12 A2999 800 39 2400 200/06 RMK AO2
14837KMSN MSN20120623162009606/23/12 16:20:31  5-MIN KMSN 232220Z 19008KT 10SM SCT120 27/12 A2998 810 37 2400 190/08 RMK AO2
14837KMSN MSN20120623162509606/23/12 16:25:31  5-MIN KMSN 232225Z 20007KT 10SM SCT120 27/12 A2998 810 37 2400 200/07 RMK AO2
14837KMSN MSN20120623163009606/23/12 16:30:31  5-MIN KMSN 232230Z 20007KT 10SM FEW120 27/12 A2998 810 37 2400 210/07 RMK AO2
14837KMSN MSN20120623163509606/23/12 16:35:31  5-MIN KMSN 232235Z 21004KT 10SM FEW120 27/12 A2998 810 37 2400 210/04 RMK AO2
14837KMSN MSN20120623164009306/23/12 16:40:31  5-MIN KMSN 232240Z 19006KT 10SM CLR 27/12 A2998 810 40 2400 200/06 RMK AO2
14837KMSN MSN20120623164509306/23/12 16:45:31  5-MIN KMSN 232245Z 21003KT 10SM CLR 27/12 A2998 810 37 2400 210/03 RMK AO2
14837KMSN MSN20120623165011006/23/12 16:50:31  5-MIN KMSN 232250Z 18008KT 10SM CLR 27/12 A2998 810 39 2400 180/08 RMK AO2 SLP148 T02720122
14837KMSN MSN20120623165509306/23/12 16:55:31  5-MIN KMSN 232255Z 18007KT 10SM CLR 27/12 A2998 810 37 2400 180/07 RMK AO2
14837KMSN MSN20120623170009306/23/12 17:00:31  5-MIN KMSN 232300Z 19007KT 10SM CLR 27/12 A2997 820 40 2400 190/07 RMK AO2
14837KMSN MSN20120623170509306/23/12 17:05:31  5-MIN KMSN 232305Z 19007KT 10SM CLR 27/12 A2997 820 40 2400 190/07 RMK AO2
14837KMSN MSN20120623171009306/23/12 17:10:31  5-MIN KMSN 232310Z 18007KT 10SM CLR 27/12 A2997 820 40 2400 190/07 RMK AO2
14837KMSN MSN20120623171509306/23/12 17:15:31  5-MIN KMSN 232315Z 18007KT 10SM CLR 27/12 A2997 820 40 2400 190/07 RMK AO2
14837KMSN MSN20120623172009606/23/12 17:20:31  5-MIN KMSN 232320Z 20006KT 10SM FEW110 27/12 A2997 820 40 2400 200/06 RMK AO2
14837KMSN MSN20120623172509306/23/12 17:25:31  5-MIN KMSN 232325Z 19007KT 10SM CLR 27/12 A2997 820 40 2400 190/07 RMK AO2
14837KMSN MSN20120623173009306/23/12 17:30:31  5-MIN KMSN 232330Z 19005KT 10SM CLR 27/12 A2997 820 40 2400 200/05 RMK AO2
14837KMSN MSN20120623173509606/23/12 17:35:31  5-MIN KMSN 232335Z 18005KT 10SM SCT110 27/13 A2997 820 41 2400 190/05 RMK AO2
14837KMSN MSN20120623174009606/23/12 17:40:31  5-MIN KMSN 232340Z 18005KT 10SM SCT110 26/12 A2997 820 41 2300 180/05 RMK AO2
14837KMSN MSN20120623174509606/23/12 17:45:31  5-MIN KMSN 232345Z 20005KT 10SM BKN110 26/13 A2998 810 43 2300 200/05 RMK AO2
14837KMSN MSN20120623175013106/23/12 17:50:31  5-MIN KMSN 232350Z 20005KT 10SM BKN110 26/13 A2998 810 44 2300 200/05 RMK AO2 SLP149 T02610133 10283 20261 55008
14837KMSN MSN20120623175509606/23/12 17:55:31  5-MIN KMSN 232355Z 21005KT 10SM BKN120 26/13 A2999 800 43 2300 220/05 RMK AO2
14837KMSN MSN20120623180009606/23/12 18:00:31  5-MIN KMSN 240000Z 21004KT 10SM OVC120 26/13 A2999 800 43 2300 220/04 RMK AO2
14837KMSN MSN20120623180509606/23/12 18:05:31  5-MIN KMSN 240005Z 22005KT 10SM OVC120 26/13 A2999 800 43 2300 220/05 RMK AO2
14837KMSN MSN20120623181009606/23/12 18:10:31  5-MIN KMSN 240010Z 23003KT 10SM BKN120 26/13 A2999 800 43 2300 230/03 RMK AO2
14837KMSN MSN20120623181509606/23/12 18:15:31  5-MIN KMSN 240015Z 22005KT 10SM BKN120 26/13 A2999 800 44 2300 220/05 RMK AO2
14837KMSN MSN20120623182009606/23/12 18:20:31  5-MIN KMSN 240020Z 22005KT 10SM SCT120 26/13 A2999 800 44 2300 220/05 RMK AO2
14837KMSN MSN20120623182509606/23/12 18:25:31  5-MIN KMSN 240025Z 22004KT 10SM SCT120 26/13 A3000 800 46 2200 220/04 RMK AO2
14837KMSN MSN20120623183009606/23/12 18:30:31  5-MIN KMSN 240030Z 22004KT 10SM FEW120 26/13 A3000 790 46 2200 220/04 RMK AO2
14837KMSN MSN20120623183509306/23/12 18:35:31  5-MIN KMSN 240035Z 22004KT 10SM CLR 26/13 A3000 790 46 2200 220/04 RMK AO2
14837KMSN MSN20120623184009306/23/12 18:40:31  5-MIN KMSN 240040Z 22003KT 10SM CLR 26/13 A3000 790 46 2200 220/03 RMK AO2
14837KMSN MSN20120623184509306/23/12 18:45:31  5-MIN KMSN 240045Z 22004KT 10SM CLR 26/13 A3000 790 46 2200 220/04 RMK AO2
14837KMSN MSN20120623185011006/23/12 18:50:31  5-MIN KMSN 240050Z 21003KT 10SM CLR 26/13 A2999 800 46 2200 210/03 RMK AO2 SLP152 T02560133
14837KMSN MSN20120623185509606/23/12 18:55:31  5-MIN KMSN 240055Z 21003KT 10SM FEW120 26/14 A2999 800 48 2200 210/03 RMK AO2
14837KMSN MSN20120623190009606/23/12 19:00:31  5-MIN KMSN 240100Z 21003KT 10SM FEW120 26/14 A2999 800 48 2200 220/03 RMK AO2
14837KMSN MSN20120623190509606/23/12 19:05:31  5-MIN KMSN 240105Z 22004KT 10SM FEW120 26/14 A2999 800 48 2200 230/04 RMK AO2
14837KMSN MSN20120623191009606/23/12 19:10:31  5-MIN KMSN 240110Z 22003KT 10SM SCT120 25/14 A2999 800 49 2200 220/03 RMK AO2
14837KMSN MSN20120623191509606/23/12 19:15:31  5-MIN KMSN 240115Z 21003KT 10SM SCT120 25/14 A2999 800 49 2200 210/03 RMK AO2
14837KMSN MSN20120623192009606/23/12 19:20:31  5-MIN KMSN 240120Z 00000KT 10SM SCT120 25/14 A2999 800 49 2200 000/00 RMK AO2
14837KMSN MSN20120623192509606/23/12 19:25:31  5-MIN KMSN 240125Z 22003KT 10SM SCT120 25/14 A2999 800 49 2200 220/03 RMK AO2
14837KMSN MSN20120623193009606/23/12 19:30:31  5-MIN KMSN 240130Z 00000KT 10SM SCT120 25/14 A2999 800 49 2200 000/00 RMK AO2
14837KMSN MSN20120623193509606/23/12 19:35:31  5-MIN KMSN 240135Z 00000KT 10SM FEW120 25/14 A2999 800 51 2200 000/00 RMK AO2
14837KMSN MSN20120623194009606/23/12 19:40:31  5-MIN KMSN 240140Z 00000KT 10SM FEW120 25/14 A2999 800 49 2200 000/00 RMK AO2
14837KMSN MSN20120623194509606/23/12 19:45:31  5-MIN KMSN 240145Z 00000KT 10SM SCT110 24/14 A2999 800 53 2100 000/00 RMK AO2
14837KMSN MSN20120623195012306/23/12 19:50:31  5-MIN KMSN 240150Z 00000KT 10SM BKN110 25/14 A2999 800 51 2200 000/00 RMK AO2 SLP151 VIRGA OHD T02500144
14837KMSN MSN20120623195509606/23/12 19:55:31  5-MIN KMSN 240155Z 21003KT 10SM SCT110 24/14 A2999 800 53 2100 210/03 RMK AO2
14837KMSN MSN20120623200009606/23/12 20:00:31  5-MIN KMSN 240200Z 00000KT 10SM SCT110 25/14 A2999 800 51 2200 000/00 RMK AO2
14837KMSN MSN20120623200509606/23/12 20:05:31  5-MIN KMSN 240205Z VRB03KT 10SM SCT110 24/14 A2999 800 53 2100 VRB/03 RMK AO2
14837KMSN MSN20120623201009606/23/12 20:10:31  5-MIN KMSN 240210Z 00000KT 10SM SCT120 24/14 A2999 800 55 2100 000/00 RMK AO2
14837KMSN MSN20120623201509606/23/12 20:15:31  5-MIN KMSN 240215Z 00000KT 10SM BKN120 24/14 A2999 800 55 2100 000/00 RMK AO2
14837KMSN MSN20120623202009606/23/12 20:20:31  5-MIN KMSN 240220Z 00000KT 10SM BKN120 23/14 A2999 800 57 2000 000/00 RMK AO2
14837KMSN MSN20120623202509606/23/12 20:25:31  5-MIN KMSN 240225Z 00000KT 10SM BKN120 23/14 A2999 800 57 2000 000/00 RMK AO2
14837KMSN MSN20120623203009606/23/12 20:30:31  5-MIN KMSN 240230Z 16004KT 10SM BKN120 24/14 A2999 800 55 2000 170/04 RMK AO2
14837KMSN MSN20120623203509606/23/12 20:35:31  5-MIN KMSN 240235Z 17003KT 10SM BKN120 24/15 A3000 800 57 2000 170/03 RMK AO2
14837KMSN MSN20120623204009606/23/12 20:40:31  5-MIN KMSN 240240Z 17003KT 10SM BKN120 24/14 A3000 790 55 2000 180/03 RMK AO2
14837KMSN MSN20120623204509606/23/12 20:45:31  5-MIN KMSN 240245Z 00000KT 10SM SCT120 23/15 A3000 790 59 2000 000/00 RMK AO2
14837KMSN MSN20120623205011906/23/12 20:50:31  5-MIN KMSN 240250Z 19003KT 10SM SCT120 23/15 A3000 790 59 2000 190/03 RMK AO2 SLP154 T02330150 55003
14837KMSN MSN20120623205509606/23/12 20:55:31  5-MIN KMSN 240255Z 00000KT 10SM FEW110 23/15 A3000 790 59 2000 000/00 RMK AO2
14837KMSN MSN20120623210009306/23/12 21:00:31  5-MIN KMSN 240300Z 00000KT 10SM CLR 23/15 A3000 790 61 1900 000/00 RMK AO2
14837KMSN MSN20120623210509306/23/12 21:05:31  5-MIN KMSN 240305Z 00000KT 10SM CLR 23/15 A3001 790 61 1900 000/00 RMK AO2
14837KMSN MSN20120623211009306/23/12 21:10:31  5-MIN KMSN 240310Z 18003KT 10SM CLR 22/16 A3000 790 65 1800 190/03 RMK AO2
14837KMSN MSN20120623211509306/23/12 21:15:31  5-MIN KMSN 240315Z 17003KT 10SM CLR 23/15 A3000 790 59 2000 180/03 RMK AO2
14837KMSN MSN20120623212009306/23/12 21:20:31  5-MIN KMSN 240320Z 17003KT 10SM CLR 24/14 A3000 790 55 2000 170/03 RMK AO2
14837KMSN MSN20120623212509606/23/12 21:25:31  5-MIN KMSN 240325Z 18003KT 10SM FEW110 24/14 A3001 790 55 2000 190/03 RMK AO2
14837KMSN MSN20120623213009606/23/12 21:30:31  5-MIN KMSN 240330Z 19003KT 10SM SCT110 23/15 A3001 780 59 2000 190/03 RMK AO2
14837KMSN MSN20120623213509606/23/12 21:35:31  5-MIN KMSN 240335Z 18003KT 10SM SCT110 23/15 A3001 790 59 2000 190/03 RMK AO2
14837KMSN MSN20120623214009606/23/12 21:40:31  5-MIN KMSN 240340Z 00000KT 10SM BKN110 23/15 A3001 790 61 1900 000/00 RMK AO2
14837KMSN MSN20120623214509606/23/12 21:45:31  5-MIN KMSN 240345Z 18003KT 10SM BKN100 23/15 A3000 790 59 2000 180/03 RMK AO2
14837KMSN MSN20120623215011306/23/12 21:50:31  5-MIN KMSN 240350Z 19003KT 10SM OVC100 23/15 A3000 790 59 2000 190/03 RMK AO2 SLP155 T02330150
14837KMSN MSN20120623215509606/23/12 21:55:31  5-MIN KMSN 240355Z 19003KT 10SM OVC100 23/15 A3000 790 59 2000 190/03 RMK AO2
14837KMSN MSN20120623220009606/23/12 22:00:31  5-MIN KMSN 240400Z 18003KT 10SM OVC100 23/15 A3000 790 61 1900 180/03 RMK AO2
14837KMSN MSN20120623220509606/23/12 22:05:31  5-MIN KMSN 240405Z 18003KT 10SM OVC100 23/15 A3000 790 61 1900 190/03 RMK AO2
14837KMSN MSN20120623221009606/23/12 22:10:31  5-MIN KMSN 240410Z 19004KT 10SM OVC100 23/15 A3000 790 59 2000 190/04 RMK AO2
14837KMSN MSN20120623221509606/23/12 22:15:31  5-MIN KMSN 240415Z 18003KT 10SM OVC100 23/14 A3000 790 57 2000 180/03 RMK AO2
14837KMSN MSN20120623222009606/23/12 22:20:31  5-MIN KMSN 240420Z 18004KT 10SM OVC100 24/14 A3000 790 55 2000 190/04 RMK AO2
14837KMSN MSN20120623222509606/23/12 22:25:31  5-MIN KMSN 240425Z 18003KT 10SM OVC100 23/14 A3000 790 57 2000 190/03 RMK AO2
14837KMSN MSN20120623223009606/23/12 22:30:31  5-MIN KMSN 240430Z 17003KT 10SM OVC100 23/14 A3000 790 57 2000 170/03 RMK AO2
14837KMSN MSN20120623223509606/23/12 22:35:31  5-MIN KMSN 240435Z 00000KT 10SM OVC100 23/14 A3000 790 59 1900 000/00 RMK AO2
14837KMSN MSN20120623224009606/23/12 22:40:31  5-MIN KMSN 240440Z 17003KT 10SM OVC100 23/15 A3000 790 61 1900 170/03 RMK AO2
14837KMSN MSN20120623224509606/23/12 22:45:31  5-MIN KMSN 240445Z 16003KT 10SM OVC100 23/14 A3000 790 59 1900 160/03 RMK AO2
14837KMSN MSN20120623225011306/23/12 22:50:31  5-MIN KMSN 240450Z 15003KT 10SM BKN100 23/14 A3000 790 57 2000 160/03 RMK AO2 SLP152 T02330144
14837KMSN MSN20120623225509606/23/12 22:55:31  5-MIN KMSN 240455Z 15003KT 10SM OVC100 23/14 A3000 800 59 1900 150/03 RMK AO2
14837KMSN MSN20120623230009606/23/12 23:00:31  5-MIN KMSN 240500Z 14003KT 10SM OVC100 22/14 A2999 800 63 1800 150/03 RMK AO2
14837KMSN MSN20120623230509606/23/12 23:05:31  5-MIN KMSN 240505Z 15003KT 10SM OVC100 22/14 A2999 800 61 1800 150/03 RMK AO2
14837KMSN MSN20120623231009606/23/12 23:10:31  5-MIN KMSN 240510Z 14003KT 10SM OVC100 21/14 A2999 800 65 1700 140/03 RMK AO2
14837KMSN MSN20120623231509606/23/12 23:15:31  5-MIN KMSN 240515Z 14003KT 10SM OVC100 21/14 A2999 800 65 1700 140/03 RMK AO2
14837KMSN MSN20120623232009606/23/12 23:20:31  5-MIN KMSN 240520Z 13004KT 10SM OVC100 21/14 A2999 800 65 1700 130/04 RMK AO2
14837KMSN MSN20120623232509606/23/12 23:25:31  5-MIN KMSN 240525Z 13004KT 10SM OVC100 21/14 A2999 800 65 1700 140/04 RMK AO2
14837KMSN MSN20120623233009606/23/12 23:30:31  5-MIN KMSN 240530Z 14004KT 10SM OVC100 22/14 A2999 800 63 1800 150/04 RMK AO2
14837KMSN MSN20120623233509606/23/12 23:35:31  5-MIN KMSN 240535Z 15004KT 10SM OVC100 22/14 A2998 800 63 1800 150/04 RMK AO2
14837KMSN MSN20120623234009606/23/12 23:40:31  5-MIN KMSN 240540Z 14003KT 10SM OVC100 22/14 A2998 800 63 1800 140/03 RMK AO2
14837KMSN MSN20120623234509606/23/12 23:45:31  5-MIN KMSN 240545Z 13004KT 10SM OVC100 21/14 A2998 810 65 1700 130/04 RMK AO2
14837KMSN MSN20120623235014106/23/12 23:50:31  5-MIN KMSN 240550Z 13004KT 10SM SCT100 21/14 A2998 810 67 1700 130/04 RMK AO2 SLP146 T02060144 10261 20206 402830117 53006
14837KMSN MSN20120623235509606/23/12 23:55:31  5-MIN KMSN 240555Z 13004KT 10SM BKN100 19/14 A2998 810 72 1600 130/04 RMK AO2
14837KMSN MSN20120624000009606/24/12 00:00:32  5-MIN KMSN 240600Z 13004KT 10SM SCT100 19/14 A2998 810 72 1600 130/04 RMK AO2
14837KMSN MSN20120624000509606/24/12 00:05:31  5-MIN KMSN 240605Z 13003KT 10SM FEW100 19/14 A2998 810 70 1600 130/03 RMK AO2
14837KMSN MSN20120624001009606/24/12 00:10:31  5-MIN KMSN 240610Z 12004KT 10SM FEW100 19/14 A2998 810 70 1600 120/04 RMK AO2
14837KMSN MSN20120624001509306/24/12 00:15:31  5-MIN KMSN 240615Z 12005KT 10SM CLR 19/14 A2997 820 70 1600 120/05 RMK AO2
14837KMSN MSN20120624002009306/24/12 00:20:31  5-MIN KMSN 240620Z 13005KT 10SM CLR 19/14 A2997 820 70 1600 130/05 RMK AO2
14837KMSN MSN20120624002509306/24/12 00:25:31  5-MIN KMSN 240625Z 13004KT 10SM CLR 19/14 A2997 820 70 1600 140/04 RMK AO2
14837KMSN MSN20120624003009306/24/12 00:30:31  5-MIN KMSN 240630Z 14004KT 10SM CLR 20/14 A2997 810 67 1600 140/04 RMK AO2
14837KMSN MSN20120624003509306/24/12 00:35:31  5-MIN KMSN 240635Z 15003KT 10SM CLR 19/14 A2998 810 70 1600 160/03 RMK AO2
14837KMSN MSN20120624004009306/24/12 00:40:31  5-MIN KMSN 240640Z 00000KT 10SM CLR 18/14 A2997 810 75 1400 000/00 RMK AO2
14837KMSN MSN20120624004509306/24/12 00:45:31  5-MIN KMSN 240645Z 00000KT 10SM CLR 18/14 A2997 820 75 1400 000/00 RMK AO2
14837KMSN MSN20120624005011006/24/12 00:50:31  5-MIN KMSN 240650Z 00000KT 10SM CLR 18/14 A2997 820 75 1400 000/00 RMK AO2 SLP144 T01830139
14837KMSN MSN20120624005509306/24/12 00:55:31  5-MIN KMSN 240655Z 00000KT 10SM CLR 18/14 A2997 820 81 1400 000/00 RMK AO2
14837KMSN MSN20120624010009306/24/12 01:00:31  5-MIN KMSN 240700Z 00000KT 10SM CLR 18/14 A2998 810 81 1400 000/00 RMK AO2
14837KMSN MSN20120624010509306/24/12 01:05:31  5-MIN KMSN 240705Z 00000KT 10SM CLR 18/14 A2998 810 81 1400 000/00 RMK AO2
14837KMSN MSN20120624011009306/24/12 01:10:31  5-MIN KMSN 240710Z 00000KT 10SM CLR 17/14 A2998 810 83 1300 000/00 RMK AO2
14837KMSN MSN20120624011509306/24/12 01:15:31  5-MIN KMSN 240715Z 00000KT 10SM CLR 17/14 A2998 810 83 1300 000/00 RMK AO2
14837KMSN MSN20120624012009306/24/12 01:20:31  5-MIN KMSN 240720Z 00000KT 10SM CLR 17/14 A2998 810 83 1300 000/00 RMK AO2
14837KMSN MSN20120624012509306/24/12 01:25:31  5-MIN KMSN 240725Z 00000KT 10SM CLR 17/14 A2998 810 83 1300 000/00 RMK AO2
14837KMSN MSN20120624013009306/24/12 01:30:31  5-MIN KMSN 240730Z 00000KT 10SM CLR 18/14 A2998 810 81 1400 000/00 RMK AO2
14837KMSN MSN20120624013509306/24/12 01:35:31  5-MIN KMSN 240735Z 00000KT 10SM CLR 17/14 A2998 810 83 1300 000/00 RMK AO2
14837KMSN MSN20120624014009306/24/12 01:40:31  5-MIN KMSN 240740Z 00000KT 10SM CLR 17/14 A2998 810 83 1300 000/00 RMK AO2
14837KMSN MSN20120624014509306/24/12 01:45:31  5-MIN KMSN 240745Z 00000KT 10SM CLR 17/14 A2998 810 86 1200 000/00 RMK AO2
14837KMSN MSN20120624015011006/24/12 01:50:31  5-MIN KMSN 240750Z 00000KT 10SM CLR 17/14 A2998 810 86 1200 000/00 RMK AO2 SLP148 T01670144
14837KMSN MSN20120624015509306/24/12 01:55:31  5-MIN KMSN 240755Z 00000KT 10SM CLR 17/14 A2998 810 86 1200 000/00 RMK AO2
14837KMSN MSN20120624020009306/24/12 02:00:31  5-MIN KMSN 240800Z 00000KT 10SM CLR 17/14 A2998 810 86 1200 000/00 RMK AO2
14837KMSN MSN20120624020509306/24/12 02:05:31  5-MIN KMSN 240805Z 00000KT 10SM CLR 17/14 A2998 810 86 1200 000/00 RMK AO2
14837KMSN MSN20120624021009306/24/12 02:10:31  5-MIN KMSN 240810Z 00000KT 10SM CLR 17/14 A2998 810 86 1200 000/00 RMK AO2
14837KMSN MSN20120624021509306/24/12 02:15:31  5-MIN KMSN 240815Z 00000KT 10SM CLR 17/14 A2998 810 86 1200 000/00 RMK AO2
14837KMSN MSN20120624022009306/24/12 02:20:31  5-MIN KMSN 240820Z 00000KT 10SM CLR 17/14 A2997 820 86 1200 000/00 RMK AO2
14837KMSN MSN20120624022509306/24/12 02:25:31  5-MIN KMSN 240825Z 00000KT 10SM CLR 17/14 A2997 820 86 1200 000/00 RMK AO2
14837KMSN MSN20120624023009306/24/12 02:30:31  5-MIN KMSN 240830Z 00000KT 10SM CLR 17/14 A2997 820 83 1300 000/00 RMK AO2
14837KMSN MSN20120624023509306/24/12 02:35:31  5-MIN KMSN 240835Z 00000KT 10SM CLR 18/14 A2997 820 81 1400 000/00 RMK AO2
14837KMSN MSN20120624024009306/24/12 02:40:31  5-MIN KMSN 240840Z 00000KT 10SM CLR 18/14 A2997 820 81 1400 000/00 RMK AO2
14837KMSN MSN20120624024509306/24/12 02:45:31  5-MIN KMSN 240845Z 00000KT 10SM CLR 17/14 A2997 820 83 1300 000/00 RMK AO2
14837KMSN MSN20120624025011606/24/12 02:50:31  5-MIN KMSN 240850Z 00000KT 10SM CLR 17/14 A2997 820 83 1300 000/00 RMK AO2 SLP144 T01720144 58008
14837KMSN MSN20120624025509306/24/12 02:55:31  5-MIN KMSN 240855Z 00000KT 10SM CLR 17/14 A2997 820 86 1200 000/00 RMK AO2
14837KMSN MSN20120624030009306/24/12 03:00:31  5-MIN KMSN 240900Z 00000KT 10SM CLR 16/14 A2997 820 86 1200 000/00 RMK AO2
14837KMSN MSN20120624030509306/24/12 03:05:31  5-MIN KMSN 240905Z 00000KT 10SM CLR 16/14 A2997 820 90 1200 000/00 RMK AO2
14837KMSN MSN20120624031009306/24/12 03:10:31  5-MIN KMSN 240910Z VRB06KT 10SM CLR 16/14 A2997 820 93 1100 VRB/06 RMK AO2
14837KMSN MSN20120624031509306/24/12 03:15:31  5-MIN KMSN 240915Z 00000KT 10SM CLR 16/14 A2997 820 90 1100 000/00 RMK AO2
14837KMSN MSN20120624032009306/24/12 03:20:31  5-MIN KMSN 240920Z 00000KT 10SM CLR 16/14 A2997 810 90 1200 000/00 RMK AO2
14837KMSN MSN20120624032509306/24/12 03:25:31  5-MIN KMSN 240925Z 00000KT 10SM CLR 16/14 A2997 810 90 1200 000/00 RMK AO2
14837KMSN MSN20120624033009306/24/12 03:30:31  5-MIN KMSN 240930Z 00000KT 10SM CLR 17/14 A2997 810 83 1300 000/00 RMK AO2
14837KMSN MSN20120624033509306/24/12 03:35:31  5-MIN KMSN 240935Z 00000KT 10SM CLR 17/14 A2997 810 80 1300 000/00 RMK AO2
14837KMSN MSN20120624034009306/24/12 03:40:31  5-MIN KMSN 240940Z 00000KT 10SM CLR 16/14 A2997 810 86 1200 000/00 RMK AO2
14837KMSN MSN20120624034509306/24/12 03:45:31  5-MIN KMSN 240945Z 00000KT 10SM CLR 16/14 A2997 810 86 1200 000/00 RMK AO2
14837KMSN MSN20120624035011306/24/12 03:50:31  5-MIN KMSN 240950Z 00000KT 10SM FEW110 17/14 A2997 820 86 1200 000/00 RMK AO2 SLP145 T01670144
14837KMSN MSN20120624035509306/24/12 03:55:31  5-MIN KMSN 240955Z 00000KT 10SM CLR 17/14 A2997 820 83 1300 000/00 RMK AO2
14837KMSN MSN20120624040009306/24/12 04:00:31  5-MIN KMSN 241000Z 00000KT 10SM CLR 17/14 A2997 820 80 1300 000/00 RMK AO2
14837KMSN MSN20120624040509606/24/12 04:05:31  5-MIN KMSN 241005Z 00000KT 10SM SCT110 17/14 A2997 820 80 1300 000/00 RMK AO2
14837KMSN MSN20120624041009606/24/12 04:10:31  5-MIN KMSN 241010Z 00000KT 10SM SCT110 17/14 A2997 820 86 1200 000/00 RMK AO2
14837KMSN MSN20120624041509606/24/12 04:15:31  5-MIN KMSN 241015Z 00000KT 10SM SCT110 17/14 A2997 820 86 1200 000/00 RMK AO2
14837KMSN MSN20120624042009606/24/12 04:20:31  5-MIN KMSN 241020Z 00000KT 10SM SCT110 17/14 A2997 820 80 1300 000/00 RMK AO2
14837KMSN MSN20120624042509606/24/12 04:25:31  5-MIN KMSN 241025Z 00000KT 10SM SCT110 17/14 A2997 820 83 1200 000/00 RMK AO2
14837KMSN MSN20120624043009606/24/12 04:30:31  5-MIN KMSN 241030Z 00000KT 10SM SCT110 17/14 A2997 820 83 1200 000/00 RMK AO2
14837KMSN MSN20120624043509606/24/12 04:35:31  5-MIN KMSN 241035Z 00000KT 10SM SCT110 17/14 A2998 810 83 1200 000/00 RMK AO2
14837KMSN MSN20120624044009606/24/12 04:40:31  5-MIN KMSN 241040Z 00000KT 10SM SCT110 17/14 A2997 820 83 1200 000/00 RMK AO2
14837KMSN MSN20120624044509606/24/12 04:45:31  5-MIN KMSN 241045Z 00000KT 10SM SCT110 16/14 A2997 820 86 1200 000/00 RMK AO2
14837KMSN MSN20120624045011306/24/12 04:50:31  5-MIN KMSN 241050Z 00000KT 10SM SCT110 16/14 A2997 820 86 1200 000/00 RMK AO2 SLP145 T01610139
14837KMSN MSN20120624045509606/24/12 04:55:31  5-MIN KMSN 241055Z 00000KT 10SM SCT100 17/14 A2997 820 83 1200 000/00 RMK AO2
14837KMSN MSN20120624050009606/24/12 05:00:31  5-MIN KMSN 241100Z 00000KT 10SM SCT100 16/14 A2997 820 90 1200 000/00 RMK AO2
14837KMSN MSN20120624050509606/24/12 05:05:31  5-MIN KMSN 241105Z 00000KT 10SM SCT100 16/14 A2997 820 86 1200 000/00 RMK AO2
14837KMSN MSN20120624051009606/24/12 05:10:31  5-MIN KMSN 241110Z 00000KT 10SM SCT100 17/14 A2997 810 86 1200 000/00 RMK AO2
14837KMSN MSN20120624051509606/24/12 05:15:31  5-MIN KMSN 241115Z 00000KT 10SM SCT100 16/14 A2998 810 90 1200 000/00 RMK AO2
14837KMSN MSN20120624052009606/24/12 05:20:31  5-MIN KMSN 241120Z 00000KT 10SM SCT100 17/14 A2998 810 86 1200 000/00 RMK AO2
14837KMSN MSN20120624052509606/24/12 05:25:31  5-MIN KMSN 241125Z 00000KT 10SM SCT100 17/15 A2998 810 87 1300 000/00 RMK AO2
14837KMSN MSN20120624053009606/24/12 05:30:31  5-MIN KMSN 241130Z 00000KT 10SM FEW120 17/15 A2998 810 87 1300 000/00 RMK AO2
14837KMSN MSN20120624053509606/24/12 05:35:31  5-MIN KMSN 241135Z 00000KT 10SM FEW120 18/16 A2998 810 87 1400 000/00 RMK AO2
14837KMSN MSN20120624054009606/24/12 05:40:31  5-MIN KMSN 241140Z 00000KT 10SM FEW120 18/16 A2998 810 84 1400 000/00 RMK AO2
14837KMSN MSN20120624054509606/24/12 05:45:31  5-MIN KMSN 241145Z 00000KT 10SM FEW120 19/16 A2998 810 81 1500 000/00 RMK AO2
14837KMSN MSN20120624055013106/24/12 05:50:31  5-MIN KMSN 241150Z 00000KT 10SM SCT100 19/16 A2998 810 81 1600 000/00 RMK AO2 SLP146 T01940161 10200 20156 58003
14837KMSN MSN20120624055509606/24/12 05:55:31  5-MIN KMSN 241155Z 00000KT 10SM SCT100 20/16 A2998 810 78 1600 000/00 RMK AO2
14837KMSN MSN20120624060009606/24/12 06:00:31  5-MIN KMSN 241200Z 00000KT 10SM SCT100 21/16 A2998 810 73 1700 000/00 RMK AO2
14837KMSN MSN20120624060509606/24/12 06:05:31  5-MIN KMSN 241205Z 00000KT 10SM SCT100 21/16 A2998 810 70 1700 000/00 RMK AO2
14837KMSN MSN20120624061009606/24/12 06:10:31  5-MIN KMSN 241210Z 00000KT 10SM SCT100 22/16 A2998 810 68 1800 000/00 RMK AO2
14837KMSN MSN20120624061509606/24/12 06:15:31  5-MIN KMSN 241215Z VRB04KT 10SM SCT100 22/15 A2998 810 65 1800 VRB/04 RMK AO2
14837KMSN MSN20120624062009606/24/12 06:20:31  5-MIN KMSN 241220Z 24004KT 10SM SCT100 22/15 A2998 810 65 1800 240/04 RMK AO2
14837KMSN MSN20120624062509606/24/12 06:25:31  5-MIN KMSN 241225Z 24003KT 10SM BKN065 22/15 A2998 810 65 1800 240/03 RMK AO2
14837KMSN MSN20120624063009606/24/12 06:30:31  5-MIN KMSN 241230Z 00000KT 10SM OVC065 22/16 A2999 800 68 1800 000/00 RMK AO2
14837KMSN MSN20120624063509606/24/12 06:35:31  5-MIN KMSN 241235Z 00000KT 10SM OVC065 22/16 A2998 810 68 1800 000/00 RMK AO2
14837KMSN MSN20120624064009606/24/12 06:40:31  5-MIN KMSN 241240Z 00000KT 10SM OVC065 22/15 A2999 800 65 1800 000/00 RMK AO2
14837KMSN MSN20120624064509606/24/12 06:45:31  5-MIN KMSN 241245Z 00000KT 10SM OVC065 22/16 A2999 800 68 1800 000/00 RMK AO2
14837KMSN MSN20120624065011306/24/12 06:50:31  5-MIN KMSN 241250Z 00000KT 10SM OVC065 22/16 A2999 800 68 1800 000/00 RMK AO2 SLP149 T02170156
14837KMSN MSN20120624065509606/24/12 06:55:31  5-MIN KMSN 241255Z 00000KT 10SM OVC065 22/16 A2999 800 68 1800 000/00 RMK AO2
14837KMSN MSN20120624070009606/24/12 07:00:31  5-MIN KMSN 241300Z 00000KT 10SM OVC065 22/16 A2999 800 68 1800 000/00 RMK AO2
14837KMSN MSN20120624070509606/24/12 07:05:31  5-MIN KMSN 241305Z 00000KT 10SM OVC065 22/16 A2999 800 70 1800 000/00 RMK AO2
14837KMSN MSN20120624071009606/24/12 07:10:31  5-MIN KMSN 241310Z 00000KT 10SM OVC070 21/17 A2999 800 75 1700 000/00 RMK AO2
14837KMSN MSN20120624071509606/24/12 07:15:31  5-MIN KMSN 241315Z 00000KT 10SM OVC065 22/17 A2999 800 73 1800 000/00 RMK AO2
14837KMSN MSN20120624072009606/24/12 07:20:31  5-MIN KMSN 241320Z 00000KT 10SM OVC070 22/17 A2999 800 73 1800 000/00 RMK AO2
14837KMSN MSN20120624072509606/24/12 07:25:31  5-MIN KMSN 241325Z 00000KT 10SM OVC070 22/17 A3000 790 73 1800 000/00 RMK AO2
14837KMSN MSN20120624073009606/24/12 07:30:31  5-MIN KMSN 241330Z 00000KT 10SM OVC070 22/16 A3000 790 68 1900 000/00 RMK AO2
14837KMSN MSN20120624073509606/24/12 07:35:31  5-MIN KMSN 241335Z 00000KT 10SM OVC070 22/16 A3000 790 68 1900 000/00 RMK AO2
14837KMSN MSN20120624074009606/24/12 07:40:31  5-MIN KMSN 241340Z 00000KT 10SM OVC070 22/16 A3000 790 65 1800 000/00 RMK AO2
14837KMSN MSN20120624074509606/24/12 07:45:31  5-MIN KMSN 241345Z 00000KT 10SM OVC070 22/16 A3000 790 65 1800 000/00 RMK AO2
14837KMSN MSN20120624075011306/24/12 07:50:31  5-MIN KMSN 241350Z 00000KT 10SM OVC065 22/16 A3001 780 65 1800 000/00 RMK AO2 SLP156 T02220156
14837KMSN MSN20120624075509606/24/12 07:55:31  5-MIN KMSN 241355Z 00000KT 10SM OVC065 23/16 A3001 780 63 1900 000/00 RMK AO2
14837KMSN MSN20120624080009606/24/12 08:00:31  5-MIN KMSN 241400Z 00000KT 10SM OVC065 23/16 A3001 780 63 1900 000/00 RMK AO2
14837KMSN MSN20120624080509606/24/12 08:05:31  5-MIN KMSN 241405Z 00000KT 10SM OVC060 22/16 A3001 780 65 1800 000/00 RMK AO2
14837KMSN MSN20120624081009606/24/12 08:10:31  5-MIN KMSN 241410Z 22003KT 10SM OVC060 22/16 A3001 780 65 1800 230/03 RMK AO2
14837KMSN MSN20120624081509606/24/12 08:15:31  5-MIN KMSN 241415Z 00000KT 10SM OVC060 22/16 A3001 780 65 1800 000/00 RMK AO2
14837KMSN MSN20120624082009606/24/12 08:20:31  5-MIN KMSN 241420Z 22003KT 10SM OVC060 22/16 A3001 780 65 1800 220/03 RMK AO2
14837KMSN MSN20120624082509606/24/12 08:25:31  5-MIN KMSN 241425Z 00000KT 10SM OVC060 22/16 A3001 780 65 1800 000/00 RMK AO2
14837KMSN MSN20120624083009606/24/12 08:30:31  5-MIN KMSN 241430Z 00000KT 10SM OVC060 22/16 A3001 780 65 1800 000/00 RMK AO2
14837KMSN MSN20120624083509606/24/12 08:35:31  5-MIN KMSN 241435Z 00000KT 10SM OVC060 22/16 A3001 780 65 1800 000/00 RMK AO2
14837KMSN MSN20120624084009606/24/12 08:40:31  5-MIN KMSN 241440Z 23003KT 10SM OVC060 22/16 A3001 780 65 1800 230/03 RMK AO2
14837KMSN MSN20120624084509606/24/12 08:45:31  5-MIN KMSN 241445Z 21003KT 10SM OVC060 22/16 A3001 780 65 1800 220/03 RMK AO2
14837KMSN MSN20120624085011906/24/12 08:50:31  5-MIN KMSN 241450Z 00000KT 10SM OVC060 22/16 A3001 790 65 1800 000/00 RMK AO2 SLP156 T02220156 53003
14837KMSN MSN20120624085509606/24/12 08:55:31  5-MIN KMSN 241455Z 00000KT 10SM OVC060 22/16 A3000 790 65 1900 000/00 RMK AO2
14837KMSN MSN20120624090009606/24/12 09:00:31  5-MIN KMSN 241500Z 00000KT 10SM OVC060 23/16 A2999 800 65 1900 000/00 RMK AO2
14837KMSN MSN20120624090509606/24/12 09:05:31  5-MIN KMSN 241505Z 00000KT 10SM OVC060 23/16 A3000 790 63 1900 000/00 RMK AO2
14837KMSN MSN20120624091009606/24/12 09:10:31  5-MIN KMSN 241510Z 00000KT 10SM BKN060 23/16 A3000 800 61 2000 000/00 RMK AO2
14837KMSN MSN20120624091510306/24/12 09:15:31  5-MIN KMSN 241515Z 00000KT 10SM BKN060 BKN095 23/16 A2999 800 61 2000 000/00 RMK AO2
14837KMSN MSN20120624092010306/24/12 09:20:31  5-MIN KMSN 241520Z 00000KT 10SM SCT060 SCT095 24/16 A2999 800 61 2100 000/00 RMK AO2
14837KMSN MSN20120624092509606/24/12 09:25:31  5-MIN KMSN 241525Z 00000KT 10SM FEW060 24/16 A2999 800 61 2100 000/00 RMK AO2
14837KMSN MSN20120624093009606/24/12 09:30:31  5-MIN KMSN 241530Z 00000KT 10SM FEW060 24/16 A2999 800 59 2100 000/00 RMK AO2
14837KMSN MSN20120624093509306/24/12 09:35:31  5-MIN KMSN 241535Z 00000KT 10SM CLR 25/16 A2998 800 57 2200 000/00 RMK AO2
14837KMSN MSN20120624094009606/24/12 09:40:31  5-MIN KMSN 241540Z 00000KT 10SM FEW060 26/16 A2998 810 55 2300 000/00 RMK AO2
14837KMSN MSN20120624094509606/24/12 09:45:31  5-MIN KMSN 241545Z 00000KT 10SM FEW060 26/16 A2998 810 55 2300 000/00 RMK AO2
14837KMSN MSN20120624095011306/24/12 09:50:31  5-MIN KMSN 241550Z 00000KT 10SM FEW060 26/16 A2998 810 53 2300 000/00 RMK AO2 SLP146 T02610161
14837KMSN MSN20120624095509606/24/12 09:55:31  5-MIN KMSN 241555Z 00000KT 10SM FEW060 26/16 A2998 810 53 2300 000/00 RMK AO2
14837KMSN MSN20120624100009606/24/12 10:00:31  5-MIN KMSN 241600Z 00000KT 10SM FEW060 26/17 A2998 810 55 2300 000/00 RMK AO2
14837KMSN MSN20120624100509606/24/12 10:05:31  5-MIN KMSN 241605Z 35004KT 10SM FEW060 27/17 A2998 810 53 2400 350/04 RMK AO2
14837KMSN MSN20120624101009606/24/12 10:10:31  5-MIN KMSN 241610Z 01006KT 10SM FEW060 27/17 A2998 810 52 2400 010/06 RMK AO2
14837KMSN MSN20120624101509606/24/12 10:15:31  5-MIN KMSN 241615Z 00000KT 10SM FEW060 27/17 A2998 800 52 2400 000/00 RMK AO2
14837KMSN MSN20120624102009606/24/12 10:20:31  5-MIN KMSN 241620Z 00000KT 10SM FEW060 27/17 A2998 810 52 2400 000/00 RMK AO2
14837KMSN MSN20120624102509606/24/12 10:25:31  5-MIN KMSN 241625Z 28003KT 10SM FEW060 27/17 A2999 800 52 2400 280/03 RMK AO2
14837KMSN MSN20120624103009606/24/12 10:30:31  5-MIN KMSN 241630Z 24003KT 10SM FEW060 27/17 A2998 810 52 2400 240/03 RMK AO2
14837KMSN MSN20120624103509606/24/12 10:35:31  5-MIN KMSN 241635Z 27006KT 10SM FEW060 27/17 A2998 810 52 2400 270/06 RMK AO2
14837KMSN MSN20120624104009606/24/12 10:40:31  5-MIN KMSN 241640Z VRB03KT 10SM FEW060 27/17 A2998 810 52 2400 VRB/03 RMK AO2
14837KMSN MSN20120624104509606/24/12 10:45:31  5-MIN KMSN 241645Z VRB04KT 10SM FEW060 27/16 A2998 810 50 2400 VRB/04 RMK AO2
14837KMSN MSN20120624105011006/24/12 10:50:31  5-MIN KMSN 241650Z VRB04KT 10SM CLR 28/16 A2997 810 46 2500 VRB/04 RMK AO2 SLP144 T02780156
14837KMSN MSN20120624105509306/24/12 10:55:31  5-MIN KMSN 241655Z 33006KT 10SM CLR 29/16 A2997 810 45 2600 340/06 RMK AO2
14837KMSN MSN20120624110009306/24/12 11:00:31  5-MIN KMSN 241700Z 34005KT 10SM CLR 28/16 A2997 820 47 2600 350/05 RMK AO2
14837KMSN MSN20120624110509306/24/12 11:05:31  5-MIN KMSN 241705Z VRB04KT 10SM CLR 28/16 A2997 820 45 2600 VRB/04 RMK AO2
14837KMSN MSN20120624111010906/24/12 11:10:31  5-MIN KMSN 241710Z 35007KT 320V050 10SM CLR 29/16 A2997 820 44 2700 350/07 320V050 RMK AO2
14837KMSN MSN20120624111509306/24/12 11:15:31  5-MIN KMSN 241715Z 31004KT 10SM CLR 29/16 A2997 820 45 2600 310/04 RMK AO2
14837KMSN MSN20120624112009606/24/12 11:20:31  5-MIN KMSN 241720Z 33006KT 10SM FEW060 29/16 A2997 820 45 2600 330/06 RMK AO2
14837KMSN MSN20120624112509606/24/12 11:25:31  5-MIN KMSN 241725Z VRB03KT 10SM FEW060 28/16 A2997 820 47 2600 VRB/03 RMK AO2
14837KMSN MSN20120624113009606/24/12 11:30:31  5-MIN KMSN 241730Z 36003KT 10SM FEW060 29/16 A2996 820 45 2600 010/03 RMK AO2
14837KMSN MSN20120624113509606/24/12 11:35:31  5-MIN KMSN 241735Z VRB04KT 10SM FEW060 29/16 A2996 820 44 2700 VRB/04 RMK AO2
14837KMSN MSN20120624114009606/24/12 11:40:31  5-MIN KMSN 241740Z VRB05KT 10SM FEW060 29/16 A2996 820 44 2700 VRB/05 RMK AO2
14837KMSN MSN20120624114509606/24/12 11:45:31  5-MIN KMSN 241745Z 36006KT 10SM FEW060 29/16 A2996 830 44 2700 360/06 RMK AO2
14837KMSN MSN20120624115012806/24/12 11:50:31  5-MIN KMSN 241750Z VRB05KT 10SM CLR 29/16 A2996 830 44 2700 VRB/05 RMK AO2 SLP139 T02940161 10300 20200 50008
14837KMSN MSN20120624115509606/24/12 11:55:31  5-MIN KMSN 241755Z 35006KT 10SM FEW060 30/16 A2996 830 42 2800 350/06 RMK AO2
14837KMSN MSN20120624120009606/24/12 12:00:31  5-MIN KMSN 241800Z 34005KT 10SM FEW060 30/16 A2996 830 42 2800 340/05 RMK AO2
14837KMSN MSN20120624120509606/24/12 12:05:31  5-MIN KMSN 241805Z VRB04KT 10SM FEW060 29/16 A2996 830 44 2700 VRB/04 RMK AO2
14837KMSN MSN20120624121009606/24/12 12:10:31  5-MIN KMSN 241810Z 03004KT 10SM FEW060 30/16 A2996 830 42 2800 030/04 RMK AO2
14837KMSN MSN20120624121509606/24/12 12:15:31  5-MIN KMSN 241815Z VRB03KT 10SM FEW060 30/16 A2996 830 42 2800 VRB/03 RMK AO2
14837KMSN MSN20120624122009606/24/12 12:20:31  5-MIN KMSN 241820Z 35005KT 10SM FEW060 31/17 A2996 830 42 2800 360/05 RMK AO2
14837KMSN MSN20120624122509606/24/12 12:25:31  5-MIN KMSN 241825Z 36004KT 10SM FEW060 31/17 A2996 830 42 2800 010/04 RMK AO2
14837KMSN MSN20120624123009606/24/12 12:30:31  5-MIN KMSN 241830Z 00000KT 10SM FEW060 30/16 A2996 830 42 2800 000/00 RMK AO2
14837KMSN MSN20120624123509606/24/12 12:35:31  5-MIN KMSN 241835Z 01006KT 10SM FEW060 31/17 A2996 830 41 2900 020/06 RMK AO2
14837KMSN MSN20120624125011306/24/12 12:50:31  5-MIN KMSN 241850Z 02005KT 10SM FEW060 31/16 A2996 830 41 2800 020/05 RMK AO2 SLP140 T03060161
14837KMSN MSN20120624125509606/24/12 12:55:31  5-MIN KMSN 241855Z VRB03KT 10SM FEW060 31/16 A2996 830 41 2800 VRB/03 RMK AO2
14837KMSN MSN20120624130009606/24/12 13:00:31  5-MIN KMSN 241900Z 00000KT 10SM FEW060 31/16 A2995 830 41 2800 000/00 RMK AO2
14837KMSN MSN20120624130509606/24/12 13:05:31  5-MIN KMSN 241905Z 36006KT 10SM FEW060 32/17 A2995 830 40 3000 360/06 RMK AO2
14837KMSN MSN20120624131009606/24/12 13:10:31  5-MIN KMSN 241910Z 33006KT 10SM FEW060 32/17 A2995 830 38 3000 330/06 RMK AO2
14837KMSN MSN20120624131509606/24/12 13:15:31  5-MIN KMSN 241915Z VRB03KT 10SM FEW060 31/16 A2996 830 41 2800 VRB/03 RMK AO2
14837KMSN MSN20120624132009606/24/12 13:20:31  5-MIN KMSN 241920Z VRB05KT 10SM FEW060 31/16 A2996 830 40 2900 VRB/05 RMK AO2
14837KMSN MSN20120624132509606/24/12 13:25:31  5-MIN KMSN 241925Z VRB04KT 10SM FEW060 31/16 A2996 830 40 2900 VRB/04 RMK AO2
14837KMSN MSN20120624133009606/24/12 13:30:31  5-MIN KMSN 241930Z 35005KT 10SM FEW060 30/16 A2996 830 42 2800 350/05 RMK AO2
14837KMSN MSN20120624133509606/24/12 13:35:31  5-MIN KMSN 241935Z 32003KT 10SM FEW060 31/16 A2996 830 40 2900 330/03 RMK AO2
14837KMSN MSN20120624134009606/24/12 13:40:31  5-MIN KMSN 241940Z 00000KT 10SM FEW060 31/16 A2996 830 39 2800 000/00 RMK AO2
14837KMSN MSN20120624134509606/24/12 13:45:31  5-MIN KMSN 241945Z 00000KT 10SM FEW060 31/16 A2996 830 41 2800 000/00 RMK AO2
14837KMSN MSN20120624135011306/24/12 13:50:31  5-MIN KMSN 241950Z 31005KT 10SM FEW055 32/17 A2996 830 40 3000 320/05 RMK AO2 SLP139 T03170167
14837KMSN MSN20120624135509606/24/12 13:55:31  5-MIN KMSN 241955Z 31005KT 10SM FEW060 31/16 A2996 830 40 2900 310/05 RMK AO2
14837KMSN MSN20120624140009606/24/12 14:00:31  5-MIN KMSN 242000Z VRB04KT 10SM FEW060 31/17 A2995 830 42 2800 VRB/04 RMK AO2
14837KMSN MSN20120624140510306/24/12 14:05:31  5-MIN KMSN 242005Z 01007KT 10SM SCT060 BKN070 31/17 A2995 830 42 2800 010/07 RMK AO2
14837KMSN MSN20120624141009606/24/12 14:10:31  5-MIN KMSN 242010Z 34005KT 10SM BKN065 30/17 A2995 830 44 2800 350/05 RMK AO2
14837KMSN MSN20120624141509606/24/12 14:15:31  5-MIN KMSN 242015Z 35006KT 10SM BKN065 31/17 A2996 830 44 2800 350/06 RMK AO2
14837KMSN MSN20120624142009606/24/12 14:20:31  5-MIN KMSN 242020Z 35006KT 10SM BKN065 31/17 A2995 830 42 2800 350/06 RMK AO2
14837KMSN MSN20120624142509606/24/12 14:25:31  5-MIN KMSN 242025Z 35007KT 10SM OVC065 31/17 A2996 830 44 2800 350/07 RMK AO2
14837KMSN MSN20120624143009606/24/12 14:30:31  5-MIN KMSN 242030Z 36007KT 10SM BKN065 32/17 A2995 830 41 3000 010/07 RMK AO2
14837KMSN MSN20120624143509606/24/12 14:35:31  5-MIN KMSN 242035Z 34007KT 10SM BKN065 32/17 A2995 840 40 3000 340/07 RMK AO2
14837KMSN MSN20120624144009606/24/12 14:40:31  5-MIN KMSN 242040Z 01006KT 10SM BKN070 31/17 A2995 840 41 2900 010/06 RMK AO2
14837KMSN MSN20120624144509606/24/12 14:45:31  5-MIN KMSN 242045Z 36005KT 10SM SCT065 32/17 A2995 840 38 3000 360/05 RMK AO2
14837KMSN MSN20120624145011906/24/12 14:50:31  5-MIN KMSN 242050Z 35006KT 10SM FEW070 32/17 A2995 840 40 3000 350/06 RMK AO2 SLP136 T03170167 56014
14837KMSN MSN20120624145509606/24/12 14:55:31  5-MIN KMSN 242055Z VRB05KT 10SM FEW070 32/17 A2995 840 41 3000 VRB/05 RMK AO2
14837KMSN MSN20120624150009606/24/12 15:00:31  5-MIN KMSN 242100Z 34006KT 10SM FEW075 32/17 A2995 840 40 3000 340/06 RMK AO2
14837KMSN MSN20120624150509606/24/12 15:05:31  5-MIN KMSN 242105Z 36009KT 10SM SCT075 32/17 A2995 840 41 3000 360/09 RMK AO2
14837KMSN MSN20120624151009606/24/12 15:10:31  5-MIN KMSN 242110Z 35008KT 10SM SCT080 31/17 A2995 840 42 2900 360/08 RMK AO2
14837KMSN MSN20120624151509606/24/12 15:15:31  5-MIN KMSN 242115Z 01006KT 10SM SCT080 32/17 A2995 840 41 3000 010/06 RMK AO2
14837KMSN MSN20120624152009606/24/12 15:20:31  5-MIN KMSN 242120Z VRB04KT 10SM FEW080 31/17 A2995 840 42 2900 VRB/04 RMK AO2
14837KMSN MSN20120624152509606/24/12 15:25:31  5-MIN KMSN 242125Z 35010KT 10SM SCT080 32/18 A2995 840 43 3000 350/10 RMK AO2
14837KMSN MSN20120624153009606/24/12 15:30:31  5-MIN KMSN 242130Z 34007KT 10SM SCT080 31/18 A2995 840 44 2900 340/07 RMK AO2
14837KMSN MSN20120624153509606/24/12 15:35:31  5-MIN KMSN 242135Z 02009KT 10SM FEW080 32/18 A2995 840 43 3000 020/09 RMK AO2
14837KMSN MSN20120624154009306/24/12 15:40:31  5-MIN KMSN 242140Z 36007KT 10SM CLR 31/18 A2995 840 44 2900 010/07 RMK AO2
14837KMSN MSN20120624154509306/24/12 15:45:31  5-MIN KMSN 242145Z 34007KT 10SM CLR 31/18 A2995 840 44 2900 340/07 RMK AO2
14837KMSN MSN20120624155011306/24/12 15:50:31  5-MIN KMSN 242150Z 35005KT 10SM FEW080 31/18 A2995 840 44 2900 350/05 RMK AO2 SLP136 T03110178
14837KMSN MSN20120624155509306/24/12 15:55:31  5-MIN KMSN 242155Z 01009KT 10SM CLR 31/18 A2995 840 44 2900 010/09 RMK AO2
14837KMSN MSN20120624160009306/24/12 16:00:31  5-MIN KMSN 242200Z 36005KT 10SM CLR 31/17 A2995 840 42 2900 360/05 RMK AO2
14837KMSN MSN20120624160509306/24/12 16:05:31  5-MIN KMSN 242205Z 33006KT 10SM CLR 31/18 A2994 840 46 2800 330/06 RMK AO2
14837KMSN MSN20120624161009306/24/12 16:10:31  5-MIN KMSN 242210Z 35009KT 10SM CLR 31/18 A2994 840 46 2900 350/09 RMK AO2
14837KMSN MSN20120624161509306/24/12 16:15:31  5-MIN KMSN 242215Z 01009KT 10SM CLR 31/18 A2995 840 44 2900 010/09 RMK AO2
14837KMSN MSN20120624162009306/24/12 16:20:31  5-MIN KMSN 242220Z 34008KT 10SM CLR 31/18 A2994 840 44 2900 350/08 RMK AO2
14837KMSN MSN20120624162509606/24/12 16:25:31  5-MIN KMSN 242225Z 35006KT 10SM FEW055 31/18 A2994 840 46 2900 350/06 RMK AO2
14837KMSN MSN20120624163009606/24/12 16:30:31  5-MIN KMSN 242230Z 36011KT 10SM FEW055 31/18 A2995 840 46 2900 360/11 RMK AO2
14837KMSN MSN20120624163509606/24/12 16:35:31  5-MIN KMSN 242235Z 01010KT 10SM FEW055 30/18 A2994 840 47 2800 020/10 RMK AO2
14837KMSN MSN20120624164009606/24/12 16:40:31  5-MIN KMSN 242240Z 03011KT 10SM FEW055 31/18 A2994 840 46 2800 030/11 RMK AO2
14837KMSN MSN20120624164509606/24/12 16:45:31  5-MIN KMSN 242245Z 03008KT 10SM FEW055 30/18 A2995 840 47 2800 030/08 RMK AO2
14837KMSN MSN20120624165011306/24/12 16:50:31  5-MIN KMSN 242250Z 04009KT 10SM FEW055 30/18 A2994 840 47 2800 040/09 RMK AO2 SLP135 T03000178
14837KMSN MSN20120624165509606/24/12 16:55:31  5-MIN KMSN 242255Z 04010KT 10SM FEW055 30/18 A2994 840 47 2800 040/10 RMK AO2
14837KMSN MSN20120624170009306/24/12 17:00:31  5-MIN KMSN 242300Z 02007KT 10SM CLR 30/18 A2994 850 47 2800 020/07 RMK AO2
14837KMSN MSN20120624170509306/24/12 17:05:31  5-MIN KMSN 242305Z 02009KT 10SM CLR 31/18 A2994 850 47 2900 020/09 RMK AO2
14837KMSN MSN20120624171009306/24/12 17:10:31  5-MIN KMSN 242310Z 01010KT 10SM CLR 31/18 A2994 840 47 2900 020/10 RMK AO2
14837KMSN MSN20120624171509306/24/12 17:15:31  5-MIN KMSN 242315Z 02009KT 10SM CLR 30/18 A2994 840 47 2800 020/09 RMK AO2
14837KMSN MSN20120624172009606/24/12 17:20:31  5-MIN KMSN 242320Z 03008KT 10SM FEW048 29/18 A2994 840 49 2700 040/08 RMK AO2
14837KMSN MSN20120624172509606/24/12 17:25:31  5-MIN KMSN 242325Z 03009KT 10SM FEW048 30/18 A2994 840 47 2800 030/09 RMK AO2
14837KMSN MSN20120624173010206/24/12 17:30:31  5-MIN KMSN 242330Z 04008G15KT 10SM FEW048 29/18 A2994 840 50 2700 040/08G15 RMK AO2
14837KMSN MSN20120624173510306/24/12 17:35:31  5-MIN KMSN 242335Z 03009KT 10SM FEW048 SCT070 29/18 A2994 840 52 2700 030/09 RMK AO2
14837KMSN MSN20120624174010306/24/12 17:40:31  5-MIN KMSN 242340Z 05012KT 10SM FEW048 SCT070 29/18 A2994 850 50 2700 050/12 RMK AO2
14837KMSN MSN20120624174509606/24/12 17:45:31  5-MIN KMSN 242345Z 04011KT 10SM FEW048 29/18 A2994 840 49 2700 040/11 RMK AO2
14837KMSN MSN20120624175013106/24/12 17:50:31  5-MIN KMSN 242350Z 02009KT 10SM FEW048 29/18 A2994 850 49 2700 020/09 RMK AO2 SLP134 T02940178 10322 20289 58004
14837KMSN MSN20120624175509606/24/12 17:55:31  5-MIN KMSN 242355Z 01009KT 10SM FEW070 29/18 A2994 840 50 2700 010/09 RMK AO2
14837KMSN MSN20120624180009606/24/12 18:00:31  5-MIN KMSN 250000Z 02007KT 10SM FEW070 29/18 A2995 840 50 2700 020/07 RMK AO2
14837KMSN MSN20120624180509306/24/12 18:05:31  5-MIN KMSN 250005Z 03010KT 10SM CLR 29/18 A2995 840 50 2700 030/10 RMK AO2
14837KMSN MSN20120624181009306/24/12 18:10:31  5-MIN KMSN 250010Z 03006KT 10SM CLR 28/18 A2995 840 52 2600 030/06 RMK AO2
14837KMSN MSN20120624181509306/24/12 18:15:31  5-MIN KMSN 250015Z 01007KT 10SM CLR 28/18 A2995 840 54 2600 010/07 RMK AO2
14837KMSN MSN20120624182009306/24/12 18:20:31  5-MIN KMSN 250020Z 03006KT 10SM CLR 28/18 A2995 840 54 2600 030/06 RMK AO2
14837KMSN MSN20120624182509306/24/12 18:25:31  5-MIN KMSN 250025Z 01008KT 10SM CLR 28/18 A2995 840 52 2600 020/08 RMK AO2
14837KMSN MSN20120624183009306/24/12 18:30:31  5-MIN KMSN 250030Z 02007KT 10SM CLR 28/18 A2995 840 52 2600 020/07 RMK AO2
14837KMSN MSN20120624183509306/24/12 18:35:31  5-MIN KMSN 250035Z 02006KT 10SM CLR 28/18 A2995 840 52 2600 020/06 RMK AO2
14837KMSN MSN20120624184009306/24/12 18:40:31  5-MIN KMSN 250040Z 02008KT 10SM CLR 28/18 A2995 840 54 2500 030/08 RMK AO2
14837KMSN MSN20120624184509306/24/12 18:45:31  5-MIN KMSN 250045Z 04008KT 10SM CLR 28/18 A2995 840 54 2500 040/08 RMK AO2
14837KMSN MSN20120624185011306/24/12 18:50:31  5-MIN KMSN 250050Z 05009KT 10SM FEW050 28/18 A2995 830 54 2500 050/09 RMK AO2 SLP137 T02780178
14837KMSN MSN20120624185509306/24/12 18:55:31  5-MIN KMSN 250055Z 05008KT 10SM CLR 28/18 A2995 830 54 2500 050/08 RMK AO2
14837KMSN MSN20120624190009306/24/12 19:00:31  5-MIN KMSN 250100Z 04009KT 10SM CLR 27/18 A2996 830 56 2500 040/09 RMK AO2
14837KMSN MSN20120624190509306/24/12 19:05:31  5-MIN KMSN 250105Z 04008KT 10SM CLR 27/18 A2996 830 56 2500 040/08 RMK AO2
14837KMSN MSN20120624191009306/24/12 19:10:31  5-MIN KMSN 250110Z 04008KT 10SM CLR 27/18 A2996 830 56 2500 040/08 RMK AO2
14837KMSN MSN20120624191509306/24/12 19:15:31  5-MIN KMSN 250115Z 05008KT 10SM CLR 27/18 A2996 830 57 2400 050/08 RMK AO2
14837KMSN MSN20120624192009306/24/12 19:20:31  5-MIN KMSN 250120Z 05007KT 10SM CLR 27/18 A2996 830 57 2400 060/07 RMK AO2
14837KMSN MSN20120624192509306/24/12 19:25:31  5-MIN KMSN 250125Z 05006KT 10SM CLR 26/18 A2996 830 59 2300 050/06 RMK AO2
14837KMSN MSN20120624193009306/24/12 19:30:31  5-MIN KMSN 250130Z 05006KT 10SM CLR 26/18 A2996 830 59 2300 050/06 RMK AO2
14837KMSN MSN20120624193509306/24/12 19:35:31  5-MIN KMSN 250135Z 05005KT 10SM CLR 26/18 A2996 830 61 2300 050/05 RMK AO2
14837KMSN MSN20120624194009306/24/12 19:40:31  5-MIN KMSN 250140Z 05005KT 10SM CLR 26/18 A2996 830 61 2300 050/05 RMK AO2
14837KMSN MSN20120624194509306/24/12 19:45:31  5-MIN KMSN 250145Z 04005KT 10SM CLR 25/18 A2996 830 64 2200 040/05 RMK AO2
14837KMSN MSN20120624195011006/24/12 19:50:31  5-MIN KMSN 250150Z 04005KT 10SM CLR 25/18 A2996 830 64 2200 050/05 RMK AO2 SLP141 T02500178
14837KMSN MSN20120624195509306/24/12 19:55:31  5-MIN KMSN 250155Z 04005KT 10SM CLR 25/18 A2996 830 64 2200 040/05 RMK AO2
14837KMSN MSN20120624200009306/24/12 20:00:31  5-MIN KMSN 250200Z 04006KT 10SM CLR 25/18 A2996 830 64 2200 050/06 RMK AO2
14837KMSN MSN20120624200509306/24/12 20:05:31  5-MIN KMSN 250205Z 04006KT 10SM CLR 25/18 A2997 820 64 2200 040/06 RMK AO2
14837KMSN MSN20120624201009306/24/12 20:10:31  5-MIN KMSN 250210Z 04006KT 10SM CLR 25/18 A2997 820 64 2200 040/06 RMK AO2
14837KMSN MSN20120624201509306/24/12 20:15:31  5-MIN KMSN 250215Z 04006KT 10SM CLR 24/18 A2997 820 66 2100 040/06 RMK AO2
14837KMSN MSN20120624202009306/24/12 20:20:31  5-MIN KMSN 250220Z 05008KT 10SM CLR 24/18 A2998 810 66 2100 050/08 RMK AO2
14837KMSN MSN20120624202510606/24/12 20:25:31  5-MIN KMSN 250225Z 08018G24KT 10SM CLR 23/17 A2999 800 68 2000 080/18G24 RMK AO2 PRESRR
14837KMSN MSN20120624203009906/24/12 20:30:31  5-MIN KMSN 250230Z 09014G24KT 10SM CLR 23/17 A3000 800 70 1900 100/14G24 RMK AO2
14837KMSN MSN20120624203510406/24/12 20:35:31  5-MIN KMSN 250235Z 10015KT 10SM CLR 23/17 A3000 790 70 1900 100/15 RMK AO2 WSHFT 0221
14837KMSN MSN20120624204010706/24/12 20:40:31  5-MIN KMSN 250240Z 08012KT 10SM FEW030 23/17 A3000 790 68 1900 080/12 RMK AO2 WSHFT 0221
14837KMSN MSN20120624204511006/24/12 20:45:31  5-MIN KMSN 250245Z 08015G18KT 10SM CLR 22/17 A3001 780 70 1800 080/15G18 RMK AO2 WSHFT 0221
14837KMSN MSN20120624205013306/24/12 20:50:31  5-MIN KMSN 250250Z 08014G18KT 10SM CLR 22/17 A3001 780 73 1800 080/14G18 RMK AO2 WSHFT 0221 SLP158 T02170167 56002
14837KMSN MSN20120624205509306/24/12 20:55:31  5-MIN KMSN 250255Z 08015KT 10SM CLR 22/17 A3001 780 73 1800 080/15 RMK AO2
14837KMSN MSN20120624210009906/24/12 21:00:31  5-MIN KMSN 250300Z 08011G20KT 10SM CLR 21/16 A3002 780 73 1700 090/11G20 RMK AO2
14837KMSN MSN20120624210509906/24/12 21:05:31  5-MIN KMSN 250305Z 09010G20KT 10SM CLR 21/16 A3001 780 73 1700 090/10G20 RMK AO2
14837KMSN MSN20120624211009306/24/12 21:10:31  5-MIN KMSN 250310Z 09011KT 10SM CLR 21/16 A3002 780 75 1600 090/11 RMK AO2
14837KMSN MSN20120624211509606/24/12 21:15:31  5-MIN KMSN 250315Z 09010KT 10SM FEW042 21/16 A3002 770 73 1700 090/10 RMK AO2
14837KMSN MSN20120624212009606/24/12 21:20:31  5-MIN KMSN 250320Z 08008KT 10SM SCT042 21/16 A3003 760 75 1600 080/08 RMK AO2
14837KMSN MSN20120624212509606/24/12 21:25:31  5-MIN KMSN 250325Z 08009KT 10SM BKN042 21/16 A3003 760 75 1600 080/09 RMK AO2
14837KMSN MSN20120624213009606/24/12 21:30:31  5-MIN KMSN 250330Z 09010KT 10SM BKN042 21/16 A3003 760 75 1600 090/10 RMK AO2
14837KMSN MSN20120624213509606/24/12 21:35:31  5-MIN KMSN 250335Z 08008KT 10SM BKN042 21/16 A3004 760 73 1600 080/08 RMK AO2
14837KMSN MSN20120624214009606/24/12 21:40:31  5-MIN KMSN 250340Z 09011KT 10SM BKN042 21/16 A3004 760 73 1600 090/11 RMK AO2
14837KMSN MSN20120624214510306/24/12 21:45:31  5-MIN KMSN 250345Z 08009KT 10SM BKN042 OVC050 21/16 A3003 760 73 1600 080/09 RMK AO2
14837KMSN MSN20120624215012006/24/12 21:50:31  5-MIN KMSN 250350Z 08010KT 10SM SCT042 BKN055 21/16 A3004 760 73 1600 080/10 RMK AO2 SLP166 T02060156
14837KMSN MSN20120624215510306/24/12 21:55:31  5-MIN KMSN 250355Z 08009KT 10SM BKN042 BKN050 21/15 A3003 760 70 1600 080/09 RMK AO2
14837KMSN MSN20120624220010306/24/12 22:00:31  5-MIN KMSN 250400Z 08009KT 10SM SCT042 BKN050 21/15 A3003 760 70 1600 080/09 RMK AO2
14837KMSN MSN20120624220510306/24/12 22:05:31  5-MIN KMSN 250405Z 08008KT 10SM FEW042 SCT049 20/15 A3004 760 72 1600 090/08 RMK AO2
14837KMSN MSN20120624221010306/24/12 22:10:31  5-MIN KMSN 250410Z 09006KT 10SM FEW042 SCT055 20/15 A3004 760 72 1600 090/06 RMK AO2
14837KMSN MSN20120624221509606/24/12 22:15:31  5-MIN KMSN 250415Z 09006KT 10SM FEW042 20/15 A3004 760 72 1600 090/06 RMK AO2
14837KMSN MSN20120624222009606/24/12 22:20:31  5-MIN KMSN 250420Z 07006KT 10SM FEW046 19/15 A3004 760 75 1500 070/06 RMK AO2
14837KMSN MSN20120624222510306/24/12 22:25:31  5-MIN KMSN 250425Z 07005KT 10SM FEW037 SCT047 19/15 A3004 750 75 1500 070/05 RMK AO2
14837KMSN MSN20120624223010306/24/12 22:30:31  5-MIN KMSN 250430Z 06005KT 10SM SCT037 BKN047 19/15 A3004 750 75 1500 060/05 RMK AO2
14837KMSN MSN20120624223510306/24/12 22:35:31  5-MIN KMSN 250435Z 05006KT 10SM BKN037 BKN047 19/14 A3005 750 70 1500 060/06 RMK AO2
14837KMSN MSN20120624224010306/24/12 22:40:31  5-MIN KMSN 250440Z 06005KT 10SM BKN037 BKN047 19/14 A3005 750 70 1500 060/05 RMK AO2
14837KMSN MSN20120624224510306/24/12 22:45:31  5-MIN KMSN 250445Z 06005KT 10SM BKN037 OVC047 20/14 A3005 740 67 1500 060/05 RMK AO2
14837KMSN MSN20120624225012006/24/12 22:50:31  5-MIN KMSN 250450Z 06006KT 10SM BKN037 BKN047 19/14 A3005 740 70 1500 060/06 RMK AO2 SLP171 T01940139
14837KMSN MSN20120624225509606/24/12 22:55:31  5-MIN KMSN 250455Z 06006KT 10SM OVC037 19/14 A3005 740 70 1500 060/06 RMK AO2
14837KMSN MSN20120624230010306/24/12 23:00:31  5-MIN KMSN 250500Z 07008KT 10SM BKN039 OVC050 19/13 A3005 740 67 1500 070/08 RMK AO2
14837KMSN MSN20120624230511006/24/12 23:05:31  5-MIN KMSN 250505Z 07007KT 10SM BKN039 BKN047 OVC055 19/13 A3005 740 67 1500 070/07 RMK AO2
14837KMSN MSN20120624231010306/24/12 23:10:31  5-MIN KMSN 250510Z 07007KT 10SM BKN041 BKN050 19/13 A3006 740 67 1500 070/07 RMK AO2
14837KMSN MSN20120624231510306/24/12 23:15:31  5-MIN KMSN 250515Z 06007KT 10SM BKN042 BKN050 19/13 A3006 740 67 1500 070/07 RMK AO2
14837KMSN MSN20120624232010306/24/12 23:20:31  5-MIN KMSN 250520Z 06007KT 10SM BKN044 BKN055 19/13 A3006 740 67 1400 060/07 RMK AO2
14837KMSN MSN20120624232510306/24/12 23:25:31  5-MIN KMSN 250525Z 07008KT 10SM BKN044 OVC055 19/12 A3006 740 65 1400 070/08 RMK AO2
14837KMSN MSN20120624233010306/24/12 23:30:31  5-MIN KMSN 250530Z 06008KT 10SM BKN044 BKN055 19/12 A3006 740 65 1400 070/08 RMK AO2
14837KMSN MSN20120624233510306/24/12 23:35:31  5-MIN KMSN 250535Z 07010KT 10SM BKN044 BKN055 19/12 A3006 740 62 1400 070/10 RMK AO2
14837KMSN MSN20120624234010306/24/12 23:40:31  5-MIN KMSN 250540Z 07013KT 10SM BKN044 OVC055 19/11 A3006 730 58 1400 070/13 RMK AO2
14837KMSN MSN20120624234509606/24/12 23:45:31  5-MIN KMSN 250545Z 08011KT 10SM OVC044 19/10 A3006 730 54 1500 080/11 RMK AO2
14837KMSN MSN20120624235014106/24/12 23:50:31  5-MIN KMSN 250550Z 06011KT 10SM OVC044 19/10 A3007 730 56 1400 070/11 RMK AO2 SLP176 T01890100 10289 20189 403220156 53022
14837KMSN MSN20120624235509606/24/12 23:55:31  5-MIN KMSN 250555Z 06011KT 10SM OVC046 19/10 A3007 730 56 1400 060/11 RMK AO2
14837KMSN MSN20120625000009606/25/12 00:00:32  5-MIN KMSN 250600Z 06010KT 10SM OVC048 19/10 A3007 730 56 1400 070/10 RMK AO2
14837KMSN MSN20120625000509606/25/12 00:05:31  5-MIN KMSN 250605Z 07008KT 10SM OVC048 19/11 A3006 730 58 1400 070/08 RMK AO2
14837KMSN MSN20120625001009606/25/12 00:10:31  5-MIN KMSN 250610Z 07010KT 10SM BKN048 19/11 A3006 730 58 1400 070/10 RMK AO2
14837KMSN MSN20120625001509606/25/12 00:15:31  5-MIN KMSN 250615Z 06011KT 10SM BKN048 18/11 A3007 730 60 1300 060/11 RMK AO2
14837KMSN MSN20120625002009606/25/12 00:20:31  5-MIN KMSN 250620Z 07008KT 10SM SCT048 18/10 A3007 730 60 1300 070/08 RMK AO2
14837KMSN MSN20120625002509606/25/12 00:25:31  5-MIN KMSN 250625Z 06008KT 10SM SCT050 18/09 A3007 730 58 1300 060/08 RMK AO2
14837KMSN MSN20120625003009606/25/12 00:30:31  5-MIN KMSN 250630Z 06008KT 10SM FEW050 18/09 A3007 730 58 1300 060/08 RMK AO2
14837KMSN MSN20120625003509306/25/12 00:35:31  5-MIN KMSN 250635Z 06006KT 10SM CLR 18/09 A3007 720 58 1300 070/06 RMK AO2
14837KMSN MSN20120625004009306/25/12 00:40:31  5-MIN KMSN 250640Z 06007KT 10SM CLR 17/09 A3007 720 60 1200 070/07 RMK AO2
14837KMSN MSN20120625004509306/25/12 00:45:31  5-MIN KMSN 250645Z 05005KT 10SM CLR 17/09 A3007 720 60 1200 060/05 RMK AO2
14837KMSN MSN20120625005011006/25/12 00:50:31  5-MIN KMSN 250650Z 05007KT 10SM CLR 17/09 A3008 720 62 1100 060/07 RMK AO2 SLP179 T01670094
14837KMSN MSN20120625005509306/25/12 00:55:31  5-MIN KMSN 250655Z 06007KT 10SM CLR 17/09 A3008 720 60 1200 070/07 RMK AO2
14837KMSN MSN20120625010009306/25/12 01:00:31  5-MIN KMSN 250700Z 07008KT 10SM CLR 17/09 A3008 710 57 1200 070/08 RMK AO2
14837KMSN MSN20120625010509606/25/12 01:05:31  5-MIN KMSN 250705Z 06009KT 10SM FEW048 17/08 A3008 710 55 1200 060/09 RMK AO2
14837KMSN MSN20120625011009606/25/12 01:10:31  5-MIN KMSN 250710Z 06008KT 10SM SCT048 17/08 A3009 710 55 1200 070/08 RMK AO2
14837KMSN MSN20120625011509606/25/12 01:15:31  5-MIN KMSN 250715Z 07009KT 10SM SCT048 17/08 A3009 710 55 1200 070/09 RMK AO2
14837KMSN MSN20120625012009606/25/12 01:20:31  5-MIN KMSN 250720Z 07009KT 10SM BKN048 17/08 A3009 710 53 1200 070/09 RMK AO2
14837KMSN MSN20120625012509606/25/12 01:25:31  5-MIN KMSN 250725Z 07006KT 10SM BKN048 17/08 A3009 710 53 1200 070/06 RMK AO2
14837KMSN MSN20120625013009606/25/12 01:30:31  5-MIN KMSN 250730Z 06006KT 10SM BKN048 17/08 A3009 700 55 1100 060/06 RMK AO2
14837KMSN MSN20120625013509606/25/12 01:35:31  5-MIN KMSN 250735Z 06006KT 10SM SCT048 17/07 A3009 710 53 1100 060/06 RMK AO2
14837KMSN MSN20120625014010206/25/12 01:40:31  5-MIN KMSN 250740Z 07012G15KT 10SM SCT048 17/07 A3009 700 53 1100 070/12G15 RMK AO2
14837KMSN MSN20120625014509606/25/12 01:45:31  5-MIN KMSN 250745Z 07009KT 10SM FEW048 16/07 A3010 700 53 1000 070/09 RMK AO2
14837KMSN MSN20120625015011306/25/12 01:50:31  5-MIN KMSN 250750Z 07007KT 10SM FEW048 16/07 A3010 700 53 1000 080/07 RMK AO2 SLP186 T01610067
14837KMSN MSN20120625015509306/25/12 01:55:31  5-MIN KMSN 250755Z 07006KT 10SM CLR 16/07 A3010 700 53 1000 070/06 RMK AO2
14837KMSN MSN20120625020009306/25/12 02:00:31  5-MIN KMSN 250800Z 07008KT 10SM CLR 16/07 A3010 700 53 1000 070/08 RMK AO2
14837KMSN MSN20120625020509306/25/12 02:05:31  5-MIN KMSN 250805Z 07006KT 10SM CLR 16/07 A3010 700 55 1000 070/06 RMK AO2
14837KMSN MSN20120625021009306/25/12 02:10:31  5-MIN KMSN 250810Z 06005KT 10SM CLR 16/07 A3010 700 55 1000 070/05 RMK AO2
14837KMSN MSN20120625021509306/25/12 02:15:31  5-MIN KMSN 250815Z 06006KT 10SM CLR 16/07 A3010 690 55 1000 060/06 RMK AO2
14837KMSN MSN20120625022009306/25/12 02:20:31  5-MIN KMSN 250820Z 05005KT 10SM CLR 16/07 A3011 690 55 1000 060/05 RMK AO2
14837KMSN MSN20120625022509206/25/12 02:25:31  5-MIN KMSN 250825Z 06005KT 10SM CLR 15/07 A3011 690 57 900 060/05 RMK AO2
14837KMSN MSN20120625023009206/25/12 02:30:31  5-MIN KMSN 250830Z 06006KT 10SM CLR 15/07 A3010 700 57 900 070/06 RMK AO2
14837KMSN MSN20120625023509206/25/12 02:35:31  5-MIN KMSN 250835Z 06008KT 10SM CLR 15/07 A3011 690 57 900 060/08 RMK AO2
14837KMSN MSN20120625024009206/25/12 02:40:31  5-MIN KMSN 250840Z 06007KT 10SM CLR 15/07 A3011 690 57 900 060/07 RMK AO2
14837KMSN MSN20120625024509206/25/12 02:45:31  5-MIN KMSN 250845Z 05008KT 10SM CLR 15/07 A3011 690 57 900 050/08 RMK AO2
14837KMSN MSN20120625025011506/25/12 02:50:31  5-MIN KMSN 250850Z 05007KT 10SM CLR 14/07 A3011 690 61 800 050/07 RMK AO2 SLP190 T01440072 51019
14837KMSN MSN20120625025509206/25/12 02:55:31  5-MIN KMSN 250855Z 05007KT 10SM CLR 14/07 A3011 690 64 800 050/07 RMK AO2
14837KMSN MSN20120625030009206/25/12 03:00:31  5-MIN KMSN 250900Z 05006KT 10SM CLR 14/07 A3011 690 64 800 050/06 RMK AO2
14837KMSN MSN20120625030509206/25/12 03:05:31  5-MIN KMSN 250905Z 03004KT 10SM CLR 13/07 A3011 690 66 700 040/04 RMK AO2
14837KMSN MSN20120625031009206/25/12 03:10:31  5-MIN KMSN 250910Z 04007KT 10SM CLR 14/07 A3011 690 64 800 040/07 RMK AO2
14837KMSN MSN20120625031509206/25/12 03:15:31  5-MIN KMSN 250915Z 04007KT 10SM CLR 14/07 A3011 690 64 800 050/07 RMK AO2
14837KMSN MSN20120625032009206/25/12 03:20:31  5-MIN KMSN 250920Z 05007KT 10SM CLR 14/07 A3012 680 64 800 050/07 RMK AO2
14837KMSN MSN20120625032509206/25/12 03:25:31  5-MIN KMSN 250925Z 05007KT 10SM CLR 13/07 A3012 680 66 700 050/07 RMK AO2
14837KMSN MSN20120625033009206/25/12 03:30:31  5-MIN KMSN 250930Z 05007KT 10SM CLR 13/07 A3012 680 66 700 050/07 RMK AO2
14837KMSN MSN20120625033509206/25/12 03:35:31  5-MIN KMSN 250935Z 05006KT 10SM CLR 13/07 A3012 680 66 700 050/06 RMK AO2
14837KMSN MSN20120625034009206/25/12 03:40:31  5-MIN KMSN 250940Z 05006KT 10SM CLR 13/07 A3012 680 66 700 050/06 RMK AO2
14837KMSN MSN20120625034509206/25/12 03:45:31  5-MIN KMSN 250945Z 04007KT 10SM CLR 13/07 A3012 680 69 600 040/07 RMK AO2
14837KMSN MSN20120625035010906/25/12 03:50:31  5-MIN KMSN 250950Z 04006KT 10SM CLR 13/07 A3012 680 66 700 050/06 RMK AO2 SLP197 T01330072
14837KMSN MSN20120625035509206/25/12 03:55:31  5-MIN KMSN 250955Z 05006KT 10SM CLR 13/07 A3012 680 69 600 050/06 RMK AO2
14837KMSN MSN20120625040009206/25/12 04:00:31  5-MIN KMSN 251000Z 05006KT 10SM CLR 13/07 A3013 680 69 600 060/06 RMK AO2
14837KMSN MSN20120625040509206/25/12 04:05:31  5-MIN KMSN 251005Z 05005KT 10SM CLR 13/07 A3012 680 69 600 050/05 RMK AO2
14837KMSN MSN20120625041009206/25/12 04:10:31  5-MIN KMSN 251010Z 04005KT 10SM CLR 12/07 A3013 670 71 500 040/05 RMK AO2
14837KMSN MSN20120625041509206/25/12 04:15:31  5-MIN KMSN 251015Z 03005KT 10SM CLR 13/07 A3013 670 69 600 030/05 RMK AO2
14837KMSN MSN20120625042009206/25/12 04:20:31  5-MIN KMSN 251020Z 03006KT 10SM CLR 12/07 A3013 670 71 500 030/06 RMK AO2
14837KMSN MSN20120625042509206/25/12 04:25:31  5-MIN KMSN 251025Z 02006KT 10SM CLR 12/07 A3013 670 71 500 020/06 RMK AO2
14837KMSN MSN20120625043009206/25/12 04:30:31  5-MIN KMSN 251030Z 01006KT 10SM CLR 12/07 A3013 670 74 500 020/06 RMK AO2
14837KMSN MSN20120625043509206/25/12 04:35:31  5-MIN KMSN 251035Z 02005KT 10SM CLR 12/07 A3013 670 74 500 020/05 RMK AO2
14837KMSN MSN20120625044009206/25/12 04:40:31  5-MIN KMSN 251040Z 02006KT 10SM CLR 12/07 A3013 670 71 500 020/06 RMK AO2
14837KMSN MSN20120625044509206/25/12 04:45:31  5-MIN KMSN 251045Z 02005KT 10SM CLR 12/07 A3013 670 74 500 020/05 RMK AO2
14837KMSN MSN20120625045010906/25/12 04:50:31  5-MIN KMSN 251050Z 01005KT 10SM CLR 12/07 A3013 670 74 500 020/05 RMK AO2 SLP200 T01170072
14837KMSN MSN20120625045509206/25/12 04:55:31  5-MIN KMSN 251055Z 03006KT 10SM CLR 12/07 A3013 670 71 500 030/06 RMK AO2
14837KMSN MSN20120625050009206/25/12 05:00:31  5-MIN KMSN 251100Z 02004KT 10SM CLR 12/07 A3014 670 71 500 020/04 RMK AO2
14837KMSN MSN20120625050509206/25/12 05:05:31  5-MIN KMSN 251105Z 01004KT 10SM CLR 12/07 A3014 660 71 500 010/04 RMK AO2
14837KMSN MSN20120625051009206/25/12 05:10:31  5-MIN KMSN 251110Z 35003KT 10SM CLR 13/08 A3014 660 71 600 360/03 RMK AO2
14837KMSN MSN20120625051509206/25/12 05:15:31  5-MIN KMSN 251115Z 35003KT 10SM CLR 13/08 A3014 660 71 600 350/03 RMK AO2
14837KMSN MSN20120625052009206/25/12 05:20:31  5-MIN KMSN 251120Z 35003KT 10SM CLR 13/08 A3014 660 71 600 350/03 RMK AO2
14837KMSN MSN20120625052509206/25/12 05:25:31  5-MIN KMSN 251125Z 35004KT 10SM CLR 13/08 A3014 660 71 600 350/04 RMK AO2
14837KMSN MSN20120625053009206/25/12 05:30:31  5-MIN KMSN 251130Z 35004KT 10SM CLR 13/08 A3015 660 69 700 350/04 RMK AO2
14837KMSN MSN20120625053509206/25/12 05:35:31  5-MIN KMSN 251135Z 35004KT 10SM CLR 13/08 A3015 660 69 700 350/04 RMK AO2
14837KMSN MSN20120625054009206/25/12 05:40:31  5-MIN KMSN 251140Z 36004KT 10SM CLR 13/08 A3015 660 71 700 360/04 RMK AO2
14837KMSN MSN20120625054509206/25/12 05:45:31  5-MIN KMSN 251145Z 36003KT 10SM CLR 13/08 A3015 660 71 700 360/03 RMK AO2
14837KMSN MSN20120625055012706/25/12 05:50:31  5-MIN KMSN 251150Z 36005KT 10SM CLR 14/08 A3015 660 69 700 360/05 RMK AO2 SLP205 T01390083 10189 20117 52013
14837KMSN MSN20120625055509206/25/12 05:55:31  5-MIN KMSN 251155Z 36004KT 10SM CLR 14/08 A3015 660 69 700 360/04 RMK AO2
14837KMSN MSN20120625060009206/25/12 06:00:31  5-MIN KMSN 251200Z 36004KT 10SM CLR 14/09 A3015 660 71 700 360/04 RMK AO2
14837KMSN MSN20120625060509206/25/12 06:05:31  5-MIN KMSN 251205Z 01005KT 10SM CLR 14/09 A3015 650 69 800 010/05 RMK AO2
14837KMSN MSN20120625061009206/25/12 06:10:31  5-MIN KMSN 251210Z 01006KT 10SM CLR 15/09 A3015 650 66 800 010/06 RMK AO2
14837KMSN MSN20120625061509206/25/12 06:15:31  5-MIN KMSN 251215Z 03006KT 10SM CLR 16/09 A3015 660 64 900 030/06 RMK AO2
14837KMSN MSN20120625062009206/25/12 06:20:31  5-MIN KMSN 251220Z 03007KT 10SM CLR 16/09 A3015 650 64 900 030/07 RMK AO2
14837KMSN MSN20120625062509206/25/12 06:25:31  5-MIN KMSN 251225Z 03006KT 10SM CLR 16/09 A3015 650 64 900 030/06 RMK AO2
14837KMSN MSN20120625063009306/25/12 06:30:31  5-MIN KMSN 251230Z 04006KT 10SM CLR 16/09 A3015 650 62 1000 040/06 RMK AO2
14837KMSN MSN20120625063509306/25/12 06:35:31  5-MIN KMSN 251235Z 04007KT 10SM CLR 17/08 A3015 650 57 1000 040/07 RMK AO2
14837KMSN MSN20120625064009306/25/12 06:40:31  5-MIN KMSN 251240Z 04008KT 10SM CLR 17/08 A3015 650 57 1000 040/08 RMK AO2
14837KMSN MSN20120625064509306/25/12 06:45:31  5-MIN KMSN 251245Z 04008KT 10SM CLR 17/08 A3015 650 57 1000 050/08 RMK AO2
14837KMSN MSN20120625065011006/25/12 06:50:31  5-MIN KMSN 251250Z 05010KT 10SM CLR 17/08 A3015 650 55 1100 060/10 RMK AO2 SLP206 T01720083
14837KMSN MSN20120625065509306/25/12 06:55:31  5-MIN KMSN 251255Z 05009KT 10SM CLR 17/08 A3015 650 53 1100 050/09 RMK AO2
14837KMSN MSN20120625070009306/25/12 07:00:31  5-MIN KMSN 251300Z 04011KT 10SM CLR 17/08 A3015 650 53 1100 050/11 RMK AO2
14837KMSN MSN20120625070509306/25/12 07:05:31  5-MIN KMSN 251305Z 06009KT 10SM CLR 17/08 A3016 650 53 1100 060/09 RMK AO2
14837KMSN MSN20120625071009306/25/12 07:10:31  5-MIN KMSN 251310Z 04009KT 10SM CLR 18/08 A3016 640 53 1200 040/09 RMK AO2
14837KMSN MSN20120625071509306/25/12 07:15:31  5-MIN KMSN 251315Z 07008KT 10SM CLR 18/08 A3016 640 53 1200 070/08 RMK AO2
14837KMSN MSN20120625072009306/25/12 07:20:31  5-MIN KMSN 251320Z 05009KT 10SM CLR 18/08 A3016 650 51 1200 050/09 RMK AO2
14837KMSN MSN20120625072509306/25/12 07:25:31  5-MIN KMSN 251325Z 06009KT 10SM CLR 18/08 A3016 650 50 1200 060/09 RMK AO2
14837KMSN MSN20120625073009306/25/12 07:30:31  5-MIN KMSN 251330Z 07009KT 10SM CLR 18/08 A3016 640 50 1200 070/09 RMK AO2
14837KMSN MSN20120625073509306/25/12 07:35:31  5-MIN KMSN 251335Z 05011KT 10SM CLR 19/08 A3016 650 48 1300 050/11 RMK AO2
14837KMSN MSN20120625074009306/25/12 07:40:31  5-MIN KMSN 251340Z 05009KT 10SM CLR 18/08 A3016 650 50 1200 050/09 RMK AO2
14837KMSN MSN20120625074509306/25/12 07:45:31  5-MIN KMSN 251345Z 07009KT 10SM CLR 19/08 A3016 640 48 1300 070/09 RMK AO2
14837KMSN MSN20120625075011006/25/12 07:50:31  5-MIN KMSN 251350Z 06009KT 10SM CLR 19/08 A3016 650 48 1300 060/09 RMK AO2 SLP208 T01890078
14837KMSN MSN20120625075509906/25/12 07:55:31  5-MIN KMSN 251355Z 06012G16KT 10SM CLR 19/08 A3016 640 48 1300 060/12G16 RMK AO2
14837KMSN MSN20120625080009306/25/12 08:00:31  5-MIN KMSN 251400Z 06010KT 10SM CLR 19/08 A3016 640 48 1300 060/10 RMK AO2
14837KMSN MSN20120625080510906/25/12 08:05:31  5-MIN KMSN 251405Z 05009KT 020V080 10SM CLR 19/08 A3016 640 48 1400 050/09 020V080 RMK AO2
14837KMSN MSN20120625081009306/25/12 08:10:31  5-MIN KMSN 251410Z 04009KT 10SM CLR 19/08 A3016 650 48 1400 050/09 RMK AO2
14837KMSN MSN20120625081510906/25/12 08:15:31  5-MIN KMSN 251415Z 06007KT 030V090 10SM CLR 20/08 A3016 650 45 1400 060/07 030V090 RMK AO2
14837KMSN MSN20120625082009306/25/12 08:20:31  5-MIN KMSN 251420Z 05009KT 10SM CLR 20/08 A3016 650 45 1400 050/09 RMK AO2
14837KMSN MSN20120625082509306/25/12 08:25:31  5-MIN KMSN 251425Z 05009KT 10SM CLR 20/08 A3016 640 45 1400 050/09 RMK AO2
14837KMSN MSN20120625083009306/25/12 08:30:31  5-MIN KMSN 251430Z 04008KT 10SM CLR 21/08 A3016 640 45 1500 040/08 RMK AO2
14837KMSN MSN20120625083509306/25/12 08:35:31  5-MIN KMSN 251435Z 04008KT 10SM CLR 21/08 A3016 640 43 1500 050/08 RMK AO2
14837KMSN MSN20120625084009306/25/12 08:40:31  5-MIN KMSN 251440Z 06010KT 10SM CLR 21/08 A3016 650 43 1500 060/10 RMK AO2
14837KMSN MSN20120625084509306/25/12 08:45:31  5-MIN KMSN 251445Z 06008KT 10SM CLR 21/07 A3016 650 41 1500 070/08 RMK AO2
14837KMSN MSN20120625085012206/25/12 08:50:31  5-MIN KMSN 251450Z 05010G16KT 10SM CLR 21/08 A3016 650 43 1500 060/10G16 RMK AO2 SLP208 T02060078 51014
14837KMSN MSN20120625085509906/25/12 08:55:31  5-MIN KMSN 251455Z 03012G16KT 10SM CLR 21/07 A3015 650 40 1600 040/12G16 RMK AO2
14837KMSN MSN20120625090009306/25/12 09:00:31  5-MIN KMSN 251500Z 04010KT 10SM CLR 21/07 A3016 650 40 1500 040/10 RMK AO2
14837KMSN MSN20120625090509906/25/12 09:05:31  5-MIN KMSN 251505Z 04011G17KT 10SM CLR 21/07 A3016 650 40 1500 050/11G17 RMK AO2
14837KMSN MSN20120625091009906/25/12 09:10:31  5-MIN KMSN 251510Z 05007G17KT 10SM CLR 21/07 A3016 650 40 1500 050/07G17 RMK AO2
14837KMSN MSN20120625091509906/25/12 09:15:31  5-MIN KMSN 251515Z 04011G16KT 10SM CLR 22/08 A3016 650 40 1600 040/11G16 RMK AO2
14837KMSN MSN20120625092009906/25/12 09:20:31  5-MIN KMSN 251520Z 06009G16KT 10SM CLR 22/07 A3016 650 39 1600 060/09G16 RMK AO2
14837KMSN MSN20120625092509906/25/12 09:25:31  5-MIN KMSN 251525Z 08011G16KT 10SM CLR 22/07 A3016 650 37 1600 080/11G16 RMK AO2
14837KMSN MSN20120625093009306/25/12 09:30:31  5-MIN KMSN 251530Z 08012KT 10SM CLR 22/07 A3015 650 37 1600 080/12 RMK AO2
14837KMSN MSN20120625093509906/25/12 09:35:31  5-MIN KMSN 251535Z 08013G18KT 10SM CLR 22/07 A3015 650 37 1600 080/13G18 RMK AO2
14837KMSN MSN20120625094009906/25/12 09:40:31  5-MIN KMSN 251540Z 09010G18KT 10SM CLR 22/07 A3015 650 37 1600 090/10G18 RMK AO2
14837KMSN MSN20120625094509306/25/12 09:45:31  5-MIN KMSN 251545Z 04010KT 10SM CLR 22/07 A3015 650 37 1600 040/10 RMK AO2
14837KMSN MSN20120625095011006/25/12 09:50:31  5-MIN KMSN 251550Z 05010KT 10SM CLR 23/07 A3015 650 36 1700 060/10 RMK AO2 SLP207 T02280072
14837KMSN MSN20120625095509906/25/12 09:55:31  5-MIN KMSN 251555Z 08011G16KT 10SM CLR 22/06 A3015 650 36 1600 080/11G16 RMK AO2
14837KMSN MSN20120625100009306/25/12 10:00:31  5-MIN KMSN 251600Z 10010KT 10SM CLR 22/07 A3015 650 37 1600 110/10 RMK AO2
14837KMSN MSN20120625100509906/25/12 10:05:31  5-MIN KMSN 251605Z 10010G18KT 10SM CLR 22/06 A3015 650 36 1600 110/10G18 RMK AO2
14837KMSN MSN20120625101011506/25/12 10:10:31  5-MIN KMSN 251610Z 07010G18KT 040V100 10SM CLR 22/07 A3015 650 36 1700 070/10G18 040V100 RMK AO2
14837KMSN MSN20120625101509306/25/12 10:15:31  5-MIN KMSN 251615Z 07010KT 10SM CLR 23/06 A3015 650 33 1700 070/10 RMK AO2
14837KMSN MSN20120625102009306/25/12 10:20:31  5-MIN KMSN 251620Z 07008KT 10SM CLR 22/06 A3015 650 35 1700 070/08 RMK AO2
14837KMSN MSN20120625102509906/25/12 10:25:31  5-MIN KMSN 251625Z 06007G14KT 10SM CLR 22/06 A3015 650 35 1700 070/07G14 RMK AO2
14837KMSN MSN20120625103009906/25/12 10:30:31  5-MIN KMSN 251630Z 06009G17KT 10SM CLR 23/07 A3015 650 36 1700 060/09G17 RMK AO2
14837KMSN MSN20120625103509906/25/12 10:35:31  5-MIN KMSN 251635Z 08012G17KT 10SM CLR 22/07 A3014 660 36 1700 080/12G17 RMK AO2
14837KMSN MSN20120625104009906/25/12 10:40:31  5-MIN KMSN 251640Z 08010G15KT 10SM CLR 23/07 A3014 660 36 1800 080/10G15 RMK AO2
14837KMSN MSN20120625104509306/25/12 10:45:31  5-MIN KMSN 251645Z 10009KT 10SM CLR 22/07 A3014 660 37 1700 100/09 RMK AO2
14837KMSN MSN20120625105011606/25/12 10:50:31  5-MIN KMSN 251650Z 05012G16KT 10SM CLR 23/07 A3014 660 36 1800 050/12G16 RMK AO2 SLP202 T02280072
14837KMSN MSN20120625105509906/25/12 10:55:31  5-MIN KMSN 251655Z 06007G16KT 10SM CLR 23/07 A3014 660 35 1800 060/07G16 RMK AO2
14837KMSN MSN20120625110011506/25/12 11:00:31  5-MIN KMSN 251700Z 07007G15KT 030V110 10SM CLR 23/07 A3014 660 36 1800 070/07G15 030V110 RMK AO2
14837KMSN MSN20120625110511506/25/12 11:05:31  5-MIN KMSN 251705Z 08010G15KT 040V110 10SM CLR 23/08 A3014 660 36 1800 080/10G15 040V110 RMK AO2
14837KMSN MSN20120625111009906/25/12 11:10:31  5-MIN KMSN 251710Z 04009G15KT 10SM CLR 23/07 A3014 660 35 1800 040/09G15 RMK AO2
14837KMSN MSN20120625111509906/25/12 11:15:31  5-MIN KMSN 251715Z 04006G14KT 10SM CLR 23/07 A3014 660 33 1800 040/06G14 RMK AO2
14837KMSN MSN20120625112009906/25/12 11:20:31  5-MIN KMSN 251720Z 07007G15KT 10SM CLR 24/07 A3014 660 34 1900 070/07G15 RMK AO2
14837KMSN MSN20120625112509906/25/12 11:25:31  5-MIN KMSN 251725Z 04006G15KT 10SM CLR 23/07 A3014 660 35 1800 050/06G15 RMK AO2
14837KMSN MSN20120625113009906/25/12 11:30:31  5-MIN KMSN 251730Z 07011G16KT 10SM CLR 24/07 A3014 660 32 1900 080/11G16 RMK AO2
14837KMSN MSN20120625113509906/25/12 11:35:31  5-MIN KMSN 251735Z 07010G17KT 10SM CLR 24/07 A3014 660 32 1900 070/10G17 RMK AO2
14837KMSN MSN20120625114009906/25/12 11:40:31  5-MIN KMSN 251740Z 03006G15KT 10SM CLR 24/07 A3014 660 32 1900 030/06G15 RMK AO2
14837KMSN MSN20120625114509306/25/12 11:45:31  5-MIN KMSN 251745Z 09010KT 10SM CLR 23/07 A3014 660 33 1800 090/10 RMK AO2
14837KMSN MSN20120625115014406/25/12 11:50:31  5-MIN KMSN 251750Z 06008KT 030V100 10SM CLR 24/07 A3014 660 32 1900 060/08 030V100 RMK AO2 SLP201 T02390067 10239 20139 50002
14837KMSN MSN20120625115509906/25/12 11:55:31  5-MIN KMSN 251755Z 10007G14KT 10SM CLR 24/07 A3013 670 34 1900 100/07G14 RMK AO2
14837KMSN MSN20120625120009906/25/12 12:00:31  5-MIN KMSN 251800Z VRB06G14KT 10SM CLR 24/07 A3013 670 32 1900 VRB/06G14 RMK AO2
14837KMSN MSN20120625120511506/25/12 12:05:31  5-MIN KMSN 251805Z 10010G15KT 080V150 10SM CLR 24/07 A3013 670 34 1900 110/10G15 080V150 RMK AO2
14837KMSN MSN20120625121009906/25/12 12:10:31  5-MIN KMSN 251810Z 10009G15KT 10SM CLR 24/07 A3013 670 34 1900 100/09G15 RMK AO2
14837KMSN MSN20120625121509906/25/12 12:15:31  5-MIN KMSN 251815Z 10007G15KT 10SM CLR 23/07 A3013 670 35 1800 100/07G15 RMK AO2
14837KMSN MSN20120625122010906/25/12 12:20:31  5-MIN KMSN 251820Z 04007KT 010V080 10SM CLR 24/07 A3013 670 32 1900 040/07 010V080 RMK AO2
14837KMSN MSN20120625122509906/25/12 12:25:31  5-MIN KMSN 251825Z 09009G14KT 10SM CLR 24/07 A3013 670 33 2000 090/09G14 RMK AO2
14837KMSN MSN20120625123009306/25/12 12:30:31  5-MIN KMSN 251830Z 05009KT 10SM CLR 24/07 A3013 680 33 2000 050/09 RMK AO2
14837KMSN MSN20120625123509306/25/12 12:35:31  5-MIN KMSN 251835Z VRB05KT 10SM CLR 24/07 A3012 680 32 1900 VRB/05 RMK AO2
14837KMSN MSN20120625124009906/25/12 12:40:31  5-MIN KMSN 251840Z 08009G16KT 10SM CLR 24/07 A3012 680 33 2000 080/09G16 RMK AO2
14837KMSN MSN20120625124509906/25/12 12:45:31  5-MIN KMSN 251845Z 11008G16KT 10SM CLR 24/07 A3012 680 34 1900 120/08G16 RMK AO2
14837KMSN MSN20120625125011006/25/12 12:50:31  5-MIN KMSN 251850Z 05009KT 10SM CLR 24/07 A3012 680 31 2000 050/09 RMK AO2 SLP196 T02440067
14837KMSN MSN20120625125510906/25/12 12:55:31  5-MIN KMSN 251855Z 03007KT 010V080 10SM CLR 25/07 A3012 680 30 2000 040/07 010V080 RMK AO2
14837KMSN MSN20120625130009306/25/12 13:00:31  5-MIN KMSN 251900Z 07007KT 10SM CLR 25/07 A3011 690 30 2000 070/07 RMK AO2
14837KMSN MSN20120625130509906/25/12 13:05:31  5-MIN KMSN 251905Z 11008G15KT 10SM CLR 25/07 A3011 690 31 2000 110/08G15 RMK AO2
14837KMSN MSN20120625131009906/25/12 13:10:31  5-MIN KMSN 251910Z 07005G15KT 10SM CLR 24/07 A3011 690 33 2000 070/05G15 RMK AO2
14837KMSN MSN20120625131509306/25/12 13:15:31  5-MIN KMSN 251915Z 03008KT 10SM CLR 25/07 A3011 690 31 2000 040/08 RMK AO2
14837KMSN MSN20120625132009306/25/12 13:20:31  5-MIN KMSN 251920Z 02009KT 10SM CLR 25/07 A3011 690 31 2000 020/09 RMK AO2
14837KMSN MSN20120625132509306/25/12 13:25:31  5-MIN KMSN 251925Z 10010KT 10SM CLR 25/08 A3010 690 33 2000 100/10 RMK AO2
14837KMSN MSN20120625133009306/25/12 13:30:31  5-MIN KMSN 251930Z 05005KT 10SM CLR 24/07 A3010 700 33 2000 060/05 RMK AO2
14837KMSN MSN20120625133509906/25/12 13:35:31  5-MIN KMSN 251935Z 07011G14KT 10SM CLR 25/07 A3010 700 31 2100 070/11G14 RMK AO2
14837KMSN MSN20120625134009906/25/12 13:40:31  5-MIN KMSN 251940Z 10007G14KT 10SM CLR 25/07 A3010 700 31 2100 100/07G14 RMK AO2
14837KMSN MSN20120625134509906/25/12 13:45:31  5-MIN KMSN 251945Z 04011G14KT 10SM CLR 25/08 A3010 700 33 2100 040/11G14 RMK AO2
14837KMSN MSN20120625135011606/25/12 13:50:31  5-MIN KMSN 251950Z VRB06G14KT 10SM CLR 26/07 A3010 700 30 2100 VRB/06G14 RMK AO2 SLP188 T02560072
14837KMSN MSN20120625135509306/25/12 13:55:31  5-MIN KMSN 251955Z VRB05KT 10SM CLR 25/07 A3010 700 31 2100 VRB/05 RMK AO2
14837KMSN MSN20120625140009906/25/12 14:00:31  5-MIN KMSN 252000Z 09012G15KT 10SM CLR 25/08 A3010 700 33 2100 090/12G15 RMK AO2
14837KMSN MSN20120625140509906/25/12 14:05:31  5-MIN KMSN 252005Z 10008G15KT 10SM CLR 24/08 A3010 700 34 2000 100/08G15 RMK AO2
14837KMSN MSN20120625141009306/25/12 14:10:31  5-MIN KMSN 252010Z 09009KT 10SM CLR 25/08 A3010 700 33 2100 090/09 RMK AO2
14837KMSN MSN20120625141509306/25/12 14:15:31  5-MIN KMSN 252015Z 08005KT 10SM CLR 25/08 A3009 700 33 2100 090/05 RMK AO2
14837KMSN MSN20120625142009306/25/12 14:20:31  5-MIN KMSN 252020Z 05009KT 10SM CLR 26/08 A3009 700 32 2100 050/09 RMK AO2
14837KMSN MSN20120625142509306/25/12 14:25:31  5-MIN KMSN 252025Z 03009KT 10SM CLR 26/07 A3009 710 30 2100 030/09 RMK AO2
14837KMSN MSN20120625143009306/25/12 14:30:31  5-MIN KMSN 252030Z 08007KT 10SM CLR 26/07 A3009 710 30 2100 080/07 RMK AO2
14837KMSN MSN20120625143509906/25/12 14:35:31  5-MIN KMSN 252035Z 06008G14KT 10SM CLR 26/07 A3009 710 30 2100 060/08G14 RMK AO2
14837KMSN MSN20120625144009906/25/12 14:40:31  5-MIN KMSN 252040Z 07005G14KT 10SM CLR 26/07 A3009 710 30 2100 070/05G14 RMK AO2
14837KMSN MSN20120625144509306/25/12 14:45:31  5-MIN KMSN 252045Z 03007KT 10SM CLR 26/07 A3009 710 29 2200 030/07 RMK AO2
14837KMSN MSN20120625145011606/25/12 14:50:31  5-MIN KMSN 252050Z 06008KT 10SM CLR 26/07 A3008 710 30 2100 060/08 RMK AO2 SLP185 T02560072 58006
14837KMSN MSN20120625145509306/25/12 14:55:31  5-MIN KMSN 252055Z 10006KT 10SM CLR 26/07 A3009 710 30 2100 100/06 RMK AO2
14837KMSN MSN20120625150009306/25/12 15:00:31  5-MIN KMSN 252100Z 10006KT 10SM CLR 25/07 A3008 710 31 2100 100/06 RMK AO2
14837KMSN MSN20120625150509906/25/12 15:05:31  5-MIN KMSN 252105Z 09010G15KT 10SM CLR 26/08 A3008 710 32 2100 090/10G15 RMK AO2
14837KMSN MSN20120625151009906/25/12 15:10:31  5-MIN KMSN 252110Z 07010G15KT 10SM CLR 25/07 A3008 710 31 2100 070/10G15 RMK AO2
14837KMSN MSN20120625151509306/25/12 15:15:31  5-MIN KMSN 252115Z 10007KT 10SM CLR 25/07 A3008 710 31 2100 100/07 RMK AO2
14837KMSN MSN20120625152009306/25/12 15:20:31  5-MIN KMSN 252120Z 10007KT 10SM CLR 24/07 A3008 710 33 2000 110/07 RMK AO2
14837KMSN MSN20120625152509906/25/12 15:25:31  5-MIN KMSN 252125Z 07008G14KT 10SM CLR 25/08 A3008 710 33 2100 080/08G14 RMK AO2
14837KMSN MSN20120625153009306/25/12 15:30:31  5-MIN KMSN 252130Z VRB06KT 10SM CLR 26/07 A3008 710 29 2200 VRB/06 RMK AO2
14837KMSN MSN20120625153509306/25/12 15:35:31  5-MIN KMSN 252135Z 07009KT 10SM CLR 26/07 A3008 710 30 2100 070/09 RMK AO2
14837KMSN MSN20120625154009306/25/12 15:40:31  5-MIN KMSN 252140Z 06009KT 10SM CLR 26/07 A3008 720 29 2100 070/09 RMK AO2
14837KMSN MSN20120625154509306/25/12 15:45:31  5-MIN KMSN 252145Z 03006KT 10SM CLR 26/07 A3008 720 28 2200 030/06 RMK AO2
14837KMSN MSN20120625155011006/25/12 15:50:31  5-MIN KMSN 252150Z 03005KT 10SM CLR 26/07 A3008 720 29 2100 030/05 RMK AO2 SLP183 T02560067
14837KMSN MSN20120625155509306/25/12 15:55:31  5-MIN KMSN 252155Z 07007KT 10SM CLR 26/07 A3008 720 30 2100 070/07 RMK AO2
14837KMSN MSN20120625160009306/25/12 16:00:31  5-MIN KMSN 252200Z 08004KT 10SM CLR 26/07 A3008 720 29 2100 080/04 RMK AO2
14837KMSN MSN20120625160509306/25/12 16:05:31  5-MIN KMSN 252205Z 05007KT 10SM CLR 26/07 A3008 720 28 2200 050/07 RMK AO2
14837KMSN MSN20120625161009306/25/12 16:10:31  5-MIN KMSN 252210Z 05008KT 10SM CLR 26/07 A3008 720 29 2100 050/08 RMK AO2
14837KMSN MSN20120625161509306/25/12 16:15:31  5-MIN KMSN 252215Z 06006KT 10SM CLR 26/07 A3008 720 30 2100 060/06 RMK AO2
14837KMSN MSN20120625162009306/25/12 16:20:31  5-MIN KMSN 252220Z 08007KT 10SM CLR 26/07 A3008 720 30 2100 090/07 RMK AO2
14837KMSN MSN20120625162509306/25/12 16:25:31  5-MIN KMSN 252225Z 06006KT 10SM CLR 26/07 A3008 720 30 2100 060/06 RMK AO2
14837KMSN MSN20120625163009306/25/12 16:30:31  5-MIN KMSN 252230Z 02009KT 10SM CLR 26/07 A3008 720 30 2100 030/09 RMK AO2
14837KMSN MSN20120625163509306/25/12 16:35:31  5-MIN KMSN 252235Z VRB05KT 10SM CLR 26/07 A3008 720 30 2100 VRB/05 RMK AO2
14837KMSN MSN20120625164009306/25/12 16:40:31  5-MIN KMSN 252240Z 06009KT 10SM CLR 26/08 A3008 720 32 2100 060/09 RMK AO2
14837KMSN MSN20120625164509306/25/12 16:45:31  5-MIN KMSN 252245Z 09006KT 10SM CLR 25/08 A3007 720 33 2100 090/06 RMK AO2
14837KMSN MSN20120625165011006/25/12 16:50:31  5-MIN KMSN 252250Z 05008KT 10SM CLR 25/08 A3007 720 33 2100 050/08 RMK AO2 SLP182 T02500078
14837KMSN MSN20120625165509306/25/12 16:55:31  5-MIN KMSN 252255Z 05008KT 10SM CLR 25/08 A3007 720 33 2100 050/08 RMK AO2
14837KMSN MSN20120625170009906/25/12 17:00:31  5-MIN KMSN 252300Z VRB04G14KT 10SM CLR 25/08 A3007 730 33 2100 VRB/04G14 RMK AO2
14837KMSN MSN20120625170509306/25/12 17:05:31  5-MIN KMSN 252305Z 08006KT 10SM CLR 25/08 A3007 730 33 2100 080/06 RMK AO2
14837KMSN MSN20120625171009306/25/12 17:10:31  5-MIN KMSN 252310Z 10008KT 10SM CLR 24/08 A3007 730 35 2000 100/08 RMK AO2
14837KMSN MSN20120625171509306/25/12 17:15:31  5-MIN KMSN 252315Z 09007KT 10SM CLR 24/08 A3007 730 34 2000 090/07 RMK AO2
14837KMSN MSN20120625172009306/25/12 17:20:31  5-MIN KMSN 252320Z 05009KT 10SM CLR 25/08 A3007 720 33 2100 050/09 RMK AO2
14837KMSN MSN20120625172509306/25/12 17:25:31  5-MIN KMSN 252325Z 07007KT 10SM CLR 25/08 A3007 720 33 2100 070/07 RMK AO2
14837KMSN MSN20120625173009306/25/12 17:30:31  5-MIN KMSN 252330Z 08008KT 10SM CLR 24/08 A3007 730 34 2000 080/08 RMK AO2
14837KMSN MSN20120625173509306/25/12 17:35:31  5-MIN KMSN 252335Z 09008KT 10SM CLR 24/08 A3007 730 36 2000 090/08 RMK AO2
14837KMSN MSN20120625174009306/25/12 17:40:31  5-MIN KMSN 252340Z 07011KT 10SM CLR 24/08 A3006 730 35 2000 080/11 RMK AO2
14837KMSN MSN20120625174509906/25/12 17:45:31  5-MIN KMSN 252345Z 09007G15KT 10SM CLR 24/08 A3006 730 34 2000 090/07G15 RMK AO2
14837KMSN MSN20120625175012806/25/12 17:50:31  5-MIN KMSN 252350Z 06006KT 10SM CLR 24/08 A3007 730 34 2000 060/06 RMK AO2 SLP178 T02440078 10261 20233 56016
14837KMSN MSN20120625175509306/25/12 17:55:31  5-MIN KMSN 252355Z 07009KT 10SM CLR 24/08 A3006 730 35 2000 070/09 RMK AO2
14837KMSN MSN20120625180009306/25/12 18:00:31  5-MIN KMSN 260000Z 08009KT 10SM CLR 24/08 A3007 730 36 2000 080/09 RMK AO2
14837KMSN MSN20120625180509306/25/12 18:05:31  5-MIN KMSN 260005Z 07005KT 10SM CLR 24/08 A3007 730 35 2000 080/05 RMK AO2
14837KMSN MSN20120625181009306/25/12 18:10:31  5-MIN KMSN 260010Z 07006KT 10SM CLR 24/08 A3007 730 36 2000 070/06 RMK AO2
14837KMSN MSN20120625181509306/25/12 18:15:31  5-MIN KMSN 260015Z 06007KT 10SM CLR 24/08 A3007 730 36 2000 060/07 RMK AO2
14837KMSN MSN20120625182009306/25/12 18:20:31  5-MIN KMSN 260020Z 06008KT 10SM CLR 24/08 A3007 730 36 2000 060/08 RMK AO2
14837KMSN MSN20120625182509306/25/12 18:25:31  5-MIN KMSN 260025Z 07007KT 10SM CLR 23/08 A3007 730 38 1900 070/07 RMK AO2
14837KMSN MSN20120625183009306/25/12 18:30:31  5-MIN KMSN 260030Z 07008KT 10SM CLR 23/09 A3007 730 39 1900 070/08 RMK AO2
14837KMSN MSN20120625183509306/25/12 18:35:31  5-MIN KMSN 260035Z 08007KT 10SM CLR 23/09 A3007 730 40 1800 080/07 RMK AO2
14837KMSN MSN20120625184009306/25/12 18:40:31  5-MIN KMSN 260040Z 08008KT 10SM CLR 23/09 A3007 730 40 1800 080/08 RMK AO2
14837KMSN MSN20120625184509306/25/12 18:45:31  5-MIN KMSN 260045Z 09006KT 10SM CLR 23/09 A3007 730 40 1800 090/06 RMK AO2
14837KMSN MSN20120625185011006/25/12 18:50:31  5-MIN KMSN 260050Z 07006KT 10SM CLR 23/08 A3007 730 39 1800 080/06 RMK AO2 SLP180 T02280083
14837KMSN MSN20120625185509306/25/12 18:55:31  5-MIN KMSN 260055Z 08008KT 10SM CLR 22/08 A3007 720 40 1800 080/08 RMK AO2
14837KMSN MSN20120625190009306/25/12 19:00:31  5-MIN KMSN 260100Z 07007KT 10SM CLR 22/08 A3007 730 40 1800 070/07 RMK AO2
14837KMSN MSN20120625190509306/25/12 19:05:31  5-MIN KMSN 260105Z 07007KT 10SM CLR 22/08 A3007 730 42 1700 070/07 RMK AO2
14837KMSN MSN20120625191009306/25/12 19:10:31  5-MIN KMSN 260110Z 06005KT 10SM CLR 22/08 A3007 730 42 1700 070/05 RMK AO2
14837KMSN MSN20120625191509306/25/12 19:15:31  5-MIN KMSN 260115Z 06004KT 10SM CLR 21/09 A3007 730 45 1600 070/04 RMK AO2
14837KMSN MSN20120625192009306/25/12 19:20:31  5-MIN KMSN 260120Z 06005KT 10SM CLR 21/09 A3007 730 46 1600 070/05 RMK AO2
14837KMSN MSN20120625192509306/25/12 19:25:31  5-MIN KMSN 260125Z 05004KT 10SM CLR 21/09 A3007 730 46 1600 050/04 RMK AO2
14837KMSN MSN20120625193009306/25/12 19:30:31  5-MIN KMSN 260130Z 08005KT 10SM CLR 20/09 A3007 730 48 1500 080/05 RMK AO2
14837KMSN MSN20120625193509306/25/12 19:35:31  5-MIN KMSN 260135Z 10007KT 10SM CLR 20/08 A3007 730 46 1500 100/07 RMK AO2
14837KMSN MSN20120625194009306/25/12 19:40:31  5-MIN KMSN 260140Z 08007KT 10SM CLR 20/08 A3007 730 45 1500 080/07 RMK AO2
14837KMSN MSN20120625194509306/25/12 19:45:31  5-MIN KMSN 260145Z 10006KT 10SM CLR 20/07 A3007 720 43 1500 100/06 RMK AO2
14837KMSN MSN20120625195011006/25/12 19:50:31  5-MIN KMSN 260150Z 09006KT 10SM CLR 19/07 A3007 720 44 1500 100/06 RMK AO2 SLP180 T01940072
14837KMSN MSN20120625195509306/25/12 19:55:31  5-MIN KMSN 260155Z 09006KT 10SM CLR 19/07 A3007 720 46 1400 090/06 RMK AO2
14837KMSN MSN20120625200009306/25/12 20:00:31  5-MIN KMSN 260200Z 10006KT 10SM CLR 19/07 A3008 720 46 1400 100/06 RMK AO2
14837KMSN MSN20120625200509306/25/12 20:05:31  5-MIN KMSN 260205Z 10006KT 10SM CLR 19/07 A3008 720 46 1400 110/06 RMK AO2
14837KMSN MSN20120625201009306/25/12 20:10:31  5-MIN KMSN 260210Z 10008KT 10SM CLR 19/07 A3008 720 46 1400 110/08 RMK AO2
14837KMSN MSN20120625201509306/25/12 20:15:31  5-MIN KMSN 260215Z 11008KT 10SM CLR 19/07 A3007 720 46 1400 120/08 RMK AO2
14837KMSN MSN20120625202009306/25/12 20:20:31  5-MIN KMSN 260220Z 12008KT 10SM CLR 18/07 A3007 720 48 1300 120/08 RMK AO2
14837KMSN MSN20120625202509306/25/12 20:25:31  5-MIN KMSN 260225Z 11009KT 10SM CLR 18/07 A3008 720 48 1300 110/09 RMK AO2
14837KMSN MSN20120625203009306/25/12 20:30:31  5-MIN KMSN 260230Z 11008KT 10SM CLR 18/07 A3008 720 48 1300 110/08 RMK AO2
14837KMSN MSN20120625203509306/25/12 20:35:31  5-MIN KMSN 260235Z 10008KT 10SM CLR 18/07 A3008 720 48 1300 110/08 RMK AO2
14837KMSN MSN20120625205509306/25/12 20:55:31  5-MIN KMSN 260255Z 11007KT 10SM CLR 17/07 A3009 710 51 1200 120/07 RMK AO2
14837KMSN MSN20120625210009306/25/12 21:00:31  5-MIN KMSN 260300Z 12005KT 10SM CLR 17/07 A3009 700 53 1100 120/05 RMK AO2
14837KMSN MSN20120625210509306/25/12 21:05:31  5-MIN KMSN 260305Z 11007KT 10SM CLR 17/07 A3009 700 53 1100 110/07 RMK AO2
14837KMSN MSN20120625211009306/25/12 21:10:31  5-MIN KMSN 260310Z 11006KT 10SM CLR 17/07 A3009 700 53 1100 110/06 RMK AO2
14837KMSN MSN20120625211509306/25/12 21:15:31  5-MIN KMSN 260315Z 11006KT 10SM CLR 17/07 A3010 700 53 1100 110/06 RMK AO2
14837KMSN MSN20120625212009306/25/12 21:20:31  5-MIN KMSN 260320Z 11006KT 10SM CLR 17/07 A3010 700 53 1100 120/06 RMK AO2
14837KMSN MSN20120625212509306/25/12 21:25:31  5-MIN KMSN 260325Z 11007KT 10SM CLR 16/07 A3010 700 53 1000 110/07 RMK AO2
14837KMSN MSN20120625213009306/25/12 21:30:31  5-MIN KMSN 260330Z 10005KT 10SM CLR 16/07 A3010 700 53 1000 110/05 RMK AO2
14837KMSN MSN20120625213509306/25/12 21:35:31  5-MIN KMSN 260335Z 09004KT 10SM CLR 17/07 A3010 700 51 1100 090/04 RMK AO2
14837KMSN MSN20120625214009306/25/12 21:40:31  5-MIN KMSN 260340Z 07003KT 10SM CLR 17/07 A3010 700 51 1100 070/03 RMK AO2
14837KMSN MSN20120625214509306/25/12 21:45:31  5-MIN KMSN 260345Z 09003KT 10SM CLR 16/07 A3009 700 53 1000 090/03 RMK AO2
14837KMSN MSN20120625215011006/25/12 21:50:31  5-MIN KMSN 260350Z 09003KT 10SM CLR 16/07 A3009 700 55 1000 090/03 RMK AO2 SLP187 T01560067
14837KMSN MSN20120625215509306/25/12 21:55:31  5-MIN KMSN 260355Z 00000KT 10SM CLR 16/07 A3009 710 57 1000 000/00 RMK AO2
14837KMSN MSN20120625220009306/25/12 22:00:31  5-MIN KMSN 260400Z 00000KT 10SM CLR 16/07 A3009 710 53 1000 000/00 RMK AO2
14837KMSN MSN20120625220509306/25/12 22:05:31  5-MIN KMSN 260405Z 00000KT 10SM CLR 16/07 A3009 710 55 1000 000/00 RMK AO2
14837KMSN MSN20120625221009206/25/12 22:10:31  5-MIN KMSN 260410Z 00000KT 10SM CLR 14/07 A3009 710 64 800 000/00 RMK AO2
14837KMSN MSN20120625221509206/25/12 22:15:31  5-MIN KMSN 260415Z 00000KT 10SM CLR 14/07 A3009 710 64 800 000/00 RMK AO2
14837KMSN MSN20120625222009206/25/12 22:20:31  5-MIN KMSN 260420Z 00000KT 10SM CLR 14/07 A3009 710 64 800 000/00 RMK AO2
14837KMSN MSN20120625222509206/25/12 22:25:31  5-MIN KMSN 260425Z 00000KT 10SM CLR 14/07 A3009 710 64 800 000/00 RMK AO2
14837KMSN MSN20120625223009206/25/12 22:30:31  5-MIN KMSN 260430Z 00000KT 10SM CLR 14/07 A3009 710 64 800 000/00 RMK AO2
14837KMSN MSN20120625223509206/25/12 22:35:31  5-MIN KMSN 260435Z 00000KT 10SM CLR 14/07 A3009 700 64 800 000/00 RMK AO2
14837KMSN MSN20120625224009206/25/12 22:40:31  5-MIN KMSN 260440Z 00000KT 10SM CLR 13/07 A3009 710 66 700 000/00 RMK AO2
14837KMSN MSN20120625224509206/25/12 22:45:31  5-MIN KMSN 260445Z 00000KT 10SM CLR 13/07 A3009 710 66 700 000/00 RMK AO2
14837KMSN MSN20120625225010906/25/12 22:50:31  5-MIN KMSN 260450Z 00000KT 10SM CLR 13/07 A3009 710 66 700 000/00 RMK AO2 SLP188 T01330072
14837KMSN MSN20120625225509206/25/12 22:55:31  5-MIN KMSN 260455Z 00000KT 10SM CLR 13/07 A3009 710 66 700 000/00 RMK AO2
14837KMSN MSN20120625230009206/25/12 23:00:31  5-MIN KMSN 260500Z 00000KT 10SM CLR 13/07 A3009 710 69 700 000/00 RMK AO2
14837KMSN MSN20120625230509206/25/12 23:05:31  5-MIN KMSN 260505Z 00000KT 10SM CLR 13/07 A3009 710 69 700 000/00 RMK AO2
14837KMSN MSN20120625231009206/25/12 23:10:31  5-MIN KMSN 260510Z 00000KT 10SM CLR 13/07 A3009 710 69 700 000/00 RMK AO2
14837KMSN MSN20120625231509206/25/12 23:15:31  5-MIN KMSN 260515Z 00000KT 10SM CLR 13/07 A3008 710 69 700 000/00 RMK AO2
14837KMSN MSN20120625232009206/25/12 23:20:31  5-MIN KMSN 260520Z 00000KT 10SM CLR 13/07 A3008 720 66 700 000/00 RMK AO2
14837KMSN MSN20120625232509206/25/12 23:25:31  5-MIN KMSN 260525Z 00000KT 10SM CLR 13/07 A3008 720 66 700 000/00 RMK AO2
14837KMSN MSN20120625233009206/25/12 23:30:31  5-MIN KMSN 260530Z 08003KT 10SM CLR 13/07 A3008 720 69 700 080/03 RMK AO2
14837KMSN MSN20120625233509206/25/12 23:35:31  5-MIN KMSN 260535Z 00000KT 10SM CLR 12/07 A3008 720 71 600 000/00 RMK AO2
14837KMSN MSN20120625234009206/25/12 23:40:31  5-MIN KMSN 260540Z 00000KT 10SM CLR 13/07 A3008 720 69 700 000/00 RMK AO2
14837KMSN MSN20120625234509206/25/12 23:45:31  5-MIN KMSN 260545Z 00000KT 10SM CLR 12/07 A3007 720 71 600 000/00 RMK AO2
14837KMSN MSN20120625235013706/25/12 23:50:31  5-MIN KMSN 260550Z 00000KT 10SM CLR 13/07 A3007 730 69 700 000/00 RMK AO2 SLP180 T01280072 10244 20122 402610117 53008
14837KMSN MSN20120625235509206/25/12 23:55:31  5-MIN KMSN 260555Z 00000KT 10SM CLR 13/07 A3007 720 69 700 000/00 RMK AO2
14837KMSN MSN20120626000009206/26/12 00:00:32  5-MIN KMSN 260600Z 00000KT 10SM CLR 11/07 A3008 720 77 500 000/00 RMK AO2
14837KMSN MSN20120626000509206/26/12 00:05:31  5-MIN KMSN 260605Z 00000KT 10SM CLR 12/07 A3007 720 74 500 000/00 RMK AO2
14837KMSN MSN20120626001008406/26/12 00:10:31  5-MIN KMSN 260610Z 10SM CLR 12/07 A3007 720 74 500 M /M RMK AO2 $
14837KMSN MSN20120626001508406/26/12 00:15:31  5-MIN KMSN 260615Z 10SM CLR 12/07 A3007 720 71 600 M /M RMK AO2 $
14837KMSN MSN20120626002008406/26/12 00:20:31  5-MIN KMSN 260620Z 10SM CLR 12/08 A3007 720 77 500 M /M RMK AO2 $
14837KMSN MSN20120626002508406/26/12 00:25:31  5-MIN KMSN 260625Z 10SM CLR 11/08 A3007 720 80 500 M /M RMK AO2 $
14837KMSN MSN20120626003008406/26/12 00:30:31  5-MIN KMSN 260630Z 10SM CLR 11/07 A3007 720 77 500 M /M RMK AO2 $
14837KMSN MSN20120626003508406/26/12 00:35:31  5-MIN KMSN 260635Z 10SM CLR 11/07 A3007 720 77 500 M /M RMK AO2 $
14837KMSN MSN20120626004008406/26/12 00:40:31  5-MIN KMSN 260640Z 10SM CLR 11/07 A3007 730 77 500 M /M RMK AO2 $
14837KMSN MSN20120626004508406/26/12 00:45:31  5-MIN KMSN 260645Z 10SM CLR 11/08 A3007 730 80 500 M /M RMK AO2 $
14837KMSN MSN20120626005011106/26/12 00:50:31  5-MIN KMSN 260650Z 00000KT 10SM CLR 11/08 A3007 720 83 400 000/00 RMK AO2 SLP181 T01060078 $
14837KMSN MSN20120626005508406/26/12 00:55:31  5-MIN KMSN 260655Z 10SM CLR 11/08 A3007 730 83 400 M /M RMK AO2 $
14837KMSN MSN20120626010008406/26/12 01:00:31  5-MIN KMSN 260700Z 10SM CLR 11/07 A3007 730 80 400 M /M RMK AO2 $
14837KMSN MSN20120626010508406/26/12 01:05:31  5-MIN KMSN 260705Z 10SM CLR 11/07 A3007 730 80 400 M /M RMK AO2 $
14837KMSN MSN20120626011009406/26/12 01:10:31  5-MIN KMSN 260710Z 00000KT 10SM CLR 11/07 A3007 730 80 400 000/00 RMK AO2 $
14837KMSN MSN20120626011509406/26/12 01:15:31  5-MIN KMSN 260715Z 00000KT 10SM CLR 11/07 A3007 730 80 400 000/00 RMK AO2 $
14837KMSN MSN20120626012009406/26/12 01:20:31  5-MIN KMSN 260720Z 00000KT 10SM CLR 11/07 A3007 730 80 400 000/00 RMK AO2 $
14837KMSN MSN20120626012509406/26/12 01:25:31  5-MIN KMSN 260725Z 00000KT 10SM CLR 11/07 A3007 730 80 400 000/00 RMK AO2 $
14837KMSN MSN20120626013009406/26/12 01:30:31  5-MIN KMSN 260730Z 00000KT 10SM CLR 10/08 A3007 730 86 300 000/00 RMK AO2 $
14837KMSN MSN20120626013509406/26/12 01:35:31  5-MIN KMSN 260735Z 00000KT 10SM CLR 10/07 A3007 730 83 300 000/00 RMK AO2 $
14837KMSN MSN20120626014009406/26/12 01:40:31  5-MIN KMSN 260740Z 00000KT 10SM CLR 10/07 A3006 730 83 300 000/00 RMK AO2 $
14837KMSN MSN20120626014509406/26/12 01:45:31  5-MIN KMSN 260745Z 00000KT 10SM CLR 10/07 A3006 730 83 300 000/00 RMK AO2 $
14837KMSN MSN20120626015011106/26/12 01:50:31  5-MIN KMSN 260750Z 00000KT 10SM CLR 10/07 A3006 730 83 300 000/00 RMK AO2 SLP178 T01000072 $
14837KMSN MSN20120626015509406/26/12 01:55:31  5-MIN KMSN 260755Z 00000KT 10SM CLR 10/07 A3006 740 83 400 000/00 RMK AO2 $
14837KMSN MSN20120626020009406/26/12 02:00:31  5-MIN KMSN 260800Z 00000KT 10SM CLR 10/07 A3006 730 83 400 000/00 RMK AO2 $
14837KMSN MSN20120626020509406/26/12 02:05:31  5-MIN KMSN 260805Z 00000KT 10SM CLR 10/08 A3006 730 86 300 000/00 RMK AO2 $
14837KMSN MSN20120626021009406/26/12 02:10:31  5-MIN KMSN 260810Z 00000KT 10SM CLR 10/08 A3006 730 86 300 000/00 RMK AO2 $
14837KMSN MSN20120626021509406/26/12 02:15:31  5-MIN KMSN 260815Z 34003KT 10SM CLR 09/07 A3006 730 89 200 340/03 RMK AO2 $
14837KMSN MSN20120626022009406/26/12 02:20:31  5-MIN KMSN 260820Z 33003KT 10SM CLR 09/07 A3006 730 86 300 330/03 RMK AO2 $
14837KMSN MSN20120626022509406/26/12 02:25:31  5-MIN KMSN 260825Z 00000KT 10SM CLR 09/07 A3006 730 86 300 000/00 RMK AO2 $
14837KMSN MSN20120626023009406/26/12 02:30:31  5-MIN KMSN 260830Z 00000KT 10SM CLR 09/07 A3006 730 86 300 000/00 RMK AO2 $
14837KMSN MSN20120626023509406/26/12 02:35:31  5-MIN KMSN 260835Z 34003KT 10SM CLR 09/07 A3006 730 86 300 340/03 RMK AO2 $
14837KMSN MSN20120626024009406/26/12 02:40:31  5-MIN KMSN 260840Z 34004KT 10SM CLR 09/07 A3007 730 89 200 350/04 RMK AO2 $
14837KMSN MSN20120626024509406/26/12 02:45:31  5-MIN KMSN 260845Z 35004KT 10SM CLR 09/07 A3007 730 86 300 350/04 RMK AO2 $
14837KMSN MSN20120626025011706/26/12 02:50:31  5-MIN KMSN 260850Z 34003KT 10SM CLR 09/07 A3007 730 86 300 350/03 RMK AO2 SLP179 T00940072 58006 $
14837KMSN MSN20120626025509406/26/12 02:55:31  5-MIN KMSN 260855Z 34003KT 10SM CLR 09/07 A3007 730 89 200 340/03 RMK AO2 $
14837KMSN MSN20120626030009406/26/12 03:00:31  5-MIN KMSN 260900Z 32003KT 10SM CLR 09/07 A3007 730 86 300 320/03 RMK AO2 $
14837KMSN MSN20120626030509406/26/12 03:05:31  5-MIN KMSN 260905Z 31003KT 10SM CLR 09/07 A3007 730 86 200 310/03 RMK AO2 $
14837KMSN MSN20120626031009406/26/12 03:10:31  5-MIN KMSN 260910Z 00000KT 10SM CLR 09/07 A3007 730 86 200 000/00 RMK AO2 $
14837KMSN MSN20120626031509406/26/12 03:15:31  5-MIN KMSN 260915Z 00000KT 10SM CLR 09/07 A3007 730 89 200 000/00 RMK AO2 $
14837KMSN MSN20120626032009406/26/12 03:20:31  5-MIN KMSN 260920Z 00000KT 10SM CLR 09/07 A3007 730 89 200 000/00 RMK AO2 $
14837KMSN MSN20120626032509406/26/12 03:25:31  5-MIN KMSN 260925Z 00000KT 10SM CLR 09/07 A3007 730 86 300 000/00 RMK AO2 $
14837KMSN MSN20120626033009406/26/12 03:30:31  5-MIN KMSN 260930Z 00000KT 10SM CLR 09/07 A3007 730 86 300 000/00 RMK AO2 $
14837KMSN MSN20120626033509406/26/12 03:35:31  5-MIN KMSN 260935Z 00000KT 10SM CLR 09/07 A3007 730 86 300 000/00 RMK AO2 $
14837KMSN MSN20120626034009406/26/12 03:40:31  5-MIN KMSN 260940Z 00000KT 10SM CLR 09/07 A3007 730 86 300 000/00 RMK AO2 $
14837KMSN MSN20120626034509406/26/12 03:45:31  5-MIN KMSN 260945Z 00000KT 10SM CLR 09/07 A3007 730 89 200 000/00 RMK AO2 $
14837KMSN MSN20120626035011106/26/12 03:50:31  5-MIN KMSN 260950Z 00000KT 10SM CLR 09/07 A3007 730 86 200 000/00 RMK AO2 SLP182 T00890067 $
14837KMSN MSN20120626035509406/26/12 03:55:31  5-MIN KMSN 260955Z 00000KT 10SM CLR 09/07 A3007 720 86 200 000/00 RMK AO2 $
14837KMSN MSN20120626040009406/26/12 04:00:31  5-MIN KMSN 261000Z 00000KT 10SM CLR 09/07 A3007 730 86 200 000/00 RMK AO2 $
14837KMSN MSN20120626040509406/26/12 04:05:31  5-MIN KMSN 261005Z 00000KT 10SM CLR 09/07 A3007 720 89 200 000/00 RMK AO2 $
14837KMSN MSN20120626041009406/26/12 04:10:31  5-MIN KMSN 261010Z 00000KT 10SM CLR 09/07 A3007 720 89 200 000/00 RMK AO2 $
14837KMSN MSN20120626041509406/26/12 04:15:31  5-MIN KMSN 261015Z 00000KT 10SM CLR 08/07 A3007 720 89 100 000/00 RMK AO2 $
14837KMSN MSN20120626042009406/26/12 04:20:31  5-MIN KMSN 261020Z 35003KT 10SM CLR 08/07 A3007 720 89 100 350/03 RMK AO2 $
14837KMSN MSN20120626042509406/26/12 04:25:31  5-MIN KMSN 261025Z 33003KT 10SM CLR 08/07 A3007 720 93 100 330/03 RMK AO2 $
14837KMSN MSN20120626043009406/26/12 04:30:31  5-MIN KMSN 261030Z 00000KT 10SM CLR 08/07 A3007 720 89 100 000/00 RMK AO2 $
14837KMSN MSN20120626043509406/26/12 04:35:31  5-MIN KMSN 261035Z 00000KT 10SM CLR 08/07 A3007 720 89 100 000/00 RMK AO2 $
14837KMSN MSN20120626044009406/26/12 04:40:31  5-MIN KMSN 261040Z 00000KT 10SM CLR 08/07 A3008 720 89 100 000/00 RMK AO2 $
14837KMSN MSN20120626044509406/26/12 04:45:31  5-MIN KMSN 261045Z 00000KT 10SM CLR 08/07 A3008 720 89 100 000/00 RMK AO2 $
14837KMSN MSN20120626045011106/26/12 04:50:31  5-MIN KMSN 261050Z 00000KT 10SM CLR 08/07 A3008 720 89 100 000/00 RMK AO2 SLP184 T00830067 $
14837KMSN MSN20120626045509406/26/12 04:55:31  5-MIN KMSN 261055Z 00000KT 10SM CLR 09/07 A3007 720 89 200 000/00 RMK AO2 $
14837KMSN MSN20120626050009406/26/12 05:00:31  5-MIN KMSN 261100Z 01004KT 10SM CLR 09/07 A3007 720 86 300 010/04 RMK AO2 $
14837KMSN MSN20120626050509406/26/12 05:05:31  5-MIN KMSN 261105Z 32003KT 10SM CLR 09/07 A3008 720 86 200 320/03 RMK AO2 $
14837KMSN MSN20120626051009406/26/12 05:10:31  5-MIN KMSN 261110Z 00000KT 10SM CLR 09/07 A3008 720 86 300 000/00 RMK AO2 $
14837KMSN MSN20120626051509406/26/12 05:15:31  5-MIN KMSN 261115Z 00000KT 10SM CLR 09/07 A3008 720 86 300 000/00 RMK AO2 $
14837KMSN MSN20120626052009406/26/12 05:20:31  5-MIN KMSN 261120Z 00000KT 10SM CLR 10/08 A3008 720 86 300 000/00 RMK AO2 $
14837KMSN MSN20120626052509406/26/12 05:25:31  5-MIN KMSN 261125Z 00000KT 10SM CLR 11/08 A3008 720 83 400 000/00 RMK AO2 $
14837KMSN MSN20120626053009406/26/12 05:30:31  5-MIN KMSN 261130Z 33003KT 10SM CLR 11/08 A3009 710 83 400 330/03 RMK AO2 $
14837KMSN MSN20120626053509406/26/12 05:35:31  5-MIN KMSN 261135Z 00000KT 10SM CLR 11/08 A3009 710 80 500 000/00 RMK AO2 $
14837KMSN MSN20120626054009406/26/12 05:40:31  5-MIN KMSN 261140Z 00000KT 10SM CLR 12/08 A3009 710 80 500 000/00 RMK AO2 $
14837KMSN MSN20120626054509406/26/12 05:45:31  5-MIN KMSN 261145Z 00000KT 10SM CLR 12/08 A3009 710 77 600 000/00 RMK AO2 $
14837KMSN MSN20120626055012906/26/12 05:50:31  5-MIN KMSN 261150Z 00000KT 10SM CLR 13/08 A3009 710 74 700 000/00 RMK AO2 SLP186 T01280083 10133 20078 55001 $
14837KMSN MSN20120626055509406/26/12 05:55:31  5-MIN KMSN 261155Z 00000KT 10SM CLR 13/09 A3009 710 77 700 000/00 RMK AO2 $
14837KMSN MSN20120626060009406/26/12 06:00:31  5-MIN KMSN 261200Z 00000KT 10SM CLR 13/09 A3008 710 74 700 000/00 RMK AO2 $
14837KMSN MSN20120626060509406/26/12 06:05:31  5-MIN KMSN 261205Z 00000KT 10SM CLR 14/08 A3008 720 69 800 000/00 RMK AO2 $
14837KMSN MSN20120626061009406/26/12 06:10:31  5-MIN KMSN 261210Z 00000KT 10SM CLR 15/08 A3008 720 64 900 000/00 RMK AO2 $
14837KMSN MSN20120626061509206/26/12 06:15:31  5-MIN KMSN 261215Z 00000KT 10SM CLR 15/08 A3007 720 64 900 000/00 RMK AO2
14837KMSN MSN20120626062009306/26/12 06:20:31  5-MIN KMSN 261220Z 00000KT 10SM CLR 16/09 A3008 720 64 1000 000/00 RMK AO2
14837KMSN MSN20120626062509306/26/12 06:25:31  5-MIN KMSN 261225Z 00000KT 10SM CLR 16/09 A3008 720 62 1100 000/00 RMK AO2
14837KMSN MSN20120626063009306/26/12 06:30:31  5-MIN KMSN 261230Z 00000KT 10SM CLR 16/09 A3008 720 62 1100 000/00 RMK AO2
14837KMSN MSN20120626063509306/26/12 06:35:31  5-MIN KMSN 261235Z 00000KT 10SM CLR 17/09 A3008 720 60 1100 000/00 RMK AO2
14837KMSN MSN20120626064009306/26/12 06:40:31  5-MIN KMSN 261240Z 11004KT 10SM CLR 17/09 A3008 710 60 1200 120/04 RMK AO2
14837KMSN MSN20120626064509306/26/12 06:45:31  5-MIN KMSN 261245Z 12004KT 10SM CLR 17/09 A3009 710 57 1200 120/04 RMK AO2
14837KMSN MSN20120626065011006/26/12 06:50:31  5-MIN KMSN 261250Z 14004KT 10SM CLR 18/09 A3010 700 58 1200 140/04 RMK AO2 SLP188 T01780094
14837KMSN MSN20120626065509306/26/12 06:55:31  5-MIN KMSN 261255Z 13005KT 10SM CLR 18/10 A3010 700 60 1200 130/05 RMK AO2
14837KMSN MSN20120626070009306/26/12 07:00:31  5-MIN KMSN 261300Z VRB04KT 10SM CLR 18/09 A3010 700 56 1300 VRB/04 RMK AO2
14837KMSN MSN20120626070509306/26/12 07:05:31  5-MIN KMSN 261305Z 14006KT 10SM CLR 18/09 A3010 700 56 1300 140/06 RMK AO2
14837KMSN MSN20120626071009306/26/12 07:10:31  5-MIN KMSN 261310Z 13006KT 10SM CLR 18/09 A3010 700 56 1300 130/06 RMK AO2
14837KMSN MSN20120626071509306/26/12 07:15:31  5-MIN KMSN 261315Z 14007KT 10SM CLR 19/09 A3010 700 54 1400 140/07 RMK AO2
14837KMSN MSN20120626072009306/26/12 07:20:31  5-MIN KMSN 261320Z 12005KT 10SM CLR 19/09 A3010 700 54 1400 120/05 RMK AO2
14837KMSN MSN20120626072509306/26/12 07:25:31  5-MIN KMSN 261325Z 15006KT 10SM CLR 19/09 A3010 700 54 1400 150/06 RMK AO2
14837KMSN MSN20120626073009306/26/12 07:30:31  5-MIN KMSN 261330Z 14008KT 10SM CLR 19/09 A3010 700 52 1400 140/08 RMK AO2
14837KMSN MSN20120626073509306/26/12 07:35:31  5-MIN KMSN 261335Z 13009KT 10SM CLR 19/09 A3010 700 52 1400 130/09 RMK AO2
14837KMSN MSN20120626074009306/26/12 07:40:31  5-MIN KMSN 261340Z 14009KT 10SM CLR 19/09 A3010 700 52 1400 140/09 RMK AO2
14837KMSN MSN20120626074509306/26/12 07:45:31  5-MIN KMSN 261345Z 15007KT 10SM CLR 19/09 A3010 700 52 1400 150/07 RMK AO2
14837KMSN MSN20120626075011006/26/12 07:50:31  5-MIN KMSN 261350Z 14005KT 10SM CLR 19/09 A3010 700 52 1400 140/05 RMK AO2 SLP190 T01940094
14837KMSN MSN20120626075509306/26/12 07:55:31  5-MIN KMSN 261355Z 12006KT 10SM CLR 20/10 A3010 700 52 1500 130/06 RMK AO2
14837KMSN MSN20120626080009306/26/12 08:00:31  5-MIN KMSN 261400Z 14006KT 10SM CLR 19/09 A3010 690 52 1400 140/06 RMK AO2
14837KMSN MSN20120626080509306/26/12 08:05:31  5-MIN KMSN 261405Z 14005KT 10SM CLR 20/09 A3010 700 50 1500 140/05 RMK AO2
14837KMSN MSN20120626081009306/26/12 08:10:31  5-MIN KMSN 261410Z 10006KT 10SM CLR 20/10 A3010 700 52 1500 100/06 RMK AO2
14837KMSN MSN20120626081509306/26/12 08:15:31  5-MIN KMSN 261415Z 15007KT 10SM CLR 21/10 A3010 700 50 1500 160/07 RMK AO2
14837KMSN MSN20120626082009306/26/12 08:20:31  5-MIN KMSN 261420Z 13004KT 10SM CLR 21/09 A3010 700 48 1500 140/04 RMK AO2
14837KMSN MSN20120626082509306/26/12 08:25:31  5-MIN KMSN 261425Z 14006KT 10SM CLR 21/10 A3009 700 50 1600 140/06 RMK AO2
14837KMSN MSN20120626083009306/26/12 08:30:31  5-MIN KMSN 261430Z 16004KT 10SM CLR 21/10 A3009 700 50 1600 160/04 RMK AO2
14837KMSN MSN20120626083509306/26/12 08:35:31  5-MIN KMSN 261435Z 16007KT 10SM CLR 22/10 A3010 700 47 1700 160/07 RMK AO2
14837KMSN MSN20120626084009306/26/12 08:40:31  5-MIN KMSN 261440Z 15006KT 10SM CLR 21/09 A3010 700 47 1600 150/06 RMK AO2
14837KMSN MSN20120626084509306/26/12 08:45:31  5-MIN KMSN 261445Z 15005KT 10SM CLR 21/09 A3010 700 47 1600 150/05 RMK AO2
14837KMSN MSN20120626085011606/26/12 08:50:31  5-MIN KMSN 261450Z 19004KT 10SM CLR 21/09 A3010 700 47 1600 190/04 RMK AO2 SLP190 T02110094 53007
14837KMSN MSN20120626085509306/26/12 08:55:31  5-MIN KMSN 261455Z 18004KT 10SM CLR 22/09 A3010 700 45 1700 180/04 RMK AO2
14837KMSN MSN20120626090009306/26/12 09:00:31  5-MIN KMSN 261500Z 14005KT 10SM CLR 22/09 A3010 700 45 1700 150/05 RMK AO2
14837KMSN MSN20120626090509306/26/12 09:05:31  5-MIN KMSN 261505Z 13005KT 10SM CLR 22/10 A3009 710 47 1700 140/05 RMK AO2
14837KMSN MSN20120626091009306/26/12 09:10:31  5-MIN KMSN 261510Z 00000KT 10SM CLR 22/09 A3009 710 45 1700 000/00 RMK AO2
14837KMSN MSN20120626091509306/26/12 09:15:31  5-MIN KMSN 261515Z VRB04KT 10SM CLR 22/09 A3009 710 43 1700 VRB/04 RMK AO2
14837KMSN MSN20120626092009306/26/12 09:20:31  5-MIN KMSN 261520Z 15005KT 10SM CLR 22/09 A3009 710 43 1800 150/05 RMK AO2
14837KMSN MSN20120626092509306/26/12 09:25:31  5-MIN KMSN 261525Z VRB03KT 10SM CLR 23/08 A3009 710 39 1800 VRB/03 RMK AO2
14837KMSN MSN20120626093009306/26/12 09:30:31  5-MIN KMSN 261530Z 16007KT 10SM CLR 23/09 A3009 710 40 1800 160/07 RMK AO2
14837KMSN MSN20120626093509306/26/12 09:35:31  5-MIN KMSN 261535Z 17005KT 10SM CLR 23/09 A3008 710 40 1800 170/05 RMK AO2
14837KMSN MSN20120626094009306/26/12 09:40:31  5-MIN KMSN 261540Z 18007KT 10SM CLR 23/08 A3008 710 39 1800 180/07 RMK AO2
14837KMSN MSN20120626094509306/26/12 09:45:31  5-MIN KMSN 261545Z 19007KT 10SM CLR 23/08 A3008 720 38 1900 190/07 RMK AO2
14837KMSN MSN20120626095011006/26/12 09:50:31  5-MIN KMSN 261550Z 19005KT 10SM CLR 23/09 A3008 720 39 1900 190/05 RMK AO2 SLP182 T02330089
14837KMSN MSN20120626095509306/26/12 09:55:31  5-MIN KMSN 261555Z 18004KT 10SM CLR 23/09 A3008 720 39 1900 180/04 RMK AO2
14837KMSN MSN20120626100009306/26/12 10:00:31  5-MIN KMSN 261600Z 17007KT 10SM CLR 24/09 A3007 720 38 2000 170/07 RMK AO2
14837KMSN MSN20120626100509306/26/12 10:05:31  5-MIN KMSN 261605Z 17010KT 10SM CLR 23/09 A3007 720 39 1900 170/10 RMK AO2
14837KMSN MSN20120626101009306/26/12 10:10:31  5-MIN KMSN 261610Z 16008KT 10SM CLR 24/09 A3007 730 38 2000 160/08 RMK AO2
14837KMSN MSN20120626101509306/26/12 10:15:31  5-MIN KMSN 261615Z 19008KT 10SM CLR 24/09 A3007 730 38 2000 190/08 RMK AO2
14837KMSN MSN20120626102009306/26/12 10:20:31  5-MIN KMSN 261620Z 18006KT 10SM CLR 24/09 A3007 730 38 2000 180/06 RMK AO2
14837KMSN MSN20120626102509306/26/12 10:25:31  5-MIN KMSN 261625Z 15009KT 10SM CLR 24/09 A3006 730 36 2000 150/09 RMK AO2
14837KMSN MSN20120626103009906/26/12 10:30:31  5-MIN KMSN 261630Z 18010G15KT 10SM CLR 24/08 A3006 730 36 2000 180/10G15 RMK AO2
14837KMSN MSN20120626103509306/26/12 10:35:31  5-MIN KMSN 261635Z 18010KT 10SM CLR 24/08 A3006 730 34 2000 190/10 RMK AO2
14837KMSN MSN20120626104009306/26/12 10:40:31  5-MIN KMSN 261640Z 16008KT 10SM CLR 24/08 A3006 740 35 2000 160/08 RMK AO2
14837KMSN MSN20120626104509906/26/12 10:45:31  5-MIN KMSN 261645Z 16011G16KT 10SM CLR 24/08 A3006 740 35 2000 160/11G16 RMK AO2
14837KMSN MSN20120626105011606/26/12 10:50:31  5-MIN KMSN 261650Z 17008G16KT 10SM CLR 24/09 A3005 740 36 2000 170/08G16 RMK AO2 SLP175 T02440089
14837KMSN MSN20120626105509906/26/12 10:55:31  5-MIN KMSN 261655Z 16010G17KT 10SM CLR 25/08 A3005 740 34 2100 160/10G17 RMK AO2
14837KMSN MSN20120626110009906/26/12 11:00:31  5-MIN KMSN 261700Z 15008G17KT 10SM CLR 24/08 A3006 740 34 2000 150/08G17 RMK AO2
14837KMSN MSN20120626110509306/26/12 11:05:31  5-MIN KMSN 261705Z 17010KT 10SM CLR 25/08 A3005 740 34 2100 170/10 RMK AO2
14837KMSN MSN20120626111009906/26/12 11:10:31  5-MIN KMSN 261710Z 18005G14KT 10SM CLR 25/09 A3005 740 35 2100 180/05G14 RMK AO2
14837KMSN MSN20120626111510906/26/12 11:15:31  5-MIN KMSN 261715Z 17007KT 130V220 10SM CLR 25/09 A3005 750 35 2100 170/07 130V220 RMK AO2
14837KMSN MSN20120626112009306/26/12 11:20:31  5-MIN KMSN 261720Z 18008KT 10SM CLR 26/09 A3005 750 34 2200 180/08 RMK AO2
14837KMSN MSN20120626112510906/26/12 11:25:31  5-MIN KMSN 261725Z 17008KT 150V210 10SM CLR 25/09 A3005 750 35 2100 170/08 150V210 RMK AO2
14837KMSN MSN20120626113010906/26/12 11:30:31  5-MIN KMSN 261730Z 17008KT 120V180 10SM CLR 26/09 A3004 750 34 2200 170/08 120V180 RMK AO2
14837KMSN MSN20120626113510906/26/12 11:35:31  5-MIN KMSN 261735Z 19008KT 150V220 10SM CLR 26/09 A3004 750 35 2200 190/08 150V220 RMK AO2
14837KMSN MSN20120626114009306/26/12 11:40:31  5-MIN KMSN 261740Z 18004KT 10SM CLR 26/09 A3004 750 34 2200 180/04 RMK AO2
14837KMSN MSN20120626114509306/26/12 11:45:31  5-MIN KMSN 261745Z 20009KT 10SM CLR 26/08 A3004 750 32 2200 200/09 RMK AO2
14837KMSN MSN20120626115012806/26/12 11:50:31  5-MIN KMSN 261750Z 18011KT 10SM CLR 26/08 A3004 750 31 2200 180/11 RMK AO2 SLP169 T02610078 10261 20128 50004
14837KMSN MSN20120626115509306/26/12 11:55:31  5-MIN KMSN 261755Z VRB04KT 10SM CLR 25/08 A3004 760 33 2100 VRB/04 RMK AO2
14837KMSN MSN20120626120009306/26/12 12:00:31  5-MIN KMSN 261800Z 17008KT 10SM CLR 26/08 A3003 760 32 2200 170/08 RMK AO2
14837KMSN MSN20120626120509306/26/12 12:05:31  5-MIN KMSN 261805Z 16005KT 10SM CLR 26/08 A3003 760 31 2300 170/05 RMK AO2
14837KMSN MSN20120626121009306/26/12 12:10:31  5-MIN KMSN 261810Z 19007KT 10SM CLR 26/08 A3003 760 32 2300 190/07 RMK AO2
14837KMSN MSN20120626121509306/26/12 12:15:31  5-MIN KMSN 261815Z 20009KT 10SM CLR 26/08 A3003 760 32 2300 200/09 RMK AO2
14837KMSN MSN20120626122009306/26/12 12:20:31  5-MIN KMSN 261820Z VRB06KT 10SM CLR 26/08 A3003 770 33 2200 VRB/06 RMK AO2
14837KMSN MSN20120626122509906/26/12 12:25:31  5-MIN KMSN 261825Z 17012G17KT 10SM CLR 27/09 A3002 770 32 2300 170/12G17 RMK AO2
14837KMSN MSN20120626123009906/26/12 12:30:31  5-MIN KMSN 261830Z 19011G17KT 10SM CLR 27/08 A3002 770 31 2300 190/11G17 RMK AO2
14837KMSN MSN20120626123509306/26/12 12:35:31  5-MIN KMSN 261835Z VRB05KT 10SM CLR 26/08 A3002 770 32 2300 VRB/05 RMK AO2
14837KMSN MSN20120626124009306/26/12 12:40:31  5-MIN KMSN 261840Z 15006KT 10SM CLR 26/08 A3001 780 32 2300 150/06 RMK AO2
14837KMSN MSN20120626124509306/26/12 12:45:31  5-MIN KMSN 261845Z 19006KT 10SM CLR 27/08 A3001 780 29 2300 190/06 RMK AO2
14837KMSN MSN20120626125011006/26/12 12:50:31  5-MIN KMSN 261850Z 17010KT 10SM CLR 27/08 A3001 780 29 2300 170/10 RMK AO2 SLP161 T02670078
14837KMSN MSN20120626125509306/26/12 12:55:31  5-MIN KMSN 261855Z 17009KT 10SM CLR 27/08 A3001 780 29 2300 170/09 RMK AO2
14837KMSN MSN20120626130009906/26/12 13:00:31  5-MIN KMSN 261900Z 17012G15KT 10SM CLR 27/07 A3000 790 28 2300 170/12G15 RMK AO2
14837KMSN MSN20120626130509906/26/12 13:05:31  5-MIN KMSN 261905Z 16011G15KT 10SM CLR 27/07 A3000 790 27 2400 160/11G15 RMK AO2
14837KMSN MSN20120626131009306/26/12 13:10:31  5-MIN KMSN 261910Z 17005KT 10SM CLR 27/08 A3000 790 31 2400 180/05 RMK AO2
14837KMSN MSN20120626131509906/26/12 13:15:31  5-MIN KMSN 261915Z 16009G14KT 10SM CLR 27/08 A3000 790 30 2400 160/09G14 RMK AO2
14837KMSN MSN20120626132009306/26/12 13:20:31  5-MIN KMSN 261920Z 16007KT 10SM CLR 27/08 A3000 790 30 2400 160/07 RMK AO2
14837KMSN MSN20120626132509906/26/12 13:25:31  5-MIN KMSN 261925Z 15010G16KT 10SM CLR 28/08 A2999 800 29 2500 150/10G16 RMK AO2
14837KMSN MSN20120626133009306/26/12 13:30:31  5-MIN KMSN 261930Z 16010KT 10SM CLR 28/09 A2999 800 30 2500 160/10 RMK AO2
14837KMSN MSN20120626133510906/26/12 13:35:31  5-MIN KMSN 261935Z 15007KT 120V180 10SM CLR 27/08 A2999 800 30 2400 150/07 120V180 RMK AO2
14837KMSN MSN20120626134009906/26/12 13:40:31  5-MIN KMSN 261940Z 16010G14KT 10SM CLR 28/08 A2999 800 29 2500 170/10G14 RMK AO2
14837KMSN MSN20120626134509906/26/12 13:45:31  5-MIN KMSN 261945Z 19007G14KT 10SM CLR 27/09 A2999 800 31 2400 190/07G14 RMK AO2
14837KMSN MSN20120626135011006/26/12 13:50:31  5-MIN KMSN 261950Z VRB06KT 10SM CLR 26/09 A2999 800 33 2300 VRB/06 RMK AO2 SLP152 T02610089
14837KMSN MSN20120626135509306/26/12 13:55:31  5-MIN KMSN 261955Z 18007KT 10SM CLR 27/09 A2999 800 32 2400 180/07 RMK AO2
14837KMSN MSN20120626140009306/26/12 14:00:31  5-MIN KMSN 262000Z 19006KT 10SM CLR 27/09 A2998 810 31 2400 190/06 RMK AO2
14837KMSN MSN20120626140509306/26/12 14:05:31  5-MIN KMSN 262005Z VRB06KT 10SM CLR 27/09 A2998 810 31 2400 VRB/06 RMK AO2
14837KMSN MSN20120626141009306/26/12 14:10:31  5-MIN KMSN 262010Z 21006KT 10SM CLR 27/08 A2998 810 30 2400 210/06 RMK AO2
14837KMSN MSN20120626141509306/26/12 14:15:31  5-MIN KMSN 262015Z 19006KT 10SM CLR 27/08 A2998 810 29 2400 190/06 RMK AO2
14837KMSN MSN20120626142009306/26/12 14:20:31  5-MIN KMSN 262020Z 16004KT 10SM CLR 28/08 A2997 820 29 2500 160/04 RMK AO2
14837KMSN MSN20120626142509306/26/12 14:25:31  5-MIN KMSN 262025Z VRB05KT 10SM CLR 28/08 A2997 820 29 2500 VRB/05 RMK AO2
14837KMSN MSN20120626143009306/26/12 14:30:31  5-MIN KMSN 262030Z 18008KT 10SM CLR 28/08 A2997 820 29 2500 180/08 RMK AO2
14837KMSN MSN20120626143509306/26/12 14:35:31  5-MIN KMSN 262035Z 18007KT 10SM CLR 28/08 A2996 820 29 2500 180/07 RMK AO2
14837KMSN MSN20120626144009306/26/12 14:40:31  5-MIN KMSN 262040Z 16011KT 10SM CLR 28/09 A2996 830 30 2500 160/11 RMK AO2
14837KMSN MSN20120626144509906/26/12 14:45:31  5-MIN KMSN 262045Z 18009G15KT 10SM CLR 28/08 A2995 840 28 2600 190/09G15 RMK AO2
14837KMSN MSN20120626145012206/26/12 14:50:31  5-MIN KMSN 262050Z 16013G16KT 10SM CLR 28/08 A2995 830 28 2600 160/13G16 RMK AO2 SLP141 T02830083 56021
14837KMSN MSN20120626145509906/26/12 14:55:31  5-MIN KMSN 262055Z 15007G16KT 10SM CLR 28/08 A2996 830 29 2500 150/07G16 RMK AO2
14837KMSN MSN20120626150009906/26/12 15:00:31  5-MIN KMSN 262100Z 17006G15KT 10SM CLR 28/08 A2996 820 29 2500 170/06G15 RMK AO2
14837KMSN MSN20120626150509906/26/12 15:05:31  5-MIN KMSN 262105Z 17009G15KT 10SM CLR 28/07 A2995 830 27 2500 170/09G15 RMK AO2
14837KMSN MSN20120626151010906/26/12 15:10:31  5-MIN KMSN 262110Z 17008KT 150V210 10SM CLR 28/08 A2996 830 28 2500 180/08 150V210 RMK AO2
14837KMSN MSN20120626151509906/26/12 15:15:31  5-MIN KMSN 262115Z 20007G14KT 10SM CLR 28/07 A2996 830 26 2600 200/07G14 RMK AO2
14837KMSN MSN20120626152009306/26/12 15:20:31  5-MIN KMSN 262120Z 18008KT 10SM CLR 28/08 A2996 830 28 2600 180/08 RMK AO2
14837KMSN MSN20120626152509306/26/12 15:25:31  5-MIN KMSN 262125Z 20007KT 10SM CLR 28/08 A2996 830 29 2500 200/07 RMK AO2
14837KMSN MSN20120626153009306/26/12 15:30:31  5-MIN KMSN 262130Z 17007KT 10SM CLR 28/08 A2995 830 29 2500 170/07 RMK AO2
14837KMSN MSN20120626153509306/26/12 15:35:31  5-MIN KMSN 262135Z 18006KT 10SM CLR 28/09 A2995 840 30 2500 180/06 RMK AO2
14837KMSN MSN20120626154009306/26/12 15:40:31  5-MIN KMSN 262140Z 19008KT 10SM CLR 28/09 A2995 840 30 2500 200/08 RMK AO2
14837KMSN MSN20120626154509306/26/12 15:45:31  5-MIN KMSN 262145Z 19007KT 10SM CLR 28/08 A2994 840 29 2500 200/07 RMK AO2
14837KMSN MSN20120626155011006/26/12 15:50:31  5-MIN KMSN 262150Z 20008KT 10SM CLR 28/09 A2994 840 30 2500 200/08 RMK AO2 SLP137 T02780089
14837KMSN MSN20120626155509306/26/12 15:55:31  5-MIN KMSN 262155Z 19008KT 10SM CLR 27/09 A2994 850 31 2500 190/08 RMK AO2
14837KMSN MSN20120626160009306/26/12 16:00:31  5-MIN KMSN 262200Z 19011KT 10SM CLR 27/08 A2994 850 30 2500 190/11 RMK AO2
14837KMSN MSN20120626160509306/26/12 16:05:31  5-MIN KMSN 262205Z 19008KT 10SM CLR 28/09 A2994 840 30 2500 190/08 RMK AO2
14837KMSN MSN20120626161009306/26/12 16:10:31  5-MIN KMSN 262210Z 18009KT 10SM CLR 28/09 A2995 840 30 2500 180/09 RMK AO2
14837KMSN MSN20120626161509306/26/12 16:15:31  5-MIN KMSN 262215Z 18008KT 10SM CLR 27/09 A2995 840 31 2500 190/08 RMK AO2
14837KMSN MSN20120626162009306/26/12 16:20:31  5-MIN KMSN 262220Z 20006KT 10SM CLR 28/09 A2995 840 30 2500 200/06 RMK AO2
14837KMSN MSN20120626162509306/26/12 16:25:31  5-MIN KMSN 262225Z 17008KT 10SM CLR 28/09 A2995 840 30 2500 170/08 RMK AO2
14837KMSN MSN20120626163009306/26/12 16:30:31  5-MIN KMSN 262230Z VRB04KT 10SM CLR 28/09 A2995 840 31 2500 VRB/04 RMK AO2
14837KMSN MSN20120626163509306/26/12 16:35:31  5-MIN KMSN 262235Z 18007KT 10SM CLR 28/09 A2995 840 31 2500 190/07 RMK AO2
14837KMSN MSN20120626164009306/26/12 16:40:31  5-MIN KMSN 262240Z VRB06KT 10SM CLR 27/09 A2995 840 32 2500 VRB/06 RMK AO2
14837KMSN MSN20120626164509306/26/12 16:45:31  5-MIN KMSN 262245Z 17008KT 10SM CLR 27/09 A2995 840 32 2500 170/08 RMK AO2
14837KMSN MSN20120626165011006/26/12 16:50:31  5-MIN KMSN 262250Z 20006KT 10SM CLR 27/09 A2995 840 32 2500 210/06 RMK AO2 SLP139 T02720094
14837KMSN MSN20120626165509306/26/12 16:55:31  5-MIN KMSN 262255Z 19005KT 10SM CLR 27/10 A2995 840 33 2500 190/05 RMK AO2
14837KMSN MSN20120626170009306/26/12 17:00:31  5-MIN KMSN 262300Z 17006KT 10SM CLR 27/09 A2995 840 32 2500 170/06 RMK AO2
14837KMSN MSN20120626170509306/26/12 17:05:31  5-MIN KMSN 262305Z 18008KT 10SM CLR 28/09 A2994 840 31 2500 180/08 RMK AO2
14837KMSN MSN20120626171009306/26/12 17:10:31  5-MIN KMSN 262310Z 17010KT 10SM CLR 27/09 A2994 850 32 2500 170/10 RMK AO2
14837KMSN MSN20120626171509306/26/12 17:15:31  5-MIN KMSN 262315Z 18008KT 10SM CLR 28/09 A2994 850 30 2500 180/08 RMK AO2
14837KMSN MSN20120626172009306/26/12 17:20:31  5-MIN KMSN 262320Z 19007KT 10SM CLR 27/09 A2994 850 31 2500 190/07 RMK AO2
14837KMSN MSN20120626172509306/26/12 17:25:31  5-MIN KMSN 262325Z 18007KT 10SM CLR 28/08 A2993 850 29 2600 190/07 RMK AO2
14837KMSN MSN20120626173009306/26/12 17:30:31  5-MIN KMSN 262330Z 17012KT 10SM CLR 28/09 A2993 850 31 2600 170/12 RMK AO2
14837KMSN MSN20120626173509306/26/12 17:35:31  5-MIN KMSN 262335Z 16011KT 10SM CLR 27/09 A2993 860 32 2500 170/11 RMK AO2
14837KMSN MSN20120626174009306/26/12 17:40:31  5-MIN KMSN 262340Z 17010KT 10SM CLR 27/09 A2992 860 31 2500 170/10 RMK AO2
14837KMSN MSN20120626174509306/26/12 17:45:31  5-MIN KMSN 262345Z 16010KT 10SM CLR 27/09 A2992 860 31 2500 160/10 RMK AO2
14837KMSN MSN20120626175012806/26/12 17:50:31  5-MIN KMSN 262350Z 17010KT 10SM CLR 28/09 A2992 860 30 2600 170/10 RMK AO2 SLP129 T02780089 10283 20250 58027
14837KMSN MSN20120626175509306/26/12 17:55:31  5-MIN KMSN 262355Z 17011KT 10SM CLR 28/09 A2993 860 30 2600 170/11 RMK AO2
14837KMSN MSN20120626180009306/26/12 18:00:31  5-MIN KMSN 270000Z 17010KT 10SM CLR 27/09 A2992 860 31 2500 170/10 RMK AO2
14837KMSN MSN20120626180509306/26/12 18:05:31  5-MIN KMSN 270005Z 17009KT 10SM CLR 27/09 A2992 860 31 2500 180/09 RMK AO2
14837KMSN MSN20120626181009306/26/12 18:10:31  5-MIN KMSN 270010Z 17008KT 10SM CLR 27/09 A2992 860 31 2500 170/08 RMK AO2
14837KMSN MSN20120626181509306/26/12 18:15:31  5-MIN KMSN 270015Z 17007KT 10SM CLR 27/09 A2993 860 31 2500 180/07 RMK AO2
14837KMSN MSN20120626182009306/26/12 18:20:31  5-MIN KMSN 270020Z 17009KT 10SM CLR 27/09 A2993 860 31 2500 180/09 RMK AO2
14837KMSN MSN20120626182509306/26/12 18:25:31  5-MIN KMSN 270025Z 18006KT 10SM CLR 27/09 A2992 860 31 2500 180/06 RMK AO2
14837KMSN MSN20120626183009306/26/12 18:30:31  5-MIN KMSN 270030Z 17007KT 10SM CLR 27/09 A2992 860 32 2400 170/07 RMK AO2
14837KMSN MSN20120626183509306/26/12 18:35:31  5-MIN KMSN 270035Z 17009KT 10SM CLR 27/09 A2992 860 32 2400 170/09 RMK AO2
14837KMSN MSN20120626184009306/26/12 18:40:31  5-MIN KMSN 270040Z 16009KT 10SM CLR 27/09 A2992 870 32 2400 160/09 RMK AO2
14837KMSN MSN20120626184509306/26/12 18:45:31  5-MIN KMSN 270045Z 16008KT 10SM CLR 27/09 A2992 870 32 2400 160/08 RMK AO2
14837KMSN MSN20120626185011006/26/12 18:50:31  5-MIN KMSN 270050Z 17008KT 10SM CLR 27/09 A2992 870 32 2400 170/08 RMK AO2 SLP127 T02670089
14837KMSN MSN20120626185509306/26/12 18:55:31  5-MIN KMSN 270055Z 16009KT 10SM CLR 27/09 A2992 870 32 2400 170/09 RMK AO2
14837KMSN MSN20120626190009306/26/12 19:00:31  5-MIN KMSN 270100Z 17009KT 10SM CLR 27/09 A2992 870 32 2400 170/09 RMK AO2
14837KMSN MSN20120626190509306/26/12 19:05:31  5-MIN KMSN 270105Z 17008KT 10SM CLR 27/09 A2992 870 32 2400 170/08 RMK AO2
14837KMSN MSN20120626191009306/26/12 19:10:31  5-MIN KMSN 270110Z 17008KT 10SM CLR 27/09 A2992 860 32 2400 170/08 RMK AO2
14837KMSN MSN20120626191509306/26/12 19:15:31  5-MIN KMSN 270115Z 18006KT 10SM CLR 26/09 A2992 860 33 2400 180/06 RMK AO2
14837KMSN MSN20120626192009306/26/12 19:20:31  5-MIN KMSN 270120Z 18006KT 10SM CLR 26/09 A2992 870 33 2400 180/06 RMK AO2
14837KMSN MSN20120626192509306/26/12 19:25:31  5-MIN KMSN 270125Z 18006KT 10SM CLR 26/09 A2992 870 34 2400 180/06 RMK AO2
14837KMSN MSN20120626193009306/26/12 19:30:31  5-MIN KMSN 270130Z 18004KT 10SM CLR 26/09 A2992 860 34 2400 180/04 RMK AO2
14837KMSN MSN20120626193509306/26/12 19:35:31  5-MIN KMSN 270135Z 18006KT 10SM CLR 26/09 A2992 870 35 2300 180/06 RMK AO2
14837KMSN MSN20120626194009306/26/12 19:40:31  5-MIN KMSN 270140Z 18005KT 10SM CLR 26/10 A2992 860 37 2300 190/05 RMK AO2
14837KMSN MSN20120626194509306/26/12 19:45:31  5-MIN KMSN 270145Z 18006KT 10SM CLR 26/10 A2992 870 37 2300 180/06 RMK AO2
14837KMSN MSN20120626195011006/26/12 19:50:31  5-MIN KMSN 270150Z 18004KT 10SM CLR 25/10 A2992 870 38 2300 180/04 RMK AO2 SLP126 T02500100
14837KMSN MSN20120626195509306/26/12 19:55:31  5-MIN KMSN 270155Z 18005KT 10SM CLR 25/11 A2992 870 39 2300 180/05 RMK AO2
14837KMSN MSN20120626200009306/26/12 20:00:31  5-MIN KMSN 270200Z 18004KT 10SM CLR 24/11 A2992 870 41 2200 180/04 RMK AO2
14837KMSN MSN20120626200509306/26/12 20:05:31  5-MIN KMSN 270205Z 18004KT 10SM CLR 24/11 A2992 860 41 2200 190/04 RMK AO2
14837KMSN MSN20120626201009306/26/12 20:10:31  5-MIN KMSN 270210Z 18004KT 10SM CLR 24/11 A2992 860 42 2200 180/04 RMK AO2
14837KMSN MSN20120626201509306/26/12 20:15:31  5-MIN KMSN 270215Z 18004KT 10SM CLR 24/11 A2992 860 44 2100 190/04 RMK AO2
14837KMSN MSN20120626202009306/26/12 20:20:31  5-MIN KMSN 270220Z 18004KT 10SM CLR 24/11 A2992 860 44 2100 190/04 RMK AO2
14837KMSN MSN20120626202509306/26/12 20:25:31  5-MIN KMSN 270225Z 19005KT 10SM CLR 24/11 A2992 860 42 2200 190/05 RMK AO2
14837KMSN MSN20120626203009306/26/12 20:30:31  5-MIN KMSN 270230Z 18005KT 10SM CLR 24/11 A2992 860 42 2200 190/05 RMK AO2
14837KMSN MSN20120626203509306/26/12 20:35:31  5-MIN KMSN 270235Z 17005KT 10SM CLR 24/11 A2992 860 44 2100 170/05 RMK AO2
14837KMSN MSN20120626204009306/26/12 20:40:31  5-MIN KMSN 270240Z 16005KT 10SM CLR 24/11 A2992 860 44 2100 160/05 RMK AO2
14837KMSN MSN20120626204509306/26/12 20:45:31  5-MIN KMSN 270245Z 17005KT 10SM CLR 24/11 A2993 860 42 2100 170/05 RMK AO2
14837KMSN MSN20120626205011606/26/12 20:50:31  5-MIN KMSN 270250Z 18004KT 10SM CLR 24/11 A2993 860 42 2100 180/04 RMK AO2 SLP129 T02390106 58009
14837KMSN MSN20120626205509306/26/12 20:55:31  5-MIN KMSN 270255Z 17005KT 10SM CLR 23/11 A2993 860 44 2100 170/05 RMK AO2
14837KMSN MSN20120626210009306/26/12 21:00:31  5-MIN KMSN 270300Z 18004KT 10SM CLR 23/11 A2993 860 44 2100 180/04 RMK AO2
14837KMSN MSN20120626210509306/26/12 21:05:31  5-MIN KMSN 270305Z 18005KT 10SM CLR 24/11 A2993 860 42 2100 180/05 RMK AO2
14837KMSN MSN20120626211009306/26/12 21:10:31  5-MIN KMSN 270310Z 18005KT 10SM CLR 23/11 A2993 860 44 2100 180/05 RMK AO2
14837KMSN MSN20120626211509306/26/12 21:15:31  5-MIN KMSN 270315Z 18005KT 10SM CLR 23/11 A2993 860 44 2100 180/05 RMK AO2
14837KMSN MSN20120626212009306/26/12 21:20:31  5-MIN KMSN 270320Z 18005KT 10SM CLR 23/11 A2993 860 44 2100 180/05 RMK AO2
14837KMSN MSN20120626212509306/26/12 21:25:31  5-MIN KMSN 270325Z 19005KT 10SM CLR 23/11 A2992 860 44 2100 190/05 RMK AO2
14837KMSN MSN20120626213009306/26/12 21:30:31  5-MIN KMSN 270330Z 17005KT 10SM CLR 23/11 A2992 860 44 2100 170/05 RMK AO2
14837KMSN MSN20120626213509306/26/12 21:35:31  5-MIN KMSN 270335Z 17006KT 10SM CLR 23/11 A2992 860 47 2000 170/06 RMK AO2
14837KMSN MSN20120626214009306/26/12 21:40:31  5-MIN KMSN 270340Z 17006KT 10SM CLR 23/11 A2992 860 47 2000 170/06 RMK AO2
14837KMSN MSN20120626214509306/26/12 21:45:31  5-MIN KMSN 270345Z 16005KT 10SM CLR 23/11 A2992 870 47 2000 170/05 RMK AO2
14837KMSN MSN20120626215011006/26/12 21:50:31  5-MIN KMSN 270350Z 16005KT 10SM CLR 23/11 A2992 870 47 2000 170/05 RMK AO2 SLP126 T02280111
14837KMSN MSN20120626215509306/26/12 21:55:31  5-MIN KMSN 270355Z 16007KT 10SM CLR 23/11 A2992 870 47 2000 160/07 RMK AO2
14837KMSN MSN20120626220009306/26/12 22:00:31  5-MIN KMSN 270400Z 14007KT 10SM CLR 23/11 A2992 860 47 2000 140/07 RMK AO2
14837KMSN MSN20120626220509306/26/12 22:05:31  5-MIN KMSN 270405Z 15009KT 10SM CLR 22/11 A2992 860 47 1900 160/09 RMK AO2
14837KMSN MSN20120626221009306/26/12 22:10:31  5-MIN KMSN 270410Z 14008KT 10SM CLR 22/11 A2992 870 49 1900 150/08 RMK AO2
14837KMSN MSN20120626221509306/26/12 22:15:31  5-MIN KMSN 270415Z 16007KT 10SM CLR 22/11 A2992 870 50 1900 170/07 RMK AO2
14837KMSN MSN20120626222009306/26/12 22:20:31  5-MIN KMSN 270420Z 17008KT 10SM CLR 22/11 A2992 870 49 1900 170/08 RMK AO2
14837KMSN MSN20120626222509306/26/12 22:25:31  5-MIN KMSN 270425Z 17007KT 10SM CLR 22/11 A2992 870 49 1900 170/07 RMK AO2
14837KMSN MSN20120626223009306/26/12 22:30:31  5-MIN KMSN 270430Z 18006KT 10SM CLR 22/11 A2992 870 49 1900 180/06 RMK AO2
14837KMSN MSN20120626223509306/26/12 22:35:31  5-MIN KMSN 270435Z 18007KT 10SM CLR 22/11 A2992 870 50 1900 190/07 RMK AO2
14837KMSN MSN20120626224009306/26/12 22:40:31  5-MIN KMSN 270440Z 18006KT 10SM CLR 22/11 A2992 870 50 1900 180/06 RMK AO2
14837KMSN MSN20120626224509306/26/12 22:45:31  5-MIN KMSN 270445Z 17006KT 10SM CLR 22/12 A2992 870 52 1900 170/06 RMK AO2
14837KMSN MSN20120626225011006/26/12 22:50:31  5-MIN KMSN 270450Z 17007KT 10SM CLR 22/12 A2992 870 52 1900 170/07 RMK AO2 SLP126 T02170117
14837KMSN MSN20120626225509306/26/12 22:55:31  5-MIN KMSN 270455Z 15006KT 10SM CLR 22/12 A2992 870 52 1900 150/06 RMK AO2
14837KMSN MSN20120626230009306/26/12 23:00:31  5-MIN KMSN 270500Z 14007KT 10SM CLR 21/12 A2992 860 54 1800 140/07 RMK AO2
14837KMSN MSN20120626230509306/26/12 23:05:31  5-MIN KMSN 270505Z 15007KT 10SM CLR 21/12 A2992 860 58 1800 160/07 RMK AO2
14837KMSN MSN20120626231009306/26/12 23:10:31  5-MIN KMSN 270510Z 15007KT 10SM CLR 21/12 A2992 870 58 1800 150/07 RMK AO2
14837KMSN MSN20120626231509306/26/12 23:15:31  5-MIN KMSN 270515Z 16008KT 10SM CLR 21/12 A2992 870 58 1800 160/08 RMK AO2
14837KMSN MSN20120626232009306/26/12 23:20:31  5-MIN KMSN 270520Z 16006KT 10SM CLR 21/12 A2992 870 58 1800 160/06 RMK AO2
14837KMSN MSN20120626232509306/26/12 23:25:31  5-MIN KMSN 270525Z 16006KT 10SM CLR 21/12 A2991 870 58 1800 170/06 RMK AO2
14837KMSN MSN20120626233009306/26/12 23:30:31  5-MIN KMSN 270530Z 17006KT 10SM CLR 21/12 A2992 870 58 1800 170/06 RMK AO2
14837KMSN MSN20120626233509306/26/12 23:35:31  5-MIN KMSN 270535Z 18005KT 10SM CLR 21/12 A2991 870 58 1800 180/05 RMK AO2
14837KMSN MSN20120626234009306/26/12 23:40:31  5-MIN KMSN 270540Z 17006KT 10SM CLR 20/12 A2991 870 60 1700 180/06 RMK AO2
14837KMSN MSN20120626234509306/26/12 23:45:31  5-MIN KMSN 270545Z 17006KT 10SM CLR 20/12 A2991 870 60 1700 170/06 RMK AO2
14837KMSN MSN20120626235013806/26/12 23:50:31  5-MIN KMSN 270550Z 17006KT 10SM CLR 20/12 A2992 870 60 1700 170/06 RMK AO2 SLP125 T02000122 10278 20200 402830078 53001
14837KMSN MSN20120626235509306/26/12 23:55:31  5-MIN KMSN 270555Z 17006KT 10SM CLR 20/12 A2992 870 60 1700 170/06 RMK AO2
14837KMSN MSN20120627000009306/27/12 00:00:32  5-MIN KMSN 270600Z 17007KT 10SM CLR 20/12 A2991 870 60 1700 170/07 RMK AO2
14837KMSN MSN20120627000509306/27/12 00:05:31  5-MIN KMSN 270605Z 17006KT 10SM CLR 20/12 A2991 870 60 1700 170/06 RMK AO2
14837KMSN MSN20120627001009306/27/12 00:10:31  5-MIN KMSN 270610Z 16006KT 10SM CLR 20/12 A2991 870 60 1700 160/06 RMK AO2
14837KMSN MSN20120627001509306/27/12 00:15:31  5-MIN KMSN 270615Z 16007KT 10SM CLR 19/12 A2991 870 62 1600 160/07 RMK AO2
14837KMSN MSN20120627002009306/27/12 00:20:31  5-MIN KMSN 270620Z 15006KT 10SM CLR 19/12 A2991 870 62 1600 160/06 RMK AO2
14837KMSN MSN20120627002509306/27/12 00:25:31  5-MIN KMSN 270625Z 16006KT 10SM CLR 19/12 A2991 870 62 1600 160/06 RMK AO2
14837KMSN MSN20120627003009306/27/12 00:30:31  5-MIN KMSN 270630Z 16007KT 10SM CLR 19/12 A2991 870 62 1600 160/07 RMK AO2
14837KMSN MSN20120627003509306/27/12 00:35:31  5-MIN KMSN 270635Z 16006KT 10SM CLR 19/12 A2991 880 62 1600 170/06 RMK AO2
14837KMSN MSN20120627004009306/27/12 00:40:31  5-MIN KMSN 270640Z 16007KT 10SM CLR 19/12 A2990 880 62 1600 160/07 RMK AO2
14837KMSN MSN20120627004509306/27/12 00:45:31  5-MIN KMSN 270645Z 17005KT 10SM CLR 19/12 A2990 880 62 1600 170/05 RMK AO2
14837KMSN MSN20120627005011006/27/12 00:50:31  5-MIN KMSN 270650Z 18005KT 10SM CLR 19/12 A2990 880 62 1600 180/05 RMK AO2 SLP121 T01940122
14837KMSN MSN20120627005509306/27/12 00:55:31  5-MIN KMSN 270655Z 17006KT 10SM CLR 19/12 A2990 880 62 1600 170/06 RMK AO2
14837KMSN MSN20120627010009306/27/12 01:00:31  5-MIN KMSN 270700Z 18005KT 10SM CLR 19/12 A2991 880 65 1600 180/05 RMK AO2
14837KMSN MSN20120627010509306/27/12 01:05:31  5-MIN KMSN 270705Z 18004KT 10SM CLR 19/12 A2990 880 62 1600 180/04 RMK AO2
14837KMSN MSN20120627011009306/27/12 01:10:31  5-MIN KMSN 270710Z 19005KT 10SM CLR 19/12 A2990 880 65 1600 190/05 RMK AO2
14837KMSN MSN20120627011509306/27/12 01:15:31  5-MIN KMSN 270715Z 18006KT 10SM CLR 19/12 A2990 880 62 1600 180/06 RMK AO2
14837KMSN MSN20120627012009306/27/12 01:20:31  5-MIN KMSN 270720Z 18005KT 10SM CLR 19/12 A2990 880 62 1600 190/05 RMK AO2
14837KMSN MSN20120627012509306/27/12 01:25:31  5-MIN KMSN 270725Z 19006KT 10SM CLR 19/12 A2990 880 62 1600 190/06 RMK AO2
14837KMSN MSN20120627013009306/27/12 01:30:31  5-MIN KMSN 270730Z 18006KT 10SM CLR 19/12 A2990 880 62 1600 190/06 RMK AO2
14837KMSN MSN20120627013509306/27/12 01:35:31  5-MIN KMSN 270735Z 18005KT 10SM CLR 19/12 A2990 880 62 1600 190/05 RMK AO2
14837KMSN MSN20120627014009306/27/12 01:40:31  5-MIN KMSN 270740Z 18005KT 10SM CLR 19/12 A2990 880 62 1600 180/05 RMK AO2
14837KMSN MSN20120627014509306/27/12 01:45:31  5-MIN KMSN 270745Z 19006KT 10SM CLR 19/12 A2990 880 60 1600 190/06 RMK AO2
14837KMSN MSN20120627015011006/27/12 01:50:31  5-MIN KMSN 270750Z 19006KT 10SM CLR 19/12 A2990 880 60 1600 190/06 RMK AO2 SLP120 T01940117
14837KMSN MSN20120627015509306/27/12 01:55:31  5-MIN KMSN 270755Z 19005KT 10SM CLR 19/12 A2990 880 60 1600 190/05 RMK AO2
14837KMSN MSN20120627020009306/27/12 02:00:31  5-MIN KMSN 270800Z 18005KT 10SM CLR 19/12 A2990 890 60 1700 180/05 RMK AO2
14837KMSN MSN20120627020509306/27/12 02:05:31  5-MIN KMSN 270805Z 19005KT 10SM CLR 19/12 A2990 890 62 1600 190/05 RMK AO2
14837KMSN MSN20120627021009306/27/12 02:10:31  5-MIN KMSN 270810Z 19006KT 10SM CLR 19/12 A2989 890 62 1600 190/06 RMK AO2
14837KMSN MSN20120627021509306/27/12 02:15:31  5-MIN KMSN 270815Z 18006KT 10SM CLR 19/12 A2989 890 62 1600 190/06 RMK AO2
14837KMSN MSN20120627022009306/27/12 02:20:31  5-MIN KMSN 270820Z 19006KT 10SM CLR 19/12 A2989 890 62 1600 190/06 RMK AO2
14837KMSN MSN20120627022509306/27/12 02:25:31  5-MIN KMSN 270825Z 18006KT 10SM CLR 19/12 A2989 890 62 1600 190/06 RMK AO2
14837KMSN MSN20120627023009306/27/12 02:30:31  5-MIN KMSN 270830Z 19006KT 10SM CLR 19/12 A2989 890 62 1600 190/06 RMK AO2
14837KMSN MSN20120627023509306/27/12 02:35:31  5-MIN KMSN 270835Z 18006KT 10SM CLR 19/12 A2989 890 62 1600 190/06 RMK AO2
14837KMSN MSN20120627024009306/27/12 02:40:31  5-MIN KMSN 270840Z 18005KT 10SM CLR 19/12 A2989 890 62 1600 180/05 RMK AO2
14837KMSN MSN20120627024509306/27/12 02:45:31  5-MIN KMSN 270845Z 18005KT 10SM CLR 19/12 A2989 900 62 1600 180/05 RMK AO2
14837KMSN MSN20120627025011606/27/12 02:50:31  5-MIN KMSN 270850Z 18005KT 10SM CLR 19/12 A2989 900 62 1600 180/05 RMK AO2 SLP115 T01890117 56004
14837KMSN MSN20120627025509306/27/12 02:55:31  5-MIN KMSN 270855Z 18006KT 10SM CLR 18/12 A2988 900 65 1500 180/06 RMK AO2
14837KMSN MSN20120627030009306/27/12 03:00:31  5-MIN KMSN 270900Z 18006KT 10SM CLR 18/12 A2988 900 65 1500 180/06 RMK AO2
14837KMSN MSN20120627030509306/27/12 03:05:31  5-MIN KMSN 270905Z 18007KT 10SM CLR 18/11 A2988 900 62 1500 190/07 RMK AO2
14837KMSN MSN20120627031009306/27/12 03:10:31  5-MIN KMSN 270910Z 19007KT 10SM CLR 19/11 A2989 890 60 1600 190/07 RMK AO2
14837KMSN MSN20120627031509306/27/12 03:15:31  5-MIN KMSN 270915Z 19006KT 10SM CLR 18/11 A2989 890 62 1500 190/06 RMK AO2
14837KMSN MSN20120627032009306/27/12 03:20:31  5-MIN KMSN 270920Z 19007KT 10SM CLR 19/11 A2989 890 60 1600 190/07 RMK AO2
14837KMSN MSN20120627032509306/27/12 03:25:31  5-MIN KMSN 270925Z 19007KT 10SM CLR 18/11 A2989 890 62 1500 190/07 RMK AO2
14837KMSN MSN20120627033009306/27/12 03:30:31  5-MIN KMSN 270930Z 18006KT 10SM CLR 18/11 A2989 890 62 1500 190/06 RMK AO2
14837KMSN MSN20120627033509306/27/12 03:35:31  5-MIN KMSN 270935Z 19006KT 10SM CLR 18/11 A2989 890 62 1500 190/06 RMK AO2
14837KMSN MSN20120627034009306/27/12 03:40:31  5-MIN KMSN 270940Z 19005KT 10SM CLR 19/11 A2989 890 60 1600 190/05 RMK AO2
14837KMSN MSN20120627034509306/27/12 03:45:31  5-MIN KMSN 270945Z 19006KT 10SM CLR 18/11 A2989 890 62 1500 190/06 RMK AO2
14837KMSN MSN20120627035011006/27/12 03:50:31  5-MIN KMSN 270950Z 19006KT 10SM CLR 19/11 A2989 890 60 1600 190/06 RMK AO2 SLP118 T01890111
14837KMSN MSN20120627035509306/27/12 03:55:31  5-MIN KMSN 270955Z 20006KT 10SM CLR 18/11 A2990 890 62 1500 200/06 RMK AO2
14837KMSN MSN20120627040009306/27/12 04:00:31  5-MIN KMSN 271000Z 20005KT 10SM CLR 18/11 A2990 880 62 1500 200/05 RMK AO2
14837KMSN MSN20120627040509306/27/12 04:05:31  5-MIN KMSN 271005Z 19005KT 10SM CLR 18/11 A2990 880 62 1500 200/05 RMK AO2
14837KMSN MSN20120627041009306/27/12 04:10:31  5-MIN KMSN 271010Z 19006KT 10SM CLR 18/11 A2990 880 62 1500 190/06 RMK AO2
14837KMSN MSN20120627041509306/27/12 04:15:31  5-MIN KMSN 271015Z 19006KT 10SM CLR 18/11 A2991 880 62 1500 190/06 RMK AO2
14837KMSN MSN20120627042009306/27/12 04:20:31  5-MIN KMSN 271020Z 18006KT 10SM CLR 18/11 A2990 880 62 1500 190/06 RMK AO2
14837KMSN MSN20120627042509306/27/12 04:25:31  5-MIN KMSN 271025Z 19006KT 10SM CLR 18/11 A2990 880 62 1500 190/06 RMK AO2
14837KMSN MSN20120627043009306/27/12 04:30:31  5-MIN KMSN 271030Z 19006KT 10SM CLR 18/11 A2991 880 62 1500 190/06 RMK AO2
14837KMSN MSN20120627043509306/27/12 04:35:31  5-MIN KMSN 271035Z 18006KT 10SM CLR 18/11 A2991 880 62 1500 180/06 RMK AO2
14837KMSN MSN20120627044009306/27/12 04:40:31  5-MIN KMSN 271040Z 19007KT 10SM CLR 18/11 A2990 880 62 1500 190/07 RMK AO2
14837KMSN MSN20120627044509306/27/12 04:45:31  5-MIN KMSN 271045Z 19006KT 10SM CLR 18/11 A2990 880 62 1500 190/06 RMK AO2
14837KMSN MSN20120627045011006/27/12 04:50:31  5-MIN KMSN 271050Z 19007KT 10SM CLR 18/11 A2991 880 62 1500 190/07 RMK AO2 SLP122 T01830111
14837KMSN MSN20120627045509306/27/12 04:55:31  5-MIN KMSN 271055Z 19007KT 10SM CLR 19/11 A2991 870 60 1600 190/07 RMK AO2
14837KMSN MSN20120627050009306/27/12 05:00:31  5-MIN KMSN 271100Z 18007KT 10SM CLR 19/11 A2991 870 60 1600 190/07 RMK AO2
14837KMSN MSN20120627050509306/27/12 05:05:31  5-MIN KMSN 271105Z 18007KT 10SM CLR 19/11 A2991 880 60 1600 180/07 RMK AO2
14837KMSN MSN20120627051009306/27/12 05:10:31  5-MIN KMSN 271110Z 19007KT 10SM CLR 19/11 A2991 870 60 1600 190/07 RMK AO2
14837KMSN MSN20120627051509306/27/12 05:15:31  5-MIN KMSN 271115Z 19006KT 10SM CLR 19/11 A2992 870 60 1600 190/06 RMK AO2
14837KMSN MSN20120627052009306/27/12 05:20:31  5-MIN KMSN 271120Z 18007KT 10SM CLR 19/11 A2991 870 60 1600 180/07 RMK AO2
14837KMSN MSN20120627052509306/27/12 05:25:31  5-MIN KMSN 271125Z 18009KT 10SM CLR 19/11 A2991 870 58 1600 180/09 RMK AO2
14837KMSN MSN20120627053009306/27/12 05:30:31  5-MIN KMSN 271130Z 18008KT 10SM CLR 19/11 A2991 870 58 1600 180/08 RMK AO2
14837KMSN MSN20120627053509306/27/12 05:35:31  5-MIN KMSN 271135Z 18009KT 10SM CLR 19/11 A2991 870 58 1600 180/09 RMK AO2
14837KMSN MSN20120627054009306/27/12 05:40:31  5-MIN KMSN 271140Z 19009KT 10SM CLR 19/11 A2991 870 58 1600 190/09 RMK AO2
14837KMSN MSN20120627054509306/27/12 05:45:31  5-MIN KMSN 271145Z 18010KT 10SM CLR 19/11 A2991 870 58 1600 190/10 RMK AO2
14837KMSN MSN20120627055012806/27/12 05:50:31  5-MIN KMSN 271150Z 18009KT 10SM CLR 19/11 A2991 870 58 1600 180/09 RMK AO2 SLP125 T01940111 10200 20183 58010
14837KMSN MSN20120627055509306/27/12 05:55:31  5-MIN KMSN 271155Z 18009KT 10SM CLR 19/11 A2991 870 58 1600 180/09 RMK AO2
14837KMSN MSN20120627060009306/27/12 06:00:31  5-MIN KMSN 271200Z 18010KT 10SM CLR 20/11 A2992 870 56 1700 190/10 RMK AO2
14837KMSN MSN20120627060509306/27/12 06:05:31  5-MIN KMSN 271205Z 18009KT 10SM CLR 20/11 A2992 870 56 1700 180/09 RMK AO2
14837KMSN MSN20120627061009306/27/12 06:10:31  5-MIN KMSN 271210Z 18008KT 10SM CLR 20/11 A2992 870 56 1700 180/08 RMK AO2
14837KMSN MSN20120627061509306/27/12 06:15:31  5-MIN KMSN 271215Z 18008KT 10SM CLR 20/11 A2992 870 56 1700 180/08 RMK AO2
14837KMSN MSN20120627062009306/27/12 06:20:31  5-MIN KMSN 271220Z 18008KT 10SM CLR 21/11 A2992 870 54 1800 190/08 RMK AO2
14837KMSN MSN20120627062509306/27/12 06:25:31  5-MIN KMSN 271225Z 18008KT 10SM CLR 21/11 A2992 870 54 1800 180/08 RMK AO2
14837KMSN MSN20120627063009306/27/12 06:30:31  5-MIN KMSN 271230Z 18007KT 10SM CLR 21/11 A2992 870 52 1800 190/07 RMK AO2
14837KMSN MSN20120627063509306/27/12 06:35:31  5-MIN KMSN 271235Z 18007KT 10SM CLR 21/11 A2992 870 52 1800 180/07 RMK AO2
14837KMSN MSN20120627064009306/27/12 06:40:31  5-MIN KMSN 271240Z 18007KT 10SM CLR 21/11 A2992 870 52 1800 180/07 RMK AO2
14837KMSN MSN20120627064509306/27/12 06:45:31  5-MIN KMSN 271245Z 18008KT 10SM CLR 22/11 A2992 870 50 1900 180/08 RMK AO2
14837KMSN MSN20120627065011006/27/12 06:50:31  5-MIN KMSN 271250Z 18007KT 10SM CLR 22/11 A2992 870 49 1900 180/07 RMK AO2 SLP126 T02170106
14837KMSN MSN20120627065509306/27/12 06:55:31  5-MIN KMSN 271255Z 17010KT 10SM CLR 22/11 A2992 870 47 1900 170/10 RMK AO2
14837KMSN MSN20120627070009906/27/12 07:00:31  5-MIN KMSN 271300Z 18011G16KT 10SM CLR 22/11 A2992 870 47 1900 180/11G16 RMK AO2
14837KMSN MSN20120627070509306/27/12 07:05:31  5-MIN KMSN 271305Z 19011KT 10SM CLR 22/11 A2992 870 47 1900 190/11 RMK AO2
14837KMSN MSN20120627071009306/27/12 07:10:31  5-MIN KMSN 271310Z 19009KT 10SM CLR 23/11 A2991 870 45 2000 190/09 RMK AO2
14837KMSN MSN20120627071509306/27/12 07:15:31  5-MIN KMSN 271315Z 18010KT 10SM CLR 23/11 A2991 870 45 2000 180/10 RMK AO2
14837KMSN MSN20120627072009306/27/12 07:20:31  5-MIN KMSN 271320Z 18012KT 10SM CLR 23/11 A2991 870 44 2100 180/12 RMK AO2
14837KMSN MSN20120627072509306/27/12 07:25:31  5-MIN KMSN 271325Z 18010KT 10SM CLR 23/11 A2991 870 45 2000 180/10 RMK AO2
14837KMSN MSN20120627073009306/27/12 07:30:31  5-MIN KMSN 271330Z 18009KT 10SM CLR 23/11 A2991 870 44 2100 180/09 RMK AO2
14837KMSN MSN20120627073509306/27/12 07:35:31  5-MIN KMSN 271335Z 18012KT 10SM CLR 23/11 A2991 870 44 2100 180/12 RMK AO2
14837KMSN MSN20120627074009306/27/12 07:40:31  5-MIN KMSN 271340Z 18011KT 10SM CLR 24/10 A2991 870 41 2100 190/11 RMK AO2
14837KMSN MSN20120627074509906/27/12 07:45:31  5-MIN KMSN 271345Z 20009G17KT 10SM CLR 24/10 A2991 880 41 2100 200/09G17 RMK AO2
14837KMSN MSN20120627075011606/27/12 07:50:31  5-MIN KMSN 271350Z 19011G18KT 10SM CLR 24/10 A2991 880 39 2200 190/11G18 RMK AO2 SLP121 T02440100
14837KMSN MSN20120627075509906/27/12 07:55:31  5-MIN KMSN 271355Z 19012G20KT 10SM CLR 24/10 A2991 880 39 2200 190/12G20 RMK AO2
14837KMSN MSN20120627080009906/27/12 08:00:31  5-MIN KMSN 271400Z 20012G20KT 10SM CLR 24/09 A2990 880 38 2200 200/12G20 RMK AO2
14837KMSN MSN20120627080509906/27/12 08:05:31  5-MIN KMSN 271405Z 19012G19KT 10SM CLR 25/10 A2990 880 38 2300 190/12G19 RMK AO2
14837KMSN MSN20120627081009906/27/12 08:10:31  5-MIN KMSN 271410Z 19014G19KT 10SM CLR 24/10 A2990 880 39 2200 190/14G19 RMK AO2
14837KMSN MSN20120627081509906/27/12 08:15:31  5-MIN KMSN 271415Z 19013G19KT 10SM CLR 25/10 A2990 890 38 2300 190/13G19 RMK AO2
14837KMSN MSN20120627082009306/27/12 08:20:31  5-MIN KMSN 271420Z 19011KT 10SM CLR 25/10 A2989 890 38 2300 200/11 RMK AO2
14837KMSN MSN20120627082509906/27/12 08:25:31  5-MIN KMSN 271425Z 19011G19KT 10SM CLR 25/10 A2989 890 38 2300 190/11G19 RMK AO2
14837KMSN MSN20120627083009906/27/12 08:30:31  5-MIN KMSN 271430Z 19013G21KT 10SM CLR 26/10 A2989 890 37 2400 190/13G21 RMK AO2
14837KMSN MSN20120627083509906/27/12 08:35:31  5-MIN KMSN 271435Z 19015G22KT 10SM CLR 26/10 A2988 900 36 2400 190/15G22 RMK AO2
14837KMSN MSN20120627084009906/27/12 08:40:31  5-MIN KMSN 271440Z 19012G22KT 10SM CLR 26/10 A2989 900 36 2400 200/12G22 RMK AO2
14837KMSN MSN20120627084509906/27/12 08:45:31  5-MIN KMSN 271445Z 19013G21KT 10SM CLR 26/09 A2988 900 34 2400 190/13G21 RMK AO2
14837KMSN MSN20120627085012206/27/12 08:50:31  5-MIN KMSN 271450Z 19012G22KT 10SM CLR 27/09 A2988 900 33 2500 200/12G22 RMK AO2 SLP112 T02670094 51010
14837KMSN MSN20120627085509906/27/12 08:55:31  5-MIN KMSN 271455Z 19015G22KT 10SM CLR 27/09 A2988 900 33 2500 190/15G22 RMK AO2
14837KMSN MSN20120627090009906/27/12 09:00:31  5-MIN KMSN 271500Z 19015G21KT 10SM CLR 27/09 A2987 910 33 2500 190/15G21 RMK AO2
14837KMSN MSN20120627090509906/27/12 09:05:31  5-MIN KMSN 271505Z 19013G21KT 10SM CLR 27/09 A2987 910 33 2500 190/13G21 RMK AO2
14837KMSN MSN20120627091009906/27/12 09:10:31  5-MIN KMSN 271510Z 19016G25KT 10SM CLR 27/09 A2987 910 32 2600 190/16G25 RMK AO2
14837KMSN MSN20120627091509906/27/12 09:15:31  5-MIN KMSN 271515Z 19013G25KT 10SM CLR 27/09 A2987 910 32 2600 190/13G25 RMK AO2
14837KMSN MSN20120627092009906/27/12 09:20:31  5-MIN KMSN 271520Z 19012G22KT 10SM CLR 28/10 A2987 910 32 2600 190/12G22 RMK AO2
14837KMSN MSN20120627092509906/27/12 09:25:31  5-MIN KMSN 271525Z 21012G20KT 10SM CLR 28/10 A2987 910 32 2600 210/12G20 RMK AO2
14837KMSN MSN20120627093009906/27/12 09:30:31  5-MIN KMSN 271530Z 19015G22KT 10SM CLR 28/09 A2987 920 31 2600 190/15G22 RMK AO2
14837KMSN MSN20120627093509906/27/12 09:35:31  5-MIN KMSN 271535Z 19013G24KT 10SM CLR 28/09 A2986 920 31 2600 190/13G24 RMK AO2
14837KMSN MSN20120627094009906/27/12 09:40:31  5-MIN KMSN 271540Z 19017G24KT 10SM CLR 28/09 A2986 920 30 2700 200/17G24 RMK AO2
14837KMSN MSN20120627094509906/27/12 09:45:31  5-MIN KMSN 271545Z 18016G24KT 10SM CLR 28/09 A2987 920 30 2700 190/16G24 RMK AO2
14837KMSN MSN20120627095011606/27/12 09:50:31  5-MIN KMSN 271550Z 18015G24KT 10SM CLR 28/09 A2986 920 30 2700 190/15G24 RMK AO2 SLP106 T02830094
14837KMSN MSN20120627095509906/27/12 09:55:31  5-MIN KMSN 271555Z 19013G20KT 10SM CLR 29/09 A2986 920 29 2800 190/13G20 RMK AO2
14837KMSN MSN20120627100009906/27/12 10:00:31  5-MIN KMSN 271600Z 20011G19KT 10SM CLR 29/10 A2986 920 30 2800 200/11G19 RMK AO2
14837KMSN MSN20120627100509906/27/12 10:05:31  5-MIN KMSN 271605Z 18012G19KT 10SM CLR 29/10 A2986 920 29 2800 190/12G19 RMK AO2
14837KMSN MSN20120627101009906/27/12 10:10:31  5-MIN KMSN 271610Z 19013G21KT 10SM CLR 29/10 A2985 930 29 2800 190/13G21 RMK AO2
14837KMSN MSN20120627101509906/27/12 10:15:31  5-MIN KMSN 271615Z 19013G21KT 10SM CLR 29/10 A2985 930 29 2800 190/13G21 RMK AO2
14837KMSN MSN20120627102009906/27/12 10:20:31  5-MIN KMSN 271620Z 18017G22KT 10SM CLR 29/10 A2985 930 29 2800 180/17G22 RMK AO2
14837KMSN MSN20120627102509906/27/12 10:25:31  5-MIN KMSN 271625Z 18014G22KT 10SM CLR 29/10 A2985 930 29 2800 190/14G22 RMK AO2
14837KMSN MSN20120627103009906/27/12 10:30:31  5-MIN KMSN 271630Z 19015G22KT 10SM CLR 30/10 A2984 930 28 2900 190/15G22 RMK AO2
14837KMSN MSN20120627103509906/27/12 10:35:31  5-MIN KMSN 271635Z 19015G22KT 10SM CLR 29/10 A2984 940 29 2800 190/15G22 RMK AO2
14837KMSN MSN20120627104009906/27/12 10:40:31  5-MIN KMSN 271640Z 19016G22KT 10SM CLR 30/10 A2984 940 28 2900 200/16G22 RMK AO2
14837KMSN MSN20120627104509906/27/12 10:45:31  5-MIN KMSN 271645Z 19013G22KT 10SM CLR 30/11 A2984 940 29 2900 190/13G22 RMK AO2
14837KMSN MSN20120627105011006/27/12 10:50:31  5-MIN KMSN 271650Z 19017KT 10SM CLR 30/11 A2984 940 29 2900 190/17 RMK AO2 SLP097 T03000106
14837KMSN MSN20120627105509306/27/12 10:55:31  5-MIN KMSN 271655Z 20015KT 10SM CLR 30/10 A2983 950 28 2900 200/15 RMK AO2
14837KMSN MSN20120627110009906/27/12 11:00:31  5-MIN KMSN 271700Z 19015G22KT 10SM CLR 31/11 A2983 950 28 3000 190/15G22 RMK AO2
14837KMSN MSN20120627110509906/27/12 11:05:31  5-MIN KMSN 271705Z 18018G22KT 10SM CLR 31/11 A2983 950 29 3000 180/18G22 RMK AO2
14837KMSN MSN20120627111009906/27/12 11:10:31  5-MIN KMSN 271710Z 19015G22KT 10SM CLR 31/11 A2983 950 29 3000 190/15G22 RMK AO2
14837KMSN MSN20120627111509906/27/12 11:15:31  5-MIN KMSN 271715Z 19015G21KT 10SM CLR 31/11 A2983 950 29 3000 200/15G21 RMK AO2
14837KMSN MSN20120627112009306/27/12 11:20:31  5-MIN KMSN 271720Z 18016KT 10SM CLR 31/11 A2982 950 29 3000 180/16 RMK AO2
14837KMSN MSN20120627112509906/27/12 11:25:31  5-MIN KMSN 271725Z 19015G22KT 10SM CLR 31/11 A2982 960 28 3100 190/15G22 RMK AO2
14837KMSN MSN20120627113009906/27/12 11:30:31  5-MIN KMSN 271730Z 18015G22KT 10SM CLR 31/11 A2981 960 28 3100 180/15G22 RMK AO2
14837KMSN MSN20120627113509906/27/12 11:35:31  5-MIN KMSN 271735Z 18017G22KT 10SM CLR 31/12 A2981 970 29 3100 180/17G22 RMK AO2
14837KMSN MSN20120627114009906/27/12 11:40:31  5-MIN KMSN 271740Z 19017G23KT 10SM CLR 31/11 A2980 970 28 3100 190/17G23 RMK AO2
14837KMSN MSN20120627114509906/27/12 11:45:31  5-MIN KMSN 271745Z 18017G23KT 10SM CLR 31/12 A2980 970 29 3100 180/17G23 RMK AO2
14837KMSN MSN20120627115013406/27/12 11:50:31  5-MIN KMSN 271750Z 19014G24KT 10SM CLR 31/12 A2980 970 29 3100 190/14G24 RMK AO2 SLP085 T03110117 10317 20194 58012
14837KMSN MSN20120627115509906/27/12 11:55:31  5-MIN KMSN 271755Z 19015G26KT 10SM CLR 32/12 A2980 980 29 3100 190/15G26 RMK AO2
14837KMSN MSN20120627120009906/27/12 12:00:31  5-MIN KMSN 271800Z 18019G26KT 10SM CLR 32/12 A2979 980 29 3100 180/19G26 RMK AO2
14837KMSN MSN20120627120509906/27/12 12:05:31  5-MIN KMSN 271805Z 19016G23KT 10SM CLR 32/12 A2979 980 29 3100 190/16G23 RMK AO2
14837KMSN MSN20120627121009906/27/12 12:10:31  5-MIN KMSN 271810Z 20014G23KT 10SM CLR 32/12 A2979 980 29 3100 200/14G23 RMK AO2
14837KMSN MSN20120627121509906/27/12 12:15:31  5-MIN KMSN 271815Z 19017G23KT 10SM CLR 32/12 A2979 980 29 3100 200/17G23 RMK AO2
14837KMSN MSN20120627122009906/27/12 12:20:31  5-MIN KMSN 271820Z 18017G24KT 10SM CLR 32/12 A2979 990 29 3200 180/17G24 RMK AO2
14837KMSN MSN20120627122511706/27/12 12:25:31  5-MIN KMSN 271825Z 18017G26KT 10SM CLR 33/12 A2979 990 28 3300 180/17G26 RMK AO2 PK WND 17026/1823
14837KMSN MSN20120627123011706/27/12 12:30:31  5-MIN KMSN 271830Z 17016G26KT 10SM CLR 32/12 A2979 990 29 3200 180/16G26 RMK AO2 PK WND 17026/1823
14837KMSN MSN20120627123511106/27/12 12:35:31  5-MIN KMSN 271835Z 18014KT 10SM CLR 33/13 A2978 990 29 3300 180/14 RMK AO2 PK WND 17026/1823
14837KMSN MSN20120627124011706/27/12 12:40:31  5-MIN KMSN 271840Z 19015G22KT 10SM CLR 33/13 A2979 990 29 3300 190/15G22 RMK AO2 PK WND 17026/1823
14837KMSN MSN20120627124511706/27/12 12:45:31  5-MIN KMSN 271845Z 18015G22KT 10SM CLR 33/13 A2978 990 29 3300 180/15G22 RMK AO2 PK WND 17026/1823
14837KMSN MSN20120627125013406/27/12 12:50:31  5-MIN KMSN 271850Z 18018G24KT 10SM CLR 33/13 A2978 990 29 3300 180/18G24 RMK AO2 PK WND 17026/1823 SLP078 T03280128
14837KMSN MSN20120627125510006/27/12 12:55:31  5-MIN KMSN 271855Z 18016G24KT 10SM CLR 33/13 A2978 1000 29 3300 180/16G24 RMK AO2
14837KMSN MSN20120627130009906/27/12 13:00:31  5-MIN KMSN 271900Z 19014G23KT 10SM CLR 33/13 A2978 990 28 3300 200/14G23 RMK AO2
14837KMSN MSN20120627130509906/27/12 13:05:31  5-MIN KMSN 271905Z 18014G20KT 10SM CLR 33/13 A2978 990 29 3300 180/14G20 RMK AO2
14837KMSN MSN20120627131009906/27/12 13:10:31  5-MIN KMSN 271910Z 19014G20KT 10SM CLR 33/13 A2978 990 28 3300 190/14G20 RMK AO2
14837KMSN MSN20120627131510006/27/12 13:15:31  5-MIN KMSN 271915Z 17017G21KT 10SM CLR 33/13 A2978 1000 29 3300 180/17G21 RMK AO2
14837KMSN MSN20120627132011806/27/12 13:20:31  5-MIN KMSN 271920Z 18016G26KT 10SM CLR 33/13 A2977 1000 29 3300 180/16G26 RMK AO2 PK WND 17026/1918
14837KMSN MSN20120627132511806/27/12 13:25:31  5-MIN KMSN 271925Z 17018G26KT 10SM CLR 33/13 A2977 1000 29 3400 180/18G26 RMK AO2 PK WND 17026/1918
14837KMSN MSN20120627133011806/27/12 13:30:31  5-MIN KMSN 271930Z 18017G24KT 10SM CLR 33/13 A2977 1010 29 3400 180/17G24 RMK AO2 PK WND 17026/1918
14837KMSN MSN20120627133511806/27/12 13:35:31  5-MIN KMSN 271935Z 18016G24KT 10SM CLR 33/13 A2976 1010 29 3400 180/16G24 RMK AO2 PK WND 17026/1918
14837KMSN MSN20120627134011806/27/12 13:40:31  5-MIN KMSN 271940Z 19015G21KT 10SM CLR 33/13 A2976 1010 29 3400 190/15G21 RMK AO2 PK WND 17026/1918
14837KMSN MSN20120627134511806/27/12 13:45:31  5-MIN KMSN 271945Z 18019G22KT 10SM CLR 33/14 A2976 1010 30 3400 180/19G22 RMK AO2 PK WND 17026/1918
14837KMSN MSN20120627135013506/27/12 13:50:31  5-MIN KMSN 271950Z 19014G22KT 10SM CLR 33/14 A2976 1020 30 3400 190/14G22 RMK AO2 PK WND 17026/1918 SLP069 T03330139
14837KMSN MSN20120627135510006/27/12 13:55:31  5-MIN KMSN 271955Z 19015G22KT 10SM CLR 33/14 A2976 1020 30 3400 200/15G22 RMK AO2
14837KMSN MSN20120627140010006/27/12 14:00:31  5-MIN KMSN 272000Z 19014G21KT 10SM CLR 34/14 A2975 1020 29 3400 190/14G21 RMK AO2
14837KMSN MSN20120627140510006/27/12 14:05:31  5-MIN KMSN 272005Z 19018G24KT 10SM CLR 33/14 A2975 1020 30 3400 190/18G24 RMK AO2
14837KMSN MSN20120627141010006/27/12 14:10:31  5-MIN KMSN 272010Z 19018G24KT 10SM CLR 33/14 A2975 1030 30 3400 190/18G24 RMK AO2
14837KMSN MSN20120627141510006/27/12 14:15:31  5-MIN KMSN 272015Z 19012G24KT 10SM CLR 34/14 A2974 1030 30 3400 190/12G24 RMK AO2
14837KMSN MSN20120627142010006/27/12 14:20:31  5-MIN KMSN 272020Z 19015G22KT 10SM CLR 34/14 A2974 1030 30 3400 190/15G22 RMK AO2
14837KMSN MSN20120627142510006/27/12 14:25:31  5-MIN KMSN 272025Z 19021G24KT 10SM CLR 34/14 A2974 1030 30 3400 200/21G24 RMK AO2
14837KMSN MSN20120627143010006/27/12 14:30:31  5-MIN KMSN 272030Z 19013G24KT 10SM CLR 34/14 A2974 1030 30 3400 190/13G24 RMK AO2
14837KMSN MSN20120627143510006/27/12 14:35:31  5-MIN KMSN 272035Z 19016G22KT 10SM CLR 34/14 A2974 1030 30 3400 190/16G22 RMK AO2
14837KMSN MSN20120627144010006/27/12 14:40:31  5-MIN KMSN 272040Z 20011G22KT 10SM CLR 34/14 A2974 1030 30 3400 210/11G22 RMK AO2
14837KMSN MSN20120627144510006/27/12 14:45:31  5-MIN KMSN 272045Z 19017G24KT 10SM CLR 34/14 A2974 1030 30 3400 190/17G24 RMK AO2
14837KMSN MSN20120627145012306/27/12 14:50:31  5-MIN KMSN 272050Z 19015G24KT 10SM CLR 34/15 A2974 1030 31 3400 190/15G24 RMK AO2 SLP062 T03390150 58026
14837KMSN MSN20120627145510006/27/12 14:55:31  5-MIN KMSN 272055Z 20014G24KT 10SM CLR 34/15 A2974 1040 31 3400 200/14G24 RMK AO2
14837KMSN MSN20120627150010006/27/12 15:00:31  5-MIN KMSN 272100Z 20012G21KT 10SM CLR 34/15 A2973 1040 31 3500 200/12G21 RMK AO2
14837KMSN MSN20120627150510006/27/12 15:05:31  5-MIN KMSN 272105Z 21012G21KT 10SM CLR 34/16 A2974 1040 32 3400 220/12G21 RMK AO2
14837KMSN MSN20120627151010006/27/12 15:10:31  5-MIN KMSN 272110Z 22008G21KT 10SM CLR 34/16 A2974 1030 32 3400 230/08G21 RMK AO2
14837KMSN MSN20120627151510006/27/12 15:15:31  5-MIN KMSN 272115Z 22010G17KT 10SM CLR 34/16 A2974 1030 32 3400 230/10G17 RMK AO2
14837KMSN MSN20120627152010006/27/12 15:20:31  5-MIN KMSN 272120Z 21015G20KT 10SM CLR 34/16 A2974 1030 32 3400 210/15G20 RMK AO2
14837KMSN MSN20120627152510006/27/12 15:25:31  5-MIN KMSN 272125Z 22010G20KT 10SM CLR 33/16 A2974 1030 33 3400 220/10G20 RMK AO2
14837KMSN MSN20120627153010006/27/12 15:30:31  5-MIN KMSN 272130Z 20013G19KT 10SM CLR 34/16 A2973 1040 32 3400 200/13G19 RMK AO2
14837KMSN MSN20120627153510006/27/12 15:35:31  5-MIN KMSN 272135Z 20008G19KT 10SM CLR 34/16 A2973 1040 31 3500 210/08G19 RMK AO2
14837KMSN MSN20120627154010006/27/12 15:40:31  5-MIN KMSN 272140Z 21013G17KT 10SM CLR 34/16 A2973 1040 32 3500 210/13G17 RMK AO2
14837KMSN MSN20120627154510006/27/12 15:45:31  5-MIN KMSN 272145Z 20011G21KT 10SM CLR 34/16 A2973 1040 32 3500 210/11G21 RMK AO2
14837KMSN MSN20120627155011706/27/12 15:50:31  5-MIN KMSN 272150Z 21013G21KT 10SM CLR 34/16 A2973 1040 34 3500 210/13G21 RMK AO2 SLP059 T03390161
14837KMSN MSN20120627155510006/27/12 15:55:31  5-MIN KMSN 272155Z 20011G19KT 10SM CLR 34/16 A2973 1040 32 3500 200/11G19 RMK AO2
14837KMSN MSN20120627160010006/27/12 16:00:31  5-MIN KMSN 272200Z 20011G20KT 10SM CLR 34/16 A2973 1040 34 3500 200/11G20 RMK AO2
14837KMSN MSN20120627160510006/27/12 16:05:31  5-MIN KMSN 272205Z 20011G20KT 10SM CLR 34/16 A2973 1040 34 3500 200/11G20 RMK AO2
14837KMSN MSN20120627161010006/27/12 16:10:31  5-MIN KMSN 272210Z 19014G18KT 10SM CLR 34/16 A2973 1040 34 3500 200/14G18 RMK AO2
14837KMSN MSN20120627161510006/27/12 16:15:31  5-MIN KMSN 272215Z 20014G21KT 10SM CLR 34/16 A2973 1040 34 3500 200/14G21 RMK AO2
14837KMSN MSN20120627162010006/27/12 16:20:31  5-MIN KMSN 272220Z 20012G21KT 10SM CLR 34/16 A2973 1040 34 3500 200/12G21 RMK AO2
14837KMSN MSN20120627162510006/27/12 16:25:31  5-MIN KMSN 272225Z 20011G18KT 10SM CLR 34/16 A2973 1040 34 3500 210/11G18 RMK AO2
14837KMSN MSN20120627163010006/27/12 16:30:31  5-MIN KMSN 272230Z 22009G17KT 10SM CLR 34/17 A2973 1040 35 3500 230/09G17 RMK AO2
14837KMSN MSN20120627163510006/27/12 16:35:31  5-MIN KMSN 272235Z 23009G17KT 10SM CLR 33/17 A2973 1040 36 3400 230/09G17 RMK AO2
14837KMSN MSN20120627164010006/27/12 16:40:31  5-MIN KMSN 272240Z 23010G15KT 10SM CLR 33/17 A2973 1040 37 3400 230/10G15 RMK AO2
14837KMSN MSN20120627164510006/27/12 16:45:31  5-MIN KMSN 272245Z 22009G15KT 10SM CLR 33/17 A2973 1040 37 3400 230/09G15 RMK AO2
14837KMSN MSN20120627165011706/27/12 16:50:31  5-MIN KMSN 272250Z 23012G18KT 10SM CLR 33/17 A2973 1040 37 3400 230/12G18 RMK AO2 SLP062 T03330172
14837KMSN MSN20120627165510006/27/12 16:55:31  5-MIN KMSN 272255Z 23010G18KT 10SM CLR 33/17 A2973 1040 36 3400 230/10G18 RMK AO2
14837KMSN MSN20120627170010006/27/12 17:00:31  5-MIN KMSN 272300Z 23008G17KT 10SM CLR 33/17 A2973 1040 37 3400 230/08G17 RMK AO2
14837KMSN MSN20120627170510006/27/12 17:05:31  5-MIN KMSN 272305Z 23007G17KT 10SM CLR 33/17 A2973 1040 37 3400 230/07G17 RMK AO2
14837KMSN MSN20120627171010006/27/12 17:10:31  5-MIN KMSN 272310Z 23005G14KT 10SM CLR 33/17 A2973 1040 37 3400 230/05G14 RMK AO2
14837KMSN MSN20120627171509406/27/12 17:15:31  5-MIN KMSN 272315Z 22008KT 10SM CLR 33/17 A2973 1040 39 3300 220/08 RMK AO2
14837KMSN MSN20120627172009406/27/12 17:20:31  5-MIN KMSN 272320Z 21007KT 10SM CLR 33/17 A2973 1040 39 3300 210/07 RMK AO2
14837KMSN MSN20120627172511006/27/12 17:25:31  5-MIN KMSN 272325Z 22008KT 180V250 10SM CLR 33/17 A2973 1040 37 3400 220/08 180V250 RMK AO2
14837KMSN MSN20120627173009406/27/12 17:30:31  5-MIN KMSN 272330Z 21007KT 10SM CLR 33/18 A2973 1050 39 3400 220/07 RMK AO2
14837KMSN MSN20120627173510006/27/12 17:35:31  5-MIN KMSN 272335Z 20007G14KT 10SM CLR 33/18 A2972 1050 40 3300 210/07G14 RMK AO2
14837KMSN MSN20120627174010006/27/12 17:40:31  5-MIN KMSN 272340Z 23010G14KT 10SM CLR 33/18 A2973 1050 40 3300 230/10G14 RMK AO2
14837KMSN MSN20120627174509406/27/12 17:45:31  5-MIN KMSN 272345Z 22010KT 10SM CLR 33/18 A2973 1040 40 3300 220/10 RMK AO2
14837KMSN MSN20120627175013506/27/12 17:50:31  5-MIN KMSN 272350Z 22007G14KT 10SM CLR 33/18 A2973 1040 40 3300 220/07G14 RMK AO2 SLP060 T03280178 10344 20317 56021
14837KMSN MSN20120627175509406/27/12 17:55:31  5-MIN KMSN 272355Z 21007KT 10SM CLR 33/18 A2973 1040 40 3300 210/07 RMK AO2
14837KMSN MSN20120627180009406/27/12 18:00:31  5-MIN KMSN 280000Z VRB06KT 10SM CLR 33/18 A2973 1040 40 3300 VRB/06 RMK AO2
14837KMSN MSN20120627180509406/27/12 18:05:31  5-MIN KMSN 280005Z 22007KT 10SM CLR 33/18 A2973 1040 40 3300 220/07 RMK AO2
14837KMSN MSN20120627181009406/27/12 18:10:31  5-MIN KMSN 280010Z 22005KT 10SM CLR 32/18 A2973 1040 43 3300 220/05 RMK AO2
14837KMSN MSN20120627181509406/27/12 18:15:31  5-MIN KMSN 280015Z 22005KT 10SM CLR 32/18 A2973 1040 43 3300 220/05 RMK AO2
14837KMSN MSN20120627182009406/27/12 18:20:31  5-MIN KMSN 280020Z 21006KT 10SM CLR 32/18 A2973 1040 43 3300 210/06 RMK AO2
14837KMSN MSN20120627182509406/27/12 18:25:31  5-MIN KMSN 280025Z 21007KT 10SM CLR 32/18 A2973 1040 43 3300 210/07 RMK AO2
14837KMSN MSN20120627183009406/27/12 18:30:31  5-MIN KMSN 280030Z 22008KT 10SM CLR 32/18 A2974 1040 43 3300 220/08 RMK AO2
14837KMSN MSN20120627183509406/27/12 18:35:31  5-MIN KMSN 280035Z 21007KT 10SM CLR 32/18 A2974 1040 44 3200 210/07 RMK AO2
14837KMSN MSN20120627184009406/27/12 18:40:31  5-MIN KMSN 280040Z 21005KT 10SM CLR 32/18 A2973 1040 44 3200 220/05 RMK AO2
14837KMSN MSN20120627184509406/27/12 18:45:31  5-MIN KMSN 280045Z 23007KT 10SM CLR 32/18 A2974 1040 44 3200 230/07 RMK AO2
14837KMSN MSN20120627185011106/27/12 18:50:31  5-MIN KMSN 280050Z VRB05KT 10SM CLR 32/18 A2974 1040 44 3200 VRB/05 RMK AO2 SLP062 T03170183
14837KMSN MSN20120627185509406/27/12 18:55:31  5-MIN KMSN 280055Z 22005KT 10SM CLR 32/18 A2974 1040 44 3200 220/05 RMK AO2
14837KMSN MSN20120627190009406/27/12 19:00:31  5-MIN KMSN 280100Z 22005KT 10SM CLR 32/18 A2974 1030 44 3200 230/05 RMK AO2
14837KMSN MSN20120627190509406/27/12 19:05:31  5-MIN KMSN 280105Z 22004KT 10SM CLR 32/18 A2974 1030 44 3200 220/04 RMK AO2
14837KMSN MSN20120627191009406/27/12 19:10:31  5-MIN KMSN 280110Z 22006KT 10SM CLR 31/18 A2974 1030 46 3100 220/06 RMK AO2
14837KMSN MSN20120627191509406/27/12 19:15:31  5-MIN KMSN 280115Z 21004KT 10SM CLR 31/18 A2975 1030 46 3100 210/04 RMK AO2
14837KMSN MSN20120627192009406/27/12 19:20:31  5-MIN KMSN 280120Z 21005KT 10SM CLR 31/18 A2975 1020 46 3100 210/05 RMK AO2
14837KMSN MSN20120627192509406/27/12 19:25:31  5-MIN KMSN 280125Z 21004KT 10SM CLR 31/18 A2975 1020 46 3100 210/04 RMK AO2
14837KMSN MSN20120627193009406/27/12 19:30:31  5-MIN KMSN 280130Z 21005KT 10SM CLR 31/18 A2975 1020 46 3100 210/05 RMK AO2
14837KMSN MSN20120627193509406/27/12 19:35:31  5-MIN KMSN 280135Z 21005KT 10SM CLR 31/18 A2975 1020 47 3100 220/05 RMK AO2
14837KMSN MSN20120627194009406/27/12 19:40:31  5-MIN KMSN 280140Z 21004KT 10SM CLR 31/18 A2975 1020 47 3100 210/04 RMK AO2
14837KMSN MSN20120627194509406/27/12 19:45:31  5-MIN KMSN 280145Z 21005KT 10SM CLR 31/18 A2976 1020 47 3100 220/05 RMK AO2
14837KMSN MSN20120627195011106/27/12 19:50:31  5-MIN KMSN 280150Z 21005KT 10SM CLR 31/18 A2976 1020 47 3100 210/05 RMK AO2 SLP069 T03060183
14837KMSN MSN20120627195509406/27/12 19:55:31  5-MIN KMSN 280155Z 21003KT 10SM CLR 30/18 A2976 1020 49 3000 210/03 RMK AO2
14837KMSN MSN20120627200009406/27/12 20:00:31  5-MIN KMSN 280200Z 20004KT 10SM CLR 30/18 A2976 1020 49 3000 200/04 RMK AO2
14837KMSN MSN20120627200509406/27/12 20:05:31  5-MIN KMSN 280205Z 21003KT 10SM CLR 30/18 A2976 1010 49 3000 210/03 RMK AO2
14837KMSN MSN20120627201009406/27/12 20:10:31  5-MIN KMSN 280210Z 20005KT 10SM CLR 30/18 A2976 1010 49 3000 200/05 RMK AO2
14837KMSN MSN20120627201509406/27/12 20:15:31  5-MIN KMSN 280215Z 22005KT 10SM CLR 30/18 A2976 1010 47 3000 220/05 RMK AO2
14837KMSN MSN20120627202009406/27/12 20:20:31  5-MIN KMSN 280220Z 21004KT 10SM CLR 30/18 A2976 1010 47 3000 210/04 RMK AO2
14837KMSN MSN20120627202509406/27/12 20:25:31  5-MIN KMSN 280225Z 22004KT 10SM CLR 30/18 A2977 1000 47 3000 220/04 RMK AO2
14837KMSN MSN20120627203009406/27/12 20:30:31  5-MIN KMSN 280230Z 21005KT 10SM CLR 29/18 A2977 1000 49 2900 210/05 RMK AO2
14837KMSN MSN20120627203509406/27/12 20:35:31  5-MIN KMSN 280235Z 21003KT 10SM CLR 29/18 A2977 1000 49 2900 210/03 RMK AO2
14837KMSN MSN20120627204009406/27/12 20:40:31  5-MIN KMSN 280240Z 21003KT 10SM CLR 29/18 A2977 1000 49 2900 210/03 RMK AO2
14837KMSN MSN20120627204509406/27/12 20:45:31  5-MIN KMSN 280245Z 18004KT 10SM CLR 29/18 A2978 1000 50 2900 190/04 RMK AO2
14837KMSN MSN20120627205011706/27/12 20:50:31  5-MIN KMSN 280250Z 18005KT 10SM CLR 29/18 A2977 1000 50 2900 180/05 RMK AO2 SLP075 T02890178 56002
14837KMSN MSN20120627205509406/27/12 20:55:31  5-MIN KMSN 280255Z 18005KT 10SM CLR 29/18 A2977 1000 50 2900 180/05 RMK AO2
14837KMSN MSN20120627210009406/27/12 21:00:31  5-MIN KMSN 280300Z 19006KT 10SM CLR 29/18 A2978 1000 50 2900 190/06 RMK AO2
14837KMSN MSN20120627210509406/27/12 21:05:31  5-MIN KMSN 280305Z 19006KT 10SM CLR 29/18 A2978 1000 50 2900 190/06 RMK AO2
14837KMSN MSN20120627211009406/27/12 21:10:31  5-MIN KMSN 280310Z 19006KT 10SM CLR 29/18 A2978 1000 50 2900 190/06 RMK AO2
14837KMSN MSN20120627211509406/27/12 21:15:31  5-MIN KMSN 280315Z 19006KT 10SM CLR 29/18 A2978 1000 52 2900 190/06 RMK AO2
14837KMSN MSN20120627212009406/27/12 21:20:31  5-MIN KMSN 280320Z 18006KT 10SM CLR 29/18 A2978 1000 52 2900 190/06 RMK AO2
14837KMSN MSN20120627212509406/27/12 21:25:31  5-MIN KMSN 280325Z 18006KT 10SM CLR 29/18 A2978 1000 52 2900 180/06 RMK AO2
14837KMSN MSN20120627213009406/27/12 21:30:31  5-MIN KMSN 280330Z 18007KT 10SM CLR 28/18 A2978 1000 54 2800 180/07 RMK AO2
14837KMSN MSN20120627213509406/27/12 21:35:31  5-MIN KMSN 280335Z 19006KT 10SM CLR 28/18 A2978 1000 54 2800 190/06 RMK AO2
14837KMSN MSN20120627214009406/27/12 21:40:31  5-MIN KMSN 280340Z 19006KT 10SM CLR 28/18 A2978 1000 54 2800 190/06 RMK AO2
14837KMSN MSN20120627214509406/27/12 21:45:31  5-MIN KMSN 280345Z 19006KT 10SM CLR 28/18 A2978 1000 54 2800 190/06 RMK AO2
14837KMSN MSN20120627215011106/27/12 21:50:31  5-MIN KMSN 280350Z 19006KT 10SM CLR 28/18 A2978 1000 54 2800 190/06 RMK AO2 SLP076 T02830183
14837KMSN MSN20120627215509406/27/12 21:55:31  5-MIN KMSN 280355Z 19006KT 10SM CLR 28/18 A2977 1000 54 2800 190/06 RMK AO2
14837KMSN MSN20120627220009406/27/12 22:00:31  5-MIN KMSN 280400Z 18006KT 10SM CLR 28/18 A2977 1000 54 2800 190/06 RMK AO2
14837KMSN MSN20120627220509406/27/12 22:05:31  5-MIN KMSN 280405Z 19006KT 10SM CLR 28/18 A2977 1000 54 2800 190/06 RMK AO2
14837KMSN MSN20120627221009406/27/12 22:10:31  5-MIN KMSN 280410Z 18006KT 10SM CLR 28/18 A2977 1000 56 2700 190/06 RMK AO2
14837KMSN MSN20120627221509406/27/12 22:15:31  5-MIN KMSN 280415Z 19006KT 10SM CLR 28/18 A2977 1000 56 2700 190/06 RMK AO2
14837KMSN MSN20120627222009406/27/12 22:20:31  5-MIN KMSN 280420Z 19006KT 10SM CLR 28/18 A2977 1000 56 2700 190/06 RMK AO2
14837KMSN MSN20120627222509406/27/12 22:25:31  5-MIN KMSN 280425Z 19007KT 10SM CLR 28/18 A2977 1010 56 2700 190/07 RMK AO2
14837KMSN MSN20120627223009406/27/12 22:30:31  5-MIN KMSN 280430Z 19006KT 10SM CLR 28/18 A2977 1010 56 2700 190/06 RMK AO2
14837KMSN MSN20120627223509406/27/12 22:35:31  5-MIN KMSN 280435Z 19006KT 10SM CLR 28/18 A2977 1010 54 2700 190/06 RMK AO2
14837KMSN MSN20120627224009406/27/12 22:40:31  5-MIN KMSN 280440Z 19006KT 10SM CLR 28/18 A2976 1010 54 2700 190/06 RMK AO2
14837KMSN MSN20120627224509406/27/12 22:45:31  5-MIN KMSN 280445Z 19006KT 10SM CLR 27/18 A2976 1010 56 2700 190/06 RMK AO2
14837KMSN MSN20120627225011106/27/12 22:50:31  5-MIN KMSN 280450Z 19006KT 10SM CLR 27/18 A2976 1010 56 2700 190/06 RMK AO2 SLP068 T02720178
14837KMSN MSN20120627225509406/27/12 22:55:31  5-MIN KMSN 280455Z 19007KT 10SM CLR 27/18 A2976 1020 56 2700 190/07 RMK AO2
14837KMSN MSN20120627230009406/27/12 23:00:31  5-MIN KMSN 280500Z 19006KT 10SM CLR 28/18 A2976 1020 54 2800 190/06 RMK AO2
14837KMSN MSN20120627230509406/27/12 23:05:31  5-MIN KMSN 280505Z 19008KT 10SM CLR 28/18 A2976 1020 54 2800 190/08 RMK AO2
14837KMSN MSN20120627231009406/27/12 23:10:31  5-MIN KMSN 280510Z 19006KT 10SM CLR 28/18 A2976 1020 54 2800 200/06 RMK AO2
14837KMSN MSN20120627231509406/27/12 23:15:31  5-MIN KMSN 280515Z 20005KT 10SM CLR 27/18 A2976 1020 56 2700 200/05 RMK AO2
14837KMSN MSN20120627232009406/27/12 23:20:31  5-MIN KMSN 280520Z 19005KT 10SM CLR 27/18 A2975 1020 56 2700 190/05 RMK AO2
14837KMSN MSN20120627232509406/27/12 23:25:31  5-MIN KMSN 280525Z 19005KT 10SM CLR 27/18 A2975 1020 56 2700 190/05 RMK AO2
14837KMSN MSN20120627233009406/27/12 23:30:31  5-MIN KMSN 280530Z 21005KT 10SM CLR 27/18 A2975 1020 56 2700 210/05 RMK AO2
14837KMSN MSN20120627233509406/27/12 23:35:31  5-MIN KMSN 280535Z 20005KT 10SM CLR 27/18 A2975 1020 56 2700 200/05 RMK AO2
14837KMSN MSN20120627234009406/27/12 23:40:31  5-MIN KMSN 280540Z 20005KT 10SM CLR 27/18 A2975 1020 56 2700 200/05 RMK AO2
14837KMSN MSN20120627234509406/27/12 23:45:31  5-MIN KMSN 280545Z 21004KT 10SM CLR 27/18 A2975 1020 58 2700 210/04 RMK AO2
14837KMSN MSN20120627235013906/27/12 23:50:31  5-MIN KMSN 280550Z 20005KT 10SM CLR 27/18 A2975 1020 58 2700 200/05 RMK AO2 SLP066 T02720183 10328 20272 403440183 53015
14837KMSN MSN20120627235509406/27/12 23:55:31  5-MIN KMSN 280555Z 20005KT 10SM CLR 27/18 A2975 1020 58 2700 210/05 RMK AO2
14837KMSN MSN20120628000009406/28/12 00:00:32  5-MIN KMSN 280600Z 21004KT 10SM CLR 27/18 A2975 1020 58 2700 210/04 RMK AO2
14837KMSN MSN20120628000509406/28/12 00:05:31  5-MIN KMSN 280605Z 21003KT 10SM CLR 27/18 A2975 1020 58 2700 210/03 RMK AO2
14837KMSN MSN20120628001009406/28/12 00:10:31  5-MIN KMSN 280610Z 22007KT 10SM CLR 27/18 A2975 1020 60 2600 230/07 RMK AO2
14837KMSN MSN20120628001509406/28/12 00:15:31  5-MIN KMSN 280615Z 22004KT 10SM CLR 27/18 A2975 1020 58 2700 220/04 RMK AO2
14837KMSN MSN20120628002009406/28/12 00:20:31  5-MIN KMSN 280620Z 22005KT 10SM CLR 27/18 A2975 1020 60 2600 220/05 RMK AO2
14837KMSN MSN20120628002509406/28/12 00:25:31  5-MIN KMSN 280625Z 21007KT 10SM CLR 27/19 A2975 1020 62 2600 220/07 RMK AO2
14837KMSN MSN20120628003009406/28/12 00:30:31  5-MIN KMSN 280630Z 22006KT 10SM CLR 27/19 A2975 1020 60 2700 220/06 RMK AO2
14837KMSN MSN20120628003509406/28/12 00:35:31  5-MIN KMSN 280635Z 21006KT 10SM CLR 27/19 A2974 1030 60 2700 220/06 RMK AO2
14837KMSN MSN20120628004009406/28/12 00:40:31  5-MIN KMSN 280640Z 22005KT 10SM CLR 27/19 A2974 1030 60 2700 220/05 RMK AO2
14837KMSN MSN20120628004509406/28/12 00:45:31  5-MIN KMSN 280645Z 22005KT 10SM CLR 27/19 A2974 1030 62 2600 220/05 RMK AO2
14837KMSN MSN20120628005011106/28/12 00:50:31  5-MIN KMSN 280650Z 00000KT 10SM CLR 27/19 A2975 1030 62 2600 000/00 RMK AO2 SLP064 T02670189
14837KMSN MSN20120628005509406/28/12 00:55:31  5-MIN KMSN 280655Z 00000KT 10SM CLR 27/19 A2975 1030 62 2600 000/00 RMK AO2
14837KMSN MSN20120628010009406/28/12 01:00:31  5-MIN KMSN 280700Z 00000KT 10SM CLR 27/19 A2975 1030 62 2600 000/00 RMK AO2
14837KMSN MSN20120628010509406/28/12 01:05:31  5-MIN KMSN 280705Z 00000KT 10SM CLR 27/19 A2975 1030 62 2600 000/00 RMK AO2
14837KMSN MSN20120628011009406/28/12 01:10:31  5-MIN KMSN 280710Z 00000KT 10SM CLR 26/19 A2975 1030 66 2500 000/00 RMK AO2
14837KMSN MSN20120628011509406/28/12 01:15:31  5-MIN KMSN 280715Z 00000KT 10SM CLR 26/19 A2974 1030 66 2600 000/00 RMK AO2
14837KMSN MSN20120628012009406/28/12 01:20:31  5-MIN KMSN 280720Z 17003KT 10SM CLR 26/19 A2974 1030 66 2600 170/03 RMK AO2
14837KMSN MSN20120628012509406/28/12 01:25:31  5-MIN KMSN 280725Z 18003KT 10SM CLR 26/19 A2974 1030 66 2600 180/03 RMK AO2
14837KMSN MSN20120628013009406/28/12 01:30:31  5-MIN KMSN 280730Z 00000KT 10SM CLR 26/19 A2974 1030 66 2600 000/00 RMK AO2
14837KMSN MSN20120628013509406/28/12 01:35:31  5-MIN KMSN 280735Z 00000KT 10SM CLR 26/19 A2974 1030 66 2600 000/00 RMK AO2
14837KMSN MSN20120628014009406/28/12 01:40:31  5-MIN KMSN 280740Z 00000KT 10SM CLR 26/19 A2974 1030 68 2500 000/00 RMK AO2
14837KMSN MSN20120628014509406/28/12 01:45:31  5-MIN KMSN 280745Z 00000KT 10SM CLR 26/19 A2974 1030 68 2500 000/00 RMK AO2
14837KMSN MSN20120628015011106/28/12 01:50:31  5-MIN KMSN 280750Z 22004KT 10SM CLR 26/20 A2974 1030 68 2600 230/04 RMK AO2 SLP062 T02610200
14837KMSN MSN20120628015509406/28/12 01:55:31  5-MIN KMSN 280755Z 21003KT 10SM CLR 27/21 A2974 1030 69 2700 210/03 RMK AO2
14837KMSN MSN20120628020009406/28/12 02:00:31  5-MIN KMSN 280800Z 00000KT 10SM CLR 27/21 A2974 1030 69 2700 000/00 RMK AO2
14837KMSN MSN20120628020509406/28/12 02:05:31  5-MIN KMSN 280805Z 00000KT 10SM CLR 27/21 A2974 1030 69 2700 000/00 RMK AO2
14837KMSN MSN20120628021009406/28/12 02:10:31  5-MIN KMSN 280810Z 00000KT 10SM CLR 27/21 A2974 1030 69 2700 000/00 RMK AO2
14837KMSN MSN20120628021509406/28/12 02:15:31  5-MIN KMSN 280815Z 00000KT 10SM CLR 27/21 A2974 1030 71 2700 000/00 RMK AO2
14837KMSN MSN20120628022009406/28/12 02:20:31  5-MIN KMSN 280820Z 00000KT 10SM CLR 26/21 A2974 1030 73 2500 000/00 RMK AO2
14837KMSN MSN20120628022509406/28/12 02:25:31  5-MIN KMSN 280825Z 00000KT 10SM CLR 24/20 A2974 1030 76 2400 000/00 RMK AO2
14837KMSN MSN20120628023009406/28/12 02:30:31  5-MIN KMSN 280830Z 00000KT 10SM CLR 24/20 A2974 1030 78 2300 000/00 RMK AO2
14837KMSN MSN20120628023509406/28/12 02:35:31  5-MIN KMSN 280835Z 00000KT 10SM CLR 24/19 A2974 1030 73 2400 000/00 RMK AO2
14837KMSN MSN20120628024009406/28/12 02:40:31  5-MIN KMSN 280840Z 22004KT 10SM CLR 26/21 A2974 1030 73 2500 220/04 RMK AO2
14837KMSN MSN20120628024509406/28/12 02:45:31  5-MIN KMSN 280845Z 22006KT 10SM CLR 28/21 A2974 1030 66 2800 220/06 RMK AO2
14837KMSN MSN20120628025011706/28/12 02:50:31  5-MIN KMSN 280850Z 22008KT 10SM CLR 28/22 A2974 1030 69 2800 220/08 RMK AO2 SLP061 T02780217 58007
14837KMSN MSN20120628025509406/28/12 02:55:31  5-MIN KMSN 280855Z 22007KT 10SM CLR 28/22 A2974 1030 69 2800 220/07 RMK AO2
14837KMSN MSN20120628030009406/28/12 03:00:31  5-MIN KMSN 280900Z 22007KT 10SM CLR 28/22 A2974 1030 69 2800 220/07 RMK AO2
14837KMSN MSN20120628030509406/28/12 03:05:31  5-MIN KMSN 280905Z 22007KT 10SM CLR 28/21 A2974 1030 66 2800 230/07 RMK AO2
14837KMSN MSN20120628031009406/28/12 03:10:31  5-MIN KMSN 280910Z 22007KT 10SM CLR 28/21 A2974 1030 66 2800 220/07 RMK AO2
14837KMSN MSN20120628031509406/28/12 03:15:31  5-MIN KMSN 280915Z 22007KT 10SM CLR 28/21 A2974 1030 66 2800 220/07 RMK AO2
14837KMSN MSN20120628032009406/28/12 03:20:31  5-MIN KMSN 280920Z 22006KT 10SM CLR 28/21 A2974 1030 66 2800 220/06 RMK AO2
14837KMSN MSN20120628032509406/28/12 03:25:31  5-MIN KMSN 280925Z 22005KT 10SM CLR 27/22 A2974 1030 71 2700 220/05 RMK AO2
14837KMSN MSN20120628033009406/28/12 03:30:31  5-MIN KMSN 280930Z 22006KT 10SM CLR 27/22 A2974 1040 71 2700 220/06 RMK AO2
14837KMSN MSN20120628033509406/28/12 03:35:31  5-MIN KMSN 280935Z 22009KT 10SM CLR 27/21 A2974 1030 69 2700 230/09 RMK AO2
14837KMSN MSN20120628034009406/28/12 03:40:31  5-MIN KMSN 280940Z 22007KT 10SM CLR 27/21 A2974 1030 69 2700 220/07 RMK AO2
14837KMSN MSN20120628034509406/28/12 03:45:31  5-MIN KMSN 280945Z 22007KT 10SM CLR 27/21 A2974 1030 69 2700 220/07 RMK AO2
14837KMSN MSN20120628035011106/28/12 03:50:31  5-MIN KMSN 280950Z 21006KT 10SM CLR 27/21 A2974 1030 69 2700 220/06 RMK AO2 SLP062 T02720211
14837KMSN MSN20120628035509406/28/12 03:55:31  5-MIN KMSN 280955Z 21006KT 10SM CLR 27/21 A2974 1030 69 2700 210/06 RMK AO2
14837KMSN MSN20120628040009406/28/12 04:00:31  5-MIN KMSN 281000Z 21006KT 10SM CLR 27/21 A2974 1040 69 2700 210/06 RMK AO2
14837KMSN MSN20120628040509406/28/12 04:05:31  5-MIN KMSN 281005Z 22006KT 10SM CLR 27/21 A2974 1040 69 2700 220/06 RMK AO2
14837KMSN MSN20120628041009406/28/12 04:10:31  5-MIN KMSN 281010Z 21006KT 10SM CLR 27/21 A2974 1030 69 2700 210/06 RMK AO2
14837KMSN MSN20120628041509406/28/12 04:15:31  5-MIN KMSN 281015Z 21005KT 10SM CLR 27/21 A2974 1030 69 2700 210/05 RMK AO2
14837KMSN MSN20120628042009406/28/12 04:20:31  5-MIN KMSN 281020Z 22006KT 10SM CLR 27/21 A2974 1030 69 2700 220/06 RMK AO2
14837KMSN MSN20120628042509406/28/12 04:25:31  5-MIN KMSN 281025Z 21004KT 10SM CLR 27/21 A2974 1030 69 2600 220/04 RMK AO2
14837KMSN MSN20120628043009406/28/12 04:30:31  5-MIN KMSN 281030Z 22003KT 10SM CLR 27/21 A2974 1030 69 2600 220/03 RMK AO2
14837KMSN MSN20120628043509406/28/12 04:35:31  5-MIN KMSN 281035Z 20003KT 10SM CLR 27/21 A2974 1030 69 2600 200/03 RMK AO2
14837KMSN MSN20120628044009406/28/12 04:40:31  5-MIN KMSN 281040Z 18004KT 10SM CLR 27/21 A2974 1030 69 2600 180/04 RMK AO2
14837KMSN MSN20120628044509406/28/12 04:45:31  5-MIN KMSN 281045Z 00000KT 10SM CLR 26/21 A2975 1030 71 2600 000/00 RMK AO2
14837KMSN MSN20120628045011106/28/12 04:50:31  5-MIN KMSN 281050Z 19004KT 10SM CLR 26/21 A2975 1030 71 2600 190/04 RMK AO2 SLP064 T02610206
14837KMSN MSN20120628045509406/28/12 04:55:31  5-MIN KMSN 281055Z 18004KT 10SM CLR 26/21 A2975 1030 71 2600 180/04 RMK AO2
14837KMSN MSN20120628050009406/28/12 05:00:31  5-MIN KMSN 281100Z 19004KT 10SM CLR 26/21 A2975 1030 71 2600 190/04 RMK AO2
14837KMSN MSN20120628050509406/28/12 05:05:31  5-MIN KMSN 281105Z 18005KT 10SM CLR 26/21 A2975 1030 71 2600 180/05 RMK AO2
14837KMSN MSN20120628051009406/28/12 05:10:31  5-MIN KMSN 281110Z 18005KT 10SM CLR 26/21 A2975 1020 71 2600 180/05 RMK AO2
14837KMSN MSN20120628051509406/28/12 05:15:31  5-MIN KMSN 281115Z 18004KT 10SM CLR 26/21 A2975 1020 71 2600 180/04 RMK AO2
14837KMSN MSN20120628052009406/28/12 05:20:31  5-MIN KMSN 281120Z 18004KT 10SM CLR 26/21 A2975 1020 71 2600 180/04 RMK AO2
14837KMSN MSN20120628052509406/28/12 05:25:31  5-MIN KMSN 281125Z 18003KT 10SM CLR 26/21 A2975 1020 71 2600 190/03 RMK AO2
14837KMSN MSN20120628053009406/28/12 05:30:31  5-MIN KMSN 281130Z 00000KT 10SM CLR 26/21 A2975 1020 71 2600 000/00 RMK AO2
14837KMSN MSN20120628053509406/28/12 05:35:31  5-MIN KMSN 281135Z 00000KT 10SM CLR 27/21 A2975 1020 69 2600 000/00 RMK AO2
14837KMSN MSN20120628054009406/28/12 05:40:31  5-MIN KMSN 281140Z VRB03KT 10SM CLR 27/21 A2976 1020 69 2600 VRB/03 RMK AO2
14837KMSN MSN20120628054509406/28/12 05:45:31  5-MIN KMSN 281145Z VRB03KT 10SM CLR 27/21 A2976 1020 69 2600 VRB/03 RMK AO2
14837KMSN MSN20120628055012906/28/12 05:50:31  5-MIN KMSN 281150Z 23004KT 10SM CLR 27/21 A2976 1010 69 2600 230/04 RMK AO2 SLP069 T02670206 10278 20239 56004
14837KMSN MSN20120628055509406/28/12 05:55:31  5-MIN KMSN 281155Z 23003KT 10SM CLR 27/21 A2976 1010 69 2600 230/03 RMK AO2
14837KMSN MSN20120628060009406/28/12 06:00:31  5-MIN KMSN 281200Z 22003KT 10SM CLR 27/21 A2976 1010 71 2600 230/03 RMK AO2
14837KMSN MSN20120628060509406/28/12 06:05:31  5-MIN KMSN 281205Z 23003KT 10SM CLR 27/21 A2976 1010 69 2700 230/03 RMK AO2
14837KMSN MSN20120628061009406/28/12 06:10:31  5-MIN KMSN 281210Z 22004KT 10SM CLR 27/21 A2976 1010 69 2700 220/04 RMK AO2
14837KMSN MSN20120628061509406/28/12 06:15:31  5-MIN KMSN 281215Z 22004KT 10SM CLR 28/21 A2976 1020 66 2800 230/04 RMK AO2
14837KMSN MSN20120628062009406/28/12 06:20:31  5-MIN KMSN 281220Z 22006KT 10SM CLR 28/21 A2976 1020 66 2800 220/06 RMK AO2
14837KMSN MSN20120628062509406/28/12 06:25:31  5-MIN KMSN 281225Z 23006KT 10SM CLR 28/21 A2976 1010 66 2800 230/06 RMK AO2
14837KMSN MSN20120628063009406/28/12 06:30:31  5-MIN KMSN 281230Z VRB05KT 10SM CLR 28/21 A2975 1020 66 2800 VRB/05 RMK AO2
14837KMSN MSN20120628063509406/28/12 06:35:31  5-MIN KMSN 281235Z 23006KT 10SM CLR 28/21 A2976 1020 66 2800 240/06 RMK AO2
14837KMSN MSN20120628064009406/28/12 06:40:31  5-MIN KMSN 281240Z VRB04KT 10SM CLR 28/21 A2976 1010 64 2800 VRB/04 RMK AO2
14837KMSN MSN20120628064509406/28/12 06:45:31  5-MIN KMSN 281245Z 23005KT 10SM CLR 28/22 A2976 1010 66 2800 230/05 RMK AO2
14837KMSN MSN20120628065011106/28/12 06:50:31  5-MIN KMSN 281250Z VRB05KT 10SM CLR 28/21 A2976 1010 64 2800 VRB/05 RMK AO2 SLP070 T02830211
14837KMSN MSN20120628065509306/28/12 06:55:31  5-MIN KMSN 281255Z 23005KT 9SM CLR 28/21 A2976 1010 64 2800 230/05 RMK AO2
14837KMSN MSN20120628070010906/28/12 07:00:31  5-MIN KMSN 281300Z 24007KT 200V270 9SM CLR 28/22 A2976 1020 66 2800 240/07 200V270 RMK AO2
14837KMSN MSN20120628070509306/28/12 07:05:31  5-MIN KMSN 281305Z VRB06KT 9SM CLR 28/22 A2976 1010 66 2800 VRB/06 RMK AO2
14837KMSN MSN20120628071009306/28/12 07:10:31  5-MIN KMSN 281310Z 23006KT 9SM CLR 29/22 A2976 1010 64 2900 230/06 RMK AO2
14837KMSN MSN20120628071509306/28/12 07:15:31  5-MIN KMSN 281315Z 25007KT 9SM CLR 29/22 A2976 1010 64 2900 250/07 RMK AO2
14837KMSN MSN20120628072009306/28/12 07:20:31  5-MIN KMSN 281320Z 24005KT 9SM CLR 29/22 A2976 1010 64 2900 240/05 RMK AO2
14837KMSN MSN20120628072509306/28/12 07:25:31  5-MIN KMSN 281325Z 24005KT 9SM CLR 29/22 A2976 1010 64 2900 240/05 RMK AO2
14837KMSN MSN20120628073009306/28/12 07:30:31  5-MIN KMSN 281330Z VRB04KT 9SM CLR 29/22 A2976 1010 62 2900 VRB/04 RMK AO2
14837KMSN MSN20120628073509306/28/12 07:35:31  5-MIN KMSN 281335Z VRB04KT 8SM CLR 30/22 A2976 1010 62 3000 VRB/04 RMK AO2
14837KMSN MSN20120628074009306/28/12 07:40:31  5-MIN KMSN 281340Z VRB04KT 8SM CLR 30/22 A2976 1010 62 3000 VRB/04 RMK AO2
14837KMSN MSN20120628074509306/28/12 07:45:31  5-MIN KMSN 281345Z 27004KT 9SM CLR 30/22 A2976 1010 62 3000 270/04 RMK AO2
14837KMSN MSN20120628075011006/28/12 07:50:31  5-MIN KMSN 281350Z VRB05KT 9SM CLR 31/22 A2976 1010 60 3100 VRB/05 RMK AO2 SLP069 T03060222
14837KMSN MSN20120628075509306/28/12 07:55:31  5-MIN KMSN 281355Z 30009KT 9SM CLR 31/22 A2976 1020 60 3100 300/09 RMK AO2
14837KMSN MSN20120628080009906/28/12 08:00:31  5-MIN KMSN 281400Z 29009G14KT 9SM CLR 31/22 A2976 1010 60 3100 290/09G14 RMK AO2
14837KMSN MSN20120628080509906/28/12 08:05:31  5-MIN KMSN 281405Z VRB06G14KT 9SM CLR 31/22 A2976 1010 60 3100 VRB/06G14 RMK AO2
14837KMSN MSN20120628081009306/28/12 08:10:31  5-MIN KMSN 281410Z 31008KT 9SM CLR 31/23 A2976 1010 60 3100 310/08 RMK AO2
14837KMSN MSN20120628081509306/28/12 08:15:31  5-MIN KMSN 281415Z 31008KT 9SM CLR 31/22 A2976 1020 58 3100 310/08 RMK AO2
14837KMSN MSN20120628082009306/28/12 08:20:31  5-MIN KMSN 281420Z 30008KT 9SM CLR 31/23 A2975 1020 60 3100 310/08 RMK AO2
14837KMSN MSN20120628082509306/28/12 08:25:31  5-MIN KMSN 281425Z VRB06KT 9SM CLR 31/23 A2975 1020 60 3100 VRB/06 RMK AO2
14837KMSN MSN20120628083009306/28/12 08:30:31  5-MIN KMSN 281430Z 31007KT 9SM CLR 32/23 A2976 1020 58 3200 310/07 RMK AO2
14837KMSN MSN20120628083509906/28/12 08:35:31  5-MIN KMSN 281435Z 32010G14KT 9SM CLR 32/23 A2975 1020 58 3200 330/10G14 RMK AO2
14837KMSN MSN20120628084009906/28/12 08:40:31  5-MIN KMSN 281440Z 33008G14KT 8SM CLR 32/23 A2975 1020 58 3200 330/08G14 RMK AO2
14837KMSN MSN20120628084509306/28/12 08:45:31  5-MIN KMSN 281445Z 32008KT 8SM CLR 32/23 A2975 1020 58 3200 320/08 RMK AO2
14837KMSN MSN20120628085011906/28/12 08:50:31  5-MIN KMSN 281450Z 32008KT 9SM FEW110 32/23 A2975 1020 61 3200 320/08 RMK AO2 SLP065 T03170233 53007
14837KMSN MSN20120628085511206/28/12 08:55:31  5-MIN KMSN 281455Z 32009KT 290V350 9SM FEW110 32/23 A2975 1020 59 3300 320/09 290V350 RMK AO2
14837KMSN MSN20120628090009606/28/12 09:00:31  5-MIN KMSN 281500Z 32009KT 9SM FEW110 32/23 A2975 1020 59 3300 330/09 RMK AO2
14837KMSN MSN20120628090510206/28/12 09:05:31  5-MIN KMSN 281505Z 35010G17KT 9SM FEW110 32/23 A2975 1020 59 3300 350/10G17 RMK AO2
14837KMSN MSN20120628091010206/28/12 09:10:31  5-MIN KMSN 281510Z 34007G17KT 9SM FEW110 32/23 A2975 1020 59 3300 340/07G17 RMK AO2
14837KMSN MSN20120628091509606/28/12 09:15:31  5-MIN KMSN 281515Z 33007KT 9SM FEW110 32/23 A2975 1020 59 3300 330/07 RMK AO2
14837KMSN MSN20120628092009606/28/12 09:20:31  5-MIN KMSN 281520Z 35007KT 9SM FEW110 33/23 A2975 1020 57 3300 350/07 RMK AO2
14837KMSN MSN20120628092509306/28/12 09:25:31  5-MIN KMSN 281525Z 34007KT 9SM CLR 33/23 A2976 1020 57 3300 340/07 RMK AO2
14837KMSN MSN20120628093009306/28/12 09:30:31  5-MIN KMSN 281530Z 33009KT 9SM CLR 33/24 A2976 1010 59 3300 330/09 RMK AO2
14837KMSN MSN20120628093509306/28/12 09:35:31  5-MIN KMSN 281535Z 33005KT 9SM CLR 32/24 A2976 1010 61 3200 330/05 RMK AO2
14837KMSN MSN20120628094009306/28/12 09:40:31  5-MIN KMSN 281540Z 33007KT 9SM CLR 33/24 A2977 1010 57 3400 330/07 RMK AO2
14837KMSN MSN20120628094509306/28/12 09:45:31  5-MIN KMSN 281545Z 33007KT 9SM CLR 33/24 A2976 1010 59 3300 330/07 RMK AO2
14837KMSN MSN20120628095011006/28/12 09:50:31  5-MIN KMSN 281550Z 34006KT 9SM CLR 33/24 A2977 1010 57 3400 340/06 RMK AO2 SLP070 T03330239
14837KMSN MSN20120628095509606/28/12 09:55:31  5-MIN KMSN 281555Z VRB06KT 9SM FEW040 34/24 A2977 1010 55 3400 VRB/06 RMK AO2
14837KMSN MSN20120628100009606/28/12 10:00:31  5-MIN KMSN 281600Z 33006KT 9SM FEW050 33/24 A2977 1000 57 3300 330/06 RMK AO2
14837KMSN MSN20120628100509606/28/12 10:05:31  5-MIN KMSN 281605Z VRB06KT 9SM SCT050 33/24 A2977 1000 59 3300 VRB/06 RMK AO2
14837KMSN MSN20120628101009606/28/12 10:10:31  5-MIN KMSN 281610Z 35006KT 9SM FEW050 34/24 A2977 1000 55 3400 350/06 RMK AO2
14837KMSN MSN20120628101509606/28/12 10:15:31  5-MIN KMSN 281615Z 33006KT 9SM FEW050 34/24 A2977 1000 57 3400 340/06 RMK AO2
14837KMSN MSN20120628102009606/28/12 10:20:31  5-MIN KMSN 281620Z 33008KT 9SM FEW050 34/24 A2978 1000 57 3400 330/08 RMK AO2
14837KMSN MSN20120628102509606/28/12 10:25:31  5-MIN KMSN 281625Z 35007KT 9SM FEW050 34/24 A2978 1000 55 3500 350/07 RMK AO2
14837KMSN MSN20120628103009606/28/12 10:30:31  5-MIN KMSN 281630Z 34009KT 9SM FEW048 34/24 A2978 1000 55 3500 340/09 RMK AO2
14837KMSN MSN20120628103511206/28/12 10:35:31  5-MIN KMSN 281635Z 34008KT 300V010 10SM FEW048 35/24 A2978 990 53 3500 340/08 300V010 RMK AO2
14837KMSN MSN20120628104011106/28/12 10:40:31  5-MIN KMSN 281640Z 31008KT 270V340 9SM FEW048 35/24 A2978 990 53 3500 320/08 270V340 RMK AO2
14837KMSN MSN20120628104510206/28/12 10:45:31  5-MIN KMSN 281645Z 36010G15KT 9SM BKN035 34/24 A2978 1000 55 3500 360/10G15 RMK AO2
14837KMSN MSN20120628105011906/28/12 10:50:31  5-MIN KMSN 281650Z 35008G15KT 9SM BKN035 34/24 A2978 1000 57 3400 350/08G15 RMK AO2 SLP075 T03390244
14837KMSN MSN20120628105509606/28/12 10:55:31  5-MIN KMSN 281655Z 34008KT 10SM BKN035 34/24 A2978 990 55 3500 340/08 RMK AO2
14837KMSN MSN20120628110010206/28/12 11:00:31  5-MIN KMSN 281700Z 34008G16KT 10SM BKN035 34/24 A2979 990 53 3400 340/08G16 RMK AO2
14837KMSN MSN20120628110512506/28/12 11:05:31  5-MIN KMSN 281705Z 32008G16KT 290V360 10SM BKN037 34/24 A2980 980 55 3400 330/08G16 290V360 RMK AO2 PRESRR
14837KMSN MSN20120628111009606/28/12 11:10:31  5-MIN KMSN 281710Z 35012KT 10SM BKN037 34/24 A2979 990 53 3400 350/12 RMK AO2
14837KMSN MSN20120628111510906/28/12 11:15:31  5-MIN KMSN 281715Z 33008G16KT 10SM BKN039 BKN046 34/23 A2979 990 53 3400 340/08G16 RMK AO2
14837KMSN MSN20120628112010206/28/12 11:20:31  5-MIN KMSN 281720Z 34011G16KT 10SM BKN041 34/23 A2979 990 52 3400 340/11G16 RMK AO2
14837KMSN MSN20120628112510206/28/12 11:25:31  5-MIN KMSN 281725Z 34007G15KT 10SM BKN041 34/23 A2978 990 52 3500 350/07G15 RMK AO2
14837KMSN MSN20120628113010206/28/12 11:30:31  5-MIN KMSN 281730Z 01010G15KT 10SM BKN041 35/23 A2978 990 50 3500 010/10G15 RMK AO2
14837KMSN MSN20120628113510306/28/12 11:35:31  5-MIN KMSN 281735Z 01012G15KT 10SM SCT041 36/23 A2978 1000 47 3600 010/12G15 RMK AO2
14837KMSN MSN20120628114009706/28/12 11:40:31  5-MIN KMSN 281740Z 01008KT 10SM SCT041 36/23 A2978 1000 47 3600 010/08 RMK AO2
14837KMSN MSN20120628114510206/28/12 11:45:31  5-MIN KMSN 281745Z 36010G15KT 10SM SCT041 35/23 A2978 990 48 3500 360/10G15 RMK AO2
14837KMSN MSN20120628115013106/28/12 11:50:31  5-MIN KMSN 281750Z 34009KT 10SM SCT041 35/23 A2979 990 48 3500 340/09 RMK AO2 SLP077 T03500228 10356 20267 58004
14837KMSN MSN20120628115510206/28/12 11:55:31  5-MIN KMSN 281755Z 34010G14KT 10SM SCT045 35/23 A2980 980 48 3500 340/10G14 RMK AO2
14837KMSN MSN20120628120009606/28/12 12:00:31  5-MIN KMSN 281800Z 35008KT 10SM BKN045 35/23 A2979 980 48 3500 360/08 RMK AO2
14837KMSN MSN20120628120510206/28/12 12:05:31  5-MIN KMSN 281805Z 33011G17KT 10SM BKN045 36/23 A2979 980 47 3600 330/11G17 RMK AO2
14837KMSN MSN20120628121010206/28/12 12:10:31  5-MIN KMSN 281810Z 33008G17KT 10SM BKN045 36/23 A2980 980 47 3600 340/08G17 RMK AO2
14837KMSN MSN20120628121510206/28/12 12:15:31  5-MIN KMSN 281815Z 33010G17KT 10SM BKN045 35/23 A2980 980 48 3500 340/10G17 RMK AO2
14837KMSN MSN20120628122010206/28/12 12:20:31  5-MIN KMSN 281820Z 35011G17KT 10SM BKN045 36/22 A2980 980 45 3600 350/11G17 RMK AO2
14837KMSN MSN20120628122509606/28/12 12:25:31  5-MIN KMSN 281825Z 35010KT 10SM BKN045 36/22 A2980 980 44 3600 350/10 RMK AO2
14837KMSN MSN20120628123009606/28/12 12:30:31  5-MIN KMSN 281830Z 35011KT 10SM BKN045 36/22 A2980 980 45 3600 350/11 RMK AO2
14837KMSN MSN20120628123509606/28/12 12:35:31  5-MIN KMSN 281835Z 32010KT 10SM BKN047 35/22 A2981 970 47 3500 320/10 RMK AO2
14837KMSN MSN20120628124010206/28/12 12:40:31  5-MIN KMSN 281840Z 33009G16KT 10SM BKN047 34/22 A2981 970 50 3400 330/09G16 RMK AO2
14837KMSN MSN20120628124510206/28/12 12:45:31  5-MIN KMSN 281845Z 34010G16KT 10SM BKN049 34/22 A2982 960 48 3400 340/10G16 RMK AO2
14837KMSN MSN20120628125011906/28/12 12:50:31  5-MIN KMSN 281850Z 35008G16KT 10SM BKN049 34/22 A2981 970 48 3400 350/08G16 RMK AO2 SLP086 T03440222
14837KMSN MSN20120628125509606/28/12 12:55:31  5-MIN KMSN 281855Z 34008KT 10SM SCT049 35/22 A2981 960 47 3500 340/08 RMK AO2
14837KMSN MSN20120628130009606/28/12 13:00:31  5-MIN KMSN 281900Z 33008KT 10SM SCT049 35/23 A2982 960 48 3500 330/08 RMK AO2
14837KMSN MSN20120628130509606/28/12 13:05:31  5-MIN KMSN 281905Z 32010KT 10SM SCT049 34/22 A2982 950 48 3400 330/10 RMK AO2
14837KMSN MSN20120628131010306/28/12 13:10:31  5-MIN KMSN 281910Z 30009KT 10SM BKN047 34/22 A2983 950 48 3400 300/09 RMK AO2 PRESRR
14837KMSN MSN20120628131511206/28/12 13:15:31  5-MIN KMSN 281915Z 32008KT 290V350 10SM BKN047 34/22 A2983 950 48 3400 320/08 290V350 RMK AO2
14837KMSN MSN20120628132009606/28/12 13:20:31  5-MIN KMSN 281920Z 34010KT 10SM SCT045 33/22 A2982 960 51 3300 340/10 RMK AO2
14837KMSN MSN20120628132509606/28/12 13:25:31  5-MIN KMSN 281925Z 34009KT 10SM SCT045 33/22 A2981 960 53 3200 340/09 RMK AO2
14837KMSN MSN20120628133011906/28/12 13:30:31  5-MIN KMSN 281930Z 34007KT 10SM -RA FEW037 SCT045 33/22 A2983 950 51 3300 340/07 RMK AO2 RAB29 P0000
14837KMSN MSN20120628133511806/28/12 13:35:31  5-MIN KMSN 281935Z 33008KT 10SM FEW037 SCT045 34/23 A2982 960 50 3400 330/08 RMK AO2 RAB29E35 P0000
14837KMSN MSN20120628134011106/28/12 13:40:31  5-MIN KMSN 281940Z 32009KT 10SM FEW043 34/22 A2982 950 50 3300 320/09 RMK AO2 RAB29E35 P0000
14837KMSN MSN20120628134511106/28/12 13:45:31  5-MIN KMSN 281945Z 32008KT 10SM SCT043 34/22 A2982 960 48 3400 320/08 RMK AO2 RAB29E35 P0000
14837KMSN MSN20120628135013506/28/12 13:50:31  5-MIN KMSN 281950Z 32009KT 10SM FEW045 SCT110 34/22 A2982 960 48 3400 320/09 RMK AO2 RAB29E35 SLP090 P0000 T03440222
14837KMSN MSN20120628135510306/28/12 13:55:31  5-MIN KMSN 281955Z 32009KT 10SM FEW045 SCT110 34/22 A2982 960 50 3400 320/09 RMK AO2
14837KMSN MSN20120628140010306/28/12 14:00:31  5-MIN KMSN 282000Z 31008KT 10SM FEW045 SCT110 34/23 A2982 960 51 3400 310/08 RMK AO2
14837KMSN MSN20120628140510306/28/12 14:05:31  5-MIN KMSN 282005Z 35008KT 10SM FEW045 SCT110 34/23 A2982 960 50 3400 350/08 RMK AO2
14837KMSN MSN20120628141011906/28/12 14:10:31  5-MIN KMSN 282010Z 30007KT 270V340 10SM FEW045 SCT110 34/23 A2982 960 50 3400 300/07 270V340 RMK AO2
14837KMSN MSN20120628141510306/28/12 14:15:31  5-MIN KMSN 282015Z VRB04KT 10SM FEW045 SCT110 34/23 A2982 960 50 3400 VRB/04 RMK AO2
14837KMSN MSN20120628142010306/28/12 14:20:31  5-MIN KMSN 282020Z 35006KT 10SM FEW045 SCT110 34/23 A2982 960 50 3400 350/06 RMK AO2
14837KMSN MSN20120628142509606/28/12 14:25:31  5-MIN KMSN 282025Z 36008KT 10SM FEW120 35/22 A2981 960 47 3500 360/08 RMK AO2
14837KMSN MSN20120628143009606/28/12 14:30:31  5-MIN KMSN 282030Z 36008KT 10SM FEW120 35/22 A2981 960 47 3500 010/08 RMK AO2
14837KMSN MSN20120628143509606/28/12 14:35:31  5-MIN KMSN 282035Z 35007KT 10SM FEW120 35/22 A2981 970 45 3500 350/07 RMK AO2
14837KMSN MSN20120628144009606/28/12 14:40:31  5-MIN KMSN 282040Z 32005KT 10SM FEW120 35/22 A2981 960 45 3500 320/05 RMK AO2
14837KMSN MSN20120628144509606/28/12 14:45:31  5-MIN KMSN 282045Z VRB03KT 10SM FEW120 34/22 A2981 970 46 3400 VRB/03 RMK AO2
14837KMSN MSN20120628145012506/28/12 14:50:31  5-MIN KMSN 282050Z 00000KT 10SM FEW120 35/22 A2981 970 45 3500 000/00 RMK AO2 SLP085 60000 T03500217 51015
14837KMSN MSN20120628145509306/28/12 14:55:31  5-MIN KMSN 282055Z VRB05KT 10SM CLR 34/22 A2981 970 46 3400 VRB/05 RMK AO2
14837KMSN MSN20120628150009306/28/12 15:00:31  5-MIN KMSN 282100Z 01006KT 10SM CLR 35/22 A2981 970 45 3500 010/06 RMK AO2
14837KMSN MSN20120628150509306/28/12 15:05:31  5-MIN KMSN 282105Z 33003KT 10SM CLR 34/22 A2981 970 46 3400 340/03 RMK AO2
14837KMSN MSN20120628151009306/28/12 15:10:31  5-MIN KMSN 282110Z 35004KT 10SM CLR 35/22 A2981 970 45 3500 350/04 RMK AO2
14837KMSN MSN20120628151509306/28/12 15:15:31  5-MIN KMSN 282115Z VRB04KT 10SM CLR 35/22 A2981 970 45 3500 VRB/04 RMK AO2
14837KMSN MSN20120628152009306/28/12 15:20:31  5-MIN KMSN 282120Z 35006KT 10SM CLR 36/21 A2981 970 42 3500 360/06 RMK AO2
14837KMSN MSN20120628152509306/28/12 15:25:31  5-MIN KMSN 282125Z 33006KT 10SM CLR 35/21 A2981 970 43 3500 330/06 RMK AO2
14837KMSN MSN20120628153009306/28/12 15:30:31  5-MIN KMSN 282130Z 32007KT 10SM CLR 35/21 A2981 970 43 3500 320/07 RMK AO2
14837KMSN MSN20120628153509306/28/12 15:35:31  5-MIN KMSN 282135Z 33005KT 10SM CLR 35/22 A2981 970 45 3500 330/05 RMK AO2
14837KMSN MSN20120628154009306/28/12 15:40:31  5-MIN KMSN 282140Z 36007KT 10SM CLR 36/21 A2981 960 42 3500 360/07 RMK AO2
14837KMSN MSN20120628154509306/28/12 15:45:31  5-MIN KMSN 282145Z 33009KT 10SM CLR 35/21 A2981 960 43 3500 330/09 RMK AO2
14837KMSN MSN20120628155011006/28/12 15:50:31  5-MIN KMSN 282150Z 33005KT 10SM CLR 36/22 A2982 960 44 3500 340/05 RMK AO2 SLP087 T03560217
14837KMSN MSN20120628155509306/28/12 15:55:31  5-MIN KMSN 282155Z 33004KT 10SM CLR 36/22 A2982 960 44 3500 330/04 RMK AO2
14837KMSN MSN20120628160009306/28/12 16:00:31  5-MIN KMSN 282200Z 32006KT 10SM CLR 36/22 A2982 960 45 3500 320/06 RMK AO2
14837KMSN MSN20120628160509906/28/12 16:05:31  5-MIN KMSN 282205Z 29010G14KT 10SM CLR 35/22 A2982 960 47 3500 300/10G14 RMK AO2
14837KMSN MSN20120628161009906/28/12 16:10:31  5-MIN KMSN 282210Z 31008G14KT 10SM CLR 34/22 A2982 960 48 3400 320/08G14 RMK AO2
14837KMSN MSN20120628161509306/28/12 16:15:31  5-MIN KMSN 282215Z 31009KT 10SM CLR 34/22 A2982 960 48 3400 310/09 RMK AO2
14837KMSN MSN20120628162009306/28/12 16:20:31  5-MIN KMSN 282220Z 33009KT 10SM CLR 34/21 A2982 960 45 3400 330/09 RMK AO2
14837KMSN MSN20120628162509306/28/12 16:25:31  5-MIN KMSN 282225Z 32007KT 10SM CLR 34/21 A2982 960 45 3400 320/07 RMK AO2
14837KMSN MSN20120628163009906/28/12 16:30:31  5-MIN KMSN 282230Z 31006G14KT 10SM CLR 34/21 A2982 960 45 3400 310/06G14 RMK AO2
14837KMSN MSN20120628163509906/28/12 16:35:31  5-MIN KMSN 282235Z 32006G14KT 10SM CLR 35/22 A2982 960 45 3500 320/06G14 RMK AO2
14837KMSN MSN20120628164009306/28/12 16:40:31  5-MIN KMSN 282240Z 33007KT 10SM CLR 35/22 A2982 960 45 3500 330/07 RMK AO2
14837KMSN MSN20120628164509306/28/12 16:45:31  5-MIN KMSN 282245Z 34005KT 10SM CLR 35/22 A2982 960 45 3500 340/05 RMK AO2
14837KMSN MSN20120628165011306/28/12 16:50:31  5-MIN KMSN 282250Z 33006KT 10SM FEW100 35/22 A2982 960 45 3500 330/06 RMK AO2 SLP089 T03500217
14837KMSN MSN20120628165509606/28/12 16:55:31  5-MIN KMSN 282255Z 32009KT 10SM FEW100 34/22 A2982 960 46 3400 320/09 RMK AO2
14837KMSN MSN20120628170010206/28/12 17:00:31  5-MIN KMSN 282300Z 32011G16KT 10SM FEW100 34/21 A2982 950 46 3300 320/11G16 RMK AO2
14837KMSN MSN20120628170510206/28/12 17:05:31  5-MIN KMSN 282305Z 33007G18KT 10SM FEW100 33/20 A2982 950 45 3300 330/07G18 RMK AO2
14837KMSN MSN20120628171010206/28/12 17:10:31  5-MIN KMSN 282310Z 33007G18KT 10SM FEW100 33/20 A2982 950 45 3300 330/07G18 RMK AO2
14837KMSN MSN20120628171509306/28/12 17:15:31  5-MIN KMSN 282315Z 32006KT 10SM CLR 33/20 A2983 950 45 3300 330/06 RMK AO2
14837KMSN MSN20120628172009306/28/12 17:20:31  5-MIN KMSN 282320Z 31009KT 10SM CLR 33/19 A2983 950 43 3300 320/09 RMK AO2
14837KMSN MSN20120628172509306/28/12 17:25:31  5-MIN KMSN 282325Z 33010KT 10SM CLR 33/19 A2983 950 43 3200 330/10 RMK AO2
14837KMSN MSN20120628173009306/28/12 17:30:31  5-MIN KMSN 282330Z 32008KT 10SM CLR 33/18 A2983 950 41 3200 320/08 RMK AO2
14837KMSN MSN20120628173509906/28/12 17:35:31  5-MIN KMSN 282335Z 32008G14KT 10SM CLR 33/18 A2983 940 40 3200 320/08G14 RMK AO2
14837KMSN MSN20120628174009306/28/12 17:40:31  5-MIN KMSN 282340Z 32009KT 10SM CLR 32/18 A2984 940 41 3200 320/09 RMK AO2
14837KMSN MSN20120628174509306/28/12 17:45:31  5-MIN KMSN 282345Z 33007KT 10SM CLR 32/18 A2984 940 41 3200 330/07 RMK AO2
14837KMSN MSN20120628175013406/28/12 17:50:31  5-MIN KMSN 282350Z 33007KT 10SM CLR 32/17 A2984 940 38 3100 330/07 RMK AO2 SLP097 60000 T03220167 10361 20322 50005
14837KMSN MSN20120628175509306/28/12 17:55:31  5-MIN KMSN 282355Z 33007KT 10SM CLR 32/15 A2984 940 34 3100 330/07 RMK AO2
14837KMSN MSN20120628180009306/28/12 18:00:31  5-MIN KMSN 290000Z 34006KT 10SM CLR 32/14 A2984 940 33 3100 340/06 RMK AO2
14837KMSN MSN20120628180509306/28/12 18:05:31  5-MIN KMSN 290005Z 33006KT 10SM CLR 32/13 A2984 940 32 3100 330/06 RMK AO2
14837KMSN MSN20120628181009306/28/12 18:10:31  5-MIN KMSN 290010Z 33006KT 10SM CLR 31/13 A2984 930 32 3000 330/06 RMK AO2
14837KMSN MSN20120628181509306/28/12 18:15:31  5-MIN KMSN 290015Z 32006KT 10SM CLR 31/11 A2985 930 28 3000 320/06 RMK AO2
14837KMSN MSN20120628182009306/28/12 18:20:31  5-MIN KMSN 290020Z 32007KT 10SM CLR 31/09 A2985 930 25 3000 320/07 RMK AO2
14837KMSN MSN20120628182509306/28/12 18:25:31  5-MIN KMSN 290025Z 33007KT 10SM CLR 31/08 A2985 930 24 3000 330/07 RMK AO2
14837KMSN MSN20120628183009306/28/12 18:30:31  5-MIN KMSN 290030Z 33006KT 10SM CLR 31/08 A2985 930 24 3000 330/06 RMK AO2
14837KMSN MSN20120628183509306/28/12 18:35:31  5-MIN KMSN 290035Z 33007KT 10SM CLR 31/08 A2985 930 24 3000 330/07 RMK AO2
14837KMSN MSN20120628184009306/28/12 18:40:31  5-MIN KMSN 290040Z 33006KT 10SM CLR 30/08 A2985 930 25 2900 330/06 RMK AO2
14837KMSN MSN20120628184509306/28/12 18:45:31  5-MIN KMSN 290045Z 32006KT 10SM CLR 30/08 A2985 930 25 2900 330/06 RMK AO2
14837KMSN MSN20120628185011006/28/12 18:50:31  5-MIN KMSN 290050Z 31005KT 10SM CLR 29/08 A2985 930 26 2800 310/05 RMK AO2 SLP101 T02940083
14837KMSN MSN20120628185509306/28/12 18:55:31  5-MIN KMSN 290055Z 30005KT 10SM CLR 29/09 A2985 930 27 2800 300/05 RMK AO2
14837KMSN MSN20120628190009306/28/12 19:00:31  5-MIN KMSN 290100Z 30005KT 10SM CLR 29/09 A2985 930 29 2800 300/05 RMK AO2
14837KMSN MSN20120628190509306/28/12 19:05:31  5-MIN KMSN 290105Z 30005KT 10SM CLR 29/10 A2985 930 30 2800 300/05 RMK AO2
14837KMSN MSN20120628191009306/28/12 19:10:31  5-MIN KMSN 290110Z 31004KT 10SM CLR 28/10 A2985 930 31 2700 310/04 RMK AO2
14837KMSN MSN20120628191509306/28/12 19:15:31  5-MIN KMSN 290115Z 31004KT 10SM CLR 28/10 A2985 930 31 2700 310/04 RMK AO2
14837KMSN MSN20120628192009306/28/12 19:20:31  5-MIN KMSN 290120Z 31006KT 10SM CLR 28/10 A2985 930 31 2700 310/06 RMK AO2
14837KMSN MSN20120628192509306/28/12 19:25:31  5-MIN KMSN 290125Z 31005KT 10SM CLR 28/09 A2985 930 30 2700 310/05 RMK AO2
14837KMSN MSN20120628193009306/28/12 19:30:31  5-MIN KMSN 290130Z 31006KT 10SM CLR 28/09 A2985 930 31 2600 320/06 RMK AO2
14837KMSN MSN20120628193509306/28/12 19:35:31  5-MIN KMSN 290135Z 31005KT 10SM CLR 27/10 A2985 930 33 2600 310/05 RMK AO2
14837KMSN MSN20120628194009306/28/12 19:40:31  5-MIN KMSN 290140Z 31005KT 10SM CLR 27/10 A2985 930 33 2600 320/05 RMK AO2
14837KMSN MSN20120628194509306/28/12 19:45:31  5-MIN KMSN 290145Z 32005KT 10SM CLR 27/10 A2985 930 33 2600 320/05 RMK AO2
14837KMSN MSN20120628195011006/28/12 19:50:31  5-MIN KMSN 290150Z 31004KT 10SM CLR 27/10 A2985 930 34 2500 310/04 RMK AO2 SLP101 T02670100
14837KMSN MSN20120628195509306/28/12 19:55:31  5-MIN KMSN 290155Z 31004KT 10SM CLR 27/10 A2985 930 34 2500 310/04 RMK AO2
14837KMSN MSN20120628200009306/28/12 20:00:31  5-MIN KMSN 290200Z 31004KT 10SM CLR 26/11 A2986 920 37 2500 310/04 RMK AO2
14837KMSN MSN20120628200509306/28/12 20:05:31  5-MIN KMSN 290205Z 31004KT 10SM CLR 26/11 A2985 930 37 2500 310/04 RMK AO2
14837KMSN MSN20120628201009306/28/12 20:10:31  5-MIN KMSN 290210Z 31004KT 10SM CLR 26/11 A2985 920 38 2400 310/04 RMK AO2
14837KMSN MSN20120628201509306/28/12 20:15:31  5-MIN KMSN 290215Z 31004KT 10SM CLR 26/11 A2986 920 40 2400 310/04 RMK AO2
14837KMSN MSN20120628202009306/28/12 20:20:31  5-MIN KMSN 290220Z 30004KT 10SM CLR 24/12 A2986 920 46 2200 310/04 RMK AO2
14837KMSN MSN20120628202509306/28/12 20:25:31  5-MIN KMSN 290225Z 30004KT 10SM CLR 24/12 A2987 920 46 2200 300/04 RMK AO2
14837KMSN MSN20120628203009306/28/12 20:30:31  5-MIN KMSN 290230Z 29004KT 10SM CLR 24/12 A2987 910 46 2200 300/04 RMK AO2
14837KMSN MSN20120628203509306/28/12 20:35:31  5-MIN KMSN 290235Z 29004KT 10SM CLR 24/12 A2987 910 44 2300 300/04 RMK AO2
14837KMSN MSN20120628204009306/28/12 20:40:31  5-MIN KMSN 290240Z 29003KT 10SM CLR 25/11 A2987 910 41 2300 290/03 RMK AO2
14837KMSN MSN20120628204509306/28/12 20:45:31  5-MIN KMSN 290245Z 30003KT 10SM CLR 24/12 A2987 910 44 2200 300/03 RMK AO2
14837KMSN MSN20120628205011606/28/12 20:50:31  5-MIN KMSN 290250Z 32004KT 10SM CLR 24/11 A2988 900 42 2200 320/04 RMK AO2 SLP110 T02440111 53011
14837KMSN MSN20120628205509306/28/12 20:55:31  5-MIN KMSN 290255Z VRB04KT 10SM CLR 24/11 A2988 900 42 2200 VRB/04 RMK AO2
14837KMSN MSN20120628210009506/28/12 21:00:31  5-MIN KMSN 290300Z 32005KT 10SM CLR 24/11 A2988 900 42 2200 320/05 RMK AO2 $
14837KMSN MSN20120628210509506/28/12 21:05:31  5-MIN KMSN 290305Z 30005KT 10SM CLR 24/11 A2989 900 42 2200 300/05 RMK AO2 $
14837KMSN MSN20120628211009506/28/12 21:10:31  5-MIN KMSN 290310Z 30004KT 10SM CLR 24/11 A2988 900 42 2200 300/04 RMK AO2 $
14837KMSN MSN20120628211509506/28/12 21:15:31  5-MIN KMSN 290315Z 30003KT 10SM CLR 24/11 A2988 900 42 2200 300/03 RMK AO2 $
14837KMSN MSN20120628212009506/28/12 21:20:31  5-MIN KMSN 290320Z 31003KT 10SM CLR 24/11 A2988 900 42 2200 320/03 RMK AO2 $
14837KMSN MSN20120628212509506/28/12 21:25:31  5-MIN KMSN 290325Z 02003KT 10SM CLR 24/11 A2987 910 41 2300 020/03 RMK AO2 $
14837KMSN MSN20120628213009506/28/12 21:30:31  5-MIN KMSN 290330Z 02003KT 10SM CLR 23/12 A2987 910 49 2100 030/03 RMK AO2 $
14837KMSN MSN20120628213509506/28/12 21:35:31  5-MIN KMSN 290335Z 00000KT 10SM CLR 22/12 A2988 910 52 1900 000/00 RMK AO2 $
14837KMSN MSN20120628214009506/28/12 21:40:31  5-MIN KMSN 290340Z 00000KT 10SM CLR 22/12 A2988 900 51 2000 000/00 RMK AO2 $
14837KMSN MSN20120628214509506/28/12 21:45:31  5-MIN KMSN 290345Z 00000KT 10SM CLR 23/12 A2988 900 49 2100 000/00 RMK AO2 $
14837KMSN MSN20120628215011206/28/12 21:50:31  5-MIN KMSN 290350Z 02003KT 10SM CLR 22/12 A2988 900 52 1900 020/03 RMK AO2 SLP110 T02170117 $
14837KMSN MSN20120628215509506/28/12 21:55:31  5-MIN KMSN 290355Z 36003KT 10SM CLR 22/12 A2988 900 52 1900 010/03 RMK AO2 $
14837KMSN MSN20120628220009506/28/12 22:00:31  5-MIN KMSN 290400Z 00000KT 10SM CLR 21/12 A2988 900 58 1800 000/00 RMK AO2 $
14837KMSN MSN20120628220509506/28/12 22:05:31  5-MIN KMSN 290405Z 00000KT 10SM CLR 21/12 A2988 900 58 1800 000/00 RMK AO2 $
14837KMSN MSN20120628221009506/28/12 22:10:31  5-MIN KMSN 290410Z 00000KT 10SM CLR 21/12 A2989 900 58 1800 000/00 RMK AO2 $
14837KMSN MSN20120628221509506/28/12 22:15:31  5-MIN KMSN 290415Z 00000KT 10SM CLR 20/12 A2988 900 60 1700 000/00 RMK AO2 $
14837KMSN MSN20120628222009506/28/12 22:20:31  5-MIN KMSN 290420Z 00000KT 10SM CLR 20/12 A2988 910 58 1700 000/00 RMK AO2 $
14837KMSN MSN20120628222509506/28/12 22:25:31  5-MIN KMSN 290425Z 04003KT 10SM CLR 21/12 A2987 910 56 1900 040/03 RMK AO2 $
14837KMSN MSN20120628223009506/28/12 22:30:31  5-MIN KMSN 290430Z 00000KT 10SM CLR 19/12 A2987 910 62 1700 000/00 RMK AO2 $
14837KMSN MSN20120628223509506/28/12 22:35:31  5-MIN KMSN 290435Z 00000KT 10SM CLR 19/12 A2988 900 62 1700 000/00 RMK AO2 $
14837KMSN MSN20120628224009506/28/12 22:40:31  5-MIN KMSN 290440Z 00000KT 10SM CLR 19/13 A2989 900 65 1700 000/00 RMK AO2 $
14837KMSN MSN20120628224509506/28/12 22:45:31  5-MIN KMSN 290445Z 00000KT 10SM CLR 19/13 A2989 900 65 1700 000/00 RMK AO2 $
14837KMSN MSN20120628225011206/28/12 22:50:31  5-MIN KMSN 290450Z 00000KT 10SM CLR 20/13 A2989 900 63 1700 000/00 RMK AO2 SLP113 T02000128 $
14837KMSN MSN20120628225509506/28/12 22:55:31  5-MIN KMSN 290455Z 00000KT 10SM CLR 21/12 A2989 890 58 1800 000/00 RMK AO2 $
14837KMSN MSN20120628230009506/28/12 23:00:31  5-MIN KMSN 290500Z 00000KT 10SM CLR 21/12 A2989 890 56 1800 000/00 RMK AO2 $
14837KMSN MSN20120628230509506/28/12 23:05:31  5-MIN KMSN 290505Z 24003KT 10SM CLR 20/13 A2989 890 63 1700 250/03 RMK AO2 $
14837KMSN MSN20120628231009506/28/12 23:10:31  5-MIN KMSN 290510Z 25003KT 10SM CLR 20/13 A2989 890 63 1700 260/03 RMK AO2 $
14837KMSN MSN20120628231509506/28/12 23:15:31  5-MIN KMSN 290515Z 26003KT 10SM CLR 19/12 A2989 890 62 1700 260/03 RMK AO2 $
14837KMSN MSN20120628232009506/28/12 23:20:31  5-MIN KMSN 290520Z 24003KT 10SM CLR 19/13 A2989 890 67 1600 240/03 RMK AO2 $
14837KMSN MSN20120628232509506/28/12 23:25:31  5-MIN KMSN 290525Z 23003KT 10SM CLR 21/13 A2990 890 60 1800 230/03 RMK AO2 $
14837KMSN MSN20120628233009506/28/12 23:30:31  5-MIN KMSN 290530Z 24003KT 10SM CLR 19/13 A2990 880 65 1600 240/03 RMK AO2 $
14837KMSN MSN20120628233509506/28/12 23:35:31  5-MIN KMSN 290535Z 00000KT 10SM CLR 20/13 A2990 890 63 1700 000/00 RMK AO2 $
14837KMSN MSN20120628234009506/28/12 23:40:31  5-MIN KMSN 290540Z 00000KT 10SM CLR 19/13 A2990 880 67 1600 000/00 RMK AO2 $
14837KMSN MSN20120628234509506/28/12 23:45:31  5-MIN KMSN 290545Z 00000KT 10SM CLR 19/12 A2989 890 65 1600 000/00 RMK AO2 $
14837KMSN MSN20120628235014006/28/12 23:50:31  5-MIN KMSN 290550Z 00000KT 10SM CLR 18/12 A2989 890 67 1500 000/00 RMK AO2 SLP116 T01830122 10322 20183 403610183 53012 $
14837KMSN MSN20120628235509506/28/12 23:55:31  5-MIN KMSN 290555Z 00000KT 10SM CLR 18/12 A2989 890 67 1500 000/00 RMK AO2 $
14837KMSN MSN20120629000009506/29/12 00:00:32  5-MIN KMSN 290600Z 00000KT 10SM CLR 18/12 A2989 890 67 1500 000/00 RMK AO2 $
14837KMSN MSN20120629000509506/29/12 00:05:31  5-MIN KMSN 290605Z 00000KT 10SM CLR 18/12 A2989 890 67 1500 000/00 RMK AO2 $
14837KMSN MSN20120629001009506/29/12 00:10:31  5-MIN KMSN 290610Z 00000KT 10SM CLR 18/12 A2989 900 69 1500 000/00 RMK AO2 $
14837KMSN MSN20120629001509506/29/12 00:15:31  5-MIN KMSN 290615Z 00000KT 10SM CLR 18/12 A2989 900 69 1500 000/00 RMK AO2 $
14837KMSN MSN20120629002009506/29/12 00:20:31  5-MIN KMSN 290620Z 00000KT 10SM CLR 18/12 A2988 900 67 1500 000/00 RMK AO2 $
14837KMSN MSN20120629002509506/29/12 00:25:31  5-MIN KMSN 290625Z 00000KT 10SM CLR 18/13 A2988 900 70 1500 000/00 RMK AO2 $
14837KMSN MSN20120629003009506/29/12 00:30:31  5-MIN KMSN 290630Z 00000KT 10SM CLR 18/13 A2988 900 72 1500 000/00 RMK AO2 $
14837KMSN MSN20120629003509506/29/12 00:35:31  5-MIN KMSN 290635Z 00000KT 10SM CLR 17/13 A2989 900 75 1400 000/00 RMK AO2 $
14837KMSN MSN20120629004009506/29/12 00:40:31  5-MIN KMSN 290640Z 00000KT 10SM CLR 17/13 A2989 890 75 1400 000/00 RMK AO2 $
14837KMSN MSN20120629004509506/29/12 00:45:31  5-MIN KMSN 290645Z 00000KT 10SM CLR 18/13 A2989 890 72 1500 000/00 RMK AO2 $
14837KMSN MSN20120629005011206/29/12 00:50:31  5-MIN KMSN 290650Z 00000KT 10SM CLR 18/13 A2989 890 75 1500 000/00 RMK AO2 SLP116 T01780133 $
14837KMSN MSN20120629005509506/29/12 00:55:31  5-MIN KMSN 290655Z 00000KT 10SM CLR 17/13 A2989 890 75 1400 000/00 RMK AO2 $
14837KMSN MSN20120629010009506/29/12 01:00:31  5-MIN KMSN 290700Z 00000KT 10SM CLR 17/13 A2989 890 77 1300 000/00 RMK AO2 $
14837KMSN MSN20120629010509506/29/12 01:05:31  5-MIN KMSN 290705Z 00000KT 10SM CLR 17/13 A2989 890 77 1300 000/00 RMK AO2 $
14837KMSN MSN20120629011009506/29/12 01:10:31  5-MIN KMSN 290710Z 00000KT 10SM CLR 17/13 A2989 890 75 1400 000/00 RMK AO2 $
14837KMSN MSN20120629011509506/29/12 01:15:31  5-MIN KMSN 290715Z 00000KT 10SM CLR 17/13 A2989 890 80 1300 000/00 RMK AO2 $
14837KMSN MSN20120629012009506/29/12 01:20:31  5-MIN KMSN 290720Z 00000KT 10SM CLR 17/13 A2989 890 77 1300 000/00 RMK AO2 $
14837KMSN MSN20120629012509506/29/12 01:25:31  5-MIN KMSN 290725Z 00000KT 10SM CLR 17/13 A2989 890 77 1300 000/00 RMK AO2 $
14837KMSN MSN20120629013009506/29/12 01:30:31  5-MIN KMSN 290730Z 00000KT 10SM CLR 16/13 A2989 890 80 1300 000/00 RMK AO2 $
14837KMSN MSN20120629013509506/29/12 01:35:31  5-MIN KMSN 290735Z 00000KT 10SM CLR 17/13 A2989 890 80 1300 000/00 RMK AO2 $
14837KMSN MSN20120629014009506/29/12 01:40:31  5-MIN KMSN 290740Z 00000KT 10SM CLR 16/13 A2989 890 80 1300 000/00 RMK AO2 $
14837KMSN MSN20120629014509506/29/12 01:45:31  5-MIN KMSN 290745Z 00000KT 10SM CLR 16/13 A2989 890 83 1200 000/00 RMK AO2 $
14837KMSN MSN20120629015011206/29/12 01:50:31  5-MIN KMSN 290750Z 00000KT 10SM CLR 16/13 A2989 890 80 1300 000/00 RMK AO2 SLP115 T01610128 $
14837KMSN MSN20120629015509506/29/12 01:55:31  5-MIN KMSN 290755Z 00000KT 10SM CLR 17/13 A2989 890 77 1300 000/00 RMK AO2 $
14837KMSN MSN20120629020009506/29/12 02:00:31  5-MIN KMSN 290800Z 00000KT 10SM CLR 16/13 A2989 890 80 1300 000/00 RMK AO2 $
14837KMSN MSN20120629020509506/29/12 02:05:31  5-MIN KMSN 290805Z 00000KT 10SM CLR 16/13 A2989 890 83 1200 000/00 RMK AO2 $
14837KMSN MSN20120629021009506/29/12 02:10:31  5-MIN KMSN 290810Z 00000KT 10SM CLR 16/13 A2989 890 86 1200 000/00 RMK AO2 $
14837KMSN MSN20120629021509506/29/12 02:15:31  5-MIN KMSN 290815Z 00000KT 10SM CLR 16/13 A2990 890 86 1200 000/00 RMK AO2 $
14837KMSN MSN20120629022009506/29/12 02:20:31  5-MIN KMSN 290820Z 00000KT 10SM CLR 16/13 A2989 890 86 1200 000/00 RMK AO2 $
14837KMSN MSN20120629022509506/29/12 02:25:31  5-MIN KMSN 290825Z 00000KT 10SM CLR 16/13 A2989 890 86 1200 000/00 RMK AO2 $
14837KMSN MSN20120629023009506/29/12 02:30:31  5-MIN KMSN 290830Z 00000KT 10SM CLR 16/13 A2990 890 86 1200 000/00 RMK AO2 $
14837KMSN MSN20120629023509506/29/12 02:35:31  5-MIN KMSN 290835Z 00000KT 10SM CLR 16/13 A2990 890 86 1200 000/00 RMK AO2 $
14837KMSN MSN20120629024009506/29/12 02:40:31  5-MIN KMSN 290840Z 00000KT 10SM CLR 16/13 A2990 880 86 1200 000/00 RMK AO2 $
14837KMSN MSN20120629024509506/29/12 02:45:31  5-MIN KMSN 290845Z 00000KT 10SM CLR 16/13 A2990 880 83 1200 000/00 RMK AO2 $
14837KMSN MSN20120629025011806/29/12 02:50:31  5-MIN KMSN 290850Z 00000KT 10SM CLR 16/13 A2990 880 83 1300 000/00 RMK AO2 SLP120 T01610133 53005 $
14837KMSN MSN20120629025509506/29/12 02:55:31  5-MIN KMSN 290855Z 00000KT 10SM CLR 16/13 A2990 880 83 1300 000/00 RMK AO2 $
14837KMSN MSN20120629030009506/29/12 03:00:31  5-MIN KMSN 290900Z 00000KT 10SM CLR 16/13 A2991 880 83 1300 000/00 RMK AO2 $
14837KMSN MSN20120629030509506/29/12 03:05:31  5-MIN KMSN 290905Z 00000KT 10SM CLR 16/13 A2991 880 86 1200 000/00 RMK AO2 $
14837KMSN MSN20120629031009506/29/12 03:10:31  5-MIN KMSN 290910Z 00000KT 10SM CLR 16/13 A2990 880 86 1200 000/00 RMK AO2 $
14837KMSN MSN20120629031509506/29/12 03:15:31  5-MIN KMSN 290915Z 00000KT 10SM CLR 16/13 A2990 880 80 1300 000/00 RMK AO2 $
14837KMSN MSN20120629032009506/29/12 03:20:31  5-MIN KMSN 290920Z 00000KT 10SM CLR 16/12 A2990 880 77 1300 000/00 RMK AO2 $
14837KMSN MSN20120629032509506/29/12 03:25:31  5-MIN KMSN 290925Z 00000KT 10SM CLR 16/12 A2990 890 80 1200 000/00 RMK AO2 $
14837KMSN MSN20120629033009506/29/12 03:30:31  5-MIN KMSN 290930Z 00000KT 10SM CLR 14/12 A2990 890 86 1100 000/00 RMK AO2 $
14837KMSN MSN20120629033509506/29/12 03:35:31  5-MIN KMSN 290935Z 00000KT 10SM CLR 15/13 A2990 880 86 1100 000/00 RMK AO2 $
14837KMSN MSN20120629034009506/29/12 03:40:31  5-MIN KMSN 290940Z 00000KT 10SM CLR 15/13 A2990 890 86 1100 000/00 RMK AO2 $
14837KMSN MSN20120629034509506/29/12 03:45:31  5-MIN KMSN 290945Z 00000KT 10SM CLR 16/13 A2989 890 83 1200 000/00 RMK AO2 $
14837KMSN MSN20120629035011206/29/12 03:50:31  5-MIN KMSN 290950Z 00000KT 10SM CLR 16/13 A2989 890 83 1200 000/00 RMK AO2 SLP115 T01560128 $
14837KMSN MSN20120629035509506/29/12 03:55:31  5-MIN KMSN 290955Z 00000KT 10SM CLR 14/13 A2989 890 90 1100 000/00 RMK AO2 $
14837KMSN MSN20120629040009506/29/12 04:00:31  5-MIN KMSN 291000Z 00000KT 10SM CLR 15/13 A2989 890 86 1100 000/00 RMK AO2 $
14837KMSN MSN20120629040509506/29/12 04:05:31  5-MIN KMSN 291005Z 00000KT 10SM CLR 15/13 A2989 890 86 1100 000/00 RMK AO2 $
14837KMSN MSN20120629041009506/29/12 04:10:31  5-MIN KMSN 291010Z 00000KT 10SM CLR 15/13 A2989 890 86 1100 000/00 RMK AO2 $
14837KMSN MSN20120629041509506/29/12 04:15:31  5-MIN KMSN 291015Z 00000KT 10SM CLR 15/13 A2989 890 86 1100 000/00 RMK AO2 $
14837KMSN MSN20120629042009506/29/12 04:20:31  5-MIN KMSN 291020Z 00000KT 10SM CLR 15/13 A2989 890 86 1100 000/00 RMK AO2 $
14837KMSN MSN20120629042509506/29/12 04:25:31  5-MIN KMSN 291025Z 00000KT 10SM CLR 14/13 A2989 900 90 1100 000/00 RMK AO2 $
14837KMSN MSN20120629043009506/29/12 04:30:31  5-MIN KMSN 291030Z 00000KT 10SM CLR 14/13 A2989 900 93 1000 000/00 RMK AO2 $
14837KMSN MSN20120629043509506/29/12 04:35:31  5-MIN KMSN 291035Z 00000KT 10SM CLR 14/13 A2989 900 90 1100 000/00 RMK AO2 $
14837KMSN MSN20120629044009506/29/12 04:40:31  5-MIN KMSN 291040Z 00000KT 10SM CLR 14/13 A2989 900 90 1100 000/00 RMK AO2 $
14837KMSN MSN20120629044509506/29/12 04:45:31  5-MIN KMSN 291045Z 00000KT 10SM CLR 14/13 A2989 890 90 1100 000/00 RMK AO2 $
14837KMSN MSN20120629045011206/29/12 04:50:31  5-MIN KMSN 291050Z 00000KT 10SM CLR 14/13 A2989 890 90 1100 000/00 RMK AO2 SLP115 T01440128 $
14837KMSN MSN20120629045509506/29/12 04:55:31  5-MIN KMSN 291055Z 00000KT 10SM CLR 14/13 A2989 890 90 1100 000/00 RMK AO2 $
14837KMSN MSN20120629050009506/29/12 05:00:31  5-MIN KMSN 291100Z 00000KT 10SM CLR 14/13 A2989 890 90 1100 000/00 RMK AO2 $
14837KMSN MSN20120629050509506/29/12 05:05:31  5-MIN KMSN 291105Z 00000KT 10SM CLR 15/13 A2989 890 90 1100 000/00 RMK AO2 $
14837KMSN MSN20120629051009506/29/12 05:10:31  5-MIN KMSN 291110Z 00000KT 10SM CLR 16/13 A2989 890 86 1200 000/00 RMK AO2 $
14837KMSN MSN20120629051509506/29/12 05:15:31  5-MIN KMSN 291115Z 00000KT 10SM CLR 16/13 A2989 890 86 1200 000/00 RMK AO2 $
14837KMSN MSN20120629052009506/29/12 05:20:31  5-MIN KMSN 291120Z 00000KT 10SM CLR 16/13 A2989 890 86 1200 000/00 RMK AO2 $
14837KMSN MSN20120629052509506/29/12 05:25:31  5-MIN KMSN 291125Z 00000KT 10SM CLR 16/13 A2989 890 86 1200 000/00 RMK AO2 $
14837KMSN MSN20120629053009506/29/12 05:30:31  5-MIN KMSN 291130Z 00000KT 10SM CLR 16/13 A2989 890 83 1300 000/00 RMK AO2 $
14837KMSN MSN20120629053509506/29/12 05:35:31  5-MIN KMSN 291135Z 00000KT 10SM CLR 17/14 A2990 890 83 1300 000/00 RMK AO2 $
14837KMSN MSN20120629054009506/29/12 05:40:31  5-MIN KMSN 291140Z 00000KT 10SM CLR 17/14 A2990 890 83 1400 000/00 RMK AO2 $
14837KMSN MSN20120629054509506/29/12 05:45:31  5-MIN KMSN 291145Z 00000KT 10SM CLR 18/15 A2990 880 83 1500 000/00 RMK AO2 $
14837KMSN MSN20120629055013006/29/12 05:50:31  5-MIN KMSN 291150Z 00000KT 10SM CLR 18/15 A2990 880 81 1500 000/00 RMK AO2 SLP118 T01830150 10183 20139 53002 $
14837KMSN MSN20120629055509506/29/12 05:55:31  5-MIN KMSN 291155Z 00000KT 10SM CLR 19/16 A2990 890 78 1600 000/00 RMK AO2 $
14837KMSN MSN20120629060009506/29/12 06:00:31  5-MIN KMSN 291200Z 00000KT 10SM CLR 19/16 A2990 880 78 1600 000/00 RMK AO2 $
14837KMSN MSN20120629060509506/29/12 06:05:31  5-MIN KMSN 291205Z 00000KT 10SM CLR 20/15 A2990 880 72 1700 000/00 RMK AO2 $
14837KMSN MSN20120629061009506/29/12 06:10:31  5-MIN KMSN 291210Z 00000KT 10SM CLR 20/15 A2990 880 72 1700 000/00 RMK AO2 $
14837KMSN MSN20120629061509506/29/12 06:15:31  5-MIN KMSN 291215Z 00000KT 10SM CLR 21/16 A2990 880 73 1800 000/00 RMK AO2 $
14837KMSN MSN20120629062009506/29/12 06:20:31  5-MIN KMSN 291220Z 00000KT 10SM CLR 21/15 A2990 880 70 1800 000/00 RMK AO2 $
14837KMSN MSN20120629062509506/29/12 06:25:31  5-MIN KMSN 291225Z 00000KT 10SM CLR 21/16 A2990 880 73 1800 000/00 RMK AO2 $
14837KMSN MSN20120629063009306/29/12 06:30:31  5-MIN KMSN 291230Z 00000KT 10SM CLR 21/16 A2990 880 70 1800 000/00 RMK AO2
14837KMSN MSN20120629063509306/29/12 06:35:31  5-MIN KMSN 291235Z 00000KT 10SM CLR 21/16 A2990 880 70 1800 000/00 RMK AO2
14837KMSN MSN20120629064009306/29/12 06:40:31  5-MIN KMSN 291240Z 00000KT 10SM CLR 21/16 A2990 880 70 1800 000/00 RMK AO2
14837KMSN MSN20120629064509306/29/12 06:45:31  5-MIN KMSN 291245Z 00000KT 10SM CLR 21/16 A2990 880 70 1800 000/00 RMK AO2
14837KMSN MSN20120629065011006/29/12 06:50:31  5-MIN KMSN 291250Z 00000KT 10SM CLR 22/15 A2991 880 65 1900 000/00 RMK AO2 SLP121 T02170150
14837KMSN MSN20120629065509306/29/12 06:55:31  5-MIN KMSN 291255Z 00000KT 10SM CLR 22/15 A2990 880 65 1900 000/00 RMK AO2
14837KMSN MSN20120629070009306/29/12 07:00:31  5-MIN KMSN 291300Z 00000KT 10SM CLR 22/15 A2991 880 65 1900 000/00 RMK AO2
14837KMSN MSN20120629070509306/29/12 07:05:31  5-MIN KMSN 291305Z 00000KT 10SM CLR 22/16 A2991 880 65 2000 000/00 RMK AO2
14837KMSN MSN20120629071009606/29/12 07:10:31  5-MIN KMSN 291310Z 00000KT 10SM FEW120 22/15 A2991 880 63 2000 000/00 RMK AO2
14837KMSN MSN20120629071509606/29/12 07:15:31  5-MIN KMSN 291315Z 00000KT 10SM FEW120 22/15 A2991 880 63 2000 000/00 RMK AO2
14837KMSN MSN20120629072009306/29/12 07:20:31  5-MIN KMSN 291320Z 00000KT 10SM CLR 23/15 A2990 880 61 2000 000/00 RMK AO2
14837KMSN MSN20120629072509306/29/12 07:25:31  5-MIN KMSN 291325Z 00000KT 10SM CLR 23/15 A2990 880 61 2000 000/00 RMK AO2
14837KMSN MSN20120629073009306/29/12 07:30:31  5-MIN KMSN 291330Z 00000KT 10SM CLR 23/15 A2990 880 61 2000 000/00 RMK AO2
14837KMSN MSN20120629073509306/29/12 07:35:31  5-MIN KMSN 291335Z 00000KT 10SM CLR 23/15 A2990 880 61 2000 000/00 RMK AO2
14837KMSN MSN20120629074009306/29/12 07:40:31  5-MIN KMSN 291340Z 00000KT 10SM CLR 23/15 A2990 880 59 2100 000/00 RMK AO2
14837KMSN MSN20120629074509306/29/12 07:45:31  5-MIN KMSN 291345Z 00000KT 10SM CLR 23/15 A2990 880 59 2100 000/00 RMK AO2
14837KMSN MSN20120629075011006/29/12 07:50:31  5-MIN KMSN 291350Z 00000KT 10SM CLR 24/15 A2990 880 57 2200 000/00 RMK AO2 SLP119 T02390150
14837KMSN MSN20120629075509306/29/12 07:55:31  5-MIN KMSN 291355Z 00000KT 10SM CLR 24/15 A2990 880 57 2200 000/00 RMK AO2
14837KMSN MSN20120629080009306/29/12 08:00:31  5-MIN KMSN 291400Z 00000KT 10SM CLR 24/15 A2990 880 57 2200 000/00 RMK AO2
14837KMSN MSN20120629080509306/29/12 08:05:31  5-MIN KMSN 291405Z 00000KT 10SM CLR 24/16 A2990 890 57 2200 000/00 RMK AO2
14837KMSN MSN20120629081009306/29/12 08:10:31  5-MIN KMSN 291410Z 00000KT 10SM CLR 25/16 A2990 890 55 2300 000/00 RMK AO2
14837KMSN MSN20120629081509306/29/12 08:15:31  5-MIN KMSN 291415Z 00000KT 10SM CLR 25/15 A2990 890 53 2300 000/00 RMK AO2
14837KMSN MSN20120629082009306/29/12 08:20:31  5-MIN KMSN 291420Z VRB03KT 10SM CLR 26/15 A2989 890 51 2300 VRB/03 RMK AO2
14837KMSN MSN20120629082509306/29/12 08:25:31  5-MIN KMSN 291425Z 34003KT 10SM CLR 26/16 A2989 890 53 2400 340/03 RMK AO2
14837KMSN MSN20120629083009306/29/12 08:30:31  5-MIN KMSN 291430Z 33004KT 10SM CLR 26/16 A2988 900 53 2400 340/04 RMK AO2
14837KMSN MSN20120629083509306/29/12 08:35:31  5-MIN KMSN 291435Z 34005KT 10SM CLR 26/15 A2988 900 51 2400 340/05 RMK AO2
14837KMSN MSN20120629084010006/29/12 08:40:31  5-MIN KMSN 291440Z 34005KT 10SM CLR 27/16 A2987 910 50 2500 340/05 RMK AO2 PRESFR
14837KMSN MSN20120629084510006/29/12 08:45:31  5-MIN KMSN 291445Z 00000KT 10SM CLR 27/16 A2986 920 50 2500 000/00 RMK AO2 PRESFR
14837KMSN MSN20120629085011606/29/12 08:50:31  5-MIN KMSN 291450Z 33005KT 10SM CLR 27/16 A2986 920 52 2500 340/05 RMK AO2 SLP104 T02670161 55001
14837KMSN MSN20120629085510006/29/12 08:55:31  5-MIN KMSN 291455Z 34005KT 10SM CLR 27/16 A2985 930 50 2600 340/05 RMK AO2 PRESFR
14837KMSN MSN20120629090009306/29/12 09:00:31  5-MIN KMSN 291500Z VRB03KT 10SM CLR 28/17 A2985 930 50 2600 VRB/03 RMK AO2
14837KMSN MSN20120629090509306/29/12 09:05:31  5-MIN KMSN 291505Z 36005KT 10SM CLR 28/17 A2985 930 48 2700 360/05 RMK AO2
14837KMSN MSN20120629091009306/29/12 09:10:31  5-MIN KMSN 291510Z 34004KT 10SM CLR 28/16 A2985 930 48 2600 350/04 RMK AO2
14837KMSN MSN20120629091509306/29/12 09:15:31  5-MIN KMSN 291515Z 33004KT 10SM CLR 28/16 A2986 920 45 2700 330/04 RMK AO2
14837KMSN MSN20120629092010006/29/12 09:20:31  5-MIN KMSN 291520Z 00000KT 10SM CLR 29/16 A2988 910 44 2700 000/00 RMK AO2 PRESRR
14837KMSN MSN20120629092510006/29/12 09:25:31  5-MIN KMSN 291525Z VRB03KT 10SM CLR 29/15 A2988 900 41 2800 VRB/03 RMK AO2 PRESRR
14837KMSN MSN20120629093010006/29/12 09:30:31  5-MIN KMSN 291530Z 00000KT 10SM CLR 29/14 A2989 890 38 2800 000/00 RMK AO2 PRESRR
14837KMSN MSN20120629093510006/29/12 09:35:31  5-MIN KMSN 291535Z 00000KT 10SM CLR 29/13 A2990 880 38 2700 000/00 RMK AO2 PRESRR
14837KMSN MSN20120629094009306/29/12 09:40:31  5-MIN KMSN 291540Z 00000KT 10SM CLR 29/13 A2990 880 36 2800 000/00 RMK AO2
14837KMSN MSN20120629094510006/29/12 09:45:31  5-MIN KMSN 291545Z 00000KT 10SM CLR 29/13 A2991 870 38 2700 000/00 RMK AO2 PRESRR
14837KMSN MSN20120629095011706/29/12 09:50:31  5-MIN KMSN 291550Z 00000KT 10SM CLR 28/14 A2992 860 40 2600 000/00 RMK AO2 PRESRR SLP127 T02830139
14837KMSN MSN20120629095510306/29/12 09:55:31  5-MIN KMSN 291555Z 19003KT 10SM FEW100 28/14 A2994 850 42 2600 190/03 RMK AO2 PRESRR
14837KMSN MSN20120629100010306/29/12 10:00:31  5-MIN KMSN 291600Z 21005KT 10SM FEW100 28/14 A2995 840 43 2500 220/05 RMK AO2 PRESRR
14837KMSN MSN20120629100510306/29/12 10:05:31  5-MIN KMSN 291605Z 22007KT 10SM FEW100 28/16 A2996 830 46 2500 220/07 RMK AO2 PRESRR
14837KMSN MSN20120629101009606/29/12 10:10:31  5-MIN KMSN 291610Z 23007KT 10SM FEW100 27/16 A2996 820 48 2500 230/07 RMK AO2
14837KMSN MSN20120629101509606/29/12 10:15:31  5-MIN KMSN 291615Z 23005KT 10SM FEW100 27/16 A2996 820 48 2500 230/05 RMK AO2
14837KMSN MSN20120629102009606/29/12 10:20:31  5-MIN KMSN 291620Z 23005KT 10SM FEW100 27/16 A2996 830 48 2500 240/05 RMK AO2
14837KMSN MSN20120629102509606/29/12 10:25:31  5-MIN KMSN 291625Z 22004KT 10SM BKN100 27/16 A2996 830 48 2500 220/04 RMK AO2
14837KMSN MSN20120629103009606/29/12 10:30:31  5-MIN KMSN 291630Z 22005KT 10SM OVC100 27/15 A2996 830 46 2500 220/05 RMK AO2
14837KMSN MSN20120629103509606/29/12 10:35:31  5-MIN KMSN 291635Z 23007KT 10SM OVC100 27/15 A2996 830 46 2500 230/07 RMK AO2
14837KMSN MSN20120629104009606/29/12 10:40:31  5-MIN KMSN 291640Z 22007KT 10SM OVC110 27/16 A2997 820 48 2400 230/07 RMK AO2
14837KMSN MSN20120629104510206/29/12 10:45:31  5-MIN KMSN 291645Z 20009G15KT 10SM OVC110 28/15 A2996 820 45 2500 210/09G15 RMK AO2
14837KMSN MSN20120629105012606/29/12 10:50:31  5-MIN KMSN 291650Z 20011G16KT 10SM BKN110 28/14 A2993 860 43 2600 200/11G16 RMK AO2 PRESFR SLP130 T02780144
14837KMSN MSN20120629105510206/29/12 10:55:31  5-MIN KMSN 291655Z 20010G16KT 10SM BKN110 27/14 A2995 840 45 2500 200/10G16 RMK AO2
14837KMSN MSN20120629110009606/29/12 11:00:31  5-MIN KMSN 291700Z 18012KT 10SM SCT110 27/14 A2993 850 45 2500 190/12 RMK AO2
14837KMSN MSN20120629110510206/29/12 11:05:31  5-MIN KMSN 291705Z 21010G19KT 10SM FEW110 27/14 A2994 850 46 2400 210/10G19 RMK AO2
14837KMSN MSN20120629111010206/29/12 11:10:31  5-MIN KMSN 291710Z 20007G19KT 10SM FEW110 26/14 A2992 860 48 2400 200/07G19 RMK AO2
14837KMSN MSN20120629111509906/29/12 11:15:31  5-MIN KMSN 291715Z 20007G15KT 10SM CLR 26/14 A2993 850 48 2400 210/07G15 RMK AO2
14837KMSN MSN20120629112010206/29/12 11:20:31  5-MIN KMSN 291720Z 21005G15KT 10SM FEW110 26/14 A2991 870 48 2400 210/05G15 RMK AO2
14837KMSN MSN20120629112509606/29/12 11:25:31  5-MIN KMSN 291725Z 19007KT 10SM FEW110 26/14 A2992 870 48 2400 200/07 RMK AO2
14837KMSN MSN20120629113009606/29/12 11:30:31  5-MIN KMSN 291730Z 19004KT 10SM FEW110 26/14 A2990 880 48 2400 190/04 RMK AO2
14837KMSN MSN20120629113509606/29/12 11:35:31  5-MIN KMSN 291735Z 17009KT 10SM FEW110 27/14 A2991 880 46 2500 170/09 RMK AO2
14837KMSN MSN20120629114009606/29/12 11:40:31  5-MIN KMSN 291740Z 17007KT 10SM FEW110 26/14 A2990 880 48 2400 170/07 RMK AO2
14837KMSN MSN20120629114509606/29/12 11:45:31  5-MIN KMSN 291745Z 17008KT 10SM FEW110 27/14 A2990 880 46 2500 170/08 RMK AO2
14837KMSN MSN20120629115013106/29/12 11:50:31  5-MIN KMSN 291750Z 15006KT 10SM FEW110 26/15 A2989 890 50 2400 150/06 RMK AO2 SLP118 T02610150 10300 20194 58015
14837KMSN MSN20120629115509306/29/12 11:55:31  5-MIN KMSN 291755Z 16005KT 10SM CLR 27/14 A2989 900 46 2500 160/05 RMK AO2
14837KMSN MSN20120629120009306/29/12 12:00:31  5-MIN KMSN 291800Z 18006KT 10SM CLR 27/14 A2988 900 46 2500 180/06 RMK AO2
14837KMSN MSN20120629120510006/29/12 12:05:31  5-MIN KMSN 291805Z VRB03KT 10SM CLR 27/14 A2987 910 45 2500 VRB/03 RMK AO2 PRESFR
14837KMSN MSN20120629121010006/29/12 12:10:31  5-MIN KMSN 291810Z 07006KT 10SM CLR 27/14 A2986 920 43 2600 080/06 RMK AO2 PRESFR
14837KMSN MSN20120629121509306/29/12 12:15:31  5-MIN KMSN 291815Z VRB05KT 10SM CLR 28/13 A2986 920 40 2600 VRB/05 RMK AO2
14837KMSN MSN20120629122009306/29/12 12:20:31  5-MIN KMSN 291820Z 12003KT 10SM CLR 28/14 A2986 920 43 2600 120/03 RMK AO2
14837KMSN MSN20120629122509306/29/12 12:25:31  5-MIN KMSN 291825Z 07003KT 10SM CLR 28/13 A2986 920 39 2700 070/03 RMK AO2
14837KMSN MSN20120629123009306/29/12 12:30:31  5-MIN KMSN 291830Z 07005KT 10SM CLR 28/13 A2986 920 37 2700 070/05 RMK AO2
14837KMSN MSN20120629123509306/29/12 12:35:31  5-MIN KMSN 291835Z 06004KT 10SM CLR 29/13 A2986 920 36 2800 070/04 RMK AO2
14837KMSN MSN20120629124009306/29/12 12:40:31  5-MIN KMSN 291840Z 06004KT 10SM CLR 29/13 A2985 930 36 2800 060/04 RMK AO2
14837KMSN MSN20120629124509306/29/12 12:45:31  5-MIN KMSN 291845Z 08006KT 10SM CLR 29/12 A2985 930 35 2800 080/06 RMK AO2
14837KMSN MSN20120629125011006/29/12 12:50:31  5-MIN KMSN 291850Z VRB04KT 10SM CLR 29/12 A2985 930 34 2800 VRB/04 RMK AO2 SLP101 T02940122
14837KMSN MSN20120629125509306/29/12 12:55:31  5-MIN KMSN 291855Z 05006KT 10SM CLR 29/12 A2984 940 33 2800 050/06 RMK AO2
14837KMSN MSN20120629130009306/29/12 13:00:31  5-MIN KMSN 291900Z 05006KT 10SM CLR 30/11 A2984 940 30 2900 050/06 RMK AO2
14837KMSN MSN20120629130509306/29/12 13:05:31  5-MIN KMSN 291905Z 04007KT 10SM CLR 31/11 A2984 940 29 3000 040/07 RMK AO2
14837KMSN MSN20120629131009306/29/12 13:10:31  5-MIN KMSN 291910Z 04007KT 10SM CLR 31/12 A2983 950 30 3000 040/07 RMK AO2
14837KMSN MSN20120629131509306/29/12 13:15:31  5-MIN KMSN 291915Z 07007KT 10SM CLR 31/11 A2983 950 28 3000 070/07 RMK AO2
14837KMSN MSN20120629132011606/29/12 13:20:31  5-MIN KMSN 291920Z 04008KT 020V090 10SM CLR 31/10 A2982 960 26 3100 040/08 020V090 RMK AO2 PRESFR
14837KMSN MSN20120629132509306/29/12 13:25:31  5-MIN KMSN 291925Z 05007KT 10SM CLR 31/11 A2981 960 27 3100 050/07 RMK AO2
14837KMSN MSN20120629133009306/29/12 13:30:31  5-MIN KMSN 291930Z 04005KT 10SM CLR 31/11 A2981 970 27 3100 040/05 RMK AO2
14837KMSN MSN20120629133509306/29/12 13:35:31  5-MIN KMSN 291935Z 05006KT 10SM CLR 31/10 A2980 970 26 3100 060/06 RMK AO2
14837KMSN MSN20120629134009306/29/12 13:40:31  5-MIN KMSN 291940Z 05005KT 10SM CLR 32/10 A2980 970 25 3100 060/05 RMK AO2
14837KMSN MSN20120629134509306/29/12 13:45:31  5-MIN KMSN 291945Z 06005KT 10SM CLR 32/08 A2980 970 23 3100 060/05 RMK AO2
14837KMSN MSN20120629135011006/29/12 13:50:31  5-MIN KMSN 291950Z 05008KT 10SM CLR 32/09 A2979 980 24 3200 050/08 RMK AO2 SLP084 T03220094
14837KMSN MSN20120629135510306/29/12 13:55:31  5-MIN KMSN 291955Z 04009KT 10SM FEW085 SCT120 32/09 A2979 990 24 3200 040/09 RMK AO2
14837KMSN MSN20120629140010306/29/12 14:00:31  5-MIN KMSN 292000Z 03011KT 10SM FEW085 SCT120 32/11 A2978 990 27 3200 030/11 RMK AO2
14837KMSN MSN20120629140510306/29/12 14:05:31  5-MIN KMSN 292005Z 05005KT 10SM FEW085 SCT120 32/10 A2980 980 25 3200 050/05 RMK AO2
14837KMSN MSN20120629141009606/29/12 14:10:31  5-MIN KMSN 292010Z VRB03KT 10SM FEW100 32/09 A2981 960 24 3200 VRB/03 RMK AO2
14837KMSN MSN20120629141509606/29/12 14:15:31  5-MIN KMSN 292015Z 03005KT 10SM FEW100 33/08 A2981 970 21 3200 030/05 RMK AO2
14837KMSN MSN20120629142009606/29/12 14:20:31  5-MIN KMSN 292020Z VRB03KT 10SM FEW100 33/07 A2981 960 20 3200 VRB/03 RMK AO2
14837KMSN MSN20120629142509606/29/12 14:25:31  5-MIN KMSN 292025Z 32003KT 10SM FEW100 33/08 A2981 960 21 3200 330/03 RMK AO2
14837KMSN MSN20120629143009606/29/12 14:30:31  5-MIN KMSN 292030Z VRB04KT 10SM FEW110 33/09 A2981 970 23 3200 VRB/04 RMK AO2
14837KMSN MSN20120629143509606/29/12 14:35:31  5-MIN KMSN 292035Z 36007KT 10SM FEW110 32/09 A2980 970 24 3200 360/07 RMK AO2
14837KMSN MSN20120629144009606/29/12 14:40:31  5-MIN KMSN 292040Z 33006KT 10SM FEW110 32/08 A2980 980 22 3200 330/06 RMK AO2
14837KMSN MSN20120629144509606/29/12 14:45:31  5-MIN KMSN 292045Z 33005KT 10SM FEW110 33/08 A2980 970 21 3200 330/05 RMK AO2
14837KMSN MSN20120629145011906/29/12 14:50:31  5-MIN KMSN 292050Z 31004KT 10SM FEW110 33/10 A2981 970 24 3200 310/04 RMK AO2 SLP089 T03280100 50011
14837KMSN MSN20120629145509306/29/12 14:55:31  5-MIN KMSN 292055Z 30005KT 10SM CLR 32/09 A2982 960 24 3200 300/05 RMK AO2
14837KMSN MSN20120629150009306/29/12 15:00:31  5-MIN KMSN 292100Z VRB05KT 10SM CLR 33/07 A2982 960 20 3200 VRB/05 RMK AO2
14837KMSN MSN20120629150509306/29/12 15:05:31  5-MIN KMSN 292105Z 00000KT 10SM CLR 32/07 A2981 960 20 3200 000/00 RMK AO2
14837KMSN MSN20120629151009306/29/12 15:10:31  5-MIN KMSN 292110Z 00000KT 10SM CLR 32/06 A2981 970 18 3200 000/00 RMK AO2
14837KMSN MSN20120629151509306/29/12 15:15:31  5-MIN KMSN 292115Z 00000KT 10SM CLR 33/07 A2981 970 19 3200 000/00 RMK AO2
14837KMSN MSN20120629152009306/29/12 15:20:31  5-MIN KMSN 292120Z 00000KT 10SM CLR 33/07 A2981 970 20 3200 000/00 RMK AO2
14837KMSN MSN20120629152509306/29/12 15:25:31  5-MIN KMSN 292125Z 00000KT 10SM CLR 33/07 A2980 970 20 3300 000/00 RMK AO2
14837KMSN MSN20120629153009306/29/12 15:30:31  5-MIN KMSN 292130Z 24004KT 10SM CLR 33/09 A2980 970 23 3300 250/04 RMK AO2
14837KMSN MSN20120629153509306/29/12 15:35:31  5-MIN KMSN 292135Z 23005KT 10SM CLR 32/09 A2980 970 24 3200 240/05 RMK AO2
14837KMSN MSN20120629154009306/29/12 15:40:31  5-MIN KMSN 292140Z 24004KT 10SM CLR 32/10 A2981 970 25 3200 240/04 RMK AO2
14837KMSN MSN20120629154509306/29/12 15:45:31  5-MIN KMSN 292145Z 25005KT 10SM CLR 32/10 A2980 970 25 3200 250/05 RMK AO2
14837KMSN MSN20120629155011006/29/12 15:50:31  5-MIN KMSN 292150Z VRB03KT 10SM CLR 32/10 A2980 970 25 3200 VRB/03 RMK AO2 SLP086 T03220100
14837KMSN MSN20120629155509306/29/12 15:55:31  5-MIN KMSN 292155Z 23005KT 10SM CLR 32/09 A2980 970 24 3200 230/05 RMK AO2
14837KMSN MSN20120629160009306/29/12 16:00:31  5-MIN KMSN 292200Z 24005KT 10SM CLR 32/08 A2980 980 22 3200 250/05 RMK AO2
14837KMSN MSN20120629160509306/29/12 16:05:31  5-MIN KMSN 292205Z 22005KT 10SM CLR 32/08 A2980 980 22 3200 220/05 RMK AO2
14837KMSN MSN20120629161009306/29/12 16:10:31  5-MIN KMSN 292210Z 22003KT 10SM CLR 32/08 A2980 980 21 3200 220/03 RMK AO2
14837KMSN MSN20120629161509306/29/12 16:15:31  5-MIN KMSN 292215Z 23004KT 10SM CLR 32/07 A2980 980 20 3200 230/04 RMK AO2
14837KMSN MSN20120629162009306/29/12 16:20:31  5-MIN KMSN 292220Z 23005KT 10SM CLR 32/04 A2980 970 17 3100 230/05 RMK AO2
14837KMSN MSN20120629162509306/29/12 16:25:31  5-MIN KMSN 292225Z 23004KT 10SM CLR 32/06 A2980 970 20 3100 230/04 RMK AO2
14837KMSN MSN20120629163009306/29/12 16:30:31  5-MIN KMSN 292230Z 25003KT 10SM CLR 32/06 A2980 970 20 3100 250/03 RMK AO2
14837KMSN MSN20120629163509306/29/12 16:35:31  5-MIN KMSN 292235Z 26004KT 10SM CLR 32/06 A2980 980 19 3100 260/04 RMK AO2
14837KMSN MSN20120629164009306/29/12 16:40:31  5-MIN KMSN 292240Z 27003KT 10SM CLR 32/07 A2980 980 20 3100 270/03 RMK AO2
14837KMSN MSN20120629164509306/29/12 16:45:31  5-MIN KMSN 292245Z 00000KT 10SM CLR 32/07 A2980 980 20 3200 000/00 RMK AO2
14837KMSN MSN20120629165011006/29/12 16:50:31  5-MIN KMSN 292250Z 28003KT 10SM CLR 32/07 A2980 980 20 3200 280/03 RMK AO2 SLP085 T03220072
14837KMSN MSN20120629165509306/29/12 16:55:31  5-MIN KMSN 292255Z 24008KT 10SM CLR 32/08 A2980 980 23 3100 240/08 RMK AO2
14837KMSN MSN20120629170009306/29/12 17:00:31  5-MIN KMSN 292300Z 23007KT 10SM CLR 31/13 A2980 970 34 3000 230/07 RMK AO2
14837KMSN MSN20120629170509306/29/12 17:05:31  5-MIN KMSN 292305Z 23007KT 10SM CLR 31/14 A2981 970 37 3000 230/07 RMK AO2
14837KMSN MSN20120629171009306/29/12 17:10:31  5-MIN KMSN 292310Z VRB06KT 10SM CLR 30/14 A2982 960 38 2900 VRB/06 RMK AO2
14837KMSN MSN20120629171509306/29/12 17:15:31  5-MIN KMSN 292315Z 23004KT 10SM CLR 30/14 A2981 960 36 2900 240/04 RMK AO2
14837KMSN MSN20120629172009306/29/12 17:20:31  5-MIN KMSN 292320Z 23006KT 10SM CLR 29/14 A2982 960 38 2900 230/06 RMK AO2
14837KMSN MSN20120629172509306/29/12 17:25:31  5-MIN KMSN 292325Z 23004KT 10SM CLR 29/14 A2983 950 38 2900 230/04 RMK AO2
14837KMSN MSN20120629173009306/29/12 17:30:31  5-MIN KMSN 292330Z 23004KT 10SM CLR 29/14 A2983 950 39 2900 230/04 RMK AO2
14837KMSN MSN20120629173509306/29/12 17:35:31  5-MIN KMSN 292335Z VRB03KT 10SM CLR 29/15 A2983 950 41 2900 VRB/03 RMK AO2
14837KMSN MSN20120629174009306/29/12 17:40:31  5-MIN KMSN 292340Z 00000KT 10SM CLR 29/16 A2983 950 42 2900 000/00 RMK AO2
14837KMSN MSN20120629174509306/29/12 17:45:31  5-MIN KMSN 292345Z VRB03KT 10SM CLR 29/15 A2983 950 41 2900 VRB/03 RMK AO2
14837KMSN MSN20120629175012806/29/12 17:50:31  5-MIN KMSN 292350Z VRB03KT 10SM CLR 29/14 A2983 950 39 2900 VRB/03 RMK AO2 SLP095 T02940144 10333 20261 55024
14837KMSN MSN20120629175509306/29/12 17:55:31  5-MIN KMSN 292355Z 00000KT 10SM CLR 29/14 A2983 950 39 2900 000/00 RMK AO2
14837KMSN MSN20120629180009306/29/12 18:00:31  5-MIN KMSN 300000Z 00000KT 10SM CLR 29/14 A2982 950 39 2900 000/00 RMK AO2
14837KMSN MSN20120629180509306/29/12 18:05:31  5-MIN KMSN 300005Z 00000KT 10SM CLR 29/14 A2982 950 39 2900 000/00 RMK AO2
14837KMSN MSN20120629181009306/29/12 18:10:31  5-MIN KMSN 300010Z VRB03KT 10SM CLR 29/14 A2982 960 40 2800 VRB/03 RMK AO2
14837KMSN MSN20120629181509306/29/12 18:15:31  5-MIN KMSN 300015Z 31003KT 10SM CLR 29/14 A2981 960 40 2800 310/03 RMK AO2
14837KMSN MSN20120629182009306/29/12 18:20:31  5-MIN KMSN 300020Z 31003KT 10SM CLR 29/14 A2981 970 40 2800 310/03 RMK AO2
14837KMSN MSN20120629182509306/29/12 18:25:31  5-MIN KMSN 300025Z 32003KT 10SM CLR 28/14 A2981 970 42 2800 320/03 RMK AO2
14837KMSN MSN20120629183009306/29/12 18:30:31  5-MIN KMSN 300030Z 29003KT 10SM CLR 28/14 A2981 970 42 2800 290/03 RMK AO2
14837KMSN MSN20120629183509306/29/12 18:35:31  5-MIN KMSN 300035Z 00000KT 10SM CLR 28/14 A2981 970 42 2800 000/00 RMK AO2
14837KMSN MSN20120629184009306/29/12 18:40:31  5-MIN KMSN 300040Z 00000KT 10SM CLR 28/14 A2980 970 43 2700 000/00 RMK AO2
14837KMSN MSN20120629184509306/29/12 18:45:31  5-MIN KMSN 300045Z 00000KT 10SM CLR 28/14 A2980 970 43 2700 000/00 RMK AO2
14837KMSN MSN20120629185011306/29/12 18:50:31  5-MIN KMSN 300050Z 00000KT 10SM FEW110 27/15 A2980 970 46 2600 000/00 RMK AO2 SLP087 T02720150
14837KMSN MSN20120629185509606/29/12 18:55:31  5-MIN KMSN 300055Z 00000KT 10SM FEW110 27/15 A2981 970 48 2600 000/00 RMK AO2
14837KMSN MSN20120629190009606/29/12 19:00:31  5-MIN KMSN 300100Z 00000KT 10SM FEW110 27/15 A2981 970 48 2600 000/00 RMK AO2
14837KMSN MSN20120629190509606/29/12 19:05:31  5-MIN KMSN 300105Z 00000KT 10SM FEW110 27/15 A2981 970 48 2600 000/00 RMK AO2
14837KMSN MSN20120629191009606/29/12 19:10:31  5-MIN KMSN 300110Z 00000KT 10SM FEW110 27/14 A2981 970 45 2600 000/00 RMK AO2
14837KMSN MSN20120629191509606/29/12 19:15:31  5-MIN KMSN 300115Z 00000KT 10SM FEW110 28/14 A2980 970 42 2700 000/00 RMK AO2
14837KMSN MSN20120629192009306/29/12 19:20:31  5-MIN KMSN 300120Z 00000KT 10SM CLR 27/14 A2981 970 45 2600 000/00 RMK AO2
14837KMSN MSN20120629192509306/29/12 19:25:31  5-MIN KMSN 300125Z 00000KT 10SM CLR 27/14 A2981 970 45 2600 000/00 RMK AO2
14837KMSN MSN20120629193009306/29/12 19:30:31  5-MIN KMSN 300130Z 00000KT 10SM CLR 27/14 A2981 970 45 2600 000/00 RMK AO2
14837KMSN MSN20120629193509306/29/12 19:35:31  5-MIN KMSN 300135Z 00000KT 10SM CLR 27/14 A2982 960 46 2600 000/00 RMK AO2
14837KMSN MSN20120629194009306/29/12 19:40:31  5-MIN KMSN 300140Z 22003KT 10SM CLR 27/14 A2982 960 45 2600 220/03 RMK AO2
14837KMSN MSN20120629194509306/29/12 19:45:31  5-MIN KMSN 300145Z VRB03KT 10SM CLR 27/16 A2982 960 48 2600 VRB/03 RMK AO2
14837KMSN MSN20120629195011006/29/12 19:50:31  5-MIN KMSN 300150Z 23004KT 10SM CLR 27/16 A2982 960 50 2600 230/04 RMK AO2 SLP092 T02720161
14837KMSN MSN20120629195509306/29/12 19:55:31  5-MIN KMSN 300155Z 23003KT 10SM CLR 27/17 A2982 960 53 2600 240/03 RMK AO2
14837KMSN MSN20120629200009306/29/12 20:00:31  5-MIN KMSN 300200Z 22005KT 10SM CLR 27/17 A2982 950 53 2600 230/05 RMK AO2
14837KMSN MSN20120629200509306/29/12 20:05:31  5-MIN KMSN 300205Z 23007KT 10SM CLR 27/17 A2982 950 53 2600 230/07 RMK AO2
14837KMSN MSN20120629201009306/29/12 20:10:31  5-MIN KMSN 300210Z 23006KT 10SM CLR 27/16 A2982 960 50 2600 230/06 RMK AO2
14837KMSN MSN20120629201509306/29/12 20:15:31  5-MIN KMSN 300215Z 22006KT 10SM CLR 27/16 A2982 960 52 2600 220/06 RMK AO2
14837KMSN MSN20120629202010906/29/12 20:20:31  5-MIN KMSN 300220Z 25007KT 210V290 10SM CLR 27/16 A2982 960 52 2600 250/07 210V290 RMK AO2
14837KMSN MSN20120629202509306/29/12 20:25:31  5-MIN KMSN 300225Z VRB05KT 10SM CLR 27/17 A2982 960 53 2600 VRB/05 RMK AO2
14837KMSN MSN20120629203009306/29/12 20:30:31  5-MIN KMSN 300230Z 22004KT 10SM CLR 27/17 A2982 960 53 2600 220/04 RMK AO2
14837KMSN MSN20120629203509306/29/12 20:35:31  5-MIN KMSN 300235Z 23005KT 10SM CLR 26/17 A2982 950 57 2500 230/05 RMK AO2
14837KMSN MSN20120629204009306/29/12 20:40:31  5-MIN KMSN 300240Z VRB06KT 10SM CLR 26/17 A2982 960 57 2500 VRB/06 RMK AO2
14837KMSN MSN20120629204509306/29/12 20:45:31  5-MIN KMSN 300245Z VRB04KT 10SM CLR 26/18 A2982 950 59 2500 VRB/04 RMK AO2
14837KMSN MSN20120629205011606/29/12 20:50:31  5-MIN KMSN 300250Z 00000KT 10SM CLR 26/18 A2982 960 59 2500 000/00 RMK AO2 SLP091 T02610178 53005
14837KMSN MSN20120629205509306/29/12 20:55:31  5-MIN KMSN 300255Z 20003KT 10SM CLR 26/18 A2982 950 59 2500 200/03 RMK AO2
14837KMSN MSN20120629210009306/29/12 21:00:31  5-MIN KMSN 300300Z 00000KT 10SM CLR 26/18 A2982 960 59 2500 000/00 RMK AO2
14837KMSN MSN20120629210509306/29/12 21:05:31  5-MIN KMSN 300305Z 00000KT 10SM CLR 26/18 A2982 960 61 2400 000/00 RMK AO2
14837KMSN MSN20120629211009306/29/12 21:10:31  5-MIN KMSN 300310Z 00000KT 10SM CLR 26/18 A2982 960 61 2400 000/00 RMK AO2
14837KMSN MSN20120629211509306/29/12 21:15:31  5-MIN KMSN 300315Z 00000KT 10SM CLR 26/18 A2982 960 61 2400 000/00 RMK AO2
14837KMSN MSN20120629212009306/29/12 21:20:31  5-MIN KMSN 300320Z 00000KT 10SM CLR 25/18 A2981 960 64 2400 000/00 RMK AO2
14837KMSN MSN20120629212509306/29/12 21:25:31  5-MIN KMSN 300325Z 00000KT 10SM CLR 25/18 A2981 960 64 2400 000/00 RMK AO2
14837KMSN MSN20120629213009306/29/12 21:30:31  5-MIN KMSN 300330Z 00000KT 10SM CLR 24/18 A2981 960 68 2300 000/00 RMK AO2
14837KMSN MSN20120629213509306/29/12 21:35:31  5-MIN KMSN 300335Z 00000KT 10SM CLR 24/18 A2981 960 68 2300 000/00 RMK AO2
14837KMSN MSN20120629214009306/29/12 21:40:31  5-MIN KMSN 300340Z 00000KT 10SM CLR 23/18 A2982 960 73 2100 000/00 RMK AO2
14837KMSN MSN20120629214509306/29/12 21:45:31  5-MIN KMSN 300345Z 00000KT 10SM CLR 23/18 A2981 960 70 2200 000/00 RMK AO2
14837KMSN MSN20120629215011006/29/12 21:50:31  5-MIN KMSN 300350Z 00000KT 10SM CLR 22/18 A2981 970 75 2100 000/00 RMK AO2 SLP088 T02220178
14837KMSN MSN20120629215509306/29/12 21:55:31  5-MIN KMSN 300355Z 00000KT 10SM CLR 24/18 A2981 970 68 2300 000/00 RMK AO2
14837KMSN MSN20120629220009306/29/12 22:00:31  5-MIN KMSN 300400Z 00000KT 10SM CLR 23/18 A2981 960 73 2100 000/00 RMK AO2
14837KMSN MSN20120629220509306/29/12 22:05:31  5-MIN KMSN 300405Z 00000KT 10SM CLR 22/18 A2982 960 75 2100 000/00 RMK AO2
14837KMSN MSN20120629221009306/29/12 22:10:31  5-MIN KMSN 300410Z 00000KT 10SM CLR 21/18 A2982 950 84 1900 000/00 RMK AO2
14837KMSN MSN20120629221509306/29/12 22:15:31  5-MIN KMSN 300415Z 00000KT 10SM CLR 21/18 A2982 960 81 1900 000/00 RMK AO2
14837KMSN MSN20120629222009306/29/12 22:20:31  5-MIN KMSN 300420Z 00000KT 10SM CLR 22/18 A2982 950 78 2000 000/00 RMK AO2
14837KMSN MSN20120629222509306/29/12 22:25:31  5-MIN KMSN 300425Z 00000KT 10SM CLR 22/18 A2982 960 75 2100 000/00 RMK AO2
14837KMSN MSN20120629223009306/29/12 22:30:31  5-MIN KMSN 300430Z 00000KT 10SM CLR 22/18 A2982 960 78 2000 000/00 RMK AO2
14837KMSN MSN20120629223509306/29/12 22:35:31  5-MIN KMSN 300435Z 00000KT 10SM CLR 22/18 A2982 960 78 2000 000/00 RMK AO2
14837KMSN MSN20120629224009306/29/12 22:40:31  5-MIN KMSN 300440Z 00000KT 10SM CLR 22/18 A2982 960 78 2000 000/00 RMK AO2
14837KMSN MSN20120629224509306/29/12 22:45:31  5-MIN KMSN 300445Z 00000KT 10SM CLR 21/18 A2982 960 81 1900 000/00 RMK AO2
14837KMSN MSN20120629225011006/29/12 22:50:31  5-MIN KMSN 300450Z 00000KT 10SM CLR 21/18 A2982 960 81 1900 000/00 RMK AO2 SLP093 T02110178
14837KMSN MSN20120629225509306/29/12 22:55:31  5-MIN KMSN 300455Z 00000KT 10SM CLR 21/18 A2982 960 84 1900 000/00 RMK AO2
14837KMSN MSN20120629230009306/29/12 23:00:31  5-MIN KMSN 300500Z 00000KT 10SM CLR 21/18 A2982 960 81 1900 000/00 RMK AO2
14837KMSN MSN20120629230509306/29/12 23:05:31  5-MIN KMSN 300505Z 00000KT 10SM CLR 21/18 A2982 950 84 1900 000/00 RMK AO2
14837KMSN MSN20120629231009306/29/12 23:10:31  5-MIN KMSN 300510Z 00000KT 10SM CLR 21/18 A2982 960 84 1900 000/00 RMK AO2
14837KMSN MSN20120629231509306/29/12 23:15:31  5-MIN KMSN 300515Z 00000KT 10SM CLR 21/18 A2982 960 84 1900 000/00 RMK AO2
14837KMSN MSN20120629232009306/29/12 23:20:31  5-MIN KMSN 300520Z 00000KT 10SM CLR 20/18 A2982 960 87 1800 000/00 RMK AO2
14837KMSN MSN20120629232509306/29/12 23:25:31  5-MIN KMSN 300525Z 00000KT 10SM CLR 20/18 A2981 960 87 1800 000/00 RMK AO2
14837KMSN MSN20120629233009306/29/12 23:30:31  5-MIN KMSN 300530Z 00000KT 10SM CLR 19/17 A2981 970 87 1700 000/00 RMK AO2
14837KMSN MSN20120629233509306/29/12 23:35:31  5-MIN KMSN 300535Z 00000KT 10SM CLR 20/17 A2981 970 84 1800 000/00 RMK AO2
14837KMSN MSN20120629234009306/29/12 23:40:31  5-MIN KMSN 300540Z 00000KT 10SM CLR 21/18 A2981 970 84 1900 000/00 RMK AO2
14837KMSN MSN20120629234509306/29/12 23:45:31  5-MIN KMSN 300545Z 00000KT 10SM CLR 20/18 A2981 970 87 1800 000/00 RMK AO2
14837KMSN MSN20120629235013806/29/12 23:50:31  5-MIN KMSN 300550Z 36003KT 10SM CLR 19/17 A2981 960 90 1700 360/03 RMK AO2 SLP090 T01890172 10294 20189 403330139 56003
14837KMSN MSN20120629235509306/29/12 23:55:31  5-MIN KMSN 300555Z 01003KT 10SM CLR 19/17 A2982 960 87 1700 010/03 RMK AO2
14837KMSN MSN20120630000009306/30/12 00:00:32  5-MIN KMSN 300600Z 00000KT 10SM CLR 19/17 A2983 950 87 1700 000/00 RMK AO2
14837KMSN MSN20120630000509306/30/12 00:05:31  5-MIN KMSN 300605Z 18004KT 10SM CLR 19/17 A2982 950 84 1700 180/04 RMK AO2
14837KMSN MSN20120630001009306/30/12 00:10:31  5-MIN KMSN 300610Z 00000KT 10SM CLR 21/17 A2982 950 78 1900 000/00 RMK AO2
14837KMSN MSN20120630001509306/30/12 00:15:31  5-MIN KMSN 300615Z 18005KT 10SM CLR 21/18 A2982 950 81 1900 190/05 RMK AO2
14837KMSN MSN20120630002009306/30/12 00:20:31  5-MIN KMSN 300620Z 20004KT 10SM CLR 22/18 A2982 960 78 2100 200/04 RMK AO2
14837KMSN MSN20120630002509306/30/12 00:25:31  5-MIN KMSN 300625Z 20006KT 10SM CLR 23/19 A2983 950 78 2100 210/06 RMK AO2
14837KMSN MSN20120630003009306/30/12 00:30:31  5-MIN KMSN 300630Z 00000KT 10SM CLR 23/19 A2982 960 78 2100 000/00 RMK AO2
14837KMSN MSN20120630003509306/30/12 00:35:31  5-MIN KMSN 300635Z 19008KT 10SM CLR 23/19 A2982 950 78 2100 190/08 RMK AO2
14837KMSN MSN20120630004009306/30/12 00:40:31  5-MIN KMSN 300640Z 27003KT 10SM CLR 23/19 A2981 960 76 2200 280/03 RMK AO2
14837KMSN MSN20120630004509306/30/12 00:45:31  5-MIN KMSN 300645Z 19006KT 10SM CLR 23/19 A2982 960 78 2100 190/06 RMK AO2
14837KMSN MSN20120630005011006/30/12 00:50:31  5-MIN KMSN 300650Z 19004KT 10SM CLR 23/19 A2982 960 76 2200 190/04 RMK AO2 SLP090 T02330189
14837KMSN MSN20120630005509306/30/12 00:55:31  5-MIN KMSN 300655Z 21003KT 10SM CLR 23/18 A2982 960 76 2100 220/03 RMK AO2
14837KMSN MSN20120630010009306/30/12 01:00:31  5-MIN KMSN 300700Z 18006KT 10SM CLR 23/18 A2982 960 76 2100 180/06 RMK AO2
14837KMSN MSN20120630010509306/30/12 01:05:31  5-MIN KMSN 300705Z 19006KT 10SM CLR 23/19 A2982 960 78 2100 190/06 RMK AO2
14837KMSN MSN20120630011009306/30/12 01:10:31  5-MIN KMSN 300710Z 00000KT 10SM CLR 23/19 A2981 960 78 2100 000/00 RMK AO2
14837KMSN MSN20120630011509306/30/12 01:15:31  5-MIN KMSN 300715Z 20003KT 10SM CLR 23/18 A2981 960 76 2100 200/03 RMK AO2
14837KMSN MSN20120630012009306/30/12 01:20:31  5-MIN KMSN 300720Z 00000KT 10SM CLR 23/18 A2981 970 76 2100 000/00 RMK AO2
14837KMSN MSN20120630012509306/30/12 01:25:31  5-MIN KMSN 300725Z 23003KT 10SM CLR 22/19 A2981 970 81 2100 230/03 RMK AO2
14837KMSN MSN20120630013009306/30/12 01:30:31  5-MIN KMSN 300730Z 22004KT 10SM CLR 22/18 A2981 970 78 2100 230/04 RMK AO2
14837KMSN MSN20120630013509306/30/12 01:35:31  5-MIN KMSN 300735Z 23004KT 10SM CLR 22/19 A2980 970 81 2100 230/04 RMK AO2
14837KMSN MSN20120630014009306/30/12 01:40:31  5-MIN KMSN 300740Z 22004KT 10SM CLR 22/19 A2980 970 81 2100 230/04 RMK AO2
14837KMSN MSN20120630014509306/30/12 01:45:31  5-MIN KMSN 300745Z 22004KT 10SM CLR 22/19 A2980 980 81 2100 220/04 RMK AO2
14837KMSN MSN20120630015011006/30/12 01:50:31  5-MIN KMSN 300750Z 23003KT 10SM CLR 22/19 A2979 980 81 2100 230/03 RMK AO2 SLP081 T02220189
14837KMSN MSN20120630015509306/30/12 01:55:31  5-MIN KMSN 300755Z 23003KT 10SM CLR 22/19 A2979 980 81 2100 230/03 RMK AO2
14837KMSN MSN20120630020009306/30/12 02:00:31  5-MIN KMSN 300800Z 22003KT 10SM CLR 22/19 A2980 980 81 2100 220/03 RMK AO2
14837KMSN MSN20120630020509306/30/12 02:05:31  5-MIN KMSN 300805Z 21003KT 10SM CLR 22/19 A2980 980 81 2100 210/03 RMK AO2
14837KMSN MSN20120630021009306/30/12 02:10:31  5-MIN KMSN 300810Z 24004KT 10SM CLR 22/19 A2980 970 84 2000 250/04 RMK AO2
14837KMSN MSN20120630021509306/30/12 02:15:31  5-MIN KMSN 300815Z 30003KT 10SM CLR 22/19 A2980 970 84 2000 300/03 RMK AO2
14837KMSN MSN20120630022009306/30/12 02:20:31  5-MIN KMSN 300820Z 00000KT 10SM CLR 22/19 A2980 970 84 2000 000/00 RMK AO2
14837KMSN MSN20120630022509306/30/12 02:25:31  5-MIN KMSN 300825Z 00000KT 10SM CLR 22/19 A2980 970 87 2000 000/00 RMK AO2
14837KMSN MSN20120630023009306/30/12 02:30:31  5-MIN KMSN 300830Z 00000KT 10SM CLR 22/19 A2980 980 87 2000 000/00 RMK AO2
14837KMSN MSN20120630023509306/30/12 02:35:31  5-MIN KMSN 300835Z 00000KT 10SM CLR 22/19 A2980 970 84 2000 000/00 RMK AO2
14837KMSN MSN20120630024009306/30/12 02:40:31  5-MIN KMSN 300840Z 00000KT 10SM CLR 22/19 A2980 970 84 2000 000/00 RMK AO2
14837KMSN MSN20120630024509306/30/12 02:45:31  5-MIN KMSN 300845Z 00000KT 10SM CLR 22/19 A2980 970 84 2000 000/00 RMK AO2
14837KMSN MSN20120630025011606/30/12 02:50:31  5-MIN KMSN 300850Z 00000KT 10SM CLR 22/19 A2981 970 84 2000 000/00 RMK AO2 SLP086 T02170189 56002
14837KMSN MSN20120630025509306/30/12 02:55:31  5-MIN KMSN 300855Z 00000KT 10SM CLR 22/19 A2981 970 84 2000 000/00 RMK AO2
14837KMSN MSN20120630030009306/30/12 03:00:31  5-MIN KMSN 300900Z 00000KT 10SM CLR 21/19 A2981 970 87 1900 000/00 RMK AO2
14837KMSN MSN20120630030509306/30/12 03:05:31  5-MIN KMSN 300905Z 00000KT 10SM CLR 21/19 A2981 970 87 1900 000/00 RMK AO2
14837KMSN MSN20120630031009206/30/12 03:10:31  5-MIN KMSN 300910Z 00000KT 9SM CLR 20/18 A2981 970 90 1800 000/00 RMK AO2
14837KMSN MSN20120630031509206/30/12 03:15:31  5-MIN KMSN 300915Z 01003KT 8SM CLR 19/18 A2981 970 90 1800 010/03 RMK AO2
14837KMSN MSN20120630032009206/30/12 03:20:31  5-MIN KMSN 300920Z 00000KT 8SM CLR 19/18 A2981 970 93 1700 000/00 RMK AO2
14837KMSN MSN20120630032509206/30/12 03:25:31  5-MIN KMSN 300925Z 00000KT 7SM CLR 19/18 A2981 970 93 1700 000/00 RMK AO2
14837KMSN MSN20120630033009506/30/12 03:30:31  5-MIN KMSN 300930Z 00000KT 6SM BR CLR 20/19 A2981 970 93 1800 000/00 RMK AO2
14837KMSN MSN20120630033509506/30/12 03:35:31  5-MIN KMSN 300935Z 00000KT 6SM BR CLR 19/18 A2982 960 93 1700 000/00 RMK AO2
14837KMSN MSN20120630034009206/30/12 03:40:31  5-MIN KMSN 300940Z 00000KT 7SM CLR 19/18 A2981 970 93 1700 000/00 RMK AO2
14837KMSN MSN20120630034509206/30/12 03:45:31  5-MIN KMSN 300945Z 00000KT 8SM CLR 20/19 A2981 970 93 1800 000/00 RMK AO2
14837KMSN MSN20120630035010906/30/12 03:50:31  5-MIN KMSN 300950Z 00000KT 8SM CLR 19/18 A2981 960 93 1700 000/00 RMK AO2 SLP089 T01940183
14837KMSN MSN20120630035509206/30/12 03:55:31  5-MIN KMSN 300955Z 00000KT 7SM CLR 20/18 A2981 960 90 1800 000/00 RMK AO2
14837KMSN MSN20120630040009506/30/12 04:00:31  5-MIN KMSN 301000Z 00000KT 6SM BR CLR 19/18 A2981 960 93 1700 000/00 RMK AO2
14837KMSN MSN20120630040509506/30/12 04:05:31  5-MIN KMSN 301005Z 32003KT 5SM BR CLR 19/18 A2982 960 97 1700 320/03 RMK AO2
14837KMSN MSN20120630041009606/30/12 04:10:31  5-MIN KMSN 301010Z 00000KT 5SM BR CLR 18/18 A2982 960 100 1600 000/00 RMK AO2
14837KMSN MSN20120630041509506/30/12 04:15:31  5-MIN KMSN 301015Z 00000KT 5SM BR CLR 19/18 A2982 960 97 1700 000/00 RMK AO2
14837KMSN MSN20120630042009506/30/12 04:20:31  5-MIN KMSN 301020Z 00000KT 4SM BR CLR 19/18 A2982 960 97 1700 000/00 RMK AO2
14837KMSN MSN20120630042509506/30/12 04:25:31  5-MIN KMSN 301025Z 35003KT 4SM BR CLR 19/18 A2982 960 93 1700 360/03 RMK AO2
14837KMSN MSN20120630043009506/30/12 04:30:31  5-MIN KMSN 301030Z 01003KT 3SM BR CLR 18/18 A2982 960 96 1600 010/03 RMK AO2
14837KMSN MSN20120630043509506/30/12 04:35:31  5-MIN KMSN 301035Z 01003KT 3SM BR CLR 19/18 A2981 960 93 1700 010/03 RMK AO2
14837KMSN MSN20120630044009506/30/12 04:40:31  5-MIN KMSN 301040Z 01003KT 3SM BR CLR 18/18 A2981 960 96 1600 010/03 RMK AO2
14837KMSN MSN20120630044509506/30/12 04:45:31  5-MIN KMSN 301045Z 00000KT 3SM BR CLR 19/18 A2981 960 93 1700 000/00 RMK AO2
14837KMSN MSN20120630045011206/30/12 04:50:31  5-MIN KMSN 301050Z 00000KT 3SM BR CLR 19/18 A2982 960 93 1700 000/00 RMK AO2 SLP090 T01940183
14837KMSN MSN20120630045509806/30/12 04:55:31  5-MIN KMSN 301055Z 30003KT 6SM BR FEW110 19/18 A2982 960 93 1700 310/03 RMK AO2
14837KMSN MSN20120630050010506/30/12 05:00:31  5-MIN KMSN 301100Z 00000KT 6SM BR FEW090 SCT110 19/18 A2983 950 93 1700 000/00 RMK AO2
14837KMSN MSN20120630050510506/30/12 05:05:31  5-MIN KMSN 301105Z 00000KT 6SM BR SCT090 BKN110 19/18 A2983 950 93 1700 000/00 RMK AO2
14837KMSN MSN20120630051011206/30/12 05:10:31  5-MIN KMSN 301110Z 00000KT 6SM BR FEW075 SCT090 BKN110 19/18 A2982 950 93 1700 000/00 RMK AO2
14837KMSN MSN20120630051511806/30/12 05:15:31  5-MIN KMSN 301115Z 30003KT 7SM -RA FEW090 SCT110 20/18 A2982 950 90 1800 300/03 RMK AO2 RAB14 P0000
14837KMSN MSN20120630052011806/30/12 05:20:31  5-MIN KMSN 301120Z 29003KT 9SM -RA FEW085 SCT110 20/18 A2982 950 90 1800 290/03 RMK AO2 RAB14 P0000
14837KMSN MSN20120630052511806/30/12 05:25:31  5-MIN KMSN 301125Z 29003KT 10SM FEW085 SCT110 20/18 A2982 950 90 1800 300/03 RMK AO2 RAB14E25 P0000
14837KMSN MSN20120630053011106/30/12 05:30:31  5-MIN KMSN 301130Z 31004KT 10SM FEW090 21/18 A2982 950 87 1900 310/04 RMK AO2 RAB14E25 P0000
14837KMSN MSN20120630053510706/30/12 05:35:31  5-MIN KMSN 301135Z 31004KT 9SM CLR 21/18 A2982 950 87 1900 320/04 RMK AO2 RAB14E25 P0000
14837KMSN MSN20120630054011006/30/12 05:40:31  5-MIN KMSN 301140Z 31004KT 9SM FEW090 21/18 A2983 950 87 1900 310/04 RMK AO2 RAB14E25 P0000
14837KMSN MSN20120630054511106/30/12 05:45:31  5-MIN KMSN 301145Z 29004KT 10SM FEW090 21/18 A2983 950 87 1900 290/04 RMK AO2 RAB14E25 P0000
14837KMSN MSN20120630055015206/30/12 05:50:31  5-MIN KMSN 301150Z 30004KT 10SM FEW110 21/18 A2983 950 84 1900 300/04 RMK AO2 RAB14E25 SLP095 P0000 60000 T02110183 10233 20183 55003
14837KMSN MSN20120630055509606/30/12 05:55:31  5-MIN KMSN 301155Z 32003KT 10SM FEW120 21/18 A2983 950 84 1900 320/03 RMK AO2
14837KMSN MSN20120630060009606/30/12 06:00:31  5-MIN KMSN 301200Z 35003KT 10SM FEW120 21/19 A2983 950 87 1900 350/03 RMK AO2
14837KMSN MSN20120630060509606/30/12 06:05:31  5-MIN KMSN 301205Z 02003KT 10SM FEW120 21/19 A2983 950 87 1900 020/03 RMK AO2
14837KMSN MSN20120630061009606/30/12 06:10:31  5-MIN KMSN 301210Z 00000KT 10SM FEW120 21/19 A2983 950 87 1900 000/00 RMK AO2
14837KMSN MSN20120630061509606/30/12 06:15:31  5-MIN KMSN 301215Z 00000KT 10SM FEW120 21/19 A2984 940 87 1900 000/00 RMK AO2
14837KMSN MSN20120630062009606/30/12 06:20:31  5-MIN KMSN 301220Z 00000KT 10SM FEW120 22/19 A2983 940 84 2000 000/00 RMK AO2
14837KMSN MSN20120630062509606/30/12 06:25:31  5-MIN KMSN 301225Z 00000KT 10SM FEW120 22/19 A2983 940 84 2000 000/00 RMK AO2
14837KMSN MSN20120630063009606/30/12 06:30:31  5-MIN KMSN 301230Z 00000KT 10SM FEW120 22/19 A2983 950 84 2000 000/00 RMK AO2
14837KMSN MSN20120630063509606/30/12 06:35:31  5-MIN KMSN 301235Z 00000KT 10SM FEW120 22/19 A2983 950 84 2000 000/00 RMK AO2
14837KMSN MSN20120630064009606/30/12 06:40:31  5-MIN KMSN 301240Z 00000KT 10SM FEW120 22/19 A2983 950 81 2000 000/00 RMK AO2
14837KMSN MSN20120630064509606/30/12 06:45:31  5-MIN KMSN 301245Z 00000KT 10SM FEW120 22/19 A2983 950 81 2000 000/00 RMK AO2
14837KMSN MSN20120630065011306/30/12 06:50:31  5-MIN KMSN 301250Z 00000KT 10SM FEW120 22/19 A2983 950 81 2000 000/00 RMK AO2 SLP094 T02220189
14837KMSN MSN20120630065509306/30/12 06:55:31  5-MIN KMSN 301255Z 00000KT 10SM CLR 23/19 A2983 950 78 2100 000/00 RMK AO2
14837KMSN MSN20120630070009306/30/12 07:00:31  5-MIN KMSN 301300Z 00000KT 10SM CLR 23/19 A2982 950 78 2100 000/00 RMK AO2
14837KMSN MSN20120630070509306/30/12 07:05:31  5-MIN KMSN 301305Z 00000KT 10SM CLR 23/19 A2982 950 78 2100 000/00 RMK AO2
14837KMSN MSN20120630071009306/30/12 07:10:31  5-MIN KMSN 301310Z 00000KT 10SM CLR 23/19 A2982 950 78 2100 000/00 RMK AO2
14837KMSN MSN20120630071509306/30/12 07:15:31  5-MIN KMSN 301315Z 00000KT 10SM CLR 23/19 A2983 950 78 2100 000/00 RMK AO2
14837KMSN MSN20120630072009306/30/12 07:20:31  5-MIN KMSN 301320Z 00000KT 10SM CLR 23/19 A2982 950 78 2100 000/00 RMK AO2
14837KMSN MSN20120630072509306/30/12 07:25:31  5-MIN KMSN 301325Z 00000KT 10SM CLR 23/19 A2982 950 76 2200 000/00 RMK AO2
14837KMSN MSN20120630073009306/30/12 07:30:31  5-MIN KMSN 301330Z 00000KT 10SM CLR 23/19 A2983 950 76 2200 000/00 RMK AO2
14837KMSN MSN20120630073509306/30/12 07:35:31  5-MIN KMSN 301335Z 00000KT 10SM CLR 23/19 A2983 950 76 2200 000/00 RMK AO2
14837KMSN MSN20120630074009306/30/12 07:40:31  5-MIN KMSN 301340Z 00000KT 10SM CLR 23/19 A2983 950 76 2200 000/00 RMK AO2
14837KMSN MSN20120630074509306/30/12 07:45:31  5-MIN KMSN 301345Z 00000KT 10SM CLR 24/19 A2983 950 73 2200 000/00 RMK AO2
14837KMSN MSN20120630075011006/30/12 07:50:31  5-MIN KMSN 301350Z 00000KT 10SM CLR 24/19 A2983 950 71 2300 000/00 RMK AO2 SLP095 T02440189
14837KMSN MSN20120630075509306/30/12 07:55:31  5-MIN KMSN 301355Z 31003KT 10SM CLR 25/19 A2983 950 68 2400 310/03 RMK AO2
14837KMSN MSN20120630080009306/30/12 08:00:31  5-MIN KMSN 301400Z 00000KT 10SM CLR 25/18 A2983 950 66 2400 000/00 RMK AO2
14837KMSN MSN20120630080509306/30/12 08:05:31  5-MIN KMSN 301405Z 00000KT 10SM CLR 25/18 A2983 950 66 2400 000/00 RMK AO2
14837KMSN MSN20120630081009306/30/12 08:10:31  5-MIN KMSN 301410Z 00000KT 10SM CLR 25/18 A2983 950 66 2400 000/00 RMK AO2
14837KMSN MSN20120630081509306/30/12 08:15:31  5-MIN KMSN 301415Z 00000KT 10SM CLR 25/18 A2983 950 66 2400 000/00 RMK AO2
14837KMSN MSN20120630082009306/30/12 08:20:31  5-MIN KMSN 301420Z 29003KT 10SM CLR 25/18 A2984 940 66 2400 290/03 RMK AO2
14837KMSN MSN20120630082509306/30/12 08:25:31  5-MIN KMSN 301425Z VRB03KT 10SM CLR 25/18 A2983 940 66 2400 VRB/03 RMK AO2
14837KMSN MSN20120630083009306/30/12 08:30:31  5-MIN KMSN 301430Z 00000KT 10SM CLR 25/18 A2984 940 66 2400 000/00 RMK AO2
14837KMSN MSN20120630083509306/30/12 08:35:31  5-MIN KMSN 301435Z 00000KT 10SM CLR 25/18 A2984 940 64 2300 000/00 RMK AO2
14837KMSN MSN20120630084009306/30/12 08:40:31  5-MIN KMSN 301440Z 00000KT 10SM CLR 25/18 A2984 940 66 2300 000/00 RMK AO2
14837KMSN MSN20120630084509306/30/12 08:45:31  5-MIN KMSN 301445Z 29003KT 10SM CLR 25/18 A2984 940 66 2300 290/03 RMK AO2
14837KMSN MSN20120630085011606/30/12 08:50:31  5-MIN KMSN 301450Z 00000KT 10SM CLR 25/18 A2984 940 66 2300 000/00 RMK AO2 SLP099 T02500183 53007
14837KMSN MSN20120630085509306/30/12 08:55:31  5-MIN KMSN 301455Z 00000KT 10SM CLR 26/18 A2984 940 64 2400 000/00 RMK AO2
14837KMSN MSN20120630090009306/30/12 09:00:31  5-MIN KMSN 301500Z 00000KT 10SM CLR 26/19 A2984 940 66 2400 000/00 RMK AO2
14837KMSN MSN20120630090509306/30/12 09:05:31  5-MIN KMSN 301505Z 00000KT 10SM CLR 26/18 A2984 940 64 2400 000/00 RMK AO2
14837KMSN MSN20120630091009306/30/12 09:10:31  5-MIN KMSN 301510Z 28003KT 10SM CLR 26/18 A2985 930 64 2400 280/03 RMK AO2
14837KMSN MSN20120630091509306/30/12 09:15:31  5-MIN KMSN 301515Z 28003KT 10SM CLR 26/19 A2985 930 66 2400 290/03 RMK AO2
14837KMSN MSN20120630092009306/30/12 09:20:31  5-MIN KMSN 301520Z 00000KT 10SM CLR 27/19 A2985 930 62 2500 000/00 RMK AO2
14837KMSN MSN20120630092509306/30/12 09:25:31  5-MIN KMSN 301525Z 00000KT 10SM CLR 27/19 A2985 930 62 2500 000/00 RMK AO2
14837KMSN MSN20120630093009306/30/12 09:30:31  5-MIN KMSN 301530Z 00000KT 10SM CLR 27/18 A2985 930 60 2500 000/00 RMK AO2
14837KMSN MSN20120630093509306/30/12 09:35:31  5-MIN KMSN 301535Z 29004KT 10SM CLR 27/18 A2985 930 60 2500 290/04 RMK AO2
14837KMSN MSN20120630094009306/30/12 09:40:31  5-MIN KMSN 301540Z 00000KT 10SM CLR 27/19 A2985 930 60 2600 000/00 RMK AO2
14837KMSN MSN20120630094509306/30/12 09:45:31  5-MIN KMSN 301545Z VRB03KT 10SM CLR 28/19 A2985 930 58 2700 VRB/03 RMK AO2
14837KMSN MSN20120630095011006/30/12 09:50:31  5-MIN KMSN 301550Z 00000KT 10SM CLR 28/18 A2985 930 56 2700 000/00 RMK AO2 SLP101 T02780183
14837KMSN MSN20120630095509306/30/12 09:55:31  5-MIN KMSN 301555Z 00000KT 10SM CLR 28/18 A2985 930 54 2700 000/00 RMK AO2
14837KMSN MSN20120630100009306/30/12 10:00:31  5-MIN KMSN 301600Z 34003KT 10SM CLR 29/18 A2985 930 52 2800 340/03 RMK AO2
14837KMSN MSN20120630100509306/30/12 10:05:31  5-MIN KMSN 301605Z VRB03KT 10SM CLR 29/19 A2985 930 52 2800 VRB/03 RMK AO2
14837KMSN MSN20120630101009306/30/12 10:10:31  5-MIN KMSN 301610Z 00000KT 10SM CLR 29/18 A2985 930 50 2800 000/00 RMK AO2
14837KMSN MSN20120630101509306/30/12 10:15:31  5-MIN KMSN 301615Z 30005KT 10SM CLR 29/18 A2985 930 50 2800 300/05 RMK AO2
14837KMSN MSN20120630102009306/30/12 10:20:31  5-MIN KMSN 301620Z VRB03KT 10SM CLR 29/18 A2985 930 52 2800 VRB/03 RMK AO2
14837KMSN MSN20120630102509306/30/12 10:25:31  5-MIN KMSN 301625Z 33004KT 10SM CLR 29/18 A2985 930 50 2800 330/04 RMK AO2
14837KMSN MSN20120630103009306/30/12 10:30:31  5-MIN KMSN 301630Z 00000KT 10SM CLR 29/18 A2985 930 49 2800 000/00 RMK AO2
14837KMSN MSN20120630103509306/30/12 10:35:31  5-MIN KMSN 301635Z VRB05KT 10SM CLR 29/18 A2985 930 50 2800 VRB/05 RMK AO2
14837KMSN MSN20120630104009306/30/12 10:40:31  5-MIN KMSN 301640Z 00000KT 10SM CLR 30/17 A2985 930 45 2900 000/00 RMK AO2
14837KMSN MSN20120630104509306/30/12 10:45:31  5-MIN KMSN 301645Z 00000KT 10SM CLR 30/18 A2985 930 47 2900 000/00 RMK AO2
14837KMSN MSN20120630105011006/30/12 10:50:31  5-MIN KMSN 301650Z 01004KT 10SM CLR 31/18 A2984 940 44 3000 010/04 RMK AO2 SLP099 T03110178
14837KMSN MSN20120630105509306/30/12 10:55:31  5-MIN KMSN 301655Z 31004KT 10SM CLR 31/17 A2984 940 42 3000 310/04 RMK AO2
14837KMSN MSN20120630110009306/30/12 11:00:31  5-MIN KMSN 301700Z VRB03KT 10SM CLR 31/17 A2984 940 44 3000 VRB/03 RMK AO2
14837KMSN MSN20120630110509306/30/12 11:05:31  5-MIN KMSN 301705Z 03004KT 10SM CLR 31/17 A2984 940 42 3000 030/04 RMK AO2
14837KMSN MSN20120630111009306/30/12 11:10:31  5-MIN KMSN 301710Z 00000KT 10SM CLR 31/17 A2984 940 44 3000 000/00 RMK AO2
14837KMSN MSN20120630111509306/30/12 11:15:31  5-MIN KMSN 301715Z VRB03KT 10SM CLR 31/17 A2984 940 44 3000 VRB/03 RMK AO2
14837KMSN MSN20120630112009306/30/12 11:20:31  5-MIN KMSN 301720Z VRB05KT 10SM CLR 32/17 A2984 940 41 3100 VRB/05 RMK AO2
14837KMSN MSN20120630112509306/30/12 11:25:31  5-MIN KMSN 301725Z 25003KT 10SM CLR 31/17 A2984 940 41 3000 250/03 RMK AO2
14837KMSN MSN20120630113009306/30/12 11:30:31  5-MIN KMSN 301730Z 30005KT 10SM CLR 32/17 A2984 940 40 3100 310/05 RMK AO2
14837KMSN MSN20120630113509306/30/12 11:35:31  5-MIN KMSN 301735Z 00000KT 10SM CLR 31/16 A2984 940 40 3000 000/00 RMK AO2
14837KMSN MSN20120630114009306/30/12 11:40:31  5-MIN KMSN 301740Z VRB04KT 10SM CLR 32/17 A2984 940 40 3100 VRB/04 RMK AO2
14837KMSN MSN20120630114509306/30/12 11:45:31  5-MIN KMSN 301745Z 32005KT 10SM CLR 32/17 A2984 940 38 3200 320/05 RMK AO2
14837KMSN MSN20120630115012806/30/12 11:50:31  5-MIN KMSN 301750Z 33009KT 10SM CLR 32/17 A2984 940 38 3200 340/09 RMK AO2 SLP098 T03220167 10322 20211 53004
14837KMSN MSN20120630115509306/30/12 11:55:31  5-MIN KMSN 301755Z 35008KT 10SM CLR 32/16 A2984 940 37 3200 350/08 RMK AO2
14837KMSN MSN20120630120009306/30/12 12:00:31  5-MIN KMSN 301800Z 29006KT 10SM CLR 32/17 A2983 940 38 3200 300/06 RMK AO2
14837KMSN MSN20120630120509306/30/12 12:05:31  5-MIN KMSN 301805Z 30006KT 10SM CLR 32/16 A2983 950 37 3200 300/06 RMK AO2
14837KMSN MSN20120630121009306/30/12 12:10:31  5-MIN KMSN 301810Z 29005KT 10SM CLR 32/16 A2983 950 37 3200 290/05 RMK AO2
14837KMSN MSN20120630121509306/30/12 12:15:31  5-MIN KMSN 301815Z 36006KT 10SM CLR 32/17 A2983 950 38 3200 360/06 RMK AO2
14837KMSN MSN20120630122009306/30/12 12:20:31  5-MIN KMSN 301820Z VRB04KT 10SM CLR 33/17 A2983 950 37 3200 VRB/04 RMK AO2
14837KMSN MSN20120630122509306/30/12 12:25:31  5-MIN KMSN 301825Z 34006KT 10SM CLR 33/17 A2983 950 39 3200 340/06 RMK AO2
14837KMSN MSN20120630123009306/30/12 12:30:31  5-MIN KMSN 301830Z 30004KT 10SM CLR 33/17 A2983 950 39 3200 300/04 RMK AO2
14837KMSN MSN20120630123509606/30/12 12:35:31  5-MIN KMSN 301835Z 31006KT 10SM FEW060 33/17 A2983 950 39 3200 320/06 RMK AO2
14837KMSN MSN20120630124009606/30/12 12:40:31  5-MIN KMSN 301840Z 30005KT 10SM FEW055 33/17 A2983 950 37 3200 310/05 RMK AO2
14837KMSN MSN20120630124509606/30/12 12:45:31  5-MIN KMSN 301845Z VRB06KT 10SM FEW055 33/17 A2983 950 36 3300 VRB/06 RMK AO2
14837KMSN MSN20120630125011306/30/12 12:50:31  5-MIN KMSN 301850Z 35004KT 10SM FEW055 33/17 A2982 950 37 3300 350/04 RMK AO2 SLP092 T03330172
14837KMSN MSN20120630125509606/30/12 12:55:31  5-MIN KMSN 301855Z VRB04KT 10SM FEW055 33/17 A2982 960 37 3300 VRB/04 RMK AO2
14837KMSN MSN20120630130009606/30/12 13:00:31  5-MIN KMSN 301900Z VRB05KT 10SM FEW055 33/17 A2982 960 37 3200 VRB/05 RMK AO2
14837KMSN MSN20120630130509306/30/12 13:05:31  5-MIN KMSN 301905Z VRB06KT 10SM CLR 33/17 A2982 960 36 3300 VRB/06 RMK AO2
14837KMSN MSN20120630131009306/30/12 13:10:31  5-MIN KMSN 301910Z VRB04KT 10SM CLR 33/17 A2982 960 37 3300 VRB/04 RMK AO2
14837KMSN MSN20120630131509306/30/12 13:15:31  5-MIN KMSN 301915Z VRB05KT 10SM CLR 33/17 A2982 960 37 3300 VRB/05 RMK AO2
14837KMSN MSN20120630132009306/30/12 13:20:31  5-MIN KMSN 301920Z VRB03KT 10SM CLR 33/17 A2982 960 36 3300 VRB/03 RMK AO2
14837KMSN MSN20120630132509306/30/12 13:25:31  5-MIN KMSN 301925Z VRB03KT 10SM CLR 33/17 A2982 960 36 3300 VRB/03 RMK AO2
14837KMSN MSN20120630133009306/30/12 13:30:31  5-MIN KMSN 301930Z 31004KT 10SM CLR 33/17 A2982 960 37 3300 310/04 RMK AO2
14837KMSN MSN20120630133509306/30/12 13:35:31  5-MIN KMSN 301935Z VRB04KT 10SM CLR 33/17 A2982 960 36 3300 VRB/04 RMK AO2
14837KMSN MSN20120630134009606/30/12 13:40:31  5-MIN KMSN 301940Z VRB03KT 10SM FEW060 33/17 A2982 960 37 3200 VRB/03 RMK AO2
14837KMSN MSN20120630134509606/30/12 13:45:31  5-MIN KMSN 301945Z VRB03KT 10SM FEW060 33/17 A2982 960 36 3300 VRB/03 RMK AO2
14837KMSN MSN20120630135011306/30/12 13:50:31  5-MIN KMSN 301950Z 34007KT 10SM FEW060 33/16 A2982 950 33 3300 340/07 RMK AO2 SLP092 T03330156
14837KMSN MSN20120630135509606/30/12 13:55:31  5-MIN KMSN 301955Z 31004KT 10SM FEW065 32/16 A2982 960 36 3200 310/04 RMK AO2
14837KMSN MSN20120630140009606/30/12 14:00:31  5-MIN KMSN 302000Z 33005KT 10SM SCT065 33/16 A2982 960 35 3300 340/05 RMK AO2
14837KMSN MSN20120630140509606/30/12 14:05:31  5-MIN KMSN 302005Z 35006KT 10SM BKN070 33/16 A2982 950 35 3300 350/06 RMK AO2
14837KMSN MSN20120630141009606/30/12 14:10:31  5-MIN KMSN 302010Z 04007KT 10SM SCT065 33/16 A2982 960 36 3200 040/07 RMK AO2
14837KMSN MSN20120630141509606/30/12 14:15:31  5-MIN KMSN 302015Z VRB05KT 10SM SCT065 33/16 A2982 960 35 3300 VRB/05 RMK AO2
14837KMSN MSN20120630142009606/30/12 14:20:31  5-MIN KMSN 302020Z VRB05KT 10SM SCT065 33/16 A2982 960 36 3200 VRB/05 RMK AO2
14837KMSN MSN20120630142509606/30/12 14:25:31  5-MIN KMSN 302025Z 32006KT 10SM FEW070 33/16 A2982 960 35 3200 320/06 RMK AO2
14837KMSN MSN20120630143009606/30/12 14:30:31  5-MIN KMSN 302030Z 00000KT 10SM FEW065 34/16 A2982 960 32 3400 000/00 RMK AO2
14837KMSN MSN20120630143509606/30/12 14:35:31  5-MIN KMSN 302035Z 01004KT 10SM FEW070 34/16 A2982 960 32 3400 020/04 RMK AO2
14837KMSN MSN20120630144009606/30/12 14:40:31  5-MIN KMSN 302040Z 31006KT 10SM FEW070 34/16 A2982 960 32 3400 310/06 RMK AO2
14837KMSN MSN20120630144509606/30/12 14:45:31  5-MIN KMSN 302045Z 32005KT 10SM FEW070 34/16 A2982 960 32 3400 320/05 RMK AO2
14837KMSN MSN20120630145011906/30/12 14:50:31  5-MIN KMSN 302050Z VRB05KT 10SM FEW070 34/16 A2982 960 32 3400 VRB/05 RMK AO2 SLP091 T03390156 58001
14837KMSN MSN20120630145509606/30/12 14:55:31  5-MIN KMSN 302055Z 33005KT 10SM FEW070 34/16 A2982 960 34 3400 330/05 RMK AO2
14837KMSN MSN20120630150011206/30/12 15:00:31  5-MIN KMSN 302100Z 33007KT 280V020 10SM FEW070 34/16 A2982 960 33 3400 340/07 280V020 RMK AO2
14837KMSN MSN20120630150509606/30/12 15:05:31  5-MIN KMSN 302105Z 32006KT 10SM SCT070 33/16 A2982 960 35 3300 320/06 RMK AO2
14837KMSN MSN20120630151009606/30/12 15:10:31  5-MIN KMSN 302110Z 32006KT 10SM FEW070 33/16 A2982 960 36 3200 330/06 RMK AO2
14837KMSN MSN20120630151509606/30/12 15:15:31  5-MIN KMSN 302115Z VRB03KT 10SM FEW070 33/16 A2982 960 33 3300 VRB/03 RMK AO2
14837KMSN MSN20120630152009606/30/12 15:20:31  5-MIN KMSN 302120Z 32006KT 10SM FEW070 34/16 A2982 960 34 3400 320/06 RMK AO2
14837KMSN MSN20120630152509606/30/12 15:25:31  5-MIN KMSN 302125Z 31005KT 10SM FEW070 34/16 A2982 960 34 3400 320/05 RMK AO2
14837KMSN MSN20120630153009606/30/12 15:30:31  5-MIN KMSN 302130Z 34009KT 10SM FEW070 34/16 A2982 960 32 3400 340/09 RMK AO2
14837KMSN MSN20120630153509606/30/12 15:35:31  5-MIN KMSN 302135Z 35004KT 10SM FEW070 34/15 A2982 960 30 3400 350/04 RMK AO2
14837KMSN MSN20120630154009606/30/12 15:40:31  5-MIN KMSN 302140Z VRB06KT 10SM FEW070 34/15 A2982 960 30 3400 VRB/06 RMK AO2
14837KMSN MSN20120630154509606/30/12 15:45:31  5-MIN KMSN 302145Z VRB05KT 10SM FEW070 34/16 A2982 960 32 3400 VRB/05 RMK AO2
14837KMSN MSN20120630155011306/30/12 15:50:31  5-MIN KMSN 302150Z VRB05KT 10SM FEW070 34/16 A2981 960 31 3400 VRB/05 RMK AO2 SLP089 T03440156
14837KMSN MSN20120630155509606/30/12 15:55:31  5-MIN KMSN 302155Z 34007KT 10SM FEW070 34/16 A2982 960 32 3400 340/07 RMK AO2
14837KMSN MSN20120630160009606/30/12 16:00:31  5-MIN KMSN 302200Z 30007KT 10SM FEW070 34/14 A2982 960 30 3400 300/07 RMK AO2
14837KMSN MSN20120630160509606/30/12 16:05:31  5-MIN KMSN 302205Z VRB04KT 10SM FEW070 33/14 A2982 960 30 3300 VRB/04 RMK AO2
14837KMSN MSN20120630161009606/30/12 16:10:31  5-MIN KMSN 302210Z 32009KT 10SM FEW070 34/14 A2982 960 28 3400 320/09 RMK AO2
14837KMSN MSN20120630161509606/30/12 16:15:31  5-MIN KMSN 302215Z 33007KT 10SM FEW070 34/14 A2982 960 30 3400 330/07 RMK AO2
14837KMSN MSN20120630162009606/30/12 16:20:31  5-MIN KMSN 302220Z 33007KT 10SM FEW070 34/14 A2982 960 29 3400 340/07 RMK AO2
14837KMSN MSN20120630162509606/30/12 16:25:31  5-MIN KMSN 302225Z VRB06KT 10SM FEW070 34/14 A2982 960 29 3400 VRB/06 RMK AO2
14837KMSN MSN20120630163009606/30/12 16:30:31  5-MIN KMSN 302230Z 33005KT 10SM FEW070 34/15 A2982 960 31 3400 330/05 RMK AO2
14837KMSN MSN20120630163509606/30/12 16:35:31  5-MIN KMSN 302235Z 28006KT 10SM FEW070 34/14 A2982 960 30 3400 280/06 RMK AO2
14837KMSN MSN20120630164009606/30/12 16:40:31  5-MIN KMSN 302240Z 34007KT 10SM FEW070 34/14 A2982 960 30 3400 340/07 RMK AO2
14837KMSN MSN20120630164509606/30/12 16:45:31  5-MIN KMSN 302245Z 33005KT 10SM FEW070 34/14 A2982 960 30 3400 330/05 RMK AO2
14837KMSN MSN20120630165011306/30/12 16:50:31  5-MIN KMSN 302250Z 33006KT 10SM FEW080 34/15 A2982 960 31 3400 330/06 RMK AO2 SLP090 T03390150
14837KMSN MSN20120630165509606/30/12 16:55:31  5-MIN KMSN 302255Z 33007KT 10SM FEW080 33/15 A2982 960 32 3300 340/07 RMK AO2
14837KMSN MSN20120630170009606/30/12 17:00:31  5-MIN KMSN 302300Z 32005KT 10SM FEW080 34/15 A2982 960 31 3400 330/05 RMK AO2
14837KMSN MSN20120630170509606/30/12 17:05:31  5-MIN KMSN 302305Z 33005KT 10SM FEW080 33/15 A2982 960 32 3300 330/05 RMK AO2
14837KMSN MSN20120630171009606/30/12 17:10:31  5-MIN KMSN 302310Z 33005KT 10SM FEW080 33/16 A2982 960 33 3300 330/05 RMK AO2
14837KMSN MSN20120630171509606/30/12 17:15:31  5-MIN KMSN 302315Z 33006KT 10SM FEW080 33/15 A2982 960 32 3300 330/06 RMK AO2
14837KMSN MSN20120630172009606/30/12 17:20:31  5-MIN KMSN 302320Z 34004KT 10SM FEW080 33/15 A2982 960 32 3300 340/04 RMK AO2
14837KMSN MSN20120630172509606/30/12 17:25:31  5-MIN KMSN 302325Z 01004KT 10SM FEW080 34/16 A2981 960 32 3400 010/04 RMK AO2
14837KMSN MSN20120630173009606/30/12 17:30:31  5-MIN KMSN 302330Z 36004KT 10SM FEW080 34/15 A2981 960 31 3400 010/04 RMK AO2
14837KMSN MSN20120630173509606/30/12 17:35:31  5-MIN KMSN 302335Z 36004KT 10SM FEW080 34/16 A2981 960 32 3400 360/04 RMK AO2
14837KMSN MSN20120630174009606/30/12 17:40:31  5-MIN KMSN 302340Z 32003KT 10SM FEW080 33/16 A2982 960 36 3200 330/03 RMK AO2
14837KMSN MSN20120630174509606/30/12 17:45:31  5-MIN KMSN 302345Z 34003KT 10SM FEW080 33/16 A2982 960 36 3200 340/03 RMK AO2
14837KMSN MSN20120630175012806/30/12 17:50:31  5-MIN KMSN 302350Z 35005KT 10SM CLR 33/16 A2982 960 35 3300 350/05 RMK AO2 SLP091 T03330161 10350 20322 56006
14837KMSN MSN20120630175509306/30/12 17:55:31  5-MIN KMSN 302355Z 33003KT 10SM CLR 33/16 A2982 960 35 3200 330/03 RMK AO2
14837KMSN MSN20120630180009306/30/12 18:00:31  5-MIN KMSN 010000Z 00000KT 10SM CLR 33/16 A2982 960 36 3200 000/00 RMK AO2
14837KMSN MSN20120630180509306/30/12 18:05:31  5-MIN KMSN 010005Z 00000KT 10SM CLR 33/16 A2982 960 33 3300 000/00 RMK AO2
14837KMSN MSN20120630181009306/30/12 18:10:31  5-MIN KMSN 010010Z 36003KT 10SM CLR 33/15 A2982 960 33 3200 010/03 RMK AO2
14837KMSN MSN20120630181509306/30/12 18:15:31  5-MIN KMSN 010015Z 36004KT 10SM CLR 33/16 A2982 960 35 3200 360/04 RMK AO2
14837KMSN MSN20120630182009306/30/12 18:20:31  5-MIN KMSN 010020Z 36003KT 10SM CLR 32/16 A2982 960 37 3200 360/03 RMK AO2
14837KMSN MSN20120630182509306/30/12 18:25:31  5-MIN KMSN 010025Z 36003KT 10SM CLR 31/18 A2982 960 44 3100 360/03 RMK AO2
14837KMSN MSN20120630183009306/30/12 18:30:31  5-MIN KMSN 010030Z 00000KT 10SM CLR 31/18 A2982 960 44 3100 000/00 RMK AO2
14837KMSN MSN20120630183509306/30/12 18:35:31  5-MIN KMSN 010035Z 00000KT 10SM CLR 31/17 A2982 960 42 3000 000/00 RMK AO2
14837KMSN MSN20120630184009306/30/12 18:40:31  5-MIN KMSN 010040Z 00000KT 10SM CLR 30/17 A2982 950 45 2900 000/00 RMK AO2
14837KMSN MSN20120630184509306/30/12 18:45:31  5-MIN KMSN 010045Z 00000KT 10SM CLR 29/18 A2983 950 49 2900 000/00 RMK AO2
14837KMSN MSN20120630185011006/30/12 18:50:31  5-MIN KMSN 010050Z 00000KT 10SM CLR 29/18 A2983 940 50 2800 000/00 RMK AO2 SLP096 T02890178
14837KMSN MSN20120630185509306/30/12 18:55:31  5-MIN KMSN 010055Z 00000KT 10SM CLR 28/18 A2983 940 54 2700 000/00 RMK AO2
14837KMSN MSN20120630190009306/30/12 19:00:31  5-MIN KMSN 010100Z 00000KT 10SM CLR 29/18 A2984 940 50 2800 000/00 RMK AO2
14837KMSN MSN20120630190509306/30/12 19:05:31  5-MIN KMSN 010105Z 30003KT 10SM CLR 28/18 A2984 940 52 2700 300/03 RMK AO2
14837KMSN MSN20120630191009306/30/12 19:10:31  5-MIN KMSN 010110Z 31003KT 10SM CLR 28/17 A2984 940 52 2700 310/03 RMK AO2
14837KMSN MSN20120630191509306/30/12 19:15:31  5-MIN KMSN 010115Z 30003KT 10SM CLR 28/17 A2984 930 52 2700 300/03 RMK AO2
14837KMSN MSN20120630192009306/30/12 19:20:31  5-MIN KMSN 010120Z 00000KT 10SM CLR 27/18 A2985 930 56 2600 000/00 RMK AO2
14837KMSN MSN20120630192509306/30/12 19:25:31  5-MIN KMSN 010125Z 00000KT 10SM CLR 27/17 A2984 930 54 2600 000/00 RMK AO2
14837KMSN MSN20120630193009306/30/12 19:30:31  5-MIN KMSN 010130Z 00000KT 10SM CLR 27/17 A2984 940 55 2500 000/00 RMK AO2
14837KMSN MSN20120630193509306/30/12 19:35:31  5-MIN KMSN 010135Z 00000KT 10SM CLR 27/17 A2984 940 53 2500 000/00 RMK AO2
14837KMSN MSN20120630194009306/30/12 19:40:31  5-MIN KMSN 010140Z 00000KT 10SM CLR 27/17 A2984 940 53 2500 000/00 RMK AO2
14837KMSN MSN20120630194509306/30/12 19:45:31  5-MIN KMSN 010145Z 00000KT 10SM CLR 26/17 A2984 940 55 2500 000/00 RMK AO2
14837KMSN MSN20120630195011006/30/12 19:50:31  5-MIN KMSN 010150Z 00000KT 10SM CLR 26/17 A2984 940 59 2400 000/00 RMK AO2 SLP098 T02560172
14837KMSN MSN20120630195509306/30/12 19:55:31  5-MIN KMSN 010155Z 00000KT 10SM CLR 26/17 A2984 940 59 2400 000/00 RMK AO2
14837KMSN MSN20120630200009306/30/12 20:00:31  5-MIN KMSN 010200Z 00000KT 10SM CLR 25/17 A2984 940 61 2300 000/00 RMK AO2
14837KMSN MSN20120630200509306/30/12 20:05:31  5-MIN KMSN 010205Z 00000KT 10SM CLR 25/17 A2984 940 59 2300 000/00 RMK AO2
14837KMSN MSN20120630201009306/30/12 20:10:31  5-MIN KMSN 010210Z 00000KT 10SM CLR 24/17 A2984 940 63 2300 000/00 RMK AO2
14837KMSN MSN20120630201509306/30/12 20:15:31  5-MIN KMSN 010215Z 00000KT 10SM CLR 24/17 A2984 940 63 2300 000/00 RMK AO2
14837KMSN MSN20120630202009306/30/12 20:20:31  5-MIN KMSN 010220Z 00000KT 10SM CLR 24/17 A2984 940 66 2200 000/00 RMK AO2
14837KMSN MSN20120630202509306/30/12 20:25:31  5-MIN KMSN 010225Z 00000KT 10SM CLR 24/17 A2984 940 66 2200 000/00 RMK AO2
14837KMSN MSN20120630203009306/30/12 20:30:31  5-MIN KMSN 010230Z 00000KT 10SM CLR 24/17 A2984 940 66 2200 000/00 RMK AO2
14837KMSN MSN20120630203509306/30/12 20:35:31  5-MIN KMSN 010235Z 00000KT 10SM CLR 24/17 A2984 930 66 2200 000/00 RMK AO2
14837KMSN MSN20120630204009306/30/12 20:40:31  5-MIN KMSN 010240Z 36003KT 10SM CLR 24/17 A2985 930 66 2200 360/03 RMK AO2
14837KMSN MSN20120630204509306/30/12 20:45:31  5-MIN KMSN 010245Z 34003KT 10SM CLR 23/17 A2985 930 68 2100 340/03 RMK AO2
14837KMSN MSN20120630205011606/30/12 20:50:31  5-MIN KMSN 010250Z 34003KT 10SM CLR 23/17 A2985 930 68 2100 340/03 RMK AO2 SLP102 T02280167 53001
14837KMSN MSN20120630205509306/30/12 20:55:31  5-MIN KMSN 010255Z 33003KT 10SM CLR 23/17 A2985 930 66 2100 340/03 RMK AO2
14837KMSN MSN20120630210009306/30/12 21:00:31  5-MIN KMSN 010300Z 34004KT 10SM CLR 23/17 A2985 930 66 2100 340/04 RMK AO2
14837KMSN MSN20120630210509306/30/12 21:05:31  5-MIN KMSN 010305Z 33003KT 10SM CLR 23/17 A2985 930 68 2100 340/03 RMK AO2
14837KMSN MSN20120630211009306/30/12 21:10:31  5-MIN KMSN 010310Z 33004KT 10SM CLR 23/17 A2986 920 68 2100 330/04 RMK AO2
14837KMSN MSN20120630211509306/30/12 21:15:31  5-MIN KMSN 010315Z 33003KT 10SM CLR 23/17 A2986 920 66 2100 340/03 RMK AO2
14837KMSN MSN20120630212009306/30/12 21:20:31  5-MIN KMSN 010320Z 33003KT 10SM CLR 23/17 A2986 920 66 2100 330/03 RMK AO2
14837KMSN MSN20120630212509306/30/12 21:25:31  5-MIN KMSN 010325Z 32003KT 10SM CLR 23/16 A2986 920 65 2100 320/03 RMK AO2
14837KMSN MSN20120630213009306/30/12 21:30:31  5-MIN KMSN 010330Z 32003KT 10SM CLR 23/16 A2986 920 65 2100 320/03 RMK AO2
14837KMSN MSN20120630213509306/30/12 21:35:31  5-MIN KMSN 010335Z 31003KT 10SM CLR 23/16 A2987 910 63 2100 310/03 RMK AO2
14837KMSN MSN20120630214009306/30/12 21:40:31  5-MIN KMSN 010340Z 00000KT 10SM CLR 23/16 A2987 910 65 2100 000/00 RMK AO2
14837KMSN MSN20120630214509306/30/12 21:45:31  5-MIN KMSN 010345Z 00000KT 10SM CLR 23/16 A2987 910 65 2100 000/00 RMK AO2
14837KMSN MSN20120630215011006/30/12 21:50:31  5-MIN KMSN 010350Z 00000KT 10SM CLR 24/16 A2987 910 59 2200 000/00 RMK AO2 SLP109 T02390156
14837KMSN MSN20120630215509306/30/12 21:55:31  5-MIN KMSN 010355Z 00000KT 10SM CLR 24/16 A2987 910 61 2200 000/00 RMK AO2
14837KMSN MSN20120630220009306/30/12 22:00:31  5-MIN KMSN 010400Z 00000KT 10SM CLR 23/16 A2988 910 61 2100 000/00 RMK AO2
14837KMSN MSN20120630220509306/30/12 22:05:31  5-MIN KMSN 010405Z 00000KT 10SM CLR 22/16 A2988 900 68 2000 000/00 RMK AO2
14837KMSN MSN20120630221009306/30/12 22:10:31  5-MIN KMSN 010410Z 00000KT 10SM CLR 22/16 A2988 900 68 1900 000/00 RMK AO2
14837KMSN MSN20120630221509306/30/12 22:15:31  5-MIN KMSN 010415Z 00000KT 10SM CLR 22/16 A2988 900 68 1900 000/00 RMK AO2
14837KMSN MSN20120630222009306/30/12 22:20:31  5-MIN KMSN 010420Z 00000KT 10SM CLR 22/16 A2988 900 68 1900 000/00 RMK AO2
14837KMSN MSN20120630222509306/30/12 22:25:31  5-MIN KMSN 010425Z 00000KT 10SM CLR 22/15 A2987 910 65 1900 000/00 RMK AO2
14837KMSN MSN20120630223009306/30/12 22:30:31  5-MIN KMSN 010430Z 00000KT 10SM CLR 21/15 A2987 910 68 1900 000/00 RMK AO2
14837KMSN MSN20120630223509306/30/12 22:35:31  5-MIN KMSN 010435Z 00000KT 10SM CLR 22/15 A2987 910 65 1900 000/00 RMK AO2
14837KMSN MSN20120630224009306/30/12 22:40:31  5-MIN KMSN 010440Z 00000KT 10SM CLR 22/15 A2987 910 65 1900 000/00 RMK AO2
14837KMSN MSN20120630224509306/30/12 22:45:31  5-MIN KMSN 010445Z 00000KT 10SM CLR 21/15 A2987 910 70 1800 000/00 RMK AO2
14837KMSN MSN20120630225011006/30/12 22:50:31  5-MIN KMSN 010450Z 00000KT 10SM CLR 21/15 A2987 910 70 1800 000/00 RMK AO2 SLP109 T02060150
14837KMSN MSN20120630225509306/30/12 22:55:31  5-MIN KMSN 010455Z 00000KT 10SM CLR 21/15 A2987 910 70 1800 000/00 RMK AO2
14837KMSN MSN20120630230009306/30/12 23:00:31  5-MIN KMSN 010500Z 00000KT 10SM CLR 21/15 A2987 910 70 1800 000/00 RMK AO2
14837KMSN MSN20120630230509306/30/12 23:05:31  5-MIN KMSN 010505Z 00000KT 10SM CLR 21/15 A2988 900 70 1800 000/00 RMK AO2
14837KMSN MSN20120630231009306/30/12 23:10:31  5-MIN KMSN 010510Z 00000KT 10SM CLR 21/15 A2988 900 70 1800 000/00 RMK AO2
14837KMSN MSN20120630231509306/30/12 23:15:31  5-MIN KMSN 010515Z 00000KT 10SM CLR 21/15 A2988 900 68 1900 000/00 RMK AO2
14837KMSN MSN20120630232009306/30/12 23:20:31  5-MIN KMSN 010520Z 00000KT 10SM CLR 21/15 A2988 900 68 1900 000/00 RMK AO2
14837KMSN MSN20120630232509306/30/12 23:25:31  5-MIN KMSN 010525Z 00000KT 10SM CLR 21/15 A2988 900 70 1800 000/00 RMK AO2
14837KMSN MSN20120630233009306/30/12 23:30:31  5-MIN KMSN 010530Z 00000KT 10SM CLR 21/15 A2988 900 70 1800 000/00 RMK AO2
14837KMSN MSN20120630233509306/30/12 23:35:31  5-MIN KMSN 010535Z 00000KT 10SM CLR 20/15 A2988 900 72 1700 000/00 RMK AO2
14837KMSN MSN20120630234009306/30/12 23:40:31  5-MIN KMSN 010540Z 00000KT 10SM CLR 20/16 A2988 900 75 1700 000/00 RMK AO2
14837KMSN MSN20120630234509306/30/12 23:45:31  5-MIN KMSN 010545Z 00000KT 10SM CLR 19/15 A2988 900 75 1700 000/00 RMK AO2
14837KMSN MSN20120630235013806/30/12 23:50:31  5-MIN KMSN 010550Z 00000KT 10SM CLR 19/15 A2989 900 75 1700 000/00 RMK AO2 SLP114 T01940150 10333 20194 403500183 51009
14837KMSN MSN20120630235509306/30/12 23:55:31  5-MIN KMSN 010555Z 00000KT 10SM CLR 20/15 A2989 900 72 1700 000/00 RMK AO2
