14837KMSN MSN20031103020511111/03/03 02:05:31  5-MIN KMSN 030805Z 03008KT 2SM BR OVC005 06/06 A3018 630 100 -300 030/08 RMK AO2 CIG 003V009
14837KMSN MSN20031103021011111/03/03 02:10:31  5-MIN KMSN 030810Z 04010KT 2SM BR OVC005 06/06 A3018 630 100 -300 040/10 RMK AO2 CIG 003V007
14837KMSN MSN20031103021511111/03/03 02:15:31  5-MIN KMSN 030815Z 03009KT 2SM BR OVC005 06/06 A3018 630 100 -300 030/09 RMK AO2 CIG 003V007
14837KMSN MSN20031103022011111/03/03 02:20:31  5-MIN KMSN 030820Z 03008KT 3SM BR OVC005 06/06 A3018 620 100 -300 030/08 RMK AO2 CIG 003V007
14837KMSN MSN20031103022511111/03/03 02:25:31  5-MIN KMSN 030825Z 03008KT 3SM BR OVC005 06/06 A3018 620 100 -300 030/08 RMK AO2 CIG 003V008
14837KMSN MSN20031103023011111/03/03 02:30:31  5-MIN KMSN 030830Z 04009KT 3SM BR OVC005 06/06 A3017 630 100 -300 040/09 RMK AO2 CIG 003V008
14837KMSN MSN20031103023511011/03/03 02:35:31  5-MIN KMSN 030835Z 04009KT 5SM BR OVC005 06/05 A3017 630 96 -300 040/09 RMK AO2 CIG 003V008
14837KMSN MSN20031103024011011/03/03 02:40:31  5-MIN KMSN 030840Z 04013KT 6SM BR OVC005 06/05 A3017 630 96 -300 040/13 RMK AO2 CIG 004V008
14837KMSN MSN20031103024511011/03/03 02:45:31  5-MIN KMSN 030845Z 02010KT 6SM BR OVC005 06/05 A3017 630 96 -300 020/10 RMK AO2 CIG 004V008
14837KMSN MSN20031103025013311/03/03 02:50:31  5-MIN KMSN 030850Z 02012KT 2SM BR OVC005 06/05 A3018 630 96 -300 020/12 RMK AO2 CIG 004V008 SLP225 T00560050 51006
14837KMSN MSN20031103025511011/03/03 02:55:31  5-MIN KMSN 030855Z 03011KT 2SM BR OVC005 06/05 A3018 620 96 -300 030/11 RMK AO2 CIG 003V008
14837KMSN MSN20031103030010511/03/03 03:00:31  5-MIN KMSN 030900Z 02009KT 2SM BR BKN005 OVC008 06/05 A3019 620 96 -300 020/09 RMK AO2
14837KMSN MSN20031103030511211/03/03 03:05:31  5-MIN KMSN 030905Z 03009KT 2SM BR BKN005 BKN009 OVC016 06/05 A3018 620 96 -300 030/09 RMK AO2
14837KMSN MSN20031103031011211/03/03 03:10:31  5-MIN KMSN 030910Z 03009KT 2SM BR BKN005 BKN009 OVC016 06/05 A3018 630 96 -300 030/09 RMK AO2
14837KMSN MSN20031103031511711/03/03 03:15:31  5-MIN KMSN 030915Z 03009KT 2SM BR BKN005 OVC016 06/05 A3017 630 96 -300 030/09 RMK AO2 CIG 003V010
14837KMSN MSN20031103032011711/03/03 03:20:31  5-MIN KMSN 030920Z 04010KT 2SM BR BKN007 OVC013 06/05 A3018 630 96 -300 030/10 RMK AO2 CIG 003V010
14837KMSN MSN20031103032512411/03/03 03:25:31  5-MIN KMSN 030925Z 03008KT 3SM BR FEW003 BKN007 OVC018 06/05 A3018 620 96 -300 030/08 RMK AO2 CIG 006V010
14837KMSN MSN20031103033011211/03/03 03:30:31  5-MIN KMSN 030930Z 03008KT 3SM BR SCT007 BKN016 OVC022 06/05 A3018 620 96 -300 030/08 RMK AO2
14837KMSN MSN20031103033510511/03/03 03:35:31  5-MIN KMSN 030935Z 03007KT 3SM BR SCT007 OVC020 06/05 A3018 620 96 -300 030/07 RMK AO2
14837KMSN MSN20031103034010511/03/03 03:40:31  5-MIN KMSN 030940Z 04007KT 3SM BR SCT007 OVC020 06/04 A3018 620 92 -300 040/07 RMK AO2
14837KMSN MSN20031103034510511/03/03 03:45:31  5-MIN KMSN 030945Z 03007KT 3SM BR FEW007 OVC020 06/04 A3019 620 92 -300 020/07 RMK AO2
14837KMSN MSN20031103035011511/03/03 03:50:31  5-MIN KMSN 030950Z 03008KT 4SM BR OVC020 06/04 A3018 620 92 -300 030/08 RMK AO2 SLP227 T00560044
14837KMSN MSN20031103035509511/03/03 03:55:31  5-MIN KMSN 030955Z 04008KT 7SM OVC022 06/04 A3018 630 92 -300 040/08 RMK AO2
14837KMSN MSN20031103040009811/03/03 04:00:31  5-MIN KMSN 031000Z 04007KT 6SM BR OVC022 06/04 A3018 620 92 -300 040/07 RMK AO2
14837KMSN MSN20031103040509511/03/03 04:05:31  5-MIN KMSN 031005Z 04007KT 7SM OVC022 06/04 A3018 620 92 -300 040/07 RMK AO2
14837KMSN MSN20031103041009511/03/03 04:10:31  5-MIN KMSN 031010Z 04007KT 7SM OVC022 06/04 A3019 620 92 -300 040/07 RMK AO2
14837KMSN MSN20031103041509511/03/03 04:15:31  5-MIN KMSN 031015Z 03008KT 7SM OVC022 06/04 A3019 620 92 -300 030/08 RMK AO2
14837KMSN MSN20031103042009511/03/03 04:20:31  5-MIN KMSN 031020Z 02008KT 7SM OVC022 06/04 A3019 620 92 -300 020/08 RMK AO2
14837KMSN MSN20031103042509511/03/03 04:25:31  5-MIN KMSN 031025Z 03007KT 7SM OVC024 06/04 A3018 620 92 -300 030/07 RMK AO2
14837KMSN MSN20031103043009511/03/03 04:30:31  5-MIN KMSN 031030Z 04008KT 7SM OVC024 06/04 A3017 630 92 -300 040/08 RMK AO2
14837KMSN MSN20031103043510211/03/03 04:35:31  5-MIN KMSN 031035Z 04010KT 7SM FEW013 OVC026 06/04 A3017 640 92 -300 040/10 RMK AO2
14837KMSN MSN20031103044010211/03/03 04:40:31  5-MIN KMSN 031040Z 02008KT 7SM SCT013 OVC026 06/04 A3018 630 92 -300 020/08 RMK AO2
14837KMSN MSN20031103044510211/03/03 04:45:31  5-MIN KMSN 031045Z 02008KT 7SM SCT013 OVC026 06/04 A3018 630 92 -300 020/08 RMK AO2
14837KMSN MSN20031103045011911/03/03 04:50:31  5-MIN KMSN 031050Z 03009KT 7SM SCT011 OVC026 06/04 A3017 630 92 -300 030/09 RMK AO2 SLP224 T00560044
14837KMSN MSN20031103045510211/03/03 04:55:31  5-MIN KMSN 031055Z 03010KT 7SM SCT011 OVC026 06/04 A3017 630 92 -300 030/10 RMK AO2
14837KMSN MSN20031103050010211/03/03 05:00:31  5-MIN KMSN 031100Z 04008KT 7SM SCT011 OVC026 06/04 A3017 640 92 -300 030/08 RMK AO2
14837KMSN MSN20031103050510211/03/03 05:05:31  5-MIN KMSN 031105Z 05007KT 7SM SCT011 OVC026 06/04 A3017 640 92 -300 050/07 RMK AO2
14837KMSN MSN20031103051010511/03/03 05:10:31  5-MIN KMSN 031110Z 05008KT 6SM BR FEW011 OVC026 06/04 A3017 630 92 -300 050/08 RMK AO2
14837KMSN MSN20031103051510511/03/03 05:15:31  5-MIN KMSN 031115Z 06009KT 6SM BR FEW011 OVC028 06/04 A3017 640 92 -300 060/09 RMK AO2
14837KMSN MSN20031103052010511/03/03 05:20:31  5-MIN KMSN 031120Z 05008KT 6SM BR FEW011 OVC028 06/04 A3018 630 92 -300 050/08 RMK AO2
14837KMSN MSN20031103052510511/03/03 05:25:31  5-MIN KMSN 031125Z 07008KT 6SM BR FEW011 OVC028 06/04 A3018 630 92 -300 060/08 RMK AO2
14837KMSN MSN20031103053012111/03/03 05:30:31  5-MIN KMSN 031130Z 06007KT 4SM -RA BR FEW011 OVC028 06/04 A3018 630 92 -300 050/07 RMK AO2 RAB28 P0000
14837KMSN MSN20031103053512111/03/03 05:35:31  5-MIN KMSN 031135Z 06008KT 4SM -RA BR SCT011 OVC028 06/04 A3017 630 92 -300 060/08 RMK AO2 RAB28 P0000
14837KMSN MSN20031103054012111/03/03 05:40:31  5-MIN KMSN 031140Z 05008KT 4SM -RA BR SCT011 OVC028 06/04 A3017 640 92 -300 050/08 RMK AO2 RAB28 P0000
14837KMSN MSN20031103054512111/03/03 05:45:31  5-MIN KMSN 031145Z 06009KT 4SM -RA BR BKN011 OVC028 06/04 A3016 640 92 -300 050/09 RMK AO2 RAB28 P0000
14837KMSN MSN20031103055016811/03/03 05:50:31  5-MIN KMSN 031150Z 06008KT 4SM -RA BR BKN011 OVC028 06/04 A3017 630 92 -300 060/08 RMK AO2 RAB28 SLP222 P0000 60000 70084 T00560044 10061 20056 55001
14837KMSN MSN20031103055511511/03/03 05:55:31  5-MIN KMSN 031155Z 05007KT 4SM -RA BR BKN011 OVC028 06/04 A3017 640 92 -300 050/07 RMK AO2 P0001
14837KMSN MSN20031103060011411/03/03 06:00:31  5-MIN KMSN 031200Z 05008KT 4SM RA BR BKN011 OVC028 05/04 A3017 630 96 -300 050/08 RMK AO2 P0002
14837KMSN MSN20031103060511411/03/03 06:05:31  5-MIN KMSN 031205Z 04007KT 2SM RA BR SCT011 OVC028 05/04 A3018 630 96 -300 040/07 RMK AO2 P0003
14837KMSN MSN20031103061012511/03/03 06:10:31  5-MIN KMSN 031210Z 04007KT 2SM +RA BR SCT011 OVC028 05/04 A3018 620 96 -300 040/07 RMK AO2 TWR VIS 3 P0006
14837KMSN MSN20031103061513111/03/03 06:15:31  5-MIN KMSN 031215Z 04009KT 2SM RA BR FEW011 SCT021 OVC026 05/04 A3018 630 96 -300 040/09 RMK AO2 TWR VIS 3 P0007
14837KMSN MSN20031103062012511/03/03 06:20:31  5-MIN KMSN 031220Z 03007KT 2SM +RA BR FEW011 OVC026 05/04 A3018 620 96 -300 030/07 RMK AO2 TWR VIS 3 P0010
14837KMSN MSN20031103062512411/03/03 06:25:31  5-MIN KMSN 031225Z 03009KT 2SM RA BR FEW011 OVC026 05/04 A3018 630 96 -300 030/09 RMK AO2 TWR VIS 3 P0011
14837KMSN MSN20031103063012411/03/03 06:30:31  5-MIN KMSN 031230Z 04010KT 2SM RA BR FEW011 OVC026 05/04 A3018 630 96 -300 040/10 RMK AO2 TWR VIS 3 P0013
14837KMSN MSN20031103063512411/03/03 06:35:31  5-MIN KMSN 031235Z 03010KT 2SM RA BR FEW011 OVC026 05/04 A3018 630 96 -300 030/10 RMK AO2 TWR VIS 3 P0014
14837KMSN MSN20031103064013111/03/03 06:40:31  5-MIN KMSN 031240Z 02010KT 2SM RA BR FEW009 BKN024 OVC029 05/04 A3018 620 96 -300 020/10 RMK AO2 TWR VIS 3 P0016
14837KMSN MSN20031103064513111/03/03 06:45:31  5-MIN KMSN 031245Z 02011KT 2SM RA BR FEW009 SCT013 OVC024 05/04 A3019 620 96 -300 020/11 RMK AO2 TWR VIS 3 P0017
14837KMSN MSN20031103065014811/03/03 06:50:31  5-MIN KMSN 031250Z 02012KT 2SM RA BR FEW009 SCT013 OVC024 05/04 A3019 620 96 -300 020/12 RMK AO2 TWR VIS 3 SLP228 P0019 T00500044
14837KMSN MSN20031103065512111/03/03 06:55:31  5-MIN KMSN 031255Z 03010KT 2SM RA BR SCT011 BKN024 OVC028 05/04 A3018 620 96 -300 030/10 RMK AO2 P0001
14837KMSN MSN20031103070011411/03/03 07:00:31  5-MIN KMSN 031300Z 03011KT 2SM RA BR SCT011 OVC024 05/04 A3018 620 96 -300 030/11 RMK AO2 P0003
14837KMSN MSN20031103070511411/03/03 07:05:31  5-MIN KMSN 031305Z 03010KT 2SM RA BR FEW011 OVC024 05/04 A3018 630 96 -300 030/10 RMK AO2 P0005
14837KMSN MSN20031103071013511/03/03 07:10:31  5-MIN KMSN 031310Z 03010KT 2SM RA BR FEW008 SCT013 OVC024 05/04 A3018 630 96 -300 030/10 RMK AO2 TWR VIS 2 1/2 P0006
14837KMSN MSN20031103071513511/03/03 07:15:31  5-MIN KMSN 031315Z 02010KT 2SM RA BR SCT008 BKN024 OVC028 05/04 A3018 620 96 -300 020/10 RMK AO2 TWR VIS 2 1/2 P0007
14837KMSN MSN20031103072013511/03/03 07:20:31  5-MIN KMSN 031320Z 02011KT 2SM RA BR SCT008 BKN024 OVC028 05/04 A3019 620 96 -400 020/11 RMK AO2 TWR VIS 2 1/2 P0008
14837KMSN MSN20031103072513511/03/03 07:25:31  5-MIN KMSN 031325Z 02012KT 2SM RA BR SCT008 BKN015 OVC026 05/04 A3020 610 96 -400 020/12 RMK AO2 TWR VIS 2 1/2 P0009
14837KMSN MSN20031103073012811/03/03 07:30:31  5-MIN KMSN 031330Z 02011KT 2SM RA BR BKN008 OVC026 05/04 A3020 610 96 -400 020/11 RMK AO2 TWR VIS 2 1/2 P0009
14837KMSN MSN20031103073513111/03/03 07:35:31  5-MIN KMSN 031335Z 02010KT 2 1/2SM -RA BR BKN008 OVC026 05/04 A3019 610 96 -400 010/10 RMK AO2 CIG 007V013 P0010
14837KMSN MSN20031103074013311/03/03 07:40:31  5-MIN KMSN 031340Z 01011KT 2SM RA BR OVC008 05/04 A3020 610 96 -400 010/11 RMK AO2 TWR VIS 2 1/2 CIG 006V013 P0011
14837KMSN MSN20031103074513311/03/03 07:45:31  5-MIN KMSN 031345Z 02012KT 2SM RA BR OVC008 05/04 A3020 610 96 -400 010/12 RMK AO2 TWR VIS 2 1/2 CIG 006V011 P0011
14837KMSN MSN20031103075015711/03/03 07:50:31  5-MIN KMSN 031350Z 02012KT 2SM RA BR BKN008 OVC013 05/04 A3020 610 96 -400 010/12 RMK AO2 TWR VIS 2 1/2 CIG 006V012 SLP232 P0012 T00500044
14837KMSN MSN20031103075514211/03/03 07:55:31  5-MIN KMSN 031355Z 01009KT 2 1/2SM -RA BR BKN010 OVC013 04/04 A3020 600 100 -400 360/09 RMK AO2 TWR VIS 3 CIG 006V011 P0000
14837KMSN MSN20031103080014111/03/03 08:00:31  5-MIN KMSN 031400Z 01010KT 2 1/2SM -RA BR BKN010 OVC013 04/04 A3020 610 96 -400 010/10 RMK AO2 TWR VIS 3 CIG 006V011 P0001
14837KMSN MSN20031103080513611/03/03 08:05:31  5-MIN KMSN 031405Z 02013KT 2SM RA BR BKN008 OVC013 04/04 A3019 620 96 -400 020/13 RMK AO2 TWR VIS 3 CIG 006V011 P0002
14837KMSN MSN20031103081012411/03/03 08:10:31  5-MIN KMSN 031410Z 03012KT 2SM RA BR BKN008 OVC013 04/04 A3018 620 96 -400 030/12 RMK AO2 TWR VIS 3 P0003
14837KMSN MSN20031103081513811/03/03 08:15:31  5-MIN KMSN 031415Z 03014KT 2SM RA BR BKN008 BKN013 OVC020 04/04 A3017 630 96 -400 030/14 RMK AO2 TWR VIS 3 PRESFR P0004
14837KMSN MSN20031103082012411/03/03 08:20:31  5-MIN KMSN 031420Z 03014KT 2SM RA BR BKN008 OVC022 04/04 A3017 640 96 -400 030/14 RMK AO2 TWR VIS 3 P0005
14837KMSN MSN20031103082513111/03/03 08:25:31  5-MIN KMSN 031425Z 03015KT 2SM RA BR BKN008 BKN012 OVC055 04/04 A3016 640 96 -400 030/15 RMK AO2 TWR VIS 3 P0006
14837KMSN MSN20031103083013511/03/03 08:30:31  5-MIN KMSN 031430Z 03011KT 2 1/2SM RA BR BKN008 BKN012 OVC055 04/04 A3016 640 96 -400 030/11 RMK AO2 TWR VIS 3 P0007
14837KMSN MSN20031103083513511/03/03 08:35:31  5-MIN KMSN 031435Z 04012KT 2 1/2SM RA BR BKN008 BKN022 OVC055 04/04 A3017 640 96 -400 040/12 RMK AO2 TWR VIS 3 P0008
14837KMSN MSN20031103084012211/03/03 08:40:31  5-MIN KMSN 031440Z 04013KT 3SM -RA BR BKN008 BKN022 OVC050 04/04 A3016 640 96 -400 040/13 RMK AO2 P0008
14837KMSN MSN20031103084512211/03/03 08:45:31  5-MIN KMSN 031445Z 05014KT 3SM -RA BR BKN008 BKN024 OVC050 04/04 A3015 650 96 -400 050/14 RMK AO2 P0009
14837KMSN MSN20031103085017011/03/03 08:50:31  5-MIN KMSN 031450Z 05012G19KT 2 1/2SM RA BR BKN008 BKN031 OVC055 04/04 A3015 660 96 -400 050/12G19 RMK AO2 TWR VIS 3 SLP214 P0010 60041 T00440039 58004
14837KMSN MSN20031103085513011/03/03 08:55:31  5-MIN KMSN 031455Z 06015G19KT 2SM RA BR BKN008 OVC049 04/04 A3014 660 96 -400 060/15G19 RMK AO2 TWR VIS 3 P0000
14837KMSN MSN20031103090013811/03/03 09:00:31  5-MIN KMSN 031500Z 06016KT 2SM RA BR BKN008 BKN023 OVC049 04/04 A3013 670 96 -400 060/16 RMK AO2 TWR VIS 3 PRESFR P0001
14837KMSN MSN20031103090512811/03/03 09:05:31  5-MIN KMSN 031505Z 06017KT 2 1/2SM RA BR BKN008 OVC023 04/04 A3013 670 96 -400 060/17 RMK AO2 TWR VIS 3 P0002
14837KMSN MSN20031103091013511/03/03 09:10:31  5-MIN KMSN 031510Z 06015G20KT 2 1/2SM -RA BR BKN008 OVC025 04/04 A3012 680 96 -300 050/15G20 RMK AO2 TWR VIS 3 P0002
14837KMSN MSN20031103091513411/03/03 09:15:31  5-MIN KMSN 031515Z 06015G20KT 2 1/2SM RA BR BKN008 OVC025 04/04 A3013 670 96 -400 060/15G20 RMK AO2 TWR VIS 3 P0003
14837KMSN MSN20031103092013211/03/03 09:20:31  5-MIN KMSN 031520Z 05014KT 2SM +RA BR BKN008 BKN022 OVC044 04/04 A3012 680 96 -300 050/14 RMK AO2 TWR VIS 3 P0005
14837KMSN MSN20031103092512411/03/03 09:25:31  5-MIN KMSN 031525Z 05013KT 2SM RA BR BKN008 OVC024 04/04 A3013 680 96 -300 050/13 RMK AO2 TWR VIS 3 P0006
14837KMSN MSN20031103093012211/03/03 09:30:31  5-MIN KMSN 031530Z 05013KT 2 1/2SM -RA BR OVC008 04/04 A3013 670 96 -400 050/13 RMK AO2 TWR VIS 3 P0006
14837KMSN MSN20031103093512711/03/03 09:35:31  5-MIN KMSN 031535Z 04013G18KT 2 1/2SM RA BR OVC008 04/04 A3014 670 96 -400 040/13G18 RMK AO2 TWR VIS 3 P0007
14837KMSN MSN20031103094012811/03/03 09:40:31  5-MIN KMSN 031540Z 03011KT 2 1/2SM RA BR OVC008 04/04 A3015 650 96 -400 030/11 RMK AO2 TWR VIS 3 PRESRR P0008
14837KMSN MSN20031103094512111/03/03 09:45:31  5-MIN KMSN 031545Z 03012KT 2 1/2SM RA BR OVC008 04/04 A3015 650 96 -400 030/12 RMK AO2 TWR VIS 3 P0009
14837KMSN MSN20031103095013811/03/03 09:50:31  5-MIN KMSN 031550Z 04014KT 2SM RA BR OVC008 04/04 A3014 670 96 -400 040/14 RMK AO2 TWR VIS 2 1/2 SLP211 P0011 T00440039
14837KMSN MSN20031103095513311/03/03 09:55:31  5-MIN KMSN 031555Z 02010KT 2SM RA BR OVC008 04/04 A3016 640 96 -400 020/10 RMK AO2 TWR VIS 2 1/2 CIG 007V013 P0000
14837KMSN MSN20031103100012311/03/03 10:00:31  5-MIN KMSN 031600Z 03009KT 2 1/2SM RA BR OVC010 04/04 A3016 640 96 -400 030/09 RMK AO2 CIG 007V013 P0001
14837KMSN MSN20031103100513711/03/03 10:05:31  5-MIN KMSN 031605Z 04013KT 1 3/4SM RA BR OVC009 04/04 A3014 660 96 -400 040/13 RMK AO2 TWR VIS 2 1/2 CIG 007V013 P0003
14837KMSN MSN20031103101015011/03/03 10:10:31  5-MIN KMSN 031610Z 05014G18KT 1 3/4SM RA BR BKN009 OVC013 04/04 A3013 670 96 -400 050/14G18 RMK AO2 TWR VIS 2 1/2 CIG 007V011 P0005
14837KMSN MSN20031103101513311/03/03 10:15:31  5-MIN KMSN 031615Z 03012KT 2SM RA BR OVC009 04/04 A3015 650 96 -400 030/12 RMK AO2 TWR VIS 2 1/2 CIG 007V014 P0006
14837KMSN MSN20031103102013111/03/03 10:20:31  5-MIN KMSN 031620Z 36010KT 2 1/2SM RA BR OVC009 04/04 A3017 630 96 -400 360/10 RMK AO2 CIG 007V014 VIS 2V3 P0007
14837KMSN MSN20031103102513111/03/03 10:25:31  5-MIN KMSN 031625Z 01012KT 2 1/2SM RA BR OVC009 04/04 A3017 640 96 -400 010/12 RMK AO2 CIG 007V013 VIS 2V3 P0008
14837KMSN MSN20031103103014611/03/03 10:30:31  5-MIN KMSN 031630Z 02013KT 1 3/4SM +RA BR OVC009 04/04 A3016 650 96 -400 020/13 RMK AO2 TWR VIS 2 1/2 CIG 007V013 VIS 2V3 P0010
14837KMSN MSN20031103103512811/03/03 10:35:31  5-MIN KMSN 031635Z 02013KT 2SM +RA BR OVC009 04/04 A3015 650 96 -400 020/13 RMK AO2 CIG 007V012 VIS 2V3 P0012
14837KMSN MSN20031103104011911/03/03 10:40:31  5-MIN KMSN 031640Z 02012KT 2SM RA BR OVC009 04/04 A3015 650 96 -400 020/12 RMK AO2 CIG 007V012 P0013
14837KMSN MSN20031103104513011/03/03 10:45:31  5-MIN KMSN 031645Z 01011KT 2SM -RA BR OVC009 04/04 A3017 630 96 -400 010/11 RMK AO2 SFC VIS 3 CIG 006V014 P0013
14837KMSN MSN20031103105014711/03/03 10:50:31  5-MIN KMSN 031650Z 01010KT 2SM -RA BR OVC009 04/04 A3017 640 96 -400 010/10 RMK AO2 SFC VIS 3 CIG 006V014 SLP222 P0014 T00440039
14837KMSN MSN20031103105513311/03/03 10:55:31  5-MIN KMSN 031655Z 02013KT 1 3/4SM RA BR OVC009 04/04 A3016 640 96 -400 020/13 RMK AO2 TWR VIS 2 CIG 006V013 P0000
14837KMSN MSN20031103110013311/03/03 11:00:31  5-MIN KMSN 031700Z 02015KT 1 3/4SM RA BR OVC009 04/04 A3015 650 96 -400 020/15 RMK AO2 TWR VIS 2 CIG 006V013 P0001
14837KMSN MSN20031103110512011/03/03 11:05:31  5-MIN KMSN 031705Z 03014KT 2SM -RA BR OVC009 04/04 A3015 660 96 -400 030/14 RMK AO2 CIG 006V012 P0002
14837KMSN MSN20031103111014111/03/03 11:10:31  5-MIN KMSN 031710Z 02012KT 2 1/2SM -RA BR BKN009 OVC014 04/03 A3016 650 92 -400 020/12 RMK AO2 SFC VIS 3 CIG 006V012 P0002
14837KMSN MSN20031103111513011/03/03 11:15:31  5-MIN KMSN 031715Z 36014G18KT 2 1/2SM -RA BR OVC009 04/04 A3017 630 96 -400 360/14G18 RMK AO2 CIG 006V014 P0002
14837KMSN MSN20031103112014711/03/03 11:20:31  5-MIN KMSN 031720Z 01014G18KT 2 1/2SM -RA BR BKN009 OVC014 04/03 A3016 640 92 -400 360/14G18 RMK AO2 SFC VIS 3 CIG 006V012 P0003
14837KMSN MSN20031103112514111/03/03 11:25:31  5-MIN KMSN 031725Z 01014KT 2 1/2SM -RA BR BKN009 OVC013 04/03 A3017 640 96 -500 010/14 RMK AO2 SFC VIS 3 CIG 006V011 P0003
14837KMSN MSN20031103113013711/03/03 11:30:31  5-MIN KMSN 031730Z 01015KT 1 3/4SM RA BR OVC009 04/03 A3016 640 96 -500 010/15 RMK AO2 TWR VIS 2 1/2 CIG 006V014 P0004
14837KMSN MSN20031103113512611/03/03 11:35:31  5-MIN KMSN 031735Z 36012KT 2SM RA BR BKN009 OVC014 04/03 A3018 630 96 -500 360/12 RMK AO2 CIG 006V010 P0005
14837KMSN MSN20031103114014011/03/03 11:40:31  5-MIN KMSN 031740Z 36013KT 1 3/4SM RA BR BKN009 OVC014 04/03 A3017 630 96 -500 360/13 RMK AO2 TWR VIS 2 CIG 005V011 P0005
14837KMSN MSN20031103114514011/03/03 11:45:31  5-MIN KMSN 031745Z 36014KT 1 3/4SM RA BR BKN009 OVC014 04/03 A3017 640 96 -500 360/14 RMK AO2 TWR VIS 2 CIG 005V010 P0006
14837KMSN MSN20031103115018811/03/03 11:50:31  5-MIN KMSN 031750Z 01017G20KT 1 3/4SM -RA BR BKN009 OVC014 04/03 A3016 640 96 -500 010/17G20 RMK AO2 TWR VIS 2 CIG 005V012 SLP221 P0007 60077 T00390033 10056 20039 58008
14837KMSN MSN20031103115514111/03/03 11:55:31  5-MIN KMSN 031755Z 01015KT 1 3/4SM -RA BR BKN007 OVC014 04/03 A3017 640 96 -500 010/15 RMK AO2 TWR VIS 2 CIG 005V010 P0000
14837KMSN MSN20031103120016011/03/03 12:00:31  5-MIN KMSN 031800Z 02017G22KT 1 3/4SM RA BR BKN007 BKN012 OVC017 04/03 A3015 650 96 -400 020/17G22 RMK AO2 TWR VIS 2 CIG 005V009 PRESFR P0001
14837KMSN MSN20031103120514111/03/03 12:05:31  5-MIN KMSN 031805Z 36013G22KT 1 3/4SM RA BR SCT007 BKN012 OVC033 04/03 A3017 640 96 -500 360/13G22 RMK AO2 TWR VIS 2 P0002
14837KMSN MSN20031103121014311/03/03 12:10:31  5-MIN KMSN 031810Z 04012KT 1 3/4SM RA BR BKN007 BKN014 OVC033 03/03 A3013 670 100 -500 040/12 RMK AO2 TWR VIS 2 PRESFR P0003
14837KMSN MSN20031103121512911/03/03 12:15:31  5-MIN KMSN 031815Z 05014KT 2SM RA BR FEW005 BKN016 OVC035 03/03 A3012 680 100 -500 050/14 RMK AO2 PRESFR P0004
14837KMSN MSN20031103122012111/03/03 12:20:31  5-MIN KMSN 031820Z 05014KT 2SM RA BR BKN007 BKN025 OVC035 04/03 A3012 680 96 -400 050/14 RMK AO2 P0006
14837KMSN MSN20031103122513511/03/03 12:25:31  5-MIN KMSN 031825Z 06013KT 1 3/4SM RA BR SCT007 BKN014 OVC025 04/03 A3013 680 96 -400 060/13 RMK AO2 TWR VIS 2 P0007
14837KMSN MSN20031103123013511/03/03 12:30:31  5-MIN KMSN 031830Z 05013KT 2SM RA BR SCT007 BKN023 OVC050 03/03 A3012 680 96 -500 050/13 RMK AO2 SFC VIS 2 1/2 P0008
14837KMSN MSN20031103123514211/03/03 12:35:31  5-MIN KMSN 031835Z 07015KT 2SM RA BR FEW007 BKN025 OVC050 04/03 A3009 710 92 -400 070/15 RMK AO2 SFC VIS 2 1/2 PRESFR P0009
14837KMSN MSN20031103124013511/03/03 12:40:31  5-MIN KMSN 031840Z 07016KT 2SM RA BR FEW008 BKN027 OVC050 04/03 A3009 710 92 -400 070/16 RMK AO2 SFC VIS 2 1/2 P0010
14837KMSN MSN20031103124512111/03/03 12:45:31  5-MIN KMSN 031845Z 08014KT 2SM RA BR FEW008 BKN027 OVC050 04/03 A3008 720 92 -400 080/14 RMK AO2 P0011
14837KMSN MSN20031103125013811/03/03 12:50:31  5-MIN KMSN 031850Z 07012KT 2SM RA BR FEW007 BKN027 OVC050 04/03 A3008 720 96 -400 070/12 RMK AO2 SLP192 P0012 T00390033
14837KMSN MSN20031103125512711/03/03 12:55:31  5-MIN KMSN 031855Z 07016G21KT 2SM RA BR FEW007 BKN029 OVC050 04/03 A3007 720 96 -400 070/16G21 RMK AO2 P0000
14837KMSN MSN20031103130012711/03/03 13:00:31  5-MIN KMSN 031900Z 07016G21KT 2SM RA BR FEW007 BKN029 OVC050 04/03 A3007 730 96 -400 070/16G21 RMK AO2 P0001
14837KMSN MSN20031103130512811/03/03 13:05:31  5-MIN KMSN 031905Z 07017KT 2SM RA BR FEW007 BKN029 OVC050 04/03 A3006 740 96 -300 070/17 RMK AO2 PRESFR P0003
14837KMSN MSN20031103131012111/03/03 13:10:31  5-MIN KMSN 031910Z 07014KT 2SM RA BR FEW007 BKN027 OVC050 04/03 A3007 720 96 -400 070/14 RMK AO2 P0004
14837KMSN MSN20031103131512111/03/03 13:15:31  5-MIN KMSN 031915Z 05013KT 2SM RA BR SCT007 BKN027 OVC050 04/03 A3008 720 96 -400 050/13 RMK AO2 P0006
14837KMSN MSN20031103132012111/03/03 13:20:31  5-MIN KMSN 031920Z 05014KT 2SM RA BR BKN009 BKN027 OVC048 04/03 A3008 710 96 -400 050/14 RMK AO2 P0008
14837KMSN MSN20031103132511411/03/03 13:25:31  5-MIN KMSN 031925Z 06013KT 2SM RA BR BKN009 OVC027 04/04 A3007 720 96 -300 050/13 RMK AO2 P0009
14837KMSN MSN20031103133011411/03/03 13:30:31  5-MIN KMSN 031930Z 06012KT 2SM RA BR BKN009 OVC025 04/04 A3008 720 96 -300 050/12 RMK AO2 P0011
14837KMSN MSN20031103133511511/03/03 13:35:31  5-MIN KMSN 031935Z 06012KT 2SM +RA BR BKN009 OVC012 04/04 A3007 720 96 -300 060/12 RMK AO2 P0014
14837KMSN MSN20031103134012011/03/03 13:40:31  5-MIN KMSN 031940Z 06013KT 2SM +RA BR OVC009 04/04 A3007 730 96 -300 060/13 RMK AO2 CIG 006V014 P0016
14837KMSN MSN20031103134513311/03/03 13:45:31  5-MIN KMSN 031945Z 05012KT 2 1/2SM RA BR OVC009 04/04 A3007 720 96 -300 050/12 RMK AO2 TWR VIS 4 CIG 006V013 P0016
14837KMSN MSN20031103135014411/03/03 13:50:31  5-MIN KMSN 031950Z 05011KT 3SM -RA BR BKN009 OVC013 04/04 A3007 720 96 -300 050/11 RMK AO2 CIG 006V010 SLP189 P0017 T00440039
14837KMSN MSN20031103135512011/03/03 13:55:31  5-MIN KMSN 031955Z 05012KT 5SM -RA BR OVC009 04/04 A3007 720 96 -300 050/12 RMK AO2 CIG 006V013 P0000
14837KMSN MSN20031103140012411/03/03 14:00:31  5-MIN KMSN 032000Z 07013KT 7SM -RA BKN009 OVC013 05/04 A3007 720 92 -200 070/13 RMK AO2 CIG 006V011 P0000
14837KMSN MSN20031104000010811/04/03 00:00:31  5-MIN KMSN 040600Z 06013KT 4SM -RA BR OVC008 04/03 A2994 840 96 -200 060/13 RMK AO2 P0002
14837KMSN MSN20031104000511511/04/03 00:05:31  5-MIN KMSN 040605Z 05014KT 2SM +RA BR BKN008 OVC022 04/03 A2994 850 96 -200 050/14 RMK AO2 P0011
14837KMSN MSN20031104001010811/04/03 00:10:31  5-MIN KMSN 040610Z 04013KT 3SM +RA BR OVC008 04/03 A2995 840 96 -200 030/13 RMK AO2 P0014
14837KMSN MSN20031104001510711/04/03 00:15:31  5-MIN KMSN 040615Z 05013KT 3SM RA BR OVC008 04/03 A2994 850 96 -200 050/13 RMK AO2 P0015
14837KMSN MSN20031104002010811/04/03 00:20:31  5-MIN KMSN 040620Z 05012KT 5SM -RA BR OVC010 04/03 A2994 850 96 -200 050/12 RMK AO2 P0015
14837KMSN MSN20031104002510511/04/03 00:25:31  5-MIN KMSN 040625Z 05011KT 7SM -RA OVC010 04/03 A2993 850 96 -200 040/11 RMK AO2 P0016
14837KMSN MSN20031104003012611/04/03 00:30:31  5-MIN KMSN 040630Z 05011KT 6SM RA BR BKN010 OVC023 04/03 A2993 850 96 -200 050/11 RMK AO2 CIG 006V014 P0017
14837KMSN MSN20031104003513311/04/03 00:35:31  5-MIN KMSN 040635Z 36011KT 4SM RA BR BKN010 BKN013 OVC023 04/03 A2996 830 96 -200 360/11 RMK AO2 CIG 006V012 P0020
14837KMSN MSN20031104004012711/04/03 00:40:31  5-MIN KMSN 040640Z 03011KT 3SM +RA BR BKN010 OVC021 04/03 A2994 850 96 -200 030/11 RMK AO2 CIG 006V013 P0023
14837KMSN MSN20031104004513811/04/03 00:45:31  5-MIN KMSN 040645Z 01010KT 2 1/2SM +RA BR BKN008 BKN013 OVC023 04/03 A2996 830 96 -200 010/10 RMK AO2 CIG 006V011 P0027
14837KMSN MSN20031104005014811/04/03 00:50:31  5-MIN KMSN 040650Z 36010KT 2 1/2SM +RA BR BKN008 OVC023 04/03 A2996 820 96 -200 360/10 RMK AO2 CIG 006V011 SLP154 P0030 T00390033
14837KMSN MSN20031104005512611/04/03 00:55:31  5-MIN KMSN 040655Z 02009KT 2 1/2SM +RA BR BKN008 BKN014 OVC023 04/03 A2997 820 96 -200 020/09 RMK AO2 P0002
14837KMSN MSN20031104010012211/04/03 01:00:31  5-MIN KMSN 040700Z 10018KT 2SM +RA BR BKN010 OVC020 04/03 A2992 870 96 -200 100/18 RMK AO2 PRESFR P0008
14837KMSN MSN20031104010515711/04/03 01:05:31  5-MIN KMSN 040705Z 10021G26KT 1 1/4SM +RA BR SCT010 BKN016 OVC023 04/03 A2990 880 96 -200 100/21G26 RMK AO2 PK WND 10026/0705 PRESFR P0025
14837KMSN MSN20031104011014911/04/03 01:10:31  5-MIN KMSN 040710Z 09018G27KT 1SM +RA BR VV011 04/03 A2989 900 96 -100 090/18G27 RMK AO2 PK WND 09027/0707 WSHFT 0656 PRESFR P0036
14837KMSN MSN20031104011515511/04/03 01:15:31  5-MIN KMSN 040715Z 08017G27KT 1 1/4SM +RA BR FEW009 OVC013 04/04 A2989 890 100 -200 080/17G27 RMK AO2 PK WND 09027/0707 WSHFT 0656 P0044
14837KMSN MSN20031104012014811/04/03 01:20:31  5-MIN KMSN 040720Z 08017G24KT 1 1/2SM +RA BR OVC015 04/04 A2989 890 100 -100 080/17G24 RMK AO2 PK WND 09027/0707 WSHFT 0656 P0053
14837KMSN MSN20031104012514711/04/03 01:25:31  5-MIN KMSN 040725Z 08019G24KT 1 1/2SM +RA BR OVC015 04/04 A2988 900 96 -100 070/19G24 RMK AO2 PK WND 09027/0707 WSHFT 0656 P0063
14837KMSN MSN20031104013014711/04/03 01:30:31  5-MIN KMSN 040730Z 08016G24KT 1 1/2SM +RA BR OVC015 04/04 A2989 900 96 -100 080/16G24 RMK AO2 PK WND 09027/0707 WSHFT 0656 P0069
14837KMSN MSN20031104013514111/04/03 01:35:31  5-MIN KMSN 040735Z 07014KT 1 3/4SM +RA BR OVC017 04/04 A2989 890 96 -100 070/14 RMK AO2 PK WND 09027/0707 WSHFT 0656 P0074
14837KMSN MSN20031104014014111/04/03 01:40:31  5-MIN KMSN 040740Z 07016KT 1 3/4SM +RA BR OVC017 04/04 A2987 910 96 -100 070/16 RMK AO2 PK WND 09027/0707 WSHFT 0656 P0081
14837KMSN MSN20031104014514111/04/03 01:45:31  5-MIN KMSN 040745Z 07016KT 1 3/4SM +RA BR OVC017 04/04 A2987 910 96 -100 070/16 RMK AO2 PK WND 09027/0707 WSHFT 0656 P0088
14837KMSN MSN20031104015015511/04/03 01:50:31  5-MIN KMSN 040750Z 08014KT 2SM +RA BR OVC019 04/04 A2987 910 100 -100 080/14 RMK AO2 PK WND 09027/0707 WSHFT 0656 SLP121 P0091 T00440044
14837KMSN MSN20031104015512011/04/03 01:55:31  5-MIN KMSN 040755Z 07010KT 2 1/2SM +RA BR BKN021 OVC065 04/04 A2988 900 100 -100 070/10 RMK AO2 P0001
14837KMSN MSN20031104020011811/04/03 02:00:31  5-MIN KMSN 040800Z 08008KT 3SM RA BR FEW007 BKN021 OVC060 05/04 A2988 900 96 0 070/08 RMK AO2 P0003
14837KMSN MSN20031104020511911/04/03 02:05:31  5-MIN KMSN 040805Z 08012KT 3SM +RA BR FEW007 BKN021 OVC060 05/04 A2987 910 96 0 080/12 RMK AO2 P0006
14837KMSN MSN20031104021011911/04/03 02:10:31  5-MIN KMSN 040810Z 07010KT 3SM +RA BR FEW009 BKN023 OVC060 05/04 A2987 910 96 0 070/10 RMK AO2 P0008
14837KMSN MSN20031104021511911/04/03 02:15:31  5-MIN KMSN 040815Z 08010KT 3SM +RA BR SCT009 BKN025 OVC060 05/04 A2986 920 96 0 080/10 RMK AO2 P0011
14837KMSN MSN20031104022011911/04/03 02:20:31  5-MIN KMSN 040820Z 07008KT 4SM +RA BR BKN007 BKN027 OVC060 05/04 A2986 920 96 0 070/08 RMK AO2 P0013
14837KMSN MSN20031104022512611/04/03 02:25:31  5-MIN KMSN 040825Z 07009KT 5SM -RA BR BKN007 BKN025 OVC055 05/04 A2985 930 96 0 070/09 RMK AO2 PRESFR P0013
14837KMSN MSN20031104023012411/04/03 02:30:31  5-MIN KMSN 040830Z 08008KT 7SM -RA BKN007 BKN025 OVC055 05/05 A2984 940 100 0 080/08 RMK AO2 PRESFR P0014
14837KMSN MSN20031104023513011/04/03 02:35:31  5-MIN KMSN 040835Z 10007KT 8SM -RA BKN007 BKN043 OVC050 06/05 A2984 940 96 100 100/07 RMK AO2 CIG 005V010 P0014
14837KMSN MSN20031104024013011/04/03 02:40:31  5-MIN KMSN 040840Z 12008KT 9SM -RA BKN007 BKN041 OVC050 06/06 A2984 940 96 100 120/08 RMK AO2 CIG 005V009 P0014
14837KMSN MSN20031104024511211/04/03 02:45:31  5-MIN KMSN 040845Z 12012KT 10SM -RA SCT007 OVC041 06/06 A2984 940 96 100 120/12 RMK AO2 P0014
14837KMSN MSN20031104025015411/04/03 02:50:31  5-MIN KMSN 040850Z 12014G18KT 10SM -RA FEW007 BKN037 OVC046 06/06 A2983 950 96 100 120/14G18 RMK AO2 SLP107 P0014 60140 T00610056 58025
14837KMSN MSN20031104025511811/04/03 02:55:31  5-MIN KMSN 040855Z 12014KT 9SM -RA FEW005 BKN035 OVC046 06/06 A2983 950 96 100 120/14 RMK AO2 P0000
14837KMSN MSN20031104030013111/04/03 03:00:31  5-MIN KMSN 040900Z 11017G22KT 9SM -RA BKN031 BKN038 OVC046 06/06 A2982 960 96 200 110/17G22 RMK AO2 PRESFR P0000
14837KMSN MSN20031104030512511/04/03 03:05:31  5-MIN KMSN 040905Z 11017G22KT 10SM -RA BKN031 OVC038 06/06 A2981 970 96 200 110/17G22 RMK AO2 PRESFR P0000
14837KMSN MSN20031104031011211/04/03 03:10:31  5-MIN KMSN 040910Z 12016KT 10SM -RA BKN031 OVC038 06/05 A2981 970 96 100 110/16 RMK AO2 P0000
14837KMSN MSN20031104031511111/04/03 03:15:31  5-MIN KMSN 040915Z 12015G21KT 10SM -RA OVC029 06/05 A2982 960 96 100 120/15G21 RMK AO2 P0000
14837KMSN MSN20031104032010711/04/03 03:20:31  5-MIN KMSN 040920Z 11012KT 10SM OVC029 06/05 A2980 970 96 100 110/12 RMK AO2 RAE19 P0000
14837KMSN MSN20031104032510711/04/03 03:25:31  5-MIN KMSN 040925Z 12015KT 10SM OVC029 06/05 A2980 980 96 100 120/15 RMK AO2 RAE19 P0000
14837KMSN MSN20031104033010511/04/03 03:30:31  5-MIN KMSN 040930Z 11015KT 10SM -RA OVC029 06/05 A2980 980 96 100 110/15 RMK AO2 P0001
14837KMSN MSN20031104033510511/04/03 03:35:31  5-MIN KMSN 040935Z 12014KT 10SM -RA OVC029 06/05 A2980 980 96 100 120/14 RMK AO2 P0001
14837KMSN MSN20031104034010511/04/03 03:40:31  5-MIN KMSN 040940Z 12013KT 10SM -RA OVC029 06/05 A2980 980 96 100 120/13 RMK AO2 P0001
14837KMSN MSN20031104034511211/04/03 03:45:31  5-MIN KMSN 040945Z 12010KT 10SM -RA FEW007 OVC029 06/05 A2980 980 96 100 120/10 RMK AO2 P0001
14837KMSN MSN20031104035013611/04/03 03:50:31  5-MIN KMSN 040950Z 11011KT 10SM -RA SCT007 SCT021 OVC027 06/05 A2981 970 96 100 110/11 RMK AO2 SLP099 P0001 T00560050
14837KMSN MSN20031104035511211/04/03 03:55:31  5-MIN KMSN 040955Z 10010KT 10SM -RA BKN007 OVC027 06/05 A2981 970 96 100 100/10 RMK AO2 P0000
14837KMSN MSN20031104040011211/04/03 04:00:31  5-MIN KMSN 041000Z 12008KT 10SM -RA BKN007 OVC027 06/05 A2981 970 96 100 120/08 RMK AO2 P0000
14837KMSN MSN20031104040511411/04/03 04:05:31  5-MIN KMSN 041005Z 11007KT 10SM BKN007 OVC027 06/05 A2980 970 96 100 100/07 RMK AO2 RAE01 P0000
14837KMSN MSN20031104041010511/04/03 04:10:31  5-MIN KMSN 041010Z 09007KT 10SM -RA OVC007 06/05 A2981 970 96 100 090/07 RMK AO2 P0000
14837KMSN MSN20031104041510511/04/03 04:15:31  5-MIN KMSN 041015Z 08007KT 10SM -RA OVC007 06/05 A2980 980 96 100 080/07 RMK AO2 P0000
14837KMSN MSN20031104042010511/04/03 04:20:31  5-MIN KMSN 041020Z 10007KT 10SM -RA OVC007 06/05 A2980 970 96 100 100/07 RMK AO2 P0000
14837KMSN MSN20031104042510511/04/03 04:25:31  5-MIN KMSN 041025Z 09009KT 10SM -RA OVC007 06/05 A2980 970 96 100 090/09 RMK AO2 P0000
14837KMSN MSN20031104043010411/04/03 04:30:31  5-MIN KMSN 041030Z 08007KT 8SM -RA OVC007 06/05 A2981 970 96 100 080/07 RMK AO2 P0001
14837KMSN MSN20031104043510411/04/03 04:35:31  5-MIN KMSN 041035Z 07008KT 7SM -RA OVC007 06/05 A2981 970 96 100 070/08 RMK AO2 P0001
14837KMSN MSN20031104044010411/04/03 04:40:31  5-MIN KMSN 041040Z 07007KT 8SM -RA OVC007 06/05 A2981 970 96 100 070/07 RMK AO2 P0001
14837KMSN MSN20031104044510411/04/03 04:45:31  5-MIN KMSN 041045Z 05006KT 8SM -RA OVC007 06/05 A2981 970 96 100 050/06 RMK AO2 P0001
14837KMSN MSN20031104045012411/04/03 04:50:31  5-MIN KMSN 041050Z 05007KT 6SM -RA BR OVC007 06/05 A2980 970 96 100 050/07 RMK AO2 SLP098 P0002 T00560050
14837KMSN MSN20031104045510711/04/03 04:55:31  5-MIN KMSN 041055Z 04007KT 4SM -RA BR OVC007 06/05 A2980 970 96 100 040/07 RMK AO2 P0000
14837KMSN MSN20031104050010711/04/03 05:00:31  5-MIN KMSN 041100Z 02007KT 3SM -RA BR OVC007 06/05 A2980 980 96 100 020/07 RMK AO2 P0001
14837KMSN MSN20031104050510611/04/03 05:05:31  5-MIN KMSN 041105Z 05007KT 3SM -RA BR OVC007 05/05 A2980 980 100 0 050/07 RMK AO2 P0001
14837KMSN MSN20031104051010611/04/03 05:10:31  5-MIN KMSN 041110Z 05007KT 4SM -RA BR OVC007 05/05 A2980 980 100 0 050/07 RMK AO2 P0001
14837KMSN MSN20031104051510611/04/03 05:15:31  5-MIN KMSN 041115Z 05005KT 4SM -RA BR OVC007 05/05 A2980 980 100 0 050/05 RMK AO2 P0002
14837KMSN MSN20031104052010611/04/03 05:20:31  5-MIN KMSN 041120Z 06005KT 4SM -RA BR OVC007 05/05 A2980 980 100 0 060/05 RMK AO2 P0002
14837KMSN MSN20031104052510711/04/03 05:25:31  5-MIN KMSN 041125Z 08006KT 4SM -RA BR OVC007 06/05 A2980 970 96 100 080/06 RMK AO2 P0002
14837KMSN MSN20031104053010711/04/03 05:30:31  5-MIN KMSN 041130Z 08005KT 3SM -RA BR OVC005 06/05 A2980 980 96 100 080/05 RMK AO2 P0003
14837KMSN MSN20031104053510611/04/03 05:35:31  5-MIN KMSN 041135Z 07007KT 3SM RA BR OVC005 06/05 A2980 980 96 100 070/07 RMK AO2 P0003
14837KMSN MSN20031104054010611/04/03 05:40:31  5-MIN KMSN 041140Z 04006KT 4SM -RA BR OVC005 05/05 A2980 980 100 0 040/06 RMK AO2 P0004
14837KMSN MSN20031104054510611/04/03 05:45:31  5-MIN KMSN 041145Z VRB06KT 6SM -RA BR OVC005 05/05 A2981 970 100 0 VRB/06 RMK AO2 P0004
14837KMSN MSN20031104055015311/04/03 05:50:31  5-MIN KMSN 041150Z 33005KT 6SM -RA BR OVC005 05/05 A2982 960 100 0 330/05 RMK AO2 SLP103 P0004 60148 70343 T00500050 10061 20039 58036
14837KMSN MSN20031104055511311/04/03 05:55:31  5-MIN KMSN 041155Z 33006KT 4SM -RA BR OVC005 05/05 A2982 950 100 0 330/06 RMK AO2 PRESRR P0000
14837KMSN MSN20031104060010511/04/03 06:00:31  5-MIN KMSN 041200Z 36005KT 4SM RA BR OVC005 05/05 A2981 960 100 0 360/05 RMK AO2 P0001
14837KMSN MSN20031104060511311/04/03 06:05:31  5-MIN KMSN 041205Z 31010KT 4SM -RA BR OVC005 05/05 A2985 930 100 0 310/10 RMK AO2 PRESRR P0002
14837KMSN MSN20031104061010711/04/03 06:10:31  5-MIN KMSN 041210Z VRB06KT 3SM +RA BR OVC005 06/05 A2982 960 96 100 VRB/06 RMK AO2 P0007
14837KMSN MSN20031104061512911/04/03 06:15:31  5-MIN KMSN 041215Z 01006KT 2 1/2SM -RA BR BKN005 OVC017 05/05 A2982 960 100 0 010/06 RMK AO2 CIG 004V008 P0007
14837KMSN MSN20031104062012511/04/03 06:20:31  5-MIN KMSN 041220Z 03005KT 3SM -RA BR BKN005 OVC015 05/05 A2982 960 100 0 030/05 RMK AO2 CIG 004V008 P0008
14837KMSN MSN20031104062511311/04/03 06:25:31  5-MIN KMSN 041225Z 01006KT 3SM -RA BR SCT005 OVC015 05/05 A2982 960 100 0 010/06 RMK AO2 P0008
14837KMSN MSN20031104063011511/04/03 06:30:31  5-MIN KMSN 041230Z 02006KT 3SM BR FEW005 OVC015 05/05 A2981 960 100 0 020/06 RMK AO2 RAE27 P0008
14837KMSN MSN20031104063511311/04/03 06:35:31  5-MIN KMSN 041235Z 01006KT 10SM FEW007 OVC015 05/05 A2981 960 100 0 010/06 RMK AO2 RAE27 P0008
14837KMSN MSN20031104064010611/04/03 06:40:31  5-MIN KMSN 041240Z 03006KT 10SM OVC015 05/05 A2981 970 100 0 030/06 RMK AO2 RAE27 P0008
14837KMSN MSN20031104064510611/04/03 06:45:31  5-MIN KMSN 041245Z 03007KT 10SM OVC015 05/05 A2981 970 100 0 030/07 RMK AO2 RAE27 P0008
14837KMSN MSN20031104065012211/04/03 06:50:31  5-MIN KMSN 041250Z 02008KT 10SM OVC015 05/04 A2981 970 96 0 020/08 RMK AO2 RAE27 SLP099 P0008 T00500044
14837KMSN MSN20031104065509311/04/03 06:55:31  5-MIN KMSN 041255Z 02007KT 10SM OVC015 05/04 A2980 970 96 0 020/07 RMK AO2
14837KMSN MSN20031104070009311/04/03 07:00:31  5-MIN KMSN 041300Z 04006KT 10SM OVC015 05/04 A2981 970 96 0 040/06 RMK AO2
14837KMSN MSN20031104070509411/04/03 07:05:31  5-MIN KMSN 041305Z 02006KT 10SM OVC013 05/05 A2981 960 100 0 020/06 RMK AO2
14837KMSN MSN20031104071010111/04/03 07:10:31  5-MIN KMSN 041310Z 34005KT 10SM OVC013 05/05 A2984 940 100 0 340/05 RMK AO2 PRESRR
14837KMSN MSN20031104071510811/04/03 07:15:31  5-MIN KMSN 041315Z VRB03KT 10SM FEW005 OVC013 05/05 A2985 930 100 0 VRB/03 RMK AO2 PRESRR
14837KMSN MSN20031104072011911/04/03 07:20:31  5-MIN KMSN 041320Z 02003KT 3SM -RA BR SCT005 OVC013 05/05 A2983 950 100 0 020/03 RMK AO2 RAB18 P0001
14837KMSN MSN20031104072512811/04/03 07:25:31  5-MIN KMSN 041325Z 03006KT 2SM RA BR FEW005 OVC013 05/05 A2982 960 100 0 020/06 RMK AO2 SFC VIS 3 RAB18 P0002
14837KMSN MSN20031104073013611/04/03 07:30:31  5-MIN KMSN 041330Z 02006KT 3SM -RA BR FEW005 OVC013 05/05 A2982 960 100 0 020/06 RMK AO2 SFC VIS 4 RAB18 PRESFR P0002
14837KMSN MSN20031104073513311/04/03 07:35:31  5-MIN KMSN 041335Z 02007KT 3SM -RA FEW005 OVC013 05/05 A2981 970 100 0 020/07 RMK AO2 SFC VIS 8 RAB18 PRESFR P0002
14837KMSN MSN20031104074011711/04/03 07:40:31  5-MIN KMSN 041340Z 03006KT 10SM -RA FEW005 OVC013 05/05 A2981 970 100 0 030/06 RMK AO2 RAB18 P0002
14837KMSN MSN20031104074511711/04/03 07:45:31  5-MIN KMSN 041345Z 02008KT 10SM -RA FEW005 OVC013 05/05 A2980 970 100 0 020/08 RMK AO2 RAB18 P0002
14837KMSN MSN20031104075012611/04/03 07:50:31  5-MIN KMSN 041350Z 04006KT 10SM OVC013 05/05 A2980 980 100 0 040/06 RMK AO2 RAB18E47 SLP097 P0002 T00500050
14837KMSN MSN20031104075510311/04/03 07:55:31  5-MIN KMSN 041355Z 05005KT 9SM -RA OVC013 05/05 A2981 960 100 0 050/05 RMK AO2 P0001
14837KMSN MSN20031104080011011/04/03 08:00:31  5-MIN KMSN 041400Z 03006KT 9SM -RA FEW005 OVC013 05/05 A2982 960 100 0 030/06 RMK AO2 P0001
14837KMSN MSN20031104080511811/04/03 08:05:31  5-MIN KMSN 041405Z 03005KT 10SM -RA FEW005 OVC013 05/05 A2983 950 100 0 030/05 RMK AO2 PRESRR P0001
14837KMSN MSN20031104081011311/04/03 08:10:31  5-MIN KMSN 041410Z 04004KT 10SM FEW005 OVC013 05/05 A2983 950 100 0 040/04 RMK AO2 RAE08 P0001
14837KMSN MSN20031104081511111/04/03 08:15:31  5-MIN KMSN 041415Z 04003KT 8SM -RA SCT005 OVC013 06/05 A2983 950 96 100 040/03 RMK AO2 P0001
14837KMSN MSN20031104082011411/04/03 08:20:31  5-MIN KMSN 041420Z 03005KT 5SM -RA BR FEW005 OVC011 06/05 A2982 960 96 100 030/05 RMK AO2 P0002
14837KMSN MSN20031104082511411/04/03 08:25:31  5-MIN KMSN 041425Z 04006KT 3SM -RA BR SCT005 OVC011 06/05 A2981 960 96 100 040/06 RMK AO2 P0002
14837KMSN MSN20031104083011411/04/03 08:30:31  5-MIN KMSN 041430Z 04006KT 3SM -RA BR SCT005 OVC011 06/05 A2981 970 96 100 040/06 RMK AO2 P0002
14837KMSN MSN20031104083512111/04/03 08:35:31  5-MIN KMSN 041435Z 04009KT 3SM -RA BR SCT005 OVC011 06/05 A2978 990 96 100 040/09 RMK AO2 PRESFR P0003
14837KMSN MSN20031104084011411/04/03 08:40:31  5-MIN KMSN 041440Z 05006KT 3SM -RA BR SCT005 OVC011 06/05 A2979 980 96 100 050/06 RMK AO2 P0003
14837KMSN MSN20031104084512311/04/03 08:45:31  5-MIN KMSN 041445Z 06009KT 3SM -RA BR SCT005 OVC011 06/06 A2977 1000 100 100 060/09 RMK AO2 PRESFR P0003
14837KMSN MSN20031104085014711/04/03 08:50:31  5-MIN KMSN 041450Z 07008KT 4SM BR BKN005 OVC011 06/06 A2977 1010 100 100 070/08 RMK AO2 RAE47 SLP086 P0003 60013 T00560056 55002
14837KMSN MSN20031104085511111/04/03 08:55:31  5-MIN KMSN 041455Z 08010KT 10SM BKN005 OVC009 06/06 A2976 1020 100 200 080/10 RMK AO2 PRESFR
14837KMSN MSN20031104090010311/04/03 09:00:31  5-MIN KMSN 041500Z 09010KT 10SM BKN005 OVC009 06/06 A2975 1020 96 200 090/10 RMK AO2
14837KMSN MSN20031104090511511/04/03 09:05:31  5-MIN KMSN 041505Z 09008KT 10SM BKN005 OVC009 06/06 A2975 1020 96 200 090/08 RMK AO2 CIG 004V008
14837KMSN MSN20031104091010811/04/03 09:10:31  5-MIN KMSN 041510Z 08006KT 10SM OVC007 06/06 A2976 1020 96 200 080/06 RMK AO2 CIG 004V010
14837KMSN MSN20031104091510811/04/03 09:15:31  5-MIN KMSN 041515Z 06006KT 10SM OVC005 06/06 A2976 1010 96 200 060/06 RMK AO2 CIG 004V008
14837KMSN MSN20031104092010811/04/03 09:20:31  5-MIN KMSN 041520Z 05005KT 10SM OVC005 06/06 A2977 1010 96 200 050/05 RMK AO2 CIG 004V008
14837KMSN MSN20031104092509611/04/03 09:25:31  5-MIN KMSN 041525Z 07006KT 10SM OVC005 07/06 A2976 1010 96 300 070/06 RMK AO2
14837KMSN MSN20031104093009611/04/03 09:30:31  5-MIN KMSN 041530Z 09006KT 10SM OVC005 07/06 A2976 1020 96 300 090/06 RMK AO2
14837KMSN MSN20031104093510311/04/03 09:35:31  5-MIN KMSN 041535Z 09008KT 10SM OVC005 07/06 A2974 1030 96 300 090/08 RMK AO2 PRESFR
14837KMSN MSN20031104094009611/04/03 09:40:31  5-MIN KMSN 041540Z 11008KT 10SM OVC005 07/06 A2974 1030 96 300 110/08 RMK AO2
14837KMSN MSN20031104094509811/04/03 09:45:31  5-MIN KMSN 041545Z 13009KT 4SM BR OVC005 07/06 A2974 1030 96 300 130/09 RMK AO2
14837KMSN MSN20031104095011511/04/03 09:50:31  5-MIN KMSN 041550Z 12008KT 4SM BR OVC005 07/06 A2974 1030 96 300 120/08 RMK AO2 SLP076 T00670061
14837KMSN MSN20031104095509611/04/03 09:55:31  5-MIN KMSN 041555Z 12009KT 9SM OVC005 07/07 A2974 1030 100 300 120/09 RMK AO2
14837KMSN MSN20031104100009511/04/03 10:00:31  5-MIN KMSN 041600Z 14008KT 9SM OVC005 07/07 A2974 1030 96 400 140/08 RMK AO2
14837KMSN MSN20031104100509511/04/03 10:05:31  5-MIN KMSN 041605Z 13007KT 9SM OVC005 07/07 A2975 1030 96 400 130/07 RMK AO2
14837KMSN MSN20031104101009511/04/03 10:10:31  5-MIN KMSN 041610Z 14006KT 8SM OVC005 07/07 A2975 1020 96 400 140/06 RMK AO2
14837KMSN MSN20031104101509611/04/03 10:15:31  5-MIN KMSN 041615Z 17006KT 8SM OVC005 07/07 A2976 1020 100 400 170/06 RMK AO2
14837KMSN MSN20031104102009511/04/03 10:20:31  5-MIN KMSN 041620Z 16006KT 8SM OVC005 07/07 A2976 1010 96 400 160/06 RMK AO2
14837KMSN MSN20031104102511411/04/03 10:25:31  5-MIN KMSN 041625Z 14005KT 3SM -RA BR OVC005 07/07 A2975 1020 96 400 140/05 RMK AO2 RAB25 P0000
14837KMSN MSN20031104103011411/04/03 10:30:31  5-MIN KMSN 041630Z 16006KT 3SM -RA BR OVC005 07/07 A2976 1020 96 400 160/06 RMK AO2 RAB25 P0000
14837KMSN MSN20031104103511511/04/03 10:35:31  5-MIN KMSN 041635Z 17006KT 4SM -RA BR OVC005 07/07 A2977 1010 100 400 170/06 RMK AO2 RAB25 P0000
14837KMSN MSN20031104104011311/04/03 10:40:31  5-MIN KMSN 041640Z 16004KT 4SM BR OVC005 08/07 A2976 1010 96 400 160/04 RMK AO2 RAB25E40 P0000
14837KMSN MSN20031104104511311/04/03 10:45:31  5-MIN KMSN 041645Z 18003KT 4SM BR OVC005 08/07 A2977 1010 96 400 180/03 RMK AO2 RAB25E40 P0000
14837KMSN MSN20031104105013011/04/03 10:50:31  5-MIN KMSN 041650Z 19003KT 4SM BR OVC005 08/07 A2976 1010 96 400 190/03 RMK AO2 RAB25E40 SLP084 P0000 T00780072
14837KMSN MSN20031104105509811/04/03 10:55:31  5-MIN KMSN 041655Z VRB03KT 4SM BR OVC005 08/07 A2976 1010 96 400 VRB/03 RMK AO2
14837KMSN MSN20031104110009811/04/03 11:00:31  5-MIN KMSN 041700Z 17004KT 4SM BR OVC005 08/07 A2976 1010 96 400 160/04 RMK AO2
14837KMSN MSN20031104110509911/04/03 11:05:31  5-MIN KMSN 041705Z 16004KT 3SM BR OVC003 08/08 A2976 1020 100 400 160/04 RMK AO2
14837KMSN MSN20031104111009811/04/03 11:10:31  5-MIN KMSN 041710Z 17006KT 3SM BR OVC003 08/08 A2975 1020 96 500 160/06 RMK AO2
14837KMSN MSN20031104111509811/04/03 11:15:31  5-MIN KMSN 041715Z 17007KT 3SM BR OVC003 08/08 A2976 1010 96 500 170/07 RMK AO2
14837KMSN MSN20031104112011211/04/03 11:20:31  5-MIN KMSN 041720Z 16005KT 2SM BR OVC003 08/08 A2976 1020 96 500 150/05 RMK AO2 SFC VIS 2 1/2
14837KMSN MSN20031104112511211/04/03 11:25:31  5-MIN KMSN 041725Z 19003KT 2SM BR OVC003 08/08 A2975 1020 96 500 190/03 RMK AO2 SFC VIS 2 1/2
14837KMSN MSN20031104113011211/04/03 11:30:31  5-MIN KMSN 041730Z 00000KT 2SM BR OVC003 08/08 A2975 1020 96 500 000/00 RMK AO2 SFC VIS 2 1/2
14837KMSN MSN20031104113511211/04/03 11:35:31  5-MIN KMSN 041735Z 00000KT 2SM BR OVC003 09/08 A2975 1020 96 600 000/00 RMK AO2 SFC VIS 2 1/2
14837KMSN MSN20031104114011311/04/03 11:40:31  5-MIN KMSN 041740Z 21003KT 2SM BR OVC003 08/08 A2975 1020 100 500 210/03 RMK AO2 SFC VIS 2 1/2
14837KMSN MSN20031104114511311/04/03 11:45:31  5-MIN KMSN 041745Z 00000KT 2SM BR OVC003 08/08 A2975 1030 100 500 000/00 RMK AO2 SFC VIS 2 1/2
14837KMSN MSN20031104115015311/04/03 11:50:31  5-MIN KMSN 041750Z 15003KT 2SM BR OVC003 09/08 A2974 1040 96 600 150/03 RMK AO2 SFC VIS 2 1/2 SLP074 60013 T00890083 10089 20050 58022
14837KMSN MSN20031104115510811/04/03 11:55:31  5-MIN KMSN 041755Z 16005KT 2SM -DZ BR OVC003 09/08 A2973 1040 96 600 160/05 RMK AO2 P0000
14837KMSN MSN20031104120012311/04/03 12:00:31  5-MIN KMSN 041800Z 18003KT 1 1/2SM -DZ BR OVC003 09/09 A2973 1040 100 600 180/03 RMK AO2 SFC VIS 2 P0000
14837KMSN MSN20031104120512311/04/03 12:05:31  5-MIN KMSN 041805Z 17003KT 1 1/2SM -DZ BR OVC003 09/09 A2973 1040 100 600 170/03 RMK AO2 SFC VIS 2 P0000
14837KMSN MSN20031104121012511/04/03 12:10:31  5-MIN KMSN 041810Z 19003KT 1 1/2SM BR OVC003 09/09 A2973 1040 100 600 190/03 RMK AO2 SFC VIS 2 DZE07 P0000
14837KMSN MSN20031104121512511/04/03 12:15:31  5-MIN KMSN 041815Z 16003KT 1 1/2SM BR OVC003 09/09 A2973 1040 100 600 160/03 RMK AO2 SFC VIS 2 DZE07 P0000
14837KMSN MSN20031104122012511/04/03 12:20:31  5-MIN KMSN 041820Z 16003KT 1 1/2SM BR OVC003 09/09 A2972 1050 100 600 160/03 RMK AO2 SFC VIS 2 DZE07 P0000
14837KMSN MSN20031104122512411/04/03 12:25:31  5-MIN KMSN 041825Z 00000KT 1 1/2SM BR OVC003 09/09 A2973 1040 96 700 000/00 RMK AO2 SFC VIS 2 DZE07 P0000
14837KMSN MSN20031104123012411/04/03 12:30:31  5-MIN KMSN 041830Z 00000KT 1 1/2SM BR OVC003 09/09 A2972 1050 96 700 000/00 RMK AO2 SFC VIS 2 DZE07 P0000
14837KMSN MSN20031104123512411/04/03 12:35:31  5-MIN KMSN 041835Z 00000KT 1 1/2SM BR OVC003 09/09 A2972 1050 96 700 000/00 RMK AO2 SFC VIS 2 DZE07 P0000
14837KMSN MSN20031104124012411/04/03 12:40:31  5-MIN KMSN 041840Z 17003KT 1 1/2SM BR OVC003 09/09 A2972 1050 96 700 160/03 RMK AO2 SFC VIS 2 DZE07 P0000
14837KMSN MSN20031104124512411/04/03 12:45:31  5-MIN KMSN 041845Z 17004KT 1 1/2SM BR OVC003 09/09 A2972 1050 96 700 170/04 RMK AO2 SFC VIS 2 DZE07 P0000
14837KMSN MSN20031104125014211/04/03 12:50:31  5-MIN KMSN 041850Z 17004KT 1 1/2SM BR OVC003 09/09 A2972 1050 100 700 170/04 RMK AO2 SFC VIS 2 DZE07 SLP068 P0000 T00940094
14837KMSN MSN20031104125510311/04/03 12:55:31  5-MIN KMSN 041855Z 16003KT 1 1/2SM BR OVC003 09/09 A2971 1060 100 700 160/03 RMK AO2
14837KMSN MSN20031104130010211/04/03 13:00:31  5-MIN KMSN 041900Z 16003KT 1 1/2SM BR OVC003 10/09 A2971 1060 96 700 160/03 RMK AO2
14837KMSN MSN20031104130510211/04/03 13:05:31  5-MIN KMSN 041905Z 16003KT 1 1/2SM BR OVC003 10/09 A2971 1060 96 700 160/03 RMK AO2
14837KMSN MSN20031104131010211/04/03 13:10:31  5-MIN KMSN 041910Z 00000KT 1 1/2SM BR OVC003 10/09 A2971 1060 96 700 000/00 RMK AO2
14837KMSN MSN20031104131511611/04/03 13:15:31  5-MIN KMSN 041915Z 00000KT 1 1/2SM BR OVC003 10/09 A2971 1060 96 800 000/00 RMK AO2 SFC VIS 1 3/4
14837KMSN MSN20031104132011311/04/03 13:20:31  5-MIN KMSN 041920Z 16003KT 1 1/2SM BR OVC003 10/10 A2971 1060 100 800 160/03 RMK AO2 SFC VIS 2
14837KMSN MSN20031104132511311/04/03 13:25:31  5-MIN KMSN 041925Z 16004KT 1 1/2SM BR OVC003 10/10 A2971 1060 100 800 160/04 RMK AO2 SFC VIS 2
14837KMSN MSN20031104133011211/04/03 13:30:31  5-MIN KMSN 041930Z 18004KT 1 1/2SM BR OVC003 11/10 A2971 1060 96 800 180/04 RMK AO2 SFC VIS 2
14837KMSN MSN20031104133513211/04/03 13:35:31  5-MIN KMSN 041935Z 15004KT 1 1/2SM -DZ BR OVC003 11/10 A2970 1070 96 800 150/04 RMK AO2 SFC VIS 2 1/2 DZB33 P0000
14837KMSN MSN20031104134013211/04/03 13:40:31  5-MIN KMSN 041940Z 14003KT 1 1/2SM -DZ BR OVC003 11/10 A2970 1060 96 800 140/03 RMK AO2 SFC VIS 2 1/2 DZB33 P0000
14837KMSN MSN20031104134512811/04/03 13:45:31  5-MIN KMSN 041945Z 15003KT 2SM -DZ BR OVC005 11/10 A2970 1070 96 800 150/03 RMK AO2 SFC VIS 2 1/2 DZB33 P0000
14837KMSN MSN20031104135015211/04/03 13:50:31  5-MIN KMSN 041950Z 16003KT 2SM BR BKN005 OVC022 11/11 A2970 1060 100 800 160/03 RMK AO2 SFC VIS 2 1/2 DZB33E46 SLP063 P0000 T01060106
14837KMSN MSN20031104135512611/04/03 13:55:31  5-MIN KMSN 041955Z 18003KT 2SM BR BKN005 BKN015 OVC022 11/11 A2971 1060 96 900 180/03 RMK AO2 SFC VIS 2 1/2
14837KMSN MSN20031104140011211/04/03 14:00:31  5-MIN KMSN 042000Z 18003KT 2SM BR BKN005 BKN010 OVC022 11/11 A2971 1060 96 900 180/03 RMK AO2
14837KMSN MSN20031104140512611/04/03 14:05:31  5-MIN KMSN 042005Z 18003KT 1 1/2SM BR BKN005 BKN009 OVC020 11/11 A2971 1060 96 900 180/03 RMK AO2 TWR VIS 2
14837KMSN MSN20031104141014711/04/03 14:10:31  5-MIN KMSN 042010Z 00000KT 1 1/4SM -DZ BR BKN005 OVC017 11/11 A2971 1060 96 900 000/00 RMK AO2 TWR VIS 2 DZB09 CIG 004V010 P0000
14837KMSN MSN20031104141514411/04/03 14:15:31  5-MIN KMSN 042015Z 00000KT 1SM -DZ BR BKN007 OVC017 11/11 A2971 1060 100 900 000/00 RMK AO2 TWR VIS 2 DZB09 CIG 004V010 P0000
14837KMSN MSN20031104142013411/04/03 14:20:31  5-MIN KMSN 042020Z 00000KT 1SM -DZ BR BKN007 OVC016 11/11 A2971 1060 100 900 000/00 RMK AO2 DZB09 CIG 004V010 P0000
14837KMSN MSN20031104142513411/04/03 14:25:31  5-MIN KMSN 042025Z 00000KT 1SM -DZ BR BKN007 OVC013 11/11 A2971 1060 100 900 000/00 RMK AO2 DZB09 CIG 003V010 P0000
14837KMSN MSN20031104143012711/04/03 14:30:31  5-MIN KMSN 042030Z 29003KT 1SM -DZ BR OVC005 11/11 A2972 1050 100 900 290/03 RMK AO2 DZB09 CIG 003V010 P0000
14837KMSN MSN20031104143512611/04/03 14:35:31  5-MIN KMSN 042035Z 31004KT 1SM BR OVC005 11/11 A2972 1050 100 900 310/04 RMK AO2 DZB09E33 CIG 002V009 P0000
14837KMSN MSN20031104144012611/04/03 14:40:31  5-MIN KMSN 042040Z 32003KT 1SM -DZ BR OVC005 11/11 A2972 1050 96 900 310/03 RMK AO2 DZB09 CIG 002V008 P0000
14837KMSN MSN20031104144512711/04/03 14:45:31  5-MIN KMSN 042045Z 31003KT 1SM -DZ BR OVC005 11/11 A2971 1060 100 800 310/03 RMK AO2 DZB09 CIG 002V008 P0000
14837KMSN MSN20031104145016311/04/03 14:50:31  5-MIN KMSN 042050Z 31003KT 1SM -DZ BR BKN002 OVC005 11/11 A2971 1060 100 800 310/03 RMK AO2 DZB09 CIG 001V004 SLP066 P0000 60000 T01060106 58009
14837KMSN MSN20031104145512111/04/03 14:55:31  5-MIN KMSN 042055Z 00000KT 1SM -DZ BR OVC003 11/11 A2971 1060 100 800 000/00 RMK AO2 CIG 001V008 P0000
14837KMSN MSN20031104150012111/04/03 15:00:31  5-MIN KMSN 042100Z 00000KT 1SM -DZ BR OVC003 11/11 A2971 1060 100 800 000/00 RMK AO2 CIG 001V008 P0000
14837KMSN MSN20031104150513511/04/03 15:05:31  5-MIN KMSN 042105Z 28003KT 1SM -DZ BR OVC003 11/11 A2972 1050 100 800 270/03 RMK AO2 SFC VIS 1 1/4 CIG 001V007 P0000
14837KMSN MSN20031104151012111/04/03 15:10:31  5-MIN KMSN 042110Z 29003KT 1SM -DZ BR OVC003 11/11 A2972 1050 100 800 280/03 RMK AO2 CIG 001V008 P0000
14837KMSN MSN20031104151513511/04/03 15:15:31  5-MIN KMSN 042115Z 28004KT 1SM -DZ BR OVC005 11/11 A2972 1050 100 800 280/04 RMK AO2 SFC VIS 1 1/4 CIG 001V009 P0000
14837KMSN MSN20031104152013511/04/03 15:20:31  5-MIN KMSN 042120Z 29005KT 1SM -DZ BR OVC005 11/11 A2973 1050 100 800 290/05 RMK AO2 SFC VIS 1 1/4 CIG 004V009 P0000
14837KMSN MSN20031104152513511/04/03 15:25:31  5-MIN KMSN 042125Z 29005KT 1SM -DZ BR OVC007 11/11 A2972 1050 100 800 280/05 RMK AO2 SFC VIS 1 1/4 CIG 004V010 P0000
14837KMSN MSN20031104153013511/04/03 15:30:31  5-MIN KMSN 042130Z 28004KT 1SM -DZ BR OVC007 11/11 A2973 1040 100 800 280/04 RMK AO2 SFC VIS 1 1/4 CIG 003V010 P0000
14837KMSN MSN20031104153514211/04/03 15:35:31  5-MIN KMSN 042135Z 29004KT 1SM -DZ BR BKN007 OVC012 11/11 A2972 1050 100 800 280/04 RMK AO2 SFC VIS 1 1/2 CIG 003V010 P0000
14837KMSN MSN20031104154014911/04/03 15:40:31  5-MIN KMSN 042140Z VRB03KT 1SM -DZ BR BKN007 BKN012 OVC018 11/11 A2972 1050 100 800 VRB/03 RMK AO2 SFC VIS 1 3/4 CIG 003V010 P0000
14837KMSN MSN20031104154513711/04/03 15:45:31  5-MIN KMSN 042145Z 00000KT 2SM -DZ BR SCT007 BKN012 OVC018 11/11 A2972 1050 100 800 000/00 RMK AO2 SFC VIS 2 1/2 P0000
14837KMSN MSN20031104155015311/04/03 15:50:31  5-MIN KMSN 042150Z 00000KT 2SM -DZ BR FEW007 SCT012 OVC018 11/11 A2971 1060 96 900 000/00 RMK AO2 TWR VIS 2 1/2 SLP066 P0000 T01110106
14837KMSN MSN20031104155512611/04/03 15:55:31  5-MIN KMSN 042155Z 20003KT 2 1/2SM BR FEW005 SCT012 OVC018 11/11 A2971 1060 96 900 200/03 RMK AO2 SFC VIS 3
14837KMSN MSN20031104160011911/04/03 16:00:31  5-MIN KMSN 042200Z 22003KT 2 1/2SM BR FEW012 OVC018 11/11 A2971 1060 96 900 220/03 RMK AO2 SFC VIS 3
14837KMSN MSN20031104160511211/04/03 16:05:31  5-MIN KMSN 042205Z 00000KT 2 1/2SM BR OVC020 11/11 A2971 1060 96 900 000/00 RMK AO2 SFC VIS 3
14837KMSN MSN20031104161011911/04/03 16:10:31  5-MIN KMSN 042210Z 00000KT 2 1/2SM BR FEW010 OVC020 11/11 A2972 1050 96 900 000/00 RMK AO2 SFC VIS 3
14837KMSN MSN20031104161511911/04/03 16:15:31  5-MIN KMSN 042215Z 00000KT 2 1/2SM BR SCT010 OVC018 11/11 A2972 1050 96 900 000/00 RMK AO2 SFC VIS 3
14837KMSN MSN20031104162013111/04/03 16:20:31  5-MIN KMSN 042220Z 00000KT 2 1/2SM BR BKN010 OVC018 11/11 A2972 1050 96 900 000/00 RMK AO2 SFC VIS 3 CIG 007V011
14837KMSN MSN20031104162513811/04/03 16:25:31  5-MIN KMSN 042225Z 00000KT 2 1/2SM BR BKN010 BKN016 OVC021 11/11 A2972 1050 96 900 000/00 RMK AO2 SFC VIS 3 CIG 006V011
14837KMSN MSN20031104163013111/04/03 16:30:31  5-MIN KMSN 042230Z VRB04KT 2 1/2SM BR BKN008 OVC016 11/11 A2972 1050 96 900 VRB/04 RMK AO2 SFC VIS 4 CIG 005V011
14837KMSN MSN20031104163512411/04/03 16:35:31  5-MIN KMSN 042235Z VRB05KT 2 1/2SM BR OVC008 11/11 A2972 1050 96 900 VRB/05 RMK AO2 SFC VIS 3 CIG 005V011
14837KMSN MSN20031104164013111/04/03 16:40:31  5-MIN KMSN 042240Z 29007KT 2 1/2SM BR BKN006 OVC010 11/11 A2972 1050 96 900 290/07 RMK AO2 SFC VIS 3 CIG 004V009
14837KMSN MSN20031104164512411/04/03 16:45:31  5-MIN KMSN 042245Z 29010KT 2 1/2SM BR OVC006 11/10 A2972 1050 96 800 290/10 RMK AO2 SFC VIS 3 CIG 004V011
14837KMSN MSN20031104165014111/04/03 16:50:31  5-MIN KMSN 042250Z VRB06KT 2 1/2SM BR OVC006 10/09 A2972 1050 96 700 VRB/06 RMK AO2 SFC VIS 3 CIG 004V011 SLP068 T01000094
14837KMSN MSN20031104165512411/04/03 16:55:31  5-MIN KMSN 042255Z 29007KT 2 1/2SM BR OVC006 10/09 A2972 1050 96 700 290/07 RMK AO2 SFC VIS 3 CIG 004V010
14837KMSN MSN20031104170011211/04/03 17:00:31  5-MIN KMSN 042300Z 29007KT 2 1/2SM BR OVC006 09/09 A2972 1050 96 700 290/07 RMK AO2 SFC VIS 3
14837KMSN MSN20031104170512111/04/03 17:05:31  5-MIN KMSN 042305Z 28008KT 2 1/2SM OVC006 09/09 A2972 1050 96 700 280/08 RMK AO2 SFC VIS 4 CIG 004V008
14837KMSN MSN20031104171011011/04/03 17:10:31  5-MIN KMSN 042310Z 28009KT 6SM BR OVC006 09/08 A2973 1040 93 700 280/09 RMK AO2 CIG 004V009
14837KMSN MSN20031104171511011/04/03 17:15:31  5-MIN KMSN 042315Z 27006KT 6SM BR OVC006 09/08 A2973 1040 93 700 270/06 RMK AO2 CIG 004V009
14837KMSN MSN20031104172011011/04/03 17:20:31  5-MIN KMSN 042320Z 27008KT 6SM BR OVC006 09/08 A2973 1040 96 600 270/08 RMK AO2 CIG 004V009
14837KMSN MSN20031104172511011/04/03 17:25:31  5-MIN KMSN 042325Z 27006KT 6SM BR OVC006 09/08 A2973 1040 96 600 270/06 RMK AO2 CIG 004V010
14837KMSN MSN20031104173009611/04/03 17:30:31  5-MIN KMSN 042330Z VRB05KT 10SM OVC008 09/08 A2974 1030 93 600 VRB/05 RMK AO2
14837KMSN MSN20031104173510811/04/03 17:35:31  5-MIN KMSN 042335Z 26008KT 10SM OVC008 09/08 A2975 1030 93 600 260/08 RMK AO2 CIG 007V012
14837KMSN MSN20031104174011511/04/03 17:40:31  5-MIN KMSN 042340Z 27008KT 10SM OVC010 09/08 A2975 1020 93 600 270/08 RMK AO2 CIG 007V013 PRESRR
14837KMSN MSN20031104174509611/04/03 17:45:31  5-MIN KMSN 042345Z 27009KT 10SM OVC010 09/08 A2975 1020 93 600 270/09 RMK AO2
14837KMSN MSN20031104175013711/04/03 17:50:31  5-MIN KMSN 042350Z 27008KT 10SM OVC012 09/08 A2976 1010 93 600 260/08 RMK AO2 SLP082 60000 T00890078 10111 20089 55007
14837KMSN MSN20031104175510311/04/03 17:55:31  5-MIN KMSN 042355Z 28009KT 10SM BKN012 OVC030 08/07 A2976 1010 93 500 280/09 RMK AO2
14837KMSN MSN20031104180011011/04/03 18:00:31  5-MIN KMSN 050000Z 29006KT 10SM FEW008 BKN012 OVC030 08/07 A2976 1010 93 500 280/06 RMK AO2
14837KMSN MSN20031104180511011/04/03 18:05:31  5-MIN KMSN 050005Z 28007KT 10SM SCT008 BKN012 OVC030 08/07 A2976 1020 93 500 270/07 RMK AO2
14837KMSN MSN20031104181011011/04/03 18:10:31  5-MIN KMSN 050010Z 27008KT 10SM BKN008 BKN014 OVC030 08/07 A2976 1010 93 500 270/08 RMK AO2
14837KMSN MSN20031104181511011/04/03 18:15:31  5-MIN KMSN 050015Z 26006KT 10SM BKN006 BKN014 OVC030 08/07 A2977 1000 93 500 260/06 RMK AO2
14837KMSN MSN20031104182010311/04/03 18:20:31  5-MIN KMSN 050020Z 27008KT 10SM BKN006 OVC030 08/07 A2977 1000 93 500 270/08 RMK AO2
14837KMSN MSN20031104182509511/04/03 18:25:31  5-MIN KMSN 050025Z 27007KT 9SM OVC006 08/07 A2977 1000 93 500 270/07 RMK AO2
14837KMSN MSN20031104183011111/04/03 18:30:31  5-MIN KMSN 050030Z 27009KT 230V290 9SM OVC006 08/07 A2977 1000 96 400 270/09 230V290 RMK AO2
14837KMSN MSN20031104183509511/04/03 18:35:31  5-MIN KMSN 050035Z 26006KT 9SM OVC006 08/07 A2978 1000 96 400 260/06 RMK AO2
14837KMSN MSN20031104184010211/04/03 18:40:31  5-MIN KMSN 050040Z 26008KT 9SM BKN006 OVC010 08/07 A2978 1000 96 400 260/08 RMK AO2
14837KMSN MSN20031104184510811/04/03 18:45:31  5-MIN KMSN 050045Z 27008KT 10SM OVC008 08/07 A2978 1000 96 400 270/08 RMK AO2 CIG 005V012
14837KMSN MSN20031104185012511/04/03 18:50:31  5-MIN KMSN 050050Z VRB05KT 10SM OVC008 08/07 A2977 1000 96 400 VRB/05 RMK AO2 CIG 005V012 SLP087 T00780072
14837KMSN MSN20031104185512211/04/03 18:55:31  5-MIN KMSN 050055Z 28007KT 250V310 9SM OVC008 08/07 A2978 990 96 400 280/07 250V310 RMK AO2 CIG 005V012
14837KMSN MSN20031104190011211/04/03 19:00:31  5-MIN KMSN 050100Z 29009G14KT 8SM OVC008 08/07 A2979 990 93 400 290/09G14 RMK AO2 CIG 006V012
14837KMSN MSN20031104190510611/04/03 19:05:31  5-MIN KMSN 050105Z 30010KT 8SM OVC008 08/07 A2978 990 93 400 290/10 RMK AO2 CIG 006V012
14837KMSN MSN20031104191011311/04/03 19:10:31  5-MIN KMSN 050110Z 29009KT 7SM BKN008 OVC013 07/07 A2979 990 96 300 290/09 RMK AO2 CIG 006V010
14837KMSN MSN20031104191510611/04/03 19:15:31  5-MIN KMSN 050115Z 29007KT 8SM OVC008 07/07 A2979 990 96 300 290/07 RMK AO2 CIG 006V012
14837KMSN MSN20031104192011211/04/03 19:20:31  5-MIN KMSN 050120Z 30012G16KT 7SM OVC008 07/06 A2979 990 93 300 300/12G16 RMK AO2 CIG 006V012
14837KMSN MSN20031104192513111/04/03 19:25:31  5-MIN KMSN 050125Z 29009G16KT 4SM -DZ BR OVC008 07/06 A2979 980 93 300 290/09G16 RMK AO2 DZB24 CIG 007V012 P0000
14837KMSN MSN20031104193012511/04/03 19:30:31  5-MIN KMSN 050130Z 30009KT 4SM -DZ BR OVC008 07/06 A2980 980 96 200 300/09 RMK AO2 DZB24 CIG 007V012 P0000
14837KMSN MSN20031104193512511/04/03 19:35:31  5-MIN KMSN 050135Z 29007KT 4SM -DZ BR OVC008 07/06 A2980 970 96 200 290/07 RMK AO2 DZB24 CIG 006V010 P0000
14837KMSN MSN20031104194012511/04/03 19:40:31  5-MIN KMSN 050140Z 29010KT 4SM -DZ BR OVC008 07/06 A2981 970 96 200 290/10 RMK AO2 DZB24 CIG 006V010 P0000
14837KMSN MSN20031104194512511/04/03 19:45:31  5-MIN KMSN 050145Z 29010KT 4SM -DZ BR OVC008 07/06 A2981 970 93 200 290/10 RMK AO2 DZB24 CIG 006V012 P0000
14837KMSN MSN20031104195013011/04/03 19:50:31  5-MIN KMSN 050150Z 29008KT 4SM -DZ BR OVC008 07/06 A2981 970 93 200 290/08 RMK AO2 DZB24 SLP100 P0000 T00670056
14837KMSN MSN20031104195510711/04/03 19:55:31  5-MIN KMSN 050155Z 30009KT 4SM -DZ BR OVC008 06/06 A2981 960 96 200 290/09 RMK AO2 P0000
14837KMSN MSN20031104200013511/04/03 20:00:31  5-MIN KMSN 050200Z 28008KT 250V310 4SM -DZ BR OVC008 06/06 A2982 960 96 200 280/08 250V310 RMK AO2 CIG 006V010 P0000
14837KMSN MSN20031104200511411/04/03 20:05:31  5-MIN KMSN 050205Z 28008KT 4SM -DZ BR BKN008 OVC013 06/06 A2982 960 96 200 280/08 RMK AO2 P0000
14837KMSN MSN20031104201013211/04/03 20:10:31  5-MIN KMSN 050210Z 30010G14KT 4SM -DZ BR BKN010 OVC013 06/05 A2982 960 93 200 300/10G14 RMK AO2 CIG 007V013 P0000
14837KMSN MSN20031104201514111/04/03 20:15:31  5-MIN KMSN 050215Z 28008G14KT 4SM BR BKN010 BKN013 OVC025 06/05 A2982 960 93 200 280/08G14 RMK AO2 DZE12 CIG 007V012 P0000
14837KMSN MSN20031104202013511/04/03 20:20:31  5-MIN KMSN 050220Z 28008KT 4SM BR BKN010 BKN013 OVC020 06/05 A2982 960 93 200 280/08 RMK AO2 DZE12 CIG 007V012 P0000
14837KMSN MSN20031104202512311/04/03 20:25:31  5-MIN KMSN 050225Z 29008KT 4SM BR FEW010 BKN013 OVC020 06/04 A2982 960 89 200 290/08 RMK AO2 DZE12 P0000
14837KMSN MSN20031104203011611/04/03 20:30:31  5-MIN KMSN 050230Z 29010KT 4SM BR BKN013 OVC020 06/04 A2982 960 92 100 280/10 RMK AO2 DZE12 P0000
14837KMSN MSN20031104203511611/04/03 20:35:31  5-MIN KMSN 050235Z 28008KT 4SM BR SCT013 OVC022 06/04 A2982 950 89 100 280/08 RMK AO2 DZE12 P0000
14837KMSN MSN20031104204011611/04/03 20:40:31  5-MIN KMSN 050240Z 28009KT 4SM BR SCT013 OVC020 06/04 A2983 950 89 100 270/09 RMK AO2 DZE12 P0000
14837KMSN MSN20031104204510911/04/03 20:45:31  5-MIN KMSN 050245Z 28010KT 4SM BR OVC018 06/04 A2984 940 89 100 280/10 RMK AO2 DZE12 P0001
14837KMSN MSN20031104205013511/04/03 20:50:31  5-MIN KMSN 050250Z 29011KT 8SM OVC018 06/04 A2984 940 89 100 290/11 RMK AO2 DZE12 SLP109 P0001 60001 T00560039 53016
14837KMSN MSN20031104205509511/04/03 20:55:31  5-MIN KMSN 050255Z 28010KT 10SM OVC020 06/04 A2984 940 89 100 280/10 RMK AO2
14837KMSN MSN20031104210009511/04/03 21:00:31  5-MIN KMSN 050300Z 28009KT 10SM OVC020 06/03 A2984 930 85 100 280/09 RMK AO2
14837KMSN MSN20031104210509511/04/03 21:05:31  5-MIN KMSN 050305Z 28009KT 10SM OVC018 06/03 A2985 930 85 100 280/09 RMK AO2
14837KMSN MSN20031104211009311/04/03 21:10:31  5-MIN KMSN 050310Z 29009KT 10SM OVC018 05/03 A2985 930 89 0 280/09 RMK AO2
14837KMSN MSN20031104211509311/04/03 21:15:31  5-MIN KMSN 050315Z 29010KT 10SM OVC018 05/03 A2985 930 89 0 290/10 RMK AO2
14837KMSN MSN20031104212009311/04/03 21:20:31  5-MIN KMSN 050320Z 28009KT 10SM OVC018 05/03 A2986 920 89 0 280/09 RMK AO2
14837KMSN MSN20031104212509311/04/03 21:25:31  5-MIN KMSN 050325Z 29010KT 10SM OVC018 05/03 A2986 920 85 0 290/10 RMK AO2
14837KMSN MSN20031104213009911/04/03 21:30:31  5-MIN KMSN 050330Z 28007G17KT 10SM OVC018 05/03 A2986 920 85 0 280/07G17 RMK AO2
14837KMSN MSN20031104213510611/04/03 21:35:31  5-MIN KMSN 050335Z 29009G17KT 10SM SCT014 OVC020 05/02 A2987 910 82 0 290/09G17 RMK AO2
14837KMSN MSN20031104214010911/04/03 21:40:31  5-MIN KMSN 050340Z 27005G15KT 10SM OVC017 04/02 A2988 900 85 -100 270/05G15 RMK AO2 PRESRR
14837KMSN MSN20031104214510311/04/03 21:45:31  5-MIN KMSN 050345Z VRB06KT 10SM OVC017 04/02 A2989 900 85 -100 VRB/06 RMK AO2 PRESRR
14837KMSN MSN20031104215012011/04/03 21:50:31  5-MIN KMSN 050350Z 29008KT 10SM BKN017 OVC022 04/02 A2989 900 85 -100 290/08 RMK AO2 SLP126 T00440022
14837KMSN MSN20031104215509611/04/03 21:55:31  5-MIN KMSN 050355Z 27006KT 10SM OVC019 04/02 A2989 890 85 -100 270/06 RMK AO2
14837KMSN MSN20031104220009611/04/03 22:00:31  5-MIN KMSN 050400Z 28009KT 10SM OVC019 04/02 A2988 900 85 -100 280/09 RMK AO2
14837KMSN MSN20031104220509611/04/03 22:05:31  5-MIN KMSN 050405Z 29008KT 10SM OVC019 04/02 A2989 900 85 -100 290/08 RMK AO2
14837KMSN MSN20031104221009611/04/03 22:10:31  5-MIN KMSN 050410Z 30007KT 10SM OVC019 04/02 A2988 900 85 -100 300/07 RMK AO2
14837KMSN MSN20031104221510311/04/03 22:15:31  5-MIN KMSN 050415Z 29008KT 10SM BKN021 OVC028 04/02 A2988 900 85 -100 290/08 RMK AO2
14837KMSN MSN20031104222010311/04/03 22:20:31  5-MIN KMSN 050420Z 29007KT 10SM BKN021 OVC028 04/02 A2988 900 85 -100 290/07 RMK AO2
14837KMSN MSN20031104222510311/04/03 22:25:31  5-MIN KMSN 050425Z 28005KT 10SM SCT021 OVC026 04/02 A2989 890 85 -100 280/05 RMK AO2
14837KMSN MSN20031104223009611/04/03 22:30:31  5-MIN KMSN 050430Z 29007KT 10SM OVC024 04/02 A2989 890 85 -100 290/07 RMK AO2
14837KMSN MSN20031104223510311/04/03 22:35:31  5-MIN KMSN 050435Z VRB05KT 10SM FEW021 OVC026 04/02 A2990 890 85 -100 VRB/05 RMK AO2
14837KMSN MSN20031104224010311/04/03 22:40:31  5-MIN KMSN 050440Z 29007KT 10SM FEW018 OVC026 04/02 A2990 880 85 -100 290/07 RMK AO2
14837KMSN MSN20031104224511011/04/03 22:45:31  5-MIN KMSN 050445Z 29004KT 10SM FEW014 SCT019 OVC026 04/02 A2990 880 85 -100 290/04 RMK AO2
14837KMSN MSN20031104225012011/04/03 22:50:31  5-MIN KMSN 050450Z 29008KT 10SM BKN016 OVC026 04/02 A2991 880 85 -100 290/08 RMK AO2 SLP132 T00440022
14837KMSN MSN20031104225511011/04/03 22:55:31  5-MIN KMSN 050455Z 29009KT 10SM SCT014 SCT019 OVC026 04/02 A2991 880 85 -100 290/09 RMK AO2
14837KMSN MSN20031104230010911/04/03 23:00:31  5-MIN KMSN 050500Z 29011G14KT 10SM SCT014 OVC026 04/02 A2991 870 85 -200 290/11G14 RMK AO2
14837KMSN MSN20031104230510311/04/03 23:05:31  5-MIN KMSN 050505Z 30011KT 10SM FEW014 OVC026 04/02 A2991 870 85 -200 300/11 RMK AO2
14837KMSN MSN20031104231010311/04/03 23:10:31  5-MIN KMSN 050510Z 29011KT 10SM FEW014 OVC026 04/02 A2991 870 85 -200 290/11 RMK AO2
14837KMSN MSN20031104231510311/04/03 23:15:31  5-MIN KMSN 050515Z 30010KT 10SM FEW014 OVC026 04/02 A2992 870 85 -200 300/10 RMK AO2
14837KMSN MSN20031104232009611/04/03 23:20:31  5-MIN KMSN 050520Z 30007KT 10SM OVC024 04/02 A2992 860 85 -200 290/07 RMK AO2
14837KMSN MSN20031104232511011/04/03 23:25:31  5-MIN KMSN 050525Z 29008KT 10SM FEW014 BKN020 OVC024 04/02 A2993 860 85 -200 290/08 RMK AO2
14837KMSN MSN20031104233010911/04/03 23:30:31  5-MIN KMSN 050530Z 29009G15KT 10SM FEW014 OVC022 04/02 A2993 860 85 -200 290/09G15 RMK AO2
14837KMSN MSN20031104233510911/04/03 23:35:31  5-MIN KMSN 050535Z 30009G15KT 10SM BKN020 OVC026 04/01 A2993 850 82 -200 300/09G15 RMK AO2
14837KMSN MSN20031104234010311/04/03 23:40:31  5-MIN KMSN 050540Z 30008KT 10SM SCT015 OVC022 03/01 A2993 850 85 -300 300/08 RMK AO2
14837KMSN MSN20031104234509511/04/03 23:45:31  5-MIN KMSN 050545Z 28008KT 9SM OVC019 03/01 A2993 850 85 -300 280/08 RMK AO2
14837KMSN MSN20031104235014611/04/03 23:50:31  5-MIN KMSN 050550Z 29009KT 9SM OVC019 03/01 A2994 850 85 -300 290/09 RMK AO2 SLP143 60001 T00330011 10083 20033 401110033 53025
14837KMSN MSN20031104235510211/04/03 23:55:31  5-MIN KMSN 050555Z 29011G17KT 10SM OVC019 03/01 A2994 850 85 -300 290/11G17 RMK AO2
14837KMSN MSN20031105000010211/05/03 00:00:31  5-MIN KMSN 050600Z 30011G17KT 10SM OVC019 03/01 A2994 840 82 -300 300/11G17 RMK AO2
14837KMSN MSN20031105000510211/05/03 00:05:31  5-MIN KMSN 050605Z 30009G15KT 10SM OVC019 03/00 A2995 840 79 -300 300/09G15 RMK AO2
14837KMSN MSN20031105001010211/05/03 00:10:31  5-MIN KMSN 050610Z 29009G15KT 10SM OVC019 03/00 A2995 840 79 -300 290/09G15 RMK AO2
14837KMSN MSN20031105001509611/05/03 00:15:31  5-MIN KMSN 050615Z 30009KT 10SM OVC021 03/01 A2995 840 82 -300 300/09 RMK AO2
14837KMSN MSN20031105002010311/05/03 00:20:31  5-MIN KMSN 050620Z 30008KT 10SM BKN017 OVC021 03/01 A2995 840 82 -300 300/08 RMK AO2
14837KMSN MSN20031105002510311/05/03 00:25:31  5-MIN KMSN 050625Z VRB06KT 10SM BKN017 OVC021 03/01 A2995 840 85 -300 VRB/06 RMK AO2
14837KMSN MSN20031105003010811/05/03 00:30:31  5-MIN KMSN 050630Z 28010G15KT 9SM BKN015 OVC021 03/01 A2995 830 82 -300 280/10G15 RMK AO2
14837KMSN MSN20031105003510111/05/03 00:35:31  5-MIN KMSN 050635Z 29008G15KT 9SM OVC015 03/01 A2996 830 85 -400 290/08G15 RMK AO2
14837KMSN MSN20031105004010211/05/03 00:40:31  5-MIN KMSN 050640Z 29011G17KT 10SM OVC015 03/01 A2996 830 85 -400 290/11G17 RMK AO2
14837KMSN MSN20031105004510211/05/03 00:45:31  5-MIN KMSN 050645Z 29011G18KT 10SM OVC017 03/00 A2996 820 82 -400 290/11G18 RMK AO2
14837KMSN MSN20031105005012011/05/03 00:50:31  5-MIN KMSN 050650Z 29011G18KT 10SM OVC017 03/M01 A2996 820 79 -400 290/11G18 RMK AO2 SLP152 T00281006
14837KMSN MSN20031105005510311/05/03 00:55:31  5-MIN KMSN 050655Z 30012G17KT 10SM OVC017 03/M01 A2996 820 79 -400 300/12G17 RMK AO2
14837KMSN MSN20031105010010311/05/03 01:00:31  5-MIN KMSN 050700Z 30013G17KT 10SM OVC019 03/M01 A2996 820 79 -400 300/13G17 RMK AO2
14837KMSN MSN20031105010510311/05/03 01:05:31  5-MIN KMSN 050705Z 30012G17KT 10SM OVC019 03/M01 A2997 820 79 -400 300/12G17 RMK AO2
14837KMSN MSN20031105011010311/05/03 01:10:31  5-MIN KMSN 050710Z 30011G17KT 10SM OVC019 03/M01 A2997 820 79 -400 300/11G17 RMK AO2
14837KMSN MSN20031105011510311/05/03 01:15:31  5-MIN KMSN 050715Z 30008G16KT 10SM OVC019 03/M01 A2997 820 79 -400 290/08G16 RMK AO2
14837KMSN MSN20031105012009711/05/03 01:20:31  5-MIN KMSN 050720Z 30008KT 10SM OVC019 03/M01 A2997 820 79 -400 290/08 RMK AO2
14837KMSN MSN20031105012509611/05/03 01:25:31  5-MIN KMSN 050725Z 28008KT 10SM OVC019 03/00 A2997 820 82 -400 280/08 RMK AO2
14837KMSN MSN20031105013009611/05/03 01:30:31  5-MIN KMSN 050730Z 29010KT 10SM OVC019 03/00 A2997 820 82 -400 290/10 RMK AO2
14837KMSN MSN20031105013509611/05/03 01:35:31  5-MIN KMSN 050735Z 29009KT 10SM OVC019 03/00 A2997 820 82 -400 290/09 RMK AO2
14837KMSN MSN20031105014009611/05/03 01:40:31  5-MIN KMSN 050740Z 30009KT 10SM OVC017 03/00 A2997 820 82 -400 290/09 RMK AO2
14837KMSN MSN20031105014509611/05/03 01:45:31  5-MIN KMSN 050745Z 29009KT 10SM OVC017 02/00 A2997 820 85 -400 290/09 RMK AO2
14837KMSN MSN20031105015011311/05/03 01:50:31  5-MIN KMSN 050750Z 30009KT 10SM OVC017 02/00 A2997 810 85 -500 300/09 RMK AO2 SLP156 T00220000
14837KMSN MSN20031105015510211/05/03 01:55:31  5-MIN KMSN 050755Z 29007G15KT 10SM OVC017 02/00 A2998 810 85 -500 290/07G15 RMK AO2
14837KMSN MSN20031105020010211/05/03 02:00:31  5-MIN KMSN 050800Z 30011G15KT 10SM OVC017 02/00 A2998 810 85 -500 300/11G15 RMK AO2
14837KMSN MSN20031105020509711/05/03 02:05:31  5-MIN KMSN 050805Z 30011KT 10SM OVC019 02/M01 A2998 810 82 -500 290/11 RMK AO2
14837KMSN MSN20031105021010311/05/03 02:10:31  5-MIN KMSN 050810Z 29009G17KT 10SM OVC019 02/M01 A2998 800 78 -500 290/09G17 RMK AO2
14837KMSN MSN20031105021510311/05/03 02:15:31  5-MIN KMSN 050815Z 30009G19KT 10SM OVC019 02/M01 A2999 800 78 -500 300/09G19 RMK AO2
14837KMSN MSN20031105022010311/05/03 02:20:31  5-MIN KMSN 050820Z 31010G19KT 10SM OVC019 02/M01 A2999 800 78 -500 310/10G19 RMK AO2
14837KMSN MSN20031105022509711/05/03 02:25:31  5-MIN KMSN 050825Z 30010KT 10SM OVC019 02/M01 A2999 800 78 -500 300/10 RMK AO2
14837KMSN MSN20031105023009711/05/03 02:30:31  5-MIN KMSN 050830Z 30008KT 10SM OVC019 02/M01 A2999 800 82 -500 300/08 RMK AO2
14837KMSN MSN20031105023509711/05/03 02:35:31  5-MIN KMSN 050835Z 31008KT 10SM OVC019 02/M01 A2999 800 82 -500 300/08 RMK AO2
14837KMSN MSN20031105024009711/05/03 02:40:31  5-MIN KMSN 050840Z 30008KT 10SM OVC021 02/M01 A2999 800 82 -500 300/08 RMK AO2
14837KMSN MSN20031105024510311/05/03 02:45:31  5-MIN KMSN 050845Z 30007G15KT 10SM OVC021 02/M01 A2999 800 82 -500 300/07G15 RMK AO2
14837KMSN MSN20031105025012611/05/03 02:50:31  5-MIN KMSN 050850Z 30006G15KT 10SM OVC019 02/M01 A3000 790 82 -500 300/06G15 RMK AO2 SLP163 T00221006 51033
14837KMSN MSN20031105025509711/05/03 02:55:31  5-MIN KMSN 050855Z 30005KT 10SM OVC017 02/M01 A3000 790 82 -500 290/05 RMK AO2
14837KMSN MSN20031105030009711/05/03 03:00:31  5-MIN KMSN 050900Z 30008KT 10SM OVC017 02/M01 A3000 790 82 -500 300/08 RMK AO2
14837KMSN MSN20031105030510311/05/03 03:05:31  5-MIN KMSN 050905Z 31010G17KT 10SM OVC017 02/M01 A3000 790 82 -500 310/10G17 RMK AO2
14837KMSN MSN20031105031010311/05/03 03:10:31  5-MIN KMSN 050910Z 31007G17KT 10SM OVC017 02/M01 A3000 790 82 -500 310/07G17 RMK AO2
14837KMSN MSN20031105031509711/05/03 03:15:31  5-MIN KMSN 050915Z 31008KT 10SM OVC017 02/M01 A3000 790 82 -500 310/08 RMK AO2
14837KMSN MSN20031105032009711/05/03 03:20:31  5-MIN KMSN 050920Z 30008KT 10SM OVC017 02/M01 A3000 790 82 -500 300/08 RMK AO2
14837KMSN MSN20031105032510311/05/03 03:25:31  5-MIN KMSN 050925Z VRB06G14KT 10SM OVC017 02/M01 A3000 790 82 -500 VRB/06G14 RMK AO2
14837KMSN MSN20031105033009711/05/03 03:30:31  5-MIN KMSN 050930Z 29007KT 10SM OVC017 02/M01 A3001 790 82 -500 290/07 RMK AO2
14837KMSN MSN20031105033509711/05/03 03:35:31  5-MIN KMSN 050935Z 29010KT 10SM OVC017 02/M01 A3001 780 82 -500 290/10 RMK AO2
14837KMSN MSN20031105034009711/05/03 03:40:31  5-MIN KMSN 050940Z 30007KT 10SM OVC017 02/M01 A3001 780 78 -500 300/07 RMK AO2
14837KMSN MSN20031105034509711/05/03 03:45:31  5-MIN KMSN 050945Z 29006KT 10SM OVC017 02/M01 A3001 780 82 -500 290/06 RMK AO2
14837KMSN MSN20031105035012011/05/03 03:50:31  5-MIN KMSN 050950Z 30011G14KT 10SM OVC017 02/M01 A3001 780 82 -500 300/11G14 RMK AO2 SLP169 T00221006
14837KMSN MSN20031105035510311/05/03 03:55:31  5-MIN KMSN 050955Z 30005G14KT 10SM OVC017 02/M01 A3001 780 78 -500 300/05G14 RMK AO2
14837KMSN MSN20031105040009711/05/03 04:00:31  5-MIN KMSN 051000Z 29008KT 10SM OVC017 02/M01 A3002 770 82 -500 290/08 RMK AO2
14837KMSN MSN20031105040509711/05/03 04:05:31  5-MIN KMSN 051005Z 31006KT 10SM OVC017 02/M01 A3002 770 82 -500 310/06 RMK AO2
14837KMSN MSN20031105041011311/05/03 04:10:31  5-MIN KMSN 051010Z 29008KT 270V340 10SM OVC017 02/M01 A3002 770 82 -500 290/08 270V340 RMK AO2
14837KMSN MSN20031105041510311/05/03 04:15:31  5-MIN KMSN 051015Z 30009G14KT 10SM OVC017 02/M01 A3003 770 82 -600 290/09G14 RMK AO2
14837KMSN MSN20031105042009711/05/03 04:20:31  5-MIN KMSN 051020Z 30008KT 10SM OVC017 02/M01 A3003 760 82 -600 300/08 RMK AO2
14837KMSN MSN20031105042509711/05/03 04:25:31  5-MIN KMSN 051025Z 29008KT 10SM OVC017 02/M01 A3003 760 82 -600 290/08 RMK AO2
14837KMSN MSN20031105043009711/05/03 04:30:31  5-MIN KMSN 051030Z 29009KT 10SM OVC017 02/M01 A3003 760 82 -600 290/09 RMK AO2
14837KMSN MSN20031105043509711/05/03 04:35:31  5-MIN KMSN 051035Z 28007KT 10SM OVC017 02/M01 A3004 760 82 -600 280/07 RMK AO2
14837KMSN MSN20031105044011311/05/03 04:40:31  5-MIN KMSN 051040Z 28007KT 260V320 10SM OVC017 02/M01 A3004 750 82 -600 280/07 260V320 RMK AO2
14837KMSN MSN20031105044509711/05/03 04:45:31  5-MIN KMSN 051045Z 29008KT 10SM OVC017 02/M01 A3004 750 82 -600 290/08 RMK AO2
14837KMSN MSN20031105045011411/05/03 04:50:31  5-MIN KMSN 051050Z 30006KT 10SM OVC017 02/M01 A3005 750 82 -600 290/06 RMK AO2 SLP181 T00171011
14837KMSN MSN20031105045509711/05/03 04:55:31  5-MIN KMSN 051055Z 29006KT 10SM OVC017 02/M01 A3005 740 82 -600 290/06 RMK AO2
14837KMSN MSN20031105050009711/05/03 05:00:31  5-MIN KMSN 051100Z 29007KT 10SM OVC017 02/M01 A3006 740 82 -600 290/07 RMK AO2
14837KMSN MSN20031105050509711/05/03 05:05:31  5-MIN KMSN 051105Z 29007KT 10SM OVC017 02/M01 A3006 740 82 -600 290/07 RMK AO2
14837KMSN MSN20031105051009711/05/03 05:10:31  5-MIN KMSN 051110Z 29009KT 10SM OVC017 02/M01 A3006 730 82 -600 290/09 RMK AO2
14837KMSN MSN20031105051509711/05/03 05:15:31  5-MIN KMSN 051115Z VRB06KT 10SM OVC017 02/M01 A3007 730 82 -600 VRB/06 RMK AO2
14837KMSN MSN20031105052009711/05/03 05:20:31  5-MIN KMSN 051120Z VRB06KT 10SM OVC015 02/M01 A3007 730 82 -600 VRB/06 RMK AO2
14837KMSN MSN20031105052509711/05/03 05:25:31  5-MIN KMSN 051125Z 29006KT 10SM OVC015 02/M01 A3007 720 85 -600 290/06 RMK AO2
14837KMSN MSN20031105053009711/05/03 05:30:31  5-MIN KMSN 051130Z 30006KT 10SM OVC015 02/M01 A3007 720 85 -600 300/06 RMK AO2
14837KMSN MSN20031105053509711/05/03 05:35:31  5-MIN KMSN 051135Z VRB06KT 10SM OVC015 02/M01 A3008 720 85 -600 VRB/06 RMK AO2
14837KMSN MSN20031105054009711/05/03 05:40:31  5-MIN KMSN 051140Z 31003KT 10SM OVC015 02/M01 A3008 720 85 -600 300/03 RMK AO2
14837KMSN MSN20031105054509711/05/03 05:45:31  5-MIN KMSN 051145Z 30007KT 10SM OVC015 02/M01 A3008 710 85 -600 290/07 RMK AO2
14837KMSN MSN20031105055013811/05/03 05:50:31  5-MIN KMSN 051150Z 31007KT 10SM OVC015 02/M01 A3009 710 82 -600 310/07 RMK AO2 SLP194 70014 T00171011 10033 20017 51019
14837KMSN MSN20031105055509711/05/03 05:55:31  5-MIN KMSN 051155Z 32005KT 10SM OVC015 02/M01 A3009 710 85 -700 310/05 RMK AO2
14837KMSN MSN20031105060009711/05/03 06:00:31  5-MIN KMSN 051200Z 32006KT 10SM OVC015 02/M01 A3009 710 85 -700 320/06 RMK AO2
14837KMSN MSN20031105060509711/05/03 06:05:31  5-MIN KMSN 051205Z 32007KT 10SM OVC015 02/M01 A3010 700 82 -700 320/07 RMK AO2
14837KMSN MSN20031105061009711/05/03 06:10:31  5-MIN KMSN 051210Z 34007KT 10SM OVC015 02/M01 A3010 700 82 -700 340/07 RMK AO2
14837KMSN MSN20031105061509711/05/03 06:15:31  5-MIN KMSN 051215Z 33007KT 10SM OVC015 02/M01 A3010 700 82 -700 330/07 RMK AO2
14837KMSN MSN20031105062009711/05/03 06:20:31  5-MIN KMSN 051220Z 31007KT 10SM OVC015 01/M01 A3010 690 85 -700 310/07 RMK AO2
14837KMSN MSN20031105062509711/05/03 06:25:31  5-MIN KMSN 051225Z 33007KT 10SM OVC015 01/M01 A3011 690 85 -700 330/07 RMK AO2
14837KMSN MSN20031105063009711/05/03 06:30:31  5-MIN KMSN 051230Z 33005KT 10SM OVC015 01/M01 A3011 690 85 -700 330/05 RMK AO2
14837KMSN MSN20031105063509711/05/03 06:35:31  5-MIN KMSN 051235Z 31007KT 10SM OVC015 01/M01 A3011 690 85 -700 310/07 RMK AO2
14837KMSN MSN20031105064009711/05/03 06:40:31  5-MIN KMSN 051240Z 32008KT 10SM OVC015 01/M01 A3011 690 85 -700 320/08 RMK AO2
14837KMSN MSN20031105064509711/05/03 06:45:31  5-MIN KMSN 051245Z 32008KT 10SM OVC017 01/M01 A3011 690 85 -700 320/08 RMK AO2
14837KMSN MSN20031105065011411/05/03 06:50:31  5-MIN KMSN 051250Z 33007KT 10SM OVC017 01/M02 A3011 690 82 -700 330/07 RMK AO2 SLP204 T00111017
14837KMSN MSN20031105065509711/05/03 06:55:31  5-MIN KMSN 051255Z 31007KT 10SM OVC017 01/M02 A3011 690 82 -800 310/07 RMK AO2
14837KMSN MSN20031105070009711/05/03 07:00:31  5-MIN KMSN 051300Z 32006KT 10SM OVC017 01/M02 A3012 680 82 -800 320/06 RMK AO2
14837KMSN MSN20031105070509711/05/03 07:05:31  5-MIN KMSN 051305Z 30007KT 10SM OVC017 01/M02 A3012 680 82 -800 300/07 RMK AO2
14837KMSN MSN20031105071009711/05/03 07:10:31  5-MIN KMSN 051310Z 31005KT 10SM OVC017 01/M02 A3012 680 82 -800 310/05 RMK AO2
14837KMSN MSN20031105071509711/05/03 07:15:31  5-MIN KMSN 051315Z 31006KT 10SM OVC017 01/M02 A3013 670 82 -800 310/06 RMK AO2
14837KMSN MSN20031105072009711/05/03 07:20:31  5-MIN KMSN 051320Z 32006KT 10SM OVC017 01/M02 A3013 670 82 -800 310/06 RMK AO2
14837KMSN MSN20031105072509711/05/03 07:25:31  5-MIN KMSN 051325Z 31005KT 10SM OVC017 01/M02 A3013 670 82 -800 310/05 RMK AO2
14837KMSN MSN20031105073009711/05/03 07:30:31  5-MIN KMSN 051330Z 33006KT 10SM OVC017 01/M02 A3014 670 82 -800 330/06 RMK AO2
14837KMSN MSN20031105073509711/05/03 07:35:31  5-MIN KMSN 051335Z 33006KT 10SM OVC017 01/M02 A3014 660 82 -800 330/06 RMK AO2
14837KMSN MSN20031105074009711/05/03 07:40:31  5-MIN KMSN 051340Z VRB05KT 10SM OVC017 01/M02 A3014 660 82 -800 VRB/05 RMK AO2
14837KMSN MSN20031105074509711/05/03 07:45:31  5-MIN KMSN 051345Z 33008KT 10SM OVC017 01/M02 A3014 660 82 -800 330/08 RMK AO2
14837KMSN MSN20031105075011411/05/03 07:50:31  5-MIN KMSN 051350Z 33006KT 10SM OVC017 01/M02 A3014 660 82 -800 320/06 RMK AO2 SLP216 T00111017
14837KMSN MSN20031105075509711/05/03 07:55:31  5-MIN KMSN 051355Z VRB04KT 10SM OVC017 01/M02 A3014 660 82 -800 VRB/04 RMK AO2
14837KMSN MSN20031105080009711/05/03 08:00:31  5-MIN KMSN 051400Z 35006KT 10SM OVC017 01/M02 A3014 660 82 -800 350/06 RMK AO2
14837KMSN MSN20031105080509711/05/03 08:05:31  5-MIN KMSN 051405Z 33005KT 10SM OVC017 01/M02 A3015 660 82 -800 330/05 RMK AO2
14837KMSN MSN20031105081009711/05/03 08:10:31  5-MIN KMSN 051410Z 33005KT 10SM OVC017 02/M01 A3015 650 82 -700 330/05 RMK AO2
14837KMSN MSN20031105081509711/05/03 08:15:31  5-MIN KMSN 051415Z 31005KT 10SM OVC017 02/M01 A3015 650 82 -700 310/05 RMK AO2
14837KMSN MSN20031105082009711/05/03 08:20:31  5-MIN KMSN 051420Z 31005KT 10SM OVC017 02/M01 A3016 650 82 -700 310/05 RMK AO2
14837KMSN MSN20031105082509711/05/03 08:25:31  5-MIN KMSN 051425Z 31004KT 10SM OVC017 02/M01 A3016 640 82 -700 310/04 RMK AO2
14837KMSN MSN20031105083009711/05/03 08:30:31  5-MIN KMSN 051430Z 31007KT 10SM OVC017 02/M01 A3016 640 82 -700 310/07 RMK AO2
14837KMSN MSN20031105083509711/05/03 08:35:31  5-MIN KMSN 051435Z 31008KT 10SM OVC015 02/M02 A3016 640 78 -700 310/08 RMK AO2
14837KMSN MSN20031105084009711/05/03 08:40:31  5-MIN KMSN 051440Z 31006KT 10SM OVC015 01/M01 A3017 640 85 -800 310/06 RMK AO2
14837KMSN MSN20031105084509711/05/03 08:45:31  5-MIN KMSN 051445Z 30008KT 10SM OVC015 02/M01 A3017 630 82 -700 300/08 RMK AO2
14837KMSN MSN20031105085012011/05/03 08:50:31  5-MIN KMSN 051450Z 29006KT 10SM OVC015 02/M01 A3017 630 82 -700 290/06 RMK AO2 SLP224 T00171011 53030
14837KMSN MSN20031105085509611/05/03 08:55:31  5-MIN KMSN 051455Z 29007KT 9SM OVC015 01/M01 A3017 630 85 -800 290/07 RMK AO2
14837KMSN MSN20031105090011211/05/03 09:00:31  5-MIN KMSN 051500Z 27007KT 240V310 9SM OVC015 01/M01 A3017 640 85 -800 270/07 240V310 RMK AO2
14837KMSN MSN20031105090509611/05/03 09:05:31  5-MIN KMSN 051505Z VRB06KT 9SM OVC015 01/M01 A3017 640 85 -800 VRB/06 RMK AO2
14837KMSN MSN20031105091009611/05/03 09:10:31  5-MIN KMSN 051510Z 27007KT 9SM OVC015 01/M01 A3017 630 85 -800 270/07 RMK AO2
14837KMSN MSN20031105091509611/05/03 09:15:31  5-MIN KMSN 051515Z 27007KT 9SM OVC015 01/M01 A3018 630 85 -800 270/07 RMK AO2
14837KMSN MSN20031105092009611/05/03 09:20:31  5-MIN KMSN 051520Z 29006KT 9SM OVC015 01/M01 A3018 630 85 -800 280/06 RMK AO2
14837KMSN MSN20031105092511211/05/03 09:25:31  5-MIN KMSN 051525Z 28008KT 240V300 9SM OVC015 01/M01 A3018 630 85 -800 280/08 240V300 RMK AO2
14837KMSN MSN20031105093009611/05/03 09:30:31  5-MIN KMSN 051530Z 27010KT 9SM OVC015 01/M01 A3018 620 85 -800 270/10 RMK AO2
14837KMSN MSN20031105093509711/05/03 09:35:31  5-MIN KMSN 051535Z 28008KT 10SM OVC015 01/M02 A3019 620 82 -800 280/08 RMK AO2
14837KMSN MSN20031105094009711/05/03 09:40:31  5-MIN KMSN 051540Z 27009KT 10SM OVC015 01/M02 A3019 620 82 -800 270/09 RMK AO2
14837KMSN MSN20031105094509711/05/03 09:45:31  5-MIN KMSN 051545Z 27008KT 10SM OVC015 01/M02 A3019 620 82 -800 270/08 RMK AO2
14837KMSN MSN20031105095011411/05/03 09:50:31  5-MIN KMSN 051550Z 29008KT 10SM OVC015 01/M02 A3019 620 78 -800 290/08 RMK AO2 SLP231 T00111022
14837KMSN MSN20031105095509711/05/03 09:55:31  5-MIN KMSN 051555Z 30010KT 10SM OVC015 01/M02 A3019 620 82 -800 300/10 RMK AO2
14837KMSN MSN20031105100009711/05/03 10:00:31  5-MIN KMSN 051600Z 28006KT 10SM OVC015 01/M02 A3019 610 78 -800 280/06 RMK AO2
14837KMSN MSN20031105100509711/05/03 10:05:31  5-MIN KMSN 051605Z 28010KT 10SM OVC015 01/M02 A3020 610 78 -800 280/10 RMK AO2
14837KMSN MSN20031105101009711/05/03 10:10:31  5-MIN KMSN 051610Z 29008KT 10SM OVC015 01/M02 A3020 610 78 -800 280/08 RMK AO2
14837KMSN MSN20031105101511311/05/03 10:15:31  5-MIN KMSN 051615Z 28007KT 250V310 10SM OVC015 01/M02 A3020 610 82 -900 280/07 250V310 RMK AO2
14837KMSN MSN20031105102009711/05/03 10:20:31  5-MIN KMSN 051620Z 28008KT 10SM OVC015 01/M02 A3020 610 78 -900 280/08 RMK AO2
14837KMSN MSN20031105102509711/05/03 10:25:31  5-MIN KMSN 051625Z 28007KT 10SM OVC015 01/M02 A3020 610 78 -800 280/07 RMK AO2
14837KMSN MSN20031105103009711/05/03 10:30:31  5-MIN KMSN 051630Z 30007KT 10SM OVC015 01/M02 A3020 600 82 -900 300/07 RMK AO2
14837KMSN MSN20031105103509711/05/03 10:35:31  5-MIN KMSN 051635Z 31008KT 10SM OVC015 01/M02 A3020 610 82 -900 310/08 RMK AO2
14837KMSN MSN20031105104009711/05/03 10:40:31  5-MIN KMSN 051640Z 28007KT 10SM OVC015 01/M02 A3020 600 82 -900 280/07 RMK AO2
14837KMSN MSN20031105104509711/05/03 10:45:31  5-MIN KMSN 051645Z 28005KT 10SM OVC015 01/M02 A3020 600 82 -900 280/05 RMK AO2
14837KMSN MSN20031105105011411/05/03 10:50:31  5-MIN KMSN 051650Z 30006KT 10SM OVC015 01/M02 A3020 600 82 -900 290/06 RMK AO2 SLP236 T00111017
14837KMSN MSN20031105105509711/05/03 10:55:31  5-MIN KMSN 051655Z VRB05KT 10SM OVC015 01/M02 A3020 600 78 -900 VRB/05 RMK AO2
14837KMSN MSN20031105110009711/05/03 11:00:31  5-MIN KMSN 051700Z 26006KT 10SM OVC015 01/M02 A3020 600 82 -900 260/06 RMK AO2
14837KMSN MSN20031105110509711/05/03 11:05:31  5-MIN KMSN 051705Z 29008KT 10SM OVC015 01/M02 A3020 600 78 -900 290/08 RMK AO2
14837KMSN MSN20031105111011311/05/03 11:10:31  5-MIN KMSN 051710Z 28007KT 250V310 10SM OVC015 01/M02 A3020 600 78 -900 280/07 250V310 RMK AO2
14837KMSN MSN20031105111509711/05/03 11:15:31  5-MIN KMSN 051715Z 28007KT 10SM OVC015 01/M02 A3020 600 78 -900 280/07 RMK AO2
14837KMSN MSN20031105112009711/05/03 11:20:31  5-MIN KMSN 051720Z VRB05KT 10SM OVC015 01/M02 A3020 600 78 -900 VRB/05 RMK AO2
14837KMSN MSN20031105112511311/05/03 11:25:31  5-MIN KMSN 051725Z 27007KT 230V300 10SM OVC015 01/M02 A3020 600 82 -900 270/07 230V300 RMK AO2
14837KMSN MSN20031105113009711/05/03 11:30:31  5-MIN KMSN 051730Z 29006KT 10SM OVC015 01/M02 A3020 600 78 -900 290/06 RMK AO2
14837KMSN MSN20031105113509711/05/03 11:35:31  5-MIN KMSN 051735Z 30007KT 10SM OVC015 01/M02 A3020 600 82 -900 300/07 RMK AO2
14837KMSN MSN20031105114009711/05/03 11:40:31  5-MIN KMSN 051740Z 31006KT 10SM OVC015 01/M02 A3021 600 82 -900 310/06 RMK AO2
14837KMSN MSN20031105114509711/05/03 11:45:31  5-MIN KMSN 051745Z 31006KT 10SM OVC015 01/M02 A3021 600 78 -900 310/06 RMK AO2
14837KMSN MSN20031105115013211/05/03 11:50:31  5-MIN KMSN 051750Z 31008KT 10SM OVC015 01/M02 A3021 600 78 -900 310/08 RMK AO2 SLP238 T00111022 10017 20011 51027
14837KMSN MSN20031105115509711/05/03 11:55:31  5-MIN KMSN 051755Z 31008KT 10SM OVC015 01/M02 A3021 600 78 -900 310/08 RMK AO2
14837KMSN MSN20031105120009711/05/03 12:00:31  5-MIN KMSN 051800Z 31006KT 10SM OVC015 01/M02 A3021 600 78 -900 310/06 RMK AO2
14837KMSN MSN20031105120509711/05/03 12:05:31  5-MIN KMSN 051805Z 30010KT 10SM OVC015 01/M02 A3021 600 78 -900 300/10 RMK AO2
14837KMSN MSN20031105121009711/05/03 12:10:31  5-MIN KMSN 051810Z 29006KT 10SM OVC015 01/M02 A3021 600 82 -900 290/06 RMK AO2
14837KMSN MSN20031105121509711/05/03 12:15:31  5-MIN KMSN 051815Z VRB06KT 10SM OVC015 01/M02 A3021 600 78 -900 VRB/06 RMK AO2
14837KMSN MSN20031105122009711/05/03 12:20:31  5-MIN KMSN 051820Z 28007KT 10SM OVC015 01/M02 A3021 600 82 -900 280/07 RMK AO2
14837KMSN MSN20031105122509711/05/03 12:25:31  5-MIN KMSN 051825Z 29008KT 10SM OVC015 01/M02 A3021 600 78 -900 290/08 RMK AO2
14837KMSN MSN20031105123009711/05/03 12:30:31  5-MIN KMSN 051830Z 29005KT 10SM OVC015 01/M02 A3020 600 78 -900 290/05 RMK AO2
14837KMSN MSN20031105123509711/05/03 12:35:31  5-MIN KMSN 051835Z 29007KT 10SM OVC015 01/M02 A3020 600 82 -900 290/07 RMK AO2
14837KMSN MSN20031105124009711/05/03 12:40:31  5-MIN KMSN 051840Z 31008KT 10SM OVC015 01/M02 A3021 600 78 -900 310/08 RMK AO2
14837KMSN MSN20031105124509711/05/03 12:45:31  5-MIN KMSN 051845Z 30007KT 10SM OVC015 01/M02 A3021 600 78 -900 290/07 RMK AO2
14837KMSN MSN20031105125011411/05/03 12:50:31  5-MIN KMSN 051850Z 30008KT 10SM OVC015 01/M02 A3021 590 78 -900 300/08 RMK AO2 SLP240 T00111022
14837KMSN MSN20031105125509711/05/03 12:55:31  5-MIN KMSN 051855Z 29006KT 10SM OVC015 01/M02 A3021 590 78 -900 290/06 RMK AO2
14837KMSN MSN20031105130009711/05/03 13:00:31  5-MIN KMSN 051900Z 30005KT 10SM OVC015 01/M02 A3021 600 82 -900 290/05 RMK AO2
14837KMSN MSN20031105130509711/05/03 13:05:31  5-MIN KMSN 051905Z 28007KT 10SM OVC015 01/M02 A3021 600 82 -900 280/07 RMK AO2
14837KMSN MSN20031105131009711/05/03 13:10:31  5-MIN KMSN 051910Z VRB06KT 10SM OVC015 02/M02 A3021 600 78 -800 VRB/06 RMK AO2
14837KMSN MSN20031105131509711/05/03 13:15:31  5-MIN KMSN 051915Z 29006KT 10SM OVC015 02/M02 A3021 600 78 -800 290/06 RMK AO2
14837KMSN MSN20031105132009711/05/03 13:20:31  5-MIN KMSN 051920Z 30006KT 10SM OVC015 02/M02 A3020 600 78 -800 300/06 RMK AO2
14837KMSN MSN20031105132509711/05/03 13:25:31  5-MIN KMSN 051925Z 28008KT 10SM OVC015 02/M02 A3020 600 75 -800 280/08 RMK AO2
14837KMSN MSN20031105133009711/05/03 13:30:31  5-MIN KMSN 051930Z 31007KT 10SM OVC017 02/M02 A3020 600 78 -800 310/07 RMK AO2
14837KMSN MSN20031105133509711/05/03 13:35:31  5-MIN KMSN 051935Z 30006KT 10SM OVC017 02/M02 A3020 600 78 -800 300/06 RMK AO2
14837KMSN MSN20031105134009711/05/03 13:40:31  5-MIN KMSN 051940Z 29005KT 10SM OVC017 02/M02 A3020 600 78 -800 290/05 RMK AO2
14837KMSN MSN20031105134509711/05/03 13:45:31  5-MIN KMSN 051945Z VRB05KT 10SM OVC017 02/M02 A3020 600 75 -800 VRB/05 RMK AO2
14837KMSN MSN20031105135011411/05/03 13:50:31  5-MIN KMSN 051950Z 30007KT 10SM OVC017 02/M02 A3020 610 75 -800 300/07 RMK AO2 SLP236 T00171022
14837KMSN MSN20031105135509711/05/03 13:55:31  5-MIN KMSN 051955Z VRB04KT 10SM OVC017 02/M02 A3020 610 78 -800 VRB/04 RMK AO2
14837KMSN MSN20031105140009711/05/03 14:00:31  5-MIN KMSN 052000Z 29008KT 10SM OVC017 02/M02 A3020 610 75 -800 290/08 RMK AO2
14837KMSN MSN20031105140509711/05/03 14:05:31  5-MIN KMSN 052005Z 31006KT 10SM OVC017 02/M02 A3020 610 75 -800 310/06 RMK AO2
14837KMSN MSN20031105141009711/05/03 14:10:31  5-MIN KMSN 052010Z VRB04KT 10SM OVC017 02/M02 A3020 610 75 -800 VRB/04 RMK AO2
14837KMSN MSN20031105141509711/05/03 14:15:31  5-MIN KMSN 052015Z VRB05KT 10SM OVC017 02/M02 A3020 610 78 -800 VRB/05 RMK AO2
14837KMSN MSN20031105142009711/05/03 14:20:31  5-MIN KMSN 052020Z 28005KT 10SM OVC017 02/M02 A3020 600 75 -800 280/05 RMK AO2
14837KMSN MSN20031105142509711/05/03 14:25:31  5-MIN KMSN 052025Z VRB05KT 10SM OVC017 02/M02 A3020 600 75 -800 VRB/05 RMK AO2
14837KMSN MSN20031105143009711/05/03 14:30:31  5-MIN KMSN 052030Z 29007KT 10SM OVC017 02/M02 A3020 600 75 -800 290/07 RMK AO2
14837KMSN MSN20031105143509711/05/03 14:35:31  5-MIN KMSN 052035Z 30006KT 10SM OVC017 02/M02 A3021 600 75 -800 300/06 RMK AO2
14837KMSN MSN20031105144009711/05/03 14:40:31  5-MIN KMSN 052040Z VRB05KT 10SM OVC017 02/M02 A3021 600 75 -800 VRB/05 RMK AO2
14837KMSN MSN20031105144509711/05/03 14:45:31  5-MIN KMSN 052045Z 32006KT 10SM OVC017 02/M02 A3021 600 75 -800 320/06 RMK AO2
14837KMSN MSN20031105145012011/05/03 14:50:31  5-MIN KMSN 052050Z 31004KT 10SM OVC017 02/M02 A3021 600 75 -800 300/04 RMK AO2 SLP238 T00171022 51012
14837KMSN MSN20031105145509711/05/03 14:55:31  5-MIN KMSN 052055Z 30005KT 10SM OVC017 02/M02 A3021 600 75 -800 300/05 RMK AO2
14837KMSN MSN20031105150009711/05/03 15:00:31  5-MIN KMSN 052100Z 31007KT 10SM OVC017 02/M02 A3021 600 75 -800 310/07 RMK AO2
14837KMSN MSN20031105150509711/05/03 15:05:31  5-MIN KMSN 052105Z 33008KT 10SM OVC019 02/M02 A3021 600 75 -800 330/08 RMK AO2
14837KMSN MSN20031105151009711/05/03 15:10:31  5-MIN KMSN 052110Z 32007KT 10SM OVC019 02/M02 A3021 600 75 -800 320/07 RMK AO2
14837KMSN MSN20031105151509711/05/03 15:15:31  5-MIN KMSN 052115Z 31008KT 10SM OVC019 02/M02 A3021 600 75 -800 310/08 RMK AO2
14837KMSN MSN20031105152009711/05/03 15:20:31  5-MIN KMSN 052120Z 30008KT 10SM OVC019 02/M03 A3022 590 72 -800 300/08 RMK AO2
14837KMSN MSN20031105152509711/05/03 15:25:31  5-MIN KMSN 052125Z VRB05KT 10SM OVC019 02/M03 A3022 590 72 -800 VRB/05 RMK AO2
14837KMSN MSN20031105153009711/05/03 15:30:31  5-MIN KMSN 052130Z 33004KT 10SM OVC019 02/M02 A3022 590 75 -800 330/04 RMK AO2
14837KMSN MSN20031105153509711/05/03 15:35:31  5-MIN KMSN 052135Z 33006KT 10SM OVC019 02/M02 A3022 590 75 -800 330/06 RMK AO2
14837KMSN MSN20031105154009711/05/03 15:40:31  5-MIN KMSN 052140Z VRB06KT 10SM OVC019 02/M03 A3022 590 72 -800 VRB/06 RMK AO2
14837KMSN MSN20031105154509711/05/03 15:45:31  5-MIN KMSN 052145Z 33004KT 10SM OVC019 01/M03 A3022 590 75 -900 330/04 RMK AO2
14837KMSN MSN20031105155011411/05/03 15:50:31  5-MIN KMSN 052150Z VRB05KT 10SM OVC019 02/M02 A3022 590 75 -800 VRB/05 RMK AO2 SLP241 T00171022
14837KMSN MSN20031105155509711/05/03 15:55:31  5-MIN KMSN 052155Z 30005KT 10SM BKN019 01/M03 A3022 590 75 -900 300/05 RMK AO2
14837KMSN MSN20031105160009711/05/03 16:00:31  5-MIN KMSN 052200Z 29003KT 10SM BKN019 01/M02 A3022 590 78 -900 290/03 RMK AO2
14837KMSN MSN20031105160509711/05/03 16:05:31  5-MIN KMSN 052205Z 29005KT 10SM BKN019 02/M02 A3022 580 75 -800 290/05 RMK AO2
14837KMSN MSN20031105161009711/05/03 16:10:31  5-MIN KMSN 052210Z 29004KT 10SM BKN019 01/M03 A3022 580 75 -900 290/04 RMK AO2
14837KMSN MSN20031105161509711/05/03 16:15:31  5-MIN KMSN 052215Z VRB04KT 10SM BKN019 01/M02 A3022 580 78 -900 VRB/04 RMK AO2
14837KMSN MSN20031105162009711/05/03 16:20:31  5-MIN KMSN 052220Z 28006KT 10SM BKN019 01/M02 A3022 580 78 -900 280/06 RMK AO2
14837KMSN MSN20031105162509711/05/03 16:25:31  5-MIN KMSN 052225Z 30005KT 10SM BKN019 01/M03 A3022 580 75 -900 300/05 RMK AO2
14837KMSN MSN20031105163009711/05/03 16:30:31  5-MIN KMSN 052230Z 29004KT 10SM BKN019 01/M03 A3023 580 75 -900 290/04 RMK AO2
14837KMSN MSN20031105163509711/05/03 16:35:31  5-MIN KMSN 052235Z VRB04KT 10SM BKN019 01/M03 A3022 580 75 -900 VRB/04 RMK AO2
14837KMSN MSN20031105164009711/05/03 16:40:31  5-MIN KMSN 052240Z 27005KT 10SM BKN019 01/M03 A3023 580 75 -900 270/05 RMK AO2
14837KMSN MSN20031105164509711/05/03 16:45:31  5-MIN KMSN 052245Z 26004KT 10SM BKN019 01/M03 A3023 580 75 -900 260/04 RMK AO2
14837KMSN MSN20031105165011411/05/03 16:50:31  5-MIN KMSN 052250Z VRB03KT 10SM OVC019 01/M03 A3023 580 75 -900 VRB/03 RMK AO2 SLP246 T00111028
14837KMSN MSN20031105165509711/05/03 16:55:31  5-MIN KMSN 052255Z 30004KT 10SM OVC019 01/M03 A3023 580 75 -900 300/04 RMK AO2
14837KMSN MSN20031105170009711/05/03 17:00:31  5-MIN KMSN 052300Z 28004KT 10SM OVC019 01/M03 A3023 580 75 -900 280/04 RMK AO2
14837KMSN MSN20031105170509711/05/03 17:05:31  5-MIN KMSN 052305Z 28004KT 10SM OVC019 01/M03 A3023 580 75 -900 280/04 RMK AO2
14837KMSN MSN20031105171009711/05/03 17:10:31  5-MIN KMSN 052310Z VRB03KT 10SM OVC019 01/M03 A3023 580 75 -900 VRB/03 RMK AO2
14837KMSN MSN20031105171509711/05/03 17:15:31  5-MIN KMSN 052315Z 00000KT 10SM OVC019 01/M03 A3024 570 75 -900 000/00 RMK AO2
14837KMSN MSN20031105172009711/05/03 17:20:31  5-MIN KMSN 052320Z 28004KT 10SM OVC019 01/M03 A3024 570 75 -900 280/04 RMK AO2
14837KMSN MSN20031105172509711/05/03 17:25:31  5-MIN KMSN 052325Z 30003KT 10SM OVC019 01/M03 A3024 570 75 -900 300/03 RMK AO2
14837KMSN MSN20031105173009711/05/03 17:30:31  5-MIN KMSN 052330Z 30003KT 10SM OVC019 01/M03 A3024 570 75 -900 290/03 RMK AO2
14837KMSN MSN20031105173509711/05/03 17:35:31  5-MIN KMSN 052335Z 28004KT 10SM OVC019 01/M03 A3025 560 75 -900 280/04 RMK AO2
14837KMSN MSN20031105174009711/05/03 17:40:31  5-MIN KMSN 052340Z 30005KT 10SM OVC021 01/M03 A3025 560 75 -900 300/05 RMK AO2
14837KMSN MSN20031105174509711/05/03 17:45:31  5-MIN KMSN 052345Z 28004KT 10SM OVC021 01/M03 A3025 560 75 -900 280/04 RMK AO2
14837KMSN MSN20031105175013211/05/03 17:50:31  5-MIN KMSN 052350Z 31004KT 10SM OVC021 01/M03 A3025 560 72 -900 300/04 RMK AO2 SLP253 T00111033 10017 20011 50000
14837KMSN MSN20031105175509711/05/03 17:55:31  5-MIN KMSN 052355Z 31006KT 10SM OVC021 01/M03 A3025 560 72 -900 310/06 RMK AO2
14837KMSN MSN20031105180009711/05/03 18:00:31  5-MIN KMSN 060000Z 29003KT 10SM BKN021 01/M04 A3025 560 69 -900 280/03 RMK AO2
14837KMSN MSN20031105180509811/05/03 18:05:31  5-MIN KMSN 060005Z 31003KT 10SM BKN021 01/M04 A3025 560 72 -1000 310/03 RMK AO2
14837KMSN MSN20031105181009811/05/03 18:10:31  5-MIN KMSN 060010Z 34003KT 10SM BKN021 01/M03 A3025 560 75 -1000 340/03 RMK AO2
14837KMSN MSN20031105181509811/05/03 18:15:31  5-MIN KMSN 060015Z VRB03KT 10SM BKN021 01/M03 A3025 560 75 -1000 VRB/03 RMK AO2
14837KMSN MSN20031105182009711/05/03 18:20:31  5-MIN KMSN 060020Z 34003KT 10SM BKN021 01/M03 A3025 560 72 -900 340/03 RMK AO2
14837KMSN MSN20031105182509811/05/03 18:25:31  5-MIN KMSN 060025Z 34003KT 10SM BKN021 01/M03 A3026 550 75 -1000 340/03 RMK AO2
14837KMSN MSN20031105183009711/05/03 18:30:31  5-MIN KMSN 060030Z 34003KT 10SM BKN021 01/M03 A3026 550 72 -900 340/03 RMK AO2
14837KMSN MSN20031105183509811/05/03 18:35:31  5-MIN KMSN 060035Z 34003KT 10SM OVC021 01/M03 A3026 560 78 -1000 340/03 RMK AO2
14837KMSN MSN20031105184009811/05/03 18:40:31  5-MIN KMSN 060040Z 33003KT 10SM OVC021 01/M03 A3026 550 75 -1000 320/03 RMK AO2
14837KMSN MSN20031105184509811/05/03 18:45:31  5-MIN KMSN 060045Z 31003KT 10SM OVC021 01/M03 A3026 550 75 -1000 310/03 RMK AO2
14837KMSN MSN20031105185011511/05/03 18:50:31  5-MIN KMSN 060050Z 33003KT 10SM OVC021 01/M03 A3026 550 78 -1000 330/03 RMK AO2 SLP256 T00061028
14837KMSN MSN20031105185509811/05/03 18:55:31  5-MIN KMSN 060055Z 00000KT 10SM OVC021 01/M03 A3026 550 78 -1000 000/00 RMK AO2
14837KMSN MSN20031105190009811/05/03 19:00:31  5-MIN KMSN 060100Z 00000KT 10SM OVC021 01/M03 A3026 550 78 -1000 000/00 RMK AO2
14837KMSN MSN20031105190509811/05/03 19:05:31  5-MIN KMSN 060105Z 00000KT 10SM OVC021 01/M03 A3026 550 78 -1000 000/00 RMK AO2
14837KMSN MSN20031105191009811/05/03 19:10:31  5-MIN KMSN 060110Z 00000KT 10SM OVC021 01/M03 A3026 550 78 -1000 000/00 RMK AO2
14837KMSN MSN20031105191509811/05/03 19:15:31  5-MIN KMSN 060115Z 00000KT 10SM OVC021 01/M03 A3026 550 78 -1000 000/00 RMK AO2
14837KMSN MSN20031105192009811/05/03 19:20:31  5-MIN KMSN 060120Z 00000KT 10SM OVC021 01/M03 A3026 550 78 -1000 000/00 RMK AO2
14837KMSN MSN20031105192509811/05/03 19:25:31  5-MIN KMSN 060125Z 00000KT 10SM OVC021 01/M03 A3026 550 78 -1000 000/00 RMK AO2
14837KMSN MSN20031105193009811/05/03 19:30:31  5-MIN KMSN 060130Z 34003KT 10SM OVC021 01/M03 A3026 560 78 -1000 340/03 RMK AO2
14837KMSN MSN20031105193509811/05/03 19:35:31  5-MIN KMSN 060135Z 00000KT 10SM OVC021 01/M03 A3026 560 78 -1000 000/00 RMK AO2
14837KMSN MSN20031105194009811/05/03 19:40:31  5-MIN KMSN 060140Z 00000KT 10SM OVC021 01/M03 A3026 560 78 -1000 000/00 RMK AO2
14837KMSN MSN20031105194509811/05/03 19:45:31  5-MIN KMSN 060145Z 00000KT 10SM BKN021 01/M03 A3026 560 78 -1000 000/00 RMK AO2
14837KMSN MSN20031105195011511/05/03 19:50:31  5-MIN KMSN 060150Z 33003KT 10SM BKN021 01/M03 A3025 560 78 -1000 330/03 RMK AO2 SLP254 T00061028
14837KMSN MSN20031105195509811/05/03 19:55:31  5-MIN KMSN 060155Z 33004KT 10SM OVC021 01/M03 A3025 560 75 -1000 330/04 RMK AO2
14837KMSN MSN20031105200009811/05/03 20:00:31  5-MIN KMSN 060200Z 33003KT 10SM OVC021 01/M03 A3026 560 75 -1000 330/03 RMK AO2
14837KMSN MSN20031105200509811/05/03 20:05:31  5-MIN KMSN 060205Z 00000KT 10SM OVC021 01/M03 A3025 560 75 -1000 000/00 RMK AO2
14837KMSN MSN20031105201009811/05/03 20:10:31  5-MIN KMSN 060210Z 00000KT 10SM OVC021 01/M03 A3025 560 75 -1000 000/00 RMK AO2
14837KMSN MSN20031105201509811/05/03 20:15:31  5-MIN KMSN 060215Z 00000KT 10SM OVC021 01/M03 A3025 560 78 -1000 000/00 RMK AO2
14837KMSN MSN20031105202009811/05/03 20:20:31  5-MIN KMSN 060220Z 00000KT 10SM OVC021 01/M03 A3025 560 75 -1000 000/00 RMK AO2
14837KMSN MSN20031105202509811/05/03 20:25:31  5-MIN KMSN 060225Z 00000KT 10SM OVC021 01/M03 A3025 560 78 -1000 000/00 RMK AO2
14837KMSN MSN20031105203009811/05/03 20:30:31  5-MIN KMSN 060230Z 00000KT 10SM OVC021 01/M03 A3026 560 78 -1000 000/00 RMK AO2
14837KMSN MSN20031105203509811/05/03 20:35:31  5-MIN KMSN 060235Z 00000KT 10SM OVC021 00/M03 A3026 560 81 -1100 000/00 RMK AO2
14837KMSN MSN20031105204009811/05/03 20:40:31  5-MIN KMSN 060240Z 00000KT 10SM BKN023 00/M03 A3026 550 78 -1100 000/00 RMK AO2
14837KMSN MSN20031105204509811/05/03 20:45:31  5-MIN KMSN 060245Z 00000KT 10SM BKN023 00/M03 A3026 550 81 -1100 000/00 RMK AO2
14837KMSN MSN20031105205012211/05/03 20:50:31  5-MIN KMSN 060250Z 00000KT 10SM BKN023 M01/M03 A3027 550 85 -1100 000/00 RMK AO2 SLP259 T10061028 53015
14837KMSN MSN20031105205509911/05/03 20:55:31  5-MIN KMSN 060255Z 00000KT 10SM BKN023 M01/M02 A3027 540 88 -1100 000/00 RMK AO2
14837KMSN MSN20031105210009811/05/03 21:00:31  5-MIN KMSN 060300Z 00000KT 10SM BKN023 00/M03 A3027 540 81 -1100 000/00 RMK AO2
14837KMSN MSN20031105210509811/05/03 21:05:31  5-MIN KMSN 060305Z 00000KT 10SM BKN023 00/M02 A3027 550 85 -1100 000/00 RMK AO2
14837KMSN MSN20031105211009811/05/03 21:10:31  5-MIN KMSN 060310Z 00000KT 10SM BKN023 01/M03 A3027 540 78 -1000 000/00 RMK AO2
14837KMSN MSN20031105211509811/05/03 21:15:31  5-MIN KMSN 060315Z 00000KT 10SM BKN023 00/M02 A3027 540 85 -1100 000/00 RMK AO2
14837KMSN MSN20031105212009811/05/03 21:20:31  5-MIN KMSN 060320Z 00000KT 10SM OVC023 00/M03 A3027 540 81 -1100 000/00 RMK AO2
14837KMSN MSN20031105212509811/05/03 21:25:31  5-MIN KMSN 060325Z 00000KT 10SM OVC023 01/M03 A3027 540 78 -1000 000/00 RMK AO2
14837KMSN MSN20031105213009811/05/03 21:30:31  5-MIN KMSN 060330Z 00000KT 10SM OVC023 01/M03 A3027 540 78 -1000 000/00 RMK AO2
14837KMSN MSN20031105213509811/05/03 21:35:31  5-MIN KMSN 060335Z 00000KT 10SM OVC023 01/M02 A3028 540 82 -1000 000/00 RMK AO2
14837KMSN MSN20031105214009811/05/03 21:40:31  5-MIN KMSN 060340Z 00000KT 10SM OVC023 01/M03 A3028 540 78 -1000 000/00 RMK AO2
14837KMSN MSN20031105214509811/05/03 21:45:31  5-MIN KMSN 060345Z 00000KT 10SM OVC023 01/M02 A3028 530 82 -1000 000/00 RMK AO2
14837KMSN MSN20031105215011511/05/03 21:50:31  5-MIN KMSN 060350Z 00000KT 10SM OVC023 00/M02 A3028 540 85 -1100 000/00 RMK AO2 SLP262 T00001022
14837KMSN MSN20031105215509811/05/03 21:55:31  5-MIN KMSN 060355Z 00000KT 10SM OVC023 00/M03 A3028 540 81 -1100 000/00 RMK AO2
14837KMSN MSN20031105220009811/05/03 22:00:31  5-MIN KMSN 060400Z 29003KT 10SM OVC023 00/M03 A3028 530 81 -1100 290/03 RMK AO2
14837KMSN MSN20031105220509811/05/03 22:05:31  5-MIN KMSN 060405Z 00000KT 10SM OVC023 00/M03 A3028 530 81 -1100 000/00 RMK AO2
14837KMSN MSN20031105221009811/05/03 22:10:31  5-MIN KMSN 060410Z 00000KT 10SM OVC023 00/M03 A3028 530 81 -1100 000/00 RMK AO2
14837KMSN MSN20031105221509811/05/03 22:15:31  5-MIN KMSN 060415Z 00000KT 10SM BKN023 00/M03 A3028 530 81 -1100 000/00 RMK AO2
14837KMSN MSN20031105222009811/05/03 22:20:31  5-MIN KMSN 060420Z 00000KT 10SM BKN023 00/M03 A3028 530 81 -1100 000/00 RMK AO2
14837KMSN MSN20031105222509911/05/03 22:25:31  5-MIN KMSN 060425Z 00000KT 10SM BKN023 M01/M02 A3028 530 88 -1100 000/00 RMK AO2
14837KMSN MSN20031105223009911/05/03 22:30:31  5-MIN KMSN 060430Z 00000KT 10SM BKN023 M01/M02 A3028 530 88 -1100 000/00 RMK AO2
14837KMSN MSN20031105223509911/05/03 22:35:31  5-MIN KMSN 060435Z 30003KT 10SM BKN023 M01/M02 A3028 540 88 -1100 300/03 RMK AO2
14837KMSN MSN20031105224009811/05/03 22:40:31  5-MIN KMSN 060440Z 28003KT 10SM BKN023 00/M03 A3028 530 81 -1100 280/03 RMK AO2
14837KMSN MSN20031105224509811/05/03 22:45:31  5-MIN KMSN 060445Z 27004KT 10SM BKN023 00/M03 A3028 530 81 -1100 270/04 RMK AO2
14837KMSN MSN20031105225011511/05/03 22:50:31  5-MIN KMSN 060450Z 28004KT 10SM BKN023 00/M03 A3029 530 81 -1100 280/04 RMK AO2 SLP266 T00001028
14837KMSN MSN20031105225509811/05/03 22:55:31  5-MIN KMSN 060455Z 29004KT 10SM OVC023 00/M03 A3029 530 81 -1100 290/04 RMK AO2
14837KMSN MSN20031105230009811/05/03 23:00:31  5-MIN KMSN 060500Z 28004KT 10SM OVC023 00/M03 A3029 530 81 -1100 280/04 RMK AO2
14837KMSN MSN20031105230509811/05/03 23:05:31  5-MIN KMSN 060505Z 28006KT 10SM OVC023 00/M03 A3029 520 81 -1100 280/06 RMK AO2
14837KMSN MSN20031105231009811/05/03 23:10:31  5-MIN KMSN 060510Z 28005KT 10SM OVC025 00/M03 A3029 520 81 -1100 280/05 RMK AO2
14837KMSN MSN20031105231509811/05/03 23:15:31  5-MIN KMSN 060515Z 28005KT 10SM OVC025 00/M03 A3029 520 81 -1100 270/05 RMK AO2
14837KMSN MSN20031105232009811/05/03 23:20:31  5-MIN KMSN 060520Z 28005KT 10SM OVC025 00/M03 A3029 520 81 -1100 280/05 RMK AO2
14837KMSN MSN20031105232509811/05/03 23:25:31  5-MIN KMSN 060525Z 28006KT 10SM OVC025 00/M03 A3029 520 81 -1100 270/06 RMK AO2
14837KMSN MSN20031105233009811/05/03 23:30:31  5-MIN KMSN 060530Z 28006KT 10SM OVC025 00/M03 A3030 520 81 -1100 280/06 RMK AO2
14837KMSN MSN20031105233509811/05/03 23:35:31  5-MIN KMSN 060535Z 28004KT 10SM OVC025 00/M03 A3030 520 81 -1100 280/04 RMK AO2
14837KMSN MSN20031105234010611/05/03 23:40:31  5-MIN KMSN 060540Z VRB05KT 10SM BKN025 OVC120 M01/M03 A3030 520 85 -1200 VRB/05 RMK AO2
14837KMSN MSN20031105234510611/05/03 23:45:31  5-MIN KMSN 060545Z 28005KT 10SM BKN025 OVC120 M01/M03 A3030 510 85 -1200 270/05 RMK AO2
14837KMSN MSN20031105235015111/05/03 23:50:31  5-MIN KMSN 060550Z 28005KT 10SM SCT025 OVC120 M01/M03 A3030 510 85 -1200 280/05 RMK AO2 SLP272 T10061028 10011 21006 400331006 53006
14837KMSN MSN20031105235510611/05/03 23:55:31  5-MIN KMSN 060555Z 28004KT 10SM SCT025 OVC120 M01/M03 A3031 510 85 -1200 280/04 RMK AO2
14837KMSN MSN20031106000010611/06/03 00:00:31  5-MIN KMSN 060600Z 28005KT 10SM SCT025 OVC120 M01/M03 A3031 510 85 -1200 280/05 RMK AO2
14837KMSN MSN20031106000510611/06/03 00:05:31  5-MIN KMSN 060605Z 28005KT 10SM FEW025 OVC120 M01/M03 A3031 510 85 -1200 280/05 RMK AO2
14837KMSN MSN20031106001009911/06/03 00:10:31  5-MIN KMSN 060610Z 28005KT 10SM OVC120 M01/M03 A3031 510 85 -1200 280/05 RMK AO2
14837KMSN MSN20031106001509911/06/03 00:15:31  5-MIN KMSN 060615Z 27005KT 10SM OVC120 M01/M03 A3031 510 85 -1200 270/05 RMK AO2
14837KMSN MSN20031106002009911/06/03 00:20:31  5-MIN KMSN 060620Z 28005KT 10SM OVC120 M01/M03 A3031 500 85 -1200 270/05 RMK AO2
14837KMSN MSN20031106002509911/06/03 00:25:31  5-MIN KMSN 060625Z 28004KT 10SM OVC120 M01/M03 A3031 500 85 -1200 280/04 RMK AO2
14837KMSN MSN20031106003009911/06/03 00:30:31  5-MIN KMSN 060630Z 29005KT 10SM OVC120 M01/M03 A3031 500 85 -1200 290/05 RMK AO2
14837KMSN MSN20031106003509911/06/03 00:35:31  5-MIN KMSN 060635Z 29005KT 10SM OVC120 M01/M03 A3031 500 85 -1200 290/05 RMK AO2
14837KMSN MSN20031106004009911/06/03 00:40:31  5-MIN KMSN 060640Z VRB05KT 10SM OVC120 M01/M03 A3031 500 85 -1200 VRB/05 RMK AO2
14837KMSN MSN20031106004509911/06/03 00:45:31  5-MIN KMSN 060645Z 29004KT 10SM OVC120 M01/M03 A3031 510 85 -1200 280/04 RMK AO2
14837KMSN MSN20031106005011611/06/03 00:50:31  5-MIN KMSN 060650Z 28004KT 10SM OVC120 M01/M03 A3031 510 85 -1200 280/04 RMK AO2 SLP274 T10061028
14837KMSN MSN20031106005509911/06/03 00:55:31  5-MIN KMSN 060655Z 29004KT 10SM OVC120 M01/M03 A3031 510 85 -1300 290/04 RMK AO2
14837KMSN MSN20031106010009911/06/03 01:00:31  5-MIN KMSN 060700Z 29005KT 10SM OVC120 M01/M03 A3031 500 88 -1300 290/05 RMK AO2
14837KMSN MSN20031106010509911/06/03 01:05:31  5-MIN KMSN 060705Z 29005KT 10SM OVC120 M01/M03 A3031 510 88 -1300 290/05 RMK AO2
14837KMSN MSN20031106011009911/06/03 01:10:31  5-MIN KMSN 060710Z 31004KT 10SM OVC120 M01/M03 A3031 510 85 -1300 310/04 RMK AO2
14837KMSN MSN20031106011509911/06/03 01:15:31  5-MIN KMSN 060715Z VRB04KT 10SM OVC120 M01/M03 A3031 510 85 -1300 VRB/04 RMK AO2
14837KMSN MSN20031106012009911/06/03 01:20:31  5-MIN KMSN 060720Z 31006KT 10SM OVC120 M01/M03 A3031 510 85 -1300 310/06 RMK AO2
14837KMSN MSN20031106012509911/06/03 01:25:31  5-MIN KMSN 060725Z 31007KT 10SM OVC110 M01/M03 A3031 510 85 -1300 310/07 RMK AO2
14837KMSN MSN20031106013009911/06/03 01:30:31  5-MIN KMSN 060730Z 32006KT 10SM OVC110 M01/M03 A3031 510 85 -1300 320/06 RMK AO2
14837KMSN MSN20031106013509911/06/03 01:35:31  5-MIN KMSN 060735Z 32003KT 10SM OVC110 M01/M03 A3031 510 85 -1300 320/03 RMK AO2
14837KMSN MSN20031106014009911/06/03 01:40:31  5-MIN KMSN 060740Z 32004KT 10SM OVC110 M01/M03 A3031 500 85 -1300 320/04 RMK AO2
14837KMSN MSN20031106014509911/06/03 01:45:31  5-MIN KMSN 060745Z 32004KT 10SM OVC110 M01/M04 A3031 500 81 -1300 310/04 RMK AO2
14837KMSN MSN20031106015011611/06/03 01:50:31  5-MIN KMSN 060750Z VRB03KT 10SM OVC110 M02/M04 A3031 500 85 -1300 VRB/03 RMK AO2 SLP276 T10171039
14837KMSN MSN20031106015509911/06/03 01:55:31  5-MIN KMSN 060755Z 32005KT 10SM OVC110 M02/M04 A3031 500 85 -1300 310/05 RMK AO2
14837KMSN MSN20031106020009911/06/03 02:00:31  5-MIN KMSN 060800Z 31003KT 10SM BKN110 M02/M03 A3031 500 88 -1300 310/03 RMK AO2
14837KMSN MSN20031106020509911/06/03 02:05:31  5-MIN KMSN 060805Z 32004KT 10SM BKN110 M01/M03 A3032 500 85 -1300 310/04 RMK AO2
14837KMSN MSN20031106021009911/06/03 02:10:31  5-MIN KMSN 060810Z 31004KT 10SM SCT110 M02/M04 A3032 500 85 -1300 310/04 RMK AO2
14837KMSN MSN20031106021509911/06/03 02:15:31  5-MIN KMSN 060815Z 31004KT 10SM SCT110 M02/M03 A3032 500 88 -1300 310/04 RMK AO2
14837KMSN MSN20031106022009911/06/03 02:20:31  5-MIN KMSN 060820Z 00000KT 10SM FEW110 M02/M04 A3032 500 85 -1300 000/00 RMK AO2
14837KMSN MSN20031106022509611/06/03 02:25:31  5-MIN KMSN 060825Z 29003KT 10SM CLR M02/M04 A3032 500 85 -1300 290/03 RMK AO2
14837KMSN MSN20031106023009511/06/03 02:30:31  5-MIN KMSN 060830Z 00000KT 9SM CLR M02/M04 A3031 500 85 -1300 000/00 RMK AO2
14837KMSN MSN20031106023509511/06/03 02:35:31  5-MIN KMSN 060835Z 00000KT 9SM CLR M02/M04 A3031 500 85 -1300 000/00 RMK AO2
14837KMSN MSN20031106024009511/06/03 02:40:31  5-MIN KMSN 060840Z 30004KT 9SM CLR M02/M04 A3032 500 85 -1300 300/04 RMK AO2
14837KMSN MSN20031106024509611/06/03 02:45:31  5-MIN KMSN 060845Z 00000KT 10SM CLR M02/M04 A3031 500 85 -1300 000/00 RMK AO2
14837KMSN MSN20031106025011911/06/03 02:50:31  5-MIN KMSN 060850Z 00000KT 10SM CLR M02/M04 A3031 500 85 -1300 000/00 RMK AO2 SLP275 T10171039 53012
14837KMSN MSN20031106025509611/06/03 02:55:31  5-MIN KMSN 060855Z 00000KT 10SM CLR M02/M04 A3031 500 85 -1300 000/00 RMK AO2
14837KMSN MSN20031106030009611/06/03 03:00:31  5-MIN KMSN 060900Z 00000KT 10SM CLR M02/M04 A3031 500 85 -1300 000/00 RMK AO2
14837KMSN MSN20031106030509611/06/03 03:05:31  5-MIN KMSN 060905Z 27003KT 10SM CLR M02/M04 A3031 500 85 -1300 260/03 RMK AO2
14837KMSN MSN20031106031009611/06/03 03:10:31  5-MIN KMSN 060910Z 28003KT 10SM CLR M02/M04 A3031 500 85 -1300 280/03 RMK AO2
14837KMSN MSN20031106031509611/06/03 03:15:31  5-MIN KMSN 060915Z 00000KT 10SM CLR M02/M04 A3031 500 85 -1300 000/00 RMK AO2
14837KMSN MSN20031106032009611/06/03 03:20:31  5-MIN KMSN 060920Z 27003KT 10SM CLR M02/M04 A3031 500 85 -1300 270/03 RMK AO2
14837KMSN MSN20031106032509611/06/03 03:25:31  5-MIN KMSN 060925Z 00000KT 10SM CLR M02/M04 A3031 500 85 -1300 000/00 RMK AO2
14837KMSN MSN20031106033009511/06/03 03:30:31  5-MIN KMSN 060930Z 00000KT 9SM CLR M02/M04 A3031 510 85 -1300 000/00 RMK AO2
14837KMSN MSN20031106033509511/06/03 03:35:31  5-MIN KMSN 060935Z 00000KT 9SM CLR M02/M04 A3031 500 85 -1300 000/00 RMK AO2
14837KMSN MSN20031106034009511/06/03 03:40:31  5-MIN KMSN 060940Z 00000KT 9SM CLR M02/M04 A3031 500 85 -1300 000/00 RMK AO2
14837KMSN MSN20031106034509511/06/03 03:45:31  5-MIN KMSN 060945Z 29004KT 9SM CLR M02/M04 A3031 500 85 -1300 290/04 RMK AO2
14837KMSN MSN20031106035011211/06/03 03:50:31  5-MIN KMSN 060950Z 28003KT 9SM CLR M02/M04 A3031 500 88 -1400 280/03 RMK AO2 SLP275 T10221039
14837KMSN MSN20031106035509511/06/03 03:55:31  5-MIN KMSN 060955Z 28003KT 9SM CLR M02/M04 A3031 500 88 -1400 280/03 RMK AO2
14837KMSN MSN20031106040009511/06/03 04:00:31  5-MIN KMSN 061000Z 29003KT 9SM CLR M02/M04 A3031 500 88 -1400 290/03 RMK AO2
14837KMSN MSN20031106040509511/06/03 04:05:31  5-MIN KMSN 061005Z 29003KT 9SM CLR M02/M04 A3031 500 85 -1400 290/03 RMK AO2
14837KMSN MSN20031106041009511/06/03 04:10:31  5-MIN KMSN 061010Z 28003KT 9SM CLR M02/M04 A3031 500 85 -1400 280/03 RMK AO2
14837KMSN MSN20031106041509511/06/03 04:15:31  5-MIN KMSN 061015Z 00000KT 9SM CLR M02/M04 A3031 500 85 -1400 000/00 RMK AO2
14837KMSN MSN20031106042009511/06/03 04:20:31  5-MIN KMSN 061020Z 00000KT 9SM CLR M02/M04 A3031 500 85 -1400 000/00 RMK AO2
14837KMSN MSN20031106042509511/06/03 04:25:31  5-MIN KMSN 061025Z 00000KT 8SM CLR M02/M04 A3032 500 88 -1400 000/00 RMK AO2
14837KMSN MSN20031106043009511/06/03 04:30:31  5-MIN KMSN 061030Z 29003KT 8SM CLR M03/M04 A3032 500 92 -1500 290/03 RMK AO2
14837KMSN MSN20031106043509511/06/03 04:35:31  5-MIN KMSN 061035Z 30003KT 8SM CLR M03/M04 A3032 500 88 -1500 290/03 RMK AO2
14837KMSN MSN20031106044009511/06/03 04:40:31  5-MIN KMSN 061040Z 29003KT 8SM CLR M03/M04 A3031 500 88 -1500 290/03 RMK AO2
14837KMSN MSN20031106044509511/06/03 04:45:31  5-MIN KMSN 061045Z 00000KT 8SM CLR M03/M04 A3031 500 88 -1500 000/00 RMK AO2
14837KMSN MSN20031106045011211/06/03 04:50:31  5-MIN KMSN 061050Z 00000KT 8SM CLR M03/M04 A3031 500 88 -1500 000/00 RMK AO2 SLP276 T10281044
14837KMSN MSN20031106045509511/06/03 04:55:31  5-MIN KMSN 061055Z 00000KT 8SM CLR M03/M04 A3031 500 88 -1500 000/00 RMK AO2
14837KMSN MSN20031106050009511/06/03 05:00:31  5-MIN KMSN 061100Z 29003KT 8SM CLR M03/M04 A3032 500 92 -1500 290/03 RMK AO2
14837KMSN MSN20031106050509511/06/03 05:05:31  5-MIN KMSN 061105Z 29003KT 8SM CLR M03/M04 A3032 500 92 -1500 290/03 RMK AO2
14837KMSN MSN20031106051009511/06/03 05:10:31  5-MIN KMSN 061110Z 29003KT 8SM CLR M03/M04 A3032 500 88 -1500 290/03 RMK AO2
14837KMSN MSN20031106051509511/06/03 05:15:31  5-MIN KMSN 061115Z 29003KT 9SM CLR M03/M04 A3032 500 88 -1500 290/03 RMK AO2
14837KMSN MSN20031106052009511/06/03 05:20:31  5-MIN KMSN 061120Z 29003KT 9SM CLR M03/M05 A3032 500 85 -1500 290/03 RMK AO2
14837KMSN MSN20031106052509511/06/03 05:25:31  5-MIN KMSN 061125Z 29003KT 9SM CLR M03/M05 A3032 500 85 -1500 290/03 RMK AO2
14837KMSN MSN20031106053009511/06/03 05:30:31  5-MIN KMSN 061130Z 31003KT 9SM CLR M03/M05 A3032 500 85 -1500 310/03 RMK AO2
14837KMSN MSN20031106053509511/06/03 05:35:31  5-MIN KMSN 061135Z 00000KT 9SM CLR M03/M05 A3032 500 88 -1500 000/00 RMK AO2
14837KMSN MSN20031106054009511/06/03 05:40:31  5-MIN KMSN 061140Z 30004KT 9SM CLR M03/M05 A3032 500 88 -1500 300/04 RMK AO2
14837KMSN MSN20031106054509511/06/03 05:45:31  5-MIN KMSN 061145Z 31004KT 9SM CLR M03/M05 A3032 500 88 -1500 310/04 RMK AO2
14837KMSN MSN20031106055013011/06/03 05:50:31  5-MIN KMSN 061150Z 30004KT 9SM CLR M03/M06 A3032 490 85 -1600 300/04 RMK AO2 SLP279 T10331056 11006 21033 50002
14837KMSN MSN20031106055509511/06/03 05:55:31  5-MIN KMSN 061155Z 30004KT 9SM CLR M03/M05 A3032 490 88 -1600 300/04 RMK AO2
14837KMSN MSN20031106060009511/06/03 06:00:31  5-MIN KMSN 061200Z 30004KT 9SM CLR M03/M06 A3033 490 85 -1600 300/04 RMK AO2
14837KMSN MSN20031106060509511/06/03 06:05:31  5-MIN KMSN 061205Z 29004KT 9SM CLR M03/M06 A3033 490 85 -1600 290/04 RMK AO2
14837KMSN MSN20031106061009511/06/03 06:10:31  5-MIN KMSN 061210Z 30003KT 9SM CLR M03/M06 A3033 490 85 -1600 300/03 RMK AO2
14837KMSN MSN20031106061509511/06/03 06:15:31  5-MIN KMSN 061215Z 29003KT 9SM CLR M03/M06 A3033 490 85 -1600 290/03 RMK AO2
14837KMSN MSN20031106062009511/06/03 06:20:31  5-MIN KMSN 061220Z 30003KT 9SM CLR M03/M06 A3033 490 85 -1600 300/03 RMK AO2
14837KMSN MSN20031106062509511/06/03 06:25:31  5-MIN KMSN 061225Z 30003KT 8SM CLR M03/M06 A3033 490 85 -1600 300/03 RMK AO2
14837KMSN MSN20031106063009511/06/03 06:30:31  5-MIN KMSN 061230Z 31003KT 8SM CLR M03/M06 A3033 490 85 -1600 300/03 RMK AO2
14837KMSN MSN20031106063509511/06/03 06:35:31  5-MIN KMSN 061235Z 31003KT 8SM CLR M03/M06 A3033 490 85 -1600 310/03 RMK AO2
14837KMSN MSN20031106064009511/06/03 06:40:31  5-MIN KMSN 061240Z 31003KT 7SM CLR M03/M06 A3033 490 85 -1600 300/03 RMK AO2
14837KMSN MSN20031106064509511/06/03 06:45:31  5-MIN KMSN 061245Z 00000KT 7SM CLR M03/M06 A3033 490 85 -1600 000/00 RMK AO2
14837KMSN MSN20031106065011211/06/03 06:50:31  5-MIN KMSN 061250Z 31003KT 7SM CLR M03/M06 A3033 480 85 -1600 310/03 RMK AO2 SLP283 T10331056
14837KMSN MSN20031106065509511/06/03 06:55:31  5-MIN KMSN 061255Z 32003KT 7SM CLR M03/M06 A3034 480 85 -1600 320/03 RMK AO2
14837KMSN MSN20031106070009511/06/03 07:00:31  5-MIN KMSN 061300Z 32004KT 7SM CLR M03/M06 A3034 480 85 -1600 320/04 RMK AO2
14837KMSN MSN20031106070509511/06/03 07:05:31  5-MIN KMSN 061305Z 32004KT 7SM CLR M03/M06 A3034 480 85 -1600 320/04 RMK AO2
14837KMSN MSN20031106071009511/06/03 07:10:31  5-MIN KMSN 061310Z 32004KT 8SM CLR M03/M06 A3034 480 81 -1600 320/04 RMK AO2
14837KMSN MSN20031106071509511/06/03 07:15:31  5-MIN KMSN 061315Z 32004KT 8SM CLR M03/M06 A3034 480 81 -1600 320/04 RMK AO2
14837KMSN MSN20031106072009511/06/03 07:20:31  5-MIN KMSN 061320Z 32003KT 9SM CLR M03/M06 A3034 480 81 -1600 320/03 RMK AO2
14837KMSN MSN20031106072509511/06/03 07:25:31  5-MIN KMSN 061325Z 32004KT 9SM CLR M03/M06 A3034 480 81 -1600 320/04 RMK AO2
14837KMSN MSN20031106073009511/06/03 07:30:31  5-MIN KMSN 061330Z 33005KT 9SM CLR M03/M06 A3035 470 78 -1500 330/05 RMK AO2
14837KMSN MSN20031106073509611/06/03 07:35:31  5-MIN KMSN 061335Z 33006KT 10SM CLR M03/M06 A3035 470 78 -1500 330/06 RMK AO2
14837KMSN MSN20031106074009611/06/03 07:40:31  5-MIN KMSN 061340Z 33006KT 10SM CLR M03/M06 A3035 470 78 -1500 320/06 RMK AO2
14837KMSN MSN20031106074509611/06/03 07:45:31  5-MIN KMSN 061345Z 34005KT 10SM CLR M03/M06 A3035 470 78 -1500 340/05 RMK AO2
14837KMSN MSN20031106075011311/06/03 07:50:31  5-MIN KMSN 061350Z VRB04KT 10SM CLR M03/M06 A3035 470 78 -1500 VRB/04 RMK AO2 SLP289 T10281061
14837KMSN MSN20031106075509611/06/03 07:55:31  5-MIN KMSN 061355Z 34006KT 10SM CLR M03/M06 A3035 470 78 -1500 340/06 RMK AO2
14837KMSN MSN20031106080009611/06/03 08:00:31  5-MIN KMSN 061400Z 34006KT 10SM CLR M03/M06 A3035 470 78 -1500 340/06 RMK AO2
14837KMSN MSN20031106080509611/06/03 08:05:31  5-MIN KMSN 061405Z 34005KT 10SM CLR M02/M06 A3035 470 75 -1400 340/05 RMK AO2
14837KMSN MSN20031106081009611/06/03 08:10:31  5-MIN KMSN 061410Z 34007KT 10SM CLR M02/M06 A3035 470 75 -1400 330/07 RMK AO2
14837KMSN MSN20031106081509611/06/03 08:15:31  5-MIN KMSN 061415Z 33006KT 10SM CLR M02/M07 A3035 470 69 -1400 330/06 RMK AO2
14837KMSN MSN20031106082009611/06/03 08:20:31  5-MIN KMSN 061420Z 32007KT 10SM CLR M02/M07 A3036 460 69 -1400 320/07 RMK AO2
14837KMSN MSN20031106082509611/06/03 08:25:31  5-MIN KMSN 061425Z 33007KT 10SM CLR M02/M07 A3036 460 69 -1500 330/07 RMK AO2
14837KMSN MSN20031106083009611/06/03 08:30:31  5-MIN KMSN 061430Z 32006KT 10SM CLR M02/M07 A3036 460 69 -1500 320/06 RMK AO2
14837KMSN MSN20031106083509611/06/03 08:35:31  5-MIN KMSN 061435Z 32005KT 10SM CLR M02/M07 A3036 460 69 -1400 320/05 RMK AO2
14837KMSN MSN20031106084009611/06/03 08:40:31  5-MIN KMSN 061440Z 31006KT 10SM CLR M02/M07 A3036 460 69 -1400 310/06 RMK AO2
14837KMSN MSN20031106084509611/06/03 08:45:31  5-MIN KMSN 061445Z VRB03KT 10SM CLR M02/M07 A3036 460 66 -1400 VRB/03 RMK AO2
14837KMSN MSN20031106085011911/06/03 08:50:31  5-MIN KMSN 061450Z 30006KT 10SM CLR M02/M07 A3036 460 66 -1400 300/06 RMK AO2 SLP292 T10171072 53004
14837KMSN MSN20031106085509611/06/03 08:55:31  5-MIN KMSN 061455Z 32007KT 10SM CLR M02/M07 A3036 460 66 -1400 320/07 RMK AO2
14837KMSN MSN20031106090009611/06/03 09:00:31  5-MIN KMSN 061500Z 32007KT 10SM CLR M02/M08 A3036 460 63 -1400 320/07 RMK AO2
14837KMSN MSN20031106090509611/06/03 09:05:31  5-MIN KMSN 061505Z 31008KT 10SM CLR M02/M08 A3036 460 60 -1400 310/08 RMK AO2
14837KMSN MSN20031106091009611/06/03 09:10:31  5-MIN KMSN 061510Z 31008KT 10SM CLR M02/M08 A3036 460 60 -1400 310/08 RMK AO2
14837KMSN MSN20031106091509611/06/03 09:15:31  5-MIN KMSN 061515Z 32007KT 10SM CLR M02/M08 A3036 460 60 -1400 320/07 RMK AO2
14837KMSN MSN20031106092009611/06/03 09:20:31  5-MIN KMSN 061520Z 35006KT 10SM CLR M01/M08 A3036 460 58 -1300 350/06 RMK AO2
14837KMSN MSN20031106092509611/06/03 09:25:31  5-MIN KMSN 061525Z 35006KT 10SM CLR M01/M08 A3036 460 58 -1300 340/06 RMK AO2
14837KMSN MSN20031106093009611/06/03 09:30:31  5-MIN KMSN 061530Z 33005KT 10SM CLR M01/M08 A3037 460 60 -1300 330/05 RMK AO2
14837KMSN MSN20031106093509611/06/03 09:35:31  5-MIN KMSN 061535Z 34006KT 10SM CLR M01/M07 A3037 460 63 -1300 340/06 RMK AO2
14837KMSN MSN20031106094009611/06/03 09:40:31  5-MIN KMSN 061540Z 34006KT 10SM CLR M01/M08 A3036 460 56 -1200 340/06 RMK AO2
14837KMSN MSN20031106094509611/06/03 09:45:31  5-MIN KMSN 061545Z 34006KT 10SM CLR M01/M08 A3036 460 58 -1300 340/06 RMK AO2
14837KMSN MSN20031106095011311/06/03 09:50:31  5-MIN KMSN 061550Z 29005KT 10SM CLR M01/M08 A3037 450 58 -1300 290/05 RMK AO2 SLP294 T10111083
14837KMSN MSN20031106095509611/06/03 09:55:31  5-MIN KMSN 061555Z 29006KT 10SM CLR M01/M09 A3037 450 53 -1200 280/06 RMK AO2
14837KMSN MSN20031106100009611/06/03 10:00:31  5-MIN KMSN 061600Z VRB05KT 10SM CLR M01/M09 A3037 450 53 -1300 VRB/05 RMK AO2
14837KMSN MSN20031106100509611/06/03 10:05:31  5-MIN KMSN 061605Z VRB04KT 10SM CLR M01/M09 A3037 450 53 -1300 VRB/04 RMK AO2
14837KMSN MSN20031106101009611/06/03 10:10:31  5-MIN KMSN 061610Z 32007KT 10SM CLR M01/M10 A3037 450 49 -1200 310/07 RMK AO2
14837KMSN MSN20031106101509611/06/03 10:15:31  5-MIN KMSN 061615Z VRB06KT 10SM CLR M01/M10 A3036 460 49 -1200 VRB/06 RMK AO2
14837KMSN MSN20031106102009611/06/03 10:20:31  5-MIN KMSN 061620Z 33004KT 10SM CLR M01/M10 A3036 460 49 -1200 330/04 RMK AO2
14837KMSN MSN20031106102509611/06/03 10:25:31  5-MIN KMSN 061625Z VRB06KT 10SM CLR M01/M10 A3036 460 49 -1200 VRB/06 RMK AO2
14837KMSN MSN20031106103009511/06/03 10:30:31  5-MIN KMSN 061630Z VRB06KT 10SM CLR 00/M10 A3036 460 47 -1200 VRB/06 RMK AO2
14837KMSN MSN20031106103509511/06/03 10:35:31  5-MIN KMSN 061635Z 32005KT 10SM CLR 00/M11 A3036 460 45 -1200 320/05 RMK AO2
14837KMSN MSN20031106104009511/06/03 10:40:31  5-MIN KMSN 061640Z 31006KT 10SM CLR 00/M10 A3036 460 47 -1200 310/06 RMK AO2
14837KMSN MSN20031106104509511/06/03 10:45:31  5-MIN KMSN 061645Z 31005KT 10SM CLR 00/M10 A3036 460 47 -1200 310/05 RMK AO2
14837KMSN MSN20031106105011211/06/03 10:50:31  5-MIN KMSN 061650Z 30007KT 10SM CLR 01/M09 A3036 460 49 -1100 300/07 RMK AO2 SLP291 T00061089
14837KMSN MSN20031106105509511/06/03 10:55:31  5-MIN KMSN 061655Z 29005KT 10SM CLR 01/M09 A3036 460 49 -1100 290/05 RMK AO2
14837KMSN MSN20031106110009511/06/03 11:00:31  5-MIN KMSN 061700Z VRB03KT 10SM CLR 01/M09 A3036 460 47 -1100 VRB/03 RMK AO2
14837KMSN MSN20031106110509511/06/03 11:05:31  5-MIN KMSN 061705Z 26007KT 10SM CLR 01/M09 A3036 460 49 -1100 260/07 RMK AO2
14837KMSN MSN20031106111009511/06/03 11:10:31  5-MIN KMSN 061710Z VRB06KT 10SM CLR 01/M09 A3036 460 45 -1000 VRB/06 RMK AO2
14837KMSN MSN20031106111509511/06/03 11:15:31  5-MIN KMSN 061715Z VRB05KT 10SM CLR 01/M11 A3035 470 41 -1000 VRB/05 RMK AO2
14837KMSN MSN20031106112009511/06/03 11:20:31  5-MIN KMSN 061720Z 30007KT 10SM CLR 02/M11 A3035 470 40 -1000 300/07 RMK AO2
14837KMSN MSN20031106112509511/06/03 11:25:31  5-MIN KMSN 061725Z 29005KT 10SM CLR 01/M11 A3035 470 41 -1000 290/05 RMK AO2
14837KMSN MSN20031106113009511/06/03 11:30:31  5-MIN KMSN 061730Z VRB05KT 10SM CLR 01/M10 A3035 470 43 -1000 VRB/05 RMK AO2
14837KMSN MSN20031106113509511/06/03 11:35:31  5-MIN KMSN 061735Z 25007KT 10SM CLR 01/M11 A3034 470 40 -1000 250/07 RMK AO2
14837KMSN MSN20031106114009511/06/03 11:40:31  5-MIN KMSN 061740Z 26008KT 10SM CLR 01/M12 A3034 480 38 -1000 260/08 RMK AO2
14837KMSN MSN20031106114509511/06/03 11:45:31  5-MIN KMSN 061745Z 30008KT 10SM CLR 01/M12 A3034 480 38 -1000 300/08 RMK AO2
14837KMSN MSN20031106115013011/06/03 11:50:31  5-MIN KMSN 061750Z 29008KT 10SM CLR 01/M12 A3034 480 36 -1000 290/08 RMK AO2 SLP283 T00111122 10017 21039 52012
14837KMSN MSN20031106115511111/06/03 11:55:31  5-MIN KMSN 061755Z 29007KT 250V330 10SM CLR 01/M11 A3033 490 40 -1000 290/07 250V330 RMK AO2
14837KMSN MSN20031106120009411/06/03 12:00:31  5-MIN KMSN 061800Z 31006KT 10SM CLR 02/M10 A3033 490 42 -900 310/06 RMK AO2
14837KMSN MSN20031106120511011/06/03 12:05:31  5-MIN KMSN 061805Z 26007KT 230V290 10SM CLR 02/M11 A3033 490 38 -900 260/07 230V290 RMK AO2
14837KMSN MSN20031106121009411/06/03 12:10:31  5-MIN KMSN 061810Z 27008KT 10SM CLR 02/M12 A3033 490 35 -900 270/08 RMK AO2
14837KMSN MSN20031106121509411/06/03 12:15:31  5-MIN KMSN 061815Z VRB05KT 10SM CLR 02/M12 A3033 490 36 -900 VRB/05 RMK AO2
14837KMSN MSN20031106122009411/06/03 12:20:31  5-MIN KMSN 061820Z 29008KT 10SM CLR 02/M12 A3033 490 35 -900 290/08 RMK AO2
14837KMSN MSN20031106122509411/06/03 12:25:31  5-MIN KMSN 061825Z 27008KT 10SM CLR 02/M13 A3033 490 33 -900 270/08 RMK AO2
14837KMSN MSN20031106123011011/06/03 12:30:31  5-MIN KMSN 061830Z 28008KT 240V310 10SM CLR 02/M13 A3033 490 33 -900 280/08 240V310 RMK AO2
14837KMSN MSN20031106123509411/06/03 12:35:31  5-MIN KMSN 061835Z 30008KT 10SM CLR 02/M13 A3032 490 33 -900 290/08 RMK AO2
14837KMSN MSN20031106124009411/06/03 12:40:31  5-MIN KMSN 061840Z 27006KT 10SM CLR 02/M12 A3032 490 33 -900 270/06 RMK AO2
14837KMSN MSN20031106124509411/06/03 12:45:31  5-MIN KMSN 061845Z 31010KT 10SM CLR 02/M12 A3032 500 33 -800 300/10 RMK AO2
14837KMSN MSN20031106125012711/06/03 12:50:31  5-MIN KMSN 061850Z 29007KT 240V320 10SM CLR 02/M13 A3032 500 31 -800 290/07 240V320 RMK AO2 SLP277 T00221133
14837KMSN MSN20031106125509411/06/03 12:55:31  5-MIN KMSN 061855Z 30008KT 10SM CLR 02/M13 A3032 500 32 -800 300/08 RMK AO2
14837KMSN MSN20031106130009411/06/03 13:00:31  5-MIN KMSN 061900Z 27007KT 10SM CLR 02/M13 A3032 500 32 -900 270/07 RMK AO2
14837KMSN MSN20031106130509411/06/03 13:05:31  5-MIN KMSN 061905Z 26009KT 10SM CLR 02/M12 A3031 500 33 -800 260/09 RMK AO2
14837KMSN MSN20031106131011011/06/03 13:10:31  5-MIN KMSN 061910Z 27007KT 230V290 10SM CLR 02/M12 A3031 500 36 -900 260/07 230V290 RMK AO2
14837KMSN MSN20031106131511011/06/03 13:15:31  5-MIN KMSN 061915Z 27007KT 240V300 10SM CLR 02/M11 A3031 500 37 -800 270/07 240V300 RMK AO2
14837KMSN MSN20031106132009411/06/03 13:20:31  5-MIN KMSN 061920Z VRB03KT 10SM CLR 02/M12 A3031 510 35 -800 VRB/03 RMK AO2
14837KMSN MSN20031106132509411/06/03 13:25:31  5-MIN KMSN 061925Z 29006KT 10SM CLR 03/M11 A3031 510 35 -800 290/06 RMK AO2
14837KMSN MSN20031106133009411/06/03 13:30:31  5-MIN KMSN 061930Z 29007KT 10SM CLR 03/M11 A3031 510 35 -800 290/07 RMK AO2
14837KMSN MSN20031106133509411/06/03 13:35:31  5-MIN KMSN 061935Z 30006KT 10SM CLR 03/M11 A3031 510 35 -800 290/06 RMK AO2
14837KMSN MSN20031106134011011/06/03 13:40:31  5-MIN KMSN 061940Z 29007KT 240V330 10SM CLR 03/M11 A3030 510 37 -800 290/07 240V330 RMK AO2
14837KMSN MSN20031106134509411/06/03 13:45:31  5-MIN KMSN 061945Z 30007KT 10SM CLR 03/M12 A3030 510 34 -800 300/07 RMK AO2
14837KMSN MSN20031106135011111/06/03 13:50:31  5-MIN KMSN 061950Z VRB05KT 10SM CLR 03/M12 A3030 520 32 -800 VRB/05 RMK AO2 SLP270 T00281122
14837KMSN MSN20031106135509411/06/03 13:55:31  5-MIN KMSN 061955Z 26008KT 10SM CLR 03/M12 A3030 520 32 -800 260/08 RMK AO2
14837KMSN MSN20031106140009411/06/03 14:00:31  5-MIN KMSN 062000Z 27005KT 10SM CLR 03/M13 A3029 520 29 -700 260/05 RMK AO2
14837KMSN MSN20031106140509411/06/03 14:05:31  5-MIN KMSN 062005Z 31007KT 10SM CLR 03/M12 A3029 520 32 -700 310/07 RMK AO2
14837KMSN MSN20031106141009411/06/03 14:10:31  5-MIN KMSN 062010Z 28007KT 10SM CLR 03/M12 A3029 520 32 -700 280/07 RMK AO2
14837KMSN MSN20031106141509411/06/03 14:15:31  5-MIN KMSN 062015Z VRB06KT 10SM CLR 03/M12 A3029 530 32 -700 VRB/06 RMK AO2
14837KMSN MSN20031106142009411/06/03 14:20:31  5-MIN KMSN 062020Z 29007KT 10SM CLR 03/M12 A3029 530 32 -700 280/07 RMK AO2
14837KMSN MSN20031106142509411/06/03 14:25:31  5-MIN KMSN 062025Z 27009KT 10SM CLR 03/M12 A3029 530 32 -700 270/09 RMK AO2
14837KMSN MSN20031106143009411/06/03 14:30:31  5-MIN KMSN 062030Z 30009KT 10SM CLR 03/M13 A3029 530 31 -700 300/09 RMK AO2
14837KMSN MSN20031106143509411/06/03 14:35:31  5-MIN KMSN 062035Z 30009KT 10SM CLR 03/M13 A3029 530 29 -700 300/09 RMK AO2
14837KMSN MSN20031106144009411/06/03 14:40:31  5-MIN KMSN 062040Z 31008KT 10SM CLR 03/M13 A3029 530 31 -700 300/08 RMK AO2
14837KMSN MSN20031106144509411/06/03 14:45:31  5-MIN KMSN 062045Z 27007KT 10SM CLR 03/M12 A3028 530 32 -700 270/07 RMK AO2
14837KMSN MSN20031106145011711/06/03 14:50:31  5-MIN KMSN 062050Z VRB06KT 10SM CLR 03/M11 A3028 530 35 -700 VRB/06 RMK AO2 SLP265 T00281111 58009
14837KMSN MSN20031106145509411/06/03 14:55:31  5-MIN KMSN 062055Z VRB05KT 10SM CLR 03/M11 A3028 530 35 -700 VRB/05 RMK AO2
14837KMSN MSN20031106150011011/06/03 15:00:31  5-MIN KMSN 062100Z 27007KT 240V300 10SM CLR 03/M12 A3029 530 34 -700 270/07 240V300 RMK AO2
14837KMSN MSN20031106150509411/06/03 15:05:31  5-MIN KMSN 062105Z 27007KT 10SM CLR 03/M12 A3028 530 34 -700 270/07 RMK AO2
14837KMSN MSN20031106151009411/06/03 15:10:31  5-MIN KMSN 062110Z 29005KT 10SM CLR 03/M12 A3028 530 34 -700 290/05 RMK AO2
14837KMSN MSN20031106151509411/06/03 15:15:31  5-MIN KMSN 062115Z VRB05KT 10SM CLR 03/M11 A3028 530 35 -700 VRB/05 RMK AO2
14837KMSN MSN20031106152009411/06/03 15:20:31  5-MIN KMSN 062120Z VRB06KT 10SM CLR 03/M13 A3028 530 31 -700 VRB/06 RMK AO2
14837KMSN MSN20031106152509411/06/03 15:25:31  5-MIN KMSN 062125Z 29006KT 10SM CLR 03/M13 A3028 530 31 -700 290/06 RMK AO2
14837KMSN MSN20031106153009411/06/03 15:30:31  5-MIN KMSN 062130Z 26006KT 10SM CLR 03/M12 A3028 530 34 -700 260/06 RMK AO2
14837KMSN MSN20031106153509411/06/03 15:35:31  5-MIN KMSN 062135Z 27006KT 10SM CLR 03/M12 A3028 530 34 -700 270/06 RMK AO2
14837KMSN MSN20031106154009411/06/03 15:40:31  5-MIN KMSN 062140Z 26004KT 10SM CLR 03/M12 A3028 530 34 -700 260/04 RMK AO2
14837KMSN MSN20031106154509411/06/03 15:45:31  5-MIN KMSN 062145Z 27006KT 10SM CLR 03/M12 A3028 530 32 -700 270/06 RMK AO2
14837KMSN MSN20031106155011111/06/03 15:50:31  5-MIN KMSN 062150Z VRB04KT 10SM CLR 03/M12 A3028 530 32 -700 VRB/04 RMK AO2 SLP265 T00281122
14837KMSN MSN20031106155509411/06/03 15:55:31  5-MIN KMSN 062155Z 24006KT 10SM CLR 03/M12 A3028 530 32 -700 240/06 RMK AO2
14837KMSN MSN20031106160009411/06/03 16:00:31  5-MIN KMSN 062200Z 25005KT 10SM CLR 02/M12 A3028 530 33 -800 240/05 RMK AO2
14837KMSN MSN20031106160509411/06/03 16:05:31  5-MIN KMSN 062205Z VRB03KT 10SM CLR 02/M12 A3028 530 35 -800 VRB/03 RMK AO2
14837KMSN MSN20031106161009411/06/03 16:10:31  5-MIN KMSN 062210Z VRB05KT 10SM CLR 02/M12 A3028 530 33 -800 VRB/05 RMK AO2
14837KMSN MSN20031106161511011/06/03 16:15:31  5-MIN KMSN 062215Z 24007KT 210V270 10SM CLR 02/M12 A3028 530 33 -800 240/07 210V270 RMK AO2
14837KMSN MSN20031106162009411/06/03 16:20:31  5-MIN KMSN 062220Z VRB04KT 10SM CLR 02/M12 A3028 530 33 -800 VRB/04 RMK AO2
14837KMSN MSN20031106162509411/06/03 16:25:31  5-MIN KMSN 062225Z 25004KT 10SM CLR 02/M12 A3028 530 35 -900 250/04 RMK AO2
14837KMSN MSN20031106163009411/06/03 16:30:31  5-MIN KMSN 062230Z VRB04KT 10SM CLR 02/M12 A3028 530 35 -900 VRB/04 RMK AO2
14837KMSN MSN20031106163509411/06/03 16:35:31  5-MIN KMSN 062235Z 26005KT 10SM CLR 02/M12 A3028 530 36 -900 260/05 RMK AO2
14837KMSN MSN20031106164009411/06/03 16:40:31  5-MIN KMSN 062240Z VRB04KT 10SM CLR 02/M12 A3028 530 36 -900 VRB/04 RMK AO2
14837KMSN MSN20031106164509411/06/03 16:45:31  5-MIN KMSN 062245Z VRB05KT 10SM CLR 02/M12 A3028 530 36 -900 VRB/05 RMK AO2
14837KMSN MSN20031106165011111/06/03 16:50:31  5-MIN KMSN 062250Z VRB04KT 10SM CLR 01/M11 A3028 530 40 -900 VRB/04 RMK AO2 SLP266 T00111111
14837KMSN MSN20031106165509411/06/03 16:55:31  5-MIN KMSN 062255Z 26004KT 10SM CLR 01/M11 A3028 530 40 -900 250/04 RMK AO2
14837KMSN MSN20031106170009411/06/03 17:00:31  5-MIN KMSN 062300Z 26004KT 10SM CLR 01/M11 A3028 530 40 -900 260/04 RMK AO2
14837KMSN MSN20031106170509411/06/03 17:05:31  5-MIN KMSN 062305Z 27004KT 10SM CLR 01/M11 A3028 530 40 -900 270/04 RMK AO2
14837KMSN MSN20031106171009411/06/03 17:10:31  5-MIN KMSN 062310Z VRB04KT 10SM CLR 01/M11 A3028 530 40 -900 VRB/04 RMK AO2
14837KMSN MSN20031106171509411/06/03 17:15:31  5-MIN KMSN 062315Z 26005KT 10SM CLR 01/M12 A3028 530 38 -900 260/05 RMK AO2
14837KMSN MSN20031106172009411/06/03 17:20:31  5-MIN KMSN 062320Z VRB04KT 10SM CLR 01/M12 A3028 530 38 -900 VRB/04 RMK AO2
14837KMSN MSN20031106172509411/06/03 17:25:31  5-MIN KMSN 062325Z VRB04KT 10SM CLR 01/M12 A3028 530 38 -900 VRB/04 RMK AO2
14837KMSN MSN20031106173009411/06/03 17:30:31  5-MIN KMSN 062330Z VRB04KT 10SM CLR 01/M12 A3029 530 38 -900 VRB/04 RMK AO2
14837KMSN MSN20031106173509511/06/03 17:35:31  5-MIN KMSN 062335Z 26004KT 10SM CLR 01/M11 A3029 530 41 -1000 260/04 RMK AO2
14837KMSN MSN20031106174009511/06/03 17:40:31  5-MIN KMSN 062340Z VRB04KT 10SM CLR 01/M11 A3029 530 41 -1000 VRB/04 RMK AO2
14837KMSN MSN20031106174509511/06/03 17:45:31  5-MIN KMSN 062345Z 25003KT 10SM CLR 01/M11 A3029 530 43 -1000 250/03 RMK AO2
14837KMSN MSN20031106175013011/06/03 17:50:31  5-MIN KMSN 062350Z VRB03KT 10SM CLR 00/M11 A3029 530 45 -1100 VRB/03 RMK AO2 SLP267 T00001106 10033 20000 57016
14837KMSN MSN20031106175509511/06/03 17:55:31  5-MIN KMSN 062355Z VRB03KT 10SM CLR 01/M11 A3028 530 43 -1000 VRB/03 RMK AO2
14837KMSN MSN20031106180009511/06/03 18:00:31  5-MIN KMSN 070000Z VRB03KT 10SM CLR 01/M11 A3028 530 43 -1000 VRB/03 RMK AO2
14837KMSN MSN20031106180509511/06/03 18:05:31  5-MIN KMSN 070005Z VRB03KT 10SM CLR 01/M11 A3028 530 41 -1000 VRB/03 RMK AO2
14837KMSN MSN20031106181009411/06/03 18:10:31  5-MIN KMSN 070010Z 25004KT 10SM CLR 01/M11 A3028 530 40 -900 250/04 RMK AO2
14837KMSN MSN20031106181509411/06/03 18:15:31  5-MIN KMSN 070015Z 24004KT 10SM CLR 01/M11 A3028 530 40 -900 240/04 RMK AO2
14837KMSN MSN20031106182009411/06/03 18:20:31  5-MIN KMSN 070020Z 23004KT 10SM CLR 01/M11 A3028 530 41 -900 230/04 RMK AO2
14837KMSN MSN20031106182509411/06/03 18:25:31  5-MIN KMSN 070025Z VRB06KT 10SM CLR 01/M10 A3028 530 43 -900 VRB/06 RMK AO2
14837KMSN MSN20031106183009411/06/03 18:30:31  5-MIN KMSN 070030Z 24006KT 10SM CLR 01/M10 A3029 530 43 -900 240/06 RMK AO2
14837KMSN MSN20031106183509411/06/03 18:35:31  5-MIN KMSN 070035Z 25005KT 10SM CLR 01/M09 A3028 530 45 -900 250/05 RMK AO2
14837KMSN MSN20031106184009411/06/03 18:40:31  5-MIN KMSN 070040Z 24005KT 10SM CLR 01/M10 A3028 530 43 -900 240/05 RMK AO2
14837KMSN MSN20031106184509411/06/03 18:45:31  5-MIN KMSN 070045Z 24006KT 10SM CLR 01/M10 A3028 530 43 -900 240/06 RMK AO2
14837KMSN MSN20031106185011111/06/03 18:50:31  5-MIN KMSN 070050Z 24006KT 10SM CLR 01/M10 A3028 530 43 -900 240/06 RMK AO2 SLP266 T00111100
14837KMSN MSN20031106185509411/06/03 18:55:31  5-MIN KMSN 070055Z 24006KT 10SM CLR 01/M10 A3028 530 43 -900 240/06 RMK AO2
14837KMSN MSN20031106190009411/06/03 19:00:31  5-MIN KMSN 070100Z 24007KT 10SM CLR 01/M10 A3029 530 43 -900 240/07 RMK AO2
14837KMSN MSN20031106190511111/06/03 19:05:31  5-MIN KMSN 070105Z 24007KT 210V270 10SM CLR 01/M10 A3029 530 45 -1000 240/07 210V270 RMK AO2
14837KMSN MSN20031106191009511/06/03 19:10:31  5-MIN KMSN 070110Z VRB06KT 10SM CLR 01/M10 A3029 530 45 -1000 VRB/06 RMK AO2
14837KMSN MSN20031106191511011/06/03 19:15:31  5-MIN KMSN 070115Z 26008KT 230V300 10SM CLR 01/M11 A3029 530 41 -900 260/08 230V300 RMK AO2
14837KMSN MSN20031106192009511/06/03 19:20:31  5-MIN KMSN 070120Z 24006KT 10SM CLR 01/M11 A3029 530 43 -1000 240/06 RMK AO2
14837KMSN MSN20031106192511111/06/03 19:25:31  5-MIN KMSN 070125Z 25007KT 220V280 10SM CLR 01/M11 A3029 530 43 -1000 250/07 220V280 RMK AO2
14837KMSN MSN20031106193009511/06/03 19:30:31  5-MIN KMSN 070130Z VRB06KT 10SM CLR 01/M11 A3029 530 43 -1000 VRB/06 RMK AO2
14837KMSN MSN20031106193509511/06/03 19:35:31  5-MIN KMSN 070135Z VRB06KT 10SM CLR 01/M10 A3029 530 45 -1000 VRB/06 RMK AO2
14837KMSN MSN20031106194009511/06/03 19:40:31  5-MIN KMSN 070140Z VRB05KT 10SM CLR 01/M09 A3029 530 47 -1000 VRB/05 RMK AO2
14837KMSN MSN20031106194509511/06/03 19:45:31  5-MIN KMSN 070145Z 24006KT 10SM CLR 01/M09 A3029 520 47 -1000 240/06 RMK AO2
14837KMSN MSN20031106195011211/06/03 19:50:31  5-MIN KMSN 070150Z 24007KT 10SM CLR 01/M09 A3029 520 49 -1000 240/07 RMK AO2 SLP269 T00061089
14837KMSN MSN20031106195509511/06/03 19:55:31  5-MIN KMSN 070155Z 24009KT 10SM CLR 01/M09 A3029 520 47 -1000 240/09 RMK AO2
14837KMSN MSN20031106200011111/06/03 20:00:31  5-MIN KMSN 070200Z 23008KT 200V270 10SM CLR 01/M09 A3029 530 47 -1000 230/08 200V270 RMK AO2
14837KMSN MSN20031106200511111/06/03 20:05:31  5-MIN KMSN 070205Z 24008KT 210V270 10SM CLR 01/M09 A3029 530 47 -1000 240/08 210V270 RMK AO2
14837KMSN MSN20031106201011111/06/03 20:10:31  5-MIN KMSN 070210Z 25008KT 220V290 10SM CLR 01/M10 A3029 530 45 -1000 250/08 220V290 RMK AO2
14837KMSN MSN20031106201509511/06/03 20:15:31  5-MIN KMSN 070215Z 25008KT 10SM CLR 01/M10 A3029 520 45 -1000 250/08 RMK AO2
14837KMSN MSN20031106202009511/06/03 20:20:31  5-MIN KMSN 070220Z 24006KT 10SM CLR 00/M10 A3029 520 47 -1100 240/06 RMK AO2
14837KMSN MSN20031106202511111/06/03 20:25:31  5-MIN KMSN 070225Z 24007KT 210V270 10SM CLR 00/M10 A3030 520 47 -1100 240/07 210V270 RMK AO2
14837KMSN MSN20031106203011111/06/03 20:30:31  5-MIN KMSN 070230Z 24007KT 210V270 10SM CLR 00/M10 A3029 520 47 -1100 240/07 210V270 RMK AO2
14837KMSN MSN20031106203509511/06/03 20:35:31  5-MIN KMSN 070235Z VRB06KT 10SM CLR 00/M11 A3029 520 45 -1100 VRB/06 RMK AO2
14837KMSN MSN20031106204009511/06/03 20:40:31  5-MIN KMSN 070240Z 24007KT 10SM CLR 00/M11 A3029 520 45 -1100 240/07 RMK AO2
14837KMSN MSN20031106204509511/06/03 20:45:31  5-MIN KMSN 070245Z 24006KT 10SM CLR 00/M11 A3030 520 45 -1100 240/06 RMK AO2
14837KMSN MSN20031106205011811/06/03 20:50:31  5-MIN KMSN 070250Z 24007KT 10SM CLR 00/M11 A3029 520 45 -1100 240/07 RMK AO2 SLP269 T00001106 55000
14837KMSN MSN20031106205509511/06/03 20:55:31  5-MIN KMSN 070255Z 24008KT 10SM CLR 00/M10 A3029 520 47 -1100 240/08 RMK AO2
14837KMSN MSN20031106210009511/06/03 21:00:31  5-MIN KMSN 070300Z 24007KT 10SM CLR 00/M10 A3029 520 47 -1100 240/07 RMK AO2
14837KMSN MSN20031106210511111/06/03 21:05:31  5-MIN KMSN 070305Z 24007KT 190V290 10SM CLR 00/M10 A3030 520 47 -1100 240/07 190V290 RMK AO2
14837KMSN MSN20031106211009511/06/03 21:10:31  5-MIN KMSN 070310Z 24006KT 10SM CLR 00/M10 A3030 520 47 -1100 240/06 RMK AO2
14837KMSN MSN20031106211511111/06/03 21:15:31  5-MIN KMSN 070315Z 24007KT 200V270 10SM CLR 00/M10 A3030 520 47 -1100 240/07 200V270 RMK AO2
14837KMSN MSN20031106212009511/06/03 21:20:31  5-MIN KMSN 070320Z 24007KT 10SM CLR 00/M10 A3030 520 47 -1100 240/07 RMK AO2
14837KMSN MSN20031106212509511/06/03 21:25:31  5-MIN KMSN 070325Z 24007KT 10SM CLR 00/M10 A3030 520 47 -1100 230/07 RMK AO2
14837KMSN MSN20031106213011111/06/03 21:30:31  5-MIN KMSN 070330Z 24007KT 200V280 10SM CLR 00/M10 A3030 520 47 -1100 240/07 200V280 RMK AO2
14837KMSN MSN20031106213509611/06/03 21:35:31  5-MIN KMSN 070335Z 24007KT 10SM CLR M01/M10 A3030 520 49 -1200 240/07 RMK AO2
14837KMSN MSN20031106214009611/06/03 21:40:31  5-MIN KMSN 070340Z 24006KT 10SM CLR M01/M09 A3030 520 51 -1200 240/06 RMK AO2
14837KMSN MSN20031106214511111/06/03 21:45:31  5-MIN KMSN 070345Z 24007KT 210V270 10SM CLR 00/M10 A3030 520 47 -1100 240/07 210V270 RMK AO2
14837KMSN MSN20031106215011311/06/03 21:50:31  5-MIN KMSN 070350Z 24006KT 10SM CLR M01/M10 A3030 520 49 -1200 240/06 RMK AO2 SLP271 T10061100
14837KMSN MSN20031106215509511/06/03 21:55:31  5-MIN KMSN 070355Z 24009KT 10SM CLR 00/M10 A3030 520 47 -1100 240/09 RMK AO2
14837KMSN MSN20031106220009511/06/03 22:00:31  5-MIN KMSN 070400Z VRB06KT 10SM CLR 00/M10 A3030 520 47 -1100 VRB/06 RMK AO2
14837KMSN MSN20031106220509511/06/03 22:05:31  5-MIN KMSN 070405Z 24007KT 10SM CLR 00/M09 A3030 520 49 -1100 230/07 RMK AO2
14837KMSN MSN20031106221011111/06/03 22:10:31  5-MIN KMSN 070410Z 23008KT 190V260 10SM CLR 00/M09 A3030 520 49 -1100 230/08 190V260 RMK AO2
14837KMSN MSN20031106221509511/06/03 22:15:31  5-MIN KMSN 070415Z VRB06KT 10SM CLR 00/M09 A3030 520 49 -1100 VRB/06 RMK AO2
14837KMSN MSN20031106222009511/06/03 22:20:31  5-MIN KMSN 070420Z 25006KT 10SM CLR 00/M09 A3029 520 49 -1100 250/06 RMK AO2
14837KMSN MSN20031106222509511/06/03 22:25:31  5-MIN KMSN 070425Z 25006KT 10SM CLR 00/M09 A3029 520 49 -1100 250/06 RMK AO2
14837KMSN MSN20031106223009511/06/03 22:30:31  5-MIN KMSN 070430Z VRB06KT 10SM CLR 00/M09 A3029 520 49 -1100 VRB/06 RMK AO2
14837KMSN MSN20031106223511211/06/03 22:35:31  5-MIN KMSN 070435Z 24007KT 210V280 10SM CLR M01/M09 A3029 520 51 -1200 240/07 210V280 RMK AO2
14837KMSN MSN20031106224011111/06/03 22:40:31  5-MIN KMSN 070440Z 25008KT 220V300 10SM CLR 00/M09 A3029 530 49 -1100 250/08 220V300 RMK AO2
14837KMSN MSN20031106224509611/06/03 22:45:31  5-MIN KMSN 070445Z 24007KT 10SM CLR M01/M09 A3029 530 51 -1200 240/07 RMK AO2
14837KMSN MSN20031106225012911/06/03 22:50:31  5-MIN KMSN 070450Z 24007KT 210V290 10SM CLR M01/M09 A3029 530 51 -1200 240/07 210V290 RMK AO2 SLP266 T10061094
14837KMSN MSN20031106225511211/06/03 22:55:31  5-MIN KMSN 070455Z 23007KT 190V260 10SM CLR M01/M09 A3029 530 51 -1200 230/07 190V260 RMK AO2
14837KMSN MSN20031106230009611/06/03 23:00:31  5-MIN KMSN 070500Z 24008KT 10SM CLR M01/M09 A3029 520 53 -1200 240/08 RMK AO2
14837KMSN MSN20031106230509611/06/03 23:05:31  5-MIN KMSN 070505Z 24006KT 10SM CLR M01/M09 A3029 520 53 -1200 240/06 RMK AO2
14837KMSN MSN20031106231009611/06/03 23:10:31  5-MIN KMSN 070510Z 23007KT 10SM CLR M01/M09 A3029 520 53 -1200 230/07 RMK AO2
14837KMSN MSN20031106231511811/06/03 23:15:31  5-MIN KMSN 070515Z 24009G14KT 210V280 10SM CLR M01/M08 A3029 520 56 -1200 240/09G14 210V280 RMK AO2
14837KMSN MSN20031106232010111/06/03 23:20:31  5-MIN KMSN 070520Z 23006G14KT 10SM CLR 00/M08 A3029 520 53 -1100 230/06G14 RMK AO2
14837KMSN MSN20031106232509611/06/03 23:25:31  5-MIN KMSN 070525Z 23007KT 10SM CLR M01/M08 A3029 520 56 -1200 230/07 RMK AO2
14837KMSN MSN20031106233009611/06/03 23:30:31  5-MIN KMSN 070530Z 23007KT 10SM CLR M01/M08 A3029 520 56 -1200 230/07 RMK AO2
14837KMSN MSN20031106233511211/06/03 23:35:31  5-MIN KMSN 070535Z 23008KT 200V300 10SM CLR M01/M08 A3029 530 58 -1200 230/08 200V300 RMK AO2
14837KMSN MSN20031106234011211/06/03 23:40:31  5-MIN KMSN 070540Z 24008KT 220V280 10SM CLR M01/M08 A3029 520 58 -1200 240/08 220V280 RMK AO2
14837KMSN MSN20031106234509611/06/03 23:45:31  5-MIN KMSN 070545Z 23006KT 10SM CLR M01/M08 A3029 530 58 -1200 230/06 RMK AO2
14837KMSN MSN20031106235014111/06/03 23:50:31  5-MIN KMSN 070550Z 25007KT 10SM CLR M01/M07 A3029 530 61 -1200 250/07 RMK AO2 SLP266 T10061072 10011 21006 400331039 53003
14837KMSN MSN20031106235509611/06/03 23:55:31  5-MIN KMSN 070555Z 24008KT 10SM CLR M01/M07 A3029 530 61 -1200 240/08 RMK AO2
14837KMSN MSN20031107000009611/07/03 00:00:31  5-MIN KMSN 070600Z VRB05KT 10SM CLR M01/M07 A3029 530 61 -1200 VRB/05 RMK AO2
14837KMSN MSN20031107000511211/07/03 00:05:31  5-MIN KMSN 070605Z 23007KT 180V280 10SM CLR M01/M07 A3029 530 61 -1200 230/07 180V280 RMK AO2
14837KMSN MSN20031107001011211/07/03 00:10:31  5-MIN KMSN 070610Z 25009KT 210V270 10SM CLR M01/M07 A3029 530 61 -1200 250/09 210V270 RMK AO2
14837KMSN MSN20031107001511211/07/03 00:15:31  5-MIN KMSN 070615Z 23008KT 200V270 10SM CLR M01/M07 A3029 530 61 -1200 230/08 200V270 RMK AO2
14837KMSN MSN20031107002009611/07/03 00:20:31  5-MIN KMSN 070620Z 25009KT 10SM CLR M01/M08 A3029 530 58 -1200 250/09 RMK AO2
14837KMSN MSN20031107002509611/07/03 00:25:31  5-MIN KMSN 070625Z VRB06KT 10SM CLR M01/M08 A3028 530 58 -1200 VRB/06 RMK AO2
14837KMSN MSN20031107003009611/07/03 00:30:31  5-MIN KMSN 070630Z VRB06KT 10SM CLR M01/M08 A3029 530 58 -1200 VRB/06 RMK AO2
14837KMSN MSN20031107003509611/07/03 00:35:31  5-MIN KMSN 070635Z 25007KT 10SM CLR M01/M08 A3028 530 58 -1200 250/07 RMK AO2
14837KMSN MSN20031107004011211/07/03 00:40:31  5-MIN KMSN 070640Z 25007KT 210V290 10SM CLR M01/M08 A3028 530 58 -1200 250/07 210V290 RMK AO2
14837KMSN MSN20031107004509611/07/03 00:45:31  5-MIN KMSN 070645Z 25007KT 10SM CLR M01/M08 A3028 530 58 -1200 240/07 RMK AO2
14837KMSN MSN20031107005012911/07/03 00:50:31  5-MIN KMSN 070650Z 24007KT 210V280 10SM CLR M01/M08 A3028 530 58 -1100 240/07 210V280 RMK AO2 SLP262 T10061078
14837KMSN MSN20031107005509611/07/03 00:55:31  5-MIN KMSN 070655Z 24007KT 10SM CLR M01/M08 A3028 540 60 -1200 240/07 RMK AO2
14837KMSN MSN20031107010009611/07/03 01:00:31  5-MIN KMSN 070700Z 24006KT 10SM CLR M01/M08 A3028 540 58 -1100 240/06 RMK AO2
14837KMSN MSN20031107010509611/07/03 01:05:31  5-MIN KMSN 070705Z 24008KT 10SM CLR M01/M07 A3028 540 61 -1100 240/08 RMK AO2
14837KMSN MSN20031107011009611/07/03 01:10:31  5-MIN KMSN 070710Z VRB05KT 10SM CLR M01/M07 A3028 530 61 -1100 VRB/05 RMK AO2
14837KMSN MSN20031107011509611/07/03 01:15:31  5-MIN KMSN 070715Z 25007KT 10SM CLR M01/M07 A3028 530 61 -1200 250/07 RMK AO2
14837KMSN MSN20031107012009611/07/03 01:20:31  5-MIN KMSN 070720Z 24008KT 10SM CLR M01/M08 A3028 530 58 -1200 240/08 RMK AO2
14837KMSN MSN20031107012511211/07/03 01:25:31  5-MIN KMSN 070725Z 25007KT 200V290 10SM CLR M01/M08 A3028 530 60 -1200 250/07 200V290 RMK AO2
14837KMSN MSN20031107013009611/07/03 01:30:31  5-MIN KMSN 070730Z 25008KT 10SM CLR M01/M08 A3028 530 60 -1200 250/08 RMK AO2
14837KMSN MSN20031107013509611/07/03 01:35:31  5-MIN KMSN 070735Z VRB06KT 10SM CLR M01/M08 A3028 530 60 -1200 VRB/06 RMK AO2
14837KMSN MSN20031107014011211/07/03 01:40:31  5-MIN KMSN 070740Z 25007KT 220V280 10SM CLR M01/M08 A3028 530 60 -1200 250/07 220V280 RMK AO2
14837KMSN MSN20031107014509611/07/03 01:45:31  5-MIN KMSN 070745Z VRB05KT 10SM CLR M01/M08 A3028 530 60 -1200 VRB/05 RMK AO2
14837KMSN MSN20031107015011311/07/03 01:50:31  5-MIN KMSN 070750Z 24007KT 10SM CLR M01/M08 A3028 530 60 -1200 240/07 RMK AO2 SLP262 T10111078
14837KMSN MSN20031107015509611/07/03 01:55:31  5-MIN KMSN 070755Z 24009KT 10SM CLR M01/M08 A3028 540 60 -1200 240/09 RMK AO2
14837KMSN MSN20031107020009611/07/03 02:00:31  5-MIN KMSN 070800Z 25008KT 10SM CLR M01/M08 A3028 540 60 -1200 240/08 RMK AO2
14837KMSN MSN20031107020509611/07/03 02:05:31  5-MIN KMSN 070805Z VRB06KT 10SM CLR M01/M08 A3028 530 60 -1200 VRB/06 RMK AO2
14837KMSN MSN20031107021009611/07/03 02:10:31  5-MIN KMSN 070810Z 24007KT 10SM CLR M01/M08 A3028 540 60 -1200 240/07 RMK AO2
14837KMSN MSN20031107021511211/07/03 02:15:31  5-MIN KMSN 070815Z 25007KT 210V280 10SM CLR M01/M08 A3027 540 60 -1200 250/07 210V280 RMK AO2
14837KMSN MSN20031107022009611/07/03 02:20:31  5-MIN KMSN 070820Z 24006KT 10SM CLR M01/M08 A3027 540 60 -1200 240/06 RMK AO2
14837KMSN MSN20031107022509611/07/03 02:25:31  5-MIN KMSN 070825Z 24007KT 10SM CLR M01/M08 A3027 540 60 -1200 240/07 RMK AO2
14837KMSN MSN20031107023009611/07/03 02:30:31  5-MIN KMSN 070830Z 24008KT 10SM CLR M01/M08 A3027 540 60 -1200 240/08 RMK AO2
14837KMSN MSN20031107023509611/07/03 02:35:31  5-MIN KMSN 070835Z 25007KT 10SM CLR M01/M08 A3027 540 60 -1200 240/07 RMK AO2
14837KMSN MSN20031107024009611/07/03 02:40:31  5-MIN KMSN 070840Z 24007KT 10SM CLR M01/M07 A3027 540 63 -1200 240/07 RMK AO2
14837KMSN MSN20031107024509611/07/03 02:45:31  5-MIN KMSN 070845Z VRB06KT 10SM CLR M01/M07 A3027 540 63 -1200 VRB/06 RMK AO2
14837KMSN MSN20031107025013511/07/03 02:50:31  5-MIN KMSN 070850Z 24007KT 210V270 10SM CLR M01/M07 A3027 540 63 -1200 240/07 210V270 RMK AO2 SLP259 T10111072 58001
14837KMSN MSN20031107025509611/07/03 02:55:31  5-MIN KMSN 070855Z 25008KT 10SM CLR M01/M07 A3027 540 66 -1200 250/08 RMK AO2
14837KMSN MSN20031107030009611/07/03 03:00:31  5-MIN KMSN 070900Z 26007KT 10SM CLR M01/M07 A3027 540 66 -1200 260/07 RMK AO2
14837KMSN MSN20031107030509611/07/03 03:05:31  5-MIN KMSN 070905Z 25004KT 10SM CLR M01/M07 A3027 540 66 -1200 240/04 RMK AO2
14837KMSN MSN20031107031011211/07/03 03:10:31  5-MIN KMSN 070910Z 26007KT 230V300 10SM CLR M02/M07 A3027 540 69 -1300 260/07 230V300 RMK AO2
14837KMSN MSN20031107031509611/07/03 03:15:31  5-MIN KMSN 070915Z 26005KT 10SM CLR M02/M07 A3027 540 69 -1300 260/05 RMK AO2
14837KMSN MSN20031107032009611/07/03 03:20:31  5-MIN KMSN 070920Z VRB05KT 10SM CLR M02/M07 A3027 540 69 -1300 VRB/05 RMK AO2
14837KMSN MSN20031107032509611/07/03 03:25:31  5-MIN KMSN 070925Z VRB05KT 10SM CLR M02/M07 A3027 540 69 -1300 VRB/05 RMK AO2
14837KMSN MSN20031107033009611/07/03 03:30:31  5-MIN KMSN 070930Z VRB06KT 10SM CLR M02/M07 A3027 540 69 -1300 VRB/06 RMK AO2
14837KMSN MSN20031107033509611/07/03 03:35:31  5-MIN KMSN 070935Z 26007KT 10SM CLR M02/M07 A3027 540 69 -1300 260/07 RMK AO2
14837KMSN MSN20031107034009611/07/03 03:40:31  5-MIN KMSN 070940Z VRB03KT 10SM CLR M02/M07 A3027 540 69 -1300 VRB/03 RMK AO2
14837KMSN MSN20031107034509611/07/03 03:45:31  5-MIN KMSN 070945Z VRB05KT 10SM CLR M02/M07 A3028 540 69 -1300 VRB/05 RMK AO2
14837KMSN MSN20031107035011311/07/03 03:50:31  5-MIN KMSN 070950Z VRB06KT 10SM CLR M02/M07 A3028 540 72 -1400 VRB/06 RMK AO2 SLP263 T10221067
14837KMSN MSN20031107035509611/07/03 03:55:31  5-MIN KMSN 070955Z 25005KT 10SM CLR M02/M07 A3028 530 69 -1300 250/05 RMK AO2
14837KMSN MSN20031107040009611/07/03 04:00:31  5-MIN KMSN 071000Z VRB05KT 10SM CLR M02/M07 A3028 530 72 -1400 VRB/05 RMK AO2
14837KMSN MSN20031107040509611/07/03 04:05:31  5-MIN KMSN 071005Z VRB04KT 10SM CLR M02/M07 A3028 530 72 -1400 VRB/04 RMK AO2
14837KMSN MSN20031107041009611/07/03 04:10:31  5-MIN KMSN 071010Z VRB03KT 10SM CLR M02/M07 A3028 530 72 -1400 VRB/03 RMK AO2
14837KMSN MSN20031107041509611/07/03 04:15:31  5-MIN KMSN 071015Z VRB05KT 10SM CLR M02/M07 A3028 530 72 -1400 VRB/05 RMK AO2
14837KMSN MSN20031107042009611/07/03 04:20:31  5-MIN KMSN 071020Z VRB04KT 10SM CLR M02/M07 A3028 530 72 -1400 VRB/04 RMK AO2
14837KMSN MSN20031107042509611/07/03 04:25:31  5-MIN KMSN 071025Z VRB04KT 10SM CLR M02/M07 A3028 530 72 -1400 VRB/04 RMK AO2
14837KMSN MSN20031107043009611/07/03 04:30:31  5-MIN KMSN 071030Z VRB05KT 10SM CLR M02/M07 A3028 530 72 -1400 VRB/05 RMK AO2
14837KMSN MSN20031107043509611/07/03 04:35:31  5-MIN KMSN 071035Z VRB05KT 10SM CLR M02/M07 A3028 530 72 -1400 VRB/05 RMK AO2
14837KMSN MSN20031107044009611/07/03 04:40:31  5-MIN KMSN 071040Z VRB06KT 10SM CLR M02/M07 A3028 530 72 -1400 VRB/06 RMK AO2
14837KMSN MSN20031107044509611/07/03 04:45:31  5-MIN KMSN 071045Z VRB04KT 10SM CLR M02/M07 A3028 530 69 -1400 VRB/04 RMK AO2
14837KMSN MSN20031107045011311/07/03 04:50:31  5-MIN KMSN 071050Z VRB05KT 10SM CLR M02/M07 A3029 530 69 -1400 VRB/05 RMK AO2 SLP267 T10221072
14837KMSN MSN20031107045509611/07/03 04:55:31  5-MIN KMSN 071055Z VRB05KT 10SM CLR M02/M07 A3029 520 69 -1400 VRB/05 RMK AO2
14837KMSN MSN20031107050009611/07/03 05:00:31  5-MIN KMSN 071100Z VRB05KT 10SM CLR M02/M07 A3029 520 69 -1400 VRB/05 RMK AO2
14837KMSN MSN20031107050509611/07/03 05:05:31  5-MIN KMSN 071105Z VRB05KT 10SM CLR M02/M07 A3029 520 69 -1400 VRB/05 RMK AO2
14837KMSN MSN20031107051009611/07/03 05:10:31  5-MIN KMSN 071110Z VRB05KT 10SM CLR M02/M07 A3029 520 69 -1400 VRB/05 RMK AO2
14837KMSN MSN20031107051509611/07/03 05:15:31  5-MIN KMSN 071115Z 25006KT 10SM CLR M02/M07 A3029 520 69 -1400 250/06 RMK AO2
14837KMSN MSN20031107052009611/07/03 05:20:31  5-MIN KMSN 071120Z 25005KT 10SM CLR M02/M07 A3029 520 69 -1400 250/05 RMK AO2
14837KMSN MSN20031107052509611/07/03 05:25:31  5-MIN KMSN 071125Z VRB06KT 10SM CLR M02/M07 A3029 520 69 -1400 VRB/06 RMK AO2
14837KMSN MSN20031107053009611/07/03 05:30:31  5-MIN KMSN 071130Z VRB06KT 10SM CLR M02/M08 A3029 520 66 -1400 VRB/06 RMK AO2
14837KMSN MSN20031107053509611/07/03 05:35:31  5-MIN KMSN 071135Z 25007KT 10SM CLR M02/M08 A3029 520 66 -1400 250/07 RMK AO2
14837KMSN MSN20031107054009611/07/03 05:40:31  5-MIN KMSN 071140Z 27006KT 10SM CLR M02/M08 A3029 520 66 -1400 260/06 RMK AO2
14837KMSN MSN20031107054509611/07/03 05:45:31  5-MIN KMSN 071145Z 25006KT 10SM CLR M02/M08 A3029 520 66 -1400 250/06 RMK AO2
14837KMSN MSN20031107055013111/07/03 05:50:31  5-MIN KMSN 071150Z VRB06KT 10SM CLR M02/M08 A3029 520 66 -1400 VRB/06 RMK AO2 SLP270 T10221078 11006 21022 56006
14837KMSN MSN20031107055509611/07/03 05:55:31  5-MIN KMSN 071155Z 27007KT 10SM CLR M02/M08 A3029 520 66 -1400 270/07 RMK AO2
14837KMSN MSN20031107060009611/07/03 06:00:31  5-MIN KMSN 071200Z VRB05KT 10SM CLR M02/M08 A3030 520 66 -1400 VRB/05 RMK AO2
14837KMSN MSN20031107060509611/07/03 06:05:31  5-MIN KMSN 071205Z 26007KT 10SM CLR M02/M08 A3030 520 66 -1400 260/07 RMK AO2
14837KMSN MSN20031107061009611/07/03 06:10:31  5-MIN KMSN 071210Z 27006KT 10SM CLR M02/M08 A3030 520 66 -1400 270/06 RMK AO2
14837KMSN MSN20031107061509611/07/03 06:15:31  5-MIN KMSN 071215Z VRB06KT 10SM CLR M03/M08 A3029 520 68 -1400 VRB/06 RMK AO2
14837KMSN MSN20031107062009611/07/03 06:20:31  5-MIN KMSN 071220Z 27005KT 10SM CLR M03/M08 A3029 520 68 -1400 270/05 RMK AO2
14837KMSN MSN20031107062509611/07/03 06:25:31  5-MIN KMSN 071225Z VRB05KT 10SM CLR M03/M08 A3030 520 68 -1400 VRB/05 RMK AO2
14837KMSN MSN20031107063009611/07/03 06:30:31  5-MIN KMSN 071230Z 27005KT 10SM CLR M03/M08 A3030 520 68 -1400 270/05 RMK AO2
14837KMSN MSN20031107063509611/07/03 06:35:31  5-MIN KMSN 071235Z 28006KT 10SM CLR M03/M08 A3029 520 68 -1400 280/06 RMK AO2
14837KMSN MSN20031107064009611/07/03 06:40:31  5-MIN KMSN 071240Z 28005KT 10SM CLR M03/M08 A3029 520 68 -1400 270/05 RMK AO2
14837KMSN MSN20031107064509611/07/03 06:45:31  5-MIN KMSN 071245Z 27005KT 10SM CLR M03/M08 A3029 520 68 -1400 270/05 RMK AO2
14837KMSN MSN20031107065011311/07/03 06:50:31  5-MIN KMSN 071250Z VRB05KT 10SM CLR M03/M08 A3030 520 68 -1500 VRB/05 RMK AO2 SLP271 T10281078
14837KMSN MSN20031107065509611/07/03 06:55:31  5-MIN KMSN 071255Z 26006KT 10SM CLR M03/M08 A3030 510 68 -1500 260/06 RMK AO2
14837KMSN MSN20031107070009611/07/03 07:00:31  5-MIN KMSN 071300Z VRB05KT 10SM CLR M03/M08 A3030 510 68 -1500 VRB/05 RMK AO2
14837KMSN MSN20031107070509611/07/03 07:05:31  5-MIN KMSN 071305Z VRB04KT 10SM CLR M03/M08 A3030 510 68 -1500 VRB/04 RMK AO2
14837KMSN MSN20031107071009611/07/03 07:10:31  5-MIN KMSN 071310Z VRB05KT 10SM CLR M03/M08 A3030 510 68 -1500 VRB/05 RMK AO2
14837KMSN MSN20031107071509611/07/03 07:15:31  5-MIN KMSN 071315Z 26005KT 10SM CLR M03/M08 A3031 510 68 -1500 260/05 RMK AO2
14837KMSN MSN20031107072009611/07/03 07:20:31  5-MIN KMSN 071320Z VRB04KT 10SM CLR M03/M08 A3031 510 68 -1500 VRB/04 RMK AO2
14837KMSN MSN20031107072509611/07/03 07:25:31  5-MIN KMSN 071325Z VRB06KT 10SM CLR M03/M08 A3031 500 68 -1500 VRB/06 RMK AO2
14837KMSN MSN20031107073009611/07/03 07:30:31  5-MIN KMSN 071330Z VRB05KT 10SM CLR M02/M08 A3031 500 66 -1400 VRB/05 RMK AO2
14837KMSN MSN20031107073509611/07/03 07:35:31  5-MIN KMSN 071335Z VRB06KT 10SM CLR M02/M08 A3032 500 66 -1400 VRB/06 RMK AO2
14837KMSN MSN20031107074009611/07/03 07:40:31  5-MIN KMSN 071340Z VRB05KT 10SM CLR M02/M08 A3032 500 63 -1400 VRB/05 RMK AO2
14837KMSN MSN20031107074509611/07/03 07:45:31  5-MIN KMSN 071345Z 27006KT 10SM CLR M02/M08 A3032 490 63 -1400 270/06 RMK AO2
14837KMSN MSN20031107075011311/07/03 07:50:31  5-MIN KMSN 071350Z 27007KT 10SM CLR M02/M08 A3032 490 63 -1400 270/07 RMK AO2 SLP280 T10221083
14837KMSN MSN20031107075509611/07/03 07:55:31  5-MIN KMSN 071355Z 26007KT 10SM CLR M02/M08 A3033 490 63 -1400 260/07 RMK AO2
14837KMSN MSN20031107080009611/07/03 08:00:31  5-MIN KMSN 071400Z 27007KT 10SM CLR M02/M08 A3033 490 60 -1300 270/07 RMK AO2
14837KMSN MSN20031107080509611/07/03 08:05:31  5-MIN KMSN 071405Z VRB05KT 10SM CLR M02/M08 A3033 490 60 -1300 VRB/05 RMK AO2
14837KMSN MSN20031107081009611/07/03 08:10:31  5-MIN KMSN 071410Z VRB06KT 10SM CLR M02/M08 A3033 490 60 -1300 VRB/06 RMK AO2
14837KMSN MSN20031107081509611/07/03 08:15:31  5-MIN KMSN 071415Z 28010KT 10SM CLR M02/M08 A3033 490 60 -1400 270/10 RMK AO2
14837KMSN MSN20031107082009611/07/03 08:20:31  5-MIN KMSN 071420Z 27009KT 10SM CLR M02/M08 A3033 490 60 -1400 270/09 RMK AO2
14837KMSN MSN20031107082509611/07/03 08:25:31  5-MIN KMSN 071425Z 29008KT 10SM CLR M02/M08 A3033 480 60 -1400 290/08 RMK AO2
14837KMSN MSN20031107083009611/07/03 08:30:31  5-MIN KMSN 071430Z 26009KT 10SM CLR M01/M08 A3033 480 58 -1300 250/09 RMK AO2
14837KMSN MSN20031107083509611/07/03 08:35:31  5-MIN KMSN 071435Z 27008KT 10SM CLR M01/M08 A3034 480 58 -1300 270/08 RMK AO2
14837KMSN MSN20031107084009611/07/03 08:40:31  5-MIN KMSN 071440Z 28011KT 10SM CLR M01/M09 A3034 480 55 -1300 280/11 RMK AO2
14837KMSN MSN20031107084509611/07/03 08:45:31  5-MIN KMSN 071445Z 27008KT 10SM CLR M01/M09 A3034 480 55 -1300 270/08 RMK AO2
14837KMSN MSN20031107085014111/07/03 08:50:31  5-MIN KMSN 071450Z 27008G15KT 240V300 10SM CLR M01/M08 A3034 480 56 -1200 270/08G15 240V300 RMK AO2 SLP285 T10061083 51008
14837KMSN MSN20031107085510211/07/03 08:55:31  5-MIN KMSN 071455Z 29009G16KT 10SM CLR M01/M09 A3034 480 53 -1200 290/09G16 RMK AO2
14837KMSN MSN20031107090011811/07/03 09:00:31  5-MIN KMSN 071500Z 28008G16KT 250V320 10SM CLR M01/M09 A3034 480 53 -1200 280/08G16 250V320 RMK AO2
14837KMSN MSN20031107090510211/07/03 09:05:31  5-MIN KMSN 071505Z 28010G16KT 10SM CLR M01/M09 A3034 480 53 -1200 280/10G16 RMK AO2
14837KMSN MSN20031107091010211/07/03 09:10:31  5-MIN KMSN 071510Z 26010G16KT 10SM CLR M01/M09 A3034 470 53 -1200 260/10G16 RMK AO2
14837KMSN MSN20031107091511811/07/03 09:15:31  5-MIN KMSN 071515Z 29010G16KT 260V320 10SM CLR M01/M09 A3035 470 53 -1200 290/10G16 260V320 RMK AO2
14837KMSN MSN20031107092011811/07/03 09:20:31  5-MIN KMSN 071520Z 28007G16KT 220V310 10SM CLR M01/M09 A3035 470 53 -1200 280/07G16 220V310 RMK AO2
14837KMSN MSN20031107092509511/07/03 09:25:31  5-MIN KMSN 071525Z 27010KT 10SM CLR 00/M09 A3035 470 51 -1200 270/10 RMK AO2
14837KMSN MSN20031107093009611/07/03 09:30:31  5-MIN KMSN 071530Z 28009KT 10SM CLR M01/M09 A3035 470 53 -1200 280/09 RMK AO2
14837KMSN MSN20031107093509611/07/03 09:35:31  5-MIN KMSN 071535Z 25010KT 10SM CLR M01/M09 A3035 470 53 -1200 250/10 RMK AO2
14837KMSN MSN20031107094009511/07/03 09:40:31  5-MIN KMSN 071540Z 27008KT 10SM CLR 00/M09 A3035 470 51 -1200 270/08 RMK AO2
14837KMSN MSN20031107094510111/07/03 09:45:31  5-MIN KMSN 071545Z 28010G16KT 10SM CLR 00/M09 A3036 460 51 -1200 280/10G16 RMK AO2
14837KMSN MSN20031107095011811/07/03 09:50:31  5-MIN KMSN 071550Z 28008G16KT 10SM CLR 00/M09 A3035 460 51 -1200 280/08G16 RMK AO2 SLP289 T00001089
14837KMSN MSN20031107095509511/07/03 09:55:31  5-MIN KMSN 071555Z 26011KT 10SM CLR 00/M09 A3036 460 51 -1200 250/11 RMK AO2
14837KMSN MSN20031107100011111/07/03 10:00:31  5-MIN KMSN 071600Z 27009KT 240V310 10SM CLR 00/M09 A3036 460 49 -1200 270/09 240V310 RMK AO2
14837KMSN MSN20031107100509511/07/03 10:05:31  5-MIN KMSN 071605Z 27010KT 10SM CLR 01/M09 A3036 460 47 -1100 270/10 RMK AO2
14837KMSN MSN20031107101011711/07/03 10:10:31  5-MIN KMSN 071610Z 26008G15KT 230V290 10SM CLR 01/M09 A3036 460 47 -1100 260/08G15 230V290 RMK AO2
14837KMSN MSN20031107101510111/07/03 10:15:31  5-MIN KMSN 071615Z 27011G16KT 10SM CLR 01/M09 A3036 460 47 -1100 270/11G16 RMK AO2
14837KMSN MSN20031107102010111/07/03 10:20:31  5-MIN KMSN 071620Z 28011G16KT 10SM CLR 01/M09 A3036 460 47 -1100 280/11G16 RMK AO2
14837KMSN MSN20031107102510111/07/03 10:25:31  5-MIN KMSN 071625Z 27011G17KT 10SM CLR 01/M10 A3036 460 45 -1100 270/11G17 RMK AO2
14837KMSN MSN20031107103010111/07/03 10:30:31  5-MIN KMSN 071630Z 28010G17KT 10SM CLR 01/M09 A3036 460 45 -1000 270/10G17 RMK AO2
14837KMSN MSN20031107103510111/07/03 10:35:31  5-MIN KMSN 071635Z 28008G16KT 10SM CLR 01/M09 A3036 460 47 -1000 280/08G16 RMK AO2
14837KMSN MSN20031107104010111/07/03 10:40:31  5-MIN KMSN 071640Z 27009G15KT 10SM CLR 01/M09 A3035 460 47 -1100 270/09G15 RMK AO2
14837KMSN MSN20031107104510111/07/03 10:45:31  5-MIN KMSN 071645Z 27012G16KT 10SM CLR 01/M09 A3035 470 47 -1000 270/12G16 RMK AO2
14837KMSN MSN20031107105011811/07/03 10:50:31  5-MIN KMSN 071650Z 26011G16KT 10SM CLR 01/M09 A3035 470 47 -1100 260/11G16 RMK AO2 SLP289 T00061094
14837KMSN MSN20031107105509511/07/03 10:55:31  5-MIN KMSN 071655Z 27010KT 10SM CLR 01/M09 A3035 470 47 -1000 270/10 RMK AO2
14837KMSN MSN20031107110009511/07/03 11:00:31  5-MIN KMSN 071700Z 27009KT 10SM CLR 01/M09 A3035 470 47 -1000 270/09 RMK AO2
14837KMSN MSN20031107110509411/07/03 11:05:31  5-MIN KMSN 071705Z 29010KT 10SM CLR 02/M09 A3034 470 45 -900 290/10 RMK AO2
14837KMSN MSN20031107111009411/07/03 11:10:31  5-MIN KMSN 071710Z 26009KT 10SM CLR 02/M09 A3035 470 45 -900 260/09 RMK AO2
14837KMSN MSN20031107111509511/07/03 11:15:31  5-MIN KMSN 071715Z 26010KT 10SM CLR 01/M09 A3034 470 45 -1000 260/10 RMK AO2
14837KMSN MSN20031107112010011/07/03 11:20:31  5-MIN KMSN 071720Z 28009G15KT 10SM CLR 02/M09 A3034 470 45 -900 280/09G15 RMK AO2
14837KMSN MSN20031107112510011/07/03 11:25:31  5-MIN KMSN 071725Z 30012G18KT 10SM CLR 02/M09 A3034 470 43 -900 300/12G18 RMK AO2
14837KMSN MSN20031107113010011/07/03 11:30:31  5-MIN KMSN 071730Z 30013G19KT 10SM CLR 02/M09 A3034 480 43 -900 300/13G19 RMK AO2
14837KMSN MSN20031107113510011/07/03 11:35:31  5-MIN KMSN 071735Z 29012G19KT 10SM CLR 02/M10 A3034 480 42 -900 290/12G19 RMK AO2
14837KMSN MSN20031107114010011/07/03 11:40:31  5-MIN KMSN 071740Z 30010G17KT 10SM CLR 02/M09 A3034 480 43 -900 300/10G17 RMK AO2
14837KMSN MSN20031107114510011/07/03 11:45:31  5-MIN KMSN 071745Z 29011G19KT 10SM CLR 02/M10 A3033 480 42 -900 290/11G19 RMK AO2
14837KMSN MSN20031107115013511/07/03 11:50:31  5-MIN KMSN 071750Z 29012G19KT 10SM CLR 02/M10 A3033 480 42 -900 290/12G19 RMK AO2 SLP282 T00171100 10022 21028 53015
14837KMSN MSN20031107115510011/07/03 11:55:31  5-MIN KMSN 071755Z 29012G18KT 10SM CLR 02/M10 A3033 490 42 -900 290/12G18 RMK AO2
14837KMSN MSN20031107120010011/07/03 12:00:31  5-MIN KMSN 071800Z 30013G18KT 10SM CLR 02/M10 A3033 490 42 -900 300/13G18 RMK AO2
14837KMSN MSN20031107120510011/07/03 12:05:31  5-MIN KMSN 071805Z 28010G16KT 10SM CLR 02/M10 A3033 480 42 -900 280/10G16 RMK AO2
14837KMSN MSN20031107121010011/07/03 12:10:31  5-MIN KMSN 071810Z 30009G16KT 10SM CLR 02/M10 A3033 490 42 -900 300/09G16 RMK AO2
14837KMSN MSN20031107121510011/07/03 12:15:31  5-MIN KMSN 071815Z 29013G18KT 10SM CLR 02/M10 A3033 490 42 -900 290/13G18 RMK AO2
14837KMSN MSN20031107122011611/07/03 12:20:31  5-MIN KMSN 071820Z 29011G18KT 250V320 10SM CLR 02/M11 A3033 480 40 -900 290/11G18 250V320 RMK AO2
14837KMSN MSN20031107122510011/07/03 12:25:31  5-MIN KMSN 071825Z 30013G17KT 10SM CLR 02/M11 A3033 480 38 -900 300/13G17 RMK AO2
14837KMSN MSN20031107123010011/07/03 12:30:31  5-MIN KMSN 071830Z 31012G17KT 10SM CLR 02/M11 A3033 490 38 -900 310/12G17 RMK AO2
14837KMSN MSN20031107123511611/07/03 12:35:31  5-MIN KMSN 071835Z 30012G18KT 280V340 10SM CLR 02/M11 A3033 490 37 -900 290/12G18 280V340 RMK AO2
14837KMSN MSN20031107124010011/07/03 12:40:31  5-MIN KMSN 071840Z 30016G20KT 10SM CLR 02/M11 A3033 480 38 -900 300/16G20 RMK AO2
14837KMSN MSN20031107124510011/07/03 12:45:31  5-MIN KMSN 071845Z 29013G20KT 10SM CLR 02/M12 A3033 480 36 -900 290/13G20 RMK AO2
14837KMSN MSN20031107125011111/07/03 12:50:31  5-MIN KMSN 071850Z 28010KT 10SM CLR 02/M12 A3033 480 35 -900 280/10 RMK AO2 SLP282 T00221117
14837KMSN MSN20031107125509411/07/03 12:55:31  5-MIN KMSN 071855Z 29010KT 10SM CLR 02/M11 A3033 480 37 -900 290/10 RMK AO2
14837KMSN MSN20031107130010011/07/03 13:00:31  5-MIN KMSN 071900Z 29009G17KT 10SM CLR 02/M11 A3033 480 37 -900 290/09G17 RMK AO2
14837KMSN MSN20031107130510011/07/03 13:05:31  5-MIN KMSN 071905Z 28010G17KT 10SM CLR 02/M12 A3034 480 35 -900 280/10G17 RMK AO2
14837KMSN MSN20031107131010011/07/03 13:10:31  5-MIN KMSN 071910Z 28008G16KT 10SM CLR 02/M12 A3033 480 36 -900 280/08G16 RMK AO2
14837KMSN MSN20031107131510011/07/03 13:15:31  5-MIN KMSN 071915Z 31014G17KT 10SM CLR 02/M12 A3033 480 35 -900 310/14G17 RMK AO2
14837KMSN MSN20031107132010011/07/03 13:20:31  5-MIN KMSN 071920Z 30011G17KT 10SM CLR 02/M12 A3034 480 36 -900 300/11G17 RMK AO2
14837KMSN MSN20031107132509411/07/03 13:25:31  5-MIN KMSN 071925Z 31010KT 10SM CLR 02/M12 A3034 480 35 -900 310/10 RMK AO2
14837KMSN MSN20031107133010011/07/03 13:30:31  5-MIN KMSN 071930Z 31014G17KT 10SM CLR 02/M12 A3034 480 36 -900 310/14G17 RMK AO2
14837KMSN MSN20031107133510011/07/03 13:35:31  5-MIN KMSN 071935Z 32011G17KT 10SM CLR 02/M12 A3034 480 36 -900 320/11G17 RMK AO2
14837KMSN MSN20031107134010011/07/03 13:40:31  5-MIN KMSN 071940Z 30013G18KT 10SM CLR 02/M12 A3034 480 36 -900 300/13G18 RMK AO2
14837KMSN MSN20031107134510011/07/03 13:45:31  5-MIN KMSN 071945Z 32011G18KT 10SM CLR 02/M12 A3034 480 36 -900 320/11G18 RMK AO2
14837KMSN MSN20031107135011711/07/03 13:50:31  5-MIN KMSN 071950Z 29011G18KT 10SM CLR 02/M12 A3034 480 35 -900 290/11G18 RMK AO2 SLP286 T00171122
14837KMSN MSN20031107135510011/07/03 13:55:31  5-MIN KMSN 071955Z 29009G18KT 10SM CLR 02/M13 A3034 470 33 -900 290/09G18 RMK AO2
14837KMSN MSN20031107140010011/07/03 14:00:31  5-MIN KMSN 072000Z 29011G16KT 10SM CLR 02/M12 A3035 470 35 -900 290/11G16 RMK AO2
14837KMSN MSN20031107140510111/07/03 14:05:31  5-MIN KMSN 072005Z 30010G16KT 10SM CLR 02/M12 A3035 470 35 -1000 300/10G16 RMK AO2
14837KMSN MSN20031107141011111/07/03 14:10:31  5-MIN KMSN 072010Z 30008KT 270V350 10SM CLR 02/M12 A3035 470 35 -1000 300/08 270V350 RMK AO2
14837KMSN MSN20031107141509511/07/03 14:15:31  5-MIN KMSN 072015Z 31011KT 10SM CLR 02/M12 A3035 470 35 -1000 310/11 RMK AO2
14837KMSN MSN20031107142009511/07/03 14:20:31  5-MIN KMSN 072020Z 32011KT 10SM CLR 02/M12 A3036 460 35 -1000 320/11 RMK AO2
14837KMSN MSN20031107142509511/07/03 14:25:31  5-MIN KMSN 072025Z 30010KT 10SM CLR 02/M12 A3036 460 36 -1000 300/10 RMK AO2
14837KMSN MSN20031107143009511/07/03 14:30:31  5-MIN KMSN 072030Z 32011KT 10SM CLR 02/M12 A3036 460 36 -1000 320/11 RMK AO2
14837KMSN MSN20031107143509511/07/03 14:35:31  5-MIN KMSN 072035Z 32010KT 10SM CLR 01/M12 A3037 450 36 -1000 320/10 RMK AO2
14837KMSN MSN20031107144010111/07/03 14:40:31  5-MIN KMSN 072040Z 32010G15KT 10SM CLR 02/M12 A3037 450 36 -1000 320/10G15 RMK AO2
14837KMSN MSN20031107144510111/07/03 14:45:31  5-MIN KMSN 072045Z 31010G15KT 10SM CLR 01/M12 A3037 450 38 -1000 310/10G15 RMK AO2
14837KMSN MSN20031107145011811/07/03 14:50:31  5-MIN KMSN 072050Z 32008KT 10SM CLR 01/M12 A3037 450 38 -1000 320/08 RMK AO2 SLP295 T00111117 58002
14837KMSN MSN20031107145509511/07/03 14:55:31  5-MIN KMSN 072055Z 32010KT 10SM CLR 01/M12 A3037 450 36 -1000 320/10 RMK AO2
14837KMSN MSN20031107150009511/07/03 15:00:31  5-MIN KMSN 072100Z 32008KT 10SM CLR 01/M12 A3038 450 38 -1100 320/08 RMK AO2
14837KMSN MSN20031107150509511/07/03 15:05:31  5-MIN KMSN 072105Z 33009KT 10SM CLR 01/M12 A3038 440 36 -1100 320/09 RMK AO2
14837KMSN MSN20031107151009511/07/03 15:10:31  5-MIN KMSN 072110Z 31011KT 10SM CLR 01/M12 A3038 440 38 -1100 310/11 RMK AO2
14837KMSN MSN20031107151509511/07/03 15:15:31  5-MIN KMSN 072115Z 31009KT 10SM CLR 01/M12 A3038 440 38 -1100 310/09 RMK AO2
14837KMSN MSN20031107152009511/07/03 15:20:31  5-MIN KMSN 072120Z 32009KT 10SM CLR 01/M12 A3038 440 38 -1100 320/09 RMK AO2
14837KMSN MSN20031107152509511/07/03 15:25:31  5-MIN KMSN 072125Z 32011KT 10SM CLR 01/M13 A3038 440 36 -1100 320/11 RMK AO2
14837KMSN MSN20031107153009511/07/03 15:30:31  5-MIN KMSN 072130Z 32010KT 10SM CLR 01/M13 A3039 440 36 -1100 320/10 RMK AO2
14837KMSN MSN20031107153509511/07/03 15:35:31  5-MIN KMSN 072135Z 33010KT 10SM CLR 00/M13 A3039 440 38 -1200 330/10 RMK AO2
14837KMSN MSN20031107154009511/07/03 15:40:31  5-MIN KMSN 072140Z 33008KT 10SM CLR 00/M13 A3039 440 36 -1200 320/08 RMK AO2
14837KMSN MSN20031107154509511/07/03 15:45:31  5-MIN KMSN 072145Z 32007KT 10SM CLR 00/M13 A3039 430 36 -1200 320/07 RMK AO2
14837KMSN MSN20031107155011211/07/03 15:50:31  5-MIN KMSN 072150Z 31010KT 10SM CLR 00/M13 A3039 430 36 -1200 310/10 RMK AO2 SLP302 T00001133
14837KMSN MSN20031107155509511/07/03 15:55:31  5-MIN KMSN 072155Z 32011KT 10SM CLR 00/M14 A3039 430 34 -1200 320/11 RMK AO2
14837KMSN MSN20031109221009511/09/03 22:10:31  5-MIN KMSN 100410Z 18008KT 10SM CLR 00/M08 A3040 420 53 -1200 180/08 RMK AO2
14837KMSN MSN20031109221509511/09/03 22:15:31  5-MIN KMSN 100415Z 19007KT 10SM CLR 00/M08 A3040 420 53 -1200 190/07 RMK AO2
14837KMSN MSN20031109222009511/09/03 22:20:31  5-MIN KMSN 100420Z 18006KT 10SM CLR 00/M08 A3040 430 53 -1200 180/06 RMK AO2
14837KMSN MSN20031109222509611/09/03 22:25:31  5-MIN KMSN 100425Z 18006KT 10SM CLR M01/M08 A3039 430 56 -1300 180/06 RMK AO2
14837KMSN MSN20031109223009611/09/03 22:30:31  5-MIN KMSN 100430Z 18006KT 10SM CLR M01/M08 A3040 430 58 -1300 180/06 RMK AO2
14837KMSN MSN20031109223509611/09/03 22:35:31  5-MIN KMSN 100435Z 18008KT 10SM CLR M01/M08 A3039 430 56 -1300 170/08 RMK AO2
14837KMSN MSN20031109224009611/09/03 22:40:31  5-MIN KMSN 100440Z 17007KT 10SM CLR M01/M08 A3039 430 56 -1300 170/07 RMK AO2
14837KMSN MSN20031109224509611/09/03 22:45:31  5-MIN KMSN 100445Z 18007KT 10SM CLR M01/M08 A3039 440 56 -1300 180/07 RMK AO2
14837KMSN MSN20031109225011311/09/03 22:50:31  5-MIN KMSN 100450Z 18008KT 10SM CLR M01/M08 A3039 440 58 -1300 180/08 RMK AO2 SLP300 T10061078
14837KMSN MSN20031109225509611/09/03 22:55:31  5-MIN KMSN 100455Z 18009KT 10SM CLR M01/M08 A3039 440 58 -1300 180/09 RMK AO2
14837KMSN MSN20031109230009511/09/03 23:00:31  5-MIN KMSN 100500Z 19007KT 10SM CLR 00/M08 A3039 430 56 -1200 190/07 RMK AO2
14837KMSN MSN20031109230509511/09/03 23:05:31  5-MIN KMSN 100505Z 19007KT 10SM CLR 00/M08 A3039 430 53 -1200 190/07 RMK AO2
14837KMSN MSN20031109231009611/09/03 23:10:31  5-MIN KMSN 100510Z 19006KT 10SM CLR M01/M08 A3039 430 58 -1300 190/06 RMK AO2
14837KMSN MSN20031109231509611/09/03 23:15:31  5-MIN KMSN 100515Z 18006KT 10SM CLR M01/M08 A3039 430 58 -1300 180/06 RMK AO2
14837KMSN MSN20031109232009611/09/03 23:20:31  5-MIN KMSN 100520Z 19005KT 10SM CLR M01/M08 A3039 430 58 -1300 190/05 RMK AO2
14837KMSN MSN20031109232509611/09/03 23:25:31  5-MIN KMSN 100525Z 19006KT 10SM CLR M01/M08 A3039 430 58 -1300 190/06 RMK AO2
14837KMSN MSN20031109233009611/09/03 23:30:31  5-MIN KMSN 100530Z 18005KT 10SM CLR M01/M08 A3039 430 58 -1300 180/05 RMK AO2
14837KMSN MSN20031109233509611/09/03 23:35:31  5-MIN KMSN 100535Z 18006KT 10SM CLR M01/M08 A3039 430 58 -1300 180/06 RMK AO2
14837KMSN MSN20031109234009611/09/03 23:40:31  5-MIN KMSN 100540Z 19005KT 10SM CLR M01/M08 A3039 430 58 -1300 190/05 RMK AO2
14837KMSN MSN20031109234509611/09/03 23:45:31  5-MIN KMSN 100545Z 18006KT 10SM CLR M01/M08 A3039 440 58 -1300 180/06 RMK AO2
14837KMSN MSN20031109235014111/09/03 23:50:31  5-MIN KMSN 100550Z 18005KT 10SM CLR M01/M08 A3038 440 58 -1300 180/05 RMK AO2 SLP298 T10061078 10006 21006 400441106 56013
14837KMSN MSN20031109235509611/09/03 23:55:31  5-MIN KMSN 100555Z 19005KT 10SM CLR M01/M08 A3038 440 58 -1300 190/05 RMK AO2
14837KMSN MSN20031110000009611/10/03 00:00:31  5-MIN KMSN 100600Z 18005KT 10SM CLR M01/M08 A3038 440 58 -1300 180/05 RMK AO2
14837KMSN MSN20031110000509611/10/03 00:05:31  5-MIN KMSN 100605Z 17005KT 10SM CLR M01/M07 A3038 450 63 -1300 170/05 RMK AO2
14837KMSN MSN20031110001009611/10/03 00:10:31  5-MIN KMSN 100610Z 17004KT 10SM CLR M01/M08 A3037 450 60 -1300 170/04 RMK AO2
14837KMSN MSN20031110001509611/10/03 00:15:31  5-MIN KMSN 100615Z 17006KT 10SM CLR M01/M08 A3037 450 60 -1300 170/06 RMK AO2
14837KMSN MSN20031110002009611/10/03 00:20:31  5-MIN KMSN 100620Z 17006KT 10SM CLR M01/M07 A3037 450 63 -1300 170/06 RMK AO2
14837KMSN MSN20031110002509611/10/03 00:25:31  5-MIN KMSN 100625Z 18006KT 10SM CLR M01/M07 A3037 450 63 -1300 180/06 RMK AO2
14837KMSN MSN20031110003009611/10/03 00:30:31  5-MIN KMSN 100630Z 18007KT 10SM CLR M01/M07 A3037 450 61 -1300 180/07 RMK AO2
14837KMSN MSN20031110003509611/10/03 00:35:31  5-MIN KMSN 100635Z 18007KT 10SM CLR M01/M07 A3037 450 61 -1300 180/07 RMK AO2
14837KMSN MSN20031110004009611/10/03 00:40:31  5-MIN KMSN 100640Z 19007KT 10SM CLR M01/M07 A3037 450 61 -1200 190/07 RMK AO2
14837KMSN MSN20031110004509611/10/03 00:45:31  5-MIN KMSN 100645Z 19008KT 10SM CLR M01/M07 A3036 460 61 -1200 190/08 RMK AO2
14837KMSN MSN20031110005011311/10/03 00:50:31  5-MIN KMSN 100650Z 19006KT 10SM CLR M01/M07 A3036 460 61 -1200 190/06 RMK AO2 SLP291 T10061072
14837KMSN MSN20031110005509611/10/03 00:55:31  5-MIN KMSN 100655Z 19007KT 10SM CLR M01/M07 A3036 460 61 -1200 190/07 RMK AO2
14837KMSN MSN20031110010009611/10/03 01:00:31  5-MIN KMSN 100700Z 19006KT 10SM CLR M01/M07 A3036 460 61 -1200 190/06 RMK AO2
14837KMSN MSN20031110010509611/10/03 01:05:31  5-MIN KMSN 100705Z 19006KT 10SM CLR M01/M07 A3036 460 61 -1200 190/06 RMK AO2
14837KMSN MSN20031110011009611/10/03 01:10:31  5-MIN KMSN 100710Z 19006KT 10SM CLR M01/M07 A3036 460 61 -1200 190/06 RMK AO2
14837KMSN MSN20031110011509611/10/03 01:15:31  5-MIN KMSN 100715Z 18005KT 10SM CLR M01/M07 A3036 460 61 -1200 180/05 RMK AO2
14837KMSN MSN20031110012009611/10/03 01:20:31  5-MIN KMSN 100720Z 19004KT 10SM CLR M01/M07 A3036 460 63 -1200 190/04 RMK AO2
14837KMSN MSN20031110012509611/10/03 01:25:31  5-MIN KMSN 100725Z 20004KT 10SM CLR M01/M07 A3036 460 66 -1300 200/04 RMK AO2
14837KMSN MSN20031110013009611/10/03 01:30:31  5-MIN KMSN 100730Z 19006KT 10SM CLR M01/M07 A3036 460 63 -1200 190/06 RMK AO2
14837KMSN MSN20031110013509611/10/03 01:35:31  5-MIN KMSN 100735Z 20005KT 10SM CLR M01/M07 A3036 460 63 -1200 200/05 RMK AO2
14837KMSN MSN20031110014009611/10/03 01:40:31  5-MIN KMSN 100740Z 19005KT 10SM CLR M01/M07 A3036 460 63 -1200 190/05 RMK AO2
14837KMSN MSN20031110014509611/10/03 01:45:31  5-MIN KMSN 100745Z 19005KT 10SM CLR M01/M07 A3036 460 63 -1200 190/05 RMK AO2
14837KMSN MSN20031110015011311/10/03 01:50:31  5-MIN KMSN 100750Z 18006KT 10SM CLR M01/M07 A3036 460 63 -1200 180/06 RMK AO2 SLP290 T10061067
14837KMSN MSN20031110015509611/10/03 01:55:31  5-MIN KMSN 100755Z 17005KT 10SM CLR M01/M07 A3035 460 63 -1200 170/05 RMK AO2
14837KMSN MSN20031110020009611/10/03 02:00:31  5-MIN KMSN 100800Z 17005KT 10SM CLR M02/M07 A3035 470 69 -1400 170/05 RMK AO2
14837KMSN MSN20031110020509611/10/03 02:05:31  5-MIN KMSN 100805Z 16004KT 10SM CLR M02/M07 A3035 470 69 -1400 160/04 RMK AO2
14837KMSN MSN20031110021009611/10/03 02:10:31  5-MIN KMSN 100810Z 16004KT 10SM CLR M02/M07 A3035 470 66 -1400 160/04 RMK AO2
14837KMSN MSN20031110021509611/10/03 02:15:31  5-MIN KMSN 100815Z 17003KT 10SM CLR M02/M07 A3035 470 69 -1400 170/03 RMK AO2
14837KMSN MSN20031110022009611/10/03 02:20:31  5-MIN KMSN 100820Z 15004KT 10SM CLR M02/M07 A3035 470 69 -1400 150/04 RMK AO2
14837KMSN MSN20031110022509611/10/03 02:25:31  5-MIN KMSN 100825Z 14005KT 10SM CLR M02/M07 A3035 470 69 -1400 130/05 RMK AO2
14837KMSN MSN20031110023009611/10/03 02:30:31  5-MIN KMSN 100830Z 14006KT 10SM CLR M03/M07 A3034 470 74 -1600 130/06 RMK AO2
14837KMSN MSN20031110023509611/10/03 02:35:31  5-MIN KMSN 100835Z 14007KT 10SM CLR M03/M07 A3034 480 74 -1600 130/07 RMK AO2
14837KMSN MSN20031110024009611/10/03 02:40:31  5-MIN KMSN 100840Z 14006KT 10SM CLR M03/M07 A3034 480 71 -1500 140/06 RMK AO2
14837KMSN MSN20031110024509611/10/03 02:45:31  5-MIN KMSN 100845Z 14005KT 10SM CLR M03/M07 A3034 480 71 -1500 140/05 RMK AO2
14837KMSN MSN20031110025011911/10/03 02:50:31  5-MIN KMSN 100850Z 14003KT 10SM CLR M03/M07 A3034 480 71 -1500 140/03 RMK AO2 SLP285 T10281072 58009
14837KMSN MSN20031110025509611/10/03 02:55:31  5-MIN KMSN 100855Z 14003KT 10SM CLR M03/M07 A3034 480 71 -1500 140/03 RMK AO2
14837KMSN MSN20031110030009611/10/03 03:00:31  5-MIN KMSN 100900Z 00000KT 10SM CLR M02/M07 A3034 480 69 -1400 000/00 RMK AO2
14837KMSN MSN20031110030509611/10/03 03:05:31  5-MIN KMSN 100905Z 00000KT 10SM CLR M02/M07 A3033 480 69 -1400 000/00 RMK AO2
14837KMSN MSN20031110031009611/10/03 03:10:31  5-MIN KMSN 100910Z 14003KT 10SM CLR M02/M07 A3033 480 66 -1400 140/03 RMK AO2
14837KMSN MSN20031110031509611/10/03 03:15:31  5-MIN KMSN 100915Z 00000KT 10SM CLR M02/M07 A3033 480 69 -1400 000/00 RMK AO2
14837KMSN MSN20031110032009611/10/03 03:20:31  5-MIN KMSN 100920Z 00000KT 10SM CLR M02/M07 A3033 480 69 -1400 000/00 RMK AO2
14837KMSN MSN20031110032509611/10/03 03:25:31  5-MIN KMSN 100925Z 00000KT 10SM CLR M02/M07 A3033 490 66 -1300 000/00 RMK AO2
14837KMSN MSN20031110033009611/10/03 03:30:31  5-MIN KMSN 100930Z 17003KT 10SM CLR M02/M07 A3033 490 72 -1400 170/03 RMK AO2
14837KMSN MSN20031110033509611/10/03 03:35:31  5-MIN KMSN 100935Z 16005KT 10SM CLR M02/M07 A3032 490 69 -1300 160/05 RMK AO2
14837KMSN MSN20031110034009611/10/03 03:40:31  5-MIN KMSN 100940Z 17004KT 10SM CLR M02/M07 A3032 490 72 -1400 170/04 RMK AO2
14837KMSN MSN20031110034509611/10/03 03:45:31  5-MIN KMSN 100945Z 18004KT 10SM CLR M02/M07 A3032 490 69 -1300 180/04 RMK AO2
14837KMSN MSN20031110035011311/10/03 03:50:31  5-MIN KMSN 100950Z 18005KT 10SM CLR M02/M06 A3032 490 72 -1300 180/05 RMK AO2 SLP277 T10171061
14837KMSN MSN20031110035509511/10/03 03:55:31  5-MIN KMSN 100955Z 17005KT 9SM CLR M02/M06 A3032 500 72 -1300 170/05 RMK AO2
14837KMSN MSN20031110040009511/10/03 04:00:31  5-MIN KMSN 101000Z 17004KT 9SM CLR M02/M06 A3032 500 72 -1300 170/04 RMK AO2
14837KMSN MSN20031110040509611/10/03 04:05:31  5-MIN KMSN 101005Z 16004KT 10SM CLR M02/M07 A3032 500 69 -1300 160/04 RMK AO2
14837KMSN MSN20031110041009511/10/03 04:10:31  5-MIN KMSN 101010Z 17003KT 9SM CLR M02/M07 A3032 500 69 -1300 170/03 RMK AO2
14837KMSN MSN20031110041509511/10/03 04:15:31  5-MIN KMSN 101015Z 00000KT 9SM CLR M01/M06 A3032 500 69 -1300 000/00 RMK AO2
14837KMSN MSN20031110042009511/10/03 04:20:31  5-MIN KMSN 101020Z 16004KT 9SM CLR M02/M06 A3032 500 72 -1300 160/04 RMK AO2
14837KMSN MSN20031110042509511/10/03 04:25:31  5-MIN KMSN 101025Z 17004KT 9SM CLR M02/M06 A3032 500 72 -1300 170/04 RMK AO2
14837KMSN MSN20031110043009511/10/03 04:30:31  5-MIN KMSN 101030Z 16003KT 9SM CLR M02/M06 A3032 500 72 -1300 160/03 RMK AO2
14837KMSN MSN20031110043509511/10/03 04:35:31  5-MIN KMSN 101035Z 17005KT 9SM CLR M02/M06 A3032 500 72 -1300 170/05 RMK AO2
14837KMSN MSN20031110044009511/10/03 04:40:31  5-MIN KMSN 101040Z 17004KT 9SM CLR M01/M06 A3032 490 69 -1300 170/04 RMK AO2
14837KMSN MSN20031110044509511/10/03 04:45:31  5-MIN KMSN 101045Z 18003KT 9SM CLR M02/M06 A3032 490 72 -1300 180/03 RMK AO2
14837KMSN MSN20031110045011211/10/03 04:50:31  5-MIN KMSN 101050Z 16003KT 9SM CLR M02/M06 A3032 500 72 -1300 160/03 RMK AO2 SLP278 T10171061
14837KMSN MSN20031110045509511/10/03 04:55:31  5-MIN KMSN 101055Z 14004KT 8SM CLR M02/M06 A3032 500 72 -1300 140/04 RMK AO2
14837KMSN MSN20031110050009511/10/03 05:00:31  5-MIN KMSN 101100Z 14004KT 8SM CLR M02/M06 A3032 500 75 -1400 140/04 RMK AO2
14837KMSN MSN20031110050509511/10/03 05:05:31  5-MIN KMSN 101105Z 14004KT 8SM CLR M02/M06 A3031 500 75 -1400 140/04 RMK AO2
14837KMSN MSN20031110051009511/10/03 05:10:31  5-MIN KMSN 101110Z 15003KT 8SM CLR M02/M06 A3031 500 75 -1400 150/03 RMK AO2
14837KMSN MSN20031110051509511/10/03 05:15:31  5-MIN KMSN 101115Z 14004KT 8SM CLR M02/M06 A3031 510 75 -1400 140/04 RMK AO2
14837KMSN MSN20031110052009511/10/03 05:20:31  5-MIN KMSN 101120Z 15005KT 8SM CLR M02/M06 A3031 510 78 -1400 150/05 RMK AO2
14837KMSN MSN20031110052509511/10/03 05:25:31  5-MIN KMSN 101125Z 16005KT 8SM CLR M02/M06 A3031 510 78 -1400 160/05 RMK AO2
14837KMSN MSN20031110053009511/10/03 05:30:31  5-MIN KMSN 101130Z 17004KT 8SM CLR M01/M06 A3031 500 72 -1300 170/04 RMK AO2
14837KMSN MSN20031110053509511/10/03 05:35:31  5-MIN KMSN 101135Z 18004KT 8SM CLR M01/M06 A3031 500 72 -1300 180/04 RMK AO2
14837KMSN MSN20031110054009511/10/03 05:40:31  5-MIN KMSN 101140Z 19004KT 8SM CLR M01/M06 A3031 510 72 -1300 190/04 RMK AO2
14837KMSN MSN20031110054509511/10/03 05:45:31  5-MIN KMSN 101145Z 19005KT 8SM CLR M01/M06 A3031 510 72 -1300 180/05 RMK AO2
14837KMSN MSN20031110055013011/10/03 05:50:31  5-MIN KMSN 101150Z 18004KT 8SM CLR M01/M06 A3031 510 72 -1300 170/04 RMK AO2 SLP273 T10111056 11006 21033 56014
14837KMSN MSN20031110055509511/10/03 05:55:31  5-MIN KMSN 101155Z 16004KT 7SM CLR M02/M06 A3030 510 75 -1300 160/04 RMK AO2
14837KMSN MSN20031110060009511/10/03 06:00:31  5-MIN KMSN 101200Z 16006KT 8SM CLR M02/M06 A3030 510 75 -1300 160/06 RMK AO2
14837KMSN MSN20031110060509511/10/03 06:05:31  5-MIN KMSN 101205Z 16007KT 8SM CLR M01/M06 A3030 520 72 -1200 160/07 RMK AO2
14837KMSN MSN20031110061009511/10/03 06:10:31  5-MIN KMSN 101210Z 16005KT 7SM CLR M01/M06 A3029 520 72 -1200 160/05 RMK AO2
14837KMSN MSN20031110061509511/10/03 06:15:31  5-MIN KMSN 101215Z 16006KT 7SM CLR M01/M06 A3029 520 72 -1200 160/06 RMK AO2
14837KMSN MSN20031110062009511/10/03 06:20:31  5-MIN KMSN 101220Z 16005KT 7SM CLR M01/M05 A3029 520 75 -1200 150/05 RMK AO2
14837KMSN MSN20031110062509511/10/03 06:25:31  5-MIN KMSN 101225Z 15005KT 7SM CLR M02/M05 A3029 530 78 -1300 150/05 RMK AO2
14837KMSN MSN20031110063009511/10/03 06:30:31  5-MIN KMSN 101230Z 17005KT 7SM CLR M02/M05 A3029 520 78 -1300 160/05 RMK AO2
14837KMSN MSN20031110063509511/10/03 06:35:31  5-MIN KMSN 101235Z 16006KT 7SM CLR M02/M06 A3029 530 75 -1300 150/06 RMK AO2
14837KMSN MSN20031110064009511/10/03 06:40:31  5-MIN KMSN 101240Z 15006KT 7SM CLR M02/M06 A3028 530 75 -1300 150/06 RMK AO2
14837KMSN MSN20031110064509511/10/03 06:45:31  5-MIN KMSN 101245Z 15005KT 7SM CLR M02/M06 A3028 530 75 -1300 140/05 RMK AO2
14837KMSN MSN20031110065011511/10/03 06:50:31  5-MIN KMSN 101250Z 15005KT 6SM HZ CLR M02/M06 A3028 540 75 -1300 150/05 RMK AO2 SLP264 T10171056
14837KMSN MSN20031110065509511/10/03 06:55:31  5-MIN KMSN 101255Z 15006KT 6SM CLR M02/M06 A3027 540 75 -1300 150/06 RMK AO2
14837KMSN MSN20031110070009511/10/03 07:00:31  5-MIN KMSN 101300Z 15007KT 6SM CLR M02/M06 A3027 540 75 -1300 150/07 RMK AO2
14837KMSN MSN20031110070509511/10/03 07:05:31  5-MIN KMSN 101305Z 15006KT 6SM CLR M02/M06 A3027 540 75 -1300 150/06 RMK AO2
14837KMSN MSN20031110071009511/10/03 07:10:31  5-MIN KMSN 101310Z 15006KT 6SM CLR M01/M06 A3027 540 72 -1200 150/06 RMK AO2
14837KMSN MSN20031110071509511/10/03 07:15:31  5-MIN KMSN 101315Z 16007KT 5SM CLR M01/M06 A3027 540 72 -1200 150/07 RMK AO2
14837KMSN MSN20031110072009811/10/03 07:20:31  5-MIN KMSN 101320Z 16007KT 5SM HZ CLR M01/M06 A3028 540 72 -1200 160/07 RMK AO2
14837KMSN MSN20031110072509811/10/03 07:25:31  5-MIN KMSN 101325Z 17006KT 5SM HZ CLR M01/M05 A3028 530 75 -1200 170/06 RMK AO2
14837KMSN MSN20031110073009811/10/03 07:30:31  5-MIN KMSN 101330Z 17007KT 6SM HZ CLR M01/M05 A3028 540 75 -1200 170/07 RMK AO2
14837KMSN MSN20031110073509811/10/03 07:35:31  5-MIN KMSN 101335Z 17007KT 6SM HZ CLR M01/M05 A3028 530 72 -1100 170/07 RMK AO2
14837KMSN MSN20031110074009811/10/03 07:40:31  5-MIN KMSN 101340Z 16006KT 6SM HZ CLR M01/M04 A3027 540 75 -1100 160/06 RMK AO2
14837KMSN MSN20031110074509811/10/03 07:45:31  5-MIN KMSN 101345Z 17006KT 6SM HZ CLR M01/M04 A3027 540 75 -1100 160/06 RMK AO2
14837KMSN MSN20031110075011111/10/03 07:50:31  5-MIN KMSN 101350Z 17008KT 7SM CLR 00/M04 A3027 540 72 -1100 170/08 RMK AO2 SLP261 T00001044
14837KMSN MSN20031110075509711/10/03 07:55:31  5-MIN KMSN 101355Z 18006KT 6SM HZ CLR 00/M04 A3027 540 72 -1100 180/06 RMK AO2
14837KMSN MSN20031110080009711/10/03 08:00:31  5-MIN KMSN 101400Z 17007KT 6SM HZ CLR 00/M04 A3027 550 72 -1100 170/07 RMK AO2
14837KMSN MSN20031110080509711/10/03 08:05:31  5-MIN KMSN 101405Z 17008KT 6SM HZ CLR 00/M04 A3027 540 72 -1100 170/08 RMK AO2
14837KMSN MSN20031110081009711/10/03 08:10:31  5-MIN KMSN 101410Z 19005KT 6SM HZ CLR 01/M04 A3027 540 69 -1000 190/05 RMK AO2
14837KMSN MSN20031110081509711/10/03 08:15:31  5-MIN KMSN 101415Z 18006KT 6SM HZ CLR 01/M04 A3027 540 69 -1000 180/06 RMK AO2
14837KMSN MSN20031110082009711/10/03 08:20:31  5-MIN KMSN 101420Z 18007KT 6SM HZ CLR 01/M04 A3026 550 69 -1000 170/07 RMK AO2
14837KMSN MSN20031110082509711/10/03 08:25:31  5-MIN KMSN 101425Z 17006KT 6SM HZ CLR 01/M04 A3027 550 69 -1000 170/06 RMK AO2
14837KMSN MSN20031110083009711/10/03 08:30:31  5-MIN KMSN 101430Z 17006KT 6SM HZ CLR 01/M04 A3027 540 69 -1000 170/06 RMK AO2
14837KMSN MSN20031110083509711/10/03 08:35:31  5-MIN KMSN 101435Z 18005KT 6SM HZ CLR 01/M04 A3027 550 69 -1000 180/05 RMK AO2
14837KMSN MSN20031110084009611/10/03 08:40:31  5-MIN KMSN 101440Z 17006KT 6SM HZ CLR 01/M04 A3027 550 66 -900 170/06 RMK AO2
14837KMSN MSN20031110084509611/10/03 08:45:31  5-MIN KMSN 101445Z 16005KT 6SM HZ CLR 01/M04 A3026 550 69 -900 160/05 RMK AO2
14837KMSN MSN20031110085011611/10/03 08:50:31  5-MIN KMSN 101450Z 16006KT 7SM CLR 01/M04 A3025 560 69 -900 160/06 RMK AO2 SLP254 T00111039 56012
14837KMSN MSN20031110085509611/10/03 08:55:31  5-MIN KMSN 101455Z 16006KT 7SM FEW120 01/M04 A3025 560 69 -900 160/06 RMK AO2
14837KMSN MSN20031110090009611/10/03 09:00:31  5-MIN KMSN 101500Z 17006KT 7SM FEW120 02/M04 A3025 560 66 -800 170/06 RMK AO2
14837KMSN MSN20031110090509611/10/03 09:05:31  5-MIN KMSN 101505Z 18006KT 7SM FEW120 02/M04 A3025 560 64 -800 180/06 RMK AO2
14837KMSN MSN20031110091009611/10/03 09:10:31  5-MIN KMSN 101510Z 18007KT 7SM FEW120 02/M04 A3025 560 61 -800 170/07 RMK AO2
14837KMSN MSN20031110091509611/10/03 09:15:31  5-MIN KMSN 101515Z 18006KT 8SM FEW120 02/M04 A3025 560 64 -800 180/06 RMK AO2
14837KMSN MSN20031110092009611/10/03 09:20:31  5-MIN KMSN 101520Z 19006KT 8SM FEW120 02/M04 A3025 560 61 -800 190/06 RMK AO2
14837KMSN MSN20031110092510311/10/03 09:25:31  5-MIN KMSN 101525Z 18005KT 8SM FEW090 BKN120 02/M04 A3025 560 61 -800 180/05 RMK AO2
14837KMSN MSN20031110093010311/10/03 09:30:31  5-MIN KMSN 101530Z 18006KT 8SM FEW090 BKN120 02/M04 A3025 560 64 -800 180/06 RMK AO2
14837KMSN MSN20031110093510311/10/03 09:35:31  5-MIN KMSN 101535Z 17007KT 8SM FEW090 BKN120 03/M04 A3025 560 59 -700 170/07 RMK AO2
14837KMSN MSN20031110094010311/10/03 09:40:31  5-MIN KMSN 101540Z 19007KT 8SM FEW090 BKN120 03/M04 A3025 560 61 -700 190/07 RMK AO2
14837KMSN MSN20031110094510311/10/03 09:45:31  5-MIN KMSN 101545Z 18008KT 8SM FEW090 BKN120 03/M04 A3024 570 61 -700 180/08 RMK AO2
14837KMSN MSN20031110095012011/10/03 09:50:31  5-MIN KMSN 101550Z 17008KT 8SM FEW090 BKN120 03/M04 A3024 570 61 -700 170/08 RMK AO2 SLP248 T00281039
14837KMSN MSN20031110095509611/10/03 09:55:31  5-MIN KMSN 101555Z 17010KT 8SM BKN120 03/M04 A3023 580 61 -700 170/10 RMK AO2
14837KMSN MSN20031110100009611/10/03 10:00:31  5-MIN KMSN 101600Z 17011KT 9SM BKN120 03/M04 A3023 580 59 -700 170/11 RMK AO2
14837KMSN MSN20031110100509611/10/03 10:05:31  5-MIN KMSN 101605Z 18011KT 9SM BKN120 03/M04 A3023 580 59 -700 170/11 RMK AO2
14837KMSN MSN20031110101009611/10/03 10:10:31  5-MIN KMSN 101610Z 18011KT 9SM BKN120 03/M04 A3023 580 57 -600 180/11 RMK AO2
14837KMSN MSN20031110101509611/10/03 10:15:31  5-MIN KMSN 101615Z 18010KT 9SM BKN120 03/M04 A3022 590 57 -600 180/10 RMK AO2
14837KMSN MSN20031110102009611/10/03 10:20:31  5-MIN KMSN 101620Z 17012KT 9SM BKN120 03/M04 A3022 590 57 -600 170/12 RMK AO2
14837KMSN MSN20031110102509611/10/03 10:25:31  5-MIN KMSN 101625Z 18008KT 9SM BKN120 03/M04 A3022 590 59 -600 180/08 RMK AO2
14837KMSN MSN20031110103009611/10/03 10:30:31  5-MIN KMSN 101630Z 18011KT 9SM BKN120 03/M04 A3021 590 59 -600 180/11 RMK AO2
14837KMSN MSN20031110103509611/10/03 10:35:31  5-MIN KMSN 101635Z 17011KT 9SM BKN120 03/M04 A3021 590 57 -600 170/11 RMK AO2
14837KMSN MSN20031110104009611/10/03 10:40:31  5-MIN KMSN 101640Z 18009KT 9SM BKN120 03/M04 A3021 600 59 -600 170/09 RMK AO2
14837KMSN MSN20031110104509611/10/03 10:45:31  5-MIN KMSN 101645Z 18009KT 9SM BKN120 04/M04 A3021 600 57 -500 180/09 RMK AO2
14837KMSN MSN20031110105011311/10/03 10:50:31  5-MIN KMSN 101650Z 17008KT 9SM BKN120 04/M04 A3020 600 57 -500 170/08 RMK AO2 SLP237 T00391039
14837KMSN MSN20031110105509611/10/03 10:55:31  5-MIN KMSN 101655Z 17010KT 9SM BKN120 04/M04 A3020 610 57 -500 160/10 RMK AO2
14837KMSN MSN20031110110009611/10/03 11:00:31  5-MIN KMSN 101700Z 17010KT 9SM BKN120 04/M04 A3019 610 57 -500 170/10 RMK AO2
14837KMSN MSN20031110110509611/10/03 11:05:31  5-MIN KMSN 101705Z 16010KT 9SM BKN120 04/M04 A3019 620 57 -500 160/10 RMK AO2
14837KMSN MSN20031110111009611/10/03 11:10:31  5-MIN KMSN 101710Z 17012KT 9SM BKN120 04/M04 A3019 610 55 -400 170/12 RMK AO2
14837KMSN MSN20031110111509711/10/03 11:15:31  5-MIN KMSN 101715Z 17008KT 10SM BKN120 04/M04 A3019 620 55 -400 170/08 RMK AO2
14837KMSN MSN20031110112009711/10/03 11:20:31  5-MIN KMSN 101720Z 18008KT 10SM BKN120 04/M03 A3019 610 57 -400 180/08 RMK AO2
14837KMSN MSN20031110112509711/10/03 11:25:31  5-MIN KMSN 101725Z 18009KT 10SM BKN120 04/M04 A3019 620 55 -400 180/09 RMK AO2
14837KMSN MSN20031110113009711/10/03 11:30:31  5-MIN KMSN 101730Z 17008KT 10SM BKN120 04/M04 A3018 630 55 -400 170/08 RMK AO2
14837KMSN MSN20031110113509611/10/03 11:35:31  5-MIN KMSN 101735Z 16007KT 9SM BKN120 05/M03 A3018 630 55 -300 160/07 RMK AO2
14837KMSN MSN20031110114009611/10/03 11:40:31  5-MIN KMSN 101740Z 15008KT 9SM BKN120 05/M03 A3017 630 55 -300 150/08 RMK AO2
14837KMSN MSN20031110114509611/10/03 11:45:31  5-MIN KMSN 101745Z 16011KT 9SM BKN120 05/M03 A3017 640 55 -300 160/11 RMK AO2
14837KMSN MSN20031110115013211/10/03 11:50:31  5-MIN KMSN 101750Z 16010KT 10SM BKN120 05/M03 A3016 640 55 -300 160/10 RMK AO2 SLP222 T00501033 10050 21017 56019
14837KMSN MSN20031110115510411/10/03 11:55:31  5-MIN KMSN 101755Z 15010KT 10SM FEW095 BKN120 05/M03 A3016 650 55 -300 150/10 RMK AO2
14837KMSN MSN20031110120010411/10/03 12:00:31  5-MIN KMSN 101800Z 17008KT 10SM FEW095 BKN120 05/M03 A3016 650 55 -300 170/08 RMK AO2
14837KMSN MSN20031110120510411/10/03 12:05:31  5-MIN KMSN 101805Z 17009KT 10SM FEW095 BKN120 05/M03 A3015 650 55 -300 170/09 RMK AO2
14837KMSN MSN20031110121010411/10/03 12:10:31  5-MIN KMSN 101810Z 17008KT 10SM FEW095 BKN120 05/M03 A3015 650 55 -300 170/08 RMK AO2
14837KMSN MSN20031110121510411/10/03 12:15:31  5-MIN KMSN 101815Z 16009KT 10SM FEW095 BKN120 06/M03 A3014 660 53 -200 160/09 RMK AO2
14837KMSN MSN20031110122010411/10/03 12:20:31  5-MIN KMSN 101820Z 16010KT 10SM FEW095 BKN120 06/M03 A3014 660 53 -200 160/10 RMK AO2
14837KMSN MSN20031110122510411/10/03 12:25:31  5-MIN KMSN 101825Z 16011KT 10SM FEW095 BKN120 06/M03 A3013 670 53 -200 160/11 RMK AO2
14837KMSN MSN20031110123009711/10/03 12:30:31  5-MIN KMSN 101830Z 16009KT 10SM BKN120 06/M03 A3013 670 53 -200 160/09 RMK AO2
14837KMSN MSN20031110123509711/10/03 12:35:31  5-MIN KMSN 101835Z 17010KT 10SM BKN120 06/M03 A3013 670 53 -200 170/10 RMK AO2
14837KMSN MSN20031110124009711/10/03 12:40:31  5-MIN KMSN 101840Z 16011KT 10SM BKN120 06/M03 A3013 670 51 -100 160/11 RMK AO2
14837KMSN MSN20031110124509711/10/03 12:45:31  5-MIN KMSN 101845Z 16009KT 10SM BKN050 06/M03 A3012 680 51 -100 150/09 RMK AO2
14837KMSN MSN20031110125011411/10/03 12:50:31  5-MIN KMSN 101850Z 14009KT 10SM BKN050 06/M03 A3012 680 53 -100 140/09 RMK AO2 SLP207 T00611028
14837KMSN MSN20031110125510411/10/03 12:55:31  5-MIN KMSN 101855Z 16010KT 10SM BKN050 06/M03 A3011 690 51 -100 160/10 RMK AO2 PRESFR
14837KMSN MSN20031110130010411/10/03 13:00:31  5-MIN KMSN 101900Z 15011KT 10SM OVC048 06/M03 A3010 700 51 -100 150/11 RMK AO2 PRESFR
14837KMSN MSN20031110130510411/10/03 13:05:31  5-MIN KMSN 101905Z 16011KT 10SM BKN045 OVC050 06/M03 A3010 700 51 -100 160/11 RMK AO2
14837KMSN MSN20031110131009711/10/03 13:10:31  5-MIN KMSN 101910Z 14009KT 10SM OVC045 06/M03 A3010 700 53 -100 140/09 RMK AO2
14837KMSN MSN20031110131509411/10/03 13:15:31  5-MIN KMSN 101915Z 14009KT 10SM OVC045 07/M03 A3009 710 51 0 140/09 RMK AO2
14837KMSN MSN20031110132009411/10/03 13:20:31  5-MIN KMSN 101920Z 15009KT 10SM OVC043 07/M03 A3010 700 51 0 150/09 RMK AO2
14837KMSN MSN20031110132509411/10/03 13:25:31  5-MIN KMSN 101925Z 16011KT 10SM OVC043 07/M03 A3010 700 49 0 160/11 RMK AO2
14837KMSN MSN20031110133009411/10/03 13:30:31  5-MIN KMSN 101930Z 15010KT 10SM OVC043 07/M03 A3009 700 49 0 150/10 RMK AO2
14837KMSN MSN20031110133509411/10/03 13:35:31  5-MIN KMSN 101935Z 14011KT 10SM OVC043 07/M03 A3008 710 49 0 140/11 RMK AO2
14837KMSN MSN20031110134009411/10/03 13:40:31  5-MIN KMSN 101940Z 15011KT 10SM OVC043 07/M03 A3008 720 49 0 140/11 RMK AO2
14837KMSN MSN20031110134509411/10/03 13:45:31  5-MIN KMSN 101945Z 16011KT 10SM OVC043 07/M03 A3008 720 49 0 160/11 RMK AO2
14837KMSN MSN20031110135011111/10/03 13:50:31  5-MIN KMSN 101950Z 15011KT 10SM OVC045 07/M03 A3007 730 49 0 150/11 RMK AO2 SLP191 T00671033
14837KMSN MSN20031110135509411/10/03 13:55:31  5-MIN KMSN 101955Z 16011KT 10SM OVC045 07/M03 A3007 720 49 0 160/11 RMK AO2
14837KMSN MSN20031110140009411/10/03 14:00:31  5-MIN KMSN 102000Z 17009KT 10SM OVC045 07/M03 A3007 720 47 0 170/09 RMK AO2
14837KMSN MSN20031110140509411/10/03 14:05:31  5-MIN KMSN 102005Z 16009KT 10SM OVC045 07/M03 A3007 730 47 0 150/09 RMK AO2
14837KMSN MSN20031110141009411/10/03 14:10:31  5-MIN KMSN 102010Z 16010KT 10SM OVC047 07/M03 A3007 730 49 0 160/10 RMK AO2
14837KMSN MSN20031110141509411/10/03 14:15:31  5-MIN KMSN 102015Z 16010KT 10SM OVC047 07/M03 A3006 730 49 0 160/10 RMK AO2
14837KMSN MSN20031110142009411/10/03 14:20:31  5-MIN KMSN 102020Z 16009KT 10SM OVC047 07/M03 A3006 730 49 0 160/09 RMK AO2
14837KMSN MSN20031110142509411/10/03 14:25:31  5-MIN KMSN 102025Z 17009KT 10SM OVC047 07/M03 A3006 730 49 0 170/09 RMK AO2
14837KMSN MSN20031110143009611/10/03 14:30:31  5-MIN KMSN 102030Z 17008KT 10SM OVC047 08/M03 A3007 730 47 100 170/08 RMK AO2
14837KMSN MSN20031110143509611/10/03 14:35:31  5-MIN KMSN 102035Z 17009KT 10SM OVC047 08/M03 A3007 730 47 100 170/09 RMK AO2
14837KMSN MSN20031110144009611/10/03 14:40:31  5-MIN KMSN 102040Z 18009KT 10SM OVC049 08/M03 A3007 730 45 100 170/09 RMK AO2
14837KMSN MSN20031110144509611/10/03 14:45:31  5-MIN KMSN 102045Z 16009KT 10SM OVC049 08/M03 A3006 730 45 100 160/09 RMK AO2
14837KMSN MSN20031110145013911/10/03 14:50:31  5-MIN KMSN 102050Z 16010KT 10SM -RA OVC049 07/M02 A3006 740 51 0 160/10 RMK AO2 RAB48 SLP187 P0000 60000 T00721022 58030
14837KMSN MSN20031110145510411/10/03 14:55:31  5-MIN KMSN 102055Z 17009KT 10SM -RA OVC049 07/M03 A3006 740 49 0 170/09 RMK AO2 P0000
14837KMSN MSN20031110150010411/10/03 15:00:31  5-MIN KMSN 102100Z 16008KT 10SM -RA OVC049 07/M02 A3005 750 53 0 160/08 RMK AO2 P0000
14837KMSN MSN20031110150510411/10/03 15:05:31  5-MIN KMSN 102105Z 16008KT 10SM -RA OVC049 07/M02 A3005 740 53 0 160/08 RMK AO2 P0000
14837KMSN MSN20031110151010611/10/03 15:10:31  5-MIN KMSN 102110Z 17009KT 10SM OVC049 07/M02 A3005 750 51 0 170/09 RMK AO2 RAE08 P0000
14837KMSN MSN20031110151510611/10/03 15:15:31  5-MIN KMSN 102115Z 16009KT 10SM OVC049 07/M03 A3004 750 49 0 160/09 RMK AO2 RAE08 P0000
14837KMSN MSN20031110152010611/10/03 15:20:31  5-MIN KMSN 102120Z 17009KT 10SM OVC047 07/M02 A3004 750 51 0 170/09 RMK AO2 RAE08 P0000
14837KMSN MSN20031110152510611/10/03 15:25:31  5-MIN KMSN 102125Z 17008KT 10SM OVC047 07/M02 A3004 750 51 0 170/08 RMK AO2 RAE08 P0000
14837KMSN MSN20031110153010611/10/03 15:30:31  5-MIN KMSN 102130Z 16007KT 10SM OVC047 07/M02 A3004 750 51 0 160/07 RMK AO2 RAE08 P0000
14837KMSN MSN20031110153510611/10/03 15:35:31  5-MIN KMSN 102135Z 16008KT 10SM OVC045 07/M02 A3004 750 51 0 160/08 RMK AO2 RAE08 P0000
14837KMSN MSN20031110154010611/10/03 15:40:31  5-MIN KMSN 102140Z 16008KT 10SM OVC045 07/M02 A3004 760 51 0 160/08 RMK AO2 RAE08 P0000
14837KMSN MSN20031110154510611/10/03 15:45:31  5-MIN KMSN 102145Z 16009KT 10SM OVC045 07/M02 A3004 760 51 0 160/09 RMK AO2 RAE08 P0000
14837KMSN MSN20031110155012311/10/03 15:50:31  5-MIN KMSN 102150Z 16011KT 10SM OVC043 07/M02 A3003 760 51 0 160/11 RMK AO2 RAE08 SLP178 P0000 T00721022
14837KMSN MSN20031110155509411/10/03 15:55:31  5-MIN KMSN 102155Z 16010KT 10SM OVC043 07/M02 A3003 760 51 0 160/10 RMK AO2
14837KMSN MSN20031110160009611/10/03 16:00:31  5-MIN KMSN 102200Z 16009KT 10SM OVC041 07/M02 A3003 770 51 100 160/09 RMK AO2
14837KMSN MSN20031110160509611/10/03 16:05:31  5-MIN KMSN 102205Z 16008KT 10SM OVC041 07/M02 A3002 770 51 100 160/08 RMK AO2
14837KMSN MSN20031110161009611/10/03 16:10:31  5-MIN KMSN 102210Z 16009KT 10SM OVC039 07/M02 A3002 770 51 100 160/09 RMK AO2
14837KMSN MSN20031110161509611/10/03 16:15:31  5-MIN KMSN 102215Z 17010KT 10SM OVC039 07/M02 A3002 770 51 100 170/10 RMK AO2
14837KMSN MSN20031110162009611/10/03 16:20:31  5-MIN KMSN 102220Z 17011KT 10SM OVC039 07/M02 A3002 770 51 100 170/11 RMK AO2
14837KMSN MSN20031110162509611/10/03 16:25:31  5-MIN KMSN 102225Z 17008KT 10SM OVC039 07/M02 A3002 770 53 100 170/08 RMK AO2
14837KMSN MSN20031110163009611/10/03 16:30:31  5-MIN KMSN 102230Z 16010KT 10SM OVC039 07/M02 A3001 780 53 100 160/10 RMK AO2
14837KMSN MSN20031110163509611/10/03 16:35:31  5-MIN KMSN 102235Z 16009KT 10SM OVC039 07/M02 A3001 780 53 100 160/09 RMK AO2
14837KMSN MSN20031110164009411/10/03 16:40:31  5-MIN KMSN 102240Z 16011KT 10SM OVC039 07/M02 A3001 780 55 0 160/11 RMK AO2
14837KMSN MSN20031110164509611/10/03 16:45:31  5-MIN KMSN 102245Z 17009KT 10SM OVC037 07/M02 A3001 780 53 100 170/09 RMK AO2
14837KMSN MSN20031110165011311/10/03 16:50:31  5-MIN KMSN 102250Z 16011KT 10SM OVC037 07/M02 A3001 780 53 100 160/11 RMK AO2 SLP170 T00721017
14837KMSN MSN20031110165509611/10/03 16:55:31  5-MIN KMSN 102255Z 16009KT 10SM OVC035 07/M01 A3001 780 55 100 160/09 RMK AO2
14837KMSN MSN20031110170009411/10/03 17:00:31  5-MIN KMSN 102300Z 16008KT 10SM OVC035 07/M01 A3000 790 57 0 160/08 RMK AO2
14837KMSN MSN20031110170509411/10/03 17:05:31  5-MIN KMSN 102305Z 14010KT 10SM OVC035 07/M01 A3000 800 57 0 140/10 RMK AO2
14837KMSN MSN20031110171010111/10/03 17:10:31  5-MIN KMSN 102310Z 14010KT 10SM OVC033 07/M01 A2999 800 57 0 140/10 RMK AO2 PRESFR
14837KMSN MSN20031110171509411/10/03 17:15:31  5-MIN KMSN 102315Z 14009KT 10SM OVC033 07/M01 A2999 800 57 0 140/09 RMK AO2
14837KMSN MSN20031110172009611/10/03 17:20:31  5-MIN KMSN 102320Z 15009KT 10SM OVC031 07/M02 A2998 810 53 100 140/09 RMK AO2
14837KMSN MSN20031110172509411/10/03 17:25:31  5-MIN KMSN 102325Z 15009KT 10SM OVC031 07/M02 A2998 810 55 0 150/09 RMK AO2
14837KMSN MSN20031110173009411/10/03 17:30:31  5-MIN KMSN 102330Z 15009KT 10SM OVC031 07/M02 A2999 800 55 0 150/09 RMK AO2
14837KMSN MSN20031110173509411/10/03 17:35:31  5-MIN KMSN 102335Z 16009KT 10SM OVC031 07/M02 A2998 810 55 0 160/09 RMK AO2
14837KMSN MSN20031110174009411/10/03 17:40:31  5-MIN KMSN 102340Z 16011KT 10SM OVC031 07/M01 A2998 810 57 0 160/11 RMK AO2
14837KMSN MSN20031110174509611/10/03 17:45:31  5-MIN KMSN 102345Z 15012KT 10SM OVC029 07/M01 A2998 810 55 100 150/12 RMK AO2
14837KMSN MSN20031110175013511/10/03 17:50:31  5-MIN KMSN 102350Z 16013KT 10SM OVC029 07/M01 A2998 810 57 0 160/13 RMK AO2 SLP159 60000 T00671011 10078 20050 56032
14837KMSN MSN20031110175509611/10/03 17:55:31  5-MIN KMSN 102355Z 16010KT 10SM OVC029 07/M01 A2998 810 57 100 160/10 RMK AO2
14837KMSN MSN20031110180009611/10/03 18:00:31  5-MIN KMSN 110000Z 16009KT 10SM OVC029 07/M01 A2998 810 57 100 160/09 RMK AO2
14837KMSN MSN20031110180509611/10/03 18:05:31  5-MIN KMSN 110005Z 17010KT 10SM OVC029 07/M01 A2998 810 57 100 170/10 RMK AO2
14837KMSN MSN20031110181009611/10/03 18:10:31  5-MIN KMSN 110010Z 18011KT 10SM OVC029 07/M01 A2998 810 57 100 180/11 RMK AO2
14837KMSN MSN20031110181511011/10/03 18:15:31  5-MIN KMSN 110015Z 18010KT 9SM -RA OVC027 07/01 A2998 810 62 100 180/10 RMK AO2 RAB15 P0000
14837KMSN MSN20031110182011011/10/03 18:20:31  5-MIN KMSN 110020Z 17010KT 8SM -RA OVC027 07/01 A2997 820 67 100 170/10 RMK AO2 RAB15 P0000
14837KMSN MSN20031110182510911/10/03 18:25:31  5-MIN KMSN 110025Z 18014KT 9SM OVC027 07/02 A2997 820 70 100 180/14 RMK AO2 RAB15E24 P0000
14837KMSN MSN20031110183010911/10/03 18:30:31  5-MIN KMSN 110030Z 17014KT 8SM OVC027 07/02 A2997 820 73 100 170/14 RMK AO2 RAB15E24 P0000
14837KMSN MSN20031110183510711/10/03 18:35:31  5-MIN KMSN 110035Z 18015KT 7SM OVC025 06/03 A2997 820 79 0 180/15 RMK AO2 RAB15E24 P0000
14837KMSN MSN20031110184011011/10/03 18:40:31  5-MIN KMSN 110040Z 18014KT 5SM HZ OVC025 06/03 A2997 820 79 0 180/14 RMK AO2 RAB15E24 P0000
14837KMSN MSN20031110184511011/10/03 18:45:31  5-MIN KMSN 110045Z 18012KT 5SM BR OVC023 06/03 A2997 820 85 0 180/12 RMK AO2 RAB15E24 P0000
14837KMSN MSN20031110185012711/10/03 18:50:31  5-MIN KMSN 110050Z 18010KT 4SM BR OVC023 06/03 A2997 820 85 0 180/10 RMK AO2 RAB15E24 SLP156 P0000 T00560033
14837KMSN MSN20031110185509511/10/03 18:55:31  5-MIN KMSN 110055Z 18010KT 5SM BR OVC023 06/04 A2997 820 89 0 180/10 RMK AO2
14837KMSN MSN20031110190009511/10/03 19:00:31  5-MIN KMSN 110100Z 17008KT 4SM BR OVC023 06/04 A2996 830 89 0 170/08 RMK AO2
14837KMSN MSN20031110190509511/10/03 19:05:31  5-MIN KMSN 110105Z 17008KT 4SM BR OVC023 06/04 A2996 830 89 0 170/08 RMK AO2
14837KMSN MSN20031110191010211/10/03 19:10:31  5-MIN KMSN 110110Z 17007KT 4SM BR BKN023 OVC028 06/04 A2996 830 89 0 170/07 RMK AO2
14837KMSN MSN20031110191509511/10/03 19:15:31  5-MIN KMSN 110115Z 18005KT 4SM BR OVC026 06/04 A2996 830 89 0 180/05 RMK AO2
14837KMSN MSN20031110192010211/10/03 19:20:31  5-MIN KMSN 110120Z 18005KT 4SM BR BKN024 OVC029 06/04 A2996 830 89 0 180/05 RMK AO2
14837KMSN MSN20031110192510211/10/03 19:25:31  5-MIN KMSN 110125Z 19004KT 4SM BR BKN022 OVC029 06/04 A2995 830 89 0 180/04 RMK AO2
14837KMSN MSN20031110193010211/10/03 19:30:31  5-MIN KMSN 110130Z 19005KT 4SM BR BKN020 OVC026 06/04 A2995 840 89 0 190/05 RMK AO2
14837KMSN MSN20031110193510211/10/03 19:35:31  5-MIN KMSN 110135Z 18006KT 4SM BR BKN018 OVC026 06/04 A2995 840 86 0 180/06 RMK AO2
14837KMSN MSN20031110194010211/10/03 19:40:31  5-MIN KMSN 110140Z 17006KT 4SM BR BKN020 OVC026 06/04 A2994 850 86 0 170/06 RMK AO2
14837KMSN MSN20031110194509511/10/03 19:45:31  5-MIN KMSN 110145Z 18005KT 4SM BR OVC020 06/04 A2994 850 86 0 180/05 RMK AO2
14837KMSN MSN20031110195011911/10/03 19:50:31  5-MIN KMSN 110150Z 19005KT 4SM BR BKN020 OVC026 06/04 A2993 850 86 0 190/05 RMK AO2 SLP144 T00610039
14837KMSN MSN20031110195510211/10/03 19:55:31  5-MIN KMSN 110155Z 19007KT 4SM HZ BKN018 OVC026 06/03 A2993 850 82 0 190/07 RMK AO2
14837KMSN MSN20031110200010211/10/03 20:00:31  5-MIN KMSN 110200Z 18007KT 4SM BR BKN018 OVC026 06/04 A2993 860 86 0 180/07 RMK AO2
14837KMSN MSN20031110200510211/10/03 20:05:31  5-MIN KMSN 110205Z 18007KT 4SM BR BKN018 OVC028 06/04 A2992 860 86 0 180/07 RMK AO2
14837KMSN MSN20031110201010211/10/03 20:10:31  5-MIN KMSN 110210Z 19006KT 4SM BR BKN018 OVC028 06/04 A2993 860 86 0 190/06 RMK AO2
14837KMSN MSN20031110201510211/10/03 20:15:31  5-MIN KMSN 110215Z 19005KT 4SM BR BKN018 OVC028 06/04 A2993 860 86 0 190/05 RMK AO2
14837KMSN MSN20031110202010211/10/03 20:20:31  5-MIN KMSN 110220Z 18006KT 4SM BR BKN018 OVC028 06/04 A2993 860 86 0 180/06 RMK AO2
14837KMSN MSN20031110202511811/10/03 20:25:31  5-MIN KMSN 110225Z 19006KT 4SM -DZ BR BKN016 OVC028 06/04 A2993 860 86 0 180/06 RMK AO2 DZB24 P0000
14837KMSN MSN20031110203011811/10/03 20:30:31  5-MIN KMSN 110230Z 17007KT 3SM -DZ BR BKN016 OVC028 06/04 A2992 860 86 0 170/07 RMK AO2 DZB24 P0000
14837KMSN MSN20031110203511811/10/03 20:35:31  5-MIN KMSN 110235Z 17006KT 3SM -DZ BR BKN016 OVC024 06/04 A2992 870 89 0 170/06 RMK AO2 DZB24 P0000
14837KMSN MSN20031110204011811/10/03 20:40:31  5-MIN KMSN 110240Z 17007KT 3SM -DZ BR BKN014 OVC024 06/04 A2991 870 89 0 170/07 RMK AO2 DZB24 P0000
14837KMSN MSN20031110204513211/10/03 20:45:31  5-MIN KMSN 110245Z 17007KT 2 1/2SM -DZ BR BKN014 OVC024 06/04 A2991 870 89 0 170/07 RMK AO2 TWR VIS 3 DZB24 P0000
14837KMSN MSN20031110205016111/10/03 20:50:31  5-MIN KMSN 110250Z 17006KT 2 1/2SM -DZ BR BKN012 OVC024 06/04 A2991 870 92 0 170/06 RMK AO2 TWR VIS 3 DZB24 SLP137 P0000 60000 T00560044 58027
14837KMSN MSN20031110205512611/10/03 20:55:31  5-MIN KMSN 110255Z 17005KT 2 1/2SM -DZ BR BKN012 OVC024 06/04 A2991 880 92 0 170/05 RMK AO2 TWR VIS 3 P0000
14837KMSN MSN20031110210012611/10/03 21:00:31  5-MIN KMSN 110300Z 18005KT 2 1/2SM -DZ BR BKN012 OVC022 06/04 A2991 880 92 0 180/05 RMK AO2 TWR VIS 3 P0000
14837KMSN MSN20031110210511211/10/03 21:05:31  5-MIN KMSN 110305Z 18004KT 2SM -DZ BR SCT007 OVC012 05/04 A2991 880 96 0 170/04 RMK AO2 P0000
14837KMSN MSN20031110211011211/10/03 21:10:31  5-MIN KMSN 110310Z 18005KT 2SM -DZ BR SCT007 OVC012 06/04 A2991 880 92 0 180/05 RMK AO2 P0000
14837KMSN MSN20031110211511211/10/03 21:15:31  5-MIN KMSN 110315Z 18005KT 2SM -DZ BR BKN007 OVC012 06/04 A2991 880 92 0 180/05 RMK AO2 P0000
14837KMSN MSN20031110212011211/10/03 21:20:31  5-MIN KMSN 110320Z 17005KT 2SM -DZ BR BKN007 OVC012 06/04 A2990 890 92 0 170/05 RMK AO2 P0000
14837KMSN MSN20031110212511211/10/03 21:25:31  5-MIN KMSN 110325Z 17005KT 2SM -DZ BR BKN007 OVC012 06/04 A2990 890 92 0 160/05 RMK AO2 P0000
14837KMSN MSN20031110213011711/10/03 21:30:31  5-MIN KMSN 110330Z 17006KT 2SM -DZ BR OVC007 06/04 A2989 890 92 0 170/06 RMK AO2 CIG 004V009 P0000
14837KMSN MSN20031110213511711/10/03 21:35:31  5-MIN KMSN 110335Z 18005KT 2SM -DZ BR OVC005 06/05 A2990 890 96 0 170/05 RMK AO2 CIG 003V009 P0000
14837KMSN MSN20031110214011711/10/03 21:40:31  5-MIN KMSN 110340Z 18005KT 2SM -DZ BR OVC005 06/05 A2989 890 96 0 170/05 RMK AO2 CIG 003V009 P0000
14837KMSN MSN20031110214511711/10/03 21:45:31  5-MIN KMSN 110345Z 16005KT 2SM -DZ BR OVC005 06/05 A2989 890 96 0 160/05 RMK AO2 CIG 003V008 P0000
14837KMSN MSN20031110215012211/10/03 21:50:31  5-MIN KMSN 110350Z 17006KT 2SM -DZ BR OVC005 06/05 A2988 900 96 0 170/06 RMK AO2 SLP126 P0000 T00560050
14837KMSN MSN20031110215510511/10/03 21:55:31  5-MIN KMSN 110355Z 17005KT 2SM -DZ BR OVC005 06/05 A2988 900 96 0 170/05 RMK AO2 P0000
14837KMSN MSN20031110220010511/10/03 22:00:31  5-MIN KMSN 110400Z 17005KT 2SM -DZ BR OVC005 06/05 A2988 900 96 0 170/05 RMK AO2 P0000
14837KMSN MSN20031110221010511/10/03 22:10:31  5-MIN KMSN 110410Z 17005KT 2SM -DZ BR OVC005 06/05 A2988 900 96 0 170/05 RMK AO2 P0000
14837KMSN MSN20031110221510511/10/03 22:15:31  5-MIN KMSN 110415Z 19005KT 2SM -DZ BR OVC003 06/05 A2988 900 96 0 190/05 RMK AO2 P0000
14837KMSN MSN20031110222010511/10/03 22:20:31  5-MIN KMSN 110420Z 18005KT 2SM -DZ BR OVC003 06/05 A2988 900 96 0 180/05 RMK AO2 P0000
14837KMSN MSN20031110222510511/10/03 22:25:31  5-MIN KMSN 110425Z 19005KT 2SM -DZ BR OVC003 06/05 A2988 910 96 0 190/05 RMK AO2 P0000
14837KMSN MSN20031110223010511/10/03 22:30:31  5-MIN KMSN 110430Z 21004KT 2SM -DZ BR OVC003 06/05 A2988 900 96 0 200/04 RMK AO2 P0000
14837KMSN MSN20031110223510511/10/03 22:35:31  5-MIN KMSN 110435Z 21004KT 2SM -DZ BR OVC003 06/05 A2988 900 96 0 210/04 RMK AO2 P0000
14837KMSN MSN20031110224010511/10/03 22:40:31  5-MIN KMSN 110440Z 20005KT 2SM -DZ BR OVC003 06/05 A2988 900 96 0 200/05 RMK AO2 P0000
14837KMSN MSN20031110224510511/10/03 22:45:31  5-MIN KMSN 110445Z 20005KT 2SM -DZ BR OVC003 06/05 A2987 910 96 0 200/05 RMK AO2 P0000
14837KMSN MSN20031110225012211/10/03 22:50:31  5-MIN KMSN 110450Z 20005KT 2SM -DZ BR OVC003 06/05 A2987 910 96 0 200/05 RMK AO2 SLP120 P0000 T00560050
14837KMSN MSN20031110225509511/10/03 22:55:31  5-MIN KMSN 110455Z 20005KT 2SM BR OVC003 06/05 A2987 910 96 0 200/05 RMK AO2
14837KMSN MSN20031110230009711/10/03 23:00:31  5-MIN KMSN 110500Z 20005KT 2SM BR OVC003 06/06 A2986 920 96 100 200/05 RMK AO2
14837KMSN MSN20031110230510111/10/03 23:05:31  5-MIN KMSN 110505Z 20006KT 2 1/2SM BR OVC003 06/06 A2986 920 96 100 200/06 RMK AO2
14837KMSN MSN20031110231010111/10/03 23:10:31  5-MIN KMSN 110510Z 20005KT 2 1/2SM BR OVC003 06/06 A2985 930 96 100 200/05 RMK AO2
14837KMSN MSN20031110231510111/10/03 23:15:31  5-MIN KMSN 110515Z 21007KT 2 1/2SM BR OVC003 06/06 A2985 930 96 100 210/07 RMK AO2
14837KMSN MSN20031110232009711/10/03 23:20:31  5-MIN KMSN 110520Z 21007KT 3SM BR OVC003 06/06 A2985 930 96 100 210/07 RMK AO2
14837KMSN MSN20031110232510111/10/03 23:25:31  5-MIN KMSN 110525Z 22006KT 2 1/2SM BR OVC003 06/06 A2985 930 96 100 220/06 RMK AO2
14837KMSN MSN20031110233010111/10/03 23:30:31  5-MIN KMSN 110530Z 22006KT 2 1/2SM BR OVC003 06/06 A2985 930 96 100 210/06 RMK AO2
14837KMSN MSN20031110233510111/10/03 23:35:31  5-MIN KMSN 110535Z 21006KT 2 1/2SM BR OVC003 06/06 A2985 930 96 100 210/06 RMK AO2
14837KMSN MSN20031110234010111/10/03 23:40:31  5-MIN KMSN 110540Z 21006KT 2 1/2SM BR OVC003 06/06 A2985 930 96 100 210/06 RMK AO2
14837KMSN MSN20031110234510111/10/03 23:45:31  5-MIN KMSN 110545Z 22006KT 2 1/2SM BR OVC005 06/06 A2985 930 96 100 210/06 RMK AO2
14837KMSN MSN20031110235014811/10/03 23:50:31  5-MIN KMSN 110550Z 21008KT 3SM BR OVC005 07/06 A2985 930 93 200 210/08 RMK AO2 SLP113 60000 T00670056 10072 20050 400781033 58022
14837KMSN MSN20031110235509711/10/03 23:55:31  5-MIN KMSN 110555Z 21004KT 3SM BR OVC005 07/06 A2985 930 93 200 210/04 RMK AO2
14837KMSN MSN20031111000009711/11/03 00:00:31  5-MIN KMSN 110600Z 21007KT 3SM BR OVC005 07/06 A2985 930 93 200 210/07 RMK AO2
14837KMSN MSN20031111000509711/11/03 00:05:31  5-MIN KMSN 110605Z 21005KT 3SM BR OVC005 07/06 A2985 930 93 200 210/05 RMK AO2
14837KMSN MSN20031111001010911/11/03 00:10:31  5-MIN KMSN 110610Z 22008KT 3SM BR OVC005 07/06 A2985 930 93 200 220/08 RMK AO2 CIG 004V008
14837KMSN MSN20031111001510911/11/03 00:15:31  5-MIN KMSN 110615Z 22007KT 3SM BR OVC005 07/06 A2985 930 93 200 220/07 RMK AO2 CIG 004V008
14837KMSN MSN20031111002009711/11/03 00:20:31  5-MIN KMSN 110620Z 22008KT 3SM BR OVC005 07/06 A2985 930 93 200 220/08 RMK AO2
14837KMSN MSN20031111002509711/11/03 00:25:31  5-MIN KMSN 110625Z 21006KT 3SM BR OVC005 07/06 A2985 930 93 200 210/06 RMK AO2
14837KMSN MSN20031111003009711/11/03 00:30:31  5-MIN KMSN 110630Z 22007KT 3SM BR OVC005 07/06 A2985 930 93 200 220/07 RMK AO2
14837KMSN MSN20031111003511311/11/03 00:35:31  5-MIN KMSN 110635Z 21007KT 180V240 3SM BR OVC005 07/06 A2984 930 93 200 210/07 180V240 RMK AO2
14837KMSN MSN20031111004009711/11/03 00:40:31  5-MIN KMSN 110640Z 21007KT 3SM BR OVC005 07/06 A2984 930 93 200 210/07 RMK AO2
14837KMSN MSN20031111004509711/11/03 00:45:31  5-MIN KMSN 110645Z 22007KT 3SM BR OVC005 07/06 A2985 930 96 200 220/07 RMK AO2
14837KMSN MSN20031111005011411/11/03 00:50:31  5-MIN KMSN 110650Z 23007KT 3SM BR OVC005 07/06 A2985 930 93 300 230/07 RMK AO2 SLP113 T00720061
14837KMSN MSN20031111005511311/11/03 00:55:31  5-MIN KMSN 110655Z 22007KT 190V250 3SM BR OVC005 07/06 A2985 930 93 300 220/07 190V250 RMK AO2
14837KMSN MSN20031111010009711/11/03 01:00:31  5-MIN KMSN 110700Z VRB06KT 3SM BR OVC005 07/06 A2984 940 93 300 VRB/06 RMK AO2
14837KMSN MSN20031111010509711/11/03 01:05:31  5-MIN KMSN 110705Z 23006KT 3SM BR OVC005 07/06 A2984 940 96 200 230/06 RMK AO2
14837KMSN MSN20031111011009711/11/03 01:10:31  5-MIN KMSN 110710Z 24006KT 3SM BR OVC005 07/06 A2984 940 93 300 240/06 RMK AO2
14837KMSN MSN20031111011509711/11/03 01:15:31  5-MIN KMSN 110715Z 23006KT 3SM BR OVC005 07/06 A2984 940 93 300 230/06 RMK AO2
14837KMSN MSN20031111012011311/11/03 01:20:31  5-MIN KMSN 110720Z 24007KT 200V270 4SM BR OVC005 07/06 A2984 940 93 300 240/07 200V270 RMK AO2
14837KMSN MSN20031111012509711/11/03 01:25:31  5-MIN KMSN 110725Z VRB06KT 4SM BR OVC005 07/06 A2984 940 93 300 VRB/06 RMK AO2
14837KMSN MSN20031111013009711/11/03 01:30:31  5-MIN KMSN 110730Z 22007KT 4SM BR OVC005 07/06 A2984 940 93 300 220/07 RMK AO2
14837KMSN MSN20031111013509711/11/03 01:35:31  5-MIN KMSN 110735Z 23007KT 4SM BR OVC005 07/06 A2983 950 93 300 230/07 RMK AO2
14837KMSN MSN20031111014009711/11/03 01:40:31  5-MIN KMSN 110740Z 22005KT 4SM BR OVC005 07/06 A2983 940 93 300 220/05 RMK AO2
14837KMSN MSN20031111014509711/11/03 01:45:31  5-MIN KMSN 110745Z 23007KT 4SM BR OVC005 07/06 A2984 940 93 300 230/07 RMK AO2
14837KMSN MSN20031111015011411/11/03 01:50:31  5-MIN KMSN 110750Z 22006KT 4SM BR OVC005 07/06 A2984 940 93 300 220/06 RMK AO2 SLP109 T00720061
14837KMSN MSN20031111015509711/11/03 01:55:31  5-MIN KMSN 110755Z 23007KT 5SM BR OVC005 07/06 A2984 940 93 300 230/07 RMK AO2
14837KMSN MSN20031111020009711/11/03 02:00:31  5-MIN KMSN 110800Z 23007KT 5SM BR OVC005 07/06 A2983 950 93 300 230/07 RMK AO2
14837KMSN MSN20031111020509711/11/03 02:05:31  5-MIN KMSN 110805Z 22007KT 4SM BR OVC005 07/06 A2983 950 93 300 220/07 RMK AO2
14837KMSN MSN20031111021009711/11/03 02:10:31  5-MIN KMSN 110810Z 22007KT 4SM BR OVC005 07/06 A2983 950 93 300 220/07 RMK AO2
14837KMSN MSN20031111021509711/11/03 02:15:31  5-MIN KMSN 110815Z 23007KT 4SM BR OVC005 07/06 A2984 940 93 300 230/07 RMK AO2
14837KMSN MSN20031111022009711/11/03 02:20:31  5-MIN KMSN 110820Z 22007KT 4SM BR OVC005 07/07 A2984 940 96 300 220/07 RMK AO2
14837KMSN MSN20031111022509711/11/03 02:25:31  5-MIN KMSN 110825Z 22007KT 4SM BR OVC005 07/07 A2984 940 96 300 220/07 RMK AO2
14837KMSN MSN20031111023009711/11/03 02:30:31  5-MIN KMSN 110830Z 23007KT 4SM BR OVC005 07/07 A2983 940 96 300 230/07 RMK AO2
14837KMSN MSN20031111023509711/11/03 02:35:31  5-MIN KMSN 110835Z 22005KT 4SM BR OVC005 07/07 A2984 940 96 300 220/05 RMK AO2
14837KMSN MSN20031111024009711/11/03 02:40:31  5-MIN KMSN 110840Z 22008KT 4SM BR OVC005 07/07 A2983 950 96 300 220/08 RMK AO2
14837KMSN MSN20031111024509711/11/03 02:45:31  5-MIN KMSN 110845Z 23008KT 4SM BR OVC005 07/07 A2982 950 96 300 230/08 RMK AO2
14837KMSN MSN20031111025012011/11/03 02:50:31  5-MIN KMSN 110850Z 22007KT 4SM BR OVC005 07/07 A2982 960 96 300 220/07 RMK AO2 SLP103 T00720067 56021
14837KMSN MSN20031111025509711/11/03 02:55:31  5-MIN KMSN 110855Z 22008KT 4SM BR OVC005 07/07 A2982 960 96 300 220/08 RMK AO2
14837KMSN MSN20031111030009711/11/03 03:00:31  5-MIN KMSN 110900Z 23008KT 4SM BR OVC005 07/07 A2981 960 96 300 230/08 RMK AO2
14837KMSN MSN20031111030509711/11/03 03:05:31  5-MIN KMSN 110905Z 23008KT 4SM BR OVC005 07/07 A2982 960 96 300 230/08 RMK AO2
14837KMSN MSN20031111031009711/11/03 03:10:31  5-MIN KMSN 110910Z 23008KT 4SM BR OVC005 07/07 A2982 960 96 300 230/08 RMK AO2
14837KMSN MSN20031111031509711/11/03 03:15:31  5-MIN KMSN 110915Z 23006KT 4SM BR OVC005 07/07 A2981 960 96 300 230/06 RMK AO2
14837KMSN MSN20031111032010311/11/03 03:20:31  5-MIN KMSN 110920Z 23010G15KT 4SM BR OVC003 07/07 A2982 960 96 300 230/10G15 RMK AO2
14837KMSN MSN20031111032510311/11/03 03:25:31  5-MIN KMSN 110925Z 22007G15KT 3SM BR OVC003 07/07 A2982 960 96 300 220/07G15 RMK AO2
14837KMSN MSN20031111033009711/11/03 03:30:31  5-MIN KMSN 110930Z 22009KT 3SM BR OVC003 07/07 A2982 960 96 300 220/09 RMK AO2
14837KMSN MSN20031111033509711/11/03 03:35:31  5-MIN KMSN 110935Z 22008KT 3SM BR OVC003 07/07 A2982 950 96 300 220/08 RMK AO2
14837KMSN MSN20031111034009711/11/03 03:40:31  5-MIN KMSN 110940Z 22009KT 3SM BR OVC003 07/07 A2982 960 96 300 220/09 RMK AO2
14837KMSN MSN20031111034509711/11/03 03:45:31  5-MIN KMSN 110945Z 23006KT 3SM BR OVC003 07/07 A2982 960 96 300 230/06 RMK AO2
14837KMSN MSN20031111035011411/11/03 03:50:31  5-MIN KMSN 110950Z 23006KT 3SM BR OVC003 07/07 A2982 950 96 300 230/06 RMK AO2 SLP104 T00720067
14837KMSN MSN20031111035510111/11/03 03:55:31  5-MIN KMSN 110955Z VRB06KT 2 1/2SM BR OVC003 07/07 A2982 950 96 300 VRB/06 RMK AO2
14837KMSN MSN20031111040010111/11/03 04:00:31  5-MIN KMSN 111000Z VRB05KT 2 1/2SM BR OVC003 07/07 A2982 960 96 300 VRB/05 RMK AO2
14837KMSN MSN20031111040510111/11/03 04:05:31  5-MIN KMSN 111005Z 23007KT 2 1/2SM BR OVC003 07/07 A2982 960 96 300 230/07 RMK AO2
14837KMSN MSN20031111041010111/11/03 04:10:31  5-MIN KMSN 111010Z 23006KT 2 1/2SM BR OVC003 07/07 A2981 960 96 300 230/06 RMK AO2
14837KMSN MSN20031111041509711/11/03 04:15:31  5-MIN KMSN 111015Z 22006KT 3SM BR OVC003 07/07 A2982 960 96 300 220/06 RMK AO2
14837KMSN MSN20031111042009711/11/03 04:20:31  5-MIN KMSN 111020Z 22007KT 3SM BR OVC003 07/07 A2981 960 96 300 220/07 RMK AO2
14837KMSN MSN20031111042509711/11/03 04:25:31  5-MIN KMSN 111025Z 22008KT 3SM BR OVC003 08/07 A2981 960 93 400 220/08 RMK AO2
14837KMSN MSN20031111043009711/11/03 04:30:31  5-MIN KMSN 111030Z 23006KT 3SM BR OVC003 08/07 A2981 960 93 400 230/06 RMK AO2
14837KMSN MSN20031111043509711/11/03 04:35:31  5-MIN KMSN 111035Z VRB05KT 3SM BR OVC003 08/07 A2981 960 93 400 VRB/05 RMK AO2
14837KMSN MSN20031111044010111/11/03 04:40:31  5-MIN KMSN 111040Z 22006KT 2 1/2SM BR OVC003 08/07 A2982 960 93 400 220/06 RMK AO2
14837KMSN MSN20031111044510111/11/03 04:45:31  5-MIN KMSN 111045Z VRB06KT 2 1/2SM BR OVC003 08/07 A2982 960 96 400 VRB/06 RMK AO2
14837KMSN MSN20031111045011811/11/03 04:50:31  5-MIN KMSN 111050Z 23006KT 2 1/2SM BR OVC003 08/07 A2982 960 96 400 230/06 RMK AO2 SLP103 T00780072
14837KMSN MSN20031111045510111/11/03 04:55:31  5-MIN KMSN 111055Z 23008KT 2 1/2SM BR OVC003 08/07 A2982 950 96 400 220/08 RMK AO2
14837KMSN MSN20031111050010111/11/03 05:00:31  5-MIN KMSN 111100Z 22007KT 2 1/2SM BR OVC003 08/07 A2983 950 96 400 220/07 RMK AO2
14837KMSN MSN20031111050510111/11/03 05:05:31  5-MIN KMSN 111105Z VRB06KT 2 1/2SM BR OVC003 08/07 A2983 950 96 400 VRB/06 RMK AO2
14837KMSN MSN20031111051010111/11/03 05:10:31  5-MIN KMSN 111110Z 21007KT 2 1/2SM BR OVC003 08/07 A2982 950 96 400 210/07 RMK AO2
14837KMSN MSN20031111051510111/11/03 05:15:31  5-MIN KMSN 111115Z VRB05KT 2 1/2SM BR OVC003 08/07 A2982 950 96 400 VRB/05 RMK AO2
14837KMSN MSN20031111052009711/11/03 05:20:31  5-MIN KMSN 111120Z VRB06KT 2SM BR OVC003 08/07 A2982 950 96 400 VRB/06 RMK AO2
14837KMSN MSN20031111052509711/11/03 05:25:31  5-MIN KMSN 111125Z VRB05KT 2SM BR OVC003 08/07 A2982 960 96 400 VRB/05 RMK AO2
14837KMSN MSN20031111053009711/11/03 05:30:31  5-MIN KMSN 111130Z 23006KT 2SM BR OVC003 08/07 A2982 950 96 400 230/06 RMK AO2
14837KMSN MSN20031111053511711/11/03 05:35:31  5-MIN KMSN 111135Z 22007KT 1 1/2SM -DZ BR OVC003 08/07 A2982 950 96 400 220/07 RMK AO2 DZB31 P0000
14837KMSN MSN20031111054011711/11/03 05:40:31  5-MIN KMSN 111140Z 22006KT 1 1/2SM -DZ BR OVC003 08/07 A2982 950 96 400 220/06 RMK AO2 DZB31 P0000
14837KMSN MSN20031111054511711/11/03 05:45:31  5-MIN KMSN 111145Z 22006KT 1 1/2SM -DZ BR OVC003 08/07 A2982 950 96 400 220/06 RMK AO2 DZB31 P0000
14837KMSN MSN20031111055015411/11/03 05:50:31  5-MIN KMSN 111150Z 22007KT 2SM -DZ BR OVC003 08/07 A2982 950 96 400 210/07 RMK AO2 DZB31 SLP104 P0000 60000 T00780072 10078 20067 58009
14837KMSN MSN20031111055510711/11/03 05:55:31  5-MIN KMSN 111155Z 22006KT 3SM -DZ BR OVC003 08/07 A2983 950 96 400 220/06 RMK AO2 P0000
14837KMSN MSN20031111060010711/11/03 06:00:31  5-MIN KMSN 111200Z 22008KT 3SM -DZ BR OVC003 08/07 A2983 950 96 400 220/08 RMK AO2 P0000
14837KMSN MSN20031111060510711/11/03 06:05:31  5-MIN KMSN 111205Z 21007KT 3SM -DZ BR OVC003 08/07 A2983 950 96 400 210/07 RMK AO2 P0000
14837KMSN MSN20031111061011911/11/03 06:10:31  5-MIN KMSN 111210Z 21006KT 3SM -DZ BR OVC005 08/07 A2982 960 96 400 210/06 RMK AO2 CIG 003V007 P0000
14837KMSN MSN20031111061512111/11/03 06:15:31  5-MIN KMSN 111215Z 21007KT 4SM BR OVC005 08/07 A2982 960 96 400 210/07 RMK AO2 DZE11 CIG 003V008 P0000
14837KMSN MSN20031111062012811/11/03 06:20:31  5-MIN KMSN 111220Z 20007KT 4SM BR BKN005 OVC010 08/07 A2982 960 96 400 200/07 RMK AO2 DZE11 CIG 003V009 P0000
14837KMSN MSN20031111062512811/11/03 06:25:31  5-MIN KMSN 111225Z 21009KT 4SM BR BKN005 OVC010 08/07 A2982 960 93 400 210/09 RMK AO2 DZE11 CIG 004V008 P0000
14837KMSN MSN20031111063012811/11/03 06:30:31  5-MIN KMSN 111230Z 21008KT 4SM BR BKN007 OVC020 08/07 A2982 960 93 400 210/08 RMK AO2 DZE11 CIG 004V010 P0000
14837KMSN MSN20031111063512811/11/03 06:35:31  5-MIN KMSN 111235Z 22006KT 4SM BR BKN007 OVC020 08/07 A2982 960 93 400 220/06 RMK AO2 DZE11 CIG 005V010 P0000
14837KMSN MSN20031111064012811/11/03 06:40:31  5-MIN KMSN 111240Z 21007KT 4SM BR BKN007 OVC020 08/07 A2982 960 93 400 210/07 RMK AO2 DZE11 CIG 005V010 P0000
14837KMSN MSN20031111064511611/11/03 06:45:31  5-MIN KMSN 111245Z 21006KT 3SM BR SCT007 OVC020 08/07 A2982 960 93 400 210/06 RMK AO2 DZE11 P0000
14837KMSN MSN20031111065013311/11/03 06:50:31  5-MIN KMSN 111250Z 21006KT 3SM BR SCT007 OVC020 08/07 A2982 960 93 400 210/06 RMK AO2 DZE11 SLP101 P0000 T00830072
14837KMSN MSN20031111065511411/11/03 06:55:31  5-MIN KMSN 111255Z 21006KT 3SM BR BKN009 OVC020 08/07 A2982 960 93 400 210/06 RMK AO2 SFC VIS 6
14837KMSN MSN20031111070010411/11/03 07:00:31  5-MIN KMSN 111300Z 22007KT 3SM BR BKN009 OVC020 08/07 A2982 960 93 400 210/07 RMK AO2
14837KMSN MSN20031111070510411/11/03 07:05:31  5-MIN KMSN 111305Z 22007KT 3SM BR BKN009 OVC020 08/07 A2982 960 93 400 220/07 RMK AO2
14837KMSN MSN20031111071010411/11/03 07:10:31  5-MIN KMSN 111310Z 22008KT 3SM BR BKN009 OVC020 08/07 A2982 960 93 400 210/08 RMK AO2
14837KMSN MSN20031111071510911/11/03 07:15:31  5-MIN KMSN 111315Z 21008KT 3SM BR OVC009 08/07 A2982 960 93 400 210/08 RMK AO2 CIG 006V011
14837KMSN MSN20031111072010911/11/03 07:20:31  5-MIN KMSN 111320Z 21008KT 3SM BR OVC007 08/07 A2982 950 93 400 210/08 RMK AO2 CIG 006V011
14837KMSN MSN20031111072510911/11/03 07:25:31  5-MIN KMSN 111325Z 22006KT 3SM BR OVC007 08/07 A2982 950 93 400 220/06 RMK AO2 CIG 006V011
14837KMSN MSN20031111073010911/11/03 07:30:31  5-MIN KMSN 111330Z 22008KT 3SM BR OVC007 08/07 A2983 950 93 400 220/08 RMK AO2 CIG 006V011
14837KMSN MSN20031111073510911/11/03 07:35:31  5-MIN KMSN 111335Z 23007KT 3SM BR OVC007 08/07 A2983 950 93 400 220/07 RMK AO2 CIG 006V011
14837KMSN MSN20031111074010911/11/03 07:40:31  5-MIN KMSN 111340Z 22008KT 3SM BR OVC007 08/07 A2983 950 93 400 220/08 RMK AO2 CIG 006V010
14837KMSN MSN20031111074509711/11/03 07:45:31  5-MIN KMSN 111345Z 23005KT 3SM BR OVC007 08/07 A2983 950 93 400 230/05 RMK AO2
14837KMSN MSN20031111075012411/11/03 07:50:31  5-MIN KMSN 111350Z VRB05KT 3SM BR OVC007 08/07 A2983 940 93 400 VRB/05 RMK AO2 SFC VIS 4 SLP107 T00830072
14837KMSN MSN20031111075510711/11/03 07:55:31  5-MIN KMSN 111355Z 22005KT 3SM BR OVC007 08/07 A2983 950 93 400 220/05 RMK AO2 SFC VIS 5
14837KMSN MSN20031111080010711/11/03 08:00:31  5-MIN KMSN 111400Z VRB04KT 3SM BR OVC007 08/07 A2983 950 93 400 VRB/04 RMK AO2 SFC VIS 4
14837KMSN MSN20031111080511411/11/03 08:05:31  5-MIN KMSN 111405Z VRB04KT 3SM BR BKN007 OVC013 08/07 A2983 950 93 400 VRB/04 RMK AO2 SFC VIS 4
14837KMSN MSN20031111081010711/11/03 08:10:31  5-MIN KMSN 111410Z 23004KT 3SM BR OVC007 09/07 A2983 950 89 500 230/04 RMK AO2 SFC VIS 5
14837KMSN MSN20031111081510711/11/03 08:15:31  5-MIN KMSN 111415Z VRB04KT 3SM BR OVC007 09/07 A2984 940 89 500 VRB/04 RMK AO2 SFC VIS 5
14837KMSN MSN20031111082011911/11/03 08:20:31  5-MIN KMSN 111420Z 22003KT 3SM BR OVC007 09/07 A2984 940 89 500 220/03 RMK AO2 SFC VIS 5 CIG 007V011
14837KMSN MSN20031111082511411/11/03 08:25:31  5-MIN KMSN 111425Z VRB04KT 3SM BR BKN007 OVC012 09/07 A2984 940 89 500 VRB/04 RMK AO2 SFC VIS 4
14837KMSN MSN20031111083010711/11/03 08:30:31  5-MIN KMSN 111430Z VRB03KT 3SM BR OVC007 09/07 A2984 940 89 500 VRB/03 RMK AO2 SFC VIS 4
14837KMSN MSN20031111083510711/11/03 08:35:31  5-MIN KMSN 111435Z 24004KT 3SM BR OVC007 09/07 A2983 940 89 500 240/04 RMK AO2 SFC VIS 4
14837KMSN MSN20031111084011911/11/03 08:40:31  5-MIN KMSN 111440Z VRB05KT 3SM BR OVC007 09/08 A2983 950 93 500 VRB/05 RMK AO2 SFC VIS 4 CIG 007V012
14837KMSN MSN20031111084510711/11/03 08:45:31  5-MIN KMSN 111445Z 22006KT 3SM BR OVC007 09/08 A2983 950 93 500 220/06 RMK AO2 SFC VIS 4
14837KMSN MSN20031111085014811/11/03 08:50:31  5-MIN KMSN 111450Z 24004KT 3SM BR OVC007 09/08 A2983 940 93 500 230/04 RMK AO2 SFC VIS 4 CIG 007V010 SLP107 60000 T00890078 51002
14837KMSN MSN20031111085511911/11/03 08:55:31  5-MIN KMSN 111455Z 24005KT 3SM BR OVC007 09/08 A2983 940 93 500 240/05 RMK AO2 SFC VIS 4 CIG 007V010
14837KMSN MSN20031111090011911/11/03 09:00:31  5-MIN KMSN 111500Z 22006KT 3SM BR OVC007 09/08 A2984 940 93 500 220/06 RMK AO2 SFC VIS 4 CIG 007V013
14837KMSN MSN20031111090511911/11/03 09:05:31  5-MIN KMSN 111505Z 23006KT 3SM BR OVC007 09/08 A2984 940 93 500 230/06 RMK AO2 SFC VIS 4 CIG 007V010
14837KMSN MSN20031111091011911/11/03 09:10:31  5-MIN KMSN 111510Z 23005KT 3SM BR OVC007 09/08 A2983 950 93 500 230/05 RMK AO2 SFC VIS 4 CIG 007V012
14837KMSN MSN20031111091511911/11/03 09:15:31  5-MIN KMSN 111515Z 23006KT 3SM BR OVC007 09/08 A2983 950 93 500 220/06 RMK AO2 SFC VIS 4 CIG 007V012
14837KMSN MSN20031111092011911/11/03 09:20:31  5-MIN KMSN 111520Z 23006KT 3SM BR OVC007 09/08 A2983 940 93 500 230/06 RMK AO2 SFC VIS 4 CIG 007V012
14837KMSN MSN20031111092511911/11/03 09:25:31  5-MIN KMSN 111525Z 22006KT 3SM BR OVC009 09/08 A2983 940 93 500 220/06 RMK AO2 SFC VIS 4 CIG 007V012
14837KMSN MSN20031111093011911/11/03 09:30:31  5-MIN KMSN 111530Z 22008KT 3SM BR OVC009 09/08 A2984 940 89 500 220/08 RMK AO2 SFC VIS 4 CIG 007V012
14837KMSN MSN20031111093511911/11/03 09:35:31  5-MIN KMSN 111535Z 25006KT 3SM BR OVC009 09/08 A2984 940 89 500 250/06 RMK AO2 SFC VIS 4 CIG 007V013
14837KMSN MSN20031111094010711/11/03 09:40:31  5-MIN KMSN 111540Z 22007KT 3SM BR OVC011 09/08 A2984 940 89 500 220/07 RMK AO2 SFC VIS 4
14837KMSN MSN20031111094509711/11/03 09:45:31  5-MIN KMSN 111545Z 23007KT 4SM BR OVC011 09/08 A2984 940 89 500 230/07 RMK AO2
14837KMSN MSN20031111095011411/11/03 09:50:31  5-MIN KMSN 111550Z VRB06KT 4SM BR OVC011 09/08 A2983 940 89 500 VRB/06 RMK AO2 SLP107 T00940078
14837KMSN MSN20031111095509711/11/03 09:55:31  5-MIN KMSN 111555Z 23007KT 4SM BR OVC011 09/08 A2983 940 89 500 230/07 RMK AO2
14837KMSN MSN20031111100009711/11/03 10:00:31  5-MIN KMSN 111600Z VRB06KT 4SM BR OVC011 09/08 A2984 940 89 500 VRB/06 RMK AO2
14837KMSN MSN20031111100509711/11/03 10:05:31  5-MIN KMSN 111605Z 24006KT 4SM BR OVC011 09/08 A2984 940 89 500 230/06 RMK AO2
14837KMSN MSN20031111101011311/11/03 10:10:31  5-MIN KMSN 111610Z 22007KT 190V260 4SM BR OVC011 09/08 A2984 940 89 500 220/07 190V260 RMK AO2
14837KMSN MSN20031111101509711/11/03 10:15:31  5-MIN KMSN 111615Z 23007KT 4SM BR OVC011 09/08 A2984 940 89 500 230/07 RMK AO2
14837KMSN MSN20031111102009711/11/03 10:20:31  5-MIN KMSN 111620Z VRB06KT 5SM BR OVC011 09/08 A2984 940 89 500 VRB/06 RMK AO2
14837KMSN MSN20031111102509711/11/03 10:25:31  5-MIN KMSN 111625Z 23007KT 5SM BR OVC011 09/08 A2984 940 89 500 230/07 RMK AO2
14837KMSN MSN20031111103009711/11/03 10:30:31  5-MIN KMSN 111630Z 24008KT 5SM BR OVC011 09/08 A2983 940 89 500 240/08 RMK AO2
14837KMSN MSN20031111103509711/11/03 10:35:31  5-MIN KMSN 111635Z 23008KT 5SM BR OVC011 09/08 A2983 950 89 500 230/08 RMK AO2
14837KMSN MSN20031111104009711/11/03 10:40:31  5-MIN KMSN 111640Z 23007KT 5SM BR OVC011 10/08 A2983 950 86 600 230/07 RMK AO2
14837KMSN MSN20031111104509711/11/03 10:45:31  5-MIN KMSN 111645Z 22009KT 5SM BR OVC011 10/08 A2983 950 86 600 220/09 RMK AO2
14837KMSN MSN20031111105011411/11/03 10:50:31  5-MIN KMSN 111650Z 22008KT 5SM BR OVC011 10/08 A2983 950 86 600 220/08 RMK AO2 SLP105 T01000078
14837KMSN MSN20031111105509711/11/03 10:55:31  5-MIN KMSN 111655Z 22008KT 5SM BR OVC013 10/08 A2983 950 86 600 220/08 RMK AO2
14837KMSN MSN20031111110009711/11/03 11:00:31  5-MIN KMSN 111700Z 22007KT 5SM BR OVC013 10/08 A2982 950 86 600 220/07 RMK AO2
14837KMSN MSN20031111110509711/11/03 11:05:31  5-MIN KMSN 111705Z 23007KT 5SM BR OVC013 10/08 A2982 960 86 600 220/07 RMK AO2
14837KMSN MSN20031111111009711/11/03 11:10:31  5-MIN KMSN 111710Z 23007KT 5SM BR OVC013 10/08 A2982 960 86 600 230/07 RMK AO2
14837KMSN MSN20031111111509711/11/03 11:15:31  5-MIN KMSN 111715Z 23008KT 5SM BR OVC011 10/08 A2982 960 86 600 230/08 RMK AO2
14837KMSN MSN20031111112009711/11/03 11:20:31  5-MIN KMSN 111720Z 23006KT 5SM BR OVC011 10/08 A2982 960 86 600 230/06 RMK AO2
14837KMSN MSN20031111112511311/11/03 11:25:31  5-MIN KMSN 111725Z 23007KT 200V260 5SM BR OVC011 10/08 A2981 970 86 600 230/07 200V260 RMK AO2
14837KMSN MSN20031111113009711/11/03 11:30:31  5-MIN KMSN 111730Z 23007KT 5SM BR OVC011 11/08 A2981 970 86 700 230/07 RMK AO2
14837KMSN MSN20031111113511311/11/03 11:35:31  5-MIN KMSN 111735Z 24007KT 210V270 5SM HZ OVC013 11/08 A2981 970 83 700 230/07 210V270 RMK AO2
14837KMSN MSN20031111114009711/11/03 11:40:31  5-MIN KMSN 111740Z 22007KT 5SM BR OVC013 11/08 A2982 960 86 700 220/07 RMK AO2
14837KMSN MSN20031111114510411/11/03 11:45:31  5-MIN KMSN 111745Z VRB06KT 5SM HZ BKN013 OVC017 11/08 A2982 960 83 700 VRB/06 RMK AO2
14837KMSN MSN20031111115015411/11/03 11:50:31  5-MIN KMSN 111750Z 23007KT 190V280 5SM HZ OVC013 11/08 A2982 960 83 700 230/07 190V280 RMK AO2 SLP100 60000 T01060078 10106 20078 53003
14837KMSN MSN20031111115511011/11/03 11:55:31  5-MIN KMSN 111755Z 23008KT 200V270 7SM BKN015 11/08 A2982 960 83 700 230/08 200V270 RMK AO2
14837KMSN MSN20031111120009411/11/03 12:00:31  5-MIN KMSN 111800Z 24007KT 7SM BKN015 11/08 A2981 960 83 700 240/07 RMK AO2
14837KMSN MSN20031111120511011/11/03 12:05:31  5-MIN KMSN 111805Z 24007KT 200V270 7SM BKN015 11/08 A2982 960 80 800 230/07 200V270 RMK AO2
14837KMSN MSN20031111121009411/11/03 12:10:31  5-MIN KMSN 111810Z 24009KT 8SM BKN015 11/08 A2982 960 80 800 230/09 RMK AO2
14837KMSN MSN20031111121509411/11/03 12:15:31  5-MIN KMSN 111815Z 24007KT 8SM BKN017 12/08 A2981 960 77 800 240/07 RMK AO2
14837KMSN MSN20031111122010011/11/03 12:20:31  5-MIN KMSN 111820Z 23009G15KT 8SM BKN017 11/08 A2981 970 80 800 230/09G15 RMK AO2
14837KMSN MSN20031111122511611/11/03 12:25:31  5-MIN KMSN 111825Z 24008G15KT 220V280 8SM BKN017 12/08 A2981 970 77 800 240/08G15 220V280 RMK AO2
14837KMSN MSN20031111123009411/11/03 12:30:31  5-MIN KMSN 111830Z 24007KT 7SM BKN017 11/07 A2981 970 77 800 240/07 RMK AO2
14837KMSN MSN20031111123509411/11/03 12:35:31  5-MIN KMSN 111835Z 23008KT 8SM SCT017 11/08 A2980 970 80 800 230/08 RMK AO2
14837KMSN MSN20031111124011011/11/03 12:40:31  5-MIN KMSN 111840Z 23007KT 200V260 7SM SCT017 12/08 A2980 970 77 800 230/07 200V260 RMK AO2
14837KMSN MSN20031111124509411/11/03 12:45:31  5-MIN KMSN 111845Z 22010KT 7SM SCT017 12/08 A2980 970 77 800 220/10 RMK AO2
14837KMSN MSN20031111125011111/11/03 12:50:31  5-MIN KMSN 111850Z 21007KT 7SM SCT017 12/08 A2980 980 77 900 210/07 RMK AO2 SLP094 T01170078
14837KMSN MSN20031111125509711/11/03 12:55:31  5-MIN KMSN 111855Z 22007G14KT 7SM CLR 12/08 A2980 980 77 900 220/07G14 RMK AO2
14837KMSN MSN20031111130010311/11/03 13:00:31  5-MIN KMSN 111900Z 23009G14KT 6SM HZ FEW018 12/08 A2980 980 77 900 230/09G14 RMK AO2
14837KMSN MSN20031111130509411/11/03 13:05:31  5-MIN KMSN 111905Z 23007KT 7SM FEW018 12/08 A2979 980 77 900 230/07 RMK AO2
14837KMSN MSN20031111131009411/11/03 13:10:31  5-MIN KMSN 111910Z 23007KT 7SM FEW018 12/08 A2979 980 74 900 230/07 RMK AO2
14837KMSN MSN20031111131509411/11/03 13:15:31  5-MIN KMSN 111915Z 21007KT 7SM FEW018 12/07 A2979 980 74 900 210/07 RMK AO2
14837KMSN MSN20031111132009411/11/03 13:20:31  5-MIN KMSN 111920Z 22008KT 7SM FEW018 12/07 A2979 980 71 900 220/08 RMK AO2
14837KMSN MSN20031111132511011/11/03 13:25:31  5-MIN KMSN 111925Z 22007KT 190V260 7SM FEW018 12/07 A2980 980 74 900 220/07 190V260 RMK AO2
14837KMSN MSN20031111133009411/11/03 13:30:31  5-MIN KMSN 111930Z 23007KT 7SM FEW018 12/07 A2980 980 71 900 230/07 RMK AO2
14837KMSN MSN20031111133509111/11/03 13:35:31  5-MIN KMSN 111935Z 22010KT 7SM CLR 12/07 A2980 980 74 900 210/10 RMK AO2
14837KMSN MSN20031111134009411/11/03 13:40:31  5-MIN KMSN 111940Z 21009KT 6SM HZ CLR 12/07 A2980 980 74 800 210/09 RMK AO2
14837KMSN MSN20031111134509111/11/03 13:45:31  5-MIN KMSN 111945Z 22010KT 9SM CLR 12/07 A2980 980 71 900 220/10 RMK AO2
14837KMSN MSN20031111135010811/11/03 13:50:31  5-MIN KMSN 111950Z 22007KT 9SM CLR 12/07 A2980 980 71 900 220/07 RMK AO2 SLP093 T01220072
14837KMSN MSN20031111135509111/11/03 13:55:31  5-MIN KMSN 111955Z 23008KT 9SM CLR 12/07 A2980 980 71 900 230/08 RMK AO2
14837KMSN MSN20031111140009111/11/03 14:00:31  5-MIN KMSN 112000Z 22007KT 9SM CLR 12/07 A2980 980 71 900 220/07 RMK AO2
14837KMSN MSN20031111140510711/11/03 14:05:31  5-MIN KMSN 112005Z 22007KT 200V260 9SM CLR 12/07 A2980 980 71 900 220/07 200V260 RMK AO2
14837KMSN MSN20031111141009111/11/03 14:10:31  5-MIN KMSN 112010Z 22009KT 9SM CLR 12/07 A2980 980 71 900 220/09 RMK AO2
14837KMSN MSN20031111141509111/11/03 14:15:31  5-MIN KMSN 112015Z 22006KT 9SM CLR 12/07 A2980 980 71 900 220/06 RMK AO2
14837KMSN MSN20031111142009111/11/03 14:20:31  5-MIN KMSN 112020Z 22007KT 9SM CLR 12/07 A2980 980 71 900 220/07 RMK AO2
14837KMSN MSN20031111142509111/11/03 14:25:31  5-MIN KMSN 112025Z 22007KT 9SM CLR 12/07 A2980 980 71 900 220/07 RMK AO2
14837KMSN MSN20031111143009111/11/03 14:30:31  5-MIN KMSN 112030Z 23007KT 9SM CLR 12/07 A2980 980 71 900 230/07 RMK AO2
14837KMSN MSN20031111143509111/11/03 14:35:31  5-MIN KMSN 112035Z 22007KT 9SM CLR 12/07 A2980 970 71 900 220/07 RMK AO2
14837KMSN MSN20031111144009111/11/03 14:40:31  5-MIN KMSN 112040Z 22007KT 9SM CLR 12/07 A2980 980 71 900 220/07 RMK AO2
14837KMSN MSN20031111144509211/11/03 14:45:31  5-MIN KMSN 112045Z 23007KT 9SM CLR 13/07 A2980 980 69 1000 230/07 RMK AO2
14837KMSN MSN20031111145011511/11/03 14:50:31  5-MIN KMSN 112050Z 23007KT 9SM CLR 13/07 A2980 980 69 1000 230/07 RMK AO2 SLP093 T01280072 58006
14837KMSN MSN20031111145509311/11/03 14:55:31  5-MIN KMSN 112055Z 21008KT 10SM CLR 13/07 A2980 980 69 1000 210/08 RMK AO2
14837KMSN MSN20031111150010911/11/03 15:00:31  5-MIN KMSN 112100Z 22007KT 200V260 10SM CLR 13/07 A2980 980 69 1000 220/07 200V260 RMK AO2
14837KMSN MSN20031111150509311/11/03 15:05:31  5-MIN KMSN 112105Z 23007KT 10SM CLR 13/07 A2980 980 69 1000 230/07 RMK AO2
14837KMSN MSN20031111151009211/11/03 15:10:31  5-MIN KMSN 112110Z 23007KT 10SM CLR 12/07 A2980 980 71 900 230/07 RMK AO2
14837KMSN MSN20031111151509311/11/03 15:15:31  5-MIN KMSN 112115Z 22005KT 10SM CLR 13/07 A2980 980 69 1000 220/05 RMK AO2
14837KMSN MSN20031111152009311/11/03 15:20:31  5-MIN KMSN 112120Z 23006KT 10SM CLR 13/07 A2980 980 69 1000 230/06 RMK AO2
14837KMSN MSN20031111152509211/11/03 15:25:31  5-MIN KMSN 112125Z 23007KT 10SM CLR 12/07 A2980 980 68 900 230/07 RMK AO2
14837KMSN MSN20031111153009311/11/03 15:30:31  5-MIN KMSN 112130Z 21006KT 10SM CLR 13/07 A2980 970 66 1000 210/06 RMK AO2
14837KMSN MSN20031111153509211/11/03 15:35:31  5-MIN KMSN 112135Z 22006KT 10SM CLR 12/07 A2980 970 71 900 220/06 RMK AO2
14837KMSN MSN20031111154009211/11/03 15:40:31  5-MIN KMSN 112140Z 22006KT 10SM CLR 12/07 A2980 970 71 900 220/06 RMK AO2
14837KMSN MSN20031111154509211/11/03 15:45:31  5-MIN KMSN 112145Z 22006KT 10SM CLR 12/07 A2980 970 68 900 220/06 RMK AO2
14837KMSN MSN20031111155010911/11/03 15:50:31  5-MIN KMSN 112150Z 22006KT 10SM CLR 12/07 A2980 970 68 900 220/06 RMK AO2 SLP095 T01220067
14837KMSN MSN20031111155509211/11/03 15:55:31  5-MIN KMSN 112155Z 21005KT 10SM CLR 12/07 A2980 970 68 900 210/05 RMK AO2
14837KMSN MSN20031111160009211/11/03 16:00:31  5-MIN KMSN 112200Z 23005KT 10SM CLR 12/07 A2980 970 68 900 220/05 RMK AO2
14837KMSN MSN20031111160509211/11/03 16:05:31  5-MIN KMSN 112205Z 20004KT 10SM CLR 12/07 A2980 980 68 900 200/04 RMK AO2
14837KMSN MSN20031111161009211/11/03 16:10:31  5-MIN KMSN 112210Z VRB04KT 10SM CLR 12/07 A2980 980 71 800 VRB/04 RMK AO2
14837KMSN MSN20031111161509111/11/03 16:15:31  5-MIN KMSN 112215Z 20004KT 8SM CLR 12/07 A2980 980 74 800 200/04 RMK AO2
14837KMSN MSN20031111162009111/11/03 16:20:31  5-MIN KMSN 112220Z 20005KT 8SM CLR 12/07 A2980 980 74 900 200/05 RMK AO2
14837KMSN MSN20031111162509111/11/03 16:25:31  5-MIN KMSN 112225Z 21004KT 8SM CLR 11/07 A2980 980 77 800 200/04 RMK AO2
14837KMSN MSN20031111163009111/11/03 16:30:31  5-MIN KMSN 112230Z 20003KT 8SM CLR 11/07 A2980 980 77 800 200/03 RMK AO2
14837KMSN MSN20031111163509111/11/03 16:35:31  5-MIN KMSN 112235Z 19003KT 8SM CLR 11/07 A2980 970 77 800 190/03 RMK AO2
14837KMSN MSN20031111164009111/11/03 16:40:31  5-MIN KMSN 112240Z 19003KT 8SM CLR 11/07 A2981 970 80 700 190/03 RMK AO2
14837KMSN MSN20031111164509111/11/03 16:45:31  5-MIN KMSN 112245Z 19004KT 8SM CLR 11/07 A2981 970 80 700 190/04 RMK AO2
14837KMSN MSN20031111165010811/11/03 16:50:31  5-MIN KMSN 112250Z 19004KT 8SM CLR 11/07 A2981 970 80 700 190/04 RMK AO2 SLP096 T01060072
14837KMSN MSN20031111165509411/11/03 16:55:31  5-MIN KMSN 112255Z 20003KT 6SM HZ CLR 11/07 A2981 970 80 700 200/03 RMK AO2
14837KMSN MSN20031111170009411/11/03 17:00:31  5-MIN KMSN 112300Z 20004KT 6SM HZ CLR 11/07 A2980 970 80 700 200/04 RMK AO2
14837KMSN MSN20031111170509111/11/03 17:05:31  5-MIN KMSN 112305Z 20005KT 7SM CLR 10/07 A2981 970 80 600 200/05 RMK AO2
14837KMSN MSN20031111171009411/11/03 17:10:31  5-MIN KMSN 112310Z 20005KT 6SM HZ CLR 10/07 A2981 970 80 600 200/05 RMK AO2
14837KMSN MSN20031111171509411/11/03 17:15:31  5-MIN KMSN 112315Z 20005KT 6SM HZ CLR 10/07 A2981 970 80 600 200/05 RMK AO2
14837KMSN MSN20031111172009411/11/03 17:20:31  5-MIN KMSN 112320Z 20004KT 6SM HZ CLR 10/07 A2981 970 80 600 200/04 RMK AO2
14837KMSN MSN20031111172509411/11/03 17:25:31  5-MIN KMSN 112325Z 21004KT 6SM HZ CLR 10/07 A2981 970 80 600 210/04 RMK AO2
14837KMSN MSN20031111173009411/11/03 17:30:31  5-MIN KMSN 112330Z 21004KT 6SM HZ CLR 10/07 A2981 970 80 600 210/04 RMK AO2
14837KMSN MSN20031111173509411/11/03 17:35:31  5-MIN KMSN 112335Z 20003KT 6SM HZ CLR 09/07 A2981 960 83 600 200/03 RMK AO2
14837KMSN MSN20031111174009411/11/03 17:40:31  5-MIN KMSN 112340Z 20003KT 6SM HZ CLR 09/07 A2981 960 83 600 200/03 RMK AO2
14837KMSN MSN20031111174509411/11/03 17:45:31  5-MIN KMSN 112345Z 20003KT 6SM HZ CLR 09/07 A2981 960 83 600 200/03 RMK AO2
14837KMSN MSN20031111175012911/11/03 17:50:31  5-MIN KMSN 112350Z 19004KT 6SM HZ CLR 09/07 A2982 960 83 600 180/04 RMK AO2 SLP099 T00940067 10128 20094 56006
14837KMSN MSN20031111175509411/11/03 17:55:31  5-MIN KMSN 112355Z 19005KT 6SM BR CLR 08/06 A2982 960 89 400 180/05 RMK AO2
14837KMSN MSN20031111180009411/11/03 18:00:31  5-MIN KMSN 120000Z 19004KT 5SM BR CLR 09/07 A2982 960 86 500 190/04 RMK AO2
14837KMSN MSN20031111180509411/11/03 18:05:31  5-MIN KMSN 120005Z 20004KT 5SM BR CLR 09/07 A2982 960 86 500 200/04 RMK AO2
14837KMSN MSN20031111181009411/11/03 18:10:31  5-MIN KMSN 120010Z 20004KT 5SM BR CLR 09/07 A2982 960 86 500 200/04 RMK AO2
14837KMSN MSN20031111181509411/11/03 18:15:31  5-MIN KMSN 120015Z 20004KT 5SM BR CLR 09/07 A2982 960 86 500 200/04 RMK AO2
14837KMSN MSN20031111182009411/11/03 18:20:31  5-MIN KMSN 120020Z 20003KT 5SM BR CLR 09/07 A2982 960 86 500 200/03 RMK AO2
14837KMSN MSN20031111182509411/11/03 18:25:31  5-MIN KMSN 120025Z 20003KT 5SM BR CLR 09/07 A2982 960 86 500 200/03 RMK AO2
14837KMSN MSN20031111183009411/11/03 18:30:31  5-MIN KMSN 120030Z 21003KT 5SM BR CLR 08/07 A2982 960 89 400 210/03 RMK AO2
14837KMSN MSN20031111183509411/11/03 18:35:31  5-MIN KMSN 120035Z 20003KT 5SM BR CLR 08/07 A2982 950 89 400 200/03 RMK AO2
14837KMSN MSN20031111184009411/11/03 18:40:31  5-MIN KMSN 120040Z 19003KT 5SM BR CLR 09/07 A2983 950 86 500 190/03 RMK AO2
14837KMSN MSN20031111184509411/11/03 18:45:31  5-MIN KMSN 120045Z 20004KT 5SM BR CLR 09/07 A2983 950 86 500 190/04 RMK AO2
14837KMSN MSN20031111185011111/11/03 18:50:31  5-MIN KMSN 120050Z 20004KT 5SM BR CLR 08/07 A2983 950 93 300 200/04 RMK AO2 SLP105 T00780067
14837KMSN MSN20031111185509411/11/03 18:55:31  5-MIN KMSN 120055Z 20003KT 4SM BR CLR 08/07 A2983 950 93 300 200/03 RMK AO2
14837KMSN MSN20031111190009411/11/03 19:00:31  5-MIN KMSN 120100Z 20004KT 4SM BR CLR 08/06 A2983 950 89 300 200/04 RMK AO2
14837KMSN MSN20031111190509411/11/03 19:05:31  5-MIN KMSN 120105Z 20004KT 5SM BR CLR 07/06 A2983 950 93 300 200/04 RMK AO2
14837KMSN MSN20031111191009411/11/03 19:10:31  5-MIN KMSN 120110Z 21004KT 5SM BR CLR 08/06 A2983 950 89 300 200/04 RMK AO2
14837KMSN MSN20031111191509411/11/03 19:15:31  5-MIN KMSN 120115Z 20003KT 5SM BR CLR 07/06 A2983 950 93 300 200/03 RMK AO2
14837KMSN MSN20031111192009411/11/03 19:20:31  5-MIN KMSN 120120Z 20004KT 5SM BR CLR 07/06 A2983 950 89 300 190/04 RMK AO2
14837KMSN MSN20031111192509411/11/03 19:25:31  5-MIN KMSN 120125Z 20004KT 5SM BR CLR 07/06 A2983 950 93 200 200/04 RMK AO2
14837KMSN MSN20031111193009411/11/03 19:30:31  5-MIN KMSN 120130Z 20005KT 5SM BR CLR 07/06 A2983 950 93 300 200/05 RMK AO2
14837KMSN MSN20031111193509411/11/03 19:35:31  5-MIN KMSN 120135Z 20004KT 4SM BR CLR 08/06 A2983 950 89 300 200/04 RMK AO2
14837KMSN MSN20031111194009411/11/03 19:40:31  5-MIN KMSN 120140Z 20005KT 4SM BR CLR 08/06 A2983 950 89 300 200/05 RMK AO2
14837KMSN MSN20031111194509411/11/03 19:45:31  5-MIN KMSN 120145Z 19003KT 4SM BR CLR 08/06 A2983 950 89 300 190/03 RMK AO2
14837KMSN MSN20031111195011111/11/03 19:50:31  5-MIN KMSN 120150Z 00000KT 4SM BR CLR 06/06 A2983 950 96 100 000/00 RMK AO2 SLP106 T00610056
14837KMSN MSN20031111195509211/11/03 19:55:31  5-MIN KMSN 120155Z 00000KT 3SM BR CLR 04/04 A2983 950 96 0 000/00 RMK AO2
14837KMSN MSN20031111200009511/11/03 20:00:31  5-MIN KMSN 120200Z 17004KT 4SM BR CLR 04/03 A2983 950 96 -100 170/04 RMK AO2
14837KMSN MSN20031111200509411/11/03 20:05:31  5-MIN KMSN 120205Z 17004KT 4SM BR CLR 06/04 A2983 950 89 100 170/04 RMK AO2
14837KMSN MSN20031111201009411/11/03 20:10:31  5-MIN KMSN 120210Z 16003KT 4SM BR CLR 06/05 A2983 950 93 100 160/03 RMK AO2
14837KMSN MSN20031111201509411/11/03 20:15:31  5-MIN KMSN 120215Z 16003KT 4SM BR CLR 06/05 A2982 950 96 100 160/03 RMK AO2
14837KMSN MSN20031111202009411/11/03 20:20:31  5-MIN KMSN 120220Z 18004KT 4SM BR CLR 06/06 A2982 950 96 200 180/04 RMK AO2
14837KMSN MSN20031111202509311/11/03 20:25:31  5-MIN KMSN 120225Z 00000KT 4SM BR CLR 05/05 A2983 950 100 0 000/00 RMK AO2
14837KMSN MSN20031111203009611/11/03 20:30:31  5-MIN KMSN 120230Z 17003KT 4SM BR FEW006 05/05 A2983 950 100 0 170/03 RMK AO2
14837KMSN MSN20031111203510411/11/03 20:35:31  5-MIN KMSN 120235Z 00000KT 3SM BR BCFG FEW006 04/04 A2983 950 100 -100 000/00 RMK AO2
14837KMSN MSN20031111204011011/11/03 20:40:31  5-MIN KMSN 120240Z 00000KT 2SM BR BCFG CLR 03/02 A2983 950 96 -200 000/00 RMK AO2 TWR VIS 4
14837KMSN MSN20031111204511311/11/03 20:45:31  5-MIN KMSN 120245Z 00000KT 2SM BR BCFG FEW005 03/02 A2983 950 96 -200 000/00 RMK AO2 TWR VIS 4
14837KMSN MSN20031111205013711/11/03 20:50:31  5-MIN KMSN 120250Z 00000KT 2SM BR BCFG FEW005 02/02 A2982 950 100 -300 000/00 RMK AO2 TWR VIS 4 SLP104 T00220022 53006
14837KMSN MSN20031111205511011/11/03 20:55:31  5-MIN KMSN 120255Z 18003KT 1/4SM FG VV005 02/02 A2983 950 100 -300 180/03 RMK AO2 TWR VIS 4
14837KMSN MSN20031111210011011/11/03 21:00:31  5-MIN KMSN 120300Z 18003KT 1/2SM FG FEW005 02/02 A2982 950 96 -300 180/03 RMK AO2 TWR VIS 4
14837KMSN MSN20031111210511011/11/03 21:05:31  5-MIN KMSN 120305Z 00000KT 1/2SM FG FEW005 02/02 A2982 960 96 -300 000/00 RMK AO2 TWR VIS 4
14837KMSN MSN20031111211011311/11/03 21:10:31  5-MIN KMSN 120310Z 16003KT 1SM BR BCFG FEW005 02/02 A2982 960 96 -300 160/03 RMK AO2 TWR VIS 4
14837KMSN MSN20031111211511311/11/03 21:15:31  5-MIN KMSN 120315Z 17003KT 1SM BR BCFG FEW005 02/02 A2982 960 96 -300 170/03 RMK AO2 TWR VIS 4
14837KMSN MSN20031111212011411/11/03 21:20:31  5-MIN KMSN 120320Z 00000KT 1SM BR BCFG FEW005 02/02 A2982 960 100 -300 000/00 RMK AO2 TWR VIS 4
14837KMSN MSN20031111212511111/11/03 21:25:31  5-MIN KMSN 120325Z 00000KT 1/2SM FG FEW005 01/01 A2982 960 100 -400 000/00 RMK AO2 TWR VIS 4
14837KMSN MSN20031111213011411/11/03 21:30:31  5-MIN KMSN 120330Z 18003KT 1/2SM FG FEW005 02/01 A2982 960 96 -300 180/03 RMK AO2 TWR VIS 2 1/2
14837KMSN MSN20031111213511411/11/03 21:35:31  5-MIN KMSN 120335Z 00000KT 1/2SM FG FEW005 02/01 A2981 960 96 -300 000/00 RMK AO2 TWR VIS 2 1/2
14837KMSN MSN20031111214011511/11/03 21:40:31  5-MIN KMSN 120340Z 00000KT 1/2SM FG FEW005 01/01 A2982 960 100 -500 000/00 RMK AO2 TWR VIS 2 1/2
14837KMSN MSN20031111214511411/11/03 21:45:31  5-MIN KMSN 120345Z 00000KT 1/2SM FG FEW005 02/01 A2982 960 96 -300 000/00 RMK AO2 TWR VIS 2 1/2
14837KMSN MSN20031111215013211/11/03 21:50:31  5-MIN KMSN 120350Z 00000KT 1/2SM FG FEW005 01/01 A2981 960 100 -400 000/00 RMK AO2 TWR VIS 2 1/2 SLP101 T00110011
14837KMSN MSN20031111215511111/11/03 21:55:31  5-MIN KMSN 120355Z 00000KT 1/2SM FG CLR 02/01 A2981 970 96 -300 000/00 RMK AO2 TWR VIS 1 1/2
14837KMSN MSN20031111220011211/11/03 22:00:31  5-MIN KMSN 120400Z 00000KT 1/2SM FG CLR 01/01 A2981 960 100 -400 000/00 RMK AO2 TWR VIS 1 1/2
14837KMSN MSN20031111220511111/11/03 22:05:31  5-MIN KMSN 120405Z 00000KT 1/2SM FG CLR 01/01 A2981 960 96 -400 000/00 RMK AO2 TWR VIS 1 1/2
14837KMSN MSN20031111221011211/11/03 22:10:31  5-MIN KMSN 120410Z 00000KT 1/2SM FG CLR 01/01 A2981 960 100 -500 000/00 RMK AO2 TWR VIS 1 1/2
14837KMSN MSN20031111221511111/11/03 22:15:31  5-MIN KMSN 120415Z 00000KT 1/2SM FG CLR 02/01 A2981 970 96 -300 000/00 RMK AO2 TWR VIS 1 1/2
14837KMSN MSN20031111222011211/11/03 22:20:31  5-MIN KMSN 120420Z 00000KT 1/2SM FG CLR 01/01 A2981 970 100 -400 000/00 RMK AO2 TWR VIS 1 1/2
14837KMSN MSN20031111222510811/11/03 22:25:31  5-MIN KMSN 120425Z 00000KT 1/2SM FG CLR 01/01 A2981 970 100 -400 000/00 RMK AO2 TWR VIS 1
14837KMSN MSN20031111223011111/11/03 22:30:31  5-MIN KMSN 120430Z 17003KT 1/4SM FG VV005 02/01 A2981 970 96 -300 160/03 RMK AO2 TWR VIS 1/2
14837KMSN MSN20031111223511211/11/03 22:35:31  5-MIN KMSN 120435Z 00000KT 1/4SM FG VV005 00/00 A2980 970 100 -500 000/00 RMK AO2 TWR VIS 1/2
14837KMSN MSN20031111224011211/11/03 22:40:31  5-MIN KMSN 120440Z 00000KT 1/8SM FG VV001 00/00 A2980 970 100 -500 000/00 RMK AO2 TWR VIS 1/2
14837KMSN MSN20031111224511211/11/03 22:45:31  5-MIN KMSN 120445Z 00000KT 1/8SM FG VV001 00/00 A2980 970 100 -500 000/00 RMK AO2 TWR VIS 1/4
14837KMSN MSN20031111225012811/11/03 22:50:31  5-MIN KMSN 120450Z 00000KT 1/8SM FG VV001 01/00 A2980 970 96 -500 000/00 RMK AO2 TWR VIS 1/4 SLP097 T00060000
14837KMSN MSN20031111225511111/11/03 22:55:31  5-MIN KMSN 120455Z 00000KT 1/8SM FG VV001 01/01 A2980 970 96 -400 000/00 RMK AO2 TWR VIS 1/4
14837KMSN MSN20031111230011211/11/03 23:00:31  5-MIN KMSN 120500Z 00000KT 1/8SM FG VV001 01/01 A2980 980 100 -400 000/00 RMK AO2 TWR VIS 1/4
14837KMSN MSN20031111230511211/11/03 23:05:31  5-MIN KMSN 120505Z 00000KT 1/8SM FG VV001 01/01 A2979 980 100 -400 000/00 RMK AO2 TWR VIS 1/4
14837KMSN MSN20031111231011211/11/03 23:10:31  5-MIN KMSN 120510Z 00000KT 1/8SM FG VV001 01/01 A2979 980 100 -400 000/00 RMK AO2 TWR VIS 1/4
14837KMSN MSN20031111231511211/11/03 23:15:31  5-MIN KMSN 120515Z 00000KT 1/8SM FG VV001 01/01 A2979 990 100 -400 000/00 RMK AO2 TWR VIS 1/4
14837KMSN MSN20031111232011211/11/03 23:20:31  5-MIN KMSN 120520Z 00000KT 1/8SM FG VV001 01/01 A2979 990 100 -400 000/00 RMK AO2 TWR VIS 1/4
14837KMSN MSN20031111232511211/11/03 23:25:31  5-MIN KMSN 120525Z 00000KT 1/8SM FG VV001 01/01 A2978 990 100 -400 000/00 RMK AO2 TWR VIS 1/4
14837KMSN MSN20031111233011711/11/03 23:30:31  5-MIN KMSN 120530Z 00000KT 1/8SM FG VV001 01/01 A2978 990 96 -400 000/00 RMK AO2 TWR VIS 1/4 P0001
14837KMSN MSN20031111233511911/11/03 23:35:31  5-MIN KMSN 120535Z 00000KT 1/8SM FG VV001 01/01 A2978 1000 100 -400 000/00 RMK AO2 TWR VIS 1/4 P0001
14837KMSN MSN20031111234011811/11/03 23:40:31  5-MIN KMSN 120540Z 19003KT 1/8SM FG VV001 01/01 A2978 990 100 -400 190/03 RMK AO2 TWR VIS 1/4 P0001
14837KMSN MSN20031111234511811/11/03 23:45:31  5-MIN KMSN 120545Z 18003KT 1/8SM FG VV001 01/01 A2978 990 100 -400 170/03 RMK AO2 TWR VIS 1/4 P0001
14837KMSN MSN20031111235014411/11/03 23:50:31  5-MIN KMSN 120550Z 17003KT 1/8SM FG VV001 02/02 A2978 990 96 -200 170/03 RMK AO2 SLP090 T00220017 10089 20000 401280000 50003
14837KMSN MSN20031111235510011/11/03 23:55:31  5-MIN KMSN 120555Z 16005KT 1/8SM FG VV001 02/02 A2978 990 100 -200 160/05 RMK AO2
14837KMSN MSN20031112000010011/12/03 00:00:31  5-MIN KMSN 120600Z 18004KT 1/8SM FG VV001 02/02 A2978 990 100 -300 180/04 RMK AO2
14837KMSN MSN20031112000510011/12/03 00:05:31  5-MIN KMSN 120605Z 00000KT 1/8SM FG VV001 02/02 A2979 990 100 -300 000/00 RMK AO2
14837KMSN MSN20031112001010011/12/03 00:10:31  5-MIN KMSN 120610Z 00000KT 1/8SM FG VV001 01/01 A2979 990 100 -400 000/00 RMK AO2
14837KMSN MSN20031112001510011/12/03 00:15:31  5-MIN KMSN 120615Z 00000KT 1/8SM FG VV001 01/01 A2979 990 100 -400 000/00 RMK AO2
14837KMSN MSN20031112002010011/12/03 00:20:31  5-MIN KMSN 120620Z 00000KT 1/8SM FG VV001 01/01 A2978 990 100 -400 000/00 RMK AO2
14837KMSN MSN20031112002510011/12/03 00:25:31  5-MIN KMSN 120625Z 00000KT 1/8SM FG VV001 01/01 A2978 990 100 -400 000/00 RMK AO2
14837KMSN MSN20031112003010111/12/03 00:30:31  5-MIN KMSN 120630Z 00000KT 1/8SM FG VV001 02/02 A2978 1000 100 -300 000/00 RMK AO2
14837KMSN MSN20031112003510011/12/03 00:35:31  5-MIN KMSN 120635Z 00000KT 1/8SM FG VV001 02/02 A2978 1000 96 -200 000/00 RMK AO2
14837KMSN MSN20031112004009911/12/03 00:40:31  5-MIN KMSN 120640Z 00000KT 1/8SM FG VV001 03/02 A2978 990 96 -200 000/00 RMK AO2
14837KMSN MSN20031112004510111/12/03 00:45:31  5-MIN KMSN 120645Z 00000KT 1/8SM FG VV001 03/03 A2978 1000 100 -100 000/00 RMK AO2
14837KMSN MSN20031112005011811/12/03 00:50:31  5-MIN KMSN 120650Z 00000KT 1/8SM FG VV001 03/03 A2978 1000 100 -100 000/00 RMK AO2 SLP087 T00330033
14837KMSN MSN20031112005509711/12/03 00:55:31  5-MIN KMSN 120655Z 00000KT 1/8SM FG VV001 04/03 A2978 1000 96 0 000/00 RMK AO2
14837KMSN MSN20031112010010011/12/03 01:00:31  5-MIN KMSN 120700Z 00000KT 1/8SM FG VV001 03/03 A2978 990 100 -200 000/00 RMK AO2
14837KMSN MSN20031112010510011/12/03 01:05:31  5-MIN KMSN 120705Z 00000KT 1/8SM FG VV001 03/03 A2978 990 100 -200 000/00 RMK AO2
14837KMSN MSN20031112011010011/12/03 01:10:31  5-MIN KMSN 120710Z 00000KT 1/8SM FG VV001 03/03 A2978 990 100 -200 000/00 RMK AO2
14837KMSN MSN20031112011510011/12/03 01:15:31  5-MIN KMSN 120715Z 00000KT 1/8SM FG VV001 03/03 A2978 1000 96 -100 000/00 RMK AO2
14837KMSN MSN20031112012010111/12/03 01:20:31  5-MIN KMSN 120720Z 00000KT 1/8SM FG VV001 03/03 A2977 1000 100 -100 000/00 RMK AO2
14837KMSN MSN20031112012509711/12/03 01:25:31  5-MIN KMSN 120725Z 06003KT 1/8SM FG VV001 04/03 A2977 1010 96 0 060/03 RMK AO2
14837KMSN MSN20031112013009811/12/03 01:30:31  5-MIN KMSN 120730Z 05003KT 1/8SM FG VV001 04/04 A2977 1010 100 0 050/03 RMK AO2
14837KMSN MSN20031112013509811/12/03 01:35:31  5-MIN KMSN 120735Z 07003KT 1/8SM FG VV001 04/04 A2976 1010 100 0 070/03 RMK AO2
14837KMSN MSN20031112014009811/12/03 01:40:31  5-MIN KMSN 120740Z 07003KT 1/8SM FG VV001 04/04 A2976 1010 100 0 060/03 RMK AO2
14837KMSN MSN20031112014509811/12/03 01:45:31  5-MIN KMSN 120745Z 00000KT 1/8SM FG VV001 04/04 A2976 1010 100 0 000/00 RMK AO2
14837KMSN MSN20031112015011411/12/03 01:50:31  5-MIN KMSN 120750Z 00000KT 1/8SM FG VV001 04/04 A2977 1010 96 0 000/00 RMK AO2 SLP084 T00440039
14837KMSN MSN20031112015509811/12/03 01:55:31  5-MIN KMSN 120755Z 00000KT 1/8SM FG VV001 04/04 A2977 1010 100 0 000/00 RMK AO2
14837KMSN MSN20031112020009811/12/03 02:00:31  5-MIN KMSN 120800Z 00000KT 1/8SM FG VV001 04/04 A2977 1010 100 0 000/00 RMK AO2
14837KMSN MSN20031112020510111/12/03 02:05:31  5-MIN KMSN 120805Z 00000KT 1/8SM FG VV001 03/03 A2977 1000 100 -100 000/00 RMK AO2
14837KMSN MSN20031112021010111/12/03 02:10:31  5-MIN KMSN 120810Z 00000KT 1/8SM FG VV001 03/03 A2977 1000 100 -100 000/00 RMK AO2
14837KMSN MSN20031112021509811/12/03 02:15:31  5-MIN KMSN 120815Z 00000KT 1/8SM FG VV001 04/04 A2977 1000 100 0 000/00 RMK AO2
14837KMSN MSN20031112022009811/12/03 02:20:31  5-MIN KMSN 120820Z 00000KT 1/8SM FG VV001 04/04 A2977 1010 100 0 000/00 RMK AO2
14837KMSN MSN20031112022509811/12/03 02:25:31  5-MIN KMSN 120825Z 00000KT 1/8SM FG VV001 04/04 A2977 1000 100 0 000/00 RMK AO2
14837KMSN MSN20031112023009811/12/03 02:30:31  5-MIN KMSN 120830Z 16004KT 1/8SM FG VV001 04/04 A2977 1010 100 0 160/04 RMK AO2
14837KMSN MSN20031112023509811/12/03 02:35:31  5-MIN KMSN 120835Z 16004KT 1/8SM FG VV001 04/04 A2976 1010 100 0 160/04 RMK AO2
14837KMSN MSN20031112024009811/12/03 02:40:31  5-MIN KMSN 120840Z 16004KT 1/8SM FG VV001 04/04 A2976 1010 100 0 160/04 RMK AO2
14837KMSN MSN20031112024509811/12/03 02:45:31  5-MIN KMSN 120845Z 16005KT 1/8SM FG VV001 04/04 A2976 1010 100 0 160/05 RMK AO2
14837KMSN MSN20031112025012311/12/03 02:50:31  5-MIN KMSN 120850Z 17004KT 1/8SM FG VV001 05/05 A2976 1010 100 100 170/04 RMK AO2 SLP080 T00500050 58015
14837KMSN MSN20031112025510011/12/03 02:55:31  5-MIN KMSN 120855Z 17004KT 1/8SM FG VV001 05/05 A2976 1020 100 100 170/04 RMK AO2
14837KMSN MSN20031112030010011/12/03 03:00:31  5-MIN KMSN 120900Z 17004KT 1/8SM FG VV001 05/05 A2975 1020 100 100 170/04 RMK AO2
14837KMSN MSN20031112030510011/12/03 03:05:31  5-MIN KMSN 120905Z 17004KT 1/8SM FG VV001 05/05 A2975 1020 100 100 160/04 RMK AO2
14837KMSN MSN20031112031010011/12/03 03:10:31  5-MIN KMSN 120910Z 16004KT 1/8SM FG VV001 05/05 A2975 1020 100 100 160/04 RMK AO2
14837KMSN MSN20031112031510011/12/03 03:15:31  5-MIN KMSN 120915Z 16005KT 1/8SM FG VV001 05/05 A2974 1030 100 100 160/05 RMK AO2
14837KMSN MSN20031112032010011/12/03 03:20:31  5-MIN KMSN 120920Z 16004KT 1/8SM FG VV001 05/05 A2974 1030 100 100 160/04 RMK AO2
14837KMSN MSN20031112032510011/12/03 03:25:31  5-MIN KMSN 120925Z 15005KT 1/8SM FG VV001 05/05 A2973 1040 100 100 150/05 RMK AO2
14837KMSN MSN20031112033010011/12/03 03:30:31  5-MIN KMSN 120930Z 16004KT 1/8SM FG VV001 05/05 A2974 1040 100 100 160/04 RMK AO2
14837KMSN MSN20031112033510011/12/03 03:35:31  5-MIN KMSN 120935Z 17005KT 1/8SM FG VV001 05/05 A2974 1040 100 100 170/05 RMK AO2
14837KMSN MSN20031112034010011/12/03 03:40:31  5-MIN KMSN 120940Z 17005KT 1/8SM FG VV001 05/05 A2973 1040 100 100 170/05 RMK AO2
14837KMSN MSN20031112034510011/12/03 03:45:31  5-MIN KMSN 120945Z 16005KT 1/8SM FG VV001 05/05 A2973 1040 100 100 150/05 RMK AO2
14837KMSN MSN20031112035011711/12/03 03:50:31  5-MIN KMSN 120950Z 15005KT 1/8SM FG VV001 05/05 A2972 1050 100 100 140/05 RMK AO2 SLP067 T00500050
14837KMSN MSN20031112035510011/12/03 03:55:31  5-MIN KMSN 120955Z 15004KT 1/4SM FG VV001 05/05 A2972 1050 100 100 150/04 RMK AO2
14837KMSN MSN20031112040010011/12/03 04:00:31  5-MIN KMSN 121000Z 15005KT 1/8SM FG VV001 05/05 A2972 1050 100 100 150/05 RMK AO2
14837KMSN MSN20031112040510011/12/03 04:05:31  5-MIN KMSN 121005Z 15005KT 1/8SM FG VV001 05/05 A2971 1060 100 100 150/05 RMK AO2
14837KMSN MSN20031112041009911/12/03 04:10:31  5-MIN KMSN 121010Z 16004KT 1/8SM FG VV001 05/04 A2971 1060 96 100 150/04 RMK AO2
14837KMSN MSN20031112041509911/12/03 04:15:31  5-MIN KMSN 121015Z 16006KT 1/8SM FG VV001 05/04 A2971 1060 96 100 160/06 RMK AO2
14837KMSN MSN20031112042010011/12/03 04:20:31  5-MIN KMSN 121020Z 16006KT 1/8SM FG VV001 04/04 A2971 1060 100 100 160/06 RMK AO2
14837KMSN MSN20031112042509911/12/03 04:25:31  5-MIN KMSN 121025Z 17005KT 1/8SM FG VV001 05/04 A2971 1060 96 100 170/05 RMK AO2
14837KMSN MSN20031112043009911/12/03 04:30:31  5-MIN KMSN 121030Z 17004KT 1/8SM FG VV001 05/04 A2971 1060 96 100 170/04 RMK AO2
14837KMSN MSN20031112043510011/12/03 04:35:31  5-MIN KMSN 121035Z 17004KT 1/8SM FG VV001 05/05 A2971 1060 100 100 160/04 RMK AO2
14837KMSN MSN20031112044010011/12/03 04:40:31  5-MIN KMSN 121040Z 17003KT 1/8SM FG VV001 05/05 A2971 1060 100 100 170/03 RMK AO2
14837KMSN MSN20031112044510011/12/03 04:45:31  5-MIN KMSN 121045Z 16004KT 1/8SM FG VV001 05/05 A2970 1060 100 200 160/04 RMK AO2
14837KMSN MSN20031112045011711/12/03 04:50:31  5-MIN KMSN 121050Z 15005KT 1/4SM FG VV001 05/05 A2970 1070 100 200 150/05 RMK AO2 SLP062 T00500050
14837KMSN MSN20031112045510011/12/03 04:55:31  5-MIN KMSN 121055Z 17005KT 1/2SM FG VV001 05/05 A2971 1060 100 200 170/05 RMK AO2
14837KMSN MSN20031112050010011/12/03 05:00:31  5-MIN KMSN 121100Z 16003KT 1/4SM FG VV001 05/05 A2970 1070 100 200 160/03 RMK AO2
14837KMSN MSN20031112050510011/12/03 05:05:31  5-MIN KMSN 121105Z 16003KT 1/4SM FG VV001 05/05 A2970 1070 100 200 160/03 RMK AO2
14837KMSN MSN20031112051010011/12/03 05:10:31  5-MIN KMSN 121110Z 16004KT 1/4SM FG VV001 05/05 A2970 1070 100 200 160/04 RMK AO2
14837KMSN MSN20031112051509911/12/03 05:15:31  5-MIN KMSN 121115Z 17004KT 1/4SM FG VV001 06/05 A2970 1070 96 200 170/04 RMK AO2
14837KMSN MSN20031112052010711/12/03 05:20:31  5-MIN KMSN 121120Z 25006KT 1/4SM FG VV001 06/06 A2974 1030 100 200 240/06 RMK AO2 PRESRR
14837KMSN MSN20031112052512311/12/03 05:25:31  5-MIN KMSN 121125Z 22006KT 1/4SM -RA FG VV001 06/06 A2975 1020 100 200 220/06 RMK AO2 RAB25 PRESRR P0000
14837KMSN MSN20031112053011711/12/03 05:30:31  5-MIN KMSN 121130Z 21006KT 1/4SM -RA FG OVC001 06/06 A2975 1020 100 200 210/06 RMK AO2 RAB25 P0000
14837KMSN MSN20031112053511611/12/03 05:35:31  5-MIN KMSN 121135Z 21005KT 1/4SM -RA FG OVC001 06/06 A2974 1030 96 200 210/05 RMK AO2 RAB25 P0000
14837KMSN MSN20031112054011711/12/03 05:40:31  5-MIN KMSN 121140Z 21005KT 1/4SM -RA FG OVC001 06/06 A2973 1040 100 300 210/05 RMK AO2 RAB25 P0000
14837KMSN MSN20031112054511711/12/03 05:45:31  5-MIN KMSN 121145Z 19005KT 1/4SM -RA FG OVC001 06/06 A2972 1050 100 300 180/05 RMK AO2 RAB25 P0000
14837KMSN MSN20031112055016411/12/03 05:50:31  5-MIN KMSN 121150Z 17007KT 1/4SM -RA FG OVC001 06/06 A2971 1060 100 300 170/07 RMK AO2 RAB25 SLP065 P0001 60001 70002 T00610061 10061 20006 58008
14837KMSN MSN20031112055511111/12/03 05:55:31  5-MIN KMSN 121155Z 17010KT 1/4SM -RA FG OVC001 06/06 A2971 1060 100 300 170/10 RMK AO2 P0000
14837KMSN MSN20031112060011811/12/03 06:00:31  5-MIN KMSN 121200Z 16010KT 1/2SM -RA FG OVC001 06/06 A2969 1080 100 300 160/10 RMK AO2 PRESFR P0000
14837KMSN MSN20031112060512011/12/03 06:05:31  5-MIN KMSN 121205Z 17007KT 1/2SM -RA FG OVC001 07/06 A2969 1080 96 400 170/07 RMK AO2 VIS E 1/4 P0000
14837KMSN MSN20031112061012111/12/03 06:10:31  5-MIN KMSN 121210Z 17009KT 1/2SM -RA FG OVC001 07/07 A2969 1080 100 400 170/09 RMK AO2 VIS E 1/4 P0000
14837KMSN MSN20031112061512111/12/03 06:15:31  5-MIN KMSN 121215Z 18010KT 1/2SM -RA FG OVC001 07/07 A2969 1080 100 400 180/10 RMK AO2 VIS E 1/4 P0000
14837KMSN MSN20031112062012111/12/03 06:20:31  5-MIN KMSN 121220Z 18011KT 1/2SM -RA FG OVC001 07/07 A2967 1090 100 400 180/11 RMK AO2 VIS E 1/4 P0000
14837KMSN MSN20031112062512811/12/03 06:25:31  5-MIN KMSN 121225Z 15009KT 1/2SM -RA FG OVC001 07/07 A2966 1110 100 400 150/09 RMK AO2 PRESFR VIS E 1/4 P0000
14837KMSN MSN20031112063011111/12/03 06:30:31  5-MIN KMSN 121230Z VRB03KT 1/2SM -RA FG OVC001 07/07 A2966 1110 100 400 VRB/03 RMK AO2 P0000
14837KMSN MSN20031112063511111/12/03 06:35:31  5-MIN KMSN 121235Z VRB03KT 1/2SM -RA FG OVC001 07/07 A2965 1110 100 400 VRB/03 RMK AO2 P0000
14837KMSN MSN20031112064012511/12/03 06:40:31  5-MIN KMSN 121240Z 20005KT 1SM BR BKN001 07/07 A2965 1120 100 400 190/05 RMK AO2 TWR VIS 1 1/2 RAE38 P0000
14837KMSN MSN20031112064511811/12/03 06:45:31  5-MIN KMSN 121245Z 18010KT 3SM BR BKN001 BKN110 07/07 A2964 1120 100 400 180/10 RMK AO2 RAE38 P0000
14837KMSN MSN20031112065013511/12/03 06:50:31  5-MIN KMSN 121250Z 18010KT 3SM BR SCT001 BKN120 07/07 A2964 1130 100 400 180/10 RMK AO2 RAE38 SLP040 P0000 T00670067
14837KMSN MSN20031112065511611/12/03 06:55:31  5-MIN KMSN 121255Z 18010KT 3SM BR FEW001 BKN120 07/07 A2964 1120 100 400 180/10 RMK AO2 SFC VIS 5
14837KMSN MSN20031112070011611/12/03 07:00:31  5-MIN KMSN 121300Z 17013KT 3SM BR FEW001 BKN120 07/07 A2964 1120 100 400 170/13 RMK AO2 SFC VIS 4
14837KMSN MSN20031112070510611/12/03 07:05:31  5-MIN KMSN 121305Z 16012KT 3SM BR FEW003 SCT120 07/07 A2965 1120 100 400 160/12 RMK AO2
14837KMSN MSN20031112071011011/12/03 07:10:31  5-MIN KMSN 121310Z 16011KT 1 1/4SM BR SCT003 BKN120 07/07 A2964 1120 100 400 160/11 RMK AO2
14837KMSN MSN20031112071511011/12/03 07:15:31  5-MIN KMSN 121315Z 16009KT 3/4SM BR BKN003 BKN120 07/07 A2964 1130 100 400 160/09 RMK AO2 $
14837KMSN MSN20031112072010311/12/03 07:20:31  5-MIN KMSN 121320Z 16010KT 3/4SM BR BKN003 07/07 A2963 1130 100 400 160/10 RMK AO2 $
14837KMSN MSN20031112072511711/12/03 07:25:31  5-MIN KMSN 121325Z 16009KT 1 1/2SM BR BKN003 07/07 A2963 1130 100 400 160/09 RMK AO2 CIG 001V005 $
14837KMSN MSN20031112073014611/12/03 07:30:31  5-MIN KMSN 121330Z 20007KT 170V240 1 1/2SM BR OVC003 07/07 A2964 1130 96 500 190/07 170V240 RMK AO2 SFC VIS 2 1/2 CIG 001V005 $
14837KMSN MSN20031112073511911/12/03 07:35:31  5-MIN KMSN 121335Z 21004KT 1 1/2SM BR BKN003 07/07 A2964 1120 100 500 210/04 RMK AO2 SFC VIS 2 1/2 $
14837KMSN MSN20031112074011811/12/03 07:40:31  5-MIN KMSN 121340Z 20006KT 2SM BR SCT003 BKN110 07/07 A2963 1130 100 500 200/06 RMK AO2 SFC VIS 3 $
14837KMSN MSN20031112074511511/12/03 07:45:31  5-MIN KMSN 121345Z 18009KT 2SM BR SCT003 BKN110 07/07 A2963 1140 96 500 180/09 RMK AO2 SFC VIS 3
14837KMSN MSN20031112075012211/12/03 07:50:31  5-MIN KMSN 121350Z 19009KT 4SM BR FEW003 SCT110 07/07 A2963 1130 96 500 190/09 RMK AO2 SLP038 T00720067
14837KMSN MSN20031112075509811/12/03 07:55:31  5-MIN KMSN 121355Z 19007KT 4SM BR SCT003 07/07 A2963 1130 96 500 190/07 RMK AO2
14837KMSN MSN20031112080009811/12/03 08:00:31  5-MIN KMSN 121400Z 21006KT 4SM BR FEW003 07/07 A2964 1130 96 500 200/06 RMK AO2
14837KMSN MSN20031112080509511/12/03 08:05:31  5-MIN KMSN 121405Z 22006KT 4SM BR CLR 08/07 A2964 1120 96 600 220/06 RMK AO2
14837KMSN MSN20031112081009511/12/03 08:10:31  5-MIN KMSN 121410Z 22006KT 4SM BR CLR 08/07 A2965 1120 96 600 220/06 RMK AO2
14837KMSN MSN20031112081509511/12/03 08:15:31  5-MIN KMSN 121415Z 21007KT 5SM BR CLR 08/08 A2965 1120 96 600 210/07 RMK AO2
14837KMSN MSN20031112082009511/12/03 08:20:31  5-MIN KMSN 121420Z 20007KT 5SM BR CLR 09/08 A2964 1120 93 700 200/07 RMK AO2
14837KMSN MSN20031112082509511/12/03 08:25:31  5-MIN KMSN 121425Z 21009KT 6SM BR CLR 09/08 A2964 1130 93 700 210/09 RMK AO2
14837KMSN MSN20031112083009811/12/03 08:30:31  5-MIN KMSN 121430Z 22009KT 6SM BR FEW005 09/08 A2964 1120 89 800 220/09 RMK AO2
14837KMSN MSN20031112083509811/12/03 08:35:31  5-MIN KMSN 121435Z 20008KT 6SM BR SCT008 09/08 A2964 1120 89 800 200/08 RMK AO2
14837KMSN MSN20031112084009811/12/03 08:40:31  5-MIN KMSN 121440Z 20007KT 6SM BR BKN010 09/08 A2964 1120 89 800 200/07 RMK AO2
14837KMSN MSN20031112084511411/12/03 08:45:31  5-MIN KMSN 121445Z 20009KT 170V240 6SM BR BKN012 09/08 A2964 1120 93 700 200/09 170V240 RMK AO2
14837KMSN MSN20031112085012711/12/03 08:50:31  5-MIN KMSN 121450Z 21008KT 6SM BR BKN012 09/08 A2964 1120 93 700 210/08 RMK AO2 SLP042 60000 T00890078 55015
14837KMSN MSN20031112085510411/12/03 08:55:31  5-MIN KMSN 121455Z 21011G18KT 6SM BR BKN010 09/07 A2964 1130 89 700 210/11G18 RMK AO2
14837KMSN MSN20031112090010411/12/03 09:00:31  5-MIN KMSN 121500Z 21008G18KT 6SM BR BKN012 09/07 A2964 1130 89 700 210/08G18 RMK AO2
14837KMSN MSN20031112090510411/12/03 09:05:31  5-MIN KMSN 121505Z 21011G16KT 6SM BR BKN012 09/07 A2964 1130 89 700 210/11G16 RMK AO2
14837KMSN MSN20031112091011711/12/03 09:10:31  5-MIN KMSN 121510Z 21009G16KT 170V240 7SM BKN014 09/07 A2963 1130 89 700 210/09G16 170V240 RMK AO2
14837KMSN MSN20031112091510111/12/03 09:15:31  5-MIN KMSN 121515Z 20011G16KT 7SM BKN015 09/07 A2963 1140 86 800 200/11G16 RMK AO2
14837KMSN MSN20031112092010111/12/03 09:20:31  5-MIN KMSN 121520Z 22011G16KT 7SM BKN015 09/07 A2962 1140 83 800 220/11G16 RMK AO2
14837KMSN MSN20031112092511111/12/03 09:25:31  5-MIN KMSN 121525Z 21008KT 170V240 7SM BKN015 09/07 A2962 1140 83 800 200/08 170V240 RMK AO2
14837KMSN MSN20031112093010111/12/03 09:30:31  5-MIN KMSN 121530Z 21011G15KT 7SM BKN015 09/07 A2962 1150 83 800 210/11G15 RMK AO2
14837KMSN MSN20031112093509511/12/03 09:35:31  5-MIN KMSN 121535Z 21008KT 8SM BKN015 10/07 A2961 1150 80 900 210/08 RMK AO2
14837KMSN MSN20031112094009511/12/03 09:40:31  5-MIN KMSN 121540Z 21010KT 8SM SCT015 10/07 A2961 1150 80 900 210/10 RMK AO2
14837KMSN MSN20031112094510111/12/03 09:45:31  5-MIN KMSN 121545Z 21011G16KT 9SM SCT015 10/06 A2961 1150 77 900 210/11G16 RMK AO2
14837KMSN MSN20031112095012811/12/03 09:50:31  5-MIN KMSN 121550Z 21008KT 160V240 9SM SCT015 10/07 A2961 1160 80 900 210/08 160V240 RMK AO2 SLP030 T01000067
14837KMSN MSN20031112095510111/12/03 09:55:31  5-MIN KMSN 121555Z 21010G16KT 9SM FEW015 10/06 A2960 1160 77 900 210/10G16 RMK AO2
14837KMSN MSN20031112100009811/12/03 10:00:31  5-MIN KMSN 121600Z 21010G16KT 9SM CLR 11/06 A2960 1160 74 900 210/10G16 RMK AO2
14837KMSN MSN20031112100509911/12/03 10:05:31  5-MIN KMSN 121605Z 20009G15KT 10SM CLR 11/07 A2960 1160 77 900 200/09G15 RMK AO2
14837KMSN MSN20031112101010011/12/03 10:10:31  5-MIN KMSN 121610Z 22012G17KT 10SM CLR 11/06 A2961 1160 71 1000 220/12G17 RMK AO2
14837KMSN MSN20031112101509911/12/03 10:15:31  5-MIN KMSN 121615Z 22009G17KT 10SM CLR 11/06 A2961 1160 74 900 220/09G17 RMK AO2
14837KMSN MSN20031112102010011/12/03 10:20:31  5-MIN KMSN 121620Z 23011G16KT 10SM CLR 11/06 A2961 1150 71 1000 230/11G16 RMK AO2
14837KMSN MSN20031112102510011/12/03 10:25:31  5-MIN KMSN 121625Z 22011G18KT 10SM CLR 11/06 A2961 1150 71 1000 220/11G18 RMK AO2
14837KMSN MSN20031112103010011/12/03 10:30:31  5-MIN KMSN 121630Z 23012G18KT 10SM CLR 11/06 A2960 1160 68 1000 220/12G18 RMK AO2
14837KMSN MSN20031112103510011/12/03 10:35:31  5-MIN KMSN 121635Z 23009G20KT 10SM CLR 11/06 A2961 1160 68 1000 220/09G20 RMK AO2
14837KMSN MSN20031112104010011/12/03 10:40:31  5-MIN KMSN 121640Z 23011G20KT 10SM CLR 11/06 A2960 1160 68 1000 230/11G20 RMK AO2
14837KMSN MSN20031112104510011/12/03 10:45:31  5-MIN KMSN 121645Z 22010G17KT 10SM CLR 11/05 A2960 1160 66 1000 220/10G17 RMK AO2
14837KMSN MSN20031112105013311/12/03 10:50:31  5-MIN KMSN 121650Z 22008G17KT 190V260 10SM CLR 12/05 A2959 1170 63 1100 220/08G17 190V260 RMK AO2 SLP026 T01170050
14837KMSN MSN20031112105510311/12/03 10:55:31  5-MIN KMSN 121655Z 23010G18KT 10SM FEW120 11/05 A2959 1170 66 1000 230/10G18 RMK AO2
14837KMSN MSN20031112110010311/12/03 11:00:31  5-MIN KMSN 121700Z 23011G20KT 10SM FEW120 12/05 A2959 1170 63 1100 230/11G20 RMK AO2
14837KMSN MSN20031112110511911/12/03 11:05:31  5-MIN KMSN 121705Z 24010G20KT 210V280 10SM FEW120 12/05 A2959 1170 63 1100 230/10G20 210V280 RMK AO2
14837KMSN MSN20031112111010311/12/03 11:10:31  5-MIN KMSN 121710Z 22013G17KT 10SM FEW120 12/05 A2959 1170 63 1100 220/13G17 RMK AO2
14837KMSN MSN20031112111510311/12/03 11:15:31  5-MIN KMSN 121715Z 23010G19KT 10SM FEW120 12/04 A2958 1180 61 1100 230/10G19 RMK AO2
14837KMSN MSN20031112112010311/12/03 11:20:31  5-MIN KMSN 121720Z 23012G19KT 10SM FEW120 12/04 A2958 1180 61 1100 230/12G19 RMK AO2
14837KMSN MSN20031112112511911/12/03 11:25:31  5-MIN KMSN 121725Z 23012G21KT 200V260 10SM FEW120 12/04 A2958 1180 61 1100 230/12G21 200V260 RMK AO2
14837KMSN MSN20031112113011911/12/03 11:30:31  5-MIN KMSN 121730Z 23011G21KT 210V270 10SM FEW120 12/04 A2958 1180 58 1100 230/11G21 210V270 RMK AO2
14837KMSN MSN20031112113510311/12/03 11:35:31  5-MIN KMSN 121735Z 24015G19KT 10SM FEW120 12/04 A2958 1180 58 1100 240/15G19 RMK AO2
14837KMSN MSN20031112114011911/12/03 11:40:31  5-MIN KMSN 121740Z 24013G20KT 200V260 10SM FEW120 12/04 A2957 1190 58 1100 240/13G20 200V260 RMK AO2
14837KMSN MSN20031112114511911/12/03 11:45:31  5-MIN KMSN 121745Z 24013G20KT 210V300 10SM FEW120 12/03 A2957 1190 56 1100 240/13G20 210V300 RMK AO2
14837KMSN MSN20031112115014411/12/03 11:50:31  5-MIN KMSN 121750Z 24012G20KT 10SM FEW120 12/04 A2957 1190 56 1200 240/12G20 RMK AO2 SLP017 60000 T01220039 10122 20061 55023
14837KMSN MSN20031112115510311/12/03 11:55:31  5-MIN KMSN 121755Z 24011G18KT 10SM FEW100 12/04 A2957 1190 56 1200 240/11G18 RMK AO2
14837KMSN MSN20031112120011911/12/03 12:00:31  5-MIN KMSN 121800Z 23010G19KT 190V270 10SM FEW100 12/04 A2956 1200 56 1200 230/10G19 190V270 RMK AO2
14837KMSN MSN20031112120510311/12/03 12:05:31  5-MIN KMSN 121805Z 23014G20KT 10SM FEW100 12/04 A2956 1200 56 1200 230/14G20 RMK AO2
14837KMSN MSN20031112121010311/12/03 12:10:31  5-MIN KMSN 121810Z 23014G20KT 10SM FEW100 12/04 A2956 1200 56 1200 230/14G20 RMK AO2
14837KMSN MSN20031112121510311/12/03 12:15:31  5-MIN KMSN 121815Z 23013G21KT 10SM FEW100 12/04 A2955 1200 56 1200 230/13G21 RMK AO2
14837KMSN MSN20031112122010311/12/03 12:20:31  5-MIN KMSN 121820Z 23015G23KT 10SM FEW100 12/04 A2955 1200 58 1100 230/15G23 RMK AO2
14837KMSN MSN20031112122512611/12/03 12:25:31  5-MIN KMSN 121825Z 23014G23KT 190V260 10SM FEW030 SCT100 12/04 A2955 1210 58 1100 230/14G23 190V260 RMK AO2
14837KMSN MSN20031112123012611/12/03 12:30:31  5-MIN KMSN 121830Z 24014G24KT 220V280 10SM FEW030 SCT100 12/03 A2955 1210 56 1100 240/14G24 220V280 RMK AO2
14837KMSN MSN20031112123512611/12/03 12:35:31  5-MIN KMSN 121835Z 23013G24KT 210V270 10SM FEW030 SCT100 12/04 A2955 1200 58 1100 230/13G24 210V270 RMK AO2
14837KMSN MSN20031112124011011/12/03 12:40:31  5-MIN KMSN 121840Z 24015G21KT 10SM FEW030 SCT100 12/03 A2955 1210 56 1100 240/15G21 RMK AO2
14837KMSN MSN20031112124512611/12/03 12:45:31  5-MIN KMSN 121845Z 24015G22KT 210V270 10SM FEW030 SCT100 12/03 A2956 1200 56 1100 240/15G22 210V270 RMK AO2
14837KMSN MSN20031112125012711/12/03 12:50:31  5-MIN KMSN 121850Z 24016G23KT 10SM FEW030 SCT100 12/03 A2956 1200 56 1100 230/16G23 RMK AO2 SLP012 T01170033
14837KMSN MSN20031112125510311/12/03 12:55:31  5-MIN KMSN 121855Z 25015G26KT 10SM SCT030 12/03 A2956 1200 54 1100 250/15G26 RMK AO2
14837KMSN MSN20031112130013711/12/03 13:00:31  5-MIN KMSN 121900Z 24014G29KT 220V280 10SM BKN032 11/03 A2956 1200 56 1100 240/14G29 220V280 RMK AO2 PK WND 25029/1857
14837KMSN MSN20031112130512111/12/03 13:05:31  5-MIN KMSN 121905Z 24014G29KT 10SM BKN032 11/03 A2956 1200 58 1100 240/14G29 RMK AO2 PK WND 25029/1857
14837KMSN MSN20031112131012111/12/03 13:10:31  5-MIN KMSN 121910Z 24018G25KT 10SM BKN032 11/02 A2957 1190 56 1000 240/18G25 RMK AO2 PK WND 25029/1857
14837KMSN MSN20031112131512111/12/03 13:15:31  5-MIN KMSN 121915Z 24016G25KT 10SM BKN036 11/02 A2957 1190 56 1000 240/16G25 RMK AO2 PK WND 25029/1857
14837KMSN MSN20031112132013611/12/03 13:20:31  5-MIN KMSN 121920Z 24013G25KT 200V260 10SM BKN036 10/02 A2957 1190 58 900 230/13G25 200V260 RMK AO2 PK WND 25029/1857
14837KMSN MSN20031112132512011/12/03 13:25:31  5-MIN KMSN 121925Z 25013G22KT 10SM OVC036 10/02 A2957 1190 58 900 250/13G22 RMK AO2 PK WND 25029/1857
14837KMSN MSN20031112133013611/12/03 13:30:31  5-MIN KMSN 121930Z 25017G24KT 220V280 10SM OVC036 10/02 A2956 1200 58 900 250/17G24 220V280 RMK AO2 PK WND 25029/1857
14837KMSN MSN20031112133512011/12/03 13:35:31  5-MIN KMSN 121935Z 25012G25KT 10SM OVC036 10/02 A2957 1190 58 900 250/12G25 RMK AO2 PK WND 25029/1857
14837KMSN MSN20031112134013611/12/03 13:40:31  5-MIN KMSN 121940Z 26012G25KT 220V280 10SM OVC036 10/02 A2957 1190 58 900 250/12G25 220V280 RMK AO2 PK WND 25029/1857
14837KMSN MSN20031112134512011/12/03 13:45:31  5-MIN KMSN 121945Z 25017G30KT 10SM OVC036 09/02 A2958 1180 58 800 250/17G30 RMK AO2 PK WND 24030/1945
14837KMSN MSN20031112135015311/12/03 13:50:31  5-MIN KMSN 121950Z 25016G30KT 220V280 10SM OVC036 09/02 A2958 1180 60 800 250/16G30 220V280 RMK AO2 PK WND 24030/1945 SLP020 T00890017
14837KMSN MSN20031112135510211/12/03 13:55:31  5-MIN KMSN 121955Z 26014G27KT 10SM OVC036 09/02 A2958 1180 60 800 250/14G27 RMK AO2
14837KMSN MSN20031112140012011/12/03 14:00:31  5-MIN KMSN 122000Z 24010G29KT 10SM OVC034 09/02 A2958 1180 60 800 240/10G29 RMK AO2 PK WND 25029/1956
14837KMSN MSN20031112140512011/12/03 14:05:31  5-MIN KMSN 122005Z 25016G29KT 10SM OVC034 08/02 A2959 1170 65 700 250/16G29 RMK AO2 PK WND 25029/1956
14837KMSN MSN20031112141014311/12/03 14:10:31  5-MIN KMSN 122010Z 25014G25KT 220V280 10SM SCT028 OVC034 08/02 A2959 1170 65 700 250/14G25 220V280 RMK AO2 PK WND 25029/1956
14837KMSN MSN20031112141512011/12/03 14:15:31  5-MIN KMSN 122015Z 24013G28KT 10SM OVC028 08/02 A2959 1170 68 600 240/13G28 RMK AO2 PK WND 25029/1956
14837KMSN MSN20031112142012011/12/03 14:20:31  5-MIN KMSN 122020Z 25014G30KT 10SM OVC028 08/02 A2959 1170 68 600 240/14G30 RMK AO2 PK WND 25030/2018
14837KMSN MSN20031112142512711/12/03 14:25:31  5-MIN KMSN 122025Z 25014G30KT 10SM BKN026 OVC034 07/02 A2960 1170 70 500 250/14G30 RMK AO2 PK WND 25030/2018
14837KMSN MSN20031112143013611/12/03 14:30:31  5-MIN KMSN 122030Z 25014G23KT 220V290 10SM OVC026 07/02 A2960 1160 70 500 250/14G23 220V290 RMK AO2 PK WND 25030/2018
14837KMSN MSN20031112143512011/12/03 14:35:31  5-MIN KMSN 122035Z 25016G23KT 10SM OVC026 07/02 A2960 1160 68 500 250/16G23 RMK AO2 PK WND 25030/2018
14837KMSN MSN20031112144012011/12/03 14:40:31  5-MIN KMSN 122040Z 25015G25KT 10SM OVC026 07/01 A2961 1150 67 500 250/15G25 RMK AO2 PK WND 25030/2018
14837KMSN MSN20031112144513611/12/03 14:45:31  5-MIN KMSN 122045Z 27017G27KT 240V310 10SM OVC024 07/01 A2961 1150 67 500 270/17G27 240V310 RMK AO2 PK WND 25030/2018
14837KMSN MSN20031112145014311/12/03 14:50:31  5-MIN KMSN 122050Z 26022G30KT 10SM OVC024 07/01 A2961 1150 67 500 260/22G30 RMK AO2 PK WND 26030/2050 SLP033 T00670011 56024
14837KMSN MSN20031112145512011/12/03 14:55:31  5-MIN KMSN 122055Z 26016G30KT 10SM OVC024 06/01 A2962 1140 70 400 260/16G30 RMK AO2 PK WND 23030/2055
14837KMSN MSN20031112150012011/12/03 15:00:31  5-MIN KMSN 122100Z 25019G30KT 10SM OVC024 06/01 A2962 1140 67 400 250/19G30 RMK AO2 PK WND 23030/2055
14837KMSN MSN20031112150511911/12/03 15:05:31  5-MIN KMSN 122105Z 26017G29KT 9SM OVC024 06/01 A2962 1140 67 400 260/17G29 RMK AO2 PK WND 23030/2055
14837KMSN MSN20031112151011911/12/03 15:10:31  5-MIN KMSN 122110Z 25013G25KT 9SM OVC024 06/01 A2962 1140 67 400 250/13G25 RMK AO2 PK WND 23030/2055
14837KMSN MSN20031112151511911/12/03 15:15:31  5-MIN KMSN 122115Z 26015G25KT 9SM OVC024 06/01 A2963 1140 67 400 260/15G25 RMK AO2 PK WND 23030/2055
14837KMSN MSN20031112152011911/12/03 15:20:31  5-MIN KMSN 122120Z 27017G26KT 9SM OVC024 06/01 A2963 1140 67 400 270/17G26 RMK AO2 PK WND 23030/2055
14837KMSN MSN20031112152511911/12/03 15:25:31  5-MIN KMSN 122125Z 27020G28KT 9SM OVC024 06/01 A2963 1130 70 300 270/20G28 RMK AO2 PK WND 23030/2055
14837KMSN MSN20031112153011911/12/03 15:30:31  5-MIN KMSN 122130Z 27017G28KT 8SM OVC024 06/01 A2964 1130 70 300 270/17G28 RMK AO2 PK WND 23030/2055
14837KMSN MSN20031112153511911/12/03 15:35:31  5-MIN KMSN 122135Z 28018G25KT 8SM OVC024 06/01 A2964 1120 70 300 280/18G25 RMK AO2 PK WND 23030/2055
14837KMSN MSN20031112154011911/12/03 15:40:31  5-MIN KMSN 122140Z 26018G26KT 9SM OVC024 06/01 A2965 1120 70 300 260/18G26 RMK AO2 PK WND 23030/2055
14837KMSN MSN20031112154511911/12/03 15:45:31  5-MIN KMSN 122145Z 27017G26KT 9SM OVC024 06/01 A2964 1120 70 300 270/17G26 RMK AO2 PK WND 23030/2055
14837KMSN MSN20031112155014411/12/03 15:50:31  5-MIN KMSN 122150Z 26017G25KT 10SM BKN024 OVC029 06/00 A2965 1120 67 300 260/17G25 RMK AO2 PK WND 23030/2055 SLP045 T00560000
14837KMSN MSN20031112155510211/12/03 15:55:31  5-MIN KMSN 122155Z 28015G25KT 10SM OVC026 06/00 A2965 1110 67 300 270/15G25 RMK AO2
14837KMSN MSN20031112160014411/12/03 16:00:31  5-MIN KMSN 122200Z 27019G31KT 9SM -RA BKN026 OVC033 05/00 A2966 1100 70 200 270/19G31 RMK AO2 PK WND 28031/2200 RAB2158 P0000
14837KMSN MSN20031112160515811/12/03 16:05:31  5-MIN KMSN 122205Z 28020G31KT 4SM -RA BKN024 BKN030 OVC035 04/01 A2968 1090 76 100 280/20G31 RMK AO2 PK WND 27031/2205 RAB2158 PRESRR P0000
14837KMSN MSN20031112161014911/12/03 16:10:31  5-MIN KMSN 122210Z 28017G31KT 3SM -RA SCT020 BKN028 OVC034 03/01 A2968 1090 82 0 280/17G31 RMK AO2 PK WND 29031/2206 RAB2158 P0000
14837KMSN MSN20031112161515511/12/03 16:15:31  5-MIN KMSN 122215Z 29016G31KT 4SM -RA BR SCT018 BKN024 OVC034 03/01 A2969 1080 85 -100 280/16G31 RMK AO2 PK WND 29031/2206 RAB2158 P0001
14837KMSN MSN20031112162015511/12/03 16:20:31  5-MIN KMSN 122220Z 29014G26KT 4SM -RA BR SCT018 BKN024 OVC032 03/01 A2969 1080 85 -100 290/14G26 RMK AO2 PK WND 29031/2206 RAB2158 P0001
14837KMSN MSN20031112162515511/12/03 16:25:31  5-MIN KMSN 122225Z 29014G23KT 4SM -RA BR SCT018 BKN024 OVC030 03/01 A2970 1070 85 -100 280/14G23 RMK AO2 PK WND 29031/2206 RAB2158 P0001
14837KMSN MSN20031112163015511/12/03 16:30:31  5-MIN KMSN 122230Z 28012G23KT 4SM -RA BR SCT018 BKN024 OVC030 03/01 A2970 1070 85 -100 270/12G23 RMK AO2 PK WND 29031/2206 RAB2158 P0001
14837KMSN MSN20031112163515511/12/03 16:35:31  5-MIN KMSN 122235Z 28014G24KT 4SM -RA BR SCT018 BKN024 OVC030 03/01 A2971 1060 85 -100 280/14G24 RMK AO2 PK WND 29031/2206 RAB2158 P0001
14837KMSN MSN20031112164017111/12/03 16:40:31  5-MIN KMSN 122240Z 28015G26KT 250V310 4SM -RA BR SCT018 BKN024 OVC030 03/01 A2971 1060 85 -100 280/15G26 250V310 RMK AO2 PK WND 29031/2206 RAB2158 P0001
14837KMSN MSN20031112164515511/12/03 16:45:31  5-MIN KMSN 122245Z 28012G26KT 4SM -RA BR SCT018 BKN025 OVC030 03/01 A2972 1050 85 -100 280/12G26 RMK AO2 PK WND 29031/2206 RAB2158 P0001
14837KMSN MSN20031112165016911/12/03 16:50:31  5-MIN KMSN 122250Z 28013G22KT 6SM -RA FEW016 BKN022 OVC030 03/00 A2972 1050 82 -100 280/13G22 RMK AO2 PK WND 29031/2206 RAB2158 SLP072 P0001 T00280000
14837KMSN MSN20031112165512911/12/03 16:55:31  5-MIN KMSN 122255Z 28017G25KT 6SM -RA BR SCT016 BKN024 OVC030 02/00 A2973 1040 85 -200 280/17G25 RMK AO2 P0000
14837KMSN MSN20031112170012611/12/03 17:00:31  5-MIN KMSN 122300Z 29018G25KT 8SM -RA SCT017 OVC024 02/00 A2974 1030 85 -200 290/18G25 RMK AO2 PRESRR P0001
14837KMSN MSN20031112170514411/12/03 17:05:31  5-MIN KMSN 122305Z 29018G29KT 8SM -RA BKN017 OVC024 02/00 A2974 1030 85 -200 290/18G29 RMK AO2 PK WND 29029/2304 PRESRR P0001
14837KMSN MSN20031112171014011/12/03 17:10:31  5-MIN KMSN 122310Z 29017G29KT 4SM -RA BR BKN019 OVC025 02/00 A2975 1020 85 -200 290/17G29 RMK AO2 PK WND 29029/2304 P0001
14837KMSN MSN20031112171514711/12/03 17:15:31  5-MIN KMSN 122315Z 29011G26KT 6SM -RA BR FEW016 OVC023 02/00 A2976 1020 85 -200 290/11G26 RMK AO2 PK WND 29029/2304 PRESRR P0001
14837KMSN MSN20031112172014611/12/03 17:20:31  5-MIN KMSN 122320Z 29016G25KT 10SM -RA BKN019 OVC024 02/M01 A2976 1010 82 -200 290/16G25 RMK AO2 PK WND 29029/2304 PRESRR P0001
14837KMSN MSN20031112172513911/12/03 17:25:31  5-MIN KMSN 122325Z 29020G26KT 10SM -RA BKN019 OVC024 02/M01 A2977 1010 82 -200 290/20G26 RMK AO2 PK WND 29029/2304 P0001
14837KMSN MSN20031112173014111/12/03 17:30:31  5-MIN KMSN 122330Z 29019G27KT 10SM BKN019 OVC026 02/M01 A2977 1000 82 -200 290/19G27 RMK AO2 PK WND 29029/2304 RAE27 P0001
14837KMSN MSN20031112173514011/12/03 17:35:31  5-MIN KMSN 122335Z 29015G27KT 10SM BKN019 OVC026 02/M01 A2978 990 82 -200 290/15G27 RMK AO2 PK WND 29029/2304 RAE27 P0001
14837KMSN MSN20031112174014711/12/03 17:40:31  5-MIN KMSN 122340Z 29015G23KT 10SM BKN021 OVC026 02/M01 A2979 990 78 -200 290/15G23 RMK AO2 PK WND 29029/2304 RAE27 PRESRR P0001
14837KMSN MSN20031112174514011/12/03 17:45:31  5-MIN KMSN 122345Z 29016G28KT 10SM BKN021 OVC029 02/M01 A2979 980 78 -200 290/16G28 RMK AO2 PK WND 29029/2304 RAE27 P0001
14837KMSN MSN20031112175018811/12/03 17:50:31  5-MIN KMSN 122350Z 30015G28KT 10SM BKN021 OVC029 02/M01 A2980 980 78 -200 290/15G28 RMK AO2 PK WND 29029/2304 RAE27 PRESRR SLP097 P0001 60002 T00221011 10122 20022 53017
14837KMSN MSN20031112175512711/12/03 17:55:31  5-MIN KMSN 122355Z 29017G29KT 10SM -DZ BKN021 OVC029 02/M01 A2980 970 78 -300 290/17G29 RMK AO2 PRESRR P0000
14837KMSN MSN20031112180014511/12/03 18:00:31  5-MIN KMSN 130000Z 30018G29KT 10SM -DZ BKN023 OVC029 02/M01 A2981 970 78 -300 300/18G29 RMK AO2 PK WND 30027/2359 PRESRR P0000
14837KMSN MSN20031112180514511/12/03 18:05:31  5-MIN KMSN 130005Z 29018G27KT 10SM -DZ BKN024 OVC031 02/M01 A2982 960 78 -300 290/18G27 RMK AO2 PK WND 30027/2359 PRESRR P0000
14837KMSN MSN20031112181013811/12/03 18:10:31  5-MIN KMSN 130010Z 30017G28KT 10SM -DZ BKN023 OVC031 02/M02 A2982 950 75 -300 300/17G28 RMK AO2 PK WND 29028/0008 P0000
14837KMSN MSN20031112181513811/12/03 18:15:31  5-MIN KMSN 130015Z 29017G28KT 10SM -DZ SCT023 OVC029 02/M02 A2983 950 75 -300 290/17G28 RMK AO2 PK WND 29028/0008 P0000
14837KMSN MSN20031112182014511/12/03 18:20:31  5-MIN KMSN 130020Z 30015G26KT 10SM -DZ BKN023 OVC031 02/M02 A2983 940 75 -300 290/15G26 RMK AO2 PK WND 29028/0008 PRESRR P0000
14837KMSN MSN20031112182514511/12/03 18:25:31  5-MIN KMSN 130025Z 30018G31KT 10SM -DZ BKN025 OVC031 02/M02 A2984 940 72 -300 300/18G31 RMK AO2 PK WND 30031/0022 PRESRR P0000
14837KMSN MSN20031112183013811/12/03 18:30:31  5-MIN KMSN 130030Z 29017G31KT 10SM -DZ BKN026 OVC032 02/M02 A2985 930 72 -300 290/17G31 RMK AO2 PK WND 30031/0022 P0000
14837KMSN MSN20031112183513811/12/03 18:35:31  5-MIN KMSN 130035Z 30018G29KT 10SM -DZ SCT024 OVC029 02/M03 A2985 930 69 -300 290/18G29 RMK AO2 PK WND 30031/0022 P0000
14837KMSN MSN20031112184014011/12/03 18:40:31  5-MIN KMSN 130040Z 31023G29KT 10SM FEW024 OVC029 02/M03 A2985 930 69 -300 300/23G29 RMK AO2 PK WND 30031/0022 DZE37 P0000
14837KMSN MSN20031112184514011/12/03 18:45:31  5-MIN KMSN 130045Z 30020G29KT 10SM FEW024 OVC029 02/M03 A2986 920 69 -300 300/20G29 RMK AO2 PK WND 30031/0022 DZE37 P0000
14837KMSN MSN20031112185015711/12/03 18:50:31  5-MIN KMSN 130050Z 30020G29KT 10SM FEW024 OVC031 02/M03 A2986 920 67 -300 300/20G29 RMK AO2 PK WND 30031/0022 DZE37 SLP119 P0000 T00221033
14837KMSN MSN20031112185512111/12/03 18:55:31  5-MIN KMSN 130055Z 30018G29KT 10SM OVC031 02/M03 A2987 910 67 -300 300/18G29 RMK AO2 PK WND 30028/0055
14837KMSN MSN20031112190012811/12/03 19:00:31  5-MIN KMSN 130100Z 30016G28KT 10SM BKN031 OVC035 02/M03 A2987 910 67 -300 300/16G28 RMK AO2 PK WND 30028/0055
14837KMSN MSN20031112190512111/12/03 19:05:31  5-MIN KMSN 130105Z 30016G28KT 10SM OVC031 02/M03 A2987 910 67 -300 300/16G28 RMK AO2 PK WND 28028/0103
14837KMSN MSN20031112191012111/12/03 19:10:31  5-MIN KMSN 130110Z 30019G33KT 10SM OVC031 02/M04 A2988 900 64 -300 300/19G33 RMK AO2 PK WND 31033/0108
14837KMSN MSN20031112191512111/12/03 19:15:31  5-MIN KMSN 130115Z 31016G33KT 10SM OVC031 02/M03 A2988 900 67 -300 300/16G33 RMK AO2 PK WND 31033/0108
14837KMSN MSN20031112192012111/12/03 19:20:31  5-MIN KMSN 130120Z 30017G29KT 10SM OVC031 02/M04 A2989 890 64 -400 300/17G29 RMK AO2 PK WND 31033/0108
14837KMSN MSN20031112192512811/12/03 19:25:31  5-MIN KMSN 130125Z 30017G28KT 10SM OVC031 02/M04 A2990 890 64 -400 300/17G28 RMK AO2 PK WND 31033/0108 PRESRR
14837KMSN MSN20031112193012111/12/03 19:30:31  5-MIN KMSN 130130Z 30013G28KT 10SM OVC031 02/M03 A2989 890 67 -400 300/13G28 RMK AO2 PK WND 31033/0108
14837KMSN MSN20031112193512111/12/03 19:35:31  5-MIN KMSN 130135Z 29015G25KT 10SM OVC031 02/M04 A2990 880 64 -400 290/15G25 RMK AO2 PK WND 31033/0108
14837KMSN MSN20031112194012111/12/03 19:40:31  5-MIN KMSN 130140Z 30017G34KT 10SM OVC033 02/M04 A2991 880 64 -400 300/17G34 RMK AO2 PK WND 29034/0137
14837KMSN MSN20031112194512111/12/03 19:45:31  5-MIN KMSN 130145Z 30015G34KT 10SM OVC033 02/M04 A2991 870 64 -400 300/15G34 RMK AO2 PK WND 29034/0137
14837KMSN MSN20031112195013811/12/03 19:50:31  5-MIN KMSN 130150Z 30018G28KT 10SM OVC033 02/M04 A2991 870 64 -400 290/18G28 RMK AO2 PK WND 29034/0137 SLP135 T00221039
14837KMSN MSN20031112195512811/12/03 19:55:31  5-MIN KMSN 130155Z 30019G26KT 10SM BKN035 OVC042 02/M04 A2992 870 61 -400 300/19G26 RMK AO2 PK WND 30026/0155
14837KMSN MSN20031112200012811/12/03 20:00:31  5-MIN KMSN 130200Z 29018G26KT 10SM BKN035 OVC042 02/M04 A2992 870 64 -400 290/18G26 RMK AO2 PK WND 30026/0155
14837KMSN MSN20031112200512811/12/03 20:05:31  5-MIN KMSN 130205Z 30016G25KT 10SM BKN036 OVC045 02/M04 A2992 860 61 -400 290/16G25 RMK AO2 PK WND 30026/0155
14837KMSN MSN20031112201012811/12/03 20:10:31  5-MIN KMSN 130210Z 29015G25KT 10SM BKN037 OVC046 02/M04 A2993 860 61 -400 290/15G25 RMK AO2 PK WND 30026/0155
14837KMSN MSN20031112201514411/12/03 20:15:31  5-MIN KMSN 130215Z 29016G25KT 270V330 10SM BKN035 OVC044 02/M04 A2993 850 61 -400 290/16G25 270V330 RMK AO2 PK WND 30026/0155
14837KMSN MSN20031112202012811/12/03 20:20:31  5-MIN KMSN 130220Z 29019G29KT 10SM BKN038 OVC047 02/M05 A2994 850 59 -400 290/19G29 RMK AO2 PK WND 28029/0217
14837KMSN MSN20031112202512811/12/03 20:25:31  5-MIN KMSN 130225Z 30020G29KT 10SM BKN037 OVC045 02/M05 A2994 840 61 -500 300/20G29 RMK AO2 PK WND 28029/0217
14837KMSN MSN20031112203013511/12/03 20:30:31  5-MIN KMSN 130230Z 30027G32KT 10SM SCT035 OVC045 02/M05 A2995 830 61 -500 300/27G32 RMK AO2 PK WND 28032/0229 PRESRR
14837KMSN MSN20031112203512811/12/03 20:35:31  5-MIN KMSN 130235Z 30022G32KT 10SM BKN039 OVC047 02/M07 A2995 830 52 -500 300/22G32 RMK AO2 PK WND 28032/0231
14837KMSN MSN20031112204012811/12/03 20:40:31  5-MIN KMSN 130240Z 29019G32KT 10SM BKN040 OVC048 02/M07 A2996 830 54 -500 290/19G32 RMK AO2 PK WND 28032/0231
14837KMSN MSN20031112204512811/12/03 20:45:31  5-MIN KMSN 130245Z 29017G30KT 10SM BKN040 OVC046 02/M07 A2996 830 54 -500 290/17G30 RMK AO2 PK WND 28032/0231
14837KMSN MSN20031112205015011/12/03 20:50:31  5-MIN KMSN 130250Z 29018G30KT 10SM OVC042 01/M07 A2996 830 56 -600 290/18G30 RMK AO2 PK WND 28032/0231 SLP153 60000 T00111067 53060
14837KMSN MSN20031112205513711/12/03 20:55:31  5-MIN KMSN 130255Z 30018G27KT 270V330 10SM OVC042 01/M07 A2997 820 54 -600 300/18G27 270V330 RMK AO2 PK WND 29026/0255
14837KMSN MSN20031112210012111/12/03 21:00:31  5-MIN KMSN 130300Z 29017G27KT 10SM OVC040 01/M07 A2997 810 54 -600 290/17G27 RMK AO2 PK WND 29026/0255
14837KMSN MSN20031112210512111/12/03 21:05:31  5-MIN KMSN 130305Z 30016G33KT 10SM OVC040 01/M07 A2998 810 54 -600 300/16G33 RMK AO2 PK WND 31033/0303
14837KMSN MSN20031112211012111/12/03 21:10:31  5-MIN KMSN 130310Z 30017G33KT 10SM OVC040 01/M07 A2998 810 54 -600 300/17G33 RMK AO2 PK WND 31033/0303
14837KMSN MSN20031112211512111/12/03 21:15:31  5-MIN KMSN 130315Z 30021G28KT 10SM OVC040 01/M07 A2999 800 54 -600 300/21G28 RMK AO2 PK WND 31033/0303
14837KMSN MSN20031112212012111/12/03 21:20:31  5-MIN KMSN 130320Z 30020G33KT 10SM OVC040 01/M08 A2999 800 51 -600 300/20G33 RMK AO2 PK WND 29033/0317
14837KMSN MSN20031112212512111/12/03 21:25:31  5-MIN KMSN 130325Z 31024G33KT 10SM BKN042 01/M08 A2999 800 51 -600 300/24G33 RMK AO2 PK WND 29033/0317
14837KMSN MSN20031112213012111/12/03 21:30:31  5-MIN KMSN 130330Z 30021G32KT 10SM BKN042 01/M08 A2999 800 51 -600 290/21G32 RMK AO2 PK WND 29033/0317
14837KMSN MSN20031112213512111/12/03 21:35:31  5-MIN KMSN 130335Z 31019G31KT 10SM BKN042 01/M08 A3000 800 51 -600 310/19G31 RMK AO2 PK WND 29033/0317
14837KMSN MSN20031112214012111/12/03 21:40:31  5-MIN KMSN 130340Z 30017G28KT 10SM BKN042 01/M08 A3000 790 51 -600 300/17G28 RMK AO2 PK WND 29033/0317
14837KMSN MSN20031112214512111/12/03 21:45:31  5-MIN KMSN 130345Z 30014G26KT 10SM BKN042 01/M08 A3000 790 51 -600 300/14G26 RMK AO2 PK WND 29033/0317
14837KMSN MSN20031112215013811/12/03 21:50:31  5-MIN KMSN 130350Z 30018G26KT 10SM BKN042 01/M08 A3000 790 54 -700 300/18G26 RMK AO2 PK WND 29033/0317 SLP165 T00061078
14837KMSN MSN20031112215510311/12/03 21:55:31  5-MIN KMSN 130355Z 30015G27KT 10SM BKN042 01/M08 A3000 790 54 -700 300/15G27 RMK AO2
14837KMSN MSN20031112220010311/12/03 22:00:31  5-MIN KMSN 130400Z 30017G27KT 10SM BKN042 01/M08 A3001 780 54 -700 300/17G27 RMK AO2
14837KMSN MSN20031112220510311/12/03 22:05:31  5-MIN KMSN 130405Z 30014G24KT 10SM BKN042 01/M08 A3001 780 54 -700 300/14G24 RMK AO2
14837KMSN MSN20031112221010311/12/03 22:10:31  5-MIN KMSN 130410Z 30016G23KT 10SM BKN042 01/M08 A3001 780 54 -700 300/16G23 RMK AO2
14837KMSN MSN20031112221510311/12/03 22:15:31  5-MIN KMSN 130415Z 30014G23KT 10SM BKN042 01/M08 A3001 780 51 -700 290/14G23 RMK AO2
14837KMSN MSN20031112222012111/12/03 22:20:31  5-MIN KMSN 130420Z 29016G27KT 10SM FEW044 01/M08 A3002 780 51 -700 290/16G27 RMK AO2 PK WND 31027/0417
14837KMSN MSN20031112222512111/12/03 22:25:31  5-MIN KMSN 130425Z 30018G27KT 10SM FEW044 01/M08 A3002 770 51 -700 300/18G27 RMK AO2 PK WND 31027/0417
14837KMSN MSN20031112223012111/12/03 22:30:31  5-MIN KMSN 130430Z 30011G24KT 10SM FEW044 00/M08 A3002 770 53 -800 290/11G24 RMK AO2 PK WND 31027/0417
14837KMSN MSN20031112223512111/12/03 22:35:31  5-MIN KMSN 130435Z 30013G28KT 10SM FEW044 00/M08 A3002 770 53 -800 300/13G28 RMK AO2 PK WND 30028/0433
14837KMSN MSN20031112224012111/12/03 22:40:31  5-MIN KMSN 130440Z 30012G28KT 10SM FEW044 00/M08 A3002 770 53 -800 300/12G28 RMK AO2 PK WND 30028/0433
14837KMSN MSN20031112224513711/12/03 22:45:31  5-MIN KMSN 130445Z 31012G25KT 280V340 10SM FEW044 00/M08 A3003 770 56 -800 300/12G25 280V340 RMK AO2 PK WND 30028/0433
14837KMSN MSN20031112225013811/12/03 22:50:31  5-MIN KMSN 130450Z 30017G25KT 10SM FEW044 00/M08 A3003 760 53 -800 290/17G25 RMK AO2 PK WND 30028/0433 SLP175 T00001083
14837KMSN MSN20031112225510011/12/03 22:55:31  5-MIN KMSN 130455Z 30014G23KT 10SM CLR 00/M08 A3003 760 53 -800 290/14G23 RMK AO2
14837KMSN MSN20031112230010311/12/03 23:00:31  5-MIN KMSN 130500Z 29016G23KT 10SM FEW044 00/M08 A3003 760 53 -800 290/16G23 RMK AO2
14837KMSN MSN20031112230511911/12/03 23:05:31  5-MIN KMSN 130505Z 30015G21KT 270V340 10SM FEW044 00/M08 A3003 760 53 -800 300/15G21 270V340 RMK AO2
14837KMSN MSN20031112231010311/12/03 23:10:31  5-MIN KMSN 130510Z 29013G21KT 10SM FEW044 00/M09 A3003 760 51 -800 290/13G21 RMK AO2
14837KMSN MSN20031112231512111/12/03 23:15:31  5-MIN KMSN 130515Z 30012G26KT 10SM FEW044 00/M09 A3004 760 51 -800 300/12G26 RMK AO2 PK WND 32026/0511
14837KMSN MSN20031112232012111/12/03 23:20:31  5-MIN KMSN 130520Z 30014G26KT 10SM FEW044 00/M09 A3004 760 51 -800 300/14G26 RMK AO2 PK WND 32026/0511
14837KMSN MSN20031112232512111/12/03 23:25:31  5-MIN KMSN 130525Z 30014G25KT 10SM FEW044 00/M09 A3004 750 49 -800 300/14G25 RMK AO2 PK WND 32026/0511
14837KMSN MSN20031112233012111/12/03 23:30:31  5-MIN KMSN 130530Z 31014G25KT 10SM FEW044 00/M09 A3004 750 49 -800 300/14G25 RMK AO2 PK WND 32026/0511
14837KMSN MSN20031112233512111/12/03 23:35:31  5-MIN KMSN 130535Z 31016G22KT 10SM FEW044 00/M09 A3004 750 49 -800 310/16G22 RMK AO2 PK WND 32026/0511
14837KMSN MSN20031112234012111/12/03 23:40:31  5-MIN KMSN 130540Z 30009G23KT 10SM FEW044 00/M09 A3005 750 51 -800 300/09G23 RMK AO2 PK WND 32026/0511
14837KMSN MSN20031112234512111/12/03 23:45:31  5-MIN KMSN 130545Z 30014G23KT 10SM FEW044 00/M09 A3005 750 51 -800 300/14G23 RMK AO2 PK WND 32026/0511
14837KMSN MSN20031112235017311/12/03 23:50:31  5-MIN KMSN 130550Z 30016G22KT 10SM FEW044 M01/M09 A3005 740 53 -900 300/16G22 RMK AO2 PK WND 32026/0511 SLP182 60000 T10061089 10022 21006 401221006 51055
14837KMSN MSN20031112235510111/12/03 23:55:31  5-MIN KMSN 130555Z 30014G25KT 10SM CLR M01/M08 A3006 740 56 -900 300/14G25 RMK AO2
14837KMSN MSN20031113000010011/13/03 00:00:31  5-MIN KMSN 130600Z 29010G25KT 10SM CLR 00/M08 A3006 730 53 -800 290/10G25 RMK AO2
14837KMSN MSN20031113000512011/13/03 00:05:31  5-MIN KMSN 130605Z 29013G20KT 260V330 10SM FEW045 M01/M08 A3007 730 56 -900 290/13G20 260V330 RMK AO2
14837KMSN MSN20031113001010311/13/03 00:10:31  5-MIN KMSN 130610Z 29011G20KT 10SM FEW045 00/M08 A3007 730 53 -800 290/11G20 RMK AO2
14837KMSN MSN20031113001512011/13/03 00:15:31  5-MIN KMSN 130615Z 29010G20KT 250V310 10SM FEW045 M01/M08 A3007 720 56 -900 280/10G20 250V310 RMK AO2
14837KMSN MSN20031113002010411/13/03 00:20:31  5-MIN KMSN 130620Z 30015G20KT 10SM FEW045 M01/M08 A3008 720 56 -900 300/15G20 RMK AO2
14837KMSN MSN20031113002510411/13/03 00:25:31  5-MIN KMSN 130625Z 29012G20KT 10SM FEW045 M01/M08 A3008 720 56 -900 290/12G20 RMK AO2
14837KMSN MSN20031113003010111/13/03 00:30:31  5-MIN KMSN 130630Z 30013G20KT 10SM CLR M01/M08 A3008 720 58 -900 300/13G20 RMK AO2
14837KMSN MSN20031113003510111/13/03 00:35:31  5-MIN KMSN 130635Z 31010G24KT 10SM CLR M01/M08 A3008 720 56 -900 300/10G24 RMK AO2
14837KMSN MSN20031113004010111/13/03 00:40:31  5-MIN KMSN 130640Z 30009G24KT 10SM CLR M01/M08 A3008 720 56 -900 300/09G24 RMK AO2
14837KMSN MSN20031113004510111/13/03 00:45:31  5-MIN KMSN 130645Z 29013G21KT 10SM CLR M01/M08 A3008 710 56 -900 290/13G21 RMK AO2
14837KMSN MSN20031113005011811/13/03 00:50:31  5-MIN KMSN 130650Z 30011G21KT 10SM CLR M01/M08 A3009 710 56 -900 300/11G21 RMK AO2 SLP194 T10061083
14837KMSN MSN20031113005510111/13/03 00:55:31  5-MIN KMSN 130655Z 30012G21KT 10SM CLR M01/M08 A3009 710 56 -900 300/12G21 RMK AO2
14837KMSN MSN20031113010010111/13/03 01:00:31  5-MIN KMSN 130700Z 30011G19KT 10SM CLR M01/M08 A3009 710 56 -900 300/11G19 RMK AO2
14837KMSN MSN20031113010510111/13/03 01:05:31  5-MIN KMSN 130705Z 30011G22KT 10SM CLR M01/M08 A3009 710 56 -900 300/11G22 RMK AO2
14837KMSN MSN20031113011010211/13/03 01:10:31  5-MIN KMSN 130710Z 29012G22KT 10SM CLR M01/M08 A3010 700 58 -1000 290/12G22 RMK AO2
14837KMSN MSN20031113011510111/13/03 01:15:31  5-MIN KMSN 130715Z 30011G19KT 10SM CLR M01/M08 A3010 700 56 -900 300/11G19 RMK AO2
14837KMSN MSN20031113012010211/13/03 01:20:31  5-MIN KMSN 130720Z 29011G19KT 10SM CLR M01/M08 A3010 700 58 -1000 290/11G19 RMK AO2
14837KMSN MSN20031113012510211/13/03 01:25:31  5-MIN KMSN 130725Z 30013G18KT 10SM CLR M01/M08 A3010 700 58 -1000 300/13G18 RMK AO2
14837KMSN MSN20031113013010211/13/03 01:30:31  5-MIN KMSN 130730Z 29013G18KT 10SM CLR M01/M09 A3011 690 55 -1000 290/13G18 RMK AO2
14837KMSN MSN20031113013510211/13/03 01:35:31  5-MIN KMSN 130735Z 29011G18KT 10SM CLR M01/M09 A3011 690 55 -1000 290/11G18 RMK AO2
14837KMSN MSN20031113014010211/13/03 01:40:31  5-MIN KMSN 130740Z 30010G16KT 10SM CLR M01/M09 A3011 690 55 -1000 290/10G16 RMK AO2
14837KMSN MSN20031113014511211/13/03 01:45:31  5-MIN KMSN 130745Z 29009KT 280V340 10SM CLR M01/M09 A3012 680 55 -1000 290/09 280V340 RMK AO2
14837KMSN MSN20031113015011311/13/03 01:50:31  5-MIN KMSN 130750Z 29010KT 10SM CLR M01/M09 A3012 680 55 -1000 290/10 RMK AO2 SLP207 T10111089
14837KMSN MSN20031113015509611/13/03 01:55:31  5-MIN KMSN 130755Z 28010KT 10SM CLR M01/M08 A3012 680 58 -1000 280/10 RMK AO2
14837KMSN MSN20031113020009611/13/03 02:00:31  5-MIN KMSN 130800Z 29008KT 10SM CLR M01/M08 A3012 680 58 -1000 290/08 RMK AO2
14837KMSN MSN20031113020511211/13/03 02:05:31  5-MIN KMSN 130805Z 28010KT 240V300 10SM CLR M01/M08 A3013 680 58 -1000 280/10 240V300 RMK AO2
14837KMSN MSN20031113021009611/13/03 02:10:31  5-MIN KMSN 130810Z 29008KT 10SM CLR M02/M08 A3013 670 60 -1100 290/08 RMK AO2
14837KMSN MSN20031113021510211/13/03 02:15:31  5-MIN KMSN 130815Z 29009G16KT 10SM CLR M02/M08 A3013 670 60 -1100 280/09G16 RMK AO2
14837KMSN MSN20031113022010211/13/03 02:20:31  5-MIN KMSN 130820Z 28010G16KT 10SM CLR M02/M08 A3013 670 63 -1100 280/10G16 RMK AO2
14837KMSN MSN20031113022510211/13/03 02:25:31  5-MIN KMSN 130825Z 28009G15KT 10SM CLR M02/M08 A3013 670 63 -1100 280/09G15 RMK AO2
14837KMSN MSN20031113023009611/13/03 02:30:31  5-MIN KMSN 130830Z 28010KT 10SM CLR M02/M08 A3013 670 63 -1100 280/10 RMK AO2
14837KMSN MSN20031113023509611/13/03 02:35:31  5-MIN KMSN 130835Z 28010KT 10SM CLR M02/M08 A3014 670 63 -1100 280/10 RMK AO2
14837KMSN MSN20031113024010211/13/03 02:40:31  5-MIN KMSN 130840Z 29009G16KT 10SM CLR M02/M08 A3014 660 63 -1100 280/09G16 RMK AO2
14837KMSN MSN20031113024510211/13/03 02:45:31  5-MIN KMSN 130845Z 28011G16KT 10SM CLR M02/M08 A3014 660 60 -1100 280/11G16 RMK AO2
14837KMSN MSN20031113025011911/13/03 02:50:31  5-MIN KMSN 130850Z 29011KT 10SM CLR M02/M08 A3014 660 60 -1100 280/11 RMK AO2 SLP213 T10171083 51029
14837KMSN MSN20031113025510211/13/03 02:55:31  5-MIN KMSN 130855Z 28010G16KT 10SM CLR M02/M08 A3014 660 60 -1100 280/10G16 RMK AO2
14837KMSN MSN20031113030010211/13/03 03:00:31  5-MIN KMSN 130900Z 29010G16KT 10SM CLR M02/M08 A3014 660 60 -1100 290/10G16 RMK AO2
14837KMSN MSN20031113030510211/13/03 03:05:31  5-MIN KMSN 130905Z 28011G20KT 10SM CLR M02/M08 A3014 660 60 -1100 280/11G20 RMK AO2
14837KMSN MSN20031113031010211/13/03 03:10:31  5-MIN KMSN 130910Z 28011G20KT 10SM CLR M02/M08 A3014 660 60 -1100 280/11G20 RMK AO2
14837KMSN MSN20031113031511811/13/03 03:15:31  5-MIN KMSN 130915Z 28010G17KT 240V300 10SM CLR M02/M08 A3015 660 60 -1100 280/10G17 240V300 RMK AO2
14837KMSN MSN20031113032009611/13/03 03:20:31  5-MIN KMSN 130920Z 27011KT 10SM CLR M02/M08 A3015 660 60 -1100 270/11 RMK AO2
14837KMSN MSN20031113032510211/13/03 03:25:31  5-MIN KMSN 130925Z 29008G16KT 10SM CLR M02/M08 A3015 650 60 -1100 290/08G16 RMK AO2
14837KMSN MSN20031113033010211/13/03 03:30:31  5-MIN KMSN 130930Z 28012G16KT 10SM CLR M02/M08 A3015 660 60 -1100 280/12G16 RMK AO2
14837KMSN MSN20031113033510211/13/03 03:35:31  5-MIN KMSN 130935Z 29013G18KT 10SM CLR M02/M08 A3015 650 60 -1100 290/13G18 RMK AO2
14837KMSN MSN20031113034010211/13/03 03:40:31  5-MIN KMSN 130940Z 29011G18KT 10SM CLR M02/M09 A3015 650 58 -1100 280/11G18 RMK AO2
14837KMSN MSN20031113034509611/13/03 03:45:31  5-MIN KMSN 130945Z 28011KT 10SM CLR M02/M09 A3015 650 58 -1100 280/11 RMK AO2
14837KMSN MSN20031113035011911/13/03 03:50:31  5-MIN KMSN 130950Z 28011G16KT 10SM CLR M02/M09 A3015 650 58 -1100 280/11G16 RMK AO2 SLP220 T10171089
14837KMSN MSN20031113035510211/13/03 03:55:31  5-MIN KMSN 130955Z 29011G16KT 10SM CLR M02/M09 A3015 650 58 -1100 280/11G16 RMK AO2
14837KMSN MSN20031113040010211/13/03 04:00:31  5-MIN KMSN 131000Z 29010G16KT 10SM CLR M02/M09 A3016 650 58 -1100 290/10G16 RMK AO2
14837KMSN MSN20031113040510211/13/03 04:05:31  5-MIN KMSN 131005Z 28011G18KT 10SM CLR M02/M09 A3016 650 58 -1100 280/11G18 RMK AO2
14837KMSN MSN20031113041010211/13/03 04:10:31  5-MIN KMSN 131010Z 29011G18KT 10SM CLR M02/M09 A3016 640 58 -1200 280/11G18 RMK AO2
14837KMSN MSN20031113041510211/13/03 04:15:31  5-MIN KMSN 131015Z 28010G17KT 10SM CLR M02/M09 A3016 640 60 -1200 280/10G17 RMK AO2
14837KMSN MSN20031113042010211/13/03 04:20:31  5-MIN KMSN 131020Z 28011G16KT 10SM CLR M02/M08 A3017 640 63 -1200 280/11G16 RMK AO2
14837KMSN MSN20031113042511811/13/03 04:25:31  5-MIN KMSN 131025Z 28010G16KT 250V310 10SM CLR M02/M08 A3017 640 63 -1200 280/10G16 250V310 RMK AO2
14837KMSN MSN20031113043010211/13/03 04:30:31  5-MIN KMSN 131030Z 27011G16KT 10SM CLR M02/M08 A3017 640 63 -1200 270/11G16 RMK AO2
14837KMSN MSN20031113043509611/13/03 04:35:31  5-MIN KMSN 131035Z 28010KT 10SM CLR M02/M08 A3017 640 63 -1200 280/10 RMK AO2
14837KMSN MSN20031113044009611/13/03 04:40:31  5-MIN KMSN 131040Z 28011KT 10SM CLR M02/M08 A3017 630 63 -1200 280/11 RMK AO2
14837KMSN MSN20031113044510211/13/03 04:45:31  5-MIN KMSN 131045Z 29011G18KT 10SM CLR M02/M08 A3018 630 63 -1200 290/11G18 RMK AO2
14837KMSN MSN20031113045011911/13/03 04:50:31  5-MIN KMSN 131050Z 28011G18KT 10SM CLR M02/M08 A3018 630 63 -1200 280/11G18 RMK AO2 SLP228 T10221083
14837KMSN MSN20031113045510211/13/03 04:55:31  5-MIN KMSN 131055Z 28008G16KT 10SM CLR M02/M08 A3018 630 63 -1200 280/08G16 RMK AO2
14837KMSN MSN20031113050010211/13/03 05:00:31  5-MIN KMSN 131100Z 28011G16KT 10SM CLR M02/M08 A3018 620 63 -1200 280/11G16 RMK AO2
14837KMSN MSN20031113050510211/13/03 05:05:31  5-MIN KMSN 131105Z 27011G16KT 10SM CLR M02/M08 A3018 620 66 -1300 270/11G16 RMK AO2
14837KMSN MSN20031113051011211/13/03 05:10:31  5-MIN KMSN 131110Z 28008KT 240V310 10SM CLR M02/M08 A3019 620 66 -1300 280/08 240V310 RMK AO2
14837KMSN MSN20031113051510211/13/03 05:15:31  5-MIN KMSN 131115Z 28010G17KT 10SM CLR M02/M08 A3019 620 66 -1300 280/10G17 RMK AO2
14837KMSN MSN20031113052010211/13/03 05:20:31  5-MIN KMSN 131120Z 28012G19KT 10SM CLR M02/M08 A3019 620 66 -1300 280/12G19 RMK AO2
14837KMSN MSN20031113052510211/13/03 05:25:31  5-MIN KMSN 131125Z 28010G19KT 10SM CLR M02/M08 A3019 620 66 -1300 280/10G19 RMK AO2
14837KMSN MSN20031113053010211/13/03 05:30:31  5-MIN KMSN 131130Z 28012G18KT 10SM CLR M02/M08 A3019 620 66 -1300 280/12G18 RMK AO2
14837KMSN MSN20031113053510211/13/03 05:35:31  5-MIN KMSN 131135Z 28011G18KT 10SM CLR M02/M08 A3019 610 66 -1300 280/11G18 RMK AO2
14837KMSN MSN20031113054010211/13/03 05:40:31  5-MIN KMSN 131140Z 29011G19KT 10SM CLR M02/M08 A3019 610 66 -1300 290/11G19 RMK AO2
14837KMSN MSN20031113054510211/13/03 05:45:31  5-MIN KMSN 131145Z 28013G19KT 10SM CLR M02/M08 A3019 610 66 -1300 280/13G19 RMK AO2
14837KMSN MSN20031113055014311/13/03 05:50:31  5-MIN KMSN 131150Z 29011G18KT 10SM CLR M02/M08 A3019 610 66 -1300 290/11G18 RMK AO2 SLP234 70002 T10221078 10000 21022 51027
14837KMSN MSN20031113055510211/13/03 05:55:31  5-MIN KMSN 131155Z 29011G16KT 10SM CLR M02/M08 A3020 610 66 -1300 290/11G16 RMK AO2
14837KMSN MSN20031113060010211/13/03 06:00:31  5-MIN KMSN 131200Z 28012G17KT 10SM CLR M02/M08 A3020 600 66 -1300 280/12G17 RMK AO2
14837KMSN MSN20031113060510211/13/03 06:05:31  5-MIN KMSN 131205Z 28012G20KT 10SM CLR M02/M08 A3020 600 66 -1300 280/12G20 RMK AO2
14837KMSN MSN20031113061010211/13/03 06:10:31  5-MIN KMSN 131210Z 29012G20KT 10SM CLR M02/M08 A3020 600 66 -1300 290/12G20 RMK AO2
14837KMSN MSN20031113061510211/13/03 06:15:31  5-MIN KMSN 131215Z 28011G22KT 10SM CLR M02/M08 A3021 600 66 -1300 280/11G22 RMK AO2
14837KMSN MSN20031113062010211/13/03 06:20:31  5-MIN KMSN 131220Z 29011G22KT 10SM CLR M02/M08 A3021 600 66 -1300 290/11G22 RMK AO2
14837KMSN MSN20031113062510211/13/03 06:25:31  5-MIN KMSN 131225Z 29012G18KT 10SM CLR M02/M08 A3021 600 66 -1300 290/12G18 RMK AO2
14837KMSN MSN20031113063010211/13/03 06:30:31  5-MIN KMSN 131230Z 29011G18KT 10SM CLR M02/M08 A3021 590 66 -1300 290/11G18 RMK AO2
14837KMSN MSN20031113063510211/13/03 06:35:31  5-MIN KMSN 131235Z 29015G21KT 10SM CLR M02/M08 A3021 590 66 -1300 280/15G21 RMK AO2
14837KMSN MSN20031113064010211/13/03 06:40:31  5-MIN KMSN 131240Z 29013G21KT 10SM CLR M02/M08 A3022 590 66 -1300 290/13G21 RMK AO2
14837KMSN MSN20031113064510211/13/03 06:45:31  5-MIN KMSN 131245Z 29010G18KT 10SM CLR M03/M08 A3022 590 68 -1400 290/10G18 RMK AO2
14837KMSN MSN20031113065011911/13/03 06:50:31  5-MIN KMSN 131250Z 29012G19KT 10SM CLR M02/M08 A3022 590 66 -1300 290/12G19 RMK AO2 SLP244 T10221078
14837KMSN MSN20031113065510211/13/03 06:55:31  5-MIN KMSN 131255Z 29011G19KT 10SM CLR M02/M08 A3022 580 66 -1300 290/11G19 RMK AO2
14837KMSN MSN20031113070010211/13/03 07:00:31  5-MIN KMSN 131300Z 29012G20KT 10SM CLR M02/M08 A3023 580 63 -1300 290/12G20 RMK AO2
14837KMSN MSN20031113070510211/13/03 07:05:31  5-MIN KMSN 131305Z 29012G20KT 10SM CLR M02/M08 A3023 580 63 -1300 290/12G20 RMK AO2
14837KMSN MSN20031113071010211/13/03 07:10:31  5-MIN KMSN 131310Z 30013G20KT 10SM CLR M02/M08 A3023 580 63 -1300 300/13G20 RMK AO2
14837KMSN MSN20031113071510211/13/03 07:15:31  5-MIN KMSN 131315Z 30010G18KT 10SM CLR M02/M08 A3023 580 63 -1300 300/10G18 RMK AO2
14837KMSN MSN20031113072010211/13/03 07:20:31  5-MIN KMSN 131320Z 29012G18KT 10SM CLR M02/M08 A3024 570 63 -1300 290/12G18 RMK AO2
14837KMSN MSN20031113072510211/13/03 07:25:31  5-MIN KMSN 131325Z 30011G18KT 10SM CLR M02/M08 A3024 570 63 -1300 290/11G18 RMK AO2
14837KMSN MSN20031113073010211/13/03 07:30:31  5-MIN KMSN 131330Z 29010G17KT 10SM CLR M02/M09 A3025 560 60 -1300 290/10G17 RMK AO2
14837KMSN MSN20031113073510211/13/03 07:35:31  5-MIN KMSN 131335Z 29011G17KT 10SM CLR M02/M09 A3025 560 60 -1300 290/11G17 RMK AO2
14837KMSN MSN20031113074010211/13/03 07:40:31  5-MIN KMSN 131340Z 29011G19KT 10SM CLR M02/M09 A3025 560 58 -1300 290/11G19 RMK AO2
14837KMSN MSN20031113074510211/13/03 07:45:31  5-MIN KMSN 131345Z 29010G19KT 10SM CLR M02/M09 A3026 550 55 -1300 290/10G19 RMK AO2
14837KMSN MSN20031113075013511/13/03 07:50:31  5-MIN KMSN 131350Z 29012G18KT 250V320 10SM CLR M02/M09 A3026 550 55 -1300 290/12G18 250V320 RMK AO2 SLP257 T10171094
14837KMSN MSN20031113075510211/13/03 07:55:31  5-MIN KMSN 131355Z 29011G17KT 10SM CLR M02/M09 A3026 550 55 -1300 290/11G17 RMK AO2
14837KMSN MSN20031113080010211/13/03 08:00:31  5-MIN KMSN 131400Z 30010G17KT 10SM CLR M02/M09 A3026 550 55 -1300 300/10G17 RMK AO2
14837KMSN MSN20031113080510211/13/03 08:05:31  5-MIN KMSN 131405Z 29012G18KT 10SM CLR M02/M09 A3027 540 55 -1300 290/12G18 RMK AO2
14837KMSN MSN20031113081010211/13/03 08:10:31  5-MIN KMSN 131410Z 29013G18KT 10SM CLR M02/M09 A3027 540 58 -1300 290/13G18 RMK AO2
14837KMSN MSN20031113081510211/13/03 08:15:31  5-MIN KMSN 131415Z 29012G19KT 10SM CLR M02/M09 A3027 540 55 -1300 290/12G19 RMK AO2
14837KMSN MSN20031113082010211/13/03 08:20:31  5-MIN KMSN 131420Z 29011G19KT 10SM CLR M02/M09 A3027 540 55 -1300 290/11G19 RMK AO2
14837KMSN MSN20031113082511211/13/03 08:25:31  5-MIN KMSN 131425Z 28010KT 240V320 10SM CLR M02/M09 A3027 540 55 -1300 280/10 240V320 RMK AO2
14837KMSN MSN20031113083009611/13/03 08:30:31  5-MIN KMSN 131430Z 30013KT 10SM CLR M01/M09 A3028 530 53 -1200 290/13 RMK AO2
14837KMSN MSN20031113083510211/13/03 08:35:31  5-MIN KMSN 131435Z 30014G20KT 10SM CLR M01/M09 A3028 530 53 -1200 300/14G20 RMK AO2
14837KMSN MSN20031113084010211/13/03 08:40:31  5-MIN KMSN 131440Z 29013G20KT 10SM CLR M01/M09 A3029 530 53 -1200 290/13G20 RMK AO2
14837KMSN MSN20031113084510211/13/03 08:45:31  5-MIN KMSN 131445Z 30009G18KT 10SM CLR M01/M09 A3029 520 53 -1200 300/09G18 RMK AO2
14837KMSN MSN20031113085011911/13/03 08:50:31  5-MIN KMSN 131450Z 29011KT 10SM CLR M01/M09 A3029 520 53 -1200 290/11 RMK AO2 SLP269 T10111094 53020
14837KMSN MSN20031113085510211/13/03 08:55:31  5-MIN KMSN 131455Z 29011G20KT 10SM CLR M01/M09 A3030 520 53 -1200 290/11G20 RMK AO2
14837KMSN MSN20031113090010211/13/03 09:00:31  5-MIN KMSN 131500Z 30012G20KT 10SM CLR M01/M09 A3030 520 51 -1200 300/12G20 RMK AO2
14837KMSN MSN20031113090510211/13/03 09:05:31  5-MIN KMSN 131505Z 30015G22KT 10SM CLR M01/M09 A3030 520 53 -1200 300/15G22 RMK AO2
14837KMSN MSN20031113091010211/13/03 09:10:31  5-MIN KMSN 131510Z 30011G22KT 10SM CLR M01/M10 A3030 510 49 -1200 300/11G22 RMK AO2
14837KMSN MSN20031113091510211/13/03 09:15:31  5-MIN KMSN 131515Z 29011G18KT 10SM CLR M01/M09 A3031 510 51 -1200 290/11G18 RMK AO2
14837KMSN MSN20031113092010211/13/03 09:20:31  5-MIN KMSN 131520Z 30012G17KT 10SM CLR M01/M09 A3031 510 51 -1200 290/12G17 RMK AO2
14837KMSN MSN20031113092510211/13/03 09:25:31  5-MIN KMSN 131525Z 30011G21KT 10SM CLR M01/M10 A3031 500 49 -1200 300/11G21 RMK AO2
14837KMSN MSN20031113093010111/13/03 09:30:31  5-MIN KMSN 131530Z 29011G21KT 10SM CLR 00/M10 A3032 500 47 -1100 290/11G21 RMK AO2
14837KMSN MSN20031113093510111/13/03 09:35:31  5-MIN KMSN 131535Z 30015G21KT 10SM CLR 00/M09 A3032 500 49 -1100 290/15G21 RMK AO2
14837KMSN MSN20031113094010111/13/03 09:40:31  5-MIN KMSN 131540Z 29015G22KT 10SM CLR 00/M10 A3032 500 47 -1100 290/15G22 RMK AO2
14837KMSN MSN20031113094510111/13/03 09:45:31  5-MIN KMSN 131545Z 31012G22KT 10SM CLR 00/M10 A3031 500 47 -1100 310/12G22 RMK AO2
14837KMSN MSN20031113095011811/13/03 09:50:31  5-MIN KMSN 131550Z 30013G19KT 10SM CLR 00/M09 A3032 500 49 -1100 300/13G19 RMK AO2 SLP276 T00001094
14837KMSN MSN20031113095510111/13/03 09:55:31  5-MIN KMSN 131555Z 29013G23KT 10SM CLR 00/M10 A3032 500 47 -1100 290/13G23 RMK AO2
14837KMSN MSN20031113100010111/13/03 10:00:31  5-MIN KMSN 131600Z 29016G23KT 10SM CLR 00/M10 A3032 500 47 -1100 290/16G23 RMK AO2
14837KMSN MSN20031113100510111/13/03 10:05:31  5-MIN KMSN 131605Z 31016G25KT 10SM CLR 00/M10 A3032 490 47 -1100 310/16G25 RMK AO2
14837KMSN MSN20031113101010111/13/03 10:10:31  5-MIN KMSN 131610Z 30011G25KT 10SM CLR 01/M10 A3032 490 45 -1100 300/11G25 RMK AO2
14837KMSN MSN20031113101510111/13/03 10:15:31  5-MIN KMSN 131615Z 29015G21KT 10SM CLR 01/M10 A3033 490 45 -1100 290/15G21 RMK AO2
14837KMSN MSN20031113102010111/13/03 10:20:31  5-MIN KMSN 131620Z 30014G21KT 10SM CLR 00/M10 A3033 490 47 -1100 300/14G21 RMK AO2
14837KMSN MSN20031113102510111/13/03 10:25:31  5-MIN KMSN 131625Z 29013G18KT 10SM CLR 01/M09 A3033 490 47 -1100 290/13G18 RMK AO2
14837KMSN MSN20031113103010111/13/03 10:30:31  5-MIN KMSN 131630Z 28015G20KT 10SM CLR 00/M10 A3033 490 47 -1100 280/15G20 RMK AO2
14837KMSN MSN20031113103510111/13/03 10:35:31  5-MIN KMSN 131635Z 28015G21KT 10SM CLR 00/M10 A3033 490 47 -1100 280/15G21 RMK AO2
14837KMSN MSN20031113104010111/13/03 10:40:31  5-MIN KMSN 131640Z 29014G21KT 10SM CLR 01/M10 A3033 490 45 -1100 290/14G21 RMK AO2
14837KMSN MSN20031113104510111/13/03 10:45:31  5-MIN KMSN 131645Z 29011G20KT 10SM CLR 01/M10 A3032 490 45 -1100 290/11G20 RMK AO2
14837KMSN MSN20031113105011811/13/03 10:50:31  5-MIN KMSN 131650Z 29015G20KT 10SM CLR 01/M10 A3032 490 45 -1100 290/15G20 RMK AO2 SLP279 T00061100
14837KMSN MSN20031113105510111/13/03 10:55:31  5-MIN KMSN 131655Z 31014G21KT 10SM CLR 01/M10 A3032 490 45 -1100 310/14G21 RMK AO2
14837KMSN MSN20031113110010111/13/03 11:00:31  5-MIN KMSN 131700Z 29015G21KT 10SM CLR 01/M10 A3032 490 43 -1000 290/15G21 RMK AO2
14837KMSN MSN20031113110510111/13/03 11:05:31  5-MIN KMSN 131705Z 28014G20KT 10SM CLR 01/M11 A3032 490 43 -1100 280/14G20 RMK AO2
14837KMSN MSN20031113111010111/13/03 11:10:31  5-MIN KMSN 131710Z 28010G20KT 10SM CLR 01/M11 A3032 500 41 -1000 280/10G20 RMK AO2
14837KMSN MSN20031113111510111/13/03 11:15:31  5-MIN KMSN 131715Z 29015G24KT 10SM CLR 01/M10 A3032 500 43 -1000 290/15G24 RMK AO2
14837KMSN MSN20031113112010111/13/03 11:20:31  5-MIN KMSN 131720Z 28011G24KT 10SM CLR 01/M10 A3031 500 43 -1000 280/11G24 RMK AO2
14837KMSN MSN20031113112510011/13/03 11:25:31  5-MIN KMSN 131725Z 31015G19KT 10SM CLR 02/M11 A3031 500 40 -900 310/15G19 RMK AO2
14837KMSN MSN20031113113010111/13/03 11:30:31  5-MIN KMSN 131730Z 30016G23KT 10SM CLR 01/M11 A3031 500 40 -1000 300/16G23 RMK AO2
14837KMSN MSN20031113113510111/13/03 11:35:31  5-MIN KMSN 131735Z 32014G23KT 10SM CLR 01/M11 A3031 500 40 -1000 320/14G23 RMK AO2
14837KMSN MSN20031113114010011/13/03 11:40:31  5-MIN KMSN 131740Z 30012G20KT 10SM CLR 02/M11 A3031 500 40 -900 300/12G20 RMK AO2
14837KMSN MSN20031113114510011/13/03 11:45:31  5-MIN KMSN 131745Z 29013G18KT 10SM CLR 02/M10 A3031 500 42 -900 280/13G18 RMK AO2
14837KMSN MSN20031113115013511/13/03 11:50:31  5-MIN KMSN 131750Z 29013G18KT 10SM CLR 02/M11 A3031 500 38 -900 290/13G18 RMK AO2 SLP275 T00171111 10017 21028 53033
14837KMSN MSN20031113115511611/13/03 11:55:31  5-MIN KMSN 131755Z 31012G18KT 280V340 10SM CLR 02/M11 A3031 510 40 -900 300/12G18 280V340 RMK AO2
14837KMSN MSN20031113120010011/13/03 12:00:31  5-MIN KMSN 131800Z 28013G20KT 10SM CLR 02/M11 A3031 510 38 -900 280/13G20 RMK AO2
14837KMSN MSN20031113120510011/13/03 12:05:31  5-MIN KMSN 131805Z 30015G20KT 10SM CLR 02/M11 A3031 510 40 -900 290/15G20 RMK AO2
14837KMSN MSN20031113121010011/13/03 12:10:31  5-MIN KMSN 131810Z 31013G21KT 10SM CLR 02/M12 A3031 500 36 -900 310/13G21 RMK AO2
14837KMSN MSN20031113121510011/13/03 12:15:31  5-MIN KMSN 131815Z 30014G21KT 10SM CLR 02/M12 A3031 500 36 -900 300/14G21 RMK AO2
14837KMSN MSN20031113122010011/13/03 12:20:31  5-MIN KMSN 131820Z 29015G19KT 10SM CLR 02/M12 A3031 500 36 -900 290/15G19 RMK AO2
14837KMSN MSN20031113122510011/13/03 12:25:31  5-MIN KMSN 131825Z 31013G18KT 10SM CLR 02/M11 A3031 500 38 -900 310/13G18 RMK AO2
14837KMSN MSN20031113123011611/13/03 12:30:31  5-MIN KMSN 131830Z 28012G18KT 240V300 10SM CLR 02/M11 A3031 500 38 -800 280/12G18 240V300 RMK AO2
14837KMSN MSN20031113123510011/13/03 12:35:31  5-MIN KMSN 131835Z 29009G17KT 10SM CLR 02/M11 A3031 500 38 -800 290/09G17 RMK AO2
14837KMSN MSN20031113124010011/13/03 12:40:31  5-MIN KMSN 131840Z 28011G16KT 10SM CLR 02/M11 A3031 500 37 -800 280/11G16 RMK AO2
14837KMSN MSN20031113124509411/13/03 12:45:31  5-MIN KMSN 131845Z 28011KT 10SM CLR 02/M11 A3031 510 37 -800 280/11 RMK AO2
14837KMSN MSN20031113125011711/13/03 12:50:31  5-MIN KMSN 131850Z 28009G22KT 10SM CLR 02/M11 A3031 500 37 -800 270/09G22 RMK AO2 SLP273 T00221111
14837KMSN MSN20031113125510011/13/03 12:55:31  5-MIN KMSN 131855Z 28011G22KT 10SM CLR 02/M11 A3031 500 37 -800 280/11G22 RMK AO2
14837KMSN MSN20031113130010011/13/03 13:00:31  5-MIN KMSN 131900Z 28012G19KT 10SM CLR 02/M11 A3031 500 37 -800 280/12G19 RMK AO2
14837KMSN MSN20031113130510011/13/03 13:05:31  5-MIN KMSN 131905Z 28013G20KT 10SM CLR 02/M12 A3031 510 33 -800 280/13G20 RMK AO2
14837KMSN MSN20031113131010011/13/03 13:10:31  5-MIN KMSN 131910Z 29015G21KT 10SM CLR 02/M12 A3031 500 35 -800 290/15G21 RMK AO2
14837KMSN MSN20031113131510011/13/03 13:15:31  5-MIN KMSN 131915Z 30011G21KT 10SM CLR 02/M11 A3031 500 38 -800 300/11G21 RMK AO2
14837KMSN MSN20031113132010011/13/03 13:20:31  5-MIN KMSN 131920Z 29014G21KT 10SM CLR 02/M09 A3031 500 42 -800 290/14G21 RMK AO2
14837KMSN MSN20031113132511611/13/03 13:25:31  5-MIN KMSN 131925Z 28011G20KT 250V320 10SM CLR 02/M10 A3031 510 40 -800 280/11G20 250V320 RMK AO2
14837KMSN MSN20031113133010011/13/03 13:30:31  5-MIN KMSN 131930Z 27008G17KT 10SM CLR 02/M10 A3031 500 40 -800 270/08G17 RMK AO2
14837KMSN MSN20031113133510011/13/03 13:35:31  5-MIN KMSN 131935Z 29013G25KT 10SM CLR 03/M09 A3032 500 40 -800 290/13G25 RMK AO2
14837KMSN MSN20031113134010011/13/03 13:40:31  5-MIN KMSN 131940Z 28014G25KT 10SM CLR 02/M10 A3031 500 40 -800 280/14G25 RMK AO2
14837KMSN MSN20031113134510011/13/03 13:45:31  5-MIN KMSN 131945Z 28015G20KT 10SM CLR 02/M11 A3031 500 38 -800 280/15G20 RMK AO2
14837KMSN MSN20031113135011711/13/03 13:50:31  5-MIN KMSN 131950Z 29014G20KT 10SM CLR 02/M12 A3032 500 35 -800 290/14G20 RMK AO2 SLP276 T00221117
14837KMSN MSN20031113135510011/13/03 13:55:31  5-MIN KMSN 131955Z 29012G20KT 10SM CLR 02/M11 A3032 500 38 -800 290/12G20 RMK AO2
14837KMSN MSN20031113140010011/13/03 14:00:31  5-MIN KMSN 132000Z 27013G18KT 10SM CLR 02/M11 A3032 500 38 -800 270/13G18 RMK AO2
14837KMSN MSN20031113140510011/13/03 14:05:31  5-MIN KMSN 132005Z 27012G20KT 10SM CLR 02/M11 A3032 500 38 -800 270/12G20 RMK AO2
14837KMSN MSN20031113141011611/13/03 14:10:31  5-MIN KMSN 132010Z 28013G20KT 240V300 10SM CLR 02/M11 A3032 500 38 -800 280/13G20 240V300 RMK AO2
14837KMSN MSN20031113141510011/13/03 14:15:31  5-MIN KMSN 132015Z 29012G18KT 10SM CLR 02/M11 A3032 490 37 -800 290/12G18 RMK AO2
14837KMSN MSN20031113142010011/13/03 14:20:31  5-MIN KMSN 132020Z 28010G18KT 10SM CLR 02/M10 A3032 490 40 -900 280/10G18 RMK AO2
14837KMSN MSN20031113142511611/13/03 14:25:31  5-MIN KMSN 132025Z 29010G16KT 250V310 10SM CLR 02/M11 A3032 490 38 -900 290/10G16 250V310 RMK AO2
14837KMSN MSN20031113143011611/13/03 14:30:31  5-MIN KMSN 132030Z 28010G16KT 250V310 10SM CLR 02/M11 A3033 490 38 -900 270/10G16 250V310 RMK AO2
14837KMSN MSN20031113143510011/13/03 14:35:31  5-MIN KMSN 132035Z 29011G16KT 10SM CLR 02/M11 A3033 490 38 -900 290/11G16 RMK AO2
14837KMSN MSN20031113144010011/13/03 14:40:31  5-MIN KMSN 132040Z 28010G17KT 10SM CLR 02/M11 A3033 490 37 -900 280/10G17 RMK AO2
14837KMSN MSN20031113144510011/13/03 14:45:31  5-MIN KMSN 132045Z 27011G17KT 10SM CLR 02/M12 A3033 490 35 -900 270/11G17 RMK AO2
14837KMSN MSN20031113145012311/13/03 14:50:31  5-MIN KMSN 132050Z 27011G16KT 10SM CLR 02/M11 A3033 490 37 -900 270/11G16 RMK AO2 SLP281 T00221111 50004
14837KMSN MSN20031113145510011/13/03 14:55:31  5-MIN KMSN 132055Z 27013G17KT 10SM CLR 02/M11 A3033 490 37 -900 270/13G17 RMK AO2
14837KMSN MSN20031113150010011/13/03 15:00:31  5-MIN KMSN 132100Z 28011G17KT 10SM CLR 02/M12 A3033 490 35 -900 280/11G17 RMK AO2
14837KMSN MSN20031113150510011/13/03 15:05:31  5-MIN KMSN 132105Z 29009G15KT 10SM CLR 02/M12 A3033 490 35 -900 290/09G15 RMK AO2
14837KMSN MSN20031113151010011/13/03 15:10:31  5-MIN KMSN 132110Z 27009G15KT 10SM CLR 02/M12 A3033 490 35 -900 270/09G15 RMK AO2
14837KMSN MSN20031113151509411/13/03 15:15:31  5-MIN KMSN 132115Z 27010KT 10SM CLR 02/M11 A3033 490 37 -900 270/10 RMK AO2
14837KMSN MSN20031113152009411/13/03 15:20:31  5-MIN KMSN 132120Z 29007KT 10SM CLR 02/M12 A3033 490 35 -900 290/07 RMK AO2
14837KMSN MSN20031113152510011/13/03 15:25:31  5-MIN KMSN 132125Z 28009G16KT 10SM CLR 02/M12 A3033 490 35 -900 280/09G16 RMK AO2
14837KMSN MSN20031113153010011/13/03 15:30:31  5-MIN KMSN 132130Z 28012G17KT 10SM CLR 02/M12 A3033 490 35 -900 280/12G17 RMK AO2
14837KMSN MSN20031113153510011/13/03 15:35:31  5-MIN KMSN 132135Z 28010G17KT 10SM CLR 02/M12 A3033 490 33 -900 280/10G17 RMK AO2
14837KMSN MSN20031113154009411/13/03 15:40:31  5-MIN KMSN 132140Z 28009KT 10SM CLR 02/M12 A3032 490 35 -900 280/09 RMK AO2
14837KMSN MSN20031113154509411/13/03 15:45:31  5-MIN KMSN 132145Z 28007KT 10SM CLR 02/M12 A3032 490 35 -900 280/07 RMK AO2
14837KMSN MSN20031113155011111/13/03 15:50:31  5-MIN KMSN 132150Z VRB06KT 10SM CLR 02/M12 A3033 490 36 -900 VRB/06 RMK AO2 SLP280 T00171117
14837KMSN MSN20031113155509411/13/03 15:55:31  5-MIN KMSN 132155Z 28007KT 10SM CLR 02/M12 A3032 490 36 -900 280/07 RMK AO2
14837KMSN MSN20031113160010011/13/03 16:00:31  5-MIN KMSN 132200Z 28009G14KT 10SM CLR 02/M12 A3032 490 36 -900 280/09G14 RMK AO2
14837KMSN MSN20031113160510011/13/03 16:05:31  5-MIN KMSN 132205Z 29006G15KT 10SM CLR 02/M12 A3032 490 35 -900 280/06G15 RMK AO2
14837KMSN MSN20031113161010111/13/03 16:10:31  5-MIN KMSN 132210Z 29007G15KT 10SM CLR 01/M13 A3032 490 35 -1000 280/07G15 RMK AO2
14837KMSN MSN20031113161509511/13/03 16:15:31  5-MIN KMSN 132215Z 29007KT 10SM CLR 01/M13 A3032 490 35 -1000 290/07 RMK AO2
14837KMSN MSN20031113162009511/13/03 16:20:31  5-MIN KMSN 132220Z 29007KT 10SM CLR 01/M12 A3032 500 36 -1000 290/07 RMK AO2
14837KMSN MSN20031113162509511/13/03 16:25:31  5-MIN KMSN 132225Z 29005KT 10SM CLR 01/M12 A3032 500 36 -1000 290/05 RMK AO2
14837KMSN MSN20031113163009511/13/03 16:30:31  5-MIN KMSN 132230Z 28007KT 10SM CLR 01/M12 A3032 500 38 -1000 280/07 RMK AO2
14837KMSN MSN20031113163509511/13/03 16:35:31  5-MIN KMSN 132235Z 28005KT 10SM CLR 01/M12 A3032 500 39 -1100 280/05 RMK AO2
14837KMSN MSN20031113164009511/13/03 16:40:31  5-MIN KMSN 132240Z VRB03KT 10SM CLR 01/M12 A3031 500 39 -1000 VRB/03 RMK AO2
14837KMSN MSN20031113164509511/13/03 16:45:31  5-MIN KMSN 132245Z 28003KT 10SM CLR 01/M12 A3032 500 39 -1100 280/03 RMK AO2
14837KMSN MSN20031113165011211/13/03 16:50:31  5-MIN KMSN 132250Z 26003KT 10SM CLR 01/M12 A3032 500 39 -1100 260/03 RMK AO2 SLP277 T00061117
14837KMSN MSN20031113165509511/13/03 16:55:31  5-MIN KMSN 132255Z 25003KT 10SM CLR 00/M11 A3032 500 43 -1100 250/03 RMK AO2
14837KMSN MSN20031113170009511/13/03 17:00:31  5-MIN KMSN 132300Z 26003KT 10SM CLR 00/M12 A3031 500 41 -1100 260/03 RMK AO2
14837KMSN MSN20031113170509511/13/03 17:05:31  5-MIN KMSN 132305Z 26003KT 10SM CLR 00/M12 A3031 510 41 -1100 260/03 RMK AO2
14837KMSN MSN20031113171009511/13/03 17:10:31  5-MIN KMSN 132310Z 00000KT 10SM CLR 00/M11 A3031 510 43 -1100 000/00 RMK AO2
14837KMSN MSN20031113171509611/13/03 17:15:31  5-MIN KMSN 132315Z 28003KT 10SM CLR M01/M11 A3031 510 47 -1300 280/03 RMK AO2
14837KMSN MSN20031113172009611/13/03 17:20:31  5-MIN KMSN 132320Z 28003KT 10SM CLR M02/M11 A3031 500 49 -1300 280/03 RMK AO2
14837KMSN MSN20031113172509611/13/03 17:25:31  5-MIN KMSN 132325Z 27004KT 10SM CLR M02/M11 A3031 500 51 -1400 270/04 RMK AO2
14837KMSN MSN20031113173009611/13/03 17:30:31  5-MIN KMSN 132330Z VRB04KT 10SM CLR M02/M11 A3031 500 53 -1400 VRB/04 RMK AO2
14837KMSN MSN20031113173509611/13/03 17:35:31  5-MIN KMSN 132335Z VRB04KT 10SM CLR M02/M11 A3031 500 51 -1300 VRB/04 RMK AO2
14837KMSN MSN20031113174009611/13/03 17:40:31  5-MIN KMSN 132340Z 26003KT 10SM CLR M02/M11 A3031 500 51 -1300 260/03 RMK AO2
14837KMSN MSN20031113174509611/13/03 17:45:31  5-MIN KMSN 132345Z VRB04KT 10SM CLR M01/M11 A3031 500 49 -1300 VRB/04 RMK AO2
14837KMSN MSN20031113175013111/13/03 17:50:31  5-MIN KMSN 132350Z VRB04KT 10SM CLR M01/M11 A3031 500 49 -1300 VRB/04 RMK AO2 SLP277 T10111106 10028 21022 53006
14837KMSN MSN20031113175509611/13/03 17:55:31  5-MIN KMSN 132355Z VRB04KT 10SM CLR M01/M11 A3031 500 47 -1200 VRB/04 RMK AO2
14837KMSN MSN20031113180009611/13/03 18:00:31  5-MIN KMSN 140000Z VRB03KT 10SM CLR M01/M11 A3031 500 49 -1300 VRB/03 RMK AO2
14837KMSN MSN20031113180509611/13/03 18:05:31  5-MIN KMSN 140005Z 26004KT 10SM CLR M01/M11 A3032 500 47 -1200 250/04 RMK AO2
14837KMSN MSN20031113181009611/13/03 18:10:31  5-MIN KMSN 140010Z 26004KT 10SM CLR M01/M11 A3032 500 45 -1200 260/04 RMK AO2
14837KMSN MSN20031113181509611/13/03 18:15:31  5-MIN KMSN 140015Z 26004KT 10SM CLR M01/M11 A3032 500 45 -1200 260/04 RMK AO2
14837KMSN MSN20031113182009611/13/03 18:20:31  5-MIN KMSN 140020Z VRB05KT 10SM CLR M01/M11 A3032 500 47 -1300 VRB/05 RMK AO2
14837KMSN MSN20031113182509611/13/03 18:25:31  5-MIN KMSN 140025Z 26004KT 10SM CLR M01/M11 A3032 500 45 -1200 260/04 RMK AO2
14837KMSN MSN20031113183009611/13/03 18:30:31  5-MIN KMSN 140030Z 26005KT 10SM CLR M01/M11 A3032 500 45 -1200 260/05 RMK AO2
14837KMSN MSN20031113183509611/13/03 18:35:31  5-MIN KMSN 140035Z VRB04KT 10SM CLR M01/M11 A3032 500 45 -1200 VRB/04 RMK AO2
14837KMSN MSN20031113184009611/13/03 18:40:31  5-MIN KMSN 140040Z VRB04KT 10SM CLR M01/M11 A3032 500 45 -1200 VRB/04 RMK AO2
14837KMSN MSN20031113184509611/13/03 18:45:31  5-MIN KMSN 140045Z VRB04KT 10SM CLR M01/M11 A3032 500 45 -1200 VRB/04 RMK AO2
14837KMSN MSN20031113185011311/13/03 18:50:31  5-MIN KMSN 140050Z 27005KT 10SM CLR M01/M11 A3032 500 45 -1200 270/05 RMK AO2 SLP278 T10061111
14837KMSN MSN20031113185509611/13/03 18:55:31  5-MIN KMSN 140055Z 27005KT 10SM CLR M01/M11 A3032 500 45 -1200 270/05 RMK AO2
14837KMSN MSN20031113190009611/13/03 19:00:31  5-MIN KMSN 140100Z VRB05KT 10SM CLR M01/M11 A3032 500 45 -1200 VRB/05 RMK AO2
14837KMSN MSN20031113190509611/13/03 19:05:31  5-MIN KMSN 140105Z 26004KT 10SM CLR M01/M11 A3031 500 45 -1200 260/04 RMK AO2
14837KMSN MSN20031113191009611/13/03 19:10:31  5-MIN KMSN 140110Z VRB04KT 10SM CLR M01/M11 A3031 500 45 -1200 VRB/04 RMK AO2
14837KMSN MSN20031113191509611/13/03 19:15:31  5-MIN KMSN 140115Z VRB03KT 10SM CLR M01/M11 A3031 500 45 -1200 VRB/03 RMK AO2
14837KMSN MSN20031113192009611/13/03 19:20:31  5-MIN KMSN 140120Z VRB03KT 10SM CLR M01/M11 A3031 510 47 -1300 VRB/03 RMK AO2
14837KMSN MSN20031113192509611/13/03 19:25:31  5-MIN KMSN 140125Z VRB03KT 10SM CLR M01/M11 A3031 510 45 -1200 VRB/03 RMK AO2
14837KMSN MSN20031113193009611/13/03 19:30:31  5-MIN KMSN 140130Z 28004KT 10SM CLR M01/M11 A3031 510 47 -1300 280/04 RMK AO2
14837KMSN MSN20031113193509611/13/03 19:35:31  5-MIN KMSN 140135Z 27004KT 10SM CLR M01/M12 A3031 510 45 -1300 270/04 RMK AO2
14837KMSN MSN20031113194009611/13/03 19:40:31  5-MIN KMSN 140140Z 26004KT 10SM CLR M01/M11 A3031 510 47 -1200 260/04 RMK AO2
14837KMSN MSN20031113194509611/13/03 19:45:31  5-MIN KMSN 140145Z VRB04KT 10SM CLR M01/M11 A3030 510 47 -1200 VRB/04 RMK AO2
14837KMSN MSN20031113195011311/13/03 19:50:31  5-MIN KMSN 140150Z 27004KT 10SM CLR M01/M11 A3031 510 47 -1200 270/04 RMK AO2 SLP274 T10111111
14837KMSN MSN20031113195509611/13/03 19:55:31  5-MIN KMSN 140155Z 27004KT 10SM CLR M02/M12 A3030 510 46 -1300 270/04 RMK AO2
14837KMSN MSN20031113200009611/13/03 20:00:31  5-MIN KMSN 140200Z 28004KT 10SM CLR M01/M12 A3030 510 45 -1200 280/04 RMK AO2
14837KMSN MSN20031113200509611/13/03 20:05:31  5-MIN KMSN 140205Z VRB03KT 10SM CLR M01/M12 A3030 510 45 -1200 VRB/03 RMK AO2
14837KMSN MSN20031113201009611/13/03 20:10:31  5-MIN KMSN 140210Z 26003KT 10SM CLR M01/M11 A3030 520 47 -1200 260/03 RMK AO2
14837KMSN MSN20031113201509611/13/03 20:15:31  5-MIN KMSN 140215Z 27004KT 10SM CLR M01/M11 A3030 520 47 -1200 270/04 RMK AO2
14837KMSN MSN20031113202009611/13/03 20:20:31  5-MIN KMSN 140220Z 26004KT 10SM CLR M01/M11 A3030 520 47 -1200 260/04 RMK AO2
14837KMSN MSN20031113202509611/13/03 20:25:31  5-MIN KMSN 140225Z VRB05KT 10SM CLR M01/M11 A3030 510 49 -1200 VRB/05 RMK AO2
14837KMSN MSN20031113203009611/13/03 20:30:31  5-MIN KMSN 140230Z 28005KT 10SM CLR M01/M11 A3030 510 49 -1200 280/05 RMK AO2
14837KMSN MSN20031113203509611/13/03 20:35:31  5-MIN KMSN 140235Z 27005KT 10SM CLR M01/M11 A3030 520 47 -1200 270/05 RMK AO2
14837KMSN MSN20031113204009611/13/03 20:40:31  5-MIN KMSN 140240Z 26004KT 10SM CLR M01/M11 A3030 520 47 -1200 260/04 RMK AO2
14837KMSN MSN20031113204509611/13/03 20:45:31  5-MIN KMSN 140245Z 27004KT 10SM CLR M01/M11 A3030 520 47 -1200 270/04 RMK AO2
14837KMSN MSN20031113205011911/13/03 20:50:31  5-MIN KMSN 140250Z VRB04KT 10SM CLR M01/M11 A3030 520 47 -1200 VRB/04 RMK AO2 SLP270 T10111111 56005
14837KMSN MSN20031113205509611/13/03 20:55:31  5-MIN KMSN 140255Z 27004KT 10SM CLR M01/M11 A3030 520 47 -1200 270/04 RMK AO2
14837KMSN MSN20031113210009611/13/03 21:00:31  5-MIN KMSN 140300Z 29004KT 10SM CLR M02/M11 A3029 520 49 -1300 290/04 RMK AO2
14837KMSN MSN20031113210509611/13/03 21:05:31  5-MIN KMSN 140305Z VRB04KT 10SM CLR M01/M11 A3029 520 47 -1200 VRB/04 RMK AO2
14837KMSN MSN20031113211009611/13/03 21:10:31  5-MIN KMSN 140310Z 27004KT 10SM CLR M01/M11 A3029 520 47 -1200 270/04 RMK AO2
14837KMSN MSN20031113211509611/13/03 21:15:31  5-MIN KMSN 140315Z VRB03KT 10SM CLR M01/M11 A3029 520 47 -1200 VRB/03 RMK AO2
14837KMSN MSN20031113212009611/13/03 21:20:31  5-MIN KMSN 140320Z 28004KT 10SM CLR M02/M11 A3029 530 49 -1300 280/04 RMK AO2
14837KMSN MSN20031113212509611/13/03 21:25:31  5-MIN KMSN 140325Z 28004KT 10SM CLR M02/M11 A3029 530 49 -1300 280/04 RMK AO2
14837KMSN MSN20031113213009611/13/03 21:30:31  5-MIN KMSN 140330Z 27003KT 10SM CLR M02/M11 A3029 530 49 -1300 270/03 RMK AO2
14837KMSN MSN20031113213509611/13/03 21:35:31  5-MIN KMSN 140335Z 28003KT 10SM CLR M02/M11 A3028 530 51 -1400 280/03 RMK AO2
14837KMSN MSN20031113214009611/13/03 21:40:31  5-MIN KMSN 140340Z 28004KT 10SM CLR M02/M11 A3028 530 49 -1300 280/04 RMK AO2
14837KMSN MSN20031113214509611/13/03 21:45:31  5-MIN KMSN 140345Z VRB03KT 10SM CLR M02/M11 A3028 530 51 -1400 VRB/03 RMK AO2
14837KMSN MSN20031113215011311/13/03 21:50:31  5-MIN KMSN 140350Z 27003KT 10SM CLR M02/M11 A3028 540 49 -1300 270/03 RMK AO2 SLP264 T10171111
14837KMSN MSN20031113215509611/13/03 21:55:31  5-MIN KMSN 140355Z VRB03KT 10SM CLR M02/M11 A3027 540 51 -1400 VRB/03 RMK AO2
14837KMSN MSN20031113220009611/13/03 22:00:31  5-MIN KMSN 140400Z 00000KT 10SM CLR M02/M11 A3027 540 51 -1400 000/00 RMK AO2
14837KMSN MSN20031113220509611/13/03 22:05:31  5-MIN KMSN 140405Z 27003KT 10SM CLR M02/M11 A3027 540 51 -1400 270/03 RMK AO2
14837KMSN MSN20031113221009611/13/03 22:10:31  5-MIN KMSN 140410Z 29003KT 10SM CLR M02/M11 A3027 540 49 -1300 290/03 RMK AO2
14837KMSN MSN20031113221509611/13/03 22:15:31  5-MIN KMSN 140415Z 28004KT 10SM CLR M02/M11 A3027 540 51 -1400 280/04 RMK AO2
14837KMSN MSN20031113222009611/13/03 22:20:31  5-MIN KMSN 140420Z 00000KT 10SM CLR M03/M11 A3027 540 53 -1400 000/00 RMK AO2
14837KMSN MSN20031113222509611/13/03 22:25:31  5-MIN KMSN 140425Z 28003KT 10SM CLR M02/M11 A3027 540 51 -1400 280/03 RMK AO2
14837KMSN MSN20031113223009611/13/03 22:30:31  5-MIN KMSN 140430Z 00000KT 10SM CLR M03/M11 A3027 540 57 -1500 000/00 RMK AO2
14837KMSN MSN20031113223509611/13/03 22:35:31  5-MIN KMSN 140435Z 28003KT 10SM CLR M03/M11 A3027 550 53 -1400 280/03 RMK AO2
14837KMSN MSN20031113224009611/13/03 22:40:31  5-MIN KMSN 140440Z VRB03KT 10SM CLR M03/M11 A3027 550 53 -1400 VRB/03 RMK AO2
14837KMSN MSN20031113224509611/13/03 22:45:31  5-MIN KMSN 140445Z 00000KT 10SM CLR M02/M11 A3027 540 51 -1300 000/00 RMK AO2
14837KMSN MSN20031113225011311/13/03 22:50:31  5-MIN KMSN 140450Z VRB03KT 10SM CLR M02/M11 A3026 550 51 -1300 VRB/03 RMK AO2 SLP260 T10221111
14837KMSN MSN20031113225509611/13/03 22:55:31  5-MIN KMSN 140455Z 00000KT 10SM CLR M03/M11 A3026 550 53 -1400 000/00 RMK AO2
14837KMSN MSN20031113230009611/13/03 23:00:31  5-MIN KMSN 140500Z VRB03KT 10SM CLR M02/M11 A3026 550 51 -1300 VRB/03 RMK AO2
14837KMSN MSN20031113230509611/13/03 23:05:31  5-MIN KMSN 140505Z VRB03KT 10SM CLR M02/M11 A3026 550 51 -1300 VRB/03 RMK AO2
14837KMSN MSN20031113231009611/13/03 23:10:31  5-MIN KMSN 140510Z VRB03KT 10SM CLR M02/M11 A3026 550 51 -1300 VRB/03 RMK AO2
14837KMSN MSN20031113231509611/13/03 23:15:31  5-MIN KMSN 140515Z VRB03KT 10SM CLR M02/M11 A3026 550 51 -1300 VRB/03 RMK AO2
14837KMSN MSN20031113232009611/13/03 23:20:31  5-MIN KMSN 140520Z 00000KT 10SM CLR M02/M11 A3026 550 53 -1300 000/00 RMK AO2
14837KMSN MSN20031113232509611/13/03 23:25:31  5-MIN KMSN 140525Z 00000KT 10SM CLR M02/M11 A3025 560 53 -1300 000/00 RMK AO2
14837KMSN MSN20031113233009611/13/03 23:30:31  5-MIN KMSN 140530Z VRB03KT 10SM CLR M02/M11 A3025 560 49 -1300 VRB/03 RMK AO2
14837KMSN MSN20031113233509611/13/03 23:35:31  5-MIN KMSN 140535Z VRB03KT 10SM CLR M02/M11 A3025 560 51 -1300 VRB/03 RMK AO2
14837KMSN MSN20031113234009611/13/03 23:40:31  5-MIN KMSN 140540Z 00000KT 10SM CLR M02/M11 A3025 560 53 -1300 000/00 RMK AO2
14837KMSN MSN20031113234509611/13/03 23:45:31  5-MIN KMSN 140545Z VRB03KT 10SM CLR M02/M11 A3025 560 51 -1300 VRB/03 RMK AO2
14837KMSN MSN20031113235014111/13/03 23:50:31  5-MIN KMSN 140550Z VRB04KT 10SM CLR M02/M11 A3025 570 51 -1300 VRB/04 RMK AO2 SLP252 T10171106 11006 21033 400281033 58006
14837KMSN MSN20031113235509611/13/03 23:55:31  5-MIN KMSN 140555Z VRB04KT 10SM CLR M01/M11 A3024 570 49 -1200 VRB/04 RMK AO2
14837KMSN MSN20031114000009611/14/03 00:00:31  5-MIN KMSN 140600Z VRB03KT 10SM CLR M01/M11 A3024 570 49 -1200 VRB/03 RMK AO2
14837KMSN MSN20031114000509611/14/03 00:05:31  5-MIN KMSN 140605Z 00000KT 10SM CLR M01/M11 A3024 570 47 -1200 000/00 RMK AO2
14837KMSN MSN20031114001009611/14/03 00:10:31  5-MIN KMSN 140610Z VRB03KT 10SM CLR M01/M11 A3024 570 49 -1200 VRB/03 RMK AO2
14837KMSN MSN20031114001509611/14/03 00:15:31  5-MIN KMSN 140615Z VRB04KT 10SM CLR M01/M11 A3024 570 49 -1200 VRB/04 RMK AO2
14837KMSN MSN20031114002009611/14/03 00:20:31  5-MIN KMSN 140620Z VRB03KT 10SM CLR M01/M11 A3023 580 49 -1200 VRB/03 RMK AO2
14837KMSN MSN20031114002509611/14/03 00:25:31  5-MIN KMSN 140625Z VRB03KT 10SM CLR M01/M11 A3023 580 47 -1100 VRB/03 RMK AO2
14837KMSN MSN20031114003009611/14/03 00:30:31  5-MIN KMSN 140630Z VRB03KT 10SM CLR M01/M10 A3023 580 51 -1200 VRB/03 RMK AO2
14837KMSN MSN20031114003509611/14/03 00:35:31  5-MIN KMSN 140635Z 00000KT 10SM CLR M01/M10 A3023 580 51 -1200 000/00 RMK AO2
14837KMSN MSN20031114004009611/14/03 00:40:31  5-MIN KMSN 140640Z VRB04KT 10SM CLR M01/M10 A3022 580 51 -1200 VRB/04 RMK AO2
14837KMSN MSN20031114004509611/14/03 00:45:31  5-MIN KMSN 140645Z 24006KT 10SM CLR M01/M10 A3022 590 49 -1100 240/06 RMK AO2
14837KMSN MSN20031114005011211/14/03 00:50:31  5-MIN KMSN 140650Z VRB06KT 10SM CLR 00/M10 A3022 590 47 -1000 VRB/06 RMK AO2 SLP243 T00001100
14837KMSN MSN20031114005509511/14/03 00:55:31  5-MIN KMSN 140655Z VRB05KT 10SM CLR 00/M09 A3022 590 49 -1000 VRB/05 RMK AO2
14837KMSN MSN20031114010009511/14/03 01:00:31  5-MIN KMSN 140700Z 24007KT 10SM CLR 00/M09 A3021 590 49 -1000 240/07 RMK AO2
14837KMSN MSN20031114010509511/14/03 01:05:31  5-MIN KMSN 140705Z 25008KT 10SM CLR 00/M09 A3021 590 49 -1000 250/08 RMK AO2
14837KMSN MSN20031114011009511/14/03 01:10:31  5-MIN KMSN 140710Z VRB06KT 10SM CLR 00/M09 A3021 600 49 -1000 VRB/06 RMK AO2
14837KMSN MSN20031114011509511/14/03 01:15:31  5-MIN KMSN 140715Z VRB06KT 10SM CLR 00/M09 A3021 600 49 -1000 VRB/06 RMK AO2
14837KMSN MSN20031114012009511/14/03 01:20:31  5-MIN KMSN 140720Z VRB06KT 10SM CLR 00/M09 A3021 600 49 -1000 VRB/06 RMK AO2
14837KMSN MSN20031114012509511/14/03 01:25:31  5-MIN KMSN 140725Z VRB05KT 10SM CLR 00/M09 A3021 600 49 -1000 VRB/05 RMK AO2
14837KMSN MSN20031114013009511/14/03 01:30:31  5-MIN KMSN 140730Z 26006KT 10SM CLR 00/M10 A3021 600 47 -1000 260/06 RMK AO2
14837KMSN MSN20031114013509611/14/03 01:35:31  5-MIN KMSN 140735Z VRB04KT 10SM CLR M01/M10 A3020 600 49 -1100 VRB/04 RMK AO2
14837KMSN MSN20031114014009511/14/03 01:40:31  5-MIN KMSN 140740Z VRB06KT 10SM CLR 00/M10 A3020 600 47 -1000 VRB/06 RMK AO2
14837KMSN MSN20031114014509511/14/03 01:45:31  5-MIN KMSN 140745Z 26005KT 10SM CLR 00/M10 A3020 600 47 -1000 250/05 RMK AO2
14837KMSN MSN20031114015011211/14/03 01:50:31  5-MIN KMSN 140750Z VRB05KT 10SM CLR 00/M10 A3020 610 47 -1000 VRB/05 RMK AO2 SLP235 T00001100
14837KMSN MSN20031114015509611/14/03 01:55:31  5-MIN KMSN 140755Z 24005KT 10SM CLR M01/M10 A3020 610 49 -1100 240/05 RMK AO2
14837KMSN MSN20031114020011211/14/03 02:00:31  5-MIN KMSN 140800Z 24007KT 210V290 10SM CLR M01/M10 A3020 610 49 -1100 240/07 210V290 RMK AO2
14837KMSN MSN20031114020509511/14/03 02:05:31  5-MIN KMSN 140805Z VRB05KT 10SM CLR 00/M10 A3020 610 47 -1000 VRB/05 RMK AO2
14837KMSN MSN20031114021009611/14/03 02:10:31  5-MIN KMSN 140810Z VRB05KT 10SM CLR M01/M10 A3019 610 49 -1100 VRB/05 RMK AO2
14837KMSN MSN20031114021509611/14/03 02:15:31  5-MIN KMSN 140815Z VRB05KT 10SM CLR M01/M10 A3019 610 49 -1000 VRB/05 RMK AO2
14837KMSN MSN20031114022009611/14/03 02:20:31  5-MIN KMSN 140820Z VRB06KT 10SM CLR M01/M10 A3019 610 49 -1100 VRB/06 RMK AO2
14837KMSN MSN20031114022509611/14/03 02:25:31  5-MIN KMSN 140825Z VRB05KT 10SM CLR M01/M09 A3019 620 51 -1000 VRB/05 RMK AO2
14837KMSN MSN20031114023009611/14/03 02:30:31  5-MIN KMSN 140830Z VRB04KT 10SM CLR M01/M09 A3019 620 51 -1000 VRB/04 RMK AO2
14837KMSN MSN20031114023509611/14/03 02:35:31  5-MIN KMSN 140835Z VRB05KT 10SM CLR M01/M09 A3019 620 51 -1000 VRB/05 RMK AO2
14837KMSN MSN20031114024009511/14/03 02:40:31  5-MIN KMSN 140840Z VRB03KT 10SM CLR 00/M09 A3018 620 49 -1000 VRB/03 RMK AO2
14837KMSN MSN20031114024509511/14/03 02:45:31  5-MIN KMSN 140845Z 23003KT 10SM CLR 00/M09 A3019 620 49 -1000 230/03 RMK AO2
14837KMSN MSN20031114025011911/14/03 02:50:31  5-MIN KMSN 140850Z 24005KT 10SM CLR M01/M09 A3018 620 53 -1000 240/05 RMK AO2 SLP230 T10061089 57018
14837KMSN MSN20031114025509611/14/03 02:55:31  5-MIN KMSN 140855Z 00000KT 10SM CLR M01/M09 A3018 620 53 -1000 000/00 RMK AO2
14837KMSN MSN20031114030009611/14/03 03:00:31  5-MIN KMSN 140900Z VRB03KT 10SM CLR M01/M08 A3018 620 56 -1000 VRB/03 RMK AO2
14837KMSN MSN20031114030509611/14/03 03:05:31  5-MIN KMSN 140905Z 24004KT 10SM CLR M01/M08 A3018 620 56 -1000 240/04 RMK AO2
14837KMSN MSN20031114031009611/14/03 03:10:31  5-MIN KMSN 140910Z VRB04KT 10SM CLR M01/M08 A3018 630 58 -1000 VRB/04 RMK AO2
14837KMSN MSN20031114031509611/14/03 03:15:31  5-MIN KMSN 140915Z VRB05KT 10SM CLR M01/M08 A3018 630 56 -1000 VRB/05 RMK AO2
14837KMSN MSN20031114032009611/14/03 03:20:31  5-MIN KMSN 140920Z VRB04KT 10SM CLR M01/M08 A3018 630 56 -1000 VRB/04 RMK AO2
14837KMSN MSN20031114032509511/14/03 03:25:31  5-MIN KMSN 140925Z VRB03KT 10SM CLR 00/M08 A3018 630 56 -1000 VRB/03 RMK AO2
14837KMSN MSN20031114033009511/14/03 03:30:31  5-MIN KMSN 140930Z 24003KT 10SM CLR 00/M08 A3018 630 56 -1000 240/03 RMK AO2
14837KMSN MSN20031114033509511/14/03 03:35:31  5-MIN KMSN 140935Z 00000KT 10SM CLR 00/M08 A3018 630 56 -1000 000/00 RMK AO2
14837KMSN MSN20031114034009611/14/03 03:40:31  5-MIN KMSN 140940Z 00000KT 10SM CLR M01/M08 A3018 630 58 -1000 000/00 RMK AO2
14837KMSN MSN20031114034509611/14/03 03:45:31  5-MIN KMSN 140945Z 00000KT 10SM CLR M01/M08 A3018 630 58 -1000 000/00 RMK AO2
14837KMSN MSN20031114035011611/14/03 03:50:31  5-MIN KMSN 140950Z 00000KT 10SM FEW065 M01/M08 A3018 630 58 -1000 000/00 RMK AO2 SLP229 T10061078
14837KMSN MSN20031114035509911/14/03 03:55:31  5-MIN KMSN 140955Z VRB04KT 10SM BKN060 M01/M08 A3018 630 58 -1000 VRB/04 RMK AO2
14837KMSN MSN20031114040009811/14/03 04:00:31  5-MIN KMSN 141000Z VRB04KT 10SM BKN060 00/M08 A3018 630 56 -1000 VRB/04 RMK AO2
14837KMSN MSN20031114040509911/14/03 04:05:31  5-MIN KMSN 141005Z 00000KT 10SM BKN060 M01/M08 A3017 630 58 -1000 000/00 RMK AO2
14837KMSN MSN20031114041009811/14/03 04:10:31  5-MIN KMSN 141010Z 21003KT 10SM OVC060 00/M07 A3017 630 58 -1000 210/03 RMK AO2
14837KMSN MSN20031114041509811/14/03 04:15:31  5-MIN KMSN 141015Z 00000KT 10SM OVC060 00/M07 A3017 630 58 -1000 000/00 RMK AO2
14837KMSN MSN20031114042009811/14/03 04:20:31  5-MIN KMSN 141020Z VRB03KT 10SM OVC060 00/M07 A3017 640 58 -1000 VRB/03 RMK AO2
14837KMSN MSN20031114042509711/14/03 04:25:31  5-MIN KMSN 141025Z 19004KT 10SM OVC055 01/M07 A3016 640 56 -900 190/04 RMK AO2
14837KMSN MSN20031114043009711/14/03 04:30:31  5-MIN KMSN 141030Z 21004KT 10SM OVC055 01/M07 A3016 640 58 -900 210/04 RMK AO2
14837KMSN MSN20031114043510411/14/03 04:35:31  5-MIN KMSN 141035Z 21004KT 10SM BKN050 OVC060 01/M07 A3016 640 54 -800 210/04 RMK AO2
14837KMSN MSN20031114044009711/14/03 04:40:31  5-MIN KMSN 141040Z 21006KT 10SM OVC050 01/M07 A3016 650 54 -800 210/06 RMK AO2
14837KMSN MSN20031114044509711/14/03 04:45:31  5-MIN KMSN 141045Z 21006KT 10SM OVC050 01/M07 A3015 650 54 -800 210/06 RMK AO2
14837KMSN MSN20031114045011411/14/03 04:50:31  5-MIN KMSN 141050Z 22008KT 10SM OVC050 02/M08 A3015 650 49 -700 220/08 RMK AO2 SLP218 T00171078
14837KMSN MSN20031114045510411/14/03 04:55:31  5-MIN KMSN 141055Z 21007KT 10SM BKN042 OVC050 02/M08 A3015 660 49 -700 210/07 RMK AO2
14837KMSN MSN20031114050010411/14/03 05:00:31  5-MIN KMSN 141100Z 21007KT 10SM BKN042 OVC050 02/M08 A3014 660 49 -700 210/07 RMK AO2
14837KMSN MSN20031114050510411/14/03 05:05:31  5-MIN KMSN 141105Z 21009KT 10SM BKN042 OVC050 02/M08 A3015 660 49 -700 210/09 RMK AO2
14837KMSN MSN20031114051009711/14/03 05:10:31  5-MIN KMSN 141110Z 22008KT 10SM OVC042 02/M07 A3015 650 50 -700 210/08 RMK AO2
14837KMSN MSN20031114051509711/14/03 05:15:31  5-MIN KMSN 141115Z 21009KT 10SM OVC042 02/M07 A3015 650 50 -700 210/09 RMK AO2
14837KMSN MSN20031114052009711/14/03 05:20:31  5-MIN KMSN 141120Z 22009KT 10SM OVC042 02/M08 A3015 660 47 -600 210/09 RMK AO2
14837KMSN MSN20031114052509711/14/03 05:25:31  5-MIN KMSN 141125Z 21011KT 10SM OVC042 02/M07 A3015 650 50 -700 210/11 RMK AO2
14837KMSN MSN20031114053009711/14/03 05:30:31  5-MIN KMSN 141130Z 22008KT 10SM OVC042 02/M07 A3015 660 50 -600 220/08 RMK AO2
14837KMSN MSN20031114053509711/14/03 05:35:31  5-MIN KMSN 141135Z 22009KT 10SM OVC042 03/M07 A3014 660 50 -600 220/09 RMK AO2
14837KMSN MSN20031114054009711/14/03 05:40:31  5-MIN KMSN 141140Z 22008KT 10SM OVC042 03/M07 A3014 660 50 -600 220/08 RMK AO2
14837KMSN MSN20031114054509711/14/03 05:45:31  5-MIN KMSN 141145Z 22010KT 10SM OVC042 03/M06 A3014 660 52 -600 220/10 RMK AO2
14837KMSN MSN20031114055013811/14/03 05:50:31  5-MIN KMSN 141150Z 22010G16KT 10SM OVC044 03/M06 A3014 660 52 -600 220/10G16 RMK AO2 SLP215 T00281061 10028 21017 56020
14837KMSN MSN20031114055509711/14/03 05:55:31  5-MIN KMSN 141155Z 23010KT 10SM OVC044 03/M06 A3014 670 52 -600 230/10 RMK AO2
14837KMSN MSN20031114060010311/14/03 06:00:31  5-MIN KMSN 141200Z 22009G15KT 10SM OVC044 03/M06 A3014 670 52 -600 220/09G15 RMK AO2
14837KMSN MSN20031114060510311/14/03 06:05:31  5-MIN KMSN 141205Z 22011G15KT 10SM OVC046 03/M06 A3014 670 52 -600 210/11G15 RMK AO2
14837KMSN MSN20031114061010311/14/03 06:10:31  5-MIN KMSN 141210Z 22011G16KT 10SM OVC046 03/M06 A3013 670 54 -600 220/11G16 RMK AO2
14837KMSN MSN20031114061510311/14/03 06:15:31  5-MIN KMSN 141215Z 22010G16KT 10SM OVC046 03/M06 A3013 670 54 -600 220/10G16 RMK AO2
14837KMSN MSN20031114062009711/14/03 06:20:31  5-MIN KMSN 141220Z 21009KT 10SM OVC046 03/M06 A3013 670 54 -600 210/09 RMK AO2
14837KMSN MSN20031114062509711/14/03 06:25:31  5-MIN KMSN 141225Z 22007KT 10SM OVC046 03/M06 A3013 670 54 -600 220/07 RMK AO2
14837KMSN MSN20031114063009711/14/03 06:30:31  5-MIN KMSN 141230Z 22009KT 10SM OVC046 03/M06 A3013 670 54 -600 220/09 RMK AO2
14837KMSN MSN20031114063509711/14/03 06:35:31  5-MIN KMSN 141235Z 22009KT 10SM OVC046 03/M06 A3013 670 54 -600 220/09 RMK AO2
14837KMSN MSN20031114064010311/14/03 06:40:31  5-MIN KMSN 141240Z 22008G14KT 10SM OVC046 03/M05 A3013 670 56 -600 220/08G14 RMK AO2
14837KMSN MSN20031114064511311/14/03 06:45:31  5-MIN KMSN 141245Z 22007KT 180V250 10SM OVC046 03/M05 A3013 670 56 -600 220/07 180V250 RMK AO2
14837KMSN MSN20031114065011411/14/03 06:50:31  5-MIN KMSN 141250Z 22007KT 10SM OVC046 03/M05 A3013 670 56 -600 210/07 RMK AO2 SLP210 T00281050
14837KMSN MSN20031114065509711/14/03 06:55:31  5-MIN KMSN 141255Z 22008KT 10SM OVC046 03/M05 A3013 670 56 -600 220/08 RMK AO2
14837KMSN MSN20031114070009711/14/03 07:00:31  5-MIN KMSN 141300Z 22011KT 10SM OVC046 03/M05 A3013 670 56 -600 220/11 RMK AO2
14837KMSN MSN20031114070509711/14/03 07:05:31  5-MIN KMSN 141305Z 22009KT 10SM OVC046 03/M05 A3013 670 54 -500 220/09 RMK AO2
14837KMSN MSN20031114071009711/14/03 07:10:31  5-MIN KMSN 141310Z 22008KT 10SM OVC046 03/M05 A3013 670 54 -500 220/08 RMK AO2
14837KMSN MSN20031114071509711/14/03 07:15:31  5-MIN KMSN 141315Z 22009KT 10SM OVC046 03/M05 A3013 670 54 -500 220/09 RMK AO2
14837KMSN MSN20031114072009711/14/03 07:20:31  5-MIN KMSN 141320Z 22008KT 10SM OVC046 03/M05 A3013 670 54 -500 220/08 RMK AO2
14837KMSN MSN20031114072509711/14/03 07:25:31  5-MIN KMSN 141325Z 22008KT 10SM OVC046 03/M05 A3013 670 54 -500 220/08 RMK AO2
14837KMSN MSN20031114073009711/14/03 07:30:31  5-MIN KMSN 141330Z 22005KT 10SM OVC046 03/M05 A3013 670 54 -500 220/05 RMK AO2
14837KMSN MSN20031114073509711/14/03 07:35:31  5-MIN KMSN 141335Z 23007KT 10SM OVC046 03/M05 A3013 670 54 -500 230/07 RMK AO2
14837KMSN MSN20031114074009711/14/03 07:40:31  5-MIN KMSN 141340Z 23006KT 10SM OVC046 03/M04 A3013 670 57 -500 230/06 RMK AO2
14837KMSN MSN20031114074509711/14/03 07:45:31  5-MIN KMSN 141345Z VRB06KT 10SM OVC046 03/M04 A3013 670 57 -500 VRB/06 RMK AO2
14837KMSN MSN20031114075011411/14/03 07:50:31  5-MIN KMSN 141350Z 22006KT 10SM OVC046 03/M04 A3013 670 57 -500 220/06 RMK AO2 SLP212 T00331044
14837KMSN MSN20031114075511311/14/03 07:55:31  5-MIN KMSN 141355Z 22007KT 190V250 10SM OVC046 04/M04 A3013 670 54 -400 220/07 190V250 RMK AO2
14837KMSN MSN20031114080011311/14/03 08:00:31  5-MIN KMSN 141400Z 23007KT 190V270 10SM OVC046 04/M04 A3013 670 54 -400 230/07 190V270 RMK AO2
14837KMSN MSN20031114080509711/14/03 08:05:31  5-MIN KMSN 141405Z 22006KT 10SM OVC046 04/M04 A3013 670 54 -400 220/06 RMK AO2
14837KMSN MSN20031114081009711/14/03 08:10:31  5-MIN KMSN 141410Z 22008KT 10SM OVC046 04/M04 A3013 670 54 -400 220/08 RMK AO2
14837KMSN MSN20031114081509711/14/03 08:15:31  5-MIN KMSN 141415Z 23006KT 10SM BKN046 04/M04 A3013 670 54 -400 230/06 RMK AO2
14837KMSN MSN20031114082009711/14/03 08:20:31  5-MIN KMSN 141420Z 22007KT 10SM BKN046 04/M04 A3013 670 54 -400 220/07 RMK AO2
14837KMSN MSN20031114082509711/14/03 08:25:31  5-MIN KMSN 141425Z 23007KT 10SM BKN046 04/M04 A3013 670 54 -400 220/07 RMK AO2
14837KMSN MSN20031114083009711/14/03 08:30:31  5-MIN KMSN 141430Z 22008KT 10SM BKN046 04/M04 A3013 670 54 -400 220/08 RMK AO2
14837KMSN MSN20031114083509711/14/03 08:35:31  5-MIN KMSN 141435Z 22006KT 10SM BKN046 04/M04 A3013 670 54 -400 220/06 RMK AO2
14837KMSN MSN20031114084009711/14/03 08:40:31  5-MIN KMSN 141440Z VRB05KT 10SM BKN046 04/M04 A3013 670 57 -400 VRB/05 RMK AO2
14837KMSN MSN20031114084509711/14/03 08:45:31  5-MIN KMSN 141445Z 22007KT 10SM BKN046 04/M04 A3013 670 55 -400 220/07 RMK AO2
14837KMSN MSN20031114085012011/14/03 08:50:31  5-MIN KMSN 141450Z VRB06KT 10SM BKN046 04/M04 A3013 670 55 -400 VRB/06 RMK AO2 SLP213 T00441039 58015
14837KMSN MSN20031114085509711/14/03 08:55:31  5-MIN KMSN 141455Z 23007KT 10SM BKN049 04/M04 A3013 670 55 -400 230/07 RMK AO2
14837KMSN MSN20031114090009711/14/03 09:00:31  5-MIN KMSN 141500Z 23008KT 10SM BKN049 04/M04 A3013 670 55 -400 220/08 RMK AO2
14837KMSN MSN20031114090509711/14/03 09:05:31  5-MIN KMSN 141505Z 22007KT 10SM BKN049 05/M04 A3013 670 52 -300 220/07 RMK AO2
14837KMSN MSN20031114091009711/14/03 09:10:31  5-MIN KMSN 141510Z 22007KT 10SM BKN049 05/M04 A3013 670 52 -300 220/07 RMK AO2
14837KMSN MSN20031114091509711/14/03 09:15:31  5-MIN KMSN 141515Z 23008KT 10SM BKN049 05/M04 A3013 670 52 -300 230/08 RMK AO2
14837KMSN MSN20031114092009711/14/03 09:20:31  5-MIN KMSN 141520Z 22007KT 10SM BKN049 06/M03 A3014 670 53 -200 220/07 RMK AO2
14837KMSN MSN20031114092509711/14/03 09:25:31  5-MIN KMSN 141525Z 22008KT 10SM BKN049 06/M04 A3013 670 50 -200 220/08 RMK AO2
14837KMSN MSN20031114093009711/14/03 09:30:31  5-MIN KMSN 141530Z 23007KT 10SM BKN049 06/M04 A3013 670 50 -200 230/07 RMK AO2
14837KMSN MSN20031114093509711/14/03 09:35:31  5-MIN KMSN 141535Z 23007KT 10SM BKN049 06/M03 A3013 670 53 -200 230/07 RMK AO2
14837KMSN MSN20031114094009711/14/03 09:40:31  5-MIN KMSN 141540Z 23008KT 10SM BKN049 06/M03 A3013 670 53 -200 230/08 RMK AO2
14837KMSN MSN20031114094509711/14/03 09:45:31  5-MIN KMSN 141545Z 22008KT 10SM BKN049 06/M04 A3013 680 50 -200 220/08 RMK AO2
14837KMSN MSN20031114095011411/14/03 09:50:31  5-MIN KMSN 141550Z 23009KT 10SM BKN049 06/M04 A3012 680 48 -100 220/09 RMK AO2 SLP209 T00611039
14837KMSN MSN20031114095510411/14/03 09:55:31  5-MIN KMSN 141555Z 21008KT 10SM SCT049 BKN060 06/M04 A3012 680 48 -100 210/08 RMK AO2
14837KMSN MSN20031114100010411/14/03 10:00:31  5-MIN KMSN 141600Z 22006KT 10SM SCT049 BKN060 06/M03 A3012 680 51 -100 220/06 RMK AO2
14837KMSN MSN20031114100510411/14/03 10:05:31  5-MIN KMSN 141605Z 22008KT 10SM SCT049 BKN060 07/M03 A3012 680 49 -100 220/08 RMK AO2
14837KMSN MSN20031114101010411/14/03 10:10:31  5-MIN KMSN 141610Z 22008KT 10SM SCT049 BKN060 07/M03 A3012 680 51 -100 220/08 RMK AO2
14837KMSN MSN20031114101510411/14/03 10:15:31  5-MIN KMSN 141615Z 22009KT 10SM SCT049 BKN060 07/M03 A3012 680 49 -100 220/09 RMK AO2
14837KMSN MSN20031114102009711/14/03 10:20:31  5-MIN KMSN 141620Z 23008KT 10SM SCT055 07/M03 A3012 680 49 -100 230/08 RMK AO2
14837KMSN MSN20031114102509411/14/03 10:25:31  5-MIN KMSN 141625Z 22009KT 10SM SCT055 08/M03 A3012 680 45 0 220/09 RMK AO2
14837KMSN MSN20031114103009411/14/03 10:30:31  5-MIN KMSN 141630Z 22010KT 10SM SCT055 08/M03 A3012 680 45 0 220/10 RMK AO2
14837KMSN MSN20031114103509411/14/03 10:35:31  5-MIN KMSN 141635Z 23008KT 10SM SCT055 08/M03 A3011 690 45 0 230/08 RMK AO2
14837KMSN MSN20031114104009611/14/03 10:40:31  5-MIN KMSN 141640Z 22009KT 10SM SCT055 08/M03 A3011 690 43 100 220/09 RMK AO2
14837KMSN MSN20031114104510011/14/03 10:45:31  5-MIN KMSN 141645Z 24008G14KT 10SM SCT055 08/M03 A3011 690 45 0 240/08G14 RMK AO2
14837KMSN MSN20031114105011711/14/03 10:50:31  5-MIN KMSN 141650Z 22009G14KT 10SM SCT055 08/M03 A3010 690 45 0 220/09G14 RMK AO2 SLP202 T00781033
14837KMSN MSN20031114105510211/14/03 10:55:31  5-MIN KMSN 141655Z 23008G14KT 10SM BKN050 08/M03 A3010 700 43 100 230/08G14 RMK AO2
14837KMSN MSN20031114110009611/14/03 11:00:31  5-MIN KMSN 141700Z 23009KT 10SM BKN050 08/M03 A3010 700 45 100 230/09 RMK AO2
14837KMSN MSN20031114110510311/14/03 11:05:31  5-MIN KMSN 141705Z 23009KT 10SM BKN050 BKN070 09/M03 A3010 700 42 200 230/09 RMK AO2
14837KMSN MSN20031114111010311/14/03 11:10:31  5-MIN KMSN 141710Z 22007KT 10SM BKN050 BKN070 09/M03 A3009 710 42 200 220/07 RMK AO2
14837KMSN MSN20031114111510311/14/03 11:15:31  5-MIN KMSN 141715Z 23008KT 10SM BKN050 BKN070 09/M03 A3009 710 42 300 230/08 RMK AO2
14837KMSN MSN20031114112010911/14/03 11:20:31  5-MIN KMSN 141720Z 23009G14KT 10SM BKN050 OVC070 09/M04 A3009 710 39 300 230/09G14 RMK AO2
14837KMSN MSN20031114112511211/14/03 11:25:31  5-MIN KMSN 141725Z 24008KT 200V260 10SM BKN050 10/M04 A3008 710 36 300 240/08 200V260 RMK AO2
14837KMSN MSN20031114113009611/14/03 11:30:31  5-MIN KMSN 141730Z 24008KT 10SM BKN050 11/M04 A3008 720 34 400 240/08 RMK AO2
14837KMSN MSN20031114113510211/14/03 11:35:31  5-MIN KMSN 141735Z 24010G16KT 10SM BKN050 11/M04 A3008 720 33 500 230/10G16 RMK AO2
14837KMSN MSN20031114114011811/14/03 11:40:31  5-MIN KMSN 141740Z 23008G16KT 200V260 10SM BKN050 11/M06 A3008 720 30 500 230/08G16 200V260 RMK AO2
14837KMSN MSN20031114114509611/14/03 11:45:31  5-MIN KMSN 141745Z 26009KT 10SM BKN050 11/M06 A3008 720 30 500 260/09 RMK AO2
14837KMSN MSN20031114115015311/14/03 11:50:31  5-MIN KMSN 141750Z 24013G19KT 200V270 10SM BKN050 11/M05 A3008 720 32 500 240/13G19 200V270 RMK AO2 SLP192 T01111050 10111 20028 56002
14837KMSN MSN20031114115510911/14/03 11:55:31  5-MIN KMSN 141755Z 24010G19KT 10SM BKN050 BKN070 11/M06 A3007 720 30 400 230/10G19 RMK AO2
14837KMSN MSN20031114120010911/14/03 12:00:31  5-MIN KMSN 141800Z 24009G17KT 10SM BKN050 BKN070 11/M06 A3007 720 31 400 240/09G17 RMK AO2
14837KMSN MSN20031114120512511/14/03 12:05:31  5-MIN KMSN 141805Z 24009G16KT 210V040 10SM BKN050 BKN070 11/M04 A3007 730 34 400 240/09G16 210V040 RMK AO2
14837KMSN MSN20031114121010911/14/03 12:10:31  5-MIN KMSN 141810Z 22011G17KT 10SM BKN050 BKN070 11/M04 A3007 730 34 400 220/11G17 RMK AO2
14837KMSN MSN20031114121510911/14/03 12:15:31  5-MIN KMSN 141815Z 24011G17KT 10SM BKN050 BKN070 11/M04 A3007 730 36 400 230/11G17 RMK AO2
14837KMSN MSN20031114122012511/14/03 12:20:31  5-MIN KMSN 141820Z 23009G17KT 190V270 10SM BKN050 BKN070 11/M04 A3007 730 36 400 230/09G17 190V270 RMK AO2
14837KMSN MSN20031114122510911/14/03 12:25:31  5-MIN KMSN 141825Z 23008G17KT 10SM BKN050 BKN070 11/M03 A3006 730 39 400 220/08G17 RMK AO2
14837KMSN MSN20031114123010911/14/03 12:30:31  5-MIN KMSN 141830Z 23008G17KT 10SM BKN050 BKN070 11/M03 A3006 730 39 400 230/08G17 RMK AO2
14837KMSN MSN20031114123510911/14/03 12:35:31  5-MIN KMSN 141835Z 23009G17KT 10SM BKN050 BKN070 11/M03 A3006 730 39 400 230/09G17 RMK AO2
14837KMSN MSN20031114124010911/14/03 12:40:31  5-MIN KMSN 141840Z 23010G19KT 10SM BKN050 BKN070 11/M03 A3006 740 39 400 230/10G19 RMK AO2
14837KMSN MSN20031114124510911/14/03 12:45:31  5-MIN KMSN 141845Z 24010G19KT 10SM BKN050 BKN070 11/M02 A3006 740 40 400 240/10G19 RMK AO2
14837KMSN MSN20031114125012611/14/03 12:50:31  5-MIN KMSN 141850Z 23010G15KT 10SM BKN050 BKN070 11/M02 A3005 740 40 400 230/10G15 RMK AO2 SLP183 T01061022
14837KMSN MSN20031114125510911/14/03 12:55:31  5-MIN KMSN 141855Z 24010G15KT 10SM FEW055 BKN070 11/M02 A3005 740 40 400 240/10G15 RMK AO2
14837KMSN MSN20031114130010311/14/03 13:00:31  5-MIN KMSN 141900Z 23009KT 10SM FEW055 BKN070 11/M02 A3005 740 40 400 230/09 RMK AO2
14837KMSN MSN20031114130510311/14/03 13:05:31  5-MIN KMSN 141905Z 22010KT 10SM FEW055 BKN070 11/M02 A3005 750 41 500 210/10 RMK AO2
14837KMSN MSN20031114131010311/14/03 13:10:31  5-MIN KMSN 141910Z 22011KT 10SM FEW055 BKN070 11/M01 A3005 750 42 500 220/11 RMK AO2
14837KMSN MSN20031114131510311/14/03 13:15:31  5-MIN KMSN 141915Z 23010KT 10SM FEW055 BKN070 11/M01 A3005 750 42 500 220/10 RMK AO2
14837KMSN MSN20031114132010311/14/03 13:20:31  5-MIN KMSN 141920Z 22010KT 10SM FEW055 BKN070 11/M01 A3005 750 42 500 220/10 RMK AO2
14837KMSN MSN20031114132510311/14/03 13:25:31  5-MIN KMSN 141925Z 21010KT 10SM FEW055 BKN070 12/M01 A3005 750 41 600 210/10 RMK AO2
14837KMSN MSN20031114133010911/14/03 13:30:31  5-MIN KMSN 141930Z 22010G17KT 10SM FEW055 BKN070 11/M01 A3005 750 42 500 220/10G17 RMK AO2
14837KMSN MSN20031114133510911/14/03 13:35:31  5-MIN KMSN 141935Z 23007G17KT 10SM FEW055 BKN070 11/M01 A3004 750 42 500 230/07G17 RMK AO2
14837KMSN MSN20031114134010911/14/03 13:40:31  5-MIN KMSN 141940Z 24011G15KT 10SM FEW055 BKN070 11/M01 A3005 750 42 500 240/11G15 RMK AO2
14837KMSN MSN20031114134510211/14/03 13:45:31  5-MIN KMSN 141945Z 23010G15KT 10SM BKN075 10/M01 A3005 750 47 400 220/10G15 RMK AO2
14837KMSN MSN20031114135011311/14/03 13:50:31  5-MIN KMSN 141950Z 22007KT 10SM BKN075 10/M01 A3005 750 47 400 220/07 RMK AO2 SLP182 T01001006
14837KMSN MSN20031114135510911/14/03 13:55:31  5-MIN KMSN 141955Z 22009G14KT 10SM FEW035 BKN075 10/M01 A3005 750 47 400 220/09G14 RMK AO2
14837KMSN MSN20031114140010911/14/03 14:00:31  5-MIN KMSN 142000Z 22010G14KT 10SM FEW035 BKN075 10/M01 A3005 750 46 400 220/10G14 RMK AO2
14837KMSN MSN20031114140510311/14/03 14:05:31  5-MIN KMSN 142005Z 22008KT 10SM FEW035 BKN075 10/M02 A3005 750 44 400 220/08 RMK AO2
14837KMSN MSN20031114141011911/14/03 14:10:31  5-MIN KMSN 142010Z 21008KT 180V240 10SM FEW035 BKN075 10/M02 A3004 750 42 400 200/08 180V240 RMK AO2
14837KMSN MSN20031114141510311/14/03 14:15:31  5-MIN KMSN 142015Z 20008KT 10SM BKN070 BKN090 09/M02 A3004 750 44 300 200/08 RMK AO2
14837KMSN MSN20031114142010311/14/03 14:20:31  5-MIN KMSN 142020Z 21010KT 10SM BKN070 BKN090 09/M03 A3004 750 42 300 210/10 RMK AO2
14837KMSN MSN20031114142509611/14/03 14:25:31  5-MIN KMSN 142025Z 20006KT 10SM OVC070 09/M03 A3004 760 43 200 200/06 RMK AO2
14837KMSN MSN20031114143010311/14/03 14:30:31  5-MIN KMSN 142030Z 22008KT 10SM BKN070 BKN090 09/M03 A3003 760 43 200 220/08 RMK AO2
14837KMSN MSN20031114143510311/14/03 14:35:31  5-MIN KMSN 142035Z 22011KT 10SM BKN070 BKN090 09/M03 A3004 760 42 200 220/11 RMK AO2
14837KMSN MSN20031114144010311/14/03 14:40:31  5-MIN KMSN 142040Z 22008KT 10SM BKN070 BKN090 09/M04 A3004 760 40 200 220/08 RMK AO2
14837KMSN MSN20031114144510311/14/03 14:45:31  5-MIN KMSN 142045Z 23006KT 10SM BKN070 BKN090 09/M03 A3004 760 42 200 230/06 RMK AO2
14837KMSN MSN20031114145012611/14/03 14:50:31  5-MIN KMSN 142050Z 22005KT 10SM BKN065 BKN080 09/M03 A3003 760 42 200 220/05 RMK AO2 SLP177 T00891033 58018
14837KMSN MSN20031114145510311/14/03 14:55:31  5-MIN KMSN 142055Z 22008KT 10SM BKN065 OVC080 08/M04 A3003 760 42 200 220/08 RMK AO2
14837KMSN MSN20031114150010311/14/03 15:00:31  5-MIN KMSN 142100Z 22009KT 10SM BKN065 BKN080 08/M03 A3003 760 43 200 220/09 RMK AO2
14837KMSN MSN20031114150510311/14/03 15:05:31  5-MIN KMSN 142105Z 21008KT 10SM BKN065 BKN080 08/M04 A3003 760 42 200 210/08 RMK AO2
14837KMSN MSN20031114151010311/14/03 15:10:31  5-MIN KMSN 142110Z 22007KT 10SM BKN065 BKN080 08/M04 A3003 760 42 200 210/07 RMK AO2
14837KMSN MSN20031114151510311/14/03 15:15:31  5-MIN KMSN 142115Z 23007KT 10SM BKN065 BKN080 08/M03 A3003 760 43 200 230/07 RMK AO2
14837KMSN MSN20031114152011911/14/03 15:20:31  5-MIN KMSN 142120Z 22007KT 10SM -RA BKN065 BKN080 08/M03 A3003 760 43 200 220/07 RMK AO2 RAB16 P0000
14837KMSN MSN20031114152511811/14/03 15:25:31  5-MIN KMSN 142125Z 22008KT 10SM BKN065 BKN080 08/M03 A3003 760 43 200 220/08 RMK AO2 RAB16E21 P0000
14837KMSN MSN20031114153011811/14/03 15:30:31  5-MIN KMSN 142130Z 22007KT 10SM BKN065 BKN080 08/M04 A3003 770 42 200 220/07 RMK AO2 RAB16E21 P0000
14837KMSN MSN20031114153511811/14/03 15:35:31  5-MIN KMSN 142135Z 19008KT 10SM BKN065 BKN080 08/M03 A3003 760 43 200 190/08 RMK AO2 RAB16E21 P0000
14837KMSN MSN20031114154011811/14/03 15:40:31  5-MIN KMSN 142140Z 20007KT 10SM BKN065 BKN080 08/M03 A3003 770 45 100 200/07 RMK AO2 RAB16E21 P0000
14837KMSN MSN20031114154511811/14/03 15:45:31  5-MIN KMSN 142145Z 21009KT 10SM BKN065 BKN080 08/M03 A3003 770 45 100 210/09 RMK AO2 RAB16E21 P0000
14837KMSN MSN20031114155014811/14/03 15:50:31  5-MIN KMSN 142150Z 22012G18KT 10SM -RA FEW035 BKN070 07/M03 A3003 770 49 100 220/12G18 RMK AO2 RAB16E21B49 SLP176 P0000 T00721028
14837KMSN MSN20031114155511611/14/03 15:55:31  5-MIN KMSN 142155Z 21011G18KT 9SM -RA FEW035 BKN065 07/M01 A3003 770 57 0 210/11G18 RMK AO2 P0000
14837KMSN MSN20031114160011611/14/03 16:00:31  5-MIN KMSN 142200Z 22007G16KT 9SM -RA FEW035 BKN065 06/M01 A3003 770 62 0 220/07G16 RMK AO2 P0000
14837KMSN MSN20031114160511311/14/03 16:05:31  5-MIN KMSN 142205Z 21006KT 10SM -RA FEW035 BKN065 06/00 A3003 770 67 -100 210/06 RMK AO2 P0000
14837KMSN MSN20031114161011411/14/03 16:10:31  5-MIN KMSN 142210Z 21005KT 10SM -RA FEW035 BKN065 06/M01 A3003 770 65 -100 210/05 RMK AO2 P0000
14837KMSN MSN20031114161510811/14/03 16:15:31  5-MIN KMSN 142215Z 20004KT 10SM BKN060 06/00 A3002 770 67 -100 200/04 RMK AO2 RAE15 P0000
14837KMSN MSN20031114162010811/14/03 16:20:31  5-MIN KMSN 142220Z 00000KT 10SM BKN060 06/00 A3002 770 67 -100 000/00 RMK AO2 RAE15 P0000
14837KMSN MSN20031114162510511/14/03 16:25:31  5-MIN KMSN 142225Z 19005KT 10SM BKN060 06/00 A3001 780 65 0 190/05 RMK AO2 RAE15 P0000
14837KMSN MSN20031114163010511/14/03 16:30:31  5-MIN KMSN 142230Z 17004KT 10SM BKN060 06/00 A3001 780 65 0 170/04 RMK AO2 RAE15 P0000
14837KMSN MSN20031114163510611/14/03 16:35:31  5-MIN KMSN 142235Z 18006KT 10SM BKN060 06/M01 A3001 780 62 0 180/06 RMK AO2 RAE15 P0000
14837KMSN MSN20031114164010611/14/03 16:40:31  5-MIN KMSN 142240Z 17006KT 10SM BKN060 06/M01 A3001 780 62 0 170/06 RMK AO2 RAE15 P0000
14837KMSN MSN20031114164510611/14/03 16:45:31  5-MIN KMSN 142245Z 18006KT 10SM BKN060 06/M01 A3001 780 62 0 180/06 RMK AO2 RAE15 P0000
14837KMSN MSN20031114165012311/14/03 16:50:31  5-MIN KMSN 142250Z 18008KT 10SM BKN060 06/M01 A3001 780 62 0 180/08 RMK AO2 RAE15 SLP170 P0000 T00611006
14837KMSN MSN20031114165509411/14/03 16:55:31  5-MIN KMSN 142255Z 18006KT 10SM OVC055 06/M01 A3001 780 62 0 180/06 RMK AO2
14837KMSN MSN20031114170009411/14/03 17:00:31  5-MIN KMSN 142300Z 18006KT 10SM OVC055 06/M01 A3001 780 62 0 170/06 RMK AO2
14837KMSN MSN20031114170509411/14/03 17:05:31  5-MIN KMSN 142305Z 18007KT 10SM OVC055 06/M01 A3001 780 62 0 180/07 RMK AO2
14837KMSN MSN20031114171010111/14/03 17:10:31  5-MIN KMSN 142310Z 18007KT 10SM BKN055 OVC095 06/M01 A3001 780 60 0 180/07 RMK AO2
14837KMSN MSN20031114171510411/14/03 17:15:31  5-MIN KMSN 142315Z 18006KT 10SM BKN060 OVC095 06/M01 A3001 780 62 -100 170/06 RMK AO2
14837KMSN MSN20031114172010411/14/03 17:20:31  5-MIN KMSN 142320Z 17006KT 10SM BKN060 OVC095 06/M01 A3001 780 65 -100 170/06 RMK AO2
14837KMSN MSN20031114172510411/14/03 17:25:31  5-MIN KMSN 142325Z 17006KT 10SM BKN060 OVC095 06/M01 A3001 780 65 -100 170/06 RMK AO2
14837KMSN MSN20031114173010411/14/03 17:30:31  5-MIN KMSN 142330Z 18007KT 10SM BKN060 OVC095 06/M01 A3001 780 62 -100 170/07 RMK AO2
14837KMSN MSN20031114173510411/14/03 17:35:31  5-MIN KMSN 142335Z 18008KT 10SM BKN060 OVC095 06/M01 A3001 780 62 -100 170/08 RMK AO2
14837KMSN MSN20031114174010411/14/03 17:40:31  5-MIN KMSN 142340Z 18008KT 10SM BKN060 OVC090 06/M01 A3001 790 62 -100 180/08 RMK AO2
14837KMSN MSN20031114174510411/14/03 17:45:31  5-MIN KMSN 142345Z 18008KT 10SM BKN060 OVC090 06/M01 A3000 790 62 -100 180/08 RMK AO2
14837KMSN MSN20031114175014211/14/03 17:50:31  5-MIN KMSN 142350Z 18008KT 10SM BKN060 OVC090 06/M01 A3000 790 60 0 180/08 RMK AO2 SLP166 60000 T00611011 10117 20056 56015
14837KMSN MSN20031114175510111/14/03 17:55:31  5-MIN KMSN 142355Z 18008KT 10SM SCT060 OVC090 06/M01 A3000 790 60 0 180/08 RMK AO2
14837KMSN MSN20031114180010411/14/03 18:00:31  5-MIN KMSN 150000Z 18009KT 10SM SCT060 OVC085 06/M01 A3000 790 62 -100 180/09 RMK AO2
14837KMSN MSN20031114180510411/14/03 18:05:31  5-MIN KMSN 150005Z 18008KT 10SM FEW060 OVC085 06/M01 A3000 790 62 -100 180/08 RMK AO2
14837KMSN MSN20031114181010411/14/03 18:10:31  5-MIN KMSN 150010Z 18008KT 10SM FEW043 OVC085 06/M01 A3001 790 62 -100 180/08 RMK AO2
14837KMSN MSN20031114181510411/14/03 18:15:31  5-MIN KMSN 150015Z 17008KT 10SM SCT043 OVC085 06/M01 A3001 780 62 -100 170/08 RMK AO2
14837KMSN MSN20031114182010411/14/03 18:20:31  5-MIN KMSN 150020Z 17007KT 10SM BKN045 OVC085 06/M01 A3001 780 62 -100 170/07 RMK AO2
14837KMSN MSN20031114182510411/14/03 18:25:31  5-MIN KMSN 150025Z 18008KT 10SM BKN047 OVC085 06/M01 A3001 780 62 -100 180/08 RMK AO2
14837KMSN MSN20031114183010411/14/03 18:30:31  5-MIN KMSN 150030Z 17008KT 10SM BKN049 OVC085 06/M01 A3001 790 62 -100 170/08 RMK AO2
14837KMSN MSN20031114183509711/14/03 18:35:31  5-MIN KMSN 150035Z 16008KT 10SM OVC049 06/M01 A3001 790 62 -100 160/08 RMK AO2
14837KMSN MSN20031114184009711/14/03 18:40:31  5-MIN KMSN 150040Z 15007KT 10SM OVC049 06/M01 A3000 790 62 -100 150/07 RMK AO2
14837KMSN MSN20031114184509711/14/03 18:45:31  5-MIN KMSN 150045Z 16007KT 10SM OVC049 06/M01 A3001 790 62 -100 160/07 RMK AO2
14837KMSN MSN20031114185011411/14/03 18:50:31  5-MIN KMSN 150050Z 17006KT 10SM OVC049 06/M01 A3001 790 62 -100 170/06 RMK AO2 SLP167 T00561011
14837KMSN MSN20031114185509711/14/03 18:55:31  5-MIN KMSN 150055Z 17009KT 10SM OVC049 06/M01 A3001 780 62 -100 170/09 RMK AO2
14837KMSN MSN20031114190009411/14/03 19:00:31  5-MIN KMSN 150100Z 17009KT 10SM OVC049 06/M02 A3001 790 57 0 170/09 RMK AO2
14837KMSN MSN20031114190509711/14/03 19:05:31  5-MIN KMSN 150105Z 16009KT 10SM OVC049 06/M02 A3000 790 59 -100 160/09 RMK AO2
14837KMSN MSN20031114191009711/14/03 19:10:31  5-MIN KMSN 150110Z 17010KT 10SM OVC049 06/M02 A3000 790 59 -100 160/10 RMK AO2
14837KMSN MSN20031114191509411/14/03 19:15:31  5-MIN KMSN 150115Z 16010KT 10SM OVC049 06/M02 A3000 790 57 0 160/10 RMK AO2
14837KMSN MSN20031114192009711/14/03 19:20:31  5-MIN KMSN 150120Z 17009KT 10SM OVC049 06/M02 A3000 790 59 -100 170/09 RMK AO2
14837KMSN MSN20031114192509711/14/03 19:25:31  5-MIN KMSN 150125Z 17009KT 10SM OVC049 06/M02 A3000 790 59 -100 170/09 RMK AO2
14837KMSN MSN20031114193009711/14/03 19:30:31  5-MIN KMSN 150130Z 17008KT 10SM OVC049 06/M01 A3000 790 62 -100 170/08 RMK AO2
14837KMSN MSN20031114193510411/14/03 19:35:31  5-MIN KMSN 150135Z 17010KT 10SM BKN049 OVC070 06/M01 A3000 790 62 -100 170/10 RMK AO2
14837KMSN MSN20031114194010411/14/03 19:40:31  5-MIN KMSN 150140Z 17008KT 10SM SCT047 OVC070 06/M01 A3000 790 62 -100 170/08 RMK AO2
14837KMSN MSN20031114194510411/14/03 19:45:31  5-MIN KMSN 150145Z 17010KT 10SM SCT047 OVC065 06/M01 A2999 800 62 -100 170/10 RMK AO2
14837KMSN MSN20031114195012111/14/03 19:50:31  5-MIN KMSN 150150Z 17008KT 10SM FEW047 OVC060 06/M01 A2999 800 62 -100 170/08 RMK AO2 SLP163 T00561011
14837KMSN MSN20031114195510411/14/03 19:55:31  5-MIN KMSN 150155Z 17009KT 10SM FEW047 OVC060 06/M01 A2999 800 62 -100 170/09 RMK AO2
14837KMSN MSN20031114200009711/14/03 20:00:31  5-MIN KMSN 150200Z 18008KT 10SM OVC060 06/M01 A3000 790 62 -100 170/08 RMK AO2
14837KMSN MSN20031114200509711/14/03 20:05:31  5-MIN KMSN 150205Z 17007KT 10SM OVC060 06/M01 A3000 790 62 -100 170/07 RMK AO2
14837KMSN MSN20031114201009711/14/03 20:10:31  5-MIN KMSN 150210Z 17007KT 10SM OVC060 06/M01 A2999 800 62 -100 170/07 RMK AO2
14837KMSN MSN20031114201510411/14/03 20:15:31  5-MIN KMSN 150215Z 17008KT 10SM BKN060 OVC075 06/M01 A2999 800 62 -100 160/08 RMK AO2
14837KMSN MSN20031114202010411/14/03 20:20:31  5-MIN KMSN 150220Z 16008KT 10SM BKN065 OVC075 06/M01 A2999 800 62 -100 160/08 RMK AO2
14837KMSN MSN20031114202509611/14/03 20:25:31  5-MIN KMSN 150225Z 16008KT 10SM OVC065 06/00 A2999 800 67 -100 160/08 RMK AO2
14837KMSN MSN20031114203009611/14/03 20:30:31  5-MIN KMSN 150230Z 16009KT 10SM OVC065 06/00 A2999 800 67 -100 160/09 RMK AO2
14837KMSN MSN20031114203509711/14/03 20:35:31  5-MIN KMSN 150235Z 16009KT 10SM OVC070 06/M01 A2999 800 62 -100 160/09 RMK AO2
14837KMSN MSN20031114204009711/14/03 20:40:31  5-MIN KMSN 150240Z 16008KT 10SM OVC070 06/M01 A2999 800 62 -100 160/08 RMK AO2
14837KMSN MSN20031114204509711/14/03 20:45:31  5-MIN KMSN 150245Z 16008KT 10SM OVC065 06/M01 A2999 800 62 -100 160/08 RMK AO2
14837KMSN MSN20031114205012011/14/03 20:50:31  5-MIN KMSN 150250Z 16008KT 10SM OVC065 06/M02 A2999 800 59 -100 160/08 RMK AO2 SLP163 T00561017 57010
14837KMSN MSN20031114205509711/14/03 20:55:31  5-MIN KMSN 150255Z 16008KT 10SM OVC065 06/M01 A3000 800 62 -100 160/08 RMK AO2
14837KMSN MSN20031114210009711/14/03 21:00:31  5-MIN KMSN 150300Z 16008KT 10SM OVC060 06/M01 A3000 800 62 -100 160/08 RMK AO2
14837KMSN MSN20031114210510411/14/03 21:05:31  5-MIN KMSN 150305Z 16007KT 10SM FEW045 OVC060 06/M01 A2999 800 62 -100 160/07 RMK AO2
14837KMSN MSN20031114211010411/14/03 21:10:31  5-MIN KMSN 150310Z 17007KT 10SM SCT043 OVC060 06/M01 A2999 800 62 -100 170/07 RMK AO2
14837KMSN MSN20031114211510411/14/03 21:15:31  5-MIN KMSN 150315Z 17006KT 10SM BKN043 OVC060 06/M01 A2999 800 62 -100 170/06 RMK AO2
14837KMSN MSN20031114212010411/14/03 21:20:31  5-MIN KMSN 150320Z 17007KT 10SM BKN043 OVC060 06/M01 A2999 800 62 -100 170/07 RMK AO2
14837KMSN MSN20031114212510411/14/03 21:25:31  5-MIN KMSN 150325Z 17007KT 10SM BKN043 OVC060 06/M01 A2999 800 62 -100 170/07 RMK AO2
14837KMSN MSN20031114213009711/14/03 21:30:31  5-MIN KMSN 150330Z 17007KT 10SM OVC043 06/M01 A2999 800 62 -100 170/07 RMK AO2
14837KMSN MSN20031114213509711/14/03 21:35:31  5-MIN KMSN 150335Z 17007KT 10SM OVC043 06/M01 A2999 800 62 -100 170/07 RMK AO2
14837KMSN MSN20031114214009711/14/03 21:40:31  5-MIN KMSN 150340Z 18008KT 10SM OVC043 06/M01 A2999 800 62 -100 170/08 RMK AO2
14837KMSN MSN20031114214509711/14/03 21:45:31  5-MIN KMSN 150345Z 18009KT 10SM OVC043 06/M01 A2999 800 62 -100 180/09 RMK AO2
14837KMSN MSN20031114215011411/14/03 21:50:31  5-MIN KMSN 150350Z 17008KT 10SM OVC043 06/M01 A2999 800 62 -100 170/08 RMK AO2 SLP162 T00561011
14837KMSN MSN20031114215509711/14/03 21:55:31  5-MIN KMSN 150355Z 17007KT 10SM OVC043 06/M01 A2999 800 62 -100 170/07 RMK AO2
14837KMSN MSN20031114220009711/14/03 22:00:31  5-MIN KMSN 150400Z 17007KT 10SM OVC043 06/M01 A2999 800 62 -100 170/07 RMK AO2
14837KMSN MSN20031114220509711/14/03 22:05:31  5-MIN KMSN 150405Z 17008KT 10SM OVC043 06/M01 A2999 800 62 -100 170/08 RMK AO2
14837KMSN MSN20031114221009711/14/03 22:10:31  5-MIN KMSN 150410Z 17007KT 10SM OVC045 06/M01 A2999 800 62 -100 170/07 RMK AO2
14837KMSN MSN20031114221509711/14/03 22:15:31  5-MIN KMSN 150415Z 17008KT 10SM OVC045 05/M01 A2999 800 64 -100 170/08 RMK AO2
14837KMSN MSN20031114222009711/14/03 22:20:31  5-MIN KMSN 150420Z 17006KT 10SM OVC045 05/M01 A2999 800 64 -100 170/06 RMK AO2
14837KMSN MSN20031114222509711/14/03 22:25:31  5-MIN KMSN 150425Z 18008KT 10SM OVC047 05/M01 A2999 800 64 -100 180/08 RMK AO2
14837KMSN MSN20031114223009711/14/03 22:30:31  5-MIN KMSN 150430Z 18007KT 10SM OVC047 06/M01 A2999 800 62 -100 180/07 RMK AO2
14837KMSN MSN20031114223509711/14/03 22:35:31  5-MIN KMSN 150435Z 18007KT 10SM OVC049 06/M02 A2999 800 59 -100 170/07 RMK AO2
14837KMSN MSN20031114224009711/14/03 22:40:31  5-MIN KMSN 150440Z 18007KT 10SM OVC049 06/M02 A2999 800 59 -100 180/07 RMK AO2
14837KMSN MSN20031114224509711/14/03 22:45:31  5-MIN KMSN 150445Z 19007KT 10SM OVC049 06/M02 A2998 810 59 -100 190/07 RMK AO2
14837KMSN MSN20031114225011411/14/03 22:50:31  5-MIN KMSN 150450Z 19007KT 10SM OVC049 06/M02 A2998 810 59 -100 180/07 RMK AO2 SLP159 T00561017
14837KMSN MSN20031114225509411/14/03 22:55:31  5-MIN KMSN 150455Z 19007KT 10SM OVC049 06/M02 A2998 810 59 0 190/07 RMK AO2
14837KMSN MSN20031114230009411/14/03 23:00:31  5-MIN KMSN 150500Z 19008KT 10SM OVC049 06/M02 A2998 810 59 0 190/08 RMK AO2
14837KMSN MSN20031114230509411/14/03 23:05:31  5-MIN KMSN 150505Z 20009KT 10SM OVC049 06/M02 A2998 810 59 0 190/09 RMK AO2
14837KMSN MSN20031114231009411/14/03 23:10:31  5-MIN KMSN 150510Z 19007KT 10SM OVC049 06/M02 A2998 810 59 0 190/07 RMK AO2
14837KMSN MSN20031114231509411/14/03 23:15:31  5-MIN KMSN 150515Z 18008KT 10SM OVC049 06/M02 A2998 810 59 0 180/08 RMK AO2
14837KMSN MSN20031114232009411/14/03 23:20:31  5-MIN KMSN 150520Z 19007KT 10SM OVC049 06/M01 A2998 810 62 0 190/07 RMK AO2
14837KMSN MSN20031114232509411/14/03 23:25:31  5-MIN KMSN 150525Z 18008KT 10SM OVC049 06/M01 A2998 810 62 0 180/08 RMK AO2
14837KMSN MSN20031114233009711/14/03 23:30:31  5-MIN KMSN 150530Z 19007KT 10SM OVC049 05/M01 A2998 810 64 -100 190/07 RMK AO2
14837KMSN MSN20031114233509711/14/03 23:35:31  5-MIN KMSN 150535Z 19007KT 10SM OVC049 05/M01 A2998 810 64 -100 190/07 RMK AO2
14837KMSN MSN20031114234009711/14/03 23:40:31  5-MIN KMSN 150540Z 19008KT 10SM OVC049 05/M01 A2998 810 64 -100 190/08 RMK AO2
14837KMSN MSN20031114234509711/14/03 23:45:31  5-MIN KMSN 150545Z 19009KT 10SM OVC049 05/M01 A2998 810 64 -100 190/09 RMK AO2
14837KMSN MSN20031114235014211/14/03 23:50:31  5-MIN KMSN 150550Z 19008KT 10SM OVC049 05/M01 A2998 810 64 -100 190/08 RMK AO2 SLP156 T00501011 10061 20050 401171017 58003
14837KMSN MSN20031114235510411/14/03 23:55:31  5-MIN KMSN 150555Z 19007KT 10SM BKN049 OVC060 05/M01 A2998 810 64 -100 190/07 RMK AO2
14837KMSN MSN20031115000010411/15/03 00:00:31  5-MIN KMSN 150600Z 19008KT 10SM BKN049 OVC060 05/M01 A2998 810 64 -100 190/08 RMK AO2
14837KMSN MSN20031115000510411/15/03 00:05:31  5-MIN KMSN 150605Z 18008KT 10SM SCT049 OVC060 05/M01 A2998 810 64 -100 180/08 RMK AO2
14837KMSN MSN20031115001010411/15/03 00:10:31  5-MIN KMSN 150610Z 19008KT 10SM FEW049 OVC060 05/M01 A2998 810 64 -100 180/08 RMK AO2
14837KMSN MSN20031115001510411/15/03 00:15:31  5-MIN KMSN 150615Z 18008KT 10SM FEW049 OVC060 05/M01 A2997 820 64 -100 180/08 RMK AO2
14837KMSN MSN20031115002010411/15/03 00:20:31  5-MIN KMSN 150620Z 18008KT 10SM FEW049 OVC060 05/M01 A2997 810 64 -100 180/08 RMK AO2
14837KMSN MSN20031115002510411/15/03 00:25:31  5-MIN KMSN 150625Z 19009KT 10SM FEW049 OVC060 05/M01 A2997 820 64 -100 180/09 RMK AO2
14837KMSN MSN20031115003010411/15/03 00:30:31  5-MIN KMSN 150630Z 18007KT 10SM SCT049 OVC060 05/M01 A2997 820 64 -100 180/07 RMK AO2
14837KMSN MSN20031115003510411/15/03 00:35:31  5-MIN KMSN 150635Z 19008KT 10SM BKN047 OVC060 05/M01 A2997 820 67 -100 190/08 RMK AO2
14837KMSN MSN20031115004010411/15/03 00:40:31  5-MIN KMSN 150640Z 19008KT 10SM BKN047 OVC060 05/M01 A2997 820 67 -100 180/08 RMK AO2
14837KMSN MSN20031115004510411/15/03 00:45:31  5-MIN KMSN 150645Z 18007KT 10SM BKN047 OVC060 05/M01 A2997 820 67 -100 180/07 RMK AO2
14837KMSN MSN20031115005011411/15/03 00:50:31  5-MIN KMSN 150650Z 18008KT 10SM OVC045 05/M01 A2997 820 67 -100 180/08 RMK AO2 SLP153 T00501006
14837KMSN MSN20031115005509711/15/03 00:55:31  5-MIN KMSN 150655Z 19009KT 10SM OVC043 05/M01 A2997 820 67 -100 190/09 RMK AO2
14837KMSN MSN20031115010009711/15/03 01:00:31  5-MIN KMSN 150700Z 19008KT 10SM OVC043 05/M01 A2997 820 67 -100 180/08 RMK AO2
14837KMSN MSN20031115010509711/15/03 01:05:31  5-MIN KMSN 150705Z 19007KT 10SM OVC043 05/M01 A2997 820 67 -100 190/07 RMK AO2
14837KMSN MSN20031115011009611/15/03 01:10:31  5-MIN KMSN 150710Z 19006KT 9SM OVC041 05/M01 A2996 830 67 -100 180/06 RMK AO2
14837KMSN MSN20031115011510311/15/03 01:15:31  5-MIN KMSN 150715Z 19008KT 7SM BKN041 OVC060 05/M01 A2996 830 67 -100 190/08 RMK AO2
14837KMSN MSN20031115012010611/15/03 01:20:31  5-MIN KMSN 150720Z 18007KT 6SM HZ BKN041 OVC060 05/M01 A2996 830 67 -100 180/07 RMK AO2
14837KMSN MSN20031115012509611/15/03 01:25:31  5-MIN KMSN 150725Z 18008KT 7SM OVC039 05/M01 A2996 820 67 -100 180/08 RMK AO2
14837KMSN MSN20031115013009611/15/03 01:30:31  5-MIN KMSN 150730Z 18008KT 9SM OVC039 05/M01 A2996 820 67 -100 180/08 RMK AO2
14837KMSN MSN20031115013510411/15/03 01:35:31  5-MIN KMSN 150735Z 18007KT 10SM BKN039 OVC055 05/M01 A2996 820 67 -100 180/07 RMK AO2
14837KMSN MSN20031115014009611/15/03 01:40:31  5-MIN KMSN 150740Z 18008KT 10SM OVC041 05/00 A2996 820 70 -100 180/08 RMK AO2
14837KMSN MSN20031115014509611/15/03 01:45:31  5-MIN KMSN 150745Z 19007KT 10SM OVC039 05/00 A2996 820 70 -100 190/07 RMK AO2
14837KMSN MSN20031115015011311/15/03 01:50:31  5-MIN KMSN 150750Z 18008KT 10SM OVC039 05/00 A2996 830 70 -100 180/08 RMK AO2 SLP151 T00500000
14837KMSN MSN20031115015510311/15/03 01:55:31  5-MIN KMSN 150755Z 18008KT 10SM BKN039 OVC055 05/00 A2996 830 70 -100 180/08 RMK AO2
14837KMSN MSN20031115020010311/15/03 02:00:31  5-MIN KMSN 150800Z 18007KT 10SM BKN039 OVC055 05/00 A2996 820 70 -100 180/07 RMK AO2
14837KMSN MSN20031115020510311/15/03 02:05:31  5-MIN KMSN 150805Z 19008KT 10SM SCT039 OVC055 04/00 A2996 830 73 -200 180/08 RMK AO2
14837KMSN MSN20031115021010311/15/03 02:10:31  5-MIN KMSN 150810Z 19008KT 10SM FEW039 OVC055 04/01 A2996 830 76 -200 190/08 RMK AO2
14837KMSN MSN20031115021510311/15/03 02:15:31  5-MIN KMSN 150815Z 18009KT 10SM FEW039 OVC050 04/01 A2996 830 76 -200 180/09 RMK AO2
14837KMSN MSN20031115022009611/15/03 02:20:31  5-MIN KMSN 150820Z 20007KT 10SM OVC050 04/01 A2996 830 76 -200 200/07 RMK AO2
14837KMSN MSN20031115022509611/15/03 02:25:31  5-MIN KMSN 150825Z 19007KT 10SM OVC050 04/01 A2996 830 76 -200 190/07 RMK AO2
14837KMSN MSN20031115023009611/15/03 02:30:31  5-MIN KMSN 150830Z 19008KT 10SM OVC050 04/01 A2996 830 79 -200 190/08 RMK AO2
14837KMSN MSN20031115023509611/15/03 02:35:31  5-MIN KMSN 150835Z 19007KT 10SM OVC050 04/01 A2996 830 79 -200 190/07 RMK AO2
14837KMSN MSN20031115024010311/15/03 02:40:31  5-MIN KMSN 150840Z 19007KT 10SM FEW016 OVC050 04/01 A2996 830 79 -200 190/07 RMK AO2
14837KMSN MSN20031115024510311/15/03 02:45:31  5-MIN KMSN 150845Z 19007KT 10SM SCT016 OVC050 04/01 A2996 830 79 -200 190/07 RMK AO2
14837KMSN MSN20031115025012611/15/03 02:50:31  5-MIN KMSN 150850Z 19007KT 10SM BKN016 OVC050 04/01 A2996 830 79 -200 190/07 RMK AO2 SLP151 T00440011 58005
14837KMSN MSN20031115025510311/15/03 02:55:31  5-MIN KMSN 150855Z 19007KT 10SM BKN016 OVC050 04/01 A2996 830 79 -200 190/07 RMK AO2
14837KMSN MSN20031115030010311/15/03 03:00:31  5-MIN KMSN 150900Z 19007KT 10SM BKN016 OVC050 04/02 A2996 830 85 -200 190/07 RMK AO2
14837KMSN MSN20031115030509511/15/03 03:05:31  5-MIN KMSN 150905Z 19007KT 9SM OVC014 04/02 A2996 830 85 -200 190/07 RMK AO2
14837KMSN MSN20031115031009511/15/03 03:10:31  5-MIN KMSN 150910Z 19007KT 8SM OVC014 04/02 A2996 830 85 -200 190/07 RMK AO2
14837KMSN MSN20031115031509511/15/03 03:15:31  5-MIN KMSN 150915Z 19006KT 8SM OVC014 04/02 A2996 830 85 -200 190/06 RMK AO2
14837KMSN MSN20031115032009511/15/03 03:20:31  5-MIN KMSN 150920Z 19007KT 7SM OVC014 04/02 A2996 830 85 -200 190/07 RMK AO2
14837KMSN MSN20031115032509511/15/03 03:25:31  5-MIN KMSN 150925Z 19006KT 7SM OVC012 04/02 A2996 830 85 -200 190/06 RMK AO2
14837KMSN MSN20031115033009511/15/03 03:30:31  5-MIN KMSN 150930Z 18004KT 7SM OVC012 04/02 A2995 830 89 -200 180/04 RMK AO2
14837KMSN MSN20031115033509511/15/03 03:35:31  5-MIN KMSN 150935Z 18006KT 7SM OVC012 04/02 A2996 830 89 -200 180/06 RMK AO2
14837KMSN MSN20031115034010711/15/03 03:40:31  5-MIN KMSN 150940Z 18007KT 7SM OVC010 04/02 A2995 830 89 -200 180/07 RMK AO2 CIG 008V015
14837KMSN MSN20031115034510711/15/03 03:45:31  5-MIN KMSN 150945Z 17006KT 7SM OVC010 04/02 A2995 840 89 -200 170/06 RMK AO2 CIG 008V013
14837KMSN MSN20031115035012411/15/03 03:50:31  5-MIN KMSN 150950Z 18005KT 7SM OVC010 04/02 A2995 840 89 -200 180/05 RMK AO2 CIG 007V012 SLP148 T00390022
14837KMSN MSN20031115035510711/15/03 03:55:31  5-MIN KMSN 150955Z 18006KT 7SM OVC008 04/02 A2995 830 89 -200 180/06 RMK AO2 CIG 007V012
14837KMSN MSN20031115040010711/15/03 04:00:31  5-MIN KMSN 151000Z 19006KT 7SM OVC008 04/02 A2995 830 89 -200 190/06 RMK AO2 CIG 007V012
14837KMSN MSN20031115040510711/15/03 04:05:31  5-MIN KMSN 151005Z 18007KT 8SM OVC008 04/02 A2995 830 89 -200 180/07 RMK AO2 CIG 007V011
14837KMSN MSN20031115041009511/15/03 04:10:31  5-MIN KMSN 151010Z 18007KT 7SM OVC008 04/02 A2995 830 89 -200 180/07 RMK AO2
14837KMSN MSN20031115041509511/15/03 04:15:31  5-MIN KMSN 151015Z 18006KT 7SM OVC008 04/02 A2995 830 89 -200 180/06 RMK AO2
14837KMSN MSN20031115042009511/15/03 04:20:31  5-MIN KMSN 151020Z 18005KT 7SM OVC008 04/02 A2995 840 89 -200 180/05 RMK AO2
14837KMSN MSN20031115042509811/15/03 04:25:31  5-MIN KMSN 151025Z 18006KT 6SM BR OVC008 04/02 A2995 840 89 -200 180/06 RMK AO2
14837KMSN MSN20031115043009811/15/03 04:30:31  5-MIN KMSN 151030Z 19005KT 6SM BR OVC008 04/03 A2995 830 92 -200 190/05 RMK AO2
14837KMSN MSN20031115043509511/15/03 04:35:31  5-MIN KMSN 151035Z 18005KT 7SM OVC008 04/03 A2995 840 92 -200 180/05 RMK AO2
14837KMSN MSN20031115044009511/15/03 04:40:31  5-MIN KMSN 151040Z 18006KT 7SM OVC006 04/03 A2995 840 92 -200 180/06 RMK AO2
14837KMSN MSN20031115044509811/15/03 04:45:31  5-MIN KMSN 151045Z 18006KT 6SM BR OVC006 04/03 A2995 840 92 -200 180/06 RMK AO2
14837KMSN MSN20031115045011511/15/03 04:50:31  5-MIN KMSN 151050Z 19007KT 6SM BR OVC006 04/03 A2995 830 92 -200 190/07 RMK AO2 SLP149 T00390028
14837KMSN MSN20031115045509511/15/03 04:55:31  5-MIN KMSN 151055Z 20004KT 7SM OVC006 04/03 A2995 830 92 -200 200/04 RMK AO2
14837KMSN MSN20031115050009511/15/03 05:00:31  5-MIN KMSN 151100Z 20006KT 7SM OVC006 04/03 A2995 830 92 -200 200/06 RMK AO2
14837KMSN MSN20031115050509811/15/03 05:05:31  5-MIN KMSN 151105Z 19007KT 6SM BR OVC006 04/02 A2996 830 89 -200 190/07 RMK AO2
14837KMSN MSN20031115051009811/15/03 05:10:31  5-MIN KMSN 151110Z 19008KT 5SM BR OVC006 04/02 A2996 830 89 -200 190/08 RMK AO2
14837KMSN MSN20031115051509811/15/03 05:15:31  5-MIN KMSN 151115Z 19006KT 5SM BR OVC006 04/03 A2995 830 92 -200 190/06 RMK AO2
14837KMSN MSN20031115052009811/15/03 05:20:31  5-MIN KMSN 151120Z 19006KT 5SM BR OVC006 04/03 A2995 830 92 -200 180/06 RMK AO2
14837KMSN MSN20031115052509811/15/03 05:25:31  5-MIN KMSN 151125Z 19005KT 5SM BR OVC006 04/03 A2995 840 92 -200 190/05 RMK AO2
14837KMSN MSN20031115053009811/15/03 05:30:31  5-MIN KMSN 151130Z 19004KT 5SM BR OVC006 04/03 A2995 840 92 -200 190/04 RMK AO2
14837KMSN MSN20031115053509811/15/03 05:35:31  5-MIN KMSN 151135Z 19006KT 5SM BR OVC006 04/03 A2995 840 92 -200 190/06 RMK AO2
14837KMSN MSN20031115054009811/15/03 05:40:31  5-MIN KMSN 151140Z 19005KT 5SM BR OVC006 04/02 A2995 840 89 -200 190/05 RMK AO2
14837KMSN MSN20031115054509811/15/03 05:45:31  5-MIN KMSN 151145Z 18004KT 5SM BR OVC006 04/03 A2994 840 92 -200 170/04 RMK AO2
14837KMSN MSN20031115055013311/15/03 05:50:31  5-MIN KMSN 151150Z VRB05KT 4SM BR OVC006 04/03 A2994 840 92 -200 VRB/05 RMK AO2 SLP147 T00390028 10050 20039 56006
14837KMSN MSN20031115055509811/15/03 05:55:31  5-MIN KMSN 151155Z 17005KT 6SM BR OVC006 04/03 A2994 840 92 -200 170/05 RMK AO2
14837KMSN MSN20031115060009811/15/03 06:00:31  5-MIN KMSN 151200Z 18004KT 4SM BR OVC006 04/03 A2994 840 92 -200 180/04 RMK AO2
14837KMSN MSN20031115060509811/15/03 06:05:31  5-MIN KMSN 151205Z 19005KT 4SM BR OVC006 04/03 A2994 850 92 -200 190/05 RMK AO2
14837KMSN MSN20031115061009811/15/03 06:10:31  5-MIN KMSN 151210Z 18006KT 4SM BR OVC006 04/03 A2994 850 92 -200 180/06 RMK AO2
14837KMSN MSN20031115061509811/15/03 06:15:31  5-MIN KMSN 151215Z 18007KT 4SM BR OVC006 04/03 A2994 850 92 -200 180/07 RMK AO2
14837KMSN MSN20031115062009811/15/03 06:20:31  5-MIN KMSN 151220Z 17005KT 4SM BR OVC006 04/03 A2994 850 92 -200 170/05 RMK AO2
14837KMSN MSN20031115062509811/15/03 06:25:31  5-MIN KMSN 151225Z 18005KT 4SM BR OVC006 04/03 A2994 850 92 -200 180/05 RMK AO2
14837KMSN MSN20031115063009811/15/03 06:30:31  5-MIN KMSN 151230Z 18007KT 4SM BR OVC006 04/03 A2994 840 92 -200 180/07 RMK AO2
14837KMSN MSN20031115063509811/15/03 06:35:31  5-MIN KMSN 151235Z 17007KT 4SM BR OVC006 04/03 A2994 840 92 -200 170/07 RMK AO2
14837KMSN MSN20031115064009811/15/03 06:40:31  5-MIN KMSN 151240Z 17006KT 4SM BR OVC006 04/03 A2995 840 92 -200 170/06 RMK AO2
14837KMSN MSN20031115064510811/15/03 06:45:31  5-MIN KMSN 151245Z 17006KT 3SM BR OVC006 04/03 A2995 840 92 -200 170/06 RMK AO2 TWR VIS 4
14837KMSN MSN20031115065012511/15/03 06:50:31  5-MIN KMSN 151250Z 17005KT 3SM BR OVC006 04/03 A2995 840 92 -200 170/05 RMK AO2 TWR VIS 4 SLP147 T00390028
14837KMSN MSN20031115065510811/15/03 06:55:31  5-MIN KMSN 151255Z 18005KT 3SM BR OVC006 04/03 A2995 840 92 -200 180/05 RMK AO2 SFC VIS 5
14837KMSN MSN20031115070009811/15/03 07:00:31  5-MIN KMSN 151300Z 17006KT 3SM BR OVC006 04/03 A2995 840 92 -200 170/06 RMK AO2
14837KMSN MSN20031115070509811/15/03 07:05:31  5-MIN KMSN 151305Z 15005KT 3SM BR OVC006 04/03 A2995 840 92 -200 150/05 RMK AO2
14837KMSN MSN20031115071009811/15/03 07:10:31  5-MIN KMSN 151310Z 16006KT 3SM BR OVC006 04/03 A2995 840 92 -200 160/06 RMK AO2
14837KMSN MSN20031115071509811/15/03 07:15:31  5-MIN KMSN 151315Z 16006KT 3SM BR OVC006 04/03 A2995 840 92 -200 160/06 RMK AO2
14837KMSN MSN20031115072009811/15/03 07:20:31  5-MIN KMSN 151320Z 16006KT 3SM BR OVC006 04/03 A2995 840 92 -200 160/06 RMK AO2
14837KMSN MSN20031115072509811/15/03 07:25:31  5-MIN KMSN 151325Z 16006KT 3SM BR OVC006 04/03 A2995 840 92 -200 160/06 RMK AO2
14837KMSN MSN20031115073012811/15/03 07:30:31  5-MIN KMSN 151330Z 16006KT 2 1/2SM -DZ BR OVC006 04/03 A2995 840 92 -200 160/06 RMK AO2 TWR VIS 3 DZB30 P0000
14837KMSN MSN20031115073512811/15/03 07:35:31  5-MIN KMSN 151335Z 16006KT 2 1/2SM -DZ BR OVC006 04/03 A2994 840 92 -200 160/06 RMK AO2 TWR VIS 3 DZB30 P0000
14837KMSN MSN20031115074012811/15/03 07:40:31  5-MIN KMSN 151340Z 16006KT 2 1/2SM -DZ BR OVC006 04/03 A2995 840 92 -200 160/06 RMK AO2 TWR VIS 3 DZB30 P0000
14837KMSN MSN20031115074512811/15/03 07:45:31  5-MIN KMSN 151345Z 16008KT 2 1/2SM -DZ BR OVC006 04/03 A2995 840 92 -200 160/08 RMK AO2 TWR VIS 3 DZB30 P0000
14837KMSN MSN20031115075014511/15/03 07:50:31  5-MIN KMSN 151350Z 16007KT 2 1/2SM -DZ BR OVC006 04/03 A2995 840 92 -200 160/07 RMK AO2 TWR VIS 3 DZB30 SLP148 P0000 T00390028
14837KMSN MSN20031115075511211/15/03 07:55:31  5-MIN KMSN 151355Z 17006KT 2 1/2SM BR OVC006 04/03 A2995 840 92 -200 170/06 RMK AO2 TWR VIS 3
14837KMSN MSN20031115080011211/15/03 08:00:31  5-MIN KMSN 151400Z 17005KT 2 1/2SM BR OVC006 04/03 A2995 840 92 -200 170/05 RMK AO2 TWR VIS 3
14837KMSN MSN20031115080511211/15/03 08:05:31  5-MIN KMSN 151405Z 17006KT 2 1/2SM BR OVC006 04/03 A2995 840 92 -200 170/06 RMK AO2 TWR VIS 3
14837KMSN MSN20031115081011211/15/03 08:10:31  5-MIN KMSN 151410Z 16005KT 2 1/2SM BR OVC006 04/03 A2995 840 92 -200 160/05 RMK AO2 TWR VIS 3
14837KMSN MSN20031115081511211/15/03 08:15:31  5-MIN KMSN 151415Z 16007KT 2 1/2SM BR OVC006 04/03 A2995 840 92 -200 160/07 RMK AO2 TWR VIS 3
14837KMSN MSN20031115082011211/15/03 08:20:31  5-MIN KMSN 151420Z 16007KT 2 1/2SM BR OVC006 04/03 A2995 840 92 -200 160/07 RMK AO2 TWR VIS 3
14837KMSN MSN20031115082511211/15/03 08:25:31  5-MIN KMSN 151425Z 17007KT 2 1/2SM BR OVC004 04/03 A2995 840 92 -200 170/07 RMK AO2 TWR VIS 3
14837KMSN MSN20031115083011211/15/03 08:30:31  5-MIN KMSN 151430Z 17008KT 2 1/2SM BR OVC004 04/03 A2995 840 92 -200 160/08 RMK AO2 TWR VIS 3
14837KMSN MSN20031115083511211/15/03 08:35:31  5-MIN KMSN 151435Z 15007KT 2 1/2SM BR OVC004 04/03 A2995 840 92 -200 150/07 RMK AO2 TWR VIS 3
14837KMSN MSN20031115084011211/15/03 08:40:31  5-MIN KMSN 151440Z 16008KT 2 1/2SM BR OVC004 04/03 A2995 840 92 -200 160/08 RMK AO2 TWR VIS 3
14837KMSN MSN20031115084511211/15/03 08:45:31  5-MIN KMSN 151445Z 16007KT 2 1/2SM BR OVC004 04/03 A2995 840 92 -200 160/07 RMK AO2 TWR VIS 3
14837KMSN MSN20031115085012711/15/03 08:50:31  5-MIN KMSN 151450Z 16007KT 3SM BR OVC004 04/03 A2995 840 92 -200 160/07 RMK AO2 SLP147 60000 T00390028 58005
14837KMSN MSN20031115085509811/15/03 08:55:31  5-MIN KMSN 151455Z 17008KT 3SM BR OVC004 04/03 A2995 840 92 -200 170/08 RMK AO2
14837KMSN MSN20031115090009811/15/03 09:00:31  5-MIN KMSN 151500Z 16007KT 3SM BR OVC004 04/03 A2995 840 92 -200 160/07 RMK AO2
14837KMSN MSN20031115090509811/15/03 09:05:31  5-MIN KMSN 151505Z 18006KT 3SM BR OVC004 04/03 A2995 840 92 -200 180/06 RMK AO2
14837KMSN MSN20031115091009811/15/03 09:10:31  5-MIN KMSN 151510Z 16007KT 3SM BR OVC004 04/03 A2995 840 92 -200 160/07 RMK AO2
14837KMSN MSN20031115091509811/15/03 09:15:31  5-MIN KMSN 151515Z 17007KT 3SM BR OVC004 04/03 A2995 840 89 -100 170/07 RMK AO2
14837KMSN MSN20031115092009811/15/03 09:20:31  5-MIN KMSN 151520Z 18006KT 3SM BR OVC004 04/03 A2995 840 92 -200 180/06 RMK AO2
14837KMSN MSN20031115092509811/15/03 09:25:31  5-MIN KMSN 151525Z 16007KT 3SM BR OVC004 04/03 A2995 840 89 -200 160/07 RMK AO2
14837KMSN MSN20031115093010811/15/03 09:30:31  5-MIN KMSN 151530Z 17006KT 3SM BR OVC004 04/03 A2995 840 89 -200 170/06 RMK AO2 SFC VIS 3
14837KMSN MSN20031115093509811/15/03 09:35:31  5-MIN KMSN 151535Z 16007KT 3SM BR OVC004 04/03 A2995 840 89 -200 160/07 RMK AO2
14837KMSN MSN20031115094009811/15/03 09:40:31  5-MIN KMSN 151540Z 16007KT 3SM BR OVC004 04/03 A2995 830 89 -200 160/07 RMK AO2
14837KMSN MSN20031115094509811/15/03 09:45:31  5-MIN KMSN 151545Z 17007KT 3SM BR OVC004 04/03 A2995 830 89 -200 170/07 RMK AO2
14837KMSN MSN20031115095011511/15/03 09:50:31  5-MIN KMSN 151550Z 17007KT 3SM BR OVC004 04/03 A2996 830 89 -200 170/07 RMK AO2 SLP151 T00440028
14837KMSN MSN20031115095510811/15/03 09:55:31  5-MIN KMSN 151555Z 17007KT 3SM BR OVC004 04/03 A2996 830 89 -200 160/07 RMK AO2 SFC VIS 3
14837KMSN MSN20031115100010811/15/03 10:00:31  5-MIN KMSN 151600Z 18007KT 3SM BR OVC004 04/03 A2996 830 89 -200 180/07 RMK AO2 SFC VIS 3
14837KMSN MSN20031115100510811/15/03 10:05:31  5-MIN KMSN 151605Z 18006KT 3SM BR OVC004 04/03 A2996 830 89 -200 180/06 RMK AO2 SFC VIS 3
14837KMSN MSN20031115101010811/15/03 10:10:31  5-MIN KMSN 151610Z 19007KT 3SM BR OVC004 04/03 A2996 830 89 -200 190/07 RMK AO2 SFC VIS 4
14837KMSN MSN20031115101510811/15/03 10:15:31  5-MIN KMSN 151615Z 19006KT 3SM BR OVC006 04/03 A2996 830 89 -200 190/06 RMK AO2 SFC VIS 4
14837KMSN MSN20031115102010811/15/03 10:20:31  5-MIN KMSN 151620Z 20005KT 3SM BR OVC006 04/03 A2996 830 89 -200 200/05 RMK AO2 SFC VIS 4
14837KMSN MSN20031115102510811/15/03 10:25:31  5-MIN KMSN 151625Z 18005KT 3SM BR OVC006 04/03 A2996 830 89 -200 180/05 RMK AO2 SFC VIS 4
14837KMSN MSN20031115103010811/15/03 10:30:31  5-MIN KMSN 151630Z 18005KT 3SM BR OVC006 04/03 A2996 830 89 -200 180/05 RMK AO2 SFC VIS 4
14837KMSN MSN20031115103510811/15/03 10:35:31  5-MIN KMSN 151635Z 19006KT 3SM BR OVC006 04/03 A2996 830 89 -200 180/06 RMK AO2 SFC VIS 4
14837KMSN MSN20031115104010811/15/03 10:40:31  5-MIN KMSN 151640Z 17006KT 3SM BR OVC006 04/03 A2995 830 89 -200 170/06 RMK AO2 SFC VIS 4
14837KMSN MSN20031115104510811/15/03 10:45:31  5-MIN KMSN 151645Z 17006KT 3SM BR OVC006 04/03 A2995 840 89 -100 170/06 RMK AO2 SFC VIS 4
14837KMSN MSN20031115105012511/15/03 10:50:31  5-MIN KMSN 151650Z 16007KT 3SM BR OVC006 04/03 A2995 840 89 -100 160/07 RMK AO2 SFC VIS 4 SLP147 T00440028
14837KMSN MSN20031115105510811/15/03 10:55:31  5-MIN KMSN 151655Z 16006KT 3SM BR OVC006 04/03 A2994 840 89 -100 160/06 RMK AO2 SFC VIS 4
14837KMSN MSN20031115110010811/15/03 11:00:31  5-MIN KMSN 151700Z 16006KT 3SM BR OVC006 04/03 A2994 840 89 -100 160/06 RMK AO2 SFC VIS 4
14837KMSN MSN20031115110510811/15/03 11:05:31  5-MIN KMSN 151705Z 16005KT 3SM BR OVC006 05/03 A2994 840 89 -100 150/05 RMK AO2 SFC VIS 4
14837KMSN MSN20031115111010811/15/03 11:10:31  5-MIN KMSN 151710Z 17006KT 3SM BR OVC006 05/03 A2994 850 85 -100 170/06 RMK AO2 SFC VIS 4
14837KMSN MSN20031115111510811/15/03 11:15:31  5-MIN KMSN 151715Z 15005KT 3SM BR OVC006 05/03 A2994 850 85 -100 150/05 RMK AO2 SFC VIS 4
14837KMSN MSN20031115112010811/15/03 11:20:31  5-MIN KMSN 151720Z 15005KT 3SM BR OVC006 05/03 A2994 850 89 -100 150/05 RMK AO2 SFC VIS 4
14837KMSN MSN20031115112510811/15/03 11:25:31  5-MIN KMSN 151725Z 16006KT 3SM BR OVC006 05/03 A2994 850 89 -100 160/06 RMK AO2 SFC VIS 4
14837KMSN MSN20031115113010811/15/03 11:30:31  5-MIN KMSN 151730Z 16006KT 3SM BR OVC006 05/03 A2993 850 89 -100 160/06 RMK AO2 SFC VIS 4
14837KMSN MSN20031115113510811/15/03 11:35:31  5-MIN KMSN 151735Z 16007KT 3SM BR OVC006 05/03 A2993 850 89 -100 160/07 RMK AO2 SFC VIS 4
14837KMSN MSN20031115114010811/15/03 11:40:31  5-MIN KMSN 151740Z 17006KT 3SM BR OVC006 05/03 A2993 860 89 -100 170/06 RMK AO2 SFC VIS 4
14837KMSN MSN20031115114510811/15/03 11:45:31  5-MIN KMSN 151745Z 18006KT 3SM BR OVC006 05/03 A2993 860 89 -100 180/06 RMK AO2 SFC VIS 4
14837KMSN MSN20031115115014911/15/03 11:50:31  5-MIN KMSN 151750Z 18006KT 3SM BR OVC006 05/03 A2993 860 89 -100 180/06 RMK AO2 SFC VIS 4 SLP140 60000 T00500033 10050 20039 50001
14837KMSN MSN20031115115510811/15/03 11:55:31  5-MIN KMSN 151755Z 16005KT 3SM BR OVC006 05/03 A2993 860 89 -100 160/05 RMK AO2 SFC VIS 4
14837KMSN MSN20031115120010811/15/03 12:00:31  5-MIN KMSN 151800Z 15006KT 3SM BR OVC006 05/03 A2992 860 89 -100 150/06 RMK AO2 SFC VIS 4
14837KMSN MSN20031115120510511/15/03 12:05:31  5-MIN KMSN 151805Z 15006KT 3SM BR OVC006 05/03 A2992 860 89 0 150/06 RMK AO2 SFC VIS 4
14837KMSN MSN20031115121010511/15/03 12:10:31  5-MIN KMSN 151810Z 15005KT 3SM BR OVC006 05/03 A2992 860 89 0 150/05 RMK AO2 SFC VIS 4
14837KMSN MSN20031115121510511/15/03 12:15:31  5-MIN KMSN 151815Z 15005KT 3SM BR OVC006 05/03 A2992 870 89 0 150/05 RMK AO2 SFC VIS 4
14837KMSN MSN20031115122010511/15/03 12:20:31  5-MIN KMSN 151820Z 16007KT 3SM BR OVC006 05/03 A2992 870 89 0 160/07 RMK AO2 SFC VIS 4
14837KMSN MSN20031115122510511/15/03 12:25:31  5-MIN KMSN 151825Z 15005KT 3SM BR OVC006 05/03 A2992 870 89 0 150/05 RMK AO2 SFC VIS 4
14837KMSN MSN20031115123010511/15/03 12:30:31  5-MIN KMSN 151830Z 15006KT 3SM BR OVC006 05/03 A2992 870 89 0 150/06 RMK AO2 SFC VIS 4
14837KMSN MSN20031115123510511/15/03 12:35:31  5-MIN KMSN 151835Z 14006KT 3SM BR OVC006 05/03 A2992 870 89 0 140/06 RMK AO2 SFC VIS 4
14837KMSN MSN20031115124010511/15/03 12:40:31  5-MIN KMSN 151840Z 16007KT 3SM BR OVC006 05/03 A2991 870 89 0 150/07 RMK AO2 SFC VIS 4
14837KMSN MSN20031115124510511/15/03 12:45:31  5-MIN KMSN 151845Z 17006KT 3SM BR OVC008 05/03 A2992 870 89 0 170/06 RMK AO2 SFC VIS 4
14837KMSN MSN20031115125012211/15/03 12:50:31  5-MIN KMSN 151850Z 16006KT 3SM BR OVC008 05/03 A2992 870 89 0 160/06 RMK AO2 SFC VIS 4 SLP137 T00500033
14837KMSN MSN20031115125510511/15/03 12:55:31  5-MIN KMSN 151855Z 16007KT 3SM BR OVC008 05/03 A2992 870 89 0 160/07 RMK AO2 SFC VIS 4
14837KMSN MSN20031115130010511/15/03 13:00:31  5-MIN KMSN 151900Z 16006KT 3SM BR OVC008 05/03 A2991 870 89 0 160/06 RMK AO2 SFC VIS 4
14837KMSN MSN20031115130510511/15/03 13:05:31  5-MIN KMSN 151905Z 16006KT 3SM BR OVC008 05/03 A2991 870 89 0 150/06 RMK AO2 SFC VIS 4
14837KMSN MSN20031115131010511/15/03 13:10:31  5-MIN KMSN 151910Z 15006KT 3SM BR OVC008 05/03 A2991 870 89 0 150/06 RMK AO2 SFC VIS 4
14837KMSN MSN20031115131510511/15/03 13:15:31  5-MIN KMSN 151915Z 17006KT 3SM BR OVC008 05/03 A2991 870 89 0 170/06 RMK AO2 SFC VIS 4
14837KMSN MSN20031115132010511/15/03 13:20:31  5-MIN KMSN 151920Z 15005KT 3SM BR OVC008 06/03 A2991 870 85 0 150/05 RMK AO2 SFC VIS 4
14837KMSN MSN20031115132510511/15/03 13:25:31  5-MIN KMSN 151925Z 15006KT 3SM BR OVC008 06/03 A2991 870 85 0 150/06 RMK AO2 SFC VIS 4
14837KMSN MSN20031115133010511/15/03 13:30:31  5-MIN KMSN 151930Z 18007KT 3SM BR OVC008 06/03 A2991 870 85 0 170/07 RMK AO2 SFC VIS 4
14837KMSN MSN20031115133510511/15/03 13:35:31  5-MIN KMSN 151935Z 17007KT 3SM BR OVC008 06/03 A2991 870 85 0 170/07 RMK AO2 SFC VIS 5
14837KMSN MSN20031115134010511/15/03 13:40:31  5-MIN KMSN 151940Z 19007KT 3SM BR OVC008 06/03 A2991 870 85 0 180/07 RMK AO2 SFC VIS 5
14837KMSN MSN20031115134510511/15/03 13:45:31  5-MIN KMSN 151945Z 17007KT 3SM BR OVC008 06/03 A2992 870 85 0 170/07 RMK AO2 SFC VIS 4
14837KMSN MSN20031115135012211/15/03 13:50:31  5-MIN KMSN 151950Z 18006KT 3SM BR OVC008 06/03 A2991 870 85 0 180/06 RMK AO2 SFC VIS 4 SLP135 T00560033
14837KMSN MSN20031115135510511/15/03 13:55:31  5-MIN KMSN 151955Z 16007KT 3SM BR OVC008 05/03 A2991 870 89 0 150/07 RMK AO2 SFC VIS 4
14837KMSN MSN20031115140010511/15/03 14:00:31  5-MIN KMSN 152000Z 15007KT 3SM BR OVC008 05/03 A2991 870 89 0 150/07 RMK AO2 SFC VIS 4
14837KMSN MSN20031115140510511/15/03 14:05:31  5-MIN KMSN 152005Z 15007KT 3SM BR OVC008 05/03 A2991 870 89 0 150/07 RMK AO2 SFC VIS 4
14837KMSN MSN20031115141010511/15/03 14:10:31  5-MIN KMSN 152010Z 17005KT 3SM BR OVC008 05/03 A2991 870 89 0 170/05 RMK AO2 SFC VIS 4
14837KMSN MSN20031115141510511/15/03 14:15:31  5-MIN KMSN 152015Z 16006KT 3SM BR OVC008 06/03 A2991 870 85 0 160/06 RMK AO2 SFC VIS 4
14837KMSN MSN20031115142010511/15/03 14:20:31  5-MIN KMSN 152020Z 15006KT 3SM BR OVC008 06/03 A2991 870 85 0 150/06 RMK AO2 SFC VIS 4
14837KMSN MSN20031115142510511/15/03 14:25:31  5-MIN KMSN 152025Z 18006KT 3SM BR OVC008 06/03 A2991 870 85 0 180/06 RMK AO2 SFC VIS 4
14837KMSN MSN20031115143010511/15/03 14:30:31  5-MIN KMSN 152030Z 17005KT 3SM BR OVC008 06/03 A2992 870 85 0 160/05 RMK AO2 SFC VIS 4
14837KMSN MSN20031115143509511/15/03 14:35:31  5-MIN KMSN 152035Z 16006KT 4SM BR OVC008 06/03 A2992 870 85 0 160/06 RMK AO2
14837KMSN MSN20031115144009511/15/03 14:40:31  5-MIN KMSN 152040Z 16005KT 4SM BR OVC008 06/03 A2992 870 85 0 160/05 RMK AO2
14837KMSN MSN20031115144509511/15/03 14:45:31  5-MIN KMSN 152045Z 18007KT 4SM BR OVC008 06/03 A2992 870 85 0 180/07 RMK AO2
14837KMSN MSN20031115145011811/15/03 14:50:31  5-MIN KMSN 152050Z 19006KT 4SM BR OVC008 06/03 A2992 870 85 0 190/06 RMK AO2 SLP138 T00560033 58007
14837KMSN MSN20031115145509511/15/03 14:55:31  5-MIN KMSN 152055Z 19005KT 4SM BR OVC008 06/03 A2992 860 85 0 190/05 RMK AO2
14837KMSN MSN20031115150009511/15/03 15:00:31  5-MIN KMSN 152100Z 15006KT 4SM BR OVC008 06/03 A2992 860 85 0 150/06 RMK AO2
14837KMSN MSN20031115150509511/15/03 15:05:31  5-MIN KMSN 152105Z 16007KT 4SM BR OVC008 06/03 A2993 860 85 0 160/07 RMK AO2
14837KMSN MSN20031115151009511/15/03 15:10:31  5-MIN KMSN 152110Z 17005KT 4SM BR OVC008 06/03 A2993 860 85 0 170/05 RMK AO2
14837KMSN MSN20031115151509511/15/03 15:15:31  5-MIN KMSN 152115Z 17005KT 4SM BR OVC008 06/03 A2993 860 85 0 170/05 RMK AO2
14837KMSN MSN20031115152009511/15/03 15:20:31  5-MIN KMSN 152120Z 16006KT 4SM BR OVC008 06/03 A2993 850 85 0 160/06 RMK AO2
14837KMSN MSN20031115152509511/15/03 15:25:31  5-MIN KMSN 152125Z 16006KT 4SM BR OVC008 06/03 A2993 850 85 0 160/06 RMK AO2
14837KMSN MSN20031115153009511/15/03 15:30:31  5-MIN KMSN 152130Z 16006KT 4SM BR OVC008 06/03 A2994 850 85 0 160/06 RMK AO2
14837KMSN MSN20031115153509511/15/03 15:35:31  5-MIN KMSN 152135Z 16007KT 4SM BR OVC008 06/03 A2993 850 85 0 160/07 RMK AO2
14837KMSN MSN20031115154009511/15/03 15:40:31  5-MIN KMSN 152140Z 17006KT 4SM BR OVC008 06/03 A2993 850 85 0 170/06 RMK AO2
14837KMSN MSN20031115154509511/15/03 15:45:31  5-MIN KMSN 152145Z 15006KT 4SM BR OVC008 06/03 A2993 860 85 0 150/06 RMK AO2
14837KMSN MSN20031115155011211/15/03 15:50:31  5-MIN KMSN 152150Z 14005KT 4SM BR OVC008 06/03 A2993 860 85 0 140/05 RMK AO2 SLP141 T00560033
14837KMSN MSN20031115155509511/15/03 15:55:31  5-MIN KMSN 152155Z 14006KT 4SM BR OVC008 06/03 A2993 860 85 0 140/06 RMK AO2
14837KMSN MSN20031115160009511/15/03 16:00:31  5-MIN KMSN 152200Z 15005KT 4SM BR OVC008 06/03 A2993 860 85 0 140/05 RMK AO2
14837KMSN MSN20031115160511111/15/03 16:05:31  5-MIN KMSN 152205Z 16006KT 4SM -RA BR OVC008 06/03 A2993 850 85 0 160/06 RMK AO2 RAB04 P0000
14837KMSN MSN20031115161011011/15/03 16:10:31  5-MIN KMSN 152210Z 16007KT 4SM BR OVC008 06/03 A2993 850 85 0 160/07 RMK AO2 RAB04E10 P0000
14837KMSN MSN20031115161511011/15/03 16:15:31  5-MIN KMSN 152215Z 16006KT 4SM BR OVC008 06/03 A2994 850 85 0 160/06 RMK AO2 RAB04E10 P0000
14837KMSN MSN20031115162011011/15/03 16:20:31  5-MIN KMSN 152220Z 15006KT 4SM BR OVC008 06/03 A2994 850 85 0 150/06 RMK AO2 RAB04E10 P0000
14837KMSN MSN20031115162511011/15/03 16:25:31  5-MIN KMSN 152225Z 15007KT 4SM BR OVC008 06/03 A2993 850 85 0 150/07 RMK AO2 RAB04E10 P0000
14837KMSN MSN20031115163011311/15/03 16:30:31  5-MIN KMSN 152230Z 15005KT 5SM BR OVC008 05/03 A2993 850 89 -100 150/05 RMK AO2 RAB04E10 P0000
14837KMSN MSN20031115163511311/15/03 16:35:31  5-MIN KMSN 152235Z 16006KT 5SM BR OVC008 05/03 A2994 850 89 -100 160/06 RMK AO2 RAB04E10 P0000
14837KMSN MSN20031115164011011/15/03 16:40:31  5-MIN KMSN 152240Z 14005KT 5SM BR OVC008 06/03 A2993 850 85 0 140/05 RMK AO2 RAB04E10 P0000
14837KMSN MSN20031115164511311/15/03 16:45:31  5-MIN KMSN 152245Z 15005KT 5SM BR OVC008 05/03 A2994 850 89 -100 150/05 RMK AO2 RAB04E10 P0000
14837KMSN MSN20031115165013011/15/03 16:50:31  5-MIN KMSN 152250Z 15005KT 5SM BR OVC008 05/03 A2994 850 89 -100 150/05 RMK AO2 RAB04E10 SLP144 P0000 T00500033
14837KMSN MSN20031115165511011/15/03 16:55:31  5-MIN KMSN 152255Z 15006KT 5SM BR OVC008 05/04 A2994 850 92 -100 150/06 RMK AO2 CIG 008V011
14837KMSN MSN20031115170011011/15/03 17:00:31  5-MIN KMSN 152300Z 15007KT 5SM BR OVC008 05/04 A2994 850 92 -100 150/07 RMK AO2 CIG 007V012
14837KMSN MSN20031115170511011/15/03 17:05:31  5-MIN KMSN 152305Z 14006KT 5SM BR OVC008 05/04 A2994 850 92 -100 140/06 RMK AO2 CIG 007V012
14837KMSN MSN20031115171009811/15/03 17:10:31  5-MIN KMSN 152310Z 14005KT 5SM BR OVC008 05/04 A2994 850 92 -100 140/05 RMK AO2
14837KMSN MSN20031115171511011/15/03 17:15:31  5-MIN KMSN 152315Z 15005KT 5SM BR OVC008 05/04 A2994 840 92 -100 150/05 RMK AO2 CIG 006V012
14837KMSN MSN20031115172011011/15/03 17:20:31  5-MIN KMSN 152320Z 14004KT 5SM BR OVC008 05/04 A2994 840 92 -100 140/04 RMK AO2 CIG 006V012
14837KMSN MSN20031115172509811/15/03 17:25:31  5-MIN KMSN 152325Z 14004KT 5SM BR OVC008 05/04 A2994 840 92 -100 140/04 RMK AO2
14837KMSN MSN20031115173009811/15/03 17:30:31  5-MIN KMSN 152330Z 13004KT 5SM BR OVC008 05/04 A2994 840 92 -100 130/04 RMK AO2
14837KMSN MSN20031115173511011/15/03 17:35:31  5-MIN KMSN 152335Z 14005KT 5SM BR OVC008 05/04 A2994 840 92 -100 140/05 RMK AO2 CIG 006V010
14837KMSN MSN20031115174011011/15/03 17:40:31  5-MIN KMSN 152340Z 15005KT 5SM BR OVC008 05/04 A2995 840 92 -100 150/05 RMK AO2 CIG 006V011
14837KMSN MSN20031115174511011/15/03 17:45:31  5-MIN KMSN 152345Z 15006KT 5SM BR OVC008 05/04 A2994 840 92 -100 150/06 RMK AO2 CIG 007V011
14837KMSN MSN20031115175015111/15/03 17:50:31  5-MIN KMSN 152350Z 16006KT 5SM BR OVC008 05/04 A2994 840 92 -100 160/06 RMK AO2 CIG 007V011 SLP147 60000 T00500039 10056 20050 55001
14837KMSN MSN20031115175511011/15/03 17:55:31  5-MIN KMSN 152355Z 17005KT 5SM BR OVC008 05/04 A2995 840 92 -100 170/05 RMK AO2 CIG 007V011
14837KMSN MSN20031115180011011/15/03 18:00:31  5-MIN KMSN 160000Z 16004KT 5SM BR OVC010 05/04 A2995 840 92 -100 160/04 RMK AO2 CIG 007V012
14837KMSN MSN20031115180511011/15/03 18:05:31  5-MIN KMSN 160005Z 16004KT 5SM BR OVC010 05/04 A2995 840 92 -100 160/04 RMK AO2 CIG 007V012
14837KMSN MSN20031115181011011/15/03 18:10:31  5-MIN KMSN 160010Z 16006KT 5SM BR OVC010 05/03 A2995 840 89 -100 160/06 RMK AO2 CIG 007V012
14837KMSN MSN20031115181511011/15/03 18:15:31  5-MIN KMSN 160015Z 16005KT 5SM BR OVC010 05/03 A2995 840 89 -100 160/05 RMK AO2 CIG 007V012
14837KMSN MSN20031115182011011/15/03 18:20:31  5-MIN KMSN 160020Z 16005KT 5SM BR OVC010 05/03 A2995 840 89 -100 160/05 RMK AO2 CIG 007V012
14837KMSN MSN20031115182511011/15/03 18:25:31  5-MIN KMSN 160025Z 16005KT 5SM BR OVC010 05/03 A2995 830 89 -100 160/05 RMK AO2 CIG 007V012
14837KMSN MSN20031115183011011/15/03 18:30:31  5-MIN KMSN 160030Z 16005KT 5SM BR OVC010 05/03 A2996 830 89 -100 160/05 RMK AO2 CIG 007V012
14837KMSN MSN20031115183509811/15/03 18:35:31  5-MIN KMSN 160035Z 16004KT 5SM BR OVC010 05/03 A2996 830 89 -100 160/04 RMK AO2
14837KMSN MSN20031115184009811/15/03 18:40:31  5-MIN KMSN 160040Z 16004KT 5SM BR OVC010 05/03 A2996 830 89 -100 160/04 RMK AO2
14837KMSN MSN20031115184509811/15/03 18:45:31  5-MIN KMSN 160045Z 16005KT 5SM BR OVC010 05/03 A2996 830 89 -100 160/05 RMK AO2
14837KMSN MSN20031115185011511/15/03 18:50:31  5-MIN KMSN 160050Z 16005KT 5SM BR OVC010 05/03 A2996 830 89 -100 160/05 RMK AO2 SLP152 T00500033
14837KMSN MSN20031115185509811/15/03 18:55:31  5-MIN KMSN 160055Z 16005KT 5SM BR OVC010 05/03 A2996 830 89 -100 160/05 RMK AO2
14837KMSN MSN20031115190009811/15/03 19:00:31  5-MIN KMSN 160100Z 16004KT 5SM BR OVC010 05/03 A2996 830 89 -100 160/04 RMK AO2
14837KMSN MSN20031115190509811/15/03 19:05:31  5-MIN KMSN 160105Z 16004KT 5SM BR OVC010 05/03 A2996 830 89 -100 160/04 RMK AO2
14837KMSN MSN20031115191011011/15/03 19:10:31  5-MIN KMSN 160110Z 15005KT 5SM BR OVC010 05/03 A2996 830 89 -100 150/05 RMK AO2 CIG 007V012
14837KMSN MSN20031115191509811/15/03 19:15:31  5-MIN KMSN 160115Z 17006KT 5SM BR OVC008 05/04 A2996 830 92 -100 170/06 RMK AO2
14837KMSN MSN20031115192009511/15/03 19:20:31  5-MIN KMSN 160120Z 17006KT 5SM BR OVC008 06/04 A2996 830 89 0 170/06 RMK AO2
14837KMSN MSN20031115192511011/15/03 19:25:31  5-MIN KMSN 160125Z 17005KT 5SM BR OVC008 05/04 A2996 830 92 -100 170/05 RMK AO2 CIG 007V013
14837KMSN MSN20031115193010711/15/03 19:30:31  5-MIN KMSN 160130Z 17006KT 5SM BR OVC008 06/04 A2996 820 89 0 170/06 RMK AO2 CIG 007V013
14837KMSN MSN20031115193510711/15/03 19:35:31  5-MIN KMSN 160135Z 17007KT 5SM BR OVC010 06/04 A2996 820 89 0 170/07 RMK AO2 CIG 007V013
14837KMSN MSN20031115194010711/15/03 19:40:31  5-MIN KMSN 160140Z 18005KT 5SM BR OVC010 06/04 A2996 820 89 0 180/05 RMK AO2 CIG 007V013
14837KMSN MSN20031115194511011/15/03 19:45:31  5-MIN KMSN 160145Z 17007KT 5SM BR OVC010 05/03 A2997 820 89 -100 170/07 RMK AO2 CIG 007V013
14837KMSN MSN20031115195012711/15/03 19:50:31  5-MIN KMSN 160150Z 17005KT 5SM BR OVC010 05/03 A2997 820 89 -100 170/05 RMK AO2 CIG 007V013 SLP154 T00500033
14837KMSN MSN20031115195511011/15/03 19:55:31  5-MIN KMSN 160155Z 17005KT 5SM BR OVC010 05/04 A2997 820 92 -100 170/05 RMK AO2 CIG 007V013
14837KMSN MSN20031115200011011/15/03 20:00:31  5-MIN KMSN 160200Z 17005KT 5SM BR OVC010 05/04 A2997 820 92 -100 170/05 RMK AO2 CIG 007V013
14837KMSN MSN20031115200511011/15/03 20:05:31  5-MIN KMSN 160205Z 17006KT 5SM BR OVC010 05/04 A2997 820 92 -100 170/06 RMK AO2 CIG 007V012
14837KMSN MSN20031115201011011/15/03 20:10:31  5-MIN KMSN 160210Z 17005KT 5SM BR OVC010 05/04 A2997 820 92 -100 170/05 RMK AO2 CIG 007V012
14837KMSN MSN20031115201511011/15/03 20:15:31  5-MIN KMSN 160215Z 18006KT 5SM BR OVC010 05/04 A2998 810 92 -100 180/06 RMK AO2 CIG 007V012
14837KMSN MSN20031115202010711/15/03 20:20:31  5-MIN KMSN 160220Z 18006KT 5SM BR OVC010 06/04 A2998 810 89 0 180/06 RMK AO2 CIG 007V012
14837KMSN MSN20031115202511011/15/03 20:25:31  5-MIN KMSN 160225Z 17007KT 5SM BR OVC010 05/04 A2998 810 92 -100 170/07 RMK AO2 CIG 007V012
14837KMSN MSN20031115203011011/15/03 20:30:31  5-MIN KMSN 160230Z 18005KT 5SM BR OVC010 05/04 A2998 810 92 -100 180/05 RMK AO2 CIG 007V012
14837KMSN MSN20031115203511011/15/03 20:35:31  5-MIN KMSN 160235Z 17006KT 5SM BR OVC010 05/03 A2998 810 89 -100 170/06 RMK AO2 CIG 007V012
14837KMSN MSN20031115204011011/15/03 20:40:31  5-MIN KMSN 160240Z 17005KT 5SM BR OVC010 05/04 A2998 810 92 -100 160/05 RMK AO2 CIG 007V013
14837KMSN MSN20031115204511011/15/03 20:45:31  5-MIN KMSN 160245Z 16006KT 5SM BR OVC010 05/04 A2998 810 92 -100 160/06 RMK AO2 CIG 007V013
14837KMSN MSN20031115205013311/15/03 20:50:31  5-MIN KMSN 160250Z 17007KT 5SM BR OVC008 05/04 A2998 810 92 -100 170/07 RMK AO2 CIG 007V010 SLP158 T00500039 51008
14837KMSN MSN20031115205511011/15/03 20:55:31  5-MIN KMSN 160255Z 17005KT 5SM BR OVC008 05/04 A2998 810 92 -100 170/05 RMK AO2 CIG 007V010
14837KMSN MSN20031115210011011/15/03 21:00:31  5-MIN KMSN 160300Z 17004KT 5SM BR OVC008 05/04 A2998 810 92 -100 170/04 RMK AO2 CIG 007V010
14837KMSN MSN20031115210511011/15/03 21:05:31  5-MIN KMSN 160305Z 16004KT 4SM BR OVC008 05/04 A2997 810 92 -100 160/04 RMK AO2 CIG 007V010
14837KMSN MSN20031115211009811/15/03 21:10:31  5-MIN KMSN 160310Z 18004KT 4SM BR OVC008 05/04 A2998 810 92 -100 180/04 RMK AO2
14837KMSN MSN20031115211509811/15/03 21:15:31  5-MIN KMSN 160315Z 17004KT 4SM BR OVC008 05/04 A2998 810 92 -100 170/04 RMK AO2
14837KMSN MSN20031115212009811/15/03 21:20:31  5-MIN KMSN 160320Z 16004KT 4SM BR OVC008 05/04 A2998 810 92 -100 160/04 RMK AO2
14837KMSN MSN20031115212511011/15/03 21:25:31  5-MIN KMSN 160325Z 16004KT 4SM BR OVC008 05/04 A2998 810 92 -100 160/04 RMK AO2 CIG 007V010
14837KMSN MSN20031115213009811/15/03 21:30:31  5-MIN KMSN 160330Z 17005KT 4SM BR OVC008 05/04 A2997 810 92 -100 160/05 RMK AO2
14837KMSN MSN20031115213509811/15/03 21:35:31  5-MIN KMSN 160335Z 16004KT 4SM BR OVC008 05/04 A2997 810 92 -100 160/04 RMK AO2
14837KMSN MSN20031115214009811/15/03 21:40:31  5-MIN KMSN 160340Z 15004KT 4SM BR OVC008 05/04 A2997 810 92 -100 150/04 RMK AO2
14837KMSN MSN20031115214511011/15/03 21:45:31  5-MIN KMSN 160345Z 15003KT 4SM BR OVC008 05/04 A2997 820 92 -100 150/03 RMK AO2 CIG 006V010
14837KMSN MSN20031115215011511/15/03 21:50:31  5-MIN KMSN 160350Z 15004KT 4SM BR OVC008 05/04 A2997 820 92 -100 150/04 RMK AO2 SLP156 T00500039
14837KMSN MSN20031115215509811/15/03 21:55:31  5-MIN KMSN 160355Z 16004KT 4SM BR OVC008 05/04 A2997 820 92 -100 160/04 RMK AO2
14837KMSN MSN20031115220009811/15/03 22:00:31  5-MIN KMSN 160400Z 17003KT 4SM BR OVC008 05/04 A2997 820 92 -100 170/03 RMK AO2
14837KMSN MSN20031115220509811/15/03 22:05:31  5-MIN KMSN 160405Z 17004KT 4SM BR OVC008 05/04 A2998 810 92 -100 170/04 RMK AO2
14837KMSN MSN20031115221009811/15/03 22:10:31  5-MIN KMSN 160410Z 17005KT 4SM BR OVC008 05/04 A2998 810 92 -100 170/05 RMK AO2
14837KMSN MSN20031115221509811/15/03 22:15:31  5-MIN KMSN 160415Z 16005KT 4SM BR OVC008 05/04 A2998 810 92 -100 160/05 RMK AO2
14837KMSN MSN20031115222009811/15/03 22:20:31  5-MIN KMSN 160420Z 17004KT 4SM BR OVC008 05/04 A2998 810 92 -100 170/04 RMK AO2
14837KMSN MSN20031115222509811/15/03 22:25:31  5-MIN KMSN 160425Z 17005KT 4SM BR OVC008 05/04 A2998 810 92 -100 170/05 RMK AO2
14837KMSN MSN20031115223009811/15/03 22:30:31  5-MIN KMSN 160430Z 18004KT 4SM BR OVC008 05/04 A2998 810 92 -100 180/04 RMK AO2
14837KMSN MSN20031115223509811/15/03 22:35:31  5-MIN KMSN 160435Z 17005KT 4SM BR OVC008 05/04 A2998 810 92 -100 170/05 RMK AO2
14837KMSN MSN20031115224009811/15/03 22:40:31  5-MIN KMSN 160440Z 17004KT 4SM BR OVC008 05/04 A2998 810 92 -100 170/04 RMK AO2
14837KMSN MSN20031115224509811/15/03 22:45:31  5-MIN KMSN 160445Z 17004KT 4SM BR OVC008 05/04 A2998 810 92 -100 170/04 RMK AO2
14837KMSN MSN20031115225011511/15/03 22:50:31  5-MIN KMSN 160450Z 17005KT 4SM BR OVC008 05/04 A2998 810 92 -100 170/05 RMK AO2 SLP159 T00500039
14837KMSN MSN20031115225509811/15/03 22:55:31  5-MIN KMSN 160455Z 16004KT 4SM BR OVC008 05/04 A2998 810 92 -100 160/04 RMK AO2
14837KMSN MSN20031115230009811/15/03 23:00:31  5-MIN KMSN 160500Z 16005KT 4SM BR OVC008 05/04 A2998 810 92 -100 160/05 RMK AO2
14837KMSN MSN20031115230509811/15/03 23:05:31  5-MIN KMSN 160505Z 17005KT 4SM BR OVC008 05/04 A2998 810 92 -100 160/05 RMK AO2
14837KMSN MSN20031115231009811/15/03 23:10:31  5-MIN KMSN 160510Z 17005KT 4SM BR OVC008 05/04 A2998 810 92 -100 170/05 RMK AO2
14837KMSN MSN20031115231509811/15/03 23:15:31  5-MIN KMSN 160515Z 17005KT 4SM BR OVC008 05/04 A2998 810 92 -100 160/05 RMK AO2
14837KMSN MSN20031115232009811/15/03 23:20:31  5-MIN KMSN 160520Z 17005KT 4SM BR OVC008 05/04 A2998 810 92 -100 160/05 RMK AO2
14837KMSN MSN20031115232509811/15/03 23:25:31  5-MIN KMSN 160525Z 17005KT 4SM BR OVC008 05/04 A2998 810 92 -100 170/05 RMK AO2
14837KMSN MSN20031115233009811/15/03 23:30:31  5-MIN KMSN 160530Z 17004KT 4SM BR OVC006 05/04 A2998 810 92 -100 160/04 RMK AO2
14837KMSN MSN20031115233509811/15/03 23:35:31  5-MIN KMSN 160535Z 17005KT 4SM BR OVC006 05/04 A2998 810 92 -100 160/05 RMK AO2
14837KMSN MSN20031115234009811/15/03 23:40:31  5-MIN KMSN 160540Z 16005KT 4SM BR OVC006 05/04 A2998 810 92 -100 160/05 RMK AO2
14837KMSN MSN20031115234509811/15/03 23:45:31  5-MIN KMSN 160545Z 17005KT 4SM BR OVC006 05/04 A2998 810 92 -100 170/05 RMK AO2
14837KMSN MSN20031115235014311/15/03 23:50:31  5-MIN KMSN 160550Z 17003KT 4SM BR OVC006 05/04 A2998 810 92 -100 160/03 RMK AO2 SLP158 T00500039 10056 20050 400560039 51010
14837KMSN MSN20031115235509811/15/03 23:55:31  5-MIN KMSN 160555Z 17005KT 4SM BR OVC006 05/04 A2998 810 92 -100 170/05 RMK AO2
14837KMSN MSN20031116000009811/16/03 00:00:31  5-MIN KMSN 160600Z 16005KT 4SM BR OVC006 05/04 A2998 810 92 -100 160/05 RMK AO2
14837KMSN MSN20031116000509811/16/03 00:05:31  5-MIN KMSN 160605Z 16004KT 4SM BR OVC006 05/04 A2998 810 92 -100 160/04 RMK AO2
14837KMSN MSN20031116001009811/16/03 00:10:31  5-MIN KMSN 160610Z 16005KT 4SM BR OVC006 05/04 A2998 810 92 -100 160/05 RMK AO2
14837KMSN MSN20031116001509811/16/03 00:15:31  5-MIN KMSN 160615Z 15005KT 4SM BR OVC006 05/04 A2998 810 92 -100 150/05 RMK AO2
14837KMSN MSN20031116002009811/16/03 00:20:31  5-MIN KMSN 160620Z 15004KT 4SM BR OVC006 05/04 A2998 810 92 -100 150/04 RMK AO2
14837KMSN MSN20031116002509811/16/03 00:25:31  5-MIN KMSN 160625Z 15005KT 4SM BR OVC006 05/04 A2998 810 92 -100 150/05 RMK AO2
14837KMSN MSN20031116003009811/16/03 00:30:31  5-MIN KMSN 160630Z 15005KT 4SM BR OVC006 05/04 A2998 810 92 -100 150/05 RMK AO2
14837KMSN MSN20031116003509811/16/03 00:35:31  5-MIN KMSN 160635Z 16004KT 4SM BR OVC006 05/04 A2998 810 92 -100 160/04 RMK AO2
14837KMSN MSN20031116004009811/16/03 00:40:31  5-MIN KMSN 160640Z 16004KT 4SM BR OVC006 05/04 A2998 810 92 -100 160/04 RMK AO2
14837KMSN MSN20031116004509811/16/03 00:45:31  5-MIN KMSN 160645Z 16004KT 4SM BR OVC006 05/04 A2998 810 92 -100 160/04 RMK AO2
14837KMSN MSN20031116005011511/16/03 00:50:31  5-MIN KMSN 160650Z 15005KT 4SM BR OVC006 05/04 A2998 810 92 -100 150/05 RMK AO2 SLP157 T00500039
14837KMSN MSN20031116005509811/16/03 00:55:31  5-MIN KMSN 160655Z 16004KT 4SM BR OVC006 05/04 A2998 810 92 -100 150/04 RMK AO2
14837KMSN MSN20031116010009811/16/03 01:00:31  5-MIN KMSN 160700Z 15004KT 4SM BR OVC006 05/04 A2998 810 92 -100 150/04 RMK AO2
14837KMSN MSN20031116010509811/16/03 01:05:31  5-MIN KMSN 160705Z 16005KT 4SM BR OVC006 05/04 A2998 810 92 -100 160/05 RMK AO2
14837KMSN MSN20031116011009811/16/03 01:10:31  5-MIN KMSN 160710Z 16005KT 4SM BR OVC006 05/04 A2998 810 92 -100 160/05 RMK AO2
14837KMSN MSN20031116011509811/16/03 01:15:31  5-MIN KMSN 160715Z 16005KT 4SM BR OVC006 05/04 A2998 810 92 -100 160/05 RMK AO2
14837KMSN MSN20031116012009811/16/03 01:20:31  5-MIN KMSN 160720Z 16004KT 4SM BR OVC006 05/04 A2998 810 92 -100 160/04 RMK AO2
14837KMSN MSN20031116012509811/16/03 01:25:31  5-MIN KMSN 160725Z 16004KT 4SM BR OVC006 05/04 A2998 810 92 -100 160/04 RMK AO2
14837KMSN MSN20031116013009811/16/03 01:30:31  5-MIN KMSN 160730Z 17004KT 4SM BR OVC006 05/04 A2998 810 92 -100 160/04 RMK AO2
14837KMSN MSN20031116013509811/16/03 01:35:31  5-MIN KMSN 160735Z 16003KT 4SM BR OVC006 05/04 A2998 810 92 -100 160/03 RMK AO2
14837KMSN MSN20031116014009811/16/03 01:40:31  5-MIN KMSN 160740Z 16005KT 4SM BR OVC006 05/04 A2998 810 92 -100 160/05 RMK AO2
14837KMSN MSN20031116014509811/16/03 01:45:31  5-MIN KMSN 160745Z 16005KT 4SM BR OVC006 05/04 A2998 810 92 -100 160/05 RMK AO2
14837KMSN MSN20031116015011511/16/03 01:50:31  5-MIN KMSN 160750Z 16005KT 4SM BR OVC006 05/04 A2999 800 92 -100 160/05 RMK AO2 SLP160 T00500039
14837KMSN MSN20031116015509811/16/03 01:55:31  5-MIN KMSN 160755Z 16004KT 4SM BR OVC006 05/04 A2999 800 92 -100 160/04 RMK AO2
14837KMSN MSN20031116020009811/16/03 02:00:31  5-MIN KMSN 160800Z 16004KT 4SM BR OVC006 05/04 A2999 800 92 -100 160/04 RMK AO2
14837KMSN MSN20031116020509811/16/03 02:05:31  5-MIN KMSN 160805Z 16005KT 4SM BR OVC006 05/04 A2999 800 92 -100 160/05 RMK AO2
14837KMSN MSN20031116021009811/16/03 02:10:31  5-MIN KMSN 160810Z 16005KT 4SM BR OVC006 05/04 A2999 800 92 -100 160/05 RMK AO2
14837KMSN MSN20031116021509811/16/03 02:15:31  5-MIN KMSN 160815Z 17005KT 4SM BR OVC006 05/04 A2999 800 92 -100 160/05 RMK AO2
14837KMSN MSN20031116022009811/16/03 02:20:31  5-MIN KMSN 160820Z 16005KT 4SM BR OVC006 05/04 A2999 800 92 -100 160/05 RMK AO2
14837KMSN MSN20031116022509811/16/03 02:25:31  5-MIN KMSN 160825Z 17005KT 4SM BR OVC006 05/04 A2999 800 92 -100 160/05 RMK AO2
14837KMSN MSN20031116023009811/16/03 02:30:31  5-MIN KMSN 160830Z 17006KT 4SM BR OVC006 05/04 A2999 800 92 -100 160/06 RMK AO2
14837KMSN MSN20031116023511011/16/03 02:35:31  5-MIN KMSN 160835Z 17005KT 4SM BR OVC006 05/04 A2998 810 92 -100 160/05 RMK AO2 CIG 005V009
14837KMSN MSN20031116024009811/16/03 02:40:31  5-MIN KMSN 160840Z 17004KT 4SM BR OVC006 05/04 A2998 810 92 -100 170/04 RMK AO2
14837KMSN MSN20031116024511011/16/03 02:45:31  5-MIN KMSN 160845Z 17005KT 4SM BR OVC006 05/04 A2998 810 92 -100 170/05 RMK AO2 CIG 004V009
14837KMSN MSN20031116025012811/16/03 02:50:31  5-MIN KMSN 160850Z 17004KT 4SM BR BKN006 OVC009 05/04 A2998 810 92 -100 170/04 RMK AO2 SLP158 T00500039 53000
14837KMSN MSN20031116025511011/16/03 02:55:31  5-MIN KMSN 160855Z 17004KT 4SM BR OVC006 05/04 A2998 810 92 -100 170/04 RMK AO2 CIG 004V010
14837KMSN MSN20031116030010511/16/03 03:00:31  5-MIN KMSN 160900Z 16003KT 4SM BR BKN006 OVC009 05/04 A2998 810 92 -100 160/03 RMK AO2
14837KMSN MSN20031116030510511/16/03 03:05:31  5-MIN KMSN 160905Z 16003KT 4SM BR BKN006 OVC009 05/04 A2998 810 92 -100 160/03 RMK AO2
14837KMSN MSN20031116031010511/16/03 03:10:31  5-MIN KMSN 160910Z 16004KT 4SM BR BKN006 OVC009 05/04 A2998 810 92 -100 160/04 RMK AO2
14837KMSN MSN20031116031509811/16/03 03:15:31  5-MIN KMSN 160915Z 16003KT 3SM BR OVC006 05/04 A2998 810 92 -100 150/03 RMK AO2
14837KMSN MSN20031116032009811/16/03 03:20:31  5-MIN KMSN 160920Z 15003KT 3SM BR OVC006 05/04 A2998 810 96 -100 150/03 RMK AO2
14837KMSN MSN20031116032511411/16/03 03:25:31  5-MIN KMSN 160925Z 00000KT 3SM -DZ BR OVC006 05/04 A2998 810 96 -100 000/00 RMK AO2 DZB21 P0000
14837KMSN MSN20031116033011411/16/03 03:30:31  5-MIN KMSN 160930Z 13003KT 3SM -DZ BR OVC006 05/04 A2998 810 92 -100 130/03 RMK AO2 DZB21 P0000
14837KMSN MSN20031116033512611/16/03 03:35:31  5-MIN KMSN 160935Z 14004KT 3SM -DZ BR OVC006 05/04 A2998 810 92 -100 140/04 RMK AO2 DZB21 CIG 004V008 P0000
14837KMSN MSN20031116034011811/16/03 03:40:31  5-MIN KMSN 160940Z 15004KT 2 1/2SM -DZ BR OVC006 05/04 A2998 810 96 -100 150/04 RMK AO2 DZB21 P0000
14837KMSN MSN20031116034511811/16/03 03:45:31  5-MIN KMSN 160945Z 16003KT 2 1/2SM -DZ BR OVC006 05/04 A2998 810 96 -100 150/03 RMK AO2 DZB21 P0000
14837KMSN MSN20031116035013511/16/03 03:50:31  5-MIN KMSN 160950Z 00000KT 2 1/2SM -DZ BR OVC006 05/04 A2998 810 96 -100 000/00 RMK AO2 DZB21 SLP157 P0000 T00500044
14837KMSN MSN20031116035511211/16/03 03:55:31  5-MIN KMSN 160955Z 11003KT 2 1/2SM -DZ BR OVC006 05/04 A2998 810 96 -100 110/03 RMK AO2 P0000
14837KMSN MSN20031116040011211/16/03 04:00:31  5-MIN KMSN 161000Z 11004KT 2 1/2SM -DZ BR OVC006 05/04 A2998 810 96 -100 110/04 RMK AO2 P0000
14837KMSN MSN20031116040511211/16/03 04:05:31  5-MIN KMSN 161005Z 10003KT 2 1/2SM -DZ BR OVC006 05/04 A2998 810 96 -100 100/03 RMK AO2 P0000
14837KMSN MSN20031116041011211/16/03 04:10:31  5-MIN KMSN 161010Z 11004KT 2 1/2SM -DZ BR OVC006 05/04 A2998 810 96 -100 110/04 RMK AO2 P0000
14837KMSN MSN20031116041511211/16/03 04:15:31  5-MIN KMSN 161015Z 11003KT 2 1/2SM -DZ BR OVC004 05/04 A2998 810 96 -100 110/03 RMK AO2 P0000
14837KMSN MSN20031116042011211/16/03 04:20:31  5-MIN KMSN 161020Z 11003KT 2 1/2SM -DZ BR OVC004 05/04 A2998 800 96 -100 110/03 RMK AO2 P0000
14837KMSN MSN20031116042511211/16/03 04:25:31  5-MIN KMSN 161025Z 10004KT 2 1/2SM -DZ BR OVC004 05/04 A2998 800 96 -100 100/04 RMK AO2 P0000
14837KMSN MSN20031116043010811/16/03 04:30:31  5-MIN KMSN 161030Z 10003KT 2SM -DZ BR OVC004 05/04 A2998 800 96 -100 100/03 RMK AO2 P0000
14837KMSN MSN20031116043510811/16/03 04:35:31  5-MIN KMSN 161035Z 11003KT 2SM -DZ BR OVC004 05/04 A2999 800 96 -100 110/03 RMK AO2 P0000
14837KMSN MSN20031116044011211/16/03 04:40:31  5-MIN KMSN 161040Z 11004KT 1 1/2SM -DZ BR OVC004 05/04 A2999 800 96 -100 110/04 RMK AO2 P0000
14837KMSN MSN20031116044511211/16/03 04:45:31  5-MIN KMSN 161045Z 11003KT 1 1/2SM -DZ BR OVC004 05/04 A2999 800 96 -100 110/03 RMK AO2 P0000
14837KMSN MSN20031116045012911/16/03 04:50:31  5-MIN KMSN 161050Z 10003KT 1 1/2SM -DZ BR OVC004 05/04 A2999 800 96 -100 100/03 RMK AO2 SLP162 P0000 T00500044
14837KMSN MSN20031116045511211/16/03 04:55:31  5-MIN KMSN 161055Z 10003KT 1 3/4SM -DZ BR OVC004 05/04 A2999 800 96 -100 100/03 RMK AO2 P0000
14837KMSN MSN20031116050012411/16/03 05:00:31  5-MIN KMSN 161100Z 10003KT 1 3/4SM -DZ BR OVC002 05/04 A2999 800 96 -100 090/03 RMK AO2 CIG 001V006 P0000
14837KMSN MSN20031116050511211/16/03 05:05:31  5-MIN KMSN 161105Z 11003KT 1 3/4SM -DZ BR OVC002 05/04 A2999 800 96 -100 110/03 RMK AO2 P0000
14837KMSN MSN20031116051011411/16/03 05:10:31  5-MIN KMSN 161110Z 00000KT 1 3/4SM BR OVC002 05/04 A2999 800 96 -100 000/00 RMK AO2 DZE06 P0000
14837KMSN MSN20031116051511411/16/03 05:15:31  5-MIN KMSN 161115Z 09003KT 1 3/4SM BR OVC002 05/04 A2999 800 96 -100 090/03 RMK AO2 DZE06 P0000
14837KMSN MSN20031116052011411/16/03 05:20:31  5-MIN KMSN 161120Z 10003KT 1 1/2SM BR OVC002 05/04 A2999 800 96 -100 100/03 RMK AO2 DZE06 P0000
14837KMSN MSN20031116052511411/16/03 05:25:31  5-MIN KMSN 161125Z 00000KT 1 1/2SM BR OVC002 05/04 A2999 800 96 -100 000/00 RMK AO2 DZE06 P0000
14837KMSN MSN20031116053011411/16/03 05:30:31  5-MIN KMSN 161130Z 00000KT 1 1/2SM BR OVC002 05/04 A2999 800 96 -100 000/00 RMK AO2 DZE06 P0000
14837KMSN MSN20031116053511411/16/03 05:35:31  5-MIN KMSN 161135Z 07003KT 1 1/2SM BR OVC002 05/04 A2999 800 96 -100 060/03 RMK AO2 DZE06 P0000
14837KMSN MSN20031116054012111/16/03 05:40:31  5-MIN KMSN 161140Z 07003KT 1 1/2SM -DZ BR OVC002 05/04 A2999 800 96 -100 070/03 RMK AO2 DZE06B36 P0000
14837KMSN MSN20031116054512111/16/03 05:45:31  5-MIN KMSN 161145Z 07003KT 1 1/2SM -DZ BR OVC002 05/04 A3000 790 96 -100 070/03 RMK AO2 DZE06B36 P0000
14837KMSN MSN20031116055015711/16/03 05:50:31  5-MIN KMSN 161150Z 07003KT 1SM BR OVC002 05/04 A3000 790 96 -100 070/03 RMK AO2 DZE06B36E48 SLP165 P0000 60000 T00500044 10050 20050 50001
14837KMSN MSN20031116055510511/16/03 05:55:31  5-MIN KMSN 161155Z 07003KT 3/4SM BCFG BR OVC002 05/04 A3000 790 96 -100 070/03 RMK AO2
14837KMSN MSN20031116060010611/16/03 06:00:31  5-MIN KMSN 161200Z 06003KT 3/4SM BCFG BR OVC002 04/04 A3000 790 100 -200 060/03 RMK AO2
14837KMSN MSN20031116060510611/16/03 06:05:31  5-MIN KMSN 161205Z 06003KT 3/4SM BCFG BR OVC002 04/04 A3000 790 100 -200 060/03 RMK AO2
14837KMSN MSN20031116061011211/16/03 06:10:31  5-MIN KMSN 161210Z 06003KT 1/2SM FG VV001 04/04 A3000 790 100 -200 060/03 RMK AO2 TWR VIS 3/4
14837KMSN MSN20031116061511211/16/03 06:15:31  5-MIN KMSN 161215Z 07003KT 1/4SM FG VV001 04/04 A3000 790 100 -200 060/03 RMK AO2 TWR VIS 1/2
14837KMSN MSN20031116062011211/16/03 06:20:31  5-MIN KMSN 161220Z 00000KT 1/4SM FG VV001 04/04 A3000 790 100 -200 000/00 RMK AO2 TWR VIS 1/2
14837KMSN MSN20031116062510011/16/03 06:25:31  5-MIN KMSN 161225Z 05003KT 1/2SM FG VV001 04/04 A3001 790 100 -200 050/03 RMK AO2
14837KMSN MSN20031116063010011/16/03 06:30:31  5-MIN KMSN 161230Z 05003KT 1/2SM FG VV001 04/04 A3001 790 100 -200 050/03 RMK AO2
14837KMSN MSN20031116063510011/16/03 06:35:31  5-MIN KMSN 161235Z 05003KT 1/2SM FG VV001 04/04 A3001 780 100 -200 050/03 RMK AO2
14837KMSN MSN20031116064010011/16/03 06:40:31  5-MIN KMSN 161240Z 00000KT 1/2SM FG VV001 04/04 A3001 780 100 -200 000/00 RMK AO2
14837KMSN MSN20031116064510011/16/03 06:45:31  5-MIN KMSN 161245Z 00000KT 1/2SM FG VV001 04/04 A3001 780 100 -200 000/00 RMK AO2
14837KMSN MSN20031116065011711/16/03 06:50:31  5-MIN KMSN 161250Z 00000KT 1/2SM FG VV001 04/04 A3001 780 100 -200 000/00 RMK AO2 SLP170 T00440044
14837KMSN MSN20031116065511211/16/03 06:55:31  5-MIN KMSN 161255Z 00000KT 1/4SM FG VV001 04/04 A3001 780 100 -200 000/00 RMK AO2 SFC VIS 1/2
14837KMSN MSN20031116070010011/16/03 07:00:31  5-MIN KMSN 161300Z 00000KT 1/2SM FG VV001 04/04 A3002 780 100 -200 000/00 RMK AO2
14837KMSN MSN20031116070511211/16/03 07:05:31  5-MIN KMSN 161305Z 10003KT 1/2SM FG VV001 04/04 A3002 770 100 -200 090/03 RMK AO2 SFC VIS 3/4
14837KMSN MSN20031116071011811/16/03 07:10:31  5-MIN KMSN 161310Z 00000KT 1/2SM BCFG BR OVC001 04/04 A3002 770 100 -200 000/00 RMK AO2 SFC VIS 3/4
14837KMSN MSN20031116071511711/16/03 07:15:31  5-MIN KMSN 161315Z 00000KT 1/2SM BCFG BR OVC001 05/04 A3002 770 96 -200 000/00 RMK AO2 SFC VIS 3/4
14837KMSN MSN20031116072011711/16/03 07:20:31  5-MIN KMSN 161320Z 09003KT 1/2SM BCFG BR OVC001 05/04 A3002 770 96 -200 080/03 RMK AO2 SFC VIS 3/4
14837KMSN MSN20031116072511711/16/03 07:25:31  5-MIN KMSN 161325Z 00000KT 1/2SM BCFG BR OVC001 05/04 A3002 770 96 -200 000/00 RMK AO2 SFC VIS 3/4
14837KMSN MSN20031116073011811/16/03 07:30:31  5-MIN KMSN 161330Z 05003KT 1/2SM BCFG BR OVC001 04/04 A3003 770 100 -200 050/03 RMK AO2 SFC VIS 3/4
14837KMSN MSN20031116073511811/16/03 07:35:31  5-MIN KMSN 161335Z 03004KT 1/2SM BCFG BR OVC001 04/04 A3003 770 100 -200 030/04 RMK AO2 SFC VIS 3/4
14837KMSN MSN20031116074011711/16/03 07:40:31  5-MIN KMSN 161340Z 04004KT 1/2SM -DZ FG OVC001 04/04 A3003 770 100 -200 040/04 RMK AO2 DZB39 P0000
14837KMSN MSN20031116074511711/16/03 07:45:31  5-MIN KMSN 161345Z 04003KT 1/2SM -DZ FG OVC001 04/04 A3003 760 100 -200 040/03 RMK AO2 DZB39 P0000
14837KMSN MSN20031116075013411/16/03 07:50:31  5-MIN KMSN 161350Z 05003KT 1/2SM -DZ FG OVC001 04/04 A3003 760 100 -200 050/03 RMK AO2 DZB39 SLP176 P0000 T00440044
14837KMSN MSN20031116075511111/16/03 07:55:31  5-MIN KMSN 161355Z 05004KT 1/2SM -DZ FG OVC001 04/04 A3003 760 100 -200 050/04 RMK AO2 P0000
14837KMSN MSN20031116080011111/16/03 08:00:31  5-MIN KMSN 161400Z 05004KT 1/2SM -DZ FG OVC001 04/04 A3003 760 100 -200 050/04 RMK AO2 P0000
14837KMSN MSN20031116080511111/16/03 08:05:31  5-MIN KMSN 161405Z 05004KT 1/2SM -DZ FG OVC001 04/04 A3003 760 100 -200 040/04 RMK AO2 P0000
14837KMSN MSN20031116081011111/16/03 08:10:31  5-MIN KMSN 161410Z 05004KT 1/2SM -DZ FG OVC001 04/04 A3003 760 100 -200 050/04 RMK AO2 P0000
14837KMSN MSN20031116081511111/16/03 08:15:31  5-MIN KMSN 161415Z 06004KT 1/2SM -DZ FG OVC001 04/04 A3004 760 100 -200 060/04 RMK AO2 P0000
14837KMSN MSN20031116082011011/16/03 08:20:31  5-MIN KMSN 161420Z 07004KT 1/2SM -DZ FG OVC001 05/04 A3004 760 96 -200 070/04 RMK AO2 P0000
14837KMSN MSN20031116082511011/16/03 08:25:31  5-MIN KMSN 161425Z 06003KT 1/2SM -DZ FG OVC001 05/04 A3004 750 96 -200 060/03 RMK AO2 P0000
14837KMSN MSN20031116083011011/16/03 08:30:31  5-MIN KMSN 161430Z 00000KT 1/2SM -DZ FG OVC001 05/04 A3004 750 96 -200 000/00 RMK AO2 P0000
14837KMSN MSN20031116083512111/16/03 08:35:31  5-MIN KMSN 161435Z 00000KT 1/2SM -RA FG OVC001 05/04 A3004 750 96 -200 000/00 RMK AO2 DZE35RAB35 P0000
14837KMSN MSN20031116084012111/16/03 08:40:31  5-MIN KMSN 161440Z 04003KT 1/2SM -RA FG OVC001 05/04 A3004 750 96 -200 040/03 RMK AO2 DZE35RAB35 P0000
14837KMSN MSN20031116084512111/16/03 08:45:31  5-MIN KMSN 161445Z 05004KT 1/2SM -RA FG OVC001 05/04 A3004 750 96 -200 050/04 RMK AO2 DZE35RAB35 P0000
14837KMSN MSN20031116085016211/16/03 08:50:31  5-MIN KMSN 161450Z 05004KT 1/2SM -RA FG OVC001 05/04 A3005 750 96 -200 050/04 RMK AO2 SFC VIS 3/4 DZE35RAB35 SLP181 P0000 60000 T00500044 53006
14837KMSN MSN20031116085512211/16/03 08:55:31  5-MIN KMSN 161455Z 05004KT 1/2SM -RA BR OVC001 05/04 A3005 750 96 -200 050/04 RMK AO2 SFC VIS 3/4 P0000
14837KMSN MSN20031116090012211/16/03 09:00:31  5-MIN KMSN 161500Z 05004KT 1/2SM -RA BR OVC001 05/04 A3005 750 96 -200 050/04 RMK AO2 SFC VIS 3/4 P0001
14837KMSN MSN20031116090512211/16/03 09:05:31  5-MIN KMSN 161505Z 05003KT 1/2SM -RA BR OVC001 05/04 A3005 750 96 -200 050/03 RMK AO2 SFC VIS 3/4 P0001
14837KMSN MSN20031116091012211/16/03 09:10:31  5-MIN KMSN 161510Z 06003KT 1/2SM -RA BR OVC001 05/04 A3005 740 96 -200 060/03 RMK AO2 SFC VIS 3/4 P0001
14837KMSN MSN20031116091512211/16/03 09:15:31  5-MIN KMSN 161515Z 07003KT 1/2SM -RA BR OVC001 05/04 A3005 740 96 -200 070/03 RMK AO2 SFC VIS 3/4 P0001
14837KMSN MSN20031116095513711/16/03 09:55:31  5-MIN KMSN 161555Z 08004KT 1SM -RA BR BKN003 OVC008 06/05 A3005 740 96 -100 080/04 RMK AO2 SFC VIS 3 CIG 002V006 P0000
14837KMSN MSN20031116100014111/16/03 10:00:31  5-MIN KMSN 161600Z 09004KT 1SM -RA BR BKN005 OVC040 06/05 A3005 740 96 -100 090/04 RMK AO2 SFC VIS 1 3/4 CIG 002V008 P0000
14837KMSN MSN20031116100514511/16/03 10:05:31  5-MIN KMSN 161605Z 09004KT 1 1/2SM -RA BR BKN005 OVC041 06/05 A3006 740 93 -100 090/04 RMK AO2 SFC VIS 1 3/4 CIG 003V008 P0001
14837KMSN MSN20031116101013311/16/03 10:10:31  5-MIN KMSN 161610Z 08004KT 1 1/2SM -RA BR BKN005 OVC041 06/05 A3006 740 93 -100 080/04 RMK AO2 SFC VIS 1 3/4 P0001
14837KMSN MSN20031116101514511/16/03 10:15:31  5-MIN KMSN 161615Z 07003KT 1 1/2SM -RA BR BKN005 OVC041 06/04 A3006 740 92 -100 070/03 RMK AO2 SFC VIS 1 3/4 CIG 003V008 P0001
14837KMSN MSN20031116102014311/16/03 10:20:31  5-MIN KMSN 161620Z 07004KT 1 1/2SM BR BKN005 OVC041 06/05 A3006 740 93 -100 070/04 RMK AO2 SFC VIS 2 RAE20 CIG 003V008 P0001
14837KMSN MSN20031116102513111/16/03 10:25:31  5-MIN KMSN 161625Z 09003KT 1 1/2SM BR BKN005 OVC050 06/05 A3005 740 93 -100 090/03 RMK AO2 SFC VIS 2 RAE20 P0001
14837KMSN MSN20031116103012411/16/03 10:30:31  5-MIN KMSN 161630Z 07003KT 2SM BR OVC005 06/05 A3006 740 93 -100 070/03 RMK AO2 TWR VIS 2 1/2 RAE20 P0001
14837KMSN MSN20031116103514311/16/03 10:35:31  5-MIN KMSN 161635Z 00000KT 2 1/2SM BR BKN005 OVC012 06/05 A3005 740 93 -100 000/00 RMK AO2 SFC VIS 3 RAE35 CIG 004V009 P0001
14837KMSN MSN20031116104014311/16/03 10:40:31  5-MIN KMSN 161640Z 11003KT 2 1/2SM BR BKN005 OVC012 06/05 A3006 740 93 -100 110/03 RMK AO2 SFC VIS 3 RAE35 CIG 004V009 P0001
14837KMSN MSN20031116104514311/16/03 10:45:31  5-MIN KMSN 161645Z 11004KT 2 1/2SM BR BKN005 OVC011 06/04 A3006 740 89 -100 110/04 RMK AO2 SFC VIS 3 RAE35 CIG 004V009 P0001
14837KMSN MSN20031116105016011/16/03 10:50:31  5-MIN KMSN 161650Z 00000KT 2 1/2SM BR BKN005 OVC011 06/05 A3006 740 93 -100 000/00 RMK AO2 SFC VIS 4 RAE35 CIG 004V009 SLP184 P0001 T00610050
14837KMSN MSN20031116105512711/16/03 10:55:31  5-MIN KMSN 161655Z 00000KT 3SM BR BKN005 OVC013 06/04 A3005 740 89 -100 000/00 RMK AO2 SFC VIS 5 CIG 004V009
14837KMSN MSN20031116110011511/16/03 11:00:31  5-MIN KMSN 161700Z 00000KT 3SM BR SCT005 OVC013 06/04 A3005 740 89 -100 000/00 RMK AO2 SFC VIS 4
14837KMSN MSN20031116110512211/16/03 11:05:31  5-MIN KMSN 161705Z 00000KT 3SM BR FEW005 BKN013 OVC031 06/04 A3005 750 89 -100 000/00 RMK AO2 SFC VIS 4
14837KMSN MSN20031116111012211/16/03 11:10:31  5-MIN KMSN 161710Z 00000KT 3SM BR FEW005 BKN013 OVC029 06/04 A3005 750 89 -100 000/00 RMK AO2 SFC VIS 5
14837KMSN MSN20031116111512211/16/03 11:15:31  5-MIN KMSN 161715Z 00000KT 3SM BR BKN011 BKN018 OVC029 06/04 A3005 750 89 -100 000/00 RMK AO2 SFC VIS 5
14837KMSN MSN20031116112011711/16/03 11:20:31  5-MIN KMSN 161720Z 00000KT 6SM BR BKN009 OVC016 06/04 A3005 750 89 -100 000/00 RMK AO2 CIG 007V011
14837KMSN MSN20031116112511711/16/03 11:25:31  5-MIN KMSN 161725Z 00000KT 6SM BR BKN009 OVC018 06/04 A3005 750 89 -100 000/00 RMK AO2 CIG 008V013
14837KMSN MSN20031116113011411/16/03 11:30:31  5-MIN KMSN 161730Z 00000KT 6SM BR BKN009 OVC018 07/04 A3004 750 86 0 000/00 RMK AO2 CIG 008V012
14837KMSN MSN20031116113512111/16/03 11:35:31  5-MIN KMSN 161735Z 00000KT 6SM BR BKN009 BKN017 OVC022 07/04 A3004 750 86 0 000/00 RMK AO2 CIG 008V014
14837KMSN MSN20031116114011111/16/03 11:40:31  5-MIN KMSN 161740Z 00000KT 7SM BKN009 OVC014 07/04 A3004 750 86 0 000/00 RMK AO2 CIG 008V012
14837KMSN MSN20031116114510611/16/03 11:45:31  5-MIN KMSN 161745Z 00000KT 7SM SCT009 BKN014 OVC022 07/04 A3004 750 86 0 000/00 RMK AO2
14837KMSN MSN20031116115014711/16/03 11:50:31  5-MIN KMSN 161750Z 00000KT 7SM BKN011 BKN016 OVC035 07/04 A3005 750 86 0 000/00 RMK AO2 SLP180 60002 T00670044 10067 20044 52016
14837KMSN MSN20031116115510611/16/03 11:55:31  5-MIN KMSN 161755Z 00000KT 7SM BKN013 BKN022 OVC037 07/04 A3005 750 86 0 000/00 RMK AO2
14837KMSN MSN20031116120010611/16/03 12:00:31  5-MIN KMSN 161800Z VRB03KT 8SM BKN013 BKN022 OVC037 07/04 A3004 750 86 0 VRB/03 RMK AO2
14837KMSN MSN20031116120510611/16/03 12:05:31  5-MIN KMSN 161805Z 00000KT 8SM BKN011 BKN019 OVC037 07/04 A3005 750 82 0 000/00 RMK AO2
14837KMSN MSN20031116121009911/16/03 12:10:31  5-MIN KMSN 161810Z 00000KT 8SM BKN013 OVC037 07/04 A3004 750 86 0 000/00 RMK AO2
14837KMSN MSN20031116121509911/16/03 12:15:31  5-MIN KMSN 161815Z 00000KT 8SM SCT011 OVC037 07/04 A3004 750 82 0 000/00 RMK AO2
14837KMSN MSN20031116122009911/16/03 12:20:31  5-MIN KMSN 161820Z 00000KT 8SM SCT011 OVC037 07/04 A3004 750 82 0 000/00 RMK AO2
14837KMSN MSN20031116122509911/16/03 12:25:31  5-MIN KMSN 161825Z 00000KT 7SM FEW011 OVC035 07/04 A3004 750 86 0 000/00 RMK AO2
14837KMSN MSN20031116123009911/16/03 12:30:31  5-MIN KMSN 161830Z 00000KT 7SM FEW011 OVC035 07/04 A3004 750 86 0 000/00 RMK AO2
14837KMSN MSN20031116123509911/16/03 12:35:31  5-MIN KMSN 161835Z 00000KT 7SM SCT011 OVC037 07/04 A3004 760 86 0 000/00 RMK AO2
14837KMSN MSN20031116124009911/16/03 12:40:31  5-MIN KMSN 161840Z 00000KT 7SM SCT011 OVC035 07/04 A3004 760 86 0 000/00 RMK AO2
14837KMSN MSN20031116124509911/16/03 12:45:31  5-MIN KMSN 161845Z 00000KT 8SM SCT011 OVC035 07/04 A3004 760 82 0 000/00 RMK AO2
14837KMSN MSN20031116125011611/16/03 12:50:31  5-MIN KMSN 161850Z 00000KT 8SM FEW011 OVC035 07/04 A3004 760 86 0 000/00 RMK AO2 SLP177 T00670044
14837KMSN MSN20031116125509911/16/03 12:55:31  5-MIN KMSN 161855Z 00000KT 7SM FEW011 OVC035 07/04 A3004 760 86 0 000/00 RMK AO2
14837KMSN MSN20031116130009911/16/03 13:00:31  5-MIN KMSN 161900Z 00000KT 7SM SCT011 OVC035 07/04 A3003 760 86 0 000/00 RMK AO2
14837KMSN MSN20031116130509911/16/03 13:05:31  5-MIN KMSN 161905Z 00000KT 7SM BKN011 OVC035 07/04 A3003 760 86 0 000/00 RMK AO2
14837KMSN MSN20031116131009911/16/03 13:10:31  5-MIN KMSN 161910Z 00000KT 7SM BKN011 OVC035 07/04 A3004 760 86 0 000/00 RMK AO2
14837KMSN MSN20031116131509911/16/03 13:15:31  5-MIN KMSN 161915Z 00000KT 7SM BKN011 OVC035 07/04 A3003 760 86 0 000/00 RMK AO2
14837KMSN MSN20031116132009911/16/03 13:20:31  5-MIN KMSN 161920Z 00000KT 7SM BKN011 OVC032 07/04 A3003 760 86 0 000/00 RMK AO2
14837KMSN MSN20031116132509911/16/03 13:25:31  5-MIN KMSN 161925Z 00000KT 7SM BKN011 OVC030 07/04 A3003 760 86 0 000/00 RMK AO2
14837KMSN MSN20031116133010611/16/03 13:30:31  5-MIN KMSN 161930Z 00000KT 7SM SCT011 BKN030 OVC035 07/04 A3003 760 86 0 000/00 RMK AO2
14837KMSN MSN20031116133510611/16/03 13:35:31  5-MIN KMSN 161935Z 00000KT 7SM SCT011 BKN030 OVC035 07/04 A3003 760 86 0 000/00 RMK AO2
14837KMSN MSN20031116134009911/16/03 13:40:31  5-MIN KMSN 161940Z 00000KT 7SM SCT011 OVC035 07/04 A3003 760 86 0 000/00 RMK AO2
14837KMSN MSN20031116134510611/16/03 13:45:31  5-MIN KMSN 161945Z 00000KT 7SM SCT011 SCT028 OVC033 07/04 A3003 760 86 0 000/00 RMK AO2
14837KMSN MSN20031116135011611/16/03 13:50:31  5-MIN KMSN 161950Z 00000KT 8SM FEW011 OVC033 07/04 A3003 760 86 0 000/00 RMK AO2 SLP176 T00670044
14837KMSN MSN20031116135509911/16/03 13:55:31  5-MIN KMSN 161955Z 00000KT 8SM SCT011 OVC033 07/04 A3003 760 86 0 000/00 RMK AO2
14837KMSN MSN20031116140009911/16/03 14:00:31  5-MIN KMSN 162000Z 00000KT 8SM SCT011 OVC033 07/04 A3003 760 86 0 000/00 RMK AO2
14837KMSN MSN20031116140509911/16/03 14:05:31  5-MIN KMSN 162005Z 00000KT 8SM SCT013 OVC033 07/04 A3003 760 82 0 000/00 RMK AO2
14837KMSN MSN20031116141009911/16/03 14:10:31  5-MIN KMSN 162010Z 00000KT 9SM FEW013 OVC033 07/04 A3003 760 82 0 000/00 RMK AO2
14837KMSN MSN20031116141509911/16/03 14:15:31  5-MIN KMSN 162015Z 00000KT 9SM FEW013 OVC033 07/04 A3004 760 82 0 000/00 RMK AO2
14837KMSN MSN20031116142009911/16/03 14:20:31  5-MIN KMSN 162020Z 00000KT 9SM FEW013 OVC033 07/04 A3004 760 82 0 000/00 RMK AO2
14837KMSN MSN20031116142509911/16/03 14:25:31  5-MIN KMSN 162025Z 00000KT 9SM FEW013 OVC033 07/04 A3004 760 82 0 000/00 RMK AO2
14837KMSN MSN20031116143009211/16/03 14:30:31  5-MIN KMSN 162030Z 00000KT 9SM OVC033 07/03 A3004 750 79 0 000/00 RMK AO2
14837KMSN MSN20031116143509211/16/03 14:35:31  5-MIN KMSN 162035Z 00000KT 9SM OVC031 07/04 A3004 750 82 0 000/00 RMK AO2
14837KMSN MSN20031116144009211/16/03 14:40:31  5-MIN KMSN 162040Z 00000KT 9SM OVC031 07/04 A3004 750 82 0 000/00 RMK AO2
14837KMSN MSN20031116144509211/16/03 14:45:31  5-MIN KMSN 162045Z 00000KT 8SM OVC031 07/04 A3005 750 82 0 000/00 RMK AO2
14837KMSN MSN20031116145011511/16/03 14:50:31  5-MIN KMSN 162050Z 00000KT 9SM OVC031 07/04 A3005 750 82 0 000/00 RMK AO2 SLP180 T00670039 50000
14837KMSN MSN20031116145509211/16/03 14:55:31  5-MIN KMSN 162055Z 22003KT 9SM OVC029 07/03 A3005 750 79 0 220/03 RMK AO2
14837KMSN MSN20031116150009211/16/03 15:00:31  5-MIN KMSN 162100Z 00000KT 9SM OVC029 07/03 A3005 750 79 0 000/00 RMK AO2
14837KMSN MSN20031116150509311/16/03 15:05:31  5-MIN KMSN 162105Z 00000KT 10SM OVC029 07/03 A3005 740 79 0 000/00 RMK AO2
14837KMSN MSN20031116151009311/16/03 15:10:31  5-MIN KMSN 162110Z 00000KT 10SM OVC029 07/03 A3005 740 79 0 000/00 RMK AO2
14837KMSN MSN20031116151509211/16/03 15:15:31  5-MIN KMSN 162115Z 00000KT 9SM OVC029 07/04 A3005 740 82 0 000/00 RMK AO2
14837KMSN MSN20031116152009211/16/03 15:20:31  5-MIN KMSN 162120Z 00000KT 8SM OVC029 07/04 A3006 740 82 0 000/00 RMK AO2
14837KMSN MSN20031116152509211/16/03 15:25:31  5-MIN KMSN 162125Z 00000KT 8SM OVC029 07/04 A3006 740 82 0 000/00 RMK AO2
14837KMSN MSN20031116153009211/16/03 15:30:31  5-MIN KMSN 162130Z 18004KT 8SM OVC029 07/04 A3006 740 82 0 180/04 RMK AO2
14837KMSN MSN20031116153509211/16/03 15:35:31  5-MIN KMSN 162135Z 20004KT 8SM OVC029 07/04 A3006 740 82 0 200/04 RMK AO2
14837KMSN MSN20031116154009211/16/03 15:40:31  5-MIN KMSN 162140Z 00000KT 8SM OVC029 07/04 A3006 730 82 0 000/00 RMK AO2
14837KMSN MSN20031116154509211/16/03 15:45:31  5-MIN KMSN 162145Z 00000KT 8SM OVC032 07/04 A3006 730 82 0 000/00 RMK AO2
14837KMSN MSN20031116155010911/16/03 15:50:31  5-MIN KMSN 162150Z 00000KT 8SM OVC032 07/04 A3006 730 82 0 000/00 RMK AO2 SLP186 T00670039
14837KMSN MSN20031116155509211/16/03 15:55:31  5-MIN KMSN 162155Z 00000KT 8SM OVC032 07/04 A3007 730 82 0 000/00 RMK AO2
14837KMSN MSN20031116160009211/16/03 16:00:31  5-MIN KMSN 162200Z 20003KT 7SM OVC032 07/04 A3007 730 82 0 200/03 RMK AO2
14837KMSN MSN20031116160509211/16/03 16:05:31  5-MIN KMSN 162205Z 00000KT 7SM OVC030 07/04 A3007 730 86 0 000/00 RMK AO2
14837KMSN MSN20031116161009211/16/03 16:10:31  5-MIN KMSN 162210Z 00000KT 7SM OVC030 07/04 A3007 730 86 0 000/00 RMK AO2
14837KMSN MSN20031116161509211/16/03 16:15:31  5-MIN KMSN 162215Z 00000KT 7SM OVC030 07/04 A3007 730 86 0 000/00 RMK AO2
14837KMSN MSN20031116162009511/16/03 16:20:31  5-MIN KMSN 162220Z 00000KT 5SM BR OVC030 07/04 A3007 730 86 0 000/00 RMK AO2
14837KMSN MSN20031116162509511/16/03 16:25:31  5-MIN KMSN 162225Z 00000KT 5SM BR OVC030 07/04 A3007 730 86 0 000/00 RMK AO2
14837KMSN MSN20031116163009511/16/03 16:30:31  5-MIN KMSN 162230Z 00000KT 5SM BR OVC030 07/04 A3007 730 86 0 000/00 RMK AO2
14837KMSN MSN20031116163509511/16/03 16:35:31  5-MIN KMSN 162235Z 00000KT 5SM BR OVC030 07/04 A3007 730 86 0 000/00 RMK AO2
14837KMSN MSN20031116164009511/16/03 16:40:31  5-MIN KMSN 162240Z 00000KT 5SM BR OVC030 07/04 A3007 730 86 0 000/00 RMK AO2
14837KMSN MSN20031116164509811/16/03 16:45:31  5-MIN KMSN 162245Z 16004KT 4SM BR OVC030 06/04 A3007 730 89 -100 160/04 RMK AO2
14837KMSN MSN20031116165011511/16/03 16:50:31  5-MIN KMSN 162250Z 16004KT 4SM BR OVC030 06/04 A3007 720 89 -100 160/04 RMK AO2 SLP189 T00610044
14837KMSN MSN20031116165509811/16/03 16:55:31  5-MIN KMSN 162255Z 17004KT 4SM BR OVC030 06/04 A3007 720 89 -100 170/04 RMK AO2
14837KMSN MSN20031116170009811/16/03 17:00:31  5-MIN KMSN 162300Z 17003KT 4SM BR OVC030 06/04 A3008 720 89 -100 170/03 RMK AO2
14837KMSN MSN20031116170509811/16/03 17:05:31  5-MIN KMSN 162305Z 18004KT 5SM BR OVC030 06/04 A3008 720 89 -100 180/04 RMK AO2
14837KMSN MSN20031116171009511/16/03 17:10:31  5-MIN KMSN 162310Z 19004KT 5SM BR OVC030 07/04 A3007 720 86 0 180/04 RMK AO2
14837KMSN MSN20031116171509511/16/03 17:15:31  5-MIN KMSN 162315Z 19004KT 5SM BR OVC030 07/04 A3007 720 86 0 190/04 RMK AO2
14837KMSN MSN20031116172009811/16/03 17:20:31  5-MIN KMSN 162320Z 00000KT 5SM BR OVC030 06/04 A3007 720 89 -100 000/00 RMK AO2
14837KMSN MSN20031116172509811/16/03 17:25:31  5-MIN KMSN 162325Z 00000KT 5SM BR OVC030 06/04 A3007 730 89 -100 000/00 RMK AO2
14837KMSN MSN20031116173009811/16/03 17:30:31  5-MIN KMSN 162330Z 00000KT 5SM BR OVC030 06/04 A3007 730 89 -100 000/00 RMK AO2
14837KMSN MSN20031116173509811/16/03 17:35:31  5-MIN KMSN 162335Z 00000KT 5SM BR OVC030 06/04 A3007 730 89 -100 000/00 RMK AO2
14837KMSN MSN20031116174009511/16/03 17:40:31  5-MIN KMSN 162340Z 16003KT 8SM OVC030 06/04 A3007 720 89 -100 160/03 RMK AO2
14837KMSN MSN20031116174509511/16/03 17:45:31  5-MIN KMSN 162345Z 16003KT 8SM OVC030 06/04 A3007 720 89 -100 160/03 RMK AO2
14837KMSN MSN20031116175013011/16/03 17:50:31  5-MIN KMSN 162350Z 00000KT 8SM OVC030 06/04 A3007 720 89 -100 000/00 RMK AO2 SLP190 T00610044 10067 20056 55000
14837KMSN MSN20031116175509511/16/03 17:55:31  5-MIN KMSN 162355Z 00000KT 8SM OVC030 06/04 A3008 720 89 -100 000/00 RMK AO2
14837KMSN MSN20031116180009511/16/03 18:00:31  5-MIN KMSN 170000Z 00000KT 8SM OVC030 06/04 A3008 720 89 -100 000/00 RMK AO2
14837KMSN MSN20031116180509511/16/03 18:05:31  5-MIN KMSN 170005Z 15003KT 8SM OVC030 06/04 A3008 720 89 -100 150/03 RMK AO2
14837KMSN MSN20031116181009511/16/03 18:10:31  5-MIN KMSN 170010Z 17003KT 8SM OVC030 06/04 A3008 710 89 -100 170/03 RMK AO2
14837KMSN MSN20031116181509511/16/03 18:15:31  5-MIN KMSN 170015Z 18004KT 8SM OVC030 06/04 A3008 710 89 -100 180/04 RMK AO2
14837KMSN MSN20031116182009511/16/03 18:20:31  5-MIN KMSN 170020Z 19004KT 8SM OVC030 06/04 A3009 710 89 -100 190/04 RMK AO2
14837KMSN MSN20031116182509511/16/03 18:25:31  5-MIN KMSN 170025Z 19004KT 8SM OVC030 06/04 A3009 710 89 -100 190/04 RMK AO2
14837KMSN MSN20031116183009511/16/03 18:30:31  5-MIN KMSN 170030Z 00000KT 8SM OVC030 06/04 A3009 710 89 -100 000/00 RMK AO2
14837KMSN MSN20031116183509511/16/03 18:35:31  5-MIN KMSN 170035Z 20003KT 8SM OVC030 06/04 A3009 710 89 -100 200/03 RMK AO2
14837KMSN MSN20031116184009511/16/03 18:40:31  5-MIN KMSN 170040Z 00000KT 8SM OVC028 06/04 A3009 710 89 -100 000/00 RMK AO2
14837KMSN MSN20031116184509511/16/03 18:45:31  5-MIN KMSN 170045Z 18003KT 8SM OVC028 06/04 A3009 710 89 -100 180/03 RMK AO2
14837KMSN MSN20031116185011211/16/03 18:50:31  5-MIN KMSN 170050Z 18003KT 8SM OVC028 06/04 A3009 700 89 -100 180/03 RMK AO2 SLP196 T00610044
14837KMSN MSN20031116185509511/16/03 18:55:31  5-MIN KMSN 170055Z 18003KT 7SM OVC028 06/04 A3009 700 89 -100 180/03 RMK AO2
14837KMSN MSN20031116190009511/16/03 19:00:31  5-MIN KMSN 170100Z 00000KT 7SM OVC028 06/04 A3009 700 89 -100 000/00 RMK AO2
14837KMSN MSN20031116190509511/16/03 19:05:31  5-MIN KMSN 170105Z 18004KT 7SM OVC028 06/04 A3009 700 89 -100 180/04 RMK AO2
14837KMSN MSN20031116191009511/16/03 19:10:31  5-MIN KMSN 170110Z 18005KT 7SM OVC028 06/04 A3009 700 89 -100 180/05 RMK AO2
14837KMSN MSN20031116191509811/16/03 19:15:31  5-MIN KMSN 170115Z 19004KT 5SM BR OVC028 06/04 A3010 700 89 -100 190/04 RMK AO2
14837KMSN MSN20031116192009811/16/03 19:20:31  5-MIN KMSN 170120Z 19003KT 5SM BR OVC028 06/04 A3010 700 89 -100 180/03 RMK AO2
14837KMSN MSN20031116192510511/16/03 19:25:31  5-MIN KMSN 170125Z 18003KT 5SM BR FEW020 OVC028 06/04 A3010 700 89 -100 180/03 RMK AO2
14837KMSN MSN20031116193010511/16/03 19:30:31  5-MIN KMSN 170130Z 18003KT 5SM BR FEW018 OVC028 06/04 A3010 700 89 -100 180/03 RMK AO2
14837KMSN MSN20031116193511211/16/03 19:35:31  5-MIN KMSN 170135Z 17003KT 5SM BR FEW014 SCT018 OVC028 06/05 A3009 710 93 -100 170/03 RMK AO2
14837KMSN MSN20031116194011211/16/03 19:40:31  5-MIN KMSN 170140Z 16004KT 5SM BR FEW014 SCT018 OVC028 06/05 A3009 710 93 -100 160/04 RMK AO2
14837KMSN MSN20031116194510511/16/03 19:45:31  5-MIN KMSN 170145Z 16004KT 5SM BR FEW019 OVC028 06/04 A3009 710 89 -100 160/04 RMK AO2
14837KMSN MSN20031116195012211/16/03 19:50:31  5-MIN KMSN 170150Z 18005KT 4SM BR FEW019 OVC028 06/05 A3009 710 93 -100 180/05 RMK AO2 SLP195 T00610050
14837KMSN MSN20031116195510511/16/03 19:55:31  5-MIN KMSN 170155Z 18004KT 4SM BR FEW019 OVC028 06/04 A3009 710 89 -100 180/04 RMK AO2
14837KMSN MSN20031116200010511/16/03 20:00:31  5-MIN KMSN 170200Z 15003KT 4SM BR FEW019 OVC030 06/04 A3009 710 89 -100 150/03 RMK AO2
14837KMSN MSN20031116200510511/16/03 20:05:31  5-MIN KMSN 170205Z 11004KT 4SM BR BKN030 OVC038 06/04 A3008 710 89 -100 110/04 RMK AO2
14837KMSN MSN20031116201010511/16/03 20:10:31  5-MIN KMSN 170210Z 13004KT 4SM BR BKN030 OVC038 06/04 A3008 710 92 -200 130/04 RMK AO2
14837KMSN MSN20031116201510511/16/03 20:15:31  5-MIN KMSN 170215Z 14004KT 4SM BR SCT030 OVC036 06/04 A3008 710 92 -200 140/04 RMK AO2
14837KMSN MSN20031116202009811/16/03 20:20:31  5-MIN KMSN 170220Z 14003KT 4SM BR OVC038 06/04 A3008 710 92 -200 140/03 RMK AO2
14837KMSN MSN20031116202510511/16/03 20:25:31  5-MIN KMSN 170225Z 00000KT 4SM BR FEW030 OVC038 06/04 A3008 710 92 -200 000/00 RMK AO2
14837KMSN MSN20031116203009811/16/03 20:30:31  5-MIN KMSN 170230Z 00000KT 4SM BR OVC040 06/04 A3009 710 89 -100 000/00 RMK AO2
14837KMSN MSN20031116203509811/16/03 20:35:31  5-MIN KMSN 170235Z 00000KT 4SM BR OVC040 06/04 A3009 710 92 -200 000/00 RMK AO2
14837KMSN MSN20031116204009811/16/03 20:40:31  5-MIN KMSN 170240Z 00000KT 4SM BR OVC040 06/04 A3009 710 92 -200 000/00 RMK AO2
14837KMSN MSN20031116204509811/16/03 20:45:31  5-MIN KMSN 170245Z 16003KT 4SM BR OVC040 06/04 A3009 710 92 -200 160/03 RMK AO2
14837KMSN MSN20031116205012111/16/03 20:50:31  5-MIN KMSN 170250Z 17003KT 4SM BR OVC040 06/04 A3009 710 92 -200 170/03 RMK AO2 SLP195 T00560044 51010
14837KMSN MSN20031116205509811/16/03 20:55:31  5-MIN KMSN 170255Z 17003KT 4SM BR OVC040 06/04 A3009 710 89 -100 170/03 RMK AO2
14837KMSN MSN20031116210009811/16/03 21:00:31  5-MIN KMSN 170300Z 17003KT 4SM BR OVC040 06/04 A3009 710 89 -100 170/03 RMK AO2
14837KMSN MSN20031116210509811/16/03 21:05:31  5-MIN KMSN 170305Z 18003KT 4SM BR OVC042 06/04 A3009 710 89 -100 170/03 RMK AO2
14837KMSN MSN20031116211009811/16/03 21:10:31  5-MIN KMSN 170310Z 16003KT 4SM BR OVC042 06/04 A3009 710 89 -100 160/03 RMK AO2
14837KMSN MSN20031116211509811/16/03 21:15:31  5-MIN KMSN 170315Z 16003KT 4SM BR OVC042 06/04 A3009 710 92 -200 160/03 RMK AO2
14837KMSN MSN20031116212009811/16/03 21:20:31  5-MIN KMSN 170320Z 16003KT 4SM BR OVC042 06/04 A3009 710 92 -200 160/03 RMK AO2
14837KMSN MSN20031116212509811/16/03 21:25:31  5-MIN KMSN 170325Z 00000KT 4SM BR OVC042 06/04 A3009 710 92 -200 000/00 RMK AO2
14837KMSN MSN20031116213009811/16/03 21:30:31  5-MIN KMSN 170330Z 16003KT 4SM BR OVC042 06/04 A3009 710 92 -200 160/03 RMK AO2
14837KMSN MSN20031116213509811/16/03 21:35:31  5-MIN KMSN 170335Z 17003KT 4SM BR OVC044 06/04 A3009 710 92 -200 170/03 RMK AO2
14837KMSN MSN20031116214009811/16/03 21:40:31  5-MIN KMSN 170340Z 17004KT 4SM BR OVC044 06/04 A3009 710 92 -200 170/04 RMK AO2
14837KMSN MSN20031116214509811/16/03 21:45:31  5-MIN KMSN 170345Z 17003KT 4SM BR OVC044 06/04 A3009 710 92 -200 170/03 RMK AO2
14837KMSN MSN20031116215011511/16/03 21:50:31  5-MIN KMSN 170350Z 17003KT 4SM BR OVC044 06/04 A3009 710 92 -200 170/03 RMK AO2 SLP195 T00560044
14837KMSN MSN20031116215509811/16/03 21:55:31  5-MIN KMSN 170355Z 17003KT 4SM BR OVC044 06/04 A3009 710 92 -200 170/03 RMK AO2
14837KMSN MSN20031116220009811/16/03 22:00:31  5-MIN KMSN 170400Z 18003KT 4SM BR OVC044 06/04 A3009 710 92 -200 180/03 RMK AO2
14837KMSN MSN20031116220509811/16/03 22:05:31  5-MIN KMSN 170405Z 00000KT 4SM BR OVC044 06/04 A3009 710 92 -200 000/00 RMK AO2
14837KMSN MSN20031116221009811/16/03 22:10:31  5-MIN KMSN 170410Z 17003KT 4SM BR OVC044 06/04 A3009 710 92 -200 170/03 RMK AO2
14837KMSN MSN20031116221509811/16/03 22:15:31  5-MIN KMSN 170415Z 17003KT 4SM BR OVC044 06/04 A3009 710 92 -200 170/03 RMK AO2
14837KMSN MSN20031116222009811/16/03 22:20:31  5-MIN KMSN 170420Z 17003KT 4SM BR OVC044 06/04 A3009 710 92 -200 170/03 RMK AO2
14837KMSN MSN20031116222509811/16/03 22:25:31  5-MIN KMSN 170425Z 00000KT 4SM BR OVC044 06/04 A3009 710 92 -200 000/00 RMK AO2
14837KMSN MSN20031116223009811/16/03 22:30:31  5-MIN KMSN 170430Z 19003KT 4SM BR OVC044 06/04 A3009 710 92 -200 190/03 RMK AO2
14837KMSN MSN20031116223509811/16/03 22:35:31  5-MIN KMSN 170435Z 17003KT 4SM BR OVC044 06/04 A3009 710 92 -200 170/03 RMK AO2
14837KMSN MSN20031116224009811/16/03 22:40:31  5-MIN KMSN 170440Z 17003KT 4SM BR OVC044 06/04 A3009 710 92 -200 170/03 RMK AO2
14837KMSN MSN20031116224509811/16/03 22:45:31  5-MIN KMSN 170445Z 17003KT 4SM BR OVC042 06/04 A3009 710 92 -200 170/03 RMK AO2
14837KMSN MSN20031116225011511/16/03 22:50:31  5-MIN KMSN 170450Z 16003KT 4SM BR OVC042 06/04 A3009 710 92 -200 160/03 RMK AO2 SLP195 T00560044
14837KMSN MSN20031116225509811/16/03 22:55:31  5-MIN KMSN 170455Z 15003KT 4SM BR OVC042 06/04 A3009 710 92 -200 150/03 RMK AO2
14837KMSN MSN20031116230009811/16/03 23:00:31  5-MIN KMSN 170500Z 00000KT 4SM BR OVC042 05/04 A3009 710 96 -200 000/00 RMK AO2
14837KMSN MSN20031116230509811/16/03 23:05:31  5-MIN KMSN 170505Z 14003KT 4SM BR OVC042 06/04 A3009 710 92 -200 140/03 RMK AO2
14837KMSN MSN20031116231009811/16/03 23:10:31  5-MIN KMSN 170510Z VRB03KT 4SM BR OVC042 06/04 A3009 710 92 -200 VRB/03 RMK AO2
14837KMSN MSN20031116231509811/16/03 23:15:31  5-MIN KMSN 170515Z 14003KT 4SM BR OVC042 05/04 A3008 710 92 -200 130/03 RMK AO2
14837KMSN MSN20031116232009811/16/03 23:20:31  5-MIN KMSN 170520Z 15004KT 4SM BR BKN040 04/04 A3009 710 96 -300 150/04 RMK AO2
14837KMSN MSN20031116232509811/16/03 23:25:31  5-MIN KMSN 170525Z 16004KT 4SM BR BKN040 05/04 A3009 710 92 -200 160/04 RMK AO2
14837KMSN MSN20031116233009811/16/03 23:30:31  5-MIN KMSN 170530Z 17003KT 4SM BR BKN040 05/04 A3009 710 96 -200 170/03 RMK AO2
14837KMSN MSN20031116233509811/16/03 23:35:31  5-MIN KMSN 170535Z 00000KT 4SM BR BKN040 06/04 A3009 710 92 -200 000/00 RMK AO2
14837KMSN MSN20031116234009811/16/03 23:40:31  5-MIN KMSN 170540Z 16003KT 4SM BR BKN040 06/04 A3009 710 92 -200 160/03 RMK AO2
14837KMSN MSN20031116234509811/16/03 23:45:31  5-MIN KMSN 170545Z 16003KT 4SM BR BKN040 05/04 A3009 710 96 -200 160/03 RMK AO2
14837KMSN MSN20031116235014311/16/03 23:50:31  5-MIN KMSN 170550Z 16004KT 4SM BR BKN040 05/04 A3009 710 96 -200 160/04 RMK AO2 SLP194 T00500044 10061 20044 400670044 51005
14837KMSN MSN20031116235509811/16/03 23:55:31  5-MIN KMSN 170555Z 17003KT 5SM BR OVC040 05/04 A3009 710 96 -200 170/03 RMK AO2
14837KMSN MSN20031117000009811/17/03 00:00:31  5-MIN KMSN 170600Z 14003KT 6SM BR OVC040 06/04 A3008 710 92 -200 140/03 RMK AO2
14837KMSN MSN20031117000509811/17/03 00:05:31  5-MIN KMSN 170605Z 08003KT 5SM BR OVC040 05/04 A3008 720 92 -200 080/03 RMK AO2
14837KMSN MSN20031117001009811/17/03 00:10:31  5-MIN KMSN 170610Z 09003KT 5SM BR BKN040 04/03 A3008 720 92 -300 090/03 RMK AO2
14837KMSN MSN20031117001509811/17/03 00:15:31  5-MIN KMSN 170615Z 12003KT 5SM BR BKN040 04/03 A3009 710 96 -400 120/03 RMK AO2
14837KMSN MSN20031117002009811/17/03 00:20:31  5-MIN KMSN 170620Z 16003KT 4SM BR SCT040 04/03 A3009 710 92 -300 160/03 RMK AO2
14837KMSN MSN20031117002509811/17/03 00:25:31  5-MIN KMSN 170625Z 18004KT 5SM BR FEW040 04/03 A3009 710 92 -300 180/04 RMK AO2
14837KMSN MSN20031117003009811/17/03 00:30:31  5-MIN KMSN 170630Z 18004KT 5SM BR FEW040 04/03 A3009 710 92 -300 180/04 RMK AO2
14837KMSN MSN20031117003509511/17/03 00:35:31  5-MIN KMSN 170635Z 17005KT 6SM BR CLR 04/04 A3009 710 96 -300 170/05 RMK AO2
14837KMSN MSN20031117004009811/17/03 00:40:31  5-MIN KMSN 170640Z 17005KT 6SM BR FEW037 04/04 A3009 710 96 -300 170/05 RMK AO2
14837KMSN MSN20031117004509811/17/03 00:45:31  5-MIN KMSN 170645Z 16005KT 5SM BR SCT037 04/04 A3009 710 96 -300 160/05 RMK AO2
14837KMSN MSN20031117005011511/17/03 00:50:31  5-MIN KMSN 170650Z 16005KT 5SM BR BKN037 04/04 A3009 710 96 -300 160/05 RMK AO2 SLP194 T00440039
14837KMSN MSN20031117005509811/17/03 00:55:31  5-MIN KMSN 170655Z 16005KT 4SM BR BKN035 04/04 A3009 710 96 -300 160/05 RMK AO2
14837KMSN MSN20031117010009811/17/03 01:00:31  5-MIN KMSN 170700Z 16004KT 4SM BR BKN035 04/04 A3009 710 96 -300 160/04 RMK AO2
14837KMSN MSN20031117010509811/17/03 01:05:31  5-MIN KMSN 170705Z 17003KT 4SM BR OVC035 04/04 A3009 710 96 -300 170/03 RMK AO2
14837KMSN MSN20031117011009811/17/03 01:10:31  5-MIN KMSN 170710Z 00000KT 5SM BR BKN035 04/04 A3009 710 96 -300 000/00 RMK AO2
14837KMSN MSN20031117011509811/17/03 01:15:31  5-MIN KMSN 170715Z 17003KT 4SM BR BKN035 04/04 A3009 710 96 -300 170/03 RMK AO2
14837KMSN MSN20031117012009811/17/03 01:20:31  5-MIN KMSN 170720Z 17003KT 4SM BR SCT035 04/04 A3009 710 96 -300 170/03 RMK AO2
14837KMSN MSN20031117012509811/17/03 01:25:31  5-MIN KMSN 170725Z 18004KT 4SM BR SCT035 04/03 A3009 710 92 -300 180/04 RMK AO2
14837KMSN MSN20031117013009811/17/03 01:30:31  5-MIN KMSN 170730Z 17004KT 5SM BR FEW035 04/03 A3009 710 92 -300 170/04 RMK AO2
14837KMSN MSN20031117013509811/17/03 01:35:31  5-MIN KMSN 170735Z 16003KT 4SM BR FEW035 04/03 A3009 710 96 -400 160/03 RMK AO2
14837KMSN MSN20031117014009511/17/03 01:40:31  5-MIN KMSN 170740Z 16003KT 4SM BR CLR 04/04 A3009 710 96 -300 160/03 RMK AO2
14837KMSN MSN20031117014509511/17/03 01:45:31  5-MIN KMSN 170745Z 16003KT 3SM BR CLR 04/04 A3009 710 96 -300 160/03 RMK AO2
14837KMSN MSN20031117015011511/17/03 01:50:31  5-MIN KMSN 170750Z 16003KT 3SM BR FEW004 04/04 A3009 710 96 -300 160/03 RMK AO2 SLP196 T00440039
14837KMSN MSN20031117015510211/17/03 01:55:31  5-MIN KMSN 170755Z 15003KT 2 1/2SM BR SCT004 04/03 A3009 710 96 -400 150/03 RMK AO2
14837KMSN MSN20031117020010211/17/03 02:00:31  5-MIN KMSN 170800Z 15003KT 1 1/2SM BR SCT004 04/03 A3009 710 96 -400 150/03 RMK AO2
14837KMSN MSN20031117020510011/17/03 02:05:31  5-MIN KMSN 170805Z 16003KT 3/4SM BR BKN004 04/03 A3009 710 96 -400 160/03 RMK AO2
14837KMSN MSN20031117021010011/17/03 02:10:31  5-MIN KMSN 170810Z 16003KT 3/4SM BR BKN004 04/03 A3009 700 96 -400 160/03 RMK AO2
14837KMSN MSN20031117021510111/17/03 02:15:31  5-MIN KMSN 170815Z 16003KT 3/4SM BR OVC004 03/03 A3009 700 100 -500 160/03 RMK AO2
14837KMSN MSN20031117022010111/17/03 02:20:31  5-MIN KMSN 170820Z 16003KT 1/2SM FG OVC004 03/03 A3009 700 100 -500 160/03 RMK AO2
14837KMSN MSN20031117022510011/17/03 02:25:31  5-MIN KMSN 170825Z 16004KT 1/2SM FG OVC002 03/03 A3009 700 96 -500 160/04 RMK AO2
14837KMSN MSN20031117023010111/17/03 02:30:31  5-MIN KMSN 170830Z 16005KT 1/2SM FG OVC002 03/03 A3009 700 100 -500 160/05 RMK AO2
14837KMSN MSN20031117023510111/17/03 02:35:31  5-MIN KMSN 170835Z 16005KT 1/2SM FG OVC002 03/03 A3009 700 100 -500 160/05 RMK AO2
14837KMSN MSN20031117024010111/17/03 02:40:31  5-MIN KMSN 170840Z 16005KT 1/4SM FG OVC002 03/03 A3009 700 100 -500 160/05 RMK AO2
14837KMSN MSN20031117024510011/17/03 02:45:31  5-MIN KMSN 170845Z 16005KT 1/4SM FG VV001 03/03 A3009 710 100 -500 160/05 RMK AO2
14837KMSN MSN20031117025012211/17/03 02:50:31  5-MIN KMSN 170850Z 16004KT 1/4SM FG VV001 03/02 A3009 710 96 -500 150/04 RMK AO2 SLP196 T00280022 58001
14837KMSN MSN20031117025509911/17/03 02:55:31  5-MIN KMSN 170855Z 15004KT 1/4SM FG VV001 03/02 A3009 710 96 -500 150/04 RMK AO2
14837KMSN MSN20031117030010011/17/03 03:00:31  5-MIN KMSN 170900Z 16004KT 1/4SM FG VV001 03/03 A3009 710 100 -500 160/04 RMK AO2
14837KMSN MSN20031117030510011/17/03 03:05:31  5-MIN KMSN 170905Z 16004KT 1/4SM FG VV001 03/03 A3009 710 100 -500 160/04 RMK AO2
14837KMSN MSN20031117031010011/17/03 03:10:31  5-MIN KMSN 170910Z 16004KT 1/4SM FG VV001 03/03 A3009 710 100 -500 160/04 RMK AO2
14837KMSN MSN20031117031510011/17/03 03:15:31  5-MIN KMSN 170915Z 16004KT 1/4SM FG VV001 03/03 A3009 710 100 -500 150/04 RMK AO2
14837KMSN MSN20031117032009911/17/03 03:20:31  5-MIN KMSN 170920Z 15004KT 1/4SM FG VV001 03/02 A3009 710 96 -500 150/04 RMK AO2
14837KMSN MSN20031117032509911/17/03 03:25:31  5-MIN KMSN 170925Z 14004KT 1/4SM FG VV001 03/02 A3009 710 96 -500 140/04 RMK AO2
14837KMSN MSN20031117033009911/17/03 03:30:31  5-MIN KMSN 170930Z 13004KT 1/4SM FG VV001 03/02 A3009 710 96 -500 130/04 RMK AO2
14837KMSN MSN20031117033510011/17/03 03:35:31  5-MIN KMSN 170935Z 14004KT 1/4SM FG VV001 02/02 A3009 710 100 -600 140/04 RMK AO2
14837KMSN MSN20031117034010011/17/03 03:40:31  5-MIN KMSN 170940Z 15004KT 1/4SM FG VV001 02/02 A3009 710 100 -600 150/04 RMK AO2
14837KMSN MSN20031117034510011/17/03 03:45:31  5-MIN KMSN 170945Z 15005KT 1/2SM FG VV001 02/02 A3009 710 100 -600 150/05 RMK AO2
14837KMSN MSN20031117035011711/17/03 03:50:31  5-MIN KMSN 170950Z 15004KT 3/4SM BR VV001 02/02 A3008 710 100 -600 150/04 RMK AO2 SLP194 T00170017
14837KMSN MSN20031117035510011/17/03 03:55:31  5-MIN KMSN 170955Z 14003KT 3/4SM BR VV001 02/02 A3008 720 100 -600 140/03 RMK AO2
14837KMSN MSN20031117040010011/17/03 04:00:31  5-MIN KMSN 171000Z 16003KT 3/4SM BR VV001 02/02 A3008 710 100 -600 160/03 RMK AO2
14837KMSN MSN20031117040510211/17/03 04:05:31  5-MIN KMSN 171005Z 16004KT 1 1/2SM BR FEW002 02/02 A3008 710 96 -600 160/04 RMK AO2
14837KMSN MSN20031117041010311/17/03 04:10:31  5-MIN KMSN 171010Z 15004KT 2 1/2SM BR FEW002 02/02 A3008 720 100 -600 150/04 RMK AO2
14837KMSN MSN20031117041509611/17/03 04:15:31  5-MIN KMSN 171015Z 16005KT 3SM BR CLR 02/02 A3008 720 100 -600 150/05 RMK AO2
14837KMSN MSN20031117042009611/17/03 04:20:31  5-MIN KMSN 171020Z 17004KT 3SM BR CLR 02/02 A3008 710 100 -600 160/04 RMK AO2
14837KMSN MSN20031117042509511/17/03 04:25:31  5-MIN KMSN 171025Z 17003KT 4SM BR CLR 02/02 A3008 710 96 -600 160/03 RMK AO2
14837KMSN MSN20031117043009611/17/03 04:30:31  5-MIN KMSN 171030Z 17003KT 4SM BR CLR 02/02 A3008 710 100 -600 170/03 RMK AO2
14837KMSN MSN20031117043509511/17/03 04:35:31  5-MIN KMSN 171035Z 17004KT 5SM BR CLR 02/02 A3008 720 96 -600 160/04 RMK AO2
14837KMSN MSN20031117044009511/17/03 04:40:31  5-MIN KMSN 171040Z 16004KT 5SM BR CLR 02/02 A3008 720 96 -600 160/04 RMK AO2
14837KMSN MSN20031117044509611/17/03 04:45:31  5-MIN KMSN 171045Z 17005KT 5SM BR CLR 02/02 A3008 720 100 -600 160/05 RMK AO2
14837KMSN MSN20031117045011211/17/03 04:50:31  5-MIN KMSN 171050Z 17004KT 5SM BR CLR 02/02 A3008 710 96 -600 170/04 RMK AO2 SLP194 T00220017
14837KMSN MSN20031117045509511/17/03 04:55:31  5-MIN KMSN 171055Z 17005KT 5SM BR CLR 02/02 A3008 710 96 -600 170/05 RMK AO2
14837KMSN MSN20031117050009511/17/03 05:00:31  5-MIN KMSN 171100Z 17005KT 5SM BR CLR 02/02 A3008 710 96 -600 170/05 RMK AO2
14837KMSN MSN20031117050509511/17/03 05:05:31  5-MIN KMSN 171105Z 16004KT 5SM BR CLR 02/02 A3008 720 96 -600 160/04 RMK AO2
14837KMSN MSN20031117051009611/17/03 05:10:31  5-MIN KMSN 171110Z 17005KT 4SM BR CLR 02/02 A3008 720 100 -600 160/05 RMK AO2
14837KMSN MSN20031117051509611/17/03 05:15:31  5-MIN KMSN 171115Z 16004KT 4SM BR CLR 02/02 A3008 720 100 -600 160/04 RMK AO2
14837KMSN MSN20031117052009511/17/03 05:20:31  5-MIN KMSN 171120Z 17004KT 4SM BR CLR 02/01 A3008 720 96 -600 170/04 RMK AO2
14837KMSN MSN20031117052509511/17/03 05:25:31  5-MIN KMSN 171125Z 16005KT 4SM BR CLR 02/02 A3008 720 96 -600 160/05 RMK AO2
14837KMSN MSN20031117053009511/17/03 05:30:31  5-MIN KMSN 171130Z 17005KT 5SM BR CLR 02/02 A3008 720 96 -600 160/05 RMK AO2
14837KMSN MSN20031117053509611/17/03 05:35:31  5-MIN KMSN 171135Z 16005KT 5SM BR CLR 02/02 A3008 720 100 -600 160/05 RMK AO2
14837KMSN MSN20031117054009511/17/03 05:40:31  5-MIN KMSN 171140Z 16005KT 5SM BR CLR 02/02 A3008 720 96 -600 160/05 RMK AO2
14837KMSN MSN20031117054509511/17/03 05:45:31  5-MIN KMSN 171145Z 16005KT 5SM BR CLR 02/02 A3008 720 96 -600 160/05 RMK AO2
14837KMSN MSN20031117055013711/17/03 05:50:31  5-MIN KMSN 171150Z 15006KT 4SM BR CLR 01/01 A3008 720 100 -700 150/06 RMK AO2 SLP193 70002 T00110011 10056 20011 52001
14837KMSN MSN20031117055509611/17/03 05:55:31  5-MIN KMSN 171155Z 15006KT 4SM BR CLR 01/01 A3008 720 100 -800 150/06 RMK AO2
14837KMSN MSN20031117060009511/17/03 06:00:31  5-MIN KMSN 171200Z 14006KT 4SM BR CLR 01/01 A3008 720 96 -700 140/06 RMK AO2
14837KMSN MSN20031117060509511/17/03 06:05:31  5-MIN KMSN 171205Z 16006KT 5SM BR CLR 02/01 A3008 720 96 -600 150/06 RMK AO2
14837KMSN MSN20031117061009611/17/03 06:10:31  5-MIN KMSN 171210Z 16006KT 5SM BR CLR 02/02 A3007 720 100 -600 160/06 RMK AO2
14837KMSN MSN20031117061509611/17/03 06:15:31  5-MIN KMSN 171215Z 16006KT 5SM BR CLR 02/02 A3007 720 100 -600 160/06 RMK AO2
14837KMSN MSN20031117062009611/17/03 06:20:31  5-MIN KMSN 171220Z 17006KT 5SM BR CLR 02/02 A3007 720 100 -600 170/06 RMK AO2
14837KMSN MSN20031117062509511/17/03 06:25:31  5-MIN KMSN 171225Z 16008KT 6SM BR CLR 02/01 A3007 720 96 -600 160/08 RMK AO2
14837KMSN MSN20031117063009511/17/03 06:30:31  5-MIN KMSN 171230Z 15009KT 6SM BR CLR 02/01 A3007 730 96 -600 150/09 RMK AO2
14837KMSN MSN20031117063509511/17/03 06:35:31  5-MIN KMSN 171235Z 16008KT 6SM BR CLR 02/01 A3007 730 96 -600 160/08 RMK AO2
14837KMSN MSN20031117064009511/17/03 06:40:31  5-MIN KMSN 171240Z 16008KT 6SM BR CLR 02/01 A3007 730 96 -600 160/08 RMK AO2
14837KMSN MSN20031117064509511/17/03 06:45:31  5-MIN KMSN 171245Z 16009KT 6SM BR CLR 02/02 A3007 730 96 -600 160/09 RMK AO2
14837KMSN MSN20031117065011211/17/03 06:50:31  5-MIN KMSN 171250Z 15007KT 4SM BR CLR 02/02 A3007 730 96 -600 150/07 RMK AO2 SLP189 T00220017
14837KMSN MSN20031117065509511/17/03 06:55:31  5-MIN KMSN 171255Z 15006KT 5SM BR CLR 02/02 A3007 730 96 -600 150/06 RMK AO2
14837KMSN MSN20031117070009511/17/03 07:00:31  5-MIN KMSN 171300Z 15008KT 5SM BR CLR 02/02 A3007 730 96 -600 150/08 RMK AO2
14837KMSN MSN20031117070509511/17/03 07:05:31  5-MIN KMSN 171305Z 15008KT 5SM BR CLR 02/02 A3007 730 96 -600 150/08 RMK AO2
14837KMSN MSN20031117071009511/17/03 07:10:31  5-MIN KMSN 171310Z 15008KT 4SM BR CLR 02/01 A3006 730 92 -600 150/08 RMK AO2
14837KMSN MSN20031117071509511/17/03 07:15:31  5-MIN KMSN 171315Z 15008KT 4SM BR CLR 02/01 A3006 730 92 -600 150/08 RMK AO2
14837KMSN MSN20031117072009511/17/03 07:20:31  5-MIN KMSN 171320Z 15009KT 4SM BR CLR 02/02 A3006 730 96 -600 150/09 RMK AO2
14837KMSN MSN20031117072509511/17/03 07:25:31  5-MIN KMSN 171325Z 15009KT 4SM BR CLR 03/02 A3006 730 92 -500 150/09 RMK AO2
14837KMSN MSN20031117073009511/17/03 07:30:31  5-MIN KMSN 171330Z 15009KT 4SM BR CLR 02/02 A3006 740 96 -500 150/09 RMK AO2
14837KMSN MSN20031117073509511/17/03 07:35:31  5-MIN KMSN 171335Z 15008KT 3SM BR CLR 03/02 A3006 740 92 -500 150/08 RMK AO2
14837KMSN MSN20031117074009511/17/03 07:40:31  5-MIN KMSN 171340Z 15009KT 3SM BR CLR 03/02 A3005 740 96 -500 150/09 RMK AO2
14837KMSN MSN20031117074509511/17/03 07:45:31  5-MIN KMSN 171345Z 16008KT 4SM BR CLR 03/02 A3005 740 96 -500 150/08 RMK AO2
14837KMSN MSN20031117075011211/17/03 07:50:31  5-MIN KMSN 171350Z 16009KT 4SM BR CLR 03/02 A3005 740 96 -500 150/09 RMK AO2 SLP184 T00280022
14837KMSN MSN20031117075509511/17/03 07:55:31  5-MIN KMSN 171355Z 16009KT 4SM BR CLR 03/02 A3005 740 92 -400 160/09 RMK AO2
14837KMSN MSN20031117080009511/17/03 08:00:31  5-MIN KMSN 171400Z 16010KT 4SM BR CLR 03/02 A3005 740 92 -400 160/10 RMK AO2
14837KMSN MSN20031117080509511/17/03 08:05:31  5-MIN KMSN 171405Z 16009KT 4SM BR CLR 03/02 A3005 740 92 -400 160/09 RMK AO2
14837KMSN MSN20031117081009511/17/03 08:10:31  5-MIN KMSN 171410Z 15010KT 4SM BR CLR 03/03 A3005 750 96 -400 150/10 RMK AO2
14837KMSN MSN20031117081509511/17/03 08:15:31  5-MIN KMSN 171415Z 15011KT 4SM BR CLR 04/03 A3004 750 92 -300 150/11 RMK AO2
14837KMSN MSN20031117082009511/17/03 08:20:31  5-MIN KMSN 171420Z 16009KT 4SM BR CLR 04/03 A3004 750 92 -300 150/09 RMK AO2
14837KMSN MSN20031117082509511/17/03 08:25:31  5-MIN KMSN 171425Z 16010KT 4SM BR CLR 04/03 A3005 750 92 -300 160/10 RMK AO2
14837KMSN MSN20031117083009511/17/03 08:30:31  5-MIN KMSN 171430Z 16010KT 4SM BR CLR 04/03 A3004 750 92 -300 150/10 RMK AO2
14837KMSN MSN20031117083509511/17/03 08:35:31  5-MIN KMSN 171435Z 16011KT 4SM BR CLR 05/04 A3004 750 92 -200 160/11 RMK AO2
14837KMSN MSN20031117084009511/17/03 08:40:31  5-MIN KMSN 171440Z 16011KT 5SM BR CLR 05/04 A3004 750 92 -200 150/11 RMK AO2
14837KMSN MSN20031117084509511/17/03 08:45:31  5-MIN KMSN 171445Z 16013KT 5SM BR CLR 05/04 A3004 750 92 -200 160/13 RMK AO2
14837KMSN MSN20031117085011811/17/03 08:50:31  5-MIN KMSN 171450Z 16012KT 5SM BR CLR 06/04 A3004 750 89 -100 150/12 RMK AO2 SLP179 T00560039 56005
14837KMSN MSN20031117085509511/17/03 08:55:31  5-MIN KMSN 171455Z 16011KT 5SM BR CLR 06/04 A3004 750 89 -100 160/11 RMK AO2
14837KMSN MSN20031117090009511/17/03 09:00:31  5-MIN KMSN 171500Z 15011KT 5SM BR CLR 06/04 A3004 760 89 -100 150/11 RMK AO2
14837KMSN MSN20031117090509511/17/03 09:05:31  5-MIN KMSN 171505Z 15011KT 5SM BR CLR 06/04 A3004 760 89 -100 150/11 RMK AO2
14837KMSN MSN20031117091009511/17/03 09:10:31  5-MIN KMSN 171510Z 15012KT 5SM BR CLR 06/04 A3004 750 89 -100 150/12 RMK AO2
14837KMSN MSN20031117091509211/17/03 09:15:31  5-MIN KMSN 171515Z 16010KT 5SM BR CLR 06/04 A3004 750 86 0 160/10 RMK AO2
14837KMSN MSN20031117092009511/17/03 09:20:31  5-MIN KMSN 171520Z 16007KT 6SM BR CLR 06/04 A3004 750 89 -100 160/07 RMK AO2
14837KMSN MSN20031117092509511/17/03 09:25:31  5-MIN KMSN 171525Z 16009KT 6SM BR CLR 06/04 A3004 750 86 -100 160/09 RMK AO2
14837KMSN MSN20031117093009211/17/03 09:30:31  5-MIN KMSN 171530Z 16009KT 6SM BR CLR 06/04 A3004 750 89 0 160/09 RMK AO2
14837KMSN MSN20031117093509211/17/03 09:35:31  5-MIN KMSN 171535Z 16009KT 6SM BR CLR 06/04 A3004 760 89 0 160/09 RMK AO2
14837KMSN MSN20031117094009211/17/03 09:40:31  5-MIN KMSN 171540Z 16010KT 6SM BR CLR 07/04 A3003 760 86 0 160/10 RMK AO2
14837KMSN MSN20031117094509211/17/03 09:45:31  5-MIN KMSN 171545Z 16010KT 6SM BR CLR 07/04 A3003 760 86 0 160/10 RMK AO2
14837KMSN MSN20031117095010911/17/03 09:50:31  5-MIN KMSN 171550Z 16010KT 6SM BR CLR 07/04 A3003 760 86 0 150/10 RMK AO2 SLP175 T00670044
14837KMSN MSN20031117095509511/17/03 09:55:31  5-MIN KMSN 171555Z 15010KT 6SM BR FEW120 07/04 A3003 760 86 0 150/10 RMK AO2
14837KMSN MSN20031117100009511/17/03 10:00:31  5-MIN KMSN 171600Z 15010KT 6SM BR FEW120 07/05 A3003 760 89 0 150/10 RMK AO2
14837KMSN MSN20031117100509711/17/03 10:05:31  5-MIN KMSN 171605Z 16010KT 6SM BR FEW120 07/05 A3003 770 86 100 150/10 RMK AO2
14837KMSN MSN20031117101009711/17/03 10:10:31  5-MIN KMSN 171610Z 16010KT 6SM BR FEW120 07/05 A3003 770 86 100 160/10 RMK AO2
14837KMSN MSN20031117101509711/17/03 10:15:31  5-MIN KMSN 171615Z 16009KT 6SM BR FEW120 07/05 A3003 770 86 100 160/09 RMK AO2
14837KMSN MSN20031117102009711/17/03 10:20:31  5-MIN KMSN 171620Z 16012KT 6SM HZ FEW120 08/05 A3003 770 82 100 160/12 RMK AO2
14837KMSN MSN20031117102509711/17/03 10:25:31  5-MIN KMSN 171625Z 16011KT 6SM HZ FEW120 08/05 A3002 770 82 100 150/11 RMK AO2
14837KMSN MSN20031117103009711/17/03 10:30:31  5-MIN KMSN 171630Z 15011KT 6SM HZ FEW120 08/06 A3002 770 82 200 150/11 RMK AO2
14837KMSN MSN20031117103509711/17/03 10:35:31  5-MIN KMSN 171635Z 15013KT 6SM HZ FEW120 08/06 A3002 770 82 200 150/13 RMK AO2
14837KMSN MSN20031117104009711/17/03 10:40:31  5-MIN KMSN 171640Z 15012KT 6SM HZ FEW120 08/06 A3002 770 82 200 140/12 RMK AO2
14837KMSN MSN20031117104509711/17/03 10:45:31  5-MIN KMSN 171645Z 14016KT 6SM HZ FEW120 08/06 A3002 770 82 200 140/16 RMK AO2
14837KMSN MSN20031117105011111/17/03 10:50:31  5-MIN KMSN 171650Z 15013KT 7SM FEW120 09/06 A3001 780 79 300 150/13 RMK AO2 SLP168 T00890056
14837KMSN MSN20031117105509411/17/03 10:55:31  5-MIN KMSN 171655Z 14016KT 7SM FEW120 09/06 A3001 780 83 300 140/16 RMK AO2
14837KMSN MSN20031117110009411/17/03 11:00:31  5-MIN KMSN 171700Z 15014KT 7SM FEW120 09/06 A3001 780 83 300 150/14 RMK AO2
14837KMSN MSN20031117110510011/17/03 11:05:31  5-MIN KMSN 171705Z 14016G22KT 7SM FEW120 09/06 A3000 790 79 400 140/16G22 RMK AO2
14837KMSN MSN20031117111010011/17/03 11:10:31  5-MIN KMSN 171710Z 15018G22KT 7SM FEW120 09/06 A3000 790 79 400 140/18G22 RMK AO2
14837KMSN MSN20031117111510011/17/03 11:15:31  5-MIN KMSN 171715Z 15015G22KT 7SM FEW120 09/06 A2999 800 79 400 150/15G22 RMK AO2
14837KMSN MSN20031117112010011/17/03 11:20:31  5-MIN KMSN 171720Z 15016G21KT 7SM FEW120 09/06 A2999 800 79 400 150/16G21 RMK AO2
14837KMSN MSN20031117112510011/17/03 11:25:31  5-MIN KMSN 171725Z 15015G21KT 7SM FEW120 10/07 A2999 800 80 400 150/15G21 RMK AO2
14837KMSN MSN20031117113009411/17/03 11:30:31  5-MIN KMSN 171730Z 15012KT 7SM FEW120 10/07 A2999 800 80 400 150/12 RMK AO2
14837KMSN MSN20031117113509411/17/03 11:35:31  5-MIN KMSN 171735Z 15017KT 7SM FEW120 10/07 A2999 800 80 400 150/17 RMK AO2
14837KMSN MSN20031117114009411/17/03 11:40:31  5-MIN KMSN 171740Z 16016KT 7SM FEW120 10/07 A2998 810 80 400 150/16 RMK AO2
14837KMSN MSN20031117114509411/17/03 11:45:31  5-MIN KMSN 171745Z 15014KT 7SM FEW120 11/07 A2997 810 77 500 150/14 RMK AO2
14837KMSN MSN20031117115014211/17/03 11:50:31  5-MIN KMSN 171750Z 15015G20KT 7SM FEW120 11/07 A2997 820 77 500 150/15G20 RMK AO2 PRESFR SLP152 T01060067 10106 20006 58012
14837KMSN MSN20031117115509711/17/03 11:55:31  5-MIN KMSN 171755Z 14016G20KT 7SM CLR 11/07 A2996 830 74 600 140/16G20 RMK AO2
14837KMSN MSN20031117120009111/17/03 12:00:31  5-MIN KMSN 171800Z 15014KT 7SM CLR 11/07 A2996 830 77 600 150/14 RMK AO2
14837KMSN MSN20031117120509111/17/03 12:05:31  5-MIN KMSN 171805Z 15017KT 7SM CLR 11/07 A2996 830 77 600 150/17 RMK AO2
14837KMSN MSN20031117121009711/17/03 12:10:31  5-MIN KMSN 171810Z 15015G21KT 7SM CLR 11/07 A2996 830 74 600 150/15G21 RMK AO2
14837KMSN MSN20031117121509111/17/03 12:15:31  5-MIN KMSN 171815Z 16013KT 7SM CLR 11/07 A2996 830 77 600 160/13 RMK AO2
14837KMSN MSN20031117122009111/17/03 12:20:31  5-MIN KMSN 171820Z 16017KT 7SM CLR 12/07 A2995 830 74 700 160/17 RMK AO2
14837KMSN MSN20031117122511511/17/03 12:25:31  5-MIN KMSN 171825Z 16019G26KT 7SM CLR 11/07 A2995 840 77 600 160/19G26 RMK AO2 PK WND 16026/1825
14837KMSN MSN20031117123011511/17/03 12:30:31  5-MIN KMSN 171830Z 15016G26KT 7SM CLR 11/07 A2995 840 74 600 150/16G26 RMK AO2 PK WND 16026/1825
14837KMSN MSN20031117123511811/17/03 12:35:31  5-MIN KMSN 171835Z 16016G25KT 6SM HZ CLR 12/07 A2995 840 74 700 160/16G25 RMK AO2 PK WND 16026/1825
14837KMSN MSN20031117124011511/17/03 12:40:31  5-MIN KMSN 171840Z 16016G21KT 7SM CLR 12/07 A2994 840 74 700 150/16G21 RMK AO2 PK WND 16026/1825
14837KMSN MSN20031117124511511/17/03 12:45:31  5-MIN KMSN 171845Z 15018G21KT 7SM CLR 12/07 A2994 850 74 700 150/18G21 RMK AO2 PK WND 16026/1825
14837KMSN MSN20031117125012611/17/03 12:50:31  5-MIN KMSN 171850Z 16014KT 7SM CLR 12/07 A2994 850 74 700 160/14 RMK AO2 PK WND 16026/1825 SLP143 T01170072
14837KMSN MSN20031117125510011/17/03 12:55:31  5-MIN KMSN 171855Z 16015G21KT 7SM SCT120 12/07 A2994 850 71 800 160/15G21 RMK AO2
14837KMSN MSN20031117130010011/17/03 13:00:31  5-MIN KMSN 171900Z 16013G21KT 7SM SCT120 12/07 A2993 850 71 800 150/13G21 RMK AO2
14837KMSN MSN20031117130509411/17/03 13:05:31  5-MIN KMSN 171905Z 16016KT 7SM SCT120 12/07 A2993 850 68 800 160/16 RMK AO2
14837KMSN MSN20031117131009411/17/03 13:10:31  5-MIN KMSN 171910Z 16019KT 8SM SCT120 13/07 A2993 860 66 800 150/19 RMK AO2
14837KMSN MSN20031117131509411/17/03 13:15:31  5-MIN KMSN 171915Z 17014KT 9SM SCT120 12/06 A2993 860 66 800 170/14 RMK AO2
14837KMSN MSN20031117132010011/17/03 13:20:31  5-MIN KMSN 171920Z 17018G22KT 9SM SCT120 12/06 A2992 860 66 700 170/18G22 RMK AO2
14837KMSN MSN20031117132510111/17/03 13:25:31  5-MIN KMSN 171925Z 16016G22KT 10SM SCT120 12/06 A2991 870 63 800 160/16G22 RMK AO2
14837KMSN MSN20031117133009511/17/03 13:30:31  5-MIN KMSN 171930Z 16013KT 10SM SCT120 12/06 A2991 870 66 700 160/13 RMK AO2
14837KMSN MSN20031117133510111/17/03 13:35:31  5-MIN KMSN 171935Z 17014G21KT 10SM SCT120 12/05 A2992 870 63 700 170/14G21 RMK AO2
14837KMSN MSN20031117134010111/17/03 13:40:31  5-MIN KMSN 171940Z 17016G22KT 10SM SCT120 12/05 A2991 880 63 700 170/16G22 RMK AO2
14837KMSN MSN20031117134510111/17/03 13:45:31  5-MIN KMSN 171945Z 17014G22KT 10SM SCT120 12/05 A2990 880 63 700 170/14G22 RMK AO2
14837KMSN MSN20031117135011811/17/03 13:50:31  5-MIN KMSN 171950Z 15019G22KT 10SM SCT120 12/06 A2990 880 66 700 150/19G22 RMK AO2 SLP131 T01170056
14837KMSN MSN20031117135510811/17/03 13:55:31  5-MIN KMSN 171955Z 16020G23KT 10SM FEW090 BKN120 12/05 A2990 880 63 700 160/20G23 RMK AO2
14837KMSN MSN20031117140010811/17/03 14:00:31  5-MIN KMSN 172000Z 16017G23KT 10SM FEW090 BKN120 12/06 A2990 890 66 700 160/17G23 RMK AO2
14837KMSN MSN20031117140510811/17/03 14:05:31  5-MIN KMSN 172005Z 16015G22KT 10SM FEW090 BKN120 12/06 A2990 880 66 700 160/15G22 RMK AO2
14837KMSN MSN20031117141010811/17/03 14:10:31  5-MIN KMSN 172010Z 16018G22KT 10SM FEW090 BKN120 12/06 A2990 880 66 700 160/18G22 RMK AO2
14837KMSN MSN20031117141510111/17/03 14:15:31  5-MIN KMSN 172015Z 17018G22KT 10SM SCT120 11/06 A2989 890 68 700 170/18G22 RMK AO2
14837KMSN MSN20031117142009511/17/03 14:20:31  5-MIN KMSN 172020Z 16014KT 10SM SCT120 11/06 A2988 900 68 700 160/14 RMK AO2
14837KMSN MSN20031117142509511/17/03 14:25:31  5-MIN KMSN 172025Z 15019KT 10SM SCT120 11/06 A2988 900 68 700 150/19 RMK AO2
14837KMSN MSN20031117143009511/17/03 14:30:31  5-MIN KMSN 172030Z 15016KT 10SM SCT120 11/06 A2988 900 71 600 150/16 RMK AO2
14837KMSN MSN20031117143509511/17/03 14:35:31  5-MIN KMSN 172035Z 15013KT 10SM SCT120 11/06 A2988 900 71 600 150/13 RMK AO2
14837KMSN MSN20031117144010011/17/03 14:40:31  5-MIN KMSN 172040Z 15016G21KT 9SM SCT120 11/06 A2988 910 71 600 150/16G21 RMK AO2
14837KMSN MSN20031117144510011/17/03 14:45:31  5-MIN KMSN 172045Z 15015G21KT 9SM SCT120 10/06 A2987 910 74 600 150/15G21 RMK AO2
14837KMSN MSN20031117145011711/17/03 14:50:31  5-MIN KMSN 172050Z 16017KT 9SM SCT120 10/06 A2987 910 74 600 150/17 RMK AO2 SLP122 T01000056 58025
14837KMSN MSN20031117145510111/17/03 14:55:31  5-MIN KMSN 172055Z 15015KT 9SM FEW095 SCT120 11/06 A2988 900 71 600 150/15 RMK AO2
14837KMSN MSN20031117150010111/17/03 15:00:31  5-MIN KMSN 172100Z 15014KT 9SM FEW095 SCT120 10/06 A2987 910 74 600 150/14 RMK AO2
14837KMSN MSN20031117150510111/17/03 15:05:31  5-MIN KMSN 172105Z 15017KT 9SM FEW095 SCT120 10/06 A2987 910 74 600 150/17 RMK AO2
14837KMSN MSN20031117151010711/17/03 15:10:31  5-MIN KMSN 172110Z 16015G24KT 9SM FEW095 SCT120 10/06 A2986 920 74 600 160/15G24 RMK AO2
14837KMSN MSN20031117151510711/17/03 15:15:31  5-MIN KMSN 172115Z 14013G24KT 9SM FEW095 SCT120 10/06 A2986 920 74 600 140/13G24 RMK AO2
14837KMSN MSN20031117152010711/17/03 15:20:31  5-MIN KMSN 172120Z 15016G21KT 9SM FEW095 SCT120 10/06 A2986 920 74 600 150/16G21 RMK AO2
14837KMSN MSN20031117152510711/17/03 15:25:31  5-MIN KMSN 172125Z 15014G21KT 8SM FEW095 SCT120 09/06 A2986 920 76 500 150/14G21 RMK AO2
14837KMSN MSN20031117153010111/17/03 15:30:31  5-MIN KMSN 172130Z 16017KT 8SM FEW095 SCT120 09/06 A2987 910 76 500 160/17 RMK AO2
14837KMSN MSN20031117153510711/17/03 15:35:31  5-MIN KMSN 172135Z 15020G25KT 7SM FEW095 SCT120 09/06 A2988 900 76 500 150/20G25 RMK AO2
14837KMSN MSN20031117154010011/17/03 15:40:31  5-MIN KMSN 172140Z 16016G25KT 7SM BKN018 09/06 A2987 910 76 500 150/16G25 RMK AO2
14837KMSN MSN20031117154509411/17/03 15:45:31  5-MIN KMSN 172145Z 15014KT 7SM BKN018 09/06 A2986 920 76 500 150/14 RMK AO2
14837KMSN MSN20031117155011711/17/03 15:50:31  5-MIN KMSN 172150Z 15015G22KT 7SM BKN018 09/06 A2986 920 76 500 150/15G22 RMK AO2 SLP116 T00940056
14837KMSN MSN20031117155510311/17/03 15:55:31  5-MIN KMSN 172155Z 14014G22KT 6SM HZ OVC016 09/06 A2985 930 79 500 140/14G22 RMK AO2
14837KMSN MSN20031117160009711/17/03 16:00:31  5-MIN KMSN 172200Z 15017KT 6SM HZ OVC016 09/06 A2986 920 79 500 150/17 RMK AO2
14837KMSN MSN20031117160509711/17/03 16:05:31  5-MIN KMSN 172205Z 16013KT 6SM HZ OVC016 09/06 A2987 910 79 500 160/13 RMK AO2
14837KMSN MSN20031117161010311/17/03 16:10:31  5-MIN KMSN 172210Z 16016G21KT 6SM HZ OVC016 09/06 A2986 920 79 500 150/16G21 RMK AO2
14837KMSN MSN20031117161510311/17/03 16:15:31  5-MIN KMSN 172215Z 16013G21KT 5SM HZ OVC016 09/06 A2986 920 79 500 150/13G21 RMK AO2
14837KMSN MSN20031117162010311/17/03 16:20:31  5-MIN KMSN 172220Z 16016G20KT 5SM HZ OVC016 09/06 A2986 920 79 500 160/16G20 RMK AO2
14837KMSN MSN20031117162510311/17/03 16:25:31  5-MIN KMSN 172225Z 15013G20KT 4SM HZ OVC016 09/06 A2986 920 79 500 150/13G20 RMK AO2
14837KMSN MSN20031117163009711/17/03 16:30:31  5-MIN KMSN 172230Z 15017KT 4SM HZ OVC014 09/06 A2986 920 79 500 150/17 RMK AO2
14837KMSN MSN20031117163510311/17/03 16:35:31  5-MIN KMSN 172235Z 15017G20KT 4SM HZ OVC014 09/06 A2985 930 79 500 150/17G20 RMK AO2
14837KMSN MSN20031117164010311/17/03 16:40:31  5-MIN KMSN 172240Z 15018G24KT 4SM HZ OVC014 09/06 A2985 930 79 500 150/18G24 RMK AO2
14837KMSN MSN20031117164510311/17/03 16:45:31  5-MIN KMSN 172245Z 15017G24KT 4SM HZ OVC014 09/06 A2986 920 79 500 150/17G24 RMK AO2
14837KMSN MSN20031117165012011/17/03 16:50:31  5-MIN KMSN 172250Z 15019G23KT 4SM HZ OVC014 09/06 A2985 930 79 500 150/19G23 RMK AO2 SLP114 T00940061
14837KMSN MSN20031117165510311/17/03 16:55:31  5-MIN KMSN 172255Z 15017G23KT 4SM HZ OVC014 09/07 A2985 930 83 500 150/17G23 RMK AO2
14837KMSN MSN20031117170010311/17/03 17:00:31  5-MIN KMSN 172300Z 16018G25KT 4SM HZ OVC014 09/07 A2985 930 83 500 160/18G25 RMK AO2
14837KMSN MSN20031117170510311/17/03 17:05:31  5-MIN KMSN 172305Z 15020G25KT 4SM HZ OVC014 09/07 A2985 930 83 500 150/20G25 RMK AO2
14837KMSN MSN20031117171010311/17/03 17:10:31  5-MIN KMSN 172310Z 16016G23KT 4SM BR OVC014 09/07 A2985 930 86 500 150/16G23 RMK AO2
14837KMSN MSN20031117171510311/17/03 17:15:31  5-MIN KMSN 172315Z 15012G23KT 4SM BR OVC012 09/07 A2984 930 86 500 150/12G23 RMK AO2
14837KMSN MSN20031117172009711/17/03 17:20:31  5-MIN KMSN 172320Z 16016KT 4SM BR OVC012 09/07 A2984 940 86 500 150/16 RMK AO2
14837KMSN MSN20031117172510311/17/03 17:25:31  5-MIN KMSN 172325Z 15017G21KT 4SM BR OVC012 09/07 A2984 940 86 500 150/17G21 RMK AO2
14837KMSN MSN20031117173010311/17/03 17:30:31  5-MIN KMSN 172330Z 15018G21KT 4SM BR OVC012 09/07 A2983 950 86 500 150/18G21 RMK AO2
14837KMSN MSN20031117173510311/17/03 17:35:31  5-MIN KMSN 172335Z 15015G23KT 4SM BR OVC010 09/07 A2984 940 86 500 150/15G23 RMK AO2
14837KMSN MSN20031117174010311/17/03 17:40:31  5-MIN KMSN 172340Z 15012G23KT 4SM BR OVC010 09/07 A2985 930 86 500 150/12G23 RMK AO2
14837KMSN MSN20031117174509711/17/03 17:45:31  5-MIN KMSN 172345Z 15015KT 4SM BR OVC010 09/07 A2983 950 86 500 150/15 RMK AO2
14837KMSN MSN20031117182009711/17/03 18:20:31  5-MIN KMSN 180020Z 14012KT 4SM BR OVC010 09/07 A2983 950 89 500 140/12 RMK AO2
14837KMSN MSN20031117182509711/17/03 18:25:31  5-MIN KMSN 180025Z 14011KT 4SM BR OVC010 09/07 A2982 950 89 500 140/11 RMK AO2
14837KMSN MSN20031117183009711/17/03 18:30:31  5-MIN KMSN 180030Z 14010KT 3SM BR OVC010 09/07 A2982 950 89 500 140/10 RMK AO2
14837KMSN MSN20031117183509711/17/03 18:35:31  5-MIN KMSN 180035Z 14010KT 3SM BR OVC008 09/07 A2983 950 89 500 140/10 RMK AO2
14837KMSN MSN20031117184009711/17/03 18:40:31  5-MIN KMSN 180040Z 14009KT 3SM BR OVC008 09/07 A2983 940 89 500 140/09 RMK AO2
14837KMSN MSN20031117184509711/17/03 18:45:31  5-MIN KMSN 180045Z 15010KT 3SM BR OVC008 09/07 A2984 940 89 500 150/10 RMK AO2
14837KMSN MSN20031117185011411/17/03 18:50:31  5-MIN KMSN 180050Z 15010KT 3SM BR OVC008 09/07 A2984 940 89 500 150/10 RMK AO2 SLP110 T00890072
14837KMSN MSN20031117185509711/17/03 18:55:31  5-MIN KMSN 180055Z 14009KT 3SM BR OVC008 09/07 A2984 940 89 500 140/09 RMK AO2
14837KMSN MSN20031117190009711/17/03 19:00:31  5-MIN KMSN 180100Z 14010KT 3SM BR OVC008 09/07 A2983 950 89 500 140/10 RMK AO2
14837KMSN MSN20031117190510111/17/03 19:05:31  5-MIN KMSN 180105Z 14010KT 2 1/2SM BR OVC008 09/07 A2983 950 89 500 140/10 RMK AO2
14837KMSN MSN20031117191010111/17/03 19:10:31  5-MIN KMSN 180110Z 14011KT 2 1/2SM BR OVC008 09/08 A2982 950 93 500 140/11 RMK AO2
14837KMSN MSN20031117191510111/17/03 19:15:31  5-MIN KMSN 180115Z 14011KT 2 1/2SM BR OVC008 09/08 A2982 960 93 500 140/11 RMK AO2
14837KMSN MSN20031117192010811/17/03 19:20:31  5-MIN KMSN 180120Z 14010KT 2 1/2SM BR OVC008 09/08 A2981 970 93 500 140/10 RMK AO2 PRESFR
14837KMSN MSN20031117192512711/17/03 19:25:31  5-MIN KMSN 180125Z 14013KT 2SM -DZ BR OVC008 09/08 A2981 970 93 500 140/13 RMK AO2 TWR VIS 2 1/2 DZB22 P0000
14837KMSN MSN20031117193013911/17/03 19:30:31  5-MIN KMSN 180130Z 14012KT 2SM -DZ BR OVC008 08/08 A2980 980 96 400 140/12 RMK AO2 TWR VIS 2 1/2 DZB22 CIG 006V010 P0000
14837KMSN MSN20031117193514511/17/03 19:35:31  5-MIN KMSN 180135Z 14014G19KT 2SM -DZ BR OVC008 09/08 A2980 980 93 500 140/14G19 RMK AO2 TWR VIS 2 1/2 DZB22 CIG 006V010 P0000
14837KMSN MSN20031117194013911/17/03 19:40:31  5-MIN KMSN 180140Z 15013KT 2SM -DZ BR OVC008 09/08 A2980 980 93 500 150/13 RMK AO2 TWR VIS 2 1/2 DZB22 CIG 005V010 P0000
14837KMSN MSN20031117194513911/17/03 19:45:31  5-MIN KMSN 180145Z 14012KT 2SM -DZ BR OVC008 09/08 A2979 980 93 500 140/12 RMK AO2 TWR VIS 2 1/2 DZB22 CIG 005V010 P0000
14837KMSN MSN20031117195015411/17/03 19:50:31  5-MIN KMSN 180150Z 15012KT 2 1/2SM -RA BR OVC008 09/08 A2978 990 93 500 140/12 RMK AO2 DZB22E48RAB48 CIG 005V010 SLP091 P0000 T00890078
14837KMSN MSN20031117195512311/17/03 19:55:31  5-MIN KMSN 180155Z 15012KT 2 1/2SM -RA BR OVC006 09/08 A2978 990 93 500 150/12 RMK AO2 CIG 005V010 P0000
14837KMSN MSN20031117200012311/17/03 20:00:31  5-MIN KMSN 180200Z 15012KT 2 1/2SM -RA BR OVC006 09/08 A2978 990 93 500 150/12 RMK AO2 CIG 005V010 P0001
14837KMSN MSN20031117200513311/17/03 20:05:31  5-MIN KMSN 180205Z 15012KT 2 1/2SM -RA BR OVC006 09/08 A2978 990 93 500 150/12 RMK AO2 SFC VIS 3 CIG 005V010 P0001
14837KMSN MSN20031117201013411/17/03 20:10:31  5-MIN KMSN 180210Z 15012KT 2 1/2SM -RA BR OVC006 09/08 A2978 1000 93 500 150/12 RMK AO2 SFC VIS 3 CIG 006V010 P0001
14837KMSN MSN20031117201513411/17/03 20:15:31  5-MIN KMSN 180215Z 15013KT 2 1/2SM -RA BR OVC008 09/08 A2978 1000 93 500 150/13 RMK AO2 SFC VIS 3 CIG 006V010 P0001
14837KMSN MSN20031117202013411/17/03 20:20:31  5-MIN KMSN 180220Z 15011KT 2 1/2SM -RA BR OVC008 09/08 A2977 1000 93 500 150/11 RMK AO2 SFC VIS 3 CIG 006V011 P0001
14837KMSN MSN20031117202513411/17/03 20:25:31  5-MIN KMSN 180225Z 14012KT 2 1/2SM -RA BR OVC010 09/08 A2977 1010 93 600 140/12 RMK AO2 SFC VIS 3 CIG 006V012 P0001
14837KMSN MSN20031117203014511/17/03 20:30:31  5-MIN KMSN 180230Z 14014KT 2 1/2SM -DZ BR OVC010 09/08 A2977 1010 89 600 140/14 RMK AO2 SFC VIS 3 RAE26DZB26 CIG 007V012 P0001
14837KMSN MSN20031117203513211/17/03 20:35:31  5-MIN KMSN 180235Z 14014KT 2 1/2SM BR OVC010 09/08 A2977 1010 93 600 140/14 RMK AO2 SFC VIS 3 RAE26DZB26E35 P0001
14837KMSN MSN20031117204013211/17/03 20:40:31  5-MIN KMSN 180240Z 15015KT 2 1/2SM BR OVC010 09/08 A2977 1010 93 600 150/15 RMK AO2 SFC VIS 3 RAE26DZB26E35 P0001
14837KMSN MSN20031117204513211/17/03 20:45:31  5-MIN KMSN 180245Z 15014KT 2 1/2SM BR OVC010 09/08 A2977 1000 93 600 140/14 RMK AO2 SFC VIS 3 RAE26DZB26E35 P0001
14837KMSN MSN20031117205016111/17/03 20:50:31  5-MIN KMSN 180250Z 15015KT 2 1/2SM BR OVC010 09/08 A2977 1000 93 600 150/15 RMK AO2 SFC VIS 3 RAE26DZB26E35 SLP085 P0001 60001 T00940083 58014
14837KMSN MSN20031117205511211/17/03 20:55:31  5-MIN KMSN 180255Z 15013KT 2 1/2SM BR OVC010 09/08 A2977 1000 93 600 150/13 RMK AO2 SFC VIS 3
14837KMSN MSN20031117210011211/17/03 21:00:31  5-MIN KMSN 180300Z 15012KT 2 1/2SM BR OVC010 10/08 A2977 1000 89 700 150/12 RMK AO2 SFC VIS 3
14837KMSN MSN20031117210511211/17/03 21:05:31  5-MIN KMSN 180305Z 15015KT 2 1/2SM BR OVC010 10/08 A2977 1010 89 700 150/15 RMK AO2 SFC VIS 3
14837KMSN MSN20031117211011211/17/03 21:10:31  5-MIN KMSN 180310Z 15012KT 2 1/2SM BR OVC010 10/09 A2977 1010 93 700 150/12 RMK AO2 SFC VIS 3
14837KMSN MSN20031117211511811/17/03 21:15:31  5-MIN KMSN 180315Z 16012G19KT 2 1/2SM BR OVC008 10/09 A2977 1010 93 700 150/12G19 RMK AO2 SFC VIS 3
14837KMSN MSN20031117212011211/17/03 21:20:31  5-MIN KMSN 180320Z 16012KT 2 1/2SM BR OVC008 10/09 A2976 1010 93 700 150/12 RMK AO2 SFC VIS 3
14837KMSN MSN20031117212511211/17/03 21:25:31  5-MIN KMSN 180325Z 16013KT 2 1/2SM BR OVC008 10/09 A2976 1020 93 700 150/13 RMK AO2 SFC VIS 3
14837KMSN MSN20031117213011211/17/03 21:30:31  5-MIN KMSN 180330Z 15013KT 2 1/2SM BR OVC008 10/09 A2975 1020 93 700 150/13 RMK AO2 SFC VIS 3
14837KMSN MSN20031117213511911/17/03 21:35:31  5-MIN KMSN 180335Z 15012KT 2 1/2SM BR OVC008 10/09 A2974 1030 93 700 150/12 RMK AO2 SFC VIS 3 PRESFR
14837KMSN MSN20031117214011211/17/03 21:40:31  5-MIN KMSN 180340Z 14011KT 2 1/2SM BR OVC008 10/09 A2974 1030 93 700 140/11 RMK AO2 SFC VIS 3
14837KMSN MSN20031117214512811/17/03 21:45:31  5-MIN KMSN 180345Z 15011KT 2 1/2SM -RA BR OVC008 10/09 A2974 1040 96 700 140/11 RMK AO2 SFC VIS 3 RAB42 P0000
14837KMSN MSN20031117215014511/17/03 21:50:31  5-MIN KMSN 180350Z 15011KT 2 1/2SM -RA BR OVC008 11/09 A2973 1040 93 800 150/11 RMK AO2 SFC VIS 3 RAB42 SLP072 P0000 T01060094
14837KMSN MSN20031117215512211/17/03 21:55:31  5-MIN KMSN 180355Z 16010KT 2 1/2SM -RA BR OVC008 11/09 A2973 1040 93 800 150/10 RMK AO2 SFC VIS 3 P0000
14837KMSN MSN20031117220012211/17/03 22:00:31  5-MIN KMSN 180400Z 16010KT 2 1/2SM -RA BR OVC008 11/09 A2973 1040 93 800 160/10 RMK AO2 SFC VIS 3 P0000
14837KMSN MSN20031117220512811/17/03 22:05:31  5-MIN KMSN 180405Z 15010G15KT 2 1/2SM -RA BR OVC008 11/09 A2973 1040 93 800 150/10G15 RMK AO2 SFC VIS 3 P0000
14837KMSN MSN20031117221011211/17/03 22:10:31  5-MIN KMSN 180410Z 17010KT 2 1/2SM -RA BR OVC008 11/09 A2973 1040 93 800 160/10 RMK AO2 P0001
14837KMSN MSN20031117221511811/17/03 22:15:31  5-MIN KMSN 180415Z 16012G17KT 2 1/2SM -RA BR OVC008 11/10 A2973 1040 96 800 160/12G17 RMK AO2 P0001
14837KMSN MSN20031117222011211/17/03 22:20:31  5-MIN KMSN 180420Z 17011KT 2 1/2SM -RA BR OVC008 11/10 A2973 1050 93 900 170/11 RMK AO2 P0002
14837KMSN MSN20031117222511811/17/03 22:25:31  5-MIN KMSN 180425Z 16016G19KT 2 1/2SM -RA BR OVC008 11/10 A2972 1050 96 800 160/16G19 RMK AO2 P0003
14837KMSN MSN20031117223013711/17/03 22:30:31  5-MIN KMSN 180430Z 15016G19KT 2 1/2SM -RA BR OVC008 11/10 A2970 1060 93 900 150/16G19 RMK AO2 CIG 006V010 PRESFR P0003
14837KMSN MSN20031117223513211/17/03 22:35:31  5-MIN KMSN 180435Z 15021G25KT 2 1/2SM -RA BR BKN008 OVC047 11/10 A2970 1070 96 800 150/21G25 RMK AO2 PRESFR P0004
14837KMSN MSN20031117224013211/17/03 22:40:31  5-MIN KMSN 180440Z 15020G25KT 2 1/2SM -RA BR BKN008 BKN049 OVC070 11/10 A2970 1070 96 800 150/20G25 RMK AO2 P0005
14837KMSN MSN20031117224515011/17/03 22:45:31  5-MIN KMSN 180445Z 15023G28KT 2 1/2SM -RA BR BKN008 BKN049 OVC070 11/10 A2969 1080 93 900 150/23G28 RMK AO2 PK WND 14028/0444 P0005
14837KMSN MSN20031117225016711/17/03 22:50:31  5-MIN KMSN 180450Z 15021G28KT 2 1/2SM -RA BR SCT008 BKN049 OVC070 11/10 A2970 1070 93 900 150/21G28 RMK AO2 PK WND 14028/0444 SLP058 P0006 T01110100
14837KMSN MSN20031117225512811/17/03 22:55:31  5-MIN KMSN 180455Z 15020G26KT 3SM -RA BR SCT008 BKN046 OVC070 11/10 A2970 1070 96 800 150/20G26 RMK AO2 P0000
14837KMSN MSN20031117230012811/17/03 23:00:31  5-MIN KMSN 180500Z 15018G26KT 3SM -RA BR FEW008 BKN042 OVC080 11/10 A2970 1070 96 800 150/18G26 RMK AO2 P0001
14837KMSN MSN20031117230512211/17/03 23:05:31  5-MIN KMSN 180505Z 16017KT 4SM -RA BR SCT008 BKN044 OVC070 11/10 A2970 1070 96 800 160/17 RMK AO2 P0001
14837KMSN MSN20031117231011511/17/03 23:10:31  5-MIN KMSN 180510Z 16017KT 4SM -RA BR BKN008 OVC044 11/10 A2971 1060 96 800 160/17 RMK AO2 P0002
14837KMSN MSN20031117231511511/17/03 23:15:31  5-MIN KMSN 180515Z 16016KT 4SM -RA BR BKN008 OVC042 11/10 A2970 1060 96 800 160/16 RMK AO2 P0002
14837KMSN MSN20031117232011511/17/03 23:20:31  5-MIN KMSN 180520Z 15013KT 4SM -RA BR BKN008 OVC034 11/10 A2970 1070 96 800 150/13 RMK AO2 P0002
14837KMSN MSN20031117232510811/17/03 23:25:31  5-MIN KMSN 180525Z 16015KT 4SM -RA BR OVC008 11/10 A2970 1070 96 800 160/15 RMK AO2 P0002
14837KMSN MSN20031117233010811/17/03 23:30:31  5-MIN KMSN 180530Z 15014KT 4SM -RA BR OVC008 11/10 A2970 1070 96 800 150/14 RMK AO2 P0003
14837KMSN MSN20031117233510811/17/03 23:35:31  5-MIN KMSN 180535Z 15017KT 3SM -RA BR OVC008 11/10 A2969 1080 96 800 150/17 RMK AO2 P0003
14837KMSN MSN20031117234010811/17/03 23:40:31  5-MIN KMSN 180540Z 15015KT 3SM -RA BR OVC008 11/10 A2969 1080 96 800 150/15 RMK AO2 P0003
14837KMSN MSN20031117234510811/17/03 23:45:31  5-MIN KMSN 180545Z 14016KT 3SM -RA BR OVC008 11/10 A2969 1080 96 800 140/16 RMK AO2 P0003
14837KMSN MSN20031117235015911/17/03 23:50:31  5-MIN KMSN 180550Z 15016KT 3SM -RA BR OVC006 11/10 A2968 1090 96 900 150/16 RMK AO2 SLP053 P0003 60011 T01060100 10111 20083 401280006 58019
14837KMSN MSN20031117235510811/17/03 23:55:31  5-MIN KMSN 180555Z 14016KT 3SM -RA BR OVC006 11/10 A2968 1090 96 900 140/16 RMK AO2 P0000
14837KMSN MSN20031118000010811/18/03 00:00:31  5-MIN KMSN 180600Z 14015KT 3SM -RA BR OVC006 11/10 A2968 1090 96 900 140/15 RMK AO2 P0000
14837KMSN MSN20031118000510811/18/03 00:05:31  5-MIN KMSN 180605Z 15015KT 3SM -RA BR OVC006 11/10 A2967 1090 96 900 150/15 RMK AO2 P0001
14837KMSN MSN20031118001010811/18/03 00:10:31  5-MIN KMSN 180610Z 15014KT 3SM -RA BR OVC006 11/10 A2968 1090 96 900 150/14 RMK AO2 P0001
14837KMSN MSN20031118001510811/18/03 00:15:31  5-MIN KMSN 180615Z 15014KT 3SM -RA BR OVC006 11/10 A2967 1090 96 900 150/14 RMK AO2 P0001
14837KMSN MSN20031118002011011/18/03 00:20:31  5-MIN KMSN 180620Z 14014KT 3SM BR OVC006 11/10 A2967 1100 96 900 140/14 RMK AO2 RAE16 P0001
14837KMSN MSN20031118002511611/18/03 00:25:31  5-MIN KMSN 180625Z 14013G20KT 3SM BR OVC006 11/10 A2967 1100 96 900 140/13G20 RMK AO2 RAE16 P0001
14837KMSN MSN20031118003010811/18/03 00:30:31  5-MIN KMSN 180630Z 14013KT 4SM -RA BR OVC006 11/10 A2967 1100 96 900 140/13 RMK AO2 P0001
14837KMSN MSN20031118003510811/18/03 00:35:31  5-MIN KMSN 180635Z 14013KT 4SM -RA BR OVC006 11/10 A2966 1100 96 900 140/13 RMK AO2 P0001
14837KMSN MSN20031118004010811/18/03 00:40:31  5-MIN KMSN 180640Z 14013KT 4SM -RA BR OVC006 11/10 A2966 1100 93 900 140/13 RMK AO2 P0001
14837KMSN MSN20031118004511511/18/03 00:45:31  5-MIN KMSN 180645Z 14012KT 4SM -RA BR BKN006 OVC010 11/10 A2966 1110 93 900 140/12 RMK AO2 P0001
14837KMSN MSN20031118005013311/18/03 00:50:31  5-MIN KMSN 180650Z 14013KT 4SM -RA BR BKN006 OVC010 11/10 A2965 1110 93 1000 140/13 RMK AO2 SLP042 P0001 T01110100
14837KMSN MSN20031118005512011/18/03 00:55:31  5-MIN KMSN 180655Z 14013KT 7SM -RA BKN006 OVC010 11/10 A2964 1120 93 1000 140/13 RMK AO2 PRESFR P0000
14837KMSN MSN20031118010013211/18/03 01:00:31  5-MIN KMSN 180700Z 14012KT 7SM -RA BKN006 OVC011 11/10 A2964 1130 93 1000 140/12 RMK AO2 CIG 005V010 PRESFR P0000
14837KMSN MSN20031118010511811/18/03 01:05:31  5-MIN KMSN 180705Z 14012KT 7SM -RA OVC008 11/11 A2964 1130 96 1000 140/12 RMK AO2 CIG 005V011 P0000
14837KMSN MSN20031118011012011/18/03 01:10:31  5-MIN KMSN 180710Z 14011KT 8SM OVC008 11/11 A2963 1130 96 1000 140/11 RMK AO2 RAE07 CIG 006V013 P0000
14837KMSN MSN20031118011512011/18/03 01:15:31  5-MIN KMSN 180715Z 14011KT 7SM OVC008 11/11 A2964 1130 96 1000 140/11 RMK AO2 RAE07 CIG 006V013 P0000
14837KMSN MSN20031118012012011/18/03 01:20:31  5-MIN KMSN 180720Z 14011KT 7SM OVC008 11/11 A2963 1130 96 1000 140/11 RMK AO2 RAE07 CIG 006V010 P0000
14837KMSN MSN20031118012512011/18/03 01:25:31  5-MIN KMSN 180725Z 14010KT 8SM OVC008 11/11 A2963 1130 96 1000 140/10 RMK AO2 RAE07 CIG 006V011 P0000
14837KMSN MSN20031118013012011/18/03 01:30:31  5-MIN KMSN 180730Z 13010KT 8SM OVC008 12/11 A2963 1130 93 1000 130/10 RMK AO2 RAE07 CIG 006V011 P0000
14837KMSN MSN20031118013510811/18/03 01:35:31  5-MIN KMSN 180735Z 13008KT 7SM OVC008 11/11 A2963 1140 96 1000 130/08 RMK AO2 RAE07 P0000
14837KMSN MSN20031118014011111/18/03 01:40:31  5-MIN KMSN 180740Z 12009KT 6SM BR OVC006 11/11 A2962 1140 96 1000 120/09 RMK AO2 RAE07 P0000
14837KMSN MSN20031118014511111/18/03 01:45:31  5-MIN KMSN 180745Z 13009KT 6SM BR OVC006 11/11 A2962 1140 96 1000 130/09 RMK AO2 RAE07 P0000
14837KMSN MSN20031118015013911/18/03 01:50:31  5-MIN KMSN 180750Z 13012KT 7SM -RA BKN006 OVC010 12/11 A2962 1140 93 1100 130/12 RMK AO2 RAE07B49 SLP032 P0000 T01170106
14837KMSN MSN20031118015511311/18/03 01:55:31  5-MIN KMSN 180755Z 14011KT 7SM -RA BKN006 OVC011 12/11 A2962 1140 93 1100 130/11 RMK AO2 P0000
14837KMSN MSN20031118020012811/18/03 02:00:31  5-MIN KMSN 180800Z 13008KT 6SM -RA BR BKN006 OVC012 12/11 A2962 1150 93 1100 120/08 RMK AO2 CIG 006V011 P0001
14837KMSN MSN20031118020512811/18/03 02:05:31  5-MIN KMSN 180805Z 14009KT 4SM -RA BR BKN006 OVC012 11/11 A2961 1150 96 1000 140/09 RMK AO2 CIG 005V011 P0002
14837KMSN MSN20031118021012111/18/03 02:10:31  5-MIN KMSN 180810Z 14010KT 4SM -RA BR OVC006 12/11 A2961 1150 93 1100 130/10 RMK AO2 CIG 005V011 P0003
14837KMSN MSN20031118021512811/18/03 02:15:31  5-MIN KMSN 180815Z 14010KT 5SM -RA BR BKN006 OVC012 12/11 A2961 1160 93 1100 140/10 RMK AO2 CIG 005V009 P0003
14837KMSN MSN20031118022012111/18/03 02:20:31  5-MIN KMSN 180820Z 14010KT 6SM -RA BR OVC008 12/11 A2960 1160 93 1100 140/10 RMK AO2 CIG 005V010 P0003
14837KMSN MSN20031118022512111/18/03 02:25:31  5-MIN KMSN 180825Z 14011KT 6SM -RA BR OVC008 12/11 A2960 1160 93 1100 140/11 RMK AO2 CIG 005V010 P0004
14837KMSN MSN20031118023012811/18/03 02:30:31  5-MIN KMSN 180830Z 14011KT 4SM +RA BR BKN006 OVC010 12/11 A2960 1170 93 1100 140/11 RMK AO2 CIG 005V008 P0006
14837KMSN MSN20031118023512011/18/03 02:35:31  5-MIN KMSN 180835Z 14009KT 4SM RA BR OVC006 12/11 A2959 1170 93 1100 140/09 RMK AO2 CIG 005V011 P0007
14837KMSN MSN20031118024012811/18/03 02:40:31  5-MIN KMSN 180840Z 14009KT 5SM -RA BR BKN006 OVC012 12/11 A2959 1170 93 1100 130/09 RMK AO2 CIG 005V009 P0007
14837KMSN MSN20031118024512111/18/03 02:45:31  5-MIN KMSN 180845Z 13007KT 5SM -RA BR OVC006 12/11 A2958 1180 93 1100 130/07 RMK AO2 CIG 005V011 P0008
14837KMSN MSN20031118025015011/18/03 02:50:31  5-MIN KMSN 180850Z 14007KT 5SM -RA BR OVC006 12/11 A2958 1180 93 1100 130/07 RMK AO2 CIG 005V009 SLP020 P0008 60009 T01170106 56031
14837KMSN MSN20031118025512111/18/03 02:55:31  5-MIN KMSN 180855Z 14006KT 5SM -RA BR OVC006 12/11 A2959 1180 93 1100 140/06 RMK AO2 CIG 005V011 P0000
14837KMSN MSN20031118030011611/18/03 03:00:31  5-MIN KMSN 180900Z 14008KT 5SM -RA BR BKN006 OVC009 12/11 A2959 1170 93 1100 140/08 RMK AO2 P0001
14837KMSN MSN20031118030510911/18/03 03:05:31  5-MIN KMSN 180905Z 13007KT 5SM -RA BR OVC006 12/11 A2958 1180 93 1100 130/07 RMK AO2 P0001
14837KMSN MSN20031118031010911/18/03 03:10:31  5-MIN KMSN 180910Z 14007KT 5SM -RA BR OVC006 12/11 A2958 1180 96 1100 140/07 RMK AO2 P0001
14837KMSN MSN20031118031510911/18/03 03:15:31  5-MIN KMSN 180915Z 13009KT 5SM -RA BR OVC006 12/11 A2958 1180 96 1100 130/09 RMK AO2 P0002
14837KMSN MSN20031118032010911/18/03 03:20:31  5-MIN KMSN 180920Z 14010KT 5SM -RA BR OVC006 12/11 A2958 1180 96 1100 140/10 RMK AO2 P0002
14837KMSN MSN20031118032510811/18/03 03:25:31  5-MIN KMSN 180925Z 13010KT 4SM RA BR OVC006 12/11 A2957 1190 96 1100 130/10 RMK AO2 P0003
14837KMSN MSN20031118033010811/18/03 03:30:31  5-MIN KMSN 180930Z 13010KT 3SM RA BR OVC006 12/11 A2957 1190 96 1100 130/10 RMK AO2 P0004
14837KMSN MSN20031118033511911/18/03 03:35:31  5-MIN KMSN 180935Z 13008KT 2 1/2SM RA BR BKN006 OVC009 12/11 A2956 1200 96 1100 130/08 RMK AO2 P0008
14837KMSN MSN20031118034011911/18/03 03:40:31  5-MIN KMSN 180940Z 12009KT 2 1/2SM RA BR BKN006 OVC011 12/11 A2956 1200 96 1100 120/09 RMK AO2 P0009
14837KMSN MSN20031118034511611/18/03 03:45:31  5-MIN KMSN 180945Z 14009KT 4SM -RA BR BKN006 OVC009 12/11 A2956 1200 96 1100 130/09 RMK AO2 P0009
14837KMSN MSN20031118035013311/18/03 03:50:31  5-MIN KMSN 180950Z 13008KT 4SM -RA BR BKN006 OVC009 12/11 A2956 1200 96 1100 130/08 RMK AO2 SLP011 P0010 T01170111
14837KMSN MSN20031118035510911/18/03 03:55:31  5-MIN KMSN 180955Z 13007KT 3SM -RA BR OVC006 12/11 A2956 1200 96 1100 130/07 RMK AO2 P0000
14837KMSN MSN20031118040010911/18/03 04:00:31  5-MIN KMSN 181000Z 13009KT 3SM -RA BR OVC006 12/11 A2955 1200 96 1100 130/09 RMK AO2 P0001
14837KMSN MSN20031118040512011/18/03 04:05:31  5-MIN KMSN 181005Z 14008KT 3SM RA BR OVC006 12/11 A2955 1200 96 1100 140/08 RMK AO2 CIG 003V009 P0002
14837KMSN MSN20031118041012111/18/03 04:10:31  5-MIN KMSN 181010Z 13007KT 3SM -RA BR OVC004 12/11 A2955 1210 96 1100 130/07 RMK AO2 CIG 003V008 P0002
14837KMSN MSN20031118041512111/18/03 04:15:31  5-MIN KMSN 181015Z 14007KT 4SM -RA BR OVC004 12/11 A2955 1210 96 1100 140/07 RMK AO2 CIG 003V008 P0002
14837KMSN MSN20031118042012111/18/03 04:20:31  5-MIN KMSN 181020Z 16006KT 5SM -RA BR OVC004 12/11 A2955 1210 96 1100 160/06 RMK AO2 CIG 003V008 P0002
14837KMSN MSN20031118042512111/18/03 04:25:31  5-MIN KMSN 181025Z 18004KT 4SM -RA BR OVC004 12/11 A2955 1210 96 1100 180/04 RMK AO2 CIG 003V008 P0003
14837KMSN MSN20031118043010911/18/03 04:30:31  5-MIN KMSN 181030Z 17004KT 4SM -RA BR OVC004 12/11 A2955 1210 96 1100 170/04 RMK AO2 P0004
14837KMSN MSN20031118043510811/18/03 04:35:31  5-MIN KMSN 181035Z 17004KT 3SM RA BR OVC004 12/11 A2955 1210 96 1100 170/04 RMK AO2 P0005
14837KMSN MSN20031118044010811/18/03 04:40:31  5-MIN KMSN 181040Z 16005KT 3SM RA BR OVC004 12/11 A2955 1210 96 1100 160/05 RMK AO2 P0006
14837KMSN MSN20031118044510811/18/03 04:45:31  5-MIN KMSN 181045Z 16005KT 3SM RA BR OVC004 12/11 A2955 1210 96 1100 150/05 RMK AO2 P0007
14837KMSN MSN20031118045012911/18/03 04:50:31  5-MIN KMSN 181050Z 14005KT 2 1/2SM RA BR OVC004 12/11 A2954 1220 96 1100 140/05 RMK AO2 SLP005 P0009 T01170111
14837KMSN MSN20031118045510911/18/03 04:55:31  5-MIN KMSN 181055Z 14006KT 3SM -RA BR OVC004 12/11 A2953 1220 96 1200 140/06 RMK AO2 P0000
14837KMSN MSN20031118050011311/18/03 05:00:31  5-MIN KMSN 181100Z 13005KT 2 1/2SM -RA BR OVC004 12/11 A2953 1220 96 1200 130/05 RMK AO2 P0000
14837KMSN MSN20031118050511311/18/03 05:05:31  5-MIN KMSN 181105Z 14005KT 2 1/2SM -RA BR OVC004 12/11 A2953 1220 96 1200 140/05 RMK AO2 P0001
14837KMSN MSN20031118051011311/18/03 05:10:31  5-MIN KMSN 181110Z 14006KT 2 1/2SM -RA BR OVC004 12/11 A2953 1220 96 1200 140/06 RMK AO2 P0001
14837KMSN MSN20031118051511411/18/03 05:15:31  5-MIN KMSN 181115Z 13005KT 2 1/2SM -RA BR OVC004 12/12 A2953 1230 100 1200 130/05 RMK AO2 P0001
14837KMSN MSN20031118052011011/18/03 05:20:31  5-MIN KMSN 181120Z 13005KT 3SM -RA BR OVC004 12/12 A2953 1230 100 1200 130/05 RMK AO2 P0001
14837KMSN MSN20031118052510911/18/03 05:25:31  5-MIN KMSN 181125Z 14005KT 3SM -RA BR OVC004 12/11 A2953 1230 96 1200 140/05 RMK AO2 P0002
14837KMSN MSN20031118053010911/18/03 05:30:31  5-MIN KMSN 181130Z 13004KT 3SM -RA BR OVC004 12/11 A2952 1230 96 1200 130/04 RMK AO2 P0002
14837KMSN MSN20031118053511011/18/03 05:35:31  5-MIN KMSN 181135Z 14004KT 3SM -RA BR OVC004 12/12 A2952 1240 100 1200 140/04 RMK AO2 P0002
14837KMSN MSN20031118054011011/18/03 05:40:31  5-MIN KMSN 181140Z 13005KT 3SM -RA BR OVC002 12/12 A2951 1240 100 1200 130/05 RMK AO2 P0002
14837KMSN MSN20031118054511011/18/03 05:45:31  5-MIN KMSN 181145Z 13004KT 3SM -RA BR OVC002 12/12 A2951 1240 100 1200 130/04 RMK AO2 P0002
14837KMSN MSN20031118055016111/18/03 05:50:31  5-MIN KMSN 181150Z 14004KT 1 1/2SM -RA BR OVC002 12/12 A2952 1240 100 1200 140/04 RMK AO2 SLP996 P0002 60031 70042 T01170117 10117 20106 58031
14837KMSN MSN20031118055511411/18/03 05:55:31  5-MIN KMSN 181155Z 15005KT 1 1/2SM -RA BR OVC002 12/12 A2951 1240 100 1200 150/05 RMK AO2 P0001
14837KMSN MSN20031118060011411/18/03 06:00:31  5-MIN KMSN 181200Z 15006KT 1 1/2SM -RA BR OVC002 12/12 A2951 1240 100 1200 150/06 RMK AO2 P0001
14837KMSN MSN20031118060511411/18/03 06:05:31  5-MIN KMSN 181205Z 16005KT 1 1/2SM -RA BR OVC002 12/12 A2951 1240 100 1200 160/05 RMK AO2 P0001
14837KMSN MSN20031118061011411/18/03 06:10:31  5-MIN KMSN 181210Z 16006KT 1 1/2SM -RA BR OVC002 12/12 A2951 1240 100 1200 160/06 RMK AO2 P0001
14837KMSN MSN20031118061511311/18/03 06:15:31  5-MIN KMSN 181215Z 16007KT 1 1/2SM -RA BR OVC002 12/12 A2952 1240 96 1200 160/07 RMK AO2 P0002
14837KMSN MSN20031118070011311/18/03 07:00:31  5-MIN KMSN 181300Z 17004KT 1 1/2SM -RA BR OVC002 12/12 A2950 1260 96 1300 170/04 RMK AO2 P0001
14837KMSN MSN20031118070511511/18/03 07:05:31  5-MIN KMSN 181305Z 18005KT 1 1/2SM BR OVC002 12/12 A2949 1270 96 1300 180/05 RMK AO2 RAE05 P0001
14837KMSN MSN20031118071012311/18/03 07:10:31  5-MIN KMSN 181310Z 18004KT 1 1/2SM BR OVC002 12/12 A2948 1270 100 1200 180/04 RMK AO2 RAE05 PRESFR P0001
14837KMSN MSN20031118071511611/18/03 07:15:31  5-MIN KMSN 181315Z 20003KT 1 1/2SM BR OVC002 12/12 A2949 1260 100 1200 200/03 RMK AO2 RAE05 P0001
14837KMSN MSN20031118072012611/18/03 07:20:31  5-MIN KMSN 181320Z 21003KT 1SM BR OVC002 12/12 A2950 1250 100 1200 210/03 RMK AO2 SFC VIS 1 1/2 RAE05 P0001
14837KMSN MSN20031118072512411/18/03 07:25:31  5-MIN KMSN 181325Z 19003KT 3/4SM BR OVC002 12/12 A2951 1250 100 1200 190/03 RMK AO2 SFC VIS 1 RAE05 P0001
14837KMSN MSN20031118073012411/18/03 07:30:31  5-MIN KMSN 181330Z 20003KT 3/4SM BR OVC002 12/12 A2951 1250 100 1200 200/03 RMK AO2 SFC VIS 1 RAE05 P0001
14837KMSN MSN20031118073512311/18/03 07:35:31  5-MIN KMSN 181335Z 19004KT 3/4SM BR OVC002 12/12 A2951 1250 96 1300 190/04 RMK AO2 SFC VIS 1 RAE05 P0001
14837KMSN MSN20031118074013111/18/03 07:40:31  5-MIN KMSN 181340Z 18004KT 3/4SM -RA BR OVC002 12/12 A2951 1250 100 1200 180/04 RMK AO2 SFC VIS 1 RAE05B40 P0001
14837KMSN MSN20031118074513111/18/03 07:45:31  5-MIN KMSN 181345Z 18004KT 3/4SM -RA BR OVC002 12/12 A2950 1250 100 1200 180/04 RMK AO2 SFC VIS 1 RAE05B40 P0001
14837KMSN MSN20031118075014811/18/03 07:50:31  5-MIN KMSN 181350Z 17004KT 3/4SM -RA BR OVC002 12/12 A2950 1260 100 1200 170/04 RMK AO2 SFC VIS 1 RAE05B40 SLP989 P0001 T01170117
14837KMSN MSN20031118075512211/18/03 07:55:31  5-MIN KMSN 181355Z 17005KT 3/4SM -RA BR OVC002 12/12 A2950 1250 100 1200 170/05 RMK AO2 SFC VIS 1 P0000
14837KMSN MSN20031118080012211/18/03 08:00:31  5-MIN KMSN 181400Z 17004KT 3/4SM -RA BR OVC002 12/12 A2949 1270 100 1200 170/04 RMK AO2 SFC VIS 1 P0001
14837KMSN MSN20031118080512211/18/03 08:05:31  5-MIN KMSN 181405Z 18004KT 3/4SM -RA BR OVC002 12/12 A2949 1270 100 1200 180/04 RMK AO2 SFC VIS 1 P0002
14837KMSN MSN20031118081012611/18/03 08:10:31  5-MIN KMSN 181410Z 17004KT 3/4SM -RA BR OVC002 12/12 A2949 1270 100 1200 170/04 RMK AO2 SFC VIS 1 1/4 P0002
14837KMSN MSN20031118081512111/18/03 08:15:31  5-MIN KMSN 181415Z 18005KT 3/4SM -RA BR OVC002 12/12 A2950 1260 96 1300 180/05 RMK AO2 SFC VIS 1 P0002
14837KMSN MSN20031118082012111/18/03 08:20:31  5-MIN KMSN 181420Z 18004KT 3/4SM -RA BR OVC002 12/12 A2950 1260 96 1300 180/04 RMK AO2 SFC VIS 1 P0003
14837KMSN MSN20031118082512111/18/03 08:25:31  5-MIN KMSN 181425Z 18004KT 3/4SM -RA BR OVC002 12/12 A2950 1260 96 1300 180/04 RMK AO2 SFC VIS 1 P0003
14837KMSN MSN20031118083012111/18/03 08:30:31  5-MIN KMSN 181430Z 19004KT 3/4SM -RA BR OVC002 12/12 A2950 1250 96 1300 190/04 RMK AO2 SFC VIS 1 P0003
14837KMSN MSN20031118083513311/18/03 08:35:31  5-MIN KMSN 181435Z 19005KT 3/4SM -RA BR OVC002 12/12 A2950 1250 96 1300 190/05 RMK AO2 SFC VIS 1 CIG 001V006 P0003
14837KMSN MSN20031118084013311/18/03 08:40:31  5-MIN KMSN 181440Z 19005KT 3/4SM -RA BR OVC002 12/12 A2950 1250 96 1300 190/05 RMK AO2 SFC VIS 1 CIG 002V006 P0003
14837KMSN MSN20031118084513311/18/03 08:45:31  5-MIN KMSN 181445Z 19004KT 3/4SM -RA BR OVC002 12/12 A2950 1250 96 1300 190/04 RMK AO2 SFC VIS 1 CIG 002V006 P0004
14837KMSN MSN20031118085015111/18/03 08:50:31  5-MIN KMSN 181450Z 19004KT 1SM -RA BR OVC002 12/12 A2951 1250 100 1300 190/04 RMK AO2 CIG 002V006 SLP994 P0004 60008 T01220122 56023
14837KMSN MSN20031118085513611/18/03 08:55:31  5-MIN KMSN 181455Z 19004KT 1SM -RA BR OVC002 12/12 A2950 1250 100 1300 190/04 RMK AO2 SFC VIS 2 1/2 CIG 002V005 P0001
14837KMSN MSN20031118090012211/18/03 09:00:31  5-MIN KMSN 181500Z 19005KT 1SM -RA BR OVC004 12/12 A2950 1260 100 1300 190/05 RMK AO2 CIG 002V008 P0001
14837KMSN MSN20031118090512111/18/03 09:05:31  5-MIN KMSN 181505Z 19004KT 1SM -RA BR OVC004 13/12 A2949 1260 96 1300 190/04 RMK AO2 CIG 002V008 P0002
14837KMSN MSN20031118091012111/18/03 09:10:31  5-MIN KMSN 181510Z 20003KT 1SM -RA BR OVC006 13/12 A2949 1260 96 1300 200/03 RMK AO2 CIG 002V008 P0002
14837KMSN MSN20031118091512111/18/03 09:15:31  5-MIN KMSN 181515Z 22003KT 1SM -RA BR OVC006 13/12 A2949 1260 96 1300 220/03 RMK AO2 CIG 002V008 P0002
14837KMSN MSN20031118092012111/18/03 09:20:31  5-MIN KMSN 181520Z 21003KT 1SM -RA BR OVC006 13/12 A2949 1260 96 1300 210/03 RMK AO2 CIG 002V009 P0002
14837KMSN MSN20031118092512111/18/03 09:25:31  5-MIN KMSN 181525Z 21004KT 1SM -RA BR OVC006 13/12 A2949 1270 96 1300 200/04 RMK AO2 CIG 003V009 P0002
14837KMSN MSN20031118093014411/18/03 09:30:31  5-MIN KMSN 181530Z 00000KT 1SM BR BKN006 OVC043 13/12 A2948 1270 96 1300 000/00 RMK AO2 SFC VIS 2 1/2 RAE30 CIG 003V009 P0002
14837KMSN MSN20031118093513411/18/03 09:35:31  5-MIN KMSN 181535Z 23003KT 2 1/2SM BR BKN006 OVC045 13/12 A2948 1280 96 1400 230/03 RMK AO2 RAE30 CIG 003V009 P0002
14837KMSN MSN20031118094013411/18/03 09:40:31  5-MIN KMSN 181540Z 23003KT 2 1/2SM BR BKN006 OVC045 13/12 A2949 1270 96 1300 230/03 RMK AO2 RAE30 CIG 003V009 P0002
14837KMSN MSN20031118094513411/18/03 09:45:31  5-MIN KMSN 181545Z 00000KT 2 1/2SM BR BKN006 OVC047 13/12 A2949 1260 96 1300 000/00 RMK AO2 RAE30 CIG 004V009 P0002
14837KMSN MSN20031118095015411/18/03 09:50:31  5-MIN KMSN 181550Z 00000KT 3SM BR BKN006 BKN019 OVC049 13/12 A2949 1270 96 1300 000/00 RMK AO2 RAE30 CIG 004V009 SLP986 P0002 T01280122
14837KMSN MSN20031118095513511/18/03 09:55:31  5-MIN KMSN 181555Z 00000KT 3SM BR BKN006 BKN019 OVC044 13/13 A2948 1280 96 1400 000/00 RMK AO2 SFC VIS 4 CIG 005V009
14837KMSN MSN20031118100012511/18/03 10:00:31  5-MIN KMSN 181600Z 00000KT 3SM BR BKN006 BKN019 OVC048 13/13 A2948 1270 96 1400 000/00 RMK AO2 CIG 005V010
14837KMSN MSN20031118100512511/18/03 10:05:31  5-MIN KMSN 181605Z 22003KT 3SM BR BKN008 BKN013 OVC018 13/12 A2948 1270 93 1400 220/03 RMK AO2 CIG 006V010
14837KMSN MSN20031118101012511/18/03 10:10:31  5-MIN KMSN 181610Z 00000KT 3SM BR BKN010 BKN013 OVC018 13/12 A2948 1280 96 1400 000/00 RMK AO2 CIG 006V011
14837KMSN MSN20031118101512511/18/03 10:15:31  5-MIN KMSN 181615Z 21004KT 3SM BR BKN010 BKN014 OVC018 13/12 A2949 1270 93 1400 210/04 RMK AO2 CIG 007V012
14837KMSN MSN20031118102012511/18/03 10:20:31  5-MIN KMSN 181620Z 00000KT 4SM BR BKN010 BKN014 OVC018 13/12 A2948 1270 93 1400 000/00 RMK AO2 CIG 007V012
14837KMSN MSN20031118102510611/18/03 10:25:31  5-MIN KMSN 181625Z 21003KT 4SM BR BKN012 OVC018 13/12 A2948 1270 93 1400 210/03 RMK AO2
14837KMSN MSN20031118103010611/18/03 10:30:31  5-MIN KMSN 181630Z 22004KT 4SM BR BKN012 OVC018 13/12 A2948 1270 93 1400 220/04 RMK AO2
14837KMSN MSN20031118103510611/18/03 10:35:31  5-MIN KMSN 181635Z 22003KT 4SM BR FEW010 OVC015 13/13 A2948 1270 96 1400 220/03 RMK AO2
14837KMSN MSN20031118104010611/18/03 10:40:31  5-MIN KMSN 181640Z 22005KT 5SM BR SCT010 OVC014 13/12 A2949 1260 93 1400 210/05 RMK AO2
14837KMSN MSN20031118104510611/18/03 10:45:31  5-MIN KMSN 181645Z 22003KT 5SM BR FEW009 OVC014 13/12 A2950 1260 93 1400 220/03 RMK AO2
14837KMSN MSN20031118105011611/18/03 10:50:31  5-MIN KMSN 181650Z 23003KT 5SM BR OVC012 13/12 A2950 1260 93 1400 230/03 RMK AO2 SLP990 T01330122
14837KMSN MSN20031118105510611/18/03 10:55:31  5-MIN KMSN 181655Z VRB03KT 5SM BR BKN010 OVC014 13/12 A2949 1260 96 1300 VRB/03 RMK AO2
14837KMSN MSN20031118110010611/18/03 11:00:31  5-MIN KMSN 181700Z 25004KT 4SM BR BKN010 OVC014 13/12 A2950 1260 96 1300 250/04 RMK AO2
14837KMSN MSN20031118110511811/18/03 11:05:31  5-MIN KMSN 181705Z VRB03KT 5SM BR BKN010 OVC014 13/12 A2950 1260 96 1300 VRB/03 RMK AO2 CIG 006V011
14837KMSN MSN20031118111011811/18/03 11:10:31  5-MIN KMSN 181710Z 25004KT 5SM BR BKN010 OVC014 13/12 A2950 1250 96 1300 250/04 RMK AO2 CIG 006V011
14837KMSN MSN20031118111510611/18/03 11:15:31  5-MIN KMSN 181715Z VRB04KT 5SM BR SCT010 OVC014 13/12 A2950 1250 93 1400 VRB/04 RMK AO2
14837KMSN MSN20031118112010611/18/03 11:20:31  5-MIN KMSN 181720Z 27004KT 6SM BR SCT010 OVC016 13/12 A2949 1260 93 1400 270/04 RMK AO2
14837KMSN MSN20031118112511011/18/03 11:25:31  5-MIN KMSN 181725Z 27004KT 7SM FEW010 SCT014 OVC019 13/12 A2950 1260 93 1400 270/04 RMK AO2
14837KMSN MSN20031118113011311/18/03 11:30:31  5-MIN KMSN 181730Z 28004KT 6SM BR FEW010 BKN015 OVC019 13/12 A2950 1260 93 1400 280/04 RMK AO2
14837KMSN MSN20031118113510611/18/03 11:35:31  5-MIN KMSN 181735Z 28006KT 6SM BR BKN015 OVC024 13/12 A2949 1260 93 1400 280/06 RMK AO2
14837KMSN MSN20031118114010311/18/03 11:40:31  5-MIN KMSN 181740Z 28004KT 7SM BKN015 OVC024 13/12 A2949 1270 93 1400 280/04 RMK AO2
14837KMSN MSN20031118114510311/18/03 11:45:31  5-MIN KMSN 181745Z 28004KT 8SM BKN015 OVC024 13/12 A2948 1270 93 1400 280/04 RMK AO2
14837KMSN MSN20031118115015111/18/03 11:50:31  5-MIN KMSN 181750Z 28004KT 8SM BKN017 OVC024 13/12 A2947 1280 93 1400 280/04 RMK AO2 PRESFR SLP981 60010 T01330122 10133 20117 55003
14837KMSN MSN20031118115510311/18/03 11:55:31  5-MIN KMSN 181755Z 29003KT 8SM BKN017 OVC024 13/12 A2947 1280 93 1400 290/03 RMK AO2
14837KMSN MSN20031118120009611/18/03 12:00:31  5-MIN KMSN 181800Z 30004KT 8SM OVC017 13/12 A2947 1280 93 1400 300/04 RMK AO2
14837KMSN MSN20031118120509611/18/03 12:05:31  5-MIN KMSN 181805Z 28004KT 7SM OVC015 13/12 A2947 1280 93 1400 280/04 RMK AO2
14837KMSN MSN20031118121011211/18/03 12:10:31  5-MIN KMSN 181810Z VRB04KT 7SM -DZ OVC015 13/12 A2947 1280 89 1400 VRB/04 RMK AO2 DZB08 P0000
14837KMSN MSN20031118121511211/18/03 12:15:31  5-MIN KMSN 181815Z 30005KT 7SM -DZ OVC013 13/12 A2948 1280 89 1400 300/05 RMK AO2 DZB08 P0000
14837KMSN MSN20031118122011211/18/03 12:20:31  5-MIN KMSN 181820Z 30007KT 7SM -DZ OVC013 13/12 A2948 1270 89 1400 290/07 RMK AO2 DZB08 P0000
14837KMSN MSN20031118122512011/18/03 12:25:31  5-MIN KMSN 181825Z 29007KT 7SM -RA OVC013 13/12 A2947 1280 93 1400 290/07 RMK AO2 DZB08E21RAB21 P0000
14837KMSN MSN20031118123011911/18/03 12:30:31  5-MIN KMSN 181830Z 30007KT 9SM OVC013 13/12 A2947 1280 93 1400 300/07 RMK AO2 DZB08E21RAB21E29 P0000
14837KMSN MSN20031118123512011/18/03 12:35:31  5-MIN KMSN 181835Z 28004KT 10SM OVC013 13/11 A2947 1280 89 1400 280/04 RMK AO2 DZB08E21RAB21E29 P0000
14837KMSN MSN20031118124012711/18/03 12:40:31  5-MIN KMSN 181840Z 30004KT 10SM BKN013 OVC032 13/11 A2948 1280 89 1400 300/04 RMK AO2 DZB08E21RAB21E29 P0000
14837KMSN MSN20031118124512711/18/03 12:45:31  5-MIN KMSN 181845Z 31004KT 10SM SCT013 OVC032 13/12 A2947 1280 93 1400 310/04 RMK AO2 DZB08E21RAB21E29 P0000
14837KMSN MSN20031118125014411/18/03 12:50:31  5-MIN KMSN 181850Z 30005KT 10SM SCT011 OVC034 13/12 A2947 1280 93 1400 300/05 RMK AO2 DZB08E21RAB21E29 SLP981 P0000 T01280117
14837KMSN MSN20031118125511111/18/03 12:55:31  5-MIN KMSN 181855Z 30004KT 10SM FEW011 BKN036 OVC042 13/11 A2946 1290 89 1400 300/04 RMK AO2
14837KMSN MSN20031118130011111/18/03 13:00:31  5-MIN KMSN 181900Z 28006KT 10SM FEW013 BKN034 OVC042 13/11 A2949 1270 89 1300 280/06 RMK AO2
14837KMSN MSN20031118130510411/18/03 13:05:31  5-MIN KMSN 181905Z 28005KT 10SM SCT034 OVC044 13/11 A2949 1260 86 1400 280/05 RMK AO2
14837KMSN MSN20031118131010411/18/03 13:10:31  5-MIN KMSN 181910Z 28005KT 10SM SCT034 OVC044 13/11 A2949 1260 89 1300 280/05 RMK AO2
14837KMSN MSN20031118131511111/18/03 13:15:31  5-MIN KMSN 181915Z 28007KT 10SM SCT040 BKN048 OVC060 13/11 A2949 1270 89 1300 280/07 RMK AO2
14837KMSN MSN20031118132010411/18/03 13:20:31  5-MIN KMSN 181920Z 30005KT 10SM BKN045 OVC060 13/11 A2948 1270 89 1300 300/05 RMK AO2
14837KMSN MSN20031118132510411/18/03 13:25:31  5-MIN KMSN 181925Z 30007KT 10SM BKN047 OVC060 13/11 A2948 1280 86 1400 300/07 RMK AO2
14837KMSN MSN20031118133010411/18/03 13:30:31  5-MIN KMSN 181930Z 30006KT 10SM SCT047 OVC060 13/11 A2948 1270 86 1300 300/06 RMK AO2
14837KMSN MSN20031118133510411/18/03 13:35:31  5-MIN KMSN 181935Z 29008KT 10SM FEW047 OVC065 13/11 A2949 1260 86 1300 290/08 RMK AO2
14837KMSN MSN20031118134011111/18/03 13:40:31  5-MIN KMSN 181940Z 30009KT 10SM FEW049 BKN065 OVC080 13/10 A2948 1270 83 1300 300/09 RMK AO2
14837KMSN MSN20031118134510411/18/03 13:45:31  5-MIN KMSN 181945Z 31007KT 10SM SCT065 BKN080 13/10 A2949 1270 83 1300 310/07 RMK AO2
14837KMSN MSN20031118135012811/18/03 13:50:31  5-MIN KMSN 181950Z 30007KT 10SM FEW020 SCT065 BKN080 13/10 A2949 1270 83 1300 300/07 RMK AO2 SLP986 T01280100
14837KMSN MSN20031118135511111/18/03 13:55:31  5-MIN KMSN 181955Z 31009KT 10SM SCT015 BKN065 OVC080 13/10 A2949 1260 83 1300 310/09 RMK AO2
14837KMSN MSN20031118140011111/18/03 14:00:31  5-MIN KMSN 182000Z 30008KT 10SM SCT015 BKN065 OVC080 13/10 A2949 1270 83 1300 300/08 RMK AO2
14837KMSN MSN20031118140510411/18/03 14:05:31  5-MIN KMSN 182005Z 31007KT 10SM SCT015 OVC080 13/09 A2949 1270 80 1300 310/07 RMK AO2
14837KMSN MSN20031118141010411/18/03 14:10:31  5-MIN KMSN 182010Z 32006KT 10SM FEW015 BKN080 13/09 A2949 1260 80 1300 310/06 RMK AO2
14837KMSN MSN20031118141510411/18/03 14:15:31  5-MIN KMSN 182015Z 32007KT 10SM FEW015 BKN080 13/09 A2949 1260 80 1300 320/07 RMK AO2
14837KMSN MSN20031118142010411/18/03 14:20:31  5-MIN KMSN 182020Z 32007KT 10SM FEW015 BKN080 13/09 A2949 1260 80 1300 320/07 RMK AO2
14837KMSN MSN20031118142510411/18/03 14:25:31  5-MIN KMSN 182025Z 32004KT 10SM FEW015 BKN080 13/09 A2949 1270 80 1300 310/04 RMK AO2
14837KMSN MSN20031118143009711/18/03 14:30:31  5-MIN KMSN 182030Z 33004KT 10SM BKN080 13/10 A2948 1270 83 1300 330/04 RMK AO2
14837KMSN MSN20031118143509711/18/03 14:35:31  5-MIN KMSN 182035Z VRB03KT 10SM BKN080 13/10 A2950 1260 83 1300 VRB/03 RMK AO2
14837KMSN MSN20031118144009711/18/03 14:40:31  5-MIN KMSN 182040Z 31005KT 10SM BKN080 13/09 A2950 1250 80 1300 300/05 RMK AO2
14837KMSN MSN20031118144509711/18/03 14:45:31  5-MIN KMSN 182045Z 30004KT 10SM BKN080 13/10 A2950 1260 83 1300 300/04 RMK AO2
14837KMSN MSN20031118145012611/18/03 14:50:31  5-MIN KMSN 182050Z VRB04KT 10SM BKN080 13/10 A2950 1250 83 1300 VRB/04 RMK AO2 SLP992 60000 T01280100 56011
14837KMSN MSN20031118145510411/18/03 14:55:31  5-MIN KMSN 182055Z 31003KT 10SM SCT080 BKN110 13/10 A2951 1250 83 1300 310/03 RMK AO2
14837KMSN MSN20031118150010411/18/03 15:00:31  5-MIN KMSN 182100Z VRB03KT 10SM SCT080 BKN110 13/09 A2951 1250 80 1300 VRB/03 RMK AO2
14837KMSN MSN20031118150510411/18/03 15:05:31  5-MIN KMSN 182105Z 30004KT 10SM SCT080 BKN110 13/09 A2951 1250 80 1300 300/04 RMK AO2
14837KMSN MSN20031118151010411/18/03 15:10:31  5-MIN KMSN 182110Z 00000KT 10SM SCT080 BKN110 13/09 A2951 1250 80 1300 000/00 RMK AO2
14837KMSN MSN20031118151510411/18/03 15:15:31  5-MIN KMSN 182115Z 30003KT 10SM SCT080 BKN110 12/09 A2951 1250 83 1300 300/03 RMK AO2
14837KMSN MSN20031118152010411/18/03 15:20:31  5-MIN KMSN 182120Z 30004KT 10SM SCT080 BKN110 12/09 A2951 1240 83 1200 300/04 RMK AO2
14837KMSN MSN20031118152510411/18/03 15:25:31  5-MIN KMSN 182125Z 30004KT 10SM SCT080 BKN110 12/09 A2951 1240 83 1200 300/04 RMK AO2
14837KMSN MSN20031118153010411/18/03 15:30:31  5-MIN KMSN 182130Z 29003KT 10SM SCT080 BKN110 12/09 A2952 1240 83 1200 290/03 RMK AO2
14837KMSN MSN20031118153510411/18/03 15:35:31  5-MIN KMSN 182135Z 00000KT 10SM SCT080 BKN110 12/09 A2952 1230 83 1200 000/00 RMK AO2
14837KMSN MSN20031118154010411/18/03 15:40:31  5-MIN KMSN 182140Z 00000KT 10SM SCT080 BKN110 12/09 A2951 1240 83 1200 000/00 RMK AO2
14837KMSN MSN20031118154510411/18/03 15:45:31  5-MIN KMSN 182145Z 00000KT 10SM SCT025 BKN080 12/09 A2952 1240 83 1200 000/00 RMK AO2
14837KMSN MSN20031118155012111/18/03 15:50:31  5-MIN KMSN 182150Z 00000KT 10SM SCT025 BKN080 12/09 A2952 1240 83 1200 000/00 RMK AO2 SLP996 T01220094
14837KMSN MSN20031118155509711/18/03 15:55:31  5-MIN KMSN 182155Z 00000KT 10SM FEW028 12/09 A2952 1240 83 1200 000/00 RMK AO2
14837KMSN MSN20031118160010411/18/03 16:00:31  5-MIN KMSN 182200Z 00000KT 10SM SCT028 BKN080 12/09 A2952 1240 83 1200 000/00 RMK AO2
14837KMSN MSN20031118160510411/18/03 16:05:31  5-MIN KMSN 182205Z 00000KT 10SM SCT028 BKN080 12/09 A2952 1240 86 1200 000/00 RMK AO2
14837KMSN MSN20031118161010411/18/03 16:10:31  5-MIN KMSN 182210Z 00000KT 10SM SCT028 BKN080 12/10 A2952 1240 89 1200 000/00 RMK AO2
14837KMSN MSN20031118161509711/18/03 16:15:31  5-MIN KMSN 182215Z VRB03KT 10SM FEW028 12/09 A2952 1230 86 1200 VRB/03 RMK AO2
14837KMSN MSN20031118162009711/18/03 16:20:31  5-MIN KMSN 182220Z 29006KT 10SM FEW028 12/09 A2952 1230 86 1200 290/06 RMK AO2
14837KMSN MSN20031118162509711/18/03 16:25:31  5-MIN KMSN 182225Z 30007KT 10SM FEW028 12/09 A2952 1230 83 1200 300/07 RMK AO2
14837KMSN MSN20031118163010311/18/03 16:30:31  5-MIN KMSN 182230Z 31008KT 10SM FEW028 12/09 A2952 1230 83 1200 300/08 RMK AO2 P0001
14837KMSN MSN20031118163509911/18/03 16:35:31  5-MIN KMSN 182235Z 31010KT 9SM CLR 12/09 A2952 1240 80 1200 310/10 RMK AO2 P0001
14837KMSN MSN20031118164010211/18/03 16:40:31  5-MIN KMSN 182240Z 31010KT 8SM FEW028 12/08 A2952 1230 80 1200 310/10 RMK AO2 P0001
14837KMSN MSN20031118164510211/18/03 16:45:31  5-MIN KMSN 182245Z 31009KT 7SM FEW028 12/08 A2952 1240 80 1200 310/09 RMK AO2 P0001
14837KMSN MSN20031118165012311/18/03 16:50:31  5-MIN KMSN 182250Z 31009KT 5SM HZ FEW028 SCT120 11/08 A2952 1240 80 1100 310/09 RMK AO2 SLP998 T01110078
14837KMSN MSN20031118165510611/18/03 16:55:31  5-MIN KMSN 182255Z 30007KT 5SM HZ FEW028 SCT120 11/08 A2953 1230 80 1100 300/07 RMK AO2
14837KMSN MSN20031118170010611/18/03 17:00:31  5-MIN KMSN 182300Z 30009KT 5SM HZ FEW028 SCT120 11/08 A2954 1220 80 1100 300/09 RMK AO2
14837KMSN MSN20031118170510611/18/03 17:05:31  5-MIN KMSN 182305Z 30007KT 5SM HZ FEW028 SCT120 11/08 A2954 1220 80 1100 300/07 RMK AO2
14837KMSN MSN20031118171010311/18/03 17:10:31  5-MIN KMSN 182310Z 30007KT 7SM FEW028 SCT120 11/08 A2955 1210 80 1100 300/07 RMK AO2
14837KMSN MSN20031118171510311/18/03 17:15:31  5-MIN KMSN 182315Z 31008KT 7SM FEW028 SCT120 11/08 A2955 1210 83 1000 310/08 RMK AO2
14837KMSN MSN20031118172009611/18/03 17:20:31  5-MIN KMSN 182320Z 31009KT 7SM SCT120 11/07 A2955 1210 80 1000 310/09 RMK AO2
14837KMSN MSN20031118172509611/18/03 17:25:31  5-MIN KMSN 182325Z 32008KT 8SM SCT120 11/07 A2955 1210 80 1000 320/08 RMK AO2
14837KMSN MSN20031118173009611/18/03 17:30:31  5-MIN KMSN 182330Z 30008KT 8SM SCT120 11/07 A2956 1200 77 1000 300/08 RMK AO2
14837KMSN MSN20031118173509611/18/03 17:35:31  5-MIN KMSN 182335Z 31008KT 8SM SCT120 11/07 A2956 1200 77 1000 310/08 RMK AO2
14837KMSN MSN20031118174009611/18/03 17:40:31  5-MIN KMSN 182340Z 31006KT 8SM SCT120 11/07 A2956 1200 77 1000 310/06 RMK AO2
14837KMSN MSN20031118174509311/18/03 17:45:31  5-MIN KMSN 182345Z 31007KT 8SM CLR 11/07 A2957 1190 77 1000 310/07 RMK AO2
14837KMSN MSN20031118175013311/18/03 17:50:31  5-MIN KMSN 182350Z 31006KT 8SM CLR 10/07 A2957 1190 80 900 310/06 RMK AO2 SLP015 60000 T01000067 10133 20100 53011
14837KMSN MSN20031118175509211/18/03 17:55:31  5-MIN KMSN 182355Z 31006KT 8SM CLR 10/07 A2957 1190 80 900 310/06 RMK AO2
14837KMSN MSN20031118180009211/18/03 18:00:31  5-MIN KMSN 190000Z 31006KT 7SM CLR 10/07 A2957 1190 80 900 310/06 RMK AO2
14837KMSN MSN20031118180509211/18/03 18:05:31  5-MIN KMSN 190005Z 30005KT 7SM CLR 10/06 A2957 1190 77 900 300/05 RMK AO2
14837KMSN MSN20031118181009211/18/03 18:10:31  5-MIN KMSN 190010Z 30005KT 7SM CLR 10/06 A2957 1190 77 900 300/05 RMK AO2
14837KMSN MSN20031118181509211/18/03 18:15:31  5-MIN KMSN 190015Z 30006KT 7SM CLR 09/06 A2957 1190 79 800 300/06 RMK AO2
14837KMSN MSN20031118182009511/18/03 18:20:31  5-MIN KMSN 190020Z 30004KT 6SM HZ CLR 09/06 A2957 1190 79 800 300/04 RMK AO2
14837KMSN MSN20031118182509211/18/03 18:25:31  5-MIN KMSN 190025Z 29003KT 7SM CLR 09/06 A2958 1180 79 800 290/03 RMK AO2
14837KMSN MSN20031118183009211/18/03 18:30:31  5-MIN KMSN 190030Z 00000KT 7SM CLR 09/06 A2958 1180 83 800 000/00 RMK AO2
14837KMSN MSN20031118183509211/18/03 18:35:31  5-MIN KMSN 190035Z 00000KT 7SM CLR 09/06 A2959 1180 83 800 000/00 RMK AO2
14837KMSN MSN20031118184009211/18/03 18:40:31  5-MIN KMSN 190040Z 00000KT 7SM CLR 09/07 A2959 1170 83 800 000/00 RMK AO2
14837KMSN MSN20031118184509511/18/03 18:45:31  5-MIN KMSN 190045Z 00000KT 6SM BR CLR 09/07 A2959 1170 86 800 000/00 RMK AO2
14837KMSN MSN20031118185011211/18/03 18:50:31  5-MIN KMSN 190050Z 00000KT 6SM HZ CLR 09/06 A2959 1170 83 800 000/00 RMK AO2 SLP021 T00890061
14837KMSN MSN20031118185509511/18/03 18:55:31  5-MIN KMSN 190055Z 00000KT 5SM BR CLR 08/06 A2959 1170 86 700 000/00 RMK AO2
14837KMSN MSN20031118190009511/18/03 19:00:31  5-MIN KMSN 190100Z 00000KT 5SM BR CLR 07/06 A2959 1170 93 600 000/00 RMK AO2
14837KMSN MSN20031118190509511/18/03 19:05:31  5-MIN KMSN 190105Z 00000KT 5SM BR CLR 08/06 A2959 1170 89 600 000/00 RMK AO2
14837KMSN MSN20031118191009511/18/03 19:10:31  5-MIN KMSN 190110Z 28004KT 5SM BR CLR 07/06 A2959 1170 93 600 280/04 RMK AO2
14837KMSN MSN20031118191509511/18/03 19:15:31  5-MIN KMSN 190115Z VRB04KT 5SM BR CLR 08/06 A2959 1170 89 600 VRB/04 RMK AO2
14837KMSN MSN20031118192009511/18/03 19:20:31  5-MIN KMSN 190120Z 27004KT 5SM BR CLR 08/06 A2960 1170 89 600 270/04 RMK AO2
14837KMSN MSN20031118192509511/18/03 19:25:31  5-MIN KMSN 190125Z 27003KT 5SM BR CLR 08/06 A2959 1170 89 600 270/03 RMK AO2
14837KMSN MSN20031118193009511/18/03 19:30:31  5-MIN KMSN 190130Z VRB03KT 5SM BR CLR 08/06 A2959 1170 89 600 VRB/03 RMK AO2
14837KMSN MSN20031118193509511/18/03 19:35:31  5-MIN KMSN 190135Z VRB03KT 5SM BR CLR 08/06 A2959 1170 89 600 VRB/03 RMK AO2
14837KMSN MSN20031118194009511/18/03 19:40:31  5-MIN KMSN 190140Z VRB04KT 5SM BR CLR 08/06 A2960 1170 86 600 VRB/04 RMK AO2
14837KMSN MSN20031118194509511/18/03 19:45:31  5-MIN KMSN 190145Z VRB04KT 5SM BR CLR 08/06 A2960 1160 86 600 VRB/04 RMK AO2
14837KMSN MSN20031118195011211/18/03 19:50:31  5-MIN KMSN 190150Z 27004KT 5SM BR CLR 07/06 A2960 1160 89 500 270/04 RMK AO2 SLP026 T00720056
14837KMSN MSN20031118195509511/18/03 19:55:31  5-MIN KMSN 190155Z 27005KT 5SM HZ CLR 08/05 A2960 1160 82 600 270/05 RMK AO2
14837KMSN MSN20031118200009511/18/03 20:00:31  5-MIN KMSN 190200Z 27005KT 5SM HZ CLR 08/05 A2960 1160 82 600 270/05 RMK AO2
14837KMSN MSN20031118200509511/18/03 20:05:31  5-MIN KMSN 190205Z 28005KT 5SM HZ CLR 07/04 A2960 1160 82 500 280/05 RMK AO2
14837KMSN MSN20031118201009511/18/03 20:10:31  5-MIN KMSN 190210Z 27004KT 5SM HZ CLR 08/04 A2960 1160 79 600 260/04 RMK AO2
14837KMSN MSN20031118201509511/18/03 20:15:31  5-MIN KMSN 190215Z VRB03KT 5SM HZ CLR 07/04 A2961 1150 82 500 VRB/03 RMK AO2
14837KMSN MSN20031118202009511/18/03 20:20:31  5-MIN KMSN 190220Z 26003KT 6SM HZ CLR 07/04 A2961 1150 82 500 260/03 RMK AO2
14837KMSN MSN20031118202509511/18/03 20:25:31  5-MIN KMSN 190225Z VRB03KT 6SM HZ CLR 07/04 A2961 1150 82 500 VRB/03 RMK AO2
14837KMSN MSN20031118203009511/18/03 20:30:31  5-MIN KMSN 190230Z VRB04KT 6SM HZ CLR 07/04 A2962 1150 79 500 VRB/04 RMK AO2
14837KMSN MSN20031118203509511/18/03 20:35:31  5-MIN KMSN 190235Z VRB03KT 6SM HZ CLR 07/04 A2962 1150 82 500 VRB/03 RMK AO2
14837KMSN MSN20031118204009511/18/03 20:40:31  5-MIN KMSN 190240Z 00000KT 6SM HZ CLR 07/04 A2962 1150 82 500 000/00 RMK AO2
14837KMSN MSN20031118204509511/18/03 20:45:31  5-MIN KMSN 190245Z 00000KT 6SM HZ CLR 07/04 A2962 1140 82 500 000/00 RMK AO2
14837KMSN MSN20031118205011811/18/03 20:50:31  5-MIN KMSN 190250Z 00000KT 6SM BR CLR 06/04 A2962 1140 86 400 000/00 RMK AO2 SLP033 T00610039 53021
14837KMSN MSN20031118205509511/18/03 20:55:31  5-MIN KMSN 190255Z 00000KT 6SM BR CLR 06/04 A2962 1140 86 400 000/00 RMK AO2
14837KMSN MSN20031118210009211/18/03 21:00:31  5-MIN KMSN 190300Z VRB04KT 7SM CLR 06/03 A2962 1140 82 400 VRB/04 RMK AO2
14837KMSN MSN20031118210509211/18/03 21:05:31  5-MIN KMSN 190305Z 27004KT 7SM CLR 06/03 A2962 1140 79 400 270/04 RMK AO2
14837KMSN MSN20031118211009211/18/03 21:10:31  5-MIN KMSN 190310Z 27005KT 8SM CLR 06/03 A2962 1140 79 400 270/05 RMK AO2
14837KMSN MSN20031118211509211/18/03 21:15:31  5-MIN KMSN 190315Z 27006KT 9SM CLR 07/02 A2962 1140 73 400 270/06 RMK AO2
14837KMSN MSN20031118212009311/18/03 21:20:31  5-MIN KMSN 190320Z 28007KT 10SM CLR 06/02 A2963 1140 76 400 270/07 RMK AO2
14837KMSN MSN20031118212509311/18/03 21:25:31  5-MIN KMSN 190325Z 28007KT 10SM CLR 07/02 A2963 1140 70 400 280/07 RMK AO2
14837KMSN MSN20031118213010911/18/03 21:30:31  5-MIN KMSN 190330Z 28007KT 240V310 10SM CLR 07/02 A2963 1130 70 400 280/07 240V310 RMK AO2
14837KMSN MSN20031118213509311/18/03 21:35:31  5-MIN KMSN 190335Z 28006KT 10SM CLR 07/02 A2963 1130 70 400 280/06 RMK AO2
14837KMSN MSN20031118214009311/18/03 21:40:31  5-MIN KMSN 190340Z 28007KT 10SM CLR 07/02 A2963 1130 70 400 280/07 RMK AO2
14837KMSN MSN20031118214509311/18/03 21:45:31  5-MIN KMSN 190345Z 28005KT 10SM CLR 06/02 A2963 1130 73 400 280/05 RMK AO2
14837KMSN MSN20031118215011011/18/03 21:50:31  5-MIN KMSN 190350Z 28005KT 10SM CLR 06/02 A2964 1130 73 400 280/05 RMK AO2 SLP038 T00610017
14837KMSN MSN20031118215509311/18/03 21:55:31  5-MIN KMSN 190355Z VRB03KT 10SM CLR 06/02 A2964 1130 76 300 VRB/03 RMK AO2
14837KMSN MSN20031118220009311/18/03 22:00:31  5-MIN KMSN 190400Z VRB03KT 10SM CLR 06/02 A2964 1130 73 400 VRB/03 RMK AO2
14837KMSN MSN20031118220509311/18/03 22:05:31  5-MIN KMSN 190405Z 28003KT 10SM CLR 06/02 A2964 1120 73 400 270/03 RMK AO2
14837KMSN MSN20031118221009311/18/03 22:10:31  5-MIN KMSN 190410Z VRB04KT 10SM CLR 06/02 A2964 1120 76 300 VRB/04 RMK AO2
14837KMSN MSN20031118221509311/18/03 22:15:31  5-MIN KMSN 190415Z 29005KT 10SM CLR 06/02 A2964 1120 76 300 280/05 RMK AO2
14837KMSN MSN20031118222009311/18/03 22:20:31  5-MIN KMSN 190420Z 28006KT 10SM CLR 06/02 A2964 1120 76 300 280/06 RMK AO2
14837KMSN MSN20031118222509311/18/03 22:25:31  5-MIN KMSN 190425Z 28007KT 10SM CLR 06/02 A2965 1120 76 300 280/07 RMK AO2
14837KMSN MSN20031118223009311/18/03 22:30:31  5-MIN KMSN 190430Z 28007KT 10SM CLR 06/02 A2965 1120 76 300 270/07 RMK AO2
14837KMSN MSN20031118223509311/18/03 22:35:31  5-MIN KMSN 190435Z VRB06KT 10SM CLR 06/02 A2965 1110 76 300 VRB/06 RMK AO2
14837KMSN MSN20031118224009311/18/03 22:40:31  5-MIN KMSN 190440Z 27007KT 10SM CLR 06/02 A2966 1110 76 300 270/07 RMK AO2
14837KMSN MSN20031118224509311/18/03 22:45:31  5-MIN KMSN 190445Z 27005KT 10SM CLR 06/02 A2966 1110 76 300 270/05 RMK AO2
14837KMSN MSN20031118225011011/18/03 22:50:31  5-MIN KMSN 190450Z VRB04KT 10SM CLR 05/02 A2966 1100 79 200 VRB/04 RMK AO2 SLP048 T00500017
14837KMSN MSN20031118225509311/18/03 22:55:31  5-MIN KMSN 190455Z 00000KT 10SM CLR 05/02 A2966 1100 79 200 000/00 RMK AO2
14837KMSN MSN20031118230009311/18/03 23:00:31  5-MIN KMSN 190500Z VRB04KT 10SM CLR 05/01 A2967 1100 76 200 VRB/04 RMK AO2
14837KMSN MSN20031118230509311/18/03 23:05:31  5-MIN KMSN 190505Z 28006KT 10SM CLR 05/01 A2967 1100 76 200 280/06 RMK AO2
14837KMSN MSN20031118231009311/18/03 23:10:31  5-MIN KMSN 190510Z 27006KT 10SM CLR 05/01 A2968 1090 76 200 270/06 RMK AO2
14837KMSN MSN20031118231509311/18/03 23:15:31  5-MIN KMSN 190515Z 27006KT 10SM CLR 05/01 A2968 1090 76 200 270/06 RMK AO2
14837KMSN MSN20031118232009311/18/03 23:20:31  5-MIN KMSN 190520Z 27007KT 10SM CLR 05/01 A2968 1090 76 200 270/07 RMK AO2
14837KMSN MSN20031118232509311/18/03 23:25:31  5-MIN KMSN 190525Z 27006KT 10SM CLR 05/01 A2968 1090 76 200 270/06 RMK AO2
14837KMSN MSN20031118233009311/18/03 23:30:31  5-MIN KMSN 190530Z 27006KT 10SM CLR 05/01 A2968 1090 76 200 270/06 RMK AO2
14837KMSN MSN20031118233509311/18/03 23:35:31  5-MIN KMSN 190535Z VRB05KT 10SM CLR 05/01 A2968 1090 76 200 VRB/05 RMK AO2
14837KMSN MSN20031118234009311/18/03 23:40:31  5-MIN KMSN 190540Z 27005KT 10SM CLR 05/01 A2968 1090 76 200 270/05 RMK AO2
14837KMSN MSN20031118234509311/18/03 23:45:31  5-MIN KMSN 190545Z 28005KT 10SM CLR 04/01 A2968 1090 79 100 280/05 RMK AO2
14837KMSN MSN20031118235013811/18/03 23:50:31  5-MIN KMSN 190550Z 27005KT 10SM CLR 04/01 A2968 1080 79 100 270/05 RMK AO2 SLP055 T00440011 10100 20044 401330044 53017
14837KMSN MSN20031118235509111/18/03 23:55:31  5-MIN KMSN 190555Z 27004KT 10SM CLR 04/01 A2969 1080 82 0 270/04 RMK AO2
14837KMSN MSN20031119000009111/19/03 00:00:31  5-MIN KMSN 190600Z 26005KT 10SM CLR 04/01 A2969 1080 82 0 260/05 RMK AO2
14837KMSN MSN20031119000509111/19/03 00:05:31  5-MIN KMSN 190605Z 27005KT 10SM CLR 04/01 A2969 1080 82 0 270/05 RMK AO2
14837KMSN MSN20031119001009111/19/03 00:10:31  5-MIN KMSN 190610Z 27005KT 10SM CLR 04/01 A2969 1080 82 0 270/05 RMK AO2
14837KMSN MSN20031119001509111/19/03 00:15:31  5-MIN KMSN 190615Z 27005KT 10SM CLR 04/01 A2969 1080 82 0 270/05 RMK AO2
14837KMSN MSN20031119002009111/19/03 00:20:31  5-MIN KMSN 190620Z 27006KT 10SM CLR 04/01 A2969 1080 82 0 270/06 RMK AO2
14837KMSN MSN20031119002509111/19/03 00:25:31  5-MIN KMSN 190625Z 28005KT 10SM CLR 04/01 A2969 1070 82 0 280/05 RMK AO2
14837KMSN MSN20031119003009111/19/03 00:30:31  5-MIN KMSN 190630Z 28004KT 10SM CLR 04/01 A2970 1070 82 0 270/04 RMK AO2
14837KMSN MSN20031119003509111/19/03 00:35:31  5-MIN KMSN 190635Z 28004KT 10SM CLR 04/01 A2970 1070 82 0 270/04 RMK AO2
14837KMSN MSN20031119004009111/19/03 00:40:31  5-MIN KMSN 190640Z 28004KT 10SM CLR 03/01 A2970 1070 82 0 280/04 RMK AO2
14837KMSN MSN20031119004509111/19/03 00:45:31  5-MIN KMSN 190645Z VRB03KT 10SM CLR 03/01 A2970 1070 82 0 VRB/03 RMK AO2
14837KMSN MSN20031119005010811/19/03 00:50:31  5-MIN KMSN 190650Z 28003KT 10SM CLR 04/01 A2970 1070 79 0 280/03 RMK AO2 SLP061 T00390006
14837KMSN MSN20031119005509111/19/03 00:55:31  5-MIN KMSN 190655Z 00000KT 10SM CLR 03/01 A2970 1070 82 0 000/00 RMK AO2
14837KMSN MSN20031119010009111/19/03 01:00:31  5-MIN KMSN 190700Z 00000KT 10SM CLR 03/01 A2970 1070 82 0 000/00 RMK AO2
14837KMSN MSN20031119010509111/19/03 01:05:31  5-MIN KMSN 190705Z 00000KT 10SM CLR 04/01 A2970 1070 79 0 000/00 RMK AO2
14837KMSN MSN20031119011009111/19/03 01:10:31  5-MIN KMSN 190710Z 00000KT 10SM CLR 03/01 A2970 1070 82 0 000/00 RMK AO2
14837KMSN MSN20031119011509111/19/03 01:15:31  5-MIN KMSN 190715Z VRB03KT 10SM CLR 04/01 A2970 1070 79 0 VRB/03 RMK AO2
14837KMSN MSN20031119012009111/19/03 01:20:31  5-MIN KMSN 190720Z 00000KT 10SM CLR 03/01 A2970 1070 82 0 000/00 RMK AO2
14837KMSN MSN20031119012509111/19/03 01:25:31  5-MIN KMSN 190725Z 00000KT 10SM CLR 03/01 A2970 1070 82 0 000/00 RMK AO2
14837KMSN MSN20031119013009111/19/03 01:30:31  5-MIN KMSN 190730Z VRB04KT 10SM CLR 03/01 A2970 1070 82 0 VRB/04 RMK AO2
14837KMSN MSN20031119013509111/19/03 01:35:31  5-MIN KMSN 190735Z VRB03KT 10SM CLR 03/01 A2970 1070 82 0 VRB/03 RMK AO2
14837KMSN MSN20031119014009411/19/03 01:40:31  5-MIN KMSN 190740Z VRB04KT 10SM CLR 03/00 A2970 1070 82 -100 VRB/04 RMK AO2
14837KMSN MSN20031119014509111/19/03 01:45:31  5-MIN KMSN 190745Z 00000KT 10SM CLR 03/00 A2971 1060 79 0 000/00 RMK AO2
14837KMSN MSN20031119015011111/19/03 01:50:31  5-MIN KMSN 190750Z 00000KT 10SM CLR 03/00 A2971 1060 82 -100 000/00 RMK AO2 SLP063 T00280000
14837KMSN MSN20031119015509111/19/03 01:55:31  5-MIN KMSN 190755Z VRB03KT 10SM CLR 03/00 A2971 1060 79 0 VRB/03 RMK AO2
14837KMSN MSN20031119020009111/19/03 02:00:31  5-MIN KMSN 190800Z VRB03KT 10SM CLR 03/00 A2971 1060 79 0 VRB/03 RMK AO2
14837KMSN MSN20031119020509111/19/03 02:05:31  5-MIN KMSN 190805Z VRB03KT 10SM CLR 03/00 A2971 1060 79 0 VRB/03 RMK AO2
14837KMSN MSN20031119021009111/19/03 02:10:31  5-MIN KMSN 190810Z VRB04KT 10SM CLR 03/00 A2971 1060 79 0 VRB/04 RMK AO2
14837KMSN MSN20031119021509111/19/03 02:15:31  5-MIN KMSN 190815Z VRB05KT 10SM CLR 03/00 A2971 1060 79 0 VRB/05 RMK AO2
14837KMSN MSN20031119022009111/19/03 02:20:31  5-MIN KMSN 190820Z VRB04KT 10SM CLR 03/00 A2971 1060 79 0 VRB/04 RMK AO2
14837KMSN MSN20031119022509411/19/03 02:25:31  5-MIN KMSN 190825Z 00000KT 10SM CLR 03/00 A2970 1070 82 -100 000/00 RMK AO2
14837KMSN MSN20031119023009411/19/03 02:30:31  5-MIN KMSN 190830Z 00000KT 10SM CLR 03/00 A2970 1070 82 -100 000/00 RMK AO2
14837KMSN MSN20031119023509411/19/03 02:35:31  5-MIN KMSN 190835Z 27004KT 10SM CLR 03/00 A2970 1070 82 -100 270/04 RMK AO2
14837KMSN MSN20031119024009411/19/03 02:40:31  5-MIN KMSN 190840Z VRB06KT 10SM CLR 03/00 A2970 1070 82 -100 VRB/06 RMK AO2
14837KMSN MSN20031119024509411/19/03 02:45:31  5-MIN KMSN 190845Z VRB05KT 10SM CLR 03/00 A2970 1070 82 -100 VRB/05 RMK AO2
14837KMSN MSN20031119025011711/19/03 02:50:31  5-MIN KMSN 190850Z VRB04KT 10SM CLR 03/00 A2970 1070 82 -100 VRB/04 RMK AO2 SLP060 T00280000 53022
14837KMSN MSN20031119025509411/19/03 02:55:31  5-MIN KMSN 190855Z 26005KT 10SM CLR 03/00 A2970 1070 82 -100 250/05 RMK AO2
14837KMSN MSN20031119030009411/19/03 03:00:31  5-MIN KMSN 190900Z VRB04KT 10SM CLR 03/00 A2970 1070 82 -100 VRB/04 RMK AO2
14837KMSN MSN20031119030509411/19/03 03:05:31  5-MIN KMSN 190905Z VRB05KT 10SM CLR 03/00 A2970 1070 82 -100 VRB/05 RMK AO2
14837KMSN MSN20031119031009411/19/03 03:10:31  5-MIN KMSN 190910Z VRB06KT 10SM CLR 03/00 A2970 1070 82 -100 VRB/06 RMK AO2
14837KMSN MSN20031119031509411/19/03 03:15:31  5-MIN KMSN 190915Z VRB04KT 10SM CLR 03/00 A2970 1070 82 -100 VRB/04 RMK AO2
14837KMSN MSN20031119032009411/19/03 03:20:31  5-MIN KMSN 190920Z 26005KT 10SM CLR 03/00 A2970 1070 82 -100 260/05 RMK AO2
14837KMSN MSN20031119032509411/19/03 03:25:31  5-MIN KMSN 190925Z VRB05KT 10SM CLR 03/00 A2970 1070 82 -100 VRB/05 RMK AO2
14837KMSN MSN20031119033009511/19/03 03:30:31  5-MIN KMSN 190930Z 26005KT 10SM CLR 03/M01 A2970 1070 79 -100 260/05 RMK AO2
14837KMSN MSN20031119033509511/19/03 03:35:31  5-MIN KMSN 190935Z 26005KT 10SM CLR 03/M01 A2970 1060 79 -100 260/05 RMK AO2
14837KMSN MSN20031119034009511/19/03 03:40:31  5-MIN KMSN 190940Z 26006KT 10SM CLR 03/M01 A2971 1060 79 -100 260/06 RMK AO2
14837KMSN MSN20031119034509511/19/03 03:45:31  5-MIN KMSN 190945Z 26007KT 10SM CLR 03/M01 A2971 1060 79 -100 260/07 RMK AO2
14837KMSN MSN20031119035011211/19/03 03:50:31  5-MIN KMSN 190950Z 26006KT 10SM CLR 03/M01 A2971 1060 79 -100 260/06 RMK AO2 SLP065 T00281006
14837KMSN MSN20031119035509511/19/03 03:55:31  5-MIN KMSN 190955Z 27006KT 10SM CLR 03/M01 A2971 1060 79 -100 260/06 RMK AO2
14837KMSN MSN20031119040009511/19/03 04:00:31  5-MIN KMSN 191000Z 26004KT 10SM CLR 03/M01 A2971 1060 79 -100 260/04 RMK AO2
14837KMSN MSN20031119040509511/19/03 04:05:31  5-MIN KMSN 191005Z VRB04KT 10SM CLR 02/M01 A2971 1060 82 -200 VRB/04 RMK AO2
14837KMSN MSN20031119041009511/19/03 04:10:31  5-MIN KMSN 191010Z 26004KT 10SM CLR 03/M01 A2972 1050 79 -100 260/04 RMK AO2
14837KMSN MSN20031119041509511/19/03 04:15:31  5-MIN KMSN 191015Z 00000KT 10SM CLR 02/M01 A2972 1050 82 -200 000/00 RMK AO2
14837KMSN MSN20031119042009511/19/03 04:20:31  5-MIN KMSN 191020Z VRB03KT 10SM CLR 02/M01 A2972 1050 82 -200 VRB/03 RMK AO2
14837KMSN MSN20031119042509511/19/03 04:25:31  5-MIN KMSN 191025Z 00000KT 10SM CLR 02/M01 A2972 1050 82 -200 000/00 RMK AO2
14837KMSN MSN20031119043009511/19/03 04:30:31  5-MIN KMSN 191030Z VRB04KT 10SM CLR 02/M01 A2972 1050 82 -200 VRB/04 RMK AO2
14837KMSN MSN20031119043509511/19/03 04:35:31  5-MIN KMSN 191035Z 27004KT 10SM CLR 02/M01 A2972 1050 82 -200 270/04 RMK AO2
14837KMSN MSN20031119044009511/19/03 04:40:31  5-MIN KMSN 191040Z VRB05KT 10SM CLR 02/M01 A2972 1050 82 -200 VRB/05 RMK AO2
14837KMSN MSN20031119044509511/19/03 04:45:31  5-MIN KMSN 191045Z VRB06KT 10SM CLR 02/M01 A2972 1050 82 -200 VRB/06 RMK AO2
14837KMSN MSN20031119045011211/19/03 04:50:31  5-MIN KMSN 191050Z VRB05KT 10SM CLR 02/M01 A2972 1050 82 -200 VRB/05 RMK AO2 SLP070 T00221006
14837KMSN MSN20031119045509511/19/03 04:55:31  5-MIN KMSN 191055Z VRB04KT 10SM CLR 02/M01 A2972 1050 82 -200 VRB/04 RMK AO2
14837KMSN MSN20031119050009511/19/03 05:00:31  5-MIN KMSN 191100Z 27004KT 10SM CLR 02/M01 A2972 1050 82 -200 270/04 RMK AO2
14837KMSN MSN20031119050509511/19/03 05:05:31  5-MIN KMSN 191105Z 00000KT 10SM CLR 02/M01 A2971 1060 82 -100 000/00 RMK AO2
14837KMSN MSN20031119051009511/19/03 05:10:31  5-MIN KMSN 191110Z VRB03KT 10SM CLR 02/M01 A2971 1060 82 -100 VRB/03 RMK AO2
14837KMSN MSN20031119051509511/19/03 05:15:31  5-MIN KMSN 191115Z VRB03KT 10SM CLR 02/M01 A2971 1060 82 -100 VRB/03 RMK AO2
14837KMSN MSN20031119052009511/19/03 05:20:31  5-MIN KMSN 191120Z VRB03KT 10SM CLR 02/M01 A2971 1060 82 -100 VRB/03 RMK AO2
14837KMSN MSN20031119052509511/19/03 05:25:31  5-MIN KMSN 191125Z VRB04KT 10SM CLR 02/M01 A2972 1050 85 -200 VRB/04 RMK AO2
14837KMSN MSN20031119053009511/19/03 05:30:31  5-MIN KMSN 191130Z VRB03KT 10SM CLR 02/M01 A2971 1060 85 -200 VRB/03 RMK AO2
14837KMSN MSN20031119053509511/19/03 05:35:31  5-MIN KMSN 191135Z 26004KT 10SM CLR 02/M01 A2971 1060 82 -200 260/04 RMK AO2
14837KMSN MSN20031119054009511/19/03 05:40:31  5-MIN KMSN 191140Z VRB04KT 10SM CLR 02/M01 A2971 1060 82 -100 VRB/04 RMK AO2
14837KMSN MSN20031119054509511/19/03 05:45:31  5-MIN KMSN 191145Z 00000KT 10SM CLR 02/M01 A2971 1060 78 -200 000/00 RMK AO2
14837KMSN MSN20031119055013611/19/03 05:50:31  5-MIN KMSN 191150Z VRB03KT 10SM CLR 02/M01 A2971 1060 78 -100 VRB/03 RMK AO2 SLP066 70010 T00221011 10044 20017 50005
14837KMSN MSN20031119055509511/19/03 05:55:31  5-MIN KMSN 191155Z VRB03KT 10SM CLR 02/M01 A2971 1060 82 -200 VRB/03 RMK AO2
14837KMSN MSN20031119060009511/19/03 06:00:31  5-MIN KMSN 191200Z VRB03KT 10SM CLR 02/M01 A2972 1050 82 -200 VRB/03 RMK AO2
14837KMSN MSN20031119060509511/19/03 06:05:31  5-MIN KMSN 191205Z VRB03KT 10SM CLR 02/M01 A2971 1060 78 -100 VRB/03 RMK AO2
14837KMSN MSN20031119061009511/19/03 06:10:31  5-MIN KMSN 191210Z VRB03KT 10SM CLR 02/M01 A2971 1060 78 -200 VRB/03 RMK AO2
14837KMSN MSN20031119061509511/19/03 06:15:31  5-MIN KMSN 191215Z VRB03KT 10SM CLR 02/M01 A2971 1060 82 -200 VRB/03 RMK AO2
14837KMSN MSN20031119062009511/19/03 06:20:31  5-MIN KMSN 191220Z 23004KT 10SM CLR 02/M01 A2971 1060 78 -100 230/04 RMK AO2
14837KMSN MSN20031119062509511/19/03 06:25:31  5-MIN KMSN 191225Z 23006KT 10SM CLR 02/M01 A2971 1060 78 -100 230/06 RMK AO2
14837KMSN MSN20031119063009511/19/03 06:30:31  5-MIN KMSN 191230Z VRB04KT 10SM CLR 02/M01 A2971 1060 78 -100 VRB/04 RMK AO2
14837KMSN MSN20031119063509511/19/03 06:35:31  5-MIN KMSN 191235Z 23005KT 10SM CLR 02/M01 A2970 1070 82 -100 230/05 RMK AO2
14837KMSN MSN20031119064009511/19/03 06:40:31  5-MIN KMSN 191240Z 24004KT 10SM CLR 03/M01 A2970 1070 79 -100 240/04 RMK AO2
14837KMSN MSN20031119064509511/19/03 06:45:31  5-MIN KMSN 191245Z 00000KT 10SM CLR 03/M01 A2970 1070 79 -100 000/00 RMK AO2
14837KMSN MSN20031119065011211/19/03 06:50:31  5-MIN KMSN 191250Z VRB04KT 10SM CLR 03/M01 A2970 1070 79 -100 VRB/04 RMK AO2 SLP061 T00281006
14837KMSN MSN20031119065509511/19/03 06:55:31  5-MIN KMSN 191255Z VRB03KT 10SM CLR 03/M01 A2969 1070 79 -100 VRB/03 RMK AO2
14837KMSN MSN20031119070009511/19/03 07:00:31  5-MIN KMSN 191300Z 00000KT 10SM CLR 03/M01 A2969 1080 79 -100 000/00 RMK AO2
14837KMSN MSN20031119070509511/19/03 07:05:31  5-MIN KMSN 191305Z 23003KT 10SM CLR 03/M01 A2970 1070 79 -100 230/03 RMK AO2
14837KMSN MSN20031119071009511/19/03 07:10:31  5-MIN KMSN 191310Z 23004KT 10SM CLR 03/M01 A2969 1080 79 -100 230/04 RMK AO2
14837KMSN MSN20031119071509511/19/03 07:15:31  5-MIN KMSN 191315Z 23005KT 10SM CLR 03/M01 A2969 1080 79 -100 230/05 RMK AO2
14837KMSN MSN20031119072009511/19/03 07:20:31  5-MIN KMSN 191320Z VRB04KT 10SM CLR 03/M01 A2969 1080 79 -100 VRB/04 RMK AO2
14837KMSN MSN20031119072509211/19/03 07:25:31  5-MIN KMSN 191325Z 22005KT 10SM CLR 03/M01 A2969 1080 76 0 220/05 RMK AO2
14837KMSN MSN20031119073009211/19/03 07:30:31  5-MIN KMSN 191330Z VRB05KT 10SM CLR 03/M01 A2969 1080 76 0 VRB/05 RMK AO2
14837KMSN MSN20031119073509211/19/03 07:35:31  5-MIN KMSN 191335Z 22007KT 10SM CLR 03/M01 A2969 1080 76 0 220/07 RMK AO2
14837KMSN MSN20031119074009211/19/03 07:40:31  5-MIN KMSN 191340Z 22006KT 10SM CLR 03/M01 A2969 1080 76 0 220/06 RMK AO2
14837KMSN MSN20031119074509511/19/03 07:45:31  5-MIN KMSN 191345Z 22008KT 10SM FEW080 03/M01 A2969 1080 76 0 220/08 RMK AO2
14837KMSN MSN20031119075011211/19/03 07:50:31  5-MIN KMSN 191350Z 22008KT 10SM FEW080 03/M01 A2969 1080 76 0 220/08 RMK AO2 SLP058 T00331006
14837KMSN MSN20031119075509211/19/03 07:55:31  5-MIN KMSN 191355Z 22008KT 10SM CLR 03/M01 A2969 1080 76 0 220/08 RMK AO2
14837KMSN MSN20031119080009211/19/03 08:00:31  5-MIN KMSN 191400Z 22007KT 10SM CLR 03/M01 A2968 1080 76 0 210/07 RMK AO2
14837KMSN MSN20031119080509211/19/03 08:05:31  5-MIN KMSN 191405Z 21006KT 10SM CLR 04/M01 A2968 1090 73 0 210/06 RMK AO2
14837KMSN MSN20031119081009211/19/03 08:10:31  5-MIN KMSN 191410Z 22007KT 10SM CLR 04/M01 A2968 1090 73 0 220/07 RMK AO2
14837KMSN MSN20031119081509711/19/03 08:15:31  5-MIN KMSN 191415Z 22006KT 10SM FEW080 04/M01 A2968 1090 70 100 220/06 RMK AO2
14837KMSN MSN20031119082010311/19/03 08:20:31  5-MIN KMSN 191420Z 22009G14KT 10SM FEW080 04/M01 A2967 1090 70 100 220/09G14 RMK AO2
14837KMSN MSN20031119082509711/19/03 08:25:31  5-MIN KMSN 191425Z 22006KT 10SM FEW080 04/M01 A2967 1100 70 100 220/06 RMK AO2
14837KMSN MSN20031119083009711/19/03 08:30:31  5-MIN KMSN 191430Z 22007KT 10SM FEW080 05/M01 A2966 1100 67 200 220/07 RMK AO2
14837KMSN MSN20031119083509711/19/03 08:35:31  5-MIN KMSN 191435Z 21006KT 10SM FEW080 05/M01 A2966 1110 67 200 210/06 RMK AO2
14837KMSN MSN20031119084009711/19/03 08:40:31  5-MIN KMSN 191440Z 21008KT 10SM FEW080 06/M01 A2965 1110 65 300 210/08 RMK AO2
14837KMSN MSN20031119084509611/19/03 08:45:31  5-MIN KMSN 191445Z 20006KT 10SM FEW080 06/00 A2965 1110 67 300 200/06 RMK AO2
14837KMSN MSN20031119085011911/19/03 08:50:31  5-MIN KMSN 191450Z 22006KT 10SM FEW080 06/00 A2965 1110 65 300 210/06 RMK AO2 SLP047 T00610000 50004
14837KMSN MSN20031119085509711/19/03 08:55:31  5-MIN KMSN 191455Z 23007KT 10SM FEW080 06/M01 A2966 1110 62 300 230/07 RMK AO2
14837KMSN MSN20031119090009611/19/03 09:00:31  5-MIN KMSN 191500Z 22009KT 10SM FEW080 06/00 A2966 1110 65 300 220/09 RMK AO2
14837KMSN MSN20031119090511211/19/03 09:05:31  5-MIN KMSN 191505Z 23009KT 200V260 10SM FEW080 07/00 A2966 1110 62 400 230/09 200V260 RMK AO2
14837KMSN MSN20031119091010211/19/03 09:10:31  5-MIN KMSN 191510Z 22010G15KT 10SM FEW080 07/00 A2966 1110 62 400 220/10G15 RMK AO2
14837KMSN MSN20031119091509711/19/03 09:15:31  5-MIN KMSN 191515Z 23010KT 10SM FEW080 07/M01 A2966 1110 57 500 220/10 RMK AO2
14837KMSN MSN20031119092011911/19/03 09:20:31  5-MIN KMSN 191520Z 23010G16KT 200V270 10SM FEW080 07/M01 A2966 1110 57 500 230/10G16 200V270 RMK AO2
14837KMSN MSN20031119092510311/19/03 09:25:31  5-MIN KMSN 191525Z 23009G16KT 10SM FEW080 07/M01 A2966 1100 57 500 230/09G16 RMK AO2
14837KMSN MSN20031119093009611/19/03 09:30:31  5-MIN KMSN 191530Z 23008KT 10SM FEW080 07/00 A2967 1100 60 500 230/08 RMK AO2
14837KMSN MSN20031119093511911/19/03 09:35:31  5-MIN KMSN 191535Z 25010G17KT 230V300 10SM FEW080 08/M01 A2967 1100 55 500 250/10G17 230V300 RMK AO2
14837KMSN MSN20031119094010011/19/03 09:40:31  5-MIN KMSN 191540Z 26010G17KT 10SM CLR 08/M01 A2967 1100 55 500 250/10G17 RMK AO2
14837KMSN MSN20031119094511611/19/03 09:45:31  5-MIN KMSN 191545Z 26008G15KT 230V300 10SM CLR 08/M01 A2967 1090 53 600 260/08G15 230V300 RMK AO2
14837KMSN MSN20031119095011711/19/03 09:50:31  5-MIN KMSN 191550Z 26011G20KT 10SM CLR 08/M01 A2967 1090 53 600 260/11G20 RMK AO2 SLP052 T00831006
14837KMSN MSN20031119095510011/19/03 09:55:31  5-MIN KMSN 191555Z 26011G20KT 10SM CLR 08/M01 A2967 1100 55 500 260/11G20 RMK AO2
14837KMSN MSN20031119100009911/19/03 10:00:31  5-MIN KMSN 191600Z 26009G19KT 10SM CLR 08/00 A2967 1100 55 600 260/09G19 RMK AO2
14837KMSN MSN20031119100511511/19/03 10:05:31  5-MIN KMSN 191605Z 27007G16KT 240V300 10SM CLR 08/00 A2967 1100 55 600 270/07G16 240V300 RMK AO2
14837KMSN MSN20031119101009311/19/03 10:10:31  5-MIN KMSN 191610Z 26010KT 10SM CLR 08/00 A2967 1100 55 600 260/10 RMK AO2
14837KMSN MSN20031119101510911/19/03 10:15:31  5-MIN KMSN 191615Z 26008KT 220V280 10SM CLR 08/00 A2967 1100 55 600 260/08 220V280 RMK AO2
14837KMSN MSN20031119102009311/19/03 10:20:31  5-MIN KMSN 191620Z 26009KT 10SM CLR 09/00 A2967 1100 53 700 260/09 RMK AO2
14837KMSN MSN20031119102509911/19/03 10:25:31  5-MIN KMSN 191625Z 27008G16KT 10SM CLR 09/00 A2966 1100 53 700 260/08G16 RMK AO2
14837KMSN MSN20031119103009911/19/03 10:30:31  5-MIN KMSN 191630Z 27011G16KT 10SM CLR 09/00 A2967 1100 53 700 270/11G16 RMK AO2
14837KMSN MSN20031119103509911/19/03 10:35:31  5-MIN KMSN 191635Z 27011G17KT 10SM CLR 09/00 A2966 1100 53 700 270/11G17 RMK AO2
14837KMSN MSN20031119104009911/19/03 10:40:31  5-MIN KMSN 191640Z 28008G17KT 10SM CLR 09/01 A2966 1100 53 700 280/08G17 RMK AO2
14837KMSN MSN20031119104509911/19/03 10:45:31  5-MIN KMSN 191645Z 26011G15KT 10SM CLR 09/01 A2966 1100 53 700 260/11G15 RMK AO2
14837KMSN MSN20031119105011611/19/03 10:50:31  5-MIN KMSN 191650Z 26010G18KT 10SM CLR 09/01 A2966 1100 53 700 260/10G18 RMK AO2 SLP048 T00940006
14837KMSN MSN20031119105509911/19/03 10:55:31  5-MIN KMSN 191655Z 26011G18KT 10SM CLR 09/01 A2966 1110 53 700 260/11G18 RMK AO2
14837KMSN MSN20031119110009911/19/03 11:00:31  5-MIN KMSN 191700Z 28011G19KT 10SM CLR 09/01 A2966 1110 53 700 280/11G19 RMK AO2
14837KMSN MSN20031119110509911/19/03 11:05:31  5-MIN KMSN 191705Z 28013G21KT 10SM CLR 10/01 A2966 1110 52 800 270/13G21 RMK AO2
14837KMSN MSN20031119111009911/19/03 11:10:31  5-MIN KMSN 191710Z 28013G21KT 10SM CLR 09/01 A2965 1110 53 800 280/13G21 RMK AO2
14837KMSN MSN20031119111509911/19/03 11:15:31  5-MIN KMSN 191715Z 27012G18KT 10SM CLR 09/01 A2965 1120 53 800 270/12G18 RMK AO2
14837KMSN MSN20031119112009911/19/03 11:20:31  5-MIN KMSN 191720Z 27011G21KT 10SM CLR 10/01 A2965 1120 52 800 270/11G21 RMK AO2
14837KMSN MSN20031119112511511/19/03 11:25:31  5-MIN KMSN 191725Z 28011G21KT 230V300 10SM CLR 10/01 A2965 1120 52 800 270/11G21 230V300 RMK AO2
14837KMSN MSN20031119113009911/19/03 11:30:31  5-MIN KMSN 191730Z 28011G20KT 10SM CLR 10/01 A2964 1120 52 800 280/11G20 RMK AO2
14837KMSN MSN20031119113509911/19/03 11:35:31  5-MIN KMSN 191735Z 27010G15KT 10SM CLR 10/01 A2965 1120 52 800 270/10G15 RMK AO2
14837KMSN MSN20031119114009911/19/03 11:40:31  5-MIN KMSN 191740Z 28010G16KT 10SM CLR 10/01 A2965 1120 52 800 280/10G16 RMK AO2
14837KMSN MSN20031119114509911/19/03 11:45:31  5-MIN KMSN 191745Z 28013G20KT 10SM CLR 10/01 A2965 1120 52 800 280/13G20 RMK AO2
14837KMSN MSN20031119115013411/19/03 11:50:31  5-MIN KMSN 191750Z 29011G20KT 10SM CLR 11/01 A2965 1110 50 900 290/11G20 RMK AO2 SLP044 T01060006 10106 20017 58019
14837KMSN MSN20031119115509911/19/03 11:55:31  5-MIN KMSN 191755Z 28013G19KT 10SM CLR 11/01 A2965 1110 50 900 280/13G19 RMK AO2
14837KMSN MSN20031119120009911/19/03 12:00:31  5-MIN KMSN 191800Z 29012G19KT 10SM CLR 11/01 A2966 1110 50 900 290/12G19 RMK AO2
14837KMSN MSN20031119120509911/19/03 12:05:31  5-MIN KMSN 191805Z 29010G16KT 10SM CLR 11/01 A2966 1110 52 900 290/10G16 RMK AO2
14837KMSN MSN20031119121009911/19/03 12:10:31  5-MIN KMSN 191810Z 30014G18KT 10SM CLR 11/01 A2966 1110 50 900 300/14G18 RMK AO2
14837KMSN MSN20031119121509911/19/03 12:15:31  5-MIN KMSN 191815Z 29014G19KT 10SM CLR 11/01 A2966 1110 48 900 290/14G19 RMK AO2
14837KMSN MSN20031119122009911/19/03 12:20:31  5-MIN KMSN 191820Z 29012G18KT 10SM CLR 11/01 A2966 1110 48 900 290/12G18 RMK AO2
14837KMSN MSN20031119122509911/19/03 12:25:31  5-MIN KMSN 191825Z 29012G18KT 10SM CLR 11/01 A2966 1110 50 900 290/12G18 RMK AO2
14837KMSN MSN20031119123009911/19/03 12:30:31  5-MIN KMSN 191830Z 30011G22KT 10SM CLR 11/01 A2966 1100 48 900 300/11G22 RMK AO2
14837KMSN MSN20031119123510011/19/03 12:35:31  5-MIN KMSN 191835Z 30012G22KT 10SM CLR 12/01 A2966 1100 48 1000 300/12G22 RMK AO2
14837KMSN MSN20031119124010011/19/03 12:40:31  5-MIN KMSN 191840Z 30013G19KT 10SM CLR 12/01 A2966 1100 46 1000 300/13G19 RMK AO2
14837KMSN MSN20031119124510011/19/03 12:45:31  5-MIN KMSN 191845Z 29013G21KT 10SM CLR 12/01 A2966 1100 46 1000 290/13G21 RMK AO2
14837KMSN MSN20031119125011711/19/03 12:50:31  5-MIN KMSN 191850Z 28010G21KT 10SM CLR 12/01 A2966 1100 44 1100 280/10G21 RMK AO2 SLP049 T01220006
14837KMSN MSN20031119125510011/19/03 12:55:31  5-MIN KMSN 191855Z 29014G18KT 10SM CLR 12/01 A2967 1100 46 1100 290/14G18 RMK AO2
14837KMSN MSN20031119130010011/19/03 13:00:31  5-MIN KMSN 191900Z 30014G23KT 10SM CLR 12/01 A2967 1100 44 1100 300/14G23 RMK AO2
14837KMSN MSN20031119130510011/19/03 13:05:31  5-MIN KMSN 191905Z 29015G23KT 10SM CLR 12/01 A2967 1090 44 1100 290/15G23 RMK AO2
14837KMSN MSN20031119131011611/19/03 13:10:31  5-MIN KMSN 191910Z 30013G20KT 260V320 10SM CLR 12/01 A2968 1090 44 1100 290/13G20 260V320 RMK AO2
14837KMSN MSN20031119131510011/19/03 13:15:31  5-MIN KMSN 191915Z 29015G22KT 10SM CLR 12/01 A2967 1090 44 1100 290/15G22 RMK AO2
14837KMSN MSN20031119132010011/19/03 13:20:31  5-MIN KMSN 191920Z 31014G25KT 10SM CLR 12/01 A2968 1090 46 1000 310/14G25 RMK AO2
14837KMSN MSN20031119132511611/19/03 13:25:31  5-MIN KMSN 191925Z 30013G25KT 270V330 10SM CLR 12/01 A2968 1090 44 1100 300/13G25 270V330 RMK AO2
14837KMSN MSN20031119133010011/19/03 13:30:31  5-MIN KMSN 191930Z 29013G20KT 10SM CLR 12/01 A2968 1090 44 1100 290/13G20 RMK AO2
14837KMSN MSN20031119133510011/19/03 13:35:31  5-MIN KMSN 191935Z 30013G19KT 10SM CLR 12/01 A2968 1090 44 1100 300/13G19 RMK AO2
14837KMSN MSN20031119134010011/19/03 13:40:31  5-MIN KMSN 191940Z 31013G24KT 10SM CLR 12/01 A2968 1090 44 1100 300/13G24 RMK AO2
14837KMSN MSN20031119134510011/19/03 13:45:31  5-MIN KMSN 191945Z 31014G24KT 10SM CLR 12/00 A2968 1090 44 1000 310/14G24 RMK AO2
14837KMSN MSN20031119135011711/19/03 13:50:31  5-MIN KMSN 191950Z 30016G24KT 10SM CLR 12/01 A2968 1090 46 1000 300/16G24 RMK AO2 SLP055 T01170006
14837KMSN MSN20031119135510011/19/03 13:55:31  5-MIN KMSN 191955Z 31012G20KT 10SM CLR 12/00 A2968 1080 44 1000 310/12G20 RMK AO2
14837KMSN MSN20031119140010011/19/03 14:00:31  5-MIN KMSN 192000Z 31015G19KT 10SM CLR 12/01 A2969 1080 44 1000 310/15G19 RMK AO2
14837KMSN MSN20031119140510011/19/03 14:05:31  5-MIN KMSN 192005Z 31012G20KT 10SM CLR 12/01 A2969 1080 46 1000 300/12G20 RMK AO2
14837KMSN MSN20031119141010011/19/03 14:10:31  5-MIN KMSN 192010Z 30015G20KT 10SM CLR 12/00 A2969 1080 44 1000 300/15G20 RMK AO2
14837KMSN MSN20031119141510011/19/03 14:15:31  5-MIN KMSN 192015Z 30010G20KT 10SM CLR 12/01 A2969 1080 44 1000 300/10G20 RMK AO2
14837KMSN MSN20031119142010011/19/03 14:20:31  5-MIN KMSN 192020Z 30012G17KT 10SM CLR 12/01 A2969 1080 44 1000 290/12G17 RMK AO2
14837KMSN MSN20031119142510011/19/03 14:25:31  5-MIN KMSN 192025Z 29010G17KT 10SM CLR 12/01 A2970 1070 46 1000 290/10G17 RMK AO2
14837KMSN MSN20031119143009411/19/03 14:30:31  5-MIN KMSN 192030Z 30011KT 10SM CLR 12/01 A2970 1070 46 1000 300/11 RMK AO2
14837KMSN MSN20031119143511011/19/03 14:35:31  5-MIN KMSN 192035Z 30008KT 270V330 10SM CLR 12/01 A2970 1070 46 1000 300/08 270V330 RMK AO2
14837KMSN MSN20031119144009411/19/03 14:40:31  5-MIN KMSN 192040Z 30010KT 10SM CLR 12/01 A2970 1070 46 1000 300/10 RMK AO2
14837KMSN MSN20031119144509411/19/03 14:45:31  5-MIN KMSN 192045Z 30011KT 10SM CLR 12/00 A2971 1060 44 1000 300/11 RMK AO2
14837KMSN MSN20031119145011711/19/03 14:50:31  5-MIN KMSN 192050Z 30012KT 10SM CLR 12/00 A2971 1060 44 1000 300/12 RMK AO2 SLP065 T01170000 58001
14837KMSN MSN20031119145509911/19/03 14:55:31  5-MIN KMSN 192055Z 31011G16KT 10SM CLR 12/00 A2971 1060 44 900 310/11G16 RMK AO2
14837KMSN MSN20031119150010011/19/03 15:00:31  5-MIN KMSN 192100Z 30010G16KT 10SM CLR 12/M01 A2972 1050 42 900 300/10G16 RMK AO2
14837KMSN MSN20031119150509311/19/03 15:05:31  5-MIN KMSN 192105Z 31010KT 10SM CLR 12/00 A2972 1050 44 900 300/10 RMK AO2
14837KMSN MSN20031119151010011/19/03 15:10:31  5-MIN KMSN 192110Z 31011G17KT 10SM CLR 12/M01 A2972 1050 42 900 310/11G17 RMK AO2
14837KMSN MSN20031119151509911/19/03 15:15:31  5-MIN KMSN 192115Z 31010G17KT 10SM CLR 12/00 A2972 1050 44 900 310/10G17 RMK AO2
14837KMSN MSN20031119152009411/19/03 15:20:31  5-MIN KMSN 192120Z 29008KT 10SM CLR 12/M01 A2973 1040 42 900 290/08 RMK AO2
14837KMSN MSN20031119152509411/19/03 15:25:31  5-MIN KMSN 192125Z 29010KT 10SM CLR 11/M01 A2973 1040 44 900 290/10 RMK AO2
14837KMSN MSN20031119153009411/19/03 15:30:31  5-MIN KMSN 192130Z 30008KT 10SM CLR 11/M01 A2973 1040 44 900 300/08 RMK AO2
14837KMSN MSN20031119153509311/19/03 15:35:31  5-MIN KMSN 192135Z 29008KT 10SM CLR 11/00 A2974 1030 46 900 290/08 RMK AO2
14837KMSN MSN20031119154010011/19/03 15:40:31  5-MIN KMSN 192140Z 30012G18KT 10SM CLR 11/M01 A2974 1030 44 900 300/12G18 RMK AO2
14837KMSN MSN20031119154510011/19/03 15:45:31  5-MIN KMSN 192145Z 30010G18KT 10SM CLR 11/M01 A2974 1030 44 800 300/10G18 RMK AO2
14837KMSN MSN20031119155011711/19/03 15:50:31  5-MIN KMSN 192150Z 30008G17KT 10SM CLR 11/M01 A2975 1030 46 800 300/08G17 RMK AO2 SLP078 T01061006
14837KMSN MSN20031119155509411/19/03 15:55:31  5-MIN KMSN 192155Z 30007KT 10SM CLR 11/M01 A2975 1020 46 800 300/07 RMK AO2
14837KMSN MSN20031119160009411/19/03 16:00:31  5-MIN KMSN 192200Z 29007KT 10SM CLR 11/M01 A2975 1020 46 800 290/07 RMK AO2
14837KMSN MSN20031119160509411/19/03 16:05:31  5-MIN KMSN 192205Z 29008KT 10SM CLR 11/M01 A2975 1020 46 800 290/08 RMK AO2
14837KMSN MSN20031119161009411/19/03 16:10:31  5-MIN KMSN 192210Z VRB06KT 10SM CLR 11/M01 A2975 1020 46 800 VRB/06 RMK AO2
14837KMSN MSN20031119161509411/19/03 16:15:31  5-MIN KMSN 192215Z 29008KT 10SM CLR 10/M01 A2976 1020 47 700 290/08 RMK AO2
14837KMSN MSN20031119162009411/19/03 16:20:31  5-MIN KMSN 192220Z 28007KT 10SM CLR 10/M01 A2976 1010 47 700 280/07 RMK AO2
14837KMSN MSN20031119162509411/19/03 16:25:31  5-MIN KMSN 192225Z 29008KT 10SM CLR 10/M01 A2976 1010 47 700 290/08 RMK AO2
14837KMSN MSN20031119163009411/19/03 16:30:31  5-MIN KMSN 192230Z 29007KT 10SM CLR 10/M01 A2976 1010 47 700 290/07 RMK AO2
14837KMSN MSN20031119163509411/19/03 16:35:31  5-MIN KMSN 192235Z 29005KT 10SM CLR 10/M01 A2977 1010 46 700 290/05 RMK AO2
14837KMSN MSN20031119164009411/19/03 16:40:31  5-MIN KMSN 192240Z 28004KT 10SM CLR 09/M01 A2977 1000 47 600 280/04 RMK AO2
14837KMSN MSN20031119164509411/19/03 16:45:31  5-MIN KMSN 192245Z VRB03KT 10SM CLR 09/M01 A2977 1000 47 600 VRB/03 RMK AO2
14837KMSN MSN20031119165011011/19/03 16:50:31  5-MIN KMSN 192250Z VRB03KT 10SM CLR 09/M01 A2978 990 51 500 VRB/03 RMK AO2 SLP089 T00891006
14837KMSN MSN20031119165509311/19/03 16:55:31  5-MIN KMSN 192255Z 28006KT 10SM CLR 09/M01 A2978 990 51 500 280/06 RMK AO2
14837KMSN MSN20031119170009311/19/03 17:00:31  5-MIN KMSN 192300Z VRB03KT 10SM CLR 08/M01 A2979 990 53 500 VRB/03 RMK AO2
14837KMSN MSN20031119170509311/19/03 17:05:31  5-MIN KMSN 192305Z 27003KT 10SM CLR 08/M01 A2979 990 55 400 270/03 RMK AO2
14837KMSN MSN20031119171009311/19/03 17:10:31  5-MIN KMSN 192310Z 00000KT 10SM CLR 08/M01 A2979 980 55 400 000/00 RMK AO2
14837KMSN MSN20031119171509211/19/03 17:15:31  5-MIN KMSN 192315Z 27003KT 10SM CLR 08/00 A2980 980 58 400 270/03 RMK AO2
14837KMSN MSN20031119172009211/19/03 17:20:31  5-MIN KMSN 192320Z 27003KT 10SM CLR 08/00 A2980 980 58 400 270/03 RMK AO2
14837KMSN MSN20031119172509211/19/03 17:25:31  5-MIN KMSN 192325Z 00000KT 10SM CLR 07/00 A2980 980 60 300 000/00 RMK AO2
14837KMSN MSN20031119173009211/19/03 17:30:31  5-MIN KMSN 192330Z 00000KT 10SM CLR 07/00 A2980 980 60 300 000/00 RMK AO2
14837KMSN MSN20031119173509211/19/03 17:35:31  5-MIN KMSN 192335Z 00000KT 10SM CLR 07/00 A2980 970 60 300 000/00 RMK AO2
14837KMSN MSN20031119174009311/19/03 17:40:31  5-MIN KMSN 192340Z 00000KT 10SM CLR 06/M01 A2980 970 62 200 000/00 RMK AO2
14837KMSN MSN20031119174509211/19/03 17:45:31  5-MIN KMSN 192345Z VRB03KT 10SM CLR 06/00 A2981 970 65 200 VRB/03 RMK AO2
14837KMSN MSN20031119175012711/19/03 17:50:31  5-MIN KMSN 192350Z 00000KT 10SM CLR 06/00 A2981 970 67 100 000/00 RMK AO2 SLP100 T00560000 10122 20056 53019
14837KMSN MSN20031119175509011/19/03 17:55:31  5-MIN KMSN 192355Z 00000KT 10SM CLR 05/00 A2980 970 70 0 000/00 RMK AO2
14837KMSN MSN20031119180009211/19/03 18:00:31  5-MIN KMSN 200000Z 00000KT 10SM CLR 06/00 A2980 970 67 100 000/00 RMK AO2
14837KMSN MSN20031119180509111/19/03 18:05:31  5-MIN KMSN 200005Z 00000KT 10SM CLR 05/M01 A2980 970 67 0 000/00 RMK AO2
14837KMSN MSN20031119181009311/19/03 18:10:31  5-MIN KMSN 200010Z 00000KT 10SM CLR 06/M01 A2980 980 65 100 000/00 RMK AO2
14837KMSN MSN20031119181509111/19/03 18:15:31  5-MIN KMSN 200015Z 27003KT 10SM CLR 04/M01 A2980 970 70 0 270/03 RMK AO2
14837KMSN MSN20031119182009111/19/03 18:20:31  5-MIN KMSN 200020Z 00000KT 10SM CLR 04/M01 A2980 970 70 0 000/00 RMK AO2
14837KMSN MSN20031119182509111/19/03 18:25:31  5-MIN KMSN 200025Z 00000KT 10SM CLR 04/M01 A2980 970 73 0 000/00 RMK AO2
14837KMSN MSN20031119183009111/19/03 18:30:31  5-MIN KMSN 200030Z 00000KT 10SM CLR 04/M01 A2980 970 70 0 000/00 RMK AO2
14837KMSN MSN20031119183509111/19/03 18:35:31  5-MIN KMSN 200035Z 00000KT 10SM CLR 04/M01 A2981 970 70 0 000/00 RMK AO2
14837KMSN MSN20031119184009411/19/03 18:40:31  5-MIN KMSN 200040Z 00000KT 10SM CLR 04/M01 A2981 970 73 -100 000/00 RMK AO2
14837KMSN MSN20031119184509111/19/03 18:45:31  5-MIN KMSN 200045Z 00000KT 10SM CLR 04/M01 A2981 970 70 0 000/00 RMK AO2
14837KMSN MSN20031119185010811/19/03 18:50:31  5-MIN KMSN 200050Z 27003KT 10SM CLR 04/M01 A2981 960 70 0 270/03 RMK AO2 SLP102 T00441006
14837KMSN MSN20031119185509411/19/03 18:55:31  5-MIN KMSN 200055Z 00000KT 10SM CLR 04/M01 A2981 960 73 -100 000/00 RMK AO2
14837KMSN MSN20031119190009111/19/03 19:00:31  5-MIN KMSN 200100Z 00000KT 10SM CLR 04/M01 A2981 960 70 0 000/00 RMK AO2
14837KMSN MSN20031119190509411/19/03 19:05:31  5-MIN KMSN 200105Z 00000KT 10SM CLR 04/M01 A2982 960 73 -100 000/00 RMK AO2
14837KMSN MSN20031119191009411/19/03 19:10:31  5-MIN KMSN 200110Z 27003KT 10SM CLR 04/M01 A2982 960 73 -100 260/03 RMK AO2
14837KMSN MSN20031119191509411/19/03 19:15:31  5-MIN KMSN 200115Z 00000KT 10SM CLR 03/M01 A2982 960 76 -100 000/00 RMK AO2
14837KMSN MSN20031119192009411/19/03 19:20:31  5-MIN KMSN 200120Z 00000KT 10SM CLR 04/M01 A2982 960 73 -100 000/00 RMK AO2
14837KMSN MSN20031119192509411/19/03 19:25:31  5-MIN KMSN 200125Z 00000KT 10SM CLR 04/M01 A2982 960 73 -100 000/00 RMK AO2
14837KMSN MSN20031119193009411/19/03 19:30:31  5-MIN KMSN 200130Z 00000KT 10SM CLR 03/M01 A2982 960 76 -100 000/00 RMK AO2
14837KMSN MSN20031119193509411/19/03 19:35:31  5-MIN KMSN 200135Z 00000KT 10SM CLR 03/M01 A2982 950 76 -100 000/00 RMK AO2
14837KMSN MSN20031119194009411/19/03 19:40:31  5-MIN KMSN 200140Z 00000KT 10SM CLR 03/M01 A2982 950 72 -100 000/00 RMK AO2
14837KMSN MSN20031119194509411/19/03 19:45:31  5-MIN KMSN 200145Z 21003KT 10SM CLR 03/M01 A2983 950 72 -100 210/03 RMK AO2
14837KMSN MSN20031119195011111/19/03 19:50:31  5-MIN KMSN 200150Z 23003KT 10SM CLR 04/M01 A2983 950 70 -100 230/03 RMK AO2 SLP108 T00391011
14837KMSN MSN20031119195509411/19/03 19:55:31  5-MIN KMSN 200155Z 23003KT 10SM CLR 03/M01 A2983 950 72 -100 230/03 RMK AO2
14837KMSN MSN20031119200009411/19/03 20:00:31  5-MIN KMSN 200200Z 00000KT 10SM CLR 03/M01 A2983 950 75 -200 000/00 RMK AO2
14837KMSN MSN20031119200509411/19/03 20:05:31  5-MIN KMSN 200205Z 00000KT 10SM CLR 02/M01 A2983 950 78 -300 000/00 RMK AO2
14837KMSN MSN20031119201009411/19/03 20:10:31  5-MIN KMSN 200210Z 21003KT 10SM CLR 02/M01 A2983 950 78 -300 210/03 RMK AO2
14837KMSN MSN20031119201509411/19/03 20:15:31  5-MIN KMSN 200215Z 22003KT 10SM CLR 02/M01 A2983 950 78 -300 220/03 RMK AO2
14837KMSN MSN20031119202009411/19/03 20:20:31  5-MIN KMSN 200220Z 00000KT 10SM CLR 02/M01 A2983 950 82 -300 000/00 RMK AO2
14837KMSN MSN20031119202509411/19/03 20:25:31  5-MIN KMSN 200225Z 21003KT 10SM CLR 03/M01 A2983 950 79 -200 210/03 RMK AO2
14837KMSN MSN20031119203009411/19/03 20:30:31  5-MIN KMSN 200230Z 00000KT 10SM CLR 02/M01 A2984 940 78 -300 000/00 RMK AO2
14837KMSN MSN20031119203509411/19/03 20:35:31  5-MIN KMSN 200235Z 00000KT 10SM CLR 02/M01 A2984 940 82 -300 000/00 RMK AO2
14837KMSN MSN20031119204009411/19/03 20:40:31  5-MIN KMSN 200240Z 00000KT 10SM CLR 02/M01 A2984 940 82 -300 000/00 RMK AO2
14837KMSN MSN20031119204509411/19/03 20:45:31  5-MIN KMSN 200245Z 00000KT 10SM CLR 02/M01 A2984 940 82 -300 000/00 RMK AO2
14837KMSN MSN20031119205011711/19/03 20:50:31  5-MIN KMSN 200250Z 00000KT 10SM CLR 03/M01 A2984 940 79 -200 000/00 RMK AO2 SLP112 T00281006 51031
14837KMSN MSN20031119205509411/19/03 20:55:31  5-MIN KMSN 200255Z 00000KT 10SM CLR 02/M01 A2984 940 82 -400 000/00 RMK AO2
14837KMSN MSN20031119210009411/19/03 21:00:31  5-MIN KMSN 200300Z 00000KT 10SM CLR 02/M01 A2984 940 82 -400 000/00 RMK AO2
14837KMSN MSN20031119210509411/19/03 21:05:31  5-MIN KMSN 200305Z 00000KT 10SM CLR 02/M02 A2984 940 78 -400 000/00 RMK AO2
14837KMSN MSN20031119211009411/19/03 21:10:31  5-MIN KMSN 200310Z 00000KT 10SM CLR 02/M02 A2984 940 78 -400 000/00 RMK AO2
14837KMSN MSN20031119211509411/19/03 21:15:31  5-MIN KMSN 200315Z 00000KT 10SM CLR 02/M01 A2984 940 82 -400 000/00 RMK AO2
14837KMSN MSN20031119212009411/19/03 21:20:31  5-MIN KMSN 200320Z 00000KT 10SM CLR 02/M01 A2984 940 82 -400 000/00 RMK AO2
14837KMSN MSN20031119212509411/19/03 21:25:31  5-MIN KMSN 200325Z 00000KT 10SM CLR 02/M01 A2984 940 82 -300 000/00 RMK AO2
14837KMSN MSN20031119213009411/19/03 21:30:31  5-MIN KMSN 200330Z 00000KT 10SM CLR 02/M01 A2984 940 82 -300 000/00 RMK AO2
14837KMSN MSN20031119213509311/19/03 21:35:31  5-MIN KMSN 200335Z 00000KT 10SM CLR 03/00 A2984 940 82 -200 000/00 RMK AO2
14837KMSN MSN20031119214009411/19/03 21:40:31  5-MIN KMSN 200340Z 00000KT 10SM CLR 01/M02 A2984 940 82 -400 000/00 RMK AO2
14837KMSN MSN20031119214509411/19/03 21:45:31  5-MIN KMSN 200345Z 00000KT 10SM CLR 01/M02 A2985 930 82 -500 000/00 RMK AO2
14837KMSN MSN20031119215011111/19/03 21:50:31  5-MIN KMSN 200350Z 00000KT 10SM CLR 01/M02 A2985 930 85 -500 000/00 RMK AO2 SLP113 T00061017
14837KMSN MSN20031119215509411/19/03 21:55:31  5-MIN KMSN 200355Z 00000KT 10SM CLR 01/M02 A2985 930 85 -500 000/00 RMK AO2
14837KMSN MSN20031119220009411/19/03 22:00:31  5-MIN KMSN 200400Z 00000KT 10SM CLR 01/M02 A2985 930 82 -400 000/00 RMK AO2
14837KMSN MSN20031119220509411/19/03 22:05:31  5-MIN KMSN 200405Z 00000KT 10SM CLR 01/M01 A2985 930 85 -400 000/00 RMK AO2
14837KMSN MSN20031119221009411/19/03 22:10:31  5-MIN KMSN 200410Z 00000KT 10SM CLR 02/M01 A2985 930 85 -400 000/00 RMK AO2
14837KMSN MSN20031119221509311/19/03 22:15:31  5-MIN KMSN 200415Z 00000KT 10SM CLR 02/00 A2985 930 85 -300 000/00 RMK AO2
14837KMSN MSN20031119222009311/19/03 22:20:31  5-MIN KMSN 200420Z VRB03KT 10SM CLR 03/00 A2985 930 82 -200 VRB/03 RMK AO2
14837KMSN MSN20031119222509311/19/03 22:25:31  5-MIN KMSN 200425Z 21003KT 10SM CLR 04/01 A2986 920 79 -100 210/03 RMK AO2
14837KMSN MSN20031119223009311/19/03 22:30:31  5-MIN KMSN 200430Z 21003KT 10SM CLR 04/01 A2985 930 79 -100 210/03 RMK AO2
14837KMSN MSN20031119223509311/19/03 22:35:31  5-MIN KMSN 200435Z VRB04KT 10SM CLR 03/01 A2986 920 85 -200 VRB/04 RMK AO2
14837KMSN MSN20031119224009311/19/03 22:40:31  5-MIN KMSN 200440Z VRB03KT 10SM CLR 03/01 A2986 920 82 -200 VRB/03 RMK AO2
14837KMSN MSN20031119224509311/19/03 22:45:31  5-MIN KMSN 200445Z VRB03KT 10SM CLR 03/01 A2986 920 82 -200 VRB/03 RMK AO2
14837KMSN MSN20031119225011011/19/03 22:50:31  5-MIN KMSN 200450Z 00000KT 10SM CLR 03/01 A2986 920 85 -200 000/00 RMK AO2 SLP115 T00330011
14837KMSN MSN20031119225509311/19/03 22:55:31  5-MIN KMSN 200455Z 00000KT 10SM CLR 03/01 A2985 930 85 -200 000/00 RMK AO2
14837KMSN MSN20031119230009311/19/03 23:00:31  5-MIN KMSN 200500Z 00000KT 10SM CLR 03/01 A2986 920 85 -200 000/00 RMK AO2
14837KMSN MSN20031119230509311/19/03 23:05:31  5-MIN KMSN 200505Z 00000KT 10SM CLR 03/01 A2986 920 85 -200 000/00 RMK AO2
14837KMSN MSN20031119231009311/19/03 23:10:31  5-MIN KMSN 200510Z 23003KT 10SM CLR 03/01 A2986 920 85 -200 230/03 RMK AO2
14837KMSN MSN20031119231509311/19/03 23:15:31  5-MIN KMSN 200515Z 22003KT 10SM CLR 04/01 A2986 920 79 -100 220/03 RMK AO2
14837KMSN MSN20031119232009311/19/03 23:20:31  5-MIN KMSN 200520Z 00000KT 10SM CLR 04/01 A2986 920 82 -100 000/00 RMK AO2
14837KMSN MSN20031119232509011/19/03 23:25:31  5-MIN KMSN 200525Z 21003KT 10SM CLR 04/01 A2986 920 79 0 210/03 RMK AO2
14837KMSN MSN20031119233009311/19/03 23:30:31  5-MIN KMSN 200530Z VRB03KT 10SM CLR 04/01 A2985 930 82 -100 VRB/03 RMK AO2
14837KMSN MSN20031119233509311/19/03 23:35:31  5-MIN KMSN 200535Z 00000KT 10SM CLR 04/01 A2985 930 79 -100 000/00 RMK AO2
14837KMSN MSN20031119234009011/19/03 23:40:31  5-MIN KMSN 200540Z 00000KT 10SM CLR 05/01 A2985 930 76 0 000/00 RMK AO2
14837KMSN MSN20031119234509311/19/03 23:45:31  5-MIN KMSN 200545Z 00000KT 10SM CLR 03/00 A2985 930 82 -200 000/00 RMK AO2
14837KMSN MSN20031119235013911/19/03 23:50:31  5-MIN KMSN 200550Z 00000KT 10SM CLR 02/M01 A2984 930 85 -400 000/00 RMK AO2 SLP111 T00171006 10056 20006 401220006 53012
14837KMSN MSN20031119235509411/19/03 23:55:31  5-MIN KMSN 200555Z 18003KT 10SM CLR 02/M01 A2984 940 85 -400 180/03 RMK AO2
14837KMSN MSN20031120000009311/20/03 00:00:31  5-MIN KMSN 200600Z 00000KT 10SM CLR 02/00 A2984 940 89 -400 000/00 RMK AO2
14837KMSN MSN20031120000509411/20/03 00:05:31  5-MIN KMSN 200605Z 17003KT 10SM CLR 01/M01 A2984 940 89 -400 170/03 RMK AO2
14837KMSN MSN20031120001009311/20/03 00:10:31  5-MIN KMSN 200610Z 14005KT 10SM CLR 03/00 A2983 940 82 -200 140/05 RMK AO2
14837KMSN MSN20031120001509311/20/03 00:15:31  5-MIN KMSN 200615Z 14004KT 10SM CLR 02/00 A2983 950 85 -300 140/04 RMK AO2
14837KMSN MSN20031120002009311/20/03 00:20:31  5-MIN KMSN 200620Z 19004KT 10SM CLR 03/01 A2983 950 82 -100 180/04 RMK AO2
14837KMSN MSN20031120002509311/20/03 00:25:31  5-MIN KMSN 200625Z 18005KT 10SM CLR 04/01 A2983 950 79 -100 180/05 RMK AO2
14837KMSN MSN20031120003009311/20/03 00:30:31  5-MIN KMSN 200630Z 18004KT 10SM CLR 03/00 A2983 950 79 -100 170/04 RMK AO2
14837KMSN MSN20031120003509311/20/03 00:35:31  5-MIN KMSN 200635Z 18005KT 10SM CLR 03/00 A2982 950 79 -100 180/05 RMK AO2
14837KMSN MSN20031120004009311/20/03 00:40:31  5-MIN KMSN 200640Z 18005KT 10SM CLR 03/00 A2982 960 79 -100 170/05 RMK AO2
14837KMSN MSN20031120004509411/20/03 00:45:31  5-MIN KMSN 200645Z 18005KT 10SM CLR 02/M01 A2982 960 82 -300 180/05 RMK AO2
14837KMSN MSN20031120005011011/20/03 00:50:31  5-MIN KMSN 200650Z 18003KT 10SM CLR 03/00 A2982 960 79 -100 180/03 RMK AO2 SLP102 T00330000
14837KMSN MSN20031120005509311/20/03 00:55:31  5-MIN KMSN 200655Z 17003KT 10SM CLR 03/00 A2982 960 79 -100 170/03 RMK AO2
14837KMSN MSN20031120010009311/20/03 01:00:31  5-MIN KMSN 200700Z 18005KT 10SM CLR 04/00 A2982 960 76 -100 180/05 RMK AO2
14837KMSN MSN20031120010509311/20/03 01:05:31  5-MIN KMSN 200705Z 18004KT 10SM CLR 04/00 A2982 960 76 -100 180/04 RMK AO2
14837KMSN MSN20031120011009311/20/03 01:10:31  5-MIN KMSN 200710Z 18004KT 10SM CLR 03/00 A2981 960 79 -100 170/04 RMK AO2
14837KMSN MSN20031120011509411/20/03 01:15:31  5-MIN KMSN 200715Z 18004KT 10SM CLR 02/M01 A2981 960 82 -300 180/04 RMK AO2
14837KMSN MSN20031120012009311/20/03 01:20:31  5-MIN KMSN 200720Z 19004KT 10SM CLR 03/00 A2982 960 79 -100 190/04 RMK AO2
14837KMSN MSN20031120012509311/20/03 01:25:31  5-MIN KMSN 200725Z 18003KT 10SM CLR 03/00 A2982 960 79 -100 180/03 RMK AO2
14837KMSN MSN20031120013009311/20/03 01:30:31  5-MIN KMSN 200730Z 17004KT 10SM CLR 02/00 A2982 960 85 -300 170/04 RMK AO2
14837KMSN MSN20031120013509411/20/03 01:35:31  5-MIN KMSN 200735Z 18003KT 10SM CLR 02/M01 A2982 960 82 -300 180/03 RMK AO2
14837KMSN MSN20031120023009411/20/03 02:30:31  5-MIN KMSN 200830Z 18005KT 10SM CLR 01/M01 A2979 990 85 -400 180/05 RMK AO2
14837KMSN MSN20031120023509411/20/03 02:35:31  5-MIN KMSN 200835Z 18006KT 10SM CLR 02/M01 A2979 990 82 -200 170/06 RMK AO2
14837KMSN MSN20031120024009311/20/03 02:40:31  5-MIN KMSN 200840Z 17005KT 10SM CLR 03/00 A2979 990 82 -200 170/05 RMK AO2
14837KMSN MSN20031120024509311/20/03 02:45:31  5-MIN KMSN 200845Z 17004KT 10SM CLR 03/00 A2979 990 82 -200 170/04 RMK AO2
14837KMSN MSN20031120025011711/20/03 02:50:31  5-MIN KMSN 200850Z 17005KT 10SM CLR 02/M01 A2979 990 82 -200 170/05 RMK AO2 SLP090 T00221006 50001
14837KMSN MSN20031120025509411/20/03 02:55:31  5-MIN KMSN 200855Z 18004KT 10SM CLR 02/M01 A2978 990 85 -300 180/04 RMK AO2
14837KMSN MSN20031120030009411/20/03 03:00:31  5-MIN KMSN 200900Z 19003KT 10SM CLR 02/M01 A2978 990 82 -200 190/03 RMK AO2
14837KMSN MSN20031120030509411/20/03 03:05:31  5-MIN KMSN 200905Z 19003KT 10SM CLR 02/M01 A2979 990 82 -200 190/03 RMK AO2
14837KMSN MSN20031120031009411/20/03 03:10:31  5-MIN KMSN 200910Z 19003KT 10SM CLR 02/M01 A2979 990 82 -200 190/03 RMK AO2
14837KMSN MSN20031120031509411/20/03 03:15:31  5-MIN KMSN 200915Z 18003KT 10SM CLR 02/M01 A2978 990 82 -200 180/03 RMK AO2
14837KMSN MSN20031120032009411/20/03 03:20:31  5-MIN KMSN 200920Z 17003KT 10SM CLR 02/M01 A2978 990 85 -300 170/03 RMK AO2
14837KMSN MSN20031120032509311/20/03 03:25:31  5-MIN KMSN 200925Z 16003KT 10SM CLR 03/00 A2978 990 82 -200 160/03 RMK AO2
14837KMSN MSN20031120033009311/20/03 03:30:31  5-MIN KMSN 200930Z 00000KT 10SM CLR 03/00 A2978 990 79 -100 000/00 RMK AO2
14837KMSN MSN20031120033509311/20/03 03:35:31  5-MIN KMSN 200935Z 14003KT 10SM CLR 03/00 A2978 990 82 -200 140/03 RMK AO2
14837KMSN MSN20031120034009311/20/03 03:40:31  5-MIN KMSN 200940Z 00000KT 10SM CLR 02/00 A2978 990 85 -200 000/00 RMK AO2
14837KMSN MSN20031120034509411/20/03 03:45:31  5-MIN KMSN 200945Z 16003KT 10SM CLR 03/00 A2978 1000 82 -200 160/03 RMK AO2
14837KMSN MSN20031120035011211/20/03 03:50:31  5-MIN KMSN 200950Z 00000KT 10SM CLR 03/M01 A2977 1000 79 -200 000/00 RMK AO2 SLP087 T00281006
14837KMSN MSN20031120035509511/20/03 03:55:31  5-MIN KMSN 200955Z 17003KT 10SM CLR 03/M01 A2977 1000 79 -200 170/03 RMK AO2
14837KMSN MSN20031120040009511/20/03 04:00:31  5-MIN KMSN 201000Z 18004KT 10SM CLR 02/M01 A2977 1000 82 -200 180/04 RMK AO2
14837KMSN MSN20031120040509511/20/03 04:05:31  5-MIN KMSN 201005Z 18004KT 10SM CLR 02/M01 A2977 1010 85 -300 180/04 RMK AO2
14837KMSN MSN20031120041009411/20/03 04:10:31  5-MIN KMSN 201010Z 17006KT 10SM CLR 03/00 A2977 1010 82 -100 170/06 RMK AO2
14837KMSN MSN20031120041509511/20/03 04:15:31  5-MIN KMSN 201015Z 17006KT 10SM CLR 02/M01 A2976 1010 82 -200 170/06 RMK AO2
14837KMSN MSN20031120042009511/20/03 04:20:31  5-MIN KMSN 201020Z 16006KT 10SM CLR 02/M01 A2976 1010 82 -300 160/06 RMK AO2
14837KMSN MSN20031120042509511/20/03 04:25:31  5-MIN KMSN 201025Z 15006KT 10SM CLR 02/M01 A2976 1020 85 -300 150/06 RMK AO2
14837KMSN MSN20031120043009511/20/03 04:30:31  5-MIN KMSN 201030Z 16006KT 10SM CLR 01/M01 A2975 1020 85 -300 160/06 RMK AO2
14837KMSN MSN20031120043509511/20/03 04:35:31  5-MIN KMSN 201035Z 17006KT 10SM CLR 02/M01 A2975 1020 85 -300 170/06 RMK AO2
14837KMSN MSN20031120044009511/20/03 04:40:31  5-MIN KMSN 201040Z 17006KT 10SM CLR 02/M01 A2975 1020 82 -200 170/06 RMK AO2
14837KMSN MSN20031120044509511/20/03 04:45:31  5-MIN KMSN 201045Z 17008KT 10SM CLR 02/M01 A2974 1030 85 -300 170/08 RMK AO2
14837KMSN MSN20031120045011211/20/03 04:50:31  5-MIN KMSN 201050Z 17008KT 10SM CLR 02/M01 A2974 1030 85 -200 170/08 RMK AO2 SLP075 T00171006
14837KMSN MSN20031120045509411/20/03 04:55:31  5-MIN KMSN 201055Z 17008KT 10SM CLR 03/00 A2974 1030 82 -100 170/08 RMK AO2
14837KMSN MSN20031120050009111/20/03 05:00:31  5-MIN KMSN 201100Z 17009KT 10SM CLR 03/00 A2973 1040 79 0 170/09 RMK AO2
14837KMSN MSN20031120050509111/20/03 05:05:31  5-MIN KMSN 201105Z 17009KT 10SM CLR 04/00 A2973 1040 76 0 170/09 RMK AO2
14837KMSN MSN20031120051009111/20/03 05:10:31  5-MIN KMSN 201110Z 17009KT 10SM CLR 03/00 A2973 1040 79 0 160/09 RMK AO2
14837KMSN MSN20031120051509111/20/03 05:15:31  5-MIN KMSN 201115Z 17009KT 10SM CLR 03/00 A2973 1040 79 0 160/09 RMK AO2
14837KMSN MSN20031120052009111/20/03 05:20:31  5-MIN KMSN 201120Z 17009KT 10SM CLR 03/00 A2972 1050 79 0 170/09 RMK AO2
14837KMSN MSN20031120052509111/20/03 05:25:31  5-MIN KMSN 201125Z 17007KT 10SM CLR 03/00 A2972 1050 79 0 170/07 RMK AO2
14837KMSN MSN20031120053009111/20/03 05:30:31  5-MIN KMSN 201130Z 17008KT 10SM CLR 04/00 A2972 1050 76 0 170/08 RMK AO2
14837KMSN MSN20031120053509111/20/03 05:35:31  5-MIN KMSN 201135Z 17009KT 10SM CLR 03/00 A2972 1050 79 0 160/09 RMK AO2
14837KMSN MSN20031120054009111/20/03 05:40:31  5-MIN KMSN 201140Z 17008KT 10SM CLR 04/01 A2972 1050 79 0 170/08 RMK AO2
14837KMSN MSN20031120054509111/20/03 05:45:31  5-MIN KMSN 201145Z 18009KT 10SM CLR 04/01 A2972 1050 79 0 180/09 RMK AO2
14837KMSN MSN20031120055012811/20/03 05:50:31  5-MIN KMSN 201150Z 18011KT 10SM CLR 04/01 A2972 1050 76 100 180/11 RMK AO2 SLP069 T00440006 10044 20000 56019
14837KMSN MSN20031120055509311/20/03 05:55:31  5-MIN KMSN 201155Z 17009KT 10SM CLR 04/01 A2972 1050 76 100 170/09 RMK AO2
14837KMSN MSN20031120060009311/20/03 06:00:31  5-MIN KMSN 201200Z 18009KT 10SM CLR 04/01 A2971 1060 79 100 170/09 RMK AO2
14837KMSN MSN20031120060509111/20/03 06:05:31  5-MIN KMSN 201205Z 16009KT 10SM CLR 04/01 A2971 1060 82 0 160/09 RMK AO2
14837KMSN MSN20031120061009111/20/03 06:10:31  5-MIN KMSN 201210Z 16010KT 10SM CLR 04/01 A2970 1070 79 0 160/10 RMK AO2
14837KMSN MSN20031120061509111/20/03 06:15:31  5-MIN KMSN 201215Z 17008KT 10SM CLR 04/01 A2970 1070 82 0 160/08 RMK AO2
14837KMSN MSN20031120062009111/20/03 06:20:31  5-MIN KMSN 201220Z 16011KT 10SM CLR 04/01 A2970 1070 82 0 160/11 RMK AO2
14837KMSN MSN20031120062509111/20/03 06:25:31  5-MIN KMSN 201225Z 17009KT 10SM CLR 04/01 A2970 1070 82 0 160/09 RMK AO2
14837KMSN MSN20031120063009311/20/03 06:30:31  5-MIN KMSN 201230Z 17009KT 10SM CLR 04/01 A2969 1080 79 100 170/09 RMK AO2
14837KMSN MSN20031120063509311/20/03 06:35:31  5-MIN KMSN 201235Z 17010KT 10SM CLR 04/01 A2969 1080 79 100 170/10 RMK AO2
14837KMSN MSN20031120064009311/20/03 06:40:31  5-MIN KMSN 201240Z 17010KT 10SM CLR 05/01 A2969 1080 76 200 170/10 RMK AO2
14837KMSN MSN20031120064509311/20/03 06:45:31  5-MIN KMSN 201245Z 18011KT 10SM CLR 05/01 A2969 1080 76 200 170/11 RMK AO2
14837KMSN MSN20031120065011011/20/03 06:50:31  5-MIN KMSN 201250Z 17011KT 10SM CLR 05/02 A2968 1080 79 200 170/11 RMK AO2 SLP058 T00500017
14837KMSN MSN20031120065509311/20/03 06:55:31  5-MIN KMSN 201255Z 17011KT 10SM CLR 05/02 A2968 1080 79 200 170/11 RMK AO2
14837KMSN MSN20031120070009311/20/03 07:00:31  5-MIN KMSN 201300Z 18010KT 10SM CLR 05/02 A2968 1080 79 200 170/10 RMK AO2
14837KMSN MSN20031120070509311/20/03 07:05:31  5-MIN KMSN 201305Z 18011KT 10SM CLR 05/02 A2968 1080 79 200 180/11 RMK AO2
14837KMSN MSN20031120071009311/20/03 07:10:31  5-MIN KMSN 201310Z 18010KT 10SM CLR 05/02 A2968 1090 79 200 180/10 RMK AO2
14837KMSN MSN20031120071509311/20/03 07:15:31  5-MIN KMSN 201315Z 18011KT 10SM CLR 06/02 A2968 1080 76 200 180/11 RMK AO2
14837KMSN MSN20031120072009311/20/03 07:20:31  5-MIN KMSN 201320Z 18011KT 10SM CLR 06/02 A2968 1080 76 200 180/11 RMK AO2
14837KMSN MSN20031120072509311/20/03 07:25:31  5-MIN KMSN 201325Z 18012KT 10SM CLR 06/02 A2968 1090 76 200 180/12 RMK AO2
14837KMSN MSN20031120073009311/20/03 07:30:31  5-MIN KMSN 201330Z 18012KT 10SM CLR 06/02 A2968 1080 76 200 180/12 RMK AO2
14837KMSN MSN20031120073509311/20/03 07:35:31  5-MIN KMSN 201335Z 19011KT 10SM CLR 06/02 A2968 1080 76 300 180/11 RMK AO2
14837KMSN MSN20031120074009311/20/03 07:40:31  5-MIN KMSN 201340Z 18012KT 10SM CLR 06/02 A2968 1080 76 300 180/12 RMK AO2
14837KMSN MSN20031120074509311/20/03 07:45:31  5-MIN KMSN 201345Z 18012KT 10SM CLR 07/02 A2968 1090 73 400 180/12 RMK AO2
14837KMSN MSN20031120075011011/20/03 07:50:31  5-MIN KMSN 201350Z 18013KT 10SM CLR 07/02 A2968 1090 73 400 180/13 RMK AO2 SLP054 T00670022
14837KMSN MSN20031120075509311/20/03 07:55:31  5-MIN KMSN 201355Z 18013KT 10SM CLR 07/02 A2967 1090 73 400 180/13 RMK AO2
14837KMSN MSN20031120080009311/20/03 08:00:31  5-MIN KMSN 201400Z 18014KT 10SM CLR 07/02 A2967 1100 73 400 180/14 RMK AO2
14837KMSN MSN20031120080509311/20/03 08:05:31  5-MIN KMSN 201405Z 18012KT 10SM CLR 07/02 A2967 1100 70 500 180/12 RMK AO2
14837KMSN MSN20031120081009311/20/03 08:10:31  5-MIN KMSN 201410Z 18011KT 10SM CLR 07/02 A2967 1100 70 500 180/11 RMK AO2
14837KMSN MSN20031120081509311/20/03 08:15:31  5-MIN KMSN 201415Z 18012KT 10SM CLR 07/02 A2967 1090 70 500 180/12 RMK AO2
14837KMSN MSN20031120082009311/20/03 08:20:31  5-MIN KMSN 201420Z 18013KT 10SM CLR 07/02 A2967 1100 70 500 180/13 RMK AO2
14837KMSN MSN20031120082509311/20/03 08:25:31  5-MIN KMSN 201425Z 19012KT 10SM CLR 07/02 A2967 1100 70 500 180/12 RMK AO2
14837KMSN MSN20031120083009311/20/03 08:30:31  5-MIN KMSN 201430Z 18012KT 10SM CLR 07/02 A2967 1100 70 500 180/12 RMK AO2
14837KMSN MSN20031120083509311/20/03 08:35:31  5-MIN KMSN 201435Z 19012KT 10SM CLR 08/03 A2967 1100 70 500 190/12 RMK AO2
14837KMSN MSN20031120084009911/20/03 08:40:31  5-MIN KMSN 201440Z 19012G19KT 10SM CLR 08/02 A2967 1090 65 600 190/12G19 RMK AO2
14837KMSN MSN20031120084509911/20/03 08:45:31  5-MIN KMSN 201445Z 19012G19KT 10SM CLR 08/02 A2967 1100 65 600 190/12G19 RMK AO2
14837KMSN MSN20031120085012211/20/03 08:50:31  5-MIN KMSN 201450Z 19015G21KT 10SM CLR 08/03 A2966 1100 68 600 190/15G21 RMK AO2 SLP050 T00830028 58022
14837KMSN MSN20031120085509911/20/03 08:55:31  5-MIN KMSN 201455Z 19013G21KT 10SM CLR 09/03 A2966 1100 65 700 190/13G21 RMK AO2
14837KMSN MSN20031120090009911/20/03 09:00:31  5-MIN KMSN 201500Z 19011G19KT 10SM CLR 09/03 A2966 1110 65 700 190/11G19 RMK AO2
14837KMSN MSN20031120090509911/20/03 09:05:31  5-MIN KMSN 201505Z 19012G20KT 10SM CLR 09/03 A2966 1110 65 700 190/12G20 RMK AO2
14837KMSN MSN20031120091009911/20/03 09:10:31  5-MIN KMSN 201510Z 19015G20KT 10SM CLR 09/03 A2965 1110 63 800 190/15G20 RMK AO2
14837KMSN MSN20031120091509911/20/03 09:15:31  5-MIN KMSN 201515Z 19014G20KT 10SM CLR 09/03 A2965 1110 63 800 180/14G20 RMK AO2
14837KMSN MSN20031120092009911/20/03 09:20:31  5-MIN KMSN 201520Z 19014G22KT 10SM CLR 09/03 A2965 1110 63 800 190/14G22 RMK AO2
14837KMSN MSN20031120092509911/20/03 09:25:31  5-MIN KMSN 201525Z 19012G22KT 10SM CLR 09/03 A2966 1110 63 700 190/12G22 RMK AO2
14837KMSN MSN20031120093009311/20/03 09:30:31  5-MIN KMSN 201530Z 18014KT 10SM CLR 10/03 A2966 1110 60 800 180/14 RMK AO2
14837KMSN MSN20031120093509311/20/03 09:35:31  5-MIN KMSN 201535Z 18014KT 10SM CLR 10/03 A2965 1110 60 800 180/14 RMK AO2
14837KMSN MSN20031120094009311/20/03 09:40:31  5-MIN KMSN 201540Z 18011KT 10SM CLR 11/03 A2965 1120 58 900 180/11 RMK AO2
14837KMSN MSN20031120094509311/20/03 09:45:31  5-MIN KMSN 201545Z 18010KT 10SM CLR 11/03 A2965 1120 58 900 180/10 RMK AO2
14837KMSN MSN20031120095011011/20/03 09:50:31  5-MIN KMSN 201550Z 19011KT 10SM CLR 11/03 A2965 1120 61 900 190/11 RMK AO2 SLP044 T01060033
14837KMSN MSN20031120095509411/20/03 09:55:31  5-MIN KMSN 201555Z 19010KT 10SM CLR 11/03 A2965 1120 56 1000 190/10 RMK AO2
14837KMSN MSN20031120100009411/20/03 10:00:31  5-MIN KMSN 201600Z 19011KT 10SM CLR 12/03 A2965 1120 54 1000 190/11 RMK AO2
14837KMSN MSN20031120100510011/20/03 10:05:31  5-MIN KMSN 201605Z 20012G17KT 10SM CLR 12/03 A2965 1120 54 1000 190/12G17 RMK AO2
14837KMSN MSN20031120101010011/20/03 10:10:31  5-MIN KMSN 201610Z 20008G18KT 10SM CLR 12/03 A2965 1120 54 1000 200/08G18 RMK AO2
14837KMSN MSN20031120101510011/20/03 10:15:31  5-MIN KMSN 201615Z 20009G18KT 10SM CLR 12/03 A2965 1120 52 1100 200/09G18 RMK AO2
14837KMSN MSN20031120102010011/20/03 10:20:31  5-MIN KMSN 201620Z 20010G16KT 10SM CLR 12/03 A2964 1120 52 1100 200/10G16 RMK AO2
14837KMSN MSN20031120102509411/20/03 10:25:31  5-MIN KMSN 201625Z 19011KT 10SM CLR 13/03 A2964 1130 50 1200 190/11 RMK AO2
14837KMSN MSN20031120103010011/20/03 10:30:31  5-MIN KMSN 201630Z 18012G17KT 10SM CLR 13/03 A2963 1130 48 1200 180/12G17 RMK AO2
14837KMSN MSN20031120103510011/20/03 10:35:31  5-MIN KMSN 201635Z 20011G17KT 10SM CLR 13/03 A2963 1130 48 1200 200/11G17 RMK AO2
14837KMSN MSN20031120104009411/20/03 10:40:31  5-MIN KMSN 201640Z 19010KT 10SM CLR 14/03 A2963 1140 47 1300 190/10 RMK AO2
14837KMSN MSN20031120104509411/20/03 10:45:31  5-MIN KMSN 201645Z 19011KT 10SM CLR 14/03 A2962 1140 47 1300 190/11 RMK AO2
14837KMSN MSN20031120105011111/20/03 10:50:31  5-MIN KMSN 201650Z 19011KT 10SM CLR 14/03 A2962 1150 45 1400 190/11 RMK AO2 SLP032 T01440028
14837KMSN MSN20031120105509411/20/03 10:55:31  5-MIN KMSN 201655Z 19011KT 10SM CLR 15/03 A2962 1150 45 1500 190/11 RMK AO2
14837KMSN MSN20031120110010011/20/03 11:00:31  5-MIN KMSN 201700Z 19012G18KT 10SM CLR 15/03 A2961 1150 45 1500 190/12G18 RMK AO2
14837KMSN MSN20031120110510011/20/03 11:05:31  5-MIN KMSN 201705Z 19011G18KT 10SM CLR 15/03 A2961 1160 43 1500 190/11G18 RMK AO2
14837KMSN MSN20031120111010011/20/03 11:10:31  5-MIN KMSN 201710Z 18011G20KT 10SM CLR 16/03 A2960 1160 42 1500 180/11G20 RMK AO2
14837KMSN MSN20031120111510711/20/03 11:15:31  5-MIN KMSN 201715Z 19013G22KT 10SM CLR 15/03 A2959 1170 43 1500 190/13G22 RMK AO2 PRESFR
14837KMSN MSN20031120112010011/20/03 11:20:31  5-MIN KMSN 201720Z 19012G22KT 10SM CLR 16/03 A2959 1170 42 1600 190/12G22 RMK AO2
14837KMSN MSN20031120112510011/20/03 11:25:31  5-MIN KMSN 201725Z 19012G18KT 10SM CLR 16/03 A2959 1180 42 1600 190/12G18 RMK AO2
14837KMSN MSN20031120113010011/20/03 11:30:31  5-MIN KMSN 201730Z 19011G19KT 10SM CLR 16/02 A2958 1180 39 1600 190/11G19 RMK AO2
14837KMSN MSN20031120113510011/20/03 11:35:31  5-MIN KMSN 201735Z 21009G19KT 10SM CLR 16/03 A2959 1170 40 1600 210/09G19 RMK AO2
14837KMSN MSN20031120114010011/20/03 11:40:31  5-MIN KMSN 201740Z 21011G16KT 10SM CLR 17/03 A2958 1180 39 1700 210/11G16 RMK AO2
14837KMSN MSN20031120114511611/20/03 11:45:31  5-MIN KMSN 201745Z 21010G16KT 170V230 10SM CLR 16/03 A2958 1180 40 1600 210/10G16 170V230 RMK AO2
14837KMSN MSN20031120115012911/20/03 11:50:31  5-MIN KMSN 201750Z 20007KT 10SM CLR 16/03 A2958 1180 40 1600 190/07 RMK AO2 SLP020 T01610028 10167 20039 56017
14837KMSN MSN20031120115510011/20/03 11:55:31  5-MIN KMSN 201755Z 19008G14KT 10SM CLR 17/03 A2958 1180 39 1700 190/08G14 RMK AO2
14837KMSN MSN20031120120010011/20/03 12:00:31  5-MIN KMSN 201800Z 21013G18KT 10SM CLR 17/03 A2958 1180 39 1700 210/13G18 RMK AO2
14837KMSN MSN20031120120510011/20/03 12:05:31  5-MIN KMSN 201805Z 19016G25KT 10SM CLR 17/03 A2957 1190 39 1700 190/16G25 RMK AO2
14837KMSN MSN20031120121010011/20/03 12:10:31  5-MIN KMSN 201810Z 19014G25KT 10SM CLR 17/03 A2956 1200 37 1800 190/14G25 RMK AO2
14837KMSN MSN20031120121510011/20/03 12:15:31  5-MIN KMSN 201815Z 19011G19KT 10SM CLR 17/03 A2956 1200 39 1800 190/11G19 RMK AO2
14837KMSN MSN20031120122010011/20/03 12:20:31  5-MIN KMSN 201820Z 19011G19KT 10SM CLR 17/03 A2956 1200 39 1800 190/11G19 RMK AO2
14837KMSN MSN20031120122510011/20/03 12:25:31  5-MIN KMSN 201825Z 19012G19KT 10SM CLR 17/03 A2956 1200 39 1800 190/12G19 RMK AO2
14837KMSN MSN20031120123010011/20/03 12:30:31  5-MIN KMSN 201830Z 21014G21KT 10SM CLR 17/03 A2956 1200 37 1800 200/14G21 RMK AO2
14837KMSN MSN20031120123510011/20/03 12:35:31  5-MIN KMSN 201835Z 20014G21KT 10SM CLR 17/03 A2956 1200 39 1700 200/14G21 RMK AO2
14837KMSN MSN20031120124010011/20/03 12:40:31  5-MIN KMSN 201840Z 20013G23KT 10SM CLR 17/03 A2956 1200 37 1800 200/13G23 RMK AO2
14837KMSN MSN20031120124510011/20/03 12:45:31  5-MIN KMSN 201845Z 20014G23KT 10SM CLR 17/03 A2956 1200 39 1700 200/14G23 RMK AO2
14837KMSN MSN20031120125011711/20/03 12:50:31  5-MIN KMSN 201850Z 20014G22KT 10SM CLR 17/03 A2956 1200 37 1800 200/14G22 RMK AO2 SLP011 T01720028
14837KMSN MSN20031120125510011/20/03 12:55:31  5-MIN KMSN 201855Z 20011G22KT 10SM CLR 17/03 A2956 1200 37 1800 200/11G22 RMK AO2
14837KMSN MSN20031120130010011/20/03 13:00:31  5-MIN KMSN 201900Z 20012G20KT 10SM CLR 17/03 A2955 1210 39 1800 190/12G20 RMK AO2
14837KMSN MSN20031120130510011/20/03 13:05:31  5-MIN KMSN 201905Z 19014G20KT 10SM CLR 17/03 A2954 1210 39 1800 190/14G20 RMK AO2
14837KMSN MSN20031120131010011/20/03 13:10:31  5-MIN KMSN 201910Z 19013G20KT 10SM CLR 17/03 A2954 1220 37 1800 190/13G20 RMK AO2
14837KMSN MSN20031120131510011/20/03 13:15:31  5-MIN KMSN 201915Z 20013G20KT 10SM CLR 17/03 A2954 1210 39 1800 200/13G20 RMK AO2
14837KMSN MSN20031120132010011/20/03 13:20:31  5-MIN KMSN 201920Z 20013G20KT 10SM CLR 18/03 A2954 1210 38 1900 200/13G20 RMK AO2
14837KMSN MSN20031120132510011/20/03 13:25:31  5-MIN KMSN 201925Z 19017G20KT 10SM CLR 18/03 A2954 1210 38 1900 190/17G20 RMK AO2
14837KMSN MSN20031120133010011/20/03 13:30:31  5-MIN KMSN 201930Z 19014G21KT 10SM CLR 17/03 A2954 1220 39 1800 190/14G21 RMK AO2
14837KMSN MSN20031120133510011/20/03 13:35:31  5-MIN KMSN 201935Z 19014G18KT 10SM CLR 17/03 A2954 1220 39 1800 190/14G18 RMK AO2
14837KMSN MSN20031120134010011/20/03 13:40:31  5-MIN KMSN 201940Z 19011G17KT 10SM CLR 17/03 A2955 1210 39 1800 190/11G17 RMK AO2
14837KMSN MSN20031120134510011/20/03 13:45:31  5-MIN KMSN 201945Z 20011G17KT 10SM CLR 17/03 A2954 1210 39 1800 190/11G17 RMK AO2
14837KMSN MSN20031120135011711/20/03 13:50:31  5-MIN KMSN 201950Z 20012G17KT 10SM CLR 17/04 A2954 1210 41 1800 190/12G17 RMK AO2 SLP006 T01720039
14837KMSN MSN20031120135510011/20/03 13:55:31  5-MIN KMSN 201955Z 20014G19KT 10SM CLR 17/03 A2954 1210 39 1800 200/14G19 RMK AO2
14837KMSN MSN20031120140010011/20/03 14:00:31  5-MIN KMSN 202000Z 20012G19KT 10SM CLR 17/03 A2955 1210 39 1800 200/12G19 RMK AO2
14837KMSN MSN20031120140510011/20/03 14:05:31  5-MIN KMSN 202005Z 20010G16KT 10SM CLR 17/03 A2955 1210 39 1800 200/10G16 RMK AO2
14837KMSN MSN20031120141010011/20/03 14:10:31  5-MIN KMSN 202010Z 20012G16KT 10SM CLR 17/03 A2955 1210 39 1800 200/12G16 RMK AO2
14837KMSN MSN20031120141510011/20/03 14:15:31  5-MIN KMSN 202015Z 21010G19KT 10SM CLR 17/03 A2955 1210 39 1800 210/10G19 RMK AO2
14837KMSN MSN20031120142010011/20/03 14:20:31  5-MIN KMSN 202020Z 20009G19KT 10SM CLR 17/03 A2955 1210 39 1800 200/09G19 RMK AO2
14837KMSN MSN20031120142510011/20/03 14:25:31  5-MIN KMSN 202025Z 21010G16KT 10SM CLR 18/03 A2955 1210 38 1800 210/10G16 RMK AO2
14837KMSN MSN20031120143010011/20/03 14:30:31  5-MIN KMSN 202030Z 21009G16KT 10SM CLR 18/03 A2955 1200 38 1800 210/09G16 RMK AO2
14837KMSN MSN20031120143510011/20/03 14:35:31  5-MIN KMSN 202035Z 22011G17KT 10SM CLR 18/03 A2956 1200 38 1800 220/11G17 RMK AO2
14837KMSN MSN20031120144010011/20/03 14:40:31  5-MIN KMSN 202040Z 20010G17KT 10SM CLR 18/03 A2955 1210 38 1800 200/10G17 RMK AO2
14837KMSN MSN20031120144509411/20/03 14:45:31  5-MIN KMSN 202045Z 21009KT 10SM CLR 17/03 A2956 1200 39 1800 210/09 RMK AO2
14837KMSN MSN20031120145012311/20/03 14:50:31  5-MIN KMSN 202050Z 20010G15KT 10SM CLR 17/03 A2956 1200 39 1800 200/10G15 RMK AO2 SLP010 T01720033 58029
14837KMSN MSN20031120145510011/20/03 14:55:31  5-MIN KMSN 202055Z 20010G15KT 10SM CLR 18/03 A2956 1200 38 1800 200/10G15 RMK AO2
14837KMSN MSN20031120150009411/20/03 15:00:31  5-MIN KMSN 202100Z 20008KT 10SM CLR 18/03 A2956 1200 38 1800 200/08 RMK AO2
14837KMSN MSN20031120150509411/20/03 15:05:31  5-MIN KMSN 202105Z 21009KT 10SM CLR 18/03 A2956 1200 38 1800 210/09 RMK AO2
14837KMSN MSN20031120151009411/20/03 15:10:31  5-MIN KMSN 202110Z 19007KT 10SM CLR 18/03 A2956 1200 38 1800 190/07 RMK AO2
14837KMSN MSN20031120151509411/20/03 15:15:31  5-MIN KMSN 202115Z 21006KT 10SM CLR 17/03 A2956 1200 39 1800 200/06 RMK AO2
14837KMSN MSN20031120152009411/20/03 15:20:31  5-MIN KMSN 202120Z 21007KT 10SM CLR 18/03 A2956 1190 38 1800 210/07 RMK AO2
14837KMSN MSN20031120152509411/20/03 15:25:31  5-MIN KMSN 202125Z 20008KT 10SM CLR 18/03 A2956 1200 38 1800 200/08 RMK AO2
14837KMSN MSN20031120153010011/20/03 15:30:31  5-MIN KMSN 202130Z 21008G16KT 10SM CLR 18/03 A2956 1200 38 1800 210/08G16 RMK AO2
14837KMSN MSN20031120153510011/20/03 15:35:31  5-MIN KMSN 202135Z 20008G16KT 10SM CLR 18/03 A2957 1190 38 1800 200/08G16 RMK AO2
14837KMSN MSN20031120154010011/20/03 15:40:31  5-MIN KMSN 202140Z 22009G16KT 10SM CLR 18/03 A2957 1190 35 1900 220/09G16 RMK AO2
14837KMSN MSN20031120154510011/20/03 15:45:31  5-MIN KMSN 202145Z 22010G16KT 10SM CLR 18/03 A2957 1190 35 1900 220/10G16 RMK AO2
14837KMSN MSN20031120155011711/20/03 15:50:31  5-MIN KMSN 202150Z 22008G15KT 10SM CLR 18/03 A2957 1190 35 1900 220/08G15 RMK AO2 SLP017 T01830028
14837KMSN MSN20031120155510011/20/03 15:55:31  5-MIN KMSN 202155Z 23006G15KT 10SM CLR 18/03 A2958 1180 36 1800 230/06G15 RMK AO2
14837KMSN MSN20031120160010011/20/03 16:00:31  5-MIN KMSN 202200Z 23005G15KT 10SM CLR 18/03 A2958 1180 36 1800 220/05G15 RMK AO2
14837KMSN MSN20031120160509411/20/03 16:05:31  5-MIN KMSN 202205Z 23006KT 10SM CLR 18/03 A2958 1180 36 1800 230/06 RMK AO2
14837KMSN MSN20031120161009411/20/03 16:10:31  5-MIN KMSN 202210Z 22005KT 10SM CLR 17/03 A2958 1180 37 1800 220/05 RMK AO2
14837KMSN MSN20031120161509411/20/03 16:15:31  5-MIN KMSN 202215Z 23004KT 10SM CLR 17/03 A2958 1180 40 1700 230/04 RMK AO2
14837KMSN MSN20031120162009411/20/03 16:20:31  5-MIN KMSN 202220Z 23004KT 10SM CLR 16/03 A2959 1180 42 1600 220/04 RMK AO2
14837KMSN MSN20031120162509411/20/03 16:25:31  5-MIN KMSN 202225Z 23004KT 10SM CLR 16/03 A2959 1170 42 1600 230/04 RMK AO2
14837KMSN MSN20031120163009411/20/03 16:30:31  5-MIN KMSN 202230Z 24004KT 10SM CLR 16/03 A2959 1170 43 1500 240/04 RMK AO2
14837KMSN MSN20031120163509411/20/03 16:35:31  5-MIN KMSN 202235Z 23004KT 10SM CLR 16/03 A2959 1170 43 1500 230/04 RMK AO2
14837KMSN MSN20031120164009411/20/03 16:40:31  5-MIN KMSN 202240Z 24003KT 10SM CLR 14/03 A2960 1160 48 1300 240/03 RMK AO2
14837KMSN MSN20031120164509411/20/03 16:45:31  5-MIN KMSN 202245Z 23004KT 10SM CLR 14/03 A2960 1160 48 1300 230/04 RMK AO2
14837KMSN MSN20031120165011111/20/03 16:50:31  5-MIN KMSN 202250Z 22003KT 10SM CLR 14/03 A2960 1160 48 1300 220/03 RMK AO2 SLP028 T01390033
14837KMSN MSN20031120165509411/20/03 16:55:31  5-MIN KMSN 202255Z 22003KT 10SM CLR 13/03 A2961 1160 50 1300 220/03 RMK AO2
14837KMSN MSN20031120170009411/20/03 17:00:31  5-MIN KMSN 202300Z 20004KT 10SM CLR 13/03 A2960 1160 50 1300 200/04 RMK AO2
14837KMSN MSN20031120170509411/20/03 17:05:31  5-MIN KMSN 202305Z 20004KT 10SM CLR 14/03 A2961 1160 47 1400 200/04 RMK AO2
14837KMSN MSN20031120171009411/20/03 17:10:31  5-MIN KMSN 202310Z 19006KT 10SM CLR 14/03 A2961 1160 47 1400 190/06 RMK AO2
14837KMSN MSN20031120171509411/20/03 17:15:31  5-MIN KMSN 202315Z 20004KT 10SM CLR 15/03 A2961 1150 45 1500 200/04 RMK AO2
14837KMSN MSN20031120172009411/20/03 17:20:31  5-MIN KMSN 202320Z 22003KT 10SM CLR 13/03 A2962 1150 52 1200 220/03 RMK AO2
14837KMSN MSN20031120172509311/20/03 17:25:31  5-MIN KMSN 202325Z 23004KT 10SM CLR 11/03 A2962 1140 61 900 230/04 RMK AO2
14837KMSN MSN20031120173009411/20/03 17:30:31  5-MIN KMSN 202330Z 22004KT 10SM CLR 12/03 A2962 1140 56 1100 220/04 RMK AO2
14837KMSN MSN20031120173509411/20/03 17:35:31  5-MIN KMSN 202335Z 22004KT 10SM CLR 12/03 A2963 1140 56 1000 220/04 RMK AO2
14837KMSN MSN20031120174009411/20/03 17:40:31  5-MIN KMSN 202340Z 22004KT 10SM CLR 12/03 A2963 1130 54 1100 220/04 RMK AO2
14837KMSN MSN20031120174509411/20/03 17:45:31  5-MIN KMSN 202345Z 22005KT 10SM CLR 11/03 A2963 1130 58 1000 220/05 RMK AO2
14837KMSN MSN20031120175012911/20/03 17:50:31  5-MIN KMSN 202350Z 23004KT 10SM CLR 11/04 A2964 1130 61 1000 230/04 RMK AO2 SLP040 T01110039 10183 20106 55007
14837KMSN MSN20031120175509411/20/03 17:55:31  5-MIN KMSN 202355Z 22004KT 10SM CLR 12/03 A2964 1120 56 1000 220/04 RMK AO2
14837KMSN MSN20031120180009411/20/03 18:00:31  5-MIN KMSN 210000Z 22005KT 10SM CLR 13/04 A2964 1120 54 1200 220/05 RMK AO2
14837KMSN MSN20031120180509411/20/03 18:05:31  5-MIN KMSN 210005Z 22004KT 10SM CLR 13/03 A2964 1120 52 1200 220/04 RMK AO2
14837KMSN MSN20031120181009411/20/03 18:10:31  5-MIN KMSN 210010Z 22004KT 10SM CLR 13/03 A2965 1120 52 1200 220/04 RMK AO2
14837KMSN MSN20031120181509411/20/03 18:15:31  5-MIN KMSN 210015Z VRB03KT 10SM CLR 12/04 A2965 1120 58 1000 VRB/03 RMK AO2
14837KMSN MSN20031120182009311/20/03 18:20:31  5-MIN KMSN 210020Z VRB03KT 10SM CLR 11/04 A2966 1110 61 900 VRB/03 RMK AO2
14837KMSN MSN20031120182509311/20/03 18:25:31  5-MIN KMSN 210025Z VRB03KT 10SM CLR 11/03 A2966 1110 58 900 VRB/03 RMK AO2
14837KMSN MSN20031120183009411/20/03 18:30:31  5-MIN KMSN 210030Z 22003KT 10SM CLR 12/03 A2966 1110 56 1000 220/03 RMK AO2
14837KMSN MSN20031120183509411/20/03 18:35:31  5-MIN KMSN 210035Z 22003KT 10SM CLR 12/03 A2967 1100 54 1100 220/03 RMK AO2
14837KMSN MSN20031120184009411/20/03 18:40:31  5-MIN KMSN 210040Z 00000KT 10SM CLR 12/03 A2967 1100 56 1000 000/00 RMK AO2
14837KMSN MSN20031120184509311/20/03 18:45:31  5-MIN KMSN 210045Z 00000KT 10SM CLR 11/03 A2967 1090 58 900 000/00 RMK AO2
14837KMSN MSN20031120185011111/20/03 18:50:31  5-MIN KMSN 210050Z 23004KT 10SM CLR 12/03 A2968 1090 56 1000 230/04 RMK AO2 SLP054 T01170033
14837KMSN MSN20031120185509311/20/03 18:55:31  5-MIN KMSN 210055Z 00000KT 10SM CLR 11/03 A2968 1090 58 900 000/00 RMK AO2
14837KMSN MSN20031120190009311/20/03 19:00:31  5-MIN KMSN 210100Z 00000KT 10SM CLR 10/03 A2969 1080 63 800 000/00 RMK AO2
14837KMSN MSN20031120190509411/20/03 19:05:31  5-MIN KMSN 210105Z VRB03KT 10SM CLR 12/03 A2968 1080 52 1000 VRB/03 RMK AO2
14837KMSN MSN20031120191009311/20/03 19:10:31  5-MIN KMSN 210110Z VRB03KT 10SM CLR 11/03 A2968 1080 56 900 VRB/03 RMK AO2
14837KMSN MSN20031120191509411/20/03 19:15:31  5-MIN KMSN 210115Z VRB03KT 10SM CLR 12/03 A2968 1080 54 1000 VRB/03 RMK AO2
14837KMSN MSN20031120192009311/20/03 19:20:31  5-MIN KMSN 210120Z 00000KT 10SM CLR 11/03 A2969 1080 58 800 000/00 RMK AO2
14837KMSN MSN20031120192509311/20/03 19:25:31  5-MIN KMSN 210125Z VRB03KT 10SM CLR 11/03 A2969 1080 56 900 VRB/03 RMK AO2
14837KMSN MSN20031120193009311/20/03 19:30:31  5-MIN KMSN 210130Z 25003KT 10SM CLR 10/03 A2970 1070 60 800 250/03 RMK AO2
14837KMSN MSN20031120193509311/20/03 19:35:31  5-MIN KMSN 210135Z 00000KT 10SM CLR 09/03 A2970 1070 63 700 000/00 RMK AO2
14837KMSN MSN20031120194009311/20/03 19:40:31  5-MIN KMSN 210140Z 00000KT 10SM CLR 10/03 A2970 1070 60 800 000/00 RMK AO2
14837KMSN MSN20031120194509311/20/03 19:45:31  5-MIN KMSN 210145Z 23003KT 10SM CLR 10/03 A2971 1060 60 800 230/03 RMK AO2
14837KMSN MSN20031120195011011/20/03 19:50:31  5-MIN KMSN 210150Z 27003KT 10SM CLR 09/02 A2971 1060 60 700 270/03 RMK AO2 SLP064 T00940022
14837KMSN MSN20031120195509311/20/03 19:55:31  5-MIN KMSN 210155Z 28003KT 10SM CLR 08/02 A2971 1060 65 600 280/03 RMK AO2
14837KMSN MSN20031120200009311/20/03 20:00:31  5-MIN KMSN 210200Z 25003KT 10SM CLR 08/02 A2972 1050 65 500 250/03 RMK AO2
14837KMSN MSN20031120200509311/20/03 20:05:31  5-MIN KMSN 210205Z VRB03KT 10SM CLR 09/02 A2972 1050 60 700 VRB/03 RMK AO2
14837KMSN MSN20031120201009311/20/03 20:10:31  5-MIN KMSN 210210Z 28004KT 10SM CLR 08/02 A2973 1040 65 500 280/04 RMK AO2
14837KMSN MSN20031120201509311/20/03 20:15:31  5-MIN KMSN 210215Z 29005KT 10SM CLR 09/02 A2973 1040 60 700 290/05 RMK AO2
14837KMSN MSN20031120202009311/20/03 20:20:31  5-MIN KMSN 210220Z 28004KT 10SM CLR 11/02 A2973 1040 56 800 280/04 RMK AO2
14837KMSN MSN20031120202509311/20/03 20:25:31  5-MIN KMSN 210225Z 27004KT 10SM CLR 09/02 A2973 1040 60 700 260/04 RMK AO2
14837KMSN MSN20031120203009311/20/03 20:30:31  5-MIN KMSN 210230Z 26003KT 10SM CLR 10/02 A2973 1040 56 700 260/03 RMK AO2
14837KMSN MSN20031120203509311/20/03 20:35:31  5-MIN KMSN 210235Z 28004KT 10SM CLR 09/02 A2974 1030 63 600 280/04 RMK AO2
14837KMSN MSN20031120204009311/20/03 20:40:31  5-MIN KMSN 210240Z 28004KT 10SM CLR 09/02 A2974 1030 58 600 280/04 RMK AO2
14837KMSN MSN20031120204509311/20/03 20:45:31  5-MIN KMSN 210245Z 27004KT 10SM CLR 08/02 A2975 1020 65 400 270/04 RMK AO2
14837KMSN MSN20031120205011611/20/03 20:50:31  5-MIN KMSN 210250Z 28004KT 10SM CLR 08/02 A2975 1020 65 500 280/04 RMK AO2 SLP078 T00830022 53027
14837KMSN MSN20031120205509311/20/03 20:55:31  5-MIN KMSN 210255Z 29005KT 10SM CLR 08/02 A2975 1020 63 500 290/05 RMK AO2
14837KMSN MSN20031120210009311/20/03 21:00:31  5-MIN KMSN 210300Z 29005KT 10SM CLR 09/02 A2976 1020 58 600 290/05 RMK AO2
14837KMSN MSN20031120210509311/20/03 21:05:31  5-MIN KMSN 210305Z 29007KT 10SM CLR 10/02 A2976 1010 56 700 290/07 RMK AO2
14837KMSN MSN20031120211009311/20/03 21:10:31  5-MIN KMSN 210310Z 30007KT 10SM CLR 11/02 A2976 1010 56 800 290/07 RMK AO2
14837KMSN MSN20031120211509311/20/03 21:15:31  5-MIN KMSN 210315Z 30008KT 10SM CLR 11/02 A2977 1000 56 800 300/08 RMK AO2
14837KMSN MSN20031120212009311/20/03 21:20:31  5-MIN KMSN 210320Z 30008KT 10SM CLR 11/02 A2977 1000 54 800 300/08 RMK AO2
14837KMSN MSN20031120212509911/20/03 21:25:31  5-MIN KMSN 210325Z 31012G16KT 10SM CLR 11/02 A2977 1000 54 800 310/12G16 RMK AO2
14837KMSN MSN20031120213009311/20/03 21:30:31  5-MIN KMSN 210330Z 32011KT 10SM CLR 11/01 A2978 1000 52 700 320/11 RMK AO2
14837KMSN MSN20031120213509311/20/03 21:35:31  5-MIN KMSN 210335Z 32009KT 10SM CLR 11/01 A2978 1000 52 700 320/09 RMK AO2
14837KMSN MSN20031120214009311/20/03 21:40:31  5-MIN KMSN 210340Z 33009KT 10SM CLR 11/01 A2978 1000 52 700 320/09 RMK AO2
14837KMSN MSN20031120214509211/20/03 21:45:31  5-MIN KMSN 210345Z 32009KT 10SM CLR 11/01 A2978 990 52 700 320/09 RMK AO2
14837KMSN MSN20031120215010911/20/03 21:50:31  5-MIN KMSN 210350Z 32008KT 10SM CLR 10/01 A2978 990 54 700 320/08 RMK AO2 SLP087 T01000011
14837KMSN MSN20031120215509211/20/03 21:55:31  5-MIN KMSN 210355Z 33008KT 10SM CLR 10/01 A2978 990 54 700 330/08 RMK AO2
14837KMSN MSN20031120220009211/20/03 22:00:31  5-MIN KMSN 210400Z 33007KT 10SM CLR 10/01 A2979 990 54 700 330/07 RMK AO2
14837KMSN MSN20031120220509211/20/03 22:05:31  5-MIN KMSN 210405Z 33006KT 10SM CLR 10/01 A2979 990 54 700 330/06 RMK AO2
14837KMSN MSN20031120221009211/20/03 22:10:31  5-MIN KMSN 210410Z 33006KT 10SM CLR 10/01 A2979 980 54 700 330/06 RMK AO2
14837KMSN MSN20031120221509211/20/03 22:15:31  5-MIN KMSN 210415Z VRB05KT 10SM CLR 09/01 A2979 980 56 600 VRB/05 RMK AO2
14837KMSN MSN20031120222009211/20/03 22:20:31  5-MIN KMSN 210420Z 32006KT 10SM CLR 09/01 A2980 980 56 600 320/06 RMK AO2
14837KMSN MSN20031120222509211/20/03 22:25:31  5-MIN KMSN 210425Z 30005KT 10SM CLR 09/01 A2981 970 58 500 300/05 RMK AO2
14837KMSN MSN20031120223009211/20/03 22:30:31  5-MIN KMSN 210430Z 31006KT 10SM CLR 09/01 A2981 970 58 500 310/06 RMK AO2
14837KMSN MSN20031120223509911/20/03 22:35:31  5-MIN KMSN 210435Z 30005KT 10SM CLR 09/01 A2982 960 58 500 300/05 RMK AO2 PRESRR
14837KMSN MSN20031120224009211/20/03 22:40:31  5-MIN KMSN 210440Z 31006KT 10SM CLR 09/01 A2982 960 58 500 300/06 RMK AO2
14837KMSN MSN20031120224509211/20/03 22:45:31  5-MIN KMSN 210445Z 31008KT 10SM CLR 09/01 A2983 950 58 500 310/08 RMK AO2
14837KMSN MSN20031120225010911/20/03 22:50:31  5-MIN KMSN 210450Z 31007KT 10SM CLR 09/01 A2983 950 58 500 310/07 RMK AO2 SLP102 T00890011
14837KMSN MSN20031120225509211/20/03 22:55:31  5-MIN KMSN 210455Z 32006KT 10SM CLR 09/01 A2983 950 58 500 320/06 RMK AO2
14837KMSN MSN20031120230009211/20/03 23:00:31  5-MIN KMSN 210500Z 32007KT 10SM CLR 09/01 A2983 950 58 500 310/07 RMK AO2
14837KMSN MSN20031120230509211/20/03 23:05:31  5-MIN KMSN 210505Z 33005KT 10SM CLR 09/01 A2983 950 58 500 330/05 RMK AO2
14837KMSN MSN20031120231009211/20/03 23:10:31  5-MIN KMSN 210510Z 32005KT 10SM CLR 09/01 A2983 950 58 500 320/05 RMK AO2
14837KMSN MSN20031120231509211/20/03 23:15:31  5-MIN KMSN 210515Z 32005KT 10SM CLR 08/01 A2983 940 58 400 320/05 RMK AO2
14837KMSN MSN20031120232009211/20/03 23:20:31  5-MIN KMSN 210520Z 32006KT 10SM CLR 08/01 A2984 940 58 400 320/06 RMK AO2
14837KMSN MSN20031120232509211/20/03 23:25:31  5-MIN KMSN 210525Z 33006KT 10SM CLR 08/01 A2984 940 58 400 320/06 RMK AO2
14837KMSN MSN20031120233009211/20/03 23:30:31  5-MIN KMSN 210530Z 32005KT 10SM CLR 08/01 A2984 940 58 400 320/05 RMK AO2
14837KMSN MSN20031120233509211/20/03 23:35:31  5-MIN KMSN 210535Z 32007KT 10SM CLR 08/01 A2984 940 58 400 320/07 RMK AO2
14837KMSN MSN20031120234009211/20/03 23:40:31  5-MIN KMSN 210540Z 31005KT 10SM CLR 08/01 A2985 930 60 300 310/05 RMK AO2
14837KMSN MSN20031120234509211/20/03 23:45:31  5-MIN KMSN 210545Z 30005KT 10SM CLR 08/01 A2985 930 60 300 300/05 RMK AO2
14837KMSN MSN20031120235013711/20/03 23:50:31  5-MIN KMSN 210550Z 32005KT 10SM CLR 08/01 A2985 930 60 300 310/05 RMK AO2 SLP109 T00780006 10128 20078 401830000 53037
14837KMSN MSN20031120235509211/20/03 23:55:31  5-MIN KMSN 210555Z 33005KT 10SM CLR 08/00 A2985 930 58 300 330/05 RMK AO2
14837KMSN MSN20031121000009211/21/03 00:00:31  5-MIN KMSN 210600Z 33006KT 10SM CLR 07/00 A2985 930 60 300 330/06 RMK AO2
14837KMSN MSN20031121000509211/21/03 00:05:31  5-MIN KMSN 210605Z 34006KT 10SM CLR 07/00 A2985 930 60 300 330/06 RMK AO2
14837KMSN MSN20031121001009311/21/03 00:10:31  5-MIN KMSN 210610Z 32006KT 10SM CLR 08/M01 A2986 920 55 300 320/06 RMK AO2
14837KMSN MSN20031121001509311/21/03 00:15:31  5-MIN KMSN 210615Z 33007KT 10SM CLR 08/M01 A2987 910 55 300 330/07 RMK AO2
14837KMSN MSN20031121002009311/21/03 00:20:31  5-MIN KMSN 210620Z 33008KT 10SM CLR 08/M01 A2987 910 55 300 330/08 RMK AO2
14837KMSN MSN20031121002509311/21/03 00:25:31  5-MIN KMSN 210625Z 32008KT 10SM CLR 08/M01 A2987 910 55 300 320/08 RMK AO2
14837KMSN MSN20031121003009311/21/03 00:30:31  5-MIN KMSN 210630Z 32008KT 10SM CLR 07/M01 A2988 900 57 200 320/08 RMK AO2
14837KMSN MSN20031121003509211/21/03 00:35:31  5-MIN KMSN 210635Z 32008KT 10SM CLR 07/00 A2988 900 60 200 320/08 RMK AO2
14837KMSN MSN20031121004009211/21/03 00:40:31  5-MIN KMSN 210640Z 31007KT 10SM CLR 07/00 A2989 890 60 200 310/07 RMK AO2
14837KMSN MSN20031121004509311/21/03 00:45:31  5-MIN KMSN 210645Z 32009KT 10SM CLR 07/M01 A2989 890 57 200 320/09 RMK AO2
14837KMSN MSN20031121005011011/21/03 00:50:31  5-MIN KMSN 210650Z 31008KT 10SM CLR 07/M01 A2989 890 57 200 310/08 RMK AO2 SLP124 T00721006
14837KMSN MSN20031121005509911/21/03 00:55:31  5-MIN KMSN 210655Z 32011G15KT 10SM CLR 07/M01 A2989 890 57 200 320/11G15 RMK AO2
14837KMSN MSN20031121010009911/21/03 01:00:31  5-MIN KMSN 210700Z 32007G15KT 10SM CLR 07/M01 A2990 880 55 200 320/07G15 RMK AO2
14837KMSN MSN20031121010509311/21/03 01:05:31  5-MIN KMSN 210705Z 32008KT 10SM CLR 07/M01 A2990 880 57 100 320/08 RMK AO2
14837KMSN MSN20031121011009311/21/03 01:10:31  5-MIN KMSN 210710Z 33009KT 10SM CLR 07/M02 A2991 880 55 100 330/09 RMK AO2
14837KMSN MSN20031121011509311/21/03 01:15:31  5-MIN KMSN 210715Z 32009KT 10SM CLR 07/M02 A2991 870 53 100 320/09 RMK AO2
14837KMSN MSN20031121012009311/21/03 01:20:31  5-MIN KMSN 210720Z 32008KT 10SM CLR 07/M02 A2992 870 53 100 320/08 RMK AO2
14837KMSN MSN20031121012509311/21/03 01:25:31  5-MIN KMSN 210725Z 33007KT 10SM CLR 07/M02 A2992 860 53 100 330/07 RMK AO2
14837KMSN MSN20031121013009311/21/03 01:30:31  5-MIN KMSN 210730Z 32007KT 10SM CLR 07/M02 A2993 860 53 100 320/07 RMK AO2
14837KMSN MSN20031121013510011/21/03 01:35:31  5-MIN KMSN 210735Z 33005KT 10SM CLR 07/M02 A2993 850 53 100 320/05 RMK AO2 PRESRR
14837KMSN MSN20031121014009311/21/03 01:40:31  5-MIN KMSN 210740Z 33006KT 10SM CLR 07/M02 A2993 850 53 100 330/06 RMK AO2
14837KMSN MSN20031121014509111/21/03 01:45:31  5-MIN KMSN 210745Z 33005KT 10SM CLR 06/M02 A2994 850 55 0 330/05 RMK AO2
14837KMSN MSN20031121015010811/21/03 01:50:31  5-MIN KMSN 210750Z 33005KT 10SM CLR 06/M02 A2994 850 55 0 330/05 RMK AO2 SLP140 T00611022
14837KMSN MSN20031121015509111/21/03 01:55:31  5-MIN KMSN 210755Z 31004KT 10SM CLR 06/M02 A2994 840 55 0 310/04 RMK AO2
14837KMSN MSN20031121020009111/21/03 02:00:31  5-MIN KMSN 210800Z 32005KT 10SM CLR 06/M02 A2995 840 57 0 320/05 RMK AO2
14837KMSN MSN20031121020509111/21/03 02:05:31  5-MIN KMSN 210805Z 32006KT 10SM CLR 06/M02 A2995 840 57 0 320/06 RMK AO2
14837KMSN MSN20031121021009111/21/03 02:10:31  5-MIN KMSN 210810Z 32006KT 10SM CLR 06/M02 A2995 830 57 0 320/06 RMK AO2
14837KMSN MSN20031121021509411/21/03 02:15:31  5-MIN KMSN 210815Z 32005KT 10SM CLR 05/M02 A2995 840 59 -100 320/05 RMK AO2
14837KMSN MSN20031121022009411/21/03 02:20:31  5-MIN KMSN 210820Z 34006KT 10SM CLR 05/M02 A2995 840 59 -100 340/06 RMK AO2
14837KMSN MSN20031121022509411/21/03 02:25:31  5-MIN KMSN 210825Z 34006KT 10SM CLR 05/M02 A2995 840 59 -100 340/06 RMK AO2
14837KMSN MSN20031121023009411/21/03 02:30:31  5-MIN KMSN 210830Z 34006KT 10SM CLR 04/M02 A2996 830 62 -200 340/06 RMK AO2
14837KMSN MSN20031121023509411/21/03 02:35:31  5-MIN KMSN 210835Z 35006KT 10SM CLR 04/M02 A2995 830 62 -200 350/06 RMK AO2
14837KMSN MSN20031121024009411/21/03 02:40:31  5-MIN KMSN 210840Z 32006KT 10SM CLR 04/M02 A2995 830 64 -200 320/06 RMK AO2
14837KMSN MSN20031121024509411/21/03 02:45:31  5-MIN KMSN 210845Z 33007KT 10SM CLR 04/M02 A2996 830 62 -200 330/07 RMK AO2
14837KMSN MSN20031121025011711/21/03 02:50:31  5-MIN KMSN 210850Z VRB04KT 10SM CLR 04/M02 A2996 830 62 -200 VRB/04 RMK AO2 SLP148 T00441022 51031
14837KMSN MSN20031121025509411/21/03 02:55:31  5-MIN KMSN 210855Z 34005KT 10SM CLR 04/M03 A2997 820 59 -200 330/05 RMK AO2
14837KMSN MSN20031121030009411/21/03 03:00:31  5-MIN KMSN 210900Z 35005KT 10SM CLR 04/M03 A2997 820 62 -200 350/05 RMK AO2
14837KMSN MSN20031121030509411/21/03 03:05:31  5-MIN KMSN 210905Z 35006KT 10SM CLR 03/M03 A2997 820 64 -300 350/06 RMK AO2
14837KMSN MSN20031121031009411/21/03 03:10:31  5-MIN KMSN 210910Z 35006KT 10SM CLR 03/M03 A2997 810 61 -300 340/06 RMK AO2
14837KMSN MSN20031121031509411/21/03 03:15:31  5-MIN KMSN 210915Z 35005KT 10SM CLR 03/M03 A2998 810 61 -300 350/05 RMK AO2
14837KMSN MSN20031121032009411/21/03 03:20:31  5-MIN KMSN 210920Z 34006KT 10SM CLR 03/M03 A2998 810 61 -300 340/06 RMK AO2
14837KMSN MSN20031121032509411/21/03 03:25:31  5-MIN KMSN 210925Z 34006KT 10SM CLR 03/M04 A2998 810 61 -400 340/06 RMK AO2
14837KMSN MSN20031121033009411/21/03 03:30:31  5-MIN KMSN 210930Z 33008KT 10SM CLR 03/M04 A2998 810 61 -400 330/08 RMK AO2
14837KMSN MSN20031121033509411/21/03 03:35:31  5-MIN KMSN 210935Z 34009KT 10SM CLR 03/M04 A2998 810 57 -300 340/09 RMK AO2
14837KMSN MSN20031121034009411/21/03 03:40:31  5-MIN KMSN 210940Z 34009KT 10SM CLR 03/M04 A2998 810 57 -300 340/09 RMK AO2
14837KMSN MSN20031121034509411/21/03 03:45:31  5-MIN KMSN 210945Z 34008KT 10SM CLR 03/M05 A2998 810 56 -400 330/08 RMK AO2
14837KMSN MSN20031121035011111/21/03 03:50:31  5-MIN KMSN 210950Z 34006KT 10SM CLR 03/M05 A2999 800 56 -400 330/06 RMK AO2 SLP156 T00281050
14837KMSN MSN20031121035509411/21/03 03:55:31  5-MIN KMSN 210955Z 34006KT 10SM CLR 03/M05 A2999 800 56 -400 340/06 RMK AO2
14837KMSN MSN20031121040009411/21/03 04:00:31  5-MIN KMSN 211000Z 34008KT 10SM CLR 03/M05 A3000 790 56 -400 340/08 RMK AO2
14837KMSN MSN20031121040509411/21/03 04:05:31  5-MIN KMSN 211005Z 34009KT 10SM CLR 03/M05 A3001 790 56 -400 340/09 RMK AO2
14837KMSN MSN20031121041009411/21/03 04:10:31  5-MIN KMSN 211010Z 34009KT 10SM CLR 03/M05 A3001 780 56 -400 340/09 RMK AO2
14837KMSN MSN20031121041509411/21/03 04:15:31  5-MIN KMSN 211015Z 34007KT 10SM CLR 03/M05 A3001 780 56 -400 340/07 RMK AO2
14837KMSN MSN20031121042009411/21/03 04:20:31  5-MIN KMSN 211020Z 34007KT 10SM CLR 02/M05 A3001 780 59 -500 340/07 RMK AO2
14837KMSN MSN20031121042509411/21/03 04:25:31  5-MIN KMSN 211025Z 33009KT 10SM CLR 02/M05 A3001 780 59 -500 330/09 RMK AO2
14837KMSN MSN20031121043009411/21/03 04:30:31  5-MIN KMSN 211030Z 33010KT 10SM CLR 02/M05 A3001 780 59 -500 330/10 RMK AO2
14837KMSN MSN20031121043509411/21/03 04:35:31  5-MIN KMSN 211035Z 34009KT 10SM CLR 02/M05 A3001 780 59 -500 340/09 RMK AO2
14837KMSN MSN20031121044009411/21/03 04:40:31  5-MIN KMSN 211040Z 33008KT 10SM CLR 02/M05 A3001 780 59 -500 330/08 RMK AO2
14837KMSN MSN20031121044509411/21/03 04:45:31  5-MIN KMSN 211045Z 33007KT 10SM CLR 02/M05 A3001 780 61 -600 330/07 RMK AO2
14837KMSN MSN20031121045011111/21/03 04:50:31  5-MIN KMSN 211050Z 34010KT 10SM CLR 02/M05 A3002 770 59 -500 340/10 RMK AO2 SLP170 T00221050
14837KMSN MSN20031121045509411/21/03 04:55:31  5-MIN KMSN 211055Z 33009KT 10SM CLR 02/M05 A3002 780 61 -600 330/09 RMK AO2
14837KMSN MSN20031121050009411/21/03 05:00:31  5-MIN KMSN 211100Z 34008KT 10SM CLR 02/M05 A3002 770 61 -600 340/08 RMK AO2
14837KMSN MSN20031121050509411/21/03 05:05:31  5-MIN KMSN 211105Z 35007KT 10SM CLR 02/M04 A3002 780 64 -600 340/07 RMK AO2
14837KMSN MSN20031121051009411/21/03 05:10:31  5-MIN KMSN 211110Z 34007KT 10SM CLR 02/M04 A3002 780 64 -600 340/07 RMK AO2
14837KMSN MSN20031121051509411/21/03 05:15:31  5-MIN KMSN 211115Z 34008KT 10SM CLR 01/M04 A3002 780 66 -600 340/08 RMK AO2
14837KMSN MSN20031121052009411/21/03 05:20:31  5-MIN KMSN 211120Z 34007KT 10SM CLR 01/M04 A3002 780 66 -600 340/07 RMK AO2
14837KMSN MSN20031121052509411/21/03 05:25:31  5-MIN KMSN 211125Z 34007KT 10SM CLR 01/M04 A3002 770 66 -600 340/07 RMK AO2
14837KMSN MSN20031121053009411/21/03 05:30:31  5-MIN KMSN 211130Z 34007KT 10SM CLR 01/M04 A3002 770 66 -600 340/07 RMK AO2
14837KMSN MSN20031121053509411/21/03 05:35:31  5-MIN KMSN 211135Z 35006KT 10SM CLR 01/M04 A3002 770 66 -600 350/06 RMK AO2
14837KMSN MSN20031121054009411/21/03 05:40:31  5-MIN KMSN 211140Z 35006KT 10SM CLR 01/M04 A3003 770 66 -600 350/06 RMK AO2
14837KMSN MSN20031121054509411/21/03 05:45:31  5-MIN KMSN 211145Z 34007KT 10SM CLR 01/M04 A3002 770 66 -600 340/07 RMK AO2
14837KMSN MSN20031121055012911/21/03 05:50:31  5-MIN KMSN 211150Z 34006KT 10SM CLR 01/M04 A3003 770 66 -600 340/06 RMK AO2 SLP173 T00111044 10078 20011 51039
14837KMSN MSN20031121055509411/21/03 05:55:31  5-MIN KMSN 211155Z 35007KT 10SM CLR 01/M04 A3003 760 66 -700 350/07 RMK AO2
14837KMSN MSN20031121060009411/21/03 06:00:31  5-MIN KMSN 211200Z 34007KT 10SM CLR 01/M04 A3003 760 66 -700 340/07 RMK AO2
14837KMSN MSN20031121060509411/21/03 06:05:31  5-MIN KMSN 211205Z 35006KT 10SM CLR 01/M04 A3003 760 66 -700 350/06 RMK AO2
14837KMSN MSN20031121061009411/21/03 06:10:31  5-MIN KMSN 211210Z 35007KT 10SM CLR 01/M04 A3004 760 66 -700 340/07 RMK AO2
14837KMSN MSN20031121061509411/21/03 06:15:31  5-MIN KMSN 211215Z 35006KT 10SM CLR 01/M04 A3004 750 66 -700 350/06 RMK AO2
14837KMSN MSN20031121062009411/21/03 06:20:31  5-MIN KMSN 211220Z 35006KT 10SM CLR 01/M04 A3005 750 66 -700 350/06 RMK AO2
14837KMSN MSN20031121062509411/21/03 06:25:31  5-MIN KMSN 211225Z 34007KT 10SM CLR 01/M04 A3005 740 66 -700 340/07 RMK AO2
14837KMSN MSN20031121063009411/21/03 06:30:31  5-MIN KMSN 211230Z 34007KT 10SM CLR 01/M04 A3005 740 66 -700 340/07 RMK AO2
14837KMSN MSN20031121063509411/21/03 06:35:31  5-MIN KMSN 211235Z 36009KT 10SM CLR 01/M04 A3005 740 66 -700 360/09 RMK AO2
14837KMSN MSN20031121064009411/21/03 06:40:31  5-MIN KMSN 211240Z 35009KT 10SM CLR 01/M04 A3005 740 69 -800 350/09 RMK AO2
14837KMSN MSN20031121064509411/21/03 06:45:31  5-MIN KMSN 211245Z 34007KT 10SM CLR 01/M04 A3005 740 66 -700 340/07 RMK AO2
14837KMSN MSN20031121065011111/21/03 06:50:31  5-MIN KMSN 211250Z 35009KT 10SM CLR 01/M04 A3005 740 69 -800 350/09 RMK AO2 SLP183 T00061044
14837KMSN MSN20031121065509711/21/03 06:55:31  5-MIN KMSN 211255Z 35009KT 10SM SCT120 01/M04 A3006 740 66 -700 350/09 RMK AO2
14837KMSN MSN20031121070009711/21/03 07:00:31  5-MIN KMSN 211300Z 35009KT 10SM SCT120 01/M04 A3006 740 66 -700 340/09 RMK AO2
14837KMSN MSN20031121070509711/21/03 07:05:31  5-MIN KMSN 211305Z 34007KT 10SM SCT120 01/M04 A3007 730 66 -700 340/07 RMK AO2
14837KMSN MSN20031121071009711/21/03 07:10:31  5-MIN KMSN 211310Z 34008KT 10SM SCT120 01/M04 A3007 730 66 -700 340/08 RMK AO2
14837KMSN MSN20031121071509711/21/03 07:15:31  5-MIN KMSN 211315Z 34007KT 10SM SCT120 01/M04 A3007 720 66 -700 340/07 RMK AO2
14837KMSN MSN20031121072009711/21/03 07:20:31  5-MIN KMSN 211320Z 34007KT 10SM SCT120 01/M04 A3008 720 66 -700 340/07 RMK AO2
14837KMSN MSN20031121072509711/21/03 07:25:31  5-MIN KMSN 211325Z 35009KT 10SM SCT120 01/M04 A3007 720 66 -700 350/09 RMK AO2
14837KMSN MSN20031121073009711/21/03 07:30:31  5-MIN KMSN 211330Z 35007KT 10SM SCT120 01/M04 A3007 720 66 -700 350/07 RMK AO2
14837KMSN MSN20031121073509711/21/03 07:35:31  5-MIN KMSN 211335Z 34005KT 10SM SCT120 01/M04 A3008 720 66 -700 340/05 RMK AO2
14837KMSN MSN20031121074009711/21/03 07:40:31  5-MIN KMSN 211340Z 35007KT 10SM SCT120 01/M04 A3008 720 66 -700 350/07 RMK AO2
14837KMSN MSN20031121074509711/21/03 07:45:31  5-MIN KMSN 211345Z 36009KT 10SM SCT120 01/M04 A3008 720 66 -700 360/09 RMK AO2
14837KMSN MSN20031121075011411/21/03 07:50:31  5-MIN KMSN 211350Z 35008KT 10SM FEW120 01/M04 A3008 710 72 -800 350/08 RMK AO2 SLP194 T00061039
14837KMSN MSN20031121075509711/21/03 07:55:31  5-MIN KMSN 211355Z 35007KT 10SM FEW120 01/M04 A3009 710 66 -700 350/07 RMK AO2
14837KMSN MSN20031121080009711/21/03 08:00:31  5-MIN KMSN 211400Z 35008KT 10SM FEW120 01/M04 A3008 720 69 -800 350/08 RMK AO2
14837KMSN MSN20031121080509711/21/03 08:05:31  5-MIN KMSN 211405Z 36008KT 10SM FEW120 01/M04 A3008 710 69 -800 350/08 RMK AO2
14837KMSN MSN20031121081009711/21/03 08:10:31  5-MIN KMSN 211410Z 36009KT 10SM FEW120 01/M04 A3008 720 69 -800 360/09 RMK AO2
14837KMSN MSN20031121081509711/21/03 08:15:31  5-MIN KMSN 211415Z 01009KT 10SM FEW120 01/M04 A3008 710 69 -700 010/09 RMK AO2
14837KMSN MSN20031121082009711/21/03 08:20:31  5-MIN KMSN 211420Z 36008KT 10SM FEW120 01/M04 A3008 710 69 -700 360/08 RMK AO2
14837KMSN MSN20031121082509711/21/03 08:25:31  5-MIN KMSN 211425Z 36009KT 10SM FEW120 01/M04 A3009 710 69 -700 360/09 RMK AO2
14837KMSN MSN20031121083009711/21/03 08:30:31  5-MIN KMSN 211430Z 35007KT 10SM FEW120 02/M04 A3009 710 64 -700 350/07 RMK AO2
14837KMSN MSN20031121083509711/21/03 08:35:31  5-MIN KMSN 211435Z 36010KT 10SM FEW120 02/M04 A3009 700 64 -700 360/10 RMK AO2
14837KMSN MSN20031121084009711/21/03 08:40:31  5-MIN KMSN 211440Z 35009KT 10SM FEW120 02/M04 A3009 700 64 -700 350/09 RMK AO2
14837KMSN MSN20031121084509711/21/03 08:45:31  5-MIN KMSN 211445Z 36009KT 10SM FEW120 02/M04 A3009 700 61 -600 360/09 RMK AO2
14837KMSN MSN20031121085012011/21/03 08:50:31  5-MIN KMSN 211450Z 01011KT 10SM FEW120 02/M05 A3009 700 59 -600 010/11 RMK AO2 SLP196 T00221050 51021
14837KMSN MSN20031121085509711/21/03 08:55:31  5-MIN KMSN 211455Z 01014KT 10SM SCT120 02/M04 A3009 710 61 -600 010/14 RMK AO2
14837KMSN MSN20031121090009711/21/03 09:00:31  5-MIN KMSN 211500Z 36011KT 10SM SCT120 03/M04 A3009 710 59 -500 360/11 RMK AO2
14837KMSN MSN20031121090509711/21/03 09:05:31  5-MIN KMSN 211505Z 36011KT 10SM SCT120 03/M04 A3010 700 59 -500 360/11 RMK AO2
14837KMSN MSN20031121091010311/21/03 09:10:31  5-MIN KMSN 211510Z 01011G17KT 10SM SCT120 03/M04 A3010 700 59 -500 360/11G17 RMK AO2
14837KMSN MSN20031121091509711/21/03 09:15:31  5-MIN KMSN 211515Z 01009KT 10SM SCT120 02/M04 A3011 690 61 -600 010/09 RMK AO2
14837KMSN MSN20031121092009711/21/03 09:20:31  5-MIN KMSN 211520Z 02010KT 10SM SCT120 03/M04 A3011 690 59 -500 010/10 RMK AO2
14837KMSN MSN20031121092509711/21/03 09:25:31  5-MIN KMSN 211525Z 02011KT 10SM SCT120 03/M04 A3010 700 59 -500 020/11 RMK AO2
14837KMSN MSN20031121093009711/21/03 09:30:31  5-MIN KMSN 211530Z 01012KT 10SM SCT120 03/M04 A3010 700 59 -500 010/12 RMK AO2
14837KMSN MSN20031121093509711/21/03 09:35:31  5-MIN KMSN 211535Z 02011KT 10SM SCT120 03/M05 A3011 690 56 -500 010/11 RMK AO2
14837KMSN MSN20031121094009711/21/03 09:40:31  5-MIN KMSN 211540Z 03009KT 10SM SCT120 03/M05 A3011 690 56 -500 030/09 RMK AO2
14837KMSN MSN20031121094509711/21/03 09:45:31  5-MIN KMSN 211545Z 03011KT 10SM SCT120 03/M06 A3011 690 54 -500 030/11 RMK AO2
14837KMSN MSN20031121095011411/21/03 09:50:31  5-MIN KMSN 211550Z 04009KT 10SM SCT120 03/M06 A3011 690 54 -500 040/09 RMK AO2 SLP201 T00281056
14837KMSN MSN20031121095509711/21/03 09:55:31  5-MIN KMSN 211555Z 02011KT 10SM BKN120 03/M05 A3011 690 54 -500 020/11 RMK AO2
14837KMSN MSN20031121100009711/21/03 10:00:31  5-MIN KMSN 211600Z 03010KT 10SM BKN120 03/M05 A3011 690 54 -500 030/10 RMK AO2
14837KMSN MSN20031121100509711/21/03 10:05:31  5-MIN KMSN 211605Z 03010KT 10SM BKN120 03/M06 A3011 690 52 -500 020/10 RMK AO2
14837KMSN MSN20031121101009711/21/03 10:10:31  5-MIN KMSN 211610Z 03008KT 10SM BKN120 03/M05 A3011 690 54 -500 030/08 RMK AO2
14837KMSN MSN20031121101509711/21/03 10:15:31  5-MIN KMSN 211615Z 03010KT 10SM BKN120 03/M05 A3011 690 54 -500 030/10 RMK AO2
14837KMSN MSN20031121102009711/21/03 10:20:31  5-MIN KMSN 211620Z 04010KT 10SM BKN120 03/M05 A3011 690 54 -500 040/10 RMK AO2
14837KMSN MSN20031121102509711/21/03 10:25:31  5-MIN KMSN 211625Z 05011KT 10SM BKN120 03/M05 A3010 700 54 -500 040/11 RMK AO2
14837KMSN MSN20031121103009711/21/03 10:30:31  5-MIN KMSN 211630Z 04008KT 10SM BKN120 03/M05 A3010 700 54 -500 030/08 RMK AO2
14837KMSN MSN20031121103509711/21/03 10:35:31  5-MIN KMSN 211635Z 03010KT 10SM BKN120 04/M04 A3010 700 54 -400 030/10 RMK AO2
14837KMSN MSN20031121104009711/21/03 10:40:31  5-MIN KMSN 211640Z 03010KT 10SM BKN120 03/M05 A3010 700 54 -500 030/10 RMK AO2
14837KMSN MSN20031121104509711/21/03 10:45:31  5-MIN KMSN 211645Z 03010KT 10SM BKN120 03/M05 A3010 700 54 -500 030/10 RMK AO2
14837KMSN MSN20031121105011411/21/03 10:50:31  5-MIN KMSN 211650Z 02010KT 10SM BKN120 03/M05 A3009 710 54 -400 020/10 RMK AO2 SLP196 T00331050
14837KMSN MSN20031121105509711/21/03 10:55:31  5-MIN KMSN 211655Z 04013KT 10SM BKN120 04/M04 A3009 710 54 -400 040/13 RMK AO2
14837KMSN MSN20031121110009711/21/03 11:00:31  5-MIN KMSN 211700Z 03010KT 10SM BKN120 04/M05 A3009 710 52 -400 030/10 RMK AO2
14837KMSN MSN20031121110509711/21/03 11:05:31  5-MIN KMSN 211705Z 05010KT 10SM BKN120 04/M04 A3008 710 54 -400 050/10 RMK AO2
14837KMSN MSN20031121111009711/21/03 11:10:31  5-MIN KMSN 211710Z 04010KT 10SM BKN120 03/M05 A3008 720 54 -400 040/10 RMK AO2
14837KMSN MSN20031121111509711/21/03 11:15:31  5-MIN KMSN 211715Z 04011KT 10SM BKN120 04/M04 A3008 720 54 -400 040/11 RMK AO2
14837KMSN MSN20031121112009711/21/03 11:20:31  5-MIN KMSN 211720Z 03010KT 10SM BKN120 04/M05 A3009 710 52 -400 030/10 RMK AO2
14837KMSN MSN20031121112509711/21/03 11:25:31  5-MIN KMSN 211725Z 03009KT 10SM BKN120 04/M05 A3009 710 52 -400 030/09 RMK AO2
14837KMSN MSN20031121113009711/21/03 11:30:31  5-MIN KMSN 211730Z 04009KT 10SM BKN120 04/M05 A3009 710 52 -400 040/09 RMK AO2
14837KMSN MSN20031121113509711/21/03 11:35:31  5-MIN KMSN 211735Z 03008KT 10SM BKN120 04/M04 A3008 710 54 -400 030/08 RMK AO2
14837KMSN MSN20031121114009711/21/03 11:40:31  5-MIN KMSN 211740Z 04010KT 10SM BKN120 04/M04 A3008 720 54 -400 040/10 RMK AO2
14837KMSN MSN20031121114509711/21/03 11:45:31  5-MIN KMSN 211745Z 04009KT 10SM BKN120 04/M04 A3008 720 54 -400 040/09 RMK AO2
14837KMSN MSN20031121115013211/21/03 11:50:31  5-MIN KMSN 211750Z 03010KT 10SM BKN120 04/M04 A3009 710 54 -400 030/10 RMK AO2 SLP193 T00391044 10039 20006 51021
14837KMSN MSN20031121115509711/21/03 11:55:31  5-MIN KMSN 211755Z 04010KT 10SM BKN120 04/M04 A3008 720 52 -300 040/10 RMK AO2
14837KMSN MSN20031121120009711/21/03 12:00:31  5-MIN KMSN 211800Z 04010KT 10SM BKN120 04/M04 A3008 720 52 -300 040/10 RMK AO2
14837KMSN MSN20031121120509711/21/03 12:05:31  5-MIN KMSN 211805Z 04009KT 10SM BKN120 04/M04 A3007 720 52 -300 040/09 RMK AO2
14837KMSN MSN20031121121009711/21/03 12:10:31  5-MIN KMSN 211810Z 06011KT 10SM BKN120 04/M04 A3007 730 54 -400 060/11 RMK AO2
14837KMSN MSN20031121121509711/21/03 12:15:31  5-MIN KMSN 211815Z 03011KT 10SM SCT120 04/M04 A3007 720 54 -400 030/11 RMK AO2
14837KMSN MSN20031121122009711/21/03 12:20:31  5-MIN KMSN 211820Z 03010KT 10SM SCT120 04/M04 A3008 720 52 -300 030/10 RMK AO2
14837KMSN MSN20031121122509711/21/03 12:25:31  5-MIN KMSN 211825Z 04010KT 10SM SCT120 04/M04 A3008 720 55 -300 040/10 RMK AO2
14837KMSN MSN20031121123009711/21/03 12:30:31  5-MIN KMSN 211830Z 03010KT 10SM SCT120 04/M04 A3008 720 55 -300 030/10 RMK AO2
14837KMSN MSN20031121123509711/21/03 12:35:31  5-MIN KMSN 211835Z 04009KT 10SM SCT120 04/M04 A3008 720 52 -300 040/09 RMK AO2
14837KMSN MSN20031121124009711/21/03 12:40:31  5-MIN KMSN 211840Z 02010KT 10SM SCT120 04/M04 A3008 720 52 -300 020/10 RMK AO2
14837KMSN MSN20031121124509711/21/03 12:45:31  5-MIN KMSN 211845Z 03010KT 10SM SCT120 04/M04 A3007 720 55 -300 030/10 RMK AO2
14837KMSN MSN20031121125011411/21/03 12:50:31  5-MIN KMSN 211850Z 04009KT 10SM SCT120 05/M04 A3006 730 52 -200 040/09 RMK AO2 SLP186 T00501039
14837KMSN MSN20031121125509711/21/03 12:55:31  5-MIN KMSN 211855Z 05010KT 10SM SCT120 04/M04 A3006 740 52 -300 040/10 RMK AO2
14837KMSN MSN20031121130009711/21/03 13:00:31  5-MIN KMSN 211900Z 04009KT 10SM SCT120 04/M04 A3006 740 55 -300 040/09 RMK AO2
14837KMSN MSN20031121130509711/21/03 13:05:31  5-MIN KMSN 211905Z 06010KT 10SM SCT120 05/M04 A3005 740 50 -200 050/10 RMK AO2
14837KMSN MSN20031121131009711/21/03 13:10:31  5-MIN KMSN 211910Z 04010KT 10SM SCT120 04/M04 A3005 740 52 -300 040/10 RMK AO2
14837KMSN MSN20031121131509711/21/03 13:15:31  5-MIN KMSN 211915Z 04011KT 10SM SCT120 04/M04 A3005 740 52 -300 040/11 RMK AO2
14837KMSN MSN20031121132009711/21/03 13:20:31  5-MIN KMSN 211920Z 05009KT 10SM SCT120 04/M04 A3005 750 52 -300 050/09 RMK AO2
14837KMSN MSN20031121132509711/21/03 13:25:31  5-MIN KMSN 211925Z 03011KT 10SM SCT120 05/M04 A3005 750 52 -200 030/11 RMK AO2
14837KMSN MSN20031121133009711/21/03 13:30:31  5-MIN KMSN 211930Z 03011KT 10SM SCT120 05/M04 A3005 750 50 -200 030/11 RMK AO2
14837KMSN MSN20031121133509711/21/03 13:35:31  5-MIN KMSN 211935Z 06012KT 10SM SCT120 05/M04 A3005 750 50 -200 060/12 RMK AO2
14837KMSN MSN20031121134009711/21/03 13:40:31  5-MIN KMSN 211940Z 05010KT 10SM SCT120 05/M04 A3005 740 52 -200 050/10 RMK AO2
14837KMSN MSN20031121134509711/21/03 13:45:31  5-MIN KMSN 211945Z 04010KT 10SM SCT120 04/M04 A3004 750 52 -300 040/10 RMK AO2
14837KMSN MSN20031121135011411/21/03 13:50:31  5-MIN KMSN 211950Z 04010KT 10SM SCT120 05/M04 A3004 750 52 -200 040/10 RMK AO2 SLP179 T00501039
14837KMSN MSN20031121135509711/21/03 13:55:31  5-MIN KMSN 211955Z 04012KT 10SM SCT120 05/M04 A3004 750 50 -200 040/12 RMK AO2
14837KMSN MSN20031121140009711/21/03 14:00:31  5-MIN KMSN 212000Z 04011KT 10SM SCT120 06/M04 A3004 750 48 -100 040/11 RMK AO2
14837KMSN MSN20031121140509411/21/03 14:05:31  5-MIN KMSN 212005Z 04012KT 10SM SCT120 06/M04 A3004 750 46 0 040/12 RMK AO2
14837KMSN MSN20031121141009711/21/03 14:10:31  5-MIN KMSN 212010Z 04012KT 10SM SCT120 06/M05 A3004 750 45 -100 040/12 RMK AO2
14837KMSN MSN20031121141509711/21/03 14:15:31  5-MIN KMSN 212015Z 04012KT 10SM SCT120 05/M05 A3005 750 48 -200 040/12 RMK AO2
14837KMSN MSN20031121142009711/21/03 14:20:31  5-MIN KMSN 212020Z 04012KT 10SM SCT120 05/M05 A3004 750 48 -200 030/12 RMK AO2
14837KMSN MSN20031121142509711/21/03 14:25:31  5-MIN KMSN 212025Z 04013KT 10SM SCT120 05/M06 A3004 760 46 -200 040/13 RMK AO2
14837KMSN MSN20031121143009711/21/03 14:30:31  5-MIN KMSN 212030Z 03013KT 10SM SCT120 05/M06 A3003 760 46 -200 030/13 RMK AO2
14837KMSN MSN20031121143509711/21/03 14:35:31  5-MIN KMSN 212035Z 03014KT 10SM SCT120 05/M05 A3003 760 48 -200 030/14 RMK AO2
14837KMSN MSN20031121144009711/21/03 14:40:31  5-MIN KMSN 212040Z 03014KT 10SM SCT120 05/M05 A3003 760 48 -200 030/14 RMK AO2
14837KMSN MSN20031121144509711/21/03 14:45:31  5-MIN KMSN 212045Z 03012KT 10SM SCT120 05/M05 A3004 760 48 -200 030/12 RMK AO2
14837KMSN MSN20031121145012011/21/03 14:50:31  5-MIN KMSN 212050Z 04011KT 10SM FEW120 05/M05 A3003 760 48 -200 040/11 RMK AO2 SLP176 T00501050 58003
14837KMSN MSN20031121145509711/21/03 14:55:31  5-MIN KMSN 212055Z 04011KT 10SM FEW120 05/M04 A3003 760 50 -200 040/11 RMK AO2
14837KMSN MSN20031121150009711/21/03 15:00:31  5-MIN KMSN 212100Z 04013KT 10SM FEW120 05/M04 A3003 760 50 -200 040/13 RMK AO2
14837KMSN MSN20031121150509711/21/03 15:05:31  5-MIN KMSN 212105Z 04011KT 10SM FEW120 06/M05 A3003 760 46 -100 040/11 RMK AO2
14837KMSN MSN20031121151009711/21/03 15:10:31  5-MIN KMSN 212110Z 04013KT 10SM FEW120 05/M05 A3003 770 48 -200 030/13 RMK AO2
14837KMSN MSN20031121151509711/21/03 15:15:31  5-MIN KMSN 212115Z 04015KT 10SM FEW120 05/M04 A3002 770 50 -200 030/15 RMK AO2
14837KMSN MSN20031121152009711/21/03 15:20:31  5-MIN KMSN 212120Z 03013KT 10SM FEW120 05/M05 A3002 770 48 -200 030/13 RMK AO2
14837KMSN MSN20031121152509711/21/03 15:25:31  5-MIN KMSN 212125Z 04012KT 10SM FEW120 05/M04 A3002 770 50 -200 040/12 RMK AO2
14837KMSN MSN20031121153009711/21/03 15:30:31  5-MIN KMSN 212130Z 03012KT 10SM FEW120 05/M04 A3003 760 50 -200 030/12 RMK AO2
14837KMSN MSN20031121153509711/21/03 15:35:31  5-MIN KMSN 212135Z 04010KT 10SM FEW120 04/M04 A3003 760 52 -200 030/10 RMK AO2
14837KMSN MSN20031121154009711/21/03 15:40:31  5-MIN KMSN 212140Z 03012KT 10SM FEW120 04/M04 A3003 770 52 -200 030/12 RMK AO2
14837KMSN MSN20031121154509711/21/03 15:45:31  5-MIN KMSN 212145Z 03011KT 10SM FEW120 04/M04 A3003 760 52 -200 030/11 RMK AO2
14837KMSN MSN20031121155011411/21/03 15:50:31  5-MIN KMSN 212150Z 03011KT 10SM SCT120 04/M04 A3003 760 55 -200 030/11 RMK AO2 SLP176 T00441039
14837KMSN MSN20031121155509711/21/03 15:55:31  5-MIN KMSN 212155Z 03012KT 10SM FEW120 04/M04 A3003 760 55 -200 030/12 RMK AO2
14837KMSN MSN20031121160009711/21/03 16:00:31  5-MIN KMSN 212200Z 04010KT 10SM FEW120 04/M04 A3003 770 55 -200 030/10 RMK AO2
14837KMSN MSN20031121160509711/21/03 16:05:31  5-MIN KMSN 212205Z 03010KT 10SM FEW120 04/M04 A3003 770 57 -300 030/10 RMK AO2
14837KMSN MSN20031121161009711/21/03 16:10:31  5-MIN KMSN 212210Z 03011KT 10SM FEW120 04/M04 A3003 770 57 -300 030/11 RMK AO2
14837KMSN MSN20031121161509711/21/03 16:15:31  5-MIN KMSN 212215Z 03009KT 10SM FEW120 03/M04 A3003 760 59 -400 030/09 RMK AO2
14837KMSN MSN20031121162009711/21/03 16:20:31  5-MIN KMSN 212220Z 02010KT 10SM FEW120 03/M04 A3004 760 59 -400 020/10 RMK AO2
14837KMSN MSN20031121162509711/21/03 16:25:31  5-MIN KMSN 212225Z 03010KT 10SM FEW120 03/M04 A3004 760 59 -400 020/10 RMK AO2
14837KMSN MSN20031121163009411/21/03 16:30:31  5-MIN KMSN 212230Z 02010KT 10SM CLR 03/M04 A3004 750 59 -400 020/10 RMK AO2
14837KMSN MSN20031121163509411/21/03 16:35:31  5-MIN KMSN 212235Z 03010KT 10SM CLR 03/M04 A3004 750 59 -400 030/10 RMK AO2
14837KMSN MSN20031121164009411/21/03 16:40:31  5-MIN KMSN 212240Z 02011KT 10SM CLR 03/M04 A3004 760 59 -400 020/11 RMK AO2
14837KMSN MSN20031121164509411/21/03 16:45:31  5-MIN KMSN 212245Z 02012KT 10SM CLR 03/M04 A3003 760 59 -400 020/12 RMK AO2
14837KMSN MSN20031121165011111/21/03 16:50:31  5-MIN KMSN 212250Z 03012KT 10SM CLR 03/M04 A3002 770 59 -400 030/12 RMK AO2 SLP174 T00331039
14837KMSN MSN20031121165509411/21/03 16:55:31  5-MIN KMSN 212255Z 03012KT 10SM CLR 03/M04 A3002 770 59 -400 030/12 RMK AO2
14837KMSN MSN20031121170009411/21/03 17:00:31  5-MIN KMSN 212300Z 03012KT 10SM CLR 03/M04 A3002 780 61 -400 030/12 RMK AO2
14837KMSN MSN20031121170509411/21/03 17:05:31  5-MIN KMSN 212305Z 03012KT 10SM CLR 03/M04 A3002 780 59 -400 030/12 RMK AO2
14837KMSN MSN20031121171009411/21/03 17:10:31  5-MIN KMSN 212310Z 03011KT 10SM CLR 03/M04 A3001 780 59 -400 030/11 RMK AO2
14837KMSN MSN20031121171509411/21/03 17:15:31  5-MIN KMSN 212315Z 03010KT 10SM CLR 03/M04 A3002 770 61 -400 030/10 RMK AO2
14837KMSN MSN20031121172009411/21/03 17:20:31  5-MIN KMSN 212320Z 03010KT 10SM CLR 03/M04 A3002 770 61 -400 030/10 RMK AO2
14837KMSN MSN20031121172509411/21/03 17:25:31  5-MIN KMSN 212325Z 03012KT 10SM CLR 03/M04 A3002 770 61 -400 030/12 RMK AO2
14837KMSN MSN20031121173009411/21/03 17:30:31  5-MIN KMSN 212330Z 04011KT 10SM CLR 03/M04 A3002 770 61 -400 030/11 RMK AO2
14837KMSN MSN20031121173509411/21/03 17:35:31  5-MIN KMSN 212335Z 03012KT 10SM CLR 03/M04 A3002 770 61 -400 030/12 RMK AO2
14837KMSN MSN20031121174010311/21/03 17:40:31  5-MIN KMSN 212340Z 03011G18KT 10SM FEW110 03/M04 A3003 770 61 -400 030/11G18 RMK AO2
14837KMSN MSN20031121174510311/21/03 17:45:31  5-MIN KMSN 212345Z 03012G18KT 10SM FEW110 03/M04 A3003 770 59 -400 030/12G18 RMK AO2
14837KMSN MSN20031121175013211/21/03 17:50:31  5-MIN KMSN 212350Z 03012KT 10SM FEW110 03/M04 A3002 770 59 -400 030/12 RMK AO2 SLP176 T00281044 10061 20028 56018
14837KMSN MSN20031121175510311/21/03 17:55:31  5-MIN KMSN 212355Z 03013G19KT 10SM FEW110 02/M04 A3003 770 61 -500 030/13G19 RMK AO2
14837KMSN MSN20031121180010311/21/03 18:00:31  5-MIN KMSN 220000Z 03012G19KT 10SM FEW110 02/M04 A3003 760 61 -500 030/12G19 RMK AO2
14837KMSN MSN20031121180509711/21/03 18:05:31  5-MIN KMSN 220005Z 03010KT 10SM SCT110 02/M05 A3003 760 59 -500 030/10 RMK AO2
14837KMSN MSN20031121181009711/21/03 18:10:31  5-MIN KMSN 220010Z 03012KT 10SM SCT110 02/M04 A3003 770 61 -500 030/12 RMK AO2
14837KMSN MSN20031121181509711/21/03 18:15:31  5-MIN KMSN 220015Z 03014KT 10SM FEW110 02/M04 A3003 770 61 -500 030/14 RMK AO2
14837KMSN MSN20031121182009711/21/03 18:20:31  5-MIN KMSN 220020Z 04012KT 10SM FEW110 02/M04 A3003 770 61 -500 040/12 RMK AO2
14837KMSN MSN20031121182509711/21/03 18:25:31  5-MIN KMSN 220025Z 04012KT 10SM FEW110 02/M04 A3002 770 61 -500 040/12 RMK AO2
14837KMSN MSN20031121183009711/21/03 18:30:31  5-MIN KMSN 220030Z 03011KT 10SM FEW110 02/M04 A3003 770 61 -500 030/11 RMK AO2
14837KMSN MSN20031121183509411/21/03 18:35:31  5-MIN KMSN 220035Z 04011KT 10SM CLR 02/M04 A3003 770 61 -500 040/11 RMK AO2
14837KMSN MSN20031121184009411/21/03 18:40:31  5-MIN KMSN 220040Z 04012KT 10SM CLR 02/M04 A3003 770 61 -500 040/12 RMK AO2
14837KMSN MSN20031121184509411/21/03 18:45:31  5-MIN KMSN 220045Z 04012KT 10SM CLR 02/M04 A3002 770 61 -500 040/12 RMK AO2
14837KMSN MSN20031121185011111/21/03 18:50:31  5-MIN KMSN 220050Z 04011KT 10SM CLR 02/M04 A3002 770 61 -500 040/11 RMK AO2 SLP175 T00221044
14837KMSN MSN20031121185509411/21/03 18:55:31  5-MIN KMSN 220055Z 04012KT 10SM CLR 02/M04 A3002 770 64 -600 040/12 RMK AO2
14837KMSN MSN20031121190009411/21/03 19:00:31  5-MIN KMSN 220100Z 04011KT 10SM CLR 02/M04 A3003 770 64 -600 040/11 RMK AO2
14837KMSN MSN20031121190509411/21/03 19:05:31  5-MIN KMSN 220105Z 04009KT 10SM CLR 02/M04 A3003 760 64 -600 040/09 RMK AO2
14837KMSN MSN20031121191009711/21/03 19:10:31  5-MIN KMSN 220110Z 04009KT 10SM FEW110 02/M04 A3004 760 64 -600 040/09 RMK AO2
14837KMSN MSN20031121191510411/21/03 19:15:31  5-MIN KMSN 220115Z 04009KT 10SM SCT110 02/M04 A3004 750 64 -600 040/09 RMK AO2 PRESRR
14837KMSN MSN20031121192009711/21/03 19:20:31  5-MIN KMSN 220120Z 04009KT 10SM BKN110 02/M04 A3004 760 66 -600 040/09 RMK AO2
14837KMSN MSN20031121192509711/21/03 19:25:31  5-MIN KMSN 220125Z 04010KT 10SM BKN110 02/M04 A3003 760 66 -600 040/10 RMK AO2
14837KMSN MSN20031121193009711/21/03 19:30:31  5-MIN KMSN 220130Z 04009KT 10SM BKN110 02/M04 A3003 760 66 -600 040/09 RMK AO2
14837KMSN MSN20031121193509711/21/03 19:35:31  5-MIN KMSN 220135Z 04010KT 10SM OVC110 02/M04 A3003 760 66 -600 040/10 RMK AO2
14837KMSN MSN20031121194009711/21/03 19:40:31  5-MIN KMSN 220140Z 04009KT 10SM OVC110 02/M04 A3003 760 64 -600 030/09 RMK AO2
14837KMSN MSN20031121194509711/21/03 19:45:31  5-MIN KMSN 220145Z 04009KT 10SM OVC110 02/M04 A3003 760 61 -500 030/09 RMK AO2
14837KMSN MSN20031121195011411/21/03 19:50:31  5-MIN KMSN 220150Z 04011KT 10SM OVC110 02/M04 A3003 770 61 -500 040/11 RMK AO2 SLP177 T00221044
14837KMSN MSN20031121195509711/21/03 19:55:31  5-MIN KMSN 220155Z 04012KT 10SM OVC110 02/M05 A3003 770 59 -500 040/12 RMK AO2
14837KMSN MSN20031121200009711/21/03 20:00:31  5-MIN KMSN 220200Z 04011KT 10SM OVC110 02/M05 A3003 770 59 -500 040/11 RMK AO2
14837KMSN MSN20031121200509711/21/03 20:05:31  5-MIN KMSN 220205Z 04009KT 10SM OVC110 02/M05 A3003 770 59 -500 040/09 RMK AO2
14837KMSN MSN20031121201009711/21/03 20:10:31  5-MIN KMSN 220210Z 04010KT 10SM OVC110 02/M06 A3003 770 56 -500 040/10 RMK AO2
14837KMSN MSN20031121201509711/21/03 20:15:31  5-MIN KMSN 220215Z 04009KT 10SM OVC110 02/M06 A3003 760 56 -500 040/09 RMK AO2
14837KMSN MSN20031121202009711/21/03 20:20:31  5-MIN KMSN 220220Z 04010KT 10SM OVC110 02/M06 A3003 760 54 -500 040/10 RMK AO2
14837KMSN MSN20031121202510411/21/03 20:25:31  5-MIN KMSN 220225Z 03010KT 10SM FEW060 OVC110 02/M06 A3003 760 54 -500 030/10 RMK AO2
14837KMSN MSN20031121203010411/21/03 20:30:31  5-MIN KMSN 220230Z 03010KT 10SM SCT060 OVC110 02/M07 A3004 760 50 -500 030/10 RMK AO2
14837KMSN MSN20031121203510411/21/03 20:35:31  5-MIN KMSN 220235Z 03010KT 10SM BKN060 OVC110 02/M07 A3004 760 50 -500 030/10 RMK AO2
14837KMSN MSN20031121204010411/21/03 20:40:31  5-MIN KMSN 220240Z 03010KT 10SM BKN060 OVC110 02/M07 A3003 760 50 -500 030/10 RMK AO2
14837KMSN MSN20031121204510411/21/03 20:45:31  5-MIN KMSN 220245Z 04009KT 10SM SCT060 OVC110 02/M07 A3003 760 50 -500 040/09 RMK AO2
14837KMSN MSN20031121205012711/21/03 20:50:31  5-MIN KMSN 220250Z 05010KT 10SM SCT060 OVC110 02/M07 A3003 760 50 -500 050/10 RMK AO2 SLP177 T00221072 55001
14837KMSN MSN20031121205510411/21/03 20:55:31  5-MIN KMSN 220255Z 05010KT 10SM SCT060 OVC120 02/M07 A3002 770 50 -500 050/10 RMK AO2
14837KMSN MSN20031121210010411/21/03 21:00:31  5-MIN KMSN 220300Z 04010KT 10SM FEW060 OVC110 02/M08 A3002 770 47 -500 040/10 RMK AO2
14837KMSN MSN20031121210510411/21/03 21:05:31  5-MIN KMSN 220305Z 04009KT 10SM FEW060 OVC110 02/M07 A3003 770 50 -500 040/09 RMK AO2
14837KMSN MSN20031121211010411/21/03 21:10:31  5-MIN KMSN 220310Z 04010KT 10SM SCT055 OVC110 02/M07 A3003 770 50 -500 040/10 RMK AO2
14837KMSN MSN20031121211510411/21/03 21:15:31  5-MIN KMSN 220315Z 04011KT 10SM BKN055 OVC120 02/M08 A3002 770 47 -500 040/11 RMK AO2
14837KMSN MSN20031121212010411/21/03 21:20:31  5-MIN KMSN 220320Z 04009KT 10SM BKN050 OVC120 02/M08 A3002 770 47 -500 040/09 RMK AO2
14837KMSN MSN20031121212510411/21/03 21:25:31  5-MIN KMSN 220325Z 04008KT 10SM BKN050 OVC110 02/M08 A3003 770 47 -500 040/08 RMK AO2
14837KMSN MSN20031121213009711/21/03 21:30:31  5-MIN KMSN 220330Z 04009KT 10SM OVC050 02/M08 A3003 770 47 -500 040/09 RMK AO2
14837KMSN MSN20031121213509711/21/03 21:35:31  5-MIN KMSN 220335Z 04008KT 10SM OVC050 02/M07 A3002 770 50 -500 040/08 RMK AO2
14837KMSN MSN20031121214009711/21/03 21:40:31  5-MIN KMSN 220340Z 04009KT 10SM OVC050 02/M07 A3003 770 50 -500 040/09 RMK AO2
14837KMSN MSN20031121214509711/21/03 21:45:31  5-MIN KMSN 220345Z 03009KT 10SM OVC050 02/M07 A3002 770 50 -500 030/09 RMK AO2
14837KMSN MSN20031121215011411/21/03 21:50:31  5-MIN KMSN 220350Z 04010KT 10SM OVC048 02/M07 A3002 770 50 -500 040/10 RMK AO2 SLP173 T00221072
14837KMSN MSN20031121215509711/21/03 21:55:31  5-MIN KMSN 220355Z 03009KT 10SM OVC046 02/M07 A3002 770 50 -500 030/09 RMK AO2
14837KMSN MSN20031121220009711/21/03 22:00:31  5-MIN KMSN 220400Z 04011KT 10SM OVC046 02/M07 A3002 770 50 -500 040/11 RMK AO2
14837KMSN MSN20031121220509711/21/03 22:05:31  5-MIN KMSN 220405Z 05011KT 10SM OVC046 02/M07 A3002 780 50 -500 050/11 RMK AO2
14837KMSN MSN20031121221009711/21/03 22:10:31  5-MIN KMSN 220410Z 03009KT 10SM OVC046 02/M07 A3002 780 52 -500 030/09 RMK AO2
14837KMSN MSN20031121221509711/21/03 22:15:31  5-MIN KMSN 220415Z 03008KT 10SM OVC046 02/M07 A3002 770 52 -500 030/08 RMK AO2
14837KMSN MSN20031121222009711/21/03 22:20:31  5-MIN KMSN 220420Z 03009KT 10SM OVC046 02/M06 A3002 770 54 -500 030/09 RMK AO2
14837KMSN MSN20031121222509711/21/03 22:25:31  5-MIN KMSN 220425Z 03012KT 10SM OVC046 02/M06 A3002 770 54 -500 030/12 RMK AO2
14837KMSN MSN20031121223009711/21/03 22:30:31  5-MIN KMSN 220430Z 03010KT 10SM OVC044 02/M06 A3002 770 54 -500 030/10 RMK AO2
14837KMSN MSN20031121223509711/21/03 22:35:31  5-MIN KMSN 220435Z 03010KT 10SM OVC044 02/M06 A3002 770 54 -500 030/10 RMK AO2
14837KMSN MSN20031121224009711/21/03 22:40:31  5-MIN KMSN 220440Z 03009KT 10SM OVC044 02/M06 A3002 770 56 -500 030/09 RMK AO2
14837KMSN MSN20031121224509711/21/03 22:45:31  5-MIN KMSN 220445Z 03012KT 10SM OVC044 02/M06 A3002 780 56 -500 030/12 RMK AO2
14837KMSN MSN20031121225011411/21/03 22:50:31  5-MIN KMSN 220450Z 03010KT 10SM OVC042 02/M05 A3002 780 59 -500 030/10 RMK AO2 SLP172 T00221050
14837KMSN MSN20031121225509711/21/03 22:55:31  5-MIN KMSN 220455Z 03009KT 10SM OVC042 02/M05 A3001 780 59 -500 020/09 RMK AO2
14837KMSN MSN20031121230009711/21/03 23:00:31  5-MIN KMSN 220500Z 03010KT 10SM OVC042 02/M04 A3001 780 61 -500 020/10 RMK AO2
14837KMSN MSN20031121230509711/21/03 23:05:31  5-MIN KMSN 220505Z 03010KT 10SM OVC042 02/M04 A3001 790 61 -500 030/10 RMK AO2
14837KMSN MSN20031121231009711/21/03 23:10:31  5-MIN KMSN 220510Z 03013KT 10SM OVC042 02/M04 A3000 790 64 -500 030/13 RMK AO2
14837KMSN MSN20031121231509711/21/03 23:15:31  5-MIN KMSN 220515Z 03012KT 10SM OVC042 02/M04 A2999 800 64 -500 030/12 RMK AO2
14837KMSN MSN20031121232009711/21/03 23:20:31  5-MIN KMSN 220520Z 03013KT 10SM OVC042 02/M04 A2999 800 64 -500 030/13 RMK AO2
14837KMSN MSN20031121232509711/21/03 23:25:31  5-MIN KMSN 220525Z 03013KT 10SM OVC042 02/M03 A2999 800 67 -500 030/13 RMK AO2
14837KMSN MSN20031121233009711/21/03 23:30:31  5-MIN KMSN 220530Z 03010KT 10SM OVC042 02/M03 A2999 800 67 -500 030/10 RMK AO2
14837KMSN MSN20031121233509711/21/03 23:35:31  5-MIN KMSN 220535Z 03012KT 10SM OVC042 02/M03 A2999 800 69 -500 030/12 RMK AO2
14837KMSN MSN20031121234010411/21/03 23:40:31  5-MIN KMSN 220540Z 03014KT 10SM BKN044 OVC060 02/M03 A2999 800 69 -500 030/14 RMK AO2
14837KMSN MSN20031121234510411/21/03 23:45:31  5-MIN KMSN 220545Z 03015KT 10SM BKN044 OVC060 02/M03 A2998 810 69 -500 030/15 RMK AO2
14837KMSN MSN20031121235014911/21/03 23:50:31  5-MIN KMSN 220550Z 03014KT 10SM BKN044 OVC060 02/M03 A2998 810 69 -500 030/14 RMK AO2 SLP160 T00221028 10022 20017 400780006 53000
14837KMSN MSN20031121235510411/21/03 23:55:31  5-MIN KMSN 220555Z 02012KT 10SM BKN044 OVC060 02/M03 A2998 810 69 -500 020/12 RMK AO2
14837KMSN MSN20031122000010411/22/03 00:00:31  5-MIN KMSN 220600Z 02010KT 10SM SCT044 OVC060 02/M03 A2998 810 69 -500 020/10 RMK AO2
14837KMSN MSN20031122000511011/22/03 00:05:31  5-MIN KMSN 220605Z 03014G18KT 10SM SCT044 OVC060 02/M02 A2998 810 72 -500 030/14G18 RMK AO2
14837KMSN MSN20031122001011111/22/03 00:10:31  5-MIN KMSN 220610Z 04013KT 10SM SCT044 BKN060 OVC075 02/M02 A2997 820 72 -400 040/13 RMK AO2
14837KMSN MSN20031122001511111/22/03 00:15:31  5-MIN KMSN 220615Z 04014KT 10SM FEW044 BKN060 OVC070 02/M02 A2996 820 72 -400 040/14 RMK AO2
14837KMSN MSN20031122002011111/22/03 00:20:31  5-MIN KMSN 220620Z 04014KT 10SM FEW044 BKN055 OVC070 02/M02 A2996 830 72 -400 040/14 RMK AO2
14837KMSN MSN20031122002511111/22/03 00:25:31  5-MIN KMSN 220625Z 04013KT 10SM FEW044 BKN055 OVC075 02/M02 A2995 830 72 -400 040/13 RMK AO2
14837KMSN MSN20031122003010411/22/03 00:30:31  5-MIN KMSN 220630Z 04014KT 10SM BKN050 OVC075 02/M02 A2995 840 72 -400 040/14 RMK AO2
14837KMSN MSN20031122003510411/22/03 00:35:31  5-MIN KMSN 220635Z 04013KT 10SM BKN050 OVC075 02/M02 A2996 830 72 -400 030/13 RMK AO2
14837KMSN MSN20031122004011011/22/03 00:40:31  5-MIN KMSN 220640Z 03011G18KT 10SM BKN050 OVC075 02/M02 A2995 830 72 -400 030/11G18 RMK AO2
14837KMSN MSN20031122004509711/22/03 00:45:31  5-MIN KMSN 220645Z 03013KT 10SM OVC047 02/M02 A2995 840 72 -400 030/13 RMK AO2
14837KMSN MSN20031122005012711/22/03 00:50:31  5-MIN KMSN 220650Z 04016G21KT 10SM BKN045 OVC050 02/M02 A2995 840 72 -400 040/16G21 RMK AO2 SLP148 T00221022
14837KMSN MSN20031122005510311/22/03 00:55:31  5-MIN KMSN 220655Z 05014G21KT 10SM OVC045 02/M02 A2994 840 72 -400 050/14G21 RMK AO2
14837KMSN MSN20031122010009711/22/03 01:00:31  5-MIN KMSN 220700Z 04012KT 10SM OVC045 02/M02 A2995 840 75 -400 040/12 RMK AO2
14837KMSN MSN20031122010510411/22/03 01:05:31  5-MIN KMSN 220705Z 04013KT 10SM FEW028 OVC043 02/M02 A2995 840 75 -400 040/13 RMK AO2
14837KMSN MSN20031122011010411/22/03 01:10:31  5-MIN KMSN 220710Z 04011KT 10SM SCT028 OVC043 02/M02 A2995 840 75 -400 040/11 RMK AO2
14837KMSN MSN20031122011510411/22/03 01:15:31  5-MIN KMSN 220715Z 03013KT 10SM BKN028 OVC043 02/M02 A2994 840 75 -400 030/13 RMK AO2
14837KMSN MSN20031122012010411/22/03 01:20:31  5-MIN KMSN 220720Z 04012KT 10SM BKN028 OVC043 02/M02 A2994 850 75 -400 030/12 RMK AO2
14837KMSN MSN20031122012509711/22/03 01:25:31  5-MIN KMSN 220725Z 04013KT 10SM OVC028 02/M02 A2994 850 75 -400 040/13 RMK AO2
14837KMSN MSN20031122013009711/22/03 01:30:31  5-MIN KMSN 220730Z 04012KT 10SM OVC028 02/M02 A2994 850 75 -400 040/12 RMK AO2
14837KMSN MSN20031122013509711/22/03 01:35:31  5-MIN KMSN 220735Z 04014KT 10SM OVC028 02/M02 A2994 850 75 -400 040/14 RMK AO2
14837KMSN MSN20031122014009711/22/03 01:40:31  5-MIN KMSN 220740Z 04013KT 10SM OVC028 02/M02 A2994 850 75 -400 040/13 RMK AO2
14837KMSN MSN20031122014509711/22/03 01:45:31  5-MIN KMSN 220745Z 04010KT 10SM OVC028 02/M01 A2994 850 78 -400 040/10 RMK AO2
14837KMSN MSN20031122015011411/22/03 01:50:31  5-MIN KMSN 220750Z 04012KT 10SM OVC028 02/M01 A2994 840 78 -400 040/12 RMK AO2 SLP146 T00221011
14837KMSN MSN20031122015509711/22/03 01:55:31  5-MIN KMSN 220755Z 04015KT 10SM OVC028 03/M01 A2994 850 75 -300 040/15 RMK AO2
14837KMSN MSN20031122020009711/22/03 02:00:31  5-MIN KMSN 220800Z 04012KT 10SM OVC028 03/M01 A2994 850 75 -300 040/12 RMK AO2
14837KMSN MSN20031122020511311/22/03 02:05:31  5-MIN KMSN 220805Z 03012KT 10SM -SN OVC028 03/M01 A2994 840 75 -300 030/12 RMK AO2 SNB03 P0000
14837KMSN MSN20031122021011211/22/03 02:10:31  5-MIN KMSN 220810Z 03010KT 9SM -SN OVC028 03/M01 A2995 840 75 -400 030/10 RMK AO2 SNB03 P0000
14837KMSN MSN20031122021511211/22/03 02:15:31  5-MIN KMSN 220815Z 03012KT 9SM -SN OVC028 03/M01 A2995 840 75 -400 030/12 RMK AO2 SNB03 P0000
14837KMSN MSN20031122022011211/22/03 02:20:31  5-MIN KMSN 220820Z 03011KT 9SM -SN OVC028 03/M01 A2995 840 75 -400 030/11 RMK AO2 SNB03 P0000
14837KMSN MSN20031122022511211/22/03 02:25:31  5-MIN KMSN 220825Z 03009KT 9SM -SN OVC028 03/M01 A2995 840 75 -400 030/09 RMK AO2 SNB03 P0000
14837KMSN MSN20031122023011211/22/03 02:30:31  5-MIN KMSN 220830Z 03012KT 9SM -SN OVC028 03/M01 A2995 840 75 -400 030/12 RMK AO2 SNB03 P0000
14837KMSN MSN20031122023511211/22/03 02:35:31  5-MIN KMSN 220835Z 03012KT 9SM -SN OVC028 03/M01 A2995 840 75 -400 030/12 RMK AO2 SNB03 P0000
14837KMSN MSN20031122024011211/22/03 02:40:31  5-MIN KMSN 220840Z 03012KT 9SM -SN OVC028 03/M01 A2994 840 79 -300 030/12 RMK AO2 SNB03 P0000
14837KMSN MSN20031122024511211/22/03 02:45:31  5-MIN KMSN 220845Z 03011KT 9SM -SN OVC028 02/M01 A2994 840 82 -400 030/11 RMK AO2 SNB03 P0000
14837KMSN MSN20031122025014111/22/03 02:50:31  5-MIN KMSN 220850Z 03009KT 9SM -SN OVC028 02/M01 A2994 850 82 -400 030/09 RMK AO2 SNB03 SLP146 P0000 60000 T00221006 58014
14837KMSN MSN20031122025510611/22/03 02:55:31  5-MIN KMSN 220855Z 03011KT 9SM -SN OVC028 02/M01 A2994 850 82 -400 030/11 RMK AO2 P0000
14837KMSN MSN20031122030010611/22/03 03:00:31  5-MIN KMSN 220900Z 03011KT 8SM -SN OVC028 02/M01 A2993 850 82 -400 030/11 RMK AO2 P0000
14837KMSN MSN20031122030510511/22/03 03:05:31  5-MIN KMSN 220905Z 03010KT 8SM -SN OVC028 02/00 A2993 850 85 -400 030/10 RMK AO2 P0000
14837KMSN MSN20031122031010511/22/03 03:10:31  5-MIN KMSN 220910Z 03009KT 9SM -SN OVC028 02/00 A2994 850 85 -400 030/09 RMK AO2 P0000
14837KMSN MSN20031122031510511/22/03 03:15:31  5-MIN KMSN 220915Z 03009KT 9SM -SN OVC028 02/00 A2994 850 85 -400 030/09 RMK AO2 P0000
14837KMSN MSN20031122032010511/22/03 03:20:31  5-MIN KMSN 220920Z 03010KT 9SM -SN OVC028 02/00 A2993 850 85 -400 030/10 RMK AO2 P0000
14837KMSN MSN20031122032510511/22/03 03:25:31  5-MIN KMSN 220925Z 03011KT 9SM -SN OVC026 02/00 A2993 860 85 -400 030/11 RMK AO2 P0000
14837KMSN MSN20031122033010511/22/03 03:30:31  5-MIN KMSN 220930Z 04010KT 9SM -SN OVC026 02/00 A2993 860 85 -400 040/10 RMK AO2 P0000
14837KMSN MSN20031122033510511/22/03 03:35:31  5-MIN KMSN 220935Z 04008KT 9SM -SN OVC026 02/01 A2993 860 89 -400 040/08 RMK AO2 P0000
14837KMSN MSN20031122034010511/22/03 03:40:31  5-MIN KMSN 220940Z 04009KT 9SM -SN OVC024 02/01 A2993 860 89 -400 040/09 RMK AO2 P0000
14837KMSN MSN20031122034510511/22/03 03:45:31  5-MIN KMSN 220945Z 03009KT 9SM -SN OVC024 02/01 A2993 850 89 -400 030/09 RMK AO2 P0000
14837KMSN MSN20031122035012211/22/03 03:50:31  5-MIN KMSN 220950Z 04009KT 9SM -SN OVC024 03/01 A2993 850 85 -300 040/09 RMK AO2 SLP144 P0000 T00280006
14837KMSN MSN20031122035509511/22/03 03:55:31  5-MIN KMSN 220955Z 04009KT 9SM OVC022 03/01 A2993 850 85 -300 040/09 RMK AO2
14837KMSN MSN20031122040009611/22/03 04:00:31  5-MIN KMSN 221000Z 05012KT 10SM OVC022 03/01 A2994 850 85 -300 040/12 RMK AO2
14837KMSN MSN20031122040509611/22/03 04:05:31  5-MIN KMSN 221005Z 04011KT 10SM OVC022 03/00 A2994 850 82 -300 040/11 RMK AO2
14837KMSN MSN20031122041009611/22/03 04:10:31  5-MIN KMSN 221010Z 04010KT 10SM OVC022 03/00 A2994 850 82 -300 040/10 RMK AO2
14837KMSN MSN20031122041509611/22/03 04:15:31  5-MIN KMSN 221015Z 04012KT 10SM OVC022 03/00 A2994 850 82 -300 040/12 RMK AO2
14837KMSN MSN20031122042009611/22/03 04:20:31  5-MIN KMSN 221020Z 04013KT 10SM OVC022 03/00 A2995 840 82 -300 040/13 RMK AO2
14837KMSN MSN20031122042509611/22/03 04:25:31  5-MIN KMSN 221025Z 04013KT 10SM OVC020 03/00 A2994 840 82 -300 040/13 RMK AO2
14837KMSN MSN20031122043011211/22/03 04:30:31  5-MIN KMSN 221030Z 04011KT 10SM -SN OVC020 03/00 A2994 840 82 -300 040/11 RMK AO2 SNB28 P0000
14837KMSN MSN20031122043511111/22/03 04:35:31  5-MIN KMSN 221035Z 04012KT 9SM -SN OVC020 03/00 A2994 840 82 -300 040/12 RMK AO2 SNB28 P0000
14837KMSN MSN20031122044011111/22/03 04:40:31  5-MIN KMSN 221040Z 04011KT 9SM -SN OVC020 03/01 A2994 840 85 -300 040/11 RMK AO2 SNB28 P0000
14837KMSN MSN20031122044511111/22/03 04:45:31  5-MIN KMSN 221045Z 05010KT 9SM -SN OVC020 03/01 A2994 850 85 -300 040/10 RMK AO2 SNB28 P0000
14837KMSN MSN20031122045012811/22/03 04:50:31  5-MIN KMSN 221050Z 05012KT 9SM -SN OVC018 03/01 A2994 850 85 -300 040/12 RMK AO2 SNB28 SLP146 P0000 T00280006
14837KMSN MSN20031122045510511/22/03 04:55:31  5-MIN KMSN 221055Z 05013KT 9SM -SN OVC018 03/01 A2994 850 85 -300 040/13 RMK AO2 P0000
14837KMSN MSN20031122050010511/22/03 05:00:31  5-MIN KMSN 221100Z 05014KT 9SM -SN OVC018 03/01 A2994 850 85 -300 040/14 RMK AO2 P0000
14837KMSN MSN20031122050510511/22/03 05:05:31  5-MIN KMSN 221105Z 05014KT 9SM -SN OVC018 03/00 A2993 850 82 -300 050/14 RMK AO2 P0000
14837KMSN MSN20031122051010711/22/03 05:10:31  5-MIN KMSN 221110Z 05011KT 9SM OVC018 03/01 A2994 850 85 -300 040/11 RMK AO2 SNE07 P0000
14837KMSN MSN20031122051510811/22/03 05:15:31  5-MIN KMSN 221115Z 03011KT 10SM OVC018 03/01 A2994 840 85 -300 030/11 RMK AO2 SNE07 P0000
14837KMSN MSN20031122052010811/22/03 05:20:31  5-MIN KMSN 221120Z 04011KT 10SM OVC018 03/01 A2994 840 85 -300 040/11 RMK AO2 SNE07 P0000
14837KMSN MSN20031122052510811/22/03 05:25:31  5-MIN KMSN 221125Z 04011KT 10SM OVC018 03/01 A2994 850 85 -300 040/11 RMK AO2 SNE07 P0000
14837KMSN MSN20031122053010811/22/03 05:30:31  5-MIN KMSN 221130Z 04013KT 10SM OVC018 03/01 A2994 850 85 -300 040/13 RMK AO2 SNE07 P0000
14837KMSN MSN20031122053510811/22/03 05:35:31  5-MIN KMSN 221135Z 04011KT 10SM OVC018 03/01 A2994 850 85 -300 040/11 RMK AO2 SNE07 P0000
14837KMSN MSN20031122054010811/22/03 05:40:31  5-MIN KMSN 221140Z 04012KT 10SM OVC018 03/01 A2994 840 85 -300 040/12 RMK AO2 SNE07 P0000
14837KMSN MSN20031122054510811/22/03 05:45:31  5-MIN KMSN 221145Z 05012KT 10SM OVC018 03/01 A2995 840 85 -400 050/12 RMK AO2 SNE07 P0000
14837KMSN MSN20031122055014911/22/03 05:50:31  5-MIN KMSN 221150Z 04008KT 10SM OVC016 03/01 A2995 840 85 -400 040/08 RMK AO2 SNE07 SLP148 P0000 60000 T00280006 10028 20022 56015
14837KMSN MSN20031122055509611/22/03 05:55:31  5-MIN KMSN 221155Z 04009KT 10SM OVC016 03/01 A2994 840 85 -300 030/09 RMK AO2
14837KMSN MSN20031122060009611/22/03 06:00:31  5-MIN KMSN 221200Z 05011KT 10SM OVC016 03/01 A2993 850 85 -300 050/11 RMK AO2
14837KMSN MSN20031122060509611/22/03 06:05:31  5-MIN KMSN 221205Z 05011KT 10SM OVC016 03/01 A2993 860 85 -300 050/11 RMK AO2
14837KMSN MSN20031122061010311/22/03 06:10:31  5-MIN KMSN 221210Z 05014KT 10SM OVC016 03/00 A2992 860 79 -300 050/14 RMK AO2 PRESFR
14837KMSN MSN20031122061509611/22/03 06:15:31  5-MIN KMSN 221215Z 06013KT 10SM OVC016 03/00 A2992 860 79 -300 050/13 RMK AO2
14837KMSN MSN20031122062009611/22/03 06:20:31  5-MIN KMSN 221220Z 06014KT 10SM OVC016 03/00 A2992 860 79 -300 060/14 RMK AO2
14837KMSN MSN20031122062509611/22/03 06:25:31  5-MIN KMSN 221225Z 06013KT 10SM OVC016 03/00 A2992 870 82 -300 050/13 RMK AO2
14837KMSN MSN20031122063009611/22/03 06:30:31  5-MIN KMSN 221230Z 05013KT 10SM OVC016 03/00 A2992 870 82 -300 050/13 RMK AO2
14837KMSN MSN20031122063510211/22/03 06:35:31  5-MIN KMSN 221235Z 05013G20KT 10SM OVC016 03/00 A2992 870 82 -300 050/13G20 RMK AO2
14837KMSN MSN20031122064009711/22/03 06:40:31  5-MIN KMSN 221240Z 05012KT 10SM OVC016 03/M01 A2992 870 79 -300 050/12 RMK AO2
14837KMSN MSN20031122064509711/22/03 06:45:31  5-MIN KMSN 221245Z 05013KT 10SM OVC018 03/M01 A2992 860 79 -300 050/13 RMK AO2
14837KMSN MSN20031122065011411/22/03 06:50:31  5-MIN KMSN 221250Z 06012KT 10SM OVC018 03/M01 A2992 860 79 -300 050/12 RMK AO2 SLP141 T00281006
14837KMSN MSN20031122065509711/22/03 06:55:31  5-MIN KMSN 221255Z 05013KT 10SM OVC018 03/M01 A2993 860 79 -300 050/13 RMK AO2
14837KMSN MSN20031122070009711/22/03 07:00:31  5-MIN KMSN 221300Z 05012KT 10SM OVC018 03/M01 A2993 850 79 -300 050/12 RMK AO2
14837KMSN MSN20031122070509711/22/03 07:05:31  5-MIN KMSN 221305Z 04012KT 10SM OVC018 03/M01 A2993 850 79 -300 040/12 RMK AO2
14837KMSN MSN20031122071010311/22/03 07:10:31  5-MIN KMSN 221310Z 05010G18KT 10SM OVC018 03/M01 A2993 850 79 -300 040/10G18 RMK AO2
14837KMSN MSN20031122071509711/22/03 07:15:31  5-MIN KMSN 221315Z 05013KT 10SM OVC018 03/M01 A2994 850 79 -300 050/13 RMK AO2
14837KMSN MSN20031122072009711/22/03 07:20:31  5-MIN KMSN 221320Z 05012KT 10SM OVC018 03/M01 A2994 850 79 -300 050/12 RMK AO2
14837KMSN MSN20031122072509711/22/03 07:25:31  5-MIN KMSN 221325Z 05012KT 10SM OVC018 03/M01 A2993 850 79 -300 050/12 RMK AO2
14837KMSN MSN20031122073009711/22/03 07:30:31  5-MIN KMSN 221330Z 05012KT 10SM OVC018 03/M01 A2994 850 79 -300 050/12 RMK AO2
14837KMSN MSN20031122073509711/22/03 07:35:31  5-MIN KMSN 221335Z 05012KT 10SM OVC018 03/M01 A2994 850 75 -300 050/12 RMK AO2
14837KMSN MSN20031122074009711/22/03 07:40:31  5-MIN KMSN 221340Z 05011KT 10SM OVC018 03/M01 A2994 850 75 -300 050/11 RMK AO2
14837KMSN MSN20031122074509711/22/03 07:45:31  5-MIN KMSN 221345Z 05012KT 10SM OVC018 03/M01 A2994 850 75 -300 050/12 RMK AO2
14837KMSN MSN20031122075011411/22/03 07:50:31  5-MIN KMSN 221350Z 05010KT 10SM OVC018 03/M01 A2994 850 75 -300 050/10 RMK AO2 SLP145 T00281011
14837KMSN MSN20031122075509711/22/03 07:55:31  5-MIN KMSN 221355Z 05012KT 10SM OVC018 03/M01 A2994 850 75 -300 050/12 RMK AO2
14837KMSN MSN20031122080009711/22/03 08:00:31  5-MIN KMSN 221400Z 05012KT 10SM OVC018 03/M01 A2993 850 75 -300 050/12 RMK AO2
14837KMSN MSN20031122080509711/22/03 08:05:31  5-MIN KMSN 221405Z 05013KT 10SM OVC018 03/M01 A2993 850 75 -300 050/13 RMK AO2
14837KMSN MSN20031122081009711/22/03 08:10:31  5-MIN KMSN 221410Z 05013KT 10SM OVC018 03/M01 A2993 850 75 -300 050/13 RMK AO2
14837KMSN MSN20031122081509711/22/03 08:15:31  5-MIN KMSN 221415Z 04013KT 10SM OVC018 03/M01 A2993 850 75 -300 040/13 RMK AO2
14837KMSN MSN20031122082009711/22/03 08:20:31  5-MIN KMSN 221420Z 04013KT 10SM OVC018 03/M01 A2993 860 75 -300 040/13 RMK AO2
14837KMSN MSN20031122082509711/22/03 08:25:31  5-MIN KMSN 221425Z 04012KT 10SM OVC018 03/M01 A2993 860 75 -300 040/12 RMK AO2
14837KMSN MSN20031122083009711/22/03 08:30:31  5-MIN KMSN 221430Z 05012KT 10SM OVC018 03/M01 A2993 850 75 -300 050/12 RMK AO2
14837KMSN MSN20031122083509711/22/03 08:35:31  5-MIN KMSN 221435Z 05011KT 10SM OVC020 03/M01 A2993 860 75 -300 050/11 RMK AO2
14837KMSN MSN20031122084009711/22/03 08:40:31  5-MIN KMSN 221440Z 05014KT 10SM OVC020 03/M01 A2993 850 75 -300 050/14 RMK AO2
14837KMSN MSN20031122084509711/22/03 08:45:31  5-MIN KMSN 221445Z 05012KT 10SM OVC020 03/M01 A2992 860 75 -300 050/12 RMK AO2
14837KMSN MSN20031122085012011/22/03 08:50:31  5-MIN KMSN 221450Z 05013KT 10SM OVC020 03/M01 A2993 860 72 -300 050/13 RMK AO2 SLP141 T00331011 53003
14837KMSN MSN20031122085509711/22/03 08:55:31  5-MIN KMSN 221455Z 05012KT 10SM OVC020 03/M01 A2993 860 72 -300 050/12 RMK AO2
14837KMSN MSN20031122090009711/22/03 09:00:31  5-MIN KMSN 221500Z 05012KT 10SM OVC020 03/M01 A2993 860 72 -300 050/12 RMK AO2
14837KMSN MSN20031122090509711/22/03 09:05:31  5-MIN KMSN 221505Z 04012KT 10SM OVC020 03/M01 A2992 860 72 -300 040/12 RMK AO2
14837KMSN MSN20031122091009711/22/03 09:10:31  5-MIN KMSN 221510Z 05010KT 10SM OVC020 03/M01 A2993 860 72 -300 040/10 RMK AO2
14837KMSN MSN20031122091509711/22/03 09:15:31  5-MIN KMSN 221515Z 05012KT 10SM OVC020 03/M01 A2993 850 72 -300 040/12 RMK AO2
14837KMSN MSN20031122092009711/22/03 09:20:31  5-MIN KMSN 221520Z 05012KT 10SM OVC020 03/M01 A2993 850 72 -300 050/12 RMK AO2
14837KMSN MSN20031122092509711/22/03 09:25:31  5-MIN KMSN 221525Z 05013KT 10SM OVC020 03/M01 A2993 860 72 -300 050/13 RMK AO2
14837KMSN MSN20031122093009711/22/03 09:30:31  5-MIN KMSN 221530Z 05012KT 10SM OVC020 03/M01 A2993 860 72 -300 050/12 RMK AO2
14837KMSN MSN20031122093509711/22/03 09:35:31  5-MIN KMSN 221535Z 05013KT 10SM OVC020 03/M01 A2993 850 72 -300 050/13 RMK AO2
14837KMSN MSN20031122094009711/22/03 09:40:31  5-MIN KMSN 221540Z 05012KT 10SM OVC020 03/M01 A2993 860 72 -300 050/12 RMK AO2
14837KMSN MSN20031122094509711/22/03 09:45:31  5-MIN KMSN 221545Z 05014KT 10SM OVC020 03/M01 A2992 860 72 -300 050/14 RMK AO2
14837KMSN MSN20031122095011411/22/03 09:50:31  5-MIN KMSN 221550Z 05010KT 10SM OVC020 03/M01 A2992 860 72 -300 050/10 RMK AO2 SLP140 T00331011
14837KMSN MSN20031122095509711/22/03 09:55:31  5-MIN KMSN 221555Z 05012KT 10SM OVC020 03/M01 A2992 860 76 -300 050/12 RMK AO2
14837KMSN MSN20031122100009711/22/03 10:00:31  5-MIN KMSN 221600Z 05014KT 10SM OVC020 03/M01 A2992 860 76 -300 050/14 RMK AO2
14837KMSN MSN20031122100509711/22/03 10:05:31  5-MIN KMSN 221605Z 05012KT 10SM OVC020 03/M01 A2992 860 76 -300 050/12 RMK AO2
14837KMSN MSN20031122101009711/22/03 10:10:31  5-MIN KMSN 221610Z 05011KT 10SM OVC020 03/M01 A2992 860 76 -300 050/11 RMK AO2
14837KMSN MSN20031122101509711/22/03 10:15:31  5-MIN KMSN 221615Z 06012KT 10SM OVC020 03/M01 A2992 860 76 -300 060/12 RMK AO2
14837KMSN MSN20031122102009711/22/03 10:20:31  5-MIN KMSN 221620Z 05011KT 10SM OVC020 03/M01 A2992 870 76 -200 050/11 RMK AO2
14837KMSN MSN20031122102509711/22/03 10:25:31  5-MIN KMSN 221625Z 05013KT 10SM OVC020 04/M01 A2991 870 73 -200 040/13 RMK AO2
14837KMSN MSN20031122103009711/22/03 10:30:31  5-MIN KMSN 221630Z 05011KT 10SM OVC020 04/M01 A2991 870 73 -200 050/11 RMK AO2
14837KMSN MSN20031122103509711/22/03 10:35:31  5-MIN KMSN 221635Z 05011KT 10SM OVC020 04/M01 A2991 880 73 -200 050/11 RMK AO2
14837KMSN MSN20031122104009711/22/03 10:40:31  5-MIN KMSN 221640Z 04012KT 10SM OVC020 04/M01 A2990 880 73 -200 040/12 RMK AO2
14837KMSN MSN20031122104509711/22/03 10:45:31  5-MIN KMSN 221645Z 04011KT 10SM OVC020 04/M01 A2990 880 73 -200 040/11 RMK AO2
14837KMSN MSN20031122105011411/22/03 10:50:31  5-MIN KMSN 221650Z 06012KT 10SM OVC018 04/M01 A2990 880 73 -200 050/12 RMK AO2 SLP132 T00391006
14837KMSN MSN20031122105509611/22/03 10:55:31  5-MIN KMSN 221655Z 05011KT 10SM OVC018 04/00 A2989 890 76 -200 040/11 RMK AO2
14837KMSN MSN20031122110009711/22/03 11:00:31  5-MIN KMSN 221700Z 04012KT 10SM OVC018 04/M01 A2989 890 73 -200 040/12 RMK AO2
14837KMSN MSN20031122110509711/22/03 11:05:31  5-MIN KMSN 221705Z 05011KT 10SM OVC018 04/M01 A2989 890 73 -100 050/11 RMK AO2
14837KMSN MSN20031122111009611/22/03 11:10:31  5-MIN KMSN 221710Z 05011KT 10SM OVC018 04/00 A2989 900 76 -100 050/11 RMK AO2
14837KMSN MSN20031122111509611/22/03 11:15:31  5-MIN KMSN 221715Z 05013KT 10SM OVC018 04/00 A2989 900 76 -100 050/13 RMK AO2
14837KMSN MSN20031122112009611/22/03 11:20:31  5-MIN KMSN 221720Z 05014KT 10SM OVC018 04/00 A2988 900 76 -100 050/14 RMK AO2
14837KMSN MSN20031122112509611/22/03 11:25:31  5-MIN KMSN 221725Z 05013KT 10SM OVC018 04/00 A2988 900 76 -100 050/13 RMK AO2
14837KMSN MSN20031122113009611/22/03 11:30:31  5-MIN KMSN 221730Z 04012KT 10SM OVC018 04/00 A2988 910 76 -100 040/12 RMK AO2
14837KMSN MSN20031122113509611/22/03 11:35:31  5-MIN KMSN 221735Z 04012KT 10SM OVC018 04/00 A2988 900 76 -100 040/12 RMK AO2
14837KMSN MSN20031122114009611/22/03 11:40:31  5-MIN KMSN 221740Z 04015KT 10SM OVC016 04/00 A2988 900 76 -100 040/15 RMK AO2
14837KMSN MSN20031122114509611/22/03 11:45:31  5-MIN KMSN 221745Z 05014KT 10SM OVC016 04/00 A2987 910 76 -100 050/14 RMK AO2
14837KMSN MSN20031122115013111/22/03 11:50:31  5-MIN KMSN 221750Z 05012KT 10SM OVC016 04/00 A2986 920 76 -100 050/12 RMK AO2 SLP120 T00390000 10039 20028 56007
14837KMSN MSN20031122115509611/22/03 11:55:31  5-MIN KMSN 221755Z 06012KT 10SM OVC016 04/01 A2986 920 79 -100 050/12 RMK AO2
14837KMSN MSN20031122120009611/22/03 12:00:31  5-MIN KMSN 221800Z 05012KT 10SM OVC016 04/01 A2986 920 79 -100 050/12 RMK AO2
14837KMSN MSN20031122120509611/22/03 12:05:31  5-MIN KMSN 221805Z 05014KT 10SM OVC016 04/01 A2986 920 79 -100 050/14 RMK AO2
14837KMSN MSN20031122121009611/22/03 12:10:31  5-MIN KMSN 221810Z 05014KT 10SM OVC014 04/01 A2986 920 79 -100 050/14 RMK AO2
14837KMSN MSN20031122121509611/22/03 12:15:31  5-MIN KMSN 221815Z 05016KT 10SM OVC014 04/01 A2986 920 79 -100 050/16 RMK AO2
14837KMSN MSN20031122122009611/22/03 12:20:31  5-MIN KMSN 221820Z 04014KT 10SM OVC014 04/01 A2986 920 82 -100 040/14 RMK AO2
14837KMSN MSN20031122122509611/22/03 12:25:31  5-MIN KMSN 221825Z 04012KT 10SM OVC014 04/01 A2986 920 82 -100 040/12 RMK AO2
14837KMSN MSN20031122123009611/22/03 12:30:31  5-MIN KMSN 221830Z 05013KT 10SM OVC014 04/01 A2986 920 82 -100 050/13 RMK AO2
14837KMSN MSN20031122123509611/22/03 12:35:31  5-MIN KMSN 221835Z 05013KT 10SM OVC014 04/01 A2986 920 82 -100 050/13 RMK AO2
14837KMSN MSN20031122124009611/22/03 12:40:31  5-MIN KMSN 221840Z 05011KT 10SM OVC014 04/01 A2986 920 82 -100 050/11 RMK AO2
14837KMSN MSN20031122124509611/22/03 12:45:31  5-MIN KMSN 221845Z 05012KT 10SM OVC012 04/01 A2986 920 82 -100 040/12 RMK AO2
14837KMSN MSN20031122125011311/22/03 12:50:31  5-MIN KMSN 221850Z 05014KT 10SM OVC012 04/01 A2985 930 82 -100 050/14 RMK AO2 SLP116 T00390011
14837KMSN MSN20031122125509611/22/03 12:55:31  5-MIN KMSN 221855Z 05014KT 10SM OVC012 03/01 A2985 930 85 -200 050/14 RMK AO2
14837KMSN MSN20031122130009611/22/03 13:00:31  5-MIN KMSN 221900Z 05012KT 10SM OVC012 03/01 A2985 930 85 -200 050/12 RMK AO2
14837KMSN MSN20031122130509511/22/03 13:05:31  5-MIN KMSN 221905Z 05013KT 9SM OVC012 03/01 A2985 930 85 -200 050/13 RMK AO2
14837KMSN MSN20031122131009511/22/03 13:10:31  5-MIN KMSN 221910Z 05014KT 8SM OVC012 03/01 A2985 930 85 -200 050/14 RMK AO2
14837KMSN MSN20031122131509511/22/03 13:15:31  5-MIN KMSN 221915Z 04012KT 7SM OVC012 03/02 A2985 930 89 -200 040/12 RMK AO2
14837KMSN MSN20031122132009511/22/03 13:20:31  5-MIN KMSN 221920Z 05011KT 7SM OVC010 03/02 A2985 930 89 -200 050/11 RMK AO2
14837KMSN MSN20031122132511011/22/03 13:25:31  5-MIN KMSN 221925Z 05013KT 6SM BR OVC010 03/02 A2985 930 89 -200 050/13 RMK AO2 CIG 008V012
14837KMSN MSN20031122133011011/22/03 13:30:31  5-MIN KMSN 221930Z 04011KT 6SM BR OVC010 03/02 A2985 930 89 -200 040/11 RMK AO2 CIG 007V012
14837KMSN MSN20031122133511011/22/03 13:35:31  5-MIN KMSN 221935Z 04012KT 5SM BR OVC010 03/02 A2985 930 89 -200 040/12 RMK AO2 CIG 007V012
14837KMSN MSN20031122134009811/22/03 13:40:31  5-MIN KMSN 221940Z 03010KT 5SM BR OVC010 03/02 A2985 930 89 -200 030/10 RMK AO2
14837KMSN MSN20031122134511411/22/03 13:45:31  5-MIN KMSN 221945Z 04013KT 4SM -DZ BR OVC008 03/02 A2985 930 89 -200 040/13 RMK AO2 DZB45 P0000
14837KMSN MSN20031122135013111/22/03 13:50:31  5-MIN KMSN 221950Z 05012KT 3SM -DZ BR OVC008 03/02 A2985 930 89 -200 050/12 RMK AO2 DZB45 SLP114 P0000 T00330017
14837KMSN MSN20031122135511811/22/03 13:55:31  5-MIN KMSN 221955Z 04009KT 3SM -DZ BR OVC008 03/02 A2985 930 89 -200 040/09 RMK AO2 SFC VIS 3 P0000
14837KMSN MSN20031122140013011/22/03 14:00:31  5-MIN KMSN 222000Z 04011KT 3SM -DZ BR OVC008 03/02 A2985 930 92 -200 030/11 RMK AO2 SFC VIS 3 CIG 006V011 P0000
14837KMSN MSN20031122140512011/22/03 14:05:31  5-MIN KMSN 222005Z 04010KT 3SM -DZ BR OVC008 03/02 A2985 930 92 -200 040/10 RMK AO2 CIG 006V011 P0000
14837KMSN MSN20031122141013411/22/03 14:10:31  5-MIN KMSN 222010Z 04011KT 2 1/2SM -DZ BR OVC008 03/02 A2985 930 92 -200 040/11 RMK AO2 TWR VIS 3 CIG 006V011 P0000
14837KMSN MSN20031122141513411/22/03 14:15:31  5-MIN KMSN 222015Z 04011KT 2 1/2SM -DZ BR OVC008 03/02 A2985 930 92 -200 040/11 RMK AO2 TWR VIS 3 CIG 006V011 P0000
14837KMSN MSN20031122142013011/22/03 14:20:31  5-MIN KMSN 222020Z 03011KT 2SM -DZ BR OVC008 03/02 A2985 930 92 -200 030/11 RMK AO2 TWR VIS 3 CIG 006V011 P0000
14837KMSN MSN20031122142513811/22/03 14:25:31  5-MIN KMSN 222025Z 04010KT 1 1/2SM -DZ BR OVC008 03/02 A2985 930 92 -200 040/10 RMK AO2 SFC VIS 1 3/4 CIG 005V010 P0000
14837KMSN MSN20031122143012411/22/03 14:30:31  5-MIN KMSN 222030Z 04013KT 1 1/2SM -DZ BR OVC008 03/02 A2984 940 92 -200 040/13 RMK AO2 CIG 005V010 P0000
14837KMSN MSN20031122143513811/22/03 14:35:31  5-MIN KMSN 222035Z 05009KT 1 1/4SM -DZ BR OVC008 03/02 A2983 950 92 -200 040/09 RMK AO2 TWR VIS 1 1/2 CIG 005V010 P0000
14837KMSN MSN20031122144013811/22/03 14:40:31  5-MIN KMSN 222040Z 04011KT 1 1/4SM -DZ BR OVC008 03/02 A2984 940 92 -200 040/11 RMK AO2 TWR VIS 1 1/2 CIG 005V010 P0000
14837KMSN MSN20031122144512411/22/03 14:45:31  5-MIN KMSN 222045Z 05010KT 1 1/2SM -DZ BR OVC006 03/02 A2984 940 92 -200 050/10 RMK AO2 CIG 005V010 P0000
14837KMSN MSN20031122145015311/22/03 14:50:31  5-MIN KMSN 222050Z 05010KT 1 1/2SM -DZ BR OVC006 03/02 A2984 940 92 -200 050/10 RMK AO2 CIG 004V010 SLP111 P0000 60000 T00330022 58022
14837KMSN MSN20031122145512411/22/03 14:55:31  5-MIN KMSN 222055Z 04011KT 1 1/2SM -DZ BR OVC006 03/03 A2984 940 96 -200 040/11 RMK AO2 CIG 004V010 P0000
14837KMSN MSN20031122150012411/22/03 15:00:31  5-MIN KMSN 222100Z 05011KT 1 1/2SM -DZ BR OVC006 03/03 A2984 940 96 -200 050/11 RMK AO2 CIG 004V010 P0000
14837KMSN MSN20031122150512411/22/03 15:05:31  5-MIN KMSN 222105Z 05011KT 1 1/2SM -DZ BR OVC006 03/03 A2984 940 96 -200 050/11 RMK AO2 CIG 004V009 P0000
14837KMSN MSN20031122151012411/22/03 15:10:31  5-MIN KMSN 222110Z 06010KT 1 1/2SM -DZ BR OVC006 03/03 A2983 940 96 -200 060/10 RMK AO2 CIG 004V008 P0000
14837KMSN MSN20031122151512411/22/03 15:15:31  5-MIN KMSN 222115Z 05009KT 1 1/2SM -DZ BR OVC006 03/03 A2983 950 96 -200 050/09 RMK AO2 CIG 004V008 P0000
14837KMSN MSN20031122152011211/22/03 15:20:31  5-MIN KMSN 222120Z 05010KT 1 1/2SM -DZ BR OVC006 03/03 A2983 950 96 -100 050/10 RMK AO2 P0000
14837KMSN MSN20031122152511211/22/03 15:25:31  5-MIN KMSN 222125Z 04010KT 1 1/2SM -DZ BR OVC006 03/03 A2982 960 96 -100 040/10 RMK AO2 P0000
14837KMSN MSN20031122153011211/22/03 15:30:31  5-MIN KMSN 222130Z 05012KT 1 1/2SM -DZ BR OVC006 03/03 A2982 950 96 -100 050/12 RMK AO2 P0000
14837KMSN MSN20031122153511211/22/03 15:35:31  5-MIN KMSN 222135Z 05010KT 1 1/2SM -DZ BR OVC006 03/03 A2983 950 96 -100 040/10 RMK AO2 P0000
14837KMSN MSN20031122154012611/22/03 15:40:31  5-MIN KMSN 222140Z 05010KT 1 1/2SM -DZ BR OVC006 03/03 A2982 950 96 -100 040/10 RMK AO2 SFC VIS 1 3/4 P0000
14837KMSN MSN20031122154512611/22/03 15:45:31  5-MIN KMSN 222145Z 04012KT 1 1/2SM -DZ BR OVC006 03/03 A2982 960 96 -100 040/12 RMK AO2 SFC VIS 1 3/4 P0000
14837KMSN MSN20031122155012911/22/03 15:50:31  5-MIN KMSN 222150Z 04010KT 1 1/2SM -DZ BR OVC006 03/03 A2982 960 96 -100 030/10 RMK AO2 SLP105 P0000 T00330028
14837KMSN MSN20031122155511211/22/03 15:55:31  5-MIN KMSN 222155Z 05009KT 1 1/2SM -DZ BR OVC006 03/03 A2983 950 96 -100 050/09 RMK AO2 P0000
14837KMSN MSN20031122160012611/22/03 16:00:31  5-MIN KMSN 222200Z 05011KT 1 1/2SM -DZ BR OVC006 03/03 A2982 950 96 -100 050/11 RMK AO2 SFC VIS 1 3/4 P0000
14837KMSN MSN20031122160512611/22/03 16:05:31  5-MIN KMSN 222205Z 05009KT 1 1/2SM -DZ BR OVC006 03/03 A2982 960 96 -100 050/09 RMK AO2 SFC VIS 1 3/4 P0000
14837KMSN MSN20031122161011211/22/03 16:10:31  5-MIN KMSN 222210Z 06008KT 1 1/2SM -DZ BR OVC006 03/03 A2982 950 96 -100 050/08 RMK AO2 P0000
14837KMSN MSN20031122161512611/22/03 16:15:31  5-MIN KMSN 222215Z 05009KT 1 1/2SM -DZ BR OVC006 03/03 A2983 950 96 -100 050/09 RMK AO2 SFC VIS 1 3/4 P0000
14837KMSN MSN20031122162012611/22/03 16:20:31  5-MIN KMSN 222220Z 05009KT 1 1/2SM -DZ BR OVC006 03/03 A2983 950 96 -100 050/09 RMK AO2 SFC VIS 1 3/4 P0000
14837KMSN MSN20031122162512611/22/03 16:25:31  5-MIN KMSN 222225Z 05007KT 1 1/2SM -DZ BR OVC006 03/03 A2983 950 96 -100 050/07 RMK AO2 SFC VIS 1 3/4 P0000
14837KMSN MSN20031122163011211/22/03 16:30:31  5-MIN KMSN 222230Z 05008KT 1 1/2SM -DZ BR OVC004 03/03 A2983 950 96 -100 050/08 RMK AO2 P0000
14837KMSN MSN20031122163511211/22/03 16:35:31  5-MIN KMSN 222235Z 04009KT 1 1/2SM -DZ BR OVC004 03/03 A2983 950 96 -100 040/09 RMK AO2 P0000
14837KMSN MSN20031122164011211/22/03 16:40:31  5-MIN KMSN 222240Z 04010KT 1 1/2SM -DZ BR OVC004 03/03 A2983 950 96 -100 040/10 RMK AO2 P0000
14837KMSN MSN20031122164511211/22/03 16:45:31  5-MIN KMSN 222245Z 04008KT 1 1/2SM -DZ BR OVC004 03/03 A2983 940 96 -200 040/08 RMK AO2 P0000
14837KMSN MSN20031122165012911/22/03 16:50:31  5-MIN KMSN 222250Z 04009KT 1 1/2SM -DZ BR OVC004 03/03 A2983 950 96 -200 040/09 RMK AO2 SLP109 P0000 T00330028
14837KMSN MSN20031122165511211/22/03 16:55:31  5-MIN KMSN 222255Z 04010KT 1 1/2SM -DZ BR OVC004 03/03 A2983 950 96 -100 040/10 RMK AO2 P0000
14837KMSN MSN20031122170011211/22/03 17:00:31  5-MIN KMSN 222300Z 04009KT 1 1/2SM -DZ BR OVC004 03/03 A2983 950 96 -100 040/09 RMK AO2 P0000
14837KMSN MSN20031122170511211/22/03 17:05:31  5-MIN KMSN 222305Z 04010KT 1 1/2SM -DZ BR OVC004 03/03 A2983 950 96 -100 040/10 RMK AO2 P0000
14837KMSN MSN20031122171011211/22/03 17:10:31  5-MIN KMSN 222310Z 04008KT 1 1/2SM -DZ BR OVC004 03/03 A2984 940 96 -200 040/08 RMK AO2 P0000
14837KMSN MSN20031122171511211/22/03 17:15:31  5-MIN KMSN 222315Z 05008KT 1 1/2SM -DZ BR OVC004 03/03 A2983 940 96 -200 050/08 RMK AO2 P0000
14837KMSN MSN20031122172011211/22/03 17:20:31  5-MIN KMSN 222320Z 06009KT 1 1/2SM -DZ BR OVC004 03/03 A2983 950 96 -100 060/09 RMK AO2 P0000
14837KMSN MSN20031122172511211/22/03 17:25:31  5-MIN KMSN 222325Z 06006KT 1 1/2SM -DZ BR OVC004 03/03 A2983 950 96 -100 060/06 RMK AO2 P0000
14837KMSN MSN20031122173011211/22/03 17:30:31  5-MIN KMSN 222330Z 06008KT 1 1/2SM -DZ BR OVC004 03/03 A2983 950 96 -100 050/08 RMK AO2 P0000
14837KMSN MSN20031122173511211/22/03 17:35:31  5-MIN KMSN 222335Z 05008KT 1 1/2SM -DZ BR OVC004 03/03 A2983 950 96 -100 050/08 RMK AO2 P0000
14837KMSN MSN20031122174012611/22/03 17:40:31  5-MIN KMSN 222340Z 05009KT 1 1/2SM -DZ BR OVC004 03/03 A2982 950 96 -100 050/09 RMK AO2 SFC VIS 1 3/4 P0000
14837KMSN MSN20031122174512611/22/03 17:45:31  5-MIN KMSN 222345Z 04009KT 1 1/2SM -DZ BR OVC004 03/03 A2982 950 96 -100 040/09 RMK AO2 SFC VIS 1 3/4 P0000
14837KMSN MSN20031122175016711/22/03 17:50:31  5-MIN KMSN 222350Z 05010KT 1 1/2SM -DZ BR OVC004 03/03 A2982 960 96 -100 050/10 RMK AO2 SFC VIS 1 3/4 SLP106 P0000 60000 T00330028 10039 20033 58008
14837KMSN MSN20031122175512611/22/03 17:55:31  5-MIN KMSN 222355Z 05008KT 1 1/2SM -DZ BR OVC004 03/03 A2982 960 96 -100 050/08 RMK AO2 SFC VIS 1 3/4 P0000
14837KMSN MSN20031122180012611/22/03 18:00:31  5-MIN KMSN 230000Z 04008KT 1 1/2SM -DZ BR OVC004 03/03 A2982 950 96 -100 040/08 RMK AO2 SFC VIS 1 3/4 P0000
14837KMSN MSN20031122180512611/22/03 18:05:31  5-MIN KMSN 230005Z 04009KT 1 1/2SM -DZ BR OVC004 03/03 A2982 950 96 -100 040/09 RMK AO2 SFC VIS 1 3/4 P0000
14837KMSN MSN20031122181012611/22/03 18:10:31  5-MIN KMSN 230010Z 04008KT 1 1/2SM -DZ BR OVC004 03/03 A2982 960 96 -100 040/08 RMK AO2 SFC VIS 1 3/4 P0000
14837KMSN MSN20031122181512211/22/03 18:15:31  5-MIN KMSN 230015Z 04009KT 1 1/2SM -DZ BR OVC004 03/03 A2982 950 96 -100 040/09 RMK AO2 SFC VIS 2 P0000
14837KMSN MSN20031122182012211/22/03 18:20:31  5-MIN KMSN 230020Z 04008KT 1 1/2SM -DZ BR OVC004 03/03 A2982 960 96 -100 040/08 RMK AO2 SFC VIS 2 P0000
14837KMSN MSN20031122182512211/22/03 18:25:31  5-MIN KMSN 230025Z 04009KT 1 1/2SM -DZ BR OVC004 03/03 A2982 960 96 -100 040/09 RMK AO2 SFC VIS 2 P0000
14837KMSN MSN20031122183012211/22/03 18:30:31  5-MIN KMSN 230030Z 04008KT 1 1/2SM -DZ BR OVC004 03/03 A2982 960 96 -100 040/08 RMK AO2 SFC VIS 2 P0000
14837KMSN MSN20031122183512411/22/03 18:35:31  5-MIN KMSN 230035Z 05007KT 1 1/2SM BR OVC004 03/03 A2982 960 96 -100 050/07 RMK AO2 SFC VIS 2 DZE33 P0000
14837KMSN MSN20031122184012411/22/03 18:40:31  5-MIN KMSN 230040Z 05008KT 1 1/2SM BR OVC004 03/03 A2982 960 96 -100 050/08 RMK AO2 SFC VIS 2 DZE33 P0000
14837KMSN MSN20031122184512411/22/03 18:45:31  5-MIN KMSN 230045Z 05008KT 1 1/2SM BR OVC004 03/03 A2981 970 96 -100 050/08 RMK AO2 SFC VIS 2 DZE33 P0000
14837KMSN MSN20031122185014511/22/03 18:50:31  5-MIN KMSN 230050Z 04008KT 1 1/2SM BR OVC004 03/03 A2981 970 96 -100 040/08 RMK AO2 SFC VIS 1 3/4 DZE33 SLP101 P0000 T00330028
14837KMSN MSN20031122185511611/22/03 18:55:31  5-MIN KMSN 230055Z 05006KT 1 1/2SM BR OVC004 03/03 A2981 960 96 -100 050/06 RMK AO2 SFC VIS 1 3/4
14837KMSN MSN20031122190011611/22/03 19:00:31  5-MIN KMSN 230100Z 05008KT 1 1/2SM BR OVC004 03/03 A2981 960 96 -100 050/08 RMK AO2 SFC VIS 1 3/4
14837KMSN MSN20031122190511611/22/03 19:05:31  5-MIN KMSN 230105Z 04006KT 1 1/2SM BR OVC002 03/03 A2981 970 96 -100 040/06 RMK AO2 SFC VIS 1 3/4
14837KMSN MSN20031122191011611/22/03 19:10:31  5-MIN KMSN 230110Z 04006KT 1 1/2SM BR OVC002 03/03 A2981 970 96 -100 040/06 RMK AO2 SFC VIS 1 3/4
14837KMSN MSN20031122191513211/22/03 19:15:31  5-MIN KMSN 230115Z 05008KT 1 1/2SM -DZ BR OVC002 03/03 A2980 980 96 -100 040/08 RMK AO2 SFC VIS 1 3/4 DZB15 P0000
14837KMSN MSN20031122192013211/22/03 19:20:31  5-MIN KMSN 230120Z 05006KT 1 1/2SM -DZ BR OVC002 03/03 A2981 970 96 -100 040/06 RMK AO2 SFC VIS 1 3/4 DZB15 P0000
14837KMSN MSN20031122192511811/22/03 19:25:31  5-MIN KMSN 230125Z 04007KT 1 1/2SM -DZ BR OVC002 03/03 A2980 970 96 -100 040/07 RMK AO2 DZB15 P0000
14837KMSN MSN20031122193011811/22/03 19:30:31  5-MIN KMSN 230130Z 04007KT 1 1/2SM -DZ BR OVC002 03/03 A2980 970 96 -100 040/07 RMK AO2 DZB15 P0000
14837KMSN MSN20031122193511811/22/03 19:35:31  5-MIN KMSN 230135Z 03007KT 1 1/2SM -DZ BR OVC002 03/03 A2981 970 96 -100 030/07 RMK AO2 DZB15 P0000
14837KMSN MSN20031122194011811/22/03 19:40:31  5-MIN KMSN 230140Z 04008KT 1 1/2SM -DZ BR OVC002 03/03 A2981 970 96 -100 040/08 RMK AO2 DZB15 P0000
14837KMSN MSN20031122194511811/22/03 19:45:31  5-MIN KMSN 230145Z 04007KT 1 1/2SM -DZ BR OVC002 03/03 A2980 970 96 -100 040/07 RMK AO2 DZB15 P0000
14837KMSN MSN20031122195014911/22/03 19:50:31  5-MIN KMSN 230150Z 05007KT 1 1/4SM -DZ BR OVC002 03/03 A2980 970 96 -100 050/07 RMK AO2 TWR VIS 1 1/2 DZB15 SLP099 P0000 T00330028
14837KMSN MSN20031122195512711/22/03 19:55:31  5-MIN KMSN 230155Z 05007KT 1 1/4SM -DZ BR OVC002 03/03 A2980 970 100 -100 040/07 RMK AO2 TWR VIS 1 1/2 P0000
14837KMSN MSN20031122200012711/22/03 20:00:31  5-MIN KMSN 230200Z 05007KT 1 1/4SM -DZ BR OVC002 03/03 A2980 980 100 -100 040/07 RMK AO2 TWR VIS 1 1/2 P0000
14837KMSN MSN20031122200513811/22/03 20:05:31  5-MIN KMSN 230205Z 04007KT 1 1/4SM -RA BR OVC002 03/03 A2979 990 100 -100 040/07 RMK AO2 TWR VIS 1 1/2 DZE02RAB02 P0001
14837KMSN MSN20031122201013811/22/03 20:10:31  5-MIN KMSN 230210Z 04007KT 1 1/4SM -RA BR OVC002 03/03 A2979 990 100 -100 040/07 RMK AO2 TWR VIS 1 1/2 DZE02RAB02 P0001
14837KMSN MSN20031122201513811/22/03 20:15:31  5-MIN KMSN 230215Z 04007KT 1 1/4SM -RA BR OVC002 03/03 A2979 990 100 -100 030/07 RMK AO2 TWR VIS 1 1/2 DZE02RAB02 P0001
14837KMSN MSN20031122202012311/22/03 20:20:31  5-MIN KMSN 230220Z 02007KT 1 1/2SM BR OVC002 03/03 A2979 990 100 -100 020/07 RMK AO2 DZE02RAB02E20 P0001
14837KMSN MSN20031122202512411/22/03 20:25:31  5-MIN KMSN 230225Z 03008KT 1 1/2SM -RA BR OVC002 03/03 A2979 990 100 -100 030/08 RMK AO2 DZE02RAB02 P0001
14837KMSN MSN20031122203012411/22/03 20:30:31  5-MIN KMSN 230230Z 03006KT 1 1/2SM -RA BR OVC002 03/03 A2979 980 100 -100 030/06 RMK AO2 DZE02RAB02 P0001
14837KMSN MSN20031122203512011/22/03 20:35:31  5-MIN KMSN 230235Z 03007KT 1 1/2SM -RA BR OVC002 04/03 A2979 980 96 0 030/07 RMK AO2 DZE02RAB02 P0001
14837KMSN MSN20031122204012011/22/03 20:40:31  5-MIN KMSN 230240Z 03005KT 1 1/2SM -RA BR OVC002 04/03 A2979 990 96 0 030/05 RMK AO2 DZE02RAB02 P0001
14837KMSN MSN20031122204513411/22/03 20:45:31  5-MIN KMSN 230245Z 02006KT 1 1/2SM -RA BR OVC002 04/03 A2979 980 96 0 020/06 RMK AO2 SFC VIS 1 3/4 DZE02RAB02 P0001
14837KMSN MSN20031122205016911/22/03 20:50:31  5-MIN KMSN 230250Z 01006KT 1 1/2SM -RA BR OVC002 04/03 A2979 980 96 0 010/06 RMK AO2 SFC VIS 1 3/4 DZE02B47E50RAB02 SLP096 P0002 60002 T00390033 56004
14837KMSN MSN20031122205512311/22/03 20:55:31  5-MIN KMSN 230255Z 02006KT 1 1/2SM -RA BR OVC002 04/03 A2979 990 96 0 020/06 RMK AO2 SFC VIS 1 3/4 P0000
14837KMSN MSN20031122210012311/22/03 21:00:31  5-MIN KMSN 230300Z 03006KT 1 1/2SM -RA BR OVC002 04/03 A2978 990 96 0 030/06 RMK AO2 SFC VIS 1 3/4 P0000
14837KMSN MSN20031122210512311/22/03 21:05:31  5-MIN KMSN 230305Z 03006KT 1 1/2SM -RA BR OVC002 04/03 A2978 990 96 0 030/06 RMK AO2 SFC VIS 1 3/4 P0000
14837KMSN MSN20031122211012411/22/03 21:10:31  5-MIN KMSN 230310Z 04007KT 1 1/2SM -RA BR OVC002 04/03 A2977 1000 96 0 030/07 RMK AO2 SFC VIS 1 3/4 P0000
14837KMSN MSN20031122211512211/22/03 21:15:31  5-MIN KMSN 230315Z 02007KT 1 1/2SM BR OVC002 04/03 A2977 1000 96 0 020/07 RMK AO2 SFC VIS 2 RAE14 P0000
14837KMSN MSN20031122212012211/22/03 21:20:31  5-MIN KMSN 230320Z 03007KT 1 1/2SM BR OVC002 04/03 A2977 1010 96 0 030/07 RMK AO2 SFC VIS 2 RAE14 P0001
14837KMSN MSN20031122212512611/22/03 21:25:31  5-MIN KMSN 230325Z 02006KT 1 1/2SM BR OVC002 04/03 A2977 1010 96 0 020/06 RMK AO2 SFC VIS 2 1/2 RAE14 P0001
14837KMSN MSN20031122213012611/22/03 21:30:31  5-MIN KMSN 230330Z 02008KT 1 1/2SM BR OVC002 04/03 A2976 1010 96 0 020/08 RMK AO2 SFC VIS 2 1/2 RAE14 P0001
14837KMSN MSN20031122213512211/22/03 21:35:31  5-MIN KMSN 230335Z 04007KT 1 1/2SM BR OVC002 04/03 A2975 1020 96 0 040/07 RMK AO2 SFC VIS 3 RAE14 P0001
14837KMSN MSN20031122214010811/22/03 21:40:31  5-MIN KMSN 230340Z 04008KT 3SM BR OVC002 04/03 A2975 1020 96 0 040/08 RMK AO2 RAE14 P0001
14837KMSN MSN20031122214510811/22/03 21:45:31  5-MIN KMSN 230345Z 04008KT 3SM BR OVC002 04/03 A2975 1020 96 0 040/08 RMK AO2 RAE14 P0001
14837KMSN MSN20031122215012511/22/03 21:50:31  5-MIN KMSN 230350Z 03008KT 4SM BR OVC002 04/03 A2975 1020 96 0 030/08 RMK AO2 RAE14 SLP081 P0001 T00390033
14837KMSN MSN20031122215509611/22/03 21:55:31  5-MIN KMSN 230355Z 01008KT 4SM BR OVC002 04/03 A2975 1020 96 0 010/08 RMK AO2
14837KMSN MSN20031122220011411/22/03 22:00:31  5-MIN KMSN 230400Z 01008KT 3SM -RA BR OVC002 04/03 A2975 1030 96 0 010/08 RMK AO2 RAB0358 P0000
14837KMSN MSN20031122220511811/22/03 22:05:31  5-MIN KMSN 230405Z 02007KT 2 1/2SM -RA BR OVC002 04/03 A2975 1030 96 0 020/07 RMK AO2 RAB0358 P0000
14837KMSN MSN20031122221011811/22/03 22:10:31  5-MIN KMSN 230410Z 01007KT 2 1/2SM -RA BR OVC002 04/03 A2975 1020 96 0 010/07 RMK AO2 RAB0358 P0000
14837KMSN MSN20031122221511811/22/03 22:15:31  5-MIN KMSN 230415Z 01007KT 2 1/2SM -RA BR OVC002 04/03 A2974 1030 96 0 010/07 RMK AO2 RAB0358 P0000
14837KMSN MSN20031122222011711/22/03 22:20:31  5-MIN KMSN 230420Z 04008KT 2 1/2SM BR OVC002 04/03 A2974 1030 96 0 040/08 RMK AO2 RAB0358E17 P0000
14837KMSN MSN20031122222511811/22/03 22:25:31  5-MIN KMSN 230425Z 03007KT 2 1/2SM -RA BR OVC002 04/03 A2974 1030 96 0 030/07 RMK AO2 RAB0358 P0000
14837KMSN MSN20031122223011411/22/03 22:30:31  5-MIN KMSN 230430Z 03008KT 2SM -RA BR OVC002 04/03 A2974 1030 96 0 020/08 RMK AO2 RAB0358 P0001
14837KMSN MSN20031122223511711/22/03 22:35:31  5-MIN KMSN 230435Z 03007KT 1 1/2SM RA BR OVC002 04/03 A2974 1040 96 0 030/07 RMK AO2 RAB0358 P0003
14837KMSN MSN20031122224011811/22/03 22:40:31  5-MIN KMSN 230440Z 03007KT 1 1/4SM -RA BR OVC002 04/03 A2973 1040 96 0 030/07 RMK AO2 RAB0358 P0004
14837KMSN MSN20031122224511811/22/03 22:45:31  5-MIN KMSN 230445Z 04006KT 1 3/4SM -RA BR OVC002 04/03 A2973 1040 96 0 040/06 RMK AO2 RAB0358 P0004
14837KMSN MSN20031122225013111/22/03 22:50:31  5-MIN KMSN 230450Z 04008KT 2SM -RA BR OVC002 04/03 A2972 1050 96 0 040/08 RMK AO2 RAB0358 SLP072 P0004 T00390033
14837KMSN MSN20031122225510611/22/03 22:55:31  5-MIN KMSN 230455Z 05006KT 2SM -RA BR OVC002 04/03 A2972 1050 96 0 050/06 RMK AO2 P0000
14837KMSN MSN20031122230010611/22/03 23:00:31  5-MIN KMSN 230500Z 05006KT 2SM -RA BR OVC002 04/03 A2973 1040 96 0 050/06 RMK AO2 P0000
14837KMSN MSN20031122230511011/22/03 23:05:31  5-MIN KMSN 230505Z 05006KT 1 1/2SM -RA BR OVC002 04/03 A2972 1050 96 0 050/06 RMK AO2 P0001
14837KMSN MSN20031122231011011/22/03 23:10:31  5-MIN KMSN 230510Z 06008KT 1 1/2SM -RA BR OVC002 04/03 A2970 1070 96 0 060/08 RMK AO2 P0002
14837KMSN MSN20031122231511111/22/03 23:15:31  5-MIN KMSN 230515Z 04006KT 1 1/2SM -RA BR OVC002 04/04 A2971 1060 100 0 040/06 RMK AO2 P0003
14837KMSN MSN20031122232010711/22/03 23:20:31  5-MIN KMSN 230520Z 03005KT 3SM -RA BR OVC002 04/04 A2971 1060 100 0 030/05 RMK AO2 P0003
14837KMSN MSN20031122232511211/22/03 23:25:31  5-MIN KMSN 230525Z 01006KT 2 1/2SM -RA BR OVC002 04/04 A2971 1060 96 100 010/06 RMK AO2 P0003
14837KMSN MSN20031122233010811/22/03 23:30:31  5-MIN KMSN 230530Z 36004KT 3SM -RA BR OVC002 04/04 A2971 1060 96 100 360/04 RMK AO2 P0003
14837KMSN MSN20031122233510811/22/03 23:35:31  5-MIN KMSN 230535Z 36004KT 4SM -RA BR OVC002 04/04 A2972 1050 96 100 360/04 RMK AO2 P0003
14837KMSN MSN20031122234010811/22/03 23:40:31  5-MIN KMSN 230540Z 34005KT 3SM -RA BR OVC002 04/04 A2971 1060 96 100 340/05 RMK AO2 P0003
14837KMSN MSN20031122234510711/22/03 23:45:31  5-MIN KMSN 230545Z 36007KT 3SM -RA BR OVC002 04/04 A2970 1070 100 0 360/07 RMK AO2 P0003
14837KMSN MSN20031122235016211/22/03 23:50:31  5-MIN KMSN 230550Z 01006KT 2 1/2SM -RA BR OVC002 04/04 A2970 1070 100 0 010/06 RMK AO2 SLP063 P0003 60011 T00390039 10044 20033 400440022 58011
14837KMSN MSN20031122235510711/22/03 23:55:31  5-MIN KMSN 230555Z 01007KT 2SM -RA BR OVC002 04/04 A2969 1080 100 0 010/07 RMK AO2 P0000
14837KMSN MSN20031123000010711/23/03 00:00:31  5-MIN KMSN 230600Z 36006KT 2SM -RA BR OVC002 04/04 A2969 1070 100 0 360/06 RMK AO2 P0000
14837KMSN MSN20031123000510711/23/03 00:05:31  5-MIN KMSN 230605Z 35006KT 2SM -RA BR OVC002 04/04 A2969 1070 100 0 350/06 RMK AO2 P0000
14837KMSN MSN20031123001010711/23/03 00:10:31  5-MIN KMSN 230610Z 33007KT 2SM -RA BR OVC002 04/04 A2970 1070 100 0 330/07 RMK AO2 P0001
14837KMSN MSN20031123001511111/23/03 00:15:31  5-MIN KMSN 230615Z 33008KT 1 1/2SM -RA BR OVC002 04/04 A2970 1070 100 0 330/08 RMK AO2 P0002
14837KMSN MSN20031123002011011/23/03 00:20:31  5-MIN KMSN 230620Z 34008KT 1 1/2SM -RA BR OVC002 04/03 A2970 1070 96 0 330/08 RMK AO2 P0004
14837KMSN MSN20031123002511011/23/03 00:25:31  5-MIN KMSN 230625Z 33008KT 1 1/2SM -RA BR OVC002 04/03 A2970 1070 96 0 330/08 RMK AO2 P0006
14837KMSN MSN20031123003012111/23/03 00:30:31  5-MIN KMSN 230630Z 36010KT 1 1/4SM RA BR OVC002 04/03 A2969 1080 96 0 350/10 RMK AO2 CIG 002V006 P0007
14837KMSN MSN20031123003512111/23/03 00:35:31  5-MIN KMSN 230635Z 35008KT 1 1/4SM RA BR OVC002 04/03 A2969 1080 96 0 350/08 RMK AO2 CIG 002V006 P0008
14837KMSN MSN20031123004012111/23/03 00:40:31  5-MIN KMSN 230640Z VRB06KT 1 1/4SM RA BR OVC002 04/03 A2968 1080 96 0 VRB/06 RMK AO2 CIG 002V006 P0009
14837KMSN MSN20031123004513011/23/03 00:45:31  5-MIN KMSN 230645Z 36010KT 1 1/4SM RA BR OVC002 04/03 A2967 1100 96 100 360/10 RMK AO2 CIG 002V006 PRESFR P0011
14837KMSN MSN20031123005014811/23/03 00:50:31  5-MIN KMSN 230650Z 36010KT 2 1/2SM -RA BR BKN002 OVC009 04/03 A2967 1100 96 100 360/10 RMK AO2 CIG 002V006 SLP053 P0012 T00390033
14837KMSN MSN20031123005512111/23/03 00:55:31  5-MIN KMSN 230655Z 01010KT 3SM RA BR BKN002 OVC009 04/03 A2966 1110 96 100 010/10 RMK AO2 PRESFR P0002
14837KMSN MSN20031123010011511/23/03 01:00:31  5-MIN KMSN 230700Z 02009KT 3SM +RA BR BKN004 OVC009 04/03 A2966 1110 96 100 020/09 RMK AO2 P0005
14837KMSN MSN20031123010512711/23/03 01:05:31  5-MIN KMSN 230705Z 03007KT 2SM +RA BR BKN004 OVC009 04/03 A2966 1110 96 100 030/07 RMK AO2 CIG 003V008 P0012
14837KMSN MSN20031123011011511/23/03 01:10:31  5-MIN KMSN 230710Z 36007KT 2SM +RA BR BKN004 OVC009 04/03 A2967 1100 96 100 360/07 RMK AO2 P0016
14837KMSN MSN20031123011512911/23/03 01:15:31  5-MIN KMSN 230715Z 30011KT 1 3/4SM +RA BR OVC006 04/03 A2970 1060 96 0 300/11 RMK AO2 CIG 003V009 PRESRR P0024
14837KMSN MSN20031123012012211/23/03 01:20:31  5-MIN KMSN 230720Z 31011KT 1 1/4SM +RA BR OVC004 04/03 A2971 1060 96 0 310/11 RMK AO2 CIG 003V009 P0031
14837KMSN MSN20031123012513111/23/03 01:25:31  5-MIN KMSN 230725Z 34011KT 2SM RA BR SCT004 BKN009 OVC022 04/03 A2969 1080 96 0 340/11 RMK AO2 CIG 006V011 P0032
14837KMSN MSN20031123013013411/23/03 01:30:31  5-MIN KMSN 230730Z 02012KT 5SM -RA BR SCT006 BKN009 OVC025 04/03 A2967 1100 96 100 010/12 RMK AO2 CIG 008V011 P0032
14837KMSN MSN20031123013513311/23/03 01:35:31  5-MIN KMSN 230735Z 06014KT 5SM -RA BR SCT006 BKN023 OVC027 04/03 A2966 1100 96 100 060/14 RMK AO2 WSHFT 0719 P0032
14837KMSN MSN20031123014013911/23/03 01:40:31  5-MIN KMSN 230740Z 06014G20KT 3SM +RA BR FEW006 SCT011 OVC023 04/03 A2966 1100 92 100 060/14G20 RMK AO2 WSHFT 0719 P0038
14837KMSN MSN20031123014513311/23/03 01:45:31  5-MIN KMSN 230745Z 06013KT 3SM +RA BR FEW006 BKN016 OVC023 04/04 A2965 1110 96 100 060/13 RMK AO2 WSHFT 0719 P0044
14837KMSN MSN20031123015015411/23/03 01:50:31  5-MIN KMSN 230750Z VRB05KT 1 3/4SM +RA BR BKN016 BKN023 OVC028 04/04 A2966 1110 96 100 VRB/05 RMK AO2 WSHFT 0719 SLP051 P0051 T00440039
14837KMSN MSN20031123015511811/23/03 01:55:31  5-MIN KMSN 230755Z 05005KT 1 1/4SM +TSRA BKN014 OVC023 04/04 A2964 1120 96 200 050/05 RMK AO2 P0004
14837KMSN MSN20031123020012511/23/03 02:00:31  5-MIN KMSN 230800Z 35006KT 1 3/4SM +TSRA BKN014 BKN023 OVC037 05/04 A2965 1120 96 200 350/06 RMK AO2 P0009
14837KMSN MSN20031123020512011/23/03 02:05:31  5-MIN KMSN 230805Z 34005KT 2SM TSRA BKN012 BKN021 OVC032 05/04 A2964 1120 96 200 330/05 RMK AO2 P0011
14837KMSN MSN20031123021015111/23/03 02:10:31  5-MIN KMSN 230810Z 35005KT 4SM -TSRA BR SCT014 BKN025 OVC032 05/04 A2964 1120 96 200 340/05 RMK AO2 OCNL LTGIC VC TS VC MOV NE P0012
14837KMSN MSN20031123021513811/23/03 02:15:31  5-MIN KMSN 230815Z 35006KT 4SM RA BR SCT012 BKN025 OVC032 05/04 A2964 1130 96 200 350/06 RMK AO2 TSE15 TS DSNT NE P0014
14837KMSN MSN20031123022012811/23/03 02:20:31  5-MIN KMSN 230820Z 36008KT 4SM -RA BR FEW010 BKN023 OVC032 05/04 A2963 1140 96 200 360/08 RMK AO2 TSE15 P0014
14837KMSN MSN20031123022512711/23/03 02:25:31  5-MIN KMSN 230825Z 36006KT 4SM RA BR FEW010 BKN021 OVC032 06/05 A2963 1130 96 300 360/06 RMK AO2 TSE15 P0016
14837KMSN MSN20031123023012711/23/03 02:30:31  5-MIN KMSN 230830Z 35006KT 4SM RA BR FEW007 BKN021 OVC026 06/05 A2963 1130 96 300 350/06 RMK AO2 TSE15 P0016
14837KMSN MSN20031123023512811/23/03 02:35:31  5-MIN KMSN 230835Z 35006KT 4SM -RA BR SCT007 BKN021 OVC026 06/05 A2963 1130 96 300 350/06 RMK AO2 TSE15 P0017
14837KMSN MSN20031123024012111/23/03 02:40:31  5-MIN KMSN 230840Z 36007KT 4SM -RA BR BKN007 OVC021 06/05 A2962 1140 96 300 360/07 RMK AO2 TSE15 P0017
14837KMSN MSN20031123024512111/23/03 02:45:31  5-MIN KMSN 230845Z 36006KT 4SM -RA BR BKN007 OVC021 06/05 A2962 1140 96 300 360/06 RMK AO2 TSE15 P0017
14837KMSN MSN20031123025015011/23/03 02:50:31  5-MIN KMSN 230850Z 01006KT 4SM -RA BR BKN007 OVC019 06/05 A2962 1150 96 300 010/06 RMK AO2 TSE15 SLP035 P0017 60087 T00560050 56032
14837KMSN MSN20031123025510811/23/03 02:55:31  5-MIN KMSN 230855Z 36005KT 4SM -RA BR OVC007 06/05 A2962 1140 96 300 360/05 RMK AO2 P0001
14837KMSN MSN20031123030012011/23/03 03:00:31  5-MIN KMSN 230900Z 34004KT 4SM -RA BR OVC005 06/05 A2962 1140 96 300 340/04 RMK AO2 CIG 003V007 P0001
14837KMSN MSN20031123030511911/23/03 03:05:31  5-MIN KMSN 230905Z 30007KT 4SM RA BR OVC005 06/05 A2964 1130 96 300 300/07 RMK AO2 CIG 003V007 P0002
14837KMSN MSN20031123031012111/23/03 03:10:31  5-MIN KMSN 230910Z 33006KT 3SM +RA BR OVC005 05/05 A2963 1130 100 200 330/06 RMK AO2 CIG 003V008 P0006
14837KMSN MSN20031123031511911/23/03 03:15:31  5-MIN KMSN 230915Z 31006KT 3SM RA BR OVC005 05/04 A2963 1130 96 200 310/06 RMK AO2 CIG 003V008 P0007
14837KMSN MSN20031123032012011/23/03 03:20:31  5-MIN KMSN 230920Z 02006KT 3SM -RA BR OVC005 05/04 A2962 1140 96 200 020/06 RMK AO2 CIG 003V008 P0008
14837KMSN MSN20031123032512111/23/03 03:25:31  5-MIN KMSN 230925Z 36006KT 3SM RA BR SCT005 BKN008 OVC023 05/04 A2963 1140 96 200 360/06 RMK AO2 P0009
14837KMSN MSN20031123033012811/23/03 03:30:31  5-MIN KMSN 230930Z 05006KT 3SM RA BR FEW005 BKN008 OVC029 05/04 A2961 1150 96 300 050/06 RMK AO2 PRESFR P0011
14837KMSN MSN20031123033512911/23/03 03:35:31  5-MIN KMSN 230935Z 07009KT 3SM -RA BR FEW003 BKN024 OVC029 05/04 A2960 1160 96 300 070/09 RMK AO2 PRESFR P0011
14837KMSN MSN20031123034012311/23/03 03:40:31  5-MIN KMSN 230940Z 06008KT 3SM -RA BR FEW008 SCT024 OVC029 05/05 A2960 1160 100 300 060/08 RMK AO2 P0011
14837KMSN MSN20031123034511811/23/03 03:45:31  5-MIN KMSN 230945Z 06006KT 3SM BR FEW003 OVC027 05/05 A2959 1170 100 300 060/06 RMK AO2 RAE45 P0011
14837KMSN MSN20031123035012811/23/03 03:50:31  5-MIN KMSN 230950Z 05006KT 5SM BR OVC027 05/05 A2959 1170 100 300 050/06 RMK AO2 RAE45 SLP026 P0011 T00500050
14837KMSN MSN20031123035511711/23/03 03:55:31  5-MIN KMSN 230955Z 36005KT 10SM -RA BR FEW004 OVC026 05/05 A2959 1170 100 300 360/05 RMK AO2 P0000
14837KMSN MSN20031123040012211/23/03 04:00:31  5-MIN KMSN 231000Z 01005KT 4SM -RA BR SCT004 BKN024 OVC029 06/05 A2959 1170 96 400 010/05 RMK AO2 P0000
14837KMSN MSN20031123040512211/23/03 04:05:31  5-MIN KMSN 231005Z 02006KT 4SM -RA BR BKN004 BKN024 OVC029 06/05 A2959 1180 96 400 020/06 RMK AO2 P0000
14837KMSN MSN20031123041011511/23/03 04:10:31  5-MIN KMSN 231010Z 02007KT 4SM -RA BR BKN004 OVC024 06/05 A2959 1180 96 400 020/07 RMK AO2 P0000
14837KMSN MSN20031123041511511/23/03 04:15:31  5-MIN KMSN 231015Z 36006KT 4SM -RA BR BKN004 OVC024 06/05 A2959 1170 96 400 360/06 RMK AO2 P0001
14837KMSN MSN20031123042010811/23/03 04:20:31  5-MIN KMSN 231020Z 01006KT 3SM -RA BR OVC004 06/05 A2958 1180 96 400 010/06 RMK AO2 P0001
14837KMSN MSN20031123042510911/23/03 04:25:31  5-MIN KMSN 231025Z 02007KT 3SM -RA BR OVC004 05/05 A2958 1180 100 300 010/07 RMK AO2 P0002
14837KMSN MSN20031123043010911/23/03 04:30:31  5-MIN KMSN 231030Z 02006KT 3SM -RA BR OVC004 05/05 A2957 1190 100 300 020/06 RMK AO2 P0002
14837KMSN MSN20031123043510811/23/03 04:35:31  5-MIN KMSN 231035Z 04006KT 3SM -RA BR OVC004 05/04 A2957 1190 96 300 030/06 RMK AO2 P0002
14837KMSN MSN20031123044010911/23/03 04:40:31  5-MIN KMSN 231040Z 01006KT 3SM -RA BR OVC004 05/05 A2957 1190 100 300 010/06 RMK AO2 P0002
14837KMSN MSN20031123044510911/23/03 04:45:31  5-MIN KMSN 231045Z 01006KT 3SM -RA BR OVC004 05/05 A2956 1200 100 300 010/06 RMK AO2 P0002
14837KMSN MSN20031123045012611/23/03 04:50:31  5-MIN KMSN 231050Z 36004KT 3SM -RA BR OVC004 05/05 A2956 1200 100 300 350/04 RMK AO2 SLP015 P0003 T00500050
14837KMSN MSN20031123045510811/23/03 04:55:31  5-MIN KMSN 231055Z 34005KT 2SM -RA BR OVC004 05/04 A2956 1200 96 300 340/05 RMK AO2 P0001
14837KMSN MSN20031123050010811/23/03 05:00:31  5-MIN KMSN 231100Z 36007KT 2SM -RA BR OVC004 05/04 A2955 1210 96 300 360/07 RMK AO2 P0001
14837KMSN MSN20031123050511211/23/03 05:05:31  5-MIN KMSN 231105Z 02007KT 2 1/2SM -RA BR OVC004 05/04 A2955 1210 96 300 020/07 RMK AO2 P0001
14837KMSN MSN20031123051010811/23/03 05:10:31  5-MIN KMSN 231110Z 02006KT 2SM -RA BR OVC004 05/04 A2955 1210 96 300 020/06 RMK AO2 P0001
14837KMSN MSN20031123051511611/23/03 05:15:31  5-MIN KMSN 231115Z 29009KT 2SM -RA BR OVC004 05/05 A2958 1180 100 300 290/09 RMK AO2 PRESRR P0002
14837KMSN MSN20031123052012811/23/03 05:20:31  5-MIN KMSN 231120Z 30010G18KT 2SM -RA BR BKN004 OVC007 05/04 A2959 1170 96 300 290/10G18 RMK AO2 PRESRR P0003
14837KMSN MSN20031123052517411/23/03 05:25:31  5-MIN KMSN 231125Z 05007G18KT 010V070 1 1/4SM TSRA BKN004 OVC007 05/04 A2957 1190 96 300 050/07G18 010V070 RMK AO2 TSB25 OCNL LTGIC OHD TS OHD MOV NE P0009
14837KMSN MSN20031123053015611/23/03 05:30:31  5-MIN KMSN 231130Z 07010KT 1SM +TSRA SCT004 BKN008 OVC014 05/04 A2956 1200 96 300 070/10 RMK AO2 TSB25 OCNL LTGIC OHD TS OHD MOV NE P0015
14837KMSN MSN20031123053517411/23/03 05:35:31  5-MIN KMSN 231135Z 09008KT 1 1/2SM TSRA BR SCT004 SCT008 OVC016 05/04 A2957 1190 96 300 090/08 RMK AO2 VIS 1V2 1/2 TSB25 OCNL LTGIC OHD TS OHD MOV NE P0019
14837KMSN MSN20031123054017011/23/03 05:40:31  5-MIN KMSN 231140Z 05009KT 1 1/2SM +TSRA BR FEW004 BKN016 OVC055 06/05 A2955 1210 96 400 050/09 RMK AO2 TSB25 PRESFR OCNL LTGIC OHD TS OHD MOV NE P0025
14837KMSN MSN20031123054515811/23/03 05:45:31  5-MIN KMSN 231145Z 05004KT 3SM TSRA BR FEW006 BKN016 OVC050 06/05 A2956 1200 96 400 050/04 RMK AO2 TSB25 OCNL LTGIC OHD TS OHD MOV NE P0025
14837KMSN MSN20031123055020511/23/03 05:50:31  5-MIN KMSN 231150Z 00000KT 5SM TSRA BR SCT016 BKN040 OVC050 06/05 A2957 1190 96 400 000/00 RMK AO2 TSB25 SLP018 OCNL LTGIC OHD TS OHD MOV NE P0027 60128 70139 T00560050 10056 20039 56025
14837KMSN MSN20031123055511611/23/03 05:55:31  5-MIN KMSN 231155Z 06004KT 3SM TSRA BR SCT016 OVC040 06/05 A2956 1200 96 400 060/04 RMK AO2 P0002
14837KMSN MSN20031123060016111/23/03 06:00:31  5-MIN KMSN 231200Z 36004KT 2 1/2SM -TSRA BR SCT018 OVC042 06/06 A2957 1190 100 400 360/04 RMK AO2 TWR VIS 3 OCNL LTGIC OHD TS OHD MOV NE P0004
14837KMSN MSN20031123060516011/23/03 06:05:31  5-MIN KMSN 231205Z 06004KT 2 1/2SM +TSRA BR SCT016 OVC042 06/06 A2956 1200 96 500 060/04 RMK AO2 TWR VIS 3 OCNL LTGIC OHD TS OHD MOV NE P0009
14837KMSN MSN20031123061016011/23/03 06:10:31  5-MIN KMSN 231210Z 04004KT 2 1/2SM +TSRA BR BKN014 OVC042 06/06 A2956 1200 96 500 040/04 RMK AO2 TWR VIS 3 OCNL LTGIC OHD TS OHD MOV NE P0015
14837KMSN MSN20031123061516711/23/03 06:15:31  5-MIN KMSN 231215Z 07006KT 1 3/4SM +TSRA BR BKN014 BKN037 OVC044 06/06 A2955 1210 96 500 070/06 RMK AO2 TWR VIS 3 OCNL LTGIC OHD TS OHD MOV NE P0018
14837KMSN MSN20031123062014111/23/03 06:20:31  5-MIN KMSN 231220Z 05003KT 2 1/2SM RA BR SCT014 BKN043 OVC065 06/06 A2955 1210 96 500 050/03 RMK AO2 TWR VIS 3 TSE17 P0019
14837KMSN MSN20031123062517611/23/03 06:25:31  5-MIN KMSN 231225Z 00000KT 2 1/2SM TSRA BR BKN019 BKN043 OVC070 06/06 A2955 1200 96 500 000/00 RMK AO2 TWR VIS 3 TSE17B25 OCNL LTGIC OHD TS OHD MOV NNE P0022
14837KMSN MSN20031123063016411/23/03 06:30:31  5-MIN KMSN 231230Z 08005KT 3SM -TSRA BR BKN021 BKN041 OVC070 06/06 A2955 1210 100 500 080/05 RMK AO2 TSE17B25 OCNL LTGIC OHD TS OHD MOV NNE P0023
14837KMSN MSN20031123063516111/23/03 06:35:31  5-MIN KMSN 231235Z 04004KT 3SM TSRA BR FEW004 BKN050 OVC070 07/06 A2954 1220 96 500 040/04 RMK AO2 TSE17B25 FRQ LTGIC OHD TS OHD MOV NNE P0024
14837KMSN MSN20031123064016211/23/03 06:40:31  5-MIN KMSN 231240Z 07005KT 3SM -TSRA BR FEW002 SCT027 OVC065 07/06 A2955 1210 96 500 070/05 RMK AO2 TSE17B25 FRQ LTGIC OHD TS OHD MOV NNE P0024
14837KMSN MSN20031123064515911/23/03 06:45:31  5-MIN KMSN 231245Z 04004KT 3SM -TSRA BR FEW002 OVC060 07/06 A2955 1210 96 500 040/04 RMK AO2 TSE17B25 OCNL LTGIC VC NE TS VC NE MOV NE P0024
14837KMSN MSN20031123065017911/23/03 06:50:31  5-MIN KMSN 231250Z 35003KT 4SM -RA BR FEW028 OVC065 07/06 A2955 1210 96 500 350/03 RMK AO2 TSE17B25E48 SLP011 OCNL LTG DSNT NE TS DSNT NE MOV NE P0025 T00670061
14837KMSN MSN20031123065516211/23/03 06:55:31  5-MIN KMSN 231255Z 00000KT 4SM TSRA BR FEW004 SCT033 OVC060 07/06 A2956 1200 96 500 000/00 RMK AO2 TSB55 OCNL LTG VC ESE TS VCESSE MOV NE P0000
14837KMSN MSN20031123070017111/23/03 07:00:31  5-MIN KMSN 231300Z 29003KT 2SM -TSRA BR FEW006 BKN050 OVC065 07/06 A2955 1210 96 500 290/03 RMK AO2 TWR VIS 3 TSB1255 OCNL LTGIC OHD TS OHD MOV NE P0001
14837KMSN MSN20031123070517011/23/03 07:05:31  5-MIN KMSN 231305Z 32003KT 2SM TSRA BR FEW006 BKN034 OVC060 07/06 A2955 1210 96 500 320/03 RMK AO2 TWR VIS 3 TSB1255 OCNL LTGIC OHD TS OHD MOV NE P0002
14837KMSN MSN20031123071017011/23/03 07:10:31  5-MIN KMSN 231310Z 00000KT 2SM TSRA BR SCT006 BKN034 OVC060 07/06 A2955 1210 96 500 000/00 RMK AO2 TWR VIS 3 TSB1255 OCNL LTGIC OHD TS OHD MOV NE P0003
14837KMSN MSN20031123071517011/23/03 07:15:31  5-MIN KMSN 231315Z 00000KT 2SM TSRA BR BKN004 BKN034 OVC060 07/06 A2956 1200 96 500 000/00 RMK AO2 TWR VIS 3 TSB1255 OCNL LTGIC OHD TS OHD MOV NE P0004
14837KMSN MSN20031123072015011/23/03 07:20:31  5-MIN KMSN 231320Z 00000KT 2SM -RA BR BKN004 BKN007 OVC049 07/06 A2957 1190 96 500 000/00 RMK AO2 TWR VIS 3 TSB1255E16 PRESRR P0005
14837KMSN MSN20031123072514311/23/03 07:25:31  5-MIN KMSN 231325Z 00000KT 2SM -RA BR BKN004 BKN007 OVC034 07/06 A2957 1190 96 500 000/00 RMK AO2 TWR VIS 3 TSB1255E16 P0006
14837KMSN MSN20031123073013511/23/03 07:30:31  5-MIN KMSN 231330Z 00000KT 2SM RA BR BKN004 OVC035 07/06 A2958 1180 96 500 000/00 RMK AO2 TWR VIS 3 TSB1255E16 P0007
14837KMSN MSN20031123073513911/23/03 07:35:31  5-MIN KMSN 231335Z 00000KT 1 3/4SM RA BR BKN004 OVC016 07/06 A2958 1180 96 500 000/00 RMK AO2 TWR VIS 3 TSB1255E16 P0009
14837KMSN MSN20031123074013911/23/03 07:40:31  5-MIN KMSN 231340Z 00000KT 1 3/4SM RA BR BKN004 OVC016 07/06 A2957 1190 96 500 000/00 RMK AO2 TWR VIS 3 TSB1255E16 P0010
14837KMSN MSN20031123074513311/23/03 07:45:31  5-MIN KMSN 231345Z 35004KT 1 3/4SM RA BR OVC004 06/06 A2955 1210 100 500 350/04 RMK AO2 TWR VIS 2 TSB1255E16 P0012
14837KMSN MSN20031123075015811/23/03 07:50:31  5-MIN KMSN 231350Z 36004KT 1 3/4SM -RA BR BKN004 OVC085 06/06 A2955 1210 100 500 360/04 RMK AO2 TWR VIS 2 TSB1255E16 SLP012 P0013 T00610061
14837KMSN MSN20031123075513011/23/03 07:55:31  5-MIN KMSN 231355Z 01004KT 1 3/4SM -RA BR BKN004 OVC085 06/06 A2955 1210 100 500 010/04 RMK AO2 TWR VIS 2 P0000
14837KMSN MSN20031123080013011/23/03 08:00:31  5-MIN KMSN 231400Z 03006KT 1 3/4SM -RA BR OVC004 06/06 A2953 1230 100 500 030/06 RMK AO2 TWR VIS 2 PRESFR P0001
14837KMSN MSN20031123080512311/23/03 08:05:31  5-MIN KMSN 231405Z 05005KT 1 3/4SM -RA BR OVC004 06/06 A2953 1230 100 500 050/05 RMK AO2 TWR VIS 2 P0001
14837KMSN MSN20031123081012911/23/03 08:10:31  5-MIN KMSN 231410Z 08007KT 1 3/4SM -RA BR OVC002 07/06 A2951 1250 96 600 080/07 RMK AO2 TWR VIS 2 PRESFR P0002
14837KMSN MSN20031123081512911/23/03 08:15:31  5-MIN KMSN 231415Z 10012KT 1 3/4SM -RA BR OVC002 07/06 A2949 1260 96 600 100/12 RMK AO2 TWR VIS 2 PRESFR P0002
14837KMSN MSN20031123082010811/23/03 08:20:31  5-MIN KMSN 231420Z 28008KT 2SM -RA BR OVC002 07/07 A2953 1230 96 600 280/08 RMK AO2 P0002
14837KMSN MSN20031123082512011/23/03 08:25:31  5-MIN KMSN 231425Z 00000KT 2SM -RA BR OVC002 07/07 A2952 1240 96 600 000/00 RMK AO2 CIG 001V005 P0002
14837KMSN MSN20031123083012011/23/03 08:30:31  5-MIN KMSN 231430Z 00000KT 2SM BR OVC002 08/08 A2953 1230 96 800 000/00 RMK AO2 SFC VIS 4 RAE26 P0002
14837KMSN MSN20031123083512111/23/03 08:35:31  5-MIN KMSN 231435Z 19003KT 2SM BR OVC002 07/07 A2953 1230 100 600 180/03 RMK AO2 SFC VIS 4 RAE26 P0002
14837KMSN MSN20031123084012011/23/03 08:40:31  5-MIN KMSN 231440Z 17005KT 2SM BR OVC002 08/07 A2954 1220 96 700 170/05 RMK AO2 SFC VIS 4 RAE26 P0002
14837KMSN MSN20031123084512011/23/03 08:45:31  5-MIN KMSN 231445Z 17005KT 2SM BR OVC002 08/08 A2953 1230 96 800 160/05 RMK AO2 SFC VIS 3 RAE26 P0002
14837KMSN MSN20031123085014911/23/03 08:50:31  5-MIN KMSN 231450Z 17004KT 2SM BR OVC002 08/08 A2953 1230 96 800 170/04 RMK AO2 SFC VIS 3 RAE26 SLP003 P0002 60041 T00830078 55016
14837KMSN MSN20031123085510811/23/03 08:55:31  5-MIN KMSN 231455Z 20004KT 2SM BR OVC002 09/08 A2953 1220 96 800 200/04 RMK AO2 SFC VIS 4
14837KMSN MSN20031123090011611/23/03 09:00:31  5-MIN KMSN 231500Z 13003KT 2SM BR OVC002 09/09 A2950 1260 100 900 130/03 RMK AO2 SFC VIS 5 PRESFR
14837KMSN MSN20031123090511911/23/03 09:05:31  5-MIN KMSN 231505Z 05007KT 1 1/2SM BR OVC002 09/08 A2946 1290 96 900 050/07 RMK AO2 TWR VIS 2 PRESFR
14837KMSN MSN20031123091010911/23/03 09:10:31  5-MIN KMSN 231510Z 27004KT 2SM BR OVC002 08/08 A2950 1250 100 800 270/04 RMK AO2 SFC VIS 3
14837KMSN MSN20031123091510811/23/03 09:15:31  5-MIN KMSN 231515Z 00000KT 2SM BR BKN002 09/08 A2950 1260 96 900 000/00 RMK AO2 SFC VIS 3
14837KMSN MSN20031123092010911/23/03 09:20:31  5-MIN KMSN 231520Z 00000KT 2SM BR BKN002 09/09 A2949 1260 100 900 000/00 RMK AO2 SFC VIS 3
14837KMSN MSN20031123092510811/23/03 09:25:31  5-MIN KMSN 231525Z 00000KT 2SM BR SCT002 09/08 A2951 1250 96 900 000/00 RMK AO2 SFC VIS 3
14837KMSN MSN20031123093012211/23/03 09:30:31  5-MIN KMSN 231530Z 00000KT 3SM BR SCT002 SCT065 BKN120 09/08 A2950 1260 96 900 000/00 RMK AO2 TWR VIS 4
14837KMSN MSN20031123093511311/23/03 09:35:31  5-MIN KMSN 231535Z 08003KT 5SM BR FEW002 BKN070 BKN120 09/09 A2949 1270 100 900 080/03 RMK AO2
14837KMSN MSN20031123094011311/23/03 09:40:31  5-MIN KMSN 231540Z 00000KT 5SM BR FEW002 BKN070 BKN120 09/09 A2948 1270 100 900 000/00 RMK AO2
14837KMSN MSN20031123094511211/23/03 09:45:31  5-MIN KMSN 231545Z 00000KT 5SM BR FEW002 BKN070 BKN120 09/09 A2949 1260 96 900 000/00 RMK AO2
14837KMSN MSN20031123095013011/23/03 09:50:31  5-MIN KMSN 231550Z 00000KT 5SM BR FEW002 BKN070 BKN120 09/09 A2950 1260 100 900 000/00 RMK AO2 SLP994 T00940094
14837KMSN MSN20031123095511311/23/03 09:55:31  5-MIN KMSN 231555Z 00000KT 4SM BR SCT035 BKN060 OVC075 10/09 A2949 1260 96 1000 000/00 RMK AO2
14837KMSN MSN20031123100010611/23/03 10:00:31  5-MIN KMSN 231600Z 00000KT 4SM BR BKN035 OVC070 10/09 A2949 1260 96 1000 000/00 RMK AO2
14837KMSN MSN20031123100511311/23/03 10:05:31  5-MIN KMSN 231605Z 00000KT 4SM BR BKN033 BKN060 OVC075 10/09 A2949 1260 96 1000 000/00 RMK AO2
14837KMSN MSN20031123101010611/23/03 10:10:31  5-MIN KMSN 231610Z 00000KT 4SM BR BKN033 OVC060 09/09 A2949 1260 100 900 000/00 RMK AO2
14837KMSN MSN20031123101509611/23/03 10:15:31  5-MIN KMSN 231615Z 00000KT 8SM OVC033 09/09 A2948 1270 100 900 000/00 RMK AO2
14837KMSN MSN20031123102009611/23/03 10:20:31  5-MIN KMSN 231620Z 00000KT 8SM OVC031 10/09 A2948 1270 96 1000 000/00 RMK AO2
14837KMSN MSN20031123102510311/23/03 10:25:31  5-MIN KMSN 231625Z 00000KT 8SM OVC029 10/09 A2947 1290 96 1000 000/00 RMK AO2 PRESFR
14837KMSN MSN20031123103010911/23/03 10:30:31  5-MIN KMSN 231630Z 00000KT 10SM BCFG FEW025 OVC029 10/09 A2947 1290 96 1000 000/00 RMK AO2
14837KMSN MSN20031123103510511/23/03 10:35:31  5-MIN KMSN 231635Z 00000KT 10SM BKN023 OVC029 10/10 A2947 1290 100 1000 000/00 RMK AO2
14837KMSN MSN20031123104010411/23/03 10:40:31  5-MIN KMSN 231640Z 00000KT 10SM BKN021 OVC029 11/10 A2946 1290 96 1100 000/00 RMK AO2
14837KMSN MSN20031123104510411/23/03 10:45:31  5-MIN KMSN 231645Z 17004KT 10SM BKN021 OVC027 11/10 A2947 1280 96 1100 170/04 RMK AO2
14837KMSN MSN20031123105012111/23/03 10:50:31  5-MIN KMSN 231650Z 17007KT 10SM BKN021 OVC027 12/11 A2948 1280 93 1200 170/07 RMK AO2 SLP985 T01170106
14837KMSN MSN20031123105509711/23/03 10:55:31  5-MIN KMSN 231655Z 16009KT 10SM OVC019 12/11 A2946 1290 93 1300 160/09 RMK AO2
14837KMSN MSN20031123110009711/23/03 11:00:31  5-MIN KMSN 231700Z 17008KT 10SM OVC019 12/11 A2947 1280 93 1300 170/08 RMK AO2
14837KMSN MSN20031123110510411/23/03 11:05:31  5-MIN KMSN 231705Z 15009KT 10SM OVC017 12/11 A2945 1300 93 1300 150/09 RMK AO2 PRESFR
14837KMSN MSN20031123111009711/23/03 11:10:31  5-MIN KMSN 231710Z 17008KT 10SM OVC017 12/11 A2946 1290 93 1300 170/08 RMK AO2
14837KMSN MSN20031123111509711/23/03 11:15:31  5-MIN KMSN 231715Z 17011KT 10SM OVC017 13/11 A2945 1300 86 1400 170/11 RMK AO2
14837KMSN MSN20031123112009711/23/03 11:20:31  5-MIN KMSN 231720Z 17012KT 10SM OVC015 13/12 A2944 1310 89 1500 170/12 RMK AO2
14837KMSN MSN20031123112509711/23/03 11:25:31  5-MIN KMSN 231725Z 18012KT 10SM OVC015 14/12 A2946 1300 86 1500 180/12 RMK AO2
14837KMSN MSN20031123113009711/23/03 11:30:31  5-MIN KMSN 231730Z 18013KT 10SM OVC015 14/12 A2945 1300 86 1500 180/13 RMK AO2
14837KMSN MSN20031123113509711/23/03 11:35:31  5-MIN KMSN 231735Z 18012KT 10SM OVC015 14/12 A2945 1300 86 1500 180/12 RMK AO2
14837KMSN MSN20031123114010311/23/03 11:40:31  5-MIN KMSN 231740Z 19015G19KT 10SM OVC015 14/12 A2946 1290 86 1500 180/15G19 RMK AO2
14837KMSN MSN20031123114511911/23/03 11:45:31  5-MIN KMSN 231745Z 18014G20KT 10SM -DZ OVC015 14/12 A2945 1300 86 1500 180/14G20 RMK AO2 DZB41 P0000
14837KMSN MSN20031123115015911/23/03 11:50:31  5-MIN KMSN 231750Z 18012G20KT 9SM -DZ OVC015 14/12 A2945 1310 86 1500 180/12G20 RMK AO2 DZB41 SLP974 P0000 60041 T01390117 10139 20056 58012
14837KMSN MSN20031123115510611/23/03 11:55:31  5-MIN KMSN 231755Z 19014KT 9SM -DZ OVC015 14/12 A2946 1300 90 1500 190/14 RMK AO2 P0000
14837KMSN MSN20031123120011311/23/03 12:00:31  5-MIN KMSN 231800Z 19018G22KT 10SM -DZ OVC015 14/12 A2945 1300 86 1500 190/18G22 RMK AO2 P0000
14837KMSN MSN20031123120511311/23/03 12:05:31  5-MIN KMSN 231805Z 19013G22KT 10SM -DZ OVC015 14/12 A2945 1300 86 1500 190/13G22 RMK AO2 P0000
14837KMSN MSN20031123121011311/23/03 12:10:31  5-MIN KMSN 231810Z 19012G21KT 10SM -DZ OVC015 14/12 A2945 1300 86 1500 190/12G21 RMK AO2 P0000
14837KMSN MSN20031123121511311/23/03 12:15:31  5-MIN KMSN 231815Z 20013G21KT 10SM -DZ OVC015 14/12 A2945 1300 86 1500 200/13G21 RMK AO2 P0000
14837KMSN MSN20031123122011311/23/03 12:20:31  5-MIN KMSN 231820Z 19010G18KT 10SM -DZ OVC015 14/12 A2944 1310 86 1500 190/10G18 RMK AO2 P0000
14837KMSN MSN20031123122511211/23/03 12:25:31  5-MIN KMSN 231825Z 20010G18KT 8SM -DZ OVC015 14/12 A2944 1310 86 1500 200/10G18 RMK AO2 P0000
14837KMSN MSN20031123123011211/23/03 12:30:31  5-MIN KMSN 231830Z 19014G18KT 7SM -DZ OVC015 14/12 A2945 1310 86 1500 190/14G18 RMK AO2 P0000
14837KMSN MSN20031123123511211/23/03 12:35:31  5-MIN KMSN 231835Z 20012G18KT 9SM -DZ OVC015 14/12 A2945 1300 86 1500 200/12G18 RMK AO2 P0000
14837KMSN MSN20031123124011211/23/03 12:40:31  5-MIN KMSN 231840Z 20013G18KT 7SM -DZ OVC015 13/11 A2945 1300 86 1400 200/13G18 RMK AO2 P0000
14837KMSN MSN20031123124511511/23/03 12:45:31  5-MIN KMSN 231845Z 21012G19KT 5SM -DZ BR OVC015 13/11 A2945 1300 86 1400 210/12G19 RMK AO2 P0000
14837KMSN MSN20031123125013211/23/03 12:50:31  5-MIN KMSN 231850Z 20011G20KT 5SM -DZ BR OVC015 13/11 A2945 1300 89 1400 200/11G20 RMK AO2 SLP976 P0000 T01280111
14837KMSN MSN20031123125512211/23/03 12:55:31  5-MIN KMSN 231855Z 21013G20KT 5SM -DZ BR BKN015 OVC020 13/11 A2944 1310 89 1400 210/13G20 RMK AO2 P0000
14837KMSN MSN20031123130012211/23/03 13:00:31  5-MIN KMSN 231900Z 22011G18KT 5SM -DZ BR BKN015 OVC021 13/11 A2946 1290 86 1400 220/11G18 RMK AO2 P0000
14837KMSN MSN20031123130512211/23/03 13:05:31  5-MIN KMSN 231905Z 20010G18KT 6SM -DZ BR BKN015 OVC021 13/11 A2946 1290 86 1400 200/10G18 RMK AO2 P0000
14837KMSN MSN20031123131012211/23/03 13:10:31  5-MIN KMSN 231910Z 21008G16KT 6SM -DZ BR BKN015 OVC021 12/11 A2946 1290 89 1300 200/08G16 RMK AO2 P0000
14837KMSN MSN20031123131512211/23/03 13:15:31  5-MIN KMSN 231915Z 21010G19KT 5SM -DZ BR BKN015 OVC021 12/11 A2945 1300 89 1300 210/10G19 RMK AO2 P0000
14837KMSN MSN20031123132012911/23/03 13:20:31  5-MIN KMSN 231920Z 24015G20KT 4SM -DZ BR FEW008 BKN012 OVC021 12/10 A2946 1300 89 1200 230/15G20 RMK AO2 P0000
14837KMSN MSN20031123132514111/23/03 13:25:31  5-MIN KMSN 231925Z 24011G20KT 3SM -DZ BR BKN010 BKN014 OVC021 10/09 A2947 1280 93 1000 240/11G20 RMK AO2 CIG 007V012 P0000
14837KMSN MSN20031123133013911/23/03 13:30:31  5-MIN KMSN 231930Z 23010G19KT 3SM -DZ BR SCT008 BKN014 OVC021 09/08 A2947 1290 93 1000 230/10G19 RMK AO2 SFC VIS 4 P0000
14837KMSN MSN20031123133513911/23/03 13:35:31  5-MIN KMSN 231935Z 22013G20KT 3SM -DZ BR SCT010 BKN014 OVC021 09/08 A2947 1280 89 1000 220/13G20 RMK AO2 SFC VIS 9 P0000
14837KMSN MSN20031123134012211/23/03 13:40:31  5-MIN KMSN 231940Z 23011G20KT 10SM BKN010 OVC021 09/07 A2947 1280 86 1000 230/11G20 RMK AO2 DZE37 P0000
14837KMSN MSN20031123134513311/23/03 13:45:31  5-MIN KMSN 231945Z 23015G19KT 10SM BKN010 OVC021 09/07 A2948 1270 89 900 230/15G19 RMK AO2 DZE37 CIG 007V014 P0000
14837KMSN MSN20031123135014411/23/03 13:50:31  5-MIN KMSN 231950Z 22011G19KT 9SM SCT010 BKN013 OVC021 09/07 A2948 1270 86 900 220/11G19 RMK AO2 DZE37 SLP987 P0000 T00890067
14837KMSN MSN20031123135510811/23/03 13:55:31  5-MIN KMSN 231955Z 22013G18KT 9SM BKN014 OVC021 08/06 A2948 1270 86 800 220/13G18 RMK AO2
14837KMSN MSN20031123140012311/23/03 14:00:31  5-MIN KMSN 232000Z 22011G18KT 10SM FEW009 BKN015 OVC027 08/06 A2950 1260 86 800 220/11G18 RMK AO2 PRESRR
14837KMSN MSN20031123140511611/23/03 14:05:31  5-MIN KMSN 232005Z 23009G17KT 10SM BKN013 BKN021 OVC029 08/06 A2949 1260 86 700 230/09G17 RMK AO2
14837KMSN MSN20031123141011611/23/03 14:10:31  5-MIN KMSN 232010Z 22008G18KT 10SM FEW009 BKN015 OVC031 08/05 A2950 1260 82 700 220/08G18 RMK AO2
14837KMSN MSN20031123141511611/23/03 14:15:31  5-MIN KMSN 232015Z 22007G18KT 10SM SCT015 BKN030 OVC035 08/06 A2950 1250 86 700 220/07G18 RMK AO2
14837KMSN MSN20031123142011011/23/03 14:20:31  5-MIN KMSN 232020Z 21007KT 10SM FEW015 BKN030 OVC050 08/05 A2950 1250 82 700 200/07 RMK AO2
14837KMSN MSN20031123142513211/23/03 14:25:31  5-MIN KMSN 232025Z 23012G17KT 170V260 10SM FEW015 BKN037 OVC048 08/05 A2950 1250 82 700 230/12G17 170V260 RMK AO2
14837KMSN MSN20031123143011611/23/03 14:30:31  5-MIN KMSN 232030Z 23013G20KT 10SM FEW015 SCT034 OVC048 07/04 A2951 1250 82 600 230/13G20 RMK AO2
14837KMSN MSN20031123143512511/23/03 14:35:31  5-MIN KMSN 232035Z 23013G20KT 200V260 10SM FEW034 OVC048 07/04 A2951 1250 82 600 230/13G20 200V260 RMK AO2
14837KMSN MSN20031123144011611/23/03 14:40:31  5-MIN KMSN 232040Z 22013G19KT 10SM FEW018 SCT037 OVC050 07/04 A2951 1250 82 600 220/13G19 RMK AO2
14837KMSN MSN20031123144510911/23/03 14:45:31  5-MIN KMSN 232045Z 22015G22KT 10SM SCT018 OVC050 07/03 A2951 1240 79 600 220/15G22 RMK AO2
14837KMSN MSN20031123145014511/23/03 14:50:31  5-MIN KMSN 232050Z 22015G22KT 10SM BKN016 BKN045 OVC050 06/03 A2952 1230 82 500 220/15G22 RMK AO2 SLP002 60000 T00610033 56027
14837KMSN MSN20031123145512311/23/03 14:55:31  5-MIN KMSN 232055Z 22013G20KT 10SM BKN014 BKN019 OVC050 06/03 A2953 1230 82 500 220/13G20 RMK AO2 PRESRR
14837KMSN MSN20031123150012311/23/03 15:00:31  5-MIN KMSN 232100Z 22012G17KT 10SM BKN014 BKN019 OVC050 06/03 A2954 1220 82 500 220/12G17 RMK AO2 PRESRR
14837KMSN MSN20031123150511611/23/03 15:05:31  5-MIN KMSN 232105Z 21010G17KT 10SM BKN014 OVC019 06/03 A2955 1210 85 400 210/10G17 RMK AO2 PRESRR
14837KMSN MSN20031123151010911/23/03 15:10:31  5-MIN KMSN 232110Z 22015G19KT 10SM OVC014 06/03 A2955 1200 82 400 210/15G19 RMK AO2 PRESRR
14837KMSN MSN20031123151510211/23/03 15:15:31  5-MIN KMSN 232115Z 23012G19KT 10SM OVC014 06/03 A2955 1200 82 400 230/12G19 RMK AO2
14837KMSN MSN20031123152009611/23/03 15:20:31  5-MIN KMSN 232120Z 23009KT 10SM OVC014 05/03 A2954 1210 85 300 230/09 RMK AO2
14837KMSN MSN20031123152510211/23/03 15:25:31  5-MIN KMSN 232125Z 22013G22KT 10SM OVC014 05/02 A2956 1200 82 300 220/13G22 RMK AO2
14837KMSN MSN20031123153010211/23/03 15:30:31  5-MIN KMSN 232130Z 23013G22KT 10SM OVC014 05/02 A2956 1200 82 300 220/13G22 RMK AO2
14837KMSN MSN20031123153510211/23/03 15:35:31  5-MIN KMSN 232135Z 24012G19KT 10SM OVC014 05/02 A2954 1220 82 300 240/12G19 RMK AO2
14837KMSN MSN20031123154011811/23/03 15:40:31  5-MIN KMSN 232140Z 24011G18KT 210V270 10SM OVC014 04/02 A2953 1220 85 300 240/11G18 210V270 RMK AO2
14837KMSN MSN20031123154510211/23/03 15:45:31  5-MIN KMSN 232145Z 23011G17KT 10SM OVC014 04/02 A2953 1230 82 300 220/11G17 RMK AO2
14837KMSN MSN20031123155011911/23/03 15:50:31  5-MIN KMSN 232150Z 23010G14KT 10SM OVC014 04/02 A2955 1210 82 300 230/10G14 RMK AO2 SLP013 T00440017
14837KMSN MSN20031123155510211/23/03 15:55:31  5-MIN KMSN 232155Z 23014G20KT 10SM OVC016 04/02 A2955 1210 82 300 220/14G20 RMK AO2
14837KMSN MSN20031123160010211/23/03 16:00:31  5-MIN KMSN 232200Z 22012G20KT 10SM OVC016 04/02 A2956 1200 82 300 220/12G20 RMK AO2
14837KMSN MSN20031123160513211/23/03 16:05:31  5-MIN KMSN 232205Z 23011G19KT 200V260 10SM BKN016 BKN021 OVC031 04/02 A2955 1210 82 300 230/11G19 200V260 RMK AO2
14837KMSN MSN20031123161010911/23/03 16:10:31  5-MIN KMSN 232210Z 22012G19KT 10SM BKN018 OVC026 04/02 A2956 1200 82 300 220/12G19 RMK AO2
14837KMSN MSN20031123161510211/23/03 16:15:31  5-MIN KMSN 232215Z 23011G19KT 10SM OVC018 04/02 A2956 1200 82 300 230/11G19 RMK AO2
14837KMSN MSN20031123162010211/23/03 16:20:31  5-MIN KMSN 232220Z 24011G18KT 10SM OVC016 04/02 A2956 1200 82 300 240/11G18 RMK AO2
14837KMSN MSN20031123162510211/23/03 16:25:31  5-MIN KMSN 232225Z 22009G17KT 10SM OVC016 04/01 A2956 1200 79 300 220/09G17 RMK AO2
14837KMSN MSN20031123163010911/23/03 16:30:31  5-MIN KMSN 232230Z 23011G18KT 10SM BKN016 OVC023 04/01 A2956 1200 79 300 230/11G18 RMK AO2
14837KMSN MSN20031123163510911/23/03 16:35:31  5-MIN KMSN 232235Z 22012G18KT 10SM BKN016 OVC023 04/01 A2957 1190 79 200 220/12G18 RMK AO2
14837KMSN MSN20031123164012511/23/03 16:40:31  5-MIN KMSN 232240Z 23009G19KT 190V260 10SM BKN016 OVC023 04/01 A2956 1200 79 200 230/09G19 190V260 RMK AO2
14837KMSN MSN20031123164510911/23/03 16:45:31  5-MIN KMSN 232245Z 22010G19KT 10SM BKN016 OVC023 04/01 A2957 1190 82 200 220/10G19 RMK AO2
14837KMSN MSN20031123165012611/23/03 16:50:31  5-MIN KMSN 232250Z 22009G16KT 10SM SCT018 OVC023 04/01 A2956 1200 79 200 220/09G16 RMK AO2 SLP017 T00390006
14837KMSN MSN20031123165510911/23/03 16:55:31  5-MIN KMSN 232255Z 22010G16KT 10SM BKN022 OVC027 04/01 A2957 1190 82 200 220/10G16 RMK AO2
14837KMSN MSN20031123170012511/23/03 17:00:31  5-MIN KMSN 232300Z 24009G16KT 210V270 10SM BKN022 OVC027 04/01 A2957 1190 79 200 240/09G16 210V270 RMK AO2
14837KMSN MSN20031123170510911/23/03 17:05:31  5-MIN KMSN 232305Z 23013G17KT 10SM BKN022 OVC027 04/01 A2957 1190 79 200 230/13G17 RMK AO2
14837KMSN MSN20031123171012511/23/03 17:10:31  5-MIN KMSN 232310Z 23011G17KT 190V260 10SM SCT018 OVC025 04/01 A2956 1200 82 200 230/11G17 190V260 RMK AO2
14837KMSN MSN20031123171511611/23/03 17:15:31  5-MIN KMSN 232315Z 23010G16KT 10SM BKN018 BKN024 OVC028 04/01 A2958 1180 82 200 220/10G16 RMK AO2
14837KMSN MSN20031123172011611/23/03 17:20:31  5-MIN KMSN 232320Z 22011G18KT 10SM BKN018 BKN024 OVC028 04/01 A2958 1180 79 200 220/11G18 RMK AO2
14837KMSN MSN20031123172511611/23/03 17:25:31  5-MIN KMSN 232325Z 22011G18KT 10SM BKN015 BKN021 OVC028 03/01 A2957 1190 82 100 220/11G18 RMK AO2
14837KMSN MSN20031123173010911/23/03 17:30:31  5-MIN KMSN 232330Z 22012G20KT 10SM BKN015 OVC021 03/01 A2957 1190 82 100 220/12G20 RMK AO2
14837KMSN MSN20031123173510911/23/03 17:35:31  5-MIN KMSN 232335Z 22008G20KT 10SM BKN016 OVC021 03/01 A2958 1180 82 100 220/08G20 RMK AO2
14837KMSN MSN20031123174011811/23/03 17:40:31  5-MIN KMSN 232340Z 23010G20KT 190V250 10SM OVC016 03/01 A2958 1180 82 100 230/10G20 190V250 RMK AO2
14837KMSN MSN20031123174510211/23/03 17:45:31  5-MIN KMSN 232345Z 23015G18KT 10SM OVC016 03/01 A2957 1190 82 100 230/15G18 RMK AO2
14837KMSN MSN20031123175014311/23/03 17:50:31  5-MIN KMSN 232350Z 23011G18KT 10SM OVC016 03/01 A2958 1180 82 100 230/11G18 RMK AO2 SLP021 60000 T00330006 10139 20033 53024
14837KMSN MSN20031123175510011/23/03 17:55:31  5-MIN KMSN 232355Z 23010G17KT 10SM OVC016 03/01 A2958 1180 85 0 230/10G17 RMK AO2
14837KMSN MSN20031123180010011/23/03 18:00:31  5-MIN KMSN 240000Z 24008G17KT 10SM OVC016 03/00 A2957 1190 82 0 240/08G17 RMK AO2
14837KMSN MSN20031123180511611/23/03 18:05:31  5-MIN KMSN 240005Z 25010G17KT 210V280 10SM OVC016 03/00 A2957 1190 82 0 250/10G17 210V280 RMK AO2
14837KMSN MSN20031123181011611/23/03 18:10:31  5-MIN KMSN 240010Z 26009G17KT 220V300 10SM OVC014 03/00 A2958 1180 82 0 260/09G17 220V300 RMK AO2
14837KMSN MSN20031123181510111/23/03 18:15:31  5-MIN KMSN 240015Z 24013G18KT 10SM OVC014 03/M01 A2958 1180 79 0 240/13G18 RMK AO2
14837KMSN MSN20031123182011711/23/03 18:20:31  5-MIN KMSN 240020Z 25009G18KT 180V280 10SM OVC014 02/M01 A2959 1170 78 0 250/09G18 180V280 RMK AO2
14837KMSN MSN20031123182510811/23/03 18:25:31  5-MIN KMSN 240025Z 23011G20KT 10SM OVC014 02/M01 A2960 1170 78 0 230/11G20 RMK AO2 PRESRR
14837KMSN MSN20031123183010111/23/03 18:30:31  5-MIN KMSN 240030Z 24013G20KT 10SM OVC014 02/M02 A2960 1160 75 0 240/13G20 RMK AO2
14837KMSN MSN20031123183510111/23/03 18:35:31  5-MIN KMSN 240035Z 25015G20KT 10SM OVC018 02/M02 A2959 1170 72 0 250/15G20 RMK AO2
14837KMSN MSN20031123184010411/23/03 18:40:31  5-MIN KMSN 240040Z 24013G20KT 10SM OVC018 02/M02 A2960 1160 75 -100 240/13G20 RMK AO2
14837KMSN MSN20031123184510411/23/03 18:45:31  5-MIN KMSN 240045Z 25012G18KT 10SM OVC018 02/M02 A2960 1160 75 -100 250/12G18 RMK AO2
14837KMSN MSN20031123185012111/23/03 18:50:31  5-MIN KMSN 240050Z 26012G18KT 10SM OVC018 02/M02 A2960 1170 75 -100 260/12G18 RMK AO2 SLP028 T00171022
14837KMSN MSN20031123185510411/23/03 18:55:31  5-MIN KMSN 240055Z 25009G19KT 10SM OVC018 02/M02 A2960 1170 75 -100 250/09G19 RMK AO2
14837KMSN MSN20031123190010411/23/03 19:00:31  5-MIN KMSN 240100Z 25011G19KT 10SM OVC018 02/M02 A2960 1160 75 -100 250/11G19 RMK AO2
14837KMSN MSN20031123190510411/23/03 19:05:31  5-MIN KMSN 240105Z 24012G19KT 10SM OVC018 02/M02 A2961 1150 75 -100 240/12G19 RMK AO2
14837KMSN MSN20031123191010411/23/03 19:10:31  5-MIN KMSN 240110Z 23010G19KT 10SM OVC018 02/M02 A2961 1160 75 -100 230/10G19 RMK AO2
14837KMSN MSN20031123191512011/23/03 19:15:31  5-MIN KMSN 240115Z 24012G21KT 210V270 10SM OVC020 02/M03 A2961 1160 72 -100 230/12G21 210V270 RMK AO2
14837KMSN MSN20031123192012011/23/03 19:20:31  5-MIN KMSN 240120Z 23014G21KT 200V270 10SM OVC020 02/M03 A2960 1160 72 -100 230/14G21 200V270 RMK AO2
14837KMSN MSN20031123192510411/23/03 19:25:31  5-MIN KMSN 240125Z 24014G21KT 10SM OVC020 01/M03 A2960 1160 75 -200 240/14G21 RMK AO2
14837KMSN MSN20031123193012011/23/03 19:30:31  5-MIN KMSN 240130Z 24008G19KT 210V270 10SM OVC020 01/M03 A2960 1160 72 -200 240/08G19 210V270 RMK AO2
14837KMSN MSN20031123193510411/23/03 19:35:31  5-MIN KMSN 240135Z 22012G19KT 10SM OVC020 01/M03 A2960 1160 75 -200 220/12G19 RMK AO2
14837KMSN MSN20031123194011111/23/03 19:40:31  5-MIN KMSN 240140Z 22011G17KT 10SM BKN018 OVC023 01/M03 A2960 1170 75 -200 220/11G17 RMK AO2
14837KMSN MSN20031123194510411/23/03 19:45:31  5-MIN KMSN 240145Z 23014G18KT 10SM OVC018 01/M03 A2960 1160 75 -200 230/14G18 RMK AO2
14837KMSN MSN20031123195012111/23/03 19:50:31  5-MIN KMSN 240150Z 24013G18KT 10SM OVC018 01/M03 A2959 1170 75 -100 240/13G18 RMK AO2 SLP028 T00111028
14837KMSN MSN20031123195512011/23/03 19:55:31  5-MIN KMSN 240155Z 25008G18KT 220V290 10SM OVC018 01/M03 A2959 1170 75 -100 250/08G18 220V290 RMK AO2
14837KMSN MSN20031123200009811/23/03 20:00:31  5-MIN KMSN 240200Z 24009KT 10SM OVC016 01/M02 A2960 1170 82 -200 240/09 RMK AO2
14837KMSN MSN20031123200511411/23/03 20:05:31  5-MIN KMSN 240205Z 24008KT 210V290 10SM OVC016 01/M02 A2960 1160 82 -200 240/08 210V290 RMK AO2
14837KMSN MSN20031123201012011/23/03 20:10:31  5-MIN KMSN 240210Z 26010G19KT 220V280 10SM OVC016 01/M03 A2960 1160 78 -200 260/10G19 220V280 RMK AO2
14837KMSN MSN20031123201512011/23/03 20:15:31  5-MIN KMSN 240215Z 24009G19KT 210V270 10SM OVC018 01/M03 A2961 1150 75 -200 240/09G19 210V270 RMK AO2
14837KMSN MSN20031123202010411/23/03 20:20:31  5-MIN KMSN 240220Z 25011G19KT 10SM OVC018 01/M03 A2960 1160 75 -200 250/11G19 RMK AO2
14837KMSN MSN20031123202510411/23/03 20:25:31  5-MIN KMSN 240225Z 24011G19KT 10SM OVC018 00/M03 A2960 1160 78 -300 230/11G19 RMK AO2
14837KMSN MSN20031123203010411/23/03 20:30:31  5-MIN KMSN 240230Z 23011G19KT 10SM OVC018 00/M03 A2961 1160 78 -300 230/11G19 RMK AO2
14837KMSN MSN20031123203512011/23/03 20:35:31  5-MIN KMSN 240235Z 24010G19KT 200V260 10SM OVC018 00/M03 A2960 1160 78 -300 230/10G19 200V260 RMK AO2
14837KMSN MSN20031123204010411/23/03 20:40:31  5-MIN KMSN 240240Z 24013G19KT 10SM OVC016 00/M03 A2960 1160 78 -300 240/13G19 RMK AO2
14837KMSN MSN20031123204510411/23/03 20:45:31  5-MIN KMSN 240245Z 23012G19KT 10SM OVC016 00/M04 A2960 1160 75 -300 230/12G19 RMK AO2
14837KMSN MSN20031123205012711/23/03 20:50:31  5-MIN KMSN 240250Z 24011G19KT 10SM OVC016 00/M03 A2961 1160 78 -300 230/11G19 RMK AO2 SLP031 T00001033 51017
14837KMSN MSN20031123205510411/23/03 20:55:31  5-MIN KMSN 240255Z 23012G18KT 10SM OVC016 00/M03 A2960 1160 78 -300 230/12G18 RMK AO2
14837KMSN MSN20031123210010411/23/03 21:00:31  5-MIN KMSN 240300Z 24013G18KT 10SM OVC016 00/M04 A2961 1160 75 -300 240/13G18 RMK AO2
14837KMSN MSN20031123210510511/23/03 21:05:31  5-MIN KMSN 240305Z 25012G19KT 10SM OVC016 M01/M04 A2961 1150 75 -400 250/12G19 RMK AO2
14837KMSN MSN20031123211010511/23/03 21:10:31  5-MIN KMSN 240310Z 25010G19KT 10SM OVC016 M01/M04 A2961 1150 75 -400 250/10G19 RMK AO2
14837KMSN MSN20031123211510511/23/03 21:15:31  5-MIN KMSN 240315Z VRB06G16KT 10SM OVC016 M01/M04 A2961 1150 78 -400 VRB/06G16 RMK AO2
14837KMSN MSN20031123212010511/23/03 21:20:31  5-MIN KMSN 240320Z 25012G17KT 10SM OVC016 M01/M04 A2961 1150 75 -400 250/12G17 RMK AO2
14837KMSN MSN20031123212512111/23/03 21:25:31  5-MIN KMSN 240325Z 25009G20KT 210V290 10SM OVC016 M01/M04 A2961 1150 75 -400 250/09G20 210V290 RMK AO2
14837KMSN MSN20031123213010511/23/03 21:30:31  5-MIN KMSN 240330Z 24009G20KT 10SM OVC016 M01/M04 A2961 1150 75 -400 240/09G20 RMK AO2
14837KMSN MSN20031123213510511/23/03 21:35:31  5-MIN KMSN 240335Z 25012G17KT 10SM OVC016 M01/M04 A2962 1150 78 -500 250/12G17 RMK AO2
14837KMSN MSN20031123214010511/23/03 21:40:31  5-MIN KMSN 240340Z 24012G17KT 10SM OVC016 M01/M04 A2962 1150 78 -500 240/12G17 RMK AO2
14837KMSN MSN20031123214512111/23/03 21:45:31  5-MIN KMSN 240345Z 25012G18KT 230V290 10SM OVC016 M01/M04 A2962 1150 78 -500 250/12G18 230V290 RMK AO2
14837KMSN MSN20031123215012211/23/03 21:50:31  5-MIN KMSN 240350Z 24009G18KT 10SM OVC016 M01/M04 A2962 1140 78 -500 240/09G18 RMK AO2 SLP035 T10111044
14837KMSN MSN20031123215512111/23/03 21:55:31  5-MIN KMSN 240355Z 25008G15KT 210V280 10SM OVC016 M01/M04 A2962 1140 78 -500 250/08G15 210V280 RMK AO2
14837KMSN MSN20031123220010511/23/03 22:00:31  5-MIN KMSN 240400Z 25010G15KT 10SM OVC016 M01/M04 A2962 1140 78 -500 250/10G15 RMK AO2
14837KMSN MSN20031123220510511/23/03 22:05:31  5-MIN KMSN 240405Z 23012G18KT 10SM OVC016 M01/M04 A2962 1140 78 -500 220/12G18 RMK AO2
14837KMSN MSN20031123221012111/23/03 22:10:31  5-MIN KMSN 240410Z 24010G19KT 170V270 10SM OVC016 M01/M05 A2962 1140 75 -500 230/10G19 170V270 RMK AO2
14837KMSN MSN20031123221510511/23/03 22:15:31  5-MIN KMSN 240415Z 23009G19KT 10SM OVC016 M01/M05 A2963 1140 75 -500 230/09G19 RMK AO2
14837KMSN MSN20031123222010511/23/03 22:20:31  5-MIN KMSN 240420Z 22013G17KT 10SM OVC016 M02/M05 A2963 1140 78 -500 220/13G17 RMK AO2
14837KMSN MSN20031123222510511/23/03 22:25:31  5-MIN KMSN 240425Z 23010G19KT 10SM OVC016 M02/M05 A2963 1130 78 -500 230/10G19 RMK AO2
14837KMSN MSN20031123223010511/23/03 22:30:31  5-MIN KMSN 240430Z 24010G19KT 10SM OVC016 M02/M05 A2963 1130 78 -500 230/10G19 RMK AO2
14837KMSN MSN20031123223512111/23/03 22:35:31  5-MIN KMSN 240435Z 25011G18KT 10SM -SN OVC016 M02/M05 A2963 1140 78 -500 250/11G18 RMK AO2 SNB32 P0000
14837KMSN MSN20031123224013611/23/03 22:40:31  5-MIN KMSN 240440Z 25009G18KT 210V290 9SM -SN OVC016 M02/M06 A2963 1140 75 -500 250/09G18 210V290 RMK AO2 SNB32 P0000
14837KMSN MSN20031123224512011/23/03 22:45:31  5-MIN KMSN 240445Z 26009G19KT 9SM -SN OVC016 M02/M06 A2963 1140 75 -500 260/09G19 RMK AO2 SNB32 P0000
14837KMSN MSN20031123225013711/23/03 22:50:31  5-MIN KMSN 240450Z 26010G19KT 9SM -SN OVC016 M02/M06 A2963 1140 75 -600 260/10G19 RMK AO2 SNB32 SLP038 P0000 T10221061
14837KMSN MSN20031123225511411/23/03 22:55:31  5-MIN KMSN 240455Z 27010G18KT 9SM -SN OVC016 M02/M06 A2963 1140 75 -600 270/10G18 RMK AO2 P0000
14837KMSN MSN20031123230011411/23/03 23:00:31  5-MIN KMSN 240500Z 27010G16KT 9SM -SN OVC016 M02/M06 A2962 1140 75 -600 270/10G16 RMK AO2 P0000
14837KMSN MSN20031123230511411/23/03 23:05:31  5-MIN KMSN 240505Z 27011G16KT 9SM -SN OVC016 M02/M06 A2962 1140 75 -600 260/11G16 RMK AO2 P0000
14837KMSN MSN20031123231011411/23/03 23:10:31  5-MIN KMSN 240510Z 25010G16KT 9SM -SN OVC016 M02/M06 A2962 1140 75 -600 250/10G16 RMK AO2 P0000
14837KMSN MSN20031123231511411/23/03 23:15:31  5-MIN KMSN 240515Z 27011G19KT 9SM -SN OVC016 M02/M06 A2963 1140 75 -600 260/11G19 RMK AO2 P0000
14837KMSN MSN20031123232011411/23/03 23:20:31  5-MIN KMSN 240520Z 25012G19KT 9SM -SN OVC016 M03/M07 A2963 1130 75 -700 250/12G19 RMK AO2 P0000
14837KMSN MSN20031123232511411/23/03 23:25:31  5-MIN KMSN 240525Z 24012G18KT 9SM -SN OVC016 M03/M07 A2963 1130 75 -700 240/12G18 RMK AO2 P0000
14837KMSN MSN20031123233012111/23/03 23:30:31  5-MIN KMSN 240530Z 25010G18KT 9SM -SN BKN016 OVC021 M03/M07 A2963 1130 75 -700 250/10G18 RMK AO2 P0000
14837KMSN MSN20031123233510811/23/03 23:35:31  5-MIN KMSN 240535Z 26010KT 9SM -SN OVC016 M03/M07 A2963 1130 71 -700 260/10 RMK AO2 P0000
14837KMSN MSN20031123234011411/23/03 23:40:31  5-MIN KMSN 240540Z 26010G16KT 9SM -SN OVC016 M03/M07 A2963 1130 71 -700 260/10G16 RMK AO2 P0000
14837KMSN MSN20031123234511411/23/03 23:45:31  5-MIN KMSN 240545Z 26009G17KT 9SM -SN OVC016 M03/M07 A2963 1130 74 -800 260/09G17 RMK AO2 P0000
14837KMSN MSN20031123235016511/23/03 23:50:31  5-MIN KMSN 240550Z 28012G20KT 9SM -SN OVC018 M03/M08 A2963 1130 71 -800 280/12G20 RMK AO2 SLP039 P0000 60000 T10331078 10028 21033 401391033 51010
14837KMSN MSN20031123235513011/23/03 23:55:31  5-MIN KMSN 240555Z 27009G20KT 230V320 9SM -SN OVC018 M03/M08 A2963 1130 71 -800 270/09G20 230V320 RMK AO2 P0000
14837KMSN MSN20031124000011411/24/03 00:00:31  5-MIN KMSN 240600Z 28011G16KT 9SM -SN OVC018 M03/M08 A2964 1130 71 -800 280/11G16 RMK AO2 P0000
14837KMSN MSN20031124000511411/24/03 00:05:31  5-MIN KMSN 240605Z 27011G16KT 9SM -SN OVC018 M03/M08 A2964 1130 71 -800 270/11G16 RMK AO2 P0000
14837KMSN MSN20031124001011411/24/03 00:10:31  5-MIN KMSN 240610Z 25009G16KT 9SM -SN OVC018 M03/M07 A2964 1120 74 -800 250/09G16 RMK AO2 P0000
14837KMSN MSN20031124001510811/24/03 00:15:31  5-MIN KMSN 240615Z 24011KT 9SM -SN OVC018 M03/M07 A2965 1120 74 -800 240/11 RMK AO2 P0000
14837KMSN MSN20031124002013011/24/03 00:20:31  5-MIN KMSN 240620Z 26007G16KT 230V320 9SM -SN OVC018 M03/M07 A2965 1120 74 -800 260/07G16 230V320 RMK AO2 P0000
14837KMSN MSN20031124002513011/24/03 00:25:31  5-MIN KMSN 240625Z 25008G17KT 200V290 9SM -SN OVC018 M04/M07 A2965 1110 78 -800 250/08G17 200V290 RMK AO2 P0000
14837KMSN MSN20031124003013011/24/03 00:30:31  5-MIN KMSN 240630Z 23010G17KT 200V270 9SM -SN OVC018 M04/M08 A2965 1110 74 -800 230/10G17 200V270 RMK AO2 P0000
14837KMSN MSN20031124003513011/24/03 00:35:31  5-MIN KMSN 240635Z 26011G18KT 230V300 9SM -SN OVC018 M04/M08 A2966 1110 74 -900 260/11G18 230V300 RMK AO2 P0000
14837KMSN MSN20031124004013011/24/03 00:40:31  5-MIN KMSN 240640Z 28009G18KT 240V300 9SM -SN OVC018 M04/M08 A2966 1110 74 -900 280/09G18 240V300 RMK AO2 P0000
14837KMSN MSN20031124004511411/24/03 00:45:31  5-MIN KMSN 240645Z 28013G16KT 9SM -SN OVC018 M04/M08 A2966 1110 74 -900 280/13G16 RMK AO2 P0000
14837KMSN MSN20031124005013811/24/03 00:50:31  5-MIN KMSN 240650Z 27010G17KT 9SM -SN BKN018 OVC023 M04/M08 A2966 1110 71 -900 270/10G17 RMK AO2 SLP049 P0000 T10391083
14837KMSN MSN20031124005511411/24/03 00:55:31  5-MIN KMSN 240655Z 28013G20KT 9SM -SN OVC020 M04/M09 A2966 1110 71 -900 280/13G20 RMK AO2 P0000
14837KMSN MSN20031124010011411/24/03 01:00:31  5-MIN KMSN 240700Z 28009G20KT 9SM -SN OVC020 M04/M09 A2966 1110 71 -900 280/09G20 RMK AO2 P0000
14837KMSN MSN20031124010513711/24/03 01:05:31  5-MIN KMSN 240705Z 26010G17KT 230V290 9SM -SN BKN022 OVC028 M04/M09 A2966 1110 68 -900 260/10G17 230V290 RMK AO2 P0000
14837KMSN MSN20031124011013711/24/03 01:10:31  5-MIN KMSN 240710Z 26009G17KT 230V290 8SM -SN BKN023 OVC028 M04/M09 A2966 1110 68 -900 260/09G17 230V290 RMK AO2 P0000
14837KMSN MSN20031124011512111/24/03 01:15:31  5-MIN KMSN 240715Z 26012G19KT 7SM -SN BKN026 OVC031 M04/M09 A2966 1100 71 -900 260/12G19 RMK AO2 P0000
14837KMSN MSN20031124012012111/24/03 01:20:31  5-MIN KMSN 240720Z 27008G19KT 7SM -SN BKN026 OVC031 M04/M09 A2966 1100 68 -900 270/08G19 RMK AO2 P0000
14837KMSN MSN20031124012511411/24/03 01:25:31  5-MIN KMSN 240725Z 26013G19KT 8SM -SN OVC029 M04/M10 A2966 1110 65 -900 260/13G19 RMK AO2 P0000
14837KMSN MSN20031124013013011/24/03 01:30:31  5-MIN KMSN 240730Z 27009G19KT 230V290 8SM -SN OVC029 M04/M09 A2966 1110 68 -900 270/09G19 230V290 RMK AO2 P0000
14837KMSN MSN20031124013510811/24/03 01:35:31  5-MIN KMSN 240735Z 27009KT 7SM -SN OVC029 M04/M09 A2966 1110 71 -900 270/09 RMK AO2 P0000
14837KMSN MSN20031124014013711/24/03 01:40:31  5-MIN KMSN 240740Z 26012G18KT 230V300 5SM -SN SCT023 OVC030 M04/M08 A2966 1100 74 -900 260/12G18 230V300 RMK AO2 P0000
14837KMSN MSN20031124014512111/24/03 01:45:31  5-MIN KMSN 240745Z 26011G18KT 4SM -SN BKN021 OVC030 M04/M08 A2966 1100 74 -900 260/11G18 RMK AO2 P0000
14837KMSN MSN20031124015015411/24/03 01:50:31  5-MIN KMSN 240750Z 26010G15KT 220V280 4SM -SN BKN021 OVC028 M04/M08 A2966 1110 74 -900 260/10G15 220V280 RMK AO2 SLP052 P0000 T10441083
14837KMSN MSN20031124015512211/24/03 01:55:31  5-MIN KMSN 240755Z 26012G17KT 6SM -SN BKN021 OVC029 M05/M08 A2966 1100 77 -1000 260/12G17 RMK AO2 P0000
14837KMSN MSN20031124020011511/24/03 02:00:31  5-MIN KMSN 240800Z 26009G17KT 7SM -SN OVC023 M05/M09 A2966 1100 74 -1000 260/09G17 RMK AO2 P0000
14837KMSN MSN20031124020513111/24/03 02:05:31  5-MIN KMSN 240805Z 28014G18KT 250V320 9SM -SN OVC023 M05/M09 A2966 1100 71 -1000 280/14G18 250V320 RMK AO2 P0000
14837KMSN MSN20031124021011511/24/03 02:10:31  5-MIN KMSN 240810Z 27012G19KT 9SM -SN OVC023 M05/M10 A2966 1100 68 -1000 260/12G19 RMK AO2 P0000
14837KMSN MSN20031124021513111/24/03 02:15:31  5-MIN KMSN 240815Z 25010G19KT 210V270 9SM -SN OVC023 M05/M10 A2966 1110 68 -1000 250/10G19 210V270 RMK AO2 P0000
14837KMSN MSN20031124022012211/24/03 02:20:31  5-MIN KMSN 240820Z 27012G20KT 9SM -SN BKN023 OVC031 M05/M10 A2966 1110 68 -1000 270/12G20 RMK AO2 P0000
14837KMSN MSN20031124022512211/24/03 02:25:31  5-MIN KMSN 240825Z 28012G20KT 9SM -SN BKN023 OVC031 M06/M11 A2966 1110 68 -1100 280/12G20 RMK AO2 P0000
14837KMSN MSN20031124023012211/24/03 02:30:31  5-MIN KMSN 240830Z 28014G19KT 9SM -SN BKN025 OVC031 M06/M11 A2966 1110 68 -1100 270/14G19 RMK AO2 P0000
14837KMSN MSN20031124023512211/24/03 02:35:31  5-MIN KMSN 240835Z 26008G19KT 9SM -SN BKN025 OVC031 M06/M10 A2967 1100 71 -1100 260/08G19 RMK AO2 P0000
14837KMSN MSN20031124024011511/24/03 02:40:31  5-MIN KMSN 240840Z 28013G18KT 9SM -SN OVC025 M06/M10 A2966 1100 71 -1100 270/13G18 RMK AO2 P0000
14837KMSN MSN20031124024513111/24/03 02:45:31  5-MIN KMSN 240845Z 26007G18KT 220V290 9SM -SN OVC025 M06/M10 A2966 1100 71 -1100 260/07G18 220V290 RMK AO2 P0000
14837KMSN MSN20031124025014411/24/03 02:50:31  5-MIN KMSN 240850Z 28009G17KT 9SM -SN OVC025 M06/M09 A2967 1100 74 -1100 280/09G17 RMK AO2 SLP055 P0000 60000 T10561094 51009
14837KMSN MSN20031124025511511/24/03 02:55:31  5-MIN KMSN 240855Z 27012G16KT 9SM -SN OVC025 M06/M09 A2967 1100 74 -1100 270/12G16 RMK AO2 P0000
14837KMSN MSN20031124030013111/24/03 03:00:31  5-MIN KMSN 240900Z 27010G16KT 240V300 9SM -SN OVC025 M06/M10 A2967 1100 71 -1100 270/10G16 240V300 RMK AO2 P0000
14837KMSN MSN20031124030511511/24/03 03:05:31  5-MIN KMSN 240905Z 27009G16KT 9SM -SN OVC025 M06/M10 A2967 1100 71 -1100 270/09G16 RMK AO2 P0000
14837KMSN MSN20031124031011511/24/03 03:10:31  5-MIN KMSN 240910Z 26010G17KT 9SM -SN OVC025 M06/M10 A2967 1100 71 -1100 260/10G17 RMK AO2 P0000
14837KMSN MSN20031124031511511/24/03 03:15:31  5-MIN KMSN 240915Z 26008G17KT 9SM -SN OVC025 M06/M10 A2967 1100 71 -1100 260/08G17 RMK AO2 P0000
14837KMSN MSN20031124032012511/24/03 03:20:31  5-MIN KMSN 240920Z 26009KT 230V300 7SM -SN OVC025 M06/M09 A2967 1100 74 -1100 260/09 230V300 RMK AO2 P0000
14837KMSN MSN20031124032510911/24/03 03:25:31  5-MIN KMSN 240925Z 27007KT 5SM -SN OVC023 M06/M09 A2967 1090 74 -1100 270/07 RMK AO2 P0000
14837KMSN MSN20031124033011511/24/03 03:30:31  5-MIN KMSN 240930Z 27012G15KT 4SM -SN OVC023 M06/M09 A2967 1100 77 -1100 270/12G15 RMK AO2 P0000
14837KMSN MSN20031124033511511/24/03 03:35:31  5-MIN KMSN 240935Z 27012G15KT 5SM -SN OVC023 M06/M09 A2967 1100 74 -1100 270/12G15 RMK AO2 P0000
14837KMSN MSN20031124034011511/24/03 03:40:31  5-MIN KMSN 240940Z 26011G15KT 5SM -SN OVC023 M06/M09 A2967 1090 74 -1100 260/11G15 RMK AO2 P0000
14837KMSN MSN20031124034511611/24/03 03:45:31  5-MIN KMSN 240945Z 26009KT 5SM -SN BKN021 OVC026 M06/M09 A2967 1100 74 -1100 260/09 RMK AO2 P0000
14837KMSN MSN20031124035013911/24/03 03:50:31  5-MIN KMSN 240950Z 26010G16KT 7SM -SN SCT021 OVC028 M06/M10 A2967 1100 71 -1100 250/10G16 RMK AO2 SLP057 P0000 T10561100
14837KMSN MSN20031124035512211/24/03 03:55:31  5-MIN KMSN 240955Z 25011G17KT 9SM -SN SCT025 OVC031 M06/M11 A2967 1090 68 -1200 250/11G17 RMK AO2 P0000
14837KMSN MSN20031124040012911/24/03 04:00:31  5-MIN KMSN 241000Z 26011G18KT 9SM -SN FEW020 SCT025 OVC031 M06/M11 A2968 1090 68 -1200 260/11G18 RMK AO2 P0000
14837KMSN MSN20031124040512211/24/03 04:05:31  5-MIN KMSN 241005Z 26011G18KT 8SM -SN SCT022 OVC031 M06/M11 A2968 1090 68 -1200 260/11G18 RMK AO2 P0000
14837KMSN MSN20031124041012211/24/03 04:10:31  5-MIN KMSN 241010Z 26011G20KT 8SM -SN FEW020 OVC033 M06/M11 A2968 1090 68 -1200 250/11G20 RMK AO2 P0000
14837KMSN MSN20031124041512211/24/03 04:15:31  5-MIN KMSN 241015Z 26012G20KT 9SM -SN FEW025 OVC033 M06/M11 A2968 1090 68 -1200 260/12G20 RMK AO2 P0000
14837KMSN MSN20031124042013811/24/03 04:20:31  5-MIN KMSN 241020Z 26011G21KT 220V290 9SM -SN FEW023 OVC033 M06/M11 A2968 1090 68 -1200 260/11G21 220V290 RMK AO2 P0000
14837KMSN MSN20031124042512211/24/03 04:25:31  5-MIN KMSN 241025Z 26011G21KT 6SM -SN FEW023 OVC033 M06/M11 A2968 1080 71 -1200 260/11G21 RMK AO2 P0000
14837KMSN MSN20031124043012211/24/03 04:30:31  5-MIN KMSN 241030Z 25012G19KT 5SM -SN FEW024 OVC033 M06/M11 A2968 1080 71 -1200 250/12G19 RMK AO2 P0000
14837KMSN MSN20031124043513811/24/03 04:35:31  5-MIN KMSN 241035Z 26008G17KT 230V300 6SM -SN FEW024 OVC035 M07/M11 A2969 1080 74 -1200 260/08G17 230V300 RMK AO2 P0000
14837KMSN MSN20031124044012211/24/03 04:40:31  5-MIN KMSN 241040Z 24014G19KT 8SM -SN FEW024 OVC035 M07/M11 A2969 1080 71 -1200 240/14G19 RMK AO2 P0000
14837KMSN MSN20031124044512211/24/03 04:45:31  5-MIN KMSN 241045Z 25011G19KT 8SM -SN FEW024 OVC035 M07/M12 A2969 1080 68 -1200 250/11G19 RMK AO2 P0000
14837KMSN MSN20031124045013911/24/03 04:50:31  5-MIN KMSN 241050Z 27013G18KT 9SM -SN FEW022 OVC035 M07/M12 A2969 1080 68 -1200 270/13G18 RMK AO2 SLP062 P0000 T10671117
14837KMSN MSN20031124045512211/24/03 04:55:31  5-MIN KMSN 241055Z 26012G16KT 9SM -SN FEW024 OVC035 M07/M12 A2968 1080 68 -1200 260/12G16 RMK AO2 P0000
14837KMSN MSN20031124050011511/24/03 05:00:31  5-MIN KMSN 241100Z 27008G16KT 9SM -SN OVC035 M07/M12 A2968 1080 68 -1200 270/08G16 RMK AO2 P0000
14837KMSN MSN20031124050513211/24/03 05:05:31  5-MIN KMSN 241105Z 25007KT 190V280 9SM -SN FEW026 OVC035 M07/M12 A2968 1080 68 -1200 250/07 190V280 RMK AO2 P0000
14837KMSN MSN20031124051012211/24/03 05:10:31  5-MIN KMSN 241110Z 25012G17KT 7SM -SN FEW026 OVC035 M07/M12 A2968 1080 68 -1200 250/12G17 RMK AO2 P0000
14837KMSN MSN20031124051513811/24/03 05:15:31  5-MIN KMSN 241115Z 27008G19KT 230V290 6SM -SN FEW026 OVC035 M07/M11 A2968 1080 71 -1200 270/08G19 230V290 RMK AO2 P0000
14837KMSN MSN20031124052013811/24/03 05:20:31  5-MIN KMSN 241120Z 26009G19KT 230V290 8SM -SN FEW023 OVC035 M07/M12 A2969 1080 71 -1300 260/09G19 230V290 RMK AO2 P0000
14837KMSN MSN20031124052512211/24/03 05:25:31  5-MIN KMSN 241125Z 28012G20KT 9SM -SN SCT026 OVC035 M07/M12 A2969 1080 68 -1300 270/12G20 RMK AO2 P0000
14837KMSN MSN20031124053012211/24/03 05:30:31  5-MIN KMSN 241130Z 27012G20KT 9SM -SN FEW026 OVC035 M07/M13 A2969 1080 65 -1300 270/12G20 RMK AO2 P0000
14837KMSN MSN20031124053512911/24/03 05:35:31  5-MIN KMSN 241135Z 26015G20KT 9SM -SN FEW023 BKN030 OVC037 M07/M13 A2969 1080 65 -1300 260/15G20 RMK AO2 P0000
14837KMSN MSN20031124054012211/24/03 05:40:31  5-MIN KMSN 241140Z 26009G20KT 9SM -SN BKN028 OVC038 M07/M13 A2969 1080 65 -1300 260/09G20 RMK AO2 P0000
14837KMSN MSN20031124054512911/24/03 05:45:31  5-MIN KMSN 241145Z 27013G17KT 9SM -SN SCT024 BKN031 OVC038 M07/M12 A2969 1080 68 -1300 270/13G17 RMK AO2 P0000
14837KMSN MSN20031124055017611/24/03 05:50:31  5-MIN KMSN 241150Z 26010G17KT 9SM -SN SCT024 BKN030 OVC037 M07/M12 A2969 1070 68 -1300 260/10G17 RMK AO2 SLP065 P0000 60000 70041 T10721122 11033 21072 51011
14837KMSN MSN20031124055514511/24/03 05:55:31  5-MIN KMSN 241155Z 26013G19KT 230V300 9SM -SN SCT025 BKN031 OVC038 M07/M12 A2970 1070 68 -1300 260/13G19 230V300 RMK AO2 P0000
14837KMSN MSN20031124060012211/24/03 06:00:31  5-MIN KMSN 241200Z 27011G19KT 9SM -SN SCT025 OVC033 M08/M12 A2969 1080 71 -1400 270/11G19 RMK AO2 P0000
14837KMSN MSN20031124060512211/24/03 06:05:31  5-MIN KMSN 241205Z 27011G18KT 8SM -SN SCT025 OVC031 M08/M12 A2970 1070 71 -1400 270/11G18 RMK AO2 P0000
14837KMSN MSN20031124061013811/24/03 06:10:31  5-MIN KMSN 241210Z 26012G18KT 230V290 7SM -SN BKN025 OVC031 M08/M12 A2970 1070 71 -1400 260/12G18 230V290 RMK AO2 P0000
14837KMSN MSN20031124061512211/24/03 06:15:31  5-MIN KMSN 241215Z 27008G17KT 6SM -SN BKN025 OVC031 M08/M12 A2970 1070 71 -1400 270/08G17 RMK AO2 P0000
14837KMSN MSN20031124062012211/24/03 06:20:31  5-MIN KMSN 241220Z 28012G17KT 6SM -SN SCT025 OVC031 M08/M12 A2970 1070 74 -1400 280/12G17 RMK AO2 P0000
14837KMSN MSN20031124062512211/24/03 06:25:31  5-MIN KMSN 241225Z 27013G24KT 5SM -SN BKN025 OVC031 M08/M12 A2970 1070 71 -1400 270/13G24 RMK AO2 P0000
14837KMSN MSN20031124063012211/24/03 06:30:31  5-MIN KMSN 241230Z 27013G24KT 4SM -SN BKN025 OVC032 M08/M13 A2970 1070 67 -1400 270/13G24 RMK AO2 P0000
14837KMSN MSN20031124063512211/24/03 06:35:31  5-MIN KMSN 241235Z 27013G20KT 5SM -SN SCT025 OVC032 M08/M13 A2970 1060 67 -1400 270/13G20 RMK AO2 P0000
14837KMSN MSN20031124064012211/24/03 06:40:31  5-MIN KMSN 241240Z 27012G19KT 6SM -SN FEW025 OVC032 M08/M13 A2971 1060 67 -1400 270/12G19 RMK AO2 P0000
14837KMSN MSN20031124064513811/24/03 06:45:31  5-MIN KMSN 241245Z 26011G19KT 240V300 7SM -SN SCT025 OVC032 M08/M12 A2971 1060 71 -1400 260/11G19 240V300 RMK AO2 P0000
14837KMSN MSN20031124065013911/24/03 06:50:31  5-MIN KMSN 241250Z 26011G19KT 8SM -SN BKN025 OVC032 M08/M13 A2971 1060 67 -1400 260/11G19 RMK AO2 SLP072 P0000 T10781128
14837KMSN MSN20031124065512211/24/03 06:55:31  5-MIN KMSN 241255Z 27013G20KT 9SM -SN SCT025 OVC032 M08/M13 A2971 1060 67 -1400 270/13G20 RMK AO2 P0000
14837KMSN MSN20031124070011511/24/03 07:00:31  5-MIN KMSN 241300Z 27011G20KT 9SM -SN OVC030 M08/M13 A2972 1050 64 -1400 270/11G20 RMK AO2 P0000
14837KMSN MSN20031124070512211/24/03 07:05:31  5-MIN KMSN 241305Z 28013G22KT 9SM -SN FEW026 OVC033 M08/M13 A2972 1050 64 -1400 270/13G22 RMK AO2 P0000
14837KMSN MSN20031124071012411/24/03 07:10:31  5-MIN KMSN 241310Z 26011G22KT 9SM SCT026 OVC033 M08/M14 A2972 1050 62 -1400 260/11G22 RMK AO2 SNE06 P0000
14837KMSN MSN20031124071512511/24/03 07:15:31  5-MIN KMSN 241315Z 28011G16KT 10SM BKN030 OVC035 M08/M13 A2972 1050 64 -1400 270/11G16 RMK AO2 SNE06 P0000
14837KMSN MSN20031124072014111/24/03 07:20:31  5-MIN KMSN 241320Z 26011G21KT 230V290 10SM BKN030 OVC035 M08/M14 A2973 1040 62 -1400 260/11G21 230V290 RMK AO2 SNE06 P0000
14837KMSN MSN20031124072514111/24/03 07:25:31  5-MIN KMSN 241325Z 27017G24KT 230V300 10SM BKN030 OVC035 M08/M14 A2973 1040 62 -1400 270/17G24 230V300 RMK AO2 SNE06 P0000
14837KMSN MSN20031124073012511/24/03 07:30:31  5-MIN KMSN 241330Z 26010G24KT 10SM BKN030 OVC035 M08/M14 A2973 1040 64 -1500 260/10G24 RMK AO2 SNE06 P0000
14837KMSN MSN20031124073512511/24/03 07:35:31  5-MIN KMSN 241335Z 26010G18KT 10SM BKN030 BKN035 M08/M14 A2973 1040 64 -1500 260/10G18 RMK AO2 SNE06 P0000
14837KMSN MSN20031124074014111/24/03 07:40:31  5-MIN KMSN 241340Z 26012G19KT 230V290 10SM BKN028 BKN033 M08/M14 A2973 1040 64 -1500 260/12G19 230V290 RMK AO2 SNE06 P0000
14837KMSN MSN20031124074512511/24/03 07:45:31  5-MIN KMSN 241345Z 28012G19KT 10SM SCT028 BKN033 M08/M14 A2973 1040 64 -1500 280/12G19 RMK AO2 SNE06 P0000
14837KMSN MSN20031124075014211/24/03 07:50:31  5-MIN KMSN 241350Z 26012G19KT 10SM SCT028 SCT033 M08/M14 A2973 1040 62 -1400 260/12G19 RMK AO2 SNE06 SLP080 P0000 T10781139
14837KMSN MSN20031124075511311/24/03 07:55:31  5-MIN KMSN 241355Z 27009G21KT 10SM FEW028 SCT033 M08/M14 A2974 1040 62 -1400 260/09G21 RMK AO2
14837KMSN MSN20031124080011311/24/03 08:00:31  5-MIN KMSN 241400Z 27009G21KT 10SM FEW028 SCT033 M08/M13 A2974 1040 64 -1400 270/09G21 RMK AO2
14837KMSN MSN20031124080511311/24/03 08:05:31  5-MIN KMSN 241405Z 26008G14KT 10SM FEW028 BKN035 M08/M13 A2973 1040 64 -1400 260/08G14 RMK AO2
14837KMSN MSN20031124081012811/24/03 08:10:31  5-MIN KMSN 241410Z 25013G19KT 8SM -SN FEW028 BKN037 M08/M13 A2973 1040 64 -1400 250/13G19 RMK AO2 SNB07 P0000
14837KMSN MSN20031124081513511/24/03 08:15:31  5-MIN KMSN 241415Z 27013G19KT 3SM -SN FEW019 SCT030 BKN039 M08/M12 A2973 1040 71 -1400 260/13G19 RMK AO2 SNB07 P0000
14837KMSN MSN20031124082013511/24/03 08:20:31  5-MIN KMSN 241420Z 25009G18KT 2SM -SN SCT019 SCT029 OVC038 M08/M12 A2974 1040 74 -1400 240/09G18 RMK AO2 SNB07 P0000
14837KMSN MSN20031124082514911/24/03 08:25:31  5-MIN KMSN 241425Z 25011G17KT 1 1/2SM -SN SCT019 BKN029 OVC040 M08/M11 A2974 1030 77 -1400 250/11G17 RMK AO2 TWR VIS 2 SNB07 P0000
14837KMSN MSN20031124083015111/24/03 08:30:31  5-MIN KMSN 241430Z 25009G18KT 220V290 2SM -SN SCT018 BKN029 OVC040 M08/M11 A2974 1030 77 -1500 250/09G18 220V290 RMK AO2 SNB07 P0000
14837KMSN MSN20031124083516111/24/03 08:35:31  5-MIN KMSN 241435Z 26007G18KT 230V290 3SM -SN SCT018 BKN029 OVC038 M08/M12 A2974 1030 74 -1500 260/07G18 230V290 RMK AO2 SFC VIS 5 SNB07 P0000
14837KMSN MSN20031124084013511/24/03 08:40:31  5-MIN KMSN 241440Z 26008G17KT 6SM -SN SCT018 BKN027 OVC036 M08/M12 A2974 1030 74 -1400 260/08G17 RMK AO2 SNB07 P0000
14837KMSN MSN20031124084513511/24/03 08:45:31  5-MIN KMSN 241445Z 27015G20KT 6SM -SN SCT020 BKN027 OVC040 M08/M12 A2974 1030 71 -1400 270/15G20 RMK AO2 SNB07 P0000
14837KMSN MSN20031124085015211/24/03 08:50:31  5-MIN KMSN 241450Z 27012G20KT 6SM -SN SCT020 BKN027 OVC037 M08/M13 A2974 1030 64 -1400 260/12G20 RMK AO2 SNB07 SLP082 T10781133 53010
14837KMSN MSN20031124085512911/24/03 08:55:31  5-MIN KMSN 241455Z 26010G18KT 6SM -SN FEW020 BKN027 OVC037 M08/M13 A2974 1030 67 -1500 260/10G18 RMK AO2 P0000
14837KMSN MSN20031124090012211/24/03 09:00:31  5-MIN KMSN 241500Z 25012G18KT 6SM -SN BKN027 OVC035 M08/M13 A2974 1030 67 -1500 250/12G18 RMK AO2 P0000
14837KMSN MSN20031124090513811/24/03 09:05:31  5-MIN KMSN 241505Z 25011G22KT 210V280 6SM -SN FEW025 OVC033 M08/M13 A2974 1030 67 -1500 250/11G22 210V280 RMK AO2 P0000
14837KMSN MSN20031124091012211/24/03 09:10:31  5-MIN KMSN 241510Z 26013G22KT 9SM -SN BKN030 OVC039 M08/M13 A2975 1030 67 -1500 260/13G22 RMK AO2 P0000
14837KMSN MSN20031124091512211/24/03 09:15:31  5-MIN KMSN 241515Z 26013G19KT 9SM -SN BKN028 OVC035 M08/M13 A2975 1020 64 -1500 260/13G19 RMK AO2 P0000
14837KMSN MSN20031124092013111/24/03 09:20:31  5-MIN KMSN 241520Z 25008G19KT 220V290 9SM -SN OVC030 M08/M13 A2975 1020 64 -1500 250/08G19 220V290 RMK AO2 P0000
14837KMSN MSN20031124092512211/24/03 09:25:31  5-MIN KMSN 241525Z 25012G20KT 9SM -SN BKN030 OVC037 M08/M13 A2975 1020 64 -1500 250/12G20 RMK AO2 P0000
14837KMSN MSN20031124093011511/24/03 09:30:31  5-MIN KMSN 241530Z 27012G21KT 9SM -SN BKN030 M08/M13 A2975 1020 64 -1500 270/12G21 RMK AO2 P0000
14837KMSN MSN20031124093513111/24/03 09:35:31  5-MIN KMSN 241535Z 25010G21KT 210V280 9SM -SN BKN030 M07/M13 A2975 1020 62 -1400 250/10G21 210V280 RMK AO2 P0000
14837KMSN MSN20031124094011511/24/03 09:40:31  5-MIN KMSN 241540Z 26010G18KT 9SM -SN BKN030 M07/M13 A2975 1020 62 -1400 260/10G18 RMK AO2 P0000
14837KMSN MSN20031124094512411/24/03 09:45:31  5-MIN KMSN 241545Z 26015G21KT 9SM BKN027 OVC034 M08/M14 A2975 1020 62 -1500 260/15G21 RMK AO2 SNE43 P0000
14837KMSN MSN20031124095014211/24/03 09:50:31  5-MIN KMSN 241550Z 27013G24KT 10SM BKN029 OVC036 M08/M14 A2976 1020 59 -1500 270/13G24 RMK AO2 SNE43 SLP089 P0000 T10781144
14837KMSN MSN20031124095511311/24/03 09:55:31  5-MIN KMSN 241555Z 28011G24KT 10SM SCT028 OVC034 M08/M14 A2976 1020 62 -1500 280/11G24 RMK AO2
14837KMSN MSN20031124100012211/24/03 10:00:31  5-MIN KMSN 241600Z 27010G20KT 210V300 10SM BKN030 M08/M14 A2976 1010 62 -1500 270/10G20 210V300 RMK AO2
14837KMSN MSN20031124100512111/24/03 10:05:31  5-MIN KMSN 241605Z 27010G18KT 9SM -SN BKN030 M08/M13 A2976 1010 64 -1500 260/10G18 RMK AO2 SNB01 P0000
14837KMSN MSN20031124101012811/24/03 10:10:31  5-MIN KMSN 241610Z 27014G22KT 9SM -SN BKN030 BKN036 M08/M13 A2976 1010 64 -1500 260/14G22 RMK AO2 SNB01 P0000
14837KMSN MSN20031124101512811/24/03 10:15:31  5-MIN KMSN 241615Z 27012G22KT 9SM -SN BKN030 OVC036 M08/M14 A2976 1010 62 -1500 270/12G22 RMK AO2 SNB01 P0000
14837KMSN MSN20031124102012811/24/03 10:20:31  5-MIN KMSN 241620Z 26012G22KT 7SM -SN BKN030 OVC036 M08/M13 A2976 1010 64 -1500 260/12G22 RMK AO2 SNB01 P0000
14837KMSN MSN20031124102514411/24/03 10:25:31  5-MIN KMSN 241625Z 27012G21KT 230V300 7SM -SN BKN028 OVC036 M08/M13 A2976 1010 64 -1500 270/12G21 230V300 RMK AO2 SNB01 P0000
14837KMSN MSN20031124103014411/24/03 10:30:31  5-MIN KMSN 241630Z 24012G18KT 220V280 6SM -SN BKN028 BKN036 M07/M13 A2976 1010 65 -1400 240/12G18 220V280 RMK AO2 SNB01 P0000
14837KMSN MSN20031124103513511/24/03 10:35:31  5-MIN KMSN 241635Z 26012G20KT 4SM -SN SCT024 BKN029 OVC036 M08/M12 A2976 1010 71 -1500 260/12G20 RMK AO2 SNB01 P0000
14837KMSN MSN20031124104012811/24/03 10:40:31  5-MIN KMSN 241640Z 26013G20KT 4SM -SN BKN026 OVC033 M08/M13 A2976 1010 67 -1500 260/13G20 RMK AO2 SNB01 P0000
14837KMSN MSN20031124104512811/24/03 10:45:31  5-MIN KMSN 241645Z 25013G20KT 5SM -SN BKN028 OVC035 M08/M13 A2976 1010 67 -1500 250/13G20 RMK AO2 SNB01 P0000
14837KMSN MSN20031124105016111/24/03 10:50:31  5-MIN KMSN 241650Z 25012G23KT 230V300 5SM -SN BKN028 OVC035 M08/M13 A2976 1010 64 -1500 250/12G23 230V300 RMK AO2 SNB01 SLP090 P0000 T10781133
14837KMSN MSN20031124105512211/24/03 10:55:31  5-MIN KMSN 241655Z 27013G23KT 7SM -SN SCT025 OVC030 M08/M13 A2976 1010 64 -1500 270/13G23 RMK AO2 P0000
14837KMSN MSN20031124110013111/24/03 11:00:31  5-MIN KMSN 241700Z 25012G20KT 220V280 8SM -SN BKN028 M08/M13 A2976 1010 64 -1500 250/12G20 220V280 RMK AO2 P0000
14837KMSN MSN20031124110513811/24/03 11:05:31  5-MIN KMSN 241705Z 26013G19KT 220V280 8SM -SN BKN028 OVC034 M08/M13 A2976 1010 64 -1500 260/13G19 220V280 RMK AO2 P0000
14837KMSN MSN20031124111013811/24/03 11:10:31  5-MIN KMSN 241710Z 26010G19KT 220V290 8SM -SN BKN028 OVC034 M08/M13 A2976 1010 64 -1500 260/10G19 220V290 RMK AO2 P0000
14837KMSN MSN20031124111511511/24/03 11:15:31  5-MIN KMSN 241715Z 28014G23KT 8SM -SN OVC028 M07/M13 A2976 1010 62 -1400 280/14G23 RMK AO2 P0000
14837KMSN MSN20031124112013111/24/03 11:20:31  5-MIN KMSN 241720Z 28012G23KT 250V320 9SM -SN OVC028 M07/M13 A2976 1010 62 -1400 280/12G23 250V320 RMK AO2 P0000
14837KMSN MSN20031124112512211/24/03 11:25:31  5-MIN KMSN 241725Z 27014G21KT 9SM -SN BKN028 OVC033 M07/M13 A2976 1010 62 -1400 270/14G21 RMK AO2 P0000
14837KMSN MSN20031124113012211/24/03 11:30:31  5-MIN KMSN 241730Z 28013G19KT 9SM -SN BKN030 OVC035 M07/M13 A2976 1010 62 -1400 270/13G19 RMK AO2 P0000
14837KMSN MSN20031124113511511/24/03 11:35:31  5-MIN KMSN 241735Z 27013G19KT 9SM -SN BKN030 M07/M13 A2976 1010 59 -1300 270/13G19 RMK AO2 P0000
14837KMSN MSN20031124114011511/24/03 11:40:31  5-MIN KMSN 241740Z 25012G19KT 9SM -SN BKN030 M07/M14 A2976 1010 59 -1400 250/12G19 RMK AO2 P0000
14837KMSN MSN20031124114511511/24/03 11:45:31  5-MIN KMSN 241745Z 27014G23KT 9SM -SN BKN030 M07/M14 A2976 1010 59 -1400 270/14G23 RMK AO2 P0000
14837KMSN MSN20031124115015611/24/03 11:50:31  5-MIN KMSN 241750Z 26013G23KT 9SM -SN BKN030 M07/M14 A2976 1010 59 -1400 260/13G23 RMK AO2 SLP092 P0000 60001 T10721139 11067 21083 51014
14837KMSN MSN20031124115510511/24/03 11:55:31  5-MIN KMSN 241755Z 27011G20KT 9SM OVC030 M07/M13 A2976 1010 62 -1400 270/11G20 RMK AO2
14837KMSN MSN20031124120012211/24/03 12:00:31  5-MIN KMSN 241800Z 26011G20KT 230V290 10SM OVC030 M07/M13 A2976 1010 62 -1400 260/11G20 230V290 RMK AO2
14837KMSN MSN20031124120510611/24/03 12:05:31  5-MIN KMSN 241805Z 26015G21KT 10SM OVC030 M07/M13 A2976 1010 59 -1300 260/15G21 RMK AO2
14837KMSN MSN20031124121010611/24/03 12:10:31  5-MIN KMSN 241810Z 27012G21KT 10SM OVC030 M06/M13 A2976 1010 57 -1300 270/12G21 RMK AO2
14837KMSN MSN20031124121510611/24/03 12:15:31  5-MIN KMSN 241815Z 28016G24KT 10SM OVC030 M07/M13 A2976 1010 59 -1300 280/16G24 RMK AO2
14837KMSN MSN20031124122011311/24/03 12:20:31  5-MIN KMSN 241820Z 27018G24KT 10SM BKN029 OVC034 M07/M13 A2976 1010 59 -1300 270/18G24 RMK AO2
14837KMSN MSN20031124122510611/24/03 12:25:31  5-MIN KMSN 241825Z 26010G24KT 10SM BKN030 M06/M13 A2977 1010 57 -1300 260/10G24 RMK AO2
14837KMSN MSN20031124123011311/24/03 12:30:31  5-MIN KMSN 241830Z 26013G21KT 10SM BKN030 OVC035 M06/M13 A2977 1010 57 -1300 260/13G21 RMK AO2
14837KMSN MSN20031124123513111/24/03 12:35:31  5-MIN KMSN 241835Z 26013G27KT 10SM BKN030 OVC035 M07/M13 A2977 1000 59 -1300 260/13G27 RMK AO2 PK WND 28027/1832
14837KMSN MSN20031124124013111/24/03 12:40:31  5-MIN KMSN 241840Z 26013G27KT 10SM BKN030 OVC035 M07/M13 A2977 1000 59 -1300 260/13G27 RMK AO2 PK WND 28027/1832
14837KMSN MSN20031124124513111/24/03 12:45:31  5-MIN KMSN 241845Z 27013G24KT 10SM BKN030 OVC035 M07/M13 A2977 1010 59 -1300 270/13G24 RMK AO2 PK WND 28027/1832
14837KMSN MSN20031124125016411/24/03 12:50:31  5-MIN KMSN 241850Z 26013G19KT 230V300 10SM BKN030 OVC035 M07/M13 A2977 1000 59 -1300 260/13G19 230V300 RMK AO2 PK WND 28027/1832 SLP094 T10671133
14837KMSN MSN20031124125512911/24/03 12:55:31  5-MIN KMSN 241855Z 27013G23KT 240V300 10SM SCT030 BKN035 M07/M13 A2977 1000 59 -1300 270/13G23 240V300 RMK AO2
14837KMSN MSN20031124130012411/24/03 13:00:31  5-MIN KMSN 241900Z 26013G26KT 10SM OVC035 M06/M13 A2977 1000 57 -1300 260/13G26 RMK AO2 PK WND 26026/1857
14837KMSN MSN20031124130514711/24/03 13:05:31  5-MIN KMSN 241905Z 26016G26KT 240V300 10SM FEW028 OVC035 M06/M13 A2977 1000 57 -1300 260/16G26 240V300 RMK AO2 PK WND 26026/1857
14837KMSN MSN20031124131012411/24/03 13:10:31  5-MIN KMSN 241910Z 27018G25KT 10SM OVC035 M06/M13 A2977 1000 57 -1300 270/18G25 RMK AO2 PK WND 26026/1857
14837KMSN MSN20031124131514011/24/03 13:15:31  5-MIN KMSN 241915Z 27011G25KT 230V290 10SM OVC035 M06/M13 A2977 1000 57 -1300 270/11G25 230V290 RMK AO2 PK WND 26026/1857
14837KMSN MSN20031124132012411/24/03 13:20:31  5-MIN KMSN 241920Z 26014G23KT 10SM BKN035 M06/M13 A2977 1000 57 -1300 260/14G23 RMK AO2 PK WND 26026/1857
14837KMSN MSN20031124132512411/24/03 13:25:31  5-MIN KMSN 241925Z 27014G23KT 10SM BKN035 M06/M13 A2978 1000 59 -1300 270/14G23 RMK AO2 PK WND 26026/1857
14837KMSN MSN20031124133012411/24/03 13:30:31  5-MIN KMSN 241930Z 28011G23KT 10SM BKN035 M06/M13 A2978 1000 57 -1200 280/11G23 RMK AO2 PK WND 26026/1857
14837KMSN MSN20031124133512411/24/03 13:35:31  5-MIN KMSN 241935Z 27012G21KT 10SM BKN035 M05/M12 A2977 1000 57 -1100 270/12G21 RMK AO2 PK WND 26026/1857
14837KMSN MSN20031124134012411/24/03 13:40:31  5-MIN KMSN 241940Z 28014G20KT 10SM BKN035 M05/M13 A2977 1000 55 -1100 270/14G20 RMK AO2 PK WND 26026/1857
14837KMSN MSN20031124134512411/24/03 13:45:31  5-MIN KMSN 241945Z 26012G20KT 10SM BKN035 M05/M13 A2977 1000 55 -1100 260/12G20 RMK AO2 PK WND 26026/1857
14837KMSN MSN20031124135014111/24/03 13:50:31  5-MIN KMSN 241950Z 27015G24KT 10SM BKN035 M05/M12 A2977 1000 57 -1100 270/15G24 RMK AO2 PK WND 26026/1857 SLP095 T10501122
14837KMSN MSN20031124135512211/24/03 13:55:31  5-MIN KMSN 241955Z 27012G24KT 230V310 10SM BKN032 M05/M13 A2977 1000 55 -1100 270/12G24 230V310 RMK AO2
14837KMSN MSN20031124140010611/24/03 14:00:31  5-MIN KMSN 242000Z 26013G20KT 10SM BKN032 M04/M12 A2977 1000 55 -1100 260/13G20 RMK AO2
14837KMSN MSN20031124140510611/24/03 14:05:31  5-MIN KMSN 242005Z 26014G21KT 10SM BKN032 M05/M12 A2978 1000 60 -1100 260/14G21 RMK AO2
14837KMSN MSN20031124141010611/24/03 14:10:31  5-MIN KMSN 242010Z 27011G21KT 10SM BKN032 M05/M12 A2978 1000 57 -1100 270/11G21 RMK AO2
14837KMSN MSN20031124141512211/24/03 14:15:31  5-MIN KMSN 242015Z 25012G21KT 190V280 10SM SCT032 M05/M12 A2978 1000 57 -1100 250/12G21 190V280 RMK AO2
14837KMSN MSN20031124142010511/24/03 14:20:31  5-MIN KMSN 242020Z 26013G21KT 10SM SCT032 M05/M12 A2978 990 57 -1100 250/13G21 RMK AO2
14837KMSN MSN20031124142510611/24/03 14:25:31  5-MIN KMSN 242025Z 26010G21KT 10SM SCT032 M05/M12 A2978 1000 57 -1100 260/10G21 RMK AO2
14837KMSN MSN20031124143010611/24/03 14:30:31  5-MIN KMSN 242030Z 27010G23KT 10SM FEW029 M05/M12 A2978 1000 60 -1100 270/10G23 RMK AO2
14837KMSN MSN20031124143512411/24/03 14:35:31  5-MIN KMSN 242035Z 27014G27KT 10SM FEW029 M04/M12 A2978 1000 57 -1100 270/14G27 RMK AO2 PK WND 26027/2031
14837KMSN MSN20031124144012311/24/03 14:40:31  5-MIN KMSN 242040Z 27015G27KT 10SM FEW027 M04/M12 A2978 990 57 -1100 270/15G27 RMK AO2 PK WND 26027/2031
14837KMSN MSN20031124144512011/24/03 14:45:31  5-MIN KMSN 242045Z 26013G22KT 10SM CLR M04/M12 A2978 990 57 -1100 260/13G22 RMK AO2 PK WND 26027/2031
14837KMSN MSN20031124145015911/24/03 14:50:31  5-MIN KMSN 242050Z 25011G20KT 220V280 10SM CLR M04/M12 A2979 990 57 -1100 250/11G20 220V280 RMK AO2 PK WND 26027/2031 SLP099 T10441117 51008
14837KMSN MSN20031124145510511/24/03 14:55:31  5-MIN KMSN 242055Z 25010G19KT 10SM FEW030 M04/M12 A2979 990 55 -1000 250/10G19 RMK AO2
14837KMSN MSN20031124150010511/24/03 15:00:31  5-MIN KMSN 242100Z 28012G16KT 10SM FEW030 M04/M12 A2979 990 55 -1000 280/12G16 RMK AO2
14837KMSN MSN20031124150510511/24/03 15:05:31  5-MIN KMSN 242105Z 27013G19KT 10SM FEW030 M04/M12 A2979 990 55 -1000 270/13G19 RMK AO2
14837KMSN MSN20031124151012111/24/03 15:10:31  5-MIN KMSN 242110Z 26011G19KT 210V300 10SM FEW030 M04/M12 A2979 980 55 -1000 260/11G19 210V300 RMK AO2
14837KMSN MSN20031124151512111/24/03 15:15:31  5-MIN KMSN 242115Z 26011G19KT 230V300 10SM FEW030 M04/M12 A2980 980 55 -1000 260/11G19 230V300 RMK AO2
14837KMSN MSN20031124152010511/24/03 15:20:31  5-MIN KMSN 242120Z 26013G22KT 10SM FEW030 M04/M12 A2980 980 55 -1000 260/13G22 RMK AO2
14837KMSN MSN20031124152510511/24/03 15:25:31  5-MIN KMSN 242125Z 27011G22KT 10SM FEW030 M04/M12 A2980 980 55 -1000 270/11G22 RMK AO2
14837KMSN MSN20031124153012111/24/03 15:30:31  5-MIN KMSN 242130Z 26011G20KT 210V290 10SM FEW030 M04/M11 A2980 980 57 -1000 260/11G20 210V290 RMK AO2
14837KMSN MSN20031124153510511/24/03 15:35:31  5-MIN KMSN 242135Z 26014G24KT 10SM FEW030 M04/M12 A2980 970 55 -1000 260/14G24 RMK AO2
14837KMSN MSN20031124154010511/24/03 15:40:31  5-MIN KMSN 242140Z 26012G24KT 10SM FEW030 M04/M12 A2981 970 55 -1000 260/12G24 RMK AO2
14837KMSN MSN20031124154510511/24/03 15:45:31  5-MIN KMSN 242145Z 25011G21KT 10SM FEW030 M04/M11 A2981 970 57 -1000 250/11G21 RMK AO2
14837KMSN MSN20031124155012211/24/03 15:50:31  5-MIN KMSN 242150Z 27012G18KT 10SM FEW030 M04/M11 A2981 970 57 -1000 270/12G18 RMK AO2 SLP106 T10391111
14837KMSN MSN20031124155509611/24/03 15:55:31  5-MIN KMSN 242155Z 26011KT 10SM CLR M04/M11 A2981 970 57 -1000 260/11 RMK AO2
14837KMSN MSN20031124160012111/24/03 16:00:31  5-MIN KMSN 242200Z 25009G16KT 220V290 10SM FEW030 M04/M11 A2981 960 57 -1000 250/09G16 220V290 RMK AO2
14837KMSN MSN20031124160510511/24/03 16:05:31  5-MIN KMSN 242205Z 27010G20KT 10SM FEW030 M04/M11 A2982 960 57 -1000 270/10G20 RMK AO2
14837KMSN MSN20031124161010511/24/03 16:10:31  5-MIN KMSN 242210Z 26012G20KT 10SM FEW030 M04/M11 A2982 960 60 -1000 260/12G20 RMK AO2
14837KMSN MSN20031124161510511/24/03 16:15:31  5-MIN KMSN 242215Z 27011G20KT 10SM FEW030 M04/M11 A2982 960 57 -1000 270/11G20 RMK AO2
14837KMSN MSN20031124162010511/24/03 16:20:31  5-MIN KMSN 242220Z 25011G16KT 10SM FEW030 M04/M11 A2982 960 57 -1000 250/11G16 RMK AO2
14837KMSN MSN20031124162510511/24/03 16:25:31  5-MIN KMSN 242225Z 26009G16KT 10SM FEW030 M04/M11 A2982 960 60 -1000 260/09G16 RMK AO2
14837KMSN MSN20031124163009911/24/03 16:30:31  5-MIN KMSN 242230Z 26009KT 10SM FEW030 M04/M11 A2982 960 57 -1000 250/09 RMK AO2
14837KMSN MSN20031124163512111/24/03 16:35:31  5-MIN KMSN 242235Z 25013G22KT 210V280 10SM FEW030 M04/M11 A2983 950 57 -1100 250/13G22 210V280 RMK AO2
14837KMSN MSN20031124164010511/24/03 16:40:31  5-MIN KMSN 242240Z 25008G22KT 10SM FEW030 M04/M11 A2983 950 57 -1100 250/08G22 RMK AO2
14837KMSN MSN20031124164511811/24/03 16:45:31  5-MIN KMSN 242245Z 25008G15KT 210V280 10SM CLR M04/M11 A2983 950 57 -1100 250/08G15 210V280 RMK AO2
14837KMSN MSN20031124165011911/24/03 16:50:31  5-MIN KMSN 242250Z 25012G18KT 10SM CLR M04/M11 A2983 940 57 -1100 250/12G18 RMK AO2 SLP116 T10391111
14837KMSN MSN20031124165510211/24/03 16:55:31  5-MIN KMSN 242255Z 26012G19KT 10SM CLR M04/M12 A2984 940 55 -1100 260/12G19 RMK AO2
14837KMSN MSN20031124170010211/24/03 17:00:31  5-MIN KMSN 242300Z 25009G19KT 10SM CLR M04/M12 A2984 940 55 -1100 250/09G19 RMK AO2
14837KMSN MSN20031124170510211/24/03 17:05:31  5-MIN KMSN 242305Z 26010G17KT 10SM CLR M04/M12 A2984 940 55 -1100 260/10G17 RMK AO2
14837KMSN MSN20031124171010211/24/03 17:10:31  5-MIN KMSN 242310Z 25009G17KT 10SM CLR M04/M12 A2985 930 52 -1100 250/09G17 RMK AO2
14837KMSN MSN20031124171511811/24/03 17:15:31  5-MIN KMSN 242315Z 25008G14KT 220V290 10SM CLR M04/M12 A2985 930 55 -1100 250/08G14 220V290 RMK AO2
14837KMSN MSN20031124172011811/24/03 17:20:31  5-MIN KMSN 242320Z 25007G14KT 220V290 10SM CLR M04/M12 A2985 930 55 -1100 250/07G14 220V290 RMK AO2
14837KMSN MSN20031124172511211/24/03 17:25:31  5-MIN KMSN 242325Z 26007KT 210V290 10SM CLR M04/M12 A2986 920 55 -1100 250/07 210V290 RMK AO2
14837KMSN MSN20031124173010211/24/03 17:30:31  5-MIN KMSN 242330Z 25009G15KT 10SM CLR M04/M12 A2986 920 55 -1100 250/09G15 RMK AO2
14837KMSN MSN20031124173510211/24/03 17:35:31  5-MIN KMSN 242335Z 25011G17KT 10SM CLR M04/M12 A2986 920 55 -1100 250/11G17 RMK AO2
14837KMSN MSN20031124174011811/24/03 17:40:31  5-MIN KMSN 242340Z 26009G17KT 220V300 10SM CLR M04/M12 A2986 920 52 -1100 260/09G17 220V300 RMK AO2
14837KMSN MSN20031124174509611/24/03 17:45:31  5-MIN KMSN 242345Z 25007KT 10SM CLR M04/M13 A2987 910 52 -1200 250/07 RMK AO2
14837KMSN MSN20031124175015311/24/03 17:50:31  5-MIN KMSN 242350Z 26009G14KT 220V280 10SM CLR M04/M12 A2987 910 55 -1200 250/09G14 220V280 RMK AO2 SLP127 T10441122 11039 21072 53007
14837KMSN MSN20031124175511811/24/03 17:55:31  5-MIN KMSN 242355Z 25010G15KT 220V280 10SM CLR M04/M13 A2987 910 52 -1200 250/10G15 220V280 RMK AO2
14837KMSN MSN20031124180010211/24/03 18:00:31  5-MIN KMSN 250000Z 25008G16KT 10SM CLR M04/M13 A2987 910 52 -1200 240/08G16 RMK AO2
14837KMSN MSN20031124180510211/24/03 18:05:31  5-MIN KMSN 250005Z 25010G16KT 10SM CLR M04/M13 A2988 900 50 -1200 250/10G16 RMK AO2
14837KMSN MSN20031124181011811/24/03 18:10:31  5-MIN KMSN 250010Z 25010G16KT 220V290 10SM CLR M04/M13 A2988 900 50 -1200 250/10G16 220V290 RMK AO2
14837KMSN MSN20031124181510211/24/03 18:15:31  5-MIN KMSN 250015Z 25010G17KT 10SM CLR M04/M13 A2988 910 50 -1200 250/10G17 RMK AO2
14837KMSN MSN20031124182010211/24/03 18:20:31  5-MIN KMSN 250020Z 25009G17KT 10SM CLR M04/M13 A2988 900 50 -1200 250/09G17 RMK AO2
14837KMSN MSN20031124182511211/24/03 18:25:31  5-MIN KMSN 250025Z 25007KT 210V280 10SM CLR M04/M13 A2988 900 50 -1200 250/07 210V280 RMK AO2
14837KMSN MSN20031124183011211/24/03 18:30:31  5-MIN KMSN 250030Z 25008KT 220V280 10SM CLR M04/M13 A2988 900 50 -1200 250/08 220V280 RMK AO2
14837KMSN MSN20031124183509611/24/03 18:35:31  5-MIN KMSN 250035Z 25009KT 10SM CLR M04/M14 A2988 900 48 -1200 250/09 RMK AO2
14837KMSN MSN20031124184009611/24/03 18:40:31  5-MIN KMSN 250040Z 25010KT 10SM CLR M04/M13 A2988 900 50 -1200 250/10 RMK AO2
14837KMSN MSN20031124184510211/24/03 18:45:31  5-MIN KMSN 250045Z 25010G15KT 10SM CLR M04/M13 A2988 900 50 -1200 240/10G15 RMK AO2
14837KMSN MSN20031124185013511/24/03 18:50:31  5-MIN KMSN 250050Z 24007G15KT 210V270 10SM CLR M04/M13 A2989 900 50 -1200 240/07G15 210V270 RMK AO2 SLP134 T10441133
14837KMSN MSN20031124185511211/24/03 18:55:31  5-MIN KMSN 250055Z 25008KT 210V280 10SM CLR M04/M14 A2989 890 48 -1200 240/08 210V280 RMK AO2
14837KMSN MSN20031124190010211/24/03 19:00:31  5-MIN KMSN 250100Z 24009G16KT 10SM CLR M04/M14 A2989 890 48 -1200 240/09G16 RMK AO2
14837KMSN MSN20031124190510211/24/03 19:05:31  5-MIN KMSN 250105Z 25010G16KT 10SM CLR M04/M13 A2990 890 50 -1200 250/10G16 RMK AO2
14837KMSN MSN20031124191011811/24/03 19:10:31  5-MIN KMSN 250110Z 25008G14KT 230V290 10SM CLR M04/M13 A2990 890 50 -1200 240/08G14 230V290 RMK AO2
14837KMSN MSN20031124191510211/24/03 19:15:31  5-MIN KMSN 250115Z 24010G16KT 10SM CLR M04/M13 A2990 890 52 -1200 240/10G16 RMK AO2
14837KMSN MSN20031124192011811/24/03 19:20:31  5-MIN KMSN 250120Z 25009G21KT 210V280 10SM CLR M04/M13 A2990 880 52 -1200 250/09G21 210V280 RMK AO2
14837KMSN MSN20031124192510211/24/03 19:25:31  5-MIN KMSN 250125Z 24010G21KT 10SM CLR M04/M13 A2990 880 52 -1200 240/10G21 RMK AO2
14837KMSN MSN20031124193010211/24/03 19:30:31  5-MIN KMSN 250130Z 25010G16KT 10SM CLR M04/M13 A2990 880 52 -1200 250/10G16 RMK AO2
14837KMSN MSN20031124193511811/24/03 19:35:31  5-MIN KMSN 250135Z 25010G18KT 220V280 10SM CLR M04/M13 A2990 880 52 -1200 250/10G18 220V280 RMK AO2
14837KMSN MSN20031124194011811/24/03 19:40:31  5-MIN KMSN 250140Z 23010G18KT 200V270 10SM CLR M04/M13 A2991 880 52 -1200 230/10G18 200V270 RMK AO2
14837KMSN MSN20031124194510211/24/03 19:45:31  5-MIN KMSN 250145Z 25010G16KT 10SM CLR M05/M13 A2991 880 55 -1300 250/10G16 RMK AO2
14837KMSN MSN20031124195013511/24/03 19:50:31  5-MIN KMSN 250150Z 25009G16KT 220V290 10SM CLR M05/M13 A2991 880 55 -1300 250/09G16 220V290 RMK AO2 SLP142 T10501128
14837KMSN MSN20031124195510211/24/03 19:55:31  5-MIN KMSN 250155Z 25009G17KT 10SM CLR M05/M13 A2991 870 55 -1300 250/09G17 RMK AO2
14837KMSN MSN20031124200010211/24/03 20:00:31  5-MIN KMSN 250200Z 24010G17KT 10SM CLR M05/M13 A2991 870 55 -1300 240/10G17 RMK AO2
14837KMSN MSN20031124200511811/24/03 20:05:31  5-MIN KMSN 250205Z 25008G17KT 220V290 10SM CLR M05/M13 A2991 870 55 -1300 250/08G17 220V290 RMK AO2
14837KMSN MSN20031124201009611/24/03 20:10:31  5-MIN KMSN 250210Z 24009KT 10SM CLR M05/M13 A2991 870 55 -1300 240/09 RMK AO2
14837KMSN MSN20031124201509611/24/03 20:15:31  5-MIN KMSN 250215Z 24010KT 10SM CLR M05/M13 A2991 870 55 -1300 240/10 RMK AO2
14837KMSN MSN20031124202010211/24/03 20:20:31  5-MIN KMSN 250220Z 25009G14KT 10SM CLR M05/M13 A2991 870 55 -1300 250/09G14 RMK AO2
14837KMSN MSN20031124202510211/24/03 20:25:31  5-MIN KMSN 250225Z 26009G14KT 10SM CLR M05/M13 A2991 870 55 -1300 260/09G14 RMK AO2
14837KMSN MSN20031124203010211/24/03 20:30:31  5-MIN KMSN 250230Z 25009G17KT 10SM CLR M05/M13 A2991 870 55 -1300 250/09G17 RMK AO2
14837KMSN MSN20031124203510211/24/03 20:35:31  5-MIN KMSN 250235Z 25008G17KT 10SM CLR M06/M13 A2992 870 57 -1400 250/08G17 RMK AO2
14837KMSN MSN20031124204009611/24/03 20:40:31  5-MIN KMSN 250240Z 25008KT 10SM CLR M05/M13 A2992 870 55 -1300 250/08 RMK AO2
14837KMSN MSN20031124204511811/24/03 20:45:31  5-MIN KMSN 250245Z 25009G14KT 210V280 10SM CLR M06/M13 A2992 870 57 -1400 250/09G14 210V280 RMK AO2
14837KMSN MSN20031124205012511/24/03 20:50:31  5-MIN KMSN 250250Z 24006G14KT 10SM CLR M06/M13 A2992 860 57 -1400 240/06G14 RMK AO2 SLP146 T10561128 53028
14837KMSN MSN20031124205511811/24/03 20:55:31  5-MIN KMSN 250255Z 24010G14KT 210V280 10SM CLR M06/M13 A2992 860 57 -1400 240/10G14 210V280 RMK AO2
14837KMSN MSN20031124210010211/24/03 21:00:31  5-MIN KMSN 250300Z 25010G14KT 10SM CLR M05/M13 A2992 860 55 -1300 250/10G14 RMK AO2
14837KMSN MSN20031124210511811/24/03 21:05:31  5-MIN KMSN 250305Z 24009G16KT 200V280 10SM CLR M06/M13 A2992 860 54 -1400 240/09G16 200V280 RMK AO2
14837KMSN MSN20031124211011811/24/03 21:10:31  5-MIN KMSN 250310Z 25008G16KT 210V270 10SM CLR M06/M13 A2992 860 54 -1400 250/08G16 210V270 RMK AO2
14837KMSN MSN20031124211511211/24/03 21:15:31  5-MIN KMSN 250315Z 23008KT 200V260 10SM CLR M06/M13 A2992 860 57 -1400 230/08 200V260 RMK AO2
14837KMSN MSN20031124212009611/24/03 21:20:31  5-MIN KMSN 250320Z 24009KT 10SM CLR M06/M13 A2992 860 57 -1400 240/09 RMK AO2
14837KMSN MSN20031124212511211/24/03 21:25:31  5-MIN KMSN 250325Z 25009KT 230V290 10SM CLR M06/M13 A2992 870 57 -1400 250/09 230V290 RMK AO2
14837KMSN MSN20031124213010211/24/03 21:30:31  5-MIN KMSN 250330Z 24010G15KT 10SM CLR M06/M13 A2992 870 57 -1400 240/10G15 RMK AO2
14837KMSN MSN20031124213510211/24/03 21:35:31  5-MIN KMSN 250335Z 23010G15KT 10SM CLR M06/M13 A2992 870 57 -1400 230/10G15 RMK AO2
14837KMSN MSN20031124214011811/24/03 21:40:31  5-MIN KMSN 250340Z 24010G16KT 210V280 10SM CLR M06/M13 A2992 870 57 -1400 240/10G16 210V280 RMK AO2
14837KMSN MSN20031124214510211/24/03 21:45:31  5-MIN KMSN 250345Z 24010G16KT 10SM CLR M06/M13 A2992 870 57 -1400 240/10G16 RMK AO2
14837KMSN MSN20031124215011911/24/03 21:50:31  5-MIN KMSN 250350Z 23009G16KT 10SM CLR M06/M13 A2992 870 57 -1400 230/09G16 RMK AO2 SLP146 T10561128
14837KMSN MSN20031124215510211/24/03 21:55:31  5-MIN KMSN 250355Z 24008G15KT 10SM CLR M06/M13 A2992 870 57 -1400 240/08G15 RMK AO2
14837KMSN MSN20031124220009611/24/03 22:00:31  5-MIN KMSN 250400Z 24008KT 10SM CLR M06/M13 A2992 860 57 -1400 240/08 RMK AO2
14837KMSN MSN20031124220509611/24/03 22:05:31  5-MIN KMSN 250405Z 24010KT 10SM CLR M06/M12 A2992 860 59 -1400 240/10 RMK AO2
14837KMSN MSN20031124221010211/24/03 22:10:31  5-MIN KMSN 250410Z 24010G18KT 10SM CLR M06/M13 A2993 860 57 -1400 240/10G18 RMK AO2
14837KMSN MSN20031124221511811/24/03 22:15:31  5-MIN KMSN 250415Z 24007G18KT 210V300 10SM CLR M06/M12 A2993 860 62 -1400 240/07G18 210V300 RMK AO2
14837KMSN MSN20031124222010211/24/03 22:20:31  5-MIN KMSN 250420Z 25008G15KT 10SM CLR M06/M12 A2993 860 62 -1400 250/08G15 RMK AO2
14837KMSN MSN20031124222510211/24/03 22:25:31  5-MIN KMSN 250425Z 24009G15KT 10SM CLR M06/M12 A2993 860 62 -1400 240/09G15 RMK AO2
14837KMSN MSN20031124223010211/24/03 22:30:31  5-MIN KMSN 250430Z 24008G15KT 10SM CLR M06/M12 A2993 860 62 -1400 240/08G15 RMK AO2
14837KMSN MSN20031124223510211/24/03 22:35:31  5-MIN KMSN 250435Z 25010G15KT 10SM CLR M06/M12 A2993 860 62 -1400 250/10G15 RMK AO2
14837KMSN MSN20031124224011811/24/03 22:40:31  5-MIN KMSN 250440Z 24008G14KT 210V270 10SM CLR M06/M12 A2993 860 62 -1400 240/08G14 210V270 RMK AO2
14837KMSN MSN20031124224510211/24/03 22:45:31  5-MIN KMSN 250445Z VRB06G16KT 10SM CLR M06/M12 A2993 850 62 -1400 VRB/06G16 RMK AO2
14837KMSN MSN20031124225011911/24/03 22:50:31  5-MIN KMSN 250450Z 24009G16KT 10SM CLR M06/M12 A2993 850 62 -1400 240/09G16 RMK AO2 SLP150 T10561117
14837KMSN MSN20031124225511811/24/03 22:55:31  5-MIN KMSN 250455Z 23007G14KT 210V270 10SM CLR M06/M11 A2993 850 65 -1400 230/07G14 210V270 RMK AO2
14837KMSN MSN20031124230010211/24/03 23:00:31  5-MIN KMSN 250500Z VRB05G14KT 10SM CLR M06/M11 A2993 850 65 -1400 VRB/05G14 RMK AO2
14837KMSN MSN20031124230509611/24/03 23:05:31  5-MIN KMSN 250505Z 23006KT 10SM CLR M06/M11 A2993 850 65 -1400 230/06 RMK AO2
14837KMSN MSN20031124231009611/24/03 23:10:31  5-MIN KMSN 250510Z 24008KT 10SM CLR M06/M11 A2994 850 65 -1400 240/08 RMK AO2
14837KMSN MSN20031124231510211/24/03 23:15:31  5-MIN KMSN 250515Z 23008G15KT 10SM CLR M05/M11 A2994 850 62 -1300 230/08G15 RMK AO2
14837KMSN MSN20031124232009611/24/03 23:20:31  5-MIN KMSN 250520Z VRB06KT 10SM CLR M05/M11 A2994 840 62 -1300 VRB/06 RMK AO2
14837KMSN MSN20031124232510211/24/03 23:25:31  5-MIN KMSN 250525Z 23009G15KT 10SM CLR M05/M11 A2994 840 62 -1300 230/09G15 RMK AO2
14837KMSN MSN20031124233010211/24/03 23:30:31  5-MIN KMSN 250530Z 23007G15KT 10SM CLR M05/M11 A2994 850 62 -1300 230/07G15 RMK AO2
14837KMSN MSN20031124233509611/24/03 23:35:31  5-MIN KMSN 250535Z 24008KT 10SM CLR M05/M11 A2994 850 62 -1300 240/08 RMK AO2
14837KMSN MSN20031124234011211/24/03 23:40:31  5-MIN KMSN 250540Z 24009KT 210V270 10SM CLR M05/M11 A2994 850 62 -1300 240/09 210V270 RMK AO2
14837KMSN MSN20031124234511211/24/03 23:45:31  5-MIN KMSN 250545Z 23007KT 210V270 10SM CLR M05/M11 A2994 850 62 -1300 230/07 210V270 RMK AO2
14837KMSN MSN20031124235014111/24/03 23:50:31  5-MIN KMSN 250550Z 24004KT 10SM CLR M05/M11 A2994 840 62 -1300 230/04 RMK AO2 SLP154 T10501111 11039 21056 410331083 51018
14837KMSN MSN20031124235509611/24/03 23:55:31  5-MIN KMSN 250555Z 23006KT 10SM CLR M05/M11 A2994 850 65 -1300 230/06 RMK AO2
14837KMSN MSN20031125000009611/25/03 00:00:31  5-MIN KMSN 250600Z 23006KT 10SM CLR M05/M11 A2994 840 65 -1300 230/06 RMK AO2
14837KMSN MSN20031125000509611/25/03 00:05:31  5-MIN KMSN 250605Z 22009KT 10SM CLR M05/M11 A2994 840 65 -1300 220/09 RMK AO2
14837KMSN MSN20031125001009611/25/03 00:10:31  5-MIN KMSN 250610Z 23008KT 10SM CLR M05/M11 A2994 840 65 -1300 220/08 RMK AO2
14837KMSN MSN20031125001509611/25/03 00:15:31  5-MIN KMSN 250615Z 23007KT 10SM CLR M05/M10 A2994 850 68 -1300 230/07 RMK AO2
14837KMSN MSN20031125002009611/25/03 00:20:31  5-MIN KMSN 250620Z 21006KT 10SM CLR M04/M10 A2994 850 65 -1300 210/06 RMK AO2
14837KMSN MSN20031125002509611/25/03 00:25:31  5-MIN KMSN 250625Z VRB06KT 10SM CLR M04/M10 A2994 850 65 -1300 VRB/06 RMK AO2
14837KMSN MSN20031125003009611/25/03 00:30:31  5-MIN KMSN 250630Z 21007KT 10SM CLR M05/M10 A2994 850 68 -1300 210/07 RMK AO2
14837KMSN MSN20031125003509611/25/03 00:35:31  5-MIN KMSN 250635Z 21007KT 10SM CLR M05/M10 A2994 850 68 -1300 210/07 RMK AO2
14837KMSN MSN20031125004009611/25/03 00:40:31  5-MIN KMSN 250640Z 21005KT 10SM CLR M05/M11 A2994 840 65 -1300 210/05 RMK AO2
14837KMSN MSN20031125004509611/25/03 00:45:31  5-MIN KMSN 250645Z 22008KT 10SM CLR M05/M10 A2994 850 68 -1300 210/08 RMK AO2
14837KMSN MSN20031125005011311/25/03 00:50:31  5-MIN KMSN 250650Z 21008KT 10SM CLR M05/M11 A2994 850 65 -1300 210/08 RMK AO2 SLP151 T10501106
14837KMSN MSN20031125005509611/25/03 00:55:31  5-MIN KMSN 250655Z 21007KT 10SM CLR M05/M10 A2994 850 68 -1300 210/07 RMK AO2
14837KMSN MSN20031125010009611/25/03 01:00:31  5-MIN KMSN 250700Z 21007KT 10SM CLR M05/M10 A2993 850 68 -1300 210/07 RMK AO2
14837KMSN MSN20031125010509611/25/03 01:05:31  5-MIN KMSN 250705Z 21005KT 10SM CLR M05/M10 A2993 850 68 -1300 210/05 RMK AO2
14837KMSN MSN20031125011009611/25/03 01:10:31  5-MIN KMSN 250710Z 22006KT 10SM CLR M05/M10 A2993 850 68 -1300 210/06 RMK AO2
14837KMSN MSN20031125011509611/25/03 01:15:31  5-MIN KMSN 250715Z 21007KT 10SM CLR M05/M10 A2993 850 68 -1300 210/07 RMK AO2
14837KMSN MSN20031125012009611/25/03 01:20:31  5-MIN KMSN 250720Z 21006KT 10SM CLR M05/M10 A2993 850 68 -1300 200/06 RMK AO2
14837KMSN MSN20031125012509611/25/03 01:25:31  5-MIN KMSN 250725Z 21006KT 10SM CLR M05/M10 A2993 860 68 -1300 210/06 RMK AO2
14837KMSN MSN20031125013009611/25/03 01:30:31  5-MIN KMSN 250730Z 20005KT 10SM CLR M04/M10 A2993 860 65 -1200 200/05 RMK AO2
14837KMSN MSN20031125013509911/25/03 01:35:31  5-MIN KMSN 250735Z 18005KT 10SM FEW120 M04/M10 A2993 860 65 -1200 180/05 RMK AO2
14837KMSN MSN20031125014009911/25/03 01:40:31  5-MIN KMSN 250740Z 18005KT 10SM FEW120 M04/M10 A2993 860 65 -1200 180/05 RMK AO2
14837KMSN MSN20031125014509911/25/03 01:45:31  5-MIN KMSN 250745Z 18007KT 10SM FEW120 M04/M10 A2992 860 65 -1200 180/07 RMK AO2
14837KMSN MSN20031125015011611/25/03 01:50:31  5-MIN KMSN 250750Z 19007KT 10SM FEW120 M05/M10 A2992 870 68 -1300 190/07 RMK AO2 SLP145 T10501100
14837KMSN MSN20031125015509911/25/03 01:55:31  5-MIN KMSN 250755Z 18006KT 10SM FEW120 M04/M11 A2992 870 62 -1200 180/06 RMK AO2
14837KMSN MSN20031125020009911/25/03 02:00:31  5-MIN KMSN 250800Z 19007KT 10SM FEW120 M04/M11 A2992 870 62 -1200 190/07 RMK AO2
14837KMSN MSN20031125020509611/25/03 02:05:31  5-MIN KMSN 250805Z 17008KT 10SM CLR M05/M10 A2992 870 68 -1300 170/08 RMK AO2
14837KMSN MSN20031125021009611/25/03 02:10:31  5-MIN KMSN 250810Z 18007KT 10SM CLR M05/M10 A2991 870 68 -1300 180/07 RMK AO2
14837KMSN MSN20031125021509611/25/03 02:15:31  5-MIN KMSN 250815Z 19006KT 10SM CLR M05/M10 A2991 870 68 -1300 190/06 RMK AO2
14837KMSN MSN20031125022009611/25/03 02:20:31  5-MIN KMSN 250820Z 18007KT 10SM CLR M05/M10 A2991 870 68 -1300 180/07 RMK AO2
14837KMSN MSN20031125022509611/25/03 02:25:31  5-MIN KMSN 250825Z 18008KT 10SM CLR M05/M10 A2991 870 68 -1300 180/08 RMK AO2
14837KMSN MSN20031125023009611/25/03 02:30:31  5-MIN KMSN 250830Z 18007KT 10SM CLR M04/M09 A2991 870 68 -1200 180/07 RMK AO2
14837KMSN MSN20031125023509611/25/03 02:35:31  5-MIN KMSN 250835Z 18007KT 10SM CLR M04/M09 A2991 870 68 -1200 180/07 RMK AO2
14837KMSN MSN20031125024009611/25/03 02:40:31  5-MIN KMSN 250840Z 19006KT 10SM CLR M04/M09 A2991 870 68 -1200 180/06 RMK AO2
14837KMSN MSN20031125024509611/25/03 02:45:31  5-MIN KMSN 250845Z 19006KT 10SM CLR M04/M09 A2991 870 68 -1200 190/06 RMK AO2
14837KMSN MSN20031125025011911/25/03 02:50:31  5-MIN KMSN 250850Z 18006KT 10SM CLR M04/M09 A2991 880 68 -1200 180/06 RMK AO2 SLP141 T10441094 53006
14837KMSN MSN20031125025509611/25/03 02:55:31  5-MIN KMSN 250855Z 19006KT 10SM CLR M04/M09 A2990 880 68 -1200 180/06 RMK AO2
14837KMSN MSN20031125030009611/25/03 03:00:31  5-MIN KMSN 250900Z 19006KT 10SM CLR M04/M09 A2990 880 68 -1200 190/06 RMK AO2
14837KMSN MSN20031125030509611/25/03 03:05:31  5-MIN KMSN 250905Z VRB05KT 10SM CLR M04/M09 A2990 880 68 -1200 VRB/05 RMK AO2
14837KMSN MSN20031125031009611/25/03 03:10:31  5-MIN KMSN 250910Z VRB05KT 10SM CLR M04/M09 A2990 880 68 -1200 VRB/05 RMK AO2
14837KMSN MSN20031125031509611/25/03 03:15:31  5-MIN KMSN 250915Z 19006KT 10SM CLR M04/M09 A2990 890 68 -1200 180/06 RMK AO2
14837KMSN MSN20031125032009611/25/03 03:20:31  5-MIN KMSN 250920Z 19005KT 10SM CLR M04/M09 A2990 890 68 -1200 190/05 RMK AO2
14837KMSN MSN20031125032509611/25/03 03:25:31  5-MIN KMSN 250925Z 19008KT 10SM CLR M04/M09 A2990 890 68 -1200 190/08 RMK AO2
14837KMSN MSN20031125033009611/25/03 03:30:31  5-MIN KMSN 250930Z 19007KT 10SM CLR M04/M09 A2989 890 68 -1200 190/07 RMK AO2
14837KMSN MSN20031125033509611/25/03 03:35:31  5-MIN KMSN 250935Z 19005KT 10SM CLR M04/M09 A2989 890 68 -1200 190/05 RMK AO2
14837KMSN MSN20031125034009611/25/03 03:40:31  5-MIN KMSN 250940Z 19008KT 10SM CLR M04/M09 A2989 890 68 -1200 190/08 RMK AO2
14837KMSN MSN20031125034509611/25/03 03:45:31  5-MIN KMSN 250945Z 18009KT 10SM CLR M04/M09 A2989 890 71 -1200 180/09 RMK AO2
14837KMSN MSN20031125035011311/25/03 03:50:31  5-MIN KMSN 250950Z 18008KT 10SM CLR M04/M09 A2989 890 68 -1100 180/08 RMK AO2 SLP135 T10391089
14837KMSN MSN20031125035509611/25/03 03:55:31  5-MIN KMSN 250955Z 19010KT 10SM CLR M04/M09 A2990 890 68 -1100 190/10 RMK AO2
14837KMSN MSN20031125040009611/25/03 04:00:31  5-MIN KMSN 251000Z 18010KT 10SM CLR M04/M08 A2989 890 71 -1100 180/10 RMK AO2
14837KMSN MSN20031125040509611/25/03 04:05:31  5-MIN KMSN 251005Z 19010KT 10SM CLR M04/M09 A2989 890 68 -1100 190/10 RMK AO2
14837KMSN MSN20031125041009611/25/03 04:10:31  5-MIN KMSN 251010Z 18009KT 10SM CLR M04/M09 A2989 890 68 -1100 180/09 RMK AO2
14837KMSN MSN20031125041509611/25/03 04:15:31  5-MIN KMSN 251015Z 18009KT 10SM CLR M04/M08 A2988 900 71 -1100 180/09 RMK AO2
14837KMSN MSN20031125042009611/25/03 04:20:31  5-MIN KMSN 251020Z 18010KT 10SM CLR M04/M08 A2988 900 71 -1100 180/10 RMK AO2
14837KMSN MSN20031125042509611/25/03 04:25:31  5-MIN KMSN 251025Z 18011KT 10SM CLR M04/M08 A2988 900 71 -1100 180/11 RMK AO2
14837KMSN MSN20031125043009611/25/03 04:30:31  5-MIN KMSN 251030Z 18012KT 10SM CLR M04/M08 A2987 910 71 -1100 180/12 RMK AO2
14837KMSN MSN20031125043509611/25/03 04:35:31  5-MIN KMSN 251035Z 18012KT 10SM CLR M04/M08 A2987 910 71 -1100 180/12 RMK AO2
14837KMSN MSN20031125044009611/25/03 04:40:31  5-MIN KMSN 251040Z 18011KT 10SM CLR M04/M08 A2986 920 71 -1100 180/11 RMK AO2
14837KMSN MSN20031125044509611/25/03 04:45:31  5-MIN KMSN 251045Z 18008KT 10SM CLR M03/M08 A2987 910 68 -1000 180/08 RMK AO2
14837KMSN MSN20031125045011311/25/03 04:50:31  5-MIN KMSN 251050Z 18009KT 10SM CLR M04/M08 A2986 920 71 -1100 170/09 RMK AO2 SLP124 T10391083
14837KMSN MSN20031125045509611/25/03 04:55:31  5-MIN KMSN 251055Z 18009KT 10SM CLR M04/M08 A2986 920 71 -1100 180/09 RMK AO2
14837KMSN MSN20031125050009611/25/03 05:00:31  5-MIN KMSN 251100Z 18011KT 10SM CLR M04/M08 A2986 920 71 -1100 180/11 RMK AO2
14837KMSN MSN20031125050509611/25/03 05:05:31  5-MIN KMSN 251105Z 18008KT 10SM CLR M04/M08 A2986 920 71 -1100 170/08 RMK AO2
14837KMSN MSN20031125051009611/25/03 05:10:31  5-MIN KMSN 251110Z 18010KT 10SM CLR M04/M08 A2986 920 71 -1100 180/10 RMK AO2
14837KMSN MSN20031125051509611/25/03 05:15:31  5-MIN KMSN 251115Z 18013KT 10SM CLR M04/M08 A2986 920 71 -1100 180/13 RMK AO2
14837KMSN MSN20031125052010211/25/03 05:20:31  5-MIN KMSN 251120Z 18015G20KT 10SM CLR M03/M08 A2986 920 68 -1000 180/15G20 RMK AO2
14837KMSN MSN20031125052510211/25/03 05:25:31  5-MIN KMSN 251125Z 19012G20KT 10SM CLR M04/M08 A2985 920 71 -1100 180/12G20 RMK AO2
14837KMSN MSN20031125053009611/25/03 05:30:31  5-MIN KMSN 251130Z 18012KT 10SM CLR M04/M08 A2985 930 71 -1100 180/12 RMK AO2
14837KMSN MSN20031125053509611/25/03 05:35:31  5-MIN KMSN 251135Z 19011KT 10SM CLR M03/M08 A2985 930 68 -1000 180/11 RMK AO2
14837KMSN MSN20031125054009611/25/03 05:40:31  5-MIN KMSN 251140Z 18010KT 10SM CLR M03/M08 A2985 930 68 -1000 180/10 RMK AO2
14837KMSN MSN20031125054510211/25/03 05:45:31  5-MIN KMSN 251145Z 18011G17KT 10SM CLR M03/M08 A2985 930 68 -1000 180/11G17 RMK AO2
14837KMSN MSN20031125055014311/25/03 05:50:31  5-MIN KMSN 251150Z 18010G17KT 10SM CLR M04/M08 A2985 930 71 -1100 180/10G17 RMK AO2 SLP120 70001 T10391083 11033 21056 58012
14837KMSN MSN20031125055509611/25/03 05:55:31  5-MIN KMSN 251155Z 18010KT 10SM CLR M04/M08 A2985 930 71 -1100 180/10 RMK AO2
14837KMSN MSN20031125060009611/25/03 06:00:31  5-MIN KMSN 251200Z 18009KT 10SM CLR M04/M08 A2985 930 71 -1100 180/09 RMK AO2
14837KMSN MSN20031125060509611/25/03 06:05:31  5-MIN KMSN 251205Z 18010KT 10SM CLR M04/M08 A2985 930 74 -1100 180/10 RMK AO2
14837KMSN MSN20031125061009611/25/03 06:10:31  5-MIN KMSN 251210Z 19010KT 10SM CLR M04/M08 A2985 930 74 -1100 190/10 RMK AO2
14837KMSN MSN20031125061509611/25/03 06:15:31  5-MIN KMSN 251215Z 18012KT 10SM CLR M04/M08 A2985 930 74 -1100 180/12 RMK AO2
14837KMSN MSN20031125062009611/25/03 06:20:31  5-MIN KMSN 251220Z 18013KT 10SM CLR M04/M08 A2984 940 74 -1100 180/13 RMK AO2
14837KMSN MSN20031125062509611/25/03 06:25:31  5-MIN KMSN 251225Z 18012KT 10SM CLR M03/M08 A2984 940 71 -1000 180/12 RMK AO2
14837KMSN MSN20031125063009611/25/03 06:30:31  5-MIN KMSN 251230Z 18012KT 10SM CLR M03/M08 A2984 940 71 -1000 180/12 RMK AO2
14837KMSN MSN20031125063509611/25/03 06:35:31  5-MIN KMSN 251235Z 18013KT 10SM CLR M03/M08 A2984 940 71 -1000 180/13 RMK AO2
14837KMSN MSN20031125064009611/25/03 06:40:31  5-MIN KMSN 251240Z 17013KT 10SM CLR M03/M08 A2984 940 71 -1000 170/13 RMK AO2
14837KMSN MSN20031125064509611/25/03 06:45:31  5-MIN KMSN 251245Z 18014KT 10SM CLR M03/M08 A2983 940 71 -1000 180/14 RMK AO2
14837KMSN MSN20031125065011311/25/03 06:50:31  5-MIN KMSN 251250Z 17015KT 10SM CLR M03/M08 A2983 950 71 -1000 170/15 RMK AO2 SLP113 T10331078
14837KMSN MSN20031125065510211/25/03 06:55:31  5-MIN KMSN 251255Z 17015G20KT 10SM CLR M03/M08 A2983 950 71 -1000 170/15G20 RMK AO2
14837KMSN MSN20031125070010211/25/03 07:00:31  5-MIN KMSN 251300Z 17013G20KT 10SM CLR M03/M08 A2983 950 71 -1000 170/13G20 RMK AO2
14837KMSN MSN20031125070509611/25/03 07:05:31  5-MIN KMSN 251305Z 17015KT 10SM CLR M03/M08 A2983 950 71 -1000 170/15 RMK AO2
14837KMSN MSN20031125071010211/25/03 07:10:31  5-MIN KMSN 251310Z 17017G21KT 10SM CLR M03/M08 A2982 960 71 -1000 170/17G21 RMK AO2
14837KMSN MSN20031125071510211/25/03 07:15:31  5-MIN KMSN 251315Z 17012G21KT 10SM CLR M03/M08 A2982 950 71 -1000 170/12G21 RMK AO2
14837KMSN MSN20031125072009611/25/03 07:20:31  5-MIN KMSN 251320Z 16014KT 10SM CLR M03/M08 A2982 960 71 -1000 160/14 RMK AO2
14837KMSN MSN20031125072509611/25/03 07:25:31  5-MIN KMSN 251325Z 17013KT 10SM CLR M03/M08 A2981 960 71 -1000 170/13 RMK AO2
14837KMSN MSN20031125073009611/25/03 07:30:31  5-MIN KMSN 251330Z 16013KT 10SM CLR M03/M08 A2981 960 71 -1000 160/13 RMK AO2
14837KMSN MSN20031125073509611/25/03 07:35:31  5-MIN KMSN 251335Z 17015KT 10SM CLR M03/M08 A2981 970 71 -1000 170/15 RMK AO2
14837KMSN MSN20031125074009611/25/03 07:40:31  5-MIN KMSN 251340Z 17015KT 10SM CLR M03/M08 A2980 970 71 -1000 170/15 RMK AO2
14837KMSN MSN20031125074509511/25/03 07:45:31  5-MIN KMSN 251345Z 17015KT 10SM CLR M03/M08 A2980 980 71 -900 170/15 RMK AO2
14837KMSN MSN20031125075011811/25/03 07:50:31  5-MIN KMSN 251350Z 17015G20KT 10SM CLR M03/M08 A2980 980 68 -900 170/15G20 RMK AO2 SLP102 T10281078
14837KMSN MSN20031125075509511/25/03 07:55:31  5-MIN KMSN 251355Z 18020KT 10SM CLR M03/M08 A2979 980 68 -900 180/20 RMK AO2
14837KMSN MSN20031125080010111/25/03 08:00:31  5-MIN KMSN 251400Z 18018G24KT 10SM CLR M03/M08 A2979 980 68 -900 180/18G24 RMK AO2
14837KMSN MSN20031125080510111/25/03 08:05:31  5-MIN KMSN 251405Z 18019G24KT 10SM CLR M03/M08 A2979 980 68 -900 180/19G24 RMK AO2
14837KMSN MSN20031125081010111/25/03 08:10:31  5-MIN KMSN 251410Z 18017G24KT 10SM CLR M03/M08 A2980 980 68 -900 180/17G24 RMK AO2
14837KMSN MSN20031125081510111/25/03 08:15:31  5-MIN KMSN 251415Z 18016G23KT 10SM CLR M03/M08 A2980 980 68 -900 180/16G23 RMK AO2
14837KMSN MSN20031125082010111/25/03 08:20:31  5-MIN KMSN 251420Z 18017G23KT 10SM CLR M03/M08 A2980 970 68 -900 180/17G23 RMK AO2
14837KMSN MSN20031125082509511/25/03 08:25:31  5-MIN KMSN 251425Z 18018KT 10SM CLR M02/M08 A2980 970 66 -800 180/18 RMK AO2
14837KMSN MSN20031125083009511/25/03 08:30:31  5-MIN KMSN 251430Z 18015KT 10SM CLR M02/M08 A2980 970 66 -800 180/15 RMK AO2
14837KMSN MSN20031125083509511/25/03 08:35:31  5-MIN KMSN 251435Z 18015KT 10SM CLR M02/M08 A2980 980 66 -800 180/15 RMK AO2
14837KMSN MSN20031125084010111/25/03 08:40:31  5-MIN KMSN 251440Z 18017G22KT 10SM CLR M02/M08 A2980 980 66 -800 180/17G22 RMK AO2
14837KMSN MSN20031125084510111/25/03 08:45:31  5-MIN KMSN 251445Z 19015G22KT 10SM CLR M02/M08 A2980 980 66 -800 190/15G22 RMK AO2
14837KMSN MSN20031125085012411/25/03 08:50:31  5-MIN KMSN 251450Z 18016G20KT 10SM CLR M02/M08 A2979 980 66 -800 180/16G20 RMK AO2 SLP100 T10221078 56019
14837KMSN MSN20031125085509511/25/03 08:55:31  5-MIN KMSN 251455Z 18015KT 10SM CLR M02/M08 A2979 990 63 -700 180/15 RMK AO2
14837KMSN MSN20031125090010111/25/03 09:00:31  5-MIN KMSN 251500Z 18014G22KT 10SM CLR M02/M08 A2979 990 63 -700 180/14G22 RMK AO2
14837KMSN MSN20031125090510111/25/03 09:05:31  5-MIN KMSN 251505Z 18017G22KT 10SM CLR M01/M08 A2979 990 60 -700 180/17G22 RMK AO2
14837KMSN MSN20031125091010211/25/03 09:10:31  5-MIN KMSN 251510Z 18016G24KT 10SM CLR M01/M08 A2978 1000 60 -600 180/16G24 RMK AO2
14837KMSN MSN20031125091510211/25/03 09:15:31  5-MIN KMSN 251515Z 18017G24KT 10SM CLR M01/M08 A2977 1000 60 -600 180/17G24 RMK AO2
14837KMSN MSN20031125092009611/25/03 09:20:31  5-MIN KMSN 251520Z 17017KT 10SM CLR M01/M08 A2977 1000 60 -600 170/17 RMK AO2
14837KMSN MSN20031125092509611/25/03 09:25:31  5-MIN KMSN 251525Z 18017KT 10SM CLR M01/M08 A2977 1000 60 -600 180/17 RMK AO2
14837KMSN MSN20031125093010211/25/03 09:30:31  5-MIN KMSN 251530Z 19015G21KT 10SM CLR M01/M08 A2978 1000 58 -600 190/15G21 RMK AO2
14837KMSN MSN20031125093510011/25/03 09:35:31  5-MIN KMSN 251535Z 19015G23KT 10SM CLR 00/M08 A2978 990 56 -500 190/15G23 RMK AO2
14837KMSN MSN20031125094010011/25/03 09:40:31  5-MIN KMSN 251540Z 19013G23KT 10SM CLR 00/M08 A2978 990 56 -500 190/13G23 RMK AO2
14837KMSN MSN20031125094510011/25/03 09:45:31  5-MIN KMSN 251545Z 18016G23KT 10SM CLR 00/M08 A2978 990 56 -500 180/16G23 RMK AO2
14837KMSN MSN20031125095011711/25/03 09:50:31  5-MIN KMSN 251550Z 18019G22KT 10SM CLR 01/M08 A2978 990 54 -400 180/19G22 RMK AO2 SLP097 T00061078
14837KMSN MSN20031125095510011/25/03 09:55:31  5-MIN KMSN 251555Z 19017G24KT 10SM CLR 01/M08 A2978 990 54 -400 190/17G24 RMK AO2
14837KMSN MSN20031125100010011/25/03 10:00:31  5-MIN KMSN 251600Z 19014G24KT 10SM CLR 01/M08 A2978 990 54 -400 190/14G24 RMK AO2
14837KMSN MSN20031125100510011/25/03 10:05:31  5-MIN KMSN 251605Z 19017G24KT 10SM CLR 01/M08 A2978 990 51 -400 190/17G24 RMK AO2
14837KMSN MSN20031125101010011/25/03 10:10:31  5-MIN KMSN 251610Z 19017G25KT 10SM CLR 01/M08 A2978 990 51 -400 190/17G25 RMK AO2
14837KMSN MSN20031125101510011/25/03 10:15:31  5-MIN KMSN 251615Z 20017G25KT 10SM CLR 01/M08 A2978 990 51 -400 190/17G25 RMK AO2
14837KMSN MSN20031125102010111/25/03 10:20:31  5-MIN KMSN 251620Z 19017G24KT 10SM CLR 01/M08 A2978 1000 51 -400 190/17G24 RMK AO2
14837KMSN MSN20031125102510111/25/03 10:25:31  5-MIN KMSN 251625Z 19015G24KT 10SM CLR 01/M08 A2978 1000 51 -400 190/15G24 RMK AO2
14837KMSN MSN20031125103010111/25/03 10:30:31  5-MIN KMSN 251630Z 20014G22KT 10SM CLR 01/M08 A2978 1000 51 -400 200/14G22 RMK AO2
14837KMSN MSN20031125103510111/25/03 10:35:31  5-MIN KMSN 251635Z 19014G21KT 10SM CLR 02/M08 A2977 1000 49 -300 190/14G21 RMK AO2
14837KMSN MSN20031125104010111/25/03 10:40:31  5-MIN KMSN 251640Z 20013G21KT 10SM CLR 02/M08 A2977 1000 49 -300 200/13G21 RMK AO2
14837KMSN MSN20031125104510111/25/03 10:45:31  5-MIN KMSN 251645Z 19014G20KT 10SM CLR 02/M08 A2977 1010 49 -300 190/14G20 RMK AO2
14837KMSN MSN20031125105011811/25/03 10:50:31  5-MIN KMSN 251650Z 19016G21KT 10SM CLR 02/M08 A2977 1010 49 -300 190/16G21 RMK AO2 SLP090 T00171078
14837KMSN MSN20031125105510111/25/03 10:55:31  5-MIN KMSN 251655Z 19013G24KT 10SM CLR 02/M08 A2977 1010 49 -300 190/13G24 RMK AO2
14837KMSN MSN20031125110010111/25/03 11:00:31  5-MIN KMSN 251700Z 19018G24KT 10SM CLR 02/M08 A2976 1010 49 -300 190/18G24 RMK AO2
14837KMSN MSN20031125110510111/25/03 11:05:31  5-MIN KMSN 251705Z 19014G22KT 10SM CLR 02/M08 A2976 1010 49 -300 190/14G22 RMK AO2
14837KMSN MSN20031125111010111/25/03 11:10:31  5-MIN KMSN 251710Z 19016G22KT 10SM CLR 02/M08 A2976 1010 47 -200 190/16G22 RMK AO2
14837KMSN MSN20031125111510111/25/03 11:15:31  5-MIN KMSN 251715Z 20015G22KT 10SM CLR 02/M08 A2976 1010 47 -200 200/15G22 RMK AO2
14837KMSN MSN20031125112010111/25/03 11:20:31  5-MIN KMSN 251720Z 21013G20KT 10SM CLR 02/M08 A2975 1020 47 -200 210/13G20 RMK AO2
14837KMSN MSN20031125112510111/25/03 11:25:31  5-MIN KMSN 251725Z 21014G20KT 10SM CLR 03/M07 A2975 1020 48 -100 210/14G20 RMK AO2
14837KMSN MSN20031125113010111/25/03 11:30:31  5-MIN KMSN 251730Z 21014G23KT 10SM CLR 03/M07 A2975 1020 48 -100 210/14G23 RMK AO2
14837KMSN MSN20031125113510111/25/03 11:35:31  5-MIN KMSN 251735Z 20012G23KT 10SM CLR 02/M07 A2975 1020 50 -200 200/12G23 RMK AO2
14837KMSN MSN20031125114010111/25/03 11:40:31  5-MIN KMSN 251740Z 20013G22KT 10SM CLR 02/M07 A2975 1020 50 -200 200/13G22 RMK AO2
14837KMSN MSN20031125114510111/25/03 11:45:31  5-MIN KMSN 251745Z 20013G22KT 10SM CLR 02/M07 A2974 1030 50 -200 200/13G22 RMK AO2
14837KMSN MSN20031125115015211/25/03 11:50:31  5-MIN KMSN 251750Z 21010G20KT 180V240 10SM CLR 02/M07 A2974 1030 50 -200 210/10G20 180V240 RMK AO2 SLP081 T00221072 10028 21039 56020
14837KMSN MSN20031125115510111/25/03 11:55:31  5-MIN KMSN 251755Z 20012G16KT 10SM CLR 03/M07 A2974 1040 48 -100 200/12G16 RMK AO2
14837KMSN MSN20031125120010111/25/03 12:00:31  5-MIN KMSN 251800Z 20012G19KT 10SM CLR 03/M07 A2973 1040 48 -100 200/12G19 RMK AO2
14837KMSN MSN20031125120511411/25/03 12:05:31  5-MIN KMSN 251805Z 20013G20KT 170V240 10SM CLR 03/M07 A2973 1040 46 0 200/13G20 170V240 RMK AO2
14837KMSN MSN20031125121009811/25/03 12:10:31  5-MIN KMSN 251810Z 20017G21KT 10SM CLR 03/M07 A2973 1040 46 0 200/17G21 RMK AO2
14837KMSN MSN20031125121509811/25/03 12:15:31  5-MIN KMSN 251815Z 21013G21KT 10SM CLR 03/M07 A2972 1050 46 0 210/13G21 RMK AO2
14837KMSN MSN20031125122009811/25/03 12:20:31  5-MIN KMSN 251820Z 21011G18KT 10SM CLR 03/M08 A2972 1050 44 0 210/11G18 RMK AO2
14837KMSN MSN20031125122509811/25/03 12:25:31  5-MIN KMSN 251825Z 21012G20KT 10SM CLR 03/M08 A2972 1050 44 0 210/12G20 RMK AO2
14837KMSN MSN20031125123009811/25/03 12:30:31  5-MIN KMSN 251830Z 20012G20KT 10SM CLR 04/M07 A2972 1050 44 0 200/12G20 RMK AO2
14837KMSN MSN20031125123509811/25/03 12:35:31  5-MIN KMSN 251835Z 20012G20KT 10SM CLR 04/M08 A2972 1050 42 0 200/12G20 RMK AO2
14837KMSN MSN20031125124009811/25/03 12:40:31  5-MIN KMSN 251840Z 21013G20KT 10SM CLR 04/M07 A2972 1050 44 0 210/13G20 RMK AO2
14837KMSN MSN20031125124509811/25/03 12:45:31  5-MIN KMSN 251845Z 21012G19KT 10SM CLR 03/M08 A2972 1050 44 0 210/12G19 RMK AO2
14837KMSN MSN20031125125011511/25/03 12:50:31  5-MIN KMSN 251850Z 22011G19KT 10SM CLR 04/M07 A2972 1050 44 0 220/11G19 RMK AO2 SLP074 T00391072
14837KMSN MSN20031125125509811/25/03 12:55:31  5-MIN KMSN 251855Z 21011G19KT 10SM CLR 03/M07 A2972 1050 46 0 210/11G19 RMK AO2
14837KMSN MSN20031125130009811/25/03 13:00:31  5-MIN KMSN 251900Z 20016G21KT 10SM CLR 03/M07 A2972 1050 46 0 200/16G21 RMK AO2
14837KMSN MSN20031125130509811/25/03 13:05:31  5-MIN KMSN 251905Z 21012G21KT 10SM CLR 03/M07 A2972 1050 46 0 210/12G21 RMK AO2
14837KMSN MSN20031125131009811/25/03 13:10:31  5-MIN KMSN 251910Z 20013G18KT 10SM CLR 03/M07 A2972 1050 46 0 200/13G18 RMK AO2
14837KMSN MSN20031125131509811/25/03 13:15:31  5-MIN KMSN 251915Z 20012G18KT 10SM CLR 03/M07 A2972 1050 48 0 200/12G18 RMK AO2
14837KMSN MSN20031125132009211/25/03 13:20:31  5-MIN KMSN 251920Z 21015KT 10SM CLR 04/M07 A2972 1050 46 0 210/15 RMK AO2
14837KMSN MSN20031125132509811/25/03 13:25:31  5-MIN KMSN 251925Z 20011G17KT 10SM CLR 04/M07 A2972 1050 46 0 200/11G17 RMK AO2
14837KMSN MSN20031125133009811/25/03 13:30:31  5-MIN KMSN 251930Z 21011G19KT 10SM CLR 04/M07 A2971 1060 44 0 210/11G19 RMK AO2
14837KMSN MSN20031125133509811/25/03 13:35:31  5-MIN KMSN 251935Z 20012G19KT 10SM CLR 04/M07 A2971 1060 44 0 200/12G19 RMK AO2
14837KMSN MSN20031125134009211/25/03 13:40:31  5-MIN KMSN 251940Z 20012KT 10SM CLR 04/M07 A2971 1060 44 0 200/12 RMK AO2
14837KMSN MSN20031125134509811/25/03 13:45:31  5-MIN KMSN 251945Z 20012G17KT 10SM CLR 03/M08 A2971 1060 44 0 200/12G17 RMK AO2
14837KMSN MSN20031125135011511/25/03 13:50:31  5-MIN KMSN 251950Z 21010G17KT 10SM CLR 03/M07 A2971 1060 46 0 210/10G17 RMK AO2 SLP071 T00331072
14837KMSN MSN20031125135509811/25/03 13:55:31  5-MIN KMSN 251955Z 22010G17KT 10SM CLR 03/M07 A2971 1060 46 0 220/10G17 RMK AO2
14837KMSN MSN20031125140009811/25/03 14:00:31  5-MIN KMSN 252000Z 22008G15KT 10SM CLR 04/M07 A2971 1060 44 0 220/08G15 RMK AO2
14837KMSN MSN20031125140509811/25/03 14:05:31  5-MIN KMSN 252005Z 21010G15KT 10SM CLR 04/M07 A2971 1060 44 0 210/10G15 RMK AO2
14837KMSN MSN20031125141010811/25/03 14:10:31  5-MIN KMSN 252010Z 22012KT 190V260 10SM CLR 04/M07 A2971 1060 44 0 220/12 190V260 RMK AO2
14837KMSN MSN20031125141510811/25/03 14:15:31  5-MIN KMSN 252015Z 22011KT 200V260 10SM CLR 03/M07 A2971 1060 46 0 220/11 200V260 RMK AO2
14837KMSN MSN20031125142009811/25/03 14:20:31  5-MIN KMSN 252020Z 22012G17KT 10SM CLR 04/M07 A2972 1050 44 0 210/12G17 RMK AO2
14837KMSN MSN20031125142509811/25/03 14:25:31  5-MIN KMSN 252025Z 20010G18KT 10SM CLR 03/M07 A2972 1050 46 0 200/10G18 RMK AO2
14837KMSN MSN20031125143011411/25/03 14:30:31  5-MIN KMSN 252030Z 21011G18KT 180V250 10SM CLR 04/M07 A2972 1050 44 0 210/11G18 180V250 RMK AO2
14837KMSN MSN20031125143509811/25/03 14:35:31  5-MIN KMSN 252035Z 21012G17KT 10SM CLR 03/M07 A2972 1050 46 0 210/12G17 RMK AO2
14837KMSN MSN20031125144009811/25/03 14:40:31  5-MIN KMSN 252040Z 20013G18KT 10SM CLR 04/M07 A2971 1060 44 0 200/13G18 RMK AO2
14837KMSN MSN20031125144509811/25/03 14:45:31  5-MIN KMSN 252045Z 20011G18KT 10SM CLR 03/M07 A2971 1060 46 0 200/11G18 RMK AO2
14837KMSN MSN20031125145011511/25/03 14:50:31  5-MIN KMSN 252050Z 21012KT 10SM CLR 03/M07 A2971 1060 46 0 210/12 RMK AO2 SLP070 T00331072 58018
14837KMSN MSN20031125145510111/25/03 14:55:31  5-MIN KMSN 252055Z 21010G16KT 10SM FEW100 03/M07 A2971 1060 46 0 210/10G16 RMK AO2
14837KMSN MSN20031125150010111/25/03 15:00:31  5-MIN KMSN 252100Z 21011G18KT 10SM FEW100 03/M07 A2972 1050 46 0 200/11G18 RMK AO2
14837KMSN MSN20031125150511711/25/03 15:05:31  5-MIN KMSN 252105Z 21007G18KT 180V250 10SM FEW100 03/M07 A2972 1050 48 0 210/07G18 180V250 RMK AO2
14837KMSN MSN20031125151010111/25/03 15:10:31  5-MIN KMSN 252110Z 21012G17KT 10SM FEW100 03/M07 A2972 1050 48 0 210/12G17 RMK AO2
14837KMSN MSN20031125151510111/25/03 15:15:31  5-MIN KMSN 252115Z 21009G17KT 10SM FEW050 03/M07 A2972 1050 46 0 210/09G17 RMK AO2
14837KMSN MSN20031125152009511/25/03 15:20:31  5-MIN KMSN 252120Z 21010KT 10SM FEW050 03/M07 A2972 1050 48 0 210/10 RMK AO2
14837KMSN MSN20031125152509211/25/03 15:25:31  5-MIN KMSN 252125Z 21007KT 10SM CLR 03/M07 A2972 1050 48 0 210/07 RMK AO2
14837KMSN MSN20031125153009811/25/03 15:30:31  5-MIN KMSN 252130Z 21007G14KT 10SM CLR 03/M07 A2972 1050 48 0 210/07G14 RMK AO2
14837KMSN MSN20031125153509211/25/03 15:35:31  5-MIN KMSN 252135Z 20009KT 10SM CLR 03/M07 A2972 1050 48 0 200/09 RMK AO2
14837KMSN MSN20031125154009211/25/03 15:40:31  5-MIN KMSN 252140Z 20008KT 10SM CLR 03/M07 A2972 1050 48 0 200/08 RMK AO2
14837KMSN MSN20031125154509811/25/03 15:45:31  5-MIN KMSN 252145Z 20010G16KT 10SM CLR 03/M07 A2972 1050 48 0 200/10G16 RMK AO2
14837KMSN MSN20031125155011511/25/03 15:50:31  5-MIN KMSN 252150Z 20010G16KT 10SM CLR 03/M07 A2972 1050 48 0 200/10G16 RMK AO2 SLP073 T00331067
14837KMSN MSN20031125155509511/25/03 15:55:31  5-MIN KMSN 252155Z 20009KT 10SM CLR 03/M07 A2972 1050 50 -100 200/09 RMK AO2
14837KMSN MSN20031125160009511/25/03 16:00:31  5-MIN KMSN 252200Z 19010KT 10SM CLR 03/M07 A2972 1050 50 -100 190/10 RMK AO2
14837KMSN MSN20031125160509511/25/03 16:05:31  5-MIN KMSN 252205Z 20008KT 10SM CLR 03/M07 A2972 1050 50 -100 200/08 RMK AO2
14837KMSN MSN20031125161009511/25/03 16:10:31  5-MIN KMSN 252210Z 19010KT 10SM CLR 03/M06 A2973 1040 52 -100 190/10 RMK AO2
14837KMSN MSN20031125161509811/25/03 16:15:31  5-MIN KMSN 252215Z 19008KT 10SM FEW100 03/M07 A2972 1050 50 -100 190/08 RMK AO2
14837KMSN MSN20031125162009811/25/03 16:20:31  5-MIN KMSN 252220Z 19008KT 10SM FEW100 03/M07 A2973 1040 50 -100 190/08 RMK AO2
14837KMSN MSN20031125162509811/25/03 16:25:31  5-MIN KMSN 252225Z 19008KT 10SM FEW100 03/M07 A2973 1040 50 -100 190/08 RMK AO2
14837KMSN MSN20031125163009811/25/03 16:30:31  5-MIN KMSN 252230Z 20010KT 10SM FEW100 03/M06 A2973 1040 52 -100 190/10 RMK AO2
14837KMSN MSN20031125163509811/25/03 16:35:31  5-MIN KMSN 252235Z 19010KT 10SM FEW100 03/M07 A2973 1040 50 -100 190/10 RMK AO2
14837KMSN MSN20031125164009811/25/03 16:40:31  5-MIN KMSN 252240Z 19010KT 10SM FEW100 03/M06 A2973 1040 52 -100 190/10 RMK AO2
14837KMSN MSN20031125164509811/25/03 16:45:31  5-MIN KMSN 252245Z 19009KT 10SM FEW100 03/M07 A2973 1040 50 -100 190/09 RMK AO2
14837KMSN MSN20031125165011211/25/03 16:50:31  5-MIN KMSN 252250Z 19010KT 10SM CLR 02/M06 A2973 1040 54 -200 190/10 RMK AO2 SLP079 T00221061
14837KMSN MSN20031125165510111/25/03 16:55:31  5-MIN KMSN 252255Z 19009G14KT 10SM CLR 02/M06 A2974 1040 54 -200 190/09G14 RMK AO2
14837KMSN MSN20031125170009511/25/03 17:00:31  5-MIN KMSN 252300Z 19010KT 10SM CLR 02/M06 A2974 1030 54 -200 190/10 RMK AO2
14837KMSN MSN20031125170509511/25/03 17:05:31  5-MIN KMSN 252305Z 19009KT 10SM CLR 02/M06 A2974 1030 54 -200 190/09 RMK AO2
14837KMSN MSN20031125171009511/25/03 17:10:31  5-MIN KMSN 252310Z 19011KT 10SM CLR 02/M06 A2973 1040 54 -200 190/11 RMK AO2
14837KMSN MSN20031125171509511/25/03 17:15:31  5-MIN KMSN 252315Z 19012KT 10SM CLR 02/M06 A2973 1040 54 -200 190/12 RMK AO2
14837KMSN MSN20031125172009511/25/03 17:20:31  5-MIN KMSN 252320Z 20009KT 10SM CLR 02/M06 A2974 1030 54 -200 190/09 RMK AO2
14837KMSN MSN20031125172509511/25/03 17:25:31  5-MIN KMSN 252325Z 19009KT 10SM CLR 02/M06 A2974 1030 54 -200 190/09 RMK AO2
14837KMSN MSN20031125173009511/25/03 17:30:31  5-MIN KMSN 252330Z 19010KT 10SM CLR 02/M06 A2974 1030 54 -200 190/10 RMK AO2
14837KMSN MSN20031125173509511/25/03 17:35:31  5-MIN KMSN 252335Z 19008KT 10SM CLR 02/M06 A2974 1030 56 -300 190/08 RMK AO2
14837KMSN MSN20031125174009511/25/03 17:40:31  5-MIN KMSN 252340Z 19010KT 10SM CLR 02/M06 A2974 1030 56 -300 190/10 RMK AO2
14837KMSN MSN20031125174509511/25/03 17:45:31  5-MIN KMSN 252345Z 19011KT 10SM CLR 02/M06 A2974 1030 56 -300 190/11 RMK AO2
14837KMSN MSN20031125175013011/25/03 17:50:31  5-MIN KMSN 252350Z 20008KT 10SM CLR 02/M06 A2974 1030 56 -300 200/08 RMK AO2 SLP082 T00171061 10039 20017 55007
14837KMSN MSN20031125175509511/25/03 17:55:31  5-MIN KMSN 252355Z 20009KT 10SM CLR 02/M06 A2974 1030 56 -300 200/09 RMK AO2
14837KMSN MSN20031125180009511/25/03 18:00:31  5-MIN KMSN 260000Z 20008KT 10SM CLR 02/M06 A2975 1030 56 -300 190/08 RMK AO2
14837KMSN MSN20031125180509511/25/03 18:05:31  5-MIN KMSN 260005Z 21009KT 10SM CLR 02/M06 A2974 1030 56 -300 210/09 RMK AO2
14837KMSN MSN20031125181009511/25/03 18:10:31  5-MIN KMSN 260010Z 20008KT 10SM CLR 02/M06 A2975 1030 56 -300 200/08 RMK AO2
14837KMSN MSN20031125181509511/25/03 18:15:31  5-MIN KMSN 260015Z 20009KT 10SM CLR 02/M06 A2975 1020 56 -300 200/09 RMK AO2
14837KMSN MSN20031125182010111/25/03 18:20:31  5-MIN KMSN 260020Z 20008G15KT 10SM CLR 02/M06 A2975 1020 56 -300 200/08G15 RMK AO2
14837KMSN MSN20031125182509511/25/03 18:25:31  5-MIN KMSN 260025Z 20010KT 10SM CLR 02/M06 A2975 1020 56 -300 200/10 RMK AO2
14837KMSN MSN20031125183009511/25/03 18:30:31  5-MIN KMSN 260030Z 20009KT 10SM CLR 02/M06 A2976 1020 56 -300 200/09 RMK AO2
14837KMSN MSN20031125183509511/25/03 18:35:31  5-MIN KMSN 260035Z 20009KT 10SM CLR 02/M06 A2976 1020 56 -300 200/09 RMK AO2
14837KMSN MSN20031125184009511/25/03 18:40:31  5-MIN KMSN 260040Z 20009KT 10SM CLR 02/M06 A2976 1020 56 -300 200/09 RMK AO2
14837KMSN MSN20031125184509511/25/03 18:45:31  5-MIN KMSN 260045Z 20010KT 10SM CLR 02/M06 A2976 1020 56 -300 200/10 RMK AO2
14837KMSN MSN20031125185011211/25/03 18:50:31  5-MIN KMSN 260050Z 20011KT 10SM CLR 02/M06 A2976 1020 56 -300 200/11 RMK AO2 SLP086 T00171061
14837KMSN MSN20031125185510111/25/03 18:55:31  5-MIN KMSN 260055Z 20010G15KT 10SM CLR 02/M06 A2976 1010 56 -300 200/10G15 RMK AO2
14837KMSN MSN20031125190010111/25/03 19:00:31  5-MIN KMSN 260100Z 20010G15KT 10SM CLR 02/M06 A2976 1010 56 -300 200/10G15 RMK AO2
14837KMSN MSN20031125190509511/25/03 19:05:31  5-MIN KMSN 260105Z 20009KT 10SM CLR 02/M06 A2976 1010 56 -300 200/09 RMK AO2
14837KMSN MSN20031125191009511/25/03 19:10:31  5-MIN KMSN 260110Z 21009KT 10SM CLR 02/M06 A2976 1010 56 -300 210/09 RMK AO2
14837KMSN MSN20031125191509511/25/03 19:15:31  5-MIN KMSN 260115Z 20011KT 10SM CLR 02/M06 A2976 1010 56 -300 200/11 RMK AO2
14837KMSN MSN20031125192009511/25/03 19:20:31  5-MIN KMSN 260120Z 21007KT 10SM CLR 02/M06 A2976 1010 59 -300 210/07 RMK AO2
14837KMSN MSN20031125192510111/25/03 19:25:31  5-MIN KMSN 260125Z 21011G16KT 10SM CLR 02/M06 A2976 1010 59 -300 200/11G16 RMK AO2
14837KMSN MSN20031125193010111/25/03 19:30:31  5-MIN KMSN 260130Z 21010G16KT 10SM CLR 02/M06 A2976 1010 59 -300 210/10G16 RMK AO2
14837KMSN MSN20031125193509511/25/03 19:35:31  5-MIN KMSN 260135Z 21009KT 10SM CLR 02/M06 A2976 1010 59 -300 210/09 RMK AO2
14837KMSN MSN20031125194009511/25/03 19:40:31  5-MIN KMSN 260140Z 21010KT 10SM CLR 02/M06 A2976 1010 59 -300 210/10 RMK AO2
14837KMSN MSN20031125194509511/25/03 19:45:31  5-MIN KMSN 260145Z 22010KT 10SM CLR 02/M06 A2976 1010 59 -300 210/10 RMK AO2
14837KMSN MSN20031125195011211/25/03 19:50:31  5-MIN KMSN 260150Z 21010KT 10SM CLR 02/M06 A2976 1010 59 -300 210/10 RMK AO2 SLP089 T00171056
14837KMSN MSN20031125195510111/25/03 19:55:31  5-MIN KMSN 260155Z 21010G17KT 10SM CLR 02/M06 A2976 1010 59 -300 210/10G17 RMK AO2
14837KMSN MSN20031125200010111/25/03 20:00:31  5-MIN KMSN 260200Z 21010G17KT 10SM CLR 02/M06 A2977 1010 59 -300 210/10G17 RMK AO2
14837KMSN MSN20031125200510111/25/03 20:05:31  5-MIN KMSN 260205Z 21010G17KT 10SM CLR 02/M06 A2977 1010 59 -300 210/10G17 RMK AO2
14837KMSN MSN20031125201010111/25/03 20:10:31  5-MIN KMSN 260210Z 21009G17KT 10SM CLR 02/M06 A2976 1010 59 -300 210/09G17 RMK AO2
14837KMSN MSN20031125201510111/25/03 20:15:31  5-MIN KMSN 260215Z 21009G16KT 10SM CLR 02/M06 A2977 1000 59 -300 210/09G16 RMK AO2
14837KMSN MSN20031125202010111/25/03 20:20:31  5-MIN KMSN 260220Z 21010G16KT 10SM CLR 02/M05 A2977 1000 61 -300 210/10G16 RMK AO2
14837KMSN MSN20031125202509511/25/03 20:25:31  5-MIN KMSN 260225Z 21010KT 10SM CLR 02/M05 A2977 1000 61 -300 210/10 RMK AO2
14837KMSN MSN20031125203009511/25/03 20:30:31  5-MIN KMSN 260230Z 22008KT 10SM CLR 02/M06 A2977 1000 56 -300 220/08 RMK AO2
14837KMSN MSN20031125203510111/25/03 20:35:31  5-MIN KMSN 260235Z 22010G14KT 10SM CLR 01/M06 A2977 1000 58 -400 220/10G14 RMK AO2
14837KMSN MSN20031125204009511/25/03 20:40:31  5-MIN KMSN 260240Z 21008KT 10SM CLR 02/M06 A2977 1000 56 -300 210/08 RMK AO2
14837KMSN MSN20031125204509511/25/03 20:45:31  5-MIN KMSN 260245Z 21009KT 10SM CLR 02/M06 A2978 1000 56 -300 210/09 RMK AO2
14837KMSN MSN20031125205011811/25/03 20:50:31  5-MIN KMSN 260250Z 21009KT 10SM CLR 02/M06 A2977 1000 56 -300 210/09 RMK AO2 SLP091 T00171061 53010
14837KMSN MSN20031125205510111/25/03 20:55:31  5-MIN KMSN 260255Z 22008G17KT 10SM CLR 02/M06 A2978 1000 56 -300 220/08G17 RMK AO2
14837KMSN MSN20031125210010111/25/03 21:00:31  5-MIN KMSN 260300Z 21010G17KT 10SM CLR 02/M06 A2978 1000 59 -300 210/10G17 RMK AO2
14837KMSN MSN20031125210509511/25/03 21:05:31  5-MIN KMSN 260305Z 21010KT 10SM CLR 02/M06 A2977 1000 59 -300 210/10 RMK AO2
14837KMSN MSN20031125211009511/25/03 21:10:31  5-MIN KMSN 260310Z 22009KT 10SM CLR 02/M06 A2978 1000 59 -300 220/09 RMK AO2
14837KMSN MSN20031125211509511/25/03 21:15:31  5-MIN KMSN 260315Z 22008KT 10SM CLR 02/M06 A2978 1000 59 -300 220/08 RMK AO2
14837KMSN MSN20031125212010111/25/03 21:20:31  5-MIN KMSN 260320Z 21009G15KT 10SM CLR 02/M06 A2977 1000 59 -300 210/09G15 RMK AO2
14837KMSN MSN20031125212509511/25/03 21:25:31  5-MIN KMSN 260325Z 22010KT 10SM CLR 02/M06 A2977 1000 59 -300 220/10 RMK AO2
14837KMSN MSN20031125213009511/25/03 21:30:31  5-MIN KMSN 260330Z 21008KT 10SM CLR 02/M06 A2978 1000 59 -300 210/08 RMK AO2
14837KMSN MSN20031125213509511/25/03 21:35:31  5-MIN KMSN 260335Z 22008KT 10SM CLR 01/M06 A2978 1000 61 -400 220/08 RMK AO2
14837KMSN MSN20031125214009511/25/03 21:40:31  5-MIN KMSN 260340Z 22009KT 10SM CLR 01/M06 A2978 1000 61 -400 220/09 RMK AO2
14837KMSN MSN20031125214509511/25/03 21:45:31  5-MIN KMSN 260345Z 21010KT 10SM CLR 02/M06 A2978 1000 59 -300 210/10 RMK AO2
14837KMSN MSN20031125215011211/25/03 21:50:31  5-MIN KMSN 260350Z 22008KT 10SM CLR 02/M06 A2978 1000 59 -300 220/08 RMK AO2 SLP091 T00171056
14837KMSN MSN20031125215510111/25/03 21:55:31  5-MIN KMSN 260355Z 22010G16KT 10SM CLR 02/M06 A2978 1000 59 -300 220/10G16 RMK AO2
14837KMSN MSN20031125220010111/25/03 22:00:31  5-MIN KMSN 260400Z 21008G16KT 10SM CLR 02/M06 A2978 1000 59 -300 210/08G16 RMK AO2
14837KMSN MSN20031125220510011/25/03 22:05:31  5-MIN KMSN 260405Z 22009G15KT 10SM CLR 02/M06 A2978 990 59 -300 210/09G15 RMK AO2
14837KMSN MSN20031125221009411/25/03 22:10:31  5-MIN KMSN 260410Z 22008KT 10SM CLR 02/M06 A2978 990 59 -300 220/08 RMK AO2
14837KMSN MSN20031125221509411/25/03 22:15:31  5-MIN KMSN 260415Z 21010KT 10SM CLR 02/M06 A2978 990 59 -300 210/10 RMK AO2
14837KMSN MSN20031125222009411/25/03 22:20:31  5-MIN KMSN 260420Z 22010KT 10SM CLR 02/M06 A2979 990 59 -300 220/10 RMK AO2
14837KMSN MSN20031125222509411/25/03 22:25:31  5-MIN KMSN 260425Z 21010KT 10SM CLR 02/M06 A2979 990 59 -300 210/10 RMK AO2
14837KMSN MSN20031125223009411/25/03 22:30:31  5-MIN KMSN 260430Z 22009KT 10SM CLR 02/M06 A2979 990 59 -300 220/09 RMK AO2
14837KMSN MSN20031125223509411/25/03 22:35:31  5-MIN KMSN 260435Z 22008KT 10SM CLR 02/M06 A2979 990 59 -300 220/08 RMK AO2
14837KMSN MSN20031125224009411/25/03 22:40:31  5-MIN KMSN 260440Z 22008KT 10SM CLR 01/M06 A2979 990 61 -400 220/08 RMK AO2
14837KMSN MSN20031125224510011/25/03 22:45:31  5-MIN KMSN 260445Z 21008G15KT 10SM CLR 02/M06 A2979 980 59 -300 210/08G15 RMK AO2
14837KMSN MSN20031125225011111/25/03 22:50:31  5-MIN KMSN 260450Z 22009KT 10SM CLR 01/M06 A2979 980 61 -400 220/09 RMK AO2 SLP097 T00111056
14837KMSN MSN20031125225509411/25/03 22:55:31  5-MIN KMSN 260455Z 22008KT 10SM CLR 01/M06 A2979 980 61 -400 220/08 RMK AO2
14837KMSN MSN20031125230009411/25/03 23:00:31  5-MIN KMSN 260500Z 22007KT 10SM CLR 01/M06 A2979 980 61 -400 220/07 RMK AO2
14837KMSN MSN20031125230509411/25/03 23:05:31  5-MIN KMSN 260505Z 22009KT 10SM CLR 01/M06 A2980 980 61 -400 220/09 RMK AO2
14837KMSN MSN20031125231009411/25/03 23:10:31  5-MIN KMSN 260510Z 22008KT 10SM CLR 01/M06 A2980 980 61 -400 220/08 RMK AO2
14837KMSN MSN20031125231509411/25/03 23:15:31  5-MIN KMSN 260515Z 21007KT 10SM CLR 01/M06 A2980 970 61 -400 210/07 RMK AO2
14837KMSN MSN20031125232009411/25/03 23:20:31  5-MIN KMSN 260520Z 22007KT 10SM CLR 01/M06 A2980 980 61 -400 220/07 RMK AO2
14837KMSN MSN20031125232509411/25/03 23:25:31  5-MIN KMSN 260525Z 21009KT 10SM CLR 01/M06 A2980 980 61 -400 210/09 RMK AO2
14837KMSN MSN20031125233009411/25/03 23:30:31  5-MIN KMSN 260530Z 21007KT 10SM CLR 01/M06 A2980 970 61 -400 210/07 RMK AO2
14837KMSN MSN20031125233509411/25/03 23:35:31  5-MIN KMSN 260535Z 20007KT 10SM CLR 01/M06 A2980 970 61 -400 200/07 RMK AO2
14837KMSN MSN20031125234009411/25/03 23:40:31  5-MIN KMSN 260540Z 21008KT 10SM CLR 01/M06 A2981 970 61 -400 210/08 RMK AO2
14837KMSN MSN20031125234509411/25/03 23:45:31  5-MIN KMSN 260545Z 21008KT 10SM CLR 01/M06 A2981 970 61 -400 210/08 RMK AO2
14837KMSN MSN20031125235013911/25/03 23:50:31  5-MIN KMSN 260550Z 21007KT 10SM CLR 01/M06 A2981 970 61 -400 210/07 RMK AO2 SLP102 T00111056 10017 20011 400391050 51010
14837KMSN MSN20031125235509411/25/03 23:55:31  5-MIN KMSN 260555Z 21007KT 10SM CLR 01/M06 A2981 970 61 -400 210/07 RMK AO2
14837KMSN MSN20031126000009411/26/03 00:00:31  5-MIN KMSN 260600Z 22008KT 10SM CLR 01/M06 A2981 970 61 -400 220/08 RMK AO2
14837KMSN MSN20031126000509411/26/03 00:05:31  5-MIN KMSN 260605Z 22007KT 10SM CLR 01/M06 A2981 970 63 -500 220/07 RMK AO2
14837KMSN MSN20031126001009411/26/03 00:10:31  5-MIN KMSN 260610Z 21009KT 10SM CLR 01/M06 A2981 970 61 -400 210/09 RMK AO2
14837KMSN MSN20031126001509411/26/03 00:15:31  5-MIN KMSN 260615Z 21008KT 10SM CLR 01/M06 A2981 970 63 -500 210/08 RMK AO2
14837KMSN MSN20031126002009411/26/03 00:20:31  5-MIN KMSN 260620Z 22008KT 10SM CLR 01/M06 A2981 970 63 -500 220/08 RMK AO2
14837KMSN MSN20031126002509411/26/03 00:25:31  5-MIN KMSN 260625Z 21009KT 10SM CLR 01/M05 A2981 970 66 -500 210/09 RMK AO2
14837KMSN MSN20031126003009411/26/03 00:30:31  5-MIN KMSN 260630Z 22008KT 10SM CLR 01/M05 A2981 970 66 -500 220/08 RMK AO2
14837KMSN MSN20031126003509411/26/03 00:35:31  5-MIN KMSN 260635Z 22008KT 10SM CLR 01/M06 A2981 970 63 -500 220/08 RMK AO2
14837KMSN MSN20031126004009411/26/03 00:40:31  5-MIN KMSN 260640Z 22009KT 10SM CLR 01/M05 A2981 970 66 -500 210/09 RMK AO2
14837KMSN MSN20031126004509411/26/03 00:45:31  5-MIN KMSN 260645Z 21009KT 10SM CLR 01/M06 A2981 970 63 -500 210/09 RMK AO2
14837KMSN MSN20031126005011111/26/03 00:50:31  5-MIN KMSN 260650Z 21008KT 10SM CLR 01/M06 A2981 970 63 -500 210/08 RMK AO2 SLP102 T00061056
14837KMSN MSN20031126005509411/26/03 00:55:31  5-MIN KMSN 260655Z 21009KT 10SM CLR 01/M05 A2981 960 66 -500 210/09 RMK AO2
14837KMSN MSN20031126010009411/26/03 01:00:31  5-MIN KMSN 260700Z 21008KT 10SM CLR 01/M05 A2981 960 66 -500 210/08 RMK AO2
14837KMSN MSN20031126010509411/26/03 01:05:31  5-MIN KMSN 260705Z 22008KT 10SM CLR 01/M05 A2981 960 66 -500 220/08 RMK AO2
14837KMSN MSN20031126011009411/26/03 01:10:31  5-MIN KMSN 260710Z 22008KT 10SM CLR 01/M05 A2982 960 66 -500 220/08 RMK AO2
14837KMSN MSN20031126011509411/26/03 01:15:31  5-MIN KMSN 260715Z 22007KT 10SM CLR 01/M05 A2982 960 66 -500 220/07 RMK AO2
14837KMSN MSN20031126012009411/26/03 01:20:31  5-MIN KMSN 260720Z 22007KT 10SM CLR 01/M05 A2982 960 66 -500 210/07 RMK AO2
14837KMSN MSN20031126012509411/26/03 01:25:31  5-MIN KMSN 260725Z 22007KT 10SM CLR 00/M05 A2981 960 69 -500 220/07 RMK AO2
14837KMSN MSN20031126013009411/26/03 01:30:31  5-MIN KMSN 260730Z 22007KT 10SM CLR 01/M05 A2982 960 66 -500 220/07 RMK AO2
14837KMSN MSN20031126013509411/26/03 01:35:31  5-MIN KMSN 260735Z 22007KT 10SM CLR 00/M05 A2982 960 69 -500 220/07 RMK AO2
14837KMSN MSN20031126014009411/26/03 01:40:31  5-MIN KMSN 260740Z 21007KT 10SM CLR 00/M05 A2982 960 69 -600 210/07 RMK AO2
14837KMSN MSN20031126014509411/26/03 01:45:31  5-MIN KMSN 260745Z 22006KT 10SM CLR 00/M05 A2982 950 69 -600 220/06 RMK AO2
14837KMSN MSN20031126015011111/26/03 01:50:31  5-MIN KMSN 260750Z 22008KT 10SM CLR 00/M05 A2982 950 69 -600 220/08 RMK AO2 SLP108 T00001050
14837KMSN MSN20031126015509411/26/03 01:55:31  5-MIN KMSN 260755Z 21005KT 10SM CLR 00/M05 A2983 950 69 -600 210/05 RMK AO2
14837KMSN MSN20031126020009411/26/03 02:00:31  5-MIN KMSN 260800Z VRB06KT 10SM CLR 00/M05 A2983 950 69 -600 VRB/06 RMK AO2
14837KMSN MSN20031126020509411/26/03 02:05:31  5-MIN KMSN 260805Z 22007KT 10SM CLR 00/M04 A2983 950 72 -600 220/07 RMK AO2
14837KMSN MSN20031126021009411/26/03 02:10:31  5-MIN KMSN 260810Z 22007KT 10SM CLR 00/M04 A2983 950 72 -600 210/07 RMK AO2
14837KMSN MSN20031126021509411/26/03 02:15:31  5-MIN KMSN 260815Z 22007KT 10SM CLR 00/M04 A2984 940 72 -600 220/07 RMK AO2
14837KMSN MSN20031126022009411/26/03 02:20:31  5-MIN KMSN 260820Z 22005KT 10SM CLR 00/M04 A2984 940 72 -600 220/05 RMK AO2
14837KMSN MSN20031126022509411/26/03 02:25:31  5-MIN KMSN 260825Z 23006KT 10SM CLR 00/M04 A2984 940 72 -600 220/06 RMK AO2
14837KMSN MSN20031126023009411/26/03 02:30:31  5-MIN KMSN 260830Z 22006KT 10SM CLR 00/M04 A2984 940 72 -600 220/06 RMK AO2
14837KMSN MSN20031126023509411/26/03 02:35:31  5-MIN KMSN 260835Z 21006KT 10SM CLR 00/M04 A2984 940 72 -600 210/06 RMK AO2
14837KMSN MSN20031126024009411/26/03 02:40:31  5-MIN KMSN 260840Z 22006KT 10SM CLR 00/M04 A2984 940 72 -600 220/06 RMK AO2
14837KMSN MSN20031126024509411/26/03 02:45:31  5-MIN KMSN 260845Z 21006KT 10SM CLR 00/M04 A2984 940 72 -600 210/06 RMK AO2
14837KMSN MSN20031126025011711/26/03 02:50:31  5-MIN KMSN 260850Z 21006KT 10SM CLR 00/M04 A2984 940 72 -600 210/06 RMK AO2 SLP113 T00001044 53011
14837KMSN MSN20031126025509411/26/03 02:55:31  5-MIN KMSN 260855Z 22005KT 10SM CLR 00/M04 A2984 940 72 -600 220/05 RMK AO2
14837KMSN MSN20031126030009511/26/03 03:00:31  5-MIN KMSN 260900Z 22005KT 10SM CLR M01/M04 A2984 940 75 -600 210/05 RMK AO2
14837KMSN MSN20031126030509511/26/03 03:05:31  5-MIN KMSN 260905Z 22005KT 10SM CLR M01/M04 A2984 940 75 -600 220/05 RMK AO2
14837KMSN MSN20031126031009511/26/03 03:10:31  5-MIN KMSN 260910Z 22007KT 10SM CLR M01/M04 A2984 940 75 -600 220/07 RMK AO2
14837KMSN MSN20031126031509511/26/03 03:15:31  5-MIN KMSN 260915Z VRB05KT 10SM CLR M01/M04 A2985 930 75 -700 VRB/05 RMK AO2
14837KMSN MSN20031126032009511/26/03 03:20:31  5-MIN KMSN 260920Z 21005KT 10SM CLR M01/M04 A2985 930 75 -700 210/05 RMK AO2
14837KMSN MSN20031126032509511/26/03 03:25:31  5-MIN KMSN 260925Z 21006KT 10SM CLR M01/M04 A2985 930 75 -700 210/06 RMK AO2
14837KMSN MSN20031126033009511/26/03 03:30:31  5-MIN KMSN 260930Z 21005KT 10SM CLR M01/M04 A2985 930 75 -700 210/05 RMK AO2
14837KMSN MSN20031126033509511/26/03 03:35:31  5-MIN KMSN 260935Z 22004KT 10SM CLR M01/M04 A2985 930 75 -700 220/04 RMK AO2
14837KMSN MSN20031126034009511/26/03 03:40:31  5-MIN KMSN 260940Z VRB04KT 10SM CLR M01/M04 A2985 930 75 -700 VRB/04 RMK AO2
14837KMSN MSN20031126034509511/26/03 03:45:31  5-MIN KMSN 260945Z 22004KT 10SM CLR M01/M04 A2985 930 75 -700 220/04 RMK AO2
14837KMSN MSN20031126035011211/26/03 03:50:31  5-MIN KMSN 260950Z 22004KT 10SM CLR M01/M04 A2985 930 75 -700 220/04 RMK AO2 SLP116 T10061044
14837KMSN MSN20031126035509511/26/03 03:55:31  5-MIN KMSN 260955Z 22005KT 10SM CLR M01/M05 A2985 930 72 -700 220/05 RMK AO2
14837KMSN MSN20031126040009511/26/03 04:00:31  5-MIN KMSN 261000Z 23004KT 10SM CLR M01/M04 A2985 930 75 -700 230/04 RMK AO2
14837KMSN MSN20031126040509511/26/03 04:05:31  5-MIN KMSN 261005Z VRB04KT 10SM CLR M01/M05 A2985 930 75 -700 VRB/04 RMK AO2
14837KMSN MSN20031126041009511/26/03 04:10:31  5-MIN KMSN 261010Z 23004KT 10SM CLR M01/M04 A2985 930 78 -700 230/04 RMK AO2
14837KMSN MSN20031126041509511/26/03 04:15:31  5-MIN KMSN 261015Z VRB04KT 10SM CLR M01/M05 A2985 930 75 -700 VRB/04 RMK AO2
14837KMSN MSN20031126042009511/26/03 04:20:31  5-MIN KMSN 261020Z VRB03KT 10SM CLR M01/M05 A2985 930 75 -700 VRB/03 RMK AO2
14837KMSN MSN20031126042509511/26/03 04:25:31  5-MIN KMSN 261025Z 00000KT 10SM CLR M01/M06 A2985 930 72 -700 000/00 RMK AO2
14837KMSN MSN20031126043009511/26/03 04:30:31  5-MIN KMSN 261030Z 00000KT 10SM CLR M01/M06 A2985 930 72 -700 000/00 RMK AO2
14837KMSN MSN20031126043509511/26/03 04:35:31  5-MIN KMSN 261035Z 00000KT 10SM CLR M01/M06 A2985 930 72 -700 000/00 RMK AO2
14837KMSN MSN20031126044009511/26/03 04:40:31  5-MIN KMSN 261040Z 00000KT 10SM CLR M01/M06 A2986 920 72 -700 000/00 RMK AO2
14837KMSN MSN20031126044509511/26/03 04:45:31  5-MIN KMSN 261045Z 00000KT 10SM CLR M02/M06 A2987 910 75 -800 000/00 RMK AO2
14837KMSN MSN20031126045011211/26/03 04:50:31  5-MIN KMSN 261050Z 00000KT 10SM CLR M02/M06 A2987 910 75 -800 000/00 RMK AO2 SLP123 T10171056
14837KMSN MSN20031126045509511/26/03 04:55:31  5-MIN KMSN 261055Z 00000KT 10SM CLR M02/M06 A2987 910 75 -900 000/00 RMK AO2
14837KMSN MSN20031126050009511/26/03 05:00:31  5-MIN KMSN 261100Z 00000KT 10SM CLR M02/M06 A2987 910 78 -900 000/00 RMK AO2
14837KMSN MSN20031126050509511/26/03 05:05:31  5-MIN KMSN 261105Z 00000KT 10SM CLR M02/M06 A2987 910 75 -800 000/00 RMK AO2
14837KMSN MSN20031126051009511/26/03 05:10:31  5-MIN KMSN 261110Z 00000KT 10SM CLR M02/M06 A2987 910 75 -800 000/00 RMK AO2
14837KMSN MSN20031126051509611/26/03 05:15:31  5-MIN KMSN 261115Z 00000KT 10SM CLR M03/M06 A2987 910 78 -1000 000/00 RMK AO2
14837KMSN MSN20031126052009611/26/03 05:20:31  5-MIN KMSN 261120Z 00000KT 10SM CLR M03/M06 A2987 910 78 -1000 000/00 RMK AO2
14837KMSN MSN20031126052509511/26/03 05:25:31  5-MIN KMSN 261125Z VRB03KT 10SM CLR M02/M06 A2988 910 78 -900 VRB/03 RMK AO2
14837KMSN MSN20031126053009611/26/03 05:30:31  5-MIN KMSN 261130Z 00000KT 10SM CLR M03/M06 A2988 900 81 -1000 000/00 RMK AO2
14837KMSN MSN20031126053509511/26/03 05:35:31  5-MIN KMSN 261135Z 00000KT 10SM CLR M02/M06 A2988 900 78 -900 000/00 RMK AO2
14837KMSN MSN20031126054009611/26/03 05:40:31  5-MIN KMSN 261140Z 00000KT 10SM CLR M03/M06 A2989 900 78 -1000 000/00 RMK AO2
14837KMSN MSN20031126054509611/26/03 05:45:31  5-MIN KMSN 261145Z 22004KT 10SM CLR M03/M06 A2989 890 81 -1000 220/04 RMK AO2
14837KMSN MSN20031126055013011/26/03 05:50:31  5-MIN KMSN 261150Z VRB03KT 10SM CLR M02/M06 A2989 890 78 -900 VRB/03 RMK AO2 SLP132 T10221056 10011 21033 53010
14837KMSN MSN20031126055509611/26/03 05:55:31  5-MIN KMSN 261155Z 00000KT 10SM CLR M03/M06 A2990 890 78 -1000 000/00 RMK AO2
14837KMSN MSN20031126060009511/26/03 06:00:31  5-MIN KMSN 261200Z VRB03KT 10SM CLR M02/M06 A2990 890 78 -900 VRB/03 RMK AO2
14837KMSN MSN20031126060509511/26/03 06:05:31  5-MIN KMSN 261205Z 00000KT 10SM CLR M02/M06 A2990 880 78 -900 000/00 RMK AO2
14837KMSN MSN20031126061009511/26/03 06:10:31  5-MIN KMSN 261210Z 00000KT 10SM CLR M02/M06 A2990 880 78 -900 000/00 RMK AO2
14837KMSN MSN20031126061509511/26/03 06:15:31  5-MIN KMSN 261215Z 00000KT 10SM CLR M02/M06 A2990 880 78 -900 000/00 RMK AO2
14837KMSN MSN20031126062009511/26/03 06:20:31  5-MIN KMSN 261220Z 00000KT 10SM CLR M02/M06 A2990 880 78 -900 000/00 RMK AO2
14837KMSN MSN20031126062509611/26/03 06:25:31  5-MIN KMSN 261225Z 24003KT 10SM CLR M03/M06 A2990 880 81 -1000 240/03 RMK AO2
14837KMSN MSN20031126063009611/26/03 06:30:31  5-MIN KMSN 261230Z 00000KT 10SM CLR M03/M06 A2990 880 81 -1100 000/00 RMK AO2
14837KMSN MSN20031126063509611/26/03 06:35:31  5-MIN KMSN 261235Z 00000KT 10SM CLR M03/M06 A2990 880 78 -1000 000/00 RMK AO2
14837KMSN MSN20031126064009611/26/03 06:40:31  5-MIN KMSN 261240Z 00000KT 10SM CLR M03/M06 A2990 880 81 -1100 000/00 RMK AO2
14837KMSN MSN20031126064509611/26/03 06:45:31  5-MIN KMSN 261245Z 00000KT 10SM CLR M03/M06 A2990 880 78 -1000 000/00 RMK AO2
14837KMSN MSN20031126065011311/26/03 06:50:31  5-MIN KMSN 261250Z 00000KT 10SM CLR M03/M06 A2991 880 78 -1000 000/00 RMK AO2 SLP138 T10281061
14837KMSN MSN20031126065509611/26/03 06:55:31  5-MIN KMSN 261255Z 00000KT 10SM CLR M03/M06 A2991 880 78 -1000 000/00 RMK AO2
14837KMSN MSN20031126070009611/26/03 07:00:31  5-MIN KMSN 261300Z 00000KT 10SM CLR M03/M06 A2991 870 81 -1000 000/00 RMK AO2
14837KMSN MSN20031126070509611/26/03 07:05:31  5-MIN KMSN 261305Z 00000KT 10SM CLR M03/M06 A2991 870 78 -1000 000/00 RMK AO2
14837KMSN MSN20031126071009611/26/03 07:10:31  5-MIN KMSN 261310Z 00000KT 10SM CLR M03/M06 A2991 870 78 -1000 000/00 RMK AO2
14837KMSN MSN20031126071509611/26/03 07:15:31  5-MIN KMSN 261315Z 00000KT 10SM CLR M03/M06 A2992 870 81 -1000 000/00 RMK AO2
14837KMSN MSN20031126072009611/26/03 07:20:31  5-MIN KMSN 261320Z 00000KT 10SM CLR M03/M06 A2992 870 81 -1100 000/00 RMK AO2
14837KMSN MSN20031126072509611/26/03 07:25:31  5-MIN KMSN 261325Z 00000KT 10SM CLR M03/M06 A2992 870 81 -1100 000/00 RMK AO2
14837KMSN MSN20031126073009611/26/03 07:30:31  5-MIN KMSN 261330Z 00000KT 10SM CLR M03/M06 A2992 860 81 -1100 000/00 RMK AO2
14837KMSN MSN20031126073509611/26/03 07:35:31  5-MIN KMSN 261335Z 00000KT 10SM CLR M03/M06 A2992 860 81 -1100 000/00 RMK AO2
14837KMSN MSN20031126074009611/26/03 07:40:31  5-MIN KMSN 261340Z 00000KT 10SM CLR M03/M06 A2992 860 85 -1100 000/00 RMK AO2
14837KMSN MSN20031126074509611/26/03 07:45:31  5-MIN KMSN 261345Z 00000KT 10SM CLR M03/M06 A2992 860 81 -1000 000/00 RMK AO2
14837KMSN MSN20031126075011311/26/03 07:50:31  5-MIN KMSN 261350Z 00000KT 10SM CLR M03/M06 A2992 860 81 -1000 000/00 RMK AO2 SLP143 T10281056
14837KMSN MSN20031126075509611/26/03 07:55:31  5-MIN KMSN 261355Z 29003KT 10SM CLR M04/M06 A2992 860 85 -1200 280/03 RMK AO2
14837KMSN MSN20031126080009611/26/03 08:00:31  5-MIN KMSN 261400Z 30003KT 10SM CLR M04/M06 A2993 860 88 -1200 300/03 RMK AO2
14837KMSN MSN20031126080509611/26/03 08:05:31  5-MIN KMSN 261405Z 29003KT 10SM CLR M03/M06 A2993 860 81 -1100 290/03 RMK AO2
14837KMSN MSN20031126081009611/26/03 08:10:31  5-MIN KMSN 261410Z 29004KT 10SM CLR M03/M06 A2993 860 81 -1000 290/04 RMK AO2
14837KMSN MSN20031126081509611/26/03 08:15:31  5-MIN KMSN 261415Z 31003KT 10SM CLR M03/M06 A2993 860 81 -1000 310/03 RMK AO2
14837KMSN MSN20031126082009611/26/03 08:20:31  5-MIN KMSN 261420Z 32004KT 10SM CLR M02/M04 A2993 850 85 -1000 320/04 RMK AO2
14837KMSN MSN20031126082509511/26/03 08:25:31  5-MIN KMSN 261425Z 32003KT 10SM CLR M02/M05 A2993 850 78 -900 320/03 RMK AO2
14837KMSN MSN20031126083009511/26/03 08:30:31  5-MIN KMSN 261430Z 31003KT 10SM CLR M02/M05 A2994 850 78 -900 310/03 RMK AO2
14837KMSN MSN20031126083509511/26/03 08:35:31  5-MIN KMSN 261435Z 32003KT 10SM CLR M02/M05 A2994 850 78 -900 320/03 RMK AO2
14837KMSN MSN20031126084009511/26/03 08:40:31  5-MIN KMSN 261440Z 30003KT 10SM CLR M02/M05 A2994 850 78 -900 300/03 RMK AO2
14837KMSN MSN20031126084509511/26/03 08:45:31  5-MIN KMSN 261445Z 31003KT 10SM CLR M02/M05 A2994 850 78 -900 310/03 RMK AO2
14837KMSN MSN20031126085011811/26/03 08:50:31  5-MIN KMSN 261450Z 31003KT 10SM CLR M02/M05 A2993 850 78 -900 310/03 RMK AO2 SLP146 T10171050 53019
14837KMSN MSN20031126085509511/26/03 08:55:31  5-MIN KMSN 261455Z 31004KT 10SM CLR M02/M05 A2994 850 78 -900 310/04 RMK AO2
14837KMSN MSN20031126090009511/26/03 09:00:31  5-MIN KMSN 261500Z 31003KT 10SM CLR M01/M05 A2993 850 75 -800 310/03 RMK AO2
14837KMSN MSN20031126090509511/26/03 09:05:31  5-MIN KMSN 261505Z 30003KT 10SM CLR M01/M05 A2994 850 75 -800 300/03 RMK AO2
14837KMSN MSN20031126091009511/26/03 09:10:31  5-MIN KMSN 261510Z 30003KT 10SM CLR M01/M05 A2994 850 75 -800 290/03 RMK AO2
14837KMSN MSN20031126091509511/26/03 09:15:31  5-MIN KMSN 261515Z 00000KT 10SM CLR M01/M05 A2994 840 75 -800 000/00 RMK AO2
14837KMSN MSN20031126092009511/26/03 09:20:31  5-MIN KMSN 261520Z 00000KT 10SM CLR M01/M05 A2994 840 75 -800 000/00 RMK AO2
14837KMSN MSN20031126092509511/26/03 09:25:31  5-MIN KMSN 261525Z 00000KT 10SM CLR M01/M05 A2995 840 75 -800 000/00 RMK AO2
14837KMSN MSN20031126093009511/26/03 09:30:31  5-MIN KMSN 261530Z 00000KT 10SM CLR M01/M06 A2995 840 72 -800 000/00 RMK AO2
14837KMSN MSN20031126093509511/26/03 09:35:31  5-MIN KMSN 261535Z 00000KT 10SM CLR M01/M05 A2994 840 75 -800 000/00 RMK AO2
14837KMSN MSN20031126094009511/26/03 09:40:31  5-MIN KMSN 261540Z 01003KT 10SM CLR M01/M04 A2994 840 78 -800 360/03 RMK AO2
14837KMSN MSN20031126094509511/26/03 09:45:31  5-MIN KMSN 261545Z 00000KT 10SM CLR M01/M04 A2995 840 78 -800 000/00 RMK AO2
14837KMSN MSN20031126095011211/26/03 09:50:31  5-MIN KMSN 261550Z 00000KT 10SM CLR M01/M04 A2995 830 81 -800 000/00 RMK AO2 SLP152 T10111039
14837KMSN MSN20031126095509511/26/03 09:55:31  5-MIN KMSN 261555Z 00000KT 10SM CLR M01/M04 A2995 830 78 -800 000/00 RMK AO2
14837KMSN MSN20031126100009511/26/03 10:00:31  5-MIN KMSN 261600Z 00000KT 10SM CLR M01/M04 A2995 830 75 -800 000/00 RMK AO2
14837KMSN MSN20031126100509511/26/03 10:05:31  5-MIN KMSN 261605Z 00000KT 10SM CLR M01/M04 A2995 830 75 -800 000/00 RMK AO2
14837KMSN MSN20031126101009511/26/03 10:10:31  5-MIN KMSN 261610Z 00000KT 10SM CLR M01/M04 A2995 830 75 -800 000/00 RMK AO2
14837KMSN MSN20031126101509511/26/03 10:15:31  5-MIN KMSN 261615Z 00000KT 10SM CLR M01/M04 A2995 830 75 -800 000/00 RMK AO2
14837KMSN MSN20031126102009411/26/03 10:20:31  5-MIN KMSN 261620Z 00000KT 10SM CLR 00/M04 A2995 830 72 -700 000/00 RMK AO2
14837KMSN MSN20031126102509511/26/03 10:25:31  5-MIN KMSN 261625Z 00000KT 10SM CLR M01/M04 A2996 830 75 -800 000/00 RMK AO2
14837KMSN MSN20031126103009411/26/03 10:30:31  5-MIN KMSN 261630Z 00000KT 10SM CLR 00/M04 A2996 830 72 -700 000/00 RMK AO2
14837KMSN MSN20031126103509411/26/03 10:35:31  5-MIN KMSN 261635Z 00000KT 10SM CLR 00/M05 A2996 830 69 -700 000/00 RMK AO2
14837KMSN MSN20031126104009411/26/03 10:40:31  5-MIN KMSN 261640Z 00000KT 10SM CLR 00/M04 A2996 830 72 -700 000/00 RMK AO2
14837KMSN MSN20031126104509411/26/03 10:45:31  5-MIN KMSN 261645Z 16003KT 10SM CLR 00/M04 A2996 820 72 -700 160/03 RMK AO2
14837KMSN MSN20031126105011111/26/03 10:50:31  5-MIN KMSN 261650Z 15004KT 10SM CLR 00/M06 A2996 820 66 -700 150/04 RMK AO2 SLP156 T00001056
14837KMSN MSN20031126105509411/26/03 10:55:31  5-MIN KMSN 261655Z 16003KT 10SM CLR 01/M05 A2996 830 66 -600 150/03 RMK AO2
14837KMSN MSN20031126110009411/26/03 11:00:31  5-MIN KMSN 261700Z 15004KT 10SM CLR 01/M06 A2996 830 63 -600 150/04 RMK AO2
14837KMSN MSN20031126110510011/26/03 11:05:31  5-MIN KMSN 261705Z 17005KT 10SM CLR 02/M06 A2996 830 59 -500 170/05 RMK AO2 PNO $
14837KMSN MSN20031126111010011/26/03 11:10:31  5-MIN KMSN 261710Z 16004KT 10SM CLR 03/M04 A2996 830 57 -300 160/04 RMK AO2 PNO $
14837KMSN MSN20031126111510011/26/03 11:15:31  5-MIN KMSN 261715Z 15004KT 10SM CLR 03/M04 A2996 830 57 -300 150/04 RMK AO2 PNO $
14837KMSN MSN20031126112010011/26/03 11:20:31  5-MIN KMSN 261720Z 16004KT 10SM CLR 03/M06 A2996 830 52 -300 160/04 RMK AO2 PNO $
14837KMSN MSN20031126112510011/26/03 11:25:31  5-MIN KMSN 261725Z 14003KT 10SM CLR 03/M05 A2995 830 54 -300 140/03 RMK AO2 PNO $
14837KMSN MSN20031126113010011/26/03 11:30:31  5-MIN KMSN 261730Z 12003KT 10SM CLR 03/M05 A2995 840 56 -400 120/03 RMK AO2 PNO $
14837KMSN MSN20031126113510011/26/03 11:35:31  5-MIN KMSN 261735Z 15005KT 10SM CLR 03/M06 A2995 840 52 -300 150/05 RMK AO2 PNO $
14837KMSN MSN20031126114010011/26/03 11:40:31  5-MIN KMSN 261740Z 15005KT 10SM CLR 03/M06 A2995 840 50 -300 150/05 RMK AO2 PNO $
14837KMSN MSN20031126114510011/26/03 11:45:31  5-MIN KMSN 261745Z 16004KT 10SM CLR 03/M06 A2995 840 50 -300 150/04 RMK AO2 PNO $
14837KMSN MSN20031126115014111/26/03 11:50:31  5-MIN KMSN 261750Z 17003KT 10SM CLR 04/M06 A2995 840 50 -200 170/03 RMK AO2 SLP150 6//// T00391056 10039 21039 52014 PNO $
14837KMSN MSN20031126115510011/26/03 11:55:31  5-MIN KMSN 261755Z 16005KT 10SM CLR 03/M06 A2995 840 52 -300 160/05 RMK AO2 PNO $
14837KMSN MSN20031126120010011/26/03 12:00:31  5-MIN KMSN 261800Z 00000KT 10SM CLR 04/M06 A2995 840 50 -200 000/00 RMK AO2 PNO $
14837KMSN MSN20031126120510011/26/03 12:05:31  5-MIN KMSN 261805Z 13004KT 10SM CLR 03/M07 A2995 840 50 -400 130/04 RMK AO2 PNO $
14837KMSN MSN20031126121010011/26/03 12:10:31  5-MIN KMSN 261810Z 00000KT 10SM CLR 02/M07 A2995 840 52 -400 000/00 RMK AO2 PNO $
14837KMSN MSN20031126121510011/26/03 12:15:31  5-MIN KMSN 261815Z 00000KT 10SM CLR 03/M07 A2995 840 50 -300 000/00 RMK AO2 PNO $
14837KMSN MSN20031126122010011/26/03 12:20:31  5-MIN KMSN 261820Z 13003KT 10SM CLR 02/M07 A2995 840 52 -400 130/03 RMK AO2 PNO $
14837KMSN MSN20031126122510011/26/03 12:25:31  5-MIN KMSN 261825Z 00000KT 10SM CLR 03/M07 A2994 840 50 -300 000/00 RMK AO2 PNO $
14837KMSN MSN20031126123010011/26/03 12:30:31  5-MIN KMSN 261830Z 17003KT 10SM CLR 03/M07 A2994 840 50 -300 170/03 RMK AO2 PNO $
14837KMSN MSN20031126123510011/26/03 12:35:31  5-MIN KMSN 261835Z 00000KT 10SM CLR 03/M06 A2994 840 52 -300 000/00 RMK AO2 PNO $
14837KMSN MSN20031126124010011/26/03 12:40:31  5-MIN KMSN 261840Z 00000KT 10SM CLR 03/M06 A2994 840 52 -300 000/00 RMK AO2 PNO $
14837KMSN MSN20031126124510011/26/03 12:45:31  5-MIN KMSN 261845Z 00000KT 10SM CLR 03/M06 A2995 840 50 -300 000/00 RMK AO2 PNO $
14837KMSN MSN20031126125011711/26/03 12:50:31  5-MIN KMSN 261850Z 00000KT 10SM CLR 03/M06 A2994 840 50 -300 000/00 RMK AO2 SLP148 T00331061 PNO $
14837KMSN MSN20031126125510011/26/03 12:55:31  5-MIN KMSN 261855Z 13003KT 10SM CLR 03/M06 A2994 850 50 -300 130/03 RMK AO2 PNO $
14837KMSN MSN20031126130010011/26/03 13:00:31  5-MIN KMSN 261900Z 17004KT 10SM CLR 04/M06 A2994 850 48 -200 170/04 RMK AO2 PNO $
14837KMSN MSN20031126130510011/26/03 13:05:31  5-MIN KMSN 261905Z 16003KT 10SM CLR 04/M06 A2994 850 48 -200 150/03 RMK AO2 PNO $
14837KMSN MSN20031126131010011/26/03 13:10:31  5-MIN KMSN 261910Z 00000KT 10SM CLR 04/M06 A2993 850 48 -200 000/00 RMK AO2 PNO $
14837KMSN MSN20031126131510311/26/03 13:15:31  5-MIN KMSN 261915Z VRB03KT 10SM FEW110 04/M06 A2993 850 48 -200 VRB/03 RMK AO2 PNO $
14837KMSN MSN20031126132010311/26/03 13:20:31  5-MIN KMSN 261920Z 11003KT 10SM SCT120 04/M06 A2993 860 48 -200 110/03 RMK AO2 PNO $
14837KMSN MSN20031126132510311/26/03 13:25:31  5-MIN KMSN 261925Z 11003KT 10SM BKN120 04/M06 A2993 860 48 -200 110/03 RMK AO2 PNO $
14837KMSN MSN20031126133010311/26/03 13:30:31  5-MIN KMSN 261930Z 12004KT 10SM BKN110 04/M06 A2993 860 46 -100 110/04 RMK AO2 PNO $
14837KMSN MSN20031126133510311/26/03 13:35:31  5-MIN KMSN 261935Z 12004KT 10SM BKN110 04/M06 A2993 860 46 -100 120/04 RMK AO2 PNO $
14837KMSN MSN20031126134010311/26/03 13:40:31  5-MIN KMSN 261940Z 11004KT 10SM SCT120 04/M06 A2993 860 46 -100 110/04 RMK AO2 PNO $
14837KMSN MSN20031126134510311/26/03 13:45:31  5-MIN KMSN 261945Z 13004KT 10SM SCT120 04/M07 A2993 860 44 -100 120/04 RMK AO2 PNO $
14837KMSN MSN20031126135012011/26/03 13:50:31  5-MIN KMSN 261950Z 11004KT 10SM FEW110 04/M07 A2993 860 44 -100 110/04 RMK AO2 SLP142 T00441067 PNO $
14837KMSN MSN20031126135510311/26/03 13:55:31  5-MIN KMSN 261955Z 11003KT 10SM FEW110 04/M07 A2993 860 42 -100 110/03 RMK AO2 PNO $
14837KMSN MSN20031126140010011/26/03 14:00:31  5-MIN KMSN 262000Z 12003KT 10SM CLR 04/M08 A2993 860 41 -100 120/03 RMK AO2 PNO $
14837KMSN MSN20031126140510011/26/03 14:05:31  5-MIN KMSN 262005Z 13004KT 10SM CLR 05/M07 A2993 860 41 -100 130/04 RMK AO2 PNO $
14837KMSN MSN20031126141009611/26/03 14:10:31  5-MIN KMSN 262010Z 13004KT 10SM CLR 05/M07 A2993 860 41 -100 130/04 RMK AO2 $
14837KMSN MSN20031126141510011/26/03 14:15:31  5-MIN KMSN 262015Z 11004KT 10SM CLR 05/M07 A2993 860 41 -100 110/04 RMK AO2 PNO $
14837KMSN MSN20031126142010311/26/03 14:20:31  5-MIN KMSN 262020Z 12004KT 10SM FEW110 05/M07 A2993 860 41 -100 120/04 RMK AO2 PNO $
14837KMSN MSN20031126142509511/26/03 14:25:31  5-MIN KMSN 262025Z 16005KT FEW100 06/M07 A2993 860 39 0 160/05 RMK AO2 PNO $
14837KMSN MSN20031126143010211/26/03 14:30:31  5-MIN KMSN 262030Z 16007KT 10SM FEW100 07/M07 A2993 860 36 100 160/07 RMK AO2 PNO $
14837KMSN MSN20031126143510011/26/03 14:35:31  5-MIN KMSN 262035Z 16006KT 10SM FEW100 06/M07 A2993 860 38 0 160/06 RMK AO2 PNO $
14837KMSN MSN20031126144010011/26/03 14:40:31  5-MIN KMSN 262040Z 16005KT 10SM FEW100 06/M08 A2993 860 36 0 150/05 RMK AO2 PNO $
14837KMSN MSN20031126144510011/26/03 14:45:31  5-MIN KMSN 262045Z 14005KT 10SM FEW100 06/M08 A2993 860 37 0 140/05 RMK AO2 PNO $
14837KMSN MSN20031126145012911/26/03 14:50:31  5-MIN KMSN 262050Z 14005KT 10SM SCT095 06/M08 A2993 860 36 0 140/05 RMK AO2 SLP142 6//// T00561083 50005 PNO $
14837KMSN MSN20031126145510011/26/03 14:55:31  5-MIN KMSN 262055Z 12006KT 10SM BKN095 06/M08 A2993 860 37 0 110/06 RMK AO2 PNO $
14837KMSN MSN20031126150010711/26/03 15:00:31  5-MIN KMSN 262100Z 12006KT 10SM BKN095 BKN120 06/M08 A2993 860 37 0 120/06 RMK AO2 PNO $
14837KMSN MSN20031126150511011/26/03 15:05:31  5-MIN KMSN 262105Z 12006KT 10SM BKN095 BKN120 05/M08 A2993 860 39 -100 110/06 RMK AO2 PNO $
14837KMSN MSN20031126151011011/26/03 15:10:31  5-MIN KMSN 262110Z 11006KT 10SM BKN095 OVC120 05/M07 A2993 860 41 -100 100/06 RMK AO2 PNO $
14837KMSN MSN20031126151510311/26/03 15:15:31  5-MIN KMSN 262115Z 11005KT 10SM OVC100 04/M07 A2993 860 42 -100 110/05 RMK AO2 PNO $
14837KMSN MSN20031126152010311/26/03 15:20:31  5-MIN KMSN 262120Z 11005KT 10SM OVC100 05/M07 A2993 860 41 -100 110/05 RMK AO2 PNO $
14837KMSN MSN20031126152511011/26/03 15:25:31  5-MIN KMSN 262125Z 11004KT 10SM BKN100 OVC120 05/M07 A2993 860 41 -100 110/04 RMK AO2 PNO $
14837KMSN MSN20031126153010311/26/03 15:30:31  5-MIN KMSN 262130Z 11004KT 10SM OVC110 04/M06 A2993 860 46 -100 100/04 RMK AO2 PNO $
14837KMSN MSN20031126153510311/26/03 15:35:31  5-MIN KMSN 262135Z 09006KT 10SM OVC110 04/M06 A2992 860 48 -100 090/06 RMK AO2 PNO $
14837KMSN MSN20031126154010311/26/03 15:40:31  5-MIN KMSN 262140Z 09005KT 10SM OVC110 04/M06 A2992 860 46 -100 090/05 RMK AO2 PNO $
14837KMSN MSN20031126154510311/26/03 15:45:31  5-MIN KMSN 262145Z 09006KT 10SM OVC110 04/M06 A2992 860 46 -100 090/06 RMK AO2 PNO $
14837KMSN MSN20031126155012011/26/03 15:50:31  5-MIN KMSN 262150Z 08006KT 10SM OVC110 04/M06 A2992 860 48 -200 080/06 RMK AO2 SLP141 T00391061 PNO $
14837KMSN MSN20031126155510311/26/03 15:55:31  5-MIN KMSN 262155Z 07006KT 10SM OVC110 04/M07 A2992 870 46 -200 070/06 RMK AO2 PNO $
14837KMSN MSN20031126160009711/26/03 16:00:31  5-MIN KMSN 262200Z 08007KT 10SM OVC110 03/M07 A2992 860 48 -300 080/07 RMK AO2
14837KMSN MSN20031126160509711/26/03 16:05:31  5-MIN KMSN 262205Z 09005KT 10SM OVC110 03/M07 A2992 860 48 -300 090/05 RMK AO2
14837KMSN MSN20031126161009711/26/03 16:10:31  5-MIN KMSN 262210Z 08005KT 10SM OVC110 03/M07 A2992 860 48 -300 080/05 RMK AO2
14837KMSN MSN20031126161509711/26/03 16:15:31  5-MIN KMSN 262215Z 08006KT 10SM OVC110 03/M07 A2992 870 48 -300 080/06 RMK AO2
14837KMSN MSN20031126162009711/26/03 16:20:31  5-MIN KMSN 262220Z 09005KT 10SM BKN110 03/M07 A2992 870 48 -300 090/05 RMK AO2
14837KMSN MSN20031126162509711/26/03 16:25:31  5-MIN KMSN 262225Z 09004KT 10SM BKN110 03/M07 A2992 860 48 -300 090/04 RMK AO2
14837KMSN MSN20031126163009711/26/03 16:30:31  5-MIN KMSN 262230Z 10005KT 10SM BKN110 03/M07 A2992 870 50 -300 100/05 RMK AO2
14837KMSN MSN20031126163509711/26/03 16:35:31  5-MIN KMSN 262235Z 10004KT 10SM BKN110 02/M07 A2992 860 50 -400 090/04 RMK AO2
14837KMSN MSN20031126164009711/26/03 16:40:31  5-MIN KMSN 262240Z 11004KT 10SM BKN110 02/M07 A2992 860 54 -500 110/04 RMK AO2
14837KMSN MSN20031126164509711/26/03 16:45:31  5-MIN KMSN 262245Z 11005KT 10SM OVC110 02/M07 A2992 860 52 -500 110/05 RMK AO2
14837KMSN MSN20031126165011411/26/03 16:50:31  5-MIN KMSN 262250Z 12005KT 10SM OVC110 02/M07 A2992 860 54 -500 110/05 RMK AO2 SLP143 T00171067
14837KMSN MSN20031126165509711/26/03 16:55:31  5-MIN KMSN 262255Z 13006KT 10SM OVC120 02/M07 A2993 860 52 -500 130/06 RMK AO2
14837KMSN MSN20031126170009711/26/03 17:00:31  5-MIN KMSN 262300Z 12006KT 10SM OVC120 02/M07 A2993 860 52 -400 120/06 RMK AO2
14837KMSN MSN20031126170509711/26/03 17:05:31  5-MIN KMSN 262305Z 11005KT 10SM OVC120 02/M07 A2993 860 52 -400 110/05 RMK AO2
14837KMSN MSN20031126171009711/26/03 17:10:31  5-MIN KMSN 262310Z 11006KT 10SM OVC120 02/M07 A2992 860 52 -500 110/06 RMK AO2
14837KMSN MSN20031126171509711/26/03 17:15:31  5-MIN KMSN 262315Z 10005KT 10SM OVC120 02/M07 A2992 860 52 -500 100/05 RMK AO2
14837KMSN MSN20031126172009711/26/03 17:20:31  5-MIN KMSN 262320Z 09004KT 10SM OVC120 02/M07 A2993 860 52 -500 090/04 RMK AO2
14837KMSN MSN20031126172509711/26/03 17:25:31  5-MIN KMSN 262325Z 09005KT 10SM OVC110 02/M07 A2993 860 52 -500 090/05 RMK AO2
14837KMSN MSN20031126173009711/26/03 17:30:31  5-MIN KMSN 262330Z 09005KT 10SM BKN110 01/M07 A2992 860 54 -500 090/05 RMK AO2
14837KMSN MSN20031126173509711/26/03 17:35:31  5-MIN KMSN 262335Z 09006KT 10SM BKN110 01/M07 A2992 860 54 -500 090/06 RMK AO2
14837KMSN MSN20031126174009711/26/03 17:40:31  5-MIN KMSN 262340Z 08006KT 10SM BKN110 01/M07 A2992 860 56 -600 080/06 RMK AO2
14837KMSN MSN20031126174509711/26/03 17:45:31  5-MIN KMSN 262345Z 08005KT 10SM BKN110 01/M07 A2992 860 58 -600 080/05 RMK AO2
14837KMSN MSN20031126175013211/26/03 17:50:31  5-MIN KMSN 262350Z 08004KT 10SM BKN110 01/M07 A2993 860 56 -500 080/04 RMK AO2 SLP144 T00111067 10067 20006 55007
14837KMSN MSN20031126175509711/26/03 17:55:31  5-MIN KMSN 262355Z 09004KT 10SM BKN110 01/M06 A2993 860 58 -500 090/04 RMK AO2
14837KMSN MSN20031126180009711/26/03 18:00:31  5-MIN KMSN 270000Z 09003KT 10SM BKN110 01/M06 A2993 850 63 -600 090/03 RMK AO2
14837KMSN MSN20031126180509711/26/03 18:05:31  5-MIN KMSN 270005Z 11003KT 10SM BKN110 01/M06 A2993 850 61 -600 110/03 RMK AO2
14837KMSN MSN20031126181009711/26/03 18:10:31  5-MIN KMSN 270010Z 09005KT 10SM BKN110 02/M06 A2993 850 59 -500 090/05 RMK AO2
14837KMSN MSN20031126181509711/26/03 18:15:31  5-MIN KMSN 270015Z 09004KT 10SM BKN110 02/M06 A2994 850 56 -400 090/04 RMK AO2
14837KMSN MSN20031126182009711/26/03 18:20:31  5-MIN KMSN 270020Z 08003KT 10SM BKN110 02/M06 A2994 850 56 -500 080/03 RMK AO2
14837KMSN MSN20031126182509711/26/03 18:25:31  5-MIN KMSN 270025Z 00000KT 10SM BKN110 01/M06 A2994 850 61 -600 000/00 RMK AO2
14837KMSN MSN20031126183009711/26/03 18:30:31  5-MIN KMSN 270030Z 00000KT 10SM BKN110 01/M06 A2994 850 61 -600 000/00 RMK AO2
14837KMSN MSN20031126183509711/26/03 18:35:31  5-MIN KMSN 270035Z 00000KT 10SM OVC095 01/M06 A2994 840 61 -600 000/00 RMK AO2
14837KMSN MSN20031126184009711/26/03 18:40:31  5-MIN KMSN 270040Z 00000KT 10SM OVC095 01/M06 A2995 840 58 -600 000/00 RMK AO2
14837KMSN MSN20031126184509711/26/03 18:45:31  5-MIN KMSN 270045Z 12004KT 10SM OVC095 02/M06 A2995 840 56 -500 120/04 RMK AO2
14837KMSN MSN20031126185011411/26/03 18:50:31  5-MIN KMSN 270050Z 11006KT 10SM OVC090 02/M06 A2995 840 56 -400 110/06 RMK AO2 SLP151 T00221056
14837KMSN MSN20031126185509711/26/03 18:55:31  5-MIN KMSN 270055Z 11007KT 10SM OVC090 02/M06 A2995 840 56 -400 110/07 RMK AO2
14837KMSN MSN20031126190009711/26/03 19:00:31  5-MIN KMSN 270100Z 11007KT 10SM OVC085 03/M06 A2995 840 52 -400 110/07 RMK AO2
14837KMSN MSN20031126190509711/26/03 19:05:31  5-MIN KMSN 270105Z 11007KT 10SM OVC080 03/M06 A2995 840 52 -400 110/07 RMK AO2
14837KMSN MSN20031126191009711/26/03 19:10:31  5-MIN KMSN 270110Z 11007KT 10SM OVC080 03/M06 A2995 840 52 -400 110/07 RMK AO2
14837KMSN MSN20031126191510411/26/03 19:15:31  5-MIN KMSN 270115Z 12009KT 10SM BKN070 OVC085 03/M06 A2995 840 52 -400 110/09 RMK AO2
14837KMSN MSN20031126192009711/26/03 19:20:31  5-MIN KMSN 270120Z 11008KT 10SM OVC070 03/M06 A2995 840 52 -400 110/08 RMK AO2
14837KMSN MSN20031126192509711/26/03 19:25:31  5-MIN KMSN 270125Z 11008KT 10SM OVC070 03/M06 A2995 840 52 -400 110/08 RMK AO2
14837KMSN MSN20031126193009711/26/03 19:30:31  5-MIN KMSN 270130Z 12007KT 10SM OVC070 03/M07 A2995 830 50 -400 120/07 RMK AO2
14837KMSN MSN20031126193509711/26/03 19:35:31  5-MIN KMSN 270135Z 13006KT 10SM OVC065 03/M06 A2995 830 52 -400 130/06 RMK AO2
14837KMSN MSN20031126194009711/26/03 19:40:31  5-MIN KMSN 270140Z 12007KT 10SM OVC065 03/M06 A2995 830 52 -400 120/07 RMK AO2
14837KMSN MSN20031126194509711/26/03 19:45:31  5-MIN KMSN 270145Z 12008KT 10SM OVC065 03/M06 A2996 830 54 -400 120/08 RMK AO2
14837KMSN MSN20031126195011411/26/03 19:50:31  5-MIN KMSN 270150Z 11008KT 10SM OVC065 03/M06 A2995 830 54 -400 110/08 RMK AO2 SLP153 T00281056
14837KMSN MSN20031126195510411/26/03 19:55:31  5-MIN KMSN 270155Z 12007KT 10SM BKN065 OVC080 03/M05 A2995 830 56 -400 120/07 RMK AO2
14837KMSN MSN20031126200009711/26/03 20:00:31  5-MIN KMSN 270200Z 11007KT 10SM OVC070 03/M05 A2995 830 56 -400 110/07 RMK AO2
14837KMSN MSN20031126200509711/26/03 20:05:31  5-MIN KMSN 270205Z 11008KT 10SM OVC070 03/M04 A2995 830 59 -400 110/08 RMK AO2
14837KMSN MSN20031126201010411/26/03 20:10:31  5-MIN KMSN 270210Z 11008KT 10SM BKN075 OVC090 03/M04 A2995 840 59 -400 110/08 RMK AO2
14837KMSN MSN20031126201510411/26/03 20:15:31  5-MIN KMSN 270215Z 11007KT 10SM BKN075 OVC090 03/M04 A2995 830 59 -400 110/07 RMK AO2
14837KMSN MSN20031126202010411/26/03 20:20:31  5-MIN KMSN 270220Z 10006KT 10SM BKN070 OVC090 03/M04 A2995 840 59 -400 100/06 RMK AO2
14837KMSN MSN20031126202510411/26/03 20:25:31  5-MIN KMSN 270225Z 09007KT 10SM BKN070 OVC090 03/M04 A2995 840 61 -400 090/07 RMK AO2
14837KMSN MSN20031126203010411/26/03 20:30:31  5-MIN KMSN 270230Z 07006KT 10SM BKN070 OVC085 03/M04 A2995 840 61 -400 070/06 RMK AO2
14837KMSN MSN20031126203510411/26/03 20:35:31  5-MIN KMSN 270235Z 08005KT 10SM BKN070 OVC095 03/M04 A2995 840 61 -400 080/05 RMK AO2
14837KMSN MSN20031126204010411/26/03 20:40:31  5-MIN KMSN 270240Z 10006KT 10SM SCT070 BKN095 03/M04 A2995 830 61 -400 100/06 RMK AO2
14837KMSN MSN20031126204510411/26/03 20:45:31  5-MIN KMSN 270245Z 10006KT 10SM SCT070 BKN085 03/M04 A2995 830 61 -400 100/06 RMK AO2
14837KMSN MSN20031126205012711/26/03 20:50:31  5-MIN KMSN 270250Z 10005KT 10SM BKN080 OVC100 02/M04 A2995 830 64 -400 100/05 RMK AO2 SLP153 T00221039 55000
14837KMSN MSN20031126205510411/26/03 20:55:31  5-MIN KMSN 270255Z 10005KT 10SM BKN080 OVC100 02/M04 A2996 830 64 -400 100/05 RMK AO2
14837KMSN MSN20031126210010411/26/03 21:00:31  5-MIN KMSN 270300Z 11004KT 10SM BKN070 OVC085 02/M03 A2996 830 67 -400 110/04 RMK AO2
14837KMSN MSN20031126210509711/26/03 21:05:31  5-MIN KMSN 270305Z 11004KT 10SM OVC075 02/M03 A2996 830 67 -400 110/04 RMK AO2
14837KMSN MSN20031126211010411/26/03 21:10:31  5-MIN KMSN 270310Z 10004KT 10SM BKN075 OVC100 02/M03 A2996 830 67 -400 100/04 RMK AO2
14837KMSN MSN20031126211510411/26/03 21:15:31  5-MIN KMSN 270315Z 10004KT 10SM BKN075 OVC095 02/M03 A2996 830 67 -400 100/04 RMK AO2
14837KMSN MSN20031126212010411/26/03 21:20:31  5-MIN KMSN 270320Z 10004KT 10SM BKN075 OVC100 02/M03 A2996 830 69 -400 100/04 RMK AO2
14837KMSN MSN20031126212510411/26/03 21:25:31  5-MIN KMSN 270325Z 10006KT 10SM SCT075 OVC095 03/M03 A2996 830 67 -400 100/06 RMK AO2
14837KMSN MSN20031126213010411/26/03 21:30:31  5-MIN KMSN 270330Z 09006KT 10SM FEW075 OVC100 02/M03 A2996 830 69 -400 090/06 RMK AO2
14837KMSN MSN20031126213509711/26/03 21:35:31  5-MIN KMSN 270335Z 09005KT 10SM OVC095 02/M02 A2995 830 72 -400 090/05 RMK AO2
14837KMSN MSN20031126214009711/26/03 21:40:31  5-MIN KMSN 270340Z 09005KT 10SM OVC095 02/M02 A2995 830 72 -400 090/05 RMK AO2
14837KMSN MSN20031126214509711/26/03 21:45:31  5-MIN KMSN 270345Z 08005KT 10SM OVC100 02/M02 A2996 830 72 -400 080/05 RMK AO2
14837KMSN MSN20031126215011411/26/03 21:50:31  5-MIN KMSN 270350Z 08005KT 10SM OVC095 02/M02 A2995 830 72 -400 080/05 RMK AO2 SLP153 T00221022
14837KMSN MSN20031126215509711/26/03 21:55:31  5-MIN KMSN 270355Z 08005KT 10SM OVC090 02/M02 A2995 830 72 -400 080/05 RMK AO2
14837KMSN MSN20031126220009711/26/03 22:00:31  5-MIN KMSN 270400Z 07005KT 10SM OVC090 02/M02 A2995 840 75 -500 060/05 RMK AO2
14837KMSN MSN20031126220509711/26/03 22:05:31  5-MIN KMSN 270405Z 07005KT 10SM OVC090 02/M02 A2995 840 75 -500 060/05 RMK AO2
14837KMSN MSN20031126221009711/26/03 22:10:31  5-MIN KMSN 270410Z 07004KT 10SM OVC090 02/M02 A2995 840 75 -500 070/04 RMK AO2
14837KMSN MSN20031126221509711/26/03 22:15:31  5-MIN KMSN 270415Z 08004KT 10SM OVC090 02/M02 A2995 830 75 -500 080/04 RMK AO2
14837KMSN MSN20031126222009711/26/03 22:20:31  5-MIN KMSN 270420Z 08005KT 10SM OVC085 02/M02 A2995 830 72 -400 080/05 RMK AO2
14837KMSN MSN20031126222509711/26/03 22:25:31  5-MIN KMSN 270425Z 08004KT 10SM OVC080 02/M02 A2996 830 72 -400 080/04 RMK AO2
14837KMSN MSN20031126223009711/26/03 22:30:31  5-MIN KMSN 270430Z 07003KT 10SM OVC080 02/M02 A2995 830 72 -400 070/03 RMK AO2
14837KMSN MSN20031126223509711/26/03 22:35:31  5-MIN KMSN 270435Z 09005KT 10SM OVC075 02/M02 A2995 830 75 -400 080/05 RMK AO2
14837KMSN MSN20031126224009711/26/03 22:40:31  5-MIN KMSN 270440Z 09005KT 10SM OVC075 02/M02 A2995 830 75 -400 090/05 RMK AO2
14837KMSN MSN20031126224509711/26/03 22:45:31  5-MIN KMSN 270445Z 09005KT 10SM OVC075 02/M02 A2995 840 75 -400 090/05 RMK AO2
14837KMSN MSN20031126225011411/26/03 22:50:31  5-MIN KMSN 270450Z 08005KT 10SM OVC075 02/M01 A2995 840 78 -400 080/05 RMK AO2 SLP151 T00221011
14837KMSN MSN20031126225509711/26/03 22:55:31  5-MIN KMSN 270455Z 08005KT 10SM OVC075 02/M01 A2995 840 78 -400 080/05 RMK AO2
14837KMSN MSN20031126230009711/26/03 23:00:31  5-MIN KMSN 270500Z 09005KT 10SM OVC070 02/M01 A2995 840 78 -400 090/05 RMK AO2
14837KMSN MSN20031126230509611/26/03 23:05:31  5-MIN KMSN 270505Z 10006KT 10SM OVC065 02/00 A2995 840 85 -400 100/06 RMK AO2
14837KMSN MSN20031126231009611/26/03 23:10:31  5-MIN KMSN 270510Z 11008KT 10SM OVC060 02/00 A2995 840 85 -400 110/08 RMK AO2
14837KMSN MSN20031126231510411/26/03 23:15:31  5-MIN KMSN 270515Z 11008KT 10SM BKN060 OVC075 03/M01 A2994 840 75 -300 110/08 RMK AO2
14837KMSN MSN20031126232010411/26/03 23:20:31  5-MIN KMSN 270520Z 11007KT 10SM BKN060 OVC075 03/M01 A2995 840 75 -300 110/07 RMK AO2
14837KMSN MSN20031126232512011/26/03 23:25:31  5-MIN KMSN 270525Z 11008KT 10SM -RA BKN047 OVC070 03/M01 A2995 840 79 -300 110/08 RMK AO2 RAB24 P0000
14837KMSN MSN20031126233012011/26/03 23:30:31  5-MIN KMSN 270530Z 11009KT 10SM -RA BKN040 OVC070 03/M01 A2995 840 79 -300 110/09 RMK AO2 RAB24 P0000
14837KMSN MSN20031126233511911/26/03 23:35:31  5-MIN KMSN 270535Z 11008KT 9SM -RA BKN036 OVC070 02/M01 A2995 840 82 -400 110/08 RMK AO2 RAB24 P0000
14837KMSN MSN20031126234012611/26/03 23:40:31  5-MIN KMSN 270540Z 11009KT 9SM -RA BKN036 BKN048 OVC070 02/M01 A2994 840 82 -400 110/09 RMK AO2 RAB24 P0000
14837KMSN MSN20031126234511911/26/03 23:45:31  5-MIN KMSN 270545Z 10008KT 9SM -RA BKN036 OVC048 02/M01 A2994 850 82 -400 100/08 RMK AO2 RAB24 P0000
14837KMSN MSN20031126235016211/26/03 23:50:31  5-MIN KMSN 270550Z 10007KT 9SM -RA OVC036 02/00 A2994 850 85 -400 100/07 RMK AO2 RAB24 SLP146 P0000 60000 T00220000 10028 20006 400671039 51009
14837KMSN MSN20031126235510511/26/03 23:55:31  5-MIN KMSN 270555Z 09006KT 8SM -RA OVC036 02/00 A2994 850 85 -400 090/06 RMK AO2 P0000
14837KMSN MSN20031127000010511/27/03 00:00:31  5-MIN KMSN 270600Z 08005KT 8SM -RA OVC036 02/00 A2993 850 85 -400 070/05 RMK AO2 P0000
14837KMSN MSN20031127000510511/27/03 00:05:31  5-MIN KMSN 270605Z 06005KT 9SM -RA OVC038 02/00 A2993 850 85 -400 060/05 RMK AO2 P0000
14837KMSN MSN20031127001010511/27/03 00:10:31  5-MIN KMSN 270610Z 06005KT 9SM -RA OVC038 02/00 A2993 850 89 -500 060/05 RMK AO2 P0000
14837KMSN MSN20031127001511211/27/03 00:15:31  5-MIN KMSN 270615Z 09006KT 8SM -RA BKN037 OVC044 02/00 A2993 850 89 -500 090/06 RMK AO2 P0000
14837KMSN MSN20031127002011911/27/03 00:20:31  5-MIN KMSN 270620Z 09005KT 8SM -RA SCT037 BKN044 OVC080 02/00 A2993 850 89 -500 090/05 RMK AO2 P0000
14837KMSN MSN20031127002511911/27/03 00:25:31  5-MIN KMSN 270625Z 00000KT 7SM -RA SCT037 BKN044 OVC080 02/00 A2993 850 89 -500 000/00 RMK AO2 P0000
14837KMSN MSN20031127003011911/27/03 00:30:31  5-MIN KMSN 270630Z 00000KT 7SM -RA SCT041 BKN050 OVC075 02/00 A2993 850 89 -500 000/00 RMK AO2 P0000
14837KMSN MSN20031127003511911/27/03 00:35:31  5-MIN KMSN 270635Z 00000KT 7SM -RA FEW043 BKN050 OVC080 02/00 A2993 850 89 -500 000/00 RMK AO2 P0000
14837KMSN MSN20031127004011911/27/03 00:40:31  5-MIN KMSN 270640Z 00000KT 7SM -RA FEW043 SCT050 OVC075 02/00 A2993 850 89 -500 000/00 RMK AO2 P0000
14837KMSN MSN20031127004512111/27/03 00:45:31  5-MIN KMSN 270645Z 00000KT 8SM FEW050 BKN070 OVC080 02/00 A2993 850 85 -400 000/00 RMK AO2 RAE41 P0000
14837KMSN MSN20031127005013811/27/03 00:50:31  5-MIN KMSN 270650Z 00000KT 8SM FEW037 SCT050 OVC070 02/00 A2993 850 85 -400 000/00 RMK AO2 RAE41 SLP143 P0000 T00220000
14837KMSN MSN20031127005510911/27/03 00:55:31  5-MIN KMSN 270655Z 04004KT 8SM FEW037 BKN050 OVC070 02/00 A2993 860 89 -500 040/04 RMK AO2
14837KMSN MSN20031127010010911/27/03 01:00:31  5-MIN KMSN 270700Z 03004KT 8SM FEW037 BKN050 OVC070 02/00 A2993 860 89 -500 020/04 RMK AO2
14837KMSN MSN20031127010510911/27/03 01:05:31  5-MIN KMSN 270705Z 01004KT 7SM FEW037 BKN050 OVC070 02/00 A2992 860 89 -500 360/04 RMK AO2
14837KMSN MSN20031127011010911/27/03 01:10:31  5-MIN KMSN 270710Z 35004KT 7SM FEW037 BKN050 OVC070 02/00 A2992 860 89 -500 350/04 RMK AO2
14837KMSN MSN20031127011510211/27/03 01:15:31  5-MIN KMSN 270715Z 34003KT 7SM FEW037 OVC055 02/00 A2992 860 89 -500 340/03 RMK AO2
14837KMSN MSN20031127012009511/27/03 01:20:31  5-MIN KMSN 270720Z 00000KT 7SM OVC055 02/00 A2992 860 85 -400 000/00 RMK AO2
14837KMSN MSN20031127012510211/27/03 01:25:31  5-MIN KMSN 270725Z 02004KT 7SM FEW033 OVC055 02/00 A2992 870 85 -400 020/04 RMK AO2
14837KMSN MSN20031127013010211/27/03 01:30:31  5-MIN KMSN 270730Z VRB03KT 7SM SCT035 OVC055 02/01 A2992 860 89 -400 VRB/03 RMK AO2
14837KMSN MSN20031127013510211/27/03 01:35:31  5-MIN KMSN 270735Z 07003KT 8SM BKN035 OVC055 02/01 A2992 860 89 -400 070/03 RMK AO2
14837KMSN MSN20031127014010211/27/03 01:40:31  5-MIN KMSN 270740Z 10003KT 7SM BKN035 OVC055 02/01 A2993 860 89 -400 100/03 RMK AO2
14837KMSN MSN20031127014510211/27/03 01:45:31  5-MIN KMSN 270745Z 00000KT 7SM BKN035 OVC055 02/01 A2993 860 89 -400 000/00 RMK AO2
14837KMSN MSN20031127015012811/27/03 01:50:31  5-MIN KMSN 270750Z 00000KT 7SM -RA OVC035 02/01 A2993 860 89 -400 000/00 RMK AO2 RAB49 SLP142 P0000 T00220006
14837KMSN MSN20031127015511211/27/03 01:55:31  5-MIN KMSN 270755Z 09005KT 7SM -RA BKN032 OVC039 02/01 A2993 850 89 -400 090/05 RMK AO2 P0000
14837KMSN MSN20031127020011211/27/03 02:00:31  5-MIN KMSN 270800Z 09005KT 7SM -RA BKN030 OVC037 02/01 A2993 850 92 -400 080/05 RMK AO2 P0000
14837KMSN MSN20031127020511211/27/03 02:05:31  5-MIN KMSN 270805Z 08006KT 7SM -RA BKN028 OVC037 03/01 A2993 850 89 -300 080/06 RMK AO2 P0000
14837KMSN MSN20031127021011211/27/03 02:10:31  5-MIN KMSN 270810Z 07005KT 7SM -RA BKN028 OVC035 03/01 A2993 850 89 -300 070/05 RMK AO2 P0000
14837KMSN MSN20031127021511211/27/03 02:15:31  5-MIN KMSN 270815Z 07006KT 7SM -RA BKN028 OVC033 02/01 A2993 850 92 -400 070/06 RMK AO2 P0000
14837KMSN MSN20031127022010811/27/03 02:20:31  5-MIN KMSN 270820Z 06005KT 6SM -RA BR OVC028 02/01 A2994 850 92 -400 060/05 RMK AO2 P0000
14837KMSN MSN20031127022511011/27/03 02:25:31  5-MIN KMSN 270825Z 07007KT 6SM BR OVC030 02/01 A2993 850 92 -400 070/07 RMK AO2 RAE22 P0000
14837KMSN MSN20031127023011711/27/03 02:30:31  5-MIN KMSN 270830Z 07006KT 6SM BR SCT028 OVC033 02/01 A2993 850 92 -400 070/06 RMK AO2 RAE22 P0000
14837KMSN MSN20031127023511711/27/03 02:35:31  5-MIN KMSN 270835Z 06005KT 6SM BR BKN030 OVC050 02/01 A2993 850 92 -400 060/05 RMK AO2 RAE22 P0000
14837KMSN MSN20031127024011711/27/03 02:40:31  5-MIN KMSN 270840Z 06004KT 5SM BR BKN030 OVC050 02/01 A2993 850 92 -400 060/04 RMK AO2 RAE22 P0000
14837KMSN MSN20031127024511011/27/03 02:45:31  5-MIN KMSN 270845Z 06005KT 5SM BR OVC030 02/01 A2993 850 92 -400 060/05 RMK AO2 RAE22 P0000
14837KMSN MSN20031127025014611/27/03 02:50:31  5-MIN KMSN 270850Z 05005KT 5SM BR BKN031 OVC050 02/01 A2993 850 92 -400 050/05 RMK AO2 RAE22 SLP143 P0000 60000 T00220011 58006
14837KMSN MSN20031127025510511/27/03 02:55:31  5-MIN KMSN 270855Z 05004KT 5SM BR BKN031 OVC050 02/01 A2993 850 92 -400 050/04 RMK AO2
14837KMSN MSN20031127030010511/27/03 03:00:31  5-MIN KMSN 270900Z 02003KT 6SM BR BKN029 OVC050 02/01 A2993 850 92 -400 020/03 RMK AO2
14837KMSN MSN20031127030510511/27/03 03:05:31  5-MIN KMSN 270905Z 02004KT 6SM BR BKN029 OVC050 02/01 A2993 850 92 -400 020/04 RMK AO2
14837KMSN MSN20031127031010511/27/03 03:10:31  5-MIN KMSN 270910Z 03005KT 5SM BR BKN031 OVC050 02/01 A2993 860 92 -400 030/05 RMK AO2
14837KMSN MSN20031127031510511/27/03 03:15:31  5-MIN KMSN 270915Z 05006KT 5SM BR BKN031 OVC050 02/01 A2993 860 92 -400 050/06 RMK AO2
14837KMSN MSN20031127032010511/27/03 03:20:31  5-MIN KMSN 270920Z 05007KT 5SM BR SCT031 OVC050 02/01 A2993 860 92 -400 050/07 RMK AO2
14837KMSN MSN20031127032510511/27/03 03:25:31  5-MIN KMSN 270925Z 04006KT 5SM BR SCT031 OVC050 02/01 A2993 860 92 -400 040/06 RMK AO2
14837KMSN MSN20031127033010511/27/03 03:30:31  5-MIN KMSN 270930Z 04006KT 5SM BR FEW031 OVC050 02/01 A2993 860 92 -400 040/06 RMK AO2
14837KMSN MSN20031127033510511/27/03 03:35:31  5-MIN KMSN 270935Z 04006KT 6SM BR FEW031 OVC050 02/01 A2993 850 92 -400 040/06 RMK AO2
14837KMSN MSN20031127034009811/27/03 03:40:31  5-MIN KMSN 270940Z 04006KT 6SM BR OVC050 02/01 A2993 860 92 -400 040/06 RMK AO2
14837KMSN MSN20031127034510511/27/03 03:45:31  5-MIN KMSN 270945Z 04006KT 6SM BR BKN050 OVC080 02/01 A2993 860 89 -400 040/06 RMK AO2
14837KMSN MSN20031127035012211/27/03 03:50:31  5-MIN KMSN 270950Z 04006KT 5SM BR BKN050 OVC080 02/01 A2992 860 89 -400 040/06 RMK AO2 SLP140 T00220006
14837KMSN MSN20031127035510511/27/03 03:55:31  5-MIN KMSN 270955Z 04006KT 5SM BR BKN050 OVC080 02/01 A2993 860 89 -400 040/06 RMK AO2
14837KMSN MSN20031127040010511/27/03 04:00:31  5-MIN KMSN 271000Z 03006KT 5SM BR BKN050 OVC080 02/01 A2993 860 89 -400 030/06 RMK AO2
14837KMSN MSN20031127040510511/27/03 04:05:31  5-MIN KMSN 271005Z 05006KT 5SM BR BKN050 OVC080 02/01 A2992 860 89 -400 050/06 RMK AO2
14837KMSN MSN20031127041010511/27/03 04:10:31  5-MIN KMSN 271010Z 05007KT 5SM BR BKN050 OVC080 02/01 A2992 860 89 -400 050/07 RMK AO2
14837KMSN MSN20031127041510511/27/03 04:15:31  5-MIN KMSN 271015Z 05006KT 5SM BR SCT050 OVC080 02/01 A2992 860 89 -400 050/06 RMK AO2
14837KMSN MSN20031127042010511/27/03 04:20:31  5-MIN KMSN 271020Z 05006KT 4SM BR SCT050 OVC080 02/01 A2993 860 92 -500 040/06 RMK AO2
14837KMSN MSN20031127042510511/27/03 04:25:31  5-MIN KMSN 271025Z 04007KT 4SM BR FEW050 OVC080 02/01 A2992 860 92 -500 040/07 RMK AO2
14837KMSN MSN20031127043010511/27/03 04:30:31  5-MIN KMSN 271030Z 04005KT 4SM BR FEW050 OVC080 02/01 A2993 860 92 -500 040/05 RMK AO2
14837KMSN MSN20031127043510511/27/03 04:35:31  5-MIN KMSN 271035Z 03006KT 4SM BR FEW050 OVC080 02/01 A2993 860 89 -400 030/06 RMK AO2
14837KMSN MSN20031127044010511/27/03 04:40:31  5-MIN KMSN 271040Z 04006KT 4SM BR FEW050 OVC080 02/01 A2993 860 89 -400 030/06 RMK AO2
14837KMSN MSN20031127044510511/27/03 04:45:31  5-MIN KMSN 271045Z 04006KT 4SM BR FEW050 OVC085 02/01 A2993 860 89 -400 040/06 RMK AO2
14837KMSN MSN20031127045012211/27/03 04:50:31  5-MIN KMSN 271050Z 04005KT 4SM BR FEW050 OVC085 02/01 A2993 860 89 -400 040/05 RMK AO2 SLP143 T00220006
14837KMSN MSN20031127045510511/27/03 04:55:31  5-MIN KMSN 271055Z 03004KT 4SM BR FEW050 OVC085 02/01 A2993 860 92 -500 030/04 RMK AO2
14837KMSN MSN20031127050010511/27/03 05:00:31  5-MIN KMSN 271100Z 03004KT 4SM BR SCT050 OVC085 02/01 A2993 860 89 -400 030/04 RMK AO2
14837KMSN MSN20031127050510511/27/03 05:05:31  5-MIN KMSN 271105Z 05004KT 4SM BR SCT050 OVC090 02/01 A2993 860 92 -500 050/04 RMK AO2
14837KMSN MSN20031127051010511/27/03 05:10:31  5-MIN KMSN 271110Z 04003KT 4SM BR BKN050 OVC090 02/01 A2993 860 92 -500 040/03 RMK AO2
14837KMSN MSN20031127051510511/27/03 05:15:31  5-MIN KMSN 271115Z 00000KT 4SM BR BKN050 OVC085 02/01 A2993 850 92 -500 000/00 RMK AO2
14837KMSN MSN20031127052010511/27/03 05:20:31  5-MIN KMSN 271120Z 00000KT 4SM BR BKN050 OVC085 02/01 A2993 860 92 -500 000/00 RMK AO2
14837KMSN MSN20031127052509811/27/03 05:25:31  5-MIN KMSN 271125Z 00000KT 4SM BR OVC050 02/01 A2993 860 92 -500 000/00 RMK AO2
14837KMSN MSN20031127053010511/27/03 05:30:31  5-MIN KMSN 271130Z 03003KT 5SM BR BKN050 OVC090 02/01 A2992 860 92 -500 030/03 RMK AO2
14837KMSN MSN20031127053510511/27/03 05:35:31  5-MIN KMSN 271135Z 02004KT 5SM BR BKN050 BKN085 02/01 A2993 860 92 -500 020/04 RMK AO2
14837KMSN MSN20031127054011211/27/03 05:40:31  5-MIN KMSN 271140Z 02004KT 4SM BR BKN050 BKN080 BKN100 01/00 A2993 860 92 -500 020/04 RMK AO2
14837KMSN MSN20031127054511211/27/03 05:45:31  5-MIN KMSN 271145Z 36004KT 4SM BR SCT050 SCT080 BKN110 01/00 A2993 860 92 -500 360/04 RMK AO2
14837KMSN MSN20031127055015311/27/03 05:50:31  5-MIN KMSN 271150Z 32003KT 4SM BR FEW050 SCT095 BKN120 01/00 A2993 850 92 -500 320/03 RMK AO2 SLP145 60000 T00110000 10028 20011 55002
14837KMSN MSN20031127055510511/27/03 05:55:31  5-MIN KMSN 271155Z VRB03KT 4SM BR FEW050 BKN120 01/00 A2994 850 92 -500 VRB/03 RMK AO2
14837KMSN MSN20031127060010511/27/03 06:00:31  5-MIN KMSN 271200Z 04003KT 4SM BR FEW095 BKN120 02/01 A2994 850 92 -500 040/03 RMK AO2
14837KMSN MSN20031127060510511/27/03 06:05:31  5-MIN KMSN 271205Z 03004KT 4SM BR SCT100 BKN120 02/00 A2994 850 89 -500 030/04 RMK AO2
14837KMSN MSN20031127061010511/27/03 06:10:31  5-MIN KMSN 271210Z 01005KT 4SM BR BKN100 BKN120 01/00 A2994 850 92 -500 010/05 RMK AO2
14837KMSN MSN20031127061510511/27/03 06:15:31  5-MIN KMSN 271215Z 01004KT 3SM BR BKN095 OVC120 01/00 A2994 850 96 -600 010/04 RMK AO2
14837KMSN MSN20031127062010511/27/03 06:20:31  5-MIN KMSN 271220Z 36003KT 3SM BR BKN095 OVC120 01/00 A2994 850 96 -600 360/03 RMK AO2
14837KMSN MSN20031127062509811/27/03 06:25:31  5-MIN KMSN 271225Z 35003KT 3SM BR OVC095 01/00 A2994 850 92 -500 350/03 RMK AO2
14837KMSN MSN20031127063009811/27/03 06:30:31  5-MIN KMSN 271230Z 00000KT 3SM BR OVC090 01/00 A2994 850 96 -600 000/00 RMK AO2
14837KMSN MSN20031127063509811/27/03 06:35:31  5-MIN KMSN 271235Z 00000KT 3SM BR OVC090 01/00 A2994 850 92 -600 000/00 RMK AO2
14837KMSN MSN20031127064009811/27/03 06:40:31  5-MIN KMSN 271240Z 00000KT 4SM BR BKN090 01/00 A2994 850 92 -600 000/00 RMK AO2
14837KMSN MSN20031127064509811/27/03 06:45:31  5-MIN KMSN 271245Z 00000KT 3SM BR BKN090 01/00 A2994 840 96 -600 000/00 RMK AO2
14837KMSN MSN20031127065012311/27/03 06:50:31  5-MIN KMSN 271250Z 00000KT 3SM BR SCT049 BKN090 00/M01 A2994 840 96 -700 000/00 RMK AO2 SLP148 T00001006
14837KMSN MSN20031127065512111/27/03 06:55:31  5-MIN KMSN 271255Z 31003KT 2 1/2SM BR BKN049 BKN090 M01/M01 A2995 840 96 -800 310/03 RMK AO2 TWR VIS 3
14837KMSN MSN20031127070012411/27/03 07:00:31  5-MIN KMSN 271300Z 33003KT 2SM BR FEW022 BKN049 BKN090 M01/M02 A2995 840 92 -800 320/03 RMK AO2 TWR VIS 3
14837KMSN MSN20031127070512311/27/03 07:05:31  5-MIN KMSN 271305Z 00000KT 2SM BR FEW022 BKN049 OVC090 00/M01 A2994 840 96 -700 000/00 RMK AO2 TWR VIS 3
14837KMSN MSN20031127071011311/27/03 07:10:31  5-MIN KMSN 271310Z 00000KT 2SM BR BKN049 00/M01 A2995 840 96 -700 000/00 RMK AO2 TWR VIS 2 1/2
14837KMSN MSN20031127071511311/27/03 07:15:31  5-MIN KMSN 271315Z 00000KT 2SM BR OVC049 00/M01 A2995 840 96 -700 000/00 RMK AO2 TWR VIS 2 1/2
14837KMSN MSN20031127072011311/27/03 07:20:31  5-MIN KMSN 271320Z 00000KT 2SM BR OVC049 00/M01 A2995 830 96 -700 000/00 RMK AO2 TWR VIS 2 1/2
14837KMSN MSN20031127072511311/27/03 07:25:31  5-MIN KMSN 271325Z 00000KT 2SM BR OVC047 00/M01 A2995 840 96 -700 000/00 RMK AO2 TWR VIS 2 1/2
14837KMSN MSN20031127073011711/27/03 07:30:31  5-MIN KMSN 271330Z 01003KT 1 1/4SM BR OVC047 00/M01 A2995 840 96 -700 010/03 RMK AO2 TWR VIS 2 1/2
14837KMSN MSN20031127073511711/27/03 07:35:31  5-MIN KMSN 271335Z 34003KT 1 1/4SM BR BKN047 00/M01 A2995 840 96 -700 340/03 RMK AO2 TWR VIS 2 1/2
14837KMSN MSN20031127074011411/27/03 07:40:31  5-MIN KMSN 271340Z 00000KT 1SM BR BKN047 M01/M02 A2995 840 96 -800 000/00 RMK AO2 TWR VIS 2 1/2
14837KMSN MSN20031127074511411/27/03 07:45:31  5-MIN KMSN 271345Z 33003KT 1SM BR SCT047 M01/M01 A2995 840 96 -800 320/03 RMK AO2 TWR VIS 2 1/2
14837KMSN MSN20031127075013111/27/03 07:50:31  5-MIN KMSN 271350Z 00000KT 1SM BR SCT047 M01/M01 A2995 840 96 -800 000/00 RMK AO2 TWR VIS 2 1/2 SLP151 T10061011
14837KMSN MSN20031127075511411/27/03 07:55:31  5-MIN KMSN 271355Z 00000KT 1SM BR SCT047 M01/M01 A2996 830 96 -800 000/00 RMK AO2 TWR VIS 2 1/2
14837KMSN MSN20031127080011711/27/03 08:00:31  5-MIN KMSN 271400Z 33003KT 1 3/4SM BR SCT047 00/M01 A2996 830 96 -700 330/03 RMK AO2 TWR VIS 2 1/2
14837KMSN MSN20031127080511711/27/03 08:05:31  5-MIN KMSN 271405Z 33003KT 1 3/4SM BR BKN047 01/M01 A2996 830 92 -600 320/03 RMK AO2 TWR VIS 2 1/2
14837KMSN MSN20031127081011611/27/03 08:10:31  5-MIN KMSN 271410Z 00000KT 1 3/4SM BR BKN047 01/01 A2996 830 96 -600 000/00 RMK AO2 TWR VIS 2 1/2
14837KMSN MSN20031127081511211/27/03 08:15:31  5-MIN KMSN 271415Z 00000KT 2SM BR BKN047 02/01 A2997 820 96 -500 000/00 RMK AO2 TWR VIS 2 1/2
14837KMSN MSN20031127082011211/27/03 08:20:31  5-MIN KMSN 271420Z 00000KT 2SM BR OVC047 02/01 A2997 820 96 -500 000/00 RMK AO2 TWR VIS 2 1/2
14837KMSN MSN20031127082510211/27/03 08:25:31  5-MIN KMSN 271425Z 00000KT 2 1/2SM BR BKN047 02/01 A2997 820 92 -500 000/00 RMK AO2
14837KMSN MSN20031127083010211/27/03 08:30:31  5-MIN KMSN 271430Z 00000KT 2 1/2SM BR BKN047 02/01 A2997 820 89 -400 000/00 RMK AO2
14837KMSN MSN20031127083510211/27/03 08:35:31  5-MIN KMSN 271435Z 00000KT 2 1/2SM BR BKN047 02/01 A2997 820 92 -400 000/00 RMK AO2
14837KMSN MSN20031127084010211/27/03 08:40:31  5-MIN KMSN 271440Z 00000KT 2 1/2SM BR BKN047 03/01 A2998 810 89 -400 000/00 RMK AO2
14837KMSN MSN20031127084510211/27/03 08:45:31  5-MIN KMSN 271445Z 00000KT 2 1/2SM BR BKN047 03/01 A2998 810 89 -400 000/00 RMK AO2
14837KMSN MSN20031127085012111/27/03 08:50:31  5-MIN KMSN 271450Z 00000KT 3SM BR BKN047 03/01 A2998 810 89 -400 000/00 RMK AO2 SLP158 T00280011 53002
14837KMSN MSN20031127085509811/27/03 08:55:31  5-MIN KMSN 271455Z 00000KT 3SM BR BKN047 03/01 A2998 810 89 -400 000/00 RMK AO2
14837KMSN MSN20031127090009811/27/03 09:00:31  5-MIN KMSN 271500Z 00000KT 3SM BR BKN045 03/01 A2997 820 85 -300 000/00 RMK AO2
14837KMSN MSN20031127090509811/27/03 09:05:31  5-MIN KMSN 271505Z 00000KT 3SM BR BKN045 03/01 A2997 820 89 -400 000/00 RMK AO2
14837KMSN MSN20031127091009811/27/03 09:10:31  5-MIN KMSN 271510Z 00000KT 3SM BR BKN045 03/02 A2997 820 89 -300 000/00 RMK AO2
14837KMSN MSN20031127091509811/27/03 09:15:31  5-MIN KMSN 271515Z 00000KT 4SM BR FEW045 03/02 A2997 820 89 -300 000/00 RMK AO2
14837KMSN MSN20031127092009811/27/03 09:20:31  5-MIN KMSN 271520Z 00000KT 5SM BR FEW045 03/02 A2997 820 89 -300 000/00 RMK AO2
14837KMSN MSN20031127092509811/27/03 09:25:31  5-MIN KMSN 271525Z 00000KT 5SM BR FEW045 04/02 A2997 820 85 -200 000/00 RMK AO2
14837KMSN MSN20031127093009811/27/03 09:30:31  5-MIN KMSN 271530Z 34004KT 5SM BR SCT010 04/02 A2998 810 89 -200 340/04 RMK AO2
14837KMSN MSN20031127093509811/27/03 09:35:31  5-MIN KMSN 271535Z 33003KT 5SM BR BKN010 04/02 A2998 810 85 -200 330/03 RMK AO2
14837KMSN MSN20031127094009811/27/03 09:40:31  5-MIN KMSN 271540Z 00000KT 5SM BR OVC010 04/02 A2998 810 85 -300 000/00 RMK AO2
14837KMSN MSN20031127094509811/27/03 09:45:31  5-MIN KMSN 271545Z 00000KT 5SM BR OVC010 04/02 A2998 810 85 -200 000/00 RMK AO2
14837KMSN MSN20031127095011511/27/03 09:50:31  5-MIN KMSN 271550Z 00000KT 5SM BR OVC010 04/02 A2999 800 85 -300 000/00 RMK AO2 SLP161 T00390017
14837KMSN MSN20031127095509811/27/03 09:55:31  5-MIN KMSN 271555Z 00000KT 5SM BR OVC010 04/02 A2999 800 85 -200 000/00 RMK AO2
14837KMSN MSN20031127100009811/27/03 10:00:31  5-MIN KMSN 271600Z 00000KT 5SM BR OVC010 04/02 A2999 800 85 -200 000/00 RMK AO2
14837KMSN MSN20031127100509811/27/03 10:05:31  5-MIN KMSN 271605Z 01003KT 5SM BR OVC010 04/02 A2999 800 85 -200 010/03 RMK AO2
14837KMSN MSN20031127101009811/27/03 10:10:31  5-MIN KMSN 271610Z 00000KT 5SM BR OVC010 04/02 A2999 800 85 -200 000/00 RMK AO2
14837KMSN MSN20031127101509811/27/03 10:15:31  5-MIN KMSN 271615Z 00000KT 5SM HZ BKN010 04/02 A2999 800 82 -200 000/00 RMK AO2
14837KMSN MSN20031127102009811/27/03 10:20:31  5-MIN KMSN 271620Z 09003KT 5SM BR BKN010 04/02 A2999 800 85 -200 090/03 RMK AO2
14837KMSN MSN20031127102509811/27/03 10:25:31  5-MIN KMSN 271625Z 00000KT 6SM HZ SCT010 05/02 A2999 800 82 -100 000/00 RMK AO2
14837KMSN MSN20031127103009811/27/03 10:30:31  5-MIN KMSN 271630Z 08003KT 6SM HZ SCT010 06/02 A2999 800 79 -100 080/03 RMK AO2
14837KMSN MSN20031127103509811/27/03 10:35:31  5-MIN KMSN 271635Z 08003KT 6SM HZ SCT010 05/02 A2999 800 82 -100 080/03 RMK AO2
14837KMSN MSN20031127104009811/27/03 10:40:31  5-MIN KMSN 271640Z VRB03KT 6SM HZ SCT010 05/02 A2999 800 82 -100 VRB/03 RMK AO2
14837KMSN MSN20031127104509511/27/03 10:45:31  5-MIN KMSN 271645Z 00000KT 7SM SCT010 06/02 A2999 800 79 -100 000/00 RMK AO2
14837KMSN MSN20031127105011211/27/03 10:50:31  5-MIN KMSN 271650Z 11004KT 7SM SCT010 06/02 A2999 800 79 -100 110/04 RMK AO2 SLP165 T00560022
14837KMSN MSN20031127105509511/27/03 10:55:31  5-MIN KMSN 271655Z 15004KT 7SM SCT010 06/02 A2999 800 79 -100 150/04 RMK AO2
14837KMSN MSN20031127110009211/27/03 11:00:31  5-MIN KMSN 271700Z 14004KT 8SM SCT010 06/03 A2999 800 79 0 140/04 RMK AO2
14837KMSN MSN20031127110509511/27/03 11:05:31  5-MIN KMSN 271705Z 19004KT 8SM SCT010 06/02 A2999 800 79 -100 190/04 RMK AO2
14837KMSN MSN20031127111009511/27/03 11:10:31  5-MIN KMSN 271710Z 00000KT 8SM SCT010 06/02 A2999 800 79 -100 000/00 RMK AO2
14837KMSN MSN20031127111509211/27/03 11:15:31  5-MIN KMSN 271715Z 16003KT 8SM SCT010 06/02 A2999 800 76 0 160/03 RMK AO2
14837KMSN MSN20031127112009211/27/03 11:20:31  5-MIN KMSN 271720Z VRB03KT 8SM SCT013 06/02 A2999 800 76 0 VRB/03 RMK AO2
14837KMSN MSN20031127112509211/27/03 11:25:31  5-MIN KMSN 271725Z VRB04KT 8SM SCT013 06/02 A2998 810 76 0 VRB/04 RMK AO2
14837KMSN MSN20031127113009211/27/03 11:30:31  5-MIN KMSN 271730Z 15004KT 9SM SCT013 06/02 A2998 810 76 0 150/04 RMK AO2
14837KMSN MSN20031127113509211/27/03 11:35:31  5-MIN KMSN 271735Z 17004KT 9SM SCT013 06/02 A2998 810 76 0 170/04 RMK AO2
14837KMSN MSN20031127114009211/27/03 11:40:31  5-MIN KMSN 271740Z 16005KT 9SM SCT017 07/02 A2998 810 73 0 160/05 RMK AO2
14837KMSN MSN20031127114509211/27/03 11:45:31  5-MIN KMSN 271745Z 17006KT 8SM SCT017 07/02 A2998 810 73 0 170/06 RMK AO2
14837KMSN MSN20031127115012911/27/03 11:50:31  5-MIN KMSN 271750Z VRB04KT 9SM SCT017 07/02 A2998 810 70 100 VRB/04 RMK AO2 SLP160 T00720022 10072 21011 53013
14837KMSN MSN20031127115510311/27/03 11:55:31  5-MIN KMSN 271755Z VRB04KT 10SM SCT017 07/01 A2998 810 67 0 VRB/04 RMK AO2 SCT V BKN
14837KMSN MSN20031127120010311/27/03 12:00:31  5-MIN KMSN 271800Z VRB04KT 10SM SCT017 07/02 A2998 810 70 0 VRB/04 RMK AO2 SCT V BKN
14837KMSN MSN20031127120510511/27/03 12:05:31  5-MIN KMSN 271805Z 00000KT 10SM SCT017 07/02 A2998 810 68 100 000/00 RMK AO2 SCT V BKN
14837KMSN MSN20031127121010311/27/03 12:10:31  5-MIN KMSN 271810Z VRB04KT 10SM SCT017 07/02 A2998 810 70 0 VRB/04 RMK AO2 SCT V BKN
14837KMSN MSN20031127121510511/27/03 12:15:31  5-MIN KMSN 271815Z 27005KT 10SM SCT017 07/02 A2998 810 68 100 270/05 RMK AO2 SCT V BKN
14837KMSN MSN20031127122010311/27/03 12:20:31  5-MIN KMSN 271820Z VRB05KT 10SM SCT017 07/01 A2997 820 67 0 VRB/05 RMK AO2 SCT V BKN
14837KMSN MSN20031127122510311/27/03 12:25:31  5-MIN KMSN 271825Z 24006KT 10SM SCT017 07/02 A2997 820 70 0 240/06 RMK AO2 SCT V BKN
14837KMSN MSN20031127123010211/27/03 12:30:31  5-MIN KMSN 271830Z 21005KT 9SM SCT017 07/02 A2997 820 70 0 200/05 RMK AO2 SCT V BKN
14837KMSN MSN20031127123510211/27/03 12:35:31  5-MIN KMSN 271835Z 23004KT 9SM SCT017 07/02 A2997 820 70 0 220/04 RMK AO2 SCT V BKN
14837KMSN MSN20031127124009311/27/03 12:40:31  5-MIN KMSN 271840Z VRB05KT 10SM SCT017 07/02 A2997 820 70 0 VRB/05 RMK AO2
14837KMSN MSN20031127124509511/27/03 12:45:31  5-MIN KMSN 271845Z 23006KT 10SM SCT017 07/02 A2997 820 70 100 230/06 RMK AO2
14837KMSN MSN20031127125011211/27/03 12:50:31  5-MIN KMSN 271850Z 22006KT 10SM SCT017 07/02 A2997 820 68 100 220/06 RMK AO2 SLP155 T00720017
14837KMSN MSN20031127125509511/27/03 12:55:31  5-MIN KMSN 271855Z 20006KT 10SM SCT025 07/02 A2997 820 68 100 200/06 RMK AO2
14837KMSN MSN20031127130009511/27/03 13:00:31  5-MIN KMSN 271900Z 27006KT 10SM SCT025 08/02 A2997 820 65 200 270/06 RMK AO2
14837KMSN MSN20031127130509511/27/03 13:05:31  5-MIN KMSN 271905Z 28006KT 10SM SCT025 07/01 A2997 820 65 100 280/06 RMK AO2
14837KMSN MSN20031127131010511/27/03 13:10:31  5-MIN KMSN 271910Z 25005KT 10SM SCT025 08/02 A2997 820 65 200 240/05 RMK AO2 SCT V BKN
14837KMSN MSN20031127131510511/27/03 13:15:31  5-MIN KMSN 271915Z VRB05KT 10SM SCT025 08/02 A2996 820 65 200 VRB/05 RMK AO2 SCT V BKN
14837KMSN MSN20031127132010511/27/03 13:20:31  5-MIN KMSN 271920Z VRB05KT 10SM SCT025 08/02 A2996 820 65 200 VRB/05 RMK AO2 SCT V BKN
14837KMSN MSN20031127132510511/27/03 13:25:31  5-MIN KMSN 271925Z 23006KT 10SM SCT025 08/02 A2996 820 65 200 230/06 RMK AO2 SCT V BKN
14837KMSN MSN20031127133010511/27/03 13:30:31  5-MIN KMSN 271930Z 00000KT 10SM SCT025 08/01 A2996 830 62 200 000/00 RMK AO2 SCT V BKN
14837KMSN MSN20031127133509511/27/03 13:35:31  5-MIN KMSN 271935Z VRB03KT 10SM SCT025 08/02 A2996 820 65 200 VRB/03 RMK AO2
14837KMSN MSN20031127134009511/27/03 13:40:31  5-MIN KMSN 271940Z VRB05KT 10SM SCT025 08/02 A2996 820 65 200 VRB/05 RMK AO2
14837KMSN MSN20031127134509511/27/03 13:45:31  5-MIN KMSN 271945Z VRB05KT 10SM BKN025 08/01 A2996 820 62 200 VRB/05 RMK AO2
14837KMSN MSN20031127135011211/27/03 13:50:31  5-MIN KMSN 271950Z 26005KT 10SM BKN027 08/01 A2996 820 62 200 260/05 RMK AO2 SLP153 T00780011
14837KMSN MSN20031127135509511/27/03 13:55:31  5-MIN KMSN 271955Z 28006KT 10SM BKN027 07/01 A2996 830 65 100 280/06 RMK AO2
14837KMSN MSN20031127140009511/27/03 14:00:31  5-MIN KMSN 272000Z 29006KT 10SM BKN027 07/01 A2996 830 65 100 290/06 RMK AO2
14837KMSN MSN20031127140509511/27/03 14:05:31  5-MIN KMSN 272005Z 26006KT 10SM BKN027 07/01 A2996 830 65 100 260/06 RMK AO2
14837KMSN MSN20031127141009511/27/03 14:10:31  5-MIN KMSN 272010Z 26004KT 10SM BKN027 07/01 A2996 830 65 100 260/04 RMK AO2
14837KMSN MSN20031127141509511/27/03 14:15:31  5-MIN KMSN 272015Z 29005KT 10SM SCT027 07/01 A2996 830 65 100 290/05 RMK AO2
14837KMSN MSN20031127142009511/27/03 14:20:31  5-MIN KMSN 272020Z 29006KT 10SM BKN027 07/01 A2996 830 65 100 290/06 RMK AO2
14837KMSN MSN20031127142509511/27/03 14:25:31  5-MIN KMSN 272025Z VRB06KT 10SM BKN027 07/01 A2996 830 65 100 VRB/06 RMK AO2
14837KMSN MSN20031127143009511/27/03 14:30:31  5-MIN KMSN 272030Z 29006KT 10SM BKN027 08/01 A2996 830 62 200 290/06 RMK AO2
14837KMSN MSN20031127143509511/27/03 14:35:31  5-MIN KMSN 272035Z 30005KT 10SM SCT027 07/01 A2996 830 65 100 300/05 RMK AO2
14837KMSN MSN20031127144009511/27/03 14:40:31  5-MIN KMSN 272040Z VRB05KT 10SM SCT027 08/01 A2997 820 62 200 VRB/05 RMK AO2
14837KMSN MSN20031127144509511/27/03 14:45:31  5-MIN KMSN 272045Z 28008KT 10SM BKN027 07/01 A2997 820 65 100 280/08 RMK AO2
14837KMSN MSN20031127145011611/27/03 14:50:31  5-MIN KMSN 272050Z 28008KT 10SM BKN029 07/01 A2997 820 67 0 280/08 RMK AO2 SLP156 T00670011 50002
14837KMSN MSN20031127145509211/27/03 14:55:31  5-MIN KMSN 272055Z 28005KT 9SM BKN029 07/01 A2997 820 67 0 280/05 RMK AO2
14837KMSN MSN20031127150009211/27/03 15:00:31  5-MIN KMSN 272100Z 29005KT 9SM BKN029 07/01 A2997 820 67 0 290/05 RMK AO2
14837KMSN MSN20031127150509211/27/03 15:05:31  5-MIN KMSN 272105Z 28006KT 9SM BKN029 07/01 A2997 820 67 0 280/06 RMK AO2
14837KMSN MSN20031127151010911/27/03 15:10:31  5-MIN KMSN 272110Z 28008KT 240V300 10SM BKN029 07/01 A2997 810 67 0 280/08 240V300 RMK AO2
14837KMSN MSN20031127151509311/27/03 15:15:31  5-MIN KMSN 272115Z 28005KT 10SM BKN029 07/01 A2997 820 67 0 280/05 RMK AO2
14837KMSN MSN20031127152009511/27/03 15:20:31  5-MIN KMSN 272120Z 28006KT 10SM BKN029 07/01 A2997 820 67 100 280/06 RMK AO2
14837KMSN MSN20031127152509511/27/03 15:25:31  5-MIN KMSN 272125Z 29008KT 10SM SCT029 07/01 A2997 820 65 100 290/08 RMK AO2
14837KMSN MSN20031127153009511/27/03 15:30:31  5-MIN KMSN 272130Z 28006KT 10SM SCT029 07/01 A2997 820 65 100 280/06 RMK AO2
14837KMSN MSN20031127153509511/27/03 15:35:31  5-MIN KMSN 272135Z 28007KT 10SM SCT029 07/01 A2997 820 65 100 280/07 RMK AO2
14837KMSN MSN20031127154009511/27/03 15:40:31  5-MIN KMSN 272140Z 29004KT 10SM SCT029 07/01 A2997 820 65 100 290/04 RMK AO2
14837KMSN MSN20031127154509311/27/03 15:45:31  5-MIN KMSN 272145Z 29004KT 10SM SCT029 06/01 A2997 820 67 0 290/04 RMK AO2
14837KMSN MSN20031127155011011/27/03 15:50:31  5-MIN KMSN 272150Z 28003KT 10SM SCT029 06/01 A2997 820 70 0 280/03 RMK AO2 SLP155 T00560006
14837KMSN MSN20031127155509311/27/03 15:55:31  5-MIN KMSN 272155Z 28003KT 10SM FEW029 06/01 A2996 820 70 0 280/03 RMK AO2
14837KMSN MSN20031127160009311/27/03 16:00:31  5-MIN KMSN 272200Z 29003KT 10SM FEW029 06/01 A2996 820 70 0 290/03 RMK AO2
14837KMSN MSN20031127160509311/27/03 16:05:31  5-MIN KMSN 272205Z 00000KT 10SM FEW029 06/01 A2996 830 70 0 000/00 RMK AO2
14837KMSN MSN20031127161009611/27/03 16:10:31  5-MIN KMSN 272210Z 00000KT 10SM FEW029 05/01 A2995 830 73 -100 000/00 RMK AO2
14837KMSN MSN20031127161509611/27/03 16:15:31  5-MIN KMSN 272215Z 30003KT 10SM FEW029 05/01 A2995 840 73 -100 300/03 RMK AO2
14837KMSN MSN20031127162009611/27/03 16:20:31  5-MIN KMSN 272220Z 30003KT 10SM FEW029 05/01 A2995 840 73 -100 300/03 RMK AO2
14837KMSN MSN20031127162509611/27/03 16:25:31  5-MIN KMSN 272225Z 31003KT 10SM FEW029 04/01 A2995 840 76 -100 310/03 RMK AO2
14837KMSN MSN20031127163009511/27/03 16:30:31  5-MIN KMSN 272230Z 00000KT 8SM FEW029 04/01 A2995 840 76 -100 000/00 RMK AO2
14837KMSN MSN20031127163509511/27/03 16:35:31  5-MIN KMSN 272235Z 31003KT 8SM FEW029 04/00 A2995 840 76 -200 310/03 RMK AO2
14837KMSN MSN20031127164009511/27/03 16:40:31  5-MIN KMSN 272240Z 30003KT 8SM FEW029 03/00 A2995 840 79 -300 300/03 RMK AO2
14837KMSN MSN20031127164509511/27/03 16:45:31  5-MIN KMSN 272245Z 29003KT 8SM FEW029 03/00 A2995 840 82 -400 290/03 RMK AO2
14837KMSN MSN20031127165011311/27/03 16:50:31  5-MIN KMSN 272250Z 29003KT 6SM BR CLR 02/M01 A2995 840 85 -500 290/03 RMK AO2 SLP151 T00171006
14837KMSN MSN20031127165509611/27/03 16:55:31  5-MIN KMSN 272255Z 28003KT 7SM FEW034 02/M01 A2996 830 85 -500 280/03 RMK AO2
14837KMSN MSN20031127170009911/27/03 17:00:31  5-MIN KMSN 272300Z 00000KT 6SM HZ SCT034 02/M01 A2996 830 82 -400 000/00 RMK AO2
14837KMSN MSN20031127170509811/27/03 17:05:31  5-MIN KMSN 272305Z 00000KT 6SM HZ BKN036 03/00 A2997 820 79 -300 000/00 RMK AO2
14837KMSN MSN20031127171009911/27/03 17:10:31  5-MIN KMSN 272310Z 00000KT 6SM HZ SCT036 03/M01 A2997 820 79 -400 000/00 RMK AO2
14837KMSN MSN20031127171510511/27/03 17:15:31  5-MIN KMSN 272315Z 00000KT 6SM HZ SCT036 03/00 A2998 810 82 -400 000/00 RMK AO2 PRESRR
14837KMSN MSN20031127172010511/27/03 17:20:31  5-MIN KMSN 272320Z 21003KT 6SM HZ SCT036 03/00 A2999 800 79 -300 210/03 RMK AO2 PRESRR
14837KMSN MSN20031127172509811/27/03 17:25:31  5-MIN KMSN 272325Z 22004KT 6SM HZ SCT036 03/00 A2999 800 79 -300 220/04 RMK AO2
14837KMSN MSN20031127173009811/27/03 17:30:31  5-MIN KMSN 272330Z 00000KT 6SM HZ BKN036 03/00 A2999 800 82 -400 000/00 RMK AO2
14837KMSN MSN20031127173509911/27/03 17:35:31  5-MIN KMSN 272335Z VRB03KT 6SM HZ SCT038 02/M01 A2999 800 82 -500 VRB/03 RMK AO2
14837KMSN MSN20031127174009811/27/03 17:40:31  5-MIN KMSN 272340Z VRB03KT 6SM HZ BKN038 03/00 A2999 800 79 -300 VRB/03 RMK AO2
14837KMSN MSN20031127174509811/27/03 17:45:31  5-MIN KMSN 272345Z 27003KT 6SM HZ BKN038 04/00 A2999 800 76 -300 270/03 RMK AO2
14837KMSN MSN20031127175013411/27/03 17:50:31  5-MIN KMSN 272350Z 27004KT 6SM HZ BKN038 03/M01 A2999 800 79 -400 260/04 RMK AO2 SLP165 T00281006 10078 20017 55003
14837KMSN MSN20031127175509611/27/03 17:55:31  5-MIN KMSN 272355Z VRB04KT 7SM BKN038 03/M01 A3000 790 76 -300 VRB/04 RMK AO2
14837KMSN MSN20031127180009611/27/03 18:00:31  5-MIN KMSN 280000Z VRB04KT 8SM BKN038 03/M01 A3000 790 76 -300 VRB/04 RMK AO2
14837KMSN MSN20031127180509611/27/03 18:05:31  5-MIN KMSN 280005Z 28004KT 8SM SCT038 03/M01 A3000 790 76 -300 270/04 RMK AO2
14837KMSN MSN20031127181009611/27/03 18:10:31  5-MIN KMSN 280010Z 27003KT 8SM SCT038 03/M01 A3000 790 72 -300 260/03 RMK AO2
14837KMSN MSN20031127181509611/27/03 18:15:31  5-MIN KMSN 280015Z 27005KT 8SM FEW038 03/M01 A3000 790 72 -300 270/05 RMK AO2
14837KMSN MSN20031127182009311/27/03 18:20:31  5-MIN KMSN 280020Z 26004KT 8SM CLR 03/M01 A3000 790 72 -300 260/04 RMK AO2
14837KMSN MSN20031127182509611/27/03 18:25:31  5-MIN KMSN 280025Z VRB05KT 8SM FEW040 03/M02 A3000 790 72 -400 VRB/05 RMK AO2
14837KMSN MSN20031127183009611/27/03 18:30:31  5-MIN KMSN 280030Z 27004KT 8SM FEW040 03/M02 A3000 790 72 -400 270/04 RMK AO2
14837KMSN MSN20031127183509611/27/03 18:35:31  5-MIN KMSN 280035Z VRB04KT 8SM FEW040 03/M02 A3000 790 72 -400 VRB/04 RMK AO2
14837KMSN MSN20031127184009611/27/03 18:40:31  5-MIN KMSN 280040Z 27005KT 8SM FEW040 03/M02 A3000 790 72 -400 270/05 RMK AO2
14837KMSN MSN20031127184509611/27/03 18:45:31  5-MIN KMSN 280045Z 28005KT 8SM FEW040 03/M02 A3001 780 72 -400 280/05 RMK AO2
14837KMSN MSN20031127185011311/27/03 18:50:31  5-MIN KMSN 280050Z 28004KT 8SM FEW040 02/M02 A3001 780 75 -500 280/04 RMK AO2 SLP170 T00221017
14837KMSN MSN20031127185509611/27/03 18:55:31  5-MIN KMSN 280055Z 29004KT 8SM FEW040 02/M02 A3001 780 75 -500 290/04 RMK AO2
14837KMSN MSN20031127190009611/27/03 19:00:31  5-MIN KMSN 280100Z 29005KT 8SM FEW040 02/M02 A3001 780 75 -600 290/05 RMK AO2
14837KMSN MSN20031127190509611/27/03 19:05:31  5-MIN KMSN 280105Z 28006KT 8SM FEW040 02/M02 A3001 780 75 -600 280/06 RMK AO2
14837KMSN MSN20031127191009611/27/03 19:10:31  5-MIN KMSN 280110Z 27006KT 8SM FEW040 02/M02 A3001 780 72 -500 270/06 RMK AO2
14837KMSN MSN20031127191509611/27/03 19:15:31  5-MIN KMSN 280115Z 28007KT 8SM FEW040 02/M03 A3001 780 69 -500 280/07 RMK AO2
14837KMSN MSN20031127192009611/27/03 19:20:31  5-MIN KMSN 280120Z 28009KT 9SM FEW040 02/M03 A3001 780 67 -500 280/09 RMK AO2
14837KMSN MSN20031127192509711/27/03 19:25:31  5-MIN KMSN 280125Z 29008KT 10SM FEW040 02/M04 A3001 780 64 -500 280/08 RMK AO2
14837KMSN MSN20031127193009711/27/03 19:30:31  5-MIN KMSN 280130Z 29009KT 10SM FEW040 02/M04 A3001 780 64 -500 290/09 RMK AO2
14837KMSN MSN20031127193509711/27/03 19:35:31  5-MIN KMSN 280135Z 29009KT 10SM FEW040 02/M04 A3002 780 61 -500 290/09 RMK AO2
14837KMSN MSN20031127194009711/27/03 19:40:31  5-MIN KMSN 280140Z 29008KT 10SM FEW040 02/M04 A3002 770 64 -600 290/08 RMK AO2
14837KMSN MSN20031127194509711/27/03 19:45:31  5-MIN KMSN 280145Z 29010KT 10SM FEW040 02/M04 A3002 770 64 -600 290/10 RMK AO2
14837KMSN MSN20031127211509411/27/03 21:15:31  5-MIN KMSN 280315Z 28006KT 10SM CLR 00/M06 A3003 770 66 -800 280/06 RMK AO2
14837KMSN MSN20031127212009411/27/03 21:20:31  5-MIN KMSN 280320Z 29007KT 10SM CLR 00/M06 A3002 770 66 -800 290/07 RMK AO2
14837KMSN MSN20031127212509411/27/03 21:25:31  5-MIN KMSN 280325Z 29008KT 10SM CLR 00/M06 A3002 770 66 -800 290/08 RMK AO2
14837KMSN MSN20031127213009511/27/03 21:30:31  5-MIN KMSN 280330Z 29008KT 10SM CLR M01/M06 A3002 770 69 -800 290/08 RMK AO2
14837KMSN MSN20031127213509511/27/03 21:35:31  5-MIN KMSN 280335Z 30009KT 10SM CLR M01/M06 A3002 780 69 -800 300/09 RMK AO2
14837KMSN MSN20031127214009511/27/03 21:40:31  5-MIN KMSN 280340Z 30008KT 10SM CLR M01/M06 A3001 780 69 -800 290/08 RMK AO2
14837KMSN MSN20031127214509511/27/03 21:45:31  5-MIN KMSN 280345Z 30009KT 10SM CLR M01/M06 A3001 780 69 -800 290/09 RMK AO2
14837KMSN MSN20031127215011211/27/03 21:50:31  5-MIN KMSN 280350Z 30009KT 10SM CLR M01/M06 A3001 780 69 -800 300/09 RMK AO2 SLP172 T10061056
14837KMSN MSN20031127215509511/27/03 21:55:31  5-MIN KMSN 280355Z 30007KT 10SM CLR M01/M06 A3001 780 69 -800 300/07 RMK AO2
14837KMSN MSN20031127220009511/27/03 22:00:31  5-MIN KMSN 280400Z 31007KT 10SM CLR M01/M06 A3001 780 69 -800 300/07 RMK AO2
14837KMSN MSN20031127220509511/27/03 22:05:31  5-MIN KMSN 280405Z 30006KT 10SM CLR M01/M06 A3001 780 69 -800 300/06 RMK AO2
14837KMSN MSN20031127221010111/27/03 22:10:31  5-MIN KMSN 280410Z 30010G14KT 10SM CLR M01/M06 A3001 780 69 -800 300/10G14 RMK AO2
14837KMSN MSN20031127221510111/27/03 22:15:31  5-MIN KMSN 280415Z 30007G14KT 10SM CLR M01/M06 A3001 780 69 -800 290/07G14 RMK AO2
14837KMSN MSN20031127222009511/27/03 22:20:31  5-MIN KMSN 280420Z 30008KT 10SM CLR M01/M06 A3001 780 69 -800 300/08 RMK AO2
14837KMSN MSN20031127222510111/27/03 22:25:31  5-MIN KMSN 280425Z 30009G14KT 10SM CLR M01/M06 A3001 780 69 -800 300/09G14 RMK AO2
14837KMSN MSN20031127223009511/27/03 22:30:31  5-MIN KMSN 280430Z 29010KT 10SM CLR M01/M06 A3001 780 69 -800 290/10 RMK AO2
14837KMSN MSN20031127223509511/27/03 22:35:31  5-MIN KMSN 280435Z 30010KT 10SM CLR M01/M06 A3001 780 69 -800 300/10 RMK AO2
14837KMSN MSN20031127224009811/27/03 22:40:31  5-MIN KMSN 280440Z 30009KT 10SM FEW023 M01/M06 A3001 780 69 -800 300/09 RMK AO2
14837KMSN MSN20031127224509811/27/03 22:45:31  5-MIN KMSN 280445Z 30008KT 10SM SCT023 M01/M06 A3001 790 69 -800 300/08 RMK AO2
14837KMSN MSN20031127225011511/27/03 22:50:31  5-MIN KMSN 280450Z 30007KT 10SM BKN023 M01/M06 A3001 780 69 -800 300/07 RMK AO2 SLP169 T10061056
14837KMSN MSN20031127225509811/27/03 22:55:31  5-MIN KMSN 280455Z 30007KT 10SM BKN023 M01/M06 A3001 780 69 -800 300/07 RMK AO2
14837KMSN MSN20031127230011411/27/03 23:00:31  5-MIN KMSN 280500Z 31007KT 280V340 10SM BKN023 M01/M06 A3001 780 69 -800 310/07 280V340 RMK AO2
14837KMSN MSN20031127230509811/27/03 23:05:31  5-MIN KMSN 280505Z 31007KT 10SM OVC023 M01/M06 A3001 780 69 -800 310/07 RMK AO2
14837KMSN MSN20031127231009811/27/03 23:10:31  5-MIN KMSN 280510Z 31006KT 10SM BKN023 M01/M06 A3001 780 69 -800 310/06 RMK AO2
14837KMSN MSN20031127231509811/27/03 23:15:31  5-MIN KMSN 280515Z 31008KT 10SM BKN023 M01/M06 A3001 780 69 -800 310/08 RMK AO2
14837KMSN MSN20031127232009811/27/03 23:20:31  5-MIN KMSN 280520Z 31009KT 10SM OVC023 M01/M06 A3001 780 69 -800 310/09 RMK AO2
14837KMSN MSN20031127232509811/27/03 23:25:31  5-MIN KMSN 280525Z 32007KT 10SM OVC023 M01/M06 A3001 780 66 -800 320/07 RMK AO2
14837KMSN MSN20031127233009811/27/03 23:30:31  5-MIN KMSN 280530Z 31008KT 10SM OVC023 M01/M06 A3001 780 66 -800 310/08 RMK AO2
14837KMSN MSN20031127233511411/27/03 23:35:31  5-MIN KMSN 280535Z 31007KT 290V360 10SM OVC023 M01/M06 A3001 780 66 -800 310/07 290V360 RMK AO2
14837KMSN MSN20031127234009811/27/03 23:40:31  5-MIN KMSN 280540Z 31008KT 10SM OVC023 M01/M06 A3001 780 66 -800 310/08 RMK AO2
14837KMSN MSN20031127234509811/27/03 23:45:31  5-MIN KMSN 280545Z 32007KT 10SM OVC023 M01/M06 A3001 780 66 -800 320/07 RMK AO2
14837KMSN MSN20031127235014311/27/03 23:50:31  5-MIN KMSN 280550Z 31008KT 10SM OVC023 M01/M06 A3001 790 66 -800 310/08 RMK AO2 SLP168 T10061061 10039 21006 400781011 51010
14837KMSN MSN20031127235509811/27/03 23:55:31  5-MIN KMSN 280555Z 30005KT 10SM OVC023 M01/M06 A3001 790 66 -800 300/05 RMK AO2
14837KMSN MSN20031128000009811/28/03 00:00:31  5-MIN KMSN 280600Z 30006KT 10SM OVC023 M01/M06 A3000 790 66 -800 300/06 RMK AO2
14837KMSN MSN20031128000509811/28/03 00:05:31  5-MIN KMSN 280605Z 29007KT 10SM OVC023 M01/M06 A3000 790 66 -800 290/07 RMK AO2
14837KMSN MSN20031128001009811/28/03 00:10:31  5-MIN KMSN 280610Z 30008KT 10SM OVC023 M01/M06 A3000 790 66 -800 290/08 RMK AO2
14837KMSN MSN20031128001510411/28/03 00:15:31  5-MIN KMSN 280615Z 28010G15KT 10SM OVC023 M01/M06 A3000 790 66 -800 280/10G15 RMK AO2
14837KMSN MSN20031128002010411/28/03 00:20:31  5-MIN KMSN 280620Z 29011G15KT 10SM OVC023 M01/M06 A3000 790 69 -900 290/11G15 RMK AO2
14837KMSN MSN20031128002509811/28/03 00:25:31  5-MIN KMSN 280625Z 30009KT 10SM OVC023 M01/M06 A3000 790 69 -900 290/09 RMK AO2
14837KMSN MSN20031128003009811/28/03 00:30:31  5-MIN KMSN 280630Z 28011KT 10SM OVC023 M01/M06 A3000 790 69 -900 280/11 RMK AO2
14837KMSN MSN20031128003509811/28/03 00:35:31  5-MIN KMSN 280635Z 28008KT 10SM OVC023 M01/M06 A3000 790 72 -900 280/08 RMK AO2
14837KMSN MSN20031128004011411/28/03 00:40:31  5-MIN KMSN 280640Z 27007KT 230V300 10SM OVC023 M01/M06 A3000 790 69 -900 270/07 230V300 RMK AO2
14837KMSN MSN20031128004509811/28/03 00:45:31  5-MIN KMSN 280645Z 28007KT 10SM OVC021 M01/M06 A3000 790 69 -900 280/07 RMK AO2
14837KMSN MSN20031128005011511/28/03 00:50:31  5-MIN KMSN 280650Z 28010KT 10SM OVC021 M01/M06 A3000 790 69 -900 280/10 RMK AO2 SLP167 T10111061
14837KMSN MSN20031128005509811/28/03 00:55:31  5-MIN KMSN 280655Z 29009KT 10SM OVC021 M01/M06 A3000 790 69 -900 280/09 RMK AO2
14837KMSN MSN20031128010009811/28/03 01:00:31  5-MIN KMSN 280700Z 29009KT 10SM OVC021 M01/M06 A3000 790 69 -900 290/09 RMK AO2
14837KMSN MSN20031128010509811/28/03 01:05:31  5-MIN KMSN 280705Z 29008KT 10SM OVC021 M01/M06 A3000 790 69 -900 290/08 RMK AO2
14837KMSN MSN20031128011009811/28/03 01:10:31  5-MIN KMSN 280710Z 28011KT 9SM OVC021 M02/M06 A3000 790 72 -1000 280/11 RMK AO2
14837KMSN MSN20031128011509811/28/03 01:15:31  5-MIN KMSN 280715Z 30011KT 9SM OVC021 M02/M06 A3000 790 72 -1000 300/11 RMK AO2
14837KMSN MSN20031128012009911/28/03 01:20:31  5-MIN KMSN 280720Z 31011KT 10SM OVC021 M02/M06 A3000 790 72 -1000 300/11 RMK AO2
14837KMSN MSN20031128012509911/28/03 01:25:31  5-MIN KMSN 280725Z 30009KT 10SM OVC021 M02/M06 A3000 790 72 -1000 290/09 RMK AO2
14837KMSN MSN20031128013010511/28/03 01:30:31  5-MIN KMSN 280730Z 29011G15KT 10SM OVC021 M02/M06 A3001 790 72 -1000 280/11G15 RMK AO2
14837KMSN MSN20031128013509911/28/03 01:35:31  5-MIN KMSN 280735Z 28008KT 10SM OVC021 M02/M06 A3000 790 72 -1000 280/08 RMK AO2
14837KMSN MSN20031128014010511/28/03 01:40:31  5-MIN KMSN 280740Z 29011G17KT 10SM OVC021 M02/M07 A3001 780 69 -1000 290/11G17 RMK AO2
14837KMSN MSN20031128014510511/28/03 01:45:31  5-MIN KMSN 280745Z 30011G17KT 10SM OVC021 M02/M07 A3001 790 69 -1000 300/11G17 RMK AO2
14837KMSN MSN20031128015012211/28/03 01:50:31  5-MIN KMSN 280750Z 30012G19KT 10SM OVC021 M02/M07 A3001 790 69 -1000 300/12G19 RMK AO2 SLP168 T10171067
14837KMSN MSN20031128015510511/28/03 01:55:31  5-MIN KMSN 280755Z 28009G19KT 10SM OVC021 M02/M07 A3001 780 69 -1000 280/09G19 RMK AO2
14837KMSN MSN20031128020009911/28/03 02:00:31  5-MIN KMSN 280800Z 30008KT 10SM OVC021 M02/M07 A3001 780 69 -1000 300/08 RMK AO2
14837KMSN MSN20031128020509911/28/03 02:05:31  5-MIN KMSN 280805Z 30009KT 10SM OVC021 M02/M06 A3001 780 72 -1000 290/09 RMK AO2
14837KMSN MSN20031128021009911/28/03 02:10:31  5-MIN KMSN 280810Z 30009KT 10SM OVC021 M02/M06 A3001 790 72 -1000 300/09 RMK AO2
14837KMSN MSN20031128021510511/28/03 02:15:31  5-MIN KMSN 280815Z 29011G17KT 10SM OVC021 M02/M06 A3001 790 72 -1000 290/11G17 RMK AO2
14837KMSN MSN20031128022010511/28/03 02:20:31  5-MIN KMSN 280820Z 31011G18KT 10SM OVC021 M02/M07 A3000 790 72 -1000 310/11G18 RMK AO2
14837KMSN MSN20031128022510511/28/03 02:25:31  5-MIN KMSN 280825Z 32012G18KT 10SM OVC021 M02/M07 A3000 790 72 -1000 310/12G18 RMK AO2
14837KMSN MSN20031128023009911/28/03 02:30:31  5-MIN KMSN 280830Z 31009KT 10SM OVC021 M02/M07 A3000 790 72 -1000 310/09 RMK AO2
14837KMSN MSN20031128023509911/28/03 02:35:31  5-MIN KMSN 280835Z 32010KT 10SM OVC021 M02/M07 A3000 790 72 -1000 320/10 RMK AO2
14837KMSN MSN20031128024009911/28/03 02:40:31  5-MIN KMSN 280840Z 31008KT 10SM OVC021 M02/M07 A3000 790 72 -1000 310/08 RMK AO2
14837KMSN MSN20031128024512111/28/03 02:45:31  5-MIN KMSN 280845Z 30009G14KT 280V350 10SM OVC021 M02/M07 A3000 790 72 -1000 300/09G14 280V350 RMK AO2
14837KMSN MSN20031128025014411/28/03 02:50:31  5-MIN KMSN 280850Z 31008G14KT 280V340 10SM OVC021 M02/M07 A3000 790 72 -1000 310/08G14 280V340 RMK AO2 SLP166 T10221067 56008
14837KMSN MSN20031128025509911/28/03 02:55:31  5-MIN KMSN 280855Z 31010KT 10SM OVC021 M02/M07 A3000 790 72 -1000 310/10 RMK AO2
14837KMSN MSN20031128030009911/28/03 03:00:31  5-MIN KMSN 280900Z 31008KT 10SM OVC021 M02/M07 A3000 790 72 -1000 310/08 RMK AO2
14837KMSN MSN20031128030509911/28/03 03:05:31  5-MIN KMSN 280905Z 31007KT 10SM OVC021 M02/M07 A3000 800 72 -1000 310/07 RMK AO2
14837KMSN MSN20031128031009911/28/03 03:10:31  5-MIN KMSN 280910Z 31009KT 10SM OVC021 M02/M07 A3000 800 72 -1000 310/09 RMK AO2
14837KMSN MSN20031128031509911/28/03 03:15:31  5-MIN KMSN 280915Z 31009KT 10SM OVC021 M02/M07 A3000 800 72 -1000 310/09 RMK AO2
14837KMSN MSN20031128032009911/28/03 03:20:31  5-MIN KMSN 280920Z 31010KT 10SM OVC021 M02/M07 A2999 800 72 -1000 310/10 RMK AO2
14837KMSN MSN20031128032509911/28/03 03:25:31  5-MIN KMSN 280925Z 31011KT 10SM OVC021 M02/M07 A2999 800 69 -1000 310/11 RMK AO2
14837KMSN MSN20031128033009811/28/03 03:30:31  5-MIN KMSN 280930Z 31011KT 9SM OVC021 M02/M07 A2999 800 69 -1000 310/11 RMK AO2
14837KMSN MSN20031128033510411/28/03 03:35:31  5-MIN KMSN 280935Z 32012G17KT 9SM OVC021 M02/M07 A2999 800 72 -1000 320/12G17 RMK AO2
14837KMSN MSN20031128034010511/28/03 03:40:31  5-MIN KMSN 280940Z 31012G17KT 10SM OVC021 M03/M07 A2999 800 75 -1100 310/12G17 RMK AO2
14837KMSN MSN20031128034509911/28/03 03:45:31  5-MIN KMSN 280945Z 30011KT 10SM OVC021 M03/M07 A2999 800 71 -1100 300/11 RMK AO2
14837KMSN MSN20031128035012211/28/03 03:50:31  5-MIN KMSN 280950Z 30011G18KT 10SM OVC021 M03/M07 A2999 800 71 -1100 300/11G18 RMK AO2 SLP164 T10281072
14837KMSN MSN20031128035510511/28/03 03:55:31  5-MIN KMSN 280955Z 31015G18KT 10SM OVC021 M03/M07 A2999 800 71 -1100 310/15G18 RMK AO2
14837KMSN MSN20031128040010511/28/03 04:00:31  5-MIN KMSN 281000Z 30012G19KT 10SM OVC021 M03/M07 A2999 800 71 -1100 300/12G19 RMK AO2
14837KMSN MSN20031128040510511/28/03 04:05:31  5-MIN KMSN 281005Z 31013G19KT 10SM OVC021 M03/M07 A2998 800 71 -1100 310/13G19 RMK AO2
14837KMSN MSN20031128041010511/28/03 04:10:31  5-MIN KMSN 281010Z 31013G18KT 10SM OVC021 M03/M07 A2999 800 71 -1100 310/13G18 RMK AO2
14837KMSN MSN20031128041510511/28/03 04:15:31  5-MIN KMSN 281015Z 31012G18KT 10SM OVC021 M03/M07 A2998 810 71 -1100 310/12G18 RMK AO2
14837KMSN MSN20031128042009911/28/03 04:20:31  5-MIN KMSN 281020Z 31013KT 10SM OVC021 M03/M07 A2999 800 71 -1100 310/13 RMK AO2
14837KMSN MSN20031128042509811/28/03 04:25:31  5-MIN KMSN 281025Z 31013KT 9SM OVC021 M03/M07 A2999 800 75 -1100 310/13 RMK AO2
14837KMSN MSN20031128043009811/28/03 04:30:31  5-MIN KMSN 281030Z 30010KT 9SM OVC019 M03/M07 A2998 810 71 -1100 300/10 RMK AO2
14837KMSN MSN20031128043509811/28/03 04:35:31  5-MIN KMSN 281035Z 31011KT 9SM OVC019 M03/M08 A2999 800 68 -1100 310/11 RMK AO2
14837KMSN MSN20031128044010411/28/03 04:40:31  5-MIN KMSN 281040Z 31012G16KT 9SM OVC019 M03/M08 A2999 800 68 -1100 310/12G16 RMK AO2
14837KMSN MSN20031128044509811/28/03 04:45:31  5-MIN KMSN 281045Z 30009KT 9SM OVC019 M03/M07 A2998 810 71 -1100 300/09 RMK AO2
14837KMSN MSN20031128045012111/28/03 04:50:31  5-MIN KMSN 281050Z 30010G16KT 9SM OVC019 M03/M07 A2998 810 71 -1100 300/10G16 RMK AO2 SLP163 T10281072
14837KMSN MSN20031128045510411/28/03 04:55:31  5-MIN KMSN 281055Z 30011G16KT 9SM OVC019 M03/M07 A2998 810 71 -1100 300/11G16 RMK AO2
14837KMSN MSN20031128050010411/28/03 05:00:31  5-MIN KMSN 281100Z 30013G19KT 9SM OVC019 M03/M08 A2998 810 68 -1100 300/13G19 RMK AO2
14837KMSN MSN20031128050510411/28/03 05:05:31  5-MIN KMSN 281105Z 30008G19KT 9SM OVC019 M03/M07 A2998 810 71 -1100 300/08G19 RMK AO2
14837KMSN MSN20031128051009811/28/03 05:10:31  5-MIN KMSN 281110Z 30008KT 9SM OVC019 M03/M07 A2998 810 71 -1100 300/08 RMK AO2
14837KMSN MSN20031128051510411/28/03 05:15:31  5-MIN KMSN 281115Z 30009G15KT 9SM OVC019 M03/M07 A2998 810 71 -1100 300/09G15 RMK AO2
14837KMSN MSN20031128052010411/28/03 05:20:31  5-MIN KMSN 281120Z 30011G15KT 9SM OVC019 M03/M07 A2998 810 71 -1100 300/11G15 RMK AO2
14837KMSN MSN20031128052510411/28/03 05:25:31  5-MIN KMSN 281125Z 30013G18KT 9SM OVC019 M03/M07 A2998 810 74 -1200 300/13G18 RMK AO2
14837KMSN MSN20031128053010411/28/03 05:30:31  5-MIN KMSN 281130Z 30009G18KT 9SM OVC019 M03/M07 A2998 810 74 -1200 300/09G18 RMK AO2
14837KMSN MSN20031128053510411/28/03 05:35:31  5-MIN KMSN 281135Z 28008G15KT 9SM OVC019 M03/M07 A2998 810 74 -1200 280/08G15 RMK AO2
14837KMSN MSN20031128054010411/28/03 05:40:31  5-MIN KMSN 281140Z 29009G15KT 8SM OVC019 M03/M07 A2998 810 74 -1200 290/09G15 RMK AO2
14837KMSN MSN20031128054509811/28/03 05:45:31  5-MIN KMSN 281145Z 30010KT 8SM OVC019 M03/M08 A2998 800 71 -1200 300/10 RMK AO2
14837KMSN MSN20031128055013911/28/03 05:50:31  5-MIN KMSN 281150Z 29011G17KT 8SM OVC019 M03/M07 A2998 800 74 -1200 290/11G17 RMK AO2 SLP163 T10331072 11006 21033 58002
14837KMSN MSN20031128055510411/28/03 05:55:31  5-MIN KMSN 281155Z 29009G17KT 9SM OVC019 M03/M08 A2998 800 71 -1200 290/09G17 RMK AO2
14837KMSN MSN20031128060009811/28/03 06:00:31  5-MIN KMSN 281200Z 30009KT 9SM OVC019 M03/M08 A2999 800 71 -1200 300/09 RMK AO2
14837KMSN MSN20031128060510411/28/03 06:05:31  5-MIN KMSN 281205Z 29009G15KT 9SM OVC019 M03/M08 A2998 810 71 -1200 290/09G15 RMK AO2
14837KMSN MSN20031128061009811/28/03 06:10:31  5-MIN KMSN 281210Z 29009KT 9SM OVC019 M03/M08 A2999 800 71 -1200 290/09 RMK AO2
14837KMSN MSN20031128061509811/28/03 06:15:31  5-MIN KMSN 281215Z 30008KT 9SM OVC019 M03/M08 A2999 800 71 -1200 300/08 RMK AO2
14837KMSN MSN20031128062009811/28/03 06:20:31  5-MIN KMSN 281220Z 31011KT 9SM OVC019 M03/M08 A2999 800 71 -1200 310/11 RMK AO2
14837KMSN MSN20031128062509811/28/03 06:25:31  5-MIN KMSN 281225Z 31009KT 8SM OVC019 M03/M08 A2999 800 71 -1200 310/09 RMK AO2
14837KMSN MSN20031128063009811/28/03 06:30:31  5-MIN KMSN 281230Z 31011KT 8SM OVC019 M03/M08 A2999 800 71 -1200 310/11 RMK AO2
14837KMSN MSN20031128063510411/28/03 06:35:31  5-MIN KMSN 281235Z 31008G15KT 8SM OVC019 M03/M07 A2999 800 74 -1200 300/08G15 RMK AO2
14837KMSN MSN20031128064010411/28/03 06:40:31  5-MIN KMSN 281240Z 31012G17KT 8SM OVC019 M03/M07 A2999 800 74 -1200 310/12G17 RMK AO2
14837KMSN MSN20031128064510411/28/03 06:45:31  5-MIN KMSN 281245Z 31012G17KT 9SM OVC019 M04/M08 A2999 800 74 -1200 310/12G17 RMK AO2
14837KMSN MSN20031128065012211/28/03 06:50:31  5-MIN KMSN 281250Z 31014G18KT 10SM OVC019 M04/M08 A3000 790 74 -1200 310/14G18 RMK AO2 SLP168 T10391078
14837KMSN MSN20031128065510511/28/03 06:55:31  5-MIN KMSN 281255Z 31011G18KT 10SM OVC019 M04/M09 A3000 790 65 -1300 310/11G18 RMK AO2
14837KMSN MSN20031128070010511/28/03 07:00:31  5-MIN KMSN 281300Z 34013G18KT 10SM OVC021 M04/M09 A3000 790 68 -1200 340/13G18 RMK AO2
14837KMSN MSN20031128070511211/28/03 07:05:31  5-MIN KMSN 281305Z 32012G18KT 10SM BKN021 OVC026 M04/M09 A3000 790 68 -1200 320/12G18 RMK AO2
14837KMSN MSN20031128071010511/28/03 07:10:31  5-MIN KMSN 281310Z 34010G16KT 10SM OVC023 M04/M09 A3000 790 68 -1300 340/10G16 RMK AO2
14837KMSN MSN20031128071509911/28/03 07:15:31  5-MIN KMSN 281315Z 32010KT 10SM OVC023 M04/M09 A3000 790 68 -1300 320/10 RMK AO2
14837KMSN MSN20031128072009911/28/03 07:20:31  5-MIN KMSN 281320Z 31008KT 10SM OVC023 M04/M09 A3000 790 65 -1300 310/08 RMK AO2
14837KMSN MSN20031128072509911/28/03 07:25:31  5-MIN KMSN 281325Z 32010KT 10SM OVC023 M04/M08 A3000 790 71 -1300 320/10 RMK AO2
14837KMSN MSN20031128073010511/28/03 07:30:31  5-MIN KMSN 281330Z 33010G17KT 10SM OVC023 M04/M09 A3000 790 65 -1300 330/10G17 RMK AO2
14837KMSN MSN20031128073510511/28/03 07:35:31  5-MIN KMSN 281335Z 31011G17KT 10SM OVC023 M04/M08 A3000 790 71 -1200 310/11G17 RMK AO2
14837KMSN MSN20031128074010511/28/03 07:40:31  5-MIN KMSN 281340Z 32010G17KT 10SM OVC023 M04/M09 A3000 790 68 -1200 320/10G17 RMK AO2
14837KMSN MSN20031128074509811/28/03 07:45:31  5-MIN KMSN 281345Z 31009KT 9SM OVC023 M04/M08 A3000 790 71 -1300 310/09 RMK AO2
14837KMSN MSN20031128075011511/28/03 07:50:31  5-MIN KMSN 281350Z 31009KT 7SM OVC021 M04/M08 A3000 790 71 -1200 310/09 RMK AO2 SLP169 T10391083
14837KMSN MSN20031128075510811/28/03 07:55:31  5-MIN KMSN 281355Z 31011KT 5SM -SN OVC021 M04/M08 A3000 790 71 -1200 310/11 RMK AO2 P0000
14837KMSN MSN20031128080011411/28/03 08:00:31  5-MIN KMSN 281400Z 30012G17KT 4SM -SN OVC021 M04/M09 A3000 790 68 -1300 300/12G17 RMK AO2 P0000
14837KMSN MSN20031128080511411/28/03 08:05:31  5-MIN KMSN 281405Z 32013G17KT 4SM -SN OVC021 M04/M08 A3000 790 74 -1300 320/13G17 RMK AO2 P0000
14837KMSN MSN20031128081012111/28/03 08:10:31  5-MIN KMSN 281410Z 31012G17KT 4SM -SN BKN023 OVC027 M04/M09 A2999 800 68 -1200 310/12G17 RMK AO2 P0000
14837KMSN MSN20031128081511411/28/03 08:15:31  5-MIN KMSN 281415Z 30011G17KT 5SM -SN OVC024 M04/M08 A2999 800 74 -1200 300/11G17 RMK AO2 P0000
14837KMSN MSN20031128082011511/28/03 08:20:31  5-MIN KMSN 281420Z 30009KT 5SM -SN BKN025 OVC029 M04/M08 A2999 800 71 -1200 300/09 RMK AO2 P0000
14837KMSN MSN20031128082510811/28/03 08:25:31  5-MIN KMSN 281425Z 30009KT 6SM -SN OVC027 M04/M08 A2999 800 74 -1200 300/09 RMK AO2 P0000
14837KMSN MSN20031128083010811/28/03 08:30:31  5-MIN KMSN 281430Z 30012KT 6SM -SN OVC027 M04/M08 A2999 800 74 -1200 300/12 RMK AO2 P0000
14837KMSN MSN20031128083511411/28/03 08:35:31  5-MIN KMSN 281435Z 31010G15KT 6SM -SN OVC027 M04/M08 A2999 800 74 -1200 310/10G15 RMK AO2 P0000
14837KMSN MSN20031128084010811/28/03 08:40:31  5-MIN KMSN 281440Z 31010KT 6SM -SN OVC029 M04/M07 A2999 800 78 -1200 300/10 RMK AO2 P0000
14837KMSN MSN20031128084510811/28/03 08:45:31  5-MIN KMSN 281445Z 30006KT 6SM -SN OVC029 M04/M08 A2998 810 74 -1200 300/06 RMK AO2 P0000
14837KMSN MSN20031128085013711/28/03 08:50:31  5-MIN KMSN 281450Z 31008KT 5SM -SN OVC029 M04/M08 A2999 800 74 -1200 310/08 RMK AO2 SLP164 P0000 60000 T10391078 55004
14837KMSN MSN20031128085510811/28/03 08:55:31  5-MIN KMSN 281455Z 30010KT 5SM -SN OVC029 M04/M08 A2998 800 74 -1200 300/10 RMK AO2 P0000
14837KMSN MSN20031128090011511/28/03 09:00:31  5-MIN KMSN 281500Z 31010KT 4SM -SN FEW021 OVC031 M03/M08 A2998 810 71 -1200 300/10 RMK AO2 P0000
14837KMSN MSN20031128090511511/28/03 09:05:31  5-MIN KMSN 281505Z 29008KT 5SM -SN FEW021 OVC031 M03/M08 A2998 810 71 -1200 290/08 RMK AO2 P0000
14837KMSN MSN20031128091012211/28/03 09:10:31  5-MIN KMSN 281510Z 30009KT 4SM -SN SCT019 SCT024 OVC031 M03/M07 A2998 810 74 -1200 300/09 RMK AO2 P0000
14837KMSN MSN20031128091511511/28/03 09:15:31  5-MIN KMSN 281515Z 30012KT 4SM -SN BKN019 OVC031 M03/M07 A2999 800 74 -1200 300/12 RMK AO2 P0000
14837KMSN MSN20031128092012111/28/03 09:20:31  5-MIN KMSN 281520Z 30011G19KT 3SM -SN BKN021 OVC033 M03/M07 A2999 800 74 -1200 300/11G19 RMK AO2 P0000
14837KMSN MSN20031128092512111/28/03 09:25:31  5-MIN KMSN 281525Z 30010G19KT 3SM -SN BKN021 OVC033 M03/M07 A2999 800 74 -1200 300/10G19 RMK AO2 P0000
14837KMSN MSN20031128093010811/28/03 09:30:31  5-MIN KMSN 281530Z 30011KT 3SM -SN OVC021 M03/M07 A2999 800 74 -1200 300/11 RMK AO2 P0000
14837KMSN MSN20031128093511511/28/03 09:35:31  5-MIN KMSN 281535Z 30009KT 3SM -SN BKN019 OVC024 M03/M07 A2999 800 78 -1200 300/09 RMK AO2 P0000
14837KMSN MSN20031128094011411/28/03 09:40:31  5-MIN KMSN 281540Z 30014G19KT 3SM -SN OVC021 M03/M07 A2999 800 78 -1200 300/14G19 RMK AO2 P0000
14837KMSN MSN20031128094512811/28/03 09:45:31  5-MIN KMSN 281545Z 31014G19KT 2SM -SN OVC021 M03/M07 A2999 800 78 -1200 310/14G19 RMK AO2 SFC VIS 2 1/2 P0000
14837KMSN MSN20031128095015211/28/03 09:50:31  5-MIN KMSN 281550Z 30010G18KT 2SM -SN BKN021 OVC035 M03/M06 A2998 810 81 -1200 300/10G18 RMK AO2 SFC VIS 2 1/2 SLP164 P0000 T10331061
14837KMSN MSN20031128095513111/28/03 09:55:31  5-MIN KMSN 281555Z 30010G17KT 2SM -SN SCT021 OVC025 M03/M07 A2998 810 78 -1200 300/10G17 RMK AO2 SFC VIS 3 P0000
14837KMSN MSN20031128100013811/28/03 10:00:31  5-MIN KMSN 281600Z 31011G19KT 2SM -SN SCT019 BKN025 OVC035 M03/M07 A2999 800 74 -1200 310/11G19 RMK AO2 SFC VIS 3 P0000
14837KMSN MSN20031128100513811/28/03 10:05:31  5-MIN KMSN 281605Z 31009G19KT 2SM -SN BKN019 BKN025 OVC035 M03/M07 A2999 800 78 -1200 310/09G19 RMK AO2 SFC VIS 3 P0000
14837KMSN MSN20031128101013111/28/03 10:10:31  5-MIN KMSN 281610Z 30013G17KT 2SM -SN BKN019 OVC025 M03/M07 A2999 800 78 -1200 300/13G17 RMK AO2 SFC VIS 3 P0000
14837KMSN MSN20031128101512911/28/03 10:15:31  5-MIN KMSN 281615Z 31012KT 2 1/2SM -SN BKN019 OVC025 M03/M07 A2999 800 78 -1200 310/12 RMK AO2 SFC VIS 3 P0000
14837KMSN MSN20031128102013511/28/03 10:20:31  5-MIN KMSN 281620Z 30009G17KT 2 1/2SM -SN BKN019 OVC023 M03/M07 A2998 810 78 -1200 300/09G17 RMK AO2 SFC VIS 3 P0000
14837KMSN MSN20031128102513511/28/03 10:25:31  5-MIN KMSN 281625Z 30011G18KT 2 1/2SM -SN BKN018 OVC023 M03/M07 A2998 810 75 -1100 300/11G18 RMK AO2 SFC VIS 4 P0000
14837KMSN MSN20031128103013111/28/03 10:30:31  5-MIN KMSN 281630Z 31013G18KT 3SM -SN BKN018 OVC023 M03/M07 A2999 800 75 -1100 310/13G18 RMK AO2 SFC VIS 4 P0000
14837KMSN MSN20031128103513111/28/03 10:35:31  5-MIN KMSN 281635Z 30012G18KT 3SM -SN BKN018 OVC023 M03/M07 A2999 800 75 -1100 300/12G18 RMK AO2 SFC VIS 4 P0000
14837KMSN MSN20031128104012411/28/03 10:40:31  5-MIN KMSN 281640Z 30011G18KT 3SM -SN OVC018 M03/M07 A2998 800 75 -1100 300/11G18 RMK AO2 SFC VIS 4 P0000
14837KMSN MSN20031128104512411/28/03 10:45:31  5-MIN KMSN 281645Z 31013G18KT 3SM -SN OVC018 M03/M07 A2998 810 75 -1100 310/13G18 RMK AO2 SFC VIS 4 P0000
14837KMSN MSN20031128105014111/28/03 10:50:31  5-MIN KMSN 281650Z 31011G18KT 3SM -SN OVC020 M03/M07 A2998 810 75 -1100 310/11G18 RMK AO2 SFC VIS 4 SLP163 P0000 T10281067
14837KMSN MSN20031128105514011/28/03 10:55:31  5-MIN KMSN 281655Z 30013G18KT 280V340 3SM -SN OVC020 M03/M07 A2998 810 75 -1100 300/13G18 280V340 RMK AO2 SFC VIS 4 P0000
14837KMSN MSN20031128110012411/28/03 11:00:31  5-MIN KMSN 281700Z 30009G17KT 3SM -SN OVC020 M03/M07 A2998 810 75 -1100 300/09G17 RMK AO2 SFC VIS 4 P0000
14837KMSN MSN20031128110512411/28/03 11:05:31  5-MIN KMSN 281705Z 31012G18KT 3SM -SN OVC020 M03/M06 A2998 810 78 -1100 310/12G18 RMK AO2 SFC VIS 4 P0000
14837KMSN MSN20031128111012411/28/03 11:10:31  5-MIN KMSN 281710Z 30013G20KT 3SM -SN OVC020 M03/M07 A2998 810 75 -1100 300/13G20 RMK AO2 SFC VIS 4 P0000
14837KMSN MSN20031128111512411/28/03 11:15:31  5-MIN KMSN 281715Z 31011G20KT 3SM -SN OVC020 M03/M07 A2998 810 71 -1100 310/11G20 RMK AO2 SFC VIS 4 P0000
14837KMSN MSN20031128112012411/28/03 11:20:31  5-MIN KMSN 281720Z 30015G18KT 3SM -SN OVC020 M03/M07 A2997 820 71 -1100 300/15G18 RMK AO2 SFC VIS 4 P0000
14837KMSN MSN20031128112512411/28/03 11:25:31  5-MIN KMSN 281725Z 31010G18KT 3SM -SN OVC020 M03/M07 A2997 820 75 -1100 310/10G18 RMK AO2 SFC VIS 4 P0000
14837KMSN MSN20031128113012411/28/03 11:30:31  5-MIN KMSN 281730Z 30014G20KT 3SM -SN OVC020 M03/M07 A2997 820 75 -1100 300/14G20 RMK AO2 SFC VIS 5 P0000
14837KMSN MSN20031128113512411/28/03 11:35:31  5-MIN KMSN 281735Z 30013G20KT 3SM -SN OVC020 M03/M07 A2997 820 71 -1100 300/13G20 RMK AO2 SFC VIS 5 P0000
14837KMSN MSN20031128114012411/28/03 11:40:31  5-MIN KMSN 281740Z 30011G17KT 3SM -SN OVC020 M03/M07 A2997 820 75 -1100 300/11G17 RMK AO2 SFC VIS 4 P0000
14837KMSN MSN20031128114512411/28/03 11:45:31  5-MIN KMSN 281745Z 31013G20KT 3SM -SN OVC020 M03/M07 A2997 820 75 -1100 310/13G20 RMK AO2 SFC VIS 4 P0000
14837KMSN MSN20031128115016511/28/03 11:50:31  5-MIN KMSN 281750Z 31015G20KT 3SM -SN OVC020 M03/M07 A2997 820 75 -1100 310/15G20 RMK AO2 SFC VIS 4 SLP159 P0000 60001 T10281067 11028 21039 50000
14837KMSN MSN20031128115511411/28/03 11:55:31  5-MIN KMSN 281755Z 31012G18KT 3SM -SN OVC020 M03/M07 A2997 820 75 -1100 310/12G18 RMK AO2 P0000
14837KMSN MSN20031128120012811/28/03 12:00:31  5-MIN KMSN 281800Z 31015G19KT 2 1/2SM -SN OVC020 M02/M07 A2997 820 72 -1000 310/15G19 RMK AO2 TWR VIS 3 P0000
14837KMSN MSN20031128120511811/28/03 12:05:31  5-MIN KMSN 281805Z 31009G19KT 2 1/2SM -SN OVC020 M02/M06 A2997 820 75 -1000 310/09G19 RMK AO2 P0000
14837KMSN MSN20031128121012811/28/03 12:10:31  5-MIN KMSN 281810Z 31012G18KT 2 1/2SM -SN OVC020 M02/M06 A2997 820 75 -1000 310/12G18 RMK AO2 SFC VIS 3 P0000
14837KMSN MSN20031128121512811/28/03 12:15:31  5-MIN KMSN 281815Z 29014G18KT 2 1/2SM -SN OVC020 M02/M06 A2997 820 75 -1000 290/14G18 RMK AO2 SFC VIS 3 P0000
14837KMSN MSN20031128122013111/28/03 12:20:31  5-MIN KMSN 281820Z 31010G18KT 3SM -SN BKN018 OVC023 M02/M06 A2997 820 75 -1000 310/10G18 RMK AO2 SFC VIS 4 P0000
14837KMSN MSN20031128122512511/28/03 12:25:31  5-MIN KMSN 281825Z 30014KT 3SM -SN BKN018 OVC033 M02/M06 A2997 820 78 -1000 300/14 RMK AO2 SFC VIS 4 P0000
14837KMSN MSN20031128123013111/28/03 12:30:31  5-MIN KMSN 281830Z 30011G18KT 3SM -SN BKN018 OVC031 M02/M06 A2997 820 75 -1000 300/11G18 RMK AO2 SFC VIS 4 P0000
14837KMSN MSN20031128123512411/28/03 12:35:31  5-MIN KMSN 281835Z 30009G21KT 3SM -SN OVC018 M02/M06 A2997 820 75 -1000 300/09G21 RMK AO2 SFC VIS 4 P0000
14837KMSN MSN20031128124012411/28/03 12:40:31  5-MIN KMSN 281840Z 31012G21KT 3SM -SN OVC018 M02/M06 A2997 820 75 -1000 310/12G21 RMK AO2 SFC VIS 4 P0000
14837KMSN MSN20031128124513111/28/03 12:45:31  5-MIN KMSN 281845Z 31014G17KT 3SM -SN BKN018 OVC023 M02/M06 A2997 820 75 -1000 310/14G17 RMK AO2 SFC VIS 3 P0000
14837KMSN MSN20031128125014111/28/03 12:50:31  5-MIN KMSN 281850Z 31012G20KT 3SM -SN OVC018 M02/M06 A2997 820 75 -1000 310/12G20 RMK AO2 SFC VIS 4 SLP159 P0000 T10221061
14837KMSN MSN20031128125512411/28/03 12:55:31  5-MIN KMSN 281855Z 30013G20KT 3SM -SN OVC018 M02/M06 A2997 820 75 -1000 300/13G20 RMK AO2 SFC VIS 4 P0000
14837KMSN MSN20031128130011811/28/03 13:00:31  5-MIN KMSN 281900Z 31011KT 3SM -SN OVC018 M02/M06 A2997 820 75 -1000 310/11 RMK AO2 SFC VIS 4 P0000
14837KMSN MSN20031128130512411/28/03 13:05:31  5-MIN KMSN 281905Z 30013G17KT 3SM -SN OVC020 M02/M06 A2997 820 75 -1000 300/13G17 RMK AO2 SFC VIS 4 P0000
14837KMSN MSN20031128131012411/28/03 13:10:31  5-MIN KMSN 281910Z 30012G17KT 3SM -SN OVC020 M02/M06 A2997 820 75 -1000 300/12G17 RMK AO2 SFC VIS 4 P0000
14837KMSN MSN20031128131511711/28/03 13:15:31  5-MIN KMSN 281915Z 31012KT 3SM -SN OVC020 M02/M06 A2997 820 72 -900 310/12 RMK AO2 SFC VIS 4 P0000
14837KMSN MSN20031128132011411/28/03 13:20:31  5-MIN KMSN 281920Z 30014G19KT 4SM -SN OVC020 M02/M06 A2997 820 75 -1000 300/14G19 RMK AO2 P0000
14837KMSN MSN20031128132511411/28/03 13:25:31  5-MIN KMSN 281925Z 31011G19KT 5SM -SN OVC020 M02/M06 A2997 820 75 -1000 300/11G19 RMK AO2 P0000
14837KMSN MSN20031128133010811/28/03 13:30:31  5-MIN KMSN 281930Z 29010KT 4SM -SN OVC020 M02/M06 A2997 820 78 -1000 290/10 RMK AO2 P0000
14837KMSN MSN20031128133511411/28/03 13:35:31  5-MIN KMSN 281935Z 30013G17KT 4SM -SN OVC020 M02/M06 A2997 820 75 -1000 300/13G17 RMK AO2 P0000
14837KMSN MSN20031128134011411/28/03 13:40:31  5-MIN KMSN 281940Z 31010G17KT 4SM -SN OVC020 M02/M06 A2997 820 78 -1000 310/10G17 RMK AO2 P0000
14837KMSN MSN20031128134511411/28/03 13:45:31  5-MIN KMSN 281945Z 31012G18KT 4SM -SN OVC020 M02/M06 A2997 820 78 -1000 310/12G18 RMK AO2 P0000
14837KMSN MSN20031128135014611/28/03 13:50:31  5-MIN KMSN 281950Z 32012G18KT 290V350 7SM -SN OVC020 M02/M06 A2997 820 75 -900 320/12G18 290V350 RMK AO2 SLP160 P0000 T10171056
14837KMSN MSN20031128135511311/28/03 13:55:31  5-MIN KMSN 281955Z 32012G21KT 7SM -SN OVC020 M02/M06 A2997 820 72 -900 320/12G21 RMK AO2 P0000
14837KMSN MSN20031128140011311/28/03 14:00:31  5-MIN KMSN 282000Z 31011G21KT 7SM -SN OVC020 M02/M06 A2997 820 72 -900 310/11G21 RMK AO2 P0000
14837KMSN MSN20031128140511311/28/03 14:05:31  5-MIN KMSN 282005Z 31015G20KT 7SM -SN OVC020 M02/M05 A2997 820 78 -900 310/15G20 RMK AO2 P0000
14837KMSN MSN20031128141011511/28/03 14:10:31  5-MIN KMSN 282010Z 30012G20KT 7SM OVC020 M02/M06 A2998 810 72 -900 300/12G20 RMK AO2 SNE08 P0000
14837KMSN MSN20031128141511511/28/03 14:15:31  5-MIN KMSN 282015Z 31013G20KT 7SM OVC020 M02/M06 A2998 810 72 -900 310/13G20 RMK AO2 SNE08 P0000
14837KMSN MSN20031128142011511/28/03 14:20:31  5-MIN KMSN 282020Z 31013G17KT 7SM OVC020 M02/M06 A2998 810 72 -900 310/13G17 RMK AO2 SNE08 P0000
14837KMSN MSN20031128142511511/28/03 14:25:31  5-MIN KMSN 282025Z 31014G20KT 8SM OVC020 M02/M06 A2998 810 72 -900 310/14G20 RMK AO2 SNE08 P0000
14837KMSN MSN20031128143011511/28/03 14:30:31  5-MIN KMSN 282030Z 31013G20KT 9SM OVC020 M02/M06 A2998 810 75 -900 310/13G20 RMK AO2 SNE08 P0000
14837KMSN MSN20031128143511011/28/03 14:35:31  5-MIN KMSN 282035Z 31013KT 10SM OVC020 M02/M06 A2998 810 75 -900 310/13 RMK AO2 SNE08 P0000
14837KMSN MSN20031128144011711/28/03 14:40:31  5-MIN KMSN 282040Z 31012G20KT 10SM OVC020 M02/M06 A2998 810 75 -1000 310/12G20 RMK AO2 SNE08 P0000
14837KMSN MSN20031128144511611/28/03 14:45:31  5-MIN KMSN 282045Z 31015G24KT 10SM OVC020 M02/M06 A2998 810 75 -900 310/15G24 RMK AO2 SNE08 P0000
14837KMSN MSN20031128145014611/28/03 14:50:31  5-MIN KMSN 282050Z 31012G24KT 10SM OVC020 M02/M06 A2999 800 75 -1000 310/12G24 RMK AO2 SNE08 SLP165 P0000 60000 T10171056 58005
14837KMSN MSN20031128145510511/28/03 14:55:31  5-MIN KMSN 282055Z 31012G19KT 10SM OVC020 M02/M06 A2999 800 75 -1000 310/12G19 RMK AO2
14837KMSN MSN20031128150010411/28/03 15:00:31  5-MIN KMSN 282100Z 31011G18KT 10SM OVC020 M01/M06 A2999 800 72 -900 310/11G18 RMK AO2
14837KMSN MSN20031128150510411/28/03 15:05:31  5-MIN KMSN 282105Z 32013G20KT 10SM OVC022 M01/M06 A2999 800 69 -900 320/13G20 RMK AO2
14837KMSN MSN20031128151010411/28/03 15:10:31  5-MIN KMSN 282110Z 31015G20KT 10SM OVC022 M01/M06 A3000 790 69 -900 310/15G20 RMK AO2
14837KMSN MSN20031128151510411/28/03 15:15:31  5-MIN KMSN 282115Z 31013G20KT 10SM OVC022 M01/M06 A3000 790 69 -900 310/13G20 RMK AO2
14837KMSN MSN20031128152010411/28/03 15:20:31  5-MIN KMSN 282120Z 32014G20KT 10SM OVC022 M01/M06 A3000 790 69 -900 320/14G20 RMK AO2
14837KMSN MSN20031128152510411/28/03 15:25:31  5-MIN KMSN 282125Z 30014G20KT 10SM OVC022 M01/M06 A3000 790 69 -900 300/14G20 RMK AO2
14837KMSN MSN20031128153010411/28/03 15:30:31  5-MIN KMSN 282130Z 31012G20KT 10SM OVC022 M01/M06 A3000 790 69 -900 310/12G20 RMK AO2
14837KMSN MSN20031128153510411/28/03 15:35:31  5-MIN KMSN 282135Z 30014G18KT 10SM OVC022 M01/M06 A3000 790 69 -900 300/14G18 RMK AO2
14837KMSN MSN20031128154010411/28/03 15:40:31  5-MIN KMSN 282140Z 31014G20KT 10SM OVC022 M01/M06 A3000 790 72 -900 310/14G20 RMK AO2
14837KMSN MSN20031128154510411/28/03 15:45:31  5-MIN KMSN 282145Z 31013G21KT 10SM OVC022 M01/M06 A3001 780 72 -900 310/13G21 RMK AO2
14837KMSN MSN20031128155012111/28/03 15:50:31  5-MIN KMSN 282150Z 31015G22KT 10SM OVC022 M01/M06 A3001 780 72 -900 300/15G22 RMK AO2 SLP172 T10111056
14837KMSN MSN20031128155510511/28/03 15:55:31  5-MIN KMSN 282155Z 30013G22KT 10SM OVC022 M02/M06 A3001 780 75 -1000 300/13G22 RMK AO2
14837KMSN MSN20031128160012111/28/03 16:00:31  5-MIN KMSN 282200Z 32015G19KT 280V350 10SM OVC020 M02/M06 A3001 780 75 -1000 310/15G19 280V350 RMK AO2
14837KMSN MSN20031128160510511/28/03 16:05:31  5-MIN KMSN 282205Z 30012G18KT 10SM OVC020 M02/M06 A3002 780 75 -1000 300/12G18 RMK AO2
14837KMSN MSN20031128161009911/28/03 16:10:31  5-MIN KMSN 282210Z 31013KT 10SM OVC020 M02/M06 A3002 770 75 -1000 310/13 RMK AO2
14837KMSN MSN20031128161509911/28/03 16:15:31  5-MIN KMSN 282215Z 31012KT 10SM OVC020 M02/M06 A3002 770 75 -1000 310/12 RMK AO2
14837KMSN MSN20031128162010511/28/03 16:20:31  5-MIN KMSN 282220Z 31012G16KT 10SM OVC020 M02/M06 A3002 770 75 -1000 310/12G16 RMK AO2
14837KMSN MSN20031128162510511/28/03 16:25:31  5-MIN KMSN 282225Z 31016G21KT 10SM OVC020 M02/M06 A3002 770 75 -1000 310/16G21 RMK AO2
14837KMSN MSN20031128163010511/28/03 16:30:31  5-MIN KMSN 282230Z 32013G21KT 10SM OVC020 M02/M06 A3003 770 75 -1000 320/13G21 RMK AO2
14837KMSN MSN20031128163510511/28/03 16:35:31  5-MIN KMSN 282235Z 30013G21KT 10SM OVC020 M02/M06 A3003 770 75 -1000 300/13G21 RMK AO2
14837KMSN MSN20031128164010511/28/03 16:40:31  5-MIN KMSN 282240Z 31010G20KT 10SM OVC020 M02/M06 A3003 760 72 -1000 310/10G20 RMK AO2
14837KMSN MSN20031128164512111/28/03 16:45:31  5-MIN KMSN 282245Z 31011G20KT 280V340 10SM OVC020 M02/M06 A3003 770 75 -1000 310/11G20 280V340 RMK AO2
14837KMSN MSN20031128165012211/28/03 16:50:31  5-MIN KMSN 282250Z 31014G20KT 10SM OVC020 M02/M06 A3003 770 75 -1000 310/14G20 RMK AO2 SLP180 T10171056
14837KMSN MSN20031128165510511/28/03 16:55:31  5-MIN KMSN 282255Z 30015G20KT 10SM OVC020 M02/M06 A3003 760 72 -1000 300/15G20 RMK AO2
14837KMSN MSN20031128170010511/28/03 17:00:31  5-MIN KMSN 282300Z 31013G19KT 10SM OVC020 M02/M06 A3003 760 75 -1000 310/13G19 RMK AO2
14837KMSN MSN20031128170510511/28/03 17:05:31  5-MIN KMSN 282305Z 31013G19KT 10SM OVC020 M02/M06 A3003 760 75 -1000 300/13G19 RMK AO2
14837KMSN MSN20031128171010511/28/03 17:10:31  5-MIN KMSN 282310Z 31012G20KT 10SM OVC020 M02/M06 A3004 760 72 -1000 310/12G20 RMK AO2
14837KMSN MSN20031128171510511/28/03 17:15:31  5-MIN KMSN 282315Z 31012G22KT 10SM OVC020 M02/M06 A3004 760 72 -1000 310/12G22 RMK AO2
14837KMSN MSN20031128172010511/28/03 17:20:31  5-MIN KMSN 282320Z 31013G22KT 10SM OVC020 M02/M06 A3003 760 72 -1000 310/13G22 RMK AO2
14837KMSN MSN20031128172510511/28/03 17:25:31  5-MIN KMSN 282325Z 31014G19KT 10SM OVC022 M02/M06 A3003 760 72 -1000 310/14G19 RMK AO2
14837KMSN MSN20031128173010511/28/03 17:30:31  5-MIN KMSN 282330Z 31014G21KT 10SM OVC022 M02/M06 A3003 760 75 -1000 300/14G21 RMK AO2
14837KMSN MSN20031128173510511/28/03 17:35:31  5-MIN KMSN 282335Z 30012G21KT 10SM OVC022 M02/M06 A3003 760 72 -1000 300/12G21 RMK AO2
14837KMSN MSN20031128174010511/28/03 17:40:31  5-MIN KMSN 282340Z 31010G18KT 10SM OVC022 M02/M06 A3004 760 72 -1000 310/10G18 RMK AO2
14837KMSN MSN20031128174510511/28/03 17:45:31  5-MIN KMSN 282345Z 31012G20KT 10SM OVC022 M02/M07 A3004 760 69 -1000 300/12G20 RMK AO2
14837KMSN MSN20031128175014611/28/03 17:50:31  5-MIN KMSN 282350Z 31013G20KT 10SM OVC022 M02/M06 A3004 760 72 -1000 310/13G20 RMK AO2 SLP183 60000 T10171061 11011 21028 53005
14837KMSN MSN20031128175510511/28/03 17:55:31  5-MIN KMSN 282355Z 30010G18KT 10SM OVC022 M02/M06 A3004 760 72 -1000 300/10G18 RMK AO2
14837KMSN MSN20031128180010511/28/03 18:00:31  5-MIN KMSN 290000Z 30012G18KT 10SM OVC022 M02/M06 A3004 760 72 -1000 300/12G18 RMK AO2
14837KMSN MSN20031128180510511/28/03 18:05:31  5-MIN KMSN 290005Z 30014G21KT 10SM OVC022 M02/M06 A3004 750 72 -1000 300/14G21 RMK AO2
14837KMSN MSN20031128181010511/28/03 18:10:31  5-MIN KMSN 290010Z 31012G21KT 10SM OVC022 M02/M06 A3004 750 72 -1000 310/12G21 RMK AO2
14837KMSN MSN20031128181509911/28/03 18:15:31  5-MIN KMSN 290015Z 31009KT 10SM OVC022 M02/M06 A3004 750 72 -1000 310/09 RMK AO2
14837KMSN MSN20031128182009911/28/03 18:20:31  5-MIN KMSN 290020Z 31011KT 10SM OVC022 M02/M06 A3004 750 72 -1000 310/11 RMK AO2
14837KMSN MSN20031128182510511/28/03 18:25:31  5-MIN KMSN 290025Z 31012G18KT 10SM OVC022 M02/M06 A3005 750 72 -1000 310/12G18 RMK AO2
14837KMSN MSN20031128183010511/28/03 18:30:31  5-MIN KMSN 290030Z 31012G18KT 10SM OVC022 M02/M06 A3005 750 72 -1000 310/12G18 RMK AO2
14837KMSN MSN20031128183510511/28/03 18:35:31  5-MIN KMSN 290035Z 31009G18KT 10SM OVC022 M02/M07 A3005 750 69 -1000 310/09G18 RMK AO2
14837KMSN MSN20031128184010511/28/03 18:40:31  5-MIN KMSN 290040Z 31015G24KT 10SM OVC022 M02/M07 A3005 750 69 -1000 310/15G24 RMK AO2
14837KMSN MSN20031128184510511/28/03 18:45:31  5-MIN KMSN 290045Z 31014G24KT 10SM OVC022 M02/M07 A3005 740 69 -1000 310/14G24 RMK AO2
14837KMSN MSN20031128185012211/28/03 18:50:31  5-MIN KMSN 290050Z 32011G20KT 10SM OVC022 M02/M07 A3005 740 69 -1000 310/11G20 RMK AO2 SLP188 T10171067
14837KMSN MSN20031128185512111/28/03 18:55:31  5-MIN KMSN 290055Z 31014G20KT 280V350 10SM OVC022 M02/M07 A3005 740 69 -1000 310/14G20 280V350 RMK AO2
14837KMSN MSN20031128190010511/28/03 19:00:31  5-MIN KMSN 290100Z 30012G20KT 10SM OVC022 M02/M06 A3005 740 72 -1000 300/12G20 RMK AO2
14837KMSN MSN20031128190510511/28/03 19:05:31  5-MIN KMSN 290105Z 31012G18KT 10SM OVC022 M02/M06 A3006 740 72 -1000 310/12G18 RMK AO2
14837KMSN MSN20031128191010511/28/03 19:10:31  5-MIN KMSN 290110Z 31013G18KT 10SM OVC022 M02/M07 A3006 740 69 -1000 310/13G18 RMK AO2
14837KMSN MSN20031128191509911/28/03 19:15:31  5-MIN KMSN 290115Z 31011KT 10SM OVC022 M02/M07 A3006 740 66 -1000 310/11 RMK AO2
14837KMSN MSN20031128192009911/28/03 19:20:31  5-MIN KMSN 290120Z 31013KT 10SM OVC022 M02/M07 A3006 740 72 -1100 300/13 RMK AO2
14837KMSN MSN20031128192510511/28/03 19:25:31  5-MIN KMSN 290125Z 32010G17KT 10SM OVC022 M02/M07 A3006 740 72 -1100 310/10G17 RMK AO2
14837KMSN MSN20031128193009911/28/03 19:30:31  5-MIN KMSN 290130Z 31013KT 10SM OVC022 M02/M07 A3006 740 72 -1100 310/13 RMK AO2
14837KMSN MSN20031128193510511/28/03 19:35:31  5-MIN KMSN 290135Z 31011G21KT 10SM OVC022 M02/M07 A3006 740 72 -1100 310/11G21 RMK AO2
14837KMSN MSN20031128194010511/28/03 19:40:31  5-MIN KMSN 290140Z 31010G21KT 10SM OVC022 M02/M07 A3006 730 72 -1100 310/10G21 RMK AO2
14837KMSN MSN20031128194509911/28/03 19:45:31  5-MIN KMSN 290145Z 30011KT 10SM OVC022 M02/M07 A3006 730 72 -1100 300/11 RMK AO2
14837KMSN MSN20031128195012211/28/03 19:50:31  5-MIN KMSN 290150Z 31011G18KT 10SM OVC022 M02/M07 A3006 730 72 -1100 310/11G18 RMK AO2 SLP192 T10221067
14837KMSN MSN20031128195510511/28/03 19:55:31  5-MIN KMSN 290155Z 29010G18KT 10SM OVC022 M02/M07 A3007 730 72 -1100 290/10G18 RMK AO2
14837KMSN MSN20031128200010511/28/03 20:00:31  5-MIN KMSN 290200Z 31010G18KT 10SM OVC022 M02/M07 A3007 730 72 -1100 310/10G18 RMK AO2
14837KMSN MSN20031128200509911/28/03 20:05:31  5-MIN KMSN 290205Z 31012KT 10SM OVC022 M02/M07 A3007 730 72 -1100 310/12 RMK AO2
14837KMSN MSN20031128201009911/28/03 20:10:31  5-MIN KMSN 290210Z 31010KT 10SM OVC022 M02/M07 A3007 730 72 -1100 310/10 RMK AO2
14837KMSN MSN20031128201510511/28/03 20:15:31  5-MIN KMSN 290215Z 31011G18KT 10SM OVC022 M02/M07 A3007 730 72 -1100 310/11G18 RMK AO2
14837KMSN MSN20031128202010511/28/03 20:20:31  5-MIN KMSN 290220Z 31013G19KT 10SM OVC022 M02/M07 A3007 730 69 -1100 310/13G19 RMK AO2
14837KMSN MSN20031128202510511/28/03 20:25:31  5-MIN KMSN 290225Z 30012G19KT 10SM OVC022 M02/M06 A3007 720 75 -1100 300/12G19 RMK AO2
14837KMSN MSN20031128203010511/28/03 20:30:31  5-MIN KMSN 290230Z 32014G20KT 10SM OVC022 M02/M07 A3007 720 72 -1100 320/14G20 RMK AO2
14837KMSN MSN20031128203510511/28/03 20:35:31  5-MIN KMSN 290235Z 31011G20KT 10SM OVC022 M03/M07 A3007 720 71 -1200 310/11G20 RMK AO2
14837KMSN MSN20031128204010511/28/03 20:40:31  5-MIN KMSN 290240Z 31010G18KT 10SM OVC022 M03/M08 A3007 720 68 -1200 310/10G18 RMK AO2
14837KMSN MSN20031128204510511/28/03 20:45:31  5-MIN KMSN 290245Z 30011G18KT 10SM OVC022 M03/M07 A3007 720 71 -1200 300/11G18 RMK AO2
14837KMSN MSN20031128205012811/28/03 20:50:31  5-MIN KMSN 290250Z 32014G21KT 10SM OVC022 M03/M07 A3007 720 71 -1200 310/14G21 RMK AO2 SLP196 T10281072 51016
14837KMSN MSN20031128205510511/28/03 20:55:31  5-MIN KMSN 290255Z 31014G21KT 10SM OVC022 M03/M07 A3007 720 71 -1200 310/14G21 RMK AO2
14837KMSN MSN20031128210010511/28/03 21:00:31  5-MIN KMSN 290300Z 30011G18KT 10SM OVC022 M03/M07 A3007 720 71 -1200 300/11G18 RMK AO2
14837KMSN MSN20031128210510511/28/03 21:05:31  5-MIN KMSN 290305Z 30011G18KT 10SM OVC022 M03/M07 A3007 720 71 -1200 300/11G18 RMK AO2
14837KMSN MSN20031128211010511/28/03 21:10:31  5-MIN KMSN 290310Z 31013G16KT 10SM OVC022 M03/M07 A3007 720 71 -1200 310/13G16 RMK AO2
14837KMSN MSN20031128211510511/28/03 21:15:31  5-MIN KMSN 290315Z 31010G18KT 10SM OVC022 M03/M07 A3007 720 71 -1200 310/10G18 RMK AO2
14837KMSN MSN20031128212010511/28/03 21:20:31  5-MIN KMSN 290320Z 30012G20KT 10SM OVC024 M03/M07 A3007 720 71 -1200 300/12G20 RMK AO2
14837KMSN MSN20031128212510511/28/03 21:25:31  5-MIN KMSN 290325Z 30012G20KT 10SM OVC024 M03/M07 A3007 720 71 -1200 300/12G20 RMK AO2
14837KMSN MSN20031128213009911/28/03 21:30:31  5-MIN KMSN 290330Z 31010KT 10SM OVC022 M03/M07 A3007 720 75 -1200 310/10 RMK AO2
14837KMSN MSN20031128213509911/28/03 21:35:31  5-MIN KMSN 290335Z 31011KT 10SM OVC022 M03/M07 A3007 720 75 -1200 310/11 RMK AO2
14837KMSN MSN20031128214009911/28/03 21:40:31  5-MIN KMSN 290340Z 30010KT 10SM OVC022 M03/M07 A3007 720 71 -1200 300/10 RMK AO2
14837KMSN MSN20031128214510511/28/03 21:45:31  5-MIN KMSN 290345Z 29010G15KT 10SM OVC022 M03/M08 A3007 720 68 -1200 290/10G15 RMK AO2
14837KMSN MSN20031128215012211/28/03 21:50:31  5-MIN KMSN 290350Z 30010G15KT 10SM OVC022 M03/M07 A3007 720 71 -1200 300/10G15 RMK AO2 SLP195 T10281072
14837KMSN MSN20031128215510511/28/03 21:55:31  5-MIN KMSN 290355Z 30009G15KT 10SM OVC022 M03/M07 A3007 730 71 -1200 300/09G15 RMK AO2
14837KMSN MSN20031128220009911/28/03 22:00:31  5-MIN KMSN 290400Z 31011KT 10SM OVC022 M03/M07 A3007 720 71 -1200 310/11 RMK AO2
14837KMSN MSN20031128220510511/28/03 22:05:31  5-MIN KMSN 290405Z 30009G16KT 10SM OVC022 M03/M07 A3007 730 71 -1200 300/09G16 RMK AO2
14837KMSN MSN20031128221010511/28/03 22:10:31  5-MIN KMSN 290410Z 29011G16KT 10SM OVC022 M03/M07 A3007 730 71 -1200 290/11G16 RMK AO2
14837KMSN MSN20031128221509911/28/03 22:15:31  5-MIN KMSN 290415Z 30011KT 10SM OVC022 M03/M07 A3007 730 71 -1200 300/11 RMK AO2
14837KMSN MSN20031128222010511/28/03 22:20:31  5-MIN KMSN 290420Z 30013G16KT 10SM OVC022 M03/M07 A3007 730 71 -1200 300/13G16 RMK AO2
14837KMSN MSN20031128222509911/28/03 22:25:31  5-MIN KMSN 290425Z 30009KT 10SM OVC022 M03/M07 A3007 730 71 -1200 290/09 RMK AO2
14837KMSN MSN20031128223009911/28/03 22:30:31  5-MIN KMSN 290430Z 29011KT 10SM OVC022 M03/M07 A3007 730 71 -1200 290/11 RMK AO2
14837KMSN MSN20031128223509911/28/03 22:35:31  5-MIN KMSN 290435Z 29010KT 10SM OVC022 M03/M07 A3007 730 71 -1200 290/10 RMK AO2
14837KMSN MSN20031128224009911/28/03 22:40:31  5-MIN KMSN 290440Z 29009KT 10SM OVC022 M03/M07 A3007 730 71 -1200 290/09 RMK AO2
14837KMSN MSN20031128224509911/28/03 22:45:31  5-MIN KMSN 290445Z 29011KT 10SM OVC022 M03/M07 A3007 730 75 -1200 290/11 RMK AO2
14837KMSN MSN20031128225011611/28/03 22:50:31  5-MIN KMSN 290450Z 30011KT 10SM OVC022 M03/M07 A3007 730 71 -1200 290/11 RMK AO2 SLP194 T10281072
14837KMSN MSN20031128225510511/28/03 22:55:31  5-MIN KMSN 290455Z 30010G16KT 10SM OVC022 M03/M08 A3008 720 68 -1200 300/10G16 RMK AO2
14837KMSN MSN20031128230010511/28/03 23:00:31  5-MIN KMSN 290500Z 29010G17KT 10SM OVC022 M03/M08 A3008 720 68 -1200 290/10G17 RMK AO2
14837KMSN MSN20031128230510511/28/03 23:05:31  5-MIN KMSN 290505Z 29011G17KT 10SM OVC022 M03/M07 A3007 720 74 -1300 290/11G17 RMK AO2
14837KMSN MSN20031128231009911/28/03 23:10:31  5-MIN KMSN 290510Z 29009KT 10SM OVC022 M03/M07 A3007 720 74 -1300 280/09 RMK AO2
14837KMSN MSN20031128231509911/28/03 23:15:31  5-MIN KMSN 290515Z 29011KT 10SM OVC022 M03/M08 A3008 720 68 -1300 290/11 RMK AO2
14837KMSN MSN20031128232009911/28/03 23:20:31  5-MIN KMSN 290520Z 29010KT 10SM OVC022 M03/M08 A3007 720 68 -1300 290/10 RMK AO2
14837KMSN MSN20031128232509911/28/03 23:25:31  5-MIN KMSN 290525Z 30010KT 10SM OVC020 M03/M08 A3007 720 68 -1300 300/10 RMK AO2
14837KMSN MSN20031128233009911/28/03 23:30:31  5-MIN KMSN 290530Z 29010KT 10SM OVC020 M03/M09 A3007 720 65 -1300 290/10 RMK AO2
14837KMSN MSN20031128233509911/28/03 23:35:31  5-MIN KMSN 290535Z 29009KT 10SM OVC020 M03/M08 A3007 720 68 -1300 290/09 RMK AO2
14837KMSN MSN20031128234009911/28/03 23:40:31  5-MIN KMSN 290540Z 30011KT 10SM OVC020 M03/M08 A3007 720 68 -1300 300/11 RMK AO2
14837KMSN MSN20031128234510511/28/03 23:45:31  5-MIN KMSN 290545Z 29010G15KT 10SM OVC020 M03/M08 A3007 720 68 -1300 290/10G15 RMK AO2
14837KMSN MSN20031128235015011/28/03 23:50:31  5-MIN KMSN 290550Z 30008G16KT 10SM OVC020 M03/M08 A3007 720 68 -1300 300/08G16 RMK AO2 SLP196 T10331083 11017 21033 410061039 51012
14837KMSN MSN20031128235510511/28/03 23:55:31  5-MIN KMSN 290555Z 29011G16KT 10SM OVC020 M03/M08 A3008 720 71 -1300 280/11G16 RMK AO2
14837KMSN MSN20031129000009911/29/03 00:00:31  5-MIN KMSN 290600Z 29008KT 10SM OVC020 M03/M08 A3008 720 71 -1300 290/08 RMK AO2
14837KMSN MSN20031129000509911/29/03 00:05:31  5-MIN KMSN 290605Z 29009KT 10SM OVC020 M03/M08 A3008 720 71 -1300 290/09 RMK AO2
14837KMSN MSN20031129001009911/29/03 00:10:31  5-MIN KMSN 290610Z 29010KT 10SM OVC020 M03/M08 A3009 710 71 -1300 290/10 RMK AO2
14837KMSN MSN20031129001509911/29/03 00:15:31  5-MIN KMSN 290615Z 30010KT 10SM OVC020 M03/M08 A3009 710 71 -1300 300/10 RMK AO2
14837KMSN MSN20031129002009911/29/03 00:20:31  5-MIN KMSN 290620Z 30011KT 10SM OVC020 M03/M08 A3009 710 71 -1300 300/11 RMK AO2
14837KMSN MSN20031129002509911/29/03 00:25:31  5-MIN KMSN 290625Z 30011KT 10SM OVC020 M03/M08 A3009 710 71 -1300 290/11 RMK AO2
14837KMSN MSN20031129003009911/29/03 00:30:31  5-MIN KMSN 290630Z 30006KT 10SM OVC020 M03/M08 A3009 710 71 -1300 300/06 RMK AO2
14837KMSN MSN20031129003509911/29/03 00:35:31  5-MIN KMSN 290635Z 29007KT 10SM OVC020 M03/M08 A3009 710 71 -1300 280/07 RMK AO2
14837KMSN MSN20031129004010511/29/03 00:40:31  5-MIN KMSN 290640Z 28006G16KT 10SM OVC020 M03/M08 A3008 720 71 -1300 280/06G16 RMK AO2
14837KMSN MSN20031129004510511/29/03 00:45:31  5-MIN KMSN 290645Z 28007G16KT 10SM OVC018 M03/M08 A3008 710 71 -1300 280/07G16 RMK AO2
14837KMSN MSN20031129005011611/29/03 00:50:31  5-MIN KMSN 290650Z 29007KT 10SM OVC018 M03/M08 A3008 710 71 -1300 280/07 RMK AO2 SLP198 T10331078
14837KMSN MSN20031129005509911/29/03 00:55:31  5-MIN KMSN 290655Z 30008KT 10SM OVC018 M04/M08 A3008 720 74 -1300 300/08 RMK AO2
14837KMSN MSN20031129010009911/29/03 01:00:31  5-MIN KMSN 290700Z 30007KT 10SM OVC018 M04/M08 A3008 720 74 -1300 300/07 RMK AO2
14837KMSN MSN20031129010509911/29/03 01:05:31  5-MIN KMSN 290705Z 29008KT 10SM OVC018 M04/M07 A3008 710 78 -1300 290/08 RMK AO2
14837KMSN MSN20031129011009911/29/03 01:10:31  5-MIN KMSN 290710Z 30007KT 10SM OVC018 M04/M08 A3008 710 74 -1300 300/07 RMK AO2
14837KMSN MSN20031129011509911/29/03 01:15:31  5-MIN KMSN 290715Z 29009KT 10SM OVC018 M04/M08 A3009 710 74 -1400 290/09 RMK AO2
14837KMSN MSN20031129012009911/29/03 01:20:31  5-MIN KMSN 290720Z 28008KT 10SM OVC018 M04/M08 A3008 710 74 -1300 280/08 RMK AO2
14837KMSN MSN20031129012509911/29/03 01:25:31  5-MIN KMSN 290725Z 30009KT 10SM OVC018 M04/M08 A3009 710 74 -1400 300/09 RMK AO2
14837KMSN MSN20031129013009911/29/03 01:30:31  5-MIN KMSN 290730Z 29007KT 10SM OVC018 M04/M08 A3009 710 74 -1400 290/07 RMK AO2
14837KMSN MSN20031129013509911/29/03 01:35:31  5-MIN KMSN 290735Z 28010KT 10SM OVC018 M04/M08 A3009 710 74 -1400 280/10 RMK AO2
14837KMSN MSN20031129014009911/29/03 01:40:31  5-MIN KMSN 290740Z 29008KT 10SM OVC018 M04/M08 A3009 710 74 -1400 290/08 RMK AO2
14837KMSN MSN20031129014509911/29/03 01:45:31  5-MIN KMSN 290745Z 29008KT 10SM OVC018 M04/M08 A3009 710 74 -1400 280/08 RMK AO2
14837KMSN MSN20031129015011611/29/03 01:50:31  5-MIN KMSN 290750Z 29006KT 10SM OVC018 M04/M08 A3009 710 74 -1400 280/06 RMK AO2 SLP200 T10391078
14837KMSN MSN20031129015509911/29/03 01:55:31  5-MIN KMSN 290755Z 30008KT 10SM OVC018 M04/M08 A3009 710 74 -1400 300/08 RMK AO2
14837KMSN MSN20031129020009911/29/03 02:00:31  5-MIN KMSN 290800Z 30007KT 10SM BKN018 M04/M08 A3008 710 78 -1400 300/07 RMK AO2
14837KMSN MSN20031129020509911/29/03 02:05:31  5-MIN KMSN 290805Z 28007KT 10SM BKN018 M04/M08 A3008 710 78 -1400 280/07 RMK AO2
14837KMSN MSN20031129021009911/29/03 02:10:31  5-MIN KMSN 290810Z 28006KT 10SM BKN018 M04/M08 A3009 710 78 -1400 280/06 RMK AO2
14837KMSN MSN20031129021509911/29/03 02:15:31  5-MIN KMSN 290815Z 27006KT 10SM BKN018 M04/M08 A3009 710 78 -1400 270/06 RMK AO2
14837KMSN MSN20031129022009911/29/03 02:20:31  5-MIN KMSN 290820Z VRB05KT 10SM BKN018 M04/M08 A3009 700 78 -1400 VRB/05 RMK AO2
14837KMSN MSN20031129022509911/29/03 02:25:31  5-MIN KMSN 290825Z 29007KT 10SM BKN018 M04/M08 A3009 710 78 -1400 290/07 RMK AO2
14837KMSN MSN20031129023009911/29/03 02:30:31  5-MIN KMSN 290830Z 28008KT 10SM BKN018 M04/M08 A3009 700 78 -1400 280/08 RMK AO2
14837KMSN MSN20031129023509911/29/03 02:35:31  5-MIN KMSN 290835Z 27006KT 10SM BKN018 M04/M08 A3009 700 78 -1400 270/06 RMK AO2
14837KMSN MSN20031129024009911/29/03 02:40:31  5-MIN KMSN 290840Z VRB06KT 10SM OVC018 M04/M08 A3009 710 78 -1400 VRB/06 RMK AO2
14837KMSN MSN20031129024509911/29/03 02:45:31  5-MIN KMSN 290845Z 27006KT 10SM BKN018 M04/M08 A3009 710 78 -1400 260/06 RMK AO2
14837KMSN MSN20031129025012211/29/03 02:50:31  5-MIN KMSN 290850Z 27006KT 10SM BKN018 M05/M08 A3009 710 81 -1500 270/06 RMK AO2 SLP202 T10501078 53001
14837KMSN MSN20031129025509911/29/03 02:55:31  5-MIN KMSN 290855Z VRB05KT 10SM BKN018 M05/M08 A3009 710 81 -1500 VRB/05 RMK AO2
14837KMSN MSN20031129030009911/29/03 03:00:31  5-MIN KMSN 290900Z 29007KT 10SM SCT018 M05/M08 A3009 710 81 -1500 280/07 RMK AO2
14837KMSN MSN20031129030509911/29/03 03:05:31  5-MIN KMSN 290905Z 27005KT 10SM FEW018 M05/M08 A3008 710 81 -1500 270/05 RMK AO2
14837KMSN MSN20031129031009911/29/03 03:10:31  5-MIN KMSN 290910Z 28007KT 10SM FEW016 M05/M08 A3008 710 81 -1500 280/07 RMK AO2
14837KMSN MSN20031129031509911/29/03 03:15:31  5-MIN KMSN 290915Z 28006KT 10SM FEW016 M05/M08 A3008 710 81 -1500 280/06 RMK AO2
14837KMSN MSN20031129032009611/29/03 03:20:31  5-MIN KMSN 290920Z 27005KT 10SM CLR M05/M08 A3008 720 77 -1500 270/05 RMK AO2
14837KMSN MSN20031129032509611/29/03 03:25:31  5-MIN KMSN 290925Z VRB05KT 10SM CLR M05/M08 A3008 710 81 -1500 VRB/05 RMK AO2
14837KMSN MSN20031129033009611/29/03 03:30:31  5-MIN KMSN 290930Z 28005KT 10SM CLR M06/M08 A3008 720 84 -1600 280/05 RMK AO2
14837KMSN MSN20031129033509611/29/03 03:35:31  5-MIN KMSN 290935Z 28004KT 10SM CLR M06/M08 A3008 720 81 -1600 280/04 RMK AO2
14837KMSN MSN20031129034009611/29/03 03:40:31  5-MIN KMSN 290940Z 26005KT 10SM CLR M06/M08 A3007 720 84 -1600 260/05 RMK AO2
14837KMSN MSN20031129034509611/29/03 03:45:31  5-MIN KMSN 290945Z VRB04KT 10SM CLR M06/M08 A3007 730 84 -1500 VRB/04 RMK AO2
14837KMSN MSN20031129035011311/29/03 03:50:31  5-MIN KMSN 290950Z 27005KT 10SM CLR M06/M08 A3007 730 84 -1500 270/05 RMK AO2 SLP194 T10561078
14837KMSN MSN20031129035509611/29/03 03:55:31  5-MIN KMSN 290955Z 27005KT 10SM CLR M06/M08 A3007 730 81 -1500 270/05 RMK AO2
14837KMSN MSN20031129040009611/29/03 04:00:31  5-MIN KMSN 291000Z 26004KT 10SM CLR M06/M08 A3007 730 81 -1500 260/04 RMK AO2
14837KMSN MSN20031129040509611/29/03 04:05:31  5-MIN KMSN 291005Z 26003KT 10SM CLR M06/M08 A3007 730 84 -1500 260/03 RMK AO2
14837KMSN MSN20031129041009611/29/03 04:10:31  5-MIN KMSN 291010Z VRB03KT 10SM CLR M06/M08 A3007 730 84 -1500 VRB/03 RMK AO2
14837KMSN MSN20031129041509611/29/03 04:15:31  5-MIN KMSN 291015Z VRB03KT 10SM CLR M06/M08 A3007 730 81 -1500 VRB/03 RMK AO2
14837KMSN MSN20031129042009611/29/03 04:20:31  5-MIN KMSN 291020Z 26003KT 10SM CLR M06/M08 A3006 730 81 -1500 260/03 RMK AO2
14837KMSN MSN20031129042509611/29/03 04:25:31  5-MIN KMSN 291025Z 26005KT 10SM CLR M06/M08 A3006 730 81 -1500 260/05 RMK AO2
14837KMSN MSN20031129043009611/29/03 04:30:31  5-MIN KMSN 291030Z VRB05KT 10SM CLR M06/M08 A3006 740 81 -1500 VRB/05 RMK AO2
14837KMSN MSN20031129043509611/29/03 04:35:31  5-MIN KMSN 291035Z VRB04KT 10SM CLR M06/M08 A3006 740 81 -1500 VRB/04 RMK AO2
14837KMSN MSN20031129044009611/29/03 04:40:31  5-MIN KMSN 291040Z 00000KT 10SM CLR M06/M08 A3006 740 81 -1500 000/00 RMK AO2
14837KMSN MSN20031129044509611/29/03 04:45:31  5-MIN KMSN 291045Z VRB04KT 10SM CLR M06/M08 A3006 740 81 -1500 VRB/04 RMK AO2
14837KMSN MSN20031129045011311/29/03 04:50:31  5-MIN KMSN 291050Z VRB03KT 10SM CLR M06/M08 A3006 740 81 -1500 VRB/03 RMK AO2 SLP190 T10561083
14837KMSN MSN20031129045509611/29/03 04:55:31  5-MIN KMSN 291055Z VRB03KT 10SM CLR M06/M08 A3005 750 84 -1500 VRB/03 RMK AO2
14837KMSN MSN20031129050009611/29/03 05:00:31  5-MIN KMSN 291100Z VRB03KT 10SM CLR M06/M08 A3005 750 84 -1500 VRB/03 RMK AO2
14837KMSN MSN20031129050509611/29/03 05:05:31  5-MIN KMSN 291105Z 25003KT 10SM CLR M06/M08 A3005 750 81 -1500 250/03 RMK AO2
14837KMSN MSN20031129051009611/29/03 05:10:31  5-MIN KMSN 291110Z 00000KT 10SM CLR M06/M08 A3004 750 84 -1500 000/00 RMK AO2
14837KMSN MSN20031129051509611/29/03 05:15:31  5-MIN KMSN 291115Z VRB03KT 10SM CLR M06/M08 A3004 750 84 -1500 VRB/03 RMK AO2
14837KMSN MSN20031129052009611/29/03 05:20:31  5-MIN KMSN 291120Z VRB03KT 10SM CLR M06/M08 A3004 760 81 -1500 VRB/03 RMK AO2
14837KMSN MSN20031129052509611/29/03 05:25:31  5-MIN KMSN 291125Z 26004KT 10SM CLR M06/M08 A3004 750 81 -1500 260/04 RMK AO2
14837KMSN MSN20031129053009911/29/03 05:30:31  5-MIN KMSN 291130Z 27004KT 10SM FEW011 M06/M08 A3004 750 84 -1500 270/04 RMK AO2
14837KMSN MSN20031129053509911/29/03 05:35:31  5-MIN KMSN 291135Z 26004KT 10SM SCT011 M06/M08 A3004 750 81 -1500 260/04 RMK AO2
14837KMSN MSN20031129054009911/29/03 05:40:31  5-MIN KMSN 291140Z VRB03KT 10SM BKN011 M06/M08 A3004 750 84 -1500 VRB/03 RMK AO2
14837KMSN MSN20031129054509911/29/03 05:45:31  5-MIN KMSN 291145Z 00000KT 10SM BKN011 M06/M08 A3004 760 84 -1500 000/00 RMK AO2
14837KMSN MSN20031129055013411/29/03 05:50:31  5-MIN KMSN 291150Z 22003KT 10SM BKN011 M05/M08 A3004 760 81 -1400 220/03 RMK AO2 SLP183 T10501078 11033 21056 53004
14837KMSN MSN20031129055509911/29/03 05:55:31  5-MIN KMSN 291155Z 25003KT 10SM OVC011 M05/M08 A3004 760 81 -1400 250/03 RMK AO2
14837KMSN MSN20031129060009911/29/03 06:00:31  5-MIN KMSN 291200Z VRB03KT 10SM OVC011 M05/M07 A3004 750 84 -1400 VRB/03 RMK AO2
14837KMSN MSN20031129060509911/29/03 06:05:31  5-MIN KMSN 291205Z 25004KT 10SM OVC011 M05/M07 A3004 750 84 -1400 250/04 RMK AO2
14837KMSN MSN20031129061009911/29/03 06:10:31  5-MIN KMSN 291210Z 23005KT 10SM OVC011 M05/M07 A3004 760 84 -1400 230/05 RMK AO2
14837KMSN MSN20031129061509911/29/03 06:15:31  5-MIN KMSN 291215Z VRB05KT 10SM OVC011 M04/M07 A3004 760 81 -1400 VRB/05 RMK AO2
14837KMSN MSN20031129062011511/29/03 06:20:31  5-MIN KMSN 291220Z 23007KT 190V260 10SM OVC011 M04/M07 A3003 760 81 -1400 230/07 190V260 RMK AO2
14837KMSN MSN20031129062509911/29/03 06:25:31  5-MIN KMSN 291225Z 21005KT 10SM BKN011 M04/M07 A3003 760 84 -1400 210/05 RMK AO2
14837KMSN MSN20031129063009911/29/03 06:30:31  5-MIN KMSN 291230Z 21007KT 10SM BKN011 M04/M07 A3003 760 81 -1400 210/07 RMK AO2
14837KMSN MSN20031129063509911/29/03 06:35:31  5-MIN KMSN 291235Z 22005KT 10SM BKN011 M04/M07 A3003 770 81 -1400 220/05 RMK AO2
14837KMSN MSN20031129064009911/29/03 06:40:31  5-MIN KMSN 291240Z 21008KT 10SM BKN011 M04/M07 A3002 770 81 -1300 210/08 RMK AO2
14837KMSN MSN20031129064509911/29/03 06:45:31  5-MIN KMSN 291245Z 21005KT 10SM SCT011 M05/M07 A3002 770 84 -1400 210/05 RMK AO2
14837KMSN MSN20031129065011511/29/03 06:50:31  5-MIN KMSN 291250Z 21006KT 9SM BKN011 M05/M07 A3002 780 84 -1400 200/06 RMK AO2 SLP177 T10501072
14837KMSN MSN20031129065509911/29/03 06:55:31  5-MIN KMSN 291255Z 22006KT 10SM SCT011 M05/M07 A3002 780 84 -1400 220/06 RMK AO2
14837KMSN MSN20031129070009911/29/03 07:00:31  5-MIN KMSN 291300Z 21006KT 10SM SCT011 M05/M07 A3002 780 88 -1400 210/06 RMK AO2
14837KMSN MSN20031129070509811/29/03 07:05:31  5-MIN KMSN 291305Z 21005KT 9SM SCT011 M05/M08 A3001 780 81 -1400 210/05 RMK AO2
14837KMSN MSN20031129071009811/29/03 07:10:31  5-MIN KMSN 291310Z 21007KT 9SM SCT011 M05/M07 A3001 780 84 -1400 210/07 RMK AO2
14837KMSN MSN20031129071509811/29/03 07:15:31  5-MIN KMSN 291315Z VRB05KT 8SM SCT011 M05/M07 A3001 780 84 -1400 VRB/05 RMK AO2
14837KMSN MSN20031129072009811/29/03 07:20:31  5-MIN KMSN 291320Z 20006KT 8SM SCT011 M05/M07 A3000 790 84 -1400 200/06 RMK AO2
14837KMSN MSN20031129072509811/29/03 07:25:31  5-MIN KMSN 291325Z 21008KT 7SM SCT011 M05/M07 A3000 790 88 -1400 210/08 RMK AO2
14837KMSN MSN20031129073009811/29/03 07:30:31  5-MIN KMSN 291330Z 21006KT 7SM SCT011 M05/M07 A3000 790 84 -1400 210/06 RMK AO2
14837KMSN MSN20031129073509811/29/03 07:35:31  5-MIN KMSN 291335Z 21009KT 7SM SCT011 M05/M07 A3000 790 84 -1400 210/09 RMK AO2
14837KMSN MSN20031129074010111/29/03 07:40:31  5-MIN KMSN 291340Z 21006KT 6SM HZ SCT011 M04/M08 A2999 800 78 -1300 210/06 RMK AO2
14837KMSN MSN20031129074510111/29/03 07:45:31  5-MIN KMSN 291345Z 20006KT 6SM HZ SCT011 M04/M07 A2999 800 81 -1300 200/06 RMK AO2
14837KMSN MSN20031129075013411/29/03 07:50:31  5-MIN KMSN 291350Z 19008KT 170V240 6SM BR SCT011 M04/M07 A2999 800 84 -1300 190/08 170V240 RMK AO2 SLP168 T10441067
14837KMSN MSN20031129075509811/29/03 07:55:31  5-MIN KMSN 291355Z 19009KT 5SM HZ CLR M04/M07 A2999 800 81 -1300 190/09 RMK AO2
14837KMSN MSN20031129080010111/29/03 08:00:31  5-MIN KMSN 291400Z 20009KT 6SM HZ SCT011 M04/M07 A2999 800 81 -1300 200/09 RMK AO2
14837KMSN MSN20031129080510111/29/03 08:05:31  5-MIN KMSN 291405Z 19008KT 6SM HZ SCT011 M04/M07 A2999 800 81 -1300 190/08 RMK AO2
14837KMSN MSN20031129081010111/29/03 08:10:31  5-MIN KMSN 291410Z 20007KT 6SM HZ SCT011 M04/M07 A3000 790 81 -1300 200/07 RMK AO2
14837KMSN MSN20031129081510111/29/03 08:15:31  5-MIN KMSN 291415Z 21009KT 6SM HZ FEW011 M04/M07 A3000 790 81 -1300 210/09 RMK AO2
14837KMSN MSN20031129082011711/29/03 08:20:31  5-MIN KMSN 291420Z 20007KT 180V240 6SM BR FEW011 M04/M07 A3000 790 84 -1300 200/07 180V240 RMK AO2
14837KMSN MSN20031129082510111/29/03 08:25:31  5-MIN KMSN 291425Z 20009KT 6SM BR SCT011 M04/M07 A2999 800 84 -1300 200/09 RMK AO2
14837KMSN MSN20031129083010111/29/03 08:30:31  5-MIN KMSN 291430Z 21010KT 6SM HZ SCT011 M04/M07 A3000 790 81 -1300 210/10 RMK AO2
14837KMSN MSN20031129083510111/29/03 08:35:31  5-MIN KMSN 291435Z 21010KT 6SM HZ SCT011 M04/M07 A3000 800 81 -1300 210/10 RMK AO2
14837KMSN MSN20031129084010711/29/03 08:40:31  5-MIN KMSN 291440Z 21010G16KT 6SM HZ SCT011 M04/M07 A2999 800 81 -1300 210/10G16 RMK AO2
14837KMSN MSN20031129084510111/29/03 08:45:31  5-MIN KMSN 291445Z 21009KT 6SM HZ SCT011 M04/M08 A2999 800 78 -1300 210/09 RMK AO2
14837KMSN MSN20031129085013111/29/03 08:50:31  5-MIN KMSN 291450Z 20008KT 6SM HZ SCT011 BKN110 M04/M07 A2999 800 81 -1300 200/08 RMK AO2 SLP167 T10441072 56018
14837KMSN MSN20031129085510111/29/03 08:55:31  5-MIN KMSN 291455Z 20008KT 5SM HZ BKN110 M04/M07 A2998 810 81 -1300 200/08 RMK AO2
14837KMSN MSN20031129090010111/29/03 09:00:31  5-MIN KMSN 291500Z 19008KT 5SM HZ BKN110 M04/M07 A2998 810 81 -1300 180/08 RMK AO2
14837KMSN MSN20031129090510811/29/03 09:05:31  5-MIN KMSN 291505Z 18009KT 5SM HZ FEW011 BKN110 M04/M07 A2997 820 81 -1300 180/09 RMK AO2
14837KMSN MSN20031129091010811/29/03 09:10:31  5-MIN KMSN 291510Z 18008KT 5SM HZ FEW011 BKN110 M04/M07 A2997 820 81 -1300 180/08 RMK AO2
14837KMSN MSN20031129091510811/29/03 09:15:31  5-MIN KMSN 291515Z 18008KT 5SM HZ FEW011 BKN110 M04/M07 A2997 820 81 -1300 180/08 RMK AO2
14837KMSN MSN20031129092010811/29/03 09:20:31  5-MIN KMSN 291520Z 19008KT 5SM HZ FEW011 BKN110 M04/M07 A2997 820 78 -1200 180/08 RMK AO2
14837KMSN MSN20031129092510811/29/03 09:25:31  5-MIN KMSN 291525Z 19009KT 5SM HZ FEW011 BKN110 M04/M07 A2997 820 81 -1200 190/09 RMK AO2
14837KMSN MSN20031129093010811/29/03 09:30:31  5-MIN KMSN 291530Z 21007KT 5SM HZ FEW011 BKN110 M04/M07 A2997 820 81 -1200 210/07 RMK AO2
14837KMSN MSN20031129093510811/29/03 09:35:31  5-MIN KMSN 291535Z 20009KT 5SM HZ FEW011 BKN110 M04/M07 A2997 810 78 -1200 200/09 RMK AO2
14837KMSN MSN20031129094011411/29/03 09:40:31  5-MIN KMSN 291540Z 20010G15KT 5SM HZ FEW011 BKN110 M04/M07 A2997 820 78 -1200 200/10G15 RMK AO2
14837KMSN MSN20031129094511411/29/03 09:45:31  5-MIN KMSN 291545Z 20009G16KT 5SM HZ FEW011 BKN110 M04/M07 A2997 820 78 -1200 200/09G16 RMK AO2
14837KMSN MSN20031129095013111/29/03 09:50:31  5-MIN KMSN 291550Z 19011G16KT 5SM HZ FEW011 BKN110 M04/M07 A2997 820 81 -1200 190/11G16 RMK AO2 SLP162 T10391067
14837KMSN MSN20031129095510111/29/03 09:55:31  5-MIN KMSN 291555Z 20010KT 5SM HZ BKN120 M03/M07 A2997 820 74 -1100 190/10 RMK AO2
14837KMSN MSN20031129100010111/29/03 10:00:31  5-MIN KMSN 291600Z 20008KT 6SM HZ OVC110 M03/M08 A2996 820 71 -1100 200/08 RMK AO2
14837KMSN MSN20031129100510111/29/03 10:05:31  5-MIN KMSN 291605Z 21010KT 5SM HZ BKN110 M03/M07 A2996 830 71 -1100 210/10 RMK AO2
14837KMSN MSN20031129101010111/29/03 10:10:31  5-MIN KMSN 291610Z 20009KT 5SM HZ BKN110 M03/M07 A2996 830 71 -1100 200/09 RMK AO2
14837KMSN MSN20031129101510111/29/03 10:15:31  5-MIN KMSN 291615Z 20011KT 5SM HZ SCT110 M03/M07 A2996 830 71 -1100 200/11 RMK AO2
14837KMSN MSN20031129102010111/29/03 10:20:31  5-MIN KMSN 291620Z 20010KT 6SM HZ SCT110 M03/M08 A2995 840 68 -1100 200/10 RMK AO2
14837KMSN MSN20031129102510111/29/03 10:25:31  5-MIN KMSN 291625Z 20009KT 6SM HZ FEW110 M03/M08 A2994 840 68 -1000 200/09 RMK AO2
14837KMSN MSN20031129103010111/29/03 10:30:31  5-MIN KMSN 291630Z 19007G15KT 7SM CLR M03/M08 A2994 840 68 -1000 190/07G15 RMK AO2
14837KMSN MSN20031129103509511/29/03 10:35:31  5-MIN KMSN 291635Z 19010KT 7SM CLR M03/M07 A2994 840 71 -1000 190/10 RMK AO2
14837KMSN MSN20031129104009811/29/03 10:40:31  5-MIN KMSN 291640Z 19010KT 8SM FEW120 M02/M08 A2994 850 66 -1000 190/10 RMK AO2
14837KMSN MSN20031129104509811/29/03 10:45:31  5-MIN KMSN 291645Z 19012KT 9SM FEW120 M02/M08 A2993 850 66 -1000 190/12 RMK AO2
14837KMSN MSN20031129105012111/29/03 10:50:31  5-MIN KMSN 291650Z 20009G17KT 10SM FEW120 M02/M08 A2993 860 63 -900 200/09G17 RMK AO2 SLP146 T10171078
14837KMSN MSN20031129105510211/29/03 10:55:31  5-MIN KMSN 291655Z 19013G18KT 10SM CLR M02/M08 A2992 860 66 -1000 190/13G18 RMK AO2
14837KMSN MSN20031129110009811/29/03 11:00:31  5-MIN KMSN 291700Z 19012KT 10SM FEW120 M02/M08 A2992 860 63 -900 190/12 RMK AO2
14837KMSN MSN20031129110509911/29/03 11:05:31  5-MIN KMSN 291705Z 19012KT 10SM FEW120 M02/M08 A2992 860 63 -1000 190/12 RMK AO2
14837KMSN MSN20031129111009811/29/03 11:10:31  5-MIN KMSN 291710Z 19011KT 10SM FEW120 M02/M08 A2992 870 63 -900 190/11 RMK AO2
14837KMSN MSN20031129111511411/29/03 11:15:31  5-MIN KMSN 291715Z 20011KT 170V230 10SM FEW120 M02/M08 A2992 870 63 -900 200/11 170V230 RMK AO2
14837KMSN MSN20031129112009811/29/03 11:20:31  5-MIN KMSN 291720Z 20010KT 10SM FEW120 M02/M08 A2991 870 63 -900 200/10 RMK AO2
14837KMSN MSN20031129112509811/29/03 11:25:31  5-MIN KMSN 291725Z 20012KT 10SM FEW120 M02/M09 A2990 880 58 -900 200/12 RMK AO2
14837KMSN MSN20031129113010511/29/03 11:30:31  5-MIN KMSN 291730Z 19012KT 10SM FEW120 M02/M08 A2990 890 60 -900 190/12 RMK AO2 PRESFR
14837KMSN MSN20031129113509811/29/03 11:35:31  5-MIN KMSN 291735Z 19013KT 10SM FEW120 M02/M08 A2989 890 60 -800 190/13 RMK AO2
14837KMSN MSN20031129114009811/29/03 11:40:31  5-MIN KMSN 291740Z 20012KT 10SM FEW120 M02/M09 A2989 890 58 -800 200/12 RMK AO2
14837KMSN MSN20031129114509811/29/03 11:45:31  5-MIN KMSN 291745Z 19012KT 10SM FEW120 M02/M09 A2989 900 58 -800 190/12 RMK AO2
14837KMSN MSN20031129115013611/29/03 11:50:31  5-MIN KMSN 291750Z 19014G18KT 10SM CLR M01/M08 A2988 900 58 -800 190/14G18 RMK AO2 SLP128 T10111083 11011 21050 56018
14837KMSN MSN20031129115510811/29/03 11:55:31  5-MIN KMSN 291755Z 19012G20KT 10SM CLR M02/M09 A2987 910 55 -800 190/12G20 RMK AO2 PRESFR
14837KMSN MSN20031129120010811/29/03 12:00:31  5-MIN KMSN 291800Z 18015G20KT 10SM CLR M01/M09 A2986 920 55 -700 180/15G20 RMK AO2 PRESFR
14837KMSN MSN20031129120510811/29/03 12:05:31  5-MIN KMSN 291805Z 19014G18KT 10SM CLR M01/M09 A2985 930 53 -700 190/14G18 RMK AO2 PRESFR
14837KMSN MSN20031129121009511/29/03 12:10:31  5-MIN KMSN 291810Z 19013KT 10SM CLR M01/M09 A2985 930 53 -700 190/13 RMK AO2
14837KMSN MSN20031129121509811/29/03 12:15:31  5-MIN KMSN 291815Z 19014KT 10SM FEW120 M01/M09 A2985 930 55 -700 190/14 RMK AO2
14837KMSN MSN20031129122010411/29/03 12:20:31  5-MIN KMSN 291820Z 19016G20KT 10SM FEW120 M01/M09 A2984 940 53 -700 190/16G20 RMK AO2
14837KMSN MSN20031129122510411/29/03 12:25:31  5-MIN KMSN 291825Z 19015G20KT 10SM FEW120 M01/M09 A2984 940 53 -700 190/15G20 RMK AO2
14837KMSN MSN20031129123010411/29/03 12:30:31  5-MIN KMSN 291830Z 20011G20KT 10SM FEW120 M01/M09 A2983 950 51 -600 190/11G20 RMK AO2
14837KMSN MSN20031129123510411/29/03 12:35:31  5-MIN KMSN 291835Z 19014G19KT 10SM SCT120 M01/M09 A2983 950 53 -600 190/14G19 RMK AO2
14837KMSN MSN20031129124011111/29/03 12:40:31  5-MIN KMSN 291840Z 19010G19KT 10SM SCT120 M01/M09 A2982 960 51 -600 190/10G19 RMK AO2 PRESFR
14837KMSN MSN20031129124510511/29/03 12:45:31  5-MIN KMSN 291845Z 19012KT 10SM SCT120 M01/M09 A2981 970 53 -600 180/12 RMK AO2 PRESFR
14837KMSN MSN20031129125012811/29/03 12:50:31  5-MIN KMSN 291850Z 19014G18KT 10SM BKN120 M01/M09 A2980 970 51 -600 190/14G18 RMK AO2 PRESFR SLP102 T10061094
14837KMSN MSN20031129125510511/29/03 12:55:31  5-MIN KMSN 291855Z 18015KT 10SM BKN120 M01/M09 A2979 980 53 -600 180/15 RMK AO2 PRESFR
14837KMSN MSN20031129130010511/29/03 13:00:31  5-MIN KMSN 291900Z 19014KT 10SM BKN110 M01/M09 A2979 990 51 -600 190/14 RMK AO2 PRESFR
14837KMSN MSN20031129130511211/29/03 13:05:31  5-MIN KMSN 291905Z 19012G18KT 10SM BKN110 M01/M09 A2978 1000 53 -600 190/12G18 RMK AO2 PRESFR
14837KMSN MSN20031129131011211/29/03 13:10:31  5-MIN KMSN 291910Z 19016G21KT 10SM BKN110 M01/M09 A2977 1010 53 -600 190/16G21 RMK AO2 PRESFR
14837KMSN MSN20031129131510511/29/03 13:15:31  5-MIN KMSN 291915Z 19012G21KT 10SM SCT110 M01/M09 A2976 1010 51 -600 190/12G21 RMK AO2
14837KMSN MSN20031129132009811/29/03 13:20:31  5-MIN KMSN 291920Z 19014KT 10SM SCT110 00/M09 A2976 1010 51 -500 190/14 RMK AO2
14837KMSN MSN20031129132509811/29/03 13:25:31  5-MIN KMSN 291925Z 18014KT 10SM FEW110 00/M09 A2975 1020 51 -500 180/14 RMK AO2
14837KMSN MSN20031129133010411/29/03 13:30:31  5-MIN KMSN 291930Z 19018G22KT 10SM FEW120 00/M09 A2975 1020 51 -500 190/18G22 RMK AO2
14837KMSN MSN20031129133510811/29/03 13:35:31  5-MIN KMSN 291935Z 19013G22KT 10SM CLR 00/M09 A2974 1030 49 -500 190/13G22 RMK AO2 PRESFR
14837KMSN MSN20031129134010511/29/03 13:40:31  5-MIN KMSN 291940Z 19015KT 10SM SCT120 00/M09 A2973 1040 49 -400 180/15 RMK AO2 PRESFR
14837KMSN MSN20031129134510511/29/03 13:45:31  5-MIN KMSN 291945Z 19014KT 10SM SCT120 00/M09 A2972 1050 51 -400 190/14 RMK AO2 PRESFR
14837KMSN MSN20031129135011511/29/03 13:50:31  5-MIN KMSN 291950Z 19015KT 10SM SCT120 00/M09 A2972 1050 49 -400 190/15 RMK AO2 SLP076 T00001094
14837KMSN MSN20031129135509811/29/03 13:55:31  5-MIN KMSN 291955Z 18014KT 10SM FEW120 00/M09 A2972 1050 49 -400 180/14 RMK AO2
14837KMSN MSN20031129140010411/29/03 14:00:31  5-MIN KMSN 292000Z 19014G20KT 10SM FEW120 00/M09 A2972 1050 51 -400 190/14G20 RMK AO2
14837KMSN MSN20031129140510411/29/03 14:05:31  5-MIN KMSN 292005Z 19015G22KT 10SM FEW120 00/M09 A2971 1060 51 -400 190/15G22 RMK AO2
14837KMSN MSN20031129141010411/29/03 14:10:31  5-MIN KMSN 292010Z 19014G22KT 10SM FEW120 00/M09 A2971 1060 51 -400 190/14G22 RMK AO2
14837KMSN MSN20031129141510111/29/03 14:15:31  5-MIN KMSN 292015Z 20012G21KT 10SM CLR 00/M09 A2971 1060 51 -400 200/12G21 RMK AO2
14837KMSN MSN20031129142010411/29/03 14:20:31  5-MIN KMSN 292020Z 19011G21KT 10SM FEW120 00/M09 A2971 1060 51 -400 190/11G21 RMK AO2
14837KMSN MSN20031129142509811/29/03 14:25:31  5-MIN KMSN 292025Z 20010KT 10SM FEW120 01/M08 A2971 1060 51 -400 200/10 RMK AO2
14837KMSN MSN20031129143010411/29/03 14:30:31  5-MIN KMSN 292030Z 19014G19KT 10SM SCT120 01/M08 A2971 1060 51 -400 190/14G19 RMK AO2
14837KMSN MSN20031129143510411/29/03 14:35:31  5-MIN KMSN 292035Z 19013G19KT 10SM FEW120 01/M08 A2970 1070 51 -300 190/13G19 RMK AO2
14837KMSN MSN20031129144010411/29/03 14:40:31  5-MIN KMSN 292040Z 20012G19KT 10SM FEW120 01/M09 A2970 1070 49 -300 200/12G19 RMK AO2
14837KMSN MSN20031129144510411/29/03 14:45:31  5-MIN KMSN 292045Z 19013G19KT 10SM FEW120 01/M08 A2970 1060 51 -300 190/13G19 RMK AO2
14837KMSN MSN20031129145012711/29/03 14:50:31  5-MIN KMSN 292050Z 20014G19KT 10SM SCT120 01/M08 A2970 1070 51 -300 200/14G19 RMK AO2 SLP068 T00061083 58037
14837KMSN MSN20031129145510411/29/03 14:55:31  5-MIN KMSN 292055Z 19014G20KT 10SM FEW120 01/M08 A2970 1070 51 -300 190/14G20 RMK AO2
14837KMSN MSN20031129150010411/29/03 15:00:31  5-MIN KMSN 292100Z 20013G20KT 10SM FEW120 01/M08 A2969 1070 51 -300 200/13G20 RMK AO2
14837KMSN MSN20031129150509811/29/03 15:05:31  5-MIN KMSN 292105Z 20014KT 10SM FEW120 01/M08 A2969 1080 51 -300 200/14 RMK AO2
14837KMSN MSN20031129151010411/29/03 15:10:31  5-MIN KMSN 292110Z 20012G19KT 10SM FEW110 01/M08 A2969 1080 49 -300 190/12G19 RMK AO2
14837KMSN MSN20031129151510411/29/03 15:15:31  5-MIN KMSN 292115Z 20014G19KT 10SM FEW100 01/M08 A2969 1080 49 -300 200/14G19 RMK AO2
14837KMSN MSN20031129152010411/29/03 15:20:31  5-MIN KMSN 292120Z 19012G19KT 10SM FEW095 01/M08 A2969 1080 49 -300 190/12G19 RMK AO2
14837KMSN MSN20031129152510411/29/03 15:25:31  5-MIN KMSN 292125Z 20012G19KT 10SM FEW100 01/M08 A2969 1080 51 -300 200/12G19 RMK AO2
14837KMSN MSN20031129153010411/29/03 15:30:31  5-MIN KMSN 292130Z 19010G19KT 10SM FEW100 01/M08 A2969 1080 51 -300 190/10G19 RMK AO2
14837KMSN MSN20031129153510411/29/03 15:35:31  5-MIN KMSN 292135Z 20011G19KT 10SM FEW100 01/M08 A2969 1070 51 -300 200/11G19 RMK AO2
14837KMSN MSN20031129154010111/29/03 15:40:31  5-MIN KMSN 292140Z 19011G16KT 10SM CLR 01/M08 A2969 1080 51 -300 190/11G16 RMK AO2
14837KMSN MSN20031129154510111/29/03 15:45:31  5-MIN KMSN 292145Z 20011G16KT 10SM CLR 02/M08 A2969 1080 49 -200 200/11G16 RMK AO2
14837KMSN MSN20031129155011811/29/03 15:50:31  5-MIN KMSN 292150Z 19008G16KT 10SM CLR 02/M08 A2969 1080 49 -200 190/08G16 RMK AO2 SLP064 T00171078
14837KMSN MSN20031129155509511/29/03 15:55:31  5-MIN KMSN 292155Z 20010KT 10SM CLR 02/M07 A2969 1080 52 -200 200/10 RMK AO2
14837KMSN MSN20031129160010411/29/03 16:00:31  5-MIN KMSN 292200Z 20013G18KT 10SM FEW120 02/M08 A2969 1080 49 -200 200/13G18 RMK AO2
14837KMSN MSN20031129160510411/29/03 16:05:31  5-MIN KMSN 292205Z 19011G18KT 10SM SCT120 02/M07 A2968 1090 52 -200 190/11G18 RMK AO2
14837KMSN MSN20031129161010411/29/03 16:10:31  5-MIN KMSN 292210Z 20010G16KT 10SM FEW120 02/M07 A2968 1080 52 -200 200/10G16 RMK AO2
14837KMSN MSN20031129161510411/29/03 16:15:31  5-MIN KMSN 292215Z 20013G18KT 10SM SCT120 02/M08 A2968 1080 47 -100 200/13G18 RMK AO2
14837KMSN MSN20031129162010411/29/03 16:20:31  5-MIN KMSN 292220Z 20010G18KT 10SM SCT120 02/M07 A2968 1080 50 -100 200/10G18 RMK AO2
14837KMSN MSN20031129162509811/29/03 16:25:31  5-MIN KMSN 292225Z 20010KT 10SM SCT120 02/M07 A2968 1080 50 -100 200/10 RMK AO2
14837KMSN MSN20031129163009811/29/03 16:30:31  5-MIN KMSN 292230Z 21010KT 10SM SCT120 02/M07 A2969 1080 50 -100 210/10 RMK AO2
14837KMSN MSN20031129163510411/29/03 16:35:31  5-MIN KMSN 292235Z 20011G15KT 10SM BKN120 02/M07 A2968 1090 50 -100 200/11G15 RMK AO2
14837KMSN MSN20031129164010411/29/03 16:40:31  5-MIN KMSN 292240Z 22011G18KT 10SM BKN120 03/M07 A2969 1080 48 -100 210/11G18 RMK AO2
14837KMSN MSN20031129164510411/29/03 16:45:31  5-MIN KMSN 292245Z 20011G18KT 10SM BKN120 03/M07 A2969 1080 48 -100 200/11G18 RMK AO2
14837KMSN MSN20031129165012111/29/03 16:50:31  5-MIN KMSN 292250Z 22007G15KT 10SM BKN110 03/M07 A2969 1080 48 -100 210/07G15 RMK AO2 SLP063 T00281072
14837KMSN MSN20031129165509511/29/03 16:55:31  5-MIN KMSN 292255Z 21010KT 10SM OVC110 03/M07 A2968 1080 48 0 210/10 RMK AO2
14837KMSN MSN20031129170010111/29/03 17:00:31  5-MIN KMSN 292300Z 21010G17KT 10SM BKN110 03/M07 A2968 1090 48 0 210/10G17 RMK AO2
14837KMSN MSN20031129170510111/29/03 17:05:31  5-MIN KMSN 292305Z 21012G17KT 10SM BKN110 03/M07 A2968 1090 48 0 210/12G17 RMK AO2
14837KMSN MSN20031129171012411/29/03 17:10:31  5-MIN KMSN 292310Z 21008G16KT 170V230 10SM SCT100 BKN110 03/M07 A2968 1090 48 0 210/08G16 170V230 RMK AO2
14837KMSN MSN20031129171510811/29/03 17:15:31  5-MIN KMSN 292315Z 21009G16KT 10SM FEW095 BKN110 03/M07 A2968 1090 48 0 210/09G16 RMK AO2
14837KMSN MSN20031129172010111/29/03 17:20:31  5-MIN KMSN 292320Z 22009G17KT 10SM BKN110 03/M07 A2968 1080 48 0 220/09G17 RMK AO2
14837KMSN MSN20031129172510411/29/03 17:25:31  5-MIN KMSN 292325Z 22009G17KT 10SM BKN110 03/M07 A2969 1080 48 -100 220/09G17 RMK AO2
14837KMSN MSN20031129173009811/29/03 17:30:31  5-MIN KMSN 292330Z 21008KT 10SM BKN110 03/M07 A2969 1080 48 -100 210/08 RMK AO2
14837KMSN MSN20031129173509811/29/03 17:35:31  5-MIN KMSN 292335Z 21006KT 10SM OVC110 03/M07 A2969 1080 48 -100 210/06 RMK AO2
14837KMSN MSN20031129174009511/29/03 17:40:31  5-MIN KMSN 292340Z 21008KT 10SM BKN110 03/M07 A2970 1070 46 0 210/08 RMK AO2
14837KMSN MSN20031129174510111/29/03 17:45:31  5-MIN KMSN 292345Z 22010G15KT 10SM BKN110 03/M07 A2970 1070 46 0 220/10G15 RMK AO2
14837KMSN MSN20031129175013611/29/03 17:50:31  5-MIN KMSN 292350Z 22007G15KT 10SM SCT110 03/M07 A2970 1070 48 0 220/07G15 RMK AO2 SLP068 T00331067 10033 21017 56056
14837KMSN MSN20031129175510111/29/03 17:55:31  5-MIN KMSN 292355Z 22010G15KT 10SM SCT110 03/M07 A2970 1070 46 0 220/10G15 RMK AO2
14837KMSN MSN20031129180010111/29/03 18:00:31  5-MIN KMSN 300000Z 22009G15KT 10SM FEW120 03/M07 A2969 1070 46 0 220/09G15 RMK AO2
14837KMSN MSN20031129180509811/29/03 18:05:31  5-MIN KMSN 300005Z 22007G15KT 10SM CLR 03/M07 A2969 1070 46 0 210/07G15 RMK AO2
14837KMSN MSN20031129181009211/29/03 18:10:31  5-MIN KMSN 300010Z 22008KT 10SM CLR 03/M07 A2970 1070 46 0 210/08 RMK AO2
14837KMSN MSN20031129181509511/29/03 18:15:31  5-MIN KMSN 300015Z 22008KT 10SM CLR 03/M07 A2970 1070 48 -100 220/08 RMK AO2
14837KMSN MSN20031129182009811/29/03 18:20:31  5-MIN KMSN 300020Z 22008G14KT 10SM CLR 03/M07 A2970 1070 46 0 220/08G14 RMK AO2
14837KMSN MSN20031129182509211/29/03 18:25:31  5-MIN KMSN 300025Z 22008KT 10SM CLR 03/M07 A2970 1070 46 0 220/08 RMK AO2
14837KMSN MSN20031129183010811/29/03 18:30:31  5-MIN KMSN 300030Z 22007KT 180V250 10SM CLR 03/M07 A2970 1070 46 0 220/07 180V250 RMK AO2
14837KMSN MSN20031129183509211/29/03 18:35:31  5-MIN KMSN 300035Z 22009KT 10SM CLR 03/M07 A2970 1070 48 0 220/09 RMK AO2
14837KMSN MSN20031129184009211/29/03 18:40:31  5-MIN KMSN 300040Z 22008KT 10SM CLR 03/M07 A2970 1060 48 0 220/08 RMK AO2
14837KMSN MSN20031129184509211/29/03 18:45:31  5-MIN KMSN 300045Z VRB06KT 10SM CLR 03/M07 A2971 1060 48 0 VRB/06 RMK AO2
14837KMSN MSN20031129185011211/29/03 18:50:31  5-MIN KMSN 300050Z 21008KT 10SM CLR 03/M07 A2970 1070 50 -100 210/08 RMK AO2 SLP066 T00281067
14837KMSN MSN20031129185509211/29/03 18:55:31  5-MIN KMSN 300055Z 21010KT 10SM CLR 03/M07 A2969 1080 46 0 210/10 RMK AO2
14837KMSN MSN20031129190009211/29/03 19:00:31  5-MIN KMSN 300100Z 21011KT 10SM CLR 03/M07 A2968 1080 46 0 210/11 RMK AO2
14837KMSN MSN20031129190509811/29/03 19:05:31  5-MIN KMSN 300105Z 21009G15KT 10SM CLR 03/M07 A2968 1080 48 0 210/09G15 RMK AO2
14837KMSN MSN20031129191009211/29/03 19:10:31  5-MIN KMSN 300110Z 21008KT 10SM CLR 03/M07 A2969 1080 48 0 210/08 RMK AO2
14837KMSN MSN20031129191509211/29/03 19:15:31  5-MIN KMSN 300115Z 22009KT 10SM CLR 03/M07 A2969 1080 48 0 210/09 RMK AO2
14837KMSN MSN20031129192009211/29/03 19:20:31  5-MIN KMSN 300120Z 21010KT 10SM CLR 03/M07 A2968 1080 48 0 210/10 RMK AO2
14837KMSN MSN20031129192509211/29/03 19:25:31  5-MIN KMSN 300125Z 21009KT 10SM CLR 03/M07 A2968 1090 48 0 200/09 RMK AO2
14837KMSN MSN20031129193009211/29/03 19:30:31  5-MIN KMSN 300130Z 21011KT 10SM CLR 03/M06 A2969 1080 50 0 210/11 RMK AO2
14837KMSN MSN20031129193509211/29/03 19:35:31  5-MIN KMSN 300135Z 21010KT 10SM CLR 03/M06 A2969 1080 50 0 210/10 RMK AO2
14837KMSN MSN20031129194009811/29/03 19:40:31  5-MIN KMSN 300140Z 21010G17KT 10SM CLR 03/M06 A2968 1080 50 0 210/10G17 RMK AO2
14837KMSN MSN20031129194509811/29/03 19:45:31  5-MIN KMSN 300145Z 22012G17KT 10SM CLR 03/M06 A2968 1090 50 0 220/12G17 RMK AO2
14837KMSN MSN20031129195011511/29/03 19:50:31  5-MIN KMSN 300150Z 22012G16KT 10SM CLR 03/M06 A2968 1090 50 0 220/12G16 RMK AO2 SLP059 T00331061
14837KMSN MSN20031129195509811/29/03 19:55:31  5-MIN KMSN 300155Z 22009G16KT 10SM CLR 03/M06 A2968 1090 50 0 220/09G16 RMK AO2
14837KMSN MSN20031129200009811/29/03 20:00:31  5-MIN KMSN 300200Z 22009G16KT 10SM CLR 03/M06 A2968 1090 50 0 220/09G16 RMK AO2
14837KMSN MSN20031129200509811/29/03 20:05:31  5-MIN KMSN 300205Z 21008G16KT 10SM CLR 04/M06 A2968 1090 48 0 210/08G16 RMK AO2
14837KMSN MSN20031129201009211/29/03 20:10:31  5-MIN KMSN 300210Z 22009KT 10SM CLR 04/M06 A2968 1090 48 0 210/09 RMK AO2
14837KMSN MSN20031129201509211/29/03 20:15:31  5-MIN KMSN 300215Z 21008KT 10SM CLR 04/M06 A2968 1090 48 0 210/08 RMK AO2
14837KMSN MSN20031129202009211/29/03 20:20:31  5-MIN KMSN 300220Z 22010KT 10SM CLR 04/M06 A2968 1090 48 0 220/10 RMK AO2
14837KMSN MSN20031129202509211/29/03 20:25:31  5-MIN KMSN 300225Z 22011KT 10SM CLR 04/M06 A2968 1090 48 0 210/11 RMK AO2
14837KMSN MSN20031129203009211/29/03 20:30:31  5-MIN KMSN 300230Z 21008KT 10SM CLR 04/M06 A2968 1090 48 0 210/08 RMK AO2
14837KMSN MSN20031129203510011/29/03 20:35:31  5-MIN KMSN 300235Z 22011G16KT 10SM CLR 04/M06 A2967 1090 50 100 210/11G16 RMK AO2
14837KMSN MSN20031129204011611/29/03 20:40:31  5-MIN KMSN 300240Z 21009G16KT 190V250 10SM CLR 04/M06 A2967 1100 50 100 210/09G16 190V250 RMK AO2
14837KMSN MSN20031129204509411/29/03 20:45:31  5-MIN KMSN 300245Z 22010KT 10SM CLR 04/M06 A2967 1090 50 100 220/10 RMK AO2
14837KMSN MSN20031129205011711/29/03 20:50:31  5-MIN KMSN 300250Z 22009KT 10SM CLR 04/M06 A2967 1090 50 100 220/09 RMK AO2 SLP057 T00391056 53000
14837KMSN MSN20031129205509411/29/03 20:55:31  5-MIN KMSN 300255Z 22009KT 10SM CLR 04/M06 A2967 1100 50 100 220/09 RMK AO2
14837KMSN MSN20031129210009211/29/03 21:00:31  5-MIN KMSN 300300Z 22009KT 10SM CLR 03/M06 A2967 1100 52 0 220/09 RMK AO2
14837KMSN MSN20031129210510011/29/03 21:05:31  5-MIN KMSN 300305Z 22009G15KT 10SM CLR 04/M06 A2967 1100 50 100 220/09G15 RMK AO2
14837KMSN MSN20031129211009411/29/03 21:10:31  5-MIN KMSN 300310Z 22009KT 10SM CLR 04/M05 A2967 1100 52 100 220/09 RMK AO2
14837KMSN MSN20031129211509411/29/03 21:15:31  5-MIN KMSN 300315Z 22007KT 10SM CLR 04/M05 A2967 1100 52 100 220/07 RMK AO2
14837KMSN MSN20031129212009411/29/03 21:20:31  5-MIN KMSN 300320Z 22008KT 10SM CLR 04/M05 A2967 1100 52 100 220/08 RMK AO2
14837KMSN MSN20031129212509211/29/03 21:25:31  5-MIN KMSN 300325Z 22008KT 10SM CLR 03/M05 A2967 1100 54 0 220/08 RMK AO2
14837KMSN MSN20031129213009211/29/03 21:30:31  5-MIN KMSN 300330Z 22007KT 10SM CLR 03/M05 A2967 1100 54 0 220/07 RMK AO2
14837KMSN MSN20031129213509211/29/03 21:35:31  5-MIN KMSN 300335Z 22008KT 10SM CLR 03/M05 A2967 1100 54 0 220/08 RMK AO2
14837KMSN MSN20031129214009211/29/03 21:40:31  5-MIN KMSN 300340Z 22009KT 10SM CLR 03/M05 A2967 1100 54 0 220/09 RMK AO2
14837KMSN MSN20031129214509211/29/03 21:45:31  5-MIN KMSN 300345Z 22008KT 10SM CLR 03/M05 A2967 1100 54 0 220/08 RMK AO2
14837KMSN MSN20031129215010911/29/03 21:50:31  5-MIN KMSN 300350Z 22007KT 10SM CLR 03/M04 A2967 1100 57 0 220/07 RMK AO2 SLP055 T00331044
14837KMSN MSN20031129215509211/29/03 21:55:31  5-MIN KMSN 300355Z 22007KT 10SM CLR 03/M04 A2967 1100 57 0 220/07 RMK AO2
14837KMSN MSN20031129220009211/29/03 22:00:31  5-MIN KMSN 300400Z 22008KT 10SM CLR 03/M04 A2967 1100 57 0 220/08 RMK AO2
14837KMSN MSN20031129220510811/29/03 22:05:31  5-MIN KMSN 300405Z 23009KT 200V260 10SM CLR 03/M05 A2967 1100 54 0 230/09 200V260 RMK AO2
14837KMSN MSN20031129221009211/29/03 22:10:31  5-MIN KMSN 300410Z 23007KT 10SM CLR 03/M05 A2967 1100 54 0 230/07 RMK AO2
14837KMSN MSN20031129221509211/29/03 22:15:31  5-MIN KMSN 300415Z 22007KT 10SM CLR 03/M05 A2967 1100 54 0 220/07 RMK AO2
14837KMSN MSN20031129222009211/29/03 22:20:31  5-MIN KMSN 300420Z VRB06KT 10SM CLR 03/M04 A2967 1090 57 0 VRB/06 RMK AO2
14837KMSN MSN20031129222509211/29/03 22:25:31  5-MIN KMSN 300425Z 23007KT 10SM CLR 03/M05 A2967 1090 54 0 230/07 RMK AO2
14837KMSN MSN20031129223009211/29/03 22:30:31  5-MIN KMSN 300430Z VRB05KT 10SM CLR 03/M05 A2968 1090 54 0 VRB/05 RMK AO2
14837KMSN MSN20031129223509211/29/03 22:35:31  5-MIN KMSN 300435Z VRB05KT 10SM CLR 03/M05 A2967 1090 54 0 VRB/05 RMK AO2
14837KMSN MSN20031129224009211/29/03 22:40:31  5-MIN KMSN 300440Z VRB06KT 10SM CLR 03/M05 A2967 1090 54 0 VRB/06 RMK AO2
14837KMSN MSN20031129224509211/29/03 22:45:31  5-MIN KMSN 300445Z VRB03KT 10SM CLR 03/M05 A2968 1090 54 0 VRB/03 RMK AO2
14837KMSN MSN20031129225010911/29/03 22:50:31  5-MIN KMSN 300450Z 24005KT 10SM CLR 03/M05 A2968 1090 54 0 230/05 RMK AO2 SLP057 T00331050
14837KMSN MSN20031129225509211/29/03 22:55:31  5-MIN KMSN 300455Z VRB04KT 10SM CLR 03/M05 A2968 1090 54 0 VRB/04 RMK AO2
14837KMSN MSN20031129230009211/29/03 23:00:31  5-MIN KMSN 300500Z 27003KT 10SM CLR 03/M05 A2968 1080 54 0 270/03 RMK AO2
14837KMSN MSN20031129230509211/29/03 23:05:31  5-MIN KMSN 300505Z 00000KT 10SM CLR 03/M03 A2968 1080 61 0 000/00 RMK AO2
14837KMSN MSN20031129231009211/29/03 23:10:31  5-MIN KMSN 300510Z 00000KT 10SM CLR 03/M03 A2969 1080 61 0 000/00 RMK AO2
14837KMSN MSN20031129231509211/29/03 23:15:31  5-MIN KMSN 300515Z VRB04KT 10SM CLR 03/M06 A2969 1080 50 0 VRB/04 RMK AO2
14837KMSN MSN20031129232009211/29/03 23:20:31  5-MIN KMSN 300520Z VRB03KT 10SM CLR 03/M06 A2969 1080 52 0 VRB/03 RMK AO2
14837KMSN MSN20031129232509211/29/03 23:25:31  5-MIN KMSN 300525Z 00000KT 10SM CLR 03/M06 A2969 1080 52 0 000/00 RMK AO2
14837KMSN MSN20031129233009211/29/03 23:30:31  5-MIN KMSN 300530Z 27003KT 10SM CLR 03/M06 A2970 1070 52 0 270/03 RMK AO2
14837KMSN MSN20031129233509211/29/03 23:35:31  5-MIN KMSN 300535Z 27003KT 10SM CLR 03/M06 A2970 1070 52 0 270/03 RMK AO2
14837KMSN MSN20031129234009211/29/03 23:40:31  5-MIN KMSN 300540Z 25003KT 10SM CLR 03/M06 A2970 1070 52 0 250/03 RMK AO2
14837KMSN MSN20031129234509211/29/03 23:45:31  5-MIN KMSN 300545Z VRB03KT 10SM CLR 03/M06 A2971 1060 52 0 VRB/03 RMK AO2
14837KMSN MSN20031129235013711/29/03 23:50:31  5-MIN KMSN 300550Z VRB03KT 10SM CLR 03/M06 A2971 1060 52 0 VRB/03 RMK AO2 SLP068 T00331056 10039 20028 400391056 56010
14837KMSN MSN20031129235509511/29/03 23:55:31  5-MIN KMSN 300555Z 27003KT 10SM CLR 03/M06 A2971 1060 54 -100 260/03 RMK AO2
14837KMSN MSN20031130000009511/30/03 00:00:31  5-MIN KMSN 300600Z 25004KT 10SM CLR 03/M06 A2971 1060 54 -100 250/04 RMK AO2
14837KMSN MSN20031130000509511/30/03 00:05:31  5-MIN KMSN 300605Z VRB04KT 10SM CLR 03/M06 A2971 1060 54 -100 VRB/04 RMK AO2
14837KMSN MSN20031130001009511/30/03 00:10:31  5-MIN KMSN 300610Z VRB03KT 10SM CLR 03/M06 A2971 1060 54 -100 VRB/03 RMK AO2
14837KMSN MSN20031130001509511/30/03 00:15:31  5-MIN KMSN 300615Z 00000KT 10SM CLR 03/M06 A2971 1060 54 -100 000/00 RMK AO2
14837KMSN MSN20031130002009511/30/03 00:20:31  5-MIN KMSN 300620Z 00000KT 10SM CLR 03/M06 A2971 1060 54 -100 000/00 RMK AO2
14837KMSN MSN20031130002509211/30/03 00:25:31  5-MIN KMSN 300625Z 21004KT 10SM CLR 03/M06 A2970 1070 52 0 210/04 RMK AO2
14837KMSN MSN20031130003009911/30/03 00:30:31  5-MIN KMSN 300630Z 21005KT 10SM CLR 03/M06 A2969 1080 52 0 210/05 RMK AO2 PRESFR
14837KMSN MSN20031130003509211/30/03 00:35:31  5-MIN KMSN 300635Z 21005KT 10SM CLR 03/M06 A2969 1080 52 0 210/05 RMK AO2
14837KMSN MSN20031130004009211/30/03 00:40:31  5-MIN KMSN 300640Z VRB06KT 10SM CLR 03/M06 A2969 1070 52 0 VRB/06 RMK AO2
14837KMSN MSN20031130004509211/30/03 00:45:31  5-MIN KMSN 300645Z VRB05KT 10SM CLR 03/M05 A2970 1070 54 0 VRB/05 RMK AO2
14837KMSN MSN20031130005010911/30/03 00:50:31  5-MIN KMSN 300650Z 27005KT 10SM CLR 03/M05 A2971 1060 54 0 270/05 RMK AO2 SLP068 T00331050
14837KMSN MSN20031130005509911/30/03 00:55:31  5-MIN KMSN 300655Z VRB03KT 10SM CLR 03/M05 A2972 1050 54 0 VRB/03 RMK AO2 PRESRR
14837KMSN MSN20031130010009211/30/03 01:00:31  5-MIN KMSN 300700Z VRB03KT 10SM CLR 03/M05 A2971 1060 54 0 VRB/03 RMK AO2
14837KMSN MSN20031130010509211/30/03 01:05:31  5-MIN KMSN 300705Z 22005KT 10SM CLR 04/M05 A2971 1060 52 0 220/05 RMK AO2
14837KMSN MSN20031130011009211/30/03 01:10:31  5-MIN KMSN 300710Z VRB06KT 10SM CLR 04/M06 A2970 1070 50 0 VRB/06 RMK AO2
14837KMSN MSN20031130011509211/30/03 01:15:31  5-MIN KMSN 300715Z VRB05KT 10SM CLR 04/M06 A2971 1060 50 0 VRB/05 RMK AO2
14837KMSN MSN20031130012009211/30/03 01:20:31  5-MIN KMSN 300720Z 23007KT 10SM CLR 04/M05 A2971 1060 52 0 230/07 RMK AO2
14837KMSN MSN20031130012509211/30/03 01:25:31  5-MIN KMSN 300725Z 22006KT 10SM CLR 04/M05 A2970 1060 52 0 220/06 RMK AO2
14837KMSN MSN20031130013009211/30/03 01:30:31  5-MIN KMSN 300730Z 23006KT 10SM CLR 04/M05 A2970 1070 52 0 230/06 RMK AO2
14837KMSN MSN20031130013509211/30/03 01:35:31  5-MIN KMSN 300735Z 25005KT 10SM CLR 04/M05 A2970 1070 52 0 240/05 RMK AO2
14837KMSN MSN20031130014009211/30/03 01:40:31  5-MIN KMSN 300740Z VRB05KT 10SM CLR 04/M05 A2970 1070 52 0 VRB/05 RMK AO2
14837KMSN MSN20031130014509211/30/03 01:45:31  5-MIN KMSN 300745Z VRB06KT 10SM CLR 04/M05 A2971 1060 52 0 VRB/06 RMK AO2
14837KMSN MSN20031130015010911/30/03 01:50:31  5-MIN KMSN 300750Z VRB04KT 10SM CLR 04/M04 A2971 1060 54 0 VRB/04 RMK AO2 SLP070 T00391044
14837KMSN MSN20031130015509211/30/03 01:55:31  5-MIN KMSN 300755Z 27005KT 10SM CLR 04/M05 A2972 1050 52 0 260/05 RMK AO2
14837KMSN MSN20031130020009211/30/03 02:00:31  5-MIN KMSN 300800Z VRB04KT 10SM CLR 04/M05 A2972 1050 52 0 VRB/04 RMK AO2
14837KMSN MSN20031130020509211/30/03 02:05:31  5-MIN KMSN 300805Z VRB03KT 10SM CLR 04/M05 A2972 1050 52 0 VRB/03 RMK AO2
14837KMSN MSN20031130021009211/30/03 02:10:31  5-MIN KMSN 300810Z 23004KT 10SM CLR 04/M05 A2972 1050 52 0 230/04 RMK AO2
14837KMSN MSN20031130021509211/30/03 02:15:31  5-MIN KMSN 300815Z VRB05KT 10SM CLR 04/M05 A2972 1050 52 0 VRB/05 RMK AO2
14837KMSN MSN20031130022009211/30/03 02:20:31  5-MIN KMSN 300820Z VRB03KT 10SM CLR 04/M05 A2972 1050 52 0 VRB/03 RMK AO2
14837KMSN MSN20031130022509511/30/03 02:25:31  5-MIN KMSN 300825Z 24004KT 10SM FEW120 04/M05 A2972 1050 52 0 240/04 RMK AO2
14837KMSN MSN20031130023009511/30/03 02:30:31  5-MIN KMSN 300830Z 00000KT 10SM FEW120 04/M05 A2972 1050 52 0 000/00 RMK AO2
14837KMSN MSN20031130023509511/30/03 02:35:31  5-MIN KMSN 300835Z 00000KT 10SM FEW120 04/M05 A2972 1050 52 0 000/00 RMK AO2
14837KMSN MSN20031130024009511/30/03 02:40:31  5-MIN KMSN 300840Z 00000KT 10SM FEW120 04/M05 A2972 1050 52 0 000/00 RMK AO2
14837KMSN MSN20031130024509511/30/03 02:45:31  5-MIN KMSN 300845Z 22003KT 10SM FEW120 04/M05 A2972 1050 52 0 210/03 RMK AO2
14837KMSN MSN20031130025011811/30/03 02:50:31  5-MIN KMSN 300850Z 00000KT 10SM FEW120 03/M04 A2972 1050 57 0 000/00 RMK AO2 SLP074 T00331044 53015
14837KMSN MSN20031130025509211/30/03 02:55:31  5-MIN KMSN 300855Z 23003KT 10SM CLR 03/M04 A2972 1050 57 0 230/03 RMK AO2
14837KMSN MSN20031130030009211/30/03 03:00:31  5-MIN KMSN 300900Z 00000KT 10SM CLR 03/M04 A2972 1050 59 0 000/00 RMK AO2
14837KMSN MSN20031130030509211/30/03 03:05:31  5-MIN KMSN 300905Z 00000KT 10SM CLR 03/M04 A2972 1050 59 0 000/00 RMK AO2
14837KMSN MSN20031130031009511/30/03 03:10:31  5-MIN KMSN 300910Z 23003KT 10SM CLR 03/M04 A2973 1040 61 -100 230/03 RMK AO2
14837KMSN MSN20031130031509511/30/03 03:15:31  5-MIN KMSN 300915Z 23003KT 10SM CLR 03/M04 A2973 1040 61 -100 230/03 RMK AO2
14837KMSN MSN20031130032009511/30/03 03:20:31  5-MIN KMSN 300920Z 00000KT 10SM CLR 03/M04 A2973 1040 61 -100 000/00 RMK AO2
14837KMSN MSN20031130032509511/30/03 03:25:31  5-MIN KMSN 300925Z 00000KT 10SM CLR 02/M04 A2974 1030 61 -200 000/00 RMK AO2
14837KMSN MSN20031130033009511/30/03 03:30:31  5-MIN KMSN 300930Z 00000KT 10SM CLR 03/M04 A2974 1030 61 -100 000/00 RMK AO2
14837KMSN MSN20031130033509511/30/03 03:35:31  5-MIN KMSN 300935Z 00000KT 10SM CLR 03/M04 A2974 1030 61 -100 000/00 RMK AO2
14837KMSN MSN20031130034009511/30/03 03:40:31  5-MIN KMSN 300940Z 00000KT 10SM CLR 02/M04 A2974 1030 64 -300 000/00 RMK AO2
14837KMSN MSN20031130034509511/30/03 03:45:31  5-MIN KMSN 300945Z 00000KT 10SM CLR 02/M04 A2974 1030 61 -200 000/00 RMK AO2
14837KMSN MSN20031130035011211/30/03 03:50:31  5-MIN KMSN 300950Z 00000KT 10SM CLR 01/M05 A2974 1040 64 -300 000/00 RMK AO2 SLP077 T00111050
14837KMSN MSN20031130035509511/30/03 03:55:31  5-MIN KMSN 300955Z 00000KT 10SM CLR 01/M04 A2973 1040 69 -400 000/00 RMK AO2
14837KMSN MSN20031130040009511/30/03 04:00:31  5-MIN KMSN 301000Z 00000KT 10SM CLR 00/M04 A2973 1040 72 -500 000/00 RMK AO2
14837KMSN MSN20031130040509511/30/03 04:05:31  5-MIN KMSN 301005Z 00000KT 10SM CLR 00/M04 A2974 1030 72 -500 000/00 RMK AO2
14837KMSN MSN20031130041009511/30/03 04:10:31  5-MIN KMSN 301010Z 00000KT 10SM CLR 00/M04 A2974 1030 72 -500 000/00 RMK AO2
14837KMSN MSN20031130041509511/30/03 04:15:31  5-MIN KMSN 301015Z 00000KT 10SM CLR 00/M04 A2974 1030 72 -500 000/00 RMK AO2
14837KMSN MSN20031130042009611/30/03 04:20:31  5-MIN KMSN 301020Z 00000KT 10SM CLR M01/M04 A2974 1040 78 -500 000/00 RMK AO2
14837KMSN MSN20031130042509511/30/03 04:25:31  5-MIN KMSN 301025Z 00000KT 10SM CLR 00/M04 A2973 1040 72 -400 000/00 RMK AO2
14837KMSN MSN20031130043009611/30/03 04:30:31  5-MIN KMSN 301030Z 00000KT 10SM CLR M01/M04 A2973 1040 75 -500 000/00 RMK AO2
14837KMSN MSN20031130043509611/30/03 04:35:31  5-MIN KMSN 301035Z 00000KT 10SM CLR M01/M05 A2973 1040 75 -600 000/00 RMK AO2
14837KMSN MSN20031130044009611/30/03 04:40:31  5-MIN KMSN 301040Z 00000KT 10SM CLR M02/M04 A2973 1040 81 -700 000/00 RMK AO2
14837KMSN MSN20031130044509611/30/03 04:45:31  5-MIN KMSN 301045Z 00000KT 10SM CLR M01/M04 A2973 1040 78 -600 000/00 RMK AO2
14837KMSN MSN20031130045011311/30/03 04:50:31  5-MIN KMSN 301050Z 00000KT 10SM CLR M01/M04 A2973 1040 78 -600 000/00 RMK AO2 SLP074 T10111044
14837KMSN MSN20031130045509911/30/03 04:55:31  5-MIN KMSN 301055Z 21003KT 10SM FEW120 M01/M04 A2973 1040 78 -600 210/03 RMK AO2
14837KMSN MSN20031130050009911/30/03 05:00:31  5-MIN KMSN 301100Z 20003KT 10SM FEW120 M02/M04 A2973 1040 81 -700 200/03 RMK AO2
14837KMSN MSN20031130050509911/30/03 05:05:31  5-MIN KMSN 301105Z 20003KT 10SM SCT120 M02/M04 A2973 1040 85 -700 200/03 RMK AO2
14837KMSN MSN20031130051009911/30/03 05:10:31  5-MIN KMSN 301110Z 22003KT 10SM SCT120 M02/M05 A2974 1040 78 -700 220/03 RMK AO2
14837KMSN MSN20031130051509911/30/03 05:15:31  5-MIN KMSN 301115Z 20003KT 10SM SCT120 M01/M05 A2974 1040 75 -600 200/03 RMK AO2
14837KMSN MSN20031130052009911/30/03 05:20:31  5-MIN KMSN 301120Z 00000KT 10SM FEW120 M01/M04 A2974 1030 78 -600 000/00 RMK AO2
14837KMSN MSN20031130052509911/30/03 05:25:31  5-MIN KMSN 301125Z 00000KT 10SM FEW120 M01/M04 A2974 1030 78 -600 000/00 RMK AO2
14837KMSN MSN20031130053009911/30/03 05:30:31  5-MIN KMSN 301130Z 00000KT 10SM FEW120 M02/M05 A2975 1030 81 -700 000/00 RMK AO2
14837KMSN MSN20031130053509611/30/03 05:35:31  5-MIN KMSN 301135Z 00000KT 10SM CLR M01/M04 A2974 1030 78 -600 000/00 RMK AO2
14837KMSN MSN20031130054009611/30/03 05:40:31  5-MIN KMSN 301140Z 00000KT 10SM CLR M01/M04 A2975 1030 78 -600 000/00 RMK AO2
14837KMSN MSN20031130054509611/30/03 05:45:31  5-MIN KMSN 301145Z 00000KT 10SM CLR M01/M04 A2975 1030 78 -600 000/00 RMK AO2
14837KMSN MSN20031130055013111/30/03 05:50:31  5-MIN KMSN 301150Z 00000KT 10SM CLR M02/M04 A2975 1020 81 -700 000/00 RMK AO2 SLP082 T10171044 10039 21022 53003
14837KMSN MSN20031130055509611/30/03 05:55:31  5-MIN KMSN 301155Z 00000KT 10SM CLR M01/M04 A2975 1020 78 -600 000/00 RMK AO2
14837KMSN MSN20031130060009611/30/03 06:00:31  5-MIN KMSN 301200Z 00000KT 10SM CLR M02/M04 A2975 1020 81 -700 000/00 RMK AO2
14837KMSN MSN20031130060509611/30/03 06:05:31  5-MIN KMSN 301205Z 00000KT 10SM CLR M02/M04 A2975 1020 81 -700 000/00 RMK AO2
14837KMSN MSN20031130061009611/30/03 06:10:31  5-MIN KMSN 301210Z 00000KT 10SM CLR M01/M04 A2976 1020 81 -600 000/00 RMK AO2
14837KMSN MSN20031130061509611/30/03 06:15:31  5-MIN KMSN 301215Z 00000KT 10SM CLR M01/M04 A2976 1020 81 -600 000/00 RMK AO2
14837KMSN MSN20031130062009611/30/03 06:20:31  5-MIN KMSN 301220Z 19003KT 10SM CLR M02/M04 A2976 1020 85 -700 190/03 RMK AO2
14837KMSN MSN20031130062509611/30/03 06:25:31  5-MIN KMSN 301225Z 20003KT 10SM CLR M01/M04 A2976 1010 78 -600 200/03 RMK AO2
14837KMSN MSN20031130063009611/30/03 06:30:31  5-MIN KMSN 301230Z 19003KT 10SM CLR M01/M04 A2976 1010 81 -600 190/03 RMK AO2
14837KMSN MSN20031130063509611/30/03 06:35:31  5-MIN KMSN 301235Z 20004KT 10SM CLR M01/M04 A2976 1010 81 -600 190/04 RMK AO2
14837KMSN MSN20031130064009611/30/03 06:40:31  5-MIN KMSN 301240Z 20003KT 10SM CLR M01/M04 A2976 1010 75 -600 200/03 RMK AO2
14837KMSN MSN20031130064509511/30/03 06:45:31  5-MIN KMSN 301245Z 19005KT 10SM CLR 00/M04 A2976 1010 75 -500 190/05 RMK AO2
14837KMSN MSN20031130065011211/30/03 06:50:31  5-MIN KMSN 301250Z 19003KT 10SM CLR 02/M04 A2976 1010 66 -300 190/03 RMK AO2 SLP087 T00171039
14837KMSN MSN20031130065509511/30/03 06:55:31  5-MIN KMSN 301255Z 20004KT 10SM CLR 02/M04 A2977 1010 66 -300 200/04 RMK AO2
14837KMSN MSN20031130070009511/30/03 07:00:31  5-MIN KMSN 301300Z VRB03KT 10SM CLR 02/M04 A2977 1010 66 -300 VRB/03 RMK AO2
14837KMSN MSN20031130070509511/30/03 07:05:31  5-MIN KMSN 301305Z 20004KT 10SM CLR 02/M04 A2977 1000 66 -300 200/04 RMK AO2
14837KMSN MSN20031130071009511/30/03 07:10:31  5-MIN KMSN 301310Z 20003KT 10SM CLR 01/M04 A2977 1000 69 -400 200/03 RMK AO2
14837KMSN MSN20031130071509511/30/03 07:15:31  5-MIN KMSN 301315Z VRB03KT 10SM CLR 02/M04 A2977 1000 66 -300 VRB/03 RMK AO2
14837KMSN MSN20031130072009811/30/03 07:20:31  5-MIN KMSN 301320Z 00000KT 10SM FEW120 02/M04 A2977 1000 66 -300 000/00 RMK AO2
14837KMSN MSN20031130072509811/30/03 07:25:31  5-MIN KMSN 301325Z 21003KT 10SM FEW120 02/M04 A2978 1000 66 -300 210/03 RMK AO2
14837KMSN MSN20031130073009811/30/03 07:30:31  5-MIN KMSN 301330Z 21003KT 10SM FEW120 02/M04 A2978 1000 64 -200 210/03 RMK AO2
14837KMSN MSN20031130073509511/30/03 07:35:31  5-MIN KMSN 301335Z 00000KT 10SM CLR 01/M04 A2978 1000 69 -400 000/00 RMK AO2
14837KMSN MSN20031130074009511/30/03 07:40:31  5-MIN KMSN 301340Z 21004KT 10SM CLR 02/M04 A2978 1000 66 -300 210/04 RMK AO2
14837KMSN MSN20031130074509411/30/03 07:45:31  5-MIN KMSN 301345Z VRB03KT 10SM CLR 02/M04 A2978 990 66 -300 VRB/03 RMK AO2
14837KMSN MSN20031130075011211/30/03 07:50:31  5-MIN KMSN 301350Z VRB03KT 10SM CLR 02/M03 A2978 1000 67 -200 VRB/03 RMK AO2 SLP091 T00221033
14837KMSN MSN20031130075509511/30/03 07:55:31  5-MIN KMSN 301355Z VRB04KT 10SM CLR 03/M03 A2978 1000 64 -200 VRB/04 RMK AO2
14837KMSN MSN20031130080009511/30/03 08:00:31  5-MIN KMSN 301400Z 22005KT 10SM CLR 03/M03 A2978 1000 64 -200 220/05 RMK AO2
14837KMSN MSN20031130080509411/30/03 08:05:31  5-MIN KMSN 301405Z VRB04KT 10SM CLR 03/M03 A2978 990 64 -200 VRB/04 RMK AO2
14837KMSN MSN20031130081009511/30/03 08:10:31  5-MIN KMSN 301410Z 21006KT 10SM CLR 03/M04 A2978 1000 61 -200 210/06 RMK AO2
14837KMSN MSN20031130081509511/30/03 08:15:31  5-MIN KMSN 301415Z VRB05KT 10SM CLR 03/M04 A2978 1000 61 -200 VRB/05 RMK AO2
14837KMSN MSN20031130082009511/30/03 08:20:31  5-MIN KMSN 301420Z VRB03KT 10SM CLR 03/M04 A2978 1000 59 -100 VRB/03 RMK AO2
14837KMSN MSN20031130082509511/30/03 08:25:31  5-MIN KMSN 301425Z 00000KT 10SM CLR 03/M03 A2978 1000 61 -100 000/00 RMK AO2
14837KMSN MSN20031130083009411/30/03 08:30:31  5-MIN KMSN 301430Z VRB03KT 10SM CLR 03/M03 A2978 990 61 -100 VRB/03 RMK AO2
14837KMSN MSN20031130083509111/30/03 08:35:31  5-MIN KMSN 301435Z 21005KT 10SM CLR 04/M03 A2978 990 59 0 210/05 RMK AO2
14837KMSN MSN20031130084009111/30/03 08:40:31  5-MIN KMSN 301440Z 22004KT 10SM CLR 04/M04 A2978 990 57 0 220/04 RMK AO2
14837KMSN MSN20031130084509111/30/03 08:45:31  5-MIN KMSN 301445Z VRB04KT 10SM CLR 04/M04 A2978 990 57 0 VRB/04 RMK AO2
14837KMSN MSN20031130085011411/30/03 08:50:31  5-MIN KMSN 301450Z VRB04KT 10SM CLR 04/M04 A2978 990 57 0 VRB/04 RMK AO2 SLP092 T00391039 53008
14837KMSN MSN20031130085509111/30/03 08:55:31  5-MIN KMSN 301455Z VRB05KT 10SM CLR 04/M03 A2978 990 57 0 VRB/05 RMK AO2
14837KMSN MSN20031130090009111/30/03 09:00:31  5-MIN KMSN 301500Z 23006KT 10SM CLR 04/M03 A2978 990 57 0 230/06 RMK AO2
14837KMSN MSN20031130090509111/30/03 09:05:31  5-MIN KMSN 301505Z 24006KT 10SM CLR 04/M03 A2978 990 57 0 240/06 RMK AO2
14837KMSN MSN20031130091009111/30/03 09:10:31  5-MIN KMSN 301510Z 24006KT 10SM CLR 04/M03 A2979 990 57 0 240/06 RMK AO2
14837KMSN MSN20031130091509111/30/03 09:15:31  5-MIN KMSN 301515Z 22007KT 10SM CLR 04/M03 A2979 990 57 0 220/07 RMK AO2
14837KMSN MSN20031130092009111/30/03 09:20:31  5-MIN KMSN 301520Z VRB06KT 10SM CLR 04/M03 A2978 990 57 0 VRB/06 RMK AO2
14837KMSN MSN20031130092509111/30/03 09:25:31  5-MIN KMSN 301525Z 21008KT 10SM CLR 04/M03 A2978 990 59 0 210/08 RMK AO2
14837KMSN MSN20031130093009411/30/03 09:30:31  5-MIN KMSN 301530Z 21007KT 10SM CLR 05/M03 A2978 1000 57 100 210/07 RMK AO2
14837KMSN MSN20031130093509411/30/03 09:35:31  5-MIN KMSN 301535Z 22005KT 10SM CLR 05/M03 A2978 1000 57 100 220/05 RMK AO2
14837KMSN MSN20031130094009411/30/03 09:40:31  5-MIN KMSN 301540Z VRB05KT 10SM CLR 06/M03 A2978 1000 55 100 VRB/05 RMK AO2
14837KMSN MSN20031130094509411/30/03 09:45:31  5-MIN KMSN 301545Z 20006KT 10SM CLR 06/M03 A2978 1000 55 100 200/06 RMK AO2
14837KMSN MSN20031130095011111/30/03 09:50:31  5-MIN KMSN 301550Z 23005KT 10SM CLR 06/M03 A2978 1000 53 200 230/05 RMK AO2 SLP090 T00611028
14837KMSN MSN20031130095509411/30/03 09:55:31  5-MIN KMSN 301555Z 21007KT 10SM CLR 06/M03 A2978 1000 51 200 210/07 RMK AO2
14837KMSN MSN20031130100009411/30/03 10:00:31  5-MIN KMSN 301600Z VRB06KT 10SM CLR 06/M03 A2977 1000 53 200 VRB/06 RMK AO2
14837KMSN MSN20031130100509411/30/03 10:05:31  5-MIN KMSN 301605Z 20007KT 10SM CLR 07/M02 A2977 1010 51 400 200/07 RMK AO2
14837KMSN MSN20031130101009411/30/03 10:10:31  5-MIN KMSN 301610Z 21009KT 10SM CLR 07/M03 A2977 1010 51 300 210/09 RMK AO2
14837KMSN MSN20031130101509411/30/03 10:15:31  5-MIN KMSN 301615Z 20007KT 10SM CLR 07/M03 A2976 1010 51 300 200/07 RMK AO2
14837KMSN MSN20031130102009411/30/03 10:20:31  5-MIN KMSN 301620Z 21009KT 10SM CLR 07/M03 A2976 1010 49 400 210/09 RMK AO2
14837KMSN MSN20031130102509411/30/03 10:25:31  5-MIN KMSN 301625Z 21009KT 10SM CLR 07/M03 A2976 1010 49 400 210/09 RMK AO2
14837KMSN MSN20031130103009411/30/03 10:30:31  5-MIN KMSN 301630Z 21007KT 10SM CLR 08/M02 A2976 1010 49 400 210/07 RMK AO2
14837KMSN MSN20031130103511011/30/03 10:35:31  5-MIN KMSN 301635Z 21007KT 180V240 10SM CLR 08/M02 A2976 1010 49 400 210/07 180V240 RMK AO2
14837KMSN MSN20031130104009411/30/03 10:40:31  5-MIN KMSN 301640Z 19008KT 10SM CLR 08/M02 A2975 1020 49 500 190/08 RMK AO2
14837KMSN MSN20031130104509411/30/03 10:45:31  5-MIN KMSN 301645Z 20006KT 10SM CLR 08/M02 A2975 1020 49 500 200/06 RMK AO2
14837KMSN MSN20031130105011111/30/03 10:50:31  5-MIN KMSN 301650Z 21008KT 10SM CLR 09/M02 A2975 1020 45 600 210/08 RMK AO2 SLP079 T00891022
14837KMSN MSN20031130105509411/30/03 10:55:31  5-MIN KMSN 301655Z VRB06KT 10SM CLR 09/M02 A2975 1020 45 600 VRB/06 RMK AO2
14837KMSN MSN20031130110011011/30/03 11:00:31  5-MIN KMSN 301700Z 23007KT 200V260 10SM CLR 09/M02 A2975 1030 45 600 230/07 200V260 RMK AO2
14837KMSN MSN20031130110510011/30/03 11:05:31  5-MIN KMSN 301705Z 21011G14KT 10SM CLR 09/M02 A2974 1030 45 600 210/11G14 RMK AO2
14837KMSN MSN20031130111009411/30/03 11:10:31  5-MIN KMSN 301710Z 22010KT 10SM CLR 09/M02 A2974 1030 44 700 220/10 RMK AO2
14837KMSN MSN20031130111510011/30/03 11:15:31  5-MIN KMSN 301715Z 21012G15KT 10SM CLR 09/M02 A2973 1040 44 700 210/12G15 RMK AO2
14837KMSN MSN20031130112010011/30/03 11:20:31  5-MIN KMSN 301720Z 22009G15KT 10SM CLR 09/M02 A2973 1040 44 700 220/09G15 RMK AO2
14837KMSN MSN20031130112509411/30/03 11:25:31  5-MIN KMSN 301725Z 21010KT 10SM CLR 10/M02 A2973 1040 42 700 210/10 RMK AO2
14837KMSN MSN20031130113009411/30/03 11:30:31  5-MIN KMSN 301730Z 21007KT 10SM CLR 10/M02 A2973 1040 44 700 210/07 RMK AO2
14837KMSN MSN20031130113509411/30/03 11:35:31  5-MIN KMSN 301735Z 20008KT 10SM CLR 11/M01 A2973 1040 44 800 200/08 RMK AO2
14837KMSN MSN20031130114009411/30/03 11:40:31  5-MIN KMSN 301740Z 20009KT 10SM CLR 11/M01 A2973 1040 44 800 200/09 RMK AO2
14837KMSN MSN20031130114509411/30/03 11:45:31  5-MIN KMSN 301745Z 21009KT 10SM CLR 11/M01 A2973 1050 44 800 210/09 RMK AO2
14837KMSN MSN20031130115012911/30/03 11:50:31  5-MIN KMSN 301750Z 22010KT 10SM CLR 11/M01 A2973 1050 44 800 220/10 RMK AO2 SLP070 T01061011 10106 21017 51011
14837KMSN MSN20031130115509411/30/03 11:55:31  5-MIN KMSN 301755Z 21010KT 10SM CLR 11/M01 A2973 1040 42 900 210/10 RMK AO2
14837KMSN MSN20031130120009411/30/03 12:00:31  5-MIN KMSN 301800Z 22007KT 10SM CLR 12/M01 A2972 1050 42 900 220/07 RMK AO2
14837KMSN MSN20031130120509411/30/03 12:05:31  5-MIN KMSN 301805Z 25010KT 10SM CLR 11/M01 A2974 1030 44 800 250/10 RMK AO2
14837KMSN MSN20031130121009411/30/03 12:10:31  5-MIN KMSN 301810Z 23010KT 10SM CLR 11/M01 A2974 1030 44 800 230/10 RMK AO2
14837KMSN MSN20031130121511611/30/03 12:15:31  5-MIN KMSN 301815Z 23011G16KT 190V250 10SM CLR 11/M01 A2974 1030 42 900 230/11G16 190V250 RMK AO2
14837KMSN MSN20031130122009411/30/03 12:20:31  5-MIN KMSN 301820Z 22011KT 10SM CLR 11/M01 A2974 1030 44 800 220/11 RMK AO2
14837KMSN MSN20031130122509411/30/03 12:25:31  5-MIN KMSN 301825Z 23010KT 10SM CLR 11/M01 A2974 1040 44 900 230/10 RMK AO2
14837KMSN MSN20031130123009411/30/03 12:30:31  5-MIN KMSN 301830Z 22009KT 10SM CLR 11/M01 A2973 1040 44 900 220/09 RMK AO2
14837KMSN MSN20031130123509411/30/03 12:35:31  5-MIN KMSN 301835Z 21011KT 10SM CLR 11/M01 A2973 1040 42 900 210/11 RMK AO2
14837KMSN MSN20031130124010011/30/03 12:40:31  5-MIN KMSN 301840Z 22013G17KT 10SM CLR 12/M01 A2972 1050 41 900 220/13G17 RMK AO2
14837KMSN MSN20031130124510011/30/03 12:45:31  5-MIN KMSN 301845Z 22008G17KT 10SM CLR 12/M01 A2972 1050 42 900 220/08G17 RMK AO2
14837KMSN MSN20031130125011911/30/03 12:50:31  5-MIN KMSN 301850Z 22010KT 10SM CLR 12/M01 A2971 1060 41 1000 220/10 RMK AO2 PRESFR SLP064 T01171011
14837KMSN MSN20031130125509511/30/03 12:55:31  5-MIN KMSN 301855Z 22009KT 10SM CLR 12/M01 A2971 1060 41 1000 220/09 RMK AO2
14837KMSN MSN20031130130010111/30/03 13:00:31  5-MIN KMSN 301900Z 21011G16KT 10SM CLR 12/M01 A2970 1060 41 1000 210/11G16 RMK AO2
14837KMSN MSN20031130130510111/30/03 13:05:31  5-MIN KMSN 301905Z 22010G16KT 10SM CLR 12/M01 A2970 1070 39 1000 220/10G16 RMK AO2
14837KMSN MSN20031130131009511/30/03 13:10:31  5-MIN KMSN 301910Z 22007KT 10SM CLR 13/M01 A2970 1070 38 1100 220/07 RMK AO2
14837KMSN MSN20031130131510111/30/03 13:15:31  5-MIN KMSN 301915Z 22010G16KT 10SM CLR 13/M01 A2970 1070 38 1100 220/10G16 RMK AO2
14837KMSN MSN20031130132010111/30/03 13:20:31  5-MIN KMSN 301920Z 22009G16KT 10SM CLR 13/M01 A2971 1060 38 1100 220/09G16 RMK AO2
14837KMSN MSN20031130132509511/30/03 13:25:31  5-MIN KMSN 301925Z 24010KT 10SM CLR 13/M01 A2971 1060 38 1100 230/10 RMK AO2
14837KMSN MSN20031130133010111/30/03 13:30:31  5-MIN KMSN 301930Z 23010G17KT 10SM CLR 13/M01 A2971 1060 38 1100 230/10G17 RMK AO2
14837KMSN MSN20031130133510111/30/03 13:35:31  5-MIN KMSN 301935Z 24010G17KT 10SM CLR 13/M01 A2971 1060 39 1100 230/10G17 RMK AO2
14837KMSN MSN20031130134010111/30/03 13:40:31  5-MIN KMSN 301940Z 24007G16KT 10SM CLR 13/M01 A2971 1050 38 1100 240/07G16 RMK AO2
14837KMSN MSN20031130134511111/30/03 13:45:31  5-MIN KMSN 301945Z 26009KT 220V280 10SM CLR 13/M01 A2972 1050 38 1100 260/09 220V280 RMK AO2
14837KMSN MSN20031130135013411/30/03 13:50:31  5-MIN KMSN 301950Z 27008G15KT 230V300 10SM CLR 14/M01 A2972 1050 35 1200 260/08G15 230V300 RMK AO2 SLP066 T01391011
14837KMSN MSN20031130135510111/30/03 13:55:31  5-MIN KMSN 301955Z 27012G15KT 10SM CLR 14/M01 A2972 1050 34 1300 270/12G15 RMK AO2
14837KMSN MSN20031130140010111/30/03 14:00:31  5-MIN KMSN 302000Z 27010G20KT 10SM CLR 14/M02 A2972 1050 33 1300 270/10G20 RMK AO2
14837KMSN MSN20031130140510111/30/03 14:05:31  5-MIN KMSN 302005Z 27010G20KT 10SM CLR 14/M02 A2972 1050 33 1300 270/10G20 RMK AO2
14837KMSN MSN20031130141011711/30/03 14:10:31  5-MIN KMSN 302010Z 26015G21KT 240V300 10SM CLR 14/M02 A2972 1050 34 1200 260/15G21 240V300 RMK AO2
14837KMSN MSN20031130141510111/30/03 14:15:31  5-MIN KMSN 302015Z 26008G21KT 10SM CLR 14/M02 A2972 1050 34 1200 260/08G21 RMK AO2
14837KMSN MSN20031130142010111/30/03 14:20:31  5-MIN KMSN 302020Z 26011G21KT 10SM CLR 14/M02 A2972 1050 34 1200 260/11G21 RMK AO2
14837KMSN MSN20031130142510111/30/03 14:25:31  5-MIN KMSN 302025Z 26009G20KT 10SM CLR 13/M02 A2972 1050 35 1100 260/09G20 RMK AO2
14837KMSN MSN20031130143011711/30/03 14:30:31  5-MIN KMSN 302030Z 25010G16KT 220V300 10SM CLR 13/M02 A2972 1050 34 1100 250/10G16 220V300 RMK AO2
14837KMSN MSN20031130143511711/30/03 14:35:31  5-MIN KMSN 302035Z 25010G19KT 220V290 10SM CLR 14/M02 A2972 1050 32 1200 250/10G19 220V290 RMK AO2
14837KMSN MSN20031130144011711/30/03 14:40:31  5-MIN KMSN 302040Z 26010G19KT 210V280 10SM CLR 14/M02 A2973 1050 32 1200 250/10G19 210V280 RMK AO2
14837KMSN MSN20031130144510111/30/03 14:45:31  5-MIN KMSN 302045Z 26010G19KT 10SM CLR 14/M02 A2972 1050 32 1200 260/10G19 RMK AO2
14837KMSN MSN20031130145012411/30/03 14:50:31  5-MIN KMSN 302050Z 25011G19KT 10SM CLR 13/M02 A2972 1050 34 1100 250/11G19 RMK AO2 SLP069 T01331022 58019
14837KMSN MSN20031130145510111/30/03 14:55:31  5-MIN KMSN 302055Z 26009G17KT 10SM CLR 13/M02 A2972 1050 34 1100 260/09G17 RMK AO2
14837KMSN MSN20031130150010111/30/03 15:00:31  5-MIN KMSN 302100Z 27010G17KT 10SM CLR 13/M02 A2973 1040 34 1100 260/10G17 RMK AO2
14837KMSN MSN20031130150510111/30/03 15:05:31  5-MIN KMSN 302105Z 26008G17KT 10SM CLR 13/M02 A2972 1050 34 1100 260/08G17 RMK AO2
14837KMSN MSN20031130151011711/30/03 15:10:31  5-MIN KMSN 302110Z 24008G15KT 190V280 10SM CLR 13/M02 A2973 1050 34 1100 240/08G15 190V280 RMK AO2
14837KMSN MSN20031130151510111/30/03 15:15:31  5-MIN KMSN 302115Z 25008G14KT 10SM CLR 13/M03 A2973 1040 32 1100 250/08G14 RMK AO2
14837KMSN MSN20031130152010111/30/03 15:20:31  5-MIN KMSN 302120Z 25008G16KT 10SM CLR 13/M03 A2973 1040 32 1100 250/08G16 RMK AO2
14837KMSN MSN20031130152511711/30/03 15:25:31  5-MIN KMSN 302125Z 26009G17KT 230V290 10SM CLR 13/M03 A2974 1040 32 1100 260/09G17 230V290 RMK AO2
14837KMSN MSN20031130153010111/30/03 15:30:31  5-MIN KMSN 302130Z 27013G18KT 10SM CLR 13/M03 A2974 1030 31 1100 270/13G18 RMK AO2
14837KMSN MSN20031130153510111/30/03 15:35:31  5-MIN KMSN 302135Z 27010G18KT 10SM CLR 13/M04 A2975 1030 30 1100 270/10G18 RMK AO2
14837KMSN MSN20031130154010111/30/03 15:40:31  5-MIN KMSN 302140Z 27013G20KT 10SM CLR 13/M04 A2975 1020 28 1100 270/13G20 RMK AO2
14837KMSN MSN20031130154510111/30/03 15:45:31  5-MIN KMSN 302145Z 27013G20KT 10SM CLR 13/M04 A2975 1020 28 1100 270/13G20 RMK AO2
14837KMSN MSN20031130155011811/30/03 15:50:31  5-MIN KMSN 302150Z 27011G18KT 10SM CLR 13/M04 A2975 1020 30 1000 270/11G18 RMK AO2 SLP080 T01281044
14837KMSN MSN20031130155510111/30/03 15:55:31  5-MIN KMSN 302155Z 27013G17KT 10SM CLR 13/M05 A2976 1010 28 1000 270/13G17 RMK AO2
14837KMSN MSN20031130160010111/30/03 16:00:31  5-MIN KMSN 302200Z 28013G23KT 10SM CLR 12/M05 A2976 1010 29 1000 270/13G23 RMK AO2
14837KMSN MSN20031130160510111/30/03 16:05:31  5-MIN KMSN 302205Z 28015G23KT 10SM CLR 12/M05 A2977 1010 29 1000 270/15G23 RMK AO2
14837KMSN MSN20031130161010011/30/03 16:10:31  5-MIN KMSN 302210Z 28011G22KT 10SM CLR 12/M06 A2977 1000 28 900 270/11G22 RMK AO2
14837KMSN MSN20031130161510011/30/03 16:15:31  5-MIN KMSN 302215Z 28014G20KT 10SM CLR 12/M05 A2978 1000 29 900 280/14G20 RMK AO2
14837KMSN MSN20031130162009911/30/03 16:20:31  5-MIN KMSN 302220Z 28013G21KT 10SM CLR 12/M06 A2978 990 28 900 280/13G21 RMK AO2
14837KMSN MSN20031130162510611/30/03 16:25:31  5-MIN KMSN 302225Z 29014G21KT 10SM CLR 12/M06 A2979 990 29 900 290/14G21 RMK AO2 PRESRR
14837KMSN MSN20031130163010611/30/03 16:30:31  5-MIN KMSN 302230Z 29011G20KT 10SM CLR 12/M05 A2980 980 30 900 290/11G20 RMK AO2 PRESRR
14837KMSN MSN20031130163510611/30/03 16:35:31  5-MIN KMSN 302235Z 29011G21KT 10SM CLR 12/M05 A2980 970 30 800 290/11G21 RMK AO2 PRESRR
14837KMSN MSN20031130164009911/30/03 16:40:31  5-MIN KMSN 302240Z 29013G22KT 10SM CLR 11/M04 A2981 970 33 800 290/13G22 RMK AO2
14837KMSN MSN20031130164509911/30/03 16:45:31  5-MIN KMSN 302245Z 29013G22KT 10SM CLR 11/M04 A2981 970 36 700 290/13G22 RMK AO2
14837KMSN MSN20031130165011911/30/03 16:50:31  5-MIN KMSN 302250Z 29011G18KT 10SM FEW065 11/M04 A2981 960 36 700 290/11G18 RMK AO2 SLP102 T01061039
14837KMSN MSN20031130165510211/30/03 16:55:31  5-MIN KMSN 302255Z 29014G21KT 10SM FEW065 11/M03 A2982 960 37 700 290/14G21 RMK AO2
14837KMSN MSN20031130170010911/30/03 17:00:31  5-MIN KMSN 302300Z 30013G21KT 10SM FEW065 11/M03 A2983 950 39 700 300/13G21 RMK AO2 PRESRR
14837KMSN MSN20031130170510911/30/03 17:05:31  5-MIN KMSN 302305Z 29009G19KT 10SM FEW065 10/M03 A2984 940 40 600 290/09G19 RMK AO2 PRESRR
14837KMSN MSN20031130171010911/30/03 17:10:31  5-MIN KMSN 302310Z 30012G17KT 10SM FEW065 10/M02 A2985 930 42 600 300/12G17 RMK AO2 PRESRR
14837KMSN MSN20031130171510911/30/03 17:15:31  5-MIN KMSN 302315Z 30017G25KT 10SM FEW065 10/M02 A2985 930 42 600 290/17G25 RMK AO2 PRESRR
14837KMSN MSN20031130172010211/30/03 17:20:31  5-MIN KMSN 302320Z 30013G25KT 10SM FEW065 09/M02 A2985 930 44 500 300/13G25 RMK AO2
14837KMSN MSN20031130172510211/30/03 17:25:31  5-MIN KMSN 302325Z 30016G24KT 10SM FEW065 09/M02 A2986 920 44 500 300/16G24 RMK AO2
14837KMSN MSN20031130173010211/30/03 17:30:31  5-MIN KMSN 302330Z 29011G24KT 10SM FEW065 09/M02 A2986 920 45 400 290/11G24 RMK AO2
14837KMSN MSN20031130173510211/30/03 17:35:31  5-MIN KMSN 302335Z 29010G21KT 10SM FEW065 09/M02 A2986 920 45 400 290/10G21 RMK AO2
14837KMSN MSN20031130174010211/30/03 17:40:31  5-MIN KMSN 302340Z 29011G18KT 10SM FEW065 09/M02 A2986 920 45 400 290/11G18 RMK AO2
14837KMSN MSN20031130174509911/30/03 17:45:31  5-MIN KMSN 302345Z 30010G18KT 10SM CLR 08/M02 A2986 920 47 400 300/10G18 RMK AO2
14837KMSN MSN20031130175013411/30/03 17:50:31  5-MIN KMSN 302350Z 29012G16KT 10SM CLR 08/M02 A2987 910 47 400 290/12G16 RMK AO2 SLP121 T00831022 10144 20083 55001
14837KMSN MSN20031130175509911/30/03 17:55:31  5-MIN KMSN 302355Z 29008G16KT 10SM CLR 08/M02 A2988 910 47 400 290/08G16 RMK AO2
14837KMSN MSN20031130180010911/30/03 18:00:31  5-MIN KMSN 010000Z 28011KT 240V310 10SM CLR 08/M02 A2988 910 49 300 280/11 240V310 RMK AO2
14837KMSN MSN20031130180509911/30/03 18:05:31  5-MIN KMSN 010005Z 28015G21KT 10SM CLR 08/M02 A2988 900 51 300 280/15G21 RMK AO2
14837KMSN MSN20031130181009911/30/03 18:10:31  5-MIN KMSN 010010Z 30011G21KT 10SM CLR 08/M02 A2988 900 51 300 300/11G21 RMK AO2
14837KMSN MSN20031130181509911/30/03 18:15:31  5-MIN KMSN 010015Z 29012G20KT 10SM CLR 08/M02 A2989 890 51 300 290/12G20 RMK AO2
14837KMSN MSN20031130182009911/30/03 18:20:31  5-MIN KMSN 010020Z 28012G20KT 10SM CLR 07/M02 A2989 890 53 200 280/12G20 RMK AO2
14837KMSN MSN20031130182509911/30/03 18:25:31  5-MIN KMSN 010025Z 30011G17KT 10SM CLR 07/M02 A2990 890 51 200 300/11G17 RMK AO2
14837KMSN MSN20031130183009911/30/03 18:30:31  5-MIN KMSN 010030Z 29012G17KT 10SM CLR 07/M02 A2990 880 51 200 290/12G17 RMK AO2
14837KMSN MSN20031130183509911/30/03 18:35:31  5-MIN KMSN 010035Z 29011G17KT 10SM CLR 07/M02 A2991 880 51 200 290/11G17 RMK AO2
14837KMSN MSN20031130184009911/30/03 18:40:31  5-MIN KMSN 010040Z 28013G20KT 10SM CLR 07/M02 A2991 870 51 200 280/13G20 RMK AO2
14837KMSN MSN20031130184509911/30/03 18:45:31  5-MIN KMSN 010045Z 29014G20KT 10SM CLR 07/M02 A2991 870 53 100 290/14G20 RMK AO2
14837KMSN MSN20031130185011911/30/03 18:50:31  5-MIN KMSN 010050Z 29012G19KT 10SM FEW040 07/M02 A2992 870 53 100 280/12G19 RMK AO2 SLP137 T00671022
14837KMSN MSN20031130185511811/30/03 18:55:31  5-MIN KMSN 010055Z 28011G18KT 240V300 10SM FEW040 07/M02 A2992 860 53 100 280/11G18 240V300 RMK AO2
14837KMSN MSN20031130190010211/30/03 19:00:31  5-MIN KMSN 010100Z 28011G16KT 10SM FEW040 07/M02 A2993 860 55 100 280/11G16 RMK AO2
14837KMSN MSN20031130190510011/30/03 19:05:31  5-MIN KMSN 010105Z 29014G20KT 10SM FEW040 06/M02 A2993 860 55 0 290/14G20 RMK AO2
14837KMSN MSN20031130191010011/30/03 19:10:31  5-MIN KMSN 010110Z 30010G20KT 10SM FEW040 06/M03 A2993 860 53 0 300/10G20 RMK AO2
14837KMSN MSN20031130191510011/30/03 19:15:31  5-MIN KMSN 010115Z 29010G18KT 10SM FEW040 06/M03 A2993 860 53 0 290/10G18 RMK AO2
14837KMSN MSN20031130192009411/30/03 19:20:31  5-MIN KMSN 010120Z 28007KT 10SM FEW040 06/M03 A2993 860 53 0 280/07 RMK AO2
14837KMSN MSN20031130192509411/30/03 19:25:31  5-MIN KMSN 010125Z 28007KT 10SM FEW040 06/M03 A2993 850 55 0 280/07 RMK AO2
14837KMSN MSN20031130193011611/30/03 19:30:31  5-MIN KMSN 010130Z 28009G15KT 240V310 10SM FEW040 06/M02 A2993 850 57 0 270/09G15 240V310 RMK AO2
14837KMSN MSN20031130193510011/30/03 19:35:31  5-MIN KMSN 010135Z 28008G16KT 10SM FEW040 06/M02 A2994 850 57 0 280/08G16 RMK AO2
14837KMSN MSN20031130194010011/30/03 19:40:31  5-MIN KMSN 010140Z 29013G18KT 10SM FEW040 06/M02 A2994 840 57 0 290/13G18 RMK AO2
14837KMSN MSN20031130194510011/30/03 19:45:31  5-MIN KMSN 010145Z 28011G18KT 10SM FEW040 06/M02 A2995 840 57 0 280/11G18 RMK AO2
14837KMSN MSN20031130195011711/30/03 19:50:31  5-MIN KMSN 010150Z 29013G19KT 10SM FEW035 06/M03 A2995 830 55 0 290/13G19 RMK AO2 SLP150 T00561028
14837KMSN MSN20031130195510011/30/03 19:55:31  5-MIN KMSN 010155Z 29016G23KT 10SM FEW035 06/M03 A2996 830 53 0 280/16G23 RMK AO2
14837KMSN MSN20031130200010011/30/03 20:00:31  5-MIN KMSN 010200Z 30020G25KT 10SM FEW035 06/M04 A2996 830 48 0 300/20G25 RMK AO2
14837KMSN MSN20031130200510311/30/03 20:05:31  5-MIN KMSN 010205Z 29014G25KT 10SM FEW035 05/M04 A2997 820 50 -100 290/14G25 RMK AO2
14837KMSN MSN20031130201010311/30/03 20:10:31  5-MIN KMSN 010210Z 29015G21KT 10SM FEW043 05/M04 A2997 820 50 -100 290/15G21 RMK AO2
14837KMSN MSN20031130201511911/30/03 20:15:31  5-MIN KMSN 010215Z 28014G21KT 240V310 10SM FEW043 04/M04 A2997 820 55 -200 280/14G21 240V310 RMK AO2
14837KMSN MSN20031130202010311/30/03 20:20:31  5-MIN KMSN 010220Z 28013G20KT 10SM FEW043 04/M04 A2998 810 52 -200 280/13G20 RMK AO2
14837KMSN MSN20031130202512111/30/03 20:25:31  5-MIN KMSN 010225Z 29022G28KT 10SM FEW043 04/M04 A2998 810 52 -200 290/22G28 RMK AO2 PK WND 28028/0224
14837KMSN MSN20031130203012111/30/03 20:30:31  5-MIN KMSN 010230Z 29017G31KT 10SM FEW043 04/M06 A2998 810 48 -200 290/17G31 RMK AO2 PK WND 27031/0227
14837KMSN MSN20031130203512111/30/03 20:35:31  5-MIN KMSN 010235Z 28011G31KT 10SM FEW043 04/M06 A2998 800 46 -200 280/11G31 RMK AO2 PK WND 27031/0227
14837KMSN MSN20031130204012111/30/03 20:40:31  5-MIN KMSN 010240Z 29013G26KT 10SM FEW043 04/M06 A2998 810 48 -300 290/13G26 RMK AO2 PK WND 27031/0227
14837KMSN MSN20031130204512111/30/03 20:45:31  5-MIN KMSN 010245Z 29013G26KT 10SM FEW043 04/M06 A2999 800 48 -300 290/13G26 RMK AO2 PK WND 27031/0227
14837KMSN MSN20031130205014111/30/03 20:50:31  5-MIN KMSN 010250Z 29013G24KT 10SM CLR 04/M06 A2999 800 48 -300 290/13G24 RMK AO2 PK WND 27031/0227 SLP164 T00391061 53049
14837KMSN MSN20031130205510011/30/03 20:55:31  5-MIN KMSN 010255Z 28013G26KT 10SM CLR 04/M07 A3000 790 46 -300 280/13G26 RMK AO2
14837KMSN MSN20031130210010011/30/03 21:00:31  5-MIN KMSN 010300Z 29014G26KT 10SM CLR 04/M07 A3000 790 46 -300 290/14G26 RMK AO2
14837KMSN MSN20031130210510011/30/03 21:05:31  5-MIN KMSN 010305Z 29013G22KT 10SM CLR 03/M07 A3001 790 48 -300 290/13G22 RMK AO2
14837KMSN MSN20031130211011811/30/03 21:10:31  5-MIN KMSN 010310Z 29018G26KT 10SM CLR 04/M07 A3001 780 44 -300 290/18G26 RMK AO2 PK WND 29026/0309
14837KMSN MSN20031130211511811/30/03 21:15:31  5-MIN KMSN 010315Z 29018G26KT 10SM CLR 03/M07 A3002 780 46 -400 290/18G26 RMK AO2 PK WND 29026/0309
14837KMSN MSN20031130212011811/30/03 21:20:31  5-MIN KMSN 010320Z 29012G24KT 10SM CLR 03/M08 A3002 770 44 -400 290/12G24 RMK AO2 PK WND 29026/0309
14837KMSN MSN20031130212511811/30/03 21:25:31  5-MIN KMSN 010325Z 29015G24KT 10SM CLR 03/M08 A3002 770 44 -400 290/15G24 RMK AO2 PK WND 29026/0309
14837KMSN MSN20031130213011811/30/03 21:30:31  5-MIN KMSN 010330Z 29014G23KT 10SM CLR 03/M08 A3002 770 44 -400 290/14G23 RMK AO2 PK WND 29026/0309
14837KMSN MSN20031130213511811/30/03 21:35:31  5-MIN KMSN 010335Z 29013G23KT 10SM CLR 03/M08 A3002 770 44 -400 290/13G23 RMK AO2 PK WND 29026/0309
14837KMSN MSN20031130214011811/30/03 21:40:31  5-MIN KMSN 010340Z 29014G23KT 10SM CLR 03/M08 A3002 770 44 -400 280/14G23 RMK AO2 PK WND 29026/0309
14837KMSN MSN20031130214512111/30/03 21:45:31  5-MIN KMSN 010345Z 29015G23KT 10SM FEW040 03/M07 A3003 770 46 -400 290/15G23 RMK AO2 PK WND 29026/0309
14837KMSN MSN20031130215013811/30/03 21:50:31  5-MIN KMSN 010350Z 29012G21KT 10SM FEW040 03/M07 A3003 770 46 -400 280/12G21 RMK AO2 PK WND 29026/0309 SLP175 T00331072
14837KMSN MSN20031130215510311/30/03 21:55:31  5-MIN KMSN 010355Z 29014G21KT 10SM FEW040 03/M07 A3003 760 48 -500 290/14G21 RMK AO2
14837KMSN MSN20031130220011911/30/03 22:00:31  5-MIN KMSN 010400Z 28009G21KT 250V310 10SM FEW040 03/M07 A3004 760 48 -500 280/09G21 250V310 RMK AO2
14837KMSN MSN20031130220510311/30/03 22:05:31  5-MIN KMSN 010405Z 28011G17KT 10SM FEW040 03/M07 A3004 760 50 -500 280/11G17 RMK AO2
14837KMSN MSN20031130221010311/30/03 22:10:31  5-MIN KMSN 010410Z 29011G20KT 10SM FEW040 03/M07 A3004 750 50 -500 280/11G20 RMK AO2
14837KMSN MSN20031130221510311/30/03 22:15:31  5-MIN KMSN 010415Z 29013G20KT 10SM FEW040 03/M07 A3005 750 48 -500 290/13G20 RMK AO2
14837KMSN MSN20031130222010311/30/03 22:20:31  5-MIN KMSN 010420Z 29013G24KT 10SM FEW040 03/M07 A3005 750 48 -500 290/13G24 RMK AO2
14837KMSN MSN20031130222510311/30/03 22:25:31  5-MIN KMSN 010425Z 29012G24KT 10SM FEW040 02/M08 A3005 740 47 -500 290/12G24 RMK AO2
14837KMSN MSN20031130223010311/30/03 22:30:31  5-MIN KMSN 010430Z 29013G20KT 10SM FEW040 02/M08 A3005 740 47 -500 290/13G20 RMK AO2
14837KMSN MSN20031130223512111/30/03 22:35:31  5-MIN KMSN 010435Z 29019G29KT 10SM FEW040 02/M08 A3006 730 45 -600 290/19G29 RMK AO2 PK WND 28029/0434
14837KMSN MSN20031130224012111/30/03 22:40:31  5-MIN KMSN 010440Z 29012G29KT 10SM FEW040 02/M08 A3006 730 45 -600 290/12G29 RMK AO2 PK WND 28029/0434
14837KMSN MSN20031130224512111/30/03 22:45:31  5-MIN KMSN 010445Z 29013G22KT 10SM FEW040 02/M08 A3007 730 45 -600 290/13G22 RMK AO2 PK WND 28029/0434
14837KMSN MSN20031130225013811/30/03 22:50:31  5-MIN KMSN 010450Z 29011G25KT 10SM FEW040 02/M08 A3007 730 45 -600 290/11G25 RMK AO2 PK WND 28029/0434 SLP188 T00221083
14837KMSN MSN20031130225510311/30/03 22:55:31  5-MIN KMSN 010455Z 29011G25KT 10SM FEW040 02/M08 A3007 720 45 -600 290/11G25 RMK AO2
14837KMSN MSN20031130230010311/30/03 23:00:31  5-MIN KMSN 010500Z 30017G22KT 10SM FEW040 02/M08 A3008 720 45 -600 300/17G22 RMK AO2
14837KMSN MSN20031130230510311/30/03 23:05:31  5-MIN KMSN 010505Z 29012G21KT 10SM FEW040 02/M08 A3008 720 45 -600 290/12G21 RMK AO2
14837KMSN MSN20031130231010311/30/03 23:10:31  5-MIN KMSN 010510Z 29012G17KT 10SM FEW040 02/M08 A3008 720 47 -600 290/12G17 RMK AO2
14837KMSN MSN20031130231509711/30/03 23:15:31  5-MIN KMSN 010515Z 29012KT 10SM FEW040 02/M09 A3008 710 45 -600 290/12 RMK AO2
14837KMSN MSN20031130232010311/30/03 23:20:31  5-MIN KMSN 010520Z 31010G17KT 10SM FEW040 02/M09 A3009 710 43 -700 310/10G17 RMK AO2
14837KMSN MSN20031130232510311/30/03 23:25:31  5-MIN KMSN 010525Z 30010G19KT 10SM FEW040 02/M09 A3009 710 43 -700 300/10G19 RMK AO2
14837KMSN MSN20031130233010311/30/03 23:30:31  5-MIN KMSN 010530Z 30015G24KT 10SM FEW040 02/M10 A3009 700 42 -700 300/15G24 RMK AO2
14837KMSN MSN20031130233510311/30/03 23:35:31  5-MIN KMSN 010535Z 30016G24KT 10SM FEW040 02/M10 A3010 700 42 -700 300/16G24 RMK AO2
14837KMSN MSN20031130234012111/30/03 23:40:31  5-MIN KMSN 010540Z 30019G27KT 10SM FEW040 02/M10 A3010 700 42 -700 300/19G27 RMK AO2 PK WND 30027/0538
14837KMSN MSN20031130234512111/30/03 23:45:31  5-MIN KMSN 010545Z 30015G27KT 10SM FEW040 01/M10 A3010 700 43 -700 300/15G27 RMK AO2 PK WND 30027/0538
14837KMSN MSN20031130235016611/30/03 23:50:31  5-MIN KMSN 010550Z 30014G26KT 10SM FEW040 02/M10 A3011 690 42 -700 300/14G26 RMK AO2 PK WND 30027/0538 SLP202 T00171100 10083 20011 401441022 51042
14837KMSN MSN20031130235511911/30/03 23:55:31  5-MIN KMSN 010555Z 31016G26KT 280V340 10SM FEW040 01/M10 A3011 690 43 -700 310/16G26 280V340 RMK AO2
