14837KMSN MSN20010801102509208/01/01 10:25:31  5-MIN KMSN 011625Z 17011KT 7SM CLR 29/24 A3015 650 71 2500 170/11 RMK AO2
14837KMSN MSN20010801103009208/01/01 10:30:31  5-MIN KMSN 011630Z 17012KT 7SM CLR 29/24 A3015 650 71 2500 170/12 RMK AO2
14837KMSN MSN20010801103509208/01/01 10:35:31  5-MIN KMSN 011635Z 17011KT 7SM CLR 29/24 A3015 650 71 2500 170/11 RMK AO2
14837KMSN MSN20010801104009208/01/01 10:40:31  5-MIN KMSN 011640Z 18011KT 7SM CLR 29/24 A3015 650 71 2500 180/11 RMK AO2
14837KMSN MSN20010801104509208/01/01 10:45:31  5-MIN KMSN 011645Z 18010KT 7SM CLR 29/24 A3015 650 71 2500 180/10 RMK AO2
14837KMSN MSN20010801105010908/01/01 10:50:31  5-MIN KMSN 011650Z 17011KT 7SM CLR 29/24 A3015 660 71 2500 170/11 RMK AO2 SLP201 T02940239
14837KMSN MSN20010801105509208/01/01 10:55:31  5-MIN KMSN 011655Z 18010KT 7SM CLR 30/24 A3014 660 69 2600 180/10 RMK AO2
14837KMSN MSN20010801110009208/01/01 11:00:31  5-MIN KMSN 011700Z 17011KT 7SM CLR 30/24 A3014 660 72 2600 170/11 RMK AO2
14837KMSN MSN20010801110509208/01/01 11:05:31  5-MIN KMSN 011705Z 17010KT 7SM CLR 30/24 A3014 660 72 2600 170/10 RMK AO2
14837KMSN MSN20010801111009208/01/01 11:10:31  5-MIN KMSN 011710Z 18011KT 7SM CLR 30/24 A3014 660 72 2600 170/11 RMK AO2
14837KMSN MSN20010801111509208/01/01 11:15:31  5-MIN KMSN 011715Z 18009KT 7SM CLR 30/24 A3014 660 72 2600 180/09 RMK AO2
14837KMSN MSN20010801112009208/01/01 11:20:31  5-MIN KMSN 011720Z 19009KT 7SM CLR 31/24 A3014 660 69 2600 190/09 RMK AO2
14837KMSN MSN20010801112509808/01/01 11:25:31  5-MIN KMSN 011725Z 19010G14KT 7SM CLR 31/24 A3014 660 69 2600 180/10G14 RMK AO2
14837KMSN MSN20010801113009808/01/01 11:30:31  5-MIN KMSN 011730Z 19011G14KT 7SM CLR 31/24 A3014 660 67 2600 190/11G14 RMK AO2
14837KMSN MSN20010801113509208/01/01 11:35:31  5-MIN KMSN 011735Z 17010KT 7SM CLR 31/24 A3014 660 69 2600 170/10 RMK AO2
14837KMSN MSN20010801114009208/01/01 11:40:31  5-MIN KMSN 011740Z 19007KT 7SM CLR 31/24 A3014 660 67 2700 190/07 RMK AO2
14837KMSN MSN20010801114509208/01/01 11:45:31  5-MIN KMSN 011745Z 19010KT 7SM CLR 31/24 A3014 660 67 2700 190/10 RMK AO2
14837KMSN MSN20010801115012708/01/01 11:50:31  5-MIN KMSN 011750Z 19010KT 8SM CLR 32/24 A3014 660 65 2700 190/10 RMK AO2 SLP200 T03170244 10317 20239 50008
14837KMSN MSN20010801115509208/01/01 11:55:31  5-MIN KMSN 011755Z 18010KT 9SM CLR 32/24 A3014 660 65 2700 180/10 RMK AO2
14837KMSN MSN20010801120009208/01/01 12:00:31  5-MIN KMSN 011800Z 20008KT 9SM CLR 32/24 A3014 660 63 2800 200/08 RMK AO2
14837KMSN MSN20010801120509908/01/01 12:05:31  5-MIN KMSN 011805Z 21010G15KT 10SM CLR 31/24 A3014 660 65 2700 200/10G15 RMK AO2
14837KMSN MSN20010801121009908/01/01 12:10:31  5-MIN KMSN 011810Z 21009G15KT 10SM CLR 32/24 A3014 660 63 2800 200/09G15 RMK AO2
14837KMSN MSN20010801121509308/01/01 12:15:31  5-MIN KMSN 011815Z 19009KT 10SM CLR 31/24 A3014 660 65 2700 190/09 RMK AO2
14837KMSN MSN20010801122009308/01/01 12:20:31  5-MIN KMSN 011820Z 18011KT 10SM CLR 32/24 A3013 670 63 2800 180/11 RMK AO2
14837KMSN MSN20010801122509308/01/01 12:25:31  5-MIN KMSN 011825Z 18013KT 10SM CLR 32/24 A3013 670 65 2800 180/13 RMK AO2
14837KMSN MSN20010801123009308/01/01 12:30:31  5-MIN KMSN 011830Z 17013KT 10SM CLR 32/24 A3013 670 63 2800 170/13 RMK AO2
14837KMSN MSN20010801123509308/01/01 12:35:31  5-MIN KMSN 011835Z 18013KT 10SM CLR 32/24 A3013 670 63 2800 180/13 RMK AO2
14837KMSN MSN20010801124009308/01/01 12:40:31  5-MIN KMSN 011840Z 17013KT 10SM CLR 32/24 A3013 670 63 2800 170/13 RMK AO2
14837KMSN MSN20010801124509308/01/01 12:45:31  5-MIN KMSN 011845Z 18013KT 10SM CLR 32/24 A3013 680 63 2800 180/13 RMK AO2
14837KMSN MSN20010801125011008/01/01 12:50:31  5-MIN KMSN 011850Z 17016KT 10SM CLR 32/24 A3013 680 63 2800 170/16 RMK AO2 SLP193 T03220244
14837KMSN MSN20010801125509908/01/01 12:55:31  5-MIN KMSN 011855Z 18013G19KT 10SM CLR 33/24 A3012 680 61 2900 180/13G19 RMK AO2
14837KMSN MSN20010801130009308/01/01 13:00:31  5-MIN KMSN 011900Z 19010KT 10SM CLR 32/24 A3012 680 63 2800 190/10 RMK AO2
14837KMSN MSN20010801130510208/01/01 13:05:31  5-MIN KMSN 011905Z 17013G18KT 10SM FEW030 32/24 A3012 680 63 2800 170/13G18 RMK AO2
14837KMSN MSN20010801131010208/01/01 13:10:31  5-MIN KMSN 011910Z 18011G18KT 10SM FEW030 32/24 A3012 680 61 2800 180/11G18 RMK AO2
14837KMSN MSN20010801131509608/01/01 13:15:31  5-MIN KMSN 011915Z 18013KT 10SM FEW030 33/24 A3012 680 61 2900 180/13 RMK AO2
14837KMSN MSN20010801132009608/01/01 13:20:31  5-MIN KMSN 011920Z 18011KT 10SM FEW030 33/24 A3012 680 61 2900 180/11 RMK AO2
14837KMSN MSN20010801132509308/01/01 13:25:31  5-MIN KMSN 011925Z 19012KT 10SM CLR 33/24 A3012 680 61 2900 190/12 RMK AO2
14837KMSN MSN20010801133009308/01/01 13:30:31  5-MIN KMSN 011930Z 18014KT 10SM CLR 33/24 A3012 680 61 2900 180/14 RMK AO2
14837KMSN MSN20010801133509308/01/01 13:35:31  5-MIN KMSN 011935Z 18010KT 10SM CLR 33/24 A3012 680 61 2900 180/10 RMK AO2
14837KMSN MSN20010801134009308/01/01 13:40:31  5-MIN KMSN 011940Z 18014KT 10SM CLR 33/24 A3012 680 61 2900 180/14 RMK AO2
14837KMSN MSN20010801134509908/01/01 13:45:31  5-MIN KMSN 011945Z 19013G16KT 10SM CLR 33/24 A3012 680 61 2900 190/13G16 RMK AO2
14837KMSN MSN20010801135011908/01/01 13:50:31  5-MIN KMSN 011950Z 19012G17KT 10SM FEW035 33/24 A3012 680 61 2900 190/12G17 RMK AO2 SLP191 T03280244
14837KMSN MSN20010801135509908/01/01 13:55:31  5-MIN KMSN 011955Z 18012G17KT 10SM CLR 33/24 A3012 680 59 2900 180/12G17 RMK AO2
14837KMSN MSN20010801140010308/01/01 14:00:31  5-MIN KMSN 012000Z 19011KT 10SM FEW035 SCT095 33/24 A3012 680 59 2900 190/11 RMK AO2
14837KMSN MSN20010801140510308/01/01 14:05:31  5-MIN KMSN 012005Z 19007KT 10SM FEW035 SCT095 33/24 A3012 680 59 2900 190/07 RMK AO2
14837KMSN MSN20010801141010908/01/01 14:10:31  5-MIN KMSN 012010Z 18011G14KT 10SM SCT035 BKN065 32/24 A3012 680 63 2800 180/11G14 RMK AO2
14837KMSN MSN20010801141510908/01/01 14:15:31  5-MIN KMSN 012015Z 19010G16KT 10SM SCT035 BKN065 32/24 A3012 680 61 2800 190/10G16 RMK AO2
14837KMSN MSN20010801142010308/01/01 14:20:31  5-MIN KMSN 012020Z 19010KT 10SM SCT035 SCT065 32/24 A3012 680 61 2800 190/10 RMK AO2
14837KMSN MSN20010801142510908/01/01 14:25:31  5-MIN KMSN 012025Z 19011G17KT 10SM SCT035 SCT065 32/24 A3012 680 61 2800 190/11G17 RMK AO2
14837KMSN MSN20010801143010908/01/01 14:30:31  5-MIN KMSN 012030Z 19009G17KT 10SM SCT042 BKN070 32/24 A3011 680 61 2800 190/09G17 RMK AO2
14837KMSN MSN20010801143510308/01/01 14:35:31  5-MIN KMSN 012035Z 18010KT 10SM SCT042 SCT070 32/24 A3011 680 63 2800 180/10 RMK AO2
14837KMSN MSN20010801144010308/01/01 14:40:31  5-MIN KMSN 012040Z 18011KT 10SM SCT042 SCT070 32/24 A3011 690 63 2800 180/11 RMK AO2
14837KMSN MSN20010801144509608/01/01 14:45:31  5-MIN KMSN 012045Z 19011KT 10SM SCT042 32/24 A3011 690 61 2800 180/11 RMK AO2
14837KMSN MSN20010801145011908/01/01 14:50:31  5-MIN KMSN 012050Z 19010KT 10SM SCT042 32/24 A3011 690 63 2800 190/10 RMK AO2 SLP189 T03220244 56007
14837KMSN MSN20010801145509608/01/01 14:55:31  5-MIN KMSN 012055Z 18011KT 10SM SCT040 32/24 A3011 690 61 2800 180/11 RMK AO2
14837KMSN MSN20010801150010208/01/01 15:00:31  5-MIN KMSN 012100Z 21008G16KT 10SM SCT040 32/24 A3011 690 63 2800 210/08G16 RMK AO2
14837KMSN MSN20010801150509608/01/01 15:05:31  5-MIN KMSN 012105Z 21009KT 10SM SCT040 32/24 A3011 690 61 2800 210/09 RMK AO2
14837KMSN MSN20010801151010208/01/01 15:10:31  5-MIN KMSN 012110Z 20008G15KT 10SM FEW040 32/24 A3011 690 61 2800 200/08G15 RMK AO2
14837KMSN MSN20010801151510208/01/01 15:15:31  5-MIN KMSN 012115Z 21006G15KT 10SM FEW040 33/24 A3011 690 61 2900 210/06G15 RMK AO2
14837KMSN MSN20010801152009608/01/01 15:20:31  5-MIN KMSN 012120Z 20009KT 10SM FEW040 33/24 A3011 690 61 2900 190/09 RMK AO2
14837KMSN MSN20010801152509608/01/01 15:25:31  5-MIN KMSN 012125Z 19012KT 10SM FEW040 32/24 A3011 690 63 2900 190/12 RMK AO2
14837KMSN MSN20010801153009608/01/01 15:30:31  5-MIN KMSN 012130Z 20008KT 10SM FEW040 32/24 A3010 700 63 2900 200/08 RMK AO2
14837KMSN MSN20010801153510208/01/01 15:35:31  5-MIN KMSN 012135Z 19014G18KT 10SM FEW040 32/24 A3010 700 63 2900 190/14G18 RMK AO2
14837KMSN MSN20010801154011808/01/01 15:40:31  5-MIN KMSN 012140Z 20009G18KT 180V240 10SM FEW040 33/24 A3009 710 61 2900 200/09G18 180V240 RMK AO2
14837KMSN MSN20010801154510208/01/01 15:45:31  5-MIN KMSN 012145Z 18014G18KT 10SM FEW040 32/24 A3009 710 61 2900 180/14G18 RMK AO2
14837KMSN MSN20010801155011908/01/01 15:50:31  5-MIN KMSN 012150Z 22010G18KT 10SM FEW040 32/24 A3009 710 63 2900 220/10G18 RMK AO2 SLP183 T03220244
14837KMSN MSN20010801155510208/01/01 15:55:31  5-MIN KMSN 012155Z 20011G17KT 10SM FEW040 32/24 A3010 700 63 2900 190/11G17 RMK AO2
14837KMSN MSN20010801160010208/01/01 16:00:31  5-MIN KMSN 012200Z 21011G17KT 10SM FEW040 32/24 A3011 690 61 2800 200/11G17 RMK AO2
14837KMSN MSN20010801160509608/01/01 16:05:31  5-MIN KMSN 012205Z 20011KT 10SM FEW040 32/24 A3011 690 63 2800 200/11 RMK AO2
14837KMSN MSN20010801161010208/01/01 16:10:31  5-MIN KMSN 012210Z 20012G17KT 10SM SCT036 32/24 A3011 690 61 2900 200/12G17 RMK AO2
14837KMSN MSN20010801161510208/01/01 16:15:31  5-MIN KMSN 012215Z 20010G17KT 10SM SCT036 32/24 A3011 690 61 2800 200/10G17 RMK AO2
14837KMSN MSN20010801162010208/01/01 16:20:31  5-MIN KMSN 012220Z 20009G17KT 10SM SCT036 32/24 A3011 690 65 2800 200/09G17 RMK AO2
14837KMSN MSN20010801162509608/01/01 16:25:31  5-MIN KMSN 012225Z 21010KT 10SM SCT036 32/24 A3012 680 65 2800 210/10 RMK AO2
14837KMSN MSN20010801163010308/01/01 16:30:31  5-MIN KMSN 012230Z 20010KT 10SM FEW036 BKN070 32/24 A3011 690 63 2800 200/10 RMK AO2
14837KMSN MSN20010801163510908/01/01 16:35:31  5-MIN KMSN 012235Z 19013G18KT 10SM SCT036 BKN075 32/24 A3011 690 63 2800 190/13G18 RMK AO2
14837KMSN MSN20010801164010908/01/01 16:40:31  5-MIN KMSN 012240Z 20008G18KT 10SM FEW038 BKN075 32/24 A3011 690 63 2800 200/08G18 RMK AO2
14837KMSN MSN20010801164510308/01/01 16:45:31  5-MIN KMSN 012245Z 17008KT 10SM FEW038 BKN070 32/24 A3012 680 63 2800 170/08 RMK AO2
14837KMSN MSN20010801165012008/01/01 16:50:31  5-MIN KMSN 012250Z 16006KT 10SM SCT038 BKN070 31/24 A3013 670 67 2700 160/06 RMK AO2 SLP195 T03110244
14837KMSN MSN20010801165512608/01/01 16:55:31  5-MIN KMSN 012255Z 19007KT 170V230 10SM BKN038 BKN070 31/24 A3014 660 67 2700 190/07 170V230 RMK AO2 PRESRR
14837KMSN MSN20010801170011708/01/01 17:00:31  5-MIN KMSN 012300Z VRB04KT 10SM BKN036 BKN043 BKN070 31/24 A3016 650 67 2700 VRB/04 RMK AO2 PRESRR
14837KMSN MSN20010801170512908/01/01 17:05:31  5-MIN KMSN 012305Z 35010KT 10SM BKN036 BKN070 30/24 A3018 630 72 2500 350/10 RMK AO2 PRESRR OCNL LTGIC DSNT NW
14837KMSN MSN20010801171016508/01/01 17:10:31  5-MIN KMSN 012310Z 32017G23KT 10SM TS FEW021 BKN036 OVC070 27/22 A3018 620 74 2200 320/17G23 RMK AO2 TSB10 PRESRR OCNL LTGICCA VC N TS VC N MOV SE
14837KMSN MSN20010801171516908/01/01 17:15:31  5-MIN KMSN 012315Z 33021G30KT 10SM TS FEW021 OVC036 24/21 A3018 630 78 1900 330/21G30 RMK AO2 PK WND 33030/2311 TSB10 OCNL LTGICCA VC N TS VC N MOV SE
14837KMSN MSN20010801172019808/01/01 17:20:31  5-MIN KMSN 012320Z 33020G30KT 9SM -TSRA FEW021 BKN036 OVC045 23/21 A3018 620 84 1800 330/20G30 RMK AO2 PK WND 33030/2311 WSHFT 2305 TSB10RAB17 OCNL LTGICCA OHD TS OHD MOV SE P0000
14837KMSN MSN20010801172521708/01/01 17:25:31  5-MIN KMSN 012325Z 32013G26KT 290V350 3SM -TSRA BR FEW021 BKN036 OVC060 22/21 A3019 610 90 1600 320/13G26 290V350 RMK AO2 PK WND 33030/2311 WSHFT 2305 TSB10RAB17 OCNL LTGICCA OHD TS OHD MOV SE P0001
14837KMSN MSN20010801173021008/01/01 17:30:31  5-MIN KMSN 012330Z 33010KT 300V010 3SM TSRA BR FEW021 BKN036 OVC060 22/21 A3019 610 90 1600 330/10 300V010 RMK AO2 PK WND 33030/2311 WSHFT 2305 TSB10RAB17 OCNL LTGICCA OHD TS OHD MOV SE P0001
14837KMSN MSN20010801173521508/01/01 17:35:31  5-MIN KMSN 012335Z VRB05G17KT 1SM +TSRA BR FEW008 BKN036 OVC065 22/22 A3021 590 97 1600 VRB/05G17 RMK AO2 PK WND 33030/2311 WSHFT 2305 SFC VIS 1 1/2 TSB10RAB17 OCNL LTGICCA OHD TS OHD MOV SE P0004
14837KMSN MSN20010801174020208/01/01 17:40:31  5-MIN KMSN 012340Z VRB05G17KT 1SM +TSRA BR SCT009 BKN036 OVC060 22/22 A3022 590 97 1600 VRB/05G17 RMK AO2 PK WND 33030/2311 WSHFT 2305 TSB10RAB17 FRQ LTGICCACG OHD TS OHD MOV SE P0013
14837KMSN MSN20010801174519808/01/01 17:45:31  5-MIN KMSN 012345Z 11007KT 1/2SM +TSRA FG BKN007 BKN035 OVC065 22/22 A3018 620 97 1600 100/07 RMK AO2 PK WND 33030/2311 WSHFT 2305 TSB10RAB17 FRQ LTGICCACG OHD TS OHD MOV SE P0033
14837KMSN MSN20010801175024408/01/01 17:50:31  5-MIN KMSN 012350Z 35008KT 1SM +TSRA BR BKN007 BKN035 OVC060 22/22 A3017 640 97 1700 350/08 RMK AO2 PK WND 33030/2311 WSHFT 2305 TSB10RAB17 PRESFR SLP211 FRQ LTGICCACG OHD TS OHD MOV SE P0041 60041 T02220217 10328 20222 56012
14837KMSN MSN20010801175516408/01/01 17:55:31  5-MIN KMSN 012355Z 06007KT 1SM +TSRA BR FEW006 BKN013 OVC065 22/22 A3016 640 97 1700 060/07 RMK AO2 PRESFR CONS LTGICCACG OHD TS OHD MOV SE P0001
14837KMSN MSN20010801180014908/01/01 18:00:31  5-MIN KMSN 020000Z 00000KT 3SM TSRA BR FEW006 OVC018 22/22 A3016 640 97 1700 000/00 RMK AO2 CONS LTGICCACG OHD TS OHD MOV SE P0002
14837KMSN MSN20010801180514808/01/01 18:05:31  5-MIN KMSN 020005Z 26005KT 3SM TSRA BR FEW006 OVC020 22/22 A3017 630 97 1700 260/05 RMK AO2 FRQ LTGICCACG OHD TS OHD MOV SE P0003
14837KMSN MSN20010801181014808/01/01 18:10:31  5-MIN KMSN 020010Z 24005KT 3SM TSRA BR FEW004 OVC024 22/22 A3017 630 97 1700 240/05 RMK AO2 FRQ LTGICCACG OHD TS OHD MOV SE P0005
14837KMSN MSN20010801181514108/01/01 18:15:31  5-MIN KMSN 020015Z 21005KT 3SM TSRA BR OVC026 22/22 A3018 630 97 1700 210/05 RMK AO2 FRQ LTGICCACG OHD TS OHD MOV SE P0006
14837KMSN MSN20010801182014208/01/01 18:20:31  5-MIN KMSN 020020Z 18008KT 3SM TSRA BR OVC028 23/22 A3018 630 93 1700 180/08 RMK AO2 CONS LTGICCACG OHD TS OHD MOV SE P0007
14837KMSN MSN20010801182514208/01/01 18:25:31  5-MIN KMSN 020025Z 21005KT 3SM TSRA BR OVC028 23/22 A3016 640 93 1700 210/05 RMK AO2 CONS LTGICCACG OHD TS OHD MOV SE P0009
14837KMSN MSN20010801183014208/01/01 18:30:31  5-MIN KMSN 020030Z 19006KT 3SM TSRA BR OVC032 22/22 A3015 650 97 1700 190/06 RMK AO2 CONS LTGICCACG OHD TS OHD MOV SE P0010
14837KMSN MSN20010801183514308/01/01 18:35:31  5-MIN KMSN 020035Z 21007KT 3SM -TSRA BR OVC032 23/22 A3017 630 93 1700 210/07 RMK AO2 CONS LTGICCACG OHD TS OHD MOV SE P0010
14837KMSN MSN20010801184014308/01/01 18:40:31  5-MIN KMSN 020040Z 20009KT 3SM -TSRA BR OVC032 23/22 A3019 610 93 1700 200/09 RMK AO2 CONS LTGICCACG OHD TS OHD MOV SE P0011
14837KMSN MSN20010801184514208/01/01 18:45:31  5-MIN KMSN 020045Z 19006KT 3SM -TSRA BR OVC036 23/22 A3018 620 93 1700 190/06 RMK AO2 FRQ LTGICCACG OHD TS OHD MOV SE P0011
14837KMSN MSN20010801185016908/01/01 18:50:31  5-MIN KMSN 020050Z 16011KT 3SM -TSRA BR OVC038 23/22 A3017 640 93 1700 160/11 RMK AO2 SFC VIS 4 SLP211 FRQ LTGICCACG OHD TS OHD MOV SE P0012 T02280217
14837KMSN MSN20010801185511808/01/01 18:55:31  5-MIN KMSN 020055Z 19010KT 3SM -TSRA OVC042 23/22 A3018 630 97 1700 190/10 RMK AO2 SFC VIS 10 P0000
14837KMSN MSN20010801190015208/01/01 19:00:31  5-MIN KMSN 020100Z 20005KT 3SM -TSRA BR OVC042 23/22 A3019 620 93 1800 200/05 RMK AO2 SFC VIS 4 FRQ LTGICCACG OHD TS OHD MOV SE P0000
14837KMSN MSN20010801190515108/01/01 19:05:31  5-MIN KMSN 020105Z 19009KT 3SM -TSRA OVC048 23/22 A3018 620 93 1800 190/09 RMK AO2 SFC VIS 7 FRQ LTGICCACGCC OHD TS OHD MOV SE P0000
14837KMSN MSN20010801191015108/01/01 19:10:31  5-MIN KMSN 020110Z 18010KT 3SM -TSRA OVC050 23/22 A3017 630 93 1800 180/10 RMK AO2 SFC VIS 7 FRQ LTGICCACGCC OHD TS OHD MOV SE P0000
14837KMSN MSN20010801191515108/01/01 19:15:31  5-MIN KMSN 020115Z 18008KT 3SM -TSRA OVC050 23/22 A3018 620 93 1800 180/08 RMK AO2 SFC VIS 7 FRQ LTGICCACGCC OHD TS OHD MOV SE P0000
14837KMSN MSN20010801192015208/01/01 19:20:31  5-MIN KMSN 020120Z 17011KT 3SM -TSRA BKN048 23/22 A3017 630 97 1700 170/11 RMK AO2 SFC VIS 10 FRQ LTGICCACGCC OHD TS OHD MOV SE P0000
14837KMSN MSN20010801192515208/01/01 19:25:31  5-MIN KMSN 020125Z 16013KT 3SM -TSRA BKN055 23/22 A3017 640 97 1700 160/13 RMK AO2 SFC VIS 10 FRQ LTGICCACGCC OHD TS OHD MOV SE P0000
14837KMSN MSN20010801193015208/01/01 19:30:31  5-MIN KMSN 020130Z 16013KT 3SM -TSRA BKN065 23/22 A3017 630 93 1700 160/13 RMK AO2 SFC VIS 10 FRQ LTGICCACGCC OHD TS OHD MOV SE P0000
14837KMSN MSN20010801193515208/01/01 19:35:31  5-MIN KMSN 020135Z 18009KT 3SM -TSRA BKN055 23/22 A3018 620 93 1700 180/09 RMK AO2 SFC VIS 10 FRQ LTGICCACGCC OHD TS OHD MOV SE P0000
14837KMSN MSN20010801194015208/01/01 19:40:31  5-MIN KMSN 020140Z 21006KT 3SM -TSRA BKN055 23/22 A3019 620 93 1700 210/06 RMK AO2 SFC VIS 10 FRQ LTGICCACGCC OHD TS OHD MOV SE P0000
14837KMSN MSN20010801194515208/01/01 19:45:31  5-MIN KMSN 020145Z 20008KT 3SM -TSRA SCT060 23/22 A3019 620 93 1700 200/08 RMK AO2 SFC VIS 10 FRQ LTGICCACGCC OHD TS OHD MOV SE P0000
14837KMSN MSN20010801195016908/01/01 19:50:31  5-MIN KMSN 020150Z 20009KT 3SM -TSRA SCT065 23/22 A3020 610 93 1700 200/09 RMK AO2 SFC VIS 10 SLP220 FRQ LTGICCACGCC OHD TS OHD MOV SE P0000 T02280217
14837KMSN MSN20010801195511808/01/01 19:55:31  5-MIN KMSN 020155Z 18009KT 3SM -TSRA FEW060 23/22 A3020 610 93 1800 180/09 RMK AO2 SFC VIS 10 P0000
14837KMSN MSN20010801200015108/01/01 20:00:31  5-MIN KMSN 020200Z 18009KT 3SM -TSRA FEW047 23/22 A3020 610 93 1800 180/09 RMK AO2 SFC VIS 10 OCNL LTGICCACG OHD TS OHD MOV SE P0000
14837KMSN MSN20010801200515108/01/01 20:05:31  5-MIN KMSN 020205Z 20009KT 3SM -TSRA OVC047 23/22 A3020 610 93 1800 200/09 RMK AO2 SFC VIS 10 OCNL LTGICCACG OHD TS OHD MOV SE P0000
14837KMSN MSN20010801201015108/01/01 20:10:31  5-MIN KMSN 020210Z 19010KT 3SM -TSRA OVC047 23/22 A3020 610 93 1800 190/10 RMK AO2 SFC VIS 10 OCNL LTGICCACG OHD TS OHD MOV SE P0000
14837KMSN MSN20010801201515808/01/01 20:15:31  5-MIN KMSN 020215Z 19010KT 3SM -TSRA FEW043 OVC120 23/22 A3020 610 90 1800 190/10 RMK AO2 SFC VIS 10 OCNL LTGICCACG OHD TS OHD MOV SE P0000
14837KMSN MSN20010801202015808/01/01 20:20:31  5-MIN KMSN 020220Z 20006KT 3SM -TSRA FEW043 OVC120 23/22 A3020 600 93 1700 200/06 RMK AO2 SFC VIS 10 OCNL LTGICCACG OHD TS OHD MOV SE P0000
14837KMSN MSN20010801202515808/01/01 20:25:31  5-MIN KMSN 020225Z 19007KT 3SM -TSRA FEW043 OVC120 23/22 A3020 610 93 1700 190/07 RMK AO2 SFC VIS 10 OCNL LTGICCACG OHD TS OHD MOV SE P0000
14837KMSN MSN20010801203014808/01/01 20:30:31  5-MIN KMSN 020230Z 19006KT 10SM -TSRA FEW043 OVC120 23/22 A3019 610 93 1700 190/06 RMK AO2 OCNL LTGICCACG OHD TS OHD MOV SE P0000
14837KMSN MSN20010801203512908/01/01 20:35:31  5-MIN KMSN 020235Z 19005KT 10SM -RA BKN049 BKN070 23/22 A3020 610 93 1700 190/05 RMK AO2 TSE33 TS MOV SE P0000
14837KMSN MSN20010801204012908/01/01 20:40:31  5-MIN KMSN 020240Z 17008KT 10SM -RA BKN045 BKN070 23/22 A3020 610 93 1700 170/08 RMK AO2 TSE33 TS MOV SE P0000
14837KMSN MSN20010801204512908/01/01 20:45:31  5-MIN KMSN 020245Z 17008KT 10SM -RA SCT040 BKN070 23/22 A3019 610 93 1700 170/08 RMK AO2 TSE33 TS MOV SE P0000
14837KMSN MSN20010801205018208/01/01 20:50:31  5-MIN KMSN 020250Z 17008KT 10SM -TSRA FEW038 SCT070 23/22 A3019 610 93 1700 170/08 RMK AO2 TSE33B49 SLP219 OCNL LTGIC OHD TS OHD MOV SE P0000 60012 T02280217 53018
14837KMSN MSN20010801205510808/01/01 20:55:31  5-MIN KMSN 020255Z 18006KT 10SM -TSRA FEW040 23/22 A3020 610 97 1700 180/06 RMK AO2 P0000
14837KMSN MSN20010801210013708/01/01 21:00:31  5-MIN KMSN 020300Z 17007KT 10SM -TSRA BKN037 23/22 A3020 610 97 1700 170/07 RMK AO2 OCNL LTGIC OHD TS OHD MOV SE P0000
14837KMSN MSN20010801210513708/01/01 21:05:31  5-MIN KMSN 020305Z 16007KT 10SM -TSRA BKN037 23/22 A3019 620 97 1700 160/07 RMK AO2 OCNL LTGIC OHD TS OHD MOV SE P0000
14837KMSN MSN20010801211013708/01/01 21:10:31  5-MIN KMSN 020310Z 17009KT 10SM -TSRA BKN037 23/22 A3019 620 97 1700 170/09 RMK AO2 OCNL LTGIC OHD TS OHD MOV SE P0000
14837KMSN MSN20010801211514608/01/01 21:15:31  5-MIN KMSN 020315Z 17010KT 10SM -TSRA SCT005 BKN060 23/22 A3019 620 97 1700 170/10 RMK AO2 OCNL LTGICCA OHD TS OHD MOV SE P0000
14837KMSN MSN20010801212014908/01/01 21:20:31  5-MIN KMSN 020320Z 18008KT 10SM TS SCT005 BKN060 23/22 A3019 620 97 1700 180/08 RMK AO2 RAE20 OCNL LTGICCA OHD TS OHD MOV SE P0000
14837KMSN MSN20010801212514608/01/01 21:25:31  5-MIN KMSN 020325Z 20006KT 10SM -TSRA SCT005 BKN060 23/22 A3020 610 97 1700 200/06 RMK AO2 OCNL LTGICCA OHD TS OHD MOV SE P0000
14837KMSN MSN20010801213014608/01/01 21:30:31  5-MIN KMSN 020330Z 19009KT 10SM -TSRA SCT005 BKN060 23/22 A3020 610 97 1700 190/09 RMK AO2 OCNL LTGICCA OHD TS OHD MOV SE P0000
14837KMSN MSN20010801213514608/01/01 21:35:31  5-MIN KMSN 020335Z 18009KT 10SM -TSRA SCT005 BKN060 23/22 A3019 610 97 1700 180/09 RMK AO2 OCNL LTGICCA OHD TS OHD MOV SE P0000
14837KMSN MSN20010801214014608/01/01 21:40:31  5-MIN KMSN 020340Z 17010KT 10SM -TSRA SCT005 BKN060 23/22 A3018 620 97 1700 170/10 RMK AO2 OCNL LTGICCA OHD TS OHD MOV SE P0000
14837KMSN MSN20010801214514608/01/01 21:45:31  5-MIN KMSN 020345Z 17009KT 10SM -TSRA SCT005 BKN060 23/22 A3018 620 97 1700 170/09 RMK AO2 OCNL LTGICCA OHD TS OHD MOV SE P0000
14837KMSN MSN20010801215016308/01/01 21:50:31  5-MIN KMSN 020350Z 17009KT 10SM -TSRA SCT005 BKN060 23/22 A3018 620 97 1700 170/09 RMK AO2 SLP215 OCNL LTGICCA OHD TS OHD MOV SE P0000 T02280222
14837KMSN MSN20010801215510808/01/01 21:55:31  5-MIN KMSN 020355Z 19010KT 10SM -TSRA FEW095 23/22 A3019 620 93 1700 180/10 RMK AO2 P0000
14837KMSN MSN20010801220014608/01/01 22:00:31  5-MIN KMSN 020400Z 19009KT 10SM -TSRA SCT005 BKN060 23/22 A3019 620 93 1700 190/09 RMK AO2 OCNL LTGICCA OHD TS OHD MOV SE P0000
14837KMSN MSN20010801220514608/01/01 22:05:31  5-MIN KMSN 020405Z 20009KT 10SM -TSRA SCT005 BKN060 23/22 A3019 620 93 1700 190/09 RMK AO2 OCNL LTGICCA OHD TS OHD MOV SE P0000
14837KMSN MSN20010801221014608/01/01 22:10:31  5-MIN KMSN 020410Z 19007KT 10SM -TSRA SCT005 BKN060 23/22 A3018 620 93 1700 190/07 RMK AO2 OCNL LTGICCA OHD TS OHD MOV SE P0000
14837KMSN MSN20010801221514808/01/01 22:15:31  5-MIN KMSN 020415Z 19007KT 10SM TS FEW010 BKN060 23/22 A3018 630 93 1700 190/07 RMK AO2 RAE12 OCNL LTGICCA OHD TS OHD MOV E P0000
14837KMSN MSN20010801222015508/01/01 22:20:31  5-MIN KMSN 020420Z 19012KT 10SM TS FEW010 BKN060 23/22 A3017 640 93 1700 190/12 RMK AO2 RAE12 PRESFR OCNL LTGICCA OHD TS OHD MOV E P0000
14837KMSN MSN20010802004515308/02/01 00:45:31  5-MIN KMSN 020645Z 30005KT 6SM -TSRA BR FEW009 SCT037 OVC090 22/21 A3020 610 93 1600 300/05 RMK AO2 FRQ LTGICCC OHD TS OHD MOV E P0002
14837KMSN MSN20010802005016308/02/01 00:50:31  5-MIN KMSN 020650Z VRB04KT 2SM +TSRA BR SCT018 OVC090 22/21 A3019 610 97 1600 VRB/04 RMK AO2 SLP217 FRQ LTGICCC OHD TS OHD MOV E P0010 T02170211
14837KMSN MSN20010802005513608/02/01 00:55:31  5-MIN KMSN 020655Z 29005KT 1 1/4SM +TSRA BR BKN018 BKN031 OVC090 22/21 A3019 620 97 1600 290/05 RMK AO2 VIS 1V2 P0003
14837KMSN MSN20010802010014408/02/01 01:00:31  5-MIN KMSN 020700Z 29006KT 1 3/4SM +TSRA BR BKN018 BKN032 OVC090 23/21 A3020 610 90 1700 280/06 RMK AO2 VIS 1 1/4V2 1/2 P0006
14837KMSN MSN20010802010512808/02/01 01:05:31  5-MIN KMSN 020705Z VRB04KT 1 3/4SM +TSRA BR BKN015 BKN040 OVC090 22/21 A3019 620 97 1600 VRB/04 RMK AO2 P0011
14837KMSN MSN20010802011012808/02/01 01:10:31  5-MIN KMSN 020710Z VRB04KT 1 1/4SM +TSRA BR BKN013 OVC090 22/21 A3017 640 97 1600 VRB/04 RMK AO2 PRESFR P0019
14837KMSN MSN20010802011514408/02/01 01:15:31  5-MIN KMSN 020715Z 00000KT 1 1/4SM +TSRA BR OVC013 22/21 A3018 620 97 1600 000/00 RMK AO2 CONS LTGICCC OHD TS OHD MOV E P0023
14837KMSN MSN20010802012015108/02/01 01:20:31  5-MIN KMSN 020720Z 30006KT 1 3/4SM +TSRA BR FEW005 OVC013 22/21 A3020 600 97 1600 300/06 RMK AO2 CONS LTGICCC OHD TS OHD MOV E P0025
14837KMSN MSN20010802012516608/02/01 01:25:31  5-MIN KMSN 020725Z 27008KT 240V300 2 1/2SM TSRA BR FEW005 OVC013 22/21 A3019 620 97 1600 270/08 240V300 RMK AO2 CONS LTGICCC OHD TS OHD MOV E P0027
14837KMSN MSN20010802013014808/02/01 01:30:31  5-MIN KMSN 020730Z 26009KT 2SM +TSRA BR FEW005 OVC013 22/22 A3018 630 100 1600 260/09 RMK AO2 CONS LTGICCC OHD TS OHD MOV E P0031
14837KMSN MSN20010802013515308/02/01 01:35:31  5-MIN KMSN 020735Z 24010G15KT 2SM +TSRA BR FEW005 OVC011 22/22 A3017 630 97 1700 240/10G15 RMK AO2 CONS LTGICCC OHD TS OHD MOV E P0042
14837KMSN MSN20010802014015808/02/01 01:40:31  5-MIN KMSN 020740Z 24009KT 1 1/2SM +TSRA BR FEW005 OVC011 22/22 A3016 650 97 1700 240/09 RMK AO2 PRESFR CONS LTGICCC OHD TS OHD MOV E P0051
14837KMSN MSN20010802014516708/02/01 01:45:31  5-MIN KMSN 020745Z 26007KT 160V330 1 1/2SM +TSRA BR FEW005 OVC011 22/22 A3016 650 97 1700 260/07 160V330 RMK AO2 CONS LTGICCC OHD TS OHD MOV E P0059
14837KMSN MSN20010802015016208/02/01 01:50:31  5-MIN KMSN 020750Z 32009G14KT 1SM +TSRA BR VV013 22/21 A3016 640 93 1700 320/09G14 RMK AO2 SLP207 CONS LTGICCC OHD TS OHD MOV E P0064 T02220211
14837KMSN MSN20010802015513208/02/01 01:55:31  5-MIN KMSN 020755Z 29007G14KT 250V330 2SM +TSRA BR OVC014 22/21 A3017 630 93 1600 290/07G14 250V330 RMK AO2 P0002
14837KMSN MSN20010802020015108/02/01 02:00:31  5-MIN KMSN 020800Z 26008KT 1 3/4SM +TSRA BR OVC014 22/21 A3019 620 93 1600 260/08 RMK AO2 PRESRR CONS LTGICCC OHD TS OHD MOV E P0005
14837KMSN MSN20010802020515008/02/01 02:05:31  5-MIN KMSN 020805Z 22007G14KT 1 3/4SM +TSRA BR OVC014 22/20 A3016 640 87 1700 220/07G14 RMK AO2 CONS LTGICCC OHD TS OHD MOV E P0009
14837KMSN MSN20010802021014908/02/01 02:10:31  5-MIN KMSN 020810Z 23004G14KT 2 1/2SM TSRA BR OVC019 22/20 A3015 660 87 1700 230/04G14 RMK AO2 CONS LTGICCC OHD TS OHD MOV E P0010
14837KMSN MSN20010802021515008/02/01 02:15:31  5-MIN KMSN 020815Z 26012G17KT 2 1/2SM +TSRA BR OVC021 22/21 A3018 620 90 1600 260/12G17 RMK AO2 CONS LTGICCC OHD TS OHD MOV E P0013
14837KMSN MSN20010802022015008/02/01 02:20:31  5-MIN KMSN 020820Z 23012G17KT 2 1/2SM +TSRA BR OVC023 23/21 A3020 600 90 1700 230/12G17 RMK AO2 CONS LTGICCC OHD TS OHD MOV E P0016
14837KMSN MSN20010802022516808/02/01 02:25:31  5-MIN KMSN 020825Z 21019G27KT 2 1/2SM +TSRA BR OVC021 23/21 A3019 620 90 1700 210/19G27 RMK AO2 PK WND 21027/0825 CONS LTGICCC OHD TS OHD MOV E P0020
14837KMSN MSN20010802023016808/02/01 02:30:31  5-MIN KMSN 020830Z 22018G27KT 2 1/2SM +TSRA BR OVC017 21/20 A3018 620 93 1500 220/18G27 RMK AO2 PK WND 21027/0825 CONS LTGICCC OHD TS OHD MOV E P0036
14837KMSN MSN20010802023516508/02/01 02:35:31  5-MIN KMSN 020835Z 22013G26KT 3/4SM +TSRA BR VV014 22/19 A3018 630 87 1600 220/13G26 RMK AO2 PK WND 21027/0825 CONS LTGICCC OHD TS OHD MOV E P0051
14837KMSN MSN20010802024016308/02/01 02:40:31  5-MIN KMSN 020840Z 19012G23KT 1SM +TSRA BR VV011 22/19 A3017 630 87 1600 190/12G23 RMK AO2 PK WND 21027/0825 CONS LTGICCC OHD TS OHD MOV E P0061
14837KMSN MSN20010802024516208/02/01 02:45:31  5-MIN KMSN 020845Z 19009KT 1 1/2SM +TSRA BR OVC011 22/19 A3017 640 87 1600 190/09 RMK AO2 PK WND 21027/0825 CONS LTGICCC OHD TS OHD MOV E P0066
14837KMSN MSN20010802025019008/02/01 02:50:31  5-MIN KMSN 020850Z VRB06KT 2 1/2SM TSRA BR OVC011 23/21 A3016 640 87 1700 VRB/06 RMK AO2 PK WND 21027/0825 SLP207 CONS LTGICCC OHD TS OHD MOV E P0067 60147 T02280206 56011
14837KMSN MSN20010802025511708/02/01 02:55:31  5-MIN KMSN 020855Z VRB04KT 5SM -TSRA BR BKN017 BKN060 23/21 A3018 630 90 1700 VRB/04 RMK AO2 P0000
14837KMSN MSN20010802030012808/02/01 03:00:31  5-MIN KMSN 020900Z 35012KT 8SM -TSRA BKN030 BKN060 OVC090 22/21 A3021 600 93 1600 350/12 RMK AO2 PRESRR P0001
14837KMSN MSN20010802030513008/02/01 03:05:31  5-MIN KMSN 020905Z 35016G21KT 6SM -TSRA BR FEW010 BKN032 OVC080 22/21 A3020 610 90 1600 350/16G21 RMK AO2 P0001
14837KMSN MSN20010802031015808/02/01 03:10:31  5-MIN KMSN 020910Z 34010G21KT 4SM TSRA BR SCT010 BKN029 OVC049 23/21 A3019 610 87 1700 340/10G21 RMK AO2 FRQ LTGICCC OHD TS OHD MOV E P0007
14837KMSN MSN20010802031517508/02/01 03:15:31  5-MIN KMSN 020915Z 33015G22KT 1 3/4SM +TSRA BR FEW010 BKN035 OVC090 21/20 A3019 620 93 1500 330/15G22 RMK AO2 WSHFT 0858 CONS LTGICCC OHD TS OHD MOV E P0017
14837KMSN MSN20010802032018408/02/01 03:20:31  5-MIN KMSN 020920Z 35010G22KT 310V020 1 1/4SM +TSRA BR FEW010 BKN025 21/19 A3019 620 87 1500 350/10G22 310V020 RMK AO2 WSHFT 0858 CONS LTGICCC OHD TS OHD MOV E P0029
14837KMSN MSN20010802032517508/02/01 03:25:31  5-MIN KMSN 020925Z 32017G23KT 1 1/2SM +TSRA BR FEW010 BKN019 OVC027 21/19 A3019 610 87 1500 320/17G23 RMK AO2 WSHFT 0858 CONS LTGICCC OHD TS OHD MOV E P0037
14837KMSN MSN20010802033016808/02/01 03:30:31  5-MIN KMSN 020930Z 31012G23KT 1 1/4SM +TSRA BR BKN011 OVC027 21/19 A3019 620 87 1500 310/12G23 RMK AO2 WSHFT 0858 CONS LTGICCC OHD TS OHD MOV E P0051
14837KMSN MSN20010802033516708/02/01 03:35:31  5-MIN KMSN 020935Z 35008KT 3/4SM +TSRA BR FEW001 BKN009 OVC027 21/19 A3020 610 90 1400 350/08 RMK AO2 WSHFT 0858 CONS LTGICCC OHD TS OHD MOV E P0076
14837KMSN MSN20010802034016008/02/01 03:40:31  5-MIN KMSN 020940Z 03008KT 1/2SM +TSRA FG SCT001 OVC007 19/19 A3017 640 97 1300 030/08 RMK AO2 WSHFT 0858 CONS LTGICCC OHD TS OHD MOV E P0101
14837KMSN MSN20010802034516008/02/01 03:45:31  5-MIN KMSN 020945Z 07012KT 3/4SM +TSRA BR SCT001 OVC007 20/19 A3017 630 93 1400 060/12 RMK AO2 WSHFT 0858 CONS LTGICCC OHD TS OHD MOV E P0109
14837KMSN MSN20010802035017708/02/01 03:50:31  5-MIN KMSN 020950Z 10011KT 3/4SM +TSRA BR FEW001 OVC007 21/19 A3017 630 93 1500 100/11 RMK AO2 WSHFT 0858 SLP210 CONS LTGICCC OHD TS OHD MOV E P0135 T02060194
14837KMSN MSN20010802035512708/02/01 03:55:31  5-MIN KMSN 020955Z 09013KT 2 1/2SM TSRA BR FEW001 BKN007 OVC045 21/19 A3016 640 93 1500 090/13 RMK AO2 P0002
14837KMSN MSN20010802040017308/02/01 04:00:31  5-MIN KMSN 021000Z 14006G17KT 2 1/2SM TSRA BR FEW001 BKN009 OVC042 22/20 A3017 640 90 1600 140/06G17 RMK AO2 WSHFT 0944 FRQ LTGICCC OHD TS OHD MOV E P0003
14837KMSN MSN20010802040516708/02/01 04:05:31  5-MIN KMSN 021005Z 00000KT 2 1/2SM TSRA BR FEW001 BKN033 OVC048 21/19 A3016 640 90 1500 000/00 RMK AO2 WSHFT 0944 FRQ LTGICCC OHD TS OHD MOV E P0004
14837KMSN MSN20010802041016708/02/01 04:10:31  5-MIN KMSN 021010Z 00000KT 2 1/2SM TSRA BR FEW001 BKN014 OVC048 21/19 A3016 650 90 1500 000/00 RMK AO2 WSHFT 0944 FRQ LTGICCC OHD TS OHD MOV E P0004
14837KMSN MSN20010802041516408/02/01 04:15:31  5-MIN KMSN 021015Z 25005KT 6SM -TSRA BR BKN033 BKN044 OVC050 21/20 A3018 630 97 1500 250/05 RMK AO2 WSHFT 0944 FRQ LTGICCC OHD TS OHD MOV E P0005
14837KMSN MSN20010802042015408/02/01 04:20:31  5-MIN KMSN 021020Z 00000KT 9SM -TSRA BKN040 OVC050 21/20 A3018 620 97 1500 000/00 RMK AO2 WSHFT 0944 FRQ LTGICCC OHD TS OHD MOV E P0005
14837KMSN MSN20010802042515408/02/01 04:25:31  5-MIN KMSN 021025Z 00000KT 9SM -TSRA BKN043 OVC050 21/20 A3018 630 97 1500 000/00 RMK AO2 WSHFT 0944 FRQ LTGICCC OHD TS OHD MOV E P0005
14837KMSN MSN20010802043015408/02/01 04:30:31  5-MIN KMSN 021030Z 00000KT 8SM -TSRA BKN045 OVC050 21/20 A3018 630 97 1500 000/00 RMK AO2 WSHFT 0944 FRQ LTGICCC OHD TS OHD MOV E P0006
14837KMSN MSN20010802043515008/02/01 04:35:31  5-MIN KMSN 021035Z 16003KT 6SM -TSRA BR OVC047 21/20 A3017 630 97 1500 160/03 RMK AO2 WSHFT 0944 FRQ LTGICCC OHD TS OHD MOV E P0006
14837KMSN MSN20010802044015008/02/01 04:40:31  5-MIN KMSN 021040Z 15004KT 6SM -TSRA BR OVC049 21/21 A3017 630 97 1500 150/04 RMK AO2 WSHFT 0944 FRQ LTGICCC OHD TS OHD MOV E P0007
14837KMSN MSN20010802044514708/02/01 04:45:31  5-MIN KMSN 021045Z 00000KT 7SM -TSRA OVC049 21/21 A3018 630 97 1500 000/00 RMK AO2 WSHFT 0944 FRQ LTGICCC OHD TS OHD MOV E P0007
14837KMSN MSN20010802045016608/02/01 04:50:31  5-MIN KMSN 021050Z 00000KT 3SM TSRA BR OVC043 21/21 A3018 620 97 1500 000/00 RMK AO2 WSHFT 0944 SLP215 FRQ LTGICCC OHD TS OHD MOV E P0012 T02110206
14837KMSN MSN20010802045513208/02/01 04:55:31  5-MIN KMSN 021055Z 18007KT 2 1/2SM TSRA BR BKN039 OVC047 21/21 A3019 620 97 1500 180/07 RMK AO2 VIS 1 3/4V4 P0001
14837KMSN MSN20010802050011908/02/01 05:00:31  5-MIN KMSN 021100Z 19008KT 3SM TSRA BR OVC036 22/21 A3019 620 93 1600 190/08 RMK AO2 SFC VIS 4 P0002
14837KMSN MSN20010802050514608/02/01 05:05:31  5-MIN KMSN 021105Z 18011KT 3SM TSRA BR OVC030 22/21 A3018 630 93 1600 180/11 RMK AO2 SFC VIS 4 FRQ LTGIC OHD TS OHD MOV E P0004
14837KMSN MSN20010802051015408/02/01 05:10:31  5-MIN KMSN 021110Z 19011KT 3SM -TSRA BR BKN030 OVC095 22/21 A3018 630 93 1600 180/11 RMK AO2 SFC VIS 5 FRQ LTGIC OHD TS OHD MOV E P0005
14837KMSN MSN20010802051515108/02/01 05:15:31  5-MIN KMSN 021115Z 17008KT 3SM -TSRA BKN032 OVC095 22/21 A3018 630 93 1600 170/08 RMK AO2 SFC VIS 7 FRQ LTGIC OHD TS OHD MOV E P0005
14837KMSN MSN20010802052014408/02/01 05:20:31  5-MIN KMSN 021120Z 19005KT 3SM -TSRA BKN035 22/21 A3018 620 93 1600 190/05 RMK AO2 SFC VIS 8 FRQ LTGIC OHD TS OHD MOV E P0005
14837KMSN MSN20010802052514508/02/01 05:25:31  5-MIN KMSN 021125Z 19004KT 3SM -TSRA BKN048 22/21 A3018 620 93 1600 190/04 RMK AO2 SFC VIS 10 FRQ LTGIC OHD TS OHD MOV E P0005
14837KMSN MSN20010802053014508/02/01 05:30:31  5-MIN KMSN 021130Z 23004KT 3SM -TSRA BKN050 22/21 A3018 630 93 1600 230/04 RMK AO2 SFC VIS 10 FRQ LTGIC OHD TS OHD MOV E P0005
14837KMSN MSN20010802053513508/02/01 05:35:31  5-MIN KMSN 021135Z 24004KT 10SM -TSRA BKN055 22/21 A3017 630 93 1600 240/04 RMK AO2 FRQ LTGIC OHD TS OHD MOV E P0006
14837KMSN MSN20010802054014208/02/01 05:40:31  5-MIN KMSN 021140Z 00000KT 10SM -TSRA SCT055 22/21 A3016 640 97 1600 000/00 RMK AO2 PRESFR FRQ LTGIC OHD TS OHD MOV E P0006
14837KMSN MSN20010802054513508/02/01 05:45:31  5-MIN KMSN 021145Z 18003KT 10SM -TSRA SCT070 22/21 A3015 650 93 1700 180/03 RMK AO2 FRQ LTGIC OHD TS OHD MOV E P0006
14837KMSN MSN20010802055018208/02/01 05:50:31  5-MIN KMSN 021150Z 19005KT 10SM -TSRA SCT070 22/21 A3015 650 97 1600 190/05 RMK AO2 SLP206 FRQ LTGIC OHD TS OHD MOV E P0006 60275 70330 T02170211 10233 20194 51003
14837KMSN MSN20010802055512008/02/01 05:55:31  5-MIN KMSN 021155Z 14006KT 10SM -TSRA SCT065 22/21 A3014 660 93 1700 140/06 RMK AO2 P0006 60330 70385
14837KMSN MSN20010802060010808/02/01 06:00:31  5-MIN KMSN 021200Z 15005KT 10SM -TSRA BKN060 22/21 A3015 650 93 1700 150/05 RMK AO2 P0000
14837KMSN MSN20010802060512308/02/01 06:05:31  5-MIN KMSN 021205Z 19007KT 160V220 9SM -TSRA BKN055 22/21 A3015 650 93 1700 190/07 160V220 RMK AO2 P0000
14837KMSN MSN20010802061010708/02/01 06:10:31  5-MIN KMSN 021210Z 19008KT 9SM -TSRA BKN050 22/21 A3014 660 93 1700 190/08 RMK AO2 P0000
14837KMSN MSN20010802061513008/02/01 06:15:31  5-MIN KMSN 021215Z 20009KT 160V230 9SM -TSRA FEW007 BKN050 22/21 A3014 670 93 1700 200/09 160V230 RMK AO2 P0000
14837KMSN MSN20010802062011508/02/01 06:20:31  5-MIN KMSN 021220Z 20007KT 10SM -TSRA FEW007 OVC055 22/21 A3014 660 93 1700 200/07 RMK AO2 P0000
14837KMSN MSN20010802062511508/02/01 06:25:31  5-MIN KMSN 021225Z VRB04KT 10SM -TSRA FEW007 OVC060 22/21 A3016 650 93 1700 VRB/04 RMK AO2 P0001
14837KMSN MSN20010802063012108/02/01 06:30:31  5-MIN KMSN 021230Z VRB04KT 8SM -TSRA FEW007 OVC055 22/21 A3016 640 93 1700 VRB/04 RMK AO2 PRESRR P0001
14837KMSN MSN20010802063511408/02/01 06:35:31  5-MIN KMSN 021235Z 30003KT 7SM -TSRA FEW007 OVC044 22/21 A3016 640 97 1600 300/03 RMK AO2 P0002
14837KMSN MSN20010802064011408/02/01 06:40:31  5-MIN KMSN 021240Z 00000KT 8SM -TSRA FEW007 OVC044 22/21 A3016 640 97 1600 000/00 RMK AO2 P0002
14837KMSN MSN20010802064510808/02/01 06:45:31  5-MIN KMSN 021245Z 05003KT 10SM -TSRA OVC044 22/21 A3015 650 93 1700 040/03 RMK AO2 P0002
14837KMSN MSN20010802065012508/02/01 06:50:31  5-MIN KMSN 021250Z 32003KT 10SM -TSRA BKN042 22/21 A3017 640 97 1600 320/03 RMK AO2 SLP211 P0002 T02170211
14837KMSN MSN20010802065514608/02/01 06:55:31  5-MIN KMSN 021255Z 27003KT 10SM -TSRA BKN038 BKN070 22/21 A3018 630 97 1600 270/03 RMK AO2 OCNL LTGICCC OHD TS OHD MOV SE P0001
14837KMSN MSN20010802070016008/02/01 07:00:31  5-MIN KMSN 021300Z VRB04KT 10SM -TSRA BKN038 BKN070 BKN085 22/21 A3018 620 97 1600 VRB/04 RMK AO2 PRESRR OCNL LTGICCC OHD TS OHD MOV SE P0001
14837KMSN MSN20010802070514608/02/01 07:05:31  5-MIN KMSN 021305Z VRB05KT 10SM -TSRA BKN038 BKN070 22/21 A3019 620 97 1600 VRB/05 RMK AO2 OCNL LTGICCC OHD TS OHD MOV SE P0001
14837KMSN MSN20010802071014508/02/01 07:10:31  5-MIN KMSN 021310Z VRB05KT 9SM -TSRA BKN036 BKN070 22/21 A3018 620 90 1600 VRB/05 RMK AO2 OCNL LTGICCC OHD TS OHD MOV SE P0001
14837KMSN MSN20010802071514508/02/01 07:15:31  5-MIN KMSN 021315Z 21005KT 8SM -TSRA BKN036 BKN075 22/21 A3018 630 90 1700 210/05 RMK AO2 OCNL LTGICCC OHD TS OHD MOV SE P0002
14837KMSN MSN20010802072014508/02/01 07:20:31  5-MIN KMSN 021320Z 20005KT 8SM -TSRA BKN036 OVC075 22/21 A3017 630 90 1700 200/05 RMK AO2 OCNL LTGICCC OHD TS OHD MOV SE P0002
14837KMSN MSN20010802072513808/02/01 07:25:31  5-MIN KMSN 021325Z 23004KT 8SM -TSRA OVC032 22/21 A3017 630 90 1700 230/04 RMK AO2 OCNL LTGICCC OHD TS OHD MOV SE P0002
14837KMSN MSN20010802073013808/02/01 07:30:31  5-MIN KMSN 021330Z 18004KT 8SM -TSRA BKN036 22/21 A3016 640 90 1700 180/04 RMK AO2 OCNL LTGICCC OHD TS OHD MOV SE P0003
14837KMSN MSN20010802073512808/02/01 07:35:31  5-MIN KMSN 021335Z VRB05KT 8SM -RA BKN038 BKN075 22/21 A3016 640 90 1700 VRB/05 RMK AO2 TSE31 TS MOV SE P0003
14837KMSN MSN20010802074012908/02/01 07:40:31  5-MIN KMSN 021340Z 24005KT 10SM -RA BKN036 BKN075 22/21 A3016 640 93 1600 240/05 RMK AO2 TSE31 TS MOV SE P0003
14837KMSN MSN20010802074512208/02/01 07:45:31  5-MIN KMSN 021345Z VRB03KT 10SM -RA BKN040 22/21 A3016 640 93 1600 VRB/03 RMK AO2 TSE31 TS MOV SE P0003
14837KMSN MSN20010802075013908/02/01 07:50:31  5-MIN KMSN 021350Z 00000KT 10SM -RA SCT044 22/21 A3017 630 93 1600 000/00 RMK AO2 TSE31 SLP212 TS MOV SE P0003 T02170206
14837KMSN MSN20010802075510608/02/01 07:55:31  5-MIN KMSN 021355Z 20004KT 10SM -RA FEW050 22/21 A3017 640 93 1600 200/04 RMK AO2 P0000
14837KMSN MSN20010802080010608/02/01 08:00:31  5-MIN KMSN 021400Z 21005KT 10SM -RA FEW045 22/21 A3016 640 90 1700 210/05 RMK AO2 P0000
14837KMSN MSN20010802080510608/02/01 08:05:31  5-MIN KMSN 021405Z 00000KT 10SM -RA FEW055 22/21 A3017 640 90 1700 000/00 RMK AO2 P0001
14837KMSN MSN20010802081010608/02/01 08:10:31  5-MIN KMSN 021410Z 00000KT 10SM -RA SCT055 22/21 A3016 640 90 1700 000/00 RMK AO2 P0001
14837KMSN MSN20010802081510608/02/01 08:15:31  5-MIN KMSN 021415Z 23005KT 10SM -RA BKN060 22/21 A3017 630 90 1700 230/05 RMK AO2 P0001
14837KMSN MSN20010802082010508/02/01 08:20:31  5-MIN KMSN 021420Z 23005KT 9SM -RA BKN060 22/21 A3018 630 93 1600 230/05 RMK AO2 P0001
14837KMSN MSN20010802082511308/02/01 08:25:31  5-MIN KMSN 021425Z 27003KT 10SM -RA BKN039 22/21 A3019 620 93 1600 270/03 RMK AO2 PRESRR P0001
14837KMSN MSN20010802083011308/02/01 08:30:31  5-MIN KMSN 021430Z VRB05KT 10SM -RA BKN039 22/21 A3020 610 93 1600 VRB/05 RMK AO2 PRESRR P0002
14837KMSN MSN20010802083510608/02/01 08:35:31  5-MIN KMSN 021435Z VRB04KT 10SM -RA BKN031 22/21 A3020 610 93 1600 VRB/04 RMK AO2 P0002
14837KMSN MSN20010802084010608/02/01 08:40:31  5-MIN KMSN 021440Z VRB03KT 10SM -RA SCT032 22/21 A3020 600 93 1600 VRB/03 RMK AO2 P0002
14837KMSN MSN20010802084510608/02/01 08:45:31  5-MIN KMSN 021445Z VRB05KT 10SM -RA FEW029 22/21 A3021 600 93 1600 VRB/05 RMK AO2 P0002
14837KMSN MSN20010802085013508/02/01 08:50:31  5-MIN KMSN 021450Z VRB04KT 10SM -RA FEW023 22/21 A3020 610 93 1600 VRB/04 RMK AO2 SLP223 P0003 60010 T02170206 58008
14837KMSN MSN20010802085509308/02/01 08:55:31  5-MIN KMSN 021455Z VRB04KT 10SM CLR 22/21 A3020 610 90 1600 VRB/04 RMK AO2
14837KMSN MSN20010802090009608/02/01 09:00:31  5-MIN KMSN 021500Z 23006KT 10SM FEW031 22/21 A3020 610 90 1600 230/06 RMK AO2
14837KMSN MSN20010802090509608/02/01 09:05:31  5-MIN KMSN 021505Z VRB03KT 10SM FEW031 22/21 A3020 610 90 1600 VRB/03 RMK AO2
14837KMSN MSN20010802091009608/02/01 09:10:31  5-MIN KMSN 021510Z 00000KT 10SM FEW031 22/21 A3019 610 93 1600 000/00 RMK AO2
14837KMSN MSN20010802091509608/02/01 09:15:31  5-MIN KMSN 021515Z VRB03KT 10SM FEW030 22/21 A3020 610 93 1600 VRB/03 RMK AO2
14837KMSN MSN20010802092009608/02/01 09:20:31  5-MIN KMSN 021520Z VRB03KT 10SM FEW030 22/21 A3020 610 93 1600 VRB/03 RMK AO2
14837KMSN MSN20010802092509608/02/01 09:25:31  5-MIN KMSN 021525Z VRB04KT 10SM FEW030 22/21 A3020 600 93 1600 VRB/04 RMK AO2
14837KMSN MSN20010802093009608/02/01 09:30:31  5-MIN KMSN 021530Z VRB04KT 10SM FEW030 22/21 A3020 610 93 1600 VRB/04 RMK AO2
14837KMSN MSN20010802093509608/02/01 09:35:31  5-MIN KMSN 021535Z VRB03KT 10SM FEW030 22/21 A3019 610 93 1600 VRB/03 RMK AO2
14837KMSN MSN20010802094009308/02/01 09:40:31  5-MIN KMSN 021540Z 00000KT 10SM CLR 23/21 A3019 620 90 1700 000/00 RMK AO2
14837KMSN MSN20010802094509308/02/01 09:45:31  5-MIN KMSN 021545Z VRB04KT 10SM CLR 23/21 A3019 620 90 1700 VRB/04 RMK AO2
14837KMSN MSN20010802095011308/02/01 09:50:31  5-MIN KMSN 021550Z VRB04KT 10SM FEW040 23/21 A3019 620 90 1700 VRB/04 RMK AO2 SLP218 T02280211
14837KMSN MSN20010802095510308/02/01 09:55:31  5-MIN KMSN 021555Z 27005KT 10SM FEW010 SCT040 23/21 A3019 620 90 1700 270/05 RMK AO2
14837KMSN MSN20010802100010308/02/01 10:00:31  5-MIN KMSN 021600Z 25005KT 10SM FEW010 SCT040 23/21 A3019 620 90 1700 250/05 RMK AO2
14837KMSN MSN20010802100509608/02/01 10:05:31  5-MIN KMSN 021605Z VRB03KT 10SM FEW010 23/21 A3019 620 90 1700 VRB/03 RMK AO2
14837KMSN MSN20010802101009608/02/01 10:10:31  5-MIN KMSN 021610Z VRB05KT 10SM FEW010 23/22 A3019 620 90 1800 VRB/05 RMK AO2
14837KMSN MSN20010802101509608/02/01 10:15:31  5-MIN KMSN 021615Z VRB03KT 10SM FEW010 23/21 A3019 620 87 1800 VRB/03 RMK AO2
14837KMSN MSN20010802102009608/02/01 10:20:31  5-MIN KMSN 021620Z VRB05KT 10SM FEW010 23/22 A3019 620 90 1800 VRB/05 RMK AO2
14837KMSN MSN20010802102509608/02/01 10:25:31  5-MIN KMSN 021625Z VRB04KT 10SM FEW010 23/22 A3019 620 90 1800 VRB/04 RMK AO2
14837KMSN MSN20010802103009608/02/01 10:30:31  5-MIN KMSN 021630Z VRB04KT 10SM FEW010 23/22 A3019 620 90 1800 VRB/04 RMK AO2
14837KMSN MSN20010802103509608/02/01 10:35:31  5-MIN KMSN 021635Z VRB04KT 10SM FEW010 24/22 A3019 620 87 1800 VRB/04 RMK AO2
14837KMSN MSN20010802104009608/02/01 10:40:31  5-MIN KMSN 021640Z VRB05KT 10SM FEW010 24/22 A3018 620 87 1800 VRB/05 RMK AO2
14837KMSN MSN20010802104509608/02/01 10:45:31  5-MIN KMSN 021645Z VRB03KT 10SM FEW010 24/22 A3018 620 87 1800 VRB/03 RMK AO2
14837KMSN MSN20010802105011308/02/01 10:50:31  5-MIN KMSN 021650Z VRB05KT 10SM FEW010 24/22 A3018 620 87 1800 VRB/05 RMK AO2 SLP216 T02390217
14837KMSN MSN20010802105509608/02/01 10:55:31  5-MIN KMSN 021655Z 31005KT 10SM SCT010 24/22 A3019 620 87 1900 310/05 RMK AO2
14837KMSN MSN20010802110009608/02/01 11:00:31  5-MIN KMSN 021700Z 26007KT 10SM SCT010 24/22 A3019 620 84 1900 260/07 RMK AO2
14837KMSN MSN20010802110509608/02/01 11:05:31  5-MIN KMSN 021705Z 31006KT 10SM SCT010 24/22 A3019 620 87 1900 310/06 RMK AO2
14837KMSN MSN20010802111009608/02/01 11:10:31  5-MIN KMSN 021710Z 31007KT 10SM SCT010 25/22 A3018 620 84 2000 300/07 RMK AO2
14837KMSN MSN20010802111509608/02/01 11:15:31  5-MIN KMSN 021715Z 28005KT 10SM SCT010 24/22 A3018 620 84 1900 280/05 RMK AO2
14837KMSN MSN20010802112009608/02/01 11:20:31  5-MIN KMSN 021720Z VRB04KT 10SM SCT010 25/22 A3018 620 84 2000 VRB/04 RMK AO2
14837KMSN MSN20010802112509608/02/01 11:25:31  5-MIN KMSN 021725Z 31004KT 10SM SCT010 25/22 A3018 620 84 2000 310/04 RMK AO2
14837KMSN MSN20010802113009608/02/01 11:30:31  5-MIN KMSN 021730Z VRB04KT 10SM SCT010 26/22 A3018 620 81 2000 VRB/04 RMK AO2
14837KMSN MSN20010802113509608/02/01 11:35:31  5-MIN KMSN 021735Z VRB05KT 10SM FEW010 26/22 A3018 620 81 2000 VRB/05 RMK AO2
14837KMSN MSN20010802114009608/02/01 11:40:31  5-MIN KMSN 021740Z 34006KT 10SM FEW010 26/22 A3018 620 81 2000 340/06 RMK AO2
14837KMSN MSN20010802114509608/02/01 11:45:31  5-MIN KMSN 021745Z VRB06KT 10SM FEW010 26/22 A3018 620 81 2000 VRB/06 RMK AO2
14837KMSN MSN20010802115013708/02/01 11:50:31  5-MIN KMSN 021750Z 32005KT 10SM FEW010 25/22 A3018 620 84 2000 310/05 RMK AO2 SLP215 60010 T02500222 10256 20217 53018
14837KMSN MSN20010802115509608/02/01 11:55:31  5-MIN KMSN 021755Z 35005KT 10SM FEW010 26/22 A3018 620 81 2000 350/05 RMK AO2
14837KMSN MSN20010802120009608/02/01 12:00:31  5-MIN KMSN 021800Z 34005KT 10SM FEW010 26/23 A3018 620 81 2100 340/05 RMK AO2
14837KMSN MSN20010802120509608/02/01 12:05:31  5-MIN KMSN 021805Z 29003KT 10SM FEW010 26/22 A3018 630 81 2000 290/03 RMK AO2
14837KMSN MSN20010802121009608/02/01 12:10:31  5-MIN KMSN 021810Z 01006KT 10SM FEW010 27/23 A3018 620 79 2100 010/06 RMK AO2
14837KMSN MSN20010802121509608/02/01 12:15:31  5-MIN KMSN 021815Z VRB04KT 10SM FEW010 27/23 A3018 630 79 2200 VRB/04 RMK AO2
14837KMSN MSN20010802122009608/02/01 12:20:31  5-MIN KMSN 021820Z 34006KT 10SM FEW010 27/23 A3018 630 79 2200 330/06 RMK AO2
14837KMSN MSN20010802122509608/02/01 12:25:31  5-MIN KMSN 021825Z VRB04KT 10SM FEW010 27/23 A3018 630 79 2200 VRB/04 RMK AO2
14837KMSN MSN20010802123009608/02/01 12:30:31  5-MIN KMSN 021830Z 01004KT 10SM SCT015 27/23 A3017 630 76 2200 010/04 RMK AO2
14837KMSN MSN20010802123509608/02/01 12:35:31  5-MIN KMSN 021835Z 36004KT 10SM SCT015 27/23 A3017 630 79 2200 360/04 RMK AO2
14837KMSN MSN20010802124009608/02/01 12:40:31  5-MIN KMSN 021840Z VRB03KT 10SM SCT015 27/23 A3017 640 79 2200 VRB/03 RMK AO2
14837KMSN MSN20010802124509608/02/01 12:45:31  5-MIN KMSN 021845Z 00000KT 10SM SCT015 27/23 A3016 640 76 2200 000/00 RMK AO2
14837KMSN MSN20010802125011308/02/01 12:50:31  5-MIN KMSN 021850Z 09004KT 10SM SCT015 27/23 A3016 640 76 2200 090/04 RMK AO2 SLP209 T02720228
14837KMSN MSN20010802125509608/02/01 12:55:31  5-MIN KMSN 021855Z 00000KT 10SM SCT018 27/22 A3016 640 76 2200 000/00 RMK AO2
14837KMSN MSN20010802130009608/02/01 13:00:31  5-MIN KMSN 021900Z 00000KT 10SM SCT018 28/23 A3016 640 74 2300 000/00 RMK AO2
14837KMSN MSN20010802130509608/02/01 13:05:31  5-MIN KMSN 021905Z VRB04KT 10SM SCT018 28/23 A3016 650 74 2300 VRB/04 RMK AO2
14837KMSN MSN20010802131009608/02/01 13:10:31  5-MIN KMSN 021910Z VRB03KT 10SM SCT018 28/22 A3016 650 71 2300 VRB/03 RMK AO2
14837KMSN MSN20010802131509608/02/01 13:15:31  5-MIN KMSN 021915Z VRB03KT 10SM SCT018 28/23 A3016 650 74 2300 VRB/03 RMK AO2
14837KMSN MSN20010802132009608/02/01 13:20:31  5-MIN KMSN 021920Z 17003KT 10SM SCT018 28/23 A3016 640 74 2300 170/03 RMK AO2
14837KMSN MSN20010802132509608/02/01 13:25:31  5-MIN KMSN 021925Z VRB03KT 10SM SCT018 28/23 A3016 640 74 2400 VRB/03 RMK AO2
14837KMSN MSN20010802133009608/02/01 13:30:31  5-MIN KMSN 021930Z 22004KT 10SM SCT018 28/23 A3016 650 74 2400 220/04 RMK AO2
14837KMSN MSN20010802133509608/02/01 13:35:31  5-MIN KMSN 021935Z VRB04KT 10SM SCT018 28/23 A3016 650 74 2300 VRB/04 RMK AO2
14837KMSN MSN20010802134009608/02/01 13:40:31  5-MIN KMSN 021940Z VRB03KT 10SM SCT018 28/23 A3016 650 74 2400 VRB/03 RMK AO2
14837KMSN MSN20010802134509608/02/01 13:45:31  5-MIN KMSN 021945Z 25005KT 10SM SCT018 28/23 A3016 640 76 2300 240/05 RMK AO2
14837KMSN MSN20010802135011308/02/01 13:50:31  5-MIN KMSN 021950Z 24005KT 10SM SCT020 28/23 A3016 650 74 2300 240/05 RMK AO2 SLP206 T02780228
14837KMSN MSN20010802135510308/02/01 13:55:31  5-MIN KMSN 021955Z 21003KT 10SM FEW020 SCT065 28/23 A3015 650 76 2300 210/03 RMK AO2
14837KMSN MSN20010802140009608/02/01 14:00:31  5-MIN KMSN 022000Z 00000KT 10SM FEW020 28/23 A3015 650 74 2400 000/00 RMK AO2
14837KMSN MSN20010802140509608/02/01 14:05:31  5-MIN KMSN 022005Z VRB04KT 10SM SCT020 29/23 A3015 650 71 2400 VRB/04 RMK AO2
14837KMSN MSN20010802141009608/02/01 14:10:31  5-MIN KMSN 022010Z 31005KT 10SM SCT020 29/23 A3015 650 71 2400 310/05 RMK AO2
14837KMSN MSN20010802141509608/02/01 14:15:31  5-MIN KMSN 022015Z VRB04KT 10SM SCT020 28/23 A3015 650 74 2400 VRB/04 RMK AO2
14837KMSN MSN20010802142009608/02/01 14:20:31  5-MIN KMSN 022020Z VRB03KT 10SM SCT020 29/23 A3015 650 71 2400 VRB/03 RMK AO2
14837KMSN MSN20010802142509608/02/01 14:25:31  5-MIN KMSN 022025Z VRB04KT 10SM SCT020 29/23 A3015 650 71 2400 VRB/04 RMK AO2
14837KMSN MSN20010802143009608/02/01 14:30:31  5-MIN KMSN 022030Z 35006KT 10SM SCT020 29/23 A3015 660 71 2400 350/06 RMK AO2
14837KMSN MSN20010802143509608/02/01 14:35:31  5-MIN KMSN 022035Z 00000KT 10SM SCT020 28/23 A3014 660 74 2400 000/00 RMK AO2
14837KMSN MSN20010802144009608/02/01 14:40:31  5-MIN KMSN 022040Z VRB03KT 10SM SCT023 28/23 A3014 660 74 2400 VRB/03 RMK AO2
14837KMSN MSN20010802144509608/02/01 14:45:31  5-MIN KMSN 022045Z 01003KT 10SM SCT023 29/23 A3013 670 69 2500 360/03 RMK AO2
14837KMSN MSN20010802145011908/02/01 14:50:31  5-MIN KMSN 022050Z VRB04KT 10SM SCT023 29/23 A3013 670 69 2500 VRB/04 RMK AO2 SLP198 T02940233 56007
14837KMSN MSN20010802145509608/02/01 14:55:31  5-MIN KMSN 022055Z VRB03KT 10SM SCT026 29/24 A3013 670 71 2500 VRB/03 RMK AO2
14837KMSN MSN20010802150009608/02/01 15:00:31  5-MIN KMSN 022100Z 00000KT 10SM SCT026 29/23 A3013 670 71 2500 000/00 RMK AO2
14837KMSN MSN20010802150509608/02/01 15:05:31  5-MIN KMSN 022105Z VRB04KT 10SM SCT028 29/23 A3013 670 69 2500 VRB/04 RMK AO2
14837KMSN MSN20010802151009608/02/01 15:10:31  5-MIN KMSN 022110Z VRB04KT 10SM SCT028 29/23 A3013 670 69 2500 VRB/04 RMK AO2
14837KMSN MSN20010802151509608/02/01 15:15:31  5-MIN KMSN 022115Z 04004KT 10SM SCT028 29/24 A3013 670 71 2500 040/04 RMK AO2
14837KMSN MSN20010802152009608/02/01 15:20:31  5-MIN KMSN 022120Z 02004KT 10SM SCT028 29/23 A3012 680 71 2500 020/04 RMK AO2
14837KMSN MSN20010802152509608/02/01 15:25:31  5-MIN KMSN 022125Z 36004KT 10SM SCT028 28/24 A3012 680 76 2400 350/04 RMK AO2
14837KMSN MSN20010802153010308/02/01 15:30:31  5-MIN KMSN 022130Z VRB03KT 10SM FEW025 SCT047 29/24 A3012 680 74 2500 VRB/03 RMK AO2
14837KMSN MSN20010802153510308/02/01 15:35:31  5-MIN KMSN 022135Z 00000KT 10SM FEW025 SCT047 29/23 A3011 680 69 2500 000/00 RMK AO2
14837KMSN MSN20010802154010308/02/01 15:40:31  5-MIN KMSN 022140Z 00000KT 10SM FEW025 SCT047 29/23 A3011 690 69 2500 000/00 RMK AO2
14837KMSN MSN20010802154510308/02/01 15:45:31  5-MIN KMSN 022145Z VRB05KT 10SM SCT047 29/23 A3010 700 69 2600 VRB/05 RMK AO2 PRESFR
14837KMSN MSN20010802155012008/02/01 15:50:31  5-MIN KMSN 022150Z 05009KT 10SM SCT047 29/24 A3009 710 71 2600 050/09 RMK AO2 PRESFR SLP183 T02940239
14837KMSN MSN20010802155509608/02/01 15:55:31  5-MIN KMSN 022155Z 05007KT 10SM SCT045 29/24 A3009 700 74 2500 050/07 RMK AO2
14837KMSN MSN20010802160009608/02/01 16:00:31  5-MIN KMSN 022200Z 05007KT 10SM SCT045 29/24 A3009 700 74 2500 050/07 RMK AO2
14837KMSN MSN20010802160509608/02/01 16:05:31  5-MIN KMSN 022205Z 04006KT 10SM SCT045 29/23 A3009 700 71 2500 040/06 RMK AO2
14837KMSN MSN20010802161009608/02/01 16:10:31  5-MIN KMSN 022210Z 04007KT 10SM SCT045 29/23 A3009 700 71 2500 040/07 RMK AO2
14837KMSN MSN20010802161509608/02/01 16:15:31  5-MIN KMSN 022215Z 04007KT 10SM SCT045 29/24 A3010 700 74 2500 040/07 RMK AO2
14837KMSN MSN20010802162009608/02/01 16:20:31  5-MIN KMSN 022220Z 04006KT 10SM FEW045 29/24 A3010 700 74 2500 040/06 RMK AO2
14837KMSN MSN20010802162509608/02/01 16:25:31  5-MIN KMSN 022225Z 06004KT 10SM FEW045 29/24 A3011 690 74 2500 050/04 RMK AO2
14837KMSN MSN20010802163009608/02/01 16:30:31  5-MIN KMSN 022230Z 06004KT 10SM FEW045 29/24 A3011 690 74 2500 060/04 RMK AO2
14837KMSN MSN20010802163509608/02/01 16:35:31  5-MIN KMSN 022235Z 06004KT 10SM FEW045 29/24 A3011 690 74 2500 050/04 RMK AO2
14837KMSN MSN20010802164009608/02/01 16:40:31  5-MIN KMSN 022240Z 08004KT 10SM FEW045 29/23 A3011 690 71 2500 080/04 RMK AO2
14837KMSN MSN20010802164509608/02/01 16:45:31  5-MIN KMSN 022245Z 00000KT 10SM FEW045 29/23 A3011 690 71 2500 000/00 RMK AO2
14837KMSN MSN20010802165011308/02/01 16:50:31  5-MIN KMSN 022250Z 09003KT 10SM FEW045 29/23 A3011 690 71 2500 090/03 RMK AO2 SLP190 T02890233
14837KMSN MSN20010802165509608/02/01 16:55:31  5-MIN KMSN 022255Z 00000KT 10SM FEW025 28/23 A3011 690 74 2400 000/00 RMK AO2
14837KMSN MSN20010802170009308/02/01 17:00:31  5-MIN KMSN 022300Z 06003KT 10SM CLR 29/23 A3011 690 71 2500 060/03 RMK AO2
14837KMSN MSN20010802170509608/02/01 17:05:31  5-MIN KMSN 022305Z 00000KT 10SM FEW025 29/23 A3011 690 69 2500 000/00 RMK AO2
14837KMSN MSN20010802171009608/02/01 17:10:31  5-MIN KMSN 022310Z 00000KT 10SM FEW025 29/23 A3011 690 69 2500 000/00 RMK AO2
14837KMSN MSN20010802171509608/02/01 17:15:31  5-MIN KMSN 022315Z 00000KT 10SM FEW025 29/23 A3011 690 69 2500 000/00 RMK AO2
14837KMSN MSN20010802172009608/02/01 17:20:31  5-MIN KMSN 022320Z 00000KT 10SM FEW025 29/23 A3012 680 71 2500 000/00 RMK AO2
14837KMSN MSN20010802172509608/02/01 17:25:31  5-MIN KMSN 022325Z 00000KT 10SM FEW025 28/23 A3011 690 74 2400 000/00 RMK AO2
14837KMSN MSN20010802173009608/02/01 17:30:31  5-MIN KMSN 022330Z 00000KT 10SM FEW025 29/23 A3011 690 69 2500 000/00 RMK AO2
14837KMSN MSN20010802173509608/02/01 17:35:31  5-MIN KMSN 022335Z 00000KT 10SM FEW025 29/23 A3011 690 69 2500 000/00 RMK AO2
14837KMSN MSN20010802174009608/02/01 17:40:31  5-MIN KMSN 022340Z 00000KT 10SM FEW025 29/23 A3010 700 67 2500 000/00 RMK AO2
14837KMSN MSN20010802174509608/02/01 17:45:31  5-MIN KMSN 022345Z 00000KT 10SM SCT040 29/23 A3010 700 69 2500 000/00 RMK AO2
14837KMSN MSN20010802175013108/02/01 17:50:31  5-MIN KMSN 022350Z 00000KT 10SM SCT040 29/23 A3010 700 71 2500 000/00 RMK AO2 SLP187 T02890233 10300 20256 58015
14837KMSN MSN20010802175509608/02/01 17:55:31  5-MIN KMSN 022355Z 35003KT 10SM SCT040 29/24 A3010 700 74 2500 340/03 RMK AO2
14837KMSN MSN20010802180009608/02/01 18:00:31  5-MIN KMSN 030000Z 32004KT 10SM SCT040 28/24 A3010 700 79 2400 320/04 RMK AO2
14837KMSN MSN20010802180509608/02/01 18:05:31  5-MIN KMSN 030005Z 00000KT 10SM SCT040 28/24 A3010 700 82 2400 000/00 RMK AO2
14837KMSN MSN20010802181009608/02/01 18:10:31  5-MIN KMSN 030010Z 00000KT 10SM SCT040 28/24 A3010 700 79 2400 000/00 RMK AO2
14837KMSN MSN20010802181509608/02/01 18:15:31  5-MIN KMSN 030015Z 29003KT 10SM SCT040 28/24 A3011 690 79 2400 290/03 RMK AO2
14837KMSN MSN20010802182009608/02/01 18:20:31  5-MIN KMSN 030020Z 00000KT 10SM SCT040 28/24 A3011 690 79 2400 000/00 RMK AO2
14837KMSN MSN20010802182509608/02/01 18:25:31  5-MIN KMSN 030025Z 00000KT 10SM SCT040 28/24 A3011 690 79 2400 000/00 RMK AO2
14837KMSN MSN20010802183009608/02/01 18:30:31  5-MIN KMSN 030030Z 00000KT 10SM SCT040 28/24 A3011 690 82 2400 000/00 RMK AO2
14837KMSN MSN20010802183509608/02/01 18:35:31  5-MIN KMSN 030035Z 00000KT 10SM SCT040 28/24 A3011 690 79 2400 000/00 RMK AO2
14837KMSN MSN20010802184009608/02/01 18:40:31  5-MIN KMSN 030040Z 00000KT 10SM SCT040 28/24 A3012 680 76 2400 000/00 RMK AO2
14837KMSN MSN20010802184509608/02/01 18:45:31  5-MIN KMSN 030045Z 00000KT 10SM SCT040 28/24 A3012 680 79 2300 000/00 RMK AO2
14837KMSN MSN20010802185011308/02/01 18:50:31  5-MIN KMSN 030050Z 00000KT 10SM FEW040 27/24 A3012 680 82 2300 000/00 RMK AO2 SLP194 T02720239
14837KMSN MSN20010802185509608/02/01 18:55:31  5-MIN KMSN 030055Z 00000KT 10SM FEW040 27/24 A3012 680 82 2300 000/00 RMK AO2
14837KMSN MSN20010802190009608/02/01 19:00:31  5-MIN KMSN 030100Z 24003KT 10SM FEW040 27/24 A3012 680 82 2300 240/03 RMK AO2
14837KMSN MSN20010802190509608/02/01 19:05:31  5-MIN KMSN 030105Z 00000KT 10SM FEW040 27/24 A3012 680 84 2200 000/00 RMK AO2
14837KMSN MSN20010802191009608/02/01 19:10:31  5-MIN KMSN 030110Z 00000KT 10SM FEW040 26/24 A3012 680 90 2200 000/00 RMK AO2
14837KMSN MSN20010802191509608/02/01 19:15:31  5-MIN KMSN 030115Z 00000KT 10SM FEW040 26/24 A3012 680 93 2100 000/00 RMK AO2
14837KMSN MSN20010802192009608/02/01 19:20:31  5-MIN KMSN 030120Z 00000KT 10SM FEW040 26/24 A3012 680 90 2100 000/00 RMK AO2
14837KMSN MSN20010802192509608/02/01 19:25:31  5-MIN KMSN 030125Z 00000KT 10SM FEW040 26/24 A3012 680 90 2100 000/00 RMK AO2
14837KMSN MSN20010802193009608/02/01 19:30:31  5-MIN KMSN 030130Z 00000KT 10SM FEW040 26/24 A3012 680 90 2100 000/00 RMK AO2
14837KMSN MSN20010802193509608/02/01 19:35:31  5-MIN KMSN 030135Z 17004KT 10SM FEW040 26/24 A3012 680 90 2100 170/04 RMK AO2
14837KMSN MSN20010802194009608/02/01 19:40:31  5-MIN KMSN 030140Z 18004KT 10SM FEW040 26/23 A3012 680 84 2200 180/04 RMK AO2
14837KMSN MSN20010802194509608/02/01 19:45:31  5-MIN KMSN 030145Z 19004KT 10SM FEW040 26/23 A3012 680 84 2200 190/04 RMK AO2
14837KMSN MSN20010802195011308/02/01 19:50:31  5-MIN KMSN 030150Z 19003KT 10SM FEW050 26/23 A3013 670 84 2200 190/03 RMK AO2 SLP197 T02610233
14837KMSN MSN20010802195509608/02/01 19:55:31  5-MIN KMSN 030155Z 00000KT 10SM FEW050 26/23 A3012 680 84 2200 000/00 RMK AO2
14837KMSN MSN20010802200009608/02/01 20:00:31  5-MIN KMSN 030200Z 00000KT 10SM FEW050 26/23 A3012 680 84 2200 000/00 RMK AO2
14837KMSN MSN20010802200509608/02/01 20:05:31  5-MIN KMSN 030205Z 00000KT 10SM FEW050 26/23 A3013 670 87 2100 000/00 RMK AO2
14837KMSN MSN20010802201009608/02/01 20:10:31  5-MIN KMSN 030210Z 00000KT 10SM FEW050 25/23 A3013 670 90 2000 000/00 RMK AO2
14837KMSN MSN20010802201509608/02/01 20:15:31  5-MIN KMSN 030215Z 00000KT 10SM FEW050 26/23 A3013 670 87 2100 000/00 RMK AO2
14837KMSN MSN20010802202009608/02/01 20:20:31  5-MIN KMSN 030220Z 00000KT 10SM FEW050 25/23 A3013 670 90 2000 000/00 RMK AO2
14837KMSN MSN20010802202509608/02/01 20:25:31  5-MIN KMSN 030225Z 21003KT 10SM FEW050 24/23 A3014 660 93 1900 210/03 RMK AO2
14837KMSN MSN20010802203009608/02/01 20:30:31  5-MIN KMSN 030230Z 21003KT 10SM FEW050 24/23 A3014 660 93 1900 210/03 RMK AO2
14837KMSN MSN20010802203509608/02/01 20:35:31  5-MIN KMSN 030235Z 21003KT 10SM FEW050 25/23 A3014 660 90 2000 210/03 RMK AO2
14837KMSN MSN20010802204009608/02/01 20:40:31  5-MIN KMSN 030240Z 20003KT 10SM FEW050 26/23 A3014 660 87 2100 200/03 RMK AO2
14837KMSN MSN20010802204509608/02/01 20:45:31  5-MIN KMSN 030245Z 22003KT 10SM FEW050 26/23 A3014 660 87 2100 220/03 RMK AO2
14837KMSN MSN20010802205011908/02/01 20:50:31  5-MIN KMSN 030250Z 22003KT 10SM FEW038 26/23 A3014 660 87 2100 220/03 RMK AO2 SLP202 T02560233 56012
14837KMSN MSN20010802205509608/02/01 20:55:31  5-MIN KMSN 030255Z 23003KT 10SM SCT038 25/23 A3014 660 90 2000 230/03 RMK AO2
14837KMSN MSN20010802210009608/02/01 21:00:31  5-MIN KMSN 030300Z 22003KT 10SM SCT038 25/23 A3014 660 90 2000 220/03 RMK AO2
14837KMSN MSN20010802210509608/02/01 21:05:31  5-MIN KMSN 030305Z 21004KT 10SM SCT038 25/23 A3014 660 90 2000 210/04 RMK AO2
14837KMSN MSN20010802211009608/02/01 21:10:31  5-MIN KMSN 030310Z 21003KT 10SM SCT038 25/23 A3013 670 90 2000 210/03 RMK AO2
14837KMSN MSN20010802211509608/02/01 21:15:31  5-MIN KMSN 030315Z 00000KT 10SM SCT038 25/23 A3013 670 90 2000 000/00 RMK AO2
14837KMSN MSN20010802212009608/02/01 21:20:31  5-MIN KMSN 030320Z 00000KT 10SM SCT038 24/23 A3013 670 93 1900 000/00 RMK AO2
14837KMSN MSN20010802212509308/02/01 21:25:31  5-MIN KMSN 030325Z 20003KT 10SM CLR 24/23 A3013 670 90 2000 200/03 RMK AO2
14837KMSN MSN20010802213009308/02/01 21:30:31  5-MIN KMSN 030330Z 00000KT 10SM CLR 23/23 A3013 670 97 1800 000/00 RMK AO2
14837KMSN MSN20010802213509308/02/01 21:35:31  5-MIN KMSN 030335Z 00000KT 10SM CLR 24/23 A3013 670 93 1900 000/00 RMK AO2
14837KMSN MSN20010802214009208/02/01 21:40:31  5-MIN KMSN 030340Z 00000KT 9SM CLR 23/23 A3013 670 97 1800 000/00 RMK AO2
14837KMSN MSN20010802214509408/02/01 21:45:31  5-MIN KMSN 030345Z 00000KT 10SM CLR 23/23 A3013 670 100 1800 000/00 RMK AO2
14837KMSN MSN20010802215011108/02/01 21:50:31  5-MIN KMSN 030350Z 00000KT 10SM CLR 23/23 A3013 670 100 1800 000/00 RMK AO2 SLP199 T02280228
14837KMSN MSN20010802215509608/02/01 21:55:31  5-MIN KMSN 030355Z 00000KT 8SM FEW060 23/23 A3013 670 100 1800 000/00 RMK AO2
14837KMSN MSN20010802220009508/02/01 22:00:31  5-MIN KMSN 030400Z 00000KT 8SM FEW060 23/23 A3013 670 97 1800 000/00 RMK AO2
14837KMSN MSN20010802220509508/02/01 22:05:31  5-MIN KMSN 030405Z 00000KT 8SM FEW060 24/23 A3013 670 93 1900 000/00 RMK AO2
14837KMSN MSN20010802221009508/02/01 22:10:31  5-MIN KMSN 030410Z 00000KT 8SM FEW060 23/23 A3013 670 97 1800 000/00 RMK AO2
14837KMSN MSN20010802221509508/02/01 22:15:31  5-MIN KMSN 030415Z 00000KT 8SM FEW060 23/23 A3013 670 97 1800 000/00 RMK AO2
14837KMSN MSN20010802222009508/02/01 22:20:31  5-MIN KMSN 030420Z 00000KT 8SM FEW060 23/23 A3013 670 97 1800 000/00 RMK AO2
14837KMSN MSN20010802222510208/02/01 22:25:31  5-MIN KMSN 030425Z 00000KT 8SM FEW030 SCT040 23/23 A3013 670 97 1800 000/00 RMK AO2
14837KMSN MSN20010802223010208/02/01 22:30:31  5-MIN KMSN 030430Z 35007KT 8SM FEW030 SCT040 23/23 A3014 660 97 1800 350/07 RMK AO2
14837KMSN MSN20010802223510208/02/01 22:35:31  5-MIN KMSN 030435Z 00000KT 8SM FEW030 SCT038 24/23 A3014 670 93 1900 000/00 RMK AO2
14837KMSN MSN20010802224010908/02/01 22:40:31  5-MIN KMSN 030440Z 00000KT 8SM FEW022 SCT030 BKN038 24/23 A3014 660 97 1900 000/00 RMK AO2
14837KMSN MSN20010802224510908/02/01 22:45:31  5-MIN KMSN 030445Z 00000KT 8SM FEW022 SCT030 BKN040 24/23 A3013 670 97 1900 000/00 RMK AO2
14837KMSN MSN20010802225012608/02/01 22:50:31  5-MIN KMSN 030450Z 00000KT 8SM FEW022 SCT030 BKN042 24/23 A3013 670 93 1900 000/00 RMK AO2 SLP199 T02390228
14837KMSN MSN20010802225510208/02/01 22:55:31  5-MIN KMSN 030455Z 00000KT 9SM FEW022 SCT045 24/23 A3013 670 97 1900 000/00 RMK AO2
14837KMSN MSN20010802230010308/02/01 23:00:31  5-MIN KMSN 030500Z 32003KT 10SM FEW022 SCT045 24/23 A3014 670 93 1900 320/03 RMK AO2
14837KMSN MSN20010802230510308/02/01 23:05:31  5-MIN KMSN 030505Z 31004KT 10SM FEW022 SCT043 23/23 A3013 670 97 1800 310/04 RMK AO2
14837KMSN MSN20010802231009608/02/01 23:10:31  5-MIN KMSN 030510Z 33004KT 10SM FEW043 24/23 A3013 670 93 1900 330/04 RMK AO2
14837KMSN MSN20010802231509308/02/01 23:15:31  5-MIN KMSN 030515Z 32003KT 10SM CLR 24/23 A3013 670 93 1900 320/03 RMK AO2
14837KMSN MSN20010802232009308/02/01 23:20:31  5-MIN KMSN 030520Z 32004KT 10SM CLR 24/23 A3013 670 93 1900 320/04 RMK AO2
14837KMSN MSN20010802232509308/02/01 23:25:31  5-MIN KMSN 030525Z 30003KT 10SM CLR 23/23 A3013 670 97 1800 300/03 RMK AO2
14837KMSN MSN20010802233009308/02/01 23:30:31  5-MIN KMSN 030530Z 30003KT 10SM CLR 23/22 A3013 670 93 1800 300/03 RMK AO2
14837KMSN MSN20010802233509308/02/01 23:35:31  5-MIN KMSN 030535Z 32003KT 10SM CLR 23/22 A3013 670 93 1800 310/03 RMK AO2
14837KMSN MSN20010802234009308/02/01 23:40:31  5-MIN KMSN 030540Z 32004KT 10SM CLR 23/22 A3013 670 93 1800 310/04 RMK AO2
14837KMSN MSN20010802234509308/02/01 23:45:31  5-MIN KMSN 030545Z 32005KT 10SM CLR 23/22 A3012 680 90 1800 320/05 RMK AO2
14837KMSN MSN20010802235013808/02/01 23:50:31  5-MIN KMSN 030550Z 32003KT 10SM CLR 23/21 A3012 680 90 1800 320/03 RMK AO2 SLP196 T02280211 10289 20228 403000194 51014
14837KMSN MSN20010802235509308/02/01 23:55:31  5-MIN KMSN 030555Z VRB03KT 10SM CLR 23/21 A3012 680 90 1800 VRB/03 RMK AO2
14837KMSN MSN20010803000009308/03/01 00:00:31  5-MIN KMSN 030600Z 32003KT 10SM CLR 23/21 A3012 680 90 1800 320/03 RMK AO2
14837KMSN MSN20010803000509308/03/01 00:05:31  5-MIN KMSN 030605Z 33003KT 10SM CLR 23/21 A3012 680 87 1800 320/03 RMK AO2
14837KMSN MSN20010803001009308/03/01 00:10:31  5-MIN KMSN 030610Z 32003KT 10SM CLR 23/21 A3012 680 87 1800 320/03 RMK AO2
14837KMSN MSN20010803001509308/03/01 00:15:31  5-MIN KMSN 030615Z 34003KT 10SM CLR 22/21 A3012 680 90 1700 340/03 RMK AO2
14837KMSN MSN20010803002009308/03/01 00:20:31  5-MIN KMSN 030620Z 34003KT 10SM CLR 22/20 A3012 680 87 1700 340/03 RMK AO2
14837KMSN MSN20010803002509308/03/01 00:25:31  5-MIN KMSN 030625Z 34004KT 10SM CLR 22/20 A3012 680 87 1700 340/04 RMK AO2
14837KMSN MSN20010803003009308/03/01 00:30:31  5-MIN KMSN 030630Z 33004KT 10SM CLR 22/20 A3012 680 87 1700 330/04 RMK AO2
14837KMSN MSN20010803003509308/03/01 00:35:31  5-MIN KMSN 030635Z 34004KT 10SM CLR 22/20 A3012 680 90 1700 330/04 RMK AO2
14837KMSN MSN20010803004009308/03/01 00:40:31  5-MIN KMSN 030640Z 33004KT 10SM CLR 22/20 A3011 690 90 1700 330/04 RMK AO2
14837KMSN MSN20010803004509308/03/01 00:45:31  5-MIN KMSN 030645Z VRB04KT 10SM CLR 22/19 A3011 690 87 1700 VRB/04 RMK AO2
14837KMSN MSN20010803005011008/03/01 00:50:31  5-MIN KMSN 030650Z 34003KT 10SM CLR 22/20 A3011 690 90 1700 330/03 RMK AO2 SLP192 T02170200
14837KMSN MSN20010803005509308/03/01 00:55:31  5-MIN KMSN 030655Z 00000KT 10SM CLR 22/20 A3011 690 90 1700 000/00 RMK AO2
14837KMSN MSN20010803010009308/03/01 01:00:31  5-MIN KMSN 030700Z 00000KT 10SM CLR 22/20 A3011 690 90 1700 000/00 RMK AO2
14837KMSN MSN20010803010509308/03/01 01:05:31  5-MIN KMSN 030705Z 00000KT 10SM CLR 22/19 A3011 680 87 1700 000/00 RMK AO2
14837KMSN MSN20010803011009308/03/01 01:10:31  5-MIN KMSN 030710Z 00000KT 10SM CLR 21/20 A3011 690 93 1600 000/00 RMK AO2
14837KMSN MSN20010803011509308/03/01 01:15:31  5-MIN KMSN 030715Z 33003KT 10SM CLR 21/20 A3011 690 97 1500 330/03 RMK AO2
14837KMSN MSN20010803012009308/03/01 01:20:31  5-MIN KMSN 030720Z 33004KT 10SM CLR 20/19 A3011 690 97 1500 330/04 RMK AO2
14837KMSN MSN20010803012509308/03/01 01:25:31  5-MIN KMSN 030725Z 33004KT 10SM CLR 21/19 A3011 690 93 1500 330/04 RMK AO2
14837KMSN MSN20010803013009308/03/01 01:30:31  5-MIN KMSN 030730Z 33003KT 10SM CLR 21/19 A3011 690 93 1500 330/03 RMK AO2
14837KMSN MSN20010803013509308/03/01 01:35:31  5-MIN KMSN 030735Z 33003KT 10SM CLR 21/19 A3011 690 93 1500 330/03 RMK AO2
14837KMSN MSN20010803014009308/03/01 01:40:31  5-MIN KMSN 030740Z 33003KT 10SM CLR 21/19 A3011 690 93 1500 330/03 RMK AO2
14837KMSN MSN20010803014509308/03/01 01:45:31  5-MIN KMSN 030745Z 32003KT 10SM CLR 20/19 A3011 690 97 1500 320/03 RMK AO2
14837KMSN MSN20010803015011008/03/01 01:50:31  5-MIN KMSN 030750Z 31004KT 10SM CLR 20/19 A3011 690 97 1500 310/04 RMK AO2 SLP192 T02000194
14837KMSN MSN20010803015509308/03/01 01:55:31  5-MIN KMSN 030755Z 30004KT 10SM CLR 19/19 A3011 690 97 1400 300/04 RMK AO2
14837KMSN MSN20010803020009308/03/01 02:00:31  5-MIN KMSN 030800Z 30004KT 10SM CLR 20/19 A3011 690 97 1500 300/04 RMK AO2
14837KMSN MSN20010803020509308/03/01 02:05:31  5-MIN KMSN 030805Z 31004KT 10SM CLR 20/19 A3011 690 97 1500 310/04 RMK AO2
14837KMSN MSN20010803021009308/03/01 02:10:31  5-MIN KMSN 030810Z 31004KT 10SM CLR 20/19 A3011 690 97 1500 310/04 RMK AO2
14837KMSN MSN20010803021509308/03/01 02:15:31  5-MIN KMSN 030815Z 31003KT 10SM CLR 20/19 A3011 690 97 1500 310/03 RMK AO2
14837KMSN MSN20010803022009308/03/01 02:20:31  5-MIN KMSN 030820Z 00000KT 10SM CLR 20/19 A3011 690 97 1500 000/00 RMK AO2
14837KMSN MSN20010803022509308/03/01 02:25:31  5-MIN KMSN 030825Z 00000KT 10SM CLR 19/18 A3011 690 93 1400 000/00 RMK AO2
14837KMSN MSN20010803023009308/03/01 02:30:31  5-MIN KMSN 030830Z 00000KT 10SM CLR 19/18 A3011 690 93 1400 000/00 RMK AO2
14837KMSN MSN20010803023509208/03/01 02:35:31  5-MIN KMSN 030835Z 00000KT 9SM CLR 20/19 A3011 690 93 1500 000/00 RMK AO2
14837KMSN MSN20010803024009208/03/01 02:40:31  5-MIN KMSN 030840Z 00000KT 9SM CLR 19/19 A3011 690 97 1400 000/00 RMK AO2
14837KMSN MSN20010803024509308/03/01 02:45:31  5-MIN KMSN 030845Z 00000KT 10SM CLR 20/19 A3011 690 93 1500 000/00 RMK AO2
14837KMSN MSN20010803025011608/03/01 02:50:31  5-MIN KMSN 030850Z 00000KT 10SM CLR 21/19 A3012 680 93 1500 000/00 RMK AO2 SLP192 T02060194 58006
14837KMSN MSN20010803025509208/03/01 02:55:31  5-MIN KMSN 030855Z 00000KT 9SM CLR 20/19 A3012 680 93 1500 000/00 RMK AO2
14837KMSN MSN20010803030009308/03/01 03:00:31  5-MIN KMSN 030900Z 00000KT 7SM CLR 19/19 A3012 680 100 1300 000/00 RMK AO2
14837KMSN MSN20010803030509508/03/01 03:05:31  5-MIN KMSN 030905Z 00000KT 6SM BR CLR 19/19 A3012 680 97 1400 000/00 RMK AO2
14837KMSN MSN20010803031009208/03/01 03:10:31  5-MIN KMSN 030910Z 00000KT 7SM CLR 19/19 A3012 680 97 1400 000/00 RMK AO2
14837KMSN MSN20010803031509208/03/01 03:15:31  5-MIN KMSN 030915Z 00000KT 8SM CLR 19/19 A3012 680 97 1400 000/00 RMK AO2
14837KMSN MSN20010803032009208/03/01 03:20:31  5-MIN KMSN 030920Z 00000KT 8SM CLR 19/19 A3012 680 97 1400 000/00 RMK AO2
14837KMSN MSN20010803032509308/03/01 03:25:31  5-MIN KMSN 030925Z 00000KT 9SM CLR 19/19 A3012 680 100 1300 000/00 RMK AO2
14837KMSN MSN20010803033009208/03/01 03:30:31  5-MIN KMSN 030930Z 00000KT 8SM CLR 19/19 A3012 680 97 1400 000/00 RMK AO2
14837KMSN MSN20010803033509308/03/01 03:35:31  5-MIN KMSN 030935Z 00000KT 7SM CLR 19/19 A3011 690 100 1300 000/00 RMK AO2
14837KMSN MSN20010803034009308/03/01 03:40:31  5-MIN KMSN 030940Z 00000KT 7SM CLR 19/19 A3011 690 100 1300 000/00 RMK AO2
14837KMSN MSN20010803034509208/03/01 03:45:31  5-MIN KMSN 030945Z 00000KT 7SM CLR 19/18 A3011 690 97 1300 000/00 RMK AO2
14837KMSN MSN20010803035011308/03/01 03:50:31  5-MIN KMSN 030950Z 00000KT 6SM BR CLR 19/19 A3011 690 100 1300 000/00 RMK AO2 SLP192 T01890189
14837KMSN MSN20010803035509608/03/01 03:55:31  5-MIN KMSN 030955Z 00000KT 6SM BR CLR 19/19 A3011 690 100 1300 000/00 RMK AO2
14837KMSN MSN20010803040010008/03/01 04:00:31  5-MIN KMSN 031000Z 00000KT 5SM MIFG BR CLR 19/18 A3011 690 97 1300 000/00 RMK AO2
14837KMSN MSN20010803040510108/03/01 04:05:31  5-MIN KMSN 031005Z 00000KT 6SM MIFG BR CLR 19/19 A3011 690 100 1300 000/00 RMK AO2
14837KMSN MSN20010803041010108/03/01 04:10:31  5-MIN KMSN 031010Z 00000KT 3SM MIFG BR CLR 19/19 A3010 690 100 1400 000/00 RMK AO2
14837KMSN MSN20010803041510108/03/01 04:15:31  5-MIN KMSN 031015Z 01004KT 4SM MIFG BR CLR 18/18 A3010 700 100 1300 010/04 RMK AO2
14837KMSN MSN20010803042010108/03/01 04:20:31  5-MIN KMSN 031020Z 36004KT 4SM MIFG BR CLR 18/18 A3010 690 100 1200 360/04 RMK AO2
14837KMSN MSN20010803042510108/03/01 04:25:31  5-MIN KMSN 031025Z 00000KT 4SM MIFG BR CLR 18/18 A3010 700 100 1300 000/00 RMK AO2
14837KMSN MSN20010803043010008/03/01 04:30:31  5-MIN KMSN 031030Z 00000KT 4SM MIFG BR CLR 19/18 A3010 700 97 1400 000/00 RMK AO2
14837KMSN MSN20010803043510008/03/01 04:35:31  5-MIN KMSN 031035Z 00000KT 4SM MIFG BR CLR 19/18 A3011 690 97 1300 000/00 RMK AO2
14837KMSN MSN20010803044010108/03/01 04:40:31  5-MIN KMSN 031040Z 00000KT 4SM MIFG BR CLR 18/18 A3011 690 100 1300 000/00 RMK AO2
14837KMSN MSN20010803044510008/03/01 04:45:31  5-MIN KMSN 031045Z 00000KT 5SM MIFG BR CLR 19/18 A3010 700 97 1400 000/00 RMK AO2
14837KMSN MSN20010803045011808/03/01 04:50:31  5-MIN KMSN 031050Z 00000KT 5SM MIFG BR CLR 18/18 A3010 700 100 1200 000/00 RMK AO2 SLP188 T01780178
14837KMSN MSN20010803045510108/03/01 04:55:31  5-MIN KMSN 031055Z 00000KT 5SM MIFG BR CLR 18/18 A3010 700 100 1200 000/00 RMK AO2
14837KMSN MSN20010803050010008/03/01 05:00:31  5-MIN KMSN 031100Z 00000KT 5SM MIFG BR CLR 18/18 A3010 700 96 1300 000/00 RMK AO2
14837KMSN MSN20010803050510008/03/01 05:05:31  5-MIN KMSN 031105Z 00000KT 5SM MIFG BR CLR 18/18 A3010 700 96 1300 000/00 RMK AO2
14837KMSN MSN20010803051010108/03/01 05:10:31  5-MIN KMSN 031110Z 00000KT 5SM MIFG BR CLR 18/18 A3010 700 100 1200 000/00 RMK AO2
14837KMSN MSN20010803051510008/03/01 05:15:31  5-MIN KMSN 031115Z 00000KT 5SM MIFG BR CLR 18/18 A3010 700 96 1300 000/00 RMK AO2
14837KMSN MSN20010803052010108/03/01 05:20:31  5-MIN KMSN 031120Z 00000KT 5SM MIFG BR CLR 18/18 A3010 700 100 1200 000/00 RMK AO2
14837KMSN MSN20010803052510108/03/01 05:25:31  5-MIN KMSN 031125Z 00000KT 5SM MIFG BR CLR 18/18 A3010 700 100 1200 000/00 RMK AO2
14837KMSN MSN20010803053010008/03/01 05:30:31  5-MIN KMSN 031130Z 00000KT 5SM MIFG BR CLR 18/18 A3010 700 96 1300 000/00 RMK AO2
14837KMSN MSN20010803053510108/03/01 05:35:31  5-MIN KMSN 031135Z 00000KT 4SM MIFG BR CLR 18/18 A3010 700 100 1300 000/00 RMK AO2
14837KMSN MSN20010803054010108/03/01 05:40:31  5-MIN KMSN 031140Z 00000KT 4SM MIFG BR CLR 18/18 A3010 700 100 1300 000/00 RMK AO2
14837KMSN MSN20010803054510008/03/01 05:45:31  5-MIN KMSN 031145Z 00000KT 4SM MIFG BR CLR 19/18 A3010 700 97 1400 000/00 RMK AO2
14837KMSN MSN20010803055013608/03/01 05:50:31  5-MIN KMSN 031150Z 32003KT 6SM BR CLR 19/18 A3010 700 97 1400 320/03 RMK AO2 SLP187 70010 T01890183 10233 20178 55002
14837KMSN MSN20010803055509508/03/01 05:55:31  5-MIN KMSN 031155Z 00000KT 6SM BR CLR 20/19 A3010 700 93 1500 000/00 RMK AO2
14837KMSN MSN20010803060009508/03/01 06:00:31  5-MIN KMSN 031200Z 00000KT 6SM BR CLR 20/19 A3010 700 97 1500 000/00 RMK AO2
14837KMSN MSN20010803060509208/03/01 06:05:31  5-MIN KMSN 031205Z 34003KT 7SM CLR 20/19 A3011 690 97 1500 340/03 RMK AO2
14837KMSN MSN20010803061009208/03/01 06:10:31  5-MIN KMSN 031210Z 01003KT 7SM CLR 21/19 A3011 690 93 1500 360/03 RMK AO2
14837KMSN MSN20010803061509208/03/01 06:15:31  5-MIN KMSN 031215Z 00000KT 7SM CLR 21/19 A3011 690 93 1500 000/00 RMK AO2
14837KMSN MSN20010803062009208/03/01 06:20:31  5-MIN KMSN 031220Z 00000KT 7SM CLR 21/19 A3011 690 93 1500 000/00 RMK AO2
14837KMSN MSN20010803062509208/03/01 06:25:31  5-MIN KMSN 031225Z VRB03KT 8SM CLR 21/19 A3012 680 93 1500 VRB/03 RMK AO2
14837KMSN MSN20010803063009208/03/01 06:30:31  5-MIN KMSN 031230Z 35003KT 8SM CLR 21/19 A3011 690 90 1600 350/03 RMK AO2
14837KMSN MSN20010803063509208/03/01 06:35:31  5-MIN KMSN 031235Z VRB05KT 8SM CLR 21/19 A3011 690 90 1600 VRB/05 RMK AO2
14837KMSN MSN20010803064009208/03/01 06:40:31  5-MIN KMSN 031240Z VRB04KT 8SM CLR 21/19 A3012 680 90 1600 VRB/04 RMK AO2
14837KMSN MSN20010803064509508/03/01 06:45:31  5-MIN KMSN 031245Z 01005KT 8SM FEW010 21/19 A3012 680 90 1600 010/05 RMK AO2
14837KMSN MSN20010803065011208/03/01 06:50:31  5-MIN KMSN 031250Z 01004KT 8SM FEW010 21/19 A3012 680 90 1600 360/04 RMK AO2 SLP194 T02110194
14837KMSN MSN20010803065509208/03/01 06:55:31  5-MIN KMSN 031255Z 36004KT 8SM CLR 21/19 A3012 680 90 1600 360/04 RMK AO2
14837KMSN MSN20010803070009508/03/01 07:00:31  5-MIN KMSN 031300Z 01006KT 8SM SCT010 22/20 A3011 690 90 1700 360/06 RMK AO2
14837KMSN MSN20010803070509508/03/01 07:05:31  5-MIN KMSN 031305Z 36004KT 8SM SCT010 22/20 A3011 690 90 1700 360/04 RMK AO2
14837KMSN MSN20010803071009508/03/01 07:10:31  5-MIN KMSN 031310Z VRB03KT 8SM SCT006 22/20 A3011 690 90 1700 VRB/03 RMK AO2
14837KMSN MSN20010803071509508/03/01 07:15:31  5-MIN KMSN 031315Z 36004KT 8SM SCT006 22/20 A3012 680 90 1700 360/04 RMK AO2
14837KMSN MSN20010803072009508/03/01 07:20:31  5-MIN KMSN 031320Z VRB03KT 8SM SCT006 22/20 A3012 680 90 1700 VRB/03 RMK AO2
14837KMSN MSN20010803072509508/03/01 07:25:31  5-MIN KMSN 031325Z 33004KT 8SM SCT006 22/20 A3012 680 90 1600 320/04 RMK AO2
14837KMSN MSN20010803073009508/03/01 07:30:31  5-MIN KMSN 031330Z 34003KT 8SM SCT006 22/20 A3012 680 87 1700 340/03 RMK AO2
14837KMSN MSN20010803073509508/03/01 07:35:31  5-MIN KMSN 031335Z 36004KT 8SM FEW006 22/20 A3012 680 87 1700 350/04 RMK AO2
14837KMSN MSN20010803074009508/03/01 07:40:31  5-MIN KMSN 031340Z 36004KT 8SM FEW006 22/21 A3012 680 90 1700 360/04 RMK AO2
14837KMSN MSN20010803074509508/03/01 07:45:31  5-MIN KMSN 031345Z 33004KT 8SM FEW006 22/20 A3012 680 87 1700 330/04 RMK AO2
14837KMSN MSN20010803075011208/03/01 07:50:31  5-MIN KMSN 031350Z VRB04KT 8SM FEW006 22/21 A3012 680 90 1700 VRB/04 RMK AO2 SLP195 T02220206
14837KMSN MSN20010803075509508/03/01 07:55:31  5-MIN KMSN 031355Z VRB04KT 8SM SCT006 23/21 A3013 680 87 1800 VRB/04 RMK AO2
14837KMSN MSN20010803080009508/03/01 08:00:31  5-MIN KMSN 031400Z 02005KT 8SM SCT006 23/21 A3012 680 87 1800 020/05 RMK AO2
14837KMSN MSN20010803080509508/03/01 08:05:31  5-MIN KMSN 031405Z 02005KT 8SM SCT006 23/21 A3012 680 87 1800 020/05 RMK AO2
14837KMSN MSN20010803081009508/03/01 08:10:31  5-MIN KMSN 031410Z 02006KT 7SM SCT006 23/21 A3012 680 87 1800 020/06 RMK AO2
14837KMSN MSN20010803081509508/03/01 08:15:31  5-MIN KMSN 031415Z 02006KT 7SM SCT006 23/21 A3012 680 87 1800 020/06 RMK AO2
14837KMSN MSN20010803082009508/03/01 08:20:31  5-MIN KMSN 031420Z 04005KT 7SM SCT006 23/21 A3012 680 87 1800 040/05 RMK AO2
14837KMSN MSN20010803082509508/03/01 08:25:31  5-MIN KMSN 031425Z 03005KT 7SM SCT007 23/21 A3012 680 87 1800 030/05 RMK AO2
14837KMSN MSN20010803083009508/03/01 08:30:31  5-MIN KMSN 031430Z 03004KT 7SM SCT007 23/21 A3012 680 84 1800 020/04 RMK AO2
14837KMSN MSN20010803083509508/03/01 08:35:31  5-MIN KMSN 031435Z 03005KT 7SM SCT007 23/21 A3011 690 87 1900 030/05 RMK AO2
14837KMSN MSN20010803084009508/03/01 08:40:31  5-MIN KMSN 031440Z 01005KT 7SM SCT008 23/21 A3011 690 84 1900 010/05 RMK AO2
14837KMSN MSN20010803084509508/03/01 08:45:31  5-MIN KMSN 031445Z 03006KT 7SM SCT008 23/21 A3011 690 87 1900 030/06 RMK AO2
14837KMSN MSN20010803085011808/03/01 08:50:31  5-MIN KMSN 031450Z 01006KT 7SM SCT008 24/21 A3012 680 84 1900 360/06 RMK AO2 SLP192 T02390211 56007
14837KMSN MSN20010803085509808/03/01 08:55:31  5-MIN KMSN 031455Z 02007KT 6SM HZ SCT008 24/21 A3011 690 84 1900 020/07 RMK AO2
14837KMSN MSN20010803090009808/03/01 09:00:31  5-MIN KMSN 031500Z 02006KT 6SM HZ SCT008 24/21 A3012 680 84 1900 020/06 RMK AO2
14837KMSN MSN20010803090509808/03/01 09:05:31  5-MIN KMSN 031505Z 03007KT 6SM HZ SCT008 24/21 A3011 690 84 1900 020/07 RMK AO2
14837KMSN MSN20010803091009808/03/01 09:10:31  5-MIN KMSN 031510Z 02008KT 6SM HZ SCT008 24/21 A3011 690 84 1900 020/08 RMK AO2
14837KMSN MSN20010803091509508/03/01 09:15:31  5-MIN KMSN 031515Z 02008KT 7SM BKN008 23/21 A3011 690 84 1900 020/08 RMK AO2
14837KMSN MSN20010803092009508/03/01 09:20:31  5-MIN KMSN 031520Z 01007KT 7SM BKN008 24/21 A3011 690 84 1900 360/07 RMK AO2
14837KMSN MSN20010803092509508/03/01 09:25:31  5-MIN KMSN 031525Z 01008KT 7SM BKN008 23/21 A3012 680 84 1800 010/08 RMK AO2
14837KMSN MSN20010803093009508/03/01 09:30:31  5-MIN KMSN 031530Z 36005KT 7SM BKN008 23/21 A3012 680 84 1800 360/05 RMK AO2
14837KMSN MSN20010803093509508/03/01 09:35:31  5-MIN KMSN 031535Z 02005KT 7SM BKN008 24/21 A3012 680 84 1900 020/05 RMK AO2
14837KMSN MSN20010803094009508/03/01 09:40:31  5-MIN KMSN 031540Z 36006KT 8SM BKN008 24/21 A3012 680 84 1900 360/06 RMK AO2
14837KMSN MSN20010803094509508/03/01 09:45:31  5-MIN KMSN 031545Z 34005KT 8SM BKN008 24/21 A3012 680 84 1900 340/05 RMK AO2
14837KMSN MSN20010803095011208/03/01 09:50:31  5-MIN KMSN 031550Z 36007KT 8SM BKN008 23/21 A3012 680 84 1800 350/07 RMK AO2 SLP195 T02330206
14837KMSN MSN20010803095509508/03/01 09:55:31  5-MIN KMSN 031555Z 01007KT 7SM BKN008 24/21 A3012 680 84 1900 010/07 RMK AO2
14837KMSN MSN20010803100009508/03/01 10:00:31  5-MIN KMSN 031600Z 36006KT 8SM BKN009 24/21 A3012 680 84 1900 350/06 RMK AO2
14837KMSN MSN20010803100509508/03/01 10:05:31  5-MIN KMSN 031605Z 34006KT 8SM BKN009 24/21 A3012 680 84 1900 340/06 RMK AO2
14837KMSN MSN20010803101009508/03/01 10:10:31  5-MIN KMSN 031610Z 36007KT 7SM BKN009 24/21 A3012 680 84 1900 360/07 RMK AO2
14837KMSN MSN20010803101509508/03/01 10:15:31  5-MIN KMSN 031615Z 01008KT 7SM BKN009 24/21 A3012 680 81 1900 010/08 RMK AO2
14837KMSN MSN20010803102009508/03/01 10:20:31  5-MIN KMSN 031620Z 35006KT 7SM BKN009 24/21 A3012 680 84 1900 350/06 RMK AO2
14837KMSN MSN20010803102509508/03/01 10:25:31  5-MIN KMSN 031625Z 35006KT 7SM BKN009 24/21 A3013 670 84 1900 350/06 RMK AO2
14837KMSN MSN20010803103009508/03/01 10:30:31  5-MIN KMSN 031630Z VRB04KT 8SM BKN009 24/21 A3013 670 84 1900 VRB/04 RMK AO2
14837KMSN MSN20010803103509508/03/01 10:35:31  5-MIN KMSN 031635Z 01007KT 8SM BKN009 24/21 A3013 670 81 2000 010/07 RMK AO2
14837KMSN MSN20010803104009508/03/01 10:40:31  5-MIN KMSN 031640Z 04005KT 8SM BKN012 24/21 A3013 670 84 1900 030/05 RMK AO2
14837KMSN MSN20010803104509508/03/01 10:45:31  5-MIN KMSN 031645Z 01005KT 8SM OVC012 24/21 A3013 670 81 1900 010/05 RMK AO2
14837KMSN MSN20010803105011208/03/01 10:50:31  5-MIN KMSN 031650Z 35004KT 8SM OVC012 23/21 A3013 670 84 1800 350/04 RMK AO2 SLP199 T02330206
14837KMSN MSN20010803105509508/03/01 10:55:31  5-MIN KMSN 031655Z VRB04KT 7SM OVC012 24/21 A3013 670 81 1900 VRB/04 RMK AO2
14837KMSN MSN20010803110009508/03/01 11:00:31  5-MIN KMSN 031700Z VRB04KT 7SM OVC012 24/21 A3013 670 84 1900 VRB/04 RMK AO2
14837KMSN MSN20010803110509508/03/01 11:05:31  5-MIN KMSN 031705Z 36005KT 7SM OVC012 24/21 A3013 670 84 1900 360/05 RMK AO2
14837KMSN MSN20010803111009508/03/01 11:10:31  5-MIN KMSN 031710Z 36004KT 7SM OVC012 24/21 A3013 670 81 1900 360/04 RMK AO2
14837KMSN MSN20010803111509508/03/01 11:15:31  5-MIN KMSN 031715Z 03006KT 7SM BKN013 24/21 A3013 670 84 1900 030/06 RMK AO2
14837KMSN MSN20010803112009508/03/01 11:20:31  5-MIN KMSN 031720Z 34004KT 7SM BKN013 25/21 A3013 670 79 2000 340/04 RMK AO2
14837KMSN MSN20010803112509508/03/01 11:25:31  5-MIN KMSN 031725Z 01007KT 7SM BKN013 25/22 A3012 680 81 2000 010/07 RMK AO2
14837KMSN MSN20010803113009508/03/01 11:30:31  5-MIN KMSN 031730Z VRB04KT 7SM BKN014 25/21 A3012 680 79 2000 VRB/04 RMK AO2
14837KMSN MSN20010803113509508/03/01 11:35:31  5-MIN KMSN 031735Z 03004KT 7SM BKN013 25/21 A3012 680 76 2000 030/04 RMK AO2
14837KMSN MSN20010803114009508/03/01 11:40:31  5-MIN KMSN 031740Z VRB03KT 8SM BKN013 26/21 A3012 680 76 2100 VRB/03 RMK AO2
14837KMSN MSN20010803114509508/03/01 11:45:31  5-MIN KMSN 031745Z VRB05KT 8SM BKN015 26/21 A3012 680 76 2100 VRB/05 RMK AO2
14837KMSN MSN20010803115013008/03/01 11:50:31  5-MIN KMSN 031750Z VRB04KT 8SM SCT015 26/22 A3012 680 79 2100 VRB/04 RMK AO2 SLP194 T02560217 10256 20194 50006
14837KMSN MSN20010803115509508/03/01 11:55:31  5-MIN KMSN 031755Z 01005KT 8SM SCT015 26/22 A3011 690 79 2100 010/05 RMK AO2
14837KMSN MSN20010803120009508/03/01 12:00:31  5-MIN KMSN 031800Z 03004KT 8SM SCT015 26/21 A3011 690 73 2200 030/04 RMK AO2
14837KMSN MSN20010803120509508/03/01 12:05:31  5-MIN KMSN 031805Z VRB05KT 8SM SCT015 27/22 A3011 690 73 2200 VRB/05 RMK AO2
14837KMSN MSN20010803121009508/03/01 12:10:31  5-MIN KMSN 031810Z VRB03KT 8SM SCT015 26/21 A3011 690 76 2100 VRB/03 RMK AO2
14837KMSN MSN20010803121509508/03/01 12:15:31  5-MIN KMSN 031815Z 05004KT 8SM SCT015 26/22 A3011 690 76 2200 050/04 RMK AO2
14837KMSN MSN20010803122009508/03/01 12:20:31  5-MIN KMSN 031820Z 00000KT 8SM SCT015 26/21 A3011 690 73 2200 000/00 RMK AO2
14837KMSN MSN20010803122509508/03/01 12:25:31  5-MIN KMSN 031825Z VRB03KT 8SM SCT015 27/21 A3011 690 71 2200 VRB/03 RMK AO2
14837KMSN MSN20010803123009508/03/01 12:30:31  5-MIN KMSN 031830Z VRB03KT 9SM SCT017 27/21 A3011 690 71 2200 VRB/03 RMK AO2
14837KMSN MSN20010803123509508/03/01 12:35:31  5-MIN KMSN 031835Z 01005KT 9SM SCT017 27/21 A3011 690 71 2200 010/05 RMK AO2
14837KMSN MSN20010803124009508/03/01 12:40:31  5-MIN KMSN 031840Z VRB03KT 9SM SCT017 27/21 A3011 690 71 2200 VRB/03 RMK AO2
14837KMSN MSN20010803124509508/03/01 12:45:31  5-MIN KMSN 031845Z 02004KT 9SM SCT017 27/21 A3011 690 71 2200 020/04 RMK AO2
14837KMSN MSN20010803125011308/03/01 12:50:31  5-MIN KMSN 031850Z 36004KT 10SM SCT017 27/21 A3011 690 71 2200 360/04 RMK AO2 SLP192 T02670211
14837KMSN MSN20010803125509608/03/01 12:55:31  5-MIN KMSN 031855Z 00000KT 10SM SCT017 27/21 A3011 690 71 2200 000/00 RMK AO2
14837KMSN MSN20010803130009608/03/01 13:00:31  5-MIN KMSN 031900Z VRB04KT 10SM SCT017 27/22 A3011 690 71 2300 VRB/04 RMK AO2
14837KMSN MSN20010803130510308/03/01 13:05:31  5-MIN KMSN 031905Z 01004KT 10SM FEW017 SCT035 27/22 A3011 690 71 2300 010/04 RMK AO2
14837KMSN MSN20010803131010308/03/01 13:10:31  5-MIN KMSN 031910Z VRB03KT 10SM FEW017 SCT035 27/21 A3011 690 69 2300 VRB/03 RMK AO2
14837KMSN MSN20010803131510308/03/01 13:15:31  5-MIN KMSN 031915Z VRB03KT 10SM FEW017 SCT035 28/22 A3010 700 69 2400 VRB/03 RMK AO2
14837KMSN MSN20010803132010308/03/01 13:20:31  5-MIN KMSN 031920Z 00000KT 10SM FEW017 SCT035 28/21 A3010 700 66 2400 000/00 RMK AO2
14837KMSN MSN20010803132510308/03/01 13:25:31  5-MIN KMSN 031925Z VRB03KT 10SM FEW017 SCT035 28/21 A3010 700 66 2400 VRB/03 RMK AO2
14837KMSN MSN20010803133009608/03/01 13:30:31  5-MIN KMSN 031930Z 36004KT 10SM SCT027 28/21 A3010 700 66 2400 360/04 RMK AO2
14837KMSN MSN20010803133509608/03/01 13:35:31  5-MIN KMSN 031935Z 35004KT 10SM SCT027 28/21 A3010 700 66 2400 350/04 RMK AO2
14837KMSN MSN20010803134009608/03/01 13:40:31  5-MIN KMSN 031940Z 36004KT 10SM SCT027 28/21 A3010 700 66 2400 360/04 RMK AO2
14837KMSN MSN20010803134509608/03/01 13:45:31  5-MIN KMSN 031945Z VRB03KT 10SM SCT027 28/21 A3009 700 66 2400 VRB/03 RMK AO2
14837KMSN MSN20010803135011308/03/01 13:50:31  5-MIN KMSN 031950Z 04004KT 10SM SCT027 28/21 A3009 710 66 2400 040/04 RMK AO2 SLP185 T02780211
14837KMSN MSN20010803135509608/03/01 13:55:31  5-MIN KMSN 031955Z VRB03KT 10SM SCT027 28/21 A3009 710 62 2400 VRB/03 RMK AO2
14837KMSN MSN20010803140009608/03/01 14:00:31  5-MIN KMSN 032000Z 29004KT 10SM SCT029 28/20 A3009 710 62 2400 290/04 RMK AO2
14837KMSN MSN20010803140509608/03/01 14:05:31  5-MIN KMSN 032005Z VRB03KT 10SM SCT029 27/19 A3009 710 62 2300 VRB/03 RMK AO2
14837KMSN MSN20010803141009608/03/01 14:10:31  5-MIN KMSN 032010Z VRB04KT 10SM SCT029 28/21 A3009 710 62 2400 VRB/04 RMK AO2
14837KMSN MSN20010803141509608/03/01 14:15:31  5-MIN KMSN 032015Z 00000KT 10SM SCT029 28/20 A3009 710 62 2400 000/00 RMK AO2
14837KMSN MSN20010803142009608/03/01 14:20:31  5-MIN KMSN 032020Z 00000KT 10SM SCT029 28/21 A3008 710 64 2400 000/00 RMK AO2
14837KMSN MSN20010803142509608/03/01 14:25:31  5-MIN KMSN 032025Z VRB03KT 10SM SCT029 28/20 A3008 710 62 2400 VRB/03 RMK AO2
14837KMSN MSN20010803143009608/03/01 14:30:31  5-MIN KMSN 032030Z 00000KT 10SM SCT030 28/20 A3008 720 60 2400 000/00 RMK AO2
14837KMSN MSN20010803143509608/03/01 14:35:31  5-MIN KMSN 032035Z 27004KT 10SM SCT031 28/20 A3008 720 62 2400 270/04 RMK AO2
14837KMSN MSN20010803144009608/03/01 14:40:31  5-MIN KMSN 032040Z VRB03KT 10SM SCT031 28/21 A3008 720 62 2500 VRB/03 RMK AO2
14837KMSN MSN20010803144509608/03/01 14:45:31  5-MIN KMSN 032045Z 01004KT 10SM SCT031 28/21 A3008 720 62 2500 010/04 RMK AO2
14837KMSN MSN20010803145011908/03/01 14:50:31  5-MIN KMSN 032050Z 00000KT 10SM SCT031 28/20 A3008 720 60 2500 000/00 RMK AO2 SLP180 T02830200 50000
14837KMSN MSN20010803145509608/03/01 14:55:31  5-MIN KMSN 032055Z 28003KT 10SM SCT031 28/20 A3007 720 62 2400 270/03 RMK AO2
14837KMSN MSN20010803150009608/03/01 15:00:31  5-MIN KMSN 032100Z 02005KT 10SM SCT031 28/21 A3007 720 62 2500 010/05 RMK AO2
14837KMSN MSN20010803150509608/03/01 15:05:31  5-MIN KMSN 032105Z VRB03KT 10SM SCT031 29/21 A3007 720 62 2500 VRB/03 RMK AO2
14837KMSN MSN20010803151009608/03/01 15:10:31  5-MIN KMSN 032110Z VRB04KT 10SM SCT031 28/21 A3007 730 62 2500 VRB/04 RMK AO2
14837KMSN MSN20010803151509608/03/01 15:15:31  5-MIN KMSN 032115Z 30005KT 10SM SCT031 28/21 A3007 730 62 2500 290/05 RMK AO2
14837KMSN MSN20010803152009608/03/01 15:20:31  5-MIN KMSN 032120Z 33006KT 10SM SCT031 28/21 A3006 730 62 2500 330/06 RMK AO2
14837KMSN MSN20010803152509608/03/01 15:25:31  5-MIN KMSN 032125Z 02003KT 10SM SCT031 28/21 A3006 730 62 2500 020/03 RMK AO2
14837KMSN MSN20010803153009608/03/01 15:30:31  5-MIN KMSN 032130Z 00000KT 10SM SCT031 28/20 A3006 740 60 2500 000/00 RMK AO2
14837KMSN MSN20010803153509608/03/01 15:35:31  5-MIN KMSN 032135Z 34003KT 10SM SCT031 29/21 A3006 740 60 2500 340/03 RMK AO2
14837KMSN MSN20010803154009608/03/01 15:40:31  5-MIN KMSN 032140Z 36003KT 10SM SCT031 29/21 A3005 740 60 2500 360/03 RMK AO2
14837KMSN MSN20010803154509608/03/01 15:45:31  5-MIN KMSN 032145Z 00000KT 10SM FEW034 29/21 A3005 740 58 2600 000/00 RMK AO2
14837KMSN MSN20010803155011308/03/01 15:50:31  5-MIN KMSN 032150Z VRB03KT 10SM FEW034 29/21 A3005 740 58 2600 VRB/03 RMK AO2 SLP171 T02940206
14837KMSN MSN20010803155509608/03/01 15:55:31  5-MIN KMSN 032155Z 03005KT 10SM FEW034 29/21 A3005 750 60 2500 030/05 RMK AO2
14837KMSN MSN20010803160009608/03/01 16:00:31  5-MIN KMSN 032200Z 05004KT 10SM FEW034 28/20 A3005 750 60 2500 050/04 RMK AO2
14837KMSN MSN20010803160509308/03/01 16:05:31  5-MIN KMSN 032205Z 01005KT 10SM CLR 28/20 A3005 750 60 2500 010/05 RMK AO2
14837KMSN MSN20010803161009308/03/01 16:10:31  5-MIN KMSN 032210Z 35006KT 10SM CLR 29/20 A3004 750 58 2600 350/06 RMK AO2
14837KMSN MSN20010803161509308/03/01 16:15:31  5-MIN KMSN 032215Z 01004KT 10SM CLR 28/19 A3004 750 58 2500 010/04 RMK AO2
14837KMSN MSN20010803162009308/03/01 16:20:31  5-MIN KMSN 032220Z 34005KT 10SM CLR 29/19 A3004 750 56 2600 340/05 RMK AO2
14837KMSN MSN20010803162509308/03/01 16:25:31  5-MIN KMSN 032225Z 34003KT 10SM CLR 29/20 A3004 750 58 2600 340/03 RMK AO2
14837KMSN MSN20010803163009308/03/01 16:30:31  5-MIN KMSN 032230Z 00000KT 10SM CLR 29/20 A3004 750 58 2600 000/00 RMK AO2
14837KMSN MSN20010803163509308/03/01 16:35:31  5-MIN KMSN 032235Z 34004KT 10SM CLR 29/20 A3004 750 58 2600 340/04 RMK AO2
14837KMSN MSN20010803164009308/03/01 16:40:31  5-MIN KMSN 032240Z 02006KT 10SM CLR 28/20 A3004 750 60 2500 020/06 RMK AO2
14837KMSN MSN20010803164509308/03/01 16:45:31  5-MIN KMSN 032245Z 03004KT 10SM CLR 28/19 A3004 760 58 2500 020/04 RMK AO2
14837KMSN MSN20010803165011308/03/01 16:50:31  5-MIN KMSN 032250Z 01005KT 10SM FEW035 28/20 A3004 760 60 2500 360/05 RMK AO2 SLP167 T02830200
14837KMSN MSN20010803165509308/03/01 16:55:31  5-MIN KMSN 032255Z VRB04KT 10SM CLR 28/20 A3004 750 60 2500 VRB/04 RMK AO2
14837KMSN MSN20010803170009308/03/01 17:00:31  5-MIN KMSN 032300Z 35003KT 10SM CLR 28/21 A3004 750 62 2500 350/03 RMK AO2
14837KMSN MSN20010803170509308/03/01 17:05:31  5-MIN KMSN 032305Z 34003KT 10SM CLR 28/21 A3004 760 62 2500 340/03 RMK AO2
14837KMSN MSN20010803171009308/03/01 17:10:31  5-MIN KMSN 032310Z 32003KT 10SM CLR 28/20 A3004 760 60 2500 320/03 RMK AO2
14837KMSN MSN20010803171509308/03/01 17:15:31  5-MIN KMSN 032315Z 32003KT 10SM CLR 28/20 A3004 760 62 2400 320/03 RMK AO2
14837KMSN MSN20010803172009308/03/01 17:20:31  5-MIN KMSN 032320Z 34003KT 10SM CLR 28/20 A3004 760 60 2500 340/03 RMK AO2
14837KMSN MSN20010803172509608/03/01 17:25:31  5-MIN KMSN 032325Z 00000KT 10SM FEW039 28/21 A3004 750 62 2500 000/00 RMK AO2
14837KMSN MSN20010803173009608/03/01 17:30:31  5-MIN KMSN 032330Z 00000KT 10SM SCT039 28/21 A3004 760 64 2400 000/00 RMK AO2
14837KMSN MSN20010803173509608/03/01 17:35:31  5-MIN KMSN 032335Z 00000KT 10SM SCT039 28/21 A3004 760 66 2400 000/00 RMK AO2
14837KMSN MSN20010803174009608/03/01 17:40:31  5-MIN KMSN 032340Z 00000KT 10SM FEW039 27/22 A3004 760 71 2400 000/00 RMK AO2
14837KMSN MSN20010803174509608/03/01 17:45:31  5-MIN KMSN 032345Z 00000KT 10SM FEW039 27/22 A3004 760 74 2400 000/00 RMK AO2
14837KMSN MSN20010803175013108/03/01 17:50:31  5-MIN KMSN 032350Z 00000KT 10SM SCT039 27/22 A3004 760 71 2400 000/00 RMK AO2 SLP166 T02720217 10294 20256 58014
14837KMSN MSN20010803175509608/03/01 17:55:31  5-MIN KMSN 032355Z 00000KT 10SM FEW039 28/21 A3004 760 64 2400 000/00 RMK AO2
14837KMSN MSN20010803180009608/03/01 18:00:31  5-MIN KMSN 040000Z 00000KT 10SM FEW039 27/22 A3003 760 71 2400 000/00 RMK AO2
14837KMSN MSN20010803180509608/03/01 18:05:31  5-MIN KMSN 040005Z 00000KT 10SM FEW039 27/22 A3003 760 73 2300 000/00 RMK AO2
14837KMSN MSN20010803181009608/03/01 18:10:31  5-MIN KMSN 040010Z 00000KT 10SM FEW039 26/22 A3003 760 79 2300 000/00 RMK AO2
14837KMSN MSN20010803181509608/03/01 18:15:31  5-MIN KMSN 040015Z 00000KT 10SM FEW039 26/22 A3003 760 76 2300 000/00 RMK AO2
14837KMSN MSN20010803182009608/03/01 18:20:31  5-MIN KMSN 040020Z 00000KT 10SM FEW039 26/22 A3003 760 81 2200 000/00 RMK AO2
14837KMSN MSN20010803182509608/03/01 18:25:31  5-MIN KMSN 040025Z 00000KT 10SM FEW039 26/22 A3003 760 81 2200 000/00 RMK AO2
14837KMSN MSN20010803183009608/03/01 18:30:31  5-MIN KMSN 040030Z 00000KT 10SM FEW039 26/22 A3003 760 79 2200 000/00 RMK AO2
14837KMSN MSN20010803183509608/03/01 18:35:31  5-MIN KMSN 040035Z 00000KT 10SM FEW039 26/22 A3003 760 79 2200 000/00 RMK AO2
14837KMSN MSN20010803184009308/03/01 18:40:31  5-MIN KMSN 040040Z 00000KT 10SM CLR 26/21 A3003 760 76 2200 000/00 RMK AO2
14837KMSN MSN20010803184509308/03/01 18:45:31  5-MIN KMSN 040045Z 00000KT 10SM CLR 25/21 A3003 760 79 2100 000/00 RMK AO2
14837KMSN MSN20010803185011308/03/01 18:50:31  5-MIN KMSN 040050Z 00000KT 10SM SCT040 24/22 A3003 760 84 2100 000/00 RMK AO2 SLP165 T02440217
14837KMSN MSN20010803185509308/03/01 18:55:31  5-MIN KMSN 040055Z 00000KT 10SM CLR 24/22 A3003 760 87 2000 000/00 RMK AO2
14837KMSN MSN20010803190009308/03/01 19:00:31  5-MIN KMSN 040100Z 00000KT 10SM CLR 24/22 A3003 760 87 2000 000/00 RMK AO2
14837KMSN MSN20010803190509208/03/01 19:05:31  5-MIN KMSN 040105Z 00000KT 9SM CLR 23/22 A3003 760 90 1900 000/00 RMK AO2
14837KMSN MSN20010803191009208/03/01 19:10:31  5-MIN KMSN 040110Z 00000KT 9SM CLR 24/22 A3003 760 87 2000 000/00 RMK AO2
14837KMSN MSN20010803191509208/03/01 19:15:31  5-MIN KMSN 040115Z 00000KT 8SM CLR 23/22 A3003 770 90 1900 000/00 RMK AO2
14837KMSN MSN20010803192009208/03/01 19:20:31  5-MIN KMSN 040120Z 00000KT 8SM CLR 23/22 A3003 770 93 1900 000/00 RMK AO2
14837KMSN MSN20010803192509208/03/01 19:25:31  5-MIN KMSN 040125Z 01003KT 8SM CLR 23/22 A3003 770 90 1900 010/03 RMK AO2
14837KMSN MSN20010803193009508/03/01 19:30:31  5-MIN KMSN 040130Z 00000KT 9SM FEW039 23/22 A3003 770 90 1900 000/00 RMK AO2
14837KMSN MSN20010803193509508/03/01 19:35:31  5-MIN KMSN 040135Z 00000KT 8SM SCT039 23/22 A3003 770 90 1900 000/00 RMK AO2
14837KMSN MSN20010803194009508/03/01 19:40:31  5-MIN KMSN 040140Z 00000KT 8SM SCT039 24/21 A3003 770 84 2000 000/00 RMK AO2
14837KMSN MSN20010803194509508/03/01 19:45:31  5-MIN KMSN 040145Z 00000KT 8SM BKN039 23/21 A3003 770 87 1900 000/00 RMK AO2
14837KMSN MSN20010803195011208/03/01 19:50:31  5-MIN KMSN 040150Z 02004KT 8SM BKN039 23/21 A3003 760 87 1900 020/04 RMK AO2 SLP164 T02330211
14837KMSN MSN20010803195509508/03/01 19:55:31  5-MIN KMSN 040155Z 02004KT 8SM BKN039 23/21 A3003 760 87 1900 020/04 RMK AO2
14837KMSN MSN20010803200009508/03/01 20:00:31  5-MIN KMSN 040200Z 00000KT 8SM BKN039 23/21 A3003 760 87 1900 000/00 RMK AO2
14837KMSN MSN20010803200509508/03/01 20:05:31  5-MIN KMSN 040205Z 00000KT 8SM BKN039 23/21 A3003 760 87 1900 000/00 RMK AO2
14837KMSN MSN20010803201009508/03/01 20:10:31  5-MIN KMSN 040210Z 00000KT 8SM BKN039 23/21 A3003 760 87 1900 000/00 RMK AO2
14837KMSN MSN20010803201509508/03/01 20:15:31  5-MIN KMSN 040215Z 00000KT 8SM SCT039 23/21 A3004 760 90 1900 000/00 RMK AO2
14837KMSN MSN20010803202009508/03/01 20:20:31  5-MIN KMSN 040220Z 00000KT 8SM SCT039 23/21 A3004 760 90 1900 000/00 RMK AO2
14837KMSN MSN20010803202509508/03/01 20:25:31  5-MIN KMSN 040225Z 00000KT 8SM FEW039 23/21 A3004 760 90 1900 000/00 RMK AO2
14837KMSN MSN20010803203009508/03/01 20:30:31  5-MIN KMSN 040230Z 00000KT 8SM FEW037 22/21 A3004 760 93 1800 000/00 RMK AO2
14837KMSN MSN20010803203509208/03/01 20:35:31  5-MIN KMSN 040235Z 00000KT 8SM CLR 22/21 A3004 750 93 1800 000/00 RMK AO2
14837KMSN MSN20010803204009208/03/01 20:40:31  5-MIN KMSN 040240Z 00000KT 7SM CLR 22/21 A3004 750 93 1800 000/00 RMK AO2
14837KMSN MSN20010803204509208/03/01 20:45:31  5-MIN KMSN 040245Z 00000KT 7SM CLR 22/21 A3004 750 93 1800 000/00 RMK AO2
14837KMSN MSN20010803205011808/03/01 20:50:31  5-MIN KMSN 040250Z 00000KT 7SM FEW040 23/21 A3004 750 90 1900 000/00 RMK AO2 SLP168 T02280211 56013
14837KMSN MSN20010803205509208/03/01 20:55:31  5-MIN KMSN 040255Z 00000KT 8SM CLR 22/21 A3004 750 93 1800 000/00 RMK AO2
14837KMSN MSN20010803210009208/03/01 21:00:31  5-MIN KMSN 040300Z 10004KT 8SM CLR 22/21 A3004 750 93 1800 100/04 RMK AO2
14837KMSN MSN20010803210509208/03/01 21:05:31  5-MIN KMSN 040305Z 13006KT 8SM CLR 23/21 A3005 750 87 1900 130/06 RMK AO2
14837KMSN MSN20010803211009208/03/01 21:10:31  5-MIN KMSN 040310Z 14007KT 9SM CLR 23/20 A3005 750 81 1900 140/07 RMK AO2
14837KMSN MSN20010803211509308/03/01 21:15:31  5-MIN KMSN 040315Z 13005KT 10SM CLR 23/19 A3005 750 81 1900 130/05 RMK AO2
14837KMSN MSN20010803212009308/03/01 21:20:31  5-MIN KMSN 040320Z 13006KT 10SM CLR 23/19 A3005 750 81 1900 130/06 RMK AO2
14837KMSN MSN20010803212509308/03/01 21:25:31  5-MIN KMSN 040325Z 13005KT 10SM CLR 22/19 A3005 740 81 1800 130/05 RMK AO2
14837KMSN MSN20010803213009308/03/01 21:30:31  5-MIN KMSN 040330Z 13005KT 10SM CLR 22/19 A3005 740 81 1800 120/05 RMK AO2
14837KMSN MSN20010803213509308/03/01 21:35:31  5-MIN KMSN 040335Z 13005KT 10SM CLR 22/19 A3005 740 81 1800 130/05 RMK AO2
14837KMSN MSN20010803214009308/03/01 21:40:31  5-MIN KMSN 040340Z 14004KT 10SM CLR 22/19 A3005 740 81 1800 140/04 RMK AO2
14837KMSN MSN20010803214509308/03/01 21:45:31  5-MIN KMSN 040345Z 14004KT 10SM CLR 22/19 A3005 740 81 1800 130/04 RMK AO2
14837KMSN MSN20010803215011008/03/01 21:50:31  5-MIN KMSN 040350Z 14005KT 10SM CLR 23/19 A3005 740 78 1900 140/05 RMK AO2 SLP171 T02280189
14837KMSN MSN20010803215509308/03/01 21:55:31  5-MIN KMSN 040355Z 14006KT 10SM CLR 22/19 A3005 740 81 1800 140/06 RMK AO2
14837KMSN MSN20010803220009308/03/01 22:00:31  5-MIN KMSN 040400Z 14004KT 10SM CLR 22/19 A3006 740 81 1800 140/04 RMK AO2
14837KMSN MSN20010803220509308/03/01 22:05:31  5-MIN KMSN 040405Z 13003KT 10SM CLR 22/19 A3005 740 81 1800 130/03 RMK AO2
14837KMSN MSN20010803221009308/03/01 22:10:31  5-MIN KMSN 040410Z 13003KT 10SM CLR 22/19 A3005 740 81 1800 130/03 RMK AO2
14837KMSN MSN20010803221509308/03/01 22:15:31  5-MIN KMSN 040415Z 13003KT 10SM CLR 22/19 A3005 740 81 1800 130/03 RMK AO2
14837KMSN MSN20010803222009308/03/01 22:20:31  5-MIN KMSN 040420Z 15004KT 10SM CLR 22/19 A3005 740 81 1800 150/04 RMK AO2
14837KMSN MSN20010803222509308/03/01 22:25:31  5-MIN KMSN 040425Z 14005KT 10SM CLR 22/19 A3006 740 84 1700 140/05 RMK AO2
14837KMSN MSN20010803223009308/03/01 22:30:31  5-MIN KMSN 040430Z 15005KT 10SM CLR 22/19 A3006 740 84 1700 150/05 RMK AO2
14837KMSN MSN20010803223509308/03/01 22:35:31  5-MIN KMSN 040435Z 14006KT 10SM CLR 22/19 A3006 740 84 1700 140/06 RMK AO2
14837KMSN MSN20010803224009308/03/01 22:40:31  5-MIN KMSN 040440Z 15005KT 10SM CLR 22/19 A3006 740 84 1700 150/05 RMK AO2
14837KMSN MSN20010803224509308/03/01 22:45:31  5-MIN KMSN 040445Z 16005KT 10SM CLR 22/19 A3006 740 84 1700 150/05 RMK AO2
14837KMSN MSN20010803225011008/03/01 22:50:31  5-MIN KMSN 040450Z 16005KT 10SM CLR 22/19 A3006 740 84 1700 150/05 RMK AO2 SLP174 T02170189
14837KMSN MSN20010803225509308/03/01 22:55:31  5-MIN KMSN 040455Z 17005KT 10SM CLR 22/19 A3006 730 84 1700 170/05 RMK AO2
14837KMSN MSN20010803230009608/03/01 23:00:31  5-MIN KMSN 040500Z 16006KT 10SM FEW038 22/19 A3006 730 81 1800 160/06 RMK AO2
14837KMSN MSN20010803230509608/03/01 23:05:31  5-MIN KMSN 040505Z 16005KT 10SM SCT038 22/19 A3006 730 81 1800 160/05 RMK AO2
14837KMSN MSN20010803231009608/03/01 23:10:31  5-MIN KMSN 040510Z 16005KT 10SM BKN038 22/19 A3006 730 81 1800 160/05 RMK AO2
14837KMSN MSN20010803231509608/03/01 23:15:31  5-MIN KMSN 040515Z 16005KT 10SM BKN038 22/19 A3006 730 81 1800 160/05 RMK AO2
14837KMSN MSN20010803232009608/03/01 23:20:31  5-MIN KMSN 040520Z 16005KT 10SM BKN038 22/19 A3006 730 84 1700 160/05 RMK AO2
14837KMSN MSN20010803232509608/03/01 23:25:31  5-MIN KMSN 040525Z 17004KT 10SM BKN038 22/19 A3006 730 81 1800 170/04 RMK AO2
14837KMSN MSN20010803233009608/03/01 23:30:31  5-MIN KMSN 040530Z 18004KT 10SM BKN038 22/19 A3006 730 81 1800 180/04 RMK AO2
14837KMSN MSN20010803233509608/03/01 23:35:31  5-MIN KMSN 040535Z 17004KT 10SM BKN038 22/18 A3006 730 81 1700 170/04 RMK AO2
14837KMSN MSN20010803234009608/03/01 23:40:31  5-MIN KMSN 040540Z 17004KT 10SM BKN038 22/18 A3006 730 81 1700 170/04 RMK AO2
14837KMSN MSN20010803234509608/03/01 23:45:31  5-MIN KMSN 040545Z 16004KT 10SM SCT038 22/18 A3006 740 81 1700 160/04 RMK AO2
14837KMSN MSN20010803235014108/03/01 23:50:31  5-MIN KMSN 040550Z 17004KT 10SM SCT038 22/18 A3006 740 81 1700 170/04 RMK AO2 SLP174 T02170183 10278 20217 402940178 53001
14837KMSN MSN20010803235509608/03/01 23:55:31  5-MIN KMSN 040555Z 16003KT 10SM SCT038 22/18 A3006 740 81 1700 160/03 RMK AO2
14837KMSN MSN20010804000009608/04/01 00:00:31  5-MIN KMSN 040600Z 16005KT 10SM FEW036 22/18 A3006 740 81 1700 160/05 RMK AO2
14837KMSN MSN20010804000509608/04/01 00:05:31  5-MIN KMSN 040605Z 15004KT 10SM FEW036 21/18 A3006 740 84 1700 150/04 RMK AO2
14837KMSN MSN20010804001009308/04/01 00:10:31  5-MIN KMSN 040610Z 16004KT 10SM CLR 22/18 A3006 740 81 1700 160/04 RMK AO2
14837KMSN MSN20010804001509308/04/01 00:15:31  5-MIN KMSN 040615Z 15004KT 10SM CLR 21/18 A3006 740 84 1700 150/04 RMK AO2
14837KMSN MSN20010804002009308/04/01 00:20:31  5-MIN KMSN 040620Z 15005KT 10SM CLR 21/18 A3005 740 84 1700 150/05 RMK AO2
14837KMSN MSN20010804002509308/04/01 00:25:31  5-MIN KMSN 040625Z 16004KT 10SM CLR 21/18 A3005 740 84 1700 160/04 RMK AO2
14837KMSN MSN20010804003009608/04/01 00:30:31  5-MIN KMSN 040630Z 16004KT 10SM FEW037 21/18 A3005 740 84 1700 160/04 RMK AO2
14837KMSN MSN20010804003509608/04/01 00:35:31  5-MIN KMSN 040635Z 16004KT 10SM SCT037 21/18 A3005 740 84 1700 160/04 RMK AO2
14837KMSN MSN20010804004009608/04/01 00:40:31  5-MIN KMSN 040640Z 16004KT 10SM BKN037 21/18 A3005 740 84 1700 160/04 RMK AO2
14837KMSN MSN20010804004509608/04/01 00:45:31  5-MIN KMSN 040645Z 17004KT 10SM BKN037 21/18 A3005 740 84 1700 170/04 RMK AO2
14837KMSN MSN20010804005011308/04/01 00:50:31  5-MIN KMSN 040650Z 17003KT 10SM BKN037 21/18 A3005 740 84 1700 170/03 RMK AO2 SLP171 T02110183
14837KMSN MSN20010804005509608/04/01 00:55:31  5-MIN KMSN 040655Z 15004KT 10SM BKN037 21/18 A3005 750 84 1700 150/04 RMK AO2
14837KMSN MSN20010804010009608/04/01 01:00:31  5-MIN KMSN 040700Z 17003KT 10SM SCT037 21/18 A3005 740 84 1700 170/03 RMK AO2
14837KMSN MSN20010804010509608/04/01 01:05:31  5-MIN KMSN 040705Z 00000KT 10SM FEW037 21/18 A3005 740 84 1700 000/00 RMK AO2
14837KMSN MSN20010804011009608/04/01 01:10:31  5-MIN KMSN 040710Z 16003KT 10SM FEW037 21/18 A3005 750 87 1600 160/03 RMK AO2
14837KMSN MSN20010804011509608/04/01 01:15:31  5-MIN KMSN 040715Z 00000KT 10SM FEW037 20/18 A3005 750 90 1500 000/00 RMK AO2
14837KMSN MSN20010804012009208/04/01 01:20:31  5-MIN KMSN 040720Z 00000KT 9SM CLR 19/18 A3005 750 93 1500 000/00 RMK AO2
14837KMSN MSN20010804012509208/04/01 01:25:31  5-MIN KMSN 040725Z 00000KT 8SM CLR 19/18 A3005 750 93 1500 000/00 RMK AO2
14837KMSN MSN20010804013009208/04/01 01:30:31  5-MIN KMSN 040730Z 00000KT 8SM CLR 19/18 A3005 740 93 1500 000/00 RMK AO2
14837KMSN MSN20010804013509208/04/01 01:35:31  5-MIN KMSN 040735Z 00000KT 8SM CLR 19/18 A3005 750 97 1400 000/00 RMK AO2
14837KMSN MSN20010804014009208/04/01 01:40:31  5-MIN KMSN 040740Z 00000KT 9SM CLR 19/18 A3005 740 93 1500 000/00 RMK AO2
14837KMSN MSN20010804014509208/04/01 01:45:31  5-MIN KMSN 040745Z 00000KT 8SM CLR 19/18 A3005 740 97 1400 000/00 RMK AO2
14837KMSN MSN20010804015010908/04/01 01:50:31  5-MIN KMSN 040750Z 00000KT 8SM CLR 19/18 A3005 740 97 1400 000/00 RMK AO2 SLP172 T01890183
14837KMSN MSN20010804015509208/04/01 01:55:31  5-MIN KMSN 040755Z 00000KT 8SM CLR 18/18 A3005 740 96 1300 000/00 RMK AO2
14837KMSN MSN20010804020009208/04/01 02:00:31  5-MIN KMSN 040800Z 00000KT 7SM CLR 18/18 A3005 740 96 1300 000/00 RMK AO2
14837KMSN MSN20010804020509208/04/01 02:05:31  5-MIN KMSN 040805Z 00000KT 7SM CLR 19/18 A3006 740 93 1400 000/00 RMK AO2
14837KMSN MSN20010804021009208/04/01 02:10:31  5-MIN KMSN 040810Z 00000KT 7SM CLR 19/18 A3006 740 97 1400 000/00 RMK AO2
14837KMSN MSN20010804021509508/04/01 02:15:31  5-MIN KMSN 040815Z 00000KT 6SM BR CLR 19/18 A3006 740 97 1400 000/00 RMK AO2
14837KMSN MSN20010804022009208/04/01 02:20:31  5-MIN KMSN 040820Z 00000KT 7SM CLR 19/18 A3006 740 97 1400 000/00 RMK AO2
14837KMSN MSN20010804022509208/04/01 02:25:31  5-MIN KMSN 040825Z 00000KT 7SM CLR 19/18 A3006 740 93 1500 000/00 RMK AO2
14837KMSN MSN20010804023009208/04/01 02:30:31  5-MIN KMSN 040830Z 00000KT 8SM CLR 19/18 A3005 740 97 1400 000/00 RMK AO2
14837KMSN MSN20010804023509208/04/01 02:35:31  5-MIN KMSN 040835Z 00000KT 7SM CLR 19/18 A3005 740 97 1400 000/00 RMK AO2
14837KMSN MSN20010804024009508/04/01 02:40:31  5-MIN KMSN 040840Z 00000KT 6SM BR CLR 18/18 A3005 740 96 1300 000/00 RMK AO2
14837KMSN MSN20010804024509208/04/01 02:45:31  5-MIN KMSN 040845Z 00000KT 8SM CLR 19/18 A3005 740 97 1400 000/00 RMK AO2
14837KMSN MSN20010804025011508/04/01 02:50:31  5-MIN KMSN 040850Z 00000KT 8SM CLR 19/18 A3005 740 97 1400 000/00 RMK AO2 SLP172 T01890183 50006
14837KMSN MSN20010804025509508/04/01 02:55:31  5-MIN KMSN 040855Z 00000KT 6SM BR CLR 18/18 A3005 740 96 1300 000/00 RMK AO2
14837KMSN MSN20010804030009508/04/01 03:00:31  5-MIN KMSN 040900Z 00000KT 6SM BR CLR 18/18 A3006 740 96 1300 000/00 RMK AO2
14837KMSN MSN20010804030509508/04/01 03:05:31  5-MIN KMSN 040905Z 00000KT 6SM BR CLR 18/18 A3006 740 96 1300 000/00 RMK AO2
14837KMSN MSN20010804031009808/04/01 03:10:31  5-MIN KMSN 040910Z 00000KT 6SM BR FEW100 18/18 A3006 740 96 1300 000/00 RMK AO2
14837KMSN MSN20010804031509808/04/01 03:15:31  5-MIN KMSN 040915Z 00000KT 5SM BR FEW100 18/18 A3005 740 96 1300 000/00 RMK AO2
14837KMSN MSN20010804032009908/04/01 03:20:31  5-MIN KMSN 040920Z 00000KT 6SM BR FEW100 18/18 A3006 740 100 1300 000/00 RMK AO2
14837KMSN MSN20010804032509808/04/01 03:25:31  5-MIN KMSN 040925Z 00000KT 6SM BR FEW100 18/18 A3006 740 96 1300 000/00 RMK AO2
14837KMSN MSN20010804033009808/04/01 03:30:31  5-MIN KMSN 040930Z 00000KT 6SM BR FEW100 18/17 A3006 740 96 1300 000/00 RMK AO2
14837KMSN MSN20010804033509808/04/01 03:35:31  5-MIN KMSN 040935Z 01004KT 6SM BR FEW100 18/17 A3006 740 96 1300 010/04 RMK AO2
14837KMSN MSN20010804034009508/04/01 03:40:31  5-MIN KMSN 040940Z 35003KT 6SM BR CLR 18/17 A3006 740 96 1300 350/03 RMK AO2
14837KMSN MSN20010804034509508/04/01 03:45:31  5-MIN KMSN 040945Z 00000KT 6SM BR CLR 18/17 A3006 740 96 1300 000/00 RMK AO2
14837KMSN MSN20010804035011208/04/01 03:50:31  5-MIN KMSN 040950Z 00000KT 8SM FEW100 18/18 A3006 740 96 1300 000/00 RMK AO2 SLP174 T01830178
14837KMSN MSN20010804035509508/04/01 03:55:31  5-MIN KMSN 040955Z 00000KT 8SM FEW100 18/18 A3006 740 96 1300 000/00 RMK AO2
14837KMSN MSN20010804040009508/04/01 04:00:31  5-MIN KMSN 041000Z 00000KT 8SM FEW100 18/18 A3006 740 96 1300 000/00 RMK AO2
14837KMSN MSN20010804040509508/04/01 04:05:31  5-MIN KMSN 041005Z 00000KT 8SM FEW100 18/18 A3006 730 96 1300 000/00 RMK AO2
14837KMSN MSN20010804041009608/04/01 04:10:31  5-MIN KMSN 041010Z 00000KT 8SM FEW100 18/18 A3006 730 100 1300 000/00 RMK AO2
14837KMSN MSN20010804041509508/04/01 04:15:31  5-MIN KMSN 041015Z 00000KT 8SM FEW100 18/18 A3006 740 96 1300 000/00 RMK AO2
14837KMSN MSN20010804042009308/04/01 04:20:31  5-MIN KMSN 041020Z 00000KT 8SM CLR 18/18 A3006 730 100 1300 000/00 RMK AO2
14837KMSN MSN20010804042509608/04/01 04:25:31  5-MIN KMSN 041025Z 00000KT 5SM BR CLR 18/18 A3006 730 100 1300 000/00 RMK AO2
14837KMSN MSN20010804043009608/04/01 04:30:31  5-MIN KMSN 041030Z 00000KT 4SM BR CLR 18/18 A3006 730 100 1300 000/00 RMK AO2
14837KMSN MSN20010804043510108/04/01 04:35:31  5-MIN KMSN 041035Z 00000KT 4SM BR MIFG CLR 18/18 A3006 730 100 1300 000/00 RMK AO2
14837KMSN MSN20010804044010108/04/01 04:40:31  5-MIN KMSN 041040Z 00000KT 4SM BR MIFG CLR 18/18 A3006 730 100 1300 000/00 RMK AO2
14837KMSN MSN20010804044510108/04/01 04:45:31  5-MIN KMSN 041045Z 00000KT 4SM BR MIFG CLR 18/18 A3006 730 100 1300 000/00 RMK AO2
14837KMSN MSN20010804045011808/04/01 04:50:31  5-MIN KMSN 041050Z 00000KT 5SM BR BCFG CLR 18/18 A3006 730 100 1300 000/00 RMK AO2 SLP176 T01780178
14837KMSN MSN20010804045510108/04/01 04:55:31  5-MIN KMSN 041055Z 00000KT 5SM BR BCFG CLR 18/18 A3007 730 100 1300 000/00 RMK AO2
14837KMSN MSN20010804050010008/04/01 05:00:31  5-MIN KMSN 041100Z 00000KT 5SM BR BCFG CLR 18/17 A3007 730 96 1300 000/00 RMK AO2
14837KMSN MSN20010804050510008/04/01 05:05:31  5-MIN KMSN 041105Z 00000KT 5SM BR BCFG CLR 18/17 A3007 730 96 1300 000/00 RMK AO2
14837KMSN MSN20010804051010008/04/01 05:10:31  5-MIN KMSN 041110Z 00000KT 5SM BR BCFG CLR 18/17 A3007 730 96 1300 000/00 RMK AO2
14837KMSN MSN20010804051510708/04/01 05:15:31  5-MIN KMSN 041115Z 00000KT 5SM BR BCFG CLR 18/18 A3007 730 100 1300 000/00 RMK AO2 P0001
14837KMSN MSN20010804052010608/04/01 05:20:31  5-MIN KMSN 041120Z 00000KT 5SM BR BCFG CLR 18/18 A3007 730 96 1300 000/00 RMK AO2 P0001
14837KMSN MSN20010804052510608/04/01 05:25:31  5-MIN KMSN 041125Z 00000KT 5SM BR BCFG CLR 18/18 A3007 730 96 1300 000/00 RMK AO2 P0001
14837KMSN MSN20010804053010608/04/01 05:30:31  5-MIN KMSN 041130Z 00000KT 5SM BR BCFG CLR 18/18 A3007 730 96 1300 000/00 RMK AO2 P0001
14837KMSN MSN20010804053510608/04/01 05:35:31  5-MIN KMSN 041135Z 00000KT 5SM BR BCFG CLR 18/18 A3007 730 96 1300 000/00 RMK AO2 P0001
14837KMSN MSN20010804054010608/04/01 05:40:31  5-MIN KMSN 041140Z 00000KT 5SM BR BCFG CLR 18/18 A3007 730 96 1300 000/00 RMK AO2 P0001
14837KMSN MSN20010804054510608/04/01 05:45:31  5-MIN KMSN 041145Z 00000KT 5SM BR BCFG CLR 18/18 A3007 730 96 1300 000/00 RMK AO2 P0001
14837KMSN MSN20010804055013608/04/01 05:50:31  5-MIN KMSN 041150Z 00000KT 5SM BR BCFG CLR 18/18 A3007 730 100 1300 000/00 RMK AO2 SLP177 T01830183 10217 20178 56002
14837KMSN MSN20010804055510008/04/01 05:55:31  5-MIN KMSN 041155Z 00000KT 5SM BR BCFG CLR 19/18 A3007 720 97 1400 000/00 RMK AO2
14837KMSN MSN20010804060010008/04/01 06:00:31  5-MIN KMSN 041200Z 00000KT 5SM BR BCFG CLR 19/18 A3007 720 93 1400 000/00 RMK AO2
14837KMSN MSN20010804060510308/04/01 06:05:31  5-MIN KMSN 041205Z 00000KT 5SM BR BCFG FEW032 19/18 A3007 720 93 1400 000/00 RMK AO2
14837KMSN MSN20010804061010308/04/01 06:10:31  5-MIN KMSN 041210Z 00000KT 5SM BR BCFG SCT032 20/19 A3008 720 93 1500 000/00 RMK AO2
14837KMSN MSN20010804061510308/04/01 06:15:31  5-MIN KMSN 041215Z 00000KT 5SM BR BCFG BKN032 20/19 A3008 720 93 1500 000/00 RMK AO2
14837KMSN MSN20010804062010308/04/01 06:20:31  5-MIN KMSN 041220Z 00000KT 5SM BR BCFG BKN032 21/19 A3008 720 90 1600 000/00 RMK AO2
14837KMSN MSN20010804062510308/04/01 06:25:31  5-MIN KMSN 041225Z 00000KT 5SM BR BCFG SCT032 21/19 A3008 720 90 1600 000/00 RMK AO2
14837KMSN MSN20010804063010308/04/01 06:30:31  5-MIN KMSN 041230Z 00000KT 5SM BR BCFG SCT032 21/19 A3007 720 90 1600 000/00 RMK AO2
14837KMSN MSN20010804063510308/04/01 06:35:31  5-MIN KMSN 041235Z 00000KT 6SM BR BCFG SCT032 21/19 A3007 720 90 1600 000/00 RMK AO2
14837KMSN MSN20010804064010308/04/01 06:40:31  5-MIN KMSN 041240Z 00000KT 6SM BR BCFG SCT032 22/19 A3008 720 87 1700 000/00 RMK AO2
14837KMSN MSN20010804064510308/04/01 06:45:31  5-MIN KMSN 041245Z 00000KT 6SM BR BCFG SCT032 22/19 A3008 720 87 1700 000/00 RMK AO2
14837KMSN MSN20010804065011508/04/01 06:50:31  5-MIN KMSN 041250Z 00000KT 6SM HZ SCT032 22/19 A3008 720 84 1800 000/00 RMK AO2 SLP180 T02220194
14837KMSN MSN20010804065509508/04/01 06:55:31  5-MIN KMSN 041255Z 00000KT 8SM SCT032 22/19 A3008 720 84 1800 000/00 RMK AO2
14837KMSN MSN20010804070009508/04/01 07:00:31  5-MIN KMSN 041300Z 17003KT 8SM FEW032 23/19 A3008 720 81 1800 170/03 RMK AO2
14837KMSN MSN20010804070509508/04/01 07:05:31  5-MIN KMSN 041305Z 17003KT 8SM FEW032 23/19 A3008 720 81 1800 170/03 RMK AO2
14837KMSN MSN20010804071009508/04/01 07:10:31  5-MIN KMSN 041310Z 15003KT 9SM FEW032 23/19 A3008 720 78 1800 150/03 RMK AO2
14837KMSN MSN20010804071509208/04/01 07:15:31  5-MIN KMSN 041315Z 16004KT 8SM CLR 23/19 A3008 720 81 1800 160/04 RMK AO2
14837KMSN MSN20010804072009208/04/01 07:20:31  5-MIN KMSN 041320Z 15003KT 8SM CLR 23/19 A3008 720 81 1800 150/03 RMK AO2
14837KMSN MSN20010804072509208/04/01 07:25:31  5-MIN KMSN 041325Z 15003KT 8SM CLR 23/19 A3008 720 81 1800 150/03 RMK AO2
14837KMSN MSN20010804073009208/04/01 07:30:31  5-MIN KMSN 041330Z 00000KT 8SM CLR 23/19 A3008 710 78 1900 000/00 RMK AO2
14837KMSN MSN20010804073509208/04/01 07:35:31  5-MIN KMSN 041335Z 15004KT 9SM CLR 23/19 A3009 710 78 1900 150/04 RMK AO2
14837KMSN MSN20010804074009208/04/01 07:40:31  5-MIN KMSN 041340Z 00000KT 9SM CLR 23/19 A3009 710 78 1900 000/00 RMK AO2
14837KMSN MSN20010804074509208/04/01 07:45:31  5-MIN KMSN 041345Z 00000KT 9SM CLR 24/19 A3009 710 76 1900 000/00 RMK AO2
14837KMSN MSN20010804075010908/04/01 07:50:31  5-MIN KMSN 041350Z 16003KT 9SM CLR 24/19 A3008 710 76 1900 160/03 RMK AO2 SLP182 T02390194
14837KMSN MSN20010804075509208/04/01 07:55:31  5-MIN KMSN 041355Z 12004KT 9SM CLR 24/19 A3008 710 73 2000 120/04 RMK AO2
14837KMSN MSN20010804080009208/04/01 08:00:31  5-MIN KMSN 041400Z 15004KT 9SM CLR 24/19 A3008 720 73 2000 150/04 RMK AO2
14837KMSN MSN20010804080509208/04/01 08:05:31  5-MIN KMSN 041405Z 19003KT 9SM CLR 24/19 A3008 720 73 2000 180/03 RMK AO2
14837KMSN MSN20010804081009208/04/01 08:10:31  5-MIN KMSN 041410Z 16003KT 9SM CLR 24/19 A3008 720 73 2000 160/03 RMK AO2
14837KMSN MSN20010804081509208/04/01 08:15:31  5-MIN KMSN 041415Z 00000KT 9SM CLR 24/19 A3008 720 73 2000 000/00 RMK AO2
14837KMSN MSN20010804082009208/04/01 08:20:31  5-MIN KMSN 041420Z 00000KT 9SM CLR 25/19 A3008 720 71 2100 000/00 RMK AO2
14837KMSN MSN20010804082509208/04/01 08:25:31  5-MIN KMSN 041425Z 16003KT 9SM CLR 25/19 A3008 720 71 2100 160/03 RMK AO2
14837KMSN MSN20010804083009208/04/01 08:30:31  5-MIN KMSN 041430Z VRB03KT 9SM CLR 25/19 A3008 720 71 2100 VRB/03 RMK AO2
14837KMSN MSN20010804083509208/04/01 08:35:31  5-MIN KMSN 041435Z 15003KT 9SM CLR 25/20 A3008 720 73 2100 150/03 RMK AO2
14837KMSN MSN20010804084009208/04/01 08:40:31  5-MIN KMSN 041440Z VRB03KT 9SM CLR 26/20 A3008 720 71 2100 VRB/03 RMK AO2
14837KMSN MSN20010804084509208/04/01 08:45:31  5-MIN KMSN 041445Z 14003KT 9SM CLR 26/20 A3008 720 71 2100 140/03 RMK AO2
14837KMSN MSN20010804085011508/04/01 08:50:31  5-MIN KMSN 041450Z 16004KT 9SM CLR 26/21 A3008 720 71 2200 160/04 RMK AO2 SLP181 T02610206 52006
14837KMSN MSN20010804085509208/04/01 08:55:31  5-MIN KMSN 041455Z 13003KT 9SM CLR 26/20 A3008 720 71 2100 130/03 RMK AO2
14837KMSN MSN20010804090009308/04/01 09:00:31  5-MIN KMSN 041500Z 15005KT 10SM CLR 26/21 A3008 720 71 2200 150/05 RMK AO2
14837KMSN MSN20010804090509208/04/01 09:05:31  5-MIN KMSN 041505Z 16003KT 9SM CLR 26/20 A3008 720 71 2100 160/03 RMK AO2
14837KMSN MSN20010804091009208/04/01 09:10:31  5-MIN KMSN 041510Z 14003KT 9SM CLR 26/20 A3008 720 71 2100 140/03 RMK AO2
14837KMSN MSN20010804091509208/04/01 09:15:31  5-MIN KMSN 041515Z 16004KT 9SM CLR 26/20 A3008 720 68 2200 160/04 RMK AO2
14837KMSN MSN20010804092009208/04/01 09:20:31  5-MIN KMSN 041520Z 00000KT 9SM CLR 26/20 A3008 720 68 2200 000/00 RMK AO2
14837KMSN MSN20010804092509208/04/01 09:25:31  5-MIN KMSN 041525Z 16004KT 9SM CLR 27/20 A3008 720 66 2300 160/04 RMK AO2
14837KMSN MSN20010804093009308/04/01 09:30:31  5-MIN KMSN 041530Z 19004KT 10SM CLR 26/20 A3008 720 68 2200 190/04 RMK AO2
14837KMSN MSN20010804093509308/04/01 09:35:31  5-MIN KMSN 041535Z 00000KT 10SM CLR 26/19 A3008 720 66 2200 000/00 RMK AO2
14837KMSN MSN20010804094009308/04/01 09:40:31  5-MIN KMSN 041540Z 14004KT 10SM CLR 27/21 A3008 720 66 2300 140/04 RMK AO2
14837KMSN MSN20010804094509308/04/01 09:45:31  5-MIN KMSN 041545Z VRB03KT 10SM CLR 27/20 A3008 720 66 2300 VRB/03 RMK AO2
14837KMSN MSN20010804095010908/04/01 09:50:31  5-MIN KMSN 041550Z 00000KT 9SM CLR 27/21 A3009 710 66 2300 000/00 RMK AO2 SLP182 T02720206
14837KMSN MSN20010804095509208/04/01 09:55:31  5-MIN KMSN 041555Z 00000KT 9SM CLR 27/21 A3009 710 66 2300 000/00 RMK AO2
14837KMSN MSN20010804100009608/04/01 10:00:31  5-MIN KMSN 041600Z VRB03KT 10SM FEW030 27/20 A3009 710 66 2300 VRB/03 RMK AO2
14837KMSN MSN20010804100509508/04/01 10:05:31  5-MIN KMSN 041605Z 23003KT 9SM SCT032 27/19 A3009 710 64 2300 230/03 RMK AO2
14837KMSN MSN20010804101009508/04/01 10:10:31  5-MIN KMSN 041610Z 00000KT 9SM SCT032 27/20 A3009 710 66 2300 000/00 RMK AO2
14837KMSN MSN20010804101509608/04/01 10:15:31  5-MIN KMSN 041615Z VRB03KT 10SM FEW032 27/20 A3009 710 66 2300 VRB/03 RMK AO2
14837KMSN MSN20010804102009608/04/01 10:20:31  5-MIN KMSN 041620Z 00000KT 10SM SCT032 27/20 A3009 710 64 2300 000/00 RMK AO2
14837KMSN MSN20010804102509608/04/01 10:25:31  5-MIN KMSN 041625Z 00000KT 10SM SCT032 26/20 A3008 710 68 2200 000/00 RMK AO2
14837KMSN MSN20010804103009508/04/01 10:30:31  5-MIN KMSN 041630Z 00000KT 9SM BKN032 27/20 A3008 720 66 2300 000/00 RMK AO2
14837KMSN MSN20010804103509508/04/01 10:35:31  5-MIN KMSN 041635Z 00000KT 9SM BKN030 27/20 A3008 720 66 2300 000/00 RMK AO2
14837KMSN MSN20010804104009608/04/01 10:40:31  5-MIN KMSN 041640Z 00000KT 10SM BKN030 27/21 A3008 720 69 2300 000/00 RMK AO2
14837KMSN MSN20010804104509608/04/01 10:45:31  5-MIN KMSN 041645Z 00000KT 10SM BKN032 27/20 A3008 720 64 2300 000/00 RMK AO2
14837KMSN MSN20010804105011308/04/01 10:50:31  5-MIN KMSN 041650Z 15003KT 10SM BKN032 27/20 A3008 720 66 2300 150/03 RMK AO2 SLP180 T02670200
14837KMSN MSN20010804105509508/04/01 10:55:31  5-MIN KMSN 041655Z VRB06KT 9SM BKN032 27/21 A3008 720 69 2300 VRB/06 RMK AO2
14837KMSN MSN20010804110009608/04/01 11:00:31  5-MIN KMSN 041700Z 17007KT 10SM BKN032 27/21 A3008 720 66 2300 170/07 RMK AO2
14837KMSN MSN20010804110509608/04/01 11:05:31  5-MIN KMSN 041705Z 14006KT 10SM BKN032 28/21 A3008 720 64 2400 130/06 RMK AO2
14837KMSN MSN20010804111009608/04/01 11:10:31  5-MIN KMSN 041710Z 12007KT 10SM BKN032 28/21 A3008 720 64 2400 120/07 RMK AO2
14837KMSN MSN20010804111509608/04/01 11:15:31  5-MIN KMSN 041715Z 17006KT 10SM BKN034 28/21 A3007 720 64 2400 170/06 RMK AO2
14837KMSN MSN20010804112009608/04/01 11:20:31  5-MIN KMSN 041720Z 14005KT 10SM SCT034 28/21 A3007 720 64 2400 140/05 RMK AO2
14837KMSN MSN20010804112509608/04/01 11:25:31  5-MIN KMSN 041725Z 15005KT 10SM SCT034 28/21 A3008 720 64 2400 150/05 RMK AO2
14837KMSN MSN20010804113009608/04/01 11:30:31  5-MIN KMSN 041730Z VRB03KT 10SM FEW034 28/20 A3008 720 62 2400 VRB/03 RMK AO2
14837KMSN MSN20010804113509608/04/01 11:35:31  5-MIN KMSN 041735Z VRB03KT 10SM FEW036 28/21 A3008 720 64 2400 VRB/03 RMK AO2
14837KMSN MSN20010804114009308/04/01 11:40:31  5-MIN KMSN 041740Z 00000KT 10SM CLR 28/20 A3007 720 62 2400 000/00 RMK AO2
14837KMSN MSN20010804114509308/04/01 11:45:31  5-MIN KMSN 041745Z VRB05KT 10SM CLR 28/20 A3007 730 60 2500 VRB/05 RMK AO2
14837KMSN MSN20010804115012808/04/01 11:50:31  5-MIN KMSN 041750Z VRB04KT 10SM CLR 28/21 A3007 730 62 2500 VRB/04 RMK AO2 SLP176 T02830206 10283 20189 50003
14837KMSN MSN20010804115509308/04/01 11:55:31  5-MIN KMSN 041755Z VRB03KT 10SM CLR 28/21 A3007 730 62 2500 VRB/03 RMK AO2
14837KMSN MSN20010804120009308/04/01 12:00:31  5-MIN KMSN 041800Z 15005KT 10SM CLR 28/20 A3007 730 60 2500 150/05 RMK AO2
14837KMSN MSN20010804120509308/04/01 12:05:31  5-MIN KMSN 041805Z VRB05KT 10SM CLR 29/20 A3007 730 58 2500 VRB/05 RMK AO2
14837KMSN MSN20010804121009308/04/01 12:10:31  5-MIN KMSN 041810Z 11004KT 10SM CLR 28/21 A3006 730 62 2500 110/04 RMK AO2
14837KMSN MSN20010804121509308/04/01 12:15:31  5-MIN KMSN 041815Z VRB05KT 10SM CLR 29/20 A3007 730 58 2500 VRB/05 RMK AO2
14837KMSN MSN20010804122009308/04/01 12:20:31  5-MIN KMSN 041820Z VRB04KT 10SM CLR 28/20 A3006 730 60 2500 VRB/04 RMK AO2
14837KMSN MSN20010804122509308/04/01 12:25:31  5-MIN KMSN 041825Z VRB04KT 10SM CLR 28/20 A3006 730 60 2500 VRB/04 RMK AO2
14837KMSN MSN20010804123009308/04/01 12:30:31  5-MIN KMSN 041830Z 17006KT 10SM CLR 28/20 A3007 730 60 2500 170/06 RMK AO2
14837KMSN MSN20010804123509308/04/01 12:35:31  5-MIN KMSN 041835Z VRB03KT 10SM CLR 28/20 A3006 730 60 2500 VRB/03 RMK AO2
14837KMSN MSN20010804124009308/04/01 12:40:31  5-MIN KMSN 041840Z 00000KT 10SM CLR 29/20 A3007 730 58 2500 000/00 RMK AO2
14837KMSN MSN20010804124509308/04/01 12:45:31  5-MIN KMSN 041845Z 18007KT 10SM CLR 29/21 A3006 730 60 2500 170/07 RMK AO2
14837KMSN MSN20010804125011008/04/01 12:50:31  5-MIN KMSN 041850Z VRB03KT 10SM CLR 28/20 A3006 730 60 2500 VRB/03 RMK AO2 SLP174 T02830200
14837KMSN MSN20010804125509308/04/01 12:55:31  5-MIN KMSN 041855Z VRB03KT 10SM CLR 29/19 A3006 730 56 2500 VRB/03 RMK AO2
14837KMSN MSN20010804130009308/04/01 13:00:31  5-MIN KMSN 041900Z 21004KT 10SM CLR 28/19 A3006 740 58 2500 200/04 RMK AO2
14837KMSN MSN20010804130509308/04/01 13:05:31  5-MIN KMSN 041905Z 15007KT 10SM CLR 29/21 A3006 740 60 2500 150/07 RMK AO2
14837KMSN MSN20010804131009308/04/01 13:10:31  5-MIN KMSN 041910Z 12005KT 10SM CLR 28/19 A3005 740 58 2500 120/05 RMK AO2
14837KMSN MSN20010804131509308/04/01 13:15:31  5-MIN KMSN 041915Z VRB03KT 10SM CLR 29/19 A3005 740 56 2500 VRB/03 RMK AO2
14837KMSN MSN20010804132009308/04/01 13:20:31  5-MIN KMSN 041920Z 15005KT 10SM CLR 29/19 A3005 740 56 2500 150/05 RMK AO2
14837KMSN MSN20010804132509308/04/01 13:25:31  5-MIN KMSN 041925Z 16005KT 10SM CLR 29/19 A3005 740 56 2500 160/05 RMK AO2
14837KMSN MSN20010804133009308/04/01 13:30:31  5-MIN KMSN 041930Z 00000KT 10SM CLR 29/19 A3005 740 56 2500 000/00 RMK AO2
14837KMSN MSN20010804133509308/04/01 13:35:31  5-MIN KMSN 041935Z 00000KT 10SM CLR 29/19 A3005 750 54 2600 000/00 RMK AO2
14837KMSN MSN20010804134009308/04/01 13:40:31  5-MIN KMSN 041940Z 13005KT 10SM CLR 29/20 A3005 750 56 2600 130/05 RMK AO2
14837KMSN MSN20010804134509308/04/01 13:45:31  5-MIN KMSN 041945Z VRB04KT 10SM CLR 29/19 A3005 740 54 2600 VRB/04 RMK AO2
14837KMSN MSN20010804135011008/04/01 13:50:31  5-MIN KMSN 041950Z 00000KT 10SM CLR 29/19 A3005 740 54 2600 000/00 RMK AO2 SLP171 T02940194
14837KMSN MSN20010804135509308/04/01 13:55:31  5-MIN KMSN 041955Z 21006KT 10SM CLR 29/19 A3005 740 56 2500 210/06 RMK AO2
14837KMSN MSN20010804140009308/04/01 14:00:31  5-MIN KMSN 042000Z VRB05KT 10SM CLR 29/20 A3005 740 56 2600 VRB/05 RMK AO2
14837KMSN MSN20010804140509308/04/01 14:05:31  5-MIN KMSN 042005Z 16006KT 10SM CLR 29/21 A3005 740 58 2600 160/06 RMK AO2
14837KMSN MSN20010804141009608/04/01 14:10:31  5-MIN KMSN 042010Z 15005KT 10SM FEW042 29/19 A3005 740 56 2500 150/05 RMK AO2
14837KMSN MSN20010804141509608/04/01 14:15:31  5-MIN KMSN 042015Z 19004KT 10SM FEW042 29/19 A3005 750 54 2600 190/04 RMK AO2
14837KMSN MSN20010804142009608/04/01 14:20:31  5-MIN KMSN 042020Z VRB03KT 10SM FEW042 29/19 A3005 740 54 2600 VRB/03 RMK AO2
14837KMSN MSN20010804142509608/04/01 14:25:31  5-MIN KMSN 042025Z VRB03KT 10SM FEW042 29/19 A3005 750 56 2500 VRB/03 RMK AO2
14837KMSN MSN20010804143009608/04/01 14:30:31  5-MIN KMSN 042030Z 18007KT 10SM FEW042 29/19 A3005 750 56 2500 180/07 RMK AO2
14837KMSN MSN20010804143509308/04/01 14:35:31  5-MIN KMSN 042035Z VRB05KT 10SM CLR 29/20 A3005 750 58 2500 VRB/05 RMK AO2
14837KMSN MSN20010804144009308/04/01 14:40:31  5-MIN KMSN 042040Z 00000KT 10SM CLR 29/20 A3005 750 58 2500 000/00 RMK AO2
14837KMSN MSN20010804144509308/04/01 14:45:31  5-MIN KMSN 042045Z VRB04KT 10SM CLR 29/20 A3005 750 56 2600 VRB/04 RMK AO2
14837KMSN MSN20010804145011608/04/01 14:50:31  5-MIN KMSN 042050Z 18009KT 10SM CLR 29/21 A3005 750 58 2600 180/09 RMK AO2 SLP170 T02940206 58004
14837KMSN MSN20010804145509308/04/01 14:55:31  5-MIN KMSN 042055Z 00000KT 10SM CLR 29/20 A3005 750 56 2600 000/00 RMK AO2
14837KMSN MSN20010804150009608/04/01 15:00:31  5-MIN KMSN 042100Z 15005KT 10SM FEW040 29/20 A3005 740 56 2600 150/05 RMK AO2
14837KMSN MSN20010804150509608/04/01 15:05:31  5-MIN KMSN 042105Z 00000KT 10SM FEW040 29/20 A3005 750 56 2600 000/00 RMK AO2
14837KMSN MSN20010804151009608/04/01 15:10:31  5-MIN KMSN 042110Z 11004KT 10SM FEW040 29/20 A3005 750 56 2600 110/04 RMK AO2
14837KMSN MSN20010804151509608/04/01 15:15:31  5-MIN KMSN 042115Z 16005KT 10SM FEW040 29/20 A3004 750 56 2600 150/05 RMK AO2
14837KMSN MSN20010804152009608/04/01 15:20:31  5-MIN KMSN 042120Z 15004KT 10SM FEW040 29/20 A3004 750 56 2600 150/04 RMK AO2
14837KMSN MSN20010804152509608/04/01 15:25:31  5-MIN KMSN 042125Z 17004KT 10SM FEW040 29/20 A3004 750 58 2600 170/04 RMK AO2
14837KMSN MSN20010804153009608/04/01 15:30:31  5-MIN KMSN 042130Z 00000KT 10SM FEW040 29/20 A3004 750 56 2600 000/00 RMK AO2
14837KMSN MSN20010804153509608/04/01 15:35:31  5-MIN KMSN 042135Z VRB03KT 10SM FEW040 29/21 A3004 750 58 2600 VRB/03 RMK AO2
14837KMSN MSN20010804154009608/04/01 15:40:31  5-MIN KMSN 042140Z VRB03KT 10SM FEW040 29/21 A3004 750 58 2600 VRB/03 RMK AO2
14837KMSN MSN20010804154509608/04/01 15:45:31  5-MIN KMSN 042145Z VRB03KT 10SM SCT042 29/20 A3004 750 56 2600 VRB/03 RMK AO2
14837KMSN MSN20010804155011308/04/01 15:50:31  5-MIN KMSN 042150Z 15005KT 10SM SCT042 29/21 A3004 750 58 2600 150/05 RMK AO2 SLP167 T02940206
14837KMSN MSN20010804155509608/04/01 15:55:31  5-MIN KMSN 042155Z VRB03KT 10SM SCT042 29/21 A3004 750 58 2600 VRB/03 RMK AO2
14837KMSN MSN20010804160009608/04/01 16:00:31  5-MIN KMSN 042200Z VRB04KT 10SM SCT042 29/20 A3004 750 56 2600 VRB/04 RMK AO2
14837KMSN MSN20010804160509608/04/01 16:05:31  5-MIN KMSN 042205Z 11004KT 10SM SCT042 29/21 A3004 750 60 2600 110/04 RMK AO2
14837KMSN MSN20010804161009608/04/01 16:10:31  5-MIN KMSN 042210Z 14004KT 10SM SCT042 29/20 A3004 750 56 2600 140/04 RMK AO2
14837KMSN MSN20010804161509608/04/01 16:15:31  5-MIN KMSN 042215Z 17006KT 10SM SCT042 29/21 A3004 750 58 2600 170/06 RMK AO2
14837KMSN MSN20010804162009608/04/01 16:20:31  5-MIN KMSN 042220Z 16004KT 10SM FEW042 29/21 A3004 750 60 2600 150/04 RMK AO2
14837KMSN MSN20010804162509608/04/01 16:25:31  5-MIN KMSN 042225Z 00000KT 10SM FEW042 29/20 A3004 750 56 2600 000/00 RMK AO2
14837KMSN MSN20010804163009608/04/01 16:30:31  5-MIN KMSN 042230Z 17005KT 10SM FEW042 29/21 A3004 760 58 2600 170/05 RMK AO2
14837KMSN MSN20010804163509608/04/01 16:35:31  5-MIN KMSN 042235Z 17004KT 10SM FEW042 29/21 A3004 760 58 2600 170/04 RMK AO2
14837KMSN MSN20010804164009608/04/01 16:40:31  5-MIN KMSN 042240Z VRB03KT 10SM FEW042 29/20 A3004 760 56 2600 VRB/03 RMK AO2
14837KMSN MSN20010804164509608/04/01 16:45:31  5-MIN KMSN 042245Z 13003KT 10SM FEW042 29/20 A3003 760 56 2600 130/03 RMK AO2
14837KMSN MSN20010804165011308/04/01 16:50:31  5-MIN KMSN 042250Z 00000KT 10SM FEW042 29/21 A3004 760 58 2600 000/00 RMK AO2 SLP166 T02940206
14837KMSN MSN20010804165509608/04/01 16:55:31  5-MIN KMSN 042255Z 13004KT 10SM FEW042 29/21 A3004 760 60 2600 130/04 RMK AO2
14837KMSN MSN20010804170009608/04/01 17:00:31  5-MIN KMSN 042300Z 00000KT 10SM FEW042 29/21 A3004 760 58 2600 000/00 RMK AO2
14837KMSN MSN20010804170509608/04/01 17:05:31  5-MIN KMSN 042305Z 00000KT 10SM FEW042 29/21 A3003 760 58 2600 000/00 RMK AO2
14837KMSN MSN20010804171009608/04/01 17:10:31  5-MIN KMSN 042310Z VRB04KT 10SM FEW042 29/21 A3003 760 60 2600 VRB/04 RMK AO2
14837KMSN MSN20010804171509608/04/01 17:15:31  5-MIN KMSN 042315Z VRB03KT 10SM FEW042 29/21 A3003 760 60 2600 VRB/03 RMK AO2
14837KMSN MSN20010804172009608/04/01 17:20:31  5-MIN KMSN 042320Z 15004KT 10SM FEW042 29/21 A3003 760 62 2600 150/04 RMK AO2
14837KMSN MSN20010804172509608/04/01 17:25:31  5-MIN KMSN 042325Z 00000KT 10SM FEW042 29/21 A3003 760 58 2600 000/00 RMK AO2
14837KMSN MSN20010804173009608/04/01 17:30:31  5-MIN KMSN 042330Z VRB04KT 10SM FEW042 29/21 A3003 760 60 2600 VRB/04 RMK AO2
14837KMSN MSN20010804173509608/04/01 17:35:31  5-MIN KMSN 042335Z 09004KT 10SM FEW042 29/21 A3003 760 62 2600 090/04 RMK AO2
14837KMSN MSN20010804174009608/04/01 17:40:31  5-MIN KMSN 042340Z VRB05KT 10SM FEW042 29/21 A3003 760 62 2600 VRB/05 RMK AO2
14837KMSN MSN20010804174509608/04/01 17:45:31  5-MIN KMSN 042345Z 08004KT 10SM FEW042 28/21 A3003 760 62 2500 070/04 RMK AO2
14837KMSN MSN20010804175013108/04/01 17:50:31  5-MIN KMSN 042350Z 05006KT 10SM FEW042 28/21 A3003 760 64 2500 050/06 RMK AO2 SLP164 T02830211 10300 20283 56006
14837KMSN MSN20010804175509608/04/01 17:55:31  5-MIN KMSN 042355Z VRB03KT 10SM FEW042 28/21 A3003 770 62 2500 VRB/03 RMK AO2
14837KMSN MSN20010804180009608/04/01 18:00:31  5-MIN KMSN 050000Z 15005KT 10SM FEW042 28/21 A3003 770 62 2500 150/05 RMK AO2
14837KMSN MSN20010804180509308/04/01 18:05:31  5-MIN KMSN 050005Z 16005KT 10SM CLR 28/21 A3003 770 62 2500 160/05 RMK AO2
14837KMSN MSN20010804181009308/04/01 18:10:31  5-MIN KMSN 050010Z 15004KT 10SM CLR 28/21 A3003 770 64 2400 150/04 RMK AO2
14837KMSN MSN20010804181509308/04/01 18:15:31  5-MIN KMSN 050015Z 15005KT 10SM CLR 28/21 A3003 770 64 2400 150/05 RMK AO2
14837KMSN MSN20010804182009308/04/01 18:20:31  5-MIN KMSN 050020Z 14005KT 10SM CLR 28/21 A3003 770 64 2400 140/05 RMK AO2
14837KMSN MSN20010804182509308/04/01 18:25:31  5-MIN KMSN 050025Z 15006KT 10SM CLR 27/21 A3002 770 66 2400 150/06 RMK AO2
14837KMSN MSN20010804183009308/04/01 18:30:31  5-MIN KMSN 050030Z 15007KT 10SM CLR 27/21 A3002 770 66 2400 150/07 RMK AO2
14837KMSN MSN20010804183509308/04/01 18:35:31  5-MIN KMSN 050035Z 15006KT 10SM CLR 27/21 A3002 770 66 2400 150/06 RMK AO2
14837KMSN MSN20010804184009308/04/01 18:40:31  5-MIN KMSN 050040Z 15006KT 10SM CLR 27/21 A3002 770 66 2400 150/06 RMK AO2
14837KMSN MSN20010804184509308/04/01 18:45:31  5-MIN KMSN 050045Z 15005KT 10SM CLR 27/21 A3002 770 69 2300 150/05 RMK AO2
14837KMSN MSN20010804185011008/04/01 18:50:31  5-MIN KMSN 050050Z 17005KT 10SM CLR 27/20 A3002 770 64 2400 160/05 RMK AO2 SLP161 T02720200
14837KMSN MSN20010804185509308/04/01 18:55:31  5-MIN KMSN 050055Z 16005KT 10SM CLR 27/20 A3002 770 66 2300 160/05 RMK AO2
14837KMSN MSN20010804190009308/04/01 19:00:31  5-MIN KMSN 050100Z 16005KT 10SM CLR 27/21 A3002 770 69 2300 150/05 RMK AO2
14837KMSN MSN20010804190509308/04/01 19:05:31  5-MIN KMSN 050105Z 15005KT 10SM CLR 27/20 A3002 770 66 2300 150/05 RMK AO2
14837KMSN MSN20010804191009308/04/01 19:10:31  5-MIN KMSN 050110Z 14006KT 10SM CLR 26/20 A3002 770 68 2300 140/06 RMK AO2
14837KMSN MSN20010804191509308/04/01 19:15:31  5-MIN KMSN 050115Z 15006KT 10SM CLR 26/20 A3002 770 68 2300 150/06 RMK AO2
14837KMSN MSN20010804192009308/04/01 19:20:31  5-MIN KMSN 050120Z 15005KT 10SM CLR 26/20 A3002 770 68 2300 150/05 RMK AO2
14837KMSN MSN20010804192509308/04/01 19:25:31  5-MIN KMSN 050125Z 15004KT 10SM CLR 26/21 A3002 770 73 2200 150/04 RMK AO2
14837KMSN MSN20010804193009308/04/01 19:30:31  5-MIN KMSN 050130Z 00000KT 10SM CLR 24/21 A3003 770 78 2100 000/00 RMK AO2
14837KMSN MSN20010804193509308/04/01 19:35:31  5-MIN KMSN 050135Z 00000KT 10SM CLR 24/21 A3003 770 78 2100 000/00 RMK AO2
14837KMSN MSN20010804194009308/04/01 19:40:31  5-MIN KMSN 050140Z 00000KT 10SM CLR 24/21 A3003 770 78 2100 000/00 RMK AO2
14837KMSN MSN20010804194509308/04/01 19:45:31  5-MIN KMSN 050145Z 00000KT 10SM CLR 24/21 A3003 760 81 2000 000/00 RMK AO2
14837KMSN MSN20010804195011008/04/01 19:50:31  5-MIN KMSN 050150Z 00000KT 10SM CLR 24/21 A3003 760 78 2100 000/00 RMK AO2 SLP164 T02440206
14837KMSN MSN20010804195509208/04/01 19:55:31  5-MIN KMSN 050155Z 16004KT 9SM CLR 25/21 A3003 760 76 2100 160/04 RMK AO2
14837KMSN MSN20010804200009208/04/01 20:00:31  5-MIN KMSN 050200Z 17004KT 9SM CLR 24/21 A3003 760 81 2000 170/04 RMK AO2
14837KMSN MSN20010804200509208/04/01 20:05:31  5-MIN KMSN 050205Z 17003KT 9SM CLR 24/21 A3003 760 81 2000 170/03 RMK AO2
14837KMSN MSN20010804201009208/04/01 20:10:31  5-MIN KMSN 050210Z 16003KT 8SM CLR 24/21 A3003 760 78 2100 160/03 RMK AO2
14837KMSN MSN20010804201509208/04/01 20:15:31  5-MIN KMSN 050215Z 00000KT 8SM CLR 23/21 A3004 760 84 1900 000/00 RMK AO2
14837KMSN MSN20010804202009208/04/01 20:20:31  5-MIN KMSN 050220Z 00000KT 9SM CLR 24/21 A3004 760 81 2000 000/00 RMK AO2
14837KMSN MSN20010804202509208/04/01 20:25:31  5-MIN KMSN 050225Z 17003KT 9SM CLR 24/21 A3004 760 81 2000 170/03 RMK AO2
14837KMSN MSN20010804203009208/04/01 20:30:31  5-MIN KMSN 050230Z 18004KT 9SM CLR 24/21 A3004 760 81 2000 180/04 RMK AO2
14837KMSN MSN20010804203509208/04/01 20:35:31  5-MIN KMSN 050235Z 18004KT 9SM CLR 25/21 A3004 760 76 2100 180/04 RMK AO2
14837KMSN MSN20010804204009208/04/01 20:40:31  5-MIN KMSN 050240Z 17005KT 9SM CLR 26/21 A3004 760 73 2200 170/05 RMK AO2
14837KMSN MSN20010804204509208/04/01 20:45:31  5-MIN KMSN 050245Z 17005KT 9SM CLR 26/21 A3004 760 73 2200 170/05 RMK AO2
14837KMSN MSN20010804205011608/04/01 20:50:31  5-MIN KMSN 050250Z 18004KT 10SM CLR 26/21 A3004 760 73 2200 180/04 RMK AO2 SLP166 T02560206 56007
14837KMSN MSN20010804205509308/04/01 20:55:31  5-MIN KMSN 050255Z 17004KT 10SM CLR 25/21 A3004 750 76 2100 170/04 RMK AO2
14837KMSN MSN20010804210009308/04/01 21:00:31  5-MIN KMSN 050300Z 17004KT 10SM CLR 25/20 A3004 750 73 2100 170/04 RMK AO2
14837KMSN MSN20010804210509308/04/01 21:05:31  5-MIN KMSN 050305Z 19004KT 10SM CLR 25/20 A3004 750 73 2100 190/04 RMK AO2
14837KMSN MSN20010804211009208/04/01 21:10:31  5-MIN KMSN 050310Z 18003KT 9SM CLR 23/21 A3004 750 84 1900 180/03 RMK AO2
14837KMSN MSN20010804211509208/04/01 21:15:31  5-MIN KMSN 050315Z 19004KT 9SM CLR 24/21 A3004 760 81 2000 180/04 RMK AO2
14837KMSN MSN20010804212009208/04/01 21:20:31  5-MIN KMSN 050320Z 19004KT 9SM CLR 24/21 A3004 760 81 2000 190/04 RMK AO2
14837KMSN MSN20010804212509208/04/01 21:25:31  5-MIN KMSN 050325Z 18005KT 9SM CLR 24/21 A3004 760 78 2100 180/05 RMK AO2
14837KMSN MSN20010804213009308/04/01 21:30:31  5-MIN KMSN 050330Z 17005KT 10SM CLR 25/21 A3003 760 76 2100 170/05 RMK AO2
14837KMSN MSN20010804213509308/04/01 21:35:31  5-MIN KMSN 050335Z 18005KT 10SM CLR 25/21 A3004 760 76 2100 180/05 RMK AO2
14837KMSN MSN20010804214009308/04/01 21:40:31  5-MIN KMSN 050340Z 00000KT 10SM CLR 24/21 A3004 750 78 2100 000/00 RMK AO2
14837KMSN MSN20010804214509208/04/01 21:45:31  5-MIN KMSN 050345Z 18004KT 9SM CLR 24/21 A3004 750 81 2000 170/04 RMK AO2
14837KMSN MSN20010804215011008/04/01 21:50:31  5-MIN KMSN 050350Z 00000KT 10SM CLR 24/21 A3005 750 81 2000 000/00 RMK AO2 SLP169 T02390206
14837KMSN MSN20010804215509208/04/01 21:55:31  5-MIN KMSN 050355Z 00000KT 9SM CLR 23/20 A3005 740 84 1900 000/00 RMK AO2
14837KMSN MSN20010804220009208/04/01 22:00:31  5-MIN KMSN 050400Z 00000KT 9SM CLR 22/21 A3006 740 90 1800 000/00 RMK AO2
14837KMSN MSN20010804220509208/04/01 22:05:31  5-MIN KMSN 050405Z 00000KT 9SM CLR 22/20 A3006 740 87 1800 000/00 RMK AO2
14837KMSN MSN20010804221009208/04/01 22:10:31  5-MIN KMSN 050410Z 00000KT 8SM CLR 22/21 A3006 740 90 1800 000/00 RMK AO2
14837KMSN MSN20010804221509208/04/01 22:15:31  5-MIN KMSN 050415Z 00000KT 9SM CLR 22/21 A3006 740 90 1800 000/00 RMK AO2
14837KMSN MSN20010804222009208/04/01 22:20:31  5-MIN KMSN 050420Z 00000KT 9SM CLR 22/21 A3006 740 90 1800 000/00 RMK AO2
14837KMSN MSN20010804222509308/04/01 22:25:31  5-MIN KMSN 050425Z 00000KT 10SM CLR 22/21 A3006 740 90 1800 000/00 RMK AO2
14837KMSN MSN20010804223009308/04/01 22:30:31  5-MIN KMSN 050430Z 00000KT 10SM CLR 22/21 A3006 740 93 1700 000/00 RMK AO2
14837KMSN MSN20010804223509308/04/01 22:35:31  5-MIN KMSN 050435Z 00000KT 10SM CLR 22/21 A3006 740 93 1700 000/00 RMK AO2
14837KMSN MSN20010804224009208/04/01 22:40:31  5-MIN KMSN 050440Z 00000KT 8SM CLR 22/21 A3006 740 93 1700 000/00 RMK AO2
14837KMSN MSN20010804224509208/04/01 22:45:31  5-MIN KMSN 050445Z 00000KT 7SM CLR 22/21 A3006 730 93 1700 000/00 RMK AO2
14837KMSN MSN20010804225010908/04/01 22:50:31  5-MIN KMSN 050450Z 00000KT 7SM CLR 22/21 A3006 730 93 1700 000/00 RMK AO2 SLP176 T02170206
14837KMSN MSN20010804225509208/04/01 22:55:31  5-MIN KMSN 050455Z 00000KT 7SM CLR 22/20 A3006 730 90 1700 000/00 RMK AO2
14837KMSN MSN20010804230009208/04/01 23:00:31  5-MIN KMSN 050500Z 00000KT 7SM CLR 22/21 A3006 730 93 1700 000/00 RMK AO2
14837KMSN MSN20010804230509208/04/01 23:05:31  5-MIN KMSN 050505Z 00000KT 7SM CLR 21/21 A3006 730 97 1700 000/00 RMK AO2
14837KMSN MSN20010804231009208/04/01 23:10:31  5-MIN KMSN 050510Z 00000KT 7SM CLR 22/21 A3006 730 93 1700 000/00 RMK AO2
14837KMSN MSN20010804231509208/04/01 23:15:31  5-MIN KMSN 050515Z 00000KT 8SM CLR 21/21 A3006 730 97 1700 000/00 RMK AO2
14837KMSN MSN20010804232009208/04/01 23:20:31  5-MIN KMSN 050520Z 00000KT 8SM CLR 21/20 A3007 730 93 1600 000/00 RMK AO2
14837KMSN MSN20010804232509208/04/01 23:25:31  5-MIN KMSN 050525Z 00000KT 8SM CLR 21/20 A3007 730 93 1600 000/00 RMK AO2
14837KMSN MSN20010804233009208/04/01 23:30:31  5-MIN KMSN 050530Z 00000KT 8SM CLR 21/20 A3007 730 97 1600 000/00 RMK AO2
14837KMSN MSN20010804233509208/04/01 23:35:31  5-MIN KMSN 050535Z 00000KT 8SM CLR 21/20 A3007 730 93 1600 000/00 RMK AO2
14837KMSN MSN20010804234009208/04/01 23:40:31  5-MIN KMSN 050540Z 00000KT 8SM CLR 21/20 A3007 730 93 1600 000/00 RMK AO2
14837KMSN MSN20010804234509208/04/01 23:45:31  5-MIN KMSN 050545Z 00000KT 8SM CLR 21/20 A3007 730 93 1600 000/00 RMK AO2
14837KMSN MSN20010804235013708/04/01 23:50:31  5-MIN KMSN 050550Z 00000KT 7SM CLR 21/19 A3007 730 90 1600 000/00 RMK AO2 SLP177 T02110194 10283 20206 403000178 53004
14837KMSN MSN20010804235509208/04/01 23:55:31  5-MIN KMSN 050555Z 00000KT 7SM CLR 21/20 A3007 730 93 1600 000/00 RMK AO2
14837KMSN MSN20010805000009208/05/01 00:00:31  5-MIN KMSN 050600Z 00000KT 7SM CLR 22/20 A3007 720 90 1700 000/00 RMK AO2
14837KMSN MSN20010805000509208/05/01 00:05:31  5-MIN KMSN 050605Z 00000KT 8SM CLR 21/19 A3007 720 90 1600 000/00 RMK AO2
14837KMSN MSN20010805001009208/05/01 00:10:31  5-MIN KMSN 050610Z 00000KT 8SM CLR 21/19 A3007 720 90 1600 000/00 RMK AO2
14837KMSN MSN20010805001509208/05/01 00:15:31  5-MIN KMSN 050615Z 00000KT 9SM CLR 21/19 A3007 720 90 1600 000/00 RMK AO2
14837KMSN MSN20010805002009208/05/01 00:20:31  5-MIN KMSN 050620Z 00000KT 9SM CLR 21/19 A3008 720 90 1600 000/00 RMK AO2
14837KMSN MSN20010805002509208/05/01 00:25:31  5-MIN KMSN 050625Z 00000KT 9SM CLR 21/19 A3008 720 90 1600 000/00 RMK AO2
14837KMSN MSN20010805003009208/05/01 00:30:31  5-MIN KMSN 050630Z 00000KT 8SM CLR 21/19 A3008 720 90 1600 000/00 RMK AO2
14837KMSN MSN20010805003509208/05/01 00:35:31  5-MIN KMSN 050635Z 00000KT 8SM CLR 21/19 A3007 720 93 1600 000/00 RMK AO2
14837KMSN MSN20010805004009208/05/01 00:40:31  5-MIN KMSN 050640Z 00000KT 9SM CLR 21/19 A3007 720 93 1600 000/00 RMK AO2
14837KMSN MSN20010805004509208/05/01 00:45:31  5-MIN KMSN 050645Z 00000KT 9SM CLR 21/19 A3007 720 93 1600 000/00 RMK AO2
14837KMSN MSN20010805005011008/05/01 00:50:31  5-MIN KMSN 050650Z 00000KT 10SM CLR 21/19 A3007 720 93 1600 000/00 RMK AO2 SLP179 T02060194
14837KMSN MSN20010805005509208/05/01 00:55:31  5-MIN KMSN 050655Z 00000KT 9SM CLR 21/19 A3007 720 93 1600 000/00 RMK AO2
14837KMSN MSN20010805010009208/05/01 01:00:31  5-MIN KMSN 050700Z 00000KT 9SM CLR 21/19 A3007 720 93 1600 000/00 RMK AO2
14837KMSN MSN20010805010509208/05/01 01:05:31  5-MIN KMSN 050705Z 16003KT 9SM CLR 21/19 A3008 720 90 1600 160/03 RMK AO2
14837KMSN MSN20010805011009308/05/01 01:10:31  5-MIN KMSN 050710Z 17005KT 10SM CLR 22/19 A3008 720 87 1700 160/05 RMK AO2
14837KMSN MSN20010805011509308/05/01 01:15:31  5-MIN KMSN 050715Z 17004KT 10SM CLR 22/19 A3007 720 84 1800 170/04 RMK AO2
14837KMSN MSN20010805012009308/05/01 01:20:31  5-MIN KMSN 050720Z 16005KT 10SM CLR 22/19 A3007 720 84 1800 160/05 RMK AO2
14837KMSN MSN20010805012509308/05/01 01:25:31  5-MIN KMSN 050725Z 17004KT 10SM CLR 22/19 A3008 720 81 1800 170/04 RMK AO2
14837KMSN MSN20010805013009308/05/01 01:30:31  5-MIN KMSN 050730Z 16003KT 10SM CLR 22/19 A3008 720 81 1800 160/03 RMK AO2
14837KMSN MSN20010805013509308/05/01 01:35:31  5-MIN KMSN 050735Z 16003KT 10SM CLR 22/19 A3008 720 81 1800 160/03 RMK AO2
14837KMSN MSN20010805014009308/05/01 01:40:31  5-MIN KMSN 050740Z 00000KT 10SM CLR 22/19 A3008 720 84 1700 000/00 RMK AO2
14837KMSN MSN20010805014509308/05/01 01:45:31  5-MIN KMSN 050745Z 00000KT 10SM CLR 21/19 A3008 720 87 1600 000/00 RMK AO2
14837KMSN MSN20010805015011008/05/01 01:50:31  5-MIN KMSN 050750Z 00000KT 10SM CLR 21/19 A3008 710 90 1600 000/00 RMK AO2 SLP181 T02060189
14837KMSN MSN20010805015509308/05/01 01:55:31  5-MIN KMSN 050755Z 00000KT 10SM CLR 21/19 A3008 710 93 1600 000/00 RMK AO2
14837KMSN MSN20010805020009208/05/01 02:00:31  5-MIN KMSN 050800Z 00000KT 9SM CLR 21/19 A3008 710 93 1600 000/00 RMK AO2
14837KMSN MSN20010805020509208/05/01 02:05:31  5-MIN KMSN 050805Z 00000KT 9SM CLR 20/19 A3008 710 93 1500 000/00 RMK AO2
14837KMSN MSN20010805021009208/05/01 02:10:31  5-MIN KMSN 050810Z 00000KT 9SM CLR 21/19 A3008 710 90 1600 000/00 RMK AO2
14837KMSN MSN20010805021509308/05/01 02:15:31  5-MIN KMSN 050815Z 00000KT 10SM CLR 21/19 A3008 710 90 1600 000/00 RMK AO2
14837KMSN MSN20010805022009208/05/01 02:20:31  5-MIN KMSN 050820Z 00000KT 9SM CLR 21/19 A3009 710 90 1600 000/00 RMK AO2
14837KMSN MSN20010805022509208/05/01 02:25:31  5-MIN KMSN 050825Z 00000KT 9SM CLR 21/19 A3009 710 93 1600 000/00 RMK AO2
14837KMSN MSN20010805023009208/05/01 02:30:31  5-MIN KMSN 050830Z 00000KT 9SM CLR 21/19 A3008 710 93 1600 000/00 RMK AO2
14837KMSN MSN20010805023509308/05/01 02:35:31  5-MIN KMSN 050835Z 00000KT 10SM CLR 21/19 A3008 710 90 1600 000/00 RMK AO2
14837KMSN MSN20010805024009308/05/01 02:40:31  5-MIN KMSN 050840Z 00000KT 10SM CLR 21/19 A3009 710 93 1600 000/00 RMK AO2
14837KMSN MSN20010805024509208/05/01 02:45:31  5-MIN KMSN 050845Z 00000KT 9SM CLR 21/19 A3008 710 93 1600 000/00 RMK AO2
14837KMSN MSN20010805025011608/05/01 02:50:31  5-MIN KMSN 050850Z 00000KT 10SM CLR 21/19 A3008 710 93 1600 000/00 RMK AO2 SLP181 T02060194 51010
14837KMSN MSN20010805025509208/05/01 02:55:31  5-MIN KMSN 050855Z 19003KT 9SM CLR 21/19 A3008 710 90 1600 190/03 RMK AO2
14837KMSN MSN20010805030009308/05/01 03:00:31  5-MIN KMSN 050900Z 19003KT 10SM CLR 21/19 A3008 710 87 1600 190/03 RMK AO2
14837KMSN MSN20010805030509308/05/01 03:05:31  5-MIN KMSN 050905Z 20004KT 10SM CLR 22/19 A3008 710 84 1700 200/04 RMK AO2
14837KMSN MSN20010805031009308/05/01 03:10:31  5-MIN KMSN 050910Z 21004KT 10SM CLR 22/19 A3008 710 81 1800 200/04 RMK AO2
14837KMSN MSN20010805031509308/05/01 03:15:31  5-MIN KMSN 050915Z 19003KT 10SM CLR 22/18 A3008 710 78 1800 190/03 RMK AO2
14837KMSN MSN20010805032009308/05/01 03:20:31  5-MIN KMSN 050920Z VRB04KT 10SM CLR 22/18 A3008 710 81 1700 VRB/04 RMK AO2
14837KMSN MSN20010805032509308/05/01 03:25:31  5-MIN KMSN 050925Z 18004KT 10SM CLR 22/18 A3009 710 81 1700 180/04 RMK AO2
14837KMSN MSN20010805033009308/05/01 03:30:31  5-MIN KMSN 050930Z 18003KT 10SM CLR 22/18 A3009 710 81 1700 180/03 RMK AO2
14837KMSN MSN20010805033509308/05/01 03:35:31  5-MIN KMSN 050935Z 00000KT 10SM CLR 22/18 A3009 710 81 1700 000/00 RMK AO2
14837KMSN MSN20010805034009308/05/01 03:40:31  5-MIN KMSN 050940Z 00000KT 10SM CLR 22/18 A3009 710 81 1700 000/00 RMK AO2
14837KMSN MSN20010805034509308/05/01 03:45:31  5-MIN KMSN 050945Z 00000KT 10SM CLR 21/18 A3009 710 84 1600 000/00 RMK AO2
14837KMSN MSN20010805035011008/05/01 03:50:31  5-MIN KMSN 050950Z 00000KT 10SM CLR 21/18 A3009 710 84 1600 000/00 RMK AO2 SLP184 T02110183
14837KMSN MSN20010805035509308/05/01 03:55:31  5-MIN KMSN 050955Z 00000KT 10SM CLR 21/18 A3009 710 84 1600 000/00 RMK AO2
14837KMSN MSN20010805040009208/05/01 04:00:31  5-MIN KMSN 051000Z 00000KT 9SM CLR 20/18 A3009 700 90 1500 000/00 RMK AO2
14837KMSN MSN20010805040509208/05/01 04:05:31  5-MIN KMSN 051005Z 00000KT 9SM CLR 19/18 A3009 700 93 1400 000/00 RMK AO2
14837KMSN MSN20010805041009208/05/01 04:10:31  5-MIN KMSN 051010Z 00000KT 9SM CLR 19/18 A3009 700 93 1400 000/00 RMK AO2
14837KMSN MSN20010805041509208/05/01 04:15:31  5-MIN KMSN 051015Z 00000KT 9SM CLR 19/18 A3009 700 93 1400 000/00 RMK AO2
14837KMSN MSN20010805042009208/05/01 04:20:31  5-MIN KMSN 051020Z 00000KT 9SM CLR 20/18 A3010 700 90 1500 000/00 RMK AO2
14837KMSN MSN20010805042509208/05/01 04:25:31  5-MIN KMSN 051025Z 00000KT 9SM CLR 20/18 A3010 700 90 1500 000/00 RMK AO2
14837KMSN MSN20010805043009208/05/01 04:30:31  5-MIN KMSN 051030Z 00000KT 9SM CLR 20/18 A3010 700 90 1500 000/00 RMK AO2
14837KMSN MSN20010805043509208/05/01 04:35:31  5-MIN KMSN 051035Z 00000KT 9SM CLR 19/18 A3010 700 90 1400 000/00 RMK AO2
14837KMSN MSN20010805044009208/05/01 04:40:31  5-MIN KMSN 051040Z 00000KT 9SM CLR 20/18 A3009 700 87 1500 000/00 RMK AO2
14837KMSN MSN20010805044509208/05/01 04:45:31  5-MIN KMSN 051045Z 00000KT 9SM CLR 19/18 A3010 700 93 1400 000/00 RMK AO2
14837KMSN MSN20010805045011008/05/01 04:50:31  5-MIN KMSN 051050Z 00000KT 10SM CLR 19/18 A3010 700 93 1400 000/00 RMK AO2 SLP187 T01940183
14837KMSN MSN20010805045509208/05/01 04:55:31  5-MIN KMSN 051055Z 00000KT 8SM CLR 19/18 A3010 700 90 1400 000/00 RMK AO2
14837KMSN MSN20010805050009208/05/01 05:00:31  5-MIN KMSN 051100Z 00000KT 8SM CLR 19/18 A3010 700 90 1400 000/00 RMK AO2
14837KMSN MSN20010805050509208/05/01 05:05:31  5-MIN KMSN 051105Z 00000KT 8SM CLR 20/18 A3010 700 87 1500 000/00 RMK AO2
14837KMSN MSN20010805051009208/05/01 05:10:31  5-MIN KMSN 051110Z 00000KT 8SM CLR 19/18 A3010 700 90 1400 000/00 RMK AO2
14837KMSN MSN20010805051509208/05/01 05:15:31  5-MIN KMSN 051115Z 00000KT 8SM CLR 20/18 A3010 690 90 1500 000/00 RMK AO2
14837KMSN MSN20010805052009208/05/01 05:20:31  5-MIN KMSN 051120Z 00000KT 8SM CLR 20/18 A3011 690 87 1500 000/00 RMK AO2
14837KMSN MSN20010805052509208/05/01 05:25:31  5-MIN KMSN 051125Z 00000KT 7SM CLR 21/18 A3011 690 84 1500 000/00 RMK AO2
14837KMSN MSN20010805053009208/05/01 05:30:31  5-MIN KMSN 051130Z 00000KT 7SM CLR 21/18 A3011 690 84 1500 000/00 RMK AO2
14837KMSN MSN20010805053509208/05/01 05:35:31  5-MIN KMSN 051135Z 16003KT 7SM CLR 21/18 A3011 690 87 1500 160/03 RMK AO2
14837KMSN MSN20010805054009208/05/01 05:40:31  5-MIN KMSN 051140Z 16004KT 7SM CLR 21/18 A3011 690 87 1500 160/04 RMK AO2
14837KMSN MSN20010805054509208/05/01 05:45:31  5-MIN KMSN 051145Z 17003KT 8SM CLR 21/18 A3011 690 84 1600 170/03 RMK AO2
14837KMSN MSN20010805055012708/05/01 05:50:31  5-MIN KMSN 051150Z 18003KT 8SM CLR 22/18 A3012 680 81 1700 180/03 RMK AO2 SLP192 T02170183 10222 20194 51004
14837KMSN MSN20010805055509208/05/01 05:55:31  5-MIN KMSN 051155Z 18003KT 7SM CLR 22/19 A3012 680 84 1700 180/03 RMK AO2
14837KMSN MSN20010805060009208/05/01 06:00:31  5-MIN KMSN 051200Z 16003KT 7SM CLR 22/19 A3012 680 81 1700 160/03 RMK AO2
14837KMSN MSN20010805060509208/05/01 06:05:31  5-MIN KMSN 051205Z 16004KT 7SM CLR 22/19 A3012 680 84 1700 160/04 RMK AO2
14837KMSN MSN20010805061009208/05/01 06:10:31  5-MIN KMSN 051210Z 17003KT 7SM CLR 22/19 A3012 680 81 1700 170/03 RMK AO2
14837KMSN MSN20010805061509208/05/01 06:15:31  5-MIN KMSN 051215Z 00000KT 7SM CLR 22/19 A3012 680 81 1700 000/00 RMK AO2
14837KMSN MSN20010805062009208/05/01 06:20:31  5-MIN KMSN 051220Z 00000KT 7SM CLR 23/19 A3012 680 78 1800 000/00 RMK AO2
14837KMSN MSN20010805062509208/05/01 06:25:31  5-MIN KMSN 051225Z 00000KT 7SM CLR 23/19 A3012 680 78 1800 000/00 RMK AO2
14837KMSN MSN20010805063009208/05/01 06:30:31  5-MIN KMSN 051230Z 00000KT 7SM CLR 23/19 A3012 680 76 1800 000/00 RMK AO2
14837KMSN MSN20010805063509208/05/01 06:35:31  5-MIN KMSN 051235Z 00000KT 7SM CLR 23/19 A3012 680 76 1800 000/00 RMK AO2
14837KMSN MSN20010805064009208/05/01 06:40:31  5-MIN KMSN 051240Z 00000KT 7SM CLR 23/19 A3012 680 78 1800 000/00 RMK AO2
14837KMSN MSN20010805064509208/05/01 06:45:31  5-MIN KMSN 051245Z 00000KT 7SM CLR 24/19 A3012 680 76 1900 000/00 RMK AO2
14837KMSN MSN20010805065010908/05/01 06:50:31  5-MIN KMSN 051250Z 22004KT 7SM CLR 24/19 A3012 680 76 1900 220/04 RMK AO2 SLP195 T02390194
14837KMSN MSN20010805065509208/05/01 06:55:31  5-MIN KMSN 051255Z VRB03KT 7SM CLR 24/20 A3012 680 78 1900 VRB/03 RMK AO2
14837KMSN MSN20010805070009208/05/01 07:00:31  5-MIN KMSN 051300Z 21005KT 7SM CLR 24/20 A3013 670 76 2000 210/05 RMK AO2
14837KMSN MSN20010805070509208/05/01 07:05:31  5-MIN KMSN 051305Z 20006KT 7SM CLR 24/20 A3013 680 76 2000 200/06 RMK AO2
14837KMSN MSN20010805071009208/05/01 07:10:31  5-MIN KMSN 051310Z 20005KT 7SM CLR 24/20 A3012 680 76 2000 200/05 RMK AO2
14837KMSN MSN20010805071509208/05/01 07:15:31  5-MIN KMSN 051315Z 21005KT 7SM CLR 24/20 A3012 680 76 2000 210/05 RMK AO2
14837KMSN MSN20010805072009208/05/01 07:20:31  5-MIN KMSN 051320Z 25005KT 7SM CLR 25/21 A3013 670 76 2000 240/05 RMK AO2
14837KMSN MSN20010805072509208/05/01 07:25:31  5-MIN KMSN 051325Z 23005KT 7SM CLR 25/21 A3012 680 76 2000 230/05 RMK AO2
14837KMSN MSN20010805073009208/05/01 07:30:31  5-MIN KMSN 051330Z 24005KT 7SM CLR 25/21 A3012 680 76 2000 240/05 RMK AO2
14837KMSN MSN20010805073509208/05/01 07:35:31  5-MIN KMSN 051335Z 23006KT 7SM CLR 25/21 A3012 680 76 2000 230/06 RMK AO2
14837KMSN MSN20010805074009508/05/01 07:40:31  5-MIN KMSN 051340Z 23006KT 6SM HZ CLR 25/21 A3012 680 76 2000 230/06 RMK AO2
14837KMSN MSN20010805074509208/05/01 07:45:31  5-MIN KMSN 051345Z 23006KT 7SM CLR 26/21 A3012 680 73 2100 230/06 RMK AO2
14837KMSN MSN20010805075011208/05/01 07:50:31  5-MIN KMSN 051350Z 23007KT 6SM HZ CLR 26/21 A3012 680 73 2100 230/07 RMK AO2 SLP194 T02560206
14837KMSN MSN20010805075509508/05/01 07:55:31  5-MIN KMSN 051355Z 23006KT 6SM HZ CLR 26/21 A3012 680 73 2100 230/06 RMK AO2
14837KMSN MSN20010805080009508/05/01 08:00:31  5-MIN KMSN 051400Z 22006KT 6SM HZ CLR 26/21 A3012 680 73 2100 220/06 RMK AO2
14837KMSN MSN20010805080509508/05/01 08:05:31  5-MIN KMSN 051405Z 22008KT 6SM HZ CLR 26/21 A3012 680 71 2200 220/08 RMK AO2
14837KMSN MSN20010805081009508/05/01 08:10:31  5-MIN KMSN 051410Z 19008KT 6SM HZ CLR 26/21 A3012 680 71 2200 190/08 RMK AO2
14837KMSN MSN20010805081509508/05/01 08:15:31  5-MIN KMSN 051415Z VRB06KT 6SM HZ CLR 26/21 A3012 680 71 2200 VRB/06 RMK AO2
14837KMSN MSN20010805082009508/05/01 08:20:31  5-MIN KMSN 051420Z 22007KT 6SM HZ CLR 26/21 A3012 680 71 2200 220/07 RMK AO2
14837KMSN MSN20010805082509508/05/01 08:25:31  5-MIN KMSN 051425Z 20007KT 6SM HZ CLR 27/21 A3012 680 71 2200 200/07 RMK AO2
14837KMSN MSN20010805083009208/05/01 08:30:31  5-MIN KMSN 051430Z VRB06KT 7SM CLR 27/21 A3012 680 71 2200 VRB/06 RMK AO2
14837KMSN MSN20010805083509208/05/01 08:35:31  5-MIN KMSN 051435Z 22008KT 7SM CLR 26/21 A3012 680 71 2200 220/08 RMK AO2
14837KMSN MSN20010805084009208/05/01 08:40:31  5-MIN KMSN 051440Z 22008KT 7SM CLR 27/21 A3012 680 69 2200 220/08 RMK AO2
14837KMSN MSN20010805084509208/05/01 08:45:31  5-MIN KMSN 051445Z 20007KT 7SM CLR 27/21 A3013 680 69 2200 200/07 RMK AO2
14837KMSN MSN20010805085011508/05/01 08:50:31  5-MIN KMSN 051450Z 19008KT 7SM CLR 27/21 A3012 680 69 2200 190/08 RMK AO2 SLP195 T02670206 53011
14837KMSN MSN20010805085509208/05/01 08:55:31  5-MIN KMSN 051455Z 23008KT 7SM CLR 27/21 A3012 680 69 2200 220/08 RMK AO2
14837KMSN MSN20010805090009208/05/01 09:00:31  5-MIN KMSN 051500Z 21007KT 7SM CLR 27/21 A3013 670 69 2200 210/07 RMK AO2
14837KMSN MSN20010805090509208/05/01 09:05:31  5-MIN KMSN 051505Z 22008KT 7SM CLR 27/21 A3013 670 69 2300 220/08 RMK AO2
14837KMSN MSN20010805091009208/05/01 09:10:31  5-MIN KMSN 051510Z 21008KT 7SM CLR 27/21 A3013 670 69 2200 210/08 RMK AO2
14837KMSN MSN20010805091509208/05/01 09:15:31  5-MIN KMSN 051515Z VRB05KT 7SM CLR 27/21 A3013 670 69 2300 VRB/05 RMK AO2
14837KMSN MSN20010805092009208/05/01 09:20:31  5-MIN KMSN 051520Z 19009KT 7SM CLR 27/21 A3013 670 69 2300 190/09 RMK AO2
14837KMSN MSN20010805092509208/05/01 09:25:31  5-MIN KMSN 051525Z 20009KT 7SM CLR 27/21 A3013 670 69 2300 200/09 RMK AO2
14837KMSN MSN20010805093009208/05/01 09:30:31  5-MIN KMSN 051530Z 20006KT 7SM CLR 27/21 A3013 670 69 2300 200/06 RMK AO2
14837KMSN MSN20010805093509208/05/01 09:35:31  5-MIN KMSN 051535Z 19006KT 7SM CLR 27/21 A3013 670 69 2300 190/06 RMK AO2
14837KMSN MSN20010805094009208/05/01 09:40:31  5-MIN KMSN 051540Z 21007KT 8SM CLR 28/22 A3013 670 69 2300 210/07 RMK AO2
14837KMSN MSN20010805094510808/05/01 09:45:31  5-MIN KMSN 051545Z 22007KT 180V240 8SM CLR 27/21 A3013 670 69 2300 220/07 180V240 RMK AO2
14837KMSN MSN20010805095010908/05/01 09:50:31  5-MIN KMSN 051550Z VRB06KT 8SM CLR 28/22 A3013 670 69 2300 VRB/06 RMK AO2 SLP196 T02780217
14837KMSN MSN20010805095509208/05/01 09:55:31  5-MIN KMSN 051555Z VRB05KT 8SM CLR 28/22 A3012 680 69 2300 VRB/05 RMK AO2
14837KMSN MSN20010805100009208/05/01 10:00:31  5-MIN KMSN 051600Z 18007KT 8SM CLR 28/22 A3012 680 71 2300 180/07 RMK AO2
14837KMSN MSN20010805100509208/05/01 10:05:31  5-MIN KMSN 051605Z 20006KT 8SM CLR 28/22 A3012 680 69 2300 200/06 RMK AO2
14837KMSN MSN20010805101009208/05/01 10:10:31  5-MIN KMSN 051610Z 20007KT 8SM CLR 28/22 A3012 680 69 2300 200/07 RMK AO2
14837KMSN MSN20010805101509208/05/01 10:15:31  5-MIN KMSN 051615Z VRB05KT 9SM CLR 28/22 A3012 680 69 2300 VRB/05 RMK AO2
14837KMSN MSN20010805102009208/05/01 10:20:31  5-MIN KMSN 051620Z 21007KT 9SM CLR 28/22 A3012 680 69 2400 200/07 RMK AO2
14837KMSN MSN20010805102509208/05/01 10:25:31  5-MIN KMSN 051625Z 22008KT 9SM CLR 28/22 A3012 680 69 2400 220/08 RMK AO2
14837KMSN MSN20010805103009208/05/01 10:30:31  5-MIN KMSN 051630Z 22008KT 9SM CLR 28/22 A3012 680 69 2300 220/08 RMK AO2
14837KMSN MSN20010805103509208/05/01 10:35:31  5-MIN KMSN 051635Z VRB05KT 9SM CLR 28/22 A3012 680 69 2400 VRB/05 RMK AO2
14837KMSN MSN20010805104009208/05/01 10:40:31  5-MIN KMSN 051640Z 18007KT 9SM CLR 28/22 A3012 680 69 2400 180/07 RMK AO2
14837KMSN MSN20010805104509208/05/01 10:45:31  5-MIN KMSN 051645Z 18008KT 9SM CLR 29/22 A3013 680 67 2500 180/08 RMK AO2
14837KMSN MSN20010805105012508/05/01 10:50:31  5-MIN KMSN 051650Z 20007KT 170V230 9SM CLR 28/22 A3012 680 66 2400 200/07 170V230 RMK AO2 SLP195 T02830217
14837KMSN MSN20010805105509308/05/01 10:55:31  5-MIN KMSN 051655Z VRB06KT 10SM CLR 29/22 A3013 680 67 2500 VRB/06 RMK AO2
14837KMSN MSN20010805110009208/05/01 11:00:31  5-MIN KMSN 051700Z 25006KT 9SM CLR 28/22 A3013 670 66 2400 250/06 RMK AO2
14837KMSN MSN20010805110509508/05/01 11:05:31  5-MIN KMSN 051705Z VRB06KT 9SM FEW027 29/22 A3013 670 67 2500 VRB/06 RMK AO2
14837KMSN MSN20010805111009508/05/01 11:10:31  5-MIN KMSN 051710Z 22004KT 9SM SCT027 29/22 A3013 670 67 2500 220/04 RMK AO2
14837KMSN MSN20010805111509508/05/01 11:15:31  5-MIN KMSN 051715Z 21006KT 9SM SCT029 29/22 A3013 670 67 2500 200/06 RMK AO2
14837KMSN MSN20010805112009508/05/01 11:20:31  5-MIN KMSN 051720Z VRB03KT 9SM SCT029 28/22 A3013 670 69 2400 VRB/03 RMK AO2
14837KMSN MSN20010805112509608/05/01 11:25:31  5-MIN KMSN 051725Z VRB06KT 10SM BKN029 29/22 A3013 670 67 2500 VRB/06 RMK AO2
14837KMSN MSN20010805113009608/05/01 11:30:31  5-MIN KMSN 051730Z VRB04KT 10SM BKN029 29/22 A3013 670 67 2500 VRB/04 RMK AO2
14837KMSN MSN20010805113509608/05/01 11:35:31  5-MIN KMSN 051735Z VRB03KT 10SM BKN029 29/22 A3013 670 67 2500 VRB/03 RMK AO2
14837KMSN MSN20010805114009608/05/01 11:40:31  5-MIN KMSN 051740Z VRB05KT 10SM BKN029 29/23 A3013 670 67 2500 VRB/05 RMK AO2
14837KMSN MSN20010805114509608/05/01 11:45:31  5-MIN KMSN 051745Z VRB04KT 10SM BKN029 29/22 A3013 670 67 2500 VRB/04 RMK AO2
14837KMSN MSN20010805115013108/05/01 11:50:31  5-MIN KMSN 051750Z VRB04KT 10SM BKN029 29/23 A3013 670 67 2500 VRB/04 RMK AO2 SLP196 T02940228 10294 20217 51002
14837KMSN MSN20010805115509608/05/01 11:55:31  5-MIN KMSN 051755Z VRB06KT 10SM SCT029 30/23 A3013 670 65 2600 VRB/06 RMK AO2
14837KMSN MSN20010805120009608/05/01 12:00:31  5-MIN KMSN 051800Z VRB05KT 10SM SCT029 29/22 A3013 670 64 2500 VRB/05 RMK AO2
14837KMSN MSN20010805120509608/05/01 12:05:31  5-MIN KMSN 051805Z 20006KT 10SM FEW031 30/23 A3013 680 65 2600 200/06 RMK AO2
14837KMSN MSN20010805121009608/05/01 12:10:31  5-MIN KMSN 051810Z VRB04KT 10SM FEW031 30/23 A3012 680 65 2600 VRB/04 RMK AO2
14837KMSN MSN20010805121509608/05/01 12:15:31  5-MIN KMSN 051815Z 22008KT 10SM FEW033 29/22 A3013 670 64 2500 220/08 RMK AO2
14837KMSN MSN20010805122011208/05/01 12:20:31  5-MIN KMSN 051820Z 24007KT 210V280 10SM FEW033 29/22 A3012 680 64 2500 240/07 210V280 RMK AO2
14837KMSN MSN20010805122511208/05/01 12:25:31  5-MIN KMSN 051825Z 23008KT 190V260 10SM FEW033 30/23 A3012 680 65 2600 230/08 190V260 RMK AO2
14837KMSN MSN20010805123009308/05/01 12:30:31  5-MIN KMSN 051830Z 00000KT 10SM CLR 30/22 A3012 680 62 2600 000/00 RMK AO2
14837KMSN MSN20010805123509608/05/01 12:35:31  5-MIN KMSN 051835Z 21006KT 10SM FEW032 30/23 A3012 680 65 2600 210/06 RMK AO2
14837KMSN MSN20010805124009608/05/01 12:40:31  5-MIN KMSN 051840Z 21006KT 10SM FEW032 29/22 A3012 680 64 2500 210/06 RMK AO2
14837KMSN MSN20010805124509308/05/01 12:45:31  5-MIN KMSN 051845Z VRB06KT 10SM CLR 30/22 A3012 680 62 2600 VRB/06 RMK AO2
14837KMSN MSN20010805125011008/05/01 12:50:31  5-MIN KMSN 051850Z 18007KT 10SM CLR 30/22 A3012 680 62 2600 180/07 RMK AO2 SLP193 T03000222
14837KMSN MSN20010805125509308/05/01 12:55:31  5-MIN KMSN 051855Z 19006KT 10SM CLR 30/22 A3012 680 62 2600 190/06 RMK AO2
14837KMSN MSN20010805130009308/05/01 13:00:31  5-MIN KMSN 051900Z VRB06KT 10SM CLR 30/22 A3012 680 62 2600 VRB/06 RMK AO2
14837KMSN MSN20010805130509308/05/01 13:05:31  5-MIN KMSN 051905Z 19007KT 10SM CLR 30/22 A3011 690 62 2600 190/07 RMK AO2
14837KMSN MSN20010805131009308/05/01 13:10:31  5-MIN KMSN 051910Z 20005KT 10SM CLR 30/22 A3012 680 62 2600 200/05 RMK AO2
14837KMSN MSN20010805131509608/05/01 13:15:31  5-MIN KMSN 051915Z 21007KT 10SM FEW036 31/22 A3012 680 60 2700 210/07 RMK AO2
14837KMSN MSN20010805132009608/05/01 13:20:31  5-MIN KMSN 051920Z VRB04KT 10SM FEW036 30/22 A3012 680 62 2600 VRB/04 RMK AO2
14837KMSN MSN20010805132509608/05/01 13:25:31  5-MIN KMSN 051925Z 17009KT 10SM FEW036 31/23 A3012 680 62 2700 170/09 RMK AO2
14837KMSN MSN20010805133009608/05/01 13:30:31  5-MIN KMSN 051930Z 18008KT 10SM FEW036 30/22 A3012 680 62 2600 180/08 RMK AO2
14837KMSN MSN20010805133509608/05/01 13:35:31  5-MIN KMSN 051935Z 16009KT 10SM SCT036 30/22 A3011 690 62 2600 160/09 RMK AO2
14837KMSN MSN20010805134009608/05/01 13:40:31  5-MIN KMSN 051940Z VRB06KT 10SM SCT036 30/23 A3011 690 65 2600 VRB/06 RMK AO2
14837KMSN MSN20010805134511208/05/01 13:45:31  5-MIN KMSN 051945Z 17007KT 160V220 10SM SCT036 31/23 A3011 690 62 2700 170/07 160V220 RMK AO2
14837KMSN MSN20010805135011308/05/01 13:50:31  5-MIN KMSN 051950Z 18008KT 10SM SCT036 31/23 A3011 690 62 2700 180/08 RMK AO2 SLP191 T03060228
14837KMSN MSN20010805135511208/05/01 13:55:31  5-MIN KMSN 051955Z 18007KT 160V220 10SM SCT036 31/22 A3011 690 60 2700 180/07 160V220 RMK AO2
14837KMSN MSN20010805140009608/05/01 14:00:31  5-MIN KMSN 052000Z 21007KT 10SM SCT036 31/23 A3011 690 62 2700 210/07 RMK AO2
14837KMSN MSN20010805140509608/05/01 14:05:31  5-MIN KMSN 052005Z 18008KT 10SM SCT036 31/23 A3011 690 62 2700 180/08 RMK AO2
14837KMSN MSN20010805141009608/05/01 14:10:31  5-MIN KMSN 052010Z 16008KT 10SM SCT036 30/23 A3011 690 65 2600 160/08 RMK AO2
14837KMSN MSN20010805141509608/05/01 14:15:31  5-MIN KMSN 052015Z 20006KT 10SM FEW038 31/23 A3011 690 62 2700 200/06 RMK AO2
14837KMSN MSN20010805142009608/05/01 14:20:31  5-MIN KMSN 052020Z 19008KT 10SM FEW038 31/23 A3011 690 62 2700 190/08 RMK AO2
14837KMSN MSN20010805142511208/05/01 14:25:31  5-MIN KMSN 052025Z 19009KT 150V210 10SM FEW038 31/23 A3011 690 60 2700 190/09 150V210 RMK AO2
14837KMSN MSN20010805143009608/05/01 14:30:31  5-MIN KMSN 052030Z 18006KT 10SM SCT038 31/23 A3011 690 60 2700 180/06 RMK AO2
14837KMSN MSN20010805143509608/05/01 14:35:31  5-MIN KMSN 052035Z 17010KT 10SM SCT038 31/23 A3010 700 62 2700 170/10 RMK AO2
14837KMSN MSN20010805144011208/05/01 14:40:31  5-MIN KMSN 052040Z 20008KT 170V230 10SM SCT038 31/23 A3010 700 60 2700 200/08 170V230 RMK AO2
14837KMSN MSN20010805144509608/05/01 14:45:31  5-MIN KMSN 052045Z 18011KT 10SM SCT036 31/22 A3010 700 60 2700 180/11 RMK AO2
14837KMSN MSN20010805145011908/05/01 14:50:31  5-MIN KMSN 052050Z 17011KT 10SM SCT036 30/23 A3010 700 65 2600 170/11 RMK AO2 SLP188 T03000228 53001
14837KMSN MSN20010805145509608/05/01 14:55:31  5-MIN KMSN 052055Z 18012KT 10SM SCT036 31/22 A3010 700 60 2700 180/12 RMK AO2
14837KMSN MSN20010805150009608/05/01 15:00:31  5-MIN KMSN 052100Z 17010KT 10SM BKN036 31/23 A3010 700 62 2700 160/10 RMK AO2
14837KMSN MSN20010805150509608/05/01 15:05:31  5-MIN KMSN 052105Z 19009KT 10SM SCT036 31/22 A3010 700 60 2700 190/09 RMK AO2
14837KMSN MSN20010805151009608/05/01 15:10:31  5-MIN KMSN 052110Z 18011KT 10SM SCT036 31/22 A3010 690 60 2700 170/11 RMK AO2
14837KMSN MSN20010805151509608/05/01 15:15:31  5-MIN KMSN 052115Z 17010KT 10SM SCT036 31/22 A3010 700 60 2700 170/10 RMK AO2
14837KMSN MSN20010805152009608/05/01 15:20:31  5-MIN KMSN 052120Z 16011KT 10SM SCT036 31/23 A3010 690 62 2700 160/11 RMK AO2
14837KMSN MSN20010805152509608/05/01 15:25:31  5-MIN KMSN 052125Z 17009KT 10SM SCT036 31/22 A3011 690 60 2700 170/09 RMK AO2
14837KMSN MSN20010805153009608/05/01 15:30:31  5-MIN KMSN 052130Z VRB06KT 10SM BKN036 30/23 A3011 690 65 2600 VRB/06 RMK AO2
14837KMSN MSN20010805153509608/05/01 15:35:31  5-MIN KMSN 052135Z 18009KT 10SM BKN036 31/22 A3011 690 60 2700 180/09 RMK AO2
14837KMSN MSN20010805154009608/05/01 15:40:31  5-MIN KMSN 052140Z 18010KT 10SM BKN036 31/22 A3011 690 60 2700 180/10 RMK AO2
14837KMSN MSN20010805154509608/05/01 15:45:31  5-MIN KMSN 052145Z 22007KT 10SM BKN036 31/22 A3011 690 60 2700 220/07 RMK AO2
14837KMSN MSN20010805155011308/05/01 15:50:31  5-MIN KMSN 052150Z 18009KT 10SM SCT036 31/22 A3010 690 60 2700 180/09 RMK AO2 SLP189 T03060222
14837KMSN MSN20010805155509608/05/01 15:55:31  5-MIN KMSN 052155Z 17010KT 10SM SCT038 31/22 A3010 700 60 2700 170/10 RMK AO2
14837KMSN MSN20010805160009608/05/01 16:00:31  5-MIN KMSN 052200Z 18009KT 10SM SCT038 31/22 A3010 700 60 2700 180/09 RMK AO2
14837KMSN MSN20010805160511208/05/01 16:05:31  5-MIN KMSN 052205Z 18008KT 150V220 10SM FEW038 31/22 A3010 700 60 2700 180/08 150V220 RMK AO2
14837KMSN MSN20010805161009608/05/01 16:10:31  5-MIN KMSN 052210Z 21006KT 10SM FEW038 31/22 A3010 700 60 2700 210/06 RMK AO2
14837KMSN MSN20010805161511208/05/01 16:15:31  5-MIN KMSN 052215Z 20007KT 160V250 10SM FEW038 31/22 A3010 700 60 2700 200/07 160V250 RMK AO2
14837KMSN MSN20010805162009608/05/01 16:20:31  5-MIN KMSN 052220Z 20006KT 10SM FEW038 30/22 A3010 700 62 2600 200/06 RMK AO2
14837KMSN MSN20010805162509608/05/01 16:25:31  5-MIN KMSN 052225Z 20007KT 10SM FEW038 30/22 A3010 700 62 2600 200/07 RMK AO2
14837KMSN MSN20010805163009608/05/01 16:30:31  5-MIN KMSN 052230Z 19008KT 10SM FEW038 31/22 A3010 700 60 2700 190/08 RMK AO2
14837KMSN MSN20010805163509608/05/01 16:35:31  5-MIN KMSN 052235Z 17009KT 10SM FEW038 30/22 A3010 700 62 2600 170/09 RMK AO2
14837KMSN MSN20010805164009608/05/01 16:40:31  5-MIN KMSN 052240Z 18008KT 10SM FEW038 30/22 A3010 700 62 2600 180/08 RMK AO2
14837KMSN MSN20010805164509608/05/01 16:45:31  5-MIN KMSN 052245Z 17008KT 10SM SCT038 30/23 A3010 700 65 2600 170/08 RMK AO2
14837KMSN MSN20010805165011308/05/01 16:50:31  5-MIN KMSN 052250Z 21008KT 10SM SCT038 30/22 A3010 700 62 2600 210/08 RMK AO2 SLP187 T03000222
14837KMSN MSN20010805165509608/05/01 16:55:31  5-MIN KMSN 052255Z 18009KT 10SM SCT038 30/22 A3010 700 62 2600 180/09 RMK AO2
14837KMSN MSN20010805170009608/05/01 17:00:31  5-MIN KMSN 052300Z 18008KT 10SM SCT038 30/22 A3010 700 62 2600 180/08 RMK AO2
14837KMSN MSN20010805170509608/05/01 17:05:31  5-MIN KMSN 052305Z 21006KT 10SM FEW038 30/22 A3010 700 62 2600 210/06 RMK AO2
14837KMSN MSN20010805171009608/05/01 17:10:31  5-MIN KMSN 052310Z 19008KT 10SM FEW038 30/22 A3010 700 62 2600 180/08 RMK AO2
14837KMSN MSN20010805171509608/05/01 17:15:31  5-MIN KMSN 052315Z 22005KT 10SM FEW036 30/22 A3010 700 62 2600 220/05 RMK AO2
14837KMSN MSN20010805172009308/05/01 17:20:31  5-MIN KMSN 052320Z 20007KT 10SM CLR 30/22 A3010 700 62 2600 200/07 RMK AO2
14837KMSN MSN20010805172509608/05/01 17:25:31  5-MIN KMSN 052325Z 19007KT 10SM FEW038 30/22 A3010 700 62 2600 190/07 RMK AO2
14837KMSN MSN20010805173009608/05/01 17:30:31  5-MIN KMSN 052330Z 18010KT 10SM FEW038 30/22 A3009 700 62 2600 170/10 RMK AO2
14837KMSN MSN20010805173509608/05/01 17:35:31  5-MIN KMSN 052335Z 17010KT 10SM FEW038 29/23 A3009 700 67 2600 170/10 RMK AO2
14837KMSN MSN20010805174009608/05/01 17:40:31  5-MIN KMSN 052340Z 18009KT 10SM FEW038 29/22 A3009 700 64 2600 180/09 RMK AO2
14837KMSN MSN20010805174509608/05/01 17:45:31  5-MIN KMSN 052345Z 17007KT 10SM FEW038 29/23 A3010 700 67 2600 170/07 RMK AO2
14837KMSN MSN20010805175013108/05/01 17:50:31  5-MIN KMSN 052350Z 18010KT 10SM FEW038 29/22 A3010 700 64 2600 180/10 RMK AO2 SLP185 T02940222 10311 20294 56008
14837KMSN MSN20010805175509608/05/01 17:55:31  5-MIN KMSN 052355Z 18008KT 10SM FEW038 29/22 A3009 700 64 2600 180/08 RMK AO2
14837KMSN MSN20010805180009608/05/01 18:00:31  5-MIN KMSN 060000Z 20008KT 10SM FEW038 29/23 A3009 700 67 2600 190/08 RMK AO2
14837KMSN MSN20010805180509608/05/01 18:05:31  5-MIN KMSN 060005Z 19008KT 10SM FEW038 29/22 A3009 700 64 2600 190/08 RMK AO2
14837KMSN MSN20010805181009608/05/01 18:10:31  5-MIN KMSN 060010Z 18008KT 10SM FEW038 29/22 A3009 710 64 2600 180/08 RMK AO2
14837KMSN MSN20010805181509608/05/01 18:15:31  5-MIN KMSN 060015Z 18009KT 10SM FEW038 29/22 A3009 710 67 2500 180/09 RMK AO2
14837KMSN MSN20010805182009608/05/01 18:20:31  5-MIN KMSN 060020Z 19007KT 10SM FEW038 29/23 A3009 700 69 2500 190/07 RMK AO2
14837KMSN MSN20010805182509508/05/01 18:25:31  5-MIN KMSN 060025Z 20004KT 9SM FEW038 29/23 A3009 700 69 2500 200/04 RMK AO2
14837KMSN MSN20010805183009608/05/01 18:30:31  5-MIN KMSN 060030Z 20004KT 10SM FEW038 29/23 A3009 710 69 2500 200/04 RMK AO2
14837KMSN MSN20010805183509608/05/01 18:35:31  5-MIN KMSN 060035Z 21004KT 10SM FEW038 29/23 A3009 710 69 2500 210/04 RMK AO2
14837KMSN MSN20010805184009608/05/01 18:40:31  5-MIN KMSN 060040Z 19007KT 10SM FEW038 29/22 A3009 710 67 2500 190/07 RMK AO2
14837KMSN MSN20010805184509308/05/01 18:45:31  5-MIN KMSN 060045Z 19006KT 10SM CLR 29/23 A3009 700 69 2500 180/06 RMK AO2
14837KMSN MSN20010805185011008/05/01 18:50:31  5-MIN KMSN 060050Z 19006KT 10SM CLR 28/23 A3010 700 71 2400 190/06 RMK AO2 SLP185 T02830228
14837KMSN MSN20010805185509208/05/01 18:55:31  5-MIN KMSN 060055Z 19007KT 9SM CLR 28/23 A3009 710 71 2400 190/07 RMK AO2
14837KMSN MSN20010805190009208/05/01 19:00:31  5-MIN KMSN 060100Z 19007KT 8SM CLR 28/23 A3009 710 71 2400 190/07 RMK AO2
14837KMSN MSN20010805190509208/05/01 19:05:31  5-MIN KMSN 060105Z 19008KT 8SM CLR 28/23 A3009 710 71 2400 190/08 RMK AO2
14837KMSN MSN20010805191009208/05/01 19:10:31  5-MIN KMSN 060110Z 19008KT 8SM CLR 28/22 A3009 710 69 2400 190/08 RMK AO2
14837KMSN MSN20010805191509208/05/01 19:15:31  5-MIN KMSN 060115Z 19009KT 8SM CLR 28/22 A3009 710 69 2400 190/09 RMK AO2
14837KMSN MSN20010805192009208/05/01 19:20:31  5-MIN KMSN 060120Z 19008KT 8SM CLR 28/22 A3009 710 69 2400 190/08 RMK AO2
14837KMSN MSN20010805192509208/05/01 19:25:31  5-MIN KMSN 060125Z 19007KT 8SM CLR 28/22 A3009 710 69 2400 190/07 RMK AO2
14837KMSN MSN20010805193009208/05/01 19:30:31  5-MIN KMSN 060130Z 19007KT 8SM CLR 28/22 A3009 710 69 2400 180/07 RMK AO2
14837KMSN MSN20010805193509208/05/01 19:35:31  5-MIN KMSN 060135Z 19006KT 8SM CLR 28/22 A3009 710 69 2400 190/06 RMK AO2
14837KMSN MSN20010805194009208/05/01 19:40:31  5-MIN KMSN 060140Z 20006KT 8SM CLR 28/23 A3009 710 74 2400 200/06 RMK AO2
14837KMSN MSN20010805194509208/05/01 19:45:31  5-MIN KMSN 060145Z 21005KT 9SM CLR 28/22 A3009 710 71 2400 210/05 RMK AO2
14837KMSN MSN20010805195010908/05/01 19:50:31  5-MIN KMSN 060150Z VRB04KT 9SM CLR 28/22 A3009 710 71 2400 VRB/04 RMK AO2 SLP183 T02780222
14837KMSN MSN20010805195509208/05/01 19:55:31  5-MIN KMSN 060155Z 20005KT 8SM CLR 28/22 A3010 700 71 2400 190/05 RMK AO2
14837KMSN MSN20010805200009208/05/01 20:00:31  5-MIN KMSN 060200Z 19006KT 8SM CLR 28/22 A3010 700 71 2400 190/06 RMK AO2
14837KMSN MSN20010805200509208/05/01 20:05:31  5-MIN KMSN 060205Z 20006KT 8SM CLR 28/23 A3010 700 74 2400 200/06 RMK AO2
14837KMSN MSN20010805201009208/05/01 20:10:31  5-MIN KMSN 060210Z 20005KT 8SM CLR 28/23 A3010 700 74 2400 200/05 RMK AO2
14837KMSN MSN20010805201509208/05/01 20:15:31  5-MIN KMSN 060215Z 20004KT 8SM CLR 27/23 A3010 700 76 2300 200/04 RMK AO2
14837KMSN MSN20010805202009208/05/01 20:20:31  5-MIN KMSN 060220Z VRB04KT 8SM CLR 27/23 A3011 690 76 2300 VRB/04 RMK AO2
14837KMSN MSN20010805202509208/05/01 20:25:31  5-MIN KMSN 060225Z 21003KT 8SM CLR 27/23 A3011 690 76 2300 200/03 RMK AO2
14837KMSN MSN20010805203009208/05/01 20:30:31  5-MIN KMSN 060230Z 20004KT 8SM CLR 27/22 A3011 690 74 2300 200/04 RMK AO2
14837KMSN MSN20010805203509208/05/01 20:35:31  5-MIN KMSN 060235Z 21004KT 8SM CLR 27/22 A3011 690 76 2200 210/04 RMK AO2
14837KMSN MSN20010805204009208/05/01 20:40:31  5-MIN KMSN 060240Z 20006KT 8SM CLR 27/22 A3011 690 76 2200 200/06 RMK AO2
14837KMSN MSN20010805204509208/05/01 20:45:31  5-MIN KMSN 060245Z VRB05KT 8SM CLR 27/22 A3011 690 74 2300 VRB/05 RMK AO2
14837KMSN MSN20010805205011508/05/01 20:50:31  5-MIN KMSN 060250Z 19006KT 8SM CLR 27/22 A3011 690 74 2300 190/06 RMK AO2 SLP189 T02720222 58002
14837KMSN MSN20010805205509208/05/01 20:55:31  5-MIN KMSN 060255Z VRB05KT 8SM CLR 27/22 A3011 690 76 2200 VRB/05 RMK AO2
14837KMSN MSN20010805210009208/05/01 21:00:31  5-MIN KMSN 060300Z 18006KT 8SM CLR 27/22 A3011 690 76 2200 180/06 RMK AO2
14837KMSN MSN20010805210509208/05/01 21:05:31  5-MIN KMSN 060305Z 18005KT 8SM CLR 27/22 A3011 690 76 2200 180/05 RMK AO2
14837KMSN MSN20010805211009208/05/01 21:10:31  5-MIN KMSN 060310Z 19004KT 8SM CLR 27/22 A3011 690 76 2200 190/04 RMK AO2
14837KMSN MSN20010805211509208/05/01 21:15:31  5-MIN KMSN 060315Z 19005KT 8SM CLR 26/22 A3011 690 79 2200 190/05 RMK AO2
14837KMSN MSN20010805212009208/05/01 21:20:31  5-MIN KMSN 060320Z 19007KT 8SM CLR 27/22 A3012 680 76 2200 190/07 RMK AO2
14837KMSN MSN20010805212509208/05/01 21:25:31  5-MIN KMSN 060325Z 18007KT 8SM CLR 27/22 A3011 680 76 2200 180/07 RMK AO2
14837KMSN MSN20010805213009208/05/01 21:30:31  5-MIN KMSN 060330Z 18007KT 8SM CLR 27/22 A3011 690 76 2200 180/07 RMK AO2
14837KMSN MSN20010805213509208/05/01 21:35:31  5-MIN KMSN 060335Z 18007KT 8SM CLR 26/22 A3011 690 79 2200 180/07 RMK AO2
14837KMSN MSN20010805214009208/05/01 21:40:31  5-MIN KMSN 060340Z 19006KT 8SM CLR 26/22 A3012 680 79 2200 190/06 RMK AO2
14837KMSN MSN20010805214509208/05/01 21:45:31  5-MIN KMSN 060345Z 19006KT 8SM CLR 26/22 A3012 680 79 2200 180/06 RMK AO2
14837KMSN MSN20010805215010908/05/01 21:50:31  5-MIN KMSN 060350Z 18006KT 8SM CLR 26/22 A3012 680 79 2200 180/06 RMK AO2 SLP192 T02610222
14837KMSN MSN20010805215509208/05/01 21:55:31  5-MIN KMSN 060355Z 19006KT 8SM CLR 26/22 A3012 680 79 2200 180/06 RMK AO2
14837KMSN MSN20010805220009208/05/01 22:00:31  5-MIN KMSN 060400Z 18006KT 8SM CLR 26/22 A3012 680 79 2200 180/06 RMK AO2
14837KMSN MSN20010805220509208/05/01 22:05:31  5-MIN KMSN 060405Z 19007KT 8SM CLR 26/22 A3012 680 79 2200 190/07 RMK AO2
14837KMSN MSN20010805221009208/05/01 22:10:31  5-MIN KMSN 060410Z 19007KT 9SM CLR 26/22 A3012 680 76 2200 190/07 RMK AO2
14837KMSN MSN20010805221509208/05/01 22:15:31  5-MIN KMSN 060415Z 19007KT 9SM CLR 26/22 A3012 680 76 2200 190/07 RMK AO2
14837KMSN MSN20010805222009208/05/01 22:20:31  5-MIN KMSN 060420Z 19006KT 8SM CLR 26/22 A3012 680 76 2200 190/06 RMK AO2
14837KMSN MSN20010805222509208/05/01 22:25:31  5-MIN KMSN 060425Z 19005KT 8SM CLR 26/22 A3012 680 79 2100 190/05 RMK AO2
14837KMSN MSN20010805223009208/05/01 22:30:31  5-MIN KMSN 060430Z 18007KT 9SM CLR 26/22 A3012 680 76 2200 180/07 RMK AO2
14837KMSN MSN20010805223509208/05/01 22:35:31  5-MIN KMSN 060435Z 19007KT 9SM CLR 26/22 A3012 680 79 2100 190/07 RMK AO2
14837KMSN MSN20010805224009208/05/01 22:40:31  5-MIN KMSN 060440Z 19006KT 9SM CLR 26/22 A3012 680 79 2100 190/06 RMK AO2
14837KMSN MSN20010805224509208/05/01 22:45:31  5-MIN KMSN 060445Z 19005KT 9SM CLR 26/22 A3012 680 79 2100 190/05 RMK AO2
14837KMSN MSN20010805225010908/05/01 22:50:31  5-MIN KMSN 060450Z 19004KT 9SM CLR 26/22 A3013 680 79 2100 190/04 RMK AO2 SLP194 T02560217
14837KMSN MSN20010805225509208/05/01 22:55:31  5-MIN KMSN 060455Z 19005KT 9SM CLR 25/22 A3013 680 81 2000 180/05 RMK AO2
14837KMSN MSN20010805230009208/05/01 23:00:31  5-MIN KMSN 060500Z 19003KT 9SM CLR 25/22 A3013 680 81 2000 190/03 RMK AO2
14837KMSN MSN20010805230509208/05/01 23:05:31  5-MIN KMSN 060505Z 18006KT 9SM CLR 26/22 A3013 670 79 2100 180/06 RMK AO2
14837KMSN MSN20010805231009208/05/01 23:10:31  5-MIN KMSN 060510Z VRB03KT 9SM CLR 25/22 A3013 670 81 2000 VRB/03 RMK AO2
14837KMSN MSN20010805231509208/05/01 23:15:31  5-MIN KMSN 060515Z 22003KT 9SM CLR 25/22 A3013 670 81 2000 220/03 RMK AO2
14837KMSN MSN20010805232009208/05/01 23:20:31  5-MIN KMSN 060520Z 22004KT 9SM CLR 25/22 A3013 670 81 2000 220/04 RMK AO2
14837KMSN MSN20010805232509208/05/01 23:25:31  5-MIN KMSN 060525Z 22004KT 9SM CLR 25/22 A3013 670 81 2000 220/04 RMK AO2
14837KMSN MSN20010805233009208/05/01 23:30:31  5-MIN KMSN 060530Z 21003KT 9SM CLR 25/22 A3013 670 81 2000 210/03 RMK AO2
14837KMSN MSN20010805233509208/05/01 23:35:31  5-MIN KMSN 060535Z 21004KT 9SM CLR 25/22 A3013 670 81 2000 210/04 RMK AO2
14837KMSN MSN20010805234009208/05/01 23:40:31  5-MIN KMSN 060540Z VRB03KT 9SM CLR 24/22 A3013 670 84 2000 VRB/03 RMK AO2
14837KMSN MSN20010805234509208/05/01 23:45:31  5-MIN KMSN 060545Z 22004KT 9SM CLR 24/22 A3013 670 84 2000 220/04 RMK AO2
14837KMSN MSN20010805235013708/05/01 23:50:31  5-MIN KMSN 060550Z 22004KT 9SM CLR 24/22 A3013 670 84 2000 220/04 RMK AO2 SLP196 T02440217 10294 20244 403110194 53005
14837KMSN MSN20010805235509208/05/01 23:55:31  5-MIN KMSN 060555Z 21003KT 9SM CLR 24/22 A3013 670 84 2000 210/03 RMK AO2
14837KMSN MSN20010806000009208/06/01 00:00:31  5-MIN KMSN 060600Z 21004KT 9SM CLR 24/22 A3013 670 84 2000 210/04 RMK AO2
14837KMSN MSN20010806000509208/06/01 00:05:31  5-MIN KMSN 060605Z 21006KT 9SM CLR 24/22 A3013 670 84 2000 210/06 RMK AO2
14837KMSN MSN20010806001009208/06/01 00:10:31  5-MIN KMSN 060610Z 21006KT 9SM CLR 25/22 A3013 670 81 2000 210/06 RMK AO2
14837KMSN MSN20010806001509208/06/01 00:15:31  5-MIN KMSN 060615Z 20005KT 9SM CLR 25/22 A3013 670 81 2000 200/05 RMK AO2
14837KMSN MSN20010806002009208/06/01 00:20:31  5-MIN KMSN 060620Z 20004KT 9SM CLR 24/22 A3013 670 84 2000 200/04 RMK AO2
14837KMSN MSN20010806002509208/06/01 00:25:31  5-MIN KMSN 060625Z 20005KT 9SM CLR 24/22 A3013 670 84 2000 200/05 RMK AO2
14837KMSN MSN20010806003009208/06/01 00:30:31  5-MIN KMSN 060630Z 20005KT 9SM CLR 24/22 A3013 670 84 2000 200/05 RMK AO2
14837KMSN MSN20010806003509208/06/01 00:35:31  5-MIN KMSN 060635Z 21005KT 9SM CLR 24/22 A3013 670 84 2000 210/05 RMK AO2
14837KMSN MSN20010806004009208/06/01 00:40:31  5-MIN KMSN 060640Z 21003KT 9SM CLR 24/22 A3013 670 84 2000 210/03 RMK AO2
14837KMSN MSN20010806004509208/06/01 00:45:31  5-MIN KMSN 060645Z 20004KT 9SM CLR 24/22 A3013 670 84 2000 200/04 RMK AO2
14837KMSN MSN20010806005010908/06/01 00:50:31  5-MIN KMSN 060650Z 21006KT 9SM CLR 24/22 A3012 680 84 2000 200/06 RMK AO2 SLP194 T02440217
14837KMSN MSN20010806005509208/06/01 00:55:31  5-MIN KMSN 060655Z 21005KT 9SM CLR 24/22 A3013 670 84 2000 210/05 RMK AO2
14837KMSN MSN20010806010009208/06/01 01:00:31  5-MIN KMSN 060700Z 21005KT 9SM CLR 24/22 A3013 670 84 2000 210/05 RMK AO2
14837KMSN MSN20010806010509208/06/01 01:05:31  5-MIN KMSN 060705Z 21006KT 9SM CLR 24/21 A3012 680 81 2000 210/06 RMK AO2
14837KMSN MSN20010806011009208/06/01 01:10:31  5-MIN KMSN 060710Z 20006KT 9SM CLR 24/21 A3012 680 81 2000 200/06 RMK AO2
14837KMSN MSN20010806011509208/06/01 01:15:31  5-MIN KMSN 060715Z 21005KT 9SM CLR 24/21 A3013 670 81 2000 210/05 RMK AO2
14837KMSN MSN20010806012009208/06/01 01:20:31  5-MIN KMSN 060720Z 20005KT 9SM CLR 24/21 A3013 680 81 2000 200/05 RMK AO2
14837KMSN MSN20010806012509208/06/01 01:25:31  5-MIN KMSN 060725Z 20004KT 9SM CLR 24/22 A3012 680 84 2000 200/04 RMK AO2
14837KMSN MSN20010806013009208/06/01 01:30:31  5-MIN KMSN 060730Z 20004KT 9SM CLR 24/22 A3012 680 84 2000 200/04 RMK AO2
14837KMSN MSN20010806013509208/06/01 01:35:31  5-MIN KMSN 060735Z 20005KT 9SM CLR 24/22 A3013 680 84 2000 200/05 RMK AO2
14837KMSN MSN20010806014009208/06/01 01:40:31  5-MIN KMSN 060740Z 21005KT 8SM CLR 24/22 A3012 680 84 2000 210/05 RMK AO2
14837KMSN MSN20010806014509208/06/01 01:45:31  5-MIN KMSN 060745Z 20005KT 8SM CLR 24/22 A3012 680 84 2000 200/05 RMK AO2
14837KMSN MSN20010806015010908/06/01 01:50:31  5-MIN KMSN 060750Z 20005KT 8SM CLR 24/22 A3012 680 84 2000 200/05 RMK AO2 SLP194 T02440217
14837KMSN MSN20010806015509208/06/01 01:55:31  5-MIN KMSN 060755Z 20005KT 8SM CLR 24/22 A3013 680 87 1900 200/05 RMK AO2
14837KMSN MSN20010806020009208/06/01 02:00:31  5-MIN KMSN 060800Z 19006KT 8SM CLR 24/22 A3012 680 84 2000 190/06 RMK AO2
14837KMSN MSN20010806020509208/06/01 02:05:31  5-MIN KMSN 060805Z 21006KT 8SM CLR 24/22 A3012 680 87 1900 200/06 RMK AO2
14837KMSN MSN20010806021009208/06/01 02:10:31  5-MIN KMSN 060810Z 20005KT 8SM CLR 24/22 A3012 680 87 1900 200/05 RMK AO2
14837KMSN MSN20010806021509208/06/01 02:15:31  5-MIN KMSN 060815Z 20006KT 8SM CLR 24/21 A3012 680 84 1900 200/06 RMK AO2
14837KMSN MSN20010806022009208/06/01 02:20:31  5-MIN KMSN 060820Z 20006KT 8SM CLR 24/21 A3012 680 84 1900 200/06 RMK AO2
14837KMSN MSN20010806022509208/06/01 02:25:31  5-MIN KMSN 060825Z 20005KT 8SM CLR 24/21 A3012 680 84 1900 200/05 RMK AO2
14837KMSN MSN20010806023009208/06/01 02:30:31  5-MIN KMSN 060830Z 21006KT 8SM CLR 24/21 A3012 680 84 1900 210/06 RMK AO2
14837KMSN MSN20010806023509208/06/01 02:35:31  5-MIN KMSN 060835Z VRB04KT 7SM CLR 24/22 A3013 670 87 1900 VRB/04 RMK AO2
14837KMSN MSN20010806024009208/06/01 02:40:31  5-MIN KMSN 060840Z VRB03KT 7SM CLR 24/22 A3013 670 87 1900 VRB/03 RMK AO2
14837KMSN MSN20010806024509208/06/01 02:45:31  5-MIN KMSN 060845Z 22004KT 7SM CLR 24/22 A3013 670 87 1900 210/04 RMK AO2
14837KMSN MSN20010806025011508/06/01 02:50:31  5-MIN KMSN 060850Z 22006KT 7SM CLR 24/22 A3013 670 87 1900 220/06 RMK AO2 SLP196 T02390217 51007
14837KMSN MSN20010806025509208/06/01 02:55:31  5-MIN KMSN 060855Z 22006KT 8SM CLR 24/22 A3013 670 87 1900 220/06 RMK AO2
14837KMSN MSN20010806030009208/06/01 03:00:31  5-MIN KMSN 060900Z 21005KT 8SM CLR 24/21 A3013 670 84 1900 210/05 RMK AO2
14837KMSN MSN20010806030509208/06/01 03:05:31  5-MIN KMSN 060905Z 22005KT 8SM CLR 24/21 A3013 670 84 1900 220/05 RMK AO2
14837KMSN MSN20010806031009208/06/01 03:10:31  5-MIN KMSN 060910Z 21005KT 8SM CLR 24/22 A3013 670 87 1900 210/05 RMK AO2
14837KMSN MSN20010806031509208/06/01 03:15:31  5-MIN KMSN 060915Z 21005KT 8SM CLR 24/21 A3013 670 84 1900 210/05 RMK AO2
14837KMSN MSN20010806032009208/06/01 03:20:31  5-MIN KMSN 060920Z 22007KT 8SM CLR 24/21 A3013 670 84 1900 220/07 RMK AO2
14837KMSN MSN20010806032509208/06/01 03:25:31  5-MIN KMSN 060925Z 22006KT 8SM CLR 24/21 A3013 670 84 1900 220/06 RMK AO2
14837KMSN MSN20010806033009208/06/01 03:30:31  5-MIN KMSN 060930Z 22007KT 8SM CLR 24/21 A3013 680 84 1900 210/07 RMK AO2
14837KMSN MSN20010806033509208/06/01 03:35:31  5-MIN KMSN 060935Z 22006KT 8SM CLR 24/21 A3012 680 84 1900 210/06 RMK AO2
14837KMSN MSN20010806034009208/06/01 03:40:31  5-MIN KMSN 060940Z 22007KT 8SM CLR 24/21 A3012 680 84 1900 220/07 RMK AO2
14837KMSN MSN20010806034509208/06/01 03:45:31  5-MIN KMSN 060945Z 22006KT 8SM CLR 24/21 A3013 670 84 1900 220/06 RMK AO2
14837KMSN MSN20010806035010908/06/01 03:50:31  5-MIN KMSN 060950Z 21006KT 8SM CLR 24/21 A3013 670 84 1900 210/06 RMK AO2 SLP195 T02390211
14837KMSN MSN20010806035509208/06/01 03:55:31  5-MIN KMSN 060955Z 21007KT 8SM CLR 24/21 A3013 670 84 1900 210/07 RMK AO2
14837KMSN MSN20010806040009208/06/01 04:00:31  5-MIN KMSN 061000Z 21007KT 8SM CLR 24/21 A3013 670 84 1900 210/07 RMK AO2
14837KMSN MSN20010806040509208/06/01 04:05:31  5-MIN KMSN 061005Z 21006KT 8SM CLR 24/21 A3013 670 84 1900 210/06 RMK AO2
14837KMSN MSN20010806041009208/06/01 04:10:31  5-MIN KMSN 061010Z 21007KT 8SM CLR 24/21 A3013 670 84 1900 210/07 RMK AO2
14837KMSN MSN20010806041509208/06/01 04:15:31  5-MIN KMSN 061015Z 21006KT 8SM CLR 24/21 A3013 670 84 1900 210/06 RMK AO2
14837KMSN MSN20010806042009208/06/01 04:20:31  5-MIN KMSN 061020Z 21006KT 7SM CLR 24/21 A3013 670 84 1900 210/06 RMK AO2
14837KMSN MSN20010806042509208/06/01 04:25:31  5-MIN KMSN 061025Z 21006KT 7SM CLR 24/21 A3013 670 84 1900 210/06 RMK AO2
14837KMSN MSN20010806043009208/06/01 04:30:31  5-MIN KMSN 061030Z 21006KT 7SM CLR 24/21 A3013 670 84 1900 210/06 RMK AO2
14837KMSN MSN20010806043509208/06/01 04:35:31  5-MIN KMSN 061035Z 22007KT 7SM CLR 23/21 A3013 670 87 1800 220/07 RMK AO2
14837KMSN MSN20010806044009208/06/01 04:40:31  5-MIN KMSN 061040Z 21008KT 7SM CLR 24/21 A3013 670 84 1900 210/08 RMK AO2
14837KMSN MSN20010806044509208/06/01 04:45:31  5-MIN KMSN 061045Z 21007KT 7SM CLR 24/21 A3014 660 84 1900 210/07 RMK AO2
14837KMSN MSN20010806045010908/06/01 04:50:31  5-MIN KMSN 061050Z 21006KT 7SM CLR 24/21 A3014 660 84 1900 210/06 RMK AO2 SLP199 T02390211
14837KMSN MSN20010806045509508/06/01 04:55:31  5-MIN KMSN 061055Z 22006KT 6SM BR CLR 23/21 A3014 660 87 1800 210/06 RMK AO2
14837KMSN MSN20010806050009508/06/01 05:00:31  5-MIN KMSN 061100Z 21006KT 6SM HZ CLR 24/21 A3014 660 84 1900 210/06 RMK AO2
14837KMSN MSN20010806050509508/06/01 05:05:31  5-MIN KMSN 061105Z 21006KT 6SM HZ CLR 24/21 A3014 660 84 1900 210/06 RMK AO2
14837KMSN MSN20010806051009508/06/01 05:10:31  5-MIN KMSN 061110Z 21006KT 6SM HZ CLR 24/21 A3014 660 84 1900 210/06 RMK AO2
14837KMSN MSN20010806051509508/06/01 05:15:31  5-MIN KMSN 061115Z 21006KT 6SM HZ CLR 24/21 A3014 660 84 1900 210/06 RMK AO2
14837KMSN MSN20010806052009508/06/01 05:20:31  5-MIN KMSN 061120Z 21005KT 6SM HZ CLR 24/21 A3014 660 84 1900 210/05 RMK AO2
14837KMSN MSN20010806052509508/06/01 05:25:31  5-MIN KMSN 061125Z 21007KT 6SM HZ CLR 24/21 A3015 660 84 1900 210/07 RMK AO2
14837KMSN MSN20010806053009508/06/01 05:30:31  5-MIN KMSN 061130Z 21007KT 6SM HZ CLR 24/21 A3015 650 84 1900 210/07 RMK AO2
14837KMSN MSN20010806053509508/06/01 05:35:31  5-MIN KMSN 061135Z 22008KT 6SM HZ CLR 24/21 A3015 650 84 1900 220/08 RMK AO2
14837KMSN MSN20010806054009508/06/01 05:40:31  5-MIN KMSN 061140Z 22006KT 6SM HZ CLR 24/21 A3015 650 84 1900 220/06 RMK AO2
14837KMSN MSN20010806054509508/06/01 05:45:31  5-MIN KMSN 061145Z 21007KT 6SM HZ CLR 24/21 A3015 650 84 1900 210/07 RMK AO2
14837KMSN MSN20010806055013008/06/01 05:50:31  5-MIN KMSN 061150Z 22006KT 6SM HZ CLR 24/21 A3015 650 84 1900 220/06 RMK AO2 SLP203 T02390211 10250 20233 55000
14837KMSN MSN20010806055509508/06/01 05:55:31  5-MIN KMSN 061155Z 21006KT 6SM HZ CLR 24/21 A3015 650 84 1900 210/06 RMK AO2
14837KMSN MSN20010806060009508/06/01 06:00:31  5-MIN KMSN 061200Z 22006KT 6SM HZ CLR 24/21 A3015 650 84 1900 220/06 RMK AO2
14837KMSN MSN20010806060509508/06/01 06:05:31  5-MIN KMSN 061205Z 21006KT 6SM HZ CLR 24/21 A3015 650 84 1900 210/06 RMK AO2
14837KMSN MSN20010806061009508/06/01 06:10:31  5-MIN KMSN 061210Z 22006KT 6SM HZ CLR 24/21 A3015 650 84 1900 220/06 RMK AO2
14837KMSN MSN20010806061509508/06/01 06:15:31  5-MIN KMSN 061215Z 22008KT 6SM HZ CLR 24/21 A3015 650 84 1900 220/08 RMK AO2
14837KMSN MSN20010806062009508/06/01 06:20:31  5-MIN KMSN 061220Z 22008KT 6SM HZ CLR 24/21 A3015 650 84 1900 220/08 RMK AO2
14837KMSN MSN20010806062509508/06/01 06:25:31  5-MIN KMSN 061225Z 21008KT 6SM HZ CLR 24/21 A3015 650 84 1900 210/08 RMK AO2
14837KMSN MSN20010806063009508/06/01 06:30:31  5-MIN KMSN 061230Z VRB05KT 6SM HZ CLR 24/22 A3015 650 84 1900 VRB/05 RMK AO2
14837KMSN MSN20010806063509508/06/01 06:35:31  5-MIN KMSN 061235Z 23008KT 6SM HZ CLR 24/22 A3015 650 84 1900 230/08 RMK AO2
14837KMSN MSN20010806064009508/06/01 06:40:31  5-MIN KMSN 061240Z 22006KT 6SM HZ CLR 24/22 A3016 650 84 1900 220/06 RMK AO2
14837KMSN MSN20010806064509508/06/01 06:45:31  5-MIN KMSN 061245Z 21006KT 6SM HZ CLR 24/22 A3016 650 84 1900 210/06 RMK AO2
14837KMSN MSN20010806065011208/06/01 06:50:31  5-MIN KMSN 061250Z 22005KT 6SM HZ CLR 25/22 A3016 650 81 2000 220/05 RMK AO2 SLP205 T02500217
14837KMSN MSN20010806065509208/06/01 06:55:31  5-MIN KMSN 061255Z 23007KT 7SM CLR 25/22 A3016 640 81 2000 230/07 RMK AO2
14837KMSN MSN20010806070009208/06/01 07:00:31  5-MIN KMSN 061300Z 22009KT 7SM CLR 25/22 A3016 650 81 2000 220/09 RMK AO2
14837KMSN MSN20010806070509208/06/01 07:05:31  5-MIN KMSN 061305Z 21009KT 7SM CLR 25/22 A3016 640 81 2000 210/09 RMK AO2
14837KMSN MSN20010806071009208/06/01 07:10:31  5-MIN KMSN 061310Z 21006KT 7SM CLR 25/22 A3016 640 81 2000 210/06 RMK AO2
14837KMSN MSN20010806071509208/06/01 07:15:31  5-MIN KMSN 061315Z 22009KT 7SM CLR 25/22 A3016 640 81 2000 220/09 RMK AO2
14837KMSN MSN20010806072009208/06/01 07:20:31  5-MIN KMSN 061320Z 23008KT 7SM CLR 25/22 A3016 650 81 2000 230/08 RMK AO2
14837KMSN MSN20010806072509208/06/01 07:25:31  5-MIN KMSN 061325Z VRB05KT 7SM CLR 26/22 A3016 650 79 2100 VRB/05 RMK AO2
14837KMSN MSN20010806073009208/06/01 07:30:31  5-MIN KMSN 061330Z 23008KT 7SM CLR 26/22 A3015 650 81 2100 230/08 RMK AO2
14837KMSN MSN20010806073509208/06/01 07:35:31  5-MIN KMSN 061335Z VRB06KT 7SM CLR 26/22 A3015 650 79 2100 VRB/06 RMK AO2
14837KMSN MSN20010806074009208/06/01 07:40:31  5-MIN KMSN 061340Z VRB06KT 7SM CLR 25/22 A3015 650 81 2000 VRB/06 RMK AO2
14837KMSN MSN20010806074509208/06/01 07:45:31  5-MIN KMSN 061345Z 22009KT 7SM CLR 26/22 A3015 650 79 2100 220/09 RMK AO2
14837KMSN MSN20010806075010908/06/01 07:50:31  5-MIN KMSN 061350Z 22007KT 7SM CLR 26/22 A3015 650 79 2100 220/07 RMK AO2 SLP204 T02560217
14837KMSN MSN20010806075509208/06/01 07:55:31  5-MIN KMSN 061355Z 22008KT 8SM CLR 26/22 A3016 650 81 2100 220/08 RMK AO2
14837KMSN MSN20010806080009208/06/01 08:00:31  5-MIN KMSN 061400Z 23007KT 8SM CLR 26/22 A3016 650 79 2100 230/07 RMK AO2
14837KMSN MSN20010806080509208/06/01 08:05:31  5-MIN KMSN 061405Z 22007KT 8SM CLR 26/22 A3016 650 79 2100 220/07 RMK AO2
14837KMSN MSN20010806081010808/06/01 08:10:31  5-MIN KMSN 061410Z 22008KT 190V280 8SM CLR 26/22 A3016 650 79 2100 220/08 190V280 RMK AO2
14837KMSN MSN20010806081510808/06/01 08:15:31  5-MIN KMSN 061415Z 24007KT 210V290 8SM CLR 26/22 A3015 650 79 2100 240/07 210V290 RMK AO2
14837KMSN MSN20010806082009208/06/01 08:20:31  5-MIN KMSN 061420Z VRB06KT 8SM CLR 26/22 A3016 650 79 2100 VRB/06 RMK AO2
14837KMSN MSN20010806082509208/06/01 08:25:31  5-MIN KMSN 061425Z 23007KT 8SM CLR 26/22 A3015 650 79 2100 230/07 RMK AO2
14837KMSN MSN20010806083010808/06/01 08:30:31  5-MIN KMSN 061430Z 23007KT 190V260 8SM CLR 27/22 A3015 650 76 2200 230/07 190V260 RMK AO2
14837KMSN MSN20010806083509208/06/01 08:35:31  5-MIN KMSN 061435Z 23007KT 8SM CLR 27/22 A3015 650 76 2200 230/07 RMK AO2
14837KMSN MSN20010806084009208/06/01 08:40:31  5-MIN KMSN 061440Z 23008KT 8SM CLR 27/22 A3015 650 76 2200 230/08 RMK AO2
14837KMSN MSN20010806084509208/06/01 08:45:31  5-MIN KMSN 061445Z 23008KT 8SM CLR 27/22 A3015 650 76 2200 230/08 RMK AO2
14837KMSN MSN20010806085011508/06/01 08:50:31  5-MIN KMSN 061450Z 23007KT 8SM CLR 27/22 A3015 650 76 2200 230/07 RMK AO2 SLP204 T02670222 53007
14837KMSN MSN20010806085509208/06/01 08:55:31  5-MIN KMSN 061455Z 23007KT 7SM CLR 27/22 A3016 650 76 2200 230/07 RMK AO2
14837KMSN MSN20010806090009208/06/01 09:00:31  5-MIN KMSN 061500Z VRB06KT 7SM CLR 27/23 A3016 650 76 2200 VRB/06 RMK AO2
14837KMSN MSN20010806090509208/06/01 09:05:31  5-MIN KMSN 061505Z 22008KT 7SM CLR 27/23 A3016 650 76 2200 220/08 RMK AO2
14837KMSN MSN20010806091009208/06/01 09:10:31  5-MIN KMSN 061510Z 24007KT 7SM CLR 27/23 A3016 650 76 2200 240/07 RMK AO2
14837KMSN MSN20010806091509508/06/01 09:15:31  5-MIN KMSN 061515Z 23006KT 7SM FEW020 27/23 A3016 650 76 2200 230/06 RMK AO2
14837KMSN MSN20010806092009508/06/01 09:20:31  5-MIN KMSN 061520Z 22007KT 7SM FEW020 28/23 A3016 650 74 2300 220/07 RMK AO2
14837KMSN MSN20010806092509208/06/01 09:25:31  5-MIN KMSN 061525Z VRB06KT 7SM CLR 28/23 A3016 650 74 2300 VRB/06 RMK AO2
14837KMSN MSN20010806093010808/06/01 09:30:31  5-MIN KMSN 061530Z 24007KT 200V270 7SM CLR 28/23 A3016 650 76 2300 240/07 200V270 RMK AO2
14837KMSN MSN20010806093509208/06/01 09:35:31  5-MIN KMSN 061535Z VRB06KT 7SM CLR 28/23 A3016 650 74 2400 VRB/06 RMK AO2
14837KMSN MSN20010806094009208/06/01 09:40:31  5-MIN KMSN 061540Z 23007KT 7SM CLR 28/23 A3016 650 74 2400 230/07 RMK AO2
14837KMSN MSN20010806094509208/06/01 09:45:31  5-MIN KMSN 061545Z 21009KT 7SM CLR 28/23 A3016 640 74 2400 210/09 RMK AO2
14837KMSN MSN20010806095010908/06/01 09:50:31  5-MIN KMSN 061550Z 22008KT 7SM CLR 28/23 A3016 640 74 2400 220/08 RMK AO2 SLP206 T02830233
14837KMSN MSN20010806095509208/06/01 09:55:31  5-MIN KMSN 061555Z 22008KT 7SM CLR 28/23 A3016 650 71 2400 220/08 RMK AO2
14837KMSN MSN20010806100009508/06/01 10:00:31  5-MIN KMSN 061600Z 23007KT 8SM FEW020 29/23 A3015 650 71 2400 230/07 RMK AO2
14837KMSN MSN20010806100509508/06/01 10:05:31  5-MIN KMSN 061605Z 21008KT 8SM FEW020 29/23 A3016 650 71 2400 210/08 RMK AO2
14837KMSN MSN20010806101009508/06/01 10:10:31  5-MIN KMSN 061610Z 22008KT 8SM FEW020 29/23 A3016 650 71 2400 220/08 RMK AO2
14837KMSN MSN20010806101509508/06/01 10:15:31  5-MIN KMSN 061615Z 21009KT 8SM FEW020 29/23 A3016 650 71 2400 210/09 RMK AO2
14837KMSN MSN20010806102009508/06/01 10:20:31  5-MIN KMSN 061620Z VRB06KT 8SM FEW020 29/23 A3015 650 71 2400 VRB/06 RMK AO2
14837KMSN MSN20010806102509508/06/01 10:25:31  5-MIN KMSN 061625Z 22007KT 8SM FEW020 29/23 A3015 650 71 2400 220/07 RMK AO2
14837KMSN MSN20010806103009508/06/01 10:30:31  5-MIN KMSN 061630Z 22008KT 8SM FEW020 29/23 A3015 650 71 2400 220/08 RMK AO2
14837KMSN MSN20010806103509208/06/01 10:35:31  5-MIN KMSN 061635Z 24007KT 8SM CLR 29/23 A3015 650 71 2400 240/07 RMK AO2
14837KMSN MSN20010806104009208/06/01 10:40:31  5-MIN KMSN 061640Z 22006KT 8SM CLR 29/23 A3015 650 71 2400 220/06 RMK AO2
14837KMSN MSN20010806104509208/06/01 10:45:31  5-MIN KMSN 061645Z 22008KT 8SM CLR 29/23 A3015 650 71 2400 220/08 RMK AO2
14837KMSN MSN20010806105010908/06/01 10:50:31  5-MIN KMSN 061650Z 22007KT 8SM CLR 29/23 A3015 650 69 2500 220/07 RMK AO2 SLP202 T02940233
14837KMSN MSN20010806105510808/06/01 10:55:31  5-MIN KMSN 061655Z 23007KT 200V280 7SM CLR 29/23 A3015 660 69 2500 220/07 200V280 RMK AO2
14837KMSN MSN20010806110009208/06/01 11:00:31  5-MIN KMSN 061700Z VRB06KT 7SM CLR 30/24 A3015 650 69 2600 VRB/06 RMK AO2
14837KMSN MSN20010806110510808/06/01 11:05:31  5-MIN KMSN 061705Z 24007KT 210V270 8SM CLR 29/23 A3015 650 69 2500 240/07 210V270 RMK AO2
14837KMSN MSN20010806111009208/06/01 11:10:31  5-MIN KMSN 061710Z 24007KT 8SM CLR 29/23 A3014 660 69 2500 240/07 RMK AO2
14837KMSN MSN20010806111509208/06/01 11:15:31  5-MIN KMSN 061715Z 23006KT 8SM CLR 30/23 A3015 660 67 2600 230/06 RMK AO2
14837KMSN MSN20010806112009508/06/01 11:20:31  5-MIN KMSN 061720Z 24006KT 8SM FEW025 30/24 A3015 660 69 2600 240/06 RMK AO2
14837KMSN MSN20010806112509508/06/01 11:25:31  5-MIN KMSN 061725Z 24006KT 8SM FEW025 30/24 A3014 660 69 2600 240/06 RMK AO2
14837KMSN MSN20010806113009508/06/01 11:30:31  5-MIN KMSN 061730Z VRB06KT 8SM FEW025 30/24 A3014 660 69 2600 VRB/06 RMK AO2
14837KMSN MSN20010806113509508/06/01 11:35:31  5-MIN KMSN 061735Z 24006KT 8SM FEW025 31/24 A3014 660 67 2600 240/06 RMK AO2
14837KMSN MSN20010806114009508/06/01 11:40:31  5-MIN KMSN 061740Z 25006KT 8SM FEW025 30/24 A3014 660 69 2600 250/06 RMK AO2
14837KMSN MSN20010806114509508/06/01 11:45:31  5-MIN KMSN 061745Z 23008KT 8SM FEW025 30/23 A3014 660 67 2600 230/08 RMK AO2
14837KMSN MSN20010806115013008/06/01 11:50:31  5-MIN KMSN 061750Z 23008KT 8SM FEW025 30/23 A3014 660 67 2600 230/08 RMK AO2 SLP199 T03000233 10306 20239 51002
14837KMSN MSN20010806115509208/06/01 11:55:31  5-MIN KMSN 061755Z 23006KT 8SM CLR 31/24 A3014 660 67 2600 230/06 RMK AO2
14837KMSN MSN20010806120011208/06/01 12:00:31  5-MIN KMSN 061800Z 23007KT 200V270 10SM FEW030 31/24 A3014 660 67 2600 230/07 200V270 RMK AO2
14837KMSN MSN20010806120511208/06/01 12:05:31  5-MIN KMSN 061805Z 23008KT 200V260 10SM FEW030 30/23 A3013 670 67 2600 230/08 200V260 RMK AO2
14837KMSN MSN20010806121009608/06/01 12:10:31  5-MIN KMSN 061810Z 22005KT 10SM FEW030 31/24 A3014 670 67 2600 220/05 RMK AO2
14837KMSN MSN20010806121509608/06/01 12:15:31  5-MIN KMSN 061815Z 23008KT 10SM FEW030 31/23 A3013 670 65 2600 230/08 RMK AO2
14837KMSN MSN20010806122009608/06/01 12:20:31  5-MIN KMSN 061820Z 22008KT 10SM FEW030 31/23 A3013 670 65 2600 210/08 RMK AO2
14837KMSN MSN20010806122509308/06/01 12:25:31  5-MIN KMSN 061825Z 21008KT 10SM CLR 31/23 A3013 670 65 2600 210/08 RMK AO2
14837KMSN MSN20010806123009308/06/01 12:30:31  5-MIN KMSN 061830Z VRB06KT 10SM CLR 31/24 A3013 670 67 2600 VRB/06 RMK AO2
14837KMSN MSN20010806123509308/06/01 12:35:31  5-MIN KMSN 061835Z 22008KT 10SM CLR 31/24 A3013 670 65 2700 220/08 RMK AO2
14837KMSN MSN20010806124009308/06/01 12:40:31  5-MIN KMSN 061840Z 22009KT 10SM CLR 31/23 A3013 670 65 2600 220/09 RMK AO2
14837KMSN MSN20010806124509308/06/01 12:45:31  5-MIN KMSN 061845Z 22008KT 10SM CLR 31/24 A3013 670 65 2700 220/08 RMK AO2
14837KMSN MSN20010806125011008/06/01 12:50:31  5-MIN KMSN 061850Z 24008KT 10SM CLR 31/24 A3013 680 67 2600 240/08 RMK AO2 SLP194 T03060239
14837KMSN MSN20010806125509608/06/01 12:55:31  5-MIN KMSN 061855Z 22007KT 10SM FEW040 31/24 A3013 680 65 2700 220/07 RMK AO2
14837KMSN MSN20010806130011208/06/01 13:00:31  5-MIN KMSN 061900Z 23007KT 200V260 10SM FEW040 31/24 A3012 680 65 2700 230/07 200V260 RMK AO2
14837KMSN MSN20010806130509308/06/01 13:05:31  5-MIN KMSN 061905Z 22007KT 10SM CLR 31/24 A3012 680 65 2700 220/07 RMK AO2
14837KMSN MSN20010806131009308/06/01 13:10:31  5-MIN KMSN 061910Z 21007KT 10SM CLR 31/24 A3012 680 65 2700 210/07 RMK AO2
14837KMSN MSN20010806131510908/06/01 13:15:31  5-MIN KMSN 061915Z 24007KT 210V270 10SM CLR 31/24 A3012 680 65 2700 230/07 210V270 RMK AO2
14837KMSN MSN20010806132009308/06/01 13:20:31  5-MIN KMSN 061920Z 22006KT 10SM CLR 31/24 A3012 680 67 2700 220/06 RMK AO2
14837KMSN MSN20010806132509308/06/01 13:25:31  5-MIN KMSN 061925Z 22006KT 10SM CLR 31/24 A3012 680 67 2700 220/06 RMK AO2
14837KMSN MSN20010806133009308/06/01 13:30:31  5-MIN KMSN 061930Z 24006KT 10SM CLR 31/23 A3012 680 65 2700 230/06 RMK AO2
14837KMSN MSN20010806133509308/06/01 13:35:31  5-MIN KMSN 061935Z VRB06KT 10SM CLR 31/24 A3011 690 65 2700 VRB/06 RMK AO2
14837KMSN MSN20010806134009908/06/01 13:40:31  5-MIN KMSN 061940Z 23009G14KT 10SM CLR 32/24 A3011 690 63 2800 230/09G14 RMK AO2
14837KMSN MSN20010806134509308/06/01 13:45:31  5-MIN KMSN 061945Z 22007KT 10SM CLR 32/23 A3011 690 61 2800 220/07 RMK AO2
14837KMSN MSN20010806135012608/06/01 13:50:31  5-MIN KMSN 061950Z 23007KT 190V250 10SM CLR 32/24 A3011 690 63 2800 220/07 190V250 RMK AO2 SLP189 T03170239
14837KMSN MSN20010806135509308/06/01 13:55:31  5-MIN KMSN 061955Z 24007KT 10SM CLR 32/24 A3011 690 63 2800 240/07 RMK AO2
14837KMSN MSN20010806140009308/06/01 14:00:31  5-MIN KMSN 062000Z VRB06KT 10SM CLR 32/24 A3011 690 61 2800 VRB/06 RMK AO2
14837KMSN MSN20010806140509308/06/01 14:05:31  5-MIN KMSN 062005Z 24009KT 10SM CLR 32/24 A3011 690 61 2800 240/09 RMK AO2
14837KMSN MSN20010806141009908/06/01 14:10:31  5-MIN KMSN 062010Z 22010G14KT 10SM CLR 32/24 A3011 690 63 2800 220/10G14 RMK AO2
14837KMSN MSN20010806141509908/06/01 14:15:31  5-MIN KMSN 062015Z 21008G14KT 10SM CLR 32/23 A3011 690 61 2800 210/08G14 RMK AO2
14837KMSN MSN20010806142009308/06/01 14:20:31  5-MIN KMSN 062020Z 21006KT 10SM CLR 32/23 A3011 690 61 2800 210/06 RMK AO2
14837KMSN MSN20010806142509308/06/01 14:25:31  5-MIN KMSN 062025Z 23006KT 10SM CLR 31/24 A3010 690 65 2700 230/06 RMK AO2
14837KMSN MSN20010806143009308/06/01 14:30:31  5-MIN KMSN 062030Z 23009KT 10SM CLR 31/23 A3010 700 63 2700 230/09 RMK AO2
14837KMSN MSN20010806143509308/06/01 14:35:31  5-MIN KMSN 062035Z 24007KT 10SM CLR 31/23 A3010 700 63 2700 240/07 RMK AO2
14837KMSN MSN20010806144009308/06/01 14:40:31  5-MIN KMSN 062040Z 23007KT 10SM CLR 31/24 A3010 700 65 2700 230/07 RMK AO2
14837KMSN MSN20010806144509308/06/01 14:45:31  5-MIN KMSN 062045Z 22008KT 10SM CLR 31/23 A3010 700 63 2700 220/08 RMK AO2
14837KMSN MSN20010806145011608/06/01 14:50:31  5-MIN KMSN 062050Z 23007KT 10SM CLR 31/23 A3010 700 63 2700 230/07 RMK AO2 SLP187 T03110233 58006
14837KMSN MSN20010806145509208/06/01 14:55:31  5-MIN KMSN 062055Z 23007KT 9SM CLR 31/23 A3010 700 63 2700 230/07 RMK AO2
14837KMSN MSN20010806150009308/06/01 15:00:31  5-MIN KMSN 062100Z 22008KT 10SM CLR 31/23 A3010 700 63 2700 220/08 RMK AO2
14837KMSN MSN20010806150509308/06/01 15:05:31  5-MIN KMSN 062105Z 23007KT 10SM CLR 31/23 A3010 700 63 2700 230/07 RMK AO2
14837KMSN MSN20010806151009308/06/01 15:10:31  5-MIN KMSN 062110Z 22009KT 10SM CLR 31/23 A3010 700 63 2700 220/09 RMK AO2
14837KMSN MSN20010806151510908/06/01 15:15:31  5-MIN KMSN 062115Z 23007KT 190V250 10SM CLR 31/23 A3010 700 63 2700 230/07 190V250 RMK AO2
14837KMSN MSN20010806152009308/06/01 15:20:31  5-MIN KMSN 062120Z 22008KT 10SM CLR 31/23 A3010 700 63 2700 220/08 RMK AO2
14837KMSN MSN20010806152509308/06/01 15:25:31  5-MIN KMSN 062125Z 23008KT 10SM CLR 31/24 A3010 700 65 2700 230/08 RMK AO2
14837KMSN MSN20010806153009308/06/01 15:30:31  5-MIN KMSN 062130Z 22007KT 10SM CLR 32/24 A3010 700 65 2800 220/07 RMK AO2
14837KMSN MSN20010806153510908/06/01 15:35:31  5-MIN KMSN 062135Z 23007KT 200V260 10SM CLR 31/24 A3010 700 65 2700 230/07 200V260 RMK AO2
14837KMSN MSN20010801000009208/01/01 00:00:31  5-MIN KMSN 010600Z 18007KT 8SM CLR 26/23 A3013 670 81 2100 180/07 RMK AO2
14837KMSN MSN20010801000509208/01/01 00:05:31  5-MIN KMSN 010605Z 18008KT 7SM CLR 26/23 A3013 670 81 2100 180/08 RMK AO2
14837KMSN MSN20010801001009208/01/01 00:10:31  5-MIN KMSN 010610Z 18007KT 8SM CLR 26/23 A3014 670 81 2100 180/07 RMK AO2
14837KMSN MSN20010801001509208/01/01 00:15:31  5-MIN KMSN 010615Z 18009KT 8SM CLR 26/23 A3013 670 84 2100 180/09 RMK AO2
14837KMSN MSN20010801002009208/01/01 00:20:31  5-MIN KMSN 010620Z 18009KT 8SM CLR 26/23 A3013 670 81 2100 180/09 RMK AO2
14837KMSN MSN20010801002509208/01/01 00:25:31  5-MIN KMSN 010625Z 18008KT 8SM CLR 26/23 A3013 670 84 2100 180/08 RMK AO2
14837KMSN MSN20010801003009208/01/01 00:30:31  5-MIN KMSN 010630Z 18009KT 7SM CLR 26/23 A3013 670 84 2100 180/09 RMK AO2
14837KMSN MSN20010801003509208/01/01 00:35:31  5-MIN KMSN 010635Z 18009KT 7SM CLR 26/23 A3013 680 84 2100 180/09 RMK AO2
14837KMSN MSN20010801004009208/01/01 00:40:31  5-MIN KMSN 010640Z 17008KT 7SM CLR 26/23 A3013 670 84 2100 170/08 RMK AO2
14837KMSN MSN20010801004509208/01/01 00:45:31  5-MIN KMSN 010645Z 17008KT 7SM CLR 26/23 A3013 670 84 2100 170/08 RMK AO2
14837KMSN MSN20010801005010908/01/01 00:50:31  5-MIN KMSN 010650Z 18008KT 7SM CLR 26/23 A3012 680 84 2100 180/08 RMK AO2 SLP193 T02560228
14837KMSN MSN20010801005509208/01/01 00:55:31  5-MIN KMSN 010655Z 18010KT 7SM CLR 26/23 A3012 680 84 2100 180/10 RMK AO2
14837KMSN MSN20010801010009208/01/01 01:00:31  5-MIN KMSN 010700Z 18010KT 7SM CLR 26/23 A3012 680 84 2100 180/10 RMK AO2
14837KMSN MSN20010801010509208/01/01 01:05:31  5-MIN KMSN 010705Z 18009KT 7SM CLR 26/22 A3012 680 81 2100 180/09 RMK AO2
14837KMSN MSN20010801011009208/01/01 01:10:31  5-MIN KMSN 010710Z 18008KT 7SM CLR 26/23 A3011 690 84 2100 180/08 RMK AO2
14837KMSN MSN20010801011509208/01/01 01:15:31  5-MIN KMSN 010715Z 18009KT 7SM CLR 26/23 A3011 690 84 2100 180/09 RMK AO2
14837KMSN MSN20010801012009208/01/01 01:20:31  5-MIN KMSN 010720Z 18009KT 7SM CLR 26/23 A3011 690 84 2100 180/09 RMK AO2
14837KMSN MSN20010801012509208/01/01 01:25:31  5-MIN KMSN 010725Z 18009KT 7SM CLR 25/23 A3011 690 87 2000 180/09 RMK AO2
14837KMSN MSN20010801013009208/01/01 01:30:31  5-MIN KMSN 010730Z 18008KT 7SM CLR 25/23 A3011 690 87 2000 180/08 RMK AO2
14837KMSN MSN20010801013509208/01/01 01:35:31  5-MIN KMSN 010735Z 18008KT 7SM CLR 25/23 A3011 690 87 2000 180/08 RMK AO2
14837KMSN MSN20010801014009508/01/01 01:40:31  5-MIN KMSN 010740Z 18008KT 6SM BR CLR 25/23 A3011 690 87 2000 180/08 RMK AO2
14837KMSN MSN20010801014509508/01/01 01:45:31  5-MIN KMSN 010745Z 17008KT 6SM BR CLR 25/23 A3011 690 87 2000 170/08 RMK AO2
14837KMSN MSN20010801015011208/01/01 01:50:31  5-MIN KMSN 010750Z 17009KT 6SM BR CLR 25/23 A3011 690 87 2000 170/09 RMK AO2 SLP188 T02500228
14837KMSN MSN20010801015509508/01/01 01:55:31  5-MIN KMSN 010755Z 17009KT 6SM BR CLR 25/23 A3011 690 87 2000 170/09 RMK AO2
14837KMSN MSN20010801020009508/01/01 02:00:31  5-MIN KMSN 010800Z 17009KT 6SM BR CLR 24/23 A3011 690 90 2000 170/09 RMK AO2
14837KMSN MSN20010801020509508/01/01 02:05:31  5-MIN KMSN 010805Z 18009KT 6SM BR CLR 25/23 A3011 690 87 2000 170/09 RMK AO2
14837KMSN MSN20010801021009508/01/01 02:10:31  5-MIN KMSN 010810Z 18009KT 6SM BR CLR 25/23 A3011 690 87 2000 180/09 RMK AO2
14837KMSN MSN20010801021509508/01/01 02:15:31  5-MIN KMSN 010815Z 18008KT 6SM BR CLR 25/23 A3011 690 87 2000 180/08 RMK AO2
14837KMSN MSN20010801022009508/01/01 02:20:31  5-MIN KMSN 010820Z 18007KT 6SM BR CLR 25/23 A3011 690 87 2000 180/07 RMK AO2
14837KMSN MSN20010801022509508/01/01 02:25:31  5-MIN KMSN 010825Z 18008KT 6SM HZ CLR 25/22 A3011 690 84 2000 180/08 RMK AO2
14837KMSN MSN20010801023009508/01/01 02:30:31  5-MIN KMSN 010830Z 18008KT 5SM HZ CLR 25/22 A3011 690 84 2000 180/08 RMK AO2
14837KMSN MSN20010801023509508/01/01 02:35:31  5-MIN KMSN 010835Z 19010KT 5SM BR CLR 24/22 A3011 690 87 2000 180/10 RMK AO2
14837KMSN MSN20010801024009508/01/01 02:40:31  5-MIN KMSN 010840Z 19008KT 5SM HZ CLR 25/22 A3011 690 84 2000 190/08 RMK AO2
14837KMSN MSN20010801024509508/01/01 02:45:31  5-MIN KMSN 010845Z 18009KT 5SM HZ CLR 25/22 A3011 690 84 2000 180/09 RMK AO2
14837KMSN MSN20010801025011808/01/01 02:50:31  5-MIN KMSN 010850Z 18008KT 5SM BR CLR 24/22 A3011 690 87 2000 180/08 RMK AO2 SLP187 T02440222 51018
14837KMSN MSN20010801025509508/01/01 02:55:31  5-MIN KMSN 010855Z 18008KT 5SM BR CLR 24/22 A3011 690 87 2000 180/08 RMK AO2
14837KMSN MSN20010801030009508/01/01 03:00:31  5-MIN KMSN 010900Z 17008KT 5SM BR CLR 24/22 A3010 700 87 2000 170/08 RMK AO2
14837KMSN MSN20010801030509508/01/01 03:05:31  5-MIN KMSN 010905Z 18007KT 5SM BR CLR 24/22 A3011 690 87 2000 180/07 RMK AO2
14837KMSN MSN20010801031009508/01/01 03:10:31  5-MIN KMSN 010910Z 18007KT 5SM BR CLR 24/22 A3011 690 87 2000 180/07 RMK AO2
14837KMSN MSN20010801031509508/01/01 03:15:31  5-MIN KMSN 010915Z 18007KT 5SM BR CLR 24/22 A3011 690 87 2000 180/07 RMK AO2
14837KMSN MSN20010801032009508/01/01 03:20:31  5-MIN KMSN 010920Z 19007KT 5SM BR CLR 24/22 A3011 690 87 2000 180/07 RMK AO2
14837KMSN MSN20010801032509508/01/01 03:25:31  5-MIN KMSN 010925Z 17008KT 5SM BR CLR 24/22 A3011 690 87 2000 170/08 RMK AO2
14837KMSN MSN20010801033009508/01/01 03:30:31  5-MIN KMSN 010930Z 18009KT 5SM BR CLR 24/22 A3011 690 87 2000 180/09 RMK AO2
14837KMSN MSN20010801033509508/01/01 03:35:31  5-MIN KMSN 010935Z 18009KT 5SM BR CLR 24/22 A3011 690 87 2000 180/09 RMK AO2
14837KMSN MSN20010801034009508/01/01 03:40:31  5-MIN KMSN 010940Z 17008KT 5SM BR CLR 24/22 A3012 680 87 2000 170/08 RMK AO2
14837KMSN MSN20010801034509508/01/01 03:45:31  5-MIN KMSN 010945Z 18008KT 5SM BR CLR 24/22 A3012 680 87 2000 180/08 RMK AO2
14837KMSN MSN20010801035011208/01/01 03:50:31  5-MIN KMSN 010950Z 18008KT 5SM BR CLR 24/22 A3012 680 90 1900 180/08 RMK AO2 SLP193 T02390222
14837KMSN MSN20010801035509508/01/01 03:55:31  5-MIN KMSN 010955Z 18008KT 5SM BR CLR 24/22 A3012 680 90 1900 180/08 RMK AO2
14837KMSN MSN20010801040009508/01/01 04:00:31  5-MIN KMSN 011000Z 18008KT 5SM BR CLR 24/22 A3012 680 90 1900 180/08 RMK AO2
14837KMSN MSN20010801040509508/01/01 04:05:31  5-MIN KMSN 011005Z 17008KT 4SM BR CLR 24/22 A3012 680 90 1900 170/08 RMK AO2
14837KMSN MSN20010801041009508/01/01 04:10:31  5-MIN KMSN 011010Z 18008KT 4SM BR CLR 24/22 A3012 680 90 1900 180/08 RMK AO2
14837KMSN MSN20010801041509508/01/01 04:15:31  5-MIN KMSN 011015Z 18008KT 4SM BR CLR 24/22 A3012 680 90 1900 180/08 RMK AO2
14837KMSN MSN20010801042009508/01/01 04:20:31  5-MIN KMSN 011020Z 18009KT 4SM BR CLR 24/22 A3012 680 90 1900 180/09 RMK AO2
14837KMSN MSN20010801042509508/01/01 04:25:31  5-MIN KMSN 011025Z 18008KT 4SM BR CLR 24/22 A3012 680 90 1900 170/08 RMK AO2
14837KMSN MSN20010801043009508/01/01 04:30:31  5-MIN KMSN 011030Z 18008KT 4SM BR CLR 24/22 A3012 680 90 1900 180/08 RMK AO2
14837KMSN MSN20010801043509508/01/01 04:35:31  5-MIN KMSN 011035Z 18008KT 4SM BR CLR 24/22 A3012 680 90 1900 180/08 RMK AO2
14837KMSN MSN20010801044009508/01/01 04:40:31  5-MIN KMSN 011040Z 18008KT 4SM BR CLR 24/22 A3012 680 87 1900 180/08 RMK AO2
14837KMSN MSN20010801044509508/01/01 04:45:31  5-MIN KMSN 011045Z 18008KT 3SM BR CLR 24/22 A3012 680 87 1900 180/08 RMK AO2
14837KMSN MSN20010801045011208/01/01 04:50:31  5-MIN KMSN 011050Z 18009KT 3SM BR CLR 24/22 A3012 680 87 1900 180/09 RMK AO2 SLP191 T02390217
14837KMSN MSN20010801045509508/01/01 04:55:31  5-MIN KMSN 011055Z 18009KT 4SM BR CLR 24/22 A3012 680 87 1900 180/09 RMK AO2
14837KMSN MSN20010801050009508/01/01 05:00:31  5-MIN KMSN 011100Z 18008KT 3SM BR CLR 24/22 A3012 680 87 1900 180/08 RMK AO2
14837KMSN MSN20010801050509908/01/01 05:05:31  5-MIN KMSN 011105Z 20009KT 2 1/2SM BR CLR 24/22 A3012 680 87 1900 190/09 RMK AO2
14837KMSN MSN20010801051009508/01/01 05:10:31  5-MIN KMSN 011110Z 18008KT 3SM BR CLR 24/22 A3012 680 87 1900 180/08 RMK AO2
14837KMSN MSN20010801051509508/01/01 05:15:31  5-MIN KMSN 011115Z 19007KT 3SM BR CLR 24/22 A3013 680 87 1900 190/07 RMK AO2
14837KMSN MSN20010801052009508/01/01 05:20:31  5-MIN KMSN 011120Z 19008KT 3SM BR CLR 24/22 A3013 670 87 1900 190/08 RMK AO2
14837KMSN MSN20010801052509508/01/01 05:25:31  5-MIN KMSN 011125Z 19008KT 3SM BR CLR 24/22 A3013 670 90 1900 190/08 RMK AO2
14837KMSN MSN20010801053009508/01/01 05:30:31  5-MIN KMSN 011130Z 18009KT 3SM BR CLR 24/22 A3013 670 90 1900 180/09 RMK AO2
14837KMSN MSN20010801053509508/01/01 05:35:31  5-MIN KMSN 011135Z 18009KT 3SM BR CLR 24/22 A3013 670 90 1900 180/09 RMK AO2
14837KMSN MSN20010801054009508/01/01 05:40:31  5-MIN KMSN 011140Z 17009KT 3SM BR CLR 24/22 A3013 670 90 1900 170/09 RMK AO2
14837KMSN MSN20010801054509508/01/01 05:45:31  5-MIN KMSN 011145Z 17008KT 3SM BR CLR 24/22 A3013 670 90 1900 170/08 RMK AO2
14837KMSN MSN20010801055013008/01/01 05:50:31  5-MIN KMSN 011150Z 18008KT 3SM BR CLR 24/22 A3014 660 90 1900 180/08 RMK AO2 SLP199 T02390222 10261 20239 56009
14837KMSN MSN20010801055509908/01/01 05:55:31  5-MIN KMSN 011155Z 18008KT 2 1/2SM BR CLR 24/22 A3014 660 90 1900 180/08 RMK AO2
14837KMSN MSN20010801060010908/01/01 06:00:31  5-MIN KMSN 011200Z 18008KT 2 1/2SM BR CLR 24/22 A3014 660 90 1900 180/08 RMK AO2 SFC VIS 3
14837KMSN MSN20010801060510908/01/01 06:05:31  5-MIN KMSN 011205Z 18009KT 2 1/2SM BR CLR 24/22 A3014 660 87 1900 180/09 RMK AO2 SFC VIS 3
14837KMSN MSN20010801061010908/01/01 06:10:31  5-MIN KMSN 011210Z 19007KT 2 1/2SM BR CLR 24/22 A3015 660 87 1900 190/07 RMK AO2 SFC VIS 3
14837KMSN MSN20010801061510908/01/01 06:15:31  5-MIN KMSN 011215Z 20006KT 2 1/2SM BR CLR 24/22 A3015 650 87 1900 190/06 RMK AO2 SFC VIS 3
14837KMSN MSN20010801062010908/01/01 06:20:31  5-MIN KMSN 011220Z 20006KT 2 1/2SM BR CLR 24/22 A3016 640 87 1900 200/06 RMK AO2 SFC VIS 3
14837KMSN MSN20010801062510908/01/01 06:25:31  5-MIN KMSN 011225Z 19007KT 2 1/2SM BR CLR 24/22 A3016 640 87 1900 190/07 RMK AO2 SFC VIS 3
14837KMSN MSN20010801063010908/01/01 06:30:31  5-MIN KMSN 011230Z 18008KT 2 1/2SM BR CLR 24/22 A3016 640 87 1900 180/08 RMK AO2 SFC VIS 3
14837KMSN MSN20010801063510908/01/01 06:35:31  5-MIN KMSN 011235Z 18007KT 2 1/2SM BR CLR 24/22 A3017 640 87 1900 180/07 RMK AO2 SFC VIS 3
14837KMSN MSN20010801102509208/01/01 10:25:31  5-MIN KMSN 011625Z 17011KT 7SM CLR 29/24 A3015 650 71 2500 170/11 RMK AO2
14837KMSN MSN20010801103009208/01/01 10:30:31  5-MIN KMSN 011630Z 17012KT 7SM CLR 29/24 A3015 650 71 2500 170/12 RMK AO2
14837KMSN MSN20010801103509208/01/01 10:35:31  5-MIN KMSN 011635Z 17011KT 7SM CLR 29/24 A3015 650 71 2500 170/11 RMK AO2
14837KMSN MSN20010801104009208/01/01 10:40:31  5-MIN KMSN 011640Z 18011KT 7SM CLR 29/24 A3015 650 71 2500 180/11 RMK AO2
14837KMSN MSN20010801104509208/01/01 10:45:31  5-MIN KMSN 011645Z 18010KT 7SM CLR 29/24 A3015 650 71 2500 180/10 RMK AO2
14837KMSN MSN20010801105010908/01/01 10:50:31  5-MIN KMSN 011650Z 17011KT 7SM CLR 29/24 A3015 660 71 2500 170/11 RMK AO2 SLP201 T02940239
14837KMSN MSN20010801105509208/01/01 10:55:31  5-MIN KMSN 011655Z 18010KT 7SM CLR 30/24 A3014 660 69 2600 180/10 RMK AO2
14837KMSN MSN20010801110009208/01/01 11:00:31  5-MIN KMSN 011700Z 17011KT 7SM CLR 30/24 A3014 660 72 2600 170/11 RMK AO2
14837KMSN MSN20010801110509208/01/01 11:05:31  5-MIN KMSN 011705Z 17010KT 7SM CLR 30/24 A3014 660 72 2600 170/10 RMK AO2
14837KMSN MSN20010801111009208/01/01 11:10:31  5-MIN KMSN 011710Z 18011KT 7SM CLR 30/24 A3014 660 72 2600 170/11 RMK AO2
14837KMSN MSN20010801111509208/01/01 11:15:31  5-MIN KMSN 011715Z 18009KT 7SM CLR 30/24 A3014 660 72 2600 180/09 RMK AO2
14837KMSN MSN20010801112009208/01/01 11:20:31  5-MIN KMSN 011720Z 19009KT 7SM CLR 31/24 A3014 660 69 2600 190/09 RMK AO2
14837KMSN MSN20010801112509808/01/01 11:25:31  5-MIN KMSN 011725Z 19010G14KT 7SM CLR 31/24 A3014 660 69 2600 180/10G14 RMK AO2
14837KMSN MSN20010801113009808/01/01 11:30:31  5-MIN KMSN 011730Z 19011G14KT 7SM CLR 31/24 A3014 660 67 2600 190/11G14 RMK AO2
14837KMSN MSN20010801113509208/01/01 11:35:31  5-MIN KMSN 011735Z 17010KT 7SM CLR 31/24 A3014 660 69 2600 170/10 RMK AO2
14837KMSN MSN20010801114009208/01/01 11:40:31  5-MIN KMSN 011740Z 19007KT 7SM CLR 31/24 A3014 660 67 2700 190/07 RMK AO2
14837KMSN MSN20010801114509208/01/01 11:45:31  5-MIN KMSN 011745Z 19010KT 7SM CLR 31/24 A3014 660 67 2700 190/10 RMK AO2
14837KMSN MSN20010801115012708/01/01 11:50:31  5-MIN KMSN 011750Z 19010KT 8SM CLR 32/24 A3014 660 65 2700 190/10 RMK AO2 SLP200 T03170244 10317 20239 50008
14837KMSN MSN20010801115509208/01/01 11:55:31  5-MIN KMSN 011755Z 18010KT 9SM CLR 32/24 A3014 660 65 2700 180/10 RMK AO2
14837KMSN MSN20010801120009208/01/01 12:00:31  5-MIN KMSN 011800Z 20008KT 9SM CLR 32/24 A3014 660 63 2800 200/08 RMK AO2
14837KMSN MSN20010801120509908/01/01 12:05:31  5-MIN KMSN 011805Z 21010G15KT 10SM CLR 31/24 A3014 660 65 2700 200/10G15 RMK AO2
14837KMSN MSN20010801121009908/01/01 12:10:31  5-MIN KMSN 011810Z 21009G15KT 10SM CLR 32/24 A3014 660 63 2800 200/09G15 RMK AO2
14837KMSN MSN20010801121509308/01/01 12:15:31  5-MIN KMSN 011815Z 19009KT 10SM CLR 31/24 A3014 660 65 2700 190/09 RMK AO2
14837KMSN MSN20010801122009308/01/01 12:20:31  5-MIN KMSN 011820Z 18011KT 10SM CLR 32/24 A3013 670 63 2800 180/11 RMK AO2
14837KMSN MSN20010801122509308/01/01 12:25:31  5-MIN KMSN 011825Z 18013KT 10SM CLR 32/24 A3013 670 65 2800 180/13 RMK AO2
14837KMSN MSN20010801123009308/01/01 12:30:31  5-MIN KMSN 011830Z 17013KT 10SM CLR 32/24 A3013 670 63 2800 170/13 RMK AO2
14837KMSN MSN20010801123509308/01/01 12:35:31  5-MIN KMSN 011835Z 18013KT 10SM CLR 32/24 A3013 670 63 2800 180/13 RMK AO2
14837KMSN MSN20010801124009308/01/01 12:40:31  5-MIN KMSN 011840Z 17013KT 10SM CLR 32/24 A3013 670 63 2800 170/13 RMK AO2
14837KMSN MSN20010801124509308/01/01 12:45:31  5-MIN KMSN 011845Z 18013KT 10SM CLR 32/24 A3013 680 63 2800 180/13 RMK AO2
14837KMSN MSN20010801125011008/01/01 12:50:31  5-MIN KMSN 011850Z 17016KT 10SM CLR 32/24 A3013 680 63 2800 170/16 RMK AO2 SLP193 T03220244
14837KMSN MSN20010801125509908/01/01 12:55:31  5-MIN KMSN 011855Z 18013G19KT 10SM CLR 33/24 A3012 680 61 2900 180/13G19 RMK AO2
14837KMSN MSN20010801130009308/01/01 13:00:31  5-MIN KMSN 011900Z 19010KT 10SM CLR 32/24 A3012 680 63 2800 190/10 RMK AO2
14837KMSN MSN20010801130510208/01/01 13:05:31  5-MIN KMSN 011905Z 17013G18KT 10SM FEW030 32/24 A3012 680 63 2800 170/13G18 RMK AO2
14837KMSN MSN20010801131010208/01/01 13:10:31  5-MIN KMSN 011910Z 18011G18KT 10SM FEW030 32/24 A3012 680 61 2800 180/11G18 RMK AO2
14837KMSN MSN20010801131509608/01/01 13:15:31  5-MIN KMSN 011915Z 18013KT 10SM FEW030 33/24 A3012 680 61 2900 180/13 RMK AO2
14837KMSN MSN20010801132009608/01/01 13:20:31  5-MIN KMSN 011920Z 18011KT 10SM FEW030 33/24 A3012 680 61 2900 180/11 RMK AO2
14837KMSN MSN20010801132509308/01/01 13:25:31  5-MIN KMSN 011925Z 19012KT 10SM CLR 33/24 A3012 680 61 2900 190/12 RMK AO2
14837KMSN MSN20010801133009308/01/01 13:30:31  5-MIN KMSN 011930Z 18014KT 10SM CLR 33/24 A3012 680 61 2900 180/14 RMK AO2
14837KMSN MSN20010801133509308/01/01 13:35:31  5-MIN KMSN 011935Z 18010KT 10SM CLR 33/24 A3012 680 61 2900 180/10 RMK AO2
14837KMSN MSN20010801134009308/01/01 13:40:31  5-MIN KMSN 011940Z 18014KT 10SM CLR 33/24 A3012 680 61 2900 180/14 RMK AO2
14837KMSN MSN20010801134509908/01/01 13:45:31  5-MIN KMSN 011945Z 19013G16KT 10SM CLR 33/24 A3012 680 61 2900 190/13G16 RMK AO2
14837KMSN MSN20010801135011908/01/01 13:50:31  5-MIN KMSN 011950Z 19012G17KT 10SM FEW035 33/24 A3012 680 61 2900 190/12G17 RMK AO2 SLP191 T03280244
14837KMSN MSN20010801135509908/01/01 13:55:31  5-MIN KMSN 011955Z 18012G17KT 10SM CLR 33/24 A3012 680 59 2900 180/12G17 RMK AO2
14837KMSN MSN20010801140010308/01/01 14:00:31  5-MIN KMSN 012000Z 19011KT 10SM FEW035 SCT095 33/24 A3012 680 59 2900 190/11 RMK AO2
14837KMSN MSN20010801140510308/01/01 14:05:31  5-MIN KMSN 012005Z 19007KT 10SM FEW035 SCT095 33/24 A3012 680 59 2900 190/07 RMK AO2
14837KMSN MSN20010801141010908/01/01 14:10:31  5-MIN KMSN 012010Z 18011G14KT 10SM SCT035 BKN065 32/24 A3012 680 63 2800 180/11G14 RMK AO2
14837KMSN MSN20010801141510908/01/01 14:15:31  5-MIN KMSN 012015Z 19010G16KT 10SM SCT035 BKN065 32/24 A3012 680 61 2800 190/10G16 RMK AO2
14837KMSN MSN20010801142010308/01/01 14:20:31  5-MIN KMSN 012020Z 19010KT 10SM SCT035 SCT065 32/24 A3012 680 61 2800 190/10 RMK AO2
14837KMSN MSN20010801142510908/01/01 14:25:31  5-MIN KMSN 012025Z 19011G17KT 10SM SCT035 SCT065 32/24 A3012 680 61 2800 190/11G17 RMK AO2
14837KMSN MSN20010801143010908/01/01 14:30:31  5-MIN KMSN 012030Z 19009G17KT 10SM SCT042 BKN070 32/24 A3011 680 61 2800 190/09G17 RMK AO2
14837KMSN MSN20010801143510308/01/01 14:35:31  5-MIN KMSN 012035Z 18010KT 10SM SCT042 SCT070 32/24 A3011 680 63 2800 180/10 RMK AO2
14837KMSN MSN20010801144010308/01/01 14:40:31  5-MIN KMSN 012040Z 18011KT 10SM SCT042 SCT070 32/24 A3011 690 63 2800 180/11 RMK AO2
14837KMSN MSN20010801144509608/01/01 14:45:31  5-MIN KMSN 012045Z 19011KT 10SM SCT042 32/24 A3011 690 61 2800 180/11 RMK AO2
14837KMSN MSN20010801145011908/01/01 14:50:31  5-MIN KMSN 012050Z 19010KT 10SM SCT042 32/24 A3011 690 63 2800 190/10 RMK AO2 SLP189 T03220244 56007
14837KMSN MSN20010801145509608/01/01 14:55:31  5-MIN KMSN 012055Z 18011KT 10SM SCT040 32/24 A3011 690 61 2800 180/11 RMK AO2
14837KMSN MSN20010801150010208/01/01 15:00:31  5-MIN KMSN 012100Z 21008G16KT 10SM SCT040 32/24 A3011 690 63 2800 210/08G16 RMK AO2
14837KMSN MSN20010801150509608/01/01 15:05:31  5-MIN KMSN 012105Z 21009KT 10SM SCT040 32/24 A3011 690 61 2800 210/09 RMK AO2
14837KMSN MSN20010801151010208/01/01 15:10:31  5-MIN KMSN 012110Z 20008G15KT 10SM FEW040 32/24 A3011 690 61 2800 200/08G15 RMK AO2
14837KMSN MSN20010801151510208/01/01 15:15:31  5-MIN KMSN 012115Z 21006G15KT 10SM FEW040 33/24 A3011 690 61 2900 210/06G15 RMK AO2
14837KMSN MSN20010801152009608/01/01 15:20:31  5-MIN KMSN 012120Z 20009KT 10SM FEW040 33/24 A3011 690 61 2900 190/09 RMK AO2
14837KMSN MSN20010801152509608/01/01 15:25:31  5-MIN KMSN 012125Z 19012KT 10SM FEW040 32/24 A3011 690 63 2900 190/12 RMK AO2
14837KMSN MSN20010801153009608/01/01 15:30:31  5-MIN KMSN 012130Z 20008KT 10SM FEW040 32/24 A3010 700 63 2900 200/08 RMK AO2
14837KMSN MSN20010801153510208/01/01 15:35:31  5-MIN KMSN 012135Z 19014G18KT 10SM FEW040 32/24 A3010 700 63 2900 190/14G18 RMK AO2
14837KMSN MSN20010801154011808/01/01 15:40:31  5-MIN KMSN 012140Z 20009G18KT 180V240 10SM FEW040 33/24 A3009 710 61 2900 200/09G18 180V240 RMK AO2
14837KMSN MSN20010801154510208/01/01 15:45:31  5-MIN KMSN 012145Z 18014G18KT 10SM FEW040 32/24 A3009 710 61 2900 180/14G18 RMK AO2
14837KMSN MSN20010801155011908/01/01 15:50:31  5-MIN KMSN 012150Z 22010G18KT 10SM FEW040 32/24 A3009 710 63 2900 220/10G18 RMK AO2 SLP183 T03220244
14837KMSN MSN20010801155510208/01/01 15:55:31  5-MIN KMSN 012155Z 20011G17KT 10SM FEW040 32/24 A3010 700 63 2900 190/11G17 RMK AO2
14837KMSN MSN20010801160010208/01/01 16:00:31  5-MIN KMSN 012200Z 21011G17KT 10SM FEW040 32/24 A3011 690 61 2800 200/11G17 RMK AO2
14837KMSN MSN20010801160509608/01/01 16:05:31  5-MIN KMSN 012205Z 20011KT 10SM FEW040 32/24 A3011 690 63 2800 200/11 RMK AO2
14837KMSN MSN20010801161010208/01/01 16:10:31  5-MIN KMSN 012210Z 20012G17KT 10SM SCT036 32/24 A3011 690 61 2900 200/12G17 RMK AO2
14837KMSN MSN20010801161510208/01/01 16:15:31  5-MIN KMSN 012215Z 20010G17KT 10SM SCT036 32/24 A3011 690 61 2800 200/10G17 RMK AO2
14837KMSN MSN20010801162010208/01/01 16:20:31  5-MIN KMSN 012220Z 20009G17KT 10SM SCT036 32/24 A3011 690 65 2800 200/09G17 RMK AO2
14837KMSN MSN20010801162509608/01/01 16:25:31  5-MIN KMSN 012225Z 21010KT 10SM SCT036 32/24 A3012 680 65 2800 210/10 RMK AO2
14837KMSN MSN20010801163010308/01/01 16:30:31  5-MIN KMSN 012230Z 20010KT 10SM FEW036 BKN070 32/24 A3011 690 63 2800 200/10 RMK AO2
14837KMSN MSN20010801163510908/01/01 16:35:31  5-MIN KMSN 012235Z 19013G18KT 10SM SCT036 BKN075 32/24 A3011 690 63 2800 190/13G18 RMK AO2
14837KMSN MSN20010801164010908/01/01 16:40:31  5-MIN KMSN 012240Z 20008G18KT 10SM FEW038 BKN075 32/24 A3011 690 63 2800 200/08G18 RMK AO2
14837KMSN MSN20010801164510308/01/01 16:45:31  5-MIN KMSN 012245Z 17008KT 10SM FEW038 BKN070 32/24 A3012 680 63 2800 170/08 RMK AO2
14837KMSN MSN20010801165012008/01/01 16:50:31  5-MIN KMSN 012250Z 16006KT 10SM SCT038 BKN070 31/24 A3013 670 67 2700 160/06 RMK AO2 SLP195 T03110244
14837KMSN MSN20010801165512608/01/01 16:55:31  5-MIN KMSN 012255Z 19007KT 170V230 10SM BKN038 BKN070 31/24 A3014 660 67 2700 190/07 170V230 RMK AO2 PRESRR
14837KMSN MSN20010801170011708/01/01 17:00:31  5-MIN KMSN 012300Z VRB04KT 10SM BKN036 BKN043 BKN070 31/24 A3016 650 67 2700 VRB/04 RMK AO2 PRESRR
14837KMSN MSN20010801170512908/01/01 17:05:31  5-MIN KMSN 012305Z 35010KT 10SM BKN036 BKN070 30/24 A3018 630 72 2500 350/10 RMK AO2 PRESRR OCNL LTGIC DSNT NW
14837KMSN MSN20010801171016508/01/01 17:10:31  5-MIN KMSN 012310Z 32017G23KT 10SM TS FEW021 BKN036 OVC070 27/22 A3018 620 74 2200 320/17G23 RMK AO2 TSB10 PRESRR OCNL LTGICCA VC N TS VC N MOV SE
14837KMSN MSN20010801171516908/01/01 17:15:31  5-MIN KMSN 012315Z 33021G30KT 10SM TS FEW021 OVC036 24/21 A3018 630 78 1900 330/21G30 RMK AO2 PK WND 33030/2311 TSB10 OCNL LTGICCA VC N TS VC N MOV SE
14837KMSN MSN20010801172019808/01/01 17:20:31  5-MIN KMSN 012320Z 33020G30KT 9SM -TSRA FEW021 BKN036 OVC045 23/21 A3018 620 84 1800 330/20G30 RMK AO2 PK WND 33030/2311 WSHFT 2305 TSB10RAB17 OCNL LTGICCA OHD TS OHD MOV SE P0000
14837KMSN MSN20010801172521708/01/01 17:25:31  5-MIN KMSN 012325Z 32013G26KT 290V350 3SM -TSRA BR FEW021 BKN036 OVC060 22/21 A3019 610 90 1600 320/13G26 290V350 RMK AO2 PK WND 33030/2311 WSHFT 2305 TSB10RAB17 OCNL LTGICCA OHD TS OHD MOV SE P0001
14837KMSN MSN20010801173021008/01/01 17:30:31  5-MIN KMSN 012330Z 33010KT 300V010 3SM TSRA BR FEW021 BKN036 OVC060 22/21 A3019 610 90 1600 330/10 300V010 RMK AO2 PK WND 33030/2311 WSHFT 2305 TSB10RAB17 OCNL LTGICCA OHD TS OHD MOV SE P0001
14837KMSN MSN20010801173521508/01/01 17:35:31  5-MIN KMSN 012335Z VRB05G17KT 1SM +TSRA BR FEW008 BKN036 OVC065 22/22 A3021 590 97 1600 VRB/05G17 RMK AO2 PK WND 33030/2311 WSHFT 2305 SFC VIS 1 1/2 TSB10RAB17 OCNL LTGICCA OHD TS OHD MOV SE P0004
14837KMSN MSN20010801174020208/01/01 17:40:31  5-MIN KMSN 012340Z VRB05G17KT 1SM +TSRA BR SCT009 BKN036 OVC060 22/22 A3022 590 97 1600 VRB/05G17 RMK AO2 PK WND 33030/2311 WSHFT 2305 TSB10RAB17 FRQ LTGICCACG OHD TS OHD MOV SE P0013
14837KMSN MSN20010801174519808/01/01 17:45:31  5-MIN KMSN 012345Z 11007KT 1/2SM +TSRA FG BKN007 BKN035 OVC065 22/22 A3018 620 97 1600 100/07 RMK AO2 PK WND 33030/2311 WSHFT 2305 TSB10RAB17 FRQ LTGICCACG OHD TS OHD MOV SE P0033
14837KMSN MSN20010801175024408/01/01 17:50:31  5-MIN KMSN 012350Z 35008KT 1SM +TSRA BR BKN007 BKN035 OVC060 22/22 A3017 640 97 1700 350/08 RMK AO2 PK WND 33030/2311 WSHFT 2305 TSB10RAB17 PRESFR SLP211 FRQ LTGICCACG OHD TS OHD MOV SE P0041 60041 T02220217 10328 20222 56012
14837KMSN MSN20010801175516408/01/01 17:55:31  5-MIN KMSN 012355Z 06007KT 1SM +TSRA BR FEW006 BKN013 OVC065 22/22 A3016 640 97 1700 060/07 RMK AO2 PRESFR CONS LTGICCACG OHD TS OHD MOV SE P0001
14837KMSN MSN20010801180014908/01/01 18:00:31  5-MIN KMSN 020000Z 00000KT 3SM TSRA BR FEW006 OVC018 22/22 A3016 640 97 1700 000/00 RMK AO2 CONS LTGICCACG OHD TS OHD MOV SE P0002
14837KMSN MSN20010801180514808/01/01 18:05:31  5-MIN KMSN 020005Z 26005KT 3SM TSRA BR FEW006 OVC020 22/22 A3017 630 97 1700 260/05 RMK AO2 FRQ LTGICCACG OHD TS OHD MOV SE P0003
14837KMSN MSN20010801181014808/01/01 18:10:31  5-MIN KMSN 020010Z 24005KT 3SM TSRA BR FEW004 OVC024 22/22 A3017 630 97 1700 240/05 RMK AO2 FRQ LTGICCACG OHD TS OHD MOV SE P0005
14837KMSN MSN20010801181514108/01/01 18:15:31  5-MIN KMSN 020015Z 21005KT 3SM TSRA BR OVC026 22/22 A3018 630 97 1700 210/05 RMK AO2 FRQ LTGICCACG OHD TS OHD MOV SE P0006
14837KMSN MSN20010801182014208/01/01 18:20:31  5-MIN KMSN 020020Z 18008KT 3SM TSRA BR OVC028 23/22 A3018 630 93 1700 180/08 RMK AO2 CONS LTGICCACG OHD TS OHD MOV SE P0007
14837KMSN MSN20010801182514208/01/01 18:25:31  5-MIN KMSN 020025Z 21005KT 3SM TSRA BR OVC028 23/22 A3016 640 93 1700 210/05 RMK AO2 CONS LTGICCACG OHD TS OHD MOV SE P0009
14837KMSN MSN20010801183014208/01/01 18:30:31  5-MIN KMSN 020030Z 19006KT 3SM TSRA BR OVC032 22/22 A3015 650 97 1700 190/06 RMK AO2 CONS LTGICCACG OHD TS OHD MOV SE P0010
14837KMSN MSN20010801183514308/01/01 18:35:31  5-MIN KMSN 020035Z 21007KT 3SM -TSRA BR OVC032 23/22 A3017 630 93 1700 210/07 RMK AO2 CONS LTGICCACG OHD TS OHD MOV SE P0010
14837KMSN MSN20010801184014308/01/01 18:40:31  5-MIN KMSN 020040Z 20009KT 3SM -TSRA BR OVC032 23/22 A3019 610 93 1700 200/09 RMK AO2 CONS LTGICCACG OHD TS OHD MOV SE P0011
14837KMSN MSN20010801184514208/01/01 18:45:31  5-MIN KMSN 020045Z 19006KT 3SM -TSRA BR OVC036 23/22 A3018 620 93 1700 190/06 RMK AO2 FRQ LTGICCACG OHD TS OHD MOV SE P0011
14837KMSN MSN20010801185016908/01/01 18:50:31  5-MIN KMSN 020050Z 16011KT 3SM -TSRA BR OVC038 23/22 A3017 640 93 1700 160/11 RMK AO2 SFC VIS 4 SLP211 FRQ LTGICCACG OHD TS OHD MOV SE P0012 T02280217
14837KMSN MSN20010801185511808/01/01 18:55:31  5-MIN KMSN 020055Z 19010KT 3SM -TSRA OVC042 23/22 A3018 630 97 1700 190/10 RMK AO2 SFC VIS 10 P0000
14837KMSN MSN20010801190015208/01/01 19:00:31  5-MIN KMSN 020100Z 20005KT 3SM -TSRA BR OVC042 23/22 A3019 620 93 1800 200/05 RMK AO2 SFC VIS 4 FRQ LTGICCACG OHD TS OHD MOV SE P0000
14837KMSN MSN20010801190515108/01/01 19:05:31  5-MIN KMSN 020105Z 19009KT 3SM -TSRA OVC048 23/22 A3018 620 93 1800 190/09 RMK AO2 SFC VIS 7 FRQ LTGICCACGCC OHD TS OHD MOV SE P0000
14837KMSN MSN20010801191015108/01/01 19:10:31  5-MIN KMSN 020110Z 18010KT 3SM -TSRA OVC050 23/22 A3017 630 93 1800 180/10 RMK AO2 SFC VIS 7 FRQ LTGICCACGCC OHD TS OHD MOV SE P0000
14837KMSN MSN20010801191515108/01/01 19:15:31  5-MIN KMSN 020115Z 18008KT 3SM -TSRA OVC050 23/22 A3018 620 93 1800 180/08 RMK AO2 SFC VIS 7 FRQ LTGICCACGCC OHD TS OHD MOV SE P0000
14837KMSN MSN20010801192015208/01/01 19:20:31  5-MIN KMSN 020120Z 17011KT 3SM -TSRA BKN048 23/22 A3017 630 97 1700 170/11 RMK AO2 SFC VIS 10 FRQ LTGICCACGCC OHD TS OHD MOV SE P0000
14837KMSN MSN20010801192515208/01/01 19:25:31  5-MIN KMSN 020125Z 16013KT 3SM -TSRA BKN055 23/22 A3017 640 97 1700 160/13 RMK AO2 SFC VIS 10 FRQ LTGICCACGCC OHD TS OHD MOV SE P0000
14837KMSN MSN20010801193015208/01/01 19:30:31  5-MIN KMSN 020130Z 16013KT 3SM -TSRA BKN065 23/22 A3017 630 93 1700 160/13 RMK AO2 SFC VIS 10 FRQ LTGICCACGCC OHD TS OHD MOV SE P0000
14837KMSN MSN20010801193515208/01/01 19:35:31  5-MIN KMSN 020135Z 18009KT 3SM -TSRA BKN055 23/22 A3018 620 93 1700 180/09 RMK AO2 SFC VIS 10 FRQ LTGICCACGCC OHD TS OHD MOV SE P0000
14837KMSN MSN20010801194015208/01/01 19:40:31  5-MIN KMSN 020140Z 21006KT 3SM -TSRA BKN055 23/22 A3019 620 93 1700 210/06 RMK AO2 SFC VIS 10 FRQ LTGICCACGCC OHD TS OHD MOV SE P0000
14837KMSN MSN20010801194515208/01/01 19:45:31  5-MIN KMSN 020145Z 20008KT 3SM -TSRA SCT060 23/22 A3019 620 93 1700 200/08 RMK AO2 SFC VIS 10 FRQ LTGICCACGCC OHD TS OHD MOV SE P0000
14837KMSN MSN20010801195016908/01/01 19:50:31  5-MIN KMSN 020150Z 20009KT 3SM -TSRA SCT065 23/22 A3020 610 93 1700 200/09 RMK AO2 SFC VIS 10 SLP220 FRQ LTGICCACGCC OHD TS OHD MOV SE P0000 T02280217
14837KMSN MSN20010801195511808/01/01 19:55:31  5-MIN KMSN 020155Z 18009KT 3SM -TSRA FEW060 23/22 A3020 610 93 1800 180/09 RMK AO2 SFC VIS 10 P0000
14837KMSN MSN20010801200015108/01/01 20:00:31  5-MIN KMSN 020200Z 18009KT 3SM -TSRA FEW047 23/22 A3020 610 93 1800 180/09 RMK AO2 SFC VIS 10 OCNL LTGICCACG OHD TS OHD MOV SE P0000
14837KMSN MSN20010801200515108/01/01 20:05:31  5-MIN KMSN 020205Z 20009KT 3SM -TSRA OVC047 23/22 A3020 610 93 1800 200/09 RMK AO2 SFC VIS 10 OCNL LTGICCACG OHD TS OHD MOV SE P0000
14837KMSN MSN20010801201015108/01/01 20:10:31  5-MIN KMSN 020210Z 19010KT 3SM -TSRA OVC047 23/22 A3020 610 93 1800 190/10 RMK AO2 SFC VIS 10 OCNL LTGICCACG OHD TS OHD MOV SE P0000
14837KMSN MSN20010801201515808/01/01 20:15:31  5-MIN KMSN 020215Z 19010KT 3SM -TSRA FEW043 OVC120 23/22 A3020 610 90 1800 190/10 RMK AO2 SFC VIS 10 OCNL LTGICCACG OHD TS OHD MOV SE P0000
14837KMSN MSN20010801202015808/01/01 20:20:31  5-MIN KMSN 020220Z 20006KT 3SM -TSRA FEW043 OVC120 23/22 A3020 600 93 1700 200/06 RMK AO2 SFC VIS 10 OCNL LTGICCACG OHD TS OHD MOV SE P0000
14837KMSN MSN20010801202515808/01/01 20:25:31  5-MIN KMSN 020225Z 19007KT 3SM -TSRA FEW043 OVC120 23/22 A3020 610 93 1700 190/07 RMK AO2 SFC VIS 10 OCNL LTGICCACG OHD TS OHD MOV SE P0000
14837KMSN MSN20010801203014808/01/01 20:30:31  5-MIN KMSN 020230Z 19006KT 10SM -TSRA FEW043 OVC120 23/22 A3019 610 93 1700 190/06 RMK AO2 OCNL LTGICCACG OHD TS OHD MOV SE P0000
14837KMSN MSN20010801203512908/01/01 20:35:31  5-MIN KMSN 020235Z 19005KT 10SM -RA BKN049 BKN070 23/22 A3020 610 93 1700 190/05 RMK AO2 TSE33 TS MOV SE P0000
14837KMSN MSN20010801204012908/01/01 20:40:31  5-MIN KMSN 020240Z 17008KT 10SM -RA BKN045 BKN070 23/22 A3020 610 93 1700 170/08 RMK AO2 TSE33 TS MOV SE P0000
14837KMSN MSN20010801204512908/01/01 20:45:31  5-MIN KMSN 020245Z 17008KT 10SM -RA SCT040 BKN070 23/22 A3019 610 93 1700 170/08 RMK AO2 TSE33 TS MOV SE P0000
14837KMSN MSN20010801205018208/01/01 20:50:31  5-MIN KMSN 020250Z 17008KT 10SM -TSRA FEW038 SCT070 23/22 A3019 610 93 1700 170/08 RMK AO2 TSE33B49 SLP219 OCNL LTGIC OHD TS OHD MOV SE P0000 60012 T02280217 53018
14837KMSN MSN20010801205510808/01/01 20:55:31  5-MIN KMSN 020255Z 18006KT 10SM -TSRA FEW040 23/22 A3020 610 97 1700 180/06 RMK AO2 P0000
14837KMSN MSN20010801210013708/01/01 21:00:31  5-MIN KMSN 020300Z 17007KT 10SM -TSRA BKN037 23/22 A3020 610 97 1700 170/07 RMK AO2 OCNL LTGIC OHD TS OHD MOV SE P0000
14837KMSN MSN20010801210513708/01/01 21:05:31  5-MIN KMSN 020305Z 16007KT 10SM -TSRA BKN037 23/22 A3019 620 97 1700 160/07 RMK AO2 OCNL LTGIC OHD TS OHD MOV SE P0000
14837KMSN MSN20010801211013708/01/01 21:10:31  5-MIN KMSN 020310Z 17009KT 10SM -TSRA BKN037 23/22 A3019 620 97 1700 170/09 RMK AO2 OCNL LTGIC OHD TS OHD MOV SE P0000
14837KMSN MSN20010801211514608/01/01 21:15:31  5-MIN KMSN 020315Z 17010KT 10SM -TSRA SCT005 BKN060 23/22 A3019 620 97 1700 170/10 RMK AO2 OCNL LTGICCA OHD TS OHD MOV SE P0000
14837KMSN MSN20010801212014908/01/01 21:20:31  5-MIN KMSN 020320Z 18008KT 10SM TS SCT005 BKN060 23/22 A3019 620 97 1700 180/08 RMK AO2 RAE20 OCNL LTGICCA OHD TS OHD MOV SE P0000
14837KMSN MSN20010801212514608/01/01 21:25:31  5-MIN KMSN 020325Z 20006KT 10SM -TSRA SCT005 BKN060 23/22 A3020 610 97 1700 200/06 RMK AO2 OCNL LTGICCA OHD TS OHD MOV SE P0000
14837KMSN MSN20010801213014608/01/01 21:30:31  5-MIN KMSN 020330Z 19009KT 10SM -TSRA SCT005 BKN060 23/22 A3020 610 97 1700 190/09 RMK AO2 OCNL LTGICCA OHD TS OHD MOV SE P0000
14837KMSN MSN20010801213514608/01/01 21:35:31  5-MIN KMSN 020335Z 18009KT 10SM -TSRA SCT005 BKN060 23/22 A3019 610 97 1700 180/09 RMK AO2 OCNL LTGICCA OHD TS OHD MOV SE P0000
14837KMSN MSN20010801214014608/01/01 21:40:31  5-MIN KMSN 020340Z 17010KT 10SM -TSRA SCT005 BKN060 23/22 A3018 620 97 1700 170/10 RMK AO2 OCNL LTGICCA OHD TS OHD MOV SE P0000
14837KMSN MSN20010801214514608/01/01 21:45:31  5-MIN KMSN 020345Z 17009KT 10SM -TSRA SCT005 BKN060 23/22 A3018 620 97 1700 170/09 RMK AO2 OCNL LTGICCA OHD TS OHD MOV SE P0000
14837KMSN MSN20010801215016308/01/01 21:50:31  5-MIN KMSN 020350Z 17009KT 10SM -TSRA SCT005 BKN060 23/22 A3018 620 97 1700 170/09 RMK AO2 SLP215 OCNL LTGICCA OHD TS OHD MOV SE P0000 T02280222
14837KMSN MSN20010801215510808/01/01 21:55:31  5-MIN KMSN 020355Z 19010KT 10SM -TSRA FEW095 23/22 A3019 620 93 1700 180/10 RMK AO2 P0000
14837KMSN MSN20010801220014608/01/01 22:00:31  5-MIN KMSN 020400Z 19009KT 10SM -TSRA SCT005 BKN060 23/22 A3019 620 93 1700 190/09 RMK AO2 OCNL LTGICCA OHD TS OHD MOV SE P0000
14837KMSN MSN20010801220514608/01/01 22:05:31  5-MIN KMSN 020405Z 20009KT 10SM -TSRA SCT005 BKN060 23/22 A3019 620 93 1700 190/09 RMK AO2 OCNL LTGICCA OHD TS OHD MOV SE P0000
14837KMSN MSN20010801221014608/01/01 22:10:31  5-MIN KMSN 020410Z 19007KT 10SM -TSRA SCT005 BKN060 23/22 A3018 620 93 1700 190/07 RMK AO2 OCNL LTGICCA OHD TS OHD MOV SE P0000
14837KMSN MSN20010801221514808/01/01 22:15:31  5-MIN KMSN 020415Z 19007KT 10SM TS FEW010 BKN060 23/22 A3018 630 93 1700 190/07 RMK AO2 RAE12 OCNL LTGICCA OHD TS OHD MOV E P0000
14837KMSN MSN20010801222015508/01/01 22:20:31  5-MIN KMSN 020420Z 19012KT 10SM TS FEW010 BKN060 23/22 A3017 640 93 1700 190/12 RMK AO2 RAE12 PRESFR OCNL LTGICCA OHD TS OHD MOV E P0000
14837KMSN MSN20010806150509308/06/01 15:05:31  5-MIN KMSN 062105Z 23007KT 10SM CLR 31/23 A3010 700 63 2700 230/07 RMK AO2
14837KMSN MSN20010806151009308/06/01 15:10:31  5-MIN KMSN 062110Z 22009KT 10SM CLR 31/23 A3010 700 63 2700 220/09 RMK AO2
14837KMSN MSN20010806151510908/06/01 15:15:31  5-MIN KMSN 062115Z 23007KT 190V250 10SM CLR 31/23 A3010 700 63 2700 230/07 190V250 RMK AO2
14837KMSN MSN20010806152009308/06/01 15:20:31  5-MIN KMSN 062120Z 22008KT 10SM CLR 31/23 A3010 700 63 2700 220/08 RMK AO2
14837KMSN MSN20010806152509308/06/01 15:25:31  5-MIN KMSN 062125Z 23008KT 10SM CLR 31/24 A3010 700 65 2700 230/08 RMK AO2
14837KMSN MSN20010806153009308/06/01 15:30:31  5-MIN KMSN 062130Z 22007KT 10SM CLR 32/24 A3010 700 65 2800 220/07 RMK AO2
14837KMSN MSN20010806153510908/06/01 15:35:31  5-MIN KMSN 062135Z 23007KT 200V260 10SM CLR 31/24 A3010 700 65 2700 230/07 200V260 RMK AO2
14837KMSN MSN20010806154009608/06/01 15:40:31  5-MIN KMSN 062140Z 23008KT 10SM FEW060 31/24 A3010 700 65 2700 230/08 RMK AO2
14837KMSN MSN20010806154509608/06/01 15:45:31  5-MIN KMSN 062145Z 23007KT 10SM FEW060 31/23 A3010 700 63 2700 230/07 RMK AO2
14837KMSN MSN20010806155011308/06/01 15:50:31  5-MIN KMSN 062150Z 22008KT 10SM FEW060 31/24 A3010 700 65 2700 220/08 RMK AO2 SLP185 T03110239
14837KMSN MSN20010806155509208/06/01 15:55:31  5-MIN KMSN 062155Z 23007KT 9SM CLR 31/24 A3010 700 65 2700 230/07 RMK AO2
14837KMSN MSN20010806160009208/06/01 16:00:31  5-MIN KMSN 062200Z 22007KT 9SM CLR 31/24 A3010 700 67 2700 220/07 RMK AO2
14837KMSN MSN20010806160509208/06/01 16:05:31  5-MIN KMSN 062205Z 22008KT 9SM CLR 31/24 A3010 700 67 2700 220/08 RMK AO2
14837KMSN MSN20010806161009208/06/01 16:10:31  5-MIN KMSN 062210Z 22007KT 9SM CLR 31/24 A3010 700 67 2700 220/07 RMK AO2
14837KMSN MSN20010806161509208/06/01 16:15:31  5-MIN KMSN 062215Z 22007KT 9SM CLR 31/24 A3009 700 65 2700 220/07 RMK AO2
14837KMSN MSN20010806162009208/06/01 16:20:31  5-MIN KMSN 062220Z 23009KT 9SM CLR 31/23 A3009 710 63 2700 230/09 RMK AO2
14837KMSN MSN20010806162509308/06/01 16:25:31  5-MIN KMSN 062225Z 23007KT 10SM CLR 31/23 A3009 710 63 2700 230/07 RMK AO2
14837KMSN MSN20010806163009308/06/01 16:30:31  5-MIN KMSN 062230Z 20009KT 10SM CLR 31/23 A3009 710 63 2700 200/09 RMK AO2
14837KMSN MSN20010806163509308/06/01 16:35:31  5-MIN KMSN 062235Z 20007KT 10SM CLR 31/24 A3009 710 65 2700 200/07 RMK AO2
14837KMSN MSN20010806164009308/06/01 16:40:31  5-MIN KMSN 062240Z 22007KT 10SM CLR 31/23 A3009 710 63 2700 220/07 RMK AO2
14837KMSN MSN20010806164509308/06/01 16:45:31  5-MIN KMSN 062245Z 22006KT 10SM CLR 31/23 A3009 710 63 2700 220/06 RMK AO2
14837KMSN MSN20010806165011008/06/01 16:50:31  5-MIN KMSN 062250Z 22006KT 10SM CLR 31/24 A3009 710 65 2700 220/06 RMK AO2 SLP182 T03110239
14837KMSN MSN20010806165509208/06/01 16:55:31  5-MIN KMSN 062255Z 21007KT 9SM CLR 31/24 A3009 710 65 2700 210/07 RMK AO2
14837KMSN MSN20010806170009208/06/01 17:00:31  5-MIN KMSN 062300Z 21009KT 9SM CLR 31/24 A3009 710 65 2700 210/09 RMK AO2
14837KMSN MSN20010806170509208/06/01 17:05:31  5-MIN KMSN 062305Z 22006KT 9SM CLR 31/24 A3009 710 65 2800 220/06 RMK AO2
14837KMSN MSN20010806171009308/06/01 17:10:31  5-MIN KMSN 062310Z 22009KT 10SM CLR 31/23 A3009 710 63 2800 220/09 RMK AO2
14837KMSN MSN20010806171509308/06/01 17:15:31  5-MIN KMSN 062315Z 22007KT 10SM CLR 31/24 A3009 710 67 2700 220/07 RMK AO2
14837KMSN MSN20010806172009308/06/01 17:20:31  5-MIN KMSN 062320Z 23006KT 10SM CLR 31/23 A3009 710 65 2700 230/06 RMK AO2
14837KMSN MSN20010806172509208/06/01 17:25:31  5-MIN KMSN 062325Z 23006KT 9SM CLR 31/23 A3009 710 65 2700 220/06 RMK AO2
14837KMSN MSN20010806173009208/06/01 17:30:31  5-MIN KMSN 062330Z 22006KT 9SM CLR 31/24 A3008 710 67 2700 220/06 RMK AO2
14837KMSN MSN20010806173509208/06/01 17:35:31  5-MIN KMSN 062335Z 22006KT 9SM CLR 31/24 A3008 710 67 2700 220/06 RMK AO2
14837KMSN MSN20010806174009208/06/01 17:40:31  5-MIN KMSN 062340Z 23007KT 9SM CLR 31/24 A3008 710 67 2700 230/07 RMK AO2
14837KMSN MSN20010806174509208/06/01 17:45:31  5-MIN KMSN 062345Z 22006KT 9SM CLR 31/24 A3009 710 67 2700 220/06 RMK AO2
14837KMSN MSN20010806175012808/06/01 17:50:31  5-MIN KMSN 062350Z 23006KT 10SM CLR 30/24 A3009 710 69 2600 230/06 RMK AO2 SLP182 T03000239 10322 20300 56012
14837KMSN MSN20010806175509208/06/01 17:55:31  5-MIN KMSN 062355Z 23005KT 9SM CLR 30/24 A3009 710 69 2600 230/05 RMK AO2
14837KMSN MSN20010806180009208/06/01 18:00:31  5-MIN KMSN 070000Z 22007KT 9SM CLR 30/24 A3009 710 69 2600 220/07 RMK AO2
14837KMSN MSN20010806180509208/06/01 18:05:31  5-MIN KMSN 070005Z 22007KT 9SM CLR 30/23 A3009 710 67 2600 220/07 RMK AO2
14837KMSN MSN20010806181009208/06/01 18:10:31  5-MIN KMSN 070010Z 22007KT 9SM CLR 30/23 A3008 710 67 2600 220/07 RMK AO2
14837KMSN MSN20010806181509208/06/01 18:15:31  5-MIN KMSN 070015Z 22007KT 9SM CLR 30/23 A3009 710 67 2600 220/07 RMK AO2
14837KMSN MSN20010806182009208/06/01 18:20:31  5-MIN KMSN 070020Z 22006KT 9SM CLR 30/23 A3008 710 67 2600 220/06 RMK AO2
14837KMSN MSN20010806182509208/06/01 18:25:31  5-MIN KMSN 070025Z 21007KT 9SM CLR 30/23 A3008 710 67 2600 210/07 RMK AO2
14837KMSN MSN20010806183009208/06/01 18:30:31  5-MIN KMSN 070030Z 21006KT 9SM CLR 30/23 A3008 710 67 2600 210/06 RMK AO2
14837KMSN MSN20010806183509208/06/01 18:35:31  5-MIN KMSN 070035Z 22007KT 9SM CLR 30/23 A3008 720 67 2600 220/07 RMK AO2
14837KMSN MSN20010806184009208/06/01 18:40:31  5-MIN KMSN 070040Z 22008KT 9SM CLR 30/23 A3008 720 67 2600 220/08 RMK AO2
14837KMSN MSN20010806184509208/06/01 18:45:31  5-MIN KMSN 070045Z 21009KT 9SM CLR 29/23 A3008 720 69 2600 210/09 RMK AO2
14837KMSN MSN20010806185011008/06/01 18:50:31  5-MIN KMSN 070050Z 22007KT 10SM CLR 29/23 A3008 720 69 2600 220/07 RMK AO2 SLP179 T02940233
14837KMSN MSN20010806185509208/06/01 18:55:31  5-MIN KMSN 070055Z 22009KT 9SM CLR 29/23 A3008 720 69 2600 210/09 RMK AO2
14837KMSN MSN20010806190009208/06/01 19:00:31  5-MIN KMSN 070100Z 22006KT 9SM CLR 29/23 A3008 720 69 2600 220/06 RMK AO2
14837KMSN MSN20010806190509208/06/01 19:05:31  5-MIN KMSN 070105Z 22009KT 9SM CLR 29/23 A3008 720 69 2600 210/09 RMK AO2
14837KMSN MSN20010806191009208/06/01 19:10:31  5-MIN KMSN 070110Z 21006KT 9SM CLR 29/23 A3008 720 69 2600 210/06 RMK AO2
14837KMSN MSN20010806191509208/06/01 19:15:31  5-MIN KMSN 070115Z 22006KT 9SM CLR 29/23 A3008 710 69 2600 210/06 RMK AO2
14837KMSN MSN20010806192009208/06/01 19:20:31  5-MIN KMSN 070120Z 22006KT 9SM CLR 29/23 A3008 710 69 2600 220/06 RMK AO2
14837KMSN MSN20010806192509208/06/01 19:25:31  5-MIN KMSN 070125Z 22007KT 9SM CLR 29/23 A3009 710 71 2500 220/07 RMK AO2
14837KMSN MSN20010806193009208/06/01 19:30:31  5-MIN KMSN 070130Z 22006KT 9SM CLR 29/23 A3009 710 69 2500 220/06 RMK AO2
14837KMSN MSN20010806193509308/06/01 19:35:31  5-MIN KMSN 070135Z 23005KT 10SM CLR 29/23 A3009 710 71 2500 230/05 RMK AO2
14837KMSN MSN20010806194009308/06/01 19:40:31  5-MIN KMSN 070140Z 23004KT 10SM CLR 29/23 A3009 710 71 2500 230/04 RMK AO2
14837KMSN MSN20010806194509308/06/01 19:45:31  5-MIN KMSN 070145Z 23004KT 10SM CLR 29/23 A3009 700 71 2500 230/04 RMK AO2
14837KMSN MSN20010806195011008/06/01 19:50:31  5-MIN KMSN 070150Z VRB03KT 10SM CLR 29/23 A3010 700 71 2500 VRB/03 RMK AO2 SLP185 T02890233
14837KMSN MSN20010806195509308/06/01 19:55:31  5-MIN KMSN 070155Z VRB03KT 10SM CLR 28/23 A3010 700 74 2400 VRB/03 RMK AO2
14837KMSN MSN20010806200009208/06/01 20:00:31  5-MIN KMSN 070200Z 00000KT 9SM CLR 28/23 A3010 700 74 2400 000/00 RMK AO2
14837KMSN MSN20010806200509208/06/01 20:05:31  5-MIN KMSN 070205Z 00000KT 9SM CLR 28/23 A3010 700 74 2400 000/00 RMK AO2
14837KMSN MSN20010806201009208/06/01 20:10:31  5-MIN KMSN 070210Z 00000KT 9SM CLR 28/23 A3010 700 76 2400 000/00 RMK AO2
14837KMSN MSN20010806201509208/06/01 20:15:31  5-MIN KMSN 070215Z 22004KT 9SM CLR 28/23 A3010 700 76 2400 220/04 RMK AO2
14837KMSN MSN20010806202009208/06/01 20:20:31  5-MIN KMSN 070220Z 22003KT 9SM CLR 28/23 A3010 700 76 2400 220/03 RMK AO2
14837KMSN MSN20010806202509208/06/01 20:25:31  5-MIN KMSN 070225Z 22005KT 9SM CLR 28/23 A3010 700 76 2400 220/05 RMK AO2
14837KMSN MSN20010806203009208/06/01 20:30:31  5-MIN KMSN 070230Z 22006KT 9SM CLR 28/23 A3010 700 76 2400 220/06 RMK AO2
14837KMSN MSN20010806203509208/06/01 20:35:31  5-MIN KMSN 070235Z 21008KT 9SM CLR 28/23 A3010 700 74 2400 210/08 RMK AO2
14837KMSN MSN20010806204009208/06/01 20:40:31  5-MIN KMSN 070240Z 21008KT 9SM CLR 28/23 A3010 700 74 2400 210/08 RMK AO2
14837KMSN MSN20010806204509208/06/01 20:45:31  5-MIN KMSN 070245Z 21007KT 9SM CLR 28/23 A3010 700 74 2400 210/07 RMK AO2
14837KMSN MSN20010806205011508/06/01 20:50:31  5-MIN KMSN 070250Z 21007KT 9SM CLR 28/23 A3010 700 74 2400 210/07 RMK AO2 SLP186 T02830233 56004
14837KMSN MSN20010806205509308/06/01 20:55:31  5-MIN KMSN 070255Z 22005KT 10SM CLR 28/23 A3010 700 76 2400 220/05 RMK AO2
14837KMSN MSN20010806210009308/06/01 21:00:31  5-MIN KMSN 070300Z 21005KT 10SM CLR 28/23 A3010 700 76 2400 210/05 RMK AO2
14837KMSN MSN20010806210509308/06/01 21:05:31  5-MIN KMSN 070305Z 22005KT 10SM CLR 28/23 A3010 690 76 2400 220/05 RMK AO2
14837KMSN MSN20010806211009308/06/01 21:10:31  5-MIN KMSN 070310Z 22005KT 10SM CLR 28/23 A3011 690 76 2400 220/05 RMK AO2
14837KMSN MSN20010806211509308/06/01 21:15:31  5-MIN KMSN 070315Z 23004KT 10SM CLR 28/23 A3011 690 76 2400 230/04 RMK AO2
14837KMSN MSN20010806212009308/06/01 21:20:31  5-MIN KMSN 070320Z 22004KT 10SM CLR 27/23 A3011 690 79 2300 220/04 RMK AO2
14837KMSN MSN20010806212509308/06/01 21:25:31  5-MIN KMSN 070325Z 22006KT 10SM CLR 28/23 A3011 690 76 2400 220/06 RMK AO2
14837KMSN MSN20010806213009208/06/01 21:30:31  5-MIN KMSN 070330Z 23005KT 9SM CLR 27/23 A3011 690 79 2300 220/05 RMK AO2
14837KMSN MSN20010806213509208/06/01 21:35:31  5-MIN KMSN 070335Z 22006KT 8SM CLR 28/23 A3011 690 76 2400 220/06 RMK AO2
14837KMSN MSN20010806214009208/06/01 21:40:31  5-MIN KMSN 070340Z 22005KT 9SM CLR 27/23 A3011 690 79 2300 220/05 RMK AO2
14837KMSN MSN20010806214509208/06/01 21:45:31  5-MIN KMSN 070345Z 21006KT 9SM CLR 28/23 A3011 690 76 2400 210/06 RMK AO2
14837KMSN MSN20010806215011008/06/01 21:50:31  5-MIN KMSN 070350Z 22007KT 10SM CLR 28/23 A3011 690 76 2400 220/07 RMK AO2 SLP189 T02780233
14837KMSN MSN20010806215509208/06/01 21:55:31  5-MIN KMSN 070355Z 22006KT 9SM CLR 27/23 A3011 690 79 2300 220/06 RMK AO2
14837KMSN MSN20010806220009208/06/01 22:00:31  5-MIN KMSN 070400Z 22005KT 9SM CLR 27/23 A3011 690 79 2300 220/05 RMK AO2
14837KMSN MSN20010806220509208/06/01 22:05:31  5-MIN KMSN 070405Z 22005KT 9SM CLR 27/23 A3011 690 79 2300 220/05 RMK AO2
14837KMSN MSN20010806221009208/06/01 22:10:31  5-MIN KMSN 070410Z 23004KT 9SM CLR 27/23 A3011 690 79 2300 230/04 RMK AO2
14837KMSN MSN20010806221509208/06/01 22:15:31  5-MIN KMSN 070415Z 22005KT 9SM CLR 27/23 A3011 690 79 2300 220/05 RMK AO2
14837KMSN MSN20010806222009208/06/01 22:20:31  5-MIN KMSN 070420Z 22005KT 9SM CLR 27/23 A3011 690 79 2300 220/05 RMK AO2
14837KMSN MSN20010806222509208/06/01 22:25:31  5-MIN KMSN 070425Z 22006KT 9SM CLR 27/23 A3011 690 79 2300 220/06 RMK AO2
14837KMSN MSN20010806223009208/06/01 22:30:31  5-MIN KMSN 070430Z 23007KT 9SM CLR 27/23 A3011 690 79 2300 230/07 RMK AO2
14837KMSN MSN20010806223509208/06/01 22:35:31  5-MIN KMSN 070435Z 22005KT 9SM CLR 27/23 A3011 690 79 2300 220/05 RMK AO2
14837KMSN MSN20010806224009208/06/01 22:40:31  5-MIN KMSN 070440Z 22006KT 9SM CLR 27/23 A3011 690 79 2300 220/06 RMK AO2
14837KMSN MSN20010806224509208/06/01 22:45:31  5-MIN KMSN 070445Z 22006KT 9SM CLR 27/23 A3011 690 79 2300 220/06 RMK AO2
14837KMSN MSN20010806225010908/06/01 22:50:31  5-MIN KMSN 070450Z 22006KT 9SM CLR 27/23 A3011 690 79 2300 220/06 RMK AO2 SLP188 T02720233
14837KMSN MSN20010806225509208/06/01 22:55:31  5-MIN KMSN 070455Z VRB06KT 9SM CLR 27/23 A3011 690 79 2300 VRB/06 RMK AO2
14837KMSN MSN20010806230009208/06/01 23:00:31  5-MIN KMSN 070500Z 22006KT 9SM CLR 27/23 A3011 690 79 2300 220/06 RMK AO2
14837KMSN MSN20010806230509208/06/01 23:05:31  5-MIN KMSN 070505Z VRB05KT 9SM CLR 27/23 A3011 690 79 2300 VRB/05 RMK AO2
14837KMSN MSN20010806231009208/06/01 23:10:31  5-MIN KMSN 070510Z 22007KT 9SM CLR 27/23 A3011 690 82 2200 220/07 RMK AO2
14837KMSN MSN20010806231509208/06/01 23:15:31  5-MIN KMSN 070515Z 22006KT 9SM CLR 27/23 A3011 690 82 2200 220/06 RMK AO2
14837KMSN MSN20010806232009208/06/01 23:20:31  5-MIN KMSN 070520Z 22006KT 9SM CLR 27/23 A3011 690 82 2200 220/06 RMK AO2
14837KMSN MSN20010806232509208/06/01 23:25:31  5-MIN KMSN 070525Z 23006KT 9SM CLR 27/23 A3011 690 82 2200 220/06 RMK AO2
14837KMSN MSN20010806233009208/06/01 23:30:31  5-MIN KMSN 070530Z VRB06KT 9SM CLR 27/23 A3011 690 82 2200 VRB/06 RMK AO2
14837KMSN MSN20010806233509208/06/01 23:35:31  5-MIN KMSN 070535Z 22007KT 8SM CLR 27/23 A3010 700 82 2200 220/07 RMK AO2
14837KMSN MSN20010806234009208/06/01 23:40:31  5-MIN KMSN 070540Z 23008KT 8SM CLR 27/23 A3010 700 82 2200 230/08 RMK AO2
14837KMSN MSN20010806234509208/06/01 23:45:31  5-MIN KMSN 070545Z 22005KT 8SM CLR 27/23 A3010 700 82 2200 220/05 RMK AO2
14837KMSN MSN20010806235013708/06/01 23:50:31  5-MIN KMSN 070550Z VRB06KT 8SM CLR 27/23 A3010 700 82 2200 VRB/06 RMK AO2 SLP186 T02670233 10300 20267 403220233 53005
14837KMSN MSN20010806235509208/06/01 23:55:31  5-MIN KMSN 070555Z 23005KT 8SM CLR 27/23 A3010 700 82 2200 230/05 RMK AO2
14837KMSN MSN20010807000009208/07/01 00:00:31  5-MIN KMSN 070600Z 23006KT 8SM CLR 27/23 A3010 700 82 2200 230/06 RMK AO2
14837KMSN MSN20010807000509208/07/01 00:05:31  5-MIN KMSN 070605Z VRB05KT 8SM CLR 27/23 A3010 700 82 2200 VRB/05 RMK AO2
14837KMSN MSN20010807001009208/07/01 00:10:31  5-MIN KMSN 070610Z VRB04KT 8SM CLR 27/23 A3010 700 82 2200 VRB/04 RMK AO2
14837KMSN MSN20010807001509208/07/01 00:15:31  5-MIN KMSN 070615Z 23004KT 8SM CLR 27/23 A3010 700 82 2200 230/04 RMK AO2
14837KMSN MSN20010807002009208/07/01 00:20:31  5-MIN KMSN 070620Z 23003KT 8SM CLR 27/23 A3010 700 82 2200 230/03 RMK AO2
14837KMSN MSN20010807002509208/07/01 00:25:31  5-MIN KMSN 070625Z VRB03KT 8SM CLR 27/23 A3010 700 82 2200 VRB/03 RMK AO2
14837KMSN MSN20010807003009208/07/01 00:30:31  5-MIN KMSN 070630Z 00000KT 8SM CLR 27/23 A3010 700 82 2200 000/00 RMK AO2
14837KMSN MSN20010807003509208/07/01 00:35:31  5-MIN KMSN 070635Z 00000KT 8SM CLR 27/23 A3010 700 82 2200 000/00 RMK AO2
14837KMSN MSN20010807004009208/07/01 00:40:31  5-MIN KMSN 070640Z 00000KT 8SM CLR 26/23 A3010 700 84 2200 000/00 RMK AO2
14837KMSN MSN20010807004509208/07/01 00:45:31  5-MIN KMSN 070645Z 00000KT 8SM CLR 27/23 A3010 700 82 2200 000/00 RMK AO2
14837KMSN MSN20010807005010908/07/01 00:50:31  5-MIN KMSN 070650Z 00000KT 8SM CLR 26/23 A3010 700 84 2200 000/00 RMK AO2 SLP185 T02610233
14837KMSN MSN20010807005509208/07/01 00:55:31  5-MIN KMSN 070655Z 00000KT 8SM CLR 26/23 A3010 700 84 2200 000/00 RMK AO2
14837KMSN MSN20010807010009208/07/01 01:00:31  5-MIN KMSN 070700Z VRB03KT 8SM CLR 26/23 A3009 700 81 2200 VRB/03 RMK AO2
14837KMSN MSN20010807010509208/07/01 01:05:31  5-MIN KMSN 070705Z VRB04KT 8SM CLR 27/23 A3009 700 79 2200 VRB/04 RMK AO2
14837KMSN MSN20010807011009208/07/01 01:10:31  5-MIN KMSN 070710Z VRB03KT 8SM CLR 26/23 A3009 700 81 2200 VRB/03 RMK AO2
14837KMSN MSN20010807011509208/07/01 01:15:31  5-MIN KMSN 070715Z 25003KT 8SM CLR 26/23 A3009 700 84 2200 250/03 RMK AO2
14837KMSN MSN20010807012009208/07/01 01:20:31  5-MIN KMSN 070720Z VRB04KT 8SM CLR 26/23 A3010 700 84 2200 VRB/04 RMK AO2
14837KMSN MSN20010807012509208/07/01 01:25:31  5-MIN KMSN 070725Z VRB03KT 8SM CLR 26/23 A3010 700 84 2200 VRB/03 RMK AO2
14837KMSN MSN20010807013009208/07/01 01:30:31  5-MIN KMSN 070730Z VRB03KT 8SM CLR 26/23 A3010 700 84 2200 VRB/03 RMK AO2
14837KMSN MSN20010807013509208/07/01 01:35:31  5-MIN KMSN 070735Z VRB03KT 8SM CLR 26/23 A3010 700 84 2200 VRB/03 RMK AO2
14837KMSN MSN20010807014009208/07/01 01:40:31  5-MIN KMSN 070740Z 00000KT 8SM CLR 26/23 A3010 700 84 2200 000/00 RMK AO2
14837KMSN MSN20010807014509208/07/01 01:45:31  5-MIN KMSN 070745Z VRB03KT 8SM CLR 26/23 A3010 700 84 2200 VRB/03 RMK AO2
14837KMSN MSN20010807015010908/07/01 01:50:31  5-MIN KMSN 070750Z 23004KT 8SM CLR 26/23 A3010 700 84 2200 230/04 RMK AO2 SLP184 T02610233
14837KMSN MSN20010807015509208/07/01 01:55:31  5-MIN KMSN 070755Z VRB03KT 8SM CLR 26/23 A3010 700 84 2200 VRB/03 RMK AO2
14837KMSN MSN20010807020009208/07/01 02:00:31  5-MIN KMSN 070800Z VRB03KT 7SM CLR 26/23 A3010 700 84 2200 VRB/03 RMK AO2
14837KMSN MSN20010807020509208/07/01 02:05:31  5-MIN KMSN 070805Z VRB03KT 7SM CLR 26/23 A3010 700 84 2200 VRB/03 RMK AO2
14837KMSN MSN20010807021009208/07/01 02:10:31  5-MIN KMSN 070810Z 00000KT 7SM CLR 26/23 A3010 700 84 2100 000/00 RMK AO2
14837KMSN MSN20010807021509208/07/01 02:15:31  5-MIN KMSN 070815Z VRB04KT 7SM CLR 26/23 A3010 700 81 2200 VRB/04 RMK AO2
14837KMSN MSN20010807022009208/07/01 02:20:31  5-MIN KMSN 070820Z VRB04KT 7SM CLR 26/23 A3010 700 81 2200 VRB/04 RMK AO2
14837KMSN MSN20010807022509208/07/01 02:25:31  5-MIN KMSN 070825Z VRB04KT 7SM CLR 26/23 A3010 700 84 2100 VRB/04 RMK AO2
14837KMSN MSN20010807023009208/07/01 02:30:31  5-MIN KMSN 070830Z VRB04KT 7SM CLR 26/23 A3010 700 81 2200 VRB/04 RMK AO2
14837KMSN MSN20010807023509208/07/01 02:35:31  5-MIN KMSN 070835Z VRB04KT 7SM CLR 26/23 A3010 700 81 2200 VRB/04 RMK AO2
14837KMSN MSN20010807024009208/07/01 02:40:31  5-MIN KMSN 070840Z VRB05KT 7SM CLR 26/23 A3010 700 81 2200 VRB/05 RMK AO2
14837KMSN MSN20010807024509208/07/01 02:45:31  5-MIN KMSN 070845Z VRB04KT 8SM CLR 26/23 A3010 700 81 2200 VRB/04 RMK AO2
14837KMSN MSN20010807025011508/07/01 02:50:31  5-MIN KMSN 070850Z VRB06KT 8SM CLR 26/23 A3010 700 84 2100 VRB/06 RMK AO2 SLP187 T02560228 58000
14837KMSN MSN20010807025509208/07/01 02:55:31  5-MIN KMSN 070855Z VRB04KT 8SM CLR 26/23 A3010 700 81 2200 VRB/04 RMK AO2
14837KMSN MSN20010807030009208/07/01 03:00:31  5-MIN KMSN 070900Z VRB05KT 7SM CLR 26/23 A3010 690 84 2100 VRB/05 RMK AO2
14837KMSN MSN20010807030509208/07/01 03:05:31  5-MIN KMSN 070905Z VRB04KT 7SM CLR 26/23 A3011 690 84 2100 VRB/04 RMK AO2
14837KMSN MSN20010807031009208/07/01 03:10:31  5-MIN KMSN 070910Z VRB04KT 7SM CLR 26/23 A3011 690 84 2100 VRB/04 RMK AO2
14837KMSN MSN20010807031509208/07/01 03:15:31  5-MIN KMSN 070915Z 26004KT 7SM CLR 26/23 A3011 690 84 2100 260/04 RMK AO2
14837KMSN MSN20010807032009208/07/01 03:20:31  5-MIN KMSN 070920Z 26004KT 7SM CLR 26/23 A3011 690 84 2100 260/04 RMK AO2
14837KMSN MSN20010807032509508/07/01 03:25:31  5-MIN KMSN 070925Z VRB04KT 7SM FEW040 26/23 A3011 690 84 2100 VRB/04 RMK AO2
14837KMSN MSN20010807033009508/07/01 03:30:31  5-MIN KMSN 070930Z VRB04KT 7SM SCT038 26/23 A3011 690 84 2100 VRB/04 RMK AO2
14837KMSN MSN20010807033509508/07/01 03:35:31  5-MIN KMSN 070935Z VRB04KT 7SM SCT038 26/23 A3011 690 84 2100 VRB/04 RMK AO2
14837KMSN MSN20010807034009508/07/01 03:40:31  5-MIN KMSN 070940Z VRB03KT 7SM FEW038 26/23 A3011 690 84 2100 VRB/03 RMK AO2
14837KMSN MSN20010807034510208/07/01 03:45:31  5-MIN KMSN 070945Z VRB03KT 8SM FEW038 SCT047 26/23 A3011 690 84 2100 VRB/03 RMK AO2
14837KMSN MSN20010807035011908/07/01 03:50:31  5-MIN KMSN 070950Z VRB03KT 8SM FEW038 SCT047 26/23 A3011 690 84 2100 VRB/03 RMK AO2 SLP189 T02560228
14837KMSN MSN20010807035510208/07/01 03:55:31  5-MIN KMSN 070955Z VRB03KT 8SM SCT035 SCT047 26/23 A3011 690 84 2100 VRB/03 RMK AO2
14837KMSN MSN20010807040010208/07/01 04:00:31  5-MIN KMSN 071000Z VRB03KT 8SM FEW033 SCT044 26/23 A3011 690 84 2100 VRB/03 RMK AO2
14837KMSN MSN20010807040510208/07/01 04:05:31  5-MIN KMSN 071005Z 26004KT 8SM FEW038 SCT047 26/23 A3011 690 84 2100 260/04 RMK AO2
14837KMSN MSN20010807041010208/07/01 04:10:31  5-MIN KMSN 071010Z VRB05KT 8SM FEW038 SCT049 26/23 A3011 690 84 2100 VRB/05 RMK AO2
14837KMSN MSN20010807041510908/07/01 04:15:31  5-MIN KMSN 071015Z VRB04KT 8SM FEW036 SCT043 SCT055 26/23 A3011 690 84 2100 VRB/04 RMK AO2
14837KMSN MSN20010807042010908/07/01 04:20:31  5-MIN KMSN 071020Z 26004KT 8SM FEW036 SCT043 SCT055 26/23 A3011 690 84 2100 260/04 RMK AO2
14837KMSN MSN20010807042509508/07/01 04:25:31  5-MIN KMSN 071025Z VRB04KT 8SM FEW038 26/23 A3011 690 84 2100 VRB/04 RMK AO2
14837KMSN MSN20010807043009508/07/01 04:30:31  5-MIN KMSN 071030Z VRB04KT 8SM FEW038 26/22 A3011 690 81 2100 VRB/04 RMK AO2
14837KMSN MSN20010807043509508/07/01 04:35:31  5-MIN KMSN 071035Z VRB03KT 8SM FEW060 26/22 A3011 690 81 2100 VRB/03 RMK AO2
14837KMSN MSN20010807044009508/07/01 04:40:31  5-MIN KMSN 071040Z VRB04KT 8SM FEW060 26/22 A3011 690 81 2100 VRB/04 RMK AO2
14837KMSN MSN20010807044509508/07/01 04:45:31  5-MIN KMSN 071045Z VRB03KT 8SM FEW060 26/22 A3011 690 81 2100 VRB/03 RMK AO2
14837KMSN MSN20010807045011208/07/01 04:50:31  5-MIN KMSN 071050Z 26005KT 8SM SCT060 26/22 A3011 690 81 2100 260/05 RMK AO2 SLP190 T02560222
14837KMSN MSN20010807045509508/07/01 04:55:31  5-MIN KMSN 071055Z VRB04KT 7SM FEW060 26/22 A3011 690 81 2100 VRB/04 RMK AO2
14837KMSN MSN20010807050009808/07/01 05:00:31  5-MIN KMSN 071100Z VRB04KT 6SM HZ FEW060 26/22 A3012 680 81 2100 VRB/04 RMK AO2
14837KMSN MSN20010807050509808/07/01 05:05:31  5-MIN KMSN 071105Z VRB04KT 6SM HZ FEW060 26/22 A3012 680 81 2100 VRB/04 RMK AO2
14837KMSN MSN20010807051009508/07/01 05:10:31  5-MIN KMSN 071110Z 25005KT 6SM HZ CLR 26/22 A3012 680 81 2100 250/05 RMK AO2
14837KMSN MSN20010807051509508/07/01 05:15:31  5-MIN KMSN 071115Z VRB03KT 6SM HZ CLR 26/22 A3012 680 81 2100 VRB/03 RMK AO2
14837KMSN MSN20010807052009808/07/01 05:20:31  5-MIN KMSN 071120Z VRB04KT 6SM HZ SCT060 26/22 A3012 680 81 2100 VRB/04 RMK AO2
14837KMSN MSN20010807052509808/07/01 05:25:31  5-MIN KMSN 071125Z 24004KT 6SM HZ SCT060 26/22 A3012 680 81 2100 240/04 RMK AO2
14837KMSN MSN20010807053009808/07/01 05:30:31  5-MIN KMSN 071130Z VRB03KT 6SM HZ SCT060 26/22 A3012 680 81 2100 VRB/03 RMK AO2
14837KMSN MSN20010807053509808/07/01 05:35:31  5-MIN KMSN 071135Z 00000KT 6SM HZ SCT060 26/22 A3012 680 79 2200 000/00 RMK AO2
14837KMSN MSN20010807054009508/07/01 05:40:31  5-MIN KMSN 071140Z VRB04KT 7SM SCT060 26/22 A3013 680 79 2200 VRB/04 RMK AO2
14837KMSN MSN20010807054509508/07/01 05:45:31  5-MIN KMSN 071145Z VRB03KT 7SM SCT060 26/22 A3013 670 79 2100 VRB/03 RMK AO2
14837KMSN MSN20010807055013008/07/01 05:50:31  5-MIN KMSN 071150Z VRB03KT 7SM SCT060 26/23 A3013 670 84 2100 VRB/03 RMK AO2 SLP195 T02560228 10267 20256 53001
14837KMSN MSN20010807055509208/07/01 05:55:31  5-MIN KMSN 071155Z VRB04KT 7SM CLR 26/23 A3013 670 84 2100 VRB/04 RMK AO2
14837KMSN MSN20010807060010908/07/01 06:00:31  5-MIN KMSN 071200Z 26004KT 7SM FEW035 SCT060 BKN120 26/23 A3013 670 84 2100 260/04 RMK AO2
14837KMSN MSN20010807060510908/07/01 06:05:31  5-MIN KMSN 071205Z VRB03KT 7SM FEW035 SCT060 BKN120 26/23 A3013 670 81 2100 VRB/03 RMK AO2
14837KMSN MSN20010807061010908/07/01 06:10:31  5-MIN KMSN 071210Z VRB03KT 7SM FEW035 SCT060 BKN120 26/23 A3013 670 81 2100 VRB/03 RMK AO2
14837KMSN MSN20010807061510208/07/01 06:15:31  5-MIN KMSN 071215Z VRB03KT 7SM SCT030 BKN120 26/23 A3013 670 81 2100 VRB/03 RMK AO2
14837KMSN MSN20010807062010208/07/01 06:20:31  5-MIN KMSN 071220Z 00000KT 7SM SCT030 BKN120 26/23 A3013 670 81 2100 000/00 RMK AO2
14837KMSN MSN20010807062510208/07/01 06:25:31  5-MIN KMSN 071225Z 00000KT 7SM SCT030 BKN120 26/23 A3013 670 84 2100 000/00 RMK AO2
14837KMSN MSN20010807063009808/07/01 06:30:31  5-MIN KMSN 071230Z VRB03KT 6SM HZ SCT030 26/23 A3013 670 84 2100 VRB/03 RMK AO2
14837KMSN MSN20010807063509808/07/01 06:35:31  5-MIN KMSN 071235Z VRB03KT 6SM HZ SCT032 26/23 A3014 660 84 2100 VRB/03 RMK AO2
14837KMSN MSN20010807064009808/07/01 06:40:31  5-MIN KMSN 071240Z 00000KT 6SM HZ FEW032 26/23 A3014 660 81 2100 000/00 RMK AO2
14837KMSN MSN20010807064509808/07/01 06:45:31  5-MIN KMSN 071245Z VRB03KT 6SM HZ FEW032 26/23 A3014 660 81 2100 VRB/03 RMK AO2
14837KMSN MSN20010807065011508/07/01 06:50:31  5-MIN KMSN 071250Z 00000KT 6SM HZ FEW032 26/23 A3014 660 81 2100 000/00 RMK AO2 SLP199 T02610228
14837KMSN MSN20010807065509208/07/01 06:55:31  5-MIN KMSN 071255Z 00000KT 7SM CLR 27/23 A3014 660 79 2200 000/00 RMK AO2
14837KMSN MSN20010807070009208/07/01 07:00:31  5-MIN KMSN 071300Z VRB03KT 7SM CLR 27/23 A3014 660 82 2200 VRB/03 RMK AO2
14837KMSN MSN20010807070509208/07/01 07:05:31  5-MIN KMSN 071305Z VRB03KT 7SM CLR 27/23 A3014 660 82 2200 VRB/03 RMK AO2
14837KMSN MSN20010807071009208/07/01 07:10:31  5-MIN KMSN 071310Z VRB05KT 7SM CLR 27/23 A3014 660 82 2200 VRB/05 RMK AO2
14837KMSN MSN20010807071509208/07/01 07:15:31  5-MIN KMSN 071315Z 26005KT 7SM CLR 27/23 A3014 660 82 2200 260/05 RMK AO2
14837KMSN MSN20010807072009208/07/01 07:20:31  5-MIN KMSN 071320Z VRB06KT 7SM CLR 27/23 A3014 660 79 2300 VRB/06 RMK AO2
14837KMSN MSN20010807072509208/07/01 07:25:31  5-MIN KMSN 071325Z VRB05KT 8SM CLR 27/23 A3014 660 76 2300 VRB/05 RMK AO2
14837KMSN MSN20010807073009208/07/01 07:30:31  5-MIN KMSN 071330Z VRB06KT 8SM CLR 27/23 A3014 660 79 2300 VRB/06 RMK AO2
14837KMSN MSN20010807073509208/07/01 07:35:31  5-MIN KMSN 071335Z VRB03KT 8SM CLR 27/23 A3014 660 79 2300 VRB/03 RMK AO2
14837KMSN MSN20010807074009208/07/01 07:40:31  5-MIN KMSN 071340Z VRB04KT 8SM CLR 27/23 A3014 660 79 2300 VRB/04 RMK AO2
14837KMSN MSN20010807074509208/07/01 07:45:31  5-MIN KMSN 071345Z 00000KT 8SM CLR 28/23 A3014 670 74 2400 000/00 RMK AO2
14837KMSN MSN20010807075010908/07/01 07:50:31  5-MIN KMSN 071350Z VRB03KT 8SM CLR 28/23 A3014 660 76 2300 VRB/03 RMK AO2 SLP198 T02780233
14837KMSN MSN20010807075509508/07/01 07:55:31  5-MIN KMSN 071355Z VRB05KT 6SM HZ CLR 28/23 A3014 660 76 2300 VRB/05 RMK AO2
14837KMSN MSN20010807080009508/07/01 08:00:31  5-MIN KMSN 071400Z VRB04KT 6SM HZ CLR 28/24 A3014 670 79 2300 VRB/04 RMK AO2
14837KMSN MSN20010807080509508/07/01 08:05:31  5-MIN KMSN 071405Z 27005KT 5SM HZ CLR 28/23 A3013 670 76 2300 270/05 RMK AO2
14837KMSN MSN20010807081009508/07/01 08:10:31  5-MIN KMSN 071410Z 25005KT 5SM HZ CLR 28/23 A3014 670 76 2300 250/05 RMK AO2
14837KMSN MSN20010807081509208/07/01 08:15:31  5-MIN KMSN 071415Z 26005KT 7SM CLR 28/23 A3013 670 76 2300 260/05 RMK AO2
14837KMSN MSN20010807082009208/07/01 08:20:31  5-MIN KMSN 071420Z 25005KT 7SM CLR 28/24 A3013 670 79 2300 250/05 RMK AO2
14837KMSN MSN20010807082509208/07/01 08:25:31  5-MIN KMSN 071425Z 26006KT 7SM CLR 28/24 A3013 670 76 2400 260/06 RMK AO2
14837KMSN MSN20010807083009208/07/01 08:30:31  5-MIN KMSN 071430Z VRB04KT 7SM CLR 28/24 A3013 670 76 2400 VRB/04 RMK AO2
14837KMSN MSN20010807083509208/07/01 08:35:31  5-MIN KMSN 071435Z 25006KT 8SM CLR 28/24 A3013 670 76 2400 250/06 RMK AO2
14837KMSN MSN20010807084009208/07/01 08:40:31  5-MIN KMSN 071440Z 29004KT 8SM CLR 28/24 A3013 670 76 2400 290/04 RMK AO2
14837KMSN MSN20010807084509208/07/01 08:45:31  5-MIN KMSN 071445Z VRB04KT 8SM CLR 29/24 A3013 670 76 2500 VRB/04 RMK AO2
14837KMSN MSN20010807085011508/07/01 08:50:31  5-MIN KMSN 071450Z VRB04KT 8SM CLR 29/24 A3013 670 74 2500 VRB/04 RMK AO2 SLP195 T02940244 53008
14837KMSN MSN20010807085509208/07/01 08:55:31  5-MIN KMSN 071455Z VRB05KT 8SM CLR 29/24 A3013 670 76 2500 VRB/05 RMK AO2
14837KMSN MSN20010807090009208/07/01 09:00:31  5-MIN KMSN 071500Z 00000KT 8SM CLR 29/25 A3013 670 76 2500 000/00 RMK AO2
14837KMSN MSN20010807090509208/07/01 09:05:31  5-MIN KMSN 071505Z VRB04KT 8SM CLR 29/24 A3013 670 76 2500 VRB/04 RMK AO2
14837KMSN MSN20010807091009208/07/01 09:10:31  5-MIN KMSN 071510Z 26004KT 9SM CLR 29/25 A3013 670 76 2500 260/04 RMK AO2
14837KMSN MSN20010807091509308/07/01 09:15:31  5-MIN KMSN 071515Z 26005KT 10SM CLR 29/25 A3013 670 76 2500 260/05 RMK AO2
14837KMSN MSN20010807092009308/07/01 09:20:31  5-MIN KMSN 071520Z VRB05KT 10SM CLR 29/25 A3013 670 76 2500 VRB/05 RMK AO2
14837KMSN MSN20010807092509308/07/01 09:25:31  5-MIN KMSN 071525Z VRB06KT 10SM CLR 29/25 A3013 670 76 2500 VRB/06 RMK AO2
14837KMSN MSN20010807093009308/07/01 09:30:31  5-MIN KMSN 071530Z 28006KT 10SM CLR 29/24 A3013 670 74 2500 280/06 RMK AO2
14837KMSN MSN20010807093509308/07/01 09:35:31  5-MIN KMSN 071535Z 27005KT 10SM CLR 29/25 A3013 670 76 2500 270/05 RMK AO2
14837KMSN MSN20010807094009308/07/01 09:40:31  5-MIN KMSN 071540Z 27006KT 10SM CLR 29/25 A3013 670 76 2500 260/06 RMK AO2
14837KMSN MSN20010807094509308/07/01 09:45:31  5-MIN KMSN 071545Z VRB05KT 10SM CLR 30/25 A3013 670 74 2600 VRB/05 RMK AO2
14837KMSN MSN20010807095011008/07/01 09:50:31  5-MIN KMSN 071550Z 31005KT 10SM CLR 30/26 A3013 670 77 2600 310/05 RMK AO2 SLP195 T03000256
14837KMSN MSN20010807095509208/07/01 09:55:31  5-MIN KMSN 071555Z VRB04KT 9SM CLR 31/26 A3013 670 74 2600 VRB/04 RMK AO2
14837KMSN MSN20010807100009308/07/01 10:00:31  5-MIN KMSN 071600Z VRB04KT 10SM CLR 30/25 A3013 670 74 2600 VRB/04 RMK AO2
14837KMSN MSN20010807100509308/07/01 10:05:31  5-MIN KMSN 071605Z VRB03KT 10SM CLR 31/26 A3013 670 77 2600 VRB/03 RMK AO2
14837KMSN MSN20010807101009308/07/01 10:10:31  5-MIN KMSN 071610Z 33004KT 10SM CLR 31/26 A3013 670 74 2600 330/04 RMK AO2
14837KMSN MSN20010807101509308/07/01 10:15:31  5-MIN KMSN 071615Z 30005KT 10SM CLR 31/26 A3013 670 74 2600 300/05 RMK AO2
14837KMSN MSN20010807102009308/07/01 10:20:31  5-MIN KMSN 071620Z 31007KT 10SM CLR 31/26 A3013 670 74 2600 310/07 RMK AO2
14837KMSN MSN20010807102509308/07/01 10:25:31  5-MIN KMSN 071625Z VRB05KT 10SM CLR 31/26 A3013 670 74 2600 VRB/05 RMK AO2
14837KMSN MSN20010807103009308/07/01 10:30:31  5-MIN KMSN 071630Z 31004KT 10SM CLR 31/26 A3013 670 74 2600 300/04 RMK AO2
14837KMSN MSN20010807103509608/07/01 10:35:31  5-MIN KMSN 071635Z VRB03KT 10SM FEW025 31/26 A3013 670 74 2700 VRB/03 RMK AO2
14837KMSN MSN20010807104009608/07/01 10:40:31  5-MIN KMSN 071640Z VRB03KT 10SM FEW025 31/26 A3012 680 74 2700 VRB/03 RMK AO2
14837KMSN MSN20010807104509608/07/01 10:45:31  5-MIN KMSN 071645Z VRB03KT 10SM FEW025 32/26 A3012 680 72 2800 VRB/03 RMK AO2
14837KMSN MSN20010807105011308/07/01 10:50:31  5-MIN KMSN 071650Z VRB05KT 10SM FEW025 32/26 A3012 680 72 2800 VRB/05 RMK AO2 SLP192 T03170261
14837KMSN MSN20010807105509508/07/01 10:55:31  5-MIN KMSN 071655Z VRB03KT 9SM FEW022 31/26 A3012 680 74 2700 VRB/03 RMK AO2
14837KMSN MSN20010807110009608/07/01 11:00:31  5-MIN KMSN 071700Z 00000KT 10SM FEW022 32/26 A3012 680 72 2800 000/00 RMK AO2
14837KMSN MSN20010807110509608/07/01 11:05:31  5-MIN KMSN 071705Z VRB03KT 10SM FEW025 32/26 A3012 680 69 2800 VRB/03 RMK AO2
14837KMSN MSN20010807111009608/07/01 11:10:31  5-MIN KMSN 071710Z 36004KT 10SM FEW025 32/27 A3012 680 72 2800 360/04 RMK AO2
14837KMSN MSN20010807111509608/07/01 11:15:31  5-MIN KMSN 071715Z 27004KT 10SM SCT022 32/26 A3012 680 72 2800 270/04 RMK AO2
14837KMSN MSN20010807112009608/07/01 11:20:31  5-MIN KMSN 071720Z 33005KT 10SM SCT022 32/26 A3012 680 72 2800 330/05 RMK AO2
14837KMSN MSN20010807112509608/07/01 11:25:31  5-MIN KMSN 071725Z VRB03KT 10SM SCT024 32/27 A3012 680 72 2800 VRB/03 RMK AO2
14837KMSN MSN20010807113009608/07/01 11:30:31  5-MIN KMSN 071730Z VRB05KT 10SM SCT024 32/26 A3012 680 72 2800 VRB/05 RMK AO2
14837KMSN MSN20010807113509608/07/01 11:35:31  5-MIN KMSN 071735Z 27004KT 10SM BKN024 32/26 A3012 680 72 2800 270/04 RMK AO2
14837KMSN MSN20010807114009608/07/01 11:40:31  5-MIN KMSN 071740Z 29004KT 10SM BKN024 32/27 A3012 680 74 2800 290/04 RMK AO2
14837KMSN MSN20010807114509608/07/01 11:45:31  5-MIN KMSN 071745Z VRB04KT 10SM BKN024 32/26 A3011 690 72 2800 VRB/04 RMK AO2
14837KMSN MSN20010807115013808/07/01 11:50:31  5-MIN KMSN 071750Z VRB03KT 10SM FEW024 BKN032 32/26 A3011 690 72 2800 VRB/03 RMK AO2 SLP189 T03170261 10322 20256 50000
14837KMSN MSN20010807115511008/07/01 11:55:31  5-MIN KMSN 071755Z VRB04KT 10SM FEW024 SCT032 BKN065 32/26 A3011 690 72 2800 VRB/04 RMK AO2
14837KMSN MSN20010807120011008/07/01 12:00:31  5-MIN KMSN 071800Z 29004KT 10SM FEW024 SCT030 SCT065 32/26 A3011 690 72 2800 290/04 RMK AO2
14837KMSN MSN20010807120511008/07/01 12:05:31  5-MIN KMSN 071805Z VRB05KT 10SM SCT025 SCT030 SCT065 32/27 A3011 690 72 2800 VRB/05 RMK AO2
14837KMSN MSN20010807121011008/07/01 12:10:31  5-MIN KMSN 071810Z VRB04KT 10SM SCT025 BKN030 BKN065 32/26 A3011 690 72 2800 VRB/04 RMK AO2
14837KMSN MSN20010807121511008/07/01 12:15:31  5-MIN KMSN 071815Z VRB06KT 10SM SCT025 BKN030 BKN037 32/26 A3011 690 72 2800 VRB/06 RMK AO2
14837KMSN MSN20010807122011008/07/01 12:20:31  5-MIN KMSN 071820Z VRB05KT 10SM SCT025 BKN037 BKN048 32/26 A3010 700 69 2900 VRB/05 RMK AO2
14837KMSN MSN20010807122511008/07/01 12:25:31  5-MIN KMSN 071825Z 32004KT 10SM SCT025 SCT037 SCT048 33/26 A3010 700 67 2900 320/04 RMK AO2
14837KMSN MSN20010807123012008/07/01 12:30:31  5-MIN KMSN 071830Z 28005KT 10SM FEW025 SCT037 33/26 A3010 700 67 2900 280/05 RMK AO2 CB BLDG VC ALQDS
14837KMSN MSN20010807123510308/07/01 12:35:31  5-MIN KMSN 071835Z 30003KT 10SM FEW025 SCT060 32/26 A3010 700 69 2800 300/03 RMK AO2
14837KMSN MSN20010807124009608/07/01 12:40:31  5-MIN KMSN 071840Z 30004KT 10SM FEW037 32/26 A3010 700 72 2800 300/04 RMK AO2
14837KMSN MSN20010807124509608/07/01 12:45:31  5-MIN KMSN 071845Z VRB04KT 10SM SCT037 32/26 A3009 700 69 2900 VRB/04 RMK AO2
14837KMSN MSN20010807125011308/07/01 12:50:31  5-MIN KMSN 071850Z VRB04KT 10SM SCT032 33/26 A3009 710 67 2900 VRB/04 RMK AO2 SLP182 T03280261
14837KMSN MSN20010807125510308/07/01 12:55:31  5-MIN KMSN 071855Z 33006KT 10SM FEW032 SCT060 33/26 A3009 710 67 2900 330/06 RMK AO2
14837KMSN MSN20010807130010308/07/01 13:00:31  5-MIN KMSN 071900Z 33005KT 10SM SCT034 BKN060 32/26 A3009 710 67 2900 330/05 RMK AO2
14837KMSN MSN20010807130510308/07/01 13:05:31  5-MIN KMSN 071905Z 33005KT 10SM SCT034 SCT060 32/26 A3009 710 67 2900 330/05 RMK AO2
14837KMSN MSN20010807131010308/07/01 13:10:31  5-MIN KMSN 071910Z 34005KT 10SM SCT034 BKN060 33/26 A3009 710 65 2900 340/05 RMK AO2
14837KMSN MSN20010807131510308/07/01 13:15:31  5-MIN KMSN 071915Z VRB04KT 10SM SCT034 BKN060 33/26 A3009 710 65 2900 VRB/04 RMK AO2
14837KMSN MSN20010807132010308/07/01 13:20:31  5-MIN KMSN 071920Z VRB05KT 10SM SCT034 SCT060 33/26 A3008 710 65 2900 VRB/05 RMK AO2
14837KMSN MSN20010807132509608/07/01 13:25:31  5-MIN KMSN 071925Z 27006KT 10SM SCT034 33/25 A3008 710 63 2900 270/06 RMK AO2
14837KMSN MSN20010807133009608/07/01 13:30:31  5-MIN KMSN 071930Z 32006KT 10SM SCT034 33/26 A3008 710 63 3000 310/06 RMK AO2
14837KMSN MSN20010807133509608/07/01 13:35:31  5-MIN KMSN 071935Z VRB03KT 10SM SCT034 33/26 A3008 710 63 3000 VRB/03 RMK AO2
14837KMSN MSN20010807134009608/07/01 13:40:31  5-MIN KMSN 071940Z VRB03KT 10SM SCT034 34/25 A3008 720 59 3100 VRB/03 RMK AO2
14837KMSN MSN20010807134509608/07/01 13:45:31  5-MIN KMSN 071945Z 26004KT 10SM SCT034 33/25 A3008 720 61 3000 260/04 RMK AO2
14837KMSN MSN20010807135011308/07/01 13:50:31  5-MIN KMSN 071950Z 31006KT 10SM SCT034 33/24 A3008 720 59 3000 310/06 RMK AO2 SLP177 T03330244
14837KMSN MSN20010807135509308/07/01 13:55:31  5-MIN KMSN 071955Z 27004KT 10SM CLR 33/24 A3007 720 57 3000 270/04 RMK AO2
14837KMSN MSN20010807140009608/07/01 14:00:31  5-MIN KMSN 072000Z 30005KT 10SM SCT034 33/25 A3008 720 61 3000 300/05 RMK AO2
14837KMSN MSN20010807140509608/07/01 14:05:31  5-MIN KMSN 072005Z 30005KT 10SM SCT034 33/25 A3007 720 61 3000 300/05 RMK AO2
14837KMSN MSN20010807141009608/07/01 14:10:31  5-MIN KMSN 072010Z 29003KT 10SM SCT034 33/24 A3007 720 59 3000 290/03 RMK AO2
14837KMSN MSN20010807141509608/07/01 14:15:31  5-MIN KMSN 072015Z VRB04KT 10SM SCT034 33/24 A3007 720 59 3000 VRB/04 RMK AO2
14837KMSN MSN20010807142009608/07/01 14:20:31  5-MIN KMSN 072020Z VRB04KT 10SM SCT034 33/25 A3007 720 61 3000 VRB/04 RMK AO2
14837KMSN MSN20010807142509608/07/01 14:25:31  5-MIN KMSN 072025Z VRB03KT 10SM SCT034 33/25 A3007 720 61 3000 VRB/03 RMK AO2
14837KMSN MSN20010807143009608/07/01 14:30:31  5-MIN KMSN 072030Z 33003KT 10SM SCT034 34/25 A3007 720 59 3100 330/03 RMK AO2
14837KMSN MSN20010807143509608/07/01 14:35:31  5-MIN KMSN 072035Z 30007KT 10SM SCT034 34/25 A3007 730 59 3100 300/07 RMK AO2
14837KMSN MSN20010807144009608/07/01 14:40:31  5-MIN KMSN 072040Z VRB05KT 10SM SCT034 34/24 A3007 730 57 3100 VRB/05 RMK AO2
14837KMSN MSN20010807144509608/07/01 14:45:31  5-MIN KMSN 072045Z 32005KT 10SM SCT040 34/25 A3007 730 59 3100 320/05 RMK AO2
14837KMSN MSN20010807145011908/07/01 14:50:31  5-MIN KMSN 072050Z 30006KT 10SM SCT040 34/25 A3007 730 59 3100 300/06 RMK AO2 SLP174 T03390250 58006
14837KMSN MSN20010807145509608/07/01 14:55:31  5-MIN KMSN 072055Z 30006KT 10SM SCT040 33/24 A3007 730 59 3000 300/06 RMK AO2
14837KMSN MSN20010807150009608/07/01 15:00:31  5-MIN KMSN 072100Z VRB05KT 10SM SCT040 33/24 A3007 730 57 3000 VRB/05 RMK AO2
14837KMSN MSN20010807150509608/07/01 15:05:31  5-MIN KMSN 072105Z VRB05KT 10SM SCT040 33/24 A3007 730 59 3000 VRB/05 RMK AO2
14837KMSN MSN20010807151009608/07/01 15:10:31  5-MIN KMSN 072110Z 26004KT 10SM SCT040 33/24 A3007 730 59 3000 260/04 RMK AO2
14837KMSN MSN20010807151509608/07/01 15:15:31  5-MIN KMSN 072115Z 26003KT 10SM SCT040 33/25 A3007 730 61 3000 260/03 RMK AO2
14837KMSN MSN20010807152009608/07/01 15:20:31  5-MIN KMSN 072120Z VRB05KT 10SM SCT040 34/25 A3006 730 59 3100 VRB/05 RMK AO2
14837KMSN MSN20010807152509608/07/01 15:25:31  5-MIN KMSN 072125Z 27005KT 10SM SCT040 33/25 A3006 730 61 3000 270/05 RMK AO2
14837KMSN MSN20010807153009608/07/01 15:30:31  5-MIN KMSN 072130Z 29005KT 10SM SCT040 34/25 A3006 740 59 3100 290/05 RMK AO2
14837KMSN MSN20010807153509608/07/01 15:35:31  5-MIN KMSN 072135Z 27005KT 10SM SCT040 33/24 A3006 740 59 3000 270/05 RMK AO2
14837KMSN MSN20010807154009608/07/01 15:40:31  5-MIN KMSN 072140Z VRB05KT 10SM SCT045 33/24 A3006 740 59 3000 VRB/05 RMK AO2
14837KMSN MSN20010807154509608/07/01 15:45:31  5-MIN KMSN 072145Z 31005KT 10SM SCT045 33/24 A3006 740 59 3000 300/05 RMK AO2
14837KMSN MSN20010807155011308/07/01 15:50:31  5-MIN KMSN 072150Z 29005KT 10SM SCT045 33/24 A3006 740 59 3000 280/05 RMK AO2 SLP171 T03330244
14837KMSN MSN20010807155509608/07/01 15:55:31  5-MIN KMSN 072155Z 29005KT 10SM FEW043 33/24 A3006 740 59 3000 290/05 RMK AO2
14837KMSN MSN20010807160009308/07/01 16:00:31  5-MIN KMSN 072200Z 28005KT 10SM CLR 33/24 A3006 740 59 3000 280/05 RMK AO2
14837KMSN MSN20010807160509608/07/01 16:05:31  5-MIN KMSN 072205Z VRB03KT 10SM FEW042 33/24 A3006 740 59 3000 VRB/03 RMK AO2
14837KMSN MSN20010807161009608/07/01 16:10:31  5-MIN KMSN 072210Z 30004KT 10SM FEW042 33/24 A3006 740 59 3000 300/04 RMK AO2
14837KMSN MSN20010807161509608/07/01 16:15:31  5-MIN KMSN 072215Z 30004KT 10SM FEW042 33/24 A3005 740 59 3000 300/04 RMK AO2
14837KMSN MSN20010807162009608/07/01 16:20:31  5-MIN KMSN 072220Z 30005KT 10SM FEW042 33/24 A3005 740 59 3000 300/05 RMK AO2
14837KMSN MSN20010807162509608/07/01 16:25:31  5-MIN KMSN 072225Z VRB03KT 10SM FEW042 33/24 A3005 740 57 3000 VRB/03 RMK AO2
14837KMSN MSN20010807163009608/07/01 16:30:31  5-MIN KMSN 072230Z 29005KT 10SM FEW042 33/24 A3005 740 59 3000 290/05 RMK AO2
14837KMSN MSN20010807163509608/07/01 16:35:31  5-MIN KMSN 072235Z 30005KT 10SM FEW042 33/24 A3005 750 61 3000 300/05 RMK AO2
14837KMSN MSN20010807164009608/07/01 16:40:31  5-MIN KMSN 072240Z 28005KT 10SM FEW042 33/24 A3005 750 61 3000 280/05 RMK AO2
14837KMSN MSN20010807164509608/07/01 16:45:31  5-MIN KMSN 072245Z VRB04KT 10SM FEW042 33/24 A3005 750 57 3000 VRB/04 RMK AO2
14837KMSN MSN20010807165011308/07/01 16:50:31  5-MIN KMSN 072250Z 31005KT 10SM FEW042 33/24 A3004 750 57 3000 310/05 RMK AO2 SLP166 T03330239
14837KMSN MSN20010807165509608/07/01 16:55:31  5-MIN KMSN 072255Z VRB03KT 10SM FEW045 33/24 A3004 750 61 3000 VRB/03 RMK AO2
14837KMSN MSN20010807170009608/07/01 17:00:31  5-MIN KMSN 072300Z 00000KT 10SM FEW045 33/24 A3004 750 61 3000 000/00 RMK AO2
14837KMSN MSN20010807170509608/07/01 17:05:31  5-MIN KMSN 072305Z 27003KT 10SM FEW045 33/24 A3004 750 61 3000 270/03 RMK AO2
14837KMSN MSN20010807171009608/07/01 17:10:31  5-MIN KMSN 072310Z 29004KT 10SM FEW045 33/24 A3004 760 61 3000 290/04 RMK AO2
14837KMSN MSN20010807171509608/07/01 17:15:31  5-MIN KMSN 072315Z VRB04KT 10SM FEW045 33/25 A3004 760 63 3000 VRB/04 RMK AO2
14837KMSN MSN20010807172009608/07/01 17:20:31  5-MIN KMSN 072320Z 29003KT 10SM FEW045 33/24 A3003 760 61 3000 290/03 RMK AO2
14837KMSN MSN20010807172509608/07/01 17:25:31  5-MIN KMSN 072325Z 30005KT 10SM FEW045 32/24 A3003 760 63 2900 300/05 RMK AO2
14837KMSN MSN20010807173009608/07/01 17:30:31  5-MIN KMSN 072330Z 29005KT 10SM FEW045 32/24 A3003 760 63 2900 280/05 RMK AO2
14837KMSN MSN20010807173509608/07/01 17:35:31  5-MIN KMSN 072335Z 29005KT 10SM FEW045 32/25 A3003 760 65 2900 290/05 RMK AO2
14837KMSN MSN20010807174009608/07/01 17:40:31  5-MIN KMSN 072340Z 28003KT 10SM FEW045 32/24 A3003 760 63 2900 280/03 RMK AO2
14837KMSN MSN20010807174509608/07/01 17:45:31  5-MIN KMSN 072345Z 28004KT 10SM FEW045 32/25 A3003 760 65 2900 280/04 RMK AO2
14837KMSN MSN20010807175013108/07/01 17:50:31  5-MIN KMSN 072350Z VRB03KT 10SM FEW045 32/24 A3003 760 63 2900 VRB/03 RMK AO2 SLP161 T03220244 10339 20317 56015
14837KMSN MSN20010807175509608/07/01 17:55:31  5-MIN KMSN 072355Z 00000KT 10SM FEW045 32/24 A3003 760 65 2900 000/00 RMK AO2
14837KMSN MSN20010807180009608/07/01 18:00:31  5-MIN KMSN 080000Z 00000KT 10SM FEW045 32/25 A3003 760 67 2900 000/00 RMK AO2
14837KMSN MSN20010807180509608/07/01 18:05:31  5-MIN KMSN 080005Z 00000KT 10SM FEW045 32/25 A3003 760 67 2900 000/00 RMK AO2
14837KMSN MSN20010807181009608/07/01 18:10:31  5-MIN KMSN 080010Z 00000KT 10SM FEW045 32/25 A3003 760 67 2900 000/00 RMK AO2
14837KMSN MSN20010807181509608/07/01 18:15:31  5-MIN KMSN 080015Z 00000KT 10SM FEW045 31/26 A3003 760 72 2800 000/00 RMK AO2
14837KMSN MSN20010807182009608/07/01 18:20:31  5-MIN KMSN 080020Z 00000KT 10SM FEW045 31/26 A3003 760 72 2800 000/00 RMK AO2
14837KMSN MSN20010807182509608/07/01 18:25:31  5-MIN KMSN 080025Z 00000KT 10SM FEW045 31/26 A3003 760 72 2800 000/00 RMK AO2
14837KMSN MSN20010807183009608/07/01 18:30:31  5-MIN KMSN 080030Z 00000KT 10SM FEW045 31/26 A3003 760 74 2700 000/00 RMK AO2
14837KMSN MSN20010807183509608/07/01 18:35:31  5-MIN KMSN 080035Z 00000KT 10SM FEW045 29/26 A3004 760 79 2600 000/00 RMK AO2
14837KMSN MSN20010807184009608/07/01 18:40:31  5-MIN KMSN 080040Z 00000KT 10SM FEW045 29/26 A3004 760 82 2600 000/00 RMK AO2
14837KMSN MSN20010807184509608/07/01 18:45:31  5-MIN KMSN 080045Z 00000KT 10SM FEW045 29/26 A3004 760 79 2600 000/00 RMK AO2
14837KMSN MSN20010807185011308/07/01 18:50:31  5-MIN KMSN 080050Z VRB03KT 10SM FEW045 31/25 A3004 750 72 2700 VRB/03 RMK AO2 SLP165 T03060250
14837KMSN MSN20010807185509608/07/01 18:55:31  5-MIN KMSN 080055Z 00000KT 10SM FEW050 30/25 A3004 750 74 2700 000/00 RMK AO2
14837KMSN MSN20010807190009608/07/01 19:00:31  5-MIN KMSN 080100Z 26003KT 10SM FEW050 29/26 A3004 750 82 2600 260/03 RMK AO2
14837KMSN MSN20010807190509608/07/01 19:05:31  5-MIN KMSN 080105Z 26003KT 10SM FEW050 28/26 A3004 750 85 2500 260/03 RMK AO2
14837KMSN MSN20010807191009508/07/01 19:10:31  5-MIN KMSN 080110Z 00000KT 9SM FEW050 28/26 A3004 750 85 2500 000/00 RMK AO2
14837KMSN MSN20010807191509508/07/01 19:15:31  5-MIN KMSN 080115Z 00000KT 9SM FEW050 28/26 A3004 750 87 2400 000/00 RMK AO2
14837KMSN MSN20010807192009508/07/01 19:20:31  5-MIN KMSN 080120Z 00000KT 9SM FEW050 28/26 A3004 750 87 2400 000/00 RMK AO2
14837KMSN MSN20010807192509508/07/01 19:25:31  5-MIN KMSN 080125Z 00000KT 9SM FEW050 27/25 A3004 750 87 2400 000/00 RMK AO2
14837KMSN MSN20010807193009508/07/01 19:30:31  5-MIN KMSN 080130Z 00000KT 9SM FEW050 27/25 A3005 750 87 2400 000/00 RMK AO2
14837KMSN MSN20010807193509508/07/01 19:35:31  5-MIN KMSN 080135Z 23003KT 9SM FEW050 28/25 A3005 750 84 2400 230/03 RMK AO2
14837KMSN MSN20010807194009508/07/01 19:40:31  5-MIN KMSN 080140Z 00000KT 9SM FEW050 27/25 A3005 750 87 2400 000/00 RMK AO2
14837KMSN MSN20010807194509508/07/01 19:45:31  5-MIN KMSN 080145Z 24003KT 9SM FEW050 27/25 A3005 750 90 2300 240/03 RMK AO2
14837KMSN MSN20010807195010908/07/01 19:50:31  5-MIN KMSN 080150Z 00000KT 8SM CLR 27/25 A3005 750 90 2300 000/00 RMK AO2 SLP168 T02670250
14837KMSN MSN20010807195509208/07/01 19:55:31  5-MIN KMSN 080155Z 00000KT 8SM CLR 27/25 A3005 750 90 2300 000/00 RMK AO2
14837KMSN MSN20010807200009208/07/01 20:00:31  5-MIN KMSN 080200Z 00000KT 8SM CLR 27/25 A3005 740 90 2300 000/00 RMK AO2
14837KMSN MSN20010807200509208/07/01 20:05:31  5-MIN KMSN 080205Z 00000KT 9SM CLR 27/25 A3005 740 90 2300 000/00 RMK AO2
14837KMSN MSN20010807201009208/07/01 20:10:31  5-MIN KMSN 080210Z 24003KT 9SM CLR 27/25 A3005 740 90 2300 240/03 RMK AO2
14837KMSN MSN20010807201509208/07/01 20:15:31  5-MIN KMSN 080215Z 24003KT 9SM CLR 27/25 A3005 740 90 2300 240/03 RMK AO2
14837KMSN MSN20010807202009208/07/01 20:20:31  5-MIN KMSN 080220Z 23003KT 8SM CLR 27/26 A3005 740 90 2400 230/03 RMK AO2
14837KMSN MSN20010807202509208/07/01 20:25:31  5-MIN KMSN 080225Z 23003KT 8SM CLR 27/26 A3006 740 90 2400 230/03 RMK AO2
14837KMSN MSN20010807203009208/07/01 20:30:31  5-MIN KMSN 080230Z 00000KT 8SM CLR 27/25 A3006 740 90 2300 000/00 RMK AO2
14837KMSN MSN20010807203509208/07/01 20:35:31  5-MIN KMSN 080235Z 00000KT 8SM CLR 26/25 A3006 740 93 2200 000/00 RMK AO2
14837KMSN MSN20010807204009208/07/01 20:40:31  5-MIN KMSN 080240Z 22003KT 8SM CLR 27/26 A3006 740 90 2400 220/03 RMK AO2
14837KMSN MSN20010807204509208/07/01 20:45:31  5-MIN KMSN 080245Z 22004KT 8SM CLR 27/26 A3006 740 90 2400 220/04 RMK AO2
14837KMSN MSN20010807205011508/07/01 20:50:31  5-MIN KMSN 080250Z 22003KT 8SM CLR 28/26 A3005 740 87 2400 220/03 RMK AO2 SLP169 T02780256 58012
14837KMSN MSN20010807205509208/07/01 20:55:31  5-MIN KMSN 080255Z 22003KT 8SM CLR 27/26 A3005 740 93 2300 220/03 RMK AO2
14837KMSN MSN20010807210009208/07/01 21:00:31  5-MIN KMSN 080300Z 21003KT 8SM CLR 27/26 A3005 740 93 2300 210/03 RMK AO2
14837KMSN MSN20010807210509208/07/01 21:05:31  5-MIN KMSN 080305Z 21003KT 8SM CLR 27/26 A3006 740 90 2400 210/03 RMK AO2
14837KMSN MSN20010807211009208/07/01 21:10:31  5-MIN KMSN 080310Z 22003KT 8SM CLR 28/26 A3006 740 87 2400 220/03 RMK AO2
14837KMSN MSN20010807211509208/07/01 21:15:31  5-MIN KMSN 080315Z 23004KT 8SM CLR 28/26 A3006 740 87 2400 220/04 RMK AO2
14837KMSN MSN20010807212009208/07/01 21:20:31  5-MIN KMSN 080320Z 22004KT 8SM CLR 28/26 A3006 740 87 2400 220/04 RMK AO2
14837KMSN MSN20010807212509208/07/01 21:25:31  5-MIN KMSN 080325Z 21004KT 8SM CLR 28/26 A3006 730 85 2500 210/04 RMK AO2
14837KMSN MSN20010807213009208/07/01 21:30:31  5-MIN KMSN 080330Z 22005KT 9SM CLR 28/26 A3006 740 85 2500 220/05 RMK AO2
14837KMSN MSN20010807213509208/07/01 21:35:31  5-MIN KMSN 080335Z 22005KT 9SM CLR 28/26 A3006 740 85 2500 220/05 RMK AO2
14837KMSN MSN20010807214009208/07/01 21:40:31  5-MIN KMSN 080340Z 22004KT 9SM CLR 29/26 A3006 740 82 2500 220/04 RMK AO2
14837KMSN MSN20010807214509208/07/01 21:45:31  5-MIN KMSN 080345Z 22004KT 9SM CLR 29/26 A3006 730 82 2500 220/04 RMK AO2
14837KMSN MSN20010807215010908/07/01 21:50:31  5-MIN KMSN 080350Z 22005KT 9SM CLR 29/26 A3006 730 82 2500 220/05 RMK AO2 SLP172 T02890256
14837KMSN MSN20010807215509208/07/01 21:55:31  5-MIN KMSN 080355Z 23006KT 9SM CLR 29/26 A3006 730 82 2500 230/06 RMK AO2
14837KMSN MSN20010807220009208/07/01 22:00:31  5-MIN KMSN 080400Z 23006KT 9SM CLR 29/26 A3006 730 82 2500 230/06 RMK AO2
14837KMSN MSN20010807220509208/07/01 22:05:31  5-MIN KMSN 080405Z 23006KT 9SM CLR 29/26 A3006 730 82 2500 230/06 RMK AO2
14837KMSN MSN20010807221009208/07/01 22:10:31  5-MIN KMSN 080410Z 23005KT 8SM CLR 28/26 A3006 730 85 2500 230/05 RMK AO2
14837KMSN MSN20010807221509208/07/01 22:15:31  5-MIN KMSN 080415Z 22005KT 8SM CLR 28/26 A3006 730 85 2500 220/05 RMK AO2
14837KMSN MSN20010807222009208/07/01 22:20:31  5-MIN KMSN 080420Z 22005KT 8SM CLR 28/26 A3006 730 85 2500 220/05 RMK AO2
14837KMSN MSN20010807222509208/07/01 22:25:31  5-MIN KMSN 080425Z VRB04KT 8SM CLR 28/26 A3006 730 85 2500 VRB/04 RMK AO2
14837KMSN MSN20010807223009208/07/01 22:30:31  5-MIN KMSN 080430Z VRB04KT 8SM CLR 28/26 A3006 740 85 2500 VRB/04 RMK AO2
14837KMSN MSN20010807223509208/07/01 22:35:31  5-MIN KMSN 080435Z VRB04KT 8SM CLR 28/26 A3006 740 85 2500 VRB/04 RMK AO2
14837KMSN MSN20010807224009208/07/01 22:40:31  5-MIN KMSN 080440Z VRB04KT 8SM CLR 28/25 A3006 730 84 2400 VRB/04 RMK AO2
14837KMSN MSN20010807224509208/07/01 22:45:31  5-MIN KMSN 080445Z VRB05KT 8SM CLR 28/25 A3006 740 84 2400 VRB/05 RMK AO2
14837KMSN MSN20010807225010908/07/01 22:50:31  5-MIN KMSN 080450Z VRB04KT 8SM CLR 28/25 A3006 730 84 2400 VRB/04 RMK AO2 SLP171 T02780250
14837KMSN MSN20010807225509208/07/01 22:55:31  5-MIN KMSN 080455Z VRB04KT 8SM CLR 28/25 A3006 730 84 2400 VRB/04 RMK AO2
14837KMSN MSN20010807230009208/07/01 23:00:31  5-MIN KMSN 080500Z 26004KT 8SM CLR 28/25 A3006 730 84 2400 260/04 RMK AO2
14837KMSN MSN20010807230509208/07/01 23:05:31  5-MIN KMSN 080505Z 26004KT 8SM CLR 28/25 A3006 740 84 2400 260/04 RMK AO2
14837KMSN MSN20010807231009208/07/01 23:10:31  5-MIN KMSN 080510Z VRB03KT 8SM CLR 28/25 A3006 740 84 2400 VRB/03 RMK AO2
14837KMSN MSN20010807231509208/07/01 23:15:31  5-MIN KMSN 080515Z VRB03KT 8SM CLR 28/25 A3005 740 84 2400 VRB/03 RMK AO2
14837KMSN MSN20010807232009208/07/01 23:20:31  5-MIN KMSN 080520Z VRB03KT 8SM CLR 28/25 A3005 740 84 2400 VRB/03 RMK AO2
14837KMSN MSN20010807232509208/07/01 23:25:31  5-MIN KMSN 080525Z VRB03KT 8SM CLR 27/25 A3005 740 87 2400 VRB/03 RMK AO2
14837KMSN MSN20010807233009208/07/01 23:30:31  5-MIN KMSN 080530Z 00000KT 8SM CLR 27/24 A3005 740 84 2400 000/00 RMK AO2
14837KMSN MSN20010807233509208/07/01 23:35:31  5-MIN KMSN 080535Z VRB03KT 8SM CLR 27/24 A3005 740 84 2400 VRB/03 RMK AO2
14837KMSN MSN20010807234009208/07/01 23:40:31  5-MIN KMSN 080540Z VRB03KT 8SM CLR 27/24 A3005 740 84 2400 VRB/03 RMK AO2
14837KMSN MSN20010807234509208/07/01 23:45:31  5-MIN KMSN 080545Z VRB03KT 8SM CLR 27/24 A3005 740 84 2400 VRB/03 RMK AO2
14837KMSN MSN20010807235013708/07/01 23:50:31  5-MIN KMSN 080550Z VRB03KT 8SM CLR 27/24 A3005 740 84 2400 VRB/03 RMK AO2 SLP168 T02720244 10322 20261 403390256 51007
14837KMSN MSN20010807235509208/07/01 23:55:31  5-MIN KMSN 080555Z VRB03KT 8SM CLR 27/24 A3005 750 84 2400 VRB/03 RMK AO2
14837KMSN MSN20010808000009208/08/01 00:00:31  5-MIN KMSN 080600Z VRB03KT 8SM CLR 27/24 A3005 740 84 2400 VRB/03 RMK AO2
14837KMSN MSN20010808000509208/08/01 00:05:31  5-MIN KMSN 080605Z 23003KT 8SM CLR 27/24 A3005 750 84 2400 230/03 RMK AO2
14837KMSN MSN20010808001009208/08/01 00:10:31  5-MIN KMSN 080610Z VRB04KT 8SM CLR 27/24 A3005 750 84 2400 VRB/04 RMK AO2
14837KMSN MSN20010808001509208/08/01 00:15:31  5-MIN KMSN 080615Z 00000KT 7SM CLR 27/24 A3005 750 84 2400 000/00 RMK AO2
14837KMSN MSN20010808002009208/08/01 00:20:31  5-MIN KMSN 080620Z 22003KT 7SM CLR 27/24 A3005 750 87 2300 220/03 RMK AO2
14837KMSN MSN20010808002509208/08/01 00:25:31  5-MIN KMSN 080625Z VRB03KT 7SM CLR 27/24 A3004 750 84 2400 VRB/03 RMK AO2
14837KMSN MSN20010808003009208/08/01 00:30:31  5-MIN KMSN 080630Z VRB03KT 7SM CLR 27/24 A3004 750 87 2300 VRB/03 RMK AO2
14837KMSN MSN20010808003509208/08/01 00:35:31  5-MIN KMSN 080635Z 00000KT 7SM CLR 27/24 A3004 750 87 2300 000/00 RMK AO2
14837KMSN MSN20010808004009208/08/01 00:40:31  5-MIN KMSN 080640Z VRB03KT 8SM CLR 27/24 A3004 750 87 2300 VRB/03 RMK AO2
14837KMSN MSN20010808004509208/08/01 00:45:31  5-MIN KMSN 080645Z VRB03KT 8SM CLR 27/24 A3004 750 84 2300 VRB/03 RMK AO2
14837KMSN MSN20010808005010908/08/01 00:50:31  5-MIN KMSN 080650Z VRB03KT 8SM CLR 27/24 A3004 750 84 2300 VRB/03 RMK AO2 SLP165 T02670239
14837KMSN MSN20010808005509208/08/01 00:55:31  5-MIN KMSN 080655Z VRB03KT 8SM CLR 27/24 A3004 750 84 2300 VRB/03 RMK AO2
14837KMSN MSN20010808010009208/08/01 01:00:31  5-MIN KMSN 080700Z 00000KT 8SM CLR 27/24 A3004 750 84 2300 000/00 RMK AO2
14837KMSN MSN20010808010509208/08/01 01:05:31  5-MIN KMSN 080705Z VRB03KT 8SM CLR 27/24 A3004 750 84 2300 VRB/03 RMK AO2
14837KMSN MSN20010808011009208/08/01 01:10:31  5-MIN KMSN 080710Z VRB03KT 8SM CLR 27/24 A3004 750 84 2300 VRB/03 RMK AO2
14837KMSN MSN20010808011509208/08/01 01:15:31  5-MIN KMSN 080715Z VRB04KT 8SM CLR 27/24 A3004 750 84 2300 VRB/04 RMK AO2
14837KMSN MSN20010808012009208/08/01 01:20:31  5-MIN KMSN 080720Z VRB04KT 9SM CLR 27/24 A3004 750 84 2300 VRB/04 RMK AO2
14837KMSN MSN20010808012509208/08/01 01:25:31  5-MIN KMSN 080725Z 23004KT 9SM CLR 27/23 A3004 760 82 2300 230/04 RMK AO2
14837KMSN MSN20010808013009208/08/01 01:30:31  5-MIN KMSN 080730Z VRB04KT 9SM CLR 27/23 A3004 760 82 2300 VRB/04 RMK AO2
14837KMSN MSN20010808013509208/08/01 01:35:31  5-MIN KMSN 080735Z 22004KT 9SM CLR 27/23 A3003 760 82 2300 220/04 RMK AO2
14837KMSN MSN20010808014009208/08/01 01:40:31  5-MIN KMSN 080740Z 22003KT 9SM CLR 27/23 A3003 760 82 2300 220/03 RMK AO2
14837KMSN MSN20010808014509208/08/01 01:45:31  5-MIN KMSN 080745Z VRB03KT 9SM CLR 27/23 A3003 760 82 2300 VRB/03 RMK AO2
14837KMSN MSN20010808015010908/08/01 01:50:31  5-MIN KMSN 080750Z 23003KT 9SM CLR 27/23 A3003 760 79 2300 230/03 RMK AO2 SLP162 T02670228
14837KMSN MSN20010808015509208/08/01 01:55:31  5-MIN KMSN 080755Z 23003KT 9SM CLR 27/23 A3004 760 79 2300 230/03 RMK AO2
14837KMSN MSN20010808020009208/08/01 02:00:31  5-MIN KMSN 080800Z VRB03KT 9SM CLR 27/23 A3004 760 79 2300 VRB/03 RMK AO2
14837KMSN MSN20010808020509208/08/01 02:05:31  5-MIN KMSN 080805Z 00000KT 9SM CLR 27/23 A3004 760 79 2300 000/00 RMK AO2
14837KMSN MSN20010808021009208/08/01 02:10:31  5-MIN KMSN 080810Z 00000KT 9SM CLR 26/23 A3003 760 81 2300 000/00 RMK AO2
14837KMSN MSN20010808021509208/08/01 02:15:31  5-MIN KMSN 080815Z VRB03KT 9SM CLR 26/23 A3004 760 81 2300 VRB/03 RMK AO2
14837KMSN MSN20010808022009308/08/01 02:20:31  5-MIN KMSN 080820Z 00000KT 10SM CLR 27/23 A3004 760 79 2300 000/00 RMK AO2
14837KMSN MSN20010808022509308/08/01 02:25:31  5-MIN KMSN 080825Z 00000KT 10SM CLR 26/23 A3003 760 81 2300 000/00 RMK AO2
14837KMSN MSN20010808023009308/08/01 02:30:31  5-MIN KMSN 080830Z 00000KT 10SM CLR 26/23 A3003 760 81 2300 000/00 RMK AO2
14837KMSN MSN20010808023509208/08/01 02:35:31  5-MIN KMSN 080835Z 00000KT 9SM CLR 26/23 A3003 760 84 2200 000/00 RMK AO2
14837KMSN MSN20010808024009208/08/01 02:40:31  5-MIN KMSN 080840Z 00000KT 9SM CLR 24/22 A3003 760 87 2100 000/00 RMK AO2
14837KMSN MSN20010808024509208/08/01 02:45:31  5-MIN KMSN 080845Z 00000KT 8SM CLR 24/22 A3003 760 87 2100 000/00 RMK AO2
14837KMSN MSN20010808025011508/08/01 02:50:31  5-MIN KMSN 080850Z 00000KT 8SM CLR 25/22 A3003 760 84 2100 000/00 RMK AO2 SLP161 T02500222 58001
14837KMSN MSN20010808025509208/08/01 02:55:31  5-MIN KMSN 080855Z 00000KT 8SM CLR 24/22 A3003 760 87 2100 000/00 RMK AO2
14837KMSN MSN20010808030009208/08/01 03:00:31  5-MIN KMSN 080900Z 00000KT 8SM CLR 25/22 A3003 760 84 2100 000/00 RMK AO2
14837KMSN MSN20010808030509208/08/01 03:05:31  5-MIN KMSN 080905Z 00000KT 8SM CLR 25/23 A3003 760 87 2100 000/00 RMK AO2
14837KMSN MSN20010808031009208/08/01 03:10:31  5-MIN KMSN 080910Z 00000KT 9SM CLR 26/22 A3003 760 81 2200 000/00 RMK AO2
14837KMSN MSN20010808031509308/08/01 03:15:31  5-MIN KMSN 080915Z 00000KT 10SM CLR 25/22 A3003 760 81 2100 000/00 RMK AO2
14837KMSN MSN20010808032009308/08/01 03:20:31  5-MIN KMSN 080920Z 00000KT 10SM CLR 26/22 A3003 760 79 2200 000/00 RMK AO2
14837KMSN MSN20010808032509308/08/01 03:25:31  5-MIN KMSN 080925Z 00000KT 10SM CLR 26/22 A3004 760 79 2200 000/00 RMK AO2
14837KMSN MSN20010808033009208/08/01 03:30:31  5-MIN KMSN 080930Z 00000KT 9SM CLR 26/22 A3004 760 79 2200 000/00 RMK AO2
14837KMSN MSN20010808033509208/08/01 03:35:31  5-MIN KMSN 080935Z 00000KT 9SM CLR 25/22 A3004 760 81 2100 000/00 RMK AO2
14837KMSN MSN20010808034009208/08/01 03:40:31  5-MIN KMSN 080940Z VRB03KT 9SM CLR 26/22 A3003 760 81 2200 VRB/03 RMK AO2
14837KMSN MSN20010808034509208/08/01 03:45:31  5-MIN KMSN 080945Z 00000KT 9SM CLR 26/22 A3003 760 81 2200 000/00 RMK AO2
14837KMSN MSN20010808035010908/08/01 03:50:31  5-MIN KMSN 080950Z VRB03KT 9SM CLR 26/22 A3004 760 81 2200 VRB/03 RMK AO2 SLP163 T02560222
14837KMSN MSN20010808035509208/08/01 03:55:31  5-MIN KMSN 080955Z 00000KT 9SM CLR 26/22 A3003 760 81 2200 000/00 RMK AO2
14837KMSN MSN20010808040009208/08/01 04:00:31  5-MIN KMSN 081000Z 00000KT 9SM CLR 25/22 A3003 760 84 2100 000/00 RMK AO2
14837KMSN MSN20010808040509208/08/01 04:05:31  5-MIN KMSN 081005Z VRB03KT 9SM CLR 25/22 A3003 760 84 2100 VRB/03 RMK AO2
14837KMSN MSN20010808041009208/08/01 04:10:31  5-MIN KMSN 081010Z 27003KT 9SM CLR 26/22 A3004 760 79 2200 270/03 RMK AO2
14837KMSN MSN20010808041509208/08/01 04:15:31  5-MIN KMSN 081015Z VRB03KT 9SM CLR 25/22 A3004 760 81 2100 VRB/03 RMK AO2
14837KMSN MSN20010808042009208/08/01 04:20:31  5-MIN KMSN 081020Z 00000KT 9SM CLR 25/22 A3004 760 81 2100 000/00 RMK AO2
14837KMSN MSN20010808042509208/08/01 04:25:31  5-MIN KMSN 081025Z 00000KT 9SM CLR 24/22 A3004 750 84 2100 000/00 RMK AO2
14837KMSN MSN20010808043009208/08/01 04:30:31  5-MIN KMSN 081030Z 00000KT 9SM CLR 24/22 A3004 750 84 2100 000/00 RMK AO2
14837KMSN MSN20010808043509208/08/01 04:35:31  5-MIN KMSN 081035Z 00000KT 9SM CLR 24/22 A3004 750 87 2000 000/00 RMK AO2
14837KMSN MSN20010808044009208/08/01 04:40:31  5-MIN KMSN 081040Z 00000KT 8SM CLR 23/22 A3004 750 90 1900 000/00 RMK AO2
14837KMSN MSN20010808044509208/08/01 04:45:31  5-MIN KMSN 081045Z 00000KT 8SM CLR 23/22 A3004 750 90 1900 000/00 RMK AO2
14837KMSN MSN20010808045010908/08/01 04:50:31  5-MIN KMSN 081050Z 00000KT 8SM CLR 23/22 A3004 750 90 1900 000/00 RMK AO2 SLP167 T02330217
14837KMSN MSN20010808045509208/08/01 04:55:31  5-MIN KMSN 081055Z 00000KT 7SM CLR 23/22 A3004 750 93 1900 000/00 RMK AO2
14837KMSN MSN20010808050009508/08/01 05:00:31  5-MIN KMSN 081100Z 00000KT 6SM BR CLR 23/22 A3005 750 93 1900 000/00 RMK AO2
14837KMSN MSN20010808050509508/08/01 05:05:31  5-MIN KMSN 081105Z 00000KT 6SM BR CLR 23/22 A3005 750 90 1900 000/00 RMK AO2
14837KMSN MSN20010808051009508/08/01 05:10:31  5-MIN KMSN 081110Z VRB03KT 6SM BR CLR 24/22 A3005 740 87 2000 VRB/03 RMK AO2
14837KMSN MSN20010808051509208/08/01 05:15:31  5-MIN KMSN 081115Z 22004KT 7SM CLR 24/22 A3005 740 84 2000 220/04 RMK AO2
14837KMSN MSN20010808052009208/08/01 05:20:31  5-MIN KMSN 081120Z VRB03KT 7SM CLR 24/22 A3005 740 84 2000 VRB/03 RMK AO2
14837KMSN MSN20010808052509208/08/01 05:25:31  5-MIN KMSN 081125Z 22004KT 7SM CLR 24/22 A3005 740 84 2000 220/04 RMK AO2
14837KMSN MSN20010808053009208/08/01 05:30:31  5-MIN KMSN 081130Z 22003KT 7SM CLR 24/22 A3005 740 84 2000 220/03 RMK AO2
14837KMSN MSN20010808053509208/08/01 05:35:31  5-MIN KMSN 081135Z 23004KT 8SM CLR 25/22 A3005 740 81 2100 230/04 RMK AO2
14837KMSN MSN20010808054009208/08/01 05:40:31  5-MIN KMSN 081140Z 22004KT 8SM CLR 25/22 A3005 750 81 2100 220/04 RMK AO2
14837KMSN MSN20010808054509208/08/01 05:45:31  5-MIN KMSN 081145Z 22004KT 8SM CLR 25/22 A3005 750 81 2100 220/04 RMK AO2
14837KMSN MSN20010808055012708/08/01 05:50:31  5-MIN KMSN 081150Z VRB03KT 8SM CLR 26/22 A3005 750 79 2200 VRB/03 RMK AO2 SLP167 T02560217 10272 20228 56006
14837KMSN MSN20010808055509208/08/01 05:55:31  5-MIN KMSN 081155Z VRB04KT 8SM CLR 26/22 A3005 740 79 2200 VRB/04 RMK AO2
14837KMSN MSN20010808060009208/08/01 06:00:31  5-MIN KMSN 081200Z VRB03KT 8SM CLR 26/22 A3005 740 81 2200 VRB/03 RMK AO2
14837KMSN MSN20010808060509208/08/01 06:05:31  5-MIN KMSN 081205Z VRB03KT 8SM CLR 26/22 A3005 740 81 2200 VRB/03 RMK AO2
14837KMSN MSN20010808061009208/08/01 06:10:31  5-MIN KMSN 081210Z VRB03KT 9SM CLR 26/22 A3005 740 79 2200 VRB/03 RMK AO2
14837KMSN MSN20010808061509208/08/01 06:15:31  5-MIN KMSN 081215Z VRB04KT 9SM CLR 26/22 A3005 740 79 2200 VRB/04 RMK AO2
14837KMSN MSN20010808062009208/08/01 06:20:31  5-MIN KMSN 081220Z 23004KT 9SM CLR 26/22 A3005 750 81 2200 220/04 RMK AO2
14837KMSN MSN20010808062509208/08/01 06:25:31  5-MIN KMSN 081225Z 22004KT 9SM CLR 26/22 A3005 750 81 2200 220/04 RMK AO2
14837KMSN MSN20010808063009208/08/01 06:30:31  5-MIN KMSN 081230Z 22004KT 9SM CLR 26/22 A3005 750 81 2200 220/04 RMK AO2
14837KMSN MSN20010808063509208/08/01 06:35:31  5-MIN KMSN 081235Z VRB05KT 9SM CLR 26/22 A3005 750 76 2200 VRB/05 RMK AO2
14837KMSN MSN20010808064009208/08/01 06:40:31  5-MIN KMSN 081240Z 22005KT 9SM CLR 26/22 A3004 750 76 2200 220/05 RMK AO2
14837KMSN MSN20010808064509208/08/01 06:45:31  5-MIN KMSN 081245Z VRB05KT 9SM CLR 26/22 A3004 750 76 2200 VRB/05 RMK AO2
14837KMSN MSN20010808065010908/08/01 06:50:31  5-MIN KMSN 081250Z VRB05KT 9SM CLR 26/22 A3004 750 76 2200 VRB/05 RMK AO2 SLP167 T02610217
14837KMSN MSN20010808065509308/08/01 06:55:31  5-MIN KMSN 081255Z 23005KT 10SM CLR 26/22 A3004 750 79 2200 230/05 RMK AO2
14837KMSN MSN20010808070009308/08/01 07:00:31  5-MIN KMSN 081300Z VRB04KT 10SM CLR 26/22 A3004 750 76 2200 VRB/04 RMK AO2
14837KMSN MSN20010808070509308/08/01 07:05:31  5-MIN KMSN 081305Z 22006KT 10SM CLR 27/22 A3004 750 73 2300 220/06 RMK AO2
14837KMSN MSN20010808071009308/08/01 07:10:31  5-MIN KMSN 081310Z VRB05KT 10SM CLR 27/22 A3004 750 73 2300 VRB/05 RMK AO2
14837KMSN MSN20010808071509308/08/01 07:15:31  5-MIN KMSN 081315Z VRB06KT 10SM CLR 27/22 A3005 750 73 2300 VRB/06 RMK AO2
14837KMSN MSN20010808072009308/08/01 07:20:31  5-MIN KMSN 081320Z VRB05KT 10SM CLR 27/22 A3005 750 73 2300 VRB/05 RMK AO2
14837KMSN MSN20010808072509308/08/01 07:25:31  5-MIN KMSN 081325Z 23005KT 10SM CLR 27/22 A3005 750 73 2300 230/05 RMK AO2
14837KMSN MSN20010808073009308/08/01 07:30:31  5-MIN KMSN 081330Z VRB04KT 10SM CLR 27/22 A3005 750 73 2300 VRB/04 RMK AO2
14837KMSN MSN20010808073510908/08/01 07:35:31  5-MIN KMSN 081335Z 26007KT 210V300 10SM CLR 27/21 A3005 740 69 2400 260/07 210V300 RMK AO2
14837KMSN MSN20010808074009308/08/01 07:40:31  5-MIN KMSN 081340Z VRB04KT 10SM CLR 27/22 A3005 740 71 2400 VRB/04 RMK AO2
14837KMSN MSN20010808074509308/08/01 07:45:31  5-MIN KMSN 081345Z VRB05KT 10SM CLR 27/22 A3005 740 71 2400 VRB/05 RMK AO2
14837KMSN MSN20010808075012608/08/01 07:50:31  5-MIN KMSN 081350Z 26007KT 220V300 10SM CLR 27/22 A3005 740 71 2400 260/07 220V300 RMK AO2 SLP170 T02720217
14837KMSN MSN20010808075509308/08/01 07:55:31  5-MIN KMSN 081355Z VRB05KT 10SM CLR 27/21 A3005 740 69 2400 VRB/05 RMK AO2
14837KMSN MSN20010808080009308/08/01 08:00:31  5-MIN KMSN 081400Z 25004KT 10SM CLR 28/22 A3005 740 69 2400 240/04 RMK AO2
14837KMSN MSN20010808080509308/08/01 08:05:31  5-MIN KMSN 081405Z VRB05KT 10SM CLR 28/21 A3005 750 66 2400 VRB/05 RMK AO2
14837KMSN MSN20010808081009308/08/01 08:10:31  5-MIN KMSN 081410Z 25009KT 10SM CLR 28/21 A3005 750 66 2400 250/09 RMK AO2
14837KMSN MSN20010808081510908/08/01 08:15:31  5-MIN KMSN 081415Z 25007KT 200V290 10SM CLR 28/21 A3004 750 66 2400 250/07 200V290 RMK AO2
14837KMSN MSN20010808082009308/08/01 08:20:31  5-MIN KMSN 081420Z 24009KT 10SM CLR 28/21 A3005 750 66 2400 240/09 RMK AO2
14837KMSN MSN20010808082509308/08/01 08:25:31  5-MIN KMSN 081425Z VRB06KT 10SM CLR 28/21 A3005 750 66 2400 VRB/06 RMK AO2
14837KMSN MSN20010808083009308/08/01 08:30:31  5-MIN KMSN 081430Z 25008KT 10SM CLR 28/22 A3004 750 69 2400 250/08 RMK AO2
14837KMSN MSN20010808083509308/08/01 08:35:31  5-MIN KMSN 081435Z 28008KT 10SM CLR 28/22 A3004 750 66 2500 280/08 RMK AO2
14837KMSN MSN20010808084009308/08/01 08:40:31  5-MIN KMSN 081440Z 24007KT 10SM CLR 28/22 A3004 750 66 2500 240/07 RMK AO2
14837KMSN MSN20010808084509308/08/01 08:45:31  5-MIN KMSN 081445Z 26009KT 10SM CLR 28/21 A3004 750 64 2500 260/09 RMK AO2
14837KMSN MSN20010808085013208/08/01 08:50:31  5-MIN KMSN 081450Z 27007KT 220V290 10SM CLR 28/22 A3004 750 66 2500 270/07 220V290 RMK AO2 SLP165 T02830217 53006
14837KMSN MSN20010808085509308/08/01 08:55:31  5-MIN KMSN 081455Z VRB06KT 10SM CLR 29/22 A3004 750 64 2600 VRB/06 RMK AO2
14837KMSN MSN20010808090009308/08/01 09:00:31  5-MIN KMSN 081500Z VRB06KT 10SM CLR 28/22 A3004 750 66 2500 VRB/06 RMK AO2
14837KMSN MSN20010808090509308/08/01 09:05:31  5-MIN KMSN 081505Z 28006KT 10SM CLR 28/22 A3004 750 66 2500 280/06 RMK AO2
14837KMSN MSN20010808091009308/08/01 09:10:31  5-MIN KMSN 081510Z VRB06KT 10SM CLR 29/22 A3004 750 64 2600 VRB/06 RMK AO2
14837KMSN MSN20010808091509308/08/01 09:15:31  5-MIN KMSN 081515Z VRB06KT 10SM CLR 29/22 A3004 750 64 2600 VRB/06 RMK AO2
14837KMSN MSN20010808092009308/08/01 09:20:31  5-MIN KMSN 081520Z VRB06KT 10SM CLR 29/22 A3004 750 64 2600 VRB/06 RMK AO2
14837KMSN MSN20010808092509308/08/01 09:25:31  5-MIN KMSN 081525Z VRB06KT 10SM CLR 29/22 A3004 750 64 2600 VRB/06 RMK AO2
14837KMSN MSN20010808093009308/08/01 09:30:31  5-MIN KMSN 081530Z 27005KT 10SM CLR 29/22 A3005 750 64 2500 270/05 RMK AO2
14837KMSN MSN20010808093509308/08/01 09:35:31  5-MIN KMSN 081535Z VRB05KT 10SM CLR 29/22 A3005 750 64 2600 VRB/05 RMK AO2
14837KMSN MSN20010808094009308/08/01 09:40:31  5-MIN KMSN 081540Z VRB06KT 10SM CLR 29/22 A3005 750 64 2600 VRB/06 RMK AO2
14837KMSN MSN20010808094510908/08/01 09:45:31  5-MIN KMSN 081545Z 28007KT 240V300 10SM CLR 29/22 A3005 750 62 2600 280/07 240V300 RMK AO2
14837KMSN MSN20010808095011008/08/01 09:50:31  5-MIN KMSN 081550Z VRB06KT 10SM CLR 29/22 A3005 750 62 2600 VRB/06 RMK AO2 SLP167 T02940217
14837KMSN MSN20010808095509308/08/01 09:55:31  5-MIN KMSN 081555Z VRB04KT 10SM CLR 29/21 A3005 750 60 2600 VRB/04 RMK AO2
14837KMSN MSN20010808100009308/08/01 10:00:31  5-MIN KMSN 081600Z 27004KT 10SM CLR 30/22 A3004 750 60 2700 270/04 RMK AO2
14837KMSN MSN20010808100509308/08/01 10:05:31  5-MIN KMSN 081605Z VRB06KT 10SM CLR 29/22 A3004 750 62 2600 VRB/06 RMK AO2
14837KMSN MSN20010808101009308/08/01 10:10:31  5-MIN KMSN 081610Z VRB04KT 10SM CLR 30/22 A3004 750 60 2700 VRB/04 RMK AO2
14837KMSN MSN20010808101509308/08/01 10:15:31  5-MIN KMSN 081615Z VRB05KT 10SM CLR 30/22 A3004 750 60 2700 VRB/05 RMK AO2
14837KMSN MSN20010808102009308/08/01 10:20:31  5-MIN KMSN 081620Z VRB04KT 10SM CLR 30/22 A3004 750 60 2700 VRB/04 RMK AO2
14837KMSN MSN20010808102509308/08/01 10:25:31  5-MIN KMSN 081625Z VRB04KT 10SM CLR 31/22 A3004 760 60 2700 VRB/04 RMK AO2
14837KMSN MSN20010808103009308/08/01 10:30:31  5-MIN KMSN 081630Z 22006KT 10SM CLR 30/22 A3004 760 60 2700 220/06 RMK AO2
14837KMSN MSN20010808103509308/08/01 10:35:31  5-MIN KMSN 081635Z 25007KT 10SM CLR 30/22 A3004 760 60 2700 250/07 RMK AO2
14837KMSN MSN20010808104009308/08/01 10:40:31  5-MIN KMSN 081640Z VRB04KT 10SM CLR 30/22 A3004 760 60 2700 VRB/04 RMK AO2
14837KMSN MSN20010808104509308/08/01 10:45:31  5-MIN KMSN 081645Z 30008KT 10SM CLR 30/22 A3004 760 60 2700 300/08 RMK AO2
14837KMSN MSN20010808105011008/08/01 10:50:31  5-MIN KMSN 081650Z 31006KT 10SM CLR 31/22 A3003 760 58 2700 310/06 RMK AO2 SLP162 T03060217
14837KMSN MSN20010808105509308/08/01 10:55:31  5-MIN KMSN 081655Z 24006KT 10SM CLR 31/22 A3003 760 58 2800 240/06 RMK AO2
14837KMSN MSN20010808110009308/08/01 11:00:31  5-MIN KMSN 081700Z 29006KT 10SM CLR 31/22 A3003 760 58 2700 290/06 RMK AO2
14837KMSN MSN20010808110509308/08/01 11:05:31  5-MIN KMSN 081705Z VRB05KT 10SM CLR 31/22 A3003 760 58 2800 VRB/05 RMK AO2
14837KMSN MSN20010808111009308/08/01 11:10:31  5-MIN KMSN 081710Z VRB03KT 10SM CLR 31/22 A3003 760 58 2800 VRB/03 RMK AO2
14837KMSN MSN20010808111509308/08/01 11:15:31  5-MIN KMSN 081715Z VRB05KT 10SM CLR 31/22 A3003 760 58 2800 VRB/05 RMK AO2
14837KMSN MSN20010808112009308/08/01 11:20:31  5-MIN KMSN 081720Z 29006KT 10SM CLR 31/22 A3003 770 58 2800 290/06 RMK AO2
14837KMSN MSN20010808112509308/08/01 11:25:31  5-MIN KMSN 081725Z VRB06KT 10SM CLR 31/22 A3003 770 58 2800 VRB/06 RMK AO2
14837KMSN MSN20010808113009308/08/01 11:30:31  5-MIN KMSN 081730Z VRB05KT 10SM CLR 31/22 A3003 770 60 2800 VRB/05 RMK AO2
14837KMSN MSN20010808113509308/08/01 11:35:31  5-MIN KMSN 081735Z 29006KT 10SM CLR 31/22 A3003 770 60 2800 290/06 RMK AO2
14837KMSN MSN20010808114009308/08/01 11:40:31  5-MIN KMSN 081740Z 25005KT 10SM CLR 31/22 A3003 770 60 2800 250/05 RMK AO2
14837KMSN MSN20010808114509308/08/01 11:45:31  5-MIN KMSN 081745Z VRB05KT 10SM CLR 31/22 A3002 770 60 2800 VRB/05 RMK AO2
14837KMSN MSN20010808115013108/08/01 11:50:31  5-MIN KMSN 081750Z VRB06KT 10SM FEW040 31/22 A3002 770 58 2800 VRB/06 RMK AO2 SLP158 T03110222 10311 20256 58003
14837KMSN MSN20010808115509608/08/01 11:55:31  5-MIN KMSN 081755Z 23008KT 10SM FEW040 31/22 A3002 770 58 2800 230/08 RMK AO2
14837KMSN MSN20010808120009608/08/01 12:00:31  5-MIN KMSN 081800Z 23007KT 10SM FEW040 31/22 A3002 780 56 2800 220/07 RMK AO2
14837KMSN MSN20010808120509608/08/01 12:05:31  5-MIN KMSN 081805Z VRB04KT 10SM FEW040 31/22 A3001 780 58 2800 VRB/04 RMK AO2
14837KMSN MSN20010808121009608/08/01 12:10:31  5-MIN KMSN 081810Z 23005KT 10SM FEW040 31/22 A3001 780 56 2800 230/05 RMK AO2
14837KMSN MSN20010808121509608/08/01 12:15:31  5-MIN KMSN 081815Z VRB05KT 10SM FEW040 31/22 A3001 780 58 2800 VRB/05 RMK AO2
14837KMSN MSN20010808122009608/08/01 12:20:31  5-MIN KMSN 081820Z 22007KT 10SM FEW040 31/22 A3001 780 60 2800 220/07 RMK AO2
14837KMSN MSN20010808122509608/08/01 12:25:31  5-MIN KMSN 081825Z 22006KT 10SM FEW040 31/22 A3000 790 58 2800 220/06 RMK AO2
14837KMSN MSN20010808123009608/08/01 12:30:31  5-MIN KMSN 081830Z VRB06KT 10SM FEW040 31/22 A3000 790 58 2800 VRB/06 RMK AO2
14837KMSN MSN20010808123509608/08/01 12:35:31  5-MIN KMSN 081835Z 25007KT 10SM FEW040 31/22 A3000 790 56 2800 250/07 RMK AO2
14837KMSN MSN20010808124009608/08/01 12:40:31  5-MIN KMSN 081840Z 24006KT 10SM FEW040 31/22 A3000 790 56 2800 240/06 RMK AO2
14837KMSN MSN20010808124509608/08/01 12:45:31  5-MIN KMSN 081845Z 23005KT 10SM FEW040 31/22 A2999 800 56 2900 230/05 RMK AO2
14837KMSN MSN20010808125012908/08/01 12:50:31  5-MIN KMSN 081850Z 24007KT 210V270 10SM FEW040 31/22 A2999 800 58 2900 240/07 210V270 RMK AO2 SLP148 T03110222
14837KMSN MSN20010808125509308/08/01 12:55:31  5-MIN KMSN 081855Z 24007KT 10SM CLR 31/22 A2999 800 58 2900 240/07 RMK AO2
14837KMSN MSN20010808130009608/08/01 13:00:31  5-MIN KMSN 081900Z VRB04KT 10SM FEW040 31/22 A2999 800 58 2900 VRB/04 RMK AO2
14837KMSN MSN20010808130509608/08/01 13:05:31  5-MIN KMSN 081905Z VRB05KT 10SM FEW040 32/23 A2999 800 58 2900 VRB/05 RMK AO2
14837KMSN MSN20010808131009608/08/01 13:10:31  5-MIN KMSN 081910Z 26007KT 10SM FEW040 31/23 A2999 800 60 2900 260/07 RMK AO2
14837KMSN MSN20010808131509608/08/01 13:15:31  5-MIN KMSN 081915Z 22006KT 10SM FEW040 32/22 A2998 810 56 2900 220/06 RMK AO2
14837KMSN MSN20010808132009608/08/01 13:20:31  5-MIN KMSN 081920Z 22008KT 10SM FEW040 32/22 A2998 810 55 2900 220/08 RMK AO2
14837KMSN MSN20010808132509608/08/01 13:25:31  5-MIN KMSN 081925Z 22006KT 10SM FEW040 32/22 A2998 810 56 2900 220/06 RMK AO2
14837KMSN MSN20010808133009608/08/01 13:30:31  5-MIN KMSN 081930Z 20007KT 10SM FEW040 32/22 A2998 810 55 3000 190/07 RMK AO2
14837KMSN MSN20010808133509608/08/01 13:35:31  5-MIN KMSN 081935Z 24007KT 10SM FEW040 32/22 A2998 810 55 2900 240/07 RMK AO2
14837KMSN MSN20010808134009608/08/01 13:40:31  5-MIN KMSN 081940Z 24007KT 10SM FEW040 32/22 A2998 810 56 2900 240/07 RMK AO2
14837KMSN MSN20010808134509608/08/01 13:45:31  5-MIN KMSN 081945Z 20009KT 10SM FEW040 32/22 A2997 810 56 2900 200/09 RMK AO2
14837KMSN MSN20010808135011308/08/01 13:50:31  5-MIN KMSN 081950Z 22006KT 10SM FEW040 32/22 A2998 810 55 2900 220/06 RMK AO2 SLP142 T03170217
14837KMSN MSN20010808135510908/08/01 13:55:31  5-MIN KMSN 081955Z 21007KT 180V240 10SM CLR 32/22 A2997 820 55 3000 200/07 180V240 RMK AO2
14837KMSN MSN20010808140010908/08/01 14:00:31  5-MIN KMSN 082000Z 19007KT 170V240 10SM CLR 32/22 A2997 820 56 2900 190/07 170V240 RMK AO2
14837KMSN MSN20010808140509308/08/01 14:05:31  5-MIN KMSN 082005Z 22008KT 10SM CLR 32/22 A2997 820 56 2900 220/08 RMK AO2
14837KMSN MSN20010808141011208/08/01 14:10:31  5-MIN KMSN 082010Z 21007KT 160V230 10SM FEW040 32/22 A2997 820 56 2900 200/07 160V230 RMK AO2
14837KMSN MSN20010808141509608/08/01 14:15:31  5-MIN KMSN 082015Z 22007KT 10SM FEW040 32/22 A2996 820 56 2900 220/07 RMK AO2
14837KMSN MSN20010808142009608/08/01 14:20:31  5-MIN KMSN 082020Z VRB04KT 10SM FEW040 32/23 A2996 830 58 3000 VRB/04 RMK AO2
14837KMSN MSN20010808142509608/08/01 14:25:31  5-MIN KMSN 082025Z 21009KT 10SM FEW040 32/22 A2996 830 55 3000 210/09 RMK AO2
14837KMSN MSN20010808143009608/08/01 14:30:31  5-MIN KMSN 082030Z 23008KT 10SM FEW040 32/22 A2996 830 55 3000 230/08 RMK AO2
14837KMSN MSN20010808143509608/08/01 14:35:31  5-MIN KMSN 082035Z 22009KT 10SM FEW040 32/22 A2996 830 55 3000 220/09 RMK AO2
14837KMSN MSN20010808144011208/08/01 14:40:31  5-MIN KMSN 082040Z 20007KT 180V250 10SM FEW040 32/22 A2996 830 56 3000 200/07 180V250 RMK AO2
14837KMSN MSN20010808144509608/08/01 14:45:31  5-MIN KMSN 082045Z 20009KT 10SM FEW040 32/22 A2996 830 53 3000 200/09 RMK AO2
14837KMSN MSN20010808145011908/08/01 14:50:31  5-MIN KMSN 082050Z 21007KT 10SM FEW045 32/22 A2996 830 56 3000 210/07 RMK AO2 SLP137 T03170222 58007
14837KMSN MSN20010808145509308/08/01 14:55:31  5-MIN KMSN 082055Z 22010KT 10SM CLR 32/21 A2996 830 53 3000 220/10 RMK AO2
14837KMSN MSN20010808150009608/08/01 15:00:31  5-MIN KMSN 082100Z 21008KT 10SM FEW045 32/22 A2996 830 55 3000 210/08 RMK AO2
14837KMSN MSN20010808150509608/08/01 15:05:31  5-MIN KMSN 082105Z 21008KT 10SM FEW045 32/21 A2995 830 53 3000 210/08 RMK AO2
14837KMSN MSN20010808151011208/08/01 15:10:31  5-MIN KMSN 082110Z 21008KT 190V250 10SM FEW045 32/22 A2996 830 55 3000 210/08 190V250 RMK AO2
14837KMSN MSN20010808151509608/08/01 15:15:31  5-MIN KMSN 082115Z 20008KT 10SM FEW045 32/22 A2995 830 56 3000 200/08 RMK AO2
14837KMSN MSN20010808152009608/08/01 15:20:31  5-MIN KMSN 082120Z 22007KT 10SM FEW045 32/22 A2995 840 55 3000 220/07 RMK AO2
14837KMSN MSN20010808152509608/08/01 15:25:31  5-MIN KMSN 082125Z 22008KT 10SM FEW045 32/22 A2995 830 55 3000 220/08 RMK AO2
14837KMSN MSN20010808153009608/08/01 15:30:31  5-MIN KMSN 082130Z 23008KT 10SM FEW045 31/22 A2995 840 58 2900 230/08 RMK AO2
14837KMSN MSN20010808153509608/08/01 15:35:31  5-MIN KMSN 082135Z 23006KT 10SM FEW045 31/22 A2995 840 58 2900 230/06 RMK AO2
14837KMSN MSN20010808154011208/08/01 15:40:31  5-MIN KMSN 082140Z 21007KT 160V240 10SM FEW045 31/23 A2994 840 60 2900 210/07 160V240 RMK AO2
14837KMSN MSN20010808154509608/08/01 15:45:31  5-MIN KMSN 082145Z VRB06KT 10SM FEW045 31/22 A2994 840 58 2900 VRB/06 RMK AO2
14837KMSN MSN20010808155011308/08/01 15:50:31  5-MIN KMSN 082150Z 24006KT 10SM FEW045 31/22 A2994 840 58 2900 240/06 RMK AO2 SLP132 T03110222
14837KMSN MSN20010808155509608/08/01 15:55:31  5-MIN KMSN 082155Z VRB05KT 10SM FEW050 31/22 A2994 850 58 2900 VRB/05 RMK AO2
14837KMSN MSN20010808160009608/08/01 16:00:31  5-MIN KMSN 082200Z VRB06KT 10SM FEW050 31/23 A2994 850 60 2900 VRB/06 RMK AO2
14837KMSN MSN20010808160509608/08/01 16:05:31  5-MIN KMSN 082205Z VRB06KT 10SM FEW050 31/22 A2994 850 58 2900 VRB/06 RMK AO2
14837KMSN MSN20010808161009608/08/01 16:10:31  5-MIN KMSN 082210Z VRB06KT 10SM FEW050 31/22 A2994 850 58 2900 VRB/06 RMK AO2
14837KMSN MSN20010808161509608/08/01 16:15:31  5-MIN KMSN 082215Z 23007KT 10SM FEW050 31/22 A2994 850 60 2900 230/07 RMK AO2
14837KMSN MSN20010808162009608/08/01 16:20:31  5-MIN KMSN 082220Z VRB04KT 10SM FEW050 31/22 A2994 850 60 2900 VRB/04 RMK AO2
14837KMSN MSN20010808162509608/08/01 16:25:31  5-MIN KMSN 082225Z VRB05KT 10SM FEW050 31/23 A2993 850 62 2900 VRB/05 RMK AO2
14837KMSN MSN20010808163009608/08/01 16:30:31  5-MIN KMSN 082230Z VRB06KT 10SM FEW050 31/22 A2993 850 60 2900 VRB/06 RMK AO2
14837KMSN MSN20010808163509608/08/01 16:35:31  5-MIN KMSN 082235Z VRB06KT 10SM FEW050 31/22 A2993 860 60 2900 VRB/06 RMK AO2
14837KMSN MSN20010808164009308/08/01 16:40:31  5-MIN KMSN 082240Z VRB05KT 10SM CLR 31/22 A2993 860 60 2900 VRB/05 RMK AO2
14837KMSN MSN20010808164509308/08/01 16:45:31  5-MIN KMSN 082245Z VRB06KT 10SM CLR 31/22 A2993 860 58 2900 VRB/06 RMK AO2
14837KMSN MSN20010808165011008/08/01 16:50:31  5-MIN KMSN 082250Z 23005KT 10SM CLR 31/22 A2993 860 58 2900 230/05 RMK AO2 SLP126 T03060217
14837KMSN MSN20010808165509308/08/01 16:55:31  5-MIN KMSN 082255Z 23006KT 10SM CLR 31/22 A2992 860 58 2900 230/06 RMK AO2
14837KMSN MSN20010808170009308/08/01 17:00:31  5-MIN KMSN 082300Z 23007KT 10SM CLR 31/21 A2992 860 56 2900 230/07 RMK AO2
14837KMSN MSN20010808170509308/08/01 17:05:31  5-MIN KMSN 082305Z 23006KT 10SM CLR 31/21 A2992 860 56 2900 230/06 RMK AO2
14837KMSN MSN20010808171009308/08/01 17:10:31  5-MIN KMSN 082310Z 23005KT 10SM CLR 31/22 A2992 860 58 2900 230/05 RMK AO2
14837KMSN MSN20010808171509308/08/01 17:15:31  5-MIN KMSN 082315Z VRB05KT 10SM CLR 31/22 A2992 860 58 2900 VRB/05 RMK AO2
14837KMSN MSN20010808172009308/08/01 17:20:31  5-MIN KMSN 082320Z VRB05KT 10SM CLR 30/22 A2992 860 60 2800 VRB/05 RMK AO2
14837KMSN MSN20010808172509308/08/01 17:25:31  5-MIN KMSN 082325Z 22009KT 10SM CLR 30/21 A2992 870 58 2800 220/09 RMK AO2
14837KMSN MSN20010808173009308/08/01 17:30:31  5-MIN KMSN 082330Z 22007KT 10SM CLR 30/21 A2992 870 58 2800 210/07 RMK AO2
14837KMSN MSN20010808173509308/08/01 17:35:31  5-MIN KMSN 082335Z 21007KT 10SM CLR 30/21 A2992 870 58 2800 210/07 RMK AO2
14837KMSN MSN20010808174009308/08/01 17:40:31  5-MIN KMSN 082340Z 22007KT 10SM CLR 30/21 A2992 870 58 2800 220/07 RMK AO2
14837KMSN MSN20010808174509308/08/01 17:45:31  5-MIN KMSN 082345Z 20006KT 10SM CLR 30/21 A2991 870 58 2800 200/06 RMK AO2
14837KMSN MSN20010808175012808/08/01 17:50:31  5-MIN KMSN 082350Z 22006KT 10SM CLR 30/21 A2991 870 58 2800 220/06 RMK AO2 SLP123 T03000211 10322 20300 56021
14837KMSN MSN20010808175509308/08/01 17:55:31  5-MIN KMSN 082355Z 22008KT 10SM CLR 30/21 A2991 870 56 2800 220/08 RMK AO2
14837KMSN MSN20010808180009308/08/01 18:00:31  5-MIN KMSN 090000Z 22007KT 10SM CLR 30/20 A2992 870 54 2800 220/07 RMK AO2
14837KMSN MSN20010808180509308/08/01 18:05:31  5-MIN KMSN 090005Z 22006KT 10SM CLR 29/20 A2992 870 56 2800 220/06 RMK AO2
14837KMSN MSN20010808181009308/08/01 18:10:31  5-MIN KMSN 090010Z 22006KT 10SM CLR 29/20 A2992 870 56 2800 220/06 RMK AO2
14837KMSN MSN20010808181509308/08/01 18:15:31  5-MIN KMSN 090015Z 21005KT 10SM CLR 29/20 A2992 870 56 2800 210/05 RMK AO2
14837KMSN MSN20010808182009308/08/01 18:20:31  5-MIN KMSN 090020Z 22005KT 10SM CLR 29/20 A2992 870 56 2800 220/05 RMK AO2
14837KMSN MSN20010808182509208/08/01 18:25:31  5-MIN KMSN 090025Z 22007KT 9SM CLR 29/21 A2992 870 58 2800 220/07 RMK AO2
14837KMSN MSN20010808183009208/08/01 18:30:31  5-MIN KMSN 090030Z 22006KT 9SM CLR 29/20 A2992 860 56 2800 210/06 RMK AO2
14837KMSN MSN20010808183509308/08/01 18:35:31  5-MIN KMSN 090035Z 22006KT 10SM CLR 29/21 A2992 860 58 2800 220/06 RMK AO2
14837KMSN MSN20010808184009308/08/01 18:40:31  5-MIN KMSN 090040Z 22005KT 10SM CLR 29/21 A2992 860 60 2700 220/05 RMK AO2
14837KMSN MSN20010808184509308/08/01 18:45:31  5-MIN KMSN 090045Z 21005KT 10SM CLR 29/21 A2992 860 62 2700 210/05 RMK AO2
14837KMSN MSN20010808185011008/08/01 18:50:31  5-MIN KMSN 090050Z 21005KT 10SM CLR 29/21 A2992 860 62 2700 210/05 RMK AO2 SLP126 T02890211
14837KMSN MSN20010808185509208/08/01 18:55:31  5-MIN KMSN 090055Z 22005KT 8SM CLR 29/21 A2992 860 62 2700 210/05 RMK AO2
14837KMSN MSN20010808190009208/08/01 19:00:31  5-MIN KMSN 090100Z 21005KT 8SM CLR 28/21 A2992 860 64 2600 210/05 RMK AO2
14837KMSN MSN20010808190509208/08/01 19:05:31  5-MIN KMSN 090105Z 22005KT 7SM CLR 28/21 A2992 860 64 2600 220/05 RMK AO2
14837KMSN MSN20010808191009208/08/01 19:10:31  5-MIN KMSN 090110Z 21005KT 7SM CLR 28/21 A2992 860 64 2600 210/05 RMK AO2
14837KMSN MSN20010808191509208/08/01 19:15:31  5-MIN KMSN 090115Z 21005KT 8SM CLR 28/22 A2992 860 66 2600 210/05 RMK AO2
14837KMSN MSN20010808192009208/08/01 19:20:31  5-MIN KMSN 090120Z 21005KT 7SM CLR 28/22 A2992 860 66 2600 210/05 RMK AO2
14837KMSN MSN20010808192509208/08/01 19:25:31  5-MIN KMSN 090125Z 22006KT 7SM CLR 28/22 A2992 860 66 2600 220/06 RMK AO2
14837KMSN MSN20010808193009208/08/01 19:30:31  5-MIN KMSN 090130Z 22005KT 7SM CLR 28/22 A2993 860 66 2600 220/05 RMK AO2
14837KMSN MSN20010808193509208/08/01 19:35:31  5-MIN KMSN 090135Z 21004KT 8SM CLR 28/22 A2992 860 66 2600 210/04 RMK AO2
14837KMSN MSN20010808194009208/08/01 19:40:31  5-MIN KMSN 090140Z 21006KT 7SM CLR 28/22 A2992 860 69 2600 210/06 RMK AO2
14837KMSN MSN20010808194509208/08/01 19:45:31  5-MIN KMSN 090145Z 21006KT 7SM CLR 28/22 A2992 860 66 2600 210/06 RMK AO2
14837KMSN MSN20010808195010908/08/01 19:50:31  5-MIN KMSN 090150Z 21006KT 8SM CLR 28/22 A2992 860 66 2600 210/06 RMK AO2 SLP125 T02830217
14837KMSN MSN20010808195509208/08/01 19:55:31  5-MIN KMSN 090155Z 21006KT 7SM CLR 28/22 A2992 860 66 2600 210/06 RMK AO2
14837KMSN MSN20010808200009208/08/01 20:00:31  5-MIN KMSN 090200Z VRB05KT 7SM CLR 28/22 A2993 860 66 2600 VRB/05 RMK AO2
14837KMSN MSN20010808200509208/08/01 20:05:31  5-MIN KMSN 090205Z 21004KT 7SM CLR 28/22 A2993 860 69 2600 210/04 RMK AO2
14837KMSN MSN20010808201009208/08/01 20:10:31  5-MIN KMSN 090210Z 22006KT 7SM CLR 28/22 A2993 860 69 2600 220/06 RMK AO2
14837KMSN MSN20010808201509208/08/01 20:15:31  5-MIN KMSN 090215Z 21005KT 7SM CLR 28/22 A2993 860 69 2600 210/05 RMK AO2
14837KMSN MSN20010808202009208/08/01 20:20:31  5-MIN KMSN 090220Z 22006KT 7SM CLR 28/22 A2993 860 69 2600 210/06 RMK AO2
14837KMSN MSN20010808202509508/08/01 20:25:31  5-MIN KMSN 090225Z 22004KT 6SM HZ CLR 28/22 A2993 860 69 2600 220/04 RMK AO2
14837KMSN MSN20010808203009508/08/01 20:30:31  5-MIN KMSN 090230Z 21005KT 6SM HZ CLR 27/22 A2993 860 71 2500 210/05 RMK AO2
14837KMSN MSN20010808203509508/08/01 20:35:31  5-MIN KMSN 090235Z 22006KT 6SM HZ CLR 27/22 A2993 860 71 2500 210/06 RMK AO2
14837KMSN MSN20010808204009508/08/01 20:40:31  5-MIN KMSN 090240Z 22005KT 6SM HZ CLR 27/22 A2993 850 71 2500 210/05 RMK AO2
14837KMSN MSN20010808204509508/08/01 20:45:31  5-MIN KMSN 090245Z 22005KT 6SM HZ CLR 27/22 A2993 850 71 2500 220/05 RMK AO2
14837KMSN MSN20010808205011808/08/01 20:50:31  5-MIN KMSN 090250Z 22005KT 6SM HZ CLR 27/22 A2993 860 74 2500 220/05 RMK AO2 SLP128 T02720222 56014
14837KMSN MSN20010808205509508/08/01 20:55:31  5-MIN KMSN 090255Z 22004KT 6SM HZ CLR 27/22 A2993 850 74 2500 220/04 RMK AO2
14837KMSN MSN20010808210009508/08/01 21:00:31  5-MIN KMSN 090300Z 22005KT 6SM HZ CLR 27/22 A2993 860 76 2400 220/05 RMK AO2
14837KMSN MSN20010808210509508/08/01 21:05:31  5-MIN KMSN 090305Z 22004KT 6SM HZ CLR 27/22 A2993 860 74 2500 220/04 RMK AO2
14837KMSN MSN20010808211009508/08/01 21:10:31  5-MIN KMSN 090310Z 22005KT 6SM HZ CLR 27/22 A2993 860 76 2400 220/05 RMK AO2
14837KMSN MSN20010808211509508/08/01 21:15:31  5-MIN KMSN 090315Z 22005KT 6SM HZ CLR 27/22 A2992 860 76 2400 210/05 RMK AO2
14837KMSN MSN20010808212009508/08/01 21:20:31  5-MIN KMSN 090320Z 21005KT 5SM HZ CLR 27/22 A2992 860 76 2400 210/05 RMK AO2
14837KMSN MSN20010808212509508/08/01 21:25:31  5-MIN KMSN 090325Z VRB05KT 5SM HZ CLR 27/22 A2992 860 76 2400 VRB/05 RMK AO2
14837KMSN MSN20010808213009508/08/01 21:30:31  5-MIN KMSN 090330Z 21004KT 5SM HZ CLR 27/22 A2992 870 76 2400 210/04 RMK AO2
14837KMSN MSN20010808213509508/08/01 21:35:31  5-MIN KMSN 090335Z 20004KT 5SM HZ CLR 27/22 A2992 870 76 2400 200/04 RMK AO2
14837KMSN MSN20010808214009508/08/01 21:40:31  5-MIN KMSN 090340Z 19005KT 5SM HZ CLR 27/22 A2991 870 76 2500 190/05 RMK AO2
14837KMSN MSN20010808214509508/08/01 21:45:31  5-MIN KMSN 090345Z 19007KT 5SM HZ CLR 27/22 A2991 870 74 2500 190/07 RMK AO2
14837KMSN MSN20010808215011208/08/01 21:50:31  5-MIN KMSN 090350Z 19007KT 5SM HZ CLR 27/22 A2991 870 74 2500 190/07 RMK AO2 SLP121 T02720222
14837KMSN MSN20010808215509508/08/01 21:55:31  5-MIN KMSN 090355Z 19007KT 5SM HZ CLR 27/22 A2991 870 74 2500 190/07 RMK AO2
14837KMSN MSN20010808220009508/08/01 22:00:31  5-MIN KMSN 090400Z 19006KT 5SM HZ CLR 27/22 A2991 880 73 2500 190/06 RMK AO2
14837KMSN MSN20010808220509508/08/01 22:05:31  5-MIN KMSN 090405Z VRB04KT 5SM HZ CLR 27/22 A2991 880 73 2500 VRB/04 RMK AO2
14837KMSN MSN20010808221009508/08/01 22:10:31  5-MIN KMSN 090410Z VRB04KT 5SM HZ CLR 27/22 A2990 880 73 2500 VRB/04 RMK AO2
14837KMSN MSN20010808221509508/08/01 22:15:31  5-MIN KMSN 090415Z 21005KT 5SM HZ CLR 27/22 A2990 880 73 2500 200/05 RMK AO2
14837KMSN MSN20010808222009508/08/01 22:20:31  5-MIN KMSN 090420Z 20006KT 5SM HZ CLR 27/22 A2990 880 74 2500 200/06 RMK AO2
14837KMSN MSN20010808222509508/08/01 22:25:31  5-MIN KMSN 090425Z 20006KT 5SM HZ CLR 27/22 A2990 890 76 2500 200/06 RMK AO2
14837KMSN MSN20010808223009508/08/01 22:30:31  5-MIN KMSN 090430Z 18006KT 5SM HZ CLR 27/22 A2989 890 76 2500 180/06 RMK AO2
14837KMSN MSN20010808223509508/08/01 22:35:31  5-MIN KMSN 090435Z 18007KT 4SM HZ CLR 26/22 A2989 890 79 2400 180/07 RMK AO2
14837KMSN MSN20010808224009508/08/01 22:40:31  5-MIN KMSN 090440Z 18006KT 4SM HZ CLR 26/22 A2989 890 79 2400 180/06 RMK AO2
14837KMSN MSN20010808224509508/08/01 22:45:31  5-MIN KMSN 090445Z 18005KT 4SM HZ CLR 27/22 A2989 890 76 2500 180/05 RMK AO2
14837KMSN MSN20010808225011208/08/01 22:50:31  5-MIN KMSN 090450Z 18007KT 4SM HZ CLR 27/22 A2989 890 76 2500 180/07 RMK AO2 SLP114 T02670222
14837KMSN MSN20010808225509508/08/01 22:55:31  5-MIN KMSN 090455Z 17006KT 4SM HZ CLR 26/22 A2989 890 79 2400 170/06 RMK AO2
14837KMSN MSN20010808230009508/08/01 23:00:31  5-MIN KMSN 090500Z 18006KT 4SM HZ CLR 26/22 A2989 890 79 2400 170/06 RMK AO2
14837KMSN MSN20010808230509508/08/01 23:05:31  5-MIN KMSN 090505Z 18006KT 4SM HZ CLR 26/22 A2989 890 79 2400 180/06 RMK AO2
14837KMSN MSN20010808231009508/08/01 23:10:31  5-MIN KMSN 090510Z 18006KT 4SM HZ CLR 26/22 A2989 890 79 2400 180/06 RMK AO2
14837KMSN MSN20010808231509508/08/01 23:15:31  5-MIN KMSN 090515Z 18006KT 4SM HZ CLR 26/22 A2989 900 79 2400 180/06 RMK AO2
14837KMSN MSN20010808232009508/08/01 23:20:31  5-MIN KMSN 090520Z 18007KT 4SM HZ CLR 26/22 A2989 890 79 2400 180/07 RMK AO2
14837KMSN MSN20010808232509508/08/01 23:25:31  5-MIN KMSN 090525Z 18007KT 4SM HZ CLR 26/22 A2989 890 81 2400 180/07 RMK AO2
14837KMSN MSN20010808233009508/08/01 23:30:31  5-MIN KMSN 090530Z 19006KT 4SM HZ CLR 26/22 A2989 890 81 2400 190/06 RMK AO2
14837KMSN MSN20010808233509508/08/01 23:35:31  5-MIN KMSN 090535Z 19006KT 4SM HZ CLR 26/22 A2989 890 79 2400 190/06 RMK AO2
14837KMSN MSN20010808234009508/08/01 23:40:31  5-MIN KMSN 090540Z 19005KT 4SM HZ CLR 26/22 A2989 890 81 2300 190/05 RMK AO2
14837KMSN MSN20010808234509508/08/01 23:45:31  5-MIN KMSN 090545Z 19006KT 4SM HZ CLR 26/22 A2989 890 81 2300 190/06 RMK AO2
14837KMSN MSN20010808235014008/08/01 23:50:31  5-MIN KMSN 090550Z 20005KT 4SM HZ CLR 26/22 A2989 890 81 2300 190/05 RMK AO2 SLP116 T02560222 10300 20256 403220228 51005
14837KMSN MSN20010808235509508/08/01 23:55:31  5-MIN KMSN 090555Z VRB05KT 4SM HZ CLR 26/22 A2990 890 81 2300 VRB/05 RMK AO2
14837KMSN MSN20010809000009508/09/01 00:00:31  5-MIN KMSN 090600Z 20005KT 4SM HZ CLR 26/22 A2990 890 79 2400 200/05 RMK AO2
14837KMSN MSN20010809000509508/09/01 00:05:31  5-MIN KMSN 090605Z VRB04KT 4SM HZ CLR 26/22 A2990 880 79 2400 VRB/04 RMK AO2
14837KMSN MSN20010809001009508/09/01 00:10:31  5-MIN KMSN 090610Z 21004KT 4SM HZ CLR 26/22 A2990 880 79 2400 210/04 RMK AO2
14837KMSN MSN20010809001509508/09/01 00:15:31  5-MIN KMSN 090615Z 21005KT 4SM HZ CLR 26/22 A2990 880 79 2400 210/05 RMK AO2
14837KMSN MSN20010809002009808/09/01 00:20:31  5-MIN KMSN 090620Z 21005KT 4SM HZ FEW038 26/22 A2991 880 79 2400 210/05 RMK AO2
14837KMSN MSN20010809002509808/09/01 00:25:31  5-MIN KMSN 090625Z 22006KT 4SM HZ FEW038 26/22 A2991 880 79 2400 220/06 RMK AO2
14837KMSN MSN20010809003009808/09/01 00:30:31  5-MIN KMSN 090630Z 21007KT 4SM HZ SCT040 26/22 A2990 880 79 2400 210/07 RMK AO2
14837KMSN MSN20010809003509808/09/01 00:35:31  5-MIN KMSN 090635Z 20006KT 4SM HZ BKN040 26/22 A2990 880 79 2400 200/06 RMK AO2
14837KMSN MSN20010809004009808/09/01 00:40:31  5-MIN KMSN 090640Z 21006KT 4SM HZ BKN040 26/22 A2991 880 79 2400 210/06 RMK AO2
14837KMSN MSN20010809004509808/09/01 00:45:31  5-MIN KMSN 090645Z 22006KT 4SM HZ BKN040 26/22 A2991 880 79 2400 220/06 RMK AO2
14837KMSN MSN20010809005011508/09/01 00:50:31  5-MIN KMSN 090650Z 22008KT 4SM HZ BKN038 27/23 A2991 870 79 2500 220/08 RMK AO2 SLP121 T02670228
14837KMSN MSN20010809005509808/09/01 00:55:31  5-MIN KMSN 090655Z 23007KT 4SM HZ OVC038 27/23 A2992 870 76 2500 220/07 RMK AO2
14837KMSN MSN20010809010009808/09/01 01:00:31  5-MIN KMSN 090700Z 22007KT 4SM HZ BKN038 27/22 A2992 870 76 2400 220/07 RMK AO2
14837KMSN MSN20010809010509808/09/01 01:05:31  5-MIN KMSN 090705Z 22006KT 4SM HZ BKN038 27/22 A2992 870 76 2400 210/06 RMK AO2
14837KMSN MSN20010809011009808/09/01 01:10:31  5-MIN KMSN 090710Z 22005KT 4SM HZ SCT038 26/22 A2992 870 79 2400 220/05 RMK AO2
14837KMSN MSN20010809011509808/09/01 01:15:31  5-MIN KMSN 090715Z 22006KT 4SM HZ SCT038 26/22 A2992 860 79 2400 220/06 RMK AO2
14837KMSN MSN20010809012009808/09/01 01:20:31  5-MIN KMSN 090720Z VRB06KT 4SM HZ FEW038 26/22 A2992 860 79 2400 VRB/06 RMK AO2
14837KMSN MSN20010809012509808/09/01 01:25:31  5-MIN KMSN 090725Z 22008KT 4SM HZ FEW038 26/22 A2992 860 79 2400 220/08 RMK AO2
14837KMSN MSN20010809013009808/09/01 01:30:31  5-MIN KMSN 090730Z 22007KT 4SM HZ FEW038 26/22 A2992 870 79 2400 220/07 RMK AO2
14837KMSN MSN20010809013509808/09/01 01:35:31  5-MIN KMSN 090735Z 21007KT 4SM HZ FEW038 26/22 A2992 870 79 2400 210/07 RMK AO2
14837KMSN MSN20010809014009808/09/01 01:40:31  5-MIN KMSN 090740Z 21007KT 4SM HZ FEW038 26/22 A2992 870 79 2400 210/07 RMK AO2
14837KMSN MSN20010809014509808/09/01 01:45:31  5-MIN KMSN 090745Z 22008KT 4SM HZ SCT038 26/22 A2991 870 79 2400 210/08 RMK AO2
14837KMSN MSN20010809015013108/09/01 01:50:31  5-MIN KMSN 090750Z 21007KT 190V250 4SM HZ SCT038 26/22 A2991 870 79 2400 210/07 190V250 RMK AO2 SLP122 T02610222
14837KMSN MSN20010809015509508/09/01 01:55:31  5-MIN KMSN 090755Z 22006KT 4SM HZ CLR 26/22 A2992 870 79 2400 220/06 RMK AO2
14837KMSN MSN20010809020009508/09/01 02:00:31  5-MIN KMSN 090800Z 21006KT 4SM HZ CLR 26/22 A2991 870 79 2400 210/06 RMK AO2
14837KMSN MSN20010809020509508/09/01 02:05:31  5-MIN KMSN 090805Z 21006KT 4SM HZ CLR 26/22 A2991 880 79 2400 210/06 RMK AO2
14837KMSN MSN20010809021009508/09/01 02:10:31  5-MIN KMSN 090810Z VRB06KT 4SM HZ CLR 26/22 A2991 880 81 2300 VRB/06 RMK AO2
14837KMSN MSN20010809021509508/09/01 02:15:31  5-MIN KMSN 090815Z 22005KT 4SM HZ CLR 26/22 A2991 880 81 2300 220/05 RMK AO2
14837KMSN MSN20010809022009508/09/01 02:20:31  5-MIN KMSN 090820Z 21006KT 4SM HZ CLR 26/22 A2990 880 81 2300 210/06 RMK AO2
14837KMSN MSN20010809022509508/09/01 02:25:31  5-MIN KMSN 090825Z 22007KT 4SM HZ CLR 26/22 A2990 880 81 2300 210/07 RMK AO2
14837KMSN MSN20010809023009508/09/01 02:30:31  5-MIN KMSN 090830Z 21006KT 4SM HZ CLR 26/22 A2990 880 81 2300 210/06 RMK AO2
14837KMSN MSN20010809023509508/09/01 02:35:31  5-MIN KMSN 090835Z 21007KT 4SM HZ CLR 26/22 A2990 880 81 2300 200/07 RMK AO2
14837KMSN MSN20010809024009508/09/01 02:40:31  5-MIN KMSN 090840Z 22009KT 4SM HZ CLR 26/22 A2990 890 81 2300 220/09 RMK AO2
14837KMSN MSN20010809024509508/09/01 02:45:31  5-MIN KMSN 090845Z 20006KT 4SM HZ CLR 26/22 A2989 890 81 2300 200/06 RMK AO2
14837KMSN MSN20010809025011808/09/01 02:50:31  5-MIN KMSN 090850Z 21007KT 4SM HZ CLR 26/22 A2989 890 81 2300 210/07 RMK AO2 SLP115 T02560222 55012
14837KMSN MSN20010809025509508/09/01 02:55:31  5-MIN KMSN 090855Z 21006KT 4SM HZ CLR 26/22 A2989 890 81 2400 210/06 RMK AO2
14837KMSN MSN20010809030009508/09/01 03:00:31  5-MIN KMSN 090900Z 21007KT 4SM HZ CLR 26/22 A2989 890 81 2400 210/07 RMK AO2
14837KMSN MSN20010809030509508/09/01 03:05:31  5-MIN KMSN 090905Z 20006KT 4SM HZ CLR 26/22 A2989 900 81 2400 200/06 RMK AO2
14837KMSN MSN20010809031009508/09/01 03:10:31  5-MIN KMSN 090910Z 20004KT 4SM HZ CLR 26/22 A2989 900 81 2400 190/04 RMK AO2
14837KMSN MSN20010809031509508/09/01 03:15:31  5-MIN KMSN 090915Z 22005KT 4SM HZ CLR 25/22 A2989 900 84 2300 220/05 RMK AO2
14837KMSN MSN20010809032009508/09/01 03:20:31  5-MIN KMSN 090920Z 21006KT 4SM HZ CLR 26/22 A2988 900 81 2400 210/06 RMK AO2
14837KMSN MSN20010809032509508/09/01 03:25:31  5-MIN KMSN 090925Z 20005KT 4SM HZ CLR 26/22 A2988 900 81 2400 200/05 RMK AO2
14837KMSN MSN20010809033009508/09/01 03:30:31  5-MIN KMSN 090930Z 21006KT 4SM HZ CLR 25/22 A2988 900 84 2300 210/06 RMK AO2
14837KMSN MSN20010809033509508/09/01 03:35:31  5-MIN KMSN 090935Z 20004KT 4SM HZ CLR 26/22 A2988 910 81 2400 200/04 RMK AO2
14837KMSN MSN20010809034009508/09/01 03:40:31  5-MIN KMSN 090940Z VRB05KT 4SM HZ CLR 25/22 A2988 900 84 2300 VRB/05 RMK AO2
14837KMSN MSN20010809034509508/09/01 03:45:31  5-MIN KMSN 090945Z 21008KT 4SM HZ CLR 25/22 A2988 900 84 2300 210/08 RMK AO2
14837KMSN MSN20010809035011208/09/01 03:50:31  5-MIN KMSN 090950Z 20005KT 3SM HZ CLR 26/22 A2988 900 81 2400 200/05 RMK AO2 SLP110 T02560222
14837KMSN MSN20010809035509508/09/01 03:55:31  5-MIN KMSN 090955Z 20007KT 4SM HZ CLR 26/22 A2988 900 81 2400 200/07 RMK AO2
14837KMSN MSN20010809040009508/09/01 04:00:31  5-MIN KMSN 091000Z 20006KT 4SM HZ CLR 26/22 A2988 900 81 2400 200/06 RMK AO2
14837KMSN MSN20010809040509508/09/01 04:05:31  5-MIN KMSN 091005Z 21006KT 4SM HZ CLR 26/22 A2988 910 81 2400 210/06 RMK AO2
14837KMSN MSN20010809041009508/09/01 04:10:31  5-MIN KMSN 091010Z 20006KT 4SM HZ CLR 26/22 A2987 910 81 2400 200/06 RMK AO2
14837KMSN MSN20010809041509508/09/01 04:15:31  5-MIN KMSN 091015Z 20006KT 4SM HZ CLR 26/22 A2987 910 81 2400 200/06 RMK AO2
14837KMSN MSN20010809042009508/09/01 04:20:31  5-MIN KMSN 091020Z 21007KT 4SM HZ CLR 26/22 A2987 910 81 2400 200/07 RMK AO2
14837KMSN MSN20010809042509508/09/01 04:25:31  5-MIN KMSN 091025Z VRB06KT 4SM HZ CLR 25/22 A2987 910 84 2300 VRB/06 RMK AO2
14837KMSN MSN20010809043009508/09/01 04:30:31  5-MIN KMSN 091030Z 21007KT 4SM HZ CLR 25/22 A2987 910 84 2300 210/07 RMK AO2
14837KMSN MSN20010809043509508/09/01 04:35:31  5-MIN KMSN 091035Z 22006KT 4SM HZ CLR 25/22 A2987 910 84 2300 220/06 RMK AO2
14837KMSN MSN20010809044009508/09/01 04:40:31  5-MIN KMSN 091040Z VRB05KT 4SM HZ CLR 25/22 A2987 910 84 2300 VRB/05 RMK AO2
14837KMSN MSN20010809044509508/09/01 04:45:31  5-MIN KMSN 091045Z 21006KT 4SM HZ CLR 25/22 A2987 910 84 2300 210/06 RMK AO2
14837KMSN MSN20010809045011508/09/01 04:50:31  5-MIN KMSN 091050Z 22007KT 3SM HZ SCT055 25/22 A2987 910 84 2300 210/07 RMK AO2 SLP109 T02500222
14837KMSN MSN20010809045509808/09/01 04:55:31  5-MIN KMSN 091055Z 21006KT 4SM HZ FEW055 25/22 A2988 910 84 2300 210/06 RMK AO2
14837KMSN MSN20010809050009508/09/01 05:00:31  5-MIN KMSN 091100Z 21005KT 4SM HZ CLR 25/22 A2987 910 84 2300 210/05 RMK AO2
14837KMSN MSN20010809050509508/09/01 05:05:31  5-MIN KMSN 091105Z VRB04KT 3SM HZ CLR 25/22 A2988 910 84 2300 VRB/04 RMK AO2
14837KMSN MSN20010809051009808/09/01 05:10:31  5-MIN KMSN 091110Z 22007KT 3SM HZ SCT055 25/22 A2987 910 84 2300 220/07 RMK AO2
14837KMSN MSN20010809051509808/09/01 05:15:31  5-MIN KMSN 091115Z 22006KT 3SM HZ SCT055 25/22 A2987 910 84 2300 220/06 RMK AO2
14837KMSN MSN20010809052009808/09/01 05:20:31  5-MIN KMSN 091120Z 21005KT 3SM HZ SCT055 25/22 A2987 910 84 2300 210/05 RMK AO2
14837KMSN MSN20010809052509808/09/01 05:25:31  5-MIN KMSN 091125Z 21007KT 3SM HZ FEW055 25/22 A2987 910 84 2300 210/07 RMK AO2
14837KMSN MSN20010809053009808/09/01 05:30:31  5-MIN KMSN 091130Z 21007KT 3SM HZ FEW055 25/22 A2987 910 84 2300 210/07 RMK AO2
14837KMSN MSN20010809053509808/09/01 05:35:31  5-MIN KMSN 091135Z 20005KT 3SM HZ FEW055 25/22 A2987 910 84 2300 200/05 RMK AO2
14837KMSN MSN20010809054009808/09/01 05:40:31  5-MIN KMSN 091140Z 21006KT 3SM HZ FEW055 25/22 A2987 910 84 2300 210/06 RMK AO2
14837KMSN MSN20010809054509808/09/01 05:45:31  5-MIN KMSN 091145Z 20006KT 3SM HZ FEW055 25/22 A2987 910 84 2300 200/06 RMK AO2
14837KMSN MSN20010809055013308/09/01 05:50:31  5-MIN KMSN 091150Z 21006KT 3SM HZ FEW055 25/22 A2987 910 84 2300 210/06 RMK AO2 SLP108 T02500222 10272 20250 58000
14837KMSN MSN20010809055509508/09/01 05:55:31  5-MIN KMSN 091155Z 21006KT 3SM HZ CLR 25/22 A2987 910 84 2300 200/06 RMK AO2
14837KMSN MSN20010809060009508/09/01 06:00:31  5-MIN KMSN 091200Z 20006KT 3SM HZ CLR 26/22 A2987 910 81 2400 200/06 RMK AO2
14837KMSN MSN20010809060509508/09/01 06:05:31  5-MIN KMSN 091205Z 22006KT 3SM HZ CLR 26/22 A2987 910 81 2400 210/06 RMK AO2
14837KMSN MSN20010809061009508/09/01 06:10:31  5-MIN KMSN 091210Z 21005KT 3SM HZ CLR 26/22 A2987 910 81 2400 210/05 RMK AO2
14837KMSN MSN20010809061509508/09/01 06:15:31  5-MIN KMSN 091215Z 21005KT 3SM HZ CLR 26/22 A2987 910 81 2400 210/05 RMK AO2
14837KMSN MSN20010809062009808/09/01 06:20:31  5-MIN KMSN 091220Z 21006KT 3SM HZ FEW085 26/22 A2987 910 81 2400 210/06 RMK AO2
14837KMSN MSN20010809062509808/09/01 06:25:31  5-MIN KMSN 091225Z 22006KT 3SM HZ FEW065 26/22 A2987 910 81 2400 220/06 RMK AO2
14837KMSN MSN20010809063010508/09/01 06:30:31  5-MIN KMSN 091230Z 22005KT 3SM HZ FEW060 SCT090 26/22 A2987 910 81 2400 220/05 RMK AO2
14837KMSN MSN20010809063510508/09/01 06:35:31  5-MIN KMSN 091235Z 21006KT 3SM HZ FEW060 SCT080 26/22 A2987 910 81 2400 210/06 RMK AO2
14837KMSN MSN20010809064009808/09/01 06:40:31  5-MIN KMSN 091240Z 22006KT 3SM HZ FEW065 26/23 A2987 910 84 2400 220/06 RMK AO2
14837KMSN MSN20010809064509808/09/01 06:45:31  5-MIN KMSN 091245Z 22005KT 3SM HZ SCT065 26/23 A2987 910 84 2400 210/05 RMK AO2
14837KMSN MSN20010809065011508/09/01 06:50:31  5-MIN KMSN 091250Z 22005KT 3SM HZ SCT065 26/23 A2987 910 84 2400 220/05 RMK AO2 SLP108 T02560228
14837KMSN MSN20010809065509808/09/01 06:55:31  5-MIN KMSN 091255Z 22006KT 3SM HZ SCT075 26/23 A2987 910 84 2400 220/06 RMK AO2
14837KMSN MSN20010809070009808/09/01 07:00:31  5-MIN KMSN 091300Z 23004KT 3SM HZ SCT075 26/23 A2987 910 81 2400 230/04 RMK AO2
14837KMSN MSN20010809070509808/09/01 07:05:31  5-MIN KMSN 091305Z 22010KT 3SM HZ SCT075 26/23 A2987 910 81 2400 210/10 RMK AO2
14837KMSN MSN20010809071009808/09/01 07:10:31  5-MIN KMSN 091310Z 22008KT 3SM HZ SCT075 26/22 A2987 910 79 2400 220/08 RMK AO2
14837KMSN MSN20010809071509808/09/01 07:15:31  5-MIN KMSN 091315Z 21007KT 3SM HZ SCT075 26/22 A2987 910 81 2400 210/07 RMK AO2
14837KMSN MSN20010809072009808/09/01 07:20:31  5-MIN KMSN 091320Z 21008KT 3SM HZ SCT075 26/22 A2986 920 79 2400 210/08 RMK AO2
14837KMSN MSN20010809072509808/09/01 07:25:31  5-MIN KMSN 091325Z 21007KT 3SM HZ FEW075 26/22 A2986 920 79 2500 210/07 RMK AO2
14837KMSN MSN20010809073009808/09/01 07:30:31  5-MIN KMSN 091330Z 20010KT 4SM HZ FEW075 27/23 A2985 930 79 2500 200/10 RMK AO2
14837KMSN MSN20010809073509808/09/01 07:35:31  5-MIN KMSN 091335Z 21009KT 4SM HZ FEW075 27/23 A2986 920 79 2500 210/09 RMK AO2
14837KMSN MSN20010809074009808/09/01 07:40:31  5-MIN KMSN 091340Z 21005KT 4SM HZ FEW075 27/23 A2985 930 79 2500 210/05 RMK AO2
14837KMSN MSN20010809074509808/09/01 07:45:31  5-MIN KMSN 091345Z 21008KT 3SM HZ SCT075 27/23 A2986 920 79 2500 210/08 RMK AO2
14837KMSN MSN20010809075011508/09/01 07:50:31  5-MIN KMSN 091350Z 22006KT 3SM HZ SCT075 27/23 A2986 920 76 2600 220/06 RMK AO2 SLP103 T02720228
14837KMSN MSN20010809075509808/09/01 07:55:31  5-MIN KMSN 091355Z 23007KT 4SM HZ FEW075 27/23 A2986 920 76 2600 230/07 RMK AO2
14837KMSN MSN20010809080009808/09/01 08:00:31  5-MIN KMSN 091400Z 21006KT 3SM HZ SCT075 27/23 A2986 920 76 2600 210/06 RMK AO2
14837KMSN MSN20010809080509808/09/01 08:05:31  5-MIN KMSN 091405Z 22007KT 3SM HZ SCT075 27/22 A2986 920 74 2600 220/07 RMK AO2
14837KMSN MSN20010809081011408/09/01 08:10:31  5-MIN KMSN 091410Z 21007KT 180V250 3SM HZ BKN070 27/23 A2985 930 76 2600 210/07 180V250 RMK AO2
14837KMSN MSN20010809081509808/09/01 08:15:31  5-MIN KMSN 091415Z VRB06KT 3SM HZ BKN070 28/23 A2985 930 74 2600 VRB/06 RMK AO2
14837KMSN MSN20010809082009808/09/01 08:20:31  5-MIN KMSN 091420Z 22007KT 4SM HZ BKN070 27/22 A2985 930 74 2600 220/07 RMK AO2
14837KMSN MSN20010809082509808/09/01 08:25:31  5-MIN KMSN 091425Z 22008KT 4SM HZ BKN070 27/22 A2985 930 74 2600 220/08 RMK AO2
14837KMSN MSN20010809083009808/09/01 08:30:31  5-MIN KMSN 091430Z 21007KT 4SM HZ SCT070 27/22 A2985 930 74 2600 210/07 RMK AO2
14837KMSN MSN20010809083511408/09/01 08:35:31  5-MIN KMSN 091435Z 23007KT 200V260 4SM HZ BKN070 28/22 A2985 930 71 2600 230/07 200V260 RMK AO2
14837KMSN MSN20010809084009808/09/01 08:40:31  5-MIN KMSN 091440Z 23009KT 4SM HZ BKN070 28/23 A2985 930 74 2700 230/09 RMK AO2
14837KMSN MSN20010809084509808/09/01 08:45:31  5-MIN KMSN 091445Z 22009KT 4SM HZ BKN070 28/23 A2985 930 74 2700 220/09 RMK AO2
14837KMSN MSN20010809085012808/09/01 08:50:31  5-MIN KMSN 091450Z 21010KT 4SM HZ FEW070 SCT085 27/23 A2984 940 76 2600 210/10 RMK AO2 SLP098 T02720228 56007
14837KMSN MSN20010809085509808/09/01 08:55:31  5-MIN KMSN 091455Z 22008KT 4SM HZ FEW075 28/23 A2984 940 74 2700 220/08 RMK AO2
14837KMSN MSN20010809090009808/09/01 09:00:31  5-MIN KMSN 091500Z 24009KT 5SM HZ FEW075 28/23 A2984 940 74 2700 240/09 RMK AO2
14837KMSN MSN20010809090510408/09/01 09:05:31  5-MIN KMSN 091505Z 24008G15KT 5SM HZ FEW070 28/23 A2984 940 71 2700 240/08G15 RMK AO2
14837KMSN MSN20010809091011708/09/01 09:10:31  5-MIN KMSN 091510Z 22008G15KT 200V270 5SM HZ CLR 28/23 A2984 940 71 2700 220/08G15 200V270 RMK AO2
14837KMSN MSN20010809091511108/09/01 09:15:31  5-MIN KMSN 091515Z 22009KT 190V250 5SM HZ CLR 28/23 A2984 940 71 2700 220/09 190V250 RMK AO2
14837KMSN MSN20010809092009808/09/01 09:20:31  5-MIN KMSN 091520Z 22010KT 5SM HZ FEW070 29/23 A2983 950 71 2800 220/10 RMK AO2
14837KMSN MSN20010809092510408/09/01 09:25:31  5-MIN KMSN 091525Z 22009G16KT 5SM HZ FEW070 29/23 A2983 950 69 2800 220/09G16 RMK AO2
14837KMSN MSN20010809093010108/09/01 09:30:31  5-MIN KMSN 091530Z 23011G16KT 5SM HZ CLR 29/23 A2984 940 71 2800 220/11G16 RMK AO2
14837KMSN MSN20010809093509508/09/01 09:35:31  5-MIN KMSN 091535Z 22010KT 5SM HZ CLR 29/23 A2983 950 69 2800 220/10 RMK AO2
14837KMSN MSN20010809094009508/09/01 09:40:31  5-MIN KMSN 091540Z 23008KT 5SM HZ CLR 29/23 A2983 950 71 2800 230/08 RMK AO2
14837KMSN MSN20010809094509508/09/01 09:45:31  5-MIN KMSN 091545Z 22008KT 5SM HZ CLR 29/23 A2983 950 71 2800 220/08 RMK AO2
14837KMSN MSN20010809095011208/09/01 09:50:31  5-MIN KMSN 091550Z 21011KT 5SM HZ CLR 29/23 A2982 950 69 2900 210/11 RMK AO2 SLP092 T02940233
14837KMSN MSN20010809095510108/09/01 09:55:31  5-MIN KMSN 091555Z 22008G17KT 6SM HZ CLR 29/23 A2982 950 67 2900 220/08G17 RMK AO2
14837KMSN MSN20010809100010108/09/01 10:00:31  5-MIN KMSN 091600Z 23009G17KT 5SM HZ CLR 29/23 A2983 950 69 2900 230/09G17 RMK AO2
14837KMSN MSN20010809100509508/09/01 10:05:31  5-MIN KMSN 091605Z 22009KT 6SM HZ CLR 29/23 A2983 950 69 2800 220/09 RMK AO2
14837KMSN MSN20010809101009508/09/01 10:10:31  5-MIN KMSN 091610Z 22010KT 6SM HZ CLR 29/23 A2983 950 69 2900 220/10 RMK AO2
14837KMSN MSN20010809101509508/09/01 10:15:31  5-MIN KMSN 091615Z 21009KT 6SM HZ CLR 29/23 A2983 950 69 2900 210/09 RMK AO2
14837KMSN MSN20010809102009508/09/01 10:20:31  5-MIN KMSN 091620Z 21010KT 6SM HZ CLR 29/23 A2982 950 69 2900 210/10 RMK AO2
14837KMSN MSN20010809102509508/09/01 10:25:31  5-MIN KMSN 091625Z 22010KT 6SM HZ CLR 30/23 A2982 960 67 2900 220/10 RMK AO2
14837KMSN MSN20010809103009508/09/01 10:30:31  5-MIN KMSN 091630Z 23009KT 6SM HZ CLR 30/23 A2982 960 67 2900 220/09 RMK AO2
14837KMSN MSN20010809103509508/09/01 10:35:31  5-MIN KMSN 091635Z 23007KT 6SM HZ CLR 30/23 A2982 960 67 2900 230/07 RMK AO2
14837KMSN MSN20010809104010108/09/01 10:40:31  5-MIN KMSN 091640Z 23008G14KT 6SM HZ CLR 30/23 A2982 960 67 2900 230/08G14 RMK AO2
14837KMSN MSN20010809104511108/09/01 10:45:31  5-MIN KMSN 091645Z 23008KT 200V280 6SM HZ CLR 31/23 A2982 960 65 3000 230/08 200V280 RMK AO2
14837KMSN MSN20010809105011508/09/01 10:50:31  5-MIN KMSN 091650Z 22009KT 6SM HZ FEW070 31/24 A2982 960 67 3000 220/09 RMK AO2 SLP088 T03060239
14837KMSN MSN20010809105509808/09/01 10:55:31  5-MIN KMSN 091655Z 24008G14KT 7SM CLR 31/24 A2981 960 67 3000 230/08G14 RMK AO2
14837KMSN MSN20010809110011408/09/01 11:00:31  5-MIN KMSN 091700Z 23008G17KT 180V260 7SM CLR 31/23 A2981 960 65 3000 220/08G17 180V260 RMK AO2
14837KMSN MSN20010809110509808/09/01 11:05:31  5-MIN KMSN 091705Z 21009G17KT 7SM CLR 31/24 A2981 970 65 3100 210/09G17 RMK AO2
14837KMSN MSN20010809111009208/09/01 11:10:31  5-MIN KMSN 091710Z 21011KT 7SM CLR 31/23 A2981 970 65 3000 210/11 RMK AO2
14837KMSN MSN20010809111510808/09/01 11:15:31  5-MIN KMSN 091715Z 22007KT 190V260 7SM CLR 31/24 A2980 970 65 3100 220/07 190V260 RMK AO2
14837KMSN MSN20010809112009808/09/01 11:20:31  5-MIN KMSN 091720Z 22010G16KT 7SM CLR 31/23 A2980 970 63 3100 220/10G16 RMK AO2
14837KMSN MSN20010809112509808/09/01 11:25:31  5-MIN KMSN 091725Z 23008G16KT 7SM CLR 31/23 A2980 980 63 3100 230/08G16 RMK AO2
14837KMSN MSN20010809113009208/09/01 11:30:31  5-MIN KMSN 091730Z 21010KT 7SM CLR 31/24 A2980 980 65 3100 210/10 RMK AO2
14837KMSN MSN20010809113509208/09/01 11:35:31  5-MIN KMSN 091735Z 22009KT 8SM CLR 32/23 A2979 980 61 3100 220/09 RMK AO2
14837KMSN MSN20010809114009208/09/01 11:40:31  5-MIN KMSN 091740Z 23009KT 8SM CLR 31/23 A2979 980 63 3100 230/09 RMK AO2
14837KMSN MSN20010809114510808/09/01 11:45:31  5-MIN KMSN 091745Z 23007KT 210V280 7SM CLR 32/24 A2979 980 63 3100 230/07 210V280 RMK AO2
14837KMSN MSN20010809115012708/09/01 11:50:31  5-MIN KMSN 091750Z 23008KT 7SM CLR 32/24 A2979 980 63 3100 230/08 RMK AO2 SLP080 T03170239 10317 20250 58011
14837KMSN MSN20010809115511408/09/01 11:55:31  5-MIN KMSN 091755Z 23009G15KT 190V250 7SM CLR 32/23 A2979 980 61 3100 230/09G15 190V250 RMK AO2
14837KMSN MSN20010809120010108/09/01 12:00:31  5-MIN KMSN 091800Z 22008G15KT 7SM FEW040 32/23 A2979 980 61 3100 220/08G15 RMK AO2
14837KMSN MSN20010809120509208/09/01 12:05:31  5-MIN KMSN 091805Z 23009KT 7SM CLR 32/23 A2979 990 61 3100 230/09 RMK AO2
14837KMSN MSN20010809121009508/09/01 12:10:31  5-MIN KMSN 091810Z 23007KT 7SM FEW040 32/23 A2979 990 61 3100 230/07 RMK AO2
14837KMSN MSN20010809121510108/09/01 12:15:31  5-MIN KMSN 091815Z 24006G14KT 7SM FEW040 32/24 A2979 990 63 3100 240/06G14 RMK AO2
14837KMSN MSN20010809122010108/09/01 12:20:31  5-MIN KMSN 091820Z 23009G14KT 7SM FEW040 32/24 A2979 990 63 3100 230/09G14 RMK AO2
14837KMSN MSN20010809122509508/09/01 12:25:31  5-MIN KMSN 091825Z 23010KT 7SM FEW040 32/24 A2978 990 63 3200 230/10 RMK AO2
14837KMSN MSN20010809123011108/09/01 12:30:31  5-MIN KMSN 091830Z 24008KT 200V280 7SM FEW040 32/23 A2978 990 59 3200 240/08 200V280 RMK AO2
14837KMSN MSN20010809123510108/09/01 12:35:31  5-MIN KMSN 091835Z 23010G15KT 7SM FEW040 32/23 A2978 990 59 3200 230/10G15 RMK AO2
14837KMSN MSN20010809124011708/09/01 12:40:31  5-MIN KMSN 091840Z 24007G15KT 180V270 7SM FEW040 32/23 A2978 990 59 3200 230/07G15 180V270 RMK AO2
14837KMSN MSN20010809124510108/09/01 12:45:31  5-MIN KMSN 091845Z 24009G15KT 7SM FEW040 32/23 A2978 990 59 3200 230/09G15 RMK AO2
14837KMSN MSN20010809125012808/09/01 12:50:31  5-MIN KMSN 091850Z 23010KT 210V270 7SM FEW040 32/23 A2978 990 59 3200 230/10 210V270 RMK AO2 SLP076 T03220233
14837KMSN MSN20010809125509808/09/01 12:55:31  5-MIN KMSN 091855Z 23009G17KT 9SM CLR 32/24 A2978 990 61 3200 230/09G17 RMK AO2
14837KMSN MSN20010809130010108/09/01 13:00:31  5-MIN KMSN 091900Z VRB06G17KT 8SM FEW040 32/24 A2978 990 61 3200 VRB/06G17 RMK AO2
14837KMSN MSN20010809130510108/09/01 13:05:31  5-MIN KMSN 091905Z 24010G14KT 8SM FEW040 32/24 A2978 990 61 3200 240/10G14 RMK AO2
14837KMSN MSN20010809131011708/09/01 13:10:31  5-MIN KMSN 091910Z 24008G14KT 210V280 8SM FEW040 32/23 A2978 990 59 3200 240/08G14 210V280 RMK AO2
14837KMSN MSN20010809131509508/09/01 13:15:31  5-MIN KMSN 091915Z 25008KT 8SM FEW040 32/23 A2978 990 59 3200 250/08 RMK AO2
14837KMSN MSN20010809132011708/09/01 13:20:31  5-MIN KMSN 091920Z 22009G15KT 190V260 8SM FEW040 32/23 A2978 990 59 3200 220/09G15 190V260 RMK AO2
14837KMSN MSN20010809132511708/09/01 13:25:31  5-MIN KMSN 091925Z 24007G15KT 130V250 8SM FEW040 32/23 A2978 990 59 3200 230/07G15 130V250 RMK AO2
14837KMSN MSN20010809133011108/09/01 13:30:31  5-MIN KMSN 091930Z 26009KT 210V290 8SM FEW040 32/24 A2978 990 61 3200 250/09 210V290 RMK AO2
14837KMSN MSN20010809133511708/09/01 13:35:31  5-MIN KMSN 091935Z 25007G15KT 220V290 8SM FEW040 33/24 A2978 990 59 3300 250/07G15 220V290 RMK AO2
14837KMSN MSN20010809134011708/09/01 13:40:31  5-MIN KMSN 091940Z 25009G15KT 110V330 8SM FEW040 32/24 A2978 990 61 3200 250/09G15 110V330 RMK AO2
14837KMSN MSN20010809134510108/09/01 13:45:31  5-MIN KMSN 091945Z 23009G15KT 8SM SCT040 32/23 A2978 990 59 3200 230/09G15 RMK AO2
14837KMSN MSN20010809135013408/09/01 13:50:31  5-MIN KMSN 091950Z 23009G15KT 200V270 8SM SCT045 32/24 A2978 990 61 3200 230/09G15 200V270 RMK AO2 SLP076 T03220239
14837KMSN MSN20010809135509508/09/01 13:55:31  5-MIN KMSN 091955Z 24008KT 9SM SCT045 32/24 A2978 990 63 3200 240/08 RMK AO2
14837KMSN MSN20010809140009608/09/01 14:00:31  5-MIN KMSN 092000Z 25007KT 9SM SCT042 33/24 A2978 1000 61 3300 250/07 RMK AO2
14837KMSN MSN20010809140509608/09/01 14:05:31  5-MIN KMSN 092005Z 24006KT 8SM SCT042 32/24 A2978 1000 61 3200 240/06 RMK AO2
14837KMSN MSN20010809141009608/09/01 14:10:31  5-MIN KMSN 092010Z 25007KT 8SM SCT042 32/24 A2978 1000 63 3200 250/07 RMK AO2
14837KMSN MSN20010809141511808/09/01 14:15:31  5-MIN KMSN 092015Z 25007G14KT 210V280 8SM SCT042 32/24 A2978 1000 61 3200 250/07G14 210V280 RMK AO2
14837KMSN MSN20010809142010208/09/01 14:20:31  5-MIN KMSN 092020Z 26010G14KT 8SM SCT042 32/23 A2978 1000 59 3200 260/10G14 RMK AO2
14837KMSN MSN20010809142511208/09/01 14:25:31  5-MIN KMSN 092025Z 25008KT 210V290 8SM SCT042 33/23 A2978 1000 57 3300 250/08 210V290 RMK AO2
14837KMSN MSN20010809143011208/09/01 14:30:31  5-MIN KMSN 092030Z 27008KT 250V310 8SM SCT042 33/23 A2977 1000 57 3300 270/08 250V310 RMK AO2
14837KMSN MSN20010809143509608/09/01 14:35:31  5-MIN KMSN 092035Z 25009KT 8SM SCT042 32/24 A2977 1000 61 3200 250/09 RMK AO2
14837KMSN MSN20010809144009608/09/01 14:40:31  5-MIN KMSN 092040Z 26010KT 8SM SCT042 32/24 A2977 1000 61 3200 260/10 RMK AO2
14837KMSN MSN20010809144511808/09/01 14:45:31  5-MIN KMSN 092045Z 28010G15KT 8SM SCT042 32/24 A2977 1010 61 3200 280/10G15 RMK AO2 CB BLDG DSNT NE
14837KMSN MSN20010809145014108/09/01 14:50:31  5-MIN KMSN 092050Z 28010G15KT 8SM SCT042 32/24 A2977 1010 61 3200 280/10G15 RMK AO2 SLP071 CB BLDG DSNT NE T03220239 58015
14837KMSN MSN20010809145510208/09/01 14:55:31  5-MIN KMSN 092055Z 25009G15KT 8SM SCT042 32/24 A2977 1010 61 3200 250/09G15 RMK AO2
14837KMSN MSN20010809150012808/09/01 15:00:31  5-MIN KMSN 092100Z 27009KT 240V300 8SM SCT042 32/24 A2977 1010 61 3200 270/09 240V300 RMK AO2 CB BLDG DSNT NE
14837KMSN MSN20010809150511208/09/01 15:05:31  5-MIN KMSN 092105Z 27008KT 8SM SCT042 32/24 A2977 1010 63 3200 260/08 RMK AO2 CB BLDG DSNT NE
14837KMSN MSN20010809151012808/09/01 15:10:31  5-MIN KMSN 092110Z 28007KT 240V320 8SM SCT042 32/24 A2977 1010 61 3200 270/07 240V320 RMK AO2 CB BLDG DSNT NE
14837KMSN MSN20010809151512808/09/01 15:15:31  5-MIN KMSN 092115Z 27007KT 220V300 8SM SCT042 32/24 A2976 1010 61 3200 270/07 220V300 RMK AO2 CB BLDG DSNT NE
14837KMSN MSN20010809152013408/09/01 15:20:31  5-MIN KMSN 092120Z 27010G15KT 230V300 8SM SCT042 32/24 A2976 1010 63 3200 270/10G15 230V300 RMK AO2 CB BLDG DSNT NE
14837KMSN MSN20010809152511808/09/01 15:25:31  5-MIN KMSN 092125Z 25009G16KT 220V280 8SM SCT042 32/23 A2976 1010 59 3200 250/09G16 220V280 RMK AO2
14837KMSN MSN20010809153010208/09/01 15:30:31  5-MIN KMSN 092130Z 27006G16KT 8SM SCT042 32/23 A2976 1010 59 3200 270/06G16 RMK AO2
14837KMSN MSN20010809153511808/09/01 15:35:31  5-MIN KMSN 092135Z 27010G14KT 230V290 8SM SCT042 32/24 A2976 1010 63 3200 260/10G14 230V290 RMK AO2
14837KMSN MSN20010809154009608/09/01 15:40:31  5-MIN KMSN 092140Z 27010KT 8SM SCT042 32/24 A2976 1010 63 3200 270/10 RMK AO2
14837KMSN MSN20010809154510208/09/01 15:45:31  5-MIN KMSN 092145Z 27012G19KT 8SM SCT042 32/23 A2976 1010 61 3200 270/12G19 RMK AO2
14837KMSN MSN20010809155011908/09/01 15:50:31  5-MIN KMSN 092150Z 27007G19KT 8SM SCT050 32/23 A2976 1010 61 3200 270/07G19 RMK AO2 SLP070 T03170233
14837KMSN MSN20010809155511208/09/01 15:55:31  5-MIN KMSN 092155Z 27007KT 230V300 8SM SCT050 32/24 A2976 1010 63 3200 270/07 230V300 RMK AO2
14837KMSN MSN20010809160011808/09/01 16:00:31  5-MIN KMSN 092200Z 29009G15KT 260V330 8SM SCT050 32/23 A2976 1010 61 3200 290/09G15 260V330 RMK AO2
14837KMSN MSN20010809160509608/09/01 16:05:31  5-MIN KMSN 092205Z 29009KT 8SM SCT050 31/23 A2976 1010 63 3100 290/09 RMK AO2
14837KMSN MSN20010809161009608/09/01 16:10:31  5-MIN KMSN 092210Z 29008KT 8SM SCT050 31/23 A2976 1010 65 3100 290/08 RMK AO2
14837KMSN MSN20010809161511908/09/01 16:15:31  5-MIN KMSN 092215Z 30007KT 8SM -RA FEW040 BKN060 30/23 A2976 1010 67 3000 300/07 RMK AO2 RAB15 P0000
14837KMSN MSN20010809162016208/09/01 16:20:31  5-MIN KMSN 092220Z 31014G21KT 8SM -TSRA FEW040 BKN060 30/23 A2977 1000 67 3000 310/14G21 RMK AO2 TSB19RAB15 OCNL LTGIC VC W TS VC W MOV E P0000
14837KMSN MSN20010809162516208/09/01 16:25:31  5-MIN KMSN 092225Z 32012G21KT 8SM -TSRA SCT037 BKN044 29/23 A2977 1000 69 2900 320/12G21 RMK AO2 TSB19RAB15 OCNL LTGIC VC W TS VC W MOV E P0000
14837KMSN MSN20010809163016208/09/01 16:30:31  5-MIN KMSN 092230Z 31010G19KT 8SM -TSRA SCT037 BKN045 29/23 A2977 1000 71 2900 310/10G19 RMK AO2 TSB19RAB15 OCNL LTGIC VC W TS VC W MOV E P0000
14837KMSN MSN20010809163515608/09/01 16:35:31  5-MIN KMSN 092235Z 30009KT 7SM -TSRA SCT037 BKN045 28/24 A2978 990 76 2800 300/09 RMK AO2 TSB19RAB15 OCNL LTGIC VC W TS VC W MOV SE P0000
14837KMSN MSN20010809164015008/09/01 16:40:31  5-MIN KMSN 092240Z 30009KT 7SM -TSRA BKN039 28/23 A2978 1000 74 2800 300/09 RMK AO2 TSB19RAB15 OCNL LTGIC VC S TS VC W MOV SE P0000
14837KMSN MSN20010809164514908/09/01 16:45:31  5-MIN KMSN 092245Z 30009KT 7SM -TSRA BKN039 29/23 A2978 990 71 2800 290/09 RMK AO2 TSB19RAB15 OCNL LTGIC VC S TS VC S MOV SE P0000
14837KMSN MSN20010809165016808/09/01 16:50:31  5-MIN KMSN 092250Z 32009KT 8SM TS BKN039 29/23 A2978 990 71 2800 320/09 RMK AO2 TSB19RAB15E49 SLP077 OCNL LTGIC VC SE TS VC SE MOV SE P0000 T02890233
14837KMSN MSN20010809165510508/09/01 16:55:31  5-MIN KMSN 092255Z 32010G18KT 7SM TS FEW041 29/23 A2978 1000 69 2900 320/10G18 RMK AO2
14837KMSN MSN20010809170013508/09/01 17:00:31  5-MIN KMSN 092300Z 32012G18KT 7SM TS SCT041 28/22 A2978 1000 69 2800 320/12G18 RMK AO2 OCNL LTGIC VC SE TS SE MOV SE
14837KMSN MSN20010809170511808/09/01 17:05:31  5-MIN KMSN 092305Z 32013G17KT 7SM BKN039 28/23 A2978 1000 71 2800 320/13G17 RMK AO2 TSE03 TS MOV SE
14837KMSN MSN20010809171010808/09/01 17:10:31  5-MIN KMSN 092310Z 33010G17KT 7SM BKN039 28/22 A2977 1000 69 2800 330/10G17 RMK AO2 TSE03
14837KMSN MSN20010809171510808/09/01 17:15:31  5-MIN KMSN 092315Z 33008G16KT 8SM BKN039 28/22 A2977 1000 71 2700 330/08G16 RMK AO2 TSE03
14837KMSN MSN20010809172010908/09/01 17:20:31  5-MIN KMSN 092320Z 34010KT 8SM SCT036 BKN044 28/22 A2977 1000 71 2700 340/10 RMK AO2 TSE03
14837KMSN MSN20010809172511508/09/01 17:25:31  5-MIN KMSN 092325Z 33010G15KT 8SM SCT036 BKN044 28/22 A2977 1000 69 2700 330/10G15 RMK AO2 TSE03
14837KMSN MSN20010809173011508/09/01 17:30:31  5-MIN KMSN 092330Z 32009G17KT 9SM SCT036 BKN044 28/22 A2977 1000 66 2800 320/09G17 RMK AO2 TSE03
14837KMSN MSN20010809173510908/09/01 17:35:31  5-MIN KMSN 092335Z 33007G17KT 10SM FEW044 28/22 A2977 1000 69 2700 330/07G17 RMK AO2 TSE03
14837KMSN MSN20010809174010908/09/01 17:40:31  5-MIN KMSN 092340Z 34014G17KT 10SM SCT044 28/22 A2977 1000 69 2700 330/14G17 RMK AO2 TSE03
14837KMSN MSN20010809174510908/09/01 17:45:31  5-MIN KMSN 092345Z 33010G17KT 10SM SCT044 27/21 A2977 1000 66 2700 330/10G17 RMK AO2 TSE03
14837KMSN MSN20010809175014408/09/01 17:50:31  5-MIN KMSN 092350Z 34007KT 10SM FEW044 27/21 A2977 1010 66 2700 330/07 RMK AO2 TSE03 SLP074 60000 T02720206 10328 20272 58009
14837KMSN MSN20010809175509708/09/01 17:55:31  5-MIN KMSN 092355Z 33010KT 10SM FEW044 27/21 A2976 1010 66 2700 330/10 RMK AO2
14837KMSN MSN20010809180009708/09/01 18:00:31  5-MIN KMSN 100000Z 34008KT 10SM FEW070 27/21 A2977 1000 69 2600 340/08 RMK AO2
14837KMSN MSN20010809180509708/09/01 18:05:31  5-MIN KMSN 100005Z 33008KT 10SM FEW070 27/21 A2977 1000 69 2600 330/08 RMK AO2
14837KMSN MSN20010809181010208/09/01 18:10:31  5-MIN KMSN 100010Z 32011G15KT 10SM SCT120 27/21 A2978 990 69 2600 320/11G15 RMK AO2
14837KMSN MSN20010809181509608/09/01 18:15:31  5-MIN KMSN 100015Z 32011KT 10SM SCT120 26/19 A2978 990 66 2500 320/11 RMK AO2
14837KMSN MSN20010809182010208/09/01 18:20:31  5-MIN KMSN 100020Z 33010G19KT 10SM SCT120 26/19 A2979 990 66 2500 330/10G19 RMK AO2
14837KMSN MSN20010809182510208/09/01 18:25:31  5-MIN KMSN 100025Z 32011G19KT 10SM SCT120 26/19 A2979 980 66 2500 320/11G19 RMK AO2
14837KMSN MSN20010809183009608/09/01 18:30:31  5-MIN KMSN 100030Z 32009KT 10SM SCT120 26/19 A2979 980 64 2500 320/09 RMK AO2
14837KMSN MSN20010809183509608/09/01 18:35:31  5-MIN KMSN 100035Z 32007KT 10SM SCT120 26/19 A2980 970 66 2500 320/07 RMK AO2
14837KMSN MSN20010809184009608/09/01 18:40:31  5-MIN KMSN 100040Z 32009KT 10SM SCT120 26/19 A2981 970 66 2400 320/09 RMK AO2
14837KMSN MSN20010809184511908/09/01 18:45:31  5-MIN KMSN 100045Z 32008KT 280V340 10SM SCT120 26/19 A2982 960 66 2400 320/08 280V340 RMK AO2 PRESRR
14837KMSN MSN20010809185012008/09/01 18:50:31  5-MIN KMSN 100050Z VRB05KT 10SM SCT120 26/19 A2983 950 66 2400 VRB/05 RMK AO2 PRESRR SLP093 T02560189
14837KMSN MSN20010809185510008/09/01 18:55:31  5-MIN KMSN 100055Z 32007KT 10SM CLR 25/19 A2983 940 68 2400 320/07 RMK AO2 PRESRR
14837KMSN MSN20010809190009608/09/01 19:00:31  5-MIN KMSN 100100Z 32006KT 10SM FEW120 25/19 A2984 940 68 2300 320/06 RMK AO2
14837KMSN MSN20010809190509608/09/01 19:05:31  5-MIN KMSN 100105Z 32005KT 10SM FEW120 25/19 A2984 940 68 2300 320/05 RMK AO2
14837KMSN MSN20010809191009608/09/01 19:10:31  5-MIN KMSN 100110Z 32007KT 10SM FEW120 25/19 A2985 930 68 2300 320/07 RMK AO2
14837KMSN MSN20010809191509608/09/01 19:15:31  5-MIN KMSN 100115Z 32007KT 10SM FEW120 24/19 A2985 930 71 2300 320/07 RMK AO2
14837KMSN MSN20010809192011008/09/01 19:20:31  5-MIN KMSN 100120Z 32007KT 10SM FEW020 SCT050 SCT120 24/19 A2985 930 71 2300 320/07 RMK AO2
14837KMSN MSN20010809192511008/09/01 19:25:31  5-MIN KMSN 100125Z 31007KT 10SM FEW020 SCT050 SCT120 24/18 A2985 930 68 2300 310/07 RMK AO2
14837KMSN MSN20010809193011008/09/01 19:30:31  5-MIN KMSN 100130Z 31008KT 10SM FEW020 SCT050 SCT120 24/18 A2986 920 68 2300 310/08 RMK AO2
14837KMSN MSN20010809193511008/09/01 19:35:31  5-MIN KMSN 100135Z VRB05KT 10SM FEW020 SCT050 SCT120 24/18 A2986 920 68 2300 VRB/05 RMK AO2
14837KMSN MSN20010809194011008/09/01 19:40:31  5-MIN KMSN 100140Z 30004KT 10SM FEW020 SCT050 SCT120 24/18 A2987 910 68 2300 300/04 RMK AO2
14837KMSN MSN20010809194511008/09/01 19:45:31  5-MIN KMSN 100145Z VRB03KT 10SM FEW020 SCT050 SCT120 24/19 A2987 910 73 2200 VRB/03 RMK AO2
14837KMSN MSN20010809195011308/09/01 19:50:31  5-MIN KMSN 100150Z 32005KT 10SM FEW035 24/19 A2988 910 73 2200 310/05 RMK AO2 SLP110 T02390189
14837KMSN MSN20010809195509608/09/01 19:55:31  5-MIN KMSN 100155Z 31005KT 10SM FEW040 24/19 A2988 900 73 2200 310/05 RMK AO2
14837KMSN MSN20010809200009608/09/01 20:00:31  5-MIN KMSN 100200Z 32005KT 10SM FEW040 24/19 A2989 900 73 2200 320/05 RMK AO2
14837KMSN MSN20010809200509608/09/01 20:05:31  5-MIN KMSN 100205Z 32005KT 10SM FEW040 23/18 A2989 890 73 2100 320/05 RMK AO2
14837KMSN MSN20010809201009608/09/01 20:10:31  5-MIN KMSN 100210Z 32004KT 10SM FEW040 23/19 A2989 890 76 2100 320/04 RMK AO2
14837KMSN MSN20010809201509608/09/01 20:15:31  5-MIN KMSN 100215Z 33005KT 10SM FEW040 23/18 A2989 890 73 2100 330/05 RMK AO2
14837KMSN MSN20010809202009308/09/01 20:20:31  5-MIN KMSN 100220Z 32005KT 10SM CLR 23/18 A2989 890 73 2100 320/05 RMK AO2
14837KMSN MSN20010809202509308/09/01 20:25:31  5-MIN KMSN 100225Z 33005KT 10SM CLR 23/18 A2989 890 73 2100 330/05 RMK AO2
14837KMSN MSN20010809203009308/09/01 20:30:31  5-MIN KMSN 100230Z 32006KT 10SM CLR 23/18 A2990 890 73 2100 320/06 RMK AO2
14837KMSN MSN20010809203509308/09/01 20:35:31  5-MIN KMSN 100235Z 32005KT 10SM CLR 23/18 A2990 880 76 2000 320/05 RMK AO2
14837KMSN MSN20010809204009308/09/01 20:40:31  5-MIN KMSN 100240Z 32006KT 10SM CLR 23/18 A2991 880 76 2000 320/06 RMK AO2
14837KMSN MSN20010809204509308/09/01 20:45:31  5-MIN KMSN 100245Z 33006KT 10SM CLR 23/18 A2990 880 76 2000 330/06 RMK AO2
14837KMSN MSN20010809205011608/09/01 20:50:31  5-MIN KMSN 100250Z 34009KT 10SM CLR 23/18 A2990 880 73 2000 340/09 RMK AO2 SLP120 T02280178 50000
14837KMSN MSN20010809205509308/09/01 20:55:31  5-MIN KMSN 100255Z 34008KT 10SM CLR 23/17 A2991 880 68 2100 340/08 RMK AO2
14837KMSN MSN20010810122009608/10/01 12:20:31  5-MIN KMSN 101820Z VRB04KT 10SM SCT046 22/11 A3010 700 49 1700 VRB/04 RMK AO2
14837KMSN MSN20010810122509608/10/01 12:25:31  5-MIN KMSN 101825Z VRB05KT 10SM SCT046 22/11 A3010 700 47 1700 VRB/05 RMK AO2
14837KMSN MSN20010810123011208/10/01 12:30:31  5-MIN KMSN 101830Z 01008KT 340V040 10SM SCT046 22/11 A3010 700 49 1700 010/08 340V040 RMK AO2
14837KMSN MSN20010810123511208/10/01 12:35:31  5-MIN KMSN 101835Z 34007KT 320V020 10SM SCT046 22/11 A3010 700 49 1700 340/07 320V020 RMK AO2
14837KMSN MSN20010810124011208/10/01 12:40:31  5-MIN KMSN 101840Z 29007KT 270V340 10SM SCT046 22/11 A3010 700 49 1700 290/07 270V340 RMK AO2
14837KMSN MSN20010810124509608/10/01 12:45:31  5-MIN KMSN 101845Z 27007KT 10SM SCT046 22/11 A3010 700 49 1700 270/07 RMK AO2
14837KMSN MSN20010810125011308/10/01 12:50:31  5-MIN KMSN 101850Z 34006KT 10SM SCT046 22/11 A3010 700 49 1700 340/06 RMK AO2 SLP191 T02220111
14837KMSN MSN20010810125509608/10/01 12:55:31  5-MIN KMSN 101855Z 32007KT 10SM SCT048 23/12 A3011 690 47 1900 320/07 RMK AO2
14837KMSN MSN20010810130009608/10/01 13:00:31  5-MIN KMSN 101900Z 35010KT 10SM SCT048 23/12 A3011 690 49 1800 350/10 RMK AO2
14837KMSN MSN20010810130509608/10/01 13:05:31  5-MIN KMSN 101905Z VRB03KT 10SM SCT048 23/11 A3011 690 47 1800 VRB/03 RMK AO2
14837KMSN MSN20010810131009608/10/01 13:10:31  5-MIN KMSN 101910Z VRB06KT 10SM SCT048 23/11 A3010 700 47 1800 VRB/06 RMK AO2
14837KMSN MSN20010810131509608/10/01 13:15:31  5-MIN KMSN 101915Z 34009KT 10SM SCT048 22/11 A3010 700 49 1700 340/09 RMK AO2
14837KMSN MSN20010810132009608/10/01 13:20:31  5-MIN KMSN 101920Z 36007KT 10SM SCT048 22/11 A3010 700 49 1700 360/07 RMK AO2
14837KMSN MSN20010810132509608/10/01 13:25:31  5-MIN KMSN 101925Z VRB05KT 10SM SCT048 23/11 A3010 700 47 1800 VRB/05 RMK AO2
14837KMSN MSN20010810133011208/10/01 13:30:31  5-MIN KMSN 101930Z 32007KT 260V010 10SM SCT048 23/11 A3010 700 47 1800 320/07 260V010 RMK AO2
14837KMSN MSN20010810133509608/10/01 13:35:31  5-MIN KMSN 101935Z 30005KT 10SM SCT048 23/11 A3010 700 47 1800 290/05 RMK AO2
14837KMSN MSN20010810134009608/10/01 13:40:31  5-MIN KMSN 101940Z 32007KT 10SM FEW048 23/12 A3010 700 49 1800 320/07 RMK AO2
14837KMSN MSN20010810134509608/10/01 13:45:31  5-MIN KMSN 101945Z VRB04KT 10SM SCT048 22/11 A3010 700 47 1700 VRB/04 RMK AO2
14837KMSN MSN20010810135011308/10/01 13:50:31  5-MIN KMSN 101950Z 29008KT 10SM SCT048 23/12 A3010 700 49 1800 290/08 RMK AO2 SLP190 T02280117
14837KMSN MSN20010810135509308/10/01 13:55:31  5-MIN KMSN 101955Z VRB05KT 10SM CLR 23/11 A3010 690 47 1800 VRB/05 RMK AO2
14837KMSN MSN20010810140009608/10/01 14:00:31  5-MIN KMSN 102000Z VRB04KT 10SM FEW049 23/11 A3010 700 47 1800 VRB/04 RMK AO2
14837KMSN MSN20010810140509608/10/01 14:05:31  5-MIN KMSN 102005Z 34005KT 10SM FEW049 23/12 A3010 700 47 1900 340/05 RMK AO2
14837KMSN MSN20010810141009308/10/01 14:10:31  5-MIN KMSN 102010Z VRB06KT 10SM CLR 23/12 A3010 700 47 1900 VRB/06 RMK AO2
14837KMSN MSN20010810141509608/10/01 14:15:31  5-MIN KMSN 102015Z 34007KT 10SM SCT050 23/12 A3010 700 47 1900 340/07 RMK AO2
14837KMSN MSN20010810142009608/10/01 14:20:31  5-MIN KMSN 102020Z 30005KT 10SM SCT050 23/11 A3010 700 47 1800 300/05 RMK AO2
14837KMSN MSN20010810142509608/10/01 14:25:31  5-MIN KMSN 102025Z VRB04KT 10SM SCT050 22/11 A3010 700 47 1700 VRB/04 RMK AO2
14837KMSN MSN20010810143009608/10/01 14:30:31  5-MIN KMSN 102030Z 34004KT 10SM SCT050 22/11 A3010 700 49 1700 340/04 RMK AO2
14837KMSN MSN20010810143509608/10/01 14:35:31  5-MIN KMSN 102035Z 33005KT 10SM FEW050 23/11 A3011 690 47 1800 320/05 RMK AO2
14837KMSN MSN20010810144009608/10/01 14:40:31  5-MIN KMSN 102040Z VRB04KT 10SM FEW050 23/11 A3010 700 45 1900 VRB/04 RMK AO2
14837KMSN MSN20010810144509608/10/01 14:45:31  5-MIN KMSN 102045Z 31005KT 10SM FEW050 23/12 A3010 700 47 1900 310/05 RMK AO2
14837KMSN MSN20010810145011908/10/01 14:50:31  5-MIN KMSN 102050Z 33005KT 10SM FEW050 23/11 A3010 700 47 1800 330/05 RMK AO2 SLP189 T02280111 50003
14837KMSN MSN20010810145509608/10/01 14:55:31  5-MIN KMSN 102055Z 28004KT 10SM FEW050 22/11 A3010 700 49 1700 280/04 RMK AO2
14837KMSN MSN20010810150009608/10/01 15:00:31  5-MIN KMSN 102100Z 29004KT 10SM FEW050 22/11 A3010 700 49 1700 290/04 RMK AO2
14837KMSN MSN20010810150509608/10/01 15:05:31  5-MIN KMSN 102105Z VRB04KT 10SM FEW050 23/12 A3010 700 49 1800 VRB/04 RMK AO2
14837KMSN MSN20010810151009608/10/01 15:10:31  5-MIN KMSN 102110Z 35005KT 10SM FEW050 24/12 A3010 700 47 1900 350/05 RMK AO2
14837KMSN MSN20010810151509608/10/01 15:15:31  5-MIN KMSN 102115Z VRB06KT 10SM FEW050 24/12 A3010 700 47 1900 VRB/06 RMK AO2
14837KMSN MSN20010810152009608/10/01 15:20:31  5-MIN KMSN 102120Z VRB05KT 10SM FEW050 23/11 A3010 700 45 1900 VRB/05 RMK AO2
14837KMSN MSN20010810152509608/10/01 15:25:31  5-MIN KMSN 102125Z VRB05KT 10SM FEW050 23/12 A3010 700 47 1900 VRB/05 RMK AO2
14837KMSN MSN20010810153009608/10/01 15:30:31  5-MIN KMSN 102130Z 33006KT 10SM FEW050 24/12 A3010 700 47 1900 330/06 RMK AO2
14837KMSN MSN20010810153509608/10/01 15:35:31  5-MIN KMSN 102135Z 34003KT 10SM FEW050 23/12 A3010 700 47 1900 340/03 RMK AO2
14837KMSN MSN20010810154009608/10/01 15:40:31  5-MIN KMSN 102140Z VRB04KT 10SM FEW050 24/11 A3009 700 44 1900 VRB/04 RMK AO2
14837KMSN MSN20010810154509608/10/01 15:45:31  5-MIN KMSN 102145Z VRB06KT 10SM FEW050 23/11 A3009 710 45 1900 VRB/06 RMK AO2
14837KMSN MSN20010810155011308/10/01 15:50:31  5-MIN KMSN 102150Z 33007KT 10SM FEW050 23/12 A3009 710 47 1900 330/07 RMK AO2 SLP186 T02330117
14837KMSN MSN20010810155509308/10/01 15:55:31  5-MIN KMSN 102155Z 32006KT 10SM CLR 23/12 A3009 710 49 1800 320/06 RMK AO2
14837KMSN MSN20010810160009308/10/01 16:00:31  5-MIN KMSN 102200Z 34005KT 10SM CLR 23/12 A3008 720 47 1900 340/05 RMK AO2
14837KMSN MSN20010810160509308/10/01 16:05:31  5-MIN KMSN 102205Z 31008KT 10SM CLR 23/11 A3009 710 47 1800 310/08 RMK AO2
14837KMSN MSN20010810161009308/10/01 16:10:31  5-MIN KMSN 102210Z 33005KT 10SM CLR 22/11 A3009 710 49 1800 330/05 RMK AO2
14837KMSN MSN20010810161509308/10/01 16:15:31  5-MIN KMSN 102215Z VRB04KT 10SM CLR 23/12 A3008 720 47 1900 VRB/04 RMK AO2
14837KMSN MSN20010810162009308/10/01 16:20:31  5-MIN KMSN 102220Z 36006KT 10SM CLR 23/12 A3008 710 47 1900 360/06 RMK AO2
14837KMSN MSN20010810162509308/10/01 16:25:31  5-MIN KMSN 102225Z VRB03KT 10SM CLR 23/12 A3008 710 49 1800 VRB/03 RMK AO2
14837KMSN MSN20010810163009308/10/01 16:30:31  5-MIN KMSN 102230Z VRB05KT 10SM CLR 23/12 A3008 710 49 1800 VRB/05 RMK AO2
14837KMSN MSN20010810163509308/10/01 16:35:31  5-MIN KMSN 102235Z 31005KT 10SM CLR 23/12 A3008 710 49 1800 300/05 RMK AO2
14837KMSN MSN20010810164009308/10/01 16:40:31  5-MIN KMSN 102240Z 30004KT 10SM CLR 23/11 A3008 710 47 1800 300/04 RMK AO2
14837KMSN MSN20010810164509308/10/01 16:45:31  5-MIN KMSN 102245Z 32005KT 10SM CLR 23/12 A3008 710 49 1800 310/05 RMK AO2
14837KMSN MSN20010810165011008/10/01 16:50:31  5-MIN KMSN 102250Z VRB04KT 10SM CLR 23/12 A3008 710 51 1800 VRB/04 RMK AO2 SLP185 T02280122
14837KMSN MSN20010810165509308/10/01 16:55:31  5-MIN KMSN 102255Z 31006KT 10SM CLR 23/12 A3008 710 49 1800 310/06 RMK AO2
14837KMSN MSN20010810170009308/10/01 17:00:31  5-MIN KMSN 102300Z 34005KT 10SM CLR 23/12 A3008 720 49 1800 340/05 RMK AO2
14837KMSN MSN20010810170509308/10/01 17:05:31  5-MIN KMSN 102305Z 32005KT 10SM CLR 22/12 A3008 720 52 1800 320/05 RMK AO2
14837KMSN MSN20010810171009308/10/01 17:10:31  5-MIN KMSN 102310Z 34004KT 10SM CLR 23/12 A3008 720 51 1800 340/04 RMK AO2
14837KMSN MSN20010810171509308/10/01 17:15:31  5-MIN KMSN 102315Z 35004KT 10SM CLR 23/12 A3008 720 51 1800 350/04 RMK AO2
14837KMSN MSN20010810172009308/10/01 17:20:31  5-MIN KMSN 102320Z 34004KT 10SM CLR 23/12 A3008 720 51 1800 340/04 RMK AO2
14837KMSN MSN20010810172509308/10/01 17:25:31  5-MIN KMSN 102325Z 32004KT 10SM CLR 23/13 A3008 720 53 1800 320/04 RMK AO2
14837KMSN MSN20010810173009308/10/01 17:30:31  5-MIN KMSN 102330Z 33004KT 10SM CLR 22/12 A3008 720 52 1800 330/04 RMK AO2
14837KMSN MSN20010810173509308/10/01 17:35:31  5-MIN KMSN 102335Z VRB03KT 10SM CLR 22/13 A3008 720 54 1800 VRB/03 RMK AO2
14837KMSN MSN20010810174009308/10/01 17:40:31  5-MIN KMSN 102340Z 32003KT 10SM CLR 22/13 A3008 720 56 1700 320/03 RMK AO2
14837KMSN MSN20010810174509308/10/01 17:45:31  5-MIN KMSN 102345Z 33003KT 10SM CLR 21/13 A3008 720 61 1600 330/03 RMK AO2
14837KMSN MSN20010810175012808/10/01 17:50:31  5-MIN KMSN 102350Z 32003KT 10SM CLR 21/13 A3008 720 63 1600 320/03 RMK AO2 SLP182 T02060133 10239 20206 58001
14837KMSN MSN20010810175509308/10/01 17:55:31  5-MIN KMSN 102355Z 32004KT 10SM CLR 20/13 A3008 720 65 1500 320/04 RMK AO2
14837KMSN MSN20010810180009308/10/01 18:00:31  5-MIN KMSN 110000Z 32003KT 10SM CLR 21/13 A3008 720 63 1600 310/03 RMK AO2
14837KMSN MSN20010810180509308/10/01 18:05:31  5-MIN KMSN 110005Z 31003KT 10SM CLR 21/13 A3007 720 60 1600 310/03 RMK AO2
14837KMSN MSN20010810181009308/10/01 18:10:31  5-MIN KMSN 110010Z 32004KT 10SM CLR 21/13 A3007 730 60 1600 320/04 RMK AO2
14837KMSN MSN20010810181509308/10/01 18:15:31  5-MIN KMSN 110015Z 31003KT 10SM CLR 19/13 A3007 730 67 1500 310/03 RMK AO2
14837KMSN MSN20010810182009308/10/01 18:20:31  5-MIN KMSN 110020Z 31003KT 10SM CLR 19/14 A3007 730 70 1500 310/03 RMK AO2
14837KMSN MSN20010810182509308/10/01 18:25:31  5-MIN KMSN 110025Z 30003KT 10SM CLR 19/14 A3007 730 72 1400 300/03 RMK AO2
14837KMSN MSN20010810183009308/10/01 18:30:31  5-MIN KMSN 110030Z 30003KT 10SM CLR 19/13 A3007 720 70 1400 300/03 RMK AO2
14837KMSN MSN20010810183509308/10/01 18:35:31  5-MIN KMSN 110035Z 00000KT 10SM CLR 19/14 A3007 720 72 1400 000/00 RMK AO2
14837KMSN MSN20010810184009308/10/01 18:40:31  5-MIN KMSN 110040Z 00000KT 10SM CLR 19/14 A3007 720 75 1400 000/00 RMK AO2
14837KMSN MSN20010810184509308/10/01 18:45:31  5-MIN KMSN 110045Z 30003KT 10SM CLR 18/14 A3007 720 78 1300 300/03 RMK AO2
14837KMSN MSN20010810185011008/10/01 18:50:31  5-MIN KMSN 110050Z 31003KT 10SM CLR 18/14 A3007 730 81 1300 310/03 RMK AO2 SLP182 T01780144
14837KMSN MSN20010810185509308/10/01 18:55:31  5-MIN KMSN 110055Z 30003KT 10SM CLR 17/14 A3007 720 83 1200 300/03 RMK AO2
14837KMSN MSN20010810190009308/10/01 19:00:31  5-MIN KMSN 110100Z 31004KT 10SM CLR 17/14 A3008 720 83 1200 300/04 RMK AO2
14837KMSN MSN20010810190509308/10/01 19:05:31  5-MIN KMSN 110105Z 31004KT 10SM CLR 17/14 A3007 720 83 1100 310/04 RMK AO2
14837KMSN MSN20010810191009308/10/01 19:10:31  5-MIN KMSN 110110Z 31003KT 10SM CLR 17/14 A3007 720 83 1100 310/03 RMK AO2
14837KMSN MSN20010810191509308/10/01 19:15:31  5-MIN KMSN 110115Z 31003KT 10SM CLR 17/14 A3007 720 83 1200 310/03 RMK AO2
14837KMSN MSN20010810192009208/10/01 19:20:31  5-MIN KMSN 110120Z 30003KT 8SM CLR 17/14 A3007 720 86 1100 300/03 RMK AO2
14837KMSN MSN20010810192509508/10/01 19:25:31  5-MIN KMSN 110125Z 00000KT 5SM BR CLR 17/14 A3008 720 86 1100 000/00 RMK AO2
14837KMSN MSN20010810193009508/10/01 19:30:31  5-MIN KMSN 110130Z 00000KT 4SM BR CLR 17/14 A3008 720 86 1100 000/00 RMK AO2
14837KMSN MSN20010810193509508/10/01 19:35:31  5-MIN KMSN 110135Z 00000KT 4SM BR CLR 17/14 A3008 720 86 1100 000/00 RMK AO2
14837KMSN MSN20010810194009508/10/01 19:40:31  5-MIN KMSN 110140Z 00000KT 4SM BR CLR 16/14 A3008 720 90 1100 000/00 RMK AO2
14837KMSN MSN20010810194509308/10/01 19:45:31  5-MIN KMSN 110145Z 00000KT 10SM CLR 16/14 A3008 710 86 1000 000/00 RMK AO2
14837KMSN MSN20010810195011008/10/01 19:50:31  5-MIN KMSN 110150Z 00000KT 10SM CLR 16/14 A3008 710 86 1100 000/00 RMK AO2 SLP186 T01610139
14837KMSN MSN20010810195509208/10/01 19:55:31  5-MIN KMSN 110155Z 28003KT 7SM CLR 16/14 A3009 710 86 1000 280/03 RMK AO2
14837KMSN MSN20010810200009208/10/01 20:00:31  5-MIN KMSN 110200Z 00000KT 9SM CLR 16/14 A3009 710 86 1000 000/00 RMK AO2
14837KMSN MSN20010810200509308/10/01 20:05:31  5-MIN KMSN 110205Z 00000KT 10SM CLR 16/14 A3009 710 86 1000 000/00 RMK AO2
14837KMSN MSN20010810201009308/10/01 20:10:31  5-MIN KMSN 110210Z 00000KT 10SM CLR 16/14 A3009 710 86 1000 000/00 RMK AO2
14837KMSN MSN20010810201509308/10/01 20:15:31  5-MIN KMSN 110215Z 00000KT 10SM CLR 16/14 A3009 710 86 1000 000/00 RMK AO2
14837KMSN MSN20010810202009308/10/01 20:20:31  5-MIN KMSN 110220Z 00000KT 10SM CLR 16/13 A3009 700 83 1000 000/00 RMK AO2
14837KMSN MSN20010810202509308/10/01 20:25:31  5-MIN KMSN 110225Z 00000KT 10SM CLR 16/13 A3010 700 83 1000 000/00 RMK AO2
14837KMSN MSN20010810203009308/10/01 20:30:31  5-MIN KMSN 110230Z 00000KT 10SM CLR 16/13 A3010 700 83 1000 000/00 RMK AO2
14837KMSN MSN20010810203509308/10/01 20:35:31  5-MIN KMSN 110235Z 00000KT 10SM CLR 16/14 A3010 700 90 1000 000/00 RMK AO2
14837KMSN MSN20010810204009308/10/01 20:40:31  5-MIN KMSN 110240Z 00000KT 10SM CLR 16/14 A3010 700 86 1000 000/00 RMK AO2
14837KMSN MSN20010810204509308/10/01 20:45:31  5-MIN KMSN 110245Z 00000KT 10SM CLR 16/13 A3011 690 86 1000 000/00 RMK AO2
14837KMSN MSN20010810205011608/10/01 20:50:31  5-MIN KMSN 110250Z 00000KT 10SM CLR 16/13 A3011 690 86 1000 000/00 RMK AO2 SLP192 T01560133 56008
14837KMSN MSN20010810205509308/10/01 20:55:31  5-MIN KMSN 110255Z 00000KT 10SM CLR 16/14 A3010 690 90 1000 000/00 RMK AO2
14837KMSN MSN20010810210009208/10/01 21:00:31  5-MIN KMSN 110300Z 00000KT 10SM CLR 15/13 A3010 700 90 900 000/00 RMK AO2
14837KMSN MSN20010810210509208/10/01 21:05:31  5-MIN KMSN 110305Z 00000KT 10SM CLR 15/13 A3010 700 90 900 000/00 RMK AO2
14837KMSN MSN20010810211009208/10/01 21:10:31  5-MIN KMSN 110310Z 00000KT 10SM CLR 15/14 A3010 690 93 900 000/00 RMK AO2
14837KMSN MSN20010810211509308/10/01 21:15:31  5-MIN KMSN 110315Z 29003KT 10SM CLR 16/14 A3010 690 90 1000 290/03 RMK AO2
14837KMSN MSN20010810212009208/10/01 21:20:31  5-MIN KMSN 110320Z 30003KT 10SM CLR 15/14 A3010 690 93 900 300/03 RMK AO2
14837KMSN MSN20010810212509208/10/01 21:25:31  5-MIN KMSN 110325Z 30003KT 10SM CLR 15/13 A3011 690 90 900 300/03 RMK AO2
14837KMSN MSN20010810213009208/10/01 21:30:31  5-MIN KMSN 110330Z 30004KT 10SM CLR 15/13 A3011 690 90 900 300/04 RMK AO2
14837KMSN MSN20010810213509308/10/01 21:35:31  5-MIN KMSN 110335Z 30004KT 10SM CLR 16/13 A3010 690 86 1000 300/04 RMK AO2
14837KMSN MSN20010810214009308/10/01 21:40:31  5-MIN KMSN 110340Z 31004KT 10SM CLR 16/13 A3010 700 86 1000 310/04 RMK AO2
14837KMSN MSN20010810214509308/10/01 21:45:31  5-MIN KMSN 110345Z 31003KT 10SM CLR 16/13 A3010 700 86 1000 300/03 RMK AO2
14837KMSN MSN20010810215010908/10/01 21:50:31  5-MIN KMSN 110350Z 31003KT 10SM CLR 15/13 A3010 700 90 900 300/03 RMK AO2 SLP191 T01500133
14837KMSN MSN20010810215509208/10/01 21:55:31  5-MIN KMSN 110355Z 31003KT 10SM CLR 15/13 A3010 700 90 900 310/03 RMK AO2
14837KMSN MSN20010810220009208/10/01 22:00:31  5-MIN KMSN 110400Z 31003KT 10SM CLR 15/13 A3010 700 90 900 310/03 RMK AO2
14837KMSN MSN20010810220509208/10/01 22:05:31  5-MIN KMSN 110405Z 32003KT 10SM CLR 15/13 A3010 700 90 900 320/03 RMK AO2
14837KMSN MSN20010810221009308/10/01 22:10:31  5-MIN KMSN 110410Z 30003KT 10SM CLR 16/13 A3010 700 86 1000 300/03 RMK AO2
14837KMSN MSN20010810221509208/10/01 22:15:31  5-MIN KMSN 110415Z 00000KT 10SM CLR 15/13 A3010 700 90 900 000/00 RMK AO2
14837KMSN MSN20010810222009308/10/01 22:20:31  5-MIN KMSN 110420Z 00000KT 10SM CLR 16/13 A3010 700 86 1000 000/00 RMK AO2
14837KMSN MSN20010810222509208/10/01 22:25:31  5-MIN KMSN 110425Z 00000KT 10SM CLR 15/13 A3010 700 90 900 000/00 RMK AO2
14837KMSN MSN20010810223009208/10/01 22:30:31  5-MIN KMSN 110430Z 32003KT 10SM CLR 15/13 A3011 690 90 900 320/03 RMK AO2
14837KMSN MSN20010810223509208/10/01 22:35:31  5-MIN KMSN 110435Z 00000KT 10SM CLR 14/13 A3011 690 93 800 000/00 RMK AO2
14837KMSN MSN20010810224009208/10/01 22:40:31  5-MIN KMSN 110440Z 00000KT 10SM CLR 15/13 A3011 690 90 900 000/00 RMK AO2
14837KMSN MSN20010810224509208/10/01 22:45:31  5-MIN KMSN 110445Z 00000KT 10SM CLR 15/13 A3011 690 90 900 000/00 RMK AO2
14837KMSN MSN20010810225010908/10/01 22:50:31  5-MIN KMSN 110450Z 00000KT 10SM CLR 15/13 A3011 690 90 900 000/00 RMK AO2 SLP194 T01500133
14837KMSN MSN20010810225509208/10/01 22:55:31  5-MIN KMSN 110455Z 00000KT 10SM CLR 14/13 A3011 690 93 800 000/00 RMK AO2
14837KMSN MSN20010810230009208/10/01 23:00:31  5-MIN KMSN 110500Z 00000KT 10SM CLR 14/13 A3011 690 93 800 000/00 RMK AO2
14837KMSN MSN20010810230509208/10/01 23:05:31  5-MIN KMSN 110505Z 00000KT 10SM CLR 14/13 A3011 690 93 800 000/00 RMK AO2
14837KMSN MSN20010810231009208/10/01 23:10:31  5-MIN KMSN 110510Z 01003KT 10SM CLR 14/13 A3011 690 93 800 010/03 RMK AO2
14837KMSN MSN20010810231509208/10/01 23:15:31  5-MIN KMSN 110515Z 00000KT 10SM CLR 14/13 A3011 690 93 800 000/00 RMK AO2
14837KMSN MSN20010810232009208/10/01 23:20:31  5-MIN KMSN 110520Z 00000KT 10SM CLR 14/13 A3011 690 90 800 000/00 RMK AO2
14837KMSN MSN20010810232509208/10/01 23:25:31  5-MIN KMSN 110525Z 00000KT 10SM CLR 14/13 A3011 690 90 800 000/00 RMK AO2
14837KMSN MSN20010810233009208/10/01 23:30:31  5-MIN KMSN 110530Z 00000KT 10SM CLR 14/13 A3011 690 90 800 000/00 RMK AO2
14837KMSN MSN20010810233509208/10/01 23:35:31  5-MIN KMSN 110535Z 00000KT 10SM CLR 15/13 A3011 690 86 900 000/00 RMK AO2
14837KMSN MSN20010810234009208/10/01 23:40:31  5-MIN KMSN 110540Z 00000KT 10SM CLR 14/13 A3011 690 93 800 000/00 RMK AO2
14837KMSN MSN20010810234509208/10/01 23:45:31  5-MIN KMSN 110545Z 00000KT 10SM CLR 15/13 A3011 690 90 900 000/00 RMK AO2
14837KMSN MSN20010810235013708/10/01 23:50:31  5-MIN KMSN 110550Z 11007KT 10SM CLR 15/13 A3011 680 90 900 110/07 RMK AO2 SLP196 T01500133 10206 20144 402390133 53009
14837KMSN MSN20010810235509308/10/01 23:55:31  5-MIN KMSN 110555Z 10007KT 10SM CLR 16/13 A3011 690 86 1000 100/07 RMK AO2
14837KMSN MSN20010811000009308/11/01 00:00:31  5-MIN KMSN 110600Z 10005KT 10SM CLR 16/13 A3011 690 80 1000 100/05 RMK AO2
14837KMSN MSN20010811000509308/11/01 00:05:31  5-MIN KMSN 110605Z 12003KT 10SM CLR 16/13 A3010 700 83 1000 120/03 RMK AO2
14837KMSN MSN20010811001009308/11/01 00:10:31  5-MIN KMSN 110610Z 00000KT 10SM CLR 16/13 A3010 690 83 1000 000/00 RMK AO2
14837KMSN MSN20010811001509308/11/01 00:15:31  5-MIN KMSN 110615Z 00000KT 10SM CLR 16/13 A3010 690 86 1000 000/00 RMK AO2
14837KMSN MSN20010823042010008/23/01 04:20:31  5-MIN KMSN 231020Z 36003KT 3/4SM BR VV001 19/19 A2997 820 100 1500 360/03 RMK AO2
14837KMSN MSN20010823042510008/23/01 04:25:31  5-MIN KMSN 231025Z 35003KT 3/4SM BR VV001 19/19 A2997 820 100 1500 350/03 RMK AO2
14837KMSN MSN20010823043010008/23/01 04:30:31  5-MIN KMSN 231030Z 34003KT 1/2SM FG VV001 19/19 A2998 810 100 1500 340/03 RMK AO2
14837KMSN MSN20010823043510008/23/01 04:35:31  5-MIN KMSN 231035Z VRB03KT 1/2SM FG VV001 19/19 A2998 810 100 1500 VRB/03 RMK AO2
14837KMSN MSN20010823044010008/23/01 04:40:31  5-MIN KMSN 231040Z 36003KT 1/2SM FG VV001 19/19 A2998 810 100 1500 360/03 RMK AO2
14837KMSN MSN20010823044510008/23/01 04:45:31  5-MIN KMSN 231045Z 36005KT 1/2SM FG VV001 19/19 A2998 810 100 1500 360/05 RMK AO2
14837KMSN MSN20010823045011708/23/01 04:50:31  5-MIN KMSN 231050Z 35004KT 1/4SM FG VV001 19/19 A2998 810 100 1500 350/04 RMK AO2 SLP149 T01890189
14837KMSN MSN20010823045511208/23/01 04:55:31  5-MIN KMSN 231055Z 35003KT 1/4SM FG VV001 19/19 A2998 810 100 1500 350/03 RMK AO2 TWR VIS 1/4
14837KMSN MSN20010823050011208/23/01 05:00:31  5-MIN KMSN 231100Z 35004KT 1/4SM FG VV001 19/19 A2999 800 100 1500 350/04 RMK AO2 TWR VIS 1/4
14837KMSN MSN20010823050511208/23/01 05:05:31  5-MIN KMSN 231105Z 35004KT 1/4SM FG VV001 19/19 A2999 800 100 1500 350/04 RMK AO2 TWR VIS 1/4
14837KMSN MSN20010823051011208/23/01 05:10:31  5-MIN KMSN 231110Z 34003KT 1/4SM FG VV001 19/19 A2999 800 100 1500 340/03 RMK AO2 TWR VIS 1/4
14837KMSN MSN20010823051511208/23/01 05:15:31  5-MIN KMSN 231115Z 32003KT 1/4SM FG VV001 19/19 A2999 800 100 1500 320/03 RMK AO2 TWR VIS 1/4
14837KMSN MSN20010823052011208/23/01 05:20:31  5-MIN KMSN 231120Z 00000KT 1/4SM FG VV001 19/19 A3000 800 100 1500 000/00 RMK AO2 TWR VIS 1/4
14837KMSN MSN20010823052511108/23/01 05:25:31  5-MIN KMSN 231125Z 00000KT 1/4SM FG VV001 19/19 A3000 790 97 1500 000/00 RMK AO2 TWR VIS 1/4
14837KMSN MSN20010823053009908/23/01 05:30:31  5-MIN KMSN 231130Z 00000KT 1/4SM FG VV001 19/19 A3000 790 97 1500 000/00 RMK AO2
14837KMSN MSN20010823053509908/23/01 05:35:31  5-MIN KMSN 231135Z 00000KT 1/4SM FG VV001 19/19 A3000 790 97 1500 000/00 RMK AO2
14837KMSN MSN20010823054009908/23/01 05:40:31  5-MIN KMSN 231140Z 00000KT 1/4SM FG VV001 19/19 A3000 790 97 1500 000/00 RMK AO2
14837KMSN MSN20010823054509908/23/01 05:45:31  5-MIN KMSN 231145Z 00000KT 1/4SM FG VV001 19/19 A3001 790 97 1500 000/00 RMK AO2
14837KMSN MSN20010823055014708/23/01 05:50:31  5-MIN KMSN 231150Z 00000KT 1/4SM FG VV001 19/19 A3001 780 100 1500 000/00 RMK AO2 SLP157 60001 70021 T01940194 10194 20189 53002
14837KMSN MSN20010823055511208/23/01 05:55:31  5-MIN KMSN 231155Z 00000KT 1/4SM FG VV001 19/19 A3001 780 100 1500 000/00 RMK AO2 TWR VIS 1/4
14837KMSN MSN20010823060010008/23/01 06:00:31  5-MIN KMSN 231200Z 01003KT 1/8SM FG VV001 19/19 A3002 780 100 1500 010/03 RMK AO2
14837KMSN MSN20010823060510008/23/01 06:05:31  5-MIN KMSN 231205Z 03004KT 1/8SM FG VV001 19/19 A3002 770 100 1500 030/04 RMK AO2
14837KMSN MSN20010823061010008/23/01 06:10:31  5-MIN KMSN 231210Z 04004KT 1/8SM FG VV001 19/19 A3002 770 100 1500 040/04 RMK AO2
14837KMSN MSN20010823061510008/23/01 06:15:31  5-MIN KMSN 231215Z 03003KT 1/8SM FG VV001 19/19 A3002 770 100 1500 030/03 RMK AO2
14837KMSN MSN20010823062010008/23/01 06:20:31  5-MIN KMSN 231220Z 02004KT 1/8SM FG VV001 19/19 A3002 770 100 1500 020/04 RMK AO2
14837KMSN MSN20010823062510008/23/01 06:25:31  5-MIN KMSN 231225Z 02004KT 1/8SM FG VV001 19/19 A3002 770 100 1500 020/04 RMK AO2
14837KMSN MSN20010823063010008/23/01 06:30:31  5-MIN KMSN 231230Z 02004KT 1/8SM FG VV001 19/19 A3003 770 100 1500 020/04 RMK AO2
14837KMSN MSN20010823063510008/23/01 06:35:31  5-MIN KMSN 231235Z 04004KT 1/8SM FG VV001 19/19 A3003 770 100 1500 040/04 RMK AO2
14837KMSN MSN20010823064010008/23/01 06:40:31  5-MIN KMSN 231240Z 02004KT 1/8SM FG VV001 19/19 A3002 770 100 1500 020/04 RMK AO2
14837KMSN MSN20010823064510008/23/01 06:45:31  5-MIN KMSN 231245Z 00000KT 1/8SM FG VV001 19/19 A3003 770 100 1500 000/00 RMK AO2
14837KMSN MSN20010823065011708/23/01 06:50:31  5-MIN KMSN 231250Z 01003KT 1/8SM FG VV001 19/19 A3003 760 100 1500 010/03 RMK AO2 SLP165 T01940194
14837KMSN MSN20010823065510008/23/01 06:55:31  5-MIN KMSN 231255Z 07003KT 1/8SM FG VV001 19/19 A3003 760 100 1500 070/03 RMK AO2
14837KMSN MSN20010823070010008/23/01 07:00:31  5-MIN KMSN 231300Z 00000KT 1/8SM FG VV001 19/19 A3003 760 100 1500 000/00 RMK AO2
14837KMSN MSN20010823070510008/23/01 07:05:31  5-MIN KMSN 231305Z 06003KT 1/8SM FG VV001 19/19 A3003 760 100 1500 060/03 RMK AO2
14837KMSN MSN20010823071010008/23/01 07:10:31  5-MIN KMSN 231310Z 05003KT 1/8SM FG VV001 19/19 A3004 760 100 1500 050/03 RMK AO2
14837KMSN MSN20010823071510008/23/01 07:15:31  5-MIN KMSN 231315Z 02003KT 1/8SM FG VV001 19/19 A3004 760 100 1500 020/03 RMK AO2
14837KMSN MSN20010823072010008/23/01 07:20:31  5-MIN KMSN 231320Z 01004KT 1/8SM FG VV001 19/19 A3004 760 100 1500 010/04 RMK AO2
14837KMSN MSN20010823072510008/23/01 07:25:31  5-MIN KMSN 231325Z 03004KT 1/8SM FG VV001 19/19 A3004 750 100 1500 030/04 RMK AO2
14837KMSN MSN20010823073010008/23/01 07:30:31  5-MIN KMSN 231330Z 02004KT 1/8SM FG VV001 19/19 A3004 750 100 1500 020/04 RMK AO2
14837KMSN MSN20010823073511308/23/01 07:35:31  5-MIN KMSN 231335Z 03003KT 1/8SM FG OVC001 19/19 A3004 750 100 1500 030/03 RMK AO2 SFC VIS 1/4
14837KMSN MSN20010823074011208/23/01 07:40:31  5-MIN KMSN 231340Z 03005KT 1/8SM FG OVC001 20/19 A3004 750 97 1500 030/05 RMK AO2 SFC VIS 1/2
14837KMSN MSN20010823074511308/23/01 07:45:31  5-MIN KMSN 231345Z VRB03KT 1/2SM BR OVC001 20/20 A3004 750 100 1600 VRB/03 RMK AO2 SFC VIS 3/4
14837KMSN MSN20010823075012908/23/01 07:50:31  5-MIN KMSN 231350Z 05003KT 1/2SM BR BKN001 21/20 A3004 750 97 1600 050/03 RMK AO2 SFC VIS 3/4 SLP169 T02060200
14837KMSN MSN20010823075511108/23/01 07:55:31  5-MIN KMSN 231355Z 36003KT 1/2SM BR OVC001 21/21 A3004 750 100 1600 360/03 RMK AO2 SFC VIS 1
14837KMSN MSN20010823080011408/23/01 08:00:31  5-MIN KMSN 231400Z 36003KT 1/2SM BR OVC001 21/20 A3005 750 97 1600 360/03 RMK AO2 SFC VIS 1 1/4
14837KMSN MSN20010823080511208/23/01 08:05:31  5-MIN KMSN 231405Z 01003KT 1SM BR OVC001 21/20 A3004 750 97 1600 010/03 RMK AO2 SFC VIS 1 1/2
14837KMSN MSN20010823081011308/23/01 08:10:31  5-MIN KMSN 231410Z 04004KT 1SM BR BKN001 21/21 A3005 750 100 1600 030/04 RMK AO2 SFC VIS 1 1/2
14837KMSN MSN20010823081510908/23/01 08:15:31  5-MIN KMSN 231415Z 05003KT 1SM BR BKN001 21/21 A3005 750 100 1600 050/03 RMK AO2 SFC VIS 2
14837KMSN MSN20010823082010908/23/01 08:20:31  5-MIN KMSN 231420Z 03004KT 1SM BR BKN001 21/21 A3005 750 100 1600 020/04 RMK AO2 SFC VIS 2
14837KMSN MSN20010823082511308/23/01 08:25:31  5-MIN KMSN 231425Z 01006KT 1SM BR BKN003 21/21 A3005 750 100 1700 010/06 RMK AO2 SFC VIS 2 1/2
14837KMSN MSN20010823083011208/23/01 08:30:31  5-MIN KMSN 231430Z 02006KT 2SM BR BKN003 21/21 A3005 750 97 1700 020/06 RMK AO2 SFC VIS 2 1/2
14837KMSN MSN20010823083512008/23/01 08:35:31  5-MIN KMSN 231435Z 04008KT 2SM BR BKN005 22/21 A3005 740 93 1700 040/08 RMK AO2 SFC VIS 3 CIG 002V009
14837KMSN MSN20010823084012708/23/01 08:40:31  5-MIN KMSN 231440Z 04006KT 2SM BR BKN005 BKN009 23/21 A3005 740 87 1900 030/06 RMK AO2 SFC VIS 3 CIG 003V008
14837KMSN MSN20010823084512008/23/01 08:45:31  5-MIN KMSN 231445Z 03008KT 2SM BR BKN007 23/21 A3005 740 90 1900 030/08 RMK AO2 SFC VIS 3 CIG 004V010
14837KMSN MSN20010823085013308/23/01 08:50:31  5-MIN KMSN 231450Z 03008KT 3SM BR BKN007 23/21 A3005 740 87 1900 030/08 RMK AO2 CIG 004V010 SLP173 T02280206 53013
14837KMSN MSN20010823085511008/23/01 08:55:31  5-MIN KMSN 231455Z 04009KT 4SM BR BKN007 23/21 A3006 740 87 1900 040/09 RMK AO2 CIG 005V010
14837KMSN MSN20010823090009808/23/01 09:00:31  5-MIN KMSN 231500Z 04009KT 3SM BR BKN007 23/21 A3006 740 87 1800 040/09 RMK AO2
14837KMSN MSN20010823090509808/23/01 09:05:31  5-MIN KMSN 231505Z 05009KT 3SM BR BKN007 23/21 A3006 730 90 1800 050/09 RMK AO2
14837KMSN MSN20010823091009808/23/01 09:10:31  5-MIN KMSN 231510Z 04009KT 3SM BR BKN007 23/21 A3006 730 87 1800 040/09 RMK AO2
14837KMSN MSN20010823091509808/23/01 09:15:31  5-MIN KMSN 231515Z 06007KT 3SM BR BKN007 22/21 A3006 730 90 1800 060/07 RMK AO2
14837KMSN MSN20010823092009808/23/01 09:20:31  5-MIN KMSN 231520Z 02007KT 3SM BR OVC007 23/21 A3006 730 87 1800 020/07 RMK AO2
14837KMSN MSN20010823092509808/23/01 09:25:31  5-MIN KMSN 231525Z 03006KT 3SM BR OVC007 23/21 A3006 730 87 1800 030/06 RMK AO2
14837KMSN MSN20010823093009808/23/01 09:30:31  5-MIN KMSN 231530Z 03006KT 3SM BR OVC007 23/21 A3006 730 90 1800 030/06 RMK AO2
14837KMSN MSN20010823093511008/23/01 09:35:31  5-MIN KMSN 231535Z 06005KT 3SM BR BKN007 23/21 A3006 730 87 1800 060/05 RMK AO2 CIG 007V012
14837KMSN MSN20010823094011008/23/01 09:40:31  5-MIN KMSN 231540Z 06004KT 3SM HZ BKN007 23/20 A3006 730 84 1800 060/04 RMK AO2 CIG 007V012
14837KMSN MSN20010823094511008/23/01 09:45:31  5-MIN KMSN 231545Z 06004KT 3SM BR BKN007 23/21 A3007 730 87 1800 060/04 RMK AO2 CIG 007V012
14837KMSN MSN20010823095012708/23/01 09:50:31  5-MIN KMSN 231550Z 08005KT 4SM HZ BKN010 24/21 A3007 730 84 2000 080/05 RMK AO2 CIG 007V013 SLP177 T02390211
14837KMSN MSN20010823095511008/23/01 09:55:31  5-MIN KMSN 231555Z 06006KT 4SM HZ BKN010 24/21 A3007 730 84 2000 060/06 RMK AO2 CIG 008V013
14837KMSN MSN20010823100009808/23/01 10:00:31  5-MIN KMSN 231600Z 08005KT 3SM HZ BKN010 24/21 A3007 730 81 2000 080/05 RMK AO2
14837KMSN MSN20010823100509808/23/01 10:05:31  5-MIN KMSN 231605Z 07006KT 3SM HZ BKN010 24/21 A3007 730 81 2000 070/06 RMK AO2
14837KMSN MSN20010823101009808/23/01 10:10:31  5-MIN KMSN 231610Z 06006KT 3SM HZ BKN010 24/21 A3007 730 81 2000 060/06 RMK AO2
14837KMSN MSN20010823101509808/23/01 10:15:31  5-MIN KMSN 231615Z 05005KT 3SM HZ BKN012 24/21 A3007 730 81 2000 050/05 RMK AO2
14837KMSN MSN20010823102009808/23/01 10:20:31  5-MIN KMSN 231620Z VRB05KT 3SM HZ BKN012 24/21 A3007 730 81 2000 VRB/05 RMK AO2
14837KMSN MSN20010823102509808/23/01 10:25:31  5-MIN KMSN 231625Z 08007KT 3SM HZ BKN012 25/21 A3007 730 79 2100 080/07 RMK AO2
14837KMSN MSN20010823103009808/23/01 10:30:31  5-MIN KMSN 231630Z 07007KT 3SM HZ BKN012 24/21 A3007 730 78 2000 070/07 RMK AO2
14837KMSN MSN20010823103509808/23/01 10:35:31  5-MIN KMSN 231635Z 04006KT 3SM HZ BKN012 24/21 A3007 730 81 2000 040/06 RMK AO2
14837KMSN MSN20010823104009808/23/01 10:40:31  5-MIN KMSN 231640Z VRB06KT 3SM HZ BKN012 24/21 A3007 730 81 2000 VRB/06 RMK AO2
14837KMSN MSN20010823104509808/23/01 10:45:31  5-MIN KMSN 231645Z 08007KT 3SM HZ BKN012 24/21 A3007 730 81 2000 080/07 RMK AO2
14837KMSN MSN20010823105011508/23/01 10:50:31  5-MIN KMSN 231650Z 09006KT 3SM HZ BKN012 24/21 A3007 730 78 2000 080/06 RMK AO2 SLP178 T02440206
14837KMSN MSN20010823105509808/23/01 10:55:31  5-MIN KMSN 231655Z 10006KT 4SM HZ BKN012 25/21 A3007 730 79 2100 100/06 RMK AO2
14837KMSN MSN20010823110009808/23/01 11:00:31  5-MIN KMSN 231700Z 08007KT 4SM HZ BKN012 24/21 A3007 730 78 2000 080/07 RMK AO2
14837KMSN MSN20010823110509808/23/01 11:05:31  5-MIN KMSN 231705Z 08007KT 4SM HZ BKN014 25/21 A3007 730 76 2100 080/07 RMK AO2
14837KMSN MSN20010823111009808/23/01 11:10:31  5-MIN KMSN 231710Z 06007KT 4SM HZ BKN014 26/21 A3007 730 76 2200 060/07 RMK AO2
14837KMSN MSN20010823111509808/23/01 11:15:31  5-MIN KMSN 231715Z 08006KT 4SM HZ OVC014 25/21 A3007 730 79 2100 080/06 RMK AO2
14837KMSN MSN20010823112009808/23/01 11:20:31  5-MIN KMSN 231720Z 03008KT 4SM HZ OVC014 24/21 A3007 730 78 2000 030/08 RMK AO2
14837KMSN MSN20010823112509808/23/01 11:25:31  5-MIN KMSN 231725Z 06008KT 4SM HZ OVC014 24/21 A3007 730 81 2000 060/08 RMK AO2
14837KMSN MSN20010823113009808/23/01 11:30:31  5-MIN KMSN 231730Z 05009KT 4SM HZ OVC014 25/21 A3007 730 79 2100 050/09 RMK AO2
14837KMSN MSN20010823113509808/23/01 11:35:31  5-MIN KMSN 231735Z 05008KT 4SM HZ OVC014 24/21 A3007 720 78 2000 050/08 RMK AO2
14837KMSN MSN20010823114009808/23/01 11:40:31  5-MIN KMSN 231740Z 05008KT 4SM HZ OVC014 24/21 A3007 720 78 2000 040/08 RMK AO2
14837KMSN MSN20010823114509808/23/01 11:45:31  5-MIN KMSN 231745Z 05008KT 4SM HZ OVC014 24/21 A3008 720 78 2000 050/08 RMK AO2
14837KMSN MSN20010823115013308/23/01 11:50:31  5-MIN KMSN 231750Z 07008KT 4SM HZ OVC014 24/21 A3008 720 78 2000 060/08 RMK AO2 SLP181 T02440206 10256 20194 51015
14837KMSN MSN20010823115509808/23/01 11:55:31  5-MIN KMSN 231755Z 05007KT 4SM HZ OVC014 24/21 A3008 720 78 2000 050/07 RMK AO2
14837KMSN MSN20010823120009808/23/01 12:00:31  5-MIN KMSN 231800Z 07008KT 4SM HZ OVC016 24/21 A3008 720 78 2000 070/08 RMK AO2
14837KMSN MSN20010823120509808/23/01 12:05:31  5-MIN KMSN 231805Z 07008KT 4SM HZ BKN016 25/21 A3008 720 76 2100 070/08 RMK AO2
14837KMSN MSN20010823121009808/23/01 12:10:31  5-MIN KMSN 231810Z 06008KT 4SM HZ BKN016 24/20 A3008 720 76 2000 060/08 RMK AO2
14837KMSN MSN20010823121509808/23/01 12:15:31  5-MIN KMSN 231815Z 05008KT 4SM HZ BKN016 25/20 A3008 720 73 2100 040/08 RMK AO2
14837KMSN MSN20010823122009808/23/01 12:20:31  5-MIN KMSN 231820Z 03007KT 4SM HZ BKN016 25/21 A3008 720 76 2100 020/07 RMK AO2
14837KMSN MSN20010823122509808/23/01 12:25:31  5-MIN KMSN 231825Z 04009KT 4SM HZ BKN016 25/21 A3008 720 76 2100 040/09 RMK AO2
14837KMSN MSN20010823123009808/23/01 12:30:31  5-MIN KMSN 231830Z 04008KT 4SM HZ BKN018 24/20 A3008 720 76 2000 040/08 RMK AO2
14837KMSN MSN20010823123509808/23/01 12:35:31  5-MIN KMSN 231835Z 04009KT 5SM HZ OVC018 24/20 A3008 710 76 2000 040/09 RMK AO2
14837KMSN MSN20010823124009808/23/01 12:40:31  5-MIN KMSN 231840Z 03009KT 5SM HZ OVC018 24/20 A3008 710 76 2000 030/09 RMK AO2
14837KMSN MSN20010823124509808/23/01 12:45:31  5-MIN KMSN 231845Z 03008KT 5SM HZ OVC018 24/20 A3008 710 78 1900 030/08 RMK AO2
14837KMSN MSN20010823125011508/23/01 12:50:31  5-MIN KMSN 231850Z 04009KT 5SM HZ OVC018 24/20 A3009 710 76 2000 040/09 RMK AO2 SLP184 T02440200
14837KMSN MSN20010823125509808/23/01 12:55:31  5-MIN KMSN 231855Z 06006KT 5SM HZ OVC018 24/21 A3009 710 78 2000 060/06 RMK AO2
14837KMSN MSN20010823130009808/23/01 13:00:31  5-MIN KMSN 231900Z 06008KT 6SM HZ OVC018 24/20 A3009 710 76 2000 060/08 RMK AO2
14837KMSN MSN20010823130509808/23/01 13:05:31  5-MIN KMSN 231905Z 09007KT 6SM HZ OVC020 24/20 A3008 710 76 2000 090/07 RMK AO2
14837KMSN MSN20010823131009808/23/01 13:10:31  5-MIN KMSN 231910Z 08007KT 6SM HZ BKN020 25/20 A3008 710 73 2100 080/07 RMK AO2
14837KMSN MSN20010823131509808/23/01 13:15:31  5-MIN KMSN 231915Z 07006KT 6SM HZ BKN020 26/20 A3008 720 71 2100 070/06 RMK AO2
14837KMSN MSN20010823132009508/23/01 13:20:31  5-MIN KMSN 231920Z 10006KT 7SM BKN020 25/20 A3008 710 73 2100 100/06 RMK AO2
14837KMSN MSN20010823132509508/23/01 13:25:31  5-MIN KMSN 231925Z 05006KT 7SM BKN020 26/21 A3008 720 73 2100 050/06 RMK AO2
14837KMSN MSN20010823133009508/23/01 13:30:31  5-MIN KMSN 231930Z 07009KT 7SM BKN020 26/20 A3008 720 68 2200 070/09 RMK AO2
14837KMSN MSN20010823133509508/23/01 13:35:31  5-MIN KMSN 231935Z 07010KT 7SM BKN020 26/20 A3008 720 68 2200 070/10 RMK AO2
14837KMSN MSN20010823134009508/23/01 13:40:31  5-MIN KMSN 231940Z 05009KT 8SM SCT022 26/21 A3008 720 71 2200 050/09 RMK AO2
14837KMSN MSN20010823134509508/23/01 13:45:31  5-MIN KMSN 231945Z 06007KT 7SM SCT022 26/20 A3008 720 71 2100 060/07 RMK AO2
14837KMSN MSN20010823135011208/23/01 13:50:31  5-MIN KMSN 231950Z 06009KT 7SM SCT022 26/20 A3008 720 68 2200 060/09 RMK AO2 SLP180 T02610200
14837KMSN MSN20010823135509508/23/01 13:55:31  5-MIN KMSN 231955Z 06009KT 8SM FEW022 26/21 A3008 720 71 2200 060/09 RMK AO2
14837KMSN MSN20010823140009508/23/01 14:00:31  5-MIN KMSN 232000Z 10007KT 7SM FEW022 26/21 A3008 720 71 2200 100/07 RMK AO2
14837KMSN MSN20010823140509508/23/01 14:05:31  5-MIN KMSN 232005Z 06005KT 7SM SCT022 26/21 A3007 720 71 2200 060/05 RMK AO2
14837KMSN MSN20010823141011108/23/01 14:10:31  5-MIN KMSN 232010Z 05007KT 030V090 7SM SCT022 27/20 A3007 720 66 2300 050/07 030V090 RMK AO2
14837KMSN MSN20010823141509508/23/01 14:15:31  5-MIN KMSN 232015Z 06008KT 8SM SCT022 26/20 A3007 730 68 2200 060/08 RMK AO2
14837KMSN MSN20010823142009608/23/01 14:20:31  5-MIN KMSN 232020Z 07006KT 10SM SCT022 27/20 A3007 730 66 2300 070/06 RMK AO2
14837KMSN MSN20010823142509608/23/01 14:25:31  5-MIN KMSN 232025Z VRB04KT 10SM SCT022 26/20 A3007 730 68 2200 VRB/04 RMK AO2
14837KMSN MSN20010823143009608/23/01 14:30:31  5-MIN KMSN 232030Z VRB06KT 10SM SCT025 27/20 A3007 730 66 2300 VRB/06 RMK AO2
14837KMSN MSN20010823143509608/23/01 14:35:31  5-MIN KMSN 232035Z 07006KT 10SM SCT025 27/21 A3007 730 69 2300 070/06 RMK AO2
14837KMSN MSN20010823144009608/23/01 14:40:31  5-MIN KMSN 232040Z 09006KT 10SM BKN027 27/21 A3007 730 69 2300 090/06 RMK AO2
14837KMSN MSN20010823144509608/23/01 14:45:31  5-MIN KMSN 232045Z 08008KT 10SM BKN027 26/20 A3007 720 68 2200 080/08 RMK AO2
14837KMSN MSN20010823145011908/23/01 14:50:31  5-MIN KMSN 232050Z 08005KT 10SM BKN027 27/21 A3007 720 69 2300 080/05 RMK AO2 SLP178 T02670206 51007
14837KMSN MSN20010823145510208/23/01 14:55:31  5-MIN KMSN 232055Z 09007KT 8SM SCT027 BKN033 27/21 A3007 720 69 2300 090/07 RMK AO2
14837KMSN MSN20010823150010208/23/01 15:00:31  5-MIN KMSN 232100Z 07009KT 8SM SCT027 BKN033 26/20 A3007 720 68 2200 070/09 RMK AO2
14837KMSN MSN20010823150510208/23/01 15:05:31  5-MIN KMSN 232105Z 06008KT 8SM SCT027 BKN033 26/20 A3008 720 71 2100 060/08 RMK AO2
14837KMSN MSN20010823151010208/23/01 15:10:31  5-MIN KMSN 232110Z 08008KT 9SM SCT027 BKN033 26/20 A3007 720 71 2100 070/08 RMK AO2
14837KMSN MSN20010823151510208/23/01 15:15:31  5-MIN KMSN 232115Z 09010KT 8SM SCT027 BKN033 26/21 A3008 720 73 2100 090/10 RMK AO2
14837KMSN MSN20010823152010208/23/01 15:20:31  5-MIN KMSN 232120Z 08009KT 8SM SCT027 BKN033 27/21 A3008 720 69 2300 080/09 RMK AO2
14837KMSN MSN20010823152510208/23/01 15:25:31  5-MIN KMSN 232125Z 10009KT 9SM SCT027 BKN033 27/20 A3008 720 66 2300 100/09 RMK AO2
14837KMSN MSN20010823153010308/23/01 15:30:31  5-MIN KMSN 232130Z 08007KT 10SM SCT027 BKN033 27/19 A3007 720 64 2300 080/07 RMK AO2
14837KMSN MSN20010823153510308/23/01 15:35:31  5-MIN KMSN 232135Z 07007KT 10SM SCT027 BKN033 27/20 A3008 720 66 2300 070/07 RMK AO2
14837KMSN MSN20010823154010308/23/01 15:40:31  5-MIN KMSN 232140Z 09009KT 10SM SCT027 BKN033 27/20 A3007 720 66 2300 080/09 RMK AO2
14837KMSN MSN20010823154510308/23/01 15:45:31  5-MIN KMSN 232145Z 07011KT 10SM SCT027 BKN033 27/20 A3007 720 66 2300 060/11 RMK AO2
14837KMSN MSN20010823155012008/23/01 15:50:31  5-MIN KMSN 232150Z 07009KT 10SM FEW027 SCT033 27/20 A3007 720 66 2300 070/09 RMK AO2 SLP179 T02670200
14837KMSN MSN20010823155509308/23/01 15:55:31  5-MIN KMSN 232155Z 08008KT 10SM CLR 27/20 A3007 720 66 2300 080/08 RMK AO2
14837KMSN MSN20010823160009608/23/01 16:00:31  5-MIN KMSN 232200Z 09008KT 10SM FEW033 27/20 A3007 720 66 2300 090/08 RMK AO2
14837KMSN MSN20010823160509608/23/01 16:05:31  5-MIN KMSN 232205Z 06009KT 10SM FEW033 27/20 A3007 720 66 2300 060/09 RMK AO2
14837KMSN MSN20010823161009608/23/01 16:10:31  5-MIN KMSN 232210Z 08008KT 10SM FEW033 27/20 A3007 720 66 2300 080/08 RMK AO2
14837KMSN MSN20010823161509608/23/01 16:15:31  5-MIN KMSN 232215Z 09007KT 10SM FEW033 27/20 A3007 720 66 2300 090/07 RMK AO2
14837KMSN MSN20010823182509508/23/01 18:25:31  5-MIN KMSN 240025Z 15006KT 6SM HZ CLR 23/20 A3008 720 81 1900 150/06 RMK AO2
14837KMSN MSN20010823183009508/23/01 18:30:31  5-MIN KMSN 240030Z 07005KT 6SM HZ CLR 23/20 A3008 720 84 1800 070/05 RMK AO2
14837KMSN MSN20010823183509508/23/01 18:35:31  5-MIN KMSN 240035Z 05005KT 6SM HZ CLR 23/19 A3007 720 78 1900 050/05 RMK AO2
14837KMSN MSN20010823184009508/23/01 18:40:31  5-MIN KMSN 240040Z 04005KT 6SM HZ CLR 23/19 A3007 720 81 1800 040/05 RMK AO2
14837KMSN MSN20010823184509208/23/01 18:45:31  5-MIN KMSN 240045Z 05006KT 7SM CLR 23/19 A3007 720 81 1800 050/06 RMK AO2
14837KMSN MSN20010823185010908/23/01 18:50:31  5-MIN KMSN 240050Z 07005KT 7SM CLR 23/19 A3008 720 81 1800 070/05 RMK AO2 SLP180 T02280194
14837KMSN MSN20010823185509208/23/01 18:55:31  5-MIN KMSN 240055Z 07005KT 8SM CLR 22/19 A3008 720 81 1800 070/05 RMK AO2
14837KMSN MSN20010823190009208/23/01 19:00:31  5-MIN KMSN 240100Z 06005KT 8SM CLR 22/19 A3008 720 81 1800 060/05 RMK AO2
14837KMSN MSN20010823190509208/23/01 19:05:31  5-MIN KMSN 240105Z 06004KT 7SM CLR 22/19 A3008 720 81 1800 060/04 RMK AO2
14837KMSN MSN20010823191009208/23/01 19:10:31  5-MIN KMSN 240110Z 06003KT 7SM CLR 22/19 A3008 710 81 1800 060/03 RMK AO2
14837KMSN MSN20010823191509208/23/01 19:15:31  5-MIN KMSN 240115Z 05003KT 7SM CLR 22/19 A3009 710 81 1800 040/03 RMK AO2
14837KMSN MSN20010823192009208/23/01 19:20:31  5-MIN KMSN 240120Z 05004KT 7SM CLR 22/19 A3009 710 84 1700 050/04 RMK AO2
14837KMSN MSN20010823192509208/23/01 19:25:31  5-MIN KMSN 240125Z 05004KT 7SM CLR 22/19 A3009 710 84 1700 050/04 RMK AO2
14837KMSN MSN20010823193009208/23/01 19:30:31  5-MIN KMSN 240130Z 06003KT 7SM CLR 22/19 A3009 710 84 1700 050/03 RMK AO2
14837KMSN MSN20010823193509208/23/01 19:35:31  5-MIN KMSN 240135Z 06003KT 7SM CLR 22/19 A3009 700 84 1700 050/03 RMK AO2
14837KMSN MSN20010823194009208/23/01 19:40:31  5-MIN KMSN 240140Z 06004KT 7SM CLR 21/19 A3010 700 87 1600 050/04 RMK AO2
14837KMSN MSN20010823194509208/23/01 19:45:31  5-MIN KMSN 240145Z 07004KT 7SM CLR 21/19 A3010 700 87 1600 070/04 RMK AO2
14837KMSN MSN20010823195010908/23/01 19:50:31  5-MIN KMSN 240150Z 07005KT 7SM CLR 21/19 A3010 700 87 1600 070/05 RMK AO2 SLP188 T02110189
14837KMSN MSN20010823195509508/23/01 19:55:31  5-MIN KMSN 240155Z 07005KT 6SM BR CLR 21/19 A3010 700 87 1600 070/05 RMK AO2
14837KMSN MSN20010823200009508/23/01 20:00:31  5-MIN KMSN 240200Z 07005KT 6SM BR CLR 21/19 A3010 700 90 1500 070/05 RMK AO2
14837KMSN MSN20010823200509508/23/01 20:05:31  5-MIN KMSN 240205Z 09004KT 6SM BR CLR 21/19 A3010 700 90 1500 090/04 RMK AO2
14837KMSN MSN20010823201009508/23/01 20:10:31  5-MIN KMSN 240210Z 10004KT 6SM BR CLR 21/19 A3010 700 87 1600 100/04 RMK AO2
14837KMSN MSN20010823201509508/23/01 20:15:31  5-MIN KMSN 240215Z 11005KT 6SM BR CLR 21/19 A3010 700 87 1600 110/05 RMK AO2
14837KMSN MSN20010823202009508/23/01 20:20:31  5-MIN KMSN 240220Z 10005KT 6SM HZ CLR 22/19 A3010 700 84 1700 100/05 RMK AO2
14837KMSN MSN20010823202509508/23/01 20:25:31  5-MIN KMSN 240225Z 10006KT 6SM HZ CLR 22/19 A3010 700 84 1700 100/06 RMK AO2
14837KMSN MSN20010823203009508/23/01 20:30:31  5-MIN KMSN 240230Z 10004KT 6SM HZ CLR 22/19 A3010 700 84 1700 090/04 RMK AO2
14837KMSN MSN20010823203509508/23/01 20:35:31  5-MIN KMSN 240235Z 12005KT 5SM BR CLR 21/19 A3010 690 87 1600 120/05 RMK AO2
14837KMSN MSN20010823204009508/23/01 20:40:31  5-MIN KMSN 240240Z 11005KT 5SM BR CLR 21/19 A3010 690 87 1600 110/05 RMK AO2
14837KMSN MSN20010823204509508/23/01 20:45:31  5-MIN KMSN 240245Z 10005KT 5SM BR CLR 21/19 A3010 700 87 1600 100/05 RMK AO2
14837KMSN MSN20010823205011808/23/01 20:50:31  5-MIN KMSN 240250Z 10006KT 5SM BR CLR 21/19 A3010 700 87 1600 100/06 RMK AO2 SLP190 T02110189 50000
14837KMSN MSN20010823205509508/23/01 20:55:31  5-MIN KMSN 240255Z 08005KT 5SM BR CLR 21/19 A3010 690 90 1500 080/05 RMK AO2
14837KMSN MSN20010823210009508/23/01 21:00:31  5-MIN KMSN 240300Z 07004KT 5SM BR CLR 21/19 A3011 690 90 1500 070/04 RMK AO2
14837KMSN MSN20010823210509508/23/01 21:05:31  5-MIN KMSN 240305Z 07006KT 4SM BR CLR 20/19 A3011 690 93 1500 070/06 RMK AO2
14837KMSN MSN20010823211009508/23/01 21:10:31  5-MIN KMSN 240310Z 08006KT 4SM BR CLR 20/19 A3011 690 93 1500 080/06 RMK AO2
14837KMSN MSN20010823211509508/23/01 21:15:31  5-MIN KMSN 240315Z 09005KT 4SM BR CLR 20/18 A3011 690 90 1500 090/05 RMK AO2
14837KMSN MSN20010823212009508/23/01 21:20:31  5-MIN KMSN 240320Z 11005KT 5SM BR CLR 21/18 A3011 690 87 1500 110/05 RMK AO2
14837KMSN MSN20010823212509508/23/01 21:25:31  5-MIN KMSN 240325Z 11005KT 5SM BR CLR 20/18 A3011 680 90 1500 110/05 RMK AO2
14837KMSN MSN20010823213009508/23/01 21:30:31  5-MIN KMSN 240330Z 11005KT 5SM BR CLR 20/18 A3011 690 90 1500 110/05 RMK AO2
14837KMSN MSN20010823213509508/23/01 21:35:31  5-MIN KMSN 240335Z 11005KT 5SM BR CLR 20/18 A3011 690 90 1500 110/05 RMK AO2
14837KMSN MSN20010823214009508/23/01 21:40:31  5-MIN KMSN 240340Z 11005KT 5SM BR CLR 20/18 A3011 690 90 1500 110/05 RMK AO2
14837KMSN MSN20010823214509508/23/01 21:45:31  5-MIN KMSN 240345Z 13005KT 4SM BR CLR 19/18 A3012 680 90 1400 130/05 RMK AO2
14837KMSN MSN20010823215011208/23/01 21:50:31  5-MIN KMSN 240350Z 14004KT 4SM BR CLR 20/18 A3012 680 87 1500 140/04 RMK AO2 SLP194 T02000178
14837KMSN MSN20010823215509508/23/01 21:55:31  5-MIN KMSN 240355Z 14003KT 4SM HZ CLR 20/17 A3011 690 84 1500 140/03 RMK AO2
14837KMSN MSN20010823220009508/23/01 22:00:31  5-MIN KMSN 240400Z VRB03KT 4SM BR CLR 21/19 A3011 690 90 1500 VRB/03 RMK AO2
14837KMSN MSN20010823220509508/23/01 22:05:31  5-MIN KMSN 240405Z 11003KT 4SM BR CLR 20/18 A3011 690 90 1500 100/03 RMK AO2
14837KMSN MSN20010823221009508/23/01 22:10:31  5-MIN KMSN 240410Z 10005KT 4SM BR CLR 20/18 A3011 690 90 1500 100/05 RMK AO2
14837KMSN MSN20010823221509508/23/01 22:15:31  5-MIN KMSN 240415Z 10003KT 4SM BR CLR 19/18 A3012 680 90 1400 090/03 RMK AO2
14837KMSN MSN20010823222009508/23/01 22:20:31  5-MIN KMSN 240420Z 00000KT 4SM BR CLR 19/18 A3012 680 90 1400 000/00 RMK AO2
14837KMSN MSN20010823222509508/23/01 22:25:31  5-MIN KMSN 240425Z 08003KT 4SM BR CLR 19/18 A3012 680 93 1300 080/03 RMK AO2
14837KMSN MSN20010823223009508/23/01 22:30:31  5-MIN KMSN 240430Z 07004KT 4SM BR CLR 19/18 A3012 680 93 1300 070/04 RMK AO2
14837KMSN MSN20010823223509508/23/01 22:35:31  5-MIN KMSN 240435Z 08004KT 4SM BR CLR 18/17 A3012 680 93 1300 070/04 RMK AO2
14837KMSN MSN20010823224009508/23/01 22:40:31  5-MIN KMSN 240440Z 06004KT 4SM BR CLR 18/17 A3012 680 93 1300 060/04 RMK AO2
14837KMSN MSN20010823224509508/23/01 22:45:31  5-MIN KMSN 240445Z 05005KT 4SM BR CLR 18/17 A3012 680 93 1200 050/05 RMK AO2
14837KMSN MSN20010823225011208/23/01 22:50:31  5-MIN KMSN 240450Z 04006KT 4SM BR CLR 18/17 A3012 680 96 1200 040/06 RMK AO2 SLP195 T01780172
14837KMSN MSN20010823225509508/23/01 22:55:31  5-MIN KMSN 240455Z 04005KT 4SM BR CLR 18/17 A3012 680 96 1200 040/05 RMK AO2
14837KMSN MSN20010823230009508/23/01 23:00:31  5-MIN KMSN 240500Z 05004KT 4SM BR CLR 18/17 A3012 680 93 1300 050/04 RMK AO2
14837KMSN MSN20010823230509508/23/01 23:05:31  5-MIN KMSN 240505Z 05004KT 4SM BR CLR 18/17 A3013 680 93 1300 050/04 RMK AO2
14837KMSN MSN20010823231009508/23/01 23:10:31  5-MIN KMSN 240510Z 05004KT 4SM BR CLR 18/17 A3013 670 93 1300 050/04 RMK AO2
14837KMSN MSN20010823231509808/23/01 23:15:31  5-MIN KMSN 240515Z 00000KT 4SM BR FEW013 18/17 A3013 670 93 1300 000/00 RMK AO2
14837KMSN MSN20010823232009808/23/01 23:20:31  5-MIN KMSN 240520Z 00000KT 4SM BR SCT013 18/17 A3013 670 96 1200 000/00 RMK AO2
14837KMSN MSN20010823232509808/23/01 23:25:31  5-MIN KMSN 240525Z 00000KT 3SM BR SCT013 18/17 A3013 670 93 1300 000/00 RMK AO2
14837KMSN MSN20010823233009808/23/01 23:30:31  5-MIN KMSN 240530Z 08004KT 3SM BR SCT013 18/17 A3013 670 93 1300 080/04 RMK AO2
14837KMSN MSN20010823233509808/23/01 23:35:31  5-MIN KMSN 240535Z 10004KT 3SM BR BKN013 19/18 A3013 670 93 1300 100/04 RMK AO2
14837KMSN MSN20010823234009808/23/01 23:40:31  5-MIN KMSN 240540Z 09007KT 3SM BR BKN013 19/18 A3014 670 93 1300 090/07 RMK AO2
14837KMSN MSN20010823234510508/23/01 23:45:31  5-MIN KMSN 240545Z 08009KT 3SM BR BKN008 OVC013 19/18 A3013 670 90 1400 080/09 RMK AO2
14837KMSN MSN20010823235015008/23/01 23:50:31  5-MIN KMSN 240550Z 09011KT 3SM BR BKN008 OVC013 19/18 A3013 670 93 1300 090/11 RMK AO2 SLP200 T01890178 10244 20178 402670178 51011
14837KMSN MSN20010823235509808/23/01 23:55:31  5-MIN KMSN 240555Z 10010KT 3SM BR OVC008 19/18 A3014 670 93 1300 100/10 RMK AO2
14837KMSN MSN20010824000009808/24/01 00:00:31  5-MIN KMSN 240600Z 10008KT 3SM BR OVC008 19/18 A3014 670 93 1300 100/08 RMK AO2
14837KMSN MSN20010824000509808/24/01 00:05:31  5-MIN KMSN 240605Z 10007KT 3SM BR OVC008 19/18 A3013 670 93 1300 100/07 RMK AO2
14837KMSN MSN20010824001009808/24/01 00:10:31  5-MIN KMSN 240610Z 09008KT 3SM BR OVC008 19/18 A3013 670 93 1300 090/08 RMK AO2
14837KMSN MSN20010824001509808/24/01 00:15:31  5-MIN KMSN 240615Z 11007KT 3SM BR OVC008 19/18 A3014 670 93 1300 110/07 RMK AO2
14837KMSN MSN20010824002011708/24/01 00:20:31  5-MIN KMSN 240620Z 10006KT 3SM BR BKN008 OVC012 19/18 A3014 670 93 1300 100/06 RMK AO2 CIG 006V011
14837KMSN MSN20010824002511008/24/01 00:25:31  5-MIN KMSN 240625Z 09006KT 4SM BR OVC010 19/17 A3013 670 87 1400 080/06 RMK AO2 CIG 006V012
14837KMSN MSN20010824003011008/24/01 00:30:31  5-MIN KMSN 240630Z 08007KT 4SM BR OVC010 19/17 A3013 670 90 1300 080/07 RMK AO2 CIG 006V014
14837KMSN MSN20010824003509808/24/01 00:35:31  5-MIN KMSN 240635Z 09006KT 4SM BR OVC010 19/17 A3013 670 90 1300 090/06 RMK AO2
14837KMSN MSN20010824004009808/24/01 00:40:31  5-MIN KMSN 240640Z 08008KT 4SM BR OVC010 19/17 A3013 670 90 1300 080/08 RMK AO2
14837KMSN MSN20010824004509808/24/01 00:45:31  5-MIN KMSN 240645Z 10005KT 4SM BR OVC012 19/17 A3014 660 87 1400 090/05 RMK AO2
14837KMSN MSN20010824005011508/24/01 00:50:31  5-MIN KMSN 240650Z 10006KT 4SM BR OVC012 19/17 A3014 660 90 1300 100/06 RMK AO2 SLP203 T01890172
14837KMSN MSN20010824005509808/24/01 00:55:31  5-MIN KMSN 240655Z 10006KT 4SM BR OVC012 19/17 A3014 660 90 1300 100/06 RMK AO2
14837KMSN MSN20010824010009808/24/01 01:00:31  5-MIN KMSN 240700Z 10006KT 4SM BR OVC012 19/17 A3014 660 90 1300 090/06 RMK AO2
14837KMSN MSN20010824010509808/24/01 01:05:31  5-MIN KMSN 240705Z 10005KT 4SM BR OVC012 19/17 A3014 660 90 1300 100/05 RMK AO2
14837KMSN MSN20010824011009808/24/01 01:10:31  5-MIN KMSN 240710Z 10008KT 4SM BR OVC012 19/17 A3015 660 87 1300 100/08 RMK AO2
14837KMSN MSN20010824011509808/24/01 01:15:31  5-MIN KMSN 240715Z 09007KT 4SM BR OVC014 19/17 A3014 660 87 1300 090/07 RMK AO2
14837KMSN MSN20010824012009808/24/01 01:20:31  5-MIN KMSN 240720Z 09007KT 4SM BR OVC014 19/17 A3014 660 87 1300 090/07 RMK AO2
14837KMSN MSN20010824012509808/24/01 01:25:31  5-MIN KMSN 240725Z 08005KT 4SM BR OVC014 18/17 A3014 660 90 1200 080/05 RMK AO2
14837KMSN MSN20010824013009808/24/01 01:30:31  5-MIN KMSN 240730Z 08006KT 4SM BR BKN014 18/16 A3014 660 87 1200 080/06 RMK AO2
14837KMSN MSN20010824013509808/24/01 01:35:31  5-MIN KMSN 240735Z 08006KT 4SM BR BKN014 18/16 A3014 670 90 1200 080/06 RMK AO2
14837KMSN MSN20010824014009808/24/01 01:40:31  5-MIN KMSN 240740Z 08005KT 4SM BR BKN014 18/16 A3014 660 87 1200 080/05 RMK AO2
14837KMSN MSN20010824014509808/24/01 01:45:31  5-MIN KMSN 240745Z 08004KT 4SM BR BKN014 18/17 A3014 660 90 1200 080/04 RMK AO2
14837KMSN MSN20010824015011508/24/01 01:50:31  5-MIN KMSN 240750Z 08007KT 4SM BR BKN014 18/17 A3014 660 90 1200 080/07 RMK AO2 SLP201 T01830167
14837KMSN MSN20010824015509808/24/01 01:55:31  5-MIN KMSN 240755Z 07005KT 4SM BR BKN014 18/17 A3013 670 90 1300 070/05 RMK AO2
14837KMSN MSN20010824020009808/24/01 02:00:31  5-MIN KMSN 240800Z 07005KT 4SM BR OVC014 18/17 A3013 670 90 1300 070/05 RMK AO2
14837KMSN MSN20010824020509808/24/01 02:05:31  5-MIN KMSN 240805Z 08006KT 4SM BR OVC014 18/17 A3013 670 90 1300 080/06 RMK AO2
14837KMSN MSN20010824021009808/24/01 02:10:31  5-MIN KMSN 240810Z 05004KT 4SM BR OVC014 18/17 A3013 670 90 1300 050/04 RMK AO2
14837KMSN MSN20010824021509808/24/01 02:15:31  5-MIN KMSN 240815Z 04004KT 4SM BR OVC012 18/17 A3013 670 90 1300 040/04 RMK AO2
14837KMSN MSN20010824022009808/24/01 02:20:31  5-MIN KMSN 240820Z 04003KT 4SM BR OVC012 18/17 A3012 680 90 1300 040/03 RMK AO2
14837KMSN MSN20010824022509808/24/01 02:25:31  5-MIN KMSN 240825Z 06003KT 4SM BR BKN012 18/17 A3012 680 90 1300 060/03 RMK AO2
14837KMSN MSN20010824023009808/24/01 02:30:31  5-MIN KMSN 240830Z 05004KT 4SM BR BKN012 18/17 A3012 680 90 1300 050/04 RMK AO2
14837KMSN MSN20010824023509808/24/01 02:35:31  5-MIN KMSN 240835Z 06006KT 4SM BR BKN012 18/17 A3012 680 90 1300 060/06 RMK AO2
14837KMSN MSN20010824024009808/24/01 02:40:31  5-MIN KMSN 240840Z 05004KT 4SM BR BKN012 18/17 A3012 680 90 1300 050/04 RMK AO2
14837KMSN MSN20010824024509808/24/01 02:45:31  5-MIN KMSN 240845Z 04003KT 4SM BR BKN012 18/17 A3012 680 93 1300 030/03 RMK AO2
14837KMSN MSN20010824025012108/24/01 02:50:31  5-MIN KMSN 240850Z 05005KT 4SM BR BKN012 18/17 A3012 680 90 1300 050/05 RMK AO2 SLP195 T01830167 53010
14837KMSN MSN20010824025509808/24/01 02:55:31  5-MIN KMSN 240855Z 04004KT 4SM BR BKN012 18/17 A3012 680 93 1300 040/04 RMK AO2
14837KMSN MSN20010824030009808/24/01 03:00:31  5-MIN KMSN 240900Z 05005KT 4SM BR BKN012 18/17 A3012 680 93 1300 050/05 RMK AO2
14837KMSN MSN20010824030509808/24/01 03:05:31  5-MIN KMSN 240905Z 05004KT 4SM BR BKN012 18/17 A3012 680 93 1300 050/04 RMK AO2
14837KMSN MSN20010824031009808/24/01 03:10:31  5-MIN KMSN 240910Z 05005KT 4SM BR BKN012 18/17 A3012 680 93 1300 050/05 RMK AO2
14837KMSN MSN20010824031509808/24/01 03:15:31  5-MIN KMSN 240915Z 08005KT 4SM BR OVC012 18/17 A3012 680 93 1300 070/05 RMK AO2
14837KMSN MSN20010824032009808/24/01 03:20:31  5-MIN KMSN 240920Z 08004KT 4SM BR OVC010 19/17 A3013 680 90 1300 080/04 RMK AO2
14837KMSN MSN20010824032509808/24/01 03:25:31  5-MIN KMSN 240925Z 08004KT 4SM BR OVC010 19/17 A3013 680 90 1300 080/04 RMK AO2
14837KMSN MSN20010824033009808/24/01 03:30:31  5-MIN KMSN 240930Z 07004KT 4SM BR OVC010 19/17 A3012 680 90 1300 070/04 RMK AO2
14837KMSN MSN20010824033509808/24/01 03:35:31  5-MIN KMSN 240935Z 08005KT 4SM BR OVC010 19/17 A3012 680 90 1300 080/05 RMK AO2
14837KMSN MSN20010824034009808/24/01 03:40:31  5-MIN KMSN 240940Z 08005KT 4SM BR OVC010 19/17 A3011 690 90 1300 080/05 RMK AO2
14837KMSN MSN20010824034509808/24/01 03:45:31  5-MIN KMSN 240945Z 08004KT 4SM BR OVC010 19/17 A3011 690 90 1300 080/04 RMK AO2
14837KMSN MSN20010824035011508/24/01 03:50:31  5-MIN KMSN 240950Z 07005KT 4SM BR OVC010 19/17 A3011 690 90 1300 070/05 RMK AO2 SLP192 T01890172
14837KMSN MSN20010824035509808/24/01 03:55:31  5-MIN KMSN 240955Z 07004KT 4SM BR OVC010 19/17 A3011 690 90 1300 070/04 RMK AO2
14837KMSN MSN20010824040009808/24/01 04:00:31  5-MIN KMSN 241000Z 08005KT 4SM BR OVC010 19/17 A3011 690 90 1300 080/05 RMK AO2
14837KMSN MSN20010824040509808/24/01 04:05:31  5-MIN KMSN 241005Z 08005KT 4SM BR OVC010 19/17 A3011 690 90 1300 080/05 RMK AO2
14837KMSN MSN20010824041009808/24/01 04:10:31  5-MIN KMSN 241010Z 08005KT 4SM BR OVC010 19/17 A3011 690 90 1300 070/05 RMK AO2
14837KMSN MSN20010824041509808/24/01 04:15:31  5-MIN KMSN 241015Z 08005KT 4SM BR OVC010 19/17 A3011 690 90 1300 080/05 RMK AO2
14837KMSN MSN20010824042009808/24/01 04:20:31  5-MIN KMSN 241020Z 07004KT 5SM BR OVC010 19/17 A3011 690 90 1300 070/04 RMK AO2
14837KMSN MSN20010824042509808/24/01 04:25:31  5-MIN KMSN 241025Z 07005KT 5SM BR OVC010 19/17 A3011 690 90 1300 070/05 RMK AO2
14837KMSN MSN20010824043009808/24/01 04:30:31  5-MIN KMSN 241030Z 08005KT 5SM BR OVC010 19/17 A3011 690 90 1300 080/05 RMK AO2
14837KMSN MSN20010824043509808/24/01 04:35:31  5-MIN KMSN 241035Z 08005KT 4SM BR OVC010 19/17 A3011 690 90 1300 080/05 RMK AO2
14837KMSN MSN20010824044009808/24/01 04:40:31  5-MIN KMSN 241040Z 07005KT 4SM BR OVC010 19/17 A3011 690 90 1300 070/05 RMK AO2
14837KMSN MSN20010824044509808/24/01 04:45:31  5-MIN KMSN 241045Z 08005KT 4SM BR OVC010 19/17 A3011 690 90 1300 080/05 RMK AO2
14837KMSN MSN20010824045011508/24/01 04:50:31  5-MIN KMSN 241050Z 08006KT 4SM BR OVC010 19/17 A3011 690 90 1300 080/06 RMK AO2 SLP192 T01890172
14837KMSN MSN20010824045509808/24/01 04:55:31  5-MIN KMSN 241055Z 08006KT 4SM BR OVC010 19/17 A3011 690 90 1300 080/06 RMK AO2
14837KMSN MSN20010824050010308/24/01 05:00:31  5-MIN KMSN 241100Z 08005KT 3SM BR BCFG OVC010 19/17 A3011 690 90 1300 080/05 RMK AO2
14837KMSN MSN20010824050511508/24/01 05:05:31  5-MIN KMSN 241105Z 09005KT 3SM BR BCFG OVC010 19/17 A3012 680 90 1300 090/05 RMK AO2 CIG 008V013
14837KMSN MSN20010824051011508/24/01 05:10:31  5-MIN KMSN 241110Z 08005KT 3SM BR BCFG OVC010 19/17 A3012 680 90 1300 080/05 RMK AO2 CIG 008V013
14837KMSN MSN20010824051511508/24/01 05:15:31  5-MIN KMSN 241115Z 08003KT 3SM BR BCFG OVC010 19/17 A3013 680 90 1300 070/03 RMK AO2 CIG 008V013
14837KMSN MSN20010824052011508/24/01 05:20:31  5-MIN KMSN 241120Z 07005KT 3SM BR BCFG OVC010 19/17 A3012 680 90 1300 070/05 RMK AO2 CIG 008V012
14837KMSN MSN20010824052510308/24/01 05:25:31  5-MIN KMSN 241125Z 07004KT 3SM BR BCFG OVC010 19/17 A3012 680 90 1300 070/04 RMK AO2
14837KMSN MSN20010824053010308/24/01 05:30:31  5-MIN KMSN 241130Z 08005KT 3SM BR BCFG OVC010 19/17 A3013 670 90 1300 080/05 RMK AO2
14837KMSN MSN20010824053510308/24/01 05:35:31  5-MIN KMSN 241135Z 08005KT 3SM BR BCFG OVC010 19/17 A3013 670 90 1300 080/05 RMK AO2
14837KMSN MSN20010824054010308/24/01 05:40:31  5-MIN KMSN 241140Z 08005KT 3SM BR BCFG OVC010 19/17 A3013 670 90 1300 080/05 RMK AO2
14837KMSN MSN20010824054510308/24/01 05:45:31  5-MIN KMSN 241145Z 08004KT 3SM BR BCFG OVC010 19/17 A3013 670 90 1300 080/04 RMK AO2
14837KMSN MSN20010824055014508/24/01 05:50:31  5-MIN KMSN 241150Z 08004KT 3SM BR BCFG BKN010 OVC012 19/18 A3013 670 93 1300 080/04 RMK AO2 SLP200 T01890178 10194 20178 58005
14837KMSN MSN20010824055510308/24/01 05:55:31  5-MIN KMSN 241155Z 08004KT 3SM BR BCFG OVC010 19/18 A3013 670 93 1300 080/04 RMK AO2
14837KMSN MSN20010824060010308/24/01 06:00:31  5-MIN KMSN 241200Z 07006KT 3SM BR BCFG OVC010 19/18 A3014 670 90 1400 070/06 RMK AO2
14837KMSN MSN20010824060511008/24/01 06:05:31  5-MIN KMSN 241205Z 08005KT 3SM BR BCFG BKN010 OVC012 19/18 A3014 660 90 1400 080/05 RMK AO2
14837KMSN MSN20010824061011008/24/01 06:10:31  5-MIN KMSN 241210Z 10005KT 3SM BR BCFG BKN010 OVC012 19/18 A3014 660 90 1400 100/05 RMK AO2
14837KMSN MSN20010824061511008/24/01 06:15:31  5-MIN KMSN 241215Z 08005KT 3SM BR BCFG BKN010 OVC012 19/18 A3014 660 90 1400 080/05 RMK AO2
14837KMSN MSN20010824062011008/24/01 06:20:31  5-MIN KMSN 241220Z 09005KT 3SM BR BCFG BKN010 OVC012 19/18 A3014 660 90 1400 090/05 RMK AO2
14837KMSN MSN20010824062511008/24/01 06:25:31  5-MIN KMSN 241225Z 07005KT 3SM BR BCFG BKN010 OVC012 19/18 A3014 670 90 1400 070/05 RMK AO2
14837KMSN MSN20010824063011008/24/01 06:30:31  5-MIN KMSN 241230Z 08005KT 3SM BR BCFG BKN010 OVC012 19/18 A3014 660 90 1400 070/05 RMK AO2
14837KMSN MSN20010824063511008/24/01 06:35:31  5-MIN KMSN 241235Z 07005KT 3SM BR BCFG BKN010 OVC012 19/18 A3014 660 90 1400 070/05 RMK AO2
14837KMSN MSN20010824064011008/24/01 06:40:31  5-MIN KMSN 241240Z 07006KT 3SM BR BCFG BKN010 OVC012 19/18 A3014 660 90 1400 070/06 RMK AO2
14837KMSN MSN20010824064511008/24/01 06:45:31  5-MIN KMSN 241245Z 08007KT 3SM BR BCFG BKN010 OVC012 19/18 A3013 670 90 1400 080/07 RMK AO2
14837KMSN MSN20010824065012708/24/01 06:50:31  5-MIN KMSN 241250Z 07006KT 3SM BR BCFG BKN010 OVC012 19/18 A3013 670 90 1400 070/06 RMK AO2 SLP200 T01940178
14837KMSN MSN20010824065510308/24/01 06:55:31  5-MIN KMSN 241255Z 07006KT 3SM BR BCFG OVC010 19/18 A3014 670 90 1400 070/06 RMK AO2
14837KMSN MSN20010824070009808/24/01 07:00:31  5-MIN KMSN 241300Z 08005KT 3SM BR OVC010 19/18 A3014 660 90 1400 070/05 RMK AO2
14837KMSN MSN20010824070509808/24/01 07:05:31  5-MIN KMSN 241305Z 07007KT 3SM BR OVC010 19/18 A3014 660 90 1400 070/07 RMK AO2
14837KMSN MSN20010824071009808/24/01 07:10:31  5-MIN KMSN 241310Z 06006KT 3SM BR OVC010 19/18 A3014 660 90 1400 060/06 RMK AO2
14837KMSN MSN20010824071509808/24/01 07:15:31  5-MIN KMSN 241315Z 07007KT 3SM BR OVC010 19/18 A3014 660 90 1400 070/07 RMK AO2
14837KMSN MSN20010824072011008/24/01 07:20:31  5-MIN KMSN 241320Z 07007KT 3SM BR OVC010 19/18 A3014 660 90 1400 060/07 RMK AO2 CIG 008V014
14837KMSN MSN20010824072509808/24/01 07:25:31  5-MIN KMSN 241325Z 06007KT 3SM BR OVC010 19/18 A3014 670 90 1400 060/07 RMK AO2
14837KMSN MSN20010824073009808/24/01 07:30:31  5-MIN KMSN 241330Z 07006KT 3SM BR OVC010 20/18 A3014 660 87 1400 070/06 RMK AO2
14837KMSN MSN20010824073509808/24/01 07:35:31  5-MIN KMSN 241335Z 08007KT 3SM BR OVC010 20/18 A3013 670 87 1400 080/07 RMK AO2
14837KMSN MSN20010824074009808/24/01 07:40:31  5-MIN KMSN 241340Z 07007KT 3SM BR OVC010 20/18 A3013 670 87 1400 070/07 RMK AO2
14837KMSN MSN20010824074509808/24/01 07:45:31  5-MIN KMSN 241345Z 07007KT 3SM BR OVC010 20/18 A3013 670 87 1400 070/07 RMK AO2
14837KMSN MSN20010824075011508/24/01 07:50:31  5-MIN KMSN 241350Z 08006KT 4SM BR OVC010 20/18 A3013 670 90 1400 080/06 RMK AO2 SLP200 T02000183
14837KMSN MSN20010824075509808/24/01 07:55:31  5-MIN KMSN 241355Z 08005KT 4SM BR OVC010 20/18 A3014 670 90 1400 080/05 RMK AO2
14837KMSN MSN20010824080009808/24/01 08:00:31  5-MIN KMSN 241400Z 08006KT 5SM BR OVC010 20/18 A3013 670 90 1400 080/06 RMK AO2
14837KMSN MSN20010824080509808/24/01 08:05:31  5-MIN KMSN 241405Z 07006KT 4SM BR OVC012 20/18 A3014 670 90 1400 070/06 RMK AO2
14837KMSN MSN20010824081009808/24/01 08:10:31  5-MIN KMSN 241410Z 07004KT 4SM BR OVC012 20/18 A3014 660 87 1400 070/04 RMK AO2
14837KMSN MSN20010824081509808/24/01 08:15:31  5-MIN KMSN 241415Z 08004KT 4SM BR OVC012 20/18 A3014 660 90 1400 080/04 RMK AO2
14837KMSN MSN20010824082009808/24/01 08:20:31  5-MIN KMSN 241420Z 07004KT 4SM BR OVC012 20/18 A3014 660 90 1400 070/04 RMK AO2
14837KMSN MSN20010824082509808/24/01 08:25:31  5-MIN KMSN 241425Z 07004KT 4SM BR OVC012 21/18 A3014 660 87 1500 070/04 RMK AO2
14837KMSN MSN20010824083009808/24/01 08:30:31  5-MIN KMSN 241430Z 07006KT 4SM BR OVC012 21/18 A3014 670 87 1500 070/06 RMK AO2
14837KMSN MSN20010824083510508/24/01 08:35:31  5-MIN KMSN 241435Z 07006KT 4SM BR BKN010 OVC018 21/18 A3013 670 87 1500 070/06 RMK AO2
14837KMSN MSN20010824084010508/24/01 08:40:31  5-MIN KMSN 241440Z 06005KT 4SM BR BKN012 OVC018 21/19 A3013 670 90 1500 050/05 RMK AO2
14837KMSN MSN20010824084510508/24/01 08:45:31  5-MIN KMSN 241445Z 06005KT 4SM BR SCT010 OVC018 21/19 A3013 670 87 1600 060/05 RMK AO2
14837KMSN MSN20010824085012808/24/01 08:50:31  5-MIN KMSN 241450Z 06005KT 4SM HZ SCT010 OVC020 21/18 A3013 670 84 1600 060/05 RMK AO2 SLP200 T02110183 53005
14837KMSN MSN20010824085510508/24/01 08:55:31  5-MIN KMSN 241455Z 07004KT 4SM BR SCT012 OVC020 21/19 A3014 670 87 1600 070/04 RMK AO2
14837KMSN MSN20010824090010508/24/01 09:00:31  5-MIN KMSN 241500Z 06005KT 4SM BR SCT010 OVC020 21/19 A3013 670 87 1600 060/05 RMK AO2
14837KMSN MSN20010824090510508/24/01 09:05:31  5-MIN KMSN 241505Z 06005KT 4SM HZ SCT012 OVC020 21/18 A3013 670 84 1600 060/05 RMK AO2
14837KMSN MSN20010824091010508/24/01 09:10:31  5-MIN KMSN 241510Z 07007KT 4SM HZ SCT012 OVC020 22/19 A3013 670 84 1600 070/07 RMK AO2
14837KMSN MSN20010824091510508/24/01 09:15:31  5-MIN KMSN 241515Z 06006KT 4SM BR BKN012 OVC020 21/19 A3012 680 87 1600 060/06 RMK AO2
14837KMSN MSN20010824092010508/24/01 09:20:31  5-MIN KMSN 241520Z 07006KT 4SM HZ SCT012 OVC022 22/19 A3012 680 84 1700 070/06 RMK AO2
14837KMSN MSN20010824092510508/24/01 09:25:31  5-MIN KMSN 241525Z 06007KT 4SM HZ SCT012 OVC022 22/19 A3012 680 84 1600 060/07 RMK AO2
14837KMSN MSN20010824093010508/24/01 09:30:31  5-MIN KMSN 241530Z 06007KT 4SM HZ BKN016 OVC022 22/19 A3012 680 84 1700 060/07 RMK AO2
14837KMSN MSN20010824093510508/24/01 09:35:31  5-MIN KMSN 241535Z 06008KT 4SM HZ FEW014 OVC022 22/19 A3011 690 84 1700 060/08 RMK AO2
14837KMSN MSN20010824094010508/24/01 09:40:31  5-MIN KMSN 241540Z 07008KT 4SM HZ SCT016 OVC022 22/18 A3011 690 81 1700 070/08 RMK AO2
14837KMSN MSN20010824094510508/24/01 09:45:31  5-MIN KMSN 241545Z 07007KT 4SM HZ SCT016 OVC022 22/19 A3011 690 81 1700 070/07 RMK AO2
14837KMSN MSN20010824095012208/24/01 09:50:31  5-MIN KMSN 241550Z 07009KT 4SM HZ SCT016 OVC024 22/19 A3011 690 81 1700 060/09 RMK AO2 SLP192 T02220189
14837KMSN MSN20010824095510508/24/01 09:55:31  5-MIN KMSN 241555Z 06010KT 5SM HZ SCT016 OVC024 22/19 A3011 690 81 1700 060/10 RMK AO2
14837KMSN MSN20010824100010508/24/01 10:00:31  5-MIN KMSN 241600Z 06009KT 5SM HZ SCT016 OVC024 22/19 A3011 690 81 1700 060/09 RMK AO2
14837KMSN MSN20010824100511208/24/01 10:05:31  5-MIN KMSN 241605Z 06007KT 5SM HZ SCT016 BKN021 OVC026 23/19 A3011 690 78 1800 060/07 RMK AO2
14837KMSN MSN20010824101010508/24/01 10:10:31  5-MIN KMSN 241610Z 06009KT 5SM HZ BKN016 OVC024 22/19 A3011 680 81 1700 060/09 RMK AO2
14837KMSN MSN20010824101510508/24/01 10:15:31  5-MIN KMSN 241615Z 06009KT 5SM HZ BKN016 OVC024 23/19 A3011 690 81 1800 060/09 RMK AO2
14837KMSN MSN20010824102011208/24/01 10:20:31  5-MIN KMSN 241620Z 06009KT 5SM HZ BKN016 BKN022 OVC027 22/19 A3011 690 84 1700 060/09 RMK AO2
14837KMSN MSN20010824102510508/24/01 10:25:31  5-MIN KMSN 241625Z 06010KT 5SM HZ BKN016 OVC027 23/19 A3011 690 81 1800 060/10 RMK AO2
14837KMSN MSN20010824103011208/24/01 10:30:31  5-MIN KMSN 241630Z 07008KT 5SM HZ BKN016 BKN021 OVC027 23/19 A3011 690 78 1800 070/08 RMK AO2
14837KMSN MSN20010824103511208/24/01 10:35:31  5-MIN KMSN 241635Z 06009KT 6SM HZ BKN016 BKN025 OVC030 23/19 A3011 690 81 1800 060/09 RMK AO2
14837KMSN MSN20010824104011208/24/01 10:40:31  5-MIN KMSN 241640Z 07009KT 5SM HZ SCT016 BKN022 OVC031 23/19 A3011 690 78 1800 070/09 RMK AO2
14837KMSN MSN20010824104511208/24/01 10:45:31  5-MIN KMSN 241645Z 08008KT 5SM HZ SCT016 BKN022 OVC031 23/19 A3010 700 81 1800 080/08 RMK AO2
14837KMSN MSN20010824105012908/24/01 10:50:31  5-MIN KMSN 241650Z 07008KT 6SM HZ SCT018 BKN027 OVC031 23/19 A3010 700 78 1900 070/08 RMK AO2 SLP191 T02330194
14837KMSN MSN20010824105511208/24/01 10:55:31  5-MIN KMSN 241655Z 09008KT 5SM HZ SCT018 BKN025 OVC031 23/19 A3010 700 78 1900 090/08 RMK AO2
14837KMSN MSN20010824110011208/24/01 11:00:31  5-MIN KMSN 241700Z 08009KT 5SM HZ SCT018 BKN025 OVC031 23/19 A3010 700 78 1900 080/09 RMK AO2
14837KMSN MSN20010824110511208/24/01 11:05:31  5-MIN KMSN 241705Z 07009KT 5SM HZ SCT018 SCT025 OVC031 23/19 A3010 700 76 1900 070/09 RMK AO2
14837KMSN MSN20010824111011208/24/01 11:10:31  5-MIN KMSN 241710Z 07009KT 5SM HZ FEW018 SCT023 BKN033 24/19 A3010 700 76 1900 070/09 RMK AO2
14837KMSN MSN20010824111511208/24/01 11:15:31  5-MIN KMSN 241715Z 06011KT 5SM HZ SCT018 SCT023 BKN033 24/20 A3009 710 76 2000 060/11 RMK AO2
14837KMSN MSN20010824112011208/24/01 11:20:31  5-MIN KMSN 241720Z 08008KT 5SM HZ FEW018 SCT023 BKN033 24/19 A3009 710 76 1900 080/08 RMK AO2
14837KMSN MSN20010824112510508/24/01 11:25:31  5-MIN KMSN 241725Z 08011KT 5SM HZ SCT020 BKN035 23/19 A3009 710 78 1900 080/11 RMK AO2
14837KMSN MSN20010824113010508/24/01 11:30:31  5-MIN KMSN 241730Z 08011KT 5SM HZ FEW020 BKN035 24/19 A3009 710 73 2000 080/11 RMK AO2
14837KMSN MSN20010824113510908/24/01 11:35:31  5-MIN KMSN 241735Z 08008KT 7SM FEW020 SCT028 BKN035 24/19 A3009 710 73 2000 080/08 RMK AO2
14837KMSN MSN20010824114011208/24/01 11:40:31  5-MIN KMSN 241740Z 07009KT 6SM HZ FEW018 SCT023 BKN035 25/20 A3009 710 73 2100 070/09 RMK AO2
14837KMSN MSN20010824114511208/24/01 11:45:31  5-MIN KMSN 241745Z 08008KT 6SM HZ SCT021 BKN027 BKN033 25/20 A3009 710 73 2100 080/08 RMK AO2
14837KMSN MSN20010824115014408/24/01 11:50:31  5-MIN KMSN 241750Z 10010KT 7SM SCT021 BKN027 BKN035 24/20 A3009 710 76 2000 100/10 RMK AO2 SLP186 T02440200 10250 20189 51001
14837KMSN MSN20010824115510908/24/01 11:55:31  5-MIN KMSN 241755Z 11007KT 7SM SCT021 BKN029 BKN035 24/19 A3009 710 71 2000 110/07 RMK AO2
14837KMSN MSN20010824120010908/24/01 12:00:31  5-MIN KMSN 241800Z 08008KT 7SM SCT021 BKN029 BKN035 24/19 A3009 710 73 2000 080/08 RMK AO2
14837KMSN MSN20010824120510908/24/01 12:05:31  5-MIN KMSN 241805Z 10007KT 7SM SCT021 BKN030 BKN038 25/19 A3009 710 71 2100 100/07 RMK AO2
14837KMSN MSN20010824121010908/24/01 12:10:31  5-MIN KMSN 241810Z 09007KT 7SM SCT021 SCT028 BKN036 25/19 A3009 710 71 2100 090/07 RMK AO2
14837KMSN MSN20010824121510908/24/01 12:15:31  5-MIN KMSN 241815Z 07011KT 7SM SCT023 SCT028 BKN034 24/19 A3009 710 73 2000 070/11 RMK AO2
14837KMSN MSN20010824122010908/24/01 12:20:31  5-MIN KMSN 241820Z 10010KT 7SM FEW023 SCT028 BKN034 25/19 A3009 710 71 2100 090/10 RMK AO2
14837KMSN MSN20010824122510908/24/01 12:25:31  5-MIN KMSN 241825Z 09010KT 7SM FEW023 SCT034 SCT045 25/19 A3009 710 68 2100 080/10 RMK AO2
14837KMSN MSN20010824123010908/24/01 12:30:31  5-MIN KMSN 241830Z 09007KT 7SM FEW023 SCT045 BKN050 25/19 A3008 710 71 2100 090/07 RMK AO2
14837KMSN MSN20010824123511208/24/01 12:35:31  5-MIN KMSN 241835Z 07010KT 6SM HZ FEW023 SCT045 BKN050 24/19 A3008 720 71 2000 070/10 RMK AO2
14837KMSN MSN20010824124011208/24/01 12:40:31  5-MIN KMSN 241840Z 07010KT 6SM HZ SCT023 SCT030 BKN049 24/19 A3008 720 73 2000 070/10 RMK AO2
14837KMSN MSN20010824124510508/24/01 12:45:31  5-MIN KMSN 241845Z 08009KT 6SM HZ FEW023 SCT049 24/19 A3008 720 73 2000 080/09 RMK AO2
14837KMSN MSN20010824125012908/24/01 12:50:31  5-MIN KMSN 241850Z 08011KT 6SM HZ SCT023 SCT031 SCT049 25/20 A3008 720 73 2100 080/11 RMK AO2 SLP181 T02500200
14837KMSN MSN20010824125510208/24/01 12:55:31  5-MIN KMSN 241855Z 09010KT 7SM SCT023 BKN031 26/20 A3007 720 68 2200 090/10 RMK AO2
14837KMSN MSN20010824130010208/24/01 13:00:31  5-MIN KMSN 241900Z 09012KT 7SM SCT023 BKN031 25/19 A3008 720 71 2100 090/12 RMK AO2
14837KMSN MSN20010824130510208/24/01 13:05:31  5-MIN KMSN 241905Z 07009KT 7SM SCT023 BKN031 26/19 A3007 720 68 2100 070/09 RMK AO2
14837KMSN MSN20010824131010208/24/01 13:10:31  5-MIN KMSN 241910Z 09009KT 7SM SCT023 BKN031 26/20 A3008 720 71 2100 090/09 RMK AO2
14837KMSN MSN20010824131510208/24/01 13:15:31  5-MIN KMSN 241915Z 10011KT 7SM SCT023 BKN031 26/19 A3007 720 68 2100 100/11 RMK AO2
14837KMSN MSN20010824132010208/24/01 13:20:31  5-MIN KMSN 241920Z 11009KT 7SM SCT026 BKN031 26/19 A3007 720 68 2100 100/09 RMK AO2
14837KMSN MSN20010824132510908/24/01 13:25:31  5-MIN KMSN 241925Z 11011KT 8SM FEW026 SCT030 BKN044 26/19 A3007 730 66 2200 110/11 RMK AO2
14837KMSN MSN20010824133010908/24/01 13:30:31  5-MIN KMSN 241930Z 12009KT 8SM SCT026 SCT035 SCT044 27/19 A3007 730 62 2300 120/09 RMK AO2
14837KMSN MSN20010824133509608/24/01 13:35:31  5-MIN KMSN 241935Z 09013KT 10SM FEW026 27/19 A3006 730 62 2300 090/13 RMK AO2
14837KMSN MSN20010824134009608/24/01 13:40:31  5-MIN KMSN 241940Z 11012KT 10SM SCT026 27/19 A3006 730 64 2300 100/12 RMK AO2
14837KMSN MSN20010824134509608/24/01 13:45:31  5-MIN KMSN 241945Z 09009KT 10SM SCT026 26/19 A3006 740 66 2200 090/09 RMK AO2
14837KMSN MSN20010824135011308/24/01 13:50:31  5-MIN KMSN 241950Z 11011KT 10SM SCT026 27/19 A3006 740 62 2300 110/11 RMK AO2 SLP174 T02670189
14837KMSN MSN20010824135509608/24/01 13:55:31  5-MIN KMSN 241955Z 11008KT 10SM SCT030 26/19 A3006 740 64 2200 110/08 RMK AO2
14837KMSN MSN20010824140009608/24/01 14:00:31  5-MIN KMSN 242000Z 10012KT 10SM SCT030 26/19 A3005 740 66 2200 100/12 RMK AO2
14837KMSN MSN20010824140511208/24/01 14:05:31  5-MIN KMSN 242005Z 10009KT 070V130 10SM SCT030 27/19 A3005 740 62 2400 100/09 070V130 RMK AO2
14837KMSN MSN20010824141009608/24/01 14:10:31  5-MIN KMSN 242010Z 12008KT 10SM SCT040 26/19 A3005 740 64 2200 120/08 RMK AO2
14837KMSN MSN20010824141509608/24/01 14:15:31  5-MIN KMSN 242015Z 11011KT 10SM SCT040 27/19 A3005 740 62 2300 110/11 RMK AO2
14837KMSN MSN20010824142009608/24/01 14:20:31  5-MIN KMSN 242020Z 11011KT 10SM SCT040 27/19 A3005 740 64 2300 100/11 RMK AO2
14837KMSN MSN20010824142509608/24/01 14:25:31  5-MIN KMSN 242025Z 12007KT 10SM SCT040 26/18 A3005 750 62 2200 120/07 RMK AO2
14837KMSN MSN20010824143009608/24/01 14:30:31  5-MIN KMSN 242030Z 12008KT 10SM SCT032 26/18 A3004 750 62 2200 120/08 RMK AO2
14837KMSN MSN20010824143509608/24/01 14:35:31  5-MIN KMSN 242035Z 14010KT 10SM SCT032 26/18 A3004 750 62 2200 140/10 RMK AO2
14837KMSN MSN20010824144009608/24/01 14:40:31  5-MIN KMSN 242040Z 11012KT 10SM SCT032 27/19 A3004 750 62 2300 110/12 RMK AO2
14837KMSN MSN20010824144509608/24/01 14:45:31  5-MIN KMSN 242045Z 11011KT 10SM SCT032 27/18 A3004 750 60 2300 110/11 RMK AO2
14837KMSN MSN20010824145011908/24/01 14:50:31  5-MIN KMSN 242050Z 10012KT 10SM SCT032 27/18 A3004 750 60 2300 100/12 RMK AO2 SLP168 T02670183 56014
14837KMSN MSN20010824145510308/24/01 14:55:31  5-MIN KMSN 242055Z 11010KT 10SM SCT035 BKN055 27/18 A3004 750 60 2300 110/10 RMK AO2
14837KMSN MSN20010824150009608/24/01 15:00:31  5-MIN KMSN 242100Z 10010KT 10SM SCT035 26/18 A3004 750 62 2200 100/10 RMK AO2
14837KMSN MSN20010824150510308/24/01 15:05:31  5-MIN KMSN 242105Z 10009KT 10SM FEW035 SCT055 27/18 A3004 760 60 2300 100/09 RMK AO2
14837KMSN MSN20010824151011008/24/01 15:10:31  5-MIN KMSN 242110Z 10013KT 10SM SCT035 SCT049 BKN055 27/18 A3003 760 60 2300 100/13 RMK AO2
14837KMSN MSN20010824151510308/24/01 15:15:31  5-MIN KMSN 242115Z 09011KT 10SM FEW035 SCT049 26/18 A3003 760 64 2200 090/11 RMK AO2
14837KMSN MSN20010824152010308/24/01 15:20:31  5-MIN KMSN 242120Z 09010KT 10SM FEW037 SCT049 26/18 A3003 760 62 2300 090/10 RMK AO2
14837KMSN MSN20010824152511008/24/01 15:25:31  5-MIN KMSN 242125Z 10013KT 10SM SCT037 SCT046 BKN055 27/18 A3004 760 60 2300 100/13 RMK AO2
14837KMSN MSN20010824153011008/24/01 15:30:31  5-MIN KMSN 242130Z 11011KT 10SM FEW037 BKN046 BKN055 26/18 A3003 760 61 2200 110/11 RMK AO2
14837KMSN MSN20010824153511008/24/01 15:35:31  5-MIN KMSN 242135Z 11011KT 10SM FEW037 SCT046 SCT055 26/18 A3004 760 62 2300 110/11 RMK AO2
14837KMSN MSN20010824154011008/24/01 15:40:31  5-MIN KMSN 242140Z 11009KT 10SM FEW037 SCT046 SCT055 26/18 A3004 760 59 2300 110/09 RMK AO2
14837KMSN MSN20010824154510308/24/01 15:45:31  5-MIN KMSN 242145Z 12011KT 10SM FEW037 SCT050 26/18 A3004 760 61 2200 120/11 RMK AO2
14837KMSN MSN20010824155011908/24/01 15:50:31  5-MIN KMSN 242150Z 12010KT 9SM FEW037 SCT050 25/18 A3004 760 64 2100 120/10 RMK AO2 SLP167 T02500178
14837KMSN MSN20010824155509508/24/01 15:55:31  5-MIN KMSN 242155Z 11011KT 9SM FEW037 26/18 A3003 760 61 2200 110/11 RMK AO2
14837KMSN MSN20010824160009508/24/01 16:00:31  5-MIN KMSN 242200Z 11010KT 9SM FEW037 26/18 A3003 760 59 2300 110/10 RMK AO2
14837KMSN MSN20010824160509508/24/01 16:05:31  5-MIN KMSN 242205Z 11009KT 9SM FEW037 26/18 A3003 760 62 2300 100/09 RMK AO2
14837KMSN MSN20010824161009208/24/01 16:10:31  5-MIN KMSN 242210Z 10009KT 9SM CLR 25/18 A3003 760 64 2100 100/09 RMK AO2
14837KMSN MSN20010824161509208/24/01 16:15:31  5-MIN KMSN 242215Z 12010KT 9SM CLR 25/18 A3003 760 66 2100 120/10 RMK AO2
14837KMSN MSN20010824162009208/24/01 16:20:31  5-MIN KMSN 242220Z 12010KT 9SM CLR 25/18 A3003 760 64 2100 120/10 RMK AO2
14837KMSN MSN20010824162509208/24/01 16:25:31  5-MIN KMSN 242225Z 11011KT 9SM CLR 25/18 A3003 760 64 2100 110/11 RMK AO2
14837KMSN MSN20010824163009208/24/01 16:30:31  5-MIN KMSN 242230Z 12010KT 9SM CLR 25/18 A3003 770 64 2100 120/10 RMK AO2
14837KMSN MSN20010824163509208/24/01 16:35:31  5-MIN KMSN 242235Z 11012KT 9SM CLR 25/18 A3002 770 64 2100 110/12 RMK AO2
14837KMSN MSN20010824164009508/24/01 16:40:31  5-MIN KMSN 242240Z 11010KT 9SM FEW037 25/18 A3002 770 64 2100 110/10 RMK AO2
14837KMSN MSN20010824164509508/24/01 16:45:31  5-MIN KMSN 242245Z 11009KT 8SM FEW037 25/18 A3003 770 66 2100 110/09 RMK AO2
14837KMSN MSN20010824165011208/24/01 16:50:31  5-MIN KMSN 242250Z 11008KT 9SM FEW037 25/18 A3003 770 64 2100 110/08 RMK AO2 SLP164 T02500178
14837KMSN MSN20010824165509508/24/01 16:55:31  5-MIN KMSN 242255Z 10009KT 8SM FEW060 25/18 A3002 770 66 2100 090/09 RMK AO2
14837KMSN MSN20010824170009508/24/01 17:00:31  5-MIN KMSN 242300Z 10008KT 8SM SCT060 24/18 A3002 770 68 2100 100/08 RMK AO2
14837KMSN MSN20010824170509508/24/01 17:05:31  5-MIN KMSN 242305Z 10009KT 8SM BKN060 24/18 A3002 770 66 2100 100/09 RMK AO2
14837KMSN MSN20010824171009508/24/01 17:10:31  5-MIN KMSN 242310Z 10010KT 8SM BKN055 24/18 A3002 770 66 2100 100/10 RMK AO2
14837KMSN MSN20010824171509508/24/01 17:15:31  5-MIN KMSN 242315Z 10012KT 8SM BKN055 24/18 A3002 770 68 2100 100/12 RMK AO2
14837KMSN MSN20010824172009508/24/01 17:20:31  5-MIN KMSN 242320Z 10011KT 8SM BKN055 24/18 A3002 770 68 2100 100/11 RMK AO2
14837KMSN MSN20010824172510208/24/01 17:25:31  5-MIN KMSN 242325Z 10009KT 8SM BKN050 OVC060 24/18 A3003 770 71 2000 100/09 RMK AO2
14837KMSN MSN20010824173009508/24/01 17:30:31  5-MIN KMSN 242330Z 10008KT 8SM OVC050 24/18 A3002 770 71 2000 100/08 RMK AO2
14837KMSN MSN20010824173509508/24/01 17:35:31  5-MIN KMSN 242335Z 10010KT 8SM OVC050 24/18 A3002 770 68 2000 100/10 RMK AO2
14837KMSN MSN20010824174009508/24/01 17:40:31  5-MIN KMSN 242340Z 10008KT 8SM OVC050 24/18 A3002 770 71 2000 100/08 RMK AO2
14837KMSN MSN20010824174509508/24/01 17:45:31  5-MIN KMSN 242345Z 08007KT 8SM OVC048 24/18 A3002 770 71 2000 080/07 RMK AO2
14837KMSN MSN20010824175013008/24/01 17:50:31  5-MIN KMSN 242350Z 08007KT 8SM BKN048 23/18 A3002 770 73 2000 080/07 RMK AO2 SLP163 T02330183 10272 20233 58017
14837KMSN MSN20010824175509508/24/01 17:55:31  5-MIN KMSN 242355Z 09006KT 8SM OVC048 23/18 A3002 770 73 2000 090/06 RMK AO2
14837KMSN MSN20010824180009508/24/01 18:00:31  5-MIN KMSN 250000Z 10011KT 8SM OVC046 23/18 A3002 770 73 2000 100/11 RMK AO2
14837KMSN MSN20010824180509508/24/01 18:05:31  5-MIN KMSN 250005Z 10010KT 8SM OVC046 23/18 A3002 770 73 2000 100/10 RMK AO2
14837KMSN MSN20010824181009508/24/01 18:10:31  5-MIN KMSN 250010Z 10010KT 9SM OVC046 23/18 A3003 770 73 1900 100/10 RMK AO2
14837KMSN MSN20010824181509508/24/01 18:15:31  5-MIN KMSN 250015Z 11011KT 9SM OVC046 23/18 A3003 760 73 1900 110/11 RMK AO2
14837KMSN MSN20010824182011108/24/01 18:20:31  5-MIN KMSN 250020Z 11010KT 7SM -RA OVC046 23/18 A3003 760 76 1900 110/10 RMK AO2 RAB18 P0000
14837KMSN MSN20010824182512108/24/01 18:25:31  5-MIN KMSN 250025Z 11014KT 3SM -RA OVC046 23/19 A3003 760 78 1900 110/14 RMK AO2 SFC VIS 5 RAB18 P0000
14837KMSN MSN20010824183012808/24/01 18:30:31  5-MIN KMSN 250030Z 11009KT 3SM -RA FEW027 OVC044 22/19 A3003 760 81 1800 110/09 RMK AO2 SFC VIS 4 RAB18 P0000
14837KMSN MSN20010824183513108/24/01 18:35:31  5-MIN KMSN 250035Z 11009KT 3SM -RA BR FEW027 OVC044 22/19 A3003 760 87 1800 110/09 RMK AO2 SFC VIS 4 RAB18 P0000
14837KMSN MSN20010824184013108/24/01 18:40:31  5-MIN KMSN 250040Z 11007KT 3SM -RA BR FEW027 OVC042 22/19 A3003 760 87 1800 110/07 RMK AO2 SFC VIS 4 RAB18 P0001
14837KMSN MSN20010824184513108/24/01 18:45:31  5-MIN KMSN 250045Z 10007KT 3SM -RA BR FEW031 OVC042 22/19 A3003 760 87 1800 100/07 RMK AO2 SFC VIS 4 RAB18 P0001
14837KMSN MSN20010824185014508/24/01 18:50:31  5-MIN KMSN 250050Z 10007KT 3SM -RA BR FEW028 BKN042 OVC049 22/19 A3003 760 87 1800 100/07 RMK AO2 RAB18 SLP166 P0001 T02170194
14837KMSN MSN20010824185511508/24/01 18:55:31  5-MIN KMSN 250055Z 11008KT 3SM -RA BR FEW028 OVC044 22/19 A3003 760 87 1800 110/08 RMK AO2 P0000
14837KMSN MSN20010824190012208/24/01 19:00:31  5-MIN KMSN 250100Z 12008KT 3SM -RA BR BKN042 BKN049 OVC060 21/19 A3003 760 90 1700 120/08 RMK AO2 P0000
14837KMSN MSN20010824190512208/24/01 19:05:31  5-MIN KMSN 250105Z 12008KT 3SM -RA BR BKN042 BKN049 OVC060 21/19 A3003 760 90 1700 120/08 RMK AO2 P0000
14837KMSN MSN20010824191011508/24/01 19:10:31  5-MIN KMSN 250110Z 12009KT 3SM -RA BR BKN042 OVC049 21/19 A3003 760 90 1700 120/09 RMK AO2 P0000
14837KMSN MSN20010824191511508/24/01 19:15:31  5-MIN KMSN 250115Z 11008KT 3SM -RA BR SCT036 OVC046 21/19 A3003 760 93 1600 110/08 RMK AO2 P0002
14837KMSN MSN20010824192012208/24/01 19:20:31  5-MIN KMSN 250120Z 12007KT 3SM -RA BR FEW013 BKN036 OVC046 21/19 A3004 760 93 1600 120/07 RMK AO2 P0004
14837KMSN MSN20010824192512208/24/01 19:25:31  5-MIN KMSN 250125Z 12010KT 3SM -RA BR SCT013 BKN036 OVC046 21/19 A3004 760 93 1600 120/10 RMK AO2 P0007
14837KMSN MSN20010824193013108/24/01 19:30:31  5-MIN KMSN 250130Z 10007KT 2SM RA BR FEW008 BKN032 OVC041 21/19 A3004 760 93 1600 100/07 RMK AO2 TWR VIS 3 P0010
14837KMSN MSN20010824193513208/24/01 19:35:31  5-MIN KMSN 250135Z 10009KT 2SM -RA BR FEW008 BKN036 OVC043 21/19 A3004 760 93 1600 100/09 RMK AO2 TWR VIS 3 P0011
14837KMSN MSN20010824194013208/24/01 19:40:31  5-MIN KMSN 250140Z 10007KT 2SM -RA BR FEW008 SCT029 OVC036 21/19 A3004 760 93 1600 090/07 RMK AO2 TWR VIS 3 P0012
14837KMSN MSN20010824194513608/24/01 19:45:31  5-MIN KMSN 250145Z 11008KT 2 1/2SM -RA BR FEW008 BKN027 OVC036 21/19 A3004 750 93 1600 100/08 RMK AO2 TWR VIS 3 P0012
14837KMSN MSN20010824195013908/24/01 19:50:31  5-MIN KMSN 250150Z 10005KT 3SM -RA BR FEW008 BKN027 OVC036 21/19 A3004 750 93 1600 100/05 RMK AO2 SLP169 P0012 T02060194
14837KMSN MSN20010824195513208/24/01 19:55:31  5-MIN KMSN 250155Z 10006KT 3SM -RA BR FEW005 BKN024 OVC040 21/19 A3004 750 93 1600 100/06 RMK AO2 SFC VIS 3 P0000
14837KMSN MSN20010824200013208/24/01 20:00:31  5-MIN KMSN 250200Z 10006KT 3SM -RA BR SCT018 BKN024 BKN032 21/19 A3004 760 93 1600 100/06 RMK AO2 SFC VIS 3 P0000
14837KMSN MSN20010824200513208/24/01 20:05:31  5-MIN KMSN 250205Z 09006KT 3SM -RA BR BKN018 BKN024 OVC032 21/19 A3004 760 93 1600 090/06 RMK AO2 SFC VIS 3 P0000
14837KMSN MSN20010824201011508/24/01 20:10:31  5-MIN KMSN 250210Z 07007KT 3SM -RA BR BKN018 OVC026 21/19 A3004 760 93 1600 070/07 RMK AO2 P0000
14837KMSN MSN20010824201510808/24/01 20:15:31  5-MIN KMSN 250215Z 09006KT 3SM -RA BR BKN020 21/19 A3004 760 93 1600 090/06 RMK AO2 P0000
14837KMSN MSN20010824202011908/24/01 20:20:31  5-MIN KMSN 250220Z 09006KT 2 1/2SM -RA BR FEW009 OVC020 21/19 A3004 760 93 1600 090/06 RMK AO2 P0003
14837KMSN MSN20010824202513508/24/01 20:25:31  5-MIN KMSN 250225Z 09004KT 2SM RA BR FEW007 BKN018 OVC025 20/19 A3004 760 97 1600 090/04 RMK AO2 TWR VIS 2 1/2 P0006
14837KMSN MSN20010824203013608/24/01 20:30:31  5-MIN KMSN 250230Z 07004KT 2SM +RA BR FEW006 BKN020 OVC025 20/19 A3004 760 97 1600 070/04 RMK AO2 TWR VIS 2 1/2 P0010
14837KMSN MSN20010824203513608/24/01 20:35:31  5-MIN KMSN 250235Z 10004KT 2SM -RA BR SCT008 BKN014 OVC025 20/19 A3004 760 97 1600 100/04 RMK AO2 TWR VIS 2 1/2 P0010
14837KMSN MSN20010824204013608/24/01 20:40:31  5-MIN KMSN 250240Z 12004KT 2SM -RA BR SCT004 BKN010 OVC017 20/19 A3004 760 97 1600 120/04 RMK AO2 TWR VIS 2 1/2 P0010
14837KMSN MSN20010824204512908/24/01 20:45:31  5-MIN KMSN 250245Z 10003KT 2SM -RA BR BKN006 OVC016 20/19 A3003 760 97 1600 100/03 RMK AO2 TWR VIS 2 1/2 P0010
14837KMSN MSN20010824205014808/24/01 20:50:31  5-MIN KMSN 250250Z 00000KT 2 1/2SM -RA BR BKN006 OVC016 20/19 A3003 760 97 1600 000/00 RMK AO2 SLP167 P0011 60024 T02000194 56006
14837KMSN MSN20010824205511908/24/01 20:55:31  5-MIN KMSN 250255Z 10005KT 2 1/2SM -RA BR BKN006 OVC014 20/19 A3003 760 97 1600 100/05 RMK AO2 P0000
14837KMSN MSN20010824210012408/24/01 21:00:31  5-MIN KMSN 250300Z 09004KT 2 1/2SM -RA BR OVC006 20/19 A3003 760 97 1600 090/04 RMK AO2 CIG 005V011 P0000
14837KMSN MSN20010824210513408/24/01 21:05:31  5-MIN KMSN 250305Z 09007KT 2SM -RA BR OVC006 20/19 A3003 760 97 1600 090/07 RMK AO2 TWR VIS 2 1/2 CIG 005V010 P0001
14837KMSN MSN20010824211014008/24/01 21:10:31  5-MIN KMSN 250310Z 09004KT 2SM RA BR BKN006 OVC013 20/19 A3003 760 97 1600 090/04 RMK AO2 TWR VIS 2 1/2 CIG 005V009 P0002
14837KMSN MSN20010824211512408/24/01 21:15:31  5-MIN KMSN 250315Z 09005KT 2 1/2SM -RA BR OVC008 20/19 A3003 760 93 1600 090/05 RMK AO2 CIG 005V012 P0002
14837KMSN MSN20010824212013308/24/01 21:20:31  5-MIN KMSN 250320Z 09006KT 2 1/2SM BR BKN008 OVC012 20/19 A3003 760 97 1600 090/06 RMK AO2 RAE20 CIG 005V009 P0002
14837KMSN MSN20010824212513108/24/01 21:25:31  5-MIN KMSN 250325Z 09006KT 2 1/2SM -RA BR BKN008 OVC012 20/19 A3003 760 97 1600 090/06 RMK AO2 CIG 005V011 P0002
14837KMSN MSN20010824213013108/24/01 21:30:31  5-MIN KMSN 250330Z 10007KT 2 1/2SM -RA BR BKN009 OVC014 20/19 A3003 760 97 1600 090/07 RMK AO2 CIG 005V012 P0002
14837KMSN MSN20010824213513108/24/01 21:35:31  5-MIN KMSN 250335Z 10006KT 2 1/2SM -RA BR BKN009 OVC014 20/19 A3003 760 97 1600 100/06 RMK AO2 CIG 007V012 P0002
14837KMSN MSN20010824214013108/24/01 21:40:31  5-MIN KMSN 250340Z 11004KT 2 1/2SM -RA BR BKN009 OVC014 20/19 A3003 760 97 1600 100/04 RMK AO2 CIG 005V012 P0002
14837KMSN MSN20010824214513308/24/01 21:45:31  5-MIN KMSN 250345Z 11006KT 2 1/2SM BR BKN009 OVC014 20/19 A3003 760 97 1600 110/06 RMK AO2 RAE43 CIG 006V012 P0002
14837KMSN MSN20010824215014308/24/01 21:50:31  5-MIN KMSN 250350Z 10006KT 2 1/2SM BR OVC009 20/19 A3003 770 97 1600 100/06 RMK AO2 RAE43 CIG 006V012 SLP164 P0002 T02000194
14837KMSN MSN20010824215513108/24/01 21:55:31  5-MIN KMSN 250355Z 11008KT 2 1/2SM -RA BR BKN009 OVC014 20/19 A3003 770 97 1600 100/08 RMK AO2 CIG 006V010 P0000
14837KMSN MSN20010824220013308/24/01 22:00:31  5-MIN KMSN 250400Z 11008KT 2 1/2SM BR SCT009 OVC014 20/19 A3002 770 93 1600 110/08 RMK AO2 SFC VIS 3 RAE0358 P0000
14837KMSN MSN20010824220511908/24/01 22:05:31  5-MIN KMSN 250405Z 11008KT 3SM BR FEW007 OVC012 20/19 A3002 770 93 1600 110/08 RMK AO2 RAE0358 P0000
14837KMSN MSN20010824221012308/24/01 22:10:31  5-MIN KMSN 250410Z 11007KT 2 1/2SM BR SCT007 OVC012 20/19 A3002 770 93 1600 110/07 RMK AO2 RAE0358 P0000
14837KMSN MSN20010824221512308/24/01 22:15:31  5-MIN KMSN 250415Z 11005KT 2 1/2SM BR FEW007 OVC012 20/19 A3002 770 97 1600 110/05 RMK AO2 RAE0358 P0000
14837KMSN MSN20010824222011608/24/01 22:20:31  5-MIN KMSN 250420Z 12006KT 2 1/2SM BR OVC012 20/19 A3002 770 93 1600 120/06 RMK AO2 RAE0358 P0000
14837KMSN MSN20010824222513508/24/01 22:25:31  5-MIN KMSN 250425Z 13006KT 2 1/2SM BR BKN008 OVC012 20/19 A3002 770 93 1600 130/06 RMK AO2 RAE0358 CIG 006V011 P0000
14837KMSN MSN20010824223012808/24/01 22:30:31  5-MIN KMSN 250430Z 11007KT 2 1/2SM BR OVC010 20/19 A3002 780 93 1600 110/07 RMK AO2 RAE0358 CIG 006V013 P0000
14837KMSN MSN20010824223512808/24/01 22:35:31  5-MIN KMSN 250435Z 11006KT 2 1/2SM BR OVC010 20/19 A3002 780 93 1600 110/06 RMK AO2 RAE0358 CIG 006V013 P0000
14837KMSN MSN20010824224012808/24/01 22:40:31  5-MIN KMSN 250440Z 11006KT 2 1/2SM BR OVC010 20/19 A3001 780 93 1600 110/06 RMK AO2 RAE0358 CIG 006V013 P0000
14837KMSN MSN20010824224512808/24/01 22:45:31  5-MIN KMSN 250445Z 12007KT 2 1/2SM BR OVC008 20/19 A3001 780 97 1600 120/07 RMK AO2 RAE0358 CIG 006V011 P0000
14837KMSN MSN20010824225014508/24/01 22:50:31  5-MIN KMSN 250450Z 12007KT 2 1/2SM BR OVC008 20/19 A3001 780 93 1600 120/07 RMK AO2 RAE0358 CIG 006V011 SLP158 P0000 T02000189
14837KMSN MSN20010824225511408/24/01 22:55:31  5-MIN KMSN 250455Z 11007KT 2 1/2SM BR OVC008 20/19 A3001 780 97 1600 110/07 RMK AO2 CIG 006V011
14837KMSN MSN20010824230011408/24/01 23:00:31  5-MIN KMSN 250500Z 11008KT 2 1/2SM BR OVC008 20/19 A3000 790 97 1600 100/08 RMK AO2 CIG 006V011
14837KMSN MSN20010824230511408/24/01 23:05:31  5-MIN KMSN 250505Z 11008KT 2 1/2SM BR BKN008 20/19 A3000 790 93 1600 110/08 RMK AO2 CIG 006V011
14837KMSN MSN20010824231011008/24/01 23:10:31  5-MIN KMSN 250510Z 11007KT 2SM BR BKN008 20/19 A3000 790 97 1600 100/07 RMK AO2 CIG 006V011
14837KMSN MSN20010824231511008/24/01 23:15:31  5-MIN KMSN 250515Z 12006KT 2SM BR BKN008 20/19 A3000 790 97 1600 120/06 RMK AO2 CIG 006V013
14837KMSN MSN20010824232010508/24/01 23:20:31  5-MIN KMSN 250520Z 12007KT 2SM BR BKN006 OVC010 20/19 A3000 790 97 1600 120/07 RMK AO2
14837KMSN MSN20010824232511008/24/01 23:25:31  5-MIN KMSN 250525Z 12006KT 2SM BR OVC006 20/19 A3000 790 97 1600 110/06 RMK AO2 CIG 006V011
14837KMSN MSN20010824233011708/24/01 23:30:31  5-MIN KMSN 250530Z 11005KT 2SM BR BKN006 OVC010 20/19 A3000 790 97 1600 110/05 RMK AO2 CIG 006V009
14837KMSN MSN20010824233511008/24/01 23:35:31  5-MIN KMSN 250535Z 11006KT 2SM BR OVC006 20/19 A3000 790 97 1600 110/06 RMK AO2 CIG 006V009
14837KMSN MSN20010824234011008/24/01 23:40:31  5-MIN KMSN 250540Z 11006KT 2SM BR OVC006 20/19 A2999 800 97 1600 110/06 RMK AO2 CIG 006V009
14837KMSN MSN20010824234511008/24/01 23:45:31  5-MIN KMSN 250545Z 11007KT 2SM BR OVC006 20/19 A2999 800 97 1600 110/07 RMK AO2 CIG 005V010
14837KMSN MSN20010824235016108/24/01 23:50:31  5-MIN KMSN 250550Z 12007KT 2SM BR OVC006 20/19 A2999 800 97 1600 120/07 RMK AO2 CIG 005V010 SLP151 60026 T02000194 10233 20200 402720178 50003
14837KMSN MSN20010824235511008/24/01 23:55:31  5-MIN KMSN 250555Z 12005KT 2SM BR OVC006 20/19 A2999 800 97 1600 120/05 RMK AO2 CIG 005V010
14837KMSN MSN20010825000009808/25/01 00:00:31  5-MIN KMSN 250600Z 12007KT 2SM BR OVC006 20/19 A2998 810 97 1600 120/07 RMK AO2
14837KMSN MSN20010825000510508/25/01 00:05:31  5-MIN KMSN 250605Z 12006KT 2SM BR BKN006 OVC010 20/19 A2998 810 97 1600 120/06 RMK AO2
14837KMSN MSN20010825001011008/25/01 00:10:31  5-MIN KMSN 250610Z 12005KT 2SM BR OVC006 20/19 A2998 810 97 1600 110/05 RMK AO2 CIG 005V012
14837KMSN MSN20010825001511008/25/01 00:15:31  5-MIN KMSN 250615Z 12006KT 2SM BR OVC006 20/19 A2998 810 97 1600 120/06 RMK AO2 CIG 005V012
14837KMSN MSN20010825002010508/25/01 00:20:31  5-MIN KMSN 250620Z 12006KT 2SM BR BKN006 OVC010 20/19 A2998 810 97 1600 120/06 RMK AO2
14837KMSN MSN20010825002510508/25/01 00:25:31  5-MIN KMSN 250625Z 12006KT 2SM BR BKN006 OVC010 20/19 A2998 810 97 1600 120/06 RMK AO2
14837KMSN MSN20010825003009808/25/01 00:30:31  5-MIN KMSN 250630Z 12006KT 2SM BR OVC006 20/19 A2998 810 97 1600 120/06 RMK AO2
14837KMSN MSN20010825003511008/25/01 00:35:31  5-MIN KMSN 250635Z 13006KT 2SM BR OVC006 21/19 A2998 810 93 1700 130/06 RMK AO2 CIG 005V010
14837KMSN MSN20010825004009808/25/01 00:40:31  5-MIN KMSN 250640Z 12005KT 2SM BR OVC006 21/19 A2997 820 93 1700 120/05 RMK AO2
14837KMSN MSN20010825004509808/25/01 00:45:31  5-MIN KMSN 250645Z 13006KT 2SM BR OVC006 21/19 A2997 820 93 1700 120/06 RMK AO2
14837KMSN MSN20010825005011508/25/01 00:50:31  5-MIN KMSN 250650Z 12005KT 2SM BR OVC006 21/19 A2997 820 93 1700 120/05 RMK AO2 SLP144 T02060194
14837KMSN MSN20010825005509808/25/01 00:55:31  5-MIN KMSN 250655Z 12005KT 2SM BR OVC006 21/19 A2997 820 93 1700 120/05 RMK AO2
14837KMSN MSN20010825010011008/25/01 01:00:31  5-MIN KMSN 250700Z 12004KT 2SM BR OVC006 21/19 A2997 820 93 1700 120/04 RMK AO2 CIG 005V009
14837KMSN MSN20010825010511708/25/01 01:05:31  5-MIN KMSN 250705Z 11004KT 2SM BR BKN006 OVC010 21/19 A2997 820 93 1700 110/04 RMK AO2 CIG 005V009
14837KMSN MSN20010825011011008/25/01 01:10:31  5-MIN KMSN 250710Z 11005KT 2SM BR OVC006 21/19 A2997 820 93 1700 110/05 RMK AO2 CIG 005V011
14837KMSN MSN20010825011511008/25/01 01:15:31  5-MIN KMSN 250715Z 11004KT 2SM BR OVC006 21/19 A2996 820 93 1700 110/04 RMK AO2 CIG 005V011
14837KMSN MSN20010825012011008/25/01 01:20:31  5-MIN KMSN 250720Z 11004KT 2SM BR OVC006 21/19 A2996 830 93 1700 110/04 RMK AO2 CIG 005V011
14837KMSN MSN20010825012511008/25/01 01:25:31  5-MIN KMSN 250725Z 11005KT 2SM BR OVC006 21/19 A2996 830 93 1700 110/05 RMK AO2 CIG 005V010
14837KMSN MSN20010825013011008/25/01 01:30:31  5-MIN KMSN 250730Z 12005KT 2SM BR OVC006 21/19 A2996 830 93 1700 120/05 RMK AO2 CIG 005V010
14837KMSN MSN20010825013511008/25/01 01:35:31  5-MIN KMSN 250735Z 13003KT 2SM BR OVC006 21/19 A2996 830 93 1700 130/03 RMK AO2 CIG 005V009
14837KMSN MSN20010825014011408/25/01 01:40:31  5-MIN KMSN 250740Z 13003KT 2SM -RA BR OVC006 21/19 A2995 830 93 1700 130/03 RMK AO2 RAB40 P0000
14837KMSN MSN20010825014511408/25/01 01:45:31  5-MIN KMSN 250745Z 12004KT 2SM -RA BR OVC006 21/19 A2995 830 93 1700 120/04 RMK AO2 RAB40 P0000
14837KMSN MSN20010825015013008/25/01 01:50:31  5-MIN KMSN 250750Z 12003KT 2SM RA BR OVC006 21/20 A2995 830 97 1700 120/03 RMK AO2 RAB40 SLP137 P0002 T02060200
14837KMSN MSN20010825015511108/25/01 01:55:31  5-MIN KMSN 250755Z 13003KT 1 3/4SM RA BR OVC006 21/20 A2995 840 97 1700 130/03 RMK AO2 P0001
14837KMSN MSN20010825020011108/25/01 02:00:31  5-MIN KMSN 250800Z 00000KT 1 3/4SM RA BR OVC006 21/20 A2995 840 97 1700 000/00 RMK AO2 P0002
14837KMSN MSN20010825020510808/25/01 02:05:31  5-MIN KMSN 250805Z 13004KT 2SM -RA BR OVC006 21/20 A2995 840 97 1700 130/04 RMK AO2 P0002
14837KMSN MSN20010825021010808/25/01 02:10:31  5-MIN KMSN 250810Z 13004KT 2SM -RA BR OVC006 21/20 A2995 840 97 1700 130/04 RMK AO2 P0003
14837KMSN MSN20010825021511908/25/01 02:15:31  5-MIN KMSN 250815Z 00000KT 1 1/4SM +RA BR FEW001 OVC006 21/20 A2994 840 97 1700 000/00 RMK AO2 P0009
14837KMSN MSN20010825022011208/25/01 02:20:31  5-MIN KMSN 250820Z 00000KT 1 1/4SM +RA BR OVC006 21/20 A2994 840 97 1700 000/00 RMK AO2 P0011
14837KMSN MSN20010825022511208/25/01 02:25:31  5-MIN KMSN 250825Z 00000KT 1 1/2SM -RA BR OVC006 21/20 A2994 850 97 1700 000/00 RMK AO2 P0012
14837KMSN MSN20010825023011208/25/01 02:30:31  5-MIN KMSN 250830Z 00000KT 1 3/4SM -RA BR OVC004 21/20 A2994 850 97 1700 000/00 RMK AO2 P0012
14837KMSN MSN20010825023511108/25/01 02:35:31  5-MIN KMSN 250835Z 00000KT 1 1/2SM RA BR OVC004 21/20 A2994 850 97 1700 000/00 RMK AO2 P0013
14837KMSN MSN20010825024011208/25/01 02:40:31  5-MIN KMSN 250840Z 00000KT 1 3/4SM -RA BR OVC004 21/20 A2994 850 97 1700 000/00 RMK AO2 P0013
14837KMSN MSN20010825024511408/25/01 02:45:31  5-MIN KMSN 250845Z 00000KT 1 3/4SM BR OVC004 21/20 A2994 850 97 1700 000/00 RMK AO2 RAE44 P0013
14837KMSN MSN20010825025014308/25/01 02:50:31  5-MIN KMSN 250850Z 12003KT 1 1/2SM BR OVC004 21/20 A2994 850 97 1700 120/03 RMK AO2 RAE44 SLP132 P0013 60015 T02060200 58015
14837KMSN MSN20010825025510208/25/01 02:55:31  5-MIN KMSN 250855Z 11004KT 1 3/4SM BR OVC004 21/20 A2993 850 97 1700 110/04 RMK AO2
14837KMSN MSN20010825030010208/25/01 03:00:31  5-MIN KMSN 250900Z 11004KT 1 3/4SM BR OVC004 21/20 A2993 850 97 1700 110/04 RMK AO2
14837KMSN MSN20010825030509808/25/01 03:05:31  5-MIN KMSN 250905Z 11004KT 2SM BR OVC004 21/20 A2993 850 97 1700 110/04 RMK AO2
14837KMSN MSN20010825031010208/25/01 03:10:31  5-MIN KMSN 250910Z 11005KT 1 3/4SM BR OVC004 21/20 A2993 860 97 1700 110/05 RMK AO2
14837KMSN MSN20010825031510208/25/01 03:15:31  5-MIN KMSN 250915Z 12005KT 1 3/4SM BR OVC004 21/20 A2993 860 97 1700 120/05 RMK AO2
14837KMSN MSN20010825032010208/25/01 03:20:31  5-MIN KMSN 250920Z 13004KT 1 3/4SM BR OVC004 21/20 A2993 860 97 1700 130/04 RMK AO2
14837KMSN MSN20010825032510208/25/01 03:25:31  5-MIN KMSN 250925Z 15005KT 1 3/4SM BR OVC004 21/20 A2993 860 97 1700 150/05 RMK AO2
14837KMSN MSN20010825033010208/25/01 03:30:31  5-MIN KMSN 250930Z 15004KT 1 3/4SM BR OVC004 21/20 A2993 860 93 1800 150/04 RMK AO2
14837KMSN MSN20010825033510208/25/01 03:35:31  5-MIN KMSN 250935Z 15004KT 1 3/4SM BR OVC004 21/21 A2993 860 97 1800 150/04 RMK AO2
14837KMSN MSN20010825034010208/25/01 03:40:31  5-MIN KMSN 250940Z 14006KT 1 3/4SM BR OVC004 21/21 A2992 860 97 1800 140/06 RMK AO2
14837KMSN MSN20010825034510208/25/01 03:45:31  5-MIN KMSN 250945Z 13007KT 1 3/4SM BR OVC004 21/21 A2992 870 97 1800 130/07 RMK AO2
14837KMSN MSN20010825071510208/25/01 07:15:31  5-MIN KMSN 251315Z 15007KT 1 1/2SM BR OVC004 22/21 A2991 870 97 1900 140/07 RMK AO2
14837KMSN MSN20010825072010208/25/01 07:20:31  5-MIN KMSN 251320Z 15008KT 1 1/2SM BR OVC004 22/21 A2991 870 97 1900 150/08 RMK AO2
14837KMSN MSN20010825072510208/25/01 07:25:31  5-MIN KMSN 251325Z 14006KT 1 1/2SM BR OVC004 22/21 A2991 870 97 1900 140/06 RMK AO2
14837KMSN MSN20010825073010208/25/01 07:30:31  5-MIN KMSN 251330Z 15006KT 1 1/2SM BR OVC004 22/21 A2991 870 93 2000 150/06 RMK AO2
14837KMSN MSN20010825073510208/25/01 07:35:31  5-MIN KMSN 251335Z 16006KT 1 1/2SM BR OVC004 22/22 A2991 870 97 2000 160/06 RMK AO2
14837KMSN MSN20010825074010208/25/01 07:40:31  5-MIN KMSN 251340Z 15006KT 1 1/2SM BR OVC004 22/22 A2991 870 97 2000 150/06 RMK AO2
14837KMSN MSN20010825074510208/25/01 07:45:31  5-MIN KMSN 251345Z 16007KT 1 1/2SM BR OVC004 22/22 A2991 870 97 2000 160/07 RMK AO2
14837KMSN MSN20010825075013308/25/01 07:50:31  5-MIN KMSN 251350Z 16006KT 1 1/4SM BR OVC004 22/22 A2991 870 97 2000 160/06 RMK AO2 TWR VIS 1 1/2 SLP124 T02220217
14837KMSN MSN20010825075511608/25/01 07:55:31  5-MIN KMSN 251355Z 16006KT 1 1/4SM BR OVC004 22/22 A2991 880 97 2000 160/06 RMK AO2 TWR VIS 1 1/2
14837KMSN MSN20010825080011608/25/01 08:00:31  5-MIN KMSN 251400Z 16007KT 1 1/4SM BR OVC004 22/22 A2991 880 97 2000 160/07 RMK AO2 TWR VIS 1 1/2
14837KMSN MSN20010825080511608/25/01 08:05:31  5-MIN KMSN 251405Z 16007KT 1 1/4SM BR OVC004 22/22 A2991 880 97 2000 160/07 RMK AO2 TWR VIS 1 1/2
14837KMSN MSN20010825081012308/25/01 08:10:31  5-MIN KMSN 251410Z 17006KT 1 1/4SM BR BKN004 OVC009 22/22 A2991 880 97 2000 170/06 RMK AO2 TWR VIS 1 1/2
14837KMSN MSN20010825081512308/25/01 08:15:31  5-MIN KMSN 251415Z 15007KT 1 1/4SM BR BKN004 OVC009 22/22 A2990 880 97 2000 150/07 RMK AO2 TWR VIS 1 1/2
14837KMSN MSN20010825082012108/25/01 08:20:31  5-MIN KMSN 251420Z 15008KT 1 1/2SM BR BKN006 OVC010 23/22 A2990 880 93 2000 150/08 RMK AO2 CIG 003V008
14837KMSN MSN20010825082512108/25/01 08:25:31  5-MIN KMSN 251425Z 17008KT 1 1/2SM BR BKN006 OVC013 23/22 A2990 880 93 2000 160/08 RMK AO2 CIG 003V008
14837KMSN MSN20010825083013508/25/01 08:30:31  5-MIN KMSN 251430Z 16007KT 1 1/2SM BR BKN006 OVC013 23/22 A2990 880 93 2000 160/07 RMK AO2 SFC VIS 1 3/4 CIG 003V008
14837KMSN MSN20010825083513108/25/01 08:35:31  5-MIN KMSN 251435Z 14006KT 1 1/2SM BR BKN006 OVC010 23/22 A2990 880 93 2000 140/06 RMK AO2 SFC VIS 2 CIG 004V008
14837KMSN MSN20010825084013108/25/01 08:40:31  5-MIN KMSN 251440Z 15006KT 1 1/2SM BR BKN006 OVC014 23/22 A2990 880 90 2100 150/06 RMK AO2 SFC VIS 2 CIG 004V010
14837KMSN MSN20010825084513108/25/01 08:45:31  5-MIN KMSN 251445Z 16007KT 1 1/2SM BR BKN006 OVC014 23/22 A2990 880 93 2100 160/07 RMK AO2 SFC VIS 2 CIG 004V009
14837KMSN MSN20010825085014608/25/01 08:50:31  5-MIN KMSN 251450Z 16008KT 2SM BR BKN006 OVC014 23/22 A2990 880 93 2000 160/08 RMK AO2 CIG 005V009 SLP121 60006 T02280217 55000
14837KMSN MSN20010825085512608/25/01 08:55:31  5-MIN KMSN 251455Z 17008KT 2SM BR SCT006 BKN010 OVC016 23/22 A2990 880 93 2000 170/08 RMK AO2 SFC VIS 2 1/2
14837KMSN MSN20010825090012608/25/01 09:00:31  5-MIN KMSN 251500Z 17008KT 2SM BR SCT006 BKN013 OVC018 23/22 A2991 880 93 2000 170/08 RMK AO2 SFC VIS 2 1/2
14837KMSN MSN20010825090511908/25/01 09:05:31  5-MIN KMSN 251505Z 17009KT 2SM BR SCT009 OVC016 23/22 A2991 870 93 2000 160/09 RMK AO2 SFC VIS 2 1/2
14837KMSN MSN20010825091011908/25/01 09:10:31  5-MIN KMSN 251510Z 17006KT 2SM BR FEW009 OVC016 23/22 A2990 880 93 2000 170/06 RMK AO2 SFC VIS 2 1/2
14837KMSN MSN20010825091512608/25/01 09:15:31  5-MIN KMSN 251515Z 15006KT 2SM BR FEW009 BKN016 OVC023 23/22 A2990 880 93 2000 150/06 RMK AO2 SFC VIS 2 1/2
14837KMSN MSN20010825092014208/25/01 09:20:31  5-MIN KMSN 251520Z 15006KT 2SM -RA BR FEW009 BKN016 OVC027 23/21 A2990 880 90 2000 150/06 RMK AO2 SFC VIS 2 1/2 RAB17 P0000
14837KMSN MSN20010825092514208/25/01 09:25:31  5-MIN KMSN 251525Z 14008KT 2SM -RA BR FEW009 BKN018 BKN025 23/22 A2990 890 93 2000 140/08 RMK AO2 SFC VIS 2 1/2 RAB17 P0000
14837KMSN MSN20010825093013508/25/01 09:30:31  5-MIN KMSN 251530Z 15006KT 2SM -RA BR SCT018 BKN025 23/22 A2990 880 90 2100 150/06 RMK AO2 SFC VIS 2 1/2 RAB17 P0000
14837KMSN MSN20010825093513008/25/01 09:35:31  5-MIN KMSN 251535Z 16006KT 2SM BR FEW008 BKN023 23/22 A2990 880 90 2100 160/06 RMK AO2 SFC VIS 3 RAB17E35 P0000
14837KMSN MSN20010825094013408/25/01 09:40:31  5-MIN KMSN 251540Z 14007KT 2SM BR FEW008 SCT022 24/22 A2990 890 90 2200 140/07 RMK AO2 SFC VIS 2 1/2 RAB17E35 P0000
14837KMSN MSN20010825094512708/25/01 09:45:31  5-MIN KMSN 251545Z 14006KT 2SM BR FEW025 24/22 A2989 890 87 2200 140/06 RMK AO2 SFC VIS 2 1/2 RAB17E35 P0000
14837KMSN MSN20010825095015108/25/01 09:50:31  5-MIN KMSN 251550Z 13008KT 2SM BR FEW008 SCT055 24/22 A2989 890 87 2200 130/08 RMK AO2 SFC VIS 2 1/2 RAB17E35 SLP117 P0000 T02440222
14837KMSN MSN20010825095510808/25/01 09:55:31  5-MIN KMSN 251555Z 12007KT 2SM BR SCT008 24/22 A2989 900 87 2200 120/07 RMK AO2 SFC VIS 3
14837KMSN MSN20010825100010808/25/01 10:00:31  5-MIN KMSN 251600Z 14007KT 2SM BR SCT008 24/22 A2989 890 87 2200 130/07 RMK AO2 SFC VIS 3
14837KMSN MSN20010825100511508/25/01 10:05:31  5-MIN KMSN 251605Z 12007KT 2SM BR SCT010 BKN015 24/22 A2988 900 87 2200 120/07 RMK AO2 SFC VIS 3
14837KMSN MSN20010825101011508/25/01 10:10:31  5-MIN KMSN 251610Z 14007KT 2SM HZ BKN010 BKN016 24/21 A2988 900 84 2200 140/07 RMK AO2 SFC VIS 3
14837KMSN MSN20010825101511508/25/01 10:15:31  5-MIN KMSN 251615Z 12006KT 2SM BR BKN010 BKN017 23/21 A2988 900 87 2100 120/06 RMK AO2 SFC VIS 3
14837KMSN MSN20010825102011508/25/01 10:20:31  5-MIN KMSN 251620Z 14007KT 2SM BR BKN010 BKN017 23/22 A2988 900 90 2100 130/07 RMK AO2 SFC VIS 3
14837KMSN MSN20010825102510808/25/01 10:25:31  5-MIN KMSN 251625Z 12008KT 2SM BR BKN014 23/21 A2988 900 87 2100 120/08 RMK AO2 SFC VIS 3
14837KMSN MSN20010825103012208/25/01 10:30:31  5-MIN KMSN 251630Z 12005KT 2SM BR SCT011 BKN016 OVC028 23/21 A2987 910 87 2100 120/05 RMK AO2 SFC VIS 5
14837KMSN MSN20010825103512208/25/01 10:35:31  5-MIN KMSN 251635Z 13005KT 3SM BR BKN014 BKN023 OVC028 23/21 A2987 910 87 2100 130/05 RMK AO2 SFC VIS 5
14837KMSN MSN20010825104017708/25/01 10:40:31  5-MIN KMSN 251640Z 00000KT 3SM -TSRA BR FEW009 BKN014 OVC028 23/21 A2987 910 87 2100 000/00 RMK AO2 SFC VIS 4 TSB37RAB37 OCNL LTGCGIC VC SW TS SW MOV NE P0002
14837KMSN MSN20010825104517008/25/01 10:45:31  5-MIN KMSN 251645Z 23008KT 2SM -TSRA BR BKN014 OVC023 23/21 A2989 890 90 2000 230/08 RMK AO2 SFC VIS 3 TSB37RAB37 OCNL LTGCGIC VC SW TS SW MOV NE P0009
14837KMSN MSN20010825105019208/25/01 10:50:31  5-MIN KMSN 251650Z 28009G14KT 1/2SM +TSRA FG FEW001 BKN012 OVC023 22/21 A2989 890 93 2000 270/09G14 RMK AO2 TSB37RAB37 SLP118 FRQ LTGCGICCC OHD TS OHD MOV NE P0052 T02220211
14837KMSN MSN20010825105512508/25/01 10:55:31  5-MIN KMSN 251655Z 28013KT 1/2SM TSRA BR FEW001 BKN012 OVC027 22/21 A2989 890 93 1900 280/13 RMK AO2 P0006
14837KMSN MSN20010825110017308/25/01 11:00:31  5-MIN KMSN 251700Z 30006G15KT 1/2SM TSRA BR SCT003 BKN012 OVC018 21/19 A2988 900 93 1800 300/06G15 RMK AO2 SFC VIS 3/4 FRQ LTGICCC OHD TS OHD MOV NE P0022
14837KMSN MSN20010825110516708/25/01 11:05:31  5-MIN KMSN 251705Z 31005KT 1/2SM TSRA BR FEW001 BKN012 OVC020 21/19 A2989 890 93 1800 310/05 RMK AO2 SFC VIS 3/4 FRQ LTGICCC OHD TS OHD MOV NE P0026
14837KMSN MSN20010825111016808/25/01 11:10:31  5-MIN KMSN 251710Z VRB03KT 1/2SM -TSRA BR FEW001 BKN012 OVC038 20/19 A2989 890 97 1700 VRB/03 RMK AO2 SFC VIS 1 FRQ LTGCGICCC OHD TS OHD MOV NE P0036
14837KMSN MSN20010825111517108/25/01 11:15:31  5-MIN KMSN 251715Z 00000KT 1/2SM +TSRA BR FEW001 BKN007 OVC029 19/19 A2988 900 100 1700 000/00 RMK AO2 SFC VIS 3/4 FRQ LTGCGICCC OHD TS OHD MOV NE P0069
14837KMSN MSN20010825112016808/25/01 11:20:31  5-MIN KMSN 251720Z 02004KT 3/4SM +TSRA BR SCT001 BKN007 OVC037 19/19 A2987 910 97 1700 020/04 RMK AO2 TWR VIS 2 FRQ LTGCGICCC OHD TS OHD MOV NE P0086
14837KMSN MSN20010825112516308/25/01 11:25:31  5-MIN KMSN 251725Z 03005KT 2SM -TSRA BR FEW001 BKN012 OVC039 19/19 A2986 920 97 1700 030/05 RMK AO2 PRESFR FRQ LTGCGICCC OHD TS OHD MOV NE P0088
14837KMSN MSN20010825113016408/25/01 11:30:31  5-MIN KMSN 251730Z 06006KT 2SM -TSRA BR FEW001 BKN016 OVC039 19/19 A2985 930 100 1700 060/06 RMK AO2 PRESFR FRQ LTGCGICCC OHD TS OHD MOV NE P0091
14837KMSN MSN20010825113515708/25/01 11:35:31  5-MIN KMSN 251735Z 09007KT 2SM -TSRA BR FEW001 BKN016 OVC036 20/19 A2986 920 97 1800 080/07 RMK AO2 OCNL LTGCGICCC OHD TS OHD MOV NE P0092
14837KMSN MSN20010825114015708/25/01 11:40:31  5-MIN KMSN 251740Z 11007KT 6SM -TSRA BR FEW001 BKN014 BKN037 20/19 A2987 910 97 1700 110/07 RMK AO2 OCNL LTGCGICCC OHD TS OHD MOV NE P0092
14837KMSN MSN20010825114515608/25/01 11:45:31  5-MIN KMSN 251745Z 09006KT 8SM -TSRA FEW001 SCT019 BKN037 20/19 A2986 920 97 1800 080/06 RMK AO2 OCNL LTGCGICCC OHD TS OHD MOV NE P0092 $
14837KMSN MSN20010825115020308/25/01 11:50:31  5-MIN KMSN 251750Z 08005KT 10SM -RA SCT018 SCT039 BKN055 20/19 A2986 920 97 1800 080/05 RMK AO2 TSE49 SLP107 OCNL LTGICCC DSNT NE TS NE MOV NE P0092 60154 T02000194 10244 20194 56010 $
14837KMSN MSN20010825115512108/25/01 11:55:31  5-MIN KMSN 251755Z 07003KT 8SM -RA FEW014 SCT029 BKN055 20/19 A2986 920 97 1800 070/03 RMK AO2 P0001 $
14837KMSN MSN20010825120013508/25/01 12:00:31  5-MIN KMSN 251800Z 08004KT 2 1/2SM -RA FEW014 BKN029 OVC055 21/19 A2985 930 93 1800 080/04 RMK AO2 SFC VIS 3 P0002 $
14837KMSN MSN20010825120513608/25/01 12:05:31  5-MIN KMSN 251805Z 10003KT 2 1/2SM -RA FEW014 BKN031 BKN055 21/20 A2985 930 97 1800 100/03 RMK AO2 SFC VIS 10 P0003 $
14837KMSN MSN20010825121012208/25/01 12:10:31  5-MIN KMSN 251810Z 13004KT 10SM -RA FEW016 BKN033 BKN055 21/20 A2985 930 97 1800 120/04 RMK AO2 P0003 $
14837KMSN MSN20010825121512208/25/01 12:15:31  5-MIN KMSN 251815Z 12007KT 10SM -RA FEW012 SCT033 BKN065 21/20 A2985 930 93 1900 120/07 RMK AO2 P0003 $
14837KMSN MSN20010825122012208/25/01 12:20:31  5-MIN KMSN 251820Z 11005KT 10SM -RA FEW017 SCT033 BKN065 21/20 A2985 930 93 1900 110/05 RMK AO2 P0003 $
14837KMSN MSN20010825122512208/25/01 12:25:31  5-MIN KMSN 251825Z 00000KT 10SM -RA FEW030 BKN065 BKN090 21/20 A2985 930 93 1900 000/00 RMK AO2 P0003 $
14837KMSN MSN20010825123012208/25/01 12:30:31  5-MIN KMSN 251830Z 00000KT 10SM -RA FEW032 BKN060 BKN085 21/20 A2985 930 93 1900 000/00 RMK AO2 P0003 $
14837KMSN MSN20010825123512208/25/01 12:35:31  5-MIN KMSN 251835Z 00000KT 10SM -RA FEW039 BKN065 BKN090 22/21 A2985 930 93 2000 000/00 RMK AO2 P0003 $
14837KMSN MSN20010825124012208/25/01 12:40:31  5-MIN KMSN 251840Z 00000KT 10SM -RA SCT017 SCT040 BKN065 22/20 A2985 930 90 2000 000/00 RMK AO2 P0003 $
14837KMSN MSN20010825124512208/25/01 12:45:31  5-MIN KMSN 251845Z 00000KT 10SM -RA BKN017 BKN060 BKN085 22/21 A2984 930 93 2000 000/00 RMK AO2 P0003 $
14837KMSN MSN20010825125014108/25/01 12:50:31  5-MIN KMSN 251850Z 00000KT 10SM SCT008 BKN017 OVC085 21/21 A2984 940 97 1900 000/00 RMK AO2 RAE46 SLP101 P0003 T02110206 $
14837KMSN MSN20010825125512208/25/01 12:55:31  5-MIN KMSN 251855Z 00000KT 10SM -RA BKN008 BKN015 BKN060 21/20 A2984 940 93 1900 000/00 RMK AO2 P0000 $
14837KMSN MSN20010825130011508/25/01 13:00:31  5-MIN KMSN 251900Z 09003KT 10SM -RA BKN008 OVC016 22/21 A2983 940 93 2000 090/03 RMK AO2 P0001 $
14837KMSN MSN20010825130511508/25/01 13:05:31  5-MIN KMSN 251905Z 08004KT 10SM -RA SCT007 OVC012 22/21 A2983 950 93 2000 080/04 RMK AO2 P0002 $
14837KMSN MSN20010825131012208/25/01 13:10:31  5-MIN KMSN 251910Z 11004KT 5SM -RA BR OVC009 22/21 A2983 950 93 2000 110/04 RMK AO2 CIG 007V012 P0002 $
14837KMSN MSN20010825131511908/25/01 13:15:31  5-MIN KMSN 251915Z 12004KT 8SM -RA OVC009 22/21 A2983 950 93 2000 120/04 RMK AO2 CIG 007V012 P0002 $
14837KMSN MSN20010825132012008/25/01 13:20:31  5-MIN KMSN 251920Z 15004KT 10SM -RA OVC009 22/21 A2983 950 93 2000 150/04 RMK AO2 CIG 007V012 P0002 $
14837KMSN MSN20010825132512008/25/01 13:25:31  5-MIN KMSN 251925Z VRB03KT 10SM -RA OVC009 22/21 A2983 950 93 2000 VRB/03 RMK AO2 CIG 006V012 P0002 $
14837KMSN MSN20010825133012208/25/01 13:30:31  5-MIN KMSN 251930Z VRB03KT 5SM -RA BR OVC009 22/21 A2983 950 97 2000 VRB/03 RMK AO2 CIG 005V012 P0003 $
14837KMSN MSN20010825133512908/25/01 13:35:31  5-MIN KMSN 251935Z 00000KT 4SM -RA BR BKN006 OVC011 22/21 A2983 950 97 2000 000/00 RMK AO2 CIG 005V009 P0004 $
14837KMSN MSN20010825134012208/25/01 13:40:31  5-MIN KMSN 251940Z 00000KT 4SM -RA BR OVC006 22/21 A2982 960 97 2000 000/00 RMK AO2 CIG 005V011 P0004 $
14837KMSN MSN20010825134512208/25/01 13:45:31  5-MIN KMSN 251945Z 00000KT 4SM -RA BR OVC006 22/21 A2982 960 97 2000 000/00 RMK AO2 CIG 005V009 P0004 $
14837KMSN MSN20010825135013908/25/01 13:50:31  5-MIN KMSN 251950Z 26003KT 4SM -RA BR OVC006 22/21 A2982 960 97 2000 250/03 RMK AO2 CIG 004V009 SLP094 P0004 T02170211 $
14837KMSN MSN20010825135512208/25/01 13:55:31  5-MIN KMSN 251955Z 26003KT 4SM -RA BR OVC006 22/21 A2982 950 97 2000 260/03 RMK AO2 CIG 004V009 P0000 $
14837KMSN MSN20010825140011008/25/01 14:00:31  5-MIN KMSN 252000Z VRB03KT 4SM -RA BR OVC004 22/21 A2983 950 97 2000 VRB/03 RMK AO2 P0001 $
14837KMSN MSN20010825140512108/25/01 14:05:31  5-MIN KMSN 252005Z VRB03KT 4SM RA BR OVC004 22/21 A2983 950 97 2000 VRB/03 RMK AO2 CIG 004V009 P0003 $
14837KMSN MSN20010825141012208/25/01 14:10:31  5-MIN KMSN 252010Z 00000KT 4SM -RA BR OVC004 22/21 A2983 950 93 2000 000/00 RMK AO2 CIG 004V008 P0004 $
14837KMSN MSN20010825141512208/25/01 14:15:31  5-MIN KMSN 252015Z VRB03KT 4SM -RA BR OVC004 22/21 A2983 950 93 2000 VRB/03 RMK AO2 CIG 003V008 P0005 $
14837KMSN MSN20010825142011708/25/01 14:20:31  5-MIN KMSN 252020Z 00000KT 4SM -RA BR BKN004 OVC009 22/21 A2983 950 93 2000 000/00 RMK AO2 P0005 $
14837KMSN MSN20010825142512908/25/01 14:25:31  5-MIN KMSN 252025Z 00000KT 4SM -RA BR BKN006 OVC009 22/21 A2983 950 93 2000 000/00 RMK AO2 CIG 003V007 P0005 $
14837KMSN MSN20010825143011908/25/01 14:30:31  5-MIN KMSN 252030Z 00000KT 4SM BR BKN006 OVC009 22/21 A2983 950 93 2000 000/00 RMK AO2 RAE26 P0005 $
14837KMSN MSN20010825143511908/25/01 14:35:31  5-MIN KMSN 252035Z 22003KT 4SM BR BKN006 OVC009 22/21 A2983 950 93 2000 220/03 RMK AO2 RAE26 P0005 $
14837KMSN MSN20010825144012408/25/01 14:40:31  5-MIN KMSN 252040Z 22005KT 4SM -RA BR BKN006 BKN009 OVC080 22/21 A2983 950 93 2000 210/05 RMK AO2 P0005 $
14837KMSN MSN20010825144512908/25/01 14:45:31  5-MIN KMSN 252045Z 23004KT 4SM -RA BR BKN006 OVC080 22/21 A2982 950 93 2000 220/04 RMK AO2 CIG 005V011 P0005 $
14837KMSN MSN20010825145014608/25/01 14:50:31  5-MIN KMSN 252050Z 24003KT 4SM -RA BR SCT006 OVC080 22/21 A2982 950 93 2000 230/03 RMK AO2 SLP095 P0005 60013 T02170206 58015 $
14837KMSN MSN20010825145512208/25/01 14:55:31  5-MIN KMSN 252055Z 00000KT 10SM -RA FEW006 SCT009 OVC080 22/21 A2982 960 93 2000 000/00 RMK AO2 P0000 $
14837KMSN MSN20010825150011708/25/01 15:00:31  5-MIN KMSN 252100Z 22003KT 4SM -RA BR SCT007 OVC080 22/21 A2982 960 93 2000 220/03 RMK AO2 P0000 $
14837KMSN MSN20010825150511708/25/01 15:05:31  5-MIN KMSN 252105Z 22003KT 4SM -RA BR SCT007 OVC080 22/21 A2982 960 93 2000 220/03 RMK AO2 P0000 $
14837KMSN MSN20010825151011708/25/01 15:10:31  5-MIN KMSN 252110Z 23003KT 4SM -RA BR SCT007 OVC080 21/20 A2982 960 93 1900 230/03 RMK AO2 P0000 $
14837KMSN MSN20010825151511908/25/01 15:15:31  5-MIN KMSN 252115Z 00000KT 5SM BR FEW007 OVC080 21/21 A2982 960 97 1900 000/00 RMK AO2 RAE15 P0000 $
14837KMSN MSN20010825152011908/25/01 15:20:31  5-MIN KMSN 252120Z 00000KT 5SM BR FEW007 OVC080 22/21 A2982 960 93 2000 000/00 RMK AO2 RAE15 P0000 $
14837KMSN MSN20010825152511908/25/01 15:25:31  5-MIN KMSN 252125Z 22003KT 5SM BR FEW007 OVC080 22/20 A2982 960 90 2000 220/03 RMK AO2 RAE15 P0000 $
14837KMSN MSN20010825153011908/25/01 15:30:31  5-MIN KMSN 252130Z 23003KT 5SM BR FEW007 OVC080 22/20 A2982 960 90 2000 230/03 RMK AO2 RAE15 P0000 $
14837KMSN MSN20010825153511708/25/01 15:35:31  5-MIN KMSN 252135Z 00000KT 10SM FEW007 OVC080 22/20 A2982 960 90 2000 000/00 RMK AO2 RAE15 P0000 $
14837KMSN MSN20010825154011008/25/01 15:40:31  5-MIN KMSN 252140Z 00000KT 10SM OVC080 22/20 A2981 960 90 2000 000/00 RMK AO2 RAE15 P0000 $
14837KMSN MSN20010825154511008/25/01 15:45:31  5-MIN KMSN 252145Z 00000KT 10SM BKN075 22/20 A2981 960 90 2000 000/00 RMK AO2 RAE15 P0000 $
14837KMSN MSN20010825155012708/25/01 15:50:31  5-MIN KMSN 252150Z 00000KT 10SM BKN075 22/20 A2981 960 90 2000 000/00 RMK AO2 RAE15 SLP091 P0000 T02170200 $
14837KMSN MSN20010825155509808/25/01 15:55:31  5-MIN KMSN 252155Z 00000KT 10SM BKN075 22/20 A2981 960 90 2000 000/00 RMK AO2 $
14837KMSN MSN20010825160009808/25/01 16:00:31  5-MIN KMSN 252200Z 00000KT 10SM BKN075 22/21 A2981 960 93 2000 000/00 RMK AO2 $
14837KMSN MSN20010825160509808/25/01 16:05:31  5-MIN KMSN 252205Z 00000KT 10SM BKN075 22/21 A2981 960 93 2000 000/00 RMK AO2 $
14837KMSN MSN20010825161009808/25/01 16:10:31  5-MIN KMSN 252210Z 00000KT 10SM BKN075 22/20 A2981 960 87 2100 000/00 RMK AO2 $
14837KMSN MSN20010825161509808/25/01 16:15:31  5-MIN KMSN 252215Z 00000KT 10SM BKN075 22/20 A2981 960 87 2100 000/00 RMK AO2 $
14837KMSN MSN20010825162009808/25/01 16:20:31  5-MIN KMSN 252220Z 00000KT 10SM BKN075 22/21 A2981 970 90 2100 000/00 RMK AO2 $
14837KMSN MSN20010825162509808/25/01 16:25:31  5-MIN KMSN 252225Z 00000KT 10SM BKN075 22/20 A2981 970 87 2100 000/00 RMK AO2 $
14837KMSN MSN20010825163009808/25/01 16:30:31  5-MIN KMSN 252230Z 00000KT 10SM BKN075 22/21 A2981 970 90 2100 000/00 RMK AO2 $
14837KMSN MSN20010825163509808/25/01 16:35:31  5-MIN KMSN 252235Z 00000KT 10SM BKN075 22/21 A2981 960 90 2100 000/00 RMK AO2 $
14837KMSN MSN20010825164009808/25/01 16:40:31  5-MIN KMSN 252240Z 00000KT 10SM BKN075 22/21 A2981 960 90 2100 000/00 RMK AO2 $
14837KMSN MSN20010825164509808/25/01 16:45:31  5-MIN KMSN 252245Z 00000KT 10SM BKN075 22/21 A2981 960 90 2100 000/00 RMK AO2 $
14837KMSN MSN20010825165011508/25/01 16:50:31  5-MIN KMSN 252250Z 23003KT 10SM BKN075 22/21 A2982 960 90 2100 220/03 RMK AO2 SLP092 T02220206 $
14837KMSN MSN20010825165509808/25/01 16:55:31  5-MIN KMSN 252255Z 00000KT 10SM OVC075 22/21 A2982 960 90 2100 000/00 RMK AO2 $
14837KMSN MSN20010825170010508/25/01 17:00:31  5-MIN KMSN 252300Z 00000KT 10SM FEW040 OVC075 22/21 A2982 960 90 2100 000/00 RMK AO2 $
14837KMSN MSN20010825170510508/25/01 17:05:31  5-MIN KMSN 252305Z 00000KT 10SM FEW040 OVC075 22/21 A2981 960 90 2100 000/00 RMK AO2 $
14837KMSN MSN20010825171010508/25/01 17:10:31  5-MIN KMSN 252310Z 23003KT 10SM FEW025 OVC075 22/21 A2981 960 90 2100 230/03 RMK AO2 $
14837KMSN MSN20010825171510508/25/01 17:15:31  5-MIN KMSN 252315Z 25003KT 10SM FEW025 OVC075 22/21 A2982 960 90 2100 240/03 RMK AO2 $
14837KMSN MSN20010825172010508/25/01 17:20:31  5-MIN KMSN 252320Z 00000KT 10SM FEW025 OVC075 22/21 A2981 960 90 2100 000/00 RMK AO2 $
14837KMSN MSN20010825172511208/25/01 17:25:31  5-MIN KMSN 252325Z 00000KT 10SM FEW025 BKN075 BKN110 22/21 A2982 960 90 2100 000/00 RMK AO2 $
14837KMSN MSN20010825173011208/25/01 17:30:31  5-MIN KMSN 252330Z 30003KT 10SM FEW025 BKN075 BKN110 22/21 A2982 960 93 2000 300/03 RMK AO2 $
14837KMSN MSN20010825173511208/25/01 17:35:31  5-MIN KMSN 252335Z 00000KT 10SM FEW025 BKN075 BKN110 22/21 A2982 960 93 2000 000/00 RMK AO2 $
14837KMSN MSN20010825174011208/25/01 17:40:31  5-MIN KMSN 252340Z 00000KT 10SM FEW025 BKN075 BKN110 22/21 A2982 960 93 2000 000/00 RMK AO2 $
14837KMSN MSN20010825174510508/25/01 17:45:31  5-MIN KMSN 252345Z 00000KT 10SM BKN075 BKN110 22/21 A2982 960 93 2000 000/00 RMK AO2 $
14837KMSN MSN20010825175015308/25/01 17:50:31  5-MIN KMSN 252350Z 00000KT 10SM SCT015 BKN075 BKN110 22/21 A2982 960 93 2000 000/00 RMK AO2 SLP093 60013 T02170206 10222 20200 56011 $
14837KMSN MSN20010825175511208/25/01 17:55:31  5-MIN KMSN 252355Z 00000KT 10SM SCT015 BKN070 BKN110 22/21 A2982 960 93 2000 000/00 RMK AO2 $
14837KMSN MSN20010825180011208/25/01 18:00:31  5-MIN KMSN 260000Z 00000KT 10SM SCT015 BKN070 BKN110 22/21 A2982 960 97 2000 000/00 RMK AO2 $
14837KMSN MSN20010825180511208/25/01 18:05:31  5-MIN KMSN 260005Z 00000KT 10SM FEW015 BKN070 BKN110 22/21 A2982 960 97 2000 000/00 RMK AO2 $
14837KMSN MSN20010825181011208/25/01 18:10:31  5-MIN KMSN 260010Z 00000KT 10SM FEW015 BKN070 BKN110 22/21 A2982 960 93 2000 000/00 RMK AO2 $
14837KMSN MSN20010825181511208/25/01 18:15:31  5-MIN KMSN 260015Z 00000KT 10SM FEW015 BKN070 BKN110 22/21 A2982 960 93 2000 000/00 RMK AO2 $
14837KMSN MSN20010825182011208/25/01 18:20:31  5-MIN KMSN 260020Z 00000KT 10SM FEW015 BKN070 BKN110 22/21 A2982 950 93 2000 000/00 RMK AO2 $
14837KMSN MSN20010825182511208/25/01 18:25:31  5-MIN KMSN 260025Z 00000KT 10SM FEW015 BKN070 BKN110 22/21 A2983 950 97 2000 000/00 RMK AO2 $
14837KMSN MSN20010825183010508/25/01 18:30:31  5-MIN KMSN 260030Z 00000KT 10SM SCT050 OVC070 22/21 A2983 950 97 2000 000/00 RMK AO2 $
14837KMSN MSN20010825183510508/25/01 18:35:31  5-MIN KMSN 260035Z 00000KT 10SM FEW050 OVC070 22/21 A2983 950 97 2000 000/00 RMK AO2 $
14837KMSN MSN20010825184011208/25/01 18:40:31  5-MIN KMSN 260040Z 00000KT 10SM FEW025 BKN050 BKN070 22/21 A2983 950 97 2000 000/00 RMK AO2 $
14837KMSN MSN20010825184511208/25/01 18:45:31  5-MIN KMSN 260045Z 00000KT 10SM FEW025 BKN050 BKN070 22/21 A2983 950 93 2000 000/00 RMK AO2 $
14837KMSN MSN20010825185012808/25/01 18:50:31  5-MIN KMSN 260050Z 00000KT 7SM FEW025 BKN050 BKN070 22/21 A2983 950 93 2000 000/00 RMK AO2 SLP095 T02170206 $
14837KMSN MSN20010825185511108/25/01 18:55:31  5-MIN KMSN 260055Z 00000KT 7SM FEW034 SCT050 OVC075 22/21 A2983 950 93 2000 000/00 RMK AO2 $
14837KMSN MSN20010825190010408/25/01 19:00:31  5-MIN KMSN 260100Z 00000KT 7SM SCT034 OVC075 22/21 A2983 950 93 2000 000/00 RMK AO2 $
14837KMSN MSN20010825190511108/25/01 19:05:31  5-MIN KMSN 260105Z VRB03KT 7SM FEW022 BKN034 OVC075 22/21 A2983 950 93 2000 VRB/03 RMK AO2 $
14837KMSN MSN20010825191011108/25/01 19:10:31  5-MIN KMSN 260110Z 00000KT 7SM FEW022 BKN032 OVC075 22/21 A2983 950 93 2000 000/00 RMK AO2 $
14837KMSN MSN20010825191511108/25/01 19:15:31  5-MIN KMSN 260115Z VRB03KT 7SM FEW022 BKN030 OVC075 22/21 A2983 950 93 2000 VRB/03 RMK AO2 $
14837KMSN MSN20010825192011108/25/01 19:20:31  5-MIN KMSN 260120Z VRB03KT 7SM FEW022 BKN030 OVC035 22/21 A2984 940 93 2000 VRB/03 RMK AO2 $
14837KMSN MSN20010825192511108/25/01 19:25:31  5-MIN KMSN 260125Z VRB04KT 7SM FEW022 BKN030 OVC039 22/21 A2984 940 93 2000 VRB/04 RMK AO2 $
14837KMSN MSN20010825193013008/25/01 19:30:31  5-MIN KMSN 260130Z VRB03KT 5SM -RA BR FEW022 BKN030 OVC039 22/21 A2984 940 93 2000 VRB/03 RMK AO2 RAB26 P0000 $
14837KMSN MSN20010825193512308/25/01 19:35:31  5-MIN KMSN 260135Z 28003KT 4SM -RA BR FEW022 OVC030 22/21 A2984 930 93 2000 280/03 RMK AO2 RAB26 P0000 $
14837KMSN MSN20010825194012308/25/01 19:40:31  5-MIN KMSN 260140Z 26004KT 4SM -RA BR FEW024 OVC030 22/21 A2985 930 93 2000 260/04 RMK AO2 RAB26 P0001 $
14837KMSN MSN20010825194513008/25/01 19:45:31  5-MIN KMSN 260145Z 27004KT 4SM -RA BR FEW022 BKN028 OVC033 21/21 A2985 930 97 1900 270/04 RMK AO2 RAB26 P0002 $
14837KMSN MSN20010825195014608/25/01 19:50:31  5-MIN KMSN 260150Z VRB03KT 4SM RA BR FEW018 BKN028 OVC036 21/21 A2985 930 97 1900 VRB/03 RMK AO2 RAB26 SLP104 P0003 T02110206 $
14837KMSN MSN20010825195512408/25/01 19:55:31  5-MIN KMSN 260155Z 30004KT 4SM -RA BR SCT018 BKN028 OVC043 21/21 A2986 920 97 1900 300/04 RMK AO2 P0002 $
14837KMSN MSN20010825200012408/25/01 20:00:31  5-MIN KMSN 260200Z 27006KT 2SM +RA BR FEW010 SCT017 OVC028 21/20 A2985 920 93 1900 270/06 RMK AO2 P0015 $
14837KMSN MSN20010825200512408/25/01 20:05:31  5-MIN KMSN 260205Z 30004KT 2SM +RA BR SCT008 BKN017 OVC028 21/20 A2985 930 93 1900 300/04 RMK AO2 P0020 $
14837KMSN MSN20010825201012408/25/01 20:10:31  5-MIN KMSN 260210Z 34006KT 2SM +RA BR SCT008 BKN017 OVC026 21/20 A2986 920 93 1900 330/06 RMK AO2 P0026 $
14837KMSN MSN20010825201512408/25/01 20:15:31  5-MIN KMSN 260215Z 35008KT 2SM +RA BR SCT006 BKN012 OVC026 21/21 A2986 920 97 1900 340/08 RMK AO2 P0031 $
14837KMSN MSN20010825202012408/25/01 20:20:31  5-MIN KMSN 260220Z 35006KT 2SM +RA BR FEW004 BKN010 OVC017 21/21 A2986 920 97 1900 350/06 RMK AO2 P0035 $
14837KMSN MSN20010825202512408/25/01 20:25:31  5-MIN KMSN 260225Z 34005KT 2SM +RA BR FEW004 BKN010 OVC022 21/20 A2986 920 97 1800 340/05 RMK AO2 P0038 $
14837KMSN MSN20010825203012708/25/01 20:30:31  5-MIN KMSN 260230Z 35007KT 2 1/2SM RA BR FEW008 BKN014 OVC060 21/20 A2986 920 97 1800 350/07 RMK AO2 P0039 $
14837KMSN MSN20010825203512408/25/01 20:35:31  5-MIN KMSN 260235Z 34005KT 3SM -RA BR FEW008 BKN025 OVC047 21/20 A2987 920 97 1800 340/05 RMK AO2 P0040 $
14837KMSN MSN20010825204012408/25/01 20:40:31  5-MIN KMSN 260240Z 34006KT 3SM -RA BR FEW005 BKN025 OVC047 21/20 A2987 910 97 1800 340/06 RMK AO2 P0040 $
14837KMSN MSN20010825204511708/25/01 20:45:31  5-MIN KMSN 260245Z 33005KT 3SM -RA BR FEW007 BKN023 21/20 A2987 910 97 1800 330/05 RMK AO2 P0041 $
14837KMSN MSN20010825205014608/25/01 20:50:31  5-MIN KMSN 260250Z 34008KT 3SM -RA BR SCT009 BKN023 21/20 A2987 910 97 1800 330/08 RMK AO2 SLP109 P0041 60044 T02060200 55001 $
14837KMSN MSN20010825205512408/25/01 20:55:31  5-MIN KMSN 260255Z 34007KT 3SM -RA BR BKN007 BKN020 OVC029 21/20 A2987 910 97 1800 340/07 RMK AO2 P0000 $
14837KMSN MSN20010825210012408/25/01 21:00:31  5-MIN KMSN 260300Z 34007KT 3SM -RA BR BKN007 BKN020 OVC029 21/20 A2987 910 97 1800 340/07 RMK AO2 P0001 $
14837KMSN MSN20010825210512408/25/01 21:05:31  5-MIN KMSN 260305Z 35006KT 3SM -RA BR BKN007 BKN020 OVC029 21/20 A2987 910 97 1800 350/06 RMK AO2 P0001 $
14837KMSN MSN20010825211012108/25/01 21:10:31  5-MIN KMSN 260310Z 34006KT 3SM -RA BKN007 BKN020 OVC029 21/20 A2986 920 97 1800 340/06 RMK AO2 P0001 $
14837KMSN MSN20010825211512408/25/01 21:15:31  5-MIN KMSN 260315Z 34005KT 10SM FEW007 BKN012 BKN029 21/20 A2987 920 97 1800 340/05 RMK AO2 RAE14 P0001 $
14837KMSN MSN20010825212012408/25/01 21:20:31  5-MIN KMSN 260320Z 34006KT 10SM FEW007 BKN012 BKN029 21/20 A2987 910 97 1800 340/06 RMK AO2 RAE14 P0001 $
14837KMSN MSN20010825212512408/25/01 21:25:31  5-MIN KMSN 260325Z 33006KT 10SM SCT011 BKN016 OVC070 21/20 A2987 910 97 1800 330/06 RMK AO2 RAE14 P0001 $
14837KMSN MSN20010825213012408/25/01 21:30:31  5-MIN KMSN 260330Z 33007KT 10SM SCT011 BKN017 OVC075 21/20 A2987 910 97 1800 330/07 RMK AO2 RAE14 P0001 $
14837KMSN MSN20010825213512408/25/01 21:35:31  5-MIN KMSN 260335Z 33007KT 10SM SCT015 BKN020 OVC120 21/19 A2987 910 93 1800 330/07 RMK AO2 RAE14 P0001 $
14837KMSN MSN20010825214012408/25/01 21:40:31  5-MIN KMSN 260340Z 33006KT 10SM BKN012 BKN020 OVC120 21/19 A2987 910 93 1800 330/06 RMK AO2 RAE14 P0001 $
14837KMSN MSN20010825214512408/25/01 21:45:31  5-MIN KMSN 260345Z 33007KT 10SM SCT012 BKN020 OVC120 21/19 A2987 910 93 1800 330/07 RMK AO2 RAE14 P0001 $
14837KMSN MSN20010825215014108/25/01 21:50:31  5-MIN KMSN 260350Z 32006KT 10SM BKN014 BKN020 BKN120 21/19 A2987 910 93 1800 320/06 RMK AO2 RAE14 SLP109 P0001 T02060194 $
14837KMSN MSN20010825215511208/25/01 21:55:31  5-MIN KMSN 260355Z 33006KT 10SM BKN012 BKN020 BKN120 21/19 A2987 910 93 1800 330/06 RMK AO2 $
14837KMSN MSN20010825220011208/25/01 22:00:31  5-MIN KMSN 260400Z 33007KT 10SM BKN012 BKN016 OVC120 21/19 A2987 910 93 1800 330/07 RMK AO2 $
14837KMSN MSN20010825220509808/25/01 22:05:31  5-MIN KMSN 260405Z 33008KT 10SM OVC012 21/19 A2987 910 93 1800 330/08 RMK AO2 $
14837KMSN MSN20010825221009808/25/01 22:10:31  5-MIN KMSN 260410Z 33006KT 10SM OVC012 21/19 A2987 910 93 1800 330/06 RMK AO2 $
14837KMSN MSN20010825221510508/25/01 22:15:31  5-MIN KMSN 260415Z 32007KT 10SM FEW009 OVC014 21/19 A2987 910 93 1800 320/07 RMK AO2 $
14837KMSN MSN20010825222011208/25/01 22:20:31  5-MIN KMSN 260420Z 32007KT 10SM SCT009 BKN014 BKN020 20/19 A2988 910 97 1700 320/07 RMK AO2 $
14837KMSN MSN20010825222511208/25/01 22:25:31  5-MIN KMSN 260425Z 33007KT 10SM SCT009 BKN014 BKN020 20/19 A2988 900 97 1700 330/07 RMK AO2 $
14837KMSN MSN20010825223012808/25/01 22:30:31  5-MIN KMSN 260430Z 33008KT 300V010 10SM SCT009 BKN014 BKN020 20/19 A2988 900 93 1700 330/08 300V010 RMK AO2 $
14837KMSN MSN20010825223511208/25/01 22:35:31  5-MIN KMSN 260435Z 33008KT 10SM SCT009 BKN014 BKN020 20/19 A2988 900 93 1700 330/08 RMK AO2 $
14837KMSN MSN20010825224011208/25/01 22:40:31  5-MIN KMSN 260440Z 33009KT 10SM SCT009 BKN014 BKN020 20/19 A2988 900 93 1700 330/09 RMK AO2 $
14837KMSN MSN20010825224511208/25/01 22:45:31  5-MIN KMSN 260445Z 34009KT 10SM SCT009 BKN014 BKN020 20/19 A2988 900 93 1700 330/09 RMK AO2 $
14837KMSN MSN20010825225012208/25/01 22:50:31  5-MIN KMSN 260450Z 34007KT 10SM FEW009 BKN014 19/18 A2988 900 93 1700 340/07 RMK AO2 SLP114 T01940183 $
14837KMSN MSN20010825225510508/25/01 22:55:31  5-MIN KMSN 260455Z 34005KT 10SM FEW009 BKN014 19/18 A2988 900 93 1700 340/05 RMK AO2 $
14837KMSN MSN20010825230010508/25/01 23:00:31  5-MIN KMSN 260500Z 34006KT 10SM FEW009 BKN014 19/18 A2988 900 93 1700 340/06 RMK AO2 $
14837KMSN MSN20010825230510508/25/01 23:05:31  5-MIN KMSN 260505Z 32006KT 10SM FEW009 BKN014 19/18 A2989 900 93 1700 320/06 RMK AO2 $
14837KMSN MSN20010825231010508/25/01 23:10:31  5-MIN KMSN 260510Z 33006KT 10SM FEW009 BKN014 19/18 A2989 900 93 1600 330/06 RMK AO2 $
14837KMSN MSN20010825231510508/25/01 23:15:31  5-MIN KMSN 260515Z 33005KT 10SM FEW009 BKN014 19/18 A2989 900 93 1600 330/05 RMK AO2 $
14837KMSN MSN20010825232010508/25/01 23:20:31  5-MIN KMSN 260520Z 33005KT 10SM FEW009 BKN014 19/18 A2989 900 93 1600 320/05 RMK AO2 $
14837KMSN MSN20010825232510508/25/01 23:25:31  5-MIN KMSN 260525Z 32005KT 10SM FEW009 BKN014 19/18 A2989 900 93 1600 320/05 RMK AO2 $
14837KMSN MSN20010825233009808/25/01 23:30:31  5-MIN KMSN 260530Z 31003KT 10SM FEW014 19/18 A2989 890 93 1600 310/03 RMK AO2 $
14837KMSN MSN20010825233509808/25/01 23:35:31  5-MIN KMSN 260535Z 31004KT 10SM FEW014 18/18 A2989 890 96 1500 310/04 RMK AO2 $
14837KMSN MSN20010825234009808/25/01 23:40:31  5-MIN KMSN 260540Z 31004KT 10SM FEW014 18/18 A2989 890 96 1500 310/04 RMK AO2 $
14837KMSN MSN20010825234509708/25/01 23:45:31  5-MIN KMSN 260545Z 31004KT 9SM FEW014 18/18 A2989 890 96 1500 310/04 RMK AO2 $
14837KMSN MSN20010825235014808/25/01 23:50:31  5-MIN KMSN 260550Z 32004KT 8SM FEW014 18/18 A2989 890 96 1500 320/04 RMK AO2 SLP118 60045 T01830178 10217 20183 402440183 53016 $
14837KMSN MSN20010825235509408/25/01 23:55:31  5-MIN KMSN 260555Z 31004KT 8SM CLR 18/18 A2989 890 96 1500 310/04 RMK AO2 $
14837KMSN MSN20010826000009408/26/01 00:00:31  5-MIN KMSN 260600Z 31004KT 8SM CLR 18/17 A2989 890 93 1500 310/04 RMK AO2 $
14837KMSN MSN20010826000509408/26/01 00:05:31  5-MIN KMSN 260605Z 31004KT 7SM CLR 18/18 A2989 890 96 1500 310/04 RMK AO2 $
14837KMSN MSN20010826001009408/26/01 00:10:31  5-MIN KMSN 260610Z 31003KT 7SM CLR 18/17 A2989 890 93 1500 300/03 RMK AO2 $
14837KMSN MSN20010826001509408/26/01 00:15:31  5-MIN KMSN 260615Z 31003KT 7SM CLR 18/17 A2990 890 93 1500 310/03 RMK AO2 $
14837KMSN MSN20010826002009408/26/01 00:20:31  5-MIN KMSN 260620Z 31003KT 7SM CLR 18/17 A2989 890 93 1500 310/03 RMK AO2 $
14837KMSN MSN20010826002509408/26/01 00:25:31  5-MIN KMSN 260625Z 00000KT 7SM CLR 18/17 A2989 890 93 1500 000/00 RMK AO2 $
14837KMSN MSN20010826003009408/26/01 00:30:31  5-MIN KMSN 260630Z 29003KT 7SM CLR 18/17 A2990 890 96 1500 290/03 RMK AO2 $
14837KMSN MSN20010826003509408/26/01 00:35:31  5-MIN KMSN 260635Z VRB03KT 7SM CLR 18/17 A2990 880 96 1500 VRB/03 RMK AO2 $
14837KMSN MSN20010826004009408/26/01 00:40:31  5-MIN KMSN 260640Z 00000KT 7SM CLR 18/17 A2990 880 93 1500 000/00 RMK AO2 $
14837KMSN MSN20010826004509708/26/01 00:45:31  5-MIN KMSN 260645Z 00000KT 6SM BR CLR 18/17 A2990 890 96 1500 000/00 RMK AO2 $
14837KMSN MSN20010826005011208/26/01 00:50:31  5-MIN KMSN 260650Z 00000KT 9SM CLR 17/17 A2990 890 100 1400 000/00 RMK AO2 SLP120 T01720172 $
14837KMSN MSN20010826005509708/26/01 00:55:31  5-MIN KMSN 260655Z 00000KT 3SM BR CLR 17/17 A2990 890 96 1400 000/00 RMK AO2 $
14837KMSN MSN20010826010009808/26/01 01:00:31  5-MIN KMSN 260700Z 00000KT 4SM BR CLR 17/17 A2990 880 100 1400 000/00 RMK AO2 $
14837KMSN MSN20010826010509708/26/01 01:05:31  5-MIN KMSN 260705Z 00000KT 6SM BR CLR 18/17 A2990 890 96 1500 000/00 RMK AO2 $
14837KMSN MSN20010826011009708/26/01 01:10:31  5-MIN KMSN 260710Z 00000KT 5SM BR CLR 18/17 A2990 890 96 1500 000/00 RMK AO2 $
14837KMSN MSN20010826011510208/26/01 01:15:31  5-MIN KMSN 260715Z 00000KT 2 1/2SM BR CLR 17/17 A2989 890 100 1400 000/00 RMK AO2 $
14837KMSN MSN20010826012009508/26/01 01:20:31  5-MIN KMSN 260720Z 00000KT 7SM CLR 17/17 A2990 890 100 1300 000/00 RMK AO2 $
14837KMSN MSN20010826012509508/26/01 01:25:31  5-MIN KMSN 260725Z 28003KT 7SM CLR 17/17 A2990 890 100 1300 280/03 RMK AO2 $
14837KMSN MSN20010826013009508/26/01 01:30:31  5-MIN KMSN 260730Z 00000KT 7SM CLR 17/17 A2990 890 100 1300 000/00 RMK AO2 $
14837KMSN MSN20010826013509508/26/01 01:35:31  5-MIN KMSN 260735Z 00000KT 7SM CLR 17/17 A2990 890 100 1300 000/00 RMK AO2 $
14837KMSN MSN20010826014009508/26/01 01:40:31  5-MIN KMSN 260740Z 29003KT 7SM CLR 17/17 A2990 890 100 1300 290/03 RMK AO2 $
14837KMSN MSN20010826014509508/26/01 01:45:31  5-MIN KMSN 260745Z 30003KT 7SM CLR 17/17 A2990 880 100 1300 290/03 RMK AO2 $
14837KMSN MSN20010826015011208/26/01 01:50:31  5-MIN KMSN 260750Z 30004KT 7SM CLR 17/17 A2990 880 100 1300 300/04 RMK AO2 SLP122 T01670167 $
14837KMSN MSN20010826104509508/26/01 10:45:31  5-MIN KMSN 261645Z 33006KT 10SM CLR 26/17 A2998 810 57 2300 330/06 RMK AO2 $
14837KMSN MSN20010826105011208/26/01 10:50:31  5-MIN KMSN 261650Z 34006KT 10SM CLR 26/17 A2998 810 55 2300 340/06 RMK AO2 SLP147 T02610167 $
14837KMSN MSN20010826105509508/26/01 10:55:31  5-MIN KMSN 261655Z 32007KT 10SM CLR 26/16 A2998 810 53 2300 320/07 RMK AO2 $
14837KMSN MSN20010826110009508/26/01 11:00:31  5-MIN KMSN 261700Z 33009KT 10SM CLR 26/16 A2998 810 51 2300 330/09 RMK AO2 $
14837KMSN MSN20010826110509508/26/01 11:05:31  5-MIN KMSN 261705Z 33008KT 10SM CLR 26/16 A2998 810 51 2300 330/08 RMK AO2 $
14837KMSN MSN20010826111009508/26/01 11:10:31  5-MIN KMSN 261710Z VRB06KT 10SM CLR 27/16 A2998 810 52 2400 VRB/06 RMK AO2 $
14837KMSN MSN20010826111509808/26/01 11:15:31  5-MIN KMSN 261715Z 32007KT 10SM FEW045 27/16 A2998 810 52 2400 320/07 RMK AO2 $
14837KMSN MSN20010826112009808/26/01 11:20:31  5-MIN KMSN 261720Z 32008KT 10SM FEW045 26/15 A2998 810 50 2300 320/08 RMK AO2 $
14837KMSN MSN20010826112509808/26/01 11:25:31  5-MIN KMSN 261725Z VRB05KT 10SM FEW045 26/16 A2998 810 51 2300 VRB/05 RMK AO2 $
14837KMSN MSN20010826113009808/26/01 11:30:31  5-MIN KMSN 261730Z 33007KT 10SM FEW045 27/16 A2997 810 50 2400 320/07 RMK AO2 $
14837KMSN MSN20010826113509808/26/01 11:35:31  5-MIN KMSN 261735Z 34007KT 10SM FEW045 27/16 A2997 810 50 2400 340/07 RMK AO2 $
14837KMSN MSN20010826114009808/26/01 11:40:31  5-MIN KMSN 261740Z 32006KT 10SM FEW045 27/16 A2998 810 50 2400 320/06 RMK AO2 $
14837KMSN MSN20010826114509808/26/01 11:45:31  5-MIN KMSN 261745Z 34004KT 10SM FEW045 27/17 A2998 810 53 2400 340/04 RMK AO2 $
14837KMSN MSN20010826115013308/26/01 11:50:31  5-MIN KMSN 261750Z 32008KT 10SM FEW045 27/16 A2998 810 52 2400 320/08 RMK AO2 SLP146 T02670161 10267 20172 50006 $
14837KMSN MSN20010826115509808/26/01 11:55:31  5-MIN KMSN 261755Z 31008KT 10SM FEW045 27/16 A2998 810 50 2400 310/08 RMK AO2 $
14837KMSN MSN20010826120009808/26/01 12:00:31  5-MIN KMSN 261800Z VRB06KT 10SM FEW045 27/16 A2998 810 50 2400 VRB/06 RMK AO2 $
14837KMSN MSN20010826120509808/26/01 12:05:31  5-MIN KMSN 261805Z 33006KT 10SM FEW045 27/15 A2998 810 48 2400 330/06 RMK AO2 $
14837KMSN MSN20010826121009808/26/01 12:10:31  5-MIN KMSN 261810Z 31006KT 10SM FEW045 27/16 A2998 810 50 2400 300/06 RMK AO2 $
14837KMSN MSN20010826121509808/26/01 12:15:31  5-MIN KMSN 261815Z 30009KT 10SM FEW045 27/14 A2998 810 46 2400 300/09 RMK AO2 $
14837KMSN MSN20010826122009808/26/01 12:20:31  5-MIN KMSN 261820Z 31008KT 10SM FEW045 27/15 A2998 810 48 2400 310/08 RMK AO2 $
14837KMSN MSN20010826122509808/26/01 12:25:31  5-MIN KMSN 261825Z 30007KT 10SM FEW045 27/16 A2998 810 50 2400 300/07 RMK AO2 $
14837KMSN MSN20010826123009808/26/01 12:30:31  5-MIN KMSN 261830Z 33008KT 10SM FEW045 27/15 A2998 810 48 2400 330/08 RMK AO2 $
14837KMSN MSN20010826123509808/26/01 12:35:31  5-MIN KMSN 261835Z 32006KT 10SM FEW045 27/16 A2998 810 48 2400 320/06 RMK AO2 $
14837KMSN MSN20010826124011408/26/01 12:40:31  5-MIN KMSN 261840Z 30007KT 280V340 10SM FEW045 27/14 A2998 810 46 2400 300/07 280V340 RMK AO2 $
14837KMSN MSN20010826124509808/26/01 12:45:31  5-MIN KMSN 261845Z 32010KT 10SM FEW045 27/14 A2998 810 45 2400 320/10 RMK AO2 $
14837KMSN MSN20010826125011508/26/01 12:50:31  5-MIN KMSN 261850Z 31006KT 10SM FEW045 27/14 A2999 800 45 2400 310/06 RMK AO2 SLP150 T02720144 $
14837KMSN MSN20010826125509508/26/01 12:55:31  5-MIN KMSN 261855Z 29008KT 10SM CLR 27/14 A2999 800 45 2400 290/08 RMK AO2 $
14837KMSN MSN20010826130009508/26/01 13:00:31  5-MIN KMSN 261900Z 31007KT 10SM CLR 28/14 A2999 800 43 2500 310/07 RMK AO2 $
14837KMSN MSN20010826130509508/26/01 13:05:31  5-MIN KMSN 261905Z 30007KT 10SM CLR 27/14 A2999 800 45 2400 300/07 RMK AO2 $
14837KMSN MSN20010826131009508/26/01 13:10:31  5-MIN KMSN 261910Z 31008KT 10SM CLR 27/15 A2999 800 46 2400 310/08 RMK AO2 $
14837KMSN MSN20010826131511408/26/01 13:15:31  5-MIN KMSN 261915Z 31007KT 280V340 10SM FEW045 27/15 A2999 800 46 2400 310/07 280V340 RMK AO2 $
14837KMSN MSN20010826132009808/26/01 13:20:31  5-MIN KMSN 261920Z VRB06KT 10SM FEW045 27/15 A2999 800 46 2400 VRB/06 RMK AO2 $
14837KMSN MSN20010826132509808/26/01 13:25:31  5-MIN KMSN 261925Z 29008KT 10SM FEW045 28/16 A2999 800 46 2500 290/08 RMK AO2 $
14837KMSN MSN20010826133011408/26/01 13:30:31  5-MIN KMSN 261930Z 32007KT 290V350 10SM FEW045 28/16 A2999 800 46 2500 310/07 290V350 RMK AO2 $
14837KMSN MSN20010826133511408/26/01 13:35:31  5-MIN KMSN 261935Z 32007KT 300V360 10SM FEW045 28/15 A2999 800 45 2500 320/07 300V360 RMK AO2 $
14837KMSN MSN20010826134009808/26/01 13:40:31  5-MIN KMSN 261940Z 32006KT 10SM FEW045 27/15 A2999 800 46 2400 320/06 RMK AO2 $
14837KMSN MSN20010826134509808/26/01 13:45:31  5-MIN KMSN 261945Z 32006KT 10SM FEW045 28/16 A2999 800 48 2500 320/06 RMK AO2 $
14837KMSN MSN20010826135013108/26/01 13:50:31  5-MIN KMSN 261950Z 33008KT 290V360 10SM FEW045 28/16 A3000 790 48 2500 330/08 290V360 RMK AO2 SLP153 T02780161 $
14837KMSN MSN20010826135509508/26/01 13:55:31  5-MIN KMSN 261955Z 32007KT 10SM CLR 28/16 A3000 790 46 2500 320/07 RMK AO2 $
14837KMSN MSN20010826140009508/26/01 14:00:31  5-MIN KMSN 262000Z 34009KT 10SM CLR 27/16 A3000 790 48 2400 340/09 RMK AO2 $
14837KMSN MSN20010826140509808/26/01 14:05:31  5-MIN KMSN 262005Z 34006KT 10SM FEW055 28/15 A2999 800 45 2500 340/06 RMK AO2 $
14837KMSN MSN20010826141009808/26/01 14:10:31  5-MIN KMSN 262010Z 32008KT 10SM FEW055 28/16 A2999 800 46 2500 320/08 RMK AO2 $
14837KMSN MSN20010826141509808/26/01 14:15:31  5-MIN KMSN 262015Z 33007KT 10SM FEW055 27/15 A2999 800 46 2400 330/07 RMK AO2 $
14837KMSN MSN20010826142009808/26/01 14:20:31  5-MIN KMSN 262020Z VRB05KT 10SM FEW055 28/15 A2999 800 45 2500 VRB/05 RMK AO2 $
14837KMSN MSN20010826142509808/26/01 14:25:31  5-MIN KMSN 262025Z 34006KT 10SM FEW055 28/15 A2999 800 45 2500 340/06 RMK AO2 $
14837KMSN MSN20010826143009808/26/01 14:30:31  5-MIN KMSN 262030Z 32007KT 10SM FEW055 28/16 A2999 800 46 2500 320/07 RMK AO2 $
14837KMSN MSN20010826143509808/26/01 14:35:31  5-MIN KMSN 262035Z 32008KT 10SM FEW055 28/14 A2999 800 43 2500 320/08 RMK AO2 $
14837KMSN MSN20010826144009808/26/01 14:40:31  5-MIN KMSN 262040Z 33005KT 10SM FEW055 28/14 A2999 800 43 2500 320/05 RMK AO2 $
14837KMSN MSN20010826144509808/26/01 14:45:31  5-MIN KMSN 262045Z 31009KT 10SM FEW055 28/15 A2999 800 45 2500 310/09 RMK AO2 $
14837KMSN MSN20010826145012108/26/01 14:50:31  5-MIN KMSN 262050Z 31010KT 10SM FEW055 27/14 A2998 810 43 2400 310/10 RMK AO2 SLP149 T02720139 50000 $
14837KMSN MSN20010826145509808/26/01 14:55:31  5-MIN KMSN 262055Z 34010KT 10SM FEW060 27/14 A2999 800 45 2400 340/10 RMK AO2 $
14837KMSN MSN20010826150009808/26/01 15:00:31  5-MIN KMSN 262100Z 32008KT 10SM FEW060 27/14 A2999 800 45 2400 320/08 RMK AO2 $
14837KMSN MSN20010826150509808/26/01 15:05:31  5-MIN KMSN 262105Z 32009KT 10SM FEW060 28/15 A2999 800 45 2500 320/09 RMK AO2 $
14837KMSN MSN20010826151009808/26/01 15:10:31  5-MIN KMSN 262110Z 31009KT 10SM SCT060 27/14 A2999 800 45 2400 300/09 RMK AO2 $
14837KMSN MSN20010826151509808/26/01 15:15:31  5-MIN KMSN 262115Z 32010KT 10SM SCT060 27/14 A2999 800 45 2400 310/10 RMK AO2 $
14837KMSN MSN20010826152009808/26/01 15:20:31  5-MIN KMSN 262120Z 31009KT 10SM FEW060 27/14 A2999 800 45 2400 310/09 RMK AO2 $
14837KMSN MSN20010826152509808/26/01 15:25:31  5-MIN KMSN 262125Z 32008KT 10SM FEW060 27/14 A2999 800 45 2400 320/08 RMK AO2 $
14837KMSN MSN20010826153009808/26/01 15:30:31  5-MIN KMSN 262130Z 32009KT 10SM FEW060 27/15 A2998 810 46 2400 320/09 RMK AO2 $
14837KMSN MSN20010826153509808/26/01 15:35:31  5-MIN KMSN 262135Z 31007KT 10SM FEW060 27/14 A2998 810 45 2400 310/07 RMK AO2 $
14837KMSN MSN20010826154009808/26/01 15:40:31  5-MIN KMSN 262140Z 31005KT 10SM FEW060 27/14 A2998 810 43 2400 310/05 RMK AO2 $
14837KMSN MSN20010826154509808/26/01 15:45:31  5-MIN KMSN 262145Z 35006KT 10SM FEW060 28/15 A2998 810 45 2500 350/06 RMK AO2 $
14837KMSN MSN20010826155011508/26/01 15:50:31  5-MIN KMSN 262150Z 34005KT 10SM FEW060 28/15 A2998 810 45 2500 340/05 RMK AO2 SLP146 T02780150 $
14837KMSN MSN20010826155509808/26/01 15:55:31  5-MIN KMSN 262155Z 34007KT 10SM FEW060 27/14 A2998 810 45 2400 340/07 RMK AO2 $
14837KMSN MSN20010826160009808/26/01 16:00:31  5-MIN KMSN 262200Z 31006KT 10SM FEW060 27/15 A2998 810 46 2400 310/06 RMK AO2 $
14837KMSN MSN20010826160509808/26/01 16:05:31  5-MIN KMSN 262205Z VRB05KT 10SM FEW060 27/15 A2998 810 46 2400 VRB/05 RMK AO2 $
14837KMSN MSN20010826161009808/26/01 16:10:31  5-MIN KMSN 262210Z 30006KT 10SM FEW060 27/15 A2997 810 46 2400 300/06 RMK AO2 $
14837KMSN MSN20010826161509808/26/01 16:15:31  5-MIN KMSN 262215Z 33005KT 10SM FEW060 27/16 A2997 820 48 2400 330/05 RMK AO2 $
14837KMSN MSN20010826162009808/26/01 16:20:31  5-MIN KMSN 262220Z 34004KT 10SM FEW060 27/16 A2997 820 48 2400 340/04 RMK AO2 $
14837KMSN MSN20010826162509808/26/01 16:25:31  5-MIN KMSN 262225Z 33004KT 10SM FEW060 27/16 A2997 820 50 2400 330/04 RMK AO2 $
14837KMSN MSN20010826163009808/26/01 16:30:31  5-MIN KMSN 262230Z 32005KT 10SM FEW060 27/16 A2997 820 48 2400 320/05 RMK AO2 $
14837KMSN MSN20010826163509808/26/01 16:35:31  5-MIN KMSN 262235Z VRB04KT 10SM FEW060 27/16 A2997 820 48 2500 VRB/04 RMK AO2 $
14837KMSN MSN20010826164009808/26/01 16:40:31  5-MIN KMSN 262240Z 33005KT 10SM FEW060 27/16 A2996 820 48 2500 330/05 RMK AO2 $
14837KMSN MSN20010826164509808/26/01 16:45:31  5-MIN KMSN 262245Z 34004KT 10SM FEW060 27/16 A2996 830 48 2500 340/04 RMK AO2 $
14837KMSN MSN20010826165011508/26/01 16:50:31  5-MIN KMSN 262250Z VRB03KT 10SM FEW060 27/16 A2995 830 48 2500 VRB/03 RMK AO2 SLP139 T02720156 $
14837KMSN MSN20010826165509808/26/01 16:55:31  5-MIN KMSN 262255Z 32003KT 10SM FEW060 27/16 A2996 830 48 2500 310/03 RMK AO2 $
14837KMSN MSN20010826170009808/26/01 17:00:31  5-MIN KMSN 262300Z 32003KT 10SM FEW060 26/16 A2995 830 53 2300 310/03 RMK AO2 $
14837KMSN MSN20010826170509808/26/01 17:05:31  5-MIN KMSN 262305Z 00000KT 10SM FEW060 26/16 A2995 830 55 2300 000/00 RMK AO2 $
14837KMSN MSN20010826171009508/26/01 17:10:31  5-MIN KMSN 262310Z 00000KT 10SM CLR 26/17 A2995 840 59 2300 000/00 RMK AO2 $
14837KMSN MSN20010826171509508/26/01 17:15:31  5-MIN KMSN 262315Z 00000KT 10SM CLR 26/17 A2995 840 55 2400 000/00 RMK AO2 $
14837KMSN MSN20010826172009508/26/01 17:20:31  5-MIN KMSN 262320Z 00000KT 10SM CLR 27/17 A2994 840 54 2500 000/00 RMK AO2 $
14837KMSN MSN20010826172509508/26/01 17:25:31  5-MIN KMSN 262325Z 00000KT 10SM CLR 27/16 A2994 840 52 2400 000/00 RMK AO2 $
14837KMSN MSN20010826173009508/26/01 17:30:31  5-MIN KMSN 262330Z 00000KT 10SM CLR 25/18 A2995 840 64 2200 000/00 RMK AO2 $
14837KMSN MSN20010826173509508/26/01 17:35:31  5-MIN KMSN 262335Z 00000KT 10SM CLR 24/18 A2995 840 68 2200 000/00 RMK AO2 $
14837KMSN MSN20010826174009508/26/01 17:40:31  5-MIN KMSN 262340Z 28003KT 10SM CLR 24/18 A2996 830 71 2100 280/03 RMK AO2 $
14837KMSN MSN20010826174509508/26/01 17:45:31  5-MIN KMSN 262345Z 29003KT 10SM CLR 24/18 A2996 830 68 2100 290/03 RMK AO2 $
14837KMSN MSN20010826175013008/26/01 17:50:31  5-MIN KMSN 262350Z 00000KT 10SM CLR 24/18 A2996 830 71 2100 000/00 RMK AO2 SLP141 T02390183 10278 20233 50003 $
14837KMSN MSN20010826175509508/26/01 17:55:31  5-MIN KMSN 262355Z 00000KT 10SM CLR 24/19 A2995 830 71 2200 000/00 RMK AO2 $
14837KMSN MSN20010826180009508/26/01 18:00:31  5-MIN KMSN 270000Z 00000KT 10SM CLR 24/18 A2995 830 71 2100 000/00 RMK AO2 $
14837KMSN MSN20010826180509508/26/01 18:05:31  5-MIN KMSN 270005Z 00000KT 10SM CLR 23/18 A2995 830 76 2000 000/00 RMK AO2 $
14837KMSN MSN20010826181009508/26/01 18:10:31  5-MIN KMSN 270010Z 00000KT 10SM CLR 23/18 A2995 840 70 2000 000/00 RMK AO2 $
14837KMSN MSN20010826181509508/26/01 18:15:31  5-MIN KMSN 270015Z 00000KT 10SM CLR 23/18 A2995 840 73 2000 000/00 RMK AO2 $
14837KMSN MSN20010826182009508/26/01 18:20:31  5-MIN KMSN 270020Z 00000KT 10SM CLR 22/18 A2995 840 75 1900 000/00 RMK AO2 $
14837KMSN MSN20010826182509508/26/01 18:25:31  5-MIN KMSN 270025Z 00000KT 10SM CLR 22/18 A2995 840 75 1900 000/00 RMK AO2 $
14837KMSN MSN20010826183009508/26/01 18:30:31  5-MIN KMSN 270030Z 24003KT 10SM CLR 22/18 A2995 840 81 1800 240/03 RMK AO2 $
14837KMSN MSN20010826183509508/26/01 18:35:31  5-MIN KMSN 270035Z 26003KT 10SM CLR 21/18 A2995 830 84 1700 260/03 RMK AO2 $
14837KMSN MSN20010826184009508/26/01 18:40:31  5-MIN KMSN 270040Z 00000KT 10SM CLR 20/18 A2995 840 87 1700 000/00 RMK AO2 $
14837KMSN MSN20010826184509808/26/01 18:45:31  5-MIN KMSN 270045Z 00000KT 10SM FEW100 21/18 A2995 830 84 1700 000/00 RMK AO2 $
14837KMSN MSN20010826185011508/26/01 18:50:31  5-MIN KMSN 270050Z 26003KT 10SM FEW100 20/18 A2995 830 90 1700 260/03 RMK AO2 SLP140 T02000183 $
14837KMSN MSN20010826185509808/26/01 18:55:31  5-MIN KMSN 270055Z 26003KT 10SM FEW110 20/18 A2995 830 87 1600 250/03 RMK AO2 $
14837KMSN MSN20010826190009808/26/01 19:00:31  5-MIN KMSN 270100Z 26004KT 10SM FEW110 20/18 A2996 830 87 1600 260/04 RMK AO2 $
14837KMSN MSN20010826190509808/26/01 19:05:31  5-MIN KMSN 270105Z 26004KT 10SM FEW110 20/18 A2996 830 87 1600 260/04 RMK AO2 $
14837KMSN MSN20010826191009808/26/01 19:10:31  5-MIN KMSN 270110Z 27003KT 10SM FEW110 20/17 A2996 830 84 1600 270/03 RMK AO2 $
14837KMSN MSN20010826191509808/26/01 19:15:31  5-MIN KMSN 270115Z 27003KT 10SM FEW110 21/17 A2996 830 81 1700 270/03 RMK AO2 $
14837KMSN MSN20010826192009808/26/01 19:20:31  5-MIN KMSN 270120Z 26003KT 10SM FEW110 20/17 A2996 830 84 1600 260/03 RMK AO2 $
14837KMSN MSN20010826192509808/26/01 19:25:31  5-MIN KMSN 270125Z 26004KT 10SM FEW110 21/17 A2996 830 81 1700 250/04 RMK AO2 $
14837KMSN MSN20010826193009808/26/01 19:30:31  5-MIN KMSN 270130Z 26003KT 10SM FEW110 20/17 A2996 830 84 1600 260/03 RMK AO2 $
14837KMSN MSN20010826193509808/26/01 19:35:31  5-MIN KMSN 270135Z 26003KT 10SM FEW110 19/17 A2996 830 87 1600 260/03 RMK AO2 $
14837KMSN MSN20010826194009808/26/01 19:40:31  5-MIN KMSN 270140Z 26003KT 10SM FEW110 20/17 A2996 830 84 1600 260/03 RMK AO2 $
14837KMSN MSN20010826194509808/26/01 19:45:31  5-MIN KMSN 270145Z 26003KT 10SM FEW110 19/17 A2996 820 84 1600 260/03 RMK AO2 $
14837KMSN MSN20010826195011508/26/01 19:50:31  5-MIN KMSN 270150Z 25003KT 10SM FEW110 19/17 A2996 820 84 1600 250/03 RMK AO2 SLP143 T01940167 $
14837KMSN MSN20010826195509508/26/01 19:55:31  5-MIN KMSN 270155Z 00000KT 10SM CLR 20/17 A2996 820 81 1600 000/00 RMK AO2 $
14837KMSN MSN20010826200009508/26/01 20:00:31  5-MIN KMSN 270200Z 00000KT 10SM CLR 20/17 A2996 820 81 1600 000/00 RMK AO2 $
14837KMSN MSN20010826200509508/26/01 20:05:31  5-MIN KMSN 270205Z 25004KT 10SM CLR 21/17 A2997 820 78 1700 250/04 RMK AO2 $
14837KMSN MSN20010826201009508/26/01 20:10:31  5-MIN KMSN 270210Z 00000KT 10SM CLR 21/16 A2997 820 73 1800 000/00 RMK AO2 $
14837KMSN MSN20010826201509808/26/01 20:15:31  5-MIN KMSN 270215Z 26003KT 10SM FEW100 20/16 A2996 820 78 1600 260/03 RMK AO2 $
14837KMSN MSN20010826202009808/26/01 20:20:31  5-MIN KMSN 270220Z 00000KT 10SM FEW100 19/17 A2997 820 87 1500 000/00 RMK AO2 $
14837KMSN MSN20010826202509808/26/01 20:25:31  5-MIN KMSN 270225Z 00000KT 10SM FEW100 19/17 A2997 820 84 1600 000/00 RMK AO2 $
14837KMSN MSN20010826203009808/26/01 20:30:31  5-MIN KMSN 270230Z 00000KT 10SM FEW100 19/17 A2997 820 84 1600 000/00 RMK AO2 $
14837KMSN MSN20010826203509808/26/01 20:35:31  5-MIN KMSN 270235Z 00000KT 10SM FEW100 19/17 A2997 820 84 1600 000/00 RMK AO2 $
14837KMSN MSN20010826204009808/26/01 20:40:31  5-MIN KMSN 270240Z 00000KT 10SM FEW100 19/17 A2997 820 84 1600 000/00 RMK AO2 $
14837KMSN MSN20010826204509808/26/01 20:45:31  5-MIN KMSN 270245Z 00000KT 10SM FEW100 19/17 A2997 820 84 1600 000/00 RMK AO2 $
14837KMSN MSN20010826205012108/26/01 20:50:31  5-MIN KMSN 270250Z 00000KT 10SM FEW100 19/17 A2996 820 84 1600 000/00 RMK AO2 SLP143 T01940167 56011 $
14837KMSN MSN20010826205509808/26/01 20:55:31  5-MIN KMSN 270255Z 00000KT 10SM FEW110 19/17 A2997 820 84 1600 000/00 RMK AO2 $
14837KMSN MSN20010826210009808/26/01 21:00:31  5-MIN KMSN 270300Z 00000KT 10SM FEW110 19/17 A2997 820 90 1500 000/00 RMK AO2 $
14837KMSN MSN20010826210509808/26/01 21:05:31  5-MIN KMSN 270305Z 00000KT 10SM FEW110 19/17 A2997 820 90 1500 000/00 RMK AO2 $
14837KMSN MSN20010826211009808/26/01 21:10:31  5-MIN KMSN 270310Z 00000KT 10SM FEW110 19/17 A2997 820 90 1500 000/00 RMK AO2 $
14837KMSN MSN20010826211509808/26/01 21:15:31  5-MIN KMSN 270315Z 00000KT 10SM FEW110 19/17 A2997 820 87 1500 000/00 RMK AO2 $
14837KMSN MSN20010826212009808/26/01 21:20:31  5-MIN KMSN 270320Z 00000KT 10SM FEW110 18/17 A2997 820 90 1400 000/00 RMK AO2 $
14837KMSN MSN20010826212509808/26/01 21:25:31  5-MIN KMSN 270325Z 00000KT 10SM FEW110 18/17 A2996 820 90 1400 000/00 RMK AO2 $
14837KMSN MSN20010826213009808/26/01 21:30:31  5-MIN KMSN 270330Z 00000KT 10SM FEW110 18/17 A2996 820 90 1400 000/00 RMK AO2 $
14837KMSN MSN20010826213509808/26/01 21:35:31  5-MIN KMSN 270335Z 00000KT 10SM FEW110 19/17 A2997 820 90 1500 000/00 RMK AO2 $
14837KMSN MSN20010826214009808/26/01 21:40:31  5-MIN KMSN 270340Z 00000KT 10SM FEW110 18/17 A2996 820 93 1400 000/00 RMK AO2 $
14837KMSN MSN20010826214509808/26/01 21:45:31  5-MIN KMSN 270345Z 00000KT 10SM FEW110 18/17 A2996 830 93 1400 000/00 RMK AO2 $
14837KMSN MSN20010826215011508/26/01 21:50:31  5-MIN KMSN 270350Z 00000KT 10SM FEW120 18/17 A2996 830 93 1400 000/00 RMK AO2 SLP142 T01830172 $
14837KMSN MSN20010826215509808/26/01 21:55:31  5-MIN KMSN 270355Z 00000KT 10SM FEW120 18/17 A2996 830 93 1400 000/00 RMK AO2 $
14837KMSN MSN20010826220009808/26/01 22:00:31  5-MIN KMSN 270400Z 00000KT 10SM FEW120 18/17 A2996 820 93 1400 000/00 RMK AO2 $
14837KMSN MSN20010826220509808/26/01 22:05:31  5-MIN KMSN 270405Z 00000KT 10SM FEW120 17/17 A2997 820 96 1300 000/00 RMK AO2 $
14837KMSN MSN20010826221009808/26/01 22:10:31  5-MIN KMSN 270410Z 00000KT 10SM FEW120 18/17 A2997 820 96 1400 000/00 RMK AO2 $
14837KMSN MSN20010826221509808/26/01 22:15:31  5-MIN KMSN 270415Z 00000KT 10SM FEW120 18/17 A2996 820 96 1400 000/00 RMK AO2 $
14837KMSN MSN20010826222009508/26/01 22:20:31  5-MIN KMSN 270420Z 00000KT 10SM CLR 18/17 A2996 830 93 1400 000/00 RMK AO2 $
14837KMSN MSN20010826222509508/26/01 22:25:31  5-MIN KMSN 270425Z 00000KT 10SM CLR 18/17 A2996 830 96 1400 000/00 RMK AO2 $
14837KMSN MSN20010826223009508/26/01 22:30:31  5-MIN KMSN 270430Z 00000KT 10SM CLR 18/17 A2996 830 93 1400 000/00 RMK AO2 $
14837KMSN MSN20010826223509508/26/01 22:35:31  5-MIN KMSN 270435Z 00000KT 9SM CLR 17/17 A2996 830 100 1300 000/00 RMK AO2 $
14837KMSN MSN20010826224009408/26/01 22:40:31  5-MIN KMSN 270440Z 00000KT 9SM CLR 18/17 A2996 830 96 1400 000/00 RMK AO2 $
14837KMSN MSN20010826224509508/26/01 22:45:31  5-MIN KMSN 270445Z 00000KT 10SM CLR 17/17 A2996 830 96 1300 000/00 RMK AO2 $
14837KMSN MSN20010826225011208/26/01 22:50:31  5-MIN KMSN 270450Z 00000KT 10SM CLR 18/17 A2996 830 96 1400 000/00 RMK AO2 SLP141 T01780172 $
14837KMSN MSN20010826225509508/26/01 22:55:31  5-MIN KMSN 270455Z 00000KT 10SM CLR 18/17 A2996 830 96 1400 000/00 RMK AO2 $
14837KMSN MSN20010826230009508/26/01 23:00:31  5-MIN KMSN 270500Z 00000KT 10SM CLR 18/17 A2996 830 96 1400 000/00 RMK AO2 $
14837KMSN MSN20010826230509508/26/01 23:05:31  5-MIN KMSN 270505Z 00000KT 10SM CLR 18/17 A2996 830 96 1400 000/00 RMK AO2 $
14837KMSN MSN20010826231009408/26/01 23:10:31  5-MIN KMSN 270510Z 00000KT 9SM CLR 18/17 A2996 830 96 1400 000/00 RMK AO2 $
14837KMSN MSN20010826231509408/26/01 23:15:31  5-MIN KMSN 270515Z 00000KT 9SM CLR 18/17 A2996 830 96 1400 000/00 RMK AO2 $
14837KMSN MSN20010826232009508/26/01 23:20:31  5-MIN KMSN 270520Z 00000KT 10SM CLR 18/17 A2996 830 96 1400 000/00 RMK AO2 $
14837KMSN MSN20010826232509508/26/01 23:25:31  5-MIN KMSN 270525Z 00000KT 10SM CLR 18/17 A2996 830 96 1400 000/00 RMK AO2 $
14837KMSN MSN20010826233009508/26/01 23:30:31  5-MIN KMSN 270530Z 00000KT 10SM CLR 18/17 A2996 830 93 1400 000/00 RMK AO2 $
14837KMSN MSN20010826233509508/26/01 23:35:31  5-MIN KMSN 270535Z 00000KT 10SM CLR 18/17 A2996 830 93 1400 000/00 RMK AO2 $
14837KMSN MSN20010826234009508/26/01 23:40:31  5-MIN KMSN 270540Z 00000KT 10SM CLR 18/17 A2996 830 93 1400 000/00 RMK AO2 $
14837KMSN MSN20010826234509508/26/01 23:45:31  5-MIN KMSN 270545Z 00000KT 10SM CLR 18/17 A2996 830 93 1400 000/00 RMK AO2 $
14837KMSN MSN20010826235014008/26/01 23:50:31  5-MIN KMSN 270550Z 00000KT 10SM CLR 18/17 A2996 830 93 1400 000/00 RMK AO2 SLP140 T01780167 10244 20172 402780167 53003 $
14837KMSN MSN20010826235509508/26/01 23:55:31  5-MIN KMSN 270555Z 00000KT 10SM CLR 18/17 A2996 830 93 1400 000/00 RMK AO2 $
14837KMSN MSN20010827000009508/27/01 00:00:31  5-MIN KMSN 270600Z 00000KT 10SM CLR 18/17 A2996 830 93 1400 000/00 RMK AO2 $
14837KMSN MSN20010827000509508/27/01 00:05:31  5-MIN KMSN 270605Z 00000KT 10SM CLR 18/16 A2996 830 90 1400 000/00 RMK AO2 $
14837KMSN MSN20010827001009508/27/01 00:10:31  5-MIN KMSN 270610Z 00000KT 10SM CLR 18/16 A2996 830 90 1400 000/00 RMK AO2 $
14837KMSN MSN20010827001509508/27/01 00:15:31  5-MIN KMSN 270615Z 00000KT 10SM CLR 18/16 A2995 830 90 1400 000/00 RMK AO2 $
14837KMSN MSN20010827002009508/27/01 00:20:31  5-MIN KMSN 270620Z 00000KT 10SM CLR 18/16 A2996 830 87 1500 000/00 RMK AO2 $
14837KMSN MSN20010827002509808/27/01 00:25:31  5-MIN KMSN 270625Z 00000KT 10SM FEW120 18/16 A2996 830 90 1400 000/00 RMK AO2 $
14837KMSN MSN20010827003009808/27/01 00:30:31  5-MIN KMSN 270630Z 00000KT 10SM SCT120 18/17 A2995 830 90 1500 000/00 RMK AO2 $
14837KMSN MSN20010827003509808/27/01 00:35:31  5-MIN KMSN 270635Z 00000KT 10SM SCT120 18/17 A2995 840 93 1400 000/00 RMK AO2 $
14837KMSN MSN20010827004009808/27/01 00:40:31  5-MIN KMSN 270640Z 00000KT 10SM SCT120 17/17 A2995 840 96 1300 000/00 RMK AO2 $
14837KMSN MSN20010827004509808/27/01 00:45:31  5-MIN KMSN 270645Z 00000KT 10SM BKN120 17/17 A2994 840 96 1300 000/00 RMK AO2 $
14837KMSN MSN20010827005011508/27/01 00:50:31  5-MIN KMSN 270650Z 17003KT 10SM BKN120 19/17 A2994 850 90 1500 170/03 RMK AO2 SLP132 T01890172 $
14837KMSN MSN20010827005509808/27/01 00:55:31  5-MIN KMSN 270655Z 20003KT 10SM SCT120 19/17 A2994 850 87 1500 190/03 RMK AO2 $
14837KMSN MSN20010827010009808/27/01 01:00:31  5-MIN KMSN 270700Z 00000KT 10SM FEW120 20/17 A2994 850 81 1700 000/00 RMK AO2 $
14837KMSN MSN20010827010509808/27/01 01:05:31  5-MIN KMSN 270705Z 23004KT 10SM SCT120 19/17 A2994 840 87 1500 230/04 RMK AO2 $
14837KMSN MSN20010827011009808/27/01 01:10:31  5-MIN KMSN 270710Z 21003KT 10SM SCT120 18/16 A2995 840 87 1500 210/03 RMK AO2 $
14837KMSN MSN20010827011509808/27/01 01:15:31  5-MIN KMSN 270715Z 00000KT 10SM SCT120 18/16 A2995 840 90 1400 000/00 RMK AO2 $
14837KMSN MSN20010827012009808/27/01 01:20:31  5-MIN KMSN 270720Z 00000KT 10SM BKN120 18/17 A2994 840 90 1500 000/00 RMK AO2 $
14837KMSN MSN20010827012509808/27/01 01:25:31  5-MIN KMSN 270725Z 22004KT 10SM BKN120 18/17 A2995 840 90 1500 220/04 RMK AO2 $
14837KMSN MSN20010827013009808/27/01 01:30:31  5-MIN KMSN 270730Z 23004KT 10SM BKN120 19/17 A2995 840 87 1500 220/04 RMK AO2 $
14837KMSN MSN20010827013509808/27/01 01:35:31  5-MIN KMSN 270735Z 22005KT 10SM BKN120 20/17 A2995 840 81 1700 220/05 RMK AO2 $
14837KMSN MSN20010827014009808/27/01 01:40:31  5-MIN KMSN 270740Z 23004KT 10SM BKN120 21/16 A2995 840 75 1700 230/04 RMK AO2 $
14837KMSN MSN20010827014509808/27/01 01:45:31  5-MIN KMSN 270745Z 22005KT 10SM BKN120 21/16 A2995 840 75 1700 220/05 RMK AO2 $
14837KMSN MSN20010827015011508/27/01 01:50:31  5-MIN KMSN 270750Z 22004KT 10SM BKN120 21/16 A2995 830 75 1700 220/04 RMK AO2 SLP138 T02060161 $
14837KMSN MSN20010827015509808/27/01 01:55:31  5-MIN KMSN 270755Z 22003KT 10SM SCT120 19/16 A2995 840 81 1600 220/03 RMK AO2 $
14837KMSN MSN20010827020009808/27/01 02:00:31  5-MIN KMSN 270800Z 21003KT 10SM FEW120 20/17 A2994 840 81 1700 210/03 RMK AO2 $
14837KMSN MSN20010827020509808/27/01 02:05:31  5-MIN KMSN 270805Z 22003KT 10SM FEW120 19/17 A2995 840 84 1600 220/03 RMK AO2 $
14837KMSN MSN20010827021009808/27/01 02:10:31  5-MIN KMSN 270810Z 00000KT 10SM FEW120 19/16 A2995 830 84 1500 000/00 RMK AO2 $
14837KMSN MSN20010827104011908/27/01 10:40:31  5-MIN KMSN 271640Z 25008KT 210V290 10SM FEW029 OVC045 25/19 A2987 910 71 2300 250/08 210V290 RMK AO2
14837KMSN MSN20010827104510308/27/01 10:45:31  5-MIN KMSN 271645Z VRB06KT 10SM FEW029 OVC045 25/19 A2987 910 68 2300 VRB/06 RMK AO2
14837KMSN MSN20010827105012008/27/01 10:50:31  5-MIN KMSN 271650Z 28007KT 10SM FEW029 OVC045 25/19 A2987 910 71 2300 280/07 RMK AO2 SLP111 T02500194
14837KMSN MSN20010827105510308/27/01 10:55:31  5-MIN KMSN 271655Z 28009KT 10SM BKN029 OVC035 25/19 A2987 910 71 2300 280/09 RMK AO2
14837KMSN MSN20010827110011908/27/01 11:00:31  5-MIN KMSN 271700Z 29008KT 250V330 10SM BKN029 OVC035 25/19 A2987 910 71 2300 280/08 250V330 RMK AO2
14837KMSN MSN20010827110510908/27/01 11:05:31  5-MIN KMSN 271705Z 28008G14KT 10SM BKN029 OVC035 25/19 A2987 910 71 2300 280/08G14 RMK AO2
14837KMSN MSN20010827111011908/27/01 11:10:31  5-MIN KMSN 271710Z 31007KT 270V010 10SM BKN029 OVC035 25/20 A2987 910 73 2300 310/07 270V010 RMK AO2
14837KMSN MSN20010827111510308/27/01 11:15:31  5-MIN KMSN 271715Z VRB06KT 10SM SCT029 OVC037 25/20 A2987 910 73 2300 VRB/06 RMK AO2
14837KMSN MSN20010827112010308/27/01 11:20:31  5-MIN KMSN 271720Z 29008KT 10SM SCT029 BKN039 25/20 A2987 910 73 2300 290/08 RMK AO2
14837KMSN MSN20010827112511908/27/01 11:25:31  5-MIN KMSN 271725Z 30008KT 260V320 10SM FEW027 BKN039 25/19 A2987 910 71 2300 290/08 260V320 RMK AO2
14837KMSN MSN20010827113010308/27/01 11:30:31  5-MIN KMSN 271730Z 30006KT 10SM FEW027 BKN039 26/21 A2987 910 73 2400 300/06 RMK AO2
14837KMSN MSN20010827113510308/27/01 11:35:31  5-MIN KMSN 271735Z 30007KT 10SM FEW027 BKN039 26/21 A2987 910 73 2400 300/07 RMK AO2
14837KMSN MSN20010827114010308/27/01 11:40:31  5-MIN KMSN 271740Z 28006KT 10SM FEW027 SCT039 25/20 A2986 920 73 2300 280/06 RMK AO2
14837KMSN MSN20010827114510308/27/01 11:45:31  5-MIN KMSN 271745Z 31008KT 10SM FEW021 SCT041 26/21 A2986 920 71 2400 310/08 RMK AO2
14837KMSN MSN20010827115013108/27/01 11:50:31  5-MIN KMSN 271750Z 31007KT 10SM SCT021 25/20 A2986 920 73 2300 310/07 RMK AO2 SLP107 T02500200 10261 20189 58007
14837KMSN MSN20010827115511208/27/01 11:55:31  5-MIN KMSN 271755Z 32007KT 280V340 10SM SCT021 25/20 A2986 920 73 2300 320/07 280V340 RMK AO2
14837KMSN MSN20010827120009608/27/01 12:00:31  5-MIN KMSN 271800Z 30008KT 10SM SCT021 25/20 A2986 920 73 2300 300/08 RMK AO2
14837KMSN MSN20010827120511908/27/01 12:05:31  5-MIN KMSN 271805Z 30007KT 270V340 10SM SCT021 BKN034 25/20 A2986 920 73 2300 300/07 270V340 RMK AO2
14837KMSN MSN20010827121012608/27/01 12:10:31  5-MIN KMSN 271810Z 29007KT 260V320 10SM FEW021 SCT029 BKN034 25/20 A2986 920 73 2300 290/07 260V320 RMK AO2
14837KMSN MSN20010827121510308/27/01 12:15:31  5-MIN KMSN 271815Z 28008KT 10SM FEW021 SCT034 26/20 A2985 930 71 2400 280/08 RMK AO2
14837KMSN MSN20010827122010308/27/01 12:20:31  5-MIN KMSN 271820Z 29009KT 10SM FEW023 SCT034 26/20 A2986 920 71 2400 290/09 RMK AO2
14837KMSN MSN20010827122511008/27/01 12:25:31  5-MIN KMSN 271825Z 30008KT 10SM SCT023 SCT029 BKN034 25/19 A2986 920 71 2300 300/08 RMK AO2
14837KMSN MSN20010827123010308/27/01 12:30:31  5-MIN KMSN 271830Z 29007KT 10SM SCT026 BKN034 25/19 A2986 920 71 2300 290/07 RMK AO2
14837KMSN MSN20010827123510308/27/01 12:35:31  5-MIN KMSN 271835Z 30009KT 10SM SCT026 BKN034 26/19 A2986 920 68 2400 300/09 RMK AO2
14837KMSN MSN20010827124011908/27/01 12:40:31  5-MIN KMSN 271840Z 28009KT 250V310 10SM SCT026 BKN034 26/19 A2986 920 68 2400 280/09 250V310 RMK AO2
14837KMSN MSN20010827124509608/27/01 12:45:31  5-MIN KMSN 271845Z VRB06KT 10SM SCT026 26/19 A2986 920 66 2500 VRB/06 RMK AO2
14837KMSN MSN20010827125012008/27/01 12:50:31  5-MIN KMSN 271850Z 29010KT 10SM FEW026 SCT035 26/19 A2986 920 66 2500 290/10 RMK AO2 SLP105 T02610194
14837KMSN MSN20010827125510308/27/01 12:55:31  5-MIN KMSN 271855Z 30008KT 10SM FEW026 SCT035 26/19 A2986 920 64 2500 300/08 RMK AO2
14837KMSN MSN20010827130009608/27/01 13:00:31  5-MIN KMSN 271900Z VRB06KT 10SM FEW028 26/19 A2986 920 66 2400 VRB/06 RMK AO2
14837KMSN MSN20010827130509608/27/01 13:05:31  5-MIN KMSN 271905Z 29008KT 10SM SCT028 26/19 A2986 920 64 2500 290/08 RMK AO2
14837KMSN MSN20010827131011208/27/01 13:10:31  5-MIN KMSN 271910Z 29007KT 240V320 10SM SCT028 26/19 A2985 930 64 2500 290/07 240V320 RMK AO2
14837KMSN MSN20010827131509608/27/01 13:15:31  5-MIN KMSN 271915Z 29008KT 10SM SCT028 27/19 A2985 930 62 2500 290/08 RMK AO2
14837KMSN MSN20010827132009608/27/01 13:20:31  5-MIN KMSN 271920Z 26006KT 10SM SCT028 27/19 A2985 930 64 2500 260/06 RMK AO2
14837KMSN MSN20010827132509608/27/01 13:25:31  5-MIN KMSN 271925Z 30008KT 10SM BKN035 26/19 A2985 930 66 2400 300/08 RMK AO2
14837KMSN MSN20010827133009608/27/01 13:30:31  5-MIN KMSN 271930Z 28006KT 10SM BKN035 26/19 A2985 930 66 2500 280/06 RMK AO2
14837KMSN MSN20010827133509608/27/01 13:35:31  5-MIN KMSN 271935Z 30006KT 10SM BKN035 26/19 A2985 930 66 2500 300/06 RMK AO2
14837KMSN MSN20010827134011208/27/01 13:40:31  5-MIN KMSN 271940Z 29007KT 260V330 10SM BKN035 26/19 A2985 930 64 2500 290/07 260V330 RMK AO2
14837KMSN MSN20010827134509608/27/01 13:45:31  5-MIN KMSN 271945Z 27007KT 10SM BKN035 26/19 A2985 930 64 2500 270/07 RMK AO2
14837KMSN MSN20010827135012008/27/01 13:50:31  5-MIN KMSN 271950Z 29008KT 10SM BKN035 BKN045 26/19 A2985 930 64 2500 290/08 RMK AO2 SLP103 T02610189
14837KMSN MSN20010827135509608/27/01 13:55:31  5-MIN KMSN 271955Z 31007KT 10SM SCT035 26/19 A2985 930 66 2400 310/07 RMK AO2
14837KMSN MSN20010827140009608/27/01 14:00:31  5-MIN KMSN 272000Z VRB05KT 10SM SCT035 26/19 A2985 930 68 2400 VRB/05 RMK AO2
14837KMSN MSN20010827140509608/27/01 14:05:31  5-MIN KMSN 272005Z VRB06KT 10SM SCT035 26/19 A2985 930 66 2400 VRB/06 RMK AO2
14837KMSN MSN20010827141009608/27/01 14:10:31  5-MIN KMSN 272010Z 29007KT 10SM SCT035 26/19 A2985 930 66 2500 290/07 RMK AO2
14837KMSN MSN20010827141509608/27/01 14:15:31  5-MIN KMSN 272015Z 33007KT 10SM SCT035 27/19 A2985 930 64 2500 330/07 RMK AO2
14837KMSN MSN20010827142009608/27/01 14:20:31  5-MIN KMSN 272020Z 33007KT 10SM SCT035 26/19 A2985 930 66 2500 330/07 RMK AO2
14837KMSN MSN20010827142509608/27/01 14:25:31  5-MIN KMSN 272025Z 32007KT 10SM SCT035 26/19 A2985 930 68 2400 320/07 RMK AO2
14837KMSN MSN20010827143009608/27/01 14:30:31  5-MIN KMSN 272030Z VRB05KT 10SM SCT035 26/19 A2985 930 66 2400 VRB/05 RMK AO2
14837KMSN MSN20010827143511008/27/01 14:35:31  5-MIN KMSN 272035Z 31006KT 10SM FEW030 SCT038 SCT046 26/19 A2985 930 68 2400 310/06 RMK AO2
14837KMSN MSN20010827144010308/27/01 14:40:31  5-MIN KMSN 272040Z 33005KT 10SM FEW030 SCT055 26/20 A2985 930 71 2400 330/05 RMK AO2
14837KMSN MSN20010827144511008/27/01 14:45:31  5-MIN KMSN 272045Z VRB05KT 10SM FEW030 SCT040 SCT050 27/20 A2984 930 66 2500 VRB/05 RMK AO2
14837KMSN MSN20010827145012608/27/01 14:50:31  5-MIN KMSN 272050Z 35007KT 10SM SCT033 SCT055 27/20 A2984 940 66 2500 340/07 RMK AO2 SLP100 T02670200 56008
14837KMSN MSN20010827145510308/27/01 14:55:31  5-MIN KMSN 272055Z 34006KT 10SM SCT033 SCT049 26/19 A2984 940 68 2400 340/06 RMK AO2
14837KMSN MSN20010827150009608/27/01 15:00:31  5-MIN KMSN 272100Z VRB06KT 10SM FEW033 26/20 A2984 940 71 2400 VRB/06 RMK AO2
14837KMSN MSN20010827150509608/27/01 15:05:31  5-MIN KMSN 272105Z 34006KT 10SM FEW033 26/20 A2984 940 71 2400 340/06 RMK AO2
14837KMSN MSN20010827151009608/27/01 15:10:31  5-MIN KMSN 272110Z VRB04KT 10SM FEW033 26/20 A2984 940 68 2500 VRB/04 RMK AO2
14837KMSN MSN20010827151509608/27/01 15:15:31  5-MIN KMSN 272115Z 32008KT 10SM FEW033 26/19 A2984 940 66 2500 320/08 RMK AO2
14837KMSN MSN20010827152009308/27/01 15:20:31  5-MIN KMSN 272120Z 34006KT 10SM CLR 26/19 A2984 940 66 2500 340/06 RMK AO2
14837KMSN MSN20010827152509608/27/01 15:25:31  5-MIN KMSN 272125Z 32007KT 10SM FEW040 26/19 A2984 940 66 2500 320/07 RMK AO2
14837KMSN MSN20010827153009608/27/01 15:30:31  5-MIN KMSN 272130Z 32005KT 10SM FEW040 26/19 A2984 940 64 2500 320/05 RMK AO2
14837KMSN MSN20010827153509608/27/01 15:35:31  5-MIN KMSN 272135Z VRB04KT 10SM FEW040 26/19 A2984 940 66 2500 VRB/04 RMK AO2
14837KMSN MSN20010827154009608/27/01 15:40:31  5-MIN KMSN 272140Z VRB05KT 10SM FEW040 26/19 A2984 940 64 2500 VRB/05 RMK AO2
14837KMSN MSN20010827154509608/27/01 15:45:31  5-MIN KMSN 272145Z 27007KT 10SM FEW040 26/19 A2984 940 64 2500 270/07 RMK AO2
14837KMSN MSN20010827155011308/27/01 15:50:31  5-MIN KMSN 272150Z VRB05KT 10SM FEW040 26/19 A2984 940 64 2500 VRB/05 RMK AO2 SLP100 T02610189
14837KMSN MSN20010827155509308/27/01 15:55:31  5-MIN KMSN 272155Z VRB06KT 10SM CLR 26/19 A2984 940 64 2500 VRB/06 RMK AO2
14837KMSN MSN20010827160009308/27/01 16:00:31  5-MIN KMSN 272200Z 30006KT 10SM CLR 26/19 A2984 940 64 2500 300/06 RMK AO2
14837KMSN MSN20010827160509608/27/01 16:05:31  5-MIN KMSN 272205Z 29004KT 10SM FEW040 26/18 A2984 940 62 2500 290/04 RMK AO2
14837KMSN MSN20010827161011208/27/01 16:10:31  5-MIN KMSN 272210Z 27007KT 240V300 10SM FEW040 27/19 A2983 940 62 2500 270/07 240V300 RMK AO2
14837KMSN MSN20010827161509608/27/01 16:15:31  5-MIN KMSN 272215Z VRB06KT 10SM FEW040 27/18 A2983 940 60 2500 VRB/06 RMK AO2
14837KMSN MSN20010827162009608/27/01 16:20:31  5-MIN KMSN 272220Z VRB04KT 10SM FEW040 26/18 A2983 950 62 2500 VRB/04 RMK AO2
14837KMSN MSN20010827162509608/27/01 16:25:31  5-MIN KMSN 272225Z 27007KT 10SM FEW040 26/18 A2983 950 62 2500 270/07 RMK AO2
14837KMSN MSN20010827163009608/27/01 16:30:31  5-MIN KMSN 272230Z VRB05KT 10SM FEW040 26/18 A2983 950 62 2500 VRB/05 RMK AO2
14837KMSN MSN20010827163509608/27/01 16:35:31  5-MIN KMSN 272235Z VRB05KT 10SM FEW040 26/18 A2983 950 62 2500 VRB/05 RMK AO2
14837KMSN MSN20010827164009608/27/01 16:40:31  5-MIN KMSN 272240Z VRB04KT 10SM FEW040 26/18 A2983 950 62 2500 VRB/04 RMK AO2
14837KMSN MSN20010827164509608/27/01 16:45:31  5-MIN KMSN 272245Z VRB04KT 10SM FEW040 26/18 A2983 950 62 2500 VRB/04 RMK AO2
14837KMSN MSN20010827165011308/27/01 16:50:31  5-MIN KMSN 272250Z 28004KT 10SM FEW040 26/18 A2983 950 62 2500 280/04 RMK AO2 SLP097 T02610183
14837KMSN MSN20010827165509308/27/01 16:55:31  5-MIN KMSN 272255Z VRB05KT 10SM CLR 26/18 A2983 950 62 2500 VRB/05 RMK AO2
14837KMSN MSN20010827170009308/27/01 17:00:31  5-MIN KMSN 272300Z 29004KT 10SM CLR 26/18 A2983 950 64 2400 290/04 RMK AO2
14837KMSN MSN20010827170509308/27/01 17:05:31  5-MIN KMSN 272305Z 28005KT 10SM CLR 26/18 A2983 950 61 2400 280/05 RMK AO2
14837KMSN MSN20010827171009308/27/01 17:10:31  5-MIN KMSN 272310Z VRB04KT 10SM CLR 26/18 A2983 950 64 2400 VRB/04 RMK AO2
14837KMSN MSN20010827171509608/27/01 17:15:31  5-MIN KMSN 272315Z VRB04KT 10SM FEW040 26/18 A2983 950 64 2400 VRB/04 RMK AO2
14837KMSN MSN20010827172009608/27/01 17:20:31  5-MIN KMSN 272320Z 27004KT 10SM FEW040 26/18 A2983 950 64 2400 270/04 RMK AO2
14837KMSN MSN20010827172509608/27/01 17:25:31  5-MIN KMSN 272325Z 28003KT 10SM FEW040 26/18 A2983 950 64 2400 280/03 RMK AO2
14837KMSN MSN20010827173009608/27/01 17:30:31  5-MIN KMSN 272330Z 27005KT 10SM FEW040 25/18 A2983 940 66 2400 270/05 RMK AO2
14837KMSN MSN20010827173509608/27/01 17:35:31  5-MIN KMSN 272335Z 27003KT 10SM FEW040 25/18 A2984 940 66 2400 270/03 RMK AO2
14837KMSN MSN20010827174009608/27/01 17:40:31  5-MIN KMSN 272340Z 25003KT 10SM FEW040 25/18 A2983 940 66 2400 250/03 RMK AO2
14837KMSN MSN20010827174509608/27/01 17:45:31  5-MIN KMSN 272345Z VRB03KT 10SM FEW040 24/19 A2983 940 71 2300 VRB/03 RMK AO2
14837KMSN MSN20010827175013108/27/01 17:50:31  5-MIN KMSN 272350Z 27003KT 10SM FEW040 25/19 A2984 940 68 2400 270/03 RMK AO2 SLP099 T02500189 10267 20244 58006
14837KMSN MSN20010827175509608/27/01 17:55:31  5-MIN KMSN 272355Z 27003KT 10SM SCT050 25/19 A2984 940 68 2400 270/03 RMK AO2
14837KMSN MSN20010827180010308/27/01 18:00:31  5-MIN KMSN 280000Z 00000KT 10SM FEW045 SCT050 24/19 A2984 940 71 2300 000/00 RMK AO2
14837KMSN MSN20010827180509608/27/01 18:05:31  5-MIN KMSN 280005Z 26003KT 10SM FEW045 24/19 A2984 940 71 2300 260/03 RMK AO2
14837KMSN MSN20010827181009608/27/01 18:10:31  5-MIN KMSN 280010Z VRB03KT 10SM FEW049 24/19 A2984 940 71 2300 VRB/03 RMK AO2
14837KMSN MSN20010827181509608/27/01 18:15:31  5-MIN KMSN 280015Z VRB04KT 10SM FEW049 24/19 A2984 940 73 2200 VRB/04 RMK AO2
14837KMSN MSN20010827182009608/27/01 18:20:31  5-MIN KMSN 280020Z VRB04KT 10SM FEW045 24/19 A2984 940 73 2200 VRB/04 RMK AO2
14837KMSN MSN20010827182509308/27/01 18:25:31  5-MIN KMSN 280025Z VRB04KT 10SM CLR 24/19 A2984 940 73 2200 VRB/04 RMK AO2
14837KMSN MSN20010827183009308/27/01 18:30:31  5-MIN KMSN 280030Z 26004KT 10SM CLR 24/19 A2984 940 73 2200 260/04 RMK AO2
14837KMSN MSN20010827183509608/27/01 18:35:31  5-MIN KMSN 280035Z VRB03KT 10SM FEW050 24/19 A2984 940 73 2200 VRB/03 RMK AO2
14837KMSN MSN20010827184009608/27/01 18:40:31  5-MIN KMSN 280040Z 26003KT 10SM FEW050 23/19 A2984 940 76 2200 260/03 RMK AO2
14837KMSN MSN20010827184509608/27/01 18:45:31  5-MIN KMSN 280045Z 26003KT 10SM FEW050 23/19 A2984 940 76 2200 260/03 RMK AO2
14837KMSN MSN20010827185011308/27/01 18:50:31  5-MIN KMSN 280050Z 25004KT 10SM FEW050 23/19 A2984 940 76 2200 250/04 RMK AO2 SLP101 T02330189
14837KMSN MSN20010827185509308/27/01 18:55:31  5-MIN KMSN 280055Z 26003KT 10SM CLR 23/19 A2984 940 78 2100 260/03 RMK AO2
14837KMSN MSN20010827190009308/27/01 19:00:31  5-MIN KMSN 280100Z 29003KT 10SM CLR 23/19 A2985 930 78 2100 280/03 RMK AO2
14837KMSN MSN20010827190509308/27/01 19:05:31  5-MIN KMSN 280105Z VRB03KT 10SM CLR 23/19 A2985 930 78 2100 VRB/03 RMK AO2
14837KMSN MSN20010827191009308/27/01 19:10:31  5-MIN KMSN 280110Z 29003KT 10SM CLR 23/19 A2985 930 78 2100 290/03 RMK AO2
14837KMSN MSN20010827191509308/27/01 19:15:31  5-MIN KMSN 280115Z 29005KT 10SM CLR 23/19 A2985 930 78 2100 290/05 RMK AO2
14837KMSN MSN20010827192009308/27/01 19:20:31  5-MIN KMSN 280120Z 30003KT 10SM CLR 22/19 A2986 920 81 2000 300/03 RMK AO2
14837KMSN MSN20010827192509308/27/01 19:25:31  5-MIN KMSN 280125Z 31004KT 10SM CLR 22/19 A2986 920 81 2000 300/04 RMK AO2
14837KMSN MSN20010827193009308/27/01 19:30:31  5-MIN KMSN 280130Z 31005KT 10SM CLR 22/18 A2986 920 78 2000 310/05 RMK AO2
14837KMSN MSN20010827193509308/27/01 19:35:31  5-MIN KMSN 280135Z 33005KT 10SM CLR 22/18 A2987 910 78 2000 330/05 RMK AO2
14837KMSN MSN20010827194009308/27/01 19:40:31  5-MIN KMSN 280140Z 32005KT 10SM CLR 22/18 A2987 910 78 2000 320/05 RMK AO2
14837KMSN MSN20010827194509308/27/01 19:45:31  5-MIN KMSN 280145Z 32006KT 10SM CLR 22/18 A2987 910 78 2000 320/06 RMK AO2
14837KMSN MSN20010827195011308/27/01 19:50:31  5-MIN KMSN 280150Z 33005KT 10SM FEW050 22/18 A2987 910 75 2000 330/05 RMK AO2 SLP112 T02220178
14837KMSN MSN20010827195509308/27/01 19:55:31  5-MIN KMSN 280155Z 33006KT 10SM CLR 22/18 A2988 900 75 2000 320/06 RMK AO2
14837KMSN MSN20010827200009308/27/01 20:00:31  5-MIN KMSN 280200Z 32006KT 10SM CLR 22/18 A2988 900 75 2000 320/06 RMK AO2
14837KMSN MSN20010827200509308/27/01 20:05:31  5-MIN KMSN 280205Z 32006KT 10SM CLR 22/18 A2988 900 78 1900 320/06 RMK AO2
14837KMSN MSN20010827201009308/27/01 20:10:31  5-MIN KMSN 280210Z 32006KT 10SM CLR 22/18 A2988 900 78 1900 320/06 RMK AO2
14837KMSN MSN20010827201509308/27/01 20:15:31  5-MIN KMSN 280215Z 32006KT 10SM CLR 22/17 A2988 900 75 1900 320/06 RMK AO2
14837KMSN MSN20010827202009308/27/01 20:20:31  5-MIN KMSN 280220Z 33006KT 10SM CLR 22/17 A2988 900 75 1900 320/06 RMK AO2
14837KMSN MSN20010827202509308/27/01 20:25:31  5-MIN KMSN 280225Z 33006KT 10SM CLR 22/17 A2988 900 75 1900 330/06 RMK AO2
14837KMSN MSN20010827203009308/27/01 20:30:31  5-MIN KMSN 280230Z 32005KT 10SM CLR 21/17 A2988 900 78 1900 320/05 RMK AO2
14837KMSN MSN20010827203509308/27/01 20:35:31  5-MIN KMSN 280235Z 33005KT 10SM CLR 21/17 A2989 900 78 1900 320/05 RMK AO2
14837KMSN MSN20010827204009308/27/01 20:40:31  5-MIN KMSN 280240Z 33006KT 10SM CLR 21/17 A2989 900 75 1900 330/06 RMK AO2
14837KMSN MSN20010827204509308/27/01 20:45:31  5-MIN KMSN 280245Z 33006KT 10SM CLR 22/17 A2989 900 73 1900 330/06 RMK AO2
14837KMSN MSN20010827205011908/27/01 20:50:31  5-MIN KMSN 280250Z 34007KT 10SM FEW050 21/16 A2989 890 73 1900 340/07 RMK AO2 SLP116 T02110161 55002
14837KMSN MSN20010827205509308/27/01 20:55:31  5-MIN KMSN 280255Z 34005KT 10SM CLR 21/16 A2989 890 73 1900 340/05 RMK AO2
14837KMSN MSN20010827210009308/27/01 21:00:31  5-MIN KMSN 280300Z 33005KT 10SM CLR 21/16 A2989 890 73 1800 330/05 RMK AO2
14837KMSN MSN20010827210509308/27/01 21:05:31  5-MIN KMSN 280305Z 33005KT 10SM CLR 21/16 A2989 890 75 1800 330/05 RMK AO2
14837KMSN MSN20010827211009308/27/01 21:10:31  5-MIN KMSN 280310Z 33005KT 10SM CLR 21/16 A2989 890 75 1800 330/05 RMK AO2
14837KMSN MSN20010827211509308/27/01 21:15:31  5-MIN KMSN 280315Z 33004KT 10SM CLR 21/16 A2989 890 75 1800 330/04 RMK AO2
14837KMSN MSN20010827212009308/27/01 21:20:31  5-MIN KMSN 280320Z 33004KT 10SM CLR 20/16 A2989 890 75 1700 330/04 RMK AO2
14837KMSN MSN20010827212509308/27/01 21:25:31  5-MIN KMSN 280325Z 33005KT 10SM CLR 21/16 A2989 890 73 1800 330/05 RMK AO2
14837KMSN MSN20010827213009308/27/01 21:30:31  5-MIN KMSN 280330Z 34005KT 10SM CLR 21/16 A2989 890 73 1800 330/05 RMK AO2
14837KMSN MSN20010827213509308/27/01 21:35:31  5-MIN KMSN 280335Z 34005KT 10SM CLR 21/15 A2989 890 70 1800 340/05 RMK AO2
14837KMSN MSN20010827214009308/27/01 21:40:31  5-MIN KMSN 280340Z 34004KT 10SM CLR 19/15 A2989 890 75 1700 340/04 RMK AO2
14837KMSN MSN20010827214509308/27/01 21:45:31  5-MIN KMSN 280345Z 34005KT 10SM CLR 19/15 A2989 890 78 1600 340/05 RMK AO2
14837KMSN MSN20010827215011008/27/01 21:50:31  5-MIN KMSN 280350Z 34005KT 10SM CLR 19/15 A2989 890 75 1700 340/05 RMK AO2 SLP118 T01940150
14837KMSN MSN20010827215509308/27/01 21:55:31  5-MIN KMSN 280355Z 34005KT 10SM CLR 19/15 A2989 890 78 1600 340/05 RMK AO2
14837KMSN MSN20010827220009308/27/01 22:00:31  5-MIN KMSN 280400Z 34005KT 10SM CLR 19/15 A2989 890 78 1600 340/05 RMK AO2
14837KMSN MSN20010827220509308/27/01 22:05:31  5-MIN KMSN 280405Z 33005KT 10SM CLR 19/14 A2989 890 72 1700 330/05 RMK AO2
14837KMSN MSN20010827221009308/27/01 22:10:31  5-MIN KMSN 280410Z 34005KT 10SM CLR 19/14 A2989 890 75 1600 330/05 RMK AO2
14837KMSN MSN20010827221509308/27/01 22:15:31  5-MIN KMSN 280415Z 34005KT 10SM CLR 19/14 A2990 890 75 1600 340/05 RMK AO2
14837KMSN MSN20010827222009308/27/01 22:20:31  5-MIN KMSN 280420Z 34006KT 10SM CLR 19/14 A2990 880 75 1600 340/06 RMK AO2
14837KMSN MSN20010827222509308/27/01 22:25:31  5-MIN KMSN 280425Z 34005KT 10SM CLR 19/14 A2990 880 75 1600 340/05 RMK AO2
14837KMSN MSN20010827223009608/27/01 22:30:31  5-MIN KMSN 280430Z 33005KT 10SM SCT065 19/14 A2990 880 75 1600 330/05 RMK AO2
14837KMSN MSN20010827223509608/27/01 22:35:31  5-MIN KMSN 280435Z 33005KT 10SM BKN065 19/14 A2990 880 75 1600 330/05 RMK AO2
14837KMSN MSN20010827224009608/27/01 22:40:31  5-MIN KMSN 280440Z 34005KT 10SM BKN065 19/14 A2990 880 75 1600 340/05 RMK AO2
14837KMSN MSN20010827224509608/27/01 22:45:31  5-MIN KMSN 280445Z 33005KT 10SM BKN065 19/14 A2991 880 75 1600 330/05 RMK AO2
14837KMSN MSN20010827225011308/27/01 22:50:31  5-MIN KMSN 280450Z 33005KT 10SM BKN065 19/14 A2991 880 75 1600 330/05 RMK AO2 SLP123 T01890144
14837KMSN MSN20010827225509608/27/01 22:55:31  5-MIN KMSN 280455Z 33005KT 10SM OVC065 19/14 A2991 870 75 1600 330/05 RMK AO2
14837KMSN MSN20010827230009608/27/01 23:00:31  5-MIN KMSN 280500Z 33005KT 10SM OVC065 19/14 A2991 870 75 1600 330/05 RMK AO2
14837KMSN MSN20010827230509608/27/01 23:05:31  5-MIN KMSN 280505Z 32005KT 10SM OVC065 19/14 A2992 870 75 1600 320/05 RMK AO2
14837KMSN MSN20010827231009608/27/01 23:10:31  5-MIN KMSN 280510Z 32006KT 10SM OVC065 19/14 A2992 870 75 1600 320/06 RMK AO2
14837KMSN MSN20010827231509608/27/01 23:15:31  5-MIN KMSN 280515Z 32005KT 10SM OVC070 19/14 A2992 870 75 1600 320/05 RMK AO2
14837KMSN MSN20010827232009608/27/01 23:20:31  5-MIN KMSN 280520Z 32005KT 10SM OVC070 19/14 A2992 870 75 1600 320/05 RMK AO2
14837KMSN MSN20010827232509608/27/01 23:25:31  5-MIN KMSN 280525Z 32006KT 10SM OVC070 19/14 A2992 860 75 1600 320/06 RMK AO2
14837KMSN MSN20010827233009608/27/01 23:30:31  5-MIN KMSN 280530Z 32006KT 10SM OVC070 18/14 A2992 860 78 1500 320/06 RMK AO2
14837KMSN MSN20010827233509608/27/01 23:35:31  5-MIN KMSN 280535Z 32006KT 10SM BKN070 18/14 A2992 860 81 1400 320/06 RMK AO2
14837KMSN MSN20010827234009608/27/01 23:40:31  5-MIN KMSN 280540Z 32006KT 10SM BKN070 18/14 A2992 860 81 1400 320/06 RMK AO2
14837KMSN MSN20010827234509608/27/01 23:45:31  5-MIN KMSN 280545Z 32005KT 10SM SCT070 18/14 A2992 860 78 1400 320/05 RMK AO2
14837KMSN MSN20010827235014108/27/01 23:50:31  5-MIN KMSN 280550Z 32005KT 10SM FEW070 18/14 A2992 870 78 1400 320/05 RMK AO2 SLP127 T01780139 10250 20178 402670172 53017
14837KMSN MSN20010827235509608/27/01 23:55:31  5-MIN KMSN 280555Z 32005KT 10SM FEW070 18/14 A2992 870 78 1400 320/05 RMK AO2
14837KMSN MSN20010828000009608/28/01 00:00:31  5-MIN KMSN 280600Z 32005KT 10SM FEW070 17/14 A2992 870 80 1400 320/05 RMK AO2
14837KMSN MSN20010828000509308/28/01 00:05:31  5-MIN KMSN 280605Z 32006KT 10SM CLR 18/14 A2992 870 78 1400 320/06 RMK AO2
14837KMSN MSN20010828001009308/28/01 00:10:31  5-MIN KMSN 280610Z 32005KT 10SM CLR 17/14 A2992 870 80 1400 320/05 RMK AO2
14837KMSN MSN20010828001509308/28/01 00:15:31  5-MIN KMSN 280615Z 32005KT 10SM CLR 17/14 A2992 870 80 1400 320/05 RMK AO2
14837KMSN MSN20010828002009308/28/01 00:20:31  5-MIN KMSN 280620Z 32004KT 10SM CLR 17/14 A2992 870 80 1400 320/04 RMK AO2
14837KMSN MSN20010828002509308/28/01 00:25:31  5-MIN KMSN 280625Z 32004KT 10SM CLR 17/14 A2992 870 83 1300 320/04 RMK AO2
14837KMSN MSN20010828003009308/28/01 00:30:31  5-MIN KMSN 280630Z 32003KT 10SM CLR 17/14 A2992 870 83 1300 320/03 RMK AO2
14837KMSN MSN20010828003509308/28/01 00:35:31  5-MIN KMSN 280635Z 31003KT 10SM CLR 17/14 A2992 870 83 1300 310/03 RMK AO2
14837KMSN MSN20010828004009308/28/01 00:40:31  5-MIN KMSN 280640Z 00000KT 10SM CLR 16/13 A2992 870 83 1200 000/00 RMK AO2
14837KMSN MSN20010828004509308/28/01 00:45:31  5-MIN KMSN 280645Z 00000KT 10SM CLR 16/13 A2992 870 86 1200 000/00 RMK AO2
14837KMSN MSN20010828005011008/28/01 00:50:31  5-MIN KMSN 280650Z 00000KT 10SM CLR 16/13 A2992 870 86 1200 000/00 RMK AO2 SLP127 T01560133
14837KMSN MSN20010828005509308/28/01 00:55:31  5-MIN KMSN 280655Z 32004KT 10SM CLR 15/14 A2992 870 93 1100 320/04 RMK AO2
14837KMSN MSN20010828010009308/28/01 01:00:31  5-MIN KMSN 280700Z VRB04KT 10SM CLR 15/13 A2992 860 90 1100 VRB/04 RMK AO2
14837KMSN MSN20010828010509308/28/01 01:05:31  5-MIN KMSN 280705Z VRB03KT 10SM CLR 16/13 A2992 860 86 1200 VRB/03 RMK AO2
14837KMSN MSN20010828011009308/28/01 01:10:31  5-MIN KMSN 280710Z 32003KT 10SM CLR 16/13 A2992 860 86 1200 320/03 RMK AO2
14837KMSN MSN20010828011509308/28/01 01:15:31  5-MIN KMSN 280715Z 32003KT 10SM CLR 15/13 A2993 860 90 1100 320/03 RMK AO2
14837KMSN MSN20010828012009308/28/01 01:20:31  5-MIN KMSN 280720Z 32003KT 10SM CLR 15/13 A2993 860 90 1100 320/03 RMK AO2
14837KMSN MSN20010828012509308/28/01 01:25:31  5-MIN KMSN 280725Z 32003KT 10SM CLR 16/13 A2993 860 86 1200 310/03 RMK AO2
14837KMSN MSN20010828013009308/28/01 01:30:31  5-MIN KMSN 280730Z 31003KT 10SM CLR 15/14 A2993 860 93 1100 310/03 RMK AO2
14837KMSN MSN20010828013509308/28/01 01:35:31  5-MIN KMSN 280735Z 30003KT 10SM CLR 15/13 A2993 850 90 1100 300/03 RMK AO2
14837KMSN MSN20010828014009308/28/01 01:40:31  5-MIN KMSN 280740Z 31003KT 10SM CLR 15/14 A2993 850 93 1100 310/03 RMK AO2
14837KMSN MSN20010828014509308/28/01 01:45:31  5-MIN KMSN 280745Z 00000KT 10SM CLR 15/13 A2993 850 90 1100 000/00 RMK AO2
14837KMSN MSN20010828015011008/28/01 01:50:31  5-MIN KMSN 280750Z 00000KT 10SM CLR 14/13 A2994 850 93 1000 000/00 RMK AO2 SLP134 T01440133
14837KMSN MSN20010828015509308/28/01 01:55:31  5-MIN KMSN 280755Z 00000KT 10SM CLR 14/13 A2994 850 93 1000 000/00 RMK AO2
14837KMSN MSN20010828020009308/28/01 02:00:31  5-MIN KMSN 280800Z 30003KT 10SM CLR 14/13 A2994 850 90 1000 300/03 RMK AO2
14837KMSN MSN20010828020509308/28/01 02:05:31  5-MIN KMSN 280805Z 30003KT 10SM CLR 14/13 A2994 850 96 1000 300/03 RMK AO2
14837KMSN MSN20010828021009208/28/01 02:10:31  5-MIN KMSN 280810Z 00000KT 10SM CLR 14/13 A2994 840 93 900 000/00 RMK AO2
14837KMSN MSN20010828021509208/28/01 02:15:31  5-MIN KMSN 280815Z 00000KT 10SM CLR 14/13 A2995 840 96 900 000/00 RMK AO2
14837KMSN MSN20010828022009208/28/01 02:20:31  5-MIN KMSN 280820Z 00000KT 10SM CLR 14/13 A2995 840 96 900 000/00 RMK AO2
14837KMSN MSN20010828022509208/28/01 02:25:31  5-MIN KMSN 280825Z 00000KT 10SM CLR 14/13 A2995 840 96 900 000/00 RMK AO2
14837KMSN MSN20010828023009208/28/01 02:30:31  5-MIN KMSN 280830Z 00000KT 10SM CLR 14/13 A2995 840 96 900 000/00 RMK AO2
14837KMSN MSN20010828023509208/28/01 02:35:31  5-MIN KMSN 280835Z 00000KT 10SM CLR 13/13 A2995 840 96 900 000/00 RMK AO2
14837KMSN MSN20010828024009208/28/01 02:40:31  5-MIN KMSN 280840Z 00000KT 10SM CLR 13/13 A2995 840 96 900 000/00 RMK AO2
14837KMSN MSN20010828024509208/28/01 02:45:31  5-MIN KMSN 280845Z 00000KT 10SM CLR 13/13 A2995 840 96 900 000/00 RMK AO2
14837KMSN MSN20010828025011508/28/01 02:50:31  5-MIN KMSN 280850Z 33003KT 10SM CLR 14/13 A2995 830 93 900 330/03 RMK AO2 SLP140 T01390128 53010
14837KMSN MSN20010828025509208/28/01 02:55:31  5-MIN KMSN 280855Z 00000KT 10SM CLR 14/13 A2995 830 93 900 000/00 RMK AO2
14837KMSN MSN20010828030009208/28/01 03:00:31  5-MIN KMSN 280900Z 00000KT 10SM CLR 14/13 A2996 830 93 900 000/00 RMK AO2
14837KMSN MSN20010828030509208/28/01 03:05:31  5-MIN KMSN 280905Z 32003KT 10SM CLR 14/13 A2996 830 93 900 320/03 RMK AO2
14837KMSN MSN20010828031009208/28/01 03:10:31  5-MIN KMSN 280910Z 32003KT 10SM CLR 14/13 A2996 830 93 900 320/03 RMK AO2
14837KMSN MSN20010828031509208/28/01 03:15:31  5-MIN KMSN 280915Z 33003KT 10SM CLR 14/13 A2996 830 93 900 330/03 RMK AO2
14837KMSN MSN20010828032009208/28/01 03:20:31  5-MIN KMSN 280920Z 33003KT 10SM CLR 14/13 A2996 830 93 900 330/03 RMK AO2
14837KMSN MSN20010828032509208/28/01 03:25:31  5-MIN KMSN 280925Z 33003KT 10SM CLR 13/13 A2996 830 96 900 330/03 RMK AO2
14837KMSN MSN20010828033009208/28/01 03:30:31  5-MIN KMSN 280930Z 33003KT 10SM CLR 13/13 A2996 830 96 900 330/03 RMK AO2
14837KMSN MSN20010828033509208/28/01 03:35:31  5-MIN KMSN 280935Z 00000KT 10SM CLR 13/13 A2996 830 96 900 000/00 RMK AO2
14837KMSN MSN20010828034009208/28/01 03:40:31  5-MIN KMSN 280940Z 00000KT 10SM CLR 13/13 A2996 820 96 900 000/00 RMK AO2
14837KMSN MSN20010828034509208/28/01 03:45:31  5-MIN KMSN 280945Z 32003KT 10SM CLR 13/12 A2996 820 89 900 320/03 RMK AO2
14837KMSN MSN20010828035010908/28/01 03:50:31  5-MIN KMSN 280950Z 00000KT 10SM CLR 13/12 A2997 820 89 900 000/00 RMK AO2 SLP144 T01330117
14837KMSN MSN20010828035509208/28/01 03:55:31  5-MIN KMSN 280955Z 00000KT 10SM CLR 13/12 A2997 820 89 900 000/00 RMK AO2
14837KMSN MSN20010828040009208/28/01 04:00:31  5-MIN KMSN 281000Z 00000KT 10SM CLR 13/12 A2997 820 93 900 000/00 RMK AO2
14837KMSN MSN20010828040509208/28/01 04:05:31  5-MIN KMSN 281005Z 00000KT 10SM CLR 13/12 A2997 820 93 900 000/00 RMK AO2
14837KMSN MSN20010828041009208/28/01 04:10:31  5-MIN KMSN 281010Z 00000KT 10SM CLR 13/12 A2997 820 93 900 000/00 RMK AO2
14837KMSN MSN20010828041509208/28/01 04:15:31  5-MIN KMSN 281015Z 00000KT 10SM CLR 13/12 A2997 820 93 900 000/00 RMK AO2
14837KMSN MSN20010828042009208/28/01 04:20:31  5-MIN KMSN 281020Z 35003KT 10SM CLR 13/12 A2997 820 96 800 350/03 RMK AO2
14837KMSN MSN20010828042509208/28/01 04:25:31  5-MIN KMSN 281025Z 34003KT 10SM CLR 12/12 A2997 820 96 700 340/03 RMK AO2
14837KMSN MSN20010828043009208/28/01 04:30:31  5-MIN KMSN 281030Z 34003KT 10SM CLR 12/12 A2997 820 96 700 340/03 RMK AO2
14837KMSN MSN20010828043509208/28/01 04:35:31  5-MIN KMSN 281035Z 34003KT 10SM CLR 12/12 A2997 820 96 700 340/03 RMK AO2
14837KMSN MSN20010828044009208/28/01 04:40:31  5-MIN KMSN 281040Z 00000KT 10SM CLR 13/12 A2997 820 96 800 000/00 RMK AO2
14837KMSN MSN20010828044509208/28/01 04:45:31  5-MIN KMSN 281045Z 00000KT 10SM CLR 13/12 A2997 820 96 800 000/00 RMK AO2
14837KMSN MSN20010828045010908/28/01 04:50:31  5-MIN KMSN 281050Z 00000KT 10SM CLR 13/12 A2998 810 93 800 000/00 RMK AO2 SLP148 T01280117
14837KMSN MSN20010828045509208/28/01 04:55:31  5-MIN KMSN 281055Z 00000KT 10SM CLR 13/12 A2998 810 93 800 000/00 RMK AO2
14837KMSN MSN20010828050009208/28/01 05:00:31  5-MIN KMSN 281100Z 00000KT 10SM CLR 13/12 A2998 810 93 800 000/00 RMK AO2
14837KMSN MSN20010828050509208/28/01 05:05:31  5-MIN KMSN 281105Z 00000KT 10SM CLR 13/12 A2998 810 93 800 000/00 RMK AO2
14837KMSN MSN20010828051009208/28/01 05:10:31  5-MIN KMSN 281110Z 00000KT 10SM CLR 13/12 A2998 810 93 800 000/00 RMK AO2
14837KMSN MSN20010828051509208/28/01 05:15:31  5-MIN KMSN 281115Z 00000KT 10SM CLR 13/12 A2999 800 93 800 000/00 RMK AO2
14837KMSN MSN20010828052009208/28/01 05:20:31  5-MIN KMSN 281120Z 00000KT 10SM CLR 12/12 A2999 800 96 700 000/00 RMK AO2
14837KMSN MSN20010828052509208/28/01 05:25:31  5-MIN KMSN 281125Z 00000KT 10SM CLR 12/12 A2999 800 96 700 000/00 RMK AO2
14837KMSN MSN20010828053009208/28/01 05:30:31  5-MIN KMSN 281130Z 00000KT 10SM CLR 12/12 A2999 800 96 700 000/00 RMK AO2
14837KMSN MSN20010828053509208/28/01 05:35:31  5-MIN KMSN 281135Z 00000KT 10SM CLR 12/12 A3000 790 96 700 000/00 RMK AO2
14837KMSN MSN20010828054009108/28/01 05:40:31  5-MIN KMSN 281140Z 00000KT 9SM CLR 12/12 A3000 790 96 700 000/00 RMK AO2
14837KMSN MSN20010828054509108/28/01 05:45:31  5-MIN KMSN 281145Z 00000KT 8SM CLR 12/12 A3000 790 96 700 000/00 RMK AO2
14837KMSN MSN20010828055012708/28/01 05:50:31  5-MIN KMSN 281150Z 00000KT 10SM CLR 12/12 A3000 790 96 700 000/00 RMK AO2 SLP156 T01220117 10178 20122 53011
14837KMSN MSN20010828055509108/28/01 05:55:31  5-MIN KMSN 281155Z 00000KT 9SM CLR 13/12 A3000 790 96 800 000/00 RMK AO2
14837KMSN MSN20010828060009208/28/01 06:00:31  5-MIN KMSN 281200Z 00000KT 10SM CLR 13/12 A3000 790 96 800 000/00 RMK AO2
14837KMSN MSN20010828060509208/28/01 06:05:31  5-MIN KMSN 281205Z 01003KT 10SM CLR 13/12 A3000 790 93 800 010/03 RMK AO2
14837KMSN MSN20010828061009208/28/01 06:10:31  5-MIN KMSN 281210Z 36003KT 10SM CLR 13/12 A3000 790 93 800 360/03 RMK AO2
14837KMSN MSN20010828061509208/28/01 06:15:31  5-MIN KMSN 281215Z 36003KT 10SM CLR 13/12 A3001 790 93 800 350/03 RMK AO2
14837KMSN MSN20010828062009208/28/01 06:20:31  5-MIN KMSN 281220Z 00000KT 10SM CLR 14/13 A3001 790 93 900 000/00 RMK AO2
14837KMSN MSN20010828062509208/28/01 06:25:31  5-MIN KMSN 281225Z 36003KT 10SM CLR 14/12 A3001 780 86 900 360/03 RMK AO2
14837KMSN MSN20010828063009308/28/01 06:30:31  5-MIN KMSN 281230Z 00000KT 10SM CLR 15/12 A3001 780 83 1000 000/00 RMK AO2
14837KMSN MSN20010828063509308/28/01 06:35:31  5-MIN KMSN 281235Z 36004KT 10SM CLR 15/12 A3001 780 83 1000 360/04 RMK AO2
14837KMSN MSN20010828064009308/28/01 06:40:31  5-MIN KMSN 281240Z 01004KT 10SM CLR 15/13 A3001 780 86 1000 010/04 RMK AO2
14837KMSN MSN20010828064509308/28/01 06:45:31  5-MIN KMSN 281245Z 36004KT 10SM CLR 16/13 A3001 780 83 1100 360/04 RMK AO2
14837KMSN MSN20010828065011008/28/01 06:50:31  5-MIN KMSN 281250Z 00000KT 10SM CLR 16/13 A3001 780 83 1100 000/00 RMK AO2 SLP160 T01560128
14837KMSN MSN20010828065509308/28/01 06:55:31  5-MIN KMSN 281255Z 36004KT 10SM CLR 16/13 A3001 780 80 1100 360/04 RMK AO2
14837KMSN MSN20010828070009308/28/01 07:00:31  5-MIN KMSN 281300Z 01004KT 10SM CLR 16/13 A3002 780 83 1100 010/04 RMK AO2
14837KMSN MSN20010828070509308/28/01 07:05:31  5-MIN KMSN 281305Z 36005KT 10SM CLR 16/13 A3002 770 80 1100 360/05 RMK AO2
14837KMSN MSN20010828071009308/28/01 07:10:31  5-MIN KMSN 281310Z 36004KT 10SM CLR 17/13 A3002 770 77 1200 360/04 RMK AO2
14837KMSN MSN20010828071509308/28/01 07:15:31  5-MIN KMSN 281315Z 36004KT 10SM CLR 17/13 A3002 770 78 1300 360/04 RMK AO2
14837KMSN MSN20010828072009308/28/01 07:20:31  5-MIN KMSN 281320Z 36005KT 10SM CLR 17/13 A3002 770 78 1300 360/05 RMK AO2
14837KMSN MSN20010828072509308/28/01 07:25:31  5-MIN KMSN 281325Z 36004KT 10SM CLR 17/13 A3002 770 78 1300 360/04 RMK AO2
14837KMSN MSN20010828073009308/28/01 07:30:31  5-MIN KMSN 281330Z 36004KT 10SM CLR 18/13 A3002 770 75 1300 360/04 RMK AO2
14837KMSN MSN20010828073509308/28/01 07:35:31  5-MIN KMSN 281335Z 36003KT 10SM CLR 18/13 A3002 770 75 1300 360/03 RMK AO2
14837KMSN MSN20010828074009308/28/01 07:40:31  5-MIN KMSN 281340Z 01004KT 10SM CLR 18/13 A3002 770 75 1300 010/04 RMK AO2
14837KMSN MSN20010828074509308/28/01 07:45:31  5-MIN KMSN 281345Z 36003KT 10SM CLR 18/13 A3002 770 72 1400 360/03 RMK AO2
14837KMSN MSN20010828075011008/28/01 07:50:31  5-MIN KMSN 281350Z 36003KT 10SM CLR 18/13 A3002 770 72 1400 360/03 RMK AO2 SLP163 T01830133
14837KMSN MSN20010828075509308/28/01 07:55:31  5-MIN KMSN 281355Z 00000KT 10SM CLR 18/13 A3002 770 70 1400 000/00 RMK AO2
14837KMSN MSN20010828080009308/28/01 08:00:31  5-MIN KMSN 281400Z 00000KT 10SM CLR 19/13 A3002 770 70 1400 000/00 RMK AO2
14837KMSN MSN20010828080509308/28/01 08:05:31  5-MIN KMSN 281405Z 00000KT 10SM CLR 19/14 A3002 770 70 1500 000/00 RMK AO2
14837KMSN MSN20010828081009308/28/01 08:10:31  5-MIN KMSN 281410Z 00000KT 10SM CLR 20/13 A3002 770 65 1600 000/00 RMK AO2
14837KMSN MSN20010828081509308/28/01 08:15:31  5-MIN KMSN 281415Z 06004KT 10SM CLR 20/13 A3002 770 65 1600 060/04 RMK AO2
14837KMSN MSN20010828082009308/28/01 08:20:31  5-MIN KMSN 281420Z 05004KT 10SM CLR 20/13 A3002 770 63 1600 050/04 RMK AO2
14837KMSN MSN20010828082509308/28/01 08:25:31  5-MIN KMSN 281425Z 06003KT 10SM CLR 20/13 A3003 770 65 1600 060/03 RMK AO2
14837KMSN MSN20010828083009308/28/01 08:30:31  5-MIN KMSN 281430Z 00000KT 10SM CLR 20/13 A3003 770 65 1600 000/00 RMK AO2
14837KMSN MSN20010828083509308/28/01 08:35:31  5-MIN KMSN 281435Z 00000KT 10SM CLR 21/13 A3003 770 63 1600 000/00 RMK AO2
14837KMSN MSN20010828084009308/28/01 08:40:31  5-MIN KMSN 281440Z 00000KT 10SM CLR 21/14 A3003 770 65 1600 000/00 RMK AO2
14837KMSN MSN20010828084509308/28/01 08:45:31  5-MIN KMSN 281445Z 00000KT 10SM CLR 21/14 A3003 770 63 1700 000/00 RMK AO2
14837KMSN MSN20010828085011608/28/01 08:50:31  5-MIN KMSN 281450Z VRB03KT 10SM CLR 21/14 A3003 770 63 1700 VRB/03 RMK AO2 SLP164 T02110139 53015
14837KMSN MSN20010828085509308/28/01 08:55:31  5-MIN KMSN 281455Z VRB03KT 10SM CLR 21/14 A3003 760 63 1700 VRB/03 RMK AO2
14837KMSN MSN20010828090009308/28/01 09:00:31  5-MIN KMSN 281500Z 00000KT 10SM CLR 21/14 A3003 770 63 1700 000/00 RMK AO2
14837KMSN MSN20010828090509308/28/01 09:05:31  5-MIN KMSN 281505Z 00000KT 10SM CLR 22/14 A3003 770 63 1800 000/00 RMK AO2
14837KMSN MSN20010828143009808/28/01 14:30:31  5-MIN KMSN 282030Z VRB04KT 10SM FEW050 26/11 A3002 770 37 2300 VRB/04 RMK AO2 $
14837KMSN MSN20010828143509808/28/01 14:35:31  5-MIN KMSN 282035Z 06004KT 10SM FEW050 26/11 A3002 770 38 2200 060/04 RMK AO2 $
14837KMSN MSN20010828144009808/28/01 14:40:31  5-MIN KMSN 282040Z 08004KT 10SM FEW050 26/10 A3002 770 36 2300 080/04 RMK AO2 $
14837KMSN MSN20010828144509808/28/01 14:45:31  5-MIN KMSN 282045Z 00000KT 10SM FEW050 26/10 A3002 770 36 2300 000/00 RMK AO2 $
14837KMSN MSN20010828145012108/28/01 14:50:31  5-MIN KMSN 282050Z 08004KT 10SM FEW055 26/11 A3002 770 37 2300 080/04 RMK AO2 SLP162 T02610106 50003 $
14837KMSN MSN20010828145509608/28/01 14:55:31  5-MIN KMSN 282055Z 05004KT 10SM FEW055 25/10 A3002 770 38 2100 040/04 RMK AO2
14837KMSN MSN20010828150009608/28/01 15:00:31  5-MIN KMSN 282100Z 00000KT 10SM FEW055 26/11 A3002 770 38 2200 000/00 RMK AO2
14837KMSN MSN20010828150509608/28/01 15:05:31  5-MIN KMSN 282105Z 00000KT 10SM FEW055 26/11 A3002 770 37 2300 000/00 RMK AO2
14837KMSN MSN20010828151009608/28/01 15:10:31  5-MIN KMSN 282110Z 00000KT 10SM FEW055 26/10 A3002 780 37 2200 000/00 RMK AO2
14837KMSN MSN20010828151509608/28/01 15:15:31  5-MIN KMSN 282115Z 24004KT 10SM FEW055 25/11 A3001 780 39 2200 240/04 RMK AO2
14837KMSN MSN20010828152009608/28/01 15:20:31  5-MIN KMSN 282120Z 00000KT 10SM FEW055 25/12 A3002 780 44 2100 000/00 RMK AO2
14837KMSN MSN20010828152509608/28/01 15:25:31  5-MIN KMSN 282125Z 00000KT 10SM FEW055 26/11 A3001 780 38 2300 000/00 RMK AO2
14837KMSN MSN20010828153009608/28/01 15:30:31  5-MIN KMSN 282130Z 08004KT 10SM FEW055 26/12 A3002 780 41 2300 080/04 RMK AO2
14837KMSN MSN20010828153509608/28/01 15:35:31  5-MIN KMSN 282135Z 03004KT 10SM FEW055 26/12 A3001 780 41 2300 030/04 RMK AO2
14837KMSN MSN20010828154009608/28/01 15:40:31  5-MIN KMSN 282140Z 00000KT 10SM FEW055 26/12 A3001 780 40 2300 000/00 RMK AO2
14837KMSN MSN20010828154509608/28/01 15:45:31  5-MIN KMSN 282145Z 00000KT 10SM FEW055 26/12 A3001 780 40 2300 000/00 RMK AO2
14837KMSN MSN20010828155011308/28/01 15:50:31  5-MIN KMSN 282150Z VRB03KT 10SM FEW055 26/12 A3001 780 41 2300 VRB/03 RMK AO2 SLP161 T02610122
14837KMSN MSN20010828155509308/28/01 15:55:31  5-MIN KMSN 282155Z 35003KT 10SM CLR 26/13 A3001 780 43 2300 350/03 RMK AO2
14837KMSN MSN20010828160009608/28/01 16:00:31  5-MIN KMSN 282200Z 35003KT 10SM FEW070 26/12 A3001 780 41 2300 350/03 RMK AO2
14837KMSN MSN20010828160509608/28/01 16:05:31  5-MIN KMSN 282205Z 31003KT 10SM FEW070 26/11 A3001 780 38 2300 310/03 RMK AO2
14837KMSN MSN20010828161009608/28/01 16:10:31  5-MIN KMSN 282210Z 00000KT 10SM FEW070 26/12 A3001 780 41 2200 000/00 RMK AO2
14837KMSN MSN20010828161509608/28/01 16:15:31  5-MIN KMSN 282215Z 08004KT 10SM FEW070 26/12 A3001 780 40 2300 080/04 RMK AO2
14837KMSN MSN20010828162009608/28/01 16:20:31  5-MIN KMSN 282220Z 03003KT 10SM FEW070 26/11 A3001 780 40 2200 030/03 RMK AO2
14837KMSN MSN20010828162509608/28/01 16:25:31  5-MIN KMSN 282225Z 00000KT 10SM FEW070 26/11 A3001 780 37 2300 000/00 RMK AO2
14837KMSN MSN20010828163009308/28/01 16:30:31  5-MIN KMSN 282230Z 00000KT 10SM CLR 26/11 A3001 780 38 2300 000/00 RMK AO2
14837KMSN MSN20010828163509308/28/01 16:35:31  5-MIN KMSN 282235Z 00000KT 10SM CLR 26/11 A3001 780 38 2300 000/00 RMK AO2
14837KMSN MSN20010828164009308/28/01 16:40:31  5-MIN KMSN 282240Z 00000KT 10SM CLR 26/12 A3002 780 40 2300 000/00 RMK AO2
14837KMSN MSN20010828164509308/28/01 16:45:31  5-MIN KMSN 282245Z 00000KT 10SM CLR 26/12 A3002 780 40 2300 000/00 RMK AO2
14837KMSN MSN20010828165011008/28/01 16:50:31  5-MIN KMSN 282250Z 00000KT 10SM CLR 26/12 A3002 780 41 2200 000/00 RMK AO2 SLP161 T02560117
14837KMSN MSN20010828165509308/28/01 16:55:31  5-MIN KMSN 282255Z 35003KT 10SM CLR 26/13 A3002 780 44 2200 350/03 RMK AO2
14837KMSN MSN20010828170009308/28/01 17:00:31  5-MIN KMSN 282300Z 36003KT 10SM CLR 26/13 A3002 770 44 2200 360/03 RMK AO2
14837KMSN MSN20010828170509308/28/01 17:05:31  5-MIN KMSN 282305Z 00000KT 10SM CLR 25/14 A3002 770 51 2100 000/00 RMK AO2
14837KMSN MSN20010828171009308/28/01 17:10:31  5-MIN KMSN 282310Z 00000KT 10SM CLR 25/14 A3002 770 49 2100 000/00 RMK AO2
14837KMSN MSN20010828171509308/28/01 17:15:31  5-MIN KMSN 282315Z 00000KT 10SM CLR 25/14 A3002 770 49 2100 000/00 RMK AO2
14837KMSN MSN20010828172009308/28/01 17:20:31  5-MIN KMSN 282320Z 00000KT 10SM CLR 24/15 A3002 770 55 2100 000/00 RMK AO2
14837KMSN MSN20010828172509308/28/01 17:25:31  5-MIN KMSN 282325Z 00000KT 10SM CLR 24/15 A3002 770 57 2000 000/00 RMK AO2
14837KMSN MSN20010828173009308/28/01 17:30:31  5-MIN KMSN 282330Z 00000KT 10SM CLR 24/16 A3002 770 61 2000 000/00 RMK AO2
14837KMSN MSN20010828173509308/28/01 17:35:31  5-MIN KMSN 282335Z 00000KT 10SM CLR 23/15 A3002 770 59 2000 000/00 RMK AO2
14837KMSN MSN20010828174009308/28/01 17:40:31  5-MIN KMSN 282340Z 00000KT 10SM CLR 23/17 A3002 780 68 1900 000/00 RMK AO2
14837KMSN MSN20010828174509308/28/01 17:45:31  5-MIN KMSN 282345Z 08003KT 10SM CLR 22/17 A3002 780 70 1800 080/03 RMK AO2
14837KMSN MSN20010828175013108/28/01 17:50:31  5-MIN KMSN 282350Z 08003KT 10SM FEW055 22/17 A3002 780 73 1800 070/03 RMK AO2 SLP163 T02220172 10267 20222 58006
14837KMSN MSN20010828175509308/28/01 17:55:31  5-MIN KMSN 282355Z 09003KT 10SM CLR 22/17 A3002 780 75 1800 090/03 RMK AO2
14837KMSN MSN20010828180009308/28/01 18:00:31  5-MIN KMSN 290000Z 11003KT 10SM CLR 21/16 A3002 770 73 1700 110/03 RMK AO2
14837KMSN MSN20010828180509308/28/01 18:05:31  5-MIN KMSN 290005Z 08003KT 10SM CLR 22/14 A3002 770 61 1800 080/03 RMK AO2
14837KMSN MSN20010828181009308/28/01 18:10:31  5-MIN KMSN 290010Z 00000KT 10SM CLR 21/15 A3002 770 70 1600 000/00 RMK AO2
14837KMSN MSN20010828181509308/28/01 18:15:31  5-MIN KMSN 290015Z 00000KT 10SM CLR 20/14 A3002 770 70 1600 000/00 RMK AO2
14837KMSN MSN20010828182009308/28/01 18:20:31  5-MIN KMSN 290020Z 00000KT 10SM CLR 19/14 A3002 770 72 1500 000/00 RMK AO2
14837KMSN MSN20010828182509308/28/01 18:25:31  5-MIN KMSN 290025Z 00000KT 10SM CLR 19/15 A3002 770 75 1500 000/00 RMK AO2
14837KMSN MSN20010828183009308/28/01 18:30:31  5-MIN KMSN 290030Z 00000KT 10SM CLR 19/15 A3002 770 78 1400 000/00 RMK AO2
14837KMSN MSN20010828183509308/28/01 18:35:31  5-MIN KMSN 290035Z 00000KT 10SM CLR 18/14 A3003 770 78 1400 000/00 RMK AO2
14837KMSN MSN20010828184009308/28/01 18:40:31  5-MIN KMSN 290040Z 00000KT 10SM CLR 19/14 A3003 770 72 1400 000/00 RMK AO2
14837KMSN MSN20010828184509308/28/01 18:45:31  5-MIN KMSN 290045Z 00000KT 10SM CLR 19/15 A3003 770 78 1400 000/00 RMK AO2
14837KMSN MSN20010828185011008/28/01 18:50:31  5-MIN KMSN 290050Z 00000KT 10SM CLR 18/16 A3003 760 84 1400 000/00 RMK AO2 SLP167 T01830156
14837KMSN MSN20010828185509308/28/01 18:55:31  5-MIN KMSN 290055Z 00000KT 10SM CLR 18/16 A3003 760 87 1400 000/00 RMK AO2
14837KMSN MSN20010828190009308/28/01 19:00:31  5-MIN KMSN 290100Z 00000KT 10SM CLR 18/15 A3003 760 83 1300 000/00 RMK AO2
14837KMSN MSN20010828190509308/28/01 19:05:31  5-MIN KMSN 290105Z 00000KT 10SM CLR 18/14 A3003 760 81 1300 000/00 RMK AO2
14837KMSN MSN20010828191009308/28/01 19:10:31  5-MIN KMSN 290110Z 00000KT 10SM CLR 18/14 A3004 760 81 1300 000/00 RMK AO2
14837KMSN MSN20010828191509308/28/01 19:15:31  5-MIN KMSN 290115Z 00000KT 10SM CLR 18/15 A3004 760 83 1300 000/00 RMK AO2
14837KMSN MSN20010828192009308/28/01 19:20:31  5-MIN KMSN 290120Z 00000KT 10SM CLR 17/15 A3004 760 87 1200 000/00 RMK AO2
14837KMSN MSN20010828192509308/28/01 19:25:31  5-MIN KMSN 290125Z 00000KT 10SM CLR 18/14 A3004 750 81 1300 000/00 RMK AO2
14837KMSN MSN20010828193009308/28/01 19:30:31  5-MIN KMSN 290130Z 00000KT 10SM CLR 18/14 A3004 750 78 1300 000/00 RMK AO2
14837KMSN MSN20010828193509308/28/01 19:35:31  5-MIN KMSN 290135Z 00000KT 10SM CLR 18/14 A3004 750 78 1300 000/00 RMK AO2
14837KMSN MSN20010828194009308/28/01 19:40:31  5-MIN KMSN 290140Z 00000KT 10SM CLR 18/13 A3004 750 75 1300 000/00 RMK AO2
14837KMSN MSN20010828194509308/28/01 19:45:31  5-MIN KMSN 290145Z 00000KT 10SM CLR 18/14 A3004 750 78 1300 000/00 RMK AO2
14837KMSN MSN20010828195011008/28/01 19:50:31  5-MIN KMSN 290150Z 00000KT 10SM CLR 18/13 A3004 750 75 1300 000/00 RMK AO2 SLP172 T01780133
14837KMSN MSN20010828195509308/28/01 19:55:31  5-MIN KMSN 290155Z 00000KT 10SM CLR 18/13 A3005 750 75 1300 000/00 RMK AO2
14837KMSN MSN20010828200009308/28/01 20:00:31  5-MIN KMSN 290200Z 00000KT 10SM CLR 18/13 A3005 750 72 1400 000/00 RMK AO2
14837KMSN MSN20010828200509308/28/01 20:05:31  5-MIN KMSN 290205Z 00000KT 10SM CLR 17/14 A3005 750 86 1200 000/00 RMK AO2
14837KMSN MSN20010828201009308/28/01 20:10:31  5-MIN KMSN 290210Z 00000KT 10SM CLR 17/14 A3005 740 86 1200 000/00 RMK AO2
14837KMSN MSN20010828201509308/28/01 20:15:31  5-MIN KMSN 290215Z 00000KT 10SM CLR 17/14 A3005 740 86 1200 000/00 RMK AO2
14837KMSN MSN20010828202009308/28/01 20:20:31  5-MIN KMSN 290220Z 00000KT 10SM CLR 16/14 A3005 740 90 1100 000/00 RMK AO2
14837KMSN MSN20010828202509308/28/01 20:25:31  5-MIN KMSN 290225Z 00000KT 10SM CLR 16/14 A3005 740 90 1100 000/00 RMK AO2
14837KMSN MSN20010828203009308/28/01 20:30:31  5-MIN KMSN 290230Z 00000KT 10SM CLR 16/14 A3005 740 86 1100 000/00 RMK AO2
14837KMSN MSN20010828203509308/28/01 20:35:31  5-MIN KMSN 290235Z 00000KT 10SM CLR 16/14 A3005 740 86 1100 000/00 RMK AO2
14837KMSN MSN20010828204009308/28/01 20:40:31  5-MIN KMSN 290240Z 00000KT 10SM CLR 17/14 A3005 740 83 1200 000/00 RMK AO2
14837KMSN MSN20010828204509308/28/01 20:45:31  5-MIN KMSN 290245Z 00000KT 10SM CLR 16/14 A3005 740 90 1100 000/00 RMK AO2
14837KMSN MSN20010828205011608/28/01 20:50:31  5-MIN KMSN 290250Z 00000KT 10SM CLR 16/14 A3005 740 86 1100 000/00 RMK AO2 SLP174 T01610139 56001
14837KMSN MSN20010828205509308/28/01 20:55:31  5-MIN KMSN 290255Z 00000KT 10SM CLR 17/14 A3005 740 83 1200 000/00 RMK AO2
14837KMSN MSN20010828210009308/28/01 21:00:31  5-MIN KMSN 290300Z 00000KT 10SM CLR 17/14 A3005 750 83 1200 000/00 RMK AO2
14837KMSN MSN20010828210509308/28/01 21:05:31  5-MIN KMSN 290305Z 00000KT 10SM CLR 16/14 A3005 750 86 1100 000/00 RMK AO2
14837KMSN MSN20010828211009308/28/01 21:10:31  5-MIN KMSN 290310Z 00000KT 10SM CLR 16/14 A3005 750 90 1100 000/00 RMK AO2
14837KMSN MSN20010828211509308/28/01 21:15:31  5-MIN KMSN 290315Z 00000KT 10SM CLR 16/14 A3005 750 93 1000 000/00 RMK AO2
14837KMSN MSN20010828212009308/28/01 21:20:31  5-MIN KMSN 290320Z 00000KT 10SM CLR 16/14 A3005 750 90 1100 000/00 RMK AO2
14837KMSN MSN20010828212509308/28/01 21:25:31  5-MIN KMSN 290325Z 00000KT 10SM CLR 16/14 A3005 740 93 1000 000/00 RMK AO2
14837KMSN MSN20010828213009308/28/01 21:30:31  5-MIN KMSN 290330Z 00000KT 10SM CLR 16/14 A3005 740 93 1000 000/00 RMK AO2
14837KMSN MSN20010828213509308/28/01 21:35:31  5-MIN KMSN 290335Z 00000KT 10SM CLR 16/14 A3005 740 90 1000 000/00 RMK AO2
14837KMSN MSN20010828214009308/28/01 21:40:31  5-MIN KMSN 290340Z 00000KT 10SM CLR 16/14 A3005 740 90 1000 000/00 RMK AO2
14837KMSN MSN20010828214509308/28/01 21:45:31  5-MIN KMSN 290345Z 00000KT 10SM CLR 16/14 A3005 740 90 1000 000/00 RMK AO2
14837KMSN MSN20010828215011008/28/01 21:50:31  5-MIN KMSN 290350Z 00000KT 10SM CLR 16/14 A3005 740 90 1000 000/00 RMK AO2 SLP173 T01560139
14837KMSN MSN20010828215509308/28/01 21:55:31  5-MIN KMSN 290355Z 00000KT 10SM CLR 16/14 A3005 740 90 1000 000/00 RMK AO2
14837KMSN MSN20010828220009308/28/01 22:00:31  5-MIN KMSN 290400Z 00000KT 10SM CLR 16/14 A3005 740 93 1000 000/00 RMK AO2
14837KMSN MSN20010828220509308/28/01 22:05:31  5-MIN KMSN 290405Z 00000KT 10SM CLR 15/13 A3005 740 90 1000 000/00 RMK AO2
14837KMSN MSN20010828221009208/28/01 22:10:31  5-MIN KMSN 290410Z 00000KT 10SM CLR 14/13 A3005 740 93 900 000/00 RMK AO2
14837KMSN MSN20010828221509308/28/01 22:15:31  5-MIN KMSN 290415Z 00000KT 10SM CLR 15/13 A3006 740 90 1000 000/00 RMK AO2
14837KMSN MSN20010828222009308/28/01 22:20:31  5-MIN KMSN 290420Z 00000KT 10SM CLR 15/13 A3006 740 90 1000 000/00 RMK AO2
14837KMSN MSN20010828222509308/28/01 22:25:31  5-MIN KMSN 290425Z 17003KT 10SM CLR 16/14 A3006 740 90 1000 170/03 RMK AO2
14837KMSN MSN20010828223009308/28/01 22:30:31  5-MIN KMSN 290430Z 00000KT 10SM CLR 16/14 A3006 740 90 1000 000/00 RMK AO2
14837KMSN MSN20010828223509308/28/01 22:35:31  5-MIN KMSN 290435Z 19003KT 10SM CLR 16/14 A3006 740 90 1000 190/03 RMK AO2
14837KMSN MSN20010828224009308/28/01 22:40:31  5-MIN KMSN 290440Z 18005KT 10SM CLR 16/14 A3006 740 86 1100 180/05 RMK AO2
14837KMSN MSN20010828224509308/28/01 22:45:31  5-MIN KMSN 290445Z 18005KT 10SM CLR 18/14 A3006 740 78 1300 170/05 RMK AO2
14837KMSN MSN20010828225011008/28/01 22:50:31  5-MIN KMSN 290450Z 16005KT 10SM CLR 18/14 A3006 740 75 1300 160/05 RMK AO2 SLP174 T01830139
14837KMSN MSN20010828225509308/28/01 22:55:31  5-MIN KMSN 290455Z 17005KT 10SM CLR 18/14 A3006 740 78 1300 160/05 RMK AO2
14837KMSN MSN20010828230009308/28/01 23:00:31  5-MIN KMSN 290500Z 17005KT 10SM CLR 18/13 A3006 740 72 1300 160/05 RMK AO2
14837KMSN MSN20010828230509308/28/01 23:05:31  5-MIN KMSN 290505Z 18005KT 10SM CLR 18/13 A3006 740 72 1300 180/05 RMK AO2
14837KMSN MSN20010828231009308/28/01 23:10:31  5-MIN KMSN 290510Z 18005KT 10SM CLR 18/13 A3006 740 72 1300 180/05 RMK AO2
14837KMSN MSN20010828231509308/28/01 23:15:31  5-MIN KMSN 290515Z 17005KT 10SM CLR 18/13 A3006 740 72 1300 170/05 RMK AO2
14837KMSN MSN20010828232009308/28/01 23:20:31  5-MIN KMSN 290520Z 17004KT 10SM CLR 18/14 A3006 740 75 1300 160/04 RMK AO2
14837KMSN MSN20010828232509308/28/01 23:25:31  5-MIN KMSN 290525Z 17005KT 10SM CLR 18/14 A3006 740 78 1300 160/05 RMK AO2
14837KMSN MSN20010828233009308/28/01 23:30:31  5-MIN KMSN 290530Z 17004KT 10SM CLR 18/13 A3005 740 75 1300 170/04 RMK AO2
14837KMSN MSN20010828233509308/28/01 23:35:31  5-MIN KMSN 290535Z 17004KT 10SM CLR 18/13 A3005 740 72 1300 170/04 RMK AO2
14837KMSN MSN20010828234009308/28/01 23:40:31  5-MIN KMSN 290540Z 17004KT 10SM CLR 18/13 A3005 740 75 1300 170/04 RMK AO2
14837KMSN MSN20010828234509308/28/01 23:45:31  5-MIN KMSN 290545Z 17004KT 10SM CLR 18/13 A3005 740 75 1300 170/04 RMK AO2
14837KMSN MSN20010828235013808/28/01 23:50:31  5-MIN KMSN 290550Z 00000KT 10SM CLR 17/13 A3005 740 80 1100 000/00 RMK AO2 SLP173 T01670133 10222 20144 402670122 51012
14837KMSN MSN20010828235509308/28/01 23:55:31  5-MIN KMSN 290555Z 00000KT 10SM CLR 17/13 A3005 740 80 1100 000/00 RMK AO2
14837KMSN MSN20010829000009308/29/01 00:00:31  5-MIN KMSN 290600Z 18005KT 10SM CLR 17/13 A3005 740 78 1200 180/05 RMK AO2
14837KMSN MSN20010829000509308/29/01 00:05:31  5-MIN KMSN 290605Z 18007KT 10SM CLR 18/13 A3005 740 70 1300 180/07 RMK AO2
14837KMSN MSN20010829001009308/29/01 00:10:31  5-MIN KMSN 290610Z 18006KT 10SM CLR 18/13 A3005 750 70 1300 180/06 RMK AO2
14837KMSN MSN20010829001509308/29/01 00:15:31  5-MIN KMSN 290615Z 18006KT 10SM CLR 18/13 A3005 750 70 1300 180/06 RMK AO2
14837KMSN MSN20010829002009308/29/01 00:20:31  5-MIN KMSN 290620Z 19003KT 10SM CLR 18/13 A3005 750 72 1300 190/03 RMK AO2
14837KMSN MSN20010829002509308/29/01 00:25:31  5-MIN KMSN 290625Z 18005KT 10SM CLR 18/13 A3004 750 72 1300 180/05 RMK AO2
14837KMSN MSN20010829003009308/29/01 00:30:31  5-MIN KMSN 290630Z 18005KT 10SM CLR 18/13 A3004 750 72 1300 180/05 RMK AO2
14837KMSN MSN20010829003509308/29/01 00:35:31  5-MIN KMSN 290635Z 00000KT 10SM CLR 17/13 A3004 750 75 1200 000/00 RMK AO2
14837KMSN MSN20010829004009308/29/01 00:40:31  5-MIN KMSN 290640Z 00000KT 10SM CLR 18/13 A3004 750 72 1300 000/00 RMK AO2
14837KMSN MSN20010829004509308/29/01 00:45:31  5-MIN KMSN 290645Z VRB03KT 10SM CLR 18/13 A3004 750 72 1300 VRB/03 RMK AO2
14837KMSN MSN20010829005011008/29/01 00:50:31  5-MIN KMSN 290650Z 00000KT 10SM CLR 17/13 A3004 750 75 1200 000/00 RMK AO2 SLP169 T01720128
14837KMSN MSN20010829005509308/29/01 00:55:31  5-MIN KMSN 290655Z 00000KT 10SM CLR 17/13 A3004 750 77 1200 000/00 RMK AO2
14837KMSN MSN20010829010009308/29/01 01:00:31  5-MIN KMSN 290700Z 00000KT 10SM CLR 16/13 A3004 750 83 1000 000/00 RMK AO2
14837KMSN MSN20010829010509308/29/01 01:05:31  5-MIN KMSN 290705Z 00000KT 10SM CLR 15/13 A3004 750 86 1000 000/00 RMK AO2
14837KMSN MSN20010829011009308/29/01 01:10:31  5-MIN KMSN 290710Z 00000KT 10SM CLR 15/13 A3004 750 86 1000 000/00 RMK AO2
14837KMSN MSN20010829011509208/29/01 01:15:31  5-MIN KMSN 290715Z 00000KT 10SM CLR 14/13 A3005 750 90 900 000/00 RMK AO2
14837KMSN MSN20010829012009208/29/01 01:20:31  5-MIN KMSN 290720Z 00000KT 10SM CLR 14/13 A3004 750 90 900 000/00 RMK AO2
14837KMSN MSN20010829012509308/29/01 01:25:31  5-MIN KMSN 290725Z 00000KT 10SM CLR 15/13 A3004 750 86 1000 000/00 RMK AO2
14837KMSN MSN20010829013009308/29/01 01:30:31  5-MIN KMSN 290730Z 00000KT 10SM CLR 15/13 A3004 750 86 1000 000/00 RMK AO2
14837KMSN MSN20010829013509308/29/01 01:35:31  5-MIN KMSN 290735Z 00000KT 10SM CLR 16/13 A3004 750 86 1000 000/00 RMK AO2
14837KMSN MSN20010829014009308/29/01 01:40:31  5-MIN KMSN 290740Z 00000KT 10SM CLR 16/13 A3004 750 86 1000 000/00 RMK AO2
14837KMSN MSN20010829014509308/29/01 01:45:31  5-MIN KMSN 290745Z 00000KT 10SM CLR 16/13 A3004 750 83 1000 000/00 RMK AO2
14837KMSN MSN20010829015011008/29/01 01:50:31  5-MIN KMSN 290750Z 00000KT 10SM CLR 15/13 A3004 750 86 1000 000/00 RMK AO2 SLP171 T01500128
14837KMSN MSN20010829015509208/29/01 01:55:31  5-MIN KMSN 290755Z 00000KT 10SM CLR 14/12 A3004 750 83 900 000/00 RMK AO2
14837KMSN MSN20010829020009208/29/01 02:00:31  5-MIN KMSN 290800Z 00000KT 10SM CLR 14/12 A3004 750 86 900 000/00 RMK AO2
14837KMSN MSN20010829020509208/29/01 02:05:31  5-MIN KMSN 290805Z 00000KT 10SM CLR 13/12 A3005 750 89 800 000/00 RMK AO2
14837KMSN MSN20010829021009208/29/01 02:10:31  5-MIN KMSN 290810Z 00000KT 10SM CLR 14/12 A3005 750 90 800 000/00 RMK AO2
14837KMSN MSN20010829021509208/29/01 02:15:31  5-MIN KMSN 290815Z 00000KT 10SM CLR 14/12 A3005 750 90 800 000/00 RMK AO2
14837KMSN MSN20010829022009208/29/01 02:20:31  5-MIN KMSN 290820Z 00000KT 10SM CLR 14/12 A3005 750 86 800 000/00 RMK AO2
14837KMSN MSN20010829022509208/29/01 02:25:31  5-MIN KMSN 290825Z 00000KT 10SM CLR 14/12 A3005 750 90 800 000/00 RMK AO2
14837KMSN MSN20010829023009208/29/01 02:30:31  5-MIN KMSN 290830Z 00000KT 10SM CLR 14/13 A3005 750 90 900 000/00 RMK AO2
14837KMSN MSN20010829023509308/29/01 02:35:31  5-MIN KMSN 290835Z 00000KT 10SM CLR 15/13 A3005 750 86 1000 000/00 RMK AO2
14837KMSN MSN20010829024009308/29/01 02:40:31  5-MIN KMSN 290840Z 00000KT 10SM CLR 15/13 A3005 750 86 1000 000/00 RMK AO2
14837KMSN MSN20010829024509208/29/01 02:45:31  5-MIN KMSN 290845Z 00000KT 10SM CLR 14/12 A3005 750 86 900 000/00 RMK AO2
14837KMSN MSN20010829025011508/29/01 02:50:31  5-MIN KMSN 290850Z 00000KT 10SM CLR 14/13 A3005 750 90 900 000/00 RMK AO2 SLP172 T01440128 50002
14837KMSN MSN20010829025509308/29/01 02:55:31  5-MIN KMSN 290855Z 00000KT 10SM CLR 15/13 A3005 750 86 1000 000/00 RMK AO2
14837KMSN MSN20010829030009308/29/01 03:00:31  5-MIN KMSN 290900Z 00000KT 10SM CLR 15/13 A3005 740 86 1000 000/00 RMK AO2
14837KMSN MSN20010829030509208/29/01 03:05:31  5-MIN KMSN 290905Z 00000KT 10SM CLR 14/13 A3005 740 90 900 000/00 RMK AO2
14837KMSN MSN20010829031009208/29/01 03:10:31  5-MIN KMSN 290910Z 00000KT 10SM CLR 14/13 A3005 740 90 900 000/00 RMK AO2
14837KMSN MSN20010829031509308/29/01 03:15:31  5-MIN KMSN 290915Z 00000KT 10SM CLR 15/13 A3005 740 86 1000 000/00 RMK AO2
14837KMSN MSN20010829032009308/29/01 03:20:31  5-MIN KMSN 290920Z 00000KT 10SM CLR 15/12 A3005 740 80 1000 000/00 RMK AO2
14837KMSN MSN20010829032509208/29/01 03:25:31  5-MIN KMSN 290925Z 00000KT 10SM CLR 14/12 A3005 740 86 800 000/00 RMK AO2
14837KMSN MSN20010829033009208/29/01 03:30:31  5-MIN KMSN 290930Z 00000KT 10SM CLR 13/11 A3005 740 86 800 000/00 RMK AO2
14837KMSN MSN20010829033509208/29/01 03:35:31  5-MIN KMSN 290935Z 00000KT 10SM CLR 13/12 A3005 740 89 800 000/00 RMK AO2
14837KMSN MSN20010829034009208/29/01 03:40:31  5-MIN KMSN 290940Z 00000KT 10SM CLR 13/11 A3005 740 86 800 000/00 RMK AO2
14837KMSN MSN20010829034509208/29/01 03:45:31  5-MIN KMSN 290945Z 00000KT 10SM CLR 13/12 A3005 740 89 800 000/00 RMK AO2
14837KMSN MSN20010829035010908/29/01 03:50:31  5-MIN KMSN 290950Z 00000KT 10SM CLR 14/11 A3005 750 83 800 000/00 RMK AO2 SLP173 T01390111
14837KMSN MSN20010829035509208/29/01 03:55:31  5-MIN KMSN 290955Z 00000KT 10SM CLR 13/11 A3005 740 86 800 000/00 RMK AO2
14837KMSN MSN20010829040009208/29/01 04:00:31  5-MIN KMSN 291000Z 00000KT 10SM CLR 14/11 A3005 740 83 800 000/00 RMK AO2
14837KMSN MSN20010829040509208/29/01 04:05:31  5-MIN KMSN 291005Z 00000KT 10SM CLR 14/11 A3005 740 83 800 000/00 RMK AO2
14837KMSN MSN20010829041009208/29/01 04:10:31  5-MIN KMSN 291010Z 00000KT 10SM CLR 14/11 A3005 740 83 800 000/00 RMK AO2
14837KMSN MSN20010829041509208/29/01 04:15:31  5-MIN KMSN 291015Z 00000KT 10SM CLR 14/11 A3005 740 80 900 000/00 RMK AO2
14837KMSN MSN20010829042009208/29/01 04:20:31  5-MIN KMSN 291020Z 00000KT 10SM CLR 14/12 A3005 740 86 800 000/00 RMK AO2
14837KMSN MSN20010829042509208/29/01 04:25:31  5-MIN KMSN 291025Z 00000KT 10SM CLR 13/12 A3005 740 89 800 000/00 RMK AO2
14837KMSN MSN20010829043009208/29/01 04:30:31  5-MIN KMSN 291030Z 00000KT 10SM CLR 14/12 A3005 750 86 800 000/00 RMK AO2
14837KMSN MSN20010829043509208/29/01 04:35:31  5-MIN KMSN 291035Z 00000KT 10SM CLR 14/12 A3005 740 83 900 000/00 RMK AO2
14837KMSN MSN20010829044009208/29/01 04:40:31  5-MIN KMSN 291040Z 00000KT 10SM CLR 14/12 A3005 750 86 800 000/00 RMK AO2
14837KMSN MSN20010829044509208/29/01 04:45:31  5-MIN KMSN 291045Z 00000KT 10SM CLR 14/12 A3005 750 86 800 000/00 RMK AO2
14837KMSN MSN20010829045010908/29/01 04:50:31  5-MIN KMSN 291050Z 00000KT 10SM CLR 14/12 A3005 740 86 800 000/00 RMK AO2 SLP173 T01390117
14837KMSN MSN20010829045509208/29/01 04:55:31  5-MIN KMSN 291055Z 00000KT 10SM CLR 14/12 A3005 740 86 800 000/00 RMK AO2
14837KMSN MSN20010829050009208/29/01 05:00:31  5-MIN KMSN 291100Z 00000KT 10SM CLR 13/12 A3005 740 89 800 000/00 RMK AO2
14837KMSN MSN20010829050509208/29/01 05:05:31  5-MIN KMSN 291105Z 00000KT 10SM CLR 13/12 A3006 740 93 800 000/00 RMK AO2
14837KMSN MSN20010829051009208/29/01 05:10:31  5-MIN KMSN 291110Z 00000KT 10SM CLR 13/12 A3005 740 93 800 000/00 RMK AO2
14837KMSN MSN20010829051509208/29/01 05:15:31  5-MIN KMSN 291115Z 00000KT 10SM CLR 13/12 A3005 740 89 800 000/00 RMK AO2
14837KMSN MSN20010829052009208/29/01 05:20:31  5-MIN KMSN 291120Z 00000KT 10SM CLR 13/12 A3006 740 89 800 000/00 RMK AO2
14837KMSN MSN20010829052509208/29/01 05:25:31  5-MIN KMSN 291125Z 00000KT 10SM CLR 14/12 A3006 740 86 800 000/00 RMK AO2
14837KMSN MSN20010829053009208/29/01 05:30:31  5-MIN KMSN 291130Z 00000KT 10SM CLR 13/12 A3006 740 89 800 000/00 RMK AO2
14837KMSN MSN20010829053509208/29/01 05:35:31  5-MIN KMSN 291135Z 00000KT 10SM CLR 14/12 A3006 740 86 800 000/00 RMK AO2
14837KMSN MSN20010829054009208/29/01 05:40:31  5-MIN KMSN 291140Z 00000KT 10SM CLR 14/11 A3006 740 83 800 000/00 RMK AO2
14837KMSN MSN20010829054509208/29/01 05:45:31  5-MIN KMSN 291145Z 00000KT 10SM CLR 14/11 A3006 740 83 800 000/00 RMK AO2
14837KMSN MSN20010829055012708/29/01 05:50:31  5-MIN KMSN 291150Z 00000KT 10SM CLR 14/11 A3006 740 83 800 000/00 RMK AO2 SLP176 T01390111 10183 20133 55002
14837KMSN MSN20010829055509208/29/01 05:55:31  5-MIN KMSN 291155Z 00000KT 10SM CLR 14/11 A3005 740 80 900 000/00 RMK AO2
14837KMSN MSN20010829060009208/29/01 06:00:31  5-MIN KMSN 291200Z 00000KT 10SM CLR 14/11 A3006 740 80 900 000/00 RMK AO2
14837KMSN MSN20010829060509208/29/01 06:05:31  5-MIN KMSN 291205Z 00000KT 10SM CLR 14/11 A3006 740 80 900 000/00 RMK AO2
14837KMSN MSN20010829061009208/29/01 06:10:31  5-MIN KMSN 291210Z 00000KT 10SM CLR 14/12 A3006 740 83 900 000/00 RMK AO2
14837KMSN MSN20010829061509208/29/01 06:15:31  5-MIN KMSN 291215Z 00000KT 10SM CLR 15/12 A3006 740 80 900 000/00 RMK AO2
14837KMSN MSN20010829062009308/29/01 06:20:31  5-MIN KMSN 291220Z 00000KT 10SM CLR 15/12 A3006 740 83 1000 000/00 RMK AO2
14837KMSN MSN20010829062509308/29/01 06:25:31  5-MIN KMSN 291225Z 00000KT 10SM CLR 16/13 A3006 740 83 1000 000/00 RMK AO2
14837KMSN MSN20010829063009308/29/01 06:30:31  5-MIN KMSN 291230Z 00000KT 10SM CLR 16/13 A3006 740 83 1000 000/00 RMK AO2
14837KMSN MSN20010829063509308/29/01 06:35:31  5-MIN KMSN 291235Z 00000KT 10SM CLR 17/13 A3006 740 80 1100 000/00 RMK AO2
14837KMSN MSN20010829064009308/29/01 06:40:31  5-MIN KMSN 291240Z 00000KT 10SM CLR 17/13 A3006 730 75 1200 000/00 RMK AO2
14837KMSN MSN20010829064509308/29/01 06:45:31  5-MIN KMSN 291245Z VRB03KT 10SM CLR 18/13 A3006 730 75 1300 VRB/03 RMK AO2
14837KMSN MSN20010829065011008/29/01 06:50:31  5-MIN KMSN 291250Z 17003KT 10SM CLR 18/12 A3006 730 69 1300 170/03 RMK AO2 SLP178 T01780122
14837KMSN MSN20010829065509308/29/01 06:55:31  5-MIN KMSN 291255Z 16005KT 10SM CLR 18/13 A3006 730 72 1300 160/05 RMK AO2
14837KMSN MSN20010829070009308/29/01 07:00:31  5-MIN KMSN 291300Z 15004KT 10SM CLR 18/12 A3006 730 67 1300 150/04 RMK AO2
14837KMSN MSN20010829070509308/29/01 07:05:31  5-MIN KMSN 291305Z 15004KT 10SM CLR 18/13 A3006 730 70 1300 150/04 RMK AO2
14837KMSN MSN20010829071009308/29/01 07:10:31  5-MIN KMSN 291310Z 16004KT 10SM CLR 18/12 A3006 730 65 1300 160/04 RMK AO2
14837KMSN MSN20010829071509308/29/01 07:15:31  5-MIN KMSN 291315Z VRB04KT 10SM CLR 19/12 A3006 730 65 1400 VRB/04 RMK AO2
14837KMSN MSN20010829072009308/29/01 07:20:31  5-MIN KMSN 291320Z 18007KT 10SM CLR 19/11 A3006 730 58 1500 180/07 RMK AO2
14837KMSN MSN20010829072509308/29/01 07:25:31  5-MIN KMSN 291325Z 18007KT 10SM CLR 19/11 A3006 730 56 1500 180/07 RMK AO2
14837KMSN MSN20010829073009308/29/01 07:30:31  5-MIN KMSN 291330Z 17007KT 10SM CLR 19/11 A3006 730 58 1500 170/07 RMK AO2
14837KMSN MSN20010829073509308/29/01 07:35:31  5-MIN KMSN 291335Z 17007KT 10SM CLR 19/12 A3006 730 60 1500 170/07 RMK AO2
14837KMSN MSN20010829074009308/29/01 07:40:31  5-MIN KMSN 291340Z 19007KT 10SM CLR 19/11 A3007 730 58 1500 190/07 RMK AO2
14837KMSN MSN20010829074509308/29/01 07:45:31  5-MIN KMSN 291345Z 19008KT 10SM CLR 19/11 A3007 730 58 1500 190/08 RMK AO2
14837KMSN MSN20010829075011008/29/01 07:50:31  5-MIN KMSN 291350Z 19009KT 10SM CLR 19/11 A3006 730 58 1500 190/09 RMK AO2 SLP178 T01940111
14837KMSN MSN20010829075509308/29/01 07:55:31  5-MIN KMSN 291355Z 19010KT 10SM CLR 19/11 A3006 730 58 1500 190/10 RMK AO2
14837KMSN MSN20010829080009308/29/01 08:00:31  5-MIN KMSN 291400Z 19009KT 10SM CLR 20/12 A3006 730 58 1500 190/09 RMK AO2
14837KMSN MSN20010829080509308/29/01 08:05:31  5-MIN KMSN 291405Z 18008KT 10SM CLR 20/12 A3006 730 58 1500 180/08 RMK AO2
14837KMSN MSN20010829081009308/29/01 08:10:31  5-MIN KMSN 291410Z 19007KT 10SM CLR 21/12 A3006 730 58 1600 190/07 RMK AO2
14837KMSN MSN20010829081509308/29/01 08:15:31  5-MIN KMSN 291415Z 19006KT 10SM CLR 21/12 A3006 730 58 1600 190/06 RMK AO2
14837KMSN MSN20010829082009308/29/01 08:20:31  5-MIN KMSN 291420Z 19007KT 10SM CLR 21/13 A3006 730 60 1600 190/07 RMK AO2
14837KMSN MSN20010829082509308/29/01 08:25:31  5-MIN KMSN 291425Z 18005KT 10SM CLR 21/13 A3006 730 60 1600 170/05 RMK AO2
14837KMSN MSN20010829083009308/29/01 08:30:31  5-MIN KMSN 291430Z 17009KT 10SM CLR 21/13 A3006 730 61 1700 170/09 RMK AO2
14837KMSN MSN20010829083509308/29/01 08:35:31  5-MIN KMSN 291435Z 17009KT 10SM CLR 21/13 A3006 730 58 1700 170/09 RMK AO2
14837KMSN MSN20010829084009308/29/01 08:40:31  5-MIN KMSN 291440Z 17010KT 10SM CLR 21/13 A3006 740 58 1700 170/10 RMK AO2
14837KMSN MSN20010829084509308/29/01 08:45:31  5-MIN KMSN 291445Z 17010KT 10SM CLR 22/13 A3006 740 56 1700 160/10 RMK AO2
14837KMSN MSN20010829085011608/29/01 08:50:31  5-MIN KMSN 291450Z 18010KT 10SM CLR 22/13 A3006 730 56 1700 170/10 RMK AO2 SLP178 T02170128 53002
14837KMSN MSN20010829085509308/29/01 08:55:31  5-MIN KMSN 291455Z 19009KT 10SM CLR 22/12 A3006 730 54 1700 180/09 RMK AO2
14837KMSN MSN20010829090009308/29/01 09:00:31  5-MIN KMSN 291500Z 18010KT 10SM CLR 22/12 A3006 730 52 1800 180/10 RMK AO2
14837KMSN MSN20010829090509308/29/01 09:05:31  5-MIN KMSN 291505Z 18009KT 10SM CLR 22/12 A3007 730 52 1800 180/09 RMK AO2
14837KMSN MSN20010829091009308/29/01 09:10:31  5-MIN KMSN 291510Z 19009KT 10SM CLR 22/13 A3007 730 54 1800 190/09 RMK AO2
14837KMSN MSN20010829091509308/29/01 09:15:31  5-MIN KMSN 291515Z 18010KT 10SM CLR 22/13 A3007 730 54 1800 180/10 RMK AO2
14837KMSN MSN20010829092009308/29/01 09:20:31  5-MIN KMSN 291520Z 18010KT 10SM CLR 22/12 A3007 720 52 1800 180/10 RMK AO2
14837KMSN MSN20010829092509308/29/01 09:25:31  5-MIN KMSN 291525Z 19006KT 10SM CLR 23/13 A3008 720 53 1800 190/06 RMK AO2
14837KMSN MSN20010829093009308/29/01 09:30:31  5-MIN KMSN 291530Z 19006KT 10SM CLR 23/13 A3008 720 55 1800 190/06 RMK AO2
14837KMSN MSN20010829093509308/29/01 09:35:31  5-MIN KMSN 291535Z 18007KT 10SM CLR 23/14 A3007 720 55 1900 180/07 RMK AO2
14837KMSN MSN20010829094009308/29/01 09:40:31  5-MIN KMSN 291540Z 19007KT 10SM CLR 23/13 A3008 720 53 1800 190/07 RMK AO2
14837KMSN MSN20010829094509308/29/01 09:45:31  5-MIN KMSN 291545Z 22005KT 10SM CLR 23/13 A3008 720 53 1800 220/05 RMK AO2
14837KMSN MSN20010829095011008/29/01 09:50:31  5-MIN KMSN 291550Z 21005KT 10SM CLR 23/13 A3008 720 53 1900 210/05 RMK AO2 SLP183 T02330133
14837KMSN MSN20010829095509308/29/01 09:55:31  5-MIN KMSN 291555Z 19008KT 10SM CLR 23/13 A3008 720 51 1900 190/08 RMK AO2
14837KMSN MSN20010829100009308/29/01 10:00:31  5-MIN KMSN 291600Z 19010KT 10SM CLR 23/12 A3007 720 49 1900 190/10 RMK AO2
14837KMSN MSN20010829100509308/29/01 10:05:31  5-MIN KMSN 291605Z 17007KT 10SM CLR 23/13 A3007 730 51 1900 170/07 RMK AO2
14837KMSN MSN20010829101009308/29/01 10:10:31  5-MIN KMSN 291610Z 18006KT 10SM CLR 23/13 A3006 730 53 1900 180/06 RMK AO2
14837KMSN MSN20010829101509308/29/01 10:15:31  5-MIN KMSN 291615Z 16010KT 10SM CLR 23/13 A3006 730 53 1900 160/10 RMK AO2
14837KMSN MSN20010829102009308/29/01 10:20:31  5-MIN KMSN 291620Z 17009KT 10SM CLR 24/14 A3007 730 53 2000 170/09 RMK AO2
14837KMSN MSN20010829102509308/29/01 10:25:31  5-MIN KMSN 291625Z 17007KT 10SM CLR 24/14 A3006 730 53 2000 170/07 RMK AO2
14837KMSN MSN20010829103009308/29/01 10:30:31  5-MIN KMSN 291630Z 19007KT 10SM CLR 24/14 A3006 740 53 2000 190/07 RMK AO2
14837KMSN MSN20010829103509308/29/01 10:35:31  5-MIN KMSN 291635Z 16011KT 10SM CLR 24/13 A3006 740 49 2000 160/11 RMK AO2
14837KMSN MSN20010829104009308/29/01 10:40:31  5-MIN KMSN 291640Z 17009KT 10SM CLR 24/13 A3006 740 51 2000 170/09 RMK AO2
14837KMSN MSN20010829104509308/29/01 10:45:31  5-MIN KMSN 291645Z 19010KT 10SM CLR 24/13 A3006 740 49 2000 190/10 RMK AO2
14837KMSN MSN20010829105011008/29/01 10:50:31  5-MIN KMSN 291650Z 17008KT 10SM CLR 24/13 A3005 740 51 2000 170/08 RMK AO2 SLP173 T02390133
14837KMSN MSN20010829105509308/29/01 10:55:31  5-MIN KMSN 291655Z 17009KT 10SM CLR 24/13 A3005 750 49 2000 170/09 RMK AO2
14837KMSN MSN20010829110009308/29/01 11:00:31  5-MIN KMSN 291700Z 18009KT 10SM CLR 24/14 A3005 750 51 2100 180/09 RMK AO2
14837KMSN MSN20010829110509308/29/01 11:05:31  5-MIN KMSN 291705Z 18007KT 10SM CLR 24/14 A3004 750 51 2100 180/07 RMK AO2
14837KMSN MSN20010829111009308/29/01 11:10:31  5-MIN KMSN 291710Z 18008KT 10SM CLR 24/14 A3004 750 51 2100 180/08 RMK AO2
14837KMSN MSN20010829111509308/29/01 11:15:31  5-MIN KMSN 291715Z 17010KT 10SM CLR 24/14 A3004 750 51 2100 170/10 RMK AO2
14837KMSN MSN20010829112009308/29/01 11:20:31  5-MIN KMSN 291720Z 17009KT 10SM CLR 24/13 A3004 750 49 2100 170/09 RMK AO2
14837KMSN MSN20010829112509308/29/01 11:25:31  5-MIN KMSN 291725Z 16012KT 10SM CLR 25/13 A3004 760 48 2100 160/12 RMK AO2
14837KMSN MSN20010829113009308/29/01 11:30:31  5-MIN KMSN 291730Z 17010KT 10SM CLR 24/13 A3004 760 47 2100 170/10 RMK AO2
14837KMSN MSN20010829113509308/29/01 11:35:31  5-MIN KMSN 291735Z 19009KT 10SM CLR 24/13 A3004 750 47 2100 190/09 RMK AO2
14837KMSN MSN20010829114009308/29/01 11:40:31  5-MIN KMSN 291740Z 19011KT 10SM CLR 24/12 A3004 750 46 2100 180/11 RMK AO2
14837KMSN MSN20010829114509308/29/01 11:45:31  5-MIN KMSN 291745Z 18010KT 10SM CLR 25/12 A3004 750 44 2100 180/10 RMK AO2
14837KMSN MSN20010829115012808/29/01 11:50:31  5-MIN KMSN 291750Z 19008KT 10SM CLR 25/13 A3005 750 46 2100 190/08 RMK AO2 SLP171 T02500128 10250 20144 50002
14837KMSN MSN20010829115509308/29/01 11:55:31  5-MIN KMSN 291755Z 16011KT 10SM CLR 25/13 A3005 750 48 2100 160/11 RMK AO2
14837KMSN MSN20010829120009308/29/01 12:00:31  5-MIN KMSN 291800Z 17009KT 10SM CLR 25/13 A3004 750 48 2100 170/09 RMK AO2
14837KMSN MSN20010829120509308/29/01 12:05:31  5-MIN KMSN 291805Z 17008KT 10SM CLR 25/14 A3004 750 49 2100 170/08 RMK AO2
14837KMSN MSN20010829121009308/29/01 12:10:31  5-MIN KMSN 291810Z 16008KT 10SM CLR 25/14 A3004 750 49 2100 160/08 RMK AO2
14837KMSN MSN20010829121509308/29/01 12:15:31  5-MIN KMSN 291815Z 17007KT 10SM CLR 26/14 A3004 750 49 2200 170/07 RMK AO2
14837KMSN MSN20010829122009308/29/01 12:20:31  5-MIN KMSN 291820Z 17009KT 10SM CLR 25/13 A3003 760 46 2100 170/09 RMK AO2
14837KMSN MSN20010829122509308/29/01 12:25:31  5-MIN KMSN 291825Z 17009KT 10SM CLR 26/13 A3004 760 44 2200 170/09 RMK AO2
14837KMSN MSN20010829123009308/29/01 12:30:31  5-MIN KMSN 291830Z 18008KT 10SM CLR 26/13 A3004 760 44 2200 170/08 RMK AO2
14837KMSN MSN20010829123509308/29/01 12:35:31  5-MIN KMSN 291835Z 19006KT 10SM CLR 26/13 A3004 760 44 2200 190/06 RMK AO2
14837KMSN MSN20010829124010908/29/01 12:40:31  5-MIN KMSN 291840Z 18007KT 140V240 10SM CLR 25/13 A3004 760 48 2100 180/07 140V240 RMK AO2
14837KMSN MSN20010829124509308/29/01 12:45:31  5-MIN KMSN 291845Z 15009KT 10SM CLR 26/13 A3004 760 46 2200 150/09 RMK AO2
14837KMSN MSN20010829125011008/29/01 12:50:31  5-MIN KMSN 291850Z 20009KT 10SM CLR 25/13 A3004 760 48 2100 200/09 RMK AO2 SLP167 T02500133
14837KMSN MSN20010829125509308/29/01 12:55:31  5-MIN KMSN 291855Z 22006KT 10SM CLR 25/13 A3004 760 48 2100 220/06 RMK AO2
14837KMSN MSN20010829130009308/29/01 13:00:31  5-MIN KMSN 291900Z 16008KT 10SM CLR 26/14 A3004 750 48 2200 160/08 RMK AO2
14837KMSN MSN20010829130509308/29/01 13:05:31  5-MIN KMSN 291905Z 16007KT 10SM CLR 26/13 A3005 750 46 2200 150/07 RMK AO2
14837KMSN MSN20010829131009608/29/01 13:10:31  5-MIN KMSN 291910Z 16003KT 10SM FEW110 25/13 A3005 740 48 2100 160/03 RMK AO2
14837KMSN MSN20010829131510308/29/01 13:15:31  5-MIN KMSN 291915Z 00000KT 10SM SCT110 25/13 A3006 730 46 2100 000/00 RMK AO2 PRESRR
14837KMSN MSN20010829132009608/29/01 13:20:31  5-MIN KMSN 291920Z VRB04KT 10SM BKN110 25/13 A3006 730 48 2100 VRB/04 RMK AO2
14837KMSN MSN20010829132509608/29/01 13:25:31  5-MIN KMSN 291925Z 23004KT 10SM BKN110 25/13 A3006 730 48 2100 230/04 RMK AO2
14837KMSN MSN20010829133009608/29/01 13:30:31  5-MIN KMSN 291930Z VRB04KT 10SM BKN110 25/14 A3006 730 49 2100 VRB/04 RMK AO2
14837KMSN MSN20010829133509608/29/01 13:35:31  5-MIN KMSN 291935Z VRB04KT 10SM SCT110 26/14 A3006 730 48 2200 VRB/04 RMK AO2
14837KMSN MSN20010829134009608/29/01 13:40:31  5-MIN KMSN 291940Z 00000KT 10SM SCT110 26/13 A3006 730 46 2200 000/00 RMK AO2
14837KMSN MSN20010829134509608/29/01 13:45:31  5-MIN KMSN 291945Z 00000KT 10SM FEW110 26/13 A3006 730 44 2200 000/00 RMK AO2
14837KMSN MSN20010829135011308/29/01 13:50:31  5-MIN KMSN 291950Z VRB05KT 10SM FEW055 26/13 A3007 730 46 2200 VRB/05 RMK AO2 SLP179 T02560133
14837KMSN MSN20010829135509308/29/01 13:55:31  5-MIN KMSN 291955Z VRB05KT 10SM CLR 26/15 A3006 730 50 2200 VRB/05 RMK AO2
14837KMSN MSN20010829140009308/29/01 14:00:31  5-MIN KMSN 292000Z VRB04KT 10SM CLR 26/14 A3006 730 48 2200 VRB/04 RMK AO2
14837KMSN MSN20010829140509608/29/01 14:05:31  5-MIN KMSN 292005Z 32006KT 10SM FEW055 26/14 A3006 740 49 2200 320/06 RMK AO2
14837KMSN MSN20010829141009608/29/01 14:10:31  5-MIN KMSN 292010Z 00000KT 10SM FEW055 25/14 A3005 740 49 2100 000/00 RMK AO2
14837KMSN MSN20010829141510308/29/01 14:15:31  5-MIN KMSN 292015Z VRB03KT 10SM SCT055 25/14 A3004 750 49 2100 VRB/03 RMK AO2 PRESFR
14837KMSN MSN20010829142010308/29/01 14:20:31  5-MIN KMSN 292020Z VRB03KT 10SM SCT055 25/14 A3003 760 49 2100 VRB/03 RMK AO2 PRESFR
14837KMSN MSN20010829142510308/29/01 14:25:31  5-MIN KMSN 292025Z 11005KT 10SM SCT110 25/14 A3002 770 49 2100 110/05 RMK AO2 PRESFR
14837KMSN MSN20010829143010308/29/01 14:30:31  5-MIN KMSN 292030Z 10005KT 10SM SCT110 26/14 A3000 790 49 2200 100/05 RMK AO2 PRESFR
14837KMSN MSN20010829143510308/29/01 14:35:31  5-MIN KMSN 292035Z 13012KT 10SM SCT110 26/15 A2998 810 51 2300 130/12 RMK AO2 PRESFR
14837KMSN MSN20010829144010308/29/01 14:40:31  5-MIN KMSN 292040Z 13014KT 10SM BKN120 25/14 A2995 840 51 2200 120/14 RMK AO2 PRESFR
14837KMSN MSN20010829144509608/29/01 14:45:31  5-MIN KMSN 292045Z 15015KT 10SM BKN070 24/14 A2996 830 51 2100 150/15 RMK AO2
14837KMSN MSN20010829145011908/29/01 14:50:31  5-MIN KMSN 292050Z 16014KT 10SM BKN070 25/14 A2996 820 49 2200 160/14 RMK AO2 SLP143 T02500139 58005
14837KMSN MSN20010829145510208/29/01 14:55:31  5-MIN KMSN 292055Z 16013G19KT 10SM SCT070 26/14 A2997 820 48 2300 160/13G19 RMK AO2
14837KMSN MSN20010829150009608/29/01 15:00:31  5-MIN KMSN 292100Z 15012KT 10SM SCT070 26/14 A2997 820 48 2300 150/12 RMK AO2
14837KMSN MSN20010829150509608/29/01 15:05:31  5-MIN KMSN 292105Z 16014KT 10SM SCT070 26/14 A2997 820 48 2300 160/14 RMK AO2
14837KMSN MSN20010829151010308/29/01 15:10:31  5-MIN KMSN 292110Z 17013KT 10SM FEW050 SCT070 26/14 A2997 820 48 2300 160/13 RMK AO2
14837KMSN MSN20010829151510308/29/01 15:15:31  5-MIN KMSN 292115Z 16011KT 10SM FEW050 SCT070 26/14 A2997 820 48 2300 160/11 RMK AO2
14837KMSN MSN20010829152010308/29/01 15:20:31  5-MIN KMSN 292120Z 17011KT 10SM FEW050 SCT070 26/14 A2997 820 46 2300 170/11 RMK AO2
14837KMSN MSN20010829152510308/29/01 15:25:31  5-MIN KMSN 292125Z 17011KT 10SM FEW050 SCT090 26/14 A2997 820 48 2300 170/11 RMK AO2
14837KMSN MSN20010829153010908/29/01 15:30:31  5-MIN KMSN 292130Z 18011G16KT 10SM FEW050 SCT090 26/14 A2996 820 49 2300 180/11G16 RMK AO2
14837KMSN MSN20010829153510308/29/01 15:35:31  5-MIN KMSN 292135Z 19013KT 10SM FEW050 SCT090 26/14 A2996 820 48 2300 190/13 RMK AO2
14837KMSN MSN20010829154009608/29/01 15:40:31  5-MIN KMSN 292140Z 18013KT 10SM FEW100 26/14 A2996 830 48 2300 180/13 RMK AO2
14837KMSN MSN20010829154509608/29/01 15:45:31  5-MIN KMSN 292145Z 18013KT 10SM FEW100 26/14 A2996 830 48 2300 180/13 RMK AO2
14837KMSN MSN20010829155011308/29/01 15:50:31  5-MIN KMSN 292150Z 18013KT 10SM FEW100 26/14 A2995 830 48 2300 180/13 RMK AO2 SLP140 T02560139
14837KMSN MSN20010829155510208/29/01 15:55:31  5-MIN KMSN 292155Z 18011G18KT 10SM FEW100 26/14 A2995 830 49 2300 180/11G18 RMK AO2
14837KMSN MSN20010829160010208/29/01 16:00:31  5-MIN KMSN 292200Z 18013G17KT 10SM FEW100 26/14 A2995 840 49 2300 180/13G17 RMK AO2
14837KMSN MSN20010829160509608/29/01 16:05:31  5-MIN KMSN 292205Z 18013KT 10SM FEW100 26/15 A2995 840 51 2300 180/13 RMK AO2
14837KMSN MSN20010829161009608/29/01 16:10:31  5-MIN KMSN 292210Z 17013KT 10SM FEW100 26/15 A2995 840 51 2300 170/13 RMK AO2
14837KMSN MSN20010829161509608/29/01 16:15:31  5-MIN KMSN 292215Z 16014KT 10SM FEW100 26/14 A2995 840 49 2300 160/14 RMK AO2
14837KMSN MSN20010829162009608/29/01 16:20:31  5-MIN KMSN 292220Z 18010KT 10SM FEW100 26/14 A2995 840 49 2300 180/10 RMK AO2
14837KMSN MSN20010829162509608/29/01 16:25:31  5-MIN KMSN 292225Z 18011KT 10SM FEW100 25/14 A2995 840 51 2200 180/11 RMK AO2
14837KMSN MSN20010829163009308/29/01 16:30:31  5-MIN KMSN 292230Z 18010KT 10SM CLR 25/15 A2995 840 53 2200 180/10 RMK AO2
14837KMSN MSN20010829163509308/29/01 16:35:31  5-MIN KMSN 292235Z 17013KT 10SM CLR 25/14 A2995 840 51 2200 170/13 RMK AO2
14837KMSN MSN20010829164009308/29/01 16:40:31  5-MIN KMSN 292240Z 18011KT 10SM CLR 25/15 A2995 840 53 2200 180/11 RMK AO2
14837KMSN MSN20010829164509308/29/01 16:45:31  5-MIN KMSN 292245Z 18010KT 10SM CLR 25/15 A2995 840 53 2200 180/10 RMK AO2
14837KMSN MSN20010829165011008/29/01 16:50:31  5-MIN KMSN 292250Z 18010KT 10SM CLR 25/14 A2995 840 51 2200 180/10 RMK AO2 SLP137 T02500144
14837KMSN MSN20010829165509308/29/01 16:55:31  5-MIN KMSN 292255Z 18012KT 10SM CLR 25/14 A2994 840 51 2200 180/12 RMK AO2
14837KMSN MSN20010829170009308/29/01 17:00:31  5-MIN KMSN 292300Z 19011KT 10SM CLR 25/14 A2994 850 51 2200 180/11 RMK AO2
14837KMSN MSN20010829170509308/29/01 17:05:31  5-MIN KMSN 292305Z 18011KT 10SM CLR 25/14 A2994 850 51 2200 180/11 RMK AO2
14837KMSN MSN20010829171009308/29/01 17:10:31  5-MIN KMSN 292310Z 19011KT 10SM CLR 25/14 A2994 850 51 2200 180/11 RMK AO2
14837KMSN MSN20010829171509308/29/01 17:15:31  5-MIN KMSN 292315Z 18010KT 10SM CLR 25/14 A2994 850 51 2200 170/10 RMK AO2
14837KMSN MSN20010829172009308/29/01 17:20:31  5-MIN KMSN 292320Z 18010KT 10SM CLR 24/14 A2993 850 53 2200 180/10 RMK AO2
14837KMSN MSN20010829172509308/29/01 17:25:31  5-MIN KMSN 292325Z 18010KT 10SM CLR 24/14 A2993 860 53 2200 180/10 RMK AO2
14837KMSN MSN20010829173009308/29/01 17:30:31  5-MIN KMSN 292330Z 18011KT 10SM CLR 24/14 A2993 860 53 2200 180/11 RMK AO2
14837KMSN MSN20010829173509308/29/01 17:35:31  5-MIN KMSN 292335Z 18013KT 10SM CLR 24/14 A2993 860 53 2200 180/13 RMK AO2
14837KMSN MSN20010829174009308/29/01 17:40:31  5-MIN KMSN 292340Z 18008KT 10SM CLR 24/14 A2993 860 53 2200 170/08 RMK AO2
14837KMSN MSN20010829174509308/29/01 17:45:31  5-MIN KMSN 292345Z 18009KT 10SM CLR 24/14 A2992 860 53 2200 180/09 RMK AO2
14837KMSN MSN20010829175012808/29/01 17:50:31  5-MIN KMSN 292350Z 17008KT 10SM CLR 24/14 A2992 870 53 2200 170/08 RMK AO2 SLP128 T02440144 10261 20244 58026
14837KMSN MSN20010829175509308/29/01 17:55:31  5-MIN KMSN 292355Z 17007KT 10SM CLR 24/15 A2992 870 57 2100 170/07 RMK AO2
14837KMSN MSN20010829180009308/29/01 18:00:31  5-MIN KMSN 300000Z 18008KT 10SM CLR 24/15 A2992 870 57 2100 170/08 RMK AO2
14837KMSN MSN20010829180509308/29/01 18:05:31  5-MIN KMSN 300005Z 18008KT 10SM CLR 24/15 A2991 870 57 2100 180/08 RMK AO2
14837KMSN MSN20010829181009308/29/01 18:10:31  5-MIN KMSN 300010Z 18007KT 10SM CLR 23/15 A2991 870 59 2100 180/07 RMK AO2
14837KMSN MSN20010829181509308/29/01 18:15:31  5-MIN KMSN 300015Z 17007KT 10SM CLR 23/15 A2991 870 59 2100 170/07 RMK AO2
14837KMSN MSN20010829182009308/29/01 18:20:31  5-MIN KMSN 300020Z 18007KT 10SM CLR 23/16 A2991 870 61 2100 180/07 RMK AO2
14837KMSN MSN20010829182509308/29/01 18:25:31  5-MIN KMSN 300025Z 18007KT 10SM CLR 23/15 A2991 880 59 2100 170/07 RMK AO2
14837KMSN MSN20010829183009308/29/01 18:30:31  5-MIN KMSN 300030Z 18007KT 10SM CLR 23/16 A2991 880 61 2100 180/07 RMK AO2
14837KMSN MSN20010829183509608/29/01 18:35:31  5-MIN KMSN 300035Z 18007KT 10SM FEW100 23/16 A2991 880 61 2100 180/07 RMK AO2
14837KMSN MSN20010829184009608/29/01 18:40:31  5-MIN KMSN 300040Z 18007KT 10SM FEW100 23/16 A2991 880 61 2100 180/07 RMK AO2
14837KMSN MSN20010829184509608/29/01 18:45:31  5-MIN KMSN 300045Z 18006KT 10SM FEW100 23/16 A2991 880 61 2100 180/06 RMK AO2
14837KMSN MSN20010829185011308/29/01 18:50:31  5-MIN KMSN 300050Z 18006KT 10SM FEW100 23/16 A2991 880 63 2000 170/06 RMK AO2 SLP124 T02280156
14837KMSN MSN20010829185509608/29/01 18:55:31  5-MIN KMSN 300055Z 18007KT 10SM FEW100 23/16 A2991 880 63 2000 180/07 RMK AO2
14837KMSN MSN20010829190009608/29/01 19:00:31  5-MIN KMSN 300100Z 17007KT 10SM FEW100 23/16 A2991 880 63 2000 170/07 RMK AO2
14837KMSN MSN20010829190509608/29/01 19:05:31  5-MIN KMSN 300105Z 17007KT 10SM FEW100 22/16 A2990 880 68 2000 170/07 RMK AO2
14837KMSN MSN20010829191009608/29/01 19:10:31  5-MIN KMSN 300110Z 17007KT 10SM FEW100 22/16 A2990 880 68 2000 170/07 RMK AO2
14837KMSN MSN20010829191509608/29/01 19:15:31  5-MIN KMSN 300115Z 17006KT 10SM FEW100 22/16 A2990 880 68 2000 170/06 RMK AO2
14837KMSN MSN20010829192009608/29/01 19:20:31  5-MIN KMSN 300120Z 17007KT 10SM FEW100 22/16 A2991 880 68 1900 170/07 RMK AO2
14837KMSN MSN20010829192509608/29/01 19:25:31  5-MIN KMSN 300125Z 17008KT 10SM FEW100 22/16 A2991 880 68 1900 170/08 RMK AO2
14837KMSN MSN20010829193009608/29/01 19:30:31  5-MIN KMSN 300130Z 17008KT 10SM FEW100 22/16 A2991 880 65 2000 170/08 RMK AO2
14837KMSN MSN20010829193509608/29/01 19:35:31  5-MIN KMSN 300135Z 17007KT 10SM FEW100 22/16 A2991 870 65 2000 170/07 RMK AO2
14837KMSN MSN20010829194009608/29/01 19:40:31  5-MIN KMSN 300140Z 18007KT 10SM FEW100 22/16 A2991 880 65 2000 170/07 RMK AO2
14837KMSN MSN20010829194509308/29/01 19:45:31  5-MIN KMSN 300145Z 17007KT 10SM CLR 22/16 A2991 880 68 2000 170/07 RMK AO2
14837KMSN MSN20010829195011008/29/01 19:50:31  5-MIN KMSN 300150Z 17007KT 10SM CLR 22/16 A2991 880 70 1900 170/07 RMK AO2 SLP124 T02170161
14837KMSN MSN20010829195509308/29/01 19:55:31  5-MIN KMSN 300155Z 18006KT 10SM CLR 22/16 A2991 880 70 1900 170/06 RMK AO2
14837KMSN MSN20010829200009308/29/01 20:00:31  5-MIN KMSN 300200Z 17006KT 10SM CLR 22/16 A2991 880 70 1900 170/06 RMK AO2
14837KMSN MSN20010829200509308/29/01 20:05:31  5-MIN KMSN 300205Z 17008KT 10SM CLR 22/16 A2991 880 70 1900 170/08 RMK AO2
14837KMSN MSN20010829201009308/29/01 20:10:31  5-MIN KMSN 300210Z 18008KT 10SM CLR 22/16 A2990 880 68 2000 180/08 RMK AO2
14837KMSN MSN20010829201509308/29/01 20:15:31  5-MIN KMSN 300215Z 18008KT 10SM CLR 22/16 A2990 880 68 2000 170/08 RMK AO2
14837KMSN MSN20010829202009308/29/01 20:20:31  5-MIN KMSN 300220Z 18007KT 10SM CLR 22/16 A2990 880 70 1900 180/07 RMK AO2
14837KMSN MSN20010829202509308/29/01 20:25:31  5-MIN KMSN 300225Z 18007KT 10SM CLR 22/16 A2990 880 70 1900 180/07 RMK AO2
14837KMSN MSN20010829203009308/29/01 20:30:31  5-MIN KMSN 300230Z 18009KT 10SM CLR 22/16 A2990 890 70 1900 180/09 RMK AO2
14837KMSN MSN20010829203509308/29/01 20:35:31  5-MIN KMSN 300235Z 18009KT 10SM CLR 22/16 A2990 890 68 2000 180/09 RMK AO2
14837KMSN MSN20010829204009308/29/01 20:40:31  5-MIN KMSN 300240Z 18009KT 10SM CLR 22/16 A2990 890 70 1900 180/09 RMK AO2
14837KMSN MSN20010829204509308/29/01 20:45:31  5-MIN KMSN 300245Z 18009KT 10SM CLR 22/16 A2989 890 70 1900 180/09 RMK AO2
14837KMSN MSN20010829205011608/29/01 20:50:31  5-MIN KMSN 300250Z 18009KT 10SM CLR 22/16 A2989 890 70 1900 180/09 RMK AO2 SLP118 T02170161 58016
14837KMSN MSN20010829205509308/29/01 20:55:31  5-MIN KMSN 300255Z 18010KT 10SM CLR 22/16 A2989 890 70 1900 180/10 RMK AO2
14837KMSN MSN20010829210009308/29/01 21:00:31  5-MIN KMSN 300300Z 18009KT 10SM CLR 22/16 A2989 890 70 1900 170/09 RMK AO2
14837KMSN MSN20010829210509308/29/01 21:05:31  5-MIN KMSN 300305Z 17010KT 10SM CLR 21/16 A2989 890 73 1900 170/10 RMK AO2
14837KMSN MSN20010829211009308/29/01 21:10:31  5-MIN KMSN 300310Z 18008KT 10SM CLR 21/16 A2989 890 73 1900 180/08 RMK AO2
14837KMSN MSN20010829211509308/29/01 21:15:31  5-MIN KMSN 300315Z 18009KT 10SM CLR 21/16 A2988 900 73 1900 180/09 RMK AO2
14837KMSN MSN20010829212009308/29/01 21:20:31  5-MIN KMSN 300320Z 18009KT 10SM CLR 21/16 A2988 900 73 1900 180/09 RMK AO2
14837KMSN MSN20010829212509308/29/01 21:25:31  5-MIN KMSN 300325Z 18008KT 10SM CLR 21/16 A2988 900 73 1900 180/08 RMK AO2
14837KMSN MSN20010829213009308/29/01 21:30:31  5-MIN KMSN 300330Z 18010KT 10SM CLR 21/16 A2988 900 70 1900 180/10 RMK AO2
14837KMSN MSN20010829213509308/29/01 21:35:31  5-MIN KMSN 300335Z 18010KT 10SM CLR 21/16 A2988 900 70 1900 180/10 RMK AO2
14837KMSN MSN20010829214009308/29/01 21:40:31  5-MIN KMSN 300340Z 18009KT 10SM CLR 21/16 A2988 900 70 1900 180/09 RMK AO2
14837KMSN MSN20010829214509308/29/01 21:45:31  5-MIN KMSN 300345Z 18008KT 10SM CLR 21/16 A2988 900 70 1900 180/08 RMK AO2
14837KMSN MSN20010829215011008/29/01 21:50:31  5-MIN KMSN 300350Z 18008KT 10SM CLR 21/16 A2988 900 70 1900 180/08 RMK AO2 SLP115 T02110156
14837KMSN MSN20010829215509308/29/01 21:55:31  5-MIN KMSN 300355Z 19010KT 10SM CLR 22/16 A2988 900 68 1900 190/10 RMK AO2
14837KMSN MSN20010829220009308/29/01 22:00:31  5-MIN KMSN 300400Z 18009KT 10SM CLR 21/16 A2988 900 70 1900 180/09 RMK AO2
14837KMSN MSN20010829220509308/29/01 22:05:31  5-MIN KMSN 300405Z 18009KT 10SM CLR 21/16 A2988 900 70 1900 180/09 RMK AO2
14837KMSN MSN20010829221009308/29/01 22:10:31  5-MIN KMSN 300410Z 18009KT 10SM CLR 21/16 A2988 900 70 1900 180/09 RMK AO2
14837KMSN MSN20010829221509308/29/01 22:15:31  5-MIN KMSN 300415Z 18008KT 10SM CLR 21/16 A2989 890 70 1900 180/08 RMK AO2
14837KMSN MSN20010829222009308/29/01 22:20:31  5-MIN KMSN 300420Z 18010KT 10SM CLR 21/16 A2989 890 70 1900 180/10 RMK AO2
14837KMSN MSN20010829222509308/29/01 22:25:31  5-MIN KMSN 300425Z 18009KT 10SM CLR 21/16 A2989 890 70 1800 180/09 RMK AO2
14837KMSN MSN20010829223009308/29/01 22:30:31  5-MIN KMSN 300430Z 19008KT 10SM CLR 21/16 A2989 890 70 1900 190/08 RMK AO2
14837KMSN MSN20010829223509308/29/01 22:35:31  5-MIN KMSN 300435Z 19008KT 10SM CLR 21/16 A2989 890 73 1900 190/08 RMK AO2
14837KMSN MSN20010829224009308/29/01 22:40:31  5-MIN KMSN 300440Z 18008KT 10SM CLR 21/16 A2989 900 73 1900 180/08 RMK AO2
14837KMSN MSN20010829224509308/29/01 22:45:31  5-MIN KMSN 300445Z 18008KT 10SM CLR 21/16 A2989 900 75 1800 180/08 RMK AO2
14837KMSN MSN20010829225011008/29/01 22:50:31  5-MIN KMSN 300450Z 19008KT 10SM CLR 21/16 A2989 900 73 1900 190/08 RMK AO2 SLP115 T02110161
14837KMSN MSN20010829225509308/29/01 22:55:31  5-MIN KMSN 300455Z 19007KT 10SM CLR 21/16 A2989 890 73 1800 190/07 RMK AO2
14837KMSN MSN20010829230009308/29/01 23:00:31  5-MIN KMSN 300500Z 20006KT 10SM CLR 21/16 A2990 890 73 1800 200/06 RMK AO2
14837KMSN MSN20010829230509308/29/01 23:05:31  5-MIN KMSN 300505Z 19007KT 10SM CLR 21/16 A2990 880 73 1800 190/07 RMK AO2
14837KMSN MSN20010829231009308/29/01 23:10:31  5-MIN KMSN 300510Z 19006KT 10SM CLR 21/16 A2990 890 73 1800 190/06 RMK AO2
14837KMSN MSN20010829231509308/29/01 23:15:31  5-MIN KMSN 300515Z 19006KT 10SM CLR 21/16 A2990 890 73 1800 190/06 RMK AO2
14837KMSN MSN20010829232009308/29/01 23:20:31  5-MIN KMSN 300520Z 20008KT 10SM CLR 21/18 A2990 890 81 1800 200/08 RMK AO2
14837KMSN MSN20010829232509308/29/01 23:25:31  5-MIN KMSN 300525Z 20008KT 10SM CLR 22/18 A2990 880 75 2000 200/08 RMK AO2
14837KMSN MSN20010829233009308/29/01 23:30:31  5-MIN KMSN 300530Z 19011KT 10SM CLR 21/16 A2990 890 73 1800 190/11 RMK AO2
14837KMSN MSN20010829233509308/29/01 23:35:31  5-MIN KMSN 300535Z 19012KT 10SM CLR 22/16 A2989 890 70 1900 190/12 RMK AO2
14837KMSN MSN20010829234009308/29/01 23:40:31  5-MIN KMSN 300540Z 19011KT 10SM CLR 22/16 A2989 890 70 1900 190/11 RMK AO2
14837KMSN MSN20010829234509908/29/01 23:45:31  5-MIN KMSN 300545Z 19009G16KT 10SM CLR 22/16 A2989 890 70 1900 190/09G16 RMK AO2
14837KMSN MSN20010829235014408/29/01 23:50:31  5-MIN KMSN 300550Z 19011G16KT 10SM CLR 21/16 A2989 900 73 1900 190/11G16 RMK AO2 SLP115 T02110161 10239 20206 402610133 58009
14837KMSN MSN20010829235509308/29/01 23:55:31  5-MIN KMSN 300555Z 19010KT 10SM CLR 21/16 A2989 890 73 1900 190/10 RMK AO2
14837KMSN MSN20010830000009308/30/01 00:00:31  5-MIN KMSN 300600Z 19010KT 10SM CLR 22/16 A2989 890 70 1900 190/10 RMK AO2
14837KMSN MSN20010830000509308/30/01 00:05:31  5-MIN KMSN 300605Z 19011KT 10SM CLR 21/16 A2989 890 73 1900 190/11 RMK AO2
14837KMSN MSN20010830001009308/30/01 00:10:31  5-MIN KMSN 300610Z 19009KT 10SM CLR 21/16 A2989 900 73 1900 190/09 RMK AO2
14837KMSN MSN20010830001509308/30/01 00:15:31  5-MIN KMSN 300615Z 19009KT 10SM CLR 21/16 A2988 900 73 1900 190/09 RMK AO2
14837KMSN MSN20010830002009908/30/01 00:20:31  5-MIN KMSN 300620Z 19012G16KT 10SM CLR 21/16 A2988 900 73 1900 190/12G16 RMK AO2
14837KMSN MSN20010830002509308/30/01 00:25:31  5-MIN KMSN 300625Z 19011KT 10SM CLR 21/16 A2988 900 73 1900 190/11 RMK AO2
14837KMSN MSN20010830003009308/30/01 00:30:31  5-MIN KMSN 300630Z 18011KT 10SM CLR 21/16 A2987 910 73 1900 180/11 RMK AO2
14837KMSN MSN20010830003509308/30/01 00:35:31  5-MIN KMSN 300635Z 19010KT 10SM CLR 21/16 A2987 910 73 1900 190/10 RMK AO2
14837KMSN MSN20010830004009308/30/01 00:40:31  5-MIN KMSN 300640Z 19011KT 10SM CLR 21/16 A2987 910 73 1900 190/11 RMK AO2
14837KMSN MSN20010830004509308/30/01 00:45:31  5-MIN KMSN 300645Z 19013KT 10SM CLR 21/16 A2987 910 73 1900 190/13 RMK AO2
14837KMSN MSN20010830005011008/30/01 00:50:31  5-MIN KMSN 300650Z 19011KT 10SM CLR 21/16 A2987 910 73 1900 190/11 RMK AO2 SLP109 T02110161
14837KMSN MSN20010830005509308/30/01 00:55:31  5-MIN KMSN 300655Z 19013KT 10SM CLR 21/16 A2986 920 73 1900 190/13 RMK AO2
14837KMSN MSN20010830010009308/30/01 01:00:31  5-MIN KMSN 300700Z 19013KT 10SM CLR 21/17 A2986 920 75 1900 190/13 RMK AO2
14837KMSN MSN20010830010509308/30/01 01:05:31  5-MIN KMSN 300705Z 18012KT 10SM CLR 21/17 A2985 930 75 1900 180/12 RMK AO2
14837KMSN MSN20010830011010008/30/01 01:10:31  5-MIN KMSN 300710Z 18013KT 10SM CLR 21/17 A2985 930 75 1900 180/13 RMK AO2 PRESFR
14837KMSN MSN20010830011509308/30/01 01:15:31  5-MIN KMSN 300715Z 18010KT 10SM CLR 21/17 A2984 940 75 1900 180/10 RMK AO2
14837KMSN MSN20010830012009308/30/01 01:20:31  5-MIN KMSN 300720Z 18010KT 10SM CLR 21/17 A2984 940 75 1900 180/10 RMK AO2
14837KMSN MSN20010830012509308/30/01 01:25:31  5-MIN KMSN 300725Z 18009KT 10SM CLR 21/17 A2984 940 75 1900 180/09 RMK AO2
14837KMSN MSN20010830013009308/30/01 01:30:31  5-MIN KMSN 300730Z 18010KT 10SM CLR 21/17 A2984 940 75 1900 180/10 RMK AO2
14837KMSN MSN20010830013509308/30/01 01:35:31  5-MIN KMSN 300735Z 19011KT 10SM CLR 21/17 A2983 950 75 1900 190/11 RMK AO2
14837KMSN MSN20010830014009308/30/01 01:40:31  5-MIN KMSN 300740Z 18011KT 10SM CLR 21/17 A2983 950 75 1900 180/11 RMK AO2
14837KMSN MSN20010830014509308/30/01 01:45:31  5-MIN KMSN 300745Z 19011KT 10SM CLR 21/17 A2983 950 75 1900 190/11 RMK AO2
14837KMSN MSN20010830015011008/30/01 01:50:31  5-MIN KMSN 300750Z 19011KT 10SM CLR 21/17 A2983 950 75 1900 190/11 RMK AO2 SLP096 T02110167
14837KMSN MSN20010830015509308/30/01 01:55:31  5-MIN KMSN 300755Z 19010KT 10SM CLR 21/17 A2983 950 75 1900 190/10 RMK AO2
14837KMSN MSN20010830020009308/30/01 02:00:31  5-MIN KMSN 300800Z 19010KT 10SM CLR 21/17 A2982 950 75 1900 180/10 RMK AO2
14837KMSN MSN20010830020509308/30/01 02:05:31  5-MIN KMSN 300805Z 19009KT 10SM CLR 21/17 A2982 950 75 1900 190/09 RMK AO2
14837KMSN MSN20010830021009308/30/01 02:10:31  5-MIN KMSN 300810Z 19010KT 10SM CLR 21/17 A2982 960 75 1900 180/10 RMK AO2
14837KMSN MSN20010830021509308/30/01 02:15:31  5-MIN KMSN 300815Z 19010KT 10SM CLR 21/17 A2982 960 75 1900 190/10 RMK AO2
14837KMSN MSN20010830022009308/30/01 02:20:31  5-MIN KMSN 300820Z 19008KT 10SM CLR 21/17 A2982 950 75 1900 190/08 RMK AO2
14837KMSN MSN20010830022509308/30/01 02:25:31  5-MIN KMSN 300825Z 20007KT 10SM CLR 21/17 A2983 950 75 1900 200/07 RMK AO2
14837KMSN MSN20010830023009308/30/01 02:30:31  5-MIN KMSN 300830Z 19008KT 10SM CLR 21/17 A2983 950 75 1900 190/08 RMK AO2
14837KMSN MSN20010830023509308/30/01 02:35:31  5-MIN KMSN 300835Z 19010KT 10SM CLR 21/17 A2982 960 75 1900 190/10 RMK AO2
14837KMSN MSN20010830024009308/30/01 02:40:31  5-MIN KMSN 300840Z 18010KT 10SM CLR 21/17 A2982 960 75 1900 180/10 RMK AO2
14837KMSN MSN20010830024509308/30/01 02:45:31  5-MIN KMSN 300845Z 19010KT 10SM CLR 21/17 A2982 960 75 1900 190/10 RMK AO2
14837KMSN MSN20010830025011608/30/01 02:50:31  5-MIN KMSN 300850Z 19008KT 10SM CLR 21/17 A2982 960 75 1900 190/08 RMK AO2 SLP093 T02110167 56001
14837KMSN MSN20010830025509308/30/01 02:55:31  5-MIN KMSN 300855Z 19008KT 10SM CLR 21/17 A2982 950 75 1900 190/08 RMK AO2
14837KMSN MSN20010830030009308/30/01 03:00:31  5-MIN KMSN 300900Z 19008KT 10SM CLR 21/17 A2982 960 75 1900 190/08 RMK AO2
14837KMSN MSN20010830030509308/30/01 03:05:31  5-MIN KMSN 300905Z 19008KT 10SM CLR 22/17 A2982 960 73 2000 190/08 RMK AO2
14837KMSN MSN20010830031009308/30/01 03:10:31  5-MIN KMSN 300910Z 20006KT 10SM CLR 21/17 A2983 950 75 1900 200/06 RMK AO2
14837KMSN MSN20010830031509308/30/01 03:15:31  5-MIN KMSN 300915Z VRB04KT 10SM CLR 21/17 A2983 950 75 1900 VRB/04 RMK AO2
14837KMSN MSN20010830032009308/30/01 03:20:31  5-MIN KMSN 300920Z VRB04KT 10SM CLR 21/17 A2983 950 75 1900 VRB/04 RMK AO2
14837KMSN MSN20010830032509308/30/01 03:25:31  5-MIN KMSN 300925Z 24004KT 10SM CLR 21/17 A2984 940 75 1900 240/04 RMK AO2
14837KMSN MSN20010830033010008/30/01 03:30:31  5-MIN KMSN 300930Z 31008KT 10SM CLR 21/17 A2986 920 78 1900 310/08 RMK AO2 PRESRR
14837KMSN MSN20010830033510308/30/01 03:35:31  5-MIN KMSN 300935Z 32008KT 10SM FEW060 21/17 A2987 910 78 1900 310/08 RMK AO2 PRESRR
14837KMSN MSN20010830034009608/30/01 03:40:31  5-MIN KMSN 300940Z VRB03KT 10SM FEW060 21/17 A2985 930 78 1900 VRB/03 RMK AO2
14837KMSN MSN20010830034509608/30/01 03:45:31  5-MIN KMSN 300945Z 31005KT 10SM FEW060 21/17 A2986 920 78 1900 310/05 RMK AO2
14837KMSN MSN20010830035011308/30/01 03:50:31  5-MIN KMSN 300950Z 31005KT 10SM FEW060 21/17 A2987 910 78 1900 310/05 RMK AO2 SLP108 T02110172
14837KMSN MSN20010830035509608/30/01 03:55:31  5-MIN KMSN 300955Z 00000KT 10SM FEW060 21/17 A2986 920 81 1800 000/00 RMK AO2
14837KMSN MSN20010830040009608/30/01 04:00:31  5-MIN KMSN 301000Z VRB03KT 10SM FEW060 21/17 A2986 920 78 1900 VRB/03 RMK AO2
14837KMSN MSN20010830040509308/30/01 04:05:31  5-MIN KMSN 301005Z 33004KT 10SM CLR 21/17 A2986 920 81 1800 330/04 RMK AO2
14837KMSN MSN20010830041009308/30/01 04:10:31  5-MIN KMSN 301010Z 31004KT 10SM CLR 21/17 A2986 920 81 1800 310/04 RMK AO2
14837KMSN MSN20010830041509308/30/01 04:15:31  5-MIN KMSN 301015Z 00000KT 10SM CLR 20/17 A2985 930 84 1800 000/00 RMK AO2
14837KMSN MSN20010830042009308/30/01 04:20:31  5-MIN KMSN 301020Z 00000KT 10SM CLR 21/17 A2985 930 81 1800 000/00 RMK AO2
14837KMSN MSN20010830042509308/30/01 04:25:31  5-MIN KMSN 301025Z 00000KT 10SM CLR 20/17 A2985 930 84 1800 000/00 RMK AO2
14837KMSN MSN20010830043009308/30/01 04:30:31  5-MIN KMSN 301030Z 00000KT 10SM CLR 20/17 A2984 940 84 1800 000/00 RMK AO2
14837KMSN MSN20010830043510008/30/01 04:35:31  5-MIN KMSN 301035Z 00000KT 10SM CLR 20/17 A2983 950 84 1800 000/00 RMK AO2 PRESFR
14837KMSN MSN20010830044010008/30/01 04:40:31  5-MIN KMSN 301040Z 00000KT 10SM CLR 20/17 A2982 950 84 1800 000/00 RMK AO2 PRESFR
14837KMSN MSN20010830044509308/30/01 04:45:31  5-MIN KMSN 301045Z 00000KT 10SM CLR 19/17 A2982 960 87 1700 000/00 RMK AO2
14837KMSN MSN20010830045011008/30/01 04:50:31  5-MIN KMSN 301050Z 00000KT 10SM CLR 19/17 A2982 950 87 1700 000/00 RMK AO2 SLP094 T01940172
14837KMSN MSN20010830045509308/30/01 04:55:31  5-MIN KMSN 301055Z 17004KT 10SM CLR 19/17 A2982 960 90 1700 170/04 RMK AO2
14837KMSN MSN20010830050009308/30/01 05:00:31  5-MIN KMSN 301100Z 18004KT 10SM CLR 19/17 A2982 960 87 1700 180/04 RMK AO2
14837KMSN MSN20010830050509308/30/01 05:05:31  5-MIN KMSN 301105Z 22003KT 10SM CLR 19/17 A2982 950 87 1700 220/03 RMK AO2
14837KMSN MSN20010830051009308/30/01 05:10:31  5-MIN KMSN 301110Z VRB03KT 10SM CLR 19/17 A2984 940 87 1700 VRB/03 RMK AO2
14837KMSN MSN20010830051509608/30/01 05:15:31  5-MIN KMSN 301115Z 00000KT 10SM FEW085 19/17 A2983 950 90 1700 000/00 RMK AO2
14837KMSN MSN20010830052010408/30/01 05:20:31  5-MIN KMSN 301120Z 00000KT 10SM SCT085 19/17 A2983 950 90 1700 000/00 RMK AO2 VIRGA E
14837KMSN MSN20010830052510408/30/01 05:25:31  5-MIN KMSN 301125Z VRB03KT 10SM SCT085 18/17 A2984 940 93 1600 VRB/03 RMK AO2 VIRGA E
14837KMSN MSN20010830053010308/30/01 05:30:31  5-MIN KMSN 301130Z 00000KT 9SM SCT085 18/17 A2983 950 93 1600 000/00 RMK AO2 VIRGA E
14837KMSN MSN20010830053510308/30/01 05:35:31  5-MIN KMSN 301135Z 00000KT 9SM FEW085 19/17 A2983 950 90 1700 000/00 RMK AO2 VIRGA E
14837KMSN MSN20010830054010308/30/01 05:40:31  5-MIN KMSN 301140Z 00000KT 8SM FEW085 18/17 A2982 960 96 1500 000/00 RMK AO2 VIRGA E
14837KMSN MSN20010830054510008/30/01 05:45:31  5-MIN KMSN 301145Z 16004KT 7SM CLR 18/17 A2982 960 93 1500 160/04 RMK AO2 VIRGA E
14837KMSN MSN20010830055013808/30/01 05:50:31  5-MIN KMSN 301150Z 00000KT 7SM FEW085 18/17 A2982 960 93 1600 000/00 RMK AO2 SLP093 VIRGA E T01830172 10217 20178 56022
14837KMSN MSN20010830055509208/30/01 05:55:31  5-MIN KMSN 301155Z 19003KT 8SM CLR 19/17 A2982 960 90 1700 190/03 RMK AO2
14837KMSN MSN20010830060009208/30/01 06:00:31  5-MIN KMSN 301200Z 18009KT 9SM CLR 20/18 A2982 960 87 1800 180/09 RMK AO2
14837KMSN MSN20010830060509308/30/01 06:05:31  5-MIN KMSN 301205Z 18006KT 10SM CLR 21/18 A2981 960 84 1900 180/06 RMK AO2
14837KMSN MSN20010830061009308/30/01 06:10:31  5-MIN KMSN 301210Z 18006KT 10SM CLR 21/17 A2981 970 81 1900 180/06 RMK AO2
14837KMSN MSN20010830061509308/30/01 06:15:31  5-MIN KMSN 301215Z 18007KT 10SM CLR 21/17 A2980 980 81 1900 180/07 RMK AO2
14837KMSN MSN20010830062009208/30/01 06:20:31  5-MIN KMSN 301220Z 18007KT 9SM CLR 21/18 A2980 980 84 1900 180/07 RMK AO2
14837KMSN MSN20010830062509208/30/01 06:25:31  5-MIN KMSN 301225Z 19007KT 9SM CLR 21/18 A2980 970 84 1900 180/07 RMK AO2
14837KMSN MSN20010830063009208/30/01 06:30:31  5-MIN KMSN 301230Z 18008KT 9SM CLR 21/18 A2980 970 84 1900 180/08 RMK AO2
14837KMSN MSN20010830063509308/30/01 06:35:31  5-MIN KMSN 301235Z 19007KT 10SM CLR 21/18 A2981 970 84 1900 190/07 RMK AO2
14837KMSN MSN20010830064009308/30/01 06:40:31  5-MIN KMSN 301240Z 19005KT 10SM CLR 21/18 A2981 970 84 1900 190/05 RMK AO2
14837KMSN MSN20010830064509208/30/01 06:45:31  5-MIN KMSN 301245Z 18009KT 9SM CLR 21/18 A2981 970 84 1900 180/09 RMK AO2
14837KMSN MSN20010830065010908/30/01 06:50:31  5-MIN KMSN 301250Z 18008KT 9SM CLR 21/18 A2980 970 84 1900 180/08 RMK AO2 SLP088 T02060178
14837KMSN MSN20010830065509308/30/01 06:55:31  5-MIN KMSN 301255Z 18009KT 10SM CLR 21/18 A2980 970 81 1900 180/09 RMK AO2
14837KMSN MSN20010830070009308/30/01 07:00:31  5-MIN KMSN 301300Z 18011KT 10SM CLR 21/18 A2980 970 81 1900 180/11 RMK AO2
14837KMSN MSN20010830070509308/30/01 07:05:31  5-MIN KMSN 301305Z 18010KT 10SM CLR 21/18 A2980 970 81 1900 180/10 RMK AO2
14837KMSN MSN20010830071009308/30/01 07:10:31  5-MIN KMSN 301310Z 18009KT 10SM CLR 21/18 A2980 980 81 2000 180/09 RMK AO2
14837KMSN MSN20010830071509308/30/01 07:15:31  5-MIN KMSN 301315Z 18008KT 10SM CLR 21/18 A2980 970 81 2000 180/08 RMK AO2
14837KMSN MSN20010830072009308/30/01 07:20:31  5-MIN KMSN 301320Z 20007KT 10SM CLR 22/18 A2980 970 78 2000 190/07 RMK AO2
14837KMSN MSN20010830072509308/30/01 07:25:31  5-MIN KMSN 301325Z 21007KT 10SM CLR 22/18 A2981 970 78 2000 210/07 RMK AO2
14837KMSN MSN20010830073009308/30/01 07:30:31  5-MIN KMSN 301330Z 20009KT 10SM CLR 22/18 A2981 960 78 2000 200/09 RMK AO2
14837KMSN MSN20010830073509308/30/01 07:35:31  5-MIN KMSN 301335Z 20007KT 10SM CLR 22/18 A2981 970 78 2000 200/07 RMK AO2
14837KMSN MSN20010830074009308/30/01 07:40:31  5-MIN KMSN 301340Z 21006KT 10SM CLR 22/18 A2981 970 78 2000 210/06 RMK AO2
14837KMSN MSN20010830074509308/30/01 07:45:31  5-MIN KMSN 301345Z 22006KT 10SM CLR 22/18 A2981 970 78 2000 220/06 RMK AO2
14837KMSN MSN20010830075011008/30/01 07:50:31  5-MIN KMSN 301350Z 20007KT 10SM CLR 22/18 A2981 970 78 2000 200/07 RMK AO2 SLP089 T02170178
14837KMSN MSN20010830075509308/30/01 07:55:31  5-MIN KMSN 301355Z 20009KT 10SM CLR 22/18 A2981 970 75 2100 200/09 RMK AO2
14837KMSN MSN20010830080009308/30/01 08:00:31  5-MIN KMSN 301400Z 20006KT 10SM CLR 22/18 A2980 970 75 2100 200/06 RMK AO2
14837KMSN MSN20010830080509308/30/01 08:05:31  5-MIN KMSN 301405Z 20006KT 10SM CLR 22/18 A2980 980 78 2100 200/06 RMK AO2
14837KMSN MSN20010830081009308/30/01 08:10:31  5-MIN KMSN 301410Z 21008KT 10SM CLR 22/18 A2980 970 78 2100 210/08 RMK AO2
14837KMSN MSN20010830081509308/30/01 08:15:31  5-MIN KMSN 301415Z 21007KT 10SM CLR 23/18 A2980 970 76 2100 210/07 RMK AO2
14837KMSN MSN20010830082009308/30/01 08:20:31  5-MIN KMSN 301420Z 21010KT 10SM CLR 23/18 A2981 970 73 2100 200/10 RMK AO2
14837KMSN MSN20010830082510908/30/01 08:25:31  5-MIN KMSN 301425Z 20007KT 170V230 10SM CLR 23/18 A2980 970 76 2100 200/07 170V230 RMK AO2
14837KMSN MSN20010830083009608/30/01 08:30:31  5-MIN KMSN 301430Z 22010KT 10SM FEW025 23/18 A2981 970 76 2100 220/10 RMK AO2
14837KMSN MSN20010830083509608/30/01 08:35:31  5-MIN KMSN 301435Z 21011KT 10SM FEW025 23/18 A2981 960 76 2100 210/11 RMK AO2
14837KMSN MSN20010830084009308/30/01 08:40:31  5-MIN KMSN 301440Z 20009KT 10SM CLR 23/18 A2981 970 76 2100 200/09 RMK AO2
14837KMSN MSN20010830084510908/30/01 08:45:31  5-MIN KMSN 301445Z 21007KT 180V240 10SM CLR 23/19 A2981 970 76 2200 210/07 180V240 RMK AO2
14837KMSN MSN20010830085011608/30/01 08:50:31  5-MIN KMSN 301450Z 23008KT 10SM CLR 23/19 A2981 970 76 2200 230/08 RMK AO2 SLP087 T02330189 58001
14837KMSN MSN20010830085509308/30/01 08:55:31  5-MIN KMSN 301455Z 23008KT 10SM CLR 23/18 A2981 970 73 2200 230/08 RMK AO2
14837KMSN MSN20010830090009308/30/01 09:00:31  5-MIN KMSN 301500Z 23007KT 10SM CLR 23/18 A2981 970 73 2200 230/07 RMK AO2
14837KMSN MSN20010830090509308/30/01 09:05:31  5-MIN KMSN 301505Z 23008KT 10SM CLR 23/18 A2980 970 73 2200 230/08 RMK AO2
14837KMSN MSN20010830091009308/30/01 09:10:31  5-MIN KMSN 301510Z 22007KT 10SM CLR 23/18 A2980 970 73 2200 220/07 RMK AO2
14837KMSN MSN20010830091510908/30/01 09:15:31  5-MIN KMSN 301515Z 23007KT 190V260 10SM CLR 24/19 A2980 980 73 2300 230/07 190V260 RMK AO2
14837KMSN MSN20010830092009308/30/01 09:20:31  5-MIN KMSN 301520Z 23009KT 10SM CLR 24/19 A2980 980 73 2300 230/09 RMK AO2
14837KMSN MSN20010830092509308/30/01 09:25:31  5-MIN KMSN 301525Z 22006KT 10SM CLR 24/19 A2980 980 73 2300 220/06 RMK AO2
14837KMSN MSN20010830093010908/30/01 09:30:31  5-MIN KMSN 301530Z 23007KT 200V270 10SM CLR 24/19 A2980 980 71 2300 230/07 200V270 RMK AO2
14837KMSN MSN20010830093509308/30/01 09:35:31  5-MIN KMSN 301535Z 22006KT 10SM CLR 24/19 A2980 980 73 2300 210/06 RMK AO2
14837KMSN MSN20010830094009308/30/01 09:40:31  5-MIN KMSN 301540Z 23008KT 10SM CLR 24/19 A2980 980 71 2300 230/08 RMK AO2
14837KMSN MSN20010830094509308/30/01 09:45:31  5-MIN KMSN 301545Z 22006KT 10SM CLR 24/19 A2980 980 71 2300 220/06 RMK AO2
14837KMSN MSN20010830095011008/30/01 09:50:31  5-MIN KMSN 301550Z VRB06KT 10SM CLR 25/19 A2980 980 71 2400 VRB/06 RMK AO2 SLP085 T02500194
14837KMSN MSN20010830095509308/30/01 09:55:31  5-MIN KMSN 301555Z VRB05KT 10SM CLR 25/19 A2980 970 71 2400 VRB/05 RMK AO2
14837KMSN MSN20010830100010908/30/01 10:00:31  5-MIN KMSN 301600Z 21009KT 160V290 10SM CLR 26/19 A2980 970 68 2500 210/09 160V290 RMK AO2
14837KMSN MSN20010830100511508/30/01 10:05:31  5-MIN KMSN 301605Z 21008G15KT 180V250 10SM CLR 25/19 A2980 970 68 2400 210/08G15 180V250 RMK AO2
14837KMSN MSN20010830101009308/30/01 10:10:31  5-MIN KMSN 301610Z 20010KT 10SM CLR 26/19 A2981 970 68 2400 200/10 RMK AO2
14837KMSN MSN20010830101509308/30/01 10:15:31  5-MIN KMSN 301615Z 23006KT 10SM CLR 26/19 A2981 970 68 2400 230/06 RMK AO2
14837KMSN MSN20010830102009308/30/01 10:20:31  5-MIN KMSN 301620Z 23006KT 10SM CLR 26/19 A2981 970 66 2500 230/06 RMK AO2
14837KMSN MSN20010830102509308/30/01 10:25:31  5-MIN KMSN 301625Z 21008KT 10SM CLR 26/19 A2981 970 66 2400 210/08 RMK AO2
14837KMSN MSN20010830103010908/30/01 10:30:31  5-MIN KMSN 301630Z 22007KT 190V250 10SM CLR 26/19 A2980 970 66 2500 220/07 190V250 RMK AO2
14837KMSN MSN20010830103509308/30/01 10:35:31  5-MIN KMSN 301635Z 22007KT 10SM CLR 26/19 A2980 970 66 2500 220/07 RMK AO2
14837KMSN MSN20010830104009608/30/01 10:40:31  5-MIN KMSN 301640Z 21009KT 10SM FEW025 26/19 A2980 970 64 2500 210/09 RMK AO2
14837KMSN MSN20010830104509608/30/01 10:45:31  5-MIN KMSN 301645Z 22010KT 10SM FEW025 26/19 A2980 970 64 2500 220/10 RMK AO2
14837KMSN MSN20010830105011308/30/01 10:50:31  5-MIN KMSN 301650Z 22008KT 10SM FEW025 26/19 A2980 970 66 2500 220/08 RMK AO2 SLP086 T02610194
14837KMSN MSN20010830105509608/30/01 10:55:31  5-MIN KMSN 301655Z 21007KT 10SM FEW025 26/19 A2980 980 64 2500 210/07 RMK AO2
14837KMSN MSN20010830110009608/30/01 11:00:31  5-MIN KMSN 301700Z 24007KT 10SM FEW025 27/19 A2980 970 62 2600 240/07 RMK AO2
14837KMSN MSN20010830110509608/30/01 11:05:31  5-MIN KMSN 301705Z 22007KT 10SM FEW025 27/19 A2980 980 62 2600 220/07 RMK AO2
14837KMSN MSN20010830111009608/30/01 11:10:31  5-MIN KMSN 301710Z 22007KT 10SM FEW025 27/19 A2980 980 62 2600 220/07 RMK AO2
14837KMSN MSN20010830111511908/30/01 11:15:31  5-MIN KMSN 301715Z 23008KT 200V270 10SM FEW025 SCT110 27/18 A2980 980 60 2600 220/08 200V270 RMK AO2
14837KMSN MSN20010830112010308/30/01 11:20:31  5-MIN KMSN 301720Z 21007KT 10SM FEW025 SCT110 27/19 A2980 980 62 2600 210/07 RMK AO2
14837KMSN MSN20010830112510308/30/01 11:25:31  5-MIN KMSN 301725Z 23006KT 10SM FEW025 SCT110 27/19 A2980 980 62 2600 230/06 RMK AO2
14837KMSN MSN20010830113009608/30/01 11:30:31  5-MIN KMSN 301730Z VRB06KT 10SM FEW030 27/19 A2980 980 62 2600 VRB/06 RMK AO2
14837KMSN MSN20010830113509608/30/01 11:35:31  5-MIN KMSN 301735Z 21007KT 10SM FEW030 27/19 A2980 980 64 2600 210/07 RMK AO2
14837KMSN MSN20010830114011208/30/01 11:40:31  5-MIN KMSN 301740Z 24009KT 210V280 10SM FEW030 27/19 A2980 980 62 2600 240/09 210V280 RMK AO2
14837KMSN MSN20010830114509608/30/01 11:45:31  5-MIN KMSN 301745Z 22007KT 10SM FEW030 27/19 A2979 980 60 2600 220/07 RMK AO2
14837KMSN MSN20010830115013108/30/01 11:50:31  5-MIN KMSN 301750Z 23006KT 10SM FEW030 27/19 A2979 980 60 2700 230/06 RMK AO2 SLP083 T02720189 10272 20189 56004
14837KMSN MSN20010830115509608/30/01 11:55:31  5-MIN KMSN 301755Z 22007KT 10SM FEW030 27/19 A2979 980 62 2600 220/07 RMK AO2
14837KMSN MSN20010830120009608/30/01 12:00:31  5-MIN KMSN 301800Z 23006KT 10SM FEW030 27/19 A2979 980 60 2700 230/06 RMK AO2
14837KMSN MSN20010830120509608/30/01 12:05:31  5-MIN KMSN 301805Z VRB06KT 10SM FEW030 27/19 A2979 990 60 2700 VRB/06 RMK AO2
14837KMSN MSN20010830121009608/30/01 12:10:31  5-MIN KMSN 301810Z 23007KT 10SM FEW030 27/19 A2979 990 62 2700 230/07 RMK AO2
14837KMSN MSN20010830121509608/30/01 12:15:31  5-MIN KMSN 301815Z 23008KT 10SM FEW030 27/19 A2979 990 60 2700 230/08 RMK AO2
14837KMSN MSN20010830122009608/30/01 12:20:31  5-MIN KMSN 301820Z VRB06KT 10SM FEW030 27/19 A2979 990 60 2700 VRB/06 RMK AO2
14837KMSN MSN20010830122511208/30/01 12:25:31  5-MIN KMSN 301825Z 24007KT 190V290 10SM FEW030 28/19 A2979 990 60 2700 240/07 190V290 RMK AO2
14837KMSN MSN20010830123011208/30/01 12:30:31  5-MIN KMSN 301830Z 22007KT 200V260 10SM FEW030 27/19 A2979 990 60 2700 220/07 200V260 RMK AO2
14837KMSN MSN20010830123509608/30/01 12:35:31  5-MIN KMSN 301835Z 22008KT 10SM SCT040 27/19 A2979 980 62 2600 210/08 RMK AO2
14837KMSN MSN20010830124009608/30/01 12:40:31  5-MIN KMSN 301840Z 23008KT 10SM SCT040 27/19 A2979 980 62 2600 230/08 RMK AO2
14837KMSN MSN20010830124509608/30/01 12:45:31  5-MIN KMSN 301845Z 24007KT 10SM SCT040 27/19 A2979 980 60 2700 240/07 RMK AO2
14837KMSN MSN20010830125011308/30/01 12:50:31  5-MIN KMSN 301850Z VRB06KT 10SM SCT040 28/19 A2979 980 60 2700 VRB/06 RMK AO2 SLP083 T02780194
14837KMSN MSN20010830125511208/30/01 12:55:31  5-MIN KMSN 301855Z 25007KT 210V290 10SM SCT043 27/19 A2979 980 60 2700 250/07 210V290 RMK AO2
14837KMSN MSN20010830130009608/30/01 13:00:31  5-MIN KMSN 301900Z VRB05KT 10SM BKN043 28/19 A2979 980 60 2700 VRB/05 RMK AO2
14837KMSN MSN20010830130511208/30/01 13:05:31  5-MIN KMSN 301905Z 24007KT 200V270 10SM BKN043 28/19 A2979 990 60 2700 240/07 200V270 RMK AO2
14837KMSN MSN20010830131009608/30/01 13:10:31  5-MIN KMSN 301910Z 26006KT 10SM BKN043 27/19 A2979 980 62 2700 260/06 RMK AO2
14837KMSN MSN20010830131511908/30/01 13:15:31  5-MIN KMSN 301915Z 24007KT 210V290 10SM BKN043 BKN049 28/19 A2979 980 60 2700 230/07 210V290 RMK AO2
14837KMSN MSN20010830132009608/30/01 13:20:31  5-MIN KMSN 301920Z 24009KT 10SM BKN045 27/19 A2979 980 60 2700 240/09 RMK AO2
14837KMSN MSN20010830132510308/30/01 13:25:31  5-MIN KMSN 301925Z 23009KT 10SM SCT041 BKN049 27/19 A2979 980 62 2600 230/09 RMK AO2
14837KMSN MSN20010830133010308/30/01 13:30:31  5-MIN KMSN 301930Z 24010KT 10SM BKN042 BKN050 27/19 A2979 980 62 2600 240/10 RMK AO2
14837KMSN MSN20010830133511908/30/01 13:35:31  5-MIN KMSN 301935Z 25007KT 200V270 10SM SCT042 BKN055 27/19 A2979 980 62 2600 250/07 200V270 RMK AO2
14837KMSN MSN20010830134011908/30/01 13:40:31  5-MIN KMSN 301940Z 23008KT 200V270 10SM SCT042 BKN050 27/19 A2979 980 62 2700 230/08 200V270 RMK AO2
14837KMSN MSN20010830134510308/30/01 13:45:31  5-MIN KMSN 301945Z 23009KT 10SM SCT042 BKN055 27/19 A2979 990 60 2700 230/09 RMK AO2
14837KMSN MSN20010830135012708/30/01 13:50:31  5-MIN KMSN 301950Z 27007KT 10SM SCT042 BKN050 BKN060 27/19 A2979 990 60 2700 270/07 RMK AO2 SLP082 T02720189
14837KMSN MSN20010830135511908/30/01 13:55:31  5-MIN KMSN 301955Z 26007KT 200V290 10SM FEW042 SCT050 27/19 A2979 990 60 2700 250/07 200V290 RMK AO2
14837KMSN MSN20010830140011208/30/01 14:00:31  5-MIN KMSN 302000Z 23007KT 210V280 10SM FEW042 27/19 A2979 990 62 2700 230/07 210V280 RMK AO2
14837KMSN MSN20010830140509608/30/01 14:05:31  5-MIN KMSN 302005Z 23007KT 10SM SCT042 27/19 A2978 990 60 2700 230/07 RMK AO2
14837KMSN MSN20010830141009608/30/01 14:10:31  5-MIN KMSN 302010Z 22007KT 10SM SCT042 27/19 A2978 990 60 2700 220/07 RMK AO2
14837KMSN MSN20010830141509608/30/01 14:15:31  5-MIN KMSN 302015Z 24007KT 10SM SCT042 27/19 A2978 990 62 2600 240/07 RMK AO2
14837KMSN MSN20010830142009608/30/01 14:20:31  5-MIN KMSN 302020Z 23006KT 10SM SCT042 27/19 A2978 990 60 2700 230/06 RMK AO2
14837KMSN MSN20010830142511208/30/01 14:25:31  5-MIN KMSN 302025Z 24008KT 190V280 10SM SCT042 27/19 A2978 990 60 2700 240/08 190V280 RMK AO2
14837KMSN MSN20010830143009708/30/01 14:30:31  5-MIN KMSN 302030Z 24008KT 10SM SCT047 27/18 A2978 1000 58 2700 230/08 RMK AO2
14837KMSN MSN20010830143509708/30/01 14:35:31  5-MIN KMSN 302035Z 23007KT 10SM SCT047 27/18 A2978 1000 60 2600 230/07 RMK AO2
14837KMSN MSN20010830144009608/30/01 14:40:31  5-MIN KMSN 302040Z 23008KT 10SM BKN047 27/18 A2978 990 60 2600 230/08 RMK AO2
14837KMSN MSN20010830144509708/30/01 14:45:31  5-MIN KMSN 302045Z VRB05KT 10SM BKN047 27/18 A2978 1000 60 2600 VRB/05 RMK AO2
14837KMSN MSN20010830145012008/30/01 14:50:31  5-MIN KMSN 302050Z VRB06KT 10SM BKN045 27/19 A2978 1000 62 2600 VRB/06 RMK AO2 SLP078 T02670189 58004
14837KMSN MSN20010830145509708/30/01 14:55:31  5-MIN KMSN 302055Z 24006KT 10SM SCT045 27/19 A2977 1000 62 2600 240/06 RMK AO2
14837KMSN MSN20010830150011308/30/01 15:00:31  5-MIN KMSN 302100Z 26007KT 230V300 10SM SCT045 27/18 A2977 1000 60 2600 260/07 230V300 RMK AO2
14837KMSN MSN20010830150509708/30/01 15:05:31  5-MIN KMSN 302105Z 26005KT 10SM SCT045 27/19 A2977 1000 62 2600 260/05 RMK AO2
14837KMSN MSN20010830151009708/30/01 15:10:31  5-MIN KMSN 302110Z 26006KT 10SM SCT045 26/18 A2977 1000 62 2600 260/06 RMK AO2
14837KMSN MSN20010830151509708/30/01 15:15:31  5-MIN KMSN 302115Z VRB05KT 10SM SCT045 26/19 A2977 1010 64 2600 VRB/05 RMK AO2
14837KMSN MSN20010830152009708/30/01 15:20:31  5-MIN KMSN 302120Z 27006KT 10SM FEW045 26/19 A2977 1010 64 2600 270/06 RMK AO2
14837KMSN MSN20010830152509708/30/01 15:25:31  5-MIN KMSN 302125Z 25006KT 10SM FEW045 26/19 A2976 1010 64 2600 250/06 RMK AO2
14837KMSN MSN20010830153009708/30/01 15:30:31  5-MIN KMSN 302130Z VRB06KT 10SM FEW045 26/19 A2976 1010 64 2600 VRB/06 RMK AO2
14837KMSN MSN20010830153509708/30/01 15:35:31  5-MIN KMSN 302135Z 27006KT 10SM FEW045 26/19 A2976 1010 64 2600 270/06 RMK AO2
14837KMSN MSN20010830154009708/30/01 15:40:31  5-MIN KMSN 302140Z 26005KT 10SM FEW045 26/19 A2976 1010 66 2600 260/05 RMK AO2
14837KMSN MSN20010830154509708/30/01 15:45:31  5-MIN KMSN 302145Z VRB06KT 10SM FEW045 26/19 A2976 1010 66 2600 VRB/06 RMK AO2
14837KMSN MSN20010830155011408/30/01 15:50:31  5-MIN KMSN 302150Z 26005KT 10SM FEW045 26/19 A2976 1010 66 2600 260/05 RMK AO2 SLP074 T02610194
14837KMSN MSN20010830155509408/30/01 15:55:31  5-MIN KMSN 302155Z VRB06KT 10SM CLR 27/19 A2977 1010 64 2600 VRB/06 RMK AO2
14837KMSN MSN20010830160011308/30/01 16:00:31  5-MIN KMSN 302200Z 26008KT 220V290 10SM FEW045 26/19 A2977 1000 64 2600 260/08 220V290 RMK AO2
14837KMSN MSN20010830160511308/30/01 16:05:31  5-MIN KMSN 302205Z 26007KT 220V280 10SM FEW045 26/19 A2977 1000 66 2600 260/07 220V280 RMK AO2
14837KMSN MSN20010830161009708/30/01 16:10:31  5-MIN KMSN 302210Z 25008KT 10SM FEW045 26/19 A2977 1000 64 2600 250/08 RMK AO2
14837KMSN MSN20010830161509708/30/01 16:15:31  5-MIN KMSN 302215Z 25007KT 10SM FEW045 26/19 A2977 1000 64 2600 250/07 RMK AO2
14837KMSN MSN20010830162009708/30/01 16:20:31  5-MIN KMSN 302220Z VRB06KT 10SM FEW045 26/19 A2977 1000 64 2600 VRB/06 RMK AO2
14837KMSN MSN20010830162512008/30/01 16:25:31  5-MIN KMSN 302225Z 27007KT 220V290 10SM FEW045 SCT050 26/19 A2977 1000 64 2500 270/07 220V290 RMK AO2
14837KMSN MSN20010830163010408/30/01 16:30:31  5-MIN KMSN 302230Z 27007KT 10SM FEW045 SCT050 26/19 A2977 1000 66 2500 270/07 RMK AO2
14837KMSN MSN20010830163510408/30/01 16:35:31  5-MIN KMSN 302235Z VRB04KT 10SM FEW045 SCT050 26/19 A2977 1000 66 2500 VRB/04 RMK AO2
14837KMSN MSN20010830164010408/30/01 16:40:31  5-MIN KMSN 302240Z 27005KT 10SM FEW045 SCT050 26/19 A2977 1000 66 2500 270/05 RMK AO2
14837KMSN MSN20010830164510408/30/01 16:45:31  5-MIN KMSN 302245Z VRB05KT 10SM FEW045 SCT050 26/19 A2977 1000 66 2500 VRB/05 RMK AO2
14837KMSN MSN20010830165012108/30/01 16:50:31  5-MIN KMSN 302250Z 29006KT 10SM FEW045 SCT050 26/19 A2978 1000 64 2500 290/06 RMK AO2 SLP078 T02610189
14837KMSN MSN20010830165511108/30/01 16:55:31  5-MIN KMSN 302255Z 27008KT 10SM SCT039 SCT048 BKN120 26/19 A2978 1000 66 2500 270/08 RMK AO2
14837KMSN MSN20010830170010408/30/01 17:00:31  5-MIN KMSN 302300Z 30007KT 10SM SCT041 BKN120 26/19 A2978 1000 66 2500 300/07 RMK AO2
14837KMSN MSN20010830170511108/30/01 17:05:31  5-MIN KMSN 302305Z 29007KT 10SM FEW038 SCT045 BKN120 26/19 A2978 1000 66 2500 290/07 RMK AO2
14837KMSN MSN20010830171010408/30/01 17:10:31  5-MIN KMSN 302310Z 29006KT 10SM SCT041 SCT120 26/19 A2978 1000 66 2500 290/06 RMK AO2
14837KMSN MSN20010830171510408/30/01 17:15:31  5-MIN KMSN 302315Z VRB06KT 10SM SCT041 BKN120 26/19 A2978 1000 66 2500 VRB/06 RMK AO2
14837KMSN MSN20010830172009708/30/01 17:20:31  5-MIN KMSN 302320Z VRB04KT 10SM SCT041 25/19 A2978 1000 68 2400 VRB/04 RMK AO2
14837KMSN MSN20010830172509708/30/01 17:25:31  5-MIN KMSN 302325Z VRB05KT 10SM SCT041 26/19 A2978 1000 66 2500 VRB/05 RMK AO2
14837KMSN MSN20010830173009608/30/01 17:30:31  5-MIN KMSN 302330Z 29005KT 10SM SCT041 25/19 A2978 990 68 2400 290/05 RMK AO2
14837KMSN MSN20010830173509608/30/01 17:35:31  5-MIN KMSN 302335Z 29006KT 10SM SCT041 25/19 A2978 990 68 2400 290/06 RMK AO2
14837KMSN MSN20010830174009608/30/01 17:40:31  5-MIN KMSN 302340Z VRB05KT 10SM SCT041 25/19 A2978 990 68 2400 VRB/05 RMK AO2
14837KMSN MSN20010830174509608/30/01 17:45:31  5-MIN KMSN 302345Z 29005KT 10SM SCT041 25/19 A2978 990 68 2400 290/05 RMK AO2
14837KMSN MSN20010830175013108/30/01 17:50:31  5-MIN KMSN 302350Z 29006KT 10SM SCT039 25/19 A2978 990 68 2400 290/06 RMK AO2 SLP081 T02500189 10278 20250 58005
14837KMSN MSN20010830175509608/30/01 17:55:31  5-MIN KMSN 302355Z 29004KT 10SM BKN039 24/19 A2978 990 71 2300 280/04 RMK AO2
14837KMSN MSN20010830180009608/30/01 18:00:31  5-MIN KMSN 310000Z 29005KT 10SM BKN039 24/19 A2978 990 71 2300 290/05 RMK AO2
14837KMSN MSN20010830180510308/30/01 18:05:31  5-MIN KMSN 310005Z 30006KT 10SM BKN039 BKN047 24/19 A2978 990 71 2400 290/06 RMK AO2
14837KMSN MSN20010830181011008/30/01 18:10:31  5-MIN KMSN 310010Z 29006KT 10SM BKN041 BKN047 BKN110 24/19 A2978 990 71 2400 290/06 RMK AO2
14837KMSN MSN20010830181510308/30/01 18:15:31  5-MIN KMSN 310015Z 29005KT 10SM BKN041 BKN110 24/19 A2978 990 71 2400 290/05 RMK AO2
14837KMSN MSN20010830182011008/30/01 18:20:31  5-MIN KMSN 310020Z 30006KT 10SM SCT041 BKN047 BKN110 24/19 A2978 990 73 2300 300/06 RMK AO2
14837KMSN MSN20010830182510308/30/01 18:25:31  5-MIN KMSN 310025Z 32004KT 10SM BKN043 BKN110 24/19 A2978 990 73 2300 320/04 RMK AO2
14837KMSN MSN20010830183010308/30/01 18:30:31  5-MIN KMSN 310030Z 32006KT 10SM BKN045 BKN110 24/19 A2978 990 73 2300 320/06 RMK AO2
14837KMSN MSN20010830183510308/30/01 18:35:31  5-MIN KMSN 310035Z 31009KT 10SM SCT045 SCT110 24/18 A2978 990 71 2300 310/09 RMK AO2
14837KMSN MSN20010830184009608/30/01 18:40:31  5-MIN KMSN 310040Z 31007KT 10SM FEW045 23/18 A2978 990 70 2200 310/07 RMK AO2
14837KMSN MSN20010830184509608/30/01 18:45:31  5-MIN KMSN 310045Z 31006KT 10SM SCT045 23/18 A2978 990 70 2200 310/06 RMK AO2
14837KMSN MSN20010830185012008/30/01 18:50:31  5-MIN KMSN 310050Z 31005KT 10SM SCT047 SCT110 23/18 A2979 990 73 2200 310/05 RMK AO2 SLP082 T02280178
14837KMSN MSN20010830185509608/30/01 18:55:31  5-MIN KMSN 310055Z 30004KT 10SM SCT049 23/18 A2979 980 73 2200 300/04 RMK AO2
14837KMSN MSN20010830190009608/30/01 19:00:31  5-MIN KMSN 310100Z VRB03KT 10SM SCT049 23/18 A2979 980 73 2100 VRB/03 RMK AO2
14837KMSN MSN20010830190509608/30/01 19:05:31  5-MIN KMSN 310105Z 30004KT 10SM SCT049 23/18 A2980 980 73 2100 300/04 RMK AO2
14837KMSN MSN20010830191009608/30/01 19:10:31  5-MIN KMSN 310110Z VRB03KT 10SM BKN049 23/18 A2980 980 73 2100 VRB/03 RMK AO2
14837KMSN MSN20010830191509608/30/01 19:15:31  5-MIN KMSN 310115Z 30003KT 10SM BKN047 23/17 A2980 980 70 2100 300/03 RMK AO2
14837KMSN MSN20010830192009608/30/01 19:20:31  5-MIN KMSN 310120Z 30003KT 10SM BKN047 22/17 A2980 970 73 2100 290/03 RMK AO2
14837KMSN MSN20010830192509608/30/01 19:25:31  5-MIN KMSN 310125Z 00000KT 10SM BKN047 22/17 A2981 970 73 2100 000/00 RMK AO2
14837KMSN MSN20010830193009608/30/01 19:30:31  5-MIN KMSN 310130Z 29003KT 10SM BKN047 22/17 A2981 970 73 2100 290/03 RMK AO2
14837KMSN MSN20010830193509608/30/01 19:35:31  5-MIN KMSN 310135Z 29003KT 10SM SCT047 22/17 A2981 970 75 2000 290/03 RMK AO2
14837KMSN MSN20010830194009608/30/01 19:40:31  5-MIN KMSN 310140Z 00000KT 10SM FEW045 22/17 A2981 970 75 2000 000/00 RMK AO2
14837KMSN MSN20010830194509608/30/01 19:45:31  5-MIN KMSN 310145Z 00000KT 10SM FEW047 21/18 A2981 970 84 1900 000/00 RMK AO2
14837KMSN MSN20010830195011008/30/01 19:50:31  5-MIN KMSN 310150Z 00000KT 10SM CLR 20/18 A2981 960 87 1800 000/00 RMK AO2 SLP091 T02000178
14837KMSN MSN20010830195509308/30/01 19:55:31  5-MIN KMSN 310155Z 00000KT 10SM CLR 20/18 A2981 970 87 1800 000/00 RMK AO2
14837KMSN MSN20010830200009308/30/01 20:00:31  5-MIN KMSN 310200Z 00000KT 10SM CLR 19/18 A2981 960 90 1700 000/00 RMK AO2
14837KMSN MSN20010830200509308/30/01 20:05:31  5-MIN KMSN 310205Z 00000KT 10SM CLR 19/18 A2981 960 90 1700 000/00 RMK AO2
14837KMSN MSN20010830201009308/30/01 20:10:31  5-MIN KMSN 310210Z 30003KT 10SM CLR 19/18 A2982 960 90 1700 290/03 RMK AO2
14837KMSN MSN20010830201509308/30/01 20:15:31  5-MIN KMSN 310215Z 29003KT 10SM CLR 19/18 A2982 960 90 1700 290/03 RMK AO2
14837KMSN MSN20010830202009308/30/01 20:20:31  5-MIN KMSN 310220Z 29003KT 10SM CLR 19/17 A2982 960 87 1700 290/03 RMK AO2
14837KMSN MSN20010830202509308/30/01 20:25:31  5-MIN KMSN 310225Z 29003KT 10SM CLR 20/17 A2982 960 84 1800 290/03 RMK AO2
14837KMSN MSN20010830203009308/30/01 20:30:31  5-MIN KMSN 310230Z 31004KT 10SM CLR 20/17 A2982 960 84 1800 310/04 RMK AO2
14837KMSN MSN20010830203509308/30/01 20:35:31  5-MIN KMSN 310235Z VRB03KT 10SM CLR 20/17 A2982 960 81 1800 VRB/03 RMK AO2
14837KMSN MSN20010830204009308/30/01 20:40:31  5-MIN KMSN 310240Z 30003KT 10SM CLR 20/17 A2981 960 81 1800 300/03 RMK AO2
14837KMSN MSN20010830204509308/30/01 20:45:31  5-MIN KMSN 310245Z 30003KT 10SM CLR 20/17 A2981 960 81 1800 300/03 RMK AO2
14837KMSN MSN20010830205011608/30/01 20:50:31  5-MIN KMSN 310250Z 29003KT 10SM CLR 20/17 A2981 960 81 1800 290/03 RMK AO2 SLP091 T02000167 53002
14837KMSN MSN20010830205509308/30/01 20:55:31  5-MIN KMSN 310255Z 29004KT 10SM CLR 19/17 A2981 960 84 1700 290/04 RMK AO2
14837KMSN MSN20010830210009308/30/01 21:00:31  5-MIN KMSN 310300Z 29004KT 10SM CLR 19/17 A2981 960 84 1700 290/04 RMK AO2
14837KMSN MSN20010830210509308/30/01 21:05:31  5-MIN KMSN 310305Z 30003KT 10SM CLR 19/17 A2981 970 84 1700 300/03 RMK AO2
14837KMSN MSN20010830211009308/30/01 21:10:31  5-MIN KMSN 310310Z 30003KT 10SM CLR 19/17 A2981 960 84 1700 290/03 RMK AO2
14837KMSN MSN20010830211509308/30/01 21:15:31  5-MIN KMSN 310315Z 28003KT 10SM CLR 19/17 A2981 960 84 1700 280/03 RMK AO2
14837KMSN MSN20010830212009308/30/01 21:20:31  5-MIN KMSN 310320Z 29003KT 10SM CLR 19/17 A2981 970 87 1700 290/03 RMK AO2
14837KMSN MSN20010830212509308/30/01 21:25:31  5-MIN KMSN 310325Z 00000KT 10SM CLR 19/16 A2981 970 84 1700 000/00 RMK AO2
14837KMSN MSN20010830213009308/30/01 21:30:31  5-MIN KMSN 310330Z VRB03KT 10SM CLR 19/17 A2981 970 87 1700 VRB/03 RMK AO2
14837KMSN MSN20010830213509308/30/01 21:35:31  5-MIN KMSN 310335Z 00000KT 10SM CLR 18/16 A2981 960 87 1600 000/00 RMK AO2
14837KMSN MSN20010830214009308/30/01 21:40:31  5-MIN KMSN 310340Z 31003KT 10SM CLR 19/16 A2981 960 84 1700 310/03 RMK AO2
14837KMSN MSN20010830214509308/30/01 21:45:31  5-MIN KMSN 310345Z 30004KT 10SM CLR 19/16 A2981 960 84 1700 300/04 RMK AO2
14837KMSN MSN20010830215011008/30/01 21:50:31  5-MIN KMSN 310350Z 30004KT 10SM CLR 19/16 A2981 960 84 1700 300/04 RMK AO2 SLP091 T01890161
14837KMSN MSN20010830215509308/30/01 21:55:31  5-MIN KMSN 310355Z 30004KT 10SM CLR 19/16 A2981 970 81 1700 300/04 RMK AO2
14837KMSN MSN20010830220009308/30/01 22:00:31  5-MIN KMSN 310400Z 30003KT 10SM CLR 19/16 A2981 970 78 1700 300/03 RMK AO2
14837KMSN MSN20010830220509308/30/01 22:05:31  5-MIN KMSN 310405Z 30004KT 10SM CLR 19/16 A2981 970 81 1700 300/04 RMK AO2
14837KMSN MSN20010830221009308/30/01 22:10:31  5-MIN KMSN 310410Z 30005KT 10SM CLR 19/16 A2981 970 81 1700 300/05 RMK AO2
14837KMSN MSN20010830221509308/30/01 22:15:31  5-MIN KMSN 310415Z 30004KT 10SM CLR 19/16 A2981 970 81 1700 300/04 RMK AO2
14837KMSN MSN20010830222009308/30/01 22:20:31  5-MIN KMSN 310420Z 29003KT 10SM CLR 19/16 A2981 970 81 1700 290/03 RMK AO2
14837KMSN MSN20010830222509308/30/01 22:25:31  5-MIN KMSN 310425Z 30003KT 10SM CLR 18/16 A2981 970 84 1600 300/03 RMK AO2
14837KMSN MSN20010830223009308/30/01 22:30:31  5-MIN KMSN 310430Z 29003KT 10SM CLR 18/16 A2981 970 84 1600 290/03 RMK AO2
14837KMSN MSN20010830223509308/30/01 22:35:31  5-MIN KMSN 310435Z 30004KT 10SM CLR 18/16 A2981 970 84 1600 300/04 RMK AO2
14837KMSN MSN20010830224009308/30/01 22:40:31  5-MIN KMSN 310440Z 30003KT 10SM CLR 18/16 A2981 960 87 1600 300/03 RMK AO2
14837KMSN MSN20010830224509308/30/01 22:45:31  5-MIN KMSN 310445Z 00000KT 10SM CLR 18/16 A2982 960 84 1600 000/00 RMK AO2
14837KMSN MSN20010830225011008/30/01 22:50:31  5-MIN KMSN 310450Z 00000KT 10SM CLR 18/16 A2982 960 87 1500 000/00 RMK AO2 SLP092 T01780156
14837KMSN MSN20010830225509308/30/01 22:55:31  5-MIN KMSN 310455Z 00000KT 10SM CLR 17/16 A2982 960 93 1400 000/00 RMK AO2
14837KMSN MSN20010830230009308/30/01 23:00:31  5-MIN KMSN 310500Z 00000KT 10SM CLR 17/16 A2982 960 90 1500 000/00 RMK AO2
14837KMSN MSN20010830230509308/30/01 23:05:31  5-MIN KMSN 310505Z 28003KT 10SM CLR 17/16 A2982 950 93 1400 280/03 RMK AO2
14837KMSN MSN20010830231009308/30/01 23:10:31  5-MIN KMSN 310510Z 27003KT 10SM CLR 17/15 A2982 950 90 1400 270/03 RMK AO2
14837KMSN MSN20010830231509308/30/01 23:15:31  5-MIN KMSN 310515Z 29004KT 10SM CLR 18/15 A2982 950 83 1500 290/04 RMK AO2
14837KMSN MSN20010830232009308/30/01 23:20:31  5-MIN KMSN 310520Z 28004KT 10SM CLR 18/15 A2983 950 81 1600 280/04 RMK AO2
14837KMSN MSN20010830232509308/30/01 23:25:31  5-MIN KMSN 310525Z 29004KT 10SM CLR 18/15 A2982 950 83 1500 290/04 RMK AO2
14837KMSN MSN20010830233009308/30/01 23:30:31  5-MIN KMSN 310530Z 30003KT 10SM CLR 18/15 A2982 950 83 1500 300/03 RMK AO2
14837KMSN MSN20010830233509308/30/01 23:35:31  5-MIN KMSN 310535Z VRB03KT 10SM CLR 18/15 A2982 950 83 1500 VRB/03 RMK AO2
14837KMSN MSN20010830234009308/30/01 23:40:31  5-MIN KMSN 310540Z 30003KT 10SM CLR 17/15 A2983 950 87 1500 290/03 RMK AO2
14837KMSN MSN20010830234509308/30/01 23:45:31  5-MIN KMSN 310545Z 00000KT 10SM CLR 17/15 A2983 950 87 1500 000/00 RMK AO2
14837KMSN MSN20010830235013808/30/01 23:50:31  5-MIN KMSN 310550Z 30003KT 10SM CLR 17/15 A2983 950 90 1400 300/03 RMK AO2 SLP096 T01670150 10244 20167 402780167 51010
14837KMSN MSN20010830235509308/30/01 23:55:31  5-MIN KMSN 310555Z 32003KT 10SM CLR 17/15 A2983 950 87 1500 320/03 RMK AO2
14837KMSN MSN20010831000009308/31/01 00:00:31  5-MIN KMSN 310600Z 30003KT 10SM CLR 16/15 A2983 950 93 1300 290/03 RMK AO2
14837KMSN MSN20010831000509308/31/01 00:05:31  5-MIN KMSN 310605Z 30003KT 10SM CLR 17/15 A2982 950 90 1400 300/03 RMK AO2
14837KMSN MSN20010831001009308/31/01 00:10:31  5-MIN KMSN 310610Z 30004KT 10SM CLR 17/14 A2982 950 83 1500 300/04 RMK AO2
14837KMSN MSN20010831001509308/31/01 00:15:31  5-MIN KMSN 310615Z 30004KT 10SM CLR 17/14 A2983 950 83 1500 300/04 RMK AO2
14837KMSN MSN20010831002009308/31/01 00:20:31  5-MIN KMSN 310620Z 29004KT 10SM CLR 17/15 A2982 950 87 1500 290/04 RMK AO2
14837KMSN MSN20010831002509308/31/01 00:25:31  5-MIN KMSN 310625Z 30003KT 10SM CLR 17/15 A2982 950 87 1500 300/03 RMK AO2
14837KMSN MSN20010831003009308/31/01 00:30:31  5-MIN KMSN 310630Z 29003KT 10SM CLR 17/15 A2983 950 87 1500 290/03 RMK AO2
14837KMSN MSN20010831003509308/31/01 00:35:31  5-MIN KMSN 310635Z 29003KT 10SM CLR 17/15 A2983 950 90 1400 280/03 RMK AO2
14837KMSN MSN20010831004009308/31/01 00:40:31  5-MIN KMSN 310640Z 29003KT 10SM CLR 17/15 A2983 950 87 1500 290/03 RMK AO2
14837KMSN MSN20010831004509308/31/01 00:45:31  5-MIN KMSN 310645Z 00000KT 10SM CLR 17/15 A2983 950 90 1400 000/00 RMK AO2
14837KMSN MSN20010831005011008/31/01 00:50:31  5-MIN KMSN 310650Z 00000KT 10SM CLR 16/14 A2983 950 90 1300 000/00 RMK AO2 SLP096 T01610144
14837KMSN MSN20010831005509308/31/01 00:55:31  5-MIN KMSN 310655Z 00000KT 10SM CLR 16/15 A2983 950 93 1300 000/00 RMK AO2
14837KMSN MSN20010831010009308/31/01 01:00:31  5-MIN KMSN 310700Z 00000KT 10SM CLR 16/15 A2983 950 93 1300 000/00 RMK AO2
14837KMSN MSN20010831010509308/31/01 01:05:31  5-MIN KMSN 310705Z 00000KT 10SM CLR 16/14 A2983 950 93 1300 000/00 RMK AO2
14837KMSN MSN20010831011009308/31/01 01:10:31  5-MIN KMSN 310710Z 00000KT 10SM CLR 16/14 A2984 940 90 1300 000/00 RMK AO2
14837KMSN MSN20010831011509308/31/01 01:15:31  5-MIN KMSN 310715Z 00000KT 10SM CLR 16/14 A2983 940 93 1300 000/00 RMK AO2
14837KMSN MSN20010831012009308/31/01 01:20:31  5-MIN KMSN 310720Z 00000KT 10SM CLR 15/14 A2983 950 96 1200 000/00 RMK AO2
14837KMSN MSN20010831012509308/31/01 01:25:31  5-MIN KMSN 310725Z 00000KT 10SM CLR 15/14 A2983 950 96 1200 000/00 RMK AO2
14837KMSN MSN20010831013009308/31/01 01:30:31  5-MIN KMSN 310730Z 00000KT 10SM CLR 15/14 A2983 950 96 1200 000/00 RMK AO2
14837KMSN MSN20010831013509308/31/01 01:35:31  5-MIN KMSN 310735Z 00000KT 10SM CLR 15/14 A2983 950 96 1200 000/00 RMK AO2
14837KMSN MSN20010831014009308/31/01 01:40:31  5-MIN KMSN 310740Z 00000KT 10SM CLR 15/14 A2983 950 96 1200 000/00 RMK AO2
14837KMSN MSN20010831014509308/31/01 01:45:31  5-MIN KMSN 310745Z 32003KT 10SM CLR 15/14 A2983 950 96 1200 320/03 RMK AO2
14837KMSN MSN20010831015011008/31/01 01:50:31  5-MIN KMSN 310750Z 31003KT 10SM CLR 14/14 A2983 940 96 1100 310/03 RMK AO2 SLP098 T01440139
14837KMSN MSN20010831015509308/31/01 01:55:31  5-MIN KMSN 310755Z 00000KT 10SM CLR 14/14 A2984 940 96 1100 000/00 RMK AO2
14837KMSN MSN20010831020009308/31/01 02:00:31  5-MIN KMSN 310800Z 00000KT 10SM CLR 14/14 A2984 940 96 1100 000/00 RMK AO2
14837KMSN MSN20010831020509308/31/01 02:05:31  5-MIN KMSN 310805Z 00000KT 10SM CLR 15/14 A2984 940 93 1200 000/00 RMK AO2
14837KMSN MSN20010831021009308/31/01 02:10:31  5-MIN KMSN 310810Z 00000KT 10SM CLR 15/14 A2984 940 96 1200 000/00 RMK AO2
14837KMSN MSN20010831021509308/31/01 02:15:31  5-MIN KMSN 310815Z 00000KT 10SM CLR 15/14 A2984 940 93 1200 000/00 RMK AO2
14837KMSN MSN20010831022009308/31/01 02:20:31  5-MIN KMSN 310820Z 00000KT 10SM CLR 15/14 A2984 940 96 1200 000/00 RMK AO2
14837KMSN MSN20010831022509308/31/01 02:25:31  5-MIN KMSN 310825Z 00000KT 10SM CLR 14/14 A2984 940 96 1100 000/00 RMK AO2
14837KMSN MSN20010831023009308/31/01 02:30:31  5-MIN KMSN 310830Z 00000KT 10SM CLR 14/14 A2984 940 96 1100 000/00 RMK AO2
14837KMSN MSN20010831023509308/31/01 02:35:31  5-MIN KMSN 310835Z 00000KT 10SM CLR 14/14 A2984 940 96 1100 000/00 RMK AO2
14837KMSN MSN20010831024009308/31/01 02:40:31  5-MIN KMSN 310840Z 34003KT 10SM CLR 14/14 A2984 940 96 1100 340/03 RMK AO2
14837KMSN MSN20010831024509308/31/01 02:45:31  5-MIN KMSN 310845Z 33003KT 10SM CLR 14/14 A2984 940 96 1100 330/03 RMK AO2
14837KMSN MSN20010831025011708/31/01 02:50:31  5-MIN KMSN 310850Z 00000KT 10SM CLR 14/14 A2985 930 100 1100 000/00 RMK AO2 SLP103 T01390139 53005
14837KMSN MSN20010831025509308/31/01 02:55:31  5-MIN KMSN 310855Z 00000KT 10SM CLR 14/14 A2985 930 96 1100 000/00 RMK AO2
14837KMSN MSN20010831030009308/31/01 03:00:31  5-MIN KMSN 310900Z 31003KT 10SM CLR 14/14 A2985 930 96 1100 310/03 RMK AO2
14837KMSN MSN20010831030509308/31/01 03:05:31  5-MIN KMSN 310905Z 32003KT 10SM CLR 14/14 A2985 930 96 1100 320/03 RMK AO2
14837KMSN MSN20010831031009408/31/01 03:10:31  5-MIN KMSN 310910Z 31003KT 10SM CLR 14/14 A2985 930 100 1100 310/03 RMK AO2
14837KMSN MSN20010831031509308/31/01 03:15:31  5-MIN KMSN 310915Z 31004KT 10SM CLR 14/13 A2985 930 93 1100 310/04 RMK AO2
14837KMSN MSN20010831032009308/31/01 03:20:31  5-MIN KMSN 310920Z 31004KT 10SM CLR 14/13 A2985 930 93 1100 310/04 RMK AO2
14837KMSN MSN20010831032509308/31/01 03:25:31  5-MIN KMSN 310925Z 32005KT 10SM CLR 15/14 A2985 930 93 1200 320/05 RMK AO2
14837KMSN MSN20010831033009308/31/01 03:30:31  5-MIN KMSN 310930Z 31004KT 10SM CLR 15/14 A2986 920 93 1200 310/04 RMK AO2
14837KMSN MSN20010831033509308/31/01 03:35:31  5-MIN KMSN 310935Z 31004KT 10SM CLR 15/13 A2986 920 90 1200 310/04 RMK AO2
14837KMSN MSN20010831034009308/31/01 03:40:31  5-MIN KMSN 310940Z 31004KT 10SM CLR 15/13 A2986 920 90 1200 310/04 RMK AO2
14837KMSN MSN20010831034509308/31/01 03:45:31  5-MIN KMSN 310945Z 31004KT 10SM CLR 15/14 A2986 920 93 1200 310/04 RMK AO2
14837KMSN MSN20010831035011008/31/01 03:50:31  5-MIN KMSN 310950Z 31004KT 10SM CLR 15/14 A2986 920 93 1200 310/04 RMK AO2 SLP107 T01500139
14837KMSN MSN20010831035509308/31/01 03:55:31  5-MIN KMSN 310955Z 31003KT 10SM CLR 15/14 A2986 920 93 1200 310/03 RMK AO2
14837KMSN MSN20010831040009308/31/01 04:00:31  5-MIN KMSN 311000Z 31003KT 10SM CLR 14/13 A2986 920 93 1100 310/03 RMK AO2
14837KMSN MSN20010831040509308/31/01 04:05:31  5-MIN KMSN 311005Z 31004KT 10SM CLR 14/13 A2986 920 93 1100 310/04 RMK AO2
14837KMSN MSN20010831041009308/31/01 04:10:31  5-MIN KMSN 311010Z 31004KT 10SM CLR 14/13 A2986 920 93 1100 310/04 RMK AO2
14837KMSN MSN20010831041509308/31/01 04:15:31  5-MIN KMSN 311015Z 31004KT 10SM CLR 14/13 A2986 920 93 1100 310/04 RMK AO2
14837KMSN MSN20010831042009308/31/01 04:20:31  5-MIN KMSN 311020Z 31004KT 10SM CLR 14/13 A2986 920 93 1100 300/04 RMK AO2
14837KMSN MSN20010831042509308/31/01 04:25:31  5-MIN KMSN 311025Z 31004KT 10SM CLR 14/13 A2986 920 93 1100 310/04 RMK AO2
14837KMSN MSN20010831043009308/31/01 04:30:31  5-MIN KMSN 311030Z 31005KT 10SM CLR 14/13 A2986 920 96 1000 310/05 RMK AO2
14837KMSN MSN20010831043509308/31/01 04:35:31  5-MIN KMSN 311035Z 31006KT 10SM CLR 14/13 A2987 910 93 1100 310/06 RMK AO2
14837KMSN MSN20010831044009308/31/01 04:40:31  5-MIN KMSN 311040Z 31005KT 10SM CLR 15/13 A2987 910 90 1200 310/05 RMK AO2
14837KMSN MSN20010831044509308/31/01 04:45:31  5-MIN KMSN 311045Z 31005KT 10SM CLR 15/13 A2987 910 90 1200 310/05 RMK AO2
14837KMSN MSN20010831045011008/31/01 04:50:31  5-MIN KMSN 311050Z 31005KT 10SM CLR 14/13 A2987 910 93 1100 310/05 RMK AO2 SLP112 T01440133
14837KMSN MSN20010831045509308/31/01 04:55:31  5-MIN KMSN 311055Z 31005KT 10SM CLR 14/13 A2987 910 93 1100 310/05 RMK AO2
14837KMSN MSN20010831050009308/31/01 05:00:31  5-MIN KMSN 311100Z 31005KT 10SM CLR 14/13 A2987 910 93 1100 310/05 RMK AO2
14837KMSN MSN20010831050509308/31/01 05:05:31  5-MIN KMSN 311105Z 31005KT 10SM CLR 14/13 A2988 900 93 1100 310/05 RMK AO2
14837KMSN MSN20010831051009308/31/01 05:10:31  5-MIN KMSN 311110Z 31005KT 10SM CLR 14/13 A2988 900 93 1100 310/05 RMK AO2
14837KMSN MSN20010831051509308/31/01 05:15:31  5-MIN KMSN 311115Z 31006KT 10SM CLR 14/13 A2988 900 93 1100 310/06 RMK AO2
14837KMSN MSN20010831052009308/31/01 05:20:31  5-MIN KMSN 311120Z 32006KT 10SM CLR 15/13 A2988 900 90 1100 320/06 RMK AO2
14837KMSN MSN20010831052509308/31/01 05:25:31  5-MIN KMSN 311125Z 32006KT 10SM CLR 15/13 A2988 900 90 1100 320/06 RMK AO2
14837KMSN MSN20010831053009308/31/01 05:30:31  5-MIN KMSN 311130Z 32006KT 10SM CLR 15/13 A2989 900 90 1100 320/06 RMK AO2
14837KMSN MSN20010831053509308/31/01 05:35:31  5-MIN KMSN 311135Z 32005KT 10SM CLR 15/13 A2989 890 90 1100 320/05 RMK AO2
14837KMSN MSN20010831054009308/31/01 05:40:31  5-MIN KMSN 311140Z 32005KT 10SM CLR 15/13 A2989 890 90 1100 320/05 RMK AO2
14837KMSN MSN20010831054509308/31/01 05:45:31  5-MIN KMSN 311145Z 32005KT 10SM CLR 15/13 A2989 890 90 1100 320/05 RMK AO2
14837KMSN MSN20010831055012808/31/01 05:50:31  5-MIN KMSN 311150Z 33006KT 10SM CLR 14/13 A2989 890 93 1100 330/06 RMK AO2 SLP119 T01440133 10172 20139 53006
14837KMSN MSN20010831055509308/31/01 05:55:31  5-MIN KMSN 311155Z 32006KT 10SM CLR 15/13 A2989 890 90 1100 320/06 RMK AO2
14837KMSN MSN20010831060009308/31/01 06:00:31  5-MIN KMSN 311200Z 32006KT 10SM CLR 15/13 A2989 890 90 1100 320/06 RMK AO2
14837KMSN MSN20010831060509308/31/01 06:05:31  5-MIN KMSN 311205Z 32006KT 10SM CLR 15/13 A2990 880 90 1100 320/06 RMK AO2
14837KMSN MSN20010831061009308/31/01 06:10:31  5-MIN KMSN 311210Z 33006KT 10SM CLR 16/13 A2990 880 86 1200 330/06 RMK AO2
14837KMSN MSN20010831061509308/31/01 06:15:31  5-MIN KMSN 311215Z 33007KT 10SM CLR 16/13 A2990 880 86 1200 330/07 RMK AO2
14837KMSN MSN20010831062009308/31/01 06:20:31  5-MIN KMSN 311220Z 33007KT 10SM CLR 16/14 A2990 880 90 1200 330/07 RMK AO2
14837KMSN MSN20010831062509308/31/01 06:25:31  5-MIN KMSN 311225Z 33006KT 10SM CLR 16/14 A2990 880 90 1200 330/06 RMK AO2
14837KMSN MSN20010831063009308/31/01 06:30:31  5-MIN KMSN 311230Z 33006KT 10SM CLR 16/14 A2990 880 90 1200 330/06 RMK AO2
14837KMSN MSN20010831063509308/31/01 06:35:31  5-MIN KMSN 311235Z 33007KT 10SM CLR 16/14 A2991 880 86 1300 330/07 RMK AO2
14837KMSN MSN20010831064009308/31/01 06:40:31  5-MIN KMSN 311240Z 33007KT 10SM CLR 16/14 A2991 880 86 1300 330/07 RMK AO2
14837KMSN MSN20010831064509308/31/01 06:45:31  5-MIN KMSN 311245Z 34007KT 10SM CLR 16/14 A2991 880 86 1200 340/07 RMK AO2
14837KMSN MSN20010831065011008/31/01 06:50:31  5-MIN KMSN 311250Z 33008KT 10SM CLR 16/14 A2991 870 86 1200 330/08 RMK AO2 SLP125 T01610139
14837KMSN MSN20010831065509308/31/01 06:55:31  5-MIN KMSN 311255Z 34008KT 10SM CLR 16/14 A2991 870 86 1200 340/08 RMK AO2
14837KMSN MSN20010831070009308/31/01 07:00:31  5-MIN KMSN 311300Z 34006KT 10SM CLR 17/14 A2991 870 83 1300 340/06 RMK AO2
14837KMSN MSN20010831070509308/31/01 07:05:31  5-MIN KMSN 311305Z 34008KT 10SM CLR 17/14 A2991 870 83 1300 340/08 RMK AO2
14837KMSN MSN20010831071009308/31/01 07:10:31  5-MIN KMSN 311310Z 33008KT 10SM CLR 17/14 A2991 880 83 1300 330/08 RMK AO2
14837KMSN MSN20010831071509308/31/01 07:15:31  5-MIN KMSN 311315Z 34007KT 10SM CLR 17/14 A2991 880 83 1300 340/07 RMK AO2
14837KMSN MSN20010831072009308/31/01 07:20:31  5-MIN KMSN 311320Z 34008KT 10SM CLR 17/14 A2991 870 83 1300 340/08 RMK AO2
14837KMSN MSN20010831072509308/31/01 07:25:31  5-MIN KMSN 311325Z 35008KT 10SM CLR 17/14 A2991 870 83 1400 350/08 RMK AO2
14837KMSN MSN20010831073009308/31/01 07:30:31  5-MIN KMSN 311330Z 34009KT 10SM CLR 17/14 A2991 870 83 1300 340/09 RMK AO2
14837KMSN MSN20010831073509908/31/01 07:35:31  5-MIN KMSN 311335Z 35011G15KT 10SM CLR 17/14 A2991 870 83 1300 350/11G15 RMK AO2
14837KMSN MSN20010831074010208/31/01 07:40:31  5-MIN KMSN 311340Z 34010G15KT 10SM FEW015 17/14 A2991 870 83 1300 340/10G15 RMK AO2
14837KMSN MSN20010831074509608/31/01 07:45:31  5-MIN KMSN 311345Z 34007KT 10SM FEW015 17/14 A2991 870 80 1400 340/07 RMK AO2
14837KMSN MSN20010831075011308/31/01 07:50:31  5-MIN KMSN 311350Z 36009KT 10SM SCT012 17/14 A2992 870 83 1400 350/09 RMK AO2 SLP129 T01720144
14837KMSN MSN20010831075509608/31/01 07:55:31  5-MIN KMSN 311355Z 34008KT 10SM SCT012 17/14 A2992 870 80 1400 340/08 RMK AO2
14837KMSN MSN20010831080009608/31/01 08:00:31  5-MIN KMSN 311400Z 33009KT 10SM SCT012 17/14 A2992 860 83 1400 330/09 RMK AO2
14837KMSN MSN20010831080509608/31/01 08:05:31  5-MIN KMSN 311405Z 36010KT 10SM SCT012 17/14 A2992 860 83 1400 360/10 RMK AO2
14837KMSN MSN20010831081009608/31/01 08:10:31  5-MIN KMSN 311410Z 34009KT 10SM SCT012 17/14 A2993 860 83 1300 340/09 RMK AO2
14837KMSN MSN20010831081509608/31/01 08:15:31  5-MIN KMSN 311415Z 34009KT 10SM SCT012 17/14 A2993 860 80 1400 340/09 RMK AO2
14837KMSN MSN20010831082009608/31/01 08:20:31  5-MIN KMSN 311420Z 34009KT 10SM BKN012 17/14 A2993 850 83 1300 340/09 RMK AO2
14837KMSN MSN20010831082509608/31/01 08:25:31  5-MIN KMSN 311425Z 34008KT 10SM BKN012 17/14 A2993 850 83 1300 340/08 RMK AO2
14837KMSN MSN20010831083009608/31/01 08:30:31  5-MIN KMSN 311430Z 36012KT 10SM BKN012 17/14 A2994 850 83 1300 360/12 RMK AO2
14837KMSN MSN20010831083509608/31/01 08:35:31  5-MIN KMSN 311435Z 34011KT 10SM BKN012 17/14 A2994 850 80 1300 340/11 RMK AO2
14837KMSN MSN20010831084009608/31/01 08:40:31  5-MIN KMSN 311440Z 35009KT 10SM BKN014 17/14 A2994 850 83 1300 350/09 RMK AO2
14837KMSN MSN20010831084509608/31/01 08:45:31  5-MIN KMSN 311445Z 35011KT 10SM BKN014 17/14 A2994 850 80 1300 340/11 RMK AO2
14837KMSN MSN20010831085011908/31/01 08:50:31  5-MIN KMSN 311450Z 33007KT 10SM OVC014 17/14 A2994 840 80 1300 330/07 RMK AO2 SLP137 T01720139 53015
14837KMSN MSN20010831085509608/31/01 08:55:31  5-MIN KMSN 311455Z 34008KT 10SM OVC014 17/14 A2994 840 83 1300 340/08 RMK AO2
14837KMSN MSN20010831090009608/31/01 09:00:31  5-MIN KMSN 311500Z 34006KT 10SM OVC014 17/14 A2995 840 83 1300 340/06 RMK AO2
14837KMSN MSN20010831090511208/31/01 09:05:31  5-MIN KMSN 311505Z 34008KT 310V010 10SM OVC014 17/14 A2995 840 83 1300 340/08 310V010 RMK AO2
14837KMSN MSN20010831091009608/31/01 09:10:31  5-MIN KMSN 311510Z 35007KT 10SM OVC014 17/14 A2995 840 83 1300 350/07 RMK AO2
14837KMSN MSN20010831091509608/31/01 09:15:31  5-MIN KMSN 311515Z 35009KT 10SM OVC014 17/14 A2995 830 83 1300 350/09 RMK AO2
14837KMSN MSN20010831092009608/31/01 09:20:31  5-MIN KMSN 311520Z 33008KT 10SM OVC014 17/13 A2996 830 80 1300 330/08 RMK AO2
14837KMSN MSN20010831092509608/31/01 09:25:31  5-MIN KMSN 311525Z 33008KT 10SM OVC014 17/13 A2996 830 80 1300 330/08 RMK AO2
14837KMSN MSN20010831093009608/31/01 09:30:31  5-MIN KMSN 311530Z 35007KT 10SM OVC016 17/13 A2996 830 80 1300 350/07 RMK AO2
14837KMSN MSN20010831093509608/31/01 09:35:31  5-MIN KMSN 311535Z 36012KT 10SM OVC016 17/14 A2996 830 80 1300 360/12 RMK AO2
14837KMSN MSN20010831094009608/31/01 09:40:31  5-MIN KMSN 311540Z 36010KT 10SM OVC016 17/13 A2996 830 78 1300 350/10 RMK AO2
14837KMSN MSN20010831094509608/31/01 09:45:31  5-MIN KMSN 311545Z 35008KT 10SM OVC016 17/13 A2996 820 78 1300 350/08 RMK AO2
14837KMSN MSN20010831095011308/31/01 09:50:31  5-MIN KMSN 311550Z 35009KT 10SM OVC018 17/13 A2997 820 78 1300 350/09 RMK AO2 SLP145 T01720133
14837KMSN MSN20010831095510308/31/01 09:55:31  5-MIN KMSN 311555Z 36008KT 10SM BKN018 OVC024 17/14 A2997 820 80 1300 360/08 RMK AO2
14837KMSN MSN20010831100010308/31/01 10:00:31  5-MIN KMSN 311600Z 35008KT 10SM BKN018 OVC026 18/14 A2997 820 78 1400 350/08 RMK AO2
14837KMSN MSN20010831100510308/31/01 10:05:31  5-MIN KMSN 311605Z 36006KT 10SM BKN018 OVC028 18/14 A2997 820 78 1400 360/06 RMK AO2
14837KMSN MSN20010831101010308/31/01 10:10:31  5-MIN KMSN 311610Z 34007KT 10SM BKN018 OVC028 18/14 A2997 820 78 1400 330/07 RMK AO2
14837KMSN MSN20010831101510308/31/01 10:15:31  5-MIN KMSN 311615Z 32007KT 10SM BKN018 BKN028 18/14 A2997 820 78 1400 320/07 RMK AO2
14837KMSN MSN20010831102010308/31/01 10:20:31  5-MIN KMSN 311620Z 34008KT 10SM BKN018 BKN028 19/14 A2997 820 75 1500 340/08 RMK AO2
14837KMSN MSN20010831102510308/31/01 10:25:31  5-MIN KMSN 311625Z 32010KT 10SM BKN018 BKN028 18/14 A2997 820 75 1400 310/10 RMK AO2
14837KMSN MSN20010831103010308/31/01 10:30:31  5-MIN KMSN 311630Z 35006KT 10SM BKN018 BKN028 18/14 A2997 820 75 1400 340/06 RMK AO2
14837KMSN MSN20010831103511908/31/01 10:35:31  5-MIN KMSN 311635Z 33009KT 300V010 10SM BKN018 BKN028 18/14 A2997 820 78 1400 330/09 300V010 RMK AO2
14837KMSN MSN20010831104012608/31/01 10:40:31  5-MIN KMSN 311640Z 32008KT 300V360 10SM FEW018 SCT028 BKN034 18/14 A2997 820 75 1400 320/08 300V360 RMK AO2
14837KMSN MSN20010831104511008/31/01 10:45:31  5-MIN KMSN 311645Z 31008KT 10SM FEW018 SCT028 BKN034 19/14 A2997 820 75 1500 310/08 RMK AO2
14837KMSN MSN20010831105012708/31/01 10:50:31  5-MIN KMSN 311650Z 31007KT 10SM FEW018 SCT028 BKN034 18/14 A2997 820 75 1400 310/07 RMK AO2 SLP148 T01830139
14837KMSN MSN20010831105511008/31/01 10:55:31  5-MIN KMSN 311655Z 34008KT 10SM SCT021 BKN027 OVC034 18/14 A2998 810 78 1400 340/08 RMK AO2
14837KMSN MSN20010831110011008/31/01 11:00:31  5-MIN KMSN 311700Z 34008KT 10SM SCT021 BKN030 OVC037 18/13 A2998 810 75 1400 340/08 RMK AO2
14837KMSN MSN20010831110511008/31/01 11:05:31  5-MIN KMSN 311705Z 34008KT 10SM FEW021 SCT025 OVC032 18/14 A2998 810 78 1400 340/08 RMK AO2
14837KMSN MSN20010831111011008/31/01 11:10:31  5-MIN KMSN 311710Z 34008KT 10SM SCT021 BKN028 OVC036 18/14 A2998 810 75 1400 340/08 RMK AO2
14837KMSN MSN20010831111512608/31/01 11:15:31  5-MIN KMSN 311715Z 32007KT 300V360 10SM SCT021 BKN028 OVC038 18/14 A2998 810 75 1400 320/07 300V360 RMK AO2
14837KMSN MSN20010831112011008/31/01 11:20:31  5-MIN KMSN 311720Z 33009KT 10SM SCT021 BKN032 OVC040 18/14 A2998 810 78 1400 330/09 RMK AO2
14837KMSN MSN20010831112511008/31/01 11:25:31  5-MIN KMSN 311725Z 32009KT 10SM FEW021 BKN034 OVC042 18/14 A2998 810 75 1400 320/09 RMK AO2
14837KMSN MSN20010831113010308/31/01 11:30:31  5-MIN KMSN 311730Z 32009KT 10SM FEW021 OVC042 18/14 A2998 810 75 1400 320/09 RMK AO2
14837KMSN MSN20010831113510308/31/01 11:35:31  5-MIN KMSN 311735Z 33007KT 10SM FEW021 OVC042 18/14 A2998 810 75 1400 330/07 RMK AO2
14837KMSN MSN20010831114010308/31/01 11:40:31  5-MIN KMSN 311740Z 32007KT 10SM FEW021 OVC042 18/13 A2998 810 72 1400 320/07 RMK AO2
14837KMSN MSN20010831114509608/31/01 11:45:31  5-MIN KMSN 311745Z 33008KT 10SM OVC044 19/14 A2998 810 72 1500 330/08 RMK AO2
14837KMSN MSN20010831115013808/31/01 11:50:31  5-MIN KMSN 311750Z 33008KT 10SM FEW022 OVC044 19/14 A2998 810 72 1500 330/08 RMK AO2 SLP150 T01890139 10189 20150 53017
14837KMSN MSN20010831115510308/31/01 11:55:31  5-MIN KMSN 311755Z 34008KT 10SM FEW021 OVC044 19/14 A2998 810 72 1500 340/08 RMK AO2
14837KMSN MSN20010831120011008/31/01 12:00:31  5-MIN KMSN 311800Z 35009KT 10SM FEW021 SCT028 OVC044 18/14 A2998 810 75 1400 350/09 RMK AO2
14837KMSN MSN20010831120511008/31/01 12:05:31  5-MIN KMSN 311805Z 33008KT 10SM FEW021 SCT028 OVC046 19/14 A2998 810 72 1500 330/08 RMK AO2
14837KMSN MSN20010831121011908/31/01 12:10:31  5-MIN KMSN 311810Z 33007KT 300V010 10SM FEW021 OVC046 19/14 A2998 810 70 1600 330/07 300V010 RMK AO2
14837KMSN MSN20010831121510308/31/01 12:15:31  5-MIN KMSN 311815Z 35008KT 10SM FEW021 OVC048 19/14 A2998 800 70 1500 350/08 RMK AO2
14837KMSN MSN20010831122010308/31/01 12:20:31  5-MIN KMSN 311820Z 35008KT 10SM FEW021 OVC048 19/14 A2999 800 72 1500 350/08 RMK AO2
14837KMSN MSN20010831122510308/31/01 12:25:31  5-MIN KMSN 311825Z 34007KT 10SM FEW021 OVC048 19/14 A2999 800 72 1500 340/07 RMK AO2
14837KMSN MSN20010831123010308/31/01 12:30:31  5-MIN KMSN 311830Z 34008KT 10SM FEW023 OVC048 19/14 A2999 800 72 1500 340/08 RMK AO2
14837KMSN MSN20010831123510308/31/01 12:35:31  5-MIN KMSN 311835Z 35007KT 10SM FEW023 OVC050 19/14 A2999 800 72 1500 350/07 RMK AO2
14837KMSN MSN20010831124011008/31/01 12:40:31  5-MIN KMSN 311840Z 36008KT 10SM FEW023 SCT032 OVC050 19/14 A2999 800 70 1500 360/08 RMK AO2
14837KMSN MSN20010831124511008/31/01 12:45:31  5-MIN KMSN 311845Z 35010KT 10SM SCT023 SCT032 OVC050 18/13 A2999 800 72 1400 350/10 RMK AO2
14837KMSN MSN20010831125012708/31/01 12:50:31  5-MIN KMSN 311850Z 01011KT 10SM SCT023 BKN043 OVC050 18/14 A2999 800 78 1300 010/11 RMK AO2 SLP155 T01780139
14837KMSN MSN20010831125511008/31/01 12:55:31  5-MIN KMSN 311855Z 03010KT 10SM FEW023 BKN041 OVC050 18/14 A2999 800 78 1300 030/10 RMK AO2
14837KMSN MSN20010831130011008/31/01 13:00:31  5-MIN KMSN 311900Z 03010KT 10SM SCT023 BKN041 OVC050 18/14 A2999 800 78 1300 030/10 RMK AO2
14837KMSN MSN20010831130511008/31/01 13:05:31  5-MIN KMSN 311905Z 02006KT 10SM FEW023 BKN043 OVC050 18/14 A2999 800 81 1300 020/06 RMK AO2
14837KMSN MSN20010831131010308/31/01 13:10:31  5-MIN KMSN 311910Z 01007KT 10SM FEW023 OVC045 18/14 A2999 800 78 1400 010/07 RMK AO2
14837KMSN MSN20010831131511008/31/01 13:15:31  5-MIN KMSN 311915Z 02008KT 10SM FEW023 SCT042 OVC050 18/14 A2999 800 75 1400 020/08 RMK AO2
14837KMSN MSN20010831132010308/31/01 13:20:31  5-MIN KMSN 311920Z 04008KT 10SM FEW021 OVC049 18/14 A2999 800 75 1400 040/08 RMK AO2
14837KMSN MSN20010831132510308/31/01 13:25:31  5-MIN KMSN 311925Z 01009KT 10SM SCT021 OVC049 18/14 A2999 800 75 1400 010/09 RMK AO2
14837KMSN MSN20010831133010308/31/01 13:30:31  5-MIN KMSN 311930Z 01009KT 10SM SCT021 OVC049 18/14 A2999 800 75 1400 010/09 RMK AO2
14837KMSN MSN20010831133510308/31/01 13:35:31  5-MIN KMSN 311935Z 02007KT 10SM SCT021 BKN049 19/14 A3000 790 72 1500 020/07 RMK AO2
14837KMSN MSN20010831134010308/31/01 13:40:31  5-MIN KMSN 311940Z 01008KT 10SM SCT023 BKN049 20/14 A2999 800 70 1600 010/08 RMK AO2
14837KMSN MSN20010831134510308/31/01 13:45:31  5-MIN KMSN 311945Z 35008KT 10SM SCT023 BKN049 19/14 A3000 790 70 1500 350/08 RMK AO2
14837KMSN MSN20010831135012008/31/01 13:50:31  5-MIN KMSN 311950Z 36007KT 10SM SCT023 BKN049 19/14 A3000 790 72 1500 350/07 RMK AO2 SLP156 T01890139
14837KMSN MSN20010831181009308/31/01 18:10:31  5-MIN KMSN 010010Z 03005KT 10SM CLR 17/13 A3001 780 77 1200 030/05 RMK AO2
14837KMSN MSN20010831181509308/31/01 18:15:31  5-MIN KMSN 010015Z 02003KT 10SM CLR 16/12 A3002 780 77 1100 020/03 RMK AO2
14837KMSN MSN20010831182009308/31/01 18:20:31  5-MIN KMSN 010020Z 03005KT 10SM CLR 17/13 A3002 770 77 1200 030/05 RMK AO2
14837KMSN MSN20010831182509308/31/01 18:25:31  5-MIN KMSN 010025Z 02004KT 10SM CLR 16/13 A3002 770 80 1100 010/04 RMK AO2
14837KMSN MSN20010831183009308/31/01 18:30:31  5-MIN KMSN 010030Z 01004KT 10SM CLR 16/13 A3002 770 80 1100 010/04 RMK AO2
14837KMSN MSN20010831183509608/31/01 18:35:31  5-MIN KMSN 010035Z 01005KT 10SM FEW060 16/13 A3002 770 80 1100 360/05 RMK AO2
14837KMSN MSN20010831184009608/31/01 18:40:31  5-MIN KMSN 010040Z 01005KT 10SM SCT060 16/13 A3002 770 80 1100 010/05 RMK AO2
14837KMSN MSN20010831184510308/31/01 18:45:31  5-MIN KMSN 010045Z 02005KT 10SM FEW044 SCT060 16/13 A3002 770 80 1100 020/05 RMK AO2
14837KMSN MSN20010831185012008/31/01 18:50:31  5-MIN KMSN 010050Z 04005KT 10SM SCT044 BKN055 16/13 A3002 770 83 1100 040/05 RMK AO2 SLP165 T01560128
14837KMSN MSN20010831185510308/31/01 18:55:31  5-MIN KMSN 010055Z 04006KT 10SM SCT046 BKN055 16/12 A3002 770 77 1100 030/06 RMK AO2
14837KMSN MSN20010831190010308/31/01 19:00:31  5-MIN KMSN 010100Z 03005KT 10SM SCT046 BKN055 16/12 A3002 770 77 1100 030/05 RMK AO2
14837KMSN MSN20010831190509608/31/01 19:05:31  5-MIN KMSN 010105Z 03004KT 10SM SCT046 16/12 A3003 770 77 1100 030/04 RMK AO2
14837KMSN MSN20010831191009608/31/01 19:10:31  5-MIN KMSN 010110Z 00000KT 10SM SCT046 16/12 A3003 760 77 1000 000/00 RMK AO2
14837KMSN MSN20010831191509608/31/01 19:15:31  5-MIN KMSN 010115Z 00000KT 10SM BKN044 16/12 A3003 760 80 1000 000/00 RMK AO2
14837KMSN MSN20010831192009608/31/01 19:20:31  5-MIN KMSN 010120Z 00000KT 10SM BKN044 16/13 A3003 760 80 1100 000/00 RMK AO2
14837KMSN MSN20010831192509608/31/01 19:25:31  5-MIN KMSN 010125Z 00000KT 10SM BKN044 16/12 A3003 760 77 1100 000/00 RMK AO2
14837KMSN MSN20010831193010208/31/01 19:30:31  5-MIN KMSN 010130Z 00000KT 10SM BKN046 BKN055 14/13 A3003 760 90 900 000/00 RMK AO2
14837KMSN MSN20010831193510208/31/01 19:35:31  5-MIN KMSN 010135Z 00000KT 10SM SCT046 BKN055 14/13 A3004 760 90 900 000/00 RMK AO2
14837KMSN MSN20010831194010208/31/01 19:40:31  5-MIN KMSN 010140Z 00000KT 10SM SCT046 BKN055 14/13 A3004 760 90 900 000/00 RMK AO2
14837KMSN MSN20010831194510308/31/01 19:45:31  5-MIN KMSN 010145Z 00000KT 10SM FEW046 SCT055 15/13 A3004 760 86 1000 000/00 RMK AO2
14837KMSN MSN20010831195011308/31/01 19:50:31  5-MIN KMSN 010150Z 04004KT 10SM SCT050 15/12 A3004 760 83 1000 040/04 RMK AO2 SLP170 T01500122
14837KMSN MSN20010831195509508/31/01 19:55:31  5-MIN KMSN 010155Z 03005KT 10SM FEW055 14/11 A3004 750 83 800 030/05 RMK AO2
14837KMSN MSN20010831200009508/31/01 20:00:31  5-MIN KMSN 010200Z 03007KT 10SM FEW055 14/11 A3004 750 80 900 030/07 RMK AO2
14837KMSN MSN20010831200509308/31/01 20:05:31  5-MIN KMSN 010205Z 03007KT 10SM CLR 15/11 A3004 750 77 1000 030/07 RMK AO2
14837KMSN MSN20010831201009208/31/01 20:10:31  5-MIN KMSN 010210Z 04007KT 10SM CLR 14/11 A3005 750 80 900 030/07 RMK AO2
14837KMSN MSN20010831201509308/31/01 20:15:31  5-MIN KMSN 010215Z 04006KT 10SM CLR 15/11 A3005 750 77 1000 030/06 RMK AO2
14837KMSN MSN20010831202009208/31/01 20:20:31  5-MIN KMSN 010220Z 03005KT 10SM CLR 14/11 A3004 750 80 900 030/05 RMK AO2
14837KMSN MSN20010831202509208/31/01 20:25:31  5-MIN KMSN 010225Z 03006KT 10SM CLR 14/11 A3004 750 83 800 030/06 RMK AO2
14837KMSN MSN20010831203009208/31/01 20:30:31  5-MIN KMSN 010230Z 03006KT 10SM CLR 14/11 A3005 750 83 800 030/06 RMK AO2
14837KMSN MSN20010831203509208/31/01 20:35:31  5-MIN KMSN 010235Z 03005KT 10SM CLR 14/11 A3005 750 83 800 030/05 RMK AO2
14837KMSN MSN20010831204009208/31/01 20:40:31  5-MIN KMSN 010240Z 02004KT 10SM CLR 14/11 A3005 740 83 800 020/04 RMK AO2
14837KMSN MSN20010831204509208/31/01 20:45:31  5-MIN KMSN 010245Z 01004KT 10SM CLR 14/11 A3005 740 83 800 010/04 RMK AO2
14837KMSN MSN20010831205011808/31/01 20:50:31  5-MIN KMSN 010250Z 01004KT 10SM FEW050 13/11 A3005 740 86 800 010/04 RMK AO2 SLP176 T01330111 51007
14837KMSN MSN20010831205509208/31/01 20:55:31  5-MIN KMSN 010255Z 01003KT 10SM CLR 13/11 A3005 740 86 800 010/03 RMK AO2
14837KMSN MSN20010831210009208/31/01 21:00:31  5-MIN KMSN 010300Z 00000KT 10SM CLR 13/11 A3005 740 86 800 000/00 RMK AO2
14837KMSN MSN20010831210509208/31/01 21:05:31  5-MIN KMSN 010305Z 00000KT 10SM CLR 13/11 A3005 740 89 700 000/00 RMK AO2
14837KMSN MSN20010831211009208/31/01 21:10:31  5-MIN KMSN 010310Z 00000KT 10SM CLR 12/11 A3005 740 93 600 000/00 RMK AO2
14837KMSN MSN20010831211509208/31/01 21:15:31  5-MIN KMSN 010315Z 00000KT 10SM CLR 12/11 A3005 740 93 600 000/00 RMK AO2
14837KMSN MSN20010831212009208/31/01 21:20:31  5-MIN KMSN 010320Z 36003KT 10SM CLR 12/11 A3006 740 93 600 360/03 RMK AO2
14837KMSN MSN20010831212509208/31/01 21:25:31  5-MIN KMSN 010325Z 35004KT 10SM CLR 13/11 A3006 740 89 700 350/04 RMK AO2
14837KMSN MSN20010831213009208/31/01 21:30:31  5-MIN KMSN 010330Z 35003KT 10SM CLR 13/11 A3006 740 89 700 350/03 RMK AO2
14837KMSN MSN20010831213509208/31/01 21:35:31  5-MIN KMSN 010335Z 35003KT 10SM CLR 13/11 A3006 740 86 700 350/03 RMK AO2
14837KMSN MSN20010831214009208/31/01 21:40:31  5-MIN KMSN 010340Z 36003KT 10SM CLR 12/11 A3006 740 93 600 360/03 RMK AO2
14837KMSN MSN20010831214509208/31/01 21:45:31  5-MIN KMSN 010345Z 00000KT 10SM CLR 12/11 A3006 730 93 600 000/00 RMK AO2
14837KMSN MSN20010831215010908/31/01 21:50:31  5-MIN KMSN 010350Z 35003KT 10SM CLR 12/11 A3006 730 93 500 350/03 RMK AO2 SLP181 T01170106
14837KMSN MSN20010831215509208/31/01 21:55:31  5-MIN KMSN 010355Z 36004KT 10SM CLR 11/11 A3007 730 96 500 360/04 RMK AO2
14837KMSN MSN20010831220009208/31/01 22:00:31  5-MIN KMSN 010400Z 36003KT 10SM CLR 12/11 A3007 730 93 600 360/03 RMK AO2
14837KMSN MSN20010831220509208/31/01 22:05:31  5-MIN KMSN 010405Z 00000KT 10SM CLR 12/11 A3007 730 93 500 000/00 RMK AO2
14837KMSN MSN20010831221009208/31/01 22:10:31  5-MIN KMSN 010410Z 00000KT 10SM CLR 12/11 A3007 730 96 500 000/00 RMK AO2
14837KMSN MSN20010831221509208/31/01 22:15:31  5-MIN KMSN 010415Z 00000KT 10SM CLR 12/11 A3007 730 93 500 000/00 RMK AO2
14837KMSN MSN20010831222009208/31/01 22:20:31  5-MIN KMSN 010420Z 01003KT 10SM CLR 12/11 A3007 720 93 500 010/03 RMK AO2
14837KMSN MSN20010831222509208/31/01 22:25:31  5-MIN KMSN 010425Z 00000KT 10SM CLR 12/11 A3007 720 93 500 000/00 RMK AO2
14837KMSN MSN20010831223009208/31/01 22:30:31  5-MIN KMSN 010430Z 00000KT 10SM CLR 12/11 A3008 720 93 500 000/00 RMK AO2
14837KMSN MSN20010831223509208/31/01 22:35:31  5-MIN KMSN 010435Z 00000KT 10SM CLR 11/11 A3008 720 96 500 000/00 RMK AO2
14837KMSN MSN20010831224009208/31/01 22:40:31  5-MIN KMSN 010440Z 00000KT 10SM CLR 11/11 A3008 720 96 500 000/00 RMK AO2
14837KMSN MSN20010831224509208/31/01 22:45:31  5-MIN KMSN 010445Z 00000KT 10SM CLR 11/11 A3008 720 96 500 000/00 RMK AO2
14837KMSN MSN20010831225011008/31/01 22:50:31  5-MIN KMSN 010450Z 00000KT 10SM CLR 11/11 A3008 720 100 400 000/00 RMK AO2 SLP187 T01060106
14837KMSN MSN20010831225509208/31/01 22:55:31  5-MIN KMSN 010455Z 00000KT 10SM CLR 11/11 A3008 720 96 500 000/00 RMK AO2
14837KMSN MSN20010831230009208/31/01 23:00:31  5-MIN KMSN 010500Z 00000KT 10SM CLR 11/11 A3008 720 96 500 000/00 RMK AO2
14837KMSN MSN20010831230509208/31/01 23:05:31  5-MIN KMSN 010505Z 00000KT 10SM CLR 11/11 A3008 720 96 500 000/00 RMK AO2
14837KMSN MSN20010831231009208/31/01 23:10:31  5-MIN KMSN 010510Z 00000KT 10SM CLR 11/11 A3008 720 96 500 000/00 RMK AO2
14837KMSN MSN20010831231509208/31/01 23:15:31  5-MIN KMSN 010515Z 00000KT 10SM CLR 11/11 A3008 720 96 500 000/00 RMK AO2
14837KMSN MSN20010831232009208/31/01 23:20:31  5-MIN KMSN 010520Z 00000KT 10SM CLR 11/11 A3008 710 96 500 000/00 RMK AO2
14837KMSN MSN20010831232509208/31/01 23:25:31  5-MIN KMSN 010525Z 00000KT 10SM CLR 11/11 A3008 710 96 500 000/00 RMK AO2
14837KMSN MSN20010831233009208/31/01 23:30:31  5-MIN KMSN 010530Z 00000KT 10SM CLR 11/11 A3008 710 96 500 000/00 RMK AO2
14837KMSN MSN20010831233509308/31/01 23:35:31  5-MIN KMSN 010535Z 00000KT 10SM CLR 11/11 A3008 710 100 400 000/00 RMK AO2
14837KMSN MSN20010831234009108/31/01 23:40:31  5-MIN KMSN 010540Z 00000KT 9SM CLR 11/10 A3009 710 96 400 000/00 RMK AO2
14837KMSN MSN20010831234509208/31/01 23:45:31  5-MIN KMSN 010545Z 00000KT 10SM CLR 11/10 A3009 710 96 400 000/00 RMK AO2
14837KMSN MSN20010831235013708/31/01 23:50:31  5-MIN KMSN 010550Z 00000KT 10SM CLR 11/10 A3009 710 96 400 000/00 RMK AO2 SLP189 T01060100 10172 20106 402110106 51014
14837KMSN MSN20010831235509108/31/01 23:55:31  5-MIN KMSN 010555Z 00000KT 9SM CLR 11/10 A3009 710 96 400 000/00 RMK AO2
