14837KMSN MSN20060309130011203/09/06 13:00:31  5-MIN KMSN 091900Z 02008KT 1SM BR OVC003 03/02 A2931 1430 96 300 020/08 RMK AO2 SFC VIS 1 1/4
14837KMSN MSN20060309130511203/09/06 13:05:31  5-MIN KMSN 091905Z 36007KT 1SM BR OVC003 03/02 A2931 1430 96 300 360/07 RMK AO2 SFC VIS 1 1/4
14837KMSN MSN20060309131009803/09/06 13:10:31  5-MIN KMSN 091910Z 01007KT 1SM BR OVC003 03/02 A2931 1430 96 300 360/07 RMK AO2
14837KMSN MSN20060309131510003/09/06 13:15:31  5-MIN KMSN 091915Z 36008KT 3/4SM BR OVC003 03/02 A2931 1430 96 300 360/08 RMK AO2
14837KMSN MSN20060309132010003/09/06 13:20:31  5-MIN KMSN 091920Z 02007KT 3/4SM BR OVC003 03/02 A2931 1430 96 300 010/07 RMK AO2
14837KMSN MSN20060309132510003/09/06 13:25:31  5-MIN KMSN 091925Z 03007KT 3/4SM BR OVC003 03/02 A2931 1440 96 300 030/07 RMK AO2
14837KMSN MSN20060309133010003/09/06 13:30:31  5-MIN KMSN 091930Z 02008KT 3/4SM BR OVC003 03/02 A2930 1440 96 300 020/08 RMK AO2
14837KMSN MSN20060309133510003/09/06 13:35:31  5-MIN KMSN 091935Z 02009KT 3/4SM BR OVC003 03/02 A2931 1440 96 300 020/09 RMK AO2
14837KMSN MSN20060309134010003/09/06 13:40:31  5-MIN KMSN 091940Z 01008KT 3/4SM BR OVC003 03/02 A2930 1440 96 300 010/08 RMK AO2
14837KMSN MSN20060309134510003/09/06 13:45:31  5-MIN KMSN 091945Z 01009KT 3/4SM BR OVC003 03/02 A2929 1450 96 400 010/09 RMK AO2
14837KMSN MSN20060309135011703/09/06 13:50:31  5-MIN KMSN 091950Z 01010KT 3/4SM BR OVC003 03/02 A2929 1450 96 400 010/10 RMK AO2 SLP925 T00280022
14837KMSN MSN20060309135510003/09/06 13:55:31  5-MIN KMSN 091955Z 36008KT 3/4SM BR OVC003 03/02 A2929 1450 96 400 360/08 RMK AO2
14837KMSN MSN20060309140010003/09/06 14:00:31  5-MIN KMSN 092000Z 01008KT 3/4SM BR OVC003 03/02 A2930 1450 96 400 360/08 RMK AO2
14837KMSN MSN20060309140510003/09/06 14:05:31  5-MIN KMSN 092005Z 01010KT 3/4SM BR OVC003 03/02 A2930 1450 96 400 360/10 RMK AO2
14837KMSN MSN20060309141010003/09/06 14:10:31  5-MIN KMSN 092010Z 01009KT 3/4SM BR OVC003 03/02 A2929 1450 96 400 010/09 RMK AO2
14837KMSN MSN20060309141511203/09/06 14:15:31  5-MIN KMSN 092015Z 36007KT 1/2SM FG OVC003 03/02 A2929 1450 96 400 360/07 RMK AO2 TWR VIS 3/4
14837KMSN MSN20060309142011203/09/06 14:20:31  5-MIN KMSN 092020Z 01010KT 1/2SM FG OVC003 03/02 A2929 1450 96 400 010/10 RMK AO2 TWR VIS 3/4
14837KMSN MSN20060309142510003/09/06 14:25:31  5-MIN KMSN 092025Z 36008KT 3/4SM BR OVC003 03/02 A2928 1460 96 400 360/08 RMK AO2
14837KMSN MSN20060309143010003/09/06 14:30:31  5-MIN KMSN 092030Z 01010KT 3/4SM BR OVC003 03/02 A2928 1460 96 400 010/10 RMK AO2
14837KMSN MSN20060309143510003/09/06 14:35:31  5-MIN KMSN 092035Z 01010KT 3/4SM BR OVC003 03/02 A2928 1460 96 400 010/10 RMK AO2
14837KMSN MSN20060309144011003/09/06 14:40:31  5-MIN KMSN 092040Z 01008KT 3/4SM BR OVC003 03/02 A2929 1450 96 400 010/08 RMK AO2 SFC VIS 1
14837KMSN MSN20060309144511003/09/06 14:45:31  5-MIN KMSN 092045Z 36007KT 3/4SM BR OVC003 03/02 A2929 1450 96 400 360/07 RMK AO2 SFC VIS 1
14837KMSN MSN20060309145012303/09/06 14:50:31  5-MIN KMSN 092050Z 36007KT 3/4SM BR OVC003 03/02 A2929 1450 96 400 360/07 RMK AO2 SLP926 T00280022 58001
14837KMSN MSN20060309145510003/09/06 14:55:31  5-MIN KMSN 092055Z 36005KT 3/4SM BR OVC003 03/02 A2930 1440 96 400 350/05 RMK AO2
14837KMSN MSN20060309150010003/09/06 15:00:31  5-MIN KMSN 092100Z 35007KT 3/4SM BR OVC003 03/02 A2929 1450 96 400 350/07 RMK AO2
14837KMSN MSN20060309150510003/09/06 15:05:31  5-MIN KMSN 092105Z 35006KT 3/4SM BR OVC003 03/02 A2929 1450 96 400 350/06 RMK AO2
14837KMSN MSN20060309151010003/09/06 15:10:31  5-MIN KMSN 092110Z 35007KT 3/4SM BR OVC003 03/02 A2929 1450 96 400 350/07 RMK AO2
14837KMSN MSN20060309151510003/09/06 15:15:31  5-MIN KMSN 092115Z 35007KT 3/4SM BR OVC003 03/02 A2930 1440 96 400 350/07 RMK AO2
14837KMSN MSN20060309152011003/09/06 15:20:31  5-MIN KMSN 092120Z 35007KT 3/4SM BR OVC003 03/02 A2930 1440 96 300 350/07 RMK AO2 SFC VIS 1
14837KMSN MSN20060309152511403/09/06 15:25:31  5-MIN KMSN 092125Z 35008KT 3/4SM BR OVC003 03/02 A2930 1440 96 300 350/08 RMK AO2 SFC VIS 1 1/4
14837KMSN MSN20060309153011403/09/06 15:30:31  5-MIN KMSN 092130Z 36008KT 3/4SM BR OVC003 03/02 A2930 1440 96 400 360/08 RMK AO2 SFC VIS 1 1/2
14837KMSN MSN20060309153511403/09/06 15:35:31  5-MIN KMSN 092135Z 01008KT 3/4SM BR OVC003 03/02 A2930 1440 92 400 010/08 RMK AO2 SFC VIS 1 3/4
14837KMSN MSN20060309154011403/09/06 15:40:31  5-MIN KMSN 092140Z 02008KT 3/4SM BR OVC003 03/02 A2929 1450 96 400 020/08 RMK AO2 SFC VIS 1 1/2
14837KMSN MSN20060309154511403/09/06 15:45:31  5-MIN KMSN 092145Z 01008KT 3/4SM BR OVC003 03/02 A2929 1450 92 400 010/08 RMK AO2 SFC VIS 1 1/4
14837KMSN MSN20060309155013103/09/06 15:50:31  5-MIN KMSN 092150Z 01008KT 3/4SM BR OVC003 03/02 A2929 1450 96 400 010/08 RMK AO2 SFC VIS 1 1/4 SLP924 T00280022
14837KMSN MSN20060309155511403/09/06 15:55:31  5-MIN KMSN 092155Z 01010KT 3/4SM BR OVC003 03/02 A2929 1450 96 400 010/10 RMK AO2 SFC VIS 1 1/4
14837KMSN MSN20060309160011403/09/06 16:00:31  5-MIN KMSN 092200Z 01009KT 3/4SM BR OVC003 03/02 A2929 1450 96 400 010/09 RMK AO2 SFC VIS 1 1/4
14837KMSN MSN20060309160511403/09/06 16:05:31  5-MIN KMSN 092205Z 01010KT 3/4SM BR OVC003 03/02 A2929 1450 96 400 010/10 RMK AO2 SFC VIS 1 1/4
14837KMSN MSN20060309161011403/09/06 16:10:31  5-MIN KMSN 092210Z 01010KT 3/4SM BR OVC003 03/02 A2930 1450 96 400 010/10 RMK AO2 SFC VIS 1 1/4
14837KMSN MSN20060309161511403/09/06 16:15:31  5-MIN KMSN 092215Z 01009KT 3/4SM BR OVC003 03/02 A2930 1440 96 400 010/09 RMK AO2 SFC VIS 1 1/2
14837KMSN MSN20060309162011403/09/06 16:20:31  5-MIN KMSN 092220Z 01009KT 3/4SM BR OVC003 03/02 A2930 1450 96 400 010/09 RMK AO2 SFC VIS 1 1/2
14837KMSN MSN20060309162511403/09/06 16:25:31  5-MIN KMSN 092225Z 01010KT 3/4SM BR OVC003 03/02 A2930 1440 96 300 010/10 RMK AO2 SFC VIS 1 1/2
14837KMSN MSN20060309163011403/09/06 16:30:31  5-MIN KMSN 092230Z 01009KT 3/4SM BR OVC003 03/02 A2930 1440 96 300 010/09 RMK AO2 SFC VIS 1 1/2
14837KMSN MSN20060309163511203/09/06 16:35:31  5-MIN KMSN 092235Z 01009KT 1SM BR OVC003 03/02 A2930 1440 96 300 010/09 RMK AO2 SFC VIS 1 1/2
14837KMSN MSN20060309164011203/09/06 16:40:31  5-MIN KMSN 092240Z 01009KT 1SM BR OVC003 03/02 A2930 1440 96 300 010/09 RMK AO2 SFC VIS 1 1/2
14837KMSN MSN20060309164511203/09/06 16:45:31  5-MIN KMSN 092245Z 01007KT 1SM BR OVC003 03/02 A2931 1430 96 300 010/07 RMK AO2 SFC VIS 1 1/2
14837KMSN MSN20060309165013303/09/06 16:50:31  5-MIN KMSN 092250Z 01007KT 1 1/4SM BR OVC003 03/02 A2932 1420 96 300 010/07 RMK AO2 SFC VIS 1 1/2 SLP935 T00280022
14837KMSN MSN20060309165511603/09/06 16:55:31  5-MIN KMSN 092255Z 01008KT 1 1/4SM BR OVC003 03/02 A2932 1430 96 300 010/08 RMK AO2 SFC VIS 1 1/2
14837KMSN MSN20060309170011603/09/06 17:00:31  5-MIN KMSN 092300Z 01008KT 1 1/4SM BR OVC003 03/02 A2932 1430 96 300 010/08 RMK AO2 SFC VIS 1 1/2
14837KMSN MSN20060309170511603/09/06 17:05:31  5-MIN KMSN 092305Z 01008KT 1 1/4SM BR OVC003 03/02 A2932 1430 96 300 010/08 RMK AO2 SFC VIS 1 1/2
14837KMSN MSN20060309171011603/09/06 17:10:31  5-MIN KMSN 092310Z 02008KT 1 1/4SM BR OVC003 03/02 A2931 1430 96 300 020/08 RMK AO2 SFC VIS 1 1/2
14837KMSN MSN20060309171511603/09/06 17:15:31  5-MIN KMSN 092315Z 02008KT 1 1/4SM BR OVC003 03/02 A2931 1430 96 300 020/08 RMK AO2 SFC VIS 1 1/2
14837KMSN MSN20060309172011603/09/06 17:20:31  5-MIN KMSN 092320Z 02008KT 1 1/4SM BR OVC003 03/02 A2931 1430 96 300 020/08 RMK AO2 SFC VIS 1 1/2
14837KMSN MSN20060309172511603/09/06 17:25:31  5-MIN KMSN 092325Z 03007KT 1 1/4SM BR OVC003 03/02 A2931 1440 96 300 030/07 RMK AO2 SFC VIS 1 1/2
14837KMSN MSN20060309173010203/09/06 17:30:31  5-MIN KMSN 092330Z 04005KT 1 1/4SM BR OVC003 03/02 A2931 1430 96 300 040/05 RMK AO2
14837KMSN MSN20060309173510203/09/06 17:35:31  5-MIN KMSN 092335Z 05006KT 1 1/4SM BR OVC003 03/02 A2931 1430 96 300 050/06 RMK AO2
14837KMSN MSN20060309174010203/09/06 17:40:31  5-MIN KMSN 092340Z 04006KT 1 1/4SM BR OVC003 03/02 A2931 1430 96 300 040/06 RMK AO2
14837KMSN MSN20060309174510203/09/06 17:45:31  5-MIN KMSN 092345Z 03005KT 1 1/4SM BR OVC003 03/02 A2931 1430 96 300 030/05 RMK AO2
14837KMSN MSN20060309175014703/09/06 17:50:31  5-MIN KMSN 092350Z 03006KT 1SM BR OVC003 03/02 A2931 1430 96 300 030/06 RMK AO2 SFC VIS 1 1/4 SLP933 T00280022 10033 20028 55015
14837KMSN MSN20060309175509803/09/06 17:55:31  5-MIN KMSN 092355Z 02007KT 1SM BR OVC003 03/02 A2931 1440 96 300 020/07 RMK AO2
14837KMSN MSN20060309180009803/09/06 18:00:31  5-MIN KMSN 100000Z 01007KT 1SM BR OVC003 03/02 A2931 1440 96 300 010/07 RMK AO2
14837KMSN MSN20060309180509803/09/06 18:05:31  5-MIN KMSN 100005Z 36008KT 1SM BR OVC003 03/02 A2930 1440 96 400 360/08 RMK AO2
14837KMSN MSN20060309181009803/09/06 18:10:31  5-MIN KMSN 100010Z 35007KT 1SM BR OVC003 03/02 A2930 1440 96 300 350/07 RMK AO2
14837KMSN MSN20060309181509803/09/06 18:15:31  5-MIN KMSN 100015Z 36007KT 1SM BR OVC003 03/02 A2930 1440 96 300 350/07 RMK AO2
14837KMSN MSN20060309182009803/09/06 18:20:31  5-MIN KMSN 100020Z 36008KT 1SM BR OVC003 03/02 A2930 1440 96 300 360/08 RMK AO2
14837KMSN MSN20060309182509803/09/06 18:25:31  5-MIN KMSN 100025Z 35008KT 1SM BR OVC003 03/02 A2930 1440 96 300 350/08 RMK AO2
14837KMSN MSN20060309183009803/09/06 18:30:31  5-MIN KMSN 100030Z 36010KT 1SM BR OVC003 03/02 A2929 1450 96 400 360/10 RMK AO2
14837KMSN MSN20060309183511003/09/06 18:35:31  5-MIN KMSN 100035Z 34012KT 1SM BR OVC003 03/02 A2929 1450 96 400 340/12 RMK AO2 CIG 001V006
14837KMSN MSN20060309184012603/09/06 18:40:31  5-MIN KMSN 100040Z 35011KT 1SM -DZ BR OVC003 03/02 A2928 1460 96 400 350/11 RMK AO2 DZB38 CIG 001V006 P0000
14837KMSN MSN20060309184512603/09/06 18:45:31  5-MIN KMSN 100045Z 35010KT 1SM -DZ BR OVC003 03/02 A2928 1460 96 400 340/10 RMK AO2 DZB38 CIG 001V006 P0000
14837KMSN MSN20060309185013103/09/06 18:50:31  5-MIN KMSN 100050Z 35010KT 1SM -DZ BR OVC003 03/02 A2928 1460 96 400 350/10 RMK AO2 DZB38 SLP923 P0000 T00280022
14837KMSN MSN20060309185512203/09/06 18:55:31  5-MIN KMSN 100055Z 35011KT 1SM -DZ BR OVC003 03/02 A2928 1460 96 400 350/11 RMK AO2 TWR VIS 1 1/2 P0000
14837KMSN MSN20060309190012203/09/06 19:00:31  5-MIN KMSN 100100Z 36011KT 1SM -DZ BR OVC003 03/02 A2928 1460 96 400 350/11 RMK AO2 TWR VIS 1 1/2 P0000
14837KMSN MSN20060309190512203/09/06 19:05:31  5-MIN KMSN 100105Z 36010KT 1SM -DZ BR OVC003 03/02 A2928 1460 96 400 360/10 RMK AO2 TWR VIS 1 1/2 P0000
14837KMSN MSN20060309191011203/09/06 19:10:31  5-MIN KMSN 100110Z 35008KT 1 1/2SM -DZ BR OVC003 03/02 A2928 1460 96 400 350/08 RMK AO2 P0000
14837KMSN MSN20060309191511203/09/06 19:15:31  5-MIN KMSN 100115Z 35007KT 1 1/2SM -DZ BR OVC003 03/02 A2929 1460 96 400 350/07 RMK AO2 P0000
14837KMSN MSN20060309192011203/09/06 19:20:31  5-MIN KMSN 100120Z 35008KT 1 1/2SM -DZ BR OVC003 03/02 A2929 1460 96 400 350/08 RMK AO2 P0000
14837KMSN MSN20060309192511903/09/06 19:25:31  5-MIN KMSN 100125Z 01008KT 1 1/2SM -DZ BR BKN003 OVC007 03/02 A2929 1450 96 400 010/08 RMK AO2 P0000
14837KMSN MSN20060309193012903/09/06 19:30:31  5-MIN KMSN 100130Z 02008KT 1 1/2SM -DZ BR BKN003 OVC007 03/02 A2929 1450 96 400 020/08 RMK AO2 SFC VIS 2 P0000
14837KMSN MSN20060309193513803/09/06 19:35:31  5-MIN KMSN 100135Z 01007KT 1 1/2SM BR BKN003 BKN007 OVC070 03/02 A2929 1450 96 400 010/07 RMK AO2 SFC VIS 2 DZE34 P0000
14837KMSN MSN20060309194013103/09/06 19:40:31  5-MIN KMSN 100140Z 36006KT 1 1/2SM BR BKN005 OVC070 03/02 A2929 1450 92 400 360/06 RMK AO2 SFC VIS 2 DZE34 P0000
14837KMSN MSN20060309194513803/09/06 19:45:31  5-MIN KMSN 100145Z 02009KT 1 1/2SM BR BKN005 BKN013 OVC070 03/02 A2929 1450 92 400 020/09 RMK AO2 SFC VIS 2 DZE34 P0000
14837KMSN MSN20060309195011703/09/06 19:50:31  5-MIN KMSN 100150Z 02009KT 2SM BR BKN007 OVC070 03/02 A2929 1450 92 400 010/09 RMK AO2 DZE34 P0000
14837KMSN MSN20060309195511903/09/06 19:55:31  5-MIN KMSN 100155Z 02009KT 2SM BR SCT007 OVC065 03/02 A2929 1460 96 400 020/09 RMK AO2 SFC VIS 2 1/2
14837KMSN MSN20060309200011903/09/06 20:00:31  5-MIN KMSN 100200Z 02010KT 2SM BR FEW007 OVC060 03/02 A2929 1460 96 400 020/10 RMK AO2 SFC VIS 2 1/2
14837KMSN MSN20060309200511903/09/06 20:05:31  5-MIN KMSN 100205Z 36006KT 2SM BR FEW007 OVC060 03/02 A2929 1450 96 400 360/06 RMK AO2 SFC VIS 2 1/2
14837KMSN MSN20060309201011903/09/06 20:10:31  5-MIN KMSN 100210Z 35005KT 2SM BR FEW009 OVC060 03/02 A2929 1450 96 400 340/05 RMK AO2 SFC VIS 2 1/2
14837KMSN MSN20060309201514203/09/06 20:15:31  5-MIN KMSN 100215Z 36005KT 2SM -RA BR FEW009 BKN060 OVC110 03/02 A2930 1450 96 400 360/05 RMK AO2 SFC VIS 2 1/2 RAB15 P0000
14837KMSN MSN20060309202013503/09/06 20:20:31  5-MIN KMSN 100220Z 35004KT 2SM -RA BR SCT055 BKN110 03/02 A2930 1450 96 400 350/04 RMK AO2 SFC VIS 2 1/2 RAB15 P0000
14837KMSN MSN20060309202513503/09/06 20:25:31  5-MIN KMSN 100225Z 36006KT 2SM -RA BR SCT055 BKN110 03/02 A2930 1440 96 400 360/06 RMK AO2 SFC VIS 2 1/2 RAB15 P0000
14837KMSN MSN20060309203014203/09/06 20:30:31  5-MIN KMSN 100230Z 01006KT 2SM -RA BR FEW025 SCT065 BKN110 03/02 A2930 1450 96 400 010/06 RMK AO2 SFC VIS 2 1/2 RAB15 P0000
14837KMSN MSN20060309203513503/09/06 20:35:31  5-MIN KMSN 100235Z 03006KT 2SM -RA BR FEW025 SCT120 02/02 A2930 1440 96 300 020/06 RMK AO2 SFC VIS 2 1/2 RAB15 P0000
14837KMSN MSN20060309204013503/09/06 20:40:31  5-MIN KMSN 100240Z 03006KT 2SM -RA BR FEW025 BKN110 02/02 A2930 1440 96 300 030/06 RMK AO2 SFC VIS 2 1/2 RAB15 P0000
14837KMSN MSN20060309204513403/09/06 20:45:31  5-MIN KMSN 100245Z 03006KT 2SM BR FEW025 BKN120 03/02 A2930 1440 92 300 030/06 RMK AO2 SFC VIS 2 1/2 RAB15E42 P0000
14837KMSN MSN20060309205016303/09/06 20:50:31  5-MIN KMSN 100250Z 02006KT 2SM BR FEW025 BKN120 03/02 A2931 1440 92 300 020/06 RMK AO2 SFC VIS 2 1/2 RAB15E42 SLP931 P0000 60000 T00280017 50004
14837KMSN MSN20060309205511903/09/06 20:55:31  5-MIN KMSN 100255Z 36006KT 2SM BR FEW025 OVC110 03/02 A2931 1440 92 300 360/06 RMK AO2 SFC VIS 2 1/2
14837KMSN MSN20060309210011903/09/06 21:00:31  5-MIN KMSN 100300Z 35005KT 2SM BR SCT025 OVC110 03/02 A2931 1430 92 300 350/05 RMK AO2 SFC VIS 2 1/2
14837KMSN MSN20060309210510903/09/06 21:05:31  5-MIN KMSN 100305Z 35005KT 2 1/2SM BR BKN025 OVC110 03/02 A2931 1430 92 300 350/05 RMK AO2
14837KMSN MSN20060309211010903/09/06 21:10:31  5-MIN KMSN 100310Z 35006KT 2 1/2SM BR BKN024 OVC110 03/02 A2931 1430 92 300 350/06 RMK AO2
14837KMSN MSN20060309211510903/09/06 21:15:31  5-MIN KMSN 100315Z 34006KT 2 1/2SM BR BKN024 OVC110 03/02 A2931 1430 92 300 340/06 RMK AO2
14837KMSN MSN20060309212010203/09/06 21:20:31  5-MIN KMSN 100320Z 34007KT 2 1/2SM BR OVC024 03/02 A2931 1440 92 300 340/07 RMK AO2
14837KMSN MSN20060309212510203/09/06 21:25:31  5-MIN KMSN 100325Z 35007KT 2 1/2SM BR OVC024 03/02 A2931 1440 92 300 350/07 RMK AO2
14837KMSN MSN20060309213010203/09/06 21:30:31  5-MIN KMSN 100330Z 35005KT 2 1/2SM BR OVC024 03/02 A2931 1430 92 300 350/05 RMK AO2
14837KMSN MSN20060309213510203/09/06 21:35:31  5-MIN KMSN 100335Z 36006KT 2 1/2SM BR OVC024 03/02 A2931 1430 96 300 360/06 RMK AO2
14837KMSN MSN20060309214011903/09/06 21:40:31  5-MIN KMSN 100340Z 36005KT 2 1/2SM BR FEW012 OVC024 03/02 A2931 1430 96 300 360/05 RMK AO2 SFC VIS 3
14837KMSN MSN20060309214511903/09/06 21:45:31  5-MIN KMSN 100345Z 36005KT 2 1/2SM BR SCT012 OVC024 03/02 A2931 1430 96 300 360/05 RMK AO2 SFC VIS 3
14837KMSN MSN20060309215011903/09/06 21:50:31  5-MIN KMSN 100350Z 36005KT 2 1/2SM BR BKN010 OVC024 03/02 A2931 1430 96 300 360/05 RMK AO2 SFC VIS 3
14837KMSN MSN20060309215513103/09/06 21:55:31  5-MIN KMSN 100355Z 36006KT 2 1/2SM BR BKN010 OVC024 03/02 A2931 1430 92 300 360/06 RMK AO2 SFC VIS 3 CIG 008V012
14837KMSN MSN20060309220013103/09/06 22:00:31  5-MIN KMSN 100400Z 36007KT 2 1/2SM BR BKN010 OVC024 03/02 A2931 1430 92 300 360/07 RMK AO2 SFC VIS 3 CIG 008V012
14837KMSN MSN20060309220512403/09/06 22:05:31  5-MIN KMSN 100405Z 35006KT 2 1/2SM BR OVC010 03/02 A2931 1430 92 300 350/06 RMK AO2 SFC VIS 3 CIG 008V012
14837KMSN MSN20060309221012403/09/06 22:10:31  5-MIN KMSN 100410Z 35006KT 2 1/2SM BR OVC008 03/02 A2932 1430 92 300 350/06 RMK AO2 SFC VIS 3 CIG 007V011
14837KMSN MSN20060309221511203/09/06 22:15:31  5-MIN KMSN 100415Z 35007KT 2 1/2SM BR OVC008 03/02 A2932 1430 96 300 350/07 RMK AO2 SFC VIS 3
14837KMSN MSN20060309222011203/09/06 22:20:31  5-MIN KMSN 100420Z 35007KT 2 1/2SM BR OVC008 03/02 A2931 1430 96 300 350/07 RMK AO2 SFC VIS 3
14837KMSN MSN20060309222511203/09/06 22:25:31  5-MIN KMSN 100425Z 35008KT 2 1/2SM BR OVC008 03/02 A2932 1430 96 300 350/08 RMK AO2 SFC VIS 4
14837KMSN MSN20060309223011203/09/06 22:30:31  5-MIN KMSN 100430Z 35008KT 2 1/2SM BR OVC008 03/02 A2932 1430 92 400 350/08 RMK AO2 SFC VIS 3
14837KMSN MSN20060309223511203/09/06 22:35:31  5-MIN KMSN 100435Z 35007KT 2 1/2SM BR OVC008 03/02 A2932 1420 92 400 350/07 RMK AO2 SFC VIS 3
14837KMSN MSN20060309224011203/09/06 22:40:31  5-MIN KMSN 100440Z 35008KT 2 1/2SM BR OVC008 03/02 A2932 1420 92 400 340/08 RMK AO2 SFC VIS 3
14837KMSN MSN20060309224511203/09/06 22:45:31  5-MIN KMSN 100445Z 35010KT 2 1/2SM BR OVC008 03/02 A2932 1420 92 400 350/10 RMK AO2 SFC VIS 3
14837KMSN MSN20060309225012903/09/06 22:50:31  5-MIN KMSN 100450Z 36009KT 2 1/2SM BR OVC008 03/02 A2932 1420 92 400 350/09 RMK AO2 SFC VIS 3 SLP935 T00330022
14837KMSN MSN20060309225511203/09/06 22:55:31  5-MIN KMSN 100455Z 34009KT 2 1/2SM BR OVC008 03/02 A2932 1420 92 400 340/09 RMK AO2 SFC VIS 3
14837KMSN MSN20060309230011203/09/06 23:00:31  5-MIN KMSN 100500Z 35010KT 2 1/2SM BR OVC006 03/02 A2932 1420 92 400 350/10 RMK AO2 SFC VIS 3
14837KMSN MSN20060309230511203/09/06 23:05:31  5-MIN KMSN 100505Z 35009KT 2 1/2SM BR OVC006 03/02 A2932 1420 92 400 350/09 RMK AO2 SFC VIS 3
14837KMSN MSN20060309231010203/09/06 23:10:31  5-MIN KMSN 100510Z 34008KT 2 1/2SM BR OVC006 03/02 A2933 1420 92 400 340/08 RMK AO2
14837KMSN MSN20060309231510203/09/06 23:15:31  5-MIN KMSN 100515Z 34007KT 2 1/2SM BR OVC006 03/02 A2933 1420 92 400 340/07 RMK AO2
14837KMSN MSN20060309232009803/09/06 23:20:31  5-MIN KMSN 100520Z 34007KT 3SM BR OVC006 03/02 A2933 1420 92 400 340/07 RMK AO2
14837KMSN MSN20060309232509803/09/06 23:25:31  5-MIN KMSN 100525Z 34008KT 3SM BR OVC006 03/02 A2933 1410 92 400 340/08 RMK AO2
14837KMSN MSN20060309233009803/09/06 23:30:31  5-MIN KMSN 100530Z 34007KT 3SM BR OVC006 03/02 A2933 1420 92 400 340/07 RMK AO2
14837KMSN MSN20060309233509803/09/06 23:35:31  5-MIN KMSN 100535Z 34007KT 3SM BR OVC006 03/02 A2933 1410 96 300 340/07 RMK AO2
14837KMSN MSN20060309234009803/09/06 23:40:31  5-MIN KMSN 100540Z 34008KT 3SM BR OVC008 03/02 A2933 1410 96 300 340/08 RMK AO2
14837KMSN MSN20060309234511703/09/06 23:45:31  5-MIN KMSN 100545Z 33006KT 3SM BR BKN008 OVC015 03/02 A2933 1410 96 300 330/06 RMK AO2 CIG 006V010
14837KMSN MSN20060309235015603/09/06 23:50:31  5-MIN KMSN 100550Z 33007KT 3SM BR BKN008 OVC017 03/02 A2934 1410 96 300 330/07 RMK AO2 SLP940 60000 T00280022 10033 20022 400390017 55001
14837KMSN MSN20060309235510503/09/06 23:55:31  5-MIN KMSN 100555Z 33006KT 3SM BR SCT008 OVC017 03/02 A2934 1410 96 300 330/06 RMK AO2
14837KMSN MSN20060310000010503/10/06 00:00:38  5-MIN KMSN 100600Z 33006KT 3SM BR SCT008 OVC017 03/02 A2934 1400 92 400 330/06 RMK AO2
14837KMSN MSN20060310000510503/10/06 00:05:31  5-MIN KMSN 100605Z 33007KT 3SM BR BKN008 OVC017 03/02 A2934 1400 92 400 330/07 RMK AO2
14837KMSN MSN20060310001010503/10/06 00:10:31  5-MIN KMSN 100610Z 32007KT 3SM BR BKN008 OVC017 03/02 A2935 1400 92 400 320/07 RMK AO2
14837KMSN MSN20060310001510503/10/06 00:15:32  5-MIN KMSN 100615Z 33007KT 3SM BR BKN008 OVC017 03/02 A2935 1400 96 300 330/07 RMK AO2
14837KMSN MSN20060310002010503/10/06 00:20:31  5-MIN KMSN 100620Z 33006KT 3SM BR BKN008 OVC017 03/02 A2935 1390 96 300 320/06 RMK AO2
14837KMSN MSN20060310002510503/10/06 00:25:31  5-MIN KMSN 100625Z 32007KT 3SM BR BKN008 OVC017 03/02 A2936 1390 92 300 320/07 RMK AO2
14837KMSN MSN20060310003009803/10/06 00:30:31  5-MIN KMSN 100630Z 33008KT 3SM BR OVC008 03/02 A2936 1390 92 300 320/08 RMK AO2
14837KMSN MSN20060310003509803/10/06 00:35:31  5-MIN KMSN 100635Z 33007KT 3SM BR OVC008 03/02 A2936 1380 92 300 330/07 RMK AO2
14837KMSN MSN20060310004010503/10/06 00:40:31  5-MIN KMSN 100640Z 33005KT 3SM BR BKN008 OVC019 03/02 A2936 1380 92 300 330/05 RMK AO2
14837KMSN MSN20060310004510503/10/06 00:45:31  5-MIN KMSN 100645Z 33007KT 3SM BR BKN008 OVC019 03/02 A2937 1380 92 300 330/07 RMK AO2
14837KMSN MSN20060310005012203/10/06 00:50:31  5-MIN KMSN 100650Z 33006KT 3SM BR BKN008 OVC019 03/02 A2937 1380 92 300 330/06 RMK AO2 SLP952 T00280017
14837KMSN MSN20060310005510503/10/06 00:55:31  5-MIN KMSN 100655Z 34007KT 4SM BR BKN008 OVC019 03/02 A2937 1370 92 300 340/07 RMK AO2
14837KMSN MSN20060310010010503/10/06 01:00:31  5-MIN KMSN 100700Z 34007KT 4SM BR BKN008 OVC019 03/02 A2938 1370 92 300 340/07 RMK AO2
14837KMSN MSN20060310010510503/10/06 01:05:31  5-MIN KMSN 100705Z 33007KT 4SM BR BKN008 OVC019 03/02 A2938 1370 92 300 330/07 RMK AO2
14837KMSN MSN20060310011010503/10/06 01:10:31  5-MIN KMSN 100710Z 33008KT 4SM BR BKN008 OVC019 03/02 A2938 1360 92 300 330/08 RMK AO2
14837KMSN MSN20060310011510503/10/06 01:15:31  5-MIN KMSN 100715Z 33006KT 4SM BR BKN008 OVC019 03/02 A2939 1360 92 200 330/06 RMK AO2
14837KMSN MSN20060310012010503/10/06 01:20:31  5-MIN KMSN 100720Z 33006KT 4SM BR BKN008 OVC019 03/02 A2939 1360 92 200 330/06 RMK AO2
14837KMSN MSN20060310012509803/10/06 01:25:31  5-MIN KMSN 100725Z 32005KT 4SM BR OVC008 03/02 A2940 1350 92 200 320/05 RMK AO2
14837KMSN MSN20060310013009803/10/06 01:30:31  5-MIN KMSN 100730Z 32005KT 4SM BR OVC008 03/02 A2940 1350 92 200 320/05 RMK AO2
14837KMSN MSN20060310013509803/10/06 01:35:31  5-MIN KMSN 100735Z 31004KT 4SM BR OVC008 03/02 A2941 1340 92 200 310/04 RMK AO2
14837KMSN MSN20060310014009803/10/06 01:40:31  5-MIN KMSN 100740Z 31004KT 4SM BR OVC008 03/02 A2941 1340 92 200 310/04 RMK AO2
14837KMSN MSN20060310014510503/10/06 01:45:31  5-MIN KMSN 100745Z 31004KT 4SM BR BKN008 OVC017 03/02 A2942 1330 92 200 300/04 RMK AO2
14837KMSN MSN20060310015012203/10/06 01:50:31  5-MIN KMSN 100750Z 31006KT 4SM BR BKN008 OVC017 03/01 A2942 1330 89 200 310/06 RMK AO2 SLP968 T00280011
14837KMSN MSN20060310015510503/10/06 01:55:31  5-MIN KMSN 100755Z 31006KT 4SM BR BKN008 OVC017 03/01 A2942 1330 89 200 310/06 RMK AO2
14837KMSN MSN20060310020010503/10/06 02:00:31  5-MIN KMSN 100800Z 31005KT 4SM BR BKN008 OVC017 03/01 A2942 1330 89 200 310/05 RMK AO2
14837KMSN MSN20060310020510503/10/06 02:05:31  5-MIN KMSN 100805Z 31005KT 4SM BR SCT008 OVC017 03/01 A2943 1320 89 200 310/05 RMK AO2
14837KMSN MSN20060310021010503/10/06 02:10:31  5-MIN KMSN 100810Z 32005KT 4SM BR FEW008 OVC017 03/01 A2943 1320 89 200 320/05 RMK AO2
14837KMSN MSN20060310021510503/10/06 02:15:31  5-MIN KMSN 100815Z 32005KT 4SM BR FEW008 OVC017 03/01 A2943 1320 89 200 320/05 RMK AO2
14837KMSN MSN20060310022009803/10/06 02:20:31  5-MIN KMSN 100820Z 33003KT 4SM BR OVC017 02/01 A2943 1320 92 100 330/03 RMK AO2
14837KMSN MSN20060310022509803/10/06 02:25:31  5-MIN KMSN 100825Z 32003KT 4SM BR OVC017 02/01 A2943 1320 92 100 320/03 RMK AO2
14837KMSN MSN20060310023009803/10/06 02:30:31  5-MIN KMSN 100830Z 32003KT 4SM BR OVC017 02/01 A2943 1320 92 100 320/03 RMK AO2
14837KMSN MSN20060310023509803/10/06 02:35:31  5-MIN KMSN 100835Z 32004KT 4SM BR OVC017 02/01 A2943 1320 92 100 320/04 RMK AO2
14837KMSN MSN20060310024009803/10/06 02:40:31  5-MIN KMSN 100840Z 32005KT 4SM BR OVC017 02/01 A2944 1310 92 100 320/05 RMK AO2
14837KMSN MSN20060310024510503/10/06 02:45:31  5-MIN KMSN 100845Z 31004KT 4SM BR FEW008 OVC017 02/01 A2945 1310 92 100 310/04 RMK AO2
14837KMSN MSN20060310025012803/10/06 02:50:31  5-MIN KMSN 100850Z 31004KT 4SM BR FEW008 OVC017 02/01 A2945 1300 92 100 300/04 RMK AO2 SLP979 T00220011 53010
14837KMSN MSN20060310025510503/10/06 02:55:31  5-MIN KMSN 100855Z 31005KT 4SM BR SCT008 OVC015 02/01 A2945 1300 92 100 310/05 RMK AO2
14837KMSN MSN20060310030010503/10/06 03:00:31  5-MIN KMSN 100900Z 31004KT 4SM BR SCT008 OVC015 02/01 A2945 1300 92 100 310/04 RMK AO2
14837KMSN MSN20060310030510503/10/06 03:05:31  5-MIN KMSN 100905Z 31005KT 4SM BR BKN008 OVC015 02/01 A2946 1290 92 100 310/05 RMK AO2
14837KMSN MSN20060310031010503/10/06 03:10:31  5-MIN KMSN 100910Z 30005KT 4SM BR BKN008 OVC015 02/01 A2947 1290 92 100 300/05 RMK AO2
14837KMSN MSN20060310031510503/10/06 03:15:31  5-MIN KMSN 100915Z 30005KT 4SM BR BKN008 OVC015 02/01 A2947 1280 92 100 300/05 RMK AO2
14837KMSN MSN20060310032010503/10/06 03:20:31  5-MIN KMSN 100920Z 30005KT 4SM BR BKN008 OVC013 02/01 A2947 1280 92 100 300/05 RMK AO2
14837KMSN MSN20060310032510503/10/06 03:25:31  5-MIN KMSN 100925Z 30004KT 4SM BR BKN008 OVC013 02/01 A2947 1280 92 100 300/04 RMK AO2
14837KMSN MSN20060310033010503/10/06 03:30:31  5-MIN KMSN 100930Z 29003KT 4SM BR BKN008 OVC013 02/01 A2948 1280 92 100 290/03 RMK AO2
14837KMSN MSN20060310033510503/10/06 03:35:31  5-MIN KMSN 100935Z 30005KT 4SM BR BKN008 OVC013 02/01 A2948 1280 89 100 300/05 RMK AO2
14837KMSN MSN20060310034010503/10/06 03:40:31  5-MIN KMSN 100940Z 31004KT 4SM BR BKN008 OVC013 02/01 A2948 1270 89 100 310/04 RMK AO2
14837KMSN MSN20060310034509603/10/06 03:45:31  5-MIN KMSN 100945Z 31004KT 4SM BR SCT013 02/01 A2948 1270 92 0 310/04 RMK AO2
14837KMSN MSN20060310035012003/10/06 03:50:31  5-MIN KMSN 100950Z 31005KT 4SM BR FEW008 BKN013 02/01 A2949 1260 92 0 310/05 RMK AO2 SLP994 T00170006
14837KMSN MSN20060310035510303/10/06 03:55:31  5-MIN KMSN 100955Z VRB04KT 4SM BR SCT008 BKN013 02/01 A2949 1260 92 0 VRB/04 RMK AO2
14837KMSN MSN20060310040010303/10/06 04:00:31  5-MIN KMSN 101000Z VRB03KT 4SM BR SCT008 BKN013 02/01 A2950 1260 92 0 VRB/03 RMK AO2
14837KMSN MSN20060310040510303/10/06 04:05:31  5-MIN KMSN 101005Z 28004KT 4SM BR SCT008 BKN013 02/01 A2950 1260 92 0 280/04 RMK AO2
14837KMSN MSN20060310041010303/10/06 04:10:31  5-MIN KMSN 101010Z 28004KT 4SM BR SCT008 BKN013 02/01 A2950 1250 92 0 280/04 RMK AO2
14837KMSN MSN20060310041510303/10/06 04:15:31  5-MIN KMSN 101015Z 29004KT 4SM BR SCT008 BKN013 02/01 A2951 1250 92 0 290/04 RMK AO2
14837KMSN MSN20060310042010303/10/06 04:20:31  5-MIN KMSN 101020Z 29004KT 4SM BR SCT008 BKN013 02/01 A2951 1250 92 0 290/04 RMK AO2
14837KMSN MSN20060310042510303/10/06 04:25:31  5-MIN KMSN 101025Z VRB04KT 4SM BR SCT008 BKN013 02/01 A2952 1240 92 0 VRB/04 RMK AO2
14837KMSN MSN20060310043009603/10/06 04:30:31  5-MIN KMSN 101030Z 27003KT 4SM BR OVC006 02/01 A2952 1240 92 0 270/03 RMK AO2
14837KMSN MSN20060310043509603/10/06 04:35:31  5-MIN KMSN 101035Z 00000KT 4SM BR OVC006 02/01 A2952 1230 89 0 000/00 RMK AO2
14837KMSN MSN20060310044010303/10/06 04:40:31  5-MIN KMSN 101040Z 00000KT 4SM BR OVC006 02/01 A2953 1230 92 0 000/00 RMK AO2 PRESRR
14837KMSN MSN20060310044509603/10/06 04:45:31  5-MIN KMSN 101045Z 30003KT 4SM BR OVC006 02/01 A2953 1230 92 0 290/03 RMK AO2
14837KMSN MSN20060310045011303/10/06 04:50:31  5-MIN KMSN 101050Z 35004KT 4SM BR OVC006 02/01 A2953 1230 92 0 340/04 RMK AO2 SLP006 T00170006
14837KMSN MSN20060310045509603/10/06 04:55:31  5-MIN KMSN 101055Z 35003KT 4SM BR OVC006 02/01 A2953 1230 92 0 350/03 RMK AO2
14837KMSN MSN20060310050009603/10/06 05:00:31  5-MIN KMSN 101100Z 35003KT 4SM BR OVC006 02/01 A2953 1230 92 0 350/03 RMK AO2
14837KMSN MSN20060310050509603/10/06 05:05:31  5-MIN KMSN 101105Z 32003KT 4SM BR OVC006 02/01 A2954 1220 92 0 320/03 RMK AO2
14837KMSN MSN20060310051009603/10/06 05:10:31  5-MIN KMSN 101110Z 00000KT 4SM BR OVC006 02/01 A2954 1220 92 0 000/00 RMK AO2
14837KMSN MSN20060310051509603/10/06 05:15:31  5-MIN KMSN 101115Z 31003KT 4SM BR OVC006 02/01 A2955 1210 92 0 310/03 RMK AO2
14837KMSN MSN20060310052009603/10/06 05:20:31  5-MIN KMSN 101120Z 00000KT 4SM BR OVC006 02/01 A2955 1210 92 0 000/00 RMK AO2
14837KMSN MSN20060310052510303/10/06 05:25:31  5-MIN KMSN 101125Z 29003KT 4SM BR OVC006 02/01 A2956 1200 92 0 290/03 RMK AO2 PRESRR
14837KMSN MSN20060310053010303/10/06 05:30:31  5-MIN KMSN 101130Z 27003KT 4SM BR OVC006 02/01 A2956 1190 92 0 270/03 RMK AO2 PRESRR
14837KMSN MSN20060310053509903/10/06 05:35:31  5-MIN KMSN 101135Z VRB03KT 4SM BR OVC006 02/01 A2957 1190 92 -100 VRB/03 RMK AO2
14837KMSN MSN20060310054009903/10/06 05:40:31  5-MIN KMSN 101140Z 31003KT 4SM BR OVC006 02/01 A2957 1190 92 -100 310/03 RMK AO2
14837KMSN MSN20060310054509903/10/06 05:45:31  5-MIN KMSN 101145Z 29003KT 4SM BR OVC006 02/01 A2958 1180 92 -100 290/03 RMK AO2
14837KMSN MSN20060310055014003/10/06 05:50:31  5-MIN KMSN 101150Z 30003KT 4SM BR OVC006 02/01 A2958 1180 92 -100 300/03 RMK AO2 SLP026 70001 T00170006 10033 20017 51038
14837KMSN MSN20060310055509903/10/06 05:55:31  5-MIN KMSN 101155Z 29003KT 4SM BR OVC006 02/01 A2959 1170 92 -100 290/03 RMK AO2
14837KMSN MSN20060310060009903/10/06 06:00:31  5-MIN KMSN 101200Z 00000KT 4SM BR OVC006 02/01 A2959 1170 92 -100 000/00 RMK AO2
14837KMSN MSN20060310060509903/10/06 06:05:31  5-MIN KMSN 101205Z 00000KT 4SM BR OVC006 02/01 A2959 1170 96 -100 000/00 RMK AO2
14837KMSN MSN20060310061009903/10/06 06:10:31  5-MIN KMSN 101210Z 00000KT 4SM BR OVC006 02/01 A2960 1160 92 -100 000/00 RMK AO2
14837KMSN MSN20060310061510303/10/06 06:15:31  5-MIN KMSN 101215Z 32003KT 2 1/2SM BR OVC004 02/01 A2960 1160 92 -100 320/03 RMK AO2
14837KMSN MSN20060310062009903/10/06 06:20:31  5-MIN KMSN 101220Z 32003KT 2SM BR OVC004 02/01 A2961 1150 92 -100 320/03 RMK AO2
14837KMSN MSN20060310062509903/10/06 06:25:31  5-MIN KMSN 101225Z 31003KT 2SM BR OVC004 02/01 A2961 1150 92 -100 310/03 RMK AO2
14837KMSN MSN20060310063009903/10/06 06:30:31  5-MIN KMSN 101230Z 00000KT 2SM BR OVC004 02/01 A2962 1150 92 -100 000/00 RMK AO2
14837KMSN MSN20060310063509903/10/06 06:35:31  5-MIN KMSN 101235Z 32003KT 2SM BR OVC004 02/01 A2962 1140 92 -100 310/03 RMK AO2
14837KMSN MSN20060310064009903/10/06 06:40:31  5-MIN KMSN 101240Z 00000KT 2SM BR OVC004 02/01 A2963 1130 92 -100 000/00 RMK AO2
14837KMSN MSN20060310064510603/10/06 06:45:31  5-MIN KMSN 101245Z 00000KT 2SM BR OVC004 01/01 A2963 1130 96 -200 000/00 RMK AO2 PRESRR
14837KMSN MSN20060310065010903/10/06 06:50:31  5-MIN KMSN 101250Z 00000KT 1SM BR OVC004 02/01 A2963 1130 92 -100 000/00 RMK AO2 SFC VIS 2
14837KMSN MSN20060310065511303/10/06 06:55:31  5-MIN KMSN 101255Z 00000KT 1SM BR OVC002 02/01 A2963 1130 92 -100 000/00 RMK AO2 SFC VIS 1 1/4
14837KMSN MSN20060310070009903/10/06 07:00:31  5-MIN KMSN 101300Z 33003KT 1SM BR OVC002 02/01 A2964 1130 92 -100 330/03 RMK AO2
14837KMSN MSN20060310070509903/10/06 07:05:31  5-MIN KMSN 101305Z 28003KT 1SM BR OVC002 02/01 A2965 1120 92 -100 280/03 RMK AO2
14837KMSN MSN20060310071009903/10/06 07:10:31  5-MIN KMSN 101310Z 30005KT 1SM BR OVC002 01/01 A2965 1110 96 -200 300/05 RMK AO2
14837KMSN MSN20060310071511803/10/06 07:15:31  5-MIN KMSN 101315Z 27004KT 3/4SM BR OVC002 01/01 A2966 1100 96 -200 270/04 RMK AO2 TWR VIS 1 PRESRR
14837KMSN MSN20060310072011203/10/06 07:20:31  5-MIN KMSN 101320Z 25004KT 3/4SM BR OVC002 01/01 A2967 1100 100 -200 240/04 RMK AO2 TWR VIS 1
14837KMSN MSN20060310072511203/10/06 07:25:31  5-MIN KMSN 101325Z VRB03KT 1/2SM FG OVC002 01/01 A2967 1100 100 -200 VRB/03 RMK AO2 TWR VIS 1
14837KMSN MSN20060310073011903/10/06 07:30:31  5-MIN KMSN 101330Z 24003KT 1/2SM FG OVC002 01/01 A2968 1090 100 -200 240/03 RMK AO2 TWR VIS 1 PRESRR
14837KMSN MSN20060310073511903/10/06 07:35:31  5-MIN KMSN 101335Z 24004KT 1/2SM FG OVC002 01/01 A2969 1080 100 -300 230/04 RMK AO2 TWR VIS 1 PRESRR
14837KMSN MSN20060310074011103/10/06 07:40:31  5-MIN KMSN 101340Z 23005KT 3/4SM BR OVC002 01/01 A2969 1080 96 -300 230/05 RMK AO2 TWR VIS 1
14837KMSN MSN20060310074509903/10/06 07:45:31  5-MIN KMSN 101345Z 25004KT 1SM BR OVC002 01/01 A2969 1080 96 -300 250/04 RMK AO2
14837KMSN MSN20060310075012803/10/06 07:50:31  5-MIN KMSN 101350Z 26004KT 3/4SM BR OVC002 01/01 A2969 1070 96 -300 260/04 RMK AO2 TWR VIS 1 SLP063 T00110006
14837KMSN MSN20060310075511103/10/06 07:55:31  5-MIN KMSN 101355Z 25004KT 3/4SM BR OVC002 01/01 A2970 1070 96 -300 250/04 RMK AO2 TWR VIS 1
14837KMSN MSN20060310080011103/10/06 08:00:31  5-MIN KMSN 101400Z 24005KT 3/4SM BR OVC002 01/01 A2970 1070 96 -300 240/05 RMK AO2 TWR VIS 1
14837KMSN MSN20060310080511103/10/06 08:05:31  5-MIN KMSN 101405Z 22005KT 3/4SM BR OVC002 01/01 A2971 1060 96 -300 220/05 RMK AO2 TWR VIS 1
14837KMSN MSN20060310081010603/10/06 08:10:31  5-MIN KMSN 101410Z 24005KT 1SM BR OVC002 01/01 A2972 1050 96 -300 240/05 RMK AO2 PRESRR
14837KMSN MSN20060310081509903/10/06 08:15:31  5-MIN KMSN 101415Z 23005KT 1SM BR OVC002 01/01 A2972 1050 96 -300 220/05 RMK AO2
14837KMSN MSN20060310082009903/10/06 08:20:31  5-MIN KMSN 101420Z 23007KT 1SM BR OVC002 01/00 A2972 1050 96 -400 230/07 RMK AO2
14837KMSN MSN20060310082512003/10/06 08:25:31  5-MIN KMSN 101425Z 21004KT 1SM BR BKN002 OVC007 01/01 A2973 1040 96 -300 210/04 RMK AO2 SFC VIS 1 1/2
14837KMSN MSN20060310083012003/10/06 08:30:31  5-MIN KMSN 101430Z 21004KT 1SM BR BKN002 OVC008 02/01 A2973 1040 92 -200 210/04 RMK AO2 SFC VIS 2 1/2
14837KMSN MSN20060310083513503/10/06 08:35:31  5-MIN KMSN 101435Z 20006KT 1SM BR BKN002 BKN008 OVC020 02/01 A2973 1040 92 -200 200/06 RMK AO2 SFC VIS 2 CIG 002V006
14837KMSN MSN20060310084012703/10/06 08:40:31  5-MIN KMSN 101440Z VRB05KT 2SM BR SCT002 BKN008 OVC020 02/00 A2973 1040 89 -200 VRB/05 RMK AO2 TWR VIS 2 1/2
14837KMSN MSN20060310084512703/10/06 08:45:31  5-MIN KMSN 101445Z 20005KT 2SM BR SCT004 BKN008 OVC020 02/01 A2974 1030 92 -200 200/05 RMK AO2 TWR VIS 2 1/2
14837KMSN MSN20060310085015503/10/06 08:50:31  5-MIN KMSN 101450Z 18006KT 2SM BR BKN008 OVC020 02/01 A2973 1040 89 -200 180/06 RMK AO2 TWR VIS 2 1/2 CIG 003V009 SLP075 T00220006 53045
14837KMSN MSN20060310085511003/10/06 08:55:31  5-MIN KMSN 101455Z 00000KT 2 1/2SM BR BKN008 BKN020 02/00 A2973 1040 85 -200 000/00 RMK AO2
14837KMSN MSN20060310090011003/10/06 09:00:31  5-MIN KMSN 101500Z VRB03KT 2 1/2SM BR SCT008 BKN020 02/00 A2973 1040 85 -200 VRB/03 RMK AO2
14837KMSN MSN20060310090511003/10/06 09:05:31  5-MIN KMSN 101505Z 19004KT 2 1/2SM BR SCT008 SCT020 02/01 A2973 1040 89 -200 190/04 RMK AO2
14837KMSN MSN20060310091011003/10/06 09:10:31  5-MIN KMSN 101510Z 20006KT 2 1/2SM BR SCT008 BKN020 02/01 A2974 1030 89 -200 200/06 RMK AO2
14837KMSN MSN20060310091511003/10/06 09:15:31  5-MIN KMSN 101515Z VRB05KT 2 1/2SM BR SCT008 BKN018 03/01 A2974 1030 85 -100 VRB/05 RMK AO2
14837KMSN MSN20060310092010603/10/06 09:20:31  5-MIN KMSN 101520Z VRB03KT 3SM BR SCT010 BKN018 03/01 A2973 1040 89 -100 VRB/03 RMK AO2
14837KMSN MSN20060310092510303/10/06 09:25:31  5-MIN KMSN 101525Z 23004KT 4SM BR SCT010 BKN018 03/01 A2974 1030 85 0 230/04 RMK AO2
14837KMSN MSN20060310093010603/10/06 09:30:31  5-MIN KMSN 101530Z 28004KT 4SM BR FEW010 BKN018 03/01 A2974 1030 85 -100 280/04 RMK AO2
14837KMSN MSN20060310093510303/10/06 09:35:31  5-MIN KMSN 101535Z VRB03KT 4SM HZ FEW010 BKN018 03/01 A2974 1030 82 0 VRB/03 RMK AO2
14837KMSN MSN20060310094010303/10/06 09:40:31  5-MIN KMSN 101540Z 00000KT 4SM HZ FEW010 SCT018 03/01 A2974 1030 82 0 000/00 RMK AO2
14837KMSN MSN20060310094509603/10/06 09:45:31  5-MIN KMSN 101545Z 21003KT 5SM HZ FEW018 04/01 A2974 1030 79 0 210/03 RMK AO2
14837KMSN MSN20060310095011303/10/06 09:50:31  5-MIN KMSN 101550Z 22005KT 5SM HZ FEW018 04/01 A2974 1030 82 0 220/05 RMK AO2 SLP078 T00390011
14837KMSN MSN20060310095509603/10/06 09:55:31  5-MIN KMSN 101555Z VRB04KT 5SM HZ FEW018 04/01 A2974 1030 79 0 VRB/04 RMK AO2
14837KMSN MSN20060310100009303/10/06 10:00:31  5-MIN KMSN 101600Z 26006KT 5SM HZ CLR 04/01 A2975 1020 82 0 260/06 RMK AO2
14837KMSN MSN20060310100509603/10/06 10:05:31  5-MIN KMSN 101605Z 23005KT 5SM HZ FEW020 04/01 A2975 1020 79 0 230/05 RMK AO2
14837KMSN MSN20060310101009603/10/06 10:10:31  5-MIN KMSN 101610Z VRB05KT 5SM HZ FEW020 04/01 A2975 1020 79 0 VRB/05 RMK AO2
14837KMSN MSN20060310101509603/10/06 10:15:31  5-MIN KMSN 101615Z 22005KT 5SM HZ FEW020 04/01 A2975 1020 82 0 220/05 RMK AO2
14837KMSN MSN20060310102009603/10/06 10:20:31  5-MIN KMSN 101620Z VRB04KT 5SM HZ FEW020 04/01 A2976 1020 79 0 VRB/04 RMK AO2
14837KMSN MSN20060310102509603/10/06 10:25:31  5-MIN KMSN 101625Z VRB04KT 5SM HZ FEW020 04/01 A2976 1020 79 0 VRB/04 RMK AO2
14837KMSN MSN20060310103009603/10/06 10:30:31  5-MIN KMSN 101630Z VRB04KT 5SM HZ FEW020 04/01 A2976 1020 79 0 VRB/04 RMK AO2
14837KMSN MSN20060310103509603/10/06 10:35:31  5-MIN KMSN 101635Z VRB03KT 5SM HZ FEW020 04/01 A2976 1010 79 0 VRB/03 RMK AO2
14837KMSN MSN20060310104009803/10/06 10:40:31  5-MIN KMSN 101640Z 21004KT 5SM HZ FEW020 05/02 A2976 1010 79 100 200/04 RMK AO2
14837KMSN MSN20060310104509803/10/06 10:45:31  5-MIN KMSN 101645Z 19005KT 5SM HZ FEW020 05/01 A2977 1010 76 100 190/05 RMK AO2
14837KMSN MSN20060310105011503/10/06 10:50:31  5-MIN KMSN 101650Z 18005KT 5SM HZ FEW020 05/01 A2977 1000 76 100 180/05 RMK AO2 SLP088 T00500011
14837KMSN MSN20060310105509803/10/06 10:55:31  5-MIN KMSN 101655Z VRB03KT 5SM HZ FEW020 06/02 A2977 1000 76 100 VRB/03 RMK AO2
14837KMSN MSN20060310110009803/10/06 11:00:31  5-MIN KMSN 101700Z VRB04KT 5SM HZ FEW020 06/02 A2977 1000 76 100 VRB/04 RMK AO2
14837KMSN MSN20060310110509803/10/06 11:05:31  5-MIN KMSN 101705Z VRB04KT 5SM HZ FEW020 06/02 A2978 1000 76 100 VRB/04 RMK AO2
14837KMSN MSN20060310111009803/10/06 11:10:31  5-MIN KMSN 101710Z 19003KT 6SM HZ FEW020 06/02 A2978 1000 76 100 190/03 RMK AO2
14837KMSN MSN20060310111509803/10/06 11:15:31  5-MIN KMSN 101715Z 00000KT 6SM HZ FEW020 06/02 A2978 1000 76 100 000/00 RMK AO2
14837KMSN MSN20060310112009803/10/06 11:20:31  5-MIN KMSN 101720Z 00000KT 6SM HZ FEW020 06/02 A2978 1000 73 200 000/00 RMK AO2
14837KMSN MSN20060310112509703/10/06 11:25:31  5-MIN KMSN 101725Z 18005KT 6SM HZ FEW020 06/02 A2978 990 73 200 180/05 RMK AO2
14837KMSN MSN20060310113009703/10/06 11:30:31  5-MIN KMSN 101730Z 16005KT 6SM HZ FEW020 06/02 A2978 990 73 200 160/05 RMK AO2
14837KMSN MSN20060310113509703/10/06 11:35:31  5-MIN KMSN 101735Z 14005KT 6SM HZ FEW020 07/02 A2978 990 70 300 140/05 RMK AO2
14837KMSN MSN20060310114009703/10/06 11:40:31  5-MIN KMSN 101740Z 16004KT 6SM HZ FEW020 07/01 A2978 990 67 300 160/04 RMK AO2
14837KMSN MSN20060310114509403/10/06 11:45:31  5-MIN KMSN 101745Z VRB03KT 7SM FEW020 07/01 A2979 990 67 300 VRB/03 RMK AO2
14837KMSN MSN20060310115012903/10/06 11:50:31  5-MIN KMSN 101750Z VRB04KT 7SM FEW020 07/01 A2979 990 65 300 VRB/04 RMK AO2 SLP093 T00720011 10072 20006 51047
14837KMSN MSN20060310115509403/10/06 11:55:31  5-MIN KMSN 101755Z VRB05KT 7SM FEW024 07/02 A2979 990 68 300 VRB/05 RMK AO2
14837KMSN MSN20060310120009403/10/06 12:00:31  5-MIN KMSN 101800Z 26006KT 7SM FEW024 07/02 A2979 990 68 300 260/06 RMK AO2
14837KMSN MSN20060310120509403/10/06 12:05:31  5-MIN KMSN 101805Z 22007KT 7SM FEW024 07/02 A2979 980 68 300 220/07 RMK AO2
14837KMSN MSN20060310121009403/10/06 12:10:31  5-MIN KMSN 101810Z VRB05KT 8SM FEW024 08/01 A2980 980 62 400 VRB/05 RMK AO2
14837KMSN MSN20060310121509403/10/06 12:15:31  5-MIN KMSN 101815Z VRB06KT 8SM FEW024 08/02 A2980 980 65 400 VRB/06 RMK AO2
14837KMSN MSN20060310122009403/10/06 12:20:31  5-MIN KMSN 101820Z 24004KT 8SM FEW024 08/01 A2980 980 62 400 230/04 RMK AO2
14837KMSN MSN20060310122509403/10/06 12:25:31  5-MIN KMSN 101825Z VRB04KT 8SM FEW024 08/01 A2980 980 62 400 VRB/04 RMK AO2
14837KMSN MSN20060310123009403/10/06 12:30:31  5-MIN KMSN 101830Z VRB04KT 9SM FEW024 08/01 A2980 970 60 400 VRB/04 RMK AO2
14837KMSN MSN20060310123509403/10/06 12:35:31  5-MIN KMSN 101835Z 21005KT 9SM FEW024 08/01 A2980 970 60 400 210/05 RMK AO2
14837KMSN MSN20060310124009403/10/06 12:40:31  5-MIN KMSN 101840Z VRB04KT 9SM FEW024 08/01 A2980 980 58 400 VRB/04 RMK AO2
14837KMSN MSN20060310124509503/10/06 12:45:31  5-MIN KMSN 101845Z VRB05KT 10SM FEW024 09/01 A2980 980 56 500 VRB/05 RMK AO2
14837KMSN MSN20060310125010903/10/06 12:50:31  5-MIN KMSN 101850Z VRB04KT 10SM CLR 08/01 A2979 980 58 500 VRB/04 RMK AO2 SLP094 T00830006
14837KMSN MSN20060310125509103/10/06 12:55:31  5-MIN KMSN 101855Z 21006KT 9SM CLR 09/02 A2979 980 60 500 210/06 RMK AO2
14837KMSN MSN20060310130009203/10/06 13:00:31  5-MIN KMSN 101900Z 24005KT 10SM CLR 09/01 A2979 980 56 500 240/05 RMK AO2
14837KMSN MSN20060310130509203/10/06 13:05:31  5-MIN KMSN 101905Z VRB04KT 10SM CLR 09/01 A2979 990 56 500 VRB/04 RMK AO2
14837KMSN MSN20060310131009203/10/06 13:10:31  5-MIN KMSN 101910Z 23006KT 10SM CLR 09/00 A2979 990 53 500 230/06 RMK AO2
14837KMSN MSN20060310131509203/10/06 13:15:31  5-MIN KMSN 101915Z 27005KT 10SM CLR 09/00 A2979 990 53 500 270/05 RMK AO2
14837KMSN MSN20060310132009203/10/06 13:20:31  5-MIN KMSN 101920Z 23004KT 10SM CLR 09/00 A2979 990 53 500 230/04 RMK AO2
14837KMSN MSN20060310132509203/10/06 13:25:31  5-MIN KMSN 101925Z VRB05KT 10SM CLR 10/01 A2979 990 52 700 VRB/05 RMK AO2
14837KMSN MSN20060310133009203/10/06 13:30:31  5-MIN KMSN 101930Z 17007KT 10SM CLR 10/00 A2979 990 49 700 170/07 RMK AO2
14837KMSN MSN20060310133509203/10/06 13:35:31  5-MIN KMSN 101935Z 00000KT 10SM CLR 09/00 A2979 990 51 600 000/00 RMK AO2
14837KMSN MSN20060310134009203/10/06 13:40:31  5-MIN KMSN 101940Z 16005KT 10SM CLR 10/01 A2979 990 52 700 160/05 RMK AO2
14837KMSN MSN20060310134509203/10/06 13:45:31  5-MIN KMSN 101945Z 18004KT 10SM CLR 09/00 A2979 990 51 600 180/04 RMK AO2
14837KMSN MSN20060310135010803/10/06 13:50:31  5-MIN KMSN 101950Z 00000KT 9SM CLR 10/00 A2979 980 49 700 000/00 RMK AO2 SLP093 T01000000
14837KMSN MSN20060310135509203/10/06 13:55:31  5-MIN KMSN 101955Z 15007KT 10SM CLR 10/01 A2979 980 52 700 150/07 RMK AO2
14837KMSN MSN20060310140010803/10/06 14:00:31  5-MIN KMSN 102000Z 19007KT 160V230 10SM CLR 10/01 A2979 980 52 700 190/07 160V230 RMK AO2
14837KMSN MSN20060310140509203/10/06 14:05:31  5-MIN KMSN 102005Z 18008KT 10SM CLR 10/01 A2979 980 52 700 180/08 RMK AO2
14837KMSN MSN20060310141009203/10/06 14:10:31  5-MIN KMSN 102010Z 17007KT 10SM CLR 10/01 A2979 980 52 700 170/07 RMK AO2
14837KMSN MSN20060310141509203/10/06 14:15:31  5-MIN KMSN 102015Z 19007KT 10SM CLR 11/01 A2980 980 52 700 190/07 RMK AO2
14837KMSN MSN20060310142009203/10/06 14:20:31  5-MIN KMSN 102020Z 17005KT 10SM CLR 11/01 A2980 980 50 700 170/05 RMK AO2
14837KMSN MSN20060310142509203/10/06 14:25:31  5-MIN KMSN 102025Z 17009KT 10SM CLR 11/01 A2979 980 52 700 170/09 RMK AO2
14837KMSN MSN20060310143009203/10/06 14:30:31  5-MIN KMSN 102030Z 17006KT 10SM CLR 11/01 A2980 980 50 700 170/06 RMK AO2
14837KMSN MSN20060310143509203/10/06 14:35:31  5-MIN KMSN 102035Z 17005KT 10SM CLR 11/01 A2980 980 50 700 170/05 RMK AO2
14837KMSN MSN20060310144009203/10/06 14:40:31  5-MIN KMSN 102040Z 19006KT 10SM CLR 11/01 A2980 970 48 800 190/06 RMK AO2
14837KMSN MSN20060310144509203/10/06 14:45:31  5-MIN KMSN 102045Z 16006KT 10SM CLR 11/00 A2980 970 48 700 160/06 RMK AO2
14837KMSN MSN20060310145011503/10/06 14:50:31  5-MIN KMSN 102050Z 17007KT 10SM CLR 11/00 A2980 970 46 800 170/07 RMK AO2 SLP098 T01110000 53019
14837KMSN MSN20060310145509203/10/06 14:55:31  5-MIN KMSN 102055Z 16008KT 10SM CLR 11/00 A2980 970 46 800 160/08 RMK AO2
14837KMSN MSN20060310150009203/10/06 15:00:31  5-MIN KMSN 102100Z 16006KT 10SM CLR 11/00 A2981 970 46 800 160/06 RMK AO2
14837KMSN MSN20060310150509203/10/06 15:05:31  5-MIN KMSN 102105Z 16006KT 10SM CLR 11/00 A2981 970 46 800 150/06 RMK AO2
14837KMSN MSN20060310151009203/10/06 15:10:31  5-MIN KMSN 102110Z 16009KT 10SM CLR 11/00 A2980 970 46 800 160/09 RMK AO2
14837KMSN MSN20060310151509203/10/06 15:15:31  5-MIN KMSN 102115Z 18009KT 10SM CLR 11/00 A2981 970 46 800 180/09 RMK AO2
14837KMSN MSN20060310152009303/10/06 15:20:31  5-MIN KMSN 102120Z 18008KT 10SM CLR 11/M01 A2981 970 44 800 180/08 RMK AO2
14837KMSN MSN20060310152509303/10/06 15:25:31  5-MIN KMSN 102125Z 18008KT 10SM CLR 11/M01 A2981 970 44 800 170/08 RMK AO2
14837KMSN MSN20060310153009203/10/06 15:30:31  5-MIN KMSN 102130Z 16008KT 10SM CLR 11/00 A2981 970 46 800 160/08 RMK AO2
14837KMSN MSN20060310153509203/10/06 15:35:31  5-MIN KMSN 102135Z 17008KT 10SM CLR 11/00 A2981 960 46 800 170/08 RMK AO2
14837KMSN MSN20060310154009203/10/06 15:40:31  5-MIN KMSN 102140Z 19008KT 10SM CLR 11/00 A2981 960 46 800 190/08 RMK AO2
14837KMSN MSN20060310154509203/10/06 15:45:31  5-MIN KMSN 102145Z 16008KT 10SM CLR 11/00 A2981 960 46 800 150/08 RMK AO2
14837KMSN MSN20060310155010903/10/06 15:50:31  5-MIN KMSN 102150Z 17009KT 10SM CLR 11/00 A2981 960 46 800 170/09 RMK AO2 SLP101 T01110000
14837KMSN MSN20060310155509303/10/06 15:55:31  5-MIN KMSN 102155Z 16007KT 10SM CLR 11/M01 A2981 960 44 800 160/07 RMK AO2
14837KMSN MSN20060310160009303/10/06 16:00:31  5-MIN KMSN 102200Z 16008KT 10SM CLR 11/M01 A2982 960 44 800 160/08 RMK AO2
14837KMSN MSN20060310160509303/10/06 16:05:31  5-MIN KMSN 102205Z 17007KT 10SM CLR 11/M01 A2982 960 42 800 170/07 RMK AO2
14837KMSN MSN20060310161009303/10/06 16:10:31  5-MIN KMSN 102210Z 17007KT 10SM CLR 11/M01 A2982 960 44 800 160/07 RMK AO2
14837KMSN MSN20060310161509203/10/06 16:15:31  5-MIN KMSN 102215Z 17009KT 10SM CLR 11/00 A2982 960 46 800 170/09 RMK AO2
14837KMSN MSN20060310162009203/10/06 16:20:31  5-MIN KMSN 102220Z 17009KT 10SM CLR 11/00 A2982 960 46 800 170/09 RMK AO2
14837KMSN MSN20060310162509203/10/06 16:25:31  5-MIN KMSN 102225Z 17009KT 10SM CLR 11/00 A2982 960 48 700 170/09 RMK AO2
14837KMSN MSN20060310163009203/10/06 16:30:31  5-MIN KMSN 102230Z 17009KT 10SM CLR 11/01 A2982 960 48 800 170/09 RMK AO2
14837KMSN MSN20060310163509203/10/06 16:35:31  5-MIN KMSN 102235Z 16008KT 10SM CLR 11/00 A2982 960 46 800 160/08 RMK AO2
14837KMSN MSN20060310164009203/10/06 16:40:31  5-MIN KMSN 102240Z 19007KT 10SM CLR 11/00 A2982 960 46 800 190/07 RMK AO2
14837KMSN MSN20060310164509203/10/06 16:45:31  5-MIN KMSN 102245Z 18007KT 10SM CLR 11/00 A2982 960 48 700 180/07 RMK AO2
14837KMSN MSN20060310165010903/10/06 16:50:31  5-MIN KMSN 102250Z 17008KT 10SM CLR 11/00 A2982 960 48 700 170/08 RMK AO2 SLP104 T01060000
14837KMSN MSN20060310165509203/10/06 16:55:31  5-MIN KMSN 102255Z 16008KT 10SM CLR 11/00 A2982 960 48 700 160/08 RMK AO2
14837KMSN MSN20060310170009203/10/06 17:00:31  5-MIN KMSN 102300Z 17007KT 10SM CLR 10/00 A2983 950 49 600 170/07 RMK AO2
14837KMSN MSN20060310170509203/10/06 17:05:31  5-MIN KMSN 102305Z 16009KT 10SM CLR 10/01 A2983 950 52 600 160/09 RMK AO2
14837KMSN MSN20060310171009203/10/06 17:10:31  5-MIN KMSN 102310Z 15008KT 10SM CLR 10/01 A2983 950 52 600 150/08 RMK AO2
14837KMSN MSN20060310171509203/10/06 17:15:31  5-MIN KMSN 102315Z 16009KT 10SM CLR 09/01 A2983 950 56 500 160/09 RMK AO2
14837KMSN MSN20060310172009203/10/06 17:20:31  5-MIN KMSN 102320Z 15011KT 10SM CLR 09/01 A2984 940 56 500 150/11 RMK AO2
14837KMSN MSN20060310172509203/10/06 17:25:31  5-MIN KMSN 102325Z 15010KT 10SM CLR 09/01 A2984 940 56 500 150/10 RMK AO2
14837KMSN MSN20060310173009203/10/06 17:30:31  5-MIN KMSN 102330Z 15009KT 10SM CLR 09/01 A2984 940 53 500 150/09 RMK AO2
14837KMSN MSN20060310173509203/10/06 17:35:31  5-MIN KMSN 102335Z 15009KT 10SM CLR 09/01 A2984 940 56 500 150/09 RMK AO2
14837KMSN MSN20060310174009203/10/06 17:40:31  5-MIN KMSN 102340Z 16009KT 10SM CLR 09/01 A2985 930 56 500 160/09 RMK AO2
14837KMSN MSN20060310174509203/10/06 17:45:31  5-MIN KMSN 102345Z 16009KT 10SM CLR 08/01 A2985 930 58 400 160/09 RMK AO2
14837KMSN MSN20060310175012703/10/06 17:50:31  5-MIN KMSN 102350Z 16010KT 10SM CLR 08/00 A2985 930 55 400 160/10 RMK AO2 SLP115 T00830000 10111 20072 53004
14837KMSN MSN20060310175509203/10/06 17:55:31  5-MIN KMSN 102355Z 16008KT 10SM CLR 08/00 A2985 930 55 400 160/08 RMK AO2
14837KMSN MSN20060310180009203/10/06 18:00:31  5-MIN KMSN 110000Z 15008KT 10SM CLR 08/00 A2985 930 58 300 150/08 RMK AO2
14837KMSN MSN20060310180509203/10/06 18:05:31  5-MIN KMSN 110005Z 15008KT 10SM CLR 08/00 A2986 920 58 300 150/08 RMK AO2
14837KMSN MSN20060310181009203/10/06 18:10:31  5-MIN KMSN 110010Z 14006KT 10SM CLR 07/00 A2986 920 60 200 140/06 RMK AO2
14837KMSN MSN20060310181509203/10/06 18:15:31  5-MIN KMSN 110015Z 14007KT 10SM CLR 07/00 A2986 920 60 200 140/07 RMK AO2
14837KMSN MSN20060310182009203/10/06 18:20:31  5-MIN KMSN 110020Z 14006KT 10SM CLR 07/00 A2986 920 62 200 130/06 RMK AO2
14837KMSN MSN20060310182509303/10/06 18:25:31  5-MIN KMSN 110025Z 14006KT 10SM CLR 07/M01 A2987 910 60 200 140/06 RMK AO2
14837KMSN MSN20060310183009203/10/06 18:30:31  5-MIN KMSN 110030Z 15007KT 10SM CLR 07/00 A2987 910 62 200 150/07 RMK AO2
14837KMSN MSN20060310183509203/10/06 18:35:31  5-MIN KMSN 110035Z 15007KT 10SM CLR 07/00 A2987 910 62 200 150/07 RMK AO2
14837KMSN MSN20060310184009203/10/06 18:40:31  5-MIN KMSN 110040Z 15007KT 10SM CLR 07/00 A2987 910 62 200 150/07 RMK AO2
14837KMSN MSN20060310184509203/10/06 18:45:31  5-MIN KMSN 110045Z 15007KT 10SM CLR 07/00 A2987 910 62 200 150/07 RMK AO2
14837KMSN MSN20060310185010903/10/06 18:50:31  5-MIN KMSN 110050Z 15007KT 10SM CLR 07/00 A2987 910 62 200 150/07 RMK AO2 SLP122 T00670000
14837KMSN MSN20060310185509203/10/06 18:55:31  5-MIN KMSN 110055Z 14007KT 10SM CLR 07/00 A2987 910 62 200 140/07 RMK AO2
14837KMSN MSN20060310190009203/10/06 19:00:31  5-MIN KMSN 110100Z 14007KT 10SM CLR 07/00 A2987 910 62 200 140/07 RMK AO2
14837KMSN MSN20060310190509203/10/06 19:05:31  5-MIN KMSN 110105Z 13008KT 10SM CLR 07/00 A2987 910 62 200 130/08 RMK AO2
14837KMSN MSN20060310191009203/10/06 19:10:31  5-MIN KMSN 110110Z 14007KT 10SM CLR 06/00 A2987 910 65 100 140/07 RMK AO2
14837KMSN MSN20060310191509203/10/06 19:15:31  5-MIN KMSN 110115Z 14007KT 10SM CLR 07/01 A2987 910 65 200 140/07 RMK AO2
14837KMSN MSN20060310192009203/10/06 19:20:31  5-MIN KMSN 110120Z 14006KT 10SM CLR 07/01 A2987 910 65 200 140/06 RMK AO2
14837KMSN MSN20060310192509203/10/06 19:25:31  5-MIN KMSN 110125Z 13006KT 10SM CLR 06/00 A2987 910 65 100 130/06 RMK AO2
14837KMSN MSN20060310193009203/10/06 19:30:31  5-MIN KMSN 110130Z 13007KT 10SM CLR 07/00 A2988 900 62 200 130/07 RMK AO2
14837KMSN MSN20060310193509203/10/06 19:35:31  5-MIN KMSN 110135Z 13006KT 10SM CLR 06/00 A2988 900 65 100 130/06 RMK AO2
14837KMSN MSN20060310194009003/10/06 19:40:31  5-MIN KMSN 110140Z 12006KT 10SM CLR 06/00 A2988 900 67 0 120/06 RMK AO2
14837KMSN MSN20060310194509003/10/06 19:45:31  5-MIN KMSN 110145Z 13007KT 10SM CLR 05/00 A2988 900 70 0 130/07 RMK AO2
14837KMSN MSN20060310195010703/10/06 19:50:31  5-MIN KMSN 110150Z 14006KT 10SM CLR 05/00 A2988 900 70 0 140/06 RMK AO2 SLP127 T00500000
14837KMSN MSN20060310195509003/10/06 19:55:31  5-MIN KMSN 110155Z 15007KT 10SM CLR 06/00 A2989 900 67 0 150/07 RMK AO2
14837KMSN MSN20060310200009003/10/06 20:00:31  5-MIN KMSN 110200Z 14007KT 10SM CLR 06/01 A2989 890 70 0 140/07 RMK AO2
14837KMSN MSN20060310200509003/10/06 20:05:31  5-MIN KMSN 110205Z 13008KT 10SM CLR 06/01 A2989 890 70 0 130/08 RMK AO2
14837KMSN MSN20060310201009003/10/06 20:10:31  5-MIN KMSN 110210Z 13007KT 10SM CLR 06/01 A2989 890 70 0 130/07 RMK AO2
14837KMSN MSN20060310201508903/10/06 20:15:31  5-MIN KMSN 110215Z 14006KT 9SM CLR 06/01 A2990 890 70 0 140/06 RMK AO2
14837KMSN MSN20060310202008903/10/06 20:20:31  5-MIN KMSN 110220Z 14006KT 9SM CLR 06/01 A2990 880 70 0 140/06 RMK AO2
14837KMSN MSN20060310202508903/10/06 20:25:31  5-MIN KMSN 110225Z 15007KT 9SM CLR 05/01 A2990 880 73 0 140/07 RMK AO2
14837KMSN MSN20060310203008903/10/06 20:30:31  5-MIN KMSN 110230Z 15007KT 9SM CLR 05/01 A2991 880 73 0 140/07 RMK AO2
14837KMSN MSN20060310203508903/10/06 20:35:31  5-MIN KMSN 110235Z 15006KT 9SM CLR 06/01 A2991 880 73 0 150/06 RMK AO2
14837KMSN MSN20060310204008903/10/06 20:40:31  5-MIN KMSN 110240Z 14006KT 9SM CLR 06/01 A2991 880 73 0 140/06 RMK AO2
14837KMSN MSN20060310204508903/10/06 20:45:31  5-MIN KMSN 110245Z 13006KT 9SM CLR 05/01 A2990 880 76 0 130/06 RMK AO2
14837KMSN MSN20060310205011603/10/06 20:50:31  5-MIN KMSN 110250Z 14008KT 10SM CLR 04/01 A2991 880 76 -100 140/08 RMK AO2 SLP135 T00440006 53017
14837KMSN MSN20060310205508903/10/06 20:55:31  5-MIN KMSN 110255Z 15008KT 8SM CLR 06/01 A2991 870 73 0 150/08 RMK AO2
14837KMSN MSN20060310210008903/10/06 21:00:31  5-MIN KMSN 110300Z 16008KT 8SM CLR 06/02 A2991 870 76 0 160/08 RMK AO2
14837KMSN MSN20060310210508903/10/06 21:05:31  5-MIN KMSN 110305Z 16008KT 8SM CLR 06/02 A2991 870 73 0 160/08 RMK AO2
14837KMSN MSN20060310211008903/10/06 21:10:31  5-MIN KMSN 110310Z 16008KT 8SM CLR 06/02 A2991 870 76 0 160/08 RMK AO2
14837KMSN MSN20060310211508903/10/06 21:15:31  5-MIN KMSN 110315Z 16007KT 8SM CLR 06/02 A2991 870 76 0 160/07 RMK AO2
14837KMSN MSN20060310212008903/10/06 21:20:31  5-MIN KMSN 110320Z 16008KT 8SM CLR 06/01 A2992 870 73 0 160/08 RMK AO2
14837KMSN MSN20060310212508903/10/06 21:25:31  5-MIN KMSN 110325Z 16007KT 8SM CLR 06/02 A2992 860 76 0 160/07 RMK AO2
14837KMSN MSN20060310213008903/10/06 21:30:31  5-MIN KMSN 110330Z 16008KT 8SM CLR 06/02 A2993 860 76 0 160/08 RMK AO2
14837KMSN MSN20060310213509203/10/06 21:35:31  5-MIN KMSN 110335Z 16008KT 8SM FEW120 06/02 A2993 860 76 0 160/08 RMK AO2
14837KMSN MSN20060310214009203/10/06 21:40:31  5-MIN KMSN 110340Z 16008KT 8SM FEW120 06/02 A2993 860 76 0 160/08 RMK AO2
14837KMSN MSN20060310214509503/10/06 21:45:31  5-MIN KMSN 110345Z 16007KT 8SM SCT120 05/01 A2993 860 76 -100 160/07 RMK AO2
14837KMSN MSN20060310215011203/10/06 21:50:31  5-MIN KMSN 110350Z 16007KT 8SM SCT120 05/01 A2993 860 76 -100 160/07 RMK AO2 SLP141 T00500011
14837KMSN MSN20060310215509503/10/06 21:55:31  5-MIN KMSN 110355Z 16007KT 8SM SCT120 05/01 A2993 860 76 -100 160/07 RMK AO2
14837KMSN MSN20060310220009503/10/06 22:00:31  5-MIN KMSN 110400Z 17006KT 8SM BKN120 05/01 A2993 860 76 -100 170/06 RMK AO2
14837KMSN MSN20060310220509203/10/06 22:05:31  5-MIN KMSN 110405Z 17006KT 8SM BKN120 06/02 A2993 850 76 0 170/06 RMK AO2
14837KMSN MSN20060310221009203/10/06 22:10:31  5-MIN KMSN 110410Z 17006KT 8SM BKN120 06/02 A2993 850 76 0 170/06 RMK AO2
14837KMSN MSN20060310221509203/10/06 22:15:31  5-MIN KMSN 110415Z 16007KT 8SM BKN120 06/02 A2993 860 76 0 160/07 RMK AO2
14837KMSN MSN20060310222009203/10/06 22:20:31  5-MIN KMSN 110420Z 15007KT 8SM SCT120 06/01 A2993 860 73 0 150/07 RMK AO2
14837KMSN MSN20060310222509203/10/06 22:25:31  5-MIN KMSN 110425Z 15008KT 8SM CLR 05/01 A2993 860 76 -100 150/08 RMK AO2
14837KMSN MSN20060310223009203/10/06 22:30:31  5-MIN KMSN 110430Z 15008KT 8SM CLR 05/01 A2993 860 76 -100 150/08 RMK AO2
14837KMSN MSN20060310223509203/10/06 22:35:31  5-MIN KMSN 110435Z 15009KT 8SM FEW120 06/01 A2993 860 73 0 150/09 RMK AO2
14837KMSN MSN20060310224008903/10/06 22:40:31  5-MIN KMSN 110440Z 15008KT 8SM CLR 06/01 A2993 860 73 0 150/08 RMK AO2
14837KMSN MSN20060310224508903/10/06 22:45:31  5-MIN KMSN 110445Z 14009KT 8SM CLR 06/01 A2993 860 73 0 140/09 RMK AO2
14837KMSN MSN20060310225010603/10/06 22:50:31  5-MIN KMSN 110450Z 15008KT 9SM CLR 06/01 A2993 860 70 0 140/08 RMK AO2 SLP140 T00610011
14837KMSN MSN20060310225508903/10/06 22:55:31  5-MIN KMSN 110455Z 15007KT 9SM CLR 06/01 A2993 860 73 0 150/07 RMK AO2
14837KMSN MSN20060310230008903/10/06 23:00:31  5-MIN KMSN 110500Z 16006KT 8SM CLR 06/01 A2993 860 73 0 150/06 RMK AO2
14837KMSN MSN20060310230508903/10/06 23:05:31  5-MIN KMSN 110505Z 16009KT 8SM CLR 06/01 A2993 850 73 0 160/09 RMK AO2
14837KMSN MSN20060310231008903/10/06 23:10:31  5-MIN KMSN 110510Z 16010KT 8SM CLR 06/01 A2993 850 73 0 160/10 RMK AO2
14837KMSN MSN20060310231508903/10/06 23:15:31  5-MIN KMSN 110515Z 16011KT 9SM CLR 06/01 A2993 850 70 0 160/11 RMK AO2
14837KMSN MSN20060310232008903/10/06 23:20:31  5-MIN KMSN 110520Z 16011KT 9SM CLR 06/01 A2993 860 73 0 160/11 RMK AO2
14837KMSN MSN20060310232508903/10/06 23:25:31  5-MIN KMSN 110525Z 15011KT 9SM CLR 06/01 A2993 860 73 0 150/11 RMK AO2
14837KMSN MSN20060310233008903/10/06 23:30:31  5-MIN KMSN 110530Z 16011KT 8SM CLR 06/01 A2993 850 73 0 160/11 RMK AO2
14837KMSN MSN20060310233508903/10/06 23:35:31  5-MIN KMSN 110535Z 15010KT 8SM CLR 06/01 A2993 860 73 0 150/10 RMK AO2
14837KMSN MSN20060310234008903/10/06 23:40:31  5-MIN KMSN 110540Z 15010KT 8SM CLR 06/02 A2993 860 76 0 150/10 RMK AO2
14837KMSN MSN20060310234508903/10/06 23:45:31  5-MIN KMSN 110545Z 15009KT 8SM CLR 06/02 A2993 850 76 0 150/09 RMK AO2
14837KMSN MSN20060310235013403/10/06 23:50:31  5-MIN KMSN 110550Z 15009KT 8SM CLR 06/02 A2993 860 76 0 150/09 RMK AO2 SLP141 T00560017 10083 20044 401110006 53019
14837KMSN MSN20060310235508903/10/06 23:55:31  5-MIN KMSN 110555Z 15009KT 8SM CLR 06/02 A2993 850 76 0 150/09 RMK AO2
14837KMSN MSN20060311000008903/11/06 00:00:38  5-MIN KMSN 110600Z 15010KT 8SM CLR 06/02 A2993 860 76 0 150/10 RMK AO2
14837KMSN MSN20060311000508903/11/06 00:05:31  5-MIN KMSN 110605Z 15009KT 8SM CLR 06/02 A2993 860 76 0 150/09 RMK AO2
14837KMSN MSN20060311001008903/11/06 00:10:31  5-MIN KMSN 110610Z 15009KT 8SM CLR 06/02 A2993 860 76 0 150/09 RMK AO2
14837KMSN MSN20060311001509203/11/06 00:15:32  5-MIN KMSN 110615Z 15008KT 8SM CLR 05/02 A2993 860 79 -100 150/08 RMK AO2
14837KMSN MSN20060311002009203/11/06 00:20:31  5-MIN KMSN 110620Z 16008KT 7SM CLR 05/02 A2993 850 79 -100 160/08 RMK AO2
14837KMSN MSN20060311002509203/11/06 00:25:31  5-MIN KMSN 110625Z 16008KT 7SM CLR 05/02 A2993 850 79 -100 160/08 RMK AO2
14837KMSN MSN20060311003009203/11/06 00:30:31  5-MIN KMSN 110630Z 15008KT 7SM CLR 05/02 A2994 850 79 -100 150/08 RMK AO2
14837KMSN MSN20060311003509203/11/06 00:35:31  5-MIN KMSN 110635Z 15009KT 7SM CLR 05/02 A2994 850 79 -100 150/09 RMK AO2
14837KMSN MSN20060311004008903/11/06 00:40:31  5-MIN KMSN 110640Z 15008KT 7SM CLR 06/02 A2994 850 79 0 150/08 RMK AO2
14837KMSN MSN20060311004508903/11/06 00:45:31  5-MIN KMSN 110645Z 15008KT 7SM CLR 06/02 A2993 850 79 0 140/08 RMK AO2
14837KMSN MSN20060311005010903/11/06 00:50:31  5-MIN KMSN 110650Z 14007KT 7SM FEW120 06/02 A2993 850 79 0 140/07 RMK AO2 SLP141 T00560022
14837KMSN MSN20060311005509203/11/06 00:55:31  5-MIN KMSN 110655Z 14008KT 7SM FEW120 06/02 A2993 850 79 0 140/08 RMK AO2
14837KMSN MSN20060311010009803/11/06 01:00:31  5-MIN KMSN 110700Z 14008KT 6SM HZ FEW120 05/02 A2993 850 82 -100 140/08 RMK AO2
14837KMSN MSN20060311010509503/11/06 01:05:31  5-MIN KMSN 110705Z 15008KT 6SM HZ CLR 05/02 A2993 850 82 -100 150/08 RMK AO2
14837KMSN MSN20060311011009503/11/06 01:10:31  5-MIN KMSN 110710Z 15008KT 6SM HZ FEW120 06/02 A2993 850 79 0 150/08 RMK AO2
14837KMSN MSN20060311011509503/11/06 01:15:31  5-MIN KMSN 110715Z 14006KT 6SM HZ FEW120 06/02 A2993 850 79 0 140/06 RMK AO2
14837KMSN MSN20060311012009803/11/06 01:20:31  5-MIN KMSN 110720Z 14005KT 6SM HZ FEW120 05/02 A2993 850 82 -100 130/05 RMK AO2
14837KMSN MSN20060311012509803/11/06 01:25:31  5-MIN KMSN 110725Z 14005KT 6SM HZ FEW120 05/02 A2993 850 82 -100 140/05 RMK AO2
14837KMSN MSN20060311013009803/11/06 01:30:31  5-MIN KMSN 110730Z 14006KT 6SM HZ FEW120 05/02 A2993 860 82 -100 140/06 RMK AO2
14837KMSN MSN20060311013509803/11/06 01:35:31  5-MIN KMSN 110735Z 13005KT 6SM BR FEW120 04/02 A2993 860 85 -100 130/05 RMK AO2
14837KMSN MSN20060311014009803/11/06 01:40:31  5-MIN KMSN 110740Z 14005KT 6SM BR FEW120 04/02 A2993 860 85 -100 140/05 RMK AO2
14837KMSN MSN20060311014509803/11/06 01:45:31  5-MIN KMSN 110745Z 15006KT 5SM BR FEW120 05/03 A2993 860 85 -100 150/06 RMK AO2
14837KMSN MSN20060311015011503/11/06 01:50:31  5-MIN KMSN 110750Z 15007KT 6SM BR FEW120 05/03 A2992 860 85 -100 150/07 RMK AO2 SLP138 T00500028
14837KMSN MSN20060311015509203/11/06 01:55:31  5-MIN KMSN 110755Z 16008KT 6SM HZ CLR 06/03 A2993 860 82 0 160/08 RMK AO2
14837KMSN MSN20060311020009203/11/06 02:00:31  5-MIN KMSN 110800Z 15009KT 6SM HZ CLR 06/03 A2992 860 82 0 150/09 RMK AO2
14837KMSN MSN20060311020509503/11/06 02:05:31  5-MIN KMSN 110805Z 16010KT 6SM BR FEW120 06/03 A2992 860 85 0 150/10 RMK AO2
14837KMSN MSN20060311021009503/11/06 02:10:31  5-MIN KMSN 110810Z 15010KT 6SM BR SCT120 06/03 A2992 870 85 0 150/10 RMK AO2
14837KMSN MSN20060311021509703/11/06 02:15:31  5-MIN KMSN 110815Z 15010KT 6SM HZ SCT120 06/03 A2991 870 82 100 150/10 RMK AO2
14837KMSN MSN20060311022009703/11/06 02:20:31  5-MIN KMSN 110820Z 14008KT 6SM HZ SCT120 06/03 A2991 870 82 100 140/08 RMK AO2
14837KMSN MSN20060311022509703/11/06 02:25:31  5-MIN KMSN 110825Z 13008KT 6SM HZ SCT120 06/03 A2990 880 82 100 130/08 RMK AO2
14837KMSN MSN20060311023009503/11/06 02:30:31  5-MIN KMSN 110830Z 12006KT 6SM HZ SCT120 06/03 A2991 880 82 0 120/06 RMK AO2
14837KMSN MSN20060311023509503/11/06 02:35:31  5-MIN KMSN 110835Z 12007KT 5SM BR SCT120 05/03 A2991 870 85 0 120/07 RMK AO2
14837KMSN MSN20060311024009503/11/06 02:40:31  5-MIN KMSN 110840Z 13007KT 5SM BR FEW120 05/03 A2991 880 85 0 120/07 RMK AO2
14837KMSN MSN20060311024509803/11/06 02:45:31  5-MIN KMSN 110845Z 13007KT 5SM BR FEW120 04/03 A2990 880 89 -100 120/07 RMK AO2
14837KMSN MSN20060311025012103/11/06 02:50:31  5-MIN KMSN 110850Z 13007KT 6SM BR SCT120 04/02 A2990 880 85 -100 130/07 RMK AO2 SLP129 T00440022 51008
14837KMSN MSN20060311025509803/11/06 02:55:31  5-MIN KMSN 110855Z 13008KT 5SM BR FEW120 04/02 A2990 880 85 -100 130/08 RMK AO2
14837KMSN MSN20060311030009503/11/06 03:00:31  5-MIN KMSN 110900Z 14007KT 5SM BR CLR 04/02 A2990 880 85 -100 140/07 RMK AO2
14837KMSN MSN20060311030509503/11/06 03:05:31  5-MIN KMSN 110905Z 14008KT 5SM BR CLR 04/02 A2989 890 85 -100 130/08 RMK AO2
14837KMSN MSN20060311031009503/11/06 03:10:31  5-MIN KMSN 110910Z 14008KT 5SM BR CLR 04/03 A2989 890 89 -100 140/08 RMK AO2
14837KMSN MSN20060311031509503/11/06 03:15:31  5-MIN KMSN 110915Z 14007KT 5SM BR CLR 04/03 A2989 890 89 -100 140/07 RMK AO2
14837KMSN MSN20060311032009503/11/06 03:20:31  5-MIN KMSN 110920Z 14007KT 5SM BR CLR 04/03 A2989 890 89 -100 140/07 RMK AO2
14837KMSN MSN20060311032509503/11/06 03:25:31  5-MIN KMSN 110925Z 13007KT 4SM BR CLR 04/02 A2989 890 85 -100 130/07 RMK AO2
14837KMSN MSN20060311033009503/11/06 03:30:31  5-MIN KMSN 110930Z 13005KT 4SM BR CLR 04/02 A2989 890 85 -100 130/05 RMK AO2
14837KMSN MSN20060311033509503/11/06 03:35:31  5-MIN KMSN 110935Z 14006KT 4SM BR CLR 04/02 A2990 890 85 -100 140/06 RMK AO2
14837KMSN MSN20060311034009503/11/06 03:40:31  5-MIN KMSN 110940Z 14006KT 4SM BR CLR 04/02 A2990 890 85 -100 140/06 RMK AO2
14837KMSN MSN20060311034509503/11/06 03:45:31  5-MIN KMSN 110945Z 13006KT 4SM BR CLR 04/02 A2989 890 85 -100 130/06 RMK AO2
14837KMSN MSN20060311035011203/11/06 03:50:31  5-MIN KMSN 110950Z 13007KT 5SM BR CLR 04/02 A2989 890 85 -100 130/07 RMK AO2 SLP126 T00440022
14837KMSN MSN20060311035509503/11/06 03:55:31  5-MIN KMSN 110955Z 11006KT 4SM BR CLR 04/02 A2988 900 89 -100 110/06 RMK AO2
14837KMSN MSN20060311040009503/11/06 04:00:31  5-MIN KMSN 111000Z 13005KT 4SM BR CLR 04/02 A2988 900 89 -100 130/05 RMK AO2
14837KMSN MSN20060311040509803/11/06 04:05:31  5-MIN KMSN 111005Z 13006KT 4SM BR FEW100 04/03 A2989 890 89 -100 130/06 RMK AO2
14837KMSN MSN20060311041009803/11/06 04:10:31  5-MIN KMSN 111010Z 13007KT 4SM BR FEW100 04/03 A2989 900 89 -100 130/07 RMK AO2
14837KMSN MSN20060311041509503/11/06 04:15:31  5-MIN KMSN 111015Z 12007KT 4SM BR SCT100 05/03 A2988 900 85 0 120/07 RMK AO2
14837KMSN MSN20060311042009803/11/06 04:20:31  5-MIN KMSN 111020Z 12006KT 4SM BR SCT100 04/03 A2988 900 89 -100 120/06 RMK AO2
14837KMSN MSN20060311042509803/11/06 04:25:31  5-MIN KMSN 111025Z 00000KT 4SM BR SCT100 04/03 A2989 890 89 -100 000/00 RMK AO2
14837KMSN MSN20060311043009503/11/06 04:30:31  5-MIN KMSN 111030Z 00000KT 4SM BR SCT100 05/03 A2989 890 85 0 000/00 RMK AO2
14837KMSN MSN20060311043509503/11/06 04:35:31  5-MIN KMSN 111035Z 13004KT 4SM BR SCT110 05/03 A2988 900 85 0 130/04 RMK AO2
14837KMSN MSN20060311044009503/11/06 04:40:31  5-MIN KMSN 111040Z 11005KT 4SM BR BKN120 05/03 A2988 900 85 0 110/05 RMK AO2
14837KMSN MSN20060311044509503/11/06 04:45:31  5-MIN KMSN 111045Z 11007KT 5SM BR BKN120 05/03 A2988 910 85 0 110/07 RMK AO2
14837KMSN MSN20060311045011503/11/06 04:50:31  5-MIN KMSN 111050Z 10008KT 5SM BR BKN120 04/03 A2987 910 89 -100 100/08 RMK AO2 SLP120 T00440028
14837KMSN MSN20060311045509803/11/06 04:55:31  5-MIN KMSN 111055Z 11007KT 4SM BR SCT120 04/03 A2987 910 89 -100 110/07 RMK AO2
14837KMSN MSN20060311050009503/11/06 05:00:31  5-MIN KMSN 111100Z 12008KT 4SM BR SCT120 05/03 A2987 910 85 0 120/08 RMK AO2
14837KMSN MSN20060311050509503/11/06 05:05:31  5-MIN KMSN 111105Z 13007KT 4SM BR SCT120 05/03 A2986 920 85 0 130/07 RMK AO2
14837KMSN MSN20060311051009503/11/06 05:10:31  5-MIN KMSN 111110Z 12008KT 4SM BR SCT120 05/03 A2986 920 89 0 120/08 RMK AO2
14837KMSN MSN20060311051509503/11/06 05:15:31  5-MIN KMSN 111115Z 13007KT 4SM BR SCT120 05/03 A2987 920 89 0 130/07 RMK AO2
14837KMSN MSN20060311052009503/11/06 05:20:31  5-MIN KMSN 111120Z 13007KT 5SM BR SCT120 06/03 A2986 920 85 0 130/07 RMK AO2
14837KMSN MSN20060311052509503/11/06 05:25:31  5-MIN KMSN 111125Z 10007KT 4SM BR SCT120 05/03 A2986 920 85 0 100/07 RMK AO2
14837KMSN MSN20060311053009503/11/06 05:30:31  5-MIN KMSN 111130Z 10006KT 4SM BR SCT120 05/03 A2986 920 85 0 100/06 RMK AO2
14837KMSN MSN20060311053509503/11/06 05:35:31  5-MIN KMSN 111135Z 10005KT 4SM BR SCT120 05/03 A2985 930 85 0 100/05 RMK AO2
14837KMSN MSN20060311054009503/11/06 05:40:31  5-MIN KMSN 111140Z 10006KT 4SM BR FEW120 05/03 A2984 940 85 0 100/06 RMK AO2
14837KMSN MSN20060311054509503/11/06 05:45:31  5-MIN KMSN 111145Z 11005KT 4SM BR FEW120 04/03 A2984 940 89 0 110/05 RMK AO2
14837KMSN MSN20060311055013003/11/06 05:50:31  5-MIN KMSN 111150Z 12005KT 4SM BR SCT120 05/03 A2984 940 85 0 120/05 RMK AO2 SLP111 T00500028 10061 20039 58012
14837KMSN MSN20060311055509503/11/06 05:55:31  5-MIN KMSN 111155Z 12006KT 4SM BR FEW120 05/03 A2984 940 85 0 120/06 RMK AO2
14837KMSN MSN20060311060009503/11/06 06:00:31  5-MIN KMSN 111200Z 13008KT 4SM BR FEW120 05/03 A2984 940 89 0 130/08 RMK AO2
14837KMSN MSN20060311060509703/11/06 06:05:31  5-MIN KMSN 111205Z 13009KT 4SM BR FEW120 06/03 A2984 940 85 100 130/09 RMK AO2
14837KMSN MSN20060311061009703/11/06 06:10:31  5-MIN KMSN 111210Z 13009KT 4SM BR SCT120 06/03 A2984 940 85 100 120/09 RMK AO2
14837KMSN MSN20060311061509703/11/06 06:15:31  5-MIN KMSN 111215Z 12007KT 4SM BR SCT120 06/03 A2984 940 85 100 120/07 RMK AO2
14837KMSN MSN20060311062009703/11/06 06:20:31  5-MIN KMSN 111220Z 12007KT 4SM BR SCT120 06/03 A2983 940 85 100 120/07 RMK AO2
14837KMSN MSN20060311062509703/11/06 06:25:31  5-MIN KMSN 111225Z 11009KT 3SM BR SCT120 06/03 A2983 950 85 100 110/09 RMK AO2
14837KMSN MSN20060311063009703/11/06 06:30:31  5-MIN KMSN 111230Z 11008KT 4SM BR FEW120 06/03 A2983 950 85 100 110/08 RMK AO2
14837KMSN MSN20060311063509703/11/06 06:35:31  5-MIN KMSN 111235Z 13009KT 4SM BR SCT120 06/03 A2983 950 85 100 120/09 RMK AO2
14837KMSN MSN20060311064009703/11/06 06:40:31  5-MIN KMSN 111240Z 12010KT 4SM BR SCT120 06/03 A2983 950 85 100 120/10 RMK AO2
14837KMSN MSN20060311064509703/11/06 06:45:31  5-MIN KMSN 111245Z 13009KT 4SM HZ SCT120 06/03 A2983 950 82 100 130/09 RMK AO2
14837KMSN MSN20060311065011403/11/06 06:50:31  5-MIN KMSN 111250Z 12011KT 4SM HZ BKN120 06/03 A2983 950 82 100 120/11 RMK AO2 SLP106 T00610033
14837KMSN MSN20060311065509703/11/06 06:55:31  5-MIN KMSN 111255Z 12011KT 3SM HZ BKN120 06/03 A2983 950 82 100 120/11 RMK AO2
14837KMSN MSN20060311070009703/11/06 07:00:31  5-MIN KMSN 111300Z 13010KT 3SM BR BKN110 06/03 A2983 950 85 100 130/10 RMK AO2
14837KMSN MSN20060311070509703/11/06 07:05:31  5-MIN KMSN 111305Z 12010KT 3SM BR BKN110 06/03 A2982 960 85 100 120/10 RMK AO2
14837KMSN MSN20060311071009703/11/06 07:10:31  5-MIN KMSN 111310Z 13012KT 3SM BR BKN110 06/03 A2982 960 85 100 120/12 RMK AO2
14837KMSN MSN20060311071509703/11/06 07:15:31  5-MIN KMSN 111315Z 13010KT 3SM HZ BKN110 06/03 A2981 960 82 200 130/10 RMK AO2
14837KMSN MSN20060311072009703/11/06 07:20:31  5-MIN KMSN 111320Z 12013KT 3SM HZ SCT110 06/03 A2981 960 82 200 120/13 RMK AO2
14837KMSN MSN20060311072509703/11/06 07:25:31  5-MIN KMSN 111325Z 13012KT 3SM BR SCT110 06/03 A2982 960 85 100 130/12 RMK AO2
14837KMSN MSN20060311073009703/11/06 07:30:31  5-MIN KMSN 111330Z 13011KT 3SM BR SCT110 06/03 A2982 960 85 100 130/11 RMK AO2
14837KMSN MSN20060311073509703/11/06 07:35:31  5-MIN KMSN 111335Z 14011KT 3SM BR SCT110 06/03 A2982 960 85 100 140/11 RMK AO2
14837KMSN MSN20060311074009403/11/06 07:40:31  5-MIN KMSN 111340Z 14012KT 3SM HZ CLR 06/03 A2983 950 82 100 140/12 RMK AO2
14837KMSN MSN20060311074509403/11/06 07:45:31  5-MIN KMSN 111345Z 14013KT 3SM HZ CLR 06/03 A2983 950 82 100 140/13 RMK AO2
14837KMSN MSN20060311075011103/11/06 07:50:31  5-MIN KMSN 111350Z 14009KT 3SM HZ CLR 07/04 A2983 950 82 200 140/09 RMK AO2 SLP106 T00670039
14837KMSN MSN20060311075510403/11/06 07:55:31  5-MIN KMSN 111355Z 14013KT 3SM HZ CLR 07/04 A2983 950 82 200 130/13 RMK AO2 SFC VIS 3
14837KMSN MSN20060311080010403/11/06 08:00:31  5-MIN KMSN 111400Z 13014KT 3SM HZ CLR 07/04 A2983 950 79 300 130/14 RMK AO2 SFC VIS 4
14837KMSN MSN20060311080510403/11/06 08:05:31  5-MIN KMSN 111405Z 14012KT 3SM HZ CLR 07/04 A2983 950 79 300 140/12 RMK AO2 SFC VIS 4
14837KMSN MSN20060311081010403/11/06 08:10:31  5-MIN KMSN 111410Z 14014KT 3SM HZ CLR 07/04 A2983 950 82 300 140/14 RMK AO2 SFC VIS 4
14837KMSN MSN20060311081510403/11/06 08:15:31  5-MIN KMSN 111415Z 13012KT 3SM HZ CLR 08/04 A2983 950 79 300 130/12 RMK AO2 SFC VIS 4
14837KMSN MSN20060311082011003/11/06 08:20:31  5-MIN KMSN 111420Z 14011G18KT 3SM HZ CLR 08/04 A2983 940 79 300 140/11G18 RMK AO2 SFC VIS 4
14837KMSN MSN20060311082510703/11/06 08:25:31  5-MIN KMSN 111425Z 15013KT 3SM HZ FEW060 08/04 A2983 950 76 400 150/13 RMK AO2 SFC VIS 4
14837KMSN MSN20060311083010703/11/06 08:30:31  5-MIN KMSN 111430Z 14015KT 3SM HZ FEW060 08/04 A2982 950 76 400 140/15 RMK AO2 SFC VIS 4
14837KMSN MSN20060311083511303/11/06 08:35:31  5-MIN KMSN 111435Z 15015G21KT 3SM HZ SCT060 08/04 A2982 960 76 400 150/15G21 RMK AO2 SFC VIS 5
14837KMSN MSN20060311084010303/11/06 08:40:31  5-MIN KMSN 111440Z 15013G21KT 5SM HZ SCT060 08/04 A2982 950 76 400 150/13G21 RMK AO2
14837KMSN MSN20060311084509703/11/06 08:45:31  5-MIN KMSN 111445Z 14014KT 5SM HZ SCT060 09/05 A2982 950 74 600 140/14 RMK AO2
14837KMSN MSN20060311085012603/11/06 08:50:31  5-MIN KMSN 111450Z 15014G21KT 5SM HZ SCT060 09/05 A2982 960 74 600 150/14G21 RMK AO2 SLP102 T00940050 58018
14837KMSN MSN20060311085510303/11/06 08:55:31  5-MIN KMSN 111455Z 15017G21KT 6SM HZ FEW120 10/05 A2982 960 71 600 150/17G21 RMK AO2
14837KMSN MSN20060311090010403/11/06 09:00:31  5-MIN KMSN 111500Z 15011KT 6SM HZ SCT060 BKN120 10/05 A2981 970 71 600 150/11 RMK AO2
14837KMSN MSN20060311090511003/11/06 09:05:31  5-MIN KMSN 111505Z 16016G21KT 6SM HZ SCT060 BKN120 11/05 A2981 970 68 700 160/16G21 RMK AO2
14837KMSN MSN20060311091010403/11/06 09:10:31  5-MIN KMSN 111510Z 15018KT 6SM HZ SCT060 BKN120 10/05 A2981 970 71 600 150/18 RMK AO2
14837KMSN MSN20060311091510403/11/06 09:15:31  5-MIN KMSN 111515Z 16016KT 6SM HZ SCT060 BKN120 10/05 A2981 970 71 600 150/16 RMK AO2
14837KMSN MSN20060311092011003/11/06 09:20:31  5-MIN KMSN 111520Z 15018G24KT 6SM HZ SCT060 BKN120 11/06 A2981 970 68 800 150/18G24 RMK AO2
14837KMSN MSN20060311092510703/11/06 09:25:31  5-MIN KMSN 111525Z 16018G24KT 7SM SCT060 BKN120 11/05 A2981 970 66 800 160/18G24 RMK AO2
14837KMSN MSN20060311093010103/11/06 09:30:31  5-MIN KMSN 111530Z 16018KT 7SM FEW060 SCT120 11/05 A2980 970 66 800 160/18 RMK AO2
14837KMSN MSN20060311093510103/11/06 09:35:31  5-MIN KMSN 111535Z 16014KT 7SM FEW060 SCT120 11/06 A2981 970 68 800 160/14 RMK AO2
14837KMSN MSN20060311094010103/11/06 09:40:31  5-MIN KMSN 111540Z 16014KT 7SM FEW060 SCT120 12/06 A2981 970 66 800 160/14 RMK AO2
14837KMSN MSN20060311094510703/11/06 09:45:31  5-MIN KMSN 111545Z 17017G20KT 7SM FEW060 SCT120 12/06 A2981 970 66 800 170/17G20 RMK AO2
14837KMSN MSN20060311095012703/11/06 09:50:31  5-MIN KMSN 111550Z 16015G21KT 6SM HZ FEW060 SCT120 12/06 A2981 970 66 800 160/15G21 RMK AO2 SLP098 T01170056
14837KMSN MSN20060311095510003/11/06 09:55:31  5-MIN KMSN 111555Z 17019G25KT 6SM HZ CLR 12/06 A2980 970 66 800 170/19G25 RMK AO2
14837KMSN MSN20060311100009703/11/06 10:00:31  5-MIN KMSN 111600Z 16017G25KT 7SM CLR 12/06 A2980 980 66 900 160/17G25 RMK AO2
14837KMSN MSN20060311100509103/11/06 10:05:31  5-MIN KMSN 111605Z 16020KT 7SM CLR 12/06 A2980 980 68 900 160/20 RMK AO2
14837KMSN MSN20060311101009703/11/06 10:10:31  5-MIN KMSN 111610Z 16019G23KT 7SM CLR 12/06 A2980 980 66 900 160/19G23 RMK AO2
14837KMSN MSN20060311101509703/11/06 10:15:31  5-MIN KMSN 111615Z 17016G23KT 7SM CLR 12/06 A2979 980 66 900 170/16G23 RMK AO2
14837KMSN MSN20060311102009103/11/06 10:20:31  5-MIN KMSN 111620Z 17015KT 7SM CLR 12/06 A2980 980 66 900 160/15 RMK AO2
14837KMSN MSN20060311102509203/11/06 10:25:31  5-MIN KMSN 111625Z 16018KT 7SM CLR 13/06 A2980 980 63 1000 160/18 RMK AO2
14837KMSN MSN20060311103010103/11/06 10:30:31  5-MIN KMSN 111630Z 18016G20KT 7SM FEW070 13/07 A2980 980 64 1000 170/16G20 RMK AO2
14837KMSN MSN20060311103509503/11/06 10:35:31  5-MIN KMSN 111635Z 17019KT 8SM FEW070 13/07 A2979 980 66 1000 170/19 RMK AO2
14837KMSN MSN20060311104009503/11/06 10:40:31  5-MIN KMSN 111640Z 17014KT 8SM FEW070 13/07 A2980 980 66 1000 170/14 RMK AO2
14837KMSN MSN20060311104510103/11/06 10:45:31  5-MIN KMSN 111645Z 17018G21KT 8SM FEW070 14/07 A2980 980 64 1100 170/18G21 RMK AO2
14837KMSN MSN20060311105011803/11/06 10:50:31  5-MIN KMSN 111650Z 18017G21KT 8SM BKN120 13/07 A2980 980 64 1000 170/17G21 RMK AO2 SLP094 T01330067
14837KMSN MSN20060311105510203/11/06 10:55:31  5-MIN KMSN 111655Z 18017KT 8SM SCT075 BKN120 13/07 A2980 970 66 1000 180/17 RMK AO2
14837KMSN MSN20060311110010203/11/06 11:00:31  5-MIN KMSN 111700Z 17016KT 8SM SCT075 BKN120 13/07 A2980 970 66 1000 170/16 RMK AO2
14837KMSN MSN20060311110510803/11/06 11:05:31  5-MIN KMSN 111705Z 17015G21KT 8SM SCT075 BKN120 14/07 A2979 990 64 1100 170/15G21 RMK AO2
14837KMSN MSN20060311111010203/11/06 11:10:31  5-MIN KMSN 111710Z 17018KT 9SM SCT075 BKN120 14/08 A2979 990 64 1200 170/18 RMK AO2
14837KMSN MSN20060311111510203/11/06 11:15:31  5-MIN KMSN 111715Z 18016KT 9SM SCT075 BKN120 15/08 A2979 980 64 1300 180/16 RMK AO2
14837KMSN MSN20060311112009503/11/06 11:20:31  5-MIN KMSN 111720Z 17018KT 9SM SCT075 15/08 A2980 980 64 1200 170/18 RMK AO2
14837KMSN MSN20060311112509503/11/06 11:25:31  5-MIN KMSN 111725Z 17016KT 9SM SCT075 14/08 A2979 980 64 1200 170/16 RMK AO2
14837KMSN MSN20060311113010803/11/06 11:30:31  5-MIN KMSN 111730Z 17018G22KT 9SM SCT055 BKN075 14/08 A2979 980 66 1200 170/18G22 RMK AO2
14837KMSN MSN20060311113510103/11/06 11:35:31  5-MIN KMSN 111735Z 17019G23KT 9SM BKN047 14/08 A2980 980 66 1200 170/19G23 RMK AO2
14837KMSN MSN20060311114010103/11/06 11:40:31  5-MIN KMSN 111740Z 17016G23KT 9SM BKN047 14/08 A2979 980 66 1200 170/16G23 RMK AO2
14837KMSN MSN20060311114509503/11/06 11:45:31  5-MIN KMSN 111745Z 17015KT 9SM BKN047 14/08 A2980 980 66 1200 170/15 RMK AO2
14837KMSN MSN20060311115013703/11/06 11:50:31  5-MIN KMSN 111750Z 17014KT 9SM FEW030 OVC047 14/08 A2980 980 66 1200 170/14 RMK AO2 SLP092 T01440083 10150 20050 56008
14837KMSN MSN20060311115509503/11/06 11:55:31  5-MIN KMSN 111755Z 17017KT 9SM OVC047 14/09 A2980 980 69 1200 170/17 RMK AO2
14837KMSN MSN20060311120009603/11/06 12:00:31  5-MIN KMSN 111800Z 17015KT 10SM OVC045 14/09 A2980 980 69 1200 170/15 RMK AO2
14837KMSN MSN20060311120509603/11/06 12:05:31  5-MIN KMSN 111805Z 17016KT 10SM OVC045 14/09 A2979 980 69 1200 170/16 RMK AO2
14837KMSN MSN20060311121009603/11/06 12:10:31  5-MIN KMSN 111810Z 17018KT 10SM OVC045 15/09 A2979 980 66 1200 170/18 RMK AO2
14837KMSN MSN20060311121509603/11/06 12:15:31  5-MIN KMSN 111815Z 17016KT 10SM OVC045 15/09 A2980 980 66 1200 170/16 RMK AO2
14837KMSN MSN20060311122009603/11/06 12:20:31  5-MIN KMSN 111820Z 18015KT 10SM OVC045 15/09 A2980 980 66 1200 180/15 RMK AO2
14837KMSN MSN20060311122509603/11/06 12:25:31  5-MIN KMSN 111825Z 17017KT 10SM OVC045 15/09 A2980 980 69 1200 170/17 RMK AO2
14837KMSN MSN20060311123009603/11/06 12:30:31  5-MIN KMSN 111830Z 17016KT 10SM OVC045 15/09 A2979 980 69 1200 170/16 RMK AO2
14837KMSN MSN20060311123510203/11/06 12:35:31  5-MIN KMSN 111835Z 17018G22KT 10SM OVC045 16/09 A2979 990 67 1300 170/18G22 RMK AO2
14837KMSN MSN20060311124010903/11/06 12:40:31  5-MIN KMSN 111840Z 17014G22KT 10SM BKN045 OVC060 16/09 A2979 980 67 1300 170/14G22 RMK AO2
14837KMSN MSN20060311124511603/11/06 12:45:31  5-MIN KMSN 111845Z 17018G21KT 10SM FEW024 BKN045 OVC060 16/10 A2979 990 69 1300 170/18G21 RMK AO2
14837KMSN MSN20060311125015103/11/06 12:50:31  5-MIN KMSN 111850Z 18020G27KT 10SM FEW024 BKN045 BKN060 16/10 A2978 990 69 1300 180/20G27 RMK AO2 PK WND 18027/1849 SLP088 T01560100
14837KMSN MSN20060311125511603/11/06 12:55:31  5-MIN KMSN 111855Z 17016G27KT 10SM FEW024 BKN045 BKN060 16/10 A2978 990 69 1300 170/16G27 RMK AO2
14837KMSN MSN20060311130011703/11/06 13:00:31  5-MIN KMSN 111900Z 17017G22KT 10SM FEW024 SCT045 SCT060 16/10 A2977 1000 69 1300 170/17G22 RMK AO2
14837KMSN MSN20060311130510303/11/06 13:05:31  5-MIN KMSN 111905Z 17015G22KT 10SM FEW024 16/10 A2977 1000 69 1300 170/15G22 RMK AO2
14837KMSN MSN20060311131010303/11/06 13:10:31  5-MIN KMSN 111910Z 17017G21KT 10SM FEW024 16/11 A2977 1000 72 1300 170/17G21 RMK AO2
14837KMSN MSN20060311131510303/11/06 13:15:31  5-MIN KMSN 111915Z 17019G23KT 10SM FEW023 16/11 A2977 1000 72 1300 170/19G23 RMK AO2
14837KMSN MSN20060311132010303/11/06 13:20:31  5-MIN KMSN 111920Z 17018G25KT 10SM SCT070 16/11 A2977 1000 72 1300 170/18G25 RMK AO2
14837KMSN MSN20060311132511003/11/06 13:25:31  5-MIN KMSN 111925Z 18018G25KT 10SM FEW023 SCT070 16/11 A2977 1000 72 1300 180/18G25 RMK AO2
14837KMSN MSN20060311133009703/11/06 13:30:31  5-MIN KMSN 111930Z 17020KT 10SM FEW023 16/11 A2976 1010 72 1300 160/20 RMK AO2
14837KMSN MSN20060311133509703/11/06 13:35:31  5-MIN KMSN 111935Z 17021KT 10SM FEW023 16/11 A2976 1010 72 1400 170/21 RMK AO2
14837KMSN MSN20060311134009703/11/06 13:40:31  5-MIN KMSN 111940Z 16017KT 10SM FEW023 16/11 A2975 1020 72 1400 160/17 RMK AO2
14837KMSN MSN20060311134509703/11/06 13:45:31  5-MIN KMSN 111945Z 17018KT 10SM FEW070 16/11 A2976 1020 72 1400 170/18 RMK AO2
14837KMSN MSN20060311135011703/11/06 13:50:31  5-MIN KMSN 111950Z 16020G25KT 10SM CLR 16/11 A2975 1020 72 1400 160/20G25 RMK AO2 SLP078 T01610111
14837KMSN MSN20060311135510003/11/06 13:55:31  5-MIN KMSN 111955Z 17018G25KT 10SM CLR 16/11 A2976 1020 69 1400 170/18G25 RMK AO2
14837KMSN MSN20060311140010003/11/06 14:00:31  5-MIN KMSN 112000Z 18017G25KT 10SM CLR 16/11 A2976 1010 69 1400 180/17G25 RMK AO2
14837KMSN MSN20060311140510003/11/06 14:05:31  5-MIN KMSN 112005Z 18017G21KT 10SM CLR 16/11 A2977 1000 69 1400 180/17G21 RMK AO2
14837KMSN MSN20060311141010303/11/06 14:10:31  5-MIN KMSN 112010Z 18014G21KT 10SM FEW025 16/11 A2977 1000 69 1400 180/14G21 RMK AO2
14837KMSN MSN20060311141509703/11/06 14:15:31  5-MIN KMSN 112015Z 18014KT 10SM SCT025 16/11 A2977 1000 69 1400 180/14 RMK AO2
14837KMSN MSN20060311142009703/11/06 14:20:31  5-MIN KMSN 112020Z 18015KT 10SM SCT027 16/11 A2977 1000 72 1400 180/15 RMK AO2
14837KMSN MSN20060311142510303/11/06 14:25:31  5-MIN KMSN 112025Z 18014G22KT 10SM SCT027 17/11 A2977 1000 69 1500 180/14G22 RMK AO2
14837KMSN MSN20060311143010303/11/06 14:30:31  5-MIN KMSN 112030Z 18013G22KT 10SM SCT027 17/11 A2977 1000 69 1500 180/13G22 RMK AO2
14837KMSN MSN20060311143510403/11/06 14:35:31  5-MIN KMSN 112035Z 17015KT 10SM SCT027 BKN038 17/11 A2977 1000 69 1500 170/15 RMK AO2
14837KMSN MSN20060311144011003/11/06 14:40:31  5-MIN KMSN 112040Z 17015G20KT 10SM SCT027 BKN038 17/11 A2976 1010 69 1500 170/15G20 RMK AO2
14837KMSN MSN20060311144510403/11/06 14:45:31  5-MIN KMSN 112045Z 16016KT 10SM SCT027 BKN038 17/11 A2976 1010 67 1600 160/16 RMK AO2
14837KMSN MSN20060311145013403/11/06 14:50:31  5-MIN KMSN 112050Z 16018KT 10SM SCT027 BKN038 17/11 A2975 1020 69 1500 160/18 RMK AO2 PRESFR SLP077 T01670111 56007
14837KMSN MSN20060311145509703/11/06 14:55:31  5-MIN KMSN 112055Z 17019KT 10SM FEW027 17/11 A2975 1030 67 1600 160/19 RMK AO2
14837KMSN MSN20060311150009403/11/06 15:00:31  5-MIN KMSN 112100Z 17019KT 10SM CLR 18/12 A2975 1030 67 1600 170/19 RMK AO2
14837KMSN MSN20060311150510003/11/06 15:05:31  5-MIN KMSN 112105Z 17017G25KT 10SM CLR 18/12 A2975 1020 65 1700 170/17G25 RMK AO2
14837KMSN MSN20060311151011803/11/06 15:10:31  5-MIN KMSN 112110Z 18019G28KT 10SM CLR 18/12 A2975 1020 65 1700 170/19G28 RMK AO2 PK WND 17028/2108
14837KMSN MSN20060311151511803/11/06 15:15:31  5-MIN KMSN 112115Z 18020G28KT 10SM CLR 18/12 A2976 1010 67 1600 180/20G28 RMK AO2 PK WND 17028/2108
14837KMSN MSN20060311152012103/11/06 15:20:31  5-MIN KMSN 112120Z 18018G25KT 10SM FEW029 18/12 A2976 1010 67 1600 180/18G25 RMK AO2 PK WND 17028/2108
14837KMSN MSN20060311152511503/11/06 15:25:31  5-MIN KMSN 112125Z 18019KT 10SM SCT029 18/12 A2977 1010 67 1600 180/19 RMK AO2 PK WND 17028/2108
14837KMSN MSN20060311153012103/11/06 15:30:31  5-MIN KMSN 112130Z 19015G24KT 10SM SCT029 18/12 A2977 1010 65 1700 180/15G24 RMK AO2 PK WND 17028/2108
14837KMSN MSN20060311153512103/11/06 15:35:31  5-MIN KMSN 112135Z 19014G24KT 10SM SCT029 18/12 A2977 1010 65 1700 180/14G24 RMK AO2 PK WND 17028/2108
14837KMSN MSN20060311154012103/11/06 15:40:31  5-MIN KMSN 112140Z 18017G21KT 10SM FEW029 18/12 A2977 1010 65 1700 180/17G21 RMK AO2 PK WND 17028/2108
14837KMSN MSN20060311154512103/11/06 15:45:31  5-MIN KMSN 112145Z 18017G21KT 10SM FEW029 18/12 A2977 1000 67 1700 180/17G21 RMK AO2 PK WND 17028/2108
14837KMSN MSN20060311155014503/11/06 15:50:31  5-MIN KMSN 112150Z 18019G22KT 10SM FEW029 SCT038 18/12 A2977 1000 69 1600 180/19G22 RMK AO2 PK WND 17028/2108 SLP084 T01780122
14837KMSN MSN20060311155511003/11/06 15:55:31  5-MIN KMSN 112155Z 18015G22KT 10SM FEW029 SCT035 18/12 A2978 1000 69 1600 180/15G22 RMK AO2
14837KMSN MSN20060311160011003/11/06 16:00:31  5-MIN KMSN 112200Z 19016G21KT 10SM SCT027 SCT035 18/12 A2977 1000 69 1600 190/16G21 RMK AO2
14837KMSN MSN20060311160511003/11/06 16:05:31  5-MIN KMSN 112205Z 18012G21KT 10SM SCT027 SCT035 18/12 A2978 1000 67 1700 180/12G21 RMK AO2
14837KMSN MSN20060311161010403/11/06 16:10:31  5-MIN KMSN 112210Z 19012KT 10SM FEW027 SCT035 18/12 A2977 1000 69 1600 180/12 RMK AO2
14837KMSN MSN20060311161511003/11/06 16:15:31  5-MIN KMSN 112215Z 18013G19KT 10SM FEW027 SCT035 18/12 A2977 1000 69 1600 180/13G19 RMK AO2
14837KMSN MSN20060311162010403/11/06 16:20:31  5-MIN KMSN 112220Z 18014KT 10SM FEW027 SCT036 18/12 A2978 1000 69 1600 180/14 RMK AO2
14837KMSN MSN20060311162509703/11/06 16:25:31  5-MIN KMSN 112225Z 18013KT 10SM FEW027 18/13 A2978 1000 72 1600 180/13 RMK AO2
14837KMSN MSN20060311163009403/11/06 16:30:31  5-MIN KMSN 112230Z 18010KT 10SM CLR 18/13 A2977 1000 72 1600 180/10 RMK AO2
14837KMSN MSN20060311163509403/11/06 16:35:31  5-MIN KMSN 112235Z 19011KT 10SM CLR 17/13 A2978 1000 75 1500 180/11 RMK AO2
14837KMSN MSN20060311164009403/11/06 16:40:31  5-MIN KMSN 112240Z 19011KT 10SM CLR 17/13 A2978 1000 75 1500 180/11 RMK AO2
14837KMSN MSN20060311164509403/11/06 16:45:31  5-MIN KMSN 112245Z 18010KT 10SM CLR 17/13 A2978 1000 75 1500 180/10 RMK AO2
14837KMSN MSN20060311165011403/11/06 16:50:31  5-MIN KMSN 112250Z 18010KT 10SM FEW030 17/12 A2978 1000 72 1500 180/10 RMK AO2 SLP085 T01720122
14837KMSN MSN20060311165509403/11/06 16:55:31  5-MIN KMSN 112255Z 17010KT 10SM CLR 17/12 A2977 1000 75 1500 170/10 RMK AO2
14837KMSN MSN20060311170009403/11/06 17:00:31  5-MIN KMSN 112300Z 18009KT 10SM CLR 17/12 A2977 1000 75 1500 180/09 RMK AO2
14837KMSN MSN20060311170509403/11/06 17:05:31  5-MIN KMSN 112305Z 18008KT 10SM CLR 17/13 A2977 1000 77 1500 180/08 RMK AO2
14837KMSN MSN20060311171009403/11/06 17:10:31  5-MIN KMSN 112310Z 17008KT 10SM CLR 17/13 A2977 1010 77 1500 170/08 RMK AO2
14837KMSN MSN20060311171509403/11/06 17:15:31  5-MIN KMSN 112315Z 17008KT 10SM CLR 17/12 A2977 1000 75 1500 170/08 RMK AO2
14837KMSN MSN20060311172009403/11/06 17:20:31  5-MIN KMSN 112320Z 18007KT 10SM CLR 17/12 A2977 1000 75 1500 180/07 RMK AO2
14837KMSN MSN20060311172509403/11/06 17:25:31  5-MIN KMSN 112325Z 18008KT 10SM CLR 16/12 A2977 1010 77 1400 180/08 RMK AO2
14837KMSN MSN20060311173009703/11/06 17:30:31  5-MIN KMSN 112330Z 18007KT 10SM FEW034 16/12 A2977 1010 77 1400 180/07 RMK AO2
14837KMSN MSN20060311173509603/11/06 17:35:31  5-MIN KMSN 112335Z 18006KT 9SM FEW034 16/12 A2977 1000 77 1400 180/06 RMK AO2
14837KMSN MSN20060311174009603/11/06 17:40:31  5-MIN KMSN 112340Z 18007KT 9SM FEW034 16/12 A2977 1000 77 1400 180/07 RMK AO2
14837KMSN MSN20060311174509303/11/06 17:45:31  5-MIN KMSN 112345Z 17006KT 9SM CLR 16/12 A2977 1000 80 1300 170/06 RMK AO2
14837KMSN MSN20060311175013903/11/06 17:50:31  5-MIN KMSN 112350Z 17007KT 10SM FEW034 SCT065 15/12 A2977 1000 83 1300 170/07 RMK AO2 SLP084 T01500122 10183 20144 56015
14837KMSN MSN20060311175509303/11/06 17:55:31  5-MIN KMSN 112355Z 16007KT 9SM CLR 14/12 A2977 1000 83 1200 160/07 RMK AO2
14837KMSN MSN20060311180010303/11/06 18:00:31  5-MIN KMSN 120000Z 16006KT 8SM FEW034 SCT065 14/12 A2977 1010 86 1100 160/06 RMK AO2
14837KMSN MSN20060311180510303/11/06 18:05:31  5-MIN KMSN 120005Z 17006KT 8SM FEW034 SCT065 14/11 A2976 1010 83 1200 170/06 RMK AO2
14837KMSN MSN20060311181010303/11/06 18:10:31  5-MIN KMSN 120010Z 17007KT 8SM FEW034 SCT065 15/12 A2977 1010 83 1300 170/07 RMK AO2
14837KMSN MSN20060311181510303/11/06 18:15:31  5-MIN KMSN 120015Z 18005KT 9SM FEW034 SCT065 14/12 A2977 1000 86 1200 180/05 RMK AO2
14837KMSN MSN20060311182010303/11/06 18:20:31  5-MIN KMSN 120020Z 18005KT 9SM FEW034 SCT065 14/12 A2978 1000 83 1200 180/05 RMK AO2
14837KMSN MSN20060311182510203/11/06 18:25:31  5-MIN KMSN 120025Z 19005KT 9SM FEW034 SCT065 14/12 A2978 990 83 1200 180/05 RMK AO2
14837KMSN MSN20060311183010203/11/06 18:30:31  5-MIN KMSN 120030Z 18005KT 9SM FEW034 SCT065 14/12 A2979 990 83 1200 180/05 RMK AO2
14837KMSN MSN20060311183510203/11/06 18:35:31  5-MIN KMSN 120035Z 19005KT 9SM FEW034 SCT065 14/12 A2979 990 83 1200 190/05 RMK AO2
14837KMSN MSN20060311184010203/11/06 18:40:31  5-MIN KMSN 120040Z 19004KT 9SM FEW034 SCT065 14/12 A2978 990 83 1200 190/04 RMK AO2
14837KMSN MSN20060311184510203/11/06 18:45:31  5-MIN KMSN 120045Z 18004KT 9SM FEW034 SCT065 14/12 A2979 990 86 1100 180/04 RMK AO2
14837KMSN MSN20060311185011903/11/06 18:50:31  5-MIN KMSN 120050Z 18004KT 9SM FEW034 SCT065 14/12 A2979 990 83 1200 180/04 RMK AO2 SLP090 T01440117
14837KMSN MSN20060311185509203/11/06 18:55:31  5-MIN KMSN 120055Z 17005KT 8SM CLR 14/12 A2979 990 86 1100 170/05 RMK AO2
14837KMSN MSN20060311190009203/11/06 19:00:31  5-MIN KMSN 120100Z 17005KT 8SM CLR 14/12 A2979 990 86 1100 170/05 RMK AO2
14837KMSN MSN20060311190509203/11/06 19:05:31  5-MIN KMSN 120105Z 17007KT 8SM CLR 13/12 A2979 980 89 1100 170/07 RMK AO2
14837KMSN MSN20060311191009203/11/06 19:10:31  5-MIN KMSN 120110Z 17007KT 8SM CLR 14/12 A2979 980 86 1100 170/07 RMK AO2
14837KMSN MSN20060311191509203/11/06 19:15:31  5-MIN KMSN 120115Z 16007KT 8SM CLR 13/12 A2979 980 89 1100 160/07 RMK AO2
14837KMSN MSN20060311192009203/11/06 19:20:31  5-MIN KMSN 120120Z 17007KT 7SM CLR 13/11 A2979 990 89 1000 160/07 RMK AO2
14837KMSN MSN20060311192509503/11/06 19:25:31  5-MIN KMSN 120125Z 16007KT 7SM FEW080 13/12 A2978 990 89 1100 160/07 RMK AO2
14837KMSN MSN20060311193015203/11/06 19:30:31  5-MIN KMSN 120130Z 15008KT 7SM -RA FEW085 SCT110 13/12 A2979 980 89 1100 150/08 RMK AO2 RAB29 FRQ LTG DSNT SW TS DSNT SW MOV NE P0000
14837KMSN MSN20060311193515203/11/06 19:35:31  5-MIN KMSN 120135Z 16009KT 8SM -RA FEW085 SCT110 14/12 A2979 990 86 1100 160/09 RMK AO2 RAB29 FRQ LTG DSNT SW TS DSNT SW MOV NE P0000
14837KMSN MSN20060311194014503/11/06 19:40:31  5-MIN KMSN 120140Z 15010KT 8SM -RA SCT100 14/12 A2978 990 90 1100 150/10 RMK AO2 RAB29 FRQ LTG DSNT SW TS DSNT SW MOV NE P0000
14837KMSN MSN20060311194516303/11/06 19:45:31  5-MIN KMSN 120145Z 15012KT 8SM -TSRA FEW090 SCT110 14/12 A2979 980 86 1200 150/12 RMK AO2 TSB43RAB29 FRQ LTGICCC VC SW-W TS VC SW-W MOV NE P0000
14837KMSN MSN20060311195018003/11/06 19:50:31  5-MIN KMSN 120150Z 16014KT 8SM -TSRA SCT075 SCT110 14/13 A2979 990 90 1200 160/14 RMK AO2 TSB43RAB29 SLP089 FRQ LTGICCC VC SW-W TS VC SW-W MOV NE P0000 T01440128
14837KMSN MSN20060311195511803/11/06 19:55:31  5-MIN KMSN 120155Z 19009KT 6SM TSGRRA BR SCT050 BKN100 15/13 A2980 970 86 1200 190/09 RMK AO2 P0001
14837KMSN MSN20060311200016103/11/06 20:00:31  5-MIN KMSN 120200Z VRB06KT 5SM -TSRA BR SCT043 BKN070 BKN100 14/13 A2980 970 90 1200 VRB/06 RMK AO2 GRE00 OCNL LTGICCC OHD TS OHD MOV NE P0004
14837KMSN MSN20060311200516103/11/06 20:05:31  5-MIN KMSN 120205Z VRB04KT 4SM -TSRA BR SCT043 BKN060 BKN075 14/13 A2981 970 90 1200 VRB/04 RMK AO2 GRE00 OCNL LTGICCC OHD TS OHD MOV NE P0005
14837KMSN MSN20060311201016203/11/06 20:10:31  5-MIN KMSN 120210Z 25004KT 5SM -TSRA BR SCT043 BKN065 14/13 A2981 970 90 1200 250/04 RMK AO2 GRE00 OCNL LTGICCC VC NE-S TS VC NE-S MOV NE P0008
14837KMSN MSN20060311201516203/11/06 20:15:31  5-MIN KMSN 120215Z 20007KT 5SM -TSRA BR SCT044 BKN070 14/13 A2982 960 90 1200 200/07 RMK AO2 GRE00 OCNL LTGICCC VC NE-S TS VC NE-S MOV NE P0008
14837KMSN MSN20060311202016803/11/06 20:20:31  5-MIN KMSN 120220Z 19009KT 5SM -TSRA BR FEW023 SCT070 14/13 A2983 950 90 1100 190/09 RMK AO2 GRE00 PRESRR FRQ LTGICCC VC NE-S TS VC NE-S MOV NE P0008
14837KMSN MSN20060311202515303/11/06 20:25:31  5-MIN KMSN 120225Z 20009KT 7SM TS SCT070 14/12 A2983 950 86 1100 200/09 RMK AO2 RAE21GRE00 FRQ LTGICCC VC E-SE TS VC E-SE MOV NE P0008
14837KMSN MSN20060311203016003/11/06 20:30:31  5-MIN KMSN 120230Z 22007KT 7SM TS FEW050 SCT065 14/12 A2983 950 86 1100 220/07 RMK AO2 RAE21GRE00 FRQ LTGICCC VC E-SE TS VC E-SE MOV NE P0008
14837KMSN MSN20060311203516103/11/06 20:35:31  5-MIN KMSN 120235Z 25008KT 8SM TS SCT055 SCT065 14/11 A2984 940 80 1100 250/08 RMK AO2 RAE21GRE00 OCNL LTGICCC VC E-SE TS VC E-SE MOV NE P0008
14837KMSN MSN20060311204015003/11/06 20:40:31  5-MIN KMSN 120240Z 24007KT 10SM SCT055 14/11 A2984 940 77 1100 240/07 RMK AO2 TSE39RAE21GRE00 OCNL LTG DSNT NE-E TS DSNT NE-E P0008
14837KMSN MSN20060311204515703/11/06 20:45:31  5-MIN KMSN 120245Z 28004KT 10SM BKN050 BKN060 14/11 A2983 950 80 1100 280/04 RMK AO2 TSE39RAE21GRE00 OCNL LTG DSNT NE-E TS DSNT NE-E P0008
14837KMSN MSN20060311205017803/11/06 20:50:31  5-MIN KMSN 120250Z VRB04KT 9SM BKN050 13/11 A2983 950 86 1000 VRB/04 RMK AO2 TSE39RAE21GRE00 SLP104 OCNL LTG DSNT NE-E TS DSNT NE-E P0008 60008 T01330111 50007
14837KMSN MSN20060311205509503/11/06 20:55:31  5-MIN KMSN 120255Z VRB06KT 8SM BKN050 13/11 A2983 940 86 1000 VRB/06 RMK AO2
14837KMSN MSN20060311210010203/11/06 21:00:31  5-MIN KMSN 120300Z VRB04KT 8SM BKN050 BKN060 14/11 A2983 940 83 1100 VRB/04 RMK AO2
14837KMSN MSN20060311210509503/11/06 21:05:31  5-MIN KMSN 120305Z 29006KT 9SM BKN048 13/11 A2983 950 83 1000 290/06 RMK AO2
14837KMSN MSN20060311211010203/11/06 21:10:31  5-MIN KMSN 120310Z 29008KT 9SM BKN045 BKN055 14/11 A2983 950 80 1100 290/08 RMK AO2
14837KMSN MSN20060311211510903/11/06 21:15:31  5-MIN KMSN 120315Z 29007KT 9SM SCT045 BKN055 BKN080 14/11 A2983 950 83 1100 280/07 RMK AO2
14837KMSN MSN20060311212010903/11/06 21:20:31  5-MIN KMSN 120320Z 28006KT 9SM SCT043 SCT050 BKN060 14/11 A2984 940 83 1100 280/06 RMK AO2
14837KMSN MSN20060311212510903/11/06 21:25:31  5-MIN KMSN 120325Z 29007KT 9SM SCT045 BKN065 BKN075 14/11 A2984 940 83 1100 280/07 RMK AO2
14837KMSN MSN20060311213010903/11/06 21:30:31  5-MIN KMSN 120330Z 28005KT 9SM SCT043 BKN065 BKN080 14/11 A2984 940 80 1100 280/05 RMK AO2
14837KMSN MSN20060311213511003/11/06 21:35:31  5-MIN KMSN 120335Z VRB05KT 10SM SCT043 SCT065 BKN080 14/10 A2985 930 77 1100 VRB/05 RMK AO2
14837KMSN MSN20060311214011003/11/06 21:40:31  5-MIN KMSN 120340Z 27005KT 10SM SCT041 BKN065 BKN080 13/09 A2985 930 77 1000 270/05 RMK AO2
14837KMSN MSN20060311214511003/11/06 21:45:31  5-MIN KMSN 120345Z VRB04KT 10SM SCT041 BKN050 BKN070 14/09 A2985 930 74 1100 VRB/04 RMK AO2
14837KMSN MSN20060311215012703/11/06 21:50:31  5-MIN KMSN 120350Z 29006KT 10SM SCT041 BKN050 BKN075 13/09 A2985 930 77 1000 290/06 RMK AO2 SLP111 T01330094
14837KMSN MSN20060311215509603/11/06 21:55:31  5-MIN KMSN 120355Z 29006KT 10SM BKN045 13/09 A2986 920 74 1000 290/06 RMK AO2
14837KMSN MSN20060311220009603/11/06 22:00:31  5-MIN KMSN 120400Z 29006KT 10SM OVC045 13/09 A2986 920 74 1000 290/06 RMK AO2
14837KMSN MSN20060311220509603/11/06 22:05:31  5-MIN KMSN 120405Z 29007KT 10SM OVC045 13/09 A2986 920 74 1000 290/07 RMK AO2
14837KMSN MSN20060311221009503/11/06 22:10:31  5-MIN KMSN 120410Z 31006KT 10SM OVC047 13/09 A2986 920 77 900 310/06 RMK AO2
14837KMSN MSN20060311221509503/11/06 22:15:31  5-MIN KMSN 120415Z 32006KT 10SM OVC047 13/08 A2986 920 74 900 310/06 RMK AO2
14837KMSN MSN20060311222009503/11/06 22:20:31  5-MIN KMSN 120420Z 32005KT 10SM OVC049 12/09 A2986 920 80 800 320/05 RMK AO2
14837KMSN MSN20060311222509503/11/06 22:25:31  5-MIN KMSN 120425Z 33006KT 10SM OVC049 12/08 A2987 920 77 800 320/06 RMK AO2
14837KMSN MSN20060311223009503/11/06 22:30:31  5-MIN KMSN 120430Z 33005KT 10SM OVC049 12/08 A2987 910 77 800 330/05 RMK AO2
14837KMSN MSN20060311223509503/11/06 22:35:31  5-MIN KMSN 120435Z 34004KT 10SM OVC049 12/08 A2987 910 77 800 340/04 RMK AO2
14837KMSN MSN20060311224009503/11/06 22:40:31  5-MIN KMSN 120440Z 33003KT 10SM OVC049 12/08 A2988 910 77 800 330/03 RMK AO2
14837KMSN MSN20060311224509503/11/06 22:45:31  5-MIN KMSN 120445Z 32004KT 10SM OVC049 12/08 A2988 900 77 800 320/04 RMK AO2
14837KMSN MSN20060311225011203/11/06 22:50:31  5-MIN KMSN 120450Z VRB04KT 10SM OVC055 12/08 A2989 890 74 800 VRB/04 RMK AO2 SLP123 T01220078
14837KMSN MSN20060311225510203/11/06 22:55:31  5-MIN KMSN 120455Z 29005KT 10SM OVC055 12/08 A2990 890 77 700 290/05 RMK AO2 PRESRR
14837KMSN MSN20060311230009503/11/06 23:00:31  5-MIN KMSN 120500Z 29006KT 10SM OVC060 12/08 A2990 880 77 700 290/06 RMK AO2
14837KMSN MSN20060311230510203/11/06 23:05:31  5-MIN KMSN 120505Z 31007KT 10SM BKN060 OVC075 11/08 A2990 890 80 700 310/07 RMK AO2
14837KMSN MSN20060311231010103/11/06 23:10:31  5-MIN KMSN 120510Z 32007KT 9SM BKN060 BKN075 11/07 A2990 890 77 700 320/07 RMK AO2
14837KMSN MSN20060311231510703/11/06 23:15:31  5-MIN KMSN 120515Z 33012G17KT 9SM BKN065 BKN080 11/07 A2990 880 80 600 330/12G17 RMK AO2
14837KMSN MSN20060311232010703/11/06 23:20:31  5-MIN KMSN 120520Z 33011G17KT 8SM SCT065 SCT080 10/07 A2991 880 80 500 330/11G17 RMK AO2
14837KMSN MSN20060311232510103/11/06 23:25:31  5-MIN KMSN 120525Z 32010KT 7SM FEW070 SCT085 10/07 A2991 870 80 500 320/10 RMK AO2
14837KMSN MSN20060311233010003/11/06 23:30:31  5-MIN KMSN 120530Z 32011G17KT 7SM FEW060 10/07 A2992 870 80 500 320/11G17 RMK AO2
14837KMSN MSN20060311233510003/11/06 23:35:31  5-MIN KMSN 120535Z 32009G17KT 7SM FEW060 09/06 A2992 860 79 400 320/09G17 RMK AO2
14837KMSN MSN20060311234009703/11/06 23:40:31  5-MIN KMSN 120540Z 31010KT 6SM HZ FEW060 09/06 A2992 860 79 400 310/10 RMK AO2
14837KMSN MSN20060311234509703/11/06 23:45:31  5-MIN KMSN 120545Z 31010KT 6SM HZ FEW060 09/06 A2993 860 79 400 310/10 RMK AO2
14837KMSN MSN20060311235014803/11/06 23:50:31  5-MIN KMSN 120550Z 31011KT 6SM HZ FEW060 08/05 A2993 850 79 300 310/11 RMK AO2 SLP138 60008 T00830050 10150 20083 401830039 53015
14837KMSN MSN20060311235509403/11/06 23:55:31  5-MIN KMSN 120555Z 32009KT 7SM FEW060 08/04 A2994 850 76 300 320/09 RMK AO2
14837KMSN MSN20060312000009803/12/06 00:00:38  5-MIN KMSN 120600Z 32008KT 7SM CLR 08/04 A2995 840 76 300 320/08 RMK AO2 PRESRR
14837KMSN MSN20060312000509103/12/06 00:05:31  5-MIN KMSN 120605Z 31008KT 7SM CLR 08/04 A2995 840 79 200 310/08 RMK AO2
14837KMSN MSN20060312001009403/12/06 00:10:31  5-MIN KMSN 120610Z 31006KT 6SM HZ CLR 07/04 A2995 840 82 100 310/06 RMK AO2
14837KMSN MSN20060312001509403/12/06 00:15:34  5-MIN KMSN 120615Z 32006KT 6SM HZ CLR 07/04 A2995 840 79 100 320/06 RMK AO2
14837KMSN MSN20060312002009403/12/06 00:20:31  5-MIN KMSN 120620Z 32006KT 6SM HZ CLR 07/04 A2996 830 82 100 320/06 RMK AO2
14837KMSN MSN20060312002509703/12/06 00:25:31  5-MIN KMSN 120625Z 32006KT 6SM HZ FEW017 07/03 A2996 830 79 100 320/06 RMK AO2
14837KMSN MSN20060312003009703/12/06 00:30:31  5-MIN KMSN 120630Z 32007KT 6SM HZ FEW017 07/03 A2996 830 79 100 320/07 RMK AO2
14837KMSN MSN20060312003509503/12/06 00:35:31  5-MIN KMSN 120635Z 33008KT 6SM HZ FEW017 06/03 A2996 830 82 0 320/08 RMK AO2
14837KMSN MSN20060312004009503/12/06 00:40:31  5-MIN KMSN 120640Z 32009KT 6SM HZ FEW017 06/03 A2996 830 82 0 320/09 RMK AO2
14837KMSN MSN20060312004509503/12/06 00:45:31  5-MIN KMSN 120645Z 33010KT 6SM HZ FEW017 06/03 A2996 830 79 0 330/10 RMK AO2
14837KMSN MSN20060312005011503/12/06 00:50:31  5-MIN KMSN 120650Z 34015G21KT 8SM FEW017 06/03 A2996 820 79 0 330/15G21 RMK AO2 SLP149 T00610028
14837KMSN MSN20060312005509503/12/06 00:55:31  5-MIN KMSN 120655Z 34014G21KT 7SM CLR 06/02 A2997 820 76 0 340/14G21 RMK AO2
14837KMSN MSN20060312010009803/12/06 01:00:31  5-MIN KMSN 120700Z 33011G19KT 8SM CLR 05/01 A2997 820 76 -100 330/11G19 RMK AO2
14837KMSN MSN20060312010509203/12/06 01:05:31  5-MIN KMSN 120705Z 34009KT 8SM CLR 04/01 A2998 810 79 -200 340/09 RMK AO2
14837KMSN MSN20060312011009203/12/06 01:10:31  5-MIN KMSN 120710Z 34010KT 8SM CLR 04/01 A2998 810 79 -200 340/10 RMK AO2
14837KMSN MSN20060312011509203/12/06 01:15:31  5-MIN KMSN 120715Z 32011KT 8SM CLR 04/01 A2998 810 79 -200 320/11 RMK AO2
14837KMSN MSN20060312012009203/12/06 01:20:31  5-MIN KMSN 120720Z 33011KT 8SM CLR 04/01 A2998 810 79 -200 330/11 RMK AO2
14837KMSN MSN20060312012509203/12/06 01:25:31  5-MIN KMSN 120725Z 33010KT 8SM CLR 04/01 A2998 810 79 -300 330/10 RMK AO2
14837KMSN MSN20060312013009203/12/06 01:30:31  5-MIN KMSN 120730Z 33011KT 9SM CLR 04/01 A2998 810 79 -300 330/11 RMK AO2
14837KMSN MSN20060312013509203/12/06 01:35:31  5-MIN KMSN 120735Z 33010KT 9SM CLR 03/00 A2998 810 79 -300 330/10 RMK AO2
14837KMSN MSN20060312014009203/12/06 01:40:31  5-MIN KMSN 120740Z 33009KT 9SM CLR 03/00 A2998 810 79 -300 330/09 RMK AO2
14837KMSN MSN20060312014509203/12/06 01:45:31  5-MIN KMSN 120745Z 34008KT 9SM CLR 03/00 A2998 810 79 -300 340/08 RMK AO2
14837KMSN MSN20060312015010903/12/06 01:50:31  5-MIN KMSN 120750Z 34010KT 9SM CLR 03/00 A2998 810 79 -300 330/10 RMK AO2 SLP154 T00330000
14837KMSN MSN20060312015509203/12/06 01:55:31  5-MIN KMSN 120755Z 33008KT 9SM CLR 03/00 A2999 800 82 -400 330/08 RMK AO2
14837KMSN MSN20060312020009203/12/06 02:00:31  5-MIN KMSN 120800Z 33008KT 9SM CLR 03/00 A2999 800 82 -400 330/08 RMK AO2
14837KMSN MSN20060312020509303/12/06 02:05:31  5-MIN KMSN 120805Z 34008KT 9SM CLR 03/M01 A2999 800 79 -400 340/08 RMK AO2
14837KMSN MSN20060312021009303/12/06 02:10:31  5-MIN KMSN 120810Z 34008KT 9SM CLR 02/M01 A2999 800 82 -500 340/08 RMK AO2
14837KMSN MSN20060312021509303/12/06 02:15:31  5-MIN KMSN 120815Z 34008KT 9SM CLR 02/M01 A2999 800 82 -500 340/08 RMK AO2
14837KMSN MSN20060312022009303/12/06 02:20:31  5-MIN KMSN 120820Z 33008KT 9SM CLR 02/M01 A2999 800 82 -500 330/08 RMK AO2
14837KMSN MSN20060312022509303/12/06 02:25:31  5-MIN KMSN 120825Z 34006KT 9SM CLR 02/M01 A2999 800 82 -500 330/06 RMK AO2
14837KMSN MSN20060312023009303/12/06 02:30:31  5-MIN KMSN 120830Z 34009KT 9SM CLR 02/M01 A3000 790 82 -500 330/09 RMK AO2
14837KMSN MSN20060312023509303/12/06 02:35:31  5-MIN KMSN 120835Z 34010KT 9SM CLR 02/M01 A2999 800 82 -500 340/10 RMK AO2
14837KMSN MSN20060312024009403/12/06 02:40:31  5-MIN KMSN 120840Z 34010KT 10SM CLR 02/M01 A2999 800 78 -500 340/10 RMK AO2
14837KMSN MSN20060312024509403/12/06 02:45:31  5-MIN KMSN 120845Z 34010KT 10SM CLR 02/M01 A2999 800 82 -500 340/10 RMK AO2
14837KMSN MSN20060312025011703/12/06 02:50:31  5-MIN KMSN 120850Z 34009KT 10SM CLR 02/M01 A2999 800 82 -500 340/09 RMK AO2 SLP158 T00171011 53035
14837KMSN MSN20060312025509403/12/06 02:55:31  5-MIN KMSN 120855Z 35008KT 10SM CLR 02/M01 A2998 810 82 -500 350/08 RMK AO2
14837KMSN MSN20060312030009403/12/06 03:00:31  5-MIN KMSN 120900Z 35008KT 10SM CLR 02/M02 A2999 800 78 -500 340/08 RMK AO2
14837KMSN MSN20060312030509403/12/06 03:05:31  5-MIN KMSN 120905Z 34008KT 10SM CLR 02/M02 A2999 800 78 -500 340/08 RMK AO2
14837KMSN MSN20060312031009403/12/06 03:10:31  5-MIN KMSN 120910Z 33008KT 10SM CLR 02/M02 A2999 800 78 -500 330/08 RMK AO2
14837KMSN MSN20060312031509403/12/06 03:15:31  5-MIN KMSN 120915Z 34007KT 10SM CLR 01/M02 A2999 800 82 -600 340/07 RMK AO2
14837KMSN MSN20060312032009303/12/06 03:20:31  5-MIN KMSN 120920Z 35006KT 9SM CLR 01/M02 A2999 800 82 -600 340/06 RMK AO2
14837KMSN MSN20060312032509303/12/06 03:25:31  5-MIN KMSN 120925Z 34006KT 9SM CLR 01/M02 A2999 800 82 -600 340/06 RMK AO2
14837KMSN MSN20060312033009303/12/06 03:30:31  5-MIN KMSN 120930Z 35006KT 9SM CLR 01/M02 A2999 800 82 -600 340/06 RMK AO2
14837KMSN MSN20060312033509303/12/06 03:35:31  5-MIN KMSN 120935Z 35006KT 9SM CLR 01/M02 A2999 800 85 -700 350/06 RMK AO2
14837KMSN MSN20060312034009303/12/06 03:40:31  5-MIN KMSN 120940Z 36006KT 9SM CLR 01/M02 A2998 810 85 -700 360/06 RMK AO2
14837KMSN MSN20060312034509303/12/06 03:45:31  5-MIN KMSN 120945Z 35006KT 9SM CLR 00/M02 A2998 810 85 -700 350/06 RMK AO2
14837KMSN MSN20060312035011003/12/06 03:50:31  5-MIN KMSN 120950Z 35006KT 9SM CLR 01/M02 A2998 810 82 -700 350/06 RMK AO2 SLP157 T00061022
14837KMSN MSN20060312035509303/12/06 03:55:31  5-MIN KMSN 120955Z 34007KT 9SM CLR 01/M02 A2998 810 82 -700 340/07 RMK AO2
14837KMSN MSN20060312040009303/12/06 04:00:31  5-MIN KMSN 121000Z 36005KT 9SM CLR 00/M02 A2998 810 85 -700 360/05 RMK AO2
14837KMSN MSN20060312040509403/12/06 04:05:31  5-MIN KMSN 121005Z 01005KT 9SM CLR M01/M02 A2998 810 88 -800 010/05 RMK AO2
14837KMSN MSN20060312041009403/12/06 04:10:31  5-MIN KMSN 121010Z 36004KT 8SM CLR M01/M03 A2998 810 85 -800 360/04 RMK AO2
14837KMSN MSN20060312041509403/12/06 04:15:31  5-MIN KMSN 121015Z 34004KT 8SM CLR M01/M02 A2999 800 88 -800 330/04 RMK AO2
14837KMSN MSN20060312042009403/12/06 04:20:31  5-MIN KMSN 121020Z 34005KT 8SM CLR M01/M02 A2999 800 88 -800 340/05 RMK AO2
14837KMSN MSN20060312042509303/12/06 04:25:31  5-MIN KMSN 121025Z 35003KT 9SM CLR 00/M02 A2999 800 85 -700 350/03 RMK AO2
14837KMSN MSN20060312043009303/12/06 04:30:31  5-MIN KMSN 121030Z 35004KT 9SM CLR 00/M02 A2999 800 85 -800 350/04 RMK AO2
14837KMSN MSN20060312043509403/12/06 04:35:31  5-MIN KMSN 121035Z 00000KT 8SM CLR M01/M02 A2999 800 88 -800 000/00 RMK AO2
14837KMSN MSN20060312044009403/12/06 04:40:31  5-MIN KMSN 121040Z 00000KT 8SM CLR M01/M02 A3000 790 88 -800 000/00 RMK AO2
14837KMSN MSN20060312044509403/12/06 04:45:31  5-MIN KMSN 121045Z 35003KT 8SM CLR M01/M02 A3000 790 88 -800 350/03 RMK AO2
14837KMSN MSN20060312045011103/12/06 04:50:31  5-MIN KMSN 121050Z 00000KT 8SM CLR M01/M02 A3001 780 88 -800 000/00 RMK AO2 SLP168 T10061022
14837KMSN MSN20060312045510103/12/06 04:55:31  5-MIN KMSN 121055Z 30003KT 8SM CLR M01/M02 A3002 770 92 -900 300/03 RMK AO2 PRESRR
14837KMSN MSN20060312050009403/12/06 05:00:31  5-MIN KMSN 121100Z 33003KT 8SM CLR M01/M03 A3002 770 88 -900 320/03 RMK AO2
14837KMSN MSN20060312050509403/12/06 05:05:31  5-MIN KMSN 121105Z 34003KT 8SM CLR M01/M02 A3002 770 88 -900 340/03 RMK AO2
14837KMSN MSN20060312051009403/12/06 05:10:31  5-MIN KMSN 121110Z 33004KT 8SM CLR M01/M02 A3002 770 88 -900 330/04 RMK AO2
14837KMSN MSN20060312051509403/12/06 05:15:31  5-MIN KMSN 121115Z 35003KT 8SM CLR M01/M02 A3002 770 88 -900 350/03 RMK AO2
14837KMSN MSN20060312052009403/12/06 05:20:31  5-MIN KMSN 121120Z 34003KT 8SM CLR M01/M03 A3002 770 85 -900 340/03 RMK AO2
14837KMSN MSN20060312052509403/12/06 05:25:31  5-MIN KMSN 121125Z 30003KT 8SM CLR M01/M02 A3003 770 88 -900 300/03 RMK AO2
14837KMSN MSN20060312053009403/12/06 05:30:31  5-MIN KMSN 121130Z 30003KT 8SM CLR M01/M03 A3003 760 85 -900 300/03 RMK AO2
14837KMSN MSN20060312053509403/12/06 05:35:31  5-MIN KMSN 121135Z 31003KT 8SM CLR M01/M02 A3003 760 88 -900 310/03 RMK AO2
14837KMSN MSN20060312054009403/12/06 05:40:31  5-MIN KMSN 121140Z 32003KT 8SM CLR M01/M02 A3003 760 88 -900 320/03 RMK AO2
14837KMSN MSN20060312054509403/12/06 05:45:31  5-MIN KMSN 121145Z 00000KT 8SM CLR M01/M03 A3003 760 88 -900 000/00 RMK AO2
14837KMSN MSN20060312055013503/12/06 05:50:31  5-MIN KMSN 121150Z 00000KT 7SM CLR M01/M03 A3004 760 88 -900 000/00 RMK AO2 SLP176 70008 T10111028 10083 21011 50015
14837KMSN MSN20060312055509403/12/06 05:55:31  5-MIN KMSN 121155Z 00000KT 7SM CLR M01/M03 A3004 760 88 -900 000/00 RMK AO2
14837KMSN MSN20060312060009803/12/06 06:00:31  5-MIN KMSN 121200Z 00000KT 6SM BR CLR M02/M03 A3004 750 92 -1000 000/00 RMK AO2
14837KMSN MSN20060312060509703/12/06 06:05:31  5-MIN KMSN 121205Z 00000KT 6SM BR CLR M01/M03 A3004 750 88 -900 000/00 RMK AO2
14837KMSN MSN20060312061009703/12/06 06:10:31  5-MIN KMSN 121210Z 33003KT 6SM BR CLR M01/M03 A3004 750 88 -900 320/03 RMK AO2
14837KMSN MSN20060312061509503/12/06 06:15:31  5-MIN KMSN 121215Z 32004KT 7SM CLR M02/M03 A3004 750 92 -1000 320/04 RMK AO2
14837KMSN MSN20060312062009803/12/06 06:20:31  5-MIN KMSN 121220Z 32005KT 6SM BR CLR M02/M03 A3004 750 92 -1100 320/05 RMK AO2
14837KMSN MSN20060312062509803/12/06 06:25:31  5-MIN KMSN 121225Z 32004KT 5SM BR CLR M02/M03 A3004 750 92 -1000 310/04 RMK AO2
14837KMSN MSN20060312063009703/12/06 06:30:31  5-MIN KMSN 121230Z 32005KT 6SM BR CLR M01/M03 A3004 750 88 -900 320/05 RMK AO2
14837KMSN MSN20060312063509703/12/06 06:35:31  5-MIN KMSN 121235Z 33005KT 6SM BR CLR M01/M03 A3004 760 88 -900 330/05 RMK AO2
14837KMSN MSN20060312064009703/12/06 06:40:31  5-MIN KMSN 121240Z 34005KT 6SM BR CLR M01/M03 A3004 760 88 -900 340/05 RMK AO2
14837KMSN MSN20060312064509703/12/06 06:45:31  5-MIN KMSN 121245Z 34006KT 6SM BR CLR M01/M03 A3004 760 85 -900 340/06 RMK AO2
14837KMSN MSN20060312065011103/12/06 06:50:31  5-MIN KMSN 121250Z 34006KT 7SM CLR M01/M02 A3003 760 88 -900 340/06 RMK AO2 SLP175 T10061022
14837KMSN MSN20060312065509303/12/06 06:55:31  5-MIN KMSN 121255Z 34007KT 7SM CLR 00/M02 A3003 760 85 -800 340/07 RMK AO2
14837KMSN MSN20060312070009303/12/06 07:00:31  5-MIN KMSN 121300Z 35006KT 7SM CLR 00/M02 A3003 760 85 -800 350/06 RMK AO2
14837KMSN MSN20060312070509303/12/06 07:05:31  5-MIN KMSN 121305Z 36005KT 7SM CLR 00/M02 A3003 760 85 -800 360/05 RMK AO2
14837KMSN MSN20060312071009703/12/06 07:10:31  5-MIN KMSN 121310Z 36005KT 6SM BR CLR M01/M02 A3003 760 88 -900 360/05 RMK AO2
14837KMSN MSN20060312071509703/12/06 07:15:31  5-MIN KMSN 121315Z 36006KT 6SM BR CLR M01/M02 A3003 760 88 -900 360/06 RMK AO2
14837KMSN MSN20060312072009703/12/06 07:20:31  5-MIN KMSN 121320Z 36006KT 6SM BR CLR M01/M02 A3003 760 88 -900 360/06 RMK AO2
14837KMSN MSN20060312072509603/12/06 07:25:31  5-MIN KMSN 121325Z 36004KT 6SM BR CLR 00/M02 A3003 760 88 -800 350/04 RMK AO2
14837KMSN MSN20060312073009603/12/06 07:30:31  5-MIN KMSN 121330Z 35005KT 6SM BR CLR 01/M02 A3004 750 85 -700 350/05 RMK AO2
14837KMSN MSN20060312073509303/12/06 07:35:31  5-MIN KMSN 121335Z 01006KT 7SM CLR 01/M02 A3004 750 85 -700 010/06 RMK AO2
14837KMSN MSN20060312074009303/12/06 07:40:31  5-MIN KMSN 121340Z 02008KT 8SM CLR 01/M02 A3003 760 82 -700 020/08 RMK AO2
14837KMSN MSN20060312074509303/12/06 07:45:31  5-MIN KMSN 121345Z 03008KT 9SM CLR 01/M02 A3003 770 82 -600 030/08 RMK AO2
14837KMSN MSN20060312075011103/12/06 07:50:31  5-MIN KMSN 121350Z 03008KT 10SM CLR 02/M02 A3004 750 78 -600 030/08 RMK AO2 SLP177 T00171017
14837KMSN MSN20060312075509403/12/06 07:55:31  5-MIN KMSN 121355Z 03009KT 10SM CLR 02/M02 A3005 750 72 -500 030/09 RMK AO2
14837KMSN MSN20060312080009403/12/06 08:00:31  5-MIN KMSN 121400Z 04010KT 10SM CLR 02/M02 A3005 750 72 -500 040/10 RMK AO2
14837KMSN MSN20060312080509403/12/06 08:05:31  5-MIN KMSN 121405Z 03012KT 10SM CLR 03/M02 A3005 740 69 -500 030/12 RMK AO2
14837KMSN MSN20060312081009403/12/06 08:10:31  5-MIN KMSN 121410Z 04010KT 10SM CLR 03/M03 A3006 740 67 -500 030/10 RMK AO2
14837KMSN MSN20060312081509403/12/06 08:15:31  5-MIN KMSN 121415Z 04011KT 10SM CLR 03/M02 A3006 730 69 -500 030/11 RMK AO2
14837KMSN MSN20060312082009403/12/06 08:20:31  5-MIN KMSN 121420Z 04009KT 10SM CLR 03/M02 A3006 740 70 -400 040/09 RMK AO2
14837KMSN MSN20060312082509403/12/06 08:25:31  5-MIN KMSN 121425Z 03011KT 10SM CLR 03/M02 A3006 740 67 -400 030/11 RMK AO2
14837KMSN MSN20060312083009403/12/06 08:30:31  5-MIN KMSN 121430Z 04012KT 10SM CLR 03/M02 A3006 730 67 -400 040/12 RMK AO2
14837KMSN MSN20060312083509403/12/06 08:35:31  5-MIN KMSN 121435Z 04009KT 10SM CLR 04/M02 A3006 740 67 -300 040/09 RMK AO2
14837KMSN MSN20060312084009403/12/06 08:40:31  5-MIN KMSN 121440Z 05011KT 10SM CLR 04/M02 A3006 740 64 -300 050/11 RMK AO2
14837KMSN MSN20060312084509403/12/06 08:45:31  5-MIN KMSN 121445Z 04012KT 10SM CLR 04/M02 A3006 740 64 -300 040/12 RMK AO2
14837KMSN MSN20060312085011703/12/06 08:50:31  5-MIN KMSN 121450Z 04012KT 10SM CLR 04/M02 A3006 740 64 -300 040/12 RMK AO2 SLP182 T00391022 53018
14837KMSN MSN20060312085509403/12/06 08:55:31  5-MIN KMSN 121455Z 04013KT 10SM CLR 04/M02 A3006 730 62 -300 040/13 RMK AO2
14837KMSN MSN20060312090009403/12/06 09:00:31  5-MIN KMSN 121500Z 03011KT 10SM CLR 04/M02 A3006 730 62 -300 030/11 RMK AO2
14837KMSN MSN20060312090509403/12/06 09:05:31  5-MIN KMSN 121505Z 04011KT 10SM CLR 05/M02 A3007 730 59 -200 040/11 RMK AO2
14837KMSN MSN20060312091009403/12/06 09:10:31  5-MIN KMSN 121510Z 03012KT 10SM CLR 05/M02 A3006 730 59 -200 030/12 RMK AO2
14837KMSN MSN20060312091509403/12/06 09:15:31  5-MIN KMSN 121515Z 04010KT 10SM CLR 05/M02 A3006 730 59 -200 040/10 RMK AO2
14837KMSN MSN20060312092009403/12/06 09:20:31  5-MIN KMSN 121520Z 04010KT 10SM CLR 06/M02 A3006 730 57 -100 040/10 RMK AO2
14837KMSN MSN20060312092509703/12/06 09:25:31  5-MIN KMSN 121525Z 05012KT 10SM FEW040 06/M02 A3006 740 57 -100 050/12 RMK AO2
14837KMSN MSN20060312093009703/12/06 09:30:31  5-MIN KMSN 121530Z 05012KT 10SM FEW040 06/M03 A3007 730 55 -100 050/12 RMK AO2
14837KMSN MSN20060312093509703/12/06 09:35:31  5-MIN KMSN 121535Z 05011KT 10SM FEW040 06/M03 A3007 720 55 -200 050/11 RMK AO2
14837KMSN MSN20060312094009703/12/06 09:40:31  5-MIN KMSN 121540Z 05009KT 10SM FEW040 06/M02 A3007 730 55 -100 040/09 RMK AO2
14837KMSN MSN20060312094509403/12/06 09:45:31  5-MIN KMSN 121545Z 04011KT 10SM FEW040 07/M03 A3006 730 51 0 040/11 RMK AO2
14837KMSN MSN20060312095011103/12/06 09:50:31  5-MIN KMSN 121550Z 04011KT 10SM FEW040 07/M03 A3007 730 51 0 040/11 RMK AO2 SLP184 T00671028
14837KMSN MSN20060312095509103/12/06 09:55:31  5-MIN KMSN 121555Z 06015KT 10SM CLR 07/M03 A3007 730 49 0 060/15 RMK AO2
14837KMSN MSN20060312100009103/12/06 10:00:31  5-MIN KMSN 121600Z 05014KT 10SM CLR 07/M03 A3006 730 49 0 050/14 RMK AO2
14837KMSN MSN20060312100509403/12/06 10:05:31  5-MIN KMSN 121605Z 05015KT 10SM CLR 06/M04 A3006 740 48 -100 050/15 RMK AO2
14837KMSN MSN20060312101009403/12/06 10:10:31  5-MIN KMSN 121610Z 05013KT 10SM CLR 06/M04 A3005 740 48 -100 050/13 RMK AO2
14837KMSN MSN20060312101509103/12/06 10:15:31  5-MIN KMSN 121615Z 05012KT 10SM CLR 07/M03 A3005 750 49 0 050/12 RMK AO2
14837KMSN MSN20060312102009103/12/06 10:20:31  5-MIN KMSN 121620Z 03012KT 10SM CLR 07/M03 A3004 750 51 0 030/12 RMK AO2
14837KMSN MSN20060312102510403/12/06 10:25:31  5-MIN KMSN 121625Z 04015G20KT 10SM CLR 07/M03 A3004 760 49 0 040/15G20 RMK AO2 PRESFR
14837KMSN MSN20060312103009103/12/06 10:30:31  5-MIN KMSN 121630Z 05014KT 10SM CLR 07/M03 A3003 760 47 0 050/14 RMK AO2
14837KMSN MSN20060312103509403/12/06 10:35:31  5-MIN KMSN 121635Z 05012KT 10SM FEW045 07/M03 A3003 760 49 0 050/12 RMK AO2
14837KMSN MSN20060312104009403/12/06 10:40:31  5-MIN KMSN 121640Z 06010KT 10SM FEW045 07/M04 A3003 760 47 0 060/10 RMK AO2
14837KMSN MSN20060312104510003/12/06 10:45:31  5-MIN KMSN 121645Z 05013G18KT 10SM FEW045 07/M04 A3003 760 47 0 050/13G18 RMK AO2
14837KMSN MSN20060312105011103/12/06 10:50:31  5-MIN KMSN 121650Z 05015KT 10SM FEW045 07/M03 A3003 760 47 0 050/15 RMK AO2 SLP173 T00721033
14837KMSN MSN20060312105509103/12/06 10:55:31  5-MIN KMSN 121655Z 05015KT 10SM CLR 07/M03 A3004 760 47 0 050/15 RMK AO2
14837KMSN MSN20060312110009103/12/06 11:00:31  5-MIN KMSN 121700Z 04014KT 10SM CLR 07/M03 A3003 760 47 0 040/14 RMK AO2
14837KMSN MSN20060312110509303/12/06 11:05:31  5-MIN KMSN 121705Z 05012KT 10SM CLR 07/M03 A3003 770 47 100 050/12 RMK AO2
14837KMSN MSN20060312111009303/12/06 11:10:31  5-MIN KMSN 121710Z 05014KT 10SM CLR 07/M03 A3002 770 47 100 050/14 RMK AO2
14837KMSN MSN20060312111509303/12/06 11:15:31  5-MIN KMSN 121715Z 05011KT 10SM CLR 07/M03 A3002 770 47 100 050/11 RMK AO2
14837KMSN MSN20060312112009903/12/06 11:20:31  5-MIN KMSN 121720Z 06016G20KT 10SM CLR 08/M03 A3002 770 47 100 060/16G20 RMK AO2
14837KMSN MSN20060312112509903/12/06 11:25:31  5-MIN KMSN 121725Z 06015G20KT 10SM CLR 08/M04 A3002 770 43 100 060/15G20 RMK AO2
14837KMSN MSN20060312113009303/12/06 11:30:31  5-MIN KMSN 121730Z 05015KT 10SM CLR 08/M04 A3002 770 43 100 050/15 RMK AO2
14837KMSN MSN20060312113509303/12/06 11:35:31  5-MIN KMSN 121735Z 06015KT 10SM CLR 08/M04 A3002 770 43 100 060/15 RMK AO2
14837KMSN MSN20060312114009303/12/06 11:40:31  5-MIN KMSN 121740Z 05014KT 10SM CLR 08/M04 A3002 770 43 100 050/14 RMK AO2
14837KMSN MSN20060312114509303/12/06 11:45:31  5-MIN KMSN 121745Z 07014KT 10SM CLR 08/M04 A3002 770 42 200 070/14 RMK AO2
14837KMSN MSN20060312115012803/12/06 11:50:31  5-MIN KMSN 121750Z 07016KT 10SM CLR 08/M03 A3003 770 43 200 070/16 RMK AO2 SLP172 T00831033 10083 21022 53008
14837KMSN MSN20060312115509303/12/06 11:55:31  5-MIN KMSN 121755Z 08013KT 10SM CLR 08/M04 A3003 770 42 200 080/13 RMK AO2
14837KMSN MSN20060312120009303/12/06 12:00:31  5-MIN KMSN 121800Z 07014KT 10SM CLR 08/M04 A3003 770 42 200 070/14 RMK AO2
14837KMSN MSN20060312120509303/12/06 12:05:31  5-MIN KMSN 121805Z 07013KT 10SM CLR 08/M04 A3003 770 42 200 070/13 RMK AO2
14837KMSN MSN20060312121009303/12/06 12:10:31  5-MIN KMSN 121810Z 06011KT 10SM CLR 08/M03 A3003 760 43 200 060/11 RMK AO2
14837KMSN MSN20060312121509303/12/06 12:15:31  5-MIN KMSN 121815Z 06011KT 10SM CLR 09/M03 A3003 770 42 300 060/11 RMK AO2
14837KMSN MSN20060312122009303/12/06 12:20:31  5-MIN KMSN 121820Z 06010KT 10SM CLR 09/M03 A3003 760 43 300 060/10 RMK AO2
14837KMSN MSN20060312122509303/12/06 12:25:31  5-MIN KMSN 121825Z 08008KT 10SM CLR 09/M03 A3002 770 42 300 080/08 RMK AO2
14837KMSN MSN20060312123009303/12/06 12:30:31  5-MIN KMSN 121830Z 08012KT 10SM CLR 09/M03 A3001 780 42 300 080/12 RMK AO2
14837KMSN MSN20060312123510003/12/06 12:35:31  5-MIN KMSN 121835Z 08014KT 10SM CLR 09/M04 A3001 790 39 300 070/14 RMK AO2 PRESFR
14837KMSN MSN20060312124009303/12/06 12:40:31  5-MIN KMSN 121840Z 07013KT 10SM CLR 09/M04 A3001 780 40 300 070/13 RMK AO2
14837KMSN MSN20060312124509303/12/06 12:45:31  5-MIN KMSN 121845Z 07011KT 10SM CLR 09/M04 A3001 780 40 300 070/11 RMK AO2
14837KMSN MSN20060312125011003/12/06 12:50:31  5-MIN KMSN 121850Z 07012KT 10SM CLR 09/M04 A3001 780 40 300 070/12 RMK AO2 SLP168 T00891039
14837KMSN MSN20060312125509303/12/06 12:55:31  5-MIN KMSN 121855Z 06010KT 10SM CLR 08/M04 A3001 780 42 200 060/10 RMK AO2
14837KMSN MSN20060312130009303/12/06 13:00:31  5-MIN KMSN 121900Z 06009KT 10SM CLR 09/M03 A3000 790 42 300 060/09 RMK AO2
14837KMSN MSN20060312130509303/12/06 13:05:31  5-MIN KMSN 121905Z 08012KT 10SM CLR 09/M04 A3000 790 40 300 080/12 RMK AO2
14837KMSN MSN20060312131009303/12/06 13:10:31  5-MIN KMSN 121910Z 09011KT 10SM CLR 09/M04 A2999 800 38 300 090/11 RMK AO2
14837KMSN MSN20060312131509303/12/06 13:15:31  5-MIN KMSN 121915Z 07012KT 10SM CLR 09/M04 A3000 790 38 300 070/12 RMK AO2
14837KMSN MSN20060312132009303/12/06 13:20:31  5-MIN KMSN 121920Z 08010KT 10SM CLR 09/M04 A2999 800 38 300 080/10 RMK AO2
14837KMSN MSN20060312132509303/12/06 13:25:31  5-MIN KMSN 121925Z 09010KT 10SM CLR 09/M04 A2999 800 38 300 090/10 RMK AO2
14837KMSN MSN20060312133009303/12/06 13:30:31  5-MIN KMSN 121930Z 08009KT 10SM CLR 09/M04 A2998 810 40 300 080/09 RMK AO2
14837KMSN MSN20060312133509303/12/06 13:35:31  5-MIN KMSN 121935Z 08010KT 10SM CLR 09/M04 A2998 810 38 300 080/10 RMK AO2
14837KMSN MSN20060312134009303/12/06 13:40:31  5-MIN KMSN 121940Z 09012KT 10SM CLR 09/M04 A2998 810 38 300 090/12 RMK AO2
14837KMSN MSN20060312134509303/12/06 13:45:31  5-MIN KMSN 121945Z 10010KT 10SM CLR 09/M04 A2998 810 38 300 100/10 RMK AO2
14837KMSN MSN20060312135011003/12/06 13:50:31  5-MIN KMSN 121950Z 08011KT 10SM CLR 09/M04 A2998 810 38 300 080/11 RMK AO2 SLP157 T00891044
14837KMSN MSN20060312135509303/12/06 13:55:31  5-MIN KMSN 121955Z 08011KT 10SM CLR 09/M04 A2997 820 40 300 080/11 RMK AO2
14837KMSN MSN20060312140009303/12/06 14:00:31  5-MIN KMSN 122000Z 09011KT 10SM CLR 09/M04 A2998 810 38 300 090/11 RMK AO2
14837KMSN MSN20060312140509303/12/06 14:05:31  5-MIN KMSN 122005Z 09011KT 10SM CLR 09/M06 A2999 800 35 300 090/11 RMK AO2
14837KMSN MSN20060312141009303/12/06 14:10:31  5-MIN KMSN 122010Z 09009KT 10SM CLR 09/M05 A3000 790 37 300 090/09 RMK AO2
14837KMSN MSN20060312141509303/12/06 14:15:31  5-MIN KMSN 122015Z 09008KT 10SM CLR 09/M05 A2999 800 37 300 090/08 RMK AO2
14837KMSN MSN20060312142009603/12/06 14:20:31  5-MIN KMSN 122020Z 09008KT 10SM FEW100 09/M04 A2999 800 38 300 090/08 RMK AO2
14837KMSN MSN20060312142509603/12/06 14:25:31  5-MIN KMSN 122025Z 10010KT 10SM SCT100 09/M05 A2999 800 37 300 100/10 RMK AO2
14837KMSN MSN20060312143009603/12/06 14:30:31  5-MIN KMSN 122030Z 09008KT 10SM SCT100 08/M05 A2998 810 38 200 090/08 RMK AO2
14837KMSN MSN20060312143509603/12/06 14:35:31  5-MIN KMSN 122035Z 07011KT 10SM SCT100 08/M04 A2998 810 40 200 070/11 RMK AO2
14837KMSN MSN20060312144009603/12/06 14:40:31  5-MIN KMSN 122040Z 07011KT 10SM SCT100 08/M05 A2997 820 38 300 070/11 RMK AO2
14837KMSN MSN20060312144510303/12/06 14:45:31  5-MIN KMSN 122045Z 07009KT 10SM BKN090 08/M05 A2995 830 38 300 070/09 RMK AO2 PRESFR
14837KMSN MSN20060312145012603/12/06 14:50:31  5-MIN KMSN 122050Z 06012KT 10SM BKN090 09/M04 A2994 850 40 400 060/12 RMK AO2 PRESFR SLP144 T00891039 58011
14837KMSN MSN20060312145510003/12/06 14:55:31  5-MIN KMSN 122055Z 07010KT 10SM CLR 09/M04 A2993 850 38 400 060/10 RMK AO2 PRESFR
14837KMSN MSN20060312150010303/12/06 15:00:31  5-MIN KMSN 122100Z 06014KT 10SM BKN090 09/M04 A2992 870 38 400 060/14 RMK AO2 PRESFR
14837KMSN MSN20060312150509603/12/06 15:05:31  5-MIN KMSN 122105Z 07012KT 10SM BKN090 08/M05 A2992 860 38 300 070/12 RMK AO2
14837KMSN MSN20060312151009603/12/06 15:10:31  5-MIN KMSN 122110Z 08011KT 10SM BKN090 09/M04 A2993 850 38 400 080/11 RMK AO2
14837KMSN MSN20060312151509603/12/06 15:15:31  5-MIN KMSN 122115Z 06014KT 10SM BKN090 08/M05 A2993 850 38 300 060/14 RMK AO2
14837KMSN MSN20060312152009603/12/06 15:20:31  5-MIN KMSN 122120Z 06014KT 10SM BKN090 08/M05 A2993 860 38 300 060/14 RMK AO2
14837KMSN MSN20060312152509603/12/06 15:25:31  5-MIN KMSN 122125Z 07014KT 10SM BKN090 08/M05 A2991 870 38 300 070/14 RMK AO2
14837KMSN MSN20060312153009603/12/06 15:30:31  5-MIN KMSN 122130Z 06014KT 10SM SCT090 08/M04 A2991 870 41 300 060/14 RMK AO2
14837KMSN MSN20060312153509603/12/06 15:35:31  5-MIN KMSN 122135Z 06014KT 10SM SCT090 08/M04 A2992 870 41 200 060/14 RMK AO2
14837KMSN MSN20060312154009603/12/06 15:40:31  5-MIN KMSN 122140Z 06016KT 10SM SCT090 08/M06 A2991 870 38 300 060/16 RMK AO2
14837KMSN MSN20060312154511203/12/06 15:45:31  5-MIN KMSN 122145Z 07009KT 10SM -RA BKN070 08/M06 A2993 860 38 200 070/09 RMK AO2 RAB44 P0000
14837KMSN MSN20060312155013603/12/06 15:50:31  5-MIN KMSN 122150Z 09009KT 10SM -RA BKN070 08/M06 A2994 840 38 200 080/09 RMK AO2 RAB44 PRESRR SLP147 P0000 T00781056
14837KMSN MSN20060312155511303/12/06 15:55:31  5-MIN KMSN 122155Z 08013KT 10SM -RA BKN055 BKN070 08/M05 A2992 860 40 200 080/13 RMK AO2 P0000
14837KMSN MSN20060312160012303/12/06 16:00:31  5-MIN KMSN 122200Z 06010KT 10SM -RAPL BKN055 OVC070 07/M04 A2991 870 45 200 060/10 RMK AO2 PLB2159 P0000
14837KMSN MSN20060312160513003/12/06 16:05:31  5-MIN KMSN 122205Z 07012KT 10SM -RAPL SCT049 BKN060 OVC070 07/M03 A2992 860 49 100 070/12 RMK AO2 PLB2159 P0000
14837KMSN MSN20060312161012403/12/06 16:10:31  5-MIN KMSN 122210Z 08011KT 10SM -RA SCT049 OVC060 07/M03 A2991 870 49 100 080/11 RMK AO2 PLB2159E08 P0000
14837KMSN MSN20060312161513103/12/06 16:15:31  5-MIN KMSN 122215Z 07013KT 10SM -RA SCT047 OVC060 06/M03 A2989 890 53 100 070/13 RMK AO2 PLB2159E08 PRESFR P0000
14837KMSN MSN20060312162012403/12/06 16:20:31  5-MIN KMSN 122220Z 08011KT 10SM -RA SCT044 OVC060 06/M02 A2990 880 55 100 080/11 RMK AO2 PLB2159E08 P0000
14837KMSN MSN20060312162512303/12/06 16:25:31  5-MIN KMSN 122225Z 07012KT 9SM -RA SCT042 OVC060 06/M02 A2989 900 55 100 070/12 RMK AO2 PLB2159E08 P0000
14837KMSN MSN20060312163012103/12/06 16:30:31  5-MIN KMSN 122230Z 07011KT 9SM -RA SCT045 OVC065 06/M02 A2988 900 57 0 070/11 RMK AO2 PLB2159E08 P0000
14837KMSN MSN20060312163512203/12/06 16:35:31  5-MIN KMSN 122235Z 08010KT 10SM -RA SCT045 OVC065 06/M01 A2988 900 62 0 080/10 RMK AO2 PLB2159E08 P0000
14837KMSN MSN20060312164012903/12/06 16:40:31  5-MIN KMSN 122240Z 07016KT 10SM -RA SCT046 OVC065 06/M02 A2986 920 59 0 070/16 RMK AO2 PRESFR PLB2159E08 P0000
14837KMSN MSN20060312164512903/12/06 16:45:31  5-MIN KMSN 122245Z 07014KT 10SM -RA SCT044 BKN065 OVC085 06/M02 A2986 920 57 0 070/14 RMK AO2 PLB2159E08 P0000
14837KMSN MSN20060312165015403/12/06 16:50:31  5-MIN KMSN 122250Z 07015G20KT 10SM -RA FEW044 BKN065 OVC090 06/M02 A2985 930 57 100 070/15G20 RMK AO2 SLP116 PLB2159E08 P0000 T00561022
14837KMSN MSN20060312165513303/12/06 16:55:31  5-MIN KMSN 122255Z 06013G20KT 10SM -RA FEW042 BKN070 OVC090 06/M02 A2983 950 57 100 060/13G20 RMK AO2 PRESFR P0000
14837KMSN MSN20060312170013103/12/06 17:00:31  5-MIN KMSN 122300Z 06016KT 10SM FEW038 BKN070 OVC095 06/M02 A2982 960 57 100 060/16 RMK AO2 RAE2259 PRESFR P0000
14837KMSN MSN20060312170513103/12/06 17:05:31  5-MIN KMSN 122305Z 06014KT 10SM FEW043 BKN095 OVC110 06/M02 A2981 970 57 100 060/14 RMK AO2 RAE2259 PRESFR P0000
14837KMSN MSN20060312171012403/12/06 17:10:31  5-MIN KMSN 122310Z 05014KT 10SM FEW040 BKN095 OVC110 06/M03 A2981 960 55 100 050/14 RMK AO2 RAE2259 P0000
14837KMSN MSN20060312171512403/12/06 17:15:31  5-MIN KMSN 122315Z 05014KT 10SM FEW038 BKN095 BKN110 06/M03 A2980 970 53 100 050/14 RMK AO2 RAE2259 P0000
14837KMSN MSN20060312172011503/12/06 17:20:31  5-MIN KMSN 122320Z 06014KT 10SM FEW080 OVC100 05/M03 A2982 960 55 0 060/14 RMK AO2 RAE2259 P0000
14837KMSN MSN20060312172511703/12/06 17:25:31  5-MIN KMSN 122325Z 08011KT 10SM OVC100 06/M04 A2984 940 50 100 080/11 RMK AO2 RAE2259 PRESRR P0000
14837KMSN MSN20060312173011703/12/06 17:30:31  5-MIN KMSN 122330Z 07011KT 10SM FEW042 OVC100 06/M03 A2983 950 53 100 070/11 RMK AO2 RAE2259 P0000
14837KMSN MSN20060312173512303/12/06 17:35:31  5-MIN KMSN 122335Z 06015G19KT 10SM FEW042 OVC100 06/M04 A2983 950 50 100 060/15G19 RMK AO2 RAE2259 P0000
14837KMSN MSN20060312174012103/12/06 17:40:31  5-MIN KMSN 122340Z 06012G19KT 10SM FEW042 OVC100 05/M03 A2982 950 55 0 060/12G19 RMK AO2 RAE2259 P0000
14837KMSN MSN20060312174512203/12/06 17:45:31  5-MIN KMSN 122345Z 08014KT 10SM FEW040 SCT085 OVC100 05/M04 A2982 960 52 0 080/14 RMK AO2 RAE2259 P0000
14837KMSN MSN20060312175017003/12/06 17:50:31  5-MIN KMSN 122350Z 08013KT 10SM -RA SCT040 BKN085 OVC100 05/M04 A2982 960 52 0 080/13 RMK AO2 RAE2259B50 SLP106 P0000 60000 T00501039 10094 20050 58032
14837KMSN MSN20060312175511803/12/06 17:55:31  5-MIN KMSN 122355Z 06012KT 10SM -RA BKN038 BKN085 OVC100 05/M03 A2982 950 55 0 060/12 RMK AO2 P0000
14837KMSN MSN20060312180011803/12/06 18:00:31  5-MIN KMSN 130000Z 05012KT 10SM -RA BKN036 BKN085 OVC100 05/M03 A2982 950 55 0 050/12 RMK AO2 P0000
14837KMSN MSN20060312180511103/12/06 18:05:31  5-MIN KMSN 130005Z 04011KT 10SM -RA BKN036 OVC085 05/M03 A2982 960 57 0 040/11 RMK AO2 P0000
14837KMSN MSN20060312181010403/12/06 18:10:31  5-MIN KMSN 130010Z 05012KT 10SM -RA OVC036 04/M03 A2983 950 59 0 040/12 RMK AO2 P0000
14837KMSN MSN20060312181510403/12/06 18:15:31  5-MIN KMSN 130015Z 05009KT 10SM -RA OVC036 04/M02 A2983 950 62 0 050/09 RMK AO2 P0000
14837KMSN MSN20060312182010403/12/06 18:20:31  5-MIN KMSN 130020Z 05010KT 10SM -RA OVC036 04/M03 A2983 950 59 0 050/10 RMK AO2 P0000
14837KMSN MSN20060312182514503/12/06 18:25:31  5-MIN KMSN 130025Z 05010KT 8SM -TSRA OVC034 04/M03 A2982 950 62 -100 050/10 RMK AO2 TSB21 OCNL LTGCGCC OHD TS OHD MOV NE P0001
14837KMSN MSN20060312183014503/12/06 18:30:31  5-MIN KMSN 130030Z 05011KT 6SM -TSRA OVC034 04/M03 A2983 950 62 -100 040/11 RMK AO2 TSB21 OCNL LTGCGCC OHD TS OHD MOV NE P0002
14837KMSN MSN20060312183514503/12/06 18:35:31  5-MIN KMSN 130035Z 04010KT 5SM -TSRA OVC034 04/M03 A2983 940 62 -100 040/10 RMK AO2 TSB21 OCNL LTGCGCC OHD TS OHD MOV NE P0003
14837KMSN MSN20060312184015803/12/06 18:40:31  5-MIN KMSN 130040Z 05014G19KT 5SM -TSRA OVC034 03/M02 A2981 970 67 -100 040/14G19 RMK AO2 TSB21 PRESFR OCNL LTGCGCC OHD TS OHD MOV NE P0004
14837KMSN MSN20060312184515203/12/06 18:45:31  5-MIN KMSN 130045Z 05014KT 6SM -TSRA BKN032 OVC044 03/M02 A2979 980 67 -100 050/14 RMK AO2 TSB21 OCNL LTGCGCC OHD TS OHD MOV NE P0004
14837KMSN MSN20060312185013003/12/06 18:50:31  5-MIN KMSN 130050Z 04014KT 6SM -RA BKN032 OVC044 03/M02 A2977 1000 72 -200 040/14 RMK AO2 TSB21E46 PRESFR P0005
14837KMSN MSN20060312185512003/12/06 18:55:31  5-MIN KMSN 130055Z 05013KT 7SM -RA SCT032 BKN046 OVC085 03/M02 A2980 980 72 -200 050/13 RMK AO2 P0000
14837KMSN MSN20060312190012003/12/06 19:00:31  5-MIN KMSN 130100Z 06010KT 9SM -RA SCT032 BKN045 OVC080 03/M02 A2980 980 69 -200 060/10 RMK AO2 P0000
14837KMSN MSN20060312190512603/12/06 19:05:31  5-MIN KMSN 130105Z 07014G18KT 9SM -RA SCT030 BKN045 OVC075 03/M02 A2979 980 69 -200 060/14G18 RMK AO2 P0000
14837KMSN MSN20060312191012003/12/06 19:10:31  5-MIN KMSN 130110Z 07014KT 8SM -RA FEW030 SCT047 OVC070 03/M02 A2979 990 69 -200 070/14 RMK AO2 P0000
14837KMSN MSN20060312191512003/12/06 19:15:31  5-MIN KMSN 130115Z 06016G21KT 9SM -RA FEW030 OVC070 03/M02 A2978 1000 72 -200 060/16G21 RMK AO2 P0000
14837KMSN MSN20060312192013503/12/06 19:20:31  5-MIN KMSN 130120Z 06013G21KT 10SM -RA FEW028 SCT060 OVC070 03/M02 A2977 1000 72 -100 060/13G21 RMK AO2 PRESFR P0000
14837KMSN MSN20060312192513003/12/06 19:25:31  5-MIN KMSN 130125Z 06014G20KT 10SM FEW028 BKN055 OVC070 03/M02 A2977 1010 69 -100 060/14G20 RMK AO2 RAE24 P0000
14837KMSN MSN20060312193013003/12/06 19:30:31  5-MIN KMSN 130130Z 07011G19KT 10SM SCT027 BKN050 OVC070 03/M02 A2977 1000 72 -100 070/11G19 RMK AO2 RAE24 P0000
14837KMSN MSN20060312193513003/12/06 19:35:31  5-MIN KMSN 130135Z 08015G19KT 10SM BKN027 BKN041 OVC060 03/M02 A2976 1010 72 -100 080/15G19 RMK AO2 RAE24 P0000
14837KMSN MSN20060312194013003/12/06 19:40:31  5-MIN KMSN 130140Z 08014G19KT 10SM BKN027 BKN037 OVC060 03/M02 A2976 1020 72 -100 080/14G19 RMK AO2 RAE24 P0000
14837KMSN MSN20060312194512403/12/06 19:45:31  5-MIN KMSN 130145Z 08014KT 10SM BKN027 BKN037 OVC047 03/M02 A2976 1020 72 -100 080/14 RMK AO2 RAE24 P0000
14837KMSN MSN20060312195013403/12/06 19:50:31  5-MIN KMSN 130150Z 08014KT 10SM BKN025 OVC029 03/M02 A2976 1020 72 -100 080/14 RMK AO2 RAE24 SLP085 P0000 T00281017
14837KMSN MSN20060312195510503/12/06 19:55:31  5-MIN KMSN 130155Z 08014KT 10SM BKN023 OVC027 03/M02 A2975 1020 72 -100 070/14 RMK AO2
14837KMSN MSN20060312200010503/12/06 20:00:31  5-MIN KMSN 130200Z 07014KT 10SM BKN021 OVC027 03/M01 A2974 1030 75 -100 070/14 RMK AO2
14837KMSN MSN20060312200509803/12/06 20:05:31  5-MIN KMSN 130205Z 08014KT 10SM OVC021 03/M02 A2975 1030 72 -100 080/14 RMK AO2
14837KMSN MSN20060312201010403/12/06 20:10:31  5-MIN KMSN 130210Z 09009G18KT 10SM OVC023 03/M01 A2975 1030 75 -100 090/09G18 RMK AO2
14837KMSN MSN20060312201510403/12/06 20:15:31  5-MIN KMSN 130215Z 09009G18KT 10SM OVC023 03/M01 A2974 1030 75 -100 080/09G18 RMK AO2
14837KMSN MSN20060312202009503/12/06 20:20:31  5-MIN KMSN 130220Z 07007KT 10SM OVC023 03/M02 A2974 1030 70 0 070/07 RMK AO2
14837KMSN MSN20060312202509503/12/06 20:25:31  5-MIN KMSN 130225Z 07009KT 10SM OVC023 03/M02 A2974 1030 70 0 070/09 RMK AO2
14837KMSN MSN20060312203010203/12/06 20:30:31  5-MIN KMSN 130230Z 07010KT 10SM BKN023 OVC037 03/M01 A2973 1040 72 0 070/10 RMK AO2
14837KMSN MSN20060312203510903/12/06 20:35:31  5-MIN KMSN 130235Z 08012KT 10SM BKN025 OVC035 03/M01 A2972 1050 72 0 080/12 RMK AO2 PRESFR
14837KMSN MSN20060312204010903/12/06 20:40:31  5-MIN KMSN 130240Z 08015KT 10SM SCT025 OVC033 03/M01 A2971 1060 72 0 080/15 RMK AO2 PRESFR
14837KMSN MSN20060312204510903/12/06 20:45:31  5-MIN KMSN 130245Z 08013KT 10SM BKN028 OVC035 03/M01 A2970 1070 72 0 080/13 RMK AO2 PRESFR
14837KMSN MSN20060312205013403/12/06 20:50:31  5-MIN KMSN 130250Z 07013KT 10SM BKN028 OVC035 03/M01 A2970 1070 79 -100 070/13 RMK AO2 SLP064 60005 T00281006 58036
14837KMSN MSN20060312205510903/12/06 20:55:31  5-MIN KMSN 130255Z 06013KT 10SM BKN028 OVC035 03/M01 A2969 1080 76 0 060/13 RMK AO2 PRESFR
14837KMSN MSN20060312210010203/12/06 21:00:31  5-MIN KMSN 130300Z 07011KT 10SM BKN028 OVC035 03/M01 A2969 1080 76 0 070/11 RMK AO2
14837KMSN MSN20060312210511803/12/06 21:05:31  5-MIN KMSN 130305Z 07011KT 10SM -RA BKN026 OVC032 03/M01 A2969 1080 76 0 070/11 RMK AO2 RAB02 P0000
14837KMSN MSN20060312211011703/12/06 21:10:31  5-MIN KMSN 130310Z 07009KT 10SM -RA BKN026 OVC032 03/00 A2968 1090 79 0 070/09 RMK AO2 RAB02 P0000
14837KMSN MSN20060312211511603/12/06 21:15:31  5-MIN KMSN 130315Z 06009KT 10SM BKN023 OVC029 03/00 A2969 1080 79 0 060/09 RMK AO2 RAB02E12 P0000
14837KMSN MSN20060312212011603/12/06 21:20:31  5-MIN KMSN 130320Z 07009KT 10SM BKN023 OVC032 03/00 A2968 1090 79 0 070/09 RMK AO2 RAB02E12 P0000
14837KMSN MSN20060312212511603/12/06 21:25:31  5-MIN KMSN 130325Z 07010KT 10SM BKN023 OVC032 03/00 A2967 1090 79 0 070/10 RMK AO2 RAB02E12 P0000
14837KMSN MSN20060312213011603/12/06 21:30:31  5-MIN KMSN 130330Z 07011KT 10SM BKN021 OVC032 03/00 A2966 1100 79 0 070/11 RMK AO2 RAB02E12 P0000
14837KMSN MSN20060312213512503/12/06 21:35:31  5-MIN KMSN 130335Z 08013KT 10SM BKN021 OVC030 04/00 A2965 1110 76 100 080/13 RMK AO2 RAB02E12 PRESFR P0000
14837KMSN MSN20060312214011803/12/06 21:40:31  5-MIN KMSN 130340Z 08009KT 10SM BKN021 OVC030 04/01 A2966 1110 79 100 080/09 RMK AO2 RAB02E12 P0000
14837KMSN MSN20060312214511803/12/06 21:45:31  5-MIN KMSN 130345Z 07008KT 10SM BKN021 OVC030 04/01 A2966 1100 79 100 070/08 RMK AO2 RAB02E12 P0000
14837KMSN MSN20060312215013503/12/06 21:50:31  5-MIN KMSN 130350Z 06008KT 10SM BKN019 OVC030 04/01 A2966 1100 79 100 060/08 RMK AO2 RAB02E12 SLP050 P0000 T00390006
14837KMSN MSN20060312215511903/12/06 21:55:31  5-MIN KMSN 130355Z 05010KT 10SM -RA BKN019 OVC030 04/01 A2965 1110 79 100 050/10 RMK AO2 RAB54 P0000
14837KMSN MSN20060312220010503/12/06 22:00:31  5-MIN KMSN 130400Z 04010KT 9SM -RA OVC019 04/01 A2965 1110 79 100 030/10 RMK AO2 P0000
14837KMSN MSN20060312220514603/12/06 22:05:31  5-MIN KMSN 130405Z 03010KT 7SM -TSRA OVC019 04/01 A2964 1120 79 100 030/10 RMK AO2 TSB00 OCNL LTGICCC VC W TS VC W MOV NE P0001
14837KMSN MSN20060312221014503/12/06 22:10:31  5-MIN KMSN 130410Z 03012KT 4SM TSRA OVC019 04/01 A2964 1120 82 100 030/12 RMK AO2 TSB00 OCNL LTGICCC VC W TS VC W MOV NE P0003
14837KMSN MSN20060312221514503/12/06 22:15:31  5-MIN KMSN 130415Z 36008KT 4SM TSRA OVC019 04/01 A2965 1110 82 100 360/08 RMK AO2 TSB00 OCNL LTGICCC VC W TS VC W MOV NE P0004
14837KMSN MSN20060312222014503/12/06 22:20:31  5-MIN KMSN 130420Z 32007KT 4SM -TSRA BR OVC019 03/02 A2966 1110 89 0 320/07 RMK AO2 TSB00 OCNL LTGICCC OHD TS OHD MOV NE P0006
14837KMSN MSN20060312222514503/12/06 22:25:31  5-MIN KMSN 130425Z 35008KT 4SM -TSRA BR OVC019 03/02 A2965 1110 89 0 350/08 RMK AO2 TSB00 OCNL LTGICCC OHD TS OHD MOV NE P0008
14837KMSN MSN20060312223014503/12/06 22:30:31  5-MIN KMSN 130430Z 01011KT 4SM -TSRA BR OVC019 03/02 A2964 1120 92 0 010/11 RMK AO2 TSB00 OCNL LTGICCC OHD TS OHD MOV NE P0010
14837KMSN MSN20060312223515203/12/06 22:35:31  5-MIN KMSN 130435Z 01014KT 4SM -TSRA BR OVC017 03/02 A2962 1150 92 0 010/14 RMK AO2 PRESFR TSB00 OCNL LTGICCC OHD TS OHD MOV NE P0012
14837KMSN MSN20060312224015203/12/06 22:40:31  5-MIN KMSN 130440Z 02014KT 4SM -TSRA BR OVC017 03/02 A2961 1150 92 0 020/14 RMK AO2 PRESFR TSB00 OCNL LTGICCC OHD TS OHD MOV NE P0014
14837KMSN MSN20060312224514503/12/06 22:45:31  5-MIN KMSN 130445Z 36012KT 4SM -TSRA BR OVC017 03/02 A2961 1150 92 0 360/12 RMK AO2 TSB00 OCNL LTGICCC OHD TS OHD MOV NE P0016
14837KMSN MSN20060312225016203/12/06 22:50:31  5-MIN KMSN 130450Z 35011KT 5SM -TSRA BR OVC017 03/02 A2963 1140 92 0 350/11 RMK AO2 SLP039 TSB00 OCNL LTGICCC OHD TS OHD MOV NE P0018 T00280017
14837KMSN MSN20060312225510503/12/06 22:55:31  5-MIN KMSN 130455Z 35011KT 5SM RA BR OVC015 03/02 A2963 1130 92 0 350/11 RMK AO2 P0000
14837KMSN MSN20060312230011003/12/06 23:00:31  5-MIN KMSN 130500Z 35012KT 7SM -RA OVC015 03/02 A2965 1120 92 0 350/12 RMK AO2 PRESRR P0001
14837KMSN MSN20060312230510303/12/06 23:05:31  5-MIN KMSN 130505Z 36010KT 8SM -RA OVC015 03/02 A2965 1110 92 0 360/10 RMK AO2 P0001
14837KMSN MSN20060312231010603/12/06 23:10:31  5-MIN KMSN 130510Z 01012KT 6SM -RA BR OVC015 03/02 A2965 1120 92 0 010/12 RMK AO2 P0001
14837KMSN MSN20060312231510603/12/06 23:15:31  5-MIN KMSN 130515Z 01010KT 5SM -RA BR OVC015 03/02 A2964 1120 92 0 360/10 RMK AO2 P0003
14837KMSN MSN20060312232010603/12/06 23:20:31  5-MIN KMSN 130520Z 01010KT 5SM -RA BR OVC015 03/02 A2963 1130 92 0 010/10 RMK AO2 P0004
14837KMSN MSN20060312232515103/12/06 23:25:31  5-MIN KMSN 130525Z 03011KT 4SM TSRA BR OVC015 03/02 A2962 1140 92 0 030/11 RMK AO2 TSB21 PRESFR OCNL LTGICCC OHD TS OHD MOV NE P0006
14837KMSN MSN20060312233014403/12/06 23:30:31  5-MIN KMSN 130530Z 04009KT 4SM TSRA BR OVC015 03/02 A2962 1150 92 0 040/09 RMK AO2 TSB21 OCNL LTGICCC OHD TS OHD MOV NE P0008
14837KMSN MSN20060312233515703/12/06 23:35:31  5-MIN KMSN 130535Z 03011G17KT 4SM TSRA BR SCT008 OVC015 03/02 A2961 1150 92 0 030/11G17 RMK AO2 TSB21 OCNL LTGICCC OHD TS OHD MOV NE P0010
14837KMSN MSN20060312234015103/12/06 23:40:31  5-MIN KMSN 130540Z 01009KT 4SM TSRA BR SCT008 OVC015 03/02 A2962 1140 92 0 010/09 RMK AO2 TSB21 OCNL LTGICCC OHD TS OHD MOV NE P0011
14837KMSN MSN20060312234513803/12/06 23:45:31  5-MIN KMSN 130545Z 03012G17KT 5SM -RA BR BKN008 OVC015 03/02 A2961 1150 92 0 030/12G17 RMK AO2 TSB21E43 TS MOV NE P0013
14837KMSN MSN20060312235019003/12/06 23:50:31  5-MIN KMSN 130550Z 04014KT 5SM -RA BR BKN008 OVC015 03/02 A2959 1170 92 0 040/14 RMK AO2 TSB21E43 PRESFR SLP024 TS MOV NE P0013 60037 T00280017 10050 20028 400941022 58029
14837KMSN MSN20060312235512003/12/06 23:55:31  5-MIN KMSN 130555Z 04015KT 5SM -RA BR BKN008 OVC013 03/02 A2958 1180 92 0 040/15 RMK AO2 PRESFR P0002
14837KMSN MSN20060313000011303/13/06 00:00:38  5-MIN KMSN 130600Z 03012KT 6SM -RA BR BKN008 OVC013 03/02 A2960 1160 92 0 030/12 RMK AO2 P0002
14837KMSN MSN20060313000511003/13/06 00:05:31  5-MIN KMSN 130605Z 04012KT 8SM -RA BKN008 OVC013 03/02 A2959 1170 92 0 040/12 RMK AO2 P0002
14837KMSN MSN20060313001011003/13/06 00:10:31  5-MIN KMSN 130610Z 04016KT 8SM -RA BKN008 OVC013 03/01 A2958 1180 89 0 040/16 RMK AO2 P0002
14837KMSN MSN20060313001511003/13/06 00:15:34  5-MIN KMSN 130615Z 04014KT 7SM -RA BKN008 OVC013 02/01 A2956 1200 92 0 040/14 RMK AO2 P0002
14837KMSN MSN20060313002011703/13/06 00:20:31  5-MIN KMSN 130620Z 03016KT 8SM -RA BKN008 OVC013 02/01 A2954 1210 92 0 030/16 RMK AO2 PRESFR P0003
14837KMSN MSN20060313002511603/13/06 00:25:31  5-MIN KMSN 130625Z 03018G22KT 9SM -RA BKN008 OVC013 02/01 A2954 1220 92 0 030/18G22 RMK AO2 P0003
14837KMSN MSN20060313003011903/13/06 00:30:31  5-MIN KMSN 130630Z 03016G23KT 10SM BKN008 OVC013 02/01 A2954 1220 92 0 030/16G23 RMK AO2 RAE28 P0003
14837KMSN MSN20060313003511903/13/06 00:35:31  5-MIN KMSN 130635Z 04019G23KT 10SM BKN006 OVC013 02/01 A2953 1220 92 0 040/19G23 RMK AO2 RAE28 P0003
14837KMSN MSN20060313004011503/13/06 00:40:31  5-MIN KMSN 130640Z 05019KT 10SM BKN006 OVC015 03/01 A2953 1220 89 100 050/19 RMK AO2 RAE28 P0003
14837KMSN MSN20060313004512103/13/06 00:45:31  5-MIN KMSN 130645Z 05020G24KT 10SM SCT006 OVC017 03/01 A2953 1230 89 100 050/20G24 RMK AO2 RAE28 P0003
14837KMSN MSN20060313005013803/13/06 00:50:31  5-MIN KMSN 130650Z 06018G24KT 10SM FEW006 OVC017 03/01 A2952 1230 89 100 060/18G24 RMK AO2 RAE28 SLP002 P0003 T00280011
14837KMSN MSN20060313005510903/13/06 00:55:31  5-MIN KMSN 130655Z 06017G24KT 10SM FEW006 OVC017 03/01 A2953 1230 89 100 060/17G24 RMK AO2
14837KMSN MSN20060313010010903/13/06 01:00:31  5-MIN KMSN 130700Z 05015G24KT 10SM FEW006 OVC017 03/01 A2953 1230 89 100 050/15G24 RMK AO2
14837KMSN MSN20060313010510203/13/06 01:05:31  5-MIN KMSN 130705Z 05015G23KT 10SM OVC015 03/01 A2953 1220 89 100 050/15G23 RMK AO2
14837KMSN MSN20060313011010903/13/06 01:10:31  5-MIN KMSN 130710Z 06014G23KT 10SM OVC015 03/02 A2955 1210 92 100 050/14G23 RMK AO2 PRESRR
14837KMSN MSN20060313011510303/13/06 01:15:31  5-MIN KMSN 130715Z 05014KT 10SM FEW008 OVC015 03/02 A2954 1220 92 100 050/14 RMK AO2
14837KMSN MSN20060313012010303/13/06 01:20:31  5-MIN KMSN 130720Z 07010KT 10SM FEW008 OVC015 03/02 A2955 1210 92 100 060/10 RMK AO2
14837KMSN MSN20060313012510303/13/06 01:25:31  5-MIN KMSN 130725Z 06012KT 10SM FEW008 OVC013 03/02 A2953 1230 92 100 060/12 RMK AO2
14837KMSN MSN20060313013010303/13/06 01:30:31  5-MIN KMSN 130730Z 05013KT 10SM FEW008 OVC013 03/02 A2953 1230 92 100 050/13 RMK AO2
14837KMSN MSN20060313013510303/13/06 01:35:31  5-MIN KMSN 130735Z 04009KT 10SM FEW008 OVC013 03/02 A2954 1220 92 100 030/09 RMK AO2
14837KMSN MSN20060313014010303/13/06 01:40:31  5-MIN KMSN 130740Z 01011KT 10SM SCT008 OVC013 03/02 A2954 1210 92 100 010/11 RMK AO2
14837KMSN MSN20060313014510303/13/06 01:45:31  5-MIN KMSN 130745Z 02011KT 10SM BKN008 OVC013 03/02 A2954 1220 92 100 020/11 RMK AO2
14837KMSN MSN20060313015010303/13/06 01:50:31  5-MIN KMSN 130750Z 02011KT 10SM BKN008 OVC013 03/02 A2954 1220 92 100 020/11 RMK AO2
14837KMSN MSN20060313015510303/13/06 01:55:31  5-MIN KMSN 130755Z 03010KT 10SM BKN008 OVC013 03/02 A2955 1210 89 100 030/10 RMK AO2
14837KMSN MSN20060313020010303/13/06 02:00:31  5-MIN KMSN 130800Z 04011KT 10SM BKN008 OVC013 03/02 A2954 1220 89 100 030/11 RMK AO2
14837KMSN MSN20060313020510303/13/06 02:05:31  5-MIN KMSN 130805Z 05010KT 10SM BKN008 OVC013 03/02 A2954 1220 89 100 050/10 RMK AO2
14837KMSN MSN20060313021010303/13/06 02:10:31  5-MIN KMSN 130810Z 06010KT 10SM SCT008 OVC013 03/02 A2953 1230 89 100 050/10 RMK AO2
14837KMSN MSN20060313021511003/13/06 02:15:31  5-MIN KMSN 130815Z 04011KT 10SM SCT008 OVC013 03/02 A2952 1240 92 200 040/11 RMK AO2 PRESFR
14837KMSN MSN20060313022010303/13/06 02:20:31  5-MIN KMSN 130820Z 04010KT 10SM FEW008 OVC013 03/02 A2952 1240 92 200 040/10 RMK AO2
14837KMSN MSN20060313022510303/13/06 02:25:31  5-MIN KMSN 130825Z 04008KT 10SM SCT008 OVC013 03/02 A2953 1230 92 200 040/08 RMK AO2
14837KMSN MSN20060313023010803/13/06 02:30:31  5-MIN KMSN 130830Z 05009KT 10SM OVC010 03/02 A2952 1230 92 200 050/09 RMK AO2 CIG 007V013
14837KMSN MSN20060313023509603/13/06 02:35:31  5-MIN KMSN 130835Z 07007KT 10SM OVC010 03/02 A2953 1230 92 100 070/07 RMK AO2
14837KMSN MSN20060313024012303/13/06 02:40:31  5-MIN KMSN 130840Z 08007KT 9SM -RA OVC010 04/02 A2953 1220 89 200 080/07 RMK AO2 RAB37 CIG 007V012 P0000
14837KMSN MSN20060313024512603/13/06 02:45:31  5-MIN KMSN 130845Z 03008KT 6SM -RA BR OVC010 03/02 A2952 1240 92 200 030/08 RMK AO2 RAB37 CIG 007V012 P0000
14837KMSN MSN20060313025016203/13/06 02:50:31  5-MIN KMSN 130850Z 03011KT 4SM -RA BR OVC010 03/03 A2949 1270 96 200 030/11 RMK AO2 RAB37 CIG 007V012 PRESFR SLP990 P0001 60004 T00330028 58038
14837KMSN MSN20060313025512203/13/06 02:55:31  5-MIN KMSN 130855Z 04010KT 4SM -RA BR BKN007 OVC010 03/03 A2948 1270 96 200 040/10 RMK AO2 PRESFR P0000
14837KMSN MSN20060313030011503/13/06 03:00:31  5-MIN KMSN 130900Z 04011KT 4SM -RA BR BKN007 OVC010 03/03 A2948 1280 96 200 040/11 RMK AO2 P0000
14837KMSN MSN20060313030510803/13/06 03:05:31  5-MIN KMSN 130905Z 02011KT 6SM -RA BR OVC007 03/03 A2947 1280 96 200 020/11 RMK AO2 P0001
14837KMSN MSN20060313031012403/13/06 03:10:31  5-MIN KMSN 130910Z 03009KT 7SM -RA OVC007 03/02 A2946 1300 92 200 030/09 RMK AO2 CIG 004V009 PRESFR P0001
14837KMSN MSN20060313031511703/13/06 03:15:31  5-MIN KMSN 130915Z 04006KT 7SM -RA OVC007 03/02 A2947 1280 92 200 040/06 RMK AO2 CIG 004V008 P0001
14837KMSN MSN20060313032012003/13/06 03:20:31  5-MIN KMSN 130920Z 02007KT 6SM -RA BR OVC007 03/02 A2950 1260 92 200 020/07 RMK AO2 CIG 004V008 P0001
14837KMSN MSN20060313032512003/13/06 03:25:31  5-MIN KMSN 130925Z 03008KT 4SM -RA BR OVC005 03/02 A2947 1280 92 200 030/08 RMK AO2 CIG 004V008 P0002
14837KMSN MSN20060313033014503/13/06 03:30:31  5-MIN KMSN 130930Z 07008KT 3SM -TSRA BR OVC005 03/02 A2947 1280 92 200 070/08 RMK AO2 TSB27 OCNL LTGCC OHD TS OHD MOV NE P0003
14837KMSN MSN20060313033514403/13/06 03:35:31  5-MIN KMSN 130935Z 06006KT 3SM TSRA BR OVC005 03/02 A2947 1290 92 200 060/06 RMK AO2 TSB27 OCNL LTGCC OHD TS OHD MOV NE P0005
14837KMSN MSN20060313034014503/13/06 03:40:31  5-MIN KMSN 130940Z 04005KT 3SM -TSRA BR OVC005 03/03 A2946 1290 96 200 040/05 RMK AO2 TSB27 OCNL LTGCC OHD TS OHD MOV NE P0006
14837KMSN MSN20060313034514903/13/06 03:45:31  5-MIN KMSN 130945Z 04008KT 7SM -TSRA OVC005 03/03 A2945 1310 96 200 040/08 RMK AO2 TSB27 PRESFR OCNL LTGCC OHD TS OHD MOV NE P0006
14837KMSN MSN20060313035012703/13/06 03:50:31  5-MIN KMSN 130950Z 07006KT 5SM -RA BR OVC005 03/03 A2944 1310 96 300 070/06 RMK AO2 TSB27E48 TS MOV NE P0006
14837KMSN MSN20060313035509503/13/06 03:55:31  5-MIN KMSN 130955Z 07011KT 7SM OVC005 04/03 A2944 1320 92 300 070/11 RMK AO2
14837KMSN MSN20060313040009503/13/06 04:00:31  5-MIN KMSN 131000Z 07012KT 9SM OVC005 04/03 A2944 1310 92 300 070/12 RMK AO2
14837KMSN MSN20060313040509503/13/06 04:05:31  5-MIN KMSN 131005Z 04009KT 9SM OVC005 04/03 A2943 1320 92 300 040/09 RMK AO2
14837KMSN MSN20060313041009503/13/06 04:10:31  5-MIN KMSN 131010Z 04010KT 9SM OVC005 04/03 A2942 1330 92 300 040/10 RMK AO2
14837KMSN MSN20060313041509603/13/06 04:15:31  5-MIN KMSN 131015Z 04011KT 10SM OVC005 04/03 A2942 1330 92 300 040/11 RMK AO2
14837KMSN MSN20060313042009603/13/06 04:20:31  5-MIN KMSN 131020Z 04012KT 10SM OVC005 04/03 A2941 1340 92 400 040/12 RMK AO2
14837KMSN MSN20060313042509603/13/06 04:25:31  5-MIN KMSN 131025Z 05012KT 10SM OVC005 04/03 A2941 1340 92 400 050/12 RMK AO2
14837KMSN MSN20060313043009603/13/06 04:30:31  5-MIN KMSN 131030Z 06013KT 10SM OVC005 04/03 A2941 1340 92 400 060/13 RMK AO2
14837KMSN MSN20060313043509603/13/06 04:35:31  5-MIN KMSN 131035Z 05010KT 10SM OVC005 04/03 A2940 1350 92 400 050/10 RMK AO2
14837KMSN MSN20060313044010303/13/06 04:40:31  5-MIN KMSN 131040Z 04011KT 10SM OVC005 04/03 A2939 1360 92 400 040/11 RMK AO2 PRESFR
14837KMSN MSN20060313044509503/13/06 04:45:31  5-MIN KMSN 131045Z 05011KT 9SM OVC005 04/03 A2939 1360 92 400 050/11 RMK AO2
14837KMSN MSN20060313045011203/13/06 04:50:31  5-MIN KMSN 131050Z 05011KT 9SM OVC005 04/03 A2938 1370 92 400 050/11 RMK AO2 SLP955 T00390028
14837KMSN MSN20060313045509503/13/06 04:55:31  5-MIN KMSN 131055Z 05012KT 9SM OVC005 04/03 A2938 1370 92 400 050/12 RMK AO2
14837KMSN MSN20060313050009503/13/06 05:00:31  5-MIN KMSN 131100Z 06013KT 8SM OVC005 03/03 A2937 1380 96 300 060/13 RMK AO2
14837KMSN MSN20060313050509503/13/06 05:05:31  5-MIN KMSN 131105Z 06011KT 8SM OVC005 03/03 A2937 1380 96 300 060/11 RMK AO2
14837KMSN MSN20060313051009503/13/06 05:10:31  5-MIN KMSN 131110Z 06009KT 8SM OVC005 03/03 A2937 1380 96 300 060/09 RMK AO2
14837KMSN MSN20060313051510103/13/06 05:15:31  5-MIN KMSN 131115Z 07013G19KT 7SM OVC003 03/03 A2936 1390 96 400 070/13G19 RMK AO2
14837KMSN MSN20060313052010103/13/06 05:20:31  5-MIN KMSN 131120Z 08012G19KT 7SM OVC003 03/03 A2936 1390 96 400 080/12G19 RMK AO2
14837KMSN MSN20060313052509503/13/06 05:25:31  5-MIN KMSN 131125Z 09011KT 7SM OVC003 03/03 A2935 1390 96 400 080/11 RMK AO2
14837KMSN MSN20060313053009503/13/06 05:30:31  5-MIN KMSN 131130Z 08013KT 7SM OVC003 03/03 A2935 1400 96 400 080/13 RMK AO2
14837KMSN MSN20060313053509803/13/06 05:35:31  5-MIN KMSN 131135Z 08012KT 6SM BR OVC003 03/03 A2934 1410 96 400 080/12 RMK AO2
14837KMSN MSN20060313054010503/13/06 05:40:31  5-MIN KMSN 131140Z 08013KT 6SM BR OVC003 03/03 A2933 1410 96 400 080/13 RMK AO2 PRESFR
14837KMSN MSN20060313054509803/13/06 05:45:31  5-MIN KMSN 131145Z 08012KT 5SM BR OVC003 03/03 A2933 1420 96 400 080/12 RMK AO2
14837KMSN MSN20060313055014503/13/06 05:50:31  5-MIN KMSN 131150Z 08011KT 5SM BR OVC003 03/03 A2932 1420 96 400 080/11 RMK AO2 SLP935 60011 70048 T00330028 10039 20028 58013
14837KMSN MSN20060313055509803/13/06 05:55:31  5-MIN KMSN 131155Z 10009KT 5SM BR OVC003 03/03 A2933 1410 96 400 090/09 RMK AO2
14837KMSN MSN20060313060009803/13/06 06:00:31  5-MIN KMSN 131200Z 08009KT 5SM BR OVC003 03/03 A2933 1420 96 400 080/09 RMK AO2
14837KMSN MSN20060313060509803/13/06 06:05:31  5-MIN KMSN 131205Z 08011KT 5SM BR OVC003 03/03 A2933 1420 96 400 080/11 RMK AO2
14837KMSN MSN20060313061010403/13/06 06:10:31  5-MIN KMSN 131210Z VRB04G15KT 5SM BR OVC003 04/03 A2934 1400 96 400 VRB/04G15 RMK AO2
14837KMSN MSN20060313061510503/13/06 06:15:31  5-MIN KMSN 131215Z 08015KT 3SM BR OVC003 04/03 A2931 1430 92 500 080/15 RMK AO2 PRESFR
14837KMSN MSN20060313062011203/13/06 06:20:31  5-MIN KMSN 131220Z 09014KT 1SM BR OVC003 04/03 A2931 1430 92 500 090/14 RMK AO2 SFC VIS 1 1/2
14837KMSN MSN20060313062511403/13/06 06:25:31  5-MIN KMSN 131225Z 10007KT 070V140 1SM BR OVC003 04/03 A2931 1430 96 500 100/07 070V140 RMK AO2
14837KMSN MSN20060313063009803/13/06 06:30:31  5-MIN KMSN 131230Z VRB05KT 1SM BR OVC003 04/03 A2932 1430 96 500 VRB/05 RMK AO2
14837KMSN MSN20060313063511703/13/06 06:35:31  5-MIN KMSN 131235Z 10014KT 3/4SM BR OVC003 04/03 A2929 1450 96 500 090/14 RMK AO2 SFC VIS 1 PRESFR
14837KMSN MSN20060313064010603/13/06 06:40:31  5-MIN KMSN 131240Z 11013G20KT 3/4SM BR OVC002 04/03 A2929 1450 96 500 110/13G20 RMK AO2
14837KMSN MSN20060313064511903/13/06 06:45:31  5-MIN KMSN 131245Z 13005G20KT 1/2SM BR OVC002 04/04 A2929 1450 100 500 130/05G20 RMK AO2 SFC VIS 3/4
14837KMSN MSN20060313065013003/13/06 06:50:31  5-MIN KMSN 131250Z 10010KT 1/2SM BR OVC002 04/04 A2928 1460 100 500 100/10 RMK AO2 SFC VIS 3/4 SLP921 T00390039
14837KMSN MSN20060313065511203/13/06 06:55:31  5-MIN KMSN 131255Z 10011KT 1/4SM FG OVC002 04/04 A2927 1470 96 600 100/11 RMK AO2 SFC VIS 1/2
14837KMSN MSN20060313070011903/13/06 07:00:31  5-MIN KMSN 131300Z 10007KT 1/4SM FG OVC002 04/04 A2926 1480 96 600 100/07 RMK AO2 SFC VIS 1/2 PRESFR
14837KMSN MSN20060313070511203/13/06 07:05:31  5-MIN KMSN 131305Z 12011KT 1/4SM FG OVC002 04/04 A2926 1480 96 600 120/11 RMK AO2 SFC VIS 1/2
14837KMSN MSN20060313071010103/13/06 07:10:31  5-MIN KMSN 131310Z 13009KT 1/4SM FG OVC002 04/04 A2926 1480 100 600 130/09 RMK AO2
14837KMSN MSN20060313071510003/13/06 07:15:31  5-MIN KMSN 131315Z 14007KT 1/4SM FG OVC002 05/04 A2927 1470 96 700 140/07 RMK AO2
14837KMSN MSN20060313072010003/13/06 07:20:31  5-MIN KMSN 131320Z 15006KT 1/4SM FG OVC002 05/04 A2927 1470 96 700 150/06 RMK AO2
14837KMSN MSN20060313072510003/13/06 07:25:31  5-MIN KMSN 131325Z 13007KT 1/4SM FG OVC002 05/04 A2927 1470 96 700 130/07 RMK AO2
14837KMSN MSN20060313073010103/13/06 07:30:31  5-MIN KMSN 131330Z 15007KT 1/4SM FG OVC002 05/05 A2927 1470 100 700 150/07 RMK AO2
14837KMSN MSN20060313073510103/13/06 07:35:31  5-MIN KMSN 131335Z 16005KT 1/4SM FG OVC002 05/05 A2926 1480 100 700 160/05 RMK AO2
14837KMSN MSN20060313074011303/13/06 07:40:31  5-MIN KMSN 131340Z VRB04KT 1/4SM FG OVC002 06/06 A2926 1480 100 700 VRB/04 RMK AO2 SFC VIS 1/2
14837KMSN MSN20060313074511203/13/06 07:45:31  5-MIN KMSN 131345Z VRB03KT 1/4SM FG OVC002 06/05 A2926 1480 96 700 VRB/03 RMK AO2 SFC VIS 1/2
14837KMSN MSN20060313075012903/13/06 07:50:31  5-MIN KMSN 131350Z 00000KT 1/4SM FG OVC002 06/05 A2926 1480 96 700 000/00 RMK AO2 SFC VIS 1/2 SLP912 T00560050
14837KMSN MSN20060313075511203/13/06 07:55:31  5-MIN KMSN 131355Z 16005KT 1/4SM FG OVC002 06/05 A2925 1490 96 700 160/05 RMK AO2 SFC VIS 1/2
14837KMSN MSN20060313080011203/13/06 08:00:31  5-MIN KMSN 131400Z 14004KT 1/4SM FG OVC002 06/06 A2924 1500 96 800 140/04 RMK AO2 SFC VIS 1/2
14837KMSN MSN20060313080510803/13/06 08:05:31  5-MIN KMSN 131405Z 00000KT 1/4SM FG OVC002 06/06 A2923 1510 100 800 000/00 RMK AO2 PRESFR
14837KMSN MSN20060313081012003/13/06 08:10:31  5-MIN KMSN 131410Z VRB05KT 1/4SM FG OVC002 06/06 A2922 1520 100 900 VRB/05 RMK AO2 SFC VIS 1/2 PRESFR
14837KMSN MSN20060313081511603/13/06 08:15:31  5-MIN KMSN 131415Z VRB05KT 1 1/4SM BR OVC002 07/06 A2922 1520 96 900 VRB/05 RMK AO2 SFC VIS 1 3/4
14837KMSN MSN20060313082012103/13/06 08:20:31  5-MIN KMSN 131420Z 17009KT 2SM BR OVC002 07/07 A2922 1520 96 1000 170/09 RMK AO2 SFC VIS 4 CIG 001V005
14837KMSN MSN20060313082511303/13/06 08:25:31  5-MIN KMSN 131425Z 18011KT 4SM BR BKN002 BKN015 OVC019 07/07 A2923 1510 96 1000 180/11 RMK AO2
14837KMSN MSN20060313083011903/13/06 08:30:31  5-MIN KMSN 131430Z 20013G18KT 4SM BR SCT002 BKN014 OVC019 08/07 A2923 1510 96 1000 200/13G18 RMK AO2
14837KMSN MSN20060313083513503/13/06 08:35:31  5-MIN KMSN 131435Z 20011G22KT 3SM -DZ BR SCT002 BKN014 OVC019 08/07 A2923 1510 93 1100 200/11G22 RMK AO2 DZB34 P0000
14837KMSN MSN20060313084013503/13/06 08:40:31  5-MIN KMSN 131440Z 21013G22KT 3SM -DZ BR FEW002 BKN014 OVC019 08/07 A2922 1520 93 1100 210/13G22 RMK AO2 DZB34 P0000
14837KMSN MSN20060313084513503/13/06 08:45:31  5-MIN KMSN 131445Z 22012G19KT 5SM -DZ BR FEW002 BKN014 OVC019 09/07 A2923 1510 89 1200 220/12G19 RMK AO2 DZB34 P0000
14837KMSN MSN20060313085015003/13/06 08:50:31  5-MIN KMSN 131450Z 22016G23KT 5SM -DZ BR OVC014 09/07 A2923 1510 89 1200 220/16G23 RMK AO2 DZB34 SLP902 P0000 60000 T00890072 58051
14837KMSN MSN20060313085511503/13/06 08:55:31  5-MIN KMSN 131455Z 22016G24KT 6SM -DZ BR OVC014 09/07 A2923 1510 86 1200 220/16G24 RMK AO2 P0000
14837KMSN MSN20060313090011503/13/06 09:00:31  5-MIN KMSN 131500Z 22012G24KT 6SM -DZ BR OVC014 09/07 A2924 1500 86 1200 220/12G24 RMK AO2 P0000
14837KMSN MSN20060313090511703/13/06 09:05:31  5-MIN KMSN 131505Z 22013G22KT 6SM BR OVC014 09/07 A2924 1500 86 1200 220/13G22 RMK AO2 DZE05 P0000
14837KMSN MSN20060313091011703/13/06 09:10:31  5-MIN KMSN 131510Z 22015G22KT 6SM BR OVC014 09/07 A2924 1500 86 1200 220/15G22 RMK AO2 DZE05 P0000
14837KMSN MSN20060313091511703/13/06 09:15:31  5-MIN KMSN 131515Z 23015G20KT 6SM BR OVC014 08/06 A2925 1490 86 1100 230/15G20 RMK AO2 DZE05 P0000
14837KMSN MSN20060313092011403/13/06 09:20:31  5-MIN KMSN 131520Z 23013G24KT 7SM OVC014 08/06 A2925 1490 82 1100 230/13G24 RMK AO2 DZE05 P0000
14837KMSN MSN20060313092512103/13/06 09:25:31  5-MIN KMSN 131525Z 23015G24KT 7SM BKN014 OVC018 08/05 A2926 1480 82 1000 230/15G24 RMK AO2 DZE05 P0000
14837KMSN MSN20060313093012003/13/06 09:30:31  5-MIN KMSN 131530Z 23015G25KT 8SM BKN014 OVC020 07/04 A2926 1480 82 900 230/15G25 RMK AO2 DZE05 P0000
14837KMSN MSN20060313093513103/13/06 09:35:31  5-MIN KMSN 131535Z 23017G30KT 9SM BKN016 07/04 A2926 1480 79 900 230/17G30 RMK AO2 PK WND 22030/1532 DZE05 P0000
14837KMSN MSN20060313094013203/13/06 09:40:31  5-MIN KMSN 131540Z 23020G30KT 10SM BKN016 07/03 A2926 1480 76 900 230/20G30 RMK AO2 PK WND 22030/1532 DZE05 P0000
14837KMSN MSN20060313094513903/13/06 09:45:31  5-MIN KMSN 131545Z 23014G27KT 10SM SCT015 OVC022 07/03 A2926 1480 79 900 230/14G27 RMK AO2 PK WND 22030/1532 DZE05 P0000
14837KMSN MSN20060313095015603/13/06 09:50:31  5-MIN KMSN 131550Z 23013G22KT 10SM BKN017 OVC023 07/03 A2926 1480 79 900 230/13G22 RMK AO2 PK WND 22030/1532 DZE05 SLP913 P0000 T00670033
14837KMSN MSN20060313095510203/13/06 09:55:31  5-MIN KMSN 131555Z 23015G24KT 10SM OVC017 07/03 A2926 1480 79 900 230/15G24 RMK AO2
14837KMSN MSN20060313100012003/13/06 10:00:31  5-MIN KMSN 131600Z 23016G27KT 10SM OVC019 07/03 A2926 1480 76 900 230/16G27 RMK AO2 PK WND 22027/1556
14837KMSN MSN20060313100512003/13/06 10:05:31  5-MIN KMSN 131605Z 24015G27KT 10SM OVC019 06/03 A2926 1480 79 800 230/15G27 RMK AO2 PK WND 22027/1556
14837KMSN MSN20060313101012003/13/06 10:10:31  5-MIN KMSN 131610Z 24015G23KT 10SM OVC017 06/02 A2927 1470 76 800 230/15G23 RMK AO2 PK WND 22027/1556
14837KMSN MSN20060313101512003/13/06 10:15:31  5-MIN KMSN 131615Z 24013G23KT 10SM OVC017 06/02 A2927 1470 79 700 240/13G23 RMK AO2 PK WND 22027/1556
14837KMSN MSN20060313102012003/13/06 10:20:31  5-MIN KMSN 131620Z 24013G22KT 10SM OVC017 06/02 A2927 1470 79 700 230/13G22 RMK AO2 PK WND 22027/1556
14837KMSN MSN20060313102512003/13/06 10:25:31  5-MIN KMSN 131625Z 24013G22KT 10SM OVC019 06/02 A2927 1470 79 700 240/13G22 RMK AO2 PK WND 22027/1556
14837KMSN MSN20060313103012003/13/06 10:30:31  5-MIN KMSN 131630Z 24015G22KT 10SM OVC019 06/02 A2928 1470 79 700 230/15G22 RMK AO2 PK WND 22027/1556
14837KMSN MSN20060313103512003/13/06 10:35:31  5-MIN KMSN 131635Z 24016G24KT 10SM OVC019 06/02 A2927 1470 79 700 240/16G24 RMK AO2 PK WND 22027/1556
14837KMSN MSN20060313104012003/13/06 10:40:31  5-MIN KMSN 131640Z 24013G24KT 10SM OVC019 05/02 A2928 1460 79 600 240/13G24 RMK AO2 PK WND 22027/1556
14837KMSN MSN20060313104512703/13/06 10:45:31  5-MIN KMSN 131645Z 23014G20KT 10SM BKN019 OVC023 05/02 A2928 1460 79 600 230/14G20 RMK AO2 PK WND 22027/1556
14837KMSN MSN20060313105013703/13/06 10:50:31  5-MIN KMSN 131650Z 23013G24KT 10SM OVC019 05/01 A2928 1460 76 600 230/13G24 RMK AO2 PK WND 22027/1556 SLP921 T00500011
14837KMSN MSN20060313105512703/13/06 10:55:31  5-MIN KMSN 131655Z 23017G27KT 10SM BKN019 OVC023 05/02 A2929 1460 79 600 230/17G27 RMK AO2 PK WND 23027/1655
14837KMSN MSN20060313110012703/13/06 11:00:31  5-MIN KMSN 131700Z 23019G28KT 10SM BKN019 OVC023 05/01 A2928 1460 76 600 230/19G28 RMK AO2 PK WND 22028/1658
14837KMSN MSN20060313110512703/13/06 11:05:31  5-MIN KMSN 131705Z 23017G28KT 10SM BKN019 OVC024 05/01 A2929 1450 76 600 230/17G28 RMK AO2 PK WND 22028/1658
14837KMSN MSN20060313111012703/13/06 11:10:31  5-MIN KMSN 131710Z 24015G27KT 10SM BKN019 OVC026 05/01 A2929 1450 76 600 240/15G27 RMK AO2 PK WND 22028/1658
14837KMSN MSN20060313111512703/13/06 11:15:31  5-MIN KMSN 131715Z 23014G27KT 10SM SCT019 OVC026 05/01 A2929 1450 73 600 230/14G27 RMK AO2 PK WND 22028/1658
14837KMSN MSN20060313112012703/13/06 11:20:31  5-MIN KMSN 131720Z 23016G23KT 10SM SCT019 OVC024 05/01 A2929 1450 73 600 220/16G23 RMK AO2 PK WND 22028/1658
14837KMSN MSN20060313112512703/13/06 11:25:31  5-MIN KMSN 131725Z 23015G24KT 10SM BKN021 OVC028 04/01 A2930 1450 76 600 230/15G24 RMK AO2 PK WND 22028/1658
14837KMSN MSN20060313113012703/13/06 11:30:31  5-MIN KMSN 131730Z 24016G24KT 10SM BKN021 OVC028 04/01 A2930 1450 76 600 230/16G24 RMK AO2 PK WND 22028/1658
14837KMSN MSN20060313113512703/13/06 11:35:31  5-MIN KMSN 131735Z 24016G28KT 10SM BKN021 OVC028 04/01 A2930 1450 76 600 240/16G28 RMK AO2 PK WND 25028/1734
14837KMSN MSN20060313114012003/13/06 11:40:31  5-MIN KMSN 131740Z 23018G28KT 10SM OVC021 04/00 A2930 1440 73 600 230/18G28 RMK AO2 PK WND 25028/1734
14837KMSN MSN20060313114512003/13/06 11:45:31  5-MIN KMSN 131745Z 23018G28KT 10SM OVC021 04/00 A2930 1440 73 600 230/18G28 RMK AO2 PK WND 23028/1745
14837KMSN MSN20060313115016103/13/06 11:50:31  5-MIN KMSN 131750Z 24013G28KT 10SM OVC023 04/00 A2930 1450 73 600 240/13G28 RMK AO2 PK WND 23028/1745 SLP926 60000 T00440000 10089 20033 56033
14837KMSN MSN20060313115510203/13/06 11:55:31  5-MIN KMSN 131755Z 24015G24KT 10SM OVC023 04/00 A2930 1440 73 600 240/15G24 RMK AO2
14837KMSN MSN20060313120010903/13/06 12:00:31  5-MIN KMSN 131800Z 24014G23KT 10SM BKN023 OVC032 04/00 A2930 1440 73 600 240/14G23 RMK AO2
14837KMSN MSN20060313120512503/13/06 12:05:31  5-MIN KMSN 131805Z 24014G24KT 200V280 10SM BKN023 OVC038 06/01 A2930 1440 70 700 240/14G24 200V280 RMK AO2
14837KMSN MSN20060313121011603/13/06 12:10:31  5-MIN KMSN 131810Z 24018G24KT 10SM SCT023 BKN031 OVC041 06/00 A2931 1440 67 700 240/18G24 RMK AO2
14837KMSN MSN20060313121511603/13/06 12:15:31  5-MIN KMSN 131815Z 24014G24KT 10SM SCT023 BKN028 OVC037 05/00 A2931 1430 70 600 230/14G24 RMK AO2
14837KMSN MSN20060313122011703/13/06 12:20:31  5-MIN KMSN 131820Z 24014G23KT 10SM BKN026 BKN033 OVC040 04/M01 A2931 1430 70 500 240/14G23 RMK AO2
14837KMSN MSN20060313122511603/13/06 12:25:31  5-MIN KMSN 131825Z 24013G23KT 10SM FEW023 BKN028 OVC040 04/00 A2931 1430 73 500 240/13G23 RMK AO2
14837KMSN MSN20060313123011603/13/06 12:30:31  5-MIN KMSN 131830Z 23016G23KT 10SM BKN028 BKN032 OVC039 06/00 A2931 1430 67 700 230/16G23 RMK AO2
14837KMSN MSN20060313123512503/13/06 12:35:31  5-MIN KMSN 131835Z 24012G23KT 210V280 10SM BKN028 OVC035 06/01 A2931 1430 70 700 240/12G23 210V280 RMK AO2
14837KMSN MSN20060313124012503/13/06 12:40:31  5-MIN KMSN 131840Z 23014G24KT 200V270 10SM BKN026 OVC033 06/01 A2931 1430 67 700 230/14G24 200V270 RMK AO2
14837KMSN MSN20060313124510903/13/06 12:45:31  5-MIN KMSN 131845Z 24018G24KT 10SM BKN028 OVC037 05/00 A2931 1430 70 600 240/18G24 RMK AO2
14837KMSN MSN20060313125012603/13/06 12:50:31  5-MIN KMSN 131850Z 24012G22KT 10SM BKN028 OVC033 05/00 A2932 1430 70 600 240/12G22 RMK AO2 SLP934 T00500000
14837KMSN MSN20060313125510903/13/06 12:55:31  5-MIN KMSN 131855Z 24013G22KT 10SM BKN028 OVC033 05/00 A2932 1420 70 600 240/13G22 RMK AO2
14837KMSN MSN20060313130012603/13/06 13:00:31  5-MIN KMSN 131900Z 24012G22KT 210V280 10SM BKN026 OVC033 04/M01 A2933 1420 70 500 240/12G22 210V280 RMK AO2
14837KMSN MSN20060313130511003/13/06 13:05:31  5-MIN KMSN 131905Z 24014G21KT 10SM BKN026 OVC034 04/M01 A2933 1410 70 500 240/14G21 RMK AO2
14837KMSN MSN20060313131011003/13/06 13:10:31  5-MIN KMSN 131910Z 23010G21KT 10SM BKN026 OVC031 04/M01 A2934 1410 70 500 230/10G21 RMK AO2
14837KMSN MSN20060313131510303/13/06 13:15:31  5-MIN KMSN 131915Z 24014G20KT 10SM OVC026 04/M01 A2933 1410 70 500 240/14G20 RMK AO2
14837KMSN MSN20060313132010303/13/06 13:20:31  5-MIN KMSN 131920Z 24013G20KT 10SM OVC026 04/M01 A2934 1410 70 500 240/13G20 RMK AO2
14837KMSN MSN20060313132510303/13/06 13:25:31  5-MIN KMSN 131925Z 24015G21KT 10SM OVC024 04/M01 A2934 1400 70 500 240/15G21 RMK AO2
14837KMSN MSN20060313133010903/13/06 13:30:31  5-MIN KMSN 131930Z 24011G22KT 10SM BKN024 OVC029 04/00 A2935 1400 76 400 240/11G22 RMK AO2
14837KMSN MSN20060313133512403/13/06 13:35:31  5-MIN KMSN 131935Z 25013G22KT 6SM -RA BKN022 OVC028 04/00 A2935 1400 76 400 250/13G22 RMK AO2 RAB33 P0000
14837KMSN MSN20060313134011703/13/06 13:40:31  5-MIN KMSN 131940Z 25011G21KT 6SM -RA OVC021 03/00 A2935 1390 79 400 250/11G21 RMK AO2 RAB33 P0000
14837KMSN MSN20060313134512403/13/06 13:45:31  5-MIN KMSN 131945Z 25011G17KT 4SM -RA BKN018 OVC024 03/00 A2935 1390 79 400 250/11G17 RMK AO2 RAB33 P0000
14837KMSN MSN20060313135016403/13/06 13:50:31  5-MIN KMSN 131950Z 24008G17KT 200V270 6SM -RA BKN018 BKN024 OVC047 04/01 A2935 1390 82 400 240/08G17 200V270 RMK AO2 RAB33 SLP946 P0000 T00390011
14837KMSN MSN20060313135512503/13/06 13:55:31  5-MIN KMSN 131955Z 25011G17KT 9SM -RA BKN018 BKN024 OVC055 04/01 A2935 1390 82 400 250/11G17 RMK AO2 P0000
14837KMSN MSN20060313140013803/13/06 14:00:31  5-MIN KMSN 132000Z 25008KT 210V290 10SM SCT018 BKN036 OVC055 04/01 A2936 1390 79 400 250/08 210V290 RMK AO2 RAE00 P0000
14837KMSN MSN20060313140514103/13/06 14:05:31  5-MIN KMSN 132005Z 26011G16KT 230V300 9SM -RA SCT018 BKN034 OVC046 04/01 A2936 1380 79 500 260/11G16 230V300 RMK AO2 P0000
14837KMSN MSN20060313141014103/13/06 14:10:31  5-MIN KMSN 132010Z 27014G23KT 230V300 9SM -RA FEW016 BKN034 OVC045 04/00 A2937 1380 76 400 270/14G23 230V300 RMK AO2 P0000
14837KMSN MSN20060313141512503/13/06 14:15:31  5-MIN KMSN 132015Z 26012G23KT 9SM -RA SCT020 BKN026 OVC045 04/01 A2937 1380 79 400 260/12G23 RMK AO2 P0000
14837KMSN MSN20060313142012803/13/06 14:20:31  5-MIN KMSN 132020Z 26011G19KT 10SM SCT020 BKN026 BKN045 04/01 A2937 1370 79 400 250/11G19 RMK AO2 RAE16 P0000
14837KMSN MSN20060313142514403/13/06 14:25:31  5-MIN KMSN 132025Z 28016G21KT 240V310 10SM SCT020 BKN026 OVC041 04/01 A2938 1360 76 500 280/16G21 240V310 RMK AO2 RAE16 P0000
14837KMSN MSN20060313143012803/13/06 14:30:31  5-MIN KMSN 132030Z 28018G24KT 10SM BKN020 BKN026 OVC041 04/00 A2939 1360 76 400 280/18G24 RMK AO2 RAE16 P0000
14837KMSN MSN20060313143515003/13/06 14:35:31  5-MIN KMSN 132035Z 27012G24KT 240V300 9SM SCT020 BKN026 OVC037 03/00 A2940 1350 79 300 270/12G24 240V300 RMK AO2 RAE16 PRESRR P0000
14837KMSN MSN20060313144015903/13/06 14:40:31  5-MIN KMSN 132040Z 28016G26KT 5SM -RA SCT020 BKN026 OVC039 03/00 A2940 1350 82 200 280/16G26 RMK AO2 PK WND 25026/2036 RAE16B36 PRESRR P0000
14837KMSN MSN20060313144516803/13/06 14:45:31  5-MIN KMSN 132045Z 27011G26KT 240V300 5SM -RA SCT020 BKN026 OVC037 03/00 A2941 1340 82 200 270/11G26 240V300 RMK AO2 PK WND 25026/2036 RAE16B36 P0000
14837KMSN MSN20060313145015303/13/06 14:50:31  5-MIN KMSN 132050Z 28017G27KT 10SM FEW020 SCT026 OVC035 03/M01 A2941 1340 76 300 280/17G27 RMK AO2 PK WND 30027/2050 RAE16B36E48 P0000
14837KMSN MSN20060313145513503/13/06 14:55:31  5-MIN KMSN 132055Z 28016G27KT 10SM FEW020 SCT030 OVC037 03/M01 A2941 1340 75 200 280/16G27 RMK AO2 PK WND 27027/2055
14837KMSN MSN20060313150015103/13/06 15:00:31  5-MIN KMSN 132100Z 27012G27KT 240V300 10SM FEW020 BKN025 OVC037 03/M01 A2942 1330 76 300 270/12G27 240V300 RMK AO2 PK WND 27027/2055
14837KMSN MSN20060313150515003/13/06 15:05:31  5-MIN KMSN 132105Z 28016G28KT 5SM -RA FEW018 SCT023 OVC037 03/M01 A2942 1330 79 200 280/16G28 RMK AO2 PK WND 27028/2102 RAB01 P0000
14837KMSN MSN20060313151014303/13/06 15:10:31  5-MIN KMSN 132110Z 28012G28KT 7SM -RA SCT021 OVC033 03/M01 A2943 1320 79 200 280/12G28 RMK AO2 PK WND 27028/2102 RAB01 P0000
14837KMSN MSN20060313151514303/13/06 15:15:31  5-MIN KMSN 132115Z 27013G21KT 10SM SCT023 OVC035 03/M01 A2943 1320 79 200 270/13G21 RMK AO2 PK WND 27028/2102 RAB01E13 P0000
14837KMSN MSN20060313152017103/13/06 15:20:31  5-MIN KMSN 132120Z 28016G23KT 2 1/2SM -RASN BKN021 BKN026 OVC035 02/M01 A2944 1310 82 100 280/16G23 RMK AO2 PK WND 27028/2102 SFC VIS 3 RAB01SNB16 P0000
14837KMSN MSN20060313152516503/13/06 15:25:31  5-MIN KMSN 132125Z 28013G23KT 5SM -RASN BR BKN021 BKN026 OVC035 02/M01 A2945 1300 85 0 280/13G23 RMK AO2 PK WND 27028/2102 RAB01SNB16 PRESRR P0000
14837KMSN MSN20060313153014903/13/06 15:30:31  5-MIN KMSN 132130Z 28013G22KT 5SM -RASN BKN023 OVC033 02/00 A2945 1300 85 100 280/13G22 RMK AO2 PK WND 27028/2102 RAB01SNB16 P0000
14837KMSN MSN20060313153515103/13/06 15:35:31  5-MIN KMSN 132135Z 29015G22KT 10SM -SN BKN022 OVC033 02/00 A2946 1300 85 100 280/15G22 RMK AO2 PK WND 27028/2102 RAB01E34SNB16 P0000
14837KMSN MSN20060313154015803/13/06 15:40:31  5-MIN KMSN 132140Z 28018G25KT 9SM -SN BKN020 BKN026 OVC036 02/M01 A2946 1300 78 100 280/18G25 RMK AO2 PK WND 27028/2102 RAB01E34SNB16 P0000
14837KMSN MSN20060313154515803/13/06 15:45:31  5-MIN KMSN 132145Z 29016G28KT 9SM -SN SCT020 BKN026 OVC036 02/M02 A2946 1290 72 100 290/16G28 RMK AO2 PK WND 26028/2143 RAB01E34SNB16 P0000
14837KMSN MSN20060313155017503/13/06 15:50:31  5-MIN KMSN 132150Z 29015G28KT 9SM -SN BKN022 BKN029 OVC036 02/M02 A2947 1280 72 100 290/15G28 RMK AO2 PK WND 26028/2143 RAB01E34SNB16 SLP986 P0000 T00221022
14837KMSN MSN20060313155511703/13/06 15:55:31  5-MIN KMSN 132155Z 30018G25KT 9SM -SN BKN022 OVC036 02/M03 A2948 1280 72 0 300/18G25 RMK AO2 P0000
14837KMSN MSN20060313160014203/13/06 16:00:31  5-MIN KMSN 132200Z 30022G28KT 9SM -SN BKN024 OVC034 02/M03 A2948 1270 69 0 300/22G28 RMK AO2 PK WND 30028/2159 PRESRR P0000
14837KMSN MSN20060313160515803/13/06 16:05:31  5-MIN KMSN 132205Z 29017G28KT 260V330 9SM -SN SCT022 OVC029 02/M03 A2949 1270 69 0 290/17G28 260V330 RMK AO2 PK WND 30028/2159 PRESRR P0000
14837KMSN MSN20060313161014203/13/06 16:10:31  5-MIN KMSN 132210Z 30017G27KT 9SM -SN SCT024 BKN029 OVC041 02/M03 A2949 1260 69 0 300/17G27 RMK AO2 PK WND 30028/2159 P0000
14837KMSN MSN20060313161514403/13/06 16:15:31  5-MIN KMSN 132215Z 29019G26KT 9SM FEW022 BKN029 OVC043 02/M04 A2950 1260 66 0 290/19G26 RMK AO2 PK WND 30028/2159 SNE11 P0000
14837KMSN MSN20060313162014303/13/06 16:20:31  5-MIN KMSN 132220Z 29015G25KT 10SM -SN SCT025 BKN031 BKN043 02/M04 A2950 1250 66 0 290/15G25 RMK AO2 PK WND 30028/2159 P0000
14837KMSN MSN20060313162514203/13/06 16:25:31  5-MIN KMSN 132225Z 29016G28KT 9SM -SN SCT025 BKN031 BKN043 02/M04 A2950 1250 66 0 290/16G28 RMK AO2 PK WND 30028/2222 P0000
14837KMSN MSN20060313163014203/13/06 16:30:31  5-MIN KMSN 132230Z 29013G28KT 9SM -SN SCT025 BKN031 BKN043 01/M04 A2951 1250 69 0 290/13G28 RMK AO2 PK WND 30028/2222 P0000
14837KMSN MSN20060313163514503/13/06 16:35:31  5-MIN KMSN 132235Z 29015G23KT 9SM -SN SCT025 BKN031 BKN043 01/M04 A2951 1240 69 -100 290/15G23 RMK AO2 PK WND 30028/2222 P0000
14837KMSN MSN20060313164014503/13/06 16:40:31  5-MIN KMSN 132240Z 30018G25KT 9SM -SN SCT025 BKN031 BKN043 01/M04 A2951 1240 69 -100 290/18G25 RMK AO2 PK WND 30028/2222 P0000
14837KMSN MSN20060313164514503/13/06 16:45:31  5-MIN KMSN 132245Z 29018G25KT 9SM -SN SCT025 BKN031 BKN043 01/M04 A2952 1240 69 -100 290/18G25 RMK AO2 PK WND 30028/2222 P0000
14837KMSN MSN20060313165016403/13/06 16:50:31  5-MIN KMSN 132250Z 30013G25KT 9SM BKN031 BKN037 OVC060 01/M04 A2952 1230 66 -100 300/13G25 RMK AO2 PK WND 30028/2222 SNE50 SLP004 P0000 T00111044
14837KMSN MSN20060313165511003/13/06 16:55:31  5-MIN KMSN 132255Z 30012G21KT 9SM BKN031 OVC039 01/M04 A2953 1230 69 -100 300/12G21 RMK AO2
14837KMSN MSN20060313170011803/13/06 17:00:31  5-MIN KMSN 132300Z 30015G21KT 10SM BKN031 BKN039 OVC055 01/M04 A2953 1220 69 -100 300/15G21 RMK AO2
14837KMSN MSN20060313170511103/13/06 17:05:31  5-MIN KMSN 132305Z 31018G25KT 10SM BKN033 OVC055 01/M04 A2953 1220 66 -100 310/18G25 RMK AO2
14837KMSN MSN20060313171011103/13/06 17:10:31  5-MIN KMSN 132310Z 30014G25KT 10SM BKN030 OVC036 01/M04 A2954 1220 66 -100 300/14G25 RMK AO2
14837KMSN MSN20060313171511103/13/06 17:15:31  5-MIN KMSN 132315Z 30012G21KT 10SM BKN027 OVC033 01/M04 A2954 1210 66 -100 300/12G21 RMK AO2
14837KMSN MSN20060313172011103/13/06 17:20:31  5-MIN KMSN 132320Z 30016G20KT 10SM BKN027 OVC033 01/M04 A2955 1210 69 -100 300/16G20 RMK AO2
14837KMSN MSN20060313172512703/13/06 17:25:31  5-MIN KMSN 132325Z 29012G20KT 250V320 10SM BKN027 OVC033 01/M04 A2955 1210 69 -100 290/12G20 250V320 RMK AO2
14837KMSN MSN20060313173011103/13/06 17:30:31  5-MIN KMSN 132330Z 29013G21KT 10SM BKN027 OVC033 01/M04 A2956 1200 66 -100 290/13G21 RMK AO2
14837KMSN MSN20060313173511803/13/06 17:35:31  5-MIN KMSN 132335Z 31013G23KT 10SM BKN027 BKN033 BKN042 01/M04 A2956 1200 66 -100 310/13G23 RMK AO2
14837KMSN MSN20060313174011803/13/06 17:40:31  5-MIN KMSN 132340Z 30014G23KT 10SM FEW024 BKN029 BKN035 01/M05 A2957 1190 64 -100 300/14G23 RMK AO2
14837KMSN MSN20060313174511803/13/06 17:45:31  5-MIN KMSN 132345Z 29013G20KT 10SM BKN029 BKN034 BKN041 01/M04 A2957 1190 66 -100 290/13G20 RMK AO2
14837KMSN MSN20060313175011803/13/06 17:50:31  5-MIN KMSN 132350Z 30014G20KT 10SM SCT029 BKN034 BKN041 01/M04 A2957 1190 69 -200 300/14G20 RMK AO2
14837KMSN MSN20060313175511103/13/06 17:55:31  5-MIN KMSN 132355Z 29012G22KT 10SM SCT029 BKN039 01/M04 A2958 1180 69 -200 290/12G22 RMK AO2
14837KMSN MSN20060313180011103/13/06 18:00:31  5-MIN KMSN 140000Z 28012G22KT 10SM SCT029 BKN039 01/M04 A2958 1180 69 -200 280/12G22 RMK AO2
14837KMSN MSN20060313180511803/13/06 18:05:31  5-MIN KMSN 140005Z 29016G23KT 10SM SCT029 BKN039 01/M04 A2959 1170 69 -200 290/16G23 RMK AO2 PRESRR
14837KMSN MSN20060313181011803/13/06 18:10:31  5-MIN KMSN 140010Z 29012G23KT 10SM SCT029 BKN039 01/M05 A2960 1160 66 -200 290/12G23 RMK AO2 PRESRR
14837KMSN MSN20060313181512703/13/06 18:15:31  5-MIN KMSN 140015Z 29011G20KT 270V340 10SM BKN029 OVC035 01/M05 A2961 1160 66 -200 290/11G20 270V340 RMK AO2
14837KMSN MSN20060313182011103/13/06 18:20:31  5-MIN KMSN 140020Z 30013G20KT 10SM BKN029 OVC039 01/M05 A2961 1150 66 -200 300/13G20 RMK AO2
14837KMSN MSN20060313182511803/13/06 18:25:31  5-MIN KMSN 140025Z 30012G19KT 10SM SCT027 BKN033 OVC044 01/M05 A2962 1150 66 -200 300/12G19 RMK AO2
14837KMSN MSN20060313183011103/13/06 18:30:31  5-MIN KMSN 140030Z 30015G20KT 10SM BKN026 OVC034 01/M05 A2962 1140 66 -200 300/15G20 RMK AO2
14837KMSN MSN20060313183511103/13/06 18:35:31  5-MIN KMSN 140035Z 29010G20KT 10SM BKN026 OVC038 01/M05 A2962 1140 66 -300 290/10G20 RMK AO2
14837KMSN MSN20060313184011103/13/06 18:40:31  5-MIN KMSN 140040Z 28016G24KT 10SM BKN026 OVC037 00/M05 A2963 1140 69 -300 280/16G24 RMK AO2
14837KMSN MSN20060313184511103/13/06 18:45:31  5-MIN KMSN 140045Z 29016G25KT 10SM BKN028 OVC037 00/M05 A2963 1130 69 -300 290/16G25 RMK AO2
14837KMSN MSN20060313185014603/13/06 18:50:31  5-MIN KMSN 140050Z 29013G26KT 10SM BKN026 OVC036 00/M05 A2963 1130 69 -300 290/13G26 RMK AO2 PK WND 32026/0046 SLP042 T00001050
14837KMSN MSN20060313185512103/13/06 18:55:31  5-MIN KMSN 140055Z 29014G26KT 10SM -SN BKN026 OVC036 00/M06 A2964 1130 66 -300 290/14G26 RMK AO2 P0000
14837KMSN MSN20060313190012003/13/06 19:00:31  5-MIN KMSN 140100Z 30014G21KT 9SM -SN BKN028 OVC034 00/M06 A2964 1130 66 -300 300/14G21 RMK AO2 P0000
14837KMSN MSN20060313190512003/13/06 19:05:31  5-MIN KMSN 140105Z 29012G22KT 9SM -SN SCT028 OVC034 00/M06 A2964 1130 66 -300 290/12G22 RMK AO2 P0000
14837KMSN MSN20060313191012003/13/06 19:10:31  5-MIN KMSN 140110Z 29012G22KT 9SM -SN SCT026 OVC034 00/M05 A2964 1120 69 -300 290/12G22 RMK AO2 P0000
14837KMSN MSN20060313191513603/13/06 19:15:31  5-MIN KMSN 140115Z 28011G17KT 250V320 9SM -SN SCT026 OVC034 00/M05 A2965 1120 69 -300 280/11G17 250V320 RMK AO2 P0000
14837KMSN MSN20060313192012003/13/06 19:20:31  5-MIN KMSN 140120Z 29014G24KT 9SM -SN SCT026 OVC034 00/M05 A2965 1120 69 -400 290/14G24 RMK AO2 P0000
14837KMSN MSN20060313192512103/13/06 19:25:31  5-MIN KMSN 140125Z 29014G24KT 9SM -SN SCT026 OVC034 M01/M05 A2965 1110 72 -400 290/14G24 RMK AO2 P0000
14837KMSN MSN20060313193012103/13/06 19:30:31  5-MIN KMSN 140130Z 29011G18KT 8SM -SN SCT026 OVC034 M01/M05 A2965 1110 72 -400 290/11G18 RMK AO2 P0000
14837KMSN MSN20060313193512103/13/06 19:35:31  5-MIN KMSN 140135Z 29012G21KT 5SM -SN SCT026 OVC034 M01/M05 A2966 1110 72 -400 290/12G21 RMK AO2 P0000
14837KMSN MSN20060313194012103/13/06 19:40:31  5-MIN KMSN 140140Z 29014G24KT 4SM -SN SCT026 OVC034 M01/M05 A2966 1110 72 -400 290/14G24 RMK AO2 P0000
14837KMSN MSN20060313194512803/13/06 19:45:31  5-MIN KMSN 140145Z 29010G24KT 4SM -SN FEW028 BKN034 OVC050 M01/M04 A2966 1100 78 -500 290/10G24 RMK AO2 P0000
14837KMSN MSN20060313195014503/13/06 19:50:31  5-MIN KMSN 140150Z 29010G18KT 3SM -SN FEW022 BKN034 OVC050 M01/M04 A2967 1100 78 -500 290/10G18 RMK AO2 SLP054 P0000 T10111044
14837KMSN MSN20060313195512803/13/06 19:55:31  5-MIN KMSN 140155Z 29014G18KT 3SM -SN FEW022 SCT029 OVC034 M01/M04 A2967 1090 78 -500 290/14G18 RMK AO2 P0000
14837KMSN MSN20060313200012103/13/06 20:00:31  5-MIN KMSN 140200Z 30011G18KT 3SM -SN FEW022 OVC034 M01/M04 A2968 1090 78 -500 300/11G18 RMK AO2 P0000
14837KMSN MSN20060313200512103/13/06 20:05:31  5-MIN KMSN 140205Z 29010G18KT 3SM -SN FEW019 OVC036 M01/M04 A2968 1090 78 -500 290/10G18 RMK AO2 P0000
14837KMSN MSN20060313201014103/13/06 20:10:31  5-MIN KMSN 140210Z 28010KT 250V310 3SM -SN BR FEW019 SCT025 OVC034 M02/M04 A2968 1090 85 -600 280/10 250V310 RMK AO2 P0000
14837KMSN MSN20060313201512503/13/06 20:15:31  5-MIN KMSN 140215Z 29010KT 3SM -SN BR FEW017 BKN030 OVC036 M02/M04 A2968 1080 85 -600 290/10 RMK AO2 P0000
14837KMSN MSN20060313202012503/13/06 20:20:31  5-MIN KMSN 140220Z 28010KT 4SM -SN BR SCT019 BKN027 OVC034 M02/M04 A2969 1080 85 -600 280/10 RMK AO2 P0000
14837KMSN MSN20060313202512803/13/06 20:25:31  5-MIN KMSN 140225Z 29011G19KT 4SM -SN SCT019 BKN027 OVC034 M02/M04 A2969 1080 81 -600 290/11G19 RMK AO2 P0000
14837KMSN MSN20060313203012803/13/06 20:30:31  5-MIN KMSN 140230Z 28011G19KT 4SM -SN FEW019 BKN027 OVC036 M02/M04 A2969 1080 81 -600 280/11G19 RMK AO2 P0000
14837KMSN MSN20060313203512803/13/06 20:35:31  5-MIN KMSN 140235Z 29012G17KT 5SM -SN FEW019 BKN027 OVC033 M02/M04 A2969 1080 81 -600 290/12G17 RMK AO2 P0000
14837KMSN MSN20060313204012103/13/06 20:40:31  5-MIN KMSN 140240Z 29010G17KT 5SM -SN FEW017 OVC027 M02/M04 A2970 1070 81 -600 290/10G17 RMK AO2 P0000
14837KMSN MSN20060313204512103/13/06 20:45:31  5-MIN KMSN 140245Z 29015G23KT 5SM -SN SCT020 OVC027 M02/M05 A2970 1070 78 -600 290/15G23 RMK AO2 P0000
14837KMSN MSN20060313205014303/13/06 20:50:31  5-MIN KMSN 140250Z 29014G23KT 4SM -SN OVC027 M02/M05 A2970 1070 78 -600 290/14G23 RMK AO2 SLP064 P0000 60000 T10171050 51033
14837KMSN MSN20060313205512103/13/06 20:55:31  5-MIN KMSN 140255Z 30012G21KT 4SM -SN FEW020 OVC027 M02/M05 A2970 1070 78 -600 300/12G21 RMK AO2 P0000
14837KMSN MSN20060313210011503/13/06 21:00:31  5-MIN KMSN 140300Z 29012KT 4SM -SN FEW021 OVC027 M02/M05 A2970 1070 78 -600 290/12 RMK AO2 P0000
14837KMSN MSN20060313210511403/13/06 21:05:31  5-MIN KMSN 140305Z 28013G19KT 4SM -SN OVC025 M02/M05 A2971 1060 78 -600 280/13G19 RMK AO2 P0000
14837KMSN MSN20060313211011403/13/06 21:10:31  5-MIN KMSN 140310Z 29013G22KT 5SM -SN OVC025 M02/M05 A2971 1060 78 -600 290/13G22 RMK AO2 P0000
14837KMSN MSN20060313211511403/13/06 21:15:31  5-MIN KMSN 140315Z 29018G24KT 5SM -SN OVC025 M02/M06 A2971 1060 75 -600 290/18G24 RMK AO2 P0000
14837KMSN MSN20060313212011403/13/06 21:20:31  5-MIN KMSN 140320Z 30016G24KT 5SM -SN OVC025 M02/M06 A2971 1060 75 -600 300/16G24 RMK AO2 P0000
14837KMSN MSN20060313212511403/13/06 21:25:31  5-MIN KMSN 140325Z 30014G22KT 5SM -SN OVC025 M02/M06 A2972 1050 75 -600 290/14G22 RMK AO2 P0000
14837KMSN MSN20060313213011403/13/06 21:30:31  5-MIN KMSN 140330Z 29010G18KT 5SM -SN OVC027 M02/M06 A2972 1050 75 -600 290/10G18 RMK AO2 P0000
14837KMSN MSN20060313213511403/13/06 21:35:31  5-MIN KMSN 140335Z 29016G22KT 5SM -SN OVC027 M02/M06 A2972 1050 75 -600 290/16G22 RMK AO2 P0000
14837KMSN MSN20060313214012803/13/06 21:40:31  5-MIN KMSN 140340Z 30012G22KT 6SM -SN BKN027 BKN036 OVC060 M02/M06 A2972 1050 72 -600 300/12G22 RMK AO2 P0000
14837KMSN MSN20060313214512103/13/06 21:45:31  5-MIN KMSN 140345Z 30013G20KT 7SM -SN SCT027 OVC055 M02/M06 A2972 1050 72 -600 300/13G20 RMK AO2 P0000
14837KMSN MSN20060313215012103/13/06 21:50:31  5-MIN KMSN 140350Z 30014G19KT 8SM -SN SCT029 OVC055 M02/M06 A2973 1050 72 -700 300/14G19 RMK AO2 P0000
14837KMSN MSN20060313215511503/13/06 21:55:31  5-MIN KMSN 140355Z 30013KT 7SM -SN SCT031 OVC060 M02/M06 A2973 1040 72 -700 290/13 RMK AO2 P0000
14837KMSN MSN20060313220012803/13/06 22:00:31  5-MIN KMSN 140400Z 30013G20KT 5SM -SN FEW023 BKN029 OVC060 M02/M06 A2973 1040 78 -700 290/13G20 RMK AO2 P0000
14837KMSN MSN20060313220512803/13/06 22:05:31  5-MIN KMSN 140405Z 29013G20KT 4SM -SN BKN027 BKN033 OVC060 M02/M06 A2973 1040 78 -700 280/13G20 RMK AO2 P0000
14837KMSN MSN20060313221012803/13/06 22:10:31  5-MIN KMSN 140410Z 29013G18KT 5SM -SN SCT025 BKN029 OVC060 M02/M06 A2973 1040 78 -700 290/13G18 RMK AO2 P0000
14837KMSN MSN20060313221512803/13/06 22:15:31  5-MIN KMSN 140415Z 30014G19KT 5SM -SN SCT025 BKN029 OVC060 M02/M06 A2974 1040 75 -700 300/14G19 RMK AO2 P0000
14837KMSN MSN20060313222012803/13/06 22:20:31  5-MIN KMSN 140420Z 29017G24KT 5SM -SN SCT025 BKN029 OVC060 M02/M07 A2974 1030 72 -700 290/17G24 RMK AO2 P0000
14837KMSN MSN20060313222512803/13/06 22:25:31  5-MIN KMSN 140425Z 30011G24KT 5SM -SN SCT025 BKN029 OVC060 M02/M07 A2974 1030 72 -700 300/11G24 RMK AO2 P0000
14837KMSN MSN20060313223012803/13/06 22:30:31  5-MIN KMSN 140430Z 30012G20KT 5SM -SN SCT025 BKN029 OVC060 M02/M07 A2974 1030 72 -700 300/12G20 RMK AO2 P0000
14837KMSN MSN20060313223511603/13/06 22:35:31  5-MIN KMSN 140435Z 30017G24KT 9SM OVC027 M02/M07 A2975 1030 69 -700 300/17G24 RMK AO2 SNE34 P0000
14837KMSN MSN20060313224013303/13/06 22:40:31  5-MIN KMSN 140440Z 30010G24KT 260V330 10SM OVC027 M02/M07 A2975 1020 69 -700 300/10G24 260V330 RMK AO2 SNE34 P0000
14837KMSN MSN20060313224511703/13/06 22:45:31  5-MIN KMSN 140445Z 31014G23KT 10SM OVC027 M02/M07 A2975 1020 69 -800 310/14G23 RMK AO2 SNE34 P0000
14837KMSN MSN20060313225013403/13/06 22:50:31  5-MIN KMSN 140450Z 30016G23KT 10SM OVC027 M02/M07 A2975 1020 69 -700 300/16G23 RMK AO2 SNE34 SLP082 P0000 T10221072
14837KMSN MSN20060313225510503/13/06 22:55:31  5-MIN KMSN 140455Z 31008G23KT 10SM OVC029 M02/M08 A2975 1020 66 -800 300/08G23 RMK AO2
14837KMSN MSN20060313230010503/13/06 23:00:31  5-MIN KMSN 140500Z 30011G18KT 10SM OVC029 M02/M07 A2975 1020 69 -800 300/11G18 RMK AO2
14837KMSN MSN20060313230512103/13/06 23:05:31  5-MIN KMSN 140505Z 30014G19KT 260V330 10SM OVC029 M02/M08 A2975 1020 66 -800 300/14G19 260V330 RMK AO2
14837KMSN MSN20060313231010503/13/06 23:10:31  5-MIN KMSN 140510Z 29015G23KT 10SM OVC029 M02/M08 A2976 1020 66 -800 290/15G23 RMK AO2
14837KMSN MSN20060313231511203/13/06 23:15:31  5-MIN KMSN 140515Z 30013G23KT 10SM BKN031 OVC050 M02/M08 A2976 1010 66 -800 300/13G23 RMK AO2
14837KMSN MSN20060313232011203/13/06 23:20:31  5-MIN KMSN 140520Z 29010G21KT 10SM BKN031 OVC050 M02/M08 A2976 1010 66 -800 290/10G21 RMK AO2
14837KMSN MSN20060313232511203/13/06 23:25:31  5-MIN KMSN 140525Z 29009G18KT 10SM BKN031 OVC050 M02/M08 A2976 1010 66 -800 290/09G18 RMK AO2
14837KMSN MSN20060313233011203/13/06 23:30:31  5-MIN KMSN 140530Z 29012G17KT 10SM BKN031 OVC050 M02/M08 A2976 1010 66 -800 290/12G17 RMK AO2
14837KMSN MSN20060313233511203/13/06 23:35:31  5-MIN KMSN 140535Z 30011G19KT 10SM BKN031 OVC050 M02/M08 A2976 1010 66 -800 300/11G19 RMK AO2
14837KMSN MSN20060313234010503/13/06 23:40:31  5-MIN KMSN 140540Z 30012G19KT 10SM OVC031 M02/M08 A2976 1010 66 -800 300/12G19 RMK AO2
14837KMSN MSN20060313234511203/13/06 23:45:31  5-MIN KMSN 140545Z 29014G18KT 10SM BKN031 OVC033 M02/M07 A2976 1010 69 -800 290/14G18 RMK AO2
14837KMSN MSN20060313235017203/13/06 23:50:31  5-MIN KMSN 140550Z 29010G18KT 10SM -SN OVC031 M02/M07 A2976 1010 69 -800 290/10G18 RMK AO2 SNB49 SLP086 P0000 60000 T10221072 10006 21022 400891022 51040
14837KMSN MSN20060313235512103/13/06 23:55:31  5-MIN KMSN 140555Z 30011G16KT 9SM -SN BKN029 OVC034 M02/M07 A2976 1010 69 -800 300/11G16 RMK AO2 P0000
14837KMSN MSN20060314000011503/14/06 00:00:38  5-MIN KMSN 140600Z 29011KT 9SM -SN BKN030 OVC034 M02/M07 A2977 1010 69 -800 290/11 RMK AO2 P0000
14837KMSN MSN20060314000512103/14/06 00:05:31  5-MIN KMSN 140605Z 30012G18KT 9SM -SN BKN030 OVC034 M02/M07 A2977 1010 69 -800 290/12G18 RMK AO2 P0000
14837KMSN MSN20060314001012103/14/06 00:10:31  5-MIN KMSN 140610Z 30015G23KT 9SM -SN BKN030 OVC034 M02/M08 A2977 1010 66 -800 290/15G23 RMK AO2 P0000
14837KMSN MSN20060314001512103/14/06 00:15:34  5-MIN KMSN 140615Z 29012G23KT 9SM -SN BKN030 OVC034 M02/M08 A2977 1010 66 -800 290/12G23 RMK AO2 P0000
14837KMSN MSN20060314002012103/14/06 00:20:31  5-MIN KMSN 140620Z 30014G22KT 9SM -SN BKN030 OVC034 M02/M08 A2977 1010 66 -800 300/14G22 RMK AO2 P0000
14837KMSN MSN20060314002512103/14/06 00:25:31  5-MIN KMSN 140625Z 30010G22KT 9SM -SN BKN030 OVC034 M02/M08 A2977 1000 66 -800 300/10G22 RMK AO2 P0000
14837KMSN MSN20060314003012103/14/06 00:30:31  5-MIN KMSN 140630Z 30016G22KT 9SM -SN BKN030 OVC034 M02/M08 A2977 1000 66 -800 300/16G22 RMK AO2 P0000
14837KMSN MSN20060314003511403/14/06 00:35:31  5-MIN KMSN 140635Z 29014G19KT 9SM -SN OVC030 M02/M08 A2977 1000 66 -800 290/14G19 RMK AO2 P0000
14837KMSN MSN20060314004011403/14/06 00:40:31  5-MIN KMSN 140640Z 29012G20KT 9SM -SN OVC032 M02/M08 A2977 1000 66 -800 290/12G20 RMK AO2 P0000
14837KMSN MSN20060314004511603/14/06 00:45:31  5-MIN KMSN 140645Z 30012G20KT 9SM OVC032 M02/M08 A2978 1000 66 -800 300/12G20 RMK AO2 SNE45 P0000
14837KMSN MSN20060314005013203/14/06 00:50:31  5-MIN KMSN 140650Z 31013G20KT 9SM OVC032 M02/M08 A2978 990 63 -800 310/13G20 RMK AO2 SNE45 SLP092 P0000 T10221083
14837KMSN MSN20060314005510403/14/06 00:55:31  5-MIN KMSN 140655Z 30014G20KT 10SM OVC032 M02/M08 A2978 990 63 -800 300/14G20 RMK AO2
14837KMSN MSN20060314010010403/14/06 01:00:31  5-MIN KMSN 140700Z 29012G17KT 10SM OVC034 M02/M08 A2978 990 66 -800 290/12G17 RMK AO2
14837KMSN MSN20060314010510403/14/06 01:05:31  5-MIN KMSN 140705Z 30012G19KT 10SM OVC034 M02/M08 A2979 990 66 -800 290/12G19 RMK AO2
14837KMSN MSN20060314011010403/14/06 01:10:31  5-MIN KMSN 140710Z 30013G19KT 10SM OVC032 M02/M08 A2979 990 63 -800 300/13G19 RMK AO2
14837KMSN MSN20060314011510403/14/06 01:15:31  5-MIN KMSN 140715Z 31011G24KT 10SM OVC034 M02/M08 A2979 990 63 -800 310/11G24 RMK AO2
14837KMSN MSN20060314012010403/14/06 01:20:31  5-MIN KMSN 140720Z 30013G24KT 10SM OVC034 M02/M08 A2979 980 63 -800 300/13G24 RMK AO2
14837KMSN MSN20060314012510403/14/06 01:25:31  5-MIN KMSN 140725Z 30013G19KT 10SM OVC034 M02/M08 A2980 980 63 -800 300/13G19 RMK AO2
14837KMSN MSN20060314013010403/14/06 01:30:31  5-MIN KMSN 140730Z 30015G19KT 10SM OVC036 M02/M08 A2980 980 63 -800 300/15G19 RMK AO2
14837KMSN MSN20060314013510403/14/06 01:35:31  5-MIN KMSN 140735Z 31010G19KT 10SM OVC036 M02/M08 A2980 980 63 -800 310/10G19 RMK AO2
14837KMSN MSN20060314014010403/14/06 01:40:31  5-MIN KMSN 140740Z 30015G20KT 10SM OVC036 M02/M08 A2980 970 63 -800 300/15G20 RMK AO2
14837KMSN MSN20060314014510403/14/06 01:45:31  5-MIN KMSN 140745Z 30009G20KT 10SM OVC036 M02/M08 A2980 970 63 -800 300/09G20 RMK AO2
14837KMSN MSN20060314015012103/14/06 01:50:31  5-MIN KMSN 140750Z 28015G21KT 10SM OVC034 M02/M08 A2981 970 63 -800 280/15G21 RMK AO2 SLP101 T10221083
14837KMSN MSN20060314015512103/14/06 01:55:31  5-MIN KMSN 140755Z 29009G21KT 10SM -SN SCT027 OVC034 M03/M07 A2981 970 71 -900 290/09G21 RMK AO2 P0000
14837KMSN MSN20060314020014303/14/06 02:00:31  5-MIN KMSN 140800Z 29011G17KT 260V320 9SM -SN FEW023 SCT028 OVC034 M03/M07 A2981 960 71 -900 280/11G17 260V320 RMK AO2 P0000
14837KMSN MSN20060314020512003/14/06 02:05:31  5-MIN KMSN 140805Z 28010G18KT 9SM -SN SCT024 OVC034 M03/M07 A2981 960 71 -900 280/10G18 RMK AO2 P0000
14837KMSN MSN20060314021012003/14/06 02:10:31  5-MIN KMSN 140810Z 28012G18KT 9SM -SN SCT024 OVC034 M03/M07 A2982 960 71 -900 280/12G18 RMK AO2 P0000
14837KMSN MSN20060314021512003/14/06 02:15:31  5-MIN KMSN 140815Z 29012G19KT 9SM -SN BKN024 OVC032 M03/M07 A2982 960 71 -900 290/12G19 RMK AO2 P0000
14837KMSN MSN20060314022012103/14/06 02:20:31  5-MIN KMSN 140820Z 29015G19KT 9SM -SN BKN024 OVC032 M03/M07 A2982 960 74 -1000 280/15G19 RMK AO2 P0000
14837KMSN MSN20060314022512803/14/06 02:25:31  5-MIN KMSN 140825Z 29015G22KT 9SM -SN FEW022 SCT028 OVC034 M03/M08 A2982 960 71 -1000 290/15G22 RMK AO2 P0000
14837KMSN MSN20060314023012103/14/06 02:30:31  5-MIN KMSN 140830Z 29012G22KT 9SM -SN SCT025 OVC034 M03/M08 A2982 960 71 -1000 290/12G22 RMK AO2 P0000
14837KMSN MSN20060314023512803/14/06 02:35:31  5-MIN KMSN 140835Z 29013G22KT 9SM -SN FEW023 BKN028 OVC035 M03/M08 A2982 960 71 -1000 290/13G22 RMK AO2 P0000
14837KMSN MSN20060314024012103/14/06 02:40:31  5-MIN KMSN 140840Z 29014G19KT 9SM -SN BKN028 OVC035 M03/M08 A2982 960 71 -1000 290/14G19 RMK AO2 P0000
14837KMSN MSN20060314024512103/14/06 02:45:31  5-MIN KMSN 140845Z 29011G18KT 9SM -SN BKN028 OVC035 M03/M08 A2982 960 71 -1000 290/11G18 RMK AO2 P0000
14837KMSN MSN20060314025015003/14/06 02:50:31  5-MIN KMSN 140850Z 29013G18KT 9SM -SN BKN028 OVC035 M03/M08 A2982 960 68 -1000 290/13G18 RMK AO2 SLP108 P0000 60000 T10331083 53012
14837KMSN MSN20060314025511403/14/06 02:55:31  5-MIN KMSN 140855Z 30012G18KT 9SM -SN OVC028 M03/M08 A2982 950 68 -1000 300/12G18 RMK AO2 P0000
14837KMSN MSN20060314030011403/14/06 03:00:31  5-MIN KMSN 140900Z 30012G18KT 9SM -SN OVC028 M03/M08 A2982 950 68 -1000 290/12G18 RMK AO2 P0000
14837KMSN MSN20060314030511403/14/06 03:05:31  5-MIN KMSN 140905Z 29011G18KT 9SM -SN OVC026 M03/M08 A2983 950 68 -1000 290/11G18 RMK AO2 P0000
14837KMSN MSN20060314031011403/14/06 03:10:31  5-MIN KMSN 140910Z 30012G17KT 9SM -SN OVC026 M03/M08 A2983 950 68 -1000 300/12G17 RMK AO2 P0000
14837KMSN MSN20060314031511403/14/06 03:15:31  5-MIN KMSN 140915Z 30010G18KT 9SM -SN OVC026 M04/M08 A2982 950 71 -1000 290/10G18 RMK AO2 P0000
14837KMSN MSN20060314032011603/14/06 03:20:31  5-MIN KMSN 140920Z 30014G19KT 9SM BKN026 M04/M08 A2983 950 71 -1100 300/14G19 RMK AO2 SNE18 P0000
14837KMSN MSN20060314032511703/14/06 03:25:31  5-MIN KMSN 140925Z 29012G19KT 10SM BKN026 M04/M09 A2983 950 68 -1100 290/12G19 RMK AO2 SNE18 P0000
14837KMSN MSN20060314033013303/14/06 03:30:31  5-MIN KMSN 140930Z 29012G19KT 250V310 10SM SCT026 M04/M09 A2984 940 68 -1100 290/12G19 250V310 RMK AO2 SNE18 P0000
14837KMSN MSN20060314033511703/14/06 03:35:31  5-MIN KMSN 140935Z 29009G19KT 10SM SCT026 M04/M09 A2984 940 71 -1100 290/09G19 RMK AO2 SNE18 P0000
14837KMSN MSN20060314034011703/14/06 03:40:31  5-MIN KMSN 140940Z 29013G18KT 10SM FEW026 M04/M09 A2984 940 71 -1100 290/13G18 RMK AO2 SNE18 P0000
14837KMSN MSN20060314034511403/14/06 03:45:31  5-MIN KMSN 140945Z 29010G19KT 10SM CLR M04/M09 A2984 940 71 -1100 290/10G19 RMK AO2 SNE18 P0000
14837KMSN MSN20060314035013103/14/06 03:50:31  5-MIN KMSN 140950Z 29011G19KT 10SM CLR M04/M09 A2985 930 71 -1100 290/11G19 RMK AO2 SNE18 SLP117 P0000 T10441089
14837KMSN MSN20060314035511803/14/06 03:55:31  5-MIN KMSN 140955Z 29010G19KT 240V310 10SM CLR M04/M09 A2985 930 71 -1100 280/10G19 240V310 RMK AO2
14837KMSN MSN20060314040010203/14/06 04:00:31  5-MIN KMSN 141000Z 29011G16KT 10SM CLR M04/M09 A2985 930 71 -1200 290/11G16 RMK AO2
14837KMSN MSN20060314040510203/14/06 04:05:31  5-MIN KMSN 141005Z 29010G16KT 10SM CLR M04/M09 A2985 930 71 -1200 290/10G16 RMK AO2
14837KMSN MSN20060314041010203/14/06 04:10:31  5-MIN KMSN 141010Z 29011G19KT 10SM CLR M04/M09 A2986 920 71 -1200 290/11G19 RMK AO2
14837KMSN MSN20060314041510203/14/06 04:15:31  5-MIN KMSN 141015Z 29010G19KT 10SM CLR M04/M09 A2986 920 71 -1200 290/10G19 RMK AO2
14837KMSN MSN20060314042010203/14/06 04:20:31  5-MIN KMSN 141020Z 28011G16KT 10SM CLR M04/M09 A2986 920 71 -1200 280/11G16 RMK AO2
14837KMSN MSN20060314042510203/14/06 04:25:31  5-MIN KMSN 141025Z 29010G16KT 10SM CLR M04/M09 A2986 920 71 -1200 290/10G16 RMK AO2
14837KMSN MSN20060314043010203/14/06 04:30:31  5-MIN KMSN 141030Z 28009G17KT 10SM CLR M04/M09 A2987 910 71 -1200 280/09G17 RMK AO2
14837KMSN MSN20060314043510203/14/06 04:35:31  5-MIN KMSN 141035Z 29010G17KT 10SM CLR M04/M09 A2987 910 71 -1200 290/10G17 RMK AO2
14837KMSN MSN20060314044010203/14/06 04:40:31  5-MIN KMSN 141040Z 29009G15KT 10SM CLR M04/M09 A2987 910 71 -1200 290/09G15 RMK AO2
14837KMSN MSN20060314044510203/14/06 04:45:31  5-MIN KMSN 141045Z 29011G17KT 10SM CLR M04/M09 A2987 910 71 -1200 290/11G17 RMK AO2
14837KMSN MSN20060314045011903/14/06 04:50:31  5-MIN KMSN 141050Z 29007G17KT 10SM CLR M04/M09 A2987 910 71 -1200 290/07G17 RMK AO2 SLP126 T10441089
14837KMSN MSN20060314045509603/14/06 04:55:31  5-MIN KMSN 141055Z 28009KT 10SM CLR M05/M09 A2987 910 74 -1200 280/09 RMK AO2
14837KMSN MSN20060314050009603/14/06 05:00:31  5-MIN KMSN 141100Z 29009KT 10SM CLR M05/M09 A2987 910 74 -1200 290/09 RMK AO2
14837KMSN MSN20060314050511203/14/06 05:05:31  5-MIN KMSN 141105Z 29007KT 250V310 10SM CLR M05/M09 A2988 900 74 -1300 280/07 250V310 RMK AO2
14837KMSN MSN20060314051009603/14/06 05:10:31  5-MIN KMSN 141110Z 28009KT 10SM CLR M05/M09 A2988 900 74 -1300 280/09 RMK AO2
14837KMSN MSN20060314051510203/14/06 05:15:31  5-MIN KMSN 141115Z 28009G15KT 10SM CLR M05/M09 A2988 900 74 -1300 280/09G15 RMK AO2
14837KMSN MSN20060314052010203/14/06 05:20:31  5-MIN KMSN 141120Z 28009G16KT 10SM CLR M05/M09 A2989 900 74 -1300 280/09G16 RMK AO2
14837KMSN MSN20060314052510203/14/06 05:25:31  5-MIN KMSN 141125Z 29008G16KT 10SM CLR M05/M09 A2989 900 74 -1300 280/08G16 RMK AO2
14837KMSN MSN20060314053009603/14/06 05:30:31  5-MIN KMSN 141130Z 29010KT 10SM CLR M05/M09 A2989 900 74 -1300 280/10 RMK AO2
14837KMSN MSN20060314053511203/14/06 05:35:31  5-MIN KMSN 141135Z 28008KT 260V320 10SM CLR M05/M09 A2989 890 74 -1300 280/08 260V320 RMK AO2
14837KMSN MSN20060314054009603/14/06 05:40:31  5-MIN KMSN 141140Z 28010KT 10SM CLR M05/M09 A2989 890 74 -1300 280/10 RMK AO2
14837KMSN MSN20060314054509603/14/06 05:45:31  5-MIN KMSN 141145Z 29011KT 10SM CLR M05/M09 A2989 890 74 -1300 280/11 RMK AO2
14837KMSN MSN20060314055014903/14/06 05:50:31  5-MIN KMSN 141150Z 28010G17KT 10SM CLR M05/M09 A2989 890 71 -1300 280/10G17 RMK AO2 SLP133 60000 70001 T10501094 11022 21050 51020
14837KMSN MSN20060314055510203/14/06 05:55:31  5-MIN KMSN 141155Z 28011G19KT 10SM CLR M05/M09 A2989 890 71 -1300 280/11G19 RMK AO2
14837KMSN MSN20060314060011803/14/06 06:00:31  5-MIN KMSN 141200Z 28008G19KT 240V310 10SM CLR M05/M09 A2990 890 71 -1300 280/08G19 240V310 RMK AO2
14837KMSN MSN20060314060510203/14/06 06:05:31  5-MIN KMSN 141205Z 27011G18KT 10SM CLR M05/M09 A2990 890 74 -1300 270/11G18 RMK AO2
14837KMSN MSN20060314061011803/14/06 06:10:31  5-MIN KMSN 141210Z 27009G18KT 240V300 10SM CLR M05/M09 A2990 890 71 -1300 270/09G18 240V300 RMK AO2
14837KMSN MSN20060314061510203/14/06 06:15:31  5-MIN KMSN 141215Z 28009G17KT 10SM CLR M06/M09 A2990 890 74 -1300 280/09G17 RMK AO2
14837KMSN MSN20060314062011803/14/06 06:20:31  5-MIN KMSN 141220Z 28008G17KT 250V310 10SM CLR M06/M09 A2990 880 74 -1300 280/08G17 250V310 RMK AO2
14837KMSN MSN20060314062510203/14/06 06:25:31  5-MIN KMSN 141225Z 28011G18KT 10SM CLR M06/M09 A2990 880 74 -1400 280/11G18 RMK AO2
14837KMSN MSN20060314063010203/14/06 06:30:31  5-MIN KMSN 141230Z 27008G18KT 10SM CLR M06/M09 A2990 880 74 -1400 270/08G18 RMK AO2
14837KMSN MSN20060314063511203/14/06 06:35:31  5-MIN KMSN 141235Z 27010KT 250V310 10SM CLR M06/M09 A2991 880 74 -1400 270/10 250V310 RMK AO2
14837KMSN MSN20060314064010203/14/06 06:40:31  5-MIN KMSN 141240Z 27011G17KT 10SM CLR M06/M09 A2991 870 74 -1400 270/11G17 RMK AO2
14837KMSN MSN20060314064510203/14/06 06:45:31  5-MIN KMSN 141245Z 28010G17KT 10SM CLR M06/M09 A2991 870 74 -1400 280/10G17 RMK AO2
14837KMSN MSN20060314065011903/14/06 06:50:31  5-MIN KMSN 141250Z 28010G15KT 10SM CLR M06/M09 A2991 870 74 -1400 280/10G15 RMK AO2 SLP141 T10561094
14837KMSN MSN20060314065511203/14/06 06:55:31  5-MIN KMSN 141255Z 27010KT 230V310 10SM CLR M06/M09 A2992 870 74 -1400 270/10 230V310 RMK AO2
14837KMSN MSN20060314070011203/14/06 07:00:31  5-MIN KMSN 141300Z 28009KT 240V300 10SM CLR M06/M09 A2992 870 74 -1400 280/09 240V300 RMK AO2
14837KMSN MSN20060314070509603/14/06 07:05:31  5-MIN KMSN 141305Z 28010KT 10SM CLR M06/M09 A2992 870 74 -1400 280/10 RMK AO2
14837KMSN MSN20060314071010203/14/06 07:10:31  5-MIN KMSN 141310Z 28010G16KT 10SM CLR M06/M09 A2992 870 74 -1400 280/10G16 RMK AO2
14837KMSN MSN20060314071510203/14/06 07:15:31  5-MIN KMSN 141315Z 28009G16KT 10SM CLR M06/M09 A2992 870 74 -1400 280/09G16 RMK AO2
14837KMSN MSN20060314072010203/14/06 07:20:31  5-MIN KMSN 141320Z 28010G15KT 10SM CLR M06/M09 A2992 860 74 -1400 270/10G15 RMK AO2
14837KMSN MSN20060314072509603/14/06 07:25:31  5-MIN KMSN 141325Z 28011KT 10SM CLR M06/M09 A2993 860 74 -1400 280/11 RMK AO2
14837KMSN MSN20060314073009603/14/06 07:30:31  5-MIN KMSN 141330Z 28010KT 10SM CLR M06/M09 A2993 850 74 -1400 280/10 RMK AO2
14837KMSN MSN20060314073510203/14/06 07:35:31  5-MIN KMSN 141335Z 28011G17KT 10SM CLR M06/M09 A2993 850 74 -1400 280/11G17 RMK AO2
14837KMSN MSN20060314074010203/14/06 07:40:31  5-MIN KMSN 141340Z 27010G17KT 10SM CLR M06/M09 A2993 850 74 -1400 270/10G17 RMK AO2
14837KMSN MSN20060314074509603/14/06 07:45:31  5-MIN KMSN 141345Z 28010KT 10SM CLR M05/M09 A2994 850 71 -1300 280/10 RMK AO2
14837KMSN MSN20060314075011903/14/06 07:50:31  5-MIN KMSN 141350Z 29010G17KT 10SM CLR M05/M09 A2994 850 71 -1300 290/10G17 RMK AO2 SLP149 T10501094
14837KMSN MSN20060314075510203/14/06 07:55:31  5-MIN KMSN 141355Z 28009G17KT 10SM CLR M05/M09 A2994 850 71 -1300 280/09G17 RMK AO2
14837KMSN MSN20060314080010203/14/06 08:00:31  5-MIN KMSN 141400Z 28011G16KT 10SM CLR M04/M09 A2994 850 68 -1300 280/11G16 RMK AO2
14837KMSN MSN20060314080510203/14/06 08:05:31  5-MIN KMSN 141405Z 29014G22KT 10SM CLR M05/M10 A2994 840 68 -1300 290/14G22 RMK AO2
14837KMSN MSN20060314081010203/14/06 08:10:31  5-MIN KMSN 141410Z 29013G22KT 10SM CLR M04/M09 A2994 840 68 -1300 290/13G22 RMK AO2
14837KMSN MSN20060314081510203/14/06 08:15:31  5-MIN KMSN 141415Z 28010G18KT 10SM CLR M04/M09 A2994 850 68 -1300 280/10G18 RMK AO2
14837KMSN MSN20060314082010203/14/06 08:20:31  5-MIN KMSN 141420Z 28011G19KT 10SM CLR M04/M09 A2994 840 68 -1300 280/11G19 RMK AO2
14837KMSN MSN20060314082511803/14/06 08:25:31  5-MIN KMSN 141425Z 28011G19KT 250V310 10SM CLR M04/M09 A2995 840 68 -1300 270/11G19 250V310 RMK AO2
14837KMSN MSN20060314083010203/14/06 08:30:31  5-MIN KMSN 141430Z 27011G19KT 10SM CLR M04/M09 A2994 840 65 -1200 270/11G19 RMK AO2
14837KMSN MSN20060314083509603/14/06 08:35:31  5-MIN KMSN 141435Z 29010KT 10SM CLR M04/M09 A2995 840 65 -1200 290/10 RMK AO2
14837KMSN MSN20060314084010203/14/06 08:40:31  5-MIN KMSN 141440Z 28009G16KT 10SM CLR M04/M09 A2994 840 68 -1200 280/09G16 RMK AO2
14837KMSN MSN20060314084510203/14/06 08:45:31  5-MIN KMSN 141445Z 28009G15KT 10SM CLR M03/M09 A2995 840 65 -1100 280/09G15 RMK AO2
14837KMSN MSN20060314085012503/14/06 08:50:31  5-MIN KMSN 141450Z 29011G18KT 10SM CLR M03/M09 A2995 840 65 -1100 290/11G18 RMK AO2 SLP152 T10331089 51023
14837KMSN MSN20060314085511803/14/06 08:55:31  5-MIN KMSN 141455Z 28007G18KT 240V310 10SM CLR M03/M09 A2995 840 65 -1100 280/07G18 240V310 RMK AO2
14837KMSN MSN20060314090010203/14/06 09:00:31  5-MIN KMSN 141500Z 29010G16KT 10SM CLR M03/M09 A2995 840 63 -1000 290/10G16 RMK AO2
14837KMSN MSN20060314090510203/14/06 09:05:31  5-MIN KMSN 141505Z 29009G16KT 10SM CLR M03/M09 A2995 840 63 -1100 280/09G16 RMK AO2
14837KMSN MSN20060314091009603/14/06 09:10:31  5-MIN KMSN 141510Z 28011KT 10SM CLR M03/M09 A2995 840 63 -1100 280/11 RMK AO2
14837KMSN MSN20060314091510203/14/06 09:15:31  5-MIN KMSN 141515Z 29010G17KT 10SM CLR M03/M09 A2995 830 63 -1100 290/10G17 RMK AO2
14837KMSN MSN20060314092010203/14/06 09:20:31  5-MIN KMSN 141520Z 29011G18KT 10SM CLR M03/M09 A2996 830 60 -1100 290/11G18 RMK AO2
14837KMSN MSN20060314092510203/14/06 09:25:31  5-MIN KMSN 141525Z 29013G19KT 10SM CLR M02/M09 A2996 830 60 -1000 290/13G19 RMK AO2
14837KMSN MSN20060314093010203/14/06 09:30:31  5-MIN KMSN 141530Z 30015G20KT 10SM CLR M02/M09 A2996 830 58 -1000 300/15G20 RMK AO2
14837KMSN MSN20060314093510103/14/06 09:35:31  5-MIN KMSN 141535Z 30011G20KT 10SM CLR M02/M09 A2996 830 58 -900 300/11G20 RMK AO2
14837KMSN MSN20060314094010103/14/06 09:40:31  5-MIN KMSN 141540Z 30011G18KT 10SM CLR M02/M09 A2996 830 58 -900 300/11G18 RMK AO2
14837KMSN MSN20060314094510103/14/06 09:45:31  5-MIN KMSN 141545Z 29012G19KT 10SM CLR M02/M09 A2996 830 58 -900 290/12G19 RMK AO2
14837KMSN MSN20060314095011803/14/06 09:50:31  5-MIN KMSN 141550Z 30011G19KT 10SM CLR M02/M09 A2996 820 58 -900 300/11G19 RMK AO2 SLP157 T10171089
14837KMSN MSN20060314095510403/14/06 09:55:31  5-MIN KMSN 141555Z 30011G19KT 10SM FEW030 M02/M09 A2996 820 58 -900 300/11G19 RMK AO2
14837KMSN MSN20060314100010403/14/06 10:00:31  5-MIN KMSN 141600Z 28013G22KT 10SM FEW030 M02/M09 A2997 820 58 -900 280/13G22 RMK AO2
14837KMSN MSN20060314100510403/14/06 10:05:31  5-MIN KMSN 141605Z 29016G22KT 10SM FEW030 M02/M09 A2997 820 58 -900 290/16G22 RMK AO2
14837KMSN MSN20060314101010403/14/06 10:10:31  5-MIN KMSN 141610Z 28014G21KT 10SM FEW030 M02/M09 A2997 820 58 -900 280/14G21 RMK AO2
14837KMSN MSN20060314101510403/14/06 10:15:31  5-MIN KMSN 141615Z 28016G21KT 10SM FEW030 M02/M09 A2997 820 58 -900 280/16G21 RMK AO2
14837KMSN MSN20060314102010403/14/06 10:20:31  5-MIN KMSN 141620Z 29015G21KT 10SM FEW030 M02/M09 A2997 820 58 -900 290/15G21 RMK AO2
14837KMSN MSN20060314102510403/14/06 10:25:31  5-MIN KMSN 141625Z 29012G21KT 10SM FEW030 M01/M09 A2997 820 55 -900 290/12G21 RMK AO2
14837KMSN MSN20060314103010403/14/06 10:30:31  5-MIN KMSN 141630Z 29015G22KT 10SM FEW030 M01/M09 A2997 820 55 -900 290/15G22 RMK AO2
14837KMSN MSN20060314103510403/14/06 10:35:31  5-MIN KMSN 141635Z 29014G22KT 10SM FEW030 M01/M09 A2997 820 55 -900 290/14G22 RMK AO2
14837KMSN MSN20060314104010403/14/06 10:40:31  5-MIN KMSN 141640Z 29016G21KT 10SM FEW030 M01/M08 A2997 810 56 -800 290/16G21 RMK AO2
14837KMSN MSN20060314104510403/14/06 10:45:31  5-MIN KMSN 141645Z 28012G21KT 10SM FEW030 M01/M09 A2997 810 53 -800 280/12G21 RMK AO2
14837KMSN MSN20060314105012103/14/06 10:50:31  5-MIN KMSN 141650Z 29014G24KT 10SM FEW035 M01/M09 A2998 810 53 -800 290/14G24 RMK AO2 SLP161 T10061089
14837KMSN MSN20060314105510403/14/06 10:55:31  5-MIN KMSN 141655Z 29016G24KT 10SM FEW035 M01/M09 A2998 810 53 -800 290/16G24 RMK AO2
14837KMSN MSN20060314110012003/14/06 11:00:31  5-MIN KMSN 141700Z 29011G20KT 260V320 10SM FEW035 M01/M08 A2998 810 56 -800 290/11G20 260V320 RMK AO2
14837KMSN MSN20060314110510303/14/06 11:05:31  5-MIN KMSN 141705Z 29012G21KT 10SM FEW035 00/M08 A2997 810 53 -700 290/12G21 RMK AO2
14837KMSN MSN20060314111010303/14/06 11:10:31  5-MIN KMSN 141710Z 28014G21KT 10SM FEW035 00/M08 A2998 810 53 -700 280/14G21 RMK AO2
14837KMSN MSN20060314111510303/14/06 11:15:31  5-MIN KMSN 141715Z 28011G20KT 10SM FEW035 00/M08 A2998 810 53 -700 280/11G20 RMK AO2
14837KMSN MSN20060314112010303/14/06 11:20:31  5-MIN KMSN 141720Z 29017G23KT 10SM FEW035 00/M09 A2998 810 51 -700 290/17G23 RMK AO2
14837KMSN MSN20060314112510303/14/06 11:25:31  5-MIN KMSN 141725Z 30016G23KT 10SM FEW035 01/M08 A2998 810 51 -700 300/16G23 RMK AO2
14837KMSN MSN20060314113010303/14/06 11:30:31  5-MIN KMSN 141730Z 30017G24KT 10SM FEW035 00/M09 A2998 810 49 -700 300/17G24 RMK AO2
14837KMSN MSN20060314113510303/14/06 11:35:31  5-MIN KMSN 141735Z 31016G24KT 10SM FEW035 01/M09 A2998 810 49 -700 310/16G24 RMK AO2
14837KMSN MSN20060314114010303/14/06 11:40:31  5-MIN KMSN 141740Z 30016G22KT 10SM FEW035 01/M09 A2998 810 49 -700 300/16G22 RMK AO2
14837KMSN MSN20060314114510303/14/06 11:45:31  5-MIN KMSN 141745Z 30015G22KT 10SM FEW035 01/M09 A2998 800 49 -700 290/15G22 RMK AO2
14837KMSN MSN20060314115015403/14/06 11:50:31  5-MIN KMSN 141750Z 30015G21KT 260V330 10SM FEW036 01/M09 A2999 800 49 -700 300/15G21 260V330 RMK AO2 SLP165 T00061089 10006 21056 51018
14837KMSN MSN20060314115510303/14/06 11:55:31  5-MIN KMSN 141755Z 31016G23KT 10SM FEW036 01/M09 A2999 800 49 -700 310/16G23 RMK AO2
14837KMSN MSN20060314120010303/14/06 12:00:31  5-MIN KMSN 141800Z 30015G23KT 10SM FEW036 01/M08 A2999 800 49 -600 300/15G23 RMK AO2
14837KMSN MSN20060314120510303/14/06 12:05:31  5-MIN KMSN 141805Z 29019G23KT 10SM FEW036 01/M09 A2999 800 49 -700 290/19G23 RMK AO2
14837KMSN MSN20060314121010303/14/06 12:10:31  5-MIN KMSN 141810Z 30013G23KT 10SM FEW036 01/M09 A2999 800 49 -700 290/13G23 RMK AO2
14837KMSN MSN20060314121510303/14/06 12:15:31  5-MIN KMSN 141815Z 30014G23KT 10SM FEW036 01/M09 A2999 800 47 -600 300/14G23 RMK AO2
14837KMSN MSN20060314122010303/14/06 12:20:31  5-MIN KMSN 141820Z 31016G22KT 10SM FEW036 02/M09 A2999 800 45 -500 300/16G22 RMK AO2
14837KMSN MSN20060314122510303/14/06 12:25:31  5-MIN KMSN 141825Z 30013G22KT 10SM FEW036 01/M09 A2999 800 45 -600 300/13G22 RMK AO2
14837KMSN MSN20060314123010303/14/06 12:30:31  5-MIN KMSN 141830Z 30014G24KT 10SM FEW036 01/M09 A2999 800 45 -600 300/14G24 RMK AO2
14837KMSN MSN20060314123510303/14/06 12:35:31  5-MIN KMSN 141835Z 29015G24KT 10SM FEW036 01/M09 A2999 800 45 -600 290/15G24 RMK AO2
14837KMSN MSN20060314124011903/14/06 12:40:31  5-MIN KMSN 141840Z 29014G23KT 250V320 10SM FEW036 02/M09 A2999 800 45 -500 290/14G23 250V320 RMK AO2
14837KMSN MSN20060314124512103/14/06 12:45:31  5-MIN KMSN 141845Z 30017G26KT 10SM FEW036 02/M09 A2999 800 43 -500 300/17G26 RMK AO2 PK WND 30026/1844
14837KMSN MSN20060314125013803/14/06 12:50:31  5-MIN KMSN 141850Z 29013G26KT 10SM FEW038 02/M09 A2999 800 45 -500 290/13G26 RMK AO2 PK WND 30026/1844 SLP165 T00171089
14837KMSN MSN20060314125510303/14/06 12:55:31  5-MIN KMSN 141855Z 30014G25KT 10SM FEW038 02/M09 A2999 800 45 -500 300/14G25 RMK AO2
14837KMSN MSN20060314130010303/14/06 13:00:31  5-MIN KMSN 141900Z 30013G25KT 10SM FEW038 02/M09 A2999 800 44 -500 300/13G25 RMK AO2
14837KMSN MSN20060314130510303/14/06 13:05:31  5-MIN KMSN 141905Z 29017G23KT 10SM FEW038 02/M09 A2999 800 43 -500 290/17G23 RMK AO2
14837KMSN MSN20060314131012103/14/06 13:10:31  5-MIN KMSN 141910Z 29019G26KT 10SM FEW038 02/M10 A2999 800 42 -500 290/19G26 RMK AO2 PK WND 28026/1908
14837KMSN MSN20060314131512103/14/06 13:15:31  5-MIN KMSN 141915Z 29017G26KT 10SM FEW038 02/M10 A2999 800 42 -500 290/17G26 RMK AO2 PK WND 31026/1911
14837KMSN MSN20060314132012103/14/06 13:20:31  5-MIN KMSN 141920Z 30016G26KT 10SM FEW038 02/M10 A2999 800 40 -500 300/16G26 RMK AO2 PK WND 31026/1911
14837KMSN MSN20060314132512103/14/06 13:25:31  5-MIN KMSN 141925Z 30018G24KT 10SM FEW038 02/M10 A2999 800 40 -500 300/18G24 RMK AO2 PK WND 31026/1911
14837KMSN MSN20060314133012103/14/06 13:30:31  5-MIN KMSN 141930Z 28017G24KT 10SM FEW038 02/M10 A2999 800 40 -500 280/17G24 RMK AO2 PK WND 31026/1911
14837KMSN MSN20060314133513703/14/06 13:35:31  5-MIN KMSN 141935Z 29018G24KT 250V320 10SM FEW038 02/M10 A2999 800 40 -500 290/18G24 250V320 RMK AO2 PK WND 31026/1911
14837KMSN MSN20060314134012103/14/06 13:40:31  5-MIN KMSN 141940Z 31019G28KT 10SM FEW038 02/M11 A2999 800 38 -500 300/19G28 RMK AO2 PK WND 30028/1939
14837KMSN MSN20060314134512103/14/06 13:45:31  5-MIN KMSN 141945Z 29019G31KT 10SM FEW038 02/M11 A2999 800 38 -500 290/19G31 RMK AO2 PK WND 30031/1942
14837KMSN MSN20060314135013803/14/06 13:50:31  5-MIN KMSN 141950Z 30019G31KT 10SM FEW045 03/M11 A2999 800 37 -400 300/19G31 RMK AO2 PK WND 30031/1942 SLP165 T00281106
14837KMSN MSN20060314135512103/14/06 13:55:31  5-MIN KMSN 141955Z 30017G29KT 10SM FEW045 03/M11 A2999 800 37 -400 300/17G29 RMK AO2 PK WND 31029/1954
14837KMSN MSN20060314140012103/14/06 14:00:31  5-MIN KMSN 142000Z 30020G29KT 10SM FEW045 03/M11 A2999 800 37 -400 300/20G29 RMK AO2 PK WND 31029/1954
14837KMSN MSN20060314140513703/14/06 14:05:31  5-MIN KMSN 142005Z 30018G28KT 260V320 10SM FEW045 03/M11 A2999 800 37 -400 290/18G28 260V320 RMK AO2 PK WND 31029/1954
14837KMSN MSN20060314141012103/14/06 14:10:31  5-MIN KMSN 142010Z 29016G28KT 10SM FEW045 03/M10 A2999 800 37 -300 290/16G28 RMK AO2 PK WND 31029/1954
14837KMSN MSN20060314141512103/14/06 14:15:31  5-MIN KMSN 142015Z 30014G23KT 10SM FEW045 03/M10 A2999 800 38 -400 290/14G23 RMK AO2 PK WND 31029/1954
14837KMSN MSN20060314142012103/14/06 14:20:31  5-MIN KMSN 142020Z 30019G26KT 10SM FEW045 03/M11 A3000 790 37 -400 300/19G26 RMK AO2 PK WND 31029/1954
14837KMSN MSN20060314142512103/14/06 14:25:31  5-MIN KMSN 142025Z 30018G26KT 10SM FEW045 03/M10 A2999 800 38 -400 300/18G26 RMK AO2 PK WND 31029/1954
14837KMSN MSN20060314143012103/14/06 14:30:31  5-MIN KMSN 142030Z 30018G29KT 10SM FEW045 03/M11 A3000 790 37 -400 300/18G29 RMK AO2 PK WND 30029/2028
14837KMSN MSN20060314143512103/14/06 14:35:31  5-MIN KMSN 142035Z 29017G29KT 10SM FEW045 03/M11 A3000 790 35 -300 290/17G29 RMK AO2 PK WND 30029/2028
14837KMSN MSN20060314144012103/14/06 14:40:31  5-MIN KMSN 142040Z 30021G28KT 10SM FEW045 03/M11 A3000 790 35 -400 300/21G28 RMK AO2 PK WND 30029/2028
14837KMSN MSN20060314144512103/14/06 14:45:31  5-MIN KMSN 142045Z 30019G28KT 10SM FEW045 03/M11 A3001 790 35 -400 300/19G28 RMK AO2 PK WND 30029/2028
14837KMSN MSN20060314145014403/14/06 14:50:31  5-MIN KMSN 142050Z 30021G28KT 10SM FEW050 03/M11 A3001 780 35 -400 300/21G28 RMK AO2 PK WND 30029/2028 SLP171 T00281111 51013
14837KMSN MSN20060314145510303/14/06 14:55:31  5-MIN KMSN 142055Z 29013G28KT 10SM FEW050 03/M11 A3001 780 35 -400 290/13G28 RMK AO2
14837KMSN MSN20060314150010303/14/06 15:00:31  5-MIN KMSN 142100Z 31019G24KT 10SM FEW050 03/M11 A3001 780 35 -400 310/19G24 RMK AO2
14837KMSN MSN20060314150510303/14/06 15:05:31  5-MIN KMSN 142105Z 29016G24KT 10SM FEW050 03/M11 A3001 780 35 -400 290/16G24 RMK AO2
14837KMSN MSN20060314151012103/14/06 15:10:31  5-MIN KMSN 142110Z 29015G26KT 10SM FEW050 03/M11 A3001 780 35 -400 290/15G26 RMK AO2 PK WND 28026/2108
14837KMSN MSN20060314151512103/14/06 15:15:31  5-MIN KMSN 142115Z 31014G26KT 10SM FEW050 03/M11 A3001 780 37 -400 300/14G26 RMK AO2 PK WND 28026/2108
14837KMSN MSN20060314152012103/14/06 15:20:31  5-MIN KMSN 142120Z 30013G25KT 10SM FEW050 03/M10 A3001 780 37 -400 300/13G25 RMK AO2 PK WND 28026/2108
14837KMSN MSN20060314152512103/14/06 15:25:31  5-MIN KMSN 142125Z 30017G23KT 10SM FEW050 03/M11 A3002 780 37 -400 300/17G23 RMK AO2 PK WND 28026/2108
14837KMSN MSN20060314153012103/14/06 15:30:31  5-MIN KMSN 142130Z 29016G24KT 10SM FEW050 03/M11 A3002 780 37 -400 290/16G24 RMK AO2 PK WND 28026/2108
14837KMSN MSN20060314153512103/14/06 15:35:31  5-MIN KMSN 142135Z 30016G26KT 10SM FEW050 03/M11 A3002 780 37 -400 300/16G26 RMK AO2 PK WND 28026/2133
14837KMSN MSN20060314154012103/14/06 15:40:31  5-MIN KMSN 142140Z 31017G26KT 10SM FEW050 03/M11 A3002 770 37 -400 310/17G26 RMK AO2 PK WND 28026/2133
14837KMSN MSN20060314154512103/14/06 15:45:31  5-MIN KMSN 142145Z 30016G23KT 10SM FEW050 03/M10 A3002 780 38 -400 300/16G23 RMK AO2 PK WND 28026/2133
14837KMSN MSN20060314155013803/14/06 15:50:31  5-MIN KMSN 142150Z 30015G23KT 10SM FEW050 03/M10 A3002 770 38 -400 300/15G23 RMK AO2 PK WND 28026/2133 SLP176 T00281100
14837KMSN MSN20060314155510303/14/06 15:55:31  5-MIN KMSN 142155Z 30010G23KT 10SM FEW060 03/M09 A3002 770 39 -400 290/10G23 RMK AO2
14837KMSN MSN20060314160010303/14/06 16:00:31  5-MIN KMSN 142200Z 30014G21KT 10SM FEW060 03/M09 A3002 770 40 -400 300/14G21 RMK AO2
14837KMSN MSN20060314160510303/14/06 16:05:31  5-MIN KMSN 142205Z 29014G21KT 10SM FEW060 03/M09 A3002 770 40 -400 290/14G21 RMK AO2
14837KMSN MSN20060314161010303/14/06 16:10:31  5-MIN KMSN 142210Z 29012G21KT 10SM FEW060 03/M09 A3002 770 40 -400 290/12G21 RMK AO2
14837KMSN MSN20060314161510303/14/06 16:15:31  5-MIN KMSN 142215Z 29014G19KT 10SM FEW060 03/M09 A3002 770 40 -400 290/14G19 RMK AO2
14837KMSN MSN20060314162011903/14/06 16:20:31  5-MIN KMSN 142220Z 29012G22KT 260V320 10SM FEW060 03/M09 A3002 770 40 -400 290/12G22 260V320 RMK AO2
14837KMSN MSN20060314162510303/14/06 16:25:31  5-MIN KMSN 142225Z 30012G22KT 10SM FEW060 02/M09 A3002 770 44 -500 290/12G22 RMK AO2
14837KMSN MSN20060314163010303/14/06 16:30:31  5-MIN KMSN 142230Z 30012G18KT 10SM SCT055 02/M09 A3002 770 44 -500 300/12G18 RMK AO2
14837KMSN MSN20060314163510303/14/06 16:35:31  5-MIN KMSN 142235Z 30012G24KT 10SM SCT055 02/M09 A3002 770 44 -500 300/12G24 RMK AO2
14837KMSN MSN20060314164010303/14/06 16:40:31  5-MIN KMSN 142240Z 29010G24KT 10SM SCT055 02/M09 A3003 770 44 -500 290/10G24 RMK AO2
14837KMSN MSN20060314164510303/14/06 16:45:31  5-MIN KMSN 142245Z 30011G19KT 10SM OVC060 02/M08 A3003 770 45 -500 300/11G19 RMK AO2
14837KMSN MSN20060314165012703/14/06 16:50:31  5-MIN KMSN 142250Z 29011G21KT 10SM FEW055 SCT060 02/M09 A3003 770 44 -500 290/11G21 RMK AO2 SLP179 T00221089
14837KMSN MSN20060314165510303/14/06 16:55:31  5-MIN KMSN 142255Z 30013G21KT 10SM SCT055 02/M08 A3003 770 45 -500 300/13G21 RMK AO2
14837KMSN MSN20060314170010303/14/06 17:00:31  5-MIN KMSN 142300Z 30012G19KT 10SM SCT055 02/M09 A3003 760 45 -600 300/12G19 RMK AO2
14837KMSN MSN20060314170510303/14/06 17:05:31  5-MIN KMSN 142305Z 29009G19KT 10SM SCT055 02/M09 A3003 760 45 -600 290/09G19 RMK AO2
14837KMSN MSN20060314171011903/14/06 17:10:31  5-MIN KMSN 142310Z 28015G22KT 250V310 10SM SCT055 02/M08 A3003 760 47 -600 280/15G22 250V310 RMK AO2
14837KMSN MSN20060314171510303/14/06 17:15:31  5-MIN KMSN 142315Z 29013G22KT 10SM SCT055 02/M08 A3004 760 47 -600 290/13G22 RMK AO2
14837KMSN MSN20060314172011903/14/06 17:20:31  5-MIN KMSN 142320Z 29012G20KT 250V310 10SM SCT055 02/M08 A3004 750 49 -600 290/12G20 250V310 RMK AO2
14837KMSN MSN20060314172511003/14/06 17:25:31  5-MIN KMSN 142325Z 29015G25KT 10SM SCT055 BKN070 01/M08 A3004 760 51 -700 290/15G25 RMK AO2
14837KMSN MSN20060314173011003/14/06 17:30:31  5-MIN KMSN 142330Z 30011G25KT 10SM SCT055 BKN070 01/M08 A3004 750 51 -700 300/11G25 RMK AO2
14837KMSN MSN20060314173511003/14/06 17:35:31  5-MIN KMSN 142335Z 29012G20KT 10SM SCT055 BKN070 01/M08 A3004 750 51 -700 290/12G20 RMK AO2
14837KMSN MSN20060314174011003/14/06 17:40:31  5-MIN KMSN 142340Z 30009G16KT 10SM SCT055 BKN070 01/M08 A3004 750 51 -700 300/09G16 RMK AO2
14837KMSN MSN20060314174510303/14/06 17:45:31  5-MIN KMSN 142345Z 30012G18KT 10SM BKN055 01/M08 A3004 750 51 -700 300/12G18 RMK AO2
14837KMSN MSN20060314175013803/14/06 17:50:31  5-MIN KMSN 142350Z 30014G18KT 10SM BKN055 01/M08 A3005 750 51 -700 300/14G18 RMK AO2 SLP185 T00111078 10033 20006 53008
14837KMSN MSN20060314175510303/14/06 17:55:31  5-MIN KMSN 142355Z 30013G18KT 10SM BKN055 01/M08 A3005 750 51 -700 300/13G18 RMK AO2
14837KMSN MSN20060314180009703/14/06 18:00:31  5-MIN KMSN 150000Z 30012KT 10SM BKN055 01/M08 A3005 750 51 -700 300/12 RMK AO2
14837KMSN MSN20060314180510303/14/06 18:05:31  5-MIN KMSN 150005Z 29012G20KT 10SM BKN055 01/M08 A3005 740 54 -700 290/12G20 RMK AO2
14837KMSN MSN20060314181010303/14/06 18:10:31  5-MIN KMSN 150010Z 29011G20KT 10SM BKN055 01/M08 A3005 750 54 -700 290/11G20 RMK AO2
14837KMSN MSN20060314181511903/14/06 18:15:31  5-MIN KMSN 150015Z 30014G20KT 270V330 10SM SCT055 01/M07 A3005 740 56 -700 290/14G20 270V330 RMK AO2
14837KMSN MSN20060314182010303/14/06 18:20:31  5-MIN KMSN 150020Z 29010G20KT 10SM SCT055 01/M07 A3005 740 56 -700 290/10G20 RMK AO2
14837KMSN MSN20060314182510303/14/06 18:25:31  5-MIN KMSN 150025Z 29011G15KT 10SM FEW055 00/M07 A3005 740 58 -800 290/11G15 RMK AO2
14837KMSN MSN20060314183010303/14/06 18:30:31  5-MIN KMSN 150030Z 29008G15KT 10SM FEW055 00/M07 A3006 740 58 -800 290/08G15 RMK AO2
14837KMSN MSN20060314183510303/14/06 18:35:31  5-MIN KMSN 150035Z 29009G16KT 10SM FEW055 00/M07 A3006 740 58 -800 290/09G16 RMK AO2
14837KMSN MSN20060314184010303/14/06 18:40:31  5-MIN KMSN 150040Z 29010G16KT 10SM FEW055 00/M07 A3006 740 58 -800 290/10G16 RMK AO2
14837KMSN MSN20060314184509703/14/06 18:45:31  5-MIN KMSN 150045Z 29010KT 10SM FEW055 00/M07 A3006 740 58 -800 290/10 RMK AO2
14837KMSN MSN20060314185011403/14/06 18:50:31  5-MIN KMSN 150050Z 29006KT 10SM FEW055 00/M07 A3006 730 58 -800 280/06 RMK AO2 SLP191 T00001072
14837KMSN MSN20060314185509803/14/06 18:55:31  5-MIN KMSN 150055Z VRB06KT 10SM FEW046 M01/M07 A3006 730 61 -900 VRB/06 RMK AO2
14837KMSN MSN20060314190010403/14/06 19:00:31  5-MIN KMSN 150100Z 28010G15KT 10SM FEW046 M01/M07 A3007 730 63 -900 280/10G15 RMK AO2
14837KMSN MSN20060314190510403/14/06 19:05:31  5-MIN KMSN 150105Z 28010G16KT 10SM FEW046 M01/M07 A3007 730 63 -900 280/10G16 RMK AO2
14837KMSN MSN20060314191010403/14/06 19:10:31  5-MIN KMSN 150110Z 27008G16KT 10SM FEW046 M01/M07 A3007 730 63 -900 270/08G16 RMK AO2
14837KMSN MSN20060314191509803/14/06 19:15:31  5-MIN KMSN 150115Z 26010KT 10SM FEW046 M01/M07 A3007 730 63 -900 260/10 RMK AO2
14837KMSN MSN20060314192012003/14/06 19:20:31  5-MIN KMSN 150120Z 28007G14KT 240V310 10SM FEW046 M01/M07 A3007 730 63 -900 280/07G14 240V310 RMK AO2
14837KMSN MSN20060314192510403/14/06 19:25:31  5-MIN KMSN 150125Z 28010G15KT 10SM FEW046 M01/M07 A3007 730 63 -900 280/10G15 RMK AO2
14837KMSN MSN20060314193010403/14/06 19:30:31  5-MIN KMSN 150130Z 28011G17KT 10SM FEW046 M01/M07 A3007 720 61 -900 280/11G17 RMK AO2
14837KMSN MSN20060314193510403/14/06 19:35:31  5-MIN KMSN 150135Z 28013G18KT 10SM FEW046 M01/M07 A3007 720 61 -900 280/13G18 RMK AO2
14837KMSN MSN20060314194010203/14/06 19:40:31  5-MIN KMSN 150140Z 28008G18KT 10SM CLR M01/M07 A3007 720 63 -1000 280/08G18 RMK AO2
14837KMSN MSN20060314194510203/14/06 19:45:31  5-MIN KMSN 150145Z 28010G16KT 10SM CLR M01/M07 A3008 720 63 -1000 280/10G16 RMK AO2
14837KMSN MSN20060314195011903/14/06 19:50:31  5-MIN KMSN 150150Z 28010G16KT 10SM CLR M01/M07 A3008 720 63 -1000 280/10G16 RMK AO2 SLP197 T10111072
14837KMSN MSN20060314195510203/14/06 19:55:31  5-MIN KMSN 150155Z 27006G15KT 10SM CLR M01/M07 A3008 720 63 -1000 270/06G15 RMK AO2
14837KMSN MSN20060314200009603/14/06 20:00:31  5-MIN KMSN 150200Z 28008KT 10SM CLR M01/M07 A3008 720 63 -1000 280/08 RMK AO2
14837KMSN MSN20060314200510203/14/06 20:05:31  5-MIN KMSN 150205Z 28011G17KT 10SM CLR M01/M07 A3008 720 63 -1000 280/11G17 RMK AO2
14837KMSN MSN20060314201010203/14/06 20:10:31  5-MIN KMSN 150210Z 29010G17KT 10SM CLR M01/M07 A3008 720 63 -1000 280/10G17 RMK AO2
14837KMSN MSN20060314201511203/14/06 20:15:31  5-MIN KMSN 150215Z 28009KT 250V330 10SM CLR M01/M07 A3008 720 63 -1000 280/09 250V330 RMK AO2
14837KMSN MSN20060314202009603/14/06 20:20:31  5-MIN KMSN 150220Z 29011KT 10SM CLR M01/M07 A3008 710 63 -1000 290/11 RMK AO2
14837KMSN MSN20060314202509603/14/06 20:25:31  5-MIN KMSN 150225Z 29009KT 10SM CLR M01/M07 A3008 710 63 -1000 280/09 RMK AO2
14837KMSN MSN20060314203009603/14/06 20:30:31  5-MIN KMSN 150230Z 29008KT 10SM CLR M02/M07 A3009 710 66 -1100 290/08 RMK AO2
14837KMSN MSN20060314203509603/14/06 20:35:31  5-MIN KMSN 150235Z 30007KT 10SM CLR M02/M07 A3009 710 66 -1100 300/07 RMK AO2
14837KMSN MSN20060314204009603/14/06 20:40:31  5-MIN KMSN 150240Z 29009KT 10SM CLR M02/M07 A3009 710 66 -1100 290/09 RMK AO2
14837KMSN MSN20060314204509603/14/06 20:45:31  5-MIN KMSN 150245Z 29007KT 10SM CLR M02/M07 A3009 700 66 -1100 290/07 RMK AO2
14837KMSN MSN20060314205011903/14/06 20:50:31  5-MIN KMSN 150250Z 29007KT 10SM CLR M02/M08 A3010 700 63 -1100 290/07 RMK AO2 SLP203 T10171078 53011
14837KMSN MSN20060314205509603/14/06 20:55:31  5-MIN KMSN 150255Z 29009KT 10SM CLR M02/M08 A3009 700 63 -1100 290/09 RMK AO2
14837KMSN MSN20060314210009603/14/06 21:00:31  5-MIN KMSN 150300Z 29009KT 10SM CLR M02/M08 A3010 700 63 -1100 290/09 RMK AO2
14837KMSN MSN20060314210509603/14/06 21:05:31  5-MIN KMSN 150305Z 29009KT 10SM CLR M02/M08 A3010 700 63 -1100 290/09 RMK AO2
14837KMSN MSN20060314211009603/14/06 21:10:31  5-MIN KMSN 150310Z 30011KT 10SM CLR M02/M08 A3010 700 63 -1100 300/11 RMK AO2
14837KMSN MSN20060314211509603/14/06 21:15:31  5-MIN KMSN 150315Z 29009KT 10SM CLR M02/M08 A3010 700 63 -1100 290/09 RMK AO2
14837KMSN MSN20060314212009603/14/06 21:20:31  5-MIN KMSN 150320Z 29010KT 10SM CLR M02/M08 A3010 700 66 -1200 290/10 RMK AO2
14837KMSN MSN20060314212509603/14/06 21:25:31  5-MIN KMSN 150325Z 30010KT 10SM CLR M02/M08 A3010 700 66 -1200 300/10 RMK AO2
14837KMSN MSN20060314213010203/14/06 21:30:31  5-MIN KMSN 150330Z 30010G17KT 10SM CLR M02/M08 A3010 700 66 -1200 300/10G17 RMK AO2
14837KMSN MSN20060314213510203/14/06 21:35:31  5-MIN KMSN 150335Z 31011G17KT 10SM CLR M02/M08 A3010 690 66 -1200 310/11G17 RMK AO2
14837KMSN MSN20060314214010203/14/06 21:40:31  5-MIN KMSN 150340Z 31012G18KT 10SM CLR M02/M08 A3011 690 66 -1200 310/12G18 RMK AO2
14837KMSN MSN20060314214510203/14/06 21:45:31  5-MIN KMSN 150345Z 31010G18KT 10SM CLR M02/M08 A3011 690 63 -1200 300/10G18 RMK AO2
14837KMSN MSN20060314215011303/14/06 21:50:31  5-MIN KMSN 150350Z 31010KT 10SM CLR M02/M08 A3011 690 63 -1200 310/10 RMK AO2 SLP206 T10221083
14837KMSN MSN20060314215509603/14/06 21:55:31  5-MIN KMSN 150355Z 31009KT 10SM CLR M02/M08 A3011 690 63 -1200 310/09 RMK AO2
14837KMSN MSN20060314220009603/14/06 22:00:31  5-MIN KMSN 150400Z 32009KT 10SM CLR M02/M08 A3011 690 63 -1200 320/09 RMK AO2
14837KMSN MSN20060314220509603/14/06 22:05:31  5-MIN KMSN 150405Z 32008KT 10SM CLR M03/M08 A3012 680 68 -1200 320/08 RMK AO2
14837KMSN MSN20060314221009603/14/06 22:10:31  5-MIN KMSN 150410Z 31009KT 10SM CLR M03/M08 A3012 680 66 -1200 310/09 RMK AO2
14837KMSN MSN20060314221510203/14/06 22:15:31  5-MIN KMSN 150415Z 31009G19KT 10SM CLR M03/M08 A3012 680 68 -1200 310/09G19 RMK AO2
14837KMSN MSN20060314222010503/14/06 22:20:31  5-MIN KMSN 150420Z 31010G19KT 10SM FEW060 M03/M08 A3012 680 66 -1200 310/10G19 RMK AO2
14837KMSN MSN20060314222509903/14/06 22:25:31  5-MIN KMSN 150425Z 31010KT 10SM FEW060 M03/M08 A3012 680 66 -1200 310/10 RMK AO2
14837KMSN MSN20060314223010503/14/06 22:30:31  5-MIN KMSN 150430Z 31010G19KT 10SM FEW060 M03/M09 A3012 680 63 -1300 310/10G19 RMK AO2
14837KMSN MSN20060314223510503/14/06 22:35:31  5-MIN KMSN 150435Z 31011G19KT 10SM FEW060 M03/M09 A3012 680 63 -1300 310/11G19 RMK AO2
14837KMSN MSN20060314224010503/14/06 22:40:31  5-MIN KMSN 150440Z 31009G18KT 10SM FEW060 M03/M09 A3013 670 63 -1300 310/09G18 RMK AO2
14837KMSN MSN20060314224510203/14/06 22:45:31  5-MIN KMSN 150445Z 32009G17KT 10SM CLR M03/M09 A3013 670 63 -1300 320/09G17 RMK AO2
14837KMSN MSN20060314225011903/14/06 22:50:31  5-MIN KMSN 150450Z 32010G16KT 10SM CLR M03/M09 A3013 670 63 -1300 320/10G16 RMK AO2 SLP214 T10281089
14837KMSN MSN20060314225510203/14/06 22:55:31  5-MIN KMSN 150455Z 32011G16KT 10SM CLR M03/M09 A3013 670 65 -1300 320/11G16 RMK AO2
14837KMSN MSN20060314230009603/14/06 23:00:31  5-MIN KMSN 150500Z 32009KT 10SM CLR M03/M09 A3013 670 65 -1300 320/09 RMK AO2
14837KMSN MSN20060314230509603/14/06 23:05:31  5-MIN KMSN 150505Z 32008KT 10SM CLR M03/M09 A3014 670 65 -1300 320/08 RMK AO2
14837KMSN MSN20060314231010203/14/06 23:10:31  5-MIN KMSN 150510Z 31010G15KT 10SM CLR M03/M09 A3014 670 65 -1300 310/10G15 RMK AO2
14837KMSN MSN20060314231509603/14/06 23:15:31  5-MIN KMSN 150515Z 31009KT 10SM CLR M03/M09 A3014 670 65 -1300 310/09 RMK AO2
14837KMSN MSN20060314232009603/14/06 23:20:31  5-MIN KMSN 150520Z 32009KT 10SM CLR M03/M09 A3014 670 63 -1300 320/09 RMK AO2
14837KMSN MSN20060314232509603/14/06 23:25:31  5-MIN KMSN 150525Z 32009KT 10SM CLR M03/M09 A3014 660 63 -1300 320/09 RMK AO2
14837KMSN MSN20060314233009603/14/06 23:30:31  5-MIN KMSN 150530Z 30009KT 10SM CLR M04/M09 A3014 660 65 -1400 300/09 RMK AO2
14837KMSN MSN20060314233509603/14/06 23:35:31  5-MIN KMSN 150535Z 31008KT 10SM CLR M03/M09 A3014 660 63 -1300 310/08 RMK AO2
14837KMSN MSN20060314234009603/14/06 23:40:31  5-MIN KMSN 150540Z 31007KT 10SM CLR M04/M09 A3014 660 65 -1400 310/07 RMK AO2
14837KMSN MSN20060314234509603/14/06 23:45:31  5-MIN KMSN 150545Z 31006KT 10SM CLR M04/M09 A3014 660 65 -1400 310/06 RMK AO2
14837KMSN MSN20060314235014103/14/06 23:50:31  5-MIN KMSN 150550Z 32006KT 10SM CLR M04/M09 A3015 660 65 -1400 320/06 RMK AO2 SLP219 T10391094 10011 21039 400331056 51016
14837KMSN MSN20060314235509603/14/06 23:55:31  5-MIN KMSN 150555Z 31007KT 10SM CLR M04/M09 A3015 660 65 -1400 310/07 RMK AO2
14837KMSN MSN20060315000009603/15/06 00:00:38  5-MIN KMSN 150600Z 31006KT 10SM CLR M04/M09 A3015 650 65 -1400 310/06 RMK AO2
14837KMSN MSN20060315000509603/15/06 00:05:31  5-MIN KMSN 150605Z 31007KT 10SM CLR M04/M09 A3015 650 65 -1400 310/07 RMK AO2
14837KMSN MSN20060315001009603/15/06 00:10:31  5-MIN KMSN 150610Z 31005KT 10SM CLR M04/M09 A3015 650 65 -1400 300/05 RMK AO2
14837KMSN MSN20060315001509603/15/06 00:15:33  5-MIN KMSN 150615Z 31006KT 10SM CLR M04/M09 A3015 650 65 -1400 310/06 RMK AO2
14837KMSN MSN20060315002009603/15/06 00:20:31  5-MIN KMSN 150620Z 30006KT 10SM CLR M04/M09 A3015 650 68 -1500 300/06 RMK AO2
14837KMSN MSN20060315002509603/15/06 00:25:31  5-MIN KMSN 150625Z 31006KT 10SM CLR M04/M09 A3015 650 68 -1500 310/06 RMK AO2
14837KMSN MSN20060315003009603/15/06 00:30:31  5-MIN KMSN 150630Z 31007KT 10SM CLR M04/M09 A3015 650 68 -1500 310/07 RMK AO2
14837KMSN MSN20060315003509603/15/06 00:35:31  5-MIN KMSN 150635Z 30007KT 10SM CLR M04/M09 A3015 650 68 -1500 300/07 RMK AO2
14837KMSN MSN20060315004009603/15/06 00:40:31  5-MIN KMSN 150640Z 31006KT 10SM CLR M04/M09 A3015 650 68 -1500 300/06 RMK AO2
14837KMSN MSN20060315004509603/15/06 00:45:31  5-MIN KMSN 150645Z 31008KT 10SM CLR M04/M09 A3015 650 68 -1500 300/08 RMK AO2
14837KMSN MSN20060315005011303/15/06 00:50:31  5-MIN KMSN 150650Z 31009KT 10SM CLR M04/M09 A3015 650 65 -1400 310/09 RMK AO2 SLP222 T10391094
14837KMSN MSN20060315005509603/15/06 00:55:31  5-MIN KMSN 150655Z 31009KT 10SM CLR M04/M09 A3016 650 65 -1400 310/09 RMK AO2
14837KMSN MSN20060315010009603/15/06 01:00:31  5-MIN KMSN 150700Z 31007KT 10SM CLR M04/M09 A3016 640 68 -1500 310/07 RMK AO2
14837KMSN MSN20060315010509603/15/06 01:05:31  5-MIN KMSN 150705Z 31008KT 10SM CLR M04/M09 A3016 650 68 -1500 300/08 RMK AO2
14837KMSN MSN20060315011009603/15/06 01:10:31  5-MIN KMSN 150710Z 30008KT 10SM CLR M04/M09 A3016 640 68 -1500 300/08 RMK AO2
14837KMSN MSN20060315011509603/15/06 01:15:31  5-MIN KMSN 150715Z VRB06KT 10SM CLR M04/M09 A3016 640 68 -1500 VRB/06 RMK AO2
14837KMSN MSN20060315012009603/15/06 01:20:31  5-MIN KMSN 150720Z 30005KT 10SM CLR M04/M09 A3017 640 68 -1500 300/05 RMK AO2
14837KMSN MSN20060315012509603/15/06 01:25:31  5-MIN KMSN 150725Z 30006KT 10SM CLR M04/M09 A3017 630 68 -1500 290/06 RMK AO2
14837KMSN MSN20060315013009603/15/06 01:30:31  5-MIN KMSN 150730Z 30005KT 10SM CLR M04/M09 A3017 630 68 -1500 300/05 RMK AO2
14837KMSN MSN20060315013509603/15/06 01:35:31  5-MIN KMSN 150735Z 30005KT 10SM CLR M04/M09 A3017 630 68 -1500 300/05 RMK AO2
14837KMSN MSN20060315014009603/15/06 01:40:31  5-MIN KMSN 150740Z 30006KT 10SM CLR M04/M09 A3017 640 68 -1500 300/06 RMK AO2
14837KMSN MSN20060315014509603/15/06 01:45:31  5-MIN KMSN 150745Z 30006KT 10SM CLR M04/M09 A3017 630 68 -1500 290/06 RMK AO2
14837KMSN MSN20060315015011303/15/06 01:50:31  5-MIN KMSN 150750Z 30009KT 10SM CLR M04/M09 A3017 630 68 -1500 300/09 RMK AO2 SLP228 T10441094
14837KMSN MSN20060315015509603/15/06 01:55:31  5-MIN KMSN 150755Z 29007KT 10SM CLR M04/M09 A3017 630 68 -1500 290/07 RMK AO2
14837KMSN MSN20060315020009603/15/06 02:00:31  5-MIN KMSN 150800Z 30007KT 10SM CLR M04/M09 A3018 630 68 -1500 300/07 RMK AO2
14837KMSN MSN20060315020509603/15/06 02:05:31  5-MIN KMSN 150805Z VRB06KT 10SM CLR M04/M09 A3018 630 68 -1500 VRB/06 RMK AO2
14837KMSN MSN20060315021009603/15/06 02:10:31  5-MIN KMSN 150810Z 29006KT 10SM CLR M04/M09 A3018 630 68 -1500 290/06 RMK AO2
14837KMSN MSN20060315021509603/15/06 02:15:31  5-MIN KMSN 150815Z VRB04KT 10SM CLR M04/M09 A3018 620 68 -1500 VRB/04 RMK AO2
14837KMSN MSN20060315022009603/15/06 02:20:31  5-MIN KMSN 150820Z 28005KT 10SM CLR M05/M09 A3018 620 71 -1600 270/05 RMK AO2
14837KMSN MSN20060315022509603/15/06 02:25:31  5-MIN KMSN 150825Z VRB04KT 10SM CLR M05/M09 A3019 620 71 -1600 VRB/04 RMK AO2
14837KMSN MSN20060315023009603/15/06 02:30:31  5-MIN KMSN 150830Z VRB04KT 10SM CLR M05/M09 A3019 620 71 -1600 VRB/04 RMK AO2
14837KMSN MSN20060315023509603/15/06 02:35:31  5-MIN KMSN 150835Z VRB05KT 10SM CLR M05/M09 A3019 620 71 -1600 VRB/05 RMK AO2
14837KMSN MSN20060315024009603/15/06 02:40:31  5-MIN KMSN 150840Z 28005KT 10SM CLR M05/M09 A3019 610 71 -1600 280/05 RMK AO2
14837KMSN MSN20060315024509603/15/06 02:45:31  5-MIN KMSN 150845Z 29006KT 10SM CLR M05/M09 A3019 610 71 -1600 290/06 RMK AO2
14837KMSN MSN20060315025011903/15/06 02:50:31  5-MIN KMSN 150850Z 29006KT 10SM CLR M05/M09 A3019 610 71 -1600 290/06 RMK AO2 SLP235 T10501094 51017
14837KMSN MSN20060315025509603/15/06 02:55:31  5-MIN KMSN 150855Z 29007KT 10SM CLR M05/M09 A3019 610 71 -1600 290/07 RMK AO2
14837KMSN MSN20060315030009603/15/06 03:00:31  5-MIN KMSN 150900Z 29007KT 10SM CLR M05/M09 A3019 610 71 -1600 290/07 RMK AO2
14837KMSN MSN20060315030509603/15/06 03:05:31  5-MIN KMSN 150905Z 30008KT 10SM CLR M05/M09 A3019 610 71 -1600 290/08 RMK AO2
14837KMSN MSN20060315031009603/15/06 03:10:31  5-MIN KMSN 150910Z 30008KT 10SM CLR M05/M09 A3019 610 71 -1600 300/08 RMK AO2
14837KMSN MSN20060315031509603/15/06 03:15:31  5-MIN KMSN 150915Z 29005KT 10SM CLR M05/M09 A3019 610 71 -1600 290/05 RMK AO2
14837KMSN MSN20060315032009603/15/06 03:20:31  5-MIN KMSN 150920Z 29007KT 10SM CLR M06/M09 A3019 610 74 -1700 290/07 RMK AO2
14837KMSN MSN20060315032509603/15/06 03:25:31  5-MIN KMSN 150925Z 29006KT 10SM CLR M06/M09 A3020 610 74 -1700 280/06 RMK AO2
14837KMSN MSN20060315033009603/15/06 03:30:31  5-MIN KMSN 150930Z 30004KT 10SM CLR M06/M09 A3020 610 74 -1700 300/04 RMK AO2
14837KMSN MSN20060315033509603/15/06 03:35:31  5-MIN KMSN 150935Z 29005KT 10SM CLR M06/M09 A3020 610 74 -1700 290/05 RMK AO2
14837KMSN MSN20060315034009603/15/06 03:40:31  5-MIN KMSN 150940Z 29006KT 10SM CLR M06/M09 A3021 600 74 -1700 290/06 RMK AO2
14837KMSN MSN20060315034509603/15/06 03:45:31  5-MIN KMSN 150945Z 29005KT 10SM CLR M06/M09 A3021 600 74 -1700 290/05 RMK AO2
14837KMSN MSN20060315035011303/15/06 03:50:31  5-MIN KMSN 150950Z 29005KT 10SM CLR M06/M09 A3021 600 74 -1700 290/05 RMK AO2 SLP241 T10561094
14837KMSN MSN20060315035509603/15/06 03:55:31  5-MIN KMSN 150955Z 30005KT 10SM CLR M06/M09 A3021 600 74 -1700 300/05 RMK AO2
14837KMSN MSN20060315040009603/15/06 04:00:31  5-MIN KMSN 151000Z 29005KT 10SM CLR M06/M09 A3022 590 74 -1700 290/05 RMK AO2
14837KMSN MSN20060315040509603/15/06 04:05:31  5-MIN KMSN 151005Z 31006KT 10SM CLR M06/M09 A3021 600 74 -1700 310/06 RMK AO2
14837KMSN MSN20060315041009603/15/06 04:10:31  5-MIN KMSN 151010Z 31006KT 10SM CLR M06/M09 A3021 600 74 -1700 310/06 RMK AO2
14837KMSN MSN20060315041509603/15/06 04:15:31  5-MIN KMSN 151015Z 31006KT 10SM CLR M06/M09 A3021 600 74 -1700 310/06 RMK AO2
14837KMSN MSN20060315042009603/15/06 04:20:31  5-MIN KMSN 151020Z 31007KT 10SM CLR M06/M09 A3021 600 74 -1700 310/07 RMK AO2
14837KMSN MSN20060315042509603/15/06 04:25:31  5-MIN KMSN 151025Z 32007KT 10SM CLR M06/M09 A3021 600 74 -1700 320/07 RMK AO2
14837KMSN MSN20060315043009603/15/06 04:30:31  5-MIN KMSN 151030Z 31007KT 10SM CLR M06/M09 A3021 590 74 -1700 310/07 RMK AO2
14837KMSN MSN20060315043509603/15/06 04:35:31  5-MIN KMSN 151035Z 32006KT 10SM CLR M06/M09 A3021 590 74 -1700 320/06 RMK AO2
14837KMSN MSN20060315044009603/15/06 04:40:31  5-MIN KMSN 151040Z 33006KT 10SM CLR M06/M09 A3021 590 77 -1800 320/06 RMK AO2
14837KMSN MSN20060315044509603/15/06 04:45:31  5-MIN KMSN 151045Z 33006KT 10SM CLR M06/M09 A3022 590 77 -1800 330/06 RMK AO2
14837KMSN MSN20060315045011303/15/06 04:50:31  5-MIN KMSN 151050Z 32006KT 10SM CLR M06/M09 A3022 590 77 -1800 320/06 RMK AO2 SLP244 T10611094
14837KMSN MSN20060315045509603/15/06 04:55:31  5-MIN KMSN 151055Z 30006KT 10SM CLR M06/M09 A3023 580 77 -1800 300/06 RMK AO2
14837KMSN MSN20060315050009603/15/06 05:00:31  5-MIN KMSN 151100Z 29004KT 10SM CLR M06/M09 A3023 580 77 -1800 290/04 RMK AO2
14837KMSN MSN20060315050509603/15/06 05:05:31  5-MIN KMSN 151105Z 30004KT 10SM CLR M06/M09 A3023 580 77 -1800 300/04 RMK AO2
14837KMSN MSN20060315051009603/15/06 05:10:31  5-MIN KMSN 151110Z 31004KT 10SM CLR M06/M09 A3023 580 77 -1800 310/04 RMK AO2
14837KMSN MSN20060315051509603/15/06 05:15:31  5-MIN KMSN 151115Z 31004KT 10SM CLR M06/M09 A3023 580 77 -1800 310/04 RMK AO2
14837KMSN MSN20060315052009603/15/06 05:20:31  5-MIN KMSN 151120Z 31005KT 10SM CLR M07/M09 A3023 580 81 -1900 310/05 RMK AO2
14837KMSN MSN20060315052509603/15/06 05:25:31  5-MIN KMSN 151125Z 30003KT 10SM CLR M07/M09 A3023 580 81 -1900 300/03 RMK AO2
14837KMSN MSN20060315053009603/15/06 05:30:31  5-MIN KMSN 151130Z 31004KT 10SM CLR M07/M09 A3023 580 81 -1900 310/04 RMK AO2
14837KMSN MSN20060315053509603/15/06 05:35:31  5-MIN KMSN 151135Z 30003KT 10SM CLR M07/M09 A3023 580 81 -1900 300/03 RMK AO2
14837KMSN MSN20060315054009603/15/06 05:40:31  5-MIN KMSN 151140Z VRB03KT 10SM CLR M07/M09 A3023 580 81 -1900 VRB/03 RMK AO2
14837KMSN MSN20060315054509603/15/06 05:45:31  5-MIN KMSN 151145Z 30003KT 10SM CLR M07/M10 A3023 580 77 -1900 300/03 RMK AO2
14837KMSN MSN20060315055013103/15/06 05:50:31  5-MIN KMSN 151150Z 30003KT 10SM CLR M07/M09 A3023 580 81 -1900 290/03 RMK AO2 SLP250 T10671094 11039 21067 53016
14837KMSN MSN20060315055509603/15/06 05:55:31  5-MIN KMSN 151155Z 28003KT 10SM CLR M07/M09 A3024 570 81 -1900 280/03 RMK AO2
14837KMSN MSN20060315060009603/15/06 06:00:31  5-MIN KMSN 151200Z 28004KT 10SM CLR M07/M09 A3024 570 81 -1900 280/04 RMK AO2
14837KMSN MSN20060315060509603/15/06 06:05:31  5-MIN KMSN 151205Z 29003KT 10SM CLR M07/M10 A3024 570 77 -1900 280/03 RMK AO2
14837KMSN MSN20060315061009503/15/06 06:10:31  5-MIN KMSN 151210Z 29004KT 9SM CLR M07/M10 A3024 570 77 -1900 280/04 RMK AO2
14837KMSN MSN20060315061509503/15/06 06:15:31  5-MIN KMSN 151215Z 30004KT 9SM CLR M07/M10 A3024 570 77 -1900 300/04 RMK AO2
14837KMSN MSN20060315062009503/15/06 06:20:31  5-MIN KMSN 151220Z 31003KT 9SM CLR M07/M10 A3024 570 81 -2000 300/03 RMK AO2
14837KMSN MSN20060315062509503/15/06 06:25:31  5-MIN KMSN 151225Z 31003KT 9SM CLR M07/M10 A3024 570 81 -2000 310/03 RMK AO2
14837KMSN MSN20060315063009503/15/06 06:30:31  5-MIN KMSN 151230Z 30004KT 9SM CLR M07/M10 A3024 570 77 -1900 300/04 RMK AO2
14837KMSN MSN20060315063509503/15/06 06:35:31  5-MIN KMSN 151235Z 30004KT 9SM CLR M07/M09 A3025 560 81 -1900 300/04 RMK AO2
14837KMSN MSN20060315064009503/15/06 06:40:31  5-MIN KMSN 151240Z 30004KT 9SM CLR M07/M09 A3024 570 81 -1900 300/04 RMK AO2
14837KMSN MSN20060315064509503/15/06 06:45:31  5-MIN KMSN 151245Z 30003KT 9SM CLR M06/M09 A3025 560 77 -1800 300/03 RMK AO2
14837KMSN MSN20060315065011203/15/06 06:50:31  5-MIN KMSN 151250Z 31004KT 9SM CLR M06/M09 A3025 570 77 -1800 310/04 RMK AO2 SLP254 T10611094
14837KMSN MSN20060315065509503/15/06 06:55:31  5-MIN KMSN 151255Z 31004KT 9SM CLR M06/M09 A3024 570 77 -1800 310/04 RMK AO2
14837KMSN MSN20060315070009603/15/06 07:00:31  5-MIN KMSN 151300Z 32005KT 10SM CLR M06/M09 A3025 570 74 -1700 320/05 RMK AO2
14837KMSN MSN20060315070509603/15/06 07:05:31  5-MIN KMSN 151305Z 32004KT 10SM CLR M06/M09 A3025 560 74 -1700 320/04 RMK AO2
14837KMSN MSN20060315071009603/15/06 07:10:31  5-MIN KMSN 151310Z 33003KT 10SM CLR M06/M09 A3025 560 74 -1800 330/03 RMK AO2
14837KMSN MSN20060315071509603/15/06 07:15:31  5-MIN KMSN 151315Z 00000KT 10SM CLR M05/M09 A3025 560 71 -1700 000/00 RMK AO2
14837KMSN MSN20060315072009603/15/06 07:20:31  5-MIN KMSN 151320Z VRB04KT 10SM CLR M05/M09 A3025 560 71 -1700 VRB/04 RMK AO2
14837KMSN MSN20060315072509603/15/06 07:25:31  5-MIN KMSN 151325Z 33005KT 10SM CLR M05/M09 A3025 560 71 -1700 330/05 RMK AO2
14837KMSN MSN20060315073009603/15/06 07:30:31  5-MIN KMSN 151330Z 32006KT 10SM CLR M05/M10 A3025 560 68 -1700 320/06 RMK AO2
14837KMSN MSN20060315073509603/15/06 07:35:31  5-MIN KMSN 151335Z 34008KT 10SM CLR M04/M10 A3025 560 65 -1600 340/08 RMK AO2
14837KMSN MSN20060315074009603/15/06 07:40:31  5-MIN KMSN 151340Z 33008KT 10SM CLR M04/M10 A3025 560 65 -1600 320/08 RMK AO2
14837KMSN MSN20060315074509603/15/06 07:45:31  5-MIN KMSN 151345Z 33008KT 10SM CLR M04/M10 A3025 560 65 -1600 330/08 RMK AO2
14837KMSN MSN20060315075011303/15/06 07:50:31  5-MIN KMSN 151350Z 34006KT 10SM CLR M04/M10 A3026 560 65 -1600 340/06 RMK AO2 SLP258 T10441100
14837KMSN MSN20060315075509603/15/06 07:55:31  5-MIN KMSN 151355Z 34007KT 10SM CLR M04/M10 A3026 550 65 -1600 340/07 RMK AO2
14837KMSN MSN20060315080009603/15/06 08:00:31  5-MIN KMSN 151400Z 35006KT 10SM CLR M04/M10 A3026 560 63 -1500 340/06 RMK AO2
14837KMSN MSN20060315080509603/15/06 08:05:31  5-MIN KMSN 151405Z 33006KT 10SM CLR M04/M10 A3025 560 63 -1500 330/06 RMK AO2
14837KMSN MSN20060315081009603/15/06 08:10:31  5-MIN KMSN 151410Z 32009KT 10SM CLR M04/M10 A3026 560 63 -1500 320/09 RMK AO2
14837KMSN MSN20060315081509603/15/06 08:15:31  5-MIN KMSN 151415Z 31009KT 10SM CLR M04/M10 A3026 550 63 -1600 310/09 RMK AO2
14837KMSN MSN20060315082009603/15/06 08:20:31  5-MIN KMSN 151420Z 32007KT 10SM CLR M04/M10 A3026 550 63 -1500 320/07 RMK AO2
14837KMSN MSN20060315082509603/15/06 08:25:31  5-MIN KMSN 151425Z VRB06KT 10SM CLR M03/M10 A3026 550 60 -1500 VRB/06 RMK AO2
14837KMSN MSN20060315083009603/15/06 08:30:31  5-MIN KMSN 151430Z VRB06KT 10SM CLR M03/M10 A3026 550 60 -1500 VRB/06 RMK AO2
14837KMSN MSN20060315083509603/15/06 08:35:31  5-MIN KMSN 151435Z 35008KT 10SM CLR M03/M10 A3026 550 58 -1400 350/08 RMK AO2
14837KMSN MSN20060315084009603/15/06 08:40:31  5-MIN KMSN 151440Z 34006KT 10SM CLR M03/M10 A3026 550 58 -1400 340/06 RMK AO2
14837KMSN MSN20060315084509603/15/06 08:45:31  5-MIN KMSN 151445Z 35007KT 10SM CLR M03/M10 A3026 550 58 -1400 350/07 RMK AO2
14837KMSN MSN20060315085011903/15/06 08:50:31  5-MIN KMSN 151450Z 30007KT 10SM CLR M03/M10 A3026 550 58 -1400 300/07 RMK AO2 SLP259 T10281100 51014
14837KMSN MSN20060315085509603/15/06 08:55:31  5-MIN KMSN 151455Z 31008KT 10SM CLR M03/M10 A3026 550 58 -1400 310/08 RMK AO2
14837KMSN MSN20060315090009603/15/06 09:00:31  5-MIN KMSN 151500Z 33009KT 10SM CLR M03/M11 A3025 560 55 -1400 330/09 RMK AO2
14837KMSN MSN20060315090509603/15/06 09:05:31  5-MIN KMSN 151505Z 34008KT 10SM CLR M03/M10 A3025 560 58 -1400 340/08 RMK AO2
14837KMSN MSN20060315091009603/15/06 09:10:31  5-MIN KMSN 151510Z 34008KT 10SM CLR M02/M10 A3025 560 55 -1300 340/08 RMK AO2
14837KMSN MSN20060315091509603/15/06 09:15:31  5-MIN KMSN 151515Z 34008KT 10SM CLR M02/M10 A3025 560 53 -1300 340/08 RMK AO2
14837KMSN MSN20060315092009603/15/06 09:20:31  5-MIN KMSN 151520Z 32008KT 10SM CLR M02/M09 A3025 560 58 -1300 320/08 RMK AO2
14837KMSN MSN20060315092509603/15/06 09:25:31  5-MIN KMSN 151525Z 32007KT 10SM CLR M02/M10 A3025 560 55 -1300 320/07 RMK AO2
14837KMSN MSN20060315093009603/15/06 09:30:31  5-MIN KMSN 151530Z 32007KT 10SM CLR M02/M10 A3025 560 55 -1300 320/07 RMK AO2
14837KMSN MSN20060315093509603/15/06 09:35:31  5-MIN KMSN 151535Z 33008KT 10SM CLR M02/M11 A3025 560 51 -1300 330/08 RMK AO2
14837KMSN MSN20060315094009603/15/06 09:40:31  5-MIN KMSN 151540Z 32006KT 10SM CLR M02/M10 A3026 550 53 -1300 320/06 RMK AO2
14837KMSN MSN20060315094511203/15/06 09:45:31  5-MIN KMSN 151545Z 32007KT 260V340 10SM CLR M02/M10 A3026 550 53 -1300 320/07 260V340 RMK AO2
14837KMSN MSN20060315095011303/15/06 09:50:31  5-MIN KMSN 151550Z VRB06KT 10SM CLR M02/M09 A3026 550 55 -1300 VRB/06 RMK AO2 SLP258 T10171094
14837KMSN MSN20060315095509603/15/06 09:55:31  5-MIN KMSN 151555Z 33005KT 10SM CLR M01/M10 A3026 550 51 -1200 330/05 RMK AO2
14837KMSN MSN20060315100009603/15/06 10:00:31  5-MIN KMSN 151600Z VRB05KT 10SM CLR M01/M09 A3026 550 53 -1200 VRB/05 RMK AO2
14837KMSN MSN20060315100509603/15/06 10:05:31  5-MIN KMSN 151605Z VRB05KT 10SM CLR M01/M10 A3026 560 51 -1200 VRB/05 RMK AO2
14837KMSN MSN20060315101009603/15/06 10:10:31  5-MIN KMSN 151610Z 30006KT 10SM CLR M01/M10 A3026 560 51 -1200 300/06 RMK AO2
14837KMSN MSN20060315101509603/15/06 10:15:31  5-MIN KMSN 151615Z 30007KT 10SM CLR M01/M10 A3026 550 51 -1200 300/07 RMK AO2
14837KMSN MSN20060315102009603/15/06 10:20:31  5-MIN KMSN 151620Z 33006KT 10SM CLR M01/M09 A3026 550 51 -1100 330/06 RMK AO2
14837KMSN MSN20060315102509603/15/06 10:25:31  5-MIN KMSN 151625Z 31006KT 10SM CLR M01/M10 A3026 550 49 -1100 310/06 RMK AO2
14837KMSN MSN20060315103011203/15/06 10:30:31  5-MIN KMSN 151630Z 27007KT 240V310 10SM CLR M01/M10 A3026 550 49 -1100 270/07 240V310 RMK AO2
14837KMSN MSN20060315103509603/15/06 10:35:31  5-MIN KMSN 151635Z VRB05KT 10SM CLR M01/M10 A3025 560 49 -1100 VRB/05 RMK AO2
14837KMSN MSN20060315104009503/15/06 10:40:31  5-MIN KMSN 151640Z 33007KT 10SM CLR 00/M09 A3025 560 49 -1000 330/07 RMK AO2
14837KMSN MSN20060315104509503/15/06 10:45:31  5-MIN KMSN 151645Z 34006KT 10SM CLR 01/M09 A3025 560 47 -1000 340/06 RMK AO2
14837KMSN MSN20060315105011203/15/06 10:50:31  5-MIN KMSN 151650Z 33006KT 10SM CLR 00/M09 A3025 560 49 -1000 330/06 RMK AO2 SLP255 T00001094
14837KMSN MSN20060315105509503/15/06 10:55:31  5-MIN KMSN 151655Z VRB06KT 10SM CLR 00/M09 A3025 560 49 -1000 VRB/06 RMK AO2
14837KMSN MSN20060315110009503/15/06 11:00:31  5-MIN KMSN 151700Z 26005KT 10SM CLR 01/M09 A3025 560 47 -1000 250/05 RMK AO2
14837KMSN MSN20060315110509503/15/06 11:05:31  5-MIN KMSN 151705Z 28007KT 10SM CLR 01/M09 A3025 560 47 -1000 280/07 RMK AO2
14837KMSN MSN20060315111009503/15/06 11:10:31  5-MIN KMSN 151710Z 32006KT 10SM CLR 01/M09 A3025 560 49 -1000 320/06 RMK AO2
14837KMSN MSN20060315111509503/15/06 11:15:31  5-MIN KMSN 151715Z 30007KT 10SM CLR 01/M10 A3025 560 45 -1000 300/07 RMK AO2
14837KMSN MSN20060315112009403/15/06 11:20:31  5-MIN KMSN 151720Z VRB06KT 10SM CLR 01/M09 A3025 560 45 -900 VRB/06 RMK AO2
14837KMSN MSN20060315112509503/15/06 11:25:31  5-MIN KMSN 151725Z VRB05KT 10SM CLR 01/M09 A3025 560 47 -1000 VRB/05 RMK AO2
14837KMSN MSN20060315113009403/15/06 11:30:31  5-MIN KMSN 151730Z 31007KT 10SM CLR 01/M09 A3025 560 45 -900 310/07 RMK AO2
14837KMSN MSN20060315113509403/15/06 11:35:31  5-MIN KMSN 151735Z VRB04KT 10SM CLR 01/M09 A3025 560 47 -900 VRB/04 RMK AO2
14837KMSN MSN20060315114011003/15/06 11:40:31  5-MIN KMSN 151740Z 30008KT 230V320 10SM CLR 01/M09 A3025 560 45 -900 290/08 230V320 RMK AO2
14837KMSN MSN20060315114509503/15/06 11:45:31  5-MIN KMSN 151745Z 27005KT 10SM CLR 01/M09 A3025 560 47 -1000 270/05 RMK AO2
14837KMSN MSN20060315115012903/15/06 11:50:31  5-MIN KMSN 151750Z 25007KT 10SM CLR 02/M09 A3025 560 45 -800 250/07 RMK AO2 SLP256 T00171089 10017 21072 51008
14837KMSN MSN20060315115509403/15/06 11:55:31  5-MIN KMSN 151755Z 31005KT 10SM CLR 01/M09 A3025 560 45 -900 310/05 RMK AO2
14837KMSN MSN20060315120009403/15/06 12:00:31  5-MIN KMSN 151800Z 29006KT 10SM CLR 02/M09 A3025 560 43 -800 290/06 RMK AO2
14837KMSN MSN20060315120509403/15/06 12:05:31  5-MIN KMSN 151805Z 31007KT 10SM CLR 01/M10 A3025 560 43 -900 300/07 RMK AO2
14837KMSN MSN20060315121009403/15/06 12:10:31  5-MIN KMSN 151810Z VRB03KT 10SM CLR 01/M10 A3024 570 43 -900 VRB/03 RMK AO2
14837KMSN MSN20060315121509403/15/06 12:15:31  5-MIN KMSN 151815Z VRB03KT 10SM CLR 01/M09 A3024 570 45 -900 VRB/03 RMK AO2
14837KMSN MSN20060315122009403/15/06 12:20:31  5-MIN KMSN 151820Z VRB04KT 10SM CLR 02/M09 A3023 580 43 -800 VRB/04 RMK AO2
14837KMSN MSN20060315122509403/15/06 12:25:31  5-MIN KMSN 151825Z VRB04KT 10SM CLR 02/M08 A3023 580 45 -700 VRB/04 RMK AO2
14837KMSN MSN20060315123009403/15/06 12:30:31  5-MIN KMSN 151830Z VRB04KT 10SM CLR 02/M09 A3023 580 44 -700 VRB/04 RMK AO2
14837KMSN MSN20060315123509403/15/06 12:35:31  5-MIN KMSN 151835Z VRB05KT 10SM CLR 02/M08 A3023 580 45 -700 VRB/05 RMK AO2
14837KMSN MSN20060315124009403/15/06 12:40:31  5-MIN KMSN 151840Z 24008KT 10SM CLR 02/M09 A3023 580 44 -700 240/08 RMK AO2
14837KMSN MSN20060315124509403/15/06 12:45:31  5-MIN KMSN 151845Z 24006KT 10SM CLR 02/M09 A3023 580 43 -800 240/06 RMK AO2
14837KMSN MSN20060315125011103/15/06 12:50:31  5-MIN KMSN 151850Z VRB04KT 10SM CLR 02/M09 A3022 580 45 -800 VRB/04 RMK AO2 SLP246 T00171089
14837KMSN MSN20060315125509403/15/06 12:55:31  5-MIN KMSN 151855Z VRB03KT 10SM CLR 02/M09 A3022 590 45 -800 VRB/03 RMK AO2
14837KMSN MSN20060315130009403/15/06 13:00:31  5-MIN KMSN 151900Z VRB06KT 10SM CLR 02/M09 A3022 590 44 -700 VRB/06 RMK AO2
14837KMSN MSN20060315130509403/15/06 13:05:31  5-MIN KMSN 151905Z 28006KT 10SM CLR 02/M09 A3022 590 42 -700 280/06 RMK AO2
14837KMSN MSN20060315131009403/15/06 13:10:31  5-MIN KMSN 151910Z VRB06KT 10SM CLR 02/M09 A3022 590 44 -700 VRB/06 RMK AO2
14837KMSN MSN20060315131509403/15/06 13:15:31  5-MIN KMSN 151915Z 24006KT 10SM CLR 02/M09 A3022 590 42 -700 240/06 RMK AO2
14837KMSN MSN20060315132009403/15/06 13:20:31  5-MIN KMSN 151920Z 34005KT 10SM CLR 03/M09 A3022 590 42 -700 340/05 RMK AO2
14837KMSN MSN20060315132509403/15/06 13:25:31  5-MIN KMSN 151925Z 31007KT 10SM CLR 03/M09 A3021 590 42 -700 310/07 RMK AO2
14837KMSN MSN20060315133009403/15/06 13:30:31  5-MIN KMSN 151930Z 24006KT 10SM CLR 03/M09 A3021 590 40 -700 240/06 RMK AO2
14837KMSN MSN20060315133509403/15/06 13:35:31  5-MIN KMSN 151935Z 26005KT 10SM CLR 02/M09 A3022 590 42 -700 260/05 RMK AO2
14837KMSN MSN20060315134009403/15/06 13:40:31  5-MIN KMSN 151940Z 25006KT 10SM CLR 03/M09 A3022 590 42 -700 250/06 RMK AO2
14837KMSN MSN20060315134509403/15/06 13:45:31  5-MIN KMSN 151945Z VRB06KT 10SM CLR 03/M09 A3022 590 40 -700 VRB/06 RMK AO2
14837KMSN MSN20060315135011103/15/06 13:50:31  5-MIN KMSN 151950Z VRB06KT 10SM CLR 03/M09 A3022 590 40 -700 VRB/06 RMK AO2 SLP243 T00281094
14837KMSN MSN20060315141009403/15/06 14:10:31  5-MIN KMSN 152010Z 25003KT 10SM CLR 03/M09 A3020 600 40 -600 250/03 RMK AO2
14837KMSN MSN20060315141509403/15/06 14:15:31  5-MIN KMSN 152015Z 23006KT 10SM CLR 03/M09 A3020 600 40 -600 230/06 RMK AO2
14837KMSN MSN20060315142009403/15/06 14:20:31  5-MIN KMSN 152020Z 25004KT 10SM CLR 03/M09 A3020 610 40 -600 250/04 RMK AO2
14837KMSN MSN20060315142509403/15/06 14:25:31  5-MIN KMSN 152025Z VRB06KT 10SM CLR 03/M09 A3020 610 39 -600 VRB/06 RMK AO2
14837KMSN MSN20060315143009403/15/06 14:30:31  5-MIN KMSN 152030Z 25007KT 10SM CLR 03/M09 A3020 610 40 -600 250/07 RMK AO2
14837KMSN MSN20060315143509403/15/06 14:35:31  5-MIN KMSN 152035Z 24005KT 10SM CLR 03/M09 A3020 610 40 -600 240/05 RMK AO2
14837KMSN MSN20060315144009403/15/06 14:40:31  5-MIN KMSN 152040Z VRB05KT 10SM CLR 03/M09 A3020 610 39 -600 VRB/05 RMK AO2
14837KMSN MSN20060315144509403/15/06 14:45:31  5-MIN KMSN 152045Z 28005KT 10SM CLR 03/M09 A3020 610 40 -600 280/05 RMK AO2
14837KMSN MSN20060315145011703/15/06 14:50:31  5-MIN KMSN 152050Z VRB05KT 10SM CLR 03/M09 A3020 610 39 -600 VRB/05 RMK AO2 SLP237 T00331094 57002
14837KMSN MSN20060315145509403/15/06 14:55:31  5-MIN KMSN 152055Z VRB04KT 10SM CLR 03/M09 A3019 610 39 -600 VRB/04 RMK AO2
14837KMSN MSN20060315150009403/15/06 15:00:31  5-MIN KMSN 152100Z VRB06KT 10SM CLR 03/M10 A3019 620 37 -600 VRB/06 RMK AO2
14837KMSN MSN20060315150509403/15/06 15:05:31  5-MIN KMSN 152105Z VRB05KT 10SM CLR 03/M10 A3019 620 37 -600 VRB/05 RMK AO2
14837KMSN MSN20060315151009403/15/06 15:10:31  5-MIN KMSN 152110Z VRB05KT 10SM CLR 03/M10 A3019 620 37 -600 VRB/05 RMK AO2
14837KMSN MSN20060315151509403/15/06 15:15:31  5-MIN KMSN 152115Z 29006KT 10SM CLR 03/M11 A3019 620 35 -600 290/06 RMK AO2
14837KMSN MSN20060315152009403/15/06 15:20:31  5-MIN KMSN 152120Z 28006KT 10SM CLR 03/M11 A3018 620 35 -600 280/06 RMK AO2
14837KMSN MSN20060315152509403/15/06 15:25:31  5-MIN KMSN 152125Z VRB05KT 10SM CLR 03/M10 A3018 620 37 -600 VRB/05 RMK AO2
14837KMSN MSN20060315153009403/15/06 15:30:31  5-MIN KMSN 152130Z 26005KT 10SM CLR 03/M10 A3018 630 37 -500 260/05 RMK AO2
14837KMSN MSN20060315153509403/15/06 15:35:31  5-MIN KMSN 152135Z 26004KT 10SM CLR 03/M10 A3018 630 37 -500 260/04 RMK AO2
14837KMSN MSN20060315154009403/15/06 15:40:31  5-MIN KMSN 152140Z 33004KT 10SM CLR 03/M10 A3017 630 38 -600 330/04 RMK AO2
14837KMSN MSN20060315154509403/15/06 15:45:31  5-MIN KMSN 152145Z 31005KT 10SM CLR 03/M10 A3017 630 37 -500 310/05 RMK AO2
14837KMSN MSN20060315155011103/15/06 15:50:31  5-MIN KMSN 152150Z VRB03KT 10SM CLR 03/M11 A3017 630 37 -600 VRB/03 RMK AO2 SLP228 T00281106
14837KMSN MSN20060315155509403/15/06 15:55:31  5-MIN KMSN 152155Z 30004KT 10SM CLR 03/M10 A3017 630 37 -500 300/04 RMK AO2
14837KMSN MSN20060315160009403/15/06 16:00:31  5-MIN KMSN 152200Z 32003KT 10SM CLR 03/M10 A3017 640 38 -600 320/03 RMK AO2
14837KMSN MSN20060315160509403/15/06 16:05:31  5-MIN KMSN 152205Z 29003KT 10SM CLR 03/M09 A3016 640 40 -600 290/03 RMK AO2
14837KMSN MSN20060315161009403/15/06 16:10:31  5-MIN KMSN 152210Z 32004KT 10SM CLR 03/M10 A3016 640 38 -600 310/04 RMK AO2
14837KMSN MSN20060315161509403/15/06 16:15:31  5-MIN KMSN 152215Z 33003KT 10SM CLR 03/M09 A3016 640 40 -600 330/03 RMK AO2
14837KMSN MSN20060315162009403/15/06 16:20:31  5-MIN KMSN 152220Z VRB04KT 10SM CLR 03/M09 A3016 640 40 -600 VRB/04 RMK AO2
14837KMSN MSN20060315162509403/15/06 16:25:31  5-MIN KMSN 152225Z 35004KT 10SM CLR 03/M09 A3016 650 40 -600 350/04 RMK AO2
14837KMSN MSN20060315163009403/15/06 16:30:31  5-MIN KMSN 152230Z 34003KT 10SM CLR 03/M09 A3016 640 40 -600 340/03 RMK AO2
14837KMSN MSN20060315163509403/15/06 16:35:31  5-MIN KMSN 152235Z 33003KT 10SM CLR 03/M09 A3016 650 40 -600 320/03 RMK AO2
14837KMSN MSN20060315164009403/15/06 16:40:31  5-MIN KMSN 152240Z 32003KT 10SM CLR 03/M10 A3016 640 38 -600 320/03 RMK AO2
14837KMSN MSN20060315164509403/15/06 16:45:31  5-MIN KMSN 152245Z 32003KT 10SM CLR 03/M11 A3016 640 37 -600 320/03 RMK AO2
14837KMSN MSN20060315165011103/15/06 16:50:31  5-MIN KMSN 152250Z 32004KT 10SM CLR 03/M11 A3016 640 37 -600 320/04 RMK AO2 SLP224 T00281106
14837KMSN MSN20060315165509403/15/06 16:55:31  5-MIN KMSN 152255Z 33004KT 10SM CLR 03/M10 A3016 640 38 -600 320/04 RMK AO2
14837KMSN MSN20060315170009403/15/06 17:00:31  5-MIN KMSN 152300Z 34004KT 10SM CLR 03/M10 A3016 650 38 -600 340/04 RMK AO2
14837KMSN MSN20060315170509403/15/06 17:05:31  5-MIN KMSN 152305Z 32004KT 10SM CLR 03/M11 A3016 640 37 -600 320/04 RMK AO2
14837KMSN MSN20060315171009703/15/06 17:10:31  5-MIN KMSN 152310Z 33003KT 10SM FEW090 03/M11 A3016 650 37 -600 330/03 RMK AO2
14837KMSN MSN20060315171509703/15/06 17:15:31  5-MIN KMSN 152315Z 34003KT 10SM FEW090 03/M11 A3015 650 37 -600 330/03 RMK AO2
14837KMSN MSN20060315172009703/15/06 17:20:31  5-MIN KMSN 152320Z 33004KT 10SM FEW090 03/M11 A3016 640 37 -600 330/04 RMK AO2
14837KMSN MSN20060315172509703/15/06 17:25:31  5-MIN KMSN 152325Z 00000KT 10SM FEW090 03/M11 A3016 640 37 -600 000/00 RMK AO2
14837KMSN MSN20060315173009703/15/06 17:30:31  5-MIN KMSN 152330Z 01003KT 10SM FEW090 02/M10 A3016 650 40 -700 010/03 RMK AO2
14837KMSN MSN20060315173509703/15/06 17:35:31  5-MIN KMSN 152335Z 01003KT 10SM FEW090 02/M09 A3016 640 42 -700 010/03 RMK AO2
14837KMSN MSN20060315174009703/15/06 17:40:31  5-MIN KMSN 152340Z 01003KT 10SM FEW110 02/M09 A3016 640 42 -700 010/03 RMK AO2
14837KMSN MSN20060315174509703/15/06 17:45:31  5-MIN KMSN 152345Z 00000KT 10SM FEW110 02/M09 A3016 640 42 -700 000/00 RMK AO2
14837KMSN MSN20060315175013203/15/06 17:50:31  5-MIN KMSN 152350Z 00000KT 10SM FEW110 02/M09 A3016 640 44 -700 000/00 RMK AO2 SLP226 T00221089 10039 20011 56019
14837KMSN MSN20060315175509703/15/06 17:55:31  5-MIN KMSN 152355Z 00000KT 10SM FEW110 02/M09 A3016 640 44 -700 000/00 RMK AO2
14837KMSN MSN20060315180009703/15/06 18:00:31  5-MIN KMSN 160000Z 36003KT 10SM FEW110 02/M09 A3016 640 44 -700 360/03 RMK AO2
14837KMSN MSN20060315180509403/15/06 18:05:31  5-MIN KMSN 160005Z 02004KT 10SM CLR 02/M09 A3016 640 44 -700 020/04 RMK AO2
14837KMSN MSN20060315181009403/15/06 18:10:31  5-MIN KMSN 160010Z 03004KT 10SM CLR 02/M09 A3016 640 45 -700 030/04 RMK AO2
14837KMSN MSN20060315181509403/15/06 18:15:31  5-MIN KMSN 160015Z 02003KT 10SM CLR 02/M09 A3016 640 45 -700 020/03 RMK AO2
14837KMSN MSN20060315182009403/15/06 18:20:31  5-MIN KMSN 160020Z 03004KT 10SM CLR 02/M08 A3016 640 47 -700 030/04 RMK AO2
14837KMSN MSN20060315182509403/15/06 18:25:31  5-MIN KMSN 160025Z 03003KT 10SM CLR 01/M09 A3017 640 47 -800 030/03 RMK AO2
14837KMSN MSN20060315183009403/15/06 18:30:31  5-MIN KMSN 160030Z 00000KT 10SM CLR 01/M08 A3017 630 51 -800 000/00 RMK AO2
14837KMSN MSN20060315183509403/15/06 18:35:31  5-MIN KMSN 160035Z 00000KT 10SM CLR 02/M08 A3017 630 47 -700 000/00 RMK AO2
14837KMSN MSN20060315184009703/15/06 18:40:31  5-MIN KMSN 160040Z 00000KT 10SM FEW120 02/M08 A3017 640 47 -700 000/00 RMK AO2
14837KMSN MSN20060315184509703/15/06 18:45:31  5-MIN KMSN 160045Z 00000KT 10SM SCT120 02/M08 A3017 640 47 -700 000/00 RMK AO2
14837KMSN MSN20060315185011403/15/06 18:50:31  5-MIN KMSN 160050Z 07003KT 10SM BKN120 01/M08 A3017 630 49 -800 070/03 RMK AO2 SLP228 T00111083
14837KMSN MSN20060315185509703/15/06 18:55:31  5-MIN KMSN 160055Z 00000KT 10SM BKN110 01/M08 A3017 630 49 -800 000/00 RMK AO2
14837KMSN MSN20060315190009703/15/06 19:00:31  5-MIN KMSN 160100Z 00000KT 10SM BKN110 02/M08 A3017 630 47 -700 000/00 RMK AO2
14837KMSN MSN20060315190509703/15/06 19:05:31  5-MIN KMSN 160105Z 07003KT 10SM BKN110 01/M08 A3017 640 51 -800 070/03 RMK AO2
14837KMSN MSN20060315191009703/15/06 19:10:31  5-MIN KMSN 160110Z 00000KT 10SM BKN110 01/M08 A3017 640 51 -800 000/00 RMK AO2
14837KMSN MSN20060315191509703/15/06 19:15:31  5-MIN KMSN 160115Z 00000KT 10SM BKN110 01/M07 A3017 640 56 -900 000/00 RMK AO2
14837KMSN MSN20060315192009703/15/06 19:20:31  5-MIN KMSN 160120Z 00000KT 10SM BKN110 01/M07 A3017 630 56 -900 000/00 RMK AO2
14837KMSN MSN20060315192509703/15/06 19:25:31  5-MIN KMSN 160125Z 00000KT 10SM BKN110 01/M07 A3017 630 56 -900 000/00 RMK AO2
14837KMSN MSN20060315193009703/15/06 19:30:31  5-MIN KMSN 160130Z 00000KT 10SM BKN120 01/M08 A3017 640 51 -800 000/00 RMK AO2
14837KMSN MSN20060315193509703/15/06 19:35:31  5-MIN KMSN 160135Z 06003KT 10SM BKN120 01/M08 A3016 640 54 -900 050/03 RMK AO2
14837KMSN MSN20060315194009703/15/06 19:40:31  5-MIN KMSN 160140Z 06003KT 10SM FEW120 00/M07 A3017 640 58 -900 060/03 RMK AO2
14837KMSN MSN20060315194509703/15/06 19:45:31  5-MIN KMSN 160145Z 00000KT 10SM FEW120 00/M08 A3017 640 56 -900 000/00 RMK AO2
14837KMSN MSN20060315195011403/15/06 19:50:31  5-MIN KMSN 160150Z 06003KT 10SM FEW120 00/M08 A3016 640 56 -900 060/03 RMK AO2 SLP225 T00001078
14837KMSN MSN20060315195509903/15/06 19:55:31  5-MIN KMSN 160155Z 08003KT 10SM SCT120 M01/M07 A3016 640 63 -1100 070/03 RMK AO2
14837KMSN MSN20060315200009903/15/06 20:00:31  5-MIN KMSN 160200Z 08003KT 10SM FEW120 M01/M07 A3016 640 61 -1000 080/03 RMK AO2
14837KMSN MSN20060315200509903/15/06 20:05:31  5-MIN KMSN 160205Z 07003KT 10SM FEW110 M01/M07 A3016 640 61 -1000 070/03 RMK AO2
14837KMSN MSN20060315201009603/15/06 20:10:31  5-MIN KMSN 160210Z 06003KT 10SM CLR M01/M07 A3017 640 63 -1100 050/03 RMK AO2
14837KMSN MSN20060315201509903/15/06 20:15:31  5-MIN KMSN 160215Z 00000KT 10SM FEW120 M01/M07 A3017 640 61 -1000 000/00 RMK AO2
14837KMSN MSN20060315202009903/15/06 20:20:31  5-MIN KMSN 160220Z 00000KT 10SM SCT120 M01/M08 A3017 630 58 -1000 000/00 RMK AO2
14837KMSN MSN20060315202509803/15/06 20:25:31  5-MIN KMSN 160225Z 00000KT 10SM BKN120 00/M08 A3017 630 56 -1000 000/00 RMK AO2
14837KMSN MSN20060315203009803/15/06 20:30:31  5-MIN KMSN 160230Z 00000KT 10SM BKN110 00/M08 A3017 630 56 -1000 000/00 RMK AO2
14837KMSN MSN20060315203509803/15/06 20:35:31  5-MIN KMSN 160235Z 00000KT 10SM BKN110 00/M07 A3018 630 58 -1000 000/00 RMK AO2
14837KMSN MSN20060315204009803/15/06 20:40:31  5-MIN KMSN 160240Z 00000KT 10SM OVC110 00/M08 A3018 630 56 -1000 000/00 RMK AO2
14837KMSN MSN20060315204509703/15/06 20:45:31  5-MIN KMSN 160245Z 04003KT 10SM OVC110 01/M08 A3018 630 54 -900 040/03 RMK AO2
14837KMSN MSN20060315205012003/15/06 20:50:31  5-MIN KMSN 160250Z 00000KT 10SM OVC110 01/M08 A3018 630 54 -900 000/00 RMK AO2 SLP230 T00061078 55011
14837KMSN MSN20060315205509703/15/06 20:55:31  5-MIN KMSN 160255Z 02003KT 10SM OVC110 01/M07 A3018 630 56 -900 020/03 RMK AO2
14837KMSN MSN20060315210009703/15/06 21:00:31  5-MIN KMSN 160300Z 01003KT 10SM OVC110 01/M07 A3018 630 58 -900 010/03 RMK AO2
14837KMSN MSN20060315210509903/15/06 21:05:31  5-MIN KMSN 160305Z 36003KT 10SM OVC100 M01/M06 A3018 620 66 -1000 360/03 RMK AO2
14837KMSN MSN20060315211009803/15/06 21:10:31  5-MIN KMSN 160310Z 01003KT 10SM OVC100 00/M06 A3018 620 63 -1000 010/03 RMK AO2
14837KMSN MSN20060315211509803/15/06 21:15:31  5-MIN KMSN 160315Z 34003KT 10SM OVC095 00/M06 A3019 620 63 -1000 340/03 RMK AO2
14837KMSN MSN20060315212009803/15/06 21:20:31  5-MIN KMSN 160320Z 00000KT 10SM OVC090 00/M06 A3019 620 63 -1000 000/00 RMK AO2
14837KMSN MSN20060315212509803/15/06 21:25:31  5-MIN KMSN 160325Z 00000KT 10SM OVC090 00/M06 A3019 610 63 -1000 000/00 RMK AO2
14837KMSN MSN20060315213009803/15/06 21:30:31  5-MIN KMSN 160330Z 00000KT 10SM OVC090 00/M06 A3019 610 63 -1000 000/00 RMK AO2
14837KMSN MSN20060315213509803/15/06 21:35:31  5-MIN KMSN 160335Z 00000KT 10SM OVC090 00/M06 A3020 610 63 -1000 000/00 RMK AO2
14837KMSN MSN20060315214009803/15/06 21:40:31  5-MIN KMSN 160340Z 00000KT 10SM OVC095 00/M07 A3020 610 61 -1000 000/00 RMK AO2
14837KMSN MSN20060315214509703/15/06 21:45:31  5-MIN KMSN 160345Z 00000KT 10SM OVC095 01/M07 A3019 610 56 -900 000/00 RMK AO2
14837KMSN MSN20060315215011403/15/06 21:50:31  5-MIN KMSN 160350Z 00000KT 10SM OVC095 01/M07 A3019 610 56 -900 000/00 RMK AO2 SLP236 T00061072
14837KMSN MSN20060315215509703/15/06 21:55:31  5-MIN KMSN 160355Z 00000KT 10SM BKN095 01/M08 A3019 610 54 -900 000/00 RMK AO2
14837KMSN MSN20060315220009703/15/06 22:00:31  5-MIN KMSN 160400Z 00000KT 10SM BKN095 01/M08 A3019 610 54 -900 000/00 RMK AO2
14837KMSN MSN20060315220509703/15/06 22:05:31  5-MIN KMSN 160405Z 00000KT 10SM BKN095 01/M08 A3019 620 54 -900 000/00 RMK AO2
14837KMSN MSN20060315221009703/15/06 22:10:31  5-MIN KMSN 160410Z 00000KT 10SM BKN100 01/M08 A3019 620 54 -900 000/00 RMK AO2
14837KMSN MSN20060315221509803/15/06 22:15:31  5-MIN KMSN 160415Z 00000KT 10SM BKN095 00/M07 A3019 620 61 -1000 000/00 RMK AO2
14837KMSN MSN20060315222009803/15/06 22:20:31  5-MIN KMSN 160420Z 02003KT 10SM BKN095 00/M06 A3019 620 63 -1000 020/03 RMK AO2
14837KMSN MSN20060315222509803/15/06 22:25:31  5-MIN KMSN 160425Z 00000KT 10SM BKN095 00/M06 A3018 620 63 -1000 000/00 RMK AO2
14837KMSN MSN20060315223010503/15/06 22:30:31  5-MIN KMSN 160430Z 00000KT 10SM BKN090 BKN100 00/M06 A3019 620 66 -1000 000/00 RMK AO2
14837KMSN MSN20060315223510503/15/06 22:35:31  5-MIN KMSN 160435Z 00000KT 10SM BKN085 OVC100 00/M05 A3018 620 69 -1000 000/00 RMK AO2
14837KMSN MSN20060315224010503/15/06 22:40:31  5-MIN KMSN 160440Z 00000KT 10SM BKN075 OVC095 00/M06 A3018 620 66 -1000 000/00 RMK AO2
14837KMSN MSN20060315224510503/15/06 22:45:31  5-MIN KMSN 160445Z 00000KT 10SM BKN070 OVC095 00/M06 A3018 620 63 -1000 000/00 RMK AO2
14837KMSN MSN20060315225012103/15/06 22:50:31  5-MIN KMSN 160450Z 00000KT 10SM BKN075 OVC090 01/M07 A3018 620 56 -900 000/00 RMK AO2 SLP230 T00061072
14837KMSN MSN20060315225509803/15/06 22:55:31  5-MIN KMSN 160455Z 00000KT 10SM OVC075 00/M06 A3018 630 63 -1000 000/00 RMK AO2
14837KMSN MSN20060315230010503/15/06 23:00:31  5-MIN KMSN 160500Z 00000KT 10SM BKN075 OVC090 00/M07 A3018 630 61 -1000 000/00 RMK AO2
14837KMSN MSN20060315230509803/15/06 23:05:31  5-MIN KMSN 160505Z 04003KT 10SM BKN075 00/M06 A3018 630 63 -1000 040/03 RMK AO2
14837KMSN MSN20060315231009803/15/06 23:10:31  5-MIN KMSN 160510Z 03004KT 10SM BKN080 00/M06 A3018 630 63 -1000 030/04 RMK AO2
14837KMSN MSN20060315231509803/15/06 23:15:31  5-MIN KMSN 160515Z 03004KT 10SM BKN080 00/M06 A3017 630 66 -1000 030/04 RMK AO2
14837KMSN MSN20060315232010503/15/06 23:20:31  5-MIN KMSN 160520Z 01004KT 10SM BKN080 BKN110 00/M06 A3017 630 63 -1000 010/04 RMK AO2
14837KMSN MSN20060315232509903/15/06 23:25:31  5-MIN KMSN 160525Z 04005KT 10SM BKN085 M01/M06 A3017 630 69 -1000 040/05 RMK AO2
14837KMSN MSN20060315233009803/15/06 23:30:31  5-MIN KMSN 160530Z 04005KT 10SM OVC085 00/M06 A3017 630 63 -1000 040/05 RMK AO2
14837KMSN MSN20060315233509803/15/06 23:35:31  5-MIN KMSN 160535Z 05004KT 10SM OVC085 00/M06 A3017 630 63 -1000 050/04 RMK AO2
14837KMSN MSN20060315234009803/15/06 23:40:31  5-MIN KMSN 160540Z 06004KT 10SM OVC085 00/M06 A3017 630 63 -1000 050/04 RMK AO2
14837KMSN MSN20060315234509903/15/06 23:45:31  5-MIN KMSN 160545Z 06004KT 10SM OVC085 M01/M06 A3017 640 69 -1000 060/04 RMK AO2
14837KMSN MSN20060315235014403/15/06 23:50:31  5-MIN KMSN 160550Z 05005KT 10SM OVC085 M01/M06 A3017 640 69 -1000 050/05 RMK AO2 SLP225 T10061056 10022 21011 400391072 53005
14837KMSN MSN20060315235509803/15/06 23:55:31  5-MIN KMSN 160555Z 07003KT 10SM OVC080 00/M06 A3017 640 66 -1000 070/03 RMK AO2
14837KMSN MSN20060316000009903/16/06 00:00:38  5-MIN KMSN 160600Z 09003KT 10SM OVC080 M01/M06 A3016 640 69 -1000 090/03 RMK AO2
14837KMSN MSN20060316000509703/16/06 00:05:31  5-MIN KMSN 160605Z 00000KT 10SM OVC080 00/M06 A3016 640 63 -900 000/00 RMK AO2
14837KMSN MSN20060316001009703/16/06 00:10:31  5-MIN KMSN 160610Z 00000KT 10SM OVC080 00/M06 A3016 640 63 -900 000/00 RMK AO2
14837KMSN MSN20060316001509703/16/06 00:15:31  5-MIN KMSN 160615Z 00000KT 10SM OVC085 00/M07 A3016 640 61 -900 000/00 RMK AO2
14837KMSN MSN20060316002009703/16/06 00:20:31  5-MIN KMSN 160620Z 00000KT 10SM OVC085 01/M07 A3016 640 58 -900 000/00 RMK AO2
14837KMSN MSN20060316002509703/16/06 00:25:31  5-MIN KMSN 160625Z 08004KT 10SM OVC090 01/M07 A3016 650 56 -900 080/04 RMK AO2
14837KMSN MSN20060316003009703/16/06 00:30:31  5-MIN KMSN 160630Z 08004KT 10SM OVC090 01/M07 A3016 650 56 -900 080/04 RMK AO2
14837KMSN MSN20060316003509703/16/06 00:35:31  5-MIN KMSN 160635Z 09003KT 10SM OVC090 01/M07 A3016 640 56 -900 080/03 RMK AO2
14837KMSN MSN20060316004009703/16/06 00:40:31  5-MIN KMSN 160640Z 07004KT 10SM OVC090 01/M07 A3016 650 56 -900 070/04 RMK AO2
14837KMSN MSN20060316004509703/16/06 00:45:31  5-MIN KMSN 160645Z 07005KT 10SM OVC090 01/M07 A3016 640 58 -900 070/05 RMK AO2
14837KMSN MSN20060316005012103/16/06 00:50:31  5-MIN KMSN 160650Z 08004KT 10SM BKN080 OVC095 01/M07 A3016 640 58 -900 080/04 RMK AO2 SLP222 T00061067
14837KMSN MSN20060316005510403/16/06 00:55:31  5-MIN KMSN 160655Z 08004KT 10SM BKN075 OVC095 01/M07 A3016 640 58 -900 080/04 RMK AO2
14837KMSN MSN20060316010010403/16/06 01:00:31  5-MIN KMSN 160700Z 09003KT 10SM BKN075 OVC090 01/M07 A3017 640 58 -900 090/03 RMK AO2
14837KMSN MSN20060316010510403/16/06 01:05:31  5-MIN KMSN 160705Z 12003KT 10SM BKN075 OVC090 01/M07 A3017 630 56 -900 120/03 RMK AO2
14837KMSN MSN20060316011010403/16/06 01:10:31  5-MIN KMSN 160710Z 00000KT 10SM BKN070 OVC090 01/M07 A3017 630 56 -900 000/00 RMK AO2
14837KMSN MSN20060316011510403/16/06 01:15:31  5-MIN KMSN 160715Z 11003KT 10SM BKN070 OVC090 01/M08 A3017 640 54 -900 110/03 RMK AO2
14837KMSN MSN20060316012010403/16/06 01:20:31  5-MIN KMSN 160720Z 00000KT 10SM BKN065 OVC085 01/M08 A3017 640 54 -900 000/00 RMK AO2
14837KMSN MSN20060316012510403/16/06 01:25:31  5-MIN KMSN 160725Z 12003KT 10SM BKN065 OVC085 01/M07 A3017 630 56 -900 110/03 RMK AO2
14837KMSN MSN20060316013009703/16/06 01:30:31  5-MIN KMSN 160730Z 11004KT 10SM OVC060 01/M07 A3017 640 56 -900 110/04 RMK AO2
14837KMSN MSN20060316013511103/16/06 01:35:31  5-MIN KMSN 160735Z 10004KT 10SM BKN060 BKN080 OVC090 01/M07 A3017 640 58 -900 100/04 RMK AO2
14837KMSN MSN20060316014010403/16/06 01:40:31  5-MIN KMSN 160740Z 08004KT 10SM BKN060 OVC090 01/M07 A3016 640 58 -900 080/04 RMK AO2
14837KMSN MSN20060316014510403/16/06 01:45:31  5-MIN KMSN 160745Z 08005KT 10SM BKN060 OVC090 01/M07 A3016 640 58 -900 080/05 RMK AO2
14837KMSN MSN20060316015012103/16/06 01:50:31  5-MIN KMSN 160750Z 10004KT 10SM BKN055 OVC090 01/M07 A3016 640 58 -900 100/04 RMK AO2 SLP222 T00061067
14837KMSN MSN20060316015510403/16/06 01:55:31  5-MIN KMSN 160755Z 12004KT 10SM BKN055 OVC090 00/M07 A3016 640 61 -900 120/04 RMK AO2
14837KMSN MSN20060316020011103/16/06 02:00:31  5-MIN KMSN 160800Z 14005KT 10SM BKN055 BKN070 OVC090 00/M06 A3016 640 63 -900 130/05 RMK AO2
14837KMSN MSN20060316020510403/16/06 02:05:31  5-MIN KMSN 160805Z 13005KT 10SM BKN055 OVC090 01/M07 A3016 650 58 -900 120/05 RMK AO2
14837KMSN MSN20060316021009703/16/06 02:10:31  5-MIN KMSN 160810Z 12004KT 10SM OVC055 01/M07 A3015 650 58 -900 120/04 RMK AO2
14837KMSN MSN20060316021509703/16/06 02:15:31  5-MIN KMSN 160815Z 11004KT 10SM OVC060 00/M07 A3015 650 61 -900 110/04 RMK AO2
14837KMSN MSN20060316022009703/16/06 02:20:31  5-MIN KMSN 160820Z 12005KT 10SM OVC060 00/M07 A3015 650 61 -900 110/05 RMK AO2
14837KMSN MSN20060316022509703/16/06 02:25:31  5-MIN KMSN 160825Z 10005KT 10SM OVC060 00/M06 A3014 660 63 -900 100/05 RMK AO2
14837KMSN MSN20060316023009703/16/06 02:30:31  5-MIN KMSN 160830Z 10007KT 10SM OVC060 00/M06 A3014 660 63 -900 100/07 RMK AO2
14837KMSN MSN20060316023509703/16/06 02:35:31  5-MIN KMSN 160835Z 09006KT 10SM OVC065 01/M07 A3014 670 58 -800 090/06 RMK AO2
14837KMSN MSN20060316024009703/16/06 02:40:31  5-MIN KMSN 160840Z 08006KT 10SM OVC065 01/M07 A3013 670 58 -800 080/06 RMK AO2
14837KMSN MSN20060316024509703/16/06 02:45:31  5-MIN KMSN 160845Z 10006KT 10SM OVC065 01/M07 A3013 670 58 -800 090/06 RMK AO2
14837KMSN MSN20060316025012003/16/06 02:50:31  5-MIN KMSN 160850Z 09006KT 10SM OVC070 01/M07 A3013 670 58 -800 090/06 RMK AO2 SLP210 T00061067 58004
14837KMSN MSN20060316025509703/16/06 02:55:31  5-MIN KMSN 160855Z 09007KT 10SM OVC065 01/M07 A3012 680 58 -800 090/07 RMK AO2
14837KMSN MSN20060316030009703/16/06 03:00:31  5-MIN KMSN 160900Z 09007KT 10SM OVC060 01/M07 A3012 680 58 -800 090/07 RMK AO2
14837KMSN MSN20060316030509703/16/06 03:05:31  5-MIN KMSN 160905Z 09006KT 10SM OVC060 01/M07 A3012 680 58 -800 090/06 RMK AO2
14837KMSN MSN20060316031009703/16/06 03:10:31  5-MIN KMSN 160910Z 08007KT 10SM OVC060 01/M07 A3012 680 58 -800 080/07 RMK AO2
14837KMSN MSN20060316031509703/16/06 03:15:31  5-MIN KMSN 160915Z 08007KT 10SM OVC060 01/M07 A3011 690 58 -800 080/07 RMK AO2
14837KMSN MSN20060316032009703/16/06 03:20:31  5-MIN KMSN 160920Z 08007KT 10SM OVC055 01/M07 A3011 690 58 -800 080/07 RMK AO2
14837KMSN MSN20060316032509703/16/06 03:25:31  5-MIN KMSN 160925Z 08006KT 10SM OVC055 01/M06 A3011 690 61 -800 080/06 RMK AO2
14837KMSN MSN20060316033009703/16/06 03:30:31  5-MIN KMSN 160930Z 08008KT 10SM OVC055 01/M06 A3011 690 61 -800 080/08 RMK AO2
14837KMSN MSN20060316033509703/16/06 03:35:31  5-MIN KMSN 160935Z 08008KT 10SM OVC055 01/M06 A3010 690 61 -800 080/08 RMK AO2
14837KMSN MSN20060316034009703/16/06 03:40:31  5-MIN KMSN 160940Z 08008KT 10SM OVC055 01/M06 A3011 690 61 -800 080/08 RMK AO2
14837KMSN MSN20060316034509703/16/06 03:45:31  5-MIN KMSN 160945Z 09007KT 10SM OVC055 01/M06 A3011 690 61 -800 090/07 RMK AO2
14837KMSN MSN20060316035011403/16/06 03:50:31  5-MIN KMSN 160950Z 09007KT 10SM OVC055 01/M06 A3010 700 61 -800 090/07 RMK AO2 SLP203 T00061061
14837KMSN MSN20060316035509703/16/06 03:55:31  5-MIN KMSN 160955Z 09006KT 10SM OVC055 01/M06 A3010 700 61 -800 090/06 RMK AO2
14837KMSN MSN20060316040009703/16/06 04:00:31  5-MIN KMSN 161000Z 08005KT 10SM OVC055 01/M07 A3010 700 58 -800 080/05 RMK AO2
14837KMSN MSN20060316040509703/16/06 04:05:31  5-MIN KMSN 161005Z 09005KT 10SM OVC050 01/M07 A3010 700 58 -800 090/05 RMK AO2
14837KMSN MSN20060316041009703/16/06 04:10:31  5-MIN KMSN 161010Z 09007KT 10SM OVC050 01/M07 A3010 700 58 -800 090/07 RMK AO2
14837KMSN MSN20060316041509703/16/06 04:15:31  5-MIN KMSN 161015Z 08008KT 10SM OVC050 01/M07 A3010 700 58 -800 080/08 RMK AO2
14837KMSN MSN20060316042009703/16/06 04:20:31  5-MIN KMSN 161020Z 08009KT 10SM OVC050 01/M07 A3009 700 58 -800 080/09 RMK AO2
14837KMSN MSN20060316042509703/16/06 04:25:31  5-MIN KMSN 161025Z 08009KT 10SM OVC050 01/M07 A3009 710 58 -800 080/09 RMK AO2
14837KMSN MSN20060316043009703/16/06 04:30:31  5-MIN KMSN 161030Z 08010KT 10SM OVC050 01/M07 A3009 710 58 -800 080/10 RMK AO2
14837KMSN MSN20060316043509703/16/06 04:35:31  5-MIN KMSN 161035Z 09009KT 10SM OVC050 01/M07 A3009 700 58 -800 090/09 RMK AO2
14837KMSN MSN20060316044009703/16/06 04:40:31  5-MIN KMSN 161040Z 11009KT 10SM OVC050 01/M07 A3010 700 58 -800 110/09 RMK AO2
14837KMSN MSN20060316044509703/16/06 04:45:31  5-MIN KMSN 161045Z 12009KT 10SM OVC050 01/M07 A3010 700 58 -800 120/09 RMK AO2
14837KMSN MSN20060316045011403/16/06 04:50:31  5-MIN KMSN 161050Z 12007KT 10SM OVC050 01/M07 A3010 700 58 -800 120/07 RMK AO2 SLP201 T00061067
14837KMSN MSN20060316045509703/16/06 04:55:31  5-MIN KMSN 161055Z 11008KT 10SM OVC050 01/M07 A3009 700 58 -800 110/08 RMK AO2
14837KMSN MSN20060316050009703/16/06 05:00:31  5-MIN KMSN 161100Z 11007KT 10SM OVC050 01/M06 A3009 700 61 -800 110/07 RMK AO2
14837KMSN MSN20060316050509703/16/06 05:05:31  5-MIN KMSN 161105Z 10006KT 10SM OVC050 01/M06 A3009 710 61 -800 100/06 RMK AO2
14837KMSN MSN20060316051009703/16/06 05:10:31  5-MIN KMSN 161110Z 10008KT 10SM OVC048 01/M06 A3009 710 61 -800 100/08 RMK AO2
14837KMSN MSN20060316051509703/16/06 05:15:31  5-MIN KMSN 161115Z 09008KT 10SM OVC048 01/M07 A3009 710 58 -800 090/08 RMK AO2
14837KMSN MSN20060316052009703/16/06 05:20:31  5-MIN KMSN 161120Z 09009KT 10SM OVC048 01/M07 A3009 710 58 -800 090/09 RMK AO2
14837KMSN MSN20060316052509703/16/06 05:25:31  5-MIN KMSN 161125Z 09009KT 10SM OVC046 01/M07 A3009 710 58 -800 090/09 RMK AO2
14837KMSN MSN20060316053009703/16/06 05:30:31  5-MIN KMSN 161130Z 09008KT 10SM OVC046 01/M06 A3009 710 61 -800 090/08 RMK AO2
14837KMSN MSN20060316053509703/16/06 05:35:31  5-MIN KMSN 161135Z 09009KT 10SM OVC046 01/M07 A3009 710 58 -800 090/09 RMK AO2
14837KMSN MSN20060316054009703/16/06 05:40:31  5-MIN KMSN 161140Z 10008KT 10SM OVC046 01/M06 A3009 710 61 -800 090/08 RMK AO2
14837KMSN MSN20060316054510403/16/06 05:45:31  5-MIN KMSN 161145Z 09009KT 10SM FEW032 OVC046 01/M06 A3008 720 61 -800 090/09 RMK AO2
14837KMSN MSN20060316055013903/16/06 05:50:31  5-MIN KMSN 161150Z 09010KT 10SM SCT032 OVC046 01/M07 A3008 720 58 -800 090/10 RMK AO2 SLP195 T00061067 10006 21006 58014
14837KMSN MSN20060316055510403/16/06 05:55:31  5-MIN KMSN 161155Z 09009KT 10SM SCT032 OVC046 01/M07 A3008 720 58 -800 080/09 RMK AO2
14837KMSN MSN20060316060010403/16/06 06:00:31  5-MIN KMSN 161200Z 08009KT 10SM SCT032 OVC048 01/M07 A3008 720 58 -800 080/09 RMK AO2
14837KMSN MSN20060316060510403/16/06 06:05:31  5-MIN KMSN 161205Z 08010KT 10SM FEW032 OVC048 01/M06 A3008 720 61 -800 080/10 RMK AO2
14837KMSN MSN20060316061010403/16/06 06:10:31  5-MIN KMSN 161210Z 08011KT 10SM FEW032 OVC048 01/M06 A3008 720 61 -800 080/11 RMK AO2
14837KMSN MSN20060316061510403/16/06 06:15:31  5-MIN KMSN 161215Z 08010KT 10SM FEW032 OVC048 01/M06 A3008 720 61 -800 080/10 RMK AO2
14837KMSN MSN20060316062010403/16/06 06:20:31  5-MIN KMSN 161220Z 08010KT 10SM FEW032 OVC046 01/M06 A3008 720 61 -800 080/10 RMK AO2
14837KMSN MSN20060316062509703/16/06 06:25:31  5-MIN KMSN 161225Z 08010KT 10SM OVC046 01/M06 A3007 720 61 -800 080/10 RMK AO2
14837KMSN MSN20060316063009703/16/06 06:30:31  5-MIN KMSN 161230Z 08011KT 10SM OVC044 01/M06 A3007 720 61 -800 080/11 RMK AO2
14837KMSN MSN20060316063509703/16/06 06:35:31  5-MIN KMSN 161235Z 08012KT 10SM OVC044 01/M06 A3007 720 61 -800 080/12 RMK AO2
14837KMSN MSN20060316064009703/16/06 06:40:31  5-MIN KMSN 161240Z 08010KT 10SM OVC044 01/M06 A3007 720 61 -800 080/10 RMK AO2
14837KMSN MSN20060316064509703/16/06 06:45:31  5-MIN KMSN 161245Z 08011KT 10SM OVC044 01/M06 A3007 720 61 -800 080/11 RMK AO2
14837KMSN MSN20060316065013603/16/06 06:50:31  5-MIN KMSN 161250Z 08011KT 6SM -SN FEW023 OVC044 01/M06 A3007 720 61 -800 080/11 RMK AO2 SNB46 SLP193 P0000 T00061061
14837KMSN MSN20060316065512303/16/06 06:55:31  5-MIN KMSN 161255Z 08012KT 3SM -SN SCT019 OVC044 01/M06 A3008 720 61 -800 080/12 RMK AO2 SFC VIS 5 P0000
14837KMSN MSN20060316070011303/16/06 07:00:31  5-MIN KMSN 161300Z 08011KT 3SM -SN BKN019 OVC044 01/M06 A3007 720 63 -800 070/11 RMK AO2 P0000
14837KMSN MSN20060316070511303/16/06 07:05:31  5-MIN KMSN 161305Z 08010KT 3SM -SN BKN017 OVC044 00/M05 A3007 730 69 -800 080/10 RMK AO2 P0000
14837KMSN MSN20060316071011303/16/06 07:10:31  5-MIN KMSN 161310Z 08011KT 3SM -SN BKN017 OVC044 00/M05 A3007 720 69 -800 080/11 RMK AO2 P0000
14837KMSN MSN20060316071512003/16/06 07:15:31  5-MIN KMSN 161315Z 08011KT 1 3/4SM -SN OVC015 00/M04 A3007 720 72 -800 080/11 RMK AO2 TWR VIS 2 P0000
14837KMSN MSN20060316072012003/16/06 07:20:31  5-MIN KMSN 161320Z 08010KT 1 3/4SM -SN OVC015 00/M04 A3007 720 72 -800 080/10 RMK AO2 TWR VIS 2 P0000
14837KMSN MSN20060316072511503/16/06 07:25:31  5-MIN KMSN 161325Z 09010KT 1SM -SN VV013 00/M04 A3007 720 75 -800 090/10 RMK AO2 TWR VIS 2 P0000
14837KMSN MSN20060316073011803/16/06 07:30:31  5-MIN KMSN 161330Z 10013KT 3/4SM -SN VV009 M01/M04 A3008 720 78 -900 100/13 RMK AO2 TWR VIS 1 P0000
14837KMSN MSN20060316073511803/16/06 07:35:31  5-MIN KMSN 161335Z 11012KT 3/4SM -SN VV009 M01/M04 A3008 720 78 -900 110/12 RMK AO2 TWR VIS 1 P0000
14837KMSN MSN20060316074010803/16/06 07:40:31  5-MIN KMSN 161340Z 11009KT 3/4SM -SN VV009 M01/M03 A3008 720 81 -900 110/09 RMK AO2 P0000
14837KMSN MSN20060316074511203/16/06 07:45:31  5-MIN KMSN 161345Z 11010KT 3/4SM -SN BR VV008 M01/M03 A3008 720 85 -1000 110/10 RMK AO2 P0001
14837KMSN MSN20060316075014203/16/06 07:50:31  5-MIN KMSN 161350Z 10010KT 1/2SM SN FZFG VV007 M01/M03 A3008 720 88 -1000 100/10 RMK AO2 TWR VIS 3/4 SLP196 P0001 T10111028
14837KMSN MSN20060316075512503/16/06 07:55:31  5-MIN KMSN 161355Z 10010KT 1/2SM SN FZFG VV006 M01/M03 A3008 720 88 -1000 100/10 RMK AO2 TWR VIS 3/4 P0000
14837KMSN MSN20060316080012503/16/06 08:00:31  5-MIN KMSN 161400Z 09010KT 1/2SM SN FZFG VV005 M01/M03 A3007 720 88 -1000 090/10 RMK AO2 TWR VIS 3/4 P0000
14837KMSN MSN20060316080512503/16/06 08:05:31  5-MIN KMSN 161405Z 08011KT 1/2SM SN FZFG VV005 M01/M03 A3007 720 88 -1000 080/11 RMK AO2 TWR VIS 3/4 P0001
14837KMSN MSN20060316081011303/16/06 08:10:31  5-MIN KMSN 161410Z 08010KT 1/2SM SN FZFG VV004 M01/M02 A3008 720 92 -1000 080/10 RMK AO2 P0001
14837KMSN MSN20060316081511303/16/06 08:15:31  5-MIN KMSN 161415Z 08009KT 1/2SM SN FZFG VV004 M01/M02 A3008 720 92 -1000 080/09 RMK AO2 P0002
14837KMSN MSN20060316082011303/16/06 08:20:31  5-MIN KMSN 161420Z 08009KT 1/2SM SN FZFG VV003 M01/M02 A3008 720 92 -1000 080/09 RMK AO2 P0002
14837KMSN MSN20060316082511303/16/06 08:25:31  5-MIN KMSN 161425Z 08009KT 1/2SM SN FZFG VV003 M01/M02 A3007 720 92 -1000 070/09 RMK AO2 P0003
14837KMSN MSN20060316083011303/16/06 08:30:31  5-MIN KMSN 161430Z 07011KT 1/2SM SN FZFG VV003 M01/M02 A3007 720 92 -1000 070/11 RMK AO2 P0003
14837KMSN MSN20060316083512603/16/06 08:35:31  5-MIN KMSN 161435Z 07010KT 1/4SM +SN FZFG VV003 M01/M02 A3007 730 92 -1000 070/10 RMK AO2 TWR VIS 1/2 P0003
14837KMSN MSN20060316084013403/16/06 08:40:31  5-MIN KMSN 161440Z 08011KT 1/4SM +SN FZFG BKN002 OVC007 M01/M02 A3007 720 92 -1000 070/11 RMK AO2 TWR VIS 1/2 P0004
14837KMSN MSN20060316084513303/16/06 08:45:31  5-MIN KMSN 161445Z 08012KT 1/4SM SN FZFG BKN002 OVC007 M01/M02 A3008 720 92 -1000 080/12 RMK AO2 TWR VIS 1/2 P0005
14837KMSN MSN20060316085016203/16/06 08:50:31  5-MIN KMSN 161450Z 08011KT 1/4SM SN FZFG BKN003 OVC008 M01/M02 A3008 720 92 -1000 080/11 RMK AO2 TWR VIS 1/2 SLP195 P0006 60007 T10111022 56014
14837KMSN MSN20060316085511303/16/06 08:55:31  5-MIN KMSN 161455Z 08011KT 1/2SM SN FZFG VV003 M01/M02 A3008 720 96 -1000 080/11 RMK AO2 P0000
14837KMSN MSN20060316090012003/16/06 09:00:31  5-MIN KMSN 161500Z 08011KT 1/2SM SN FZFG BKN002 OVC007 M01/M02 A3008 720 92 -900 080/11 RMK AO2 P0000
14837KMSN MSN20060316090512003/16/06 09:05:31  5-MIN KMSN 161505Z 08012KT 1/2SM SN FZFG BKN002 OVC007 M01/M02 A3008 720 92 -900 080/12 RMK AO2 P0001
14837KMSN MSN20060316091012003/16/06 09:10:31  5-MIN KMSN 161510Z 08013KT 1/2SM SN FZFG BKN002 OVC007 M01/M02 A3008 720 92 -900 080/13 RMK AO2 P0002
14837KMSN MSN20060316091512003/16/06 09:15:31  5-MIN KMSN 161515Z 09015KT 1/2SM SN FZFG BKN002 OVC009 M01/M02 A3008 720 92 -900 090/15 RMK AO2 P0003
14837KMSN MSN20060316092012003/16/06 09:20:31  5-MIN KMSN 161520Z 08014KT 1/2SM SN FZFG BKN002 OVC009 M01/M02 A3008 720 88 -900 080/14 RMK AO2 P0003
14837KMSN MSN20060316092512003/16/06 09:25:31  5-MIN KMSN 161525Z 09013KT 1/2SM SN FZFG BKN004 OVC009 M01/M02 A3008 720 88 -900 090/13 RMK AO2 P0004
14837KMSN MSN20060316093013103/16/06 09:30:31  5-MIN KMSN 161530Z 09012KT 1/2SM -SN BR BKN004 OVC009 M01/M02 A3009 710 88 -900 090/12 RMK AO2 SFC VIS 3/4 P0004
14837KMSN MSN20060316093513103/16/06 09:35:31  5-MIN KMSN 161535Z 09010KT 1/2SM -SN BR BKN005 OVC010 M01/M02 A3009 710 88 -900 090/10 RMK AO2 SFC VIS 3/4 P0004
14837KMSN MSN20060316094012103/16/06 09:40:31  5-MIN KMSN 161540Z 09014KT 1/2SM -SN FZFG BKN005 OVC010 M01/M02 A3009 710 88 -900 080/14 RMK AO2 P0005
14837KMSN MSN20060316094512003/16/06 09:45:31  5-MIN KMSN 161545Z 08013KT 1/2SM SN FZFG BKN005 OVC010 M01/M02 A3009 710 88 -900 080/13 RMK AO2 P0005
14837KMSN MSN20060316095013703/16/06 09:50:31  5-MIN KMSN 161550Z 08013KT 1/2SM SN FZFG BKN005 OVC010 M01/M02 A3009 710 92 -900 080/13 RMK AO2 SLP197 P0005 T10061017
14837KMSN MSN20060316095512003/16/06 09:55:31  5-MIN KMSN 161555Z 08013KT 1/2SM SN FZFG BKN005 OVC010 M01/M02 A3008 710 92 -900 080/13 RMK AO2 P0000
14837KMSN MSN20060316100012003/16/06 10:00:31  5-MIN KMSN 161600Z 08011KT 1/2SM SN FZFG BKN005 OVC010 M01/M02 A3008 710 92 -900 080/11 RMK AO2 P0001
14837KMSN MSN20060316100512103/16/06 10:05:31  5-MIN KMSN 161605Z 08012KT 1/2SM -SN FZFG BKN005 OVC010 M01/M02 A3008 710 92 -900 070/12 RMK AO2 P0001
14837KMSN MSN20060316101012403/16/06 10:10:31  5-MIN KMSN 161610Z 08012KT 1/2SM -SN BR OVC007 M01/M02 A3008 710 92 -900 080/12 RMK AO2 SFC VIS 3/4 P0001
14837KMSN MSN20060316101512403/16/06 10:15:31  5-MIN KMSN 161615Z 08013KT 1/2SM -SN BR OVC007 M01/M02 A3008 710 92 -900 070/13 RMK AO2 SFC VIS 3/4 P0001
14837KMSN MSN20060316102012403/16/06 10:20:31  5-MIN KMSN 161620Z 08012KT 1/2SM -SN BR OVC007 M01/M02 A3009 710 92 -900 080/12 RMK AO2 SFC VIS 3/4 P0001
14837KMSN MSN20060316102512403/16/06 10:25:31  5-MIN KMSN 161625Z 09014KT 1/2SM -SN BR OVC007 M01/M02 A3008 710 92 -900 080/14 RMK AO2 SFC VIS 3/4 P0001
14837KMSN MSN20060316103012403/16/06 10:30:31  5-MIN KMSN 161630Z 08012KT 1/2SM -SN BR OVC007 M01/M02 A3008 720 92 -900 080/12 RMK AO2 SFC VIS 3/4 P0002
14837KMSN MSN20060316103513803/16/06 10:35:31  5-MIN KMSN 161635Z 08013KT 1/2SM -SN BR BKN007 BKN012 OVC025 M01/M02 A3008 720 92 -900 080/13 RMK AO2 SFC VIS 3/4 P0002
14837KMSN MSN20060316104013803/16/06 10:40:31  5-MIN KMSN 161640Z 08014KT 1/2SM -SN BR BKN009 BKN012 OVC024 M01/M02 A3008 720 92 -900 080/14 RMK AO2 SFC VIS 3/4 P0002
14837KMSN MSN20060316104513103/16/06 10:45:31  5-MIN KMSN 161645Z 08012KT 1/2SM -SN BR BKN009 OVC014 M01/M02 A3008 710 92 -900 080/12 RMK AO2 SFC VIS 3/4 P0003
14837KMSN MSN20060316105013603/16/06 10:50:31  5-MIN KMSN 161650Z 09014KT 3/4SM -SN BR BKN009 OVC012 M01/M02 A3008 710 92 -900 080/14 RMK AO2 SLP197 P0004 T10061017
14837KMSN MSN20060316105512803/16/06 10:55:31  5-MIN KMSN 161655Z 09016KT 3/4SM -SN BR BKN009 OVC013 00/M02 A3008 710 88 -900 090/16 RMK AO2 SFC VIS 1 P0000
14837KMSN MSN20060316110012803/16/06 11:00:31  5-MIN KMSN 161700Z 08014KT 3/4SM -SN BR BKN009 OVC013 00/M02 A3008 710 85 -900 080/14 RMK AO2 SFC VIS 1 P0000
14837KMSN MSN20060316110512803/16/06 11:05:31  5-MIN KMSN 161705Z 08011KT 3/4SM -SN BR BKN009 OVC014 00/M02 A3008 720 88 -900 080/11 RMK AO2 SFC VIS 1 P0000
14837KMSN MSN20060316111012803/16/06 11:10:31  5-MIN KMSN 161710Z 08014KT 3/4SM -SN BR BKN009 OVC014 00/M02 A3008 720 88 -800 080/14 RMK AO2 SFC VIS 1 P0000
14837KMSN MSN20060316111512403/16/06 11:15:31  5-MIN KMSN 161715Z 08014G20KT 3/4SM -SN BR BKN009 OVC014 00/M02 A3008 720 88 -900 080/14G20 RMK AO2 P0000
14837KMSN MSN20060316112011803/16/06 11:20:31  5-MIN KMSN 161720Z 08013KT 3/4SM -SN BR BKN009 OVC014 00/M02 A3008 720 88 -800 080/13 RMK AO2 P0000
14837KMSN MSN20060316112511903/16/06 11:25:31  5-MIN KMSN 161725Z 07011KT 3/4SM -SN BR BKN009 OVC014 M01/M02 A3008 720 92 -900 070/11 RMK AO2 P0000
14837KMSN MSN20060316113013503/16/06 11:30:31  5-MIN KMSN 161730Z 08017G21KT 3/4SM -SN BR SCT007 OVC014 M01/M02 A3008 720 92 -900 080/17G21 RMK AO2 SFC VIS 1 P0000
14837KMSN MSN20060316113513503/16/06 11:35:31  5-MIN KMSN 161735Z 08014G21KT 3/4SM -SN BR SCT007 OVC014 M01/M02 A3008 720 88 -900 080/14G21 RMK AO2 SFC VIS 1 P0000
14837KMSN MSN20060316114012403/16/06 11:40:31  5-MIN KMSN 161740Z 08016KT 1SM -SN BR SCT007 BKN012 OVC016 M01/M02 A3008 720 92 -900 080/16 RMK AO2 P0000
14837KMSN MSN20060316114511703/16/06 11:45:31  5-MIN KMSN 161745Z 08014KT 1SM -SN BR SCT007 OVC014 M01/M02 A3008 720 92 -900 080/14 RMK AO2 P0000
14837KMSN MSN20060316115011703/16/06 11:50:31  5-MIN KMSN 161750Z 08017KT 1SM -SN BR BKN010 OVC016 M01/M02 A3008 720 88 -900 080/17 RMK AO2 P0000
14837KMSN MSN20060316115511703/16/06 11:55:31  5-MIN KMSN 161755Z 08015KT 1SM -SN BR BKN010 OVC016 M01/M02 A3008 720 88 -900 080/15 RMK AO2 P0001
14837KMSN MSN20060316120012303/16/06 12:00:31  5-MIN KMSN 161800Z 08015G22KT 1SM -SN BR BKN010 OVC016 M01/M02 A3008 720 88 -900 080/15G22 RMK AO2 P0001
14837KMSN MSN20060316120511603/16/06 12:05:31  5-MIN KMSN 161805Z 08018G22KT 1SM -SN BR OVC010 M01/M02 A3008 720 88 -900 080/18G22 RMK AO2 P0001
14837KMSN MSN20060316121012003/16/06 12:10:31  5-MIN KMSN 161810Z 08017G23KT 1 1/2SM -SN BR OVC010 M01/M02 A3008 720 88 -900 070/17G23 RMK AO2 P0001
14837KMSN MSN20060316121511403/16/06 12:15:31  5-MIN KMSN 161815Z 08017KT 1 1/2SM -SN BR OVC010 M01/M02 A3008 720 88 -900 080/17 RMK AO2 P0001
14837KMSN MSN20060316122011403/16/06 12:20:31  5-MIN KMSN 161820Z 08014KT 1 1/2SM -SN BR OVC012 M01/M02 A3008 720 88 -900 070/14 RMK AO2 P0001
14837KMSN MSN20060316122512003/16/06 12:25:31  5-MIN KMSN 161825Z 07017G21KT 1 1/2SM -SN BR OVC012 M01/M02 A3008 720 88 -900 070/17G21 RMK AO2 P0001
14837KMSN MSN20060316123012803/16/06 12:30:31  5-MIN KMSN 161830Z 06015KT 1 1/4SM -SN BR OVC012 M01/M02 A3007 720 88 -900 060/15 RMK AO2 TWR VIS 1 1/2 P0001
14837KMSN MSN20060316123512803/16/06 12:35:31  5-MIN KMSN 161835Z 07015KT 1 1/4SM -SN BR OVC012 M01/M02 A3007 720 88 -900 070/15 RMK AO2 TWR VIS 1 1/2 P0001
14837KMSN MSN20060316124012803/16/06 12:40:31  5-MIN KMSN 161840Z 07015KT 1 1/4SM -SN BR OVC012 M01/M02 A3007 720 88 -900 070/15 RMK AO2 TWR VIS 1 1/2 P0001
14837KMSN MSN20060316124512403/16/06 12:45:31  5-MIN KMSN 161845Z 07018KT 1SM -SN BR OVC012 M01/M02 A3007 730 88 -900 070/18 RMK AO2 TWR VIS 1 1/2 P0001
14837KMSN MSN20060316125012603/16/06 12:50:31  5-MIN KMSN 161850Z 07014KT 3/4SM -SN BR OVC012 M01/M02 A3007 730 88 -900 070/14 RMK AO2 TWR VIS 1 1/2 P0001
14837KMSN MSN20060316125513303/16/06 12:55:31  5-MIN KMSN 161855Z 07015KT 3/4SM -SN BR BKN008 OVC013 M01/M02 A3007 730 88 -900 060/15 RMK AO2 TWR VIS 1 1/2 P0000
14837KMSN MSN20060316130011903/16/06 13:00:31  5-MIN KMSN 161900Z 07015KT 3/4SM -SN BR BKN008 OVC013 M01/M02 A3007 730 88 -900 070/15 RMK AO2 P0000
14837KMSN MSN20060316130513303/16/06 13:05:31  5-MIN KMSN 161905Z 06015KT 1/2SM -SN FZFG BKN008 OVC016 M01/M02 A3007 730 88 -900 060/15 RMK AO2 TWR VIS 3/4 P0000
14837KMSN MSN20060316131013303/16/06 13:10:31  5-MIN KMSN 161910Z 07018KT 1/2SM -SN FZFG BKN008 OVC014 M01/M02 A3007 730 88 -900 070/18 RMK AO2 TWR VIS 3/4 P0000
14837KMSN MSN20060316131513303/16/06 13:15:31  5-MIN KMSN 161915Z 07014KT 1/2SM -SN FZFG BKN008 OVC014 M01/M02 A3007 730 88 -900 070/14 RMK AO2 TWR VIS 3/4 P0000
14837KMSN MSN20060316132011903/16/06 13:20:31  5-MIN KMSN 161920Z 07013KT 3/4SM -SN BR BKN008 OVC014 M01/M02 A3007 730 88 -900 070/13 RMK AO2 P0000
14837KMSN MSN20060316132511903/16/06 13:25:31  5-MIN KMSN 161925Z 06014KT 3/4SM -SN BR BKN008 OVC012 M01/M02 A3006 730 88 -900 060/14 RMK AO2 P0001
14837KMSN MSN20060316133011903/16/06 13:30:31  5-MIN KMSN 161930Z 07014KT 3/4SM -SN BR BKN008 OVC012 M01/M02 A3006 730 88 -900 070/14 RMK AO2 P0001
14837KMSN MSN20060316133512503/16/06 13:35:31  5-MIN KMSN 161935Z 07013G19KT 3/4SM -SN BR BKN008 OVC012 M01/M02 A3006 730 88 -900 070/13G19 RMK AO2 P0001
14837KMSN MSN20060316134011903/16/06 13:40:31  5-MIN KMSN 161940Z 07014KT 3/4SM -SN BR BKN008 OVC014 M01/M02 A3006 740 88 -900 070/14 RMK AO2 P0001
14837KMSN MSN20060316134511903/16/06 13:45:31  5-MIN KMSN 161945Z 07016KT 3/4SM -SN BR BKN008 OVC014 M01/M02 A3006 730 88 -900 070/16 RMK AO2 P0002
14837KMSN MSN20060316135013603/16/06 13:50:31  5-MIN KMSN 161950Z 07012KT 3/4SM -SN BR BKN008 OVC014 M01/M02 A3006 740 88 -900 070/12 RMK AO2 SLP189 P0002 T10061022
14837KMSN MSN20060316135511903/16/06 13:55:31  5-MIN KMSN 161955Z 07012KT 3/4SM -SN BR BKN008 OVC014 M01/M02 A3006 730 88 -900 070/12 RMK AO2 P0000
14837KMSN MSN20060316140011903/16/06 14:00:31  5-MIN KMSN 162000Z 07015KT 3/4SM -SN BR BKN008 OVC014 M01/M02 A3007 730 88 -900 070/15 RMK AO2 P0000
14837KMSN MSN20060316140511903/16/06 14:05:31  5-MIN KMSN 162005Z 07015KT 3/4SM -SN BR BKN008 OVC014 M01/M02 A3007 730 88 -900 070/15 RMK AO2 P0000
14837KMSN MSN20060316141011703/16/06 14:10:31  5-MIN KMSN 162010Z 07012KT 1SM -SN BR BKN008 OVC014 M01/M02 A3007 730 88 -900 070/12 RMK AO2 P0000
14837KMSN MSN20060316141511003/16/06 14:15:31  5-MIN KMSN 162015Z 07013KT 1SM -SN BR OVC012 M01/M02 A3007 720 88 -900 070/13 RMK AO2 P0000
14837KMSN MSN20060316142011703/16/06 14:20:31  5-MIN KMSN 162020Z 06015KT 1SM -SN BR BKN012 OVC017 M01/M02 A3007 730 88 -900 060/15 RMK AO2 P0001
14837KMSN MSN20060316142512303/16/06 14:25:31  5-MIN KMSN 162025Z 06017G21KT 1SM -SN BR BKN008 OVC015 M01/M02 A3007 730 88 -900 060/17G21 RMK AO2 P0001
14837KMSN MSN20060316143013703/16/06 14:30:31  5-MIN KMSN 162030Z 06018G22KT 1SM -SN BR BKN011 OVC017 M01/M02 A3007 720 88 -900 060/18G22 RMK AO2 SFC VIS 1 1/4 P0001
14837KMSN MSN20060316143514403/16/06 14:35:31  5-MIN KMSN 162035Z 07016G22KT 1SM -SN BR BKN011 BKN015 OVC041 M01/M03 A3007 720 85 -900 070/16G22 RMK AO2 SFC VIS 1 1/4 P0001
14837KMSN MSN20060316144013103/16/06 14:40:31  5-MIN KMSN 162040Z 06014KT 1SM -SN BR BKN011 OVC015 M01/M02 A3007 720 88 -900 060/14 RMK AO2 SFC VIS 1 1/4 P0001
14837KMSN MSN20060316144513703/16/06 14:45:31  5-MIN KMSN 162045Z 07015G21KT 1SM -SN BR BKN009 OVC013 M01/M02 A3007 720 88 -900 070/15G21 RMK AO2 SFC VIS 1 1/4 P0001
14837KMSN MSN20060316145014103/16/06 14:50:31  5-MIN KMSN 162050Z 06012G21KT 1 1/4SM -SN BR BKN009 OVC013 M01/M02 A3008 720 88 -900 060/12G21 RMK AO2 TWR VIS 1 1/2 P0001
14837KMSN MSN20060316145512103/16/06 14:55:31  5-MIN KMSN 162055Z 06011KT 1 1/2SM -SN BR BKN011 OVC015 M01/M02 A3008 720 88 -900 060/11 RMK AO2 P0000
14837KMSN MSN20060316150012803/16/06 15:00:31  5-MIN KMSN 162100Z 05013KT 1 1/4SM -SN BR OVC011 M01/M02 A3008 720 88 -900 050/13 RMK AO2 TWR VIS 1 1/2 P0000
14837KMSN MSN20060316150512403/16/06 15:05:31  5-MIN KMSN 162105Z 06013KT 1SM -SN BR OVC011 M01/M02 A3008 710 88 -900 060/13 RMK AO2 TWR VIS 1 1/2 P0000
14837KMSN MSN20060316151013303/16/06 15:10:31  5-MIN KMSN 162110Z 06014KT 3/4SM -SN BR BKN009 OVC014 M01/M02 A3008 710 88 -900 060/14 RMK AO2 TWR VIS 1 1/2 P0000
14837KMSN MSN20060316151511003/16/06 15:15:31  5-MIN KMSN 162115Z 05012KT 1SM -SN BR OVC011 M01/M02 A3009 710 88 -900 050/12 RMK AO2 P0000
14837KMSN MSN20060316152011003/16/06 15:20:31  5-MIN KMSN 162120Z 06014KT 1SM -SN BR OVC011 M01/M02 A3009 710 88 -900 060/14 RMK AO2 P0000
14837KMSN MSN20060316152511003/16/06 15:25:31  5-MIN KMSN 162125Z 06013KT 1SM -SN BR OVC011 M01/M02 A3009 710 88 -900 060/13 RMK AO2 P0000
14837KMSN MSN20060316153011003/16/06 15:30:31  5-MIN KMSN 162130Z 06010KT 1SM -SN BR OVC011 M01/M02 A3009 710 88 -900 060/10 RMK AO2 P0000
14837KMSN MSN20060316153511003/16/06 15:35:31  5-MIN KMSN 162135Z 05009KT 1SM -SN BR OVC011 M01/M02 A3009 710 92 -900 050/09 RMK AO2 P0001
14837KMSN MSN20060316154013103/16/06 15:40:31  5-MIN KMSN 162140Z 05012KT 1SM -SN BR BKN008 OVC015 M01/M02 A3009 710 92 -900 050/12 RMK AO2 SFC VIS 1 1/4 P0001
14837KMSN MSN20060316154513803/16/06 15:45:31  5-MIN KMSN 162145Z 05014KT 1SM -SN BR FEW006 BKN010 OVC017 M01/M02 A3009 710 92 -900 050/14 RMK AO2 SFC VIS 1 1/4 P0001
14837KMSN MSN20060316155015503/16/06 15:50:31  5-MIN KMSN 162150Z 05014KT 1SM -SN BR FEW006 BKN012 OVC017 M01/M02 A3009 700 88 -900 050/14 RMK AO2 SFC VIS 1 1/2 SLP201 P0001 T10061022
14837KMSN MSN20060316155513103/16/06 15:55:31  5-MIN KMSN 162155Z 05014KT 1SM -SN BR FEW006 OVC012 M01/M02 A3010 700 88 -900 050/14 RMK AO2 SFC VIS 1 1/4 P0000
14837KMSN MSN20060316160013803/16/06 16:00:31  5-MIN KMSN 162200Z 06016KT 1SM -SN BR FEW006 SCT010 OVC015 M01/M02 A3010 700 88 -900 050/16 RMK AO2 SFC VIS 1 1/2 P0000
14837KMSN MSN20060316160513803/16/06 16:05:31  5-MIN KMSN 162205Z 06015KT 1SM -SN BR FEW006 BKN010 OVC015 M01/M02 A3010 700 88 -900 060/15 RMK AO2 SFC VIS 1 1/2 P0000
14837KMSN MSN20060316161013803/16/06 16:10:31  5-MIN KMSN 162210Z 05015KT 1SM -SN BR FEW006 BKN010 OVC015 M01/M02 A3010 700 88 -900 050/15 RMK AO2 SFC VIS 1 1/2 P0000
14837KMSN MSN20060316161512703/16/06 16:15:31  5-MIN KMSN 162215Z 06013KT 1SM -SN BR FEW011 OVC015 M01/M02 A3010 690 88 -900 060/13 RMK AO2 SFC VIS 2 P0000
14837KMSN MSN20060316162012103/16/06 16:20:31  5-MIN KMSN 162220Z 06013KT 1SM -SN BR OVC015 M01/M02 A3011 690 88 -1000 060/13 RMK AO2 SFC VIS 2 P0000
14837KMSN MSN20060316162511103/16/06 16:25:31  5-MIN KMSN 162225Z 05011KT 2SM -SN BR OVC015 M01/M02 A3011 690 88 -1000 050/11 RMK AO2 P0000
14837KMSN MSN20060316163013203/16/06 16:30:31  5-MIN KMSN 162230Z 05012KT 1 1/2SM -SN BR SCT011 OVC015 M01/M02 A3011 690 88 -1000 050/12 RMK AO2 TWR VIS 2 P0000
14837KMSN MSN20060316163512803/16/06 16:35:31  5-MIN KMSN 162235Z 06009KT 1SM -SN BR FEW009 OVC015 M01/M02 A3011 690 92 -1000 060/09 RMK AO2 TWR VIS 2 P0000
14837KMSN MSN20060316164013203/16/06 16:40:31  5-MIN KMSN 162240Z 05010KT 1 1/2SM -SN BR FEW009 OVC015 M01/M02 A3012 680 92 -1000 050/10 RMK AO2 TWR VIS 2 P0000
14837KMSN MSN20060316164513003/16/06 16:45:31  5-MIN KMSN 162245Z 06013KT 1 1/2SM -SN BR FEW009 OVC015 00/M02 A3012 680 85 -900 050/13 RMK AO2 TWR VIS 2 P0000
14837KMSN MSN20060316165014303/16/06 16:50:31  5-MIN KMSN 162250Z 05014G19KT 1 1/2SM -SN BR SCT010 BKN013 OVC019 00/M02 A3012 680 85 -900 050/14G19 RMK AO2 TWR VIS 2 P0001
14837KMSN MSN20060316165514503/16/06 16:55:31  5-MIN KMSN 162255Z 05017G22KT 1 1/2SM -SN BR FEW008 BKN013 OVC019 M01/M02 A3012 680 88 -1000 050/17G22 RMK AO2 TWR VIS 2 P0000
14837KMSN MSN20060316170015003/16/06 17:00:31  5-MIN KMSN 162300Z 06017G25KT 1 1/2SM -SN BLSN BR FEW008 BKN013 OVC019 M01/M03 A3013 670 85 -1000 060/17G25 RMK AO2 TWR VIS 2 P0000
14837KMSN MSN20060316170514003/16/06 17:05:31  5-MIN KMSN 162305Z 06013G25KT 1 1/2SM -SN BLSN BR FEW010 BKN015 OVC021 M01/M03 A3013 670 85 -1000 060/13G25 RMK AO2 P0000
14837KMSN MSN20060316171013403/16/06 17:10:31  5-MIN KMSN 162310Z 06012KT 1 1/2SM -SN BLSN BR FEW009 BKN014 OVC021 M01/M03 A3013 670 85 -1000 060/12 RMK AO2 P0000
14837KMSN MSN20060316171513403/16/06 17:15:31  5-MIN KMSN 162315Z 06011KT 1 1/2SM -SN BLSN BR FEW009 BKN014 OVC021 M01/M03 A3014 670 85 -1000 060/11 RMK AO2 P0000
14837KMSN MSN20060316172013403/16/06 17:20:31  5-MIN KMSN 162320Z 06010KT 1 1/2SM -SN BLSN BR FEW009 BKN014 OVC021 M01/M03 A3014 660 85 -1000 060/10 RMK AO2 P0000
14837KMSN MSN20060316172513403/16/06 17:25:31  5-MIN KMSN 162325Z 05009KT 1 1/2SM -SN BLSN BR FEW009 BKN014 OVC021 M01/M02 A3014 660 88 -1000 050/09 RMK AO2 P0000
14837KMSN MSN20060316173013403/16/06 17:30:31  5-MIN KMSN 162330Z 04009KT 1 1/2SM -SN BLSN BR FEW009 BKN014 OVC021 M01/M02 A3015 660 88 -1000 040/09 RMK AO2 P0000
14837KMSN MSN20060316173513403/16/06 17:35:31  5-MIN KMSN 162335Z 03009KT 1 1/2SM -SN BLSN BR FEW009 BKN014 OVC021 M01/M02 A3015 650 88 -1000 030/09 RMK AO2 P0000
14837KMSN MSN20060316174013403/16/06 17:40:31  5-MIN KMSN 162340Z 04010KT 1 1/2SM -SN BLSN BR FEW009 BKN014 OVC021 M01/M02 A3015 650 88 -1000 040/10 RMK AO2 P0000
14837KMSN MSN20060316174513403/16/06 17:45:31  5-MIN KMSN 162345Z 04011KT 1 1/2SM -SN BLSN BR FEW009 BKN014 OVC021 M01/M03 A3015 650 85 -1000 040/11 RMK AO2 P0000
14837KMSN MSN20060316175019503/16/06 17:50:31  5-MIN KMSN 162350Z 05012KT 1 1/2SM -SN BLSN BR FEW009 BKN014 OVC021 M01/M03 A3016 650 88 -1100 050/12 RMK AO2 SFC VIS 1 3/4 SLP222 P0001 60009 4/002 T10111028 10000 21011 53003
14837KMSN MSN20060316175514403/16/06 17:55:31  5-MIN KMSN 162355Z 05010KT 1 1/4SM -SN BLSN BR FEW012 BKN021 OVC039 M01/M03 A3016 640 88 -1100 050/10 RMK AO2 TWR VIS 2 P0000
14837KMSN MSN20060316180014403/16/06 18:00:31  5-MIN KMSN 170000Z 05008KT 1 1/4SM -SN BLSN BR SCT014 BKN021 OVC039 M01/M03 A3016 640 88 -1100 040/08 RMK AO2 TWR VIS 2 P0000
14837KMSN MSN20060316180514403/16/06 18:05:31  5-MIN KMSN 170005Z 02008KT 1 1/4SM -SN BLSN BR FEW008 BKN019 OVC039 M01/M02 A3016 640 92 -1100 020/08 RMK AO2 TWR VIS 2 P0000
14837KMSN MSN20060316181013903/16/06 18:10:31  5-MIN KMSN 170010Z 03009KT 1 3/4SM -SN BR SCT011 BKN019 OVC039 M01/M02 A3016 640 92 -1100 030/09 RMK AO2 TWR VIS 2 P0000
14837KMSN MSN20060316181512903/16/06 18:15:31  5-MIN KMSN 170015Z 03008KT 2 1/2SM -SN BR FEW011 BKN019 OVC070 M01/M02 A3017 640 92 -1100 030/08 RMK AO2 P0000
14837KMSN MSN20060316182012903/16/06 18:20:31  5-MIN KMSN 170020Z 04008KT 2 1/2SM -SN BR FEW011 BKN041 OVC070 M01/M03 A3017 640 88 -1100 040/08 RMK AO2 P0000
14837KMSN MSN20060316182512703/16/06 18:25:31  5-MIN KMSN 170025Z 04008KT 4SM BR FEW011 BKN041 OVC075 M01/M03 A3017 630 88 -1100 040/08 RMK AO2 SNE23 P0000
14837KMSN MSN20060316183012703/16/06 18:30:31  5-MIN KMSN 170030Z 04007KT 6SM -SN BR FEW011 BKN041 OVC075 M01/M03 A3017 630 88 -1100 040/07 RMK AO2 P0000 $
14837KMSN MSN20060316183512703/16/06 18:35:31  5-MIN KMSN 170035Z 04007KT 6SM -SN BR FEW021 BKN041 OVC070 M01/M03 A3018 630 88 -1100 040/07 RMK AO2 P0000 $
14837KMSN MSN20060316184012003/16/06 18:40:31  5-MIN KMSN 170040Z 02006KT 7SM -SN BR BKN041 OVC075 M01/M03 A3018 630 88 -1100 020/06 RMK AO2 P0000 $
14837KMSN MSN20060316184511303/16/06 18:45:31  5-MIN KMSN 170045Z 02007KT 9SM -SN BR OVC041 M01/M03 A3018 620 85 -1000 010/07 RMK AO2 P0000 $
14837KMSN MSN20060316185012903/16/06 18:50:31  5-MIN KMSN 170050Z 01007KT 9SM OVC039 M01/M03 A3018 620 85 -1000 010/07 RMK AO2 SNE50 SLP231 P0000 T10061028 $
14837KMSN MSN20060316185510003/16/06 18:55:31  5-MIN KMSN 170055Z 36005KT 9SM OVC039 M01/M03 A3019 620 88 -1100 360/05 RMK AO2 $
14837KMSN MSN20060316190010803/16/06 19:00:31  5-MIN KMSN 170100Z 36005KT 10SM FEW026 OVC039 M01/M03 A3019 620 88 -1100 360/05 RMK AO2 $
14837KMSN MSN20060316190510803/16/06 19:05:31  5-MIN KMSN 170105Z 35005KT 10SM FEW026 OVC039 M01/M03 A3019 620 88 -1100 350/05 RMK AO2 $
14837KMSN MSN20060316191010803/16/06 19:10:31  5-MIN KMSN 170110Z 35005KT 10SM FEW026 OVC039 M01/M03 A3019 610 88 -1100 350/05 RMK AO2 $
14837KMSN MSN20060316191510803/16/06 19:15:31  5-MIN KMSN 170115Z 35005KT 10SM FEW026 OVC039 M01/M03 A3020 610 88 -1100 350/05 RMK AO2 $
14837KMSN MSN20060316192010803/16/06 19:20:31  5-MIN KMSN 170120Z 36008KT 10SM FEW026 OVC039 M01/M03 A3020 610 81 -1100 360/08 RMK AO2 $
14837KMSN MSN20060316192510103/16/06 19:25:31  5-MIN KMSN 170125Z 01010KT 10SM OVC041 M01/M04 A3020 610 78 -1100 010/10 RMK AO2 $
14837KMSN MSN20060316193010103/16/06 19:30:31  5-MIN KMSN 170130Z 02010KT 10SM OVC041 M01/M04 A3020 610 78 -1100 020/10 RMK AO2 $
14837KMSN MSN20060316193510103/16/06 19:35:31  5-MIN KMSN 170135Z 02010KT 10SM OVC041 M01/M04 A3020 610 75 -1100 020/10 RMK AO2 $
14837KMSN MSN20060316194010103/16/06 19:40:31  5-MIN KMSN 170140Z 02010KT 10SM OVC043 M01/M04 A3020 600 75 -1100 020/10 RMK AO2 $
14837KMSN MSN20060316194510103/16/06 19:45:31  5-MIN KMSN 170145Z 03009KT 10SM OVC043 M01/M05 A3021 600 72 -1100 030/09 RMK AO2 $
14837KMSN MSN20060316195011803/16/06 19:50:31  5-MIN KMSN 170150Z 02011KT 10SM OVC043 M01/M05 A3021 600 72 -1100 020/11 RMK AO2 SLP240 T10061050 $
14837KMSN MSN20060316195510103/16/06 19:55:31  5-MIN KMSN 170155Z 02009KT 10SM OVC043 M01/M05 A3021 600 72 -1100 020/09 RMK AO2 $
14837KMSN MSN20060316200010103/16/06 20:00:31  5-MIN KMSN 170200Z 02011KT 10SM OVC043 M01/M05 A3021 600 72 -1100 020/11 RMK AO2 $
14837KMSN MSN20060316200510103/16/06 20:05:31  5-MIN KMSN 170205Z 02010KT 10SM OVC045 M01/M05 A3021 600 72 -1100 020/10 RMK AO2 $
14837KMSN MSN20060316201010103/16/06 20:10:31  5-MIN KMSN 170210Z 02011KT 10SM OVC045 M01/M05 A3021 600 72 -1100 020/11 RMK AO2 $
14837KMSN MSN20060316201510103/16/06 20:15:31  5-MIN KMSN 170215Z 02010KT 10SM OVC047 M01/M05 A3021 590 72 -1100 010/10 RMK AO2 $
14837KMSN MSN20060316202010103/16/06 20:20:31  5-MIN KMSN 170220Z 01010KT 10SM OVC047 M01/M05 A3021 590 72 -1100 010/10 RMK AO2 $
14837KMSN MSN20060316202510103/16/06 20:25:31  5-MIN KMSN 170225Z 01010KT 10SM OVC047 M01/M06 A3021 590 69 -1100 010/10 RMK AO2 $
14837KMSN MSN20060316203010103/16/06 20:30:31  5-MIN KMSN 170230Z 02011KT 10SM OVC047 M01/M06 A3022 590 69 -1100 020/11 RMK AO2 $
14837KMSN MSN20060316203510103/16/06 20:35:31  5-MIN KMSN 170235Z 02011KT 10SM OVC047 M01/M06 A3022 590 69 -1100 020/11 RMK AO2 $
14837KMSN MSN20060316204010103/16/06 20:40:31  5-MIN KMSN 170240Z 02011KT 10SM OVC049 M01/M06 A3022 590 69 -1100 020/11 RMK AO2 $
14837KMSN MSN20060316204510103/16/06 20:45:31  5-MIN KMSN 170245Z 02010KT 10SM OVC049 M01/M06 A3022 590 69 -1100 020/10 RMK AO2 $
14837KMSN MSN20060316205013003/16/06 20:50:31  5-MIN KMSN 170250Z 02010KT 10SM OVC049 M01/M06 A3022 590 69 -1100 010/10 RMK AO2 SLP245 60000 T10061056 53021 $
14837KMSN MSN20060316205510103/16/06 20:55:31  5-MIN KMSN 170255Z 01009KT 10SM OVC049 M01/M06 A3022 580 69 -1100 010/09 RMK AO2 $
14837KMSN MSN20060316210010103/16/06 21:00:31  5-MIN KMSN 170300Z 01009KT 10SM OVC050 M01/M06 A3022 580 72 -1200 010/09 RMK AO2 $
14837KMSN MSN20060316210510103/16/06 21:05:31  5-MIN KMSN 170305Z 01008KT 10SM OVC055 M01/M06 A3023 580 72 -1200 010/08 RMK AO2 $
14837KMSN MSN20060316211010103/16/06 21:10:31  5-MIN KMSN 170310Z 01007KT 10SM OVC055 M01/M06 A3023 580 72 -1200 010/07 RMK AO2 $
14837KMSN MSN20060316211510103/16/06 21:15:31  5-MIN KMSN 170315Z 01007KT 10SM OVC055 M01/M06 A3023 580 72 -1200 010/07 RMK AO2 $
14837KMSN MSN20060316212010103/16/06 21:20:31  5-MIN KMSN 170320Z 01008KT 10SM OVC060 M01/M06 A3023 580 72 -1200 010/08 RMK AO2 $
14837KMSN MSN20060316212510103/16/06 21:25:31  5-MIN KMSN 170325Z 36006KT 10SM OVC060 M01/M06 A3024 570 72 -1200 360/06 RMK AO2 $
14837KMSN MSN20060316213010103/16/06 21:30:31  5-MIN KMSN 170330Z 36007KT 10SM OVC060 M01/M06 A3024 570 72 -1200 360/07 RMK AO2 $
14837KMSN MSN20060316213510103/16/06 21:35:31  5-MIN KMSN 170335Z 36007KT 10SM OVC060 M02/M05 A3024 570 78 -1200 360/07 RMK AO2 $
14837KMSN MSN20060316214010103/16/06 21:40:31  5-MIN KMSN 170340Z 36008KT 10SM OVC060 M02/M05 A3024 570 78 -1200 360/08 RMK AO2 $
14837KMSN MSN20060316214510103/16/06 21:45:31  5-MIN KMSN 170345Z 36008KT 10SM OVC060 M02/M05 A3024 570 78 -1200 360/08 RMK AO2 $
14837KMSN MSN20060316215011803/16/06 21:50:31  5-MIN KMSN 170350Z 01008KT 10SM OVC060 M02/M05 A3024 570 78 -1200 010/08 RMK AO2 SLP252 T10171050 $
14837KMSN MSN20060316215510103/16/06 21:55:31  5-MIN KMSN 170355Z 01008KT 10SM OVC060 M02/M06 A3024 570 75 -1200 010/08 RMK AO2 $
14837KMSN MSN20060316220010103/16/06 22:00:31  5-MIN KMSN 170400Z 01008KT 10SM OVC060 M02/M06 A3024 570 75 -1200 360/08 RMK AO2 $
14837KMSN MSN20060316220510103/16/06 22:05:31  5-MIN KMSN 170405Z 01008KT 10SM OVC065 M02/M06 A3025 560 75 -1300 010/08 RMK AO2 $
14837KMSN MSN20060316221010103/16/06 22:10:31  5-MIN KMSN 170410Z 01008KT 10SM OVC065 M02/M06 A3025 560 75 -1300 010/08 RMK AO2 $
14837KMSN MSN20060316221510103/16/06 22:15:31  5-MIN KMSN 170415Z 01009KT 10SM OVC065 M02/M06 A3025 560 75 -1300 010/09 RMK AO2 $
14837KMSN MSN20060316222010103/16/06 22:20:31  5-MIN KMSN 170420Z 01007KT 10SM OVC065 M02/M06 A3025 560 75 -1300 010/07 RMK AO2 $
14837KMSN MSN20060316222509903/16/06 22:25:31  5-MIN KMSN 170425Z 02010KT 10SM OVC065 M02/M06 A3025 560 75 -1300 010/10 RMK AO2
14837KMSN MSN20060316223009903/16/06 22:30:31  5-MIN KMSN 170430Z 02009KT 10SM OVC070 M01/M06 A3026 560 72 -1200 020/09 RMK AO2
14837KMSN MSN20060316223509903/16/06 22:35:31  5-MIN KMSN 170435Z 02009KT 10SM OVC070 M01/M06 A3026 550 72 -1200 010/09 RMK AO2
14837KMSN MSN20060316224009903/16/06 22:40:31  5-MIN KMSN 170440Z 02010KT 10SM OVC070 M01/M06 A3026 550 72 -1200 010/10 RMK AO2
14837KMSN MSN20060316224509903/16/06 22:45:31  5-MIN KMSN 170445Z 02010KT 10SM OVC070 M01/M06 A3026 550 69 -1200 010/10 RMK AO2
14837KMSN MSN20060316225011603/16/06 22:50:31  5-MIN KMSN 170450Z 02009KT 10SM OVC070 M01/M06 A3026 550 69 -1200 020/09 RMK AO2 SLP259 T10111061
14837KMSN MSN20060316225509903/16/06 22:55:31  5-MIN KMSN 170455Z 01010KT 10SM OVC070 M01/M06 A3027 540 69 -1200 010/10 RMK AO2
14837KMSN MSN20060316230009903/16/06 23:00:31  5-MIN KMSN 170500Z 01010KT 10SM OVC070 M01/M06 A3027 540 69 -1200 010/10 RMK AO2
14837KMSN MSN20060316230509903/16/06 23:05:31  5-MIN KMSN 170505Z 01010KT 10SM OVC070 M01/M06 A3027 540 69 -1200 010/10 RMK AO2
14837KMSN MSN20060316231009903/16/06 23:10:31  5-MIN KMSN 170510Z 02011KT 10SM OVC070 M01/M06 A3027 540 69 -1200 020/11 RMK AO2
14837KMSN MSN20060316231509903/16/06 23:15:31  5-MIN KMSN 170515Z 02010KT 10SM OVC070 M01/M06 A3028 540 69 -1200 020/10 RMK AO2
14837KMSN MSN20060316232009903/16/06 23:20:31  5-MIN KMSN 170520Z 01010KT 10SM OVC070 M01/M06 A3028 540 69 -1200 010/10 RMK AO2
14837KMSN MSN20060316232509903/16/06 23:25:31  5-MIN KMSN 170525Z 01010KT 10SM OVC070 M01/M06 A3028 530 69 -1200 010/10 RMK AO2
14837KMSN MSN20060316233009903/16/06 23:30:31  5-MIN KMSN 170530Z 01007KT 10SM OVC070 M01/M06 A3028 530 69 -1200 010/07 RMK AO2
14837KMSN MSN20060316233510503/16/06 23:35:31  5-MIN KMSN 170535Z 36008KT 10SM OVC070 M01/M06 A3029 530 69 -1200 360/08 RMK AO2 4/002
14837KMSN MSN20060316234010503/16/06 23:40:31  5-MIN KMSN 170540Z 01009KT 10SM OVC070 M01/M06 A3029 530 69 -1200 010/09 RMK AO2 4/002
14837KMSN MSN20060316234510503/16/06 23:45:31  5-MIN KMSN 170545Z 01008KT 10SM OVC070 M01/M06 A3029 530 69 -1200 010/08 RMK AO2 4/002
14837KMSN MSN20060316235015603/16/06 23:50:31  5-MIN KMSN 170550Z 01009KT 10SM OVC070 M02/M06 A3029 520 72 -1300 010/09 RMK AO2 SLP268 4/002 60000 T10171061 11006 21017 400061017 51022
14837KMSN MSN20060316235509903/16/06 23:55:31  5-MIN KMSN 170555Z 01009KT 10SM OVC070 M01/M06 A3029 520 69 -1200 010/09 RMK AO2
14837KMSN MSN20060317000009903/17/06 00:00:38  5-MIN KMSN 170600Z 01009KT 10SM OVC070 M02/M06 A3029 520 72 -1300 010/09 RMK AO2
14837KMSN MSN20060317000509903/17/06 00:05:31  5-MIN KMSN 170605Z 01009KT 10SM OVC070 M02/M06 A3029 520 72 -1300 010/09 RMK AO2
14837KMSN MSN20060317001009903/17/06 00:10:31  5-MIN KMSN 170610Z 01009KT 10SM OVC070 M02/M06 A3029 520 72 -1300 010/09 RMK AO2
14837KMSN MSN20060317001509903/17/06 00:15:33  5-MIN KMSN 170615Z 01009KT 10SM OVC070 M02/M06 A3029 520 72 -1300 010/09 RMK AO2
14837KMSN MSN20060317002009903/17/06 00:20:31  5-MIN KMSN 170620Z 01008KT 10SM OVC070 M02/M07 A3029 520 69 -1300 010/08 RMK AO2
14837KMSN MSN20060317002509903/17/06 00:25:31  5-MIN KMSN 170625Z 36008KT 10SM OVC070 M02/M07 A3030 520 69 -1300 360/08 RMK AO2
14837KMSN MSN20060317003009903/17/06 00:30:31  5-MIN KMSN 170630Z 36007KT 10SM OVC070 M02/M07 A3030 510 72 -1400 360/07 RMK AO2
14837KMSN MSN20060317003510603/17/06 00:35:31  5-MIN KMSN 170635Z 36007KT 10SM BKN070 OVC080 M02/M07 A3031 510 72 -1400 360/07 RMK AO2
14837KMSN MSN20060317004010603/17/06 00:40:31  5-MIN KMSN 170640Z 36008KT 10SM BKN070 OVC080 M02/M07 A3031 510 72 -1400 360/08 RMK AO2
14837KMSN MSN20060317004510603/17/06 00:45:31  5-MIN KMSN 170645Z 36009KT 10SM SCT070 OVC080 M02/M07 A3031 500 72 -1400 360/09 RMK AO2
14837KMSN MSN20060317005012303/17/06 00:50:31  5-MIN KMSN 170650Z 36010KT 10SM SCT070 BKN080 M02/M07 A3032 500 72 -1400 360/10 RMK AO2 SLP277 T10221067
14837KMSN MSN20060317005510603/17/06 00:55:31  5-MIN KMSN 170655Z 01010KT 10SM FEW070 OVC085 M02/M07 A3032 500 72 -1400 010/10 RMK AO2
14837KMSN MSN20060317010010603/17/06 01:00:31  5-MIN KMSN 170700Z 01009KT 10SM SCT070 OVC085 M02/M07 A3032 500 72 -1400 010/09 RMK AO2
14837KMSN MSN20060317010510603/17/06 01:05:31  5-MIN KMSN 170705Z 01010KT 10SM SCT070 OVC085 M02/M07 A3032 500 72 -1400 010/10 RMK AO2
14837KMSN MSN20060317011010603/17/06 01:10:31  5-MIN KMSN 170710Z 01008KT 10SM BKN065 OVC085 M02/M07 A3032 490 72 -1400 010/08 RMK AO2
14837KMSN MSN20060317011510603/17/06 01:15:31  5-MIN KMSN 170715Z 01008KT 10SM BKN065 OVC085 M02/M07 A3033 490 72 -1400 010/08 RMK AO2
14837KMSN MSN20060317012010603/17/06 01:20:31  5-MIN KMSN 170720Z 01007KT 10SM BKN065 OVC085 M02/M07 A3033 490 72 -1400 010/07 RMK AO2
14837KMSN MSN20060317012510603/17/06 01:25:31  5-MIN KMSN 170725Z 01007KT 10SM BKN065 OVC090 M03/M07 A3033 490 75 -1500 010/07 RMK AO2
14837KMSN MSN20060317013010603/17/06 01:30:31  5-MIN KMSN 170730Z 01007KT 10SM SCT065 OVC090 M03/M07 A3033 490 75 -1500 010/07 RMK AO2
14837KMSN MSN20060317013510603/17/06 01:35:31  5-MIN KMSN 170735Z 36007KT 10SM FEW065 OVC090 M03/M07 A3033 480 75 -1500 360/07 RMK AO2
14837KMSN MSN20060317014010603/17/06 01:40:31  5-MIN KMSN 170740Z 36006KT 10SM FEW065 OVC090 M03/M07 A3033 490 75 -1500 360/06 RMK AO2
14837KMSN MSN20060317014509903/17/06 01:45:31  5-MIN KMSN 170745Z 36007KT 10SM OVC090 M03/M07 A3034 480 71 -1500 360/07 RMK AO2
14837KMSN MSN20060317015011603/17/06 01:50:31  5-MIN KMSN 170750Z 36008KT 10SM BKN090 M03/M07 A3034 480 71 -1500 360/08 RMK AO2 SLP284 T10281072
14837KMSN MSN20060317015509903/17/06 01:55:31  5-MIN KMSN 170755Z 01009KT 10SM OVC090 M03/M08 A3034 480 68 -1500 010/09 RMK AO2
14837KMSN MSN20060317020010603/17/06 02:00:31  5-MIN KMSN 170800Z 01010KT 10SM FEW075 OVC090 M03/M08 A3034 480 71 -1600 010/10 RMK AO2
14837KMSN MSN20060317020510603/17/06 02:05:31  5-MIN KMSN 170805Z 02010KT 10SM FEW080 OVC090 M03/M08 A3034 480 68 -1600 020/10 RMK AO2
14837KMSN MSN20060317021009903/17/06 02:10:31  5-MIN KMSN 170810Z 03011KT 10SM OVC090 M03/M09 A3034 480 63 -1600 020/11 RMK AO2
14837KMSN MSN20060317021509903/17/06 02:15:31  5-MIN KMSN 170815Z 02010KT 10SM OVC090 M03/M10 A3034 470 60 -1600 020/10 RMK AO2
14837KMSN MSN20060317022009903/17/06 02:20:31  5-MIN KMSN 170820Z 03010KT 10SM OVC090 M04/M10 A3034 470 63 -1600 020/10 RMK AO2
14837KMSN MSN20060317022509903/17/06 02:25:31  5-MIN KMSN 170825Z 03009KT 10SM OVC090 M04/M10 A3034 480 63 -1600 030/09 RMK AO2
14837KMSN MSN20060317023009903/17/06 02:30:31  5-MIN KMSN 170830Z 03007KT 10SM OVC090 M04/M10 A3034 470 65 -1700 030/07 RMK AO2
14837KMSN MSN20060317023509903/17/06 02:35:31  5-MIN KMSN 170835Z 03007KT 10SM OVC090 M04/M10 A3035 470 65 -1700 030/07 RMK AO2
14837KMSN MSN20060317024009903/17/06 02:40:31  5-MIN KMSN 170840Z 02005KT 10SM OVC090 M05/M10 A3034 470 68 -1800 020/05 RMK AO2
14837KMSN MSN20060317024510603/17/06 02:45:31  5-MIN KMSN 170845Z 02005KT 10SM BKN090 OVC110 M05/M09 A3034 480 71 -1800 020/05 RMK AO2
14837KMSN MSN20060317025012903/17/06 02:50:31  5-MIN KMSN 170850Z 01003KT 10SM BKN090 BKN110 M05/M09 A3034 470 71 -1800 010/03 RMK AO2 SLP288 T10501094 53022
14837KMSN MSN20060317025510603/17/06 02:55:31  5-MIN KMSN 170855Z 36005KT 10SM BKN095 BKN120 M05/M09 A3035 470 71 -1800 360/05 RMK AO2
14837KMSN MSN20060317030009903/17/06 03:00:31  5-MIN KMSN 170900Z 01006KT 10SM BKN100 M06/M09 A3035 470 74 -1900 360/06 RMK AO2
14837KMSN MSN20060317030509903/17/06 03:05:31  5-MIN KMSN 170905Z 01006KT 10SM OVC110 M06/M09 A3035 470 74 -1900 010/06 RMK AO2
14837KMSN MSN20060317031009903/17/06 03:10:31  5-MIN KMSN 170910Z 01005KT 10SM OVC110 M06/M10 A3035 470 74 -1900 010/05 RMK AO2
14837KMSN MSN20060317031509903/17/06 03:15:31  5-MIN KMSN 170915Z 01005KT 10SM OVC110 M06/M09 A3035 470 74 -1900 010/05 RMK AO2
14837KMSN MSN20060317032009903/17/06 03:20:31  5-MIN KMSN 170920Z 36005KT 10SM OVC110 M06/M09 A3035 470 74 -1900 360/05 RMK AO2
14837KMSN MSN20060317032509903/17/06 03:25:31  5-MIN KMSN 170925Z 36004KT 10SM OVC110 M06/M09 A3035 470 74 -1900 360/04 RMK AO2
14837KMSN MSN20060317033009903/17/06 03:30:31  5-MIN KMSN 170930Z 36005KT 10SM OVC100 M06/M09 A3035 470 74 -1900 360/05 RMK AO2
14837KMSN MSN20060317033509903/17/06 03:35:31  5-MIN KMSN 170935Z 36006KT 10SM OVC100 M06/M09 A3035 470 74 -1900 360/06 RMK AO2
14837KMSN MSN20060317034010603/17/06 03:40:31  5-MIN KMSN 170940Z 35005KT 10SM BKN090 OVC100 M06/M09 A3035 470 74 -1900 350/05 RMK AO2
14837KMSN MSN20060317034510603/17/06 03:45:31  5-MIN KMSN 170945Z 35005KT 10SM BKN090 OVC100 M06/M09 A3035 470 74 -1900 350/05 RMK AO2
14837KMSN MSN20060317035012303/17/06 03:50:31  5-MIN KMSN 170950Z 36005KT 10SM SCT085 SCT100 M06/M09 A3035 470 74 -1900 360/05 RMK AO2 SLP290 T10561094
14837KMSN MSN20060317035509903/17/06 03:55:31  5-MIN KMSN 170955Z 36005KT 10SM BKN090 M06/M10 A3035 470 71 -1900 360/05 RMK AO2
14837KMSN MSN20060317040010603/17/06 04:00:31  5-MIN KMSN 171000Z 35004KT 10SM BKN090 BKN120 M06/M09 A3036 460 74 -1900 350/04 RMK AO2
14837KMSN MSN20060317040510603/17/06 04:05:31  5-MIN KMSN 171005Z 01005KT 10SM SCT085 BKN120 M06/M10 A3036 460 71 -1900 010/05 RMK AO2
14837KMSN MSN20060317041010603/17/06 04:10:31  5-MIN KMSN 171010Z 01006KT 10SM SCT090 BKN120 M06/M10 A3036 460 74 -2000 010/06 RMK AO2
14837KMSN MSN20060317041510603/17/06 04:15:31  5-MIN KMSN 171015Z 02007KT 10SM BKN100 BKN120 M07/M11 A3036 460 74 -2000 020/07 RMK AO2
14837KMSN MSN20060317042010603/17/06 04:20:31  5-MIN KMSN 171020Z 02006KT 10SM BKN100 BKN120 M07/M11 A3036 460 74 -2000 020/06 RMK AO2
14837KMSN MSN20060317042510603/17/06 04:25:31  5-MIN KMSN 171025Z 02006KT 10SM BKN095 OVC120 M07/M11 A3036 460 74 -2000 020/06 RMK AO2
14837KMSN MSN20060317043010603/17/06 04:30:31  5-MIN KMSN 171030Z 02006KT 10SM BKN095 OVC120 M07/M11 A3036 460 74 -2000 020/06 RMK AO2
14837KMSN MSN20060317043509903/17/06 04:35:31  5-MIN KMSN 171035Z 01006KT 10SM OVC095 M06/M11 A3037 450 71 -2000 010/06 RMK AO2
14837KMSN MSN20060317044009903/17/06 04:40:31  5-MIN KMSN 171040Z 01007KT 10SM OVC095 M06/M11 A3037 450 71 -2000 010/07 RMK AO2
14837KMSN MSN20060317044509903/17/06 04:45:31  5-MIN KMSN 171045Z 36008KT 10SM BKN090 M07/M11 A3037 450 74 -2000 360/08 RMK AO2
14837KMSN MSN20060317045011603/17/06 04:50:31  5-MIN KMSN 171050Z 02009KT 10SM FEW090 M07/M11 A3038 450 74 -2000 020/09 RMK AO2 SLP299 T10671106
14837KMSN MSN20060317045509903/17/06 04:55:31  5-MIN KMSN 171055Z 03009KT 10SM SCT090 M06/M10 A3038 440 74 -2000 030/09 RMK AO2
14837KMSN MSN20060317050009903/17/06 05:00:31  5-MIN KMSN 171100Z 03009KT 10SM FEW090 M06/M10 A3038 440 74 -2000 030/09 RMK AO2
14837KMSN MSN20060317050509903/17/06 05:05:31  5-MIN KMSN 171105Z 02008KT 10SM FEW090 M06/M10 A3039 440 74 -2000 020/08 RMK AO2
14837KMSN MSN20060317051009603/17/06 05:10:31  5-MIN KMSN 171110Z 02006KT 10SM CLR M07/M10 A3039 430 77 -2100 020/06 RMK AO2
14837KMSN MSN20060317051509603/17/06 05:15:31  5-MIN KMSN 171115Z 01006KT 10SM CLR M07/M10 A3039 430 77 -2100 010/06 RMK AO2
14837KMSN MSN20060317052009903/17/06 05:20:31  5-MIN KMSN 171120Z 36005KT 10SM SCT090 M07/M10 A3039 430 77 -2100 360/05 RMK AO2
14837KMSN MSN20060317052509903/17/06 05:25:31  5-MIN KMSN 171125Z 36005KT 10SM SCT095 M07/M10 A3039 430 77 -2100 360/05 RMK AO2
14837KMSN MSN20060317053009903/17/06 05:30:31  5-MIN KMSN 171130Z 36005KT 10SM BKN095 M07/M10 A3040 430 77 -2100 360/05 RMK AO2
14837KMSN MSN20060317053509903/17/06 05:35:31  5-MIN KMSN 171135Z 35005KT 10SM BKN095 M07/M10 A3040 420 77 -2100 350/05 RMK AO2
14837KMSN MSN20060317054009903/17/06 05:40:31  5-MIN KMSN 171140Z 35004KT 10SM BKN095 M07/M10 A3040 420 77 -2100 350/04 RMK AO2
14837KMSN MSN20060317054509903/17/06 05:45:31  5-MIN KMSN 171145Z 35003KT 10SM BKN095 M07/M10 A3040 420 77 -2100 350/03 RMK AO2
14837KMSN MSN20060317055014603/17/06 05:50:31  5-MIN KMSN 171150Z 34003KT 10SM SCT100 M07/M10 A3040 420 77 -2100 340/03 RMK AO2 SLP309 70035 4/002 T10671100 11011 21067 51018
14837KMSN MSN20060317055509903/17/06 05:55:31  5-MIN KMSN 171155Z 31003KT 10SM FEW095 M07/M10 A3041 420 81 -2200 310/03 RMK AO2
14837KMSN MSN20060317060009903/17/06 06:00:31  5-MIN KMSN 171200Z 30003KT 10SM FEW100 M08/M11 A3041 410 80 -2200 300/03 RMK AO2
14837KMSN MSN20060317060509603/17/06 06:05:31  5-MIN KMSN 171205Z 31004KT 10SM CLR M08/M11 A3042 410 84 -2300 310/04 RMK AO2
14837KMSN MSN20060317061009603/17/06 06:10:31  5-MIN KMSN 171210Z 32004KT 10SM CLR M08/M10 A3042 400 84 -2200 320/04 RMK AO2
14837KMSN MSN20060317061509603/17/06 06:15:31  5-MIN KMSN 171215Z 32005KT 10SM CLR M08/M10 A3043 400 84 -2200 320/05 RMK AO2
14837KMSN MSN20060317062009603/17/06 06:20:31  5-MIN KMSN 171220Z 31004KT 10SM CLR M08/M10 A3043 400 84 -2200 310/04 RMK AO2
14837KMSN MSN20060317062509603/17/06 06:25:31  5-MIN KMSN 171225Z 31004KT 10SM CLR M07/M10 A3043 400 81 -2200 310/04 RMK AO2
14837KMSN MSN20060317063009603/17/06 06:30:31  5-MIN KMSN 171230Z 30005KT 10SM CLR M07/M10 A3043 400 81 -2200 300/05 RMK AO2
14837KMSN MSN20060317063509603/17/06 06:35:31  5-MIN KMSN 171235Z 32004KT 10SM CLR M07/M11 A3043 390 77 -2200 320/04 RMK AO2
14837KMSN MSN20060317064009603/17/06 06:40:31  5-MIN KMSN 171240Z 32004KT 10SM CLR M07/M10 A3043 390 81 -2200 320/04 RMK AO2
14837KMSN MSN20060317064509603/17/06 06:45:31  5-MIN KMSN 171245Z 31005KT 10SM CLR M07/M10 A3044 390 81 -2200 310/05 RMK AO2
14837KMSN MSN20060317065011603/17/06 06:50:31  5-MIN KMSN 171250Z 33004KT 10SM FEW100 M07/M10 A3044 390 77 -2100 320/04 RMK AO2 SLP320 T10671100
14837KMSN MSN20060317065509603/17/06 06:55:31  5-MIN KMSN 171255Z 32004KT 10SM CLR M07/M10 A3044 390 77 -2100 320/04 RMK AO2
14837KMSN MSN20060317070009603/17/06 07:00:31  5-MIN KMSN 171300Z 33005KT 10SM CLR M07/M10 A3044 380 77 -2100 330/05 RMK AO2
14837KMSN MSN20060317070509603/17/06 07:05:31  5-MIN KMSN 171305Z 33005KT 10SM CLR M07/M10 A3044 380 77 -2100 330/05 RMK AO2
14837KMSN MSN20060317071009603/17/06 07:10:31  5-MIN KMSN 171310Z 34005KT 10SM CLR M06/M11 A3044 390 71 -2000 340/05 RMK AO2
14837KMSN MSN20060317071509603/17/06 07:15:31  5-MIN KMSN 171315Z 35005KT 10SM CLR M06/M11 A3044 390 71 -2000 350/05 RMK AO2
14837KMSN MSN20060317072009603/17/06 07:20:31  5-MIN KMSN 171320Z 35006KT 10SM CLR M07/M11 A3044 390 74 -2100 350/06 RMK AO2
14837KMSN MSN20060317072509603/17/06 07:25:31  5-MIN KMSN 171325Z 35006KT 10SM CLR M06/M11 A3044 390 71 -2000 350/06 RMK AO2
14837KMSN MSN20060317073009603/17/06 07:30:31  5-MIN KMSN 171330Z 35007KT 10SM CLR M06/M11 A3044 380 71 -2000 350/07 RMK AO2
14837KMSN MSN20060317073509603/17/06 07:35:31  5-MIN KMSN 171335Z 35007KT 10SM CLR M06/M11 A3044 380 68 -2000 350/07 RMK AO2
14837KMSN MSN20060317074009603/17/06 07:40:31  5-MIN KMSN 171340Z 35007KT 10SM CLR M06/M11 A3045 380 68 -2000 350/07 RMK AO2
14837KMSN MSN20060317074509603/17/06 07:45:31  5-MIN KMSN 171345Z 34007KT 10SM CLR M06/M10 A3045 380 71 -2000 340/07 RMK AO2
14837KMSN MSN20060317075011303/17/06 07:50:31  5-MIN KMSN 171350Z 34009KT 10SM CLR M06/M10 A3045 380 71 -2000 340/09 RMK AO2 SLP323 T10561100
14837KMSN MSN20060317075509603/17/06 07:55:31  5-MIN KMSN 171355Z 34008KT 10SM CLR M05/M10 A3045 380 68 -1900 340/08 RMK AO2
14837KMSN MSN20060317080009603/17/06 08:00:31  5-MIN KMSN 171400Z 35007KT 10SM CLR M05/M10 A3045 380 68 -1900 350/07 RMK AO2
14837KMSN MSN20060317080509603/17/06 08:05:31  5-MIN KMSN 171405Z 35007KT 10SM CLR M05/M10 A3045 380 68 -1900 350/07 RMK AO2
14837KMSN MSN20060317081009603/17/06 08:10:31  5-MIN KMSN 171410Z 36007KT 10SM CLR M04/M10 A3045 380 65 -1800 360/07 RMK AO2
14837KMSN MSN20060317081509603/17/06 08:15:31  5-MIN KMSN 171415Z 35008KT 10SM CLR M04/M09 A3045 380 68 -1800 350/08 RMK AO2
14837KMSN MSN20060317082009603/17/06 08:20:31  5-MIN KMSN 171420Z 01010KT 10SM CLR M04/M09 A3045 380 65 -1800 360/10 RMK AO2
14837KMSN MSN20060317082509603/17/06 08:25:31  5-MIN KMSN 171425Z 01010KT 10SM CLR M04/M09 A3045 380 65 -1800 010/10 RMK AO2
14837KMSN MSN20060317083009603/17/06 08:30:31  5-MIN KMSN 171430Z 34007KT 10SM CLR M04/M09 A3045 380 65 -1800 340/07 RMK AO2
14837KMSN MSN20060317083509603/17/06 08:35:31  5-MIN KMSN 171435Z 34009KT 10SM CLR M04/M09 A3045 380 65 -1800 340/09 RMK AO2
14837KMSN MSN20060317084009603/17/06 08:40:31  5-MIN KMSN 171440Z 35007KT 10SM CLR M03/M09 A3045 370 63 -1700 350/07 RMK AO2
14837KMSN MSN20060317084509603/17/06 08:45:31  5-MIN KMSN 171445Z 35008KT 10SM CLR M03/M09 A3045 370 63 -1700 350/08 RMK AO2
14837KMSN MSN20060317085011903/17/06 08:50:31  5-MIN KMSN 171450Z 36010KT 10SM CLR M03/M09 A3046 370 63 -1700 360/10 RMK AO2 SLP325 T10331094 53020
14837KMSN MSN20060317085509603/17/06 08:55:31  5-MIN KMSN 171455Z 34009KT 10SM CLR M03/M09 A3046 370 65 -1700 340/09 RMK AO2
14837KMSN MSN20060317090009603/17/06 09:00:31  5-MIN KMSN 171500Z 36010KT 10SM CLR M03/M09 A3046 370 63 -1600 360/10 RMK AO2
14837KMSN MSN20060317090510203/17/06 09:05:31  5-MIN KMSN 171505Z 36007G15KT 10SM CLR M03/M09 A3046 370 63 -1600 360/07G15 RMK AO2
14837KMSN MSN20060317091010203/17/06 09:10:31  5-MIN KMSN 171510Z 36008G15KT 10SM CLR M03/M09 A3046 370 63 -1600 360/08G15 RMK AO2
14837KMSN MSN20060317091509603/17/06 09:15:31  5-MIN KMSN 171515Z 01010KT 10SM CLR M03/M09 A3046 370 63 -1600 010/10 RMK AO2
14837KMSN MSN20060317092009603/17/06 09:20:31  5-MIN KMSN 171520Z 36008KT 10SM CLR M03/M09 A3046 370 63 -1600 360/08 RMK AO2
14837KMSN MSN20060317092509603/17/06 09:25:31  5-MIN KMSN 171525Z 01011KT 10SM CLR M03/M09 A3046 370 63 -1600 010/11 RMK AO2
14837KMSN MSN20060317093009603/17/06 09:30:31  5-MIN KMSN 171530Z 01010KT 10SM CLR M02/M09 A3046 370 60 -1600 360/10 RMK AO2
14837KMSN MSN20060317093509603/17/06 09:35:31  5-MIN KMSN 171535Z 01010KT 10SM CLR M02/M09 A3046 370 60 -1600 010/10 RMK AO2
14837KMSN MSN20060317094009603/17/06 09:40:31  5-MIN KMSN 171540Z 01011KT 10SM CLR M02/M08 A3046 370 63 -1600 010/11 RMK AO2
14837KMSN MSN20060317094509603/17/06 09:45:31  5-MIN KMSN 171545Z 02011KT 10SM CLR M02/M08 A3046 370 63 -1600 020/11 RMK AO2
14837KMSN MSN20060317095011303/17/06 09:50:31  5-MIN KMSN 171550Z 02012KT 10SM CLR M02/M08 A3046 370 63 -1600 020/12 RMK AO2 SLP326 T10221083
14837KMSN MSN20060317095509603/17/06 09:55:31  5-MIN KMSN 171555Z 02011KT 10SM CLR M02/M08 A3046 370 63 -1600 020/11 RMK AO2
14837KMSN MSN20060317100009603/17/06 10:00:31  5-MIN KMSN 171600Z 01011KT 10SM CLR M02/M08 A3046 370 63 -1600 010/11 RMK AO2
14837KMSN MSN20060317100509603/17/06 10:05:31  5-MIN KMSN 171605Z 02011KT 10SM CLR M02/M08 A3046 370 60 -1500 020/11 RMK AO2
14837KMSN MSN20060317101009603/17/06 10:10:31  5-MIN KMSN 171610Z 02009KT 10SM CLR M02/M08 A3046 370 60 -1500 020/09 RMK AO2
14837KMSN MSN20060317101509603/17/06 10:15:31  5-MIN KMSN 171615Z 36009KT 10SM CLR M02/M08 A3047 360 63 -1500 360/09 RMK AO2
14837KMSN MSN20060317102009603/17/06 10:20:31  5-MIN KMSN 171620Z 01010KT 10SM CLR M02/M08 A3047 360 63 -1500 010/10 RMK AO2
14837KMSN MSN20060317102509603/17/06 10:25:31  5-MIN KMSN 171625Z 02010KT 10SM CLR M01/M08 A3047 360 58 -1400 020/10 RMK AO2
14837KMSN MSN20060317103009603/17/06 10:30:31  5-MIN KMSN 171630Z 01009KT 10SM CLR M02/M08 A3047 360 60 -1500 360/09 RMK AO2
14837KMSN MSN20060317103509603/17/06 10:35:31  5-MIN KMSN 171635Z 36008KT 10SM CLR M01/M08 A3047 360 60 -1400 360/08 RMK AO2
14837KMSN MSN20060317104009603/17/06 10:40:31  5-MIN KMSN 171640Z 02011KT 10SM CLR M01/M08 A3046 370 60 -1400 020/11 RMK AO2
14837KMSN MSN20060317104509603/17/06 10:45:31  5-MIN KMSN 171645Z 03008KT 10SM CLR M01/M08 A3046 370 58 -1400 030/08 RMK AO2
14837KMSN MSN20060317105011303/17/06 10:50:31  5-MIN KMSN 171650Z 03011KT 10SM CLR M01/M08 A3046 370 60 -1400 030/11 RMK AO2 SLP326 T10111078
14837KMSN MSN20060317105509603/17/06 10:55:31  5-MIN KMSN 171655Z 03010KT 10SM CLR M01/M08 A3046 370 58 -1400 030/10 RMK AO2
14837KMSN MSN20060317110009603/17/06 11:00:31  5-MIN KMSN 171700Z 03011KT 10SM CLR M01/M08 A3046 370 60 -1400 030/11 RMK AO2
14837KMSN MSN20060317110509603/17/06 11:05:31  5-MIN KMSN 171705Z 03009KT 10SM CLR M01/M08 A3046 370 60 -1400 030/09 RMK AO2
14837KMSN MSN20060317111009603/17/06 11:10:31  5-MIN KMSN 171710Z 02009KT 10SM CLR M01/M08 A3046 370 60 -1400 020/09 RMK AO2
14837KMSN MSN20060317111509603/17/06 11:15:31  5-MIN KMSN 171715Z 02010KT 10SM CLR M01/M08 A3045 370 60 -1400 020/10 RMK AO2
14837KMSN MSN20060317112009603/17/06 11:20:31  5-MIN KMSN 171720Z 03009KT 10SM CLR M01/M08 A3046 370 60 -1400 030/09 RMK AO2
14837KMSN MSN20060317112509603/17/06 11:25:31  5-MIN KMSN 171725Z 02011KT 10SM CLR M01/M08 A3046 370 58 -1400 020/11 RMK AO2
14837KMSN MSN20060317113009603/17/06 11:30:31  5-MIN KMSN 171730Z 03009KT 10SM CLR M01/M08 A3046 370 58 -1400 030/09 RMK AO2
14837KMSN MSN20060317113509603/17/06 11:35:31  5-MIN KMSN 171735Z 03008KT 10SM CLR M01/M08 A3046 370 58 -1400 030/08 RMK AO2
14837KMSN MSN20060317114009603/17/06 11:40:31  5-MIN KMSN 171740Z 02006KT 10SM CLR M01/M08 A3046 370 56 -1400 020/06 RMK AO2
14837KMSN MSN20060317114509603/17/06 11:45:31  5-MIN KMSN 171745Z 02009KT 10SM CLR M01/M08 A3046 370 56 -1400 020/09 RMK AO2
14837KMSN MSN20060317115013103/17/06 11:50:31  5-MIN KMSN 171750Z 01007KT 10SM CLR M01/M08 A3046 370 58 -1400 010/07 RMK AO2 SLP326 T10061078 11006 21083 51017
14837KMSN MSN20060317115509803/17/06 11:55:31  5-MIN KMSN 171755Z 01007KT 10SM FEW030 00/M08 A3046 370 53 -1300 010/07 RMK AO2
14837KMSN MSN20060317120009803/17/06 12:00:31  5-MIN KMSN 171800Z 03009KT 10SM FEW030 00/M08 A3046 370 53 -1300 020/09 RMK AO2
14837KMSN MSN20060317120509803/17/06 12:05:31  5-MIN KMSN 171805Z 02008KT 10SM FEW030 00/M08 A3046 370 56 -1300 020/08 RMK AO2
14837KMSN MSN20060317121009803/17/06 12:10:31  5-MIN KMSN 171810Z 03009KT 10SM FEW030 00/M08 A3046 370 56 -1300 030/09 RMK AO2
14837KMSN MSN20060317121509803/17/06 12:15:31  5-MIN KMSN 171815Z 02008KT 10SM FEW030 00/M08 A3046 370 53 -1300 020/08 RMK AO2
14837KMSN MSN20060317122009803/17/06 12:20:31  5-MIN KMSN 171820Z 02006KT 10SM FEW030 00/M08 A3046 370 56 -1300 020/06 RMK AO2
14837KMSN MSN20060317122509803/17/06 12:25:31  5-MIN KMSN 171825Z 36006KT 10SM FEW030 00/M08 A3046 370 56 -1300 360/06 RMK AO2
14837KMSN MSN20060317123009803/17/06 12:30:31  5-MIN KMSN 171830Z 02007KT 10SM FEW030 01/M07 A3046 370 56 -1200 020/07 RMK AO2
14837KMSN MSN20060317123509803/17/06 12:35:31  5-MIN KMSN 171835Z 36007KT 10SM FEW030 01/M08 A3046 370 54 -1200 360/07 RMK AO2
14837KMSN MSN20060317124009803/17/06 12:40:31  5-MIN KMSN 171840Z 32007KT 10SM FEW030 01/M08 A3046 370 54 -1200 320/07 RMK AO2
14837KMSN MSN20060317124509803/17/06 12:45:31  5-MIN KMSN 171845Z 29007KT 10SM FEW030 00/M08 A3046 370 53 -1300 290/07 RMK AO2
14837KMSN MSN20060317125013103/17/06 12:50:31  5-MIN KMSN 171850Z 30007KT 270V340 10SM FEW035 00/M08 A3046 370 53 -1300 300/07 270V340 RMK AO2 SLP326 T00001083
14837KMSN MSN20060317125509803/17/06 12:55:31  5-MIN KMSN 171855Z 33007KT 10SM FEW035 01/M08 A3046 370 51 -1200 330/07 RMK AO2
14837KMSN MSN20060317130009803/17/06 13:00:31  5-MIN KMSN 171900Z 35006KT 10SM FEW035 01/M08 A3046 370 51 -1200 350/06 RMK AO2
14837KMSN MSN20060317130509803/17/06 13:05:31  5-MIN KMSN 171905Z 36006KT 10SM FEW035 01/M08 A3046 370 49 -1100 360/06 RMK AO2
14837KMSN MSN20060317131009803/17/06 13:10:31  5-MIN KMSN 171910Z VRB05KT 10SM FEW035 01/M08 A3046 370 51 -1100 VRB/05 RMK AO2
14837KMSN MSN20060317131509803/17/06 13:15:31  5-MIN KMSN 171915Z VRB06KT 10SM FEW035 01/M09 A3046 370 49 -1200 VRB/06 RMK AO2
14837KMSN MSN20060317132009803/17/06 13:20:31  5-MIN KMSN 171920Z 33006KT 10SM FEW035 01/M09 A3045 370 49 -1200 330/06 RMK AO2
14837KMSN MSN20060317132509803/17/06 13:25:31  5-MIN KMSN 171925Z 33008KT 10SM FEW035 01/M08 A3045 370 49 -1100 330/08 RMK AO2
14837KMSN MSN20060317133009803/17/06 13:30:31  5-MIN KMSN 171930Z 34006KT 10SM FEW035 01/M08 A3045 380 51 -1200 340/06 RMK AO2
14837KMSN MSN20060317133509803/17/06 13:35:31  5-MIN KMSN 171935Z VRB05KT 10SM FEW035 01/M07 A3045 380 54 -1100 VRB/05 RMK AO2
14837KMSN MSN20060317134009803/17/06 13:40:31  5-MIN KMSN 171940Z 32006KT 10SM FEW035 01/M08 A3045 380 49 -1100 310/06 RMK AO2
14837KMSN MSN20060317134509803/17/06 13:45:31  5-MIN KMSN 171945Z VRB05KT 10SM FEW035 01/M08 A3044 380 49 -1100 VRB/05 RMK AO2
14837KMSN MSN20060317135011503/17/06 13:50:31  5-MIN KMSN 171950Z 33008KT 10SM FEW035 01/M08 A3044 380 49 -1100 330/08 RMK AO2 SLP320 T00111083
14837KMSN MSN20060317135509803/17/06 13:55:31  5-MIN KMSN 171955Z VRB06KT 10SM FEW040 01/M09 A3044 390 49 -1200 VRB/06 RMK AO2
14837KMSN MSN20060317140009803/17/06 14:00:31  5-MIN KMSN 172000Z 33006KT 10SM FEW040 01/M08 A3044 390 49 -1100 330/06 RMK AO2
14837KMSN MSN20060317140509803/17/06 14:05:31  5-MIN KMSN 172005Z VRB05KT 10SM FEW040 02/M08 A3044 390 47 -1100 VRB/05 RMK AO2
14837KMSN MSN20060317141009803/17/06 14:10:31  5-MIN KMSN 172010Z 32009KT 10SM FEW040 02/M09 A3044 390 45 -1000 320/09 RMK AO2
14837KMSN MSN20060317141509803/17/06 14:15:31  5-MIN KMSN 172015Z 32006KT 10SM FEW040 02/M09 A3044 390 45 -1000 320/06 RMK AO2
14837KMSN MSN20060317142009803/17/06 14:20:31  5-MIN KMSN 172020Z 35009KT 10SM FEW040 01/M09 A3044 390 47 -1100 340/09 RMK AO2
14837KMSN MSN20060317142509803/17/06 14:25:31  5-MIN KMSN 172025Z 34005KT 10SM FEW040 02/M09 A3043 390 45 -1000 340/05 RMK AO2
14837KMSN MSN20060317143009803/17/06 14:30:31  5-MIN KMSN 172030Z 32006KT 10SM FEW040 01/M09 A3043 390 47 -1100 320/06 RMK AO2
14837KMSN MSN20060317143509803/17/06 14:35:31  5-MIN KMSN 172035Z 30008KT 10SM FEW040 02/M09 A3043 390 45 -1000 300/08 RMK AO2
14837KMSN MSN20060317144009803/17/06 14:40:31  5-MIN KMSN 172040Z 32008KT 10SM FEW040 02/M08 A3043 390 47 -1000 320/08 RMK AO2
14837KMSN MSN20060317144509803/17/06 14:45:31  5-MIN KMSN 172045Z VRB04KT 10SM FEW040 02/M08 A3043 400 47 -1000 VRB/04 RMK AO2
14837KMSN MSN20060317145012103/17/06 14:50:31  5-MIN KMSN 172050Z 31008KT 10SM FEW040 02/M08 A3043 400 47 -1000 310/08 RMK AO2 SLP316 T00171083 51001
14837KMSN MSN20060317145509803/17/06 14:55:31  5-MIN KMSN 172055Z 36007KT 10SM FEW040 02/M09 A3043 390 45 -1000 360/07 RMK AO2
14837KMSN MSN20060317150009803/17/06 15:00:31  5-MIN KMSN 172100Z VRB05KT 10SM FEW040 02/M08 A3043 400 45 -1000 VRB/05 RMK AO2
14837KMSN MSN20060317150509803/17/06 15:05:31  5-MIN KMSN 172105Z 31008KT 10SM FEW040 02/M09 A3043 400 45 -1000 300/08 RMK AO2
14837KMSN MSN20060317151009803/17/06 15:10:31  5-MIN KMSN 172110Z 34007KT 10SM FEW040 02/M08 A3043 400 47 -1000 340/07 RMK AO2
14837KMSN MSN20060317151509503/17/06 15:15:31  5-MIN KMSN 172115Z 34006KT 10SM CLR 02/M09 A3043 400 44 -1000 340/06 RMK AO2
14837KMSN MSN20060317152009503/17/06 15:20:31  5-MIN KMSN 172120Z 35008KT 10SM CLR 02/M09 A3043 400 44 -1000 350/08 RMK AO2
14837KMSN MSN20060317152509503/17/06 15:25:31  5-MIN KMSN 172125Z 35007KT 10SM CLR 02/M08 A3042 400 45 -1000 350/07 RMK AO2
14837KMSN MSN20060317153009503/17/06 15:30:31  5-MIN KMSN 172130Z 33006KT 10SM CLR 02/M09 A3043 400 44 -1000 320/06 RMK AO2
14837KMSN MSN20060317153509503/17/06 15:35:31  5-MIN KMSN 172135Z 32008KT 10SM CLR 02/M09 A3043 400 44 -1000 320/08 RMK AO2
14837KMSN MSN20060317154009503/17/06 15:40:31  5-MIN KMSN 172140Z 34007KT 10SM CLR 02/M09 A3043 400 44 -1000 340/07 RMK AO2
14837KMSN MSN20060317154509503/17/06 15:45:31  5-MIN KMSN 172145Z 29007KT 10SM CLR 02/M09 A3043 400 42 -1000 290/07 RMK AO2
14837KMSN MSN20060317155011503/17/06 15:50:31  5-MIN KMSN 172150Z 34007KT 10SM FEW040 02/M09 A3043 400 42 -1000 340/07 RMK AO2 SLP315 T00221094
14837KMSN MSN20060317155509503/17/06 15:55:31  5-MIN KMSN 172155Z 32009KT 10SM CLR 02/M09 A3043 400 42 -1000 320/09 RMK AO2
14837KMSN MSN20060317160009803/17/06 16:00:31  5-MIN KMSN 172200Z 33009KT 10SM FEW040 02/M09 A3043 400 42 -1000 330/09 RMK AO2
14837KMSN MSN20060317160509803/17/06 16:05:31  5-MIN KMSN 172205Z 34005KT 10SM FEW050 02/M09 A3043 400 44 -1000 340/05 RMK AO2
14837KMSN MSN20060317161009803/17/06 16:10:31  5-MIN KMSN 172210Z 33009KT 10SM FEW050 02/M09 A3042 400 44 -1000 330/09 RMK AO2
14837KMSN MSN20060317161509803/17/06 16:15:31  5-MIN KMSN 172215Z 34006KT 10SM FEW050 02/M09 A3042 400 42 -1000 340/06 RMK AO2
14837KMSN MSN20060317162009803/17/06 16:20:31  5-MIN KMSN 172220Z 33008KT 10SM FEW050 02/M09 A3042 400 42 -1000 330/08 RMK AO2
14837KMSN MSN20060317162509803/17/06 16:25:31  5-MIN KMSN 172225Z 32006KT 10SM FEW050 02/M09 A3043 400 42 -1000 320/06 RMK AO2
14837KMSN MSN20060317163009803/17/06 16:30:31  5-MIN KMSN 172230Z 31006KT 10SM FEW050 02/M09 A3043 400 42 -1000 310/06 RMK AO2
14837KMSN MSN20060317163509803/17/06 16:35:31  5-MIN KMSN 172235Z 36007KT 10SM FEW050 02/M09 A3043 400 42 -1000 350/07 RMK AO2
14837KMSN MSN20060317164009803/17/06 16:40:31  5-MIN KMSN 172240Z 32007KT 10SM FEW050 02/M09 A3043 400 42 -1000 320/07 RMK AO2
14837KMSN MSN20060317164509803/17/06 16:45:31  5-MIN KMSN 172245Z 32007KT 10SM FEW050 02/M10 A3042 400 40 -1000 320/07 RMK AO2
14837KMSN MSN20060317165011503/17/06 16:50:31  5-MIN KMSN 172250Z 36006KT 10SM FEW050 02/M09 A3042 400 42 -1000 350/06 RMK AO2 SLP314 T00221094
14837KMSN MSN20060317165509503/17/06 16:55:31  5-MIN KMSN 172255Z 32006KT 10SM CLR 02/M11 A3042 400 38 -1000 320/06 RMK AO2
14837KMSN MSN20060317170009503/17/06 17:00:31  5-MIN KMSN 172300Z 33007KT 10SM CLR 02/M11 A3042 400 38 -1000 330/07 RMK AO2
14837KMSN MSN20060317170509503/17/06 17:05:31  5-MIN KMSN 172305Z 34008KT 10SM CLR 02/M10 A3042 400 40 -1000 340/08 RMK AO2
14837KMSN MSN20060317171009803/17/06 17:10:31  5-MIN KMSN 172310Z 34006KT 10SM FEW060 02/M10 A3042 400 40 -1000 340/06 RMK AO2
14837KMSN MSN20060317171509803/17/06 17:15:31  5-MIN KMSN 172315Z 33008KT 10SM FEW060 02/M10 A3042 400 40 -1000 330/08 RMK AO2
14837KMSN MSN20060317172009803/17/06 17:20:31  5-MIN KMSN 172320Z 32007KT 10SM FEW060 02/M10 A3042 410 40 -1000 320/07 RMK AO2
14837KMSN MSN20060317172509803/17/06 17:25:31  5-MIN KMSN 172325Z 33006KT 10SM FEW060 02/M10 A3042 410 40 -1000 330/06 RMK AO2
14837KMSN MSN20060317173009803/17/06 17:30:31  5-MIN KMSN 172330Z 34006KT 10SM FEW060 02/M10 A3042 410 42 -1000 340/06 RMK AO2
14837KMSN MSN20060317173509803/17/06 17:35:31  5-MIN KMSN 172335Z 34007KT 10SM FEW060 02/M09 A3042 400 43 -1000 340/07 RMK AO2
14837KMSN MSN20060317174009803/17/06 17:40:31  5-MIN KMSN 172340Z 32007KT 10SM FEW060 02/M09 A3042 400 45 -1000 320/07 RMK AO2
14837KMSN MSN20060317174509803/17/06 17:45:31  5-MIN KMSN 172345Z 31004KT 10SM FEW060 01/M09 A3042 410 45 -1100 310/04 RMK AO2
14837KMSN MSN20060317175013303/17/06 17:50:31  5-MIN KMSN 172350Z 32006KT 10SM FEW060 01/M09 A3042 400 45 -1100 320/06 RMK AO2 SLP314 T00111094 10022 20000 58009
14837KMSN MSN20060317175509503/17/06 17:55:31  5-MIN KMSN 172355Z 32005KT 10SM CLR 01/M09 A3042 410 47 -1100 320/05 RMK AO2
14837KMSN MSN20060317180009803/17/06 18:00:31  5-MIN KMSN 180000Z 32006KT 10SM FEW070 01/M09 A3042 410 47 -1100 320/06 RMK AO2
14837KMSN MSN20060317180509503/17/06 18:05:31  5-MIN KMSN 180005Z 32005KT 10SM CLR 01/M09 A3042 400 49 -1200 310/05 RMK AO2
14837KMSN MSN20060317181009503/17/06 18:10:31  5-MIN KMSN 180010Z 32005KT 10SM CLR 01/M09 A3042 410 49 -1200 320/05 RMK AO2
14837KMSN MSN20060317181509503/17/06 18:15:31  5-MIN KMSN 180015Z 32005KT 10SM CLR 01/M08 A3042 410 51 -1200 320/05 RMK AO2
14837KMSN MSN20060317182009503/17/06 18:20:31  5-MIN KMSN 180020Z 31005KT 10SM CLR 01/M08 A3042 410 51 -1200 310/05 RMK AO2
14837KMSN MSN20060317182509503/17/06 18:25:31  5-MIN KMSN 180025Z 31004KT 10SM CLR 00/M08 A3042 410 53 -1200 310/04 RMK AO2
14837KMSN MSN20060317183009503/17/06 18:30:31  5-MIN KMSN 180030Z 31004KT 10SM CLR 00/M08 A3042 410 53 -1200 310/04 RMK AO2
14837KMSN MSN20060317183509503/17/06 18:35:31  5-MIN KMSN 180035Z 30004KT 10SM CLR 00/M08 A3042 410 53 -1200 300/04 RMK AO2
14837KMSN MSN20060317184009503/17/06 18:40:31  5-MIN KMSN 180040Z 29004KT 10SM CLR 00/M08 A3042 400 53 -1200 290/04 RMK AO2
14837KMSN MSN20060317184509503/17/06 18:45:31  5-MIN KMSN 180045Z 29004KT 10SM CLR 00/M08 A3042 400 53 -1200 290/04 RMK AO2
14837KMSN MSN20060317185011303/17/06 18:50:31  5-MIN KMSN 180050Z 29003KT 10SM CLR M01/M08 A3042 400 58 -1300 290/03 RMK AO2 SLP315 T10061078
14837KMSN MSN20060317185509603/17/06 18:55:31  5-MIN KMSN 180055Z 29003KT 10SM CLR M01/M07 A3042 400 63 -1400 290/03 RMK AO2
14837KMSN MSN20060317190009603/17/06 19:00:31  5-MIN KMSN 180100Z 28003KT 10SM CLR M01/M07 A3042 410 63 -1400 280/03 RMK AO2
14837KMSN MSN20060317190509603/17/06 19:05:31  5-MIN KMSN 180105Z 29003KT 10SM CLR M01/M08 A3042 410 60 -1400 290/03 RMK AO2
14837KMSN MSN20060317191009603/17/06 19:10:31  5-MIN KMSN 180110Z 30003KT 10SM CLR M01/M08 A3041 410 58 -1400 300/03 RMK AO2
14837KMSN MSN20060317191509603/17/06 19:15:31  5-MIN KMSN 180115Z 31003KT 10SM CLR M01/M08 A3041 410 58 -1400 310/03 RMK AO2
14837KMSN MSN20060317192009603/17/06 19:20:31  5-MIN KMSN 180120Z 31003KT 10SM CLR M02/M08 A3041 410 60 -1400 310/03 RMK AO2
14837KMSN MSN20060317192509603/17/06 19:25:31  5-MIN KMSN 180125Z 00000KT 10SM CLR M02/M08 A3041 410 60 -1400 000/00 RMK AO2
14837KMSN MSN20060317193009603/17/06 19:30:31  5-MIN KMSN 180130Z 31003KT 10SM CLR M02/M08 A3041 410 60 -1400 300/03 RMK AO2
14837KMSN MSN20060317193509603/17/06 19:35:31  5-MIN KMSN 180135Z 31003KT 10SM CLR M02/M08 A3041 410 60 -1400 310/03 RMK AO2
14837KMSN MSN20060317194009603/17/06 19:40:31  5-MIN KMSN 180140Z 32003KT 10SM CLR M02/M08 A3041 410 63 -1400 320/03 RMK AO2
14837KMSN MSN20060317194509603/17/06 19:45:31  5-MIN KMSN 180145Z 32003KT 10SM CLR M02/M08 A3041 410 60 -1400 320/03 RMK AO2
14837KMSN MSN20060317195011303/17/06 19:50:31  5-MIN KMSN 180150Z 32004KT 10SM CLR M02/M08 A3041 420 63 -1400 320/04 RMK AO2 SLP311 T10171078
14837KMSN MSN20060317195509603/17/06 19:55:31  5-MIN KMSN 180155Z 33004KT 10SM CLR M01/M08 A3041 420 60 -1400 330/04 RMK AO2
14837KMSN MSN20060317200009603/17/06 20:00:31  5-MIN KMSN 180200Z 33004KT 10SM CLR M02/M07 A3041 410 66 -1400 330/04 RMK AO2
14837KMSN MSN20060317200509603/17/06 20:05:31  5-MIN KMSN 180205Z 33004KT 10SM CLR M02/M07 A3041 410 69 -1500 320/04 RMK AO2
14837KMSN MSN20060317201009603/17/06 20:10:31  5-MIN KMSN 180210Z 33005KT 10SM CLR M02/M09 A3041 410 58 -1400 330/05 RMK AO2
14837KMSN MSN20060317201509603/17/06 20:15:31  5-MIN KMSN 180215Z 34006KT 10SM CLR M01/M09 A3041 410 55 -1400 330/06 RMK AO2
14837KMSN MSN20060317202009603/17/06 20:20:31  5-MIN KMSN 180220Z 34005KT 10SM CLR M01/M09 A3041 410 55 -1400 340/05 RMK AO2
14837KMSN MSN20060317202509603/17/06 20:25:31  5-MIN KMSN 180225Z 34006KT 10SM CLR M02/M09 A3042 410 58 -1400 340/06 RMK AO2
14837KMSN MSN20060317203009603/17/06 20:30:31  5-MIN KMSN 180230Z 34005KT 10SM CLR M02/M09 A3042 410 58 -1400 340/05 RMK AO2
14837KMSN MSN20060317203509603/17/06 20:35:31  5-MIN KMSN 180235Z 33005KT 10SM CLR M02/M09 A3042 410 58 -1500 330/05 RMK AO2
14837KMSN MSN20060317204009603/17/06 20:40:31  5-MIN KMSN 180240Z 33005KT 10SM CLR M02/M09 A3042 410 58 -1500 330/05 RMK AO2
14837KMSN MSN20060317204509603/17/06 20:45:31  5-MIN KMSN 180245Z 34005KT 10SM CLR M02/M09 A3042 400 58 -1500 340/05 RMK AO2
14837KMSN MSN20060317205011903/17/06 20:50:31  5-MIN KMSN 180250Z 34005KT 10SM CLR M02/M09 A3042 410 58 -1500 340/05 RMK AO2 SLP314 T10171089 56004
14837KMSN MSN20060317205509603/17/06 20:55:31  5-MIN KMSN 180255Z 35006KT 10SM CLR M02/M09 A3042 410 60 -1500 350/06 RMK AO2
14837KMSN MSN20060317210009603/17/06 21:00:31  5-MIN KMSN 180300Z 35006KT 10SM CLR M02/M09 A3042 410 60 -1500 350/06 RMK AO2
14837KMSN MSN20060317210509603/17/06 21:05:31  5-MIN KMSN 180305Z 35007KT 10SM CLR M02/M09 A3042 410 60 -1500 350/07 RMK AO2
14837KMSN MSN20060317211009603/17/06 21:10:31  5-MIN KMSN 180310Z 35006KT 10SM CLR M02/M09 A3042 410 60 -1500 340/06 RMK AO2
14837KMSN MSN20060317211509603/17/06 21:15:31  5-MIN KMSN 180315Z 35006KT 10SM CLR M03/M09 A3042 410 63 -1600 350/06 RMK AO2
14837KMSN MSN20060317212009603/17/06 21:20:31  5-MIN KMSN 180320Z 35006KT 10SM CLR M03/M09 A3042 410 63 -1600 350/06 RMK AO2
14837KMSN MSN20060317212509603/17/06 21:25:31  5-MIN KMSN 180325Z 34005KT 10SM CLR M03/M09 A3042 410 63 -1600 340/05 RMK AO2
14837KMSN MSN20060317213009603/17/06 21:30:31  5-MIN KMSN 180330Z 34006KT 10SM CLR M02/M09 A3042 400 60 -1500 340/06 RMK AO2
14837KMSN MSN20060317213509603/17/06 21:35:31  5-MIN KMSN 180335Z 34005KT 10SM CLR M02/M09 A3042 410 60 -1500 340/05 RMK AO2
14837KMSN MSN20060317214009603/17/06 21:40:31  5-MIN KMSN 180340Z 34005KT 10SM CLR M02/M09 A3042 410 60 -1500 340/05 RMK AO2
14837KMSN MSN20060317214509603/17/06 21:45:31  5-MIN KMSN 180345Z 35005KT 10SM CLR M02/M09 A3042 410 60 -1500 350/05 RMK AO2
14837KMSN MSN20060317215011303/17/06 21:50:31  5-MIN KMSN 180350Z 35005KT 10SM CLR M02/M09 A3042 410 60 -1500 350/05 RMK AO2 SLP312 T10221089
14837KMSN MSN20060317215509603/17/06 21:55:31  5-MIN KMSN 180355Z 35005KT 10SM CLR M03/M09 A3042 410 63 -1600 350/05 RMK AO2
14837KMSN MSN20060317220009603/17/06 22:00:31  5-MIN KMSN 180400Z 35004KT 10SM CLR M03/M09 A3042 410 63 -1600 350/04 RMK AO2
14837KMSN MSN20060317220509603/17/06 22:05:31  5-MIN KMSN 180405Z 35004KT 10SM CLR M03/M09 A3042 410 63 -1600 350/04 RMK AO2
14837KMSN MSN20060317221009603/17/06 22:10:31  5-MIN KMSN 180410Z 35004KT 10SM CLR M03/M09 A3042 410 63 -1600 340/04 RMK AO2
14837KMSN MSN20060317221509603/17/06 22:15:31  5-MIN KMSN 180415Z 35005KT 10SM CLR M03/M09 A3042 410 63 -1600 350/05 RMK AO2
14837KMSN MSN20060317222009603/17/06 22:20:31  5-MIN KMSN 180420Z 35005KT 10SM CLR M03/M09 A3042 410 63 -1600 340/05 RMK AO2
14837KMSN MSN20060317222509603/17/06 22:25:31  5-MIN KMSN 180425Z 34005KT 10SM CLR M03/M09 A3042 410 63 -1600 340/05 RMK AO2
14837KMSN MSN20060317223009603/17/06 22:30:31  5-MIN KMSN 180430Z 35005KT 10SM CLR M03/M09 A3042 410 63 -1600 340/05 RMK AO2
14837KMSN MSN20060317223509603/17/06 22:35:31  5-MIN KMSN 180435Z 34005KT 10SM CLR M03/M09 A3042 410 63 -1600 340/05 RMK AO2
14837KMSN MSN20060317224009603/17/06 22:40:31  5-MIN KMSN 180440Z 34004KT 10SM CLR M03/M09 A3042 410 63 -1600 340/04 RMK AO2
14837KMSN MSN20060317224509603/17/06 22:45:31  5-MIN KMSN 180445Z 34005KT 10SM CLR M03/M09 A3041 410 65 -1700 340/05 RMK AO2
14837KMSN MSN20060317225011303/17/06 22:50:31  5-MIN KMSN 180450Z 35005KT 10SM CLR M03/M09 A3041 410 60 -1600 340/05 RMK AO2 SLP311 T10281094
14837KMSN MSN20060317225509603/17/06 22:55:31  5-MIN KMSN 180455Z 34005KT 10SM CLR M03/M09 A3042 410 60 -1600 340/05 RMK AO2
14837KMSN MSN20060317230009603/17/06 23:00:31  5-MIN KMSN 180500Z 34005KT 10SM CLR M03/M09 A3041 410 63 -1700 340/05 RMK AO2
14837KMSN MSN20060317230509603/17/06 23:05:31  5-MIN KMSN 180505Z 34006KT 10SM CLR M03/M09 A3041 410 63 -1700 340/06 RMK AO2
14837KMSN MSN20060317231009603/17/06 23:10:31  5-MIN KMSN 180510Z 34005KT 10SM CLR M03/M09 A3042 410 63 -1700 340/05 RMK AO2
14837KMSN MSN20060317231509603/17/06 23:15:31  5-MIN KMSN 180515Z 34005KT 10SM CLR M03/M09 A3042 410 63 -1700 340/05 RMK AO2
14837KMSN MSN20060317232009603/17/06 23:20:31  5-MIN KMSN 180520Z 33005KT 10SM CLR M03/M09 A3042 410 63 -1700 330/05 RMK AO2
14837KMSN MSN20060317232509603/17/06 23:25:31  5-MIN KMSN 180525Z 34005KT 10SM CLR M03/M09 A3041 410 63 -1700 340/05 RMK AO2
14837KMSN MSN20060317233009603/17/06 23:30:31  5-MIN KMSN 180530Z 34004KT 10SM CLR M03/M09 A3041 410 63 -1700 330/04 RMK AO2
14837KMSN MSN20060317233509603/17/06 23:35:31  5-MIN KMSN 180535Z 33004KT 10SM CLR M04/M09 A3041 410 68 -1800 330/04 RMK AO2
14837KMSN MSN20060317234009603/17/06 23:40:31  5-MIN KMSN 180540Z 34004KT 10SM CLR M04/M09 A3042 410 65 -1700 330/04 RMK AO2
14837KMSN MSN20060317234509603/17/06 23:45:31  5-MIN KMSN 180545Z 34005KT 10SM CLR M04/M09 A3041 410 65 -1700 340/05 RMK AO2
14837KMSN MSN20060317235014103/17/06 23:50:31  5-MIN KMSN 180550Z 33005KT 10SM CLR M04/M09 A3041 410 65 -1700 330/05 RMK AO2 SLP312 T10391094 10011 21044 400221083 55000
14837KMSN MSN20060317235509603/17/06 23:55:31  5-MIN KMSN 180555Z 33004KT 10SM CLR M04/M09 A3041 410 65 -1700 330/04 RMK AO2
14837KMSN MSN20060318000009603/18/06 00:00:38  5-MIN KMSN 180600Z 34004KT 10SM CLR M04/M09 A3041 410 65 -1700 340/04 RMK AO2
14837KMSN MSN20060318000509603/18/06 00:05:31  5-MIN KMSN 180605Z 33004KT 10SM CLR M04/M09 A3041 410 65 -1700 330/04 RMK AO2
14837KMSN MSN20060318001009603/18/06 00:10:31  5-MIN KMSN 180610Z 34004KT 10SM CLR M04/M09 A3041 410 68 -1800 340/04 RMK AO2
14837KMSN MSN20060318001509603/18/06 00:15:31  5-MIN KMSN 180615Z 35005KT 10SM CLR M04/M09 A3041 420 68 -1800 350/05 RMK AO2
14837KMSN MSN20060318002009603/18/06 00:20:31  5-MIN KMSN 180620Z 35005KT 10SM CLR M05/M09 A3041 420 71 -1900 350/05 RMK AO2
14837KMSN MSN20060318002509603/18/06 00:25:31  5-MIN KMSN 180625Z 35005KT 10SM CLR M04/M09 A3041 410 68 -1800 340/05 RMK AO2
14837KMSN MSN20060318003009603/18/06 00:30:31  5-MIN KMSN 180630Z 34005KT 10SM CLR M05/M09 A3041 410 71 -1900 340/05 RMK AO2
14837KMSN MSN20060318003509603/18/06 00:35:31  5-MIN KMSN 180635Z 34005KT 10SM CLR M05/M09 A3041 420 71 -1900 340/05 RMK AO2
14837KMSN MSN20060318004009603/18/06 00:40:31  5-MIN KMSN 180640Z 34005KT 10SM CLR M04/M09 A3041 410 68 -1800 340/05 RMK AO2
14837KMSN MSN20060318004509603/18/06 00:45:31  5-MIN KMSN 180645Z 34006KT 10SM CLR M04/M09 A3041 410 68 -1800 340/06 RMK AO2
14837KMSN MSN20060318005011303/18/06 00:50:31  5-MIN KMSN 180650Z 35006KT 10SM CLR M04/M09 A3041 410 68 -1800 340/06 RMK AO2 SLP310 T10441094
14837KMSN MSN20060318005509603/18/06 00:55:31  5-MIN KMSN 180655Z 34006KT 10SM CLR M05/M10 A3041 410 68 -1900 340/06 RMK AO2
14837KMSN MSN20060318010009603/18/06 01:00:31  5-MIN KMSN 180700Z 34006KT 10SM CLR M04/M10 A3041 410 65 -1800 340/06 RMK AO2
14837KMSN MSN20060318010509603/18/06 01:05:31  5-MIN KMSN 180705Z 34006KT 10SM CLR M04/M09 A3042 410 68 -1800 340/06 RMK AO2
14837KMSN MSN20060318011009603/18/06 01:10:31  5-MIN KMSN 180710Z 34006KT 10SM CLR M04/M09 A3042 410 68 -1800 340/06 RMK AO2
14837KMSN MSN20060318011509603/18/06 01:15:31  5-MIN KMSN 180715Z 34006KT 10SM CLR M04/M09 A3042 410 68 -1800 340/06 RMK AO2
14837KMSN MSN20060318012009603/18/06 01:20:31  5-MIN KMSN 180720Z 34004KT 10SM CLR M05/M10 A3042 400 68 -1900 340/04 RMK AO2
14837KMSN MSN20060318012509603/18/06 01:25:31  5-MIN KMSN 180725Z 36004KT 10SM CLR M05/M10 A3043 400 68 -1900 360/04 RMK AO2
14837KMSN MSN20060318013009603/18/06 01:30:31  5-MIN KMSN 180730Z 33004KT 10SM CLR M05/M10 A3043 400 68 -1900 330/04 RMK AO2
14837KMSN MSN20060318013509603/18/06 01:35:31  5-MIN KMSN 180735Z 33004KT 10SM CLR M05/M10 A3043 400 68 -1900 330/04 RMK AO2
14837KMSN MSN20060318014009603/18/06 01:40:31  5-MIN KMSN 180740Z 33004KT 10SM CLR M05/M10 A3043 400 68 -1900 330/04 RMK AO2
14837KMSN MSN20060318014509603/18/06 01:45:31  5-MIN KMSN 180745Z 32005KT 10SM CLR M05/M11 A3043 390 65 -1900 320/05 RMK AO2
14837KMSN MSN20060318015011303/18/06 01:50:31  5-MIN KMSN 180750Z 33005KT 10SM CLR M05/M11 A3043 390 65 -1900 330/05 RMK AO2 SLP317 T10501106
14837KMSN MSN20060318015509603/18/06 01:55:31  5-MIN KMSN 180755Z 33004KT 10SM CLR M05/M11 A3043 390 65 -1900 330/04 RMK AO2
14837KMSN MSN20060318020009603/18/06 02:00:31  5-MIN KMSN 180800Z 32004KT 10SM CLR M05/M11 A3043 390 65 -1900 320/04 RMK AO2
14837KMSN MSN20060318020509603/18/06 02:05:31  5-MIN KMSN 180805Z 33003KT 10SM CLR M05/M11 A3043 390 65 -1900 320/03 RMK AO2
14837KMSN MSN20060318021009603/18/06 02:10:31  5-MIN KMSN 180810Z 32004KT 10SM CLR M06/M11 A3043 390 68 -2000 320/04 RMK AO2
14837KMSN MSN20060318021509603/18/06 02:15:31  5-MIN KMSN 180815Z 31003KT 10SM CLR M06/M11 A3043 400 68 -2000 310/03 RMK AO2
14837KMSN MSN20060318022009603/18/06 02:20:31  5-MIN KMSN 180820Z 32004KT 10SM CLR M06/M11 A3043 390 68 -2000 320/04 RMK AO2
14837KMSN MSN20060318022509603/18/06 02:25:31  5-MIN KMSN 180825Z 32003KT 10SM CLR M05/M11 A3043 390 65 -1900 320/03 RMK AO2
14837KMSN MSN20060318023009603/18/06 02:30:31  5-MIN KMSN 180830Z 32004KT 10SM CLR M05/M11 A3043 390 65 -1900 320/04 RMK AO2
14837KMSN MSN20060318023509603/18/06 02:35:31  5-MIN KMSN 180835Z 33004KT 10SM CLR M06/M11 A3043 390 68 -2000 330/04 RMK AO2
14837KMSN MSN20060318024009603/18/06 02:40:31  5-MIN KMSN 180840Z 34004KT 10SM CLR M06/M11 A3043 390 68 -2000 340/04 RMK AO2
14837KMSN MSN20060318024509603/18/06 02:45:31  5-MIN KMSN 180845Z 34003KT 10SM CLR M05/M11 A3043 390 65 -1900 340/03 RMK AO2
14837KMSN MSN20060318025011903/18/06 02:50:31  5-MIN KMSN 180850Z 34003KT 10SM CLR M06/M10 A3043 390 71 -2000 340/03 RMK AO2 SLP317 T10561100 56002
14837KMSN MSN20060318025509603/18/06 02:55:31  5-MIN KMSN 180855Z 34003KT 10SM CLR M06/M09 A3044 390 74 -2000 340/03 RMK AO2
14837KMSN MSN20060318030009603/18/06 03:00:31  5-MIN KMSN 180900Z 35003KT 10SM CLR M06/M10 A3044 390 71 -2000 350/03 RMK AO2
14837KMSN MSN20060318030509603/18/06 03:05:31  5-MIN KMSN 180905Z 35004KT 10SM CLR M06/M11 A3044 390 68 -2000 350/04 RMK AO2
14837KMSN MSN20060318031009603/18/06 03:10:31  5-MIN KMSN 180910Z 34005KT 10SM CLR M06/M11 A3044 390 68 -2000 340/05 RMK AO2
14837KMSN MSN20060318031509603/18/06 03:15:31  5-MIN KMSN 180915Z 34005KT 10SM CLR M06/M11 A3044 390 68 -2000 340/05 RMK AO2
14837KMSN MSN20060318032009603/18/06 03:20:31  5-MIN KMSN 180920Z 34006KT 10SM CLR M06/M11 A3044 390 68 -2000 340/06 RMK AO2
14837KMSN MSN20060318032509603/18/06 03:25:31  5-MIN KMSN 180925Z 34007KT 10SM CLR M06/M11 A3044 390 68 -2000 340/07 RMK AO2
14837KMSN MSN20060318033009603/18/06 03:30:31  5-MIN KMSN 180930Z 34007KT 10SM CLR M06/M11 A3044 390 65 -2000 330/07 RMK AO2
14837KMSN MSN20060318033509603/18/06 03:35:31  5-MIN KMSN 180935Z 34007KT 10SM CLR M06/M11 A3044 390 65 -2000 340/07 RMK AO2
14837KMSN MSN20060318034009603/18/06 03:40:31  5-MIN KMSN 180940Z 34007KT 10SM CLR M06/M11 A3044 390 65 -2000 340/07 RMK AO2
14837KMSN MSN20060318034509603/18/06 03:45:31  5-MIN KMSN 180945Z 34008KT 10SM CLR M06/M11 A3044 390 65 -2000 340/08 RMK AO2
14837KMSN MSN20060318035011303/18/06 03:50:31  5-MIN KMSN 180950Z 34006KT 10SM CLR M06/M11 A3044 390 65 -2000 340/06 RMK AO2 SLP320 T10561111
14837KMSN MSN20060318035509603/18/06 03:55:31  5-MIN KMSN 180955Z 34006KT 10SM CLR M06/M11 A3044 390 65 -2000 340/06 RMK AO2
14837KMSN MSN20060318040009603/18/06 04:00:31  5-MIN KMSN 181000Z 34007KT 10SM CLR M06/M11 A3044 380 68 -2000 340/07 RMK AO2
14837KMSN MSN20060318040509603/18/06 04:05:31  5-MIN KMSN 181005Z 34006KT 10SM CLR M06/M11 A3044 380 68 -2000 340/06 RMK AO2
14837KMSN MSN20060318041009603/18/06 04:10:31  5-MIN KMSN 181010Z 34006KT 10SM CLR M06/M11 A3044 380 68 -2000 340/06 RMK AO2
14837KMSN MSN20060318041509603/18/06 04:15:31  5-MIN KMSN 181015Z 35005KT 10SM CLR M06/M11 A3044 380 68 -2000 340/05 RMK AO2
14837KMSN MSN20060318042009603/18/06 04:20:31  5-MIN KMSN 181020Z 34005KT 10SM CLR M06/M11 A3044 380 68 -2000 340/05 RMK AO2
14837KMSN MSN20060318042509603/18/06 04:25:31  5-MIN KMSN 181025Z 34005KT 10SM CLR M06/M11 A3044 380 68 -2000 340/05 RMK AO2
14837KMSN MSN20060318043009603/18/06 04:30:31  5-MIN KMSN 181030Z 35006KT 10SM CLR M07/M11 A3044 380 71 -2100 340/06 RMK AO2
14837KMSN MSN20060318043509603/18/06 04:35:31  5-MIN KMSN 181035Z 35005KT 10SM CLR M07/M11 A3044 380 71 -2100 350/05 RMK AO2
14837KMSN MSN20060318044009603/18/06 04:40:31  5-MIN KMSN 181040Z 35006KT 10SM CLR M07/M11 A3044 390 74 -2200 340/06 RMK AO2
14837KMSN MSN20060318044509603/18/06 04:45:31  5-MIN KMSN 181045Z 35007KT 10SM CLR M07/M11 A3044 380 74 -2200 340/07 RMK AO2
14837KMSN MSN20060318045011303/18/06 04:50:31  5-MIN KMSN 181050Z 34006KT 10SM CLR M07/M11 A3044 380 74 -2200 340/06 RMK AO2 SLP322 T10721111
14837KMSN MSN20060318045509603/18/06 04:55:31  5-MIN KMSN 181055Z 34006KT 10SM CLR M07/M11 A3045 380 74 -2200 340/06 RMK AO2
14837KMSN MSN20060318050009603/18/06 05:00:31  5-MIN KMSN 181100Z 35006KT 10SM CLR M07/M11 A3045 380 74 -2200 350/06 RMK AO2
14837KMSN MSN20060318050509603/18/06 05:05:31  5-MIN KMSN 181105Z 35006KT 10SM CLR M07/M11 A3045 380 74 -2200 350/06 RMK AO2
14837KMSN MSN20060318051009603/18/06 05:10:31  5-MIN KMSN 181110Z 35006KT 10SM CLR M07/M11 A3045 380 74 -2200 350/06 RMK AO2
14837KMSN MSN20060318051509603/18/06 05:15:31  5-MIN KMSN 181115Z 35006KT 10SM CLR M07/M11 A3045 380 74 -2200 350/06 RMK AO2
14837KMSN MSN20060318052009603/18/06 05:20:31  5-MIN KMSN 181120Z 35006KT 10SM CLR M07/M11 A3045 380 74 -2200 350/06 RMK AO2
14837KMSN MSN20060318052509603/18/06 05:25:31  5-MIN KMSN 181125Z 35006KT 10SM CLR M07/M11 A3045 380 74 -2200 350/06 RMK AO2
14837KMSN MSN20060318053009603/18/06 05:30:31  5-MIN KMSN 181130Z 35006KT 10SM CLR M07/M11 A3045 380 74 -2200 350/06 RMK AO2
14837KMSN MSN20060318053509603/18/06 05:35:31  5-MIN KMSN 181135Z 35006KT 10SM CLR M07/M11 A3045 370 74 -2200 350/06 RMK AO2
14837KMSN MSN20060318054009603/18/06 05:40:31  5-MIN KMSN 181140Z 35007KT 10SM CLR M07/M11 A3045 370 74 -2200 350/07 RMK AO2
14837KMSN MSN20060318054509603/18/06 05:45:31  5-MIN KMSN 181145Z 36007KT 10SM CLR M07/M11 A3045 370 74 -2200 350/07 RMK AO2
14837KMSN MSN20060318055013103/18/06 05:50:31  5-MIN KMSN 181150Z 36007KT 10SM CLR M07/M11 A3046 370 74 -2200 360/07 RMK AO2 SLP326 T10721111 11039 21072 53006
14837KMSN MSN20060318055509603/18/06 05:55:31  5-MIN KMSN 181155Z 36007KT 10SM CLR M07/M11 A3046 370 74 -2200 360/07 RMK AO2
14837KMSN MSN20060318060009603/18/06 06:00:31  5-MIN KMSN 181200Z 36007KT 10SM CLR M07/M11 A3046 370 74 -2200 360/07 RMK AO2
14837KMSN MSN20060318060509603/18/06 06:05:31  5-MIN KMSN 181205Z 36008KT 10SM CLR M07/M11 A3046 370 74 -2200 360/08 RMK AO2
14837KMSN MSN20060318061009603/18/06 06:10:31  5-MIN KMSN 181210Z 36007KT 10SM CLR M07/M11 A3046 370 74 -2200 360/07 RMK AO2
14837KMSN MSN20060318061509603/18/06 06:15:31  5-MIN KMSN 181215Z 35007KT 10SM CLR M07/M11 A3046 370 74 -2200 350/07 RMK AO2
14837KMSN MSN20060318062009603/18/06 06:20:31  5-MIN KMSN 181220Z 35007KT 10SM CLR M07/M11 A3046 370 74 -2200 350/07 RMK AO2
14837KMSN MSN20060318062509603/18/06 06:25:31  5-MIN KMSN 181225Z 35006KT 10SM CLR M07/M11 A3047 360 74 -2200 350/06 RMK AO2
14837KMSN MSN20060318063009603/18/06 06:30:31  5-MIN KMSN 181230Z 35006KT 10SM CLR M07/M11 A3047 360 74 -2200 350/06 RMK AO2
14837KMSN MSN20060318063509603/18/06 06:35:31  5-MIN KMSN 181235Z 35006KT 10SM CLR M07/M11 A3047 360 74 -2200 350/06 RMK AO2
14837KMSN MSN20060318064009603/18/06 06:40:31  5-MIN KMSN 181240Z 35005KT 10SM CLR M07/M11 A3047 360 74 -2200 350/05 RMK AO2
14837KMSN MSN20060318064509603/18/06 06:45:31  5-MIN KMSN 181245Z 35004KT 10SM CLR M07/M11 A3047 360 74 -2200 350/04 RMK AO2
14837KMSN MSN20060318065011303/18/06 06:50:31  5-MIN KMSN 181250Z 35004KT 10SM CLR M07/M11 A3047 360 74 -2200 350/04 RMK AO2 SLP333 T10671106
14837KMSN MSN20060318065509603/18/06 06:55:31  5-MIN KMSN 181255Z 36005KT 10SM CLR M07/M11 A3047 360 74 -2200 360/05 RMK AO2
14837KMSN MSN20060318070009603/18/06 07:00:31  5-MIN KMSN 181300Z 35005KT 10SM CLR M06/M10 A3048 350 74 -2100 350/05 RMK AO2
14837KMSN MSN20060318070509603/18/06 07:05:31  5-MIN KMSN 181305Z 35006KT 10SM CLR M06/M10 A3048 350 74 -2100 350/06 RMK AO2
14837KMSN MSN20060318071009603/18/06 07:10:31  5-MIN KMSN 181310Z 36006KT 10SM CLR M06/M10 A3048 350 71 -2000 360/06 RMK AO2
14837KMSN MSN20060318071509603/18/06 07:15:31  5-MIN KMSN 181315Z 36007KT 10SM CLR M06/M10 A3048 350 71 -2000 360/07 RMK AO2
14837KMSN MSN20060318072009603/18/06 07:20:31  5-MIN KMSN 181320Z 36007KT 10SM CLR M06/M10 A3048 350 71 -2000 360/07 RMK AO2
14837KMSN MSN20060318072509603/18/06 07:25:31  5-MIN KMSN 181325Z 36007KT 10SM CLR M06/M09 A3048 350 74 -2000 360/07 RMK AO2
14837KMSN MSN20060318073009603/18/06 07:30:31  5-MIN KMSN 181330Z 36006KT 10SM CLR M05/M09 A3048 350 71 -1900 360/06 RMK AO2
14837KMSN MSN20060318073509603/18/06 07:35:31  5-MIN KMSN 181335Z 01007KT 10SM CLR M05/M09 A3048 350 71 -1900 010/07 RMK AO2
14837KMSN MSN20060318074009603/18/06 07:40:31  5-MIN KMSN 181340Z 01008KT 10SM CLR M05/M10 A3048 350 68 -1900 010/08 RMK AO2
14837KMSN MSN20060318074509603/18/06 07:45:31  5-MIN KMSN 181345Z 01008KT 10SM CLR M05/M10 A3048 350 68 -1900 010/08 RMK AO2
14837KMSN MSN20060318075011303/18/06 07:50:31  5-MIN KMSN 181350Z 02007KT 10SM CLR M05/M11 A3048 350 65 -1900 010/07 RMK AO2 SLP335 T10501106
14837KMSN MSN20060318075509603/18/06 07:55:31  5-MIN KMSN 181355Z 03010KT 10SM CLR M04/M11 A3048 350 62 -1900 030/10 RMK AO2
14837KMSN MSN20060318080009603/18/06 08:00:31  5-MIN KMSN 181400Z 03010KT 10SM CLR M04/M11 A3048 350 60 -1900 020/10 RMK AO2
14837KMSN MSN20060318080509603/18/06 08:05:31  5-MIN KMSN 181405Z 02010KT 10SM CLR M04/M11 A3048 350 60 -1900 020/10 RMK AO2
14837KMSN MSN20060318081009603/18/06 08:10:31  5-MIN KMSN 181410Z 02011KT 10SM CLR M04/M12 A3048 350 57 -1900 020/11 RMK AO2
14837KMSN MSN20060318081509603/18/06 08:15:31  5-MIN KMSN 181415Z 01012KT 10SM CLR M04/M11 A3048 350 60 -1900 010/12 RMK AO2
14837KMSN MSN20060318082009603/18/06 08:20:31  5-MIN KMSN 181420Z 02012KT 10SM CLR M04/M11 A3048 350 57 -1800 020/12 RMK AO2
14837KMSN MSN20060318082509603/18/06 08:25:31  5-MIN KMSN 181425Z 01011KT 10SM CLR M04/M11 A3048 350 57 -1800 010/11 RMK AO2
14837KMSN MSN20060318083009603/18/06 08:30:31  5-MIN KMSN 181430Z 02011KT 10SM CLR M04/M12 A3048 350 55 -1800 020/11 RMK AO2
14837KMSN MSN20060318083509603/18/06 08:35:31  5-MIN KMSN 181435Z 03009KT 10SM CLR M04/M12 A3047 360 55 -1800 030/09 RMK AO2
14837KMSN MSN20060318084009603/18/06 08:40:31  5-MIN KMSN 181440Z 02011KT 10SM CLR M03/M11 A3047 360 55 -1700 020/11 RMK AO2
14837KMSN MSN20060318084509603/18/06 08:45:31  5-MIN KMSN 181445Z 03011KT 10SM CLR M03/M12 A3047 360 53 -1700 030/11 RMK AO2
14837KMSN MSN20060318085011903/18/06 08:50:31  5-MIN KMSN 181450Z 01009KT 10SM CLR M03/M11 A3047 360 55 -1700 010/09 RMK AO2 SLP331 T10331111 53007
14837KMSN MSN20060318085509603/18/06 08:55:31  5-MIN KMSN 181455Z 01011KT 10SM CLR M03/M11 A3047 360 55 -1700 010/11 RMK AO2
14837KMSN MSN20060318090009603/18/06 09:00:31  5-MIN KMSN 181500Z 01012KT 10SM CLR M03/M11 A3047 360 55 -1700 010/12 RMK AO2
14837KMSN MSN20060318090509603/18/06 09:05:31  5-MIN KMSN 181505Z 01012KT 10SM CLR M03/M11 A3047 360 55 -1700 010/12 RMK AO2
14837KMSN MSN20060318091009603/18/06 09:10:31  5-MIN KMSN 181510Z 02013KT 10SM CLR M03/M12 A3047 360 53 -1700 010/13 RMK AO2
14837KMSN MSN20060318091509603/18/06 09:15:31  5-MIN KMSN 181515Z 02011KT 10SM CLR M03/M12 A3047 360 50 -1600 020/11 RMK AO2
14837KMSN MSN20060318092009603/18/06 09:20:31  5-MIN KMSN 181520Z 36010KT 10SM CLR M03/M12 A3046 360 50 -1600 360/10 RMK AO2
14837KMSN MSN20060318092509603/18/06 09:25:31  5-MIN KMSN 181525Z 02013KT 10SM CLR M03/M12 A3046 370 50 -1600 010/13 RMK AO2
14837KMSN MSN20060318093009603/18/06 09:30:31  5-MIN KMSN 181530Z 01011KT 10SM CLR M03/M11 A3046 370 53 -1600 010/11 RMK AO2
14837KMSN MSN20060318093509603/18/06 09:35:31  5-MIN KMSN 181535Z 02011KT 10SM CLR M03/M11 A3046 370 53 -1600 020/11 RMK AO2
14837KMSN MSN20060318094009603/18/06 09:40:31  5-MIN KMSN 181540Z 02012KT 10SM CLR M03/M12 A3046 370 50 -1600 020/12 RMK AO2
14837KMSN MSN20060318094509603/18/06 09:45:31  5-MIN KMSN 181545Z 02011KT 10SM CLR M03/M11 A3046 370 53 -1600 020/11 RMK AO2
14837KMSN MSN20060318095011303/18/06 09:50:31  5-MIN KMSN 181550Z 02012KT 10SM CLR M02/M12 A3046 370 48 -1600 020/12 RMK AO2 SLP327 T10221117
14837KMSN MSN20060318095509603/18/06 09:55:31  5-MIN KMSN 181555Z 01010KT 10SM CLR M02/M11 A3046 370 51 -1600 010/10 RMK AO2
14837KMSN MSN20060318100009603/18/06 10:00:31  5-MIN KMSN 181600Z 01011KT 10SM CLR M02/M11 A3046 370 51 -1600 010/11 RMK AO2
14837KMSN MSN20060318100509603/18/06 10:05:31  5-MIN KMSN 181605Z 02012KT 10SM CLR M02/M11 A3046 370 51 -1600 020/12 RMK AO2
14837KMSN MSN20060318101009603/18/06 10:10:31  5-MIN KMSN 181610Z 02011KT 10SM CLR M02/M11 A3046 370 49 -1500 020/11 RMK AO2
14837KMSN MSN20060318101509603/18/06 10:15:31  5-MIN KMSN 181615Z 02007KT 10SM CLR M02/M11 A3046 370 49 -1500 020/07 RMK AO2
14837KMSN MSN20060318102009603/18/06 10:20:31  5-MIN KMSN 181620Z 02007KT 10SM CLR M02/M11 A3046 370 49 -1500 010/07 RMK AO2
14837KMSN MSN20060318102509603/18/06 10:25:31  5-MIN KMSN 181625Z 02011KT 10SM CLR M02/M11 A3046 370 51 -1500 020/11 RMK AO2
14837KMSN MSN20060318103009603/18/06 10:30:31  5-MIN KMSN 181630Z 02007KT 10SM CLR M02/M11 A3046 370 49 -1500 020/07 RMK AO2
14837KMSN MSN20060318103510203/18/06 10:35:31  5-MIN KMSN 181635Z 35008G15KT 10SM CLR M01/M11 A3046 370 47 -1400 350/08G15 RMK AO2
14837KMSN MSN20060318104010203/18/06 10:40:31  5-MIN KMSN 181640Z 36009G15KT 10SM CLR M01/M11 A3046 370 47 -1400 360/09G15 RMK AO2
14837KMSN MSN20060318104509603/18/06 10:45:31  5-MIN KMSN 181645Z 35007KT 10SM CLR M01/M12 A3046 370 45 -1400 340/07 RMK AO2
14837KMSN MSN20060318105011303/18/06 10:50:31  5-MIN KMSN 181650Z 32006KT 10SM CLR M01/M12 A3047 360 45 -1400 320/06 RMK AO2 SLP328 T10111117
14837KMSN MSN20060318105509603/18/06 10:55:31  5-MIN KMSN 181655Z 31007KT 10SM CLR M02/M11 A3047 360 49 -1500 310/07 RMK AO2
14837KMSN MSN20060318110009603/18/06 11:00:31  5-MIN KMSN 181700Z VRB06KT 10SM CLR M01/M11 A3046 370 47 -1400 VRB/06 RMK AO2
14837KMSN MSN20060318110509603/18/06 11:05:31  5-MIN KMSN 181705Z 35007KT 10SM CLR M01/M11 A3046 370 47 -1400 340/07 RMK AO2
14837KMSN MSN20060318111009603/18/06 11:10:31  5-MIN KMSN 181710Z 33007KT 10SM CLR M01/M11 A3046 370 47 -1400 330/07 RMK AO2
14837KMSN MSN20060318111509603/18/06 11:15:31  5-MIN KMSN 181715Z 33007KT 10SM CLR M01/M12 A3046 370 45 -1400 330/07 RMK AO2
14837KMSN MSN20060318112009603/18/06 11:20:31  5-MIN KMSN 181720Z 35008KT 10SM CLR M01/M11 A3046 370 45 -1400 350/08 RMK AO2
14837KMSN MSN20060318112509503/18/06 11:25:31  5-MIN KMSN 181725Z 34009KT 10SM CLR 00/M11 A3046 370 43 -1300 340/09 RMK AO2
14837KMSN MSN20060318113009503/18/06 11:30:31  5-MIN KMSN 181730Z 36008KT 10SM CLR 00/M11 A3046 370 43 -1300 360/08 RMK AO2
14837KMSN MSN20060318113509603/18/06 11:35:31  5-MIN KMSN 181735Z 31008KT 10SM CLR M01/M11 A3045 370 45 -1300 310/08 RMK AO2
14837KMSN MSN20060318114009603/18/06 11:40:31  5-MIN KMSN 181740Z 30007KT 10SM CLR M01/M11 A3046 370 45 -1400 300/07 RMK AO2
14837KMSN MSN20060318114509603/18/06 11:45:31  5-MIN KMSN 181745Z 35007KT 10SM CLR M01/M12 A3045 370 43 -1300 350/07 RMK AO2
14837KMSN MSN20060318115013103/18/06 11:50:31  5-MIN KMSN 181750Z 31007KT 10SM CLR M01/M12 A3045 380 43 -1300 310/07 RMK AO2 SLP324 T10061117 10000 21072 50005
14837KMSN MSN20060318115509503/18/06 11:55:31  5-MIN KMSN 181755Z 34007KT 10SM CLR 00/M12 A3045 380 39 -1300 340/07 RMK AO2
14837KMSN MSN20060318120009503/18/06 12:00:31  5-MIN KMSN 181800Z 33006KT 10SM CLR 00/M12 A3045 380 39 -1300 330/06 RMK AO2
14837KMSN MSN20060318120509503/18/06 12:05:31  5-MIN KMSN 181805Z 34008KT 10SM CLR 01/M12 A3045 380 39 -1200 340/08 RMK AO2
14837KMSN MSN20060318121011103/18/06 12:10:31  5-MIN KMSN 181810Z 28007KT 260V330 10SM CLR 01/M12 A3045 380 38 -1200 280/07 260V330 RMK AO2
14837KMSN MSN20060318121509503/18/06 12:15:31  5-MIN KMSN 181815Z 29005KT 10SM CLR 00/M12 A3044 380 39 -1300 290/05 RMK AO2
14837KMSN MSN20060318122009503/18/06 12:20:31  5-MIN KMSN 181820Z 32008KT 10SM CLR 00/M12 A3044 380 39 -1300 320/08 RMK AO2
14837KMSN MSN20060318122509503/18/06 12:25:31  5-MIN KMSN 181825Z 33006KT 10SM CLR 01/M12 A3044 390 38 -1200 330/06 RMK AO2
14837KMSN MSN20060318123009503/18/06 12:30:31  5-MIN KMSN 181830Z 32006KT 10SM CLR 01/M12 A3044 390 38 -1200 310/06 RMK AO2
14837KMSN MSN20060318123509503/18/06 12:35:31  5-MIN KMSN 181835Z 34006KT 10SM CLR 01/M12 A3044 390 38 -1200 340/06 RMK AO2
14837KMSN MSN20060318124009503/18/06 12:40:31  5-MIN KMSN 181840Z 32007KT 10SM CLR 01/M12 A3043 390 38 -1200 320/07 RMK AO2
14837KMSN MSN20060318124509503/18/06 12:45:31  5-MIN KMSN 181845Z 32009KT 10SM CLR 01/M13 A3043 390 36 -1200 320/09 RMK AO2
14837KMSN MSN20060318125011203/18/06 12:50:31  5-MIN KMSN 181850Z VRB05KT 10SM CLR 01/M12 A3043 400 36 -1100 VRB/05 RMK AO2 SLP316 T00111122
14837KMSN MSN20060318125511103/18/06 12:55:31  5-MIN KMSN 181855Z 34008KT 300V360 10SM CLR 01/M13 A3043 400 35 -1100 330/08 300V360 RMK AO2
14837KMSN MSN20060318130009503/18/06 13:00:31  5-MIN KMSN 181900Z 33009KT 10SM CLR 01/M13 A3042 400 35 -1100 330/09 RMK AO2
14837KMSN MSN20060318130509503/18/06 13:05:31  5-MIN KMSN 181905Z 32010KT 10SM CLR 01/M13 A3042 410 35 -1100 320/10 RMK AO2
14837KMSN MSN20060318131009503/18/06 13:10:31  5-MIN KMSN 181910Z 33010KT 10SM CLR 01/M13 A3041 410 35 -1100 330/10 RMK AO2
14837KMSN MSN20060318131509503/18/06 13:15:31  5-MIN KMSN 181915Z 35007KT 10SM CLR 02/M12 A3041 420 35 -1000 350/07 RMK AO2
14837KMSN MSN20060318132009503/18/06 13:20:31  5-MIN KMSN 181920Z 32008KT 10SM CLR 02/M12 A3040 420 35 -1000 320/08 RMK AO2
14837KMSN MSN20060318132509503/18/06 13:25:31  5-MIN KMSN 181925Z 32008KT 10SM CLR 02/M13 A3040 420 33 -1000 320/08 RMK AO2
14837KMSN MSN20060318133009503/18/06 13:30:31  5-MIN KMSN 181930Z 34008KT 10SM CLR 02/M12 A3040 420 35 -1000 340/08 RMK AO2
14837KMSN MSN20060318133509503/18/06 13:35:31  5-MIN KMSN 181935Z 34007KT 10SM CLR 02/M13 A3040 430 33 -1000 340/07 RMK AO2
14837KMSN MSN20060318134009503/18/06 13:40:31  5-MIN KMSN 181940Z 34006KT 10SM CLR 02/M12 A3039 430 35 -1000 340/06 RMK AO2
14837KMSN MSN20060318134509403/18/06 13:45:31  5-MIN KMSN 181945Z 35009KT 10SM CLR 02/M12 A3039 430 35 -900 350/09 RMK AO2
14837KMSN MSN20060318135011103/18/06 13:50:31  5-MIN KMSN 181950Z 34010KT 10SM CLR 02/M12 A3039 430 33 -900 340/10 RMK AO2 SLP302 T00221122
14837KMSN MSN20060318135509503/18/06 13:55:31  5-MIN KMSN 181955Z 32008KT 10SM CLR 02/M13 A3039 430 33 -1000 320/08 RMK AO2
14837KMSN MSN20060318140011003/18/06 14:00:31  5-MIN KMSN 182000Z 33008KT 290V360 10SM CLR 02/M12 A3038 440 33 -900 330/08 290V360 RMK AO2
14837KMSN MSN20060318140509403/18/06 14:05:31  5-MIN KMSN 182005Z 36008KT 10SM CLR 02/M12 A3038 440 33 -900 360/08 RMK AO2
14837KMSN MSN20060318141009403/18/06 14:10:31  5-MIN KMSN 182010Z 35011KT 10SM CLR 03/M12 A3038 440 34 -800 340/11 RMK AO2
14837KMSN MSN20060318141509403/18/06 14:15:31  5-MIN KMSN 182015Z 33008KT 10SM CLR 02/M12 A3038 440 33 -900 330/08 RMK AO2
14837KMSN MSN20060318142009403/18/06 14:20:31  5-MIN KMSN 182020Z 35009KT 10SM CLR 02/M13 A3037 450 32 -900 350/09 RMK AO2
14837KMSN MSN20060318142509403/18/06 14:25:31  5-MIN KMSN 182025Z 35009KT 10SM CLR 03/M12 A3037 450 32 -800 350/09 RMK AO2
14837KMSN MSN20060318143009403/18/06 14:30:31  5-MIN KMSN 182030Z 35009KT 10SM CLR 03/M13 A3037 450 31 -800 350/09 RMK AO2
14837KMSN MSN20060318143509403/18/06 14:35:31  5-MIN KMSN 182035Z 36010KT 10SM CLR 03/M12 A3037 450 32 -800 360/10 RMK AO2
14837KMSN MSN20060318144009403/18/06 14:40:31  5-MIN KMSN 182040Z 34009KT 10SM CLR 03/M12 A3037 450 32 -800 330/09 RMK AO2
14837KMSN MSN20060318144509403/18/06 14:45:31  5-MIN KMSN 182045Z VRB03KT 10SM CLR 03/M12 A3037 450 32 -800 VRB/03 RMK AO2
14837KMSN MSN20060318145011703/18/06 14:50:31  5-MIN KMSN 182050Z 31008KT 10SM CLR 03/M12 A3037 450 32 -800 310/08 RMK AO2 SLP295 T00281122 58007
14837KMSN MSN20060318145511003/18/06 14:55:31  5-MIN KMSN 182055Z 32007KT 290V350 10SM CLR 03/M12 A3037 450 32 -800 320/07 290V350 RMK AO2
14837KMSN MSN20060318150009403/18/06 15:00:31  5-MIN KMSN 182100Z 36010KT 10SM CLR 03/M12 A3036 460 32 -800 360/10 RMK AO2
14837KMSN MSN20060318150509403/18/06 15:05:31  5-MIN KMSN 182105Z 35011KT 10SM CLR 03/M11 A3036 460 34 -800 350/11 RMK AO2
14837KMSN MSN20060318151009403/18/06 15:10:31  5-MIN KMSN 182110Z 32006KT 10SM CLR 03/M12 A3036 460 32 -800 320/06 RMK AO2
14837KMSN MSN20060318151509403/18/06 15:15:31  5-MIN KMSN 182115Z 31008KT 10SM CLR 03/M12 A3036 460 32 -800 310/08 RMK AO2
14837KMSN MSN20060318152009403/18/06 15:20:31  5-MIN KMSN 182120Z 31009KT 10SM CLR 03/M13 A3036 460 31 -800 310/09 RMK AO2
14837KMSN MSN20060318152509403/18/06 15:25:31  5-MIN KMSN 182125Z 33008KT 10SM CLR 03/M12 A3036 460 31 -800 330/08 RMK AO2
14837KMSN MSN20060318153009403/18/06 15:30:31  5-MIN KMSN 182130Z 35008KT 10SM CLR 03/M12 A3035 470 31 -700 350/08 RMK AO2
14837KMSN MSN20060318153511003/18/06 15:35:31  5-MIN KMSN 182135Z 34008KT 320V020 10SM CLR 03/M12 A3035 470 31 -700 340/08 320V020 RMK AO2
14837KMSN MSN20060318154009403/18/06 15:40:31  5-MIN KMSN 182140Z VRB06KT 10SM CLR 03/M12 A3035 470 31 -700 VRB/06 RMK AO2
14837KMSN MSN20060318154509403/18/06 15:45:31  5-MIN KMSN 182145Z 33006KT 10SM CLR 03/M12 A3035 470 31 -700 330/06 RMK AO2
14837KMSN MSN20060318155011103/18/06 15:50:31  5-MIN KMSN 182150Z 33011KT 10SM CLR 03/M12 A3035 470 32 -700 330/11 RMK AO2 SLP290 T00331117
14837KMSN MSN20060318155509403/18/06 15:55:31  5-MIN KMSN 182155Z 34006KT 10SM CLR 03/M12 A3035 470 31 -700 340/06 RMK AO2
14837KMSN MSN20060318160009403/18/06 16:00:31  5-MIN KMSN 182200Z 31006KT 10SM CLR 03/M12 A3035 470 31 -700 310/06 RMK AO2
14837KMSN MSN20060318160509403/18/06 16:05:31  5-MIN KMSN 182205Z 31008KT 10SM CLR 03/M12 A3035 470 32 -700 310/08 RMK AO2
14837KMSN MSN20060318161009403/18/06 16:10:31  5-MIN KMSN 182210Z 33004KT 10SM CLR 03/M12 A3035 470 34 -800 330/04 RMK AO2
14837KMSN MSN20060318161509403/18/06 16:15:31  5-MIN KMSN 182215Z 30008KT 10SM CLR 03/M12 A3035 470 32 -700 300/08 RMK AO2
14837KMSN MSN20060318162009403/18/06 16:20:31  5-MIN KMSN 182220Z 30007KT 10SM CLR 03/M12 A3035 470 32 -800 300/07 RMK AO2
14837KMSN MSN20060318162509403/18/06 16:25:31  5-MIN KMSN 182225Z 29009KT 10SM CLR 03/M12 A3035 470 32 -700 290/09 RMK AO2
14837KMSN MSN20060318163009403/18/06 16:30:31  5-MIN KMSN 182230Z VRB05KT 10SM CLR 03/M12 A3035 470 32 -800 VRB/05 RMK AO2
14837KMSN MSN20060318163509403/18/06 16:35:31  5-MIN KMSN 182235Z 31007KT 10SM CLR 03/M12 A3035 470 32 -700 310/07 RMK AO2
14837KMSN MSN20060318164009403/18/06 16:40:31  5-MIN KMSN 182240Z 29005KT 10SM CLR 03/M12 A3035 470 34 -800 290/05 RMK AO2
14837KMSN MSN20060318164509403/18/06 16:45:31  5-MIN KMSN 182245Z 30005KT 10SM CLR 03/M12 A3035 470 32 -800 300/05 RMK AO2
14837KMSN MSN20060318165011103/18/06 16:50:31  5-MIN KMSN 182250Z 29009KT 10SM CLR 03/M12 A3035 470 32 -800 290/09 RMK AO2 SLP291 T00281122
14837KMSN MSN20060318165509403/18/06 16:55:31  5-MIN KMSN 182255Z 31007KT 10SM CLR 03/M12 A3035 470 32 -800 310/07 RMK AO2
14837KMSN MSN20060318170009403/18/06 17:00:31  5-MIN KMSN 182300Z 30007KT 10SM CLR 03/M13 A3035 470 31 -800 290/07 RMK AO2
14837KMSN MSN20060318170509403/18/06 17:05:31  5-MIN KMSN 182305Z 31007KT 10SM CLR 03/M13 A3035 470 31 -800 310/07 RMK AO2
14837KMSN MSN20060318171009403/18/06 17:10:31  5-MIN KMSN 182310Z 30005KT 10SM CLR 03/M13 A3035 470 31 -800 300/05 RMK AO2
14837KMSN MSN20060318171509403/18/06 17:15:31  5-MIN KMSN 182315Z 32005KT 10SM CLR 03/M13 A3035 470 31 -800 310/05 RMK AO2
14837KMSN MSN20060318172009403/18/06 17:20:31  5-MIN KMSN 182320Z 31006KT 10SM CLR 03/M12 A3036 460 32 -800 310/06 RMK AO2
14837KMSN MSN20060318172509403/18/06 17:25:31  5-MIN KMSN 182325Z 31007KT 10SM CLR 03/M12 A3036 460 32 -800 310/07 RMK AO2
14837KMSN MSN20060318173009403/18/06 17:30:31  5-MIN KMSN 182330Z 31005KT 10SM CLR 03/M12 A3035 470 32 -800 310/05 RMK AO2
14837KMSN MSN20060318173509403/18/06 17:35:31  5-MIN KMSN 182335Z VRB04KT 10SM CLR 03/M12 A3036 460 32 -800 VRB/04 RMK AO2
14837KMSN MSN20060318174009403/18/06 17:40:31  5-MIN KMSN 182340Z 29004KT 10SM CLR 02/M12 A3035 460 33 -900 290/04 RMK AO2
14837KMSN MSN20060318174509403/18/06 17:45:31  5-MIN KMSN 182345Z 29004KT 10SM CLR 02/M12 A3035 470 35 -900 290/04 RMK AO2
14837KMSN MSN20060318175012903/18/06 17:50:31  5-MIN KMSN 182350Z 31006KT 10SM CLR 02/M12 A3035 470 35 -900 310/06 RMK AO2 SLP291 T00221117 10033 20000 58027
14837KMSN MSN20060318180509503/18/06 18:05:31  5-MIN KMSN 190005Z 30003KT 10SM CLR 02/M12 A3035 470 36 -1000 300/03 RMK AO2
14837KMSN MSN20060318181009503/18/06 18:10:31  5-MIN KMSN 190010Z 30003KT 10SM CLR 02/M12 A3035 470 36 -1000 300/03 RMK AO2
14837KMSN MSN20060318181509503/18/06 18:15:31  5-MIN KMSN 190015Z 30004KT 10SM CLR 01/M12 A3035 470 38 -1000 290/04 RMK AO2
14837KMSN MSN20060318182009503/18/06 18:20:31  5-MIN KMSN 190020Z 29004KT 10SM CLR 01/M11 A3035 470 40 -1000 290/04 RMK AO2
14837KMSN MSN20060318182509503/18/06 18:25:31  5-MIN KMSN 190025Z 29003KT 10SM CLR 01/M10 A3035 470 45 -1100 290/03 RMK AO2
14837KMSN MSN20060318183009503/18/06 18:30:31  5-MIN KMSN 190030Z 29003KT 10SM CLR 01/M09 A3035 470 47 -1100 290/03 RMK AO2
14837KMSN MSN20060318183509503/18/06 18:35:31  5-MIN KMSN 190035Z 29004KT 10SM CLR 00/M09 A3035 470 49 -1200 290/04 RMK AO2
14837KMSN MSN20060318184009503/18/06 18:40:31  5-MIN KMSN 190040Z 29004KT 10SM CLR 00/M11 A3035 470 45 -1200 290/04 RMK AO2
14837KMSN MSN20060318184509603/18/06 18:45:31  5-MIN KMSN 190045Z 29004KT 10SM CLR M01/M10 A3035 470 49 -1200 290/04 RMK AO2
14837KMSN MSN20060318185011303/18/06 18:50:31  5-MIN KMSN 190050Z 29003KT 10SM CLR M01/M09 A3035 470 51 -1200 290/03 RMK AO2 SLP292 T10061094
14837KMSN MSN20060318185509603/18/06 18:55:31  5-MIN KMSN 190055Z 28003KT 10SM CLR M01/M09 A3036 460 53 -1200 280/03 RMK AO2
14837KMSN MSN20060318190009603/18/06 19:00:31  5-MIN KMSN 190100Z VRB03KT 10SM CLR M01/M09 A3035 460 51 -1200 VRB/03 RMK AO2
14837KMSN MSN20060318190509603/18/06 19:05:31  5-MIN KMSN 190105Z 28003KT 10SM CLR M01/M09 A3035 460 51 -1200 280/03 RMK AO2
14837KMSN MSN20060318191009603/18/06 19:10:31  5-MIN KMSN 190110Z 29003KT 10SM CLR M01/M09 A3035 470 51 -1200 290/03 RMK AO2
14837KMSN MSN20060318191509603/18/06 19:15:31  5-MIN KMSN 190115Z 28003KT 10SM CLR M01/M09 A3035 470 51 -1200 280/03 RMK AO2
14837KMSN MSN20060318192009603/18/06 19:20:31  5-MIN KMSN 190120Z 29003KT 10SM CLR M01/M09 A3035 470 53 -1300 290/03 RMK AO2
14837KMSN MSN20060318192509603/18/06 19:25:31  5-MIN KMSN 190125Z 31003KT 10SM CLR M01/M10 A3035 460 51 -1300 300/03 RMK AO2
14837KMSN MSN20060318193009603/18/06 19:30:31  5-MIN KMSN 190130Z 31003KT 10SM CLR M01/M11 A3036 460 49 -1300 310/03 RMK AO2
14837KMSN MSN20060318193509603/18/06 19:35:31  5-MIN KMSN 190135Z 30005KT 10SM CLR M01/M11 A3036 460 47 -1200 300/05 RMK AO2
14837KMSN MSN20060318194009603/18/06 19:40:31  5-MIN KMSN 190140Z 30004KT 10SM CLR M01/M11 A3036 460 47 -1200 300/04 RMK AO2
14837KMSN MSN20060318194509603/18/06 19:45:31  5-MIN KMSN 190145Z 31004KT 10SM CLR M01/M11 A3036 460 49 -1300 310/04 RMK AO2
14837KMSN MSN20060318195011303/18/06 19:50:31  5-MIN KMSN 190150Z 32006KT 10SM CLR M01/M11 A3036 460 47 -1200 320/06 RMK AO2 SLP292 T10061106
14837KMSN MSN20060318195509603/18/06 19:55:31  5-MIN KMSN 190155Z 33006KT 10SM CLR M01/M11 A3036 460 45 -1200 330/06 RMK AO2
14837KMSN MSN20060318200009603/18/06 20:00:31  5-MIN KMSN 190200Z 32006KT 10SM CLR M01/M11 A3036 460 45 -1200 320/06 RMK AO2
14837KMSN MSN20060318200509603/18/06 20:05:31  5-MIN KMSN 190205Z 32005KT 10SM CLR M01/M11 A3036 460 45 -1200 320/05 RMK AO2
14837KMSN MSN20060318201009603/18/06 20:10:31  5-MIN KMSN 190210Z 31004KT 10SM CLR M01/M11 A3036 460 45 -1200 310/04 RMK AO2
14837KMSN MSN20060318201509603/18/06 20:15:31  5-MIN KMSN 190215Z 32004KT 10SM CLR M01/M11 A3036 460 45 -1200 320/04 RMK AO2
14837KMSN MSN20060318202009603/18/06 20:20:31  5-MIN KMSN 190220Z 32005KT 10SM CLR M01/M11 A3037 450 45 -1200 320/05 RMK AO2
14837KMSN MSN20060318202509603/18/06 20:25:31  5-MIN KMSN 190225Z 32005KT 10SM CLR M01/M11 A3037 450 45 -1300 320/05 RMK AO2
14837KMSN MSN20060318203009603/18/06 20:30:31  5-MIN KMSN 190230Z 32005KT 10SM CLR M01/M11 A3037 450 47 -1300 320/05 RMK AO2
14837KMSN MSN20060318203509603/18/06 20:35:31  5-MIN KMSN 190235Z 32005KT 10SM CLR M01/M11 A3037 450 47 -1300 320/05 RMK AO2
14837KMSN MSN20060318204009603/18/06 20:40:31  5-MIN KMSN 190240Z 33005KT 10SM CLR M01/M11 A3037 450 49 -1300 330/05 RMK AO2
14837KMSN MSN20060318204509603/18/06 20:45:31  5-MIN KMSN 190245Z 33005KT 10SM CLR M01/M11 A3037 450 49 -1300 330/05 RMK AO2
14837KMSN MSN20060318205011903/18/06 20:50:31  5-MIN KMSN 190250Z 33006KT 10SM CLR M01/M11 A3037 450 47 -1300 330/06 RMK AO2 SLP298 T10111111 56005
14837KMSN MSN20060318205509603/18/06 20:55:31  5-MIN KMSN 190255Z 34006KT 10SM CLR M01/M11 A3037 450 49 -1300 340/06 RMK AO2
14837KMSN MSN20060318210009603/18/06 21:00:31  5-MIN KMSN 190300Z 34006KT 10SM CLR M01/M11 A3037 450 49 -1300 340/06 RMK AO2
14837KMSN MSN20060318210509603/18/06 21:05:31  5-MIN KMSN 190305Z 34006KT 10SM CLR M02/M11 A3037 450 51 -1400 340/06 RMK AO2
14837KMSN MSN20060318211009603/18/06 21:10:31  5-MIN KMSN 190310Z 34006KT 10SM CLR M02/M11 A3037 450 51 -1400 340/06 RMK AO2
14837KMSN MSN20060318211509603/18/06 21:15:31  5-MIN KMSN 190315Z 34006KT 10SM CLR M01/M11 A3037 450 49 -1300 340/06 RMK AO2
14837KMSN MSN20060318212009603/18/06 21:20:31  5-MIN KMSN 190320Z 34006KT 10SM CLR M01/M11 A3037 450 47 -1300 330/06 RMK AO2
14837KMSN MSN20060318212509603/18/06 21:25:31  5-MIN KMSN 190325Z 34006KT 10SM CLR M01/M11 A3037 450 47 -1300 340/06 RMK AO2
14837KMSN MSN20060318213009603/18/06 21:30:31  5-MIN KMSN 190330Z 34006KT 10SM CLR M02/M11 A3037 450 49 -1400 340/06 RMK AO2
14837KMSN MSN20060318213509603/18/06 21:35:31  5-MIN KMSN 190335Z 33006KT 10SM CLR M01/M11 A3037 450 47 -1300 330/06 RMK AO2
14837KMSN MSN20060318214009603/18/06 21:40:31  5-MIN KMSN 190340Z 33006KT 10SM CLR M01/M11 A3037 450 47 -1300 330/06 RMK AO2
14837KMSN MSN20060318214509603/18/06 21:45:31  5-MIN KMSN 190345Z 33006KT 10SM CLR M02/M11 A3037 450 49 -1400 330/06 RMK AO2
14837KMSN MSN20060318215011303/18/06 21:50:31  5-MIN KMSN 190350Z 34006KT 10SM CLR M02/M11 A3037 450 49 -1400 340/06 RMK AO2 SLP294 T10171111
14837KMSN MSN20060318215509603/18/06 21:55:31  5-MIN KMSN 190355Z 34007KT 10SM CLR M02/M11 A3036 460 49 -1400 340/07 RMK AO2
14837KMSN MSN20060318220009603/18/06 22:00:31  5-MIN KMSN 190400Z 34007KT 10SM CLR M02/M11 A3036 460 49 -1400 340/07 RMK AO2
14837KMSN MSN20060318220509603/18/06 22:05:31  5-MIN KMSN 190405Z 34007KT 10SM CLR M02/M11 A3036 460 49 -1400 340/07 RMK AO2
14837KMSN MSN20060318221009603/18/06 22:10:31  5-MIN KMSN 190410Z 34008KT 10SM CLR M02/M11 A3036 460 49 -1400 340/08 RMK AO2
14837KMSN MSN20060318221509603/18/06 22:15:31  5-MIN KMSN 190415Z 33007KT 10SM CLR M02/M11 A3036 460 49 -1400 330/07 RMK AO2
14837KMSN MSN20060318222009603/18/06 22:20:31  5-MIN KMSN 190420Z 33006KT 10SM CLR M01/M11 A3037 450 47 -1300 330/06 RMK AO2
14837KMSN MSN20060318222509603/18/06 22:25:31  5-MIN KMSN 190425Z 34007KT 10SM CLR M01/M11 A3037 450 47 -1300 340/07 RMK AO2
14837KMSN MSN20060318223009603/18/06 22:30:31  5-MIN KMSN 190430Z 34006KT 10SM CLR M02/M11 A3037 460 49 -1400 340/06 RMK AO2
14837KMSN MSN20060318223509603/18/06 22:35:31  5-MIN KMSN 190435Z 33006KT 10SM CLR M02/M11 A3037 460 49 -1400 330/06 RMK AO2
14837KMSN MSN20060318224009603/18/06 22:40:31  5-MIN KMSN 190440Z 34006KT 10SM CLR M02/M11 A3037 450 49 -1400 330/06 RMK AO2
14837KMSN MSN20060318224509603/18/06 22:45:31  5-MIN KMSN 190445Z 34007KT 10SM CLR M02/M11 A3037 450 49 -1400 340/07 RMK AO2
14837KMSN MSN20060318225011303/18/06 22:50:31  5-MIN KMSN 190450Z 34008KT 10SM CLR M02/M11 A3037 450 49 -1400 340/08 RMK AO2 SLP295 T10171111
14837KMSN MSN20060318225509603/18/06 22:55:31  5-MIN KMSN 190455Z 35007KT 10SM CLR M02/M11 A3037 450 49 -1400 350/07 RMK AO2
14837KMSN MSN20060318230009603/18/06 23:00:31  5-MIN KMSN 190500Z 34006KT 10SM CLR M03/M11 A3037 450 53 -1500 340/06 RMK AO2
14837KMSN MSN20060318230509603/18/06 23:05:31  5-MIN KMSN 190505Z 34006KT 10SM CLR M02/M11 A3037 450 51 -1500 340/06 RMK AO2
14837KMSN MSN20060318231009603/18/06 23:10:31  5-MIN KMSN 190510Z 34007KT 10SM CLR M02/M11 A3037 450 51 -1500 340/07 RMK AO2
14837KMSN MSN20060318231509603/18/06 23:15:31  5-MIN KMSN 190515Z 35006KT 10SM CLR M02/M11 A3037 450 51 -1500 350/06 RMK AO2
14837KMSN MSN20060318232009603/18/06 23:20:31  5-MIN KMSN 190520Z 35007KT 10SM CLR M02/M11 A3037 450 51 -1500 350/07 RMK AO2
14837KMSN MSN20060318232509603/18/06 23:25:31  5-MIN KMSN 190525Z 35007KT 10SM CLR M03/M11 A3037 450 55 -1500 350/07 RMK AO2
14837KMSN MSN20060318233009603/18/06 23:30:31  5-MIN KMSN 190530Z 35008KT 10SM CLR M03/M11 A3037 450 55 -1500 350/08 RMK AO2
14837KMSN MSN20060318233509603/18/06 23:35:31  5-MIN KMSN 190535Z 35008KT 10SM CLR M03/M11 A3037 450 55 -1500 350/08 RMK AO2
14837KMSN MSN20060318234009603/18/06 23:40:31  5-MIN KMSN 190540Z 34008KT 10SM CLR M02/M11 A3037 450 53 -1500 340/08 RMK AO2
14837KMSN MSN20060318234509603/18/06 23:45:31  5-MIN KMSN 190545Z 35009KT 10SM CLR M02/M11 A3037 450 53 -1500 340/09 RMK AO2
14837KMSN MSN20060318235014103/18/06 23:50:31  5-MIN KMSN 190550Z 35009KT 10SM CLR M02/M11 A3038 450 53 -1500 340/09 RMK AO2 SLP298 T10221106 10022 21028 400331072 53006
14837KMSN MSN20060318235509603/18/06 23:55:31  5-MIN KMSN 190555Z 35007KT 10SM CLR M02/M11 A3038 450 53 -1500 340/07 RMK AO2
14837KMSN MSN20060319000009603/19/06 00:00:38  5-MIN KMSN 190600Z 35008KT 10SM CLR M03/M11 A3037 450 55 -1500 350/08 RMK AO2
14837KMSN MSN20060319000509603/19/06 00:05:31  5-MIN KMSN 190605Z 35008KT 10SM CLR M03/M11 A3037 450 55 -1500 350/08 RMK AO2
14837KMSN MSN20060319001009603/19/06 00:10:31  5-MIN KMSN 190610Z 36008KT 10SM CLR M03/M11 A3037 450 57 -1600 350/08 RMK AO2
14837KMSN MSN20060319001509603/19/06 00:15:32  5-MIN KMSN 190615Z 36008KT 10SM CLR M04/M11 A3037 450 60 -1700 360/08 RMK AO2
14837KMSN MSN20060319002009603/19/06 00:20:31  5-MIN KMSN 190620Z 36008KT 10SM CLR M04/M11 A3037 450 60 -1700 350/08 RMK AO2
14837KMSN MSN20060319002509603/19/06 00:25:31  5-MIN KMSN 190625Z 36008KT 10SM CLR M04/M11 A3037 450 60 -1700 350/08 RMK AO2
14837KMSN MSN20060319003009603/19/06 00:30:31  5-MIN KMSN 190630Z 36008KT 10SM CLR M04/M11 A3037 450 60 -1700 360/08 RMK AO2
14837KMSN MSN20060319003509603/19/06 00:35:31  5-MIN KMSN 190635Z 36008KT 10SM CLR M04/M11 A3037 450 60 -1700 360/08 RMK AO2
14837KMSN MSN20060319004009603/19/06 00:40:31  5-MIN KMSN 190640Z 36008KT 10SM CLR M04/M11 A3038 450 60 -1700 360/08 RMK AO2
14837KMSN MSN20060319004509603/19/06 00:45:31  5-MIN KMSN 190645Z 36008KT 10SM CLR M03/M11 A3038 440 57 -1600 360/08 RMK AO2
14837KMSN MSN20060319005011303/19/06 00:50:31  5-MIN KMSN 190650Z 01008KT 10SM CLR M04/M11 A3038 440 60 -1700 010/08 RMK AO2 SLP298 T10391106
14837KMSN MSN20060319005509603/19/06 00:55:31  5-MIN KMSN 190655Z 01009KT 10SM CLR M04/M11 A3038 440 60 -1700 010/09 RMK AO2
14837KMSN MSN20060319010009603/19/06 01:00:31  5-MIN KMSN 190700Z 36005KT 10SM CLR M04/M11 A3038 440 60 -1700 350/05 RMK AO2
14837KMSN MSN20060319010509603/19/06 01:05:31  5-MIN KMSN 190705Z 35003KT 10SM CLR M04/M11 A3038 440 60 -1700 350/03 RMK AO2
14837KMSN MSN20060319011009603/19/06 01:10:31  5-MIN KMSN 190710Z 35003KT 10SM CLR M03/M11 A3038 440 57 -1600 350/03 RMK AO2
14837KMSN MSN20060319011509603/19/06 01:15:31  5-MIN KMSN 190715Z 35004KT 10SM CLR M04/M11 A3038 440 60 -1700 350/04 RMK AO2
14837KMSN MSN20060319012009603/19/06 01:20:31  5-MIN KMSN 190720Z 35005KT 10SM CLR M04/M11 A3038 440 60 -1700 350/05 RMK AO2
14837KMSN MSN20060319012509603/19/06 01:25:31  5-MIN KMSN 190725Z 36005KT 10SM CLR M04/M11 A3038 440 60 -1700 360/05 RMK AO2
14837KMSN MSN20060319013009603/19/06 01:30:31  5-MIN KMSN 190730Z 36004KT 10SM CLR M04/M11 A3038 440 60 -1700 350/04 RMK AO2
14837KMSN MSN20060319013509603/19/06 01:35:31  5-MIN KMSN 190735Z 36004KT 10SM CLR M04/M11 A3038 440 60 -1700 360/04 RMK AO2
14837KMSN MSN20060319014009603/19/06 01:40:31  5-MIN KMSN 190740Z 36005KT 10SM CLR M04/M11 A3038 440 62 -1800 360/05 RMK AO2
14837KMSN MSN20060319014509603/19/06 01:45:31  5-MIN KMSN 190745Z 36006KT 10SM CLR M04/M11 A3038 440 62 -1800 360/06 RMK AO2
14837KMSN MSN20060319015011303/19/06 01:50:31  5-MIN KMSN 190750Z 01007KT 10SM CLR M05/M11 A3037 450 65 -1800 010/07 RMK AO2 SLP297 T10501106
14837KMSN MSN20060319015509603/19/06 01:55:31  5-MIN KMSN 190755Z 36007KT 10SM CLR M05/M11 A3037 450 65 -1800 360/07 RMK AO2
14837KMSN MSN20060319020009603/19/06 02:00:31  5-MIN KMSN 190800Z 01008KT 10SM CLR M05/M11 A3037 450 65 -1800 360/08 RMK AO2
14837KMSN MSN20060319020509603/19/06 02:05:31  5-MIN KMSN 190805Z 01008KT 10SM CLR M06/M11 A3037 450 68 -1900 010/08 RMK AO2
14837KMSN MSN20060319021009603/19/06 02:10:31  5-MIN KMSN 190810Z 01009KT 10SM CLR M05/M11 A3036 460 65 -1800 010/09 RMK AO2
14837KMSN MSN20060319021509603/19/06 02:15:31  5-MIN KMSN 190815Z 01009KT 10SM CLR M06/M11 A3036 460 68 -1900 010/09 RMK AO2
14837KMSN MSN20060319022009603/19/06 02:20:31  5-MIN KMSN 190820Z 01009KT 10SM CLR M06/M11 A3036 460 68 -1900 010/09 RMK AO2
14837KMSN MSN20060319022509603/19/06 02:25:31  5-MIN KMSN 190825Z 01009KT 10SM CLR M05/M11 A3035 470 65 -1800 010/09 RMK AO2
14837KMSN MSN20060319023009603/19/06 02:30:31  5-MIN KMSN 190830Z 01009KT 10SM CLR M06/M11 A3035 470 68 -1900 010/09 RMK AO2
14837KMSN MSN20060319023509603/19/06 02:35:31  5-MIN KMSN 190835Z 01009KT 10SM CLR M06/M11 A3035 470 68 -1900 010/09 RMK AO2
14837KMSN MSN20060319024009603/19/06 02:40:31  5-MIN KMSN 190840Z 01008KT 10SM CLR M06/M11 A3035 470 68 -1900 010/08 RMK AO2
14837KMSN MSN20060319024509603/19/06 02:45:31  5-MIN KMSN 190845Z 01008KT 10SM CLR M06/M11 A3035 470 65 -1900 010/08 RMK AO2
14837KMSN MSN20060319025011903/19/06 02:50:31  5-MIN KMSN 190850Z 01007KT 10SM CLR M06/M11 A3034 470 65 -1900 010/07 RMK AO2 SLP287 T10561111 53002
14837KMSN MSN20060319025509603/19/06 02:55:31  5-MIN KMSN 190855Z 36006KT 10SM CLR M06/M11 A3034 480 65 -1900 360/06 RMK AO2
14837KMSN MSN20060319030009603/19/06 03:00:31  5-MIN KMSN 190900Z 36005KT 10SM CLR M05/M11 A3034 480 62 -1800 360/05 RMK AO2
14837KMSN MSN20060319030509603/19/06 03:05:31  5-MIN KMSN 190905Z 36005KT 10SM CLR M05/M11 A3034 480 62 -1800 360/05 RMK AO2
14837KMSN MSN20060319031009603/19/06 03:10:31  5-MIN KMSN 190910Z 35004KT 10SM CLR M05/M11 A3034 480 62 -1800 350/04 RMK AO2
14837KMSN MSN20060319031509603/19/06 03:15:31  5-MIN KMSN 190915Z 33004KT 10SM CLR M06/M11 A3035 470 65 -1900 330/04 RMK AO2
14837KMSN MSN20060319032009603/19/06 03:20:31  5-MIN KMSN 190920Z 33004KT 10SM CLR M05/M11 A3035 470 62 -1800 320/04 RMK AO2
14837KMSN MSN20060319032509603/19/06 03:25:31  5-MIN KMSN 190925Z 33004KT 10SM CLR M06/M11 A3035 470 65 -1900 330/04 RMK AO2
14837KMSN MSN20060319033009603/19/06 03:30:31  5-MIN KMSN 190930Z 32003KT 10SM CLR M05/M11 A3035 470 62 -1800 320/03 RMK AO2
14837KMSN MSN20060319033509603/19/06 03:35:31  5-MIN KMSN 190935Z 33004KT 10SM CLR M06/M11 A3035 470 65 -1900 330/04 RMK AO2
14837KMSN MSN20060319034009603/19/06 03:40:31  5-MIN KMSN 190940Z 35004KT 10SM CLR M05/M12 A3035 470 60 -1800 340/04 RMK AO2
14837KMSN MSN20060319034509603/19/06 03:45:31  5-MIN KMSN 190945Z 34004KT 10SM CLR M05/M12 A3035 470 60 -1800 340/04 RMK AO2
14837KMSN MSN20060319035011303/19/06 03:50:31  5-MIN KMSN 190950Z 34005KT 10SM CLR M05/M12 A3035 470 60 -1800 340/05 RMK AO2 SLP290 T10501117
14837KMSN MSN20060319035509603/19/06 03:55:31  5-MIN KMSN 190955Z 33004KT 10SM CLR M05/M12 A3036 460 60 -1800 320/04 RMK AO2
14837KMSN MSN20060319040009603/19/06 04:00:31  5-MIN KMSN 191000Z 00000KT 10SM CLR M05/M12 A3036 460 60 -1800 000/00 RMK AO2
14837KMSN MSN20060319040509603/19/06 04:05:31  5-MIN KMSN 191005Z 25003KT 10SM CLR M05/M12 A3036 460 60 -1800 250/03 RMK AO2
14837KMSN MSN20060319041009603/19/06 04:10:31  5-MIN KMSN 191010Z 29003KT 10SM CLR M05/M12 A3036 460 60 -1800 290/03 RMK AO2
14837KMSN MSN20060319041509603/19/06 04:15:31  5-MIN KMSN 191015Z 33003KT 10SM CLR M06/M12 A3036 460 62 -1900 330/03 RMK AO2
14837KMSN MSN20060319042009603/19/06 04:20:31  5-MIN KMSN 191020Z 00000KT 10SM CLR M05/M12 A3036 460 57 -1800 000/00 RMK AO2
14837KMSN MSN20060319042509603/19/06 04:25:31  5-MIN KMSN 191025Z 00000KT 10SM CLR M05/M12 A3036 460 57 -1800 000/00 RMK AO2
14837KMSN MSN20060319043009603/19/06 04:30:31  5-MIN KMSN 191030Z 00000KT 10SM CLR M06/M12 A3036 460 62 -2000 000/00 RMK AO2
14837KMSN MSN20060319043509603/19/06 04:35:31  5-MIN KMSN 191035Z 00000KT 10SM CLR M06/M11 A3036 460 68 -2000 000/00 RMK AO2
14837KMSN MSN20060319044009603/19/06 04:40:31  5-MIN KMSN 191040Z 32004KT 10SM CLR M06/M11 A3036 460 68 -2000 320/04 RMK AO2
14837KMSN MSN20060319044509603/19/06 04:45:31  5-MIN KMSN 191045Z 32004KT 10SM CLR M06/M12 A3036 460 65 -2000 320/04 RMK AO2
14837KMSN MSN20060319045011303/19/06 04:50:31  5-MIN KMSN 191050Z 32004KT 10SM CLR M06/M12 A3036 460 62 -1900 320/04 RMK AO2 SLP293 T10561117
14837KMSN MSN20060319045509603/19/06 04:55:31  5-MIN KMSN 191055Z 33004KT 10SM CLR M06/M12 A3037 450 62 -1900 330/04 RMK AO2
14837KMSN MSN20060319050009603/19/06 05:00:31  5-MIN KMSN 191100Z 33005KT 10SM CLR M06/M12 A3037 450 62 -1900 320/05 RMK AO2
14837KMSN MSN20060319050509603/19/06 05:05:31  5-MIN KMSN 191105Z 31004KT 10SM CLR M06/M12 A3037 450 62 -1900 310/04 RMK AO2
14837KMSN MSN20060319051009603/19/06 05:10:31  5-MIN KMSN 191110Z 31004KT 10SM CLR M06/M12 A3037 450 62 -1900 310/04 RMK AO2
14837KMSN MSN20060319051509603/19/06 05:15:31  5-MIN KMSN 191115Z 30003KT 10SM CLR M06/M11 A3037 450 68 -2000 300/03 RMK AO2
14837KMSN MSN20060319052009603/19/06 05:20:31  5-MIN KMSN 191120Z 30003KT 10SM CLR M06/M11 A3037 450 68 -2000 300/03 RMK AO2
14837KMSN MSN20060319052509603/19/06 05:25:31  5-MIN KMSN 191125Z 30003KT 10SM CLR M06/M11 A3037 450 71 -2000 300/03 RMK AO2
14837KMSN MSN20060319053009603/19/06 05:30:31  5-MIN KMSN 191130Z 00000KT 10SM CLR M06/M11 A3037 450 68 -2000 000/00 RMK AO2
14837KMSN MSN20060319053509603/19/06 05:35:31  5-MIN KMSN 191135Z 00000KT 10SM CLR M06/M11 A3037 450 68 -2000 000/00 RMK AO2
14837KMSN MSN20060319054009603/19/06 05:40:31  5-MIN KMSN 191140Z 30003KT 10SM CLR M06/M11 A3037 450 68 -2000 300/03 RMK AO2
14837KMSN MSN20060319054509603/19/06 05:45:31  5-MIN KMSN 191145Z 00000KT 10SM CLR M06/M11 A3037 450 68 -2000 000/00 RMK AO2
14837KMSN MSN20060319055013103/19/06 05:50:31  5-MIN KMSN 191150Z 00000KT 10SM CLR M06/M11 A3037 450 68 -2000 000/00 RMK AO2 SLP297 T10611111 11022 21061 58011
14837KMSN MSN20060319055509603/19/06 05:55:31  5-MIN KMSN 191155Z 00000KT 10SM CLR M06/M11 A3037 450 68 -2000 000/00 RMK AO2
14837KMSN MSN20060319060009603/19/06 06:00:31  5-MIN KMSN 191200Z 00000KT 10SM CLR M06/M11 A3037 450 68 -2000 000/00 RMK AO2
14837KMSN MSN20060319144009403/19/06 14:40:31  5-MIN KMSN 192040Z 33008KT 10SM CLR 07/M10 A3029 530 29 -300 330/08 RMK AO2
14837KMSN MSN20060319144509403/19/06 14:45:31  5-MIN KMSN 192045Z 01006KT 10SM CLR 07/M10 A3029 530 29 -300 360/06 RMK AO2
14837KMSN MSN20060319145011703/19/06 14:50:31  5-MIN KMSN 192050Z 34008KT 10SM CLR 07/M09 A3028 530 29 -200 340/08 RMK AO2 SLP264 T00721094 58010
14837KMSN MSN20060319145509403/19/06 14:55:31  5-MIN KMSN 192055Z 31006KT 10SM CLR 06/M11 A3028 530 28 -300 310/06 RMK AO2
14837KMSN MSN20060319150009403/19/06 15:00:31  5-MIN KMSN 192100Z 29006KT 10SM CLR 06/M11 A3028 530 29 -300 290/06 RMK AO2
14837KMSN MSN20060319150509403/19/06 15:05:31  5-MIN KMSN 192105Z 33007KT 10SM CLR 07/M11 A3028 530 28 -300 330/07 RMK AO2
14837KMSN MSN20060319151009403/19/06 15:10:31  5-MIN KMSN 192110Z VRB06KT 10SM CLR 07/M10 A3028 530 29 -300 VRB/06 RMK AO2
14837KMSN MSN20060319151509403/19/06 15:15:31  5-MIN KMSN 192115Z VRB04KT 10SM CLR 06/M11 A3028 530 28 -300 VRB/04 RMK AO2
14837KMSN MSN20060319152009403/19/06 15:20:31  5-MIN KMSN 192120Z 33007KT 10SM CLR 07/M11 A3028 540 27 -200 330/07 RMK AO2
14837KMSN MSN20060319152509403/19/06 15:25:31  5-MIN KMSN 192125Z VRB04KT 10SM CLR 07/M10 A3028 540 28 -200 VRB/04 RMK AO2
14837KMSN MSN20060319153009403/19/06 15:30:31  5-MIN KMSN 192130Z 32006KT 10SM CLR 07/M09 A3028 540 29 -200 320/06 RMK AO2
14837KMSN MSN20060319153509403/19/06 15:35:31  5-MIN KMSN 192135Z 29004KT 10SM CLR 07/M11 A3027 540 28 -200 280/04 RMK AO2
14837KMSN MSN20060319154009403/19/06 15:40:31  5-MIN KMSN 192140Z 27005KT 10SM CLR 06/M11 A3028 540 29 -300 270/05 RMK AO2
14837KMSN MSN20060319154509403/19/06 15:45:31  5-MIN KMSN 192145Z 30007KT 10SM CLR 07/M11 A3027 540 28 -200 300/07 RMK AO2
14837KMSN MSN20060319155011103/19/06 15:50:31  5-MIN KMSN 192150Z 28006KT 10SM CLR 07/M11 A3027 540 28 -200 280/06 RMK AO2 SLP261 T00671106
14837KMSN MSN20060319155509403/19/06 15:55:31  5-MIN KMSN 192155Z 26005KT 10SM CLR 07/M11 A3027 540 28 -200 260/05 RMK AO2
14837KMSN MSN20060319160009403/19/06 16:00:31  5-MIN KMSN 192200Z VRB04KT 10SM CLR 07/M11 A3027 540 28 -200 VRB/04 RMK AO2
14837KMSN MSN20060319160509403/19/06 16:05:31  5-MIN KMSN 192205Z 31005KT 10SM CLR 07/M11 A3027 540 28 -200 310/05 RMK AO2
14837KMSN MSN20060319161009403/19/06 16:10:31  5-MIN KMSN 192210Z 00000KT 10SM CLR 07/M10 A3027 540 29 -200 000/00 RMK AO2
14837KMSN MSN20060319161509403/19/06 16:15:31  5-MIN KMSN 192215Z 33005KT 10SM CLR 07/M11 A3027 540 27 -200 320/05 RMK AO2
14837KMSN MSN20060319162009303/19/06 16:20:31  5-MIN KMSN 192220Z 00000KT 7SM CLR 07/M11 A3027 540 26 -200 000/00 RMK AO2
14837KMSN MSN20060319162509603/19/06 16:25:31  5-MIN KMSN 192225Z VRB05KT 6SM HZ CLR 07/M11 A3027 540 27 -200 VRB/05 RMK AO2
14837KMSN MSN20060319163009303/19/06 16:30:31  5-MIN KMSN 192230Z VRB04KT 9SM CLR 07/M10 A3027 540 28 -200 VRB/04 RMK AO2
14837KMSN MSN20060319163509403/19/06 16:35:31  5-MIN KMSN 192235Z 30007KT 10SM CLR 07/M11 A3027 540 26 -200 300/07 RMK AO2
14837KMSN MSN20060319164009403/19/06 16:40:31  5-MIN KMSN 192240Z 30003KT 10SM CLR 07/M11 A3027 550 26 -200 300/03 RMK AO2
14837KMSN MSN20060319164509403/19/06 16:45:31  5-MIN KMSN 192245Z 29006KT 10SM CLR 07/M11 A3026 550 26 -200 290/06 RMK AO2
14837KMSN MSN20060319165011103/19/06 16:50:31  5-MIN KMSN 192250Z VRB04KT 10SM CLR 07/M11 A3026 550 26 -200 VRB/04 RMK AO2 SLP257 T00721111
14837KMSN MSN20060319165509403/19/06 16:55:31  5-MIN KMSN 192255Z 30005KT 10SM CLR 07/M11 A3026 550 27 -200 300/05 RMK AO2
14837KMSN MSN20060319170009403/19/06 17:00:31  5-MIN KMSN 192300Z 30003KT 10SM CLR 07/M11 A3026 550 27 -200 300/03 RMK AO2
14837KMSN MSN20060319170509403/19/06 17:05:31  5-MIN KMSN 192305Z 33004KT 10SM CLR 07/M10 A3026 550 28 -200 330/04 RMK AO2
14837KMSN MSN20060319171009403/19/06 17:10:31  5-MIN KMSN 192310Z 32003KT 10SM CLR 07/M11 A3026 550 27 -200 320/03 RMK AO2
14837KMSN MSN20060319171509403/19/06 17:15:31  5-MIN KMSN 192315Z 33003KT 10SM CLR 07/M11 A3026 550 27 -200 330/03 RMK AO2
14837KMSN MSN20060319172009403/19/06 17:20:31  5-MIN KMSN 192320Z 32003KT 10SM CLR 07/M11 A3026 550 27 -200 310/03 RMK AO2
14837KMSN MSN20060319172509403/19/06 17:25:31  5-MIN KMSN 192325Z 00000KT 10SM CLR 07/M11 A3027 550 27 -200 000/00 RMK AO2
14837KMSN MSN20060319173009403/19/06 17:30:31  5-MIN KMSN 192330Z 00000KT 10SM CLR 07/M11 A3027 540 27 -200 000/00 RMK AO2
14837KMSN MSN20060319173509403/19/06 17:35:31  5-MIN KMSN 192335Z 32003KT 10SM CLR 06/M11 A3027 540 29 -300 320/03 RMK AO2
14837KMSN MSN20060319174009403/19/06 17:40:31  5-MIN KMSN 192340Z 00000KT 10SM CLR 06/M11 A3027 540 29 -300 000/00 RMK AO2
14837KMSN MSN20060319174509403/19/06 17:45:31  5-MIN KMSN 192345Z 00000KT 10SM CLR 06/M11 A3027 540 29 -300 000/00 RMK AO2
14837KMSN MSN20060319175012903/19/06 17:50:31  5-MIN KMSN 192350Z 00000KT 10SM CLR 06/M11 A3027 540 30 -400 000/00 RMK AO2 SLP260 T00561106 10078 20022 56015
14837KMSN MSN20060319175509403/19/06 17:55:31  5-MIN KMSN 192355Z 00000KT 10SM CLR 05/M10 A3027 540 33 -400 000/00 RMK AO2
14837KMSN MSN20060319180009403/19/06 18:00:31  5-MIN KMSN 200000Z 30003KT 10SM CLR 04/M08 A3027 550 39 -500 300/03 RMK AO2
14837KMSN MSN20060319180509403/19/06 18:05:31  5-MIN KMSN 200005Z 32003KT 10SM CLR 04/M08 A3026 550 40 -600 320/03 RMK AO2
14837KMSN MSN20060319181009403/19/06 18:10:31  5-MIN KMSN 200010Z 32003KT 10SM CLR 04/M09 A3027 550 37 -600 320/03 RMK AO2
14837KMSN MSN20060319181509403/19/06 18:15:31  5-MIN KMSN 200015Z 31003KT 10SM CLR 04/M09 A3027 540 37 -600 310/03 RMK AO2
14837KMSN MSN20060319182009403/19/06 18:20:31  5-MIN KMSN 200020Z 33003KT 10SM CLR 04/M09 A3027 550 39 -600 320/03 RMK AO2
14837KMSN MSN20060319182509403/19/06 18:25:31  5-MIN KMSN 200025Z 35003KT 10SM CLR 03/M09 A3026 550 39 -600 350/03 RMK AO2
14837KMSN MSN20060319183009403/19/06 18:30:31  5-MIN KMSN 200030Z 36004KT 10SM CLR 03/M07 A3026 560 48 -600 360/04 RMK AO2
14837KMSN MSN20060319183509403/19/06 18:35:31  5-MIN KMSN 200035Z 01005KT 10SM CLR 03/M08 A3026 550 44 -600 010/05 RMK AO2
14837KMSN MSN20060319184009403/19/06 18:40:31  5-MIN KMSN 200040Z 01006KT 10SM CLR 03/M08 A3026 550 44 -600 010/06 RMK AO2
14837KMSN MSN20060319184509403/19/06 18:45:31  5-MIN KMSN 200045Z 01005KT 10SM CLR 03/M08 A3026 560 46 -700 010/05 RMK AO2
14837KMSN MSN20060319185011103/19/06 18:50:31  5-MIN KMSN 200050Z 01006KT 10SM CLR 03/M08 A3026 550 46 -700 010/06 RMK AO2 SLP257 T00281078
14837KMSN MSN20060319185509403/19/06 18:55:31  5-MIN KMSN 200055Z 01006KT 10SM CLR 03/M07 A3026 560 48 -700 010/06 RMK AO2
14837KMSN MSN20060319190009403/19/06 19:00:31  5-MIN KMSN 200100Z 35004KT 10SM CLR 03/M08 A3026 560 46 -700 350/04 RMK AO2
14837KMSN MSN20060319190509403/19/06 19:05:31  5-MIN KMSN 200105Z 35004KT 10SM CLR 03/M08 A3026 550 44 -700 350/04 RMK AO2
14837KMSN MSN20060319191009403/19/06 19:10:31  5-MIN KMSN 200110Z 34004KT 10SM CLR 03/M08 A3026 550 44 -700 340/04 RMK AO2
14837KMSN MSN20060319191509403/19/06 19:15:31  5-MIN KMSN 200115Z 33004KT 10SM CLR 02/M08 A3026 550 45 -800 330/04 RMK AO2
14837KMSN MSN20060319192009403/19/06 19:20:31  5-MIN KMSN 200120Z 33004KT 10SM CLR 02/M09 A3026 550 44 -800 330/04 RMK AO2
14837KMSN MSN20060319192509403/19/06 19:25:31  5-MIN KMSN 200125Z 35005KT 10SM CLR 02/M09 A3026 550 44 -800 350/05 RMK AO2
14837KMSN MSN20060319193009403/19/06 19:30:31  5-MIN KMSN 200130Z 36005KT 10SM CLR 03/M08 A3026 550 44 -700 360/05 RMK AO2
14837KMSN MSN20060319193509403/19/06 19:35:31  5-MIN KMSN 200135Z 35005KT 10SM CLR 03/M08 A3026 550 44 -700 350/05 RMK AO2
14837KMSN MSN20060319194009403/19/06 19:40:31  5-MIN KMSN 200140Z 35005KT 10SM CLR 02/M08 A3026 550 45 -800 350/05 RMK AO2
14837KMSN MSN20060319194509403/19/06 19:45:31  5-MIN KMSN 200145Z 34004KT 10SM CLR 02/M08 A3027 550 45 -800 340/04 RMK AO2
14837KMSN MSN20060319195011103/19/06 19:50:31  5-MIN KMSN 200150Z 34004KT 10SM CLR 02/M09 A3027 540 45 -900 340/04 RMK AO2 SLP260 T00171089
14837KMSN MSN20060319195509403/19/06 19:55:31  5-MIN KMSN 200155Z 34004KT 10SM CLR 02/M08 A3027 540 47 -900 340/04 RMK AO2
14837KMSN MSN20060319200009403/19/06 20:00:31  5-MIN KMSN 200200Z 35004KT 10SM CLR 02/M08 A3027 540 47 -900 350/04 RMK AO2
14837KMSN MSN20060319200509403/19/06 20:05:31  5-MIN KMSN 200205Z 35004KT 10SM CLR 02/M08 A3027 540 45 -800 350/04 RMK AO2
14837KMSN MSN20060319201009403/19/06 20:10:31  5-MIN KMSN 200210Z 35004KT 10SM CLR 02/M08 A3027 540 47 -900 340/04 RMK AO2
14837KMSN MSN20060319201509403/19/06 20:15:31  5-MIN KMSN 200215Z 34005KT 10SM CLR 02/M08 A3028 540 47 -900 340/05 RMK AO2
14837KMSN MSN20060319202009403/19/06 20:20:31  5-MIN KMSN 200220Z 34005KT 10SM CLR 02/M08 A3028 540 47 -900 340/05 RMK AO2
14837KMSN MSN20060319202509403/19/06 20:25:31  5-MIN KMSN 200225Z 34005KT 10SM CLR 01/M08 A3028 530 49 -900 340/05 RMK AO2
14837KMSN MSN20060319203009403/19/06 20:30:31  5-MIN KMSN 200230Z 34005KT 10SM CLR 01/M08 A3028 530 49 -900 340/05 RMK AO2
14837KMSN MSN20060319203509403/19/06 20:35:31  5-MIN KMSN 200235Z 34005KT 10SM CLR 01/M08 A3028 530 49 -900 340/05 RMK AO2
14837KMSN MSN20060319204009403/19/06 20:40:31  5-MIN KMSN 200240Z 34004KT 10SM CLR 01/M08 A3028 530 49 -900 340/04 RMK AO2
14837KMSN MSN20060319204509403/19/06 20:45:31  5-MIN KMSN 200245Z 34004KT 10SM CLR 01/M08 A3028 530 49 -900 340/04 RMK AO2
14837KMSN MSN20060319205011703/19/06 20:50:31  5-MIN KMSN 200250Z 35005KT 10SM CLR 01/M08 A3028 530 49 -900 350/05 RMK AO2 SLP264 T00111083 55006
14837KMSN MSN20060319205509503/19/06 20:55:31  5-MIN KMSN 200255Z 36004KT 10SM CLR 01/M08 A3028 530 54 -1000 360/04 RMK AO2
14837KMSN MSN20060319210009603/19/06 21:00:31  5-MIN KMSN 200300Z 34003KT 10SM CLR M01/M07 A3028 530 63 -1100 340/03 RMK AO2
14837KMSN MSN20060319210509603/19/06 21:05:31  5-MIN KMSN 200305Z 34003KT 10SM CLR M01/M07 A3028 530 63 -1200 340/03 RMK AO2
14837KMSN MSN20060319211009603/19/06 21:10:31  5-MIN KMSN 200310Z 00000KT 10SM CLR M02/M07 A3029 530 69 -1300 000/00 RMK AO2
14837KMSN MSN20060319211509603/19/06 21:15:31  5-MIN KMSN 200315Z 00000KT 10SM CLR M02/M07 A3029 520 69 -1300 000/00 RMK AO2
14837KMSN MSN20060319212009603/19/06 21:20:31  5-MIN KMSN 200320Z 00000KT 10SM CLR M02/M07 A3029 520 69 -1300 000/00 RMK AO2
14837KMSN MSN20060319212509603/19/06 21:25:31  5-MIN KMSN 200325Z 00000KT 10SM CLR M02/M07 A3030 520 69 -1300 000/00 RMK AO2
14837KMSN MSN20060319213009603/19/06 21:30:31  5-MIN KMSN 200330Z 00000KT 10SM CLR M02/M07 A3030 520 69 -1300 000/00 RMK AO2
14837KMSN MSN20060319213509603/19/06 21:35:31  5-MIN KMSN 200335Z 00000KT 10SM CLR M02/M07 A3029 520 66 -1300 000/00 RMK AO2
14837KMSN MSN20060319214009603/19/06 21:40:31  5-MIN KMSN 200340Z 00000KT 10SM CLR M01/M08 A3029 520 58 -1200 000/00 RMK AO2
14837KMSN MSN20060319214509603/19/06 21:45:31  5-MIN KMSN 200345Z 00000KT 10SM CLR M02/M07 A3029 530 72 -1400 000/00 RMK AO2
14837KMSN MSN20060319215011303/19/06 21:50:31  5-MIN KMSN 200350Z 00000KT 10SM CLR M02/M07 A3029 530 66 -1300 000/00 RMK AO2 SLP267 T10171072
14837KMSN MSN20060319215509603/19/06 21:55:31  5-MIN KMSN 200355Z 00000KT 10SM CLR M02/M08 A3029 530 60 -1300 000/00 RMK AO2
14837KMSN MSN20060319220009603/19/06 22:00:31  5-MIN KMSN 200400Z 00000KT 10SM CLR M01/M08 A3029 530 58 -1200 000/00 RMK AO2
14837KMSN MSN20060319220509603/19/06 22:05:31  5-MIN KMSN 200405Z 00000KT 10SM CLR M03/M08 A3029 530 68 -1400 000/00 RMK AO2
14837KMSN MSN20060319221009603/19/06 22:10:31  5-MIN KMSN 200410Z 00000KT 10SM CLR M03/M07 A3029 530 71 -1400 000/00 RMK AO2
14837KMSN MSN20060319221509603/19/06 22:15:31  5-MIN KMSN 200415Z 33003KT 10SM CLR M03/M07 A3029 530 71 -1400 330/03 RMK AO2
14837KMSN MSN20060319222009603/19/06 22:20:31  5-MIN KMSN 200420Z 34003KT 10SM CLR M03/M08 A3028 530 68 -1400 340/03 RMK AO2
14837KMSN MSN20060319222509603/19/06 22:25:31  5-MIN KMSN 200425Z 00000KT 10SM CLR M03/M07 A3029 530 75 -1400 000/00 RMK AO2
14837KMSN MSN20060319223009603/19/06 22:30:31  5-MIN KMSN 200430Z 00000KT 10SM CLR M02/M06 A3028 530 75 -1400 000/00 RMK AO2
14837KMSN MSN20060319223509603/19/06 22:35:31  5-MIN KMSN 200435Z 00000KT 10SM CLR M03/M07 A3029 530 75 -1400 000/00 RMK AO2
14837KMSN MSN20060319224009603/19/06 22:40:31  5-MIN KMSN 200440Z 00000KT 10SM CLR M03/M07 A3028 530 75 -1400 000/00 RMK AO2
14837KMSN MSN20060319224509603/19/06 22:45:31  5-MIN KMSN 200445Z 00000KT 10SM CLR M03/M06 A3029 530 78 -1400 000/00 RMK AO2
14837KMSN MSN20060319225011303/19/06 22:50:31  5-MIN KMSN 200450Z 32004KT 10SM CLR M03/M06 A3029 520 81 -1500 320/04 RMK AO2 SLP268 T10331061
14837KMSN MSN20060319225509603/19/06 22:55:31  5-MIN KMSN 200455Z 33004KT 10SM CLR M03/M07 A3029 520 78 -1500 330/04 RMK AO2
14837KMSN MSN20060319230009603/19/06 23:00:31  5-MIN KMSN 200500Z 33004KT 10SM CLR M03/M07 A3029 520 74 -1500 330/04 RMK AO2
14837KMSN MSN20060319230509603/19/06 23:05:31  5-MIN KMSN 200505Z 34004KT 10SM CLR M03/M07 A3029 520 71 -1400 340/04 RMK AO2
14837KMSN MSN20060319231009603/19/06 23:10:31  5-MIN KMSN 200510Z 35005KT 10SM CLR M03/M07 A3029 520 75 -1400 350/05 RMK AO2
14837KMSN MSN20060319231509603/19/06 23:15:31  5-MIN KMSN 200515Z 35005KT 10SM CLR M04/M07 A3029 520 78 -1600 350/05 RMK AO2
14837KMSN MSN20060319232009603/19/06 23:20:31  5-MIN KMSN 200520Z 35006KT 10SM CLR M04/M07 A3029 520 81 -1700 350/06 RMK AO2
14837KMSN MSN20060319232509603/19/06 23:25:31  5-MIN KMSN 200525Z 36006KT 10SM CLR M03/M08 A3030 520 71 -1500 360/06 RMK AO2
14837KMSN MSN20060319233009603/19/06 23:30:31  5-MIN KMSN 200530Z 36006KT 10SM CLR M03/M08 A3030 510 68 -1500 360/06 RMK AO2
14837KMSN MSN20060319233509603/19/06 23:35:31  5-MIN KMSN 200535Z 01007KT 10SM CLR M02/M08 A3030 510 66 -1400 360/07 RMK AO2
14837KMSN MSN20060319234009603/19/06 23:40:31  5-MIN KMSN 200540Z 01007KT 10SM CLR M02/M08 A3030 510 60 -1300 010/07 RMK AO2
14837KMSN MSN20060319234509603/19/06 23:45:31  5-MIN KMSN 200545Z 01008KT 10SM CLR M02/M08 A3030 510 60 -1300 010/08 RMK AO2
14837KMSN MSN20060319235014103/19/06 23:50:31  5-MIN KMSN 200550Z 01009KT 10SM CLR M02/M08 A3030 510 63 -1400 010/09 RMK AO2 SLP271 T10221083 10056 21044 400781072 53004
14837KMSN MSN20060319235509603/19/06 23:55:31  5-MIN KMSN 200555Z 02009KT 10SM CLR M02/M09 A3030 510 60 -1400 020/09 RMK AO2
14837KMSN MSN20060320000009603/20/06 00:00:38  5-MIN KMSN 200600Z 03009KT 10SM CLR M01/M09 A3031 510 55 -1300 030/09 RMK AO2
14837KMSN MSN20060320000509603/20/06 00:05:31  5-MIN KMSN 200605Z 03010KT 10SM CLR M01/M09 A3031 510 55 -1300 030/10 RMK AO2
14837KMSN MSN20060320001009603/20/06 00:10:31  5-MIN KMSN 200610Z 03010KT 10SM CLR M01/M09 A3031 510 53 -1200 030/10 RMK AO2
14837KMSN MSN20060320001509603/20/06 00:15:31  5-MIN KMSN 200615Z 04010KT 10SM CLR M01/M09 A3031 500 53 -1200 040/10 RMK AO2
14837KMSN MSN20060320002009603/20/06 00:20:31  5-MIN KMSN 200620Z 04009KT 10SM CLR M01/M09 A3031 500 53 -1200 040/09 RMK AO2
14837KMSN MSN20060320002509603/20/06 00:25:31  5-MIN KMSN 200625Z 04009KT 10SM CLR M01/M09 A3031 500 55 -1300 040/09 RMK AO2
14837KMSN MSN20060320003009603/20/06 00:30:31  5-MIN KMSN 200630Z 04011KT 10SM CLR M01/M09 A3031 500 55 -1300 040/11 RMK AO2
14837KMSN MSN20060320003509603/20/06 00:35:31  5-MIN KMSN 200635Z 04012KT 10SM CLR M01/M09 A3032 500 53 -1200 040/12 RMK AO2
14837KMSN MSN20060320004009603/20/06 00:40:31  5-MIN KMSN 200640Z 04011KT 10SM CLR M01/M09 A3032 500 53 -1200 040/11 RMK AO2
14837KMSN MSN20060320004509603/20/06 00:45:31  5-MIN KMSN 200645Z 05013KT 10SM CLR M01/M09 A3032 500 53 -1300 050/13 RMK AO2
14837KMSN MSN20060320005011303/20/06 00:50:31  5-MIN KMSN 200650Z 04011KT 10SM CLR M01/M09 A3032 500 55 -1300 040/11 RMK AO2 SLP277 T10111089
14837KMSN MSN20060320005509603/20/06 00:55:31  5-MIN KMSN 200655Z 05011KT 10SM CLR M01/M09 A3032 490 53 -1300 040/11 RMK AO2
14837KMSN MSN20060320010009603/20/06 01:00:31  5-MIN KMSN 200700Z 05011KT 10SM CLR M01/M09 A3032 490 53 -1300 050/11 RMK AO2
14837KMSN MSN20060320010509603/20/06 01:05:31  5-MIN KMSN 200705Z 04011KT 10SM CLR M01/M09 A3032 490 53 -1300 040/11 RMK AO2
14837KMSN MSN20060320011009603/20/06 01:10:31  5-MIN KMSN 200710Z 05011KT 10SM CLR M01/M09 A3033 490 53 -1300 050/11 RMK AO2
14837KMSN MSN20060320011509603/20/06 01:15:31  5-MIN KMSN 200715Z 05010KT 10SM CLR M02/M09 A3033 490 55 -1300 050/10 RMK AO2
14837KMSN MSN20060320012009603/20/06 01:20:31  5-MIN KMSN 200720Z 05009KT 10SM CLR M02/M09 A3033 490 55 -1300 050/09 RMK AO2
14837KMSN MSN20060320012509603/20/06 01:25:31  5-MIN KMSN 200725Z 05009KT 10SM CLR M02/M09 A3033 490 55 -1400 050/09 RMK AO2
14837KMSN MSN20060320013009603/20/06 01:30:31  5-MIN KMSN 200730Z 05009KT 10SM CLR M02/M09 A3033 490 55 -1400 050/09 RMK AO2
14837KMSN MSN20060320013509603/20/06 01:35:31  5-MIN KMSN 200735Z 04009KT 10SM CLR M02/M09 A3033 490 58 -1400 040/09 RMK AO2
14837KMSN MSN20060320014009603/20/06 01:40:31  5-MIN KMSN 200740Z 04009KT 10SM CLR M02/M09 A3033 490 58 -1400 040/09 RMK AO2
14837KMSN MSN20060320014509603/20/06 01:45:31  5-MIN KMSN 200745Z 04008KT 10SM CLR M02/M09 A3033 490 58 -1400 040/08 RMK AO2
14837KMSN MSN20060320015011303/20/06 01:50:31  5-MIN KMSN 200750Z 04007KT 10SM CLR M02/M09 A3033 490 58 -1400 040/07 RMK AO2 SLP279 T10221094
14837KMSN MSN20060320015509603/20/06 01:55:31  5-MIN KMSN 200755Z 04007KT 10SM CLR M02/M09 A3033 490 58 -1400 030/07 RMK AO2
14837KMSN MSN20060320020009603/20/06 02:00:31  5-MIN KMSN 200800Z 03007KT 10SM CLR M02/M09 A3033 490 58 -1400 030/07 RMK AO2
14837KMSN MSN20060320020509603/20/06 02:05:31  5-MIN KMSN 200805Z 03007KT 10SM CLR M02/M09 A3033 490 58 -1400 030/07 RMK AO2
14837KMSN MSN20060320021009603/20/06 02:10:31  5-MIN KMSN 200810Z 03007KT 10SM CLR M02/M09 A3033 490 58 -1400 030/07 RMK AO2
14837KMSN MSN20060320021509603/20/06 02:15:31  5-MIN KMSN 200815Z 03007KT 10SM CLR M02/M09 A3032 490 58 -1400 030/07 RMK AO2
14837KMSN MSN20060320022009603/20/06 02:20:31  5-MIN KMSN 200820Z 03007KT 10SM CLR M02/M09 A3032 500 58 -1400 030/07 RMK AO2
14837KMSN MSN20060320022509603/20/06 02:25:31  5-MIN KMSN 200825Z 03008KT 10SM CLR M03/M09 A3031 500 60 -1500 030/08 RMK AO2
14837KMSN MSN20060320023009603/20/06 02:30:31  5-MIN KMSN 200830Z 03007KT 10SM CLR M02/M09 A3031 500 58 -1400 030/07 RMK AO2
14837KMSN MSN20060320023509603/20/06 02:35:31  5-MIN KMSN 200835Z 03007KT 10SM CLR M03/M09 A3031 500 60 -1500 030/07 RMK AO2
14837KMSN MSN20060320024009603/20/06 02:40:31  5-MIN KMSN 200840Z 02007KT 10SM CLR M03/M09 A3031 510 60 -1500 020/07 RMK AO2
14837KMSN MSN20060320024509603/20/06 02:45:31  5-MIN KMSN 200845Z 03007KT 10SM CLR M03/M09 A3031 510 60 -1500 030/07 RMK AO2
14837KMSN MSN20060320025011903/20/06 02:50:31  5-MIN KMSN 200850Z 03007KT 10SM CLR M03/M09 A3031 510 60 -1500 020/07 RMK AO2 SLP272 T10281094 53008
14837KMSN MSN20060320025509603/20/06 02:55:31  5-MIN KMSN 200855Z 03007KT 10SM CLR M03/M09 A3030 510 60 -1500 030/07 RMK AO2
14837KMSN MSN20060320030009603/20/06 03:00:31  5-MIN KMSN 200900Z 04008KT 10SM CLR M02/M09 A3030 510 58 -1400 030/08 RMK AO2
14837KMSN MSN20060320030509603/20/06 03:05:31  5-MIN KMSN 200905Z 04008KT 10SM CLR M02/M09 A3030 510 58 -1400 040/08 RMK AO2
14837KMSN MSN20060320031009603/20/06 03:10:31  5-MIN KMSN 200910Z 04008KT 10SM CLR M02/M10 A3030 510 55 -1400 040/08 RMK AO2
14837KMSN MSN20060320031509603/20/06 03:15:31  5-MIN KMSN 200915Z 04009KT 10SM CLR M02/M10 A3030 510 55 -1400 040/09 RMK AO2
14837KMSN MSN20060320032009603/20/06 03:20:31  5-MIN KMSN 200920Z 04008KT 10SM CLR M02/M10 A3030 520 55 -1400 030/08 RMK AO2
14837KMSN MSN20060320032509603/20/06 03:25:31  5-MIN KMSN 200925Z 03008KT 10SM CLR M02/M10 A3029 520 55 -1400 030/08 RMK AO2
14837KMSN MSN20060320033009603/20/06 03:30:31  5-MIN KMSN 200930Z 03010KT 10SM CLR M02/M11 A3029 520 53 -1400 030/10 RMK AO2
14837KMSN MSN20060320033509603/20/06 03:35:31  5-MIN KMSN 200935Z 03012KT 10SM CLR M02/M11 A3029 520 53 -1400 030/12 RMK AO2
14837KMSN MSN20060320034009603/20/06 03:40:31  5-MIN KMSN 200940Z 04013KT 10SM CLR M02/M11 A3029 520 53 -1400 040/13 RMK AO2
14837KMSN MSN20060320034509603/20/06 03:45:31  5-MIN KMSN 200945Z 04013KT 10SM CLR M02/M11 A3029 530 53 -1400 040/13 RMK AO2
14837KMSN MSN20060320035011303/20/06 03:50:31  5-MIN KMSN 200950Z 04012KT 10SM CLR M02/M11 A3029 530 53 -1400 040/12 RMK AO2 SLP265 T10221106
14837KMSN MSN20060320035509603/20/06 03:55:31  5-MIN KMSN 200955Z 04010KT 10SM CLR M02/M11 A3028 530 53 -1400 040/10 RMK AO2
14837KMSN MSN20060320040009603/20/06 04:00:31  5-MIN KMSN 201000Z 04010KT 10SM CLR M03/M11 A3028 530 55 -1400 040/10 RMK AO2
14837KMSN MSN20060320040509603/20/06 04:05:31  5-MIN KMSN 201005Z 04010KT 10SM CLR M02/M11 A3028 530 53 -1400 040/10 RMK AO2
14837KMSN MSN20060320041009603/20/06 04:10:31  5-MIN KMSN 201010Z 04010KT 10SM CLR M02/M11 A3028 530 53 -1400 040/10 RMK AO2
14837KMSN MSN20060320041509603/20/06 04:15:31  5-MIN KMSN 201015Z 04008KT 10SM CLR M02/M11 A3029 530 53 -1400 040/08 RMK AO2
14837KMSN MSN20060320042009603/20/06 04:20:31  5-MIN KMSN 201020Z 03008KT 10SM CLR M02/M11 A3029 520 53 -1400 030/08 RMK AO2
14837KMSN MSN20060320042509603/20/06 04:25:31  5-MIN KMSN 201025Z 04009KT 10SM CLR M02/M11 A3029 520 53 -1400 040/09 RMK AO2
14837KMSN MSN20060320043009603/20/06 04:30:31  5-MIN KMSN 201030Z 03009KT 10SM CLR M02/M11 A3029 520 53 -1400 030/09 RMK AO2
14837KMSN MSN20060320043509603/20/06 04:35:31  5-MIN KMSN 201035Z 03009KT 10SM CLR M02/M11 A3030 520 53 -1400 030/09 RMK AO2
14837KMSN MSN20060320044009603/20/06 04:40:31  5-MIN KMSN 201040Z 03010KT 10SM CLR M03/M11 A3029 520 55 -1400 030/10 RMK AO2
14837KMSN MSN20060320044509603/20/06 04:45:31  5-MIN KMSN 201045Z 03009KT 10SM CLR M02/M11 A3030 520 53 -1400 030/09 RMK AO2
14837KMSN MSN20060320045011303/20/06 04:50:31  5-MIN KMSN 201050Z 04007KT 10SM CLR M03/M11 A3030 520 55 -1500 030/07 RMK AO2 SLP268 T10281106
14837KMSN MSN20060320045509603/20/06 04:55:31  5-MIN KMSN 201055Z 04007KT 10SM CLR M03/M11 A3030 510 55 -1500 040/07 RMK AO2
14837KMSN MSN20060320050009603/20/06 05:00:31  5-MIN KMSN 201100Z 04007KT 10SM CLR M03/M11 A3030 520 55 -1500 040/07 RMK AO2
14837KMSN MSN20060320050509603/20/06 05:05:31  5-MIN KMSN 201105Z 03007KT 10SM CLR M03/M10 A3030 510 58 -1500 030/07 RMK AO2
14837KMSN MSN20060320051009603/20/06 05:10:31  5-MIN KMSN 201110Z 03008KT 10SM CLR M03/M10 A3031 510 58 -1500 030/08 RMK AO2
14837KMSN MSN20060320051509603/20/06 05:15:31  5-MIN KMSN 201115Z 03008KT 10SM CLR M03/M10 A3031 510 58 -1500 030/08 RMK AO2
14837KMSN MSN20060320052009603/20/06 05:20:31  5-MIN KMSN 201120Z 03007KT 10SM CLR M02/M10 A3031 510 55 -1400 030/07 RMK AO2
14837KMSN MSN20060320052509603/20/06 05:25:31  5-MIN KMSN 201125Z 03009KT 10SM CLR M03/M10 A3031 510 58 -1500 030/09 RMK AO2
14837KMSN MSN20060320053009603/20/06 05:30:31  5-MIN KMSN 201130Z 04008KT 10SM CLR M03/M10 A3030 510 58 -1500 030/08 RMK AO2
14837KMSN MSN20060320053509603/20/06 05:35:31  5-MIN KMSN 201135Z 03009KT 10SM CLR M03/M10 A3030 510 58 -1500 030/09 RMK AO2
14837KMSN MSN20060320054009603/20/06 05:40:31  5-MIN KMSN 201140Z 03008KT 10SM CLR M02/M10 A3030 510 55 -1400 030/08 RMK AO2
14837KMSN MSN20060320054509603/20/06 05:45:31  5-MIN KMSN 201145Z 03008KT 10SM CLR M03/M10 A3030 510 58 -1500 030/08 RMK AO2
14837KMSN MSN20060320055013103/20/06 05:50:31  5-MIN KMSN 201150Z 03008KT 10SM CLR M03/M10 A3031 510 58 -1500 030/08 RMK AO2 SLP272 T10281100 11006 21028 50000
14837KMSN MSN20060320055509603/20/06 05:55:31  5-MIN KMSN 201155Z 04008KT 10SM CLR M03/M10 A3031 510 58 -1500 030/08 RMK AO2
14837KMSN MSN20060320060009603/20/06 06:00:31  5-MIN KMSN 201200Z 04008KT 10SM CLR M03/M10 A3031 510 58 -1500 040/08 RMK AO2
14837KMSN MSN20060320060509603/20/06 06:05:31  5-MIN KMSN 201205Z 03008KT 10SM CLR M03/M10 A3031 510 58 -1500 030/08 RMK AO2
14837KMSN MSN20060320061009603/20/06 06:10:31  5-MIN KMSN 201210Z 04007KT 10SM CLR M03/M10 A3031 510 58 -1500 040/07 RMK AO2
14837KMSN MSN20060320061509603/20/06 06:15:31  5-MIN KMSN 201215Z 03007KT 10SM CLR M03/M10 A3031 510 58 -1500 030/07 RMK AO2
14837KMSN MSN20060320062009603/20/06 06:20:31  5-MIN KMSN 201220Z 05006KT 10SM CLR M03/M10 A3031 500 58 -1500 050/06 RMK AO2
14837KMSN MSN20060320062509603/20/06 06:25:31  5-MIN KMSN 201225Z 04006KT 10SM CLR M03/M10 A3031 510 58 -1500 040/06 RMK AO2
14837KMSN MSN20060320063009603/20/06 06:30:31  5-MIN KMSN 201230Z 05006KT 10SM CLR M03/M09 A3031 510 60 -1500 040/06 RMK AO2
14837KMSN MSN20060320063509603/20/06 06:35:31  5-MIN KMSN 201235Z 05007KT 10SM CLR M03/M09 A3031 510 60 -1500 040/07 RMK AO2
14837KMSN MSN20060320064009603/20/06 06:40:31  5-MIN KMSN 201240Z 04006KT 10SM CLR M03/M09 A3031 510 60 -1500 040/06 RMK AO2
14837KMSN MSN20060320064509603/20/06 06:45:31  5-MIN KMSN 201245Z 05005KT 10SM CLR M03/M09 A3031 510 60 -1500 050/05 RMK AO2
14837KMSN MSN20060320065011303/20/06 06:50:31  5-MIN KMSN 201250Z 06006KT 10SM CLR M03/M09 A3030 510 60 -1500 050/06 RMK AO2 SLP271 T10281094
14837KMSN MSN20060320065509603/20/06 06:55:31  5-MIN KMSN 201255Z 05008KT 10SM CLR M03/M09 A3030 510 60 -1500 050/08 RMK AO2
14837KMSN MSN20060320070009603/20/06 07:00:31  5-MIN KMSN 201300Z 05007KT 10SM CLR M02/M09 A3031 510 58 -1400 050/07 RMK AO2
14837KMSN MSN20060320070509603/20/06 07:05:31  5-MIN KMSN 201305Z 05007KT 10SM CLR M02/M09 A3030 510 58 -1400 050/07 RMK AO2
14837KMSN MSN20060320071009603/20/06 07:10:31  5-MIN KMSN 201310Z 05007KT 10SM CLR M02/M09 A3030 510 60 -1400 040/07 RMK AO2
14837KMSN MSN20060320071509603/20/06 07:15:31  5-MIN KMSN 201315Z 05007KT 10SM CLR M02/M09 A3031 510 60 -1400 050/07 RMK AO2
14837KMSN MSN20060320072009603/20/06 07:20:31  5-MIN KMSN 201320Z 05007KT 10SM CLR M02/M09 A3031 510 60 -1400 050/07 RMK AO2
14837KMSN MSN20060320072509603/20/06 07:25:31  5-MIN KMSN 201325Z 05008KT 10SM CLR M02/M09 A3031 510 58 -1300 040/08 RMK AO2
14837KMSN MSN20060320073009603/20/06 07:30:31  5-MIN KMSN 201330Z 05007KT 10SM CLR M02/M09 A3031 510 58 -1300 050/07 RMK AO2
14837KMSN MSN20060320073509603/20/06 07:35:31  5-MIN KMSN 201335Z 05007KT 10SM CLR M02/M09 A3032 500 58 -1300 050/07 RMK AO2
14837KMSN MSN20060320074009603/20/06 07:40:31  5-MIN KMSN 201340Z 04008KT 10SM CLR M02/M09 A3031 500 58 -1300 040/08 RMK AO2
14837KMSN MSN20060320074509603/20/06 07:45:31  5-MIN KMSN 201345Z 05008KT 10SM CLR M01/M09 A3031 500 55 -1300 050/08 RMK AO2
14837KMSN MSN20060320075011303/20/06 07:50:31  5-MIN KMSN 201350Z 05009KT 10SM CLR M01/M09 A3031 510 55 -1300 050/09 RMK AO2 SLP274 T10111089
14837KMSN MSN20060320075509603/20/06 07:55:31  5-MIN KMSN 201355Z 05009KT 10SM CLR M01/M09 A3031 510 55 -1300 050/09 RMK AO2
14837KMSN MSN20060320080009603/20/06 08:00:31  5-MIN KMSN 201400Z 05009KT 10SM CLR M01/M09 A3031 500 55 -1300 050/09 RMK AO2
14837KMSN MSN20060320080509603/20/06 08:05:31  5-MIN KMSN 201405Z 06009KT 10SM CLR M01/M09 A3031 500 55 -1300 060/09 RMK AO2
14837KMSN MSN20060320081009603/20/06 08:10:31  5-MIN KMSN 201410Z 07011KT 10SM CLR M01/M09 A3031 500 55 -1300 070/11 RMK AO2
14837KMSN MSN20060320081509603/20/06 08:15:31  5-MIN KMSN 201415Z 07014KT 10SM CLR M01/M09 A3031 500 51 -1200 060/14 RMK AO2
14837KMSN MSN20060320082009603/20/06 08:20:31  5-MIN KMSN 201420Z 05013KT 10SM CLR M01/M09 A3031 500 51 -1200 050/13 RMK AO2
14837KMSN MSN20060320082509603/20/06 08:25:31  5-MIN KMSN 201425Z 06011KT 10SM CLR M01/M09 A3031 500 53 -1200 060/11 RMK AO2
14837KMSN MSN20060320083009603/20/06 08:30:31  5-MIN KMSN 201430Z 06013KT 10SM CLR M01/M09 A3031 510 53 -1200 060/13 RMK AO2
14837KMSN MSN20060320083509503/20/06 08:35:31  5-MIN KMSN 201435Z 07014KT 10SM CLR 00/M09 A3031 510 51 -1100 060/14 RMK AO2
14837KMSN MSN20060320084009503/20/06 08:40:31  5-MIN KMSN 201440Z 08014KT 10SM CLR 00/M09 A3031 510 51 -1100 070/14 RMK AO2
14837KMSN MSN20060320084509503/20/06 08:45:31  5-MIN KMSN 201445Z 06014KT 10SM CLR 00/M09 A3031 510 51 -1100 060/14 RMK AO2
14837KMSN MSN20060320085011803/20/06 08:50:31  5-MIN KMSN 201450Z 06012KT 10SM CLR 01/M09 A3031 510 49 -1000 060/12 RMK AO2 SLP272 T00061089 53002
14837KMSN MSN20060320085510103/20/06 08:55:31  5-MIN KMSN 201455Z 06012G19KT 10SM CLR 01/M08 A3031 510 49 -1000 060/12G19 RMK AO2
14837KMSN MSN20060320090009503/20/06 09:00:31  5-MIN KMSN 201500Z 06016KT 10SM CLR 01/M08 A3031 510 51 -1000 060/16 RMK AO2
14837KMSN MSN20060320090509503/20/06 09:05:31  5-MIN KMSN 201505Z 07015KT 10SM CLR 01/M09 A3030 510 49 -1000 070/15 RMK AO2
14837KMSN MSN20060320091009503/20/06 09:10:31  5-MIN KMSN 201510Z 06014KT 10SM CLR 01/M08 A3030 510 51 -1000 060/14 RMK AO2
14837KMSN MSN20060320091509503/20/06 09:15:31  5-MIN KMSN 201515Z 05014KT 10SM CLR 01/M08 A3029 520 51 -1000 050/14 RMK AO2
14837KMSN MSN20060320092009503/20/06 09:20:31  5-MIN KMSN 201520Z 07014KT 10SM CLR 01/M08 A3029 520 49 -1000 070/14 RMK AO2
14837KMSN MSN20060320092509503/20/06 09:25:31  5-MIN KMSN 201525Z 07015KT 10SM CLR 01/M08 A3030 520 49 -1000 070/15 RMK AO2
14837KMSN MSN20060320093009503/20/06 09:30:31  5-MIN KMSN 201530Z 08014KT 10SM CLR 01/M09 A3030 520 47 -1000 080/14 RMK AO2
14837KMSN MSN20060320093509403/20/06 09:35:31  5-MIN KMSN 201535Z 05013KT 10SM CLR 02/M08 A3030 520 47 -900 050/13 RMK AO2
14837KMSN MSN20060320094009503/20/06 09:40:31  5-MIN KMSN 201540Z 08011KT 10SM CLR 01/M08 A3030 510 49 -1000 080/11 RMK AO2
14837KMSN MSN20060320094509403/20/06 09:45:31  5-MIN KMSN 201545Z 08013KT 10SM CLR 02/M08 A3030 510 47 -900 080/13 RMK AO2
14837KMSN MSN20060320095011203/20/06 09:50:31  5-MIN KMSN 201550Z 06011KT 10SM CLR 01/M08 A3030 510 49 -1000 060/11 RMK AO2 SLP271 T00111083
14837KMSN MSN20060320095509403/20/06 09:55:31  5-MIN KMSN 201555Z 07013KT 10SM CLR 02/M08 A3030 510 47 -900 070/13 RMK AO2
14837KMSN MSN20060320100009403/20/06 10:00:31  5-MIN KMSN 201600Z 08012KT 10SM CLR 02/M08 A3030 510 47 -900 080/12 RMK AO2
14837KMSN MSN20060320100509403/20/06 10:05:31  5-MIN KMSN 201605Z 08013KT 10SM CLR 02/M08 A3030 510 47 -900 080/13 RMK AO2
14837KMSN MSN20060320101009403/20/06 10:10:31  5-MIN KMSN 201610Z 05012KT 10SM CLR 02/M08 A3030 510 47 -900 050/12 RMK AO2
14837KMSN MSN20060320101509403/20/06 10:15:31  5-MIN KMSN 201615Z 07011KT 10SM CLR 02/M08 A3030 520 47 -900 070/11 RMK AO2
14837KMSN MSN20060320102010003/20/06 10:20:31  5-MIN KMSN 201620Z 08014G17KT 10SM CLR 02/M09 A3030 520 45 -900 080/14G17 RMK AO2
14837KMSN MSN20060320102509403/20/06 10:25:31  5-MIN KMSN 201625Z 07012KT 10SM CLR 02/M08 A3030 520 47 -900 070/12 RMK AO2
14837KMSN MSN20060320103009403/20/06 10:30:31  5-MIN KMSN 201630Z 09012KT 10SM CLR 02/M08 A3030 520 45 -800 090/12 RMK AO2
14837KMSN MSN20060320103509403/20/06 10:35:31  5-MIN KMSN 201635Z 08013KT 10SM CLR 02/M08 A3029 520 45 -800 080/13 RMK AO2
14837KMSN MSN20060320104009403/20/06 10:40:31  5-MIN KMSN 201640Z 05015KT 10SM CLR 02/M08 A3029 520 47 -800 050/15 RMK AO2
14837KMSN MSN20060320104509703/20/06 10:45:31  5-MIN KMSN 201645Z 06014KT 10SM FEW065 02/M08 A3029 520 45 -800 060/14 RMK AO2
14837KMSN MSN20060320105011403/20/06 10:50:31  5-MIN KMSN 201650Z 08015KT 10SM FEW065 02/M08 A3029 520 47 -800 080/15 RMK AO2 SLP268 T00221078
14837KMSN MSN20060320105509403/20/06 10:55:31  5-MIN KMSN 201655Z 09011KT 10SM CLR 02/M08 A3028 530 47 -900 090/11 RMK AO2
14837KMSN MSN20060320110010003/20/06 11:00:31  5-MIN KMSN 201700Z 07016G19KT 10SM CLR 02/M08 A3028 530 49 -900 070/16G19 RMK AO2
14837KMSN MSN20060320110510003/20/06 11:05:31  5-MIN KMSN 201705Z 05014G19KT 10SM CLR 02/M07 A3028 540 52 -900 050/14G19 RMK AO2
14837KMSN MSN20060320111009403/20/06 11:10:31  5-MIN KMSN 201710Z 08014KT 10SM CLR 02/M07 A3028 530 50 -800 080/14 RMK AO2
14837KMSN MSN20060320111509403/20/06 11:15:31  5-MIN KMSN 201715Z 08013KT 10SM CLR 02/M07 A3028 530 52 -900 080/13 RMK AO2
14837KMSN MSN20060320112009403/20/06 11:20:31  5-MIN KMSN 201720Z 07015KT 10SM CLR 02/M07 A3028 540 52 -800 070/15 RMK AO2
14837KMSN MSN20060320112509403/20/06 11:25:31  5-MIN KMSN 201725Z 08014KT 10SM CLR 02/M06 A3028 540 54 -800 080/14 RMK AO2
14837KMSN MSN20060320113009703/20/06 11:30:31  5-MIN KMSN 201730Z 08017KT 10SM FEW034 02/M06 A3028 540 54 -800 080/17 RMK AO2
14837KMSN MSN20060320113510303/20/06 11:35:31  5-MIN KMSN 201735Z 07013G21KT 10SM FEW034 02/M06 A3027 540 54 -800 070/13G21 RMK AO2
14837KMSN MSN20060320114009703/20/06 11:40:31  5-MIN KMSN 201740Z 07014KT 10SM FEW034 02/M06 A3027 540 54 -800 070/14 RMK AO2
14837KMSN MSN20060320114509703/20/06 11:45:31  5-MIN KMSN 201745Z 08014KT 10SM SCT034 02/M06 A3027 540 54 -800 080/14 RMK AO2
14837KMSN MSN20060320115013203/20/06 11:50:31  5-MIN KMSN 201750Z 08016KT 10SM SCT034 02/M06 A3027 540 54 -800 080/16 RMK AO2 SLP261 T00221061 10022 21028 55000
14837KMSN MSN20060320115509703/20/06 11:55:31  5-MIN KMSN 201755Z 08015KT 10SM FEW034 03/M06 A3027 540 54 -700 080/15 RMK AO2
14837KMSN MSN20060320120009703/20/06 12:00:31  5-MIN KMSN 201800Z 08012KT 10SM FEW034 03/M06 A3027 540 54 -700 080/12 RMK AO2
14837KMSN MSN20060320120509703/20/06 12:05:31  5-MIN KMSN 201805Z 07017KT 10SM SCT034 03/M06 A3027 550 54 -700 070/17 RMK AO2
14837KMSN MSN20060320121009703/20/06 12:10:31  5-MIN KMSN 201810Z 09017KT 10SM BKN034 03/M06 A3027 540 52 -600 090/17 RMK AO2
14837KMSN MSN20060320121509703/20/06 12:15:31  5-MIN KMSN 201815Z 07015KT 10SM BKN034 03/M06 A3027 550 54 -700 070/15 RMK AO2
14837KMSN MSN20060320122009703/20/06 12:20:31  5-MIN KMSN 201820Z 08014KT 10SM BKN034 03/M06 A3026 550 54 -700 080/14 RMK AO2
14837KMSN MSN20060320122509703/20/06 12:25:31  5-MIN KMSN 201825Z 06013KT 10SM BKN034 02/M06 A3026 550 56 -800 060/13 RMK AO2
14837KMSN MSN20060320123009703/20/06 12:30:31  5-MIN KMSN 201830Z 07014KT 10SM BKN034 03/M06 A3026 550 54 -700 070/14 RMK AO2
14837KMSN MSN20060320123509703/20/06 12:35:31  5-MIN KMSN 201835Z 08015KT 10SM BKN034 03/M06 A3026 550 52 -600 080/15 RMK AO2
14837KMSN MSN20060320124009703/20/06 12:40:31  5-MIN KMSN 201840Z 08015KT 10SM BKN034 03/M06 A3026 560 52 -600 080/15 RMK AO2
14837KMSN MSN20060320124509703/20/06 12:45:31  5-MIN KMSN 201845Z 08017KT 10SM OVC034 03/M06 A3025 560 52 -600 080/17 RMK AO2
14837KMSN MSN20060320125012003/20/06 12:50:31  5-MIN KMSN 201850Z 08016G21KT 10SM BKN034 03/M06 A3025 560 52 -600 080/16G21 RMK AO2 SLP254 T00331056
14837KMSN MSN20060320125510303/20/06 12:55:31  5-MIN KMSN 201855Z 08018G22KT 10SM OVC034 03/M06 A3025 560 52 -600 080/18G22 RMK AO2
14837KMSN MSN20060320130010303/20/06 13:00:31  5-MIN KMSN 201900Z 08011G22KT 10SM BKN034 03/M06 A3025 560 52 -600 080/11G22 RMK AO2
14837KMSN MSN20060320130510303/20/06 13:05:31  5-MIN KMSN 201905Z 07015G19KT 10SM BKN034 03/M06 A3025 560 52 -600 070/15G19 RMK AO2
14837KMSN MSN20060320131009703/20/06 13:10:31  5-MIN KMSN 201910Z 08015KT 10SM BKN034 03/M06 A3024 570 54 -700 080/15 RMK AO2
14837KMSN MSN20060320131509703/20/06 13:15:31  5-MIN KMSN 201915Z 08017KT 10SM BKN034 03/M06 A3024 570 52 -600 080/17 RMK AO2
14837KMSN MSN20060320132010303/20/06 13:20:31  5-MIN KMSN 201920Z 08011G19KT 10SM BKN034 03/M06 A3024 570 52 -600 080/11G19 RMK AO2
14837KMSN MSN20060320132510303/20/06 13:25:31  5-MIN KMSN 201925Z 07014G20KT 10SM BKN034 03/M06 A3023 580 52 -600 070/14G20 RMK AO2
14837KMSN MSN20060320133010303/20/06 13:30:31  5-MIN KMSN 201930Z 06012G20KT 10SM BKN034 03/M06 A3023 580 52 -600 060/12G20 RMK AO2
14837KMSN MSN20060320133509703/20/06 13:35:31  5-MIN KMSN 201935Z 06012KT 10SM OVC034 03/M06 A3022 590 52 -600 060/12 RMK AO2
14837KMSN MSN20060320134010303/20/06 13:40:31  5-MIN KMSN 201940Z 07014G22KT 10SM BKN034 03/M06 A3022 590 54 -700 070/14G22 RMK AO2
14837KMSN MSN20060320134510303/20/06 13:45:31  5-MIN KMSN 201945Z 07017G22KT 10SM BKN034 03/M06 A3022 590 52 -600 070/17G22 RMK AO2
14837KMSN MSN20060320135011403/20/06 13:50:31  5-MIN KMSN 201950Z 06015KT 10SM BKN034 03/M06 A3022 590 54 -700 060/15 RMK AO2 SLP243 T00281056
14837KMSN MSN20060320135509703/20/06 13:55:31  5-MIN KMSN 201955Z 07016KT 10SM BKN034 03/M06 A3022 590 52 -600 070/16 RMK AO2
14837KMSN MSN20060320140010303/20/06 14:00:31  5-MIN KMSN 202000Z 05018G22KT 10SM BKN034 03/M06 A3021 600 52 -600 050/18G22 RMK AO2
14837KMSN MSN20060320140510303/20/06 14:05:31  5-MIN KMSN 202005Z 05016G22KT 10SM BKN034 03/M06 A3021 600 54 -700 050/16G22 RMK AO2
14837KMSN MSN20060320141010303/20/06 14:10:31  5-MIN KMSN 202010Z 07017G21KT 10SM BKN034 03/M06 A3021 600 52 -600 070/17G21 RMK AO2
14837KMSN MSN20060320141510303/20/06 14:15:31  5-MIN KMSN 202015Z 06017G22KT 10SM BKN034 03/M06 A3021 600 52 -600 060/17G22 RMK AO2
14837KMSN MSN20060320142010303/20/06 14:20:31  5-MIN KMSN 202020Z 07014G22KT 10SM BKN034 03/M06 A3021 600 52 -600 070/14G22 RMK AO2
14837KMSN MSN20060320142510303/20/06 14:25:31  5-MIN KMSN 202025Z 06013G21KT 10SM BKN034 03/M06 A3021 600 52 -600 060/13G21 RMK AO2
14837KMSN MSN20060320143010303/20/06 14:30:31  5-MIN KMSN 202030Z 09017G22KT 10SM OVC034 03/M06 A3021 600 54 -700 090/17G22 RMK AO2
14837KMSN MSN20060320143510303/20/06 14:35:31  5-MIN KMSN 202035Z 07018G24KT 10SM OVC034 03/M06 A3021 600 52 -600 070/18G24 RMK AO2
14837KMSN MSN20060320144010303/20/06 14:40:31  5-MIN KMSN 202040Z 07016G24KT 10SM OVC034 02/M06 A3020 610 56 -700 070/16G24 RMK AO2
14837KMSN MSN20060320144510303/20/06 14:45:31  5-MIN KMSN 202045Z 07017G22KT 10SM OVC034 03/M06 A3020 610 54 -600 070/17G22 RMK AO2
14837KMSN MSN20060320145012603/20/06 14:50:31  5-MIN KMSN 202050Z 06017G22KT 10SM BKN034 02/M06 A3020 610 59 -800 060/17G22 RMK AO2 SLP237 T00171056 58012
14837KMSN MSN20060320145509703/20/06 14:55:31  5-MIN KMSN 202055Z 08018KT 10SM OVC034 02/M06 A3020 610 59 -800 080/18 RMK AO2
14837KMSN MSN20060320150010303/20/06 15:00:31  5-MIN KMSN 202100Z 07017G22KT 10SM OVC032 02/M06 A3020 610 59 -800 070/17G22 RMK AO2
14837KMSN MSN20060320150510303/20/06 15:05:31  5-MIN KMSN 202105Z 07016G23KT 10SM OVC032 02/M06 A3020 610 59 -800 070/16G23 RMK AO2
14837KMSN MSN20060320151010303/20/06 15:10:31  5-MIN KMSN 202110Z 07018G24KT 10SM OVC032 02/M06 A3019 610 59 -800 070/18G24 RMK AO2
14837KMSN MSN20060320151510303/20/06 15:15:31  5-MIN KMSN 202115Z 06017G24KT 10SM OVC032 02/M06 A3019 620 59 -800 060/17G24 RMK AO2
14837KMSN MSN20060320152010303/20/06 15:20:31  5-MIN KMSN 202120Z 05018G24KT 10SM OVC032 02/M06 A3019 620 59 -800 050/18G24 RMK AO2
14837KMSN MSN20060320152510303/20/06 15:25:31  5-MIN KMSN 202125Z 07016G24KT 10SM OVC032 02/M06 A3018 620 59 -800 070/16G24 RMK AO2
14837KMSN MSN20060320153010303/20/06 15:30:31  5-MIN KMSN 202130Z 07016G24KT 10SM OVC032 01/M06 A3018 620 61 -800 060/16G24 RMK AO2
14837KMSN MSN20060320153509703/20/06 15:35:31  5-MIN KMSN 202135Z 07017KT 10SM OVC032 01/M06 A3018 620 61 -800 070/17 RMK AO2
14837KMSN MSN20060320154010303/20/06 15:40:31  5-MIN KMSN 202140Z 05019G22KT 10SM OVC032 01/M06 A3018 620 58 -800 050/19G22 RMK AO2
14837KMSN MSN20060320154509703/20/06 15:45:31  5-MIN KMSN 202145Z 06019KT 10SM OVC032 01/M06 A3019 620 58 -800 050/19 RMK AO2
14837KMSN MSN20060320155012003/20/06 15:50:31  5-MIN KMSN 202150Z 05021G25KT 10SM BKN032 01/M06 A3019 620 61 -900 050/21G25 RMK AO2 SLP234 T00061061
14837KMSN MSN20060320155510303/20/06 15:55:31  5-MIN KMSN 202155Z 05019G25KT 10SM OVC030 01/M06 A3019 610 61 -900 050/19G25 RMK AO2
14837KMSN MSN20060320160009703/20/06 16:00:31  5-MIN KMSN 202200Z 06016KT 10SM OVC030 01/M06 A3019 610 61 -900 050/16 RMK AO2
14837KMSN MSN20060320160509703/20/06 16:05:31  5-MIN KMSN 202205Z 06016KT 10SM OVC030 01/M06 A3019 610 61 -900 060/16 RMK AO2
14837KMSN MSN20060320161009803/20/06 16:10:31  5-MIN KMSN 202210Z 05019KT 10SM OVC030 00/M06 A3019 610 63 -1000 050/19 RMK AO2
14837KMSN MSN20060320161509803/20/06 16:15:31  5-MIN KMSN 202215Z 06019KT 10SM OVC030 00/M07 A3019 610 61 -1000 060/19 RMK AO2
14837KMSN MSN20060320162010403/20/06 16:20:31  5-MIN KMSN 202220Z 05018G24KT 10SM BKN030 00/M07 A3019 610 61 -1000 050/18G24 RMK AO2
14837KMSN MSN20060320162509803/20/06 16:25:31  5-MIN KMSN 202225Z 06018KT 10SM BKN030 00/M07 A3019 610 61 -1000 060/18 RMK AO2
14837KMSN MSN20060320163009903/20/06 16:30:31  5-MIN KMSN 202230Z 07017KT 10SM BKN030 M01/M07 A3019 620 63 -1000 070/17 RMK AO2
14837KMSN MSN20060320163510503/20/06 16:35:31  5-MIN KMSN 202235Z 07018G24KT 10SM BKN030 M01/M07 A3019 610 63 -1000 070/18G24 RMK AO2
14837KMSN MSN20060320164010403/20/06 16:40:31  5-MIN KMSN 202240Z 08016G24KT 10SM BKN030 00/M07 A3019 620 61 -1000 080/16G24 RMK AO2
14837KMSN MSN20060320164510503/20/06 16:45:31  5-MIN KMSN 202245Z 07016G23KT 10SM BKN030 M01/M07 A3019 620 63 -1000 070/16G23 RMK AO2
14837KMSN MSN20060320165012303/20/06 16:50:31  5-MIN KMSN 202250Z 07016KT 10SM BKN030 BKN034 M01/M07 A3019 620 63 -1000 070/16 RMK AO2 SLP233 T10061067
14837KMSN MSN20060320165510403/20/06 16:55:31  5-MIN KMSN 202255Z 07019G22KT 10SM BKN030 00/M07 A3019 620 61 -1000 070/19G22 RMK AO2
14837KMSN MSN20060320170010403/20/06 17:00:31  5-MIN KMSN 202300Z 07019G22KT 10SM BKN030 00/M07 A3019 620 61 -1000 070/19G22 RMK AO2
14837KMSN MSN20060320170509903/20/06 17:05:31  5-MIN KMSN 202305Z 08018KT 10SM BKN030 M01/M07 A3019 620 63 -1000 070/18 RMK AO2
14837KMSN MSN20060320171009903/20/06 17:10:31  5-MIN KMSN 202310Z 06017KT 10SM SCT030 M01/M07 A3019 610 63 -1000 060/17 RMK AO2
14837KMSN MSN20060320171509903/20/06 17:15:31  5-MIN KMSN 202315Z 06016KT 10SM SCT030 M01/M07 A3019 610 63 -1000 060/16 RMK AO2
14837KMSN MSN20060320172009903/20/06 17:20:31  5-MIN KMSN 202320Z 06017KT 10SM BKN030 M01/M07 A3020 610 63 -1100 060/17 RMK AO2
14837KMSN MSN20060320172509903/20/06 17:25:31  5-MIN KMSN 202325Z 06013KT 10SM SCT030 M01/M07 A3020 610 63 -1100 060/13 RMK AO2
14837KMSN MSN20060320173009903/20/06 17:30:31  5-MIN KMSN 202330Z 06013KT 10SM SCT030 M01/M07 A3019 610 63 -1100 060/13 RMK AO2
14837KMSN MSN20060320173509903/20/06 17:35:31  5-MIN KMSN 202335Z 06018KT 10SM FEW030 M01/M07 A3019 610 63 -1100 060/18 RMK AO2
14837KMSN MSN20060320174010503/20/06 17:40:31  5-MIN KMSN 202340Z 06018G21KT 10SM FEW030 M01/M07 A3020 610 63 -1100 060/18G21 RMK AO2
14837KMSN MSN20060320174509903/20/06 17:45:31  5-MIN KMSN 202345Z 05015KT 10SM FEW030 M01/M07 A3020 610 66 -1100 050/15 RMK AO2
14837KMSN MSN20060320175013403/20/06 17:50:31  5-MIN KMSN 202350Z 06018KT 10SM FEW035 M01/M07 A3020 610 66 -1100 060/18 RMK AO2 SLP238 T10111067 10039 21011 56024
14837KMSN MSN20060320175509903/20/06 17:55:31  5-MIN KMSN 202355Z 05015KT 10SM FEW035 M01/M07 A3020 610 66 -1100 050/15 RMK AO2
14837KMSN MSN20060320180009903/20/06 18:00:31  5-MIN KMSN 210000Z 05013KT 10SM FEW035 M01/M07 A3020 610 66 -1100 050/13 RMK AO2
14837KMSN MSN20060320180509903/20/06 18:05:31  5-MIN KMSN 210005Z 04016KT 10SM FEW035 M01/M07 A3020 600 66 -1100 040/16 RMK AO2
14837KMSN MSN20060320181009903/20/06 18:10:31  5-MIN KMSN 210010Z 05014KT 10SM FEW035 M01/M07 A3020 600 66 -1100 050/14 RMK AO2
14837KMSN MSN20060320181509903/20/06 18:15:31  5-MIN KMSN 210015Z 05015KT 10SM FEW035 M01/M07 A3020 610 66 -1100 050/15 RMK AO2
14837KMSN MSN20060320182009903/20/06 18:20:31  5-MIN KMSN 210020Z 05015KT 10SM FEW035 M02/M07 A3020 610 69 -1200 050/15 RMK AO2
14837KMSN MSN20060320182509603/20/06 18:25:31  5-MIN KMSN 210025Z 05016KT 10SM CLR M02/M07 A3019 620 69 -1200 050/16 RMK AO2
14837KMSN MSN20060320183009603/20/06 18:30:31  5-MIN KMSN 210030Z 04016KT 10SM CLR M02/M07 A3019 620 69 -1200 040/16 RMK AO2
14837KMSN MSN20060320183510203/20/06 18:35:31  5-MIN KMSN 210035Z 05017G21KT 10SM CLR M02/M07 A3019 620 69 -1200 050/17G21 RMK AO2
14837KMSN MSN20060320184010203/20/06 18:40:31  5-MIN KMSN 210040Z 04015G21KT 10SM CLR M02/M07 A3019 620 69 -1200 040/15G21 RMK AO2
14837KMSN MSN20060320184509603/20/06 18:45:31  5-MIN KMSN 210045Z 05015KT 10SM CLR M02/M07 A3019 620 69 -1200 040/15 RMK AO2
14837KMSN MSN20060320185011303/20/06 18:50:31  5-MIN KMSN 210050Z 05016KT 10SM CLR M02/M07 A3019 620 69 -1200 050/16 RMK AO2 SLP235 T10171067
14837KMSN MSN20060320185509603/20/06 18:55:31  5-MIN KMSN 210055Z 04016KT 10SM CLR M02/M07 A3019 620 69 -1200 040/16 RMK AO2
14837KMSN MSN20060320190009603/20/06 19:00:31  5-MIN KMSN 210100Z 05014KT 10SM CLR M02/M07 A3018 620 69 -1200 050/14 RMK AO2
14837KMSN MSN20060320190509603/20/06 19:05:31  5-MIN KMSN 210105Z 05014KT 10SM CLR M02/M07 A3018 630 69 -1200 050/14 RMK AO2
14837KMSN MSN20060320191010203/20/06 19:10:31  5-MIN KMSN 210110Z 05016G21KT 10SM CLR M02/M07 A3017 630 66 -1200 050/16G21 RMK AO2
14837KMSN MSN20060320191510903/20/06 19:15:31  5-MIN KMSN 210115Z 05017G21KT 10SM CLR M02/M07 A3016 640 66 -1200 050/17G21 RMK AO2 PRESFR
14837KMSN MSN20060320192010903/20/06 19:20:31  5-MIN KMSN 210120Z 05020G24KT 10SM CLR M02/M07 A3016 650 66 -1200 050/20G24 RMK AO2 PRESFR
14837KMSN MSN20060320192512003/20/06 19:25:31  5-MIN KMSN 210125Z 05019G24KT 10SM CLR M02/M07 A3015 650 66 -1100 050/19G24 RMK AO2 PK WND 05026/0121
14837KMSN MSN20060320193011403/20/06 19:30:31  5-MIN KMSN 210130Z 04020KT 10SM CLR M02/M07 A3015 650 66 -1100 040/20 RMK AO2 PK WND 05026/0121
14837KMSN MSN20060320193511403/20/06 19:35:31  5-MIN KMSN 210135Z 05019KT 10SM CLR M02/M07 A3015 650 66 -1100 050/19 RMK AO2 PK WND 05026/0121
14837KMSN MSN20060320194011403/20/06 19:40:31  5-MIN KMSN 210140Z 05018KT 10SM CLR M02/M07 A3014 660 66 -1100 050/18 RMK AO2 PK WND 05026/0121
14837KMSN MSN20060320194511403/20/06 19:45:31  5-MIN KMSN 210145Z 05019KT 10SM CLR M02/M07 A3014 660 66 -1100 050/19 RMK AO2 PK WND 05026/0121
14837KMSN MSN20060320195013703/20/06 19:50:31  5-MIN KMSN 210150Z 05017G24KT 10SM CLR M02/M07 A3014 660 69 -1200 050/17G24 RMK AO2 PK WND 05026/0121 SLP216 T10221072
14837KMSN MSN20060320195510203/20/06 19:55:31  5-MIN KMSN 210155Z 05019G24KT 10SM CLR M02/M07 A3014 660 69 -1200 050/19G24 RMK AO2
14837KMSN MSN20060320200012003/20/06 20:00:31  5-MIN KMSN 210200Z 05022G26KT 10SM CLR M02/M07 A3014 660 69 -1200 050/22G26 RMK AO2 PK WND 05026/0200
14837KMSN MSN20060320200512003/20/06 20:05:31  5-MIN KMSN 210205Z 05020G26KT 10SM CLR M02/M08 A3014 660 66 -1200 050/20G26 RMK AO2 PK WND 06026/0203
14837KMSN MSN20060320201012003/20/06 20:10:31  5-MIN KMSN 210210Z 05021G26KT 10SM CLR M02/M07 A3014 660 69 -1200 050/21G26 RMK AO2 PK WND 06026/0203
14837KMSN MSN20060320201511403/20/06 20:15:31  5-MIN KMSN 210215Z 06022KT 10SM CLR M02/M07 A3015 660 69 -1200 050/22 RMK AO2 PK WND 06026/0203
14837KMSN MSN20060320202012003/20/06 20:20:31  5-MIN KMSN 210220Z 05019G26KT 10SM CLR M02/M07 A3015 650 69 -1200 050/19G26 RMK AO2 PK WND 05026/0218
14837KMSN MSN20060320202512003/20/06 20:25:31  5-MIN KMSN 210225Z 06017G27KT 10SM CLR M02/M08 A3015 650 66 -1200 060/17G27 RMK AO2 PK WND 06027/0221
14837KMSN MSN20060320203012003/20/06 20:30:31  5-MIN KMSN 210230Z 06015G27KT 10SM CLR M02/M07 A3015 650 69 -1200 050/15G27 RMK AO2 PK WND 06027/0221
14837KMSN MSN20060320203512003/20/06 20:35:31  5-MIN KMSN 210235Z 06018G23KT 10SM CLR M02/M07 A3015 650 69 -1200 060/18G23 RMK AO2 PK WND 06027/0221
14837KMSN MSN20060320204012003/20/06 20:40:31  5-MIN KMSN 210240Z 04014G21KT 10SM CLR M02/M07 A3016 650 69 -1200 040/14G21 RMK AO2 PK WND 06027/0221
14837KMSN MSN20060320204511403/20/06 20:45:31  5-MIN KMSN 210245Z 05019KT 10SM CLR M02/M07 A3016 650 69 -1200 050/19 RMK AO2 PK WND 06027/0221
14837KMSN MSN20060320205014603/20/06 20:50:31  5-MIN KMSN 210250Z 05018G23KT 10SM FEW035 M02/M07 A3016 650 69 -1200 050/18G23 RMK AO2 PK WND 06027/0221 SLP223 T10221072 53000
14837KMSN MSN20060320205510503/20/06 20:55:31  5-MIN KMSN 210255Z 05019G23KT 10SM FEW040 M02/M07 A3016 640 69 -1200 050/19G23 RMK AO2
14837KMSN MSN20060320210010503/20/06 21:00:31  5-MIN KMSN 210300Z 05017G23KT 10SM FEW040 M03/M07 A3016 640 71 -1300 050/17G23 RMK AO2
14837KMSN MSN20060320210510503/20/06 21:05:31  5-MIN KMSN 210305Z 05014G22KT 10SM FEW040 M03/M07 A3017 640 71 -1300 050/14G22 RMK AO2
14837KMSN MSN20060320211010503/20/06 21:10:31  5-MIN KMSN 210310Z 06017G22KT 10SM FEW040 M03/M07 A3017 640 71 -1300 060/17G22 RMK AO2
14837KMSN MSN20060320211510503/20/06 21:15:31  5-MIN KMSN 210315Z 05019G22KT 10SM FEW025 M03/M07 A3017 630 71 -1300 050/19G22 RMK AO2
14837KMSN MSN20060320212010503/20/06 21:20:31  5-MIN KMSN 210320Z 05017G22KT 10SM FEW025 M02/M07 A3017 630 69 -1200 050/17G22 RMK AO2
14837KMSN MSN20060320212509903/20/06 21:25:31  5-MIN KMSN 210325Z 05016KT 10SM FEW025 M03/M07 A3017 630 71 -1300 050/16 RMK AO2
14837KMSN MSN20060320213009903/20/06 21:30:31  5-MIN KMSN 210330Z 05019KT 10SM FEW025 M03/M07 A3017 640 71 -1300 050/19 RMK AO2
14837KMSN MSN20060320213509903/20/06 21:35:31  5-MIN KMSN 210335Z 05015KT 10SM FEW025 M03/M07 A3017 630 71 -1300 040/15 RMK AO2
14837KMSN MSN20060320214010503/20/06 21:40:31  5-MIN KMSN 210340Z 05017G24KT 10SM FEW025 M03/M07 A3017 630 71 -1300 050/17G24 RMK AO2
14837KMSN MSN20060320214510503/20/06 21:45:31  5-MIN KMSN 210345Z 05018G24KT 10SM FEW025 M02/M07 A3017 630 69 -1200 050/18G24 RMK AO2
14837KMSN MSN20060320215011603/20/06 21:50:31  5-MIN KMSN 210350Z 05020KT 10SM FEW025 M03/M07 A3017 630 71 -1300 050/20 RMK AO2 SLP228 T10281072
14837KMSN MSN20060320215509903/20/06 21:55:31  5-MIN KMSN 210355Z 05020KT 10SM FEW025 M03/M07 A3018 630 71 -1300 050/20 RMK AO2
14837KMSN MSN20060320220010503/20/06 22:00:31  5-MIN KMSN 210400Z 04020G24KT 10SM FEW025 M03/M07 A3018 630 71 -1300 040/20G24 RMK AO2
14837KMSN MSN20060320220512303/20/06 22:05:31  5-MIN KMSN 210405Z 05019G26KT 10SM FEW025 M02/M07 A3018 620 69 -1300 050/19G26 RMK AO2 PK WND 04026/0401
14837KMSN MSN20060320221012303/20/06 22:10:31  5-MIN KMSN 210410Z 05019G28KT 10SM FEW025 M02/M07 A3019 620 69 -1300 050/19G28 RMK AO2 PK WND 05028/0408
14837KMSN MSN20060320221512303/20/06 22:15:31  5-MIN KMSN 210415Z 05019G28KT 10SM FEW025 M02/M07 A3019 620 69 -1300 050/19G28 RMK AO2 PK WND 05028/0408
14837KMSN MSN20060320222011703/20/06 22:20:31  5-MIN KMSN 210420Z 05018KT 10SM FEW025 M02/M07 A3019 620 69 -1300 050/18 RMK AO2 PK WND 05028/0408
14837KMSN MSN20060320222511703/20/06 22:25:31  5-MIN KMSN 210425Z 05015KT 10SM FEW025 M02/M07 A3019 610 69 -1300 050/15 RMK AO2 PK WND 05028/0408
14837KMSN MSN20060320223012303/20/06 22:30:31  5-MIN KMSN 210430Z 05016G21KT 10SM FEW025 M02/M07 A3019 610 69 -1300 050/16G21 RMK AO2 PK WND 05028/0408
14837KMSN MSN20060320223512303/20/06 22:35:31  5-MIN KMSN 210435Z 05017G22KT 10SM FEW025 M02/M07 A3020 610 69 -1300 050/17G22 RMK AO2 PK WND 05028/0408
14837KMSN MSN20060320224012303/20/06 22:40:31  5-MIN KMSN 210440Z 05016G23KT 10SM FEW025 M02/M07 A3020 610 69 -1300 050/16G23 RMK AO2 PK WND 05028/0408
14837KMSN MSN20060320224512303/20/06 22:45:31  5-MIN KMSN 210445Z 05018G22KT 10SM FEW025 M02/M07 A3020 610 69 -1300 050/18G22 RMK AO2 PK WND 05028/0408
14837KMSN MSN20060320225014003/20/06 22:50:31  5-MIN KMSN 210450Z 05017G22KT 10SM SCT025 M02/M07 A3020 600 69 -1300 040/17G22 RMK AO2 PK WND 05028/0408 SLP237 T10221072
14837KMSN MSN20060320225509903/20/06 22:55:31  5-MIN KMSN 210455Z 05017KT 10SM BKN025 M02/M07 A3020 610 69 -1300 050/17 RMK AO2
14837KMSN MSN20060320230010503/20/06 23:00:31  5-MIN KMSN 210500Z 05018G23KT 10SM BKN025 M02/M07 A3019 610 69 -1300 050/18G23 RMK AO2
14837KMSN MSN20060320230509903/20/06 23:05:31  5-MIN KMSN 210505Z 05017KT 10SM BKN025 M02/M07 A3020 610 69 -1300 050/17 RMK AO2
14837KMSN MSN20060320231009903/20/06 23:10:31  5-MIN KMSN 210510Z 05015KT 10SM BKN025 M02/M07 A3020 610 69 -1300 050/15 RMK AO2
14837KMSN MSN20060320231509903/20/06 23:15:31  5-MIN KMSN 210515Z 06018KT 10SM OVC025 M02/M07 A3020 610 69 -1300 050/18 RMK AO2
14837KMSN MSN20060320232009903/20/06 23:20:31  5-MIN KMSN 210520Z 05018KT 10SM OVC025 M02/M07 A3020 610 69 -1300 040/18 RMK AO2
14837KMSN MSN20060320232509903/20/06 23:25:31  5-MIN KMSN 210525Z 04014KT 10SM OVC025 M02/M07 A3020 600 69 -1300 040/14 RMK AO2
14837KMSN MSN20060320233009903/20/06 23:30:31  5-MIN KMSN 210530Z 05016KT 10SM OVC025 M02/M07 A3020 600 69 -1300 040/16 RMK AO2
14837KMSN MSN20060320233509903/20/06 23:35:31  5-MIN KMSN 210535Z 04015KT 10SM OVC025 M02/M07 A3020 600 69 -1300 040/15 RMK AO2
14837KMSN MSN20060320234010503/20/06 23:40:31  5-MIN KMSN 210540Z 04017G22KT 10SM OVC025 M02/M07 A3019 610 69 -1300 040/17G22 RMK AO2
14837KMSN MSN20060320234510503/20/06 23:45:31  5-MIN KMSN 210545Z 04017G23KT 10SM OVC025 M02/M07 A3019 610 69 -1300 040/17G23 RMK AO2
14837KMSN MSN20060320235014403/20/06 23:50:31  5-MIN KMSN 210550Z 05017KT 10SM OVC025 M02/M07 A3020 610 69 -1300 050/17 RMK AO2 SLP235 T10221072 11011 21028 400391028 55014
14837KMSN MSN20060320235510503/20/06 23:55:31  5-MIN KMSN 210555Z 04017G23KT 10SM OVC025 M02/M07 A3020 610 69 -1300 040/17G23 RMK AO2
14837KMSN MSN20060321000010503/21/06 00:00:38  5-MIN KMSN 210600Z 04018G23KT 10SM OVC027 M02/M07 A3019 610 69 -1300 040/18G23 RMK AO2
14837KMSN MSN20060321000510503/21/06 00:05:31  5-MIN KMSN 210605Z 04016G25KT 10SM OVC027 M02/M07 A3019 610 69 -1300 040/16G25 RMK AO2
14837KMSN MSN20060321001010503/21/06 00:10:31  5-MIN KMSN 210610Z 04015G25KT 10SM OVC027 M02/M07 A3019 610 69 -1300 040/15G25 RMK AO2
14837KMSN MSN20060321001510503/21/06 00:15:32  5-MIN KMSN 210615Z 05016G21KT 10SM OVC027 M02/M07 A3019 620 69 -1300 050/16G21 RMK AO2
14837KMSN MSN20060321002009903/21/06 00:20:31  5-MIN KMSN 210620Z 04015KT 10SM OVC027 M02/M07 A3019 610 69 -1300 040/15 RMK AO2
14837KMSN MSN20060321002510503/21/06 00:25:31  5-MIN KMSN 210625Z 04019G22KT 10SM OVC027 M02/M07 A3019 610 69 -1300 040/19G22 RMK AO2
14837KMSN MSN20060321003010503/21/06 00:30:31  5-MIN KMSN 210630Z 04014G22KT 10SM OVC027 M02/M07 A3020 610 69 -1300 040/14G22 RMK AO2
14837KMSN MSN20060321003509903/21/06 00:35:31  5-MIN KMSN 210635Z 04020KT 10SM OVC027 M02/M07 A3020 610 69 -1300 040/20 RMK AO2
14837KMSN MSN20060321004009903/21/06 00:40:31  5-MIN KMSN 210640Z 05017KT 10SM OVC027 M02/M07 A3020 610 69 -1300 040/17 RMK AO2
14837KMSN MSN20060321004509903/21/06 00:45:31  5-MIN KMSN 210645Z 04016KT 10SM OVC027 M02/M07 A3020 610 69 -1300 040/16 RMK AO2
14837KMSN MSN20060321005012203/21/06 00:50:31  5-MIN KMSN 210650Z 05017G21KT 10SM OVC027 M02/M07 A3020 610 69 -1300 050/17G21 RMK AO2 SLP237 T10221072
14837KMSN MSN20060321005510503/21/06 00:55:31  5-MIN KMSN 210655Z 04016G21KT 10SM OVC027 M02/M07 A3020 600 69 -1300 040/16G21 RMK AO2
14837KMSN MSN20060321010010503/21/06 01:00:31  5-MIN KMSN 210700Z 04019G23KT 10SM OVC027 M02/M07 A3020 610 69 -1300 040/19G23 RMK AO2
14837KMSN MSN20060321010509903/21/06 01:05:31  5-MIN KMSN 210705Z 04017KT 10SM OVC027 M02/M07 A3020 610 69 -1300 040/17 RMK AO2
14837KMSN MSN20060321011010603/21/06 01:10:31  5-MIN KMSN 210710Z 05017KT 10SM BKN027 OVC032 M02/M07 A3019 610 69 -1300 050/17 RMK AO2
14837KMSN MSN20060321011509903/21/06 01:15:31  5-MIN KMSN 210715Z 04017KT 10SM OVC030 M02/M07 A3019 620 69 -1300 040/17 RMK AO2
14837KMSN MSN20060321012009903/21/06 01:20:31  5-MIN KMSN 210720Z 04018KT 10SM OVC030 M02/M07 A3019 620 69 -1300 040/18 RMK AO2
14837KMSN MSN20060321012510603/21/06 01:25:31  5-MIN KMSN 210725Z 05017KT 10SM BKN028 OVC033 M02/M07 A3019 620 69 -1300 050/17 RMK AO2
14837KMSN MSN20060321013010603/21/06 01:30:31  5-MIN KMSN 210730Z 03018KT 10SM BKN028 OVC033 M03/M07 A3018 620 71 -1300 030/18 RMK AO2
14837KMSN MSN20060321013510603/21/06 01:35:31  5-MIN KMSN 210735Z 03017KT 10SM BKN026 OVC033 M03/M08 A3018 620 68 -1300 030/17 RMK AO2
14837KMSN MSN20060321014011203/21/06 01:40:31  5-MIN KMSN 210740Z 04019G22KT 10SM BKN026 OVC033 M03/M08 A3018 630 68 -1300 030/19G22 RMK AO2
14837KMSN MSN20060321014509903/21/06 01:45:31  5-MIN KMSN 210745Z 04017KT 10SM OVC026 M03/M08 A3018 630 68 -1300 040/17 RMK AO2
14837KMSN MSN20060321015012203/21/06 01:50:31  5-MIN KMSN 210750Z 03017G21KT 10SM OVC026 M03/M08 A3017 630 68 -1300 030/17G21 RMK AO2 SLP226 T10281078
14837KMSN MSN20060321015510503/21/06 01:55:31  5-MIN KMSN 210755Z 03016G21KT 10SM OVC026 M03/M08 A3018 630 71 -1400 030/16G21 RMK AO2
14837KMSN MSN20060321020010503/21/06 02:00:31  5-MIN KMSN 210800Z 03015G21KT 10SM OVC026 M03/M08 A3018 630 71 -1400 030/15G21 RMK AO2
14837KMSN MSN20060321020509903/21/06 02:05:31  5-MIN KMSN 210805Z 04020KT 10SM OVC024 M03/M08 A3017 630 71 -1400 030/20 RMK AO2
14837KMSN MSN20060321021009903/21/06 02:10:31  5-MIN KMSN 210810Z 04017KT 10SM OVC024 M03/M08 A3017 630 71 -1400 040/17 RMK AO2
14837KMSN MSN20060321021509903/21/06 02:15:31  5-MIN KMSN 210815Z 04019KT 10SM OVC024 M03/M08 A3017 630 71 -1400 040/19 RMK AO2
14837KMSN MSN20060321022010503/21/06 02:20:31  5-MIN KMSN 210820Z 04015G21KT 10SM OVC024 M03/M08 A3017 630 71 -1400 040/15G21 RMK AO2
14837KMSN MSN20060321022510503/21/06 02:25:31  5-MIN KMSN 210825Z 03016G21KT 10SM OVC024 M03/M08 A3017 640 71 -1400 030/16G21 RMK AO2
14837KMSN MSN20060321023009903/21/06 02:30:31  5-MIN KMSN 210830Z 04015KT 10SM OVC024 M03/M08 A3017 640 71 -1400 030/15 RMK AO2
14837KMSN MSN20060321023509903/21/06 02:35:31  5-MIN KMSN 210835Z 04016KT 10SM OVC024 M03/M08 A3017 640 71 -1400 040/16 RMK AO2
14837KMSN MSN20060321024009903/21/06 02:40:31  5-MIN KMSN 210840Z 04019KT 10SM OVC024 M03/M08 A3016 650 71 -1400 040/19 RMK AO2
14837KMSN MSN20060321024510503/21/06 02:45:31  5-MIN KMSN 210845Z 04015G23KT 10SM OVC024 M03/M08 A3016 650 71 -1400 040/15G23 RMK AO2
14837KMSN MSN20060321025012803/21/06 02:50:31  5-MIN KMSN 210850Z 03017G23KT 10SM OVC024 M03/M08 A3015 650 71 -1400 030/17G23 RMK AO2 SLP220 T10331078 50012
14837KMSN MSN20060321025509903/21/06 02:55:31  5-MIN KMSN 210855Z 03018KT 10SM OVC024 M03/M08 A3015 650 71 -1400 030/18 RMK AO2
14837KMSN MSN20060321030010503/21/06 03:00:31  5-MIN KMSN 210900Z 03015G24KT 10SM OVC026 M03/M08 A3015 650 71 -1400 030/15G24 RMK AO2
14837KMSN MSN20060321030510403/21/06 03:05:31  5-MIN KMSN 210905Z 04016G24KT 9SM OVC026 M04/M08 A3015 650 74 -1400 030/16G24 RMK AO2
14837KMSN MSN20060321031010403/21/06 03:10:31  5-MIN KMSN 210910Z 04018G23KT 7SM OVC026 M04/M08 A3015 660 74 -1400 040/18G23 RMK AO2
14837KMSN MSN20060321031510403/21/06 03:15:31  5-MIN KMSN 210915Z 04014G23KT 7SM OVC026 M04/M08 A3015 650 74 -1400 040/14G23 RMK AO2
14837KMSN MSN20060321032010403/21/06 03:20:31  5-MIN KMSN 210920Z 03013G21KT 7SM OVC026 M04/M08 A3015 650 74 -1400 030/13G21 RMK AO2
14837KMSN MSN20060321032510703/21/06 03:25:31  5-MIN KMSN 210925Z 04016G21KT 6SM HZ OVC028 M04/M08 A3015 650 74 -1400 030/16G21 RMK AO2
14837KMSN MSN20060321033010103/21/06 03:30:31  5-MIN KMSN 210930Z 04015KT 6SM HZ OVC028 M04/M08 A3014 660 74 -1400 040/15 RMK AO2
14837KMSN MSN20060321033510103/21/06 03:35:31  5-MIN KMSN 210935Z 03016KT 6SM HZ OVC028 M04/M08 A3014 660 74 -1400 030/16 RMK AO2
14837KMSN MSN20060321034010703/21/06 03:40:31  5-MIN KMSN 210940Z 03018G23KT 6SM HZ OVC028 M04/M08 A3013 670 74 -1400 030/18G23 RMK AO2
14837KMSN MSN20060321034510703/21/06 03:45:31  5-MIN KMSN 210945Z 03016G23KT 6SM HZ OVC028 M04/M08 A3014 670 74 -1400 030/16G23 RMK AO2
14837KMSN MSN20060321035013703/21/06 03:50:31  5-MIN KMSN 210950Z 04015G23KT 6SM -SN OVC026 M04/M08 A3013 670 74 -1400 030/15G23 RMK AO2 SNB48 SLP215 P0000 T10391078
14837KMSN MSN20060321035511403/21/06 03:55:31  5-MIN KMSN 210955Z 03016G22KT 6SM -SN OVC028 M04/M08 A3013 670 74 -1400 030/16G22 RMK AO2 P0000
14837KMSN MSN20060321040011403/21/06 04:00:31  5-MIN KMSN 211000Z 04018G22KT 6SM -SN OVC028 M04/M08 A3013 670 74 -1400 040/18G22 RMK AO2 P0000
14837KMSN MSN20060321040511403/21/06 04:05:31  5-MIN KMSN 211005Z 03016G22KT 7SM -SN OVC028 M04/M08 A3012 680 74 -1400 030/16G22 RMK AO2 P0000
14837KMSN MSN20060321041011403/21/06 04:10:31  5-MIN KMSN 211010Z 03015G21KT 8SM -SN OVC028 M04/M08 A3012 680 74 -1400 030/15G21 RMK AO2 P0000
14837KMSN MSN20060321041510803/21/06 04:15:31  5-MIN KMSN 211015Z 03018KT 9SM -SN OVC030 M04/M08 A3012 680 74 -1400 030/18 RMK AO2 P0000
14837KMSN MSN20060321042010803/21/06 04:20:31  5-MIN KMSN 211020Z 03019KT 9SM -SN OVC029 M04/M08 A3011 690 74 -1400 030/19 RMK AO2 P0000
14837KMSN MSN20060321042510803/21/06 04:25:31  5-MIN KMSN 211025Z 03017KT 9SM -SN OVC029 M04/M08 A3011 690 74 -1400 030/17 RMK AO2 P0000
14837KMSN MSN20060321043011403/21/06 04:30:31  5-MIN KMSN 211030Z 03015G22KT 9SM -SN OVC029 M04/M08 A3011 690 74 -1400 030/15G22 RMK AO2 P0000
14837KMSN MSN20060321043511403/21/06 04:35:31  5-MIN KMSN 211035Z 03018G23KT 9SM -SN OVC029 M04/M07 A3011 690 78 -1400 030/18G23 RMK AO2 P0000
14837KMSN MSN20060321044011403/21/06 04:40:31  5-MIN KMSN 211040Z 03016G23KT 9SM -SN OVC029 M04/M07 A3011 690 78 -1400 030/16G23 RMK AO2 P0000
14837KMSN MSN20060321044511403/21/06 04:45:31  5-MIN KMSN 211045Z 03018G24KT 9SM -SN OVC029 M04/M07 A3011 690 78 -1400 030/18G24 RMK AO2 P0000
14837KMSN MSN20060321045013303/21/06 04:50:31  5-MIN KMSN 211050Z 03018G24KT 9SM OVC027 M04/M07 A3011 690 78 -1400 030/18G24 RMK AO2 SNE47 SLP208 P0000 T10391072
14837KMSN MSN20060321045509903/21/06 04:55:31  5-MIN KMSN 211055Z 03019KT 10SM OVC027 M04/M08 A3011 690 74 -1400 030/19 RMK AO2
14837KMSN MSN20060321050010503/21/06 05:00:31  5-MIN KMSN 211100Z 03016G23KT 10SM OVC027 M04/M07 A3011 690 78 -1400 030/16G23 RMK AO2
14837KMSN MSN20060321050512103/21/06 05:05:31  5-MIN KMSN 211105Z 04017G23KT 10SM -SN OVC027 M04/M07 A3011 690 78 -1400 040/17G23 RMK AO2 SNB04 P0000
14837KMSN MSN20060321051011403/21/06 05:10:31  5-MIN KMSN 211110Z 04019KT 9SM -SN OVC025 M04/M07 A3011 690 78 -1400 040/19 RMK AO2 SNB04 P0000
14837KMSN MSN20060321051511403/21/06 05:15:31  5-MIN KMSN 211115Z 04019KT 9SM -SN OVC025 M04/M07 A3011 690 78 -1400 040/19 RMK AO2 SNB04 P0000
14837KMSN MSN20060321052012003/21/06 05:20:31  5-MIN KMSN 211120Z 04020G24KT 9SM -SN OVC025 M04/M07 A3011 690 78 -1400 040/20G24 RMK AO2 SNB04 P0000
14837KMSN MSN20060321052512703/21/06 05:25:31  5-MIN KMSN 211125Z 03018G24KT 8SM -SN FEW018 OVC025 M04/M07 A3011 690 78 -1400 030/18G24 RMK AO2 SNB04 P0000
14837KMSN MSN20060321053014503/21/06 05:30:31  5-MIN KMSN 211130Z 04021G26KT 7SM -SN FEW018 OVC025 M04/M07 A3011 690 78 -1400 040/21G26 RMK AO2 PK WND 05026/1130 SNB04 P0000
14837KMSN MSN20060321053514503/21/06 05:35:31  5-MIN KMSN 211135Z 04018G26KT 7SM -SN FEW018 OVC025 M04/M07 A3011 690 78 -1400 040/18G26 RMK AO2 PK WND 05026/1130 SNB04 P0000
14837KMSN MSN20060321054014503/21/06 05:40:31  5-MIN KMSN 211140Z 03017G23KT 7SM -SN FEW020 OVC027 M04/M07 A3011 690 78 -1400 030/17G23 RMK AO2 PK WND 05026/1130 SNB04 P0000
14837KMSN MSN20060321054513903/21/06 05:45:31  5-MIN KMSN 211145Z 04016KT 8SM -SN FEW018 OVC027 M04/M07 A3011 690 78 -1400 030/16 RMK AO2 PK WND 05026/1130 SNB04 P0000
14837KMSN MSN20060321055017903/21/06 05:50:31  5-MIN KMSN 211150Z 03017G22KT 8SM -SN OVC027 M04/M07 A3011 690 78 -1400 030/17G22 RMK AO2 PK WND 05026/1130 SNB04 SLP209 P0000 60000 T10391072 11022 21039 58015
14837KMSN MSN20060321055511403/21/06 05:55:31  5-MIN KMSN 211155Z 03018G22KT 9SM -SN OVC027 M04/M07 A3012 680 78 -1400 030/18G22 RMK AO2 P0000
14837KMSN MSN20060321060010803/21/06 06:00:31  5-MIN KMSN 211200Z 04018KT 8SM -SN OVC027 M04/M07 A3011 680 78 -1400 040/18 RMK AO2 P0000
14837KMSN MSN20060321060510803/21/06 06:05:31  5-MIN KMSN 211205Z 04017KT 7SM -SN OVC027 M04/M07 A3012 680 78 -1400 030/17 RMK AO2 P0000
14837KMSN MSN20060321061010803/21/06 06:10:31  5-MIN KMSN 211210Z 04018KT 7SM -SN OVC029 M04/M07 A3012 680 78 -1400 030/18 RMK AO2 P0000
14837KMSN MSN20060321061511403/21/06 06:15:31  5-MIN KMSN 211215Z 04019G24KT 6SM -SN OVC029 M04/M07 A3012 680 78 -1400 040/19G24 RMK AO2 P0000
14837KMSN MSN20060321062013203/21/06 06:20:31  5-MIN KMSN 211220Z 04020G26KT 6SM -SN OVC029 M04/M07 A3012 680 78 -1400 040/20G26 RMK AO2 PK WND 04026/1220 P0000
14837KMSN MSN20060321062513203/21/06 06:25:31  5-MIN KMSN 211225Z 04016G26KT 7SM -SN OVC031 M04/M07 A3012 680 78 -1400 040/16G26 RMK AO2 PK WND 04026/1220 P0000
14837KMSN MSN20060321063012603/21/06 06:30:31  5-MIN KMSN 211230Z 04017KT 8SM -SN OVC031 M04/M07 A3012 680 78 -1400 040/17 RMK AO2 PK WND 04026/1220 P0000
14837KMSN MSN20060321063512603/21/06 06:35:31  5-MIN KMSN 211235Z 04016KT 9SM -SN OVC031 M03/M07 A3012 680 74 -1300 040/16 RMK AO2 PK WND 04026/1220 P0000
14837KMSN MSN20060321064013903/21/06 06:40:31  5-MIN KMSN 211240Z 04019G24KT 9SM -SN FEW024 OVC031 M03/M07 A3013 670 74 -1300 040/19G24 RMK AO2 PK WND 04026/1220 P0000
14837KMSN MSN20060321064513403/21/06 06:45:31  5-MIN KMSN 211245Z 04016G24KT 9SM OVC029 M03/M07 A3013 670 74 -1300 040/16G24 RMK AO2 PK WND 04026/1220 SNE41 P0000
14837KMSN MSN20060321065013503/21/06 06:50:31  5-MIN KMSN 211250Z 04016G21KT 10SM OVC029 M03/M07 A3013 670 74 -1300 030/16G21 RMK AO2 PK WND 04026/1220 SNE41 P0000
14837KMSN MSN20060321065509903/21/06 06:55:31  5-MIN KMSN 211255Z 04016KT 10SM OVC029 M03/M07 A3014 670 74 -1300 030/16 RMK AO2
14837KMSN MSN20060321070010503/21/06 07:00:31  5-MIN KMSN 211300Z 04015G22KT 10SM OVC029 M03/M07 A3014 660 74 -1300 040/15G22 RMK AO2
14837KMSN MSN20060321070510503/21/06 07:05:31  5-MIN KMSN 211305Z 03015G22KT 10SM OVC029 M03/M07 A3014 660 74 -1300 030/15G22 RMK AO2
14837KMSN MSN20060321071010503/21/06 07:10:31  5-MIN KMSN 211310Z 04014G21KT 10SM OVC031 M03/M07 A3014 660 74 -1300 030/14G21 RMK AO2
14837KMSN MSN20060321071510503/21/06 07:15:31  5-MIN KMSN 211315Z 04014G21KT 10SM OVC031 M03/M07 A3014 660 74 -1300 040/14G21 RMK AO2
14837KMSN MSN20060321072009903/21/06 07:20:31  5-MIN KMSN 211320Z 03014KT 10SM OVC031 M03/M07 A3015 660 74 -1400 030/14 RMK AO2
14837KMSN MSN20060321072509903/21/06 07:25:31  5-MIN KMSN 211325Z 03014KT 10SM OVC031 M03/M07 A3015 660 74 -1400 030/14 RMK AO2
14837KMSN MSN20060321073009903/21/06 07:30:31  5-MIN KMSN 211330Z 02017KT 10SM OVC031 M03/M07 A3015 650 74 -1400 020/17 RMK AO2
14837KMSN MSN20060321073509903/21/06 07:35:31  5-MIN KMSN 211335Z 03013KT 10SM OVC031 M03/M07 A3015 650 74 -1400 030/13 RMK AO2
14837KMSN MSN20060321074011503/21/06 07:40:31  5-MIN KMSN 211340Z 02016KT 10SM -SN OVC031 M03/M07 A3015 650 74 -1400 020/16 RMK AO2 SNB36 P0000
14837KMSN MSN20060321074512003/21/06 07:45:31  5-MIN KMSN 211345Z 03014G20KT 9SM -SN OVC031 M03/M07 A3015 650 74 -1400 030/14G20 RMK AO2 SNB36 P0000
14837KMSN MSN20060321075013103/21/06 07:50:31  5-MIN KMSN 211350Z 02017KT 9SM -SN OVC031 M03/M07 A3015 650 74 -1400 020/17 RMK AO2 SNB36 SLP222 P0000 T10331072
14837KMSN MSN20060321075512103/21/06 07:55:31  5-MIN KMSN 211355Z 03018G22KT 8SM -SN FEW023 OVC029 M03/M07 A3015 650 74 -1400 020/18G22 RMK AO2 P0000
14837KMSN MSN20060321080012103/21/06 08:00:31  5-MIN KMSN 211400Z 03016G22KT 7SM -SN SCT023 OVC029 M03/M07 A3015 650 74 -1400 020/16G22 RMK AO2 P0000
14837KMSN MSN20060321080512103/21/06 08:05:31  5-MIN KMSN 211405Z 03014G20KT 7SM -SN SCT023 OVC029 M03/M07 A3016 650 74 -1400 030/14G20 RMK AO2 P0000
14837KMSN MSN20060321081012103/21/06 08:10:31  5-MIN KMSN 211410Z 04014G20KT 7SM -SN BKN023 OVC029 M03/M07 A3016 650 71 -1300 040/14G20 RMK AO2 P0000
14837KMSN MSN20060321081512103/21/06 08:15:31  5-MIN KMSN 211415Z 03016G21KT 8SM -SN BKN024 OVC031 M03/M07 A3016 640 71 -1300 030/16G21 RMK AO2 P0000
14837KMSN MSN20060321082011503/21/06 08:20:31  5-MIN KMSN 211420Z 03016KT 8SM -SN BKN024 OVC031 M03/M07 A3016 640 74 -1400 030/16 RMK AO2 P0000
14837KMSN MSN20060321082511503/21/06 08:25:31  5-MIN KMSN 211425Z 03018KT 8SM -SN BKN024 OVC029 M03/M08 A3016 640 68 -1300 030/18 RMK AO2 P0000
14837KMSN MSN20060321083011503/21/06 08:30:31  5-MIN KMSN 211430Z 03016KT 8SM -SN BKN024 OVC029 M03/M08 A3017 640 68 -1300 030/16 RMK AO2 P0000
14837KMSN MSN20060321083512103/21/06 08:35:31  5-MIN KMSN 211435Z 04017G24KT 7SM -SN BKN024 OVC029 M03/M08 A3017 640 68 -1300 030/17G24 RMK AO2 P0000
14837KMSN MSN20060321084012103/21/06 08:40:31  5-MIN KMSN 211440Z 03018G24KT 5SM -SN BKN024 OVC029 M03/M08 A3017 630 68 -1300 030/18G24 RMK AO2 P0000
14837KMSN MSN20060321084511403/21/06 08:45:31  5-MIN KMSN 211445Z 04017G24KT 5SM -SN OVC024 M03/M08 A3017 630 68 -1300 030/17G24 RMK AO2 P0000
14837KMSN MSN20060321085015003/21/06 08:50:31  5-MIN KMSN 211450Z 04018G22KT 6SM -SN BKN025 OVC032 M03/M08 A3017 630 68 -1300 040/18G22 RMK AO2 SLP229 P0000 60000 T10281078 55012
14837KMSN MSN20060321085511503/21/06 08:55:31  5-MIN KMSN 211455Z 03018KT 5SM -SN BKN025 OVC034 M03/M08 A3017 630 68 -1300 030/18 RMK AO2 P0000
14837KMSN MSN20060321090012103/21/06 09:00:31  5-MIN KMSN 211500Z 03019G24KT 5SM -SN BKN025 OVC034 M03/M08 A3018 630 68 -1300 030/19G24 RMK AO2 P0000
14837KMSN MSN20060321090512103/21/06 09:05:31  5-MIN KMSN 211505Z 03019G23KT 5SM -SN BKN027 OVC034 M03/M08 A3018 630 68 -1300 030/19G23 RMK AO2 P0000
14837KMSN MSN20060321091011503/21/06 09:10:31  5-MIN KMSN 211510Z 03015KT 5SM -SN SCT027 OVC034 M02/M08 A3018 630 66 -1200 030/15 RMK AO2 P0000
14837KMSN MSN20060321091512103/21/06 09:15:31  5-MIN KMSN 211515Z 04018G23KT 6SM -SN FEW025 OVC036 M02/M08 A3018 630 66 -1200 040/18G23 RMK AO2 P0000
14837KMSN MSN20060321092012103/21/06 09:20:31  5-MIN KMSN 211520Z 04018G23KT 8SM -SN FEW025 OVC036 M02/M08 A3018 630 66 -1200 040/18G23 RMK AO2 P0000
14837KMSN MSN20060321092512103/21/06 09:25:31  5-MIN KMSN 211525Z 02019G23KT 9SM -SN FEW024 OVC036 M02/M08 A3018 630 66 -1200 020/19G23 RMK AO2 P0000
14837KMSN MSN20060321093012103/21/06 09:30:31  5-MIN KMSN 211530Z 03018G25KT 9SM -SN FEW024 OVC036 M02/M08 A3018 620 63 -1200 030/18G25 RMK AO2 P0000
14837KMSN MSN20060321093512303/21/06 09:35:31  5-MIN KMSN 211535Z 03020G25KT 9SM FEW024 OVC036 M02/M08 A3018 620 66 -1200 030/20G25 RMK AO2 SNE35 P0000
14837KMSN MSN20060321094011703/21/06 09:40:31  5-MIN KMSN 211540Z 03019KT 9SM FEW024 OVC036 M02/M08 A3018 620 60 -1200 030/19 RMK AO2 SNE35 P0000
14837KMSN MSN20060321094511603/21/06 09:45:31  5-MIN KMSN 211545Z 02018KT 10SM -SN FEW024 OVC036 M02/M08 A3018 620 60 -1200 020/18 RMK AO2 P0000
14837KMSN MSN20060321095014003/21/06 09:50:31  5-MIN KMSN 211550Z 02018G23KT 9SM FEW024 OVC036 M02/M08 A3018 630 60 -1200 020/18G23 RMK AO2 SNE50 SLP232 P0000 T10171083
14837KMSN MSN20060321095511503/21/06 09:55:31  5-MIN KMSN 211555Z 02019KT 9SM -SN FEW026 OVC036 M02/M08 A3018 620 60 -1200 020/19 RMK AO2 P0000
14837KMSN MSN20060321100012103/21/06 10:00:31  5-MIN KMSN 211600Z 02020G24KT 9SM -SN FEW026 OVC036 M02/M08 A3018 620 60 -1200 020/20G24 RMK AO2 P0000
14837KMSN MSN20060321100510803/21/06 10:05:31  5-MIN KMSN 211605Z 03017KT 9SM -SN OVC036 M02/M08 A3018 620 60 -1200 030/17 RMK AO2 P0000
14837KMSN MSN20060321101011603/21/06 10:10:31  5-MIN KMSN 211610Z 02019G24KT 9SM OVC036 M01/M08 A3018 620 58 -1100 020/19G24 RMK AO2 SNE09 P0000
14837KMSN MSN20060321101511803/21/06 10:15:31  5-MIN KMSN 211615Z 02022KT 10SM FEW028 BKN036 M01/M08 A3018 620 58 -1100 020/22 RMK AO2 SNE09 P0000
14837KMSN MSN20060321102012403/21/06 10:20:31  5-MIN KMSN 211620Z 03018G24KT 10SM FEW030 BKN036 M01/M08 A3018 620 56 -1000 030/18G24 RMK AO2 SNE09 P0000
14837KMSN MSN20060321102511103/21/06 10:25:31  5-MIN KMSN 211625Z 04020KT 10SM BKN036 M01/M08 A3018 620 56 -1000 040/20 RMK AO2 SNE09 P0000
14837KMSN MSN20060321103011103/21/06 10:30:31  5-MIN KMSN 211630Z 03017KT 10SM BKN036 M01/M08 A3018 620 56 -1000 030/17 RMK AO2 SNE09 P0000
14837KMSN MSN20060321103511803/21/06 10:35:31  5-MIN KMSN 211635Z 02019KT 10SM SCT031 SCT038 M01/M08 A3019 620 56 -1000 020/19 RMK AO2 SNE09 P0000
14837KMSN MSN20060321104011603/21/06 10:40:31  5-MIN KMSN 211640Z 03022G25KT 10SM SCT031 00/M08 A3019 620 53 -1000 020/22G25 RMK AO2 SNE09 P0000
14837KMSN MSN20060321104513503/21/06 10:45:31  5-MIN KMSN 211645Z 02020G25KT 10SM FEW031 M01/M09 A3019 620 55 -1100 020/20G25 RMK AO2 PK WND 03026/1641 SNE09 P0000
14837KMSN MSN20060321105015203/21/06 10:50:31  5-MIN KMSN 211650Z 04017G24KT 10SM SCT031 M01/M09 A3019 620 53 -1000 040/17G24 RMK AO2 PK WND 03026/1641 SNE09 SLP233 P0000 T10061089
14837KMSN MSN20060321105510403/21/06 10:55:31  5-MIN KMSN 211655Z 03020G24KT 10SM BKN031 00/M08 A3019 620 53 -1000 030/20G24 RMK AO2
14837KMSN MSN20060321110010503/21/06 11:00:31  5-MIN KMSN 211700Z 03020G24KT 10SM BKN031 M01/M09 A3019 610 53 -1100 030/20G24 RMK AO2
14837KMSN MSN20060321110509903/21/06 11:05:31  5-MIN KMSN 211705Z 03018KT 10SM BKN031 M01/M09 A3019 610 53 -1100 030/18 RMK AO2
14837KMSN MSN20060321111009803/21/06 11:10:31  5-MIN KMSN 211710Z 04017KT 10SM BKN031 00/M09 A3019 610 51 -1000 030/17 RMK AO2
14837KMSN MSN20060321111510403/21/06 11:15:31  5-MIN KMSN 211715Z 02020G24KT 10SM BKN031 00/M08 A3019 610 53 -1000 020/20G24 RMK AO2
14837KMSN MSN20060321112012303/21/06 11:20:31  5-MIN KMSN 211720Z 01021G27KT 10SM BKN031 M01/M09 A3019 610 53 -1000 010/21G27 RMK AO2 PK WND 01027/1716
14837KMSN MSN20060321112512203/21/06 11:25:31  5-MIN KMSN 211725Z 03017G27KT 10SM BKN031 00/M09 A3019 610 51 -1000 030/17G27 RMK AO2 PK WND 01027/1716
14837KMSN MSN20060321113012303/21/06 11:30:31  5-MIN KMSN 211730Z 03016G23KT 10SM BKN031 M01/M09 A3019 610 53 -1100 020/16G23 RMK AO2 PK WND 01027/1716
14837KMSN MSN20060321113512303/21/06 11:35:31  5-MIN KMSN 211735Z 01021G24KT 10SM BKN031 M01/M09 A3019 610 53 -1100 010/21G24 RMK AO2 PK WND 01027/1716
14837KMSN MSN20060321114012303/21/06 11:40:31  5-MIN KMSN 211740Z 02021G26KT 10SM BKN031 M01/M09 A3019 610 53 -1100 020/21G26 RMK AO2 PK WND 01027/1716
14837KMSN MSN20060321114512303/21/06 11:45:31  5-MIN KMSN 211745Z 03018G26KT 10SM BKN034 M01/M09 A3019 610 53 -1000 030/18G26 RMK AO2 PK WND 01027/1716
14837KMSN MSN20060321115016303/21/06 11:50:31  5-MIN KMSN 211750Z 01020G25KT 10SM BKN034 00/M09 A3019 610 51 -1000 010/20G25 RMK AO2 PK WND 01027/1716 SLP235 60000 T00001089 10000 21039 53013
14837KMSN MSN20060321115512303/21/06 11:55:31  5-MIN KMSN 211755Z 03018G26KT 10SM BKN034 M01/M09 A3019 610 53 -1100 030/18G26 RMK AO2 PK WND 02026/1754
14837KMSN MSN20060321120012103/21/06 12:00:31  5-MIN KMSN 211800Z 02019G26KT 10SM OVC034 01/M09 A3019 610 49 -900 010/19G26 RMK AO2 PK WND 02026/1754
14837KMSN MSN20060321120512103/21/06 12:05:31  5-MIN KMSN 211805Z 03017G23KT 10SM BKN034 01/M09 A3019 610 49 -900 030/17G23 RMK AO2 PK WND 02026/1754
14837KMSN MSN20060321121012203/21/06 12:10:31  5-MIN KMSN 211810Z 04020G23KT 10SM BKN036 00/M09 A3019 610 49 -1000 040/20G23 RMK AO2 PK WND 02026/1754
14837KMSN MSN20060321121512203/21/06 12:15:31  5-MIN KMSN 211815Z 02018G26KT 10SM BKN036 00/M09 A3019 610 49 -1000 010/18G26 RMK AO2 PK WND 02026/1812
14837KMSN MSN20060321122012303/21/06 12:20:31  5-MIN KMSN 211820Z 02018G26KT 10SM BKN036 M01/M09 A3019 610 53 -1100 020/18G26 RMK AO2 PK WND 02026/1812
14837KMSN MSN20060321122511703/21/06 12:25:31  5-MIN KMSN 211825Z 03020KT 10SM BKN036 M01/M09 A3019 610 53 -1100 030/20 RMK AO2 PK WND 02026/1812
14837KMSN MSN20060321123012303/21/06 12:30:31  5-MIN KMSN 211830Z 04016G23KT 10SM BKN034 M01/M09 A3019 610 51 -1100 030/16G23 RMK AO2 PK WND 02026/1812
14837KMSN MSN20060321123512303/21/06 12:35:31  5-MIN KMSN 211835Z 02016G21KT 10SM BKN036 M01/M09 A3019 610 53 -1000 020/16G21 RMK AO2 PK WND 02026/1812
14837KMSN MSN20060321124012303/21/06 12:40:31  5-MIN KMSN 211840Z 03016G21KT 10SM BKN036 M01/M09 A3019 620 53 -1000 020/16G21 RMK AO2 PK WND 02026/1812
14837KMSN MSN20060321124511603/21/06 12:45:31  5-MIN KMSN 211845Z 03014KT 10SM BKN034 00/M09 A3019 620 51 -1000 030/14 RMK AO2 PK WND 02026/1812
14837KMSN MSN20060321125013303/21/06 12:50:31  5-MIN KMSN 211850Z 01013KT 10SM BKN034 00/M09 A3019 620 51 -1000 010/13 RMK AO2 PK WND 02026/1812 SLP233 T00001089
14837KMSN MSN20060321125510503/21/06 12:55:31  5-MIN KMSN 211855Z 01016G20KT 10SM BKN034 M01/M09 A3019 620 53 -1000 360/16G20 RMK AO2
14837KMSN MSN20060321130010503/21/06 13:00:31  5-MIN KMSN 211900Z 02017G21KT 10SM OVC034 M01/M09 A3018 620 53 -1000 020/17G21 RMK AO2
14837KMSN MSN20060321130510403/21/06 13:05:31  5-MIN KMSN 211905Z 03016G21KT 10SM BKN034 00/M09 A3018 620 51 -1000 020/16G21 RMK AO2
14837KMSN MSN20060321131010403/21/06 13:10:31  5-MIN KMSN 211910Z 02017G22KT 10SM BKN034 00/M09 A3018 630 51 -1000 020/17G22 RMK AO2
14837KMSN MSN20060321131509803/21/06 13:15:31  5-MIN KMSN 211915Z 02017KT 10SM BKN034 00/M09 A3018 620 51 -1000 020/17 RMK AO2
14837KMSN MSN20060321132009803/21/06 13:20:31  5-MIN KMSN 211920Z 04016KT 10SM SCT034 00/M09 A3018 630 51 -1000 040/16 RMK AO2
14837KMSN MSN20060321132510303/21/06 13:25:31  5-MIN KMSN 211925Z 02015G20KT 10SM SCT034 01/M09 A3018 630 49 -900 020/15G20 RMK AO2
14837KMSN MSN20060321133010303/21/06 13:30:31  5-MIN KMSN 211930Z 03015G20KT 10SM SCT034 01/M09 A3017 630 49 -900 030/15G20 RMK AO2
14837KMSN MSN20060321133510403/21/06 13:35:31  5-MIN KMSN 211935Z 01017G22KT 10SM SCT036 00/M09 A3018 630 51 -1000 010/17G22 RMK AO2
14837KMSN MSN20060321134010403/21/06 13:40:31  5-MIN KMSN 211940Z 02015G22KT 10SM SCT036 00/M09 A3017 630 51 -1000 020/15G22 RMK AO2
14837KMSN MSN20060321134510303/21/06 13:45:31  5-MIN KMSN 211945Z 02016G20KT 10SM SCT036 01/M08 A3017 630 49 -800 020/16G20 RMK AO2
14837KMSN MSN20060321135012003/21/06 13:50:31  5-MIN KMSN 211950Z 01012G20KT 10SM SCT036 01/M09 A3017 630 49 -900 010/12G20 RMK AO2 SLP227 T00061089
14837KMSN MSN20060321135509703/21/06 13:55:31  5-MIN KMSN 211955Z 01018KT 10SM SCT036 01/M09 A3017 630 47 -800 010/18 RMK AO2
14837KMSN MSN20060321140010303/21/06 14:00:31  5-MIN KMSN 212000Z 02016G22KT 10SM FEW036 01/M09 A3017 640 45 -800 020/16G22 RMK AO2
14837KMSN MSN20060321140510303/21/06 14:05:31  5-MIN KMSN 212005Z 03017G22KT 10SM FEW036 01/M09 A3017 640 45 -800 020/17G22 RMK AO2
14837KMSN MSN20060321141010303/21/06 14:10:31  5-MIN KMSN 212010Z 04018G23KT 10SM SCT036 02/M09 A3016 640 43 -700 030/18G23 RMK AO2
14837KMSN MSN20060321141510303/21/06 14:15:31  5-MIN KMSN 212015Z 02018G23KT 10SM SCT036 02/M10 A3017 640 42 -700 020/18G23 RMK AO2
14837KMSN MSN20060321142009703/21/06 14:20:31  5-MIN KMSN 212020Z 04016KT 10SM SCT036 01/M09 A3017 640 45 -800 040/16 RMK AO2
14837KMSN MSN20060321142510303/21/06 14:25:31  5-MIN KMSN 212025Z 01016G21KT 10SM SCT036 02/M09 A3017 640 43 -700 010/16G21 RMK AO2
14837KMSN MSN20060321143010303/21/06 14:30:31  5-MIN KMSN 212030Z 03016G21KT 10SM SCT036 02/M09 A3016 640 43 -700 020/16G21 RMK AO2
14837KMSN MSN20060321143509703/21/06 14:35:31  5-MIN KMSN 212035Z 36015KT 10SM SCT036 02/M09 A3016 640 43 -700 360/15 RMK AO2
14837KMSN MSN20060321144009703/21/06 14:40:31  5-MIN KMSN 212040Z 03017KT 10SM SCT036 02/M09 A3016 640 42 -700 020/17 RMK AO2
14837KMSN MSN20060321144510303/21/06 14:45:31  5-MIN KMSN 212045Z 01016G23KT 10SM SCT036 02/M09 A3016 640 42 -700 010/16G23 RMK AO2
14837KMSN MSN20060321145012603/21/06 14:50:31  5-MIN KMSN 212050Z 36014G23KT 10SM SCT038 02/M09 A3016 640 42 -700 360/14G23 RMK AO2 SLP225 T00221094 51007
14837KMSN MSN20060321145511003/21/06 14:55:31  5-MIN KMSN 212055Z 01016G22KT 10SM FEW038 SCT046 02/M09 A3017 640 42 -700 010/16G22 RMK AO2
14837KMSN MSN20060321150010403/21/06 15:00:31  5-MIN KMSN 212100Z 01015KT 10SM FEW038 SCT046 02/M09 A3017 640 42 -700 010/15 RMK AO2
14837KMSN MSN20060321150510403/21/06 15:05:31  5-MIN KMSN 212105Z 01014KT 10SM FEW038 SCT046 02/M09 A3017 640 42 -700 010/14 RMK AO2
14837KMSN MSN20060321151011003/21/06 15:10:31  5-MIN KMSN 212110Z 03018G22KT 10SM FEW038 SCT046 02/M10 A3016 640 40 -700 030/18G22 RMK AO2
14837KMSN MSN20060321151510003/21/06 15:15:31  5-MIN KMSN 212115Z 01013G22KT 10SM CLR 02/M10 A3017 640 40 -700 010/13G22 RMK AO2
14837KMSN MSN20060321152009703/21/06 15:20:31  5-MIN KMSN 212120Z 01016KT 10SM FEW046 02/M10 A3017 630 42 -700 010/16 RMK AO2
14837KMSN MSN20060321152509703/21/06 15:25:31  5-MIN KMSN 212125Z 01018KT 10SM FEW046 02/M11 A3017 640 38 -700 010/18 RMK AO2
14837KMSN MSN20060321153009703/21/06 15:30:31  5-MIN KMSN 212130Z 01016KT 10SM FEW046 02/M11 A3017 630 40 -700 010/16 RMK AO2
14837KMSN MSN20060321153510303/21/06 15:35:31  5-MIN KMSN 212135Z 35012G21KT 10SM FEW046 02/M10 A3017 630 40 -700 350/12G21 RMK AO2
14837KMSN MSN20060321154009703/21/06 15:40:31  5-MIN KMSN 212140Z 01016KT 10SM FEW046 02/M10 A3017 630 40 -700 010/16 RMK AO2
14837KMSN MSN20060321154510303/21/06 15:45:31  5-MIN KMSN 212145Z 02019G22KT 10SM FEW046 02/M10 A3017 630 40 -700 010/19G22 RMK AO2
14837KMSN MSN20060321155011403/21/06 15:50:31  5-MIN KMSN 212150Z 02016KT 10SM FEW046 02/M10 A3017 630 40 -700 020/16 RMK AO2 SLP228 T00221100
14837KMSN MSN20060321155510303/21/06 15:55:31  5-MIN KMSN 212155Z 36014G21KT 10SM FEW050 02/M10 A3017 630 40 -700 360/14G21 RMK AO2
14837KMSN MSN20060321160009703/21/06 16:00:31  5-MIN KMSN 212200Z 36015KT 10SM FEW050 02/M10 A3018 630 40 -700 360/15 RMK AO2
14837KMSN MSN20060321160509703/21/06 16:05:31  5-MIN KMSN 212205Z 02016KT 10SM FEW050 02/M10 A3018 630 40 -700 020/16 RMK AO2
14837KMSN MSN20060321161009703/21/06 16:10:31  5-MIN KMSN 212210Z 01014KT 10SM FEW050 02/M09 A3018 630 42 -700 010/14 RMK AO2
14837KMSN MSN20060321161509703/21/06 16:15:31  5-MIN KMSN 212215Z 01015KT 10SM FEW050 02/M10 A3018 630 40 -700 010/15 RMK AO2
14837KMSN MSN20060321162009703/21/06 16:20:31  5-MIN KMSN 212220Z 02017KT 10SM FEW050 02/M10 A3018 630 40 -700 020/17 RMK AO2
14837KMSN MSN20060321162509703/21/06 16:25:31  5-MIN KMSN 212225Z 03017KT 10SM FEW050 02/M11 A3018 630 40 -800 030/17 RMK AO2
14837KMSN MSN20060321163009703/21/06 16:30:31  5-MIN KMSN 212230Z 02013KT 10SM FEW050 02/M11 A3018 630 40 -800 010/13 RMK AO2
14837KMSN MSN20060321163509703/21/06 16:35:31  5-MIN KMSN 212235Z 01015KT 10SM FEW050 02/M11 A3018 630 38 -700 010/15 RMK AO2
14837KMSN MSN20060321164009703/21/06 16:40:31  5-MIN KMSN 212240Z 01015KT 10SM FEW050 02/M11 A3018 630 40 -800 010/15 RMK AO2
14837KMSN MSN20060321164510303/21/06 16:45:31  5-MIN KMSN 212245Z 02017G20KT 10SM FEW050 02/M11 A3018 630 40 -800 020/17G20 RMK AO2
14837KMSN MSN20060321165011103/21/06 16:50:31  5-MIN KMSN 212250Z 36012KT 10SM CLR 02/M11 A3018 620 40 -800 360/12 RMK AO2 SLP231 T00171106
14837KMSN MSN20060321165509403/21/06 16:55:31  5-MIN KMSN 212255Z 01012KT 10SM CLR 02/M11 A3018 620 40 -800 010/12 RMK AO2
14837KMSN MSN20060321170009403/21/06 17:00:31  5-MIN KMSN 212300Z 01013KT 10SM CLR 02/M11 A3018 620 40 -800 010/13 RMK AO2
14837KMSN MSN20060321170509403/21/06 17:05:31  5-MIN KMSN 212305Z 01011KT 10SM CLR 02/M11 A3018 620 40 -800 010/11 RMK AO2
14837KMSN MSN20060321171009403/21/06 17:10:31  5-MIN KMSN 212310Z 01012KT 10SM CLR 02/M10 A3018 620 42 -800 010/12 RMK AO2
14837KMSN MSN20060321171509403/21/06 17:15:31  5-MIN KMSN 212315Z 01012KT 10SM CLR 02/M11 A3018 620 40 -800 010/12 RMK AO2
14837KMSN MSN20060321172009403/21/06 17:20:31  5-MIN KMSN 212320Z 01013KT 10SM CLR 02/M10 A3018 620 42 -800 010/13 RMK AO2
14837KMSN MSN20060321172509403/21/06 17:25:31  5-MIN KMSN 212325Z 01013KT 10SM CLR 02/M11 A3018 620 40 -800 010/13 RMK AO2
14837KMSN MSN20060321173009403/21/06 17:30:31  5-MIN KMSN 212330Z 34012KT 10SM CLR 02/M10 A3018 620 42 -800 340/12 RMK AO2
14837KMSN MSN20060321173509403/21/06 17:35:31  5-MIN KMSN 212335Z 35010KT 10SM CLR 02/M11 A3018 620 40 -800 350/10 RMK AO2
14837KMSN MSN20060321174009403/21/06 17:40:31  5-MIN KMSN 212340Z 35009KT 10SM CLR 01/M10 A3019 620 43 -800 350/09 RMK AO2
14837KMSN MSN20060321174509403/21/06 17:45:31  5-MIN KMSN 212345Z 36009KT 10SM CLR 01/M10 A3019 620 43 -800 350/09 RMK AO2
14837KMSN MSN20060321175012903/21/06 17:50:31  5-MIN KMSN 212350Z 36007KT 10SM CLR 01/M10 A3019 620 45 -900 360/07 RMK AO2 SLP234 T00061100 10028 21006 56009
14837KMSN MSN20060321175509403/21/06 17:55:31  5-MIN KMSN 212355Z 35008KT 10SM CLR 01/M10 A3019 620 45 -900 350/08 RMK AO2
14837KMSN MSN20060321180009403/21/06 18:00:31  5-MIN KMSN 220000Z 35007KT 10SM CLR 01/M10 A3019 620 45 -900 350/07 RMK AO2
14837KMSN MSN20060321180509503/21/06 18:05:31  5-MIN KMSN 220005Z 35007KT 10SM CLR 00/M10 A3019 620 47 -1000 350/07 RMK AO2
14837KMSN MSN20060321181009503/21/06 18:10:31  5-MIN KMSN 220010Z 35007KT 10SM CLR 00/M10 A3019 620 47 -1000 350/07 RMK AO2
14837KMSN MSN20060321181509503/21/06 18:15:31  5-MIN KMSN 220015Z 35006KT 10SM CLR 00/M10 A3019 620 47 -1000 350/06 RMK AO2
14837KMSN MSN20060321182009503/21/06 18:20:31  5-MIN KMSN 220020Z 35005KT 10SM CLR 00/M10 A3019 620 47 -1000 350/05 RMK AO2
14837KMSN MSN20060321182509503/21/06 18:25:31  5-MIN KMSN 220025Z 35005KT 10SM CLR 00/M11 A3019 620 45 -1000 350/05 RMK AO2
14837KMSN MSN20060321183009503/21/06 18:30:31  5-MIN KMSN 220030Z 35005KT 10SM CLR 00/M11 A3019 620 45 -1000 350/05 RMK AO2
14837KMSN MSN20060321183509603/21/06 18:35:31  5-MIN KMSN 220035Z 35006KT 10SM CLR M01/M11 A3019 620 47 -1000 350/06 RMK AO2
14837KMSN MSN20060321184009603/21/06 18:40:31  5-MIN KMSN 220040Z 34005KT 10SM CLR M01/M10 A3019 620 49 -1000 340/05 RMK AO2
14837KMSN MSN20060321184509503/21/06 18:45:31  5-MIN KMSN 220045Z 35005KT 10SM CLR 00/M10 A3019 620 47 -1000 350/05 RMK AO2
14837KMSN MSN20060321185011203/21/06 18:50:31  5-MIN KMSN 220050Z 34005KT 10SM CLR 00/M10 A3019 620 47 -1000 340/05 RMK AO2 SLP234 T00001100
14837KMSN MSN20060321185509603/21/06 18:55:31  5-MIN KMSN 220055Z 33004KT 10SM CLR M01/M10 A3019 620 49 -1000 330/04 RMK AO2
14837KMSN MSN20060321190009603/21/06 19:00:31  5-MIN KMSN 220100Z 33004KT 10SM CLR M01/M10 A3019 620 49 -1000 330/04 RMK AO2
14837KMSN MSN20060321190509603/21/06 19:05:31  5-MIN KMSN 220105Z 32004KT 10SM CLR M01/M10 A3019 620 51 -1100 320/04 RMK AO2
14837KMSN MSN20060321191009603/21/06 19:10:31  5-MIN KMSN 220110Z 33004KT 10SM CLR M01/M10 A3019 620 51 -1100 330/04 RMK AO2
14837KMSN MSN20060321191509603/21/06 19:15:31  5-MIN KMSN 220115Z 34005KT 10SM CLR M01/M10 A3019 620 51 -1100 340/05 RMK AO2
14837KMSN MSN20060321192009603/21/06 19:20:31  5-MIN KMSN 220120Z 33005KT 10SM CLR M01/M10 A3019 620 51 -1100 330/05 RMK AO2
14837KMSN MSN20060321192509603/21/06 19:25:31  5-MIN KMSN 220125Z 33005KT 10SM CLR M01/M10 A3019 620 51 -1100 330/05 RMK AO2
14837KMSN MSN20060321193009603/21/06 19:30:31  5-MIN KMSN 220130Z 33005KT 10SM CLR M01/M10 A3019 620 51 -1100 330/05 RMK AO2
14837KMSN MSN20060321193509603/21/06 19:35:31  5-MIN KMSN 220135Z 33005KT 10SM CLR M01/M10 A3019 610 51 -1100 330/05 RMK AO2
14837KMSN MSN20060321194009603/21/06 19:40:31  5-MIN KMSN 220140Z 33005KT 10SM CLR M02/M09 A3019 610 55 -1200 330/05 RMK AO2
14837KMSN MSN20060321194509603/21/06 19:45:31  5-MIN KMSN 220145Z 33006KT 10SM CLR M01/M09 A3019 610 53 -1100 330/06 RMK AO2
14837KMSN MSN20060321195011303/21/06 19:50:31  5-MIN KMSN 220150Z 33005KT 10SM CLR M02/M09 A3019 610 55 -1200 330/05 RMK AO2 SLP236 T10171094
14837KMSN MSN20060321195509603/21/06 19:55:31  5-MIN KMSN 220155Z 33006KT 10SM CLR M02/M09 A3019 610 55 -1200 330/06 RMK AO2
14837KMSN MSN20060321200009603/21/06 20:00:31  5-MIN KMSN 220200Z 33006KT 10SM CLR M02/M09 A3019 610 55 -1200 330/06 RMK AO2
14837KMSN MSN20060321200509603/21/06 20:05:31  5-MIN KMSN 220205Z 34006KT 10SM CLR M02/M09 A3019 610 55 -1200 330/06 RMK AO2
14837KMSN MSN20060321201009603/21/06 20:10:31  5-MIN KMSN 220210Z 33006KT 10SM CLR M02/M09 A3019 610 55 -1200 330/06 RMK AO2
14837KMSN MSN20060321201509603/21/06 20:15:31  5-MIN KMSN 220215Z 34006KT 10SM CLR M02/M09 A3020 610 55 -1200 340/06 RMK AO2
14837KMSN MSN20060321202009603/21/06 20:20:31  5-MIN KMSN 220220Z 33006KT 10SM CLR M02/M09 A3019 610 55 -1200 330/06 RMK AO2
14837KMSN MSN20060321202509603/21/06 20:25:31  5-MIN KMSN 220225Z 34006KT 10SM CLR M02/M09 A3020 610 55 -1200 340/06 RMK AO2
14837KMSN MSN20060321203009603/21/06 20:30:31  5-MIN KMSN 220230Z 34005KT 10SM CLR M02/M09 A3019 610 55 -1200 340/05 RMK AO2
14837KMSN MSN20060321203509603/21/06 20:35:31  5-MIN KMSN 220235Z 34005KT 10SM CLR M02/M09 A3019 610 55 -1200 340/05 RMK AO2
14837KMSN MSN20060321204009603/21/06 20:40:31  5-MIN KMSN 220240Z 33005KT 10SM CLR M02/M09 A3020 610 55 -1200 330/05 RMK AO2
14837KMSN MSN20060321204509603/21/06 20:45:31  5-MIN KMSN 220245Z 33005KT 10SM CLR M02/M09 A3020 610 55 -1200 330/05 RMK AO2
14837KMSN MSN20060321205011903/21/06 20:50:31  5-MIN KMSN 220250Z 33004KT 10SM CLR M02/M09 A3020 610 55 -1200 330/04 RMK AO2 SLP239 T10171094 51008
14837KMSN MSN20060321205509603/21/06 20:55:31  5-MIN KMSN 220255Z 33004KT 10SM CLR M02/M09 A3020 600 55 -1200 320/04 RMK AO2
14837KMSN MSN20060321210009603/21/06 21:00:31  5-MIN KMSN 220300Z 32004KT 10SM CLR M02/M09 A3021 600 58 -1300 320/04 RMK AO2
14837KMSN MSN20060321210509603/21/06 21:05:31  5-MIN KMSN 220305Z 31004KT 10SM CLR M02/M09 A3021 600 58 -1300 310/04 RMK AO2
14837KMSN MSN20060321211009603/21/06 21:10:31  5-MIN KMSN 220310Z 30003KT 10SM CLR M02/M09 A3021 600 58 -1300 300/03 RMK AO2
14837KMSN MSN20060321211509603/21/06 21:15:31  5-MIN KMSN 220315Z 30003KT 10SM CLR M03/M09 A3021 600 63 -1400 290/03 RMK AO2
14837KMSN MSN20060321212009603/21/06 21:20:31  5-MIN KMSN 220320Z 30003KT 10SM CLR M03/M09 A3021 600 63 -1400 300/03 RMK AO2
14837KMSN MSN20060321212509603/21/06 21:25:31  5-MIN KMSN 220325Z 29003KT 10SM CLR M03/M09 A3021 590 63 -1400 290/03 RMK AO2
14837KMSN MSN20060321213009603/21/06 21:30:31  5-MIN KMSN 220330Z 28003KT 10SM CLR M02/M09 A3021 590 60 -1300 280/03 RMK AO2
14837KMSN MSN20060321213509603/21/06 21:35:31  5-MIN KMSN 220335Z 28004KT 10SM CLR M02/M09 A3022 590 60 -1300 280/04 RMK AO2
14837KMSN MSN20060321214009603/21/06 21:40:31  5-MIN KMSN 220340Z 30004KT 10SM CLR M03/M09 A3022 590 60 -1400 300/04 RMK AO2
14837KMSN MSN20060321214509603/21/06 21:45:31  5-MIN KMSN 220345Z 30005KT 10SM CLR M02/M09 A3022 590 58 -1300 300/05 RMK AO2
14837KMSN MSN20060321215011303/21/06 21:50:31  5-MIN KMSN 220350Z 32005KT 10SM CLR M02/M09 A3022 590 58 -1300 320/05 RMK AO2 SLP243 T10221094
14837KMSN MSN20060321215509603/21/06 21:55:31  5-MIN KMSN 220355Z 31005KT 10SM CLR M02/M09 A3022 590 58 -1300 310/05 RMK AO2
14837KMSN MSN20060321220009603/21/06 22:00:31  5-MIN KMSN 220400Z 30004KT 10SM CLR M02/M09 A3022 590 58 -1300 300/04 RMK AO2
14837KMSN MSN20060321220509603/21/06 22:05:31  5-MIN KMSN 220405Z 30005KT 10SM CLR M02/M10 A3022 590 55 -1300 300/05 RMK AO2
14837KMSN MSN20060321221009603/21/06 22:10:31  5-MIN KMSN 220410Z 30004KT 10SM CLR M03/M10 A3022 590 58 -1400 300/04 RMK AO2
14837KMSN MSN20060321221509603/21/06 22:15:31  5-MIN KMSN 220415Z 30004KT 10SM CLR M02/M10 A3022 590 55 -1300 300/04 RMK AO2
14837KMSN MSN20060321222009603/21/06 22:20:31  5-MIN KMSN 220420Z 29004KT 10SM CLR M03/M09 A3022 590 60 -1400 290/04 RMK AO2
14837KMSN MSN20060321222509603/21/06 22:25:31  5-MIN KMSN 220425Z 31006KT 10SM CLR M03/M10 A3022 580 58 -1400 310/06 RMK AO2
14837KMSN MSN20060321223009603/21/06 22:30:31  5-MIN KMSN 220430Z 31006KT 10SM CLR M02/M10 A3023 580 55 -1300 310/06 RMK AO2
14837KMSN MSN20060321223509603/21/06 22:35:31  5-MIN KMSN 220435Z 31006KT 10SM CLR M02/M10 A3023 580 55 -1300 310/06 RMK AO2
14837KMSN MSN20060321224009603/21/06 22:40:31  5-MIN KMSN 220440Z 32007KT 10SM CLR M02/M10 A3023 580 53 -1200 310/07 RMK AO2
14837KMSN MSN20060321224509603/21/06 22:45:31  5-MIN KMSN 220445Z 32007KT 10SM CLR M02/M10 A3023 580 55 -1300 320/07 RMK AO2
14837KMSN MSN20060321225011303/21/06 22:50:31  5-MIN KMSN 220450Z 32006KT 10SM CLR M02/M10 A3023 580 55 -1300 320/06 RMK AO2 SLP248 T10221100
14837KMSN MSN20060322025509603/22/06 02:55:31  5-MIN KMSN 220855Z 31006KT 10SM CLR M03/M09 A3024 570 65 -1500 310/06 RMK AO2
14837KMSN MSN20060322030009603/22/06 03:00:31  5-MIN KMSN 220900Z 31007KT 10SM CLR M03/M09 A3024 570 65 -1500 310/07 RMK AO2
14837KMSN MSN20060322030509603/22/06 03:05:31  5-MIN KMSN 220905Z 32006KT 10SM CLR M03/M09 A3024 570 65 -1500 320/06 RMK AO2
14837KMSN MSN20060322031009603/22/06 03:10:31  5-MIN KMSN 220910Z 32007KT 10SM CLR M03/M09 A3024 570 65 -1500 320/07 RMK AO2
14837KMSN MSN20060322031509603/22/06 03:15:31  5-MIN KMSN 220915Z 32005KT 10SM CLR M03/M09 A3024 570 65 -1500 320/05 RMK AO2
14837KMSN MSN20060322032009603/22/06 03:20:31  5-MIN KMSN 220920Z 32006KT 10SM CLR M03/M09 A3024 570 63 -1500 320/06 RMK AO2
14837KMSN MSN20060322032509603/22/06 03:25:31  5-MIN KMSN 220925Z 32006KT 10SM CLR M03/M09 A3024 570 63 -1500 320/06 RMK AO2
14837KMSN MSN20060322033009603/22/06 03:30:31  5-MIN KMSN 220930Z 31007KT 10SM CLR M03/M09 A3025 560 63 -1500 310/07 RMK AO2
14837KMSN MSN20060322033509603/22/06 03:35:31  5-MIN KMSN 220935Z 31006KT 10SM CLR M03/M09 A3025 560 63 -1500 310/06 RMK AO2
14837KMSN MSN20060322034009603/22/06 03:40:31  5-MIN KMSN 220940Z 32007KT 10SM CLR M03/M09 A3025 560 63 -1500 320/07 RMK AO2
14837KMSN MSN20060322034509603/22/06 03:45:31  5-MIN KMSN 220945Z 32007KT 10SM CLR M03/M09 A3025 560 63 -1500 310/07 RMK AO2
14837KMSN MSN20060322035011303/22/06 03:50:31  5-MIN KMSN 220950Z 31006KT 10SM CLR M03/M09 A3025 560 63 -1500 310/06 RMK AO2 SLP255 T10331094
14837KMSN MSN20060322035509603/22/06 03:55:31  5-MIN KMSN 220955Z 31006KT 10SM CLR M03/M09 A3025 560 63 -1500 310/06 RMK AO2
14837KMSN MSN20060322040009603/22/06 04:00:31  5-MIN KMSN 221000Z 30007KT 10SM CLR M03/M09 A3026 560 63 -1500 300/07 RMK AO2
14837KMSN MSN20060322040509603/22/06 04:05:31  5-MIN KMSN 221005Z 31008KT 10SM CLR M03/M09 A3026 550 63 -1500 310/08 RMK AO2
14837KMSN MSN20060322041009603/22/06 04:10:31  5-MIN KMSN 221010Z 31006KT 10SM CLR M03/M09 A3026 550 63 -1500 310/06 RMK AO2
14837KMSN MSN20060322041509603/22/06 04:15:31  5-MIN KMSN 221015Z 31007KT 10SM CLR M03/M09 A3026 550 63 -1500 300/07 RMK AO2
14837KMSN MSN20060322042009603/22/06 04:20:31  5-MIN KMSN 221020Z 30006KT 10SM CLR M03/M09 A3026 550 63 -1500 300/06 RMK AO2
14837KMSN MSN20060322042509603/22/06 04:25:31  5-MIN KMSN 221025Z 30008KT 10SM CLR M03/M09 A3026 550 63 -1500 300/08 RMK AO2
14837KMSN MSN20060322043009603/22/06 04:30:31  5-MIN KMSN 221030Z 30006KT 10SM CLR M03/M09 A3026 550 63 -1500 300/06 RMK AO2
14837KMSN MSN20060322043509603/22/06 04:35:31  5-MIN KMSN 221035Z 30006KT 10SM CLR M03/M10 A3026 550 60 -1500 300/06 RMK AO2
14837KMSN MSN20060322044009603/22/06 04:40:31  5-MIN KMSN 221040Z 30006KT 10SM CLR M03/M10 A3026 550 60 -1500 300/06 RMK AO2
14837KMSN MSN20060322044509603/22/06 04:45:31  5-MIN KMSN 221045Z 31006KT 10SM CLR M03/M10 A3026 550 60 -1500 310/06 RMK AO2
14837KMSN MSN20060322045011303/22/06 04:50:31  5-MIN KMSN 221050Z 30007KT 10SM CLR M04/M10 A3027 550 63 -1600 300/07 RMK AO2 SLP260 T10391100
14837KMSN MSN20060322045509603/22/06 04:55:31  5-MIN KMSN 221055Z 30006KT 10SM CLR M04/M10 A3027 550 63 -1600 300/06 RMK AO2
14837KMSN MSN20060322050009603/22/06 05:00:31  5-MIN KMSN 221100Z 31006KT 10SM CLR M04/M10 A3027 550 63 -1600 300/06 RMK AO2
14837KMSN MSN20060322050509603/22/06 05:05:31  5-MIN KMSN 221105Z 30006KT 10SM CLR M04/M10 A3027 540 63 -1600 290/06 RMK AO2
14837KMSN MSN20060322051009603/22/06 05:10:31  5-MIN KMSN 221110Z 30007KT 10SM CLR M03/M10 A3027 540 60 -1500 290/07 RMK AO2
14837KMSN MSN20060322051509603/22/06 05:15:31  5-MIN KMSN 221115Z 30008KT 10SM CLR M03/M10 A3027 550 60 -1500 300/08 RMK AO2
14837KMSN MSN20060322052009603/22/06 05:20:31  5-MIN KMSN 221120Z 30006KT 10SM CLR M03/M10 A3027 550 60 -1500 300/06 RMK AO2
14837KMSN MSN20060322052509603/22/06 05:25:31  5-MIN KMSN 221125Z 30006KT 10SM CLR M04/M10 A3027 540 63 -1600 300/06 RMK AO2
14837KMSN MSN20060322053009603/22/06 05:30:31  5-MIN KMSN 221130Z 30007KT 10SM CLR M04/M10 A3027 550 63 -1600 300/07 RMK AO2
14837KMSN MSN20060322053509603/22/06 05:35:31  5-MIN KMSN 221135Z 31006KT 10SM CLR M04/M09 A3027 550 65 -1600 310/06 RMK AO2
14837KMSN MSN20060322054009603/22/06 05:40:31  5-MIN KMSN 221140Z 31007KT 10SM CLR M04/M09 A3027 550 65 -1600 310/07 RMK AO2
14837KMSN MSN20060322054509603/22/06 05:45:31  5-MIN KMSN 221145Z 31007KT 10SM CLR M04/M10 A3027 550 63 -1600 310/07 RMK AO2
14837KMSN MSN20060322055013103/22/06 05:50:31  5-MIN KMSN 221150Z 31007KT 10SM CLR M04/M10 A3027 550 63 -1600 300/07 RMK AO2 SLP260 T10391100 11022 21039 50007
14837KMSN MSN20060322055509603/22/06 05:55:31  5-MIN KMSN 221155Z 31006KT 10SM CLR M04/M10 A3027 540 63 -1600 310/06 RMK AO2
14837KMSN MSN20060322060009603/22/06 06:00:31  5-MIN KMSN 221200Z 31007KT 10SM CLR M04/M10 A3027 540 63 -1600 310/07 RMK AO2
14837KMSN MSN20060322060509603/22/06 06:05:31  5-MIN KMSN 221205Z 31006KT 10SM CLR M03/M10 A3027 540 60 -1500 310/06 RMK AO2
14837KMSN MSN20060322061009603/22/06 06:10:31  5-MIN KMSN 221210Z 31006KT 10SM CLR M04/M10 A3027 540 63 -1600 310/06 RMK AO2
14837KMSN MSN20060322061509603/22/06 06:15:31  5-MIN KMSN 221215Z 31006KT 10SM CLR M04/M09 A3027 540 65 -1600 310/06 RMK AO2
14837KMSN MSN20060322062009603/22/06 06:20:31  5-MIN KMSN 221220Z 31007KT 10SM CLR M03/M09 A3027 540 63 -1500 310/07 RMK AO2
14837KMSN MSN20060322062509603/22/06 06:25:31  5-MIN KMSN 221225Z 31006KT 10SM CLR M03/M09 A3027 540 63 -1500 310/06 RMK AO2
14837KMSN MSN20060322063009603/22/06 06:30:31  5-MIN KMSN 221230Z 31007KT 10SM CLR M03/M09 A3027 540 63 -1500 310/07 RMK AO2
14837KMSN MSN20060322063509603/22/06 06:35:31  5-MIN KMSN 221235Z 31006KT 10SM CLR M03/M09 A3027 550 63 -1500 310/06 RMK AO2
14837KMSN MSN20060322064009603/22/06 06:40:31  5-MIN KMSN 221240Z 32007KT 10SM CLR M03/M09 A3027 550 60 -1400 320/07 RMK AO2
14837KMSN MSN20060322064509603/22/06 06:45:31  5-MIN KMSN 221245Z 31006KT 10SM CLR M03/M09 A3027 550 60 -1400 310/06 RMK AO2
14837KMSN MSN20060322065011303/22/06 06:50:31  5-MIN KMSN 221250Z 31006KT 10SM CLR M03/M09 A3027 540 60 -1400 310/06 RMK AO2 SLP261 T10281094
14837KMSN MSN20060322065509603/22/06 06:55:31  5-MIN KMSN 221255Z 30007KT 10SM CLR M03/M09 A3027 540 60 -1400 300/07 RMK AO2
14837KMSN MSN20060322070009603/22/06 07:00:31  5-MIN KMSN 221300Z 30006KT 10SM CLR M02/M09 A3027 540 60 -1400 300/06 RMK AO2
14837KMSN MSN20060322070509603/22/06 07:05:31  5-MIN KMSN 221305Z 31006KT 10SM CLR M02/M09 A3027 540 58 -1400 300/06 RMK AO2
14837KMSN MSN20060322071009603/22/06 07:10:31  5-MIN KMSN 221310Z 30008KT 10SM CLR M02/M09 A3027 540 58 -1400 300/08 RMK AO2
14837KMSN MSN20060322071509603/22/06 07:15:31  5-MIN KMSN 221315Z 31005KT 10SM CLR M02/M09 A3027 540 60 -1400 310/05 RMK AO2
14837KMSN MSN20060322072009603/22/06 07:20:31  5-MIN KMSN 221320Z 31006KT 10SM CLR M02/M09 A3027 540 58 -1300 310/06 RMK AO2
14837KMSN MSN20060322072509603/22/06 07:25:31  5-MIN KMSN 221325Z 32007KT 10SM CLR M02/M09 A3027 540 58 -1300 320/07 RMK AO2
14837KMSN MSN20060322073009603/22/06 07:30:31  5-MIN KMSN 221330Z 31007KT 10SM CLR M02/M09 A3028 540 58 -1300 310/07 RMK AO2
14837KMSN MSN20060322073509603/22/06 07:35:31  5-MIN KMSN 221335Z 32008KT 10SM CLR M01/M09 A3028 540 55 -1200 310/08 RMK AO2
14837KMSN MSN20060322074009603/22/06 07:40:31  5-MIN KMSN 221340Z 31006KT 10SM CLR M01/M09 A3028 530 55 -1200 310/06 RMK AO2
14837KMSN MSN20060322074509603/22/06 07:45:31  5-MIN KMSN 221345Z 30007KT 10SM CLR M01/M09 A3028 530 55 -1200 300/07 RMK AO2
14837KMSN MSN20060322075011303/22/06 07:50:31  5-MIN KMSN 221350Z 31007KT 10SM CLR M01/M09 A3028 530 55 -1200 310/07 RMK AO2 SLP265 T10111089
14837KMSN MSN20060322075509603/22/06 07:55:31  5-MIN KMSN 221355Z 30009KT 10SM CLR M01/M09 A3028 530 53 -1100 300/09 RMK AO2
14837KMSN MSN20060322080009603/22/06 08:00:31  5-MIN KMSN 221400Z 30007KT 10SM CLR M01/M08 A3028 530 56 -1100 290/07 RMK AO2
14837KMSN MSN20060322080509603/22/06 08:05:31  5-MIN KMSN 221405Z 29007KT 10SM CLR M01/M08 A3028 530 56 -1200 280/07 RMK AO2
14837KMSN MSN20060322081009603/22/06 08:10:31  5-MIN KMSN 221410Z 28006KT 10SM CLR M01/M08 A3028 530 56 -1200 280/06 RMK AO2
14837KMSN MSN20060322081509503/22/06 08:15:31  5-MIN KMSN 221415Z 29009KT 10SM CLR 00/M08 A3028 530 53 -1100 290/09 RMK AO2
14837KMSN MSN20060322082009503/22/06 08:20:31  5-MIN KMSN 221420Z 31007KT 10SM CLR 00/M08 A3028 530 53 -1100 310/07 RMK AO2
14837KMSN MSN20060322082509503/22/06 08:25:31  5-MIN KMSN 221425Z 30009KT 10SM CLR 00/M08 A3028 540 53 -1100 300/09 RMK AO2
14837KMSN MSN20060322083009503/22/06 08:30:31  5-MIN KMSN 221430Z 30007KT 10SM CLR 00/M08 A3028 540 53 -1100 300/07 RMK AO2
14837KMSN MSN20060322083509503/22/06 08:35:31  5-MIN KMSN 221435Z VRB06KT 10SM CLR 00/M08 A3028 540 53 -1100 VRB/06 RMK AO2
14837KMSN MSN20060322084009503/22/06 08:40:31  5-MIN KMSN 221440Z 29008KT 10SM CLR 01/M08 A3027 540 51 -1000 290/08 RMK AO2
14837KMSN MSN20060322084509503/22/06 08:45:31  5-MIN KMSN 221445Z 29008KT 10SM CLR 00/M08 A3027 540 53 -1100 290/08 RMK AO2
14837KMSN MSN20060322085011703/22/06 08:50:31  5-MIN KMSN 221450Z 31009KT 10SM CLR 01/M08 A3027 540 49 -900 310/09 RMK AO2 SLP261 T00111083 51008
14837KMSN MSN20060322085509503/22/06 08:55:31  5-MIN KMSN 221455Z 30009KT 10SM CLR 01/M08 A3027 540 51 -1000 300/09 RMK AO2
14837KMSN MSN20060322090009503/22/06 09:00:31  5-MIN KMSN 221500Z 31010KT 10SM CLR 01/M08 A3027 540 51 -1000 310/10 RMK AO2
14837KMSN MSN20060322090509403/22/06 09:05:31  5-MIN KMSN 221505Z 31008KT 10SM CLR 01/M08 A3027 540 51 -900 310/08 RMK AO2
14837KMSN MSN20060322091009403/22/06 09:10:31  5-MIN KMSN 221510Z 31008KT 10SM CLR 01/M08 A3027 540 49 -900 310/08 RMK AO2
14837KMSN MSN20060322091509403/22/06 09:15:31  5-MIN KMSN 221515Z 29007KT 10SM CLR 02/M08 A3027 540 49 -900 290/07 RMK AO2
14837KMSN MSN20060322092009403/22/06 09:20:31  5-MIN KMSN 221520Z 29008KT 10SM CLR 01/M08 A3027 540 49 -900 290/08 RMK AO2
14837KMSN MSN20060322092509403/22/06 09:25:31  5-MIN KMSN 221525Z 32008KT 10SM CLR 02/M08 A3027 550 47 -900 320/08 RMK AO2
14837KMSN MSN20060322093009403/22/06 09:30:31  5-MIN KMSN 221530Z 32008KT 10SM CLR 02/M08 A3027 550 47 -800 320/08 RMK AO2
14837KMSN MSN20060322093509403/22/06 09:35:31  5-MIN KMSN 221535Z 31008KT 10SM CLR 02/M08 A3026 550 47 -800 310/08 RMK AO2
14837KMSN MSN20060322094011003/22/06 09:40:31  5-MIN KMSN 221540Z 31009KT 270V330 10SM CLR 02/M08 A3026 550 47 -800 310/09 270V330 RMK AO2
14837KMSN MSN20060322094510003/22/06 09:45:31  5-MIN KMSN 221545Z 30008G15KT 10SM CLR 02/M08 A3026 550 47 -800 300/08G15 RMK AO2
14837KMSN MSN20060322095011703/22/06 09:50:31  5-MIN KMSN 221550Z 30012G15KT 10SM CLR 02/M08 A3026 550 47 -800 300/12G15 RMK AO2 SLP256 T00221078
14837KMSN MSN20060322095509403/22/06 09:55:31  5-MIN KMSN 221555Z 29010KT 10SM CLR 02/M08 A3026 560 47 -800 290/10 RMK AO2
14837KMSN MSN20060322100009403/22/06 10:00:31  5-MIN KMSN 221600Z 31010KT 10SM CLR 03/M08 A3025 560 46 -700 310/10 RMK AO2
14837KMSN MSN20060322100511003/22/06 10:05:31  5-MIN KMSN 221605Z 32010KT 280V350 10SM CLR 03/M08 A3025 560 46 -700 320/10 280V350 RMK AO2
14837KMSN MSN20060322101009403/22/06 10:10:31  5-MIN KMSN 221610Z 31009KT 10SM CLR 03/M07 A3025 560 46 -600 310/09 RMK AO2
14837KMSN MSN20060322101509403/22/06 10:15:31  5-MIN KMSN 221615Z 29010KT 10SM CLR 03/M07 A3025 560 46 -600 290/10 RMK AO2
14837KMSN MSN20060322102010003/22/06 10:20:31  5-MIN KMSN 221620Z 29008G17KT 10SM CLR 03/M08 A3025 560 44 -600 290/08G17 RMK AO2
14837KMSN MSN20060322102510003/22/06 10:25:31  5-MIN KMSN 221625Z 29010G17KT 10SM CLR 04/M07 A3024 570 44 -600 290/10G17 RMK AO2
14837KMSN MSN20060322103009403/22/06 10:30:31  5-MIN KMSN 221630Z 30012KT 10SM CLR 04/M08 A3024 570 42 -600 300/12 RMK AO2
14837KMSN MSN20060322103510003/22/06 10:35:31  5-MIN KMSN 221635Z 31009G16KT 10SM CLR 04/M08 A3024 570 42 -500 310/09G16 RMK AO2
14837KMSN MSN20060322104010003/22/06 10:40:31  5-MIN KMSN 221640Z 30012G16KT 10SM CLR 04/M07 A3024 570 42 -500 300/12G16 RMK AO2
14837KMSN MSN20060322104510003/22/06 10:45:31  5-MIN KMSN 221645Z 31010G17KT 10SM CLR 04/M07 A3024 570 42 -500 310/10G17 RMK AO2
14837KMSN MSN20060322105011703/22/06 10:50:31  5-MIN KMSN 221650Z 33011G17KT 10SM CLR 05/M07 A3024 570 41 -400 330/11G17 RMK AO2 SLP248 T00501072
14837KMSN MSN20060322105510003/22/06 10:55:31  5-MIN KMSN 221655Z 33011G15KT 10SM CLR 05/M07 A3024 570 42 -400 330/11G15 RMK AO2
14837KMSN MSN20060322110009403/22/06 11:00:31  5-MIN KMSN 221700Z 32009KT 10SM CLR 05/M07 A3023 580 42 -400 320/09 RMK AO2
14837KMSN MSN20060322110509403/22/06 11:05:31  5-MIN KMSN 221705Z 30011KT 10SM CLR 05/M07 A3023 580 41 -400 300/11 RMK AO2
14837KMSN MSN20060322111009403/22/06 11:10:31  5-MIN KMSN 221710Z 32010KT 10SM CLR 05/M07 A3023 580 42 -400 320/10 RMK AO2
14837KMSN MSN20060322111509403/22/06 11:15:31  5-MIN KMSN 221715Z 30008KT 10SM CLR 05/M07 A3023 580 42 -400 300/08 RMK AO2
14837KMSN MSN20060322112010003/22/06 11:20:31  5-MIN KMSN 221720Z 32012G16KT 10SM CLR 06/M07 A3023 580 41 -300 320/12G16 RMK AO2
14837KMSN MSN20060322112509403/22/06 11:25:31  5-MIN KMSN 221725Z 30010KT 10SM CLR 06/M07 A3022 590 41 -300 300/10 RMK AO2
14837KMSN MSN20060322113009403/22/06 11:30:31  5-MIN KMSN 221730Z 32013KT 10SM CLR 06/M07 A3022 580 41 -300 320/13 RMK AO2
14837KMSN MSN20060322113509403/22/06 11:35:31  5-MIN KMSN 221735Z 30010KT 10SM CLR 06/M07 A3022 590 41 -300 300/10 RMK AO2
14837KMSN MSN20060322114009403/22/06 11:40:31  5-MIN KMSN 221740Z 32012KT 10SM CLR 05/M07 A3022 590 41 -400 310/12 RMK AO2
14837KMSN MSN20060322114509403/22/06 11:45:31  5-MIN KMSN 221745Z 30011KT 10SM CLR 06/M07 A3022 590 41 -300 300/11 RMK AO2
14837KMSN MSN20060322115015103/22/06 11:50:31  5-MIN KMSN 221750Z 31009G16KT 270V350 10SM CLR 06/M07 A3022 590 39 -200 310/09G16 270V350 RMK AO2 SLP242 T00611067 10061 21039 50003
14837KMSN MSN20060322115510003/22/06 11:55:31  5-MIN KMSN 221755Z 30012G16KT 10SM CLR 06/M06 A3022 590 41 -300 300/12G16 RMK AO2
14837KMSN MSN20060322120009403/22/06 12:00:31  5-MIN KMSN 221800Z 33009KT 10SM CLR 07/M06 A3022 590 39 -200 320/09 RMK AO2
14837KMSN MSN20060322120509403/22/06 12:05:31  5-MIN KMSN 221805Z 31011KT 10SM CLR 07/M06 A3021 590 39 -200 310/11 RMK AO2
14837KMSN MSN20060322121011003/22/06 12:10:31  5-MIN KMSN 221810Z 31010KT 250V330 10SM CLR 07/M06 A3021 600 39 -200 300/10 250V330 RMK AO2
14837KMSN MSN20060322121509403/22/06 12:15:31  5-MIN KMSN 221815Z 33009KT 10SM CLR 07/M06 A3021 600 39 -200 330/09 RMK AO2
14837KMSN MSN20060322122009403/22/06 12:20:31  5-MIN KMSN 221820Z 32011KT 10SM CLR 07/M06 A3021 600 39 -200 320/11 RMK AO2
14837KMSN MSN20060322122509403/22/06 12:25:31  5-MIN KMSN 221825Z 31011KT 10SM CLR 07/M06 A3021 600 40 -100 310/11 RMK AO2
14837KMSN MSN20060322123009403/22/06 12:30:31  5-MIN KMSN 221830Z 30010KT 10SM CLR 07/M06 A3021 600 39 -200 300/10 RMK AO2
14837KMSN MSN20060322123509403/22/06 12:35:31  5-MIN KMSN 221835Z 31011KT 10SM CLR 07/M06 A3021 600 40 -100 310/11 RMK AO2
14837KMSN MSN20060322124009403/22/06 12:40:31  5-MIN KMSN 221840Z 33010KT 10SM CLR 07/M06 A3020 610 40 -100 320/10 RMK AO2
14837KMSN MSN20060322124510003/22/06 12:45:31  5-MIN KMSN 221845Z 31013G18KT 10SM CLR 07/M06 A3020 610 40 -100 310/13G18 RMK AO2
14837KMSN MSN20060322125011703/22/06 12:50:31  5-MIN KMSN 221850Z 30009G18KT 10SM CLR 07/M06 A3020 610 40 -100 300/09G18 RMK AO2 SLP235 T00721056
14837KMSN MSN20060322125511603/22/06 12:55:31  5-MIN KMSN 221855Z 29009G15KT 250V320 10SM CLR 07/M06 A3019 610 38 -100 290/09G15 250V320 RMK AO2
14837KMSN MSN20060322130009703/22/06 13:00:31  5-MIN KMSN 221900Z 33012G17KT 10SM CLR 08/M06 A3019 610 38 0 330/12G17 RMK AO2
14837KMSN MSN20060322130509703/22/06 13:05:31  5-MIN KMSN 221905Z 31010G17KT 10SM CLR 08/M06 A3019 610 38 0 300/10G17 RMK AO2
14837KMSN MSN20060322131009103/22/06 13:10:31  5-MIN KMSN 221910Z 31011KT 10SM CLR 08/M06 A3019 610 36 0 310/11 RMK AO2
14837KMSN MSN20060322131509703/22/06 13:15:31  5-MIN KMSN 221915Z 31012G18KT 10SM CLR 08/M06 A3019 610 36 0 310/12G18 RMK AO2
14837KMSN MSN20060322132009703/22/06 13:20:31  5-MIN KMSN 221920Z 31012G18KT 10SM CLR 08/M06 A3019 620 38 0 310/12G18 RMK AO2
14837KMSN MSN20060322132509103/22/06 13:25:31  5-MIN KMSN 221925Z 32011KT 10SM CLR 08/M06 A3019 620 38 0 320/11 RMK AO2
14837KMSN MSN20060322133009703/22/06 13:30:31  5-MIN KMSN 221930Z 30011G18KT 10SM CLR 08/M06 A3019 620 38 0 300/11G18 RMK AO2
14837KMSN MSN20060322133509703/22/06 13:35:31  5-MIN KMSN 221935Z 31010G18KT 10SM CLR 08/M06 A3018 620 38 0 300/10G18 RMK AO2
14837KMSN MSN20060322134009103/22/06 13:40:31  5-MIN KMSN 221940Z 31007KT 10SM CLR 08/M06 A3018 620 36 0 310/07 RMK AO2
14837KMSN MSN20060322134509703/22/06 13:45:31  5-MIN KMSN 221945Z 31011G15KT 10SM CLR 08/M06 A3018 620 37 0 310/11G15 RMK AO2
14837KMSN MSN20060322135011703/22/06 13:50:31  5-MIN KMSN 221950Z 31010G17KT 10SM FEW050 08/M06 A3018 620 37 0 310/10G17 RMK AO2 SLP228 T00831056
14837KMSN MSN20060322135510003/22/06 13:55:31  5-MIN KMSN 221955Z 30012G17KT 10SM FEW050 08/M06 A3018 630 37 0 300/12G17 RMK AO2
14837KMSN MSN20060322140009403/22/06 14:00:31  5-MIN KMSN 222000Z 31012KT 10SM FEW050 08/M06 A3018 630 37 0 310/12 RMK AO2
14837KMSN MSN20060322140511003/22/06 14:05:31  5-MIN KMSN 222005Z 31011KT 270V330 10SM FEW050 08/M06 A3017 630 37 0 310/11 270V330 RMK AO2
14837KMSN MSN20060322141009403/22/06 14:10:31  5-MIN KMSN 222010Z 30011KT 10SM FEW050 08/M06 A3018 630 37 0 300/11 RMK AO2
14837KMSN MSN20060322141509403/22/06 14:15:31  5-MIN KMSN 222015Z 31011KT 10SM FEW050 08/M06 A3017 630 36 0 310/11 RMK AO2
14837KMSN MSN20060322142011003/22/06 14:20:31  5-MIN KMSN 222020Z 30011KT 270V330 10SM FEW050 08/M06 A3017 630 37 0 300/11 270V330 RMK AO2
14837KMSN MSN20060322142509603/22/06 14:25:31  5-MIN KMSN 222025Z 32011KT 10SM FEW050 09/M06 A3017 630 35 100 310/11 RMK AO2
14837KMSN MSN20060322143010003/22/06 14:30:31  5-MIN KMSN 222030Z 31012G18KT 10SM FEW050 08/M06 A3017 630 35 0 310/12G18 RMK AO2
14837KMSN MSN20060322143510203/22/06 14:35:31  5-MIN KMSN 222035Z 32010G18KT 10SM FEW050 09/M06 A3017 630 35 100 320/10G18 RMK AO2
14837KMSN MSN20060322144009603/22/06 14:40:31  5-MIN KMSN 222040Z 32010KT 10SM FEW050 09/M06 A3017 630 35 100 320/10 RMK AO2
14837KMSN MSN20060322144509403/22/06 14:45:31  5-MIN KMSN 222045Z 32012KT 10SM FEW050 08/M06 A3017 640 37 0 320/12 RMK AO2
14837KMSN MSN20060322145011703/22/06 14:50:31  5-MIN KMSN 222050Z 33010KT 10SM FEW050 08/M06 A3017 640 37 0 330/10 RMK AO2 SLP223 T00831056 56018
14837KMSN MSN20060322145509603/22/06 14:55:31  5-MIN KMSN 222055Z 32011KT 10SM FEW050 09/M06 A3017 640 35 100 320/11 RMK AO2
14837KMSN MSN20060322150009403/22/06 15:00:31  5-MIN KMSN 222100Z 32012KT 10SM FEW050 08/M06 A3017 640 37 0 320/12 RMK AO2
14837KMSN MSN20060322150509603/22/06 15:05:31  5-MIN KMSN 222105Z 31012KT 10SM FEW050 09/M06 A3017 640 35 100 310/12 RMK AO2
14837KMSN MSN20060322151011203/22/06 15:10:31  5-MIN KMSN 222110Z 30008KT 280V340 10SM FEW050 09/M06 A3017 640 35 100 300/08 280V340 RMK AO2
14837KMSN MSN20060322151509603/22/06 15:15:31  5-MIN KMSN 222115Z 31011KT 10SM FEW050 09/M06 A3017 640 35 100 310/11 RMK AO2
14837KMSN MSN20060322152011803/22/06 15:20:31  5-MIN KMSN 222120Z 33010G16KT 290V350 10SM FEW050 09/M06 A3016 640 35 100 320/10G16 290V350 RMK AO2
14837KMSN MSN20060322152511803/22/06 15:25:31  5-MIN KMSN 222125Z 29007G16KT 270V340 10SM FEW050 09/M06 A3016 640 35 100 290/07G16 270V340 RMK AO2
14837KMSN MSN20060322153010203/22/06 15:30:31  5-MIN KMSN 222130Z 33010G18KT 10SM FEW050 09/M06 A3016 640 35 100 320/10G18 RMK AO2
14837KMSN MSN20060322153510203/22/06 15:35:31  5-MIN KMSN 222135Z 32011G18KT 10SM FEW050 09/M06 A3016 640 35 100 320/11G18 RMK AO2
14837KMSN MSN20060322154009603/22/06 15:40:31  5-MIN KMSN 222140Z 31010KT 10SM FEW050 09/M06 A3017 640 34 100 310/10 RMK AO2
14837KMSN MSN20060322154509403/22/06 15:45:31  5-MIN KMSN 222145Z 30009KT 10SM FEW050 08/M06 A3016 640 35 0 300/09 RMK AO2
14837KMSN MSN20060322155012703/22/06 15:50:31  5-MIN KMSN 222150Z 30008KT 240V320 10SM FEW050 08/M06 A3016 640 35 0 300/08 240V320 RMK AO2 SLP222 T00831061
14837KMSN MSN20060322155509403/22/06 15:55:31  5-MIN KMSN 222155Z 30009KT 10SM FEW050 08/M06 A3016 640 37 0 300/09 RMK AO2
14837KMSN MSN20060322160009603/22/06 16:00:31  5-MIN KMSN 222200Z 32011KT 10SM FEW050 09/M06 A3016 640 35 100 320/11 RMK AO2
14837KMSN MSN20060322160510203/22/06 16:05:31  5-MIN KMSN 222205Z 32011G15KT 10SM FEW050 09/M06 A3017 640 35 100 320/11G15 RMK AO2
14837KMSN MSN20060322161009403/22/06 16:10:31  5-MIN KMSN 222210Z 30008KT 10SM FEW050 08/M06 A3017 640 35 0 290/08 RMK AO2
14837KMSN MSN20060322161509403/22/06 16:15:31  5-MIN KMSN 222215Z 32008KT 10SM FEW050 08/M06 A3016 640 37 0 320/08 RMK AO2
14837KMSN MSN20060322162009403/22/06 16:20:31  5-MIN KMSN 222220Z 32011KT 10SM FEW050 08/M06 A3017 640 37 0 320/11 RMK AO2
14837KMSN MSN20060322162509403/22/06 16:25:31  5-MIN KMSN 222225Z 31011KT 10SM FEW050 08/M06 A3017 640 35 0 310/11 RMK AO2
14837KMSN MSN20060322163009403/22/06 16:30:31  5-MIN KMSN 222230Z 31010KT 10SM FEW050 08/M06 A3016 640 35 0 310/10 RMK AO2
14837KMSN MSN20060322163509403/22/06 16:35:31  5-MIN KMSN 222235Z 32009KT 10SM FEW050 08/M06 A3017 640 37 0 310/09 RMK AO2
14837KMSN MSN20060322164009403/22/06 16:40:31  5-MIN KMSN 222240Z 30008KT 10SM FEW050 08/M06 A3017 640 35 0 300/08 RMK AO2
14837KMSN MSN20060322164509403/22/06 16:45:31  5-MIN KMSN 222245Z 31009KT 10SM FEW050 08/M06 A3017 640 37 0 310/09 RMK AO2
14837KMSN MSN20060322165011103/22/06 16:50:31  5-MIN KMSN 222250Z 31010KT 10SM FEW050 08/M06 A3017 640 37 0 310/10 RMK AO2 SLP224 T00831056
14837KMSN MSN20060322165509103/22/06 16:55:31  5-MIN KMSN 222255Z 31010KT 10SM CLR 08/M06 A3017 640 36 0 310/10 RMK AO2
14837KMSN MSN20060322170009703/22/06 17:00:31  5-MIN KMSN 222300Z 31009G16KT 10SM CLR 08/M06 A3017 640 36 0 310/09G16 RMK AO2
14837KMSN MSN20060322170509103/22/06 17:05:31  5-MIN KMSN 222305Z 31009KT 10SM CLR 08/M06 A3017 640 36 0 310/09 RMK AO2
14837KMSN MSN20060322171009703/22/06 17:10:31  5-MIN KMSN 222310Z 30008KT 10SM FEW050 07/M06 A3017 630 38 -100 300/08 RMK AO2
14837KMSN MSN20060322171509703/22/06 17:15:31  5-MIN KMSN 222315Z 31006KT 10SM FEW050 07/M06 A3017 630 38 -100 310/06 RMK AO2
14837KMSN MSN20060322172009703/22/06 17:20:31  5-MIN KMSN 222320Z 30007KT 10SM FEW050 07/M06 A3017 630 40 -100 300/07 RMK AO2
14837KMSN MSN20060322172510303/22/06 17:25:31  5-MIN KMSN 222325Z 31007G14KT 10SM FEW050 07/M06 A3017 630 38 -100 310/07G14 RMK AO2
14837KMSN MSN20060322173010303/22/06 17:30:31  5-MIN KMSN 222330Z 31011G14KT 10SM FEW050 07/M06 A3017 630 38 -100 310/11G14 RMK AO2
14837KMSN MSN20060322173509703/22/06 17:35:31  5-MIN KMSN 222335Z 31007KT 10SM FEW050 07/M06 A3018 630 38 -100 310/07 RMK AO2
14837KMSN MSN20060322174009703/22/06 17:40:31  5-MIN KMSN 222340Z 32006KT 10SM FEW050 07/M06 A3018 630 41 -100 310/06 RMK AO2
14837KMSN MSN20060322174509703/22/06 17:45:31  5-MIN KMSN 222345Z 32005KT 10SM FEW050 07/M06 A3018 630 41 -100 320/05 RMK AO2
14837KMSN MSN20060322175013203/22/06 17:50:31  5-MIN KMSN 222350Z 32006KT 10SM FEW060 07/M06 A3018 630 41 -100 310/06 RMK AO2 SLP228 T00671056 10089 20061 56017
14837KMSN MSN20060322175509703/22/06 17:55:31  5-MIN KMSN 222355Z 32006KT 10SM FEW060 06/M06 A3018 630 43 -200 310/06 RMK AO2
14837KMSN MSN20060322180009703/22/06 18:00:31  5-MIN KMSN 230000Z 32006KT 10SM FEW060 06/M06 A3018 630 43 -200 320/06 RMK AO2
14837KMSN MSN20060322180509703/22/06 18:05:31  5-MIN KMSN 230005Z 32005KT 10SM SCT060 06/M06 A3018 620 43 -200 320/05 RMK AO2
14837KMSN MSN20060322181009703/22/06 18:10:31  5-MIN KMSN 230010Z 31005KT 10SM BKN060 06/M05 A3018 620 46 -300 310/05 RMK AO2
14837KMSN MSN20060322181509703/22/06 18:15:31  5-MIN KMSN 230015Z 31005KT 10SM BKN060 06/M05 A3018 620 46 -300 310/05 RMK AO2
14837KMSN MSN20060322182009703/22/06 18:20:31  5-MIN KMSN 230020Z 30004KT 10SM BKN060 06/M05 A3018 620 46 -300 300/04 RMK AO2
14837KMSN MSN20060322182509703/22/06 18:25:31  5-MIN KMSN 230025Z 31005KT 10SM BKN060 06/M05 A3018 620 46 -300 300/05 RMK AO2
14837KMSN MSN20060322183009703/22/06 18:30:31  5-MIN KMSN 230030Z 30007KT 10SM OVC060 06/M05 A3019 620 46 -300 300/07 RMK AO2
14837KMSN MSN20060322183509703/22/06 18:35:31  5-MIN KMSN 230035Z 31006KT 10SM OVC060 06/M05 A3019 620 46 -300 310/06 RMK AO2
14837KMSN MSN20060322184009703/22/06 18:40:31  5-MIN KMSN 230040Z 31006KT 10SM OVC060 06/M05 A3019 620 46 -300 310/06 RMK AO2
14837KMSN MSN20060322184509703/22/06 18:45:31  5-MIN KMSN 230045Z 32007KT 10SM BKN060 06/M05 A3019 620 46 -300 320/07 RMK AO2
14837KMSN MSN20060322185011403/22/06 18:50:31  5-MIN KMSN 230050Z 32007KT 10SM OVC060 06/M05 A3019 620 46 -300 320/07 RMK AO2 SLP231 T00561050
14837KMSN MSN20060322185509703/22/06 18:55:31  5-MIN KMSN 230055Z 32008KT 10SM OVC060 06/M05 A3019 620 46 -300 320/08 RMK AO2
14837KMSN MSN20060322190009703/22/06 19:00:31  5-MIN KMSN 230100Z 32009KT 10SM OVC060 06/M05 A3019 620 46 -300 310/09 RMK AO2
14837KMSN MSN20060322190509703/22/06 19:05:31  5-MIN KMSN 230105Z 32006KT 10SM OVC060 06/M05 A3019 610 46 -300 320/06 RMK AO2
14837KMSN MSN20060322191009703/22/06 19:10:31  5-MIN KMSN 230110Z 32006KT 10SM OVC060 06/M05 A3019 610 46 -300 320/06 RMK AO2
14837KMSN MSN20060322191509703/22/06 19:15:31  5-MIN KMSN 230115Z 32007KT 10SM OVC060 06/M05 A3019 610 46 -300 320/07 RMK AO2
14837KMSN MSN20060322192009703/22/06 19:20:31  5-MIN KMSN 230120Z 34007KT 10SM OVC060 05/M04 A3020 610 50 -400 340/07 RMK AO2
14837KMSN MSN20060322192509703/22/06 19:25:31  5-MIN KMSN 230125Z 34008KT 10SM OVC060 05/M04 A3020 610 50 -400 340/08 RMK AO2
14837KMSN MSN20060322193009703/22/06 19:30:31  5-MIN KMSN 230130Z 34008KT 10SM OVC060 05/M04 A3020 610 50 -400 340/08 RMK AO2
14837KMSN MSN20060322193509703/22/06 19:35:31  5-MIN KMSN 230135Z 34010KT 10SM OVC060 05/M05 A3020 610 48 -400 340/10 RMK AO2
14837KMSN MSN20060322194009703/22/06 19:40:31  5-MIN KMSN 230140Z 34008KT 10SM OVC060 05/M05 A3020 610 48 -400 340/08 RMK AO2
14837KMSN MSN20060322194509703/22/06 19:45:31  5-MIN KMSN 230145Z 34009KT 10SM OVC060 05/M04 A3020 600 50 -400 340/09 RMK AO2
14837KMSN MSN20060322195011403/22/06 19:50:31  5-MIN KMSN 230150Z 35010KT 10SM OVC055 05/M05 A3021 600 48 -400 350/10 RMK AO2 SLP237 T00501050
14837KMSN MSN20060322195509703/22/06 19:55:31  5-MIN KMSN 230155Z 34009KT 10SM OVC055 05/M05 A3021 600 48 -400 340/09 RMK AO2
14837KMSN MSN20060322200009703/22/06 20:00:31  5-MIN KMSN 230200Z 34009KT 10SM OVC055 05/M05 A3021 600 48 -400 340/09 RMK AO2
14837KMSN MSN20060322200509703/22/06 20:05:31  5-MIN KMSN 230205Z 34008KT 10SM OVC055 05/M05 A3021 600 48 -400 340/08 RMK AO2
14837KMSN MSN20060322201009703/22/06 20:10:31  5-MIN KMSN 230210Z 33007KT 10SM OVC055 05/M05 A3021 600 48 -400 330/07 RMK AO2
14837KMSN MSN20060322201509703/22/06 20:15:31  5-MIN KMSN 230215Z 32007KT 10SM OVC055 05/M04 A3021 590 50 -400 320/07 RMK AO2
14837KMSN MSN20060322202009703/22/06 20:20:31  5-MIN KMSN 230220Z 32007KT 10SM OVC055 05/M04 A3021 590 50 -400 320/07 RMK AO2
14837KMSN MSN20060322202509703/22/06 20:25:31  5-MIN KMSN 230225Z 32005KT 10SM OVC055 05/M04 A3022 590 50 -400 320/05 RMK AO2
14837KMSN MSN20060322203009703/22/06 20:30:31  5-MIN KMSN 230230Z 32006KT 10SM OVC055 05/M04 A3022 590 50 -400 320/06 RMK AO2
14837KMSN MSN20060322203509703/22/06 20:35:31  5-MIN KMSN 230235Z 32006KT 10SM OVC055 05/M04 A3022 590 50 -400 320/06 RMK AO2
14837KMSN MSN20060322204009703/22/06 20:40:31  5-MIN KMSN 230240Z 31006KT 10SM OVC055 04/M04 A3022 590 52 -500 310/06 RMK AO2
14837KMSN MSN20060322204509703/22/06 20:45:31  5-MIN KMSN 230245Z 32006KT 10SM OVC055 04/M04 A3022 590 52 -500 320/06 RMK AO2
14837KMSN MSN20060322205012003/22/06 20:50:31  5-MIN KMSN 230250Z 32007KT 10SM OVC055 04/M04 A3022 590 52 -500 320/07 RMK AO2 SLP241 T00441044 53004
14837KMSN MSN20060322205509703/22/06 20:55:31  5-MIN KMSN 230255Z 32006KT 10SM OVC055 04/M04 A3022 590 52 -500 320/06 RMK AO2
14837KMSN MSN20060322210009703/22/06 21:00:31  5-MIN KMSN 230300Z 31006KT 10SM OVC055 04/M04 A3022 590 52 -500 310/06 RMK AO2
14837KMSN MSN20060322210509703/22/06 21:05:31  5-MIN KMSN 230305Z 32005KT 10SM OVC055 04/M04 A3022 590 52 -500 320/05 RMK AO2
14837KMSN MSN20060322211009703/22/06 21:10:31  5-MIN KMSN 230310Z 32005KT 10SM OVC055 04/M04 A3022 590 52 -500 320/05 RMK AO2
14837KMSN MSN20060322211509703/22/06 21:15:31  5-MIN KMSN 230315Z 32006KT 10SM OVC055 04/M04 A3022 590 52 -500 320/06 RMK AO2
14837KMSN MSN20060322212009703/22/06 21:20:31  5-MIN KMSN 230320Z 32006KT 10SM OVC050 04/M04 A3022 590 52 -500 320/06 RMK AO2
14837KMSN MSN20060322212509703/22/06 21:25:31  5-MIN KMSN 230325Z 33006KT 10SM OVC050 04/M04 A3022 590 52 -500 330/06 RMK AO2
14837KMSN MSN20060322213009703/22/06 21:30:31  5-MIN KMSN 230330Z 33007KT 10SM OVC050 04/M04 A3022 580 52 -500 330/07 RMK AO2
14837KMSN MSN20060322213509703/22/06 21:35:31  5-MIN KMSN 230335Z 33006KT 10SM OVC055 04/M04 A3022 580 52 -500 320/06 RMK AO2
14837KMSN MSN20060322214009703/22/06 21:40:31  5-MIN KMSN 230340Z 32007KT 10SM OVC055 04/M04 A3023 580 52 -500 320/07 RMK AO2
14837KMSN MSN20060322214509703/22/06 21:45:31  5-MIN KMSN 230345Z 32007KT 10SM OVC050 04/M04 A3023 580 52 -500 320/07 RMK AO2
14837KMSN MSN20060322215011403/22/06 21:50:31  5-MIN KMSN 230350Z 32006KT 10SM OVC050 04/M04 A3023 580 52 -500 320/06 RMK AO2 SLP243 T00441044
14837KMSN MSN20060322215509703/22/06 21:55:31  5-MIN KMSN 230355Z 32008KT 10SM OVC050 04/M04 A3023 580 52 -500 320/08 RMK AO2
14837KMSN MSN20060322220009703/22/06 22:00:31  5-MIN KMSN 230400Z 33006KT 10SM OVC055 04/M04 A3023 580 52 -500 330/06 RMK AO2
14837KMSN MSN20060322220509703/22/06 22:05:31  5-MIN KMSN 230405Z 33007KT 10SM OVC055 04/M04 A3023 580 54 -500 330/07 RMK AO2
14837KMSN MSN20060322221009703/22/06 22:10:31  5-MIN KMSN 230410Z 33006KT 10SM OVC055 04/M04 A3023 580 54 -500 330/06 RMK AO2
14837KMSN MSN20060322221509703/22/06 22:15:31  5-MIN KMSN 230415Z 33009KT 10SM OVC055 04/M04 A3023 580 54 -500 330/09 RMK AO2
14837KMSN MSN20060322222009703/22/06 22:20:31  5-MIN KMSN 230420Z 34008KT 10SM OVC055 04/M04 A3023 580 54 -500 340/08 RMK AO2
14837KMSN MSN20060322222509703/22/06 22:25:31  5-MIN KMSN 230425Z 34009KT 10SM OVC055 04/M04 A3024 570 54 -500 340/09 RMK AO2
14837KMSN MSN20060322223009703/22/06 22:30:31  5-MIN KMSN 230430Z 34007KT 10SM OVC055 04/M04 A3024 570 54 -500 340/07 RMK AO2
14837KMSN MSN20060322223509703/22/06 22:35:31  5-MIN KMSN 230435Z 34009KT 10SM OVC055 04/M04 A3024 570 54 -500 340/09 RMK AO2
14837KMSN MSN20060322224009703/22/06 22:40:31  5-MIN KMSN 230440Z 35007KT 10SM OVC055 04/M04 A3024 570 54 -500 350/07 RMK AO2
14837KMSN MSN20060322224509703/22/06 22:45:31  5-MIN KMSN 230445Z 34006KT 10SM OVC055 03/M04 A3024 570 57 -600 340/06 RMK AO2
14837KMSN MSN20060322225011403/22/06 22:50:31  5-MIN KMSN 230450Z 34006KT 10SM OVC055 03/M04 A3024 570 57 -600 340/06 RMK AO2 SLP246 T00331044
14837KMSN MSN20060322225509703/22/06 22:55:31  5-MIN KMSN 230455Z 35006KT 10SM OVC055 03/M04 A3024 570 57 -600 350/06 RMK AO2
14837KMSN MSN20060322230009703/22/06 23:00:31  5-MIN KMSN 230500Z 36006KT 10SM OVC055 03/M04 A3024 570 57 -600 350/06 RMK AO2
14837KMSN MSN20060322230509703/22/06 23:05:31  5-MIN KMSN 230505Z 35007KT 10SM OVC055 03/M04 A3024 570 57 -600 350/07 RMK AO2
14837KMSN MSN20060322231009703/22/06 23:10:31  5-MIN KMSN 230510Z 34007KT 10SM OVC055 03/M04 A3024 570 57 -600 340/07 RMK AO2
14837KMSN MSN20060322231509703/22/06 23:15:31  5-MIN KMSN 230515Z 34007KT 10SM OVC055 03/M04 A3024 570 57 -600 340/07 RMK AO2
14837KMSN MSN20060322232009703/22/06 23:20:31  5-MIN KMSN 230520Z 34006KT 10SM OVC055 03/M04 A3024 570 57 -600 340/06 RMK AO2
14837KMSN MSN20060322232509703/22/06 23:25:31  5-MIN KMSN 230525Z 35006KT 10SM OVC055 03/M04 A3024 570 57 -600 350/06 RMK AO2
14837KMSN MSN20060322233009703/22/06 23:30:31  5-MIN KMSN 230530Z 36006KT 10SM OVC055 03/M04 A3024 570 59 -700 360/06 RMK AO2
14837KMSN MSN20060322233509703/22/06 23:35:31  5-MIN KMSN 230535Z 03007KT 10SM OVC055 03/M04 A3024 570 59 -700 030/07 RMK AO2
14837KMSN MSN20060322234009703/22/06 23:40:31  5-MIN KMSN 230540Z 03009KT 10SM OVC055 03/M04 A3024 570 61 -700 030/09 RMK AO2
14837KMSN MSN20060322234509703/22/06 23:45:31  5-MIN KMSN 230545Z 03009KT 10SM OVC055 03/M04 A3024 570 61 -700 030/09 RMK AO2
14837KMSN MSN20060322235014203/22/06 23:50:31  5-MIN KMSN 230550Z 03008KT 10SM OVC055 03/M04 A3024 570 61 -700 030/08 RMK AO2 SLP249 T00281039 10061 20028 400891039 53013
14837KMSN MSN20060322235509703/22/06 23:55:31  5-MIN KMSN 230555Z 03008KT 10SM OVC055 03/M04 A3024 570 61 -700 030/08 RMK AO2
14837KMSN MSN20060323000009703/23/06 00:00:38  5-MIN KMSN 230600Z 03007KT 10SM OVC055 02/M04 A3024 570 64 -800 030/07 RMK AO2
14837KMSN MSN20060323000509703/23/06 00:05:31  5-MIN KMSN 230605Z 04006KT 10SM OVC055 02/M04 A3024 570 64 -800 030/06 RMK AO2
14837KMSN MSN20060323001009703/23/06 00:10:31  5-MIN KMSN 230610Z 05005KT 10SM OVC055 02/M04 A3024 570 64 -800 050/05 RMK AO2
14837KMSN MSN20060323001509703/23/06 00:15:31  5-MIN KMSN 230615Z 05006KT 10SM OVC055 02/M04 A3024 570 64 -800 050/06 RMK AO2
14837KMSN MSN20060323002009703/23/06 00:20:31  5-MIN KMSN 230620Z 06005KT 10SM OVC055 02/M04 A3024 570 66 -800 060/05 RMK AO2
14837KMSN MSN20060323002509703/23/06 00:25:31  5-MIN KMSN 230625Z 06005KT 10SM OVC055 02/M04 A3024 570 66 -800 060/05 RMK AO2
14837KMSN MSN20060323003009703/23/06 00:30:31  5-MIN KMSN 230630Z 05006KT 10SM OVC060 02/M04 A3024 570 66 -800 050/06 RMK AO2
14837KMSN MSN20060323003509703/23/06 00:35:31  5-MIN KMSN 230635Z 04006KT 10SM OVC060 02/M04 A3024 570 66 -800 040/06 RMK AO2
14837KMSN MSN20060323004009703/23/06 00:40:31  5-MIN KMSN 230640Z 04005KT 10SM OVC060 02/M04 A3024 570 66 -800 040/05 RMK AO2
14837KMSN MSN20060323004509703/23/06 00:45:31  5-MIN KMSN 230645Z 03005KT 10SM OVC060 02/M04 A3024 570 66 -800 030/05 RMK AO2
14837KMSN MSN20060323005011403/23/06 00:50:31  5-MIN KMSN 230650Z 02005KT 10SM OVC060 02/M04 A3025 570 66 -800 020/05 RMK AO2 SLP249 T00171039
14837KMSN MSN20060323005509703/23/06 00:55:31  5-MIN KMSN 230655Z 01004KT 10SM OVC060 02/M04 A3024 570 66 -800 010/04 RMK AO2
14837KMSN MSN20060323010009703/23/06 01:00:31  5-MIN KMSN 230700Z 36004KT 10SM OVC060 02/M04 A3025 570 66 -800 360/04 RMK AO2
14837KMSN MSN20060323010509703/23/06 01:05:31  5-MIN KMSN 230705Z 35004KT 10SM OVC060 02/M04 A3024 570 66 -800 350/04 RMK AO2
14837KMSN MSN20060323011009703/23/06 01:10:31  5-MIN KMSN 230710Z 01005KT 10SM OVC060 02/M04 A3024 570 66 -800 360/05 RMK AO2
14837KMSN MSN20060323011509703/23/06 01:15:31  5-MIN KMSN 230715Z 36005KT 10SM OVC060 02/M04 A3024 570 66 -800 360/05 RMK AO2
14837KMSN MSN20060323012009703/23/06 01:20:31  5-MIN KMSN 230720Z 36005KT 10SM OVC060 02/M04 A3024 570 66 -800 360/05 RMK AO2
14837KMSN MSN20060323012509703/23/06 01:25:31  5-MIN KMSN 230725Z 36006KT 10SM OVC060 02/M04 A3024 570 66 -800 360/06 RMK AO2
14837KMSN MSN20060323013009703/23/06 01:30:31  5-MIN KMSN 230730Z 36004KT 10SM OVC060 01/M04 A3024 570 69 -900 360/04 RMK AO2
14837KMSN MSN20060323013509703/23/06 01:35:31  5-MIN KMSN 230735Z 35005KT 10SM OVC060 01/M04 A3024 570 69 -900 350/05 RMK AO2
14837KMSN MSN20060323014009703/23/06 01:40:31  5-MIN KMSN 230740Z 36005KT 10SM OVC060 01/M04 A3024 570 69 -900 360/05 RMK AO2
14837KMSN MSN20060323014509703/23/06 01:45:31  5-MIN KMSN 230745Z 36005KT 10SM OVC060 01/M04 A3024 570 69 -900 360/05 RMK AO2
14837KMSN MSN20060323015011403/23/06 01:50:31  5-MIN KMSN 230750Z 36005KT 10SM OVC060 01/M04 A3024 570 69 -900 360/05 RMK AO2 SLP247 T00111039
14837KMSN MSN20060323015509703/23/06 01:55:31  5-MIN KMSN 230755Z 36005KT 10SM OVC060 01/M04 A3024 570 69 -900 360/05 RMK AO2
14837KMSN MSN20060323020009703/23/06 02:00:31  5-MIN KMSN 230800Z 36004KT 10SM OVC060 01/M04 A3024 570 69 -900 360/04 RMK AO2
14837KMSN MSN20060323020509703/23/06 02:05:31  5-MIN KMSN 230805Z 36004KT 10SM OVC060 01/M04 A3024 570 69 -900 360/04 RMK AO2
14837KMSN MSN20060323021009703/23/06 02:10:31  5-MIN KMSN 230810Z 36005KT 10SM OVC065 01/M04 A3024 570 69 -900 360/05 RMK AO2
14837KMSN MSN20060323021509803/23/06 02:15:31  5-MIN KMSN 230815Z 01006KT 10SM OVC065 01/M04 A3024 570 72 -1000 010/06 RMK AO2
14837KMSN MSN20060323022009803/23/06 02:20:31  5-MIN KMSN 230820Z 01005KT 10SM OVC065 01/M04 A3024 570 72 -1000 010/05 RMK AO2
14837KMSN MSN20060323022509803/23/06 02:25:31  5-MIN KMSN 230825Z 35004KT 10SM OVC065 01/M04 A3024 570 72 -1000 350/04 RMK AO2
14837KMSN MSN20060323023009703/23/06 02:30:31  5-MIN KMSN 230830Z 35004KT 10SM OVC065 01/M04 A3024 570 69 -900 350/04 RMK AO2
14837KMSN MSN20060323023509703/23/06 02:35:31  5-MIN KMSN 230835Z 35004KT 10SM OVC060 01/M04 A3024 570 69 -900 350/04 RMK AO2
14837KMSN MSN20060323024009703/23/06 02:40:31  5-MIN KMSN 230840Z 34003KT 10SM OVC060 01/M04 A3023 570 69 -900 340/03 RMK AO2
14837KMSN MSN20060323024509703/23/06 02:45:31  5-MIN KMSN 230845Z 00000KT 10SM OVC060 01/M04 A3024 570 69 -900 000/00 RMK AO2
14837KMSN MSN20060323025012003/23/06 02:50:31  5-MIN KMSN 230850Z 00000KT 10SM OVC060 01/M04 A3024 570 69 -900 000/00 RMK AO2 SLP246 T00111039 51008
14837KMSN MSN20060323025509703/23/06 02:55:31  5-MIN KMSN 230855Z 00000KT 10SM OVC065 01/M04 A3024 570 69 -900 000/00 RMK AO2
14837KMSN MSN20060323030009703/23/06 03:00:31  5-MIN KMSN 230900Z 00000KT 10SM OVC065 01/M04 A3024 570 69 -900 000/00 RMK AO2
14837KMSN MSN20060323030509703/23/06 03:05:31  5-MIN KMSN 230905Z 00000KT 10SM OVC065 01/M04 A3024 570 69 -900 000/00 RMK AO2
14837KMSN MSN20060323031009703/23/06 03:10:31  5-MIN KMSN 230910Z 00000KT 10SM OVC065 01/M04 A3024 570 66 -900 000/00 RMK AO2
14837KMSN MSN20060323031509703/23/06 03:15:31  5-MIN KMSN 230915Z 00000KT 10SM OVC065 01/M04 A3024 570 66 -900 000/00 RMK AO2
14837KMSN MSN20060323032009703/23/06 03:20:31  5-MIN KMSN 230920Z 00000KT 10SM OVC065 01/M04 A3024 570 66 -900 000/00 RMK AO2
14837KMSN MSN20060323032509703/23/06 03:25:31  5-MIN KMSN 230925Z 32003KT 10SM OVC065 01/M04 A3024 570 66 -900 320/03 RMK AO2
14837KMSN MSN20060323033009703/23/06 03:30:31  5-MIN KMSN 230930Z 33003KT 10SM OVC065 01/M04 A3024 570 66 -900 330/03 RMK AO2
14837KMSN MSN20060323033509703/23/06 03:35:31  5-MIN KMSN 230935Z 34003KT 10SM OVC065 01/M04 A3024 570 66 -900 340/03 RMK AO2
14837KMSN MSN20060323034009703/23/06 03:40:31  5-MIN KMSN 230940Z 33003KT 10SM OVC070 01/M04 A3024 570 66 -900 330/03 RMK AO2
14837KMSN MSN20060323034509703/23/06 03:45:31  5-MIN KMSN 230945Z 34003KT 10SM OVC070 01/M04 A3024 570 66 -900 330/03 RMK AO2
14837KMSN MSN20060323035011403/23/06 03:50:31  5-MIN KMSN 230950Z 34003KT 10SM OVC070 01/M04 A3024 570 66 -900 340/03 RMK AO2 SLP248 T00111044
14837KMSN MSN20060323035509703/23/06 03:55:31  5-MIN KMSN 230955Z 34003KT 10SM OVC070 01/M04 A3024 570 66 -900 340/03 RMK AO2
14837KMSN MSN20060323040009703/23/06 04:00:31  5-MIN KMSN 231000Z 34003KT 10SM OVC070 01/M04 A3024 570 66 -900 340/03 RMK AO2
14837KMSN MSN20060323040509703/23/06 04:05:31  5-MIN KMSN 231005Z 34003KT 10SM OVC070 01/M04 A3024 570 66 -900 340/03 RMK AO2
14837KMSN MSN20060323041009703/23/06 04:10:31  5-MIN KMSN 231010Z 34003KT 10SM OVC070 01/M04 A3024 570 66 -900 340/03 RMK AO2
14837KMSN MSN20060323041509703/23/06 04:15:31  5-MIN KMSN 231015Z 34003KT 10SM OVC070 01/M04 A3024 570 66 -900 330/03 RMK AO2
14837KMSN MSN20060323042009703/23/06 04:20:31  5-MIN KMSN 231020Z 34003KT 10SM OVC070 01/M04 A3024 570 66 -900 340/03 RMK AO2
14837KMSN MSN20060323042509703/23/06 04:25:31  5-MIN KMSN 231025Z 35003KT 10SM OVC070 01/M04 A3024 570 66 -900 350/03 RMK AO2
14837KMSN MSN20060323043009703/23/06 04:30:31  5-MIN KMSN 231030Z 34003KT 10SM OVC070 01/M04 A3024 570 66 -900 340/03 RMK AO2
14837KMSN MSN20060323043509803/23/06 04:35:31  5-MIN KMSN 231035Z 00000KT 10SM OVC075 01/M04 A3025 570 72 -1000 000/00 RMK AO2
14837KMSN MSN20060323044009803/23/06 04:40:31  5-MIN KMSN 231040Z 00000KT 10SM OVC075 01/M04 A3025 560 69 -1000 000/00 RMK AO2
14837KMSN MSN20060323044509803/23/06 04:45:31  5-MIN KMSN 231045Z 00000KT 10SM OVC075 01/M04 A3025 570 69 -1000 000/00 RMK AO2
14837KMSN MSN20060323045011503/23/06 04:50:31  5-MIN KMSN 231050Z 00000KT 10SM OVC075 01/M04 A3024 570 69 -1000 000/00 RMK AO2 SLP249 T00061044
14837KMSN MSN20060323045509803/23/06 04:55:31  5-MIN KMSN 231055Z 00000KT 10SM OVC075 01/M04 A3025 560 72 -1000 000/00 RMK AO2
14837KMSN MSN20060323050009803/23/06 05:00:31  5-MIN KMSN 231100Z 00000KT 10SM OVC070 01/M03 A3024 570 75 -1000 000/00 RMK AO2
14837KMSN MSN20060323050509803/23/06 05:05:31  5-MIN KMSN 231105Z 00000KT 10SM OVC070 01/M03 A3025 560 75 -1000 000/00 RMK AO2
14837KMSN MSN20060323051009803/23/06 05:10:31  5-MIN KMSN 231110Z 00000KT 10SM OVC070 01/M04 A3025 560 72 -1000 000/00 RMK AO2
14837KMSN MSN20060323051509803/23/06 05:15:31  5-MIN KMSN 231115Z 00000KT 10SM OVC070 01/M04 A3025 560 72 -1000 000/00 RMK AO2
14837KMSN MSN20060323052009803/23/06 05:20:31  5-MIN KMSN 231120Z 00000KT 10SM OVC070 01/M04 A3025 560 72 -1000 000/00 RMK AO2
14837KMSN MSN20060323052509803/23/06 05:25:31  5-MIN KMSN 231125Z 00000KT 10SM OVC070 01/M04 A3025 560 72 -1000 000/00 RMK AO2
14837KMSN MSN20060323053009803/23/06 05:30:31  5-MIN KMSN 231130Z 00000KT 10SM OVC070 01/M04 A3025 560 72 -1000 000/00 RMK AO2
14837KMSN MSN20060323053509803/23/06 05:35:31  5-MIN KMSN 231135Z 00000KT 10SM OVC070 01/M04 A3025 560 72 -1000 000/00 RMK AO2
14837KMSN MSN20060323054011403/23/06 05:40:31  5-MIN KMSN 231140Z 00000KT 10SM -SN BKN070 01/M04 A3025 560 69 -1000 000/00 RMK AO2 SNB36 P0000
14837KMSN MSN20060323054511303/23/06 05:45:31  5-MIN KMSN 231145Z 00000KT 9SM -SN BKN070 01/M04 A3025 560 72 -1000 000/00 RMK AO2 SNB36 P0000
14837KMSN MSN20060323055015403/23/06 05:50:31  5-MIN KMSN 231150Z 00000KT 9SM -SN BKN070 01/M04 A3025 560 72 -1000 000/00 RMK AO2 SNB36 SLP252 P0000 60000 T00061039 10028 20006 58002
14837KMSN MSN20060323055510703/23/06 05:55:31  5-MIN KMSN 231155Z 00000KT 9SM -SN OVC070 01/M04 A3025 560 72 -1000 000/00 RMK AO2 P0000
14837KMSN MSN20060323060010703/23/06 06:00:31  5-MIN KMSN 231200Z 00000KT 9SM -SN OVC065 01/M04 A3025 560 72 -1000 000/00 RMK AO2 P0000
14837KMSN MSN20060323060511403/23/06 06:05:31  5-MIN KMSN 231205Z 00000KT 9SM -SN SCT055 OVC070 01/M03 A3025 560 75 -1000 000/00 RMK AO2 P0000
14837KMSN MSN20060323061011403/23/06 06:10:31  5-MIN KMSN 231210Z 00000KT 9SM -SN SCT050 OVC070 01/M04 A3025 560 72 -1000 000/00 RMK AO2 P0000
14837KMSN MSN20060323061510703/23/06 06:15:31  5-MIN KMSN 231215Z 00000KT 9SM -SN OVC060 01/M04 A3025 560 72 -1000 000/00 RMK AO2 P0000
14837KMSN MSN20060323062011403/23/06 06:20:31  5-MIN KMSN 231220Z 00000KT 9SM -SN FEW050 OVC065 01/M04 A3025 560 72 -1000 000/00 RMK AO2 P0000
14837KMSN MSN20060323062511403/23/06 06:25:31  5-MIN KMSN 231225Z 32003KT 9SM -SN SCT050 OVC065 01/M04 A3025 560 72 -1000 310/03 RMK AO2 P0000
14837KMSN MSN20060323063011403/23/06 06:30:31  5-MIN KMSN 231230Z 32003KT 9SM -SN BKN050 OVC065 01/M04 A3025 560 72 -1000 320/03 RMK AO2 P0000
14837KMSN MSN20060323063511403/23/06 06:35:31  5-MIN KMSN 231235Z 32004KT 9SM -SN BKN050 OVC065 01/M04 A3025 560 72 -1000 320/04 RMK AO2 P0000
14837KMSN MSN20060323064011303/23/06 06:40:31  5-MIN KMSN 231240Z 31004KT 9SM -SN BKN048 OVC065 01/M04 A3025 560 69 -900 310/04 RMK AO2 P0000
14837KMSN MSN20060323064511503/23/06 06:45:31  5-MIN KMSN 231245Z 32003KT 9SM BKN048 BKN065 01/M04 A3025 560 69 -900 320/03 RMK AO2 SNE43 P0000
14837KMSN MSN20060323065013303/23/06 06:50:31  5-MIN KMSN 231250Z 31004KT 10SM BKN048 BKN065 01/M04 A3026 560 69 -900 310/04 RMK AO2 SNE43 SLP254 P0000 T00111039
14837KMSN MSN20060323065510703/23/06 06:55:31  5-MIN KMSN 231255Z 32004KT 10SM -SN OVC048 02/M04 A3026 560 66 -800 320/04 RMK AO2 P0000
14837KMSN MSN20060323070010603/23/06 07:00:31  5-MIN KMSN 231300Z 32004KT 9SM -SN OVC048 02/M04 A3026 560 66 -800 320/04 RMK AO2 P0000
14837KMSN MSN20060323070510803/23/06 07:05:31  5-MIN KMSN 231305Z 32004KT 9SM OVC048 02/M03 A3026 550 69 -800 320/04 RMK AO2 SNE05 P0000
14837KMSN MSN20060323071010803/23/06 07:10:31  5-MIN KMSN 231310Z 32004KT 9SM OVC048 02/M03 A3026 550 69 -800 320/04 RMK AO2 SNE05 P0000
14837KMSN MSN20060323071510903/23/06 07:15:31  5-MIN KMSN 231315Z 35003KT 10SM OVC048 02/M03 A3026 550 69 -800 350/03 RMK AO2 SNE05 P0000
14837KMSN MSN20060323072010903/23/06 07:20:31  5-MIN KMSN 231320Z 34005KT 10SM OVC046 02/M03 A3026 550 69 -800 340/05 RMK AO2 SNE05 P0000
14837KMSN MSN20060323072510903/23/06 07:25:31  5-MIN KMSN 231325Z 34005KT 10SM OVC044 02/M03 A3026 550 69 -800 340/05 RMK AO2 SNE05 P0000
14837KMSN MSN20060323073011603/23/06 07:30:31  5-MIN KMSN 231330Z 35005KT 10SM BKN044 OVC050 02/M03 A3026 550 69 -800 350/05 RMK AO2 SNE05 P0000
14837KMSN MSN20060323073511603/23/06 07:35:31  5-MIN KMSN 231335Z 36005KT 10SM BKN042 OVC050 02/M03 A3026 550 69 -800 360/05 RMK AO2 SNE05 P0000
14837KMSN MSN20060323074010903/23/06 07:40:31  5-MIN KMSN 231340Z 36005KT 10SM OVC042 02/M03 A3026 550 69 -800 360/05 RMK AO2 SNE05 P0000
14837KMSN MSN20060323074510903/23/06 07:45:31  5-MIN KMSN 231345Z 36005KT 10SM OVC042 02/M03 A3026 550 67 -800 360/05 RMK AO2 SNE05 P0000
14837KMSN MSN20060323075012603/23/06 07:50:31  5-MIN KMSN 231350Z 01005KT 10SM OVC040 02/M03 A3026 550 67 -800 360/05 RMK AO2 SNE05 SLP255 P0000 T00221033
14837KMSN MSN20060323075509703/23/06 07:55:31  5-MIN KMSN 231355Z 01005KT 10SM OVC040 02/M03 A3026 550 67 -800 010/05 RMK AO2
14837KMSN MSN20060323080009703/23/06 08:00:31  5-MIN KMSN 231400Z 01005KT 10SM OVC038 02/M04 A3026 550 64 -800 010/05 RMK AO2
14837KMSN MSN20060323080509703/23/06 08:05:31  5-MIN KMSN 231405Z 01005KT 10SM OVC038 02/M04 A3026 550 64 -800 010/05 RMK AO2
14837KMSN MSN20060323081009703/23/06 08:10:31  5-MIN KMSN 231410Z 02006KT 10SM OVC036 02/M04 A3026 550 66 -800 020/06 RMK AO2
14837KMSN MSN20060323081511303/23/06 08:15:31  5-MIN KMSN 231415Z 01006KT 10SM -SN OVC036 02/M04 A3026 550 64 -800 010/06 RMK AO2 SNB12 P0000
14837KMSN MSN20060323082011203/23/06 08:20:31  5-MIN KMSN 231420Z 01006KT 9SM -SN OVC036 02/M04 A3026 550 66 -800 010/06 RMK AO2 SNB12 P0000
14837KMSN MSN20060323082511203/23/06 08:25:31  5-MIN KMSN 231425Z 01006KT 9SM -SN OVC036 02/M04 A3026 550 66 -800 010/06 RMK AO2 SNB12 P0000
14837KMSN MSN20060323083011203/23/06 08:30:31  5-MIN KMSN 231430Z 01005KT 9SM -SN OVC036 02/M03 A3026 550 69 -800 010/05 RMK AO2 SNB12 P0000
14837KMSN MSN20060323083511203/23/06 08:35:31  5-MIN KMSN 231435Z 01006KT 9SM -SN OVC036 02/M03 A3026 550 67 -800 360/06 RMK AO2 SNB12 P0000
14837KMSN MSN20060323084011203/23/06 08:40:31  5-MIN KMSN 231440Z 01007KT 9SM -SN OVC036 02/M03 A3026 550 69 -800 010/07 RMK AO2 SNB12 P0000
14837KMSN MSN20060323084511203/23/06 08:45:31  5-MIN KMSN 231445Z 01007KT 8SM -SN OVC036 02/M03 A3026 550 72 -800 010/07 RMK AO2 SNB12 P0000
14837KMSN MSN20060323085014103/23/06 08:50:31  5-MIN KMSN 231450Z 01006KT 8SM -SN OVC036 02/M03 A3026 550 72 -900 010/06 RMK AO2 SNB12 SLP256 P0000 60000 T00171028 51004
14837KMSN MSN20060323085511303/23/06 08:55:31  5-MIN KMSN 231455Z 01007KT 9SM -SN FEW029 OVC037 02/M03 A3026 550 72 -900 010/07 RMK AO2 P0000
14837KMSN MSN20060323090010603/23/06 09:00:31  5-MIN KMSN 231500Z 01007KT 5SM -SN OVC033 02/M03 A3026 550 72 -900 010/07 RMK AO2 P0000
14837KMSN MSN20060323090511303/23/06 09:05:31  5-MIN KMSN 231505Z 01007KT 5SM -SN BKN030 OVC036 02/M03 A3026 550 72 -900 010/07 RMK AO2 P0000
14837KMSN MSN20060323091011303/23/06 09:10:31  5-MIN KMSN 231510Z 02006KT 5SM -SN BKN030 OVC036 02/M02 A3026 550 75 -900 020/06 RMK AO2 P0000
14837KMSN MSN20060323091511303/23/06 09:15:31  5-MIN KMSN 231515Z 03008KT 5SM -SN BKN029 OVC035 02/M02 A3026 550 75 -900 020/08 RMK AO2 P0000
14837KMSN MSN20060323092010603/23/06 09:20:31  5-MIN KMSN 231520Z 02008KT 5SM -SN OVC029 01/M02 A3026 550 78 -900 020/08 RMK AO2 P0000
14837KMSN MSN20060323092511003/23/06 09:25:31  5-MIN KMSN 231525Z 02008KT 2 1/2SM -SN OVC029 01/M02 A3026 550 78 -900 020/08 RMK AO2 P0000
14837KMSN MSN20060323093010603/23/06 09:30:31  5-MIN KMSN 231530Z 02007KT 2SM -SN OVC029 01/M02 A3026 550 78 -900 020/07 RMK AO2 P0000
14837KMSN MSN20060323093511403/23/06 09:35:31  5-MIN KMSN 231535Z 02007KT 2 1/2SM -SN BR OVC029 01/M02 A3026 550 85 -1000 020/07 RMK AO2 P0000
14837KMSN MSN20060323094011403/23/06 09:40:31  5-MIN KMSN 231540Z 01006KT 1 3/4SM -SN BR OVC027 01/M02 A3026 550 85 -1000 010/06 RMK AO2 P0000
14837KMSN MSN20060323094512803/23/06 09:45:31  5-MIN KMSN 231545Z 02005KT 1 3/4SM -SN BR FEW013 BKN027 OVC032 01/M02 A3026 550 85 -1000 010/05 RMK AO2 P0001
14837KMSN MSN20060323095015503/23/06 09:50:31  5-MIN KMSN 231550Z 36003KT 1 1/4SM -SN BR FEW011 BKN023 OVC028 01/M02 A3026 550 85 -1000 360/03 RMK AO2 SFC VIS 2 SLP256 P0001 T00061017
14837KMSN MSN20060323095513703/23/06 09:55:31  5-MIN KMSN 231555Z 36003KT 1 1/2SM -SN BR FEW011 BKN021 OVC028 01/M01 A3026 550 85 -900 360/03 RMK AO2 SFC VIS 3 P0000
14837KMSN MSN20060323100014103/23/06 10:00:31  5-MIN KMSN 231600Z 36003KT 1 1/2SM -SN BR FEW011 BKN017 OVC024 01/M01 A3026 550 85 -900 360/03 RMK AO2 SFC VIS 2 1/2 P0000
14837KMSN MSN20060323100513403/23/06 10:05:31  5-MIN KMSN 231605Z 03004KT 1 1/2SM -SN FEW011 BKN017 OVC024 02/M01 A3026 550 82 -900 030/04 RMK AO2 SFC VIS 3 P0000
14837KMSN MSN20060323101013003/23/06 10:10:31  5-MIN KMSN 231610Z 00000KT 1 1/2SM -SN BR FEW011 OVC017 01/M01 A3026 550 85 -900 000/00 RMK AO2 SFC VIS 3 P0000
14837KMSN MSN20060323101510603/23/06 10:15:31  5-MIN KMSN 231615Z 00000KT 4SM -SN OVC017 02/M01 A3026 550 82 -800 000/00 RMK AO2 P0000
14837KMSN MSN20060323102011603/23/06 10:20:31  5-MIN KMSN 231620Z 00000KT 4SM -SN BR FEW011 OVC017 02/M01 A3026 550 85 -800 000/00 RMK AO2 P0000
14837KMSN MSN20060323102511603/23/06 10:25:31  5-MIN KMSN 231625Z 00000KT 4SM -SN BR SCT011 OVC017 02/M01 A3026 550 85 -800 000/00 RMK AO2 P0000
14837KMSN MSN20060323103011303/23/06 10:30:31  5-MIN KMSN 231630Z 00000KT 4SM -SN SCT011 OVC017 02/M01 A3026 550 82 -800 000/00 RMK AO2 P0000
14837KMSN MSN20060323103511603/23/06 10:35:31  5-MIN KMSN 231635Z 00000KT 4SM -SN BR SCT011 OVC017 02/M01 A3026 550 85 -800 000/00 RMK AO2 P0000
14837KMSN MSN20060323104011303/23/06 10:40:31  5-MIN KMSN 231640Z 01003KT 4SM -SN BKN011 OVC017 02/M01 A3026 550 82 -800 010/03 RMK AO2 P0000
14837KMSN MSN20060323104511303/23/06 10:45:31  5-MIN KMSN 231645Z 00000KT 4SM -SN SCT011 OVC017 02/M01 A3025 560 78 -800 000/00 RMK AO2 P0000
14837KMSN MSN20060323105011303/23/06 10:50:31  5-MIN KMSN 231650Z 02004KT 4SM -SN BKN011 OVC017 02/M01 A3025 560 82 -800 020/04 RMK AO2 P0000
14837KMSN MSN20060323105510603/23/06 10:55:31  5-MIN KMSN 231655Z 00000KT 6SM -SN OVC014 02/M01 A3025 560 78 -800 000/00 RMK AO2 P0000
14837KMSN MSN20060323110011803/23/06 11:00:31  5-MIN KMSN 231700Z 00000KT 6SM -SN OVC016 02/M01 A3025 560 78 -800 000/00 RMK AO2 CIG 010V020 P0000
14837KMSN MSN20060323110511303/23/06 11:05:31  5-MIN KMSN 231705Z 00000KT 7SM -SN BKN013 OVC018 02/M01 A3025 560 78 -800 000/00 RMK AO2 P0000
14837KMSN MSN20060323111011503/23/06 11:10:31  5-MIN KMSN 231710Z 00000KT 7SM BKN013 OVC020 02/M01 A3025 560 78 -800 000/00 RMK AO2 SNE09 P0000
14837KMSN MSN20060323111511303/23/06 11:15:31  5-MIN KMSN 231715Z 35003KT 8SM -SN SCT013 OVC020 02/M01 A3025 560 78 -800 350/03 RMK AO2 P0000
14837KMSN MSN20060323112011303/23/06 11:20:31  5-MIN KMSN 231720Z 00000KT 9SM -SN FEW013 OVC020 03/M01 A3025 570 75 -700 000/00 RMK AO2 P0000
14837KMSN MSN20060323112511303/23/06 11:25:31  5-MIN KMSN 231725Z 00000KT 9SM -SN FEW013 OVC018 03/M01 A3024 570 79 -700 000/00 RMK AO2 P0000
14837KMSN MSN20060323113012003/23/06 11:30:31  5-MIN KMSN 231730Z VRB03KT 9SM -SN FEW013 BKN020 OVC031 03/M01 A3024 570 75 -700 VRB/03 RMK AO2 P0000
14837KMSN MSN20060323113511503/23/06 11:35:31  5-MIN KMSN 231735Z 00000KT 9SM BKN020 OVC028 03/M01 A3024 570 75 -700 000/00 RMK AO2 SNE32 P0000
14837KMSN MSN20060323114011603/23/06 11:40:31  5-MIN KMSN 231740Z 00000KT 10SM BKN018 OVC028 03/M02 A3024 570 72 -700 000/00 RMK AO2 SNE32 P0000
14837KMSN MSN20060323114511403/23/06 11:45:31  5-MIN KMSN 231745Z 36003KT 10SM -SN BKN018 OVC028 03/M02 A3024 570 72 -700 360/03 RMK AO2 P0000
14837KMSN MSN20060323115016103/23/06 11:50:31  5-MIN KMSN 231750Z 00000KT 9SM -SN BKN018 BKN028 OVC033 03/M02 A3024 570 72 -700 000/00 RMK AO2 SLP248 P0000 60001 T00281017 10028 20006 51004
14837KMSN MSN20060323115512003/23/06 11:55:31  5-MIN KMSN 231755Z 00000KT 9SM -SN BKN018 BKN024 OVC031 03/M02 A3024 570 72 -700 000/00 RMK AO2 P0000
14837KMSN MSN20060323120012003/23/06 12:00:31  5-MIN KMSN 231800Z VRB03KT 9SM -SN BKN018 BKN028 OVC035 03/M02 A3024 570 72 -700 VRB/03 RMK AO2 P0000
14837KMSN MSN20060323120512003/23/06 12:05:31  5-MIN KMSN 231805Z VRB03KT 9SM -SN FEW016 BKN021 BKN037 03/M02 A3024 570 70 -600 VRB/03 RMK AO2 P0000
14837KMSN MSN20060323121012003/23/06 12:10:31  5-MIN KMSN 231810Z 00000KT 9SM -SN SCT019 BKN026 OVC035 03/M02 A3023 580 70 -600 000/00 RMK AO2 P0000
14837KMSN MSN20060323121512203/23/06 12:15:31  5-MIN KMSN 231815Z 05003KT 9SM SCT021 BKN026 BKN035 03/M02 A3023 580 70 -600 050/03 RMK AO2 SNE11 P0000
14837KMSN MSN20060323122011603/23/06 12:20:31  5-MIN KMSN 231820Z VRB03KT 10SM BKN024 BKN035 03/M02 A3023 580 70 -600 VRB/03 RMK AO2 SNE11 P0000
14837KMSN MSN20060323122511603/23/06 12:25:31  5-MIN KMSN 231825Z 05004KT 10SM BKN026 OVC035 03/M02 A3023 580 70 -600 050/04 RMK AO2 SNE11 P0000
14837KMSN MSN20060323123011603/23/06 12:30:31  5-MIN KMSN 231830Z 05003KT 10SM BKN026 OVC033 03/M02 A3023 580 67 -600 040/03 RMK AO2 SNE11 P0000
14837KMSN MSN20060323123510903/23/06 12:35:31  5-MIN KMSN 231835Z 00000KT 10SM OVC024 03/M02 A3023 580 67 -600 000/00 RMK AO2 SNE11 P0000
14837KMSN MSN20060323124012303/23/06 12:40:31  5-MIN KMSN 231840Z 00000KT 10SM -SN BKN024 OVC028 03/M02 A3023 580 67 -600 000/00 RMK AO2 SNE11B38 P0000
14837KMSN MSN20060323124511403/23/06 12:45:31  5-MIN KMSN 231845Z 00000KT 9SM OVC024 03/M02 A3022 580 69 -700 000/00 RMK AO2 SNE11B38E45 P0000
14837KMSN MSN20060323125013803/23/06 12:50:31  5-MIN KMSN 231850Z 16003KT 9SM BKN024 OVC035 03/M02 A3022 580 67 -600 150/03 RMK AO2 SNE11B38E45 SLP243 P0000 T00331022
14837KMSN MSN20060323125510403/23/06 12:55:31  5-MIN KMSN 231855Z VRB03KT 10SM BKN024 OVC031 03/M02 A3022 590 69 -700 VRB/03 RMK AO2
14837KMSN MSN20060323130010403/23/06 13:00:31  5-MIN KMSN 231900Z 20004KT 10SM BKN024 OVC031 03/M02 A3022 590 67 -600 200/04 RMK AO2
14837KMSN MSN20060323130510403/23/06 13:05:31  5-MIN KMSN 231905Z 00000KT 10SM BKN024 OVC031 03/M02 A3022 590 67 -600 000/00 RMK AO2
14837KMSN MSN20060323131010403/23/06 13:10:31  5-MIN KMSN 231910Z 00000KT 10SM BKN026 OVC031 03/M02 A3022 590 67 -600 000/00 RMK AO2
14837KMSN MSN20060323131509703/23/06 13:15:31  5-MIN KMSN 231915Z 00000KT 10SM OVC028 03/M02 A3022 590 67 -600 000/00 RMK AO2
14837KMSN MSN20060323132010403/23/06 13:20:31  5-MIN KMSN 231920Z 00000KT 10SM BKN028 OVC035 03/M02 A3021 590 67 -600 000/00 RMK AO2
14837KMSN MSN20060323132510403/23/06 13:25:31  5-MIN KMSN 231925Z 00000KT 10SM BKN029 OVC035 03/M03 A3021 590 64 -600 000/00 RMK AO2
14837KMSN MSN20060323133012003/23/06 13:30:31  5-MIN KMSN 231930Z 00000KT 10SM -SN FEW024 OVC032 03/M03 A3021 600 64 -600 000/00 RMK AO2 SNB29 P0000
14837KMSN MSN20060323133512603/23/06 13:35:31  5-MIN KMSN 231935Z 00000KT 8SM -SN FEW024 SCT030 OVC035 03/M03 A3021 600 64 -600 000/00 RMK AO2 SNB29 P0000
14837KMSN MSN20060323134011203/23/06 13:40:31  5-MIN KMSN 231940Z 00000KT 9SM -SN OVC035 03/M03 A3021 600 64 -600 000/00 RMK AO2 SNB29 P0000
14837KMSN MSN20060323134511903/23/06 13:45:31  5-MIN KMSN 231945Z 05006KT 8SM -SN SCT030 OVC035 03/M02 A3021 600 67 -600 050/06 RMK AO2 SNB29 P0000
14837KMSN MSN20060323135013603/23/06 13:50:31  5-MIN KMSN 231950Z 04006KT 3SM -SN SCT028 OVC035 03/M02 A3021 600 70 -600 040/06 RMK AO2 SNB29 SLP239 P0000 T00331017
14837KMSN MSN20060323135512703/23/06 13:55:31  5-MIN KMSN 231955Z 01008KT 2 1/2SM -SN BKN028 OVC035 03/M01 A3021 600 75 -700 010/08 RMK AO2 TWR VIS 3 P0000
14837KMSN MSN20060323140012703/23/06 14:00:31  5-MIN KMSN 232000Z 01009KT 2 1/2SM -SN BKN026 OVC035 02/M01 A3021 590 82 -800 010/09 RMK AO2 TWR VIS 3 P0000
14837KMSN MSN20060323140513403/23/06 14:05:31  5-MIN KMSN 232005Z 02009KT 2SM -SN FEW017 BKN026 OVC035 02/M01 A3022 590 82 -800 010/09 RMK AO2 SFC VIS 2 1/2 P0001
14837KMSN MSN20060323141013403/23/06 14:10:31  5-MIN KMSN 232010Z 01008KT 2SM -SN FEW013 BKN019 OVC026 02/M01 A3022 590 82 -800 010/08 RMK AO2 SFC VIS 2 1/2 P0001
14837KMSN MSN20060323141514103/23/06 14:15:31  5-MIN KMSN 232015Z 02009KT 1 1/2SM -SN BR SCT013 BKN019 OVC026 02/M01 A3022 590 85 -800 020/09 RMK AO2 SFC VIS 1 3/4 P0001
14837KMSN MSN20060323142014103/23/06 14:20:31  5-MIN KMSN 232020Z 01008KT 1 1/2SM -SN BR SCT013 BKN017 OVC026 02/M01 A3022 590 85 -800 010/08 RMK AO2 SFC VIS 1 3/4 P0001
14837KMSN MSN20060323142514003/23/06 14:25:31  5-MIN KMSN 232025Z 36007KT 1 1/2SM -SN BR FEW009 BKN015 OVC024 02/00 A3022 590 89 -800 360/07 RMK AO2 SFC VIS 1 3/4 P0001
14837KMSN MSN20060323143014003/23/06 14:30:31  5-MIN KMSN 232030Z 01008KT 1 1/2SM -SN BR SCT011 BKN015 OVC022 01/00 A3022 590 92 -900 010/08 RMK AO2 SFC VIS 1 3/4 P0001
14837KMSN MSN20060323143511903/23/06 14:35:31  5-MIN KMSN 232035Z 01008KT 1 1/2SM -SN BR BKN011 OVC020 01/00 A3022 590 92 -900 010/08 RMK AO2 P0001
14837KMSN MSN20060323144014103/23/06 14:40:31  5-MIN KMSN 232040Z 01008KT 1 1/4SM -SN BR SCT011 BKN018 OVC023 01/M01 A3022 590 89 -900 010/08 RMK AO2 TWR VIS 1 1/2 P0001
14837KMSN MSN20060323144513703/23/06 14:45:31  5-MIN KMSN 232045Z 01007KT 1SM -SN BR FEW009 SCT017 OVC025 01/M01 A3022 590 89 -900 010/07 RMK AO2 SFC VIS 1 1/4 P0002
14837KMSN MSN20060323145016603/23/06 14:50:31  5-MIN KMSN 232050Z 01007KT 1SM -SN BR FEW009 SCT020 OVC025 01/M01 A3022 590 89 -900 010/07 RMK AO2 SFC VIS 1 1/4 SLP242 P0002 60002 T00111006 58008
14837KMSN MSN20060323145514103/23/06 14:55:31  5-MIN KMSN 232055Z 01007KT 1 1/4SM -SN BR FEW009 SCT020 OVC027 01/M01 A3022 590 89 -900 010/07 RMK AO2 SFC VIS 1 1/2 P0000
14837KMSN MSN20060323150013403/23/06 15:00:31  5-MIN KMSN 232100Z 02007KT 1 1/4SM -SN BR FEW013 OVC027 01/M01 A3022 590 89 -900 010/07 RMK AO2 SFC VIS 1 1/2 P0000
14837KMSN MSN20060323150512703/23/06 15:05:31  5-MIN KMSN 232105Z 01006KT 1 1/4SM -SN BR FEW008 SCT020 OVC027 01/M01 A3022 590 89 -900 010/06 RMK AO2 P0000
14837KMSN MSN20060323151012003/23/06 15:10:31  5-MIN KMSN 232110Z 01005KT 1 1/4SM -SN BR SCT008 OVC027 01/M01 A3022 590 89 -900 010/05 RMK AO2 P0000
14837KMSN MSN20060323151512003/23/06 15:15:31  5-MIN KMSN 232115Z 01006KT 1 1/4SM -SN BR BKN010 OVC029 01/M01 A3022 590 89 -900 010/06 RMK AO2 P0000
14837KMSN MSN20060323152012003/23/06 15:20:31  5-MIN KMSN 232120Z 02007KT 1 1/4SM -SN BR BKN010 OVC029 01/M01 A3022 590 89 -900 020/07 RMK AO2 P0001
14837KMSN MSN20060323152513203/23/06 15:25:31  5-MIN KMSN 232125Z 02005KT 3/4SM -SN BR BKN008 OVC031 01/M01 A3022 590 89 -900 020/05 RMK AO2 TWR VIS 1 1/4 P0001
14837KMSN MSN20060323153012203/23/06 15:30:31  5-MIN KMSN 232130Z 03005KT 1SM -SN BR VV008 01/M01 A3022 590 89 -900 030/05 RMK AO2 TWR VIS 1 1/4 P0001
14837KMSN MSN20060323153512203/23/06 15:35:31  5-MIN KMSN 232135Z 03004KT 1SM -SN BR VV008 01/M01 A3022 590 89 -900 030/04 RMK AO2 TWR VIS 1 1/4 P0001
14837KMSN MSN20060323154012203/23/06 15:40:31  5-MIN KMSN 232140Z 02005KT 1SM -SN BR VV008 01/M01 A3022 590 89 -900 020/05 RMK AO2 TWR VIS 1 1/4 P0001
14837KMSN MSN20060323154511203/23/06 15:45:31  5-MIN KMSN 232145Z 02007KT 1 1/4SM -SN BR OVC008 01/00 A3022 590 92 -900 020/07 RMK AO2 P0002
14837KMSN MSN20060323155014303/23/06 15:50:31  5-MIN KMSN 232150Z 03006KT 1 1/4SM -SN BR OVC008 02/00 A3022 590 89 -800 030/06 RMK AO2 SFC VIS 1 1/2 SLP243 P0002 T00170000
14837KMSN MSN20060323155512603/23/06 15:55:31  5-MIN KMSN 232155Z 04008KT 1 1/4SM -SN BR OVC008 02/00 A3022 590 89 -800 040/08 RMK AO2 SFC VIS 1 3/4 P0000
14837KMSN MSN20060323160011303/23/06 16:00:31  5-MIN KMSN 232200Z 04008KT 1 1/4SM -SN BR OVC008 01/M01 A3022 590 89 -900 040/08 RMK AO2 P0000
14837KMSN MSN20060323160512203/23/06 16:05:31  5-MIN KMSN 232205Z 04005KT 1SM -SN BR VV009 01/M01 A3022 590 89 -900 040/05 RMK AO2 TWR VIS 1 1/4 P0000
14837KMSN MSN20060323161012603/23/06 16:10:31  5-MIN KMSN 232210Z 03006KT 1 1/4SM -SN BR OVC010 01/00 A3022 590 92 -900 030/06 RMK AO2 SFC VIS 1 1/2 P0000
14837KMSN MSN20060323161512703/23/06 16:15:31  5-MIN KMSN 232215Z 04005KT 1 1/4SM -SN BR OVC010 01/M01 A3022 590 89 -900 040/05 RMK AO2 SFC VIS 1 3/4 P0000
14837KMSN MSN20060323162012703/23/06 16:20:31  5-MIN KMSN 232220Z 04005KT 1 1/4SM -SN BR OVC010 01/M01 A3022 590 89 -900 040/05 RMK AO2 SFC VIS 1 3/4 P0000
14837KMSN MSN20060323162512303/23/06 16:25:31  5-MIN KMSN 232225Z 04004KT 1 1/4SM -SN BR OVC010 01/M01 A3022 590 89 -900 040/04 RMK AO2 SFC VIS 2 P0000
14837KMSN MSN20060323163012303/23/06 16:30:31  5-MIN KMSN 232230Z 03003KT 1 1/4SM -SN BR OVC012 01/M01 A3022 590 89 -900 030/03 RMK AO2 SFC VIS 2 P0000
14837KMSN MSN20060323163513003/23/06 16:35:31  5-MIN KMSN 232235Z 03003KT 1 1/4SM -SN BR BKN014 OVC039 01/M01 A3022 590 89 -900 020/03 RMK AO2 SFC VIS 2 P0000
14837KMSN MSN20060323164013403/23/06 16:40:31  5-MIN KMSN 232240Z 04004KT 1 1/4SM -SN BR BKN016 OVC037 01/M01 A3022 580 89 -900 040/04 RMK AO2 SFC VIS 2 1/2 P0000
14837KMSN MSN20060323164512603/23/06 16:45:31  5-MIN KMSN 232245Z 05003KT 2SM -SN BR BKN019 OVC035 01/M01 A3022 580 89 -900 050/03 RMK AO2 SFC VIS 3 P0000
14837KMSN MSN20060323165014303/23/06 16:50:31  5-MIN KMSN 232250Z 04003KT 2SM -SN BR BKN019 OVC035 01/M01 A3023 580 89 -900 040/03 RMK AO2 SFC VIS 3 SLP244 P0000 T00111006
14837KMSN MSN20060323165512603/23/06 16:55:31  5-MIN KMSN 232255Z 04003KT 2SM -SN BR BKN019 OVC035 01/M01 A3022 580 89 -900 040/03 RMK AO2 SFC VIS 3 P0000
14837KMSN MSN20060323170012603/23/06 17:00:31  5-MIN KMSN 232300Z 00000KT 2SM -SN BR BKN019 OVC035 01/M01 A3022 580 89 -900 000/00 RMK AO2 SFC VIS 3 P0000
14837KMSN MSN20060323170513303/23/06 17:05:31  5-MIN KMSN 232305Z 00000KT 2SM -SN BR BKN023 BKN035 BKN046 01/M01 A3022 590 89 -900 000/00 RMK AO2 SFC VIS 3 P0000
14837KMSN MSN20060323171013303/23/06 17:10:31  5-MIN KMSN 232310Z 00000KT 2SM -SN BR BKN027 BKN033 OVC060 01/M01 A3022 590 89 -900 000/00 RMK AO2 SFC VIS 3 P0000
14837KMSN MSN20060323171512303/23/06 17:15:31  5-MIN KMSN 232315Z 00000KT 5SM -SN BR BKN033 BKN045 OVC060 01/M01 A3022 590 89 -900 000/00 RMK AO2 P0000
14837KMSN MSN20060323172012003/23/06 17:20:31  5-MIN KMSN 232320Z 00000KT 9SM -SN BKN042 BKN055 OVC065 01/M01 A3022 590 89 -900 000/00 RMK AO2 P0000
14837KMSN MSN20060323172512003/23/06 17:25:31  5-MIN KMSN 232325Z 00000KT 9SM -SN FEW047 BKN055 OVC065 02/M01 A3022 590 85 -800 000/00 RMK AO2 P0000
14837KMSN MSN20060323173011303/23/06 17:30:31  5-MIN KMSN 232330Z 00000KT 9SM -SN FEW047 OVC065 02/M01 A3022 590 85 -800 000/00 RMK AO2 P0000
14837KMSN MSN20060323173512203/23/06 17:35:31  5-MIN KMSN 232335Z 00000KT 9SM FEW020 SCT048 OVC060 01/M01 A3022 590 89 -900 000/00 RMK AO2 SNE35 P0000
14837KMSN MSN20060323174012203/23/06 17:40:31  5-MIN KMSN 232340Z 00000KT 9SM FEW020 SCT048 OVC060 01/M01 A3022 590 89 -900 000/00 RMK AO2 SNE35 P0000
14837KMSN MSN20060323174512303/23/06 17:45:31  5-MIN KMSN 232345Z 00000KT 10SM FEW020 SCT048 OVC060 01/M01 A3022 590 85 -900 000/00 RMK AO2 SNE35 P0000
14837KMSN MSN20060323175015703/23/06 17:50:31  5-MIN KMSN 232350Z 00000KT 10SM SCT048 OVC060 01/M01 A3022 590 89 -900 000/00 RMK AO2 SNE35 SLP243 P0000 60004 T00111006 10039 20011 55006
14837KMSN MSN20060323175510403/23/06 17:55:31  5-MIN KMSN 232355Z 00000KT 10SM SCT048 OVC065 01/M01 A3022 590 85 -900 000/00 RMK AO2
14837KMSN MSN20060323180010403/23/06 18:00:31  5-MIN KMSN 240000Z 00000KT 10SM SCT048 OVC065 01/M01 A3022 590 85 -900 000/00 RMK AO2
14837KMSN MSN20060323180510403/23/06 18:05:31  5-MIN KMSN 240005Z 00000KT 10SM SCT048 OVC065 01/M01 A3022 590 85 -900 000/00 RMK AO2
14837KMSN MSN20060323181010403/23/06 18:10:31  5-MIN KMSN 240010Z 00000KT 10SM SCT048 OVC065 01/M01 A3022 590 85 -900 000/00 RMK AO2
14837KMSN MSN20060323181510403/23/06 18:15:31  5-MIN KMSN 240015Z 00000KT 10SM SCT044 OVC060 01/M01 A3022 590 85 -900 000/00 RMK AO2
14837KMSN MSN20060323182010403/23/06 18:20:31  5-MIN KMSN 240020Z 00000KT 10SM SCT044 OVC060 01/M01 A3022 590 89 -900 000/00 RMK AO2
14837KMSN MSN20060323182510303/23/06 18:25:31  5-MIN KMSN 240025Z 00000KT 9SM SCT044 OVC060 01/M01 A3022 590 89 -900 000/00 RMK AO2
14837KMSN MSN20060323183014303/23/06 18:30:31  5-MIN KMSN 240030Z 00000KT 2 1/2SM -SN BR SCT025 BKN041 OVC055 01/M01 A3022 590 92 -900 000/00 RMK AO2 TWR VIS 3 SNB28 P0000
14837KMSN MSN20060323183513903/23/06 18:35:31  5-MIN KMSN 240035Z 00000KT 2SM -SN BR SCT022 BKN029 OVC042 01/M01 A3022 590 92 -900 000/00 RMK AO2 TWR VIS 3 SNB28 P0000
14837KMSN MSN20060323184013903/23/06 18:40:31  5-MIN KMSN 240040Z 00000KT 2SM -SN BR FEW020 BKN027 OVC042 01/M01 A3022 590 92 -900 000/00 RMK AO2 TWR VIS 3 SNB28 P0000
14837KMSN MSN20060323184513803/23/06 18:45:31  5-MIN KMSN 240045Z 00000KT 2SM -SN BR SCT020 BKN029 OVC038 01/00 A3022 590 96 -900 000/00 RMK AO2 TWR VIS 3 SNB28 P0000
14837KMSN MSN20060323185015903/23/06 18:50:31  5-MIN KMSN 240050Z 00000KT 2 1/2SM -SN BR SCT019 BKN024 OVC038 01/00 A3022 590 96 -900 000/00 RMK AO2 TWR VIS 3 SNB28 SLP242 P0001 T00060000
14837KMSN MSN20060323185513603/23/06 18:55:31  5-MIN KMSN 240055Z 35003KT 2 1/2SM -SN BR SCT015 BKN024 OVC029 01/00 A3022 590 96 -900 350/03 RMK AO2 TWR VIS 3 P0000
14837KMSN MSN20060323190013703/23/06 19:00:31  5-MIN KMSN 240100Z 35003KT 2 1/2SM -SN BR SCT015 BKN021 OVC029 01/M01 A3022 590 92 -900 350/03 RMK AO2 TWR VIS 3 P0000
14837KMSN MSN20060323190512303/23/06 19:05:31  5-MIN KMSN 240105Z 01004KT 5SM -SN BR FEW011 BKN023 OVC030 01/M01 A3022 590 92 -900 010/04 RMK AO2 P0000
14837KMSN MSN20060323191012303/23/06 19:10:31  5-MIN KMSN 240110Z 02007KT 5SM -SN BR FEW011 BKN028 OVC060 01/M01 A3022 590 89 -900 020/07 RMK AO2 P0000
14837KMSN MSN20060323191512003/23/06 19:15:31  5-MIN KMSN 240115Z 03011KT 8SM -SN FEW011 BKN035 OVC060 01/M02 A3022 590 82 -900 030/11 RMK AO2 P0000
14837KMSN MSN20060323192012003/23/06 19:20:31  5-MIN KMSN 240120Z 03008KT 8SM -SN FEW011 BKN041 OVC085 01/M03 A3022 590 78 -900 030/08 RMK AO2 P0000
14837KMSN MSN20060323192512003/23/06 19:25:31  5-MIN KMSN 240125Z 03006KT 8SM -SN FEW011 BKN050 OVC080 01/M03 A3022 590 78 -900 030/06 RMK AO2 P0000
14837KMSN MSN20060323193012003/23/06 19:30:31  5-MIN KMSN 240130Z 03007KT 9SM -SN FEW026 BKN055 OVC080 01/M03 A3022 590 78 -900 030/07 RMK AO2 P0000
14837KMSN MSN20060323193512203/23/06 19:35:31  5-MIN KMSN 240135Z 03008KT 9SM FEW030 BKN055 OVC080 01/M03 A3022 580 75 -900 030/08 RMK AO2 SNE35 P0000
14837KMSN MSN20060323194012203/23/06 19:40:31  5-MIN KMSN 240140Z 02008KT 9SM SCT030 BKN039 OVC080 01/M03 A3023 580 78 -900 020/08 RMK AO2 SNE35 P0000
14837KMSN MSN20060323194512303/23/06 19:45:31  5-MIN KMSN 240145Z 03008KT 10SM BKN030 BKN039 OVC080 01/M03 A3023 580 75 -900 030/08 RMK AO2 SNE35 P0000
14837KMSN MSN20060323195014003/23/06 19:50:31  5-MIN KMSN 240150Z 03006KT 10SM BKN032 BKN039 OVC080 01/M03 A3023 580 75 -900 030/06 RMK AO2 SNE35 SLP244 P0000 T00061033
14837KMSN MSN20060323195511403/23/06 19:55:31  5-MIN KMSN 240155Z 03006KT 10SM -SN BKN032 OVC039 01/M03 A3022 580 78 -900 030/06 RMK AO2 P0000
14837KMSN MSN20060323200010603/23/06 20:00:31  5-MIN KMSN 240200Z 04005KT 9SM -SN OVC032 01/M03 A3023 580 75 -900 040/05 RMK AO2 P0000
14837KMSN MSN20060323200510603/23/06 20:05:31  5-MIN KMSN 240205Z 04004KT 9SM -SN OVC032 01/M03 A3022 580 75 -900 040/04 RMK AO2 P0000
14837KMSN MSN20060323201010603/23/06 20:10:31  5-MIN KMSN 240210Z 03003KT 9SM -SN OVC032 01/M03 A3022 580 78 -900 030/03 RMK AO2 P0000
14837KMSN MSN20060323201510603/23/06 20:15:31  5-MIN KMSN 240215Z 00000KT 9SM -SN OVC032 01/M03 A3022 580 78 -900 000/00 RMK AO2 P0000
14837KMSN MSN20060323202010603/23/06 20:20:31  5-MIN KMSN 240220Z 00000KT 9SM -SN OVC032 01/M03 A3022 580 78 -900 000/00 RMK AO2 P0000
14837KMSN MSN20060323202510703/23/06 20:25:31  5-MIN KMSN 240225Z 00000KT 9SM -SN OVC032 00/M02 A3022 590 85 -1000 000/00 RMK AO2 P0000
14837KMSN MSN20060323203010703/23/06 20:30:31  5-MIN KMSN 240230Z 00000KT 9SM -SN OVC034 00/M02 A3022 590 85 -1000 000/00 RMK AO2 P0000
14837KMSN MSN20060323203510703/23/06 20:35:31  5-MIN KMSN 240235Z 00000KT 9SM -SN OVC036 00/M02 A3022 590 85 -1000 000/00 RMK AO2 P0000
14837KMSN MSN20060323204010703/23/06 20:40:31  5-MIN KMSN 240240Z 00000KT 9SM -SN OVC036 00/M03 A3022 590 81 -1000 000/00 RMK AO2 P0000
14837KMSN MSN20060323204510703/23/06 20:45:31  5-MIN KMSN 240245Z 00000KT 9SM -SN OVC038 00/M02 A3022 590 85 -1000 000/00 RMK AO2 P0000
14837KMSN MSN20060323205013603/23/06 20:50:31  5-MIN KMSN 240250Z 00000KT 9SM -SN OVC038 00/M02 A3022 590 85 -1000 000/00 RMK AO2 SLP243 P0000 60001 T00001022 50000
14837KMSN MSN20060323205510703/23/06 20:55:31  5-MIN KMSN 240255Z 00000KT 9SM -SN OVC038 00/M02 A3022 590 85 -1000 000/00 RMK AO2 P0000
14837KMSN MSN20060323210010703/23/06 21:00:31  5-MIN KMSN 240300Z 00000KT 9SM -SN OVC040 00/M02 A3022 590 85 -1000 000/00 RMK AO2 P0000
14837KMSN MSN20060323210510703/23/06 21:05:31  5-MIN KMSN 240305Z 00000KT 9SM -SN OVC042 00/M03 A3022 590 81 -1000 000/00 RMK AO2 P0000
14837KMSN MSN20060323211011403/23/06 21:10:31  5-MIN KMSN 240310Z 32003KT 9SM -SN BKN042 OVC050 00/M03 A3022 590 81 -1000 320/03 RMK AO2 P0000
14837KMSN MSN20060323211512103/23/06 21:15:31  5-MIN KMSN 240315Z 00000KT 9SM -SN BKN042 BKN050 OVC070 00/M03 A3022 590 81 -1000 000/00 RMK AO2 P0000
14837KMSN MSN20060323212012103/23/06 21:20:31  5-MIN KMSN 240320Z 00000KT 9SM -SN SCT042 BKN050 OVC070 00/M03 A3022 590 81 -1000 000/00 RMK AO2 P0000
14837KMSN MSN20060323212512103/23/06 21:25:31  5-MIN KMSN 240325Z 35004KT 9SM -SN SCT045 SCT060 OVC070 00/M03 A3022 590 81 -1000 350/04 RMK AO2 P0000
14837KMSN MSN20060323213011403/23/06 21:30:31  5-MIN KMSN 240330Z 35004KT 9SM -SN SCT047 OVC070 00/M03 A3022 590 81 -1000 350/04 RMK AO2 P0000
14837KMSN MSN20060323213511603/23/06 21:35:31  5-MIN KMSN 240335Z 34004KT 9SM FEW047 OVC070 00/M03 A3022 590 81 -1000 340/04 RMK AO2 SNE31 P0000
14837KMSN MSN20060323214011703/23/06 21:40:31  5-MIN KMSN 240340Z 35004KT 10SM FEW055 OVC070 00/M03 A3022 590 81 -1000 350/04 RMK AO2 SNE31 P0000
14837KMSN MSN20060323214511003/23/06 21:45:31  5-MIN KMSN 240345Z 34004KT 10SM OVC070 00/M03 A3022 590 81 -1000 340/04 RMK AO2 SNE31 P0000
14837KMSN MSN20060323215012703/23/06 21:50:31  5-MIN KMSN 240350Z 34003KT 10SM OVC070 00/M03 A3021 590 81 -1000 340/03 RMK AO2 SNE31 SLP241 P0000 T00001028
14837KMSN MSN20060323215509803/23/06 21:55:31  5-MIN KMSN 240355Z 34004KT 10SM OVC070 00/M03 A3021 590 81 -1000 340/04 RMK AO2
14837KMSN MSN20060323220009803/23/06 22:00:31  5-MIN KMSN 240400Z 34003KT 10SM OVC075 00/M03 A3021 600 81 -1000 340/03 RMK AO2
14837KMSN MSN20060323220510503/23/06 22:05:31  5-MIN KMSN 240405Z 36003KT 10SM FEW050 OVC075 00/M03 A3021 600 81 -1000 360/03 RMK AO2
14837KMSN MSN20060323221010503/23/06 22:10:31  5-MIN KMSN 240410Z 01004KT 10SM FEW050 OVC070 00/M03 A3021 600 81 -1000 010/04 RMK AO2
14837KMSN MSN20060323221509903/23/06 22:15:31  5-MIN KMSN 240415Z 01004KT 10SM OVC070 M01/M03 A3021 600 85 -1100 010/04 RMK AO2
14837KMSN MSN20060323222009903/23/06 22:20:31  5-MIN KMSN 240420Z 01003KT 10SM OVC070 M01/M03 A3021 600 85 -1100 010/03 RMK AO2
14837KMSN MSN20060323222509903/23/06 22:25:31  5-MIN KMSN 240425Z 36004KT 10SM OVC070 M01/M03 A3021 600 85 -1100 360/04 RMK AO2
14837KMSN MSN20060323223009903/23/06 22:30:31  5-MIN KMSN 240430Z 01004KT 10SM OVC070 M01/M03 A3020 600 85 -1100 360/04 RMK AO2
14837KMSN MSN20060323223509903/23/06 22:35:31  5-MIN KMSN 240435Z 36005KT 10SM OVC070 M01/M03 A3020 600 85 -1100 360/05 RMK AO2
14837KMSN MSN20060323224009903/23/06 22:40:31  5-MIN KMSN 240440Z 34005KT 10SM OVC070 M01/M03 A3021 600 85 -1100 340/05 RMK AO2
14837KMSN MSN20060323224509803/23/06 22:45:31  5-MIN KMSN 240445Z 34005KT 10SM OVC070 00/M03 A3020 600 78 -1000 340/05 RMK AO2
14837KMSN MSN20060323225011503/23/06 22:50:31  5-MIN KMSN 240450Z 34004KT 10SM OVC070 00/M03 A3020 600 78 -1000 340/04 RMK AO2 SLP237 T00001033
14837KMSN MSN20060323225509903/23/06 22:55:31  5-MIN KMSN 240455Z 33004KT 10SM OVC070 M01/M03 A3020 600 81 -1100 330/04 RMK AO2
14837KMSN MSN20060323230009903/23/06 23:00:31  5-MIN KMSN 240500Z 34004KT 10SM OVC070 M01/M03 A3020 610 81 -1100 340/04 RMK AO2
14837KMSN MSN20060323230509903/23/06 23:05:31  5-MIN KMSN 240505Z 34004KT 10SM OVC070 M01/M03 A3020 610 81 -1100 330/04 RMK AO2
14837KMSN MSN20060323231009903/23/06 23:10:31  5-MIN KMSN 240510Z 33004KT 10SM OVC070 M01/M03 A3020 610 81 -1100 330/04 RMK AO2
14837KMSN MSN20060323231509903/23/06 23:15:31  5-MIN KMSN 240515Z 34004KT 10SM OVC070 M01/M03 A3020 610 81 -1100 340/04 RMK AO2
14837KMSN MSN20060323232009903/23/06 23:20:31  5-MIN KMSN 240520Z 35005KT 10SM OVC070 M01/M03 A3020 610 81 -1100 350/05 RMK AO2
14837KMSN MSN20060323232509903/23/06 23:25:31  5-MIN KMSN 240525Z 35005KT 10SM OVC070 M01/M03 A3020 610 81 -1100 350/05 RMK AO2
14837KMSN MSN20060323233009903/23/06 23:30:31  5-MIN KMSN 240530Z 35005KT 10SM OVC070 M01/M03 A3020 610 81 -1100 340/05 RMK AO2
14837KMSN MSN20060323233509903/23/06 23:35:31  5-MIN KMSN 240535Z 34005KT 10SM OVC075 M01/M03 A3020 610 81 -1100 340/05 RMK AO2
14837KMSN MSN20060323234010603/23/06 23:40:31  5-MIN KMSN 240540Z 35005KT 10SM BKN075 OVC090 M01/M03 A3019 610 81 -1100 350/05 RMK AO2
14837KMSN MSN20060323234510603/23/06 23:45:31  5-MIN KMSN 240545Z 35004KT 10SM BKN075 OVC090 M01/M04 A3019 610 78 -1100 350/04 RMK AO2
14837KMSN MSN20060323235015703/23/06 23:50:31  5-MIN KMSN 240550Z 35004KT 10SM BKN080 OVC100 M01/M04 A3019 610 78 -1000 350/04 RMK AO2 SLP233 60001 T10061039 10011 21006 400391006 50000
14837KMSN MSN20060323235510603/23/06 23:55:31  5-MIN KMSN 240555Z 34005KT 10SM SCT080 OVC095 M01/M04 A3019 610 78 -1000 340/05 RMK AO2
14837KMSN MSN20060324000010603/24/06 00:00:38  5-MIN KMSN 240600Z 33004KT 10SM BKN080 OVC095 M01/M04 A3019 610 78 -1000 330/04 RMK AO2
14837KMSN MSN20060324000510603/24/06 00:05:31  5-MIN KMSN 240605Z 34004KT 10SM BKN075 OVC095 M01/M04 A3019 610 78 -1000 340/04 RMK AO2
14837KMSN MSN20060324001010603/24/06 00:10:31  5-MIN KMSN 240610Z 33003KT 10SM BKN070 OVC095 M01/M04 A3019 610 78 -1000 330/03 RMK AO2
14837KMSN MSN20060324001510603/24/06 00:15:34  5-MIN KMSN 240615Z 32004KT 10SM BKN070 OVC095 M01/M04 A3019 610 78 -1100 320/04 RMK AO2
14837KMSN MSN20060324002010603/24/06 00:20:31  5-MIN KMSN 240620Z 33004KT 10SM BKN075 OVC095 M01/M04 A3019 610 78 -1000 330/04 RMK AO2
14837KMSN MSN20060324002510603/24/06 00:25:31  5-MIN KMSN 240625Z 33004KT 10SM BKN070 OVC090 M01/M04 A3019 610 78 -1000 330/04 RMK AO2
14837KMSN MSN20060324003010603/24/06 00:30:31  5-MIN KMSN 240630Z 32004KT 10SM BKN070 OVC090 M01/M04 A3019 620 81 -1100 320/04 RMK AO2
14837KMSN MSN20060324003511303/24/06 00:35:31  5-MIN KMSN 240635Z 32004KT 10SM FEW040 BKN070 OVC095 M01/M04 A3019 620 78 -1000 320/04 RMK AO2
14837KMSN MSN20060324004011303/24/06 00:40:31  5-MIN KMSN 240640Z 32004KT 10SM FEW031 SCT040 OVC070 M01/M04 A3019 620 78 -1000 320/04 RMK AO2
14837KMSN MSN20060324004510603/24/06 00:45:31  5-MIN KMSN 240645Z 32004KT 10SM BKN034 OVC070 M01/M03 A3019 620 81 -1000 320/04 RMK AO2
14837KMSN MSN20060324005012303/24/06 00:50:31  5-MIN KMSN 240650Z 32005KT 10SM BKN034 OVC070 M01/M03 A3019 620 81 -1000 320/05 RMK AO2 SLP232 T10061033
14837KMSN MSN20060324005510603/24/06 00:55:31  5-MIN KMSN 240655Z 33004KT 10SM BKN034 OVC065 M01/M03 A3019 620 81 -1000 330/04 RMK AO2
14837KMSN MSN20060324010009903/24/06 01:00:31  5-MIN KMSN 240700Z 33005KT 10SM OVC034 M01/M03 A3019 620 81 -1000 330/05 RMK AO2
14837KMSN MSN20060324010509903/24/06 01:05:31  5-MIN KMSN 240705Z 34005KT 10SM OVC034 M01/M03 A3019 620 81 -1000 340/05 RMK AO2
14837KMSN MSN20060324011010603/24/06 01:10:31  5-MIN KMSN 240710Z 34005KT 10SM BKN034 OVC042 M01/M03 A3019 620 81 -1000 340/05 RMK AO2
14837KMSN MSN20060324011509903/24/06 01:15:31  5-MIN KMSN 240715Z 34005KT 10SM OVC037 M01/M03 A3019 620 81 -1000 340/05 RMK AO2
14837KMSN MSN20060324012009803/24/06 01:20:31  5-MIN KMSN 240720Z 34004KT 9SM OVC037 M01/M03 A3019 620 81 -1000 340/04 RMK AO2
14837KMSN MSN20060324012509803/24/06 01:25:31  5-MIN KMSN 240725Z 35004KT 9SM OVC037 M01/M03 A3019 620 81 -1000 350/04 RMK AO2
14837KMSN MSN20060324013009803/24/06 01:30:31  5-MIN KMSN 240730Z 34005KT 9SM OVC037 M01/M03 A3019 620 81 -1000 340/05 RMK AO2
14837KMSN MSN20060324013509803/24/06 01:35:31  5-MIN KMSN 240735Z 34004KT 9SM OVC037 M01/M03 A3019 620 81 -1000 340/04 RMK AO2
14837KMSN MSN20060324014010503/24/06 01:40:31  5-MIN KMSN 240740Z 35004KT 8SM FEW026 OVC037 M01/M03 A3019 620 81 -1000 350/04 RMK AO2
14837KMSN MSN20060324014510503/24/06 01:45:31  5-MIN KMSN 240745Z 35004KT 8SM SCT026 OVC037 M01/M03 A3019 620 81 -1000 350/04 RMK AO2
14837KMSN MSN20060324015013803/24/06 01:50:31  5-MIN KMSN 240750Z 36005KT 7SM -SN SCT026 OVC037 M01/M03 A3019 620 81 -1000 360/05 RMK AO2 SNB47 SLP230 P0000 T10061033
14837KMSN MSN20060324015512503/24/06 01:55:31  5-MIN KMSN 240755Z 36004KT 6SM -SN BR FEW021 BKN026 OVC039 M01/M03 A3018 620 85 -1100 350/04 RMK AO2 P0000
14837KMSN MSN20060324020012503/24/06 02:00:31  5-MIN KMSN 240800Z 36004KT 6SM -SN BR FEW016 BKN026 OVC039 M01/M03 A3018 620 88 -1100 360/04 RMK AO2 P0000
14837KMSN MSN20060324020512503/24/06 02:05:31  5-MIN KMSN 240805Z 35004KT 5SM -SN BR FEW012 BKN020 OVC026 M01/M03 A3018 620 88 -1100 350/04 RMK AO2 P0000
14837KMSN MSN20060324021012503/24/06 02:10:31  5-MIN KMSN 240810Z 36003KT 4SM -SN BR FEW012 BKN020 OVC034 M01/M03 A3018 620 88 -1100 360/03 RMK AO2 P0000
14837KMSN MSN20060324021512503/24/06 02:15:31  5-MIN KMSN 240815Z 34004KT 4SM -SN BR FEW013 BKN023 OVC034 M01/M03 A3018 620 88 -1100 340/04 RMK AO2 P0000
14837KMSN MSN20060324022012503/24/06 02:20:31  5-MIN KMSN 240820Z 34003KT 4SM -SN BR FEW013 BKN028 OVC034 M01/M03 A3018 620 88 -1100 330/03 RMK AO2 P0000
14837KMSN MSN20060324022512503/24/06 02:25:31  5-MIN KMSN 240825Z 34003KT 4SM -SN BR FEW013 BKN030 OVC045 M01/M03 A3018 630 88 -1100 330/03 RMK AO2 P0000
14837KMSN MSN20060324023012503/24/06 02:30:31  5-MIN KMSN 240830Z 34003KT 3SM -SN BR FEW013 BKN030 OVC045 M01/M03 A3018 630 88 -1100 340/03 RMK AO2 P0000
14837KMSN MSN20060324023512503/24/06 02:35:31  5-MIN KMSN 240835Z 33003KT 4SM -SN BR FEW026 BKN032 OVC045 M01/M03 A3018 630 88 -1100 330/03 RMK AO2 P0000
14837KMSN MSN20060324024012503/24/06 02:40:31  5-MIN KMSN 240840Z 33003KT 4SM -SN BR FEW026 BKN034 OVC055 M01/M03 A3018 630 88 -1100 330/03 RMK AO2 P0000
14837KMSN MSN20060324024512503/24/06 02:45:31  5-MIN KMSN 240845Z 33004KT 5SM -SN BR BKN034 BKN043 OVC055 M01/M03 A3018 620 88 -1100 330/04 RMK AO2 P0000
14837KMSN MSN20060324025015403/24/06 02:50:31  5-MIN KMSN 240850Z 32004KT 5SM -SN BR BKN030 BKN041 OVC055 M01/M03 A3018 620 88 -1100 320/04 RMK AO2 SLP230 P0000 60000 T10111028 58010
14837KMSN MSN20060324025511803/24/06 02:55:31  5-MIN KMSN 240855Z 32004KT 5SM -SN BR BKN028 OVC041 M01/M03 A3018 620 88 -1100 320/04 RMK AO2 P0000
14837KMSN MSN20060324030011803/24/06 03:00:31  5-MIN KMSN 240900Z 32003KT 4SM -SN BR BKN026 OVC041 M01/M03 A3018 620 88 -1100 320/03 RMK AO2 P0000
14837KMSN MSN20060324030512503/24/06 03:05:31  5-MIN KMSN 240905Z 32004KT 4SM -SN BR BKN026 BKN039 OVC055 M01/M03 A3018 620 88 -1100 320/04 RMK AO2 P0000
14837KMSN MSN20060324031011803/24/06 03:10:31  5-MIN KMSN 240910Z 32003KT 4SM -SN BR BKN024 OVC055 M01/M03 A3018 620 88 -1100 320/03 RMK AO2 P0000
14837KMSN MSN20060324031511803/24/06 03:15:31  5-MIN KMSN 240915Z 32004KT 4SM -SN BR BKN024 OVC060 M01/M03 A3018 620 88 -1100 320/04 RMK AO2 P0000
14837KMSN MSN20060324032011803/24/06 03:20:31  5-MIN KMSN 240920Z 33003KT 5SM -SN BR BKN024 OVC060 M01/M03 A3018 630 88 -1100 330/03 RMK AO2 P0000
14837KMSN MSN20060324032511803/24/06 03:25:31  5-MIN KMSN 240925Z 33003KT 5SM -SN BR BKN024 OVC060 M01/M03 A3018 630 88 -1100 320/03 RMK AO2 P0000
14837KMSN MSN20060324033011803/24/06 03:30:31  5-MIN KMSN 240930Z 33003KT 5SM -SN BR BKN024 OVC060 M01/M03 A3018 630 88 -1100 330/03 RMK AO2 P0000
14837KMSN MSN20060324033512003/24/06 03:35:31  5-MIN KMSN 240935Z 33004KT 6SM BR BKN024 OVC060 M01/M03 A3018 630 88 -1100 330/04 RMK AO2 SNE35 P0000
14837KMSN MSN20060324034011503/24/06 03:40:31  5-MIN KMSN 240940Z 33003KT 7SM -SN SCT024 OVC060 M01/M03 A3018 630 88 -1100 330/03 RMK AO2 P0000
14837KMSN MSN20060324034511503/24/06 03:45:31  5-MIN KMSN 240945Z 32003KT 7SM -SN SCT024 OVC060 M01/M03 A3018 630 88 -1100 320/03 RMK AO2 P0000
14837KMSN MSN20060324035012503/24/06 03:50:31  5-MIN KMSN 240950Z 31004KT 7SM -SN OVC065 M01/M03 A3018 630 88 -1100 310/04 RMK AO2 SLP229 P0000 T10111028
14837KMSN MSN20060324035510803/24/06 03:55:31  5-MIN KMSN 240955Z 32004KT 8SM -SN OVC065 M01/M03 A3018 630 88 -1100 320/04 RMK AO2 P0000
14837KMSN MSN20060324040011503/24/06 04:00:31  5-MIN KMSN 241000Z 33003KT 8SM -SN FEW046 OVC070 M01/M03 A3018 630 88 -1100 330/03 RMK AO2 P0000
14837KMSN MSN20060324040511503/24/06 04:05:31  5-MIN KMSN 241005Z 32003KT 8SM -SN FEW046 OVC070 M01/M03 A3018 630 88 -1100 320/03 RMK AO2 P0000
14837KMSN MSN20060324041011503/24/06 04:10:31  5-MIN KMSN 241010Z 32004KT 8SM -SN FEW048 OVC070 M01/M03 A3018 620 88 -1100 320/04 RMK AO2 P0000
14837KMSN MSN20060324041511503/24/06 04:15:31  5-MIN KMSN 241015Z 32003KT 7SM -SN SCT046 OVC070 M01/M03 A3018 620 88 -1100 310/03 RMK AO2 P0000
14837KMSN MSN20060324042011503/24/06 04:20:31  5-MIN KMSN 241020Z 32003KT 6SM -SN BKN046 OVC070 M01/M03 A3018 620 88 -1100 320/03 RMK AO2 P0000
14837KMSN MSN20060324042511503/24/06 04:25:31  5-MIN KMSN 241025Z 33004KT 7SM -SN BKN046 OVC070 M01/M03 A3018 620 88 -1100 330/04 RMK AO2 P0000
14837KMSN MSN20060324043011503/24/06 04:30:31  5-MIN KMSN 241030Z 33003KT 8SM -SN BKN046 OVC070 M01/M03 A3018 620 88 -1100 330/03 RMK AO2 P0000
14837KMSN MSN20060324043510803/24/06 04:35:31  5-MIN KMSN 241035Z 33003KT 8SM -SN OVC046 M01/M03 A3018 620 88 -1100 330/03 RMK AO2 P0000
14837KMSN MSN20060324044012203/24/06 04:40:31  5-MIN KMSN 241040Z 00000KT 8SM -SN BKN046 BKN050 OVC070 M01/M03 A3018 620 88 -1100 000/00 RMK AO2 P0000
14837KMSN MSN20060324044512203/24/06 04:45:31  5-MIN KMSN 241045Z 00000KT 7SM -SN BKN046 BKN050 OVC070 M01/M03 A3018 620 88 -1100 000/00 RMK AO2 P0000
14837KMSN MSN20060324045013203/24/06 04:50:31  5-MIN KMSN 241050Z 00000KT 5SM -SN SCT046 OVC070 M01/M03 A3018 620 88 -1100 000/00 RMK AO2 SLP230 P0000 T10111028
14837KMSN MSN20060324045512203/24/06 04:55:31  5-MIN KMSN 241055Z 00000KT 5SM -SN FEW043 SCT050 OVC070 M01/M03 A3018 620 88 -1100 000/00 RMK AO2 P0000
14837KMSN MSN20060324050012203/24/06 05:00:31  5-MIN KMSN 241100Z 00000KT 7SM -SN FEW030 BKN047 OVC070 M01/M03 A3018 620 88 -1100 000/00 RMK AO2 P0000
14837KMSN MSN20060324050512203/24/06 05:05:31  5-MIN KMSN 241105Z 32003KT 6SM -SN SCT030 BKN041 OVC070 M01/M03 A3018 620 88 -1100 320/03 RMK AO2 P0000
14837KMSN MSN20060324051012203/24/06 05:10:31  5-MIN KMSN 241110Z 34003KT 7SM -SN BKN030 BKN049 OVC070 M01/M03 A3018 620 88 -1100 340/03 RMK AO2 P0000
14837KMSN MSN20060324051512203/24/06 05:15:31  5-MIN KMSN 241115Z 34003KT 7SM -SN BKN030 BKN034 OVC070 M01/M03 A3018 620 88 -1100 340/03 RMK AO2 P0000
14837KMSN MSN20060324052012203/24/06 05:20:31  5-MIN KMSN 241120Z 35004KT 7SM -SN SCT030 BKN034 OVC070 M01/M03 A3018 620 88 -1100 350/04 RMK AO2 P0000
14837KMSN MSN20060324052512203/24/06 05:25:31  5-MIN KMSN 241125Z 36003KT 7SM -SN SCT030 BKN036 OVC070 M01/M03 A3018 630 88 -1100 360/03 RMK AO2 P0000
14837KMSN MSN20060324053012203/24/06 05:30:31  5-MIN KMSN 241130Z 36003KT 7SM -SN SCT030 BKN048 OVC070 M01/M03 A3018 630 88 -1100 360/03 RMK AO2 P0000
14837KMSN MSN20060324053512203/24/06 05:35:31  5-MIN KMSN 241135Z 35003KT 6SM -SN FEW030 BKN048 OVC070 M01/M03 A3018 630 88 -1100 350/03 RMK AO2 P0000
14837KMSN MSN20060324054012203/24/06 05:40:31  5-MIN KMSN 241140Z 34003KT 7SM -SN FEW035 BKN048 OVC070 M01/M03 A3018 630 88 -1100 340/03 RMK AO2 P0000
14837KMSN MSN20060324054511503/24/06 05:45:31  5-MIN KMSN 241145Z 35003KT 7SM -SN SCT048 OVC070 M01/M03 A3018 620 88 -1100 340/03 RMK AO2 P0000
14837KMSN MSN20060324055016203/24/06 05:50:31  5-MIN KMSN 241150Z 00000KT 7SM -SN SCT048 OVC070 M01/M03 A3018 630 88 -1100 000/00 RMK AO2 SLP230 P0000 60000 70006 T10111028 11006 21011 58003
14837KMSN MSN20060324055511503/24/06 05:55:31  5-MIN KMSN 241155Z 00000KT 7SM -SN FEW048 OVC070 M01/M03 A3018 620 88 -1100 000/00 RMK AO2 P0000
14837KMSN MSN20060324060012203/24/06 06:00:31  5-MIN KMSN 241200Z 00000KT 7SM -SN FEW031 SCT048 OVC070 M01/M03 A3018 630 88 -1100 000/00 RMK AO2 P0000
14837KMSN MSN20060324060512203/24/06 06:05:31  5-MIN KMSN 241205Z 00000KT 7SM -SN SCT029 BKN048 OVC070 M01/M03 A3018 620 88 -1100 000/00 RMK AO2 P0000
14837KMSN MSN20060324061012003/24/06 06:10:31  5-MIN KMSN 241210Z 00000KT 6SM BR BKN029 OVC070 M01/M03 A3018 620 88 -1100 000/00 RMK AO2 SNE08 P0000
14837KMSN MSN20060324061512003/24/06 06:15:31  5-MIN KMSN 241215Z 00000KT 6SM BR BKN029 OVC070 M01/M03 A3018 620 88 -1100 000/00 RMK AO2 SNE08 P0000
14837KMSN MSN20060324062011703/24/06 06:20:31  5-MIN KMSN 241220Z 00000KT 7SM BKN029 OVC075 M01/M03 A3018 620 88 -1100 000/00 RMK AO2 SNE08 P0000
14837KMSN MSN20060324062511003/24/06 06:25:31  5-MIN KMSN 241225Z 32003KT 7SM OVC029 M01/M03 A3018 620 88 -1100 320/03 RMK AO2 SNE08 P0000
14837KMSN MSN20060324063011003/24/06 06:30:31  5-MIN KMSN 241230Z 31003KT 7SM OVC029 M01/M03 A3018 620 88 -1100 310/03 RMK AO2 SNE08 P0000
14837KMSN MSN20060324063511703/24/06 06:35:31  5-MIN KMSN 241235Z 32003KT 7SM BKN029 OVC080 M01/M03 A3019 620 85 -1100 320/03 RMK AO2 SNE08 P0000
14837KMSN MSN20060324064011703/24/06 06:40:31  5-MIN KMSN 241240Z 32003KT 8SM SCT029 OVC080 M01/M03 A3019 620 85 -1100 320/03 RMK AO2 SNE08 P0000
14837KMSN MSN20060324064512403/24/06 06:45:31  5-MIN KMSN 241245Z 00000KT 8SM SCT029 SCT048 OVC080 M01/M03 A3018 620 81 -1000 000/00 RMK AO2 SNE08 P0000
14837KMSN MSN20060324065014803/24/06 06:50:31  5-MIN KMSN 241250Z 32003KT 8SM -SN FEW031 SCT048 OVC080 M01/M03 A3019 620 85 -1000 320/03 RMK AO2 SNE08B47 SLP232 P0000 T10061028
14837KMSN MSN20060324065511503/24/06 06:55:31  5-MIN KMSN 241255Z 32004KT 7SM -SN FEW031 OVC080 M01/M03 A3018 620 81 -1000 320/04 RMK AO2 P0000
14837KMSN MSN20060324070010803/24/06 07:00:31  5-MIN KMSN 241300Z 32003KT 7SM -SN OVC080 M01/M03 A3018 620 81 -1000 320/03 RMK AO2 P0000
14837KMSN MSN20060324070510803/24/06 07:05:31  5-MIN KMSN 241305Z 32004KT 7SM -SN OVC080 M01/M03 A3018 620 85 -1000 320/04 RMK AO2 P0000
14837KMSN MSN20060324071010803/24/06 07:10:31  5-MIN KMSN 241310Z 33003KT 7SM -SN OVC080 M01/M03 A3018 620 85 -1000 330/03 RMK AO2 P0000
14837KMSN MSN20060324071510803/24/06 07:15:31  5-MIN KMSN 241315Z 33003KT 8SM -SN OVC080 M01/M03 A3018 620 85 -1000 320/03 RMK AO2 P0000
14837KMSN MSN20060324072011003/24/06 07:20:31  5-MIN KMSN 241320Z 32004KT 8SM OVC080 M01/M03 A3018 620 85 -1000 320/04 RMK AO2 SNE18 P0000
14837KMSN MSN20060324072511003/24/06 07:25:31  5-MIN KMSN 241325Z 32004KT 9SM OVC075 M01/M03 A3018 620 81 -1000 320/04 RMK AO2 SNE18 P0000
14837KMSN MSN20060324073011003/24/06 07:30:31  5-MIN KMSN 241330Z 33005KT 9SM OVC075 M01/M03 A3018 620 81 -1000 330/05 RMK AO2 SNE18 P0000
14837KMSN MSN20060324073512303/24/06 07:35:31  5-MIN KMSN 241335Z 33004KT 9SM FEW039 BKN070 OVC080 00/M03 A3018 620 81 -1000 330/04 RMK AO2 SNE18 P0000
14837KMSN MSN20060324074012303/24/06 07:40:31  5-MIN KMSN 241340Z 33004KT 9SM SCT039 BKN050 OVC080 00/M03 A3018 620 81 -1000 330/04 RMK AO2 SNE18 P0000
14837KMSN MSN20060324074512403/24/06 07:45:31  5-MIN KMSN 241345Z 34006KT 10SM SCT039 BKN050 OVC080 00/M03 A3018 620 78 -1000 330/06 RMK AO2 SNE18 P0000
14837KMSN MSN20060324075014103/24/06 07:50:31  5-MIN KMSN 241350Z 35005KT 10SM SCT039 BKN048 OVC065 00/M03 A3018 620 78 -1000 350/05 RMK AO2 SNE18 SLP230 P0000 T00001033
14837KMSN MSN20060324075511203/24/06 07:55:31  5-MIN KMSN 241355Z 35006KT 10SM SCT041 BKN048 OVC080 00/M03 A3018 630 81 -1000 340/06 RMK AO2
14837KMSN MSN20060324080010503/24/06 08:00:31  5-MIN KMSN 241400Z 35005KT 10SM BKN041 OVC048 00/M03 A3018 630 78 -1000 350/05 RMK AO2
14837KMSN MSN20060324080509803/24/06 08:05:31  5-MIN KMSN 241405Z 34006KT 10SM OVC046 00/M03 A3018 630 81 -1000 340/06 RMK AO2
14837KMSN MSN20060324081009803/24/06 08:10:31  5-MIN KMSN 241410Z 34005KT 10SM OVC046 00/M03 A3018 630 78 -1000 340/05 RMK AO2
14837KMSN MSN20060324081510503/24/06 08:15:31  5-MIN KMSN 241415Z 34007KT 10SM BKN046 OVC055 00/M03 A3018 630 78 -1000 340/07 RMK AO2
14837KMSN MSN20060324082011203/24/06 08:20:31  5-MIN KMSN 241420Z 35006KT 10SM BKN046 BKN055 OVC080 00/M03 A3018 630 78 -1000 350/06 RMK AO2
14837KMSN MSN20060324082511103/24/06 08:25:31  5-MIN KMSN 241425Z 34007KT 10SM SCT042 BKN050 OVC080 01/M03 A3018 630 75 -900 340/07 RMK AO2
14837KMSN MSN20060324083011103/24/06 08:30:31  5-MIN KMSN 241430Z 34006KT 10SM SCT042 BKN050 OVC080 01/M03 A3018 630 75 -900 340/06 RMK AO2
14837KMSN MSN20060324083511103/24/06 08:35:31  5-MIN KMSN 241435Z 34005KT 10SM SCT042 BKN050 OVC080 01/M03 A3018 630 78 -900 340/05 RMK AO2
14837KMSN MSN20060324084011103/24/06 08:40:31  5-MIN KMSN 241440Z 34005KT 10SM SCT042 BKN055 OVC080 01/M03 A3018 630 78 -900 340/05 RMK AO2
14837KMSN MSN20060324084510403/24/06 08:45:31  5-MIN KMSN 241445Z 34005KT 10SM BKN042 BKN080 01/M03 A3018 630 78 -900 340/05 RMK AO2
14837KMSN MSN20060324085013303/24/06 08:50:31  5-MIN KMSN 241450Z 34005KT 10SM BKN044 OVC085 01/M03 A3018 630 75 -800 340/05 RMK AO2 SLP229 60000 T00111028 56001
14837KMSN MSN20060324085511103/24/06 08:55:31  5-MIN KMSN 241455Z 35005KT 10SM BKN044 BKN060 OVC080 01/M03 A3018 630 75 -800 350/05 RMK AO2
14837KMSN MSN20060324090011103/24/06 09:00:31  5-MIN KMSN 241500Z 34005KT 10SM BKN044 BKN060 OVC085 01/M03 A3018 630 75 -800 340/05 RMK AO2
14837KMSN MSN20060324090511103/24/06 09:05:31  5-MIN KMSN 241505Z 36005KT 10SM FEW041 BKN048 OVC085 01/M03 A3018 630 75 -800 360/05 RMK AO2
14837KMSN MSN20060324091011103/24/06 09:10:31  5-MIN KMSN 241510Z 35004KT 10SM FEW041 BKN055 OVC085 02/M03 A3018 630 72 -800 350/04 RMK AO2
14837KMSN MSN20060324091511103/24/06 09:15:31  5-MIN KMSN 241515Z 34007KT 10SM FEW041 BKN055 OVC085 02/M03 A3018 630 72 -800 340/07 RMK AO2
14837KMSN MSN20060324092011103/24/06 09:20:31  5-MIN KMSN 241520Z 35006KT 10SM FEW041 BKN060 OVC085 02/M03 A3018 630 72 -800 350/06 RMK AO2
14837KMSN MSN20060324092510403/24/06 09:25:31  5-MIN KMSN 241525Z 34004KT 10SM BKN055 OVC085 02/M02 A3018 630 72 -700 340/04 RMK AO2
14837KMSN MSN20060324093010403/24/06 09:30:31  5-MIN KMSN 241530Z 36005KT 10SM BKN055 OVC085 02/M02 A3018 630 72 -700 360/05 RMK AO2
14837KMSN MSN20060324093510403/24/06 09:35:31  5-MIN KMSN 241535Z 33005KT 10SM BKN020 BKN085 03/M02 A3018 630 72 -600 330/05 RMK AO2
14837KMSN MSN20060324094010403/24/06 09:40:31  5-MIN KMSN 241540Z VRB06KT 10SM BKN020 BKN085 02/M02 A3018 630 72 -700 VRB/06 RMK AO2
14837KMSN MSN20060324094511103/24/06 09:45:31  5-MIN KMSN 241545Z 35006KT 10SM BKN020 BKN055 OVC085 03/M02 A3018 630 72 -600 350/06 RMK AO2
14837KMSN MSN20060324095012803/24/06 09:50:31  5-MIN KMSN 241550Z VRB06KT 10SM BKN020 BKN055 OVC085 02/M02 A3018 620 72 -700 VRB/06 RMK AO2 SLP229 T00221022
14837KMSN MSN20060324095511103/24/06 09:55:31  5-MIN KMSN 241555Z VRB05KT 10SM BKN020 BKN029 OVC085 02/M03 A3018 620 69 -700 VRB/05 RMK AO2
14837KMSN MSN20060324100011103/24/06 10:00:31  5-MIN KMSN 241600Z 34007KT 10SM FEW020 BKN029 OVC055 02/M03 A3018 620 67 -700 340/07 RMK AO2
14837KMSN MSN20060324100511103/24/06 10:05:31  5-MIN KMSN 241605Z VRB06KT 10SM BKN026 BKN034 OVC055 02/M03 A3018 620 69 -700 VRB/06 RMK AO2
14837KMSN MSN20060324101011103/24/06 10:10:31  5-MIN KMSN 241610Z 35007KT 10SM BKN026 BKN034 OVC055 02/M03 A3018 620 67 -700 350/07 RMK AO2
14837KMSN MSN20060324101511103/24/06 10:15:31  5-MIN KMSN 241615Z 35007KT 10SM FEW026 BKN034 OVC060 02/M03 A3018 620 69 -700 350/07 RMK AO2
14837KMSN MSN20060324102011103/24/06 10:20:31  5-MIN KMSN 241620Z 36005KT 10SM BKN029 BKN038 OVC060 03/M02 A3018 620 69 -600 350/05 RMK AO2
14837KMSN MSN20060324102511103/24/06 10:25:31  5-MIN KMSN 241625Z VRB04KT 10SM SCT026 BKN034 OVC060 03/M03 A3018 630 67 -600 VRB/04 RMK AO2
14837KMSN MSN20060324103011103/24/06 10:30:31  5-MIN KMSN 241630Z 35004KT 10SM FEW026 BKN036 OVC060 03/M03 A3018 630 64 -600 350/04 RMK AO2
14837KMSN MSN20060324103511103/24/06 10:35:31  5-MIN KMSN 241635Z 33005KT 10SM SCT026 BKN036 BKN060 03/M03 A3018 630 64 -600 330/05 RMK AO2
14837KMSN MSN20060324104011103/24/06 10:40:31  5-MIN KMSN 241640Z VRB05KT 10SM SCT026 BKN036 BKN060 03/M03 A3018 630 64 -600 VRB/05 RMK AO2
14837KMSN MSN20060324104511103/24/06 10:45:31  5-MIN KMSN 241645Z 35008KT 10SM FEW026 BKN035 OVC060 03/M04 A3018 630 61 -600 350/08 RMK AO2
14837KMSN MSN20060324105012803/24/06 10:50:31  5-MIN KMSN 241650Z VRB06KT 10SM FEW026 BKN036 OVC060 03/M04 A3018 630 61 -600 VRB/06 RMK AO2 SLP227 T00281039
14837KMSN MSN20060324205509703/24/06 20:55:31  5-MIN KMSN 250255Z 33005KT 10SM FEW045 01/M03 A3017 630 75 -900 330/05 RMK AO2
14837KMSN MSN20060324210010403/24/06 21:00:31  5-MIN KMSN 250300Z 33006KT 10SM FEW029 SCT047 01/M03 A3017 630 75 -900 320/06 RMK AO2
14837KMSN MSN20060324210510403/24/06 21:05:31  5-MIN KMSN 250305Z 32005KT 10SM SCT029 BKN047 01/M03 A3017 630 72 -800 320/05 RMK AO2
14837KMSN MSN20060324211010403/24/06 21:10:31  5-MIN KMSN 250310Z 33005KT 10SM SCT029 BKN110 01/M03 A3017 630 72 -800 330/05 RMK AO2
14837KMSN MSN20060324211510403/24/06 21:15:31  5-MIN KMSN 250315Z 33006KT 10SM FEW029 BKN110 01/M03 A3017 630 75 -800 330/06 RMK AO2
14837KMSN MSN20060324212010403/24/06 21:20:31  5-MIN KMSN 250320Z 32006KT 10SM FEW029 BKN110 01/M03 A3017 630 75 -800 320/06 RMK AO2
14837KMSN MSN20060324212511103/24/06 21:25:31  5-MIN KMSN 250325Z 33007KT 10SM FEW029 SCT060 OVC110 01/M02 A3017 630 78 -800 330/07 RMK AO2
14837KMSN MSN20060324213011103/24/06 21:30:31  5-MIN KMSN 250330Z 33008KT 10SM FEW029 SCT060 OVC110 01/M02 A3017 630 82 -800 330/08 RMK AO2
14837KMSN MSN20060324213510403/24/06 21:35:31  5-MIN KMSN 250335Z 33007KT 10SM BKN060 OVC110 01/M02 A3017 630 82 -800 330/07 RMK AO2
14837KMSN MSN20060324214010403/24/06 21:40:31  5-MIN KMSN 250340Z 33006KT 10SM BKN060 OVC110 01/M01 A3017 630 85 -800 330/06 RMK AO2
14837KMSN MSN20060324214512703/24/06 21:45:31  5-MIN KMSN 250345Z 34007KT 10SM -SN FEW034 BKN060 OVC110 01/M01 A3017 630 85 -800 340/07 RMK AO2 SNB41 P0000
14837KMSN MSN20060324215014303/24/06 21:50:31  5-MIN KMSN 250350Z 33007KT 9SM -SN FEW049 BKN060 BKN110 01/M01 A3017 630 85 -800 330/07 RMK AO2 SNB41 SLP226 P0000 T00111011
14837KMSN MSN20060324215512003/24/06 21:55:31  5-MIN KMSN 250355Z 34007KT 9SM -SN SCT049 BKN060 OVC100 01/M01 A3017 630 85 -800 340/07 RMK AO2 P0000
14837KMSN MSN20060324220012003/24/06 22:00:31  5-MIN KMSN 250400Z 34007KT 9SM -SN BKN047 BKN060 OVC100 01/M01 A3017 630 85 -800 340/07 RMK AO2 P0000
14837KMSN MSN20060324220512003/24/06 22:05:31  5-MIN KMSN 250405Z 35008KT 9SM -SN FEW032 BKN045 OVC100 01/M01 A3017 630 85 -800 340/08 RMK AO2 P0000
14837KMSN MSN20060324221012003/24/06 22:10:31  5-MIN KMSN 250410Z 34007KT 9SM -SN FEW030 BKN043 OVC065 01/M01 A3017 630 85 -800 340/07 RMK AO2 P0000
14837KMSN MSN20060324221512003/24/06 22:15:31  5-MIN KMSN 250415Z 34007KT 8SM -SN FEW031 BKN045 OVC070 01/M01 A3017 630 85 -800 340/07 RMK AO2 P0000
14837KMSN MSN20060324222011303/24/06 22:20:31  5-MIN KMSN 250420Z 34007KT 8SM -SN FEW036 OVC043 01/M01 A3017 630 89 -800 340/07 RMK AO2 P0000
14837KMSN MSN20060324222511303/24/06 22:25:31  5-MIN KMSN 250425Z 33007KT 8SM -SN FEW036 OVC043 01/M01 A3017 630 89 -800 330/07 RMK AO2 P0000
14837KMSN MSN20060324223011303/24/06 22:30:31  5-MIN KMSN 250430Z 33006KT 9SM -SN BKN045 OVC075 01/M01 A3017 630 89 -800 330/06 RMK AO2 P0000
14837KMSN MSN20060324223511303/24/06 22:35:31  5-MIN KMSN 250435Z 33006KT 9SM -SN BKN045 OVC075 01/M01 A3017 630 89 -800 330/06 RMK AO2 P0000
14837KMSN MSN20060324224011303/24/06 22:40:31  5-MIN KMSN 250440Z 33005KT 9SM -SN BKN045 OVC075 01/M01 A3017 630 89 -800 320/05 RMK AO2 P0000
14837KMSN MSN20060324224510603/24/06 22:45:31  5-MIN KMSN 250445Z 32007KT 9SM -SN OVC043 01/M01 A3017 630 89 -800 320/07 RMK AO2 P0000
14837KMSN MSN20060324225012303/24/06 22:50:31  5-MIN KMSN 250450Z 31007KT 8SM -SN OVC045 01/M01 A3017 630 89 -800 310/07 RMK AO2 SLP226 P0000 T00111006
14837KMSN MSN20060324225510603/24/06 22:55:31  5-MIN KMSN 250455Z 32006KT 8SM -SN OVC045 01/M01 A3017 630 89 -800 320/06 RMK AO2 P0000
14837KMSN MSN20060324230010603/24/06 23:00:31  5-MIN KMSN 250500Z 32007KT 8SM -SN OVC046 01/M01 A3017 630 89 -800 320/07 RMK AO2 P0000
14837KMSN MSN20060324230512003/24/06 23:05:31  5-MIN KMSN 250505Z 32007KT 9SM -SN FEW041 BKN049 OVC060 01/M01 A3017 630 89 -800 320/07 RMK AO2 P0000
14837KMSN MSN20060324231012003/24/06 23:10:31  5-MIN KMSN 250510Z 32005KT 9SM -SN FEW041 BKN049 OVC060 01/M01 A3017 630 89 -800 320/05 RMK AO2 P0000
14837KMSN MSN20060324231511303/24/06 23:15:31  5-MIN KMSN 250515Z 32006KT 9SM -SN BKN049 OVC065 01/M01 A3017 630 89 -800 320/06 RMK AO2 P0000
14837KMSN MSN20060324232011303/24/06 23:20:31  5-MIN KMSN 250520Z 32007KT 9SM -SN FEW049 OVC060 01/M01 A3017 640 89 -800 320/07 RMK AO2 P0000
14837KMSN MSN20060324232510603/24/06 23:25:31  5-MIN KMSN 250525Z 32008KT 8SM -SN OVC060 01/M01 A3017 640 89 -800 310/08 RMK AO2 P0000
14837KMSN MSN20060324233010603/24/06 23:30:31  5-MIN KMSN 250530Z 32008KT 7SM -SN OVC060 01/M01 A3017 640 89 -800 320/08 RMK AO2 P0000
14837KMSN MSN20060324233511303/24/06 23:35:31  5-MIN KMSN 250535Z 32007KT 7SM -SN FEW044 OVC060 01/M01 A3017 640 92 -900 320/07 RMK AO2 P0000
14837KMSN MSN20060324234012003/24/06 23:40:31  5-MIN KMSN 250540Z 32007KT 7SM -SN FEW044 BKN050 OVC065 01/M01 A3017 640 92 -900 320/07 RMK AO2 P0000
14837KMSN MSN20060324234512003/24/06 23:45:31  5-MIN KMSN 250545Z 32009KT 8SM -SN FEW037 SCT045 OVC060 01/M01 A3017 640 85 -800 320/09 RMK AO2 P0000
14837KMSN MSN20060324235017103/24/06 23:50:31  5-MIN KMSN 250550Z 33007KT 8SM -SN FEW037 BKN045 OVC060 01/M01 A3017 640 89 -900 320/07 RMK AO2 SLP224 P0000 60000 T00061011 10028 20006 400501011 53002
14837KMSN MSN20060324235512003/24/06 23:55:31  5-MIN KMSN 250555Z 33007KT 9SM -SN FEW038 BKN050 OVC065 01/M01 A3017 640 85 -800 330/07 RMK AO2 P0000
14837KMSN MSN20060325000012003/25/06 00:00:38  5-MIN KMSN 250600Z 33008KT 8SM -SN FEW038 BKN050 OVC070 01/M01 A3017 640 85 -800 330/08 RMK AO2 P0000
14837KMSN MSN20060325000512003/25/06 00:05:31  5-MIN KMSN 250605Z 34008KT 7SM -SN FEW042 SCT049 OVC065 01/M01 A3017 640 85 -800 340/08 RMK AO2 P0000
14837KMSN MSN20060325001012303/25/06 00:10:31  5-MIN KMSN 250610Z 34007KT 6SM -SN BR FEW038 SCT049 OVC065 01/M01 A3017 630 85 -800 330/07 RMK AO2 P0000
14837KMSN MSN20060325001511603/25/06 00:15:34  5-MIN KMSN 250615Z 33007KT 5SM -SN BR BKN049 OVC065 01/M01 A3017 630 92 -900 330/07 RMK AO2 P0000
14837KMSN MSN20060325002011603/25/06 00:20:31  5-MIN KMSN 250620Z 34007KT 5SM -SN BR BKN047 OVC065 01/M01 A3017 630 92 -900 330/07 RMK AO2 P0000
14837KMSN MSN20060325002512303/25/06 00:25:31  5-MIN KMSN 250625Z 33009KT 5SM -SN BR FEW038 BKN047 OVC065 01/M01 A3017 640 92 -900 330/09 RMK AO2 P0000
14837KMSN MSN20060325003012303/25/06 00:30:31  5-MIN KMSN 250630Z 33007KT 4SM -SN BR FEW038 BKN047 OVC060 01/M01 A3017 630 92 -900 330/07 RMK AO2 P0000
14837KMSN MSN20060325003510903/25/06 00:35:31  5-MIN KMSN 250635Z 33007KT 4SM -SN BR OVC047 01/M01 A3017 630 92 -900 330/07 RMK AO2 P0000
14837KMSN MSN20060325004010903/25/06 00:40:31  5-MIN KMSN 250640Z 33007KT 5SM -SN BR OVC045 01/M01 A3017 630 92 -900 330/07 RMK AO2 P0000
14837KMSN MSN20060325004510903/25/06 00:45:31  5-MIN KMSN 250645Z 33008KT 5SM -SN BR OVC045 01/M01 A3017 630 92 -900 330/08 RMK AO2 P0000
14837KMSN MSN20060325005013303/25/06 00:50:31  5-MIN KMSN 250650Z 34007KT 4SM -SN BR FEW040 OVC048 01/M01 A3017 630 92 -900 340/07 RMK AO2 SLP225 P0001 T00061006
14837KMSN MSN20060325005512303/25/06 00:55:31  5-MIN KMSN 250655Z 33008KT 4SM -SN BR FEW040 BKN048 OVC060 01/M01 A3017 630 92 -900 330/08 RMK AO2 P0000
14837KMSN MSN20060325010010903/25/06 01:00:31  5-MIN KMSN 250700Z 33007KT 5SM -SN BR OVC050 01/M01 A3017 630 92 -900 330/07 RMK AO2 P0000
14837KMSN MSN20060325010511603/25/06 01:05:31  5-MIN KMSN 250705Z 33006KT 5SM -SN BR FEW041 OVC050 01/M01 A3017 630 92 -900 330/06 RMK AO2 P0000
14837KMSN MSN20060325011010903/25/06 01:10:31  5-MIN KMSN 250710Z 33006KT 5SM -SN BR OVC050 01/M01 A3017 640 92 -900 330/06 RMK AO2 P0000
14837KMSN MSN20060325011510903/25/06 01:15:31  5-MIN KMSN 250715Z 33006KT 6SM -SN BR OVC050 01/M01 A3017 640 92 -900 330/06 RMK AO2 P0000
14837KMSN MSN20060325012010603/25/06 01:20:31  5-MIN KMSN 250720Z 33005KT 7SM -SN OVC048 01/M01 A3017 640 92 -900 330/05 RMK AO2 P0000
14837KMSN MSN20060325012510603/25/06 01:25:31  5-MIN KMSN 250725Z 32005KT 7SM -SN OVC048 01/M01 A3017 640 92 -900 320/05 RMK AO2 P0000
14837KMSN MSN20060325013010903/25/06 01:30:31  5-MIN KMSN 250730Z 32005KT 6SM -SN BR OVC048 01/M01 A3017 640 92 -900 320/05 RMK AO2 P0000
14837KMSN MSN20060325013511303/25/06 01:35:31  5-MIN KMSN 250735Z 33006KT 7SM -SN BKN048 OVC075 01/M01 A3017 640 92 -900 320/06 RMK AO2 P0000
14837KMSN MSN20060325014012003/25/06 01:40:31  5-MIN KMSN 250740Z 32006KT 7SM -SN BKN048 BKN060 OVC075 01/M01 A3017 640 92 -900 320/06 RMK AO2 P0000
14837KMSN MSN20060325014512003/25/06 01:45:31  5-MIN KMSN 250745Z 33006KT 7SM -SN BKN050 BKN060 OVC075 01/M01 A3017 640 89 -900 330/06 RMK AO2 P0000
14837KMSN MSN20060325015013303/25/06 01:50:31  5-MIN KMSN 250750Z 33006KT 6SM -SN BR BKN050 OVC075 01/M01 A3017 640 89 -900 330/06 RMK AO2 SLP225 P0001 T00061011
14837KMSN MSN20060325015512303/25/06 01:55:31  5-MIN KMSN 250755Z 33007KT 6SM -SN BR FEW043 BKN050 OVC100 01/M01 A3017 630 89 -900 330/07 RMK AO2 P0000
14837KMSN MSN20060325020012003/25/06 02:00:31  5-MIN KMSN 250800Z 34007KT 7SM -SN FEW016 BKN055 OVC100 01/M01 A3017 630 89 -900 340/07 RMK AO2 P0000
14837KMSN MSN20060325020512303/25/06 02:05:31  5-MIN KMSN 250805Z 33006KT 4SM -SN BR SCT014 BKN050 OVC100 01/M01 A3017 630 89 -900 320/06 RMK AO2 P0000
14837KMSN MSN20060325021012303/25/06 02:10:31  5-MIN KMSN 250810Z 33005KT 3SM -SN BR BKN014 BKN042 OVC100 01/M01 A3017 630 92 -900 320/05 RMK AO2 P0000
14837KMSN MSN20060325021512303/25/06 02:15:31  5-MIN KMSN 250815Z 32006KT 5SM -SN BR BKN012 BKN018 OVC050 01/M01 A3017 630 92 -900 320/06 RMK AO2 P0000
14837KMSN MSN20060325022012303/25/06 02:20:31  5-MIN KMSN 250820Z 32006KT 5SM -SN BR BKN012 BKN018 OVC030 01/M01 A3017 640 92 -900 320/06 RMK AO2 P0000
14837KMSN MSN20060325022512303/25/06 02:25:31  5-MIN KMSN 250825Z 32004KT 5SM -SN BR BKN012 BKN018 OVC028 01/M01 A3017 640 92 -900 320/04 RMK AO2 P0000
14837KMSN MSN20060325023012303/25/06 02:30:31  5-MIN KMSN 250830Z 33005KT 4SM -SN BR SCT012 BKN018 OVC028 01/M01 A3017 640 92 -900 330/05 RMK AO2 P0000
14837KMSN MSN20060325023512303/25/06 02:35:31  5-MIN KMSN 250835Z 32005KT 4SM -SN BR SCT012 SCT018 OVC030 01/M01 A3017 640 92 -900 320/05 RMK AO2 P0000
14837KMSN MSN20060325024012303/25/06 02:40:31  5-MIN KMSN 250840Z 32005KT 3SM -SN BR FEW012 BKN028 OVC033 01/M01 A3017 640 92 -900 320/05 RMK AO2 P0000
14837KMSN MSN20060325024512303/25/06 02:45:31  5-MIN KMSN 250845Z 33005KT 3SM -SN BR FEW012 BKN026 OVC031 01/M01 A3017 640 92 -900 320/05 RMK AO2 P0000
14837KMSN MSN20060325025014503/25/06 02:50:31  5-MIN KMSN 250850Z 34005KT 3SM -SN BR BKN024 OVC029 01/M01 A3017 640 92 -900 330/05 RMK AO2 SLP224 P0000 60002 T00061006 58002
14837KMSN MSN20060325025511303/25/06 02:55:31  5-MIN KMSN 250855Z 33006KT 8SM -SN BKN024 OVC031 01/M01 A3017 640 89 -900 330/06 RMK AO2 P0000
14837KMSN MSN20060325030011303/25/06 03:00:31  5-MIN KMSN 250900Z 33006KT 9SM -SN BKN022 OVC026 01/M01 A3017 640 89 -900 330/06 RMK AO2 P0000
14837KMSN MSN20060325030511303/25/06 03:05:31  5-MIN KMSN 250905Z 32005KT 9SM -SN BKN022 OVC026 01/M01 A3017 630 89 -900 320/05 RMK AO2 P0000
14837KMSN MSN20060325031011303/25/06 03:10:31  5-MIN KMSN 250910Z 33006KT 8SM -SN FEW015 OVC022 01/M01 A3017 630 89 -900 330/06 RMK AO2 P0000
14837KMSN MSN20060325031511603/25/06 03:15:31  5-MIN KMSN 250915Z 33005KT 6SM -SN BR BKN015 OVC022 01/M01 A3017 630 89 -900 330/05 RMK AO2 P0000
14837KMSN MSN20060325032011603/25/06 03:20:31  5-MIN KMSN 250920Z 33005KT 5SM -SN BR SCT015 OVC022 01/M01 A3017 630 89 -900 330/05 RMK AO2 P0000
14837KMSN MSN20060325032512303/25/06 03:25:31  5-MIN KMSN 250925Z 33005KT 4SM -SN BR SCT015 BKN022 OVC027 01/M01 A3017 630 89 -900 330/05 RMK AO2 P0000
14837KMSN MSN20060325033011603/25/06 03:30:31  5-MIN KMSN 250930Z 34004KT 3SM -SN BR BKN015 OVC025 01/M01 A3017 630 89 -900 340/04 RMK AO2 P0000
14837KMSN MSN20060325033512303/25/06 03:35:31  5-MIN KMSN 250935Z 33004KT 3SM -SN BR FEW010 BKN015 OVC026 01/M01 A3017 630 89 -900 330/04 RMK AO2 P0000
14837KMSN MSN20060325034011603/25/06 03:40:31  5-MIN KMSN 250940Z 34005KT 4SM -SN BR BKN015 OVC024 01/M01 A3018 630 89 -900 340/05 RMK AO2 P0000
14837KMSN MSN20060325034511603/25/06 03:45:31  5-MIN KMSN 250945Z 33007KT 4SM -SN BR BKN012 OVC024 01/M01 A3018 630 89 -900 330/07 RMK AO2 P0000
14837KMSN MSN20060325035014003/25/06 03:50:31  5-MIN KMSN 250950Z 34007KT 3SM -SN BR SCT012 BKN016 OVC022 01/M01 A3018 630 89 -900 340/07 RMK AO2 SLP228 P0001 T00061011
14837KMSN MSN20060325035512303/25/06 03:55:31  5-MIN KMSN 250955Z 34006KT 3SM -SN BR FEW006 BKN016 OVC022 01/M01 A3018 630 89 -900 340/06 RMK AO2 P0000
14837KMSN MSN20060325040012403/25/06 04:00:31  5-MIN KMSN 251000Z 34006KT 3SM -SN BR FEW006 BKN011 OVC022 00/M01 A3018 630 96 -1000 340/06 RMK AO2 P0000
14837KMSN MSN20060325040512403/25/06 04:05:31  5-MIN KMSN 251005Z 35006KT 3SM -SN BR FEW006 BKN014 OVC022 00/M01 A3018 620 96 -1000 350/06 RMK AO2 P0001
14837KMSN MSN20060325041012403/25/06 04:10:31  5-MIN KMSN 251010Z 35006KT 3SM -SN BR FEW010 BKN016 OVC022 00/M01 A3018 620 96 -1000 350/06 RMK AO2 P0001
14837KMSN MSN20060325041512803/25/06 04:15:31  5-MIN KMSN 251015Z 34006KT 2 1/2SM -SN BR FEW008 BKN016 OVC022 00/M01 A3018 620 96 -1000 340/06 RMK AO2 P0001
14837KMSN MSN20060325042012803/25/06 04:20:31  5-MIN KMSN 251020Z 34007KT 2 1/2SM -SN BR FEW005 SCT013 OVC022 00/M01 A3019 620 96 -1000 340/07 RMK AO2 P0001
14837KMSN MSN20060325042512803/25/06 04:25:31  5-MIN KMSN 251025Z 34006KT 2 1/2SM -SN BR FEW007 BKN022 OVC031 00/M01 A3019 620 96 -1000 340/06 RMK AO2 P0001
14837KMSN MSN20060325043012803/25/06 04:30:31  5-MIN KMSN 251030Z 34006KT 2 1/2SM -SN BR FEW007 BKN022 OVC031 00/M01 A3019 620 96 -1000 340/06 RMK AO2 P0001
14837KMSN MSN20060325043512703/25/06 04:35:31  5-MIN KMSN 251035Z 35005KT 2 1/2SM -SN BR FEW007 SCT012 OVC022 01/M01 A3019 610 89 -900 350/05 RMK AO2 P0001
14837KMSN MSN20060325044012703/25/06 04:40:31  5-MIN KMSN 251040Z 34006KT 2 1/2SM -SN BR FEW007 BKN012 OVC022 01/M01 A3019 610 89 -900 340/06 RMK AO2 P0001
14837KMSN MSN20060325044512703/25/06 04:45:31  5-MIN KMSN 251045Z 34006KT 2 1/2SM -SN BR SCT010 BKN015 OVC022 01/M01 A3020 610 89 -900 340/06 RMK AO2 P0001
14837KMSN MSN20060325045012003/25/06 04:50:31  5-MIN KMSN 251050Z 34007KT 7SM -SN BKN010 BKN015 OVC022 01/M01 A3020 610 89 -900 340/07 RMK AO2 P0001
14837KMSN MSN20060325045511303/25/06 04:55:31  5-MIN KMSN 251055Z 34009KT 9SM -SN BKN010 OVC015 01/M01 A3020 610 89 -900 340/09 RMK AO2 P0000
14837KMSN MSN20060325050011303/25/06 05:00:31  5-MIN KMSN 251100Z 34009KT 9SM -SN BKN010 OVC015 01/M01 A3020 610 89 -900 340/09 RMK AO2 P0000
14837KMSN MSN20060325050510603/25/06 05:05:31  5-MIN KMSN 251105Z 35008KT 9SM -SN OVC010 01/M01 A3020 600 89 -900 350/08 RMK AO2 P0000
14837KMSN MSN20060325051010603/25/06 05:10:31  5-MIN KMSN 251110Z 35008KT 9SM -SN OVC010 01/M01 A3020 600 89 -900 350/08 RMK AO2 P0000
14837KMSN MSN20060325051511303/25/06 05:15:31  5-MIN KMSN 251115Z 35009KT 9SM -SN BKN010 OVC042 01/M01 A3021 600 89 -900 340/09 RMK AO2 P0000
14837KMSN MSN20060325052012003/25/06 05:20:31  5-MIN KMSN 251120Z 35007KT 9SM -SN BKN010 BKN022 OVC044 01/M01 A3021 600 89 -900 350/07 RMK AO2 P0000
14837KMSN MSN20060325052512003/25/06 05:25:31  5-MIN KMSN 251125Z 35008KT 9SM -SN BKN010 BKN022 OVC046 01/M01 A3021 600 89 -900 350/08 RMK AO2 P0000
14837KMSN MSN20060325053012003/25/06 05:30:31  5-MIN KMSN 251130Z 35009KT 9SM -SN BKN010 BKN024 OVC045 01/M01 A3021 600 89 -900 350/09 RMK AO2 P0000
14837KMSN MSN20060325053512403/25/06 05:35:31  5-MIN KMSN 251135Z 36009KT 4SM -SN BR BKN010 BKN024 OVC045 00/M01 A3021 600 92 -1000 360/09 RMK AO2 P0000
14837KMSN MSN20060325054012403/25/06 05:40:31  5-MIN KMSN 251140Z 36007KT 4SM -SN BR SCT010 BKN035 OVC047 00/M01 A3021 590 92 -1000 360/07 RMK AO2 P0000
14837KMSN MSN20060325054512403/25/06 05:45:31  5-MIN KMSN 251145Z 35005KT 4SM -SN BR FEW010 BKN037 OVC049 00/M01 A3022 590 92 -1000 350/05 RMK AO2 P0000
14837KMSN MSN20060325055017103/25/06 05:50:31  5-MIN KMSN 251150Z 34005KT 6SM -SN BR FEW010 SCT036 OVC049 00/M01 A3022 590 92 -1000 340/05 RMK AO2 SLP241 P0000 60004 70004 T00001011 10011 20000 50000
14837KMSN MSN20060325055512103/25/06 05:55:31  5-MIN KMSN 251155Z 34006KT 7SM -SN FEW010 SCT036 OVC049 00/M01 A3022 590 92 -1000 340/06 RMK AO2 P0000
14837KMSN MSN20060325060011803/25/06 06:00:31  5-MIN KMSN 251200Z 35006KT 9SM FEW034 OVC049 00/M02 A3022 590 88 -1000 350/06 RMK AO2 SNE1159 P0000
14837KMSN MSN20060325060511903/25/06 06:05:31  5-MIN KMSN 251205Z 34006KT 10SM SCT036 OVC049 00/M02 A3022 590 88 -1000 340/06 RMK AO2 SNE1159 P0000
14837KMSN MSN20060325061011903/25/06 06:10:31  5-MIN KMSN 251210Z 34005KT 10SM FEW034 OVC049 00/M02 A3022 580 88 -1000 340/05 RMK AO2 SNE1159 P0000
14837KMSN MSN20060325061511903/25/06 06:15:31  5-MIN KMSN 251215Z 34006KT 10SM FEW034 OVC049 00/M02 A3023 580 88 -1000 340/06 RMK AO2 SNE1159 P0000
14837KMSN MSN20060325062011903/25/06 06:20:31  5-MIN KMSN 251220Z 34007KT 10SM FEW034 OVC049 00/M02 A3023 580 88 -1000 340/07 RMK AO2 SNE1159 P0000
14837KMSN MSN20060325062511903/25/06 06:25:31  5-MIN KMSN 251225Z 35007KT 10SM FEW034 OVC049 00/M02 A3023 580 88 -1000 350/07 RMK AO2 SNE1159 P0000
14837KMSN MSN20060325063011903/25/06 06:30:31  5-MIN KMSN 251230Z 34006KT 10SM FEW034 OVC049 00/M02 A3023 580 88 -1000 340/06 RMK AO2 SNE1159 P0000
14837KMSN MSN20060325063511903/25/06 06:35:31  5-MIN KMSN 251235Z 34006KT 10SM FEW032 OVC047 01/M02 A3023 580 85 -1000 340/06 RMK AO2 SNE1159 P0000
14837KMSN MSN20060325064011903/25/06 06:40:31  5-MIN KMSN 251240Z 34006KT 10SM FEW032 OVC047 01/M02 A3023 580 85 -1000 330/06 RMK AO2 SNE1159 P0000
14837KMSN MSN20060325064511903/25/06 06:45:31  5-MIN KMSN 251245Z 34006KT 10SM FEW032 OVC045 01/M02 A3023 580 85 -1000 340/06 RMK AO2 SNE1159 P0000
14837KMSN MSN20060325065013603/25/06 06:50:31  5-MIN KMSN 251250Z 34007KT 10SM FEW032 BKN045 01/M02 A3023 570 85 -1000 340/07 RMK AO2 SNE1159 SLP247 P0000 T00061017
14837KMSN MSN20060325065510503/25/06 06:55:31  5-MIN KMSN 251255Z 34007KT 10SM FEW032 OVC045 01/M02 A3024 570 85 -1000 340/07 RMK AO2
14837KMSN MSN20060325070010503/25/06 07:00:31  5-MIN KMSN 251300Z 33006KT 10SM FEW032 OVC045 01/M02 A3024 570 85 -1000 330/06 RMK AO2
14837KMSN MSN20060325070509803/25/06 07:05:31  5-MIN KMSN 251305Z 33006KT 10SM OVC045 01/M02 A3024 570 85 -1000 330/06 RMK AO2
14837KMSN MSN20060325071009803/25/06 07:10:31  5-MIN KMSN 251310Z 32006KT 10SM OVC045 01/M02 A3024 570 85 -1000 320/06 RMK AO2
14837KMSN MSN20060325071509803/25/06 07:15:31  5-MIN KMSN 251315Z 32007KT 10SM OVC045 01/M02 A3024 570 85 -1000 320/07 RMK AO2
14837KMSN MSN20060325072009803/25/06 07:20:31  5-MIN KMSN 251320Z 32006KT 10SM OVC045 01/M02 A3024 570 85 -1000 320/06 RMK AO2
14837KMSN MSN20060325072509703/25/06 07:25:31  5-MIN KMSN 251325Z 33006KT 10SM OVC045 01/M02 A3024 570 78 -900 330/06 RMK AO2
14837KMSN MSN20060325073009703/25/06 07:30:31  5-MIN KMSN 251330Z 33008KT 10SM OVC045 01/M02 A3024 570 78 -900 330/08 RMK AO2
14837KMSN MSN20060325073509703/25/06 07:35:31  5-MIN KMSN 251335Z 33007KT 10SM OVC045 01/M02 A3024 570 78 -900 330/07 RMK AO2
14837KMSN MSN20060325074009703/25/06 07:40:31  5-MIN KMSN 251340Z 34006KT 10SM OVC045 01/M02 A3024 570 78 -900 340/06 RMK AO2
14837KMSN MSN20060325074509703/25/06 07:45:31  5-MIN KMSN 251345Z 34008KT 10SM OVC045 01/M02 A3024 570 78 -900 340/08 RMK AO2
14837KMSN MSN20060325075011403/25/06 07:50:31  5-MIN KMSN 251350Z 34007KT 10SM BKN043 01/M02 A3025 560 78 -900 340/07 RMK AO2 SLP252 T00111022
14837KMSN MSN20060325075509703/25/06 07:55:31  5-MIN KMSN 251355Z 33008KT 10SM OVC043 01/M02 A3025 560 78 -900 330/08 RMK AO2
14837KMSN MSN20060325080009703/25/06 08:00:31  5-MIN KMSN 251400Z 35007KT 10SM OVC043 01/M02 A3025 560 78 -900 350/07 RMK AO2
14837KMSN MSN20060325080509703/25/06 08:05:31  5-MIN KMSN 251405Z 32008KT 10SM OVC041 01/M02 A3025 560 82 -900 320/08 RMK AO2
14837KMSN MSN20060325081009703/25/06 08:10:31  5-MIN KMSN 251410Z 34009KT 10SM OVC041 02/M02 A3025 560 78 -800 340/09 RMK AO2
14837KMSN MSN20060325081509703/25/06 08:15:31  5-MIN KMSN 251415Z 35008KT 10SM OVC041 02/M02 A3025 560 78 -800 350/08 RMK AO2
14837KMSN MSN20060325082009703/25/06 08:20:31  5-MIN KMSN 251420Z 35009KT 10SM OVC041 02/M02 A3025 560 78 -800 340/09 RMK AO2
14837KMSN MSN20060325082509703/25/06 08:25:31  5-MIN KMSN 251425Z 35009KT 10SM OVC041 02/M02 A3025 560 75 -800 340/09 RMK AO2
14837KMSN MSN20060325083009703/25/06 08:30:31  5-MIN KMSN 251430Z 35008KT 10SM OVC041 02/M02 A3025 560 75 -800 350/08 RMK AO2
14837KMSN MSN20060325083509703/25/06 08:35:31  5-MIN KMSN 251435Z 35008KT 10SM OVC041 02/M02 A3025 560 75 -800 350/08 RMK AO2
14837KMSN MSN20060325084009703/25/06 08:40:31  5-MIN KMSN 251440Z 33008KT 10SM OVC039 02/M01 A3025 560 78 -800 330/08 RMK AO2
14837KMSN MSN20060325084509703/25/06 08:45:31  5-MIN KMSN 251445Z 33010KT 10SM OVC039 02/M02 A3025 560 75 -800 330/10 RMK AO2
14837KMSN MSN20060325085012603/25/06 08:50:31  5-MIN KMSN 251450Z 34008KT 10SM OVC039 02/M02 A3025 560 72 -800 340/08 RMK AO2 SLP253 60000 T00221022 53014
14837KMSN MSN20060325085509703/25/06 08:55:31  5-MIN KMSN 251455Z 35010KT 10SM OVC039 03/M02 A3025 560 72 -700 350/10 RMK AO2
14837KMSN MSN20060325090010403/25/06 09:00:31  5-MIN KMSN 251500Z 34010KT 10SM FEW020 OVC037 03/M02 A3025 560 72 -700 340/10 RMK AO2
14837KMSN MSN20060325090510403/25/06 09:05:31  5-MIN KMSN 251505Z 34011KT 10SM FEW020 OVC037 02/M02 A3026 560 72 -800 340/11 RMK AO2
14837KMSN MSN20060325091010403/25/06 09:10:31  5-MIN KMSN 251510Z 35010KT 10SM SCT020 OVC037 03/M02 A3026 560 69 -700 350/10 RMK AO2
14837KMSN MSN20060325091510403/25/06 09:15:31  5-MIN KMSN 251515Z 34010KT 10SM SCT020 OVC037 03/M02 A3026 550 70 -600 340/10 RMK AO2
14837KMSN MSN20060325092010403/25/06 09:20:31  5-MIN KMSN 251520Z 34008KT 10SM BKN020 BKN037 03/M03 A3026 560 67 -700 340/08 RMK AO2
14837KMSN MSN20060325092510403/25/06 09:25:31  5-MIN KMSN 251525Z 35007KT 10SM BKN020 BKN037 03/M02 A3026 550 67 -600 350/07 RMK AO2
14837KMSN MSN20060325093012003/25/06 09:30:31  5-MIN KMSN 251530Z 36012KT 320V020 10SM BKN020 OVC035 03/M03 A3026 550 64 -600 360/12 320V020 RMK AO2
14837KMSN MSN20060325093510403/25/06 09:35:31  5-MIN KMSN 251535Z 35011KT 10SM BKN025 OVC033 03/M03 A3026 550 64 -700 350/11 RMK AO2
14837KMSN MSN20060325094010403/25/06 09:40:31  5-MIN KMSN 251540Z 34008KT 10SM BKN025 OVC033 03/M03 A3026 550 67 -700 340/08 RMK AO2
14837KMSN MSN20060325094510403/25/06 09:45:31  5-MIN KMSN 251545Z 36010KT 10SM BKN025 OVC033 03/M03 A3026 550 67 -700 360/10 RMK AO2
14837KMSN MSN20060325095012103/25/06 09:50:31  5-MIN KMSN 251550Z 33010KT 10SM BKN026 BKN033 03/M02 A3026 550 67 -600 330/10 RMK AO2 SLP255 T00331022
14837KMSN MSN20060325095509703/25/06 09:55:31  5-MIN KMSN 251555Z 35009KT 10SM OVC029 03/M03 A3026 550 64 -600 350/09 RMK AO2
14837KMSN MSN20060325100009703/25/06 10:00:31  5-MIN KMSN 251600Z 35011KT 10SM OVC029 03/M03 A3026 550 67 -700 350/11 RMK AO2
14837KMSN MSN20060325100509703/25/06 10:05:31  5-MIN KMSN 251605Z 36009KT 10SM OVC032 03/M03 A3026 550 64 -600 360/09 RMK AO2
14837KMSN MSN20060325101009703/25/06 10:10:31  5-MIN KMSN 251610Z 34009KT 10SM OVC032 03/M02 A3026 550 67 -600 340/09 RMK AO2
14837KMSN MSN20060325101509703/25/06 10:15:31  5-MIN KMSN 251615Z 36011KT 10SM OVC030 04/M03 A3026 550 62 -600 360/11 RMK AO2
14837KMSN MSN20060325102009703/25/06 10:20:31  5-MIN KMSN 251620Z 36010KT 10SM OVC030 03/M03 A3026 550 64 -600 360/10 RMK AO2
14837KMSN MSN20060325102509703/25/06 10:25:31  5-MIN KMSN 251625Z 33010KT 10SM OVC032 03/M03 A3026 550 64 -600 330/10 RMK AO2
14837KMSN MSN20060325103010403/25/06 10:30:31  5-MIN KMSN 251630Z 01008KT 10SM BKN029 OVC034 03/M03 A3026 550 64 -600 010/08 RMK AO2
14837KMSN MSN20060325103509703/25/06 10:35:31  5-MIN KMSN 251635Z 36010KT 10SM OVC031 04/M02 A3026 550 62 -500 360/10 RMK AO2
14837KMSN MSN20060325104009703/25/06 10:40:31  5-MIN KMSN 251640Z 01010KT 10SM OVC031 04/M03 A3026 550 62 -600 010/10 RMK AO2
14837KMSN MSN20060325104509703/25/06 10:45:31  5-MIN KMSN 251645Z 35009KT 10SM OVC031 04/M03 A3026 550 62 -600 350/09 RMK AO2
14837KMSN MSN20060325105011403/25/06 10:50:31  5-MIN KMSN 251650Z 36009KT 10SM OVC031 04/M03 A3026 550 62 -600 360/09 RMK AO2 SLP256 T00391028
14837KMSN MSN20060325105509703/25/06 10:55:31  5-MIN KMSN 251655Z 34009KT 10SM OVC031 04/M02 A3026 550 64 -600 340/09 RMK AO2
14837KMSN MSN20060325110009703/25/06 11:00:31  5-MIN KMSN 251700Z 36011KT 10SM OVC031 04/M02 A3026 550 64 -600 360/11 RMK AO2
14837KMSN MSN20060325110509703/25/06 11:05:31  5-MIN KMSN 251705Z 36010KT 10SM OVC031 04/M02 A3026 550 62 -500 360/10 RMK AO2
14837KMSN MSN20060325111010403/25/06 11:10:31  5-MIN KMSN 251710Z 03013KT 10SM BKN031 OVC037 04/M03 A3026 550 59 -500 030/13 RMK AO2
14837KMSN MSN20060325111509703/25/06 11:15:31  5-MIN KMSN 251715Z 01015KT 10SM OVC031 04/M03 A3026 550 59 -500 010/15 RMK AO2
14837KMSN MSN20060325112009703/25/06 11:20:31  5-MIN KMSN 251720Z 01015KT 10SM OVC033 04/M03 A3026 550 59 -500 010/15 RMK AO2
14837KMSN MSN20060325112509703/25/06 11:25:31  5-MIN KMSN 251725Z 02013KT 10SM OVC033 04/M03 A3026 550 59 -500 010/13 RMK AO2
14837KMSN MSN20060325113009703/25/06 11:30:31  5-MIN KMSN 251730Z 01010KT 10SM OVC033 05/M02 A3026 550 59 -400 010/10 RMK AO2
14837KMSN MSN20060325113512003/25/06 11:35:31  5-MIN KMSN 251735Z 35010KT 310V020 10SM BKN030 OVC036 06/M02 A3026 550 59 -400 350/10 310V020 RMK AO2
14837KMSN MSN20060325114009703/25/06 11:40:31  5-MIN KMSN 251740Z 33007KT 10SM OVC033 05/M02 A3026 550 62 -400 330/07 RMK AO2
14837KMSN MSN20060325114510403/25/06 11:45:31  5-MIN KMSN 251745Z 34008KT 10SM BKN030 OVC036 04/M02 A3026 550 62 -500 340/08 RMK AO2
14837KMSN MSN20060325115014503/25/06 11:50:31  5-MIN KMSN 251750Z 34010KT 10SM BKN030 OVC036 05/M02 A3026 550 59 -400 340/10 RMK AO2 SLP255 60000 T00501022 10056 20000 51011
14837KMSN MSN20060325115509703/25/06 11:55:31  5-MIN KMSN 251755Z 35008KT 10SM OVC033 04/M03 A3026 550 59 -500 350/08 RMK AO2
14837KMSN MSN20060325120009703/25/06 12:00:31  5-MIN KMSN 251800Z 36008KT 10SM OVC033 04/M02 A3026 550 62 -500 350/08 RMK AO2
14837KMSN MSN20060325120509703/25/06 12:05:31  5-MIN KMSN 251805Z 34008KT 10SM OVC033 04/M02 A3026 550 62 -500 340/08 RMK AO2
14837KMSN MSN20060325121009703/25/06 12:10:31  5-MIN KMSN 251810Z 36008KT 10SM OVC033 05/M02 A3026 550 59 -400 360/08 RMK AO2
14837KMSN MSN20060325121509703/25/06 12:15:31  5-MIN KMSN 251815Z 36010KT 10SM OVC033 05/M02 A3026 550 59 -400 360/10 RMK AO2
14837KMSN MSN20060325122009703/25/06 12:20:31  5-MIN KMSN 251820Z 01010KT 10SM OVC033 05/M02 A3026 560 59 -400 010/10 RMK AO2
14837KMSN MSN20060325122509703/25/06 12:25:31  5-MIN KMSN 251825Z 01010KT 10SM OVC035 05/M02 A3025 560 59 -400 010/10 RMK AO2
14837KMSN MSN20060325123009703/25/06 12:30:31  5-MIN KMSN 251830Z 35009KT 10SM OVC037 06/M02 A3025 560 57 -300 350/09 RMK AO2
14837KMSN MSN20060325123510303/25/06 12:35:31  5-MIN KMSN 251835Z 02007G14KT 10SM OVC037 06/M02 A3025 560 57 -400 020/07G14 RMK AO2
14837KMSN MSN20060325124010303/25/06 12:40:31  5-MIN KMSN 251840Z 35007G14KT 10SM OVC037 05/M02 A3025 560 59 -400 350/07G14 RMK AO2
14837KMSN MSN20060325124509703/25/06 12:45:31  5-MIN KMSN 251845Z 03009KT 10SM OVC038 06/M02 A3025 560 55 -300 030/09 RMK AO2
14837KMSN MSN20060325125011403/25/06 12:50:31  5-MIN KMSN 251850Z 35010KT 10SM OVC038 06/M03 A3025 560 55 -400 350/10 RMK AO2 SLP251 T00561028
14837KMSN MSN20060325125509703/25/06 12:55:31  5-MIN KMSN 251855Z 02007KT 10SM OVC038 05/M03 A3025 560 57 -400 020/07 RMK AO2
14837KMSN MSN20060325130009703/25/06 13:00:31  5-MIN KMSN 251900Z 03008KT 10SM OVC038 06/M03 A3025 560 55 -300 030/08 RMK AO2
14837KMSN MSN20060325130510403/25/06 13:05:31  5-MIN KMSN 251905Z 02006KT 10SM BKN036 OVC044 06/M03 A3025 570 55 -300 010/06 RMK AO2
14837KMSN MSN20060325131012003/25/06 13:10:31  5-MIN KMSN 251910Z 36007KT 320V030 10SM BKN036 OVC046 06/M02 A3024 570 57 -300 360/07 320V030 RMK AO2
14837KMSN MSN20060325131510403/25/06 13:15:31  5-MIN KMSN 251915Z 35007KT 10SM BKN036 OVC046 06/M02 A3024 570 57 -300 350/07 RMK AO2
14837KMSN MSN20060325132010403/25/06 13:20:31  5-MIN KMSN 251920Z 35008KT 10SM BKN036 OVC046 06/M03 A3024 570 55 -300 350/08 RMK AO2
14837KMSN MSN20060325132510403/25/06 13:25:31  5-MIN KMSN 251925Z 01010KT 10SM BKN036 OVC046 06/M03 A3024 570 55 -300 010/10 RMK AO2
14837KMSN MSN20060325133010403/25/06 13:30:31  5-MIN KMSN 251930Z 02009KT 10SM BKN040 OVC046 06/M03 A3024 570 55 -300 020/09 RMK AO2
14837KMSN MSN20060325133509703/25/06 13:35:31  5-MIN KMSN 251935Z 02011KT 10SM OVC040 06/M03 A3024 570 55 -300 020/11 RMK AO2
14837KMSN MSN20060325134009703/25/06 13:40:31  5-MIN KMSN 251940Z 03009KT 10SM OVC040 06/M03 A3024 570 55 -300 020/09 RMK AO2
14837KMSN MSN20060325134510403/25/06 13:45:31  5-MIN KMSN 251945Z 33007KT 10SM BKN036 OVC045 06/M03 A3024 570 55 -300 330/07 RMK AO2
14837KMSN MSN20060325135012103/25/06 13:50:31  5-MIN KMSN 251950Z 35007KT 10SM BKN036 OVC045 06/M03 A3024 570 55 -300 350/07 RMK AO2 SLP247 T00561028
14837KMSN MSN20060325135509703/25/06 13:55:31  5-MIN KMSN 251955Z 36008KT 10SM OVC038 06/M03 A3024 570 55 -300 360/08 RMK AO2
14837KMSN MSN20060325140009703/25/06 14:00:31  5-MIN KMSN 252000Z 35008KT 10SM OVC038 06/M03 A3023 580 55 -300 350/08 RMK AO2
14837KMSN MSN20060325140510403/25/06 14:05:31  5-MIN KMSN 252005Z 36006KT 10SM BKN038 OVC049 06/M03 A3023 580 55 -300 360/06 RMK AO2
14837KMSN MSN20060325141010403/25/06 14:10:31  5-MIN KMSN 252010Z 02007KT 10SM BKN038 OVC049 06/M02 A3023 580 55 -300 020/07 RMK AO2
14837KMSN MSN20060325141510403/25/06 14:15:31  5-MIN KMSN 252015Z 04005KT 10SM SCT038 OVC049 06/M03 A3023 580 53 -300 040/05 RMK AO2
14837KMSN MSN20060325142010403/25/06 14:20:31  5-MIN KMSN 252020Z 35005KT 10SM FEW038 OVC049 06/M03 A3023 580 51 -300 350/05 RMK AO2
14837KMSN MSN20060325142510403/25/06 14:25:31  5-MIN KMSN 252025Z VRB06KT 10SM FEW040 OVC049 06/M03 A3023 580 51 -300 VRB/06 RMK AO2
14837KMSN MSN20060325143009703/25/06 14:30:31  5-MIN KMSN 252030Z 36007KT 10SM OVC049 06/M03 A3023 580 53 -300 360/07 RMK AO2
14837KMSN MSN20060325143510403/25/06 14:35:31  5-MIN KMSN 252035Z 34007KT 10SM FEW037 OVC049 06/M03 A3023 580 53 -300 340/07 RMK AO2
14837KMSN MSN20060325144011103/25/06 14:40:31  5-MIN KMSN 252040Z 35006KT 10SM FEW037 BKN049 OVC060 06/M03 A3023 580 53 -300 350/06 RMK AO2
14837KMSN MSN20060325144509703/25/06 14:45:31  5-MIN KMSN 252045Z 35005KT 10SM OVC055 06/M03 A3023 580 53 -300 350/05 RMK AO2
14837KMSN MSN20060325145012703/25/06 14:50:31  5-MIN KMSN 252050Z 35006KT 10SM FEW039 OVC055 06/M03 A3023 580 53 -300 340/06 RMK AO2 SLP245 T00611028 50003
14837KMSN MSN20060325145510403/25/06 14:55:31  5-MIN KMSN 252055Z 36006KT 10SM SCT041 OVC055 06/M03 A3023 580 53 -300 360/06 RMK AO2
14837KMSN MSN20060325150010403/25/06 15:00:31  5-MIN KMSN 252100Z 34006KT 10SM SCT041 OVC060 06/M03 A3023 580 53 -300 340/06 RMK AO2
14837KMSN MSN20060325150512003/25/06 15:05:31  5-MIN KMSN 252105Z 32007KT 290V350 10SM BKN041 OVC060 06/M03 A3023 580 51 -300 320/07 290V350 RMK AO2
14837KMSN MSN20060325151010403/25/06 15:10:31  5-MIN KMSN 252110Z VRB04KT 10SM BKN041 OVC060 06/M03 A3023 580 51 -300 VRB/04 RMK AO2
14837KMSN MSN20060325151510403/25/06 15:15:31  5-MIN KMSN 252115Z 35007KT 10SM SCT041 OVC060 06/M03 A3023 580 51 -300 350/07 RMK AO2
14837KMSN MSN20060325152010403/25/06 15:20:31  5-MIN KMSN 252120Z 34005KT 10SM SCT041 OVC060 06/M03 A3023 580 51 -300 340/05 RMK AO2
14837KMSN MSN20060325152510403/25/06 15:25:31  5-MIN KMSN 252125Z 35004KT 10SM FEW039 OVC060 06/M03 A3023 580 51 -300 350/04 RMK AO2
14837KMSN MSN20060325153010403/25/06 15:30:31  5-MIN KMSN 252130Z 34004KT 10SM FEW039 OVC060 06/M03 A3023 580 51 -300 340/04 RMK AO2
14837KMSN MSN20060325153509703/25/06 15:35:31  5-MIN KMSN 252135Z 32006KT 10SM OVC060 06/M03 A3023 580 51 -300 320/06 RMK AO2
14837KMSN MSN20060325154010403/25/06 15:40:31  5-MIN KMSN 252140Z 34007KT 10SM FEW047 OVC060 06/M03 A3023 580 51 -300 340/07 RMK AO2
14837KMSN MSN20060325154510403/25/06 15:45:31  5-MIN KMSN 252145Z 34006KT 10SM FEW047 OVC060 06/M03 A3023 580 51 -300 340/06 RMK AO2
14837KMSN MSN20060325155013703/25/06 15:50:31  5-MIN KMSN 252150Z 36008KT 10SM -RA SCT050 OVC060 06/M03 A3023 580 55 -300 360/08 RMK AO2 RAB48 SLP246 P0000 T00561028
14837KMSN MSN20060325155512003/25/06 15:55:31  5-MIN KMSN 252155Z 35008KT 10SM -RA SCT048 OVC060 06/M03 A3023 580 55 -300 350/08 RMK AO2 RAB54 P0000
14837KMSN MSN20060325160012103/25/06 16:00:31  5-MIN KMSN 252200Z 35008KT 10SM FEW048 OVC060 06/M03 A3023 580 55 -300 350/08 RMK AO2 RAB2154E00 P0000
14837KMSN MSN20060325160512103/25/06 16:05:31  5-MIN KMSN 252205Z 35007KT 10SM FEW048 OVC060 06/M03 A3023 570 55 -300 350/07 RMK AO2 RAB2154E00 P0000
14837KMSN MSN20060325161012103/25/06 16:10:31  5-MIN KMSN 252210Z 36005KT 10SM FEW046 OVC055 05/M02 A3023 580 59 -400 360/05 RMK AO2 RAB2154E00 P0000
14837KMSN MSN20060325161511403/25/06 16:15:31  5-MIN KMSN 252215Z 34005KT 10SM OVC055 06/M03 A3023 580 55 -300 340/05 RMK AO2 RAB2154E00 P0000
14837KMSN MSN20060325162011403/25/06 16:20:31  5-MIN KMSN 252220Z 36005KT 10SM OVC055 06/M03 A3023 580 55 -300 360/05 RMK AO2 RAB2154E00 P0000
14837KMSN MSN20060325162511403/25/06 16:25:31  5-MIN KMSN 252225Z 34004KT 10SM OVC060 06/M03 A3023 580 55 -300 340/04 RMK AO2 RAB2154E00 P0000
14837KMSN MSN20060325163011403/25/06 16:30:31  5-MIN KMSN 252230Z 33004KT 10SM OVC055 06/M03 A3023 580 55 -300 330/04 RMK AO2 RAB2154E00 P0000
14837KMSN MSN20060325163511403/25/06 16:35:31  5-MIN KMSN 252235Z 34003KT 10SM OVC055 06/M03 A3023 580 55 -300 340/03 RMK AO2 RAB2154E00 P0000
14837KMSN MSN20060325164011403/25/06 16:40:31  5-MIN KMSN 252240Z 35003KT 10SM OVC060 06/M03 A3023 580 55 -300 340/03 RMK AO2 RAB2154E00 P0000
14837KMSN MSN20060325164512103/25/06 16:45:31  5-MIN KMSN 252245Z 00000KT 10SM SCT050 BKN060 06/M03 A3023 580 55 -300 000/00 RMK AO2 RAB2154E00 P0000
14837KMSN MSN20060325165013803/25/06 16:50:31  5-MIN KMSN 252250Z 00000KT 10SM SCT050 BKN060 06/M03 A3023 580 55 -300 000/00 RMK AO2 RAB2154E00 SLP244 P0000 T00561028
14837KMSN MSN20060325165510403/25/06 16:55:31  5-MIN KMSN 252255Z 00000KT 10SM FEW042 OVC065 06/M03 A3023 580 55 -300 000/00 RMK AO2
14837KMSN MSN20060325170010403/25/06 17:00:31  5-MIN KMSN 252300Z 00000KT 10SM SCT042 OVC065 06/M03 A3023 580 55 -300 000/00 RMK AO2
14837KMSN MSN20060325170510403/25/06 17:05:31  5-MIN KMSN 252305Z 33003KT 10SM BKN042 OVC070 06/M03 A3023 580 55 -300 330/03 RMK AO2
14837KMSN MSN20060325171010403/25/06 17:10:31  5-MIN KMSN 252310Z 33007KT 10SM BKN042 OVC065 06/M03 A3023 580 55 -300 330/07 RMK AO2
14837KMSN MSN20060325171512003/25/06 17:15:31  5-MIN KMSN 252315Z 31004KT 10SM -RA BKN042 OVC065 06/M03 A3023 580 55 -300 310/04 RMK AO2 RAB14 P0000
14837KMSN MSN20060325172012703/25/06 17:20:31  5-MIN KMSN 252320Z VRB03KT 10SM -RA SCT042 BKN050 OVC065 06/M03 A3023 580 55 -300 VRB/03 RMK AO2 RAB14 P0000
14837KMSN MSN20060325172512703/25/06 17:25:31  5-MIN KMSN 252325Z 00000KT 10SM -RA SCT042 SCT050 OVC065 05/M03 A3023 580 57 -400 000/00 RMK AO2 RAB14 P0000
14837KMSN MSN20060325173012603/25/06 17:30:31  5-MIN KMSN 252330Z 34003KT 10SM SCT042 SCT049 OVC060 05/M03 A3023 580 57 -400 340/03 RMK AO2 RAB14E26 P0000
14837KMSN MSN20060325173512603/25/06 17:35:31  5-MIN KMSN 252335Z 34004KT 10SM SCT042 BKN049 OVC060 05/M03 A3023 580 57 -400 340/04 RMK AO2 RAB14E26 P0000
14837KMSN MSN20060325174011903/25/06 17:40:31  5-MIN KMSN 252340Z 34005KT 10SM BKN044 OVC065 05/M03 A3023 580 57 -400 340/05 RMK AO2 RAB14E26 P0000
14837KMSN MSN20060325174512603/25/06 17:45:31  5-MIN KMSN 252345Z 34005KT 10SM FEW044 SCT050 OVC070 06/M03 A3023 580 55 -300 340/05 RMK AO2 RAB14E26 P0000
14837KMSN MSN20060325175016003/25/06 17:50:31  5-MIN KMSN 252350Z 34005KT 10SM SCT044 BKN070 05/M03 A3023 580 57 -400 340/05 RMK AO2 RAB14E26 SLP246 P0000 60000 T00501028 10061 20044 56010
14837KMSN MSN20060325175510403/25/06 17:55:31  5-MIN KMSN 252355Z 34005KT 10SM SCT044 OVC065 05/M03 A3023 570 57 -400 340/05 RMK AO2
14837KMSN MSN20060325180010403/25/06 18:00:31  5-MIN KMSN 260000Z 33004KT 10SM FEW042 OVC065 05/M03 A3024 570 57 -400 330/04 RMK AO2
14837KMSN MSN20060325180509703/25/06 18:05:31  5-MIN KMSN 260005Z 33003KT 10SM OVC065 05/M03 A3024 570 57 -400 330/03 RMK AO2
14837KMSN MSN20060325181009703/25/06 18:10:31  5-MIN KMSN 260010Z 33004KT 10SM OVC070 05/M03 A3024 570 57 -400 330/04 RMK AO2
14837KMSN MSN20060325181511103/25/06 18:15:31  5-MIN KMSN 260015Z 32004KT 10SM FEW047 BKN065 OVC080 05/M03 A3024 570 57 -400 320/04 RMK AO2
14837KMSN MSN20060325182010403/25/06 18:20:31  5-MIN KMSN 260020Z 32004KT 10SM BKN060 OVC080 04/M03 A3024 570 59 -500 320/04 RMK AO2
14837KMSN MSN20060325182510403/25/06 18:25:31  5-MIN KMSN 260025Z 32004KT 10SM BKN060 OVC080 05/M03 A3024 570 57 -400 310/04 RMK AO2
14837KMSN MSN20060325183010403/25/06 18:30:31  5-MIN KMSN 260030Z 33004KT 10SM BKN065 OVC080 04/M03 A3024 570 59 -500 330/04 RMK AO2
14837KMSN MSN20060325183510403/25/06 18:35:31  5-MIN KMSN 260035Z 33003KT 10SM BKN065 OVC080 04/M03 A3024 570 59 -500 330/03 RMK AO2
14837KMSN MSN20060325184010403/25/06 18:40:31  5-MIN KMSN 260040Z 32005KT 10SM BKN065 OVC080 04/M03 A3024 570 59 -500 320/05 RMK AO2
14837KMSN MSN20060325184510403/25/06 18:45:31  5-MIN KMSN 260045Z 33005KT 10SM SCT060 OVC080 04/M03 A3024 570 57 -500 330/05 RMK AO2
14837KMSN MSN20060325185012103/25/06 18:50:31  5-MIN KMSN 260050Z 33005KT 10SM SCT065 OVC080 04/M03 A3024 570 57 -500 330/05 RMK AO2 SLP247 T00441033
14837KMSN MSN20060325185509703/25/06 18:55:31  5-MIN KMSN 260055Z 33006KT 10SM OVC080 04/M03 A3024 570 59 -500 330/06 RMK AO2
14837KMSN MSN20060325190009703/25/06 19:00:31  5-MIN KMSN 260100Z 35006KT 10SM OVC080 04/M03 A3024 570 59 -500 340/06 RMK AO2
14837KMSN MSN20060325190509703/25/06 19:05:31  5-MIN KMSN 260105Z 35007KT 10SM OVC075 04/M02 A3024 570 62 -500 350/07 RMK AO2
14837KMSN MSN20060325191010403/25/06 19:10:31  5-MIN KMSN 260110Z 34006KT 10SM BKN070 OVC080 04/M02 A3024 570 62 -500 340/06 RMK AO2
14837KMSN MSN20060325191510403/25/06 19:15:31  5-MIN KMSN 260115Z 34005KT 10SM BKN060 OVC080 04/M03 A3024 570 59 -500 340/05 RMK AO2
14837KMSN MSN20060325192010403/25/06 19:20:31  5-MIN KMSN 260120Z 34005KT 10SM BKN065 OVC075 04/M03 A3024 570 59 -500 340/05 RMK AO2
14837KMSN MSN20060325192509703/25/06 19:25:31  5-MIN KMSN 260125Z 35005KT 10SM OVC070 04/M03 A3024 570 59 -500 350/05 RMK AO2
14837KMSN MSN20060325193009703/25/06 19:30:31  5-MIN KMSN 260130Z 36004KT 10SM OVC065 04/M03 A3024 570 62 -500 350/04 RMK AO2
14837KMSN MSN20060325193509703/25/06 19:35:31  5-MIN KMSN 260135Z 35003KT 10SM OVC065 04/M03 A3024 570 62 -500 350/03 RMK AO2
14837KMSN MSN20060325194010403/25/06 19:40:31  5-MIN KMSN 260140Z 35003KT 10SM FEW055 OVC070 04/M03 A3024 570 62 -500 340/03 RMK AO2
14837KMSN MSN20060325194510403/25/06 19:45:31  5-MIN KMSN 260145Z 02003KT 10SM BKN070 OVC080 04/M03 A3024 570 62 -500 010/03 RMK AO2
14837KMSN MSN20060325195011403/25/06 19:50:31  5-MIN KMSN 260150Z 36004KT 10SM OVC075 03/M02 A3024 570 67 -600 360/04 RMK AO2 SLP250 T00331022
14837KMSN MSN20060325200509703/25/06 20:05:31  5-MIN KMSN 260205Z 01004KT 10SM OVC080 03/M02 A3024 570 67 -600 010/04 RMK AO2
14837KMSN MSN20060325201009703/25/06 20:10:31  5-MIN KMSN 260210Z 36003KT 10SM OVC080 03/M02 A3024 570 67 -600 360/03 RMK AO2
14837KMSN MSN20060325201509703/25/06 20:15:31  5-MIN KMSN 260215Z 34003KT 10SM OVC080 03/M02 A3024 570 67 -600 340/03 RMK AO2
14837KMSN MSN20060325202009703/25/06 20:20:31  5-MIN KMSN 260220Z 00000KT 10SM OVC080 03/M02 A3024 570 67 -600 000/00 RMK AO2
14837KMSN MSN20060325202509703/25/06 20:25:31  5-MIN KMSN 260225Z 00000KT 10SM OVC080 03/M03 A3024 570 64 -600 000/00 RMK AO2
14837KMSN MSN20060325203009703/25/06 20:30:31  5-MIN KMSN 260230Z 00000KT 10SM OVC080 03/M02 A3024 570 69 -700 000/00 RMK AO2
14837KMSN MSN20060325203509703/25/06 20:35:31  5-MIN KMSN 260235Z 00000KT 10SM OVC080 03/M02 A3024 570 69 -700 000/00 RMK AO2
14837KMSN MSN20060325204009703/25/06 20:40:31  5-MIN KMSN 260240Z 00000KT 10SM OVC080 03/M02 A3024 570 69 -700 000/00 RMK AO2
14837KMSN MSN20060325204509703/25/06 20:45:31  5-MIN KMSN 260245Z 00000KT 10SM OVC080 03/M02 A3024 570 69 -700 000/00 RMK AO2
14837KMSN MSN20060325205012003/25/06 20:50:31  5-MIN KMSN 260250Z 00000KT 10SM OVC080 03/M02 A3024 570 69 -700 000/00 RMK AO2 SLP249 T00281022 53001
14837KMSN MSN20060325205509703/25/06 20:55:31  5-MIN KMSN 260255Z 00000KT 10SM OVC080 03/M02 A3024 570 69 -700 000/00 RMK AO2
14837KMSN MSN20060325210009703/25/06 21:00:31  5-MIN KMSN 260300Z 00000KT 10SM OVC080 03/M02 A3024 570 69 -700 000/00 RMK AO2
14837KMSN MSN20060325210509703/25/06 21:05:31  5-MIN KMSN 260305Z 00000KT 10SM OVC080 02/M02 A3024 570 72 -800 000/00 RMK AO2
14837KMSN MSN20060325211009703/25/06 21:10:31  5-MIN KMSN 260310Z 00000KT 10SM OVC080 02/M02 A3024 570 72 -800 000/00 RMK AO2
14837KMSN MSN20060325211509703/25/06 21:15:31  5-MIN KMSN 260315Z 00000KT 10SM OVC080 02/M02 A3024 570 72 -800 000/00 RMK AO2
14837KMSN MSN20060325212009703/25/06 21:20:31  5-MIN KMSN 260320Z 00000KT 10SM OVC080 02/M02 A3024 570 75 -800 000/00 RMK AO2
14837KMSN MSN20060325212509703/25/06 21:25:31  5-MIN KMSN 260325Z 00000KT 10SM OVC080 02/M02 A3024 570 75 -800 000/00 RMK AO2
14837KMSN MSN20060325213009703/25/06 21:30:31  5-MIN KMSN 260330Z 00000KT 10SM OVC080 02/M02 A3024 570 75 -800 000/00 RMK AO2
14837KMSN MSN20060325213509703/25/06 21:35:31  5-MIN KMSN 260335Z 00000KT 10SM OVC080 02/M03 A3024 570 72 -800 000/00 RMK AO2
14837KMSN MSN20060325214009703/25/06 21:40:31  5-MIN KMSN 260340Z 00000KT 10SM OVC080 02/M03 A3024 570 72 -800 000/00 RMK AO2
14837KMSN MSN20060325214509703/25/06 21:45:31  5-MIN KMSN 260345Z 00000KT 10SM OVC080 02/M03 A3024 570 72 -800 000/00 RMK AO2
14837KMSN MSN20060325215011403/25/06 21:50:31  5-MIN KMSN 260350Z 31003KT 10SM OVC080 02/M02 A3024 570 75 -800 310/03 RMK AO2 SLP249 T00171022
14837KMSN MSN20060325215509703/25/06 21:55:31  5-MIN KMSN 260355Z 31003KT 10SM OVC080 02/M02 A3024 570 75 -800 300/03 RMK AO2
14837KMSN MSN20060325220009703/25/06 22:00:31  5-MIN KMSN 260400Z 30004KT 10SM OVC080 01/M02 A3024 570 78 -900 300/04 RMK AO2
14837KMSN MSN20060325220509703/25/06 22:05:31  5-MIN KMSN 260405Z 30003KT 10SM OVC075 01/M03 A3024 570 75 -900 300/03 RMK AO2
14837KMSN MSN20060325221009703/25/06 22:10:31  5-MIN KMSN 260410Z 30003KT 10SM OVC075 01/M03 A3024 570 75 -900 300/03 RMK AO2
14837KMSN MSN20060325221509703/25/06 22:15:31  5-MIN KMSN 260415Z 31004KT 10SM OVC075 01/M03 A3024 570 75 -900 300/04 RMK AO2
14837KMSN MSN20060325222009703/25/06 22:20:31  5-MIN KMSN 260420Z 31003KT 10SM OVC075 02/M03 A3024 570 72 -800 310/03 RMK AO2
14837KMSN MSN20060325222509703/25/06 22:25:31  5-MIN KMSN 260425Z 31003KT 10SM OVC075 02/M03 A3024 570 72 -800 310/03 RMK AO2
14837KMSN MSN20060325223009703/25/06 22:30:31  5-MIN KMSN 260430Z 31003KT 10SM OVC075 02/M03 A3024 570 72 -800 300/03 RMK AO2
14837KMSN MSN20060325223509703/25/06 22:35:31  5-MIN KMSN 260435Z 32004KT 10SM OVC075 02/M03 A3024 570 69 -800 320/04 RMK AO2
14837KMSN MSN20060325224009703/25/06 22:40:31  5-MIN KMSN 260440Z 33004KT 10SM OVC075 02/M03 A3024 570 69 -800 330/04 RMK AO2
14837KMSN MSN20060325224509703/25/06 22:45:31  5-MIN KMSN 260445Z 33003KT 10SM OVC075 02/M03 A3024 570 69 -800 330/03 RMK AO2
14837KMSN MSN20060325225011403/25/06 22:50:31  5-MIN KMSN 260450Z 33003KT 10SM BKN075 02/M03 A3024 570 69 -800 330/03 RMK AO2 SLP248 T00221028
14837KMSN MSN20060325225509703/25/06 22:55:31  5-MIN KMSN 260455Z 32003KT 10SM OVC075 02/M03 A3024 570 72 -800 320/03 RMK AO2
14837KMSN MSN20060325230009703/25/06 23:00:31  5-MIN KMSN 260500Z 32003KT 10SM OVC075 02/M03 A3024 570 72 -800 320/03 RMK AO2
14837KMSN MSN20060325230509703/25/06 23:05:31  5-MIN KMSN 260505Z 32003KT 10SM OVC075 01/M03 A3024 570 75 -900 320/03 RMK AO2
14837KMSN MSN20060325231009703/25/06 23:10:31  5-MIN KMSN 260510Z 32003KT 10SM OVC075 01/M03 A3024 570 75 -900 320/03 RMK AO2
14837KMSN MSN20060325231509703/25/06 23:15:31  5-MIN KMSN 260515Z 32003KT 10SM OVC075 01/M03 A3024 570 75 -900 320/03 RMK AO2
14837KMSN MSN20060325232009703/25/06 23:20:31  5-MIN KMSN 260520Z 32003KT 10SM OVC075 01/M03 A3024 570 75 -900 320/03 RMK AO2
14837KMSN MSN20060325232509703/25/06 23:25:31  5-MIN KMSN 260525Z 32003KT 10SM OVC075 01/M03 A3024 570 75 -900 320/03 RMK AO2
14837KMSN MSN20060325233009703/25/06 23:30:31  5-MIN KMSN 260530Z 32003KT 10SM OVC075 01/M03 A3024 570 75 -900 320/03 RMK AO2
14837KMSN MSN20060325233509703/25/06 23:35:31  5-MIN KMSN 260535Z 32003KT 10SM OVC075 01/M03 A3024 570 75 -900 320/03 RMK AO2
14837KMSN MSN20060325234009803/25/06 23:40:31  5-MIN KMSN 260540Z 33003KT 10SM OVC075 01/M03 A3024 570 78 -1000 330/03 RMK AO2
14837KMSN MSN20060325234509803/25/06 23:45:31  5-MIN KMSN 260545Z 33003KT 10SM BKN075 01/M03 A3024 570 78 -1000 330/03 RMK AO2
14837KMSN MSN20060325235014303/25/06 23:50:31  5-MIN KMSN 260550Z 00000KT 10SM BKN070 01/M03 A3024 570 78 -1000 000/00 RMK AO2 SLP248 T00061028 10050 20006 400610000 51002
14837KMSN MSN20060325235509803/25/06 23:55:31  5-MIN KMSN 260555Z 33003KT 10SM OVC070 01/M03 A3024 570 78 -1000 330/03 RMK AO2
14837KMSN MSN20060326000009803/26/06 00:00:38  5-MIN KMSN 260600Z 32003KT 10SM OVC070 00/M03 A3024 570 81 -1000 320/03 RMK AO2
14837KMSN MSN20060326000509803/26/06 00:05:31  5-MIN KMSN 260605Z 31003KT 10SM BKN070 00/M03 A3024 570 78 -1000 310/03 RMK AO2
14837KMSN MSN20060326001009903/26/06 00:10:31  5-MIN KMSN 260610Z 31003KT 10SM BKN070 M01/M03 A3024 570 81 -1100 310/03 RMK AO2
14837KMSN MSN20060326001509903/26/06 00:15:34  5-MIN KMSN 260615Z 31003KT 10SM BKN070 M01/M03 A3024 570 81 -1100 310/03 RMK AO2
14837KMSN MSN20060326002009903/26/06 00:20:31  5-MIN KMSN 260620Z 31003KT 10SM BKN070 M01/M03 A3024 570 81 -1100 310/03 RMK AO2
14837KMSN MSN20060326002509903/26/06 00:25:31  5-MIN KMSN 260625Z 31003KT 10SM SCT070 M01/M03 A3024 570 81 -1100 310/03 RMK AO2
14837KMSN MSN20060326003009903/26/06 00:30:31  5-MIN KMSN 260630Z 00000KT 10SM FEW070 M01/M03 A3024 570 81 -1100 000/00 RMK AO2
14837KMSN MSN20060326003509903/26/06 00:35:31  5-MIN KMSN 260635Z 00000KT 10SM FEW070 M01/M03 A3024 570 81 -1100 000/00 RMK AO2
14837KMSN MSN20060326004009903/26/06 00:40:31  5-MIN KMSN 260640Z 29003KT 10SM FEW070 M01/M03 A3024 570 85 -1200 290/03 RMK AO2
14837KMSN MSN20060326004509903/26/06 00:45:31  5-MIN KMSN 260645Z 29003KT 10SM FEW070 M01/M04 A3024 570 81 -1200 290/03 RMK AO2
14837KMSN MSN20060326005011603/26/06 00:50:31  5-MIN KMSN 260650Z 29003KT 10SM FEW070 M01/M04 A3024 570 81 -1200 290/03 RMK AO2 SLP250 T10111039
14837KMSN MSN20060326005509603/26/06 00:55:31  5-MIN KMSN 260655Z 29003KT 10SM CLR M01/M04 A3024 570 81 -1200 290/03 RMK AO2
14837KMSN MSN20060326010009603/26/06 01:00:31  5-MIN KMSN 260700Z 00000KT 10SM CLR M01/M04 A3024 570 81 -1200 000/00 RMK AO2
14837KMSN MSN20060326010509603/26/06 01:05:31  5-MIN KMSN 260705Z 00000KT 10SM CLR M02/M04 A3024 570 85 -1200 000/00 RMK AO2
14837KMSN MSN20060326011009603/26/06 01:10:31  5-MIN KMSN 260710Z 00000KT 10SM CLR M02/M04 A3025 570 85 -1300 000/00 RMK AO2
14837KMSN MSN20060326011509603/26/06 01:15:31  5-MIN KMSN 260715Z 00000KT 10SM CLR M01/M04 A3025 560 81 -1200 000/00 RMK AO2
14837KMSN MSN20060326012009603/26/06 01:20:31  5-MIN KMSN 260720Z 00000KT 10SM CLR M02/M04 A3025 560 85 -1300 000/00 RMK AO2
14837KMSN MSN20060326012509603/26/06 01:25:31  5-MIN KMSN 260725Z 00000KT 10SM CLR M02/M03 A3025 560 88 -1300 000/00 RMK AO2
14837KMSN MSN20060326013009903/26/06 01:30:31  5-MIN KMSN 260730Z 00000KT 10SM FEW070 M02/M03 A3025 560 88 -1300 000/00 RMK AO2
14837KMSN MSN20060326013509903/26/06 01:35:31  5-MIN KMSN 260735Z 00000KT 10SM FEW070 M02/M03 A3025 560 92 -1300 000/00 RMK AO2
14837KMSN MSN20060326014009603/26/06 01:40:31  5-MIN KMSN 260740Z 00000KT 10SM CLR M03/M04 A3025 560 88 -1400 000/00 RMK AO2
14837KMSN MSN20060326014509603/26/06 01:45:31  5-MIN KMSN 260745Z 00000KT 10SM CLR M03/M05 A3025 560 85 -1400 000/00 RMK AO2
14837KMSN MSN20060326015011603/26/06 01:50:31  5-MIN KMSN 260750Z 00000KT 10SM FEW070 M02/M04 A3025 560 85 -1300 000/00 RMK AO2 SLP252 T10221044
14837KMSN MSN20060326015509603/26/06 01:55:31  5-MIN KMSN 260755Z 00000KT 10SM CLR M02/M05 A3025 560 81 -1300 000/00 RMK AO2
14837KMSN MSN20060326020009603/26/06 02:00:31  5-MIN KMSN 260800Z 00000KT 10SM CLR M02/M04 A3025 560 85 -1300 000/00 RMK AO2
14837KMSN MSN20060326020509603/26/06 02:05:31  5-MIN KMSN 260805Z 00000KT 10SM CLR M03/M05 A3025 560 85 -1400 000/00 RMK AO2
14837KMSN MSN20060326021009603/26/06 02:10:31  5-MIN KMSN 260810Z 00000KT 10SM CLR M03/M04 A3025 560 88 -1400 000/00 RMK AO2
14837KMSN MSN20060326021509603/26/06 02:15:31  5-MIN KMSN 260815Z 00000KT 10SM CLR M03/M04 A3025 560 88 -1400 000/00 RMK AO2
14837KMSN MSN20060326022009603/26/06 02:20:31  5-MIN KMSN 260820Z 00000KT 10SM CLR M03/M05 A3025 560 85 -1400 000/00 RMK AO2
14837KMSN MSN20060326022509603/26/06 02:25:31  5-MIN KMSN 260825Z 00000KT 10SM CLR M03/M04 A3025 560 88 -1400 000/00 RMK AO2
14837KMSN MSN20060326023009603/26/06 02:30:31  5-MIN KMSN 260830Z 00000KT 10SM CLR M03/M05 A3025 560 85 -1400 000/00 RMK AO2
14837KMSN MSN20060326023509903/26/06 02:35:31  5-MIN KMSN 260835Z 00000KT 10SM FEW065 M03/M05 A3025 560 88 -1500 000/00 RMK AO2
14837KMSN MSN20060326024009903/26/06 02:40:31  5-MIN KMSN 260840Z 00000KT 10SM FEW065 M03/M05 A3025 560 88 -1500 000/00 RMK AO2
14837KMSN MSN20060326024509903/26/06 02:45:31  5-MIN KMSN 260845Z 00000KT 10SM FEW065 M03/M05 A3025 560 88 -1500 000/00 RMK AO2
14837KMSN MSN20060326025012203/26/06 02:50:31  5-MIN KMSN 260850Z 00000KT 10SM FEW065 M03/M04 A3025 560 88 -1400 000/00 RMK AO2 SLP252 T10281044 55001
14837KMSN MSN20060326025509903/26/06 02:55:31  5-MIN KMSN 260855Z 00000KT 10SM FEW065 M03/M04 A3025 560 88 -1400 000/00 RMK AO2
14837KMSN MSN20060326030009903/26/06 03:00:31  5-MIN KMSN 260900Z 00000KT 10SM FEW065 M04/M06 A3025 560 88 -1500 000/00 RMK AO2
14837KMSN MSN20060326030509903/26/06 03:05:31  5-MIN KMSN 260905Z 00000KT 10SM FEW065 M04/M06 A3025 560 88 -1500 000/00 RMK AO2
14837KMSN MSN20060326031009903/26/06 03:10:31  5-MIN KMSN 260910Z 00000KT 10SM FEW065 M04/M05 A3025 560 92 -1500 000/00 RMK AO2
14837KMSN MSN20060326031509903/26/06 03:15:31  5-MIN KMSN 260915Z 00000KT 10SM FEW065 M04/M05 A3025 560 92 -1500 000/00 RMK AO2
14837KMSN MSN20060326032009903/26/06 03:20:31  5-MIN KMSN 260920Z 36003KT 10SM FEW065 M03/M05 A3025 560 88 -1500 360/03 RMK AO2
14837KMSN MSN20060326032509903/26/06 03:25:31  5-MIN KMSN 260925Z 00000KT 10SM FEW065 M03/M04 A3025 560 92 -1500 000/00 RMK AO2
14837KMSN MSN20060326033009903/26/06 03:30:31  5-MIN KMSN 260930Z 00000KT 10SM FEW065 M04/M04 A3025 560 96 -1500 000/00 RMK AO2
14837KMSN MSN20060326033509903/26/06 03:35:31  5-MIN KMSN 260935Z 00000KT 10SM FEW065 M04/M04 A3025 560 96 -1500 000/00 RMK AO2
14837KMSN MSN20060326034009903/26/06 03:40:31  5-MIN KMSN 260940Z 00000KT 10SM FEW065 M04/M06 A3025 560 88 -1500 000/00 RMK AO2
14837KMSN MSN20060326034509903/26/06 03:45:31  5-MIN KMSN 260945Z 00000KT 10SM FEW065 M04/M06 A3025 560 88 -1500 000/00 RMK AO2
14837KMSN MSN20060326035011303/26/06 03:50:31  5-MIN KMSN 260950Z 00000KT 10SM CLR M03/M06 A3026 560 85 -1500 000/00 RMK AO2 SLP254 T10331056
14837KMSN MSN20060326035509603/26/06 03:55:31  5-MIN KMSN 260955Z 00000KT 10SM CLR M04/M06 A3026 560 85 -1500 000/00 RMK AO2
14837KMSN MSN20060326040009603/26/06 04:00:31  5-MIN KMSN 261000Z 00000KT 10SM CLR M04/M06 A3026 550 85 -1500 000/00 RMK AO2
14837KMSN MSN20060326040509603/26/06 04:05:31  5-MIN KMSN 261005Z 00000KT 10SM CLR M04/M06 A3026 550 92 -1600 000/00 RMK AO2
14837KMSN MSN20060326041009603/26/06 04:10:31  5-MIN KMSN 261010Z 36003KT 10SM CLR M04/M05 A3026 550 92 -1600 360/03 RMK AO2
14837KMSN MSN20060326041509603/26/06 04:15:31  5-MIN KMSN 261015Z 36003KT 10SM CLR M04/M05 A3026 550 92 -1600 360/03 RMK AO2
14837KMSN MSN20060326042009603/26/06 04:20:31  5-MIN KMSN 261020Z 01004KT 10SM CLR M04/M06 A3026 550 88 -1600 010/04 RMK AO2
14837KMSN MSN20060326042509603/26/06 04:25:31  5-MIN KMSN 261025Z 01004KT 10SM CLR M04/M06 A3026 550 88 -1600 010/04 RMK AO2
14837KMSN MSN20060326043009603/26/06 04:30:31  5-MIN KMSN 261030Z 04003KT 10SM CLR M04/M05 A3026 550 96 -1600 030/03 RMK AO2
14837KMSN MSN20060326043509603/26/06 04:35:31  5-MIN KMSN 261035Z 00000KT 10SM CLR M04/M05 A3027 550 92 -1600 000/00 RMK AO2
14837KMSN MSN20060326044009603/26/06 04:40:31  5-MIN KMSN 261040Z 00000KT 10SM CLR M04/M06 A3027 540 92 -1600 000/00 RMK AO2
14837KMSN MSN20060326044509603/26/06 04:45:31  5-MIN KMSN 261045Z 25003KT 10SM CLR M04/M06 A3027 540 88 -1600 250/03 RMK AO2
14837KMSN MSN20060326045011303/26/06 04:50:31  5-MIN KMSN 261050Z 00000KT 10SM CLR M04/M06 A3027 540 88 -1600 000/00 RMK AO2 SLP261 T10391056
14837KMSN MSN20060326045509603/26/06 04:55:31  5-MIN KMSN 261055Z 00000KT 10SM CLR M04/M05 A3027 540 92 -1600 000/00 RMK AO2
14837KMSN MSN20060326050009603/26/06 05:00:31  5-MIN KMSN 261100Z 00000KT 10SM CLR M03/M05 A3027 540 88 -1500 000/00 RMK AO2
14837KMSN MSN20060326050509603/26/06 05:05:31  5-MIN KMSN 261105Z 00000KT 10SM CLR M04/M05 A3028 540 92 -1600 000/00 RMK AO2
14837KMSN MSN20060326051009603/26/06 05:10:31  5-MIN KMSN 261110Z 00000KT 10SM CLR M04/M06 A3028 540 88 -1600 000/00 RMK AO2
14837KMSN MSN20060326051509603/26/06 05:15:31  5-MIN KMSN 261115Z 32003KT 10SM CLR M04/M05 A3028 540 92 -1600 320/03 RMK AO2
14837KMSN MSN20060326052009603/26/06 05:20:31  5-MIN KMSN 261120Z 33003KT 10SM CLR M03/M04 A3028 530 92 -1500 320/03 RMK AO2
14837KMSN MSN20060326052509603/26/06 05:25:31  5-MIN KMSN 261125Z 31003KT 10SM CLR M04/M05 A3028 530 92 -1600 310/03 RMK AO2
14837KMSN MSN20060326053009603/26/06 05:30:31  5-MIN KMSN 261130Z 31003KT 10SM CLR M04/M05 A3028 530 92 -1600 310/03 RMK AO2
14837KMSN MSN20060326053509603/26/06 05:35:31  5-MIN KMSN 261135Z 32003KT 10SM CLR M04/M06 A3028 530 92 -1600 320/03 RMK AO2
14837KMSN MSN20060326054009603/26/06 05:40:31  5-MIN KMSN 261140Z 00000KT 10SM CLR M04/M06 A3028 530 92 -1700 000/00 RMK AO2
14837KMSN MSN20060326054509603/26/06 05:45:31  5-MIN KMSN 261145Z 00000KT 10SM CLR M04/M06 A3029 530 92 -1700 000/00 RMK AO2
14837KMSN MSN20060326055013103/26/06 05:50:31  5-MIN KMSN 261150Z 00000KT 10SM CLR M04/M05 A3029 530 92 -1600 000/00 RMK AO2 SLP266 T10391050 10006 21044 51003
14837KMSN MSN20060326055509603/26/06 05:55:31  5-MIN KMSN 261155Z 00000KT 10SM CLR M04/M05 A3029 530 96 -1700 000/00 RMK AO2
14837KMSN MSN20060326060009603/26/06 06:00:31  5-MIN KMSN 261200Z 00000KT 10SM CLR M04/M05 A3029 530 96 -1700 000/00 RMK AO2
14837KMSN MSN20060326060509603/26/06 06:05:31  5-MIN KMSN 261205Z 00000KT 10SM CLR M04/M05 A3029 530 96 -1700 000/00 RMK AO2
14837KMSN MSN20060326061009603/26/06 06:10:31  5-MIN KMSN 261210Z 00000KT 10SM CLR M04/M05 A3029 520 96 -1700 000/00 RMK AO2
14837KMSN MSN20060326061509503/26/06 06:15:31  5-MIN KMSN 261215Z 00000KT 9SM CLR M04/M05 A3029 520 96 -1700 000/00 RMK AO2
14837KMSN MSN20060326062009503/26/06 06:20:31  5-MIN KMSN 261220Z 00000KT 9SM CLR M04/M05 A3029 520 96 -1700 000/00 RMK AO2
14837KMSN MSN20060326062509603/26/06 06:25:31  5-MIN KMSN 261225Z 00000KT 10SM CLR M04/M06 A3029 520 92 -1700 000/00 RMK AO2
14837KMSN MSN20060326063009603/26/06 06:30:31  5-MIN KMSN 261230Z 00000KT 10SM CLR M04/M06 A3029 520 92 -1700 000/00 RMK AO2
14837KMSN MSN20060326063509603/26/06 06:35:31  5-MIN KMSN 261235Z 00000KT 10SM CLR M04/M06 A3029 520 88 -1600 000/00 RMK AO2
14837KMSN MSN20060326064009603/26/06 06:40:31  5-MIN KMSN 261240Z 00000KT 10SM CLR M04/M06 A3029 520 88 -1600 000/00 RMK AO2
14837KMSN MSN20060326064509603/26/06 06:45:31  5-MIN KMSN 261245Z 00000KT 10SM CLR M03/M05 A3029 520 88 -1500 000/00 RMK AO2
14837KMSN MSN20060326065011303/26/06 06:50:31  5-MIN KMSN 261250Z 00000KT 10SM CLR M03/M04 A3029 520 88 -1400 000/00 RMK AO2 SLP267 T10281044
14837KMSN MSN20060326065509603/26/06 06:55:31  5-MIN KMSN 261255Z 00000KT 10SM CLR M02/M04 A3029 520 88 -1400 000/00 RMK AO2
14837KMSN MSN20060326070009603/26/06 07:00:31  5-MIN KMSN 261300Z 00000KT 10SM CLR M02/M04 A3029 520 85 -1300 000/00 RMK AO2
14837KMSN MSN20060326070509603/26/06 07:05:31  5-MIN KMSN 261305Z 00000KT 10SM CLR M02/M03 A3030 520 88 -1300 000/00 RMK AO2
14837KMSN MSN20060326071009603/26/06 07:10:31  5-MIN KMSN 261310Z 00000KT 10SM CLR M01/M03 A3030 520 88 -1200 000/00 RMK AO2
14837KMSN MSN20060326071509603/26/06 07:15:31  5-MIN KMSN 261315Z 00000KT 10SM CLR M01/M03 A3029 520 85 -1200 000/00 RMK AO2
14837KMSN MSN20060326072009603/26/06 07:20:31  5-MIN KMSN 261320Z 00000KT 10SM CLR M01/M03 A3030 520 85 -1200 000/00 RMK AO2
14837KMSN MSN20060326072509503/26/06 07:25:31  5-MIN KMSN 261325Z 00000KT 10SM CLR 00/M02 A3030 520 85 -1100 000/00 RMK AO2
14837KMSN MSN20060326073009503/26/06 07:30:31  5-MIN KMSN 261330Z 00000KT 10SM CLR 00/M02 A3030 520 85 -1100 000/00 RMK AO2
14837KMSN MSN20060326073509503/26/06 07:35:31  5-MIN KMSN 261335Z 00000KT 10SM CLR 01/M02 A3030 520 82 -1000 000/00 RMK AO2
14837KMSN MSN20060326074009503/26/06 07:40:31  5-MIN KMSN 261340Z 00000KT 10SM CLR 01/M02 A3030 520 85 -1000 000/00 RMK AO2
14837KMSN MSN20060326074509503/26/06 07:45:31  5-MIN KMSN 261345Z 00000KT 10SM CLR 01/M02 A3030 520 82 -1000 000/00 RMK AO2
14837KMSN MSN20060326075011203/26/06 07:50:31  5-MIN KMSN 261350Z 00000KT 10SM CLR 01/M02 A3030 520 85 -1000 000/00 RMK AO2 SLP268 T00061017
14837KMSN MSN20060326075509503/26/06 07:55:31  5-MIN KMSN 261355Z 00000KT 10SM CLR 01/M02 A3030 520 82 -1000 000/00 RMK AO2
14837KMSN MSN20060326080009403/26/06 08:00:31  5-MIN KMSN 261400Z 00000KT 10SM CLR 02/M01 A3030 520 82 -900 000/00 RMK AO2
14837KMSN MSN20060326080509403/26/06 08:05:31  5-MIN KMSN 261405Z 00000KT 10SM CLR 02/M01 A3030 520 82 -900 000/00 RMK AO2
14837KMSN MSN20060326081009403/26/06 08:10:31  5-MIN KMSN 261410Z 00000KT 10SM CLR 02/M01 A3030 520 82 -900 000/00 RMK AO2
14837KMSN MSN20060326081509403/26/06 08:15:31  5-MIN KMSN 261415Z 00000KT 10SM CLR 02/M01 A3029 520 82 -900 000/00 RMK AO2
14837KMSN MSN20060326082009403/26/06 08:20:31  5-MIN KMSN 261420Z 00000KT 10SM CLR 02/M02 A3030 520 78 -900 000/00 RMK AO2
14837KMSN MSN20060326082509403/26/06 08:25:31  5-MIN KMSN 261425Z 18003KT 10SM CLR 02/M02 A3030 520 75 -800 180/03 RMK AO2
14837KMSN MSN20060326083009403/26/06 08:30:31  5-MIN KMSN 261430Z VRB03KT 10SM CLR 02/M02 A3030 520 75 -800 VRB/03 RMK AO2
14837KMSN MSN20060326083509403/26/06 08:35:31  5-MIN KMSN 261435Z 18003KT 10SM CLR 03/M02 A3029 520 72 -700 180/03 RMK AO2
14837KMSN MSN20060326084009403/26/06 08:40:31  5-MIN KMSN 261440Z VRB03KT 10SM CLR 03/M02 A3029 520 69 -700 VRB/03 RMK AO2
14837KMSN MSN20060326084509403/26/06 08:45:31  5-MIN KMSN 261445Z 00000KT 10SM CLR 03/M02 A3029 520 69 -700 000/00 RMK AO2
14837KMSN MSN20060326085011703/26/06 08:50:31  5-MIN KMSN 261450Z 00000KT 10SM CLR 03/M02 A3029 520 67 -700 000/00 RMK AO2 SLP266 T00331022 53013
14837KMSN MSN20060326085509403/26/06 08:55:31  5-MIN KMSN 261455Z VRB04KT 10SM CLR 04/M03 A3029 520 62 -600 VRB/04 RMK AO2
14837KMSN MSN20060326090009403/26/06 09:00:31  5-MIN KMSN 261500Z VRB03KT 10SM CLR 04/M03 A3029 520 59 -600 VRB/03 RMK AO2
14837KMSN MSN20060326090509403/26/06 09:05:31  5-MIN KMSN 261505Z 00000KT 10SM CLR 04/M03 A3029 520 62 -600 000/00 RMK AO2
14837KMSN MSN20060326091009403/26/06 09:10:31  5-MIN KMSN 261510Z VRB03KT 10SM CLR 04/M04 A3029 520 52 -500 VRB/03 RMK AO2
14837KMSN MSN20060326091509403/26/06 09:15:31  5-MIN KMSN 261515Z VRB04KT 10SM CLR 04/M05 A3029 520 50 -500 VRB/04 RMK AO2
14837KMSN MSN20060326092009403/26/06 09:20:31  5-MIN KMSN 261520Z 12005KT 10SM CLR 04/M08 A3029 520 41 -500 120/05 RMK AO2
14837KMSN MSN20060326092509403/26/06 09:25:31  5-MIN KMSN 261525Z VRB03KT 10SM CLR 05/M07 A3029 520 41 -500 VRB/03 RMK AO2
14837KMSN MSN20060326093009403/26/06 09:30:31  5-MIN KMSN 261530Z 11004KT 10SM CLR 05/M08 A3029 520 39 -500 110/04 RMK AO2
14837KMSN MSN20060326093509403/26/06 09:35:31  5-MIN KMSN 261535Z 12005KT 10SM CLR 05/M08 A3029 520 37 -500 120/05 RMK AO2
14837KMSN MSN20060326094009403/26/06 09:40:31  5-MIN KMSN 261540Z VRB04KT 10SM CLR 05/M07 A3029 520 41 -500 VRB/04 RMK AO2
14837KMSN MSN20060326094509403/26/06 09:45:31  5-MIN KMSN 261545Z 12005KT 10SM CLR 05/M08 A3029 520 39 -500 120/05 RMK AO2
14837KMSN MSN20060326095011103/26/06 09:50:31  5-MIN KMSN 261550Z VRB03KT 10SM CLR 05/M08 A3029 520 39 -500 VRB/03 RMK AO2 SLP267 T00501078
14837KMSN MSN20060326095509403/26/06 09:55:31  5-MIN KMSN 261555Z VRB03KT 10SM CLR 06/M08 A3030 520 37 -400 VRB/03 RMK AO2
14837KMSN MSN20060326100009403/26/06 10:00:31  5-MIN KMSN 261600Z 12006KT 10SM CLR 06/M08 A3030 520 37 -400 110/06 RMK AO2
14837KMSN MSN20060326100509403/26/06 10:05:31  5-MIN KMSN 261605Z 15005KT 10SM CLR 06/M08 A3030 520 37 -400 150/05 RMK AO2
14837KMSN MSN20060326101009403/26/06 10:10:31  5-MIN KMSN 261610Z VRB04KT 10SM CLR 06/M08 A3030 520 37 -400 VRB/04 RMK AO2
14837KMSN MSN20060326101509403/26/06 10:15:31  5-MIN KMSN 261615Z VRB03KT 10SM CLR 06/M07 A3030 520 39 -400 VRB/03 RMK AO2
14837KMSN MSN20060326102009403/26/06 10:20:31  5-MIN KMSN 261620Z VRB04KT 10SM CLR 06/M08 A3030 520 37 -400 VRB/04 RMK AO2
14837KMSN MSN20060326102509403/26/06 10:25:31  5-MIN KMSN 261625Z 14005KT 10SM CLR 06/M08 A3030 520 36 -300 140/05 RMK AO2
14837KMSN MSN20060326103009403/26/06 10:30:31  5-MIN KMSN 261630Z 00000KT 10SM CLR 06/M08 A3029 520 36 -400 000/00 RMK AO2
14837KMSN MSN20060326103509403/26/06 10:35:31  5-MIN KMSN 261635Z VRB04KT 10SM CLR 07/M08 A3029 520 35 -300 VRB/04 RMK AO2
14837KMSN MSN20060326104009403/26/06 10:40:31  5-MIN KMSN 261640Z VRB03KT 10SM CLR 07/M08 A3029 520 35 -300 VRB/03 RMK AO2
14837KMSN MSN20060326104509403/26/06 10:45:31  5-MIN KMSN 261645Z VRB03KT 10SM CLR 06/M08 A3029 520 35 -300 VRB/03 RMK AO2
14837KMSN MSN20060326105011103/26/06 10:50:31  5-MIN KMSN 261650Z 18006KT 10SM CLR 07/M08 A3029 520 35 -300 180/06 RMK AO2 SLP265 T00671078
14837KMSN MSN20060326105509403/26/06 10:55:31  5-MIN KMSN 261655Z VRB03KT 10SM CLR 07/M08 A3029 520 33 -300 VRB/03 RMK AO2
14837KMSN MSN20060326110009403/26/06 11:00:31  5-MIN KMSN 261700Z 18004KT 10SM CLR 07/M08 A3029 530 33 -300 180/04 RMK AO2
14837KMSN MSN20060326110509403/26/06 11:05:31  5-MIN KMSN 261705Z VRB04KT 10SM CLR 07/M08 A3029 530 33 -300 VRB/04 RMK AO2
14837KMSN MSN20060326111009403/26/06 11:10:31  5-MIN KMSN 261710Z VRB03KT 10SM CLR 07/M08 A3029 530 35 -300 VRB/03 RMK AO2
14837KMSN MSN20060326111509403/26/06 11:15:31  5-MIN KMSN 261715Z VRB03KT 10SM CLR 07/M09 A3029 530 32 -300 VRB/03 RMK AO2
14837KMSN MSN20060326112009403/26/06 11:20:31  5-MIN KMSN 261720Z 29004KT 10SM CLR 07/M09 A3029 530 32 -300 290/04 RMK AO2
14837KMSN MSN20060326112509403/26/06 11:25:31  5-MIN KMSN 261725Z VRB05KT 10SM CLR 07/M08 A3029 530 33 -300 VRB/05 RMK AO2
14837KMSN MSN20060326113009403/26/06 11:30:31  5-MIN KMSN 261730Z VRB04KT 10SM CLR 07/M08 A3029 530 32 -200 VRB/04 RMK AO2
14837KMSN MSN20060326113509403/26/06 11:35:31  5-MIN KMSN 261735Z VRB03KT 10SM CLR 07/M08 A3028 530 32 -200 VRB/03 RMK AO2
14837KMSN MSN20060326114009403/26/06 11:40:31  5-MIN KMSN 261740Z 00000KT 10SM CLR 07/M08 A3028 530 32 -200 000/00 RMK AO2
14837KMSN MSN20060326114509103/26/06 11:45:31  5-MIN KMSN 261745Z VRB03KT 10SM CLR 08/M07 A3028 530 34 0 VRB/03 RMK AO2
14837KMSN MSN20060326115012903/26/06 11:50:31  5-MIN KMSN 261750Z VRB03KT 10SM CLR 08/M07 A3028 540 34 -100 VRB/03 RMK AO2 SLP259 T00781072 10083 21044 50002
14837KMSN MSN20060326115509403/26/06 11:55:31  5-MIN KMSN 261755Z 00000KT 10SM CLR 07/M08 A3027 540 33 -200 000/00 RMK AO2
14837KMSN MSN20060326120009103/26/06 12:00:31  5-MIN KMSN 261800Z VRB04KT 10SM CLR 08/M06 A3027 540 35 0 VRB/04 RMK AO2
14837KMSN MSN20060326120509403/26/06 12:05:31  5-MIN KMSN 261805Z 19007KT 10SM CLR 08/M07 A3027 540 34 -100 190/07 RMK AO2
14837KMSN MSN20060326121009403/26/06 12:10:31  5-MIN KMSN 261810Z 17005KT 10SM CLR 08/M07 A3027 540 34 -100 170/05 RMK AO2
14837KMSN MSN20060326121509103/26/06 12:15:31  5-MIN KMSN 261815Z 11006KT 10SM CLR 08/M08 A3027 540 31 0 110/06 RMK AO2
14837KMSN MSN20060326122009403/26/06 12:20:31  5-MIN KMSN 261820Z 17005KT 10SM CLR 07/M08 A3027 550 32 -200 170/05 RMK AO2
14837KMSN MSN20060326122509403/26/06 12:25:31  5-MIN KMSN 261825Z 17006KT 10SM CLR 07/M08 A3027 550 33 -200 170/06 RMK AO2
14837KMSN MSN20060326123009403/26/06 12:30:31  5-MIN KMSN 261830Z VRB05KT 10SM CLR 08/M08 A3026 550 32 -100 VRB/05 RMK AO2
14837KMSN MSN20060326123509103/26/06 12:35:31  5-MIN KMSN 261835Z VRB05KT 10SM CLR 08/M08 A3026 550 31 0 VRB/05 RMK AO2
14837KMSN MSN20060326124009103/26/06 12:40:31  5-MIN KMSN 261840Z 09005KT 10SM CLR 08/M08 A3026 550 31 0 090/05 RMK AO2
14837KMSN MSN20060326124509103/26/06 12:45:31  5-MIN KMSN 261845Z VRB03KT 10SM CLR 08/M08 A3025 560 31 0 VRB/03 RMK AO2
14837KMSN MSN20060326125011103/26/06 12:50:31  5-MIN KMSN 261850Z VRB03KT 10SM FEW050 08/M07 A3025 560 32 0 VRB/03 RMK AO2 SLP253 T00831072
14837KMSN MSN20060326125509103/26/06 12:55:31  5-MIN KMSN 261855Z 32004KT 10SM CLR 08/M08 A3025 560 31 0 320/04 RMK AO2
14837KMSN MSN20060326130009103/26/06 13:00:31  5-MIN KMSN 261900Z 00000KT 10SM CLR 08/M07 A3025 560 32 0 000/00 RMK AO2
14837KMSN MSN20060326130509103/26/06 13:05:31  5-MIN KMSN 261905Z 20005KT 10SM CLR 08/M07 A3024 570 32 0 200/05 RMK AO2
14837KMSN MSN20060326131009103/26/06 13:10:31  5-MIN KMSN 261910Z 19005KT 10SM CLR 08/M08 A3024 570 31 0 190/05 RMK AO2
14837KMSN MSN20060326131509103/26/06 13:15:31  5-MIN KMSN 261915Z 20007KT 10SM CLR 08/M08 A3024 570 31 0 200/07 RMK AO2
14837KMSN MSN20060326132009103/26/06 13:20:31  5-MIN KMSN 261920Z 22009KT 10SM CLR 08/M08 A3024 570 31 0 220/09 RMK AO2
14837KMSN MSN20060326132509403/26/06 13:25:31  5-MIN KMSN 261925Z 00000KT 10SM CLR 08/M08 A3024 570 32 -100 000/00 RMK AO2
14837KMSN MSN20060326133009103/26/06 13:30:31  5-MIN KMSN 261930Z 19004KT 10SM CLR 09/M07 A3023 570 31 0 190/04 RMK AO2
14837KMSN MSN20060326133509103/26/06 13:35:31  5-MIN KMSN 261935Z VRB04KT 10SM CLR 08/M08 A3023 580 31 0 VRB/04 RMK AO2
14837KMSN MSN20060326134009103/26/06 13:40:31  5-MIN KMSN 261940Z VRB03KT 10SM CLR 08/M08 A3023 580 31 0 VRB/03 RMK AO2
14837KMSN MSN20060326134509103/26/06 13:45:31  5-MIN KMSN 261945Z 13007KT 10SM CLR 09/M07 A3023 580 31 0 130/07 RMK AO2
14837KMSN MSN20060326135010803/26/06 13:50:31  5-MIN KMSN 261950Z VRB04KT 10SM CLR 08/M08 A3023 580 31 0 VRB/04 RMK AO2 SLP244 T00831078
14837KMSN MSN20060326135509103/26/06 13:55:31  5-MIN KMSN 261955Z VRB04KT 10SM CLR 09/M07 A3023 580 31 0 VRB/04 RMK AO2
14837KMSN MSN20060326140009403/26/06 14:00:31  5-MIN KMSN 262000Z VRB04KT 10SM FEW050 09/M07 A3022 580 31 0 VRB/04 RMK AO2
14837KMSN MSN20060326140509403/26/06 14:05:31  5-MIN KMSN 262005Z VRB03KT 10SM FEW050 09/M07 A3022 590 31 0 VRB/03 RMK AO2
14837KMSN MSN20060326141009403/26/06 14:10:31  5-MIN KMSN 262010Z VRB05KT 10SM FEW050 09/M07 A3022 580 31 0 VRB/05 RMK AO2
14837KMSN MSN20060326141509403/26/06 14:15:31  5-MIN KMSN 262015Z 18005KT 10SM FEW050 09/M08 A3022 590 30 0 180/05 RMK AO2
14837KMSN MSN20060326142009403/26/06 14:20:31  5-MIN KMSN 262020Z 00000KT 10SM FEW050 08/M08 A3022 590 31 0 000/00 RMK AO2
14837KMSN MSN20060326142509403/26/06 14:25:31  5-MIN KMSN 262025Z VRB06KT 10SM FEW050 09/M08 A3022 590 30 0 VRB/06 RMK AO2
14837KMSN MSN20060326143009403/26/06 14:30:31  5-MIN KMSN 262030Z VRB03KT 10SM FEW050 08/M08 A3022 590 31 0 VRB/03 RMK AO2
14837KMSN MSN20060326143509403/26/06 14:35:31  5-MIN KMSN 262035Z 11003KT 10SM FEW050 09/M08 A3022 590 30 0 110/03 RMK AO2
14837KMSN MSN20060326144009403/26/06 14:40:31  5-MIN KMSN 262040Z VRB04KT 10SM FEW050 09/M08 A3022 590 30 0 VRB/04 RMK AO2
14837KMSN MSN20060326144509603/26/06 14:45:31  5-MIN KMSN 262045Z 09005KT 10SM FEW050 09/M07 A3022 590 30 100 090/05 RMK AO2
14837KMSN MSN20060326145011703/26/06 14:50:31  5-MIN KMSN 262050Z 11004KT 10SM FEW050 09/M07 A3021 590 31 0 100/04 RMK AO2 SLP240 T00891072 58007
14837KMSN MSN20060326145509303/26/06 14:55:31  5-MIN KMSN 262055Z 08004KT 10SM CLR 09/M07 A3021 590 30 100 080/04 RMK AO2
14837KMSN MSN20060326150009303/26/06 15:00:31  5-MIN KMSN 262100Z 04003KT 10SM CLR 09/M07 A3021 600 30 100 040/03 RMK AO2
14837KMSN MSN20060326150509303/26/06 15:05:31  5-MIN KMSN 262105Z 00000KT 10SM CLR 09/M07 A3021 590 30 100 000/00 RMK AO2
14837KMSN MSN20060326151009303/26/06 15:10:31  5-MIN KMSN 262110Z VRB04KT 10SM CLR 09/M07 A3021 600 30 100 VRB/04 RMK AO2
14837KMSN MSN20060326151509303/26/06 15:15:31  5-MIN KMSN 262115Z 20005KT 10SM CLR 09/M07 A3021 600 30 100 200/05 RMK AO2
14837KMSN MSN20060326152009303/26/06 15:20:31  5-MIN KMSN 262120Z 18006KT 10SM CLR 09/M08 A3021 600 29 100 180/06 RMK AO2
14837KMSN MSN20060326152509303/26/06 15:25:31  5-MIN KMSN 262125Z 15007KT 10SM CLR 09/M08 A3021 600 29 100 150/07 RMK AO2
14837KMSN MSN20060326153009303/26/06 15:30:31  5-MIN KMSN 262130Z 18006KT 10SM CLR 09/M08 A3021 600 29 100 180/06 RMK AO2
14837KMSN MSN20060326153509303/26/06 15:35:31  5-MIN KMSN 262135Z 11006KT 10SM CLR 09/M07 A3021 600 30 100 110/06 RMK AO2
14837KMSN MSN20060326154009303/26/06 15:40:31  5-MIN KMSN 262140Z 12005KT 10SM CLR 09/M08 A3020 600 30 100 120/05 RMK AO2
14837KMSN MSN20060326154509303/26/06 15:45:31  5-MIN KMSN 262145Z VRB04KT 10SM CLR 09/M08 A3020 600 30 100 VRB/04 RMK AO2
14837KMSN MSN20060326155011003/26/06 15:50:31  5-MIN KMSN 262150Z 19007KT 10SM CLR 09/M08 A3020 600 29 100 190/07 RMK AO2 SLP236 T00941078
14837KMSN MSN20060326155509303/26/06 15:55:31  5-MIN KMSN 262155Z VRB03KT 10SM CLR 09/M08 A3020 610 28 100 VRB/03 RMK AO2
14837KMSN MSN20060326160009303/26/06 16:00:31  5-MIN KMSN 262200Z 00000KT 10SM CLR 09/M08 A3020 610 29 100 000/00 RMK AO2
14837KMSN MSN20060326160509303/26/06 16:05:31  5-MIN KMSN 262205Z VRB05KT 10SM CLR 09/M08 A3020 610 29 100 VRB/05 RMK AO2
14837KMSN MSN20060326161009303/26/06 16:10:31  5-MIN KMSN 262210Z 25004KT 10SM CLR 09/M08 A3020 610 28 100 250/04 RMK AO2
14837KMSN MSN20060326161509303/26/06 16:15:31  5-MIN KMSN 262215Z 00000KT 10SM CLR 09/M08 A3020 610 29 100 000/00 RMK AO2
14837KMSN MSN20060326162009303/26/06 16:20:31  5-MIN KMSN 262220Z 00000KT 10SM CLR 09/M08 A3019 610 27 100 000/00 RMK AO2
14837KMSN MSN20060326162509303/26/06 16:25:31  5-MIN KMSN 262225Z VRB04KT 10SM CLR 09/M08 A3019 610 29 100 VRB/04 RMK AO2
14837KMSN MSN20060326163009303/26/06 16:30:31  5-MIN KMSN 262230Z VRB03KT 10SM CLR 09/M08 A3019 610 29 100 VRB/03 RMK AO2
14837KMSN MSN20060326163509303/26/06 16:35:31  5-MIN KMSN 262235Z VRB06KT 10SM CLR 09/M08 A3019 620 27 100 VRB/06 RMK AO2
14837KMSN MSN20060326164009303/26/06 16:40:31  5-MIN KMSN 262240Z 23005KT 10SM CLR 09/M08 A3019 620 28 100 230/05 RMK AO2
14837KMSN MSN20060326164509303/26/06 16:45:31  5-MIN KMSN 262245Z 21003KT 10SM CLR 09/M08 A3019 620 28 100 210/03 RMK AO2
14837KMSN MSN20060326165011003/26/06 16:50:31  5-MIN KMSN 262250Z 00000KT 10SM CLR 09/M08 A3019 620 29 100 000/00 RMK AO2 SLP231 T00941078
14837KMSN MSN20060326165509303/26/06 16:55:31  5-MIN KMSN 262255Z 00000KT 10SM CLR 09/M08 A3019 620 28 100 000/00 RMK AO2
14837KMSN MSN20060326170009303/26/06 17:00:31  5-MIN KMSN 262300Z 20007KT 10SM CLR 09/M08 A3019 620 28 100 200/07 RMK AO2
14837KMSN MSN20060326170509303/26/06 17:05:31  5-MIN KMSN 262305Z 12004KT 10SM CLR 09/M08 A3019 620 30 100 120/04 RMK AO2
14837KMSN MSN20060326171009303/26/06 17:10:31  5-MIN KMSN 262310Z 16003KT 10SM CLR 09/M08 A3019 620 30 100 160/03 RMK AO2
14837KMSN MSN20060326171509303/26/06 17:15:31  5-MIN KMSN 262315Z 13007KT 10SM CLR 09/M08 A3019 620 30 100 130/07 RMK AO2
14837KMSN MSN20060326172009303/26/06 17:20:31  5-MIN KMSN 262320Z 11007KT 10SM CLR 09/M07 A3019 610 31 100 110/07 RMK AO2
14837KMSN MSN20060326172509303/26/06 17:25:31  5-MIN KMSN 262325Z 12005KT 10SM CLR 09/M07 A3019 610 31 100 120/05 RMK AO2
14837KMSN MSN20060326173009103/26/06 17:30:31  5-MIN KMSN 262330Z 16008KT 10SM CLR 08/M07 A3019 620 32 0 160/08 RMK AO2
14837KMSN MSN20060326173509103/26/06 17:35:31  5-MIN KMSN 262335Z 15006KT 10SM CLR 08/M07 A3019 620 32 0 150/06 RMK AO2
14837KMSN MSN20060326174009103/26/06 17:40:31  5-MIN KMSN 262340Z 16005KT 10SM CLR 08/M07 A3019 610 34 0 160/05 RMK AO2
14837KMSN MSN20060326174509103/26/06 17:45:31  5-MIN KMSN 262345Z 14006KT 10SM CLR 08/M07 A3019 620 34 0 140/06 RMK AO2
14837KMSN MSN20060326175012903/26/06 17:50:31  5-MIN KMSN 262350Z 13008KT 10SM CLR 07/M07 A3019 610 35 -100 120/08 RMK AO2 SLP233 T00721072 10100 20072 56020
14837KMSN MSN20060326175509403/26/06 17:55:31  5-MIN KMSN 262355Z 12008KT 10SM CLR 07/M07 A3019 610 35 -100 110/08 RMK AO2
14837KMSN MSN20060326180009403/26/06 18:00:31  5-MIN KMSN 270000Z 13008KT 10SM CLR 07/M07 A3019 610 35 -100 130/08 RMK AO2
14837KMSN MSN20060326180509403/26/06 18:05:31  5-MIN KMSN 270005Z 13007KT 10SM CLR 07/M07 A3020 610 35 -100 130/07 RMK AO2
14837KMSN MSN20060326181009403/26/06 18:10:31  5-MIN KMSN 270010Z 13009KT 10SM CLR 07/M07 A3020 610 36 -200 130/09 RMK AO2
14837KMSN MSN20060326181509403/26/06 18:15:31  5-MIN KMSN 270015Z 13009KT 10SM CLR 07/M07 A3020 610 36 -200 130/09 RMK AO2
14837KMSN MSN20060326182009403/26/06 18:20:31  5-MIN KMSN 270020Z 13007KT 10SM CLR 06/M07 A3020 610 38 -200 130/07 RMK AO2
14837KMSN MSN20060326182509403/26/06 18:25:31  5-MIN KMSN 270025Z 13007KT 10SM CLR 06/M07 A3020 610 38 -200 130/07 RMK AO2
14837KMSN MSN20060326183009403/26/06 18:30:31  5-MIN KMSN 270030Z 13008KT 10SM CLR 06/M07 A3020 600 38 -200 130/08 RMK AO2
14837KMSN MSN20060326183509403/26/06 18:35:31  5-MIN KMSN 270035Z 13007KT 10SM CLR 06/M07 A3020 600 39 -300 130/07 RMK AO2
14837KMSN MSN20060326184009403/26/06 18:40:31  5-MIN KMSN 270040Z 13007KT 10SM CLR 05/M07 A3020 600 41 -400 130/07 RMK AO2
14837KMSN MSN20060326184509403/26/06 18:45:31  5-MIN KMSN 270045Z 13007KT 10SM CLR 04/M07 A3020 600 42 -400 130/07 RMK AO2
14837KMSN MSN20060326185011103/26/06 18:50:31  5-MIN KMSN 270050Z 13006KT 10SM CLR 04/M07 A3020 600 42 -400 130/06 RMK AO2 SLP237 T00441072
14837KMSN MSN20060326185509403/26/06 18:55:31  5-MIN KMSN 270055Z 13006KT 10SM CLR 04/M08 A3020 600 41 -400 130/06 RMK AO2
14837KMSN MSN20060326190009403/26/06 19:00:31  5-MIN KMSN 270100Z 14006KT 10SM CLR 05/M08 A3021 600 39 -400 140/06 RMK AO2
14837KMSN MSN20060326190509403/26/06 19:05:31  5-MIN KMSN 270105Z 13006KT 10SM CLR 05/M08 A3021 600 39 -400 130/06 RMK AO2
14837KMSN MSN20060326191009403/26/06 19:10:31  5-MIN KMSN 270110Z 13005KT 10SM CLR 04/M08 A3021 600 41 -400 130/05 RMK AO2
14837KMSN MSN20060326191509403/26/06 19:15:31  5-MIN KMSN 270115Z 13005KT 10SM CLR 04/M08 A3021 600 42 -500 130/05 RMK AO2
14837KMSN MSN20060326192009403/26/06 19:20:31  5-MIN KMSN 270120Z 13006KT 10SM CLR 04/M08 A3021 600 40 -500 120/06 RMK AO2
14837KMSN MSN20060326192509403/26/06 19:25:31  5-MIN KMSN 270125Z 13005KT 10SM CLR 04/M08 A3021 600 39 -400 130/05 RMK AO2
14837KMSN MSN20060326193009403/26/06 19:30:31  5-MIN KMSN 270130Z 13005KT 10SM CLR 03/M08 A3021 600 42 -600 120/05 RMK AO2
14837KMSN MSN20060326193509403/26/06 19:35:31  5-MIN KMSN 270135Z 13005KT 10SM CLR 03/M08 A3021 590 44 -700 120/05 RMK AO2
14837KMSN MSN20060326194009403/26/06 19:40:31  5-MIN KMSN 270140Z 12005KT 10SM CLR 03/M08 A3021 590 44 -700 120/05 RMK AO2
14837KMSN MSN20060326194509403/26/06 19:45:31  5-MIN KMSN 270145Z 11003KT 10SM CLR 02/M08 A3021 590 45 -700 110/03 RMK AO2
14837KMSN MSN20060326195011103/26/06 19:50:31  5-MIN KMSN 270150Z 11003KT 10SM CLR 03/M08 A3022 590 46 -700 110/03 RMK AO2 SLP241 T00281078
14837KMSN MSN20060326195509403/26/06 19:55:31  5-MIN KMSN 270155Z VRB03KT 10SM CLR 03/M08 A3021 590 46 -700 VRB/03 RMK AO2
14837KMSN MSN20060326200009403/26/06 20:00:31  5-MIN KMSN 270200Z 10008KT 10SM CLR 02/M08 A3022 590 47 -700 100/08 RMK AO2
14837KMSN MSN20060326200510003/26/06 20:05:31  5-MIN KMSN 270205Z 13011G17KT 10SM CLR 03/M07 A3022 580 46 -600 130/11G17 RMK AO2
14837KMSN MSN20060326201009403/26/06 20:10:31  5-MIN KMSN 270210Z 13012KT 10SM CLR 04/M07 A3023 580 46 -500 130/12 RMK AO2
14837KMSN MSN20060326201509403/26/06 20:15:31  5-MIN KMSN 270215Z 14010KT 10SM CLR 04/M07 A3023 580 46 -500 130/10 RMK AO2
14837KMSN MSN20060326202009403/26/06 20:20:31  5-MIN KMSN 270220Z 14011KT 10SM CLR 03/M06 A3023 580 50 -600 140/11 RMK AO2
14837KMSN MSN20060326202509403/26/06 20:25:31  5-MIN KMSN 270225Z 14011KT 10SM CLR 03/M06 A3023 580 50 -600 140/11 RMK AO2
14837KMSN MSN20060326203009403/26/06 20:30:31  5-MIN KMSN 270230Z 13009KT 10SM CLR 03/M06 A3023 580 50 -600 130/09 RMK AO2
14837KMSN MSN20060326203509403/26/06 20:35:31  5-MIN KMSN 270235Z 13010KT 10SM CLR 03/M06 A3023 580 52 -700 130/10 RMK AO2
14837KMSN MSN20060326204009403/26/06 20:40:31  5-MIN KMSN 270240Z 14010KT 10SM CLR 03/M06 A3023 580 52 -700 130/10 RMK AO2
14837KMSN MSN20060326204509403/26/06 20:45:31  5-MIN KMSN 270245Z 14010KT 10SM CLR 03/M06 A3023 580 52 -700 140/10 RMK AO2
14837KMSN MSN20060326205011703/26/06 20:50:31  5-MIN KMSN 270250Z 14010KT 10SM CLR 03/M07 A3023 580 50 -700 140/10 RMK AO2 SLP246 T00281067 55007
14837KMSN MSN20060326205509403/26/06 20:55:31  5-MIN KMSN 270255Z 14010KT 10SM CLR 03/M07 A3023 580 50 -700 140/10 RMK AO2
14837KMSN MSN20060326210009403/26/06 21:00:31  5-MIN KMSN 270300Z 14009KT 10SM CLR 03/M07 A3023 580 50 -700 140/09 RMK AO2
14837KMSN MSN20060326210509403/26/06 21:05:31  5-MIN KMSN 270305Z 14009KT 10SM CLR 02/M07 A3023 580 52 -700 140/09 RMK AO2
14837KMSN MSN20060326211009403/26/06 21:10:31  5-MIN KMSN 270310Z 14010KT 10SM CLR 02/M07 A3023 580 52 -700 140/10 RMK AO2
14837KMSN MSN20060326211509403/26/06 21:15:31  5-MIN KMSN 270315Z 14009KT 10SM CLR 02/M07 A3023 580 52 -700 140/09 RMK AO2
14837KMSN MSN20060326212009403/26/06 21:20:31  5-MIN KMSN 270320Z 15008KT 10SM CLR 02/M07 A3023 570 52 -700 150/08 RMK AO2
14837KMSN MSN20060326212509403/26/06 21:25:31  5-MIN KMSN 270325Z 15009KT 10SM CLR 02/M07 A3024 570 52 -800 140/09 RMK AO2
14837KMSN MSN20060326213009403/26/06 21:30:31  5-MIN KMSN 270330Z 15008KT 10SM CLR 02/M07 A3024 570 54 -800 150/08 RMK AO2
14837KMSN MSN20060326213509403/26/06 21:35:31  5-MIN KMSN 270335Z 15008KT 10SM CLR 02/M07 A3024 570 54 -800 140/08 RMK AO2
14837KMSN MSN20060326214009403/26/06 21:40:31  5-MIN KMSN 270340Z 14007KT 10SM CLR 02/M07 A3023 580 52 -800 140/07 RMK AO2
14837KMSN MSN20060326214509403/26/06 21:45:31  5-MIN KMSN 270345Z 14008KT 10SM CLR 02/M07 A3023 570 52 -800 140/08 RMK AO2
14837KMSN MSN20060326215011103/26/06 21:50:31  5-MIN KMSN 270350Z 14008KT 10SM CLR 02/M07 A3023 570 52 -800 140/08 RMK AO2 SLP246 T00171072
14837KMSN MSN20060326215509403/26/06 21:55:31  5-MIN KMSN 270355Z 14006KT 10SM CLR 01/M07 A3023 580 54 -900 140/06 RMK AO2
14837KMSN MSN20060326220009403/26/06 22:00:31  5-MIN KMSN 270400Z 14007KT 10SM CLR 01/M07 A3023 570 54 -900 140/07 RMK AO2
14837KMSN MSN20060326220509403/26/06 22:05:31  5-MIN KMSN 270405Z 14006KT 10SM CLR 01/M07 A3024 570 54 -900 140/06 RMK AO2
14837KMSN MSN20060326221009403/26/06 22:10:31  5-MIN KMSN 270410Z 14007KT 10SM CLR 01/M07 A3024 570 54 -900 140/07 RMK AO2
14837KMSN MSN20060326221509403/26/06 22:15:31  5-MIN KMSN 270415Z 14007KT 10SM CLR 01/M07 A3024 570 54 -900 140/07 RMK AO2
14837KMSN MSN20060326222009503/26/06 22:20:31  5-MIN KMSN 270420Z 14006KT 10SM CLR 01/M07 A3024 570 56 -1000 140/06 RMK AO2
14837KMSN MSN20060326222509503/26/06 22:25:31  5-MIN KMSN 270425Z 14007KT 10SM CLR 01/M07 A3024 570 56 -1000 140/07 RMK AO2
14837KMSN MSN20060326223009403/26/06 22:30:31  5-MIN KMSN 270430Z 14007KT 10SM CLR 01/M07 A3024 570 54 -900 140/07 RMK AO2
14837KMSN MSN20060326223509503/26/06 22:35:31  5-MIN KMSN 270435Z 14007KT 10SM CLR 01/M07 A3024 570 56 -1000 140/07 RMK AO2
14837KMSN MSN20060326224009503/26/06 22:40:31  5-MIN KMSN 270440Z 14006KT 10SM CLR 01/M07 A3024 570 56 -1000 140/06 RMK AO2
14837KMSN MSN20060326224509503/26/06 22:45:31  5-MIN KMSN 270445Z 15007KT 10SM CLR 01/M07 A3024 570 56 -1000 140/07 RMK AO2
14837KMSN MSN20060326225011203/26/06 22:50:31  5-MIN KMSN 270450Z 14006KT 10SM CLR 01/M07 A3024 570 56 -1000 140/06 RMK AO2 SLP248 T00061072
14837KMSN MSN20060326225509503/26/06 22:55:31  5-MIN KMSN 270455Z 14007KT 10SM CLR 01/M07 A3024 570 56 -1000 140/07 RMK AO2
14837KMSN MSN20060326230009503/26/06 23:00:31  5-MIN KMSN 270500Z 14007KT 10SM CLR 01/M07 A3024 570 56 -1000 140/07 RMK AO2
14837KMSN MSN20060326230509503/26/06 23:05:31  5-MIN KMSN 270505Z 14006KT 10SM CLR 01/M07 A3024 570 56 -1000 140/06 RMK AO2
14837KMSN MSN20060326231009503/26/06 23:10:31  5-MIN KMSN 270510Z 14006KT 10SM CLR 00/M07 A3024 570 58 -1000 130/06 RMK AO2
14837KMSN MSN20060326231509503/26/06 23:15:31  5-MIN KMSN 270515Z 14006KT 10SM CLR 00/M07 A3024 570 58 -1000 140/06 RMK AO2
14837KMSN MSN20060326232009503/26/06 23:20:31  5-MIN KMSN 270520Z 15004KT 10SM CLR 00/M07 A3025 560 58 -1000 150/04 RMK AO2
14837KMSN MSN20060326232509503/26/06 23:25:31  5-MIN KMSN 270525Z 14003KT 10SM CLR 01/M07 A3025 560 56 -1000 140/03 RMK AO2
14837KMSN MSN20060326233009503/26/06 23:30:31  5-MIN KMSN 270530Z 15003KT 10SM CLR 00/M07 A3025 560 58 -1000 150/03 RMK AO2
14837KMSN MSN20060326233509503/26/06 23:35:31  5-MIN KMSN 270535Z 16004KT 10SM CLR 00/M07 A3025 560 58 -1000 160/04 RMK AO2
14837KMSN MSN20060326234009503/26/06 23:40:31  5-MIN KMSN 270540Z 14003KT 10SM CLR 00/M08 A3025 560 56 -1000 140/03 RMK AO2
14837KMSN MSN20060326234509503/26/06 23:45:31  5-MIN KMSN 270545Z 12003KT 10SM CLR 00/M08 A3025 560 56 -1000 120/03 RMK AO2
14837KMSN MSN20060326235014103/26/06 23:50:31  5-MIN KMSN 270550Z 00000KT 10SM CLR M01/M08 A3025 560 58 -1100 000/00 RMK AO2 SLP252 T10061078 10072 21006 401001044 53013
14837KMSN MSN20060326235509603/26/06 23:55:31  5-MIN KMSN 270555Z 00000KT 10SM CLR M01/M08 A3025 560 60 -1200 000/00 RMK AO2
14837KMSN MSN20060327000009603/27/06 00:00:38  5-MIN KMSN 270600Z 00000KT 10SM CLR M01/M07 A3026 550 63 -1200 000/00 RMK AO2
14837KMSN MSN20060327000509603/27/06 00:05:31  5-MIN KMSN 270605Z 00000KT 10SM CLR M01/M07 A3026 550 63 -1200 000/00 RMK AO2
14837KMSN MSN20060327001009603/27/06 00:10:31  5-MIN KMSN 270610Z 18004KT 10SM CLR M01/M07 A3026 550 61 -1100 180/04 RMK AO2
14837KMSN MSN20060327001509503/27/06 00:15:31  5-MIN KMSN 270615Z 16005KT 10SM CLR 01/M08 A3026 560 54 -1000 160/05 RMK AO2
14837KMSN MSN20060327002009603/27/06 00:20:31  5-MIN KMSN 270620Z 15005KT 10SM CLR M01/M08 A3025 560 58 -1100 150/05 RMK AO2
14837KMSN MSN20060327002509603/27/06 00:25:31  5-MIN KMSN 270625Z 16004KT 10SM CLR M01/M08 A3026 560 58 -1100 150/04 RMK AO2
14837KMSN MSN20060327003009503/27/06 00:30:31  5-MIN KMSN 270630Z 18004KT 10SM CLR 00/M07 A3026 550 58 -1100 180/04 RMK AO2
14837KMSN MSN20060327003509603/27/06 00:35:31  5-MIN KMSN 270635Z VRB03KT 10SM CLR M01/M07 A3026 550 61 -1100 VRB/03 RMK AO2
14837KMSN MSN20060327004009603/27/06 00:40:31  5-MIN KMSN 270640Z 23003KT 10SM CLR M01/M07 A3026 550 61 -1100 230/03 RMK AO2
14837KMSN MSN20060327004509503/27/06 00:45:31  5-MIN KMSN 270645Z 00000KT 10SM CLR 00/M07 A3026 550 58 -1100 000/00 RMK AO2
14837KMSN MSN20060327005011203/27/06 00:50:31  5-MIN KMSN 270650Z 16004KT 10SM CLR 00/M07 A3026 560 58 -1100 160/04 RMK AO2 SLP253 T00001072
14837KMSN MSN20060327005509503/27/06 00:55:31  5-MIN KMSN 270655Z 16004KT 10SM CLR 00/M07 A3025 560 58 -1100 160/04 RMK AO2
14837KMSN MSN20060327010009503/27/06 01:00:31  5-MIN KMSN 270700Z 16005KT 10SM CLR 00/M07 A3025 560 58 -1100 160/05 RMK AO2
14837KMSN MSN20060327010509603/27/06 01:05:31  5-MIN KMSN 270705Z 15006KT 10SM CLR M01/M07 A3025 560 61 -1100 150/06 RMK AO2
14837KMSN MSN20060327011009603/27/06 01:10:31  5-MIN KMSN 270710Z 14005KT 10SM CLR M01/M07 A3025 560 63 -1200 140/05 RMK AO2
14837KMSN MSN20060327011509603/27/06 01:15:31  5-MIN KMSN 270715Z 14005KT 10SM CLR M01/M08 A3025 560 60 -1200 140/05 RMK AO2
14837KMSN MSN20060327012009603/27/06 01:20:31  5-MIN KMSN 270720Z 14004KT 10SM CLR M01/M07 A3025 570 63 -1200 140/04 RMK AO2
14837KMSN MSN20060327012509603/27/06 01:25:31  5-MIN KMSN 270725Z 14005KT 10SM CLR M01/M07 A3024 570 61 -1100 140/05 RMK AO2
14837KMSN MSN20060327013009603/27/06 01:30:31  5-MIN KMSN 270730Z 14005KT 10SM CLR M01/M07 A3024 570 63 -1200 140/05 RMK AO2
14837KMSN MSN20060327013509603/27/06 01:35:31  5-MIN KMSN 270735Z 15004KT 10SM CLR M01/M07 A3024 570 63 -1200 140/04 RMK AO2
14837KMSN MSN20060327014009603/27/06 01:40:31  5-MIN KMSN 270740Z 17005KT 10SM CLR M01/M07 A3024 570 63 -1200 160/05 RMK AO2
14837KMSN MSN20060327014509603/27/06 01:45:31  5-MIN KMSN 270745Z 17004KT 10SM CLR M01/M07 A3024 570 61 -1100 170/04 RMK AO2
14837KMSN MSN20060327015011303/27/06 01:50:31  5-MIN KMSN 270750Z 17004KT 10SM CLR M01/M07 A3024 570 61 -1100 170/04 RMK AO2 SLP249 T10061072
14837KMSN MSN20060327015509603/27/06 01:55:31  5-MIN KMSN 270755Z 17005KT 10SM CLR M01/M07 A3024 570 61 -1100 170/05 RMK AO2
14837KMSN MSN20060327020009603/27/06 02:00:31  5-MIN KMSN 270800Z 18005KT 10SM CLR M01/M07 A3024 570 63 -1100 180/05 RMK AO2
14837KMSN MSN20060327020509603/27/06 02:05:31  5-MIN KMSN 270805Z 17005KT 10SM CLR M01/M07 A3024 570 63 -1100 170/05 RMK AO2
14837KMSN MSN20060327021009603/27/06 02:10:31  5-MIN KMSN 270810Z 17005KT 10SM CLR M01/M07 A3024 570 63 -1100 160/05 RMK AO2
14837KMSN MSN20060327021509603/27/06 02:15:31  5-MIN KMSN 270815Z 17004KT 10SM CLR M01/M07 A3024 570 66 -1200 170/04 RMK AO2
14837KMSN MSN20060327022009603/27/06 02:20:31  5-MIN KMSN 270820Z 17004KT 10SM CLR M01/M07 A3024 570 66 -1200 170/04 RMK AO2
14837KMSN MSN20060327022509603/27/06 02:25:31  5-MIN KMSN 270825Z 17004KT 10SM CLR M01/M07 A3024 570 66 -1200 170/04 RMK AO2
14837KMSN MSN20060327023009603/27/06 02:30:31  5-MIN KMSN 270830Z 18003KT 10SM CLR M01/M07 A3024 570 66 -1200 180/03 RMK AO2
14837KMSN MSN20060327023509603/27/06 02:35:31  5-MIN KMSN 270835Z 17004KT 10SM CLR M01/M07 A3023 580 66 -1200 170/04 RMK AO2
14837KMSN MSN20060327024009603/27/06 02:40:31  5-MIN KMSN 270840Z 18004KT 10SM CLR M01/M07 A3023 580 66 -1200 170/04 RMK AO2
14837KMSN MSN20060327024509603/27/06 02:45:31  5-MIN KMSN 270845Z 17004KT 10SM CLR M01/M07 A3023 580 66 -1200 170/04 RMK AO2
14837KMSN MSN20060327025011903/27/06 02:50:31  5-MIN KMSN 270850Z 18003KT 10SM CLR M01/M07 A3023 580 66 -1200 180/03 RMK AO2 SLP246 T10111067 53006
14837KMSN MSN20060327025509603/27/06 02:55:31  5-MIN KMSN 270855Z 18003KT 10SM CLR M01/M07 A3023 580 66 -1200 180/03 RMK AO2
14837KMSN MSN20060327030009603/27/06 03:00:31  5-MIN KMSN 270900Z 00000KT 10SM CLR M01/M07 A3023 580 66 -1200 000/00 RMK AO2
14837KMSN MSN20060327030509603/27/06 03:05:31  5-MIN KMSN 270905Z 18003KT 10SM CLR M01/M07 A3023 580 66 -1200 170/03 RMK AO2
14837KMSN MSN20060327031009603/27/06 03:10:31  5-MIN KMSN 270910Z 17003KT 10SM CLR M01/M07 A3023 580 66 -1200 170/03 RMK AO2
14837KMSN MSN20060327031509603/27/06 03:15:31  5-MIN KMSN 270915Z 18004KT 10SM CLR M01/M07 A3023 580 66 -1200 180/04 RMK AO2
14837KMSN MSN20060327032009603/27/06 03:20:31  5-MIN KMSN 270920Z 17003KT 10SM CLR M01/M06 A3023 580 69 -1200 170/03 RMK AO2
14837KMSN MSN20060327032509603/27/06 03:25:31  5-MIN KMSN 270925Z 17003KT 10SM CLR M01/M06 A3023 580 69 -1200 170/03 RMK AO2
14837KMSN MSN20060327033009603/27/06 03:30:31  5-MIN KMSN 270930Z 00000KT 10SM CLR M01/M06 A3023 580 66 -1100 000/00 RMK AO2
14837KMSN MSN20060327033509603/27/06 03:35:31  5-MIN KMSN 270935Z 16003KT 10SM CLR M01/M07 A3023 580 66 -1200 160/03 RMK AO2
14837KMSN MSN20060327034009603/27/06 03:40:31  5-MIN KMSN 270940Z 15003KT 10SM CLR M01/M07 A3023 580 66 -1200 150/03 RMK AO2
14837KMSN MSN20060327034509603/27/06 03:45:31  5-MIN KMSN 270945Z 14003KT 10SM CLR M01/M07 A3022 580 66 -1200 140/03 RMK AO2
14837KMSN MSN20060327035011303/27/06 03:50:31  5-MIN KMSN 270950Z 14004KT 10SM CLR M01/M07 A3022 590 66 -1200 140/04 RMK AO2 SLP241 T10111067
14837KMSN MSN20060327035509603/27/06 03:55:31  5-MIN KMSN 270955Z 12004KT 10SM CLR M02/M07 A3022 590 69 -1200 120/04 RMK AO2
14837KMSN MSN20060327040009603/27/06 04:00:31  5-MIN KMSN 271000Z 11004KT 10SM CLR M02/M07 A3022 590 69 -1300 110/04 RMK AO2
14837KMSN MSN20060327040509603/27/06 04:05:31  5-MIN KMSN 271005Z 11004KT 10SM CLR M03/M07 A3022 580 71 -1400 110/04 RMK AO2
14837KMSN MSN20060327041009603/27/06 04:10:31  5-MIN KMSN 271010Z 12005KT 10SM CLR M02/M07 A3022 580 69 -1200 120/05 RMK AO2
14837KMSN MSN20060327041509603/27/06 04:15:31  5-MIN KMSN 271015Z 13004KT 10SM CLR M01/M07 A3022 580 66 -1200 130/04 RMK AO2
14837KMSN MSN20060327042009603/27/06 04:20:31  5-MIN KMSN 271020Z 14003KT 10SM CLR M01/M07 A3022 580 66 -1200 130/03 RMK AO2
14837KMSN MSN20060327042509603/27/06 04:25:31  5-MIN KMSN 271025Z 15003KT 10SM CLR M02/M07 A3022 580 69 -1200 140/03 RMK AO2
14837KMSN MSN20060327043009603/27/06 04:30:31  5-MIN KMSN 271030Z 14003KT 10SM CLR M03/M07 A3022 580 71 -1400 140/03 RMK AO2
14837KMSN MSN20060327043509603/27/06 04:35:31  5-MIN KMSN 271035Z 13004KT 10SM CLR M03/M07 A3022 580 71 -1400 130/04 RMK AO2
14837KMSN MSN20060327044009603/27/06 04:40:31  5-MIN KMSN 271040Z 11004KT 10SM CLR M02/M07 A3022 590 69 -1300 110/04 RMK AO2
14837KMSN MSN20060327044509603/27/06 04:45:31  5-MIN KMSN 271045Z 11004KT 10SM CLR M03/M07 A3022 580 74 -1400 110/04 RMK AO2
14837KMSN MSN20060327045011303/27/06 04:50:31  5-MIN KMSN 271050Z 11003KT 10SM CLR M04/M08 A3022 590 74 -1500 100/03 RMK AO2 SLP242 T10391078
14837KMSN MSN20060327045509603/27/06 04:55:31  5-MIN KMSN 271055Z 00000KT 10SM CLR M04/M08 A3022 590 74 -1500 000/00 RMK AO2
14837KMSN MSN20060327050009603/27/06 05:00:31  5-MIN KMSN 271100Z 00000KT 10SM CLR M04/M07 A3022 590 78 -1500 000/00 RMK AO2
14837KMSN MSN20060327050509603/27/06 05:05:31  5-MIN KMSN 271105Z 00000KT 10SM CLR M03/M07 A3022 590 71 -1400 000/00 RMK AO2
14837KMSN MSN20060327051009603/27/06 05:10:31  5-MIN KMSN 271110Z 00000KT 10SM CLR M03/M07 A3022 590 74 -1400 000/00 RMK AO2
14837KMSN MSN20060327051509603/27/06 05:15:31  5-MIN KMSN 271115Z 00000KT 10SM CLR M03/M07 A3022 590 74 -1400 000/00 RMK AO2
14837KMSN MSN20060327052009603/27/06 05:20:31  5-MIN KMSN 271120Z 09003KT 10SM CLR M03/M07 A3022 590 74 -1400 090/03 RMK AO2
14837KMSN MSN20060327052509603/27/06 05:25:31  5-MIN KMSN 271125Z 11004KT 10SM CLR M03/M07 A3022 590 71 -1400 100/04 RMK AO2
14837KMSN MSN20060327053009603/27/06 05:30:31  5-MIN KMSN 271130Z 11004KT 10SM CLR M02/M07 A3021 590 69 -1200 110/04 RMK AO2
14837KMSN MSN20060327053509603/27/06 05:35:31  5-MIN KMSN 271135Z 12004KT 10SM CLR M02/M07 A3022 590 69 -1200 120/04 RMK AO2
14837KMSN MSN20060327054009603/27/06 05:40:31  5-MIN KMSN 271140Z 12004KT 10SM CLR M02/M07 A3022 590 69 -1200 120/04 RMK AO2
14837KMSN MSN20060327054509603/27/06 05:45:31  5-MIN KMSN 271145Z 13005KT 10SM CLR M02/M07 A3022 590 69 -1200 130/05 RMK AO2
14837KMSN MSN20060327055013103/27/06 05:50:31  5-MIN KMSN 271150Z 13005KT 10SM CLR M02/M07 A3021 590 69 -1200 130/05 RMK AO2 SLP239 T10171067 10006 21039 58006
14837KMSN MSN20060327055509603/27/06 05:55:31  5-MIN KMSN 271155Z 14005KT 10SM CLR M02/M07 A3022 590 69 -1200 140/05 RMK AO2
14837KMSN MSN20060327060009603/27/06 06:00:31  5-MIN KMSN 271200Z 14005KT 10SM CLR M01/M07 A3021 590 66 -1100 140/05 RMK AO2
14837KMSN MSN20060327060509603/27/06 06:05:31  5-MIN KMSN 271205Z 13004KT 10SM CLR M01/M07 A3022 590 66 -1100 130/04 RMK AO2
14837KMSN MSN20060327061009603/27/06 06:10:31  5-MIN KMSN 271210Z 13004KT 10SM CLR M01/M07 A3022 590 66 -1100 130/04 RMK AO2
14837KMSN MSN20060327061509603/27/06 06:15:31  5-MIN KMSN 271215Z 12004KT 10SM CLR M01/M07 A3022 590 66 -1100 120/04 RMK AO2
14837KMSN MSN20060327062009603/27/06 06:20:31  5-MIN KMSN 271220Z 11003KT 10SM CLR M01/M07 A3022 590 66 -1100 110/03 RMK AO2
14837KMSN MSN20060327062509603/27/06 06:25:31  5-MIN KMSN 271225Z 12003KT 10SM CLR M01/M07 A3022 590 66 -1200 120/03 RMK AO2
14837KMSN MSN20060327063009603/27/06 06:30:31  5-MIN KMSN 271230Z 11003KT 10SM CLR M01/M07 A3022 590 63 -1100 110/03 RMK AO2
14837KMSN MSN20060327063509603/27/06 06:35:31  5-MIN KMSN 271235Z 11003KT 10SM CLR M01/M06 A3022 590 66 -1100 110/03 RMK AO2
14837KMSN MSN20060327064009603/27/06 06:40:31  5-MIN KMSN 271240Z 12004KT 10SM CLR M01/M06 A3022 590 66 -1100 120/04 RMK AO2
14837KMSN MSN20060327064509603/27/06 06:45:31  5-MIN KMSN 271245Z 11004KT 10SM CLR M01/M06 A3022 590 69 -1100 110/04 RMK AO2
14837KMSN MSN20060327065011303/27/06 06:50:31  5-MIN KMSN 271250Z 12003KT 10SM CLR M01/M05 A3022 590 72 -1100 120/03 RMK AO2 SLP243 T10061050
14837KMSN MSN20060327065509503/27/06 06:55:31  5-MIN KMSN 271255Z 13005KT 10SM CLR 00/M05 A3022 590 69 -1000 130/05 RMK AO2
14837KMSN MSN20060327070009503/27/06 07:00:31  5-MIN KMSN 271300Z 13006KT 10SM CLR 00/M05 A3022 580 69 -1000 130/06 RMK AO2
14837KMSN MSN20060327070509403/27/06 07:05:31  5-MIN KMSN 271305Z 13006KT 10SM CLR 01/M06 A3022 580 63 -900 120/06 RMK AO2
14837KMSN MSN20060327071009403/27/06 07:10:31  5-MIN KMSN 271310Z 13006KT 10SM CLR 01/M05 A3022 590 66 -900 120/06 RMK AO2
14837KMSN MSN20060327071509403/27/06 07:15:31  5-MIN KMSN 271315Z 13006KT 10SM CLR 01/M05 A3022 580 66 -900 130/06 RMK AO2
14837KMSN MSN20060327072009403/27/06 07:20:31  5-MIN KMSN 271320Z 13005KT 10SM CLR 01/M05 A3022 590 64 -900 130/05 RMK AO2
14837KMSN MSN20060327072509403/27/06 07:25:31  5-MIN KMSN 271325Z 15006KT 10SM CLR 02/M04 A3022 580 64 -800 150/06 RMK AO2
14837KMSN MSN20060327073009403/27/06 07:30:31  5-MIN KMSN 271330Z 15007KT 10SM CLR 02/M04 A3023 580 64 -800 150/07 RMK AO2
14837KMSN MSN20060327073509403/27/06 07:35:31  5-MIN KMSN 271335Z 15007KT 10SM CLR 02/M04 A3022 590 64 -800 140/07 RMK AO2
14837KMSN MSN20060327074009403/27/06 07:40:31  5-MIN KMSN 271340Z 15007KT 10SM CLR 02/M04 A3022 590 61 -700 150/07 RMK AO2
14837KMSN MSN20060327074509403/27/06 07:45:31  5-MIN KMSN 271345Z 15006KT 10SM CLR 02/M04 A3022 590 61 -700 150/06 RMK AO2
14837KMSN MSN20060327075011103/27/06 07:50:31  5-MIN KMSN 271350Z 15006KT 10SM CLR 03/M04 A3022 580 59 -700 150/06 RMK AO2 SLP243 T00281044
14837KMSN MSN20060327075509403/27/06 07:55:31  5-MIN KMSN 271355Z 16007KT 10SM CLR 03/M04 A3022 580 59 -700 160/07 RMK AO2
14837KMSN MSN20060327080009403/27/06 08:00:31  5-MIN KMSN 271400Z 16008KT 10SM CLR 03/M04 A3022 590 59 -600 150/08 RMK AO2
14837KMSN MSN20060327080509403/27/06 08:05:31  5-MIN KMSN 271405Z 15009KT 10SM CLR 04/M04 A3022 590 57 -500 150/09 RMK AO2
14837KMSN MSN20060327081009403/27/06 08:10:31  5-MIN KMSN 271410Z 16008KT 10SM CLR 04/M04 A3022 590 54 -500 160/08 RMK AO2
14837KMSN MSN20060327081509403/27/06 08:15:31  5-MIN KMSN 271415Z 16007KT 10SM CLR 04/M04 A3022 590 57 -500 160/07 RMK AO2
14837KMSN MSN20060327082009403/27/06 08:20:31  5-MIN KMSN 271420Z 16008KT 10SM CLR 04/M04 A3022 590 52 -500 160/08 RMK AO2
14837KMSN MSN20060327082509403/27/06 08:25:31  5-MIN KMSN 271425Z 16009KT 10SM CLR 05/M04 A3021 590 52 -400 160/09 RMK AO2
14837KMSN MSN20060327083009403/27/06 08:30:31  5-MIN KMSN 271430Z 14009KT 10SM CLR 05/M04 A3021 600 52 -400 140/09 RMK AO2
14837KMSN MSN20060327083509403/27/06 08:35:31  5-MIN KMSN 271435Z 15009KT 10SM CLR 05/M04 A3021 600 52 -400 150/09 RMK AO2
14837KMSN MSN20060327084009403/27/06 08:40:31  5-MIN KMSN 271440Z 17009KT 10SM CLR 05/M04 A3021 600 52 -400 170/09 RMK AO2
14837KMSN MSN20060327084509403/27/06 08:45:31  5-MIN KMSN 271445Z 16009KT 10SM CLR 06/M04 A3021 600 50 -300 160/09 RMK AO2
14837KMSN MSN20060327085011703/27/06 08:50:31  5-MIN KMSN 271450Z 16010KT 10SM CLR 06/M04 A3020 610 48 -200 160/10 RMK AO2 SLP234 T00611039 56006
14837KMSN MSN20060327085509403/27/06 08:55:31  5-MIN KMSN 271455Z 16011KT 10SM CLR 06/M04 A3020 610 48 -200 160/11 RMK AO2
14837KMSN MSN20060327090009403/27/06 09:00:31  5-MIN KMSN 271500Z 16012KT 10SM CLR 06/M04 A3020 610 48 -200 160/12 RMK AO2
14837KMSN MSN20060327090509403/27/06 09:05:31  5-MIN KMSN 271505Z 15013KT 10SM CLR 07/M04 A3020 610 47 -200 150/13 RMK AO2
14837KMSN MSN20060327091009403/27/06 09:10:31  5-MIN KMSN 271510Z 16013KT 10SM CLR 07/M04 A3020 610 47 -200 160/13 RMK AO2
14837KMSN MSN20060327091509403/27/06 09:15:31  5-MIN KMSN 271515Z 15013KT 10SM CLR 07/M04 A3019 610 47 -200 150/13 RMK AO2
14837KMSN MSN20060327092009403/27/06 09:20:31  5-MIN KMSN 271520Z 16014KT 10SM CLR 07/M04 A3019 610 47 -200 160/14 RMK AO2
14837KMSN MSN20060327092509403/27/06 09:25:31  5-MIN KMSN 271525Z 16016KT 10SM CLR 07/M04 A3019 610 45 -100 160/16 RMK AO2
14837KMSN MSN20060327093009403/27/06 09:30:31  5-MIN KMSN 271530Z 15014KT 10SM CLR 07/M04 A3019 610 45 -100 150/14 RMK AO2
14837KMSN MSN20060327093509403/27/06 09:35:31  5-MIN KMSN 271535Z 16013KT 10SM CLR 07/M04 A3019 610 47 -200 160/13 RMK AO2
14837KMSN MSN20060327094009403/27/06 09:40:31  5-MIN KMSN 271540Z 14015KT 10SM CLR 07/M04 A3019 620 45 -100 140/15 RMK AO2
14837KMSN MSN20060327094509103/27/06 09:45:31  5-MIN KMSN 271545Z 16016KT 10SM CLR 08/M04 A3019 620 43 0 160/16 RMK AO2
14837KMSN MSN20060327095010803/27/06 09:50:31  5-MIN KMSN 271550Z 16015KT 10SM CLR 08/M04 A3019 620 43 0 160/15 RMK AO2 SLP229 T00781039
14837KMSN MSN20060327095509103/27/06 09:55:31  5-MIN KMSN 271555Z 17013KT 10SM CLR 08/M04 A3019 620 43 0 170/13 RMK AO2
14837KMSN MSN20060327100009103/27/06 10:00:31  5-MIN KMSN 271600Z 16016KT 10SM CLR 08/M04 A3019 620 40 0 160/16 RMK AO2
14837KMSN MSN20060327100509303/27/06 10:05:31  5-MIN KMSN 271605Z 15012KT 10SM CLR 09/M04 A3019 620 38 100 150/12 RMK AO2
14837KMSN MSN20060327101009303/27/06 10:10:31  5-MIN KMSN 271610Z 17014KT 10SM CLR 09/M04 A3019 620 38 100 160/14 RMK AO2
14837KMSN MSN20060327101509703/27/06 10:15:31  5-MIN KMSN 271615Z 16016G20KT 10SM CLR 08/M05 A3019 620 40 0 160/16G20 RMK AO2
14837KMSN MSN20060327102009103/27/06 10:20:31  5-MIN KMSN 271620Z 17014KT 10SM CLR 08/M05 A3019 620 40 0 170/14 RMK AO2
14837KMSN MSN20060327102509103/27/06 10:25:31  5-MIN KMSN 271625Z 15012KT 10SM CLR 08/M04 A3019 620 41 0 150/12 RMK AO2
14837KMSN MSN20060327103009103/27/06 10:30:31  5-MIN KMSN 271630Z 18014KT 10SM CLR 08/M04 A3019 620 40 0 180/14 RMK AO2
14837KMSN MSN20060327103509103/27/06 10:35:31  5-MIN KMSN 271635Z 18013KT 10SM CLR 08/M05 A3019 620 40 0 180/13 RMK AO2
14837KMSN MSN20060327104009103/27/06 10:40:31  5-MIN KMSN 271640Z 18012KT 10SM CLR 08/M04 A3018 620 41 0 180/12 RMK AO2
14837KMSN MSN20060327104509103/27/06 10:45:31  5-MIN KMSN 271645Z 15013KT 10SM CLR 08/M04 A3018 620 40 0 150/13 RMK AO2
14837KMSN MSN20060327105010803/27/06 10:50:31  5-MIN KMSN 271650Z 15012KT 10SM CLR 08/M04 A3018 620 40 0 150/12 RMK AO2 SLP228 T00831044
14837KMSN MSN20060327105509103/27/06 10:55:31  5-MIN KMSN 271655Z 15015KT 10SM CLR 08/M05 A3018 620 38 0 150/15 RMK AO2
14837KMSN MSN20060327110009303/27/06 11:00:31  5-MIN KMSN 271700Z 16016KT 10SM CLR 09/M04 A3018 620 38 100 150/16 RMK AO2
14837KMSN MSN20060327110509103/27/06 11:05:31  5-MIN KMSN 271705Z 15012KT 10SM CLR 08/M05 A3018 630 38 0 150/12 RMK AO2
14837KMSN MSN20060327111009403/27/06 11:10:31  5-MIN KMSN 271710Z 16015KT 10SM FEW120 08/M05 A3018 630 38 0 160/15 RMK AO2
14837KMSN MSN20060327111509403/27/06 11:15:31  5-MIN KMSN 271715Z 16012KT 10SM FEW120 08/M04 A3018 630 40 0 160/12 RMK AO2
14837KMSN MSN20060327112009403/27/06 11:20:31  5-MIN KMSN 271720Z 15014KT 10SM FEW120 08/M04 A3018 630 40 0 150/14 RMK AO2
14837KMSN MSN20060327112509603/27/06 11:25:31  5-MIN KMSN 271725Z 14015KT 10SM FEW120 09/M04 A3017 630 38 100 140/15 RMK AO2
14837KMSN MSN20060327113009603/27/06 11:30:31  5-MIN KMSN 271730Z 13015KT 10SM FEW120 09/M04 A3017 630 38 100 130/15 RMK AO2
14837KMSN MSN20060327113509603/27/06 11:35:31  5-MIN KMSN 271735Z 15014KT 10SM FEW120 09/M04 A3017 640 39 200 150/14 RMK AO2
14837KMSN MSN20060327114009903/27/06 11:40:31  5-MIN KMSN 271740Z 15014G19KT 10SM CLR 09/M04 A3017 640 38 100 150/14G19 RMK AO2
14837KMSN MSN20060327114509903/27/06 11:45:31  5-MIN KMSN 271745Z 16015G19KT 10SM CLR 09/M04 A3017 640 38 100 160/15G19 RMK AO2
14837KMSN MSN20060327115013803/27/06 11:50:31  5-MIN KMSN 271750Z 16012KT 10SM FEW050 SCT120 09/M04 A3017 640 40 100 160/12 RMK AO2 SLP223 T00891039 10094 21017 58005
14837KMSN MSN20060327115510303/27/06 11:55:31  5-MIN KMSN 271755Z 18012KT 10SM FEW050 SCT120 09/M04 A3017 640 38 100 180/12 RMK AO2
14837KMSN MSN20060327120010303/27/06 12:00:31  5-MIN KMSN 271800Z 15011KT 10SM FEW050 SCT120 09/M04 A3016 640 39 200 150/11 RMK AO2
14837KMSN MSN20060327120510303/27/06 12:05:31  5-MIN KMSN 271805Z 13012KT 10SM FEW050 SCT120 09/M04 A3016 640 39 200 130/12 RMK AO2
14837KMSN MSN20060327121010303/27/06 12:10:31  5-MIN KMSN 271810Z 16010KT 10SM FEW050 SCT120 09/M04 A3016 650 39 200 160/10 RMK AO2
14837KMSN MSN20060327121510903/27/06 12:15:31  5-MIN KMSN 271815Z 16013G19KT 10SM FEW050 SCT120 09/M04 A3015 650 39 200 160/13G19 RMK AO2
14837KMSN MSN20060327122010903/27/06 12:20:31  5-MIN KMSN 271820Z 14011G19KT 10SM FEW050 SCT120 09/M04 A3015 650 40 100 130/11G19 RMK AO2
14837KMSN MSN20060327122510303/27/06 12:25:31  5-MIN KMSN 271825Z 14015KT 10SM FEW050 SCT120 09/M04 A3014 660 39 200 140/15 RMK AO2
14837KMSN MSN20060327123009603/27/06 12:30:31  5-MIN KMSN 271830Z 18011KT 10SM FEW120 09/M04 A3014 660 38 100 180/11 RMK AO2
14837KMSN MSN20060327123509603/27/06 12:35:31  5-MIN KMSN 271835Z 16015KT 10SM FEW120 09/M04 A3014 670 38 100 160/15 RMK AO2
14837KMSN MSN20060327124009603/27/06 12:40:31  5-MIN KMSN 271840Z 16013KT 10SM FEW120 09/M04 A3013 670 38 100 160/13 RMK AO2
14837KMSN MSN20060327124509603/27/06 12:45:31  5-MIN KMSN 271845Z 17013KT 10SM FEW120 09/M04 A3013 670 40 100 170/13 RMK AO2
14837KMSN MSN20060327125011303/27/06 12:50:31  5-MIN KMSN 271850Z 17011KT 10SM SCT120 09/M04 A3013 670 40 100 170/11 RMK AO2 SLP211 T00891039
14837KMSN MSN20060327125509603/27/06 12:55:31  5-MIN KMSN 271855Z 16013KT 10SM BKN120 08/M04 A3013 670 42 100 160/13 RMK AO2
14837KMSN MSN20060327130009603/27/06 13:00:31  5-MIN KMSN 271900Z 17010KT 10SM BKN120 09/M04 A3013 670 40 100 170/10 RMK AO2
14837KMSN MSN20060327130509603/27/06 13:05:31  5-MIN KMSN 271905Z 17011KT 10SM BKN120 08/M04 A3013 670 42 100 170/11 RMK AO2
14837KMSN MSN20060327131009603/27/06 13:10:31  5-MIN KMSN 271910Z 17014KT 10SM BKN120 08/M04 A3012 680 42 100 170/14 RMK AO2
14837KMSN MSN20060327131509603/27/06 13:15:31  5-MIN KMSN 271915Z 18010KT 10SM BKN120 08/M04 A3012 680 42 100 180/10 RMK AO2
14837KMSN MSN20060327132009603/27/06 13:20:31  5-MIN KMSN 271920Z 15012KT 10SM BKN120 08/M04 A3012 680 42 100 150/12 RMK AO2
14837KMSN MSN20060327132509603/27/06 13:25:31  5-MIN KMSN 271925Z 16011KT 10SM BKN120 08/M04 A3011 690 42 100 160/11 RMK AO2
14837KMSN MSN20060327133009603/27/06 13:30:31  5-MIN KMSN 271930Z 13010KT 10SM BKN120 08/M04 A3011 690 42 100 130/10 RMK AO2
14837KMSN MSN20060327133509603/27/06 13:35:31  5-MIN KMSN 271935Z 15010KT 10SM BKN120 08/M04 A3011 690 42 100 150/10 RMK AO2
14837KMSN MSN20060327134009603/27/06 13:40:31  5-MIN KMSN 271940Z 15010KT 10SM BKN120 09/M04 A3010 690 40 200 150/10 RMK AO2
14837KMSN MSN20060327134509603/27/06 13:45:31  5-MIN KMSN 271945Z 17010KT 10SM BKN120 08/M04 A3010 700 42 100 170/10 RMK AO2
14837KMSN MSN20060327135011303/27/06 13:50:31  5-MIN KMSN 271950Z 15012KT 10SM BKN120 09/M04 A3010 700 40 200 150/12 RMK AO2 SLP200 T00891039
14837KMSN MSN20060327135510303/27/06 13:55:31  5-MIN KMSN 271955Z 14012KT 10SM FEW050 BKN120 08/M04 A3010 700 42 100 140/12 RMK AO2
14837KMSN MSN20060327140010303/27/06 14:00:31  5-MIN KMSN 272000Z 14013KT 10SM FEW050 BKN120 08/M04 A3010 700 42 100 140/13 RMK AO2
14837KMSN MSN20060327140510303/27/06 14:05:31  5-MIN KMSN 272005Z 13012KT 10SM FEW050 BKN120 08/M04 A3010 700 42 100 130/12 RMK AO2
14837KMSN MSN20060327141010303/27/06 14:10:31  5-MIN KMSN 272010Z 13010KT 10SM FEW050 BKN120 08/M04 A3010 700 42 100 130/10 RMK AO2
14837KMSN MSN20060327141510303/27/06 14:15:31  5-MIN KMSN 272015Z 15012KT 10SM FEW050 BKN120 09/M03 A3009 700 42 200 150/12 RMK AO2
14837KMSN MSN20060327142010303/27/06 14:20:31  5-MIN KMSN 272020Z 16011KT 10SM FEW050 BKN120 09/M04 A3009 700 40 200 160/11 RMK AO2
14837KMSN MSN20060327142510303/27/06 14:25:31  5-MIN KMSN 272025Z 14010KT 10SM FEW050 BKN120 09/M03 A3009 710 42 200 140/10 RMK AO2
14837KMSN MSN20060327143009603/27/06 14:30:31  5-MIN KMSN 272030Z 14013KT 10SM FEW050 09/M03 A3009 710 42 200 140/13 RMK AO2
14837KMSN MSN20060327143509603/27/06 14:35:31  5-MIN KMSN 272035Z 14009KT 10SM FEW050 09/M03 A3009 710 42 200 140/09 RMK AO2
14837KMSN MSN20060327144009603/27/06 14:40:31  5-MIN KMSN 272040Z 15010KT 10SM FEW050 09/M03 A3008 710 40 300 150/10 RMK AO2
14837KMSN MSN20060327144509603/27/06 14:45:31  5-MIN KMSN 272045Z 14009KT 10SM SCT050 09/M03 A3008 710 40 300 140/09 RMK AO2
14837KMSN MSN20060327145011903/27/06 14:50:31  5-MIN KMSN 272050Z 15011KT 10SM SCT050 09/M03 A3008 720 40 300 150/11 RMK AO2 SLP193 T00941033 58012
14837KMSN MSN20060327145510303/27/06 14:55:31  5-MIN KMSN 272055Z 14012KT 10SM BKN050 BKN075 09/M03 A3008 720 42 200 140/12 RMK AO2
14837KMSN MSN20060327150010303/27/06 15:00:31  5-MIN KMSN 272100Z 16013KT 10SM BKN050 BKN075 09/M03 A3008 720 43 200 160/13 RMK AO2
14837KMSN MSN20060327150510903/27/06 15:05:31  5-MIN KMSN 272105Z 19014G22KT 10SM BKN050 BKN075 08/M02 A3008 720 47 100 190/14G22 RMK AO2
14837KMSN MSN20060327151010703/27/06 15:10:31  5-MIN KMSN 272110Z 18015G22KT 10SM BKN050 BKN075 07/M01 A3008 720 55 0 180/15G22 RMK AO2
14837KMSN MSN20060327151510103/27/06 15:15:31  5-MIN KMSN 272115Z 18017KT 10SM BKN050 BKN060 07/M01 A3008 720 57 0 180/17 RMK AO2
14837KMSN MSN20060327152009403/27/06 15:20:31  5-MIN KMSN 272120Z 17018KT 10SM BKN050 07/M01 A3008 720 60 0 170/18 RMK AO2
14837KMSN MSN20060327152510103/27/06 15:25:31  5-MIN KMSN 272125Z 18016KT 10SM SCT042 BKN050 07/M01 A3008 720 60 0 180/16 RMK AO2
14837KMSN MSN20060327153010303/27/06 15:30:31  5-MIN KMSN 272130Z 17015KT 10SM BKN040 BKN050 06/00 A3008 720 65 -100 170/15 RMK AO2
14837KMSN MSN20060327153511803/27/06 15:35:31  5-MIN KMSN 272135Z 16015KT 9SM -RA BKN038 BKN048 06/01 A3008 710 70 -100 160/15 RMK AO2 RAB32 P0000
14837KMSN MSN20060327154011103/27/06 15:40:31  5-MIN KMSN 272140Z 16016KT 9SM -RA BKN036 06/01 A3008 720 67 -100 160/16 RMK AO2 RAB32 P0000
14837KMSN MSN20060327154511103/27/06 15:45:31  5-MIN KMSN 272145Z 17014KT 9SM -RA OVC032 06/01 A3008 720 73 -200 160/14 RMK AO2 RAB32 P0000
14837KMSN MSN20060327155012803/27/06 15:50:31  5-MIN KMSN 272150Z 16013KT 8SM -RA OVC030 06/01 A3008 720 73 -200 160/13 RMK AO2 RAB32 SLP195 P0000 T00560011
14837KMSN MSN20060327155510503/27/06 15:55:31  5-MIN KMSN 272155Z 17014KT 8SM -RA OVC028 06/01 A3008 720 73 -200 170/14 RMK AO2 P0000
14837KMSN MSN20060327160010503/27/06 16:00:31  5-MIN KMSN 272200Z 16015KT 9SM -RA OVC028 06/01 A3008 710 73 -200 160/15 RMK AO2 P0000
14837KMSN MSN20060327160511203/27/06 16:05:31  5-MIN KMSN 272205Z 16013KT 8SM -RA BKN028 OVC046 05/01 A3008 710 76 -200 160/13 RMK AO2 P0000
14837KMSN MSN20060327161011203/27/06 16:10:31  5-MIN KMSN 272210Z 14010KT 7SM -RA BKN026 OVC046 05/01 A3008 720 76 -200 140/10 RMK AO2 P0000
14837KMSN MSN20060327161511203/27/06 16:15:31  5-MIN KMSN 272215Z 13009KT 6SM -RA SCT028 OVC046 05/02 A3008 720 79 -200 130/09 RMK AO2 P0000
14837KMSN MSN20060327162011203/27/06 16:20:31  5-MIN KMSN 272220Z 14009KT 7SM -RA SCT028 OVC044 05/02 A3008 720 79 -200 140/09 RMK AO2 P0000
14837KMSN MSN20060327162511203/27/06 16:25:31  5-MIN KMSN 272225Z 15013KT 8SM -RA FEW028 OVC044 05/02 A3008 720 79 -200 150/13 RMK AO2 P0000
14837KMSN MSN20060327163011203/27/06 16:30:31  5-MIN KMSN 272230Z 15011KT 7SM -RA FEW028 OVC044 05/02 A3008 720 79 -200 150/11 RMK AO2 P0000
14837KMSN MSN20060327163510503/27/06 16:35:31  5-MIN KMSN 272235Z 14010KT 7SM -RA OVC046 05/02 A3008 720 79 -200 140/10 RMK AO2 P0000
14837KMSN MSN20060327164010503/27/06 16:40:31  5-MIN KMSN 272240Z 15009KT 7SM -RA OVC048 05/02 A3008 720 79 -200 140/09 RMK AO2 P0000
14837KMSN MSN20060327164511203/27/06 16:45:31  5-MIN KMSN 272245Z 14010KT 7SM -RA SCT045 OVC050 05/02 A3008 720 79 -200 140/10 RMK AO2 P0000
14837KMSN MSN20060327165012903/27/06 16:50:31  5-MIN KMSN 272250Z 14010KT 7SM -RA SCT045 OVC050 05/02 A3008 720 79 -200 140/10 RMK AO2 SLP196 P0000 T00500017
14837KMSN MSN20060327165511203/27/06 16:55:31  5-MIN KMSN 272255Z 13008KT 7SM -RA SCT045 OVC050 05/02 A3008 720 79 -200 130/08 RMK AO2 P0000
14837KMSN MSN20060327170011203/27/06 17:00:31  5-MIN KMSN 272300Z 13008KT 7SM -RA BKN043 OVC050 05/02 A3008 720 79 -200 120/08 RMK AO2 P0000
14837KMSN MSN20060327170511203/27/06 17:05:31  5-MIN KMSN 272305Z 12007KT 7SM -RA BKN043 OVC050 05/02 A3007 720 79 -200 110/07 RMK AO2 P0000
14837KMSN MSN20060327171011203/27/06 17:10:31  5-MIN KMSN 272310Z 12009KT 8SM -RA BKN045 OVC055 05/02 A3007 720 79 -200 120/09 RMK AO2 P0000
14837KMSN MSN20060327171510503/27/06 17:15:31  5-MIN KMSN 272315Z 12009KT 8SM -RA OVC045 05/02 A3007 720 79 -200 120/09 RMK AO2 P0000
14837KMSN MSN20060327172011203/27/06 17:20:31  5-MIN KMSN 272320Z 12010KT 8SM -RA BKN045 OVC070 05/02 A3007 720 79 -200 120/10 RMK AO2 P0000
14837KMSN MSN20060327172512303/27/06 17:25:31  5-MIN KMSN 272325Z 12008KT 8SM -DZ BKN045 OVC070 05/02 A3007 730 79 -200 120/08 RMK AO2 RAE25DZB25 P0000
14837KMSN MSN20060327173012303/27/06 17:30:31  5-MIN KMSN 272330Z 12010KT 8SM -DZ SCT040 OVC047 05/02 A3007 730 79 -200 120/10 RMK AO2 RAE25DZB25 P0000
14837KMSN MSN20060327173512303/27/06 17:35:31  5-MIN KMSN 272335Z 12010KT 7SM -DZ BKN036 OVC047 05/02 A3007 730 79 -200 120/10 RMK AO2 RAE25DZB25 P0000
14837KMSN MSN20060327174012303/27/06 17:40:31  5-MIN KMSN 272340Z 12010KT 7SM -DZ BKN032 OVC047 04/02 A3007 730 82 -300 120/10 RMK AO2 RAE25DZB25 P0000
14837KMSN MSN20060327174512303/27/06 17:45:31  5-MIN KMSN 272345Z 13007KT 6SM -DZ BKN032 OVC047 05/02 A3007 730 79 -200 130/07 RMK AO2 RAE25DZB25 P0000
14837KMSN MSN20060327175017003/27/06 17:50:31  5-MIN KMSN 272350Z 12007KT 7SM -RA BKN032 OVC060 04/02 A3007 730 82 -300 120/07 RMK AO2 RAE25B47DZB25E47 SLP191 P0000 60000 T00440017 10094 20044 56028
14837KMSN MSN20060327175511203/27/06 17:55:31  5-MIN KMSN 272355Z 13010KT 8SM -RA BKN032 OVC060 05/02 A3007 730 79 -200 120/10 RMK AO2 P0000
14837KMSN MSN20060327180011203/27/06 18:00:31  5-MIN KMSN 280000Z 13008KT 6SM -RA BKN030 OVC060 04/02 A3007 720 82 -300 130/08 RMK AO2 P0000
14837KMSN MSN20060327180511203/27/06 18:05:31  5-MIN KMSN 280005Z 12011KT 4SM -RA BKN030 OVC060 04/01 A3007 720 79 -300 120/11 RMK AO2 P0000
14837KMSN MSN20060327181011203/27/06 18:10:31  5-MIN KMSN 280010Z 12011KT 4SM -RA BKN030 OVC060 04/02 A3007 720 82 -300 120/11 RMK AO2 P0000
14837KMSN MSN20060327181511203/27/06 18:15:31  5-MIN KMSN 280015Z 12011KT 4SM -RA SCT030 OVC060 04/02 A3007 720 82 -300 120/11 RMK AO2 P0000
14837KMSN MSN20060327182011203/27/06 18:20:31  5-MIN KMSN 280020Z 11012KT 5SM -RA FEW030 OVC060 04/02 A3007 720 82 -300 110/12 RMK AO2 P0000
14837KMSN MSN20060327182511203/27/06 18:25:31  5-MIN KMSN 280025Z 12010KT 5SM -RA FEW030 OVC060 04/02 A3008 720 82 -300 110/10 RMK AO2 P0000
14837KMSN MSN20060327183011203/27/06 18:30:31  5-MIN KMSN 280030Z 12011KT 5SM -RA FEW030 OVC060 04/02 A3008 720 82 -300 120/11 RMK AO2 P0000
14837KMSN MSN20060327183511203/27/06 18:35:31  5-MIN KMSN 280035Z 11010KT 5SM -RA FEW030 OVC060 04/02 A3008 720 82 -300 110/10 RMK AO2 P0000
14837KMSN MSN20060327184010503/27/06 18:40:31  5-MIN KMSN 280040Z 12011KT 5SM -RA OVC060 04/01 A3007 720 79 -300 110/11 RMK AO2 P0000
14837KMSN MSN20060327184510503/27/06 18:45:31  5-MIN KMSN 280045Z 12009KT 5SM -RA OVC060 04/02 A3007 720 82 -300 120/09 RMK AO2 P0000
14837KMSN MSN20060327185012203/27/06 18:50:31  5-MIN KMSN 280050Z 12010KT 9SM -RA OVC060 04/01 A3008 720 79 -300 120/10 RMK AO2 SLP193 P0000 T00440011
14837KMSN MSN20060327185510503/27/06 18:55:31  5-MIN KMSN 280055Z 12009KT 9SM -RA OVC055 04/02 A3008 720 82 -300 120/09 RMK AO2 P0000
14837KMSN MSN20060327190010503/27/06 19:00:31  5-MIN KMSN 280100Z 11009KT 9SM -RA OVC055 04/02 A3008 720 85 -400 110/09 RMK AO2 P0000
14837KMSN MSN20060327190510503/27/06 19:05:31  5-MIN KMSN 280105Z 11011KT 9SM -RA OVC055 04/02 A3008 720 85 -400 110/11 RMK AO2 P0000
14837KMSN MSN20060327191010503/27/06 19:10:31  5-MIN KMSN 280110Z 11009KT 8SM -RA OVC055 04/02 A3008 720 85 -400 110/09 RMK AO2 P0000
14837KMSN MSN20060327191510503/27/06 19:15:31  5-MIN KMSN 280115Z 11009KT 8SM -RA OVC055 04/02 A3008 720 85 -400 110/09 RMK AO2 P0000
14837KMSN MSN20060327192010503/27/06 19:20:31  5-MIN KMSN 280120Z 12010KT 8SM -RA OVC055 04/02 A3008 720 85 -400 120/10 RMK AO2 P0000
14837KMSN MSN20060327192510503/27/06 19:25:31  5-MIN KMSN 280125Z 12009KT 8SM -RA OVC055 04/02 A3008 720 85 -400 120/09 RMK AO2 P0000
14837KMSN MSN20060327193011203/27/06 19:30:31  5-MIN KMSN 280130Z 13010KT 8SM -RA FEW027 OVC060 04/02 A3008 720 85 -400 120/10 RMK AO2 P0000
14837KMSN MSN20060327193511203/27/06 19:35:31  5-MIN KMSN 280135Z 12010KT 8SM -RA FEW027 OVC060 04/02 A3008 720 85 -400 120/10 RMK AO2 P0000
14837KMSN MSN20060327194011203/27/06 19:40:31  5-MIN KMSN 280140Z 11007KT 8SM -RA FEW025 OVC055 04/02 A3008 710 85 -400 110/07 RMK AO2 P0000
14837KMSN MSN20060327194511203/27/06 19:45:31  5-MIN KMSN 280145Z 10009KT 8SM -RA FEW025 OVC055 04/02 A3008 710 85 -400 100/09 RMK AO2 P0000
14837KMSN MSN20060327195012903/27/06 19:50:31  5-MIN KMSN 280150Z 10007KT 8SM -RA FEW025 OVC055 04/02 A3008 710 85 -400 100/07 RMK AO2 SLP195 P0000 T00390017
14837KMSN MSN20060327195510503/27/06 19:55:31  5-MIN KMSN 280155Z 11008KT 7SM -RA OVC050 04/02 A3009 710 85 -400 100/08 RMK AO2 P0000
14837KMSN MSN20060327200010503/27/06 20:00:31  5-MIN KMSN 280200Z 10007KT 7SM -RA OVC050 04/02 A3009 710 85 -400 100/07 RMK AO2 P0000
14837KMSN MSN20060327200511203/27/06 20:05:31  5-MIN KMSN 280205Z 11007KT 7SM -RA FEW022 OVC048 04/02 A3009 710 85 -400 110/07 RMK AO2 P0000
14837KMSN MSN20060327201011203/27/06 20:10:31  5-MIN KMSN 280210Z 10007KT 7SM -RA FEW022 OVC046 04/02 A3009 710 85 -400 100/07 RMK AO2 P0000
14837KMSN MSN20060327201510503/27/06 20:15:31  5-MIN KMSN 280215Z 10008KT 7SM -RA OVC046 04/02 A3009 710 85 -400 100/08 RMK AO2 P0000
14837KMSN MSN20060327202011503/27/06 20:20:31  5-MIN KMSN 280220Z 10007KT 6SM -RA BR FEW012 OVC046 04/02 A3009 710 85 -400 100/07 RMK AO2 P0000
14837KMSN MSN20060327202511503/27/06 20:25:31  5-MIN KMSN 280225Z 10007KT 6SM -RA BR FEW012 OVC046 04/02 A3009 710 85 -400 100/07 RMK AO2 P0000
14837KMSN MSN20060327203010803/27/06 20:30:31  5-MIN KMSN 280230Z 10008KT 5SM -RA BR OVC046 04/02 A3009 710 85 -400 100/08 RMK AO2 P0000
14837KMSN MSN20060327203510803/27/06 20:35:31  5-MIN KMSN 280235Z 10006KT 5SM -RA BR OVC046 03/02 A3009 710 89 -400 100/06 RMK AO2 P0000
14837KMSN MSN20060327204010803/27/06 20:40:31  5-MIN KMSN 280240Z 10007KT 5SM -RA BR OVC046 04/02 A3009 710 85 -400 100/07 RMK AO2 P0000
14837KMSN MSN20060327204510803/27/06 20:45:31  5-MIN KMSN 280245Z 10008KT 5SM -RA BR OVC046 04/02 A3009 710 85 -400 100/08 RMK AO2 P0000
14837KMSN MSN20060327205014403/27/06 20:50:31  5-MIN KMSN 280250Z 10007KT 3SM -RA BR FEW022 OVC044 04/02 A3009 710 85 -400 090/07 RMK AO2 SLP196 P0001 60001 T00390017 58003
14837KMSN MSN20060327205511503/27/06 20:55:31  5-MIN KMSN 280255Z 09007KT 5SM -RA BR SCT022 OVC044 04/02 A3009 710 89 -400 090/07 RMK AO2 P0000
14837KMSN MSN20060327210012203/27/06 21:00:31  5-MIN KMSN 280300Z 08005KT 3SM -RA BR FEW008 BKN020 OVC044 04/02 A3009 710 89 -400 080/05 RMK AO2 P0000
14837KMSN MSN20060327210512203/27/06 21:05:31  5-MIN KMSN 280305Z 07006KT 3SM -RA BR SCT008 BKN012 OVC044 03/02 A3009 710 92 -400 070/06 RMK AO2 P0000
14837KMSN MSN20060327211012203/27/06 21:10:31  5-MIN KMSN 280310Z 07006KT 3SM -RA BR BKN008 BKN012 OVC044 03/02 A3009 710 92 -400 060/06 RMK AO2 P0000
14837KMSN MSN20060327211512703/27/06 21:15:31  5-MIN KMSN 280315Z 07008KT 3SM -RA BR BKN010 OVC022 03/02 A3009 710 92 -400 070/08 RMK AO2 CIG 007V013 P0001
14837KMSN MSN20060327212011503/27/06 21:20:31  5-MIN KMSN 280320Z 07008KT 3SM -RA BR BKN008 OVC022 03/02 A3009 710 92 -400 070/08 RMK AO2 P0001
14837KMSN MSN20060327212511503/27/06 21:25:31  5-MIN KMSN 280325Z 07009KT 3SM -RA BR BKN008 OVC022 03/02 A3009 710 92 -400 070/09 RMK AO2 P0001
14837KMSN MSN20060327213011503/27/06 21:30:31  5-MIN KMSN 280330Z 06009KT 3SM -RA BR BKN008 OVC022 03/02 A3009 710 92 -400 060/09 RMK AO2 P0001
14837KMSN MSN20060327213511503/27/06 21:35:31  5-MIN KMSN 280335Z 07008KT 3SM -RA BR BKN008 OVC022 03/02 A3009 710 92 -400 070/08 RMK AO2 P0001
14837KMSN MSN20060327214011503/27/06 21:40:31  5-MIN KMSN 280340Z 07009KT 3SM -RA BR BKN008 OVC022 03/02 A3009 710 92 -400 070/09 RMK AO2 P0001
14837KMSN MSN20060327214511503/27/06 21:45:31  5-MIN KMSN 280345Z 07007KT 3SM -RA BR BKN008 OVC022 03/02 A3008 710 92 -400 070/07 RMK AO2 P0001
14837KMSN MSN20060327215012003/27/06 21:50:31  5-MIN KMSN 280350Z 07008KT 3SM -RA BR OVC010 03/02 A3008 710 92 -400 070/08 RMK AO2 CIG 007V013 P0001
14837KMSN MSN20060327215512003/27/06 21:55:31  5-MIN KMSN 280355Z 07009KT 3SM -RA BR OVC010 03/02 A3008 720 92 -400 070/09 RMK AO2 CIG 007V013 P0000
14837KMSN MSN20060327220010803/27/06 22:00:31  5-MIN KMSN 280400Z 07008KT 3SM -RA BR OVC010 03/02 A3008 720 89 -400 070/08 RMK AO2 P0000
14837KMSN MSN20060327220510803/27/06 22:05:31  5-MIN KMSN 280405Z 07008KT 3SM -RA BR OVC010 03/02 A3008 720 89 -400 070/08 RMK AO2 P0000
14837KMSN MSN20060327221010803/27/06 22:10:31  5-MIN KMSN 280410Z 07008KT 3SM -RA BR OVC010 03/02 A3008 720 89 -400 070/08 RMK AO2 P0000
14837KMSN MSN20060327221512003/27/06 22:15:31  5-MIN KMSN 280415Z 07008KT 3SM -RA BR OVC010 03/02 A3008 720 89 -400 070/08 RMK AO2 CIG 007V014 P0000
14837KMSN MSN20060327222012003/27/06 22:20:31  5-MIN KMSN 280420Z 08008KT 3SM -RA BR OVC010 03/02 A3008 720 89 -400 080/08 RMK AO2 CIG 008V014 P0000
14837KMSN MSN20060327222512003/27/06 22:25:31  5-MIN KMSN 280425Z 07007KT 3SM -RA BR OVC010 03/02 A3008 720 89 -400 070/07 RMK AO2 CIG 008V014 P0000
14837KMSN MSN20060327223010803/27/06 22:30:31  5-MIN KMSN 280430Z 06008KT 3SM -RA BR OVC010 03/02 A3008 720 89 -400 060/08 RMK AO2 P0000
14837KMSN MSN20060327223510803/27/06 22:35:31  5-MIN KMSN 280435Z 06009KT 3SM -RA BR OVC010 03/02 A3008 720 89 -400 060/09 RMK AO2 P0000
14837KMSN MSN20060327224012003/27/06 22:40:31  5-MIN KMSN 280440Z 06009KT 3SM -RA BR OVC010 03/02 A3008 720 89 -400 060/09 RMK AO2 CIG 007V011 P0000
14837KMSN MSN20060327224510803/27/06 22:45:31  5-MIN KMSN 280445Z 06008KT 3SM -RA BR OVC010 03/02 A3008 720 89 -400 060/08 RMK AO2 P0000
14837KMSN MSN20060327225012503/27/06 22:50:31  5-MIN KMSN 280450Z 05008KT 3SM -RA BR OVC010 03/02 A3008 720 89 -400 050/08 RMK AO2 SLP190 P0000 T00330017
14837KMSN MSN20060327225510803/27/06 22:55:31  5-MIN KMSN 280455Z 06008KT 3SM -RA BR OVC010 03/02 A3008 720 89 -400 060/08 RMK AO2 P0000
14837KMSN MSN20060327230012003/27/06 23:00:31  5-MIN KMSN 280500Z 06007KT 3SM -RA BR OVC010 03/02 A3007 720 89 -400 060/07 RMK AO2 CIG 007V013 P0000
14837KMSN MSN20060327230512003/27/06 23:05:31  5-MIN KMSN 280505Z 07009KT 3SM -RA BR OVC010 03/02 A3007 720 89 -400 070/09 RMK AO2 CIG 007V013 P0000
14837KMSN MSN20060327231012703/27/06 23:10:31  5-MIN KMSN 280510Z 07007KT 3SM -RA BR BKN010 OVC014 03/02 A3007 720 89 -400 070/07 RMK AO2 CIG 007V013 P0000
14837KMSN MSN20060327231512703/27/06 23:15:31  5-MIN KMSN 280515Z 06006KT 3SM -RA BR BKN010 OVC014 03/02 A3007 730 89 -400 060/06 RMK AO2 CIG 007V013 P0000
14837KMSN MSN20060327232012003/27/06 23:20:31  5-MIN KMSN 280520Z 07006KT 3SM -RA BR OVC010 03/02 A3007 730 89 -400 070/06 RMK AO2 CIG 007V013 P0000
14837KMSN MSN20060327232512003/27/06 23:25:31  5-MIN KMSN 280525Z 06009KT 3SM -RA BR OVC010 03/02 A3007 730 89 -400 060/09 RMK AO2 CIG 007V013 P0000
14837KMSN MSN20060327233012003/27/06 23:30:31  5-MIN KMSN 280530Z 06009KT 3SM -RA BR OVC010 03/02 A3007 730 89 -400 060/09 RMK AO2 CIG 007V012 P0000
14837KMSN MSN20060327233512003/27/06 23:35:31  5-MIN KMSN 280535Z 05009KT 3SM -RA BR OVC010 03/02 A3007 730 89 -400 050/09 RMK AO2 CIG 007V012 P0000
14837KMSN MSN20060327234012003/27/06 23:40:31  5-MIN KMSN 280540Z 05009KT 3SM -RA BR OVC010 03/02 A3007 730 89 -400 050/09 RMK AO2 CIG 007V011 P0000
14837KMSN MSN20060327234512003/27/06 23:45:31  5-MIN KMSN 280545Z 06009KT 3SM -RA BR OVC010 03/02 A3007 730 89 -400 060/09 RMK AO2 CIG 007V011 P0000
14837KMSN MSN20060327235017103/27/06 23:50:31  5-MIN KMSN 280550Z 06010KT 3SM -RA BR OVC010 03/02 A3006 730 89 -400 060/10 RMK AO2 CIG 007V011 SLP187 P0000 60002 T00330017 10050 20033 400941039 51006
14837KMSN MSN20060327235510803/27/06 23:55:31  5-MIN KMSN 280555Z 06011KT 3SM -RA BR OVC010 03/02 A3006 730 89 -400 060/11 RMK AO2 P0000
14837KMSN MSN20060328000010803/28/06 00:00:38  5-MIN KMSN 280600Z 06010KT 3SM -RA BR OVC010 03/02 A3007 730 92 -500 060/10 RMK AO2 P0000
14837KMSN MSN20060328000512003/28/06 00:05:31  5-MIN KMSN 280605Z 06008KT 3SM -RA BR OVC010 03/02 A3007 730 92 -500 060/08 RMK AO2 CIG 006V011 P0000
14837KMSN MSN20060328001012003/28/06 00:10:31  5-MIN KMSN 280610Z 06008KT 3SM -RA BR OVC010 03/02 A3007 730 92 -500 060/08 RMK AO2 CIG 006V011 P0000
14837KMSN MSN20060328001512003/28/06 00:15:33  5-MIN KMSN 280615Z 06008KT 3SM -RA BR OVC008 03/02 A3007 730 92 -500 060/08 RMK AO2 CIG 006V011 P0000
14837KMSN MSN20060328002012003/28/06 00:20:31  5-MIN KMSN 280620Z 06008KT 3SM -RA BR OVC008 03/02 A3007 730 92 -500 060/08 RMK AO2 CIG 006V011 P0000
14837KMSN MSN20060328002512003/28/06 00:25:31  5-MIN KMSN 280625Z 06010KT 3SM -RA BR OVC006 03/02 A3007 730 92 -500 060/10 RMK AO2 CIG 006V010 P0000
14837KMSN MSN20060328003010803/28/06 00:30:31  5-MIN KMSN 280630Z 06009KT 3SM -RA BR OVC006 03/02 A3007 730 92 -500 050/09 RMK AO2 P0000
14837KMSN MSN20060328003510803/28/06 00:35:31  5-MIN KMSN 280635Z 05010KT 3SM -RA BR OVC006 03/02 A3007 730 92 -500 050/10 RMK AO2 P0000
14837KMSN MSN20060328004010803/28/06 00:40:31  5-MIN KMSN 280640Z 05011KT 3SM -RA BR OVC006 03/02 A3006 730 92 -500 050/11 RMK AO2 P0000
14837KMSN MSN20060328004510803/28/06 00:45:31  5-MIN KMSN 280645Z 06012KT 3SM -RA BR OVC006 03/01 A3006 730 89 -500 060/12 RMK AO2 P0000
14837KMSN MSN20060328005012703/28/06 00:50:31  5-MIN KMSN 280650Z 06010KT 3SM BR OVC006 03/01 A3006 730 89 -500 050/10 RMK AO2 RAE47 SLP186 P0000 T00280011
14837KMSN MSN20060328005509803/28/06 00:55:31  5-MIN KMSN 280655Z 06011KT 3SM BR OVC006 03/01 A3006 730 89 -500 060/11 RMK AO2
14837KMSN MSN20060328010009803/28/06 01:00:31  5-MIN KMSN 280700Z 06009KT 3SM BR OVC006 03/01 A3006 730 89 -500 060/09 RMK AO2
14837KMSN MSN20060328010509803/28/06 01:05:31  5-MIN KMSN 280705Z 06009KT 3SM BR OVC006 03/01 A3006 730 89 -500 060/09 RMK AO2
14837KMSN MSN20060328011009803/28/06 01:10:31  5-MIN KMSN 280710Z 07011KT 3SM BR OVC006 03/01 A3006 730 89 -500 070/11 RMK AO2
14837KMSN MSN20060328011510503/28/06 01:15:31  5-MIN KMSN 280715Z 06010KT 3SM BR BKN006 OVC015 03/01 A3006 740 89 -500 060/10 RMK AO2
14837KMSN MSN20060328012010503/28/06 01:20:31  5-MIN KMSN 280720Z 05010KT 3SM BR BKN006 OVC015 03/01 A3006 730 89 -500 050/10 RMK AO2
14837KMSN MSN20060328012510503/28/06 01:25:31  5-MIN KMSN 280725Z 06011KT 3SM BR BKN006 OVC015 03/01 A3006 740 89 -500 060/11 RMK AO2
14837KMSN MSN20060328013010503/28/06 01:30:31  5-MIN KMSN 280730Z 06010KT 3SM BR BKN006 OVC015 03/01 A3006 740 89 -500 060/10 RMK AO2
14837KMSN MSN20060328013509803/28/06 01:35:31  5-MIN KMSN 280735Z 06011KT 3SM BR OVC006 03/01 A3006 730 89 -500 060/11 RMK AO2
14837KMSN MSN20060328014009803/28/06 01:40:31  5-MIN KMSN 280740Z 05011KT 3SM BR OVC006 03/01 A3006 730 89 -500 050/11 RMK AO2
14837KMSN MSN20060328014509803/28/06 01:45:31  5-MIN KMSN 280745Z 05011KT 3SM BR OVC006 03/01 A3006 730 89 -500 050/11 RMK AO2
14837KMSN MSN20060328015011503/28/06 01:50:31  5-MIN KMSN 280750Z 05010KT 3SM BR OVC006 03/01 A3006 730 89 -500 050/10 RMK AO2 SLP185 T00280011
14837KMSN MSN20060328015509803/28/06 01:55:31  5-MIN KMSN 280755Z 05010KT 4SM BR OVC006 03/01 A3006 730 89 -500 050/10 RMK AO2
14837KMSN MSN20060328020009803/28/06 02:00:31  5-MIN KMSN 280800Z 05010KT 4SM BR OVC006 03/01 A3006 730 89 -500 050/10 RMK AO2
14837KMSN MSN20060328020509803/28/06 02:05:31  5-MIN KMSN 280805Z 05010KT 4SM BR OVC006 03/01 A3006 740 89 -500 050/10 RMK AO2
14837KMSN MSN20060328021009803/28/06 02:10:31  5-MIN KMSN 280810Z 05011KT 4SM BR OVC006 02/01 A3006 730 92 -600 040/11 RMK AO2
14837KMSN MSN20060328021509803/28/06 02:15:31  5-MIN KMSN 280815Z 05010KT 4SM BR OVC006 02/01 A3006 730 92 -600 040/10 RMK AO2
14837KMSN MSN20060328022009803/28/06 02:20:31  5-MIN KMSN 280820Z 05011KT 4SM BR OVC006 02/01 A3006 730 92 -600 050/11 RMK AO2
14837KMSN MSN20060328022509803/28/06 02:25:31  5-MIN KMSN 280825Z 05010KT 4SM BR OVC006 02/01 A3006 730 92 -600 050/10 RMK AO2
14837KMSN MSN20060328023009803/28/06 02:30:31  5-MIN KMSN 280830Z 05011KT 4SM BR OVC006 02/01 A3006 740 92 -500 050/11 RMK AO2
14837KMSN MSN20060328023509803/28/06 02:35:31  5-MIN KMSN 280835Z 06012KT 4SM BR OVC006 02/01 A3006 740 92 -500 050/12 RMK AO2
14837KMSN MSN20060328024009803/28/06 02:40:31  5-MIN KMSN 280840Z 05010KT 4SM BR OVC006 02/01 A3006 740 92 -500 050/10 RMK AO2
14837KMSN MSN20060328024510503/28/06 02:45:31  5-MIN KMSN 280845Z 05011KT 4SM BR BKN006 OVC014 02/01 A3006 740 92 -600 050/11 RMK AO2
14837KMSN MSN20060328025012703/28/06 02:50:31  5-MIN KMSN 280850Z 05010KT 4SM BR OVC006 02/01 A3006 740 92 -500 050/10 RMK AO2 SLP185 60000 T00220011 58006
14837KMSN MSN20060328025510503/28/06 02:55:31  5-MIN KMSN 280855Z 05011KT 4SM BR BKN006 OVC014 02/01 A3006 730 92 -600 050/11 RMK AO2
14837KMSN MSN20060328030011703/28/06 03:00:31  5-MIN KMSN 280900Z 06011KT 4SM BR BKN008 OVC014 02/01 A3006 730 92 -600 060/11 RMK AO2 CIG 006V010
14837KMSN MSN20060328030511703/28/06 03:05:31  5-MIN KMSN 280905Z 05012KT 4SM BR BKN008 OVC014 02/01 A3006 730 92 -600 050/12 RMK AO2 CIG 006V010
14837KMSN MSN20060328031010503/28/06 03:10:31  5-MIN KMSN 280910Z 06009KT 4SM BR BKN008 OVC014 02/01 A3006 730 92 -600 060/09 RMK AO2
14837KMSN MSN20060328031510503/28/06 03:15:31  5-MIN KMSN 280915Z 06010KT 4SM BR SCT008 OVC014 03/01 A3006 730 89 -500 050/10 RMK AO2
14837KMSN MSN20060328032010503/28/06 03:20:31  5-MIN KMSN 280920Z 05010KT 4SM BR SCT008 OVC014 03/01 A3007 730 89 -500 050/10 RMK AO2
14837KMSN MSN20060328032510503/28/06 03:25:31  5-MIN KMSN 280925Z 06011KT 4SM BR FEW008 OVC014 03/01 A3007 730 89 -500 050/11 RMK AO2
14837KMSN MSN20060328033010503/28/06 03:30:31  5-MIN KMSN 280930Z 05011KT 4SM BR FEW008 OVC014 03/01 A3007 730 89 -500 050/11 RMK AO2
14837KMSN MSN20060328033510503/28/06 03:35:31  5-MIN KMSN 280935Z 05011KT 4SM BR FEW008 OVC014 03/01 A3007 720 89 -500 050/11 RMK AO2
14837KMSN MSN20060328034009803/28/06 03:40:31  5-MIN KMSN 280940Z 05011KT 4SM BR OVC014 03/01 A3007 720 89 -500 050/11 RMK AO2
14837KMSN MSN20060328034509803/28/06 03:45:31  5-MIN KMSN 280945Z 05011KT 4SM BR OVC016 03/01 A3008 720 89 -500 050/11 RMK AO2
14837KMSN MSN20060328035009803/28/06 03:50:31  5-MIN KMSN 280950Z 05008KT 4SM BR OVC016 03/01 A3008 720 89 -500 050/08 RMK AO2
14837KMSN MSN20060328035509803/28/06 03:55:31  5-MIN KMSN 280955Z 05010KT 4SM BR OVC016 03/01 A3008 720 89 -500 050/10 RMK AO2
14837KMSN MSN20060328040009803/28/06 04:00:31  5-MIN KMSN 281000Z 05010KT 4SM BR OVC016 03/01 A3008 720 89 -500 050/10 RMK AO2
14837KMSN MSN20060328040509803/28/06 04:05:31  5-MIN KMSN 281005Z 05012KT 4SM BR OVC016 03/01 A3008 710 89 -500 050/12 RMK AO2
14837KMSN MSN20060328041009803/28/06 04:10:31  5-MIN KMSN 281010Z 05010KT 4SM BR OVC016 03/01 A3009 710 89 -500 050/10 RMK AO2
14837KMSN MSN20060328041509803/28/06 04:15:31  5-MIN KMSN 281015Z 05010KT 4SM BR OVC016 03/01 A3009 710 89 -500 050/10 RMK AO2
14837KMSN MSN20060328042009803/28/06 04:20:31  5-MIN KMSN 281020Z 04010KT 4SM BR OVC016 03/02 A3009 710 92 -500 040/10 RMK AO2
14837KMSN MSN20060328042509803/28/06 04:25:31  5-MIN KMSN 281025Z 04009KT 4SM BR OVC016 03/02 A3009 710 92 -500 040/09 RMK AO2
14837KMSN MSN20060328043009803/28/06 04:30:31  5-MIN KMSN 281030Z 04009KT 4SM BR OVC018 03/02 A3010 700 92 -500 040/09 RMK AO2
14837KMSN MSN20060328043509803/28/06 04:35:31  5-MIN KMSN 281035Z 04009KT 4SM BR OVC018 03/02 A3010 700 92 -500 040/09 RMK AO2
14837KMSN MSN20060328044009803/28/06 04:40:31  5-MIN KMSN 281040Z 04009KT 4SM BR OVC018 03/02 A3010 700 92 -500 040/09 RMK AO2
14837KMSN MSN20060328044509803/28/06 04:45:31  5-MIN KMSN 281045Z 04008KT 4SM BR OVC018 03/02 A3010 700 92 -500 040/08 RMK AO2
14837KMSN MSN20060328045011503/28/06 04:50:31  5-MIN KMSN 281050Z 04009KT 4SM BR OVC018 03/01 A3010 700 89 -500 040/09 RMK AO2 SLP201 T00280011
14837KMSN MSN20060328045509803/28/06 04:55:31  5-MIN KMSN 281055Z 04007KT 4SM BR OVC018 03/02 A3010 700 92 -500 040/07 RMK AO2
14837KMSN MSN20060328050010503/28/06 05:00:31  5-MIN KMSN 281100Z 04009KT 4SM BR FEW008 OVC018 03/01 A3010 690 89 -500 040/09 RMK AO2
14837KMSN MSN20060328050510503/28/06 05:05:31  5-MIN KMSN 281105Z 04008KT 4SM BR FEW008 OVC018 03/02 A3011 690 92 -500 030/08 RMK AO2
14837KMSN MSN20060328051010503/28/06 05:10:31  5-MIN KMSN 281110Z 03008KT 4SM BR SCT008 OVC020 03/02 A3011 690 92 -500 030/08 RMK AO2
14837KMSN MSN20060328051510503/28/06 05:15:31  5-MIN KMSN 281115Z 03009KT 4SM BR BKN008 OVC020 03/01 A3011 690 89 -500 030/09 RMK AO2
14837KMSN MSN20060328052010503/28/06 05:20:31  5-MIN KMSN 281120Z 02010KT 4SM BR BKN008 OVC020 03/01 A3012 680 89 -500 020/10 RMK AO2
14837KMSN MSN20060328052510503/28/06 05:25:31  5-MIN KMSN 281125Z 03008KT 4SM BR BKN008 OVC020 03/01 A3012 680 89 -500 030/08 RMK AO2
14837KMSN MSN20060328053011703/28/06 05:30:31  5-MIN KMSN 281130Z 03008KT 4SM BR BKN008 OVC020 03/01 A3012 680 89 -500 030/08 RMK AO2 CIG 007V011
14837KMSN MSN20060328053511703/28/06 05:35:31  5-MIN KMSN 281135Z 04010KT 4SM BR BKN008 OVC020 03/01 A3012 680 89 -600 030/10 RMK AO2 CIG 007V011
14837KMSN MSN20060328054010503/28/06 05:40:31  5-MIN KMSN 281140Z 04008KT 4SM BR SCT008 OVC020 03/01 A3012 680 89 -600 040/08 RMK AO2
14837KMSN MSN20060328054510503/28/06 05:45:31  5-MIN KMSN 281145Z 04008KT 4SM BR SCT008 OVC020 03/01 A3013 680 89 -600 040/08 RMK AO2
14837KMSN MSN20060328055015203/28/06 05:50:31  5-MIN KMSN 281150Z 04009KT 4SM BR SCT008 OVC020 03/01 A3013 670 89 -600 040/09 RMK AO2 SLP209 60000 70001 T00280011 10033 20022 57001
14837KMSN MSN20060328055510503/28/06 05:55:31  5-MIN KMSN 281155Z 04009KT 4SM BR FEW008 OVC020 03/01 A3013 670 89 -600 040/09 RMK AO2
14837KMSN MSN20060328060010503/28/06 06:00:31  5-MIN KMSN 281200Z 04008KT 4SM BR FEW008 OVC020 03/01 A3013 670 89 -600 040/08 RMK AO2
14837KMSN MSN20060328060510503/28/06 06:05:31  5-MIN KMSN 281205Z 04007KT 4SM BR FEW008 OVC020 03/01 A3013 670 89 -600 040/07 RMK AO2
14837KMSN MSN20060328061009803/28/06 06:10:31  5-MIN KMSN 281210Z 05008KT 4SM BR OVC020 03/01 A3013 670 89 -600 050/08 RMK AO2
14837KMSN MSN20060328061509803/28/06 06:15:31  5-MIN KMSN 281215Z 05009KT 4SM BR OVC020 03/01 A3013 670 89 -600 050/09 RMK AO2
14837KMSN MSN20060328062009803/28/06 06:20:31  5-MIN KMSN 281220Z 05007KT 3SM BR OVC020 03/01 A3013 670 89 -600 050/07 RMK AO2
14837KMSN MSN20060328062509803/28/06 06:25:31  5-MIN KMSN 281225Z 05008KT 3SM BR OVC020 03/01 A3014 670 89 -600 050/08 RMK AO2
14837KMSN MSN20060328063010803/28/06 06:30:31  5-MIN KMSN 281230Z 04008KT 3SM BR OVC020 03/01 A3014 660 89 -600 040/08 RMK AO2 TWR VIS 4
14837KMSN MSN20060328063510803/28/06 06:35:31  5-MIN KMSN 281235Z 03007KT 3SM BR OVC020 03/01 A3014 660 89 -600 030/07 RMK AO2 TWR VIS 4
14837KMSN MSN20060328064010803/28/06 06:40:31  5-MIN KMSN 281240Z 03006KT 3SM BR OVC020 03/01 A3015 660 89 -600 030/06 RMK AO2 TWR VIS 4
14837KMSN MSN20060328064510803/28/06 06:45:31  5-MIN KMSN 281245Z 04007KT 3SM BR OVC020 03/01 A3015 660 89 -600 040/07 RMK AO2 TWR VIS 4
14837KMSN MSN20060328065012503/28/06 06:50:31  5-MIN KMSN 281250Z 04007KT 3SM BR OVC020 03/01 A3015 650 89 -600 040/07 RMK AO2 TWR VIS 4 SLP217 T00280011
14837KMSN MSN20060328065510803/28/06 06:55:31  5-MIN KMSN 281255Z 05006KT 3SM BR OVC022 03/01 A3015 650 89 -600 050/06 RMK AO2 TWR VIS 4
14837KMSN MSN20060328070010803/28/06 07:00:31  5-MIN KMSN 281300Z 05007KT 3SM BR OVC024 03/01 A3015 650 89 -600 040/07 RMK AO2 TWR VIS 4
14837KMSN MSN20060328070511503/28/06 07:05:31  5-MIN KMSN 281305Z 04007KT 3SM BR FEW017 OVC024 03/01 A3015 650 89 -600 040/07 RMK AO2 TWR VIS 4
14837KMSN MSN20060328071011503/28/06 07:10:31  5-MIN KMSN 281310Z 03006KT 3SM BR SCT017 OVC024 03/01 A3015 650 85 -500 030/06 RMK AO2 TWR VIS 4
14837KMSN MSN20060328071510503/28/06 07:15:31  5-MIN KMSN 281315Z 03006KT 4SM BR BKN017 OVC024 03/01 A3015 650 85 -500 030/06 RMK AO2
14837KMSN MSN20060328072010503/28/06 07:20:31  5-MIN KMSN 281320Z 03007KT 4SM BR BKN017 OVC026 03/01 A3016 650 85 -500 030/07 RMK AO2
14837KMSN MSN20060328072510503/28/06 07:25:31  5-MIN KMSN 281325Z 03007KT 4SM BR BKN017 OVC026 03/01 A3016 650 85 -500 030/07 RMK AO2
14837KMSN MSN20060328073009803/28/06 07:30:31  5-MIN KMSN 281330Z 03006KT 4SM BR OVC017 03/01 A3016 650 85 -500 030/06 RMK AO2
14837KMSN MSN20060328073509803/28/06 07:35:31  5-MIN KMSN 281335Z 04005KT 4SM BR OVC019 03/01 A3016 650 85 -500 040/05 RMK AO2
14837KMSN MSN20060328074009803/28/06 07:40:31  5-MIN KMSN 281340Z 04006KT 4SM BR OVC019 03/01 A3016 650 85 -500 040/06 RMK AO2
14837KMSN MSN20060328074509803/28/06 07:45:31  5-MIN KMSN 281345Z 05006KT 4SM BR OVC021 03/01 A3016 650 85 -500 040/06 RMK AO2
14837KMSN MSN20060328075011503/28/06 07:50:31  5-MIN KMSN 281350Z 03006KT 4SM BR OVC021 03/01 A3016 650 85 -500 030/06 RMK AO2 SLP220 T00330011
14837KMSN MSN20060328075509803/28/06 07:55:31  5-MIN KMSN 281355Z 02007KT 4SM BR OVC023 03/01 A3016 640 85 -500 020/07 RMK AO2
14837KMSN MSN20060328080009803/28/06 08:00:31  5-MIN KMSN 281400Z 03007KT 4SM BR OVC023 03/01 A3016 640 85 -500 030/07 RMK AO2
14837KMSN MSN20060328080509803/28/06 08:05:31  5-MIN KMSN 281405Z 02007KT 4SM BR OVC023 03/01 A3016 640 85 -500 020/07 RMK AO2
14837KMSN MSN20060328081009803/28/06 08:10:31  5-MIN KMSN 281410Z 02007KT 4SM BR OVC026 03/01 A3017 640 85 -500 010/07 RMK AO2
14837KMSN MSN20060328081509803/28/06 08:15:31  5-MIN KMSN 281415Z 02006KT 4SM BR OVC026 03/01 A3016 640 85 -500 020/06 RMK AO2
14837KMSN MSN20060328082010503/28/06 08:20:31  5-MIN KMSN 281420Z 02006KT 4SM BR SCT024 OVC031 03/01 A3016 640 85 -500 020/06 RMK AO2
14837KMSN MSN20060328082510503/28/06 08:25:31  5-MIN KMSN 281425Z 03008KT 4SM HZ FEW024 OVC031 04/01 A3016 640 82 -500 030/08 RMK AO2
14837KMSN MSN20060328083009803/28/06 08:30:31  5-MIN KMSN 281430Z 03006KT 4SM HZ OVC029 04/01 A3016 640 82 -500 030/06 RMK AO2
14837KMSN MSN20060328083509803/28/06 08:35:31  5-MIN KMSN 281435Z 03006KT 4SM HZ OVC029 04/01 A3016 640 82 -500 030/06 RMK AO2
14837KMSN MSN20060328084009803/28/06 08:40:31  5-MIN KMSN 281440Z 03007KT 4SM HZ OVC031 04/01 A3016 640 82 -500 030/07 RMK AO2
14837KMSN MSN20060328084509803/28/06 08:45:31  5-MIN KMSN 281445Z 02007KT 4SM HZ OVC033 04/01 A3016 640 79 -400 020/07 RMK AO2
14837KMSN MSN20060328085012103/28/06 08:50:31  5-MIN KMSN 281450Z 02009KT 4SM HZ BKN033 04/01 A3016 640 79 -400 020/09 RMK AO2 SLP221 T00440011 53017
14837KMSN MSN20060328085510503/28/06 08:55:31  5-MIN KMSN 281455Z 02008KT 5SM HZ BKN033 BKN055 04/01 A3017 640 79 -400 020/08 RMK AO2
14837KMSN MSN20060328090010503/28/06 09:00:31  5-MIN KMSN 281500Z 02010KT 5SM HZ BKN033 OVC055 05/02 A3017 640 79 -300 020/10 RMK AO2
14837KMSN MSN20060328090510503/28/06 09:05:31  5-MIN KMSN 281505Z 01009KT 5SM HZ BKN033 OVC055 05/01 A3017 630 76 -300 010/09 RMK AO2
14837KMSN MSN20060328091010503/28/06 09:10:31  5-MIN KMSN 281510Z 01008KT 5SM HZ SCT033 OVC055 05/02 A3017 630 79 -300 010/08 RMK AO2
14837KMSN MSN20060328091510503/28/06 09:15:31  5-MIN KMSN 281515Z 02008KT 5SM HZ FEW033 OVC055 05/02 A3017 630 79 -300 020/08 RMK AO2
14837KMSN MSN20060328092010503/28/06 09:20:31  5-MIN KMSN 281520Z 02008KT 5SM HZ FEW033 OVC055 06/02 A3018 630 76 -300 020/08 RMK AO2
14837KMSN MSN20060328092510503/28/06 09:25:31  5-MIN KMSN 281525Z 02009KT 5SM HZ FEW033 OVC055 06/01 A3018 630 73 -300 020/09 RMK AO2
14837KMSN MSN20060328093010503/28/06 09:30:31  5-MIN KMSN 281530Z 03009KT 5SM HZ SCT035 OVC055 06/01 A3018 630 73 -300 030/09 RMK AO2
14837KMSN MSN20060328093510503/28/06 09:35:31  5-MIN KMSN 281535Z 03008KT 6SM HZ SCT035 OVC055 06/01 A3018 620 73 -300 030/08 RMK AO2
14837KMSN MSN20060328094010503/28/06 09:40:31  5-MIN KMSN 281540Z 03009KT 6SM HZ SCT035 BKN055 06/01 A3018 620 70 -200 030/09 RMK AO2
14837KMSN MSN20060328094510503/28/06 09:45:31  5-MIN KMSN 281545Z 03008KT 6SM HZ FEW035 OVC055 06/02 A3018 620 73 -200 030/08 RMK AO2
14837KMSN MSN20060328095012203/28/06 09:50:31  5-MIN KMSN 281550Z 04010KT 6SM HZ FEW035 OVC055 07/02 A3018 620 70 -100 030/10 RMK AO2 SLP228 T00670017
14837KMSN MSN20060328095510503/28/06 09:55:31  5-MIN KMSN 281555Z 03008KT 6SM HZ FEW035 BKN055 07/01 A3019 620 67 -100 030/08 RMK AO2
14837KMSN MSN20060328100010503/28/06 10:00:31  5-MIN KMSN 281600Z 04009KT 6SM HZ FEW037 BKN055 07/02 A3019 620 70 -100 040/09 RMK AO2
14837KMSN MSN20060328100510503/28/06 10:05:31  5-MIN KMSN 281605Z 04008KT 6SM HZ SCT032 BKN055 07/02 A3019 620 70 -100 040/08 RMK AO2
14837KMSN MSN20060328101010503/28/06 10:10:31  5-MIN KMSN 281610Z 06008KT 6SM HZ SCT032 BKN055 07/01 A3019 620 67 -100 060/08 RMK AO2
14837KMSN MSN20060328101510503/28/06 10:15:31  5-MIN KMSN 281615Z 04007KT 6SM HZ BKN034 BKN055 07/01 A3019 620 67 -100 040/07 RMK AO2
14837KMSN MSN20060328102010503/28/06 10:20:31  5-MIN KMSN 281620Z 04011KT 6SM HZ BKN034 BKN055 07/01 A3019 620 67 -100 040/11 RMK AO2
14837KMSN MSN20060328102511203/28/06 10:25:31  5-MIN KMSN 281625Z 04008KT 6SM HZ FEW024 BKN034 BKN055 07/02 A3019 620 68 -100 040/08 RMK AO2
14837KMSN MSN20060328103010903/28/06 10:30:31  5-MIN KMSN 281630Z 05008KT 6SM HZ FEW024 BKN034 BKN055 08/02 A3019 620 65 0 050/08 RMK AO2
14837KMSN MSN20060328103510903/28/06 10:35:31  5-MIN KMSN 281635Z 05011KT 6SM HZ SCT028 BKN034 BKN055 08/02 A3019 620 65 0 050/11 RMK AO2
14837KMSN MSN20060328104010903/28/06 10:40:31  5-MIN KMSN 281640Z 04011KT 7SM SCT026 BKN034 OVC055 07/01 A3019 620 65 -100 040/11 RMK AO2
14837KMSN MSN20060328104510903/28/06 10:45:31  5-MIN KMSN 281645Z 07007KT 7SM BKN026 BKN034 OVC055 07/01 A3019 620 65 -100 070/07 RMK AO2
14837KMSN MSN20060328105011903/28/06 10:50:31  5-MIN KMSN 281650Z 05008KT 7SM BKN026 BKN055 07/01 A3019 620 65 -100 050/08 RMK AO2 SLP228 T00720011
14837KMSN MSN20060328105510203/28/06 10:55:31  5-MIN KMSN 281655Z 06009KT 7SM BKN026 BKN055 07/01 A3019 620 65 -100 060/09 RMK AO2
14837KMSN MSN20060328110010203/28/06 11:00:31  5-MIN KMSN 281700Z 05008KT 7SM BKN026 BKN055 07/01 A3019 620 65 -100 050/08 RMK AO2
14837KMSN MSN20060328110509903/28/06 11:05:31  5-MIN KMSN 281705Z 07007KT 7SM BKN026 OVC055 08/01 A3018 620 62 0 070/07 RMK AO2
14837KMSN MSN20060328111009203/28/06 11:10:31  5-MIN KMSN 281710Z 06009KT 7SM OVC026 08/02 A3018 620 63 0 050/09 RMK AO2
14837KMSN MSN20060328111509203/28/06 11:15:31  5-MIN KMSN 281715Z 06008KT 7SM BKN026 08/01 A3019 620 62 0 060/08 RMK AO2
14837KMSN MSN20060328112009203/28/06 11:20:31  5-MIN KMSN 281720Z 05008KT 7SM OVC026 08/02 A3018 620 65 0 040/08 RMK AO2
14837KMSN MSN20060328112509503/28/06 11:25:31  5-MIN KMSN 281725Z 04008KT 6SM HZ OVC026 08/01 A3018 620 62 0 040/08 RMK AO2
14837KMSN MSN20060328113009503/28/06 11:30:31  5-MIN KMSN 281730Z 04007KT 6SM HZ OVC026 08/01 A3018 620 62 0 040/07 RMK AO2
14837KMSN MSN20060328113509503/28/06 11:35:31  5-MIN KMSN 281735Z 02006KT 6SM HZ OVC028 08/02 A3018 620 65 0 020/06 RMK AO2
14837KMSN MSN20060328114009503/28/06 11:40:31  5-MIN KMSN 281740Z 07007KT 6SM HZ OVC028 08/02 A3018 620 65 0 070/07 RMK AO2
14837KMSN MSN20060328114509503/28/06 11:45:31  5-MIN KMSN 281745Z 05008KT 6SM HZ OVC028 08/01 A3018 620 62 0 050/08 RMK AO2
14837KMSN MSN20060328115012703/28/06 11:50:31  5-MIN KMSN 281750Z 04008KT 7SM BKN028 08/01 A3018 620 62 0 040/08 RMK AO2 SLP227 T00780011 10083 20028 51013
14837KMSN MSN20060328115509203/28/06 11:55:31  5-MIN KMSN 281755Z 06006KT 7SM OVC030 08/01 A3018 620 62 0 060/06 RMK AO2
14837KMSN MSN20060328120009203/28/06 12:00:31  5-MIN KMSN 281800Z 05008KT 7SM BKN030 08/01 A3018 620 62 0 050/08 RMK AO2
14837KMSN MSN20060328120509203/28/06 12:05:31  5-MIN KMSN 281805Z 06008KT 7SM BKN030 08/01 A3018 620 60 0 060/08 RMK AO2
14837KMSN MSN20060328121009203/28/06 12:10:31  5-MIN KMSN 281810Z VRB04KT 7SM BKN030 08/01 A3018 620 60 0 VRB/04 RMK AO2
14837KMSN MSN20060328121509203/28/06 12:15:31  5-MIN KMSN 281815Z 08005KT 7SM BKN030 08/01 A3018 620 60 0 080/05 RMK AO2
14837KMSN MSN20060328122009203/28/06 12:20:31  5-MIN KMSN 281820Z 09006KT 7SM BKN030 08/01 A3018 630 60 0 090/06 RMK AO2
14837KMSN MSN20060328122509403/28/06 12:25:31  5-MIN KMSN 281825Z 09006KT 7SM BKN033 09/01 A3017 630 58 100 090/06 RMK AO2
14837KMSN MSN20060328123009203/28/06 12:30:31  5-MIN KMSN 281830Z 07004KT 7SM BKN033 08/01 A3018 630 60 0 070/04 RMK AO2
14837KMSN MSN20060328123509403/28/06 12:35:31  5-MIN KMSN 281835Z 06007KT 7SM BKN033 09/01 A3018 630 56 100 060/07 RMK AO2
14837KMSN MSN20060328124009203/28/06 12:40:31  5-MIN KMSN 281840Z 06007KT 7SM BKN033 08/01 A3018 630 58 0 060/07 RMK AO2
14837KMSN MSN20060328124509203/28/06 12:45:31  5-MIN KMSN 281845Z VRB04KT 7SM BKN033 08/01 A3018 630 58 0 VRB/04 RMK AO2
14837KMSN MSN20060328125011103/28/06 12:50:31  5-MIN KMSN 281850Z 08007KT 7SM BKN033 09/01 A3017 630 58 100 080/07 RMK AO2 SLP224 T00890011
14837KMSN MSN20060328125509403/28/06 12:55:31  5-MIN KMSN 281855Z 08006KT 8SM BKN033 09/01 A3017 630 56 200 080/06 RMK AO2
14837KMSN MSN20060328130009403/28/06 13:00:31  5-MIN KMSN 281900Z 12005KT 8SM BKN033 09/01 A3017 630 56 100 120/05 RMK AO2
14837KMSN MSN20060328130509403/28/06 13:05:31  5-MIN KMSN 281905Z 09005KT 8SM BKN033 09/01 A3017 630 53 200 090/05 RMK AO2
14837KMSN MSN20060328131009403/28/06 13:10:31  5-MIN KMSN 281910Z 11006KT 8SM BKN033 10/01 A3017 640 54 200 110/06 RMK AO2
14837KMSN MSN20060328131509403/28/06 13:15:31  5-MIN KMSN 281915Z 13005KT 8SM BKN033 10/01 A3017 640 52 200 120/05 RMK AO2
14837KMSN MSN20060328132009403/28/06 13:20:31  5-MIN KMSN 281920Z VRB05KT 8SM BKN033 10/01 A3017 640 54 200 VRB/05 RMK AO2
14837KMSN MSN20060328132509403/28/06 13:25:31  5-MIN KMSN 281925Z 14006KT 8SM BKN033 09/01 A3017 640 56 100 140/06 RMK AO2
14837KMSN MSN20060328133009403/28/06 13:30:31  5-MIN KMSN 281930Z 10005KT 8SM BKN033 09/01 A3017 640 53 200 100/05 RMK AO2
14837KMSN MSN20060328133509403/28/06 13:35:31  5-MIN KMSN 281935Z 10006KT 8SM BKN033 10/01 A3016 640 54 200 100/06 RMK AO2
14837KMSN MSN20060328134009403/28/06 13:40:31  5-MIN KMSN 281940Z 11006KT 8SM BKN036 10/01 A3016 640 54 200 110/06 RMK AO2
14837KMSN MSN20060328134509403/28/06 13:45:31  5-MIN KMSN 281945Z VRB04KT 8SM OVC036 09/01 A3016 640 53 200 VRB/04 RMK AO2
14837KMSN MSN20060328135011103/28/06 13:50:31  5-MIN KMSN 281950Z 15006KT 8SM BKN036 09/01 A3016 640 53 200 150/06 RMK AO2 SLP220 T00940006
14837KMSN MSN20060328135509403/28/06 13:55:31  5-MIN KMSN 281955Z VRB03KT 8SM BKN038 10/01 A3016 640 52 200 VRB/03 RMK AO2
14837KMSN MSN20060328140009403/28/06 14:00:31  5-MIN KMSN 282000Z 12004KT 9SM BKN038 10/01 A3016 640 52 200 120/04 RMK AO2
14837KMSN MSN20060328140509403/28/06 14:05:31  5-MIN KMSN 282005Z 08007KT 8SM BKN038 10/01 A3017 640 52 200 080/07 RMK AO2
14837KMSN MSN20060328141009403/28/06 14:10:31  5-MIN KMSN 282010Z 09004KT 8SM OVC038 10/01 A3017 640 52 200 080/04 RMK AO2
14837KMSN MSN20060328141509403/28/06 14:15:31  5-MIN KMSN 282015Z 11003KT 8SM OVC038 09/01 A3017 640 53 200 110/03 RMK AO2
14837KMSN MSN20060328142009403/28/06 14:20:31  5-MIN KMSN 282020Z VRB04KT 8SM OVC038 09/01 A3017 640 53 200 VRB/04 RMK AO2
14837KMSN MSN20060328142509403/28/06 14:25:31  5-MIN KMSN 282025Z 20005KT 8SM OVC038 09/01 A3017 640 56 200 200/05 RMK AO2
14837KMSN MSN20060328143009403/28/06 14:30:31  5-MIN KMSN 282030Z 21003KT 8SM BKN038 09/01 A3016 640 53 200 210/03 RMK AO2
14837KMSN MSN20060328143509403/28/06 14:35:31  5-MIN KMSN 282035Z 20005KT 8SM BKN038 09/01 A3016 640 53 200 200/05 RMK AO2
14837KMSN MSN20060328144009403/28/06 14:40:31  5-MIN KMSN 282040Z 25004KT 8SM BKN038 09/01 A3016 640 56 100 250/04 RMK AO2
14837KMSN MSN20060328144509403/28/06 14:45:31  5-MIN KMSN 282045Z VRB03KT 8SM BKN038 10/01 A3016 640 52 200 VRB/03 RMK AO2
14837KMSN MSN20060328145011703/28/06 14:50:31  5-MIN KMSN 282050Z 00000KT 8SM BKN038 09/01 A3016 640 53 200 000/00 RMK AO2 SLP220 T00940006 58001
14837KMSN MSN20060328145509403/28/06 14:55:31  5-MIN KMSN 282055Z VRB03KT 8SM BKN040 10/01 A3017 640 54 200 VRB/03 RMK AO2
14837KMSN MSN20060328150009403/28/06 15:00:31  5-MIN KMSN 282100Z VRB04KT 8SM BKN040 09/01 A3017 640 53 200 VRB/04 RMK AO2
14837KMSN MSN20060328150509403/28/06 15:05:31  5-MIN KMSN 282105Z 12004KT 8SM BKN040 09/01 A3017 640 53 200 120/04 RMK AO2
14837KMSN MSN20060328151009403/28/06 15:10:31  5-MIN KMSN 282110Z 00000KT 8SM BKN040 10/01 A3017 640 52 200 000/00 RMK AO2
14837KMSN MSN20060328151509403/28/06 15:15:31  5-MIN KMSN 282115Z 00000KT 8SM BKN040 09/01 A3017 630 53 200 000/00 RMK AO2
14837KMSN MSN20060328152009403/28/06 15:20:31  5-MIN KMSN 282120Z 00000KT 8SM BKN040 09/01 A3017 630 53 200 000/00 RMK AO2
14837KMSN MSN20060328152509403/28/06 15:25:31  5-MIN KMSN 282125Z 00000KT 8SM BKN040 09/01 A3017 630 53 200 000/00 RMK AO2
14837KMSN MSN20060328153009403/28/06 15:30:31  5-MIN KMSN 282130Z VRB04KT 8SM BKN040 10/01 A3017 630 52 200 VRB/04 RMK AO2
14837KMSN MSN20060328153509403/28/06 15:35:31  5-MIN KMSN 282135Z VRB05KT 8SM BKN040 09/01 A3017 630 53 200 VRB/05 RMK AO2
14837KMSN MSN20060328154009403/28/06 15:40:31  5-MIN KMSN 282140Z VRB04KT 8SM BKN040 09/01 A3017 630 53 200 VRB/04 RMK AO2
14837KMSN MSN20060328154509403/28/06 15:45:31  5-MIN KMSN 282145Z 23003KT 8SM BKN040 09/01 A3017 630 53 200 230/03 RMK AO2
14837KMSN MSN20060328155011103/28/06 15:50:31  5-MIN KMSN 282150Z 23005KT 8SM BKN044 09/01 A3017 630 56 200 230/05 RMK AO2 SLP224 T00940011
14837KMSN MSN20060328155509403/28/06 15:55:31  5-MIN KMSN 282155Z 23005KT 8SM OVC044 09/01 A3017 630 53 200 230/05 RMK AO2
14837KMSN MSN20060328160009403/28/06 16:00:31  5-MIN KMSN 282200Z 22005KT 8SM BKN044 09/01 A3018 630 53 200 220/05 RMK AO2
14837KMSN MSN20060328160509403/28/06 16:05:31  5-MIN KMSN 282205Z VRB04KT 8SM BKN044 09/01 A3017 630 56 200 VRB/04 RMK AO2
14837KMSN MSN20060328161009403/28/06 16:10:31  5-MIN KMSN 282210Z 20007KT 8SM BKN044 10/01 A3017 630 54 200 200/07 RMK AO2
14837KMSN MSN20060328161509403/28/06 16:15:31  5-MIN KMSN 282215Z 18005KT 8SM BKN044 09/01 A3017 630 53 200 180/05 RMK AO2
14837KMSN MSN20060328162009403/28/06 16:20:31  5-MIN KMSN 282220Z 18007KT 7SM BKN044 09/01 A3017 630 53 200 180/07 RMK AO2
14837KMSN MSN20060328162509403/28/06 16:25:31  5-MIN KMSN 282225Z 17005KT 7SM BKN044 09/01 A3017 630 53 200 170/05 RMK AO2
14837KMSN MSN20060328163009403/28/06 16:30:31  5-MIN KMSN 282230Z 19005KT 7SM BKN044 09/01 A3017 630 53 200 190/05 RMK AO2
14837KMSN MSN20060328163509403/28/06 16:35:31  5-MIN KMSN 282235Z 19004KT 7SM BKN044 09/01 A3018 630 53 200 190/04 RMK AO2
14837KMSN MSN20060328164009403/28/06 16:40:31  5-MIN KMSN 282240Z 21004KT 8SM BKN044 09/01 A3018 630 53 200 210/04 RMK AO2
14837KMSN MSN20060328164509403/28/06 16:45:31  5-MIN KMSN 282245Z 20005KT 8SM BKN050 09/01 A3018 630 53 200 200/05 RMK AO2
14837KMSN MSN20060328165011103/28/06 16:50:31  5-MIN KMSN 282250Z 19003KT 8SM BKN055 09/01 A3018 630 53 100 190/03 RMK AO2 SLP225 T00940006
14837KMSN MSN20060328165509403/28/06 16:55:31  5-MIN KMSN 282255Z 20005KT 8SM BKN055 09/01 A3018 630 53 100 200/05 RMK AO2
14837KMSN MSN20060328170009403/28/06 17:00:31  5-MIN KMSN 282300Z 19006KT 7SM OVC055 09/01 A3018 620 53 100 190/06 RMK AO2
14837KMSN MSN20060328170509403/28/06 17:05:31  5-MIN KMSN 282305Z 19005KT 7SM OVC055 09/01 A3018 620 53 100 190/05 RMK AO2
14837KMSN MSN20060328171009403/28/06 17:10:31  5-MIN KMSN 282310Z VRB04KT 7SM BKN055 09/01 A3018 620 53 100 VRB/04 RMK AO2
14837KMSN MSN20060328171509403/28/06 17:15:31  5-MIN KMSN 282315Z 19004KT 7SM BKN055 09/01 A3018 620 56 100 190/04 RMK AO2
14837KMSN MSN20060328172009403/28/06 17:20:31  5-MIN KMSN 282320Z 17006KT 7SM BKN055 09/01 A3018 630 53 200 170/06 RMK AO2
14837KMSN MSN20060328172509403/28/06 17:25:31  5-MIN KMSN 282325Z 17007KT 7SM BKN055 09/01 A3018 630 56 200 170/07 RMK AO2
14837KMSN MSN20060328173009403/28/06 17:30:31  5-MIN KMSN 282330Z 17007KT 7SM BKN055 09/01 A3018 630 58 100 170/07 RMK AO2
14837KMSN MSN20060328173509403/28/06 17:35:31  5-MIN KMSN 282335Z 18006KT 7SM BKN055 09/01 A3018 630 58 100 170/06 RMK AO2
14837KMSN MSN20060328174009403/28/06 17:40:31  5-MIN KMSN 282340Z 18006KT 7SM BKN055 09/01 A3018 630 58 100 180/06 RMK AO2
14837KMSN MSN20060328174509403/28/06 17:45:31  5-MIN KMSN 282345Z 18007KT 7SM SCT055 09/01 A3018 630 56 100 180/07 RMK AO2
14837KMSN MSN20060328175012703/28/06 17:50:31  5-MIN KMSN 282350Z 17006KT 8SM SCT055 08/01 A3017 630 58 0 170/06 RMK AO2 SLP223 T00830006 10100 20078 55006
14837KMSN MSN20060328175509203/28/06 17:55:31  5-MIN KMSN 282355Z 18006KT 7SM SCT055 08/01 A3017 630 58 0 180/06 RMK AO2
14837KMSN MSN20060328180009203/28/06 18:00:31  5-MIN KMSN 290000Z 19007KT 7SM SCT055 08/01 A3017 630 58 0 180/07 RMK AO2
14837KMSN MSN20060328180509203/28/06 18:05:31  5-MIN KMSN 290005Z 19006KT 7SM SCT055 08/01 A3018 630 58 0 190/06 RMK AO2
14837KMSN MSN20060328181009203/28/06 18:10:31  5-MIN KMSN 290010Z 20004KT 7SM SCT055 08/01 A3018 630 58 0 200/04 RMK AO2
14837KMSN MSN20060328181509203/28/06 18:15:31  5-MIN KMSN 290015Z 20004KT 7SM SCT055 08/01 A3018 630 58 0 200/04 RMK AO2
14837KMSN MSN20060328182009203/28/06 18:20:31  5-MIN KMSN 290020Z 19004KT 7SM SCT055 08/01 A3018 630 60 0 190/04 RMK AO2
14837KMSN MSN20060328182509203/28/06 18:25:31  5-MIN KMSN 290025Z 20004KT 7SM SCT055 08/01 A3018 620 60 0 200/04 RMK AO2
14837KMSN MSN20060328183009203/28/06 18:30:31  5-MIN KMSN 290030Z 20004KT 7SM SCT055 08/01 A3018 620 60 0 200/04 RMK AO2
14837KMSN MSN20060328183509203/28/06 18:35:31  5-MIN KMSN 290035Z 20004KT 7SM SCT055 08/01 A3018 620 60 0 200/04 RMK AO2
14837KMSN MSN20060328184009203/28/06 18:40:31  5-MIN KMSN 290040Z 20004KT 7SM SCT055 08/01 A3018 620 60 0 200/04 RMK AO2
14837KMSN MSN20060328184509203/28/06 18:45:31  5-MIN KMSN 290045Z 21003KT 7SM CLR 07/01 A3019 620 62 -100 210/03 RMK AO2
14837KMSN MSN20060328185010903/28/06 18:50:31  5-MIN KMSN 290050Z 23003KT 7SM CLR 07/01 A3019 620 62 -100 230/03 RMK AO2 SLP230 T00720006
14837KMSN MSN20060328185509203/28/06 18:55:31  5-MIN KMSN 290055Z 21003KT 7SM CLR 06/00 A3019 620 65 -200 210/03 RMK AO2
14837KMSN MSN20060328190009203/28/06 19:00:31  5-MIN KMSN 290100Z 19003KT 7SM CLR 06/01 A3019 620 67 -200 190/03 RMK AO2
14837KMSN MSN20060328190509203/28/06 19:05:31  5-MIN KMSN 290105Z 00000KT 7SM CLR 06/00 A3019 610 67 -300 000/00 RMK AO2
14837KMSN MSN20060328191009203/28/06 19:10:31  5-MIN KMSN 290110Z 00000KT 7SM CLR 06/01 A3019 610 70 -300 000/00 RMK AO2
14837KMSN MSN20060328191509203/28/06 19:15:31  5-MIN KMSN 290115Z 00000KT 7SM CLR 05/01 A3020 610 73 -400 000/00 RMK AO2
14837KMSN MSN20060328192009203/28/06 19:20:31  5-MIN KMSN 290120Z 00000KT 7SM CLR 05/01 A3020 610 73 -400 000/00 RMK AO2
14837KMSN MSN20060328192509203/28/06 19:25:31  5-MIN KMSN 290125Z 23003KT 7SM CLR 05/01 A3020 610 73 -400 230/03 RMK AO2
14837KMSN MSN20060328193009203/28/06 19:30:31  5-MIN KMSN 290130Z 00000KT 7SM CLR 04/01 A3020 610 76 -400 000/00 RMK AO2
14837KMSN MSN20060328193509203/28/06 19:35:31  5-MIN KMSN 290135Z 22003KT 7SM CLR 05/01 A3020 610 73 -400 220/03 RMK AO2
14837KMSN MSN20060328194009203/28/06 19:40:31  5-MIN KMSN 290140Z 22003KT 7SM CLR 04/01 A3020 610 76 -400 220/03 RMK AO2
14837KMSN MSN20060328194509203/28/06 19:45:31  5-MIN KMSN 290145Z 21003KT 7SM CLR 06/01 A3020 600 70 -300 210/03 RMK AO2
14837KMSN MSN20060328195010903/28/06 19:50:31  5-MIN KMSN 290150Z 21003KT 7SM CLR 06/01 A3020 600 70 -300 210/03 RMK AO2 SLP235 T00560006
14837KMSN MSN20060328195509203/28/06 19:55:31  5-MIN KMSN 290155Z 23004KT 7SM CLR 05/01 A3021 600 73 -400 230/04 RMK AO2
14837KMSN MSN20060328200009503/28/06 20:00:31  5-MIN KMSN 290200Z 22005KT 6SM HZ CLR 05/01 A3021 600 73 -400 220/05 RMK AO2
14837KMSN MSN20060328200509503/28/06 20:05:31  5-MIN KMSN 290205Z 22003KT 6SM HZ CLR 06/01 A3021 600 70 -300 220/03 RMK AO2
14837KMSN MSN20060328201009503/28/06 20:10:31  5-MIN KMSN 290210Z 21004KT 6SM HZ CLR 05/01 A3021 600 73 -400 210/04 RMK AO2
14837KMSN MSN20060328201509503/28/06 20:15:31  5-MIN KMSN 290215Z 22003KT 6SM HZ CLR 06/01 A3021 600 70 -300 220/03 RMK AO2
14837KMSN MSN20060328202009503/28/06 20:20:31  5-MIN KMSN 290220Z 22004KT 6SM HZ CLR 05/01 A3021 600 73 -400 220/04 RMK AO2
14837KMSN MSN20060328202509503/28/06 20:25:31  5-MIN KMSN 290225Z 22004KT 6SM HZ CLR 05/01 A3021 600 73 -400 220/04 RMK AO2
14837KMSN MSN20060328203009503/28/06 20:30:31  5-MIN KMSN 290230Z 23004KT 6SM HZ CLR 04/00 A3021 590 76 -500 230/04 RMK AO2
14837KMSN MSN20060328203509503/28/06 20:35:31  5-MIN KMSN 290235Z 23003KT 6SM HZ CLR 03/00 A3021 590 79 -600 230/03 RMK AO2
14837KMSN MSN20060328204009503/28/06 20:40:31  5-MIN KMSN 290240Z 25003KT 6SM HZ CLR 03/00 A3022 590 82 -700 250/03 RMK AO2
14837KMSN MSN20060328204509503/28/06 20:45:31  5-MIN KMSN 290245Z 00000KT 6SM HZ CLR 03/00 A3022 590 79 -600 000/00 RMK AO2
14837KMSN MSN20060328205011503/28/06 20:50:31  5-MIN KMSN 290250Z 23004KT 7SM CLR 03/00 A3021 590 79 -600 230/04 RMK AO2 SLP239 T00330000 50003
14837KMSN MSN20060328205509503/28/06 20:55:31  5-MIN KMSN 290255Z 23003KT 6SM HZ CLR 03/00 A3021 590 79 -600 220/03 RMK AO2
14837KMSN MSN20060328210009503/28/06 21:00:31  5-MIN KMSN 290300Z 22003KT 6SM HZ CLR 04/00 A3021 590 73 -500 220/03 RMK AO2
14837KMSN MSN20060328210509503/28/06 21:05:31  5-MIN KMSN 290305Z 23004KT 6SM HZ CLR 04/01 A3021 590 76 -500 230/04 RMK AO2
14837KMSN MSN20060328211009503/28/06 21:10:31  5-MIN KMSN 290310Z 00000KT 6SM HZ CLR 04/00 A3021 590 76 -500 000/00 RMK AO2
14837KMSN MSN20060328211509503/28/06 21:15:31  5-MIN KMSN 290315Z 23003KT 6SM HZ CLR 04/00 A3021 590 76 -500 230/03 RMK AO2
14837KMSN MSN20060328212009503/28/06 21:20:31  5-MIN KMSN 290320Z 00000KT 5SM HZ CLR 04/01 A3022 590 79 -500 000/00 RMK AO2
14837KMSN MSN20060328212509203/28/06 21:25:31  5-MIN KMSN 290325Z 22003KT 7SM CLR 04/01 A3021 590 79 -500 220/03 RMK AO2
14837KMSN MSN20060328213009203/28/06 21:30:31  5-MIN KMSN 290330Z VRB03KT 7SM CLR 04/00 A3021 590 76 -500 VRB/03 RMK AO2
14837KMSN MSN20060328213509203/28/06 21:35:31  5-MIN KMSN 290335Z VRB04KT 7SM CLR 04/01 A3021 590 79 -500 VRB/04 RMK AO2
14837KMSN MSN20060328214009203/28/06 21:40:31  5-MIN KMSN 290340Z 23004KT 7SM CLR 04/01 A3021 600 76 -400 230/04 RMK AO2
14837KMSN MSN20060328214509203/28/06 21:45:31  5-MIN KMSN 290345Z 23003KT 7SM CLR 04/01 A3021 600 76 -400 220/03 RMK AO2
14837KMSN MSN20060328215010903/28/06 21:50:31  5-MIN KMSN 290350Z 23004KT 7SM CLR 04/01 A3021 600 76 -400 230/04 RMK AO2 SLP236 T00440006
14837KMSN MSN20060328215509203/28/06 21:55:31  5-MIN KMSN 290355Z 23003KT 7SM CLR 04/01 A3021 600 79 -500 230/03 RMK AO2
14837KMSN MSN20060328220009203/28/06 22:00:31  5-MIN KMSN 290400Z 00000KT 7SM CLR 04/01 A3021 600 79 -500 000/00 RMK AO2
14837KMSN MSN20060328220509203/28/06 22:05:31  5-MIN KMSN 290405Z 00000KT 7SM CLR 04/01 A3021 600 79 -500 000/00 RMK AO2
14837KMSN MSN20060328221009203/28/06 22:10:31  5-MIN KMSN 290410Z 00000KT 7SM CLR 03/00 A3021 600 79 -600 000/00 RMK AO2
14837KMSN MSN20060328221509303/28/06 22:15:31  5-MIN KMSN 290415Z 00000KT 7SM CLR 02/M01 A3021 600 82 -700 000/00 RMK AO2
14837KMSN MSN20060328222009303/28/06 22:20:31  5-MIN KMSN 290420Z 00000KT 7SM CLR 02/M01 A3021 600 82 -700 000/00 RMK AO2
14837KMSN MSN20060328222509303/28/06 22:25:31  5-MIN KMSN 290425Z 00000KT 7SM CLR 02/M01 A3021 600 82 -700 000/00 RMK AO2
14837KMSN MSN20060328223009303/28/06 22:30:31  5-MIN KMSN 290430Z 00000KT 7SM CLR 01/M02 A3021 590 82 -900 000/00 RMK AO2
14837KMSN MSN20060328223509303/28/06 22:35:31  5-MIN KMSN 290435Z 00000KT 7SM CLR 01/M02 A3022 590 82 -900 000/00 RMK AO2
14837KMSN MSN20060328224009303/28/06 22:40:31  5-MIN KMSN 290440Z 00000KT 7SM CLR 02/M02 A3022 590 78 -800 000/00 RMK AO2
14837KMSN MSN20060328224509603/28/06 22:45:31  5-MIN KMSN 290445Z 00000KT 6SM HZ CLR 01/M02 A3022 590 82 -900 000/00 RMK AO2
14837KMSN MSN20060328225011303/28/06 22:50:31  5-MIN KMSN 290450Z 14003KT 6SM HZ CLR 01/M02 A3022 590 82 -900 140/03 RMK AO2 SLP240 T00111017
14837KMSN MSN20060328225509703/28/06 22:55:31  5-MIN KMSN 290455Z 15003KT 6SM BR CLR 00/M02 A3022 590 85 -1000 150/03 RMK AO2
14837KMSN MSN20060328230009603/28/06 23:00:31  5-MIN KMSN 290500Z 00000KT 6SM HZ CLR 01/M02 A3022 590 82 -900 000/00 RMK AO2
14837KMSN MSN20060328230509603/28/06 23:05:31  5-MIN KMSN 290505Z 00000KT 6SM HZ CLR 01/M02 A3022 590 82 -900 000/00 RMK AO2
14837KMSN MSN20060328231009703/28/06 23:10:31  5-MIN KMSN 290510Z 00000KT 6SM BR CLR 00/M02 A3022 590 88 -1000 000/00 RMK AO2
14837KMSN MSN20060328231509703/28/06 23:15:31  5-MIN KMSN 290515Z 00000KT 6SM BR CLR 00/M02 A3022 590 88 -1000 000/00 RMK AO2
14837KMSN MSN20060328232009703/28/06 23:20:31  5-MIN KMSN 290520Z 00000KT 6SM BR CLR 00/M02 A3022 590 88 -1000 000/00 RMK AO2
14837KMSN MSN20060328232509703/28/06 23:25:31  5-MIN KMSN 290525Z 00000KT 6SM BR CLR 00/M02 A3022 590 88 -1000 000/00 RMK AO2
14837KMSN MSN20060328233009703/28/06 23:30:31  5-MIN KMSN 290530Z 00000KT 6SM BR CLR 00/M02 A3022 590 88 -1000 000/00 RMK AO2
14837KMSN MSN20060328233509703/28/06 23:35:31  5-MIN KMSN 290535Z 00000KT 5SM BR CLR 00/M01 A3022 590 92 -1000 000/00 RMK AO2
14837KMSN MSN20060328234009703/28/06 23:40:31  5-MIN KMSN 290540Z 00000KT 5SM BR CLR 00/M01 A3022 590 92 -1000 000/00 RMK AO2
14837KMSN MSN20060328234509703/28/06 23:45:31  5-MIN KMSN 290545Z 00000KT 5SM BR CLR 00/M01 A3022 590 92 -1000 000/00 RMK AO2
14837KMSN MSN20060328235014203/28/06 23:50:31  5-MIN KMSN 290550Z 00000KT 5SM BR CLR 00/M01 A3022 590 96 -1000 000/00 RMK AO2 SLP242 T00001006 10083 20000 401000000 51014
14837KMSN MSN20060328235509703/28/06 23:55:31  5-MIN KMSN 290555Z 00000KT 5SM BR CLR 00/M02 A3022 590 88 -1000 000/00 RMK AO2
14837KMSN MSN20060329000009703/29/06 00:00:38  5-MIN KMSN 290600Z 00000KT 5SM BR CLR 00/M01 A3022 590 92 -1000 000/00 RMK AO2
14837KMSN MSN20060329000509803/29/06 00:05:31  5-MIN KMSN 290605Z 00000KT 5SM BR CLR M01/M02 A3022 590 92 -1100 000/00 RMK AO2
14837KMSN MSN20060329001009803/29/06 00:10:31  5-MIN KMSN 290610Z 00000KT 5SM BR CLR M01/M02 A3022 590 88 -1100 000/00 RMK AO2
14837KMSN MSN20060329001509803/29/06 00:15:32  5-MIN KMSN 290615Z 00000KT 5SM BR CLR M01/M02 A3022 590 88 -1100 000/00 RMK AO2
14837KMSN MSN20060329002009803/29/06 00:20:31  5-MIN KMSN 290620Z 00000KT 5SM BR CLR M01/M02 A3022 580 88 -1100 000/00 RMK AO2
14837KMSN MSN20060329002509803/29/06 00:25:31  5-MIN KMSN 290625Z 00000KT 5SM BR CLR M01/M02 A3023 580 96 -1200 000/00 RMK AO2
14837KMSN MSN20060329003009803/29/06 00:30:31  5-MIN KMSN 290630Z 00000KT 5SM BR CLR M01/M02 A3022 580 92 -1200 000/00 RMK AO2
14837KMSN MSN20060329003509803/29/06 00:35:31  5-MIN KMSN 290635Z 00000KT 5SM BR CLR M01/M02 A3022 580 88 -1100 000/00 RMK AO2
14837KMSN MSN20060329004009803/29/06 00:40:31  5-MIN KMSN 290640Z 00000KT 5SM BR CLR M01/M02 A3022 580 92 -1100 000/00 RMK AO2
14837KMSN MSN20060329004509803/29/06 00:45:31  5-MIN KMSN 290645Z 00000KT 5SM BR CLR M01/M02 A3023 580 88 -1100 000/00 RMK AO2
14837KMSN MSN20060329005011503/29/06 00:50:31  5-MIN KMSN 290650Z 00000KT 5SM BR CLR M01/M02 A3023 580 92 -1200 000/00 RMK AO2 SLP243 T10111022
14837KMSN MSN20060329005509803/29/06 00:55:31  5-MIN KMSN 290655Z 00000KT 4SM BR CLR M01/M03 A3022 580 88 -1200 000/00 RMK AO2
14837KMSN MSN20060329010009803/29/06 01:00:31  5-MIN KMSN 290700Z 00000KT 4SM BR CLR M01/M03 A3023 580 88 -1200 000/00 RMK AO2
14837KMSN MSN20060329010509803/29/06 01:05:31  5-MIN KMSN 290705Z 00000KT 4SM BR CLR M01/M03 A3022 580 88 -1200 000/00 RMK AO2
14837KMSN MSN20060329011009803/29/06 01:10:31  5-MIN KMSN 290710Z 00000KT 4SM BR CLR M01/M03 A3022 590 88 -1200 000/00 RMK AO2
14837KMSN MSN20060329011509803/29/06 01:15:31  5-MIN KMSN 290715Z 00000KT 4SM BR CLR M01/M03 A3022 590 88 -1200 000/00 RMK AO2
14837KMSN MSN20060329012009803/29/06 01:20:31  5-MIN KMSN 290720Z 00000KT 4SM BR CLR M01/M02 A3022 590 92 -1200 000/00 RMK AO2
14837KMSN MSN20060329012509803/29/06 01:25:31  5-MIN KMSN 290725Z 00000KT 4SM BR CLR M01/M02 A3022 590 92 -1200 000/00 RMK AO2
14837KMSN MSN20060329013009803/29/06 01:30:31  5-MIN KMSN 290730Z 18003KT 4SM BR CLR M01/M02 A3022 590 92 -1200 180/03 RMK AO2
14837KMSN MSN20060329013509803/29/06 01:35:31  5-MIN KMSN 290735Z 00000KT 4SM BR CLR M01/M03 A3022 590 88 -1200 000/00 RMK AO2
14837KMSN MSN20060329014009803/29/06 01:40:31  5-MIN KMSN 290740Z 00000KT 4SM BR CLR M02/M03 A3022 590 92 -1200 000/00 RMK AO2
14837KMSN MSN20060329014509803/29/06 01:45:31  5-MIN KMSN 290745Z 00000KT 4SM BR CLR M01/M03 A3022 590 88 -1100 000/00 RMK AO2
14837KMSN MSN20060329015011503/29/06 01:50:31  5-MIN KMSN 290750Z 00000KT 3SM BR CLR M02/M03 A3022 590 92 -1200 000/00 RMK AO2 SLP241 T10171028
14837KMSN MSN20060329015509803/29/06 01:55:31  5-MIN KMSN 290755Z 00000KT 3SM BR CLR M02/M03 A3022 590 88 -1200 000/00 RMK AO2
14837KMSN MSN20060329020009803/29/06 02:00:31  5-MIN KMSN 290800Z 00000KT 3SM BR CLR M02/M03 A3022 590 92 -1300 000/00 RMK AO2
14837KMSN MSN20060329020509803/29/06 02:05:31  5-MIN KMSN 290805Z 00000KT 3SM BR CLR M02/M03 A3022 590 88 -1200 000/00 RMK AO2
14837KMSN MSN20060329021009803/29/06 02:10:31  5-MIN KMSN 290810Z 00000KT 3SM BR CLR M02/M03 A3022 590 88 -1200 000/00 RMK AO2
14837KMSN MSN20060329021509803/29/06 02:15:31  5-MIN KMSN 290815Z 00000KT 3SM BR CLR M02/M03 A3022 590 92 -1200 000/00 RMK AO2
14837KMSN MSN20060329022009803/29/06 02:20:31  5-MIN KMSN 290820Z 00000KT 3SM BR CLR M02/M03 A3022 590 92 -1200 000/00 RMK AO2
14837KMSN MSN20060329022509803/29/06 02:25:31  5-MIN KMSN 290825Z 00000KT 3SM BR CLR M02/M03 A3022 590 92 -1300 000/00 RMK AO2
14837KMSN MSN20060329023009803/29/06 02:30:31  5-MIN KMSN 290830Z 00000KT 3SM BR CLR M02/M03 A3022 590 92 -1300 000/00 RMK AO2
14837KMSN MSN20060329023509803/29/06 02:35:31  5-MIN KMSN 290835Z 00000KT 3SM BR CLR M02/M03 A3022 590 88 -1200 000/00 RMK AO2
14837KMSN MSN20060329024009803/29/06 02:40:31  5-MIN KMSN 290840Z 00000KT 3SM BR CLR M02/M03 A3022 590 92 -1300 000/00 RMK AO2
14837KMSN MSN20060329024509803/29/06 02:45:31  5-MIN KMSN 290845Z 00000KT 3SM BR CLR M02/M03 A3022 590 92 -1300 000/00 RMK AO2
14837KMSN MSN20060329025012103/29/06 02:50:31  5-MIN KMSN 290850Z 00000KT 3SM BR CLR M02/M03 A3022 590 92 -1300 000/00 RMK AO2 SLP242 T10221033 53002
14837KMSN MSN20060329025509803/29/06 02:55:31  5-MIN KMSN 290855Z 00000KT 3SM BR CLR M02/M04 A3022 590 88 -1300 000/00 RMK AO2
14837KMSN MSN20060329030009803/29/06 03:00:31  5-MIN KMSN 290900Z 00000KT 3SM BR CLR M02/M04 A3022 590 85 -1200 000/00 RMK AO2
14837KMSN MSN20060329030509803/29/06 03:05:31  5-MIN KMSN 290905Z 00000KT 3SM BR CLR M02/M03 A3022 590 92 -1300 000/00 RMK AO2
14837KMSN MSN20060329031009803/29/06 03:10:31  5-MIN KMSN 290910Z 00000KT 3SM BR CLR M02/M03 A3022 590 96 -1300 000/00 RMK AO2
14837KMSN MSN20060329031509803/29/06 03:15:31  5-MIN KMSN 290915Z 00000KT 3SM BR CLR M02/M02 A3022 590 96 -1200 000/00 RMK AO2
14837KMSN MSN20060329032009803/29/06 03:20:31  5-MIN KMSN 290920Z 00000KT 3SM BR CLR M02/M03 A3022 590 96 -1300 000/00 RMK AO2
14837KMSN MSN20060329032509803/29/06 03:25:31  5-MIN KMSN 290925Z 00000KT 3SM BR CLR M03/M03 A3022 590 96 -1400 000/00 RMK AO2
14837KMSN MSN20060329033010203/29/06 03:30:31  5-MIN KMSN 290930Z 00000KT 1 1/4SM BR CLR M02/M03 A3022 590 92 -1300 000/00 RMK AO2
14837KMSN MSN20060329033509803/29/06 03:35:31  5-MIN KMSN 290935Z 00000KT 1SM BR CLR M02/M03 A3022 590 92 -1300 000/00 RMK AO2
14837KMSN MSN20060329034009803/29/06 03:40:31  5-MIN KMSN 290940Z 00000KT 1SM BR CLR M02/M03 A3022 590 96 -1300 000/00 RMK AO2
14837KMSN MSN20060329034509803/29/06 03:45:31  5-MIN KMSN 290945Z 00000KT 1SM BR CLR M02/M03 A3022 590 96 -1300 000/00 RMK AO2
14837KMSN MSN20060329035011503/29/06 03:50:31  5-MIN KMSN 290950Z 00000KT 1SM BR CLR M02/M03 A3022 590 96 -1300 000/00 RMK AO2 SLP241 T10221028
14837KMSN MSN20060329035509803/29/06 03:55:31  5-MIN KMSN 290955Z 00000KT 1SM BR CLR M03/M03 A3022 590 96 -1400 000/00 RMK AO2
14837KMSN MSN20060329040009803/29/06 04:00:31  5-MIN KMSN 291000Z 00000KT 1SM BR CLR M03/M03 A3022 590 96 -1400 000/00 RMK AO2
14837KMSN MSN20060329040510203/29/06 04:05:31  5-MIN KMSN 291005Z 00000KT 1/2SM FZFG CLR M03/M04 A3022 590 92 -1400 000/00 RMK AO2
14837KMSN MSN20060329041010203/29/06 04:10:31  5-MIN KMSN 291010Z 00000KT 1/4SM FZFG CLR M03/M04 A3022 590 92 -1400 000/00 RMK AO2
14837KMSN MSN20060329041510203/29/06 04:15:31  5-MIN KMSN 291015Z 00000KT 1/4SM FZFG CLR M03/M04 A3022 590 92 -1400 000/00 RMK AO2
14837KMSN MSN20060329042010203/29/06 04:20:31  5-MIN KMSN 291020Z 00000KT 1/4SM FZFG CLR M03/M04 A3022 590 92 -1400 000/00 RMK AO2
14837KMSN MSN20060329042510203/29/06 04:25:31  5-MIN KMSN 291025Z 00000KT 1/4SM FZFG CLR M03/M04 A3022 590 92 -1400 000/00 RMK AO2
14837KMSN MSN20060329043010003/29/06 04:30:31  5-MIN KMSN 291030Z 00000KT 3/4SM BR CLR M03/M04 A3022 580 96 -1400 000/00 RMK AO2
14837KMSN MSN20060329043510203/29/06 04:35:31  5-MIN KMSN 291035Z 00000KT 3/4SM BR VV001 M03/M03 A3022 580 96 -1400 000/00 RMK AO2
14837KMSN MSN20060329044010203/29/06 04:40:31  5-MIN KMSN 291040Z 00000KT 3/4SM BR VV001 M03/M04 A3022 580 92 -1400 000/00 RMK AO2
14837KMSN MSN20060329044510203/29/06 04:45:31  5-MIN KMSN 291045Z 00000KT 3/4SM BR VV001 M03/M04 A3022 580 92 -1400 000/00 RMK AO2
14837KMSN MSN20060329045011903/29/06 04:50:31  5-MIN KMSN 291050Z 00000KT 3/4SM BR VV001 M03/M04 A3023 580 92 -1400 000/00 RMK AO2 SLP243 T10281039
14837KMSN MSN20060329045511503/29/06 04:55:31  5-MIN KMSN 291055Z 00000KT 1 1/4SM BR SCT001 M03/M04 A3023 580 92 -1400 000/00 RMK AO2 VIS 1/2V3
14837KMSN MSN20060329050010503/29/06 05:00:31  5-MIN KMSN 291100Z 00000KT 1 1/4SM BR SCT001 M03/M04 A3023 580 88 -1400 000/00 RMK AO2
14837KMSN MSN20060329050510103/29/06 05:05:31  5-MIN KMSN 291105Z 00000KT 3SM BR FEW001 M03/M04 A3023 580 96 -1400 000/00 RMK AO2
14837KMSN MSN20060329051010103/29/06 05:10:31  5-MIN KMSN 291110Z 00000KT 2SM BR FEW001 M03/M04 A3023 580 96 -1400 000/00 RMK AO2
14837KMSN MSN20060329051509803/29/06 05:15:31  5-MIN KMSN 291115Z 00000KT 1SM BR CLR M04/M04 A3023 580 96 -1500 000/00 RMK AO2
14837KMSN MSN20060329052009803/29/06 05:20:31  5-MIN KMSN 291120Z 00000KT 1SM BR CLR M04/M05 A3023 580 92 -1500 000/00 RMK AO2
14837KMSN MSN20060329052509803/29/06 05:25:31  5-MIN KMSN 291125Z 00000KT 1SM BR CLR M04/M05 A3023 580 92 -1500 000/00 RMK AO2
14837KMSN MSN20060329053009803/29/06 05:30:31  5-MIN KMSN 291130Z 00000KT 1SM BR CLR M03/M05 A3023 580 88 -1400 000/00 RMK AO2
14837KMSN MSN20060329053509803/29/06 05:35:31  5-MIN KMSN 291135Z 00000KT 1SM BR CLR M03/M04 A3024 570 92 -1500 000/00 RMK AO2
14837KMSN MSN20060329054009803/29/06 05:40:31  5-MIN KMSN 291140Z 00000KT 1SM BR CLR M03/M04 A3024 570 92 -1400 000/00 RMK AO2
14837KMSN MSN20060329054509803/29/06 05:45:31  5-MIN KMSN 291145Z 00000KT 1SM BR CLR M03/M04 A3024 570 92 -1400 000/00 RMK AO2
14837KMSN MSN20060329055013503/29/06 05:50:31  5-MIN KMSN 291150Z 00000KT 1SM MIFG CLR M03/M04 A3024 570 92 -1400 000/00 RMK AO2 SLP248 T10281039 10000 21039 53000
14837KMSN MSN20060329055511403/29/06 05:55:31  5-MIN KMSN 291155Z 00000KT 1SM MIFG CLR M02/M04 A3024 570 88 -1300 000/00 RMK AO2 TWR VIS 2 1/2
14837KMSN MSN20060329060011803/29/06 06:00:31  5-MIN KMSN 291200Z 00000KT 1 1/2SM MIFG CLR M03/M04 A3024 570 92 -1400 000/00 RMK AO2 TWR VIS 2 1/2
14837KMSN MSN20060329060511403/29/06 06:05:31  5-MIN KMSN 291205Z 00000KT 1SM MIFG CLR M03/M04 A3024 570 92 -1400 000/00 RMK AO2 TWR VIS 2 1/2
14837KMSN MSN20060329061011603/29/06 06:10:31  5-MIN KMSN 291210Z 00000KT 1SM MIFG VV001 M03/M04 A3025 560 92 -1400 000/00 RMK AO2 TWR VIS 2 1/2
14837KMSN MSN20060329061511603/29/06 06:15:31  5-MIN KMSN 291215Z 00000KT 1SM MIFG VV001 M03/M04 A3025 560 96 -1500 000/00 RMK AO2 TWR VIS 2 1/2
14837KMSN MSN20060329062011703/29/06 06:20:31  5-MIN KMSN 291220Z 00000KT 1SM MIFG VV001 M03/M03 A3025 560 100 -1500 000/00 RMK AO2 TWR VIS 2 1/2
14837KMSN MSN20060329062511603/29/06 06:25:31  5-MIN KMSN 291225Z 00000KT 1SM MIFG VV001 M03/M04 A3025 560 96 -1500 000/00 RMK AO2 TWR VIS 2 1/2
14837KMSN MSN20060329063011703/29/06 06:30:31  5-MIN KMSN 291230Z 00000KT 1SM MIFG VV001 M03/M03 A3025 560 100 -1400 000/00 RMK AO2 TWR VIS 2 1/2
14837KMSN MSN20060329063511703/29/06 06:35:31  5-MIN KMSN 291235Z 00000KT 1SM MIFG VV001 M03/M03 A3025 560 100 -1400 000/00 RMK AO2 TWR VIS 2 1/2
14837KMSN MSN20060329064011403/29/06 06:40:31  5-MIN KMSN 291240Z 00000KT 1SM MIFG CLR M02/M03 A3026 560 96 -1300 000/00 RMK AO2 TWR VIS 2 1/2
14837KMSN MSN20060329064511403/29/06 06:45:31  5-MIN KMSN 291245Z 00000KT 2 1/2SM MIFG CLR M02/M03 A3026 550 96 -1300 000/00 RMK AO2 SFC VIS 3
14837KMSN MSN20060329065013403/29/06 06:50:31  5-MIN KMSN 291250Z 00000KT 2 1/2SM MIFG FEW035 M02/M02 A3026 550 96 -1300 000/00 RMK AO2 SFC VIS 3 SLP254 T10171022
14837KMSN MSN20060329065511703/29/06 06:55:31  5-MIN KMSN 291255Z 00000KT 2 1/2SM MIFG FEW035 M01/M02 A3026 550 96 -1200 000/00 RMK AO2 SFC VIS 3
14837KMSN MSN20060329070011603/29/06 07:00:31  5-MIN KMSN 291300Z 16003KT 2 1/2SM MIFG FEW035 00/M01 A3026 550 92 -1100 160/03 RMK AO2 SFC VIS 3
14837KMSN MSN20060329070511403/29/06 07:05:31  5-MIN KMSN 291305Z 18005KT 2 1/2SM BR SCT035 01/M01 A3026 550 92 -1000 180/05 RMK AO2 SFC VIS 4
14837KMSN MSN20060329071011303/29/06 07:10:31  5-MIN KMSN 291310Z 18005KT 2 1/2SM BR BKN035 01/M01 A3026 550 89 -900 180/05 RMK AO2 SFC VIS 4
14837KMSN MSN20060329071509803/29/06 07:15:31  5-MIN KMSN 291315Z 18006KT 4SM BR BKN035 02/00 A3026 560 89 -800 180/06 RMK AO2
14837KMSN MSN20060329072009803/29/06 07:20:31  5-MIN KMSN 291320Z 18005KT 4SM BR SCT035 02/00 A3026 560 89 -800 180/05 RMK AO2
14837KMSN MSN20060329072509803/29/06 07:25:31  5-MIN KMSN 291325Z 18003KT 4SM BR SCT035 02/01 A3026 560 89 -800 180/03 RMK AO2
14837KMSN MSN20060329073009803/29/06 07:30:31  5-MIN KMSN 291330Z 18004KT 4SM BR SCT035 03/01 A3026 550 89 -700 180/04 RMK AO2
14837KMSN MSN20060329073509803/29/06 07:35:31  5-MIN KMSN 291335Z 18005KT 4SM BR FEW035 03/01 A3026 550 89 -700 180/05 RMK AO2
14837KMSN MSN20060329074009503/29/06 07:40:31  5-MIN KMSN 291340Z 17005KT 4SM BR CLR 03/01 A3025 560 89 -700 170/05 RMK AO2
14837KMSN MSN20060329074509503/29/06 07:45:31  5-MIN KMSN 291345Z 16005KT 4SM BR CLR 03/01 A3026 550 85 -600 160/05 RMK AO2
14837KMSN MSN20060329075011203/29/06 07:50:31  5-MIN KMSN 291350Z 16005KT 4SM BR CLR 03/02 A3026 560 89 -600 160/05 RMK AO2 SLP252 T00330017
14837KMSN MSN20060329075509503/29/06 07:55:31  5-MIN KMSN 291355Z 17005KT 3SM BR CLR 04/02 A3026 550 85 -600 170/05 RMK AO2
14837KMSN MSN20060329080009503/29/06 08:00:31  5-MIN KMSN 291400Z 18004KT 3SM BR CLR 04/02 A3026 550 85 -600 170/04 RMK AO2
14837KMSN MSN20060329080509503/29/06 08:05:31  5-MIN KMSN 291405Z 17005KT 3SM HZ CLR 04/02 A3026 550 82 -500 170/05 RMK AO2
14837KMSN MSN20060329081009503/29/06 08:10:31  5-MIN KMSN 291410Z 17005KT 3SM HZ CLR 05/02 A3026 550 79 -400 170/05 RMK AO2
14837KMSN MSN20060329081509503/29/06 08:15:31  5-MIN KMSN 291415Z 18006KT 3SM HZ CLR 05/02 A3026 550 79 -400 180/06 RMK AO2
14837KMSN MSN20060329082009503/29/06 08:20:31  5-MIN KMSN 291420Z 19005KT 3SM HZ CLR 06/02 A3026 550 76 -400 190/05 RMK AO2
14837KMSN MSN20060329082509503/29/06 08:25:31  5-MIN KMSN 291425Z 17007KT 3SM HZ CLR 06/02 A3026 550 76 -400 170/07 RMK AO2
14837KMSN MSN20060329083009503/29/06 08:30:31  5-MIN KMSN 291430Z 18008KT 4SM HZ CLR 06/02 A3026 550 73 -300 180/08 RMK AO2
14837KMSN MSN20060329083509503/29/06 08:35:31  5-MIN KMSN 291435Z 19006KT 4SM HZ CLR 06/02 A3026 550 73 -300 190/06 RMK AO2
14837KMSN MSN20060329084009503/29/06 08:40:31  5-MIN KMSN 291440Z 18005KT 4SM HZ CLR 07/02 A3026 550 73 -200 180/05 RMK AO2
14837KMSN MSN20060329084509803/29/06 08:45:31  5-MIN KMSN 291445Z 21007KT 4SM HZ FEW033 07/02 A3026 550 70 -200 210/07 RMK AO2
14837KMSN MSN20060329085012103/29/06 08:50:31  5-MIN KMSN 291450Z 19006KT 4SM HZ SCT033 07/02 A3026 550 70 -200 190/06 RMK AO2 SLP255 T00670017 53006
14837KMSN MSN20060329085509803/29/06 08:55:31  5-MIN KMSN 291455Z 20005KT 4SM HZ BKN033 07/02 A3026 550 70 -200 190/05 RMK AO2
14837KMSN MSN20060329090009803/29/06 09:00:31  5-MIN KMSN 291500Z 18006KT 4SM HZ BKN033 07/02 A3026 550 68 -200 180/06 RMK AO2
14837KMSN MSN20060329090510003/29/06 09:05:31  5-MIN KMSN 291505Z 18006KT 4SM HZ BKN033 07/02 A3026 550 68 -200 180/06 RMK AO2 $
14837KMSN MSN20060329091010003/29/06 09:10:31  5-MIN KMSN 291510Z 18007KT 4SM HZ BKN033 07/02 A3026 550 68 -200 180/07 RMK AO2 $
14837KMSN MSN20060329091510003/29/06 09:15:31  5-MIN KMSN 291515Z 18007KT 4SM HZ BKN033 07/02 A3026 550 68 -200 180/07 RMK AO2 $
14837KMSN MSN20060329092010003/29/06 09:20:31  5-MIN KMSN 291520Z 17008KT 4SM HZ BKN033 07/02 A3026 550 70 -200 170/08 RMK AO2 $
14837KMSN MSN20060329092510003/29/06 09:25:31  5-MIN KMSN 291525Z 17008KT 4SM HZ BKN033 07/02 A3026 550 70 -200 170/08 RMK AO2 $
14837KMSN MSN20060329093010003/29/06 09:30:31  5-MIN KMSN 291530Z 18007KT 4SM HZ BKN033 07/02 A3026 550 70 -200 180/07 RMK AO2 $
14837KMSN MSN20060329093510003/29/06 09:35:31  5-MIN KMSN 291535Z 19006KT 4SM HZ OVC033 07/02 A3026 550 70 -200 190/06 RMK AO2 $
14837KMSN MSN20060329094010003/29/06 09:40:31  5-MIN KMSN 291540Z 18008KT 4SM HZ OVC033 07/02 A3026 550 68 -200 170/08 RMK AO2 $
14837KMSN MSN20060329094510703/29/06 09:45:31  5-MIN KMSN 291545Z 18008KT 4SM HZ BKN030 OVC035 07/02 A3026 550 70 -200 170/08 RMK AO2 $
14837KMSN MSN20060329095011703/29/06 09:50:31  5-MIN KMSN 291550Z 18009KT 4SM HZ OVC030 07/02 A3026 550 70 -200 180/09 RMK AO2 SLP255 T00720022 $
14837KMSN MSN20060329095510003/29/06 09:55:31  5-MIN KMSN 291555Z 18008KT 5SM HZ OVC030 07/02 A3026 550 70 -200 180/08 RMK AO2 $
14837KMSN MSN20060329100010003/29/06 10:00:31  5-MIN KMSN 291600Z 19010KT 5SM HZ OVC030 07/02 A3026 550 68 -200 190/10 RMK AO2 $
14837KMSN MSN20060329100510003/29/06 10:05:31  5-MIN KMSN 291605Z 18008KT 5SM HZ OVC030 08/02 A3026 550 65 -100 180/08 RMK AO2 $
14837KMSN MSN20060329101010003/29/06 10:10:31  5-MIN KMSN 291610Z 19008KT 5SM HZ OVC030 07/02 A3027 550 70 -200 190/08 RMK AO2 $
14837KMSN MSN20060329101510003/29/06 10:15:31  5-MIN KMSN 291615Z 16010KT 4SM HZ OVC030 08/03 A3026 550 70 -100 160/10 RMK AO2 $
14837KMSN MSN20060329102010003/29/06 10:20:31  5-MIN KMSN 291620Z 18010KT 4SM HZ OVC030 08/03 A3026 550 70 -100 180/10 RMK AO2 $
14837KMSN MSN20060329102510003/29/06 10:25:31  5-MIN KMSN 291625Z 18009KT 4SM HZ OVC030 07/02 A3027 550 70 -200 180/09 RMK AO2 $
14837KMSN MSN20060329103010003/29/06 10:30:31  5-MIN KMSN 291630Z 17010KT 4SM HZ OVC030 07/03 A3026 550 73 -200 170/10 RMK AO2 $
14837KMSN MSN20060329103510003/29/06 10:35:31  5-MIN KMSN 291635Z 17010KT 4SM HZ OVC030 07/03 A3027 550 73 -200 170/10 RMK AO2 $
14837KMSN MSN20060329104010003/29/06 10:40:31  5-MIN KMSN 291640Z 17011KT 4SM HZ OVC030 07/02 A3027 550 70 -200 170/11 RMK AO2 $
14837KMSN MSN20060329104510003/29/06 10:45:31  5-MIN KMSN 291645Z 18010KT 5SM HZ OVC030 07/02 A3027 550 70 -200 180/10 RMK AO2 $
14837KMSN MSN20060329105012403/29/06 10:50:31  5-MIN KMSN 291650Z 18010KT 5SM HZ FEW021 OVC030 07/02 A3026 550 68 -200 170/10 RMK AO2 SLP256 T00720017 $
14837KMSN MSN20060329105510003/29/06 10:55:31  5-MIN KMSN 291655Z 17011KT 6SM HZ OVC030 07/02 A3026 550 68 -200 170/11 RMK AO2 $
14837KMSN MSN20060329110010003/29/06 11:00:31  5-MIN KMSN 291700Z 17011KT 6SM HZ OVC030 07/02 A3026 550 68 -200 170/11 RMK AO2 $
14837KMSN MSN20060329110510003/29/06 11:05:31  5-MIN KMSN 291705Z 17011KT 6SM HZ OVC030 07/02 A3026 550 68 -200 170/11 RMK AO2 $
14837KMSN MSN20060329111010003/29/06 11:10:31  5-MIN KMSN 291710Z 17010KT 6SM HZ OVC030 08/02 A3026 550 65 -100 170/10 RMK AO2 $
14837KMSN MSN20060329111510003/29/06 11:15:31  5-MIN KMSN 291715Z 17011KT 6SM HZ OVC028 07/02 A3026 550 68 -200 170/11 RMK AO2 $
14837KMSN MSN20060329112010003/29/06 11:20:31  5-MIN KMSN 291720Z 17009KT 6SM HZ OVC028 07/02 A3026 550 68 -200 170/09 RMK AO2 $
14837KMSN MSN20060329112510003/29/06 11:25:31  5-MIN KMSN 291725Z 18012KT 6SM HZ OVC028 08/01 A3026 550 62 -100 170/12 RMK AO2 $
14837KMSN MSN20060329113009703/29/06 11:30:31  5-MIN KMSN 291730Z 17011KT 7SM OVC026 08/01 A3025 560 62 -100 170/11 RMK AO2 $
14837KMSN MSN20060329113509703/29/06 11:35:31  5-MIN KMSN 291735Z 18012KT 7SM OVC026 08/01 A3025 560 62 -100 180/12 RMK AO2 $
14837KMSN MSN20060329114009703/29/06 11:40:31  5-MIN KMSN 291740Z 17012KT 7SM OVC026 08/01 A3025 560 62 -100 170/12 RMK AO2 $
14837KMSN MSN20060329114509703/29/06 11:45:31  5-MIN KMSN 291745Z 19010KT 7SM OVC026 08/01 A3025 560 62 -100 190/10 RMK AO2 $
14837KMSN MSN20060329115013203/29/06 11:50:31  5-MIN KMSN 291750Z 18010KT 7SM OVC026 08/01 A3025 560 62 -100 180/10 RMK AO2 SLP252 T00780011 10078 21033 51007 $
14837KMSN MSN20060329115509703/29/06 11:55:31  5-MIN KMSN 291755Z 18012KT 7SM OVC026 08/01 A3025 560 62 -100 180/12 RMK AO2 $
14837KMSN MSN20060329120009503/29/06 12:00:31  5-MIN KMSN 291800Z 19010KT 7SM OVC026 07/01 A3025 560 65 -100 190/10 RMK AO2
14837KMSN MSN20060329120509503/29/06 12:05:31  5-MIN KMSN 291805Z 19011KT 7SM OVC026 08/01 A3025 560 62 -100 190/11 RMK AO2
14837KMSN MSN20060329121009503/29/06 12:10:31  5-MIN KMSN 291810Z 17011KT 8SM OVC026 08/01 A3025 560 62 -100 170/11 RMK AO2
14837KMSN MSN20060329121509503/29/06 12:15:31  5-MIN KMSN 291815Z 17012KT 8SM OVC026 08/01 A3024 570 62 -100 170/12 RMK AO2
14837KMSN MSN20060329122009503/29/06 12:20:31  5-MIN KMSN 291820Z 17011KT 7SM OVC026 08/01 A3024 570 62 -100 170/11 RMK AO2
14837KMSN MSN20060329122509503/29/06 12:25:31  5-MIN KMSN 291825Z 17012KT 7SM OVC026 08/01 A3024 570 62 -100 170/12 RMK AO2
14837KMSN MSN20060329123009503/29/06 12:30:31  5-MIN KMSN 291830Z 16012KT 7SM OVC026 08/02 A3023 570 65 -100 150/12 RMK AO2
14837KMSN MSN20060329123509503/29/06 12:35:31  5-MIN KMSN 291835Z 18013KT 7SM OVC026 08/01 A3024 570 62 -100 180/13 RMK AO2
14837KMSN MSN20060329124009503/29/06 12:40:31  5-MIN KMSN 291840Z 17013KT 7SM OVC026 08/01 A3023 570 62 -100 170/13 RMK AO2
14837KMSN MSN20060329124509503/29/06 12:45:31  5-MIN KMSN 291845Z 17011KT 7SM OVC026 08/01 A3023 580 62 -100 170/11 RMK AO2
14837KMSN MSN20060329125011203/29/06 12:50:31  5-MIN KMSN 291850Z 18011KT 7SM OVC026 08/01 A3023 580 62 -100 180/11 RMK AO2 SLP244 T00780011
14837KMSN MSN20060329125509503/29/06 12:55:31  5-MIN KMSN 291855Z 17011KT 7SM OVC026 08/01 A3023 580 62 -100 170/11 RMK AO2
14837KMSN MSN20060329130009503/29/06 13:00:31  5-MIN KMSN 291900Z 18011KT 7SM OVC026 08/01 A3022 580 62 -100 180/11 RMK AO2
14837KMSN MSN20060329130509503/29/06 13:05:31  5-MIN KMSN 291905Z 17012KT 7SM OVC026 08/01 A3022 590 62 -100 170/12 RMK AO2
14837KMSN MSN20060329131009203/29/06 13:10:31  5-MIN KMSN 291910Z 18011KT 7SM OVC026 08/01 A3022 590 62 0 180/11 RMK AO2
14837KMSN MSN20060329131509203/29/06 13:15:31  5-MIN KMSN 291915Z 18011KT 7SM OVC026 08/02 A3022 590 65 0 180/11 RMK AO2
14837KMSN MSN20060329132009203/29/06 13:20:31  5-MIN KMSN 291920Z 17012KT 7SM OVC026 08/02 A3021 590 65 0 170/12 RMK AO2
14837KMSN MSN20060329132509203/29/06 13:25:31  5-MIN KMSN 291925Z 17011KT 7SM OVC026 08/02 A3021 590 65 0 170/11 RMK AO2
14837KMSN MSN20060329133009203/29/06 13:30:31  5-MIN KMSN 291930Z 18011KT 7SM OVC024 08/02 A3021 590 65 0 180/11 RMK AO2
14837KMSN MSN20060329133509503/29/06 13:35:31  5-MIN KMSN 291935Z 18012KT 6SM HZ OVC024 08/02 A3021 590 65 0 180/12 RMK AO2
14837KMSN MSN20060329134009503/29/06 13:40:31  5-MIN KMSN 291940Z 18012KT 6SM HZ OVC024 08/02 A3021 590 65 0 180/12 RMK AO2
14837KMSN MSN20060329134509503/29/06 13:45:31  5-MIN KMSN 291945Z 18012KT 6SM HZ OVC024 08/02 A3021 590 65 0 180/12 RMK AO2
14837KMSN MSN20060329135011203/29/06 13:50:31  5-MIN KMSN 291950Z 18011KT 6SM HZ OVC024 08/02 A3021 600 65 0 180/11 RMK AO2 SLP239 T00780017
14837KMSN MSN20060329135509503/29/06 13:55:31  5-MIN KMSN 291955Z 19009KT 6SM HZ OVC024 08/02 A3021 600 65 0 190/09 RMK AO2
14837KMSN MSN20060329140009503/29/06 14:00:31  5-MIN KMSN 292000Z 19011KT 6SM HZ OVC024 08/02 A3021 600 65 0 190/11 RMK AO2
14837KMSN MSN20060329140509203/29/06 14:05:31  5-MIN KMSN 292005Z 18009KT 7SM OVC024 08/02 A3020 600 65 0 180/09 RMK AO2
14837KMSN MSN20060329141009503/29/06 14:10:31  5-MIN KMSN 292010Z 19011KT 6SM HZ OVC024 08/02 A3020 600 65 0 190/11 RMK AO2
14837KMSN MSN20060329141509503/29/06 14:15:31  5-MIN KMSN 292015Z 19008KT 6SM HZ OVC024 08/02 A3020 600 65 0 190/08 RMK AO2
14837KMSN MSN20060329142009503/29/06 14:20:31  5-MIN KMSN 292020Z 17012KT 6SM HZ OVC024 08/02 A3020 610 65 0 170/12 RMK AO2
14837KMSN MSN20060329142509503/29/06 14:25:31  5-MIN KMSN 292025Z 18010KT 6SM HZ OVC024 08/02 A3020 610 65 0 180/10 RMK AO2
14837KMSN MSN20060329143009503/29/06 14:30:31  5-MIN KMSN 292030Z 19010KT 6SM HZ OVC024 08/02 A3020 610 65 0 190/10 RMK AO2
14837KMSN MSN20060329143509503/29/06 14:35:31  5-MIN KMSN 292035Z 18011KT 6SM HZ OVC024 08/02 A3019 610 65 0 180/11 RMK AO2
14837KMSN MSN20060329144009503/29/06 14:40:31  5-MIN KMSN 292040Z 18012KT 6SM HZ OVC024 08/02 A3020 610 65 0 180/12 RMK AO2
14837KMSN MSN20060329144509503/29/06 14:45:31  5-MIN KMSN 292045Z 19011KT 6SM HZ OVC024 08/02 A3020 610 65 0 180/11 RMK AO2
14837KMSN MSN20060329145011803/29/06 14:50:31  5-MIN KMSN 292050Z 18011KT 6SM HZ OVC024 08/02 A3019 610 65 0 180/11 RMK AO2 SLP233 T00780017 58004
14837KMSN MSN20060329145509503/29/06 14:55:31  5-MIN KMSN 292055Z 18009KT 6SM HZ OVC024 08/02 A3019 610 65 0 180/09 RMK AO2
14837KMSN MSN20060329150009503/29/06 15:00:31  5-MIN KMSN 292100Z 17010KT 6SM HZ OVC024 08/02 A3019 620 65 0 170/10 RMK AO2
14837KMSN MSN20060329150509503/29/06 15:05:31  5-MIN KMSN 292105Z 17009KT 6SM HZ OVC024 08/02 A3018 620 65 0 170/09 RMK AO2
14837KMSN MSN20060329151009503/29/06 15:10:31  5-MIN KMSN 292110Z 18009KT 6SM HZ OVC024 08/02 A3018 620 65 0 180/09 RMK AO2
14837KMSN MSN20060329151509503/29/06 15:15:31  5-MIN KMSN 292115Z 19009KT 6SM HZ OVC024 08/02 A3018 620 65 0 190/09 RMK AO2
14837KMSN MSN20060329152009503/29/06 15:20:31  5-MIN KMSN 292120Z 18011KT 6SM HZ OVC024 08/02 A3018 620 65 0 180/11 RMK AO2
14837KMSN MSN20060329152509503/29/06 15:25:31  5-MIN KMSN 292125Z 18010KT 6SM HZ OVC024 08/02 A3018 630 65 0 180/10 RMK AO2
14837KMSN MSN20060329153009503/29/06 15:30:31  5-MIN KMSN 292130Z 17010KT 5SM HZ OVC024 08/02 A3018 630 68 0 170/10 RMK AO2
14837KMSN MSN20060329153509503/29/06 15:35:31  5-MIN KMSN 292135Z 18010KT 5SM HZ OVC024 08/02 A3017 630 65 0 180/10 RMK AO2
14837KMSN MSN20060329154009503/29/06 15:40:31  5-MIN KMSN 292140Z 18010KT 6SM HZ OVC024 08/02 A3017 630 63 0 180/10 RMK AO2
14837KMSN MSN20060329154509503/29/06 15:45:31  5-MIN KMSN 292145Z 19011KT 6SM HZ OVC024 08/02 A3017 630 63 0 190/11 RMK AO2
14837KMSN MSN20060329155011203/29/06 15:50:31  5-MIN KMSN 292150Z 18011KT 6SM HZ OVC024 08/02 A3017 630 63 0 180/11 RMK AO2 SLP224 T00830017
14837KMSN MSN20060329155509503/29/06 15:55:31  5-MIN KMSN 292155Z 19008KT 6SM HZ OVC024 08/02 A3017 630 63 0 190/08 RMK AO2
14837KMSN MSN20060329160009503/29/06 16:00:31  5-MIN KMSN 292200Z 17010KT 6SM HZ OVC024 08/02 A3017 630 63 0 170/10 RMK AO2
14837KMSN MSN20060329160509503/29/06 16:05:31  5-MIN KMSN 292205Z 17014KT 6SM HZ OVC024 08/02 A3017 640 63 0 170/14 RMK AO2
14837KMSN MSN20060329161009503/29/06 16:10:31  5-MIN KMSN 292210Z 17011KT 6SM HZ OVC024 08/02 A3016 640 65 0 170/11 RMK AO2
14837KMSN MSN20060329161509503/29/06 16:15:31  5-MIN KMSN 292215Z 19011KT 6SM HZ OVC024 08/02 A3017 640 65 0 190/11 RMK AO2
14837KMSN MSN20060329162009503/29/06 16:20:31  5-MIN KMSN 292220Z 19011KT 5SM HZ OVC024 08/02 A3017 640 65 0 180/11 RMK AO2
14837KMSN MSN20060329162509503/29/06 16:25:31  5-MIN KMSN 292225Z 19011KT 5SM HZ OVC024 08/02 A3017 640 65 0 190/11 RMK AO2
14837KMSN MSN20060329163009503/29/06 16:30:31  5-MIN KMSN 292230Z 19011KT 5SM HZ OVC024 08/02 A3017 640 65 0 190/11 RMK AO2
14837KMSN MSN20060329163509503/29/06 16:35:31  5-MIN KMSN 292235Z 19012KT 6SM HZ OVC024 08/02 A3017 640 68 0 190/12 RMK AO2
14837KMSN MSN20060329164009503/29/06 16:40:31  5-MIN KMSN 292240Z 19011KT 6SM HZ OVC024 08/02 A3017 640 68 0 190/11 RMK AO2
14837KMSN MSN20060329164509503/29/06 16:45:31  5-MIN KMSN 292245Z 18012KT 6SM HZ OVC024 08/02 A3016 640 68 0 180/12 RMK AO2
14837KMSN MSN20060329165011203/29/06 16:50:31  5-MIN KMSN 292250Z 19010KT 5SM HZ OVC024 08/02 A3016 640 68 0 190/10 RMK AO2 SLP221 T00780022
14837KMSN MSN20060329165509503/29/06 16:55:31  5-MIN KMSN 292255Z 18012KT 5SM HZ OVC024 08/02 A3016 640 68 0 180/12 RMK AO2
14837KMSN MSN20060329170009503/29/06 17:00:31  5-MIN KMSN 292300Z 18011KT 5SM HZ OVC024 08/02 A3016 650 68 0 180/11 RMK AO2
14837KMSN MSN20060329170509503/29/06 17:05:31  5-MIN KMSN 292305Z 18010KT 5SM HZ OVC024 08/02 A3016 650 68 0 180/10 RMK AO2
14837KMSN MSN20060329171009503/29/06 17:10:31  5-MIN KMSN 292310Z 18010KT 5SM HZ OVC024 08/02 A3015 650 68 0 180/10 RMK AO2
14837KMSN MSN20060329171509503/29/06 17:15:31  5-MIN KMSN 292315Z 17012KT 5SM HZ OVC024 08/02 A3015 650 68 0 170/12 RMK AO2
14837KMSN MSN20060329172009503/29/06 17:20:31  5-MIN KMSN 292320Z 18010KT 5SM HZ OVC024 08/02 A3015 650 68 0 180/10 RMK AO2
14837KMSN MSN20060329172509503/29/06 17:25:31  5-MIN KMSN 292325Z 18011KT 5SM HZ OVC024 08/02 A3015 650 68 0 180/11 RMK AO2
14837KMSN MSN20060329173009503/29/06 17:30:31  5-MIN KMSN 292330Z 18011KT 5SM HZ OVC024 08/02 A3015 650 68 0 180/11 RMK AO2
14837KMSN MSN20060329173509503/29/06 17:35:31  5-MIN KMSN 292335Z 18011KT 5SM HZ OVC024 08/02 A3015 650 68 0 180/11 RMK AO2
14837KMSN MSN20060329174009503/29/06 17:40:31  5-MIN KMSN 292340Z 19010KT 6SM HZ OVC024 08/02 A3015 650 68 0 190/10 RMK AO2
14837KMSN MSN20060329174509503/29/06 17:45:31  5-MIN KMSN 292345Z 19011KT 6SM HZ OVC024 08/02 A3015 650 68 0 180/11 RMK AO2
14837KMSN MSN20060329175013003/29/06 17:50:31  5-MIN KMSN 292350Z 18010KT 6SM HZ OVC024 08/02 A3015 650 68 0 180/10 RMK AO2 SLP217 T00780022 10083 20072 56019
14837KMSN MSN20060329175509503/29/06 17:55:31  5-MIN KMSN 292355Z 18011KT 6SM HZ OVC024 08/02 A3015 660 68 0 180/11 RMK AO2
14837KMSN MSN20060329180009503/29/06 18:00:31  5-MIN KMSN 300000Z 18012KT 6SM HZ OVC024 08/02 A3015 660 68 0 180/12 RMK AO2
14837KMSN MSN20060329180509503/29/06 18:05:31  5-MIN KMSN 300005Z 18010KT 6SM HZ OVC024 08/02 A3015 650 68 0 180/10 RMK AO2
14837KMSN MSN20060329181009503/29/06 18:10:31  5-MIN KMSN 300010Z 18011KT 4SM HZ OVC024 08/02 A3015 650 68 0 180/11 RMK AO2
14837KMSN MSN20060329181509503/29/06 18:15:31  5-MIN KMSN 300015Z 18009KT 3SM HZ OVC024 08/02 A3015 650 68 0 180/09 RMK AO2
14837KMSN MSN20060329182009503/29/06 18:20:31  5-MIN KMSN 300020Z 18010KT 3SM HZ OVC024 08/02 A3015 660 68 0 180/10 RMK AO2
14837KMSN MSN20060329182509503/29/06 18:25:31  5-MIN KMSN 300025Z 19008KT 3SM HZ OVC024 08/02 A3014 660 68 0 180/08 RMK AO2
14837KMSN MSN20060329183009503/29/06 18:30:31  5-MIN KMSN 300030Z 18009KT 3SM HZ OVC024 08/02 A3014 660 68 0 180/09 RMK AO2
14837KMSN MSN20060329183509503/29/06 18:35:31  5-MIN KMSN 300035Z 18010KT 5SM HZ OVC024 08/02 A3014 660 68 0 180/10 RMK AO2
14837KMSN MSN20060329184009503/29/06 18:40:31  5-MIN KMSN 300040Z 18009KT 5SM HZ OVC024 08/02 A3014 660 68 0 170/09 RMK AO2
14837KMSN MSN20060329184509503/29/06 18:45:31  5-MIN KMSN 300045Z 18007KT 6SM HZ OVC024 07/02 A3014 660 70 0 180/07 RMK AO2
14837KMSN MSN20060329185011203/29/06 18:50:31  5-MIN KMSN 300050Z 18009KT 6SM HZ OVC024 07/02 A3014 660 70 0 180/09 RMK AO2 SLP214 T00720022
14837KMSN MSN20060329185509503/29/06 18:55:31  5-MIN KMSN 300055Z 18009KT 6SM HZ OVC024 08/02 A3014 660 68 0 180/09 RMK AO2
14837KMSN MSN20060329190009503/29/06 19:00:31  5-MIN KMSN 300100Z 19008KT 6SM HZ OVC024 08/02 A3014 660 68 0 190/08 RMK AO2
14837KMSN MSN20060329190509503/29/06 19:05:31  5-MIN KMSN 300105Z 18007KT 6SM HZ OVC024 08/02 A3014 660 68 0 180/07 RMK AO2
14837KMSN MSN20060329191009503/29/06 19:10:31  5-MIN KMSN 300110Z 19006KT 6SM HZ OVC024 08/02 A3015 660 68 0 190/06 RMK AO2
14837KMSN MSN20060329191509503/29/06 19:15:31  5-MIN KMSN 300115Z 19007KT 6SM HZ OVC024 08/02 A3014 660 68 0 190/07 RMK AO2
14837KMSN MSN20060329192009503/29/06 19:20:31  5-MIN KMSN 300120Z 19008KT 6SM HZ OVC024 08/02 A3015 660 68 0 190/08 RMK AO2
14837KMSN MSN20060329192509503/29/06 19:25:31  5-MIN KMSN 300125Z 19008KT 6SM HZ OVC024 08/02 A3015 660 68 0 180/08 RMK AO2
14837KMSN MSN20060329193009503/29/06 19:30:31  5-MIN KMSN 300130Z 19008KT 6SM HZ OVC024 08/02 A3014 660 68 0 190/08 RMK AO2
14837KMSN MSN20060329193509503/29/06 19:35:31  5-MIN KMSN 300135Z 17007KT 6SM HZ OVC024 08/02 A3014 660 68 0 170/07 RMK AO2
14837KMSN MSN20060329194009503/29/06 19:40:31  5-MIN KMSN 300140Z 17009KT 6SM HZ OVC024 07/02 A3014 660 70 0 170/09 RMK AO2
14837KMSN MSN20060329194509203/29/06 19:45:31  5-MIN KMSN 300145Z 18009KT 7SM OVC024 08/02 A3014 660 68 0 180/09 RMK AO2
14837KMSN MSN20060329195010903/29/06 19:50:31  5-MIN KMSN 300150Z 18007KT 7SM OVC024 07/02 A3014 660 70 0 180/07 RMK AO2 SLP213 T00720022
14837KMSN MSN20060329195509203/29/06 19:55:31  5-MIN KMSN 300155Z 18009KT 7SM OVC024 07/02 A3014 660 70 0 180/09 RMK AO2
14837KMSN MSN20060329200009203/29/06 20:00:31  5-MIN KMSN 300200Z 18008KT 7SM OVC024 08/02 A3014 660 68 0 170/08 RMK AO2
14837KMSN MSN20060329200509203/29/06 20:05:31  5-MIN KMSN 300205Z 17009KT 7SM OVC024 07/02 A3014 660 70 0 170/09 RMK AO2
14837KMSN MSN20060329201009203/29/06 20:10:31  5-MIN KMSN 300210Z 18008KT 7SM OVC024 07/02 A3014 660 70 0 180/08 RMK AO2
14837KMSN MSN20060329201509203/29/06 20:15:31  5-MIN KMSN 300215Z 18007KT 7SM OVC024 07/03 A3014 660 73 0 180/07 RMK AO2
14837KMSN MSN20060329202009203/29/06 20:20:31  5-MIN KMSN 300220Z 18008KT 7SM OVC024 07/03 A3014 660 73 0 180/08 RMK AO2
14837KMSN MSN20060329202509203/29/06 20:25:31  5-MIN KMSN 300225Z 18009KT 7SM OVC024 07/03 A3014 660 73 0 180/09 RMK AO2
14837KMSN MSN20060329203009203/29/06 20:30:31  5-MIN KMSN 300230Z 17010KT 7SM OVC024 07/03 A3014 660 73 0 170/10 RMK AO2
14837KMSN MSN20060329203509203/29/06 20:35:31  5-MIN KMSN 300235Z 18009KT 7SM OVC024 07/03 A3014 660 73 0 180/09 RMK AO2
14837KMSN MSN20060329204009203/29/06 20:40:31  5-MIN KMSN 300240Z 18010KT 7SM OVC024 08/03 A3014 660 70 0 180/10 RMK AO2
14837KMSN MSN20060329204509203/29/06 20:45:31  5-MIN KMSN 300245Z 18010KT 7SM OVC024 08/03 A3014 660 70 0 180/10 RMK AO2
14837KMSN MSN20060329205011503/29/06 20:50:31  5-MIN KMSN 300250Z 17011KT 7SM OVC024 07/03 A3014 670 73 0 170/11 RMK AO2 SLP210 T00720028 56015
14837KMSN MSN20060329205509203/29/06 20:55:31  5-MIN KMSN 300255Z 16010KT 7SM OVC024 07/03 A3013 670 73 0 160/10 RMK AO2
14837KMSN MSN20060329210009203/29/06 21:00:31  5-MIN KMSN 300300Z 17010KT 7SM OVC024 07/03 A3014 670 73 0 170/10 RMK AO2
14837KMSN MSN20060329210509203/29/06 21:05:31  5-MIN KMSN 300305Z 18010KT 7SM OVC024 07/03 A3014 670 73 0 180/10 RMK AO2
14837KMSN MSN20060329211009203/29/06 21:10:31  5-MIN KMSN 300310Z 18008KT 7SM OVC024 07/03 A3014 670 73 0 180/08 RMK AO2
14837KMSN MSN20060329211509203/29/06 21:15:31  5-MIN KMSN 300315Z 17009KT 7SM OVC024 07/03 A3014 660 73 0 170/09 RMK AO2
14837KMSN MSN20060329212009203/29/06 21:20:31  5-MIN KMSN 300320Z 18010KT 7SM OVC024 07/03 A3013 670 73 0 180/10 RMK AO2
14837KMSN MSN20060329212509203/29/06 21:25:31  5-MIN KMSN 300325Z 17013KT 7SM OVC024 07/03 A3013 670 73 0 170/13 RMK AO2
14837KMSN MSN20060329213009203/29/06 21:30:31  5-MIN KMSN 300330Z 18012KT 7SM OVC024 08/03 A3013 670 70 0 180/12 RMK AO2
14837KMSN MSN20060329213509203/29/06 21:35:31  5-MIN KMSN 300335Z 18012KT 8SM OVC024 08/03 A3013 670 70 0 180/12 RMK AO2
14837KMSN MSN20060329214009203/29/06 21:40:31  5-MIN KMSN 300340Z 17010KT 8SM OVC024 08/03 A3013 670 70 0 170/10 RMK AO2
14837KMSN MSN20060329214509203/29/06 21:45:31  5-MIN KMSN 300345Z 18010KT 7SM OVC024 07/03 A3014 670 73 0 180/10 RMK AO2
14837KMSN MSN20060329215010903/29/06 21:50:31  5-MIN KMSN 300350Z 17010KT 7SM OVC024 08/03 A3013 670 70 0 170/10 RMK AO2 SLP209 T00780028
14837KMSN MSN20060329215509203/29/06 21:55:31  5-MIN KMSN 300355Z 17010KT 7SM OVC024 07/03 A3013 670 73 0 170/10 RMK AO2
14837KMSN MSN20060329220009203/29/06 22:00:31  5-MIN KMSN 300400Z 18009KT 7SM OVC024 07/03 A3013 670 73 0 180/09 RMK AO2
14837KMSN MSN20060329220509203/29/06 22:05:31  5-MIN KMSN 300405Z 18010KT 7SM OVC024 08/03 A3014 670 70 0 180/10 RMK AO2
14837KMSN MSN20060329221009203/29/06 22:10:31  5-MIN KMSN 300410Z 17011KT 7SM OVC024 08/03 A3013 670 70 0 170/11 RMK AO2
14837KMSN MSN20060329221509203/29/06 22:15:31  5-MIN KMSN 300415Z 17010KT 7SM OVC024 07/03 A3013 670 73 0 170/10 RMK AO2
14837KMSN MSN20060329222009203/29/06 22:20:31  5-MIN KMSN 300420Z 16009KT 7SM OVC024 07/03 A3012 680 73 0 160/09 RMK AO2
14837KMSN MSN20060329222509203/29/06 22:25:31  5-MIN KMSN 300425Z 17009KT 7SM OVC026 07/03 A3012 680 73 0 170/09 RMK AO2
14837KMSN MSN20060329223009203/29/06 22:30:31  5-MIN KMSN 300430Z 17010KT 7SM BKN026 07/03 A3012 680 73 0 170/10 RMK AO2
14837KMSN MSN20060329223509903/29/06 22:35:31  5-MIN KMSN 300435Z 17011KT 7SM BKN026 OVC120 07/03 A3012 680 73 0 170/11 RMK AO2
14837KMSN MSN20060329224009203/29/06 22:40:31  5-MIN KMSN 300440Z 17010KT 7SM OVC026 07/03 A3013 680 73 0 170/10 RMK AO2
14837KMSN MSN20060329224509203/29/06 22:45:31  5-MIN KMSN 300445Z 17009KT 7SM OVC026 07/03 A3013 670 73 0 170/09 RMK AO2
14837KMSN MSN20060329225010903/29/06 22:50:31  5-MIN KMSN 300450Z 18007KT 7SM OVC026 07/03 A3013 670 73 0 170/07 RMK AO2 SLP206 T00720028
14837KMSN MSN20060329225509203/29/06 22:55:31  5-MIN KMSN 300455Z 17010KT 7SM OVC026 07/03 A3012 680 73 0 170/10 RMK AO2
14837KMSN MSN20060329230009203/29/06 23:00:31  5-MIN KMSN 300500Z 17009KT 7SM OVC026 07/03 A3012 680 73 0 160/09 RMK AO2
14837KMSN MSN20060329230509203/29/06 23:05:31  5-MIN KMSN 300505Z 16008KT 7SM OVC028 07/03 A3012 680 73 0 160/08 RMK AO2
14837KMSN MSN20060329231009503/29/06 23:10:31  5-MIN KMSN 300510Z 16008KT 6SM HZ OVC028 07/03 A3012 680 73 0 160/08 RMK AO2
14837KMSN MSN20060329231509503/29/06 23:15:31  5-MIN KMSN 300515Z 16009KT 6SM HZ OVC028 07/03 A3011 690 73 0 160/09 RMK AO2
14837KMSN MSN20060329232009803/29/06 23:20:31  5-MIN KMSN 300520Z 16008KT 6SM HZ BKN028 07/03 A3011 690 76 -100 160/08 RMK AO2
14837KMSN MSN20060329232509803/29/06 23:25:31  5-MIN KMSN 300525Z 15009KT 6SM HZ BKN028 07/03 A3011 690 76 -100 150/09 RMK AO2
14837KMSN MSN20060329233009803/29/06 23:30:31  5-MIN KMSN 300530Z 15008KT 6SM HZ BKN028 07/03 A3011 690 76 -100 150/08 RMK AO2
14837KMSN MSN20060329233509503/29/06 23:35:31  5-MIN KMSN 300535Z 15008KT 6SM HZ SCT028 07/03 A3010 700 76 0 150/08 RMK AO2
14837KMSN MSN20060329234009503/29/06 23:40:31  5-MIN KMSN 300540Z 16009KT 6SM HZ FEW028 07/03 A3010 700 76 0 160/09 RMK AO2
14837KMSN MSN20060329234509503/29/06 23:45:31  5-MIN KMSN 300545Z 16010KT 6SM HZ FEW028 07/03 A3010 700 76 0 160/10 RMK AO2
14837KMSN MSN20060329235014003/29/06 23:50:31  5-MIN KMSN 300550Z 16010KT 6SM HZ FEW028 07/03 A3010 700 73 0 160/10 RMK AO2 SLP198 T00720028 10078 20067 400831039 57004
14837KMSN MSN20060329235509203/29/06 23:55:31  5-MIN KMSN 300555Z 16011KT 6SM HZ CLR 07/03 A3010 700 73 0 160/11 RMK AO2
14837KMSN MSN20060330000009203/30/06 00:00:38  5-MIN KMSN 300600Z 17010KT 6SM HZ CLR 07/03 A3010 690 73 0 170/10 RMK AO2
14837KMSN MSN20060330000509503/30/06 00:05:31  5-MIN KMSN 300605Z 17011KT 6SM HZ FEW027 07/03 A3010 700 73 0 170/11 RMK AO2
14837KMSN MSN20060330001009503/30/06 00:10:31  5-MIN KMSN 300610Z 17010KT 6SM HZ FEW027 07/03 A3010 700 73 0 170/10 RMK AO2
14837KMSN MSN20060330001509203/30/06 00:15:32  5-MIN KMSN 300615Z 17010KT 6SM HZ CLR 07/03 A3010 700 76 0 170/10 RMK AO2
14837KMSN MSN20060330002009203/30/06 00:20:31  5-MIN KMSN 300620Z 17009KT 6SM HZ CLR 07/03 A3010 700 76 0 170/09 RMK AO2
14837KMSN MSN20060330002509503/30/06 00:25:31  5-MIN KMSN 300625Z 17010KT 6SM HZ FEW026 07/03 A3010 700 73 0 170/10 RMK AO2
14837KMSN MSN20060330003009503/30/06 00:30:31  5-MIN KMSN 300630Z 17009KT 6SM HZ FEW026 07/03 A3010 700 76 0 170/09 RMK AO2
14837KMSN MSN20060330003509203/30/06 00:35:31  5-MIN KMSN 300635Z 17008KT 6SM HZ CLR 07/03 A3010 700 76 0 170/08 RMK AO2
14837KMSN MSN20060330004009203/30/06 00:40:31  5-MIN KMSN 300640Z 17009KT 6SM HZ CLR 07/03 A3010 700 76 0 170/09 RMK AO2
14837KMSN MSN20060330004509203/30/06 00:45:31  5-MIN KMSN 300645Z 17008KT 6SM HZ CLR 07/03 A3009 710 76 0 170/08 RMK AO2
14837KMSN MSN20060330005010903/30/06 00:50:31  5-MIN KMSN 300650Z 17009KT 6SM HZ CLR 07/03 A3009 710 79 0 170/09 RMK AO2 SLP194 T00670033
14837KMSN MSN20060330005509203/30/06 00:55:31  5-MIN KMSN 300655Z 17009KT 6SM HZ CLR 07/03 A3009 710 76 0 170/09 RMK AO2
14837KMSN MSN20060330010009203/30/06 01:00:31  5-MIN KMSN 300700Z 17008KT 6SM HZ CLR 07/03 A3009 710 79 0 170/08 RMK AO2
14837KMSN MSN20060330010509203/30/06 01:05:31  5-MIN KMSN 300705Z 18007KT 6SM HZ CLR 07/03 A3009 710 79 0 170/07 RMK AO2
14837KMSN MSN20060330011009203/30/06 01:10:31  5-MIN KMSN 300710Z 18007KT 6SM HZ CLR 07/03 A3009 710 79 0 180/07 RMK AO2
14837KMSN MSN20060330011509203/30/06 01:15:31  5-MIN KMSN 300715Z 18007KT 6SM HZ CLR 07/03 A3009 710 79 0 180/07 RMK AO2
14837KMSN MSN20060330012009203/30/06 01:20:31  5-MIN KMSN 300720Z 18006KT 6SM HZ CLR 07/03 A3009 710 79 0 180/06 RMK AO2
14837KMSN MSN20060330012509203/30/06 01:25:31  5-MIN KMSN 300725Z 17006KT 5SM HZ CLR 07/03 A3009 710 79 0 170/06 RMK AO2
14837KMSN MSN20060330013009203/30/06 01:30:31  5-MIN KMSN 300730Z 17006KT 5SM HZ CLR 07/03 A3009 710 76 0 170/06 RMK AO2
14837KMSN MSN20060330013509203/30/06 01:35:31  5-MIN KMSN 300735Z 17005KT 5SM HZ CLR 07/03 A3009 710 76 0 170/05 RMK AO2
14837KMSN MSN20060330014009503/30/06 01:40:31  5-MIN KMSN 300740Z 17006KT 5SM HZ CLR 06/03 A3009 710 79 -100 170/06 RMK AO2
14837KMSN MSN20060330014509503/30/06 01:45:31  5-MIN KMSN 300745Z 17006KT 5SM HZ CLR 06/03 A3009 710 79 -100 170/06 RMK AO2
14837KMSN MSN20060330015010903/30/06 01:50:31  5-MIN KMSN 300750Z 18005KT 5SM HZ CLR 07/03 A3009 710 79 0 180/05 RMK AO2 SLP194 T00670033
14837KMSN MSN20060330015509203/30/06 01:55:31  5-MIN KMSN 300755Z 18005KT 5SM HZ CLR 07/03 A3009 710 76 0 170/05 RMK AO2
14837KMSN MSN20060330020009503/30/06 02:00:31  5-MIN KMSN 300800Z 18004KT 5SM HZ CLR 06/03 A3009 710 79 -100 180/04 RMK AO2
14837KMSN MSN20060330020509503/30/06 02:05:31  5-MIN KMSN 300805Z 18004KT 5SM HZ CLR 06/03 A3009 710 79 -100 180/04 RMK AO2
14837KMSN MSN20060330021009503/30/06 02:10:31  5-MIN KMSN 300810Z 17004KT 5SM HZ CLR 06/03 A3009 710 79 -100 170/04 RMK AO2
14837KMSN MSN20060330021509503/30/06 02:15:31  5-MIN KMSN 300815Z 16004KT 5SM HZ CLR 06/03 A3009 710 79 -100 160/04 RMK AO2
14837KMSN MSN20060330022009503/30/06 02:20:31  5-MIN KMSN 300820Z 17005KT 5SM HZ CLR 06/03 A3009 710 82 -200 170/05 RMK AO2
14837KMSN MSN20060330022509503/30/06 02:25:31  5-MIN KMSN 300825Z 17005KT 5SM HZ CLR 06/03 A3008 710 82 -200 170/05 RMK AO2
14837KMSN MSN20060330023009503/30/06 02:30:31  5-MIN KMSN 300830Z 16005KT 5SM HZ CLR 06/03 A3008 710 82 -200 160/05 RMK AO2
14837KMSN MSN20060330023509503/30/06 02:35:31  5-MIN KMSN 300835Z 16005KT 5SM HZ CLR 06/03 A3008 720 82 -200 160/05 RMK AO2
14837KMSN MSN20060330024009503/30/06 02:40:31  5-MIN KMSN 300840Z 16005KT 5SM HZ CLR 05/02 A3008 720 82 -200 160/05 RMK AO2
14837KMSN MSN20060330024509503/30/06 02:45:31  5-MIN KMSN 300845Z 15004KT 5SM BR CLR 04/02 A3008 720 85 -300 150/04 RMK AO2
14837KMSN MSN20060330025011803/30/06 02:50:31  5-MIN KMSN 300850Z 15004KT 4SM HZ CLR 05/02 A3007 720 82 -200 150/04 RMK AO2 SLP190 T00500022 58011
14837KMSN MSN20060330025509503/30/06 02:55:31  5-MIN KMSN 300855Z 16004KT 4SM HZ CLR 05/02 A3007 720 82 -200 160/04 RMK AO2
14837KMSN MSN20060330030009503/30/06 03:00:31  5-MIN KMSN 300900Z 16004KT 5SM HZ CLR 06/03 A3007 730 82 -100 160/04 RMK AO2
14837KMSN MSN20060330030509803/30/06 03:05:31  5-MIN KMSN 300905Z 16004KT 5SM BR FEW100 05/03 A3007 730 85 -200 160/04 RMK AO2
14837KMSN MSN20060330031009803/30/06 03:10:31  5-MIN KMSN 300910Z 16004KT 5SM HZ FEW100 06/03 A3007 730 82 -100 160/04 RMK AO2
14837KMSN MSN20060330031509803/30/06 03:15:31  5-MIN KMSN 300915Z 16005KT 4SM HZ SCT100 06/03 A3007 730 82 -100 160/05 RMK AO2
14837KMSN MSN20060330032009803/30/06 03:20:31  5-MIN KMSN 300920Z 16005KT 4SM HZ SCT100 05/02 A3006 730 82 -200 160/05 RMK AO2
14837KMSN MSN20060330032509803/30/06 03:25:31  5-MIN KMSN 300925Z 16006KT 4SM BR SCT100 04/02 A3006 730 85 -300 160/06 RMK AO2
14837KMSN MSN20060330033009803/30/06 03:30:31  5-MIN KMSN 300930Z 16006KT 4SM HZ BKN100 05/02 A3006 730 82 -200 160/06 RMK AO2
14837KMSN MSN20060330033509803/30/06 03:35:31  5-MIN KMSN 300935Z 16006KT 4SM BR BKN100 05/03 A3006 740 85 -200 160/06 RMK AO2
14837KMSN MSN20060330034009803/30/06 03:40:31  5-MIN KMSN 300940Z 15007KT 4SM BR BKN100 05/03 A3006 740 85 -200 150/07 RMK AO2
14837KMSN MSN20060330034509803/30/06 03:45:31  5-MIN KMSN 300945Z 14006KT 4SM BR BKN100 05/03 A3005 740 85 -200 140/06 RMK AO2
14837KMSN MSN20060330035011503/30/06 03:50:31  5-MIN KMSN 300950Z 13005KT 4SM BR SCT100 05/03 A3005 740 85 -200 130/05 RMK AO2 SLP183 T00500028
14837KMSN MSN20060330035509803/30/06 03:55:31  5-MIN KMSN 300955Z 13006KT 4SM BR SCT100 05/03 A3005 740 85 -200 130/06 RMK AO2
14837KMSN MSN20060330040009803/30/06 04:00:31  5-MIN KMSN 301000Z 13007KT 4SM BR FEW100 05/03 A3005 740 85 -200 130/07 RMK AO2
14837KMSN MSN20060330040509803/30/06 04:05:31  5-MIN KMSN 301005Z 14008KT 4SM BR FEW100 05/03 A3005 750 85 -200 140/08 RMK AO2
14837KMSN MSN20060330041009503/30/06 04:10:31  5-MIN KMSN 301010Z 14008KT 4SM HZ CLR 06/03 A3005 750 82 -100 140/08 RMK AO2
14837KMSN MSN20060330041509503/30/06 04:15:31  5-MIN KMSN 301015Z 15007KT 4SM HZ CLR 06/03 A3005 750 82 -100 150/07 RMK AO2
14837KMSN MSN20060330042009503/30/06 04:20:31  5-MIN KMSN 301020Z 15007KT 4SM HZ CLR 06/03 A3005 750 82 -100 150/07 RMK AO2
14837KMSN MSN20060330042509503/30/06 04:25:31  5-MIN KMSN 301025Z 15007KT 4SM HZ CLR 06/03 A3005 750 82 -100 150/07 RMK AO2
14837KMSN MSN20060330043009503/30/06 04:30:31  5-MIN KMSN 301030Z 15007KT 4SM BR CLR 06/03 A3005 750 85 -100 150/07 RMK AO2
14837KMSN MSN20060330043509503/30/06 04:35:31  5-MIN KMSN 301035Z 13005KT 4SM BR CLR 06/03 A3005 750 85 -100 130/05 RMK AO2
14837KMSN MSN20060330044009503/30/06 04:40:31  5-MIN KMSN 301040Z 13006KT 4SM BR CLR 05/03 A3005 750 85 -200 130/06 RMK AO2
14837KMSN MSN20060330044509503/30/06 04:45:31  5-MIN KMSN 301045Z 13006KT 4SM BR CLR 05/03 A3005 750 85 -200 120/06 RMK AO2
14837KMSN MSN20060330045011203/30/06 04:50:31  5-MIN KMSN 301050Z 12006KT 4SM BR CLR 04/03 A3005 750 89 -300 120/06 RMK AO2 SLP181 T00440028
14837KMSN MSN20060330045509503/30/06 04:55:31  5-MIN KMSN 301055Z 13006KT 4SM BR CLR 04/03 A3005 740 89 -300 130/06 RMK AO2
14837KMSN MSN20060330050009503/30/06 05:00:31  5-MIN KMSN 301100Z 13005KT 4SM BR CLR 04/02 A3005 740 85 -300 130/05 RMK AO2
14837KMSN MSN20060330050509503/30/06 05:05:31  5-MIN KMSN 301105Z 13005KT 4SM BR CLR 04/02 A3005 750 85 -300 130/05 RMK AO2
14837KMSN MSN20060330051009503/30/06 05:10:31  5-MIN KMSN 301110Z 12005KT 4SM BR CLR 04/02 A3005 750 85 -300 120/05 RMK AO2
14837KMSN MSN20060330051509503/30/06 05:15:31  5-MIN KMSN 301115Z 13004KT 4SM BR CLR 04/02 A3005 750 85 -300 130/04 RMK AO2
14837KMSN MSN20060330052009503/30/06 05:20:31  5-MIN KMSN 301120Z 14005KT 3SM BR CLR 03/02 A3005 750 89 -400 140/05 RMK AO2
14837KMSN MSN20060330052509503/30/06 05:25:31  5-MIN KMSN 301125Z 14007KT 4SM BR CLR 03/02 A3005 750 89 -400 140/07 RMK AO2
14837KMSN MSN20060330053009503/30/06 05:30:31  5-MIN KMSN 301130Z 14007KT 4SM BR CLR 04/02 A3005 750 89 -300 140/07 RMK AO2
14837KMSN MSN20060330053509503/30/06 05:35:31  5-MIN KMSN 301135Z 15008KT 3SM BR CLR 04/02 A3005 750 85 -300 150/08 RMK AO2
14837KMSN MSN20060330054009503/30/06 05:40:31  5-MIN KMSN 301140Z 14008KT 3SM BR CLR 04/03 A3004 750 89 -300 140/08 RMK AO2
14837KMSN MSN20060330054509503/30/06 05:45:31  5-MIN KMSN 301145Z 14007KT 3SM BR CLR 04/03 A3004 750 89 -300 140/07 RMK AO2
14837KMSN MSN20060330055013003/30/06 05:50:31  5-MIN KMSN 301150Z 14007KT 3SM BR CLR 04/03 A3004 750 89 -300 140/07 RMK AO2 SLP179 T00440028 10072 20028 58009
14837KMSN MSN20060330055509503/30/06 05:55:31  5-MIN KMSN 301155Z 14007KT 3SM BR CLR 04/03 A3004 750 89 -300 140/07 RMK AO2
14837KMSN MSN20060330060009503/30/06 06:00:31  5-MIN KMSN 301200Z 15007KT 3SM BR CLR 04/03 A3004 750 89 -300 150/07 RMK AO2
14837KMSN MSN20060330060509503/30/06 06:05:31  5-MIN KMSN 301205Z 15007KT 3SM BR CLR 04/03 A3004 760 89 -300 150/07 RMK AO2
14837KMSN MSN20060330061009503/30/06 06:10:31  5-MIN KMSN 301210Z 15006KT 3SM BR CLR 04/03 A3004 750 89 -300 150/06 RMK AO2
14837KMSN MSN20060330061509503/30/06 06:15:31  5-MIN KMSN 301215Z 15008KT 3SM BR CLR 05/03 A3004 760 85 -200 150/08 RMK AO2
14837KMSN MSN20060330062009503/30/06 06:20:31  5-MIN KMSN 301220Z 15009KT 3SM BR CLR 05/03 A3003 760 85 -200 150/09 RMK AO2
14837KMSN MSN20060330062509503/30/06 06:25:31  5-MIN KMSN 301225Z 16009KT 3SM BR CLR 05/03 A3004 760 85 -200 150/09 RMK AO2
14837KMSN MSN20060330063009503/30/06 06:30:31  5-MIN KMSN 301230Z 15010KT 3SM BR CLR 05/03 A3004 760 89 -200 150/10 RMK AO2
14837KMSN MSN20060330063509503/30/06 06:35:31  5-MIN KMSN 301235Z 15010KT 3SM BR CLR 05/03 A3004 760 89 -200 150/10 RMK AO2
14837KMSN MSN20060330064009503/30/06 06:40:31  5-MIN KMSN 301240Z 16009KT 3SM BR CLR 06/03 A3004 760 85 -100 160/09 RMK AO2
14837KMSN MSN20060330064509503/30/06 06:45:31  5-MIN KMSN 301245Z 16010KT 3SM BR CLR 06/03 A3004 760 85 -100 160/10 RMK AO2
14837KMSN MSN20060330065011203/30/06 06:50:31  5-MIN KMSN 301250Z 16009KT 3SM BR CLR 06/03 A3004 760 85 -100 160/09 RMK AO2 SLP177 T00560033
14837KMSN MSN20060330065509203/30/06 06:55:31  5-MIN KMSN 301255Z 16009KT 3SM HZ CLR 06/03 A3003 760 82 0 160/09 RMK AO2
14837KMSN MSN20060330070009203/30/06 07:00:31  5-MIN KMSN 301300Z 16011KT 3SM HZ CLR 06/03 A3003 760 82 0 160/11 RMK AO2
14837KMSN MSN20060330070509203/30/06 07:05:31  5-MIN KMSN 301305Z 16011KT 3SM HZ CLR 06/03 A3003 760 82 0 160/11 RMK AO2
14837KMSN MSN20060330071009203/30/06 07:10:31  5-MIN KMSN 301310Z 17011KT 3SM HZ CLR 07/04 A3003 760 82 0 160/11 RMK AO2
14837KMSN MSN20060330071509203/30/06 07:15:31  5-MIN KMSN 301315Z 16011KT 3SM HZ CLR 07/04 A3003 760 82 0 160/11 RMK AO2
14837KMSN MSN20060330072009203/30/06 07:20:31  5-MIN KMSN 301320Z 16010KT 3SM HZ CLR 07/04 A3003 770 82 0 160/10 RMK AO2
14837KMSN MSN20060330072509403/30/06 07:25:31  5-MIN KMSN 301325Z 17013KT 3SM HZ CLR 07/04 A3002 770 79 100 160/13 RMK AO2
14837KMSN MSN20060330073009403/30/06 07:30:31  5-MIN KMSN 301330Z 17011KT 3SM HZ CLR 07/04 A3002 770 79 100 160/11 RMK AO2
14837KMSN MSN20060330073509403/30/06 07:35:31  5-MIN KMSN 301335Z 16013KT 3SM HZ CLR 08/04 A3002 770 76 100 160/13 RMK AO2
14837KMSN MSN20060330074010403/30/06 07:40:31  5-MIN KMSN 301340Z 16013KT 3SM HZ CLR 08/04 A3002 770 76 100 160/13 RMK AO2 SFC VIS 3
14837KMSN MSN20060330074510403/30/06 07:45:31  5-MIN KMSN 301345Z 17013KT 3SM HZ CLR 08/04 A3002 770 76 100 160/13 RMK AO2 SFC VIS 3
14837KMSN MSN20060330075012103/30/06 07:50:31  5-MIN KMSN 301350Z 17011KT 3SM HZ CLR 08/04 A3002 770 73 200 160/11 RMK AO2 SFC VIS 3 SLP171 T00830039
14837KMSN MSN20060330075510403/30/06 07:55:31  5-MIN KMSN 301355Z 17012KT 3SM HZ CLR 09/04 A3002 770 73 300 170/12 RMK AO2 SFC VIS 4
14837KMSN MSN20060330080010403/30/06 08:00:31  5-MIN KMSN 301400Z 17013KT 3SM HZ CLR 09/04 A3002 770 71 300 170/13 RMK AO2 SFC VIS 4
14837KMSN MSN20060330080510403/30/06 08:05:31  5-MIN KMSN 301405Z 18013KT 3SM HZ CLR 09/04 A3002 770 71 300 180/13 RMK AO2 SFC VIS 4
14837KMSN MSN20060330081010403/30/06 08:10:31  5-MIN KMSN 301410Z 17012KT 3SM HZ CLR 09/04 A3002 780 71 300 170/12 RMK AO2 SFC VIS 4
14837KMSN MSN20060330081510403/30/06 08:15:31  5-MIN KMSN 301415Z 18012KT 3SM HZ CLR 09/04 A3001 780 71 300 180/12 RMK AO2 SFC VIS 4
14837KMSN MSN20060330082010403/30/06 08:20:31  5-MIN KMSN 301420Z 17014KT 3SM HZ CLR 09/04 A3001 780 71 300 170/14 RMK AO2 SFC VIS 4
14837KMSN MSN20060330082510403/30/06 08:25:31  5-MIN KMSN 301425Z 16013KT 3SM HZ CLR 09/04 A3001 780 71 300 160/13 RMK AO2 SFC VIS 4
14837KMSN MSN20060330083010403/30/06 08:30:31  5-MIN KMSN 301430Z 18011KT 3SM HZ CLR 09/04 A3001 780 71 300 180/11 RMK AO2 SFC VIS 4
14837KMSN MSN20060330083509403/30/06 08:35:31  5-MIN KMSN 301435Z 16011KT 4SM HZ CLR 09/04 A3001 790 71 300 160/11 RMK AO2
14837KMSN MSN20060330084009403/30/06 08:40:31  5-MIN KMSN 301440Z 17014KT 4SM HZ CLR 10/04 A3000 790 68 400 170/14 RMK AO2
14837KMSN MSN20060330084509403/30/06 08:45:31  5-MIN KMSN 301445Z 18014KT 4SM HZ CLR 10/04 A3000 790 68 400 180/14 RMK AO2
14837KMSN MSN20060330085012003/30/06 08:50:31  5-MIN KMSN 301450Z 17013KT 4SM HZ BKN120 11/04 A3000 790 66 500 170/13 RMK AO2 SLP162 T01060044 56010
14837KMSN MSN20060330085509703/30/06 08:55:31  5-MIN KMSN 301455Z 18011KT 4SM HZ BKN120 12/05 A3000 790 63 600 180/11 RMK AO2
14837KMSN MSN20060330090009703/30/06 09:00:31  5-MIN KMSN 301500Z 18014KT 5SM HZ BKN120 12/05 A2999 800 63 600 180/14 RMK AO2
14837KMSN MSN20060330090510303/30/06 09:05:31  5-MIN KMSN 301505Z 17012G19KT 5SM HZ BKN120 12/05 A2999 800 63 600 170/12G19 RMK AO2
14837KMSN MSN20060330091009703/30/06 09:10:31  5-MIN KMSN 301510Z 17014KT 5SM HZ BKN120 12/05 A2999 800 61 700 170/14 RMK AO2
14837KMSN MSN20060330091509703/30/06 09:15:31  5-MIN KMSN 301515Z 17014KT 5SM HZ SCT120 12/05 A2999 800 61 700 170/14 RMK AO2
14837KMSN MSN20060330092009703/30/06 09:20:31  5-MIN KMSN 301520Z 17012KT 5SM HZ SCT120 12/05 A2999 800 63 600 170/12 RMK AO2
14837KMSN MSN20060330092509703/30/06 09:25:31  5-MIN KMSN 301525Z 17013KT 5SM HZ SCT120 12/05 A2999 800 63 600 170/13 RMK AO2
14837KMSN MSN20060330093009703/30/06 09:30:31  5-MIN KMSN 301530Z 16014KT 5SM HZ SCT120 12/05 A2999 800 61 700 160/14 RMK AO2
14837KMSN MSN20060330093509703/30/06 09:35:31  5-MIN KMSN 301535Z 18014KT 5SM HZ SCT120 12/05 A2998 800 61 700 180/14 RMK AO2
14837KMSN MSN20060330094009703/30/06 09:40:31  5-MIN KMSN 301540Z 16015KT 5SM HZ SCT120 13/05 A2998 810 59 800 160/15 RMK AO2
14837KMSN MSN20060330094510303/30/06 09:45:31  5-MIN KMSN 301545Z 17017G21KT 5SM HZ SCT120 13/05 A2998 810 57 800 170/17G21 RMK AO2
14837KMSN MSN20060330095012003/30/06 09:50:31  5-MIN KMSN 301550Z 17017G21KT 5SM HZ BKN110 12/05 A2999 800 61 700 170/17G21 RMK AO2 SLP157 T01220050
14837KMSN MSN20060330095509703/30/06 09:55:31  5-MIN KMSN 301555Z 18013KT 6SM HZ BKN110 12/05 A2999 800 61 700 180/13 RMK AO2
14837KMSN MSN20060330100009703/30/06 10:00:31  5-MIN KMSN 301600Z 17014KT 6SM HZ BKN110 13/05 A2998 810 57 800 170/14 RMK AO2
14837KMSN MSN20060330100509703/30/06 10:05:31  5-MIN KMSN 301605Z 17016KT 6SM HZ BKN110 13/05 A2998 810 57 800 170/16 RMK AO2
14837KMSN MSN20060330101009703/30/06 10:10:31  5-MIN KMSN 301610Z 18013KT 6SM HZ BKN110 13/05 A2998 810 57 800 180/13 RMK AO2
14837KMSN MSN20060330101509803/30/06 10:15:31  5-MIN KMSN 301615Z 18014KT 6SM HZ BKN110 14/06 A2998 810 55 1000 180/14 RMK AO2
14837KMSN MSN20060330102009803/30/06 10:20:31  5-MIN KMSN 301620Z 17015KT 6SM HZ BKN110 14/06 A2998 810 55 1000 170/15 RMK AO2
14837KMSN MSN20060330102509703/30/06 10:25:31  5-MIN KMSN 301625Z 18013KT 6SM HZ BKN120 13/05 A2998 810 57 800 180/13 RMK AO2
14837KMSN MSN20060330103009703/30/06 10:30:31  5-MIN KMSN 301630Z 17014KT 6SM HZ BKN120 13/05 A2998 810 57 800 170/14 RMK AO2
14837KMSN MSN20060330103509703/30/06 10:35:31  5-MIN KMSN 301635Z 17010KT 6SM HZ BKN120 14/05 A2998 810 55 900 170/10 RMK AO2
14837KMSN MSN20060330104009803/30/06 10:40:31  5-MIN KMSN 301640Z 18012KT 6SM HZ BKN120 15/06 A2997 820 53 1000 170/12 RMK AO2
14837KMSN MSN20060330104509803/30/06 10:45:31  5-MIN KMSN 301645Z 17012KT 6SM HZ BKN120 15/05 A2997 820 51 1100 160/12 RMK AO2
14837KMSN MSN20060330105011503/30/06 10:50:31  5-MIN KMSN 301650Z 17014KT 6SM HZ BKN120 16/06 A2997 820 49 1200 160/14 RMK AO2 SLP149 T01610056
14837KMSN MSN20060330105510103/30/06 10:55:31  5-MIN KMSN 301655Z 17014G21KT 7SM SCT120 16/05 A2996 830 47 1200 170/14G21 RMK AO2
14837KMSN MSN20060330110010103/30/06 11:00:31  5-MIN KMSN 301700Z 19013G21KT 7SM SCT120 16/05 A2996 830 47 1200 190/13G21 RMK AO2
14837KMSN MSN20060330110509503/30/06 11:05:31  5-MIN KMSN 301705Z 18014KT 7SM SCT120 17/05 A2996 830 45 1300 180/14 RMK AO2
14837KMSN MSN20060330111009503/30/06 11:10:31  5-MIN KMSN 301710Z 17013KT 7SM SCT120 16/05 A2995 840 47 1200 170/13 RMK AO2
14837KMSN MSN20060330111510103/30/06 11:15:31  5-MIN KMSN 301715Z 17015G20KT 8SM SCT120 17/06 A2995 840 46 1300 160/15G20 RMK AO2
14837KMSN MSN20060330112010103/30/06 11:20:31  5-MIN KMSN 301720Z 16015G20KT 8SM SCT120 18/06 A2994 850 44 1400 160/15G20 RMK AO2
14837KMSN MSN20060330112510103/30/06 11:25:31  5-MIN KMSN 301725Z 16016G21KT 8SM SCT120 18/05 A2994 850 41 1500 160/16G21 RMK AO2
14837KMSN MSN20060330113009503/30/06 11:30:31  5-MIN KMSN 301730Z 16019KT 9SM SCT120 18/05 A2994 850 41 1500 160/19 RMK AO2
14837KMSN MSN20060330113509503/30/06 11:35:31  5-MIN KMSN 301735Z 18014KT 9SM FEW060 18/05 A2993 850 42 1400 170/14 RMK AO2
14837KMSN MSN20060330114010103/30/06 11:40:31  5-MIN KMSN 301740Z 16019G23KT 9SM FEW060 19/06 A2993 860 41 1500 160/19G23 RMK AO2
14837KMSN MSN20060330114510203/30/06 11:45:31  5-MIN KMSN 301745Z 18015G23KT 10SM FEW060 18/06 A2993 860 42 1500 180/15G23 RMK AO2
14837KMSN MSN20060330115013703/30/06 11:50:31  5-MIN KMSN 301750Z 18015G21KT 10SM FEW060 18/06 A2993 860 42 1500 180/15G21 RMK AO2 SLP136 T01830056 10189 20044 58015
14837KMSN MSN20060330115510903/30/06 11:55:31  5-MIN KMSN 301755Z 17017G21KT 10SM FEW060 SCT085 17/05 A2993 860 44 1400 170/17G21 RMK AO2
14837KMSN MSN20060330120010203/30/06 12:00:31  5-MIN KMSN 301800Z 17018KT 9SM FEW060 SCT080 17/06 A2993 860 46 1400 170/18 RMK AO2
14837KMSN MSN20060330120510203/30/06 12:05:31  5-MIN KMSN 301805Z 17016KT 9SM FEW060 SCT080 17/06 A2993 860 46 1400 170/16 RMK AO2
14837KMSN MSN20060330121010903/30/06 12:10:31  5-MIN KMSN 301810Z 18014KT 9SM FEW036 SCT060 BKN080 17/06 A2993 860 46 1400 170/14 RMK AO2
14837KMSN MSN20060330121510903/30/06 12:15:31  5-MIN KMSN 301815Z 18012KT 9SM SCT036 BKN055 BKN080 17/06 A2993 860 46 1400 180/12 RMK AO2
14837KMSN MSN20060330122011503/30/06 12:20:31  5-MIN KMSN 301820Z 18014G18KT 9SM BKN036 BKN060 BKN080 17/06 A2993 860 46 1400 180/14G18 RMK AO2
14837KMSN MSN20060330122511503/30/06 12:25:31  5-MIN KMSN 301825Z 19013G18KT 9SM BKN036 BKN060 OVC075 17/06 A2992 860 47 1400 190/13G18 RMK AO2
14837KMSN MSN20060330123010803/30/06 12:30:31  5-MIN KMSN 301830Z 18014G20KT 9SM BKN036 OVC060 17/06 A2992 870 47 1400 180/14G20 RMK AO2
14837KMSN MSN20060330123510103/30/06 12:35:31  5-MIN KMSN 301835Z 19015G20KT 9SM OVC036 17/06 A2992 870 47 1400 190/15G20 RMK AO2
14837KMSN MSN20060330124009503/30/06 12:40:31  5-MIN KMSN 301840Z 19015KT 9SM OVC036 17/06 A2992 870 47 1400 190/15 RMK AO2
14837KMSN MSN20060330124509503/30/06 12:45:31  5-MIN KMSN 301845Z 19013KT 9SM BKN036 17/06 A2991 870 47 1400 190/13 RMK AO2
14837KMSN MSN20060330125011203/30/06 12:50:31  5-MIN KMSN 301850Z 19014KT 9SM BKN036 17/07 A2991 870 49 1400 190/14 RMK AO2 SLP131 T01720067
14837KMSN MSN20060330125510103/30/06 12:55:31  5-MIN KMSN 301855Z 18016G20KT 9SM BKN036 17/07 A2991 870 49 1400 180/16G20 RMK AO2
14837KMSN MSN20060330130010803/30/06 13:00:31  5-MIN KMSN 301900Z 18015G22KT 9SM BKN036 BKN075 17/07 A2991 870 49 1400 180/15G22 RMK AO2
14837KMSN MSN20060330130511503/30/06 13:05:31  5-MIN KMSN 301905Z 18016G22KT 9SM BKN034 BKN080 BKN090 17/07 A2991 880 49 1400 180/16G22 RMK AO2
14837KMSN MSN20060330131010903/30/06 13:10:31  5-MIN KMSN 301910Z 18016KT 8SM BKN034 BKN075 BKN090 17/07 A2990 880 49 1400 180/16 RMK AO2
14837KMSN MSN20060330131510903/30/06 13:15:31  5-MIN KMSN 301915Z 18013KT 8SM BKN034 BKN075 BKN090 17/07 A2990 880 49 1400 180/13 RMK AO2
14837KMSN MSN20060330132011503/30/06 13:20:31  5-MIN KMSN 301920Z 16016G22KT 9SM BKN032 BKN075 OVC090 17/07 A2990 890 49 1400 160/16G22 RMK AO2
14837KMSN MSN20060330132510803/30/06 13:25:31  5-MIN KMSN 301925Z 17018G24KT 9SM BKN032 OVC070 17/07 A2989 890 51 1300 170/18G24 RMK AO2
14837KMSN MSN20060330133010803/30/06 13:30:31  5-MIN KMSN 301930Z 17019G23KT 9SM BKN032 OVC070 17/07 A2989 890 51 1300 170/19G23 RMK AO2
14837KMSN MSN20060330133510803/30/06 13:35:31  5-MIN KMSN 301935Z 17016G23KT 9SM SCT032 OVC065 17/07 A2989 890 51 1300 170/16G23 RMK AO2
14837KMSN MSN20060330134010203/30/06 13:40:31  5-MIN KMSN 301940Z 16018KT 8SM SCT032 OVC065 16/07 A2989 890 53 1300 160/18 RMK AO2
14837KMSN MSN20060330134512503/30/06 13:45:31  5-MIN KMSN 301945Z 18013KT 7SM -RA FEW032 SCT055 OVC065 16/07 A2989 900 55 1300 180/13 RMK AO2 RAB42 P0000
14837KMSN MSN20060330135014203/30/06 13:50:31  5-MIN KMSN 301950Z 18014KT 7SM -RA FEW032 BKN050 OVC065 16/08 A2988 900 57 1300 170/14 RMK AO2 RAB42 SLP121 P0000 T01610078
14837KMSN MSN20060330135511503/30/06 13:55:31  5-MIN KMSN 301955Z 17014G20KT 9SM FEW032 SCT043 OVC065 16/07 A2988 900 55 1300 170/14G20 RMK AO2
14837KMSN MSN20060330140011503/30/06 14:00:31  5-MIN KMSN 302000Z 17015G19KT 8SM FEW033 BKN049 OVC060 16/07 A2989 890 55 1300 170/15G19 RMK AO2
14837KMSN MSN20060330140511503/30/06 14:05:31  5-MIN KMSN 302005Z 18016G21KT 8SM SCT031 BKN040 OVC060 16/07 A2989 900 55 1300 170/16G21 RMK AO2
14837KMSN MSN20060330141011503/30/06 14:10:31  5-MIN KMSN 302010Z 17017G21KT 8SM BKN031 BKN042 OVC050 16/07 A2989 900 55 1300 170/17G21 RMK AO2
14837KMSN MSN20060330141510203/30/06 14:15:31  5-MIN KMSN 302015Z 17017KT 7SM BKN031 OVC042 16/08 A2989 900 57 1300 170/17 RMK AO2
14837KMSN MSN20060330142010803/30/06 14:20:31  5-MIN KMSN 302020Z 17017G25KT 7SM BKN031 OVC044 16/08 A2988 900 62 1200 170/17G25 RMK AO2
14837KMSN MSN20060330142510803/30/06 14:25:31  5-MIN KMSN 302025Z 17021G25KT 7SM BKN031 OVC044 16/08 A2988 900 62 1200 170/21G25 RMK AO2
14837KMSN MSN20060330143010903/30/06 14:30:31  5-MIN KMSN 302030Z 17018KT 7SM BKN031 BKN046 OVC065 15/08 A2988 900 64 1100 160/18 RMK AO2
14837KMSN MSN20060330143510903/30/06 14:35:31  5-MIN KMSN 302035Z 17019KT 7SM SCT031 BKN039 BKN065 15/08 A2988 900 64 1200 160/19 RMK AO2
14837KMSN MSN20060330144011503/30/06 14:40:31  5-MIN KMSN 302040Z 17018G24KT 7SM SCT031 BKN065 OVC090 16/08 A2988 900 62 1200 170/18G24 RMK AO2
14837KMSN MSN20060330144511503/30/06 14:45:31  5-MIN KMSN 302045Z 17016G24KT 7SM SCT032 BKN042 OVC090 16/08 A2988 900 62 1200 170/16G24 RMK AO2
14837KMSN MSN20060330145013803/30/06 14:50:31  5-MIN KMSN 302050Z 17016KT 7SM BKN032 BKN065 OVC090 16/08 A2987 910 62 1200 170/16 RMK AO2 SLP119 60000 T01560083 58022
14837KMSN MSN20060330145511503/30/06 14:55:31  5-MIN KMSN 302055Z 17018G21KT 7SM BKN030 BKN036 OVC095 16/08 A2987 910 62 1200 170/18G21 RMK AO2
14837KMSN MSN20060330150010903/30/06 15:00:31  5-MIN KMSN 302100Z 17016KT 7SM BKN032 BKN065 OVC095 16/08 A2987 910 62 1200 170/16 RMK AO2
14837KMSN MSN20060330150510503/30/06 15:05:31  5-MIN KMSN 302105Z 17015KT 6SM HZ BKN032 OVC095 16/08 A2986 920 62 1200 170/15 RMK AO2
14837KMSN MSN20060330151009503/30/06 15:10:31  5-MIN KMSN 302110Z 16014KT 7SM OVC032 16/09 A2986 920 64 1200 160/14 RMK AO2
14837KMSN MSN20060330151509503/30/06 15:15:31  5-MIN KMSN 302115Z 16012KT 7SM BKN032 16/08 A2985 930 62 1300 160/12 RMK AO2
14837KMSN MSN20060330152009503/30/06 15:20:31  5-MIN KMSN 302120Z 16014KT 7SM BKN032 16/09 A2985 930 62 1300 160/14 RMK AO2
14837KMSN MSN20060330152509803/30/06 15:25:31  5-MIN KMSN 302125Z 15015KT 6SM HZ SCT032 16/09 A2984 940 62 1300 150/15 RMK AO2
14837KMSN MSN20060330153009803/30/06 15:30:31  5-MIN KMSN 302130Z 16013KT 6SM HZ FEW032 16/09 A2985 930 62 1300 160/13 RMK AO2
14837KMSN MSN20060330153509803/30/06 15:35:31  5-MIN KMSN 302135Z 17013KT 6SM HZ FEW032 16/09 A2985 930 62 1300 170/13 RMK AO2
14837KMSN MSN20060330154009503/30/06 15:40:31  5-MIN KMSN 302140Z 16013KT 7SM SCT049 16/09 A2984 940 62 1300 160/13 RMK AO2
14837KMSN MSN20060330154509503/30/06 15:45:31  5-MIN KMSN 302145Z 16014KT 7SM BKN047 17/09 A2983 940 60 1400 160/14 RMK AO2
14837KMSN MSN20060330155012503/30/06 15:50:31  5-MIN KMSN 302150Z 15016G19KT 7SM BKN045 17/09 A2983 950 60 1400 150/16G19 RMK AO2 PRESFR SLP102 T01670089
14837KMSN MSN20060330155510903/30/06 15:55:31  5-MIN KMSN 302155Z 15013KT 7SM BKN041 BKN048 17/09 A2982 960 57 1500 150/13 RMK AO2 PRESFR
14837KMSN MSN20060330160010203/30/06 16:00:31  5-MIN KMSN 302200Z 15016KT 7SM FEW029 BKN044 17/09 A2981 960 60 1400 150/16 RMK AO2
14837KMSN MSN20060330160510803/30/06 16:05:31  5-MIN KMSN 302205Z 15015G23KT 7SM FEW029 BKN044 17/09 A2981 970 60 1400 150/15G23 RMK AO2
14837KMSN MSN20060330161011503/30/06 16:10:31  5-MIN KMSN 302210Z 15017G23KT 7SM FEW029 SCT042 17/09 A2980 970 57 1500 150/17G23 RMK AO2 PRESFR
14837KMSN MSN20060330161510803/30/06 16:15:31  5-MIN KMSN 302215Z 16018G22KT 7SM FEW029 SCT040 17/09 A2980 980 60 1500 150/18G22 RMK AO2
14837KMSN MSN20060330162010103/30/06 16:20:31  5-MIN KMSN 302220Z 16017G22KT 7SM FEW029 17/09 A2980 980 60 1500 160/17G22 RMK AO2
14837KMSN MSN20060330162510203/30/06 16:25:31  5-MIN KMSN 302225Z 17018KT 8SM FEW029 SCT044 17/09 A2980 980 60 1500 160/18 RMK AO2
14837KMSN MSN20060330163010203/30/06 16:30:31  5-MIN KMSN 302230Z 16016KT 8SM FEW029 SCT044 17/09 A2980 980 60 1500 160/16 RMK AO2
14837KMSN MSN20060330163510203/30/06 16:35:31  5-MIN KMSN 302235Z 16018KT 8SM FEW029 SCT044 17/09 A2979 980 60 1500 160/18 RMK AO2
14837KMSN MSN20060330164010203/30/06 16:40:31  5-MIN KMSN 302240Z 16015KT 8SM FEW029 SCT044 17/09 A2979 980 60 1500 160/15 RMK AO2
14837KMSN MSN20060330164510203/30/06 16:45:31  5-MIN KMSN 302245Z 16018KT 8SM FEW029 SCT044 17/09 A2979 980 60 1500 160/18 RMK AO2
14837KMSN MSN20060330165012503/30/06 16:50:31  5-MIN KMSN 302250Z 17019G23KT 8SM FEW029 SCT037 17/09 A2979 980 60 1500 160/19G23 RMK AO2 SLP091 T01720094
14837KMSN MSN20060330165510103/30/06 16:55:31  5-MIN KMSN 302255Z 16017G23KT 8SM SCT031 17/09 A2979 990 60 1500 160/17G23 RMK AO2
14837KMSN MSN20060330170009503/30/06 17:00:31  5-MIN KMSN 302300Z 17018KT 9SM SCT031 17/09 A2979 990 60 1500 170/18 RMK AO2
14837KMSN MSN20060330170510103/30/06 17:05:31  5-MIN KMSN 302305Z 16016G23KT 9SM SCT031 17/09 A2978 990 60 1500 160/16G23 RMK AO2
14837KMSN MSN20060330171010103/30/06 17:10:31  5-MIN KMSN 302310Z 16016G23KT 9SM SCT031 17/09 A2978 990 60 1500 160/16G23 RMK AO2
14837KMSN MSN20060330171509603/30/06 17:15:31  5-MIN KMSN 302315Z 15016KT 9SM SCT031 17/09 A2978 1000 60 1500 150/16 RMK AO2
14837KMSN MSN20060330172009603/30/06 17:20:31  5-MIN KMSN 302320Z 15014KT 9SM SCT031 17/09 A2977 1000 60 1500 150/14 RMK AO2
14837KMSN MSN20060330172509603/30/06 17:25:31  5-MIN KMSN 302325Z 16014KT 9SM SCT031 17/09 A2978 1000 60 1500 150/14 RMK AO2
14837KMSN MSN20060330173009603/30/06 17:30:31  5-MIN KMSN 302330Z 16015KT 9SM SCT031 17/09 A2978 1000 60 1500 160/15 RMK AO2
14837KMSN MSN20060330173509603/30/06 17:35:31  5-MIN KMSN 302335Z 16013KT 9SM FEW031 17/09 A2977 1000 62 1500 160/13 RMK AO2
14837KMSN MSN20060330174009603/30/06 17:40:31  5-MIN KMSN 302340Z 16015KT 9SM FEW031 17/09 A2977 1010 62 1500 160/15 RMK AO2
14837KMSN MSN20060330174510203/30/06 17:45:31  5-MIN KMSN 302345Z 16018G22KT 9SM FEW031 17/09 A2976 1010 62 1500 160/18G22 RMK AO2
14837KMSN MSN20060330175014303/30/06 17:50:31  5-MIN KMSN 302350Z 15018G22KT 9SM FEW031 17/09 A2976 1020 62 1500 150/18G22 RMK AO2 SLP078 60000 T01670094 10178 20150 56018
14837KMSN MSN20060330175509603/30/06 17:55:31  5-MIN KMSN 302355Z 15016KT 9SM FEW030 17/09 A2976 1020 62 1500 150/16 RMK AO2
14837KMSN MSN20060330180009603/30/06 18:00:31  5-MIN KMSN 310000Z 16014KT 9SM FEW030 17/09 A2976 1020 62 1500 160/14 RMK AO2
14837KMSN MSN20060330180509603/30/06 18:05:31  5-MIN KMSN 310005Z 16014KT 9SM FEW030 17/09 A2976 1020 62 1500 160/14 RMK AO2
14837KMSN MSN20060330181009603/30/06 18:10:31  5-MIN KMSN 310010Z 16014KT 9SM FEW030 17/09 A2976 1020 62 1500 160/14 RMK AO2
14837KMSN MSN20060330181509603/30/06 18:15:31  5-MIN KMSN 310015Z 16014KT 9SM FEW120 17/09 A2976 1020 62 1500 160/14 RMK AO2
14837KMSN MSN20060330182009603/30/06 18:20:31  5-MIN KMSN 310020Z 15013KT 9SM FEW120 17/09 A2976 1010 62 1500 150/13 RMK AO2
14837KMSN MSN20060330182509603/30/06 18:25:31  5-MIN KMSN 310025Z 15011KT 9SM FEW055 17/09 A2976 1010 62 1500 150/11 RMK AO2
14837KMSN MSN20060330183009703/30/06 18:30:31  5-MIN KMSN 310030Z 14012KT 10SM SCT055 17/09 A2976 1020 62 1500 140/12 RMK AO2
14837KMSN MSN20060330183509703/30/06 18:35:31  5-MIN KMSN 310035Z 15011KT 10SM FEW055 17/09 A2976 1010 62 1500 150/11 RMK AO2
14837KMSN MSN20060330184011103/30/06 18:40:31  5-MIN KMSN 310040Z 16012KT 10SM FEW055 SCT075 SCT090 17/09 A2977 1010 62 1500 160/12 RMK AO2
14837KMSN MSN20060330184510403/30/06 18:45:31  5-MIN KMSN 310045Z 15014KT 10SM FEW055 BKN080 17/09 A2976 1010 62 1500 150/14 RMK AO2
14837KMSN MSN20060330185012103/30/06 18:50:31  5-MIN KMSN 310050Z 16013KT 10SM FEW055 BKN080 17/09 A2976 1010 62 1500 160/13 RMK AO2 SLP081 T01670094
14837KMSN MSN20060330185509703/30/06 18:55:31  5-MIN KMSN 310055Z 16013KT 10SM SCT080 16/09 A2976 1010 64 1400 160/13 RMK AO2
14837KMSN MSN20060330190009703/30/06 19:00:31  5-MIN KMSN 310100Z 16012KT 10SM SCT080 16/09 A2976 1020 64 1400 150/12 RMK AO2
14837KMSN MSN20060330190509703/30/06 19:05:31  5-MIN KMSN 310105Z 15013KT 10SM SCT080 16/09 A2976 1020 64 1400 150/13 RMK AO2
14837KMSN MSN20060330191009703/30/06 19:10:31  5-MIN KMSN 310110Z 16012KT 10SM FEW080 16/09 A2975 1020 64 1400 160/12 RMK AO2
14837KMSN MSN20060330191509703/30/06 19:15:31  5-MIN KMSN 310115Z 15012KT 10SM FEW080 16/09 A2974 1030 64 1400 150/12 RMK AO2
14837KMSN MSN20060330192010403/30/06 19:20:31  5-MIN KMSN 310120Z 15014KT 10SM FEW080 16/09 A2973 1040 64 1400 140/14 RMK AO2 PRESFR
14837KMSN MSN20060330192509403/30/06 19:25:31  5-MIN KMSN 310125Z 15012KT 10SM CLR 16/09 A2973 1040 64 1500 140/12 RMK AO2
14837KMSN MSN20060330193009403/30/06 19:30:31  5-MIN KMSN 310130Z 15013KT 10SM CLR 17/09 A2973 1040 62 1500 150/13 RMK AO2
14837KMSN MSN20060330193509403/30/06 19:35:31  5-MIN KMSN 310135Z 15013KT 10SM CLR 16/10 A2973 1040 67 1500 150/13 RMK AO2
14837KMSN MSN20060330194010003/30/06 19:40:31  5-MIN KMSN 310140Z 15015G19KT 10SM CLR 17/10 A2972 1050 64 1500 150/15G19 RMK AO2
14837KMSN MSN20060330194509403/30/06 19:45:31  5-MIN KMSN 310145Z 15014KT 10SM CLR 17/10 A2972 1050 64 1500 150/14 RMK AO2
14837KMSN MSN20060330195011103/30/06 19:50:31  5-MIN KMSN 310150Z 15014KT 10SM CLR 17/10 A2972 1050 64 1500 150/14 RMK AO2 SLP066 T01670100
14837KMSN MSN20060330195509403/30/06 19:55:31  5-MIN KMSN 310155Z 15013KT 10SM CLR 17/10 A2973 1040 64 1500 150/13 RMK AO2
14837KMSN MSN20060330200009403/30/06 20:00:31  5-MIN KMSN 310200Z 16012KT 10SM CLR 17/10 A2973 1040 64 1500 150/12 RMK AO2
14837KMSN MSN20060330200509403/30/06 20:05:31  5-MIN KMSN 310205Z 16013KT 10SM CLR 17/10 A2973 1040 64 1500 160/13 RMK AO2
14837KMSN MSN20060330201009403/30/06 20:10:31  5-MIN KMSN 310210Z 15013KT 10SM CLR 17/10 A2973 1040 64 1500 150/13 RMK AO2
14837KMSN MSN20060330201509403/30/06 20:15:31  5-MIN KMSN 310215Z 16013KT 10SM CLR 17/10 A2973 1040 64 1500 160/13 RMK AO2
14837KMSN MSN20060330202009403/30/06 20:20:31  5-MIN KMSN 310220Z 16014KT 10SM CLR 17/11 A2973 1040 67 1500 160/14 RMK AO2
14837KMSN MSN20060330202510003/30/06 20:25:31  5-MIN KMSN 310225Z 16015G22KT 10SM CLR 17/11 A2973 1040 67 1500 160/15G22 RMK AO2
14837KMSN MSN20060330203010003/30/06 20:30:31  5-MIN KMSN 310230Z 16017G22KT 10SM CLR 17/11 A2973 1040 67 1500 160/17G22 RMK AO2
14837KMSN MSN20060330203509703/30/06 20:35:31  5-MIN KMSN 310235Z 16016KT 10SM FEW100 17/11 A2972 1050 67 1500 160/16 RMK AO2
14837KMSN MSN20060330204009703/30/06 20:40:31  5-MIN KMSN 310240Z 16018KT 10SM SCT095 17/11 A2972 1050 67 1500 160/18 RMK AO2
14837KMSN MSN20060330204509703/30/06 20:45:31  5-MIN KMSN 310245Z 16018KT 10SM FEW095 17/11 A2971 1060 64 1600 160/18 RMK AO2
14837KMSN MSN20060330205012003/30/06 20:50:31  5-MIN KMSN 310250Z 16017KT 10SM FEW095 17/11 A2971 1060 67 1500 160/17 RMK AO2 SLP062 T01670106 56039
14837KMSN MSN20060330205510303/30/06 20:55:31  5-MIN KMSN 310255Z 16018G23KT 10SM FEW095 17/11 A2971 1060 64 1600 160/18G23 RMK AO2
14837KMSN MSN20060330210010303/30/06 21:00:31  5-MIN KMSN 310300Z 16017G23KT 10SM FEW095 17/11 A2971 1060 64 1600 160/17G23 RMK AO2
14837KMSN MSN20060330210509703/30/06 21:05:31  5-MIN KMSN 310305Z 16016KT 10SM SCT090 17/11 A2970 1060 64 1600 160/16 RMK AO2
14837KMSN MSN20060330211009703/30/06 21:10:31  5-MIN KMSN 310310Z 16018KT 10SM SCT095 17/11 A2970 1070 64 1600 160/18 RMK AO2
14837KMSN MSN20060330211509703/30/06 21:15:31  5-MIN KMSN 310315Z 16018KT 10SM SCT095 17/11 A2969 1070 64 1600 160/18 RMK AO2
14837KMSN MSN20060330212009703/30/06 21:20:31  5-MIN KMSN 310320Z 16017KT 10SM SCT090 17/11 A2969 1080 64 1600 160/17 RMK AO2
14837KMSN MSN20060330212509703/30/06 21:25:31  5-MIN KMSN 310325Z 16017KT 10SM SCT090 17/11 A2969 1080 64 1600 160/17 RMK AO2
14837KMSN MSN20060330213009703/30/06 21:30:31  5-MIN KMSN 310330Z 16018KT 10SM SCT090 17/11 A2968 1090 64 1600 160/18 RMK AO2
14837KMSN MSN20060330213510303/30/06 21:35:31  5-MIN KMSN 310335Z 16019G24KT 10SM FEW090 17/11 A2967 1090 64 1600 160/19G24 RMK AO2
14837KMSN MSN20060330214012103/30/06 21:40:31  5-MIN KMSN 310340Z 16019G26KT 10SM FEW085 17/11 A2967 1090 64 1600 160/19G26 RMK AO2 PK WND 15026/0337
14837KMSN MSN20060330214512803/30/06 21:45:31  5-MIN KMSN 310345Z 16018G26KT 10SM FEW060 SCT090 17/11 A2967 1100 64 1700 160/18G26 RMK AO2 PK WND 15026/0337
14837KMSN MSN20060330215016103/30/06 21:50:31  5-MIN KMSN 310350Z 16023G28KT 10SM -RA FEW080 SCT090 17/11 A2967 1100 67 1700 160/23G28 RMK AO2 PK WND 18028/0349 RAB50 SLP046 P0000 T01720111
14837KMSN MSN20060330215511303/30/06 21:55:31  5-MIN KMSN 310355Z 16018G28KT 10SM -RA BKN085 17/11 A2967 1100 67 1700 160/18G28 RMK AO2 P0000
14837KMSN MSN20060330220011303/30/06 22:00:31  5-MIN KMSN 310400Z 17020G27KT 10SM -RA BKN090 17/11 A2967 1100 67 1700 160/20G27 RMK AO2 P0000
14837KMSN MSN20060330220511303/30/06 22:05:31  5-MIN KMSN 310405Z 16018G25KT 10SM -RA BKN085 17/11 A2966 1100 67 1700 160/18G25 RMK AO2 P0000
14837KMSN MSN20060330221011303/30/06 22:10:31  5-MIN KMSN 310410Z 17019G25KT 10SM -RA BKN085 18/11 A2966 1110 64 1700 160/19G25 RMK AO2 P0000
14837KMSN MSN20060330221511303/30/06 22:15:31  5-MIN KMSN 310415Z 17019G25KT 10SM -RA OVC085 18/11 A2966 1110 64 1700 170/19G25 RMK AO2 P0000
14837KMSN MSN20060330222012003/30/06 22:20:31  5-MIN KMSN 310420Z 17018G25KT 10SM -RA BKN080 OVC095 17/11 A2966 1110 67 1700 170/18G25 RMK AO2 P0000
14837KMSN MSN20060330222513703/30/06 22:25:31  5-MIN KMSN 310425Z 17024G29KT 7SM -RA SCT060 OVC085 17/12 A2966 1100 72 1600 160/24G29 RMK AO2 PK WND 16029/0425 P0000
14837KMSN MSN20060330223014403/30/06 22:30:31  5-MIN KMSN 310430Z 17021G29KT 5SM -RA FEW050 BKN065 OVC085 16/12 A2966 1110 77 1500 170/21G29 RMK AO2 PK WND 16029/0425 P0000
14837KMSN MSN20060330223513103/30/06 22:35:31  5-MIN KMSN 310435Z 16019KT 7SM -RA BKN065 OVC080 16/12 A2966 1110 77 1500 160/19 RMK AO2 PK WND 16029/0425 P0000
14837KMSN MSN20060330224013203/30/06 22:40:31  5-MIN KMSN 310440Z 17018KT 10SM -RA BKN065 OVC080 16/12 A2966 1110 77 1500 160/18 RMK AO2 PK WND 16029/0425 P0000
14837KMSN MSN20060330224514003/30/06 22:45:31  5-MIN KMSN 310445Z 16020G25KT 10SM BKN060 OVC075 16/12 A2965 1110 77 1500 160/20G25 RMK AO2 PK WND 16029/0425 RAE45 P0000
14837KMSN MSN20060330225015703/30/06 22:50:31  5-MIN KMSN 310450Z 17020G28KT 10SM BKN060 BKN075 17/12 A2965 1120 75 1600 170/20G28 RMK AO2 PK WND 16029/0425 RAE45 SLP037 P0000 T01670122
14837KMSN MSN20060330225512703/30/06 22:55:31  5-MIN KMSN 310455Z 17021G31KT 9SM BKN060 BKN075 17/12 A2965 1120 72 1600 170/21G31 RMK AO2 PK WND 17027/0455
14837KMSN MSN20060330230015203/30/06 23:00:31  5-MIN KMSN 310500Z 17020G31KT 5SM -RA SCT045 BKN060 BKN075 16/12 A2964 1120 77 1600 170/20G31 RMK AO2 PK WND 17027/0455 RAB0456 P0000
14837KMSN MSN20060330230515203/30/06 23:05:31  5-MIN KMSN 310505Z 16021G26KT 3SM -RA FEW033 SCT041 BKN050 16/12 A2964 1120 80 1500 160/21G26 RMK AO2 PK WND 17027/0455 RAB0456 P0000
14837KMSN MSN20060330231015203/30/06 23:10:31  5-MIN KMSN 310510Z 17021G26KT 5SM -RA BKN041 BKN049 BKN060 16/12 A2964 1130 80 1500 170/21G26 RMK AO2 PK WND 17027/0455 RAB0456 P0001
14837KMSN MSN20060330231514503/30/06 23:15:31  5-MIN KMSN 310515Z 17018G25KT 9SM -RA BKN039 BKN050 16/12 A2964 1130 80 1500 170/18G25 RMK AO2 PK WND 17027/0455 RAB0456 P0001
14837KMSN MSN20060330232013903/30/06 23:20:31  5-MIN KMSN 310520Z 16018KT 10SM BKN039 OVC050 16/12 A2964 1130 80 1500 160/18 RMK AO2 PK WND 17027/0455 RAB0456E17 P0001
14837KMSN MSN20060330232514403/30/06 23:25:31  5-MIN KMSN 310525Z 17021G26KT 9SM FEW027 OVC039 16/12 A2963 1130 77 1600 170/21G26 RMK AO2 PK WND 17027/0455 RAB0456E17 P0001
14837KMSN MSN20060330233014503/30/06 23:30:31  5-MIN KMSN 310530Z 17020G27KT 6SM -RA SCT025 OVC038 16/12 A2964 1130 80 1500 170/20G27 RMK AO2 PK WND 16027/0526 RAB0456 P0001
14837KMSN MSN20060330233515203/30/06 23:35:31  5-MIN KMSN 310535Z 18016G27KT 5SM -RA SCT025 BKN030 OVC038 16/12 A2963 1130 80 1500 170/16G27 RMK AO2 PK WND 16027/0526 RAB0456 P0001
14837KMSN MSN20060330234015203/30/06 23:40:31  5-MIN KMSN 310540Z 18017G26KT 4SM -RA FEW025 BKN030 OVC038 15/12 A2963 1140 83 1400 170/17G26 RMK AO2 PK WND 16027/0526 RAB0456 P0001
14837KMSN MSN20060330234515203/30/06 23:45:31  5-MIN KMSN 310545Z 17016G26KT 4SM -RA BKN027 BKN039 OVC090 15/12 A2962 1140 83 1400 170/16G26 RMK AO2 PK WND 16027/0526 RAB0456 P0002
14837KMSN MSN20060330235016203/30/06 23:50:31  5-MIN KMSN 310550Z 17018G23KT 5SM -RA BKN027 BKN034 OVC065 15/12 A2962 1140 83 1500 170/18G23 RMK AO2 PK WND 16027/0526 RAB0456 P0002 401890028
14837KMSN MSN20060330235512603/30/06 23:55:31  5-MIN KMSN 310555Z 16019G24KT 6SM -RA SCT024 BKN029 OVC065 15/12 A2961 1150 83 1500 160/19G24 RMK AO2 P0000
14837KMSN MSN20060331000015403/31/06 00:00:38  5-MIN KMSN 310600Z 16020G27KT 5SM -RA BR BKN022 BKN030 OVC065 15/13 A2961 1160 86 1500 160/20G27 RMK AO2 PK WND 16027/0556 PRESFR P0000
14837KMSN MSN20060331000515403/31/06 00:05:31  5-MIN KMSN 310605Z 16021G27KT 5SM -RA BR BKN022 BKN030 OVC065 14/13 A2960 1160 90 1400 160/21G27 RMK AO2 PK WND 16027/0556 PRESFR P0000
14837KMSN MSN20060331001015403/31/06 00:10:31  5-MIN KMSN 310610Z 16019G27KT 5SM -RA BR BKN022 BKN030 OVC065 14/13 A2959 1170 90 1400 160/19G27 RMK AO2 PK WND 17027/0608 PRESFR P0002
14837KMSN MSN20060331001514703/31/06 00:15:33  5-MIN KMSN 310615Z 17019G27KT 5SM -RA BR BKN022 BKN030 OVC065 14/13 A2959 1170 90 1400 160/19G27 RMK AO2 PK WND 17027/0608 P0002
14837KMSN MSN20060331002014703/31/06 00:20:31  5-MIN KMSN 310620Z 16021G25KT 5SM -RA BR BKN022 BKN030 OVC065 14/13 A2959 1170 90 1400 160/21G25 RMK AO2 PK WND 17027/0608 P0002
14837KMSN MSN20060331002514103/31/06 00:25:31  5-MIN KMSN 310625Z 17020KT 5SM -RA BR BKN022 BKN030 OVC065 14/13 A2959 1170 90 1400 170/20 RMK AO2 PK WND 17027/0608 P0002
14837KMSN MSN20060331003014003/31/06 00:30:31  5-MIN KMSN 310630Z 16018G25KT 6SM -RA BR BKN016 OVC033 14/13 A2958 1180 90 1400 160/18G25 RMK AO2 PK WND 17027/0608 P0004
14837KMSN MSN20060331003514003/31/06 00:35:31  5-MIN KMSN 310635Z 17021G28KT 6SM -RA BR BKN016 OVC033 14/13 A2958 1180 90 1400 160/21G28 RMK AO2 PK WND 17028/0633 P0004
14837KMSN MSN20060331004014003/31/06 00:40:31  5-MIN KMSN 310640Z 17020G29KT 6SM -RA BR BKN016 OVC033 14/13 A2958 1180 90 1400 170/20G29 RMK AO2 PK WND 16029/0638 P0004
14837KMSN MSN20060331004514003/31/06 00:45:31  5-MIN KMSN 310645Z 17021G29KT 4SM -RA BR BKN016 OVC033 14/13 A2958 1180 90 1400 170/21G29 RMK AO2 PK WND 17029/0642 P0004
14837KMSN MSN20060331005016403/31/06 00:50:31  5-MIN KMSN 310650Z 17025G31KT 4SM -RA BR BKN016 BKN030 OVC060 14/13 A2958 1180 90 1400 170/25G31 RMK AO2 PK WND 18031/0649 SLP015 P0005 T01440128
14837KMSN MSN20060331005514703/31/06 00:55:31  5-MIN KMSN 310655Z 17022G31KT 5SM -RA BR BKN018 BKN030 OVC080 14/13 A2958 1180 90 1400 170/22G31 RMK AO2 PK WND 17027/0654 P0000
14837KMSN MSN20060331010014403/31/06 01:00:31  5-MIN KMSN 310700Z 18019G29KT 7SM -RA BKN018 BKN030 OVC080 14/13 A2958 1180 90 1400 180/19G29 RMK AO2 PK WND 17027/0654 P0001
14837KMSN MSN20060331010514403/31/06 01:05:31  5-MIN KMSN 310705Z 18019G24KT 8SM -RA BKN018 BKN030 OVC080 14/12 A2958 1180 86 1400 180/19G24 RMK AO2 PK WND 17027/0654 P0002
14837KMSN MSN20060331011014403/31/06 01:10:31  5-MIN KMSN 310710Z 18016G23KT 7SM -RA SCT020 BKN050 OVC085 14/12 A2957 1190 86 1400 170/16G23 RMK AO2 PK WND 17027/0654 P0002
14837KMSN MSN20060331011514403/31/06 01:15:31  5-MIN KMSN 310715Z 18020G26KT 8SM -RA FEW020 SCT065 OVC085 14/12 A2957 1190 86 1400 170/20G26 RMK AO2 PK WND 17027/0654 P0002
14837KMSN MSN20060331012015103/31/06 01:20:31  5-MIN KMSN 310720Z 17018G26KT 9SM -RA FEW023 SCT070 OVC085 14/12 A2956 1200 86 1500 170/18G26 RMK AO2 PK WND 17027/0654 PRESFR P0002
14837KMSN MSN20060331012513803/31/06 01:25:31  5-MIN KMSN 310725Z 17018G25KT 10SM -RA FEW021 OVC085 14/12 A2956 1200 90 1400 170/18G25 RMK AO2 PK WND 17027/0654 P0002
14837KMSN MSN20060331013014703/31/06 01:30:31  5-MIN KMSN 310730Z 16021G25KT 10SM SCT065 OVC085 14/12 A2955 1210 90 1400 160/21G25 RMK AO2 PK WND 17027/0654 RAE30 PRESFR P0002
14837KMSN MSN20060331013513903/31/06 01:35:31  5-MIN KMSN 310735Z 16019KT 10SM -RA SCT060 OVC085 14/12 A2954 1220 86 1500 160/19 RMK AO2 PK WND 17027/0654 PRESFR P0002
14837KMSN MSN20060331014014503/31/06 01:40:31  5-MIN KMSN 310740Z 16018G24KT 10SM -RA SCT060 OVC090 14/12 A2953 1220 86 1500 160/18G24 RMK AO2 PK WND 17027/0654 PRESFR P0003
14837KMSN MSN20060331014513403/31/06 01:45:31  5-MIN KMSN 310745Z 16017KT 10SM SCT070 OVC090 14/12 A2954 1220 90 1400 160/17 RMK AO2 PK WND 17027/0654 RAE42 P0003
14837KMSN MSN20060331015014903/31/06 01:50:31  5-MIN KMSN 310750Z 17014KT 10SM -RA SCT070 OVC090 14/12 A2954 1220 90 1400 170/14 RMK AO2 PK WND 17027/0654 SLP001 P0003 T01390122
14837KMSN MSN20060331015511403/31/06 01:55:31  5-MIN KMSN 310755Z 17016KT 10SM -RA BKN065 OVC090 14/12 A2954 1220 90 1400 170/16 RMK AO2 P0000
14837KMSN MSN20060331020012003/31/06 02:00:31  5-MIN KMSN 310800Z 17017G22KT 10SM -RA BKN060 OVC090 14/12 A2953 1230 90 1400 170/17G22 RMK AO2 P0000
14837KMSN MSN20060331020511303/31/06 02:05:31  5-MIN KMSN 310805Z 17017KT 9SM -RA BKN065 OVC090 14/12 A2952 1230 86 1400 170/17 RMK AO2 P0000
14837KMSN MSN20060331021012703/31/06 02:10:31  5-MIN KMSN 310810Z 16021G25KT 10SM -RA BKN070 OVC090 14/12 A2951 1240 86 1400 160/21G25 RMK AO2 PRESFR P0000
14837KMSN MSN20060331021512703/31/06 02:15:31  5-MIN KMSN 310815Z 16019G25KT 10SM -RA BKN065 OVC090 14/11 A2951 1250 83 1400 160/19G25 RMK AO2 PRESFR P0000
14837KMSN MSN20060331022012703/31/06 02:20:31  5-MIN KMSN 310820Z 16018G25KT 10SM -RA BKN065 BKN090 14/11 A2950 1260 83 1500 160/18G25 RMK AO2 PRESFR P0000
14837KMSN MSN20060331022513803/31/06 02:25:31  5-MIN KMSN 310825Z 16020G26KT 10SM -RA SCT065 BKN090 14/11 A2950 1260 83 1500 160/20G26 RMK AO2 PK WND 16026/0823 P0000
14837KMSN MSN20060331023013803/31/06 02:30:31  5-MIN KMSN 310830Z 16018G26KT 10SM -RA FEW070 SCT085 13/11 A2950 1260 86 1400 160/18G26 RMK AO2 PK WND 16026/0823 P0000
14837KMSN MSN20060331023512703/31/06 02:35:31  5-MIN KMSN 310835Z 17016KT 10SM FEW070 13/11 A2950 1250 86 1400 170/16 RMK AO2 PK WND 16026/0823 RAE31 P0000
14837KMSN MSN20060331024013003/31/06 02:40:31  5-MIN KMSN 310840Z 17014G23KT 10SM CLR 13/11 A2950 1250 86 1400 170/14G23 RMK AO2 PK WND 16026/0823 RAE31 P0000
14837KMSN MSN20060331024513003/31/06 02:45:31  5-MIN KMSN 310845Z 17016G23KT 10SM CLR 13/11 A2950 1260 86 1400 170/16G23 RMK AO2 PK WND 16026/0823 RAE31 P0000
14837KMSN MSN20060331025015303/31/06 02:50:31  5-MIN KMSN 310850Z 17014KT 10SM CLR 13/11 A2949 1260 86 1400 160/14 RMK AO2 PK WND 16026/0823 RAE31 SLP986 P0000 60008 T01330111 56018
14837KMSN MSN20060331025510003/31/06 02:55:31  5-MIN KMSN 310855Z 17014G21KT 10SM CLR 13/11 A2950 1260 89 1300 160/14G21 RMK AO2
14837KMSN MSN20060331030009403/31/06 03:00:31  5-MIN KMSN 310900Z 18017KT 10SM CLR 13/11 A2951 1250 89 1300 180/17 RMK AO2
14837KMSN MSN20060331030510003/31/06 03:05:31  5-MIN KMSN 310905Z 17016G22KT 10SM CLR 13/11 A2950 1250 86 1300 170/16G22 RMK AO2
14837KMSN MSN20060331031010003/31/06 03:10:31  5-MIN KMSN 310910Z 18013G22KT 10SM CLR 13/11 A2950 1250 86 1300 180/13G22 RMK AO2
14837KMSN MSN20060331031509403/31/06 03:15:31  5-MIN KMSN 310915Z 18013KT 10SM CLR 13/11 A2950 1250 86 1300 170/13 RMK AO2
14837KMSN MSN20060331032009403/31/06 03:20:31  5-MIN KMSN 310920Z 17012KT 10SM CLR 13/11 A2950 1260 86 1300 170/12 RMK AO2
14837KMSN MSN20060331032510003/31/06 03:25:31  5-MIN KMSN 310925Z 18016G21KT 10SM CLR 13/11 A2951 1250 86 1300 180/16G21 RMK AO2
14837KMSN MSN20060331033010003/31/06 03:30:31  5-MIN KMSN 310930Z 18013G21KT 10SM CLR 13/10 A2950 1250 83 1300 180/13G21 RMK AO2
14837KMSN MSN20060331033509403/31/06 03:35:31  5-MIN KMSN 310935Z 19014KT 10SM CLR 13/10 A2950 1250 83 1300 180/14 RMK AO2
14837KMSN MSN20060331034009403/31/06 03:40:31  5-MIN KMSN 310940Z 19013KT 10SM CLR 13/10 A2951 1250 83 1300 190/13 RMK AO2
14837KMSN MSN20060331034509403/31/06 03:45:31  5-MIN KMSN 310945Z 19013KT 10SM CLR 13/10 A2950 1250 83 1300 190/13 RMK AO2
14837KMSN MSN20060331035011103/31/06 03:50:31  5-MIN KMSN 310950Z 19013KT 10SM CLR 13/10 A2950 1250 83 1300 190/13 RMK AO2 SLP990 T01280100
14837KMSN MSN20060331035509403/31/06 03:55:31  5-MIN KMSN 310955Z 18013KT 10SM CLR 13/09 A2950 1250 80 1300 180/13 RMK AO2
14837KMSN MSN20060331040010303/31/06 04:00:31  5-MIN KMSN 311000Z 19013G19KT 10SM SCT033 13/09 A2950 1250 80 1300 190/13G19 RMK AO2
14837KMSN MSN20060331040510303/31/06 04:05:31  5-MIN KMSN 311005Z 18012G19KT 10SM BKN033 13/09 A2950 1250 80 1300 180/12G19 RMK AO2
14837KMSN MSN20060331041009703/31/06 04:10:31  5-MIN KMSN 311010Z 18013KT 10SM BKN033 13/09 A2950 1260 80 1300 180/13 RMK AO2
14837KMSN MSN20060331041509703/31/06 04:15:31  5-MIN KMSN 311015Z 19012KT 10SM BKN033 13/09 A2950 1260 80 1300 180/12 RMK AO2
14837KMSN MSN20060331042009703/31/06 04:20:31  5-MIN KMSN 311020Z 18013KT 10SM OVC033 13/09 A2950 1260 80 1300 180/13 RMK AO2
14837KMSN MSN20060331042510303/31/06 04:25:31  5-MIN KMSN 311025Z 18014G18KT 10SM OVC033 13/09 A2950 1260 80 1300 180/14G18 RMK AO2
14837KMSN MSN20060331043011103/31/06 04:30:31  5-MIN KMSN 311030Z 19012KT 10SM FEW021 BKN030 OVC036 13/09 A2950 1260 80 1300 190/12 RMK AO2
14837KMSN MSN20060331043510403/31/06 04:35:31  5-MIN KMSN 311035Z 19014KT 10SM SCT023 OVC034 13/09 A2950 1260 80 1300 180/14 RMK AO2
14837KMSN MSN20060331044011703/31/06 04:40:31  5-MIN KMSN 311040Z 19013G19KT 10SM BKN023 BKN029 OVC037 13/09 A2950 1260 80 1300 190/13G19 RMK AO2
14837KMSN MSN20060331044510403/31/06 04:45:31  5-MIN KMSN 311045Z 19012KT 10SM BKN023 OVC032 13/09 A2950 1260 80 1300 190/12 RMK AO2
14837KMSN MSN20060331045012803/31/06 04:50:31  5-MIN KMSN 311050Z 19014KT 10SM SCT021 BKN027 OVC034 13/09 A2950 1260 80 1300 180/14 RMK AO2 SLP987 T01280094
14837KMSN MSN20060331045510403/31/06 04:55:31  5-MIN KMSN 311055Z 19014KT 10SM BKN025 OVC032 12/09 A2950 1260 83 1300 190/14 RMK AO2
14837KMSN MSN20060331050009703/31/06 05:00:31  5-MIN KMSN 311100Z 19011KT 10SM OVC025 12/09 A2950 1260 83 1300 190/11 RMK AO2
14837KMSN MSN20060331050509703/31/06 05:05:31  5-MIN KMSN 311105Z 19014KT 10SM OVC025 12/09 A2950 1260 83 1300 190/14 RMK AO2
14837KMSN MSN20060331051010403/31/06 05:10:31  5-MIN KMSN 311110Z 19013KT 10SM SCT021 OVC027 12/09 A2950 1260 83 1300 190/13 RMK AO2
14837KMSN MSN20060331051509703/31/06 05:15:31  5-MIN KMSN 311115Z 19013KT 10SM OVC025 12/09 A2950 1250 83 1300 190/13 RMK AO2
14837KMSN MSN20060331052010303/31/06 05:20:31  5-MIN KMSN 311120Z 19012G19KT 10SM OVC025 12/09 A2950 1260 83 1300 190/12G19 RMK AO2
14837KMSN MSN20060331052511003/31/06 05:25:31  5-MIN KMSN 311125Z 19010G19KT 10SM BKN023 OVC028 12/09 A2950 1260 83 1300 190/10G19 RMK AO2
14837KMSN MSN20060331053011003/31/06 05:30:31  5-MIN KMSN 311130Z 20011G18KT 10SM BKN021 OVC028 12/09 A2950 1260 83 1300 190/11G18 RMK AO2
14837KMSN MSN20060331053511003/31/06 05:35:31  5-MIN KMSN 311135Z 20013G18KT 10SM BKN021 OVC028 12/09 A2950 1250 83 1300 200/13G18 RMK AO2
14837KMSN MSN20060331054011003/31/06 05:40:31  5-MIN KMSN 311140Z 19012G18KT 10SM BKN021 OVC028 12/09 A2950 1250 83 1300 190/12G18 RMK AO2
14837KMSN MSN20060331054511003/31/06 05:45:31  5-MIN KMSN 311145Z 19013G18KT 10SM BKN021 OVC026 12/09 A2950 1250 83 1300 190/13G18 RMK AO2
14837KMSN MSN20060331055015703/31/06 05:50:31  5-MIN KMSN 311150Z 19012G18KT 10SM BKN021 OVC026 12/09 A2950 1250 80 1300 190/12G18 RMK AO2 SLP990 60008 70010 T01220089 10150 20122 58040
14837KMSN MSN20060331055511003/31/06 05:55:31  5-MIN KMSN 311155Z 20011G18KT 10SM BKN021 OVC026 12/09 A2950 1250 80 1300 190/11G18 RMK AO2
14837KMSN MSN20060331060011103/31/06 06:00:31  5-MIN KMSN 311200Z 20012KT 10SM BKN019 BKN026 OVC032 12/09 A2951 1250 80 1300 200/12 RMK AO2
14837KMSN MSN20060331060511703/31/06 06:05:31  5-MIN KMSN 311205Z 19012G24KT 10SM BKN019 BKN026 OVC032 12/09 A2950 1250 80 1300 190/12G24 RMK AO2
14837KMSN MSN20060331061011003/31/06 06:10:31  5-MIN KMSN 311210Z 19014G24KT 10SM BKN019 OVC026 12/09 A2951 1250 80 1300 190/14G24 RMK AO2
14837KMSN MSN20060331061510403/31/06 06:15:31  5-MIN KMSN 311215Z 20014KT 10SM BKN021 OVC026 12/09 A2951 1250 80 1300 200/14 RMK AO2
14837KMSN MSN20060331062010403/31/06 06:20:31  5-MIN KMSN 311220Z 21011KT 10SM BKN021 OVC029 12/09 A2951 1250 80 1300 210/11 RMK AO2
14837KMSN MSN20060331062510403/31/06 06:25:31  5-MIN KMSN 311225Z 20011KT 10SM BKN021 OVC029 12/09 A2951 1250 80 1300 190/11 RMK AO2
14837KMSN MSN20060331063010303/31/06 06:30:31  5-MIN KMSN 311230Z 22012G17KT 10SM OVC021 12/09 A2951 1250 80 1200 220/12G17 RMK AO2
14837KMSN MSN20060331063510303/31/06 06:35:31  5-MIN KMSN 311235Z 21010G17KT 10SM OVC021 12/09 A2951 1240 80 1200 210/10G17 RMK AO2
14837KMSN MSN20060331064010303/31/06 06:40:31  5-MIN KMSN 311240Z 21010G16KT 10SM OVC023 12/09 A2952 1240 80 1200 210/10G16 RMK AO2
14837KMSN MSN20060331064512603/31/06 06:45:31  5-MIN KMSN 311245Z 21010G16KT 190V250 10SM BKN021 OVC026 12/09 A2952 1240 80 1200 210/10G16 190V250 RMK AO2
14837KMSN MSN20060331065012003/31/06 06:50:31  5-MIN KMSN 311250Z 22011G19KT 10SM OVC021 12/08 A2952 1240 77 1200 220/11G19 RMK AO2 SLP996 T01220083
14837KMSN MSN20060331065510303/31/06 06:55:31  5-MIN KMSN 311255Z 21010G19KT 10SM OVC021 12/08 A2952 1240 77 1200 210/10G19 RMK AO2
14837KMSN MSN20060331070010303/31/06 07:00:31  5-MIN KMSN 311300Z 23013G17KT 10SM OVC021 12/08 A2952 1230 77 1200 220/13G17 RMK AO2
14837KMSN MSN20060331070510303/31/06 07:05:31  5-MIN KMSN 311305Z 22011G20KT 10SM OVC021 12/08 A2952 1230 77 1200 220/11G20 RMK AO2
14837KMSN MSN20060331071011003/31/06 07:10:31  5-MIN KMSN 311310Z 21013G20KT 10SM BKN021 OVC030 12/08 A2952 1230 77 1200 210/13G20 RMK AO2
14837KMSN MSN20060331071511003/31/06 07:15:31  5-MIN KMSN 311315Z 22013G20KT 10SM BKN021 OVC030 12/08 A2952 1230 74 1200 220/13G20 RMK AO2
14837KMSN MSN20060331072011003/31/06 07:20:31  5-MIN KMSN 311320Z 22009G19KT 10SM BKN023 OVC030 12/08 A2953 1230 74 1200 220/09G19 RMK AO2
14837KMSN MSN20060331072510403/31/06 07:25:31  5-MIN KMSN 311325Z 21010KT 10SM BKN023 OVC030 12/08 A2953 1230 77 1200 210/10 RMK AO2
14837KMSN MSN20060331073012603/31/06 07:30:31  5-MIN KMSN 311330Z 22012G19KT 180V250 10SM BKN023 OVC030 12/08 A2953 1230 74 1200 210/12G19 180V250 RMK AO2
14837KMSN MSN20060331073511003/31/06 07:35:31  5-MIN KMSN 311335Z 22015G24KT 10SM BKN023 OVC031 12/08 A2953 1230 77 1200 220/15G24 RMK AO2
14837KMSN MSN20060331074011003/31/06 07:40:31  5-MIN KMSN 311340Z 22015G24KT 10SM BKN023 OVC031 12/08 A2953 1230 77 1200 220/15G24 RMK AO2
14837KMSN MSN20060331074512603/31/06 07:45:31  5-MIN KMSN 311345Z 22016G22KT 180V240 10SM BKN023 OVC040 12/07 A2954 1220 74 1200 220/16G22 180V240 RMK AO2
14837KMSN MSN20060331075012703/31/06 07:50:31  5-MIN KMSN 311350Z 22013G22KT 10SM BKN023 OVC040 12/07 A2954 1220 71 1200 220/13G22 RMK AO2 SLP002 T01170067
14837KMSN MSN20060331075511003/31/06 07:55:31  5-MIN KMSN 311355Z 22011G21KT 10SM BKN023 OVC038 12/06 A2953 1230 68 1200 220/11G21 RMK AO2
14837KMSN MSN20060331080011003/31/06 08:00:31  5-MIN KMSN 311400Z 22012G21KT 10SM BKN023 OVC038 12/06 A2953 1220 66 1200 220/12G21 RMK AO2
14837KMSN MSN20060331080511003/31/06 08:05:31  5-MIN KMSN 311405Z 22013G20KT 10SM BKN023 OVC038 12/06 A2954 1220 66 1100 220/13G20 RMK AO2
14837KMSN MSN20060331081012603/31/06 08:10:31  5-MIN KMSN 311410Z 23012G21KT 190V260 10SM BKN023 OVC038 12/06 A2954 1220 66 1100 230/12G21 190V260 RMK AO2
14837KMSN MSN20060331081511003/31/06 08:15:31  5-MIN KMSN 311415Z 22013G21KT 10SM BKN023 OVC038 11/06 A2954 1220 68 1100 220/13G21 RMK AO2
14837KMSN MSN20060331082011003/31/06 08:20:31  5-MIN KMSN 311420Z 23011G18KT 10SM BKN023 OVC038 11/06 A2954 1220 68 1100 230/11G18 RMK AO2
14837KMSN MSN20060331082511003/31/06 08:25:31  5-MIN KMSN 311425Z 23012G17KT 10SM BKN023 OVC038 11/06 A2954 1220 68 1100 230/12G17 RMK AO2
14837KMSN MSN20060331083012603/31/06 08:30:31  5-MIN KMSN 311430Z 22009G17KT 180V240 10SM BKN023 OVC038 11/06 A2954 1220 68 1100 220/09G17 180V240 RMK AO2
14837KMSN MSN20060331083512603/31/06 08:35:31  5-MIN KMSN 311435Z 22013G21KT 180V260 10SM BKN023 OVC038 12/06 A2954 1220 68 1100 220/13G21 180V260 RMK AO2
14837KMSN MSN20060331084011003/31/06 08:40:31  5-MIN KMSN 311440Z 22014G22KT 10SM BKN023 OVC038 12/06 A2954 1220 68 1100 220/14G22 RMK AO2
14837KMSN MSN20060331084511003/31/06 08:45:31  5-MIN KMSN 311445Z 22009G22KT 10SM BKN027 OVC035 12/06 A2954 1220 68 1200 210/09G22 RMK AO2
14837KMSN MSN20060331085013303/31/06 08:50:31  5-MIN KMSN 311450Z 22011G19KT 10SM BKN027 OVC038 12/06 A2953 1220 68 1200 220/11G19 RMK AO2 SLP001 T01170061 51004
14837KMSN MSN20060331085511003/31/06 08:55:31  5-MIN KMSN 311455Z 22012G17KT 10SM BKN027 OVC038 12/06 A2954 1220 68 1200 220/12G17 RMK AO2
14837KMSN MSN20060331090011003/31/06 09:00:31  5-MIN KMSN 311500Z 22012G19KT 10SM BKN027 OVC037 12/06 A2954 1220 68 1100 220/12G19 RMK AO2
14837KMSN MSN20060331090511003/31/06 09:05:31  5-MIN KMSN 311505Z 21013G19KT 10SM SCT027 OVC033 12/06 A2954 1220 68 1200 210/13G19 RMK AO2
14837KMSN MSN20060331091012603/31/06 09:10:31  5-MIN KMSN 311510Z 21012G20KT 190V250 10SM BKN030 OVC036 12/06 A2954 1220 68 1200 210/12G20 190V250 RMK AO2
14837KMSN MSN20060331091511003/31/06 09:15:31  5-MIN KMSN 311515Z 22010G20KT 10SM BKN028 OVC036 12/06 A2954 1220 68 1100 220/10G20 RMK AO2
14837KMSN MSN20060331092011003/31/06 09:20:31  5-MIN KMSN 311520Z 22016G24KT 10SM BKN030 OVC036 12/06 A2954 1220 68 1100 220/16G24 RMK AO2
14837KMSN MSN20060331092512803/31/06 09:25:31  5-MIN KMSN 311525Z 21019G28KT 10SM SCT030 BKN036 12/06 A2954 1220 66 1100 210/19G28 RMK AO2 PK WND 22028/1521
14837KMSN MSN20060331093012803/31/06 09:30:31  5-MIN KMSN 311530Z 21017G28KT 10SM SCT030 BKN036 12/05 A2954 1210 63 1100 210/17G28 RMK AO2 PK WND 23028/1527
14837KMSN MSN20060331093512803/31/06 09:35:31  5-MIN KMSN 311535Z 22016G28KT 10SM SCT030 BKN036 11/05 A2954 1220 66 1100 220/16G28 RMK AO2 PK WND 23028/1527
14837KMSN MSN20060331094012803/31/06 09:40:31  5-MIN KMSN 311540Z 22016G25KT 10SM SCT030 BKN036 11/05 A2954 1220 66 1100 220/16G25 RMK AO2 PK WND 23028/1527
14837KMSN MSN20060331094512803/31/06 09:45:31  5-MIN KMSN 311545Z 22017G24KT 10SM SCT030 BKN036 11/05 A2954 1220 66 1100 210/17G24 RMK AO2 PK WND 23028/1527
14837KMSN MSN20060331095015403/31/06 09:50:31  5-MIN KMSN 311550Z 22020G25KT 180V240 10SM OVC030 11/05 A2954 1220 66 1100 220/20G25 180V240 RMK AO2 PK WND 23028/1527 SLP004 T01110050
14837KMSN MSN20060331095510303/31/06 09:55:31  5-MIN KMSN 311555Z 21016G26KT 10SM OVC030 11/05 A2954 1220 66 1100 210/16G26 RMK AO2
14837KMSN MSN20060331100011903/31/06 10:00:31  5-MIN KMSN 311600Z 22012G26KT 190V250 10SM OVC030 11/05 A2954 1220 66 1100 220/12G26 190V250 RMK AO2
14837KMSN MSN20060331100511003/31/06 10:05:31  5-MIN KMSN 311605Z 23016G21KT 10SM BKN030 OVC035 11/05 A2954 1210 66 1100 230/16G21 RMK AO2
14837KMSN MSN20060331101012603/31/06 10:10:31  5-MIN KMSN 311610Z 22012G21KT 190V250 10SM BKN030 OVC036 11/05 A2954 1220 66 1100 220/12G21 190V250 RMK AO2
14837KMSN MSN20060331101511003/31/06 10:15:31  5-MIN KMSN 311615Z 23016G24KT 10SM BKN030 OVC035 11/05 A2954 1210 66 1100 230/16G24 RMK AO2
14837KMSN MSN20060331102011003/31/06 10:20:31  5-MIN KMSN 311620Z 24018G24KT 10SM BKN030 OVC035 11/05 A2955 1210 66 1100 240/18G24 RMK AO2
14837KMSN MSN20060331102514403/31/06 10:25:31  5-MIN KMSN 311625Z 22018G27KT 200V270 10SM BKN030 OVC035 11/05 A2955 1210 66 1100 220/18G27 200V270 RMK AO2 PK WND 23027/1623
14837KMSN MSN20060331103012103/31/06 10:30:31  5-MIN KMSN 311630Z 23015G27KT 10SM OVC028 11/05 A2954 1210 66 1100 230/15G27 RMK AO2 PK WND 23027/1623
14837KMSN MSN20060331103512103/31/06 10:35:31  5-MIN KMSN 311635Z 23014G26KT 10SM OVC028 11/05 A2955 1210 68 1000 230/14G26 RMK AO2 PK WND 23027/1623
14837KMSN MSN20060331104012103/31/06 10:40:31  5-MIN KMSN 311640Z 22014G24KT 10SM OVC028 11/05 A2955 1210 66 1100 220/14G24 RMK AO2 PK WND 23027/1623
14837KMSN MSN20060331104512103/31/06 10:45:31  5-MIN KMSN 311645Z 23012G19KT 10SM OVC028 11/05 A2955 1210 68 1000 230/12G19 RMK AO2 PK WND 23027/1623
14837KMSN MSN20060331105013803/31/06 10:50:31  5-MIN KMSN 311650Z 23009G18KT 10SM OVC028 11/05 A2955 1210 68 1000 230/09G18 RMK AO2 PK WND 23027/1623 SLP006 T01060050
14837KMSN MSN20060331105510303/31/06 10:55:31  5-MIN KMSN 311655Z 23015G21KT 10SM OVC026 11/05 A2955 1210 68 1000 230/15G21 RMK AO2
14837KMSN MSN20060331110010303/31/06 11:00:31  5-MIN KMSN 311700Z 22013G21KT 10SM OVC024 11/05 A2955 1210 68 1000 220/13G21 RMK AO2
14837KMSN MSN20060331110510303/31/06 11:05:31  5-MIN KMSN 311705Z 22010G21KT 10SM OVC024 11/05 A2955 1210 68 1000 220/10G21 RMK AO2
14837KMSN MSN20060331111009703/31/06 11:10:31  5-MIN KMSN 311710Z 23016KT 10SM OVC024 11/05 A2955 1210 68 1000 220/16 RMK AO2
14837KMSN MSN20060331111511803/31/06 11:15:31  5-MIN KMSN 311715Z 23009G18KT 210V280 10SM OVC022 10/06 A2955 1210 74 900 230/09G18 210V280 RMK AO2
14837KMSN MSN20060331112010203/31/06 11:20:31  5-MIN KMSN 311720Z 23012G19KT 10SM OVC022 10/06 A2955 1210 74 900 220/12G19 RMK AO2
14837KMSN MSN20060331112510203/31/06 11:25:31  5-MIN KMSN 311725Z 22012G23KT 10SM OVC022 10/06 A2955 1210 74 900 220/12G23 RMK AO2
14837KMSN MSN20060331113010203/31/06 11:30:31  5-MIN KMSN 311730Z 23010G23KT 10SM OVC020 10/06 A2955 1210 74 900 230/10G23 RMK AO2
14837KMSN MSN20060331113510203/31/06 11:35:31  5-MIN KMSN 311735Z 22014G24KT 10SM OVC020 10/06 A2955 1210 74 900 220/14G24 RMK AO2
14837KMSN MSN20060331114011703/31/06 11:40:31  5-MIN KMSN 311740Z 22015G24KT 10SM BKN020 BKN026 OVC033 11/06 A2955 1210 71 1000 220/15G24 RMK AO2
14837KMSN MSN20060331114511703/31/06 11:45:31  5-MIN KMSN 311745Z 22015G22KT 10SM BKN020 BKN026 OVC033 11/06 A2955 1210 71 1000 220/15G22 RMK AO2
14837KMSN MSN20060331115014503/31/06 11:50:31  5-MIN KMSN 311750Z 22011G21KT 10SM BKN022 OVC029 11/05 A2955 1210 68 1000 220/11G21 RMK AO2 SLP006 T01060050 10122 20100 51010
14837KMSN MSN20060331115511003/31/06 11:55:31  5-MIN KMSN 311755Z 21015G24KT 10SM BKN022 OVC029 11/05 A2955 1210 68 1000 210/15G24 RMK AO2
14837KMSN MSN20060331120011703/31/06 12:00:31  5-MIN KMSN 311800Z 22014G24KT 10SM BKN022 BKN029 OVC033 11/05 A2955 1210 68 1000 220/14G24 RMK AO2
14837KMSN MSN20060331120511003/31/06 12:05:31  5-MIN KMSN 311805Z 24013G20KT 10SM BKN024 OVC033 11/04 A2955 1210 66 1000 230/13G20 RMK AO2
14837KMSN MSN20060331121011803/31/06 12:10:31  5-MIN KMSN 311810Z 23013G21KT 200V260 10SM OVC024 10/04 A2955 1200 65 900 230/13G21 200V260 RMK AO2
14837KMSN MSN20060331121510903/31/06 12:15:31  5-MIN KMSN 311815Z 22013G21KT 10SM BKN024 OVC030 10/04 A2955 1210 65 900 220/13G21 RMK AO2
14837KMSN MSN20060331122010903/31/06 12:20:31  5-MIN KMSN 311820Z 22013G23KT 10SM BKN024 OVC030 10/04 A2956 1200 65 900 220/13G23 RMK AO2
14837KMSN MSN20060331122510903/31/06 12:25:31  5-MIN KMSN 311825Z 22010G23KT 10SM BKN024 OVC030 10/04 A2956 1200 65 900 220/10G23 RMK AO2
14837KMSN MSN20060331123012503/31/06 12:30:31  5-MIN KMSN 311830Z 23012G23KT 170V250 10SM BKN024 OVC030 10/04 A2956 1200 65 900 230/12G23 170V250 RMK AO2
14837KMSN MSN20060331123510903/31/06 12:35:31  5-MIN KMSN 311835Z 22013G25KT 10SM BKN024 OVC030 10/03 A2956 1200 63 900 220/13G25 RMK AO2
14837KMSN MSN20060331124010203/31/06 12:40:31  5-MIN KMSN 311840Z 23011G25KT 10SM OVC027 09/03 A2956 1200 65 900 230/11G25 RMK AO2
14837KMSN MSN20060331124510203/31/06 12:45:31  5-MIN KMSN 311845Z 24010G19KT 10SM OVC027 09/03 A2956 1200 65 900 240/10G19 RMK AO2
14837KMSN MSN20060331125013503/31/06 12:50:31  5-MIN KMSN 311850Z 24017G25KT 10SM -RA OVC027 09/04 A2956 1200 71 800 240/17G25 RMK AO2 RAB46 SLP010 P0000 T00890039
14837KMSN MSN20060331125511103/31/06 12:55:31  5-MIN KMSN 311855Z 24013G25KT 7SM -RA OVC027 08/04 A2956 1200 76 700 240/13G25 RMK AO2 P0000
14837KMSN MSN20060331130011103/31/06 13:00:31  5-MIN KMSN 311900Z 23012G20KT 5SM -RA OVC025 08/04 A2956 1200 79 700 230/12G20 RMK AO2 P0001
14837KMSN MSN20060331130511103/31/06 13:05:31  5-MIN KMSN 311905Z 25013G19KT 5SM -RA OVC027 08/04 A2957 1190 79 700 250/13G19 RMK AO2 P0001
14837KMSN MSN20060331131011803/31/06 13:10:31  5-MIN KMSN 311910Z 24013G19KT 5SM -RA BKN027 OVC031 08/04 A2957 1190 79 600 240/13G19 RMK AO2 P0001
14837KMSN MSN20060331131511103/31/06 13:15:31  5-MIN KMSN 311915Z 24011G19KT 5SM -RA OVC027 07/04 A2957 1190 82 600 240/11G19 RMK AO2 P0002
14837KMSN MSN20060331132012503/31/06 13:20:31  5-MIN KMSN 311920Z 23009G19KT 5SM -RA FEW017 BKN023 OVC029 07/04 A2957 1190 82 600 230/09G19 RMK AO2 P0003
14837KMSN MSN20060331132512503/31/06 13:25:31  5-MIN KMSN 311925Z 24011G18KT 5SM -RA SCT017 BKN024 OVC029 07/04 A2957 1190 82 600 230/11G18 RMK AO2 P0003
14837KMSN MSN20060331133012503/31/06 13:30:31  5-MIN KMSN 311930Z 23015G23KT 5SM -RA FEW017 BKN024 OVC031 07/04 A2957 1190 82 600 230/15G23 RMK AO2 P0004
14837KMSN MSN20060331133511803/31/06 13:35:31  5-MIN KMSN 311935Z 23014G23KT 7SM -RA FEW018 OVC025 07/04 A2957 1190 79 600 230/14G23 RMK AO2 P0004
14837KMSN MSN20060331134013503/31/06 13:40:31  5-MIN KMSN 311940Z 23013G24KT 190V260 10SM -RA FEW016 OVC024 07/04 A2957 1190 79 600 230/13G24 190V260 RMK AO2 P0004
14837KMSN MSN20060331134514203/31/06 13:45:31  5-MIN KMSN 311945Z 23011G24KT 180V260 10SM -RA SCT019 BKN026 OVC042 07/04 A2957 1190 79 600 230/11G24 180V260 RMK AO2 P0004
14837KMSN MSN20060331135014303/31/06 13:50:31  5-MIN KMSN 311950Z 22014G22KT 10SM -RA BKN022 BKN030 OVC042 07/04 A2957 1190 79 600 220/14G22 RMK AO2 SLP014 P0004 T00720039
14837KMSN MSN20060331135514403/31/06 13:55:31  5-MIN KMSN 311955Z 23017G28KT 10SM -RA SCT019 BKN024 OVC040 07/04 A2957 1190 79 600 220/17G28 RMK AO2 PK WND 23028/1954 P0000
14837KMSN MSN20060331140013603/31/06 14:00:31  5-MIN KMSN 312000Z 23013G28KT 7SM -RA BKN022 OVC028 07/04 A2957 1190 82 500 230/13G28 RMK AO2 PK WND 23028/1954 P0000
14837KMSN MSN20060331140514303/31/06 14:05:31  5-MIN KMSN 312005Z 24010G22KT 7SM -RA BKN022 BKN028 OVC034 07/04 A2957 1190 82 500 230/10G22 RMK AO2 PK WND 23028/1954 P0000
14837KMSN MSN20060331141014303/31/06 14:10:31  5-MIN KMSN 312010Z 22013G20KT 9SM -RA BKN019 BKN026 OVC034 07/04 A2957 1190 82 500 220/13G20 RMK AO2 PK WND 23028/1954 P0000
14837KMSN MSN20060331141516003/31/06 14:15:31  5-MIN KMSN 312015Z 23012G20KT 190V260 10SM -RA BKN021 BKN028 OVC034 07/04 A2957 1190 82 500 230/12G20 190V260 RMK AO2 PK WND 23028/1954 P0000
14837KMSN MSN20060331142014303/31/06 14:20:31  5-MIN KMSN 312020Z 22014G23KT 9SM -RA BKN021 BKN029 OVC034 07/04 A2957 1190 82 500 220/14G23 RMK AO2 PK WND 23028/1954 P0000
14837KMSN MSN20060331142514303/31/06 14:25:31  5-MIN KMSN 312025Z 23014G23KT 4SM -RA BKN019 BKN024 OVC034 07/04 A2957 1190 82 500 230/14G23 RMK AO2 PK WND 23028/1954 P0000
14837KMSN MSN20060331143015403/31/06 14:30:31  5-MIN KMSN 312030Z 24011G17KT 5SM -DZ BKN019 BKN024 OVC032 07/04 A2958 1190 82 500 240/11G17 RMK AO2 PK WND 23028/1954 RAE30DZB30 P0000
14837KMSN MSN20060331143515203/31/06 14:35:31  5-MIN KMSN 312035Z 22012G19KT 5SM -RA BKN017 BKN024 OVC032 07/04 A2957 1190 86 500 220/12G19 RMK AO2 PK WND 23028/1954 DZB30E35 P0000
14837KMSN MSN20060331144015203/31/06 14:40:31  5-MIN KMSN 312040Z 23013G20KT 7SM -RA SCT017 BKN024 OVC032 07/04 A2957 1190 82 500 230/13G20 RMK AO2 PK WND 23028/1954 DZB30E35 P0000
14837KMSN MSN20060331144515203/31/06 14:45:31  5-MIN KMSN 312045Z 23013G22KT 8SM -RA SCT017 BKN024 OVC030 07/04 A2957 1190 82 500 230/13G22 RMK AO2 PK WND 23028/1954 DZB30E35 P0000
14837KMSN MSN20060331145019803/31/06 14:50:31  5-MIN KMSN 312050Z 23014G22KT 200V270 10SM -RA SCT017 BKN024 OVC030 07/04 A2957 1190 82 500 230/14G22 200V270 RMK AO2 PK WND 23028/1954 DZB30E35 SLP016 P0000 60004 T00670039 50004
14837KMSN MSN20060331145511603/31/06 14:55:31  5-MIN KMSN 312055Z 24015G23KT 10SM SCT019 BKN025 OVC032 07/04 A2958 1190 82 500 240/15G23 RMK AO2
14837KMSN MSN20060331150011603/31/06 15:00:31  5-MIN KMSN 312100Z 23012G23KT 10SM SCT020 BKN025 OVC032 07/04 A2957 1190 79 600 230/12G23 RMK AO2
14837KMSN MSN20060331150513203/31/06 15:05:31  5-MIN KMSN 312105Z 23012G25KT 200V260 10SM BKN022 BKN027 OVC032 07/04 A2958 1180 79 600 230/12G25 200V260 RMK AO2
14837KMSN MSN20060331151011603/31/06 15:10:31  5-MIN KMSN 312110Z 23014G25KT 10SM BKN020 BKN025 OVC032 07/03 A2957 1190 76 600 230/14G25 RMK AO2
14837KMSN MSN20060331151510903/31/06 15:15:31  5-MIN KMSN 312115Z 23014G25KT 10SM BKN020 OVC025 07/04 A2957 1190 79 600 230/14G25 RMK AO2
14837KMSN MSN20060331152010903/31/06 15:20:31  5-MIN KMSN 312120Z 24014G23KT 10SM BKN020 OVC025 07/04 A2958 1180 79 600 230/14G23 RMK AO2
14837KMSN MSN20060331152510903/31/06 15:25:31  5-MIN KMSN 312125Z 23014G23KT 10SM BKN020 OVC025 07/04 A2958 1190 82 500 230/14G23 RMK AO2
14837KMSN MSN20060331153010903/31/06 15:30:31  5-MIN KMSN 312130Z 24010G20KT 10SM BKN018 OVC025 07/04 A2958 1180 82 500 240/10G20 RMK AO2
14837KMSN MSN20060331153510903/31/06 15:35:31  5-MIN KMSN 312135Z 23011G22KT 10SM BKN018 OVC024 07/04 A2958 1180 82 500 230/11G22 RMK AO2
14837KMSN MSN20060331154010203/31/06 15:40:31  5-MIN KMSN 312140Z 23014G22KT 10SM OVC018 07/04 A2958 1180 82 500 230/14G22 RMK AO2
14837KMSN MSN20060331154511803/31/06 15:45:31  5-MIN KMSN 312145Z 24014G24KT 220V280 10SM OVC018 07/04 A2958 1180 82 500 240/14G24 220V280 RMK AO2
14837KMSN MSN20060331155011903/31/06 15:50:31  5-MIN KMSN 312150Z 23013G24KT 10SM OVC018 07/04 A2958 1180 82 500 230/13G24 RMK AO2 SLP019 T00670039
14837KMSN MSN20060331155510203/31/06 15:55:31  5-MIN KMSN 312155Z 24015G23KT 10SM OVC018 07/04 A2959 1180 82 500 240/15G23 RMK AO2
14837KMSN MSN20060331160010203/31/06 16:00:31  5-MIN KMSN 312200Z 24013G23KT 10SM OVC016 07/04 A2959 1170 82 500 240/13G23 RMK AO2
14837KMSN MSN20060331160511803/31/06 16:05:31  5-MIN KMSN 312205Z 24013G24KT 190V270 10SM OVC016 07/04 A2959 1170 82 500 230/13G24 190V270 RMK AO2
14837KMSN MSN20060331161011803/31/06 16:10:31  5-MIN KMSN 312210Z 23010G24KT 190V260 10SM OVC016 07/04 A2959 1170 86 500 230/10G24 190V260 RMK AO2
14837KMSN MSN20060331161510203/31/06 16:15:31  5-MIN KMSN 312215Z 24012G19KT 10SM OVC016 07/04 A2959 1170 86 500 230/12G19 RMK AO2
14837KMSN MSN20060331162010203/31/06 16:20:31  5-MIN KMSN 312220Z 24010G20KT 10SM OVC014 07/04 A2959 1170 86 500 230/10G20 RMK AO2
14837KMSN MSN20060331162511803/31/06 16:25:31  5-MIN KMSN 312225Z 24011G20KT 210V270 10SM OVC014 07/04 A2959 1170 86 500 240/11G20 210V270 RMK AO2
14837KMSN MSN20060331163010203/31/06 16:30:31  5-MIN KMSN 312230Z 24011G20KT 10SM OVC014 07/04 A2960 1170 86 500 240/11G20 RMK AO2
14837KMSN MSN20060331163510203/31/06 16:35:31  5-MIN KMSN 312235Z 24013G20KT 10SM OVC014 07/04 A2960 1160 82 500 240/13G20 RMK AO2
14837KMSN MSN20060331164013403/31/06 16:40:31  5-MIN KMSN 312240Z 25011G18KT 200V270 10SM -DZ OVC014 07/04 A2960 1160 82 500 250/11G18 200V270 RMK AO2 DZB37 P0000
14837KMSN MSN20060331164511803/31/06 16:45:31  5-MIN KMSN 312245Z 24014G18KT 10SM -DZ OVC014 07/04 A2960 1160 82 500 240/14G18 RMK AO2 DZB37 P0000
14837KMSN MSN20060331165013403/31/06 16:50:31  5-MIN KMSN 312250Z 24012G19KT 8SM -DZ OVC014 07/04 A2961 1160 82 500 240/12G19 RMK AO2 DZB37 SLP027 P0000 T00720044
14837KMSN MSN20060331165511103/31/06 16:55:31  5-MIN KMSN 312255Z 25010G19KT 8SM -DZ OVC014 07/04 A2961 1150 82 500 250/10G19 RMK AO2 P0000
14837KMSN MSN20060331170011103/31/06 17:00:31  5-MIN KMSN 312300Z 25012G17KT 9SM -DZ OVC014 07/04 A2961 1150 82 500 240/12G17 RMK AO2 P0000
14837KMSN MSN20060331170511203/31/06 17:05:31  5-MIN KMSN 312305Z 24010G17KT 10SM -DZ OVC014 07/04 A2961 1150 82 500 240/10G17 RMK AO2 P0000
14837KMSN MSN20060331171012803/31/06 17:10:31  5-MIN KMSN 312310Z 24009G15KT 200V270 10SM -DZ OVC014 07/04 A2961 1150 82 500 240/09G15 200V270 RMK AO2 P0000
14837KMSN MSN20060331171512703/31/06 17:15:31  5-MIN KMSN 312315Z 24010G17KT 210V280 9SM -DZ OVC014 07/05 A2961 1150 86 500 240/10G17 210V280 RMK AO2 P0000
14837KMSN MSN20060331172011103/31/06 17:20:31  5-MIN KMSN 312320Z 24011G17KT 8SM -DZ OVC014 07/05 A2962 1150 86 500 240/11G17 RMK AO2 P0000
14837KMSN MSN20060331172511103/31/06 17:25:31  5-MIN KMSN 312325Z 24010G17KT 8SM -DZ OVC014 07/05 A2962 1150 86 500 240/10G17 RMK AO2 P0000
14837KMSN MSN20060331173011103/31/06 17:30:31  5-MIN KMSN 312330Z 24011G17KT 8SM -DZ OVC012 07/05 A2962 1140 86 500 240/11G17 RMK AO2 P0000
14837KMSN MSN20060331173511103/31/06 17:35:31  5-MIN KMSN 312335Z 24008G17KT 8SM -DZ OVC012 07/05 A2962 1140 86 500 230/08G17 RMK AO2 P0000
14837KMSN MSN20060331174011203/31/06 17:40:31  5-MIN KMSN 312340Z 24011G17KT 10SM -DZ OVC012 07/05 A2962 1140 86 500 240/11G17 RMK AO2 P0000
14837KMSN MSN20060331174511203/31/06 17:45:31  5-MIN KMSN 312345Z 25013G17KT 10SM -DZ OVC012 07/05 A2963 1140 86 500 250/13G17 RMK AO2 P0000
14837KMSN MSN20060331175015303/31/06 17:50:31  5-MIN KMSN 312350Z 25013G17KT 10SM -DZ OVC012 07/05 A2963 1140 86 500 250/13G17 RMK AO2 SLP034 P0000 60004 T00720050 10106 20067 51009
14837KMSN MSN20060331175510103/31/06 17:55:31  5-MIN KMSN 312355Z 24008G17KT 9SM OVC012 07/05 A2963 1130 86 500 240/08G17 RMK AO2
14837KMSN MSN20060331180010203/31/06 18:00:31  5-MIN KMSN 010000Z 24009G21KT 10SM OVC012 07/05 A2963 1130 86 500 240/09G21 RMK AO2
14837KMSN MSN20060331180511803/31/06 18:05:31  5-MIN KMSN 010005Z 24010G21KT 210V290 10SM OVC012 07/05 A2963 1130 86 500 240/10G21 210V290 RMK AO2
14837KMSN MSN20060331181011803/31/06 18:10:31  5-MIN KMSN 010010Z 24011G16KT 210V270 10SM OVC012 07/05 A2963 1130 86 500 240/11G16 210V270 RMK AO2
14837KMSN MSN20060331181511803/31/06 18:15:31  5-MIN KMSN 010015Z 24011G17KT 210V280 10SM OVC012 07/05 A2963 1130 86 500 240/11G17 210V280 RMK AO2
14837KMSN MSN20060331182011803/31/06 18:20:31  5-MIN KMSN 010020Z 24011G18KT 200V270 10SM OVC010 07/05 A2963 1130 86 500 240/11G18 200V270 RMK AO2
14837KMSN MSN20060331182510203/31/06 18:25:31  5-MIN KMSN 010025Z 24011G18KT 10SM OVC010 07/05 A2963 1130 86 500 240/11G18 RMK AO2
14837KMSN MSN20060331183011803/31/06 18:30:31  5-MIN KMSN 010030Z 24011G16KT 210V280 10SM OVC010 07/05 A2964 1130 86 500 240/11G16 210V280 RMK AO2
14837KMSN MSN20060331183511803/31/06 18:35:31  5-MIN KMSN 010035Z 24012G17KT 210V290 10SM OVC010 07/05 A2964 1130 86 500 240/12G17 210V290 RMK AO2
14837KMSN MSN20060331184011803/31/06 18:40:31  5-MIN KMSN 010040Z 24012G18KT 200V270 10SM OVC010 07/05 A2964 1120 86 500 240/12G18 200V270 RMK AO2
14837KMSN MSN20060331184511803/31/06 18:45:31  5-MIN KMSN 010045Z 24010G18KT 210V280 10SM OVC010 07/05 A2964 1120 86 500 240/10G18 210V280 RMK AO2
14837KMSN MSN20060331185011903/31/06 18:50:31  5-MIN KMSN 010050Z 24011G19KT 10SM OVC010 07/05 A2965 1120 86 500 240/11G19 RMK AO2 SLP042 T00720050
14837KMSN MSN20060331190510203/31/06 19:05:31  5-MIN KMSN 010105Z 24010G17KT 10SM OVC010 07/05 A2966 1110 86 500 240/10G17 RMK AO2
14837KMSN MSN20060331191011803/31/06 19:10:31  5-MIN KMSN 010110Z 25008G15KT 210V280 10SM OVC010 07/05 A2966 1100 86 500 250/08G15 210V280 RMK AO2
14837KMSN MSN20060331191511203/31/06 19:15:31  5-MIN KMSN 010115Z 25010KT 220V280 10SM OVC010 07/06 A2967 1100 89 500 250/10 220V280 RMK AO2
14837KMSN MSN20060331192010103/31/06 19:20:31  5-MIN KMSN 010120Z 24008G17KT 9SM OVC010 07/06 A2967 1100 89 500 240/08G17 RMK AO2
14837KMSN MSN20060331192511703/31/06 19:25:31  5-MIN KMSN 010125Z 24010G17KT 210V270 7SM OVC010 07/06 A2967 1100 89 500 240/10G17 210V270 RMK AO2
14837KMSN MSN20060331193013603/31/06 19:30:31  5-MIN KMSN 010130Z 25009G16KT 220V280 6SM -DZ BR OVC010 07/06 A2967 1090 89 500 250/09G16 220V280 RMK AO2 DZB30 P0000
14837KMSN MSN20060331193512003/31/06 19:35:31  5-MIN KMSN 010135Z 25008G16KT 6SM -DZ BR OVC010 07/06 A2968 1090 89 500 250/08G16 RMK AO2 DZB30 P0000
14837KMSN MSN20060331194013603/31/06 19:40:31  5-MIN KMSN 010140Z 25010G15KT 220V280 6SM -DZ BR OVC010 07/06 A2968 1090 89 500 250/10G15 220V280 RMK AO2 DZB30 P0000
14837KMSN MSN20060331194514503/31/06 19:45:31  5-MIN KMSN 010145Z 26008G20KT 220V290 7SM -DZ OVC010 07/06 A2969 1080 89 400 260/08G20 220V290 RMK AO2 DZB30 CIG 009V013 P0000
14837KMSN MSN20060331195016203/31/06 19:50:31  5-MIN KMSN 010150Z 25009G20KT 220V310 7SM -DZ OVC010 07/06 A2969 1080 89 400 250/09G20 220V310 RMK AO2 DZB30 CIG 009V013 SLP056 P0000 T00720056
14837KMSN MSN20060331195513903/31/06 19:55:31  5-MIN KMSN 010155Z 27010G16KT 230V320 8SM -DZ OVC010 07/06 A2969 1080 89 400 260/10G16 230V320 RMK AO2 CIG 008V013 P0000
14837KMSN MSN20060331200012603/31/06 20:00:31  5-MIN KMSN 010200Z 27008G16KT 4SM -DZ BR OVC010 07/06 A2969 1070 89 400 270/08G16 RMK AO2 CIG 008V013 P0000
14837KMSN MSN20060331200512603/31/06 20:05:31  5-MIN KMSN 010205Z 27009G14KT 4SM -DZ BR OVC010 07/06 A2970 1070 89 400 270/09G14 RMK AO2 CIG 008V013 P0000
14837KMSN MSN20060331201014203/31/06 20:10:31  5-MIN KMSN 010210Z 27010G15KT 220V310 3SM -DZ BR OVC010 07/06 A2970 1070 89 400 260/10G15 220V310 RMK AO2 CIG 008V014 P0000
14837KMSN MSN20060331201513003/31/06 20:15:31  5-MIN KMSN 010215Z 26010G17KT 230V290 3SM -DZ BR OVC010 07/06 A2970 1070 89 400 260/10G17 230V290 RMK AO2 P0000
14837KMSN MSN20060331202013003/31/06 20:20:31  5-MIN KMSN 010220Z 27010G17KT 240V300 3SM -DZ BR OVC010 07/06 A2971 1060 89 400 270/10G17 240V300 RMK AO2 P0000
14837KMSN MSN20060331202512703/31/06 20:25:31  5-MIN KMSN 010225Z 26011G16KT 240V300 8SM -DZ OVC010 07/05 A2971 1060 86 400 260/11G16 240V300 RMK AO2 P0000
14837KMSN MSN20060331203011103/31/06 20:30:31  5-MIN KMSN 010230Z 27010G17KT 8SM -DZ OVC010 07/05 A2971 1060 86 400 270/10G17 RMK AO2 P0000
14837KMSN MSN20060331203511103/31/06 20:35:31  5-MIN KMSN 010235Z 26009G17KT 8SM -DZ OVC012 07/05 A2971 1060 86 400 260/09G17 RMK AO2 P0000
14837KMSN MSN20060331204011103/31/06 20:40:31  5-MIN KMSN 010240Z 26009G18KT 8SM -DZ OVC012 07/05 A2971 1060 86 400 260/09G18 RMK AO2 P0000
14837KMSN MSN20060331204512703/31/06 20:45:31  5-MIN KMSN 010245Z 26009G18KT 220V300 8SM -DZ OVC012 07/05 A2972 1050 86 400 260/09G18 220V300 RMK AO2 P0000
14837KMSN MSN20060331205014303/31/06 20:50:31  5-MIN KMSN 010250Z 26009G14KT 10SM OVC012 07/05 A2972 1050 86 400 260/09G14 RMK AO2 DZE49 SLP067 P0000 60000 T00720050 53018
14837KMSN MSN20060331205511803/31/06 20:55:31  5-MIN KMSN 010255Z 27008G14KT 230V310 10SM OVC012 07/05 A2972 1050 86 400 260/08G14 230V310 RMK AO2
14837KMSN MSN20060331210010203/31/06 21:00:31  5-MIN KMSN 010300Z 26010G14KT 10SM OVC012 07/05 A2972 1050 86 400 260/10G14 RMK AO2
14837KMSN MSN20060331210510203/31/06 21:05:31  5-MIN KMSN 010305Z 27008G14KT 10SM OVC012 07/05 A2972 1050 86 400 270/08G14 RMK AO2
14837KMSN MSN20060331211011203/31/06 21:10:31  5-MIN KMSN 010310Z 27007KT 200V310 10SM OVC012 07/05 A2972 1050 86 400 270/07 200V310 RMK AO2
14837KMSN MSN20060331211510203/31/06 21:15:31  5-MIN KMSN 010315Z 27009G16KT 10SM OVC012 07/05 A2973 1040 86 400 270/09G16 RMK AO2
14837KMSN MSN20060331212011803/31/06 21:20:31  5-MIN KMSN 010320Z 25007G16KT 230V330 10SM OVC012 07/05 A2973 1040 86 400 250/07G16 230V330 RMK AO2
14837KMSN MSN20060331212511203/31/06 21:25:31  5-MIN KMSN 010325Z 26008KT 230V310 10SM OVC012 07/05 A2973 1040 86 400 260/08 230V310 RMK AO2
14837KMSN MSN20060331213009603/31/06 21:30:31  5-MIN KMSN 010330Z 26007KT 10SM OVC012 07/05 A2973 1040 86 400 260/07 RMK AO2
14837KMSN MSN20060331213509603/31/06 21:35:31  5-MIN KMSN 010335Z 26007KT 10SM OVC012 07/05 A2974 1030 86 400 260/07 RMK AO2
14837KMSN MSN20060331214011203/31/06 21:40:31  5-MIN KMSN 010340Z 27007KT 230V310 10SM OVC012 07/05 A2974 1030 89 300 270/07 230V310 RMK AO2
14837KMSN MSN20060331214510203/31/06 21:45:31  5-MIN KMSN 010345Z 26011G14KT 10SM OVC012 07/05 A2974 1030 89 300 260/11G14 RMK AO2
14837KMSN MSN20060331215013403/31/06 21:50:31  5-MIN KMSN 010350Z 26008G16KT 240V300 9SM OVC012 07/05 A2974 1030 89 300 260/08G16 240V300 RMK AO2 SLP074 T00670050
14837KMSN MSN20060331215511103/31/06 21:55:31  5-MIN KMSN 010355Z 27009G16KT 8SM -DZ OVC012 07/05 A2974 1030 89 300 270/09G16 RMK AO2 P0000
14837KMSN MSN20060331220012103/31/06 22:00:31  5-MIN KMSN 010400Z 27007KT 220V310 7SM -DZ OVC012 07/05 A2975 1030 89 300 270/07 220V310 RMK AO2 P0000
14837KMSN MSN20060331220511403/31/06 22:05:31  5-MIN KMSN 010405Z 26009G16KT 6SM -DZ BR OVC012 07/05 A2975 1030 89 300 260/09G16 RMK AO2 P0000
14837KMSN MSN20060331221013003/31/06 22:10:31  5-MIN KMSN 010410Z 26008G16KT 230V300 4SM -DZ BR OVC012 07/05 A2975 1020 89 300 260/08G16 230V300 RMK AO2 P0000
14837KMSN MSN20060331221511403/31/06 22:15:31  5-MIN KMSN 010415Z 28010G15KT 4SM -DZ BR OVC012 07/05 A2975 1020 89 300 280/10G15 RMK AO2 P0000
14837KMSN MSN20060331222011103/31/06 22:20:31  5-MIN KMSN 010420Z 28009G14KT 9SM -DZ OVC012 07/05 A2975 1020 89 300 280/09G14 RMK AO2 P0000
14837KMSN MSN20060331222511203/31/06 22:25:31  5-MIN KMSN 010425Z 27008G14KT 10SM -DZ OVC012 07/05 A2976 1020 89 300 270/08G14 RMK AO2 P0000
14837KMSN MSN20060331223011103/31/06 22:30:31  5-MIN KMSN 010430Z 26009G14KT 9SM -DZ OVC012 07/05 A2976 1010 89 300 260/09G14 RMK AO2 P0000
14837KMSN MSN20060331223511103/31/06 22:35:31  5-MIN KMSN 010435Z 28009G16KT 8SM -DZ OVC012 07/05 A2976 1010 89 300 280/09G16 RMK AO2 P0000
14837KMSN MSN20060331224011103/31/06 22:40:31  5-MIN KMSN 010440Z 27013G18KT 7SM -DZ OVC012 07/05 A2976 1010 89 300 270/13G18 RMK AO2 P0000
14837KMSN MSN20060331224512103/31/06 22:45:31  5-MIN KMSN 010445Z 28012G18KT 5SM -DZ BR BKN012 OVC019 07/05 A2976 1010 89 300 270/12G18 RMK AO2 P0000
14837KMSN MSN20060331225014503/31/06 22:50:31  5-MIN KMSN 010450Z 28012G19KT 10SM BKN012 BKN019 OVC025 07/05 A2976 1010 89 300 280/12G19 RMK AO2 DZE50 SLP082 P0000 T00670050
14837KMSN MSN20060331225511603/31/06 22:55:31  5-MIN KMSN 010455Z 29010G19KT 10SM BKN012 BKN020 OVC025 07/05 A2977 1010 89 300 290/10G19 RMK AO2
14837KMSN MSN20060331230011503/31/06 23:00:31  5-MIN KMSN 010500Z 29011G18KT 9SM SCT012 BKN020 OVC025 07/05 A2977 1000 89 300 290/11G18 RMK AO2
14837KMSN MSN20060331230512403/31/06 23:05:31  5-MIN KMSN 010505Z 28010G18KT 7SM -DZ FEW012 OVC022 07/05 A2977 1000 89 300 280/10G18 RMK AO2 DZB02 P0000
14837KMSN MSN20060331231013103/31/06 23:10:31  5-MIN KMSN 010510Z 28010G17KT 7SM -DZ FEW011 BKN019 OVC025 07/05 A2977 1000 89 300 280/10G17 RMK AO2 DZB02 P0000
14837KMSN MSN20060331231513103/31/06 23:15:31  5-MIN KMSN 010515Z 28008G17KT 7SM -DZ FEW010 BKN016 OVC025 07/05 A2978 1000 89 300 280/08G17 RMK AO2 DZB02 P0000
14837KMSN MSN20060331232013103/31/06 23:20:31  5-MIN KMSN 010520Z 28009G16KT 9SM -DZ SCT010 BKN016 OVC020 07/05 A2978 1000 89 300 280/09G16 RMK AO2 DZB02 P0000
14837KMSN MSN20060331232513003/31/06 23:25:31  5-MIN KMSN 010525Z 29009G16KT 10SM BKN010 BKN017 OVC023 07/05 A2978 990 89 300 280/09G16 RMK AO2 DZB02E24 P0000
14837KMSN MSN20060331233011603/31/06 23:30:31  5-MIN KMSN 010530Z 28010KT 9SM BKN012 OVC019 07/05 A2978 990 89 300 280/10 RMK AO2 DZB02E24 P0000
14837KMSN MSN20060331233511603/31/06 23:35:31  5-MIN KMSN 010535Z 29010G16KT 10SM OVC012 07/05 A2978 990 89 300 290/10G16 RMK AO2 DZB02E24 P0000
14837KMSN MSN20060331234011603/31/06 23:40:31  5-MIN KMSN 010540Z 29010G16KT 10SM OVC012 07/05 A2979 990 89 300 290/10G16 RMK AO2 DZB02E24 P0000
14837KMSN MSN20060331234511003/31/06 23:45:31  5-MIN KMSN 010545Z 29009KT 10SM OVC012 07/05 A2979 990 86 300 290/09 RMK AO2 DZB02E24 P0000
14837KMSN MSN20060331235016703/31/06 23:50:31  5-MIN KMSN 010550Z 29008G18KT 10SM OVC012 07/05 A2979 980 86 300 290/08G18 RMK AO2 DZB02E24 SLP092 P0000 60000 T00720050 10072 20067 401500067 53030
14837KMSN MSN20060331235510103/31/06 23:55:31  5-MIN KMSN 010555Z 29008G18KT 10SM OVC012 07/05 A2980 980 86 300 290/08G18 RMK AO2
