14837KMSN MSN20071101000009411/01/07 00:00:35  5-MIN KMSN 010600Z 27004KT 10SM CLR 04/M04 A3014 660 55 -400 270/04 RMK AO2
14837KMSN MSN20071101000509411/01/07 00:05:31  5-MIN KMSN 010605Z 28005KT 10SM CLR 04/M04 A3015 660 55 -400 280/05 RMK AO2
14837KMSN MSN20071101001009411/01/07 00:10:31  5-MIN KMSN 010610Z 27004KT 10SM CLR 04/M04 A3015 660 55 -400 270/04 RMK AO2
14837KMSN MSN20071101001509411/01/07 00:15:31  5-MIN KMSN 010615Z VRB04KT 10SM CLR 04/M04 A3015 660 55 -400 VRB/04 RMK AO2
14837KMSN MSN20071101002009411/01/07 00:20:31  5-MIN KMSN 010620Z 28004KT 10SM CLR 04/M04 A3015 650 55 -400 280/04 RMK AO2
14837KMSN MSN20071101002509411/01/07 00:25:31  5-MIN KMSN 010625Z 28005KT 10SM CLR 04/M04 A3015 650 57 -400 280/05 RMK AO2
14837KMSN MSN20071101003009411/01/07 00:30:31  5-MIN KMSN 010630Z 27004KT 10SM CLR 04/M04 A3015 650 55 -400 270/04 RMK AO2
14837KMSN MSN20071101003509411/01/07 00:35:31  5-MIN KMSN 010635Z 27004KT 10SM CLR 04/M04 A3015 650 57 -400 270/04 RMK AO2
14837KMSN MSN20071101004009411/01/07 00:40:31  5-MIN KMSN 010640Z 28005KT 10SM CLR 04/M04 A3015 650 55 -400 280/05 RMK AO2
14837KMSN MSN20071101004509411/01/07 00:45:31  5-MIN KMSN 010645Z 28005KT 10SM CLR 04/M04 A3015 650 57 -400 280/05 RMK AO2
14837KMSN MSN20071101005011111/01/07 00:50:31  5-MIN KMSN 010650Z 29005KT 10SM CLR 04/M04 A3015 650 57 -400 280/05 RMK AO2 SLP215 T00391039
14837KMSN MSN20071101005509411/01/07 00:55:31  5-MIN KMSN 010655Z 29005KT 10SM CLR 04/M04 A3015 650 57 -400 280/05 RMK AO2
14837KMSN MSN20071101010009411/01/07 01:00:31  5-MIN KMSN 010700Z VRB05KT 10SM CLR 04/M04 A3015 650 57 -400 VRB/05 RMK AO2
14837KMSN MSN20071101010509411/01/07 01:05:31  5-MIN KMSN 010705Z 29005KT 10SM CLR 04/M04 A3015 650 57 -400 290/05 RMK AO2
14837KMSN MSN20071101011009411/01/07 01:10:31  5-MIN KMSN 010710Z 29005KT 10SM CLR 04/M04 A3015 650 57 -500 290/05 RMK AO2
14837KMSN MSN20071101011509411/01/07 01:15:31  5-MIN KMSN 010715Z 30006KT 10SM CLR 04/M04 A3015 650 57 -500 300/06 RMK AO2
14837KMSN MSN20071101012009411/01/07 01:20:31  5-MIN KMSN 010720Z 30005KT 10SM CLR 04/M04 A3016 650 57 -500 300/05 RMK AO2
14837KMSN MSN20071101012509411/01/07 01:25:31  5-MIN KMSN 010725Z 29005KT 10SM CLR 04/M04 A3016 650 57 -500 290/05 RMK AO2
14837KMSN MSN20071101013009411/01/07 01:30:31  5-MIN KMSN 010730Z VRB06KT 10SM CLR 04/M04 A3016 650 57 -500 VRB/06 RMK AO2
14837KMSN MSN20071101013509411/01/07 01:35:31  5-MIN KMSN 010735Z 29006KT 10SM CLR 04/M04 A3016 650 57 -500 290/06 RMK AO2
14837KMSN MSN20071101014009411/01/07 01:40:31  5-MIN KMSN 010740Z 29005KT 10SM CLR 04/M04 A3016 640 57 -500 290/05 RMK AO2
14837KMSN MSN20071101014509411/01/07 01:45:31  5-MIN KMSN 010745Z 30006KT 10SM CLR 04/M04 A3016 640 55 -400 300/06 RMK AO2
14837KMSN MSN20071101015011111/01/07 01:50:31  5-MIN KMSN 010750Z 30005KT 10SM CLR 04/M04 A3016 640 57 -500 300/05 RMK AO2 SLP218 T00391039
14837KMSN MSN20071101015509411/01/07 01:55:31  5-MIN KMSN 010755Z 30005KT 10SM CLR 04/M04 A3016 640 57 -500 300/05 RMK AO2
14837KMSN MSN20071101020009411/01/07 02:00:31  5-MIN KMSN 010800Z 29006KT 10SM CLR 04/M04 A3017 640 57 -500 290/06 RMK AO2
14837KMSN MSN20071101020509411/01/07 02:05:31  5-MIN KMSN 010805Z 30004KT 10SM CLR 04/M04 A3017 640 57 -500 300/04 RMK AO2
14837KMSN MSN20071101021009411/01/07 02:10:31  5-MIN KMSN 010810Z 30004KT 10SM CLR 04/M04 A3017 640 57 -500 290/04 RMK AO2
14837KMSN MSN20071101021509411/01/07 02:15:31  5-MIN KMSN 010815Z 30004KT 10SM CLR 04/M04 A3016 640 57 -500 290/04 RMK AO2
14837KMSN MSN20071101022009411/01/07 02:20:31  5-MIN KMSN 010820Z 29006KT 10SM CLR 03/M04 A3016 640 59 -500 290/06 RMK AO2
14837KMSN MSN20071101022509411/01/07 02:25:31  5-MIN KMSN 010825Z 30004KT 10SM CLR 03/M04 A3017 640 59 -500 290/04 RMK AO2
14837KMSN MSN20071101023009411/01/07 02:30:31  5-MIN KMSN 010830Z 30004KT 10SM CLR 03/M04 A3017 640 59 -500 300/04 RMK AO2
14837KMSN MSN20071101023509411/01/07 02:35:31  5-MIN KMSN 010835Z 29005KT 10SM CLR 03/M04 A3017 640 59 -500 290/05 RMK AO2
14837KMSN MSN20071101024009411/01/07 02:40:31  5-MIN KMSN 010840Z 29004KT 10SM CLR 03/M04 A3017 640 59 -500 290/04 RMK AO2
14837KMSN MSN20071101024509411/01/07 02:45:31  5-MIN KMSN 010845Z 28004KT 10SM CLR 03/M04 A3017 640 59 -500 280/04 RMK AO2
14837KMSN MSN20071101025011711/01/07 02:50:31  5-MIN KMSN 010850Z 29005KT 10SM CLR 03/M04 A3017 640 59 -500 280/05 RMK AO2 SLP221 T00331039 51014
14837KMSN MSN20071101025509411/01/07 02:55:31  5-MIN KMSN 010855Z 29004KT 10SM CLR 03/M04 A3017 630 59 -500 290/04 RMK AO2
14837KMSN MSN20071101030009411/01/07 03:00:31  5-MIN KMSN 010900Z 29003KT 10SM CLR 03/M04 A3017 630 61 -600 290/03 RMK AO2
14837KMSN MSN20071101030509411/01/07 03:05:31  5-MIN KMSN 010905Z 28004KT 10SM CLR 03/M04 A3017 630 61 -600 270/04 RMK AO2
14837KMSN MSN20071101031009411/01/07 03:10:31  5-MIN KMSN 010910Z 29003KT 10SM CLR 03/M04 A3017 630 61 -600 290/03 RMK AO2
14837KMSN MSN20071101031509411/01/07 03:15:31  5-MIN KMSN 010915Z 00000KT 10SM CLR 03/M04 A3017 630 61 -600 000/00 RMK AO2
14837KMSN MSN20071101032009411/01/07 03:20:31  5-MIN KMSN 010920Z 00000KT 10SM CLR 03/M04 A3018 630 61 -600 000/00 RMK AO2
14837KMSN MSN20071101032509411/01/07 03:25:31  5-MIN KMSN 010925Z VRB03KT 10SM CLR 03/M04 A3018 630 61 -600 VRB/03 RMK AO2
14837KMSN MSN20071101033009411/01/07 03:30:31  5-MIN KMSN 010930Z 29003KT 10SM CLR 03/M04 A3018 630 61 -600 290/03 RMK AO2
14837KMSN MSN20071101033509411/01/07 03:35:31  5-MIN KMSN 010935Z 29003KT 10SM CLR 03/M04 A3018 620 61 -600 290/03 RMK AO2
14837KMSN MSN20071101034009411/01/07 03:40:31  5-MIN KMSN 010940Z 29003KT 10SM CLR 03/M04 A3018 620 61 -600 290/03 RMK AO2
14837KMSN MSN20071101034509411/01/07 03:45:31  5-MIN KMSN 010945Z 00000KT 10SM CLR 03/M04 A3018 620 61 -600 000/00 RMK AO2
14837KMSN MSN20071101035011111/01/07 03:50:31  5-MIN KMSN 010950Z 00000KT 10SM CLR 03/M04 A3019 620 61 -600 000/00 RMK AO2 SLP227 T00281039
14837KMSN MSN20071101035509411/01/07 03:55:31  5-MIN KMSN 010955Z 00000KT 10SM CLR 02/M04 A3019 620 64 -700 000/00 RMK AO2
14837KMSN MSN20071101040009411/01/07 04:00:31  5-MIN KMSN 011000Z 00000KT 10SM CLR 02/M04 A3019 620 64 -700 000/00 RMK AO2
14837KMSN MSN20071101040509411/01/07 04:05:31  5-MIN KMSN 011005Z 00000KT 10SM CLR 02/M04 A3019 620 64 -700 000/00 RMK AO2
14837KMSN MSN20071101041009411/01/07 04:10:31  5-MIN KMSN 011010Z 00000KT 10SM CLR 02/M04 A3019 620 66 -800 000/00 RMK AO2
14837KMSN MSN20071101041509411/01/07 04:15:31  5-MIN KMSN 011015Z 00000KT 10SM CLR 02/M04 A3019 620 64 -700 000/00 RMK AO2
14837KMSN MSN20071101042009411/01/07 04:20:31  5-MIN KMSN 011020Z 27003KT 10SM CLR 02/M04 A3019 610 66 -800 270/03 RMK AO2
14837KMSN MSN20071101042509411/01/07 04:25:31  5-MIN KMSN 011025Z 28003KT 10SM CLR 01/M04 A3019 610 69 -800 280/03 RMK AO2
14837KMSN MSN20071101043009411/01/07 04:30:31  5-MIN KMSN 011030Z 27003KT 10SM CLR 02/M04 A3019 610 66 -800 270/03 RMK AO2
14837KMSN MSN20071101043509411/01/07 04:35:31  5-MIN KMSN 011035Z 28003KT 10SM CLR 02/M04 A3019 610 64 -700 280/03 RMK AO2
14837KMSN MSN20071101044009411/01/07 04:40:31  5-MIN KMSN 011040Z 28003KT 10SM CLR 02/M04 A3020 610 66 -800 280/03 RMK AO2
14837KMSN MSN20071101044509411/01/07 04:45:31  5-MIN KMSN 011045Z 27003KT 10SM CLR 02/M04 A3020 610 66 -800 270/03 RMK AO2
14837KMSN MSN20071101045011111/01/07 04:50:31  5-MIN KMSN 011050Z 00000KT 10SM CLR 02/M04 A3020 610 66 -800 000/00 RMK AO2 SLP232 T00171039
14837KMSN MSN20071101045509411/01/07 04:55:31  5-MIN KMSN 011055Z 00000KT 10SM CLR 02/M04 A3020 610 66 -800 000/00 RMK AO2
14837KMSN MSN20071101222009411/01/07 22:20:31  5-MIN KMSN 020420Z 18006KT 10SM CLR 06/M04 A3019 610 50 -300 180/06 RMK AO2
14837KMSN MSN20071101222509411/01/07 22:25:31  5-MIN KMSN 020425Z 18006KT 10SM CLR 06/M04 A3019 610 50 -300 180/06 RMK AO2
14837KMSN MSN20071101223009411/01/07 22:30:31  5-MIN KMSN 020430Z 18006KT 10SM CLR 06/M04 A3019 610 50 -300 180/06 RMK AO2
14837KMSN MSN20071101223509411/01/07 22:35:31  5-MIN KMSN 020435Z 18005KT 10SM CLR 06/M04 A3019 610 50 -300 180/05 RMK AO2
14837KMSN MSN20071101224009411/01/07 22:40:31  5-MIN KMSN 020440Z 19004KT 10SM CLR 06/M04 A3019 610 50 -300 190/04 RMK AO2
14837KMSN MSN20071101224509411/01/07 22:45:31  5-MIN KMSN 020445Z 18005KT 10SM CLR 06/M04 A3019 620 50 -300 180/05 RMK AO2
14837KMSN MSN20071101225011111/01/07 22:50:31  5-MIN KMSN 020450Z 19005KT 10SM CLR 05/M04 A3019 620 52 -400 190/05 RMK AO2 SLP229 T00501039
14837KMSN MSN20071101225509411/01/07 22:55:31  5-MIN KMSN 020455Z 19005KT 10SM CLR 06/M04 A3019 620 50 -300 190/05 RMK AO2
14837KMSN MSN20071101230009411/01/07 23:00:31  5-MIN KMSN 020500Z 19005KT 10SM CLR 06/M03 A3019 620 53 -300 190/05 RMK AO2
14837KMSN MSN20071101230509411/01/07 23:05:31  5-MIN KMSN 020505Z 19005KT 10SM CLR 05/M03 A3019 620 55 -400 190/05 RMK AO2
14837KMSN MSN20071101231009411/01/07 23:10:31  5-MIN KMSN 020510Z 19005KT 10SM CLR 06/M03 A3019 620 53 -300 190/05 RMK AO2
14837KMSN MSN20071101231509411/01/07 23:15:31  5-MIN KMSN 020515Z 19005KT 10SM CLR 05/M04 A3019 620 52 -400 180/05 RMK AO2
14837KMSN MSN20071101232009411/01/07 23:20:31  5-MIN KMSN 020520Z 19005KT 10SM CLR 05/M03 A3019 620 55 -400 190/05 RMK AO2
14837KMSN MSN20071101232509411/01/07 23:25:31  5-MIN KMSN 020525Z 19005KT 10SM CLR 05/M03 A3019 620 55 -400 190/05 RMK AO2
14837KMSN MSN20071101233009411/01/07 23:30:31  5-MIN KMSN 020530Z 19004KT 10SM CLR 04/M03 A3019 620 57 -400 180/04 RMK AO2
14837KMSN MSN20071101233509411/01/07 23:35:31  5-MIN KMSN 020535Z 19005KT 10SM CLR 05/M03 A3019 620 55 -400 180/05 RMK AO2
14837KMSN MSN20071101234009411/01/07 23:40:31  5-MIN KMSN 020540Z 18004KT 10SM CLR 04/M03 A3019 620 59 -500 180/04 RMK AO2
14837KMSN MSN20071101234509411/01/07 23:45:31  5-MIN KMSN 020545Z 18005KT 10SM CLR 04/M03 A3019 620 57 -400 180/05 RMK AO2
14837KMSN MSN20071101235013911/01/07 23:50:31  5-MIN KMSN 020550Z 18005KT 10SM CLR 04/M03 A3019 620 59 -500 180/05 RMK AO2 SLP228 T00391033 10078 20039 401170006 58000
14837KMSN MSN20071101235509411/01/07 23:55:31  5-MIN KMSN 020555Z 18005KT 10SM CLR 04/M03 A3019 620 57 -400 180/05 RMK AO2
14837KMSN MSN20071102000009411/02/07 00:00:32  5-MIN KMSN 020600Z 18005KT 10SM CLR 04/M04 A3019 620 55 -400 180/05 RMK AO2
14837KMSN MSN20071102000509411/02/07 00:05:31  5-MIN KMSN 020605Z 18005KT 10SM CLR 04/M04 A3019 620 57 -500 180/05 RMK AO2
14837KMSN MSN20071102001009411/02/07 00:10:31  5-MIN KMSN 020610Z 18005KT 10SM CLR 04/M04 A3019 620 55 -400 180/05 RMK AO2
14837KMSN MSN20071102001509411/02/07 00:15:31  5-MIN KMSN 020615Z 18005KT 10SM CLR 04/M04 A3019 620 57 -500 180/05 RMK AO2
14837KMSN MSN20071102002009411/02/07 00:20:31  5-MIN KMSN 020620Z 18005KT 10SM CLR 04/M04 A3019 620 57 -500 180/05 RMK AO2
14837KMSN MSN20071102002509411/02/07 00:25:31  5-MIN KMSN 020625Z 18005KT 10SM CLR 04/M04 A3019 620 57 -500 180/05 RMK AO2
14837KMSN MSN20071102003009411/02/07 00:30:31  5-MIN KMSN 020630Z 19004KT 10SM CLR 04/M04 A3019 610 55 -400 190/04 RMK AO2
14837KMSN MSN20071102003509411/02/07 00:35:31  5-MIN KMSN 020635Z 19003KT 10SM CLR 04/M04 A3019 620 55 -400 190/03 RMK AO2
14837KMSN MSN20071102004009411/02/07 00:40:31  5-MIN KMSN 020640Z 19004KT 10SM CLR 05/M04 A3019 620 52 -400 190/04 RMK AO2
14837KMSN MSN20071102004509411/02/07 00:45:31  5-MIN KMSN 020645Z 19004KT 10SM CLR 05/M04 A3019 620 52 -400 190/04 RMK AO2
14837KMSN MSN20071102005011111/02/07 00:50:31  5-MIN KMSN 020650Z 20004KT 10SM CLR 04/M04 A3019 620 55 -400 190/04 RMK AO2 SLP228 T00441039
14837KMSN MSN20071102005509411/02/07 00:55:31  5-MIN KMSN 020655Z 20004KT 10SM CLR 05/M04 A3019 620 52 -400 200/04 RMK AO2
14837KMSN MSN20071102010009411/02/07 01:00:31  5-MIN KMSN 020700Z 19006KT 10SM CLR 05/M04 A3019 620 52 -300 190/06 RMK AO2
14837KMSN MSN20071102010509411/02/07 01:05:31  5-MIN KMSN 020705Z 19006KT 10SM CLR 05/M04 A3018 620 52 -300 190/06 RMK AO2
14837KMSN MSN20071102011009411/02/07 01:10:31  5-MIN KMSN 020710Z 20004KT 10SM CLR 05/M04 A3019 620 52 -300 200/04 RMK AO2
14837KMSN MSN20071102011509411/02/07 01:15:31  5-MIN KMSN 020715Z 20003KT 10SM CLR 05/M04 A3019 620 50 -300 200/03 RMK AO2
14837KMSN MSN20071102012009411/02/07 01:20:31  5-MIN KMSN 020720Z 20004KT 10SM CLR 05/M04 A3019 620 50 -400 200/04 RMK AO2
14837KMSN MSN20071102012509411/02/07 01:25:31  5-MIN KMSN 020725Z 20004KT 10SM CLR 05/M04 A3019 620 50 -400 200/04 RMK AO2
14837KMSN MSN20071102013009411/02/07 01:30:31  5-MIN KMSN 020730Z 20004KT 10SM CLR 05/M04 A3019 620 50 -400 200/04 RMK AO2
14837KMSN MSN20071102013509411/02/07 01:35:31  5-MIN KMSN 020735Z 19005KT 10SM CLR 05/M04 A3019 620 50 -400 190/05 RMK AO2
14837KMSN MSN20071102014009411/02/07 01:40:31  5-MIN KMSN 020740Z 19006KT 10SM CLR 05/M04 A3019 620 50 -400 190/06 RMK AO2
14837KMSN MSN20071102014509411/02/07 01:45:31  5-MIN KMSN 020745Z 19005KT 10SM CLR 05/M04 A3018 620 50 -300 190/05 RMK AO2
14837KMSN MSN20071102015011111/02/07 01:50:31  5-MIN KMSN 020750Z 19006KT 10SM CLR 04/M04 A3018 620 52 -400 190/06 RMK AO2 SLP226 T00441044
14837KMSN MSN20071102015509411/02/07 01:55:31  5-MIN KMSN 020755Z 19005KT 10SM CLR 04/M04 A3018 620 54 -500 180/05 RMK AO2
14837KMSN MSN20071102020009411/02/07 02:00:31  5-MIN KMSN 020800Z 19006KT 10SM CLR 04/M04 A3018 620 55 -400 190/06 RMK AO2
14837KMSN MSN20071102020509411/02/07 02:05:31  5-MIN KMSN 020805Z 19006KT 10SM CLR 04/M04 A3018 620 52 -400 190/06 RMK AO2
14837KMSN MSN20071102021009411/02/07 02:10:31  5-MIN KMSN 020810Z 19005KT 10SM CLR 04/M04 A3018 620 52 -400 190/05 RMK AO2
14837KMSN MSN20071102021509411/02/07 02:15:31  5-MIN KMSN 020815Z 00000KT 10SM CLR 03/M04 A3018 620 57 -600 000/00 RMK AO2
14837KMSN MSN20071102022009411/02/07 02:20:31  5-MIN KMSN 020820Z 00000KT 10SM CLR 02/M04 A3018 620 61 -700 000/00 RMK AO2
14837KMSN MSN20071102022509411/02/07 02:25:31  5-MIN KMSN 020825Z 00000KT 10SM CLR 03/M04 A3018 620 57 -600 000/00 RMK AO2
14837KMSN MSN20071102023009411/02/07 02:30:31  5-MIN KMSN 020830Z 00000KT 10SM CLR 03/M04 A3018 620 57 -600 000/00 RMK AO2
14837KMSN MSN20071102023509411/02/07 02:35:31  5-MIN KMSN 020835Z 00000KT 10SM CLR 04/M04 A3018 620 54 -500 000/00 RMK AO2
14837KMSN MSN20071102024009411/02/07 02:40:31  5-MIN KMSN 020840Z 21003KT 10SM CLR 04/M04 A3018 620 54 -500 210/03 RMK AO2
14837KMSN MSN20071102024509411/02/07 02:45:31  5-MIN KMSN 020845Z 00000KT 10SM CLR 04/M04 A3018 620 54 -500 000/00 RMK AO2
14837KMSN MSN20071102025011711/02/07 02:50:31  5-MIN KMSN 020850Z 21003KT 10SM CLR 04/M04 A3018 620 54 -500 210/03 RMK AO2 SLP226 T00391044 56004
14837KMSN MSN20071102025509411/02/07 02:55:31  5-MIN KMSN 020855Z 20004KT 10SM CLR 04/M04 A3018 620 54 -500 200/04 RMK AO2
14837KMSN MSN20071102030009411/02/07 03:00:31  5-MIN KMSN 020900Z 19004KT 10SM CLR 04/M04 A3018 620 54 -500 190/04 RMK AO2
14837KMSN MSN20071102030509411/02/07 03:05:31  5-MIN KMSN 020905Z 21003KT 10SM CLR 04/M04 A3018 620 54 -500 210/03 RMK AO2
14837KMSN MSN20071102031009411/02/07 03:10:31  5-MIN KMSN 020910Z 00000KT 10SM CLR 03/M04 A3018 620 59 -600 000/00 RMK AO2
14837KMSN MSN20071102031509411/02/07 03:15:31  5-MIN KMSN 020915Z 17003KT 10SM CLR 02/M04 A3018 620 61 -700 170/03 RMK AO2
14837KMSN MSN20071102032009411/02/07 03:20:31  5-MIN KMSN 020920Z 00000KT 10SM CLR 02/M04 A3018 630 64 -800 000/00 RMK AO2
14837KMSN MSN20071102032509411/02/07 03:25:31  5-MIN KMSN 020925Z 00000KT 10SM CLR 01/M04 A3018 620 66 -800 000/00 RMK AO2
14837KMSN MSN20071102033009411/02/07 03:30:31  5-MIN KMSN 020930Z 00000KT 10SM CLR 02/M04 A3018 620 61 -700 000/00 RMK AO2
14837KMSN MSN20071102033509411/02/07 03:35:31  5-MIN KMSN 020935Z 00000KT 10SM CLR 03/M04 A3018 620 59 -600 000/00 RMK AO2
14837KMSN MSN20071102034009411/02/07 03:40:31  5-MIN KMSN 020940Z 00000KT 10SM CLR 03/M04 A3018 620 59 -600 000/00 RMK AO2
14837KMSN MSN20071102034509411/02/07 03:45:31  5-MIN KMSN 020945Z 00000KT 10SM CLR 03/M04 A3018 620 57 -500 000/00 RMK AO2
14837KMSN MSN20071102035011111/02/07 03:50:31  5-MIN KMSN 020950Z 00000KT 10SM CLR 03/M04 A3018 620 57 -600 000/00 RMK AO2 SLP226 T00331044
14837KMSN MSN20071102035509411/02/07 03:55:31  5-MIN KMSN 020955Z 00000KT 10SM CLR 03/M04 A3018 620 59 -600 000/00 RMK AO2
14837KMSN MSN20071102040009411/02/07 04:00:31  5-MIN KMSN 021000Z 00000KT 10SM CLR 02/M04 A3018 620 61 -700 000/00 RMK AO2
14837KMSN MSN20071102040509411/02/07 04:05:31  5-MIN KMSN 021005Z 00000KT 10SM CLR 02/M04 A3018 620 61 -700 000/00 RMK AO2
14837KMSN MSN20071102041009411/02/07 04:10:31  5-MIN KMSN 021010Z 25004KT 10SM CLR 02/M04 A3019 620 61 -700 250/04 RMK AO2
14837KMSN MSN20071102041509411/02/07 04:15:31  5-MIN KMSN 021015Z 23005KT 10SM CLR 02/M04 A3019 620 61 -700 230/05 RMK AO2
14837KMSN MSN20071102042009411/02/07 04:20:31  5-MIN KMSN 021020Z 21005KT 10SM CLR 04/M05 A3019 620 52 -500 210/05 RMK AO2
14837KMSN MSN20071102042509411/02/07 04:25:31  5-MIN KMSN 021025Z 22004KT 10SM CLR 04/M05 A3019 620 52 -500 220/04 RMK AO2
14837KMSN MSN20071102043009411/02/07 04:30:31  5-MIN KMSN 021030Z 21005KT 10SM CLR 04/M05 A3019 620 52 -500 210/05 RMK AO2
14837KMSN MSN20071102043509411/02/07 04:35:31  5-MIN KMSN 021035Z 21004KT 10SM CLR 04/M04 A3019 620 54 -500 210/04 RMK AO2
14837KMSN MSN20071102044009411/02/07 04:40:31  5-MIN KMSN 021040Z 00000KT 10SM CLR 04/M04 A3018 620 54 -500 000/00 RMK AO2
14837KMSN MSN20071102044509411/02/07 04:45:31  5-MIN KMSN 021045Z 21004KT 10SM CLR 04/M04 A3018 630 54 -500 210/04 RMK AO2
14837KMSN MSN20071102045011111/02/07 04:50:31  5-MIN KMSN 021050Z 20005KT 10SM CLR 04/M04 A3018 630 54 -500 200/05 RMK AO2 SLP225 T00391044
14837KMSN MSN20071102045509411/02/07 04:55:31  5-MIN KMSN 021055Z 21004KT 10SM CLR 04/M04 A3018 630 54 -500 210/04 RMK AO2
14837KMSN MSN20071102050009411/02/07 05:00:31  5-MIN KMSN 021100Z 20005KT 10SM CLR 03/M04 A3018 630 57 -500 200/05 RMK AO2
14837KMSN MSN20071102050509411/02/07 05:05:31  5-MIN KMSN 021105Z 21004KT 10SM CLR 03/M04 A3018 620 59 -500 210/04 RMK AO2
14837KMSN MSN20071102051009411/02/07 05:10:31  5-MIN KMSN 021110Z 20004KT 10SM CLR 03/M04 A3018 630 59 -500 200/04 RMK AO2
14837KMSN MSN20071102051509411/02/07 05:15:31  5-MIN KMSN 021115Z 20006KT 10SM CLR 04/M04 A3018 630 57 -500 200/06 RMK AO2
14837KMSN MSN20071102052009411/02/07 05:20:31  5-MIN KMSN 021120Z 19008KT 10SM CLR 04/M04 A3018 620 57 -500 190/08 RMK AO2
14837KMSN MSN20071102052509411/02/07 05:25:31  5-MIN KMSN 021125Z 19008KT 10SM CLR 04/M04 A3018 620 57 -500 190/08 RMK AO2
14837KMSN MSN20071102053009411/02/07 05:30:31  5-MIN KMSN 021130Z 18008KT 10SM CLR 04/M04 A3018 630 57 -500 180/08 RMK AO2
14837KMSN MSN20071102053509411/02/07 05:35:31  5-MIN KMSN 021135Z 18010KT 10SM CLR 03/M04 A3018 630 59 -500 180/10 RMK AO2
14837KMSN MSN20071102054009411/02/07 05:40:31  5-MIN KMSN 021140Z 19009KT 10SM CLR 03/M04 A3018 630 59 -500 190/09 RMK AO2
14837KMSN MSN20071102054509411/02/07 05:45:31  5-MIN KMSN 021145Z 19009KT 10SM CLR 03/M04 A3018 620 59 -600 190/09 RMK AO2
14837KMSN MSN20071102055012911/02/07 05:50:31  5-MIN KMSN 021150Z 19009KT 10SM CLR 03/M04 A3019 620 59 -600 190/09 RMK AO2 SLP228 T00331039 10050 20011 55001
14837KMSN MSN20071102055509411/02/07 05:55:31  5-MIN KMSN 021155Z 20006KT 10SM CLR 03/M04 A3019 620 59 -600 200/06 RMK AO2
14837KMSN MSN20071102060009411/02/07 06:00:31  5-MIN KMSN 021200Z 20004KT 10SM CLR 03/M04 A3019 620 59 -600 200/04 RMK AO2
14837KMSN MSN20071102060509411/02/07 06:05:31  5-MIN KMSN 021205Z 22004KT 10SM CLR 03/M04 A3019 620 59 -600 220/04 RMK AO2
14837KMSN MSN20071102061009411/02/07 06:10:31  5-MIN KMSN 021210Z 20004KT 10SM CLR 03/M04 A3018 620 61 -600 200/04 RMK AO2
14837KMSN MSN20071102061509411/02/07 06:15:31  5-MIN KMSN 021215Z 20006KT 10SM CLR 03/M04 A3019 620 59 -600 200/06 RMK AO2
14837KMSN MSN20071102062009411/02/07 06:20:31  5-MIN KMSN 021220Z 19008KT 10SM CLR 03/M04 A3018 620 59 -600 190/08 RMK AO2
14837KMSN MSN20071102062509411/02/07 06:25:31  5-MIN KMSN 021225Z 19009KT 10SM CLR 03/M04 A3018 620 59 -500 190/09 RMK AO2
14837KMSN MSN20071102063009411/02/07 06:30:31  5-MIN KMSN 021230Z 18009KT 10SM CLR 03/M04 A3018 630 59 -500 180/09 RMK AO2
14837KMSN MSN20071102063509311/02/07 06:35:31  5-MIN KMSN 021235Z 18008KT 9SM CLR 03/M04 A3018 630 61 -600 180/08 RMK AO2
14837KMSN MSN20071102064009311/02/07 06:40:31  5-MIN KMSN 021240Z 18008KT 9SM CLR 03/M04 A3018 630 61 -600 180/08 RMK AO2
14837KMSN MSN20071102064509411/02/07 06:45:31  5-MIN KMSN 021245Z 18008KT 10SM CLR 03/M04 A3018 620 61 -600 180/08 RMK AO2
14837KMSN MSN20071102065011111/02/07 06:50:31  5-MIN KMSN 021250Z 19008KT 10SM CLR 03/M04 A3018 620 59 -600 190/08 RMK AO2 SLP228 T00331039
14837KMSN MSN20071102065509311/02/07 06:55:31  5-MIN KMSN 021255Z 19008KT 9SM CLR 03/M04 A3018 620 59 -600 190/08 RMK AO2
14837KMSN MSN20071102070009311/02/07 07:00:31  5-MIN KMSN 021300Z 19009KT 9SM CLR 03/M04 A3019 620 59 -600 190/09 RMK AO2
14837KMSN MSN20071102070509311/02/07 07:05:31  5-MIN KMSN 021305Z 19009KT 9SM CLR 04/M04 A3019 620 57 -500 190/09 RMK AO2
14837KMSN MSN20071102071009311/02/07 07:10:31  5-MIN KMSN 021310Z 19008KT 9SM CLR 04/M04 A3019 620 57 -500 190/08 RMK AO2
14837KMSN MSN20071102071509311/02/07 07:15:31  5-MIN KMSN 021315Z 19008KT 9SM CLR 04/M04 A3019 620 57 -500 190/08 RMK AO2
14837KMSN MSN20071102072009311/02/07 07:20:31  5-MIN KMSN 021320Z 19007KT 9SM CLR 04/M04 A3019 620 57 -500 190/07 RMK AO2
14837KMSN MSN20071102072509311/02/07 07:25:31  5-MIN KMSN 021325Z 19008KT 9SM CLR 04/M04 A3019 620 57 -500 190/08 RMK AO2
14837KMSN MSN20071102073009311/02/07 07:30:31  5-MIN KMSN 021330Z 19008KT 9SM CLR 04/M04 A3019 620 57 -500 190/08 RMK AO2
14837KMSN MSN20071102073509311/02/07 07:35:31  5-MIN KMSN 021335Z 19009KT 9SM CLR 04/M04 A3019 620 55 -400 190/09 RMK AO2
14837KMSN MSN20071102074009311/02/07 07:40:31  5-MIN KMSN 021340Z 19009KT 9SM CLR 04/M04 A3019 620 55 -400 190/09 RMK AO2
14837KMSN MSN20071102074509311/02/07 07:45:31  5-MIN KMSN 021345Z 19010KT 9SM CLR 04/M04 A3019 620 55 -400 190/10 RMK AO2
14837KMSN MSN20071102075011411/02/07 07:50:31  5-MIN KMSN 021350Z 19009KT 10SM FEW120 04/M04 A3019 620 55 -400 190/09 RMK AO2 SLP229 T00441039
14837KMSN MSN20071102075509311/02/07 07:55:31  5-MIN KMSN 021355Z 19007KT 9SM CLR 04/M04 A3019 620 55 -400 190/07 RMK AO2
14837KMSN MSN20071102080009311/02/07 08:00:31  5-MIN KMSN 021400Z 19008KT 9SM CLR 04/M04 A3019 620 55 -400 190/08 RMK AO2
14837KMSN MSN20071102080509311/02/07 08:05:31  5-MIN KMSN 021405Z 19006KT 9SM CLR 05/M04 A3019 610 52 -400 190/06 RMK AO2
14837KMSN MSN20071102081009311/02/07 08:10:31  5-MIN KMSN 021410Z 19007KT 9SM CLR 05/M03 A3019 610 55 -400 190/07 RMK AO2
14837KMSN MSN20071102081509311/02/07 08:15:31  5-MIN KMSN 021415Z 19006KT 9SM CLR 06/M03 A3019 620 53 -300 190/06 RMK AO2
14837KMSN MSN20071102082009311/02/07 08:20:31  5-MIN KMSN 021420Z 19009KT 9SM CLR 06/M03 A3019 620 53 -300 190/09 RMK AO2
14837KMSN MSN20071102082509311/02/07 08:25:31  5-MIN KMSN 021425Z 19008KT 9SM CLR 06/M03 A3019 610 53 -300 190/08 RMK AO2
14837KMSN MSN20071102083009311/02/07 08:30:31  5-MIN KMSN 021430Z 19008KT 9SM CLR 06/M03 A3020 610 53 -300 190/08 RMK AO2
14837KMSN MSN20071102083509311/02/07 08:35:31  5-MIN KMSN 021435Z 19006KT 9SM CLR 06/M03 A3020 610 51 -200 190/06 RMK AO2
14837KMSN MSN20071102084009411/02/07 08:40:31  5-MIN KMSN 021440Z 19008KT 10SM CLR 06/M03 A3020 610 51 -200 190/08 RMK AO2
14837KMSN MSN20071102084509311/02/07 08:45:31  5-MIN KMSN 021445Z 19007KT 9SM CLR 07/M03 A3020 610 49 -200 190/07 RMK AO2
14837KMSN MSN20071102085012011/02/07 08:50:31  5-MIN KMSN 021450Z 19006KT 10SM FEW120 07/M03 A3020 610 49 -200 190/06 RMK AO2 SLP232 T00671033 53001
14837KMSN MSN20071102085509411/02/07 08:55:31  5-MIN KMSN 021455Z 19006KT 10SM CLR 07/M03 A3020 610 49 -200 190/06 RMK AO2
14837KMSN MSN20071102090009311/02/07 09:00:31  5-MIN KMSN 021500Z 19009KT 9SM CLR 07/M03 A3020 610 47 -100 190/09 RMK AO2
14837KMSN MSN20071102090509311/02/07 09:05:31  5-MIN KMSN 021505Z 20006KT 9SM CLR 07/M03 A3020 610 47 -100 200/06 RMK AO2
14837KMSN MSN20071102091009011/02/07 09:10:31  5-MIN KMSN 021510Z 19007KT 9SM CLR 08/M03 A3020 610 45 0 190/07 RMK AO2
14837KMSN MSN20071102091509011/02/07 09:15:31  5-MIN KMSN 021515Z 18009KT 9SM CLR 08/M03 A3019 620 45 0 180/09 RMK AO2
14837KMSN MSN20071102092009011/02/07 09:20:31  5-MIN KMSN 021520Z 19009KT 9SM CLR 08/M03 A3019 620 45 0 190/09 RMK AO2
14837KMSN MSN20071102092509311/02/07 09:25:31  5-MIN KMSN 021525Z 19009KT 9SM FEW110 08/M03 A3018 620 43 0 190/09 RMK AO2
14837KMSN MSN20071102093009911/02/07 09:30:31  5-MIN KMSN 021530Z 20013G19KT 8SM SCT110 08/M03 A3018 620 43 0 190/13G19 RMK AO2
14837KMSN MSN20071102093510111/02/07 09:35:31  5-MIN KMSN 021535Z 20010G19KT 8SM SCT110 09/M03 A3019 620 43 100 200/10G19 RMK AO2
14837KMSN MSN20071102094010111/02/07 09:40:31  5-MIN KMSN 021540Z 20011G16KT 9SM FEW120 09/M03 A3018 620 42 100 200/11G16 RMK AO2
14837KMSN MSN20071102094510111/02/07 09:45:31  5-MIN KMSN 021545Z 20012G18KT 8SM SCT120 09/M03 A3018 620 40 100 200/12G18 RMK AO2
14837KMSN MSN20071102095011811/02/07 09:50:31  5-MIN KMSN 021550Z 21012G21KT 8SM SCT120 09/M04 A3019 620 40 100 210/12G21 RMK AO2 SLP228 T00891039
14837KMSN MSN20071102095510111/02/07 09:55:31  5-MIN KMSN 021555Z 20010G21KT 8SM SCT120 09/M03 A3019 620 40 100 200/10G21 RMK AO2
14837KMSN MSN20071102100010111/02/07 10:00:31  5-MIN KMSN 021600Z 21009G18KT 9SM FEW110 09/M03 A3019 620 42 100 200/09G18 RMK AO2
14837KMSN MSN20071102100510111/02/07 10:05:31  5-MIN KMSN 021605Z 21008G15KT 9SM FEW110 09/M03 A3019 610 42 100 210/08G15 RMK AO2
14837KMSN MSN20071102101010111/02/07 10:10:31  5-MIN KMSN 021610Z 22008G15KT 9SM FEW110 09/M03 A3019 610 42 100 220/08G15 RMK AO2
14837KMSN MSN20071102101510111/02/07 10:15:31  5-MIN KMSN 021615Z 22009G16KT 9SM FEW110 09/M03 A3020 610 42 100 220/09G16 RMK AO2
14837KMSN MSN20071102102010111/02/07 10:20:31  5-MIN KMSN 021620Z 21012G18KT 9SM FEW110 09/M03 A3019 610 43 100 210/12G18 RMK AO2
14837KMSN MSN20071102102510111/02/07 10:25:31  5-MIN KMSN 021625Z 21008G18KT 9SM FEW120 09/M03 A3019 620 42 100 210/08G18 RMK AO2
14837KMSN MSN20071102103011711/02/07 10:30:31  5-MIN KMSN 021630Z 22011G17KT 180V240 9SM FEW095 09/M03 A3018 620 42 100 220/11G17 180V240 RMK AO2
14837KMSN MSN20071102103510111/02/07 10:35:31  5-MIN KMSN 021635Z 20012G18KT 9SM FEW100 09/M03 A3018 630 40 100 200/12G18 RMK AO2
14837KMSN MSN20071102104010111/02/07 10:40:31  5-MIN KMSN 021640Z 20011G18KT 8SM FEW100 10/M03 A3018 630 39 200 190/11G18 RMK AO2
14837KMSN MSN20071102104510111/02/07 10:45:31  5-MIN KMSN 021645Z 20009G17KT 8SM FEW100 09/M03 A3018 630 40 200 200/09G17 RMK AO2
14837KMSN MSN20071102105011911/02/07 10:50:31  5-MIN KMSN 021650Z 20011G17KT 10SM BKN095 09/M03 A3017 630 40 200 200/11G17 RMK AO2 SLP223 T00941033
14837KMSN MSN20071102105510111/02/07 10:55:31  5-MIN KMSN 021655Z 22008G15KT 9SM FEW100 09/M03 A3017 630 40 200 220/08G15 RMK AO2
14837KMSN MSN20071102110009811/02/07 11:00:31  5-MIN KMSN 021700Z 22011G19KT 9SM CLR 09/M03 A3017 630 40 200 220/11G19 RMK AO2
14837KMSN MSN20071102110509811/02/07 11:05:31  5-MIN KMSN 021705Z 21009G19KT 9SM CLR 10/M04 A3016 640 37 200 210/09G19 RMK AO2
14837KMSN MSN20071102111010111/02/07 11:10:31  5-MIN KMSN 021710Z 20008G18KT 9SM SCT095 11/M04 A3016 640 36 300 200/08G18 RMK AO2
14837KMSN MSN20071102111510111/02/07 11:15:31  5-MIN KMSN 021715Z 21010G16KT 9SM SCT095 11/M04 A3016 650 36 300 210/10G16 RMK AO2
14837KMSN MSN20071102112010111/02/07 11:20:31  5-MIN KMSN 021720Z 21010G19KT 9SM FEW120 11/M04 A3015 650 36 300 210/10G19 RMK AO2
14837KMSN MSN20071102112510111/02/07 11:25:31  5-MIN KMSN 021725Z 21012G19KT 8SM FEW120 11/M04 A3015 650 36 300 210/12G19 RMK AO2
14837KMSN MSN20071102113010111/02/07 11:30:31  5-MIN KMSN 021730Z 22009G19KT 8SM FEW120 11/M04 A3015 660 36 300 220/09G19 RMK AO2
14837KMSN MSN20071102113510111/02/07 11:35:31  5-MIN KMSN 021735Z 21012G20KT 9SM FEW120 11/M04 A3015 650 34 300 210/12G20 RMK AO2
14837KMSN MSN20071102114010111/02/07 11:40:31  5-MIN KMSN 021740Z 23009G20KT 9SM FEW120 11/M04 A3015 650 36 300 230/09G20 RMK AO2
14837KMSN MSN20071102114509811/02/07 11:45:31  5-MIN KMSN 021745Z 21011G20KT 9SM CLR 11/M03 A3015 650 36 400 210/11G20 RMK AO2
14837KMSN MSN20071102115013311/02/07 11:50:31  5-MIN KMSN 021750Z 22012G20KT 9SM CLR 11/M04 A3015 650 34 400 220/12G20 RMK AO2 SLP214 T01111039 10111 20028 53003
14837KMSN MSN20071102115509811/02/07 11:55:31  5-MIN KMSN 021755Z 21009G20KT 9SM CLR 11/M04 A3014 660 34 400 210/09G20 RMK AO2
14837KMSN MSN20071102120009811/02/07 12:00:31  5-MIN KMSN 021800Z 21012G20KT 8SM CLR 11/M04 A3014 660 33 400 210/12G20 RMK AO2
14837KMSN MSN20071102120509811/02/07 12:05:31  5-MIN KMSN 021805Z 21011G20KT 8SM CLR 11/M04 A3014 660 33 400 210/11G20 RMK AO2
14837KMSN MSN20071102121009811/02/07 12:10:31  5-MIN KMSN 021810Z 21011G18KT 7SM CLR 11/M04 A3014 660 34 400 200/11G18 RMK AO2
14837KMSN MSN20071102121510111/02/07 12:15:31  5-MIN KMSN 021815Z 20013G19KT 8SM FEW095 12/M04 A3014 660 33 500 200/13G19 RMK AO2
14837KMSN MSN20071102122010111/02/07 12:20:31  5-MIN KMSN 021820Z 22011G19KT 8SM SCT090 11/M04 A3014 660 34 400 220/11G19 RMK AO2
14837KMSN MSN20071102122509511/02/07 12:25:31  5-MIN KMSN 021825Z 22009KT 9SM FEW090 11/M04 A3014 670 34 400 220/09 RMK AO2
14837KMSN MSN20071102123010111/02/07 12:30:31  5-MIN KMSN 021830Z 21009G16KT 9SM FEW090 12/M03 A3013 670 35 500 210/09G16 RMK AO2
14837KMSN MSN20071102123510111/02/07 12:35:31  5-MIN KMSN 021835Z 21009G19KT 9SM FEW095 12/M04 A3014 670 33 500 210/09G19 RMK AO2
14837KMSN MSN20071102124010111/02/07 12:40:31  5-MIN KMSN 021840Z 20012G19KT 9SM FEW095 12/M04 A3013 670 33 500 200/12G19 RMK AO2
14837KMSN MSN20071102124510111/02/07 12:45:31  5-MIN KMSN 021845Z 22007G17KT 9SM FEW090 13/M03 A3013 670 32 600 220/07G17 RMK AO2
14837KMSN MSN20071102125011511/02/07 12:50:31  5-MIN KMSN 021850Z 20012G18KT 8SM CLR 13/M03 A3013 670 32 600 200/12G18 RMK AO2 SLP206 T01281033
14837KMSN MSN20071102125509811/02/07 12:55:31  5-MIN KMSN 021855Z 23011G20KT 8SM CLR 12/M04 A3013 670 32 500 230/11G20 RMK AO2
14837KMSN MSN20071102130011411/02/07 13:00:31  5-MIN KMSN 021900Z 24011G20KT 200V260 9SM CLR 13/M04 A3012 680 30 600 230/11G20 200V260 RMK AO2
14837KMSN MSN20071102130509811/02/07 13:05:31  5-MIN KMSN 021905Z 23010G18KT 9SM CLR 13/M04 A3012 680 31 600 230/10G18 RMK AO2
14837KMSN MSN20071102131009811/02/07 13:10:31  5-MIN KMSN 021910Z 22009G16KT 9SM CLR 13/M03 A3012 680 32 600 220/09G16 RMK AO2
14837KMSN MSN20071102131509811/02/07 13:15:31  5-MIN KMSN 021915Z 22013G19KT 9SM CLR 13/M04 A3012 680 31 600 220/13G19 RMK AO2
14837KMSN MSN20071102132009811/02/07 13:20:31  5-MIN KMSN 021920Z 22011G19KT 8SM CLR 13/M04 A3012 680 31 600 220/11G19 RMK AO2
14837KMSN MSN20071102132509811/02/07 13:25:31  5-MIN KMSN 021925Z 22012G19KT 8SM CLR 12/M04 A3012 680 32 600 220/12G19 RMK AO2
14837KMSN MSN20071102133010111/02/07 13:30:31  5-MIN KMSN 021930Z 23014G21KT 8SM FEW100 12/M04 A3012 680 32 600 220/14G21 RMK AO2
14837KMSN MSN20071102133510111/02/07 13:35:31  5-MIN KMSN 021935Z 23012G21KT 8SM SCT100 12/M04 A3012 680 32 600 230/12G21 RMK AO2
14837KMSN MSN20071102134010111/02/07 13:40:31  5-MIN KMSN 021940Z 23010G17KT 8SM BKN095 12/M04 A3011 690 32 600 230/10G17 RMK AO2
14837KMSN MSN20071102134511111/02/07 13:45:31  5-MIN KMSN 021945Z 23008KT 200V260 8SM BKN095 12/M04 A3011 690 32 600 230/08 200V260 RMK AO2
14837KMSN MSN20071102135012811/02/07 13:50:31  5-MIN KMSN 021950Z 22008KT 200V260 8SM SCT095 13/M03 A3011 690 32 600 220/08 200V260 RMK AO2 SLP200 T01281033
14837KMSN MSN20071102135509511/02/07 13:55:31  5-MIN KMSN 021955Z 23009KT 8SM SCT095 13/M03 A3011 690 32 600 230/09 RMK AO2
14837KMSN MSN20071102140009511/02/07 14:00:31  5-MIN KMSN 022000Z 23006KT 9SM FEW095 13/M03 A3011 690 32 700 220/06 RMK AO2
14837KMSN MSN20071102140510111/02/07 14:05:31  5-MIN KMSN 022005Z 20010G15KT 9SM FEW095 13/M03 A3010 700 31 700 200/10G15 RMK AO2
14837KMSN MSN20071102141009811/02/07 14:10:31  5-MIN KMSN 022010Z 21009G19KT 9SM CLR 13/M03 A3010 700 31 700 210/09G19 RMK AO2
14837KMSN MSN20071102141509811/02/07 14:15:31  5-MIN KMSN 022015Z 22008G19KT 8SM CLR 13/M03 A3010 700 31 700 220/08G19 RMK AO2
14837KMSN MSN20071102142009211/02/07 14:20:31  5-MIN KMSN 022020Z 24008KT 7SM CLR 13/M03 A3011 690 31 700 240/08 RMK AO2
14837KMSN MSN20071102142509811/02/07 14:25:31  5-MIN KMSN 022025Z 21011G19KT 8SM CLR 13/M04 A3010 690 30 700 210/11G19 RMK AO2
14837KMSN MSN20071102143009811/02/07 14:30:31  5-MIN KMSN 022030Z 21010G19KT 8SM CLR 13/M03 A3010 700 31 700 210/10G19 RMK AO2
14837KMSN MSN20071102143509811/02/07 14:35:31  5-MIN KMSN 022035Z 22006G18KT 9SM CLR 13/M03 A3010 690 31 700 220/06G18 RMK AO2
14837KMSN MSN20071102144011711/02/07 14:40:31  5-MIN KMSN 022040Z 23008G19KT 190V250 9SM FEW100 13/M04 A3010 700 30 700 230/08G19 190V250 RMK AO2
14837KMSN MSN20071102144510211/02/07 14:45:31  5-MIN KMSN 022045Z 22008G19KT 10SM FEW100 13/M04 A3010 700 30 700 220/08G19 RMK AO2
14837KMSN MSN20071102145012511/02/07 14:50:31  5-MIN KMSN 022050Z 22012G17KT 10SM FEW100 13/M04 A3010 700 30 700 220/12G17 RMK AO2 SLP197 T01331039 58018
14837KMSN MSN20071102145509911/02/07 14:55:31  5-MIN KMSN 022055Z 22010G17KT 10SM CLR 13/M04 A3010 700 30 700 220/10G17 RMK AO2
14837KMSN MSN20071102150009311/02/07 15:00:31  5-MIN KMSN 022100Z 23010KT 10SM CLR 13/M04 A3010 700 30 700 220/10 RMK AO2
14837KMSN MSN20071102150509311/02/07 15:05:31  5-MIN KMSN 022105Z 22009KT 10SM CLR 13/M03 A3010 700 31 700 220/09 RMK AO2
14837KMSN MSN20071102151009911/02/07 15:10:31  5-MIN KMSN 022110Z 22011G17KT 10SM CLR 13/M03 A3011 690 31 700 220/11G17 RMK AO2
14837KMSN MSN20071102151509911/02/07 15:15:31  5-MIN KMSN 022115Z 24009G17KT 10SM CLR 13/M03 A3010 700 31 700 240/09G17 RMK AO2
14837KMSN MSN20071102152009311/02/07 15:20:31  5-MIN KMSN 022120Z 22009KT 10SM CLR 13/M03 A3010 700 32 700 220/09 RMK AO2
14837KMSN MSN20071102152509911/02/07 15:25:31  5-MIN KMSN 022125Z 22011G18KT 10SM CLR 13/M03 A3010 700 31 700 220/11G18 RMK AO2
14837KMSN MSN20071102153009811/02/07 15:30:31  5-MIN KMSN 022130Z 23007G18KT 9SM CLR 13/M03 A3010 700 31 700 230/07G18 RMK AO2
14837KMSN MSN20071102153509811/02/07 15:35:31  5-MIN KMSN 022135Z 22010G14KT 9SM CLR 13/M03 A3010 700 31 700 220/10G14 RMK AO2
14837KMSN MSN20071102154009311/02/07 15:40:31  5-MIN KMSN 022140Z 23008KT 10SM CLR 13/M03 A3010 700 31 700 230/08 RMK AO2
14837KMSN MSN20071102154509911/02/07 15:45:31  5-MIN KMSN 022145Z 22009G15KT 10SM CLR 13/M03 A3010 700 31 700 220/09G15 RMK AO2
14837KMSN MSN20071102155011811/02/07 15:50:31  5-MIN KMSN 022150Z 23008G15KT 9SM FEW110 13/M03 A3010 700 31 700 220/08G15 RMK AO2 SLP198 T01331033
14837KMSN MSN20071102155509511/02/07 15:55:31  5-MIN KMSN 022155Z 24007KT 9SM FEW110 13/M03 A3010 700 32 600 240/07 RMK AO2
14837KMSN MSN20071102160010211/02/07 16:00:31  5-MIN KMSN 022200Z 24010G16KT 10SM FEW110 13/M03 A3011 690 33 600 240/10G16 RMK AO2
14837KMSN MSN20071102160510211/02/07 16:05:31  5-MIN KMSN 022205Z 23008G16KT 10SM FEW110 13/M03 A3011 690 33 600 230/08G16 RMK AO2
14837KMSN MSN20071102161010211/02/07 16:10:31  5-MIN KMSN 022210Z 24008G18KT 10SM FEW110 13/M03 A3011 690 33 600 240/08G18 RMK AO2
14837KMSN MSN20071102161510111/02/07 16:15:31  5-MIN KMSN 022215Z 23008G16KT 9SM FEW110 13/M03 A3011 690 33 600 230/08G16 RMK AO2
14837KMSN MSN20071102162009511/02/07 16:20:31  5-MIN KMSN 022220Z VRB06KT 9SM FEW110 12/M02 A3011 690 36 600 VRB/06 RMK AO2
14837KMSN MSN20071102162509611/02/07 16:25:31  5-MIN KMSN 022225Z 24007KT 10SM FEW110 12/M02 A3011 690 36 600 240/07 RMK AO2
14837KMSN MSN20071102163009511/02/07 16:30:31  5-MIN KMSN 022230Z VRB06KT 9SM FEW110 12/M02 A3011 690 38 600 VRB/06 RMK AO2
14837KMSN MSN20071102163509511/02/07 16:35:31  5-MIN KMSN 022235Z 23005KT 9SM FEW110 12/M02 A3011 690 38 600 230/05 RMK AO2
14837KMSN MSN20071102164009211/02/07 16:40:31  5-MIN KMSN 022240Z VRB04KT 9SM CLR 12/M02 A3011 690 38 600 VRB/04 RMK AO2
14837KMSN MSN20071102164509211/02/07 16:45:31  5-MIN KMSN 022245Z 25005KT 9SM CLR 12/M02 A3011 690 38 600 250/05 RMK AO2
14837KMSN MSN20071102165010911/02/07 16:50:31  5-MIN KMSN 022250Z 24004KT 9SM CLR 12/M02 A3011 690 39 500 240/04 RMK AO2 SLP202 T01171017
14837KMSN MSN20071102165509211/02/07 16:55:31  5-MIN KMSN 022255Z VRB04KT 9SM CLR 12/M01 A3011 680 41 500 VRB/04 RMK AO2
14837KMSN MSN20071102170009211/02/07 17:00:31  5-MIN KMSN 022300Z 24006KT 9SM CLR 12/M01 A3012 680 41 500 240/06 RMK AO2
14837KMSN MSN20071102170509311/02/07 17:05:31  5-MIN KMSN 022305Z 23005KT 10SM CLR 12/M01 A3012 680 41 500 230/05 RMK AO2
14837KMSN MSN20071102171009311/02/07 17:10:31  5-MIN KMSN 022310Z 23004KT 10SM CLR 12/M01 A3012 680 41 500 230/04 RMK AO2
14837KMSN MSN20071102171509311/02/07 17:15:31  5-MIN KMSN 022315Z 23004KT 10SM CLR 12/M01 A3012 680 41 500 230/04 RMK AO2
14837KMSN MSN20071102172009311/02/07 17:20:31  5-MIN KMSN 022320Z 24003KT 10SM CLR 12/M01 A3012 680 42 500 240/03 RMK AO2
14837KMSN MSN20071102172509311/02/07 17:25:31  5-MIN KMSN 022325Z 00000KT 10SM CLR 11/M01 A3012 680 44 400 000/00 RMK AO2
14837KMSN MSN20071102173009311/02/07 17:30:31  5-MIN KMSN 022330Z 22003KT 10SM CLR 11/M01 A3012 680 44 400 220/03 RMK AO2
14837KMSN MSN20071102173509311/02/07 17:35:31  5-MIN KMSN 022335Z 23004KT 10SM CLR 11/M01 A3012 680 44 400 230/04 RMK AO2
14837KMSN MSN20071102174009311/02/07 17:40:31  5-MIN KMSN 022340Z 22003KT 10SM CLR 11/M01 A3012 680 46 300 220/03 RMK AO2
14837KMSN MSN20071102174509311/02/07 17:45:31  5-MIN KMSN 022345Z 22004KT 10SM CLR 11/M01 A3013 680 42 400 210/04 RMK AO2
14837KMSN MSN20071102175012811/02/07 17:50:31  5-MIN KMSN 022350Z 22003KT 10SM CLR 11/M01 A3013 670 42 400 220/03 RMK AO2 SLP206 T01111011 10133 20106 56015
14837KMSN MSN20071102175509311/02/07 17:55:31  5-MIN KMSN 022355Z 21003KT 10SM CLR 11/M01 A3013 670 42 400 210/03 RMK AO2
14837KMSN MSN20071102180009311/02/07 18:00:31  5-MIN KMSN 030000Z 21004KT 10SM CLR 11/M01 A3013 670 44 300 210/04 RMK AO2
14837KMSN MSN20071102180509311/02/07 18:05:31  5-MIN KMSN 030005Z 20004KT 10SM CLR 11/M01 A3013 680 42 400 200/04 RMK AO2
14837KMSN MSN20071102181009311/02/07 18:10:31  5-MIN KMSN 030010Z 20005KT 10SM CLR 11/M01 A3012 680 44 300 200/05 RMK AO2
14837KMSN MSN20071102181509311/02/07 18:15:31  5-MIN KMSN 030015Z 20005KT 10SM CLR 11/M01 A3012 680 44 300 200/05 RMK AO2
14837KMSN MSN20071102182009311/02/07 18:20:31  5-MIN KMSN 030020Z 21005KT 10SM CLR 11/M01 A3012 680 44 300 210/05 RMK AO2
14837KMSN MSN20071102182509311/02/07 18:25:31  5-MIN KMSN 030025Z 23004KT 10SM CLR 11/M01 A3013 670 46 300 230/04 RMK AO2
14837KMSN MSN20071102183009311/02/07 18:30:31  5-MIN KMSN 030030Z 22004KT 10SM CLR 11/M01 A3013 670 46 300 220/04 RMK AO2
14837KMSN MSN20071102183509311/02/07 18:35:31  5-MIN KMSN 030035Z 22004KT 10SM CLR 10/M01 A3013 670 47 300 220/04 RMK AO2
14837KMSN MSN20071102184009311/02/07 18:40:31  5-MIN KMSN 030040Z 22004KT 10SM CLR 10/M01 A3013 670 47 300 220/04 RMK AO2
14837KMSN MSN20071102184509311/02/07 18:45:31  5-MIN KMSN 030045Z 23005KT 10SM CLR 10/M01 A3013 670 47 300 230/05 RMK AO2
14837KMSN MSN20071102185011011/02/07 18:50:31  5-MIN KMSN 030050Z 22006KT 10SM CLR 11/M01 A3013 670 46 300 220/06 RMK AO2 SLP208 T01061006
14837KMSN MSN20071102185509311/02/07 18:55:31  5-MIN KMSN 030055Z 22005KT 10SM CLR 11/M01 A3013 670 46 300 220/05 RMK AO2
14837KMSN MSN20071102190009311/02/07 19:00:31  5-MIN KMSN 030100Z 23003KT 10SM CLR 10/M01 A3013 670 47 300 220/03 RMK AO2
14837KMSN MSN20071102190509311/02/07 19:05:31  5-MIN KMSN 030105Z 23003KT 10SM CLR 10/M01 A3014 670 47 300 230/03 RMK AO2
14837KMSN MSN20071102191009211/02/07 19:10:31  5-MIN KMSN 030110Z 23004KT 10SM CLR 09/00 A3014 670 53 100 230/04 RMK AO2
14837KMSN MSN20071102191509211/02/07 19:15:31  5-MIN KMSN 030115Z VRB03KT 10SM CLR 09/00 A3014 670 51 200 VRB/03 RMK AO2
14837KMSN MSN20071102192009211/02/07 19:20:31  5-MIN KMSN 030120Z VRB03KT 10SM CLR 09/00 A3014 670 53 100 VRB/03 RMK AO2
14837KMSN MSN20071102192509311/02/07 19:25:31  5-MIN KMSN 030125Z 00000KT 10SM CLR 09/M01 A3014 670 51 100 000/00 RMK AO2
14837KMSN MSN20071102193009311/02/07 19:30:31  5-MIN KMSN 030130Z 26003KT 10SM CLR 09/M01 A3014 660 51 100 260/03 RMK AO2
14837KMSN MSN20071102193509311/02/07 19:35:31  5-MIN KMSN 030135Z 00000KT 10SM CLR 09/M01 A3014 660 51 100 000/00 RMK AO2
14837KMSN MSN20071102194009311/02/07 19:40:31  5-MIN KMSN 030140Z 00000KT 10SM CLR 08/M01 A3014 660 53 100 000/00 RMK AO2
14837KMSN MSN20071102194509311/02/07 19:45:31  5-MIN KMSN 030145Z 00000KT 10SM CLR 08/M01 A3014 660 53 100 000/00 RMK AO2
14837KMSN MSN20071102195011011/02/07 19:50:31  5-MIN KMSN 030150Z 27003KT 10SM CLR 08/M01 A3014 660 51 100 270/03 RMK AO2 SLP212 T00831011
14837KMSN MSN20071102195509311/02/07 19:55:31  5-MIN KMSN 030155Z 27003KT 10SM CLR 08/M01 A3014 660 51 100 270/03 RMK AO2
14837KMSN MSN20071102200009311/02/07 20:00:31  5-MIN KMSN 030200Z 28004KT 10SM CLR 08/M01 A3014 660 51 100 280/04 RMK AO2
14837KMSN MSN20071102200509111/02/07 20:05:31  5-MIN KMSN 030205Z 27004KT 10SM CLR 08/M01 A3014 660 53 0 270/04 RMK AO2
14837KMSN MSN20071102201009111/02/07 20:10:31  5-MIN KMSN 030210Z 28003KT 10SM CLR 07/M01 A3015 660 55 0 270/03 RMK AO2
14837KMSN MSN20071102201509111/02/07 20:15:31  5-MIN KMSN 030215Z VRB04KT 10SM CLR 08/M01 A3015 660 53 0 VRB/04 RMK AO2
14837KMSN MSN20071102202009111/02/07 20:20:31  5-MIN KMSN 030220Z 29003KT 10SM CLR 08/M01 A3015 650 53 0 290/03 RMK AO2
14837KMSN MSN20071102202509111/02/07 20:25:31  5-MIN KMSN 030225Z 28003KT 10SM CLR 07/M01 A3015 650 55 0 280/03 RMK AO2
14837KMSN MSN20071102203009111/02/07 20:30:31  5-MIN KMSN 030230Z 00000KT 10SM CLR 07/M01 A3015 650 55 0 000/00 RMK AO2
14837KMSN MSN20071102203509111/02/07 20:35:31  5-MIN KMSN 030235Z 00000KT 10SM CLR 07/M01 A3015 650 55 0 000/00 RMK AO2
14837KMSN MSN20071102204009411/02/07 20:40:31  5-MIN KMSN 030240Z 30003KT 10SM CLR 07/M01 A3015 650 57 -100 300/03 RMK AO2
14837KMSN MSN20071102204509411/02/07 20:45:31  5-MIN KMSN 030245Z 00000KT 10SM CLR 07/M01 A3015 650 57 -100 000/00 RMK AO2
14837KMSN MSN20071102205011711/02/07 20:50:31  5-MIN KMSN 030250Z 00000KT 10SM CLR 06/M01 A3015 650 60 -200 000/00 RMK AO2 SLP217 T00611011 53008
14837KMSN MSN20071102205509411/02/07 20:55:31  5-MIN KMSN 030255Z 30004KT 10SM CLR 06/M01 A3016 650 60 -200 300/04 RMK AO2
14837KMSN MSN20071102210009411/02/07 21:00:31  5-MIN KMSN 030300Z 29004KT 10SM CLR 06/M01 A3016 650 60 -200 290/04 RMK AO2
14837KMSN MSN20071102210509411/02/07 21:05:31  5-MIN KMSN 030305Z 29003KT 10SM CLR 06/M01 A3016 650 60 -200 290/03 RMK AO2
14837KMSN MSN20071102211009411/02/07 21:10:31  5-MIN KMSN 030310Z 29005KT 10SM CLR 06/M01 A3016 650 62 -300 290/05 RMK AO2
14837KMSN MSN20071102211509411/02/07 21:15:31  5-MIN KMSN 030315Z 29005KT 10SM CLR 06/M02 A3016 640 57 -200 290/05 RMK AO2
14837KMSN MSN20071102212009411/02/07 21:20:31  5-MIN KMSN 030320Z 29004KT 10SM CLR 06/M01 A3016 640 60 -200 290/04 RMK AO2
14837KMSN MSN20071102212509411/02/07 21:25:31  5-MIN KMSN 030325Z 30004KT 10SM CLR 06/M01 A3017 640 60 -200 300/04 RMK AO2
14837KMSN MSN20071102213009411/02/07 21:30:31  5-MIN KMSN 030330Z 00000KT 10SM CLR 07/M01 A3017 640 57 -100 000/00 RMK AO2
14837KMSN MSN20071102213509411/02/07 21:35:31  5-MIN KMSN 030335Z 35003KT 10SM CLR 06/M01 A3017 630 62 -300 350/03 RMK AO2
14837KMSN MSN20071102214009311/02/07 21:40:31  5-MIN KMSN 030340Z 00000KT 9SM CLR 04/M01 A3017 630 67 -400 000/00 RMK AO2
14837KMSN MSN20071102214509311/02/07 21:45:31  5-MIN KMSN 030345Z 00000KT 9SM CLR 06/M01 A3017 630 62 -300 000/00 RMK AO2
14837KMSN MSN20071102215011111/02/07 21:50:31  5-MIN KMSN 030350Z 00000KT 10SM CLR 06/M01 A3017 630 62 -300 000/00 RMK AO2 SLP222 T00561011
14837KMSN MSN20071102215509411/02/07 21:55:31  5-MIN KMSN 030355Z 00000KT 10SM CLR 05/M02 A3017 630 62 -300 000/00 RMK AO2
14837KMSN MSN20071102220009411/02/07 22:00:31  5-MIN KMSN 030400Z 00000KT 10SM CLR 05/M01 A3017 630 64 -300 000/00 RMK AO2
14837KMSN MSN20071102220509411/02/07 22:05:31  5-MIN KMSN 030405Z 27003KT 10SM CLR 05/M01 A3017 630 64 -300 270/03 RMK AO2
14837KMSN MSN20071102221009411/02/07 22:10:31  5-MIN KMSN 030410Z 00000KT 10SM CLR 06/M02 A3018 630 59 -300 000/00 RMK AO2
14837KMSN MSN20071102221509411/02/07 22:15:31  5-MIN KMSN 030415Z 29003KT 10SM CLR 05/M01 A3018 630 64 -300 290/03 RMK AO2
14837KMSN MSN20071102222009411/02/07 22:20:31  5-MIN KMSN 030420Z 29003KT 10SM CLR 04/M02 A3018 630 64 -400 290/03 RMK AO2
14837KMSN MSN20071102222509411/02/07 22:25:31  5-MIN KMSN 030425Z 29003KT 10SM CLR 05/M02 A3018 630 62 -300 290/03 RMK AO2
14837KMSN MSN20071102223009411/02/07 22:30:31  5-MIN KMSN 030430Z 00000KT 10SM CLR 04/M02 A3018 630 64 -400 000/00 RMK AO2
14837KMSN MSN20071102223509411/02/07 22:35:31  5-MIN KMSN 030435Z 29003KT 10SM CLR 04/M02 A3018 630 67 -500 290/03 RMK AO2
14837KMSN MSN20071102224009411/02/07 22:40:31  5-MIN KMSN 030440Z 29003KT 10SM CLR 03/M02 A3018 630 72 -600 290/03 RMK AO2
14837KMSN MSN20071102224509411/02/07 22:45:31  5-MIN KMSN 030445Z 29003KT 10SM CLR 03/M02 A3018 630 72 -600 290/03 RMK AO2
14837KMSN MSN20071102225011111/02/07 22:50:31  5-MIN KMSN 030450Z 00000KT 10SM CLR 03/M02 A3018 630 70 -500 000/00 RMK AO2 SLP225 T00331017
14837KMSN MSN20071102225509411/02/07 22:55:31  5-MIN KMSN 030455Z 27003KT 10SM CLR 04/M02 A3018 630 64 -400 270/03 RMK AO2
14837KMSN MSN20071102230009411/02/07 23:00:31  5-MIN KMSN 030500Z 00000KT 10SM CLR 05/M02 A3018 630 62 -300 000/00 RMK AO2
14837KMSN MSN20071102230509411/02/07 23:05:31  5-MIN KMSN 030505Z 00000KT 10SM CLR 04/M02 A3018 630 64 -400 000/00 RMK AO2
14837KMSN MSN20071102231009411/02/07 23:10:31  5-MIN KMSN 030510Z 00000KT 10SM CLR 04/M02 A3018 630 64 -400 000/00 RMK AO2
14837KMSN MSN20071102231509411/02/07 23:15:31  5-MIN KMSN 030515Z 00000KT 10SM CLR 04/M02 A3018 630 67 -500 000/00 RMK AO2
14837KMSN MSN20071102232009411/02/07 23:20:31  5-MIN KMSN 030520Z 00000KT 10SM CLR 04/M02 A3018 630 67 -500 000/00 RMK AO2
14837KMSN MSN20071102232509411/02/07 23:25:31  5-MIN KMSN 030525Z 00000KT 10SM CLR 04/M02 A3018 630 67 -500 000/00 RMK AO2
14837KMSN MSN20071102233009411/02/07 23:30:31  5-MIN KMSN 030530Z 29003KT 10SM CLR 04/M02 A3018 630 64 -400 290/03 RMK AO2
14837KMSN MSN20071102233509411/02/07 23:35:31  5-MIN KMSN 030535Z 29004KT 10SM CLR 04/M02 A3018 630 62 -400 290/04 RMK AO2
14837KMSN MSN20071102234009411/02/07 23:40:31  5-MIN KMSN 030540Z 29003KT 10SM CLR 04/M02 A3018 630 62 -400 280/03 RMK AO2
14837KMSN MSN20071102234509411/02/07 23:45:31  5-MIN KMSN 030545Z 00000KT 10SM CLR 05/M02 A3018 630 62 -300 000/00 RMK AO2
14837KMSN MSN20071102235013911/02/07 23:50:31  5-MIN KMSN 030550Z 00000KT 10SM CLR 05/M02 A3018 630 59 -300 000/00 RMK AO2 SLP225 T00501022 10111 20028 401330011 53009
14837KMSN MSN20071102235509411/02/07 23:55:31  5-MIN KMSN 030555Z 00000KT 10SM CLR 03/M02 A3018 630 67 -500 000/00 RMK AO2
14837KMSN MSN20071103000009411/03/07 00:00:32  5-MIN KMSN 030600Z 00000KT 10SM CLR 02/M03 A3018 630 69 -700 000/00 RMK AO2
14837KMSN MSN20071103000509411/03/07 00:05:31  5-MIN KMSN 030605Z 00000KT 10SM CLR 02/M03 A3018 630 72 -800 000/00 RMK AO2
14837KMSN MSN20071103001009411/03/07 00:10:31  5-MIN KMSN 030610Z 00000KT 10SM CLR 01/M03 A3018 630 78 -900 000/00 RMK AO2
14837KMSN MSN20071103001509511/03/07 00:15:31  5-MIN KMSN 030615Z 00000KT 10SM CLR 00/M03 A3018 630 78 -1000 000/00 RMK AO2
14837KMSN MSN20071103002009411/03/07 00:20:31  5-MIN KMSN 030620Z 00000KT 10SM CLR 01/M03 A3018 620 75 -800 000/00 RMK AO2
14837KMSN MSN20071103002509511/03/07 00:25:31  5-MIN KMSN 030625Z 00000KT 10SM CLR 00/M03 A3018 620 78 -1000 000/00 RMK AO2
14837KMSN MSN20071103003009611/03/07 00:30:31  5-MIN KMSN 030630Z 00000KT 10SM CLR M01/M03 A3018 620 81 -1000 000/00 RMK AO2
14837KMSN MSN20071103003509511/03/07 00:35:31  5-MIN KMSN 030635Z 00000KT 9SM CLR M01/M03 A3018 620 81 -1000 000/00 RMK AO2
14837KMSN MSN20071103004009511/03/07 00:40:31  5-MIN KMSN 030640Z 00000KT 9SM CLR M01/M03 A3018 620 85 -1100 000/00 RMK AO2
14837KMSN MSN20071103004509511/03/07 00:45:31  5-MIN KMSN 030645Z 00000KT 9SM CLR M01/M03 A3018 620 81 -1000 000/00 RMK AO2
14837KMSN MSN20071103005011211/03/07 00:50:31  5-MIN KMSN 030650Z 00000KT 9SM CLR M01/M03 A3018 620 81 -1000 000/00 RMK AO2 SLP226 T10061033
14837KMSN MSN20071103005509511/03/07 00:55:31  5-MIN KMSN 030655Z 00000KT 9SM CLR M01/M03 A3018 620 81 -1000 000/00 RMK AO2
14837KMSN MSN20071103010009511/03/07 01:00:31  5-MIN KMSN 030700Z 00000KT 10SM CLR 00/M03 A3018 620 78 -1000 000/00 RMK AO2
14837KMSN MSN20071103010509611/03/07 01:05:31  5-MIN KMSN 030705Z 00000KT 10SM CLR M01/M03 A3018 620 81 -1000 000/00 RMK AO2
14837KMSN MSN20071103011009511/03/07 01:10:31  5-MIN KMSN 030710Z 00000KT 10SM CLR 00/M03 A3018 620 78 -1000 000/00 RMK AO2
14837KMSN MSN20071103011509511/03/07 01:15:31  5-MIN KMSN 030715Z 00000KT 10SM CLR 00/M03 A3018 620 78 -1000 000/00 RMK AO2
14837KMSN MSN20071103012009611/03/07 01:20:31  5-MIN KMSN 030720Z 00000KT 10SM CLR M01/M04 A3018 620 78 -1000 000/00 RMK AO2
14837KMSN MSN20071103012509611/03/07 01:25:31  5-MIN KMSN 030725Z 00000KT 10SM CLR M01/M03 A3018 620 81 -1000 000/00 RMK AO2
14837KMSN MSN20071103013009611/03/07 01:30:31  5-MIN KMSN 030730Z 00000KT 10SM CLR M01/M03 A3018 620 81 -1000 000/00 RMK AO2
14837KMSN MSN20071103013509411/03/07 01:35:31  5-MIN KMSN 030735Z 00000KT 10SM CLR 01/M03 A3018 620 75 -900 000/00 RMK AO2
14837KMSN MSN20071103014009411/03/07 01:40:31  5-MIN KMSN 030740Z 00000KT 10SM CLR 02/M03 A3018 620 72 -800 000/00 RMK AO2
14837KMSN MSN20071103014509411/03/07 01:45:31  5-MIN KMSN 030745Z 00000KT 10SM CLR 02/M03 A3018 620 69 -800 000/00 RMK AO2
14837KMSN MSN20071103015011111/03/07 01:50:31  5-MIN KMSN 030750Z 31003KT 10SM CLR 02/M03 A3018 620 67 -700 310/03 RMK AO2 SLP226 T00221033
14837KMSN MSN20071103015509411/03/07 01:55:31  5-MIN KMSN 030755Z 30003KT 10SM CLR 03/M03 A3018 620 64 -600 300/03 RMK AO2
14837KMSN MSN20071103020009411/03/07 02:00:31  5-MIN KMSN 030800Z 00000KT 10SM CLR 02/M03 A3018 620 67 -700 000/00 RMK AO2
14837KMSN MSN20071103020509411/03/07 02:05:31  5-MIN KMSN 030805Z 00000KT 10SM CLR 02/M03 A3018 620 69 -800 000/00 RMK AO2
14837KMSN MSN20071103021009511/03/07 02:10:31  5-MIN KMSN 030810Z 00000KT 10SM CLR 00/M04 A3018 620 75 -1000 000/00 RMK AO2
14837KMSN MSN20071103021509411/03/07 02:15:31  5-MIN KMSN 030815Z 00000KT 10SM CLR 01/M03 A3018 620 72 -800 000/00 RMK AO2
14837KMSN MSN20071103022009511/03/07 02:20:31  5-MIN KMSN 030820Z 00000KT 10SM CLR 00/M04 A3018 620 75 -1000 000/00 RMK AO2
14837KMSN MSN20071103022509411/03/07 02:25:31  5-MIN KMSN 030825Z 00000KT 10SM CLR 01/M03 A3018 620 72 -800 000/00 RMK AO2
14837KMSN MSN20071103023009411/03/07 02:30:31  5-MIN KMSN 030830Z 00000KT 10SM CLR 02/M03 A3018 620 69 -800 000/00 RMK AO2
14837KMSN MSN20071103023509411/03/07 02:35:31  5-MIN KMSN 030835Z 00000KT 10SM CLR 01/M03 A3019 620 72 -800 000/00 RMK AO2
14837KMSN MSN20071103024009411/03/07 02:40:31  5-MIN KMSN 030840Z 00000KT 10SM CLR 02/M03 A3019 620 69 -800 000/00 RMK AO2
14837KMSN MSN20071103024509411/03/07 02:45:31  5-MIN KMSN 030845Z 30003KT 10SM CLR 02/M03 A3018 620 67 -700 300/03 RMK AO2
14837KMSN MSN20071103025011711/03/07 02:50:31  5-MIN KMSN 030850Z 30003KT 10SM CLR 03/M03 A3018 620 64 -600 300/03 RMK AO2 SLP226 T00281033 51008
14837KMSN MSN20071103025509411/03/07 02:55:31  5-MIN KMSN 030855Z 30003KT 10SM CLR 03/M03 A3018 620 64 -600 300/03 RMK AO2
14837KMSN MSN20071103030009411/03/07 03:00:31  5-MIN KMSN 030900Z 30003KT 10SM CLR 03/M03 A3018 620 64 -600 300/03 RMK AO2
14837KMSN MSN20071103030509411/03/07 03:05:31  5-MIN KMSN 030905Z 30004KT 10SM CLR 03/M03 A3018 620 64 -600 290/04 RMK AO2
14837KMSN MSN20071103031009411/03/07 03:10:31  5-MIN KMSN 030910Z 31003KT 10SM CLR 03/M03 A3018 620 61 -500 310/03 RMK AO2
14837KMSN MSN20071103031509411/03/07 03:15:31  5-MIN KMSN 030915Z 31004KT 10SM CLR 03/M03 A3018 620 64 -600 310/04 RMK AO2
14837KMSN MSN20071103032009411/03/07 03:20:31  5-MIN KMSN 030920Z 30003KT 10SM CLR 03/M03 A3018 630 64 -600 300/03 RMK AO2
14837KMSN MSN20071103032509411/03/07 03:25:31  5-MIN KMSN 030925Z 29004KT 10SM CLR 03/M03 A3018 630 64 -600 290/04 RMK AO2
14837KMSN MSN20071103033009411/03/07 03:30:31  5-MIN KMSN 030930Z 30004KT 10SM CLR 03/M03 A3018 630 64 -600 300/04 RMK AO2
14837KMSN MSN20071103033509411/03/07 03:35:31  5-MIN KMSN 030935Z 30004KT 10SM CLR 03/M03 A3018 630 64 -600 300/04 RMK AO2
14837KMSN MSN20071103034009411/03/07 03:40:31  5-MIN KMSN 030940Z 31004KT 10SM CLR 03/M03 A3018 630 64 -600 310/04 RMK AO2
14837KMSN MSN20071103034509411/03/07 03:45:31  5-MIN KMSN 030945Z 30003KT 10SM CLR 03/M03 A3018 620 64 -600 300/03 RMK AO2
14837KMSN MSN20071103035011111/03/07 03:50:31  5-MIN KMSN 030950Z 30004KT 10SM CLR 03/M03 A3018 630 64 -600 300/04 RMK AO2 SLP225 T00281033
14837KMSN MSN20071103035509411/03/07 03:55:31  5-MIN KMSN 030955Z 30004KT 10SM CLR 03/M03 A3018 630 64 -600 300/04 RMK AO2
14837KMSN MSN20071103040009411/03/07 04:00:31  5-MIN KMSN 031000Z 31004KT 10SM CLR 03/M03 A3018 630 64 -600 310/04 RMK AO2
14837KMSN MSN20071103040509411/03/07 04:05:31  5-MIN KMSN 031005Z 31004KT 10SM CLR 03/M03 A3018 630 64 -600 300/04 RMK AO2
14837KMSN MSN20071103041009411/03/07 04:10:31  5-MIN KMSN 031010Z 30003KT 10SM CLR 03/M03 A3018 620 64 -600 300/03 RMK AO2
14837KMSN MSN20071103041509411/03/07 04:15:31  5-MIN KMSN 031015Z 30003KT 10SM CLR 02/M03 A3018 630 67 -700 300/03 RMK AO2
14837KMSN MSN20071103042009411/03/07 04:20:31  5-MIN KMSN 031020Z 00000KT 10SM CLR 03/M03 A3018 630 64 -600 000/00 RMK AO2
14837KMSN MSN20071103042509411/03/07 04:25:31  5-MIN KMSN 031025Z 30003KT 10SM CLR 03/M04 A3018 620 61 -600 300/03 RMK AO2
14837KMSN MSN20071103043009411/03/07 04:30:31  5-MIN KMSN 031030Z 30003KT 10SM CLR 03/M04 A3018 630 61 -600 300/03 RMK AO2
14837KMSN MSN20071103043509411/03/07 04:35:31  5-MIN KMSN 031035Z 29003KT 10SM CLR 03/M04 A3018 620 61 -600 290/03 RMK AO2
14837KMSN MSN20071103044009411/03/07 04:40:31  5-MIN KMSN 031040Z 29003KT 10SM CLR 03/M04 A3018 620 61 -600 290/03 RMK AO2
14837KMSN MSN20071103044509411/03/07 04:45:31  5-MIN KMSN 031045Z 00000KT 10SM CLR 02/M04 A3018 620 64 -700 000/00 RMK AO2
14837KMSN MSN20071103045011111/03/07 04:50:31  5-MIN KMSN 031050Z 00000KT 10SM CLR 02/M04 A3018 620 64 -700 000/00 RMK AO2 SLP226 T00221039
14837KMSN MSN20071103045509411/03/07 04:55:31  5-MIN KMSN 031055Z 30003KT 10SM CLR 02/M04 A3018 620 64 -700 300/03 RMK AO2
14837KMSN MSN20071103050009411/03/07 05:00:31  5-MIN KMSN 031100Z 00000KT 10SM CLR 02/M04 A3018 620 64 -700 000/00 RMK AO2
14837KMSN MSN20071103050509411/03/07 05:05:31  5-MIN KMSN 031105Z 00000KT 10SM CLR 02/M04 A3019 620 66 -800 000/00 RMK AO2
14837KMSN MSN20071103051009411/03/07 05:10:31  5-MIN KMSN 031110Z 30003KT 10SM CLR 02/M04 A3019 620 64 -700 300/03 RMK AO2
14837KMSN MSN20071103051509411/03/07 05:15:31  5-MIN KMSN 031115Z 00000KT 10SM CLR 02/M04 A3019 620 64 -700 000/00 RMK AO2
14837KMSN MSN20071103052009411/03/07 05:20:31  5-MIN KMSN 031120Z 31003KT 10SM CLR 01/M04 A3019 620 69 -800 310/03 RMK AO2
14837KMSN MSN20071103052509411/03/07 05:25:31  5-MIN KMSN 031125Z 00000KT 10SM CLR 01/M04 A3019 620 69 -800 000/00 RMK AO2
14837KMSN MSN20071103053009411/03/07 05:30:31  5-MIN KMSN 031130Z 00000KT 10SM CLR 01/M04 A3019 620 69 -800 000/00 RMK AO2
14837KMSN MSN20071103053509411/03/07 05:35:31  5-MIN KMSN 031135Z 30003KT 10SM CLR 01/M04 A3019 620 69 -900 300/03 RMK AO2
14837KMSN MSN20071103054009411/03/07 05:40:31  5-MIN KMSN 031140Z 29003KT 10SM CLR 01/M04 A3019 620 69 -900 290/03 RMK AO2
14837KMSN MSN20071103054509411/03/07 05:45:31  5-MIN KMSN 031145Z 29004KT 10SM CLR 01/M04 A3019 620 69 -800 290/04 RMK AO2
14837KMSN MSN20071103055012911/03/07 05:50:31  5-MIN KMSN 031150Z 29004KT 10SM CLR 01/M04 A3019 620 69 -800 290/04 RMK AO2 SLP229 T00111039 10033 21011 50001
14837KMSN MSN20071103055509411/03/07 05:55:31  5-MIN KMSN 031155Z 30004KT 10SM CLR 01/M04 A3019 620 69 -800 300/04 RMK AO2
14837KMSN MSN20071103060009411/03/07 06:00:31  5-MIN KMSN 031200Z 29004KT 10SM CLR 02/M04 A3019 620 66 -800 290/04 RMK AO2
14837KMSN MSN20071103060509411/03/07 06:05:31  5-MIN KMSN 031205Z 29004KT 10SM CLR 02/M04 A3019 620 66 -800 290/04 RMK AO2
14837KMSN MSN20071103061009411/03/07 06:10:31  5-MIN KMSN 031210Z 29004KT 10SM CLR 02/M04 A3019 620 66 -800 290/04 RMK AO2
14837KMSN MSN20071103061509411/03/07 06:15:31  5-MIN KMSN 031215Z 30004KT 10SM CLR 02/M04 A3019 620 66 -800 300/04 RMK AO2
14837KMSN MSN20071103062009411/03/07 06:20:31  5-MIN KMSN 031220Z 28003KT 10SM CLR 01/M04 A3019 620 69 -800 280/03 RMK AO2
14837KMSN MSN20071103062509411/03/07 06:25:31  5-MIN KMSN 031225Z 27003KT 10SM CLR 01/M04 A3019 620 69 -800 270/03 RMK AO2
14837KMSN MSN20071103063009411/03/07 06:30:31  5-MIN KMSN 031230Z 00000KT 10SM CLR 02/M04 A3019 620 66 -800 000/00 RMK AO2
14837KMSN MSN20071103063509411/03/07 06:35:31  5-MIN KMSN 031235Z 00000KT 10SM CLR 02/M04 A3019 610 66 -800 000/00 RMK AO2
14837KMSN MSN20071103064009311/03/07 06:40:31  5-MIN KMSN 031240Z 00000KT 9SM CLR 01/M04 A3019 610 69 -900 000/00 RMK AO2
14837KMSN MSN20071103064509311/03/07 06:45:31  5-MIN KMSN 031245Z 00000KT 9SM CLR 01/M04 A3019 610 69 -800 000/00 RMK AO2
14837KMSN MSN20071103065011111/03/07 06:50:31  5-MIN KMSN 031250Z 30003KT 10SM CLR 01/M04 A3019 610 69 -800 300/03 RMK AO2 SLP231 T00111039
14837KMSN MSN20071103065509311/03/07 06:55:31  5-MIN KMSN 031255Z 00000KT 9SM CLR 01/M04 A3020 610 69 -800 000/00 RMK AO2
14837KMSN MSN20071103070009311/03/07 07:00:31  5-MIN KMSN 031300Z VRB03KT 9SM CLR 01/M04 A3020 610 69 -800 VRB/03 RMK AO2
14837KMSN MSN20071103070509311/03/07 07:05:31  5-MIN KMSN 031305Z 29003KT 9SM CLR 02/M04 A3020 610 66 -800 290/03 RMK AO2
14837KMSN MSN20071103071009311/03/07 07:10:31  5-MIN KMSN 031310Z 30004KT 9SM CLR 02/M04 A3020 610 66 -800 300/04 RMK AO2
14837KMSN MSN20071103071509311/03/07 07:15:31  5-MIN KMSN 031315Z 29003KT 9SM CLR 02/M04 A3020 610 66 -800 290/03 RMK AO2
14837KMSN MSN20071103072009311/03/07 07:20:31  5-MIN KMSN 031320Z 29003KT 9SM CLR 02/M04 A3020 610 66 -800 290/03 RMK AO2
14837KMSN MSN20071103072509311/03/07 07:25:31  5-MIN KMSN 031325Z 29003KT 9SM CLR 02/M04 A3020 610 66 -800 280/03 RMK AO2
14837KMSN MSN20071103073009311/03/07 07:30:31  5-MIN KMSN 031330Z 29004KT 9SM CLR 02/M04 A3020 610 64 -700 290/04 RMK AO2
14837KMSN MSN20071103073509311/03/07 07:35:31  5-MIN KMSN 031335Z 29004KT 9SM CLR 02/M04 A3020 600 64 -700 290/04 RMK AO2
14837KMSN MSN20071103074009311/03/07 07:40:31  5-MIN KMSN 031340Z 29004KT 9SM CLR 02/M03 A3020 600 67 -700 290/04 RMK AO2
14837KMSN MSN20071103074509311/03/07 07:45:31  5-MIN KMSN 031345Z 30004KT 9SM CLR 03/M03 A3021 600 64 -600 300/04 RMK AO2
14837KMSN MSN20071103075011011/03/07 07:50:31  5-MIN KMSN 031350Z 30005KT 9SM CLR 03/M03 A3021 600 64 -600 300/05 RMK AO2 SLP235 T00281033
14837KMSN MSN20071103075509311/03/07 07:55:31  5-MIN KMSN 031355Z 29006KT 9SM CLR 03/M03 A3021 600 64 -700 290/06 RMK AO2
14837KMSN MSN20071103080009311/03/07 08:00:31  5-MIN KMSN 031400Z 29006KT 9SM CLR 03/M03 A3021 600 64 -700 290/06 RMK AO2
14837KMSN MSN20071103080509311/03/07 08:05:31  5-MIN KMSN 031405Z 30006KT 9SM CLR 03/M03 A3021 600 61 -600 300/06 RMK AO2
14837KMSN MSN20071103081009311/03/07 08:10:31  5-MIN KMSN 031410Z 30005KT 9SM CLR 03/M03 A3021 600 61 -600 300/05 RMK AO2
14837KMSN MSN20071103081509311/03/07 08:15:31  5-MIN KMSN 031415Z 30005KT 9SM CLR 04/M03 A3021 600 59 -500 300/05 RMK AO2
14837KMSN MSN20071103082009311/03/07 08:20:31  5-MIN KMSN 031420Z VRB05KT 9SM CLR 04/M03 A3021 600 59 -500 VRB/05 RMK AO2
14837KMSN MSN20071103082509311/03/07 08:25:31  5-MIN KMSN 031425Z 30006KT 9SM CLR 04/M03 A3021 600 59 -400 300/06 RMK AO2
14837KMSN MSN20071103083009311/03/07 08:30:31  5-MIN KMSN 031430Z 30005KT 9SM CLR 04/M03 A3021 600 59 -400 300/05 RMK AO2
14837KMSN MSN20071103083509411/03/07 08:35:31  5-MIN KMSN 031435Z 31006KT 10SM CLR 04/M03 A3021 600 59 -400 310/06 RMK AO2
14837KMSN MSN20071103084009411/03/07 08:40:31  5-MIN KMSN 031440Z 31005KT 10SM CLR 05/M03 A3021 600 57 -400 310/05 RMK AO2
14837KMSN MSN20071103084509411/03/07 08:45:31  5-MIN KMSN 031445Z 30005KT 10SM CLR 05/M03 A3021 600 57 -400 300/05 RMK AO2
14837KMSN MSN20071103085011711/03/07 08:50:31  5-MIN KMSN 031450Z 31006KT 10SM CLR 06/M02 A3020 600 57 -300 310/06 RMK AO2 SLP234 T00561022 53002
14837KMSN MSN20071103085509411/03/07 08:55:31  5-MIN KMSN 031455Z 30007KT 10SM CLR 06/M02 A3020 600 57 -300 300/07 RMK AO2
14837KMSN MSN20071103090009311/03/07 09:00:31  5-MIN KMSN 031500Z 30006KT 9SM CLR 06/M02 A3020 600 57 -300 300/06 RMK AO2
14837KMSN MSN20071103090509311/03/07 09:05:31  5-MIN KMSN 031505Z 30007KT 9SM CLR 06/M02 A3020 600 57 -300 300/07 RMK AO2
14837KMSN MSN20071103091009411/03/07 09:10:31  5-MIN KMSN 031510Z 30006KT 10SM CLR 06/M02 A3020 600 55 -200 300/06 RMK AO2
14837KMSN MSN20071103091509411/03/07 09:15:31  5-MIN KMSN 031515Z 31006KT 10SM CLR 07/M02 A3020 600 53 -200 310/06 RMK AO2
14837KMSN MSN20071103092009411/03/07 09:20:31  5-MIN KMSN 031520Z 31005KT 10SM CLR 06/M03 A3020 600 53 -200 300/05 RMK AO2
14837KMSN MSN20071103092509411/03/07 09:25:31  5-MIN KMSN 031525Z 32006KT 10SM CLR 07/M03 A3021 600 51 -200 320/06 RMK AO2
14837KMSN MSN20071103093009411/03/07 09:30:31  5-MIN KMSN 031530Z 33004KT 10SM CLR 07/M03 A3021 600 51 -200 330/04 RMK AO2
14837KMSN MSN20071103093509411/03/07 09:35:31  5-MIN KMSN 031535Z 31004KT 10SM CLR 07/M02 A3020 600 51 -100 310/04 RMK AO2
14837KMSN MSN20071103094009411/03/07 09:40:31  5-MIN KMSN 031540Z 32005KT 10SM CLR 07/M02 A3020 600 51 -100 320/05 RMK AO2
14837KMSN MSN20071103094509111/03/07 09:45:31  5-MIN KMSN 031545Z 30006KT 10SM CLR 08/M02 A3021 600 49 0 290/06 RMK AO2
14837KMSN MSN20071103095010811/03/07 09:50:31  5-MIN KMSN 031550Z 32005KT 10SM CLR 08/M02 A3021 600 49 0 320/05 RMK AO2 SLP235 T00781022
14837KMSN MSN20071103095509111/03/07 09:55:31  5-MIN KMSN 031555Z VRB04KT 10SM CLR 08/M02 A3021 600 49 0 VRB/04 RMK AO2
14837KMSN MSN20071103100009111/03/07 10:00:31  5-MIN KMSN 031600Z 32006KT 10SM CLR 08/M03 A3020 600 47 0 320/06 RMK AO2
14837KMSN MSN20071103100509111/03/07 10:05:31  5-MIN KMSN 031605Z 31006KT 10SM CLR 08/M03 A3020 600 45 0 310/06 RMK AO2
14837KMSN MSN20071103101009111/03/07 10:10:31  5-MIN KMSN 031610Z 31005KT 10SM CLR 08/M03 A3020 600 45 0 310/05 RMK AO2
14837KMSN MSN20071103101509111/03/07 10:15:31  5-MIN KMSN 031615Z 32007KT 10SM CLR 08/M03 A3020 600 43 0 320/07 RMK AO2
14837KMSN MSN20071103102009111/03/07 10:20:31  5-MIN KMSN 031620Z 31007KT 10SM CLR 08/M03 A3020 610 43 0 310/07 RMK AO2
14837KMSN MSN20071103102509111/03/07 10:25:31  5-MIN KMSN 031625Z VRB05KT 10SM CLR 08/M03 A3020 610 43 0 VRB/05 RMK AO2
14837KMSN MSN20071103103009311/03/07 10:30:31  5-MIN KMSN 031630Z 32007KT 10SM CLR 09/M03 A3020 610 42 100 320/07 RMK AO2
14837KMSN MSN20071103103509911/03/07 10:35:31  5-MIN KMSN 031635Z VRB05G14KT 10SM CLR 09/M04 A3020 610 40 100 VRB/05G14 RMK AO2
14837KMSN MSN20071103104009911/03/07 10:40:31  5-MIN KMSN 031640Z 30006G14KT 10SM CLR 09/M03 A3019 610 42 100 300/06G14 RMK AO2
14837KMSN MSN20071103104509311/03/07 10:45:31  5-MIN KMSN 031645Z 29007KT 10SM CLR 09/M04 A3019 610 40 100 290/07 RMK AO2
14837KMSN MSN20071103105011011/03/07 10:50:31  5-MIN KMSN 031650Z 32007KT 10SM CLR 09/M04 A3019 610 40 100 310/07 RMK AO2 SLP230 T00891039
14837KMSN MSN20071103105509311/03/07 10:55:31  5-MIN KMSN 031655Z 32009KT 10SM CLR 09/M04 A3019 620 38 100 320/09 RMK AO2
14837KMSN MSN20071103110009311/03/07 11:00:31  5-MIN KMSN 031700Z 30010KT 10SM CLR 09/M04 A3019 620 40 100 300/10 RMK AO2
14837KMSN MSN20071103110509311/03/07 11:05:31  5-MIN KMSN 031705Z 31006KT 10SM CLR 09/M04 A3018 620 38 100 310/06 RMK AO2
14837KMSN MSN20071103111009911/03/07 11:10:31  5-MIN KMSN 031710Z 30009G15KT 10SM CLR 09/M04 A3018 620 38 100 300/09G15 RMK AO2
14837KMSN MSN20071103111509911/03/07 11:15:31  5-MIN KMSN 031715Z 30008G15KT 10SM CLR 09/M04 A3018 620 40 100 300/08G15 RMK AO2
14837KMSN MSN20071103112009911/03/07 11:20:31  5-MIN KMSN 031720Z 28008G14KT 10SM CLR 09/M04 A3018 620 40 100 280/08G14 RMK AO2
14837KMSN MSN20071103112510911/03/07 11:25:31  5-MIN KMSN 031725Z 30009KT 280V340 10SM CLR 09/M03 A3018 630 42 100 300/09 280V340 RMK AO2
14837KMSN MSN20071103113011511/03/07 11:30:31  5-MIN KMSN 031730Z 30008G14KT 260V330 10SM CLR 09/M04 A3017 630 39 200 300/08G14 260V330 RMK AO2
14837KMSN MSN20071103113509311/03/07 11:35:31  5-MIN KMSN 031735Z 31009KT 10SM CLR 09/M03 A3017 630 40 200 310/09 RMK AO2
14837KMSN MSN20071103114009311/03/07 11:40:31  5-MIN KMSN 031740Z 32009KT 10SM CLR 09/M04 A3017 630 39 200 310/09 RMK AO2
14837KMSN MSN20071103114509311/03/07 11:45:31  5-MIN KMSN 031745Z 30007KT 10SM CLR 09/M04 A3017 640 39 200 300/07 RMK AO2
14837KMSN MSN20071103115013411/03/07 11:50:31  5-MIN KMSN 031750Z 31009G15KT 10SM CLR 09/M04 A3016 640 39 200 310/09G15 RMK AO2 SLP219 T00941039 10094 20006 50005
14837KMSN MSN20071103115509911/03/07 11:55:31  5-MIN KMSN 031755Z 30010G16KT 10SM CLR 09/M04 A3016 640 39 200 300/10G16 RMK AO2
14837KMSN MSN20071103120009911/03/07 12:00:31  5-MIN KMSN 031800Z 32009G16KT 10SM CLR 10/M04 A3016 640 37 200 320/09G16 RMK AO2
14837KMSN MSN20071103120509911/03/07 12:05:31  5-MIN KMSN 031805Z 31010G14KT 10SM CLR 09/M04 A3016 650 39 200 310/10G14 RMK AO2
14837KMSN MSN20071103121009911/03/07 12:10:31  5-MIN KMSN 031810Z VRB03G14KT 10SM CLR 09/M04 A3016 650 39 200 VRB/03G14 RMK AO2
14837KMSN MSN20071103121509311/03/07 12:15:31  5-MIN KMSN 031815Z VRB04KT 10SM CLR 10/M04 A3016 650 37 200 VRB/04 RMK AO2
14837KMSN MSN20071103122009311/03/07 12:20:31  5-MIN KMSN 031820Z 30007KT 10SM CLR 10/M03 A3015 650 39 200 300/07 RMK AO2
14837KMSN MSN20071103122510911/03/07 12:25:31  5-MIN KMSN 031825Z 28007KT 240V320 10SM CLR 10/M03 A3015 650 39 200 280/07 240V320 RMK AO2
14837KMSN MSN20071103123009311/03/07 12:30:31  5-MIN KMSN 031830Z VRB05KT 10SM CLR 10/M04 A3015 660 37 300 VRB/05 RMK AO2
14837KMSN MSN20071103123510911/03/07 12:35:31  5-MIN KMSN 031835Z 30008KT 260V340 10SM CLR 10/M03 A3014 660 39 300 300/08 260V340 RMK AO2
14837KMSN MSN20071103124009311/03/07 12:40:31  5-MIN KMSN 031840Z 32009KT 10SM CLR 10/M04 A3014 660 37 300 320/09 RMK AO2
14837KMSN MSN20071103124509311/03/07 12:45:31  5-MIN KMSN 031845Z 27006KT 10SM CLR 10/M04 A3014 660 37 300 270/06 RMK AO2
14837KMSN MSN20071103125011011/03/07 12:50:31  5-MIN KMSN 031850Z 32006KT 10SM CLR 10/M04 A3014 660 37 300 320/06 RMK AO2 SLP213 T01001039
14837KMSN MSN20071103125509911/03/07 12:55:31  5-MIN KMSN 031855Z 31010G14KT 10SM CLR 11/M04 A3014 660 34 300 310/10G14 RMK AO2
14837KMSN MSN20071103130009311/03/07 13:00:31  5-MIN KMSN 031900Z 32010KT 10SM CLR 10/M04 A3014 670 36 300 320/10 RMK AO2
14837KMSN MSN20071103130509911/03/07 13:05:31  5-MIN KMSN 031905Z 31007G15KT 10SM CLR 10/M04 A3013 670 36 300 310/07G15 RMK AO2
14837KMSN MSN20071103131009911/03/07 13:10:31  5-MIN KMSN 031910Z 27009G15KT 10SM CLR 10/M04 A3013 670 36 300 270/09G15 RMK AO2
14837KMSN MSN20071103131509911/03/07 13:15:31  5-MIN KMSN 031915Z 30007G14KT 10SM CLR 10/M04 A3013 670 36 300 300/07G14 RMK AO2
14837KMSN MSN20071103132009311/03/07 13:20:31  5-MIN KMSN 031920Z 31009KT 10SM CLR 10/M04 A3013 670 36 300 310/09 RMK AO2
14837KMSN MSN20071103132509311/03/07 13:25:31  5-MIN KMSN 031925Z 30007KT 10SM CLR 11/M04 A3013 670 36 300 300/07 RMK AO2
14837KMSN MSN20071103133009311/03/07 13:30:31  5-MIN KMSN 031930Z 31008KT 10SM CLR 10/M04 A3013 670 36 300 310/08 RMK AO2
14837KMSN MSN20071103133509311/03/07 13:35:31  5-MIN KMSN 031935Z 28008KT 10SM CLR 10/M04 A3013 670 36 300 280/08 RMK AO2
14837KMSN MSN20071103134009311/03/07 13:40:31  5-MIN KMSN 031940Z VRB04KT 10SM CLR 10/M05 A3013 670 34 300 VRB/04 RMK AO2
14837KMSN MSN20071103134509311/03/07 13:45:31  5-MIN KMSN 031945Z VRB06KT 10SM CLR 10/M05 A3012 680 34 300 VRB/06 RMK AO2
14837KMSN MSN20071103135011011/03/07 13:50:31  5-MIN KMSN 031950Z VRB05KT 10SM CLR 10/M05 A3012 680 34 300 VRB/05 RMK AO2 SLP206 T01001050
14837KMSN MSN20071103135510911/03/07 13:55:31  5-MIN KMSN 031955Z 30007KT 260V340 10SM CLR 11/M04 A3012 680 34 400 300/07 260V340 RMK AO2
14837KMSN MSN20071103140009311/03/07 14:00:31  5-MIN KMSN 032000Z 29008KT 10SM CLR 10/M05 A3012 680 34 300 290/08 RMK AO2
14837KMSN MSN20071103140509311/03/07 14:05:31  5-MIN KMSN 032005Z 31007KT 10SM CLR 10/M05 A3012 680 34 300 310/07 RMK AO2
14837KMSN MSN20071103141009311/03/07 14:10:31  5-MIN KMSN 032010Z 29005KT 10SM CLR 10/M05 A3011 690 34 300 290/05 RMK AO2
14837KMSN MSN20071103141509311/03/07 14:15:31  5-MIN KMSN 032015Z VRB04KT 10SM CLR 10/M05 A3011 690 34 300 VRB/04 RMK AO2
14837KMSN MSN20071103142009311/03/07 14:20:31  5-MIN KMSN 032020Z VRB04KT 10SM CLR 10/M06 A3010 690 33 300 VRB/04 RMK AO2
14837KMSN MSN20071103142509311/03/07 14:25:31  5-MIN KMSN 032025Z 33007KT 10SM CLR 10/M05 A3010 700 34 300 330/07 RMK AO2
14837KMSN MSN20071103143009311/03/07 14:30:31  5-MIN KMSN 032030Z 31007KT 10SM CLR 10/M05 A3010 700 34 300 310/07 RMK AO2
14837KMSN MSN20071103143509311/03/07 14:35:31  5-MIN KMSN 032035Z 33005KT 10SM CLR 09/M06 A3010 700 34 200 330/05 RMK AO2
14837KMSN MSN20071103144009311/03/07 14:40:31  5-MIN KMSN 032040Z 32004KT 10SM CLR 09/M04 A3010 700 37 200 320/04 RMK AO2
14837KMSN MSN20071103144509311/03/07 14:45:31  5-MIN KMSN 032045Z 29005KT 10SM CLR 09/M05 A3010 700 35 200 290/05 RMK AO2
14837KMSN MSN20071103145011611/03/07 14:50:31  5-MIN KMSN 032050Z 28003KT 10SM CLR 09/M05 A3010 700 35 200 280/03 RMK AO2 SLP200 T00941050 58014
14837KMSN MSN20071103145509311/03/07 14:55:31  5-MIN KMSN 032055Z VRB04KT 10SM CLR 09/M05 A3010 700 35 200 VRB/04 RMK AO2
14837KMSN MSN20071103150009311/03/07 15:00:31  5-MIN KMSN 032100Z 28003KT 10SM CLR 09/M05 A3010 700 35 200 280/03 RMK AO2
14837KMSN MSN20071103150509311/03/07 15:05:31  5-MIN KMSN 032105Z 29006KT 10SM CLR 10/M05 A3010 700 34 300 290/06 RMK AO2
14837KMSN MSN20071103151009311/03/07 15:10:31  5-MIN KMSN 032110Z 31005KT 10SM CLR 10/M05 A3010 700 34 300 310/05 RMK AO2
14837KMSN MSN20071103151509311/03/07 15:15:31  5-MIN KMSN 032115Z 31004KT 10SM CLR 10/M05 A3010 700 34 300 310/04 RMK AO2
14837KMSN MSN20071103152009311/03/07 15:20:31  5-MIN KMSN 032120Z 29003KT 10SM CLR 10/M06 A3010 700 33 300 290/03 RMK AO2
14837KMSN MSN20071103152509311/03/07 15:25:31  5-MIN KMSN 032125Z 31005KT 10SM CLR 10/M05 A3010 700 34 300 300/05 RMK AO2
14837KMSN MSN20071103153009311/03/07 15:30:31  5-MIN KMSN 032130Z 30005KT 10SM CLR 09/M05 A3010 700 35 200 300/05 RMK AO2
14837KMSN MSN20071103153509311/03/07 15:35:31  5-MIN KMSN 032135Z 00000KT 10SM CLR 09/M06 A3010 700 34 200 000/00 RMK AO2
14837KMSN MSN20071103154009311/03/07 15:40:31  5-MIN KMSN 032140Z 30004KT 10SM CLR 09/M05 A3010 700 35 200 300/04 RMK AO2
14837KMSN MSN20071103154509311/03/07 15:45:31  5-MIN KMSN 032145Z 28003KT 10SM CLR 09/M05 A3010 700 35 200 280/03 RMK AO2
14837KMSN MSN20071103155011011/03/07 15:50:31  5-MIN KMSN 032150Z 28003KT 10SM CLR 09/M05 A3010 700 35 200 280/03 RMK AO2 SLP197 T00941050
14837KMSN MSN20071103155509311/03/07 15:55:31  5-MIN KMSN 032155Z 28003KT 10SM CLR 09/M04 A3009 700 37 200 280/03 RMK AO2
14837KMSN MSN20071103160009311/03/07 16:00:31  5-MIN KMSN 032200Z 00000KT 10SM CLR 09/M04 A3009 700 38 200 000/00 RMK AO2
14837KMSN MSN20071103160509311/03/07 16:05:31  5-MIN KMSN 032205Z 29003KT 10SM CLR 09/M05 A3009 700 37 200 290/03 RMK AO2
14837KMSN MSN20071103161009311/03/07 16:10:31  5-MIN KMSN 032210Z 00000KT 10SM CLR 09/M04 A3009 700 38 200 000/00 RMK AO2
14837KMSN MSN20071103161509311/03/07 16:15:31  5-MIN KMSN 032215Z 00000KT 10SM CLR 09/M04 A3009 710 38 200 000/00 RMK AO2
14837KMSN MSN20071103162009311/03/07 16:20:31  5-MIN KMSN 032220Z 00000KT 10SM CLR 09/M04 A3009 710 38 200 000/00 RMK AO2
14837KMSN MSN20071103162509311/03/07 16:25:31  5-MIN KMSN 032225Z 00000KT 10SM CLR 08/M04 A3009 710 40 100 000/00 RMK AO2
14837KMSN MSN20071103163009311/03/07 16:30:31  5-MIN KMSN 032230Z 00000KT 10SM CLR 08/M04 A3009 710 40 100 000/00 RMK AO2
14837KMSN MSN20071103163509311/03/07 16:35:31  5-MIN KMSN 032235Z 00000KT 10SM CLR 08/M04 A3009 710 40 100 000/00 RMK AO2
14837KMSN MSN20071103164009311/03/07 16:40:31  5-MIN KMSN 032240Z 00000KT 10SM CLR 08/M04 A3009 710 42 100 000/00 RMK AO2
14837KMSN MSN20071103164509211/03/07 16:45:31  5-MIN KMSN 032245Z 00000KT 9SM CLR 08/M03 A3009 710 45 100 000/00 RMK AO2
14837KMSN MSN20071103165010911/03/07 16:50:31  5-MIN KMSN 032250Z 00000KT 9SM CLR 08/M03 A3009 710 43 100 000/00 RMK AO2 SLP194 T00831033
14837KMSN MSN20071103165509111/03/07 16:55:31  5-MIN KMSN 032255Z 00000KT 10SM CLR 07/M03 A3008 710 49 0 000/00 RMK AO2
14837KMSN MSN20071103170009111/03/07 17:00:31  5-MIN KMSN 032300Z 00000KT 10SM CLR 07/M04 A3008 710 47 0 000/00 RMK AO2
14837KMSN MSN20071103170509111/03/07 17:05:31  5-MIN KMSN 032305Z 00000KT 10SM CLR 07/M04 A3008 720 45 0 000/00 RMK AO2
14837KMSN MSN20071103171009111/03/07 17:10:31  5-MIN KMSN 032310Z 00000KT 10SM CLR 07/M04 A3008 720 45 0 000/00 RMK AO2
14837KMSN MSN20071103171509111/03/07 17:15:31  5-MIN KMSN 032315Z 00000KT 10SM CLR 07/M04 A3008 720 47 0 000/00 RMK AO2
14837KMSN MSN20071103172009411/03/07 17:20:31  5-MIN KMSN 032320Z 00000KT 10SM CLR 06/M03 A3008 720 51 -100 000/00 RMK AO2
14837KMSN MSN20071103172509411/03/07 17:25:31  5-MIN KMSN 032325Z 00000KT 10SM CLR 06/M03 A3007 720 51 -100 000/00 RMK AO2
14837KMSN MSN20071103173009111/03/07 17:30:31  5-MIN KMSN 032330Z 00000KT 10SM CLR 07/M03 A3007 720 51 0 000/00 RMK AO2
14837KMSN MSN20071103173509111/03/07 17:35:31  5-MIN KMSN 032335Z 00000KT 10SM CLR 07/M03 A3007 730 51 0 000/00 RMK AO2
14837KMSN MSN20071103174009411/03/07 17:40:31  5-MIN KMSN 032340Z 00000KT 10SM CLR 05/M02 A3006 730 62 -200 000/00 RMK AO2
14837KMSN MSN20071103174509411/03/07 17:45:31  5-MIN KMSN 032345Z 09003KT 10SM CLR 04/M02 A3006 730 64 -300 090/03 RMK AO2
14837KMSN MSN20071103175012911/03/07 17:50:31  5-MIN KMSN 032350Z 00000KT 10SM CLR 04/M02 A3006 730 67 -300 000/00 RMK AO2 SLP189 T00391017 10106 20039 56020
14837KMSN MSN20071103175509411/03/07 17:55:31  5-MIN KMSN 032355Z 11003KT 10SM CLR 04/M02 A3006 730 64 -300 110/03 RMK AO2
14837KMSN MSN20071103180009411/03/07 18:00:31  5-MIN KMSN 040000Z 00000KT 10SM CLR 04/M02 A3006 730 64 -300 000/00 RMK AO2
14837KMSN MSN20071103180509411/03/07 18:05:31  5-MIN KMSN 040005Z 00000KT 10SM CLR 04/M02 A3007 730 64 -300 000/00 RMK AO2
14837KMSN MSN20071103181009411/03/07 18:10:31  5-MIN KMSN 040010Z 00000KT 10SM CLR 04/M02 A3007 730 62 -300 000/00 RMK AO2
14837KMSN MSN20071103183009411/03/07 18:30:31  5-MIN KMSN 040030Z 00000KT 10SM CLR 04/M02 A3006 730 62 -300 000/00 RMK AO2
14837KMSN MSN20071103183509411/03/07 18:35:31  5-MIN KMSN 040035Z 00000KT 10SM CLR 04/M03 A3006 730 59 -300 000/00 RMK AO2
14837KMSN MSN20071103184009411/03/07 18:40:31  5-MIN KMSN 040040Z 00000KT 10SM CLR 04/M02 A3006 730 64 -300 000/00 RMK AO2
14837KMSN MSN20071103184509311/03/07 18:45:31  5-MIN KMSN 040045Z 00000KT 9SM CLR 04/M03 A3006 730 59 -300 000/00 RMK AO2
14837KMSN MSN20071103185011011/03/07 18:50:31  5-MIN KMSN 040050Z 00000KT 9SM CLR 05/M02 A3006 730 59 -200 000/00 RMK AO2 SLP188 T00501022
14837KMSN MSN20071103185509311/03/07 18:55:31  5-MIN KMSN 040055Z 00000KT 9SM CLR 04/M02 A3006 730 64 -300 000/00 RMK AO2
14837KMSN MSN20071103190009311/03/07 19:00:31  5-MIN KMSN 040100Z 00000KT 9SM CLR 04/M03 A3006 730 62 -300 000/00 RMK AO2
14837KMSN MSN20071103190509411/03/07 19:05:31  5-MIN KMSN 040105Z 00000KT 10SM CLR 03/M02 A3006 730 72 -500 000/00 RMK AO2
14837KMSN MSN20071103191009411/03/07 19:10:31  5-MIN KMSN 040110Z 00000KT 10SM CLR 03/M02 A3006 740 70 -400 000/00 RMK AO2
14837KMSN MSN20071103191509411/03/07 19:15:31  5-MIN KMSN 040115Z 00000KT 10SM CLR 04/M01 A3006 740 70 -300 000/00 RMK AO2
14837KMSN MSN20071103192009311/03/07 19:20:31  5-MIN KMSN 040120Z 00000KT 9SM CLR 03/M02 A3006 740 70 -400 000/00 RMK AO2
14837KMSN MSN20071103192509311/03/07 19:25:31  5-MIN KMSN 040125Z 00000KT 9SM CLR 04/M03 A3005 740 59 -300 000/00 RMK AO2
14837KMSN MSN20071103193009411/03/07 19:30:31  5-MIN KMSN 040130Z 00000KT 10SM CLR 04/M02 A3005 740 67 -300 000/00 RMK AO2
14837KMSN MSN20071103193509411/03/07 19:35:31  5-MIN KMSN 040135Z 00000KT 10SM CLR 04/M02 A3005 740 67 -300 000/00 RMK AO2
14837KMSN MSN20071103194009411/03/07 19:40:31  5-MIN KMSN 040140Z 00000KT 10SM CLR 04/M02 A3005 740 67 -300 000/00 RMK AO2
14837KMSN MSN20071103194509411/03/07 19:45:31  5-MIN KMSN 040145Z 00000KT 10SM CLR 04/M02 A3005 740 67 -300 000/00 RMK AO2
14837KMSN MSN20071103195011111/03/07 19:50:31  5-MIN KMSN 040150Z 00000KT 10SM CLR 03/M02 A3005 750 70 -400 000/00 RMK AO2 SLP183 T00331017
14837KMSN MSN20071103195509711/03/07 19:55:31  5-MIN KMSN 040155Z 00000KT 10SM SCT110 03/M02 A3005 750 70 -400 000/00 RMK AO2
14837KMSN MSN20071103200009711/03/07 20:00:31  5-MIN KMSN 040200Z 00000KT 10SM BKN110 03/M02 A3005 750 70 -400 000/00 RMK AO2
14837KMSN MSN20071103200509711/03/07 20:05:31  5-MIN KMSN 040205Z 00000KT 10SM BKN110 03/M02 A3004 750 67 -400 000/00 RMK AO2
14837KMSN MSN20071103201009711/03/07 20:10:31  5-MIN KMSN 040210Z 00000KT 10SM BKN110 04/M02 A3004 750 67 -300 000/00 RMK AO2
14837KMSN MSN20071103201509711/03/07 20:15:31  5-MIN KMSN 040215Z 00000KT 10SM OVC110 04/M02 A3004 750 67 -300 000/00 RMK AO2
14837KMSN MSN20071103202009611/03/07 20:20:31  5-MIN KMSN 040220Z 00000KT 9SM OVC110 03/M02 A3004 750 70 -400 000/00 RMK AO2
14837KMSN MSN20071103202509611/03/07 20:25:31  5-MIN KMSN 040225Z 00000KT 9SM OVC110 03/M02 A3004 750 70 -400 000/00 RMK AO2
14837KMSN MSN20071103203009711/03/07 20:30:31  5-MIN KMSN 040230Z 00000KT 10SM OVC110 04/M02 A3004 750 67 -300 000/00 RMK AO2
14837KMSN MSN20071103203509711/03/07 20:35:31  5-MIN KMSN 040235Z 00000KT 10SM OVC110 04/M02 A3004 750 67 -300 000/00 RMK AO2
14837KMSN MSN20071103204009711/03/07 20:40:31  5-MIN KMSN 040240Z 00000KT 10SM OVC100 03/M02 A3003 760 70 -400 000/00 RMK AO2
14837KMSN MSN20071103204510411/03/07 20:45:31  5-MIN KMSN 040245Z 00000KT 10SM BKN090 OVC110 03/M01 A3004 760 72 -400 000/00 RMK AO2
14837KMSN MSN20071103205012711/03/07 20:50:31  5-MIN KMSN 040250Z 00000KT 10SM BKN090 OVC110 03/M01 A3003 760 72 -400 000/00 RMK AO2 SLP177 T00331011 58013
14837KMSN MSN20071103205510411/03/07 20:55:31  5-MIN KMSN 040255Z 00000KT 10SM BKN090 OVC100 03/M01 A3003 760 72 -400 000/00 RMK AO2
14837KMSN MSN20071103210010411/03/07 21:00:31  5-MIN KMSN 040300Z 00000KT 10SM BKN090 OVC100 04/M01 A3003 760 70 -300 000/00 RMK AO2
14837KMSN MSN20071103210509711/03/07 21:05:31  5-MIN KMSN 040305Z 00000KT 10SM OVC090 04/M01 A3003 760 70 -300 000/00 RMK AO2
14837KMSN MSN20071103211009711/03/07 21:10:31  5-MIN KMSN 040310Z 00000KT 10SM OVC090 04/M01 A3003 760 70 -300 000/00 RMK AO2
14837KMSN MSN20071103211509711/03/07 21:15:31  5-MIN KMSN 040315Z 22003KT 10SM OVC090 04/M02 A3003 760 64 -200 220/03 RMK AO2
14837KMSN MSN20071103212010411/03/07 21:20:31  5-MIN KMSN 040320Z 20004KT 10SM BKN085 OVC100 04/M02 A3003 760 67 -300 200/04 RMK AO2
14837KMSN MSN20071103212509411/03/07 21:25:31  5-MIN KMSN 040325Z 18008KT 10SM OVC085 07/M01 A3002 770 57 0 180/08 RMK AO2
14837KMSN MSN20071103213009611/03/07 21:30:31  5-MIN KMSN 040330Z VRB04KT 10SM OVC085 07/M01 A3002 770 57 100 VRB/04 RMK AO2
14837KMSN MSN20071103213509611/03/07 21:35:31  5-MIN KMSN 040335Z 22004KT 10SM OVC090 07/M01 A3002 770 55 100 220/04 RMK AO2
14837KMSN MSN20071103214009611/03/07 21:40:31  5-MIN KMSN 040340Z 22004KT 10SM OVC090 07/M01 A3002 770 55 100 220/04 RMK AO2
14837KMSN MSN20071103214509611/03/07 21:45:31  5-MIN KMSN 040345Z 21004KT 10SM OVC090 08/M02 A3002 770 51 100 210/04 RMK AO2
14837KMSN MSN20071103215011311/03/07 21:50:31  5-MIN KMSN 040350Z 22005KT 10SM OVC085 08/M02 A3002 770 51 100 220/05 RMK AO2 SLP172 T00781017
14837KMSN MSN20071103215509611/03/07 21:55:31  5-MIN KMSN 040355Z 23006KT 10SM OVC080 08/M02 A3003 770 49 100 230/06 RMK AO2
14837KMSN MSN20071103220009611/03/07 22:00:31  5-MIN KMSN 040400Z 27008KT 10SM OVC075 08/M02 A3003 770 47 200 270/08 RMK AO2
14837KMSN MSN20071103220509611/03/07 22:05:31  5-MIN KMSN 040405Z VRB04KT 10SM OVC070 08/M03 A3003 770 47 100 VRB/04 RMK AO2
14837KMSN MSN20071103221009611/03/07 22:10:31  5-MIN KMSN 040410Z VRB05KT 10SM OVC065 08/M03 A3003 770 47 100 VRB/05 RMK AO2
14837KMSN MSN20071103221509611/03/07 22:15:31  5-MIN KMSN 040415Z 26004KT 10SM OVC065 07/M02 A3002 770 51 100 260/04 RMK AO2
14837KMSN MSN20071103222010211/03/07 22:20:31  5-MIN KMSN 040420Z 25005G15KT 10SM OVC060 07/M02 A3003 770 51 100 250/05G15 RMK AO2
14837KMSN MSN20071103222510211/03/07 22:25:31  5-MIN KMSN 040425Z 25011G18KT 10SM OVC060 07/M01 A3002 770 55 100 250/11G18 RMK AO2
14837KMSN MSN20071103223011711/03/07 22:30:31  5-MIN KMSN 040430Z 24010G18KT 210V270 10SM OVC060 07/00 A3002 770 60 100 230/10G18 210V270 RMK AO2
14837KMSN MSN20071103223510111/03/07 22:35:31  5-MIN KMSN 040435Z 24011G18KT 10SM OVC060 07/00 A3002 770 60 100 240/11G18 RMK AO2
14837KMSN MSN20071103224010111/03/07 22:40:31  5-MIN KMSN 040440Z 24008G18KT 10SM OVC060 07/01 A3002 770 62 100 240/08G18 RMK AO2
14837KMSN MSN20071103224509911/03/07 22:45:31  5-MIN KMSN 040445Z 23006G18KT 10SM OVC060 07/01 A3002 770 65 0 230/06G18 RMK AO2
14837KMSN MSN20071103225013211/03/07 22:50:31  5-MIN KMSN 040450Z 23009G17KT 10SM -RA OVC055 07/01 A3002 770 67 0 230/09G17 RMK AO2 RAB48 SLP171 P0000 T00670011
14837KMSN MSN20071103225511011/03/07 22:55:31  5-MIN KMSN 040455Z 22006KT 10SM -RA BKN060 OVC075 07/01 A3002 780 67 0 220/06 RMK AO2 P0000
14837KMSN MSN20071103230010311/03/07 23:00:31  5-MIN KMSN 040500Z 20005KT 10SM -RA OVC060 07/01 A3001 790 67 0 190/05 RMK AO2 P0000
14837KMSN MSN20071103230510311/03/07 23:05:31  5-MIN KMSN 040505Z 19004KT 10SM -RA OVC060 06/01 A3000 790 70 0 190/04 RMK AO2 P0000
14837KMSN MSN20071103231010311/03/07 23:10:31  5-MIN KMSN 040510Z 16004KT 10SM -RA OVC060 06/02 A3000 790 73 0 160/04 RMK AO2 P0000
14837KMSN MSN20071103231510511/03/07 23:15:31  5-MIN KMSN 040515Z 15003KT 10SM OVC070 06/02 A2999 800 73 0 150/03 RMK AO2 RAE13 P0000
14837KMSN MSN20071103232010811/03/07 23:20:31  5-MIN KMSN 040520Z 13003KT 10SM OVC075 06/02 A2999 800 76 -100 130/03 RMK AO2 RAE13 P0000
14837KMSN MSN20071103232510811/03/07 23:25:31  5-MIN KMSN 040525Z 12003KT 10SM OVC080 06/02 A2999 800 76 -100 120/03 RMK AO2 RAE13 P0000
14837KMSN MSN20071103233010711/03/07 23:30:31  5-MIN KMSN 040530Z 16003KT 9SM OVC080 06/02 A2999 800 76 -100 160/03 RMK AO2 RAE13 P0000
14837KMSN MSN20071103233510411/03/07 23:35:31  5-MIN KMSN 040535Z 19007KT 9SM OVC085 06/02 A2999 800 73 0 190/07 RMK AO2 RAE13 P0000
14837KMSN MSN20071103234010511/03/07 23:40:31  5-MIN KMSN 040540Z 18006KT 10SM OVC085 06/02 A2998 800 73 0 180/06 RMK AO2 RAE13 P0000
14837KMSN MSN20071103234510511/03/07 23:45:31  5-MIN KMSN 040545Z 16006KT 10SM OVC090 06/02 A2998 810 76 0 160/06 RMK AO2 RAE13 P0000
14837KMSN MSN20071103235016311/03/07 23:50:31  5-MIN KMSN 040550Z 16006KT 10SM -RA OVC090 06/02 A2998 810 76 0 160/06 RMK AO2 RAE13B50 SLP155 P0000 60000 T00560017 10083 20028 401061011 58010
14837KMSN MSN20071103235510311/03/07 23:55:31  5-MIN KMSN 040555Z 14005KT 10SM -RA OVC080 06/02 A2997 820 76 0 140/05 RMK AO2 P0000
14837KMSN MSN20071104000010311/04/07 00:00:32  5-MIN KMSN 040600Z 12005KT 10SM -RA OVC080 06/02 A2996 820 76 0 120/05 RMK AO2 P0000
14837KMSN MSN20071104000510311/04/07 00:05:31  5-MIN KMSN 040605Z 14005KT 10SM -RA OVC080 06/02 A2996 830 76 0 140/05 RMK AO2 P0000
14837KMSN MSN20071104001010511/04/07 00:10:31  5-MIN KMSN 040610Z 15007KT 10SM OVC080 06/02 A2996 830 76 0 150/07 RMK AO2 RAE06 P0000
14837KMSN MSN20071104001510511/04/07 00:15:31  5-MIN KMSN 040615Z 14007KT 10SM OVC075 06/02 A2995 830 76 0 140/07 RMK AO2 RAE06 P0000
14837KMSN MSN20071104002010511/04/07 00:20:31  5-MIN KMSN 040620Z 14006KT 10SM OVC075 06/01 A2995 840 73 0 140/06 RMK AO2 RAE06 P0000
14837KMSN MSN20071104002511211/04/07 00:25:31  5-MIN KMSN 040625Z 14005KT 10SM BKN080 BKN110 06/01 A2994 840 73 0 140/05 RMK AO2 RAE06 P0000
14837KMSN MSN20071104003011211/04/07 00:30:31  5-MIN KMSN 040630Z 14006KT 10SM BKN080 BKN110 06/01 A2994 850 73 0 140/06 RMK AO2 RAE06 P0000
14837KMSN MSN20071104003511211/04/07 00:35:31  5-MIN KMSN 040635Z 14006KT 10SM SCT080 BKN100 06/01 A2994 850 73 0 140/06 RMK AO2 RAE06 P0000
14837KMSN MSN20071104004011211/04/07 00:40:31  5-MIN KMSN 040640Z 13005KT 10SM BKN075 OVC100 06/01 A2993 850 73 0 130/05 RMK AO2 RAE06 P0000
14837KMSN MSN20071104004511211/04/07 00:45:31  5-MIN KMSN 040645Z 13005KT 10SM BKN070 OVC100 06/01 A2993 860 73 0 130/05 RMK AO2 RAE06 P0000
14837KMSN MSN20071104005013611/04/07 00:50:31  5-MIN KMSN 040650Z 14006KT 10SM BKN065 BKN080 OVC100 06/01 A2993 860 73 0 140/06 RMK AO2 RAE06 SLP138 P0000 T00560011
14837KMSN MSN20071104005510711/04/07 00:55:31  5-MIN KMSN 040655Z 15006KT 10SM BKN065 BKN090 OVC110 06/01 A2992 860 73 0 150/06 RMK AO2
14837KMSN MSN20071104010010011/04/07 01:00:31  5-MIN KMSN 040700Z 14008KT 10SM BKN070 OVC095 06/01 A2992 870 73 0 140/08 RMK AO2
14837KMSN MSN20071104010510011/04/07 01:05:31  5-MIN KMSN 040705Z 13009KT 10SM BKN070 OVC090 06/01 A2991 870 73 0 130/09 RMK AO2
14837KMSN MSN20071104011010011/04/07 01:10:31  5-MIN KMSN 040710Z 12007KT 10SM BKN070 OVC090 06/01 A2991 880 73 0 120/07 RMK AO2
14837KMSN MSN20071104011510011/04/07 01:15:31  5-MIN KMSN 040715Z 14006KT 10SM BKN070 OVC090 05/01 A2991 880 76 0 140/06 RMK AO2
14837KMSN MSN20071104012010011/04/07 01:20:31  5-MIN KMSN 040720Z 14005KT 10SM BKN070 OVC090 06/01 A2990 880 73 0 140/05 RMK AO2
14837KMSN MSN20071104012509311/04/07 01:25:31  5-MIN KMSN 040725Z 15006KT 10SM OVC070 06/01 A2990 880 73 0 150/06 RMK AO2
14837KMSN MSN20071104013009311/04/07 01:30:31  5-MIN KMSN 040730Z 15008KT 10SM OVC070 06/01 A2990 880 73 0 150/08 RMK AO2
14837KMSN MSN20071104013509311/04/07 01:35:31  5-MIN KMSN 040735Z 17007KT 10SM OVC080 06/01 A2990 880 73 0 170/07 RMK AO2
14837KMSN MSN20071104014009311/04/07 01:40:31  5-MIN KMSN 040740Z 16008KT 10SM OVC080 06/01 A2990 880 73 0 160/08 RMK AO2
14837KMSN MSN20071104014509311/04/07 01:45:31  5-MIN KMSN 040745Z 16006KT 10SM OVC080 06/01 A2990 880 73 0 160/06 RMK AO2
14837KMSN MSN20071104015011011/04/07 01:50:31  5-MIN KMSN 040750Z 16006KT 10SM OVC085 06/01 A2990 890 73 0 150/06 RMK AO2 SLP128 T00560011
14837KMSN MSN20071104015509311/04/07 01:55:31  5-MIN KMSN 040755Z 15006KT 10SM OVC085 06/01 A2989 890 73 0 150/06 RMK AO2
14837KMSN MSN20071104020009311/04/07 02:00:31  5-MIN KMSN 040800Z 15006KT 10SM OVC085 06/01 A2989 890 73 0 150/06 RMK AO2
14837KMSN MSN20071104020509311/04/07 02:05:31  5-MIN KMSN 040805Z 15005KT 10SM OVC085 06/01 A2989 890 73 0 150/05 RMK AO2
14837KMSN MSN20071104021010011/04/07 02:10:31  5-MIN KMSN 040810Z 16005KT 10SM FEW070 OVC085 06/01 A2989 900 73 0 160/05 RMK AO2
14837KMSN MSN20071104021510011/04/07 02:15:31  5-MIN KMSN 040815Z 16004KT 10SM BKN075 OVC090 06/01 A2988 900 73 0 160/04 RMK AO2
14837KMSN MSN20071104022009311/04/07 02:20:31  5-MIN KMSN 040820Z 15005KT 10SM OVC075 06/01 A2988 900 73 0 150/05 RMK AO2
14837KMSN MSN20071104022510011/04/07 02:25:31  5-MIN KMSN 040825Z 15004KT 10SM BKN075 OVC090 06/01 A2988 900 73 0 150/04 RMK AO2
14837KMSN MSN20071104023010011/04/07 02:30:31  5-MIN KMSN 040830Z 15004KT 10SM BKN075 OVC090 06/01 A2988 910 73 0 150/04 RMK AO2
14837KMSN MSN20071104023510011/04/07 02:35:31  5-MIN KMSN 040835Z 14005KT 10SM BKN070 OVC085 06/01 A2987 910 73 0 140/05 RMK AO2
14837KMSN MSN20071104024009311/04/07 02:40:31  5-MIN KMSN 040840Z 15005KT 10SM OVC070 06/01 A2987 910 73 0 150/05 RMK AO2
14837KMSN MSN20071104024509311/04/07 02:45:31  5-MIN KMSN 040845Z 13005KT 10SM OVC070 06/01 A2987 910 73 0 130/05 RMK AO2
14837KMSN MSN20071104025012211/04/07 02:50:31  5-MIN KMSN 040850Z 13005KT 10SM OVC070 05/01 A2987 910 76 0 130/05 RMK AO2 SLP118 60000 T00500011 58020
14837KMSN MSN20071104025509311/04/07 02:55:31  5-MIN KMSN 040855Z 11005KT 10SM OVC070 05/01 A2986 920 76 0 110/05 RMK AO2
14837KMSN MSN20071104030009311/04/07 03:00:31  5-MIN KMSN 040900Z 13004KT 10SM OVC070 05/01 A2986 920 76 0 120/04 RMK AO2
14837KMSN MSN20071104030509311/04/07 03:05:31  5-MIN KMSN 040905Z 12004KT 10SM OVC070 05/01 A2986 920 76 0 120/04 RMK AO2
14837KMSN MSN20071104031009311/04/07 03:10:31  5-MIN KMSN 040910Z 13005KT 10SM OVC070 05/01 A2986 920 76 0 130/05 RMK AO2
14837KMSN MSN20071104031510011/04/07 03:15:31  5-MIN KMSN 040915Z 14004KT 10SM BKN070 OVC110 05/01 A2986 920 76 0 140/04 RMK AO2
14837KMSN MSN20071104032010011/04/07 03:20:31  5-MIN KMSN 040920Z 14006KT 10SM BKN070 OVC110 05/01 A2986 920 76 0 140/06 RMK AO2
14837KMSN MSN20071104032510011/04/07 03:25:31  5-MIN KMSN 040925Z 15006KT 10SM SCT070 OVC110 05/01 A2986 920 76 0 150/06 RMK AO2
14837KMSN MSN20071104033010011/04/07 03:30:31  5-MIN KMSN 040930Z 15006KT 10SM SCT070 OVC100 06/01 A2986 920 73 0 140/06 RMK AO2
14837KMSN MSN20071104033510011/04/07 03:35:31  5-MIN KMSN 040935Z 15007KT 10SM FEW070 OVC100 06/01 A2986 920 73 0 150/07 RMK AO2
14837KMSN MSN20071104034009311/04/07 03:40:31  5-MIN KMSN 040940Z 15007KT 10SM OVC100 06/01 A2986 920 73 0 150/07 RMK AO2
14837KMSN MSN20071104034509311/04/07 03:45:31  5-MIN KMSN 040945Z 15007KT 10SM OVC100 06/01 A2985 930 73 0 150/07 RMK AO2
14837KMSN MSN20071104035011011/04/07 03:50:31  5-MIN KMSN 040950Z 15008KT 10SM OVC100 05/01 A2985 930 76 0 150/08 RMK AO2 SLP113 T00500011
14837KMSN MSN20071104035509311/04/07 03:55:31  5-MIN KMSN 040955Z 16007KT 10SM OVC100 05/01 A2985 930 76 0 160/07 RMK AO2
14837KMSN MSN20071104040009511/04/07 04:00:31  5-MIN KMSN 041000Z 16007KT 10SM OVC110 06/01 A2985 930 73 100 160/07 RMK AO2
14837KMSN MSN20071104040509311/04/07 04:05:31  5-MIN KMSN 041005Z 17007KT 10SM OVC110 06/02 A2985 930 76 0 170/07 RMK AO2
14837KMSN MSN20071104041009311/04/07 04:10:31  5-MIN KMSN 041010Z 17008KT 10SM OVC110 06/02 A2985 930 76 0 160/08 RMK AO2
14837KMSN MSN20071104041509311/04/07 04:15:31  5-MIN KMSN 041015Z 16008KT 10SM OVC110 06/02 A2985 930 76 0 160/08 RMK AO2
14837KMSN MSN20071104042009311/04/07 04:20:31  5-MIN KMSN 041020Z 16008KT 10SM OVC110 06/02 A2985 930 76 0 160/08 RMK AO2
14837KMSN MSN20071104042509311/04/07 04:25:31  5-MIN KMSN 041025Z 16008KT 10SM OVC110 05/02 A2985 930 79 0 160/08 RMK AO2
14837KMSN MSN20071104043009311/04/07 04:30:31  5-MIN KMSN 041030Z 16009KT 10SM OVC110 05/02 A2985 930 79 0 160/09 RMK AO2
14837KMSN MSN20071104043509311/04/07 04:35:31  5-MIN KMSN 041035Z 16008KT 10SM BKN110 05/01 A2985 930 76 0 160/08 RMK AO2
14837KMSN MSN20071104044009311/04/07 04:40:31  5-MIN KMSN 041040Z 16008KT 10SM BKN110 05/01 A2985 930 76 0 160/08 RMK AO2
14837KMSN MSN20071104044509311/04/07 04:45:31  5-MIN KMSN 041045Z 16008KT 10SM BKN100 05/02 A2985 930 79 0 160/08 RMK AO2
14837KMSN MSN20071104045010911/04/07 04:50:31  5-MIN KMSN 041050Z 16007KT 9SM BKN100 05/02 A2985 930 79 0 160/07 RMK AO2 SLP112 T00500017
14837KMSN MSN20071104045509311/04/07 04:55:31  5-MIN KMSN 041055Z 16007KT 10SM BKN100 05/02 A2985 930 79 0 160/07 RMK AO2
14837KMSN MSN20071104050009311/04/07 05:00:31  5-MIN KMSN 041100Z 17006KT 10SM BKN100 05/02 A2985 930 79 0 170/06 RMK AO2
14837KMSN MSN20071104050509311/04/07 05:05:31  5-MIN KMSN 041105Z 17005KT 10SM OVC100 05/02 A2985 930 79 0 170/05 RMK AO2
14837KMSN MSN20071104051009311/04/07 05:10:31  5-MIN KMSN 041110Z 16006KT 10SM OVC100 05/02 A2985 930 79 0 160/06 RMK AO2
14837KMSN MSN20071104051509311/04/07 05:15:31  5-MIN KMSN 041115Z 15006KT 10SM OVC100 05/02 A2984 930 79 0 150/06 RMK AO2
14837KMSN MSN20071104052009311/04/07 05:20:31  5-MIN KMSN 041120Z 16006KT 10SM OVC100 04/02 A2984 930 82 0 160/06 RMK AO2
14837KMSN MSN20071104052509311/04/07 05:25:31  5-MIN KMSN 041125Z 16007KT 10SM OVC100 04/02 A2984 940 82 0 160/07 RMK AO2
14837KMSN MSN20071104053009311/04/07 05:30:31  5-MIN KMSN 041130Z 16006KT 10SM OVC100 04/02 A2984 940 82 0 160/06 RMK AO2
14837KMSN MSN20071104053509311/04/07 05:35:31  5-MIN KMSN 041135Z 16007KT 10SM OVC100 04/02 A2984 940 82 0 160/07 RMK AO2
14837KMSN MSN20071104054009311/04/07 05:40:31  5-MIN KMSN 041140Z 17007KT 10SM OVC100 04/02 A2984 940 82 0 170/07 RMK AO2
14837KMSN MSN20071104054509311/04/07 05:45:31  5-MIN KMSN 041145Z 17007KT 10SM BKN100 04/02 A2984 930 82 0 170/07 RMK AO2
14837KMSN MSN20071104055013411/04/07 05:50:31  5-MIN KMSN 041150Z 17008KT 10SM BKN095 04/01 A2984 940 79 0 170/08 RMK AO2 SLP112 60000 T00440011 10056 20044 56035
14837KMSN MSN20071104055509311/04/07 05:55:31  5-MIN KMSN 041155Z 16008KT 10SM BKN095 04/01 A2984 940 79 0 160/08 RMK AO2
14837KMSN MSN20071104060009311/04/07 06:00:31  5-MIN KMSN 041200Z 16007KT 10SM SCT095 04/01 A2984 940 79 0 160/07 RMK AO2
14837KMSN MSN20071104060509611/04/07 06:05:31  5-MIN KMSN 041205Z 16007KT 10SM FEW095 04/01 A2984 940 82 -100 160/07 RMK AO2
14837KMSN MSN20071104061009611/04/07 06:10:31  5-MIN KMSN 041210Z 16007KT 10SM FEW095 04/01 A2984 940 82 -100 160/07 RMK AO2
14837KMSN MSN20071104061509311/04/07 06:15:31  5-MIN KMSN 041215Z 17007KT 10SM FEW095 04/01 A2984 940 79 0 170/07 RMK AO2
14837KMSN MSN20071104062009011/04/07 06:20:31  5-MIN KMSN 041220Z 17008KT 10SM CLR 04/01 A2984 940 79 0 170/08 RMK AO2
14837KMSN MSN20071104062509611/04/07 06:25:31  5-MIN KMSN 041225Z 17008KT 10SM FEW090 04/01 A2984 940 82 -100 170/08 RMK AO2
14837KMSN MSN20071104063009611/04/07 06:30:31  5-MIN KMSN 041230Z 17007KT 10SM FEW090 04/01 A2984 940 82 -100 170/07 RMK AO2
14837KMSN MSN20071104063509211/04/07 06:35:31  5-MIN KMSN 041235Z 18006KT 9SM FEW090 04/01 A2984 940 79 0 180/06 RMK AO2
14837KMSN MSN20071104064009511/04/07 06:40:31  5-MIN KMSN 041240Z 17005KT 9SM SCT090 04/01 A2984 940 82 -100 170/05 RMK AO2
14837KMSN MSN20071104064509511/04/07 06:45:31  5-MIN KMSN 041245Z 19006KT 9SM BKN090 04/01 A2984 940 82 -100 190/06 RMK AO2
14837KMSN MSN20071104065011311/04/07 06:50:31  5-MIN KMSN 041250Z 18005KT 10SM BKN090 04/01 A2984 940 82 -100 180/05 RMK AO2 SLP112 T00390011
14837KMSN MSN20071104065509511/04/07 06:55:31  5-MIN KMSN 041255Z 17004KT 8SM BKN090 04/01 A2984 930 82 -100 170/04 RMK AO2
14837KMSN MSN20071104070009511/04/07 07:00:31  5-MIN KMSN 041300Z 17003KT 8SM BKN090 04/01 A2985 930 82 -100 160/03 RMK AO2
14837KMSN MSN20071104070509511/04/07 07:05:31  5-MIN KMSN 041305Z 17003KT 8SM BKN090 04/01 A2985 930 82 -100 170/03 RMK AO2
14837KMSN MSN20071104071010211/04/07 07:10:31  5-MIN KMSN 041310Z 15003KT 8SM FEW080 SCT090 04/01 A2984 930 82 -100 150/03 RMK AO2
14837KMSN MSN20071104071509511/04/07 07:15:31  5-MIN KMSN 041315Z 15004KT 8SM SCT090 03/01 A2984 940 85 -200 150/04 RMK AO2
14837KMSN MSN20071104072009511/04/07 07:20:31  5-MIN KMSN 041320Z 18003KT 8SM FEW090 03/01 A2985 930 85 -200 170/03 RMK AO2
14837KMSN MSN20071104072509511/04/07 07:25:31  5-MIN KMSN 041325Z 18003KT 8SM FEW085 04/01 A2985 930 82 -100 180/03 RMK AO2
14837KMSN MSN20071104073009511/04/07 07:30:31  5-MIN KMSN 041330Z 00000KT 8SM FEW085 04/01 A2985 930 82 -100 000/00 RMK AO2
14837KMSN MSN20071104073509511/04/07 07:35:31  5-MIN KMSN 041335Z 00000KT 8SM FEW085 04/02 A2985 930 85 -100 000/00 RMK AO2
14837KMSN MSN20071104074009211/04/07 07:40:31  5-MIN KMSN 041340Z 00000KT 7SM FEW014 04/02 A2985 930 82 0 000/00 RMK AO2
14837KMSN MSN20071104074509211/04/07 07:45:31  5-MIN KMSN 041345Z 00000KT 7SM FEW014 04/02 A2985 930 82 0 000/00 RMK AO2
14837KMSN MSN20071104075011711/04/07 07:50:31  5-MIN KMSN 041350Z 00000KT 10SM FEW014 SCT100 04/02 A2986 920 82 0 000/00 RMK AO2 SLP117 T00440017
14837KMSN MSN20071104075509211/04/07 07:55:31  5-MIN KMSN 041355Z 00000KT 8SM CLR 04/02 A2986 920 85 -100 000/00 RMK AO2
14837KMSN MSN20071104080008911/04/07 08:00:31  5-MIN KMSN 041400Z 00000KT 7SM CLR 04/02 A2986 920 82 0 000/00 RMK AO2
14837KMSN MSN20071104080508911/04/07 08:05:31  5-MIN KMSN 041405Z 30003KT 8SM CLR 04/02 A2986 920 82 0 300/03 RMK AO2
14837KMSN MSN20071104081008911/04/07 08:10:31  5-MIN KMSN 041410Z 28004KT 8SM CLR 04/02 A2986 920 82 0 280/04 RMK AO2
14837KMSN MSN20071104081508911/04/07 08:15:31  5-MIN KMSN 041415Z 30004KT 8SM CLR 05/01 A2986 920 76 0 300/04 RMK AO2
14837KMSN MSN20071104082008911/04/07 08:20:31  5-MIN KMSN 041420Z 31005KT 8SM CLR 05/01 A2986 920 76 0 310/05 RMK AO2
14837KMSN MSN20071104082508911/04/07 08:25:31  5-MIN KMSN 041425Z 30003KT 8SM CLR 05/01 A2986 920 76 0 300/03 RMK AO2
14837KMSN MSN20071104083008911/04/07 08:30:31  5-MIN KMSN 041430Z 32006KT 8SM CLR 05/01 A2986 920 76 0 320/06 RMK AO2
14837KMSN MSN20071104083508911/04/07 08:35:31  5-MIN KMSN 041435Z 30006KT 8SM CLR 05/01 A2986 920 76 0 300/06 RMK AO2
14837KMSN MSN20071104084008911/04/07 08:40:31  5-MIN KMSN 041440Z 32005KT 8SM CLR 05/01 A2987 920 76 0 310/05 RMK AO2
14837KMSN MSN20071104084508911/04/07 08:45:31  5-MIN KMSN 041445Z 32007KT 9SM CLR 05/01 A2987 910 76 0 320/07 RMK AO2
14837KMSN MSN20071104085011211/04/07 08:50:31  5-MIN KMSN 041450Z 31006KT 8SM CLR 05/01 A2987 910 76 0 300/06 RMK AO2 SLP120 T00500011 56008
14837KMSN MSN20071104085508911/04/07 08:55:31  5-MIN KMSN 041455Z 32005KT 8SM CLR 06/01 A2987 910 73 0 320/05 RMK AO2
14837KMSN MSN20071104090008911/04/07 09:00:31  5-MIN KMSN 041500Z 29005KT 8SM CLR 06/01 A2987 910 73 0 290/05 RMK AO2
14837KMSN MSN20071104090509111/04/07 09:05:31  5-MIN KMSN 041505Z 33006KT 8SM CLR 06/02 A2987 910 73 100 330/06 RMK AO2
14837KMSN MSN20071104091009111/04/07 09:10:31  5-MIN KMSN 041510Z 31005KT 8SM CLR 06/02 A2987 910 73 100 310/05 RMK AO2
14837KMSN MSN20071104091509111/04/07 09:15:31  5-MIN KMSN 041515Z 34006KT 9SM CLR 06/02 A2987 910 73 100 340/06 RMK AO2
14837KMSN MSN20071104092009111/04/07 09:20:31  5-MIN KMSN 041520Z 33007KT 9SM CLR 07/02 A2987 910 70 200 330/07 RMK AO2
14837KMSN MSN20071104092509111/04/07 09:25:31  5-MIN KMSN 041525Z 34006KT 9SM CLR 07/02 A2988 910 70 200 340/06 RMK AO2
14837KMSN MSN20071104093009111/04/07 09:30:31  5-MIN KMSN 041530Z 33009KT 9SM CLR 07/02 A2988 910 70 200 320/09 RMK AO2
14837KMSN MSN20071104093509111/04/07 09:35:31  5-MIN KMSN 041535Z 31006KT 9SM CLR 07/02 A2988 910 70 200 300/06 RMK AO2
14837KMSN MSN20071104094009111/04/07 09:40:31  5-MIN KMSN 041540Z 34008KT 9SM CLR 07/02 A2988 910 70 200 340/08 RMK AO2
14837KMSN MSN20071104094509111/04/07 09:45:31  5-MIN KMSN 041545Z 33008KT 9SM CLR 07/02 A2988 910 68 200 330/08 RMK AO2
14837KMSN MSN20071104095011211/04/07 09:50:31  5-MIN KMSN 041550Z 34009KT 10SM FEW025 07/02 A2988 900 68 200 340/09 RMK AO2 SLP122 T00720017
14837KMSN MSN20071104095509111/04/07 09:55:31  5-MIN KMSN 041555Z 33007KT 9SM CLR 07/02 A2988 900 68 200 330/07 RMK AO2
14837KMSN MSN20071104100009111/04/07 10:00:31  5-MIN KMSN 041600Z 31007KT 9SM CLR 07/01 A2988 900 65 200 310/07 RMK AO2
14837KMSN MSN20071104100509111/04/07 10:05:31  5-MIN KMSN 041605Z 32007KT 9SM CLR 08/02 A2988 900 65 300 320/07 RMK AO2
14837KMSN MSN20071104101009111/04/07 10:10:31  5-MIN KMSN 041610Z 34007KT 9SM CLR 08/02 A2988 900 65 300 340/07 RMK AO2
14837KMSN MSN20071104101509111/04/07 10:15:31  5-MIN KMSN 041615Z VRB06KT 9SM CLR 08/02 A2989 900 65 300 VRB/06 RMK AO2
14837KMSN MSN20071104102009111/04/07 10:20:31  5-MIN KMSN 041620Z VRB06KT 9SM CLR 08/02 A2989 890 63 300 VRB/06 RMK AO2
14837KMSN MSN20071104102509111/04/07 10:25:31  5-MIN KMSN 041625Z 30007KT 9SM CLR 08/01 A2989 890 62 300 300/07 RMK AO2
14837KMSN MSN20071104103009111/04/07 10:30:31  5-MIN KMSN 041630Z 33006KT 9SM CLR 08/01 A2989 890 60 300 330/06 RMK AO2
14837KMSN MSN20071104103509111/04/07 10:35:31  5-MIN KMSN 041635Z 32007KT 9SM CLR 08/01 A2989 890 60 300 320/07 RMK AO2
14837KMSN MSN20071104104009111/04/07 10:40:31  5-MIN KMSN 041640Z 33009KT 9SM CLR 08/01 A2989 890 60 300 330/09 RMK AO2
14837KMSN MSN20071104104509111/04/07 10:45:31  5-MIN KMSN 041645Z 34006KT 9SM CLR 08/01 A2989 900 60 300 340/06 RMK AO2
14837KMSN MSN20071104105010811/04/07 10:50:31  5-MIN KMSN 041650Z 34007KT 9SM CLR 09/01 A2989 900 58 400 340/07 RMK AO2 SLP125 T00890011
14837KMSN MSN20071104105509111/04/07 10:55:31  5-MIN KMSN 041655Z 33007KT 9SM CLR 09/02 A2989 900 60 400 330/07 RMK AO2
14837KMSN MSN20071104110009111/04/07 11:00:31  5-MIN KMSN 041700Z 34009KT 9SM CLR 09/01 A2989 890 58 400 340/09 RMK AO2
14837KMSN MSN20071104110509111/04/07 11:05:31  5-MIN KMSN 041705Z VRB06KT 9SM CLR 09/01 A2989 900 58 400 VRB/06 RMK AO2
14837KMSN MSN20071104111009111/04/07 11:10:31  5-MIN KMSN 041710Z 32006KT 9SM CLR 09/01 A2989 890 56 500 320/06 RMK AO2
14837KMSN MSN20071104111509111/04/07 11:15:31  5-MIN KMSN 041715Z 34007KT 9SM CLR 09/01 A2989 890 56 500 340/07 RMK AO2
14837KMSN MSN20071104112009111/04/07 11:20:31  5-MIN KMSN 041720Z 30006KT 9SM CLR 09/01 A2989 900 56 500 300/06 RMK AO2
14837KMSN MSN20071104112510711/04/07 11:25:31  5-MIN KMSN 041725Z 30007KT 270V340 9SM CLR 09/01 A2989 890 53 500 300/07 270V340 RMK AO2
14837KMSN MSN20071104113009111/04/07 11:30:31  5-MIN KMSN 041730Z 32008KT 9SM CLR 09/01 A2989 890 53 500 320/08 RMK AO2
14837KMSN MSN20071104113510711/04/07 11:35:31  5-MIN KMSN 041735Z 30007KT 270V350 9SM CLR 10/01 A2989 890 52 500 300/07 270V350 RMK AO2
14837KMSN MSN20071104114009411/04/07 11:40:31  5-MIN KMSN 041740Z 32008KT 9SM FEW038 10/01 A2989 900 52 600 320/08 RMK AO2
14837KMSN MSN20071104114509411/04/07 11:45:31  5-MIN KMSN 041745Z VRB06KT 9SM FEW038 10/01 A2989 900 52 600 VRB/06 RMK AO2
14837KMSN MSN20071104115012911/04/07 11:50:31  5-MIN KMSN 041750Z VRB06KT 9SM FEW038 10/00 A2988 900 49 600 VRB/06 RMK AO2 SLP124 T01000000 10100 20033 53008
14837KMSN MSN20071104115509411/04/07 11:55:31  5-MIN KMSN 041755Z 32007KT 9SM FEW038 11/01 A2988 900 50 600 320/07 RMK AO2
14837KMSN MSN20071104120009411/04/07 12:00:31  5-MIN KMSN 041800Z 34007KT 9SM FEW038 10/00 A2988 900 49 600 340/07 RMK AO2
14837KMSN MSN20071104120509411/04/07 12:05:31  5-MIN KMSN 041805Z 28004KT 9SM FEW038 11/01 A2988 900 52 600 280/04 RMK AO2
14837KMSN MSN20071104121009411/04/07 12:10:31  5-MIN KMSN 041810Z 31008KT 9SM FEW038 11/01 A2988 900 50 600 310/08 RMK AO2
14837KMSN MSN20071104121509411/04/07 12:15:31  5-MIN KMSN 041815Z 31006KT 9SM FEW038 11/00 A2987 910 48 600 300/06 RMK AO2
14837KMSN MSN20071104122009511/04/07 12:20:31  5-MIN KMSN 041820Z 31007KT 9SM FEW038 11/M01 A2987 910 46 600 310/07 RMK AO2
14837KMSN MSN20071104122509511/04/07 12:25:31  5-MIN KMSN 041825Z 32009KT 9SM FEW038 11/M01 A2987 910 46 600 320/09 RMK AO2
14837KMSN MSN20071104123010111/04/07 12:30:31  5-MIN KMSN 041830Z 30009G15KT 9SM FEW038 11/M01 A2987 910 46 600 300/09G15 RMK AO2
14837KMSN MSN20071104123510111/04/07 12:35:31  5-MIN KMSN 041835Z 31008G15KT 9SM FEW038 11/M01 A2987 910 46 600 310/08G15 RMK AO2
14837KMSN MSN20071104124009511/04/07 12:40:31  5-MIN KMSN 041840Z 29006KT 9SM FEW038 11/M01 A2987 910 46 600 290/06 RMK AO2
14837KMSN MSN20071104124509411/04/07 12:45:31  5-MIN KMSN 041845Z VRB06KT 9SM FEW038 11/00 A2987 910 48 600 VRB/06 RMK AO2
14837KMSN MSN20071104125011211/04/07 12:50:31  5-MIN KMSN 041850Z VRB06KT 9SM FEW043 11/M01 A2986 920 44 700 VRB/06 RMK AO2 SLP117 T01111006
14837KMSN MSN20071104125509211/04/07 12:55:31  5-MIN KMSN 041855Z 30005KT 9SM CLR 11/M01 A2986 920 46 600 300/05 RMK AO2
14837KMSN MSN20071104130009211/04/07 13:00:31  5-MIN KMSN 041900Z 31009KT 9SM CLR 11/M01 A2986 920 44 700 310/09 RMK AO2
14837KMSN MSN20071104130509211/04/07 13:05:31  5-MIN KMSN 041905Z 31006KT 9SM CLR 11/M01 A2986 920 42 700 310/06 RMK AO2
14837KMSN MSN20071104131011111/04/07 13:10:31  5-MIN KMSN 041910Z 29008KT 240V320 9SM FEW050 11/M01 A2986 920 44 700 280/08 240V320 RMK AO2
14837KMSN MSN20071104131509511/04/07 13:15:31  5-MIN KMSN 041915Z 28007KT 9SM FEW050 11/M01 A2986 920 44 600 280/07 RMK AO2
14837KMSN MSN20071104132009511/04/07 13:20:31  5-MIN KMSN 041920Z 29006KT 9SM FEW050 11/M01 A2986 920 44 600 290/06 RMK AO2
14837KMSN MSN20071104132509511/04/07 13:25:31  5-MIN KMSN 041925Z VRB05KT 9SM FEW050 11/M01 A2986 920 46 600 VRB/05 RMK AO2
14837KMSN MSN20071104133009511/04/07 13:30:31  5-MIN KMSN 041930Z VRB03KT 9SM FEW050 11/M01 A2986 920 44 700 VRB/03 RMK AO2
14837KMSN MSN20071104133509511/04/07 13:35:31  5-MIN KMSN 041935Z 31009KT 9SM FEW050 11/M01 A2986 920 44 700 310/09 RMK AO2
14837KMSN MSN20071104134010111/04/07 13:40:31  5-MIN KMSN 041940Z 30009G14KT 9SM FEW050 11/M01 A2986 920 44 700 300/09G14 RMK AO2
14837KMSN MSN20071104134510111/04/07 13:45:31  5-MIN KMSN 041945Z 30005G14KT 9SM FEW050 11/M01 A2986 920 42 700 300/05G14 RMK AO2
14837KMSN MSN20071104135011211/04/07 13:50:31  5-MIN KMSN 041950Z 27005KT 9SM FEW050 12/M01 A2985 930 41 800 270/05 RMK AO2 SLP113 T01171011
14837KMSN MSN20071104135509211/04/07 13:55:31  5-MIN KMSN 041955Z 28007KT 9SM CLR 11/M02 A2985 930 41 700 280/07 RMK AO2
14837KMSN MSN20071104140009211/04/07 14:00:31  5-MIN KMSN 042000Z 26005KT 9SM CLR 11/M02 A2986 920 41 700 260/05 RMK AO2
14837KMSN MSN20071104140509211/04/07 14:05:31  5-MIN KMSN 042005Z VRB06KT 9SM CLR 11/M02 A2986 920 42 700 VRB/06 RMK AO2
14837KMSN MSN20071104141009211/04/07 14:10:31  5-MIN KMSN 042010Z 29005KT 9SM CLR 11/M02 A2986 920 40 600 290/05 RMK AO2
14837KMSN MSN20071104141509211/04/07 14:15:31  5-MIN KMSN 042015Z 29004KT 9SM CLR 11/M02 A2986 920 40 600 290/04 RMK AO2
14837KMSN MSN20071104142009211/04/07 14:20:31  5-MIN KMSN 042020Z 30005KT 9SM CLR 11/M02 A2986 920 40 600 300/05 RMK AO2
14837KMSN MSN20071104142509211/04/07 14:25:31  5-MIN KMSN 042025Z 30005KT 9SM CLR 11/M02 A2986 920 40 600 300/05 RMK AO2
14837KMSN MSN20071104143009211/04/07 14:30:31  5-MIN KMSN 042030Z 27003KT 9SM CLR 11/M02 A2986 920 40 600 270/03 RMK AO2
14837KMSN MSN20071104143509211/04/07 14:35:31  5-MIN KMSN 042035Z VRB03KT 9SM CLR 12/M02 A2986 920 38 800 VRB/03 RMK AO2
14837KMSN MSN20071104144009211/04/07 14:40:31  5-MIN KMSN 042040Z 29004KT 9SM CLR 12/M03 A2986 920 36 800 290/04 RMK AO2
14837KMSN MSN20071104144509211/04/07 14:45:31  5-MIN KMSN 042045Z 31005KT 9SM CLR 12/M03 A2986 920 36 800 310/05 RMK AO2
14837KMSN MSN20071104145011511/04/07 14:50:31  5-MIN KMSN 042050Z 29005KT 9SM CLR 12/M03 A2986 920 35 800 290/05 RMK AO2 SLP117 T01171033 50006
14837KMSN MSN20071104145509211/04/07 14:55:31  5-MIN KMSN 042055Z 28004KT 9SM CLR 12/M03 A2986 920 35 800 280/04 RMK AO2
14837KMSN MSN20071104150009311/04/07 15:00:31  5-MIN KMSN 042100Z 28006KT 10SM CLR 12/M03 A2986 920 33 800 270/06 RMK AO2
14837KMSN MSN20071104150509311/04/07 15:05:31  5-MIN KMSN 042105Z 28006KT 10SM CLR 12/M04 A2986 920 32 800 280/06 RMK AO2
14837KMSN MSN20071104151009311/04/07 15:10:31  5-MIN KMSN 042110Z 28007KT 10SM CLR 12/M03 A2986 920 33 800 280/07 RMK AO2
14837KMSN MSN20071104151509311/04/07 15:15:31  5-MIN KMSN 042115Z 27010KT 10SM CLR 12/M04 A2986 920 33 800 270/10 RMK AO2
14837KMSN MSN20071104152009311/04/07 15:20:31  5-MIN KMSN 042120Z 28004KT 10SM CLR 12/M04 A2986 920 33 800 270/04 RMK AO2
14837KMSN MSN20071104152509311/04/07 15:25:31  5-MIN KMSN 042125Z 29006KT 10SM CLR 12/M04 A2986 920 33 800 290/06 RMK AO2
14837KMSN MSN20071104153009311/04/07 15:30:31  5-MIN KMSN 042130Z 26003KT 10SM CLR 12/M03 A2986 920 35 800 260/03 RMK AO2
14837KMSN MSN20071104153509311/04/07 15:35:31  5-MIN KMSN 042135Z 28005KT 10SM CLR 12/M03 A2986 920 35 800 280/05 RMK AO2
14837KMSN MSN20071104154009311/04/07 15:40:31  5-MIN KMSN 042140Z VRB05KT 10SM CLR 12/M04 A2986 920 33 800 VRB/05 RMK AO2
14837KMSN MSN20071104154509311/04/07 15:45:31  5-MIN KMSN 042145Z 28004KT 10SM CLR 12/M04 A2986 920 32 800 280/04 RMK AO2
14837KMSN MSN20071104155011011/04/07 15:50:31  5-MIN KMSN 042150Z 27004KT 10SM CLR 12/M04 A2985 930 33 800 270/04 RMK AO2 SLP114 T01171039
14837KMSN MSN20071104155509211/04/07 15:55:31  5-MIN KMSN 042155Z 27003KT 9SM CLR 12/M04 A2985 930 32 800 270/03 RMK AO2
14837KMSN MSN20071104160009211/04/07 16:00:31  5-MIN KMSN 042200Z 00000KT 9SM CLR 11/M04 A2985 930 33 700 000/00 RMK AO2
14837KMSN MSN20071104160509211/04/07 16:05:31  5-MIN KMSN 042205Z 26004KT 9SM CLR 11/M04 A2985 930 33 700 260/04 RMK AO2
14837KMSN MSN20071104161009211/04/07 16:10:31  5-MIN KMSN 042210Z 00000KT 9SM CLR 11/M04 A2985 930 34 700 000/00 RMK AO2
14837KMSN MSN20071104161509211/04/07 16:15:31  5-MIN KMSN 042215Z 26004KT 9SM CLR 11/M04 A2985 930 33 700 260/04 RMK AO2
14837KMSN MSN20071104162009211/04/07 16:20:31  5-MIN KMSN 042220Z VRB03KT 9SM CLR 11/M04 A2985 930 34 700 VRB/03 RMK AO2
14837KMSN MSN20071104162509211/04/07 16:25:31  5-MIN KMSN 042225Z 00000KT 9SM CLR 11/M04 A2985 930 34 700 000/00 RMK AO2
14837KMSN MSN20071104163009211/04/07 16:30:31  5-MIN KMSN 042230Z 00000KT 9SM CLR 11/M04 A2985 930 34 700 000/00 RMK AO2
14837KMSN MSN20071104163509211/04/07 16:35:31  5-MIN KMSN 042235Z 26003KT 9SM CLR 10/M04 A2985 930 37 600 260/03 RMK AO2
14837KMSN MSN20071104164009211/04/07 16:40:31  5-MIN KMSN 042240Z 00000KT 9SM CLR 10/M04 A2985 930 37 600 000/00 RMK AO2
14837KMSN MSN20071104164509211/04/07 16:45:31  5-MIN KMSN 042245Z 00000KT 8SM CLR 10/M04 A2985 930 37 600 000/00 RMK AO2
14837KMSN MSN20071104165010911/04/07 16:50:31  5-MIN KMSN 042250Z 00000KT 8SM CLR 10/M04 A2985 930 37 600 000/00 RMK AO2 SLP113 T01001039
14837KMSN MSN20071104165509211/04/07 16:55:31  5-MIN KMSN 042255Z 00000KT 9SM CLR 09/M04 A2985 930 39 500 000/00 RMK AO2
14837KMSN MSN20071104170009211/04/07 17:00:31  5-MIN KMSN 042300Z 00000KT 9SM CLR 09/M04 A2985 930 39 500 000/00 RMK AO2
14837KMSN MSN20071104170509311/04/07 17:05:31  5-MIN KMSN 042305Z 00000KT 10SM CLR 09/M04 A2985 930 39 500 000/00 RMK AO2
14837KMSN MSN20071104171009311/04/07 17:10:31  5-MIN KMSN 042310Z 00000KT 10SM CLR 09/M04 A2985 930 39 500 000/00 RMK AO2
14837KMSN MSN20071104171509311/04/07 17:15:31  5-MIN KMSN 042315Z 00000KT 10SM CLR 09/M04 A2985 930 40 500 000/00 RMK AO2
14837KMSN MSN20071104172009311/04/07 17:20:31  5-MIN KMSN 042320Z 00000KT 10SM CLR 08/M03 A2985 930 43 400 000/00 RMK AO2
14837KMSN MSN20071104172509311/04/07 17:25:31  5-MIN KMSN 042325Z 00000KT 10SM CLR 08/M03 A2985 930 43 400 000/00 RMK AO2
14837KMSN MSN20071104173009311/04/07 17:30:31  5-MIN KMSN 042330Z 00000KT 10SM CLR 08/M03 A2985 930 47 300 000/00 RMK AO2
14837KMSN MSN20071104173509311/04/07 17:35:31  5-MIN KMSN 042335Z 22003KT 10SM CLR 08/M03 A2985 930 43 400 220/03 RMK AO2
14837KMSN MSN20071104174009311/04/07 17:40:31  5-MIN KMSN 042340Z 00000KT 10SM CLR 08/M03 A2985 930 43 400 000/00 RMK AO2
14837KMSN MSN20071104174509311/04/07 17:45:31  5-MIN KMSN 042345Z 22003KT 10SM CLR 08/M03 A2985 930 47 300 220/03 RMK AO2
14837KMSN MSN20071104175012811/04/07 17:50:31  5-MIN KMSN 042350Z 22003KT 10SM CLR 07/M03 A2985 930 49 300 220/03 RMK AO2 SLP113 T00721028 10122 20072 55008
14837KMSN MSN20071104175509311/04/07 17:55:31  5-MIN KMSN 042355Z 21003KT 10SM CLR 07/M03 A2985 930 49 300 210/03 RMK AO2
14837KMSN MSN20071104180009311/04/07 18:00:31  5-MIN KMSN 050000Z 21003KT 10SM CLR 07/M02 A2985 930 51 300 210/03 RMK AO2
14837KMSN MSN20071104180509311/04/07 18:05:31  5-MIN KMSN 050005Z 00000KT 10SM CLR 07/M02 A2984 930 53 200 000/00 RMK AO2
14837KMSN MSN20071104181009311/04/07 18:10:31  5-MIN KMSN 050010Z 00000KT 10SM CLR 06/M02 A2984 940 55 100 000/00 RMK AO2
14837KMSN MSN20071104181509311/04/07 18:15:31  5-MIN KMSN 050015Z 00000KT 10SM CLR 06/M02 A2984 940 55 100 000/00 RMK AO2
14837KMSN MSN20071104182009311/04/07 18:20:31  5-MIN KMSN 050020Z 00000KT 10SM CLR 06/M02 A2984 940 59 100 000/00 RMK AO2
14837KMSN MSN20071104182509311/04/07 18:25:31  5-MIN KMSN 050025Z 20003KT 10SM CLR 06/M02 A2985 930 57 100 200/03 RMK AO2
14837KMSN MSN20071104183009311/04/07 18:30:31  5-MIN KMSN 050030Z 00000KT 10SM CLR 06/M02 A2985 930 59 100 000/00 RMK AO2
14837KMSN MSN20071104183509311/04/07 18:35:31  5-MIN KMSN 050035Z 00000KT 10SM CLR 06/M02 A2984 940 57 100 000/00 RMK AO2
14837KMSN MSN20071104184009111/04/07 18:40:31  5-MIN KMSN 050040Z 00000KT 10SM CLR 05/M02 A2984 940 59 0 000/00 RMK AO2
14837KMSN MSN20071104184509311/04/07 18:45:31  5-MIN KMSN 050045Z 16003KT 10SM CLR 06/M02 A2984 940 55 100 160/03 RMK AO2
14837KMSN MSN20071104185010911/04/07 18:50:31  5-MIN KMSN 050050Z 15003KT 9SM CLR 06/M02 A2984 940 57 100 150/03 RMK AO2 SLP111 T00561022
14837KMSN MSN20071104185509011/04/07 18:55:31  5-MIN KMSN 050055Z 00000KT 9SM CLR 04/M02 A2984 940 62 0 000/00 RMK AO2
14837KMSN MSN20071104190009411/04/07 19:00:31  5-MIN KMSN 050100Z 15003KT 10SM CLR 04/M02 A2984 940 64 -100 150/03 RMK AO2
14837KMSN MSN20071104190509111/04/07 19:05:31  5-MIN KMSN 050105Z 15003KT 10SM CLR 05/M02 A2983 940 59 0 150/03 RMK AO2
14837KMSN MSN20071104191009311/04/07 19:10:31  5-MIN KMSN 050110Z 00000KT 10SM CLR 06/M02 A2983 940 55 100 000/00 RMK AO2
14837KMSN MSN20071104191509111/04/07 19:15:31  5-MIN KMSN 050115Z 17004KT 10SM CLR 05/M02 A2983 950 59 0 170/04 RMK AO2
14837KMSN MSN20071104192009311/04/07 19:20:31  5-MIN KMSN 050120Z 18004KT 10SM CLR 06/M02 A2983 950 57 100 170/04 RMK AO2
14837KMSN MSN20071104192509311/04/07 19:25:31  5-MIN KMSN 050125Z 18004KT 10SM CLR 07/M02 A2983 950 53 200 180/04 RMK AO2
14837KMSN MSN20071104193009611/04/07 19:30:31  5-MIN KMSN 050130Z 18003KT 10SM FEW120 06/M02 A2983 950 55 100 180/03 RMK AO2
14837KMSN MSN20071104193509611/04/07 19:35:31  5-MIN KMSN 050135Z 18003KT 10SM FEW120 06/M02 A2983 950 57 100 180/03 RMK AO2
14837KMSN MSN20071104194009611/04/07 19:40:31  5-MIN KMSN 050140Z 00000KT 10SM FEW120 06/M02 A2982 950 57 200 000/00 RMK AO2
14837KMSN MSN20071104194509611/04/07 19:45:31  5-MIN KMSN 050145Z 18003KT 10SM SCT110 06/M01 A2983 950 60 100 180/03 RMK AO2
14837KMSN MSN20071104195011311/04/07 19:50:31  5-MIN KMSN 050150Z 18004KT 10SM BKN110 07/M01 A2983 950 57 200 180/04 RMK AO2 SLP105 T00671011
14837KMSN MSN20071104195509611/04/07 19:55:31  5-MIN KMSN 050155Z 18004KT 10SM BKN120 07/M01 A2982 950 55 300 180/04 RMK AO2
14837KMSN MSN20071104200009611/04/07 20:00:31  5-MIN KMSN 050200Z 17005KT 10SM BKN120 07/M01 A2982 960 55 300 170/05 RMK AO2
14837KMSN MSN20071104200509611/04/07 20:05:31  5-MIN KMSN 050205Z 17005KT 10SM OVC110 07/M01 A2982 960 60 200 170/05 RMK AO2
14837KMSN MSN20071104201009611/04/07 20:10:31  5-MIN KMSN 050210Z 18005KT 10SM OVC110 07/M01 A2982 960 55 300 180/05 RMK AO2
14837KMSN MSN20071104201509611/04/07 20:15:31  5-MIN KMSN 050215Z 18006KT 10SM OVC110 08/M01 A2981 960 51 400 180/06 RMK AO2
14837KMSN MSN20071104202009611/04/07 20:20:31  5-MIN KMSN 050220Z 18006KT 10SM OVC110 08/M01 A2981 960 51 400 180/06 RMK AO2
14837KMSN MSN20071104202509611/04/07 20:25:31  5-MIN KMSN 050225Z 19006KT 10SM OVC110 08/M02 A2981 960 49 400 180/06 RMK AO2
14837KMSN MSN20071104203010311/04/07 20:30:31  5-MIN KMSN 050230Z 18006KT 10SM BKN100 OVC110 08/M02 A2981 960 49 400 180/06 RMK AO2
14837KMSN MSN20071104203510311/04/07 20:35:31  5-MIN KMSN 050235Z 19006KT 10SM BKN095 OVC110 08/M02 A2981 970 47 400 180/06 RMK AO2
14837KMSN MSN20071104204010311/04/07 20:40:31  5-MIN KMSN 050240Z 19005KT 10SM BKN095 OVC110 08/M02 A2981 970 47 400 190/05 RMK AO2
14837KMSN MSN20071104204509611/04/07 20:45:31  5-MIN KMSN 050245Z 19006KT 10SM OVC095 08/M02 A2981 970 47 400 190/06 RMK AO2
14837KMSN MSN20071104205011911/04/07 20:50:31  5-MIN KMSN 050250Z 17006KT 10SM OVC095 08/M02 A2981 970 47 400 170/06 RMK AO2 SLP099 T00831022 56005
14837KMSN MSN20071104205509611/04/07 20:55:31  5-MIN KMSN 050255Z 18007KT 10SM OVC095 08/M02 A2981 970 51 400 180/07 RMK AO2
14837KMSN MSN20071104210009611/04/07 21:00:31  5-MIN KMSN 050300Z 18006KT 10SM OVC090 08/M02 A2980 970 49 400 180/06 RMK AO2
14837KMSN MSN20071104210509611/04/07 21:05:31  5-MIN KMSN 050305Z 18007KT 10SM OVC095 08/M01 A2981 970 51 400 180/07 RMK AO2
14837KMSN MSN20071104211009611/04/07 21:10:31  5-MIN KMSN 050310Z 18006KT 10SM OVC095 08/M02 A2981 970 49 400 180/06 RMK AO2
14837KMSN MSN20071104211509611/04/07 21:15:31  5-MIN KMSN 050315Z 18006KT 10SM OVC095 08/M02 A2981 970 49 400 180/06 RMK AO2
14837KMSN MSN20071104212009611/04/07 21:20:31  5-MIN KMSN 050320Z 18007KT 10SM OVC090 08/M02 A2980 970 49 400 180/07 RMK AO2
14837KMSN MSN20071104212509611/04/07 21:25:31  5-MIN KMSN 050325Z 17008KT 10SM OVC090 08/M02 A2980 980 49 500 170/08 RMK AO2
14837KMSN MSN20071104213009611/04/07 21:30:31  5-MIN KMSN 050330Z 18008KT 10SM OVC090 08/M02 A2980 980 47 500 180/08 RMK AO2
14837KMSN MSN20071104213509611/04/07 21:35:31  5-MIN KMSN 050335Z 18007KT 10SM OVC085 08/M02 A2980 980 47 500 180/07 RMK AO2
14837KMSN MSN20071104214009611/04/07 21:40:31  5-MIN KMSN 050340Z 17007KT 10SM OVC080 08/M02 A2979 980 47 500 170/07 RMK AO2
14837KMSN MSN20071104214509611/04/07 21:45:31  5-MIN KMSN 050345Z 18006KT 10SM OVC085 08/M02 A2979 990 47 500 180/06 RMK AO2
14837KMSN MSN20071104215011311/04/07 21:50:31  5-MIN KMSN 050350Z 18006KT 10SM OVC085 08/M02 A2979 990 49 500 180/06 RMK AO2 SLP091 T00831017
14837KMSN MSN20071104215509611/04/07 21:55:31  5-MIN KMSN 050355Z 18005KT 10SM OVC090 08/M02 A2979 990 49 500 180/05 RMK AO2
14837KMSN MSN20071104220009611/04/07 22:00:31  5-MIN KMSN 050400Z 18005KT 10SM OVC090 09/M02 A2979 990 47 500 180/05 RMK AO2
14837KMSN MSN20071104220510311/04/07 22:05:31  5-MIN KMSN 050405Z 18006KT 10SM BKN080 OVC095 09/M02 A2978 990 47 500 180/06 RMK AO2
14837KMSN MSN20071104221010411/04/07 22:10:31  5-MIN KMSN 050410Z 18006KT 10SM BKN080 OVC095 09/M02 A2978 1000 47 500 180/06 RMK AO2
14837KMSN MSN20071104221510411/04/07 22:15:31  5-MIN KMSN 050415Z 18007KT 10SM BKN080 OVC095 09/M02 A2978 1000 44 600 180/07 RMK AO2
14837KMSN MSN20071104222009711/04/07 22:20:31  5-MIN KMSN 050420Z 17007KT 10SM OVC080 09/M02 A2977 1000 44 600 170/07 RMK AO2
14837KMSN MSN20071104222509711/04/07 22:25:31  5-MIN KMSN 050425Z 17007KT 10SM OVC080 09/M02 A2977 1010 45 600 170/07 RMK AO2
14837KMSN MSN20071104223009711/04/07 22:30:31  5-MIN KMSN 050430Z 17007KT 10SM OVC080 09/M02 A2976 1010 45 600 170/07 RMK AO2
14837KMSN MSN20071104223509711/04/07 22:35:31  5-MIN KMSN 050435Z 17008KT 10SM OVC085 09/M02 A2976 1010 47 600 170/08 RMK AO2
14837KMSN MSN20071104224009711/04/07 22:40:31  5-MIN KMSN 050440Z 18006KT 10SM OVC085 09/M02 A2976 1010 44 600 180/06 RMK AO2
14837KMSN MSN20071104224509711/04/07 22:45:31  5-MIN KMSN 050445Z 18007KT 10SM OVC080 09/M02 A2976 1010 44 600 180/07 RMK AO2
14837KMSN MSN20071104225011411/04/07 22:50:31  5-MIN KMSN 050450Z 18007KT 10SM OVC080 09/M02 A2976 1020 44 600 180/07 RMK AO2 SLP079 T00941022
14837KMSN MSN20071104225509711/04/07 22:55:31  5-MIN KMSN 050455Z 18009KT 10SM OVC080 09/M02 A2975 1020 44 600 170/09 RMK AO2
14837KMSN MSN20071104230010411/04/07 23:00:31  5-MIN KMSN 050500Z 17009KT 10SM BKN080 OVC095 09/M02 A2975 1030 44 600 170/09 RMK AO2
14837KMSN MSN20071104230511111/04/07 23:05:31  5-MIN KMSN 050505Z 18008KT 10SM BKN080 OVC095 09/M02 A2974 1030 44 700 170/08 RMK AO2 PRESFR
14837KMSN MSN20071104231011111/04/07 23:10:31  5-MIN KMSN 050510Z 18007KT 10SM BKN080 OVC095 09/M02 A2973 1040 45 600 170/07 RMK AO2 PRESFR
14837KMSN MSN20071104231510411/04/07 23:15:31  5-MIN KMSN 050515Z 18008KT 10SM BKN080 OVC095 09/M02 A2973 1040 44 700 180/08 RMK AO2
14837KMSN MSN20071104232010411/04/07 23:20:31  5-MIN KMSN 050520Z 18007KT 10SM SCT080 OVC090 09/M02 A2973 1040 44 700 180/07 RMK AO2
14837KMSN MSN20071104232509711/04/07 23:25:31  5-MIN KMSN 050525Z 18009KT 10SM OVC090 09/M02 A2972 1050 44 700 180/09 RMK AO2
14837KMSN MSN20071104233009711/04/07 23:30:31  5-MIN KMSN 050530Z 17009KT 10SM BKN090 10/M02 A2971 1060 42 700 170/09 RMK AO2
14837KMSN MSN20071104233509711/04/07 23:35:31  5-MIN KMSN 050535Z 18009KT 10SM OVC085 09/M02 A2971 1060 44 700 180/09 RMK AO2
14837KMSN MSN20071104234009711/04/07 23:40:31  5-MIN KMSN 050540Z 18010KT 10SM OVC085 10/M02 A2971 1060 42 800 180/10 RMK AO2
14837KMSN MSN20071104234509711/04/07 23:45:31  5-MIN KMSN 050545Z 18009KT 10SM OVC085 10/M02 A2971 1060 42 800 180/09 RMK AO2
14837KMSN MSN20071104235014211/04/07 23:50:31  5-MIN KMSN 050550Z 18009KT 10SM OVC090 10/M02 A2970 1060 42 800 180/09 RMK AO2 SLP061 T01001022 10100 20039 401220033 58013
14837KMSN MSN20071104235509711/04/07 23:55:31  5-MIN KMSN 050555Z 18008KT 10SM OVC090 10/M02 A2970 1070 42 800 180/08 RMK AO2
14837KMSN MSN20071105000009711/05/07 00:00:32  5-MIN KMSN 050600Z 18010KT 10SM OVC090 10/M02 A2969 1070 42 800 180/10 RMK AO2
14837KMSN MSN20071105000509711/05/07 00:05:31  5-MIN KMSN 050605Z 18012KT 10SM OVC095 10/M02 A2969 1080 42 800 180/12 RMK AO2
14837KMSN MSN20071105001009711/05/07 00:10:31  5-MIN KMSN 050610Z 18010KT 10SM OVC095 10/M02 A2968 1080 42 800 180/10 RMK AO2
14837KMSN MSN20071105001509711/05/07 00:15:31  5-MIN KMSN 050615Z 19011KT 10SM OVC095 10/M02 A2968 1080 42 800 190/11 RMK AO2
14837KMSN MSN20071105002010311/05/07 00:20:31  5-MIN KMSN 050620Z 19009G16KT 10SM OVC090 11/M03 A2968 1090 39 900 190/09G16 RMK AO2
14837KMSN MSN20071105002510311/05/07 00:25:31  5-MIN KMSN 050625Z 19010G16KT 10SM OVC095 10/M03 A2968 1090 40 800 190/10G16 RMK AO2
14837KMSN MSN20071105003010311/05/07 00:30:31  5-MIN KMSN 050630Z 19011G16KT 10SM OVC095 10/M02 A2968 1090 42 800 190/11G16 RMK AO2
14837KMSN MSN20071105003510311/05/07 00:35:31  5-MIN KMSN 050635Z 19009G16KT 10SM OVC095 10/M03 A2968 1090 40 800 190/09G16 RMK AO2
14837KMSN MSN20071105004009711/05/07 00:40:31  5-MIN KMSN 050640Z 19009KT 10SM OVC095 10/M02 A2967 1090 42 800 190/09 RMK AO2
14837KMSN MSN20071105004509711/05/07 00:45:31  5-MIN KMSN 050645Z 19008KT 10SM OVC095 10/M02 A2967 1090 42 800 190/08 RMK AO2
14837KMSN MSN20071105005012111/05/07 00:50:31  5-MIN KMSN 050650Z 20007KT 10SM FEW075 OVC095 10/M02 A2968 1090 42 800 200/07 RMK AO2 SLP051 T01001022
14837KMSN MSN20071105005510411/05/07 00:55:31  5-MIN KMSN 050655Z 19008KT 10SM SCT070 OVC095 10/M02 A2967 1100 42 800 190/08 RMK AO2
14837KMSN MSN20071105010010411/05/07 01:00:31  5-MIN KMSN 050700Z 19006KT 10SM SCT070 OVC090 10/M02 A2966 1100 42 800 180/06 RMK AO2
14837KMSN MSN20071105010510411/05/07 01:05:31  5-MIN KMSN 050705Z 19005KT 10SM FEW070 OVC090 10/M02 A2967 1100 42 800 190/05 RMK AO2
14837KMSN MSN20071105011010411/05/07 01:10:31  5-MIN KMSN 050710Z VRB04KT 10SM SCT070 OVC085 10/M02 A2966 1100 42 800 VRB/04 RMK AO2
14837KMSN MSN20071105011512011/05/07 01:15:31  5-MIN KMSN 050715Z 20008KT 170V230 10SM BKN070 OVC085 11/M02 A2966 1110 40 900 200/08 170V230 RMK AO2
14837KMSN MSN20071105012012011/05/07 01:20:31  5-MIN KMSN 050720Z 21004KT 10SM -RA BKN075 OVC090 11/M02 A2966 1110 40 900 200/04 RMK AO2 RAB17 P0000
14837KMSN MSN20071105012511311/05/07 01:25:31  5-MIN KMSN 050725Z 20005KT 10SM -RA OVC080 11/M03 A2966 1110 39 900 200/05 RMK AO2 RAB17 P0000
14837KMSN MSN20071105013011211/05/07 01:30:31  5-MIN KMSN 050730Z 19006KT 10SM OVC090 11/M03 A2965 1110 39 900 190/06 RMK AO2 RAB17E26 P0000
14837KMSN MSN20071105013511911/05/07 01:35:31  5-MIN KMSN 050735Z VRB06KT 10SM BKN090 OVC100 11/M03 A2965 1120 39 900 VRB/06 RMK AO2 RAB17E26 P0000
14837KMSN MSN20071105014012011/05/07 01:40:31  5-MIN KMSN 050740Z 24005KT 10SM -RA BKN090 OVC100 10/M02 A2965 1120 42 800 240/05 RMK AO2 RAB17 P0000
14837KMSN MSN20071105014511311/05/07 01:45:31  5-MIN KMSN 050745Z 20006KT 10SM -RA OVC100 11/M03 A2964 1120 39 900 200/06 RMK AO2 RAB17 P0000
14837KMSN MSN20071105015012911/05/07 01:50:31  5-MIN KMSN 050750Z 21009KT 10SM OVC100 11/M03 A2964 1120 39 900 210/09 RMK AO2 RAB17E46 SLP040 P0000 T01061028
14837KMSN MSN20071105015510311/05/07 01:55:31  5-MIN KMSN 050755Z 21010G14KT 10SM OVC100 11/M02 A2964 1130 40 900 210/10G14 RMK AO2
14837KMSN MSN20071105020010311/05/07 02:00:31  5-MIN KMSN 050800Z 20009G14KT 10SM OVC110 11/M03 A2963 1130 39 900 200/09G14 RMK AO2
14837KMSN MSN20071105020509711/05/07 02:05:31  5-MIN KMSN 050805Z 19011KT 10SM OVC110 11/M03 A2963 1130 39 900 190/11 RMK AO2
14837KMSN MSN20071105021009711/05/07 02:10:31  5-MIN KMSN 050810Z 20008KT 10SM OVC110 11/M02 A2962 1140 40 900 200/08 RMK AO2
14837KMSN MSN20071105021510311/05/07 02:15:31  5-MIN KMSN 050815Z 20010G14KT 10SM BKN110 11/M02 A2962 1140 40 900 200/10G14 RMK AO2
14837KMSN MSN20071105022009711/05/07 02:20:31  5-MIN KMSN 050820Z 20007KT 10SM BKN110 10/M02 A2962 1150 42 900 200/07 RMK AO2
14837KMSN MSN20071105022509711/05/07 02:25:31  5-MIN KMSN 050825Z 22008KT 10SM BKN110 10/M02 A2962 1150 42 900 220/08 RMK AO2
14837KMSN MSN20071105023009711/05/07 02:30:31  5-MIN KMSN 050830Z 21007KT 10SM SCT110 10/M02 A2961 1150 42 900 210/07 RMK AO2
14837KMSN MSN20071105023509711/05/07 02:35:31  5-MIN KMSN 050835Z 21006KT 10SM SCT110 10/M02 A2961 1150 42 900 210/06 RMK AO2
14837KMSN MSN20071105024009711/05/07 02:40:31  5-MIN KMSN 050840Z 20007KT 10SM FEW120 10/M02 A2961 1160 42 900 200/07 RMK AO2
14837KMSN MSN20071105024509711/05/07 02:45:31  5-MIN KMSN 050845Z 21006KT 10SM FEW110 10/M02 A2960 1160 42 900 210/06 RMK AO2
14837KMSN MSN20071105025012311/05/07 02:50:31  5-MIN KMSN 050850Z 21006KT 10SM CLR 10/M02 A2960 1160 44 900 210/06 RMK AO2 SLP025 60000 T01001017 58036
14837KMSN MSN20071105025509411/05/07 02:55:31  5-MIN KMSN 050855Z 22006KT 10SM CLR 10/M02 A2960 1160 44 900 220/06 RMK AO2
14837KMSN MSN20071105030009411/05/07 03:00:31  5-MIN KMSN 050900Z 21006KT 10SM CLR 10/M02 A2959 1170 44 900 210/06 RMK AO2
14837KMSN MSN20071105030509411/05/07 03:05:31  5-MIN KMSN 050905Z 21007KT 10SM CLR 09/M02 A2959 1170 45 800 210/07 RMK AO2
14837KMSN MSN20071105031009411/05/07 03:10:31  5-MIN KMSN 050910Z 21008KT 10SM CLR 09/M01 A2958 1180 47 800 210/08 RMK AO2
14837KMSN MSN20071105031509411/05/07 03:15:31  5-MIN KMSN 050915Z 21008KT 10SM CLR 09/M01 A2958 1180 47 800 210/08 RMK AO2
14837KMSN MSN20071105032009411/05/07 03:20:31  5-MIN KMSN 050920Z 22008KT 10SM CLR 09/M01 A2959 1180 47 800 220/08 RMK AO2
14837KMSN MSN20071105032509411/05/07 03:25:31  5-MIN KMSN 050925Z 22008KT 10SM CLR 09/M01 A2958 1180 47 800 210/08 RMK AO2
14837KMSN MSN20071105033009411/05/07 03:30:31  5-MIN KMSN 050930Z 21008KT 10SM CLR 09/M01 A2957 1190 47 800 210/08 RMK AO2
14837KMSN MSN20071105033509411/05/07 03:35:31  5-MIN KMSN 050935Z 21007KT 10SM CLR 09/M01 A2958 1180 47 800 210/07 RMK AO2
14837KMSN MSN20071105034009711/05/07 03:40:31  5-MIN KMSN 050940Z 22009KT 10SM FEW095 09/M01 A2959 1170 49 800 220/09 RMK AO2
14837KMSN MSN20071105034509711/05/07 03:45:31  5-MIN KMSN 050945Z 23008KT 10SM FEW095 09/M01 A2959 1170 49 800 230/08 RMK AO2
14837KMSN MSN20071105035011411/05/07 03:50:31  5-MIN KMSN 050950Z 22009KT 10SM FEW095 09/M01 A2958 1180 47 800 220/09 RMK AO2 SLP020 T00941011
14837KMSN MSN20071105035509711/05/07 03:55:31  5-MIN KMSN 050955Z 22007KT 10SM FEW090 09/M01 A2958 1180 47 800 220/07 RMK AO2
14837KMSN MSN20071105040009711/05/07 04:00:31  5-MIN KMSN 051000Z 22007KT 10SM FEW090 09/M01 A2958 1180 49 800 220/07 RMK AO2
14837KMSN MSN20071105040509711/05/07 04:05:31  5-MIN KMSN 051005Z 22007KT 10SM FEW090 09/M01 A2958 1180 49 800 220/07 RMK AO2
14837KMSN MSN20071105041009711/05/07 04:10:31  5-MIN KMSN 051010Z 22008KT 10SM FEW090 09/M01 A2958 1180 49 800 220/08 RMK AO2
14837KMSN MSN20071105041510311/05/07 04:15:31  5-MIN KMSN 051015Z 22008G14KT 10SM FEW095 09/M01 A2959 1180 49 800 220/08G14 RMK AO2
14837KMSN MSN20071105042009711/05/07 04:20:31  5-MIN KMSN 051020Z 23006KT 10SM SCT090 09/M01 A2959 1170 49 800 230/06 RMK AO2
14837KMSN MSN20071105042509711/05/07 04:25:31  5-MIN KMSN 051025Z 23006KT 10SM FEW090 09/M01 A2959 1170 49 800 230/06 RMK AO2
14837KMSN MSN20071105043009611/05/07 04:30:31  5-MIN KMSN 051030Z VRB06KT 10SM FEW095 09/00 A2959 1170 51 800 VRB/06 RMK AO2
14837KMSN MSN20071105043509611/05/07 04:35:31  5-MIN KMSN 051035Z 24008KT 10SM FEW095 09/01 A2959 1170 53 800 240/08 RMK AO2
14837KMSN MSN20071105044010211/05/07 04:40:31  5-MIN KMSN 051040Z 23008G14KT 10SM FEW090 09/01 A2958 1180 53 800 230/08G14 RMK AO2
14837KMSN MSN20071105044509911/05/07 04:45:31  5-MIN KMSN 051045Z 23007G14KT 10SM CLR 09/01 A2958 1180 53 800 220/07G14 RMK AO2
14837KMSN MSN20071105045011611/05/07 04:50:31  5-MIN KMSN 051050Z 23006G14KT 10SM CLR 09/01 A2958 1180 53 800 220/06G14 RMK AO2 SLP017 T00940006
14837KMSN MSN20071105045509911/05/07 04:55:31  5-MIN KMSN 051055Z 23009G14KT 10SM CLR 09/01 A2958 1190 53 800 230/09G14 RMK AO2
14837KMSN MSN20071105050009911/05/07 05:00:31  5-MIN KMSN 051100Z 23007G15KT 10SM CLR 09/01 A2958 1180 53 800 230/07G15 RMK AO2
14837KMSN MSN20071105050509911/05/07 05:05:31  5-MIN KMSN 051105Z 23006G15KT 10SM CLR 09/01 A2957 1190 56 800 230/06G15 RMK AO2
14837KMSN MSN20071105051009311/05/07 05:10:31  5-MIN KMSN 051110Z 24005KT 10SM CLR 09/01 A2957 1190 56 800 240/05 RMK AO2
14837KMSN MSN20071105051509311/05/07 05:15:31  5-MIN KMSN 051115Z 24005KT 10SM CLR 09/01 A2958 1190 58 800 240/05 RMK AO2
14837KMSN MSN20071105052009311/05/07 05:20:31  5-MIN KMSN 051120Z 24005KT 10SM CLR 09/01 A2958 1180 58 800 230/05 RMK AO2
14837KMSN MSN20071105052509311/05/07 05:25:31  5-MIN KMSN 051125Z VRB05KT 10SM CLR 09/01 A2958 1180 58 800 VRB/05 RMK AO2
14837KMSN MSN20071105053009311/05/07 05:30:31  5-MIN KMSN 051130Z 26005KT 10SM CLR 09/01 A2959 1170 58 800 260/05 RMK AO2
14837KMSN MSN20071105053509311/05/07 05:35:31  5-MIN KMSN 051135Z 26007KT 10SM CLR 09/01 A2959 1170 56 800 260/07 RMK AO2
14837KMSN MSN20071105054009311/05/07 05:40:31  5-MIN KMSN 051140Z VRB06KT 10SM CLR 08/00 A2959 1170 55 700 VRB/06 RMK AO2
14837KMSN MSN20071105054509311/05/07 05:45:31  5-MIN KMSN 051145Z 27007KT 10SM CLR 08/00 A2959 1170 55 700 270/07 RMK AO2
14837KMSN MSN20071105055013411/05/07 05:50:31  5-MIN KMSN 051150Z 27006KT 10SM CLR 08/00 A2959 1170 55 700 270/06 RMK AO2 SLP025 60000 T00830000 10106 20083 58033
14837KMSN MSN20071105055510911/05/07 05:55:31  5-MIN KMSN 051155Z 27007KT 240V310 10SM CLR 08/00 A2959 1170 55 700 270/07 240V310 RMK AO2
14837KMSN MSN20071105060009311/05/07 06:00:31  5-MIN KMSN 051200Z VRB05KT 10SM CLR 08/00 A2959 1170 55 700 VRB/05 RMK AO2
14837KMSN MSN20071105060509311/05/07 06:05:31  5-MIN KMSN 051205Z VRB05KT 10SM CLR 08/00 A2959 1170 55 700 VRB/05 RMK AO2
14837KMSN MSN20071105061009311/05/07 06:10:31  5-MIN KMSN 051210Z 29007KT 10SM CLR 08/00 A2960 1170 55 700 280/07 RMK AO2
14837KMSN MSN20071105061509311/05/07 06:15:31  5-MIN KMSN 051215Z 28006KT 10SM CLR 08/00 A2960 1170 55 700 280/06 RMK AO2
14837KMSN MSN20071105062009311/05/07 06:20:31  5-MIN KMSN 051220Z 27006KT 10SM CLR 08/00 A2960 1170 55 700 270/06 RMK AO2
14837KMSN MSN20071105062509311/05/07 06:25:31  5-MIN KMSN 051225Z 27004KT 10SM CLR 08/00 A2960 1170 55 700 270/04 RMK AO2
14837KMSN MSN20071105063009311/05/07 06:30:31  5-MIN KMSN 051230Z 28006KT 10SM CLR 08/00 A2960 1160 55 700 280/06 RMK AO2
14837KMSN MSN20071105063509311/05/07 06:35:31  5-MIN KMSN 051235Z 28005KT 10SM CLR 08/00 A2960 1160 55 700 280/05 RMK AO2
14837KMSN MSN20071105064009311/05/07 06:40:31  5-MIN KMSN 051240Z 27007KT 10SM CLR 08/00 A2961 1160 55 700 270/07 RMK AO2
14837KMSN MSN20071105064509211/05/07 06:45:31  5-MIN KMSN 051245Z 28007KT 9SM CLR 08/00 A2961 1150 55 700 280/07 RMK AO2
14837KMSN MSN20071105065010911/05/07 06:50:31  5-MIN KMSN 051250Z 28007KT 9SM CLR 08/01 A2961 1150 58 700 280/07 RMK AO2 SLP031 T00830006
14837KMSN MSN20071105065509211/05/07 06:55:31  5-MIN KMSN 051255Z 29006KT 9SM CLR 08/01 A2962 1150 58 700 290/06 RMK AO2
14837KMSN MSN20071105070009211/05/07 07:00:31  5-MIN KMSN 051300Z 28006KT 9SM CLR 08/01 A2962 1150 58 700 280/06 RMK AO2
14837KMSN MSN20071105070509211/05/07 07:05:31  5-MIN KMSN 051305Z 27007KT 9SM CLR 08/01 A2961 1150 58 700 270/07 RMK AO2
14837KMSN MSN20071105071009211/05/07 07:10:31  5-MIN KMSN 051310Z 28007KT 9SM CLR 08/01 A2962 1150 58 700 280/07 RMK AO2
14837KMSN MSN20071105071509211/05/07 07:15:31  5-MIN KMSN 051315Z 29007KT 9SM CLR 08/01 A2962 1150 58 700 290/07 RMK AO2
14837KMSN MSN20071105072009211/05/07 07:20:31  5-MIN KMSN 051320Z 29007KT 8SM CLR 08/01 A2962 1150 58 700 290/07 RMK AO2
14837KMSN MSN20071105072509211/05/07 07:25:31  5-MIN KMSN 051325Z 29008KT 7SM CLR 09/01 A2962 1150 58 700 290/08 RMK AO2
14837KMSN MSN20071105073009211/05/07 07:30:31  5-MIN KMSN 051330Z 29007KT 7SM CLR 09/01 A2962 1140 58 700 290/07 RMK AO2
14837KMSN MSN20071105073509811/05/07 07:35:31  5-MIN KMSN 051335Z 29010G15KT 8SM CLR 09/01 A2963 1130 58 700 290/10G15 RMK AO2
14837KMSN MSN20071105074009211/05/07 07:40:31  5-MIN KMSN 051340Z 29009KT 9SM CLR 09/01 A2964 1130 58 700 290/09 RMK AO2
14837KMSN MSN20071105074509811/05/07 07:45:31  5-MIN KMSN 051345Z 29010G17KT 9SM CLR 09/01 A2964 1130 58 700 290/10G17 RMK AO2
14837KMSN MSN20071105075011511/05/07 07:50:31  5-MIN KMSN 051350Z 30010G17KT 9SM CLR 09/01 A2964 1120 58 700 300/10G17 RMK AO2 SLP041 T00890011
14837KMSN MSN20071105075509811/05/07 07:55:31  5-MIN KMSN 051355Z 30014G20KT 9SM CLR 09/01 A2964 1120 58 700 300/14G20 RMK AO2
14837KMSN MSN20071105080009811/05/07 08:00:31  5-MIN KMSN 051400Z 30010G20KT 9SM CLR 09/01 A2964 1130 58 700 300/10G20 RMK AO2
14837KMSN MSN20071105080509811/05/07 08:05:31  5-MIN KMSN 051405Z 29011G19KT 9SM CLR 09/01 A2964 1120 58 700 290/11G19 RMK AO2
14837KMSN MSN20071105081009811/05/07 08:10:31  5-MIN KMSN 051410Z 30012G19KT 9SM CLR 09/01 A2965 1120 58 700 300/12G19 RMK AO2
14837KMSN MSN20071105081509811/05/07 08:15:31  5-MIN KMSN 051415Z 29012G19KT 9SM CLR 09/01 A2965 1110 58 700 290/12G19 RMK AO2
14837KMSN MSN20071105082009811/05/07 08:20:31  5-MIN KMSN 051420Z 30011G19KT 9SM CLR 09/01 A2965 1110 58 700 300/11G19 RMK AO2
14837KMSN MSN20071105082509811/05/07 08:25:31  5-MIN KMSN 051425Z 30013G18KT 9SM CLR 09/01 A2965 1110 58 700 300/13G18 RMK AO2
14837KMSN MSN20071105083009811/05/07 08:30:31  5-MIN KMSN 051430Z 30012G18KT 9SM CLR 09/01 A2966 1110 56 700 300/12G18 RMK AO2
14837KMSN MSN20071105083509811/05/07 08:35:31  5-MIN KMSN 051435Z 30013G21KT 9SM CLR 09/01 A2967 1100 56 700 300/13G21 RMK AO2
14837KMSN MSN20071105084011911/05/07 08:40:31  5-MIN KMSN 051440Z 30014G26KT 9SM FEW035 09/01 A2967 1100 56 700 300/14G26 RMK AO2 PK WND 31026/1437
14837KMSN MSN20071105084511911/05/07 08:45:31  5-MIN KMSN 051445Z 30016G28KT 9SM FEW035 08/00 A2967 1090 55 600 300/16G28 RMK AO2 PK WND 32028/1443
14837KMSN MSN20071105085014211/05/07 08:50:31  5-MIN KMSN 051450Z 31014G28KT 8SM SCT035 08/00 A2968 1090 55 600 310/14G28 RMK AO2 PK WND 32028/1443 SLP054 T00830000 55001
14837KMSN MSN20071105085511911/05/07 08:55:31  5-MIN KMSN 051455Z 31017G29KT 8SM SCT035 08/01 A2968 1080 58 600 310/17G29 RMK AO2 PK WND 32029/1455
14837KMSN MSN20071105090011911/05/07 09:00:31  5-MIN KMSN 051500Z 31019G29KT 8SM SCT035 08/01 A2969 1080 58 600 310/19G29 RMK AO2 PK WND 32029/1455
14837KMSN MSN20071105090511911/05/07 09:05:31  5-MIN KMSN 051505Z 32016G26KT 8SM BKN035 08/01 A2969 1080 58 600 320/16G26 RMK AO2 PK WND 32029/1455
14837KMSN MSN20071105091011911/05/07 09:10:31  5-MIN KMSN 051510Z 31016G26KT 8SM BKN035 08/01 A2969 1080 58 600 310/16G26 RMK AO2 PK WND 32029/1455
14837KMSN MSN20071105091511911/05/07 09:15:31  5-MIN KMSN 051515Z 31020G33KT 8SM BKN033 08/00 A2970 1070 58 500 300/20G33 RMK AO2 PK WND 30033/1514
14837KMSN MSN20071105092011911/05/07 09:20:31  5-MIN KMSN 051520Z 32019G33KT 8SM BKN033 07/00 A2970 1070 60 400 320/19G33 RMK AO2 PK WND 30033/1514
14837KMSN MSN20071105092511911/05/07 09:25:31  5-MIN KMSN 051525Z 32020G30KT 8SM OVC033 07/00 A2971 1060 60 400 320/20G30 RMK AO2 PK WND 30033/1514
14837KMSN MSN20071105093011911/05/07 09:30:31  5-MIN KMSN 051530Z 30015G30KT 8SM OVC033 07/00 A2971 1060 62 300 300/15G30 RMK AO2 PK WND 30033/1514
14837KMSN MSN20071105093511911/05/07 09:35:31  5-MIN KMSN 051535Z 32016G29KT 9SM OVC033 07/00 A2971 1060 62 300 310/16G29 RMK AO2 PK WND 30033/1514
14837KMSN MSN20071105094011911/05/07 09:40:31  5-MIN KMSN 051540Z 31016G29KT 9SM OVC033 07/00 A2972 1050 62 300 300/16G29 RMK AO2 PK WND 30033/1514
14837KMSN MSN20071105094512011/05/07 09:45:31  5-MIN KMSN 051545Z 31014G29KT 9SM OVC033 07/M01 A2972 1050 60 300 310/14G29 RMK AO2 PK WND 30033/1514
14837KMSN MSN20071105095013611/05/07 09:50:31  5-MIN KMSN 051550Z 31019G28KT 9SM BKN033 07/00 A2972 1050 62 300 310/19G28 RMK AO2 PK WND 30033/1514 SLP067 T00670000
14837KMSN MSN20071105095511911/05/07 09:55:31  5-MIN KMSN 051555Z 31019G28KT 9SM BKN031 07/00 A2972 1050 62 300 300/19G28 RMK AO2 PK WND 31026/1554
14837KMSN MSN20071105100011911/05/07 10:00:31  5-MIN KMSN 051600Z 30015G26KT 9SM BKN031 07/00 A2972 1050 62 300 300/15G26 RMK AO2 PK WND 31026/1554
14837KMSN MSN20071105100512011/05/07 10:05:31  5-MIN KMSN 051605Z 31014G23KT 10SM BKN031 07/00 A2972 1050 60 400 310/14G23 RMK AO2 PK WND 31026/1554
14837KMSN MSN20071105101012111/05/07 10:10:31  5-MIN KMSN 051610Z 31016G24KT 10SM BKN031 07/M01 A2972 1050 57 400 310/16G24 RMK AO2 PK WND 31026/1554
14837KMSN MSN20071105101512111/05/07 10:15:31  5-MIN KMSN 051615Z 30014G24KT 10SM BKN031 08/M01 A2972 1050 55 500 290/14G24 RMK AO2 PK WND 31026/1554
14837KMSN MSN20071105102012811/05/07 10:20:31  5-MIN KMSN 051620Z 30014G24KT 10SM FEW031 BKN050 07/M01 A2972 1050 57 400 300/14G24 RMK AO2 PK WND 31026/1554
14837KMSN MSN20071105102512811/05/07 10:25:31  5-MIN KMSN 051625Z 31017G27KT 10SM FEW031 BKN050 07/M01 A2972 1050 55 400 300/17G27 RMK AO2 PK WND 31027/1622
14837KMSN MSN20071105103012811/05/07 10:30:31  5-MIN KMSN 051630Z 30015G27KT 10SM FEW031 BKN050 07/M01 A2973 1050 57 400 300/15G27 RMK AO2 PK WND 31027/1622
14837KMSN MSN20071105103512111/05/07 10:35:31  5-MIN KMSN 051635Z 30012G23KT 10SM BKN037 07/M01 A2973 1040 57 400 290/12G23 RMK AO2 PK WND 31027/1622
14837KMSN MSN20071105104012111/05/07 10:40:31  5-MIN KMSN 051640Z 30011G24KT 10SM BKN037 07/M01 A2973 1040 57 400 300/11G24 RMK AO2 PK WND 31027/1622
14837KMSN MSN20071105104512811/05/07 10:45:31  5-MIN KMSN 051645Z 30015G25KT 10SM BKN037 OVC055 07/M01 A2973 1040 60 300 300/15G25 RMK AO2 PK WND 31027/1622
14837KMSN MSN20071105105014511/05/07 10:50:31  5-MIN KMSN 051650Z 30013G28KT 10SM BKN037 OVC055 07/M01 A2973 1040 57 300 300/13G28 RMK AO2 PK WND 30028/1647 SLP071 T00671011
14837KMSN MSN20071105105511711/05/07 10:55:31  5-MIN KMSN 051655Z 30015G28KT 10SM BKN037 BKN046 OVC060 07/M01 A2973 1040 60 300 300/15G28 RMK AO2
14837KMSN MSN20071105110010911/05/07 11:00:31  5-MIN KMSN 051700Z 29013G23KT 10SM BKN037 OVC060 07/00 A2974 1030 60 400 290/13G23 RMK AO2
14837KMSN MSN20071105110510911/05/07 11:05:31  5-MIN KMSN 051705Z 29013G20KT 10SM BKN036 BKN060 07/00 A2974 1040 60 400 290/13G20 RMK AO2
14837KMSN MSN20071105111011011/05/07 11:10:31  5-MIN KMSN 051710Z 30017G25KT 10SM BKN034 BKN060 07/M01 A2974 1030 57 400 300/17G25 RMK AO2
14837KMSN MSN20071105111511011/05/07 11:15:31  5-MIN KMSN 051715Z 31014G25KT 10SM BKN037 BKN060 08/M01 A2974 1030 53 500 310/14G25 RMK AO2
14837KMSN MSN20071105112011711/05/07 11:20:31  5-MIN KMSN 051720Z 30014G22KT 10SM FEW034 BKN041 BKN060 08/M01 A2974 1040 53 500 300/14G22 RMK AO2
14837KMSN MSN20071105112511711/05/07 11:25:31  5-MIN KMSN 051725Z 30014G21KT 10SM FEW034 SCT041 BKN050 08/M02 A2973 1040 49 500 300/14G21 RMK AO2
14837KMSN MSN20071105113013511/05/07 11:30:31  5-MIN KMSN 051730Z 31021G30KT 10SM FEW034 SCT041 BKN050 08/M02 A2973 1040 49 500 310/21G30 RMK AO2 PK WND 31030/1730
14837KMSN MSN20071105113513511/05/07 11:35:31  5-MIN KMSN 051735Z 31016G30KT 10SM FEW037 SCT047 BKN055 08/M03 A2973 1040 45 500 310/16G30 RMK AO2 PK WND 31030/1730
14837KMSN MSN20071105114013511/05/07 11:40:31  5-MIN KMSN 051740Z 31016G29KT 10SM FEW037 BKN049 BKN060 08/M03 A2973 1040 47 500 310/16G29 RMK AO2 PK WND 31030/1730
14837KMSN MSN20071105114512811/05/07 11:45:31  5-MIN KMSN 051745Z 30016G29KT 10SM BKN049 BKN060 08/M03 A2973 1040 47 500 300/16G29 RMK AO2 PK WND 31030/1730
14837KMSN MSN20071105115017011/05/07 11:50:31  5-MIN KMSN 051750Z 31017G28KT 10SM BKN047 BKN055 OVC070 08/M03 A2974 1030 45 500 310/17G28 RMK AO2 PK WND 31030/1730 SLP074 T00781033 10089 20067 53029
14837KMSN MSN20071105115512811/05/07 11:55:31  5-MIN KMSN 051755Z 30020G28KT 10SM SCT047 OVC060 08/M04 A2974 1030 43 500 300/20G28 RMK AO2 PK WND 29027/1754
14837KMSN MSN20071105120012811/05/07 12:00:31  5-MIN KMSN 051800Z 31015G27KT 10SM SCT047 OVC065 08/M04 A2974 1030 43 400 310/15G27 RMK AO2 PK WND 29027/1754
14837KMSN MSN20071105120513511/05/07 12:05:31  5-MIN KMSN 051805Z 32017G32KT 10SM FEW047 BKN060 OVC070 08/M03 A2974 1030 45 400 320/17G32 RMK AO2 PK WND 32032/1804
14837KMSN MSN20071105121012811/05/07 12:10:31  5-MIN KMSN 051810Z 31020G32KT 10SM FEW050 OVC065 08/M04 A2975 1020 43 400 310/20G32 RMK AO2 PK WND 32032/1804
14837KMSN MSN20071105121512111/05/07 12:15:31  5-MIN KMSN 051815Z 32020G30KT 10SM BKN060 08/M04 A2975 1020 41 400 320/20G30 RMK AO2 PK WND 32032/1804
14837KMSN MSN20071105122012811/05/07 12:20:31  5-MIN KMSN 051820Z 32021G34KT 10SM FEW049 BKN060 08/M04 A2976 1020 42 500 320/21G34 RMK AO2 PK WND 33034/1816
14837KMSN MSN20071105122512811/05/07 12:25:31  5-MIN KMSN 051825Z 31016G34KT 10SM BKN055 BKN070 08/M04 A2976 1020 43 400 310/16G34 RMK AO2 PK WND 33034/1816
14837KMSN MSN20071105123012811/05/07 12:30:31  5-MIN KMSN 051830Z 32018G28KT 10SM SCT049 BKN065 08/M04 A2976 1010 42 500 320/18G28 RMK AO2 PK WND 33034/1816
14837KMSN MSN20071105123512811/05/07 12:35:31  5-MIN KMSN 051835Z 31020G28KT 10SM SCT049 BKN060 08/M04 A2976 1010 43 400 310/20G28 RMK AO2 PK WND 33034/1816
14837KMSN MSN20071105124012811/05/07 12:40:31  5-MIN KMSN 051840Z 31019G30KT 10SM FEW049 BKN060 07/M04 A2976 1010 45 400 310/19G30 RMK AO2 PK WND 33034/1816
14837KMSN MSN20071105124512811/05/07 12:45:31  5-MIN KMSN 051845Z 31018G30KT 10SM FEW049 BKN060 07/M04 A2977 1010 43 400 310/18G30 RMK AO2 PK WND 33034/1816
14837KMSN MSN20071105125014511/05/07 12:50:31  5-MIN KMSN 051850Z 31021G37KT 10SM FEW049 OVC060 07/M04 A2977 1010 43 400 310/21G37 RMK AO2 PK WND 33037/1846 SLP083 T00721044
14837KMSN MSN20071105125511011/05/07 12:55:31  5-MIN KMSN 051855Z 30016G37KT 10SM SCT049 BKN060 07/M04 A2977 1000 43 300 300/16G37 RMK AO2
14837KMSN MSN20071105130012811/05/07 13:00:31  5-MIN KMSN 051900Z 31020G31KT 10SM SCT049 BKN060 07/M04 A2977 1000 43 300 310/20G31 RMK AO2 PK WND 31031/1858
14837KMSN MSN20071105130512811/05/07 13:05:31  5-MIN KMSN 051905Z 31012G31KT 10SM SCT049 BKN060 07/M04 A2977 1010 43 400 300/12G31 RMK AO2 PK WND 31031/1858
14837KMSN MSN20071105131012811/05/07 13:10:31  5-MIN KMSN 051910Z 29014G26KT 10SM SCT049 BKN060 08/M04 A2977 1010 43 400 290/14G26 RMK AO2 PK WND 31031/1858
14837KMSN MSN20071105131512811/05/07 13:15:31  5-MIN KMSN 051915Z 31011G24KT 10SM SCT049 BKN060 08/M04 A2977 1000 42 500 310/11G24 RMK AO2 PK WND 31031/1858
14837KMSN MSN20071105132012811/05/07 13:20:31  5-MIN KMSN 051920Z 31017G24KT 10SM SCT049 BKN060 08/M04 A2977 1000 43 400 300/17G24 RMK AO2 PK WND 31031/1858
14837KMSN MSN20071105132512711/05/07 13:25:31  5-MIN KMSN 051925Z 30015G24KT 8SM SCT049 BKN060 08/M04 A2977 1000 43 400 300/15G24 RMK AO2 PK WND 31031/1858
14837KMSN MSN20071105133012711/05/07 13:30:31  5-MIN KMSN 051930Z 31013G24KT 8SM SCT049 BKN060 07/M04 A2977 1000 45 300 310/13G24 RMK AO2 PK WND 31031/1858
14837KMSN MSN20071105133512711/05/07 13:35:31  5-MIN KMSN 051935Z 32015G27KT 10SM SCT049 BKN060 08/M04 A2978 990 43 400 310/15G27 RMK AO2 PK WND 31031/1858
14837KMSN MSN20071105134014911/05/07 13:40:31  5-MIN KMSN 051940Z 33018G29KT 9SM -RA BKN049 OVC060 07/M03 A2979 980 49 300 330/18G29 RMK AO2 PK WND 31031/1858 RAB39 PRESRR P0000
14837KMSN MSN20071105134515611/05/07 13:45:31  5-MIN KMSN 051945Z 32013G29KT 8SM -RASN FEW031 BKN049 OVC060 05/M01 A2979 980 67 100 320/13G29 RMK AO2 PK WND 31031/1858 RAB39SNB42 P0000
14837KMSN MSN20071105135017411/05/07 13:50:31  5-MIN KMSN 051950Z 31010G23KT 9SM -RA SCT037 BKN047 BKN060 05/M01 A2979 990 64 100 310/10G23 RMK AO2 PK WND 31031/1858 RAB39SNB42E46 SLP091 P0000 T00501011
14837KMSN MSN20071105135510911/05/07 13:55:31  5-MIN KMSN 051955Z 31009G19KT 10SM SCT045 BKN055 06/M01 A2979 990 62 100 310/09G19 RMK AO2
14837KMSN MSN20071105140011611/05/07 14:00:31  5-MIN KMSN 052000Z 31010G18KT 10SM FEW036 SCT047 BKN055 06/M02 A2979 990 59 100 310/10G18 RMK AO2
14837KMSN MSN20071105140511611/05/07 14:05:31  5-MIN KMSN 052005Z 31013G21KT 10SM FEW036 SCT046 BKN070 06/M02 A2979 980 57 200 310/13G21 RMK AO2
14837KMSN MSN20071105141011611/05/07 14:10:31  5-MIN KMSN 052010Z 33014G22KT 10SM FEW038 SCT046 BKN060 06/M02 A2980 970 57 200 330/14G22 RMK AO2
14837KMSN MSN20071105141515011/05/07 14:15:31  5-MIN KMSN 052015Z 32016G26KT 10SM -RA FEW038 BKN055 BKN070 06/M02 A2980 970 57 100 310/16G26 RMK AO2 PK WND 32026/2013 RAB14 P0000
14837KMSN MSN20071105142015011/05/07 14:20:31  5-MIN KMSN 052020Z 33014G26KT 10SM -RA FEW039 BKN055 BKN070 06/M02 A2980 970 59 100 330/14G26 RMK AO2 PK WND 32026/2013 RAB14 P0000
14837KMSN MSN20071105142514211/05/07 14:25:31  5-MIN KMSN 052025Z 32013G22KT 10SM FEW039 BKN050 06/M02 A2980 970 57 200 320/13G22 RMK AO2 PK WND 32026/2013 RAB14E23 P0000
14837KMSN MSN20071105143014211/05/07 14:30:31  5-MIN KMSN 052030Z 31011G20KT 10SM FEW039 BKN050 07/M02 A2980 970 55 200 310/11G20 RMK AO2 PK WND 32026/2013 RAB14E23 P0000
14837KMSN MSN20071105143514211/05/07 14:35:31  5-MIN KMSN 052035Z 31010G16KT 10SM FEW039 BKN050 06/M02 A2980 970 55 200 310/10G16 RMK AO2 PK WND 32026/2013 RAB14E23 P0000
14837KMSN MSN20071105144014211/05/07 14:40:31  5-MIN KMSN 052040Z 30008G18KT 10SM FEW050 SCT065 07/M03 A2981 970 51 200 300/08G18 RMK AO2 PK WND 32026/2013 RAB14E23 P0000
14837KMSN MSN20071105144514211/05/07 14:45:31  5-MIN KMSN 052045Z 31011G19KT 10SM SCT060 BKN070 07/M03 A2981 970 49 200 310/11G19 RMK AO2 PK WND 32026/2013 RAB14E23 P0000
14837KMSN MSN20071105145017111/05/07 14:50:31  5-MIN KMSN 052050Z 30020G27KT 10SM SCT050 BKN065 07/M04 A2982 960 47 200 300/20G27 RMK AO2 PK WND 31027/2050 RAB14E23 SLP102 P0000 60000 T00671039 51019
14837KMSN MSN20071105145512011/05/07 14:55:31  5-MIN KMSN 052055Z 31014G27KT 7SM -RASN BKN050 BKN060 06/M03 A2982 960 55 100 300/14G27 RMK AO2 P0000
14837KMSN MSN20071105150013311/05/07 15:00:31  5-MIN KMSN 052100Z 29012G24KT 7SM -RA FEW031 BKN048 BKN065 06/M02 A2982 950 59 100 290/12G24 RMK AO2 SNE2056 P0000
14837KMSN MSN20071105150513511/05/07 15:05:31  5-MIN KMSN 052105Z 29011G20KT 10SM FEW040 SCT050 BKN065 06/M02 A2982 960 57 100 290/11G20 RMK AO2 RAE05SNE2056 P0000
14837KMSN MSN20071105151013511/05/07 15:10:31  5-MIN KMSN 052110Z 29013G22KT 10SM FEW050 SCT065 BKN075 06/M02 A2982 960 57 200 290/13G22 RMK AO2 RAE05SNE2056 P0000
14837KMSN MSN20071105151513511/05/07 15:15:31  5-MIN KMSN 052115Z 29010G22KT 10SM FEW048 SCT065 BKN080 06/M02 A2982 950 57 200 290/10G22 RMK AO2 RAE05SNE2056 P0000
14837KMSN MSN20071105152012811/05/07 15:20:31  5-MIN KMSN 052120Z 29011G19KT 10SM FEW048 SCT080 06/M02 A2983 950 55 100 290/11G19 RMK AO2 RAE05SNE2056 P0000
14837KMSN MSN20071105152512111/05/07 15:25:31  5-MIN KMSN 052125Z 30010G19KT 10SM SCT075 06/M02 A2983 950 55 100 300/10G19 RMK AO2 RAE05SNE2056 P0000
14837KMSN MSN20071105153012111/05/07 15:30:31  5-MIN KMSN 052130Z 30013G20KT 10SM FEW075 06/M03 A2983 950 53 100 300/13G20 RMK AO2 RAE05SNE2056 P0000
14837KMSN MSN20071105153512111/05/07 15:35:31  5-MIN KMSN 052135Z 30013G20KT 10SM FEW080 06/M03 A2983 950 51 100 300/13G20 RMK AO2 RAE05SNE2056 P0000
14837KMSN MSN20071105154012111/05/07 15:40:31  5-MIN KMSN 052140Z 30013G21KT 10SM FEW085 06/M03 A2983 950 51 100 290/13G21 RMK AO2 RAE05SNE2056 P0000
14837KMSN MSN20071105154512111/05/07 15:45:31  5-MIN KMSN 052145Z 30008G23KT 10SM SCT090 06/M03 A2983 950 53 100 300/08G23 RMK AO2 RAE05SNE2056 P0000
14837KMSN MSN20071105155013811/05/07 15:50:31  5-MIN KMSN 052150Z 29011G23KT 10SM SCT090 06/M03 A2983 950 53 100 290/11G23 RMK AO2 RAE05SNE2056 SLP106 P0000 T00611028
14837KMSN MSN20071105155515611/05/07 15:55:31  5-MIN KMSN 052155Z 28018G28KT 9SM -RA FEW046 SCT060 SCT090 06/M02 A2985 930 57 100 280/18G28 RMK AO2 PK WND 30027/2155 RAB54 PRESRR P0000
14837KMSN MSN20071105160014511/05/07 16:00:31  5-MIN KMSN 052200Z 29014G28KT 7SM -RA SCT039 BKN060 04/M01 A2985 930 73 -100 290/14G28 RMK AO2 PK WND 28028/2156 RAB2154 P0000
14837KMSN MSN20071105160515211/05/07 16:05:31  5-MIN KMSN 052205Z 28015G28KT 8SM -RA FEW041 SCT047 BKN060 04/M01 A2985 930 73 -100 280/15G28 RMK AO2 PK WND 28028/2156 RAB2154 P0000
14837KMSN MSN20071105161014511/05/07 16:10:31  5-MIN KMSN 052210Z 29011G24KT 10SM SCT046 BKN060 04/M01 A2985 930 70 -100 290/11G24 RMK AO2 PK WND 28028/2156 RAB2154E10 P0000
14837KMSN MSN20071105161515111/05/07 16:15:31  5-MIN KMSN 052215Z 30012G24KT 10SM FEW041 BKN055 04/M02 A2985 930 67 -100 300/12G24 RMK AO2 PK WND 28028/2156 RAB2154E10 VIRGA P0000
14837KMSN MSN20071105162015511/05/07 16:20:31  5-MIN KMSN 052220Z 29009G18KT 10SM FEW041 BKN055 BKN085 04/M03 A2985 930 59 0 290/09G18 RMK AO2 PK WND 28028/2156 RAB2154E10 VIRGA P0000
14837KMSN MSN20071105162515511/05/07 16:25:31  5-MIN KMSN 052225Z 29009G18KT 10SM FEW041 BKN055 BKN085 04/M03 A2985 930 59 0 290/09G18 RMK AO2 PK WND 28028/2156 RAB2154E10 VIRGA P0000
14837KMSN MSN20071105163014911/05/07 16:30:31  5-MIN KMSN 052230Z 29008G18KT 10SM FEW041 SCT060 BKN085 04/M03 A2986 920 59 0 290/08G18 RMK AO2 PK WND 28028/2156 RAB2154E10 P0000
14837KMSN MSN20071105163515211/05/07 16:35:31  5-MIN KMSN 052235Z 28009G15KT 10SM FEW041 SCT060 BKN085 04/M03 A2986 920 62 -100 280/09G15 RMK AO2 PK WND 28028/2156 RAB2154E10 P0000
14837KMSN MSN20071105164015211/05/07 16:40:31  5-MIN KMSN 052240Z 29009G18KT 10SM FEW041 SCT060 BKN085 04/M03 A2986 920 62 -100 290/09G18 RMK AO2 PK WND 28028/2156 RAB2154E10 P0000
14837KMSN MSN20071105164513811/05/07 16:45:31  5-MIN KMSN 052245Z 30011G19KT 10SM FEW065 04/M03 A2986 920 62 -100 300/11G19 RMK AO2 PK WND 28028/2156 RAB2154E10 P0000
14837KMSN MSN20071105165015511/05/07 16:50:31  5-MIN KMSN 052250Z 30008G19KT 10SM SCT065 04/M03 A2986 920 62 -100 300/08G19 RMK AO2 PK WND 28028/2156 RAB2154E10 SLP118 P0000 T00391028
14837KMSN MSN20071105165510311/05/07 16:55:31  5-MIN KMSN 052255Z 30010G19KT 10SM FEW065 04/M03 A2987 910 62 -100 300/10G19 RMK AO2
14837KMSN MSN20071105170010311/05/07 17:00:31  5-MIN KMSN 052300Z 30009G19KT 10SM SCT065 04/M03 A2987 910 62 -100 300/09G19 RMK AO2
14837KMSN MSN20071105170510311/05/07 17:05:31  5-MIN KMSN 052305Z 29009G16KT 10SM SCT065 04/M03 A2987 910 59 -100 290/09G16 RMK AO2
14837KMSN MSN20071105171010311/05/07 17:10:31  5-MIN KMSN 052310Z 30007G16KT 10SM SCT065 04/M03 A2987 910 59 -100 300/07G16 RMK AO2
14837KMSN MSN20071105171509711/05/07 17:15:31  5-MIN KMSN 052315Z 29008KT 10SM SCT070 04/M03 A2987 910 59 -100 290/08 RMK AO2
14837KMSN MSN20071105172009711/05/07 17:20:31  5-MIN KMSN 052320Z 29007KT 10SM SCT070 04/M03 A2987 910 59 -100 290/07 RMK AO2
14837KMSN MSN20071105172509711/05/07 17:25:31  5-MIN KMSN 052325Z 29006KT 10SM SCT070 04/M03 A2987 910 62 -100 290/06 RMK AO2
14837KMSN MSN20071105173009711/05/07 17:30:31  5-MIN KMSN 052330Z 30005KT 10SM SCT070 04/M03 A2987 910 62 -100 290/05 RMK AO2
14837KMSN MSN20071105173510411/05/07 17:35:31  5-MIN KMSN 052335Z 29005KT 10SM FEW060 BKN080 03/M03 A2988 910 64 -200 290/05 RMK AO2
14837KMSN MSN20071105174010411/05/07 17:40:31  5-MIN KMSN 052340Z 30008KT 10SM FEW060 BKN080 03/M03 A2988 910 64 -200 300/08 RMK AO2
14837KMSN MSN20071105174511011/05/07 17:45:31  5-MIN KMSN 052345Z 29008G16KT 10SM SCT060 BKN080 04/M03 A2988 900 62 -100 290/08G16 RMK AO2
14837KMSN MSN20071105175015111/05/07 17:50:31  5-MIN KMSN 052350Z 30012G19KT 10SM SCT060 BKN075 04/M03 A2988 900 59 -100 300/12G19 RMK AO2 SLP123 60000 T00391033 10083 20033 53028
14837KMSN MSN20071105175511011/05/07 17:55:31  5-MIN KMSN 052355Z 30008G19KT 10SM SCT060 BKN080 04/M04 A2988 900 57 -100 300/08G19 RMK AO2
14837KMSN MSN20071105180011011/05/07 18:00:31  5-MIN KMSN 060000Z 30012G21KT 10SM BKN060 BKN080 04/M04 A2988 900 52 -100 300/12G21 RMK AO2
14837KMSN MSN20071105180510311/05/07 18:05:31  5-MIN KMSN 060005Z 30015G22KT 10SM BKN065 04/M06 A2989 900 48 -100 300/15G22 RMK AO2
14837KMSN MSN20071105181010311/05/07 18:10:31  5-MIN KMSN 060010Z 31015G24KT 10SM BKN065 04/M06 A2989 900 48 -100 310/15G24 RMK AO2
14837KMSN MSN20071105181511011/05/07 18:15:31  5-MIN KMSN 060015Z 31017G25KT 10SM FEW050 BKN060 04/M06 A2989 890 48 -100 310/17G25 RMK AO2
14837KMSN MSN20071105182012811/05/07 18:20:31  5-MIN KMSN 060020Z 31015G27KT 10SM SCT050 BKN060 04/M06 A2989 890 48 -100 300/15G27 RMK AO2 PK WND 32027/0017
14837KMSN MSN20071105182512811/05/07 18:25:31  5-MIN KMSN 060025Z 31012G28KT 10SM BKN048 BKN060 04/M06 A2989 890 48 -100 310/12G28 RMK AO2 PK WND 33028/0022
14837KMSN MSN20071105183013511/05/07 18:30:31  5-MIN KMSN 060030Z 31013G28KT 10SM BKN048 BKN060 BKN070 04/M05 A2989 890 50 -100 310/13G28 RMK AO2 PK WND 33028/0022
14837KMSN MSN20071105183512811/05/07 18:35:31  5-MIN KMSN 060035Z 31009G19KT 10SM BKN048 BKN060 04/M04 A2990 890 54 -200 310/09G19 RMK AO2 PK WND 33028/0022
14837KMSN MSN20071105184012811/05/07 18:40:31  5-MIN KMSN 060040Z 30011G19KT 10SM BKN050 OVC065 04/M04 A2989 890 54 -200 300/11G19 RMK AO2 PK WND 33028/0022
14837KMSN MSN20071105184512811/05/07 18:45:31  5-MIN KMSN 060045Z 31012G19KT 10SM SCT048 OVC060 04/M05 A2989 890 50 -100 310/12G19 RMK AO2 PK WND 33028/0022
14837KMSN MSN20071105185015211/05/07 18:50:31  5-MIN KMSN 060050Z 30012G23KT 10SM SCT048 BKN060 OVC075 04/M05 A2990 890 50 -100 300/12G23 RMK AO2 PK WND 33028/0022 SLP129 T00441050
14837KMSN MSN20071105185511711/05/07 18:55:31  5-MIN KMSN 060055Z 30010G23KT 10SM FEW048 BKN060 OVC080 04/M05 A2990 890 50 -100 300/10G23 RMK AO2
14837KMSN MSN20071105190011711/05/07 19:00:31  5-MIN KMSN 060100Z 30010G17KT 10SM FEW048 BKN060 OVC080 04/M05 A2990 890 52 -200 300/10G17 RMK AO2
14837KMSN MSN20071105190511711/05/07 19:05:31  5-MIN KMSN 060105Z 30011G17KT 10SM FEW048 SCT065 OVC080 04/M05 A2990 890 52 -200 290/11G17 RMK AO2
14837KMSN MSN20071105191011711/05/07 19:10:31  5-MIN KMSN 060110Z 30010G17KT 10SM FEW048 SCT055 OVC080 04/M05 A2990 890 52 -200 300/10G17 RMK AO2
14837KMSN MSN20071105191511011/05/07 19:15:31  5-MIN KMSN 060115Z 30011G17KT 10SM FEW046 OVC080 04/M05 A2990 890 52 -200 300/11G17 RMK AO2
14837KMSN MSN20071105192012811/05/07 19:20:31  5-MIN KMSN 060120Z 31014G27KT 10SM FEW055 OVC080 04/M05 A2990 890 52 -200 300/14G27 RMK AO2 PK WND 30027/0120
14837KMSN MSN20071105192512811/05/07 19:25:31  5-MIN KMSN 060125Z 30011G27KT 10SM FEW047 OVC080 04/M05 A2990 880 52 -200 300/11G27 RMK AO2 PK WND 30027/0120
14837KMSN MSN20071105193012711/05/07 19:30:31  5-MIN KMSN 060130Z 31012G20KT 9SM SCT044 OVC075 04/M05 A2990 880 52 -200 310/12G20 RMK AO2 PK WND 30027/0120
14837KMSN MSN20071105193513411/05/07 19:35:31  5-MIN KMSN 060135Z 30010G20KT 9SM FEW040 BKN050 OVC075 04/M05 A2990 880 52 -200 300/10G20 RMK AO2 PK WND 30027/0120
14837KMSN MSN20071105194013511/05/07 19:40:31  5-MIN KMSN 060140Z 31015G22KT 10SM FEW042 SCT055 OVC075 04/M05 A2990 880 52 -200 310/15G22 RMK AO2 PK WND 30027/0120
14837KMSN MSN20071105194513511/05/07 19:45:31  5-MIN KMSN 060145Z 32012G23KT 10SM FEW045 SCT055 OVC080 04/M06 A2990 880 50 -200 320/12G23 RMK AO2 PK WND 30027/0120
14837KMSN MSN20071105195015211/05/07 19:50:31  5-MIN KMSN 060150Z 31011G23KT 10SM SCT045 BKN055 OVC075 04/M05 A2990 880 52 -200 310/11G23 RMK AO2 PK WND 30027/0120 SLP132 T00391050
14837KMSN MSN20071105195511711/05/07 19:55:31  5-MIN KMSN 060155Z 32013G19KT 10SM BKN045 BKN055 OVC080 04/M05 A2991 880 52 -200 320/13G19 RMK AO2
14837KMSN MSN20071105200011611/05/07 20:00:31  5-MIN KMSN 060200Z 33016G24KT 9SM BKN045 BKN055 OVC080 03/M04 A2991 870 57 -200 330/16G24 RMK AO2
14837KMSN MSN20071105200515011/05/07 20:05:31  5-MIN KMSN 060205Z 31017G30KT 5SM -SN FEW012 BKN043 OVC080 03/M04 A2992 860 57 -300 310/17G30 RMK AO2 PK WND 32030/0202 SNB05 P0000
14837KMSN MSN20071105201016611/05/07 20:10:31  5-MIN KMSN 060210Z 30015G30KT 260V330 6SM -SN SCT014 BKN043 OVC080 02/M03 A2991 870 72 -500 300/15G30 260V330 RMK AO2 PK WND 32030/0202 SNB05 P0000
14837KMSN MSN20071105201515011/05/07 20:15:31  5-MIN KMSN 060215Z 29013G26KT 6SM -SN BKN032 BKN043 OVC049 02/M03 A2991 870 72 -400 290/13G26 RMK AO2 PK WND 32030/0202 SNB05 P0000
14837KMSN MSN20071105202014211/05/07 20:20:31  5-MIN KMSN 060220Z 30011G20KT 9SM BKN041 OVC080 02/M03 A2991 870 72 -400 290/11G20 RMK AO2 PK WND 32030/0202 SNB05E20 P0000
14837KMSN MSN20071105202514211/05/07 20:25:31  5-MIN KMSN 060225Z 29009G17KT 9SM BKN039 BKN080 02/M03 A2991 870 72 -500 290/09G17 RMK AO2 PK WND 32030/0202 SNB05E20 P0000
14837KMSN MSN20071105203014211/05/07 20:30:31  5-MIN KMSN 060230Z 29011G16KT 9SM SCT036 BKN080 02/M03 A2991 870 72 -400 290/11G16 RMK AO2 PK WND 32030/0202 SNB05E20 P0000
14837KMSN MSN20071105203514211/05/07 20:35:31  5-MIN KMSN 060235Z 30011G19KT 9SM SCT041 SCT080 02/M03 A2991 870 69 -500 300/11G19 RMK AO2 PK WND 32030/0202 SNB05E20 P0000
14837KMSN MSN20071105204013611/05/07 20:40:31  5-MIN KMSN 060240Z 30013G21KT 10SM FEW060 02/M04 A2991 870 66 -500 300/13G21 RMK AO2 PK WND 32030/0202 SNB05E20 P0000
14837KMSN MSN20071105204513611/05/07 20:45:31  5-MIN KMSN 060245Z 30012G23KT 10SM FEW060 02/M04 A2992 870 61 -400 300/12G23 RMK AO2 PK WND 32030/0202 SNB05E20 P0000
14837KMSN MSN20071105205016511/05/07 20:50:31  5-MIN KMSN 060250Z 30014G23KT 10SM FEW060 02/M04 A2991 870 61 -400 300/14G23 RMK AO2 PK WND 32030/0202 SNB05E20 SLP135 P0000 60000 T00221044 53019
14837KMSN MSN20071105205510011/05/07 20:55:31  5-MIN KMSN 060255Z 29015G22KT 10SM CLR 02/M05 A2991 870 59 -400 290/15G22 RMK AO2
14837KMSN MSN20071105210010011/05/07 21:00:31  5-MIN KMSN 060300Z 29016G25KT 10SM CLR 02/M05 A2991 870 59 -400 290/16G25 RMK AO2
14837KMSN MSN20071105210510011/05/07 21:05:31  5-MIN KMSN 060305Z 30010G25KT 10SM CLR 02/M05 A2991 870 59 -400 290/10G25 RMK AO2
14837KMSN MSN20071105211010011/05/07 21:10:31  5-MIN KMSN 060310Z 30009G22KT 10SM CLR 02/M05 A2991 870 59 -400 300/09G22 RMK AO2
14837KMSN MSN20071105211510011/05/07 21:15:31  5-MIN KMSN 060315Z 30010G17KT 10SM CLR 02/M05 A2991 870 59 -400 300/10G17 RMK AO2
14837KMSN MSN20071105212010011/05/07 21:20:31  5-MIN KMSN 060320Z 30014G21KT 10SM CLR 02/M05 A2992 870 59 -400 300/14G21 RMK AO2
14837KMSN MSN20071105212510011/05/07 21:25:31  5-MIN KMSN 060325Z 30010G21KT 10SM CLR 02/M06 A2992 870 56 -400 300/10G21 RMK AO2
14837KMSN MSN20071105213010011/05/07 21:30:31  5-MIN KMSN 060330Z 30009G21KT 10SM CLR 02/M06 A2992 870 56 -400 300/09G21 RMK AO2
14837KMSN MSN20071105213510011/05/07 21:35:31  5-MIN KMSN 060335Z 30008G17KT 10SM CLR 02/M06 A2992 860 59 -500 300/08G17 RMK AO2
14837KMSN MSN20071105214010011/05/07 21:40:31  5-MIN KMSN 060340Z 29006G15KT 10SM CLR 02/M06 A2992 860 59 -500 290/06G15 RMK AO2
14837KMSN MSN20071105214509411/05/07 21:45:31  5-MIN KMSN 060345Z 29008KT 10SM CLR 02/M06 A2992 860 59 -500 280/08 RMK AO2
14837KMSN MSN20071105215011711/05/07 21:50:31  5-MIN KMSN 060350Z 29008G14KT 10SM CLR 02/M06 A2992 860 59 -500 280/08G14 RMK AO2 SLP140 T00171056
14837KMSN MSN20071105215510311/05/07 21:55:31  5-MIN KMSN 060355Z 29010G18KT 10SM FEW070 02/M06 A2992 860 59 -500 290/10G18 RMK AO2
14837KMSN MSN20071105220010311/05/07 22:00:31  5-MIN KMSN 060400Z 30010G18KT 10SM FEW070 02/M06 A2993 860 59 -500 300/10G18 RMK AO2
14837KMSN MSN20071105220510311/05/07 22:05:31  5-MIN KMSN 060405Z 29011G17KT 10SM FEW070 02/M05 A2993 860 61 -500 290/11G17 RMK AO2
14837KMSN MSN20071105221010311/05/07 22:10:31  5-MIN KMSN 060410Z 30008G17KT 10SM FEW070 02/M05 A2993 860 61 -500 300/08G17 RMK AO2
14837KMSN MSN20071105221510311/05/07 22:15:31  5-MIN KMSN 060415Z 30012G19KT 10SM FEW070 02/M05 A2993 860 61 -500 290/12G19 RMK AO2
14837KMSN MSN20071105222010311/05/07 22:20:31  5-MIN KMSN 060420Z 30010G19KT 10SM FEW070 02/M05 A2993 860 61 -500 290/10G19 RMK AO2
14837KMSN MSN20071105222510311/05/07 22:25:31  5-MIN KMSN 060425Z 30011G18KT 10SM FEW070 02/M05 A2993 850 61 -500 300/11G18 RMK AO2
14837KMSN MSN20071105223010311/05/07 22:30:31  5-MIN KMSN 060430Z 30012G19KT 10SM FEW070 02/M05 A2993 850 61 -500 300/12G19 RMK AO2
14837KMSN MSN20071105223510311/05/07 22:35:31  5-MIN KMSN 060435Z 30014G20KT 10SM FEW070 02/M05 A2993 850 61 -500 300/14G20 RMK AO2
14837KMSN MSN20071105224010311/05/07 22:40:31  5-MIN KMSN 060440Z 29010G20KT 10SM FEW070 02/M05 A2993 850 61 -500 290/10G20 RMK AO2
14837KMSN MSN20071105224510311/05/07 22:45:31  5-MIN KMSN 060445Z 30010G19KT 10SM FEW055 02/M05 A2993 850 61 -500 290/10G19 RMK AO2
14837KMSN MSN20071105225011711/05/07 22:50:31  5-MIN KMSN 060450Z 29009G19KT 10SM CLR 02/M05 A2993 850 61 -500 290/09G19 RMK AO2 SLP143 T00171050
14837KMSN MSN20071105225510011/05/07 22:55:31  5-MIN KMSN 060455Z 30009G15KT 10SM CLR 02/M05 A2993 850 61 -500 300/09G15 RMK AO2
14837KMSN MSN20071105230010011/05/07 23:00:31  5-MIN KMSN 060500Z 30008G15KT 10SM CLR 02/M05 A2993 850 61 -500 290/08G15 RMK AO2
14837KMSN MSN20071105230509411/05/07 23:05:31  5-MIN KMSN 060505Z 29009KT 10SM CLR 02/M05 A2993 850 61 -500 290/09 RMK AO2
14837KMSN MSN20071105231010011/05/07 23:10:31  5-MIN KMSN 060510Z 30007G15KT 10SM CLR 02/M05 A2994 850 61 -500 290/07G15 RMK AO2
14837KMSN MSN20071105231510311/05/07 23:15:31  5-MIN KMSN 060515Z 30012G19KT 10SM FEW050 02/M05 A2994 850 61 -500 300/12G19 RMK AO2
14837KMSN MSN20071105232010311/05/07 23:20:31  5-MIN KMSN 060520Z 29008G19KT 10SM SCT050 02/M05 A2994 840 61 -500 290/08G19 RMK AO2
14837KMSN MSN20071105232511011/05/07 23:25:31  5-MIN KMSN 060525Z 30011G18KT 10SM FEW043 BKN050 02/M05 A2994 840 61 -500 300/11G18 RMK AO2
14837KMSN MSN20071105233010311/05/07 23:30:31  5-MIN KMSN 060530Z 30009G18KT 10SM BKN050 02/M05 A2995 840 59 -400 300/09G18 RMK AO2
14837KMSN MSN20071105233510311/05/07 23:35:31  5-MIN KMSN 060535Z 30012G20KT 10SM BKN050 02/M05 A2995 840 59 -400 300/12G20 RMK AO2
14837KMSN MSN20071105234010311/05/07 23:40:31  5-MIN KMSN 060540Z 30014G21KT 10SM OVC050 03/M05 A2995 840 56 -400 300/14G21 RMK AO2
14837KMSN MSN20071105234510311/05/07 23:45:31  5-MIN KMSN 060545Z 30011G21KT 10SM OVC050 03/M06 A2995 840 54 -400 290/11G21 RMK AO2
14837KMSN MSN20071105235015411/05/07 23:50:31  5-MIN KMSN 060550Z 29008G21KT 10SM OVC050 03/M05 A2995 840 56 -400 290/08G21 RMK AO2 SLP146 60000 T00281050 10044 20017 401060017 51011
14837KMSN MSN20071105235510311/05/07 23:55:31  5-MIN KMSN 060555Z 29009G17KT 10SM OVC050 03/M05 A2995 840 56 -400 290/09G17 RMK AO2
14837KMSN MSN20071106000010311/06/07 00:00:32  5-MIN KMSN 060600Z 30011G17KT 10SM OVC050 03/M05 A2995 840 56 -400 300/11G17 RMK AO2
14837KMSN MSN20071106000510311/06/07 00:05:31  5-MIN KMSN 060605Z 30010G16KT 10SM OVC050 03/M05 A2995 840 56 -400 300/10G16 RMK AO2
14837KMSN MSN20071106001011011/06/07 00:10:31  5-MIN KMSN 060610Z 30008G18KT 10SM BKN047 OVC055 03/M05 A2995 840 56 -400 290/08G18 RMK AO2
14837KMSN MSN20071106001511011/06/07 00:15:31  5-MIN KMSN 060615Z 30011G19KT 10SM BKN047 OVC055 03/M05 A2995 840 56 -400 300/11G19 RMK AO2
14837KMSN MSN20071106002011011/06/07 00:20:31  5-MIN KMSN 060620Z 29009G19KT 10SM BKN047 OVC055 03/M05 A2995 840 56 -400 290/09G19 RMK AO2
14837KMSN MSN20071106002511011/06/07 00:25:31  5-MIN KMSN 060625Z 29008G19KT 10SM BKN045 OVC055 03/M05 A2995 840 56 -400 290/08G19 RMK AO2
14837KMSN MSN20071106003010311/06/07 00:30:31  5-MIN KMSN 060630Z 30012G22KT 10SM OVC047 03/M05 A2995 840 56 -400 300/12G22 RMK AO2
14837KMSN MSN20071106003510311/06/07 00:35:31  5-MIN KMSN 060635Z 30010G22KT 10SM OVC047 03/M05 A2995 840 56 -400 300/10G22 RMK AO2
14837KMSN MSN20071106004010311/06/07 00:40:31  5-MIN KMSN 060640Z 30009G23KT 10SM OVC049 03/M05 A2995 840 56 -400 300/09G23 RMK AO2
14837KMSN MSN20071106004510311/06/07 00:45:31  5-MIN KMSN 060645Z 30013G23KT 10SM OVC049 03/M05 A2995 840 56 -400 300/13G23 RMK AO2
14837KMSN MSN20071106005012011/06/07 00:50:31  5-MIN KMSN 060650Z 30015G21KT 10SM OVC049 03/M05 A2995 830 56 -400 290/15G21 RMK AO2 SLP149 T00281050
14837KMSN MSN20071106005510311/06/07 00:55:31  5-MIN KMSN 060655Z 29013G21KT 10SM OVC049 03/M05 A2996 830 56 -400 290/13G21 RMK AO2
14837KMSN MSN20071106010010311/06/07 01:00:31  5-MIN KMSN 060700Z 30016G22KT 10SM OVC049 03/M05 A2996 830 56 -400 300/16G22 RMK AO2
14837KMSN MSN20071106010510311/06/07 01:05:31  5-MIN KMSN 060705Z 31014G25KT 10SM OVC047 03/M05 A2996 830 56 -400 310/14G25 RMK AO2
14837KMSN MSN20071106011011011/06/07 01:10:31  5-MIN KMSN 060710Z 30011G25KT 10SM BKN043 OVC050 03/M05 A2996 830 56 -400 300/11G25 RMK AO2
14837KMSN MSN20071106011511011/06/07 01:15:31  5-MIN KMSN 060715Z 30015G24KT 10SM BKN043 OVC050 03/M05 A2996 830 56 -400 300/15G24 RMK AO2
14837KMSN MSN20071106012011011/06/07 01:20:31  5-MIN KMSN 060720Z 29011G24KT 10SM BKN043 OVC050 03/M05 A2996 830 56 -400 290/11G24 RMK AO2
14837KMSN MSN20071106012511911/06/07 01:25:31  5-MIN KMSN 060725Z 29013G24KT 260V320 10SM BKN043 03/M05 A2996 830 56 -400 290/13G24 260V320 RMK AO2
14837KMSN MSN20071106013010311/06/07 01:30:31  5-MIN KMSN 060730Z 30012G24KT 10SM BKN043 03/M05 A2996 830 56 -400 300/12G24 RMK AO2
14837KMSN MSN20071106013510311/06/07 01:35:31  5-MIN KMSN 060735Z 29014G24KT 10SM BKN041 02/M05 A2996 830 59 -400 290/14G24 RMK AO2
14837KMSN MSN20071106014011011/06/07 01:40:31  5-MIN KMSN 060740Z 29011G21KT 10SM BKN041 BKN055 03/M05 A2996 820 56 -400 290/11G21 RMK AO2
14837KMSN MSN20071106014511011/06/07 01:45:31  5-MIN KMSN 060745Z 30013G21KT 10SM SCT041 BKN055 03/M05 A2997 820 56 -400 290/13G21 RMK AO2
14837KMSN MSN20071106015012711/06/07 01:50:31  5-MIN KMSN 060750Z 29015G20KT 10SM SCT041 BKN055 03/M05 A2996 820 56 -400 290/15G20 RMK AO2 SLP154 T00281050
14837KMSN MSN20071106015511011/06/07 01:55:31  5-MIN KMSN 060755Z 30011G20KT 10SM FEW039 BKN055 03/M05 A2996 820 56 -400 300/11G20 RMK AO2
14837KMSN MSN20071106020011011/06/07 02:00:31  5-MIN KMSN 060800Z 30011G20KT 10SM FEW039 BKN055 02/M05 A2996 830 59 -400 300/11G20 RMK AO2
14837KMSN MSN20071106020511011/06/07 02:05:31  5-MIN KMSN 060805Z 30013G21KT 10SM FEW039 BKN055 02/M05 A2996 830 59 -400 300/13G21 RMK AO2
14837KMSN MSN20071106021010311/06/07 02:10:31  5-MIN KMSN 060810Z 29012G21KT 10SM BKN055 02/M05 A2996 830 59 -400 290/12G21 RMK AO2
14837KMSN MSN20071106021510311/06/07 02:15:31  5-MIN KMSN 060815Z 29010G21KT 10SM SCT055 02/M05 A2996 830 59 -400 290/10G21 RMK AO2
14837KMSN MSN20071106022010311/06/07 02:20:31  5-MIN KMSN 060820Z 30011G20KT 10SM SCT055 02/M05 A2996 830 59 -400 300/11G20 RMK AO2
14837KMSN MSN20071106022510311/06/07 02:25:31  5-MIN KMSN 060825Z 30013G20KT 10SM FEW055 02/M05 A2996 830 59 -400 300/13G20 RMK AO2
14837KMSN MSN20071106023010311/06/07 02:30:31  5-MIN KMSN 060830Z 30010G20KT 10SM FEW055 02/M05 A2996 830 59 -400 300/10G20 RMK AO2
14837KMSN MSN20071106023510311/06/07 02:35:31  5-MIN KMSN 060835Z 30012G20KT 10SM FEW055 02/M05 A2996 830 59 -400 290/12G20 RMK AO2
14837KMSN MSN20071106024010311/06/07 02:40:31  5-MIN KMSN 060840Z 29011G20KT 10SM FEW055 02/M05 A2996 830 59 -400 290/11G20 RMK AO2
14837KMSN MSN20071106024510311/06/07 02:45:31  5-MIN KMSN 060845Z 30010G24KT 10SM FEW055 02/M05 A2996 820 59 -400 290/10G24 RMK AO2
14837KMSN MSN20071106025012311/06/07 02:50:31  5-MIN KMSN 060850Z 29008G24KT 10SM CLR 02/M05 A2996 830 59 -400 290/08G24 RMK AO2 SLP153 T00221050 53011
14837KMSN MSN20071106025510011/06/07 02:55:31  5-MIN KMSN 060855Z 30013G20KT 10SM CLR 02/M05 A2997 820 59 -400 290/13G20 RMK AO2
14837KMSN MSN20071106030010011/06/07 03:00:31  5-MIN KMSN 060900Z 30011G20KT 10SM CLR 02/M05 A2997 820 59 -400 300/11G20 RMK AO2
14837KMSN MSN20071106030510011/06/07 03:05:31  5-MIN KMSN 060905Z 30009G18KT 10SM CLR 02/M05 A2997 820 59 -400 300/09G18 RMK AO2
14837KMSN MSN20071106031010311/06/07 03:10:31  5-MIN KMSN 060910Z 30011G17KT 10SM FEW050 02/M05 A2997 820 59 -400 300/11G17 RMK AO2
14837KMSN MSN20071106031510311/06/07 03:15:31  5-MIN KMSN 060915Z 30012G21KT 10SM SCT050 02/M04 A2997 820 61 -400 300/12G21 RMK AO2
14837KMSN MSN20071106032010311/06/07 03:20:31  5-MIN KMSN 060920Z 29013G22KT 10SM BKN050 02/M04 A2997 820 61 -400 290/13G22 RMK AO2
14837KMSN MSN20071106032510311/06/07 03:25:31  5-MIN KMSN 060925Z 30008G22KT 10SM BKN050 02/M04 A2997 820 61 -400 300/08G22 RMK AO2
14837KMSN MSN20071106033010311/06/07 03:30:31  5-MIN KMSN 060930Z 30012G20KT 10SM BKN050 02/M04 A2997 820 61 -400 300/12G20 RMK AO2
14837KMSN MSN20071106040510311/06/07 04:05:31  5-MIN KMSN 061005Z 31011G23KT 10SM OVC048 03/M04 A2998 810 59 -400 310/11G23 RMK AO2
14837KMSN MSN20071106041012111/06/07 04:10:31  5-MIN KMSN 061010Z 31017G26KT 10SM OVC048 03/M04 A2998 810 59 -400 310/17G26 RMK AO2 PK WND 30026/1009
14837KMSN MSN20071106041512111/06/07 04:15:31  5-MIN KMSN 061015Z 31017G29KT 10SM OVC048 03/M05 A2998 810 56 -400 310/17G29 RMK AO2 PK WND 32029/1014
14837KMSN MSN20071106042012111/06/07 04:20:31  5-MIN KMSN 061020Z 31016G29KT 10SM OVC048 03/M05 A2998 810 56 -400 310/16G29 RMK AO2 PK WND 32029/1014
14837KMSN MSN20071106042512111/06/07 04:25:31  5-MIN KMSN 061025Z 32014G28KT 10SM OVC048 03/M05 A2998 810 56 -400 310/14G28 RMK AO2 PK WND 32029/1014
14837KMSN MSN20071106043012111/06/07 04:30:31  5-MIN KMSN 061030Z 31019G28KT 10SM OVC048 03/M05 A2999 800 56 -400 310/19G28 RMK AO2 PK WND 32029/1014
14837KMSN MSN20071106043512111/06/07 04:35:31  5-MIN KMSN 061035Z 31014G27KT 10SM OVC050 03/M05 A2999 800 56 -400 310/14G27 RMK AO2 PK WND 32029/1014
14837KMSN MSN20071106044012111/06/07 04:40:31  5-MIN KMSN 061040Z 31013G22KT 10SM OVC050 03/M05 A2999 800 56 -400 310/13G22 RMK AO2 PK WND 32029/1014
14837KMSN MSN20071106044512111/06/07 04:45:31  5-MIN KMSN 061045Z 31015G22KT 10SM OVC050 03/M05 A2999 800 56 -400 310/15G22 RMK AO2 PK WND 32029/1014
14837KMSN MSN20071106045013811/06/07 04:50:31  5-MIN KMSN 061050Z 31014G23KT 10SM OVC050 03/M05 A2999 800 56 -400 310/14G23 RMK AO2 PK WND 32029/1014 SLP164 T00281050
14837KMSN MSN20071106045510311/06/07 04:55:31  5-MIN KMSN 061055Z 31014G23KT 10SM OVC050 03/M05 A2999 800 56 -400 310/14G23 RMK AO2
14837KMSN MSN20071106050012111/06/07 05:00:31  5-MIN KMSN 061100Z 31014G31KT 10SM OVC050 03/M05 A3000 790 56 -400 310/14G31 RMK AO2 PK WND 29031/1058
14837KMSN MSN20071106050512111/06/07 05:05:31  5-MIN KMSN 061105Z 31014G31KT 10SM OVC050 03/M05 A3000 790 56 -400 310/14G31 RMK AO2 PK WND 29031/1058
14837KMSN MSN20071106051012111/06/07 05:10:31  5-MIN KMSN 061110Z 31012G20KT 10SM OVC050 03/M05 A3000 790 56 -400 310/12G20 RMK AO2 PK WND 29031/1058
14837KMSN MSN20071106051512111/06/07 05:15:31  5-MIN KMSN 061115Z 31014G29KT 10SM OVC048 03/M05 A3000 790 56 -400 310/14G29 RMK AO2 PK WND 29031/1058
14837KMSN MSN20071106052012111/06/07 05:20:31  5-MIN KMSN 061120Z 32016G29KT 10SM OVC048 03/M05 A3000 790 56 -400 310/16G29 RMK AO2 PK WND 29031/1058
14837KMSN MSN20071106052512111/06/07 05:25:31  5-MIN KMSN 061125Z 31012G23KT 10SM OVC048 03/M05 A3000 790 54 -300 310/12G23 RMK AO2 PK WND 29031/1058
14837KMSN MSN20071106053012111/06/07 05:30:31  5-MIN KMSN 061130Z 31013G23KT 10SM OVC048 03/M05 A3000 790 56 -400 310/13G23 RMK AO2 PK WND 29031/1058
14837KMSN MSN20071106053512111/06/07 05:35:31  5-MIN KMSN 061135Z 30010G23KT 10SM OVC048 03/M05 A3000 790 56 -400 300/10G23 RMK AO2 PK WND 29031/1058
14837KMSN MSN20071106054012111/06/07 05:40:31  5-MIN KMSN 061140Z 31015G25KT 10SM OVC048 03/M05 A3000 790 56 -400 310/15G25 RMK AO2 PK WND 29031/1058
14837KMSN MSN20071106054512111/06/07 05:45:31  5-MIN KMSN 061145Z 31013G26KT 10SM OVC048 03/M05 A3000 790 56 -400 310/13G26 RMK AO2 PK WND 29031/1058
14837KMSN MSN20071106055015611/06/07 05:50:31  5-MIN KMSN 061150Z 31013G26KT 10SM BKN048 03/M05 A3001 780 56 -400 310/13G26 RMK AO2 PK WND 29031/1058 SLP169 T00281050 10033 20022 51006
14837KMSN MSN20071106055510311/06/07 05:55:31  5-MIN KMSN 061155Z 31016G24KT 10SM OVC048 03/M05 A3001 780 56 -400 310/16G24 RMK AO2
14837KMSN MSN20071106060012111/06/07 06:00:31  5-MIN KMSN 061200Z 31021G29KT 10SM BKN048 03/M05 A3001 780 56 -400 310/21G29 RMK AO2 PK WND 31029/1159
14837KMSN MSN20071106060512111/06/07 06:05:31  5-MIN KMSN 061205Z 30014G29KT 10SM BKN048 03/M05 A3001 780 56 -400 300/14G29 RMK AO2 PK WND 31029/1159
14837KMSN MSN20071106061012111/06/07 06:10:31  5-MIN KMSN 061210Z 30012G22KT 10SM OVC048 03/M05 A3001 780 56 -400 300/12G22 RMK AO2 PK WND 31029/1159
14837KMSN MSN20071106061512111/06/07 06:15:31  5-MIN KMSN 061215Z 31014G25KT 10SM OVC048 03/M05 A3001 780 56 -400 300/14G25 RMK AO2 PK WND 31029/1159
14837KMSN MSN20071106062012111/06/07 06:20:31  5-MIN KMSN 061220Z 30014G25KT 10SM OVC046 03/M06 A3002 780 54 -400 300/14G25 RMK AO2 PK WND 31029/1159
14837KMSN MSN20071106062512111/06/07 06:25:31  5-MIN KMSN 061225Z 31017G24KT 10SM OVC046 03/M06 A3002 770 54 -400 310/17G24 RMK AO2 PK WND 31029/1159
14837KMSN MSN20071106063012111/06/07 06:30:31  5-MIN KMSN 061230Z 31017G25KT 10SM OVC046 03/M06 A3002 770 54 -400 310/17G25 RMK AO2 PK WND 31029/1159
14837KMSN MSN20071106063512111/06/07 06:35:31  5-MIN KMSN 061235Z 31010G25KT 10SM OVC046 03/M06 A3002 770 54 -400 310/10G25 RMK AO2 PK WND 31029/1159
14837KMSN MSN20071106064012111/06/07 06:40:31  5-MIN KMSN 061240Z 31009G26KT 10SM OVC046 03/M06 A3002 770 54 -400 310/09G26 RMK AO2 PK WND 31029/1159
14837KMSN MSN20071106064512111/06/07 06:45:31  5-MIN KMSN 061245Z 31013G26KT 10SM OVC046 03/M05 A3003 760 56 -400 310/13G26 RMK AO2 PK WND 31029/1159
14837KMSN MSN20071106065013811/06/07 06:50:31  5-MIN KMSN 061250Z 31013G21KT 10SM OVC046 03/M05 A3003 760 56 -500 310/13G21 RMK AO2 PK WND 31029/1159 SLP178 T00281050
14837KMSN MSN20071106065510311/06/07 06:55:31  5-MIN KMSN 061255Z 31011G21KT 10SM OVC044 03/M05 A3004 760 56 -500 310/11G21 RMK AO2
14837KMSN MSN20071106070010311/06/07 07:00:31  5-MIN KMSN 061300Z 32013G22KT 10SM OVC044 03/M05 A3004 750 54 -400 310/13G22 RMK AO2
14837KMSN MSN20071106070510311/06/07 07:05:31  5-MIN KMSN 061305Z 32012G22KT 10SM OVC045 03/M05 A3005 750 56 -500 320/12G22 RMK AO2
14837KMSN MSN20071106071012111/06/07 07:10:31  5-MIN KMSN 061310Z 33019G26KT 10SM OVC043 03/M05 A3005 750 56 -500 330/19G26 RMK AO2 PK WND 34026/1309
14837KMSN MSN20071106071512111/06/07 07:15:31  5-MIN KMSN 061315Z 33011G26KT 10SM OVC043 03/M05 A3005 740 56 -500 330/11G26 RMK AO2 PK WND 34026/1309
14837KMSN MSN20071106072012111/06/07 07:20:31  5-MIN KMSN 061320Z 33015G22KT 10SM OVC043 03/M05 A3005 740 56 -500 330/15G22 RMK AO2 PK WND 34026/1309
14837KMSN MSN20071106072512111/06/07 07:25:31  5-MIN KMSN 061325Z 33014G21KT 10SM OVC040 03/M05 A3006 740 56 -500 330/14G21 RMK AO2 PK WND 34026/1309
14837KMSN MSN20071106073012111/06/07 07:30:31  5-MIN KMSN 061330Z 33014G21KT 10SM OVC040 03/M05 A3006 730 56 -500 330/14G21 RMK AO2 PK WND 34026/1309
14837KMSN MSN20071106073512111/06/07 07:35:31  5-MIN KMSN 061335Z 33013G21KT 10SM OVC040 03/M05 A3007 730 56 -500 330/13G21 RMK AO2 PK WND 34026/1309
14837KMSN MSN20071106074012111/06/07 07:40:31  5-MIN KMSN 061340Z 32012G21KT 10SM OVC040 03/M04 A3007 730 59 -500 320/12G21 RMK AO2 PK WND 34026/1309
14837KMSN MSN20071106074512111/06/07 07:45:31  5-MIN KMSN 061345Z 34010G21KT 10SM OVC038 03/M04 A3007 730 57 -400 330/10G21 RMK AO2 PK WND 34026/1309
14837KMSN MSN20071106075013811/06/07 07:50:31  5-MIN KMSN 061350Z 33009G18KT 10SM BKN038 03/M04 A3007 720 57 -400 330/09G18 RMK AO2 PK WND 34026/1309 SLP191 T00331044
14837KMSN MSN20071106075510311/06/07 07:55:31  5-MIN KMSN 061355Z 33010G19KT 10SM OVC038 03/M04 A3008 720 57 -400 330/10G19 RMK AO2
14837KMSN MSN20071106080010311/06/07 08:00:31  5-MIN KMSN 061400Z 34012G19KT 10SM OVC038 03/M04 A3008 720 59 -500 340/12G19 RMK AO2
14837KMSN MSN20071106080511011/06/07 08:05:31  5-MIN KMSN 061405Z 34016G23KT 10SM BKN038 OVC046 03/M04 A3008 720 59 -500 340/16G23 RMK AO2
14837KMSN MSN20071106081011011/06/07 08:10:31  5-MIN KMSN 061410Z 34017G23KT 10SM BKN038 OVC046 03/M05 A3008 720 54 -400 340/17G23 RMK AO2
14837KMSN MSN20071106081510311/06/07 08:15:31  5-MIN KMSN 061415Z 34016G22KT 10SM BKN038 04/M05 A3008 720 52 -400 340/16G22 RMK AO2
14837KMSN MSN20071106082010311/06/07 08:20:31  5-MIN KMSN 061420Z 34015G22KT 10SM BKN038 04/M04 A3008 710 54 -400 340/15G22 RMK AO2
14837KMSN MSN20071106082510311/06/07 08:25:31  5-MIN KMSN 061425Z 33016G25KT 10SM BKN038 04/M05 A3009 710 52 -400 330/16G25 RMK AO2
14837KMSN MSN20071106083012111/06/07 08:30:31  5-MIN KMSN 061430Z 33019G32KT 10SM BKN038 03/M06 A3009 710 52 -400 330/19G32 RMK AO2 PK WND 31032/1428
14837KMSN MSN20071106083512111/06/07 08:35:31  5-MIN KMSN 061435Z 33020G32KT 10SM BKN044 03/M06 A3009 700 52 -500 330/20G32 RMK AO2 PK WND 31032/1428
14837KMSN MSN20071106084012111/06/07 08:40:31  5-MIN KMSN 061440Z 32016G30KT 10SM BKN044 03/M06 A3010 700 52 -500 320/16G30 RMK AO2 PK WND 31032/1428
14837KMSN MSN20071106084512111/06/07 08:45:31  5-MIN KMSN 061445Z 33020G30KT 10SM BKN044 03/M06 A3010 700 52 -500 330/20G30 RMK AO2 PK WND 31032/1428
14837KMSN MSN20071106085014411/06/07 08:50:31  5-MIN KMSN 061450Z 32020G28KT 10SM BKN044 03/M06 A3010 700 52 -500 320/20G28 RMK AO2 PK WND 31032/1428 SLP201 T00331056 53014
14837KMSN MSN20071106085510311/06/07 08:55:31  5-MIN KMSN 061455Z 33017G29KT 10SM BKN044 03/M06 A3010 700 52 -500 330/17G29 RMK AO2
14837KMSN MSN20071106090012111/06/07 09:00:31  5-MIN KMSN 061500Z 33014G29KT 10SM BKN044 04/M05 A3011 690 52 -400 330/14G29 RMK AO2 PK WND 33026/1456
14837KMSN MSN20071106090512111/06/07 09:05:31  5-MIN KMSN 061505Z 32018G27KT 10SM BKN044 03/M06 A3011 690 52 -500 320/18G27 RMK AO2 PK WND 35027/1501
14837KMSN MSN20071106091012111/06/07 09:10:31  5-MIN KMSN 061510Z 33018G29KT 10SM SCT042 04/M05 A3011 690 50 -300 330/18G29 RMK AO2 PK WND 34029/1510
14837KMSN MSN20071106091512111/06/07 09:15:31  5-MIN KMSN 061515Z 33018G29KT 10SM BKN042 04/M05 A3011 690 52 -400 330/18G29 RMK AO2 PK WND 34029/1510
14837KMSN MSN20071106092012111/06/07 09:20:31  5-MIN KMSN 061520Z 33015G25KT 10SM BKN042 04/M05 A3011 690 52 -400 330/15G25 RMK AO2 PK WND 34029/1510
14837KMSN MSN20071106092512111/06/07 09:25:31  5-MIN KMSN 061525Z 32020G29KT 10SM BKN042 04/M05 A3011 690 52 -400 320/20G29 RMK AO2 PK WND 32029/1524
14837KMSN MSN20071106093012111/06/07 09:30:31  5-MIN KMSN 061530Z 32015G29KT 10SM BKN042 04/M05 A3011 690 50 -300 320/15G29 RMK AO2 PK WND 32029/1524
14837KMSN MSN20071106093512111/06/07 09:35:31  5-MIN KMSN 061535Z 32018G28KT 10SM BKN042 04/M05 A3011 690 50 -300 320/18G28 RMK AO2 PK WND 32029/1524
14837KMSN MSN20071106094012111/06/07 09:40:31  5-MIN KMSN 061540Z 32017G28KT 10SM BKN042 04/M05 A3012 680 52 -400 320/17G28 RMK AO2 PK WND 32029/1524
14837KMSN MSN20071106094512111/06/07 09:45:31  5-MIN KMSN 061545Z 32018G25KT 10SM BKN042 04/M06 A3012 680 50 -400 320/18G25 RMK AO2 PK WND 32029/1524
14837KMSN MSN20071106095013811/06/07 09:50:31  5-MIN KMSN 061550Z 32017G25KT 10SM BKN042 04/M05 A3012 680 52 -400 320/17G25 RMK AO2 PK WND 32029/1524 SLP207 T00391050
14837KMSN MSN20071106095510311/06/07 09:55:31  5-MIN KMSN 061555Z 34017G25KT 10SM BKN042 04/M05 A3012 680 50 -300 340/17G25 RMK AO2
14837KMSN MSN20071106100012111/06/07 10:00:31  5-MIN KMSN 061600Z 33019G26KT 10SM OVC042 04/M05 A3012 680 52 -400 330/19G26 RMK AO2 PK WND 32026/1559
14837KMSN MSN20071106100512111/06/07 10:05:31  5-MIN KMSN 061605Z 34014G26KT 10SM BKN042 04/M05 A3013 670 52 -400 340/14G26 RMK AO2 PK WND 32026/1559
14837KMSN MSN20071106101012111/06/07 10:10:31  5-MIN KMSN 061610Z 32012G26KT 10SM BKN042 04/M05 A3013 670 52 -400 320/12G26 RMK AO2 PK WND 34026/1606
14837KMSN MSN20071106101512111/06/07 10:15:31  5-MIN KMSN 061615Z 32018G27KT 10SM BKN042 04/M06 A3013 670 50 -400 320/18G27 RMK AO2 PK WND 33027/1614
14837KMSN MSN20071106102012111/06/07 10:20:31  5-MIN KMSN 061620Z 32017G27KT 10SM BKN042 04/M06 A3014 670 50 -400 320/17G27 RMK AO2 PK WND 33027/1614
14837KMSN MSN20071106102512111/06/07 10:25:31  5-MIN KMSN 061625Z 32018G27KT 10SM BKN042 04/M05 A3014 660 52 -400 320/18G27 RMK AO2 PK WND 33027/1624
14837KMSN MSN20071106103012111/06/07 10:30:31  5-MIN KMSN 061630Z 33014G27KT 10SM BKN042 04/M05 A3014 660 50 -400 330/14G27 RMK AO2 PK WND 32027/1627
14837KMSN MSN20071106103512111/06/07 10:35:31  5-MIN KMSN 061635Z 32015G27KT 10SM BKN042 04/M05 A3014 660 52 -400 320/15G27 RMK AO2 PK WND 32027/1627
14837KMSN MSN20071106104012111/06/07 10:40:31  5-MIN KMSN 061640Z 33018G26KT 10SM BKN042 04/M05 A3014 660 50 -400 330/18G26 RMK AO2 PK WND 32027/1627
14837KMSN MSN20071106104512111/06/07 10:45:31  5-MIN KMSN 061645Z 32018G25KT 10SM BKN042 04/M05 A3014 660 50 -400 320/18G25 RMK AO2 PK WND 32027/1627
14837KMSN MSN20071106105013811/06/07 10:50:31  5-MIN KMSN 061650Z 33012G23KT 10SM BKN042 04/M05 A3015 660 50 -400 330/12G23 RMK AO2 PK WND 32027/1627 SLP216 T00441050
14837KMSN MSN20071106105510311/06/07 10:55:31  5-MIN KMSN 061655Z 32013G24KT 10SM BKN042 04/M05 A3015 660 50 -400 320/13G24 RMK AO2
14837KMSN MSN20071106110012111/06/07 11:00:31  5-MIN KMSN 061700Z 31016G27KT 10SM BKN042 04/M05 A3015 660 50 -400 310/16G27 RMK AO2 PK WND 33027/1656
14837KMSN MSN20071106110512111/06/07 11:05:31  5-MIN KMSN 061705Z 33014G27KT 10SM BKN042 04/M05 A3015 660 50 -400 330/14G27 RMK AO2 PK WND 32027/1701
14837KMSN MSN20071106111012111/06/07 11:10:31  5-MIN KMSN 061710Z 33017G28KT 10SM BKN042 04/M06 A3015 650 50 -400 330/17G28 RMK AO2 PK WND 34028/1706
14837KMSN MSN20071106111512111/06/07 11:15:31  5-MIN KMSN 061715Z 34017G28KT 10SM BKN042 04/M06 A3015 660 50 -400 330/17G28 RMK AO2 PK WND 34028/1706
14837KMSN MSN20071106112012111/06/07 11:20:31  5-MIN KMSN 061720Z 32017G25KT 10SM BKN042 04/M06 A3015 650 48 -400 320/17G25 RMK AO2 PK WND 34028/1706
14837KMSN MSN20071106112512111/06/07 11:25:31  5-MIN KMSN 061725Z 33018G28KT 10SM BKN042 04/M05 A3015 650 50 -400 330/18G28 RMK AO2 PK WND 32028/1721
14837KMSN MSN20071106113012111/06/07 11:30:31  5-MIN KMSN 061730Z 33015G28KT 10SM BKN042 04/M05 A3015 650 50 -400 330/15G28 RMK AO2 PK WND 32028/1721
14837KMSN MSN20071106113512111/06/07 11:35:31  5-MIN KMSN 061735Z 33014G23KT 10SM BKN042 04/M05 A3016 650 50 -400 330/14G23 RMK AO2 PK WND 32028/1721
14837KMSN MSN20071106114012111/06/07 11:40:31  5-MIN KMSN 061740Z 34015G23KT 10SM BKN042 04/M05 A3016 650 50 -400 330/15G23 RMK AO2 PK WND 32028/1721
14837KMSN MSN20071106114512111/06/07 11:45:31  5-MIN KMSN 061745Z 33015G22KT 10SM BKN042 04/M05 A3016 640 52 -500 330/15G22 RMK AO2 PK WND 32028/1721
14837KMSN MSN20071106115015611/06/07 11:50:31  5-MIN KMSN 061750Z 34012G23KT 10SM BKN042 04/M05 A3016 640 52 -500 330/12G23 RMK AO2 PK WND 32028/1721 SLP222 T00391050 10050 20028 52031
14837KMSN MSN20071106115510311/06/07 11:55:31  5-MIN KMSN 061755Z 33016G23KT 10SM BKN042 04/M05 A3016 640 52 -500 320/16G23 RMK AO2
14837KMSN MSN20071106120010311/06/07 12:00:31  5-MIN KMSN 061800Z 31013G23KT 10SM BKN042 04/M05 A3016 640 52 -500 310/13G23 RMK AO2
14837KMSN MSN20071106120510311/06/07 12:05:31  5-MIN KMSN 061805Z 32013G19KT 10SM BKN042 04/M05 A3016 640 50 -400 320/13G19 RMK AO2
14837KMSN MSN20071106121010311/06/07 12:10:31  5-MIN KMSN 061810Z 32015G24KT 10SM BKN042 04/M05 A3016 640 50 -400 320/15G24 RMK AO2
14837KMSN MSN20071106121510311/06/07 12:15:31  5-MIN KMSN 061815Z 34015G24KT 10SM BKN042 04/M06 A3016 640 48 -400 340/15G24 RMK AO2
14837KMSN MSN20071106122010311/06/07 12:20:31  5-MIN KMSN 061820Z 33014G21KT 10SM BKN042 04/M05 A3016 640 50 -400 330/14G21 RMK AO2
14837KMSN MSN20071106122510311/06/07 12:25:31  5-MIN KMSN 061825Z 34012G20KT 10SM BKN042 04/M05 A3017 640 50 -400 340/12G20 RMK AO2
14837KMSN MSN20071106123010311/06/07 12:30:31  5-MIN KMSN 061830Z 35013G20KT 10SM BKN042 04/M05 A3017 640 50 -400 340/13G20 RMK AO2
14837KMSN MSN20071106123510311/06/07 12:35:31  5-MIN KMSN 061835Z 33013G21KT 10SM BKN042 04/M05 A3017 630 50 -400 330/13G21 RMK AO2
14837KMSN MSN20071106124010311/06/07 12:40:31  5-MIN KMSN 061840Z 31011G21KT 10SM BKN042 04/M05 A3017 630 50 -400 310/11G21 RMK AO2
14837KMSN MSN20071106124510311/06/07 12:45:31  5-MIN KMSN 061845Z 33010G21KT 10SM BKN042 04/M05 A3017 630 50 -400 330/10G21 RMK AO2
14837KMSN MSN20071106125012011/06/07 12:50:31  5-MIN KMSN 061850Z 33011G19KT 10SM OVC042 04/M05 A3017 630 50 -400 330/11G19 RMK AO2 SLP225 T00441050
14837KMSN MSN20071106125510311/06/07 12:55:31  5-MIN KMSN 061855Z 33015G22KT 10SM OVC042 04/M05 A3017 630 50 -400 330/15G22 RMK AO2
14837KMSN MSN20071106130010311/06/07 13:00:31  5-MIN KMSN 061900Z 33015G22KT 10SM OVC040 04/M05 A3017 630 50 -400 320/15G22 RMK AO2
14837KMSN MSN20071106130510311/06/07 13:05:31  5-MIN KMSN 061905Z 34013G23KT 10SM OVC042 04/M06 A3017 630 48 -400 340/13G23 RMK AO2
14837KMSN MSN20071106131010311/06/07 13:10:31  5-MIN KMSN 061910Z 33012G23KT 10SM OVC042 04/M05 A3017 630 50 -400 330/12G23 RMK AO2
14837KMSN MSN20071106131510311/06/07 13:15:31  5-MIN KMSN 061915Z 32013G20KT 10SM OVC042 04/M05 A3018 630 50 -400 320/13G20 RMK AO2
14837KMSN MSN20071106132010311/06/07 13:20:31  5-MIN KMSN 061920Z 33014G20KT 10SM OVC042 04/M05 A3018 630 50 -400 330/14G20 RMK AO2
14837KMSN MSN20071106132510311/06/07 13:25:31  5-MIN KMSN 061925Z 31013G20KT 10SM OVC042 04/M05 A3018 630 50 -400 300/13G20 RMK AO2
14837KMSN MSN20071106133010311/06/07 13:30:31  5-MIN KMSN 061930Z 31014G20KT 10SM OVC042 04/M05 A3018 630 52 -500 310/14G20 RMK AO2
14837KMSN MSN20071106133510311/06/07 13:35:31  5-MIN KMSN 061935Z 31010G20KT 10SM OVC042 04/M05 A3018 620 52 -500 310/10G20 RMK AO2
14837KMSN MSN20071106134010311/06/07 13:40:31  5-MIN KMSN 061940Z 33014G18KT 10SM OVC042 04/M05 A3019 620 52 -500 330/14G18 RMK AO2
14837KMSN MSN20071106134510311/06/07 13:45:31  5-MIN KMSN 061945Z 32013G18KT 10SM OVC042 04/M06 A3019 620 50 -500 320/13G18 RMK AO2
14837KMSN MSN20071106135012011/06/07 13:50:31  5-MIN KMSN 061950Z 33012G18KT 10SM BKN042 04/M05 A3019 620 50 -400 330/12G18 RMK AO2 SLP231 T00441050
14837KMSN MSN20071106135510311/06/07 13:55:31  5-MIN KMSN 061955Z 33012G18KT 10SM OVC042 04/M06 A3019 620 48 -400 330/12G18 RMK AO2
14837KMSN MSN20071106140010311/06/07 14:00:31  5-MIN KMSN 062000Z 33012G17KT 10SM OVC044 04/M06 A3019 620 48 -400 330/12G17 RMK AO2
14837KMSN MSN20071106140510311/06/07 14:05:31  5-MIN KMSN 062005Z 33010G17KT 10SM OVC044 04/M06 A3019 620 48 -400 330/10G17 RMK AO2
14837KMSN MSN20071106141010311/06/07 14:10:31  5-MIN KMSN 062010Z 32013G20KT 10SM OVC044 04/M06 A3019 610 48 -400 320/13G20 RMK AO2
14837KMSN MSN20071106141510311/06/07 14:15:31  5-MIN KMSN 062015Z 33009G20KT 10SM OVC044 04/M06 A3019 610 48 -400 330/09G20 RMK AO2
14837KMSN MSN20071106142010311/06/07 14:20:31  5-MIN KMSN 062020Z 32012G17KT 10SM OVC044 04/M06 A3019 610 48 -400 320/12G17 RMK AO2
14837KMSN MSN20071106142510311/06/07 14:25:31  5-MIN KMSN 062025Z 33010G16KT 10SM OVC044 04/M06 A3019 610 48 -400 330/10G16 RMK AO2
14837KMSN MSN20071106143009711/06/07 14:30:31  5-MIN KMSN 062030Z 33010KT 10SM OVC044 04/M05 A3020 610 50 -400 330/10 RMK AO2
14837KMSN MSN20071106143510311/06/07 14:35:31  5-MIN KMSN 062035Z 35013G21KT 10SM OVC044 04/M06 A3020 610 48 -400 350/13G21 RMK AO2
14837KMSN MSN20071106144010311/06/07 14:40:31  5-MIN KMSN 062040Z 34011G21KT 10SM OVC044 04/M06 A3020 610 48 -400 340/11G21 RMK AO2
14837KMSN MSN20071106144510311/06/07 14:45:31  5-MIN KMSN 062045Z 33012G18KT 10SM OVC044 04/M06 A3020 600 48 -400 330/12G18 RMK AO2
14837KMSN MSN20071106145012611/06/07 14:50:31  5-MIN KMSN 062050Z 34011G17KT 10SM OVC044 04/M06 A3021 600 48 -400 340/11G17 RMK AO2 SLP237 T00441056 51020
14837KMSN MSN20071106145510311/06/07 14:55:31  5-MIN KMSN 062055Z 35012G17KT 10SM OVC044 04/M06 A3021 600 48 -400 350/12G17 RMK AO2
14837KMSN MSN20071106150009711/06/07 15:00:31  5-MIN KMSN 062100Z 34011KT 10SM OVC044 04/M06 A3021 600 50 -500 340/11 RMK AO2
14837KMSN MSN20071106150509711/06/07 15:05:31  5-MIN KMSN 062105Z 33012KT 10SM OVC044 04/M06 A3021 600 50 -500 330/12 RMK AO2
14837KMSN MSN20071106151010311/06/07 15:10:31  5-MIN KMSN 062110Z 34012G19KT 10SM OVC044 04/M06 A3021 600 50 -500 340/12G19 RMK AO2
14837KMSN MSN20071106151510311/06/07 15:15:31  5-MIN KMSN 062115Z 34011G19KT 10SM OVC044 04/M06 A3021 600 50 -500 340/11G19 RMK AO2
14837KMSN MSN20071106152010311/06/07 15:20:31  5-MIN KMSN 062120Z 34014G19KT 10SM OVC044 04/M06 A3021 590 50 -500 340/14G19 RMK AO2
14837KMSN MSN20071106152510311/06/07 15:25:31  5-MIN KMSN 062125Z 32011G19KT 10SM OVC044 04/M06 A3022 590 48 -500 320/11G19 RMK AO2
14837KMSN MSN20071106153010311/06/07 15:30:31  5-MIN KMSN 062130Z 34010G18KT 10SM OVC046 04/M06 A3022 590 48 -500 330/10G18 RMK AO2
14837KMSN MSN20071106153509711/06/07 15:35:31  5-MIN KMSN 062135Z 34009KT 10SM OVC046 04/M06 A3022 590 50 -500 340/09 RMK AO2
14837KMSN MSN20071106154010311/06/07 15:40:31  5-MIN KMSN 062140Z 34013G20KT 10SM OVC046 04/M06 A3022 590 50 -500 340/13G20 RMK AO2
14837KMSN MSN20071106154510311/06/07 15:45:31  5-MIN KMSN 062145Z 34007G20KT 10SM OVC046 04/M06 A3022 580 50 -500 330/07G20 RMK AO2
14837KMSN MSN20071106155012011/06/07 15:50:31  5-MIN KMSN 062150Z 34010G15KT 10SM OVC046 04/M06 A3022 580 50 -500 340/10G15 RMK AO2 SLP243 T00391056
14837KMSN MSN20071106155510311/06/07 15:55:31  5-MIN KMSN 062155Z 33011G15KT 10SM OVC046 04/M06 A3022 580 50 -500 330/11G15 RMK AO2
14837KMSN MSN20071106160009711/06/07 16:00:31  5-MIN KMSN 062200Z 33010KT 10SM BKN046 04/M06 A3023 580 50 -500 330/10 RMK AO2
14837KMSN MSN20071106160509711/06/07 16:05:31  5-MIN KMSN 062205Z 34008KT 10SM BKN046 04/M06 A3023 580 50 -500 340/08 RMK AO2
14837KMSN MSN20071106161009711/06/07 16:10:31  5-MIN KMSN 062210Z 35011KT 10SM BKN046 03/M06 A3023 580 52 -600 340/11 RMK AO2
14837KMSN MSN20071106161509711/06/07 16:15:31  5-MIN KMSN 062215Z 33009KT 10SM BKN046 03/M06 A3023 580 52 -600 330/09 RMK AO2
14837KMSN MSN20071106162009711/06/07 16:20:31  5-MIN KMSN 062220Z 34011KT 10SM BKN046 03/M06 A3023 580 52 -600 340/11 RMK AO2
14837KMSN MSN20071106162509711/06/07 16:25:31  5-MIN KMSN 062225Z 34011KT 10SM BKN044 03/M06 A3024 570 52 -600 340/11 RMK AO2
14837KMSN MSN20071106163009711/06/07 16:30:31  5-MIN KMSN 062230Z 33006KT 10SM BKN044 03/M06 A3024 570 52 -600 330/06 RMK AO2
14837KMSN MSN20071106163509711/06/07 16:35:31  5-MIN KMSN 062235Z 34008KT 10SM BKN044 03/M06 A3024 570 52 -600 330/08 RMK AO2
14837KMSN MSN20071106164009711/06/07 16:40:31  5-MIN KMSN 062240Z 33006KT 10SM BKN044 03/M06 A3024 570 52 -600 330/06 RMK AO2
14837KMSN MSN20071106164509711/06/07 16:45:31  5-MIN KMSN 062245Z 34008KT 10SM BKN044 03/M06 A3024 570 52 -600 330/08 RMK AO2
14837KMSN MSN20071106165012011/06/07 16:50:31  5-MIN KMSN 062250Z 33008G15KT 10SM OVC042 03/M06 A3025 570 52 -600 330/08G15 RMK AO2 SLP250 T00331056
14837KMSN MSN20071106165509711/06/07 16:55:31  5-MIN KMSN 062255Z 33008KT 10SM OVC042 03/M06 A3025 560 52 -600 330/08 RMK AO2
14837KMSN MSN20071106170009711/06/07 17:00:31  5-MIN KMSN 062300Z 32005KT 10SM OVC042 03/M06 A3025 560 52 -600 320/05 RMK AO2
14837KMSN MSN20071106170509711/06/07 17:05:31  5-MIN KMSN 062305Z 33007KT 10SM OVC042 03/M06 A3025 560 54 -700 330/07 RMK AO2
14837KMSN MSN20071106171010311/06/07 17:10:31  5-MIN KMSN 062310Z 34011G16KT 10SM OVC042 03/M06 A3025 560 52 -700 340/11G16 RMK AO2
14837KMSN MSN20071106171509711/06/07 17:15:31  5-MIN KMSN 062315Z 35012KT 10SM OVC042 03/M06 A3026 560 52 -700 350/12 RMK AO2
14837KMSN MSN20071106172010311/06/07 17:20:31  5-MIN KMSN 062320Z 34006G15KT 10SM OVC042 03/M06 A3026 550 52 -700 340/06G15 RMK AO2
14837KMSN MSN20071106172509711/06/07 17:25:31  5-MIN KMSN 062325Z 33005KT 10SM OVC042 03/M06 A3026 550 54 -700 330/05 RMK AO2
14837KMSN MSN20071106173009711/06/07 17:30:31  5-MIN KMSN 062330Z 33006KT 10SM OVC042 03/M06 A3026 550 54 -700 330/06 RMK AO2
14837KMSN MSN20071106173509711/06/07 17:35:31  5-MIN KMSN 062335Z 32007KT 10SM OVC042 03/M06 A3026 550 54 -700 320/07 RMK AO2
14837KMSN MSN20071106174009711/06/07 17:40:31  5-MIN KMSN 062340Z 32008KT 10SM OVC042 03/M06 A3027 550 54 -700 320/08 RMK AO2
14837KMSN MSN20071106174509711/06/07 17:45:31  5-MIN KMSN 062345Z 31009KT 10SM OVC042 03/M06 A3027 550 52 -700 310/09 RMK AO2
14837KMSN MSN20071106175013811/06/07 17:50:31  5-MIN KMSN 062350Z 32007G14KT 10SM OVC042 03/M06 A3027 550 52 -700 320/07G14 RMK AO2 SLP257 T00281061 10044 20028 53014
14837KMSN MSN20071106175509711/06/07 17:55:31  5-MIN KMSN 062355Z 32009KT 10SM OVC042 03/M06 A3027 540 52 -700 320/09 RMK AO2
14837KMSN MSN20071106180010311/06/07 18:00:31  5-MIN KMSN 070000Z 32009G16KT 10SM OVC042 03/M06 A3027 540 52 -700 320/09G16 RMK AO2
14837KMSN MSN20071106180510311/06/07 18:05:31  5-MIN KMSN 070005Z 32009G16KT 10SM OVC042 03/M06 A3027 540 52 -700 310/09G16 RMK AO2
14837KMSN MSN20071106181010311/06/07 18:10:31  5-MIN KMSN 070010Z 32008G15KT 10SM OVC042 03/M06 A3027 540 52 -700 320/08G15 RMK AO2
14837KMSN MSN20071106181509711/06/07 18:15:31  5-MIN KMSN 070015Z 33008KT 10SM OVC042 03/M06 A3027 540 52 -700 330/08 RMK AO2
14837KMSN MSN20071106182010311/06/07 18:20:31  5-MIN KMSN 070020Z 34010G16KT 10SM OVC042 03/M06 A3027 540 52 -700 340/10G16 RMK AO2
14837KMSN MSN20071106182510311/06/07 18:25:31  5-MIN KMSN 070025Z 34008G16KT 10SM OVC042 03/M06 A3027 540 52 -700 340/08G16 RMK AO2
14837KMSN MSN20071106183010311/06/07 18:30:31  5-MIN KMSN 070030Z 34011G18KT 10SM OVC042 03/M06 A3027 540 52 -700 340/11G18 RMK AO2
14837KMSN MSN20071106183510311/06/07 18:35:31  5-MIN KMSN 070035Z 33009G18KT 10SM OVC042 03/M06 A3027 540 52 -700 330/09G18 RMK AO2
14837KMSN MSN20071106184010311/06/07 18:40:31  5-MIN KMSN 070040Z 34010G17KT 10SM OVC044 03/M06 A3027 540 52 -700 340/10G17 RMK AO2
14837KMSN MSN20071106184509711/06/07 18:45:31  5-MIN KMSN 070045Z 33009KT 10SM OVC044 03/M06 A3028 540 52 -700 330/09 RMK AO2
14837KMSN MSN20071106185011411/06/07 18:50:31  5-MIN KMSN 070050Z 33008KT 10SM OVC044 02/M06 A3028 540 54 -800 330/08 RMK AO2 SLP261 T00221061
14837KMSN MSN20071106185509711/06/07 18:55:31  5-MIN KMSN 070055Z 33010KT 10SM OVC042 03/M06 A3028 540 52 -700 330/10 RMK AO2
14837KMSN MSN20071106190009711/06/07 19:00:31  5-MIN KMSN 070100Z 33007KT 10SM OVC042 02/M06 A3028 530 54 -800 330/07 RMK AO2
14837KMSN MSN20071106190509711/06/07 19:05:31  5-MIN KMSN 070105Z 34006KT 10SM OVC042 02/M06 A3028 530 54 -800 340/06 RMK AO2
14837KMSN MSN20071106191009711/06/07 19:10:31  5-MIN KMSN 070110Z 33006KT 10SM OVC042 02/M06 A3028 530 54 -800 330/06 RMK AO2
14837KMSN MSN20071106191510311/06/07 19:15:31  5-MIN KMSN 070115Z 34008G14KT 10SM OVC042 02/M06 A3028 530 54 -800 340/08G14 RMK AO2
14837KMSN MSN20071106192010311/06/07 19:20:31  5-MIN KMSN 070120Z 34007G14KT 10SM OVC042 02/M06 A3028 530 54 -800 340/07G14 RMK AO2
14837KMSN MSN20071106192509711/06/07 19:25:31  5-MIN KMSN 070125Z 34008KT 10SM OVC042 02/M06 A3028 530 54 -800 340/08 RMK AO2
14837KMSN MSN20071106193009711/06/07 19:30:31  5-MIN KMSN 070130Z 33006KT 10SM OVC042 02/M06 A3029 530 54 -800 330/06 RMK AO2
14837KMSN MSN20071106193509711/06/07 19:35:31  5-MIN KMSN 070135Z 34004KT 10SM OVC042 02/M06 A3029 530 54 -800 340/04 RMK AO2
14837KMSN MSN20071106194009711/06/07 19:40:31  5-MIN KMSN 070140Z 34004KT 10SM OVC040 02/M06 A3029 530 56 -800 330/04 RMK AO2
14837KMSN MSN20071106194509711/06/07 19:45:31  5-MIN KMSN 070145Z 34007KT 10SM OVC040 02/M06 A3029 530 54 -800 340/07 RMK AO2
14837KMSN MSN20071106195011411/06/07 19:50:31  5-MIN KMSN 070150Z 35007KT 10SM OVC040 02/M06 A3029 520 56 -800 350/07 RMK AO2 SLP265 T00221056
14837KMSN MSN20071106195509711/06/07 19:55:31  5-MIN KMSN 070155Z 34008KT 10SM OVC040 02/M06 A3029 520 56 -800 340/08 RMK AO2
14837KMSN MSN20071106200009711/06/07 20:00:31  5-MIN KMSN 070200Z 34008KT 10SM OVC040 02/M06 A3029 520 56 -800 340/08 RMK AO2
14837KMSN MSN20071106200509711/06/07 20:05:31  5-MIN KMSN 070205Z 34009KT 10SM OVC040 02/M06 A3030 520 54 -800 340/09 RMK AO2
14837KMSN MSN20071106201009711/06/07 20:10:31  5-MIN KMSN 070210Z 33009KT 10SM OVC040 02/M06 A3030 520 54 -800 330/09 RMK AO2
14837KMSN MSN20071106201509711/06/07 20:15:31  5-MIN KMSN 070215Z 34006KT 10SM OVC040 02/M06 A3030 520 54 -800 340/06 RMK AO2
14837KMSN MSN20071106202009711/06/07 20:20:31  5-MIN KMSN 070220Z 33008KT 10SM OVC040 02/M06 A3030 510 54 -800 330/08 RMK AO2
14837KMSN MSN20071106202509711/06/07 20:25:31  5-MIN KMSN 070225Z 34010KT 10SM OVC040 02/M06 A3030 520 54 -800 340/10 RMK AO2
14837KMSN MSN20071106203009711/06/07 20:30:31  5-MIN KMSN 070230Z 34008KT 10SM OVC040 02/M07 A3030 510 52 -800 330/08 RMK AO2
14837KMSN MSN20071106203509711/06/07 20:35:31  5-MIN KMSN 070235Z 34009KT 10SM OVC040 02/M07 A3030 510 52 -800 340/09 RMK AO2
14837KMSN MSN20071106204010311/06/07 20:40:31  5-MIN KMSN 070240Z 33006G14KT 10SM OVC040 02/M06 A3030 510 56 -900 330/06G14 RMK AO2
14837KMSN MSN20071106204509711/06/07 20:45:31  5-MIN KMSN 070245Z 33008KT 10SM OVC040 02/M06 A3030 510 56 -900 330/08 RMK AO2
14837KMSN MSN20071106205012011/06/07 20:50:31  5-MIN KMSN 070250Z 34007KT 10SM OVC040 02/M06 A3031 510 56 -900 340/07 RMK AO2 SLP271 T00171061 53020
14837KMSN MSN20071106205509711/06/07 20:55:31  5-MIN KMSN 070255Z 34008KT 10SM OVC040 02/M06 A3031 510 56 -900 340/08 RMK AO2
14837KMSN MSN20071106210009711/06/07 21:00:31  5-MIN KMSN 070300Z 35009KT 10SM OVC040 02/M06 A3031 510 56 -900 350/09 RMK AO2
14837KMSN MSN20071106210509711/06/07 21:05:31  5-MIN KMSN 070305Z 34010KT 10SM OVC040 02/M07 A3031 510 54 -900 340/10 RMK AO2
14837KMSN MSN20071106211009711/06/07 21:10:31  5-MIN KMSN 070310Z 34008KT 10SM OVC040 02/M07 A3031 510 54 -900 340/08 RMK AO2
14837KMSN MSN20071106211509711/06/07 21:15:31  5-MIN KMSN 070315Z 33008KT 10SM OVC040 02/M07 A3031 510 54 -900 330/08 RMK AO2
14837KMSN MSN20071106212009711/06/07 21:20:31  5-MIN KMSN 070320Z 32008KT 10SM OVC040 02/M07 A3031 510 54 -900 320/08 RMK AO2
14837KMSN MSN20071106212509711/06/07 21:25:31  5-MIN KMSN 070325Z 33007KT 10SM OVC040 02/M07 A3031 510 54 -900 330/07 RMK AO2
14837KMSN MSN20071106213009711/06/07 21:30:31  5-MIN KMSN 070330Z 33006KT 10SM OVC040 02/M06 A3031 510 56 -900 330/06 RMK AO2
14837KMSN MSN20071106213509711/06/07 21:35:31  5-MIN KMSN 070335Z 33005KT 10SM OVC040 02/M06 A3031 510 56 -900 330/05 RMK AO2
14837KMSN MSN20071106214009711/06/07 21:40:31  5-MIN KMSN 070340Z 33006KT 10SM OVC040 02/M06 A3031 510 56 -900 320/06 RMK AO2
14837KMSN MSN20071106214509811/06/07 21:45:31  5-MIN KMSN 070345Z 33008KT 10SM OVC040 01/M06 A3031 510 58 -1000 330/08 RMK AO2
14837KMSN MSN20071106215011411/06/07 21:50:31  5-MIN KMSN 070350Z 35008KT 10SM OVC040 02/M07 A3031 510 54 -900 340/08 RMK AO2 SLP272 T00171067
14837KMSN MSN20071106215509811/06/07 21:55:31  5-MIN KMSN 070355Z 33006KT 10SM OVC040 01/M07 A3031 510 56 -1000 330/06 RMK AO2
14837KMSN MSN20071106220009811/06/07 22:00:31  5-MIN KMSN 070400Z 33005KT 10SM OVC040 01/M07 A3031 510 56 -1000 330/05 RMK AO2
14837KMSN MSN20071106220509811/06/07 22:05:31  5-MIN KMSN 070405Z 34005KT 10SM OVC040 01/M07 A3031 510 56 -1000 340/05 RMK AO2
14837KMSN MSN20071106221009811/06/07 22:10:31  5-MIN KMSN 070410Z VRB04KT 10SM OVC040 01/M07 A3031 510 56 -1000 VRB/04 RMK AO2
14837KMSN MSN20071106221511411/06/07 22:15:31  5-MIN KMSN 070415Z 33007KT 280V360 10SM OVC040 01/M06 A3031 510 58 -1000 320/07 280V360 RMK AO2
14837KMSN MSN20071106222009811/06/07 22:20:31  5-MIN KMSN 070420Z 34005KT 10SM OVC040 01/M07 A3030 510 56 -1000 340/05 RMK AO2
14837KMSN MSN20071106222509811/06/07 22:25:31  5-MIN KMSN 070425Z 34005KT 10SM OVC040 01/M07 A3030 510 56 -1000 340/05 RMK AO2
14837KMSN MSN20071106223009811/06/07 22:30:31  5-MIN KMSN 070430Z 33008KT 10SM OVC040 01/M07 A3030 510 56 -1000 330/08 RMK AO2
14837KMSN MSN20071106223509811/06/07 22:35:31  5-MIN KMSN 070435Z 34005KT 10SM OVC040 01/M07 A3030 510 56 -1000 340/05 RMK AO2
14837KMSN MSN20071106224009811/06/07 22:40:31  5-MIN KMSN 070440Z 35006KT 10SM OVC040 01/M07 A3030 510 56 -1000 350/06 RMK AO2
14837KMSN MSN20071106224509811/06/07 22:45:31  5-MIN KMSN 070445Z 34005KT 10SM OVC038 01/M07 A3030 510 56 -1000 340/05 RMK AO2
14837KMSN MSN20071106225011511/06/07 22:50:31  5-MIN KMSN 070450Z 34006KT 10SM OVC038 01/M07 A3030 510 56 -1000 340/06 RMK AO2 SLP269 T00111067
14837KMSN MSN20071106225509811/06/07 22:55:31  5-MIN KMSN 070455Z 34006KT 10SM OVC038 01/M07 A3030 510 56 -1000 340/06 RMK AO2
14837KMSN MSN20071106230009811/06/07 23:00:31  5-MIN KMSN 070500Z 33006KT 10SM OVC038 01/M07 A3030 510 56 -1000 330/06 RMK AO2
14837KMSN MSN20071106230509811/06/07 23:05:31  5-MIN KMSN 070505Z 33005KT 10SM OVC038 01/M07 A3030 510 56 -1000 330/05 RMK AO2
14837KMSN MSN20071106231009811/06/07 23:10:31  5-MIN KMSN 070510Z 35004KT 10SM OVC038 01/M07 A3030 510 58 -1000 350/04 RMK AO2
14837KMSN MSN20071106231509811/06/07 23:15:31  5-MIN KMSN 070515Z 34008KT 10SM OVC038 01/M06 A3031 510 61 -1000 340/08 RMK AO2
14837KMSN MSN20071106232009811/06/07 23:20:31  5-MIN KMSN 070520Z 34006KT 10SM OVC038 01/M06 A3031 510 61 -1000 340/06 RMK AO2
14837KMSN MSN20071106232509811/06/07 23:25:31  5-MIN KMSN 070525Z 34005KT 10SM OVC036 01/M06 A3031 510 61 -1000 340/05 RMK AO2
14837KMSN MSN20071106233009811/06/07 23:30:31  5-MIN KMSN 070530Z 34006KT 10SM OVC036 01/M06 A3031 510 61 -1000 340/06 RMK AO2
14837KMSN MSN20071106233509811/06/07 23:35:31  5-MIN KMSN 070535Z 34006KT 10SM OVC036 01/M06 A3031 510 61 -1000 340/06 RMK AO2
14837KMSN MSN20071106234009811/06/07 23:40:31  5-MIN KMSN 070540Z 34006KT 10SM OVC036 01/M06 A3031 500 61 -1000 340/06 RMK AO2
14837KMSN MSN20071106234509811/06/07 23:45:31  5-MIN KMSN 070545Z 34004KT 10SM OVC036 01/M06 A3031 510 61 -1000 340/04 RMK AO2
14837KMSN MSN20071106235014311/06/07 23:50:31  5-MIN KMSN 070550Z 34005KT 10SM OVC036 01/M06 A3031 500 61 -1000 340/05 RMK AO2 SLP274 T00061061 10028 20006 400500006 53012
14837KMSN MSN20071106235509811/06/07 23:55:31  5-MIN KMSN 070555Z 33004KT 10SM OVC036 01/M06 A3031 510 61 -1000 330/04 RMK AO2
14837KMSN MSN20071107000009811/07/07 00:00:32  5-MIN KMSN 070600Z VRB03KT 10SM OVC036 01/M06 A3031 510 61 -1000 VRB/03 RMK AO2
14837KMSN MSN20071107000509811/07/07 00:05:31  5-MIN KMSN 070605Z 32005KT 10SM OVC036 01/M06 A3031 510 61 -1000 320/05 RMK AO2
14837KMSN MSN20071107001009811/07/07 00:10:31  5-MIN KMSN 070610Z 33007KT 10SM OVC036 01/M07 A3031 510 58 -1000 330/07 RMK AO2
14837KMSN MSN20071107001509811/07/07 00:15:31  5-MIN KMSN 070615Z 33005KT 10SM OVC036 01/M07 A3031 510 58 -1000 330/05 RMK AO2
14837KMSN MSN20071107002009811/07/07 00:20:31  5-MIN KMSN 070620Z 35006KT 10SM OVC036 01/M07 A3031 510 58 -1000 350/06 RMK AO2
14837KMSN MSN20071107002509811/07/07 00:25:31  5-MIN KMSN 070625Z 34005KT 10SM OVC036 00/M07 A3031 510 61 -1100 340/05 RMK AO2
14837KMSN MSN20071107003009811/07/07 00:30:31  5-MIN KMSN 070630Z 36005KT 10SM OVC036 00/M07 A3030 510 61 -1100 360/05 RMK AO2
14837KMSN MSN20071107003509811/07/07 00:35:31  5-MIN KMSN 070635Z 35007KT 10SM OVC036 00/M07 A3031 510 61 -1100 350/07 RMK AO2
14837KMSN MSN20071107004009811/07/07 00:40:31  5-MIN KMSN 070640Z 35007KT 10SM OVC036 00/M07 A3031 510 61 -1100 350/07 RMK AO2
14837KMSN MSN20071107004509811/07/07 00:45:31  5-MIN KMSN 070645Z 35007KT 10SM OVC036 00/M07 A3031 510 58 -1100 350/07 RMK AO2
14837KMSN MSN20071107065011211/07/07 06:50:31  5-MIN KMSN 071250Z 00000KT 8SM CLR M05/M08 A3031 500 81 -1800 000/00 RMK AO2 SLP276 T10501078
14837KMSN MSN20071107065509511/07/07 06:55:31  5-MIN KMSN 071255Z 00000KT 8SM CLR M05/M08 A3031 510 81 -1800 000/00 RMK AO2
14837KMSN MSN20071107070009511/07/07 07:00:31  5-MIN KMSN 071300Z 00000KT 8SM CLR M05/M08 A3031 510 81 -1800 000/00 RMK AO2
14837KMSN MSN20071107070509511/07/07 07:05:31  5-MIN KMSN 071305Z 00000KT 8SM CLR M04/M08 A3031 500 78 -1700 000/00 RMK AO2
14837KMSN MSN20071107071009511/07/07 07:10:31  5-MIN KMSN 071310Z 00000KT 8SM CLR M04/M08 A3031 500 78 -1700 000/00 RMK AO2
14837KMSN MSN20071107071509511/07/07 07:15:31  5-MIN KMSN 071315Z 00000KT 8SM CLR M05/M08 A3031 500 81 -1800 000/00 RMK AO2
14837KMSN MSN20071107072009511/07/07 07:20:31  5-MIN KMSN 071320Z 00000KT 8SM CLR M04/M07 A3031 500 81 -1700 000/00 RMK AO2
14837KMSN MSN20071107072509511/07/07 07:25:31  5-MIN KMSN 071325Z 00000KT 8SM CLR M04/M07 A3032 500 78 -1600 000/00 RMK AO2
14837KMSN MSN20071107073009511/07/07 07:30:31  5-MIN KMSN 071330Z 00000KT 8SM CLR M03/M07 A3032 500 78 -1500 000/00 RMK AO2
14837KMSN MSN20071107073509511/07/07 07:35:31  5-MIN KMSN 071335Z 00000KT 8SM CLR M03/M07 A3032 500 78 -1500 000/00 RMK AO2
14837KMSN MSN20071107074009511/07/07 07:40:31  5-MIN KMSN 071340Z 00000KT 8SM CLR M03/M06 A3032 500 81 -1500 000/00 RMK AO2
14837KMSN MSN20071107074509511/07/07 07:45:31  5-MIN KMSN 071345Z 00000KT 8SM CLR M03/M06 A3032 500 81 -1500 000/00 RMK AO2
14837KMSN MSN20071107075011211/07/07 07:50:31  5-MIN KMSN 071350Z 00000KT 8SM CLR M03/M06 A3032 500 78 -1500 000/00 RMK AO2 SLP278 T10281061
14837KMSN MSN20071107075509511/07/07 07:55:31  5-MIN KMSN 071355Z 00000KT 8SM CLR M03/M06 A3032 490 81 -1500 000/00 RMK AO2
14837KMSN MSN20071107080009511/07/07 08:00:31  5-MIN KMSN 071400Z 00000KT 8SM CLR M03/M06 A3032 490 81 -1500 000/00 RMK AO2
14837KMSN MSN20071107080509511/07/07 08:05:31  5-MIN KMSN 071405Z 00000KT 8SM CLR M02/M06 A3032 490 78 -1400 000/00 RMK AO2
14837KMSN MSN20071107081009511/07/07 08:10:31  5-MIN KMSN 071410Z 00000KT 8SM CLR M02/M06 A3032 490 78 -1400 000/00 RMK AO2
14837KMSN MSN20071107081509811/07/07 08:15:31  5-MIN KMSN 071415Z 00000KT 8SM FEW025 M02/M06 A3032 490 78 -1400 000/00 RMK AO2
14837KMSN MSN20071107082009811/07/07 08:20:31  5-MIN KMSN 071420Z 00000KT 8SM SCT025 M02/M06 A3032 500 78 -1400 000/00 RMK AO2
14837KMSN MSN20071107082509811/07/07 08:25:31  5-MIN KMSN 071425Z 00000KT 8SM BKN025 M02/M06 A3032 500 78 -1400 000/00 RMK AO2
14837KMSN MSN20071107083009811/07/07 08:30:31  5-MIN KMSN 071430Z 00000KT 8SM BKN025 M02/M06 A3031 500 75 -1300 000/00 RMK AO2
14837KMSN MSN20071107083509811/07/07 08:35:31  5-MIN KMSN 071435Z 00000KT 8SM BKN025 M01/M05 A3032 500 75 -1300 000/00 RMK AO2
14837KMSN MSN20071107084009811/07/07 08:40:31  5-MIN KMSN 071440Z 00000KT 8SM OVC025 M01/M06 A3032 500 72 -1300 000/00 RMK AO2
14837KMSN MSN20071107084509811/07/07 08:45:31  5-MIN KMSN 071445Z 00000KT 8SM OVC025 M01/M06 A3031 500 69 -1200 000/00 RMK AO2
14837KMSN MSN20071107085012111/07/07 08:50:31  5-MIN KMSN 071450Z 00000KT 8SM BKN025 M01/M06 A3031 500 69 -1200 000/00 RMK AO2 SLP274 T10061056 58002
14837KMSN MSN20071107085509811/07/07 08:55:31  5-MIN KMSN 071455Z 00000KT 8SM SCT025 M01/M06 A3031 510 66 -1200 000/00 RMK AO2
14837KMSN MSN20071107090009711/07/07 09:00:31  5-MIN KMSN 071500Z 00000KT 9SM SCT025 00/M06 A3030 510 63 -1100 000/00 RMK AO2
14837KMSN MSN20071107090509711/07/07 09:05:31  5-MIN KMSN 071505Z 00000KT 9SM SCT025 00/M06 A3030 510 63 -1100 000/00 RMK AO2
14837KMSN MSN20071107091009711/07/07 09:10:31  5-MIN KMSN 071510Z 00000KT 9SM FEW025 00/M06 A3031 510 63 -1100 000/00 RMK AO2
14837KMSN MSN20071107091509711/07/07 09:15:31  5-MIN KMSN 071515Z VRB04KT 9SM FEW025 00/M07 A3031 510 61 -1100 VRB/04 RMK AO2
14837KMSN MSN20071107092009411/07/07 09:20:31  5-MIN KMSN 071520Z 00000KT 9SM CLR 00/M07 A3030 510 58 -1100 000/00 RMK AO2
14837KMSN MSN20071107092509411/07/07 09:25:31  5-MIN KMSN 071525Z VRB03KT 9SM CLR 00/M07 A3030 520 61 -1100 VRB/03 RMK AO2
14837KMSN MSN20071107093009411/07/07 09:30:31  5-MIN KMSN 071530Z VRB04KT 9SM CLR 01/M07 A3030 520 56 -1000 VRB/04 RMK AO2
14837KMSN MSN20071107093509411/07/07 09:35:31  5-MIN KMSN 071535Z 16004KT 9SM CLR 01/M07 A3030 520 56 -1000 160/04 RMK AO2
14837KMSN MSN20071107094009511/07/07 09:40:31  5-MIN KMSN 071540Z 20005KT 10SM CLR 01/M07 A3030 520 56 -1000 200/05 RMK AO2
14837KMSN MSN20071107094509511/07/07 09:45:31  5-MIN KMSN 071545Z 18005KT 10SM CLR 01/M07 A3030 520 56 -1000 180/05 RMK AO2
14837KMSN MSN20071107095011211/07/07 09:50:31  5-MIN KMSN 071550Z 17006KT 10SM CLR 01/M07 A3030 520 54 -1000 170/06 RMK AO2 SLP270 T00111072
14837KMSN MSN20071107095509511/07/07 09:55:31  5-MIN KMSN 071555Z 21008KT 10SM CLR 01/M07 A3030 520 54 -1000 210/08 RMK AO2
14837KMSN MSN20071107100009511/07/07 10:00:31  5-MIN KMSN 071600Z 17005KT 10SM CLR 01/M08 A3030 520 51 -1000 170/05 RMK AO2
14837KMSN MSN20071107100509511/07/07 10:05:31  5-MIN KMSN 071605Z 20005KT 10SM CLR 01/M07 A3029 520 54 -1000 200/05 RMK AO2
14837KMSN MSN20071107101009511/07/07 10:10:31  5-MIN KMSN 071610Z 19005KT 10SM CLR 01/M08 A3029 520 51 -1000 190/05 RMK AO2
14837KMSN MSN20071107101509511/07/07 10:15:31  5-MIN KMSN 071615Z 20006KT 10SM CLR 01/M08 A3029 520 51 -1000 200/06 RMK AO2
14837KMSN MSN20071107102009411/07/07 10:20:31  5-MIN KMSN 071620Z VRB04KT 9SM CLR 01/M08 A3029 520 51 -1000 VRB/04 RMK AO2
14837KMSN MSN20071107102509311/07/07 10:25:31  5-MIN KMSN 071625Z 23005KT 9SM CLR 01/M07 A3029 530 54 -900 230/05 RMK AO2
14837KMSN MSN20071107103009311/07/07 10:30:31  5-MIN KMSN 071630Z VRB05KT 9SM CLR 02/M07 A3029 530 52 -900 VRB/05 RMK AO2
14837KMSN MSN20071107103509311/07/07 10:35:31  5-MIN KMSN 071635Z 19005KT 9SM CLR 02/M07 A3029 530 52 -900 190/05 RMK AO2
14837KMSN MSN20071107104009311/07/07 10:40:31  5-MIN KMSN 071640Z VRB06KT 9SM CLR 02/M07 A3029 530 52 -900 VRB/06 RMK AO2
14837KMSN MSN20071107104509311/07/07 10:45:31  5-MIN KMSN 071645Z 22005KT 9SM CLR 02/M07 A3028 530 54 -900 220/05 RMK AO2
14837KMSN MSN20071107105011011/07/07 10:50:31  5-MIN KMSN 071650Z 00000KT 9SM CLR 02/M07 A3028 530 54 -900 000/00 RMK AO2 SLP263 T00171067
14837KMSN MSN20071107105509611/07/07 10:55:31  5-MIN KMSN 071655Z 24005KT 9SM FEW035 02/M07 A3028 540 54 -900 240/05 RMK AO2
14837KMSN MSN20071107110009611/07/07 11:00:31  5-MIN KMSN 071700Z 23006KT 9SM FEW035 02/M07 A3027 540 54 -900 230/06 RMK AO2
14837KMSN MSN20071107110509611/07/07 11:05:31  5-MIN KMSN 071705Z VRB05KT 9SM FEW035 02/M07 A3027 550 52 -800 VRB/05 RMK AO2
14837KMSN MSN20071107111010311/07/07 11:10:31  5-MIN KMSN 071710Z 26005KT 9SM FEW035 02/M07 A3026 550 54 -800 260/05 RMK AO2 PRESFR
14837KMSN MSN20071107111509611/07/07 11:15:31  5-MIN KMSN 071715Z VRB05KT 9SM FEW035 02/M07 A3026 550 54 -800 VRB/05 RMK AO2
14837KMSN MSN20071107112009611/07/07 11:20:31  5-MIN KMSN 071720Z 25007KT 9SM FEW035 02/M07 A3026 560 52 -800 250/07 RMK AO2
14837KMSN MSN20071107112509611/07/07 11:25:31  5-MIN KMSN 071725Z VRB05KT 9SM FEW035 03/M06 A3025 560 52 -700 VRB/05 RMK AO2
14837KMSN MSN20071107113009311/07/07 11:30:31  5-MIN KMSN 071730Z VRB05KT 8SM CLR 02/M07 A3025 560 52 -800 VRB/05 RMK AO2
14837KMSN MSN20071107113509311/07/07 11:35:31  5-MIN KMSN 071735Z VRB03KT 8SM CLR 02/M07 A3025 560 52 -800 VRB/03 RMK AO2
14837KMSN MSN20071107114009611/07/07 11:40:31  5-MIN KMSN 071740Z 24004KT 8SM FEW120 02/M07 A3024 570 52 -800 240/04 RMK AO2
14837KMSN MSN20071107114509611/07/07 11:45:31  5-MIN KMSN 071745Z 24005KT 8SM FEW120 02/M07 A3024 570 54 -800 240/05 RMK AO2
14837KMSN MSN20071107115013111/07/07 11:50:31  5-MIN KMSN 071750Z VRB05KT 8SM BKN120 02/M07 A3024 570 52 -800 VRB/05 RMK AO2 SLP249 T00221067 10028 21056 58000
14837KMSN MSN20071107115509611/07/07 11:55:31  5-MIN KMSN 071755Z 20005KT 8SM BKN120 02/M06 A3023 580 54 -700 200/05 RMK AO2
14837KMSN MSN20071107120009611/07/07 12:00:31  5-MIN KMSN 071800Z 26005KT 8SM BKN120 03/M06 A3023 580 52 -700 260/05 RMK AO2
14837KMSN MSN20071107120509611/07/07 12:05:31  5-MIN KMSN 071805Z VRB05KT 8SM BKN120 02/M06 A3023 580 54 -700 VRB/05 RMK AO2
14837KMSN MSN20071107121009611/07/07 12:10:31  5-MIN KMSN 071810Z 20005KT 9SM BKN120 03/M06 A3023 580 52 -700 200/05 RMK AO2
14837KMSN MSN20071107121509611/07/07 12:15:31  5-MIN KMSN 071815Z VRB05KT 9SM BKN120 03/M06 A3023 580 52 -700 VRB/05 RMK AO2
14837KMSN MSN20071107122009611/07/07 12:20:31  5-MIN KMSN 071820Z 20006KT 9SM BKN120 03/M06 A3022 590 52 -700 200/06 RMK AO2
14837KMSN MSN20071107122509611/07/07 12:25:31  5-MIN KMSN 071825Z 19007KT 9SM BKN120 03/M06 A3022 590 52 -700 190/07 RMK AO2
14837KMSN MSN20071107123009611/07/07 12:30:31  5-MIN KMSN 071830Z 23005KT 8SM FEW120 03/M06 A3021 600 50 -600 230/05 RMK AO2
14837KMSN MSN20071107123509611/07/07 12:35:31  5-MIN KMSN 071835Z VRB06KT 8SM FEW120 04/M06 A3021 600 50 -500 VRB/06 RMK AO2
14837KMSN MSN20071107124009611/07/07 12:40:31  5-MIN KMSN 071840Z 20006KT 8SM FEW120 04/M06 A3021 600 48 -500 200/06 RMK AO2
14837KMSN MSN20071107124509611/07/07 12:45:31  5-MIN KMSN 071845Z 22007KT 8SM FEW120 04/M06 A3020 610 48 -500 220/07 RMK AO2
14837KMSN MSN20071107125011311/07/07 12:50:31  5-MIN KMSN 071850Z VRB05KT 8SM FEW120 04/M07 A3020 610 46 -500 VRB/05 RMK AO2 SLP234 T00391067
14837KMSN MSN20071107125509611/07/07 12:55:31  5-MIN KMSN 071855Z 20007KT 8SM SCT110 04/M06 A3019 610 48 -500 200/07 RMK AO2
14837KMSN MSN20071107130009611/07/07 13:00:31  5-MIN KMSN 071900Z VRB06KT 8SM BKN110 04/M06 A3019 620 48 -500 VRB/06 RMK AO2
14837KMSN MSN20071107130509611/07/07 13:05:31  5-MIN KMSN 071905Z 22007KT 8SM BKN110 04/M06 A3019 620 46 -400 220/07 RMK AO2
14837KMSN MSN20071107131010211/07/07 13:10:31  5-MIN KMSN 071910Z 19010G15KT 8SM BKN110 04/M06 A3019 620 46 -400 190/10G15 RMK AO2
14837KMSN MSN20071107131510211/07/07 13:15:31  5-MIN KMSN 071915Z 25007G15KT 8SM BKN110 04/M06 A3018 620 48 -500 250/07G15 RMK AO2
14837KMSN MSN20071107132009611/07/07 13:20:31  5-MIN KMSN 071920Z 24005KT 8SM BKN110 04/M07 A3018 630 46 -500 230/05 RMK AO2
14837KMSN MSN20071107132510211/07/07 13:25:31  5-MIN KMSN 071925Z 19009G14KT 8SM BKN110 04/M06 A3018 630 46 -400 190/09G14 RMK AO2
14837KMSN MSN20071107133010211/07/07 13:30:31  5-MIN KMSN 071930Z 19011G14KT 9SM BKN110 04/M07 A3017 630 44 -400 190/11G14 RMK AO2
14837KMSN MSN20071107133509611/07/07 13:35:31  5-MIN KMSN 071935Z 22008KT 9SM BKN100 04/M07 A3017 630 44 -400 220/08 RMK AO2
14837KMSN MSN20071107134009611/07/07 13:40:31  5-MIN KMSN 071940Z 21006KT 9SM BKN100 04/M06 A3016 640 48 -500 210/06 RMK AO2
14837KMSN MSN20071107134510211/07/07 13:45:31  5-MIN KMSN 071945Z 20010G15KT 8SM BKN100 04/M07 A3016 640 46 -500 200/10G15 RMK AO2
14837KMSN MSN20071107135011911/07/07 13:50:31  5-MIN KMSN 071950Z 21006G15KT 9SM BKN100 04/M07 A3016 640 46 -500 210/06G15 RMK AO2 SLP222 T00391067
14837KMSN MSN20071107135509611/07/07 13:55:31  5-MIN KMSN 071955Z 23009KT 9SM BKN100 04/M07 A3016 640 46 -500 230/09 RMK AO2
14837KMSN MSN20071107140009611/07/07 14:00:31  5-MIN KMSN 072000Z 20007KT 9SM BKN100 04/M07 A3016 650 46 -500 200/07 RMK AO2
14837KMSN MSN20071107140509611/07/07 14:05:31  5-MIN KMSN 072005Z 21008KT 8SM BKN100 04/M07 A3015 650 44 -400 210/08 RMK AO2
14837KMSN MSN20071107141011211/07/07 14:10:31  5-MIN KMSN 072010Z 22007KT 190V260 8SM BKN100 04/M07 A3015 650 44 -400 220/07 190V260 RMK AO2
14837KMSN MSN20071107141510211/07/07 14:15:31  5-MIN KMSN 072015Z 19010G14KT 8SM BKN100 04/M07 A3015 650 44 -400 190/10G14 RMK AO2
14837KMSN MSN20071107142009611/07/07 14:20:31  5-MIN KMSN 072020Z 20008KT 8SM SCT100 04/M07 A3015 660 42 -400 200/08 RMK AO2
14837KMSN MSN20071107142509611/07/07 14:25:31  5-MIN KMSN 072025Z 19008KT 8SM SCT110 04/M07 A3014 660 44 -400 190/08 RMK AO2
14837KMSN MSN20071107143009611/07/07 14:30:31  5-MIN KMSN 072030Z 21007KT 8SM SCT110 04/M07 A3014 660 44 -400 200/07 RMK AO2
14837KMSN MSN20071107143509611/07/07 14:35:31  5-MIN KMSN 072035Z 21008KT 8SM BKN110 04/M07 A3014 660 46 -400 210/08 RMK AO2
14837KMSN MSN20071107144011211/07/07 14:40:31  5-MIN KMSN 072040Z 21007KT 180V250 8SM BKN120 04/M06 A3014 670 48 -400 210/07 180V250 RMK AO2
14837KMSN MSN20071107144509611/07/07 14:45:31  5-MIN KMSN 072045Z 20007KT 7SM BKN120 04/M06 A3013 670 46 -400 200/07 RMK AO2
14837KMSN MSN20071107145012511/07/07 14:50:31  5-MIN KMSN 072050Z 19007G14KT 7SM BKN110 04/M07 A3013 670 44 -400 190/07G14 RMK AO2 SLP212 T00441067 58024
14837KMSN MSN20071107145510211/07/07 14:55:31  5-MIN KMSN 072055Z VRB06G14KT 7SM BKN110 04/M07 A3013 670 44 -400 VRB/06G14 RMK AO2
14837KMSN MSN20071107150009611/07/07 15:00:31  5-MIN KMSN 072100Z 20008KT 8SM OVC110 04/M07 A3012 680 44 -300 190/08 RMK AO2
14837KMSN MSN20071107150509611/07/07 15:05:31  5-MIN KMSN 072105Z 21007KT 8SM OVC110 04/M07 A3012 680 44 -300 210/07 RMK AO2
14837KMSN MSN20071107151009611/07/07 15:10:31  5-MIN KMSN 072110Z 19010KT 8SM OVC110 04/M07 A3012 680 44 -300 190/10 RMK AO2
14837KMSN MSN20071107151509611/07/07 15:15:31  5-MIN KMSN 072115Z 22006KT 8SM OVC110 04/M07 A3012 680 44 -300 210/06 RMK AO2
14837KMSN MSN20071107152009611/07/07 15:20:31  5-MIN KMSN 072120Z 20007KT 7SM OVC100 04/M06 A3012 680 46 -300 190/07 RMK AO2
14837KMSN MSN20071107152509611/07/07 15:25:31  5-MIN KMSN 072125Z 22007KT 7SM OVC100 04/M07 A3012 680 44 -300 210/07 RMK AO2
14837KMSN MSN20071107153009611/07/07 15:30:31  5-MIN KMSN 072130Z 20009KT 7SM BKN110 04/M07 A3012 680 44 -300 200/09 RMK AO2
14837KMSN MSN20071107153509611/07/07 15:35:31  5-MIN KMSN 072135Z 20008KT 8SM BKN110 04/M07 A3012 680 42 -300 190/08 RMK AO2
14837KMSN MSN20071107154009611/07/07 15:40:31  5-MIN KMSN 072140Z 19007KT 9SM BKN110 04/M07 A3011 680 44 -300 190/07 RMK AO2
14837KMSN MSN20071107154509611/07/07 15:45:31  5-MIN KMSN 072145Z 20008KT 9SM SCT110 04/M07 A3011 690 46 -400 200/08 RMK AO2
14837KMSN MSN20071107155011311/07/07 15:50:31  5-MIN KMSN 072150Z 20009KT 8SM SCT110 04/M07 A3011 690 46 -400 200/09 RMK AO2 SLP205 T00391067
14837KMSN MSN20071107155509611/07/07 15:55:31  5-MIN KMSN 072155Z 19008KT 8SM SCT110 04/M07 A3011 690 46 -400 190/08 RMK AO2
14837KMSN MSN20071107160009611/07/07 16:00:31  5-MIN KMSN 072200Z 19008KT 8SM SCT120 04/M06 A3011 690 48 -400 190/08 RMK AO2
14837KMSN MSN20071107160509611/07/07 16:05:31  5-MIN KMSN 072205Z 19010KT 8SM FEW110 04/M06 A3011 690 48 -400 190/10 RMK AO2
14837KMSN MSN20071107161009611/07/07 16:10:31  5-MIN KMSN 072210Z 19010KT 8SM FEW110 04/M07 A3010 700 46 -400 190/10 RMK AO2
14837KMSN MSN20071107161509611/07/07 16:15:31  5-MIN KMSN 072215Z 19008KT 8SM SCT110 04/M07 A3010 700 46 -400 190/08 RMK AO2
14837KMSN MSN20071107162009611/07/07 16:20:31  5-MIN KMSN 072220Z 20007KT 8SM FEW110 04/M07 A3010 700 46 -400 200/07 RMK AO2
14837KMSN MSN20071107162509611/07/07 16:25:31  5-MIN KMSN 072225Z 20009KT 8SM FEW100 04/M07 A3009 710 46 -400 200/09 RMK AO2
14837KMSN MSN20071107163009611/07/07 16:30:31  5-MIN KMSN 072230Z 19007KT 8SM SCT110 04/M07 A3009 710 46 -400 190/07 RMK AO2
14837KMSN MSN20071107163509611/07/07 16:35:31  5-MIN KMSN 072235Z 19008KT 8SM BKN110 04/M07 A3009 710 46 -400 190/08 RMK AO2
14837KMSN MSN20071107164009611/07/07 16:40:31  5-MIN KMSN 072240Z 20008KT 8SM BKN110 04/M07 A3009 710 46 -400 200/08 RMK AO2
14837KMSN MSN20071107164509611/07/07 16:45:31  5-MIN KMSN 072245Z 19008KT 9SM BKN110 04/M06 A3008 710 48 -400 190/08 RMK AO2
14837KMSN MSN20071107165011311/07/07 16:50:31  5-MIN KMSN 072250Z 19010KT 9SM BKN110 04/M06 A3008 720 48 -400 190/10 RMK AO2 SLP196 T00391061
14837KMSN MSN20071107165509611/07/07 16:55:31  5-MIN KMSN 072255Z 19011KT 9SM BKN110 04/M06 A3008 720 48 -400 190/11 RMK AO2
14837KMSN MSN20071107170009611/07/07 17:00:31  5-MIN KMSN 072300Z 19010KT 9SM BKN110 04/M06 A3008 720 48 -400 190/10 RMK AO2
14837KMSN MSN20071107170509611/07/07 17:05:31  5-MIN KMSN 072305Z 19009KT 9SM BKN110 04/M06 A3007 720 48 -400 190/09 RMK AO2
14837KMSN MSN20071107171009611/07/07 17:10:31  5-MIN KMSN 072310Z 19008KT 9SM BKN110 04/M06 A3007 730 48 -400 190/08 RMK AO2
14837KMSN MSN20071107171509611/07/07 17:15:31  5-MIN KMSN 072315Z 18011KT 9SM BKN110 04/M06 A3007 730 48 -400 180/11 RMK AO2
14837KMSN MSN20071107172009611/07/07 17:20:31  5-MIN KMSN 072320Z 19010KT 9SM BKN110 04/M06 A3007 730 48 -400 190/10 RMK AO2
14837KMSN MSN20071107172509611/07/07 17:25:31  5-MIN KMSN 072325Z 18008KT 9SM BKN110 04/M06 A3007 730 48 -400 180/08 RMK AO2
14837KMSN MSN20071107173009611/07/07 17:30:31  5-MIN KMSN 072330Z 19008KT 9SM BKN110 04/M06 A3007 730 48 -400 190/08 RMK AO2
14837KMSN MSN20071107173509611/07/07 17:35:31  5-MIN KMSN 072335Z 19009KT 9SM BKN100 04/M06 A3007 730 48 -400 190/09 RMK AO2
14837KMSN MSN20071107174009611/07/07 17:40:31  5-MIN KMSN 072340Z 19009KT 9SM BKN100 04/M06 A3007 730 48 -400 190/09 RMK AO2
14837KMSN MSN20071107174509611/07/07 17:45:31  5-MIN KMSN 072345Z 18008KT 9SM OVC100 04/M06 A3007 730 48 -300 180/08 RMK AO2
14837KMSN MSN20071107175013111/07/07 17:50:31  5-MIN KMSN 072350Z 19009KT 9SM OVC100 03/M06 A3006 730 50 -400 190/09 RMK AO2 SLP191 T00331061 10044 20022 56036
14837KMSN MSN20071107175509611/07/07 17:55:31  5-MIN KMSN 072355Z 19008KT 9SM OVC095 03/M06 A3006 730 50 -400 190/08 RMK AO2
14837KMSN MSN20071107180009611/07/07 18:00:31  5-MIN KMSN 080000Z 18008KT 9SM OVC090 03/M06 A3006 730 52 -400 180/08 RMK AO2
14837KMSN MSN20071107180510311/07/07 18:05:31  5-MIN KMSN 080005Z 19008KT 9SM FEW070 OVC090 03/M06 A3006 730 52 -400 190/08 RMK AO2
14837KMSN MSN20071107181010311/07/07 18:10:31  5-MIN KMSN 080010Z 18011KT 9SM FEW070 OVC085 03/M06 A3006 730 52 -400 180/11 RMK AO2
14837KMSN MSN20071107181509611/07/07 18:15:31  5-MIN KMSN 080015Z 18009KT 9SM OVC080 03/M06 A3006 730 52 -400 180/09 RMK AO2
14837KMSN MSN20071107182009611/07/07 18:20:31  5-MIN KMSN 080020Z 18008KT 9SM OVC080 03/M06 A3006 730 52 -400 180/08 RMK AO2
14837KMSN MSN20071107182509611/07/07 18:25:31  5-MIN KMSN 080025Z 18009KT 9SM OVC080 03/M06 A3006 740 52 -400 180/09 RMK AO2
14837KMSN MSN20071107183009611/07/07 18:30:31  5-MIN KMSN 080030Z 17010KT 9SM OVC075 03/M06 A3006 740 52 -400 170/10 RMK AO2
14837KMSN MSN20071107183509611/07/07 18:35:31  5-MIN KMSN 080035Z 18007KT 9SM OVC080 03/M06 A3006 740 52 -400 180/07 RMK AO2
14837KMSN MSN20071107184009611/07/07 18:40:31  5-MIN KMSN 080040Z 18009KT 9SM OVC080 03/M05 A3006 740 54 -400 180/09 RMK AO2
14837KMSN MSN20071107184509611/07/07 18:45:31  5-MIN KMSN 080045Z 18008KT 9SM OVC080 03/M05 A3005 740 54 -400 170/08 RMK AO2
14837KMSN MSN20071107185012011/07/07 18:50:31  5-MIN KMSN 080050Z 17010KT 9SM BKN080 OVC095 03/M05 A3005 750 54 -400 170/10 RMK AO2 SLP186 T00331050
14837KMSN MSN20071107185510311/07/07 18:55:31  5-MIN KMSN 080055Z 18011KT 8SM BKN080 OVC095 03/M05 A3004 750 54 -400 180/11 RMK AO2
14837KMSN MSN20071107190010311/07/07 19:00:31  5-MIN KMSN 080100Z 18009KT 8SM BKN080 OVC095 03/M06 A3004 750 52 -400 180/09 RMK AO2
14837KMSN MSN20071107190510311/07/07 19:05:31  5-MIN KMSN 080105Z 20008KT 8SM BKN075 OVC090 03/M06 A3006 740 52 -400 190/08 RMK AO2
14837KMSN MSN20071107191010311/07/07 19:10:31  5-MIN KMSN 080110Z 20007KT 8SM BKN080 OVC095 03/M06 A3005 740 52 -400 200/07 RMK AO2
14837KMSN MSN20071107191510311/07/07 19:15:31  5-MIN KMSN 080115Z 19010KT 8SM BKN080 OVC095 03/M06 A3006 740 52 -400 190/10 RMK AO2
14837KMSN MSN20071107192010311/07/07 19:20:31  5-MIN KMSN 080120Z 20009KT 8SM BKN080 OVC095 03/M06 A3006 730 52 -400 200/09 RMK AO2
14837KMSN MSN20071107192510911/07/07 19:25:31  5-MIN KMSN 080125Z 21007G15KT 8SM BKN080 OVC095 03/M06 A3006 740 52 -400 210/07G15 RMK AO2
14837KMSN MSN20071107193010311/07/07 19:30:31  5-MIN KMSN 080130Z 19009KT 8SM BKN080 OVC090 03/M06 A3006 740 52 -400 190/09 RMK AO2
14837KMSN MSN20071107193510311/07/07 19:35:31  5-MIN KMSN 080135Z 19010KT 8SM BKN080 OVC090 03/M06 A3005 740 52 -400 180/10 RMK AO2
14837KMSN MSN20071107194010311/07/07 19:40:31  5-MIN KMSN 080140Z 19009KT 8SM BKN080 OVC090 03/M06 A3005 740 52 -400 190/09 RMK AO2
14837KMSN MSN20071107194510311/07/07 19:45:31  5-MIN KMSN 080145Z 19008KT 8SM BKN075 OVC095 03/M06 A3005 740 52 -400 190/08 RMK AO2
14837KMSN MSN20071107195012011/07/07 19:50:31  5-MIN KMSN 080150Z 19010KT 8SM BKN070 OVC080 03/M06 A3005 740 52 -400 190/10 RMK AO2 SLP186 T00331056
14837KMSN MSN20071107195510311/07/07 19:55:31  5-MIN KMSN 080155Z 19009KT 8SM BKN065 OVC080 03/M06 A3005 750 52 -400 190/09 RMK AO2
14837KMSN MSN20071107200010311/07/07 20:00:31  5-MIN KMSN 080200Z 18009KT 8SM SCT065 OVC080 03/M06 A3005 750 52 -400 180/09 RMK AO2
14837KMSN MSN20071107200510311/07/07 20:05:31  5-MIN KMSN 080205Z 19008KT 8SM BKN065 OVC080 03/M06 A3005 750 52 -400 190/08 RMK AO2
14837KMSN MSN20071107201010311/07/07 20:10:31  5-MIN KMSN 080210Z 20007KT 8SM BKN065 OVC080 03/M06 A3005 750 52 -400 200/07 RMK AO2
14837KMSN MSN20071107201510311/07/07 20:15:31  5-MIN KMSN 080215Z 19007KT 8SM BKN065 OVC080 03/M06 A3005 750 52 -400 190/07 RMK AO2
14837KMSN MSN20071107202010311/07/07 20:20:31  5-MIN KMSN 080220Z 22006KT 8SM SCT060 OVC080 03/M06 A3006 740 52 -400 220/06 RMK AO2
14837KMSN MSN20071107202510311/07/07 20:25:31  5-MIN KMSN 080225Z VRB05KT 8SM BKN060 OVC080 03/M06 A3006 740 52 -400 VRB/05 RMK AO2
14837KMSN MSN20071107203010311/07/07 20:30:31  5-MIN KMSN 080230Z 21004KT 8SM BKN060 OVC080 03/M06 A3006 740 50 -400 210/04 RMK AO2
14837KMSN MSN20071107203510311/07/07 20:35:31  5-MIN KMSN 080235Z 21004KT 8SM BKN060 OVC080 03/M06 A3006 740 52 -400 210/04 RMK AO2
14837KMSN MSN20071107204010311/07/07 20:40:31  5-MIN KMSN 080240Z 19009KT 8SM BKN065 OVC080 03/M06 A3006 740 50 -400 190/09 RMK AO2
14837KMSN MSN20071107204510311/07/07 20:45:31  5-MIN KMSN 080245Z 19008KT 8SM BKN065 OVC080 03/M06 A3006 740 50 -400 190/08 RMK AO2
14837KMSN MSN20071107205012611/07/07 20:50:31  5-MIN KMSN 080250Z 19009KT 8SM BKN065 OVC080 03/M06 A3005 740 50 -400 190/09 RMK AO2 SLP186 T00331061 56022
14837KMSN MSN20071107205509611/07/07 20:55:31  5-MIN KMSN 080255Z 20007KT 9SM OVC065 03/M06 A3005 740 50 -400 190/07 RMK AO2
14837KMSN MSN20071107210010311/07/07 21:00:31  5-MIN KMSN 080300Z 20008KT 9SM BKN070 OVC080 03/M06 A3005 740 50 -400 200/08 RMK AO2
14837KMSN MSN20071107210510311/07/07 21:05:31  5-MIN KMSN 080305Z 19009KT 9SM BKN065 OVC080 03/M06 A3005 750 52 -400 190/09 RMK AO2
14837KMSN MSN20071107211010311/07/07 21:10:31  5-MIN KMSN 080310Z 19006KT 9SM BKN065 OVC080 03/M06 A3005 750 50 -400 190/06 RMK AO2
14837KMSN MSN20071107211510911/07/07 21:15:31  5-MIN KMSN 080315Z 20007G16KT 9SM BKN065 OVC080 03/M06 A3005 750 50 -400 200/07G16 RMK AO2
14837KMSN MSN20071107212010911/07/07 21:20:31  5-MIN KMSN 080320Z 19007G16KT 8SM SCT065 OVC080 03/M06 A3005 750 52 -400 190/07G16 RMK AO2
14837KMSN MSN20071107212510311/07/07 21:25:31  5-MIN KMSN 080325Z 20009KT 8SM FEW060 OVC080 03/M06 A3005 750 52 -400 200/09 RMK AO2
14837KMSN MSN20071107213010311/07/07 21:30:31  5-MIN KMSN 080330Z 21006KT 9SM SCT065 OVC080 03/M06 A3005 750 50 -400 210/06 RMK AO2
14837KMSN MSN20071107213510311/07/07 21:35:31  5-MIN KMSN 080335Z 19006KT 9SM BKN065 OVC085 03/M06 A3005 750 50 -400 190/06 RMK AO2
14837KMSN MSN20071107214010311/07/07 21:40:31  5-MIN KMSN 080340Z 19007KT 9SM BKN065 OVC080 03/M06 A3005 750 52 -400 190/07 RMK AO2
14837KMSN MSN20071107214510311/07/07 21:45:31  5-MIN KMSN 080345Z 20007KT 9SM SCT060 OVC080 03/M06 A3005 750 52 -400 200/07 RMK AO2
14837KMSN MSN20071107215012011/07/07 21:50:31  5-MIN KMSN 080350Z 20004KT 9SM FEW060 OVC075 03/M06 A3004 750 52 -400 200/04 RMK AO2 SLP183 T00331056
14837KMSN MSN20071107215510311/07/07 21:55:31  5-MIN KMSN 080355Z 19006KT 9SM BKN070 OVC090 03/M06 A3004 750 52 -400 190/06 RMK AO2
14837KMSN MSN20071107220009611/07/07 22:00:31  5-MIN KMSN 080400Z 20005KT 9SM OVC070 03/M06 A3004 750 52 -400 190/05 RMK AO2
14837KMSN MSN20071107220509611/07/07 22:05:31  5-MIN KMSN 080405Z 19009KT 9SM OVC070 03/M06 A3004 750 52 -400 190/09 RMK AO2
14837KMSN MSN20071107221009611/07/07 22:10:31  5-MIN KMSN 080410Z 19006KT 9SM OVC075 03/M06 A3004 760 52 -400 190/06 RMK AO2
14837KMSN MSN20071107221509611/07/07 22:15:31  5-MIN KMSN 080415Z 18008KT 9SM OVC075 03/M06 A3003 760 52 -400 180/08 RMK AO2
14837KMSN MSN20071107222009611/07/07 22:20:31  5-MIN KMSN 080420Z 19010KT 9SM OVC075 03/M06 A3003 760 52 -400 190/10 RMK AO2
14837KMSN MSN20071107222510311/07/07 22:25:31  5-MIN KMSN 080425Z 19006KT 9SM FEW037 OVC075 03/M06 A3003 760 52 -400 190/06 RMK AO2
14837KMSN MSN20071107223010311/07/07 22:30:31  5-MIN KMSN 080430Z 19007KT 9SM SCT037 OVC075 03/M05 A3003 760 54 -400 190/07 RMK AO2
14837KMSN MSN20071107223511011/07/07 22:35:31  5-MIN KMSN 080435Z 18008KT 9SM SCT037 BKN065 OVC080 03/M05 A3003 770 54 -400 180/08 RMK AO2
14837KMSN MSN20071107224011011/07/07 22:40:31  5-MIN KMSN 080440Z 19008KT 9SM BKN037 BKN065 OVC080 03/M05 A3002 770 54 -400 180/08 RMK AO2
14837KMSN MSN20071107224511011/07/07 22:45:31  5-MIN KMSN 080445Z 18007KT 9SM BKN037 BKN055 OVC080 03/M05 A3002 770 54 -400 180/07 RMK AO2
14837KMSN MSN20071107225012711/07/07 22:50:31  5-MIN KMSN 080450Z 19007KT 9SM BKN037 BKN055 OVC065 03/M05 A3002 770 54 -400 180/07 RMK AO2 SLP174 T00331050
14837KMSN MSN20071107225510311/07/07 22:55:31  5-MIN KMSN 080455Z 18008KT 9SM BKN037 OVC075 03/M05 A3002 770 54 -400 180/08 RMK AO2
14837KMSN MSN20071107230010311/07/07 23:00:31  5-MIN KMSN 080500Z 18007KT 9SM BKN037 OVC075 03/M05 A3002 780 54 -400 180/07 RMK AO2
14837KMSN MSN20071107230510311/07/07 23:05:31  5-MIN KMSN 080505Z 19007KT 9SM BKN037 OVC075 03/M05 A3002 780 54 -400 190/07 RMK AO2
14837KMSN MSN20071107231011911/07/07 23:10:31  5-MIN KMSN 080510Z 17008KT 9SM -SN SCT037 OVC075 03/M05 A3001 780 54 -400 170/08 RMK AO2 SNB09 P0000
14837KMSN MSN20071107231511911/07/07 23:15:31  5-MIN KMSN 080515Z 18007KT 8SM -SN SCT037 OVC075 03/M05 A3001 780 54 -400 180/07 RMK AO2 SNB09 P0000
14837KMSN MSN20071107232011911/07/07 23:20:31  5-MIN KMSN 080520Z 18008KT 8SM -SN FEW039 OVC075 03/M05 A3000 790 54 -300 180/08 RMK AO2 SNB09 P0000
14837KMSN MSN20071107232512511/07/07 23:25:31  5-MIN KMSN 080525Z 18009KT 8SM FEW041 SCT060 OVC075 03/M05 A3000 790 54 -300 180/09 RMK AO2 SNB09E25 P0000
14837KMSN MSN20071107233012511/07/07 23:30:31  5-MIN KMSN 080530Z 18008KT 8SM FEW043 BKN060 OVC070 03/M05 A3000 790 54 -300 170/08 RMK AO2 SNB09E25 P0000
14837KMSN MSN20071107233511111/07/07 23:35:31  5-MIN KMSN 080535Z 18007KT 9SM OVC065 03/M05 A3000 790 54 -300 180/07 RMK AO2 SNB09E25 P0000
14837KMSN MSN20071107234011811/07/07 23:40:31  5-MIN KMSN 080540Z 18009KT 9SM BKN060 OVC070 03/M05 A2999 800 54 -300 180/09 RMK AO2 SNB09E25 P0000
14837KMSN MSN20071107234511111/07/07 23:45:31  5-MIN KMSN 080545Z 18009KT 9SM OVC060 03/M05 A2999 800 54 -300 180/09 RMK AO2 SNB09E25 P0000
14837KMSN MSN20071107235016211/07/07 23:50:31  5-MIN KMSN 080550Z 18008KT 9SM OVC060 03/M05 A2999 800 54 -300 180/08 RMK AO2 SNB09E25 SLP162 P0000 60000 T00331050 10033 20033 400441056 55003
14837KMSN MSN20071107235509611/07/07 23:55:31  5-MIN KMSN 080555Z 18009KT 9SM OVC060 03/M05 A2999 800 54 -300 180/09 RMK AO2
14837KMSN MSN20071108000009611/08/07 00:00:32  5-MIN KMSN 080600Z 19008KT 9SM OVC055 03/M05 A2998 810 54 -300 180/08 RMK AO2
14837KMSN MSN20071108000509611/08/07 00:05:31  5-MIN KMSN 080605Z 18008KT 9SM OVC055 03/M05 A2998 810 54 -300 180/08 RMK AO2
14837KMSN MSN20071108001009611/08/07 00:10:31  5-MIN KMSN 080610Z 18008KT 9SM OVC060 03/M05 A2997 810 54 -300 180/08 RMK AO2
14837KMSN MSN20071108001509611/08/07 00:15:31  5-MIN KMSN 080615Z 17008KT 9SM OVC060 03/M04 A2997 820 57 -300 160/08 RMK AO2
14837KMSN MSN20071108002009611/08/07 00:20:31  5-MIN KMSN 080620Z 16008KT 9SM OVC060 03/M05 A2997 820 54 -300 160/08 RMK AO2
14837KMSN MSN20071108002509611/08/07 00:25:31  5-MIN KMSN 080625Z 16009KT 9SM OVC060 03/M05 A2996 820 54 -300 160/09 RMK AO2
14837KMSN MSN20071108003009611/08/07 00:30:31  5-MIN KMSN 080630Z 16010KT 9SM OVC060 03/M05 A2996 830 54 -300 160/10 RMK AO2
14837KMSN MSN20071108003509611/08/07 00:35:31  5-MIN KMSN 080635Z 16010KT 9SM OVC060 03/M05 A2996 830 54 -300 160/10 RMK AO2
14837KMSN MSN20071108004009611/08/07 00:40:31  5-MIN KMSN 080640Z 16009KT 9SM OVC060 03/M05 A2996 830 54 -300 160/09 RMK AO2
14837KMSN MSN20071108004509611/08/07 00:45:31  5-MIN KMSN 080645Z 17008KT 9SM OVC060 03/M05 A2996 830 54 -300 170/08 RMK AO2
14837KMSN MSN20071108005011311/08/07 00:50:31  5-MIN KMSN 080650Z 16009KT 9SM OVC060 03/M04 A2995 830 57 -300 160/09 RMK AO2 SLP150 T00331044
14837KMSN MSN20071108005509611/08/07 00:55:31  5-MIN KMSN 080655Z 17010KT 9SM OVC065 03/M05 A2995 840 54 -300 170/10 RMK AO2
14837KMSN MSN20071108010009611/08/07 01:00:31  5-MIN KMSN 080700Z 17009KT 9SM OVC065 03/M05 A2995 840 54 -300 170/09 RMK AO2
14837KMSN MSN20071108010509611/08/07 01:05:31  5-MIN KMSN 080705Z 17008KT 9SM OVC065 03/M05 A2995 840 54 -300 170/08 RMK AO2
14837KMSN MSN20071108011009611/08/07 01:10:31  5-MIN KMSN 080710Z 17009KT 9SM OVC065 03/M04 A2994 840 57 -300 170/09 RMK AO2
14837KMSN MSN20071108011510311/08/07 01:15:31  5-MIN KMSN 080715Z 17009KT 9SM BKN065 OVC080 03/M04 A2994 850 57 -300 170/09 RMK AO2
14837KMSN MSN20071108012009611/08/07 01:20:31  5-MIN KMSN 080720Z 17010KT 9SM OVC070 03/M04 A2993 850 57 -300 170/10 RMK AO2
14837KMSN MSN20071108012509611/08/07 01:25:31  5-MIN KMSN 080725Z 17010KT 9SM OVC070 03/M05 A2993 860 54 -300 170/10 RMK AO2
14837KMSN MSN20071108013009611/08/07 01:30:31  5-MIN KMSN 080730Z 17011KT 9SM OVC075 03/M05 A2993 850 54 -300 170/11 RMK AO2
14837KMSN MSN20071108013509611/08/07 01:35:31  5-MIN KMSN 080735Z 17011KT 9SM OVC070 03/M05 A2993 860 54 -300 170/11 RMK AO2
14837KMSN MSN20071108014009611/08/07 01:40:31  5-MIN KMSN 080740Z 17011KT 9SM OVC075 03/M05 A2993 860 54 -300 170/11 RMK AO2
14837KMSN MSN20071108014509611/08/07 01:45:31  5-MIN KMSN 080745Z 18009KT 9SM OVC075 03/M05 A2993 860 54 -300 170/09 RMK AO2
14837KMSN MSN20071108015011311/08/07 01:50:31  5-MIN KMSN 080750Z 18009KT 9SM OVC070 03/M04 A2993 860 57 -300 180/09 RMK AO2 SLP141 T00331044
14837KMSN MSN20071108015509611/08/07 01:55:31  5-MIN KMSN 080755Z 17008KT 9SM OVC070 03/M04 A2993 860 57 -300 170/08 RMK AO2
14837KMSN MSN20071108020009611/08/07 02:00:31  5-MIN KMSN 080800Z 17009KT 9SM OVC070 03/M04 A2992 860 57 -300 170/09 RMK AO2
14837KMSN MSN20071108020509611/08/07 02:05:31  5-MIN KMSN 080805Z 18007KT 9SM OVC070 03/M04 A2992 860 57 -300 180/07 RMK AO2
14837KMSN MSN20071108021009611/08/07 02:10:31  5-MIN KMSN 080810Z 18006KT 9SM OVC070 03/M04 A2992 860 57 -300 180/06 RMK AO2
14837KMSN MSN20071108021509611/08/07 02:15:31  5-MIN KMSN 080815Z 18006KT 9SM OVC065 04/M04 A2992 860 54 -200 180/06 RMK AO2
14837KMSN MSN20071108022009611/08/07 02:20:31  5-MIN KMSN 080820Z 18007KT 9SM OVC065 04/M04 A2992 860 54 -200 180/07 RMK AO2
14837KMSN MSN20071108022509611/08/07 02:25:31  5-MIN KMSN 080825Z 18006KT 9SM OVC065 04/M04 A2992 870 54 -200 180/06 RMK AO2
14837KMSN MSN20071108023009611/08/07 02:30:31  5-MIN KMSN 080830Z 18009KT 9SM OVC065 04/M04 A2991 870 54 -200 180/09 RMK AO2
14837KMSN MSN20071108023509611/08/07 02:35:31  5-MIN KMSN 080835Z 19008KT 9SM OVC070 04/M04 A2991 870 54 -200 190/08 RMK AO2
14837KMSN MSN20071108024009611/08/07 02:40:31  5-MIN KMSN 080840Z 18008KT 9SM OVC070 04/M04 A2991 870 54 -200 180/08 RMK AO2
14837KMSN MSN20071108024509611/08/07 02:45:31  5-MIN KMSN 080845Z 18009KT 9SM OVC070 04/M04 A2991 880 54 -200 180/09 RMK AO2
14837KMSN MSN20071108025011911/08/07 02:50:31  5-MIN KMSN 080850Z 18009KT 9SM OVC070 04/M04 A2991 880 54 -200 180/09 RMK AO2 SLP133 T00391044 58022
14837KMSN MSN20071108025509611/08/07 02:55:31  5-MIN KMSN 080855Z 18008KT 9SM OVC070 04/M05 A2990 880 52 -200 180/08 RMK AO2
14837KMSN MSN20071108030009611/08/07 03:00:31  5-MIN KMSN 080900Z 19008KT 9SM OVC070 03/M04 A2990 880 57 -200 190/08 RMK AO2
14837KMSN MSN20071108030509611/08/07 03:05:31  5-MIN KMSN 080905Z 18008KT 9SM OVC070 03/M04 A2990 880 57 -200 180/08 RMK AO2
14837KMSN MSN20071108031009611/08/07 03:10:31  5-MIN KMSN 080910Z 18008KT 9SM OVC070 03/M04 A2990 880 57 -200 180/08 RMK AO2
14837KMSN MSN20071108031510311/08/07 03:15:31  5-MIN KMSN 080915Z 19008KT 9SM FEW060 OVC075 03/M04 A2990 880 57 -200 180/08 RMK AO2
14837KMSN MSN20071108032010311/08/07 03:20:31  5-MIN KMSN 080920Z 18009KT 9SM SCT060 OVC075 03/M05 A2990 880 54 -200 180/09 RMK AO2
14837KMSN MSN20071108032510311/08/07 03:25:31  5-MIN KMSN 080925Z 18009KT 9SM BKN060 OVC075 03/M04 A2990 880 57 -200 180/09 RMK AO2
14837KMSN MSN20071108033010311/08/07 03:30:31  5-MIN KMSN 080930Z 18009KT 9SM BKN060 OVC075 03/M05 A2990 890 54 -200 180/09 RMK AO2
14837KMSN MSN20071108033509611/08/07 03:35:31  5-MIN KMSN 080935Z 18008KT 9SM OVC065 03/M04 A2989 890 57 -200 180/08 RMK AO2
14837KMSN MSN20071108034009611/08/07 03:40:31  5-MIN KMSN 080940Z 18009KT 9SM OVC060 03/M05 A2989 890 54 -200 180/09 RMK AO2
14837KMSN MSN20071108034509611/08/07 03:45:31  5-MIN KMSN 080945Z 18009KT 9SM OVC060 03/M04 A2989 890 57 -200 180/09 RMK AO2
14837KMSN MSN20071108035011311/08/07 03:50:31  5-MIN KMSN 080950Z 18007KT 9SM OVC060 03/M04 A2989 890 57 -200 180/07 RMK AO2 SLP129 T00331044
14837KMSN MSN20071108035509611/08/07 03:55:31  5-MIN KMSN 080955Z 18006KT 9SM OVC060 03/M04 A2989 890 57 -200 180/06 RMK AO2
14837KMSN MSN20071108040009611/08/07 04:00:31  5-MIN KMSN 081000Z 18010KT 9SM OVC060 03/M04 A2989 890 57 -200 180/10 RMK AO2
14837KMSN MSN20071108040509611/08/07 04:05:31  5-MIN KMSN 081005Z 18009KT 9SM OVC060 03/M04 A2989 900 57 -200 180/09 RMK AO2
14837KMSN MSN20071108041009611/08/07 04:10:31  5-MIN KMSN 081010Z 18008KT 9SM OVC060 03/M04 A2988 900 57 -200 170/08 RMK AO2
14837KMSN MSN20071108041509611/08/07 04:15:31  5-MIN KMSN 081015Z 18008KT 9SM OVC060 03/M05 A2988 900 54 -200 180/08 RMK AO2
14837KMSN MSN20071108042009611/08/07 04:20:31  5-MIN KMSN 081020Z 19008KT 9SM OVC060 03/M04 A2989 900 57 -200 180/08 RMK AO2
14837KMSN MSN20071108042509611/08/07 04:25:31  5-MIN KMSN 081025Z 19007KT 9SM OVC065 03/M04 A2989 890 57 -200 190/07 RMK AO2
14837KMSN MSN20071108043009611/08/07 04:30:31  5-MIN KMSN 081030Z 19008KT 9SM OVC065 03/M04 A2989 890 57 -200 190/08 RMK AO2
14837KMSN MSN20071108043509611/08/07 04:35:31  5-MIN KMSN 081035Z 19007KT 9SM OVC065 03/M04 A2989 890 57 -200 190/07 RMK AO2
14837KMSN MSN20071108044009611/08/07 04:40:31  5-MIN KMSN 081040Z 19007KT 9SM OVC065 03/M04 A2989 890 57 -200 190/07 RMK AO2
14837KMSN MSN20071108044509611/08/07 04:45:31  5-MIN KMSN 081045Z 19006KT 9SM OVC060 03/M04 A2989 890 57 -200 190/06 RMK AO2
14837KMSN MSN20071108045011311/08/07 04:50:31  5-MIN KMSN 081050Z 19005KT 9SM OVC060 03/M04 A2989 890 57 -200 190/05 RMK AO2 SLP129 T00331044
14837KMSN MSN20071108045509611/08/07 04:55:31  5-MIN KMSN 081055Z 19007KT 9SM OVC060 03/M04 A2989 890 57 -200 190/07 RMK AO2
14837KMSN MSN20071108050009611/08/07 05:00:31  5-MIN KMSN 081100Z 19005KT 9SM BKN060 03/M04 A2989 890 59 -300 190/05 RMK AO2
14837KMSN MSN20071108050509611/08/07 05:05:31  5-MIN KMSN 081105Z 19007KT 9SM SCT060 03/M04 A2989 900 59 -300 190/07 RMK AO2
14837KMSN MSN20071108051009611/08/07 05:10:31  5-MIN KMSN 081110Z 19007KT 9SM SCT060 03/M04 A2989 900 59 -300 190/07 RMK AO2
14837KMSN MSN20071108051509611/08/07 05:15:31  5-MIN KMSN 081115Z 19004KT 9SM FEW060 03/M04 A2988 900 59 -300 190/04 RMK AO2
14837KMSN MSN20071108052009611/08/07 05:20:31  5-MIN KMSN 081120Z 19006KT 9SM FEW060 03/M04 A2988 900 59 -300 190/06 RMK AO2
14837KMSN MSN20071108052509311/08/07 05:25:31  5-MIN KMSN 081125Z 18005KT 9SM CLR 03/M04 A2988 900 59 -300 180/05 RMK AO2
14837KMSN MSN20071108053009311/08/07 05:30:31  5-MIN KMSN 081130Z 18005KT 9SM CLR 02/M04 A2988 900 61 -300 180/05 RMK AO2
14837KMSN MSN20071108053509311/08/07 05:35:31  5-MIN KMSN 081135Z 18004KT 9SM CLR 02/M04 A2988 900 61 -300 180/04 RMK AO2
14837KMSN MSN20071108054009311/08/07 05:40:31  5-MIN KMSN 081140Z 18004KT 9SM CLR 02/M04 A2988 910 64 -400 180/04 RMK AO2
14837KMSN MSN20071108054509311/08/07 05:45:31  5-MIN KMSN 081145Z 18005KT 9SM CLR 02/M04 A2988 910 61 -300 180/05 RMK AO2
14837KMSN MSN20071108055013111/08/07 05:50:31  5-MIN KMSN 081150Z 18004KT 9SM FEW060 02/M04 A2988 910 61 -300 180/04 RMK AO2 SLP124 T00221044 10039 20017 56027
14837KMSN MSN20071108055509311/08/07 05:55:31  5-MIN KMSN 081155Z 18006KT 9SM CLR 02/M04 A2988 910 61 -300 180/06 RMK AO2
14837KMSN MSN20071108060009311/08/07 06:00:31  5-MIN KMSN 081200Z 19005KT 9SM CLR 03/M04 A2988 910 59 -300 180/05 RMK AO2
14837KMSN MSN20071108060509311/08/07 06:05:31  5-MIN KMSN 081205Z 19004KT 9SM CLR 02/M04 A2988 900 61 -300 190/04 RMK AO2
14837KMSN MSN20071108061009311/08/07 06:10:31  5-MIN KMSN 081210Z 18005KT 8SM CLR 02/M04 A2988 900 61 -300 180/05 RMK AO2
14837KMSN MSN20071108061509311/08/07 06:15:31  5-MIN KMSN 081215Z 19004KT 9SM CLR 02/M04 A2988 900 61 -300 190/04 RMK AO2
14837KMSN MSN20071108062009311/08/07 06:20:31  5-MIN KMSN 081220Z 19005KT 9SM CLR 02/M04 A2988 900 61 -300 190/05 RMK AO2
14837KMSN MSN20071108062509311/08/07 06:25:31  5-MIN KMSN 081225Z 18006KT 9SM CLR 02/M04 A2988 900 61 -300 180/06 RMK AO2
14837KMSN MSN20071108063009311/08/07 06:30:31  5-MIN KMSN 081230Z 18006KT 9SM CLR 02/M04 A2988 900 61 -300 180/06 RMK AO2
14837KMSN MSN20071108063509311/08/07 06:35:31  5-MIN KMSN 081235Z 17004KT 9SM CLR 02/M04 A2988 900 61 -300 170/04 RMK AO2
14837KMSN MSN20071108064009311/08/07 06:40:31  5-MIN KMSN 081240Z 19004KT 8SM CLR 02/M04 A2988 900 64 -400 190/04 RMK AO2
14837KMSN MSN20071108064509311/08/07 06:45:31  5-MIN KMSN 081245Z 19005KT 7SM CLR 02/M04 A2988 900 64 -400 190/05 RMK AO2
14837KMSN MSN20071108065011311/08/07 06:50:31  5-MIN KMSN 081250Z 19005KT 8SM FEW090 02/M04 A2988 900 61 -300 190/05 RMK AO2 SLP127 T00221044
14837KMSN MSN20071108065509311/08/07 06:55:31  5-MIN KMSN 081255Z 18004KT 7SM CLR 02/M04 A2988 900 66 -400 180/04 RMK AO2
14837KMSN MSN20071108070009311/08/07 07:00:31  5-MIN KMSN 081300Z 18004KT 7SM CLR 02/M04 A2988 900 66 -400 180/04 RMK AO2
14837KMSN MSN20071108070509311/08/07 07:05:31  5-MIN KMSN 081305Z 16004KT 7SM CLR 01/M04 A2988 900 66 -500 150/04 RMK AO2
14837KMSN MSN20071108071009311/08/07 07:10:31  5-MIN KMSN 081310Z 16004KT 7SM CLR 01/M04 A2988 900 66 -500 150/04 RMK AO2
14837KMSN MSN20071108071509311/08/07 07:15:31  5-MIN KMSN 081315Z 17005KT 7SM CLR 01/M04 A2988 900 66 -500 170/05 RMK AO2
14837KMSN MSN20071108072009311/08/07 07:20:31  5-MIN KMSN 081320Z 17004KT 7SM CLR 01/M04 A2988 900 69 -500 160/04 RMK AO2
14837KMSN MSN20071108072509311/08/07 07:25:31  5-MIN KMSN 081325Z 17004KT 7SM CLR 02/M04 A2988 900 66 -400 160/04 RMK AO2
14837KMSN MSN20071108073009311/08/07 07:30:31  5-MIN KMSN 081330Z 17005KT 7SM CLR 02/M04 A2988 900 66 -400 160/05 RMK AO2
14837KMSN MSN20071108073509311/08/07 07:35:31  5-MIN KMSN 081335Z 17005KT 7SM CLR 02/M04 A2988 900 66 -400 170/05 RMK AO2
14837KMSN MSN20071108074009311/08/07 07:40:31  5-MIN KMSN 081340Z 18004KT 7SM CLR 02/M04 A2988 900 64 -300 180/04 RMK AO2
14837KMSN MSN20071108074509311/08/07 07:45:31  5-MIN KMSN 081345Z 17004KT 7SM CLR 02/M04 A2988 900 64 -300 160/04 RMK AO2
14837KMSN MSN20071108075011011/08/07 07:50:31  5-MIN KMSN 081350Z 18004KT 7SM CLR 02/M04 A2988 900 64 -300 180/04 RMK AO2 SLP127 T00221039
14837KMSN MSN20071108075509311/08/07 07:55:31  5-MIN KMSN 081355Z 17004KT 7SM CLR 02/M04 A2989 900 64 -300 170/04 RMK AO2
14837KMSN MSN20071108080009311/08/07 08:00:31  5-MIN KMSN 081400Z 17004KT 7SM CLR 02/M04 A2988 900 64 -300 170/04 RMK AO2
14837KMSN MSN20071108080509311/08/07 08:05:31  5-MIN KMSN 081405Z 17005KT 7SM CLR 03/M03 A2988 900 64 -300 170/05 RMK AO2
14837KMSN MSN20071108081009311/08/07 08:10:31  5-MIN KMSN 081410Z 18006KT 7SM CLR 03/M03 A2988 900 64 -300 180/06 RMK AO2
14837KMSN MSN20071108081509311/08/07 08:15:31  5-MIN KMSN 081415Z 18005KT 7SM CLR 03/M03 A2988 900 61 -200 180/05 RMK AO2
14837KMSN MSN20071108082009311/08/07 08:20:31  5-MIN KMSN 081420Z 19006KT 7SM CLR 03/M03 A2988 900 61 -200 180/06 RMK AO2
14837KMSN MSN20071108082509311/08/07 08:25:31  5-MIN KMSN 081425Z 19006KT 7SM CLR 04/M03 A2988 900 59 -100 190/06 RMK AO2
14837KMSN MSN20071108083009311/08/07 08:30:31  5-MIN KMSN 081430Z 20004KT 8SM CLR 04/M03 A2988 900 59 -100 200/04 RMK AO2
14837KMSN MSN20071108083509311/08/07 08:35:31  5-MIN KMSN 081435Z 18005KT 8SM CLR 04/M03 A2989 900 59 -100 180/05 RMK AO2
14837KMSN MSN20071108084009311/08/07 08:40:31  5-MIN KMSN 081440Z 19005KT 7SM CLR 04/M03 A2989 890 59 -100 190/05 RMK AO2
14837KMSN MSN20071108084509311/08/07 08:45:31  5-MIN KMSN 081445Z 23006KT 7SM CLR 04/M03 A2989 890 57 -100 230/06 RMK AO2
14837KMSN MSN20071108085011911/08/07 08:50:31  5-MIN KMSN 081450Z 20005KT 6SM HZ CLR 04/M04 A2989 900 57 -100 200/05 RMK AO2 SLP128 T00391039 56009
14837KMSN MSN20071108085509611/08/07 08:55:31  5-MIN KMSN 081455Z VRB04KT 6SM HZ CLR 04/M03 A2988 900 57 -100 VRB/04 RMK AO2
14837KMSN MSN20071108090009311/08/07 09:00:31  5-MIN KMSN 081500Z 23003KT 7SM CLR 04/M03 A2988 900 59 -100 220/03 RMK AO2
14837KMSN MSN20071108090509311/08/07 09:05:31  5-MIN KMSN 081505Z 20003KT 7SM CLR 04/M03 A2988 900 59 -100 200/03 RMK AO2
14837KMSN MSN20071108091009311/08/07 09:10:31  5-MIN KMSN 081510Z 21003KT 7SM CLR 04/M03 A2988 900 57 -100 210/03 RMK AO2
14837KMSN MSN20071108091509311/08/07 09:15:31  5-MIN KMSN 081515Z 00000KT 7SM CLR 04/M03 A2989 900 59 -100 000/00 RMK AO2
14837KMSN MSN20071108092009011/08/07 09:20:31  5-MIN KMSN 081520Z 24003KT 7SM CLR 05/M03 A2989 890 57 0 240/03 RMK AO2
14837KMSN MSN20071108092509311/08/07 09:25:31  5-MIN KMSN 081525Z 20003KT 7SM CLR 04/M03 A2989 890 57 -100 200/03 RMK AO2
14837KMSN MSN20071108093009011/08/07 09:30:31  5-MIN KMSN 081530Z 00000KT 7SM CLR 05/M03 A2989 890 57 0 000/00 RMK AO2
14837KMSN MSN20071108093509011/08/07 09:35:31  5-MIN KMSN 081535Z 22003KT 7SM CLR 05/M03 A2989 890 57 0 220/03 RMK AO2
14837KMSN MSN20071108094009011/08/07 09:40:31  5-MIN KMSN 081540Z 00000KT 7SM CLR 05/M02 A2989 890 59 0 000/00 RMK AO2
14837KMSN MSN20071108094509011/08/07 09:45:31  5-MIN KMSN 081545Z 00000KT 7SM CLR 06/M03 A2989 900 55 0 000/00 RMK AO2
14837KMSN MSN20071108095010711/08/07 09:50:31  5-MIN KMSN 081550Z 29004KT 8SM CLR 06/M03 A2988 900 55 0 290/04 RMK AO2 SLP126 T00561028
14837KMSN MSN20071108095509011/08/07 09:55:31  5-MIN KMSN 081555Z 27003KT 8SM CLR 06/M03 A2988 900 53 0 270/03 RMK AO2
14837KMSN MSN20071108100009011/08/07 10:00:31  5-MIN KMSN 081600Z 26005KT 8SM CLR 06/M03 A2988 900 53 0 260/05 RMK AO2
14837KMSN MSN20071108100509011/08/07 10:05:31  5-MIN KMSN 081605Z VRB03KT 8SM CLR 06/M03 A2989 900 53 0 VRB/03 RMK AO2
14837KMSN MSN20071108101009011/08/07 10:10:31  5-MIN KMSN 081610Z 29006KT 8SM CLR 06/M03 A2988 900 53 0 290/06 RMK AO2
14837KMSN MSN20071108101509011/08/07 10:15:31  5-MIN KMSN 081615Z 32003KT 8SM CLR 06/M04 A2988 900 50 0 320/03 RMK AO2
14837KMSN MSN20071108102009211/08/07 10:20:31  5-MIN KMSN 081620Z 33004KT 8SM CLR 06/M04 A2988 900 48 100 320/04 RMK AO2
14837KMSN MSN20071108102509211/08/07 10:25:31  5-MIN KMSN 081625Z 28003KT 8SM CLR 06/M04 A2988 900 48 100 280/03 RMK AO2
14837KMSN MSN20071108103009211/08/07 10:30:31  5-MIN KMSN 081630Z 29004KT 8SM CLR 06/M03 A2988 900 51 100 290/04 RMK AO2
14837KMSN MSN20071108103509211/08/07 10:35:31  5-MIN KMSN 081635Z 27003KT 8SM CLR 06/M03 A2989 900 51 100 260/03 RMK AO2
14837KMSN MSN20071108104009211/08/07 10:40:31  5-MIN KMSN 081640Z 35004KT 8SM CLR 07/M03 A2988 900 49 200 350/04 RMK AO2
14837KMSN MSN20071108104509211/08/07 10:45:31  5-MIN KMSN 081645Z 00000KT 8SM CLR 07/M03 A2988 900 47 200 000/00 RMK AO2
14837KMSN MSN20071108105010911/08/07 10:50:31  5-MIN KMSN 081650Z 30005KT 8SM CLR 06/M03 A2988 900 51 100 300/05 RMK AO2 SLP125 T00611033
14837KMSN MSN20071108105509211/08/07 10:55:31  5-MIN KMSN 081655Z VRB04KT 8SM CLR 07/M03 A2988 900 49 200 VRB/04 RMK AO2
14837KMSN MSN20071108110009211/08/07 11:00:31  5-MIN KMSN 081700Z 00000KT 8SM CLR 07/M03 A2988 900 49 200 000/00 RMK AO2
14837KMSN MSN20071108110509211/08/07 11:05:31  5-MIN KMSN 081705Z 36004KT 8SM CLR 07/M03 A2988 900 47 200 360/04 RMK AO2
14837KMSN MSN20071108111009211/08/07 11:10:31  5-MIN KMSN 081710Z 00000KT 8SM CLR 07/M03 A2988 900 49 200 000/00 RMK AO2
14837KMSN MSN20071108111509211/08/07 11:15:31  5-MIN KMSN 081715Z VRB04KT 8SM CLR 07/M03 A2988 900 49 200 VRB/04 RMK AO2
14837KMSN MSN20071108112009211/08/07 11:20:31  5-MIN KMSN 081720Z 35004KT 8SM CLR 07/M03 A2988 900 47 200 350/04 RMK AO2
14837KMSN MSN20071108112509211/08/07 11:25:31  5-MIN KMSN 081725Z 00000KT 8SM CLR 08/M03 A2988 900 45 300 000/00 RMK AO2
14837KMSN MSN20071108113009211/08/07 11:30:31  5-MIN KMSN 081730Z 00000KT 8SM CLR 07/M03 A2988 910 47 200 000/00 RMK AO2
14837KMSN MSN20071108113509211/08/07 11:35:31  5-MIN KMSN 081735Z 27005KT 8SM CLR 07/M03 A2987 910 47 200 270/05 RMK AO2
14837KMSN MSN20071108114009211/08/07 11:40:31  5-MIN KMSN 081740Z 00000KT 8SM CLR 07/M03 A2987 910 47 200 000/00 RMK AO2
14837KMSN MSN20071108114509211/08/07 11:45:31  5-MIN KMSN 081745Z 00000KT 8SM CLR 08/M03 A2987 910 47 300 000/00 RMK AO2
14837KMSN MSN20071108115012711/08/07 11:50:31  5-MIN KMSN 081750Z 00000KT 8SM CLR 08/M03 A2987 910 45 400 000/00 RMK AO2 SLP119 T00831028 10083 20011 51003
14837KMSN MSN20071108115509211/08/07 11:55:31  5-MIN KMSN 081755Z 00000KT 8SM CLR 08/M03 A2987 910 45 300 000/00 RMK AO2
14837KMSN MSN20071108120009211/08/07 12:00:31  5-MIN KMSN 081800Z 00000KT 8SM CLR 08/M03 A2987 910 47 300 000/00 RMK AO2
14837KMSN MSN20071108120509211/08/07 12:05:31  5-MIN KMSN 081805Z 30003KT 8SM CLR 08/M03 A2987 910 47 300 300/03 RMK AO2
14837KMSN MSN20071108121009211/08/07 12:10:31  5-MIN KMSN 081810Z 27003KT 8SM CLR 07/M03 A2987 910 47 200 270/03 RMK AO2
14837KMSN MSN20071108121509211/08/07 12:15:31  5-MIN KMSN 081815Z 00000KT 7SM CLR 08/M03 A2987 920 45 300 000/00 RMK AO2
14837KMSN MSN20071108122009511/08/07 12:20:31  5-MIN KMSN 081820Z 30004KT 6SM HZ CLR 08/M03 A2987 910 47 300 300/04 RMK AO2
14837KMSN MSN20071108122509511/08/07 12:25:31  5-MIN KMSN 081825Z 00000KT 5SM HZ CLR 07/M03 A2987 910 47 200 000/00 RMK AO2
14837KMSN MSN20071108123009511/08/07 12:30:31  5-MIN KMSN 081830Z 00000KT 5SM HZ CLR 08/M03 A2987 910 45 300 000/00 RMK AO2
14837KMSN MSN20071108123509211/08/07 12:35:31  5-MIN KMSN 081835Z 00000KT 7SM CLR 07/M03 A2987 910 47 200 000/00 RMK AO2
14837KMSN MSN20071108124009211/08/07 12:40:31  5-MIN KMSN 081840Z 01003KT 8SM CLR 08/M03 A2987 920 47 300 010/03 RMK AO2
14837KMSN MSN20071108124509211/08/07 12:45:31  5-MIN KMSN 081845Z 00000KT 8SM CLR 08/M02 A2986 920 49 300 000/00 RMK AO2
14837KMSN MSN20071108125010911/08/07 12:50:31  5-MIN KMSN 081850Z 32003KT 8SM CLR 08/M03 A2986 920 45 300 320/03 RMK AO2 SLP117 T00781033
14837KMSN MSN20071108125509211/08/07 12:55:31  5-MIN KMSN 081855Z 33004KT 8SM CLR 08/M03 A2986 920 45 300 330/04 RMK AO2
14837KMSN MSN20071108130009211/08/07 13:00:31  5-MIN KMSN 081900Z VRB03KT 8SM CLR 07/M03 A2986 920 47 200 VRB/03 RMK AO2
14837KMSN MSN20071108130509211/08/07 13:05:31  5-MIN KMSN 081905Z 33004KT 7SM CLR 08/M03 A2986 920 47 300 330/04 RMK AO2
14837KMSN MSN20071108131009211/08/07 13:10:31  5-MIN KMSN 081910Z 26003KT 8SM CLR 08/M03 A2986 920 47 300 260/03 RMK AO2
14837KMSN MSN20071108131509211/08/07 13:15:31  5-MIN KMSN 081915Z VRB04KT 8SM CLR 08/M03 A2986 920 45 300 VRB/04 RMK AO2
14837KMSN MSN20071108132009211/08/07 13:20:31  5-MIN KMSN 081920Z VRB03KT 7SM CLR 07/M03 A2986 920 49 200 VRB/03 RMK AO2
14837KMSN MSN20071108132509211/08/07 13:25:31  5-MIN KMSN 081925Z VRB05KT 7SM CLR 08/M03 A2986 920 47 300 VRB/05 RMK AO2
14837KMSN MSN20071108133009211/08/07 13:30:31  5-MIN KMSN 081930Z 30003KT 8SM CLR 07/M03 A2987 910 47 200 290/03 RMK AO2
14837KMSN MSN20071108133509211/08/07 13:35:31  5-MIN KMSN 081935Z 33004KT 8SM CLR 08/M03 A2987 910 47 300 330/04 RMK AO2
14837KMSN MSN20071108134009211/08/07 13:40:31  5-MIN KMSN 081940Z 31005KT 8SM CLR 08/M03 A2987 910 47 300 310/05 RMK AO2
14837KMSN MSN20071108134509211/08/07 13:45:31  5-MIN KMSN 081945Z VRB03KT 8SM CLR 08/M03 A2986 920 47 300 VRB/03 RMK AO2
14837KMSN MSN20071108135010911/08/07 13:50:31  5-MIN KMSN 081950Z 32005KT 8SM CLR 08/M03 A2986 920 47 300 320/05 RMK AO2 SLP118 T00781028
14837KMSN MSN20071108135509211/08/07 13:55:31  5-MIN KMSN 081955Z 32005KT 8SM CLR 08/M03 A2987 920 45 300 320/05 RMK AO2
14837KMSN MSN20071108140009211/08/07 14:00:31  5-MIN KMSN 082000Z 36004KT 8SM CLR 08/M03 A2986 920 47 300 360/04 RMK AO2
14837KMSN MSN20071108140509211/08/07 14:05:31  5-MIN KMSN 082005Z 28005KT 8SM CLR 08/M02 A2987 920 47 400 280/05 RMK AO2
14837KMSN MSN20071108141009211/08/07 14:10:31  5-MIN KMSN 082010Z 31005KT 8SM CLR 08/M03 A2987 910 45 300 310/05 RMK AO2
14837KMSN MSN20071108141509211/08/07 14:15:31  5-MIN KMSN 082015Z 29004KT 8SM CLR 08/M03 A2987 910 47 300 290/04 RMK AO2
14837KMSN MSN20071108142009211/08/07 14:20:31  5-MIN KMSN 082020Z 34006KT 8SM CLR 08/M03 A2987 910 47 300 340/06 RMK AO2
14837KMSN MSN20071108142509211/08/07 14:25:31  5-MIN KMSN 082025Z 34005KT 8SM CLR 08/M03 A2987 910 47 300 340/05 RMK AO2
14837KMSN MSN20071108143009211/08/07 14:30:31  5-MIN KMSN 082030Z 32003KT 8SM CLR 08/M03 A2986 920 47 300 320/03 RMK AO2
14837KMSN MSN20071108143509211/08/07 14:35:31  5-MIN KMSN 082035Z 36005KT 8SM CLR 08/M03 A2987 920 47 300 350/05 RMK AO2
14837KMSN MSN20071108144009211/08/07 14:40:31  5-MIN KMSN 082040Z 33006KT 8SM CLR 08/M03 A2987 910 47 300 330/06 RMK AO2
14837KMSN MSN20071108144509211/08/07 14:45:31  5-MIN KMSN 082045Z 32006KT 8SM CLR 08/M03 A2987 910 47 300 320/06 RMK AO2
14837KMSN MSN20071108145011511/08/07 14:50:31  5-MIN KMSN 082050Z 31004KT 8SM CLR 08/M03 A2987 910 45 400 310/04 RMK AO2 SLP120 T00831028 58006
14837KMSN MSN20071108145509511/08/07 14:55:31  5-MIN KMSN 082055Z 30006KT 8SM FEW120 08/M03 A2987 910 47 300 300/06 RMK AO2
14837KMSN MSN20071108150009511/08/07 15:00:31  5-MIN KMSN 082100Z 31005KT 8SM FEW120 08/M03 A2988 910 45 400 310/05 RMK AO2
14837KMSN MSN20071108150509511/08/07 15:05:31  5-MIN KMSN 082105Z 31005KT 8SM FEW120 08/M03 A2988 910 45 400 310/05 RMK AO2
14837KMSN MSN20071108151009511/08/07 15:10:31  5-MIN KMSN 082110Z 32004KT 8SM FEW120 08/M03 A2988 900 45 400 320/04 RMK AO2
14837KMSN MSN20071108151509511/08/07 15:15:31  5-MIN KMSN 082115Z 34005KT 8SM FEW120 08/M03 A2988 900 47 300 340/05 RMK AO2
14837KMSN MSN20071108152009511/08/07 15:20:31  5-MIN KMSN 082120Z 32003KT 8SM FEW120 07/M03 A2988 900 49 200 320/03 RMK AO2
14837KMSN MSN20071108152509511/08/07 15:25:31  5-MIN KMSN 082125Z 31005KT 7SM FEW120 07/M03 A2988 900 49 200 310/05 RMK AO2
14837KMSN MSN20071108153009511/08/07 15:30:31  5-MIN KMSN 082130Z 31004KT 7SM FEW120 07/M03 A2989 900 49 200 310/04 RMK AO2
14837KMSN MSN20071108153509511/08/07 15:35:31  5-MIN KMSN 082135Z 31004KT 7SM FEW120 07/M03 A2989 900 49 200 310/04 RMK AO2
14837KMSN MSN20071108154009511/08/07 15:40:31  5-MIN KMSN 082140Z 33004KT 7SM FEW120 07/M03 A2989 890 49 200 330/04 RMK AO2
14837KMSN MSN20071108154509511/08/07 15:45:31  5-MIN KMSN 082145Z 32004KT 7SM FEW120 07/M03 A2989 890 49 200 320/04 RMK AO2
14837KMSN MSN20071108155011211/08/07 15:50:31  5-MIN KMSN 082150Z 32004KT 7SM FEW120 07/M03 A2989 890 49 200 320/04 RMK AO2 SLP127 T00721028
14837KMSN MSN20071108155509211/08/07 15:55:31  5-MIN KMSN 082155Z 32004KT 7SM CLR 07/M03 A2989 890 49 200 320/04 RMK AO2
14837KMSN MSN20071108160009211/08/07 16:00:31  5-MIN KMSN 082200Z 33004KT 7SM CLR 07/M03 A2989 890 49 200 330/04 RMK AO2
14837KMSN MSN20071108160509211/08/07 16:05:31  5-MIN KMSN 082205Z 33003KT 7SM CLR 07/M03 A2989 900 51 100 330/03 RMK AO2
14837KMSN MSN20071108161009211/08/07 16:10:31  5-MIN KMSN 082210Z 32004KT 7SM CLR 07/M03 A2989 890 51 100 320/04 RMK AO2
14837KMSN MSN20071108161509211/08/07 16:15:31  5-MIN KMSN 082215Z 32003KT 7SM CLR 07/M03 A2989 890 51 100 320/03 RMK AO2
14837KMSN MSN20071108162009211/08/07 16:20:31  5-MIN KMSN 082220Z 32004KT 7SM CLR 07/M03 A2989 890 51 100 320/04 RMK AO2
14837KMSN MSN20071108162509211/08/07 16:25:31  5-MIN KMSN 082225Z 32003KT 7SM CLR 07/M03 A2989 890 51 100 320/03 RMK AO2
14837KMSN MSN20071108163009211/08/07 16:30:31  5-MIN KMSN 082230Z 32003KT 7SM CLR 06/M03 A2990 890 53 100 320/03 RMK AO2
14837KMSN MSN20071108163509211/08/07 16:35:31  5-MIN KMSN 082235Z 32003KT 7SM CLR 06/M03 A2990 890 53 100 320/03 RMK AO2
14837KMSN MSN20071108164009211/08/07 16:40:31  5-MIN KMSN 082240Z 32003KT 7SM CLR 06/M03 A2990 880 53 100 320/03 RMK AO2
14837KMSN MSN20071108164509211/08/07 16:45:31  5-MIN KMSN 082245Z 31003KT 7SM CLR 06/M03 A2990 880 53 100 310/03 RMK AO2
14837KMSN MSN20071108165010911/08/07 16:50:31  5-MIN KMSN 082250Z 00000KT 8SM CLR 06/M03 A2990 880 53 100 000/00 RMK AO2 SLP132 T00611028
14837KMSN MSN20071108165509211/08/07 16:55:31  5-MIN KMSN 082255Z 00000KT 8SM CLR 06/M03 A2990 880 53 100 000/00 RMK AO2
14837KMSN MSN20071108170009211/08/07 17:00:31  5-MIN KMSN 082300Z 00000KT 8SM CLR 06/M03 A2990 880 53 100 000/00 RMK AO2
14837KMSN MSN20071108170509211/08/07 17:05:31  5-MIN KMSN 082305Z 31003KT 8SM CLR 06/M03 A2991 880 53 100 300/03 RMK AO2
14837KMSN MSN20071108171009011/08/07 17:10:31  5-MIN KMSN 082310Z 30003KT 8SM CLR 06/M02 A2991 870 57 0 300/03 RMK AO2
14837KMSN MSN20071108171509011/08/07 17:15:31  5-MIN KMSN 082315Z 31003KT 8SM CLR 06/M02 A2992 870 57 0 300/03 RMK AO2
14837KMSN MSN20071108172009011/08/07 17:20:31  5-MIN KMSN 082320Z 31003KT 8SM CLR 06/M02 A2992 870 57 0 310/03 RMK AO2
14837KMSN MSN20071108172509011/08/07 17:25:31  5-MIN KMSN 082325Z 31003KT 8SM CLR 06/M02 A2992 870 57 0 310/03 RMK AO2
14837KMSN MSN20071108173009011/08/07 17:30:31  5-MIN KMSN 082330Z 31004KT 8SM CLR 06/M02 A2992 870 57 0 310/04 RMK AO2
14837KMSN MSN20071108173509011/08/07 17:35:31  5-MIN KMSN 082335Z 31004KT 8SM CLR 06/M02 A2992 860 57 0 310/04 RMK AO2
14837KMSN MSN20071108185509311/08/07 18:55:31  5-MIN KMSN 090055Z 32003KT 8SM CLR 03/M03 A2993 860 64 -300 320/03 RMK AO2
14837KMSN MSN20071108190009311/08/07 19:00:31  5-MIN KMSN 090100Z 31003KT 8SM CLR 03/M03 A2993 860 67 -300 310/03 RMK AO2
14837KMSN MSN20071108190509311/08/07 19:05:31  5-MIN KMSN 090105Z 31003KT 8SM CLR 03/M03 A2993 860 67 -300 310/03 RMK AO2
14837KMSN MSN20071108191009311/08/07 19:10:31  5-MIN KMSN 090110Z 32003KT 8SM CLR 03/M03 A2993 860 64 -300 320/03 RMK AO2
14837KMSN MSN20071108191509311/08/07 19:15:31  5-MIN KMSN 090115Z 32004KT 8SM CLR 03/M03 A2993 860 64 -300 310/04 RMK AO2
14837KMSN MSN20071108192009311/08/07 19:20:31  5-MIN KMSN 090120Z 32004KT 8SM CLR 03/M03 A2993 850 64 -300 320/04 RMK AO2
14837KMSN MSN20071108192509311/08/07 19:25:31  5-MIN KMSN 090125Z 32004KT 8SM CLR 03/M03 A2993 850 64 -300 320/04 RMK AO2
14837KMSN MSN20071108193009311/08/07 19:30:31  5-MIN KMSN 090130Z 33004KT 8SM CLR 03/M03 A2993 850 64 -300 330/04 RMK AO2
14837KMSN MSN20071108193509311/08/07 19:35:31  5-MIN KMSN 090135Z 32005KT 8SM CLR 04/M03 A2994 850 62 -200 320/05 RMK AO2
14837KMSN MSN20071108194009311/08/07 19:40:31  5-MIN KMSN 090140Z 32005KT 8SM CLR 03/M03 A2994 850 64 -300 320/05 RMK AO2
14837KMSN MSN20071108194509311/08/07 19:45:31  5-MIN KMSN 090145Z 32005KT 8SM CLR 03/M03 A2994 850 64 -300 320/05 RMK AO2
14837KMSN MSN20071108195011011/08/07 19:50:31  5-MIN KMSN 090150Z 32005KT 8SM CLR 04/M03 A2994 850 62 -200 320/05 RMK AO2 SLP145 T00391028
14837KMSN MSN20071108195509311/08/07 19:55:31  5-MIN KMSN 090155Z 33005KT 8SM CLR 04/M03 A2994 850 62 -200 330/05 RMK AO2
14837KMSN MSN20071108200009311/08/07 20:00:31  5-MIN KMSN 090200Z 34006KT 8SM CLR 04/M03 A2994 850 62 -200 330/06 RMK AO2
14837KMSN MSN20071108200509311/08/07 20:05:31  5-MIN KMSN 090205Z 34005KT 8SM CLR 04/M03 A2994 840 62 -200 330/05 RMK AO2
14837KMSN MSN20071108201009311/08/07 20:10:31  5-MIN KMSN 090210Z 33005KT 8SM CLR 04/M03 A2994 850 62 -200 330/05 RMK AO2
14837KMSN MSN20071108201509311/08/07 20:15:31  5-MIN KMSN 090215Z 32005KT 8SM CLR 04/M02 A2994 840 64 -200 320/05 RMK AO2
14837KMSN MSN20071108202009311/08/07 20:20:31  5-MIN KMSN 090220Z 32006KT 8SM CLR 04/M02 A2994 840 64 -200 320/06 RMK AO2
14837KMSN MSN20071108202509311/08/07 20:25:31  5-MIN KMSN 090225Z 32005KT 8SM CLR 03/M03 A2995 840 64 -300 320/05 RMK AO2
14837KMSN MSN20071108203009611/08/07 20:30:31  5-MIN KMSN 090230Z 32007KT 8SM SCT120 04/M03 A2995 840 62 -200 320/07 RMK AO2
14837KMSN MSN20071108203509611/08/07 20:35:31  5-MIN KMSN 090235Z 33005KT 8SM SCT120 04/M03 A2995 840 62 -200 330/05 RMK AO2
14837KMSN MSN20071108204009611/08/07 20:40:31  5-MIN KMSN 090240Z 34005KT 8SM FEW120 04/M03 A2995 840 62 -200 340/05 RMK AO2
14837KMSN MSN20071108204509611/08/07 20:45:31  5-MIN KMSN 090245Z 33005KT 8SM SCT120 04/M03 A2995 840 62 -200 330/05 RMK AO2
14837KMSN MSN20071108205011911/08/07 20:50:31  5-MIN KMSN 090250Z 33005KT 8SM BKN120 04/M02 A2995 840 64 -200 330/05 RMK AO2 SLP149 T00391022 51017
14837KMSN MSN20071108205509611/08/07 20:55:31  5-MIN KMSN 090255Z 33004KT 8SM BKN120 03/M02 A2995 840 67 -300 330/04 RMK AO2
14837KMSN MSN20071108210009611/08/07 21:00:31  5-MIN KMSN 090300Z 34005KT 8SM BKN120 03/M02 A2995 840 67 -300 340/05 RMK AO2
14837KMSN MSN20071108210509611/08/07 21:05:31  5-MIN KMSN 090305Z 35005KT 7SM BKN120 03/M02 A2995 840 67 -300 350/05 RMK AO2
14837KMSN MSN20071108211009611/08/07 21:10:31  5-MIN KMSN 090310Z 35005KT 7SM OVC120 03/M02 A2995 840 69 -400 350/05 RMK AO2
14837KMSN MSN20071108211509611/08/07 21:15:31  5-MIN KMSN 090315Z 34005KT 7SM OVC120 03/M02 A2995 830 69 -400 340/05 RMK AO2
14837KMSN MSN20071108212009611/08/07 21:20:31  5-MIN KMSN 090320Z 35005KT 7SM OVC120 03/M02 A2996 830 67 -300 340/05 RMK AO2
14837KMSN MSN20071108212509611/08/07 21:25:31  5-MIN KMSN 090325Z 34004KT 7SM OVC120 03/M02 A2995 830 69 -400 340/04 RMK AO2
14837KMSN MSN20071108213009611/08/07 21:30:31  5-MIN KMSN 090330Z 34005KT 7SM OVC120 03/M02 A2995 830 69 -400 340/05 RMK AO2
14837KMSN MSN20071108213509611/08/07 21:35:31  5-MIN KMSN 090335Z 33005KT 7SM OVC120 03/M03 A2995 830 67 -400 330/05 RMK AO2
14837KMSN MSN20071108214009611/08/07 21:40:31  5-MIN KMSN 090340Z 35004KT 7SM OVC120 03/M03 A2995 830 67 -400 350/04 RMK AO2
14837KMSN MSN20071108214509611/08/07 21:45:31  5-MIN KMSN 090345Z 34006KT 7SM OVC120 03/M02 A2996 830 69 -400 340/06 RMK AO2
14837KMSN MSN20071108215011311/08/07 21:50:31  5-MIN KMSN 090350Z 35006KT 8SM OVC120 03/M02 A2995 830 69 -400 350/06 RMK AO2 SLP150 T00281022
14837KMSN MSN20071108215509611/08/07 21:55:31  5-MIN KMSN 090355Z 34005KT 7SM OVC120 03/M02 A2996 830 69 -400 340/05 RMK AO2
14837KMSN MSN20071108220009611/08/07 22:00:31  5-MIN KMSN 090400Z 33005KT 7SM OVC120 02/M02 A2996 830 72 -400 330/05 RMK AO2
14837KMSN MSN20071108220509611/08/07 22:05:31  5-MIN KMSN 090405Z 34005KT 7SM BKN120 03/M02 A2996 830 69 -400 330/05 RMK AO2
14837KMSN MSN20071108221009611/08/07 22:10:31  5-MIN KMSN 090410Z 34005KT 7SM BKN120 03/M02 A2996 830 69 -400 340/05 RMK AO2
14837KMSN MSN20071108221509611/08/07 22:15:31  5-MIN KMSN 090415Z 33005KT 7SM BKN120 02/M02 A2996 830 72 -400 330/05 RMK AO2
14837KMSN MSN20071108222009611/08/07 22:20:31  5-MIN KMSN 090420Z 33004KT 7SM SCT120 02/M02 A2996 830 72 -400 330/04 RMK AO2
14837KMSN MSN20071108222509611/08/07 22:25:31  5-MIN KMSN 090425Z 33004KT 7SM SCT120 02/M03 A2996 830 69 -400 330/04 RMK AO2
14837KMSN MSN20071108223009611/08/07 22:30:31  5-MIN KMSN 090430Z 33005KT 7SM FEW120 02/M03 A2996 830 69 -400 330/05 RMK AO2
14837KMSN MSN20071108223509611/08/07 22:35:31  5-MIN KMSN 090435Z 33004KT 7SM FEW120 02/M03 A2996 830 69 -400 330/04 RMK AO2
14837KMSN MSN20071108224009611/08/07 22:40:31  5-MIN KMSN 090440Z 33004KT 7SM FEW120 02/M03 A2996 830 72 -500 330/04 RMK AO2
14837KMSN MSN20071108224509311/08/07 22:45:31  5-MIN KMSN 090445Z 34004KT 7SM CLR 02/M03 A2996 830 72 -500 340/04 RMK AO2
14837KMSN MSN20071108225011011/08/07 22:50:31  5-MIN KMSN 090450Z 34004KT 7SM CLR 02/M03 A2996 830 72 -500 340/04 RMK AO2 SLP153 T00171028
14837KMSN MSN20071108225509611/08/07 22:55:31  5-MIN KMSN 090455Z 34004KT 7SM FEW120 02/M03 A2996 830 72 -500 340/04 RMK AO2
14837KMSN MSN20071108230009611/08/07 23:00:31  5-MIN KMSN 090500Z 34004KT 7SM FEW120 02/M03 A2996 830 72 -500 340/04 RMK AO2
14837KMSN MSN20071108230509311/08/07 23:05:31  5-MIN KMSN 090505Z 33004KT 7SM CLR 01/M03 A2996 830 75 -600 330/04 RMK AO2
14837KMSN MSN20071108231009311/08/07 23:10:31  5-MIN KMSN 090510Z 32004KT 7SM CLR 01/M03 A2996 820 78 -600 320/04 RMK AO2
14837KMSN MSN20071108231509611/08/07 23:15:31  5-MIN KMSN 090515Z 33003KT 6SM HZ CLR 01/M03 A2996 820 75 -600 330/03 RMK AO2
14837KMSN MSN20071108232009611/08/07 23:20:31  5-MIN KMSN 090520Z 33003KT 6SM HZ CLR 01/M03 A2996 820 78 -600 320/03 RMK AO2
14837KMSN MSN20071108232509611/08/07 23:25:31  5-MIN KMSN 090525Z 32004KT 6SM HZ CLR 01/M03 A2997 820 78 -600 320/04 RMK AO2
14837KMSN MSN20071108233009611/08/07 23:30:31  5-MIN KMSN 090530Z 31004KT 6SM HZ CLR 01/M03 A2997 820 78 -700 300/04 RMK AO2
14837KMSN MSN20071108233509611/08/07 23:35:31  5-MIN KMSN 090535Z 31004KT 6SM HZ CLR 01/M03 A2997 820 78 -700 310/04 RMK AO2
14837KMSN MSN20071108234009611/08/07 23:40:31  5-MIN KMSN 090540Z 32004KT 6SM HZ CLR 01/M03 A2997 820 78 -700 310/04 RMK AO2
14837KMSN MSN20071108234509611/08/07 23:45:31  5-MIN KMSN 090545Z 31005KT 6SM HZ CLR 01/M03 A2997 820 78 -700 310/05 RMK AO2
14837KMSN MSN20071108235014111/08/07 23:50:31  5-MIN KMSN 090550Z 30004KT 6SM HZ CLR 01/M03 A2997 820 78 -700 300/04 RMK AO2 SLP155 T00061028 10050 20006 400830006 53010
14837KMSN MSN20071108235509611/08/07 23:55:31  5-MIN KMSN 090555Z 31004KT 6SM HZ CLR 01/M03 A2997 820 78 -700 310/04 RMK AO2
14837KMSN MSN20071109000009611/09/07 00:00:32  5-MIN KMSN 090600Z 31004KT 6SM HZ CLR 01/M03 A2997 820 78 -700 310/04 RMK AO2
14837KMSN MSN20071109000509611/09/07 00:05:31  5-MIN KMSN 090605Z 31004KT 6SM HZ CLR 01/M03 A2997 820 78 -700 310/04 RMK AO2
14837KMSN MSN20071109001009611/09/07 00:10:31  5-MIN KMSN 090610Z 31005KT 6SM HZ CLR 01/M03 A2997 820 78 -700 310/05 RMK AO2
14837KMSN MSN20071109001509611/09/07 00:15:31  5-MIN KMSN 090615Z 32005KT 6SM HZ CLR 01/M03 A2997 820 78 -700 320/05 RMK AO2
14837KMSN MSN20071109002009611/09/07 00:20:31  5-MIN KMSN 090620Z 32005KT 6SM HZ CLR 01/M03 A2997 820 78 -700 320/05 RMK AO2
14837KMSN MSN20071109002509611/09/07 00:25:31  5-MIN KMSN 090625Z 32003KT 6SM HZ CLR 00/M03 A2997 820 81 -700 320/03 RMK AO2
14837KMSN MSN20071109003009711/09/07 00:30:31  5-MIN KMSN 090630Z 00000KT 6SM HZ CLR M01/M03 A2997 820 81 -800 000/00 RMK AO2
14837KMSN MSN20071109003509711/09/07 00:35:31  5-MIN KMSN 090635Z 00000KT 6SM BR CLR M02/M04 A2997 820 85 -900 000/00 RMK AO2
14837KMSN MSN20071109004009711/09/07 00:40:31  5-MIN KMSN 090640Z 00000KT 6SM HZ CLR M01/M03 A2997 820 81 -800 000/00 RMK AO2
14837KMSN MSN20071109004509711/09/07 00:45:31  5-MIN KMSN 090645Z 32003KT 6SM BR CLR M01/M03 A2997 820 85 -900 320/03 RMK AO2
14837KMSN MSN20071109005011111/09/07 00:50:31  5-MIN KMSN 090650Z 32003KT 7SM CLR M01/M03 A2997 820 85 -900 310/03 RMK AO2 SLP157 T10111033
14837KMSN MSN20071109005509711/09/07 00:55:31  5-MIN KMSN 090655Z 32003KT 6SM BR CLR M01/M03 A2997 820 85 -900 310/03 RMK AO2
14837KMSN MSN20071109010009711/09/07 01:00:31  5-MIN KMSN 090700Z 00000KT 6SM BR CLR M01/M03 A2997 820 85 -900 000/00 RMK AO2
14837KMSN MSN20071109010509711/09/07 01:05:31  5-MIN KMSN 090705Z 00000KT 6SM BR CLR M01/M03 A2997 820 85 -900 000/00 RMK AO2
14837KMSN MSN20071109011009711/09/07 01:10:31  5-MIN KMSN 090710Z 00000KT 6SM BR CLR M01/M03 A2997 810 85 -900 000/00 RMK AO2
14837KMSN MSN20071109011509711/09/07 01:15:31  5-MIN KMSN 090715Z 00000KT 6SM BR CLR M01/M03 A2998 810 85 -900 000/00 RMK AO2
14837KMSN MSN20071109012009711/09/07 01:20:31  5-MIN KMSN 090720Z 00000KT 6SM HZ CLR M01/M04 A2998 810 81 -900 000/00 RMK AO2
14837KMSN MSN20071109012509711/09/07 01:25:31  5-MIN KMSN 090725Z 00000KT 5SM HZ CLR M01/M03 A2998 810 81 -800 000/00 RMK AO2
14837KMSN MSN20071109013009711/09/07 01:30:31  5-MIN KMSN 090730Z 00000KT 6SM HZ CLR M01/M03 A2998 810 81 -800 000/00 RMK AO2
14837KMSN MSN20071109013510011/09/07 01:35:31  5-MIN KMSN 090735Z 00000KT 6SM HZ SCT046 M01/M03 A2998 810 81 -800 000/00 RMK AO2
14837KMSN MSN20071109014010011/09/07 01:40:31  5-MIN KMSN 090740Z 00000KT 6SM BR BKN046 M01/M03 A2998 810 85 -900 000/00 RMK AO2
14837KMSN MSN20071109014510011/09/07 01:45:31  5-MIN KMSN 090745Z 00000KT 6SM BR BKN046 M01/M03 A2999 800 85 -900 000/00 RMK AO2
14837KMSN MSN20071109015011411/09/07 01:50:31  5-MIN KMSN 090750Z 00000KT 7SM BKN046 M01/M03 A2999 800 81 -800 000/00 RMK AO2 SLP162 T10061033
14837KMSN MSN20071109015510011/09/07 01:55:31  5-MIN KMSN 090755Z 00000KT 6SM BR OVC046 M01/M03 A2998 800 85 -900 000/00 RMK AO2
14837KMSN MSN20071109020010011/09/07 02:00:31  5-MIN KMSN 090800Z 00000KT 6SM BR OVC046 M01/M03 A2998 810 85 -900 000/00 RMK AO2
14837KMSN MSN20071109020510011/09/07 02:05:31  5-MIN KMSN 090805Z 00000KT 6SM HZ OVC046 M01/M03 A2998 810 81 -800 000/00 RMK AO2
14837KMSN MSN20071109021009911/09/07 02:10:31  5-MIN KMSN 090810Z 00000KT 6SM HZ OVC046 00/M03 A2998 810 78 -700 000/00 RMK AO2
14837KMSN MSN20071109021510011/09/07 02:15:31  5-MIN KMSN 090815Z 00000KT 6SM HZ OVC046 M01/M03 A2998 810 81 -800 000/00 RMK AO2
14837KMSN MSN20071109022010011/09/07 02:20:31  5-MIN KMSN 090820Z 00000KT 6SM HZ BKN046 M01/M03 A2998 810 81 -800 000/00 RMK AO2
14837KMSN MSN20071109022510011/09/07 02:25:31  5-MIN KMSN 090825Z 00000KT 6SM HZ BKN046 M01/M03 A2998 810 81 -800 000/00 RMK AO2
14837KMSN MSN20071109023010011/09/07 02:30:31  5-MIN KMSN 090830Z 00000KT 6SM BR OVC046 M01/M03 A2998 810 85 -900 000/00 RMK AO2
14837KMSN MSN20071109023510011/09/07 02:35:31  5-MIN KMSN 090835Z 00000KT 6SM BR OVC046 M01/M03 A2998 810 85 -900 000/00 RMK AO2
14837KMSN MSN20071109024010011/09/07 02:40:31  5-MIN KMSN 090840Z 00000KT 6SM HZ OVC046 M01/M03 A2998 810 81 -800 000/00 RMK AO2
14837KMSN MSN20071109024510011/09/07 02:45:31  5-MIN KMSN 090845Z 00000KT 6SM BR OVC046 M01/M03 A2998 810 85 -900 000/00 RMK AO2
14837KMSN MSN20071109025012011/09/07 02:50:31  5-MIN KMSN 090850Z 00000KT 7SM OVC046 M01/M03 A2998 810 85 -900 000/00 RMK AO2 SLP160 T10111033 52006
14837KMSN MSN20071109025510011/09/07 02:55:31  5-MIN KMSN 090855Z 00000KT 5SM HZ OVC046 M01/M03 A2998 810 81 -800 000/00 RMK AO2
14837KMSN MSN20071109030010011/09/07 03:00:31  5-MIN KMSN 090900Z 00000KT 6SM BR OVC046 M01/M03 A2998 810 85 -800 000/00 RMK AO2
14837KMSN MSN20071109030510011/09/07 03:05:31  5-MIN KMSN 090905Z 00000KT 6SM BR OVC046 M01/M03 A2998 810 85 -800 000/00 RMK AO2
14837KMSN MSN20071109031010011/09/07 03:10:31  5-MIN KMSN 090910Z 00000KT 6SM BR OVC046 M01/M03 A2998 810 85 -800 000/00 RMK AO2
14837KMSN MSN20071109031509911/09/07 03:15:31  5-MIN KMSN 090915Z 00000KT 6SM HZ OVC046 00/M03 A2998 810 81 -700 000/00 RMK AO2
14837KMSN MSN20071109032009911/09/07 03:20:31  5-MIN KMSN 090920Z 00000KT 6SM HZ OVC046 00/M03 A2998 810 81 -700 000/00 RMK AO2
14837KMSN MSN20071109032509911/09/07 03:25:31  5-MIN KMSN 090925Z 27003KT 6SM HZ OVC046 00/M03 A2998 810 81 -700 260/03 RMK AO2
14837KMSN MSN20071109033009911/09/07 03:30:31  5-MIN KMSN 090930Z 29003KT 6SM HZ OVC046 00/M03 A2998 810 81 -700 280/03 RMK AO2
14837KMSN MSN20071109033509911/09/07 03:35:31  5-MIN KMSN 090935Z 00000KT 6SM HZ OVC046 00/M03 A2998 810 78 -700 000/00 RMK AO2
14837KMSN MSN20071109034009911/09/07 03:40:31  5-MIN KMSN 090940Z 00000KT 6SM HZ OVC046 00/M03 A2998 810 81 -700 000/00 RMK AO2
14837KMSN MSN20071109034509911/09/07 03:45:31  5-MIN KMSN 090945Z 28003KT 6SM HZ OVC046 00/M03 A2998 800 81 -700 280/03 RMK AO2
14837KMSN MSN20071109035011311/09/07 03:50:31  5-MIN KMSN 090950Z 00000KT 6SM OVC046 00/M03 A2998 810 81 -700 000/00 RMK AO2 SLP161 T00001028
14837KMSN MSN20071109035509911/09/07 03:55:31  5-MIN KMSN 090955Z 00000KT 6SM HZ OVC046 00/M03 A2999 800 78 -700 000/00 RMK AO2
14837KMSN MSN20071109040009911/09/07 04:00:31  5-MIN KMSN 091000Z 28003KT 6SM HZ OVC046 00/M03 A2998 810 81 -700 270/03 RMK AO2
14837KMSN MSN20071109040509911/09/07 04:05:31  5-MIN KMSN 091005Z 28003KT 6SM HZ OVC046 00/M03 A2998 810 81 -700 280/03 RMK AO2
14837KMSN MSN20071109041009911/09/07 04:10:31  5-MIN KMSN 091010Z 00000KT 6SM HZ OVC046 00/M03 A2999 800 81 -700 000/00 RMK AO2
14837KMSN MSN20071109041509911/09/07 04:15:31  5-MIN KMSN 091015Z 00000KT 6SM HZ OVC046 00/M03 A2999 800 81 -700 000/00 RMK AO2
14837KMSN MSN20071109042009911/09/07 04:20:31  5-MIN KMSN 091020Z 00000KT 6SM HZ OVC046 00/M03 A2999 800 81 -700 000/00 RMK AO2
14837KMSN MSN20071109042509911/09/07 04:25:31  5-MIN KMSN 091025Z 00000KT 6SM HZ OVC046 01/M03 A2999 800 78 -700 000/00 RMK AO2
14837KMSN MSN20071109043009911/09/07 04:30:31  5-MIN KMSN 091030Z 00000KT 6SM HZ OVC046 00/M03 A2999 800 81 -700 000/00 RMK AO2
14837KMSN MSN20071109043509911/09/07 04:35:31  5-MIN KMSN 091035Z 00000KT 6SM HZ OVC046 00/M03 A3000 800 81 -800 000/00 RMK AO2
14837KMSN MSN20071109044009911/09/07 04:40:31  5-MIN KMSN 091040Z 00000KT 6SM HZ OVC046 00/M03 A3000 790 81 -800 000/00 RMK AO2
14837KMSN MSN20071109044509911/09/07 04:45:31  5-MIN KMSN 091045Z 00000KT 6SM HZ OVC046 00/M03 A3000 790 81 -800 000/00 RMK AO2
14837KMSN MSN20071109045011611/09/07 04:50:31  5-MIN KMSN 091050Z 00000KT 6SM HZ OVC048 00/M03 A3000 790 81 -800 000/00 RMK AO2 SLP166 T00001028
14837KMSN MSN20071109045509911/09/07 04:55:31  5-MIN KMSN 091055Z 00000KT 6SM HZ OVC048 00/M03 A3000 790 81 -800 000/00 RMK AO2
14837KMSN MSN20071109050009911/09/07 05:00:31  5-MIN KMSN 091100Z 00000KT 6SM HZ OVC048 00/M03 A3000 790 81 -800 000/00 RMK AO2
14837KMSN MSN20071109050509911/09/07 05:05:31  5-MIN KMSN 091105Z 00000KT 6SM HZ OVC048 00/M03 A3000 790 81 -800 000/00 RMK AO2
14837KMSN MSN20071109051009911/09/07 05:10:31  5-MIN KMSN 091110Z 00000KT 6SM HZ BKN048 00/M03 A2999 800 81 -800 000/00 RMK AO2
14837KMSN MSN20071109051509911/09/07 05:15:31  5-MIN KMSN 091115Z 00000KT 6SM HZ BKN048 00/M03 A3000 790 81 -800 000/00 RMK AO2
14837KMSN MSN20071109052010011/09/07 05:20:31  5-MIN KMSN 091120Z 27003KT 5SM BR BKN048 M01/M03 A3000 790 85 -800 270/03 RMK AO2
14837KMSN MSN20071109052510011/09/07 05:25:31  5-MIN KMSN 091125Z 00000KT 5SM BR BKN048 M01/M03 A3000 790 85 -800 000/00 RMK AO2
14837KMSN MSN20071109053010011/09/07 05:30:31  5-MIN KMSN 091130Z 00000KT 5SM BR BKN048 M01/M03 A3000 790 85 -800 000/00 RMK AO2
14837KMSN MSN20071109053510011/09/07 05:35:31  5-MIN KMSN 091135Z 00000KT 5SM BR BKN048 M01/M03 A3000 790 85 -800 000/00 RMK AO2
14837KMSN MSN20071109054010011/09/07 05:40:31  5-MIN KMSN 091140Z 00000KT 5SM BR BKN048 M01/M03 A3000 790 85 -800 000/00 RMK AO2
14837KMSN MSN20071109054510011/09/07 05:45:31  5-MIN KMSN 091145Z 00000KT 5SM BR BKN048 M01/M03 A3000 790 85 -900 000/00 RMK AO2
14837KMSN MSN20071109055013511/09/07 05:50:31  5-MIN KMSN 091150Z 00000KT 6SM BR SCT048 M01/M03 A3000 790 85 -900 000/00 RMK AO2 SLP167 T10111033 10006 21017 50004
14837KMSN MSN20071109055510011/09/07 05:55:31  5-MIN KMSN 091155Z 00000KT 5SM BR BKN048 M01/M03 A3000 790 85 -900 000/00 RMK AO2
14837KMSN MSN20071109060010011/09/07 06:00:31  5-MIN KMSN 091200Z 00000KT 5SM BR BKN048 M01/M03 A3000 790 88 -900 000/00 RMK AO2
14837KMSN MSN20071109060510011/09/07 06:05:31  5-MIN KMSN 091205Z 00000KT 5SM BR OVC048 M01/M03 A3000 790 85 -800 000/00 RMK AO2
14837KMSN MSN20071109061010011/09/07 06:10:31  5-MIN KMSN 091210Z 00000KT 5SM BR OVC048 M01/M03 A3000 790 85 -800 000/00 RMK AO2
14837KMSN MSN20071109061510011/09/07 06:15:31  5-MIN KMSN 091215Z 00000KT 5SM BR OVC048 M01/M03 A3001 790 85 -800 000/00 RMK AO2
14837KMSN MSN20071109062010011/09/07 06:20:31  5-MIN KMSN 091220Z 29003KT 5SM BR OVC048 M01/M03 A3001 780 85 -800 290/03 RMK AO2
14837KMSN MSN20071109062510011/09/07 06:25:31  5-MIN KMSN 091225Z 00000KT 5SM BR OVC048 M01/M03 A3001 780 85 -800 000/00 RMK AO2
14837KMSN MSN20071109063010011/09/07 06:30:31  5-MIN KMSN 091230Z 29003KT 5SM BR OVC048 M01/M03 A3001 780 85 -800 290/03 RMK AO2
14837KMSN MSN20071109063510011/09/07 06:35:31  5-MIN KMSN 091235Z 29004KT 5SM BR OVC048 M01/M03 A3001 780 85 -800 290/04 RMK AO2
14837KMSN MSN20071109064010011/09/07 06:40:31  5-MIN KMSN 091240Z 30003KT 5SM HZ OVC048 M01/M03 A3001 780 81 -800 300/03 RMK AO2
14837KMSN MSN20071109064510011/09/07 06:45:31  5-MIN KMSN 091245Z 30003KT 5SM HZ OVC048 M01/M03 A3002 780 81 -800 300/03 RMK AO2
14837KMSN MSN20071109065011711/09/07 06:50:31  5-MIN KMSN 091250Z 31004KT 5SM HZ OVC048 M01/M03 A3002 780 81 -800 310/04 RMK AO2 SLP173 T10061033
14837KMSN MSN20071109065510011/09/07 06:55:31  5-MIN KMSN 091255Z 30004KT 4SM BR OVC048 M01/M03 A3001 780 85 -900 300/04 RMK AO2
14837KMSN MSN20071109070010011/09/07 07:00:31  5-MIN KMSN 091300Z 30004KT 4SM BR OVC048 M01/M03 A3002 770 85 -900 300/04 RMK AO2
14837KMSN MSN20071109070510011/09/07 07:05:31  5-MIN KMSN 091305Z 31003KT 4SM BR OVC048 M01/M03 A3002 770 85 -900 300/03 RMK AO2
14837KMSN MSN20071109071010011/09/07 07:10:31  5-MIN KMSN 091310Z 00000KT 4SM BR OVC048 M01/M03 A3002 770 85 -900 000/00 RMK AO2
14837KMSN MSN20071109071510011/09/07 07:15:31  5-MIN KMSN 091315Z 30003KT 4SM BR BKN048 M01/M03 A3002 770 85 -900 300/03 RMK AO2
14837KMSN MSN20071109072010011/09/07 07:20:31  5-MIN KMSN 091320Z 30003KT 4SM BR BKN048 M01/M03 A3003 770 85 -900 290/03 RMK AO2
14837KMSN MSN20071109072510011/09/07 07:25:31  5-MIN KMSN 091325Z 00000KT 4SM BR BKN048 M01/M03 A3003 760 85 -900 000/00 RMK AO2
14837KMSN MSN20071109073010011/09/07 07:30:31  5-MIN KMSN 091330Z 00000KT 4SM BR BKN048 M01/M03 A3003 760 85 -900 000/00 RMK AO2
14837KMSN MSN20071109073510011/09/07 07:35:31  5-MIN KMSN 091335Z 00000KT 4SM BR OVC048 M01/M03 A3003 760 85 -900 000/00 RMK AO2
14837KMSN MSN20071109074010011/09/07 07:40:31  5-MIN KMSN 091340Z 00000KT 4SM BR OVC048 M01/M03 A3003 760 85 -900 000/00 RMK AO2
14837KMSN MSN20071109074510011/09/07 07:45:31  5-MIN KMSN 091345Z 00000KT 4SM BR OVC048 M01/M03 A3004 760 85 -900 000/00 RMK AO2
14837KMSN MSN20071109075011711/09/07 07:50:31  5-MIN KMSN 091350Z 00000KT 4SM BR BKN048 M01/M03 A3004 760 85 -900 000/00 RMK AO2 SLP180 T10061028
14837KMSN MSN20071109075510011/09/07 07:55:31  5-MIN KMSN 091355Z 00000KT 4SM BR BKN048 M01/M03 A3004 760 85 -900 000/00 RMK AO2
14837KMSN MSN20071109080009911/09/07 08:00:31  5-MIN KMSN 091400Z 00000KT 4SM HZ BKN048 00/M03 A3004 750 81 -800 000/00 RMK AO2
14837KMSN MSN20071109080509911/09/07 08:05:31  5-MIN KMSN 091405Z 00000KT 4SM BR BKN048 00/M02 A3004 750 85 -800 000/00 RMK AO2
14837KMSN MSN20071109081009911/09/07 08:10:31  5-MIN KMSN 091410Z 00000KT 4SM BR BKN048 00/M02 A3004 750 85 -800 000/00 RMK AO2
14837KMSN MSN20071109081509911/09/07 08:15:31  5-MIN KMSN 091415Z 33003KT 4SM BR BKN048 01/M02 A3004 750 85 -700 320/03 RMK AO2
14837KMSN MSN20071109082009911/09/07 08:20:31  5-MIN KMSN 091420Z 33004KT 4SM HZ OVC048 01/M02 A3004 750 82 -700 330/04 RMK AO2
14837KMSN MSN20071109082509911/09/07 08:25:31  5-MIN KMSN 091425Z 30004KT 4SM HZ OVC048 01/M02 A3004 750 82 -700 300/04 RMK AO2
14837KMSN MSN20071109083009911/09/07 08:30:31  5-MIN KMSN 091430Z 00000KT 4SM HZ BKN048 01/M02 A3004 750 82 -700 000/00 RMK AO2
14837KMSN MSN20071109083509911/09/07 08:35:31  5-MIN KMSN 091435Z 30003KT 4SM BR BKN048 01/M02 A3004 750 85 -700 300/03 RMK AO2
14837KMSN MSN20071109084009911/09/07 08:40:31  5-MIN KMSN 091440Z 30003KT 4SM HZ BKN048 01/M02 A3004 750 82 -700 300/03 RMK AO2
14837KMSN MSN20071109084509911/09/07 08:45:31  5-MIN KMSN 091445Z 00000KT 4SM HZ BKN048 01/M02 A3004 750 82 -700 000/00 RMK AO2
14837KMSN MSN20071109085012211/09/07 08:50:31  5-MIN KMSN 091450Z 32003KT 4SM HZ BKN048 02/M01 A3004 750 82 -600 320/03 RMK AO2 SLP181 T00171011 51006
14837KMSN MSN20071109085509611/09/07 08:55:31  5-MIN KMSN 091455Z 31003KT 4SM HZ CLR 02/M01 A3005 750 82 -600 310/03 RMK AO2
14837KMSN MSN20071109090009911/09/07 09:00:31  5-MIN KMSN 091500Z 30003KT 4SM HZ FEW048 02/M01 A3004 750 82 -600 300/03 RMK AO2
14837KMSN MSN20071109090509911/09/07 09:05:31  5-MIN KMSN 091505Z 31003KT 4SM HZ FEW048 02/M02 A3004 750 78 -600 310/03 RMK AO2
14837KMSN MSN20071109091009911/09/07 09:10:31  5-MIN KMSN 091510Z VRB03KT 4SM HZ FEW048 02/M01 A3004 750 78 -500 VRB/03 RMK AO2
14837KMSN MSN20071109091509911/09/07 09:15:31  5-MIN KMSN 091515Z 00000KT 4SM HZ FEW048 02/M01 A3004 750 78 -500 000/00 RMK AO2
14837KMSN MSN20071109092009911/09/07 09:20:31  5-MIN KMSN 091520Z 34003KT 4SM HZ FEW048 03/M01 A3004 750 79 -500 340/03 RMK AO2
14837KMSN MSN20071109092509911/09/07 09:25:31  5-MIN KMSN 091525Z 33005KT 4SM HZ FEW048 03/M01 A3004 750 76 -400 330/05 RMK AO2
14837KMSN MSN20071109093009911/09/07 09:30:31  5-MIN KMSN 091530Z 01005KT 4SM HZ FEW048 04/M01 A3004 760 73 -300 010/05 RMK AO2
14837KMSN MSN20071109093509911/09/07 09:35:31  5-MIN KMSN 091535Z 35006KT 4SM HZ FEW048 04/M01 A3004 750 73 -300 350/06 RMK AO2
14837KMSN MSN20071109094009911/09/07 09:40:31  5-MIN KMSN 091540Z 34007KT 4SM HZ FEW048 04/M01 A3005 750 73 -300 340/07 RMK AO2
14837KMSN MSN20071109094509911/09/07 09:45:31  5-MIN KMSN 091545Z 33006KT 5SM HZ FEW048 04/M01 A3005 750 67 -300 330/06 RMK AO2
14837KMSN MSN20071109095011611/09/07 09:50:31  5-MIN KMSN 091550Z 34006KT 5SM HZ FEW048 05/M01 A3004 750 67 -200 340/06 RMK AO2 SLP181 T00501006
14837KMSN MSN20071109095510611/09/07 09:55:31  5-MIN KMSN 091555Z VRB03KT 5SM HZ SCT023 BKN048 05/M01 A3004 750 67 -200 VRB/03 RMK AO2
14837KMSN MSN20071109100009911/09/07 10:00:31  5-MIN KMSN 091600Z 32008KT 5SM HZ BKN023 05/M01 A3004 750 67 -200 320/08 RMK AO2
14837KMSN MSN20071109100509911/09/07 10:05:31  5-MIN KMSN 091605Z 32007KT 4SM HZ BKN023 04/M01 A3004 750 67 -300 320/07 RMK AO2
14837KMSN MSN20071109101009911/09/07 10:10:31  5-MIN KMSN 091610Z 36007KT 5SM HZ SCT023 04/M01 A3004 750 70 -300 360/07 RMK AO2
14837KMSN MSN20071109101509911/09/07 10:15:31  5-MIN KMSN 091615Z 35008KT 5SM HZ SCT023 05/M01 A3005 750 67 -200 340/08 RMK AO2
14837KMSN MSN20071109102009911/09/07 10:20:31  5-MIN KMSN 091620Z 34007KT 5SM HZ SCT023 06/M01 A3005 750 65 -100 340/07 RMK AO2
14837KMSN MSN20071109102509911/09/07 10:25:31  5-MIN KMSN 091625Z 35006KT 5SM HZ SCT023 06/M01 A3005 750 62 -100 350/06 RMK AO2
14837KMSN MSN20071109103009911/09/07 10:30:31  5-MIN KMSN 091630Z 34009KT 5SM HZ FEW023 06/M02 A3005 750 59 -100 340/09 RMK AO2
14837KMSN MSN20071109103509911/09/07 10:35:31  5-MIN KMSN 091635Z 35007KT 5SM HZ FEW023 06/M02 A3004 750 57 -100 350/07 RMK AO2
14837KMSN MSN20071109104009911/09/07 10:40:31  5-MIN KMSN 091640Z 32006KT 5SM HZ FEW023 05/M03 A3004 750 57 -200 320/06 RMK AO2
14837KMSN MSN20071109104509911/09/07 10:45:31  5-MIN KMSN 091645Z VRB06KT 5SM HZ FEW023 06/M03 A3004 760 55 -100 VRB/06 RMK AO2
14837KMSN MSN20071109105011311/09/07 10:50:31  5-MIN KMSN 091650Z 33008KT 6SM HZ FEW025 06/M03 A3004 750 53 0 330/08 RMK AO2 SLP180 T00611028
14837KMSN MSN20071109105510011/09/07 10:55:31  5-MIN KMSN 091655Z 35008KT 7SM FEW035 SCT080 06/M03 A3004 760 51 0 340/08 RMK AO2
14837KMSN MSN20071109110010011/09/07 11:00:31  5-MIN KMSN 091700Z 34009KT 7SM FEW035 SCT080 06/M03 A3004 760 51 0 330/09 RMK AO2
14837KMSN MSN20071109110510311/09/07 11:05:31  5-MIN KMSN 091705Z 35008KT 7SM FEW035 SCT080 06/M03 A3003 760 53 -100 350/08 RMK AO2
14837KMSN MSN20071109111010011/09/07 11:10:31  5-MIN KMSN 091710Z 32005KT 7SM FEW035 SCT080 06/M03 A3003 760 51 0 320/05 RMK AO2
14837KMSN MSN20071109111510011/09/07 11:15:31  5-MIN KMSN 091715Z 35006KT 7SM FEW035 SCT080 07/M03 A3003 760 49 0 340/06 RMK AO2
14837KMSN MSN20071109112010011/09/07 11:20:31  5-MIN KMSN 091720Z 33009KT 7SM FEW035 SCT080 07/M03 A3003 760 51 0 330/09 RMK AO2
14837KMSN MSN20071109112510011/09/07 11:25:31  5-MIN KMSN 091725Z 30008KT 7SM FEW035 SCT080 06/M04 A3003 760 48 0 300/08 RMK AO2
14837KMSN MSN20071109113010011/09/07 11:30:31  5-MIN KMSN 091730Z 32007KT 7SM FEW035 SCT080 06/M03 A3003 760 51 0 320/07 RMK AO2
14837KMSN MSN20071109113510011/09/07 11:35:31  5-MIN KMSN 091735Z 34007KT 7SM FEW035 SCT080 07/M03 A3003 760 49 0 340/07 RMK AO2
14837KMSN MSN20071109114009311/09/07 11:40:31  5-MIN KMSN 091740Z 30006KT 7SM FEW035 06/M03 A3003 760 51 0 290/06 RMK AO2
14837KMSN MSN20071109114509311/09/07 11:45:31  5-MIN KMSN 091745Z 33009KT 7SM FEW035 07/M03 A3004 760 49 0 330/09 RMK AO2
14837KMSN MSN20071109115012811/09/07 11:50:31  5-MIN KMSN 091750Z 35008KT 7SM FEW035 06/M04 A3003 760 48 0 350/08 RMK AO2 SLP178 T00611039 10067 21011 51014
14837KMSN MSN20071109115509311/09/07 11:55:31  5-MIN KMSN 091755Z 31009KT 7SM FEW040 07/M04 A3003 760 47 0 300/09 RMK AO2
14837KMSN MSN20071109120009311/09/07 12:00:31  5-MIN KMSN 091800Z 32007KT 7SM FEW040 07/M04 A3003 760 45 0 320/07 RMK AO2
14837KMSN MSN20071109120510911/09/07 12:05:31  5-MIN KMSN 091805Z 31008KT 270V340 8SM FEW040 07/M04 A3003 760 45 0 310/08 270V340 RMK AO2
14837KMSN MSN20071109121010911/09/07 12:10:31  5-MIN KMSN 091810Z 32008KT 280V350 8SM FEW040 07/M04 A3003 760 43 0 310/08 280V350 RMK AO2
14837KMSN MSN20071109121511111/09/07 12:15:31  5-MIN KMSN 091815Z 32009KT 300V360 8SM FEW040 07/M05 A3003 760 41 100 320/09 300V360 RMK AO2
14837KMSN MSN20071109122009311/09/07 12:20:31  5-MIN KMSN 091820Z 29009KT 9SM FEW040 07/M06 A3003 770 41 0 290/09 RMK AO2
14837KMSN MSN20071109122509511/09/07 12:25:31  5-MIN KMSN 091825Z 31007KT 9SM FEW040 07/M05 A3003 770 41 100 310/07 RMK AO2
14837KMSN MSN20071109123010111/09/07 12:30:31  5-MIN KMSN 091830Z 34012G15KT 9SM FEW040 07/M05 A3002 770 41 100 340/12G15 RMK AO2
14837KMSN MSN20071109123509511/09/07 12:35:31  5-MIN KMSN 091835Z 30007KT 9SM FEW040 07/M05 A3002 770 41 100 300/07 RMK AO2
14837KMSN MSN20071109124010111/09/07 12:40:31  5-MIN KMSN 091840Z 34013G19KT 9SM FEW040 07/M05 A3002 770 41 100 340/13G19 RMK AO2
14837KMSN MSN20071109124510111/09/07 12:45:31  5-MIN KMSN 091845Z 33009G19KT 9SM FEW040 07/M05 A3003 770 41 100 330/09G19 RMK AO2
14837KMSN MSN20071109125011811/09/07 12:50:31  5-MIN KMSN 091850Z 33011G15KT 9SM FEW040 07/M05 A3003 770 41 100 330/11G15 RMK AO2 SLP175 T00721050
14837KMSN MSN20071109125510811/09/07 12:55:31  5-MIN KMSN 091855Z 34007G15KT 9SM FEW050 SCT100 07/M05 A3002 770 41 100 340/07G15 RMK AO2
14837KMSN MSN20071109130010211/09/07 13:00:31  5-MIN KMSN 091900Z 31008KT 8SM FEW050 SCT100 08/M04 A3003 770 41 100 310/08 RMK AO2
14837KMSN MSN20071109130510211/09/07 13:05:31  5-MIN KMSN 091905Z 33011KT 8SM FEW050 SCT100 07/M04 A3003 760 43 100 330/11 RMK AO2
14837KMSN MSN20071109131010211/09/07 13:10:31  5-MIN KMSN 091910Z 32009KT 8SM FEW050 SCT100 07/M04 A3003 760 45 100 320/09 RMK AO2
14837KMSN MSN20071109131510211/09/07 13:15:31  5-MIN KMSN 091915Z 33009KT 8SM FEW050 SCT100 08/M04 A3003 760 41 100 330/09 RMK AO2
14837KMSN MSN20071109132010811/09/07 13:20:31  5-MIN KMSN 091920Z 32012G17KT 8SM FEW046 BKN090 07/M04 A3003 760 43 100 320/12G17 RMK AO2
14837KMSN MSN20071109132510611/09/07 13:25:31  5-MIN KMSN 091925Z 32008G17KT 8SM FEW046 BKN085 07/M04 A3003 760 45 0 310/08G17 RMK AO2
14837KMSN MSN20071109133009311/09/07 13:30:31  5-MIN KMSN 091930Z 33010KT 8SM BKN090 07/M05 A3003 760 43 0 330/10 RMK AO2
14837KMSN MSN20071109133510611/09/07 13:35:31  5-MIN KMSN 091935Z 31007G15KT 8SM FEW060 OVC090 07/M05 A3003 760 43 0 310/07G15 RMK AO2
14837KMSN MSN20071109134010011/09/07 13:40:31  5-MIN KMSN 091940Z 33011KT 8SM FEW060 BKN090 07/M04 A3003 760 43 0 330/11 RMK AO2
14837KMSN MSN20071109134510011/09/07 13:45:31  5-MIN KMSN 091945Z 35009KT 9SM FEW060 BKN090 07/M05 A3003 760 41 0 350/09 RMK AO2
14837KMSN MSN20071109135012311/09/07 13:50:31  5-MIN KMSN 091950Z 32010G15KT 9SM FEW060 BKN090 07/M04 A3004 760 43 0 320/10G15 RMK AO2 SLP179 T00721044
14837KMSN MSN20071109135511311/09/07 13:55:31  5-MIN KMSN 091955Z 34009G15KT 8SM FEW060 SCT075 BKN095 07/M05 A3003 760 43 0 330/09G15 RMK AO2
14837KMSN MSN20071109140011311/09/07 14:00:31  5-MIN KMSN 092000Z 32008G17KT 8SM FEW060 BKN075 BKN095 07/M05 A3004 760 43 0 320/08G17 RMK AO2
14837KMSN MSN20071109140511311/09/07 14:05:31  5-MIN KMSN 092005Z 31010G17KT 8SM FEW060 BKN075 BKN100 07/M05 A3004 760 43 0 310/10G17 RMK AO2
14837KMSN MSN20071109141010711/09/07 14:10:31  5-MIN KMSN 092010Z 32009KT 8SM FEW060 BKN080 BKN100 07/M05 A3004 760 43 0 320/09 RMK AO2
14837KMSN MSN20071109141510011/09/07 14:15:31  5-MIN KMSN 092015Z 31009KT 8SM FEW060 BKN080 07/M05 A3004 760 43 0 310/09 RMK AO2
14837KMSN MSN20071109142010011/09/07 14:20:31  5-MIN KMSN 092020Z 31009KT 8SM FEW060 BKN080 07/M05 A3004 760 43 0 300/09 RMK AO2
14837KMSN MSN20071109142510011/09/07 14:25:31  5-MIN KMSN 092025Z 33007KT 8SM FEW060 BKN075 07/M04 A3004 760 45 0 330/07 RMK AO2
14837KMSN MSN20071109143011311/09/07 14:30:31  5-MIN KMSN 092030Z 33010G16KT 8SM FEW049 SCT060 BKN075 07/M04 A3004 760 45 0 330/10G16 RMK AO2
14837KMSN MSN20071109143511311/09/07 14:35:31  5-MIN KMSN 092035Z 31007G16KT 8SM FEW046 BKN060 BKN075 06/M04 A3004 750 46 0 310/07G16 RMK AO2
14837KMSN MSN20071109144011011/09/07 14:40:31  5-MIN KMSN 092040Z 33008KT 8SM SCT050 BKN060 BKN075 06/M04 A3005 750 46 -100 330/08 RMK AO2
14837KMSN MSN20071109144511011/09/07 14:45:31  5-MIN KMSN 092045Z 32006KT 8SM BKN050 BKN060 OVC075 06/M04 A3005 750 48 -100 320/06 RMK AO2
14837KMSN MSN20071109145013211/09/07 14:50:31  5-MIN KMSN 092050Z 31009G14KT 8SM BKN048 OVC065 06/M04 A3005 740 48 -100 310/09G14 RMK AO2 SLP183 T00611039 58003
14837KMSN MSN20071109145510911/09/07 14:55:31  5-MIN KMSN 092055Z 33008G14KT 8SM BKN048 OVC065 06/M03 A3005 740 51 -100 320/08G14 RMK AO2
14837KMSN MSN20071109150010311/09/07 15:00:31  5-MIN KMSN 092100Z 32008KT 8SM BKN048 OVC060 06/M03 A3006 740 53 -100 310/08 RMK AO2
14837KMSN MSN20071109150509611/09/07 15:05:31  5-MIN KMSN 092105Z 30008KT 8SM OVC048 06/M03 A3006 740 53 -100 300/08 RMK AO2
14837KMSN MSN20071109151010211/09/07 15:10:31  5-MIN KMSN 092110Z 31010G17KT 8SM OVC046 06/M03 A3006 730 53 -100 310/10G17 RMK AO2
14837KMSN MSN20071109151510211/09/07 15:15:31  5-MIN KMSN 092115Z 30009G17KT 7SM OVC046 06/M03 A3006 730 55 -100 300/09G17 RMK AO2
14837KMSN MSN20071109152009611/09/07 15:20:31  5-MIN KMSN 092120Z 31008KT 7SM OVC046 06/M03 A3006 730 55 -100 310/08 RMK AO2
14837KMSN MSN20071109152509611/09/07 15:25:31  5-MIN KMSN 092125Z 31008KT 7SM OVC046 06/M03 A3007 730 55 -100 310/08 RMK AO2
14837KMSN MSN20071109153009611/09/07 15:30:31  5-MIN KMSN 092130Z 30010KT 7SM OVC046 06/M02 A3007 730 57 -100 300/10 RMK AO2
14837KMSN MSN20071109153509611/09/07 15:35:31  5-MIN KMSN 092135Z 31007KT 7SM OVC046 05/M03 A3007 730 57 -200 310/07 RMK AO2
14837KMSN MSN20071109154009611/09/07 15:40:31  5-MIN KMSN 092140Z 33007KT 7SM OVC046 05/M02 A3007 720 59 -200 330/07 RMK AO2
14837KMSN MSN20071109154509611/09/07 15:45:31  5-MIN KMSN 092145Z 32008KT 7SM OVC046 05/M03 A3007 720 57 -200 320/08 RMK AO2
14837KMSN MSN20071109155011311/09/07 15:50:31  5-MIN KMSN 092150Z 33008KT 7SM OVC046 05/M03 A3007 720 57 -200 320/08 RMK AO2 SLP192 T00501028
14837KMSN MSN20071109155509911/09/07 15:55:31  5-MIN KMSN 092155Z 33006KT 6SM HZ OVC046 05/M02 A3008 720 59 -200 330/06 RMK AO2
14837KMSN MSN20071109160009611/09/07 16:00:31  5-MIN KMSN 092200Z 33007KT 7SM OVC046 05/M02 A3008 720 59 -200 330/07 RMK AO2
14837KMSN MSN20071109160509611/09/07 16:05:31  5-MIN KMSN 092205Z 32007KT 7SM OVC044 05/M02 A3008 720 59 -200 320/07 RMK AO2
14837KMSN MSN20071109161009611/09/07 16:10:31  5-MIN KMSN 092210Z 34008KT 7SM OVC044 05/M02 A3008 720 59 -200 330/08 RMK AO2
14837KMSN MSN20071109161509611/09/07 16:15:31  5-MIN KMSN 092215Z 32007KT 7SM OVC044 05/M02 A3008 710 59 -200 320/07 RMK AO2
14837KMSN MSN20071109162009611/09/07 16:20:31  5-MIN KMSN 092220Z 34009KT 7SM BKN044 05/M02 A3008 710 59 -200 340/09 RMK AO2
14837KMSN MSN20071109162509611/09/07 16:25:31  5-MIN KMSN 092225Z 34008KT 7SM BKN044 04/M02 A3009 710 62 -300 340/08 RMK AO2
14837KMSN MSN20071109163009611/09/07 16:30:31  5-MIN KMSN 092230Z 34008KT 7SM BKN044 04/M02 A3009 710 62 -300 340/08 RMK AO2
14837KMSN MSN20071109163509611/09/07 16:35:31  5-MIN KMSN 092235Z 34008KT 7SM BKN044 04/M02 A3009 710 62 -300 340/08 RMK AO2
14837KMSN MSN20071109164009611/09/07 16:40:31  5-MIN KMSN 092240Z 33011KT 7SM OVC044 04/M02 A3009 710 62 -300 330/11 RMK AO2
14837KMSN MSN20071109164509611/09/07 16:45:31  5-MIN KMSN 092245Z 34010KT 7SM OVC044 04/M02 A3009 700 62 -300 340/10 RMK AO2
14837KMSN MSN20071109165011311/09/07 16:50:31  5-MIN KMSN 092250Z 34009KT 8SM OVC044 04/M02 A3010 700 62 -300 340/09 RMK AO2 SLP200 T00441022
14837KMSN MSN20071109165509611/09/07 16:55:31  5-MIN KMSN 092255Z 33007KT 8SM OVC044 04/M02 A3010 700 64 -300 330/07 RMK AO2
14837KMSN MSN20071109170009611/09/07 17:00:31  5-MIN KMSN 092300Z 34008KT 8SM OVC044 04/M02 A3010 700 64 -300 340/08 RMK AO2
14837KMSN MSN20071109170509611/09/07 17:05:31  5-MIN KMSN 092305Z 34007KT 8SM OVC044 04/M02 A3010 700 64 -300 330/07 RMK AO2
14837KMSN MSN20071109171009611/09/07 17:10:31  5-MIN KMSN 092310Z 34006KT 8SM OVC044 04/M02 A3010 690 64 -300 340/06 RMK AO2
14837KMSN MSN20071109171509611/09/07 17:15:31  5-MIN KMSN 092315Z 35006KT 8SM OVC044 04/M02 A3010 700 67 -400 350/06 RMK AO2
14837KMSN MSN20071109172009611/09/07 17:20:31  5-MIN KMSN 092320Z 35006KT 8SM OVC044 04/M02 A3010 690 67 -400 350/06 RMK AO2
14837KMSN MSN20071109172509611/09/07 17:25:31  5-MIN KMSN 092325Z 35007KT 8SM OVC044 04/M02 A3011 690 67 -400 350/07 RMK AO2
14837KMSN MSN20071109173009611/09/07 17:30:31  5-MIN KMSN 092330Z 35007KT 8SM OVC044 04/M02 A3011 690 64 -400 350/07 RMK AO2
14837KMSN MSN20071109173509611/09/07 17:35:31  5-MIN KMSN 092335Z 34008KT 8SM OVC044 04/M02 A3011 690 67 -400 340/08 RMK AO2
14837KMSN MSN20071109174009611/09/07 17:40:31  5-MIN KMSN 092340Z 34007KT 8SM OVC044 04/M02 A3011 690 64 -400 340/07 RMK AO2
14837KMSN MSN20071109174509611/09/07 17:45:31  5-MIN KMSN 092345Z 34006KT 8SM OVC044 04/M02 A3011 690 64 -400 340/06 RMK AO2
14837KMSN MSN20071109175013111/09/07 17:50:31  5-MIN KMSN 092350Z 33007KT 8SM OVC044 04/M02 A3012 680 64 -400 330/07 RMK AO2 SLP207 T00391022 10078 20039 53006
14837KMSN MSN20071109175509611/09/07 17:55:31  5-MIN KMSN 092355Z 34006KT 8SM OVC044 04/M02 A3012 680 64 -400 340/06 RMK AO2
14837KMSN MSN20071109180009611/09/07 18:00:31  5-MIN KMSN 100000Z 34007KT 8SM BKN044 03/M02 A3012 680 67 -500 340/07 RMK AO2
14837KMSN MSN20071109180509611/09/07 18:05:31  5-MIN KMSN 100005Z 34006KT 8SM BKN044 03/M02 A3012 680 69 -500 340/06 RMK AO2
14837KMSN MSN20071109181009611/09/07 18:10:31  5-MIN KMSN 100010Z 34007KT 8SM SCT044 03/M02 A3012 680 69 -600 340/07 RMK AO2
14837KMSN MSN20071109181509611/09/07 18:15:31  5-MIN KMSN 100015Z 34007KT 8SM SCT044 03/M02 A3012 680 69 -600 340/07 RMK AO2
14837KMSN MSN20071109182009611/09/07 18:20:31  5-MIN KMSN 100020Z 35006KT 8SM FEW044 03/M02 A3012 680 69 -600 350/06 RMK AO2
14837KMSN MSN20071109182509311/09/07 18:25:31  5-MIN KMSN 100025Z 34005KT 8SM CLR 02/M02 A3013 670 72 -600 340/05 RMK AO2
14837KMSN MSN20071109183009311/09/07 18:30:31  5-MIN KMSN 100030Z 33005KT 8SM CLR 02/M02 A3013 670 72 -600 330/05 RMK AO2
14837KMSN MSN20071109183509311/09/07 18:35:31  5-MIN KMSN 100035Z 34005KT 8SM CLR 02/M02 A3013 670 72 -600 340/05 RMK AO2
14837KMSN MSN20071109184009311/09/07 18:40:31  5-MIN KMSN 100040Z 34005KT 7SM CLR 02/M02 A3013 670 72 -600 340/05 RMK AO2
14837KMSN MSN20071109184509311/09/07 18:45:31  5-MIN KMSN 100045Z 34007KT 7SM CLR 02/M02 A3013 670 75 -700 340/07 RMK AO2
14837KMSN MSN20071109185011011/09/07 18:50:31  5-MIN KMSN 100050Z 34007KT 7SM CLR 02/M02 A3013 670 75 -700 340/07 RMK AO2 SLP212 T00171022
14837KMSN MSN20071109185509311/09/07 18:55:31  5-MIN KMSN 100055Z 34006KT 7SM CLR 02/M02 A3013 670 75 -700 340/06 RMK AO2
14837KMSN MSN20071109190009311/09/07 19:00:31  5-MIN KMSN 100100Z 35007KT 7SM CLR 02/M02 A3013 670 75 -700 350/07 RMK AO2
14837KMSN MSN20071109190509311/09/07 19:05:31  5-MIN KMSN 100105Z 35006KT 7SM CLR 02/M02 A3013 670 75 -700 350/06 RMK AO2
14837KMSN MSN20071109191009311/09/07 19:10:31  5-MIN KMSN 100110Z 34005KT 7SM CLR 01/M02 A3013 670 78 -800 340/05 RMK AO2
14837KMSN MSN20071109191509311/09/07 19:15:31  5-MIN KMSN 100115Z 34005KT 7SM CLR 01/M02 A3013 670 78 -800 340/05 RMK AO2
14837KMSN MSN20071109192009311/09/07 19:20:31  5-MIN KMSN 100120Z 36005KT 7SM CLR 01/M02 A3013 670 78 -800 360/05 RMK AO2
14837KMSN MSN20071109192509311/09/07 19:25:31  5-MIN KMSN 100125Z 36005KT 7SM CLR 00/M03 A3014 670 81 -900 360/05 RMK AO2
14837KMSN MSN20071109193009311/09/07 19:30:31  5-MIN KMSN 100130Z 36004KT 7SM CLR 00/M03 A3014 660 81 -900 360/04 RMK AO2
14837KMSN MSN20071109193509311/09/07 19:35:31  5-MIN KMSN 100135Z 34004KT 7SM CLR 00/M03 A3014 670 81 -900 340/04 RMK AO2
14837KMSN MSN20071109194009311/09/07 19:40:31  5-MIN KMSN 100140Z 34005KT 7SM CLR 01/M03 A3014 660 78 -800 340/05 RMK AO2
14837KMSN MSN20071109194509311/09/07 19:45:31  5-MIN KMSN 100145Z 33004KT 7SM CLR 01/M02 A3014 660 82 -800 330/04 RMK AO2
14837KMSN MSN20071109195011011/09/07 19:50:31  5-MIN KMSN 100150Z 33004KT 7SM CLR 01/M02 A3014 660 82 -800 320/04 RMK AO2 SLP216 T00061022
14837KMSN MSN20071109195509311/09/07 19:55:31  5-MIN KMSN 100155Z 33003KT 7SM CLR 01/M03 A3014 660 78 -900 330/03 RMK AO2
14837KMSN MSN20071109200009311/09/07 20:00:31  5-MIN KMSN 100200Z 34003KT 7SM CLR 01/M02 A3014 660 82 -900 340/03 RMK AO2
14837KMSN MSN20071109200509311/09/07 20:05:31  5-MIN KMSN 100205Z 35003KT 7SM CLR 01/M02 A3015 660 82 -900 350/03 RMK AO2
14837KMSN MSN20071109214509511/09/07 21:45:31  5-MIN KMSN 100345Z 30003KT 7SM CLR M02/M04 A3017 640 85 -1200 290/03 RMK AO2
14837KMSN MSN20071109215011211/09/07 21:50:31  5-MIN KMSN 100350Z 30003KT 7SM CLR M02/M03 A3017 640 88 -1200 300/03 RMK AO2 SLP225 T10171033
14837KMSN MSN20071109215509811/09/07 21:55:31  5-MIN KMSN 100355Z 30004KT 6SM BR CLR M01/M03 A3017 630 85 -1100 300/04 RMK AO2
14837KMSN MSN20071109220009811/09/07 22:00:31  5-MIN KMSN 100400Z 30003KT 6SM BR CLR M01/M03 A3017 630 85 -1100 300/03 RMK AO2
14837KMSN MSN20071109220509811/09/07 22:05:31  5-MIN KMSN 100405Z 31004KT 6SM BR CLR M01/M03 A3017 630 88 -1100 310/04 RMK AO2
14837KMSN MSN20071109221009811/09/07 22:10:31  5-MIN KMSN 100410Z 31003KT 6SM BR CLR M01/M03 A3017 630 88 -1100 310/03 RMK AO2
14837KMSN MSN20071109221509811/09/07 22:15:31  5-MIN KMSN 100415Z 30003KT 6SM BR CLR M01/M03 A3017 630 88 -1100 300/03 RMK AO2
14837KMSN MSN20071109222009811/09/07 22:20:31  5-MIN KMSN 100420Z 00000KT 6SM BR CLR M01/M03 A3017 630 88 -1100 000/00 RMK AO2
14837KMSN MSN20071109222509811/09/07 22:25:31  5-MIN KMSN 100425Z 00000KT 6SM BR CLR M02/M03 A3017 630 88 -1200 000/00 RMK AO2
14837KMSN MSN20071109223009811/09/07 22:30:31  5-MIN KMSN 100430Z 00000KT 6SM BR CLR M02/M04 A3017 630 88 -1200 000/00 RMK AO2
14837KMSN MSN20071109223509811/09/07 22:35:31  5-MIN KMSN 100435Z 00000KT 6SM BR CLR M02/M04 A3017 640 88 -1200 000/00 RMK AO2
14837KMSN MSN20071109224009811/09/07 22:40:31  5-MIN KMSN 100440Z 06003KT 6SM BR CLR M01/M03 A3017 640 85 -1100 060/03 RMK AO2
14837KMSN MSN20071109224509811/09/07 22:45:31  5-MIN KMSN 100445Z 06003KT 6SM BR CLR M02/M03 A3016 640 88 -1200 060/03 RMK AO2
14837KMSN MSN20071109225011511/09/07 22:50:31  5-MIN KMSN 100450Z 00000KT 6SM BR CLR M02/M04 A3016 640 85 -1200 000/00 RMK AO2 SLP223 T10221044
14837KMSN MSN20071109225509811/09/07 22:55:31  5-MIN KMSN 100455Z 08003KT 6SM BR CLR M02/M04 A3017 640 88 -1200 080/03 RMK AO2
14837KMSN MSN20071109230009811/09/07 23:00:31  5-MIN KMSN 100500Z 00000KT 6SM BR CLR M03/M05 A3017 640 85 -1300 000/00 RMK AO2
14837KMSN MSN20071109230509811/09/07 23:05:31  5-MIN KMSN 100505Z 00000KT 6SM BR CLR M03/M04 A3017 640 88 -1300 000/00 RMK AO2
14837KMSN MSN20071109231009811/09/07 23:10:31  5-MIN KMSN 100510Z 00000KT 5SM BR CLR M03/M04 A3017 640 88 -1300 000/00 RMK AO2
14837KMSN MSN20071109231509811/09/07 23:15:31  5-MIN KMSN 100515Z 00000KT 5SM BR CLR M03/M04 A3017 640 88 -1300 000/00 RMK AO2
14837KMSN MSN20071109232009811/09/07 23:20:31  5-MIN KMSN 100520Z 00000KT 5SM BR CLR M02/M04 A3017 640 85 -1200 000/00 RMK AO2
14837KMSN MSN20071109232509811/09/07 23:25:31  5-MIN KMSN 100525Z 00000KT 5SM BR CLR M02/M04 A3017 630 88 -1200 000/00 RMK AO2
14837KMSN MSN20071109233009811/09/07 23:30:31  5-MIN KMSN 100530Z 00000KT 5SM BR CLR M03/M04 A3017 630 92 -1300 000/00 RMK AO2
14837KMSN MSN20071109233509811/09/07 23:35:31  5-MIN KMSN 100535Z 00000KT 5SM BR CLR M03/M04 A3017 630 92 -1400 000/00 RMK AO2
14837KMSN MSN20071109234009811/09/07 23:40:31  5-MIN KMSN 100540Z 00000KT 5SM BR CLR M03/M04 A3018 630 88 -1300 000/00 RMK AO2
14837KMSN MSN20071109234509811/09/07 23:45:31  5-MIN KMSN 100545Z 00000KT 5SM BR CLR M03/M04 A3018 630 92 -1400 000/00 RMK AO2
14837KMSN MSN20071109235014311/09/07 23:50:31  5-MIN KMSN 100550Z 00000KT 5SM BR CLR M03/M04 A3018 620 92 -1400 000/00 RMK AO2 SLP230 T10331044 10039 21033 400781033 52010
14837KMSN MSN20071109235509811/09/07 23:55:31  5-MIN KMSN 100555Z 00000KT 5SM BR CLR M03/M04 A3019 620 92 -1400 000/00 RMK AO2
14837KMSN MSN20071110000009811/10/07 00:00:32  5-MIN KMSN 100600Z 00000KT 5SM BR CLR M03/M04 A3019 620 92 -1400 000/00 RMK AO2
14837KMSN MSN20071110000509811/10/07 00:05:31  5-MIN KMSN 100605Z 00000KT 5SM BR CLR M03/M04 A3019 620 88 -1300 000/00 RMK AO2
14837KMSN MSN20071110001009811/10/07 00:10:31  5-MIN KMSN 100610Z 00000KT 5SM BR CLR M03/M04 A3019 620 92 -1400 000/00 RMK AO2
14837KMSN MSN20071110001509811/10/07 00:15:31  5-MIN KMSN 100615Z 00000KT 5SM BR CLR M03/M05 A3019 610 88 -1400 000/00 RMK AO2
14837KMSN MSN20071110002009811/10/07 00:20:31  5-MIN KMSN 100620Z 00000KT 4SM BR CLR M03/M04 A3019 610 88 -1300 000/00 RMK AO2
14837KMSN MSN20071110002509811/10/07 00:25:31  5-MIN KMSN 100625Z 00000KT 5SM BR CLR M03/M04 A3019 610 88 -1300 000/00 RMK AO2
14837KMSN MSN20071110003009811/10/07 00:30:31  5-MIN KMSN 100630Z 00000KT 5SM BR CLR M03/M04 A3019 610 88 -1300 000/00 RMK AO2
14837KMSN MSN20071110003509811/10/07 00:35:31  5-MIN KMSN 100635Z 00000KT 5SM BR CLR M03/M05 A3019 610 88 -1400 000/00 RMK AO2
14837KMSN MSN20071110004009811/10/07 00:40:31  5-MIN KMSN 100640Z 00000KT 5SM BR CLR M03/M05 A3019 610 88 -1400 000/00 RMK AO2
14837KMSN MSN20071110004509811/10/07 00:45:31  5-MIN KMSN 100645Z 00000KT 5SM BR CLR M03/M05 A3019 610 88 -1400 000/00 RMK AO2
14837KMSN MSN20071110005011511/10/07 00:50:31  5-MIN KMSN 100650Z 00000KT 6SM BR CLR M03/M04 A3019 610 92 -1400 000/00 RMK AO2 SLP233 T10331044
14837KMSN MSN20071110005509811/10/07 00:55:31  5-MIN KMSN 100655Z 00000KT 5SM BR CLR M03/M04 A3020 610 92 -1400 000/00 RMK AO2
14837KMSN MSN20071110010009811/10/07 01:00:31  5-MIN KMSN 100700Z 00000KT 5SM BR CLR M04/M05 A3020 610 92 -1500 000/00 RMK AO2
14837KMSN MSN20071110010509811/10/07 01:05:31  5-MIN KMSN 100705Z 00000KT 5SM BR CLR M03/M05 A3020 610 88 -1400 000/00 RMK AO2
14837KMSN MSN20071110011009811/10/07 01:10:31  5-MIN KMSN 100710Z 00000KT 5SM BR CLR M03/M05 A3020 610 88 -1400 000/00 RMK AO2
14837KMSN MSN20071110011509811/10/07 01:15:31  5-MIN KMSN 100715Z 00000KT 4SM BR CLR M03/M04 A3020 610 92 -1400 000/00 RMK AO2
14837KMSN MSN20071110012009811/10/07 01:20:31  5-MIN KMSN 100720Z 00000KT 4SM BR CLR M03/M04 A3020 610 88 -1300 000/00 RMK AO2
14837KMSN MSN20071110012509811/10/07 01:25:31  5-MIN KMSN 100725Z 00000KT 4SM BR CLR M03/M04 A3020 610 92 -1400 000/00 RMK AO2
14837KMSN MSN20071110013009811/10/07 01:30:31  5-MIN KMSN 100730Z 00000KT 5SM BR CLR M03/M04 A3020 610 92 -1400 000/00 RMK AO2
14837KMSN MSN20071110013509811/10/07 01:35:31  5-MIN KMSN 100735Z 00000KT 5SM BR CLR M03/M05 A3020 610 88 -1400 000/00 RMK AO2
14837KMSN MSN20071110014009811/10/07 01:40:31  5-MIN KMSN 100740Z 00000KT 5SM BR CLR M03/M04 A3020 600 92 -1400 000/00 RMK AO2
14837KMSN MSN20071110014509811/10/07 01:45:31  5-MIN KMSN 100745Z 00000KT 5SM BR CLR M03/M04 A3020 600 92 -1400 000/00 RMK AO2
14837KMSN MSN20071110015011511/10/07 01:50:31  5-MIN KMSN 100750Z 00000KT 6SM BR CLR M03/M05 A3020 600 88 -1400 000/00 RMK AO2 SLP236 T10331050
14837KMSN MSN20071110015509811/10/07 01:55:31  5-MIN KMSN 100755Z 00000KT 4SM BR CLR M03/M05 A3020 600 88 -1400 000/00 RMK AO2
14837KMSN MSN20071110020009811/10/07 02:00:31  5-MIN KMSN 100800Z 00000KT 4SM BR CLR M04/M05 A3020 600 92 -1500 000/00 RMK AO2
14837KMSN MSN20071110020509811/10/07 02:05:31  5-MIN KMSN 100805Z 00000KT 4SM BR CLR M04/M05 A3020 600 92 -1500 000/00 RMK AO2
14837KMSN MSN20071110021009811/10/07 02:10:31  5-MIN KMSN 100810Z 00000KT 4SM BR CLR M04/M05 A3020 600 96 -1600 000/00 RMK AO2
14837KMSN MSN20071110021509811/10/07 02:15:31  5-MIN KMSN 100815Z 00000KT 4SM BR CLR M04/M06 A3020 600 92 -1600 000/00 RMK AO2
14837KMSN MSN20071110022009811/10/07 02:20:31  5-MIN KMSN 100820Z 00000KT 4SM BR CLR M04/M06 A3021 600 92 -1600 000/00 RMK AO2
14837KMSN MSN20071110022509811/10/07 02:25:31  5-MIN KMSN 100825Z 00000KT 4SM BR CLR M04/M06 A3020 610 88 -1500 000/00 RMK AO2
14837KMSN MSN20071110023009811/10/07 02:30:31  5-MIN KMSN 100830Z 00000KT 4SM BR CLR M04/M06 A3020 610 88 -1500 000/00 RMK AO2
14837KMSN MSN20071110023509811/10/07 02:35:31  5-MIN KMSN 100835Z 00000KT 4SM BR CLR M03/M05 A3020 610 88 -1400 000/00 RMK AO2
14837KMSN MSN20071110024009811/10/07 02:40:31  5-MIN KMSN 100840Z 00000KT 4SM BR CLR M03/M05 A3020 610 88 -1400 000/00 RMK AO2
14837KMSN MSN20071110024509811/10/07 02:45:31  5-MIN KMSN 100845Z 00000KT 4SM BR CLR M04/M05 A3020 610 92 -1500 000/00 RMK AO2
14837KMSN MSN20071110025012111/10/07 02:50:31  5-MIN KMSN 100850Z 00000KT 5SM BR CLR M04/M06 A3020 610 88 -1500 000/00 RMK AO2 SLP235 T10391056 52012
14837KMSN MSN20071110025509811/10/07 02:55:31  5-MIN KMSN 100855Z 00000KT 5SM BR CLR M04/M06 A3020 610 92 -1600 000/00 RMK AO2
14837KMSN MSN20071110030009811/10/07 03:00:31  5-MIN KMSN 100900Z 00000KT 5SM BR CLR M04/M06 A3020 610 88 -1500 000/00 RMK AO2
14837KMSN MSN20071110030509811/10/07 03:05:31  5-MIN KMSN 100905Z 00000KT 5SM BR CLR M04/M05 A3020 610 92 -1500 000/00 RMK AO2
14837KMSN MSN20071110031009811/10/07 03:10:31  5-MIN KMSN 100910Z 00000KT 4SM BR CLR M04/M06 A3020 610 88 -1500 000/00 RMK AO2
14837KMSN MSN20071110031509811/10/07 03:15:31  5-MIN KMSN 100915Z 00000KT 5SM BR CLR M04/M06 A3020 610 88 -1600 000/00 RMK AO2
14837KMSN MSN20071110032009811/10/07 03:20:31  5-MIN KMSN 100920Z 00000KT 5SM BR CLR M05/M07 A3020 610 88 -1600 000/00 RMK AO2
14837KMSN MSN20071110032509811/10/07 03:25:31  5-MIN KMSN 100925Z 00000KT 5SM BR CLR M06/M07 A3020 610 92 -1700 000/00 RMK AO2
14837KMSN MSN20071110033009811/10/07 03:30:31  5-MIN KMSN 100930Z 00000KT 5SM BR CLR M06/M07 A3019 610 92 -1700 000/00 RMK AO2
14837KMSN MSN20071110033509811/10/07 03:35:31  5-MIN KMSN 100935Z 00000KT 5SM BR CLR M06/M07 A3020 610 92 -1700 000/00 RMK AO2
14837KMSN MSN20071110034009811/10/07 03:40:31  5-MIN KMSN 100940Z 00000KT 5SM BR CLR M06/M07 A3020 610 92 -1700 000/00 RMK AO2
14837KMSN MSN20071110034509811/10/07 03:45:31  5-MIN KMSN 100945Z 00000KT 5SM BR CLR M05/M07 A3020 600 88 -1600 000/00 RMK AO2
14837KMSN MSN20071110035011511/10/07 03:50:31  5-MIN KMSN 100950Z 00000KT 6SM BR CLR M04/M06 A3021 600 88 -1600 000/00 RMK AO2 SLP239 T10441061
14837KMSN MSN20071110035509811/10/07 03:55:31  5-MIN KMSN 100955Z 00000KT 4SM BR CLR M04/M06 A3020 600 88 -1600 000/00 RMK AO2
14837KMSN MSN20071110040009811/10/07 04:00:31  5-MIN KMSN 101000Z 00000KT 4SM BR CLR M04/M06 A3020 610 88 -1600 000/00 RMK AO2
14837KMSN MSN20071110040509811/10/07 04:05:31  5-MIN KMSN 101005Z 00000KT 5SM BR CLR M04/M06 A3020 600 92 -1600 000/00 RMK AO2
14837KMSN MSN20071110041009811/10/07 04:10:31  5-MIN KMSN 101010Z 00000KT 4SM BR CLR M05/M06 A3021 600 96 -1600 000/00 RMK AO2
14837KMSN MSN20071110041509811/10/07 04:15:31  5-MIN KMSN 101015Z 00000KT 4SM BR CLR M04/M06 A3020 600 92 -1600 000/00 RMK AO2
14837KMSN MSN20071110042009811/10/07 04:20:31  5-MIN KMSN 101020Z 00000KT 4SM BR CLR M05/M06 A3021 600 92 -1600 000/00 RMK AO2
14837KMSN MSN20071110042509811/10/07 04:25:31  5-MIN KMSN 101025Z 00000KT 5SM BR CLR M04/M06 A3021 600 88 -1600 000/00 RMK AO2
14837KMSN MSN20071110043009811/10/07 04:30:31  5-MIN KMSN 101030Z 00000KT 4SM BR CLR M05/M06 A3021 600 92 -1600 000/00 RMK AO2
14837KMSN MSN20071110043509811/10/07 04:35:31  5-MIN KMSN 101035Z 00000KT 3SM BR CLR M06/M07 A3021 600 92 -1700 000/00 RMK AO2
14837KMSN MSN20071110044009811/10/07 04:40:31  5-MIN KMSN 101040Z 00000KT 3SM BR CLR M05/M06 A3021 600 92 -1600 000/00 RMK AO2
14837KMSN MSN20071110044509811/10/07 04:45:31  5-MIN KMSN 101045Z 00000KT 4SM BR CLR M06/M07 A3021 600 92 -1700 000/00 RMK AO2
14837KMSN MSN20071110045011511/10/07 04:50:31  5-MIN KMSN 101050Z 00000KT 4SM BR CLR M05/M06 A3021 600 92 -1600 000/00 RMK AO2 SLP240 T10501061
14837KMSN MSN20071110045509811/10/07 04:55:31  5-MIN KMSN 101055Z 00000KT 3SM BR CLR M05/M06 A3021 600 96 -1600 000/00 RMK AO2
14837KMSN MSN20071110050009811/10/07 05:00:31  5-MIN KMSN 101100Z 00000KT 3SM BR CLR M06/M06 A3021 600 96 -1700 000/00 RMK AO2
14837KMSN MSN20071110050509811/10/07 05:05:31  5-MIN KMSN 101105Z 00000KT 3SM BR CLR M06/M06 A3021 600 96 -1700 000/00 RMK AO2
14837KMSN MSN20071110051009811/10/07 05:10:31  5-MIN KMSN 101110Z 00000KT 3SM BR CLR M06/M06 A3021 600 96 -1700 000/00 RMK AO2
14837KMSN MSN20071110051509811/10/07 05:15:31  5-MIN KMSN 101115Z 00000KT 3SM BR CLR M06/M07 A3021 600 92 -1700 000/00 RMK AO2
14837KMSN MSN20071110052009811/10/07 05:20:31  5-MIN KMSN 101120Z 00000KT 3SM BR CLR M06/M07 A3021 600 92 -1700 000/00 RMK AO2
14837KMSN MSN20071110052509811/10/07 05:25:31  5-MIN KMSN 101125Z 00000KT 4SM BR CLR M06/M07 A3021 600 92 -1700 000/00 RMK AO2
14837KMSN MSN20071110053009811/10/07 05:30:31  5-MIN KMSN 101130Z 00000KT 4SM BR CLR M06/M07 A3021 590 92 -1700 000/00 RMK AO2
14837KMSN MSN20071110053509811/10/07 05:35:31  5-MIN KMSN 101135Z 00000KT 4SM BR CLR M06/M07 A3021 590 92 -1700 000/00 RMK AO2
14837KMSN MSN20071110054009811/10/07 05:40:31  5-MIN KMSN 101140Z 00000KT 4SM BR CLR M05/M07 A3022 590 88 -1600 000/00 RMK AO2
14837KMSN MSN20071110054509811/10/07 05:45:31  5-MIN KMSN 101145Z 00000KT 4SM BR CLR M05/M07 A3022 590 88 -1600 000/00 RMK AO2
14837KMSN MSN20071110055010111/10/07 05:50:31  5-MIN KMSN 101150Z 00000KT 3SM BR FEW001 M06/M07 A3022 590 92 -1700 000/00 RMK AO2
14837KMSN MSN20071110055510111/10/07 05:55:31  5-MIN KMSN 101155Z 00000KT 3SM BR FEW001 M05/M07 A3022 590 88 -1600 000/00 RMK AO2
14837KMSN MSN20071110060010811/10/07 06:00:31  5-MIN KMSN 101200Z 00000KT 3SM BR SCT001 SCT008 M05/M06 A3022 590 92 -1600 000/00 RMK AO2
14837KMSN MSN20071110060511811/10/07 06:05:31  5-MIN KMSN 101205Z 00000KT 3SM BR SCT001 SCT008 M05/M06 A3022 590 92 -1600 000/00 RMK AO2 TWR VIS 4
14837KMSN MSN20071110061011811/10/07 06:10:31  5-MIN KMSN 101210Z 00000KT 3SM BR SCT001 SCT008 M06/M07 A3022 590 92 -1700 000/00 RMK AO2 TWR VIS 4
14837KMSN MSN20071110061511811/10/07 06:15:31  5-MIN KMSN 101215Z 00000KT 3SM BR SCT001 SCT008 M06/M07 A3022 590 92 -1700 000/00 RMK AO2 TWR VIS 4
14837KMSN MSN20071110062011811/10/07 06:20:31  5-MIN KMSN 101220Z 00000KT 3SM BR SCT001 SCT008 M06/M07 A3022 580 92 -1800 000/00 RMK AO2 TWR VIS 4
14837KMSN MSN20071110062511111/10/07 06:25:31  5-MIN KMSN 101225Z 00000KT 3SM BR FEW001 M06/M07 A3022 580 92 -1700 000/00 RMK AO2 TWR VIS 4
14837KMSN MSN20071110063011111/10/07 06:30:31  5-MIN KMSN 101230Z 00000KT 3SM BR FEW001 M06/M07 A3022 590 92 -1700 000/00 RMK AO2 TWR VIS 4
14837KMSN MSN20071110063510111/10/07 06:35:31  5-MIN KMSN 101235Z 00000KT 4SM BR FEW001 M05/M06 A3022 580 92 -1700 000/00 RMK AO2
14837KMSN MSN20071110064010111/10/07 06:40:31  5-MIN KMSN 101240Z 00000KT 4SM BR FEW009 M06/M06 A3022 590 96 -1700 000/00 RMK AO2
14837KMSN MSN20071110064510111/10/07 06:45:31  5-MIN KMSN 101245Z 00000KT 4SM BR FEW009 M06/M06 A3022 590 96 -1700 000/00 RMK AO2
14837KMSN MSN20071110065011811/10/07 06:50:31  5-MIN KMSN 101250Z 00000KT 4SM BR FEW009 M06/M07 A3023 580 92 -1700 000/00 RMK AO2 SLP246 T10561067
14837KMSN MSN20071110065510811/10/07 06:55:31  5-MIN KMSN 101255Z 00000KT 3SM BR CLR M06/M07 A3023 580 92 -1700 000/00 RMK AO2 TWR VIS 4
14837KMSN MSN20071110070010811/10/07 07:00:31  5-MIN KMSN 101300Z 00000KT 3SM BR CLR M06/M07 A3023 580 92 -1700 000/00 RMK AO2 TWR VIS 4
14837KMSN MSN20071110070510811/10/07 07:05:31  5-MIN KMSN 101305Z 00000KT 3SM BR CLR M06/M07 A3023 580 92 -1700 000/00 RMK AO2 TWR VIS 4
14837KMSN MSN20071110071010811/10/07 07:10:31  5-MIN KMSN 101310Z 00000KT 3SM BR CLR M05/M07 A3024 570 88 -1700 000/00 RMK AO2 TWR VIS 4
14837KMSN MSN20071110071509811/10/07 07:15:31  5-MIN KMSN 101315Z 00000KT 4SM BR CLR M05/M06 A3024 570 92 -1700 000/00 RMK AO2
14837KMSN MSN20071110072010811/10/07 07:20:31  5-MIN KMSN 101320Z 00000KT 3SM BR CLR M04/M06 A3024 570 88 -1600 000/00 RMK AO2 TWR VIS 4
14837KMSN MSN20071110072510811/10/07 07:25:31  5-MIN KMSN 101325Z 00000KT 3SM BR CLR M04/M06 A3024 570 88 -1600 000/00 RMK AO2 TWR VIS 4
14837KMSN MSN20071110073010811/10/07 07:30:31  5-MIN KMSN 101330Z 00000KT 3SM BR CLR M04/M06 A3024 570 88 -1600 000/00 RMK AO2 TWR VIS 4
14837KMSN MSN20071110073510811/10/07 07:35:31  5-MIN KMSN 101335Z 00000KT 3SM BR CLR M04/M06 A3024 570 88 -1600 000/00 RMK AO2 TWR VIS 4
14837KMSN MSN20071110074010811/10/07 07:40:31  5-MIN KMSN 101340Z 00000KT 3SM BR CLR M05/M06 A3025 560 92 -1700 000/00 RMK AO2 TWR VIS 4
14837KMSN MSN20071110074510811/10/07 07:45:31  5-MIN KMSN 101345Z 00000KT 3SM BR CLR M04/M05 A3025 560 92 -1500 000/00 RMK AO2 TWR VIS 4
14837KMSN MSN20071110075012511/10/07 07:50:31  5-MIN KMSN 101350Z 00000KT 3SM BR CLR M03/M04 A3024 570 92 -1500 000/00 RMK AO2 TWR VIS 4 SLP252 T10331044
14837KMSN MSN20071110075510811/10/07 07:55:31  5-MIN KMSN 101355Z 00000KT 3SM BR CLR M03/M04 A3024 570 92 -1400 000/00 RMK AO2 TWR VIS 4
14837KMSN MSN20071110080010811/10/07 08:00:31  5-MIN KMSN 101400Z 00000KT 3SM BR CLR M03/M04 A3024 570 92 -1500 000/00 RMK AO2 TWR VIS 4
14837KMSN MSN20071110080510811/10/07 08:05:31  5-MIN KMSN 101405Z 00000KT 3SM BR CLR M03/M04 A3024 570 92 -1400 000/00 RMK AO2 TWR VIS 4
14837KMSN MSN20071110081010811/10/07 08:10:31  5-MIN KMSN 101410Z 00000KT 3SM BR CLR M02/M04 A3024 570 88 -1300 000/00 RMK AO2 TWR VIS 4
14837KMSN MSN20071110081510811/10/07 08:15:31  5-MIN KMSN 101415Z 00000KT 3SM BR CLR M02/M04 A3024 570 88 -1300 000/00 RMK AO2 TWR VIS 4
14837KMSN MSN20071110082010811/10/07 08:20:31  5-MIN KMSN 101420Z 00000KT 3SM BR CLR M02/M03 A3024 570 92 -1300 000/00 RMK AO2 TWR VIS 4
14837KMSN MSN20071110082510811/10/07 08:25:31  5-MIN KMSN 101425Z 00000KT 3SM BR CLR M02/M03 A3024 570 92 -1200 000/00 RMK AO2 TWR VIS 4
14837KMSN MSN20071110083010811/10/07 08:30:31  5-MIN KMSN 101430Z 00000KT 3SM BR CLR M01/M03 A3024 570 88 -1200 000/00 RMK AO2 TWR VIS 4
14837KMSN MSN20071110083510811/10/07 08:35:31  5-MIN KMSN 101435Z 00000KT 3SM BR CLR M01/M02 A3024 570 92 -1200 000/00 RMK AO2 TWR VIS 4
14837KMSN MSN20071110084010811/10/07 08:40:31  5-MIN KMSN 101440Z 00000KT 3SM BR CLR M01/M02 A3024 570 88 -1100 000/00 RMK AO2 TWR VIS 4
14837KMSN MSN20071110084510811/10/07 08:45:31  5-MIN KMSN 101445Z 00000KT 3SM BR CLR M01/M02 A3024 570 88 -1100 000/00 RMK AO2 TWR VIS 4
14837KMSN MSN20071110085013111/10/07 08:50:31  5-MIN KMSN 101450Z 00000KT 3SM BR CLR M01/M02 A3024 570 92 -1100 000/00 RMK AO2 TWR VIS 4 SLP252 T10061017 53006
14837KMSN MSN20071110085510711/10/07 08:55:31  5-MIN KMSN 101455Z 00000KT 3SM BR CLR 00/M02 A3024 570 88 -1000 000/00 RMK AO2 TWR VIS 4
14837KMSN MSN20071110090010711/10/07 09:00:31  5-MIN KMSN 101500Z 00000KT 3SM BR CLR 01/M02 A3023 580 85 -1000 000/00 RMK AO2 TWR VIS 4
14837KMSN MSN20071110090510711/10/07 09:05:31  5-MIN KMSN 101505Z 00000KT 3SM BR CLR 01/M01 A3023 580 89 -1000 000/00 RMK AO2 TWR VIS 4
14837KMSN MSN20071110091010611/10/07 09:10:31  5-MIN KMSN 101510Z 00000KT 3SM BR CLR 01/M01 A3023 580 89 -900 000/00 RMK AO2 TWR VIS 4
14837KMSN MSN20071110091509611/10/07 09:15:31  5-MIN KMSN 101515Z 00000KT 4SM BR CLR 01/M01 A3024 570 89 -900 000/00 RMK AO2
14837KMSN MSN20071110092009611/10/07 09:20:31  5-MIN KMSN 101520Z 00000KT 4SM BR CLR 02/M01 A3023 580 85 -800 000/00 RMK AO2
14837KMSN MSN20071110092509611/10/07 09:25:31  5-MIN KMSN 101525Z 16004KT 4SM HZ CLR 02/M01 A3023 570 82 -800 160/04 RMK AO2
14837KMSN MSN20071110093009611/10/07 09:30:31  5-MIN KMSN 101530Z 18004KT 5SM HZ CLR 03/M01 A3023 580 79 -700 180/04 RMK AO2
14837KMSN MSN20071110093509611/10/07 09:35:31  5-MIN KMSN 101535Z 17005KT 5SM HZ CLR 03/M01 A3023 580 79 -700 170/05 RMK AO2
14837KMSN MSN20071110094009611/10/07 09:40:31  5-MIN KMSN 101540Z 19005KT 5SM HZ CLR 03/M01 A3023 580 79 -700 190/05 RMK AO2
14837KMSN MSN20071110094509611/10/07 09:45:31  5-MIN KMSN 101545Z 18005KT 5SM HZ CLR 03/M01 A3024 570 76 -600 180/05 RMK AO2
14837KMSN MSN20071110095011211/10/07 09:50:31  5-MIN KMSN 101550Z 18006KT 5SM HZ CLR 03/00 A3023 580 79 -600 180/06 RMK AO2 SLP247 T00330000
14837KMSN MSN20071110095509611/10/07 09:55:31  5-MIN KMSN 101555Z 19004KT 5SM HZ CLR 03/M01 A3024 570 76 -600 190/04 RMK AO2
14837KMSN MSN20071110100009511/10/07 10:00:31  5-MIN KMSN 101600Z 19004KT 5SM HZ CLR 03/00 A3024 570 79 -600 190/04 RMK AO2
14837KMSN MSN20071110100509511/10/07 10:05:31  5-MIN KMSN 101605Z 19005KT 5SM HZ CLR 03/00 A3024 570 79 -600 190/05 RMK AO2
14837KMSN MSN20071110101009511/10/07 10:10:31  5-MIN KMSN 101610Z 18006KT 5SM HZ CLR 04/00 A3024 570 76 -500 180/06 RMK AO2
14837KMSN MSN20071110101509511/10/07 10:15:31  5-MIN KMSN 101615Z 18005KT 5SM HZ CLR 04/00 A3024 570 76 -500 180/05 RMK AO2
14837KMSN MSN20071110102009511/10/07 10:20:31  5-MIN KMSN 101620Z 18007KT 5SM HZ CLR 04/00 A3023 580 76 -500 180/07 RMK AO2
14837KMSN MSN20071110102509611/10/07 10:25:31  5-MIN KMSN 101625Z 17006KT 5SM HZ CLR 04/M01 A3023 580 73 -500 170/06 RMK AO2
14837KMSN MSN20071110103009611/10/07 10:30:31  5-MIN KMSN 101630Z 18007KT 6SM HZ CLR 04/M01 A3023 580 73 -500 180/07 RMK AO2
14837KMSN MSN20071110103509611/10/07 10:35:31  5-MIN KMSN 101635Z 17007KT 6SM HZ CLR 04/M01 A3022 590 73 -500 170/07 RMK AO2
14837KMSN MSN20071110104009611/10/07 10:40:31  5-MIN KMSN 101640Z 18006KT 6SM HZ CLR 04/M01 A3023 580 70 -500 180/06 RMK AO2
14837KMSN MSN20071110104509611/10/07 10:45:31  5-MIN KMSN 101645Z 17007KT 6SM HZ CLR 04/M01 A3021 590 70 -500 170/07 RMK AO2
14837KMSN MSN20071110105011311/10/07 10:50:31  5-MIN KMSN 101650Z 18007KT 6SM HZ CLR 04/M01 A3021 600 67 -400 170/07 RMK AO2 SLP239 T00441011
14837KMSN MSN20071110105509611/10/07 10:55:31  5-MIN KMSN 101655Z 17009KT 6SM HZ CLR 05/M01 A3021 600 64 -400 170/09 RMK AO2
14837KMSN MSN20071110110009611/10/07 11:00:31  5-MIN KMSN 101700Z 18009KT 6SM HZ CLR 05/M02 A3021 600 62 -400 180/09 RMK AO2
14837KMSN MSN20071110110509611/10/07 11:05:31  5-MIN KMSN 101705Z 18008KT 6SM HZ CLR 04/M02 A3021 590 64 -400 180/08 RMK AO2
14837KMSN MSN20071110111009611/10/07 11:10:31  5-MIN KMSN 101710Z 17008KT 6SM HZ CLR 04/M01 A3021 600 67 -400 170/08 RMK AO2
14837KMSN MSN20071110111509611/10/07 11:15:31  5-MIN KMSN 101715Z 16009KT 6SM HZ CLR 05/M01 A3020 610 64 -400 160/09 RMK AO2
14837KMSN MSN20071110112009611/10/07 11:20:31  5-MIN KMSN 101720Z 17010KT 6SM HZ CLR 05/M01 A3020 610 64 -400 160/10 RMK AO2
14837KMSN MSN20071110112509611/10/07 11:25:31  5-MIN KMSN 101725Z 17007KT 6SM HZ CLR 05/M01 A3019 610 64 -400 170/07 RMK AO2
14837KMSN MSN20071110113009611/10/07 11:30:31  5-MIN KMSN 101730Z 17008KT 6SM HZ CLR 06/M01 A3019 620 62 -300 170/08 RMK AO2
14837KMSN MSN20071110113509611/10/07 11:35:31  5-MIN KMSN 101735Z 17009KT 6SM HZ CLR 06/M01 A3019 620 62 -300 170/09 RMK AO2
14837KMSN MSN20071110114009611/10/07 11:40:31  5-MIN KMSN 101740Z 16008KT 6SM HZ CLR 06/M01 A3018 620 62 -300 160/08 RMK AO2
14837KMSN MSN20071110114509611/10/07 11:45:31  5-MIN KMSN 101745Z 16008KT 6SM HZ CLR 06/M01 A3018 620 62 -300 160/08 RMK AO2
14837KMSN MSN20071110115013111/10/07 11:50:31  5-MIN KMSN 101750Z 17010KT 6SM HZ CLR 06/M02 A3018 620 59 -300 170/10 RMK AO2 SLP230 T00561017 10056 21061 50007
14837KMSN MSN20071110115509611/10/07 11:55:31  5-MIN KMSN 101755Z 18009KT 6SM HZ CLR 06/M01 A3018 620 62 -300 180/09 RMK AO2
14837KMSN MSN20071110120009611/10/07 12:00:31  5-MIN KMSN 101800Z 17012KT 6SM HZ CLR 06/M01 A3018 630 62 -300 170/12 RMK AO2
14837KMSN MSN20071110120509611/10/07 12:05:31  5-MIN KMSN 101805Z 18008KT 6SM HZ CLR 06/M01 A3018 630 60 -200 170/08 RMK AO2
14837KMSN MSN20071110121009611/10/07 12:10:31  5-MIN KMSN 101810Z 16011KT 6SM HZ CLR 06/M01 A3017 630 62 -200 160/11 RMK AO2
14837KMSN MSN20071110121509611/10/07 12:15:31  5-MIN KMSN 101815Z 17010KT 6SM HZ CLR 06/M01 A3017 640 60 -200 170/10 RMK AO2
14837KMSN MSN20071110122009611/10/07 12:20:31  5-MIN KMSN 101820Z 17011KT 6SM HZ CLR 06/M01 A3017 640 60 -200 170/11 RMK AO2
14837KMSN MSN20071110122509311/10/07 12:25:31  5-MIN KMSN 101825Z 19007KT 7SM CLR 06/M01 A3017 640 60 -200 190/07 RMK AO2
14837KMSN MSN20071110123009311/10/07 12:30:31  5-MIN KMSN 101830Z 18006KT 7SM CLR 07/M01 A3017 630 57 -100 180/06 RMK AO2
14837KMSN MSN20071110123509311/10/07 12:35:31  5-MIN KMSN 101835Z 18009KT 7SM CLR 07/M02 A3017 640 55 -100 180/09 RMK AO2
14837KMSN MSN20071110124009611/10/07 12:40:31  5-MIN KMSN 101840Z 19008KT 7SM FEW100 07/M02 A3017 640 55 -100 190/08 RMK AO2
14837KMSN MSN20071110124509611/10/07 12:45:31  5-MIN KMSN 101845Z 20006KT 7SM FEW100 07/M02 A3017 630 55 -100 200/06 RMK AO2
14837KMSN MSN20071110125011311/10/07 12:50:31  5-MIN KMSN 101850Z 17009KT 7SM FEW100 07/M02 A3017 640 55 -100 170/09 RMK AO2 SLP224 T00671017
14837KMSN MSN20071110125509611/10/07 12:55:31  5-MIN KMSN 101855Z 18007KT 7SM FEW100 07/M02 A3016 640 55 -100 180/07 RMK AO2
14837KMSN MSN20071110130009611/10/07 13:00:31  5-MIN KMSN 101900Z 18009KT 7SM FEW100 07/M02 A3016 640 55 -100 180/09 RMK AO2
14837KMSN MSN20071110130509611/10/07 13:05:31  5-MIN KMSN 101905Z 17010KT 7SM FEW100 07/M02 A3015 650 53 -100 170/10 RMK AO2
14837KMSN MSN20071110131010011/10/07 13:10:31  5-MIN KMSN 101910Z 18010KT 8SM CLR 07/M03 A3014 660 51 -100 180/10 RMK AO2 PRESFR
14837KMSN MSN20071110131509711/10/07 13:15:31  5-MIN KMSN 101915Z 18010KT 8SM CLR 07/M03 A3013 670 49 0 180/10 RMK AO2 PRESFR
14837KMSN MSN20071110132009011/10/07 13:20:31  5-MIN KMSN 101920Z 17010KT 8SM CLR 07/M03 A3013 670 49 0 170/10 RMK AO2
14837KMSN MSN20071110132509011/10/07 13:25:31  5-MIN KMSN 101925Z 18008KT 8SM CLR 07/M02 A3013 670 51 0 180/08 RMK AO2
14837KMSN MSN20071110133009011/10/07 13:30:31  5-MIN KMSN 101930Z 17012KT 8SM CLR 07/M02 A3013 670 51 0 170/12 RMK AO2
14837KMSN MSN20071110133509311/10/07 13:35:31  5-MIN KMSN 101935Z 16013KT 8SM FEW110 07/M03 A3012 680 49 0 160/13 RMK AO2
14837KMSN MSN20071110134009311/10/07 13:40:31  5-MIN KMSN 101940Z 17014KT 7SM FEW110 07/M02 A3012 680 51 0 170/14 RMK AO2
14837KMSN MSN20071110134509311/10/07 13:45:31  5-MIN KMSN 101945Z 18012KT 8SM FEW110 07/M02 A3011 690 51 0 180/12 RMK AO2
14837KMSN MSN20071110135011011/10/07 13:50:31  5-MIN KMSN 101950Z 18012KT 8SM FEW110 07/M03 A3010 690 49 0 180/12 RMK AO2 SLP203 T00721028
14837KMSN MSN20071110135509311/10/07 13:55:31  5-MIN KMSN 101955Z 17013KT 8SM FEW110 08/M03 A3010 700 47 0 170/13 RMK AO2
14837KMSN MSN20071110140009311/10/07 14:00:31  5-MIN KMSN 102000Z 17013KT 8SM FEW110 08/M03 A3010 700 47 0 170/13 RMK AO2
14837KMSN MSN20071110140509011/10/07 14:05:31  5-MIN KMSN 102005Z 17013KT 8SM CLR 08/M03 A3009 700 47 0 170/13 RMK AO2
14837KMSN MSN20071110141009011/10/07 14:10:31  5-MIN KMSN 102010Z 17011KT 8SM CLR 08/M02 A3010 700 49 0 170/11 RMK AO2
14837KMSN MSN20071110141509011/10/07 14:15:31  5-MIN KMSN 102015Z 18013KT 8SM CLR 08/M02 A3009 700 49 0 180/13 RMK AO2
14837KMSN MSN20071110142009011/10/07 14:20:31  5-MIN KMSN 102020Z 17013KT 8SM CLR 08/M02 A3009 710 49 0 170/13 RMK AO2
14837KMSN MSN20071110142509011/10/07 14:25:31  5-MIN KMSN 102025Z 19010KT 7SM CLR 07/M02 A3010 700 51 0 180/10 RMK AO2
14837KMSN MSN20071110143009011/10/07 14:30:31  5-MIN KMSN 102030Z 18010KT 7SM CLR 07/M02 A3010 700 51 0 180/10 RMK AO2
14837KMSN MSN20071110143509011/10/07 14:35:31  5-MIN KMSN 102035Z 18011KT 7SM CLR 07/M02 A3009 710 51 0 180/11 RMK AO2
14837KMSN MSN20071110144009011/10/07 14:40:31  5-MIN KMSN 102040Z 17012KT 7SM CLR 07/M02 A3009 710 51 0 170/12 RMK AO2
14837KMSN MSN20071110144509011/10/07 14:45:31  5-MIN KMSN 102045Z 17010KT 7SM CLR 07/M02 A3009 710 53 0 170/10 RMK AO2
14837KMSN MSN20071110145011311/10/07 14:50:31  5-MIN KMSN 102050Z 18011KT 7SM CLR 07/M02 A3009 710 51 0 180/11 RMK AO2 SLP197 T00721022 58019
14837KMSN MSN20071110145509011/10/07 14:55:31  5-MIN KMSN 102055Z 19009KT 7SM CLR 07/M02 A3009 710 51 0 190/09 RMK AO2
14837KMSN MSN20071110150009011/10/07 15:00:31  5-MIN KMSN 102100Z 19009KT 7SM CLR 07/M02 A3009 710 51 0 190/09 RMK AO2
14837KMSN MSN20071110150509011/10/07 15:05:31  5-MIN KMSN 102105Z 19011KT 7SM CLR 07/M03 A3009 710 49 0 190/11 RMK AO2
14837KMSN MSN20071110151009011/10/07 15:10:31  5-MIN KMSN 102110Z 19010KT 7SM CLR 07/M02 A3009 710 51 0 190/10 RMK AO2
14837KMSN MSN20071110151509011/10/07 15:15:31  5-MIN KMSN 102115Z 18009KT 7SM CLR 07/M02 A3009 710 51 0 180/09 RMK AO2
14837KMSN MSN20071110152009011/10/07 15:20:31  5-MIN KMSN 102120Z 18009KT 7SM CLR 07/M02 A3009 710 51 0 180/09 RMK AO2
14837KMSN MSN20071110152509011/10/07 15:25:31  5-MIN KMSN 102125Z 18009KT 7SM CLR 07/M02 A3009 710 51 0 180/09 RMK AO2
14837KMSN MSN20071110153009011/10/07 15:30:31  5-MIN KMSN 102130Z 17009KT 7SM CLR 07/M02 A3008 710 51 0 170/09 RMK AO2
14837KMSN MSN20071110153509311/10/07 15:35:31  5-MIN KMSN 102135Z 17011KT 7SM FEW120 07/M02 A3007 720 53 0 160/11 RMK AO2
14837KMSN MSN20071110154010711/10/07 15:40:31  5-MIN KMSN 102140Z 16009KT 7SM FEW100 SCT110 07/M02 A3006 730 55 0 160/09 RMK AO2 PRESFR
14837KMSN MSN20071110154510011/10/07 15:45:31  5-MIN KMSN 102145Z 16009KT 7SM FEW075 SCT110 07/M02 A3006 730 53 0 160/09 RMK AO2
14837KMSN MSN20071110155011711/10/07 15:50:31  5-MIN KMSN 102150Z 16011KT 7SM FEW075 SCT110 07/M02 A3006 740 53 0 160/11 RMK AO2 SLP186 T00721017
14837KMSN MSN20071110155509311/10/07 15:55:31  5-MIN KMSN 102155Z 16010KT 7SM FEW110 07/M02 A3005 740 55 0 160/10 RMK AO2
14837KMSN MSN20071110160009611/10/07 16:00:31  5-MIN KMSN 102200Z 16008KT 6SM HZ FEW110 07/M02 A3005 740 55 0 160/08 RMK AO2
14837KMSN MSN20071110160509611/10/07 16:05:31  5-MIN KMSN 102205Z 15010KT 6SM HZ FEW100 07/M02 A3005 750 55 0 150/10 RMK AO2
14837KMSN MSN20071110161009011/10/07 16:10:31  5-MIN KMSN 102210Z 16008KT 7SM CLR 07/M02 A3005 750 53 0 160/08 RMK AO2
14837KMSN MSN20071110161509011/10/07 16:15:31  5-MIN KMSN 102215Z 16007KT 7SM CLR 07/M02 A3005 750 55 0 160/07 RMK AO2
14837KMSN MSN20071110162009011/10/07 16:20:31  5-MIN KMSN 102220Z 17007KT 7SM CLR 07/M02 A3005 740 55 0 170/07 RMK AO2
14837KMSN MSN20071110162509011/10/07 16:25:31  5-MIN KMSN 102225Z 15009KT 7SM CLR 07/M02 A3004 750 55 0 150/09 RMK AO2
14837KMSN MSN20071110163009011/10/07 16:30:31  5-MIN KMSN 102230Z 16008KT 7SM CLR 07/M02 A3004 750 53 0 150/08 RMK AO2
14837KMSN MSN20071110163509011/10/07 16:35:31  5-MIN KMSN 102235Z 15009KT 7SM CLR 07/M02 A3004 750 55 0 150/09 RMK AO2
14837KMSN MSN20071110164009011/10/07 16:40:31  5-MIN KMSN 102240Z 16008KT 7SM CLR 07/M02 A3004 760 55 0 160/08 RMK AO2
14837KMSN MSN20071110164509011/10/07 16:45:31  5-MIN KMSN 102245Z 15007KT 7SM CLR 07/M02 A3003 760 55 0 150/07 RMK AO2
14837KMSN MSN20071110165010711/10/07 16:50:31  5-MIN KMSN 102250Z 15007KT 8SM CLR 07/M02 A3003 760 55 0 150/07 RMK AO2 SLP178 T00671017
14837KMSN MSN20071110165509011/10/07 16:55:31  5-MIN KMSN 102255Z 16009KT 8SM CLR 07/M02 A3004 760 53 0 160/09 RMK AO2
14837KMSN MSN20071110170009011/10/07 17:00:31  5-MIN KMSN 102300Z 16007KT 8SM CLR 07/M02 A3004 760 55 0 160/07 RMK AO2
14837KMSN MSN20071110170509011/10/07 17:05:31  5-MIN KMSN 102305Z 16008KT 8SM CLR 07/M02 A3003 760 55 0 160/08 RMK AO2
14837KMSN MSN20071110171009011/10/07 17:10:31  5-MIN KMSN 102310Z 16007KT 8SM CLR 07/M02 A3004 760 53 0 160/07 RMK AO2
14837KMSN MSN20071110171509011/10/07 17:15:31  5-MIN KMSN 102315Z 15008KT 8SM CLR 07/M02 A3004 760 55 0 150/08 RMK AO2
14837KMSN MSN20071110172009011/10/07 17:20:31  5-MIN KMSN 102320Z 14007KT 8SM CLR 07/M02 A3004 760 55 0 140/07 RMK AO2
14837KMSN MSN20071110172509011/10/07 17:25:31  5-MIN KMSN 102325Z 15007KT 8SM CLR 07/M02 A3004 760 53 0 150/07 RMK AO2
14837KMSN MSN20071110173009011/10/07 17:30:31  5-MIN KMSN 102330Z 16007KT 8SM CLR 07/M02 A3003 760 53 0 150/07 RMK AO2
14837KMSN MSN20071110173509011/10/07 17:35:31  5-MIN KMSN 102335Z 14009KT 8SM CLR 07/M02 A3003 770 53 0 140/09 RMK AO2
14837KMSN MSN20071110174009011/10/07 17:40:31  5-MIN KMSN 102340Z 15009KT 8SM CLR 07/M02 A3003 770 53 0 150/09 RMK AO2
14837KMSN MSN20071110174509011/10/07 17:45:31  5-MIN KMSN 102345Z 14007KT 8SM CLR 06/M02 A3002 770 55 0 140/07 RMK AO2
14837KMSN MSN20071110175012511/10/07 17:50:31  5-MIN KMSN 102350Z 14008KT 8SM CLR 06/M02 A3002 770 55 0 140/08 RMK AO2 SLP177 T00611022 10078 20056 56031
14837KMSN MSN20071110175509011/10/07 17:55:31  5-MIN KMSN 102355Z 14008KT 8SM CLR 06/M02 A3002 770 55 0 140/08 RMK AO2
14837KMSN MSN20071110180009011/10/07 18:00:31  5-MIN KMSN 110000Z 14007KT 8SM CLR 06/M02 A3003 770 55 0 140/07 RMK AO2
14837KMSN MSN20071110180509011/10/07 18:05:31  5-MIN KMSN 110005Z 15008KT 8SM CLR 06/M02 A3003 760 55 0 150/08 RMK AO2
14837KMSN MSN20071110181009011/10/07 18:10:31  5-MIN KMSN 110010Z 15007KT 8SM CLR 06/M02 A3003 770 55 0 150/07 RMK AO2
14837KMSN MSN20071110181509011/10/07 18:15:31  5-MIN KMSN 110015Z 15007KT 8SM CLR 06/M02 A3002 770 55 0 150/07 RMK AO2
14837KMSN MSN20071110182009011/10/07 18:20:31  5-MIN KMSN 110020Z 15009KT 8SM CLR 06/M02 A3003 770 55 0 140/09 RMK AO2
14837KMSN MSN20071110182509011/10/07 18:25:31  5-MIN KMSN 110025Z 14007KT 8SM CLR 06/M02 A3002 770 55 0 140/07 RMK AO2
14837KMSN MSN20071110183009311/10/07 18:30:31  5-MIN KMSN 110030Z 14007KT 8SM CLR 06/M02 A3002 770 57 -100 140/07 RMK AO2
14837KMSN MSN20071110183509311/10/07 18:35:31  5-MIN KMSN 110035Z 14009KT 8SM CLR 05/M02 A3002 770 59 -200 140/09 RMK AO2
14837KMSN MSN20071110184009311/10/07 18:40:31  5-MIN KMSN 110040Z 14008KT 8SM CLR 06/M02 A3002 780 57 -100 140/08 RMK AO2
14837KMSN MSN20071110184509311/10/07 18:45:31  5-MIN KMSN 110045Z 14008KT 8SM CLR 06/M02 A3002 780 57 -100 140/08 RMK AO2
14837KMSN MSN20071110185011011/10/07 18:50:31  5-MIN KMSN 110050Z 15006KT 8SM CLR 06/M02 A3002 780 57 -100 150/06 RMK AO2 SLP174 T00561022
14837KMSN MSN20071110185509311/10/07 18:55:31  5-MIN KMSN 110055Z 15006KT 8SM CLR 05/M02 A3002 770 59 -200 140/06 RMK AO2
14837KMSN MSN20071110190009311/10/07 19:00:31  5-MIN KMSN 110100Z 14005KT 7SM CLR 05/M02 A3002 770 59 -200 140/05 RMK AO2
14837KMSN MSN20071110190509311/10/07 19:05:31  5-MIN KMSN 110105Z 13005KT 7SM CLR 04/M02 A3002 770 62 -200 130/05 RMK AO2
14837KMSN MSN20071110191009311/10/07 19:10:31  5-MIN KMSN 110110Z 13006KT 7SM CLR 04/M02 A3002 770 62 -200 130/06 RMK AO2
14837KMSN MSN20071110191509311/10/07 19:15:31  5-MIN KMSN 110115Z 12005KT 7SM CLR 04/M02 A3002 770 67 -300 120/05 RMK AO2
14837KMSN MSN20071110192009311/10/07 19:20:31  5-MIN KMSN 110120Z 12005KT 7SM CLR 03/M02 A3002 780 67 -400 120/05 RMK AO2
14837KMSN MSN20071110192509311/10/07 19:25:31  5-MIN KMSN 110125Z 12005KT 7SM CLR 03/M02 A3002 780 70 -400 120/05 RMK AO2
14837KMSN MSN20071110193009311/10/07 19:30:31  5-MIN KMSN 110130Z 13006KT 7SM CLR 03/M02 A3001 780 70 -400 130/06 RMK AO2
14837KMSN MSN20071110193509311/10/07 19:35:31  5-MIN KMSN 110135Z 13006KT 7SM CLR 03/M02 A3001 780 70 -400 130/06 RMK AO2
14837KMSN MSN20071110194009311/10/07 19:40:31  5-MIN KMSN 110140Z 13006KT 7SM CLR 03/M02 A3001 780 70 -400 130/06 RMK AO2
14837KMSN MSN20071110194509311/10/07 19:45:31  5-MIN KMSN 110145Z 13006KT 7SM CLR 03/M01 A3000 790 72 -300 130/06 RMK AO2
14837KMSN MSN20071110195011011/10/07 19:50:31  5-MIN KMSN 110150Z 13005KT 7SM CLR 04/M01 A3001 790 70 -300 130/05 RMK AO2 SLP170 T00391011
14837KMSN MSN20071110195509311/10/07 19:55:31  5-MIN KMSN 110155Z 13007KT 7SM CLR 04/M01 A3000 790 67 -200 130/07 RMK AO2
14837KMSN MSN20071110200009311/10/07 20:00:31  5-MIN KMSN 110200Z 13006KT 7SM CLR 05/M01 A3001 780 67 -100 130/06 RMK AO2
14837KMSN MSN20071110200509311/10/07 20:05:31  5-MIN KMSN 110205Z 12005KT 7SM CLR 05/M01 A3001 780 67 -200 120/05 RMK AO2
14837KMSN MSN20071110201009611/10/07 20:10:31  5-MIN KMSN 110210Z 12005KT 7SM FEW120 05/M01 A3002 780 67 -200 120/05 RMK AO2
14837KMSN MSN20071110201509611/10/07 20:15:31  5-MIN KMSN 110215Z 12008KT 7SM SCT120 05/M01 A3001 780 67 -200 120/08 RMK AO2
14837KMSN MSN20071110202010211/10/07 20:20:31  5-MIN KMSN 110220Z 13008KT 7SM FEW080 SCT120 05/00 A3001 780 70 -100 130/08 RMK AO2
14837KMSN MSN20071110202510211/10/07 20:25:31  5-MIN KMSN 110225Z 13008KT 7SM FEW080 BKN120 05/00 A3000 790 70 -100 130/08 RMK AO2
14837KMSN MSN20071110203010511/10/07 20:30:31  5-MIN KMSN 110230Z 13008KT 6SM HZ FEW080 BKN120 06/00 A3001 780 67 -100 130/08 RMK AO2
14837KMSN MSN20071110203510511/10/07 20:35:31  5-MIN KMSN 110235Z 14006KT 6SM HZ SCT080 BKN120 06/00 A3001 780 67 -100 140/06 RMK AO2
14837KMSN MSN20071110204010511/10/07 20:40:31  5-MIN KMSN 110240Z 15008KT 6SM HZ SCT080 BKN120 06/00 A3001 780 67 -100 150/08 RMK AO2
14837KMSN MSN20071110204510511/10/07 20:45:31  5-MIN KMSN 110245Z 15009KT 6SM HZ SCT080 BKN120 06/00 A3001 780 67 -100 150/09 RMK AO2
14837KMSN MSN20071110205012811/10/07 20:50:31  5-MIN KMSN 110250Z 15009KT 6SM HZ SCT080 BKN120 06/00 A3001 780 67 -100 150/09 RMK AO2 SLP169 T00560000 56021
14837KMSN MSN20071110205510211/10/07 20:55:31  5-MIN KMSN 110255Z 15009KT 7SM BKN080 BKN120 06/00 A3001 780 67 -100 150/09 RMK AO2
14837KMSN MSN20071110210010211/10/07 21:00:31  5-MIN KMSN 110300Z 15009KT 7SM BKN080 BKN120 06/00 A3001 790 67 -100 150/09 RMK AO2
14837KMSN MSN20071110210509911/10/07 21:05:31  5-MIN KMSN 110305Z 16011KT 7SM BKN080 BKN120 06/00 A3000 790 65 0 160/11 RMK AO2
14837KMSN MSN20071110211009911/10/07 21:10:31  5-MIN KMSN 110310Z 15011KT 7SM BKN080 OVC120 06/00 A3000 790 65 0 150/11 RMK AO2
14837KMSN MSN20071110211509911/10/07 21:15:31  5-MIN KMSN 110315Z 16011KT 7SM BKN080 BKN120 06/00 A3000 790 65 0 160/11 RMK AO2
14837KMSN MSN20071110212009911/10/07 21:20:31  5-MIN KMSN 110320Z 16013KT 7SM BKN080 OVC120 06/00 A2999 800 65 0 150/13 RMK AO2
14837KMSN MSN20071110212509911/10/07 21:25:31  5-MIN KMSN 110325Z 15013KT 7SM BKN080 BKN120 06/00 A2999 800 65 0 150/13 RMK AO2
14837KMSN MSN20071110213009911/10/07 21:30:31  5-MIN KMSN 110330Z 14013KT 7SM SCT080 BKN120 06/01 A2998 810 67 0 140/13 RMK AO2
14837KMSN MSN20071110213509911/10/07 21:35:31  5-MIN KMSN 110335Z 15012KT 7SM SCT080 BKN120 06/01 A2998 810 67 0 150/12 RMK AO2
14837KMSN MSN20071110214010511/10/07 21:40:31  5-MIN KMSN 110340Z 15013G21KT 7SM FEW080 BKN120 06/01 A2997 820 67 0 150/13G21 RMK AO2
14837KMSN MSN20071110214510511/10/07 21:45:31  5-MIN KMSN 110345Z 15014G21KT 7SM FEW080 SCT120 06/01 A2997 820 67 0 150/14G21 RMK AO2
14837KMSN MSN20071110215010911/10/07 21:50:31  5-MIN KMSN 110350Z 15013KT 7SM SCT120 06/01 A2997 820 67 0 150/13 RMK AO2 SLP155 T00610006
14837KMSN MSN20071110215509911/10/07 21:55:31  5-MIN KMSN 110355Z 15011KT 7SM FEW070 SCT120 07/01 A2997 820 65 0 150/11 RMK AO2
14837KMSN MSN20071110220010611/10/07 22:00:31  5-MIN KMSN 110400Z 15013KT 7SM SCT060 SCT070 BKN120 07/01 A2997 820 65 0 150/13 RMK AO2
14837KMSN MSN20071110220509911/10/07 22:05:31  5-MIN KMSN 110405Z 15012KT 7SM BKN060 BKN120 07/01 A2997 810 65 0 150/12 RMK AO2
14837KMSN MSN20071110221009911/10/07 22:10:31  5-MIN KMSN 110410Z 15012KT 7SM BKN060 BKN120 07/01 A2998 810 65 0 150/12 RMK AO2
14837KMSN MSN20071110221510611/10/07 22:15:31  5-MIN KMSN 110415Z 16013KT 7SM BKN060 BKN075 OVC120 07/01 A2998 810 65 0 160/13 RMK AO2
14837KMSN MSN20071110222010611/10/07 22:20:31  5-MIN KMSN 110420Z 16013KT 7SM BKN060 BKN075 OVC090 07/01 A2997 820 65 0 160/13 RMK AO2
14837KMSN MSN20071110222510111/10/07 22:25:31  5-MIN KMSN 110425Z 16015KT 7SM BKN060 OVC085 07/01 A2997 820 65 100 160/15 RMK AO2
14837KMSN MSN20071110223010111/10/07 22:30:31  5-MIN KMSN 110430Z 16013KT 7SM BKN060 OVC085 07/01 A2996 820 65 100 160/13 RMK AO2
14837KMSN MSN20071110223510111/10/07 22:35:31  5-MIN KMSN 110435Z 16015KT 7SM BKN060 OVC085 07/01 A2996 830 65 100 160/15 RMK AO2
14837KMSN MSN20071110224009411/10/07 22:40:31  5-MIN KMSN 110440Z 16013KT 7SM OVC060 07/01 A2996 830 65 100 160/13 RMK AO2
14837KMSN MSN20071110224509411/10/07 22:45:31  5-MIN KMSN 110445Z 15012KT 7SM OVC060 07/00 A2996 830 62 100 150/12 RMK AO2
14837KMSN MSN20071110225011711/10/07 22:50:31  5-MIN KMSN 110450Z 16014G20KT 7SM OVC060 07/00 A2996 830 62 100 160/14G20 RMK AO2 SLP150 T00670000
14837KMSN MSN20071110225509411/10/07 22:55:31  5-MIN KMSN 110455Z 16011KT 7SM OVC060 07/00 A2995 830 60 100 150/11 RMK AO2
14837KMSN MSN20071110230009411/10/07 23:00:31  5-MIN KMSN 110500Z 16014KT 7SM OVC055 07/00 A2996 830 60 100 160/14 RMK AO2
14837KMSN MSN20071110230509411/10/07 23:05:31  5-MIN KMSN 110505Z 16012KT 7SM OVC055 07/00 A2995 830 60 100 150/12 RMK AO2
14837KMSN MSN20071110231011611/10/07 23:10:31  5-MIN KMSN 110510Z 16013G19KT 7SM -RA OVC055 07/01 A2996 830 62 100 160/13G19 RMK AO2 RAB07 P0000
14837KMSN MSN20071110231511011/10/07 23:15:31  5-MIN KMSN 110515Z 16014KT 7SM -RA OVC055 07/01 A2996 830 62 100 160/14 RMK AO2 RAB07 P0000
14837KMSN MSN20071110232010911/10/07 23:20:31  5-MIN KMSN 110520Z 17010KT 7SM OVC055 07/01 A2996 830 62 100 170/10 RMK AO2 RAB07E16 P0000
14837KMSN MSN20071110232511511/10/07 23:25:31  5-MIN KMSN 110525Z 17016G19KT 7SM OVC055 07/01 A2996 830 62 100 170/16G19 RMK AO2 RAB07E16 P0000
14837KMSN MSN20071110233011011/10/07 23:30:31  5-MIN KMSN 110530Z 17013KT 6SM -RA OVC055 07/01 A2996 830 67 100 170/13 RMK AO2 RAB07 P0000
14837KMSN MSN20071110233510711/10/07 23:35:31  5-MIN KMSN 110535Z 16013KT 4SM RA OVC055 06/02 A2996 830 73 0 160/13 RMK AO2 RAB07 P0001
14837KMSN MSN20071110234010811/10/07 23:40:31  5-MIN KMSN 110540Z 16013KT 5SM -RA OVC055 06/02 A2996 830 73 0 160/13 RMK AO2 RAB07 P0002
14837KMSN MSN20071110234511411/10/07 23:45:31  5-MIN KMSN 110545Z 16010G19KT 6SM -RA OVC055 06/02 A2995 830 73 0 160/10G19 RMK AO2 RAB07 P0002
14837KMSN MSN20071110235016611/10/07 23:50:31  5-MIN KMSN 110550Z 15009KT 6SM -RA FEW047 OVC055 06/02 A2995 830 73 0 150/09 RMK AO2 RAB07 SLP148 P0002 60002 T00610017 10072 20033 400781061 55006
14837KMSN MSN20071110235510911/10/07 23:55:31  5-MIN KMSN 110555Z 16007KT 5SM -RA BKN043 OVC055 06/02 A2995 840 76 0 160/07 RMK AO2 P0000
14837KMSN MSN20071111000011611/11/07 00:00:32  5-MIN KMSN 110600Z 15008KT 5SM -RA BKN038 BKN048 OVC060 06/02 A2995 830 76 0 150/08 RMK AO2 P0000
14837KMSN MSN20071111000511611/11/07 00:05:31  5-MIN KMSN 110605Z 16007KT 7SM -RA SCT036 BKN044 OVC055 06/02 A2995 840 76 0 150/07 RMK AO2 P0000
14837KMSN MSN20071111001010911/11/07 00:10:31  5-MIN KMSN 110610Z 15008KT 7SM -RA FEW036 OVC044 06/02 A2995 840 76 0 150/08 RMK AO2 P0000
14837KMSN MSN20071111001510411/11/07 00:15:31  5-MIN KMSN 110615Z 15007KT 7SM OVC044 06/02 A2995 840 76 0 150/07 RMK AO2 RAE12 P0000
14837KMSN MSN20071111002011411/11/07 00:20:31  5-MIN KMSN 110620Z 14008KT 6SM HZ SCT038 OVC044 06/02 A2995 840 76 0 140/08 RMK AO2 RAE12 P0000
14837KMSN MSN20071111002511411/11/07 00:25:31  5-MIN KMSN 110625Z 14008KT 6SM HZ FEW035 OVC044 06/02 A2995 840 76 0 140/08 RMK AO2 RAE12 P0000
14837KMSN MSN20071111003010711/11/07 00:30:31  5-MIN KMSN 110630Z 14006KT 6SM HZ OVC044 06/02 A2995 840 73 0 140/06 RMK AO2 RAE12 P0000
14837KMSN MSN20071111003510411/11/07 00:35:31  5-MIN KMSN 110635Z 14006KT 6SM OVC046 06/02 A2995 840 73 0 140/06 RMK AO2 RAE12 P0000
14837KMSN MSN20071111004011111/11/07 00:40:31  5-MIN KMSN 110640Z 14009KT 6SM -RA OVC046 06/02 A2994 840 76 0 140/09 RMK AO2 RAE12B36 P0000
14837KMSN MSN20071111004511011/11/07 00:45:31  5-MIN KMSN 110645Z 14008KT 7SM OVC046 06/02 A2994 850 73 0 140/08 RMK AO2 RAE12B36E42 P0000
14837KMSN MSN20071111005012711/11/07 00:50:31  5-MIN KMSN 110650Z 14009KT 7SM OVC046 06/02 A2994 850 73 0 140/09 RMK AO2 RAE12B36E42 SLP143 P0000 T00610017
14837KMSN MSN20071111005509511/11/07 00:55:31  5-MIN KMSN 110655Z 14009KT 6SM HZ OVC046 06/02 A2993 850 73 0 140/09 RMK AO2
14837KMSN MSN20071111010009711/11/07 01:00:31  5-MIN KMSN 110700Z 14009KT 6SM HZ OVC046 07/02 A2993 850 70 100 140/09 RMK AO2
14837KMSN MSN20071111010509411/11/07 01:05:31  5-MIN KMSN 110705Z 15009KT 7SM OVC048 07/02 A2993 860 70 100 150/09 RMK AO2
14837KMSN MSN20071111011009411/11/07 01:10:31  5-MIN KMSN 110710Z 15009KT 7SM OVC048 07/02 A2993 860 70 100 150/09 RMK AO2
14837KMSN MSN20071111011509411/11/07 01:15:31  5-MIN KMSN 110715Z 16009KT 7SM OVC048 07/02 A2993 860 70 100 150/09 RMK AO2
14837KMSN MSN20071111012009411/11/07 01:20:31  5-MIN KMSN 110720Z 15010KT 7SM OVC048 07/02 A2992 860 70 100 150/10 RMK AO2
14837KMSN MSN20071111012509411/11/07 01:25:31  5-MIN KMSN 110725Z 16009KT 7SM OVC048 07/02 A2992 860 70 100 150/09 RMK AO2
14837KMSN MSN20071111013009411/11/07 01:30:31  5-MIN KMSN 110730Z 16009KT 7SM OVC048 07/02 A2992 860 70 100 160/09 RMK AO2
14837KMSN MSN20071111013509411/11/07 01:35:31  5-MIN KMSN 110735Z 16009KT 7SM OVC048 07/02 A2992 860 70 100 160/09 RMK AO2
14837KMSN MSN20071111014009411/11/07 01:40:31  5-MIN KMSN 110740Z 16009KT 7SM OVC048 07/02 A2993 860 70 100 160/09 RMK AO2
14837KMSN MSN20071111014509711/11/07 01:45:31  5-MIN KMSN 110745Z 16009KT 6SM HZ OVC046 07/02 A2993 860 70 100 160/09 RMK AO2
14837KMSN MSN20071111015011411/11/07 01:50:31  5-MIN KMSN 110750Z 16010KT 6SM HZ OVC044 07/02 A2992 860 70 100 160/10 RMK AO2 SLP138 T00670017
14837KMSN MSN20071111015510411/11/07 01:55:31  5-MIN KMSN 110755Z 16011KT 6SM HZ BKN039 OVC046 07/02 A2992 860 70 100 160/11 RMK AO2
14837KMSN MSN20071111020010411/11/07 02:00:31  5-MIN KMSN 110800Z 16010KT 6SM HZ BKN037 OVC046 07/02 A2992 860 70 100 160/10 RMK AO2
14837KMSN MSN20071111020510411/11/07 02:05:31  5-MIN KMSN 110805Z 18010KT 6SM HZ BKN034 OVC044 07/02 A2993 860 70 100 170/10 RMK AO2
14837KMSN MSN20071111021009711/11/07 02:10:31  5-MIN KMSN 110810Z 16009KT 6SM HZ OVC034 07/02 A2992 860 70 100 160/09 RMK AO2
14837KMSN MSN20071111021509711/11/07 02:15:31  5-MIN KMSN 110815Z 17009KT 6SM HZ OVC032 07/02 A2992 860 70 100 170/09 RMK AO2
14837KMSN MSN20071111022011011/11/07 02:20:31  5-MIN KMSN 110820Z 17013KT 6SM -DZ OVC032 07/02 A2992 860 70 100 170/13 RMK AO2 DZB19 P0000
14837KMSN MSN20071111022511711/11/07 02:25:31  5-MIN KMSN 110825Z 17013KT 6SM -DZ BKN029 OVC034 07/02 A2992 870 70 100 170/13 RMK AO2 DZB19 P0000
14837KMSN MSN20071111023011011/11/07 02:30:31  5-MIN KMSN 110830Z 17012KT 6SM -DZ OVC029 07/02 A2991 870 70 100 170/12 RMK AO2 DZB19 P0000
14837KMSN MSN20071111023511211/11/07 02:35:31  5-MIN KMSN 110835Z 17014KT 6SM HZ OVC031 07/02 A2991 880 73 100 170/14 RMK AO2 DZB19E35 P0000
14837KMSN MSN20071111024011911/11/07 02:40:31  5-MIN KMSN 110840Z 17012KT 6SM HZ BKN031 OVC038 07/02 A2990 880 73 100 160/12 RMK AO2 DZB19E35 P0000
14837KMSN MSN20071111024511911/11/07 02:45:31  5-MIN KMSN 110845Z 16012KT 6SM HZ BKN031 OVC038 07/02 A2990 880 73 100 160/12 RMK AO2 DZB19E35 P0000
14837KMSN MSN20071111025014811/11/07 02:50:31  5-MIN KMSN 110850Z 16010KT 6SM HZ SCT031 OVC038 07/02 A2990 880 73 100 160/10 RMK AO2 DZB19E35 SLP130 P0000 60000 T00670022 56018
14837KMSN MSN20071111025510411/11/07 02:55:31  5-MIN KMSN 110855Z 17011KT 6SM HZ FEW031 OVC040 07/02 A2990 880 73 100 170/11 RMK AO2
14837KMSN MSN20071111030010311/11/07 03:00:31  5-MIN KMSN 110900Z 17013G19KT 6SM HZ OVC040 07/02 A2990 880 73 100 170/13G19 RMK AO2
14837KMSN MSN20071111030510311/11/07 03:05:31  5-MIN KMSN 110905Z 17012G19KT 6SM HZ OVC042 07/02 A2990 890 73 100 170/12G19 RMK AO2
14837KMSN MSN20071111031010411/11/07 03:10:31  5-MIN KMSN 110910Z 17009KT 6SM HZ BKN039 OVC046 07/02 A2990 890 73 100 170/09 RMK AO2
14837KMSN MSN20071111031509711/11/07 03:15:31  5-MIN KMSN 110915Z 17009KT 6SM HZ OVC041 07/02 A2989 890 73 100 160/09 RMK AO2
14837KMSN MSN20071111032010411/11/07 03:20:31  5-MIN KMSN 110920Z 16011KT 6SM HZ BKN039 OVC046 07/02 A2989 890 73 100 160/11 RMK AO2
14837KMSN MSN20071111032510411/11/07 03:25:31  5-MIN KMSN 110925Z 16009KT 6SM HZ BKN039 OVC046 07/02 A2989 890 73 100 160/09 RMK AO2
14837KMSN MSN20071111033009711/11/07 03:30:31  5-MIN KMSN 110930Z 16010KT 6SM HZ OVC041 07/02 A2989 890 73 100 160/10 RMK AO2
14837KMSN MSN20071111033509711/11/07 03:35:31  5-MIN KMSN 110935Z 17010KT 6SM HZ OVC041 07/02 A2989 890 73 100 160/10 RMK AO2
14837KMSN MSN20071111034009711/11/07 03:40:31  5-MIN KMSN 110940Z 16013KT 6SM HZ OVC041 07/02 A2989 890 73 100 160/13 RMK AO2
14837KMSN MSN20071111034509711/11/07 03:45:31  5-MIN KMSN 110945Z 16011KT 6SM HZ OVC041 07/02 A2989 890 73 100 160/11 RMK AO2
14837KMSN MSN20071111035011411/11/07 03:50:31  5-MIN KMSN 110950Z 16012KT 6SM HZ OVC041 07/02 A2989 890 73 100 160/12 RMK AO2 SLP126 T00670022
14837KMSN MSN20071111035509711/11/07 03:55:31  5-MIN KMSN 110955Z 16013KT 6SM HZ OVC043 07/02 A2989 890 73 100 160/13 RMK AO2
14837KMSN MSN20071111040009711/11/07 04:00:31  5-MIN KMSN 111000Z 16015KT 6SM HZ OVC043 07/02 A2989 890 73 100 160/15 RMK AO2
14837KMSN MSN20071111040509711/11/07 04:05:31  5-MIN KMSN 111005Z 17012KT 6SM HZ OVC043 07/02 A2989 900 73 100 170/12 RMK AO2
14837KMSN MSN20071111041009711/11/07 04:10:31  5-MIN KMSN 111010Z 16011KT 6SM HZ OVC045 07/02 A2989 900 73 100 160/11 RMK AO2
14837KMSN MSN20071111041509711/11/07 04:15:31  5-MIN KMSN 111015Z 16012KT 6SM HZ OVC045 07/02 A2989 900 73 100 160/12 RMK AO2
14837KMSN MSN20071111042009711/11/07 04:20:31  5-MIN KMSN 111020Z 16011KT 6SM HZ OVC045 07/02 A2989 900 73 100 160/11 RMK AO2
14837KMSN MSN20071111042509711/11/07 04:25:31  5-MIN KMSN 111025Z 15010KT 6SM HZ OVC045 07/02 A2989 900 73 100 150/10 RMK AO2
14837KMSN MSN20071111043009711/11/07 04:30:31  5-MIN KMSN 111030Z 15010KT 6SM HZ OVC045 07/02 A2988 900 73 100 150/10 RMK AO2
14837KMSN MSN20071111043509711/11/07 04:35:31  5-MIN KMSN 111035Z 15011KT 6SM HZ OVC045 07/02 A2988 900 73 100 150/11 RMK AO2
14837KMSN MSN20071111044009711/11/07 04:40:31  5-MIN KMSN 111040Z 16009KT 6SM HZ OVC045 06/02 A2989 900 76 100 160/09 RMK AO2
14837KMSN MSN20071111044509711/11/07 04:45:31  5-MIN KMSN 111045Z 15010KT 5SM HZ OVC045 06/02 A2989 890 76 100 150/10 RMK AO2
14837KMSN MSN20071111045011411/11/07 04:50:31  5-MIN KMSN 111050Z 15009KT 6SM HZ OVC045 06/02 A2989 890 76 100 150/09 RMK AO2 SLP127 T00610022
14837KMSN MSN20071111045509711/11/07 04:55:31  5-MIN KMSN 111055Z 16009KT 5SM HZ OVC045 06/02 A2989 890 76 100 160/09 RMK AO2
14837KMSN MSN20071111050009711/11/07 05:00:31  5-MIN KMSN 111100Z 16011KT 5SM HZ OVC045 06/02 A2989 890 76 100 160/11 RMK AO2
14837KMSN MSN20071111050509711/11/07 05:05:31  5-MIN KMSN 111105Z 16011KT 5SM HZ OVC045 06/02 A2989 890 76 100 160/11 RMK AO2
14837KMSN MSN20071111051009711/11/07 05:10:31  5-MIN KMSN 111110Z 16011KT 5SM HZ OVC045 06/02 A2989 890 76 100 160/11 RMK AO2
14837KMSN MSN20071111051509711/11/07 05:15:31  5-MIN KMSN 111115Z 16011KT 5SM HZ OVC045 06/02 A2989 890 76 100 160/11 RMK AO2
14837KMSN MSN20071111052009711/11/07 05:20:31  5-MIN KMSN 111120Z 16010KT 5SM HZ OVC045 06/02 A2989 890 76 100 160/10 RMK AO2
14837KMSN MSN20071111052509711/11/07 05:25:31  5-MIN KMSN 111125Z 16010KT 5SM HZ OVC047 06/02 A2989 890 76 100 160/10 RMK AO2
14837KMSN MSN20071111053009711/11/07 05:30:31  5-MIN KMSN 111130Z 17010KT 5SM HZ OVC047 06/02 A2989 900 76 100 160/10 RMK AO2
14837KMSN MSN20071111053509711/11/07 05:35:31  5-MIN KMSN 111135Z 16009KT 5SM HZ OVC047 06/02 A2989 900 76 100 160/09 RMK AO2
14837KMSN MSN20071111054009711/11/07 05:40:31  5-MIN KMSN 111140Z 16010KT 5SM HZ OVC047 06/03 A2989 900 79 100 160/10 RMK AO2
14837KMSN MSN20071111054509711/11/07 05:45:31  5-MIN KMSN 111145Z 17009KT 5SM HZ OVC047 06/02 A2988 900 76 100 170/09 RMK AO2
14837KMSN MSN20071111055014411/11/07 05:50:31  5-MIN KMSN 111150Z 17010KT 6SM HZ OVC047 06/02 A2988 900 76 100 160/10 RMK AO2 SLP124 60000 70002 T00610022 10067 20061 58018
14837KMSN MSN20071111055509711/11/07 05:55:31  5-MIN KMSN 111155Z 17010KT 5SM HZ OVC047 06/02 A2988 900 76 100 170/10 RMK AO2
14837KMSN MSN20071111060009711/11/07 06:00:31  5-MIN KMSN 111200Z 16011KT 5SM HZ OVC047 06/02 A2988 900 76 100 160/11 RMK AO2
14837KMSN MSN20071111060509711/11/07 06:05:31  5-MIN KMSN 111205Z 17011KT 5SM HZ OVC047 06/02 A2988 900 76 100 170/11 RMK AO2
14837KMSN MSN20071111061009711/11/07 06:10:31  5-MIN KMSN 111210Z 17009KT 5SM HZ OVC047 06/02 A2988 900 76 100 160/09 RMK AO2
14837KMSN MSN20071111061509711/11/07 06:15:31  5-MIN KMSN 111215Z 16011KT 5SM HZ OVC047 06/02 A2988 900 76 100 160/11 RMK AO2
14837KMSN MSN20071111062009711/11/07 06:20:31  5-MIN KMSN 111220Z 16011KT 5SM HZ OVC047 06/03 A2988 900 79 100 160/11 RMK AO2
14837KMSN MSN20071111062509711/11/07 06:25:31  5-MIN KMSN 111225Z 16011KT 5SM HZ OVC047 06/02 A2988 900 76 100 160/11 RMK AO2
14837KMSN MSN20071111063010411/11/07 06:30:31  5-MIN KMSN 111230Z 16011KT 5SM HZ BKN047 OVC070 06/02 A2988 900 76 100 160/11 RMK AO2
14837KMSN MSN20071111063511111/11/07 06:35:31  5-MIN KMSN 111235Z 16009KT 5SM HZ BKN047 BKN055 OVC070 06/02 A2988 900 76 100 160/09 RMK AO2
14837KMSN MSN20071111064011111/11/07 06:40:31  5-MIN KMSN 111240Z 16009KT 5SM HZ BKN047 BKN055 OVC070 06/02 A2988 900 76 100 160/09 RMK AO2
14837KMSN MSN20071111064510411/11/07 06:45:31  5-MIN KMSN 111245Z 16009KT 5SM HZ SCT047 OVC070 07/02 A2988 900 73 200 160/09 RMK AO2
14837KMSN MSN20071111065012111/11/07 06:50:31  5-MIN KMSN 111250Z 16010KT 5SM HZ FEW047 OVC070 07/02 A2988 900 73 200 160/10 RMK AO2 SLP124 T00670022
14837KMSN MSN20071111065510411/11/07 06:55:31  5-MIN KMSN 111255Z 16009KT 5SM HZ FEW050 OVC065 06/03 A2988 900 79 100 160/09 RMK AO2
14837KMSN MSN20071111070010411/11/07 07:00:31  5-MIN KMSN 111300Z 16009KT 5SM HZ FEW055 OVC065 07/02 A2988 900 73 200 160/09 RMK AO2
14837KMSN MSN20071111070510411/11/07 07:05:31  5-MIN KMSN 111305Z 16008KT 4SM HZ FEW050 OVC065 06/03 A2988 900 79 100 160/08 RMK AO2
14837KMSN MSN20071111071010411/11/07 07:10:31  5-MIN KMSN 111310Z 16010KT 4SM HZ FEW050 OVC065 07/03 A2988 900 76 200 160/10 RMK AO2
14837KMSN MSN20071111071510411/11/07 07:15:31  5-MIN KMSN 111315Z 16008KT 4SM HZ FEW050 OVC065 07/03 A2988 900 76 100 160/08 RMK AO2
14837KMSN MSN20071111072010411/11/07 07:20:31  5-MIN KMSN 111320Z 17009KT 4SM HZ FEW048 OVC065 07/03 A2988 900 76 100 170/09 RMK AO2
14837KMSN MSN20071111072510411/11/07 07:25:31  5-MIN KMSN 111325Z 17007KT 4SM HZ SCT048 OVC065 07/03 A2988 900 76 100 170/07 RMK AO2
14837KMSN MSN20071111073010411/11/07 07:30:31  5-MIN KMSN 111330Z 17009KT 4SM HZ SCT046 OVC065 07/03 A2988 900 76 100 170/09 RMK AO2
14837KMSN MSN20071111073510411/11/07 07:35:31  5-MIN KMSN 111335Z 18010KT 4SM HZ SCT044 OVC065 07/03 A2989 890 76 100 180/10 RMK AO2
14837KMSN MSN20071111074010411/11/07 07:40:31  5-MIN KMSN 111340Z 17010KT 4SM HZ BKN044 OVC065 07/03 A2989 890 76 100 170/10 RMK AO2
14837KMSN MSN20071111074510411/11/07 07:45:31  5-MIN KMSN 111345Z 18010KT 4SM HZ BKN042 OVC060 07/03 A2989 890 76 100 180/10 RMK AO2
14837KMSN MSN20071111075012111/11/07 07:50:31  5-MIN KMSN 111350Z 18010KT 4SM HZ BKN042 OVC060 07/03 A2989 890 76 100 180/10 RMK AO2 SLP128 T00670028
14837KMSN MSN20071111075509711/11/07 07:55:31  5-MIN KMSN 111355Z 18010KT 4SM HZ OVC042 07/03 A2989 890 76 100 180/10 RMK AO2
14837KMSN MSN20071111080009711/11/07 08:00:31  5-MIN KMSN 111400Z 17009KT 4SM HZ OVC042 07/03 A2989 890 76 100 170/09 RMK AO2
14837KMSN MSN20071111080509711/11/07 08:05:31  5-MIN KMSN 111405Z 18009KT 4SM HZ OVC042 07/03 A2989 890 76 100 180/09 RMK AO2
14837KMSN MSN20071111081009711/11/07 08:10:31  5-MIN KMSN 111410Z 17010KT 4SM HZ OVC042 07/03 A2989 890 73 200 170/10 RMK AO2
14837KMSN MSN20071111081509711/11/07 08:15:31  5-MIN KMSN 111415Z 17009KT 4SM HZ OVC042 07/03 A2989 890 79 100 170/09 RMK AO2
14837KMSN MSN20071111082009711/11/07 08:20:31  5-MIN KMSN 111420Z 17011KT 4SM HZ OVC042 07/03 A2989 890 79 100 170/11 RMK AO2
14837KMSN MSN20071111082509711/11/07 08:25:31  5-MIN KMSN 111425Z 17010KT 4SM HZ BKN042 07/03 A2988 900 76 200 170/10 RMK AO2
14837KMSN MSN20071111083010411/11/07 08:30:31  5-MIN KMSN 111430Z 17011KT 4SM HZ BKN042 BKN065 07/03 A2988 900 76 200 170/11 RMK AO2
14837KMSN MSN20071111083510411/11/07 08:35:31  5-MIN KMSN 111435Z 18011KT 4SM HZ BKN042 BKN065 07/03 A2988 900 76 200 170/11 RMK AO2
14837KMSN MSN20071111084010411/11/07 08:40:31  5-MIN KMSN 111440Z 17011KT 4SM HZ BKN042 BKN065 07/03 A2988 900 76 200 170/11 RMK AO2
14837KMSN MSN20071111084510411/11/07 08:45:31  5-MIN KMSN 111445Z 18010KT 4SM HZ BKN040 BKN065 07/03 A2988 900 76 200 170/10 RMK AO2
14837KMSN MSN20071111085013411/11/07 08:50:31  5-MIN KMSN 111450Z 18010KT 4SM HZ BKN036 BKN045 BKN065 07/03 A2988 900 76 200 180/10 RMK AO2 SLP123 T00720033 56006
14837KMSN MSN20071111085510411/11/07 08:55:31  5-MIN KMSN 111455Z 17010KT 4SM HZ BKN036 BKN065 07/03 A2988 900 76 200 170/10 RMK AO2
14837KMSN MSN20071111090009711/11/07 09:00:31  5-MIN KMSN 111500Z 17011KT 4SM HZ BKN036 07/03 A2988 910 76 200 170/11 RMK AO2
14837KMSN MSN20071111090509711/11/07 09:05:31  5-MIN KMSN 111505Z 17010KT 4SM HZ OVC034 07/03 A2988 910 76 200 170/10 RMK AO2
14837KMSN MSN20071111091009711/11/07 09:10:31  5-MIN KMSN 111510Z 18011KT 4SM HZ OVC034 07/03 A2988 900 76 200 170/11 RMK AO2
14837KMSN MSN20071111091509711/11/07 09:15:31  5-MIN KMSN 111515Z 18010KT 4SM HZ OVC032 07/03 A2988 900 76 200 180/10 RMK AO2
14837KMSN MSN20071111092009711/11/07 09:20:31  5-MIN KMSN 111520Z 18008KT 4SM HZ OVC032 07/04 A2988 900 79 200 180/08 RMK AO2
14837KMSN MSN20071111092509711/11/07 09:25:31  5-MIN KMSN 111525Z 18011KT 4SM HZ OVC032 08/04 A2988 900 76 300 180/11 RMK AO2
14837KMSN MSN20071111093010411/11/07 09:30:31  5-MIN KMSN 111530Z 19008KT 4SM HZ SCT019 OVC032 08/04 A2988 900 76 300 190/08 RMK AO2
14837KMSN MSN20071111093510411/11/07 09:35:31  5-MIN KMSN 111535Z 18010KT 4SM HZ BKN019 OVC032 08/04 A2989 900 76 300 180/10 RMK AO2
14837KMSN MSN20071111094010411/11/07 09:40:31  5-MIN KMSN 111540Z 17011KT 4SM HZ BKN019 OVC032 08/04 A2988 900 76 300 170/11 RMK AO2
14837KMSN MSN20071111094510411/11/07 09:45:31  5-MIN KMSN 111545Z 18008KT 4SM HZ BKN017 OVC032 08/04 A2988 900 76 300 180/08 RMK AO2
14837KMSN MSN20071111095011411/11/07 09:50:31  5-MIN KMSN 111550Z 17010KT 4SM HZ OVC017 08/04 A2988 900 76 300 170/10 RMK AO2 SLP122 T00780039
14837KMSN MSN20071111095509711/11/07 09:55:31  5-MIN KMSN 111555Z 17008KT 4SM HZ OVC017 08/04 A2988 910 76 300 170/08 RMK AO2
14837KMSN MSN20071111100009711/11/07 10:00:31  5-MIN KMSN 111600Z 17011KT 4SM HZ OVC017 08/04 A2987 910 76 400 170/11 RMK AO2
14837KMSN MSN20071111100509711/11/07 10:05:31  5-MIN KMSN 111605Z 17010KT 4SM HZ OVC017 08/04 A2987 910 76 400 170/10 RMK AO2
14837KMSN MSN20071111101009711/11/07 10:10:31  5-MIN KMSN 111610Z 17009KT 4SM HZ OVC017 08/04 A2988 900 76 400 170/09 RMK AO2
14837KMSN MSN20071111101509711/11/07 10:15:31  5-MIN KMSN 111615Z 18010KT 4SM HZ OVC017 08/04 A2987 910 76 400 180/10 RMK AO2
14837KMSN MSN20071111102009711/11/07 10:20:31  5-MIN KMSN 111620Z 19008KT 4SM HZ OVC017 08/04 A2988 900 76 400 180/08 RMK AO2
14837KMSN MSN20071111102509711/11/07 10:25:31  5-MIN KMSN 111625Z 18008KT 4SM HZ OVC017 08/04 A2988 910 76 400 180/08 RMK AO2
14837KMSN MSN20071111103009711/11/07 10:30:31  5-MIN KMSN 111630Z 18009KT 4SM HZ OVC017 08/04 A2987 910 76 400 180/09 RMK AO2
14837KMSN MSN20071111103509711/11/07 10:35:31  5-MIN KMSN 111635Z 17008KT 4SM HZ OVC017 08/04 A2987 910 76 400 170/08 RMK AO2
14837KMSN MSN20071111104009711/11/07 10:40:31  5-MIN KMSN 111640Z 18009KT 4SM HZ OVC017 08/04 A2987 910 76 400 180/09 RMK AO2
14837KMSN MSN20071111104509711/11/07 10:45:31  5-MIN KMSN 111645Z 17009KT 4SM HZ OVC017 08/04 A2987 910 76 400 170/09 RMK AO2
14837KMSN MSN20071111105011411/11/07 10:50:31  5-MIN KMSN 111650Z 18008KT 4SM HZ OVC017 08/04 A2987 910 76 400 180/08 RMK AO2 SLP119 T00830044
14837KMSN MSN20071111105509711/11/07 10:55:31  5-MIN KMSN 111655Z 18009KT 4SM HZ OVC017 08/04 A2987 910 76 400 180/09 RMK AO2
14837KMSN MSN20071111110009711/11/07 11:00:31  5-MIN KMSN 111700Z 18009KT 4SM HZ OVC017 08/04 A2987 910 76 400 180/09 RMK AO2
14837KMSN MSN20071111110509711/11/07 11:05:31  5-MIN KMSN 111705Z 18009KT 4SM HZ OVC017 08/04 A2987 910 76 400 180/09 RMK AO2
14837KMSN MSN20071111111009711/11/07 11:10:31  5-MIN KMSN 111710Z 17008KT 4SM HZ OVC017 08/05 A2986 920 79 400 170/08 RMK AO2
14837KMSN MSN20071111111509711/11/07 11:15:31  5-MIN KMSN 111715Z 18007KT 4SM HZ OVC017 08/04 A2987 920 76 400 180/07 RMK AO2
14837KMSN MSN20071111112009711/11/07 11:20:31  5-MIN KMSN 111720Z 17009KT 4SM HZ OVC017 08/04 A2986 920 76 400 170/09 RMK AO2
14837KMSN MSN20071111112509711/11/07 11:25:31  5-MIN KMSN 111725Z 17008KT 4SM HZ OVC015 08/04 A2986 920 76 400 170/08 RMK AO2
14837KMSN MSN20071111113009711/11/07 11:30:31  5-MIN KMSN 111730Z 17009KT 4SM HZ OVC015 08/05 A2986 920 79 400 170/09 RMK AO2
14837KMSN MSN20071111113509711/11/07 11:35:31  5-MIN KMSN 111735Z 18008KT 4SM HZ OVC015 09/04 A2986 920 73 500 180/08 RMK AO2
14837KMSN MSN20071111114009711/11/07 11:40:31  5-MIN KMSN 111740Z 17009KT 4SM HZ OVC015 09/05 A2985 930 76 500 170/09 RMK AO2
14837KMSN MSN20071111114509711/11/07 11:45:31  5-MIN KMSN 111745Z 16011KT 4SM HZ OVC015 09/05 A2985 930 76 500 160/11 RMK AO2
14837KMSN MSN20071111115013211/11/07 11:50:31  5-MIN KMSN 111750Z 17008KT 4SM HZ OVC015 09/05 A2985 930 76 500 170/08 RMK AO2 SLP111 T00890050 10089 20061 58001
14837KMSN MSN20071111115509711/11/07 11:55:31  5-MIN KMSN 111755Z 17009KT 4SM HZ OVC015 09/05 A2984 930 76 500 170/09 RMK AO2
14837KMSN MSN20071111120009711/11/07 12:00:31  5-MIN KMSN 111800Z 17009KT 4SM HZ OVC015 09/05 A2984 940 76 500 170/09 RMK AO2
14837KMSN MSN20071111120509711/11/07 12:05:31  5-MIN KMSN 111805Z 17009KT 4SM HZ OVC015 09/05 A2984 940 76 500 170/09 RMK AO2
14837KMSN MSN20071111121009711/11/07 12:10:31  5-MIN KMSN 111810Z 18010KT 4SM HZ OVC015 09/05 A2984 940 76 500 180/10 RMK AO2
14837KMSN MSN20071111121509711/11/07 12:15:31  5-MIN KMSN 111815Z 18009KT 4SM HZ OVC015 09/05 A2984 940 74 500 180/09 RMK AO2
14837KMSN MSN20071111122009711/11/07 12:20:31  5-MIN KMSN 111820Z 17011KT 4SM HZ OVC015 09/05 A2984 940 74 500 170/11 RMK AO2
14837KMSN MSN20071111122509711/11/07 12:25:31  5-MIN KMSN 111825Z 17010KT 4SM HZ OVC015 09/05 A2983 940 74 500 170/10 RMK AO2
14837KMSN MSN20071111123009711/11/07 12:30:31  5-MIN KMSN 111830Z 18008KT 4SM HZ OVC015 09/05 A2984 940 74 500 180/08 RMK AO2
14837KMSN MSN20071111123509711/11/07 12:35:31  5-MIN KMSN 111835Z 18008KT 4SM HZ OVC015 09/05 A2983 940 74 500 180/08 RMK AO2
14837KMSN MSN20071111124009711/11/07 12:40:31  5-MIN KMSN 111840Z 18008KT 4SM HZ OVC015 09/05 A2983 940 74 500 180/08 RMK AO2
14837KMSN MSN20071111124509711/11/07 12:45:31  5-MIN KMSN 111845Z 17008KT 4SM HZ OVC015 10/05 A2983 950 71 600 170/08 RMK AO2
14837KMSN MSN20071111125011411/11/07 12:50:31  5-MIN KMSN 111850Z 17009KT 4SM HZ OVC015 10/05 A2983 950 71 600 170/09 RMK AO2 SLP106 T01000050
14837KMSN MSN20071111125509711/11/07 12:55:31  5-MIN KMSN 111855Z 17009KT 4SM HZ OVC015 10/05 A2983 950 71 600 170/09 RMK AO2
14837KMSN MSN20071111130009711/11/07 13:00:31  5-MIN KMSN 111900Z 17008KT 4SM HZ OVC015 10/05 A2983 950 71 600 170/08 RMK AO2
14837KMSN MSN20071111130509711/11/07 13:05:31  5-MIN KMSN 111905Z 17009KT 4SM HZ OVC015 10/05 A2983 950 71 600 170/09 RMK AO2
14837KMSN MSN20071111131009711/11/07 13:10:31  5-MIN KMSN 111910Z 17009KT 4SM HZ OVC015 10/05 A2982 950 71 600 170/09 RMK AO2
14837KMSN MSN20071111131509711/11/07 13:15:31  5-MIN KMSN 111915Z 18007KT 4SM HZ OVC015 10/06 A2983 950 74 600 180/07 RMK AO2
14837KMSN MSN20071111132009711/11/07 13:20:31  5-MIN KMSN 111920Z 18007KT 4SM HZ OVC015 10/05 A2983 950 71 600 180/07 RMK AO2
14837KMSN MSN20071111132509711/11/07 13:25:31  5-MIN KMSN 111925Z 17007KT 4SM HZ OVC015 11/06 A2983 950 71 700 170/07 RMK AO2
14837KMSN MSN20071111133009711/11/07 13:30:31  5-MIN KMSN 111930Z 18006KT 4SM HZ OVC015 11/06 A2983 950 71 700 180/06 RMK AO2
14837KMSN MSN20071111133509711/11/07 13:35:31  5-MIN KMSN 111935Z 18007KT 4SM HZ OVC015 11/06 A2982 950 71 700 180/07 RMK AO2
14837KMSN MSN20071111134009711/11/07 13:40:31  5-MIN KMSN 111940Z 16007KT 4SM HZ OVC015 11/06 A2983 950 71 700 160/07 RMK AO2
14837KMSN MSN20071111134509711/11/07 13:45:31  5-MIN KMSN 111945Z 17006KT 4SM HZ OVC015 11/06 A2982 950 71 700 170/06 RMK AO2
14837KMSN MSN20071111135011411/11/07 13:50:31  5-MIN KMSN 111950Z 17006KT 5SM HZ OVC017 11/06 A2982 960 71 700 170/06 RMK AO2 SLP102 T01060056
14837KMSN MSN20071111135509711/11/07 13:55:31  5-MIN KMSN 111955Z 16006KT 4SM HZ OVC017 11/06 A2982 960 71 800 160/06 RMK AO2
14837KMSN MSN20071111140009711/11/07 14:00:31  5-MIN KMSN 112000Z 18004KT 4SM HZ OVC017 11/06 A2982 950 71 800 180/04 RMK AO2
14837KMSN MSN20071111140509711/11/07 14:05:31  5-MIN KMSN 112005Z 17006KT 4SM HZ OVC017 11/06 A2982 950 71 800 170/06 RMK AO2
14837KMSN MSN20071111141009711/11/07 14:10:31  5-MIN KMSN 112010Z 17006KT 4SM HZ OVC017 11/06 A2982 960 71 800 170/06 RMK AO2
14837KMSN MSN20071111141509711/11/07 14:15:31  5-MIN KMSN 112015Z 17006KT 4SM HZ OVC017 11/06 A2982 950 71 800 170/06 RMK AO2
14837KMSN MSN20071111142009711/11/07 14:20:31  5-MIN KMSN 112020Z 17007KT 4SM HZ OVC017 11/06 A2982 960 71 800 170/07 RMK AO2
14837KMSN MSN20071111142509711/11/07 14:25:31  5-MIN KMSN 112025Z 16007KT 4SM HZ OVC017 11/06 A2982 960 71 800 160/07 RMK AO2
14837KMSN MSN20071111143009711/11/07 14:30:31  5-MIN KMSN 112030Z 18005KT 4SM HZ OVC017 11/06 A2982 960 71 800 180/05 RMK AO2
14837KMSN MSN20071111143509711/11/07 14:35:31  5-MIN KMSN 112035Z 17005KT 4SM HZ OVC017 11/07 A2982 960 74 800 170/05 RMK AO2
14837KMSN MSN20071111144009711/11/07 14:40:31  5-MIN KMSN 112040Z 18005KT 4SM HZ OVC017 11/07 A2982 950 74 800 180/05 RMK AO2
14837KMSN MSN20071111144509711/11/07 14:45:31  5-MIN KMSN 112045Z 17005KT 4SM HZ OVC017 11/06 A2982 960 71 800 170/05 RMK AO2
14837KMSN MSN20071111145012011/11/07 14:50:31  5-MIN KMSN 112050Z 18005KT 4SM HZ OVC017 12/06 A2983 950 68 800 170/05 RMK AO2 SLP103 T01170061 58011
14837KMSN MSN20071111145509711/11/07 14:55:31  5-MIN KMSN 112055Z 17006KT 4SM HZ OVC017 12/07 A2983 950 71 800 170/06 RMK AO2
14837KMSN MSN20071111150009711/11/07 15:00:31  5-MIN KMSN 112100Z 17006KT 4SM HZ OVC017 12/07 A2983 950 71 800 170/06 RMK AO2
14837KMSN MSN20071111150509711/11/07 15:05:31  5-MIN KMSN 112105Z 16006KT 4SM HZ OVC017 12/07 A2983 950 71 800 150/06 RMK AO2
14837KMSN MSN20071111151009711/11/07 15:10:31  5-MIN KMSN 112110Z 13006KT 4SM HZ OVC017 12/07 A2983 950 71 800 130/06 RMK AO2
14837KMSN MSN20071111151509711/11/07 15:15:31  5-MIN KMSN 112115Z 14005KT 4SM HZ OVC017 12/07 A2983 950 71 800 140/05 RMK AO2
14837KMSN MSN20071111152009711/11/07 15:20:31  5-MIN KMSN 112120Z 14005KT 4SM HZ OVC017 12/07 A2983 950 71 800 140/05 RMK AO2
14837KMSN MSN20071111152509711/11/07 15:25:31  5-MIN KMSN 112125Z 14005KT 4SM HZ OVC017 12/07 A2983 950 71 800 130/05 RMK AO2
14837KMSN MSN20071111153009711/11/07 15:30:31  5-MIN KMSN 112130Z 15005KT 4SM HZ OVC017 12/07 A2983 940 71 800 150/05 RMK AO2
14837KMSN MSN20071111153509711/11/07 15:35:31  5-MIN KMSN 112135Z 16006KT 4SM HZ OVC017 12/07 A2984 940 71 800 160/06 RMK AO2
14837KMSN MSN20071111154009711/11/07 15:40:31  5-MIN KMSN 112140Z 17006KT 4SM HZ OVC017 12/07 A2984 940 71 800 170/06 RMK AO2
14837KMSN MSN20071111154509711/11/07 15:45:31  5-MIN KMSN 112145Z 18006KT 4SM HZ OVC017 12/07 A2984 940 71 800 180/06 RMK AO2
14837KMSN MSN20071111155011411/11/07 15:50:31  5-MIN KMSN 112150Z 18006KT 4SM HZ OVC017 12/07 A2984 940 74 800 180/06 RMK AO2 SLP107 T01170072
14837KMSN MSN20071111155509711/11/07 15:55:31  5-MIN KMSN 112155Z 18006KT 4SM HZ OVC017 12/07 A2984 940 74 800 180/06 RMK AO2
14837KMSN MSN20071111160009711/11/07 16:00:31  5-MIN KMSN 112200Z 17007KT 4SM HZ OVC017 12/07 A2984 940 74 800 170/07 RMK AO2
14837KMSN MSN20071111160509711/11/07 16:05:31  5-MIN KMSN 112205Z 17006KT 4SM HZ OVC017 12/07 A2984 940 71 800 170/06 RMK AO2
14837KMSN MSN20071111161009711/11/07 16:10:31  5-MIN KMSN 112210Z 16005KT 4SM HZ OVC017 12/07 A2984 940 74 800 160/05 RMK AO2
14837KMSN MSN20071111161509711/11/07 16:15:31  5-MIN KMSN 112215Z 15008KT 4SM HZ OVC017 12/07 A2984 940 74 800 150/08 RMK AO2
14837KMSN MSN20071111162009711/11/07 16:20:31  5-MIN KMSN 112220Z 16006KT 4SM HZ OVC017 12/07 A2984 940 71 800 150/06 RMK AO2
14837KMSN MSN20071111162509711/11/07 16:25:31  5-MIN KMSN 112225Z 16006KT 4SM HZ OVC017 12/07 A2984 940 71 800 160/06 RMK AO2
14837KMSN MSN20071111163009711/11/07 16:30:31  5-MIN KMSN 112230Z 16007KT 4SM HZ OVC017 11/07 A2984 940 74 700 160/07 RMK AO2
14837KMSN MSN20071111163509711/11/07 16:35:31  5-MIN KMSN 112235Z 16006KT 4SM HZ OVC017 11/07 A2984 940 74 700 160/06 RMK AO2
14837KMSN MSN20071111164009711/11/07 16:40:31  5-MIN KMSN 112240Z 16005KT 5SM HZ OVC017 11/07 A2984 940 74 700 160/05 RMK AO2
14837KMSN MSN20071111164509711/11/07 16:45:31  5-MIN KMSN 112245Z 15007KT 5SM HZ OVC017 11/07 A2984 940 74 700 150/07 RMK AO2
14837KMSN MSN20071111165011411/11/07 16:50:31  5-MIN KMSN 112250Z 15006KT 6SM HZ OVC017 11/07 A2984 940 74 700 150/06 RMK AO2 SLP109 T01110067
14837KMSN MSN20071111165509711/11/07 16:55:31  5-MIN KMSN 112255Z 16006KT 6SM HZ OVC017 11/07 A2984 940 74 700 160/06 RMK AO2
14837KMSN MSN20071111170009711/11/07 17:00:31  5-MIN KMSN 112300Z 16006KT 6SM HZ OVC017 11/07 A2984 940 74 700 160/06 RMK AO2
14837KMSN MSN20071111170509711/11/07 17:05:31  5-MIN KMSN 112305Z 15005KT 6SM HZ OVC017 11/07 A2984 940 74 700 140/05 RMK AO2
14837KMSN MSN20071111171009711/11/07 17:10:31  5-MIN KMSN 112310Z 15006KT 6SM HZ OVC017 11/07 A2985 930 74 700 150/06 RMK AO2
14837KMSN MSN20071111171509711/11/07 17:15:31  5-MIN KMSN 112315Z 15007KT 6SM HZ OVC017 11/07 A2985 930 74 700 150/07 RMK AO2
14837KMSN MSN20071111172009711/11/07 17:20:31  5-MIN KMSN 112320Z 16007KT 6SM HZ OVC017 11/07 A2984 930 74 700 160/07 RMK AO2
14837KMSN MSN20071111172509711/11/07 17:25:31  5-MIN KMSN 112325Z 15006KT 6SM HZ OVC017 11/07 A2985 930 74 700 150/06 RMK AO2
14837KMSN MSN20071111173009711/11/07 17:30:31  5-MIN KMSN 112330Z 15006KT 6SM HZ OVC017 11/07 A2985 930 74 700 150/06 RMK AO2
14837KMSN MSN20071111173509711/11/07 17:35:31  5-MIN KMSN 112335Z 16007KT 6SM HZ OVC017 11/07 A2985 930 74 700 160/07 RMK AO2
14837KMSN MSN20071111174009711/11/07 17:40:31  5-MIN KMSN 112340Z 15006KT 6SM HZ OVC017 11/07 A2985 930 74 700 150/06 RMK AO2
14837KMSN MSN20071111174509711/11/07 17:45:31  5-MIN KMSN 112345Z 16006KT 6SM HZ OVC017 11/07 A2985 930 74 700 160/06 RMK AO2
14837KMSN MSN20071111175013211/11/07 17:50:31  5-MIN KMSN 112350Z 16008KT 6SM HZ OVC017 11/07 A2985 930 74 700 160/08 RMK AO2 SLP111 T01110067 10117 20089 55007
14837KMSN MSN20071111175509711/11/07 17:55:31  5-MIN KMSN 112355Z 16007KT 6SM HZ OVC017 11/07 A2985 930 74 700 160/07 RMK AO2
14837KMSN MSN20071111180009711/11/07 18:00:31  5-MIN KMSN 120000Z 16007KT 6SM HZ OVC017 11/07 A2985 930 74 700 160/07 RMK AO2
14837KMSN MSN20071111180509711/11/07 18:05:31  5-MIN KMSN 120005Z 16006KT 6SM HZ OVC017 11/07 A2985 930 74 700 160/06 RMK AO2
14837KMSN MSN20071111181009711/11/07 18:10:31  5-MIN KMSN 120010Z 16007KT 6SM HZ OVC017 11/07 A2985 930 74 700 160/07 RMK AO2
14837KMSN MSN20071111181509711/11/07 18:15:31  5-MIN KMSN 120015Z 16005KT 6SM HZ OVC017 11/07 A2985 930 74 700 160/05 RMK AO2
14837KMSN MSN20071111182009711/11/07 18:20:31  5-MIN KMSN 120020Z 16005KT 6SM HZ OVC017 11/07 A2985 930 74 700 160/05 RMK AO2
14837KMSN MSN20071111182510411/11/07 18:25:31  5-MIN KMSN 120025Z 17006KT 6SM HZ BKN017 OVC035 11/07 A2985 930 74 700 170/06 RMK AO2
14837KMSN MSN20071111183010411/11/07 18:30:31  5-MIN KMSN 120030Z 16006KT 6SM HZ BKN017 OVC035 11/07 A2985 930 74 700 160/06 RMK AO2
14837KMSN MSN20071111183510411/11/07 18:35:31  5-MIN KMSN 120035Z 16006KT 6SM HZ BKN017 OVC035 11/07 A2985 930 74 700 160/06 RMK AO2
14837KMSN MSN20071111184010411/11/07 18:40:31  5-MIN KMSN 120040Z 16006KT 6SM HZ BKN017 OVC035 11/07 A2985 930 74 700 160/06 RMK AO2
14837KMSN MSN20071111184510411/11/07 18:45:31  5-MIN KMSN 120045Z 16006KT 6SM HZ SCT017 OVC035 11/07 A2985 930 74 700 160/06 RMK AO2
14837KMSN MSN20071111185012111/11/07 18:50:31  5-MIN KMSN 120050Z 16006KT 6SM HZ SCT017 OVC035 11/07 A2986 920 74 700 160/06 RMK AO2 SLP113 T01110067
14837KMSN MSN20071111185510411/11/07 18:55:31  5-MIN KMSN 120055Z 16006KT 6SM HZ SCT017 OVC035 11/07 A2986 920 74 700 160/06 RMK AO2
14837KMSN MSN20071111190010411/11/07 19:00:31  5-MIN KMSN 120100Z 17006KT 6SM HZ SCT017 OVC037 11/07 A2986 920 77 700 170/06 RMK AO2
14837KMSN MSN20071111190510411/11/07 19:05:31  5-MIN KMSN 120105Z 17007KT 6SM HZ BKN017 OVC037 11/07 A2986 920 77 700 170/07 RMK AO2
14837KMSN MSN20071111191010411/11/07 19:10:31  5-MIN KMSN 120110Z 18006KT 6SM HZ BKN017 OVC037 11/07 A2986 920 77 700 170/06 RMK AO2
14837KMSN MSN20071111191510411/11/07 19:15:31  5-MIN KMSN 120115Z 17006KT 6SM HZ BKN017 OVC037 11/07 A2986 920 77 700 170/06 RMK AO2
14837KMSN MSN20071111192010411/11/07 19:20:31  5-MIN KMSN 120120Z 17006KT 6SM HZ BKN019 OVC037 11/07 A2986 920 77 700 170/06 RMK AO2
14837KMSN MSN20071111192510411/11/07 19:25:31  5-MIN KMSN 120125Z 17005KT 6SM HZ BKN019 OVC038 11/07 A2986 920 77 700 170/05 RMK AO2
14837KMSN MSN20071111193011111/11/07 19:30:31  5-MIN KMSN 120130Z 17006KT 6SM HZ BKN019 BKN025 OVC037 11/07 A2986 920 77 700 170/06 RMK AO2
14837KMSN MSN20071111193511111/11/07 19:35:31  5-MIN KMSN 120135Z 17006KT 6SM HZ BKN019 BKN025 OVC041 11/07 A2986 920 77 700 160/06 RMK AO2
14837KMSN MSN20071111194011111/11/07 19:40:31  5-MIN KMSN 120140Z 16007KT 6SM HZ SCT021 BKN028 OVC041 11/07 A2986 920 77 700 160/07 RMK AO2
14837KMSN MSN20071111194510411/11/07 19:45:31  5-MIN KMSN 120145Z 18005KT 6SM HZ SCT021 OVC041 11/07 A2986 920 77 700 180/05 RMK AO2
14837KMSN MSN20071111195012111/11/07 19:50:31  5-MIN KMSN 120150Z 18005KT 6SM HZ SCT023 OVC041 11/07 A2986 920 77 700 180/05 RMK AO2 SLP115 T01110072
14837KMSN MSN20071111195511111/11/07 19:55:31  5-MIN KMSN 120155Z 18005KT 6SM HZ FEW020 SCT025 OVC041 11/07 A2986 920 77 700 180/05 RMK AO2
14837KMSN MSN20071111200010411/11/07 20:00:31  5-MIN KMSN 120200Z 18005KT 6SM HZ SCT020 OVC041 12/07 A2986 920 74 800 180/05 RMK AO2
14837KMSN MSN20071111200511111/11/07 20:05:31  5-MIN KMSN 120205Z 17005KT 6SM HZ BKN020 BKN024 OVC041 11/07 A2986 920 77 700 170/05 RMK AO2
14837KMSN MSN20071111201010411/11/07 20:10:31  5-MIN KMSN 120210Z 17007KT 6SM HZ BKN020 OVC041 12/07 A2986 920 74 800 170/07 RMK AO2
14837KMSN MSN20071111201510411/11/07 20:15:31  5-MIN KMSN 120215Z 18007KT 6SM HZ BKN020 OVC039 12/08 A2986 920 77 800 180/07 RMK AO2
14837KMSN MSN20071111202009711/11/07 20:20:31  5-MIN KMSN 120220Z 18006KT 6SM HZ OVC020 12/08 A2986 920 77 800 180/06 RMK AO2
14837KMSN MSN20071111202509711/11/07 20:25:31  5-MIN KMSN 120225Z 18007KT 6SM HZ OVC020 12/08 A2986 920 77 800 170/07 RMK AO2
14837KMSN MSN20071111203009711/11/07 20:30:31  5-MIN KMSN 120230Z 18007KT 6SM HZ OVC020 12/08 A2987 910 77 800 180/07 RMK AO2
14837KMSN MSN20071111203509711/11/07 20:35:31  5-MIN KMSN 120235Z 18006KT 6SM HZ OVC018 12/08 A2987 910 77 800 180/06 RMK AO2
14837KMSN MSN20071111204009711/11/07 20:40:31  5-MIN KMSN 120240Z 18005KT 6SM HZ OVC018 12/08 A2987 910 77 800 180/05 RMK AO2
14837KMSN MSN20071111204509711/11/07 20:45:31  5-MIN KMSN 120245Z 18006KT 6SM HZ OVC018 12/08 A2987 910 77 800 180/06 RMK AO2
14837KMSN MSN20071111205012011/11/07 20:50:31  5-MIN KMSN 120250Z 18006KT 6SM HZ OVC018 12/08 A2986 920 77 800 180/06 RMK AO2 SLP116 T01170078 51008
14837KMSN MSN20071111205509711/11/07 20:55:31  5-MIN KMSN 120255Z 18006KT 6SM HZ OVC018 12/08 A2987 920 77 800 180/06 RMK AO2
14837KMSN MSN20071111210009711/11/07 21:00:31  5-MIN KMSN 120300Z 18007KT 6SM HZ OVC016 12/08 A2986 920 80 800 180/07 RMK AO2
14837KMSN MSN20071111210510411/11/07 21:05:31  5-MIN KMSN 120305Z 18005KT 6SM HZ BKN016 OVC039 12/08 A2987 910 80 800 180/05 RMK AO2
14837KMSN MSN20071111211010411/11/07 21:10:31  5-MIN KMSN 120310Z 18005KT 6SM HZ BKN016 OVC039 12/08 A2987 910 80 800 180/05 RMK AO2
14837KMSN MSN20071111211510411/11/07 21:15:31  5-MIN KMSN 120315Z 18006KT 6SM HZ SCT016 OVC039 12/08 A2987 910 80 800 180/06 RMK AO2
14837KMSN MSN20071111212010411/11/07 21:20:31  5-MIN KMSN 120320Z 18006KT 6SM HZ SCT016 OVC039 12/08 A2986 920 77 800 180/06 RMK AO2
14837KMSN MSN20071111212510411/11/07 21:25:31  5-MIN KMSN 120325Z 18006KT 6SM HZ SCT016 OVC041 12/08 A2986 920 77 800 180/06 RMK AO2
14837KMSN MSN20071111213010411/11/07 21:30:31  5-MIN KMSN 120330Z 18007KT 6SM HZ FEW016 OVC041 12/08 A2986 920 77 800 180/07 RMK AO2
14837KMSN MSN20071111213510411/11/07 21:35:31  5-MIN KMSN 120335Z 18006KT 6SM HZ FEW016 OVC041 12/08 A2986 920 77 800 180/06 RMK AO2
14837KMSN MSN20071111214010411/11/07 21:40:31  5-MIN KMSN 120340Z 18005KT 6SM HZ FEW016 OVC041 12/09 A2987 910 80 800 180/05 RMK AO2
14837KMSN MSN20071111214510411/11/07 21:45:31  5-MIN KMSN 120345Z 19006KT 6SM HZ FEW016 OVC041 12/09 A2986 920 80 800 190/06 RMK AO2
14837KMSN MSN20071111215012111/11/07 21:50:31  5-MIN KMSN 120350Z 18007KT 6SM HZ FEW014 OVC041 13/09 A2986 920 77 900 170/07 RMK AO2 SLP115 T01280089
14837KMSN MSN20071111215509711/11/07 21:55:31  5-MIN KMSN 120355Z 19006KT 6SM HZ OVC041 13/09 A2986 920 77 900 180/06 RMK AO2
14837KMSN MSN20071111220009711/11/07 22:00:31  5-MIN KMSN 120400Z 19006KT 6SM HZ OVC041 13/09 A2987 910 80 900 190/06 RMK AO2
14837KMSN MSN20071111220509711/11/07 22:05:31  5-MIN KMSN 120405Z 19007KT 5SM HZ OVC043 13/09 A2987 920 80 900 180/07 RMK AO2
14837KMSN MSN20071111221009711/11/07 22:10:31  5-MIN KMSN 120410Z 18006KT 5SM HZ OVC043 13/09 A2987 920 80 900 180/06 RMK AO2
14837KMSN MSN20071111221509711/11/07 22:15:31  5-MIN KMSN 120415Z 19007KT 5SM HZ OVC043 13/09 A2987 910 80 900 190/07 RMK AO2
14837KMSN MSN20071111222009711/11/07 22:20:31  5-MIN KMSN 120420Z 19005KT 5SM HZ OVC043 13/09 A2987 910 80 900 190/05 RMK AO2
14837KMSN MSN20071111222509711/11/07 22:25:31  5-MIN KMSN 120425Z 19005KT 5SM HZ OVC043 13/09 A2987 910 80 900 190/05 RMK AO2
14837KMSN MSN20071111223009711/11/07 22:30:31  5-MIN KMSN 120430Z 19006KT 5SM HZ OVC045 13/10 A2987 910 83 900 190/06 RMK AO2
14837KMSN MSN20071111223509711/11/07 22:35:31  5-MIN KMSN 120435Z 18005KT 5SM HZ OVC045 13/10 A2987 910 83 900 180/05 RMK AO2
14837KMSN MSN20071111224009711/11/07 22:40:31  5-MIN KMSN 120440Z 19006KT 5SM HZ OVC045 13/10 A2987 910 83 900 190/06 RMK AO2
14837KMSN MSN20071111224509711/11/07 22:45:31  5-MIN KMSN 120445Z 19006KT 5SM HZ BKN045 13/10 A2986 920 83 900 190/06 RMK AO2
14837KMSN MSN20071111225011411/11/07 22:50:31  5-MIN KMSN 120450Z 19007KT 5SM HZ BKN045 13/10 A2986 920 83 900 190/07 RMK AO2 SLP115 T01280100
14837KMSN MSN20071111225509711/11/07 22:55:31  5-MIN KMSN 120455Z 19007KT 5SM BR SCT047 12/10 A2986 920 86 800 190/07 RMK AO2
14837KMSN MSN20071111230009711/11/07 23:00:31  5-MIN KMSN 120500Z 20006KT 5SM BR FEW047 12/10 A2987 920 86 800 200/06 RMK AO2
14837KMSN MSN20071111230509711/11/07 23:05:31  5-MIN KMSN 120505Z 19007KT 5SM BR FEW047 12/10 A2987 920 86 800 190/07 RMK AO2
14837KMSN MSN20071111231009411/11/07 23:10:31  5-MIN KMSN 120510Z 19008KT 5SM BR CLR 12/11 A2986 920 89 800 190/08 RMK AO2
14837KMSN MSN20071111231509411/11/07 23:15:31  5-MIN KMSN 120515Z 19007KT 5SM BR CLR 12/10 A2986 920 86 800 190/07 RMK AO2
14837KMSN MSN20071111232009711/11/07 23:20:31  5-MIN KMSN 120520Z 20004KT 4SM BR FEW050 12/10 A2987 920 86 800 200/04 RMK AO2
14837KMSN MSN20071111232509711/11/07 23:25:31  5-MIN KMSN 120525Z 20005KT 4SM BR FEW050 12/10 A2987 920 86 800 190/05 RMK AO2
14837KMSN MSN20071111233009711/11/07 23:30:31  5-MIN KMSN 120530Z 20006KT 4SM BR SCT050 12/11 A2987 910 89 800 190/06 RMK AO2
14837KMSN MSN20071111233509711/11/07 23:35:31  5-MIN KMSN 120535Z 20006KT 4SM BR BKN050 12/11 A2987 910 89 800 190/06 RMK AO2
14837KMSN MSN20071111234009711/11/07 23:40:31  5-MIN KMSN 120540Z 20005KT 4SM BR BKN050 12/11 A2987 910 89 800 190/05 RMK AO2
14837KMSN MSN20071111234509711/11/07 23:45:31  5-MIN KMSN 120545Z 20006KT 4SM BR BKN050 12/11 A2987 910 89 800 200/06 RMK AO2
14837KMSN MSN20071111235014211/11/07 23:50:31  5-MIN KMSN 120550Z 20007KT 4SM BR OVC050 12/11 A2987 910 89 800 190/07 RMK AO2 SLP118 T01220106 10128 20111 401280061 53003
14837KMSN MSN20071111235509711/11/07 23:55:31  5-MIN KMSN 120555Z 20004KT 4SM BR OVC050 13/11 A2987 910 89 900 200/04 RMK AO2
14837KMSN MSN20071112000009711/12/07 00:00:32  5-MIN KMSN 120600Z 20005KT 4SM BR BKN050 12/11 A2987 910 93 800 200/05 RMK AO2
14837KMSN MSN20071112000509711/12/07 00:05:31  5-MIN KMSN 120605Z 20005KT 4SM BR BKN050 13/11 A2987 910 89 900 200/05 RMK AO2
14837KMSN MSN20071112001009711/12/07 00:10:31  5-MIN KMSN 120610Z 19005KT 4SM BR BKN050 13/11 A2987 910 89 900 190/05 RMK AO2
14837KMSN MSN20071112001509711/12/07 00:15:31  5-MIN KMSN 120615Z 20004KT 4SM BR BKN050 13/11 A2987 910 89 900 200/04 RMK AO2
14837KMSN MSN20071112002009711/12/07 00:20:31  5-MIN KMSN 120620Z 21003KT 4SM BR BKN050 13/11 A2987 910 89 900 200/03 RMK AO2
14837KMSN MSN20071112002510411/12/07 00:25:31  5-MIN KMSN 120625Z 20003KT 4SM BR SCT047 BKN055 13/12 A2987 910 93 900 200/03 RMK AO2
14837KMSN MSN20071112003010411/12/07 00:30:31  5-MIN KMSN 120630Z VRB03KT 4SM BR BKN047 BKN055 13/12 A2987 910 93 900 VRB/03 RMK AO2
14837KMSN MSN20071112003509711/12/07 00:35:31  5-MIN KMSN 120635Z 20004KT 4SM BR BKN045 13/12 A2987 910 93 900 200/04 RMK AO2
14837KMSN MSN20071112004010511/12/07 00:40:31  5-MIN KMSN 120640Z 20003KT 4SM BR FEW030 BKN045 13/12 A2987 910 89 1000 200/03 RMK AO2
14837KMSN MSN20071112004510411/12/07 00:45:31  5-MIN KMSN 120645Z 20004KT 4SM BR FEW030 OVC045 13/12 A2986 920 93 900 200/04 RMK AO2
14837KMSN MSN20071112005012911/12/07 00:50:31  5-MIN KMSN 120650Z 20003KT 4SM BR FEW020 SCT029 OVC045 13/12 A2987 920 89 1000 200/03 RMK AO2 SLP115 T01330117
14837KMSN MSN20071112005511211/12/07 00:55:31  5-MIN KMSN 120655Z 20003KT 4SM BR FEW020 SCT029 OVC045 13/12 A2987 910 89 1000 200/03 RMK AO2
14837KMSN MSN20071112010011211/12/07 01:00:31  5-MIN KMSN 120700Z 00000KT 4SM BR SCT020 BKN027 OVC045 13/12 A2987 910 89 1000 000/00 RMK AO2
14837KMSN MSN20071112010511211/12/07 01:05:31  5-MIN KMSN 120705Z 00000KT 4SM BR SCT020 BKN027 OVC047 13/12 A2987 910 89 1000 000/00 RMK AO2
14837KMSN MSN20071112011011111/12/07 01:10:31  5-MIN KMSN 120710Z 00000KT 3SM BR BKN020 BKN027 OVC047 13/12 A2987 910 93 900 000/00 RMK AO2
14837KMSN MSN20071112011511111/12/07 01:15:31  5-MIN KMSN 120715Z 00000KT 3SM BR BKN018 BKN027 OVC037 12/11 A2987 910 93 800 000/00 RMK AO2
14837KMSN MSN20071112012010411/12/07 01:20:31  5-MIN KMSN 120720Z 00000KT 3SM BR BKN018 OVC037 12/11 A2987 910 93 800 000/00 RMK AO2
14837KMSN MSN20071112012510411/12/07 01:25:31  5-MIN KMSN 120725Z 00000KT 3SM BR BKN018 OVC037 12/11 A2987 910 93 800 000/00 RMK AO2
14837KMSN MSN20071112013009711/12/07 01:30:31  5-MIN KMSN 120730Z 00000KT 3SM BR OVC016 12/11 A2987 910 93 800 000/00 RMK AO2
14837KMSN MSN20071112013510111/12/07 01:35:31  5-MIN KMSN 120735Z 00000KT 2 1/2SM BR OVC016 12/11 A2988 900 93 800 000/00 RMK AO2
14837KMSN MSN20071112014010111/12/07 01:40:31  5-MIN KMSN 120740Z 00000KT 2 1/2SM BR OVC016 12/11 A2988 900 93 800 000/00 RMK AO2
14837KMSN MSN20071112014509711/12/07 01:45:31  5-MIN KMSN 120745Z 00000KT 3SM BR OVC016 12/12 A2988 900 96 800 000/00 RMK AO2
14837KMSN MSN20071112015009711/12/07 01:50:31  5-MIN KMSN 120750Z 00000KT 3SM BR OVC016 12/12 A2988 900 96 800 000/00 RMK AO2
14837KMSN MSN20071112015510111/12/07 01:55:31  5-MIN KMSN 120755Z 00000KT 2 1/2SM BR OVC016 12/11 A2988 900 93 800 000/00 RMK AO2
14837KMSN MSN20071112020009711/12/07 02:00:31  5-MIN KMSN 120800Z 00000KT 3SM BR OVC016 12/11 A2988 900 93 800 000/00 RMK AO2
14837KMSN MSN20071112020509711/12/07 02:05:31  5-MIN KMSN 120805Z 00000KT 3SM BR OVC016 12/11 A2989 900 93 800 000/00 RMK AO2
14837KMSN MSN20071112021009711/12/07 02:10:31  5-MIN KMSN 120810Z 00000KT 3SM BR OVC016 12/11 A2989 900 93 800 000/00 RMK AO2
14837KMSN MSN20071112021509711/12/07 02:15:31  5-MIN KMSN 120815Z 00000KT 3SM BR OVC016 12/11 A2989 900 93 800 000/00 RMK AO2
14837KMSN MSN20071112022010111/12/07 02:20:31  5-MIN KMSN 120820Z 00000KT 2 1/2SM BR OVC014 13/12 A2989 900 93 900 000/00 RMK AO2
14837KMSN MSN20071112022510111/12/07 02:25:31  5-MIN KMSN 120825Z 00000KT 2 1/2SM BR OVC014 13/12 A2989 890 93 900 000/00 RMK AO2
14837KMSN MSN20071112023010111/12/07 02:30:31  5-MIN KMSN 120830Z 00000KT 2 1/2SM BR OVC014 12/12 A2989 890 96 800 000/00 RMK AO2
14837KMSN MSN20071112023510111/12/07 02:35:31  5-MIN KMSN 120835Z 00000KT 2 1/2SM BR OVC014 12/12 A2989 890 96 800 000/00 RMK AO2
14837KMSN MSN20071112024010111/12/07 02:40:31  5-MIN KMSN 120840Z 00000KT 2 1/2SM BR OVC014 12/11 A2989 900 93 800 000/00 RMK AO2
14837KMSN MSN20071112024510811/12/07 02:45:31  5-MIN KMSN 120845Z 17003KT 2 1/2SM BR BKN014 OVC044 12/11 A2988 900 93 800 170/03 RMK AO2
14837KMSN MSN20071112025013111/12/07 02:50:31  5-MIN KMSN 120850Z 00000KT 2 1/2SM BR BKN014 OVC046 12/11 A2988 900 93 800 000/00 RMK AO2 SLP120 T01220111 53002
14837KMSN MSN20071112025510811/12/07 02:55:31  5-MIN KMSN 120855Z 00000KT 2 1/2SM BR SCT014 BKN046 12/11 A2988 900 93 800 000/00 RMK AO2
14837KMSN MSN20071112030010811/12/07 03:00:31  5-MIN KMSN 120900Z 00000KT 2 1/2SM BR FEW014 BKN046 12/11 A2988 910 96 800 000/00 RMK AO2
14837KMSN MSN20071112030510411/12/07 03:05:31  5-MIN KMSN 120905Z 00000KT 2SM BR SCT014 BKN046 12/11 A2988 900 96 800 000/00 RMK AO2
14837KMSN MSN20071112053010111/12/07 05:30:31  5-MIN KMSN 121130Z 28003KT 2 1/2SM BR OVC024 13/12 A2992 860 96 800 280/03 RMK AO2
14837KMSN MSN20071112053510811/12/07 05:35:31  5-MIN KMSN 121135Z 28003KT 2 1/2SM BR FEW014 OVC024 13/12 A2992 860 93 900 280/03 RMK AO2
14837KMSN MSN20071112054010811/12/07 05:40:31  5-MIN KMSN 121140Z 29005KT 2 1/2SM BR FEW014 OVC026 13/12 A2992 870 93 900 290/05 RMK AO2
14837KMSN MSN20071112054510411/12/07 05:45:31  5-MIN KMSN 121145Z 29005KT 3SM BR FEW013 BKN026 13/12 A2992 860 93 900 290/05 RMK AO2
14837KMSN MSN20071112055013911/12/07 05:50:31  5-MIN KMSN 121150Z 30005KT 3SM BR FEW013 BKN026 13/12 A2993 860 93 900 290/05 RMK AO2 SLP135 T01330122 10139 20117 53015
14837KMSN MSN20071112055509711/12/07 05:55:31  5-MIN KMSN 121155Z 29004KT 3SM BR BKN026 13/12 A2994 850 93 900 290/04 RMK AO2
14837KMSN MSN20071112060009711/12/07 06:00:31  5-MIN KMSN 121200Z 29003KT 3SM BR BKN026 13/12 A2994 850 93 900 290/03 RMK AO2
14837KMSN MSN20071112060509711/12/07 06:05:31  5-MIN KMSN 121205Z 30005KT 3SM BR BKN026 14/12 A2994 840 90 900 300/05 RMK AO2
14837KMSN MSN20071112061009711/12/07 06:10:31  5-MIN KMSN 121210Z 29006KT 3SM BR BKN026 13/12 A2995 840 93 900 290/06 RMK AO2
14837KMSN MSN20071112061509711/12/07 06:15:31  5-MIN KMSN 121215Z 30006KT 3SM BR BKN026 14/12 A2995 840 86 900 300/06 RMK AO2
14837KMSN MSN20071112062009711/12/07 06:20:31  5-MIN KMSN 121220Z 31006KT 3SM BR OVC028 13/12 A2995 840 89 900 310/06 RMK AO2
14837KMSN MSN20071112062510411/12/07 06:25:31  5-MIN KMSN 121225Z 32007KT 3SM BR FEW015 OVC028 13/12 A2995 830 89 900 320/07 RMK AO2
14837KMSN MSN20071112063011411/12/07 06:30:31  5-MIN KMSN 121230Z 33007KT 3SM BR SCT015 OVC028 13/12 A2995 830 89 900 330/07 RMK AO2 SFC VIS 3
14837KMSN MSN20071112063511411/12/07 06:35:31  5-MIN KMSN 121235Z 33007KT 3SM BR BKN015 OVC028 13/11 A2996 830 86 900 330/07 RMK AO2 SFC VIS 3
14837KMSN MSN20071112064011411/12/07 06:40:31  5-MIN KMSN 121240Z 33005KT 3SM BR BKN015 OVC028 13/11 A2996 820 86 900 330/05 RMK AO2 SFC VIS 3
14837KMSN MSN20071112064511411/12/07 06:45:31  5-MIN KMSN 121245Z 33005KT 3SM BR BKN015 OVC028 13/11 A2997 820 89 800 330/05 RMK AO2 SFC VIS 3
14837KMSN MSN20071112065011411/12/07 06:50:31  5-MIN KMSN 121250Z 32007KT 3SM BR OVC015 13/11 A2997 820 89 800 320/07 RMK AO2 SLP151 T01280111
14837KMSN MSN20071112065509711/12/07 06:55:31  5-MIN KMSN 121255Z 33007KT 3SM BR OVC015 13/11 A2998 810 86 800 330/07 RMK AO2
14837KMSN MSN20071112070009711/12/07 07:00:31  5-MIN KMSN 121300Z 33006KT 3SM BR OVC015 13/11 A2998 810 86 800 330/06 RMK AO2
14837KMSN MSN20071112070509711/12/07 07:05:31  5-MIN KMSN 121305Z 32006KT 3SM HZ OVC015 13/10 A2998 810 83 800 320/06 RMK AO2
14837KMSN MSN20071112071011111/12/07 07:10:31  5-MIN KMSN 121310Z 32006KT 2 1/2SM BR OVC015 12/10 A2999 800 86 700 320/06 RMK AO2 TWR VIS 3
14837KMSN MSN20071112071510711/12/07 07:15:31  5-MIN KMSN 121315Z 32008KT 2SM BR OVC017 12/10 A2999 800 86 700 310/08 RMK AO2 TWR VIS 3
14837KMSN MSN20071112072011411/12/07 07:20:31  5-MIN KMSN 121320Z 32008KT 2SM HZ BKN017 OVC024 12/09 A2999 800 83 700 320/08 RMK AO2 TWR VIS 3
14837KMSN MSN20071112072511411/12/07 07:25:31  5-MIN KMSN 121325Z 32008KT 2SM HZ BKN017 OVC024 12/09 A3000 790 83 700 310/08 RMK AO2 TWR VIS 3
14837KMSN MSN20071112073011111/12/07 07:30:31  5-MIN KMSN 121330Z 32007KT 2 1/2SM HZ OVC021 12/09 A3000 790 83 600 320/07 RMK AO2 TWR VIS 3
14837KMSN MSN20071112073511111/12/07 07:35:31  5-MIN KMSN 121335Z 33008KT 2 1/2SM HZ BKN021 12/08 A3000 790 80 600 330/08 RMK AO2 TWR VIS 3
14837KMSN MSN20071112074011111/12/07 07:40:31  5-MIN KMSN 121340Z 33008KT 2 1/2SM HZ BKN023 12/08 A3000 790 80 600 330/08 RMK AO2 TWR VIS 3
14837KMSN MSN20071112074511111/12/07 07:45:31  5-MIN KMSN 121345Z 33008KT 2 1/2SM HZ BKN023 12/08 A3000 790 80 600 330/08 RMK AO2 TWR VIS 3
14837KMSN MSN20071112075010311/12/07 07:50:31  5-MIN KMSN 121350Z 34010G16KT 3SM HZ BKN023 12/08 A3000 790 80 600 340/10G16 RMK AO2
14837KMSN MSN20071112075510311/12/07 07:55:31  5-MIN KMSN 121355Z 34008G16KT 3SM HZ BKN023 12/08 A3000 790 80 600 330/08G16 RMK AO2
14837KMSN MSN20071112080009711/12/07 08:00:31  5-MIN KMSN 121400Z 34006KT 3SM HZ SCT023 12/08 A3001 780 80 600 340/06 RMK AO2
14837KMSN MSN20071112080509711/12/07 08:05:31  5-MIN KMSN 121405Z 34007KT 3SM HZ FEW023 11/08 A3001 780 80 500 340/07 RMK AO2
14837KMSN MSN20071112081009711/12/07 08:10:31  5-MIN KMSN 121410Z 33007KT 3SM HZ FEW023 11/08 A3002 780 80 500 320/07 RMK AO2
14837KMSN MSN20071112081509711/12/07 08:15:31  5-MIN KMSN 121415Z 33006KT 3SM HZ FEW023 11/07 A3002 770 80 500 330/06 RMK AO2
14837KMSN MSN20071112082009711/12/07 08:20:31  5-MIN KMSN 121420Z 34006KT 3SM HZ FEW023 11/07 A3002 770 80 500 340/06 RMK AO2
14837KMSN MSN20071112082509411/12/07 08:25:31  5-MIN KMSN 121425Z 34005KT 3SM HZ CLR 11/07 A3002 770 80 500 340/05 RMK AO2
14837KMSN MSN20071112083009411/12/07 08:30:31  5-MIN KMSN 121430Z 33005KT 3SM HZ CLR 11/07 A3002 770 80 500 330/05 RMK AO2
14837KMSN MSN20071112083509411/12/07 08:35:31  5-MIN KMSN 121435Z 33005KT 3SM HZ CLR 11/07 A3002 770 80 500 330/05 RMK AO2
14837KMSN MSN20071112084009411/12/07 08:40:31  5-MIN KMSN 121440Z 32007KT 3SM HZ CLR 11/07 A3002 770 74 500 320/07 RMK AO2
14837KMSN MSN20071112084509411/12/07 08:45:31  5-MIN KMSN 121445Z 33008KT 4SM HZ CLR 11/06 A3002 770 71 500 330/08 RMK AO2
14837KMSN MSN20071112085011711/12/07 08:50:31  5-MIN KMSN 121450Z 33007KT 4SM HZ CLR 12/06 A3003 770 68 600 330/07 RMK AO2 SLP169 T01170061 51016
14837KMSN MSN20071112085509411/12/07 08:55:31  5-MIN KMSN 121455Z 33009KT 5SM HZ CLR 12/06 A3003 770 66 600 330/09 RMK AO2
14837KMSN MSN20071112090009411/12/07 09:00:31  5-MIN KMSN 121500Z 35009KT 5SM HZ CLR 12/06 A3003 760 66 600 350/09 RMK AO2
14837KMSN MSN20071112090509411/12/07 09:05:31  5-MIN KMSN 121505Z 34010KT 5SM HZ CLR 12/06 A3003 760 66 600 340/10 RMK AO2
14837KMSN MSN20071112091009411/12/07 09:10:31  5-MIN KMSN 121510Z 34009KT 5SM HZ CLR 12/04 A3004 760 61 600 340/09 RMK AO2
14837KMSN MSN20071112091509411/12/07 09:15:31  5-MIN KMSN 121515Z 34008KT 6SM HZ CLR 12/04 A3004 750 61 600 340/08 RMK AO2
14837KMSN MSN20071112092009411/12/07 09:20:31  5-MIN KMSN 121520Z 34007KT 6SM HZ CLR 12/04 A3004 750 59 600 340/07 RMK AO2
14837KMSN MSN20071112092509411/12/07 09:25:31  5-MIN KMSN 121525Z 33008KT 6SM HZ CLR 12/04 A3004 750 56 600 330/08 RMK AO2
14837KMSN MSN20071112093010011/12/07 09:30:31  5-MIN KMSN 121530Z 32011G15KT 6SM HZ CLR 12/04 A3004 750 58 600 320/11G15 RMK AO2
14837KMSN MSN20071112093510011/12/07 09:35:31  5-MIN KMSN 121535Z 30006G15KT 6SM HZ CLR 12/04 A3004 750 59 600 300/06G15 RMK AO2
14837KMSN MSN20071112094011011/12/07 09:40:31  5-MIN KMSN 121540Z 32008KT 290V350 6SM HZ CLR 12/04 A3005 750 61 600 320/08 290V350 RMK AO2
14837KMSN MSN20071112094509411/12/07 09:45:31  5-MIN KMSN 121545Z 31007KT 6SM HZ CLR 12/04 A3005 750 59 600 310/07 RMK AO2
14837KMSN MSN20071112095011711/12/07 09:50:31  5-MIN KMSN 121550Z 32010G14KT 6SM HZ CLR 12/04 A3005 750 56 600 320/10G14 RMK AO2 SLP177 T01220039
14837KMSN MSN20071112095509711/12/07 09:55:31  5-MIN KMSN 121555Z 31009G14KT 7SM CLR 12/04 A3005 740 56 600 310/09G14 RMK AO2
14837KMSN MSN20071112100009111/12/07 10:00:31  5-MIN KMSN 121600Z 33009KT 7SM CLR 12/03 A3005 740 54 600 320/09 RMK AO2
14837KMSN MSN20071112100509111/12/07 10:05:31  5-MIN KMSN 121605Z 30008KT 7SM CLR 12/03 A3006 740 54 600 300/08 RMK AO2
14837KMSN MSN20071112101009111/12/07 10:10:31  5-MIN KMSN 121610Z 31007KT 7SM CLR 12/03 A3006 740 54 600 310/07 RMK AO2
14837KMSN MSN20071112101509111/12/07 10:15:31  5-MIN KMSN 121615Z 32007KT 7SM CLR 13/03 A3006 740 52 700 320/07 RMK AO2
14837KMSN MSN20071112102009111/12/07 10:20:31  5-MIN KMSN 121620Z 30009KT 7SM CLR 12/03 A3006 740 52 600 300/09 RMK AO2
14837KMSN MSN20071112102509111/12/07 10:25:31  5-MIN KMSN 121625Z 31006KT 8SM CLR 12/02 A3005 740 50 600 310/06 RMK AO2
14837KMSN MSN20071112103009111/12/07 10:30:31  5-MIN KMSN 121630Z 33009KT 8SM CLR 13/02 A3005 740 48 700 330/09 RMK AO2
14837KMSN MSN20071112103509111/12/07 10:35:31  5-MIN KMSN 121635Z 32009KT 8SM CLR 13/02 A3005 740 46 700 320/09 RMK AO2
14837KMSN MSN20071112104009711/12/07 10:40:31  5-MIN KMSN 121640Z 34012G17KT 9SM CLR 13/01 A3006 740 43 700 340/12G17 RMK AO2
14837KMSN MSN20071112104509711/12/07 10:45:31  5-MIN KMSN 121645Z 34011G17KT 9SM CLR 13/01 A3006 740 43 700 340/11G17 RMK AO2
14837KMSN MSN20071112105010911/12/07 10:50:31  5-MIN KMSN 121650Z 35010KT 10SM CLR 13/01 A3006 740 41 800 350/10 RMK AO2 SLP179 T01330006
14837KMSN MSN20071112105510711/12/07 10:55:31  5-MIN KMSN 121655Z 31009KT 280V350 9SM CLR 13/01 A3005 740 43 800 310/09 280V350 RMK AO2
14837KMSN MSN20071112110009111/12/07 11:00:31  5-MIN KMSN 121700Z 31009KT 9SM CLR 13/01 A3005 740 41 800 310/09 RMK AO2
14837KMSN MSN20071112110509211/12/07 11:05:31  5-MIN KMSN 121705Z 30010KT 10SM CLR 13/01 A3005 750 41 800 300/10 RMK AO2
14837KMSN MSN20071112111009211/12/07 11:10:31  5-MIN KMSN 121710Z 34009KT 10SM CLR 13/00 A3005 750 41 700 340/09 RMK AO2
14837KMSN MSN20071112111509211/12/07 11:15:31  5-MIN KMSN 121715Z 32008KT 10SM CLR 13/00 A3005 750 41 700 320/08 RMK AO2
14837KMSN MSN20071112112009311/12/07 11:20:31  5-MIN KMSN 121720Z 32008KT 10SM CLR 13/M01 A3004 750 39 700 310/08 RMK AO2
14837KMSN MSN20071112112509311/12/07 11:25:31  5-MIN KMSN 121725Z 33010KT 10SM CLR 13/M01 A3004 750 36 800 330/10 RMK AO2
14837KMSN MSN20071112113009311/12/07 11:30:31  5-MIN KMSN 121730Z 35010KT 10SM CLR 13/M02 A3004 750 34 800 340/10 RMK AO2
14837KMSN MSN20071112113509311/12/07 11:35:31  5-MIN KMSN 121735Z 33009KT 10SM CLR 13/M02 A3004 750 34 800 330/09 RMK AO2
14837KMSN MSN20071112114009311/12/07 11:40:31  5-MIN KMSN 121740Z 32011KT 10SM CLR 13/M02 A3004 750 34 800 320/11 RMK AO2
14837KMSN MSN20071112114509311/12/07 11:45:31  5-MIN KMSN 121745Z 32010KT 10SM CLR 13/M03 A3003 760 32 800 320/10 RMK AO2
14837KMSN MSN20071112115013411/12/07 11:50:31  5-MIN KMSN 121750Z 32008G14KT 10SM CLR 14/M02 A3003 760 32 800 320/08G14 RMK AO2 SLP170 T01391022 10139 20106 51031
14837KMSN MSN20071112115509311/12/07 11:55:31  5-MIN KMSN 121755Z 33009KT 10SM CLR 14/M02 A3003 760 33 900 330/09 RMK AO2
14837KMSN MSN20071112120009311/12/07 12:00:31  5-MIN KMSN 121800Z 29009KT 10SM CLR 14/M02 A3003 760 33 900 290/09 RMK AO2
14837KMSN MSN20071112120509311/12/07 12:05:31  5-MIN KMSN 121805Z 30010KT 10SM CLR 14/M02 A3003 760 32 800 300/10 RMK AO2
14837KMSN MSN20071112121009311/12/07 12:10:31  5-MIN KMSN 121810Z 30010KT 10SM CLR 14/M02 A3004 760 32 800 300/10 RMK AO2
14837KMSN MSN20071112121509311/12/07 12:15:31  5-MIN KMSN 121815Z 30009KT 10SM CLR 14/M03 A3004 750 31 800 300/09 RMK AO2
14837KMSN MSN20071112122009911/12/07 12:20:31  5-MIN KMSN 121820Z 32010G17KT 10SM CLR 13/M03 A3004 760 32 800 310/10G17 RMK AO2
14837KMSN MSN20071112122509911/12/07 12:25:31  5-MIN KMSN 121825Z 31006G17KT 10SM CLR 13/M02 A3003 760 34 800 310/06G17 RMK AO2
14837KMSN MSN20071112123009311/12/07 12:30:31  5-MIN KMSN 121830Z 31007KT 10SM CLR 13/M03 A3003 760 32 800 310/07 RMK AO2
14837KMSN MSN20071112123509911/12/07 12:35:31  5-MIN KMSN 121835Z 32009G14KT 10SM CLR 14/M03 A3003 760 31 900 320/09G14 RMK AO2
14837KMSN MSN20071112124009911/12/07 12:40:31  5-MIN KMSN 121840Z 32006G15KT 10SM CLR 14/M04 A3003 760 29 900 320/06G15 RMK AO2
14837KMSN MSN20071112124509911/12/07 12:45:31  5-MIN KMSN 121845Z 31005G15KT 10SM CLR 14/M03 A3003 760 29 900 310/05G15 RMK AO2
14837KMSN MSN20071112125013211/12/07 12:50:31  5-MIN KMSN 121850Z 31007G14KT 280V340 10SM CLR 14/M02 A3003 770 31 900 310/07G14 280V340 RMK AO2 SLP169 T01441022
14837KMSN MSN20071112125511611/12/07 12:55:31  5-MIN KMSN 121855Z 31008G14KT 260V330 10SM CLR 15/M03 A3003 770 29 1000 300/08G14 260V330 RMK AO2
14837KMSN MSN20071112130009311/12/07 13:00:31  5-MIN KMSN 121900Z 33010KT 10SM CLR 14/M04 A3003 770 26 900 320/10 RMK AO2
14837KMSN MSN20071112130509311/12/07 13:05:31  5-MIN KMSN 121905Z 31008KT 10SM CLR 14/M04 A3003 770 28 900 310/08 RMK AO2
14837KMSN MSN20071112131009311/12/07 13:10:31  5-MIN KMSN 121910Z 31011KT 10SM CLR 14/M04 A3003 770 28 900 310/11 RMK AO2
14837KMSN MSN20071112131509311/12/07 13:15:31  5-MIN KMSN 121915Z 30008KT 10SM CLR 14/M04 A3003 760 28 900 300/08 RMK AO2
14837KMSN MSN20071112132009911/12/07 13:20:31  5-MIN KMSN 121920Z 31008G15KT 10SM CLR 14/M03 A3003 760 29 900 310/08G15 RMK AO2
14837KMSN MSN20071112132509911/12/07 13:25:31  5-MIN KMSN 121925Z 31010G18KT 10SM CLR 14/M04 A3004 760 28 900 310/10G18 RMK AO2
14837KMSN MSN20071112133009911/12/07 13:30:31  5-MIN KMSN 121930Z 30008G18KT 10SM CLR 14/M03 A3004 760 29 900 300/08G18 RMK AO2
14837KMSN MSN20071112133509311/12/07 13:35:31  5-MIN KMSN 121935Z 30008KT 10SM CLR 14/M03 A3003 760 29 900 300/08 RMK AO2
14837KMSN MSN20071112134009311/12/07 13:40:31  5-MIN KMSN 121940Z 29009KT 10SM CLR 14/M03 A3003 760 30 800 290/09 RMK AO2
14837KMSN MSN20071112134509311/12/07 13:45:31  5-MIN KMSN 121945Z 31006KT 10SM CLR 14/M03 A3003 760 30 900 310/06 RMK AO2
14837KMSN MSN20071112135011011/12/07 13:50:31  5-MIN KMSN 121950Z 31008KT 10SM CLR 14/M03 A3003 760 31 800 310/08 RMK AO2 SLP170 T01391028
14837KMSN MSN20071112135509311/12/07 13:55:31  5-MIN KMSN 121955Z 31008KT 10SM CLR 14/M03 A3003 770 29 900 310/08 RMK AO2
14837KMSN MSN20071112140009311/12/07 14:00:31  5-MIN KMSN 122000Z 32009KT 10SM CLR 14/M04 A3003 770 28 900 320/09 RMK AO2
14837KMSN MSN20071112140509311/12/07 14:05:31  5-MIN KMSN 122005Z 31009KT 10SM CLR 14/M04 A3003 770 26 900 310/09 RMK AO2
14837KMSN MSN20071112141009311/12/07 14:10:31  5-MIN KMSN 122010Z 30008KT 10SM CLR 14/M04 A3003 760 28 900 300/08 RMK AO2
14837KMSN MSN20071112141509411/12/07 14:15:31  5-MIN KMSN 122015Z 30009KT 10SM CLR 15/M04 A3003 760 27 1000 300/09 RMK AO2
14837KMSN MSN20071112142009311/12/07 14:20:31  5-MIN KMSN 122020Z 32012KT 10SM CLR 14/M04 A3003 760 28 900 320/12 RMK AO2
14837KMSN MSN20071112142509311/12/07 14:25:31  5-MIN KMSN 122025Z 31009KT 10SM CLR 14/M03 A3003 760 30 800 310/09 RMK AO2
14837KMSN MSN20071112143009311/12/07 14:30:31  5-MIN KMSN 122030Z 32008KT 10SM CLR 14/M03 A3003 760 30 800 320/08 RMK AO2
14837KMSN MSN20071112143509311/12/07 14:35:31  5-MIN KMSN 122035Z 30008KT 10SM CLR 14/M03 A3003 760 30 800 300/08 RMK AO2
14837KMSN MSN20071112144009311/12/07 14:40:31  5-MIN KMSN 122040Z 30006KT 10SM CLR 14/M03 A3003 760 31 800 300/06 RMK AO2
14837KMSN MSN20071112144509311/12/07 14:45:31  5-MIN KMSN 122045Z 30008KT 10SM CLR 14/M03 A3003 760 31 800 300/08 RMK AO2
14837KMSN MSN20071112145011611/12/07 14:50:31  5-MIN KMSN 122050Z 31009KT 10SM CLR 14/M03 A3004 750 31 800 310/09 RMK AO2 SLP173 T01391028 50002
14837KMSN MSN20071112145509311/12/07 14:55:31  5-MIN KMSN 122055Z 31009KT 10SM CLR 14/M03 A3004 750 31 800 310/09 RMK AO2
14837KMSN MSN20071112150009311/12/07 15:00:31  5-MIN KMSN 122100Z 32010KT 10SM CLR 14/M03 A3005 750 31 800 320/10 RMK AO2
14837KMSN MSN20071112150509311/12/07 15:05:31  5-MIN KMSN 122105Z 31011KT 10SM CLR 13/M03 A3005 750 31 800 310/11 RMK AO2
14837KMSN MSN20071112151009311/12/07 15:10:31  5-MIN KMSN 122110Z 32009KT 10SM CLR 13/M03 A3005 750 31 800 320/09 RMK AO2
14837KMSN MSN20071112151509911/12/07 15:15:31  5-MIN KMSN 122115Z 32012G16KT 10SM CLR 13/M03 A3005 750 31 800 320/12G16 RMK AO2
14837KMSN MSN20071112152009911/12/07 15:20:31  5-MIN KMSN 122120Z 33006G16KT 10SM CLR 13/M03 A3005 740 32 700 330/06G16 RMK AO2
14837KMSN MSN20071112152509311/12/07 15:25:31  5-MIN KMSN 122125Z 32006KT 10SM CLR 13/M03 A3005 750 32 700 320/06 RMK AO2
14837KMSN MSN20071112153009911/12/07 15:30:31  5-MIN KMSN 122130Z 31010G15KT 10SM CLR 13/M03 A3005 740 33 700 310/10G15 RMK AO2
14837KMSN MSN20071112153509311/12/07 15:35:31  5-MIN KMSN 122135Z 32009KT 10SM CLR 13/M03 A3006 740 33 700 320/09 RMK AO2
14837KMSN MSN20071112154009311/12/07 15:40:31  5-MIN KMSN 122140Z 33006KT 10SM CLR 13/M03 A3006 740 33 700 330/06 RMK AO2
14837KMSN MSN20071112154509311/12/07 15:45:31  5-MIN KMSN 122145Z 32006KT 10SM CLR 13/M02 A3006 740 35 700 320/06 RMK AO2
14837KMSN MSN20071112155011011/12/07 15:50:31  5-MIN KMSN 122150Z 32009KT 10SM CLR 13/M02 A3006 740 35 700 320/09 RMK AO2 SLP180 T01281022
14837KMSN MSN20071112155509311/12/07 15:55:31  5-MIN KMSN 122155Z 32008KT 10SM CLR 12/M02 A3006 740 36 600 320/08 RMK AO2
14837KMSN MSN20071112160009311/12/07 16:00:31  5-MIN KMSN 122200Z 32007KT 10SM CLR 12/M02 A3006 740 36 600 320/07 RMK AO2
14837KMSN MSN20071112160509311/12/07 16:05:31  5-MIN KMSN 122205Z 31008KT 10SM CLR 12/M02 A3006 740 38 600 310/08 RMK AO2
14837KMSN MSN20071112161009311/12/07 16:10:31  5-MIN KMSN 122210Z 32007KT 10SM CLR 12/M02 A3006 740 38 600 310/07 RMK AO2
14837KMSN MSN20071112161509611/12/07 16:15:31  5-MIN KMSN 122215Z 31007KT 10SM FEW110 12/M02 A3006 730 38 500 310/07 RMK AO2
14837KMSN MSN20071112162010311/12/07 16:20:31  5-MIN KMSN 122220Z 32006KT 10SM SCT095 SCT110 12/M02 A3007 730 38 500 320/06 RMK AO2
14837KMSN MSN20071112162509611/12/07 16:25:31  5-MIN KMSN 122225Z 32005KT 10SM BKN095 12/M02 A3007 730 38 500 320/05 RMK AO2
14837KMSN MSN20071112163009611/12/07 16:30:31  5-MIN KMSN 122230Z 32004KT 10SM BKN090 12/M02 A3006 730 38 500 320/04 RMK AO2
14837KMSN MSN20071112163509611/12/07 16:35:31  5-MIN KMSN 122235Z 33007KT 10SM BKN090 12/M02 A3006 730 39 600 320/07 RMK AO2
14837KMSN MSN20071112164009611/12/07 16:40:31  5-MIN KMSN 122240Z 32007KT 10SM OVC090 12/M02 A3006 730 38 500 320/07 RMK AO2
14837KMSN MSN20071112164509611/12/07 16:45:31  5-MIN KMSN 122245Z 33006KT 10SM OVC090 11/M02 A3007 730 39 500 330/06 RMK AO2
14837KMSN MSN20071112165011311/12/07 16:50:31  5-MIN KMSN 122250Z 33005KT 10SM OVC090 11/M02 A3007 730 39 500 330/05 RMK AO2 SLP184 T01111022
14837KMSN MSN20071112165509611/12/07 16:55:31  5-MIN KMSN 122255Z 33005KT 10SM OVC095 11/M02 A3007 730 39 500 330/05 RMK AO2
14837KMSN MSN20071112170010311/12/07 17:00:31  5-MIN KMSN 122300Z 33003KT 10SM BKN095 OVC110 11/M02 A3007 730 39 500 330/03 RMK AO2
14837KMSN MSN20071112170509611/12/07 17:05:31  5-MIN KMSN 122305Z 31003KT 10SM OVC100 11/M02 A3007 720 39 500 310/03 RMK AO2
14837KMSN MSN20071112171009611/12/07 17:10:31  5-MIN KMSN 122310Z 32003KT 10SM OVC100 11/M02 A3008 720 39 500 320/03 RMK AO2
14837KMSN MSN20071112171509611/12/07 17:15:31  5-MIN KMSN 122315Z 32003KT 10SM OVC100 11/M02 A3008 720 40 400 320/03 RMK AO2
14837KMSN MSN20071112172009611/12/07 17:20:31  5-MIN KMSN 122320Z 32005KT 10SM OVC100 11/M02 A3008 710 40 400 320/05 RMK AO2
14837KMSN MSN20071112172509611/12/07 17:25:31  5-MIN KMSN 122325Z 32005KT 10SM OVC100 11/M02 A3009 710 40 400 320/05 RMK AO2
14837KMSN MSN20071112173009611/12/07 17:30:31  5-MIN KMSN 122330Z 33005KT 10SM OVC100 11/M02 A3008 720 40 400 330/05 RMK AO2
14837KMSN MSN20071112173509611/12/07 17:35:31  5-MIN KMSN 122335Z 32004KT 10SM OVC100 11/M02 A3008 720 40 400 320/04 RMK AO2
14837KMSN MSN20071112174009611/12/07 17:40:31  5-MIN KMSN 122340Z 32003KT 10SM OVC100 11/M02 A3008 720 40 400 320/03 RMK AO2
14837KMSN MSN20071112174509611/12/07 17:45:31  5-MIN KMSN 122345Z 30003KT 10SM OVC100 11/M02 A3008 710 40 400 300/03 RMK AO2
14837KMSN MSN20071112175013111/12/07 17:50:31  5-MIN KMSN 122350Z 31003KT 10SM OVC100 11/M02 A3009 710 40 400 310/03 RMK AO2 SLP190 T01061022 10150 20106 53003
14837KMSN MSN20071112175509611/12/07 17:55:31  5-MIN KMSN 122355Z 32005KT 10SM OVC100 11/M02 A3009 710 40 400 310/05 RMK AO2
14837KMSN MSN20071112180009611/12/07 18:00:31  5-MIN KMSN 130000Z 32004KT 10SM OVC100 11/M02 A3009 710 42 400 320/04 RMK AO2
14837KMSN MSN20071112180509611/12/07 18:05:31  5-MIN KMSN 130005Z 32004KT 10SM OVC110 11/M02 A3008 710 40 400 320/04 RMK AO2
14837KMSN MSN20071112181009611/12/07 18:10:31  5-MIN KMSN 130010Z 31005KT 10SM OVC110 11/M02 A3009 710 42 400 310/05 RMK AO2
14837KMSN MSN20071112181509611/12/07 18:15:31  5-MIN KMSN 130015Z 29003KT 10SM OVC110 11/M02 A3009 710 40 400 290/03 RMK AO2
14837KMSN MSN20071112182009611/12/07 18:20:31  5-MIN KMSN 130020Z 29003KT 10SM OVC110 11/M02 A3009 710 40 400 290/03 RMK AO2
14837KMSN MSN20071112182509611/12/07 18:25:31  5-MIN KMSN 130025Z 30003KT 10SM OVC110 11/M02 A3009 710 40 400 300/03 RMK AO2
14837KMSN MSN20071112183009611/12/07 18:30:31  5-MIN KMSN 130030Z 31004KT 10SM OVC110 10/M02 A3009 700 44 300 310/04 RMK AO2
14837KMSN MSN20071112183509611/12/07 18:35:31  5-MIN KMSN 130035Z 33004KT 10SM OVC110 10/M02 A3009 710 44 300 330/04 RMK AO2
14837KMSN MSN20071112184009611/12/07 18:40:31  5-MIN KMSN 130040Z 32004KT 10SM OVC110 10/M02 A3009 700 44 300 320/04 RMK AO2
14837KMSN MSN20071112184509611/12/07 18:45:31  5-MIN KMSN 130045Z 32005KT 10SM OVC110 09/M02 A3010 700 45 200 320/05 RMK AO2
14837KMSN MSN20071112185011311/12/07 18:50:31  5-MIN KMSN 130050Z 32005KT 10SM OVC120 10/M02 A3010 700 44 300 320/05 RMK AO2 SLP194 T01001017
14837KMSN MSN20071112185509611/12/07 18:55:31  5-MIN KMSN 130055Z 33006KT 10SM BKN120 10/M02 A3009 700 44 300 330/06 RMK AO2
14837KMSN MSN20071112190009611/12/07 19:00:31  5-MIN KMSN 130100Z 32006KT 10SM BKN120 09/M02 A3009 700 45 200 320/06 RMK AO2
14837KMSN MSN20071112190509611/12/07 19:05:31  5-MIN KMSN 130105Z 32005KT 10SM SCT120 09/M02 A3010 700 47 200 320/05 RMK AO2
14837KMSN MSN20071112191009611/12/07 19:10:31  5-MIN KMSN 130110Z 32006KT 10SM FEW120 09/M02 A3009 700 47 200 320/06 RMK AO2
14837KMSN MSN20071112191509611/12/07 19:15:31  5-MIN KMSN 130115Z 32005KT 10SM FEW120 09/M02 A3009 710 45 200 320/05 RMK AO2
14837KMSN MSN20071112192009311/12/07 19:20:31  5-MIN KMSN 130120Z 33005KT 10SM CLR 08/M02 A3009 710 47 100 330/05 RMK AO2
14837KMSN MSN20071112192509311/12/07 19:25:31  5-MIN KMSN 130125Z 33005KT 10SM CLR 08/M02 A3009 710 47 100 330/05 RMK AO2
14837KMSN MSN20071112193009311/12/07 19:30:31  5-MIN KMSN 130130Z 33006KT 10SM CLR 08/M02 A3009 710 47 100 320/06 RMK AO2
14837KMSN MSN20071112193509311/12/07 19:35:31  5-MIN KMSN 130135Z 32006KT 10SM CLR 08/M02 A3010 700 47 100 320/06 RMK AO2
14837KMSN MSN20071112194009311/12/07 19:40:31  5-MIN KMSN 130140Z 32005KT 10SM CLR 08/M02 A3010 700 47 100 320/05 RMK AO2
14837KMSN MSN20071112194509111/12/07 19:45:31  5-MIN KMSN 130145Z 32005KT 10SM CLR 08/M02 A3010 700 49 0 320/05 RMK AO2
14837KMSN MSN20071112195010811/12/07 19:50:31  5-MIN KMSN 130150Z 33004KT 10SM CLR 08/M02 A3010 700 49 0 330/04 RMK AO2 SLP195 T00781022
14837KMSN MSN20071112195509411/12/07 19:55:31  5-MIN KMSN 130155Z 33005KT 10SM FEW100 08/M02 A3010 700 49 0 330/05 RMK AO2
14837KMSN MSN20071112200009411/12/07 20:00:31  5-MIN KMSN 130200Z 33006KT 10SM FEW100 08/M02 A3010 700 49 0 330/06 RMK AO2
14837KMSN MSN20071112200509411/12/07 20:05:31  5-MIN KMSN 130205Z 33006KT 10SM FEW100 07/M02 A3010 700 51 0 330/06 RMK AO2
14837KMSN MSN20071112201009411/12/07 20:10:31  5-MIN KMSN 130210Z 33004KT 10SM FEW100 07/M02 A3010 700 51 0 320/04 RMK AO2
14837KMSN MSN20071112201509411/12/07 20:15:31  5-MIN KMSN 130215Z 33005KT 10SM FEW100 07/M03 A3010 700 49 0 330/05 RMK AO2
14837KMSN MSN20071112202009711/12/07 20:20:31  5-MIN KMSN 130220Z 34005KT 10SM FEW100 07/M03 A3011 690 51 -100 340/05 RMK AO2
14837KMSN MSN20071112202509411/12/07 20:25:31  5-MIN KMSN 130225Z 34005KT 10SM FEW100 07/M03 A3011 690 49 0 340/05 RMK AO2
14837KMSN MSN20071112203009111/12/07 20:30:31  5-MIN KMSN 130230Z 34004KT 10SM CLR 07/M03 A3011 690 49 0 340/04 RMK AO2
14837KMSN MSN20071112203509411/12/07 20:35:31  5-MIN KMSN 130235Z 34005KT 10SM CLR 06/M02 A3011 690 55 -100 330/05 RMK AO2
14837KMSN MSN20071112204009411/12/07 20:40:31  5-MIN KMSN 130240Z 34005KT 10SM CLR 06/M02 A3011 690 57 -200 340/05 RMK AO2
14837KMSN MSN20071112204509411/12/07 20:45:31  5-MIN KMSN 130245Z 34004KT 10SM CLR 06/M02 A3011 690 55 -100 340/04 RMK AO2
14837KMSN MSN20071112205011711/12/07 20:50:31  5-MIN KMSN 130250Z 34006KT 10SM CLR 06/M03 A3012 680 55 -200 340/06 RMK AO2 SLP203 T00561028 53016
14837KMSN MSN20071112205509411/12/07 20:55:31  5-MIN KMSN 130255Z 34006KT 10SM CLR 04/M03 A3012 680 59 -300 330/06 RMK AO2
14837KMSN MSN20071112210009411/12/07 21:00:31  5-MIN KMSN 130300Z 34006KT 10SM CLR 06/M03 A3012 680 55 -200 340/06 RMK AO2
14837KMSN MSN20071112210509411/12/07 21:05:31  5-MIN KMSN 130305Z 34005KT 10SM CLR 05/M03 A3011 690 57 -300 340/05 RMK AO2
14837KMSN MSN20071112211009411/12/07 21:10:31  5-MIN KMSN 130310Z 34003KT 10SM CLR 06/M03 A3011 690 55 -200 340/03 RMK AO2
14837KMSN MSN20071112211509411/12/07 21:15:31  5-MIN KMSN 130315Z 34003KT 10SM CLR 04/M02 A3011 690 62 -300 340/03 RMK AO2
14837KMSN MSN20071112212009411/12/07 21:20:31  5-MIN KMSN 130320Z 00000KT 10SM CLR 04/M02 A3011 690 62 -300 000/00 RMK AO2
14837KMSN MSN20071112212509411/12/07 21:25:31  5-MIN KMSN 130325Z 00000KT 10SM CLR 04/M02 A3012 680 64 -400 000/00 RMK AO2
14837KMSN MSN20071112213009411/12/07 21:30:31  5-MIN KMSN 130330Z 34003KT 10SM CLR 03/M03 A3012 680 64 -500 340/03 RMK AO2
14837KMSN MSN20071112213509411/12/07 21:35:31  5-MIN KMSN 130335Z 33004KT 10SM CLR 03/M03 A3012 680 64 -500 330/04 RMK AO2
14837KMSN MSN20071112214009411/12/07 21:40:31  5-MIN KMSN 130340Z 00000KT 10SM CLR 03/M03 A3012 680 64 -500 000/00 RMK AO2
14837KMSN MSN20071112214509411/12/07 21:45:31  5-MIN KMSN 130345Z 00000KT 10SM CLR 03/M03 A3011 690 64 -500 000/00 RMK AO2
14837KMSN MSN20071112215011111/12/07 21:50:31  5-MIN KMSN 130350Z 00000KT 10SM CLR 03/M03 A3011 690 64 -500 000/00 RMK AO2 SLP202 T00331028
14837KMSN MSN20071112215509411/12/07 21:55:31  5-MIN KMSN 130355Z 00000KT 10SM CLR 04/M03 A3011 690 62 -400 000/00 RMK AO2
14837KMSN MSN20071112220009311/12/07 22:00:31  5-MIN KMSN 130400Z 00000KT 9SM CLR 03/M03 A3011 690 64 -500 000/00 RMK AO2
14837KMSN MSN20071112220509311/12/07 22:05:31  5-MIN KMSN 130405Z 00000KT 8SM CLR 03/M03 A3011 690 67 -500 000/00 RMK AO2
14837KMSN MSN20071112221009411/12/07 22:10:31  5-MIN KMSN 130410Z 00000KT 10SM CLR 03/M03 A3011 690 67 -500 000/00 RMK AO2
14837KMSN MSN20071112221509411/12/07 22:15:31  5-MIN KMSN 130415Z 00000KT 10SM CLR 03/M03 A3010 700 67 -500 000/00 RMK AO2
14837KMSN MSN20071112222009411/12/07 22:20:31  5-MIN KMSN 130420Z 00000KT 10SM CLR 02/M02 A3010 700 75 -700 000/00 RMK AO2
14837KMSN MSN20071112222509411/12/07 22:25:31  5-MIN KMSN 130425Z 00000KT 10SM CLR 02/M03 A3010 700 69 -600 000/00 RMK AO2
14837KMSN MSN20071112223009411/12/07 22:30:31  5-MIN KMSN 130430Z 00000KT 10SM CLR 02/M02 A3010 700 75 -700 000/00 RMK AO2
14837KMSN MSN20071112223509411/12/07 22:35:31  5-MIN KMSN 130435Z 00000KT 10SM CLR 02/M03 A3010 700 69 -600 000/00 RMK AO2
14837KMSN MSN20071112224009411/12/07 22:40:31  5-MIN KMSN 130440Z 00000KT 10SM CLR 02/M03 A3010 700 69 -600 000/00 RMK AO2
14837KMSN MSN20071112224509411/12/07 22:45:31  5-MIN KMSN 130445Z 00000KT 10SM CLR 02/M03 A3010 700 72 -700 000/00 RMK AO2
14837KMSN MSN20071112225011111/12/07 22:50:31  5-MIN KMSN 130450Z 00000KT 10SM CLR 01/M03 A3010 700 72 -700 000/00 RMK AO2 SLP197 T00111033
14837KMSN MSN20071112225509411/12/07 22:55:31  5-MIN KMSN 130455Z 00000KT 10SM CLR 01/M03 A3010 700 75 -800 000/00 RMK AO2
14837KMSN MSN20071112230009411/12/07 23:00:31  5-MIN KMSN 130500Z 00000KT 10SM CLR 01/M03 A3010 700 75 -800 000/00 RMK AO2
14837KMSN MSN20071112230509411/12/07 23:05:31  5-MIN KMSN 130505Z 00000KT 10SM CLR 01/M03 A3010 700 75 -800 000/00 RMK AO2
14837KMSN MSN20071112231009411/12/07 23:10:31  5-MIN KMSN 130510Z 00000KT 10SM CLR 00/M03 A3010 700 78 -900 000/00 RMK AO2
14837KMSN MSN20071112231509411/12/07 23:15:31  5-MIN KMSN 130515Z 00000KT 10SM CLR 00/M03 A3010 700 78 -900 000/00 RMK AO2
14837KMSN MSN20071112232009411/12/07 23:20:31  5-MIN KMSN 130520Z 00000KT 10SM CLR 01/M03 A3010 700 75 -800 000/00 RMK AO2
14837KMSN MSN20071112232509411/12/07 23:25:31  5-MIN KMSN 130525Z 00000KT 10SM CLR 01/M03 A3010 700 75 -800 000/00 RMK AO2
14837KMSN MSN20071112233009411/12/07 23:30:31  5-MIN KMSN 130530Z 00000KT 10SM CLR 01/M03 A3009 710 75 -800 000/00 RMK AO2
14837KMSN MSN20071112233509411/12/07 23:35:31  5-MIN KMSN 130535Z 00000KT 10SM CLR 01/M03 A3009 700 75 -700 000/00 RMK AO2
14837KMSN MSN20071112234009411/12/07 23:40:31  5-MIN KMSN 130540Z 00000KT 10SM CLR 01/M03 A3009 710 75 -800 000/00 RMK AO2
14837KMSN MSN20071112234509411/12/07 23:45:31  5-MIN KMSN 130545Z 00000KT 10SM CLR 00/M03 A3009 700 78 -900 000/00 RMK AO2
14837KMSN MSN20071112235013911/12/07 23:50:31  5-MIN KMSN 130550Z 00000KT 10SM CLR 00/M03 A3010 700 78 -900 000/00 RMK AO2 SLP197 T00001033 10106 20000 401500000 53009
14837KMSN MSN20071112235509411/12/07 23:55:31  5-MIN KMSN 130555Z 00000KT 10SM CLR 01/M03 A3009 710 75 -800 000/00 RMK AO2
14837KMSN MSN20071113000009411/13/07 00:00:32  5-MIN KMSN 130600Z 00000KT 10SM CLR 00/M03 A3009 710 78 -900 000/00 RMK AO2
14837KMSN MSN20071113000509511/13/07 00:05:31  5-MIN KMSN 130605Z 00000KT 10SM CLR M01/M04 A3009 710 78 -900 000/00 RMK AO2
14837KMSN MSN20071113001009511/13/07 00:10:31  5-MIN KMSN 130610Z 00000KT 10SM CLR M01/M04 A3009 710 78 -900 000/00 RMK AO2
14837KMSN MSN20071113001509511/13/07 00:15:31  5-MIN KMSN 130615Z 00000KT 10SM CLR M01/M03 A3009 710 81 -900 000/00 RMK AO2
14837KMSN MSN20071113002009511/13/07 00:20:31  5-MIN KMSN 130620Z 00000KT 10SM CLR M01/M03 A3009 710 81 -900 000/00 RMK AO2
14837KMSN MSN20071113002509511/13/07 00:25:31  5-MIN KMSN 130625Z 00000KT 10SM CLR M01/M03 A3008 720 81 -900 000/00 RMK AO2
14837KMSN MSN20071113003009411/13/07 00:30:31  5-MIN KMSN 130630Z 00000KT 10SM CLR 00/M03 A3008 720 78 -800 000/00 RMK AO2
14837KMSN MSN20071113003509411/13/07 00:35:31  5-MIN KMSN 130635Z 00000KT 10SM CLR 00/M03 A3008 720 78 -800 000/00 RMK AO2
14837KMSN MSN20071113004009411/13/07 00:40:31  5-MIN KMSN 130640Z 00000KT 10SM CLR 00/M03 A3007 720 78 -800 000/00 RMK AO2
14837KMSN MSN20071113004509411/13/07 00:45:31  5-MIN KMSN 130645Z 00000KT 10SM CLR 00/M04 A3007 730 75 -800 000/00 RMK AO2
14837KMSN MSN20071113005011311/13/07 00:50:31  5-MIN KMSN 130650Z 00000KT 10SM CLR M01/M04 A3007 730 81 -1000 000/00 RMK AO2 SLP188 T10111039
14837KMSN MSN20071113005509611/13/07 00:55:31  5-MIN KMSN 130655Z 00000KT 10SM CLR M01/M04 A3007 730 81 -1000 000/00 RMK AO2
14837KMSN MSN20071113010009611/13/07 01:00:31  5-MIN KMSN 130700Z 00000KT 10SM CLR M01/M04 A3007 730 81 -1000 000/00 RMK AO2
14837KMSN MSN20071113010509611/13/07 01:05:31  5-MIN KMSN 130705Z 00000KT 10SM CLR M01/M04 A3006 730 81 -1000 000/00 RMK AO2
14837KMSN MSN20071113033009611/13/07 03:30:31  5-MIN KMSN 130930Z 00000KT 10SM CLR M02/M04 A3004 760 85 -1100 000/00 RMK AO2
14837KMSN MSN20071113033509611/13/07 03:35:31  5-MIN KMSN 130935Z 00000KT 10SM CLR M03/M06 A3004 760 85 -1200 000/00 RMK AO2
14837KMSN MSN20071113034009611/13/07 03:40:31  5-MIN KMSN 130940Z 00000KT 10SM CLR M03/M06 A3003 760 81 -1100 000/00 RMK AO2
14837KMSN MSN20071113034509611/13/07 03:45:31  5-MIN KMSN 130945Z 00000KT 10SM CLR M02/M05 A3003 760 81 -1100 000/00 RMK AO2
14837KMSN MSN20071113035011311/13/07 03:50:31  5-MIN KMSN 130950Z 00000KT 10SM CLR M02/M05 A3003 760 78 -1000 000/00 RMK AO2 SLP174 T10171050
14837KMSN MSN20071113035509611/13/07 03:55:31  5-MIN KMSN 130955Z 00000KT 10SM CLR M02/M05 A3003 760 78 -1000 000/00 RMK AO2
14837KMSN MSN20071113040009611/13/07 04:00:31  5-MIN KMSN 131000Z 00000KT 10SM CLR M02/M05 A3003 760 81 -1100 000/00 RMK AO2
14837KMSN MSN20071113040509611/13/07 04:05:31  5-MIN KMSN 131005Z 00000KT 10SM CLR M03/M04 A3004 760 88 -1200 000/00 RMK AO2
14837KMSN MSN20071113041009611/13/07 04:10:31  5-MIN KMSN 131010Z 00000KT 10SM CLR M03/M04 A3004 760 88 -1200 000/00 RMK AO2
14837KMSN MSN20071113041509611/13/07 04:15:31  5-MIN KMSN 131015Z 00000KT 10SM CLR M02/M04 A3004 760 88 -1100 000/00 RMK AO2
14837KMSN MSN20071113042009611/13/07 04:20:31  5-MIN KMSN 131020Z 00000KT 10SM CLR M02/M04 A3004 760 85 -1000 000/00 RMK AO2
14837KMSN MSN20071113042509611/13/07 04:25:31  5-MIN KMSN 131025Z 00000KT 10SM CLR M03/M04 A3004 750 88 -1200 000/00 RMK AO2
14837KMSN MSN20071113043009611/13/07 04:30:31  5-MIN KMSN 131030Z 00000KT 10SM CLR M03/M04 A3004 750 88 -1200 000/00 RMK AO2
14837KMSN MSN20071113043509611/13/07 04:35:31  5-MIN KMSN 131035Z 00000KT 10SM CLR M03/M04 A3004 760 88 -1200 000/00 RMK AO2
14837KMSN MSN20071113044009611/13/07 04:40:31  5-MIN KMSN 131040Z 00000KT 10SM CLR M03/M04 A3004 760 88 -1200 000/00 RMK AO2
14837KMSN MSN20071113044509611/13/07 04:45:31  5-MIN KMSN 131045Z 00000KT 10SM CLR M02/M04 A3004 760 81 -1000 000/00 RMK AO2
14837KMSN MSN20071113045011311/13/07 04:50:31  5-MIN KMSN 131050Z 00000KT 10SM CLR M02/M04 A3003 760 81 -1000 000/00 RMK AO2 SLP177 T10171044
14837KMSN MSN20071113045509611/13/07 04:55:31  5-MIN KMSN 131055Z 00000KT 10SM CLR M03/M05 A3004 760 85 -1200 000/00 RMK AO2
14837KMSN MSN20071113050009611/13/07 05:00:31  5-MIN KMSN 131100Z 00000KT 10SM CLR M03/M05 A3004 760 85 -1200 000/00 RMK AO2
14837KMSN MSN20071113050509611/13/07 05:05:31  5-MIN KMSN 131105Z 00000KT 10SM CLR M03/M05 A3004 750 88 -1200 000/00 RMK AO2
14837KMSN MSN20071113051009511/13/07 05:10:31  5-MIN KMSN 131110Z 00000KT 9SM CLR M03/M04 A3004 760 92 -1200 000/00 RMK AO2
14837KMSN MSN20071113051509511/13/07 05:15:31  5-MIN KMSN 131115Z 00000KT 9SM CLR M03/M04 A3004 760 92 -1200 000/00 RMK AO2
14837KMSN MSN20071113052009511/13/07 05:20:31  5-MIN KMSN 131120Z 00000KT 9SM CLR M03/M04 A3004 760 92 -1200 000/00 RMK AO2
14837KMSN MSN20071113052509511/13/07 05:25:31  5-MIN KMSN 131125Z 00000KT 9SM CLR M04/M05 A3004 760 92 -1300 000/00 RMK AO2
14837KMSN MSN20071113053009611/13/07 05:30:31  5-MIN KMSN 131130Z 00000KT 10SM CLR M04/M05 A3004 760 92 -1300 000/00 RMK AO2
14837KMSN MSN20071113053509511/13/07 05:35:31  5-MIN KMSN 131135Z 00000KT 9SM CLR M04/M06 A3003 760 92 -1400 000/00 RMK AO2
14837KMSN MSN20071113054009511/13/07 05:40:31  5-MIN KMSN 131140Z 00000KT 9SM CLR M04/M06 A3003 760 92 -1400 000/00 RMK AO2
14837KMSN MSN20071113054509511/13/07 05:45:31  5-MIN KMSN 131145Z 00000KT 9SM CLR M04/M05 A3003 760 92 -1300 000/00 RMK AO2
14837KMSN MSN20071113055013011/13/07 05:50:31  5-MIN KMSN 131150Z 00000KT 9SM CLR M04/M05 A3003 760 92 -1300 000/00 RMK AO2 SLP176 T10391050 10006 21044 56011
14837KMSN MSN20071113055509511/13/07 05:55:31  5-MIN KMSN 131155Z 00000KT 9SM CLR M04/M05 A3003 770 92 -1300 000/00 RMK AO2
14837KMSN MSN20071113060009611/13/07 06:00:31  5-MIN KMSN 131200Z 00000KT 10SM CLR M03/M05 A3002 770 88 -1200 000/00 RMK AO2
14837KMSN MSN20071113060509611/13/07 06:05:31  5-MIN KMSN 131205Z 00000KT 10SM CLR M02/M04 A3002 770 85 -1100 000/00 RMK AO2
14837KMSN MSN20071113061009611/13/07 06:10:31  5-MIN KMSN 131210Z 00000KT 10SM CLR M02/M04 A3002 770 85 -1100 000/00 RMK AO2
14837KMSN MSN20071113061509611/13/07 06:15:31  5-MIN KMSN 131215Z 00000KT 10SM CLR M02/M04 A3003 770 85 -1100 000/00 RMK AO2
14837KMSN MSN20071113062009611/13/07 06:20:31  5-MIN KMSN 131220Z 00000KT 10SM CLR M02/M04 A3003 760 88 -1100 000/00 RMK AO2
14837KMSN MSN20071113062509611/13/07 06:25:31  5-MIN KMSN 131225Z 00000KT 10SM CLR M03/M04 A3003 760 92 -1200 000/00 RMK AO2
14837KMSN MSN20071113063009511/13/07 06:30:31  5-MIN KMSN 131230Z 00000KT 9SM CLR M03/M04 A3004 750 92 -1200 000/00 RMK AO2
14837KMSN MSN20071113063509511/13/07 06:35:31  5-MIN KMSN 131235Z 00000KT 8SM CLR M03/M04 A3004 750 92 -1200 000/00 RMK AO2
14837KMSN MSN20071113064009511/13/07 06:40:31  5-MIN KMSN 131240Z 00000KT 8SM CLR M03/M05 A3004 750 88 -1200 000/00 RMK AO2
14837KMSN MSN20071113064509511/13/07 06:45:31  5-MIN KMSN 131245Z 00000KT 7SM CLR M03/M04 A3004 760 92 -1200 000/00 RMK AO2
14837KMSN MSN20071113065011211/13/07 06:50:31  5-MIN KMSN 131250Z 00000KT 7SM CLR M02/M04 A3003 760 88 -1100 000/00 RMK AO2 SLP177 T10221039
14837KMSN MSN20071113065509511/13/07 06:55:31  5-MIN KMSN 131255Z 15003KT 7SM CLR M02/M04 A3003 760 85 -1000 150/03 RMK AO2
14837KMSN MSN20071113070009511/13/07 07:00:31  5-MIN KMSN 131300Z 16003KT 8SM CLR M02/M04 A3003 760 85 -1000 160/03 RMK AO2
14837KMSN MSN20071113070509511/13/07 07:05:31  5-MIN KMSN 131305Z 15003KT 8SM CLR M02/M04 A3003 770 85 -1100 150/03 RMK AO2
14837KMSN MSN20071113071009511/13/07 07:10:31  5-MIN KMSN 131310Z 17004KT 9SM CLR M03/M05 A3002 770 85 -1100 170/04 RMK AO2
14837KMSN MSN20071113071509411/13/07 07:15:31  5-MIN KMSN 131315Z 19004KT 9SM CLR M01/M04 A3003 770 81 -900 190/04 RMK AO2
14837KMSN MSN20071113072009411/13/07 07:20:31  5-MIN KMSN 131320Z 00000KT 9SM CLR M01/M03 A3003 770 81 -900 000/00 RMK AO2
14837KMSN MSN20071113072509511/13/07 07:25:31  5-MIN KMSN 131325Z 00000KT 8SM CLR M02/M04 A3002 770 88 -1100 000/00 RMK AO2
14837KMSN MSN20071113073009511/13/07 07:30:31  5-MIN KMSN 131330Z 00000KT 8SM CLR M02/M04 A3002 770 85 -1100 000/00 RMK AO2
14837KMSN MSN20071113073509511/13/07 07:35:31  5-MIN KMSN 131335Z 00000KT 8SM CLR M02/M04 A3002 770 85 -1000 000/00 RMK AO2
14837KMSN MSN20071113074009411/13/07 07:40:31  5-MIN KMSN 131340Z 00000KT 9SM CLR M01/M04 A3002 770 81 -900 000/00 RMK AO2
14837KMSN MSN20071113074509411/13/07 07:45:31  5-MIN KMSN 131345Z 00000KT 8SM CLR M01/M04 A3002 770 81 -900 000/00 RMK AO2
14837KMSN MSN20071113075011111/13/07 07:50:31  5-MIN KMSN 131350Z 00000KT 8SM CLR M01/M04 A3003 770 81 -900 000/00 RMK AO2 SLP175 T10111039
14837KMSN MSN20071113075509411/13/07 07:55:31  5-MIN KMSN 131355Z 00000KT 7SM CLR M01/M03 A3002 770 85 -900 000/00 RMK AO2
14837KMSN MSN20071113080009411/13/07 08:00:31  5-MIN KMSN 131400Z 00000KT 7SM CLR M01/M03 A3002 770 88 -900 000/00 RMK AO2
14837KMSN MSN20071113080509311/13/07 08:05:31  5-MIN KMSN 131405Z 00000KT 8SM CLR 00/M02 A3002 770 85 -800 000/00 RMK AO2
14837KMSN MSN20071113081009311/13/07 08:10:31  5-MIN KMSN 131410Z 00000KT 8SM CLR 01/M02 A3002 770 82 -700 000/00 RMK AO2
14837KMSN MSN20071113081509311/13/07 08:15:31  5-MIN KMSN 131415Z 00000KT 8SM CLR 01/M02 A3003 770 82 -600 000/00 RMK AO2
14837KMSN MSN20071113082009311/13/07 08:20:31  5-MIN KMSN 131420Z 00000KT 7SM CLR 02/M01 A3003 760 78 -500 000/00 RMK AO2
14837KMSN MSN20071113082509311/13/07 08:25:31  5-MIN KMSN 131425Z 00000KT 7SM CLR 02/M01 A3003 760 78 -500 000/00 RMK AO2
14837KMSN MSN20071113083009311/13/07 08:30:31  5-MIN KMSN 131430Z 00000KT 7SM CLR 02/M01 A3003 760 82 -500 000/00 RMK AO2
14837KMSN MSN20071113083509311/13/07 08:35:31  5-MIN KMSN 131435Z 02003KT 8SM CLR 02/M01 A3003 760 82 -500 020/03 RMK AO2
14837KMSN MSN20071113084009211/13/07 08:40:31  5-MIN KMSN 131440Z 01003KT 8SM CLR 03/00 A3003 760 82 -400 010/03 RMK AO2
14837KMSN MSN20071113084509211/13/07 08:45:31  5-MIN KMSN 131445Z 00000KT 7SM CLR 03/00 A3003 760 79 -400 000/00 RMK AO2
14837KMSN MSN20071113085011511/13/07 08:50:31  5-MIN KMSN 131450Z 00000KT 8SM CLR 04/00 A3003 760 76 -300 000/00 RMK AO2 SLP176 T00390000 56010
14837KMSN MSN20071113085509211/13/07 08:55:31  5-MIN KMSN 131455Z 00000KT 9SM CLR 05/00 A3003 770 70 -200 000/00 RMK AO2
14837KMSN MSN20071113090009211/13/07 09:00:31  5-MIN KMSN 131500Z 00000KT 9SM CLR 06/01 A3003 760 73 -100 000/00 RMK AO2
14837KMSN MSN20071113090509211/13/07 09:05:31  5-MIN KMSN 131505Z 00000KT 8SM CLR 05/01 A3002 770 73 -200 000/00 RMK AO2
14837KMSN MSN20071113091009211/13/07 09:10:31  5-MIN KMSN 131510Z 00000KT 8SM CLR 06/00 A3002 770 67 -100 000/00 RMK AO2
14837KMSN MSN20071113091509211/13/07 09:15:31  5-MIN KMSN 131515Z 00000KT 8SM CLR 06/00 A3001 780 67 -100 000/00 RMK AO2
14837KMSN MSN20071113092009211/13/07 09:20:31  5-MIN KMSN 131520Z 00000KT 9SM CLR 06/01 A3001 780 70 -100 000/00 RMK AO2
14837KMSN MSN20071113092509211/13/07 09:25:31  5-MIN KMSN 131525Z 00000KT 8SM CLR 06/00 A3001 780 67 -100 000/00 RMK AO2
14837KMSN MSN20071113093008911/13/07 09:30:31  5-MIN KMSN 131530Z 00000KT 8SM CLR 06/01 A3001 780 67 0 000/00 RMK AO2
14837KMSN MSN20071113093509211/13/07 09:35:31  5-MIN KMSN 131535Z 19005KT 8SM CLR 07/M01 A3001 780 55 100 190/05 RMK AO2
14837KMSN MSN20071113094009211/13/07 09:40:31  5-MIN KMSN 131540Z 20006KT 8SM CLR 07/M01 A3000 790 55 100 190/06 RMK AO2
14837KMSN MSN20071113094509211/13/07 09:45:31  5-MIN KMSN 131545Z 20006KT 8SM CLR 07/M01 A3000 790 55 100 200/06 RMK AO2
14837KMSN MSN20071113095010911/13/07 09:50:31  5-MIN KMSN 131550Z 19007KT 9SM CLR 08/M01 A3000 790 53 200 190/07 RMK AO2 SLP164 T00781011
14837KMSN MSN20071113095509211/13/07 09:55:31  5-MIN KMSN 131555Z 20006KT 9SM CLR 08/M01 A3000 790 53 200 200/06 RMK AO2
14837KMSN MSN20071113100009211/13/07 10:00:31  5-MIN KMSN 131600Z 19006KT 9SM CLR 08/M01 A2999 800 51 200 190/06 RMK AO2
14837KMSN MSN20071113100509311/13/07 10:05:31  5-MIN KMSN 131605Z 19007KT 10SM CLR 08/M01 A2999 800 53 200 190/07 RMK AO2
14837KMSN MSN20071113101009311/13/07 10:10:31  5-MIN KMSN 131610Z 20007KT 10SM CLR 09/M01 A2999 800 51 300 190/07 RMK AO2
14837KMSN MSN20071113101509311/13/07 10:15:31  5-MIN KMSN 131615Z 19007KT 10SM CLR 09/M01 A2999 800 49 300 190/07 RMK AO2
14837KMSN MSN20071113102009311/13/07 10:20:31  5-MIN KMSN 131620Z 22008KT 10SM CLR 09/M01 A2999 800 49 300 220/08 RMK AO2
14837KMSN MSN20071113102509311/13/07 10:25:31  5-MIN KMSN 131625Z 21007KT 10SM CLR 09/M01 A2999 800 47 400 200/07 RMK AO2
14837KMSN MSN20071113103009311/13/07 10:30:31  5-MIN KMSN 131630Z 21009KT 10SM CLR 09/M02 A2998 810 47 300 210/09 RMK AO2
14837KMSN MSN20071113103509211/13/07 10:35:31  5-MIN KMSN 131635Z 20006KT 9SM CLR 09/M01 A2998 810 47 400 200/06 RMK AO2
14837KMSN MSN20071113104009211/13/07 10:40:31  5-MIN KMSN 131640Z 20006KT 9SM CLR 09/M01 A2998 810 47 400 190/06 RMK AO2
14837KMSN MSN20071113104509211/13/07 10:45:31  5-MIN KMSN 131645Z 21007KT 9SM CLR 09/M01 A2997 820 47 400 210/07 RMK AO2
14837KMSN MSN20071113105011511/13/07 10:50:31  5-MIN KMSN 131650Z 20010G14KT 9SM CLR 10/M01 A2997 820 46 500 200/10G14 RMK AO2 SLP154 T01001011
14837KMSN MSN20071113105510811/13/07 10:55:31  5-MIN KMSN 131655Z 22009KT 180V250 9SM CLR 10/M01 A2997 820 46 500 220/09 180V250 RMK AO2
14837KMSN MSN20071113110009211/13/07 11:00:31  5-MIN KMSN 131700Z 22008KT 9SM CLR 10/M01 A2996 830 46 500 220/08 RMK AO2
14837KMSN MSN20071113110509811/13/07 11:05:31  5-MIN KMSN 131705Z 20009G15KT 9SM CLR 10/M01 A2996 830 46 500 200/09G15 RMK AO2
14837KMSN MSN20071113111009811/13/07 11:10:31  5-MIN KMSN 131710Z 21008G15KT 9SM CLR 10/M01 A2995 830 46 500 210/08G15 RMK AO2
14837KMSN MSN20071113111509211/13/07 11:15:31  5-MIN KMSN 131715Z 20009KT 9SM CLR 11/M01 A2995 840 46 500 200/09 RMK AO2
14837KMSN MSN20071113112009211/13/07 11:20:31  5-MIN KMSN 131720Z 21008KT 9SM CLR 11/M01 A2994 840 46 600 210/08 RMK AO2
14837KMSN MSN20071113112510511/13/07 11:25:31  5-MIN KMSN 131725Z 20011G16KT 9SM CLR 11/M01 A2994 850 44 600 200/11G16 RMK AO2 PRESFR
14837KMSN MSN20071113113009211/13/07 11:30:31  5-MIN KMSN 131730Z 21011KT 9SM CLR 11/M01 A2993 850 44 600 210/11 RMK AO2
14837KMSN MSN20071113113509211/13/07 11:35:31  5-MIN KMSN 131735Z 20011KT 9SM CLR 11/M01 A2993 860 44 600 200/11 RMK AO2
14837KMSN MSN20071113114009211/13/07 11:40:31  5-MIN KMSN 131740Z 20010KT 9SM CLR 11/M01 A2992 860 44 600 200/10 RMK AO2
14837KMSN MSN20071113114509811/13/07 11:45:31  5-MIN KMSN 131745Z 20010KT 9SM CLR 11/M01 A2992 870 42 700 200/10 RMK AO2 PNO $
14837KMSN MSN20071113115014211/13/07 11:50:31  5-MIN KMSN 131750Z 20010KT CLR 12/M01 A2991 880 42 700 200/10 RMK AO2 PRESFR SLP133 6//// T01171006 10117 21039 58000 PNO $
14837KMSN MSN20071113115509911/13/07 11:55:31  5-MIN KMSN 131755Z 19013KT 10SM CLR 12/M01 A2991 880 41 700 190/13 RMK AO2 PNO $
14837KMSN MSN20071113120009911/13/07 12:00:31  5-MIN KMSN 131800Z 19013KT 10SM CLR 11/M01 A2990 880 42 700 190/13 RMK AO2 PNO $
14837KMSN MSN20071113120509911/13/07 12:05:31  5-MIN KMSN 131805Z 19013KT 10SM CLR 12/M02 A2990 890 39 700 190/13 RMK AO2 PNO $
14837KMSN MSN20071113121009911/13/07 12:10:31  5-MIN KMSN 131810Z 19013KT 10SM CLR 12/M01 A2989 890 41 700 190/13 RMK AO2 PNO $
14837KMSN MSN20071113121509911/13/07 12:15:31  5-MIN KMSN 131815Z 19013KT 10SM CLR 12/M02 A2989 890 39 700 190/13 RMK AO2 PNO $
14837KMSN MSN20071113122009911/13/07 12:20:31  5-MIN KMSN 131820Z 19013KT 10SM CLR 11/M02 A2989 890 41 700 190/13 RMK AO2 PNO $
14837KMSN MSN20071113122509911/13/07 12:25:31  5-MIN KMSN 131825Z 19013KT 10SM CLR 11/M02 A2989 890 41 700 190/13 RMK AO2 PNO $
14837KMSN MSN20071113123009911/13/07 12:30:31  5-MIN KMSN 131830Z 19013KT 10SM CLR 11/M01 A2988 900 42 700 190/13 RMK AO2 PNO $
14837KMSN MSN20071113123509911/13/07 12:35:31  5-MIN KMSN 131835Z 19013KT 10SM CLR 11/M02 A2987 910 41 700 190/13 RMK AO2 PNO $
14837KMSN MSN20071113124009911/13/07 12:40:31  5-MIN KMSN 131840Z 19012KT 10SM CLR 11/M02 A2987 910 41 700 190/12 RMK AO2 PNO $
14837KMSN MSN20071113124509911/13/07 12:45:31  5-MIN KMSN 131845Z 19012KT 10SM CLR 12/M02 A2987 910 39 800 190/12 RMK AO2 PNO $
14837KMSN MSN20071113125011611/13/07 12:50:31  5-MIN KMSN 131850Z 19012KT 10SM CLR 12/M02 A2986 920 38 800 190/12 RMK AO2 SLP118 T01171022 PNO $
14837KMSN MSN20071113125509911/13/07 12:55:31  5-MIN KMSN 131855Z 20012KT 10SM CLR 11/M02 A2986 920 41 700 200/12 RMK AO2 PNO $
14837KMSN MSN20071113130009911/13/07 13:00:31  5-MIN KMSN 131900Z 20012KT 10SM CLR 11/M02 A2985 930 41 700 200/12 RMK AO2 PNO $
14837KMSN MSN20071113130509911/13/07 13:05:31  5-MIN KMSN 131905Z 19011KT 10SM CLR 12/M01 A2985 930 41 800 190/11 RMK AO2 PNO $
14837KMSN MSN20071113131010511/13/07 13:10:31  5-MIN KMSN 131910Z 19012G18KT 10SM CLR 12/M01 A2985 930 41 800 190/12G18 RMK AO2 PNO $
14837KMSN MSN20071113131509911/13/07 13:15:31  5-MIN KMSN 131915Z 19011KT 10SM CLR 12/M01 A2985 930 41 800 190/11 RMK AO2 PNO $
14837KMSN MSN20071113132009911/13/07 13:20:31  5-MIN KMSN 131920Z 19011KT 10SM CLR 12/M01 A2984 940 42 800 190/11 RMK AO2 PNO $
14837KMSN MSN20071113132509911/13/07 13:25:31  5-MIN KMSN 131925Z 19012KT 10SM CLR 12/M01 A2984 940 42 800 190/12 RMK AO2 PNO $
14837KMSN MSN20071113133009911/13/07 13:30:31  5-MIN KMSN 131930Z 19010KT 10SM CLR 12/M01 A2984 940 42 800 190/10 RMK AO2 PNO $
14837KMSN MSN20071113133509911/13/07 13:35:31  5-MIN KMSN 131935Z 19010KT 10SM CLR 12/M01 A2983 950 42 800 190/10 RMK AO2 PNO $
14837KMSN MSN20071113134009911/13/07 13:40:31  5-MIN KMSN 131940Z 19011KT 10SM CLR 12/M01 A2983 950 41 900 190/11 RMK AO2 PNO $
14837KMSN MSN20071113134509911/13/07 13:45:31  5-MIN KMSN 131945Z 18010KT 10SM CLR 12/M01 A2982 950 41 900 180/10 RMK AO2 PNO $
14837KMSN MSN20071113135011611/13/07 13:50:31  5-MIN KMSN 131950Z 18011KT 10SM CLR 12/M01 A2982 960 42 800 180/11 RMK AO2 SLP102 T01171006 PNO $
14837KMSN MSN20071113135510611/13/07 13:55:31  5-MIN KMSN 131955Z 18012KT 10SM CLR 12/M01 A2981 970 41 900 180/12 RMK AO2 PRESFR PNO $
14837KMSN MSN20071113140009311/13/07 14:00:31  5-MIN KMSN 132000Z 18011KT 10SM CLR 12/M01 A2980 970 41 900 180/11 RMK AO2
14837KMSN MSN20071113140510011/13/07 14:05:31  5-MIN KMSN 132005Z 18012KT 10SM CLR 12/M01 A2980 980 39 900 180/12 RMK AO2 PRESFR
14837KMSN MSN20071113141010011/13/07 14:10:31  5-MIN KMSN 132010Z 18010KT 10SM CLR 12/M01 A2979 990 39 900 180/10 RMK AO2 PRESFR
14837KMSN MSN20071113141510111/13/07 14:15:31  5-MIN KMSN 132015Z 17012KT 10SM CLR 13/M01 A2978 990 38 1000 170/12 RMK AO2 PRESFR
14837KMSN MSN20071113142009511/13/07 14:20:31  5-MIN KMSN 132020Z 18013KT 10SM CLR 13/M02 A2978 1000 36 1000 180/13 RMK AO2
14837KMSN MSN20071113142509511/13/07 14:25:31  5-MIN KMSN 132025Z 19012KT 10SM CLR 13/M02 A2978 1000 36 1000 180/12 RMK AO2
14837KMSN MSN20071113143009511/13/07 14:30:31  5-MIN KMSN 132030Z 18013KT 10SM CLR 13/M01 A2977 1000 38 1000 180/13 RMK AO2
14837KMSN MSN20071113143509511/13/07 14:35:31  5-MIN KMSN 132035Z 18015KT 10SM CLR 13/M01 A2977 1000 38 1000 180/15 RMK AO2
14837KMSN MSN20071113144010111/13/07 14:40:31  5-MIN KMSN 132040Z 18014G19KT 10SM CLR 13/M02 A2976 1010 36 1000 180/14G19 RMK AO2
14837KMSN MSN20071113144510211/13/07 14:45:31  5-MIN KMSN 132045Z 18016KT 10SM CLR 13/M02 A2975 1020 36 1000 180/16 RMK AO2 PRESFR
14837KMSN MSN20071113145012511/13/07 14:50:31  5-MIN KMSN 132050Z 18014KT 10SM CLR 13/M02 A2974 1030 36 1000 180/14 RMK AO2 PRESFR SLP077 T01281017 58039
14837KMSN MSN20071113145510211/13/07 14:55:31  5-MIN KMSN 132055Z 18014KT 10SM CLR 13/M02 A2974 1030 36 1100 180/14 RMK AO2 PRESFR
14837KMSN MSN20071113150010211/13/07 15:00:31  5-MIN KMSN 132100Z 18014KT 10SM CLR 13/M02 A2973 1040 36 1100 180/14 RMK AO2 PRESFR
14837KMSN MSN20071113150509511/13/07 15:05:31  5-MIN KMSN 132105Z 18015KT 10SM CLR 13/M02 A2972 1050 36 1100 170/15 RMK AO2
14837KMSN MSN20071113151009511/13/07 15:10:31  5-MIN KMSN 132110Z 18015KT 10SM CLR 13/M02 A2972 1050 35 1100 180/15 RMK AO2
14837KMSN MSN20071113151510211/13/07 15:15:31  5-MIN KMSN 132115Z 17015KT 10SM CLR 13/M02 A2970 1070 35 1100 170/15 RMK AO2 PRESFR
14837KMSN MSN20071113152010111/13/07 15:20:31  5-MIN KMSN 132120Z 18014G20KT 10SM CLR 13/M02 A2971 1060 35 1100 180/14G20 RMK AO2
14837KMSN MSN20071113152510111/13/07 15:25:31  5-MIN KMSN 132125Z 18016G24KT 10SM CLR 12/M03 A2970 1070 35 1000 180/16G24 RMK AO2
14837KMSN MSN20071113153010811/13/07 15:30:31  5-MIN KMSN 132130Z 16019G24KT 10SM CLR 13/M03 A2968 1090 33 1100 160/19G24 RMK AO2 PRESFR
14837KMSN MSN20071113153509511/13/07 15:35:31  5-MIN KMSN 132135Z 17021KT 10SM CLR 13/M03 A2968 1090 33 1100 170/21 RMK AO2
14837KMSN MSN20071113154010111/13/07 15:40:31  5-MIN KMSN 132140Z 18014G24KT 10SM CLR 13/M03 A2969 1070 33 1100 180/14G24 RMK AO2
14837KMSN MSN20071113154510811/13/07 15:45:31  5-MIN KMSN 132145Z 25010G20KT 10SM CLR 13/M03 A2974 1030 33 1000 250/10G20 RMK AO2 PRESRR
14837KMSN MSN20071113155012511/13/07 15:50:31  5-MIN KMSN 132150Z 23008G16KT 10SM CLR 13/M03 A2976 1020 33 1000 230/08G16 RMK AO2 PRESRR SLP081 T01281028
14837KMSN MSN20071113155510111/13/07 15:55:31  5-MIN KMSN 132155Z 23007G16KT 10SM CLR 13/M02 A2976 1010 35 1000 230/07G16 RMK AO2
14837KMSN MSN20071113160009511/13/07 16:00:31  5-MIN KMSN 132200Z VRB06KT 10SM CLR 13/M02 A2976 1010 35 1000 VRB/06 RMK AO2
14837KMSN MSN20071113160509511/13/07 16:05:31  5-MIN KMSN 132205Z VRB05KT 10SM CLR 12/M02 A2977 1010 38 1000 VRB/05 RMK AO2
14837KMSN MSN20071113161009511/13/07 16:10:31  5-MIN KMSN 132210Z 23008KT 10SM CLR 13/M02 A2976 1020 36 1000 230/08 RMK AO2
14837KMSN MSN20071113161510111/13/07 16:15:31  5-MIN KMSN 132215Z 21007G15KT 10SM CLR 13/M03 A2975 1020 33 1000 210/07G15 RMK AO2
14837KMSN MSN20071113162010111/13/07 16:20:31  5-MIN KMSN 132220Z 20006G15KT 10SM CLR 13/M03 A2975 1030 33 1000 200/06G15 RMK AO2
14837KMSN MSN20071113162510011/13/07 16:25:31  5-MIN KMSN 132225Z 20010G14KT 9SM CLR 12/M03 A2974 1030 35 1000 200/10G14 RMK AO2
14837KMSN MSN20071113163009511/13/07 16:30:31  5-MIN KMSN 132230Z 20009KT 10SM CLR 12/M03 A2973 1040 35 1000 200/09 RMK AO2
14837KMSN MSN20071113163509511/13/07 16:35:31  5-MIN KMSN 132235Z 20011KT 10SM CLR 12/M03 A2973 1040 35 1000 190/11 RMK AO2
14837KMSN MSN20071113164009511/13/07 16:40:31  5-MIN KMSN 132240Z 20010KT 10SM CLR 12/M03 A2974 1040 35 1000 200/10 RMK AO2
14837KMSN MSN20071113164510111/13/07 16:45:31  5-MIN KMSN 132245Z 22008G15KT 10SM CLR 12/M03 A2974 1030 35 1000 220/08G15 RMK AO2
14837KMSN MSN20071113165011211/13/07 16:50:31  5-MIN KMSN 132250Z 20009KT 10SM CLR 12/M03 A2973 1040 35 1000 200/09 RMK AO2 SLP073 T01221028
14837KMSN MSN20071113165509511/13/07 16:55:31  5-MIN KMSN 132255Z 20007KT 10SM CLR 12/M03 A2973 1040 35 1000 200/07 RMK AO2
14837KMSN MSN20071113170009511/13/07 17:00:31  5-MIN KMSN 132300Z 20007KT 10SM CLR 12/M03 A2974 1040 35 1000 200/07 RMK AO2
14837KMSN MSN20071113170509511/13/07 17:05:31  5-MIN KMSN 132305Z 20008KT 10SM CLR 12/M03 A2973 1040 35 1000 200/08 RMK AO2
14837KMSN MSN20071113171009511/13/07 17:10:31  5-MIN KMSN 132310Z 20008KT 10SM CLR 12/M03 A2973 1040 35 1000 200/08 RMK AO2
14837KMSN MSN20071113171509511/13/07 17:15:31  5-MIN KMSN 132315Z 20006KT 10SM CLR 12/M03 A2973 1040 35 1000 200/06 RMK AO2
14837KMSN MSN20071113172009511/13/07 17:20:31  5-MIN KMSN 132320Z 19006KT 10SM CLR 12/M02 A2973 1040 36 1000 190/06 RMK AO2
14837KMSN MSN20071113172509511/13/07 17:25:31  5-MIN KMSN 132325Z 20005KT 10SM CLR 12/M02 A2973 1040 36 1000 200/05 RMK AO2
14837KMSN MSN20071113173009511/13/07 17:30:31  5-MIN KMSN 132330Z 21004KT 10SM CLR 12/M02 A2973 1040 36 1000 210/04 RMK AO2
14837KMSN MSN20071113173509411/13/07 17:35:31  5-MIN KMSN 132335Z 20005KT 10SM CLR 12/M02 A2973 1040 38 900 200/05 RMK AO2
14837KMSN MSN20071113174009411/13/07 17:40:31  5-MIN KMSN 132340Z 19007KT 10SM CLR 12/M02 A2972 1050 38 900 180/07 RMK AO2
14837KMSN MSN20071113174509511/13/07 17:45:31  5-MIN KMSN 132345Z 18010KT 10SM CLR 12/M02 A2971 1060 38 1000 180/10 RMK AO2
14837KMSN MSN20071113175013011/13/07 17:50:31  5-MIN KMSN 132350Z 18009KT 10SM CLR 12/M02 A2971 1060 38 1000 180/09 RMK AO2 SLP067 T01171022 10133 20106 58056
14837KMSN MSN20071113175509511/13/07 17:55:31  5-MIN KMSN 132355Z 18009KT 10SM CLR 12/M02 A2971 1060 39 1000 180/09 RMK AO2
14837KMSN MSN20071113180009411/13/07 18:00:31  5-MIN KMSN 140000Z 19009KT 10SM CLR 11/M02 A2970 1070 41 900 190/09 RMK AO2
14837KMSN MSN20071113180509411/13/07 18:05:31  5-MIN KMSN 140005Z 19008KT 10SM CLR 11/M02 A2970 1070 41 900 190/08 RMK AO2
14837KMSN MSN20071113181009411/13/07 18:10:31  5-MIN KMSN 140010Z 19009KT 10SM CLR 11/M02 A2970 1070 41 900 180/09 RMK AO2
14837KMSN MSN20071113181509411/13/07 18:15:31  5-MIN KMSN 140015Z 19009KT 10SM CLR 11/M01 A2969 1070 42 900 190/09 RMK AO2
14837KMSN MSN20071113182009411/13/07 18:20:31  5-MIN KMSN 140020Z 19009KT 10SM CLR 11/M02 A2969 1080 41 900 190/09 RMK AO2
14837KMSN MSN20071113182509411/13/07 18:25:31  5-MIN KMSN 140025Z 19010KT 10SM CLR 11/M02 A2969 1080 41 900 190/10 RMK AO2
14837KMSN MSN20071113183009411/13/07 18:30:31  5-MIN KMSN 140030Z 19010KT 10SM CLR 11/M02 A2969 1070 41 900 190/10 RMK AO2
14837KMSN MSN20071113183509411/13/07 18:35:31  5-MIN KMSN 140035Z 19010KT 10SM CLR 11/M02 A2969 1080 41 900 190/10 RMK AO2
14837KMSN MSN20071113184009411/13/07 18:40:31  5-MIN KMSN 140040Z 19010KT 10SM CLR 11/M02 A2969 1080 41 900 190/10 RMK AO2
14837KMSN MSN20071113184509411/13/07 18:45:31  5-MIN KMSN 140045Z 19010KT 10SM CLR 11/M02 A2969 1080 41 900 190/10 RMK AO2
14837KMSN MSN20071113185011111/13/07 18:50:31  5-MIN KMSN 140050Z 19011KT 10SM CLR 11/M02 A2968 1080 41 900 190/11 RMK AO2 SLP058 T01111017
14837KMSN MSN20071113185509411/13/07 18:55:31  5-MIN KMSN 140055Z 19011KT 10SM CLR 11/M02 A2968 1090 41 900 190/11 RMK AO2
14837KMSN MSN20071113190009411/13/07 19:00:31  5-MIN KMSN 140100Z 19009KT 10SM CLR 11/M02 A2968 1080 41 900 190/09 RMK AO2
14837KMSN MSN20071113190509411/13/07 19:05:31  5-MIN KMSN 140105Z 19009KT 10SM CLR 11/M02 A2968 1090 41 900 190/09 RMK AO2
14837KMSN MSN20071113191009411/13/07 19:10:31  5-MIN KMSN 140110Z 19010KT 10SM CLR 11/M02 A2968 1090 41 900 190/10 RMK AO2
14837KMSN MSN20071113191509411/13/07 19:15:31  5-MIN KMSN 140115Z 19009KT 10SM CLR 11/M02 A2968 1090 42 900 190/09 RMK AO2
14837KMSN MSN20071113192009411/13/07 19:20:31  5-MIN KMSN 140120Z 20009KT 10SM CLR 11/M02 A2968 1090 42 900 190/09 RMK AO2
14837KMSN MSN20071113192509411/13/07 19:25:31  5-MIN KMSN 140125Z 19009KT 10SM CLR 11/M02 A2967 1090 41 900 190/09 RMK AO2
14837KMSN MSN20071113193009411/13/07 19:30:31  5-MIN KMSN 140130Z 20009KT 10SM CLR 11/M02 A2967 1100 41 900 200/09 RMK AO2
14837KMSN MSN20071113193509411/13/07 19:35:31  5-MIN KMSN 140135Z 19010KT 10SM CLR 11/M02 A2967 1100 41 900 190/10 RMK AO2
14837KMSN MSN20071113194009411/13/07 19:40:31  5-MIN KMSN 140140Z 20010KT 10SM CLR 11/M02 A2966 1110 41 900 190/10 RMK AO2
14837KMSN MSN20071113194509411/13/07 19:45:31  5-MIN KMSN 140145Z 20010KT 10SM CLR 11/M02 A2966 1110 41 900 190/10 RMK AO2
14837KMSN MSN20071113195011111/13/07 19:50:31  5-MIN KMSN 140150Z 20010KT 10SM CLR 11/M01 A2966 1110 42 900 200/10 RMK AO2 SLP049 T01111011
14837KMSN MSN20071113195509411/13/07 19:55:31  5-MIN KMSN 140155Z 20009KT 10SM CLR 11/M01 A2966 1110 42 900 200/09 RMK AO2
14837KMSN MSN20071113200009411/13/07 20:00:31  5-MIN KMSN 140200Z 20007KT 10SM CLR 11/M01 A2966 1100 42 900 200/07 RMK AO2
14837KMSN MSN20071113200509411/13/07 20:05:31  5-MIN KMSN 140205Z 21008KT 10SM CLR 11/M01 A2966 1100 42 900 210/08 RMK AO2
14837KMSN MSN20071113201009411/13/07 20:10:31  5-MIN KMSN 140210Z 20007KT 10SM CLR 11/M01 A2966 1100 42 900 200/07 RMK AO2
14837KMSN MSN20071113201509411/13/07 20:15:31  5-MIN KMSN 140215Z 20008KT 10SM CLR 11/M01 A2966 1110 44 900 200/08 RMK AO2
14837KMSN MSN20071113202009411/13/07 20:20:31  5-MIN KMSN 140220Z 21007KT 10SM CLR 11/M01 A2966 1100 44 900 210/07 RMK AO2
14837KMSN MSN20071113202510011/13/07 20:25:31  5-MIN KMSN 140225Z 20009G15KT 10SM CLR 11/M01 A2966 1100 44 900 200/09G15 RMK AO2
14837KMSN MSN20071113203010011/13/07 20:30:31  5-MIN KMSN 140230Z 20008G15KT 10SM CLR 11/M01 A2967 1100 46 900 200/08G15 RMK AO2
14837KMSN MSN20071113203509411/13/07 20:35:31  5-MIN KMSN 140235Z 21006KT 10SM CLR 11/M01 A2967 1100 46 900 210/06 RMK AO2
14837KMSN MSN20071113204009311/13/07 20:40:31  5-MIN KMSN 140240Z 21007KT 10SM CLR 11/00 A2967 1100 48 900 210/07 RMK AO2
14837KMSN MSN20071113204509311/13/07 20:45:31  5-MIN KMSN 140245Z 22006KT 10SM CLR 11/00 A2967 1090 48 900 220/06 RMK AO2
14837KMSN MSN20071113205011611/13/07 20:50:31  5-MIN KMSN 140250Z 21006KT 10SM CLR 11/00 A2967 1100 48 900 210/06 RMK AO2 SLP050 T01060000 58011
14837KMSN MSN20071113205509611/13/07 20:55:31  5-MIN KMSN 140255Z 20008KT 10SM FEW075 11/01 A2966 1110 50 900 200/08 RMK AO2
14837KMSN MSN20071113210009611/13/07 21:00:31  5-MIN KMSN 140300Z 19008KT 10SM SCT075 11/01 A2965 1110 50 900 190/08 RMK AO2
14837KMSN MSN20071113210509611/13/07 21:05:31  5-MIN KMSN 140305Z 21006KT 10SM BKN075 11/01 A2966 1110 50 900 210/06 RMK AO2
14837KMSN MSN20071113211009611/13/07 21:10:31  5-MIN KMSN 140310Z 21005KT 10SM BKN080 11/01 A2966 1110 50 900 210/05 RMK AO2
14837KMSN MSN20071113211509611/13/07 21:15:31  5-MIN KMSN 140315Z 22006KT 10SM BKN080 11/01 A2966 1110 50 900 220/06 RMK AO2
14837KMSN MSN20071113212009611/13/07 21:20:31  5-MIN KMSN 140320Z 22008KT 10SM SCT075 11/01 A2966 1100 50 900 220/08 RMK AO2
14837KMSN MSN20071113212509611/13/07 21:25:31  5-MIN KMSN 140325Z 23005KT 10SM SCT080 11/01 A2966 1100 50 900 230/05 RMK AO2
14837KMSN MSN20071113213009511/13/07 21:30:31  5-MIN KMSN 140330Z 22007KT 9SM FEW080 11/01 A2966 1110 50 900 220/07 RMK AO2
14837KMSN MSN20071113213509511/13/07 21:35:31  5-MIN KMSN 140335Z 22007KT 9SM FEW080 11/01 A2966 1110 50 900 220/07 RMK AO2
14837KMSN MSN20071113214009311/13/07 21:40:31  5-MIN KMSN 140340Z 22007KT 10SM CLR 11/01 A2966 1110 50 900 220/07 RMK AO2
14837KMSN MSN20071113214509311/13/07 21:45:31  5-MIN KMSN 140345Z 21006KT 10SM CLR 11/01 A2965 1120 50 900 210/06 RMK AO2
14837KMSN MSN20071113215011011/13/07 21:50:31  5-MIN KMSN 140350Z VRB04KT 10SM CLR 11/01 A2965 1120 52 900 VRB/04 RMK AO2 SLP043 T01060011
14837KMSN MSN20071113215509311/13/07 21:55:31  5-MIN KMSN 140355Z 21005KT 10SM CLR 10/01 A2965 1120 54 800 210/05 RMK AO2
14837KMSN MSN20071113220009311/13/07 22:00:31  5-MIN KMSN 140400Z 21004KT 10SM CLR 10/01 A2964 1120 54 800 210/04 RMK AO2
14837KMSN MSN20071113220509311/13/07 22:05:31  5-MIN KMSN 140405Z 21006KT 10SM CLR 10/01 A2964 1120 54 800 210/06 RMK AO2
14837KMSN MSN20071113221009311/13/07 22:10:31  5-MIN KMSN 140410Z 21005KT 10SM CLR 10/01 A2964 1130 54 800 210/05 RMK AO2
14837KMSN MSN20071113221509311/13/07 22:15:31  5-MIN KMSN 140415Z 21006KT 10SM CLR 10/01 A2963 1130 54 800 210/06 RMK AO2
14837KMSN MSN20071113222009311/13/07 22:20:31  5-MIN KMSN 140420Z VRB04KT 10SM CLR 10/01 A2962 1140 54 900 VRB/04 RMK AO2
14837KMSN MSN20071113222509311/13/07 22:25:31  5-MIN KMSN 140425Z VRB04KT 10SM CLR 10/01 A2962 1140 54 900 VRB/04 RMK AO2
14837KMSN MSN20071113223009311/13/07 22:30:31  5-MIN KMSN 140430Z 21005KT 10SM CLR 10/01 A2962 1150 54 900 210/05 RMK AO2
14837KMSN MSN20071113223509311/13/07 22:35:31  5-MIN KMSN 140435Z 22007KT 10SM CLR 10/01 A2962 1140 54 900 220/07 RMK AO2
14837KMSN MSN20071113224009311/13/07 22:40:31  5-MIN KMSN 140440Z 23004KT 10SM CLR 10/01 A2963 1140 54 800 230/04 RMK AO2
14837KMSN MSN20071113224509311/13/07 22:45:31  5-MIN KMSN 140445Z VRB05KT 10SM CLR 10/01 A2962 1140 54 900 VRB/05 RMK AO2
14837KMSN MSN20071113225011011/13/07 22:50:31  5-MIN KMSN 140450Z 21005KT 10SM CLR 10/02 A2961 1150 56 900 200/05 RMK AO2 SLP028 T01000017
14837KMSN MSN20071113225509311/13/07 22:55:31  5-MIN KMSN 140455Z 21003KT 10SM CLR 10/02 A2960 1160 56 900 200/03 RMK AO2
14837KMSN MSN20071113230009311/13/07 23:00:31  5-MIN KMSN 140500Z 22005KT 10SM CLR 10/02 A2960 1160 56 900 220/05 RMK AO2
14837KMSN MSN20071113230509311/13/07 23:05:31  5-MIN KMSN 140505Z 22008KT 10SM CLR 10/02 A2960 1160 56 900 220/08 RMK AO2
14837KMSN MSN20071113231009311/13/07 23:10:31  5-MIN KMSN 140510Z 21006KT 10SM CLR 10/02 A2960 1160 56 900 210/06 RMK AO2
14837KMSN MSN20071113231509311/13/07 23:15:31  5-MIN KMSN 140515Z 22007KT 10SM CLR 10/02 A2960 1160 56 900 220/07 RMK AO2
14837KMSN MSN20071113232009311/13/07 23:20:31  5-MIN KMSN 140520Z 22007KT 10SM CLR 10/02 A2960 1160 56 900 220/07 RMK AO2
14837KMSN MSN20071113232509311/13/07 23:25:31  5-MIN KMSN 140525Z 22006KT 10SM CLR 10/02 A2960 1160 56 900 220/06 RMK AO2
14837KMSN MSN20071113233009311/13/07 23:30:31  5-MIN KMSN 140530Z 22007KT 10SM CLR 10/02 A2960 1170 56 900 210/07 RMK AO2
14837KMSN MSN20071113233509311/13/07 23:35:31  5-MIN KMSN 140535Z 22006KT 10SM CLR 10/02 A2959 1170 56 900 220/06 RMK AO2
14837KMSN MSN20071113234009311/13/07 23:40:31  5-MIN KMSN 140540Z 22007KT 10SM CLR 10/02 A2959 1170 56 900 220/07 RMK AO2
14837KMSN MSN20071113234509311/13/07 23:45:31  5-MIN KMSN 140545Z 22008KT 10SM CLR 10/02 A2959 1170 58 900 220/08 RMK AO2
14837KMSN MSN20071113235014411/13/07 23:50:31  5-MIN KMSN 140550Z 23010G17KT 10SM CLR 10/02 A2959 1170 58 900 230/10G17 RMK AO2 SLP022 T01000022 10117 20100 401331044 55015
14837KMSN MSN20071113235510011/13/07 23:55:31  5-MIN KMSN 140555Z 22010G17KT 10SM CLR 11/02 A2959 1170 56 1000 220/10G17 RMK AO2
14837KMSN MSN20071114000009911/14/07 00:00:32  5-MIN KMSN 140600Z 23007G16KT 10SM CLR 10/02 A2959 1170 58 900 220/07G16 RMK AO2
14837KMSN MSN20071114000509311/14/07 00:05:31  5-MIN KMSN 140605Z 24006KT 10SM CLR 10/02 A2960 1170 58 900 240/06 RMK AO2
14837KMSN MSN20071114001009311/14/07 00:10:31  5-MIN KMSN 140610Z 25005KT 10SM CLR 10/02 A2960 1170 58 900 250/05 RMK AO2
14837KMSN MSN20071114001509311/14/07 00:15:31  5-MIN KMSN 140615Z 24006KT 10SM CLR 10/02 A2959 1170 58 900 240/06 RMK AO2
14837KMSN MSN20071114002009311/14/07 00:20:31  5-MIN KMSN 140620Z 23006KT 10SM CLR 10/02 A2959 1170 58 900 230/06 RMK AO2
14837KMSN MSN20071114002509311/14/07 00:25:31  5-MIN KMSN 140625Z 24007KT 10SM CLR 10/02 A2959 1170 58 900 240/07 RMK AO2
14837KMSN MSN20071114003009311/14/07 00:30:31  5-MIN KMSN 140630Z 24008KT 10SM CLR 10/02 A2961 1160 58 900 240/08 RMK AO2
14837KMSN MSN20071114003510911/14/07 00:35:31  5-MIN KMSN 140635Z 24007KT 200V270 10SM CLR 10/02 A2961 1160 58 900 240/07 200V270 RMK AO2
14837KMSN MSN20071114004009311/14/07 00:40:31  5-MIN KMSN 140640Z 24007KT 10SM CLR 10/02 A2960 1160 58 900 240/07 RMK AO2
14837KMSN MSN20071114004509311/14/07 00:45:31  5-MIN KMSN 140645Z 24006KT 10SM CLR 10/02 A2959 1170 58 900 240/06 RMK AO2
14837KMSN MSN20071114005011711/14/07 00:50:31  5-MIN KMSN 140650Z 24006KT 10SM CLR 10/02 A2958 1180 58 900 240/06 RMK AO2 PRESFR SLP020 T01000022
14837KMSN MSN20071114005509311/14/07 00:55:31  5-MIN KMSN 140655Z 25006KT 10SM CLR 09/02 A2958 1180 60 800 250/06 RMK AO2
14837KMSN MSN20071114010009311/14/07 01:00:31  5-MIN KMSN 140700Z VRB06KT 10SM CLR 09/02 A2959 1170 60 800 VRB/06 RMK AO2
14837KMSN MSN20071114010509311/14/07 01:05:31  5-MIN KMSN 140705Z 24007KT 10SM CLR 09/02 A2959 1170 58 800 240/07 RMK AO2
14837KMSN MSN20071114011009311/14/07 01:10:31  5-MIN KMSN 140710Z VRB06KT 10SM CLR 09/02 A2959 1170 58 800 VRB/06 RMK AO2
14837KMSN MSN20071114011509311/14/07 01:15:31  5-MIN KMSN 140715Z 23006KT 10SM CLR 09/02 A2959 1170 58 800 230/06 RMK AO2
14837KMSN MSN20071114012009311/14/07 01:20:31  5-MIN KMSN 140720Z 23006KT 10SM CLR 09/02 A2960 1170 60 800 230/06 RMK AO2
14837KMSN MSN20071114012509311/14/07 01:25:31  5-MIN KMSN 140725Z 23006KT 10SM CLR 09/02 A2960 1160 60 800 230/06 RMK AO2
14837KMSN MSN20071114013009311/14/07 01:30:31  5-MIN KMSN 140730Z 24007KT 10SM CLR 09/03 A2960 1160 65 700 240/07 RMK AO2
14837KMSN MSN20071114013509311/14/07 01:35:31  5-MIN KMSN 140735Z 25005KT 10SM CLR 09/03 A2961 1150 65 700 250/05 RMK AO2
14837KMSN MSN20071114014009311/14/07 01:40:31  5-MIN KMSN 140740Z 24005KT 10SM CLR 09/02 A2961 1150 63 700 240/05 RMK AO2
14837KMSN MSN20071114014509311/14/07 01:45:31  5-MIN KMSN 140745Z 23007KT 10SM CLR 09/02 A2961 1160 63 700 230/07 RMK AO2
14837KMSN MSN20071114015011011/14/07 01:50:31  5-MIN KMSN 140750Z VRB05KT 10SM CLR 09/02 A2960 1160 60 700 VRB/05 RMK AO2 SLP026 T00890017
14837KMSN MSN20071114015509311/14/07 01:55:31  5-MIN KMSN 140755Z VRB06KT 10SM CLR 09/02 A2961 1150 60 700 VRB/06 RMK AO2
14837KMSN MSN20071114020009311/14/07 02:00:31  5-MIN KMSN 140800Z VRB05KT 10SM CLR 09/01 A2962 1150 58 700 VRB/05 RMK AO2
14837KMSN MSN20071114020509311/14/07 02:05:31  5-MIN KMSN 140805Z 27006KT 10SM CLR 09/01 A2962 1150 58 700 270/06 RMK AO2
14837KMSN MSN20071114021009311/14/07 02:10:31  5-MIN KMSN 140810Z VRB04KT 10SM CLR 09/01 A2961 1150 58 700 VRB/04 RMK AO2
14837KMSN MSN20071114021509311/14/07 02:15:31  5-MIN KMSN 140815Z 26006KT 10SM CLR 09/01 A2961 1150 56 700 260/06 RMK AO2
14837KMSN MSN20071114022009311/14/07 02:20:31  5-MIN KMSN 140820Z 28007KT 10SM CLR 09/01 A2961 1150 56 700 270/07 RMK AO2
14837KMSN MSN20071114022509311/14/07 02:25:31  5-MIN KMSN 140825Z 27005KT 10SM CLR 09/01 A2961 1150 56 700 270/05 RMK AO2
14837KMSN MSN20071114023009311/14/07 02:30:31  5-MIN KMSN 140830Z 28007KT 10SM CLR 09/01 A2962 1150 56 700 280/07 RMK AO2
14837KMSN MSN20071114023509311/14/07 02:35:31  5-MIN KMSN 140835Z 29005KT 10SM CLR 09/01 A2962 1150 56 700 290/05 RMK AO2
14837KMSN MSN20071114024009311/14/07 02:40:31  5-MIN KMSN 140840Z 29006KT 10SM CLR 08/00 A2962 1140 55 700 280/06 RMK AO2
14837KMSN MSN20071114024509311/14/07 02:45:31  5-MIN KMSN 140845Z 29007KT 10SM CLR 09/00 A2962 1140 53 700 290/07 RMK AO2
14837KMSN MSN20071114025011611/14/07 02:50:31  5-MIN KMSN 140850Z 28006KT 10SM CLR 09/00 A2962 1140 53 700 280/06 RMK AO2 SLP032 T00890000 57022
14837KMSN MSN20071114025511211/14/07 02:55:31  5-MIN KMSN 140855Z 27007KT 240V300 10SM FEW095 09/00 A2963 1140 53 700 270/07 240V300 RMK AO2
14837KMSN MSN20071114030009611/14/07 03:00:31  5-MIN KMSN 140900Z 28006KT 10SM FEW095 08/00 A2963 1140 55 600 280/06 RMK AO2
14837KMSN MSN20071114030509611/14/07 03:05:31  5-MIN KMSN 140905Z 27006KT 10SM FEW095 08/00 A2962 1140 55 700 270/06 RMK AO2
14837KMSN MSN20071114031009611/14/07 03:10:31  5-MIN KMSN 140910Z 28007KT 10SM FEW095 08/00 A2962 1140 58 600 280/07 RMK AO2
14837KMSN MSN20071114031509611/14/07 03:15:31  5-MIN KMSN 140915Z 28007KT 10SM FEW095 08/00 A2963 1140 58 600 280/07 RMK AO2
14837KMSN MSN20071114032010911/14/07 03:20:31  5-MIN KMSN 140920Z 28008KT 240V300 10SM CLR 08/00 A2963 1130 58 600 280/08 240V300 RMK AO2
14837KMSN MSN20071114032509311/14/07 03:25:31  5-MIN KMSN 140925Z 29006KT 10SM CLR 08/00 A2963 1130 58 600 290/06 RMK AO2
14837KMSN MSN20071114033009311/14/07 03:30:31  5-MIN KMSN 140930Z 29008KT 10SM CLR 08/00 A2963 1130 58 600 280/08 RMK AO2
14837KMSN MSN20071114033509611/14/07 03:35:31  5-MIN KMSN 140935Z 28008KT 10SM SCT100 08/00 A2964 1130 58 600 280/08 RMK AO2
14837KMSN MSN20071114034009611/14/07 03:40:31  5-MIN KMSN 140940Z 29008KT 10SM SCT100 08/00 A2964 1130 58 600 290/08 RMK AO2
14837KMSN MSN20071114034509611/14/07 03:45:31  5-MIN KMSN 140945Z 29006KT 10SM FEW100 08/00 A2964 1130 58 600 290/06 RMK AO2
14837KMSN MSN20071114035011311/14/07 03:50:31  5-MIN KMSN 140950Z 29006KT 10SM FEW100 08/00 A2964 1120 58 600 290/06 RMK AO2 SLP040 T00780000
14837KMSN MSN20071114035509611/14/07 03:55:31  5-MIN KMSN 140955Z 29006KT 10SM FEW100 08/00 A2964 1120 58 600 290/06 RMK AO2
14837KMSN MSN20071114040009611/14/07 04:00:31  5-MIN KMSN 141000Z 28006KT 10SM FEW100 08/00 A2964 1130 58 600 280/06 RMK AO2
14837KMSN MSN20071114040509311/14/07 04:05:31  5-MIN KMSN 141005Z 28004KT 10SM CLR 07/00 A2963 1130 60 500 270/04 RMK AO2
14837KMSN MSN20071114041009311/14/07 04:10:31  5-MIN KMSN 141010Z 27004KT 10SM CLR 07/00 A2964 1130 62 400 270/04 RMK AO2
14837KMSN MSN20071114041509311/14/07 04:15:31  5-MIN KMSN 141015Z 27005KT 10SM CLR 07/00 A2964 1120 62 400 270/05 RMK AO2
14837KMSN MSN20071114042009311/14/07 04:20:31  5-MIN KMSN 141020Z 27006KT 10SM CLR 07/00 A2964 1120 60 500 270/06 RMK AO2
14837KMSN MSN20071114042509311/14/07 04:25:31  5-MIN KMSN 141025Z 28006KT 10SM CLR 07/00 A2964 1120 60 500 280/06 RMK AO2
14837KMSN MSN20071114043009311/14/07 04:30:31  5-MIN KMSN 141030Z 28005KT 10SM CLR 07/00 A2964 1120 60 500 280/05 RMK AO2
14837KMSN MSN20071114043509311/14/07 04:35:31  5-MIN KMSN 141035Z 28004KT 10SM CLR 07/00 A2964 1130 60 500 270/04 RMK AO2
14837KMSN MSN20071114044009411/14/07 04:40:31  5-MIN KMSN 141040Z 27006KT 10SM CLR 07/M01 A2964 1120 57 500 270/06 RMK AO2
14837KMSN MSN20071114044509411/14/07 04:45:31  5-MIN KMSN 141045Z 27006KT 10SM CLR 07/M01 A2964 1120 57 500 270/06 RMK AO2
14837KMSN MSN20071114045011111/14/07 04:50:31  5-MIN KMSN 141050Z 28005KT 10SM CLR 07/M01 A2965 1120 57 500 280/05 RMK AO2 SLP041 T00721006
14837KMSN MSN20071114045509411/14/07 04:55:31  5-MIN KMSN 141055Z 28006KT 10SM CLR 07/M01 A2965 1120 57 500 270/06 RMK AO2
14837KMSN MSN20071114050009411/14/07 05:00:31  5-MIN KMSN 141100Z 28005KT 10SM CLR 07/M01 A2965 1110 57 500 280/05 RMK AO2
14837KMSN MSN20071114050509411/14/07 05:05:31  5-MIN KMSN 141105Z 27006KT 10SM CLR 07/M01 A2966 1110 57 500 270/06 RMK AO2
14837KMSN MSN20071114051009411/14/07 05:10:31  5-MIN KMSN 141110Z 27005KT 10SM CLR 07/M01 A2966 1110 55 500 270/05 RMK AO2
14837KMSN MSN20071114051509411/14/07 05:15:31  5-MIN KMSN 141115Z 27006KT 10SM CLR 07/M01 A2966 1110 55 500 270/06 RMK AO2
14837KMSN MSN20071114052009411/14/07 05:20:31  5-MIN KMSN 141120Z VRB04KT 10SM CLR 07/M01 A2966 1110 55 500 VRB/04 RMK AO2
14837KMSN MSN20071114052509411/14/07 05:25:31  5-MIN KMSN 141125Z 27006KT 10SM CLR 07/M01 A2965 1110 55 500 270/06 RMK AO2
14837KMSN MSN20071114053009411/14/07 05:30:31  5-MIN KMSN 141130Z 27004KT 10SM CLR 07/M01 A2965 1110 55 500 270/04 RMK AO2
14837KMSN MSN20071114053509411/14/07 05:35:31  5-MIN KMSN 141135Z 26004KT 10SM CLR 07/M01 A2966 1110 55 500 260/04 RMK AO2
14837KMSN MSN20071114054009411/14/07 05:40:31  5-MIN KMSN 141140Z VRB05KT 10SM CLR 07/M01 A2966 1110 55 500 VRB/05 RMK AO2
14837KMSN MSN20071114054509411/14/07 05:45:31  5-MIN KMSN 141145Z 27005KT 10SM CLR 07/M01 A2966 1110 55 500 270/05 RMK AO2
14837KMSN MSN20071114055013511/14/07 05:50:31  5-MIN KMSN 141150Z 28004KT 10SM CLR 07/M01 A2966 1110 55 500 270/04 RMK AO2 SLP046 7//// T00721011 10106 20067 53009
14837KMSN MSN20071114055509411/14/07 05:55:31  5-MIN KMSN 141155Z VRB03KT 10SM CLR 07/M01 A2966 1110 55 500 VRB/03 RMK AO2
14837KMSN MSN20071114060009411/14/07 06:00:31  5-MIN KMSN 141200Z VRB05KT 10SM CLR 07/M01 A2966 1110 57 400 VRB/05 RMK AO2
14837KMSN MSN20071114060509411/14/07 06:05:31  5-MIN KMSN 141205Z 27003KT 10SM CLR 07/M01 A2966 1110 57 400 270/03 RMK AO2
14837KMSN MSN20071114061009411/14/07 06:10:31  5-MIN KMSN 141210Z 27005KT 10SM CLR 07/M01 A2966 1100 57 400 270/05 RMK AO2
14837KMSN MSN20071114061509411/14/07 06:15:31  5-MIN KMSN 141215Z VRB04KT 10SM CLR 07/M01 A2966 1100 57 400 VRB/04 RMK AO2
14837KMSN MSN20071114062009411/14/07 06:20:31  5-MIN KMSN 141220Z VRB03KT 10SM CLR 07/M01 A2966 1100 57 400 VRB/03 RMK AO2
14837KMSN MSN20071114062509411/14/07 06:25:31  5-MIN KMSN 141225Z VRB04KT 10SM CLR 07/M01 A2966 1100 57 400 VRB/04 RMK AO2
14837KMSN MSN20071114063009411/14/07 06:30:31  5-MIN KMSN 141230Z 24005KT 10SM CLR 07/M01 A2966 1100 55 500 240/05 RMK AO2
14837KMSN MSN20071114063509411/14/07 06:35:31  5-MIN KMSN 141235Z 25005KT 10SM CLR 07/M02 A2967 1100 53 500 250/05 RMK AO2
14837KMSN MSN20071114064009411/14/07 06:40:31  5-MIN KMSN 141240Z 25005KT 10SM CLR 07/M02 A2967 1090 53 500 250/05 RMK AO2
14837KMSN MSN20071114064509411/14/07 06:45:31  5-MIN KMSN 141245Z 25005KT 10SM CLR 07/M02 A2967 1090 53 500 240/05 RMK AO2
14837KMSN MSN20071114065011111/14/07 06:50:31  5-MIN KMSN 141250Z 25005KT 10SM CLR 07/M02 A2967 1100 53 500 250/05 RMK AO2 SLP050 T00721017
14837KMSN MSN20071114065509411/14/07 06:55:31  5-MIN KMSN 141255Z 24005KT 10SM CLR 07/M02 A2967 1100 53 500 240/05 RMK AO2
14837KMSN MSN20071114070009411/14/07 07:00:31  5-MIN KMSN 141300Z 25006KT 10SM CLR 07/M02 A2967 1090 53 500 250/06 RMK AO2
14837KMSN MSN20071114070509411/14/07 07:05:31  5-MIN KMSN 141305Z 26004KT 10SM CLR 07/M02 A2967 1090 53 500 260/04 RMK AO2
14837KMSN MSN20071114071009411/14/07 07:10:31  5-MIN KMSN 141310Z 25004KT 10SM CLR 07/M02 A2967 1090 53 500 250/04 RMK AO2
14837KMSN MSN20071114071509411/14/07 07:15:31  5-MIN KMSN 141315Z 26005KT 10SM CLR 07/M02 A2968 1090 53 500 260/05 RMK AO2
14837KMSN MSN20071114072009411/14/07 07:20:31  5-MIN KMSN 141320Z VRB05KT 10SM CLR 07/M02 A2968 1090 53 500 VRB/05 RMK AO2
14837KMSN MSN20071114072509411/14/07 07:25:31  5-MIN KMSN 141325Z 24006KT 10SM CLR 07/M02 A2968 1090 53 500 240/06 RMK AO2
14837KMSN MSN20071114073009411/14/07 07:30:31  5-MIN KMSN 141330Z 25005KT 10SM CLR 07/M02 A2968 1090 53 500 250/05 RMK AO2
14837KMSN MSN20071114073509411/14/07 07:35:31  5-MIN KMSN 141335Z 24006KT 10SM CLR 07/M02 A2968 1090 53 500 240/06 RMK AO2
14837KMSN MSN20071114074009411/14/07 07:40:31  5-MIN KMSN 141340Z 25005KT 10SM CLR 07/M02 A2968 1080 53 400 250/05 RMK AO2
14837KMSN MSN20071114074509411/14/07 07:45:31  5-MIN KMSN 141345Z 24007KT 10SM CLR 07/M02 A2968 1080 53 400 240/07 RMK AO2
14837KMSN MSN20071114075012611/14/07 07:50:31  5-MIN KMSN 141350Z 24007KT 210V280 9SM CLR 07/M02 A2969 1080 53 400 240/07 210V280 RMK AO2 SLP056 T00721017
14837KMSN MSN20071114075509311/14/07 07:55:31  5-MIN KMSN 141355Z 25007KT 8SM CLR 08/M02 A2969 1080 49 500 250/07 RMK AO2
14837KMSN MSN20071114080009311/14/07 08:00:31  5-MIN KMSN 141400Z VRB06KT 9SM CLR 08/M02 A2968 1080 49 500 VRB/06 RMK AO2
14837KMSN MSN20071114080509411/14/07 08:05:31  5-MIN KMSN 141405Z 25007KT 10SM CLR 08/M02 A2969 1080 49 500 250/07 RMK AO2
14837KMSN MSN20071114081009411/14/07 08:10:31  5-MIN KMSN 141410Z 25006KT 10SM CLR 08/M03 A2969 1080 47 500 250/06 RMK AO2
14837KMSN MSN20071114081511011/14/07 08:15:31  5-MIN KMSN 141415Z 24007KT 200V280 10SM CLR 08/M03 A2969 1080 47 500 240/07 200V280 RMK AO2
14837KMSN MSN20071114082009411/14/07 08:20:31  5-MIN KMSN 141420Z 24008KT 10SM CLR 08/M03 A2969 1080 43 600 240/08 RMK AO2
14837KMSN MSN20071114082509411/14/07 08:25:31  5-MIN KMSN 141425Z VRB06KT 10SM CLR 08/M03 A2969 1080 43 600 VRB/06 RMK AO2
14837KMSN MSN20071114083009411/14/07 08:30:31  5-MIN KMSN 141430Z 26007KT 10SM CLR 08/M03 A2969 1080 43 600 260/07 RMK AO2
14837KMSN MSN20071114083511011/14/07 08:35:31  5-MIN KMSN 141435Z 27007KT 220V300 10SM CLR 08/M04 A2969 1080 42 600 270/07 220V300 RMK AO2
14837KMSN MSN20071114084009411/14/07 08:40:31  5-MIN KMSN 141440Z 27007KT 10SM CLR 08/M04 A2969 1080 42 600 270/07 RMK AO2
14837KMSN MSN20071114084510011/14/07 08:45:31  5-MIN KMSN 141445Z 27012G21KT 10SM CLR 08/M04 A2969 1080 42 600 270/12G21 RMK AO2
14837KMSN MSN20071114085012311/14/07 08:50:31  5-MIN KMSN 141450Z 28009G21KT 10SM CLR 08/M04 A2969 1080 42 600 280/09G21 RMK AO2 SLP057 T00831039 51012
14837KMSN MSN20071114085510011/14/07 08:55:31  5-MIN KMSN 141455Z 27010G18KT 10SM CLR 09/M04 A2969 1080 40 600 270/10G18 RMK AO2
14837KMSN MSN20071114090011611/14/07 09:00:31  5-MIN KMSN 141500Z 29009G18KT 260V330 10SM CLR 09/M04 A2969 1080 38 600 290/09G18 260V330 RMK AO2
14837KMSN MSN20071114090510011/14/07 09:05:31  5-MIN KMSN 141505Z 27009G18KT 10SM CLR 09/M04 A2970 1070 38 600 270/09G18 RMK AO2
14837KMSN MSN20071114091010011/14/07 09:10:31  5-MIN KMSN 141510Z 27011G20KT 10SM CLR 09/M05 A2970 1070 37 600 270/11G20 RMK AO2
14837KMSN MSN20071114091510011/14/07 09:15:31  5-MIN KMSN 141515Z 29009G20KT 10SM CLR 09/M06 A2970 1070 35 600 290/09G20 RMK AO2
14837KMSN MSN20071114092010011/14/07 09:20:31  5-MIN KMSN 141520Z 28010G20KT 10SM CLR 09/M05 A2970 1070 37 600 280/10G20 RMK AO2
14837KMSN MSN20071114092510011/14/07 09:25:31  5-MIN KMSN 141525Z 27011G22KT 10SM CLR 09/M06 A2970 1070 35 600 270/11G22 RMK AO2
14837KMSN MSN20071114093010011/14/07 09:30:31  5-MIN KMSN 141530Z 28014G22KT 10SM CLR 09/M06 A2970 1060 35 600 280/14G22 RMK AO2
14837KMSN MSN20071114093510011/14/07 09:35:31  5-MIN KMSN 141535Z 29011G22KT 10SM CLR 09/M06 A2970 1070 35 600 280/11G22 RMK AO2
14837KMSN MSN20071114094010011/14/07 09:40:31  5-MIN KMSN 141540Z 28008G21KT 10SM CLR 09/M06 A2971 1060 35 600 280/08G21 RMK AO2
14837KMSN MSN20071114094511611/14/07 09:45:31  5-MIN KMSN 141545Z 28012G22KT 250V310 10SM CLR 09/M06 A2971 1060 35 600 280/12G22 250V310 RMK AO2
14837KMSN MSN20071114095013311/14/07 09:50:31  5-MIN KMSN 141550Z 27007G22KT 240V300 10SM CLR 09/M05 A2970 1070 37 600 270/07G22 240V300 RMK AO2 SLP060 T00891050
14837KMSN MSN20071114095510311/14/07 09:55:31  5-MIN KMSN 141555Z 26009G18KT 10SM FEW120 09/M06 A2970 1070 34 700 260/09G18 RMK AO2
14837KMSN MSN20071114100011911/14/07 10:00:31  5-MIN KMSN 141600Z 28009G20KT 250V310 10SM FEW120 09/M06 A2970 1070 34 700 280/09G20 250V310 RMK AO2
14837KMSN MSN20071114100510311/14/07 10:05:31  5-MIN KMSN 141605Z 29010G20KT 10SM FEW120 09/M05 A2970 1070 35 700 290/10G20 RMK AO2
14837KMSN MSN20071114101010311/14/07 10:10:31  5-MIN KMSN 141610Z 27012G19KT 10SM FEW120 09/M06 A2971 1060 34 700 270/12G19 RMK AO2
14837KMSN MSN20071114101510311/14/07 10:15:31  5-MIN KMSN 141615Z 27007G19KT 10SM FEW120 09/M06 A2971 1060 34 700 270/07G19 RMK AO2
14837KMSN MSN20071114102010311/14/07 10:20:31  5-MIN KMSN 141620Z 27006G19KT 10SM FEW120 09/M06 A2971 1060 35 600 270/06G19 RMK AO2
14837KMSN MSN20071114102510311/14/07 10:25:31  5-MIN KMSN 141625Z 27011G18KT 10SM FEW120 09/M06 A2971 1060 34 700 270/11G18 RMK AO2
14837KMSN MSN20071114103010311/14/07 10:30:31  5-MIN KMSN 141630Z 28012G23KT 10SM FEW120 09/M06 A2971 1060 35 600 280/12G23 RMK AO2
14837KMSN MSN20071114103510311/14/07 10:35:31  5-MIN KMSN 141635Z 28015G25KT 10SM FEW120 09/M06 A2971 1060 35 600 280/15G25 RMK AO2
14837KMSN MSN20071114104010011/14/07 10:40:31  5-MIN KMSN 141640Z 28009G25KT 10SM CLR 09/M06 A2971 1060 34 600 280/09G25 RMK AO2
14837KMSN MSN20071114104510011/14/07 10:45:31  5-MIN KMSN 141645Z 28011G20KT 10SM CLR 09/M06 A2971 1060 35 600 270/11G20 RMK AO2
14837KMSN MSN20071114105011711/14/07 10:50:31  5-MIN KMSN 141650Z 29012G20KT 10SM CLR 09/M06 A2971 1060 35 600 290/12G20 RMK AO2 SLP065 T00891056
14837KMSN MSN20071114105512611/14/07 10:55:31  5-MIN KMSN 141655Z 28008G20KT 230V300 10SM FEW050 SCT120 09/M06 A2971 1060 35 600 280/08G20 230V300 RMK AO2
14837KMSN MSN20071114110011011/14/07 11:00:31  5-MIN KMSN 141700Z 28013G25KT 10SM FEW050 SCT120 09/M06 A2971 1060 35 600 280/13G25 RMK AO2
14837KMSN MSN20071114110511011/14/07 11:05:31  5-MIN KMSN 141705Z 28012G25KT 10SM FEW050 SCT120 09/M06 A2971 1060 35 600 280/12G25 RMK AO2
14837KMSN MSN20071114111011011/14/07 11:10:31  5-MIN KMSN 141710Z 28011G24KT 10SM FEW050 SCT120 09/M06 A2971 1060 35 600 280/11G24 RMK AO2
14837KMSN MSN20071114111511011/14/07 11:15:31  5-MIN KMSN 141715Z 27009G22KT 10SM FEW050 SCT120 09/M06 A2971 1060 35 600 270/09G22 RMK AO2
14837KMSN MSN20071114112012611/14/07 11:20:31  5-MIN KMSN 141720Z 27009G22KT 230V300 10SM FEW050 SCT120 09/M05 A2971 1060 37 600 270/09G22 230V300 RMK AO2
14837KMSN MSN20071114112512611/14/07 11:25:31  5-MIN KMSN 141725Z 27011G20KT 240V300 10SM FEW050 BKN120 09/M05 A2971 1060 37 600 270/11G20 240V300 RMK AO2
14837KMSN MSN20071114113011011/14/07 11:30:31  5-MIN KMSN 141730Z 27011G20KT 10SM FEW050 BKN120 09/M05 A2971 1060 37 600 270/11G20 RMK AO2
14837KMSN MSN20071114113511011/14/07 11:35:31  5-MIN KMSN 141735Z 28008G20KT 10SM FEW050 BKN120 09/M05 A2971 1060 35 700 280/08G20 RMK AO2
14837KMSN MSN20071114114011011/14/07 11:40:31  5-MIN KMSN 141740Z 28009G18KT 10SM FEW050 BKN120 09/M05 A2970 1070 35 700 280/09G18 RMK AO2
14837KMSN MSN20071114114511011/14/07 11:45:31  5-MIN KMSN 141745Z 30010G18KT 10SM FEW050 BKN120 10/M04 A2971 1060 36 800 300/10G18 RMK AO2
14837KMSN MSN20071114115016111/14/07 11:50:31  5-MIN KMSN 141750Z 27011G22KT 230V300 10SM FEW050 BKN120 09/M05 A2971 1060 35 700 270/11G22 230V300 RMK AO2 SLP061 T00941050 10100 20067 51011
14837KMSN MSN20071114115510011/14/07 11:55:31  5-MIN KMSN 141755Z 27015G23KT 10SM CLR 09/M05 A2971 1060 35 700 270/15G23 RMK AO2
14837KMSN MSN20071114120011011/14/07 12:00:31  5-MIN KMSN 141800Z 28011G23KT 10SM SCT050 BKN120 09/M05 A2971 1060 35 700 280/11G23 RMK AO2
14837KMSN MSN20071114120512811/14/07 12:05:31  5-MIN KMSN 141805Z 28014G29KT 10SM SCT050 BKN120 09/M05 A2971 1060 35 700 280/14G29 RMK AO2 PK WND 27029/1801
14837KMSN MSN20071114121012811/14/07 12:10:31  5-MIN KMSN 141810Z 29015G29KT 10SM SCT050 BKN120 09/M05 A2971 1060 35 700 290/15G29 RMK AO2 PK WND 27029/1801
14837KMSN MSN20071114121512811/14/07 12:15:31  5-MIN KMSN 141815Z 29014G22KT 10SM SCT050 BKN120 09/M05 A2970 1070 35 700 290/14G22 RMK AO2 PK WND 27029/1801
14837KMSN MSN20071114122012811/14/07 12:20:31  5-MIN KMSN 141820Z 28016G27KT 10SM SCT050 BKN120 09/M05 A2970 1070 35 700 280/16G27 RMK AO2 PK WND 27029/1801
14837KMSN MSN20071114122512811/14/07 12:25:31  5-MIN KMSN 141825Z 30015G27KT 10SM SCT050 BKN120 10/M05 A2970 1070 34 800 300/15G27 RMK AO2 PK WND 27029/1801
14837KMSN MSN20071114123014411/14/07 12:30:31  5-MIN KMSN 141830Z 29013G25KT 250V310 10SM SCT050 BKN120 10/M04 A2970 1060 36 800 280/13G25 250V310 RMK AO2 PK WND 27029/1801
14837KMSN MSN20071114123512111/14/07 12:35:31  5-MIN KMSN 141835Z 28016G22KT 10SM BKN060 10/M04 A2970 1070 36 800 280/16G22 RMK AO2 PK WND 27029/1801
14837KMSN MSN20071114124012111/14/07 12:40:31  5-MIN KMSN 141840Z 28013G22KT 10SM BKN060 09/M04 A2970 1060 37 700 280/13G22 RMK AO2 PK WND 27029/1801
14837KMSN MSN20071114124512111/14/07 12:45:31  5-MIN KMSN 141845Z 31017G25KT 10SM BKN060 10/M04 A2970 1070 36 800 300/17G25 RMK AO2 PK WND 27029/1801
14837KMSN MSN20071114125013811/14/07 12:50:31  5-MIN KMSN 141850Z 29014G25KT 10SM OVC060 09/M04 A2970 1070 37 700 290/14G25 RMK AO2 PK WND 27029/1801 SLP060 T00941044
14837KMSN MSN20071114125513711/14/07 12:55:31  5-MIN KMSN 141855Z 29017G29KT 240V310 10SM BKN060 09/M05 A2971 1060 37 600 280/17G29 240V310 RMK AO2 PK WND 30029/1855
14837KMSN MSN20071114130012111/14/07 13:00:31  5-MIN KMSN 141900Z 26014G29KT 10SM BKN060 09/M04 A2971 1060 38 600 260/14G29 RMK AO2 PK WND 30029/1855
14837KMSN MSN20071114130513711/14/07 13:05:31  5-MIN KMSN 141905Z 28010G22KT 240V310 10SM BKN060 09/M04 A2971 1060 38 600 280/10G22 240V310 RMK AO2 PK WND 30029/1855
14837KMSN MSN20071114131012111/14/07 13:10:31  5-MIN KMSN 141910Z 28014G22KT 10SM OVC055 09/M04 A2971 1060 38 600 280/14G22 RMK AO2 PK WND 30029/1855
14837KMSN MSN20071114131512111/14/07 13:15:31  5-MIN KMSN 141915Z 28011G22KT 10SM OVC055 08/M04 A2971 1060 40 500 280/11G22 RMK AO2 PK WND 30029/1855
14837KMSN MSN20071114132012111/14/07 13:20:31  5-MIN KMSN 141920Z 28017G23KT 10SM OVC055 08/M04 A2972 1050 40 500 280/17G23 RMK AO2 PK WND 30029/1855
14837KMSN MSN20071114132512111/14/07 13:25:31  5-MIN KMSN 141925Z 28015G26KT 10SM OVC055 08/M04 A2972 1050 40 500 280/15G26 RMK AO2 PK WND 30029/1855
14837KMSN MSN20071114133012111/14/07 13:30:31  5-MIN KMSN 141930Z 28017G26KT 10SM OVC055 08/M04 A2972 1050 40 500 280/17G26 RMK AO2 PK WND 30029/1855
14837KMSN MSN20071114133512111/14/07 13:35:31  5-MIN KMSN 141935Z 28011G26KT 10SM OVC055 08/M04 A2972 1050 41 500 280/11G26 RMK AO2 PK WND 30029/1855
14837KMSN MSN20071114134012111/14/07 13:40:31  5-MIN KMSN 141940Z 28010G26KT 10SM OVC055 08/M04 A2972 1050 41 500 280/10G26 RMK AO2 PK WND 30029/1855
14837KMSN MSN20071114134512111/14/07 13:45:31  5-MIN KMSN 141945Z 28012G19KT 10SM OVC055 08/M04 A2972 1050 41 500 270/12G19 RMK AO2 PK WND 30029/1855
14837KMSN MSN20071114135013811/14/07 13:50:31  5-MIN KMSN 141950Z 28013G23KT 10SM OVC050 08/M04 A2972 1050 41 500 280/13G23 RMK AO2 PK WND 30029/1855 SLP069 T00781044
14837KMSN MSN20071114135510311/14/07 13:55:31  5-MIN KMSN 141955Z 28013G23KT 10SM OVC050 08/M04 A2972 1050 43 500 280/13G23 RMK AO2
14837KMSN MSN20071114140012111/14/07 14:00:31  5-MIN KMSN 142000Z 27012G31KT 10SM OVC050 08/M04 A2972 1050 41 500 270/12G31 RMK AO2 PK WND 28031/1956
14837KMSN MSN20071114140512111/14/07 14:05:31  5-MIN KMSN 142005Z 28009G31KT 10SM OVC050 08/M04 A2972 1050 43 500 280/09G31 RMK AO2 PK WND 28031/1956
14837KMSN MSN20071114141012111/14/07 14:10:31  5-MIN KMSN 142010Z 28016G23KT 10SM OVC050 08/M04 A2972 1050 43 500 280/16G23 RMK AO2 PK WND 28031/1956
14837KMSN MSN20071114141512111/14/07 14:15:31  5-MIN KMSN 142015Z 29010G23KT 10SM OVC050 07/M04 A2973 1050 45 400 280/10G23 RMK AO2 PK WND 28031/1956
14837KMSN MSN20071114142012111/14/07 14:20:31  5-MIN KMSN 142020Z 29016G28KT 10SM OVC050 07/M04 A2973 1040 45 400 290/16G28 RMK AO2 PK WND 28031/1956
14837KMSN MSN20071114142512111/14/07 14:25:31  5-MIN KMSN 142025Z 28010G28KT 10SM OVC050 07/M04 A2973 1040 45 400 280/10G28 RMK AO2 PK WND 28031/1956
14837KMSN MSN20071114143012111/14/07 14:30:31  5-MIN KMSN 142030Z 29013G24KT 10SM OVC050 07/M04 A2973 1040 45 400 290/13G24 RMK AO2 PK WND 28031/1956
14837KMSN MSN20071114143512111/14/07 14:35:31  5-MIN KMSN 142035Z 28013G24KT 10SM OVC050 07/M04 A2973 1040 45 400 280/13G24 RMK AO2 PK WND 28031/1956
14837KMSN MSN20071114144012111/14/07 14:40:31  5-MIN KMSN 142040Z 29015G26KT 10SM OVC050 07/M04 A2973 1040 45 400 290/15G26 RMK AO2 PK WND 28031/1956
14837KMSN MSN20071114144512111/14/07 14:45:31  5-MIN KMSN 142045Z 29012G26KT 10SM OVC050 07/M04 A2974 1040 45 400 290/12G26 RMK AO2 PK WND 28031/1956
14837KMSN MSN20071114145014411/14/07 14:50:31  5-MIN KMSN 142050Z 29008G21KT 10SM OVC050 07/M04 A2974 1030 45 400 290/08G21 RMK AO2 PK WND 28031/1956 SLP074 T00721039 50005
14837KMSN MSN20071114145511911/14/07 14:55:31  5-MIN KMSN 142055Z 28008G17KT 230V300 10SM OVC050 07/M04 A2974 1030 45 400 270/08G17 230V300 RMK AO2
14837KMSN MSN20071114150010311/14/07 15:00:31  5-MIN KMSN 142100Z 28010G20KT 10SM OVC050 07/M03 A2974 1030 47 400 280/10G20 RMK AO2
14837KMSN MSN20071114150511011/14/07 15:05:31  5-MIN KMSN 142105Z 28009G20KT 10SM BKN050 OVC060 07/M03 A2974 1030 47 400 270/09G20 RMK AO2
14837KMSN MSN20071114151012611/14/07 15:10:31  5-MIN KMSN 142110Z 28011G21KT 230V310 10SM BKN050 OVC060 07/M04 A2974 1030 45 400 280/11G21 230V310 RMK AO2
14837KMSN MSN20071114151510311/14/07 15:15:31  5-MIN KMSN 142115Z 28008G21KT 10SM OVC050 07/M04 A2974 1030 45 400 280/08G21 RMK AO2
14837KMSN MSN20071114152010311/14/07 15:20:31  5-MIN KMSN 142120Z 30014G19KT 10SM OVC050 07/M04 A2974 1030 45 400 300/14G19 RMK AO2
14837KMSN MSN20071114152510311/14/07 15:25:31  5-MIN KMSN 142125Z 29012G19KT 10SM OVC050 07/M04 A2974 1030 47 300 290/12G19 RMK AO2
14837KMSN MSN20071114153010311/14/07 15:30:31  5-MIN KMSN 142130Z 28011G24KT 10SM OVC050 07/M04 A2975 1030 47 300 280/11G24 RMK AO2
14837KMSN MSN20071114153510311/14/07 15:35:31  5-MIN KMSN 142135Z 29014G24KT 10SM OVC055 07/M04 A2975 1020 45 300 290/14G24 RMK AO2
14837KMSN MSN20071114154010311/14/07 15:40:31  5-MIN KMSN 142140Z 28013G22KT 10SM OVC055 07/M04 A2975 1020 47 300 280/13G22 RMK AO2
14837KMSN MSN20071114154510311/14/07 15:45:31  5-MIN KMSN 142145Z 29014G22KT 10SM OVC055 07/M04 A2975 1020 47 300 290/14G22 RMK AO2
14837KMSN MSN20071114155012011/14/07 15:50:31  5-MIN KMSN 142150Z 28006G21KT 10SM OVC055 07/M04 A2975 1020 47 300 280/06G21 RMK AO2 SLP078 T00671039
14837KMSN MSN20071114155510311/14/07 15:55:31  5-MIN KMSN 142155Z 28010G21KT 10SM OVC055 07/M04 A2975 1020 47 300 280/10G21 RMK AO2
14837KMSN MSN20071114160010311/14/07 16:00:31  5-MIN KMSN 142200Z 28009G21KT 10SM BKN055 07/M04 A2975 1020 47 300 280/09G21 RMK AO2
14837KMSN MSN20071114160511911/14/07 16:05:31  5-MIN KMSN 142205Z 27012G21KT 240V310 10SM BKN055 07/M04 A2975 1020 47 300 270/12G21 240V310 RMK AO2
14837KMSN MSN20071114161010311/14/07 16:10:31  5-MIN KMSN 142210Z 28015G23KT 10SM BKN055 07/M04 A2975 1020 47 300 280/15G23 RMK AO2
14837KMSN MSN20071114161510311/14/07 16:15:31  5-MIN KMSN 142215Z 28015G23KT 10SM BKN055 07/M04 A2975 1020 45 300 280/15G23 RMK AO2
14837KMSN MSN20071114162010311/14/07 16:20:31  5-MIN KMSN 142220Z 28014G25KT 10SM BKN055 07/M04 A2976 1020 45 300 280/14G25 RMK AO2
14837KMSN MSN20071114162510311/14/07 16:25:31  5-MIN KMSN 142225Z 28013G25KT 10SM BKN055 06/M05 A2976 1020 45 200 280/13G25 RMK AO2
14837KMSN MSN20071114163011911/14/07 16:30:31  5-MIN KMSN 142230Z 28012G24KT 240V300 10SM OVC050 06/M05 A2976 1010 45 200 280/12G24 240V300 RMK AO2
14837KMSN MSN20071114163510311/14/07 16:35:31  5-MIN KMSN 142235Z 28012G22KT 10SM OVC050 06/M05 A2976 1010 45 200 280/12G22 RMK AO2
14837KMSN MSN20071114164012111/14/07 16:40:31  5-MIN KMSN 142240Z 27015G26KT 10SM OVC050 06/M05 A2977 1010 45 200 270/15G26 RMK AO2 PK WND 26026/2239
14837KMSN MSN20071114164512111/14/07 16:45:31  5-MIN KMSN 142245Z 27015G26KT 10SM OVC050 06/M05 A2977 1010 45 200 270/15G26 RMK AO2 PK WND 26026/2239
14837KMSN MSN20071114165013811/14/07 16:50:31  5-MIN KMSN 142250Z 28011G24KT 10SM OVC050 06/M05 A2977 1000 45 200 280/11G24 RMK AO2 PK WND 26026/2239 SLP086 T00611050
14837KMSN MSN20071114165510311/14/07 16:55:31  5-MIN KMSN 142255Z 28012G22KT 10SM OVC050 06/M05 A2977 1000 46 100 280/12G22 RMK AO2
14837KMSN MSN20071114170011911/14/07 17:00:31  5-MIN KMSN 142300Z 29011G19KT 250V320 10SM OVC055 06/M05 A2978 1000 46 100 290/11G19 250V320 RMK AO2
14837KMSN MSN20071114170510311/14/07 17:05:31  5-MIN KMSN 142305Z 28012G21KT 10SM OVC050 06/M05 A2978 1000 46 100 280/12G21 RMK AO2
14837KMSN MSN20071114171010311/14/07 17:10:31  5-MIN KMSN 142310Z 29014G21KT 10SM OVC050 06/M05 A2978 1000 46 100 290/14G21 RMK AO2
14837KMSN MSN20071114171510211/14/07 17:15:31  5-MIN KMSN 142315Z 29012G20KT 10SM OVC050 06/M05 A2978 990 46 100 290/12G20 RMK AO2
14837KMSN MSN20071114172010211/14/07 17:20:31  5-MIN KMSN 142320Z 28012G20KT 10SM OVC050 06/M05 A2978 990 46 100 280/12G20 RMK AO2
14837KMSN MSN20071114172511811/14/07 17:25:31  5-MIN KMSN 142325Z 29012G23KT 260V330 10SM OVC050 06/M05 A2978 990 46 100 280/12G23 260V330 RMK AO2
14837KMSN MSN20071114173010211/14/07 17:30:31  5-MIN KMSN 142330Z 29013G23KT 10SM OVC050 06/M05 A2979 990 46 100 290/13G23 RMK AO2
14837KMSN MSN20071114173510211/14/07 17:35:31  5-MIN KMSN 142335Z 30012G21KT 10SM OVC050 06/M05 A2979 980 46 100 300/12G21 RMK AO2
14837KMSN MSN20071114174010211/14/07 17:40:31  5-MIN KMSN 142340Z 30012G21KT 10SM OVC050 06/M05 A2979 980 46 100 300/12G21 RMK AO2
14837KMSN MSN20071114174510211/14/07 17:45:31  5-MIN KMSN 142345Z 30011G18KT 10SM OVC050 06/M05 A2979 980 46 100 300/11G18 RMK AO2
14837KMSN MSN20071114175013711/14/07 17:50:31  5-MIN KMSN 142350Z 29014G21KT 10SM OVC048 06/M05 A2980 980 46 100 290/14G21 RMK AO2 SLP095 T00561050 10100 20056 53011
14837KMSN MSN20071114175510211/14/07 17:55:31  5-MIN KMSN 142355Z 30009G21KT 10SM OVC048 06/M05 A2980 980 46 100 300/09G21 RMK AO2
14837KMSN MSN20071114180011811/14/07 18:00:31  5-MIN KMSN 150000Z 30008G21KT 270V330 10SM OVC048 06/M06 A2980 980 44 100 300/08G21 270V330 RMK AO2
14837KMSN MSN20071114180510211/14/07 18:05:31  5-MIN KMSN 150005Z 30011G22KT 10SM OVC048 06/M06 A2980 980 44 100 300/11G22 RMK AO2
14837KMSN MSN20071114181010211/14/07 18:10:31  5-MIN KMSN 150010Z 31011G22KT 10SM OVC048 06/M06 A2980 980 44 100 300/11G22 RMK AO2
14837KMSN MSN20071114181511611/14/07 18:15:31  5-MIN KMSN 150015Z 30007G17KT 250V320 10SM OVC050 05/M06 A2980 980 46 0 300/07G17 250V320 RMK AO2
14837KMSN MSN20071114182010011/14/07 18:20:31  5-MIN KMSN 150020Z 29008G15KT 10SM OVC050 05/M06 A2980 980 46 0 290/08G15 RMK AO2
14837KMSN MSN20071114182510011/14/07 18:25:31  5-MIN KMSN 150025Z 29009G14KT 10SM OVC050 05/M05 A2980 980 48 0 290/09G14 RMK AO2
14837KMSN MSN20071114183011611/14/07 18:30:31  5-MIN KMSN 150030Z 28015G23KT 250V320 10SM OVC050 05/M05 A2980 980 48 0 280/15G23 250V320 RMK AO2
14837KMSN MSN20071114183510011/14/07 18:35:31  5-MIN KMSN 150035Z 29011G23KT 10SM OVC050 05/M05 A2980 980 48 0 290/11G23 RMK AO2
14837KMSN MSN20071114184010011/14/07 18:40:31  5-MIN KMSN 150040Z 29011G20KT 10SM OVC050 05/M05 A2980 980 48 0 290/11G20 RMK AO2
14837KMSN MSN20071114184510011/14/07 18:45:31  5-MIN KMSN 150045Z 28011G19KT 10SM OVC050 05/M05 A2980 980 48 0 280/11G19 RMK AO2
14837KMSN MSN20071114185013311/14/07 18:50:31  5-MIN KMSN 150050Z 29010G19KT 250V310 10SM OVC050 05/M04 A2980 980 50 0 290/10G19 250V310 RMK AO2 SLP096 T00501044
14837KMSN MSN20071114185510011/14/07 18:55:31  5-MIN KMSN 150055Z 28013G20KT 10SM OVC050 05/M05 A2980 980 48 0 280/13G20 RMK AO2
14837KMSN MSN20071114190010011/14/07 19:00:31  5-MIN KMSN 150100Z 29010G20KT 10SM OVC050 05/M05 A2980 980 48 0 290/10G20 RMK AO2
14837KMSN MSN20071114190510011/14/07 19:05:31  5-MIN KMSN 150105Z 30012G19KT 10SM OVC050 05/M05 A2980 970 48 0 300/12G19 RMK AO2
14837KMSN MSN20071114191010011/14/07 19:10:31  5-MIN KMSN 150110Z 29009G17KT 10SM OVC050 05/M05 A2980 970 48 0 290/09G17 RMK AO2
14837KMSN MSN20071114191510011/14/07 19:15:31  5-MIN KMSN 150115Z 30013G19KT 10SM OVC050 05/M05 A2981 970 48 0 300/13G19 RMK AO2
14837KMSN MSN20071114192010011/14/07 19:20:31  5-MIN KMSN 150120Z 30010G19KT 10SM OVC050 05/M05 A2981 970 48 0 300/10G19 RMK AO2
14837KMSN MSN20071114192510011/14/07 19:25:31  5-MIN KMSN 150125Z 29009G20KT 10SM OVC050 04/M04 A2980 970 52 0 290/09G20 RMK AO2
14837KMSN MSN20071114193010011/14/07 19:30:31  5-MIN KMSN 150130Z 30012G21KT 10SM OVC050 04/M04 A2981 970 52 0 300/12G21 RMK AO2
14837KMSN MSN20071114193510711/14/07 19:35:31  5-MIN KMSN 150135Z 29009G21KT 10SM BKN050 OVC060 04/M04 A2981 970 52 0 290/09G21 RMK AO2
14837KMSN MSN20071114194010011/14/07 19:40:31  5-MIN KMSN 150140Z 30010G18KT 10SM OVC055 04/M04 A2981 970 52 0 300/10G18 RMK AO2
14837KMSN MSN20071114194510011/14/07 19:45:31  5-MIN KMSN 150145Z 30007G18KT 10SM OVC055 04/M04 A2981 970 52 0 300/07G18 RMK AO2
14837KMSN MSN20071114195012411/14/07 19:50:31  5-MIN KMSN 150150Z 30013G21KT 10SM SCT049 OVC060 04/M04 A2981 960 52 0 300/13G21 RMK AO2 SLP101 T00441044
14837KMSN MSN20071114195510011/14/07 19:55:31  5-MIN KMSN 150155Z 30016G27KT 10SM OVC055 04/M04 A2982 960 52 0 300/16G27 RMK AO2
14837KMSN MSN20071114200010311/14/07 20:00:31  5-MIN KMSN 150200Z 30014G27KT 10SM OVC055 04/M04 A2981 960 54 -100 300/14G27 RMK AO2
14837KMSN MSN20071114200510311/14/07 20:05:31  5-MIN KMSN 150205Z 30014G24KT 10SM OVC055 04/M04 A2982 960 54 -100 300/14G24 RMK AO2
14837KMSN MSN20071114201010311/14/07 20:10:31  5-MIN KMSN 150210Z 30016G23KT 10SM OVC055 04/M04 A2982 960 54 -100 300/16G23 RMK AO2
14837KMSN MSN20071114201511011/14/07 20:15:31  5-MIN KMSN 150215Z 31011G23KT 10SM BKN050 OVC060 04/M04 A2982 950 57 -100 310/11G23 RMK AO2
14837KMSN MSN20071114202011711/14/07 20:20:31  5-MIN KMSN 150220Z 31013G20KT 10SM FEW038 BKN050 OVC060 04/M04 A2983 950 57 -100 310/13G20 RMK AO2
14837KMSN MSN20071114202511011/14/07 20:25:31  5-MIN KMSN 150225Z 30015G20KT 10SM FEW035 OVC048 04/M04 A2983 950 57 -100 290/15G20 RMK AO2
14837KMSN MSN20071114203013211/14/07 20:30:31  5-MIN KMSN 150230Z 31015G21KT 9SM -SN FEW038 BKN048 OVC055 04/M04 A2983 950 54 -100 310/15G21 RMK AO2 SNB26 P0000
14837KMSN MSN20071114203515011/14/07 20:35:31  5-MIN KMSN 150235Z 30013G26KT 9SM -SN FEW038 BKN047 OVC055 03/M04 A2983 950 57 -100 300/13G26 RMK AO2 PK WND 30026/0233 SNB26 P0000
14837KMSN MSN20071114204014311/14/07 20:40:31  5-MIN KMSN 150240Z 31013G26KT 9SM -SN SCT047 OVC055 03/M04 A2984 940 57 -200 310/13G26 RMK AO2 PK WND 30026/0233 SNB26 P0000
14837KMSN MSN20071114204514211/14/07 20:45:31  5-MIN KMSN 150245Z 31012G23KT 9SM FEW047 OVC060 03/M04 A2984 940 57 -200 310/12G23 RMK AO2 PK WND 30026/0233 SNB26E41 P0000
14837KMSN MSN20071114205017911/14/07 20:50:31  5-MIN KMSN 150250Z 32012G21KT 10SM FEW048 BKN060 OVC075 03/M04 A2984 940 57 -200 320/12G21 RMK AO2 PK WND 30026/0233 SNB26E41 SLP110 P0000 60000 T00331044 53019
14837KMSN MSN20071114205511011/14/07 20:55:31  5-MIN KMSN 150255Z 31013G22KT 10SM SCT060 OVC075 03/M05 A2984 940 54 -200 310/13G22 RMK AO2
14837KMSN MSN20071114210011011/14/07 21:00:31  5-MIN KMSN 150300Z 32013G22KT 10SM SCT060 OVC075 03/M05 A2984 940 54 -200 320/13G22 RMK AO2
14837KMSN MSN20071114210511011/14/07 21:05:31  5-MIN KMSN 150305Z 31014G21KT 10SM SCT060 OVC080 03/M05 A2984 940 54 -200 310/14G21 RMK AO2
14837KMSN MSN20071114211011011/14/07 21:10:31  5-MIN KMSN 150310Z 31010G21KT 10SM FEW060 OVC080 03/M05 A2984 940 54 -200 310/10G21 RMK AO2
14837KMSN MSN20071114211510311/14/07 21:15:31  5-MIN KMSN 150315Z 31011G20KT 10SM OVC075 03/M05 A2984 930 54 -200 310/11G20 RMK AO2
14837KMSN MSN20071114212010311/14/07 21:20:31  5-MIN KMSN 150320Z 31010G19KT 10SM OVC075 03/M05 A2985 930 54 -200 310/10G19 RMK AO2
14837KMSN MSN20071114212510311/14/07 21:25:31  5-MIN KMSN 150325Z 30010G17KT 10SM OVC075 03/M05 A2985 930 54 -200 300/10G17 RMK AO2
14837KMSN MSN20071114213010311/14/07 21:30:31  5-MIN KMSN 150330Z 31010G21KT 10SM OVC075 03/M05 A2985 930 54 -200 310/10G21 RMK AO2
14837KMSN MSN20071114213510311/14/07 21:35:31  5-MIN KMSN 150335Z 31010G21KT 10SM OVC075 03/M05 A2985 930 54 -200 310/10G21 RMK AO2
14837KMSN MSN20071114214010311/14/07 21:40:31  5-MIN KMSN 150340Z 31013G21KT 10SM OVC080 03/M05 A2985 930 54 -200 310/13G21 RMK AO2
14837KMSN MSN20071114214510311/14/07 21:45:31  5-MIN KMSN 150345Z 31014G21KT 10SM OVC080 03/M05 A2985 930 54 -200 310/14G21 RMK AO2
14837KMSN MSN20071114215012011/14/07 21:50:31  5-MIN KMSN 150350Z 31012G21KT 10SM OVC080 03/M05 A2985 930 54 -200 310/12G21 RMK AO2 SLP113 T00331050
14837KMSN MSN20071114215510311/14/07 21:55:31  5-MIN KMSN 150355Z 29010G18KT 10SM OVC080 03/M05 A2985 930 54 -200 290/10G18 RMK AO2
14837KMSN MSN20071114220010311/14/07 22:00:31  5-MIN KMSN 150400Z 31014G18KT 10SM OVC080 03/M05 A2986 920 56 -200 310/14G18 RMK AO2
14837KMSN MSN20071114220511011/14/07 22:05:31  5-MIN KMSN 150405Z 31009G18KT 10SM FEW047 OVC080 03/M06 A2986 920 54 -200 310/09G18 RMK AO2
14837KMSN MSN20071114221011011/14/07 22:10:31  5-MIN KMSN 150410Z 30013G23KT 10SM SCT047 OVC085 03/M06 A2986 920 52 -200 300/13G23 RMK AO2
14837KMSN MSN20071114221511011/14/07 22:15:31  5-MIN KMSN 150415Z 31014G23KT 10SM BKN047 OVC085 03/M06 A2986 920 52 -200 310/14G23 RMK AO2
14837KMSN MSN20071114222011011/14/07 22:20:31  5-MIN KMSN 150420Z 31011G23KT 10SM BKN047 OVC085 03/M06 A2986 920 54 -300 310/11G23 RMK AO2
14837KMSN MSN20071114222511711/14/07 22:25:31  5-MIN KMSN 150425Z 30013G20KT 10SM BKN045 BKN050 OVC085 03/M06 A2986 920 54 -300 300/13G20 RMK AO2
14837KMSN MSN20071114223010311/14/07 22:30:31  5-MIN KMSN 150430Z 31015G23KT 10SM OVC045 03/M06 A2986 920 52 -200 310/15G23 RMK AO2
14837KMSN MSN20071114223510311/14/07 22:35:31  5-MIN KMSN 150435Z 31011G23KT 10SM OVC045 03/M06 A2986 920 54 -300 310/11G23 RMK AO2
14837KMSN MSN20071114224010311/14/07 22:40:31  5-MIN KMSN 150440Z 31014G23KT 10SM OVC045 03/M06 A2986 920 54 -300 310/14G23 RMK AO2
14837KMSN MSN20071114224510311/14/07 22:45:31  5-MIN KMSN 150445Z 31010G21KT 10SM OVC043 03/M06 A2986 920 54 -300 310/10G21 RMK AO2
14837KMSN MSN20071114225012011/14/07 22:50:31  5-MIN KMSN 150450Z 32013G23KT 10SM OVC043 03/M06 A2987 910 54 -300 320/13G23 RMK AO2 SLP119 T00281056
14837KMSN MSN20071114225510311/14/07 22:55:31  5-MIN KMSN 150455Z 31010G23KT 10SM OVC043 03/M06 A2987 910 54 -300 310/10G23 RMK AO2
14837KMSN MSN20071114230012111/14/07 23:00:31  5-MIN KMSN 150500Z 31011G18KT 10SM -SN OVC043 03/M06 A2987 910 54 -300 300/11G18 RMK AO2 SNB0459 P0000
14837KMSN MSN20071114230512011/14/07 23:05:31  5-MIN KMSN 150505Z 30013G19KT 9SM -SN OVC043 03/M06 A2987 910 54 -300 300/13G19 RMK AO2 SNB0459 P0000
14837KMSN MSN20071114231012011/14/07 23:10:31  5-MIN KMSN 150510Z 31012G19KT 9SM -SN OVC041 03/M05 A2987 910 56 -300 310/12G19 RMK AO2 SNB0459 P0000
14837KMSN MSN20071114231512011/14/07 23:15:31  5-MIN KMSN 150515Z 31013G19KT 9SM -SN OVC041 03/M05 A2988 900 56 -300 310/13G19 RMK AO2 SNB0459 P0000
14837KMSN MSN20071114232012011/14/07 23:20:31  5-MIN KMSN 150520Z 31012G20KT 9SM -SN OVC039 03/M05 A2988 900 56 -300 310/12G20 RMK AO2 SNB0459 P0000
14837KMSN MSN20071114232512011/14/07 23:25:31  5-MIN KMSN 150525Z 30013G20KT 9SM -SN OVC039 03/M05 A2988 900 56 -300 300/13G20 RMK AO2 SNB0459 P0000
14837KMSN MSN20071114233012011/14/07 23:30:31  5-MIN KMSN 150530Z 32013G19KT 9SM -SN OVC039 03/M05 A2988 900 56 -300 320/13G19 RMK AO2 SNB0459 P0000
14837KMSN MSN20071114233512011/14/07 23:35:31  5-MIN KMSN 150535Z 32011G19KT 9SM -SN OVC039 03/M05 A2988 900 56 -300 320/11G19 RMK AO2 SNB0459 P0000
14837KMSN MSN20071114234012011/14/07 23:40:31  5-MIN KMSN 150540Z 32012G19KT 9SM -SN OVC039 03/M05 A2989 900 56 -300 320/12G19 RMK AO2 SNB0459 P0000
14837KMSN MSN20071114234512011/14/07 23:45:31  5-MIN KMSN 150545Z 32015G23KT 9SM -SN OVC039 03/M04 A2989 890 59 -300 320/15G23 RMK AO2 SNB0459 P0000
14837KMSN MSN20071114235017111/14/07 23:50:31  5-MIN KMSN 150550Z 31011G23KT 9SM -SN OVC039 03/M04 A2989 890 59 -300 310/11G23 RMK AO2 SNB0459 SLP127 P0000 60000 T00281044 10056 20028 401000028 53014
14837KMSN MSN20071114235511211/14/07 23:55:31  5-MIN KMSN 150555Z 31009G17KT 9SM -SN OVC039 03/M04 A2989 890 59 -300 310/09G17 RMK AO2 P0000
14837KMSN MSN20071115000011211/15/07 00:00:32  5-MIN KMSN 150600Z 32015G21KT 9SM -SN OVC039 02/M04 A2989 890 61 -400 310/15G21 RMK AO2 P0000
14837KMSN MSN20071115000511211/15/07 00:05:31  5-MIN KMSN 150605Z 31013G22KT 9SM -SN OVC039 02/M04 A2989 890 61 -400 310/13G22 RMK AO2 P0000
14837KMSN MSN20071115001011211/15/07 00:10:31  5-MIN KMSN 150610Z 32012G22KT 9SM -SN OVC039 02/M04 A2990 890 61 -400 320/12G22 RMK AO2 P0000
14837KMSN MSN20071115001511211/15/07 00:15:31  5-MIN KMSN 150615Z 31010G22KT 9SM -SN OVC041 02/M04 A2990 890 61 -400 310/10G22 RMK AO2 P0000
14837KMSN MSN20071115002011211/15/07 00:20:31  5-MIN KMSN 150620Z 30014G22KT 9SM -SN OVC041 02/M04 A2990 880 61 -400 300/14G22 RMK AO2 P0000
14837KMSN MSN20071115002511211/15/07 00:25:31  5-MIN KMSN 150625Z 31014G20KT 9SM -SN OVC041 02/M04 A2990 890 61 -400 310/14G20 RMK AO2 P0000
14837KMSN MSN20071115003011211/15/07 00:30:31  5-MIN KMSN 150630Z 32014G21KT 9SM -SN OVC041 02/M04 A2990 880 61 -400 320/14G21 RMK AO2 P0000
14837KMSN MSN20071115003511211/15/07 00:35:31  5-MIN KMSN 150635Z 31009G21KT 9SM -SN OVC041 02/M04 A2990 880 61 -400 310/09G21 RMK AO2 P0000
14837KMSN MSN20071115004011911/15/07 00:40:31  5-MIN KMSN 150640Z 31012G20KT 9SM -SN BKN037 OVC046 02/M04 A2990 880 61 -400 310/12G20 RMK AO2 P0000
14837KMSN MSN20071115004511911/15/07 00:45:31  5-MIN KMSN 150645Z 31012G20KT 9SM -SN BKN033 OVC043 02/M04 A2990 880 61 -400 310/12G20 RMK AO2 P0000
14837KMSN MSN20071115005013611/15/07 00:50:31  5-MIN KMSN 150650Z 32010G19KT 9SM -SN BKN033 OVC043 02/M04 A2990 880 61 -400 320/10G19 RMK AO2 SLP131 P0000 T00221044
14837KMSN MSN20071115005511211/15/07 00:55:31  5-MIN KMSN 150655Z 32012G20KT 9SM -SN OVC033 02/M04 A2990 880 61 -400 320/12G20 RMK AO2 P0000
14837KMSN MSN20071115010011211/15/07 01:00:31  5-MIN KMSN 150700Z 32011G20KT 9SM -SN OVC033 02/M04 A2990 880 61 -400 320/11G20 RMK AO2 P0000
14837KMSN MSN20071115010511211/15/07 01:05:31  5-MIN KMSN 150705Z 32010G19KT 9SM -SN OVC033 02/M04 A2990 880 61 -400 320/10G19 RMK AO2 P0000
14837KMSN MSN20071115011011211/15/07 01:10:31  5-MIN KMSN 150710Z 32014G24KT 9SM -SN OVC033 02/M04 A2990 880 61 -400 320/14G24 RMK AO2 P0000
14837KMSN MSN20071115011511211/15/07 01:15:31  5-MIN KMSN 150715Z 33014G24KT 9SM -SN OVC033 02/M04 A2991 880 61 -400 330/14G24 RMK AO2 P0000
14837KMSN MSN20071115012011211/15/07 01:20:31  5-MIN KMSN 150720Z 32013G20KT 9SM -SN OVC033 02/M04 A2991 880 61 -400 320/13G20 RMK AO2 P0000
14837KMSN MSN20071115012511211/15/07 01:25:31  5-MIN KMSN 150725Z 32016G24KT 9SM -SN OVC033 02/M04 A2991 870 61 -400 320/16G24 RMK AO2 P0000
14837KMSN MSN20071115013011211/15/07 01:30:31  5-MIN KMSN 150730Z 33014G24KT 9SM -SN OVC033 02/M04 A2991 870 61 -400 320/14G24 RMK AO2 P0000
14837KMSN MSN20071115013511211/15/07 01:35:31  5-MIN KMSN 150735Z 32014G22KT 9SM -SN OVC033 02/M04 A2991 870 61 -400 320/14G22 RMK AO2 P0000
14837KMSN MSN20071115014011211/15/07 01:40:31  5-MIN KMSN 150740Z 33014G22KT 9SM -SN OVC033 02/M04 A2992 870 61 -400 320/14G22 RMK AO2 P0000
14837KMSN MSN20071115014511911/15/07 01:45:31  5-MIN KMSN 150745Z 32010G22KT 9SM -SN BKN033 OVC040 02/M04 A2992 870 61 -400 320/10G22 RMK AO2 P0000
14837KMSN MSN20071115015012911/15/07 01:50:31  5-MIN KMSN 150750Z 33014G20KT 9SM -SN OVC033 02/M04 A2992 860 61 -400 330/14G20 RMK AO2 SLP138 P0000 T00221044
14837KMSN MSN20071115015511211/15/07 01:55:31  5-MIN KMSN 150755Z 32014G20KT 9SM -SN OVC033 02/M04 A2992 860 61 -400 320/14G20 RMK AO2 P0000
14837KMSN MSN20071115020011211/15/07 02:00:31  5-MIN KMSN 150800Z 32012G20KT 9SM -SN OVC035 02/M04 A2992 860 64 -400 320/12G20 RMK AO2 P0000
14837KMSN MSN20071115020511211/15/07 02:05:31  5-MIN KMSN 150805Z 31014G20KT 9SM -SN OVC035 02/M04 A2992 860 61 -400 310/14G20 RMK AO2 P0000
14837KMSN MSN20071115021011911/15/07 02:10:31  5-MIN KMSN 150810Z 32015G21KT 9SM -SN BKN035 OVC043 02/M04 A2992 860 61 -400 320/15G21 RMK AO2 P0000
14837KMSN MSN20071115021512611/15/07 02:15:31  5-MIN KMSN 150815Z 32017G22KT 9SM -SN BKN038 BKN046 OVC075 02/M04 A2992 860 61 -400 320/17G22 RMK AO2 P0000
14837KMSN MSN20071115022011911/15/07 02:20:31  5-MIN KMSN 150820Z 33014G22KT 9SM -SN BKN038 OVC075 02/M04 A2993 860 61 -400 320/14G22 RMK AO2 P0000
14837KMSN MSN20071115022511211/15/07 02:25:31  5-MIN KMSN 150825Z 32010G20KT 9SM -SN OVC040 02/M04 A2993 860 61 -400 320/10G20 RMK AO2 P0000
14837KMSN MSN20071115023011911/15/07 02:30:31  5-MIN KMSN 150830Z 32012G21KT 9SM -SN BKN040 OVC075 02/M04 A2993 860 61 -400 320/12G21 RMK AO2 P0000
14837KMSN MSN20071115023511911/15/07 02:35:31  5-MIN KMSN 150835Z 32012G21KT 9SM -SN BKN042 OVC075 02/M04 A2993 860 61 -400 320/12G21 RMK AO2 P0000
14837KMSN MSN20071115024011211/15/07 02:40:31  5-MIN KMSN 150840Z 31012G21KT 9SM -SN OVC040 02/M04 A2993 860 61 -400 310/12G21 RMK AO2 P0000
14837KMSN MSN20071115024511211/15/07 02:45:31  5-MIN KMSN 150845Z 32013G20KT 9SM -SN OVC038 02/M04 A2993 860 61 -400 320/13G20 RMK AO2 P0000
14837KMSN MSN20071115025014111/15/07 02:50:31  5-MIN KMSN 150850Z 32011G20KT 9SM -SN OVC038 02/M04 A2993 860 61 -400 320/11G20 RMK AO2 SLP142 P0000 60000 T00221044 53017
14837KMSN MSN20071115025510211/15/07 02:55:31  5-MIN KMSN 150855Z 31011G19KT 9SM OVC036 02/M04 A2993 850 61 -400 310/11G19 RMK AO2
14837KMSN MSN20071115030010311/15/07 03:00:31  5-MIN KMSN 150900Z 31008G19KT 10SM OVC038 02/M04 A2994 850 61 -400 310/08G19 RMK AO2
14837KMSN MSN20071115030510311/15/07 03:05:31  5-MIN KMSN 150905Z 31012G19KT 10SM OVC038 02/M04 A2994 850 61 -400 310/12G19 RMK AO2
14837KMSN MSN20071115031010311/15/07 03:10:31  5-MIN KMSN 150910Z 31008G19KT 10SM OVC036 02/M04 A2994 850 61 -400 310/08G19 RMK AO2
14837KMSN MSN20071115031510311/15/07 03:15:31  5-MIN KMSN 150915Z 31011G19KT 10SM OVC036 02/M04 A2994 850 61 -400 310/11G19 RMK AO2
14837KMSN MSN20071115032010311/15/07 03:20:31  5-MIN KMSN 150920Z 31010G19KT 10SM OVC038 02/M04 A2994 850 61 -400 310/10G19 RMK AO2
14837KMSN MSN20071115032510311/15/07 03:25:31  5-MIN KMSN 150925Z 31008G16KT 10SM OVC040 02/M04 A2994 850 61 -400 310/08G16 RMK AO2
14837KMSN MSN20071115033010311/15/07 03:30:31  5-MIN KMSN 150930Z 31011G16KT 10SM OVC040 02/M04 A2994 840 64 -400 310/11G16 RMK AO2
14837KMSN MSN20071115033510311/15/07 03:35:31  5-MIN KMSN 150935Z 31010G19KT 10SM OVC040 02/M04 A2994 840 61 -400 310/10G19 RMK AO2
14837KMSN MSN20071115034011011/15/07 03:40:31  5-MIN KMSN 150940Z 31011G19KT 10SM FEW030 OVC040 02/M04 A2994 840 61 -400 310/11G19 RMK AO2
14837KMSN MSN20071115034511011/15/07 03:45:31  5-MIN KMSN 150945Z 31009G18KT 10SM FEW030 OVC038 02/M04 A2994 840 61 -400 310/09G18 RMK AO2
14837KMSN MSN20071115035012711/15/07 03:50:31  5-MIN KMSN 150950Z 31013G19KT 10SM BKN036 OVC043 02/M04 A2994 840 61 -400 310/13G19 RMK AO2 SLP147 T00221044
14837KMSN MSN20071115035510311/15/07 03:55:31  5-MIN KMSN 150955Z 31014G19KT 10SM OVC036 02/M04 A2995 840 64 -500 310/14G19 RMK AO2
14837KMSN MSN20071115040010311/15/07 04:00:31  5-MIN KMSN 151000Z 32011G19KT 10SM OVC036 02/M04 A2995 840 64 -500 320/11G19 RMK AO2
14837KMSN MSN20071115040510311/15/07 04:05:31  5-MIN KMSN 151005Z 31011G19KT 10SM OVC036 02/M04 A2995 830 64 -500 310/11G19 RMK AO2
14837KMSN MSN20071115041010311/15/07 04:10:31  5-MIN KMSN 151010Z 32013G21KT 10SM OVC036 02/M04 A2996 830 64 -500 320/13G21 RMK AO2
14837KMSN MSN20071115041510311/15/07 04:15:31  5-MIN KMSN 151015Z 31012G21KT 10SM OVC036 02/M05 A2996 830 61 -500 310/12G21 RMK AO2
14837KMSN MSN20071115042010311/15/07 04:20:31  5-MIN KMSN 151020Z 31009G17KT 10SM OVC038 02/M05 A2996 830 61 -500 310/09G17 RMK AO2
14837KMSN MSN20071115042510311/15/07 04:25:31  5-MIN KMSN 151025Z 31012G23KT 10SM OVC038 02/M05 A2996 830 61 -500 310/12G23 RMK AO2
14837KMSN MSN20071115043010311/15/07 04:30:31  5-MIN KMSN 151030Z 32010G23KT 10SM OVC038 02/M05 A2996 830 61 -500 320/10G23 RMK AO2
14837KMSN MSN20071115043510311/15/07 04:35:31  5-MIN KMSN 151035Z 31013G19KT 10SM OVC038 02/M06 A2996 830 59 -500 310/13G19 RMK AO2
14837KMSN MSN20071115044010311/15/07 04:40:31  5-MIN KMSN 151040Z 32014G20KT 10SM OVC038 02/M06 A2996 830 59 -500 320/14G20 RMK AO2
14837KMSN MSN20071115044510311/15/07 04:45:31  5-MIN KMSN 151045Z 32012G20KT 10SM OVC038 02/M06 A2996 820 56 -500 320/12G20 RMK AO2
14837KMSN MSN20071115045012011/15/07 04:50:31  5-MIN KMSN 151050Z 33016G21KT 10SM OVC038 02/M06 A2997 820 56 -500 320/16G21 RMK AO2 SLP156 T00171061
14837KMSN MSN20071115045510311/15/07 04:55:31  5-MIN KMSN 151055Z 31012G21KT 10SM OVC038 02/M06 A2997 820 56 -500 310/12G21 RMK AO2
14837KMSN MSN20071115050010311/15/07 05:00:31  5-MIN KMSN 151100Z 31012G19KT 10SM OVC036 02/M06 A2997 820 56 -500 310/12G19 RMK AO2
14837KMSN MSN20071115050510311/15/07 05:05:31  5-MIN KMSN 151105Z 31014G20KT 10SM OVC036 02/M07 A2997 820 54 -500 310/14G20 RMK AO2
14837KMSN MSN20071115051010311/15/07 05:10:31  5-MIN KMSN 151110Z 31011G22KT 10SM OVC036 02/M07 A2997 810 54 -500 310/11G22 RMK AO2
14837KMSN MSN20071115051510311/15/07 05:15:31  5-MIN KMSN 151115Z 31014G22KT 10SM OVC036 01/M07 A2998 810 56 -600 310/14G22 RMK AO2
14837KMSN MSN20071115052010311/15/07 05:20:31  5-MIN KMSN 151120Z 32011G22KT 10SM OVC036 01/M07 A2998 810 54 -600 310/11G22 RMK AO2
14837KMSN MSN20071115052510311/15/07 05:25:31  5-MIN KMSN 151125Z 32012G20KT 10SM OVC036 01/M07 A2998 810 54 -600 320/12G20 RMK AO2
14837KMSN MSN20071115053010311/15/07 05:30:31  5-MIN KMSN 151130Z 32011G20KT 10SM OVC038 01/M07 A2998 810 54 -600 310/11G20 RMK AO2
14837KMSN MSN20071115053510311/15/07 05:35:31  5-MIN KMSN 151135Z 32016G25KT 10SM OVC038 01/M07 A2998 810 54 -600 320/16G25 RMK AO2
14837KMSN MSN20071115054010311/15/07 05:40:31  5-MIN KMSN 151140Z 32012G25KT 10SM OVC038 01/M07 A2998 810 54 -600 320/12G25 RMK AO2
14837KMSN MSN20071115054510311/15/07 05:45:31  5-MIN KMSN 151145Z 32013G23KT 10SM OVC038 01/M07 A2998 810 54 -600 310/13G23 RMK AO2
14837KMSN MSN20071115055014411/15/07 05:50:31  5-MIN KMSN 151150Z 32011G18KT 10SM OVC038 01/M07 A2998 810 54 -600 310/11G18 RMK AO2 SLP161 60000 T00111072 10028 20011 51014
14837KMSN MSN20071115055510311/15/07 05:55:31  5-MIN KMSN 151155Z 32012G19KT 10SM OVC038 01/M07 A2999 800 54 -600 320/12G19 RMK AO2
14837KMSN MSN20071115060010311/15/07 06:00:31  5-MIN KMSN 151200Z 32015G20KT 10SM OVC040 01/M07 A2999 800 54 -600 320/15G20 RMK AO2
14837KMSN MSN20071115060510311/15/07 06:05:31  5-MIN KMSN 151205Z 32012G20KT 10SM OVC040 01/M08 A2999 800 51 -600 320/12G20 RMK AO2
14837KMSN MSN20071115061010311/15/07 06:10:31  5-MIN KMSN 151210Z 33009G20KT 10SM OVC040 01/M08 A2999 800 51 -600 330/09G20 RMK AO2
14837KMSN MSN20071115061510311/15/07 06:15:31  5-MIN KMSN 151215Z 33009G17KT 10SM OVC040 01/M08 A2999 800 51 -600 330/09G17 RMK AO2
14837KMSN MSN20071115062010311/15/07 06:20:31  5-MIN KMSN 151220Z 32009G17KT 10SM OVC040 01/M07 A2999 800 54 -600 320/09G17 RMK AO2
14837KMSN MSN20071115062510311/15/07 06:25:31  5-MIN KMSN 151225Z 32008G15KT 10SM OVC040 01/M07 A3000 790 54 -600 310/08G15 RMK AO2
14837KMSN MSN20071115063009711/15/07 06:30:31  5-MIN KMSN 151230Z 32009KT 10SM OVC040 01/M07 A3000 790 54 -600 320/09 RMK AO2
14837KMSN MSN20071115063510311/15/07 06:35:31  5-MIN KMSN 151235Z 32011G18KT 10SM OVC040 01/M07 A3000 790 54 -600 320/11G18 RMK AO2
14837KMSN MSN20071115064010311/15/07 06:40:31  5-MIN KMSN 151240Z 33012G18KT 10SM OVC040 01/M07 A3001 790 54 -600 320/12G18 RMK AO2
14837KMSN MSN20071115064510311/15/07 06:45:31  5-MIN KMSN 151245Z 33013G20KT 10SM OVC040 01/M07 A3001 780 54 -600 330/13G20 RMK AO2
14837KMSN MSN20071115065012011/15/07 06:50:31  5-MIN KMSN 151250Z 32014G21KT 10SM OVC040 01/M07 A3001 780 54 -600 320/14G21 RMK AO2 SLP170 T00111072
14837KMSN MSN20071115065510311/15/07 06:55:31  5-MIN KMSN 151255Z 32010G21KT 10SM OVC040 01/M07 A3001 780 54 -600 320/10G21 RMK AO2
14837KMSN MSN20071115070009711/15/07 07:00:31  5-MIN KMSN 151300Z 31008KT 10SM OVC040 01/M07 A3002 780 56 -600 310/08 RMK AO2
14837KMSN MSN20071115070510311/15/07 07:05:31  5-MIN KMSN 151305Z 32012G19KT 10SM OVC040 01/M07 A3002 780 56 -600 320/12G19 RMK AO2
14837KMSN MSN20071115071010311/15/07 07:10:31  5-MIN KMSN 151310Z 32011G19KT 10SM OVC040 01/M07 A3002 770 54 -600 320/11G19 RMK AO2
14837KMSN MSN20071115071510311/15/07 07:15:31  5-MIN KMSN 151315Z 32012G18KT 10SM OVC040 01/M07 A3002 770 54 -600 320/12G18 RMK AO2
14837KMSN MSN20071115072010311/15/07 07:20:31  5-MIN KMSN 151320Z 31012G20KT 10SM OVC040 01/M07 A3003 770 54 -600 310/12G20 RMK AO2
14837KMSN MSN20071115072510311/15/07 07:25:31  5-MIN KMSN 151325Z 32011G20KT 10SM OVC040 01/M07 A3003 760 54 -700 320/11G20 RMK AO2
14837KMSN MSN20071115073010311/15/07 07:30:31  5-MIN KMSN 151330Z 31014G24KT 10SM OVC040 01/M07 A3003 760 54 -700 310/14G24 RMK AO2
14837KMSN MSN20071115073510311/15/07 07:35:31  5-MIN KMSN 151335Z 33013G25KT 10SM OVC040 01/M08 A3004 760 51 -700 330/13G25 RMK AO2
14837KMSN MSN20071115074010311/15/07 07:40:31  5-MIN KMSN 151340Z 33014G25KT 10SM OVC040 01/M08 A3004 760 51 -700 330/14G25 RMK AO2
14837KMSN MSN20071115074510311/15/07 07:45:31  5-MIN KMSN 151345Z 33013G23KT 10SM OVC040 01/M08 A3004 750 54 -700 330/13G23 RMK AO2
14837KMSN MSN20071115075012011/15/07 07:50:31  5-MIN KMSN 151350Z 32013G23KT 10SM OVC040 01/M08 A3004 750 54 -700 320/13G23 RMK AO2 SLP181 T00061078
14837KMSN MSN20071115075510311/15/07 07:55:31  5-MIN KMSN 151355Z 32016G22KT 10SM OVC040 01/M08 A3005 750 54 -700 320/16G22 RMK AO2
14837KMSN MSN20071115080012111/15/07 08:00:31  5-MIN KMSN 151400Z 32015G26KT 10SM OVC040 01/M08 A3005 740 51 -700 320/15G26 RMK AO2 PK WND 34026/1356
14837KMSN MSN20071115080512111/15/07 08:05:31  5-MIN KMSN 151405Z 31012G26KT 10SM OVC040 01/M08 A3005 740 51 -800 310/12G26 RMK AO2 PK WND 34026/1356
14837KMSN MSN20071115081012111/15/07 08:10:31  5-MIN KMSN 151410Z 32015G23KT 10SM OVC040 01/M08 A3006 740 51 -800 320/15G23 RMK AO2 PK WND 34026/1356
14837KMSN MSN20071115092010311/15/07 09:20:31  5-MIN KMSN 151520Z 33011G19KT 10SM OVC040 01/M08 A3007 720 54 -800 330/11G19 RMK AO2
14837KMSN MSN20071115092510311/15/07 09:25:31  5-MIN KMSN 151525Z 34013G19KT 10SM OVC040 01/M08 A3007 720 54 -800 340/13G19 RMK AO2
14837KMSN MSN20071115093010311/15/07 09:30:31  5-MIN KMSN 151530Z 33012G18KT 10SM OVC040 01/M08 A3007 720 54 -800 330/12G18 RMK AO2
14837KMSN MSN20071115093510311/15/07 09:35:31  5-MIN KMSN 151535Z 32007G16KT 10SM OVC038 01/M08 A3007 720 54 -800 320/07G16 RMK AO2
14837KMSN MSN20071115094010311/15/07 09:40:31  5-MIN KMSN 151540Z 30009G15KT 10SM OVC038 01/M08 A3007 730 51 -700 300/09G15 RMK AO2
14837KMSN MSN20071115094510311/15/07 09:45:31  5-MIN KMSN 151545Z 30010G15KT 10SM OVC038 01/M07 A3007 720 54 -700 300/10G15 RMK AO2
14837KMSN MSN20071115095012011/15/07 09:50:31  5-MIN KMSN 151550Z 31009G19KT 10SM OVC038 01/M08 A3007 720 51 -700 300/09G19 RMK AO2 SLP193 T00111078
14837KMSN MSN20071115095510311/15/07 09:55:31  5-MIN KMSN 151555Z 30013G20KT 10SM OVC038 01/M08 A3007 720 51 -700 300/13G20 RMK AO2
14837KMSN MSN20071115100010311/15/07 10:00:31  5-MIN KMSN 151600Z 32013G20KT 10SM OVC038 01/M08 A3007 720 51 -700 320/13G20 RMK AO2
14837KMSN MSN20071115100510311/15/07 10:05:31  5-MIN KMSN 151605Z 32014G22KT 10SM OVC038 01/M08 A3008 720 49 -700 320/14G22 RMK AO2
14837KMSN MSN20071115101010311/15/07 10:10:31  5-MIN KMSN 151610Z 33014G22KT 10SM OVC038 01/M08 A3007 720 49 -700 330/14G22 RMK AO2
14837KMSN MSN20071115101510311/15/07 10:15:31  5-MIN KMSN 151615Z 34012G22KT 10SM OVC040 01/M08 A3007 720 49 -700 330/12G22 RMK AO2
14837KMSN MSN20071115102010311/15/07 10:20:31  5-MIN KMSN 151620Z 32013G22KT 10SM OVC040 01/M08 A3007 720 49 -700 320/13G22 RMK AO2
14837KMSN MSN20071115102510311/15/07 10:25:31  5-MIN KMSN 151625Z 33011G20KT 10SM OVC040 01/M08 A3007 720 49 -700 330/11G20 RMK AO2
14837KMSN MSN20071115103010311/15/07 10:30:31  5-MIN KMSN 151630Z 34015G19KT 10SM OVC040 01/M08 A3007 720 49 -700 340/15G19 RMK AO2
14837KMSN MSN20071115103510311/15/07 10:35:31  5-MIN KMSN 151635Z 33013G20KT 10SM OVC040 01/M08 A3007 720 49 -700 330/13G20 RMK AO2
14837KMSN MSN20071115104010311/15/07 10:40:31  5-MIN KMSN 151640Z 33015G22KT 10SM OVC040 01/M08 A3007 720 49 -700 330/15G22 RMK AO2
14837KMSN MSN20071115104510311/15/07 10:45:31  5-MIN KMSN 151645Z 33012G22KT 10SM OVC040 01/M08 A3008 720 51 -700 330/12G22 RMK AO2
14837KMSN MSN20071115105012011/15/07 10:50:31  5-MIN KMSN 151650Z 34016G23KT 10SM BKN040 02/M08 A3008 720 49 -600 340/16G23 RMK AO2 SLP193 T00171078
14837KMSN MSN20071115105510311/15/07 10:55:31  5-MIN KMSN 151655Z 33013G23KT 10SM OVC040 02/M08 A3008 720 49 -600 330/13G23 RMK AO2
14837KMSN MSN20071115110010311/15/07 11:00:31  5-MIN KMSN 151700Z 33013G20KT 10SM OVC040 02/M08 A3008 720 49 -600 320/13G20 RMK AO2
14837KMSN MSN20071115110509711/15/07 11:05:31  5-MIN KMSN 151705Z 33013KT 10SM OVC040 02/M08 A3008 720 49 -600 330/13 RMK AO2
14837KMSN MSN20071115111010311/15/07 11:10:31  5-MIN KMSN 151710Z 34014G20KT 10SM OVC040 02/M08 A3008 720 49 -600 340/14G20 RMK AO2
14837KMSN MSN20071115111510311/15/07 11:15:31  5-MIN KMSN 151715Z 32012G20KT 10SM BKN040 02/M08 A3007 720 49 -600 320/12G20 RMK AO2
14837KMSN MSN20071115112010311/15/07 11:20:31  5-MIN KMSN 151720Z 32015G20KT 10SM BKN040 02/M08 A3007 720 49 -600 320/15G20 RMK AO2
14837KMSN MSN20071115112510311/15/07 11:25:31  5-MIN KMSN 151725Z 31012G20KT 10SM BKN040 02/M08 A3007 730 49 -600 310/12G20 RMK AO2
14837KMSN MSN20071115113010311/15/07 11:30:31  5-MIN KMSN 151730Z 34010G20KT 10SM BKN040 02/M08 A3007 730 49 -600 340/10G20 RMK AO2
14837KMSN MSN20071115113509711/15/07 11:35:31  5-MIN KMSN 151735Z 33010KT 10SM BKN040 02/M08 A3007 730 49 -600 330/10 RMK AO2
14837KMSN MSN20071115114010311/15/07 11:40:31  5-MIN KMSN 151740Z 32010G15KT 10SM BKN040 02/M07 A3007 730 52 -600 320/10G15 RMK AO2
14837KMSN MSN20071115114510311/15/07 11:45:31  5-MIN KMSN 151745Z 32012G19KT 10SM BKN040 02/M07 A3006 730 50 -600 320/12G19 RMK AO2
14837KMSN MSN20071115115013811/15/07 11:50:31  5-MIN KMSN 151750Z 32010G19KT 10SM BKN040 02/M07 A3007 730 50 -600 320/10G19 RMK AO2 SLP189 T00221072 10022 20006 51026
14837KMSN MSN20071115115509711/15/07 11:55:31  5-MIN KMSN 151755Z 32010KT 10SM BKN038 02/M07 A3007 730 50 -600 310/10 RMK AO2
14837KMSN MSN20071115120009711/15/07 12:00:31  5-MIN KMSN 151800Z 33010KT 10SM BKN038 02/M07 A3007 730 52 -600 330/10 RMK AO2
14837KMSN MSN20071115120510311/15/07 12:05:31  5-MIN KMSN 151805Z 31010G17KT 10SM BKN038 02/M07 A3007 730 50 -600 310/10G17 RMK AO2
14837KMSN MSN20071115121010311/15/07 12:10:31  5-MIN KMSN 151810Z 29007G17KT 10SM BKN038 02/M08 A3007 730 49 -600 290/07G17 RMK AO2
14837KMSN MSN20071115121510311/15/07 12:15:31  5-MIN KMSN 151815Z 31012G20KT 10SM BKN038 02/M08 A3007 730 49 -600 310/12G20 RMK AO2
14837KMSN MSN20071115122010311/15/07 12:20:31  5-MIN KMSN 151820Z 31012G20KT 10SM BKN038 02/M08 A3007 730 49 -600 310/12G20 RMK AO2
14837KMSN MSN20071115122510311/15/07 12:25:31  5-MIN KMSN 151825Z 31010G18KT 10SM BKN038 02/M07 A3007 730 50 -600 300/10G18 RMK AO2
14837KMSN MSN20071115123010311/15/07 12:30:31  5-MIN KMSN 151830Z 33010G18KT 10SM BKN038 02/M07 A3007 730 50 -600 330/10G18 RMK AO2
14837KMSN MSN20071115123510311/15/07 12:35:31  5-MIN KMSN 151835Z 33013G18KT 10SM BKN038 02/M07 A3007 730 50 -600 330/13G18 RMK AO2
14837KMSN MSN20071115124010311/15/07 12:40:31  5-MIN KMSN 151840Z 31011G18KT 10SM BKN038 02/M07 A3007 730 50 -600 310/11G18 RMK AO2
14837KMSN MSN20071115124510311/15/07 12:45:31  5-MIN KMSN 151845Z 31009G16KT 10SM BKN038 02/M07 A3007 730 50 -600 310/09G16 RMK AO2
14837KMSN MSN20071115125012011/15/07 12:50:31  5-MIN KMSN 151850Z 32012G16KT 10SM BKN038 02/M08 A3007 730 47 -600 320/12G16 RMK AO2 SLP191 T00221078
14837KMSN MSN20071115125510311/15/07 12:55:31  5-MIN KMSN 151855Z 30009G16KT 10SM BKN042 03/M07 A3006 730 48 -500 300/09G16 RMK AO2
14837KMSN MSN20071115130010311/15/07 13:00:31  5-MIN KMSN 151900Z 32009G15KT 10SM BKN042 04/M07 A3006 730 44 -300 320/09G15 RMK AO2
14837KMSN MSN20071115130510311/15/07 13:05:31  5-MIN KMSN 151905Z 31012G19KT 10SM BKN042 04/M07 A3006 730 44 -300 310/12G19 RMK AO2
14837KMSN MSN20071115131010311/15/07 13:10:31  5-MIN KMSN 151910Z 29010G19KT 10SM BKN042 04/M07 A3006 730 44 -300 290/10G19 RMK AO2
14837KMSN MSN20071115131510311/15/07 13:15:31  5-MIN KMSN 151915Z 32014G20KT 10SM BKN042 04/M07 A3006 730 44 -300 310/14G20 RMK AO2
14837KMSN MSN20071115132010311/15/07 13:20:31  5-MIN KMSN 151920Z 31012G20KT 10SM BKN042 03/M07 A3006 730 46 -400 310/12G20 RMK AO2
14837KMSN MSN20071115132510311/15/07 13:25:31  5-MIN KMSN 151925Z 34008G18KT 10SM BKN042 03/M07 A3006 730 46 -400 340/08G18 RMK AO2
14837KMSN MSN20071115133010311/15/07 13:30:31  5-MIN KMSN 151930Z 31013G22KT 10SM BKN042 04/M07 A3006 730 44 -300 310/13G22 RMK AO2
14837KMSN MSN20071115133510311/15/07 13:35:31  5-MIN KMSN 151935Z 31008G22KT 10SM BKN042 03/M07 A3006 730 46 -400 310/08G22 RMK AO2
14837KMSN MSN20071115134010311/15/07 13:40:31  5-MIN KMSN 151940Z 32010G22KT 10SM BKN042 04/M07 A3006 730 44 -300 320/10G22 RMK AO2
14837KMSN MSN20071115134510311/15/07 13:45:31  5-MIN KMSN 151945Z 31009G17KT 10SM BKN042 03/M07 A3007 730 46 -400 310/09G17 RMK AO2
14837KMSN MSN20071115135011411/15/07 13:50:31  5-MIN KMSN 151950Z 33008KT 10SM BKN042 03/M07 A3007 730 48 -500 330/08 RMK AO2 SLP189 T00281072
14837KMSN MSN20071115135510311/15/07 13:55:31  5-MIN KMSN 151955Z 32013G16KT 10SM BKN042 03/M07 A3006 730 46 -400 320/13G16 RMK AO2
14837KMSN MSN20071115140009711/15/07 14:00:31  5-MIN KMSN 152000Z 34011KT 10SM BKN042 03/M07 A3006 730 46 -400 330/11 RMK AO2
14837KMSN MSN20071115140510311/15/07 14:05:31  5-MIN KMSN 152005Z 30011G17KT 10SM BKN042 04/M07 A3007 730 44 -300 300/11G17 RMK AO2
14837KMSN MSN20071115141010311/15/07 14:10:31  5-MIN KMSN 152010Z 29011G16KT 10SM BKN042 04/M07 A3007 730 44 -400 290/11G16 RMK AO2
14837KMSN MSN20071115141510311/15/07 14:15:31  5-MIN KMSN 152015Z 30012G18KT 10SM BKN042 03/M07 A3007 730 46 -400 300/12G18 RMK AO2
14837KMSN MSN20071115142010311/15/07 14:20:31  5-MIN KMSN 152020Z 30011G18KT 10SM OVC042 03/M07 A3007 730 46 -400 300/11G18 RMK AO2
14837KMSN MSN20071115142510311/15/07 14:25:31  5-MIN KMSN 152025Z 31012G18KT 10SM BKN042 03/M07 A3007 730 46 -400 310/12G18 RMK AO2
14837KMSN MSN20071115143010311/15/07 14:30:31  5-MIN KMSN 152030Z 31010G18KT 10SM BKN042 03/M07 A3007 730 46 -400 310/10G18 RMK AO2
14837KMSN MSN20071115143510311/15/07 14:35:31  5-MIN KMSN 152035Z 30009G18KT 10SM BKN042 03/M07 A3007 730 46 -400 300/09G18 RMK AO2
14837KMSN MSN20071115144010311/15/07 14:40:31  5-MIN KMSN 152040Z 30009G18KT 10SM BKN042 03/M07 A3007 720 46 -400 300/09G18 RMK AO2
14837KMSN MSN20071115144510311/15/07 14:45:31  5-MIN KMSN 152045Z 31008G18KT 10SM BKN042 03/M07 A3008 720 46 -400 310/08G18 RMK AO2
14837KMSN MSN20071115145012611/15/07 14:50:31  5-MIN KMSN 152050Z 30013G20KT 10SM BKN042 02/M07 A3008 720 50 -600 300/13G20 RMK AO2 SLP195 T00221072 50001
14837KMSN MSN20071115145510311/15/07 14:55:31  5-MIN KMSN 152055Z 31009G20KT 10SM BKN044 02/M07 A3008 720 50 -600 310/09G20 RMK AO2
14837KMSN MSN20071115150010311/15/07 15:00:31  5-MIN KMSN 152100Z 31008G16KT 10SM BKN044 03/M07 A3008 710 48 -500 310/08G16 RMK AO2
14837KMSN MSN20071115150510311/15/07 15:05:31  5-MIN KMSN 152105Z 32011G16KT 10SM BKN044 02/M07 A3009 710 50 -600 320/11G16 RMK AO2
14837KMSN MSN20071115151010311/15/07 15:10:31  5-MIN KMSN 152110Z 32011G16KT 10SM SCT044 03/M07 A3009 710 48 -500 320/11G16 RMK AO2
14837KMSN MSN20071115151509711/15/07 15:15:31  5-MIN KMSN 152115Z 30009KT 10SM FEW044 03/M07 A3009 710 48 -500 300/09 RMK AO2
14837KMSN MSN20071115152009711/15/07 15:20:31  5-MIN KMSN 152120Z 31008KT 10SM SCT044 03/M07 A3009 710 48 -500 310/08 RMK AO2
14837KMSN MSN20071115152509711/15/07 15:25:31  5-MIN KMSN 152125Z 31009KT 10SM SCT044 03/M07 A3009 710 48 -500 310/09 RMK AO2
14837KMSN MSN20071115153009711/15/07 15:30:31  5-MIN KMSN 152130Z 31007KT 10SM SCT042 03/M07 A3009 710 48 -500 310/07 RMK AO2
14837KMSN MSN20071115153509711/15/07 15:35:31  5-MIN KMSN 152135Z 30008KT 10SM SCT042 03/M07 A3009 710 48 -500 300/08 RMK AO2
14837KMSN MSN20071115154010311/15/07 15:40:31  5-MIN KMSN 152140Z 31011G18KT 10SM BKN042 02/M07 A3009 710 50 -600 310/11G18 RMK AO2
14837KMSN MSN20071115154510311/15/07 15:45:31  5-MIN KMSN 152145Z 30010G18KT 10SM BKN042 02/M07 A3009 710 50 -600 300/10G18 RMK AO2
14837KMSN MSN20071115155012011/15/07 15:50:31  5-MIN KMSN 152150Z 29006G15KT 10SM FEW042 02/M07 A3009 700 50 -600 290/06G15 RMK AO2 SLP200 T00221072
14837KMSN MSN20071115155509711/15/07 15:55:31  5-MIN KMSN 152155Z 29006KT 10SM SCT042 02/M07 A3009 700 50 -600 290/06 RMK AO2
14837KMSN MSN20071115160009711/15/07 16:00:31  5-MIN KMSN 152200Z 30004KT 10SM FEW042 02/M07 A3009 700 50 -600 300/04 RMK AO2
14837KMSN MSN20071115160509711/15/07 16:05:31  5-MIN KMSN 152205Z 30006KT 10SM FEW042 02/M07 A3009 700 52 -700 300/06 RMK AO2
14837KMSN MSN20071115161009711/15/07 16:10:31  5-MIN KMSN 152210Z 31005KT 10SM FEW042 02/M07 A3010 700 52 -700 310/05 RMK AO2
14837KMSN MSN20071115161509711/15/07 16:15:31  5-MIN KMSN 152215Z 31008KT 10SM FEW042 02/M07 A3010 700 52 -700 310/08 RMK AO2
14837KMSN MSN20071115162009711/15/07 16:20:31  5-MIN KMSN 152220Z 31007KT 10SM FEW042 02/M07 A3010 700 52 -700 310/07 RMK AO2
14837KMSN MSN20071115162509711/15/07 16:25:31  5-MIN KMSN 152225Z 31008KT 10SM FEW042 02/M07 A3010 700 52 -700 310/08 RMK AO2
14837KMSN MSN20071115163009711/15/07 16:30:31  5-MIN KMSN 152230Z 30006KT 10SM FEW042 02/M07 A3010 700 52 -700 300/06 RMK AO2
14837KMSN MSN20071115163509711/15/07 16:35:31  5-MIN KMSN 152235Z 31006KT 10SM FEW042 01/M07 A3010 700 54 -700 310/06 RMK AO2
14837KMSN MSN20071115164009711/15/07 16:40:31  5-MIN KMSN 152240Z 31008KT 10SM FEW042 01/M07 A3010 700 54 -700 300/08 RMK AO2
14837KMSN MSN20071115164509711/15/07 16:45:31  5-MIN KMSN 152245Z 31006KT 10SM FEW042 01/M07 A3010 690 54 -700 300/06 RMK AO2
14837KMSN MSN20071115165011411/15/07 16:50:31  5-MIN KMSN 152250Z 31005KT 10SM FEW042 01/M07 A3010 690 54 -700 310/05 RMK AO2 SLP203 T00111072
14837KMSN MSN20071115165509711/15/07 16:55:31  5-MIN KMSN 152255Z 31005KT 10SM FEW044 01/M07 A3011 690 56 -800 310/05 RMK AO2
14837KMSN MSN20071115170009711/15/07 17:00:31  5-MIN KMSN 152300Z 30006KT 10SM FEW044 01/M07 A3011 690 56 -800 300/06 RMK AO2
14837KMSN MSN20071115170509711/15/07 17:05:31  5-MIN KMSN 152305Z 30005KT 10SM FEW044 01/M07 A3011 690 56 -800 300/05 RMK AO2
14837KMSN MSN20071115171009711/15/07 17:10:31  5-MIN KMSN 152310Z 30005KT 10SM FEW044 01/M07 A3011 690 56 -800 300/05 RMK AO2
14837KMSN MSN20071115171509711/15/07 17:15:31  5-MIN KMSN 152315Z 30005KT 10SM FEW044 01/M07 A3011 690 56 -800 300/05 RMK AO2
14837KMSN MSN20071115172009711/15/07 17:20:31  5-MIN KMSN 152320Z 29003KT 10SM FEW044 01/M07 A3011 690 56 -800 290/03 RMK AO2
14837KMSN MSN20071115172509711/15/07 17:25:31  5-MIN KMSN 152325Z 00000KT 10SM FEW044 01/M07 A3011 690 56 -800 000/00 RMK AO2
14837KMSN MSN20071115173009711/15/07 17:30:31  5-MIN KMSN 152330Z VRB03KT 10SM FEW044 01/M07 A3011 690 56 -800 VRB/03 RMK AO2
14837KMSN MSN20071115173509711/15/07 17:35:31  5-MIN KMSN 152335Z 29003KT 10SM FEW044 01/M07 A3011 690 56 -800 290/03 RMK AO2
14837KMSN MSN20071115174009711/15/07 17:40:31  5-MIN KMSN 152340Z 29003KT 10SM FEW044 00/M07 A3012 680 58 -900 290/03 RMK AO2
14837KMSN MSN20071115174509711/15/07 17:45:31  5-MIN KMSN 152345Z 28003KT 10SM BKN041 00/M07 A3012 680 58 -900 280/03 RMK AO2
14837KMSN MSN20071115175013211/15/07 17:50:31  5-MIN KMSN 152350Z 29003KT 10SM FEW041 00/M07 A3012 680 61 -900 280/03 RMK AO2 SLP208 T00001067 10039 20000 53004
14837KMSN MSN20071115175509711/15/07 17:55:31  5-MIN KMSN 152355Z 30004KT 10SM SCT041 00/M07 A3012 680 61 -900 300/04 RMK AO2
14837KMSN MSN20071115180009711/15/07 18:00:31  5-MIN KMSN 160000Z 30004KT 10SM SCT041 00/M07 A3012 680 61 -900 300/04 RMK AO2
14837KMSN MSN20071115180509711/15/07 18:05:31  5-MIN KMSN 160005Z 30004KT 10SM FEW041 00/M07 A3012 680 58 -900 300/04 RMK AO2
14837KMSN MSN20071115181009711/15/07 18:10:31  5-MIN KMSN 160010Z 30004KT 10SM FEW041 00/M07 A3011 690 58 -900 300/04 RMK AO2
14837KMSN MSN20071115181509411/15/07 18:15:31  5-MIN KMSN 160015Z 29003KT 10SM CLR 00/M07 A3011 690 58 -900 290/03 RMK AO2
14837KMSN MSN20071115182009611/15/07 18:20:31  5-MIN KMSN 160020Z 28004KT 10SM CLR M01/M07 A3011 690 63 -1000 280/04 RMK AO2
14837KMSN MSN20071115182509411/15/07 18:25:31  5-MIN KMSN 160025Z 00000KT 10SM CLR 00/M07 A3011 690 61 -900 000/00 RMK AO2
14837KMSN MSN20071115183009611/15/07 18:30:31  5-MIN KMSN 160030Z 00000KT 10SM CLR M01/M07 A3011 690 63 -1000 000/00 RMK AO2
14837KMSN MSN20071115183509611/15/07 18:35:31  5-MIN KMSN 160035Z 00000KT 10SM CLR M01/M07 A3011 690 63 -1000 000/00 RMK AO2
14837KMSN MSN20071115184009611/15/07 18:40:31  5-MIN KMSN 160040Z 29003KT 10SM CLR M01/M07 A3011 690 63 -1000 290/03 RMK AO2
14837KMSN MSN20071115184509611/15/07 18:45:31  5-MIN KMSN 160045Z 29003KT 10SM CLR M02/M07 A3011 690 66 -1100 290/03 RMK AO2
14837KMSN MSN20071115185011311/15/07 18:50:31  5-MIN KMSN 160050Z 29003KT 10SM CLR M02/M07 A3011 690 69 -1100 290/03 RMK AO2 SLP206 T10171067
14837KMSN MSN20071115185509611/15/07 18:55:31  5-MIN KMSN 160055Z 28003KT 10SM CLR M01/M07 A3011 690 66 -1000 280/03 RMK AO2
14837KMSN MSN20071115190009611/15/07 19:00:31  5-MIN KMSN 160100Z 00000KT 10SM CLR M02/M07 A3012 680 69 -1100 000/00 RMK AO2
14837KMSN MSN20071115190509611/15/07 19:05:31  5-MIN KMSN 160105Z 28003KT 10SM CLR M02/M07 A3012 680 69 -1100 280/03 RMK AO2
14837KMSN MSN20071115191009611/15/07 19:10:31  5-MIN KMSN 160110Z 29003KT 10SM CLR M01/M07 A3012 680 66 -1000 290/03 RMK AO2
14837KMSN MSN20071115191509611/15/07 19:15:31  5-MIN KMSN 160115Z 00000KT 10SM CLR M01/M07 A3012 680 63 -1000 000/00 RMK AO2
14837KMSN MSN20071115192009611/15/07 19:20:31  5-MIN KMSN 160120Z 00000KT 10SM CLR M01/M07 A3012 680 66 -1000 000/00 RMK AO2
14837KMSN MSN20071115192509611/15/07 19:25:31  5-MIN KMSN 160125Z 00000KT 10SM CLR M01/M07 A3012 680 66 -1000 000/00 RMK AO2
14837KMSN MSN20071115193009611/15/07 19:30:31  5-MIN KMSN 160130Z 00000KT 10SM CLR M01/M07 A3012 680 66 -1000 000/00 RMK AO2
14837KMSN MSN20071115193509611/15/07 19:35:31  5-MIN KMSN 160135Z 26003KT 10SM CLR M01/M07 A3013 670 66 -1000 260/03 RMK AO2
14837KMSN MSN20071115194009611/15/07 19:40:31  5-MIN KMSN 160140Z 00000KT 10SM CLR M02/M07 A3013 670 69 -1100 000/00 RMK AO2
14837KMSN MSN20071115194509911/15/07 19:45:31  5-MIN KMSN 160145Z 00000KT 10SM FEW039 M02/M07 A3013 670 69 -1100 000/00 RMK AO2
14837KMSN MSN20071115195011611/15/07 19:50:31  5-MIN KMSN 160150Z 00000KT 10SM FEW039 M02/M07 A3013 670 72 -1200 000/00 RMK AO2 SLP213 T10221067
14837KMSN MSN20071115195509911/15/07 19:55:31  5-MIN KMSN 160155Z 00000KT 10SM SCT039 M02/M07 A3013 670 72 -1200 000/00 RMK AO2
14837KMSN MSN20071115200009911/15/07 20:00:31  5-MIN KMSN 160200Z 00000KT 10SM SCT039 M02/M07 A3013 680 69 -1100 000/00 RMK AO2
14837KMSN MSN20071115200509911/15/07 20:05:31  5-MIN KMSN 160205Z 00000KT 10SM FEW039 M02/M07 A3013 680 69 -1100 000/00 RMK AO2
14837KMSN MSN20071115201009911/15/07 20:10:31  5-MIN KMSN 160210Z 00000KT 10SM SCT039 M02/M07 A3013 680 69 -1100 000/00 RMK AO2
14837KMSN MSN20071115201509911/15/07 20:15:31  5-MIN KMSN 160215Z 00000KT 10SM SCT039 M02/M07 A3013 670 69 -1100 000/00 RMK AO2
14837KMSN MSN20071115202009911/15/07 20:20:31  5-MIN KMSN 160220Z 00000KT 10SM SCT039 M02/M07 A3013 670 69 -1100 000/00 RMK AO2
14837KMSN MSN20071115202509911/15/07 20:25:31  5-MIN KMSN 160225Z 27003KT 10SM SCT039 M02/M07 A3013 670 69 -1100 270/03 RMK AO2
14837KMSN MSN20071115203009911/15/07 20:30:31  5-MIN KMSN 160230Z 00000KT 10SM SCT039 M02/M07 A3013 670 69 -1100 000/00 RMK AO2
14837KMSN MSN20071115203509911/15/07 20:35:31  5-MIN KMSN 160235Z 28003KT 10SM BKN037 M02/M07 A3013 670 69 -1100 280/03 RMK AO2
14837KMSN MSN20071115204009911/15/07 20:40:31  5-MIN KMSN 160240Z 29003KT 10SM BKN037 M02/M07 A3013 670 69 -1100 290/03 RMK AO2
14837KMSN MSN20071115204509911/15/07 20:45:31  5-MIN KMSN 160245Z 29003KT 10SM BKN037 M02/M07 A3013 670 69 -1100 290/03 RMK AO2
14837KMSN MSN20071115205012211/15/07 20:50:31  5-MIN KMSN 160250Z 29004KT 10SM SCT037 M02/M07 A3013 670 69 -1100 280/04 RMK AO2 SLP213 T10171067 51012
14837KMSN MSN20071115205509911/15/07 20:55:31  5-MIN KMSN 160255Z 29003KT 10SM SCT037 M01/M07 A3012 680 66 -1000 290/03 RMK AO2
14837KMSN MSN20071115210009911/15/07 21:00:31  5-MIN KMSN 160300Z 29003KT 10SM BKN037 M01/M07 A3012 680 66 -1000 290/03 RMK AO2
14837KMSN MSN20071115210509911/15/07 21:05:31  5-MIN KMSN 160305Z 29003KT 10SM SCT037 M01/M07 A3012 680 66 -1000 290/03 RMK AO2
14837KMSN MSN20071115211009911/15/07 21:10:31  5-MIN KMSN 160310Z 00000KT 10SM FEW037 M02/M07 A3012 680 69 -1100 000/00 RMK AO2
14837KMSN MSN20071115211509911/15/07 21:15:31  5-MIN KMSN 160315Z 00000KT 10SM FEW037 M01/M07 A3012 680 66 -1000 000/00 RMK AO2
14837KMSN MSN20071115212009911/15/07 21:20:31  5-MIN KMSN 160320Z 00000KT 10SM FEW037 M01/M07 A3012 680 66 -1000 000/00 RMK AO2
14837KMSN MSN20071115212509611/15/07 21:25:31  5-MIN KMSN 160325Z 00000KT 10SM CLR M02/M07 A3012 680 69 -1100 000/00 RMK AO2
14837KMSN MSN20071115213009611/15/07 21:30:31  5-MIN KMSN 160330Z 00000KT 10SM CLR M02/M07 A3012 680 72 -1200 000/00 RMK AO2
14837KMSN MSN20071115213509611/15/07 21:35:31  5-MIN KMSN 160335Z 00000KT 10SM CLR M02/M07 A3012 680 69 -1100 000/00 RMK AO2
14837KMSN MSN20071115214009611/15/07 21:40:31  5-MIN KMSN 160340Z 00000KT 10SM CLR M01/M07 A3012 680 66 -1000 000/00 RMK AO2
14837KMSN MSN20071115214509611/15/07 21:45:31  5-MIN KMSN 160345Z 00000KT 10SM CLR M02/M07 A3012 680 69 -1100 000/00 RMK AO2
14837KMSN MSN20071115215011311/15/07 21:50:31  5-MIN KMSN 160350Z 00000KT 10SM CLR M02/M07 A3012 680 72 -1200 000/00 RMK AO2 SLP210 T10221067
14837KMSN MSN20071115215509611/15/07 21:55:31  5-MIN KMSN 160355Z 00000KT 10SM CLR M03/M07 A3012 680 75 -1300 000/00 RMK AO2
14837KMSN MSN20071115220009611/15/07 22:00:31  5-MIN KMSN 160400Z 00000KT 10SM CLR M02/M07 A3012 680 72 -1200 000/00 RMK AO2
14837KMSN MSN20071115220509611/15/07 22:05:31  5-MIN KMSN 160405Z 00000KT 10SM CLR M03/M07 A3012 680 71 -1200 000/00 RMK AO2
14837KMSN MSN20071115221009611/15/07 22:10:31  5-MIN KMSN 160410Z 00000KT 10SM CLR M03/M07 A3012 680 71 -1300 000/00 RMK AO2
14837KMSN MSN20071115221509611/15/07 22:15:31  5-MIN KMSN 160415Z 00000KT 10SM CLR M03/M07 A3013 680 74 -1300 000/00 RMK AO2
14837KMSN MSN20071115222009611/15/07 22:20:31  5-MIN KMSN 160420Z 00000KT 10SM CLR M03/M07 A3013 670 74 -1300 000/00 RMK AO2
14837KMSN MSN20071115222509611/15/07 22:25:31  5-MIN KMSN 160425Z 00000KT 10SM CLR M03/M07 A3012 680 74 -1300 000/00 RMK AO2
14837KMSN MSN20071115223009611/15/07 22:30:31  5-MIN KMSN 160430Z 00000KT 10SM CLR M03/M07 A3013 670 74 -1300 000/00 RMK AO2
14837KMSN MSN20071115223509611/15/07 22:35:31  5-MIN KMSN 160435Z 00000KT 10SM CLR M03/M07 A3012 680 74 -1300 000/00 RMK AO2
14837KMSN MSN20071115224009611/15/07 22:40:31  5-MIN KMSN 160440Z 00000KT 10SM CLR M03/M07 A3012 680 74 -1300 000/00 RMK AO2
14837KMSN MSN20071115224509611/15/07 22:45:31  5-MIN KMSN 160445Z 00000KT 10SM CLR M03/M07 A3012 680 74 -1300 000/00 RMK AO2
14837KMSN MSN20071115225011311/15/07 22:50:31  5-MIN KMSN 160450Z 00000KT 10SM CLR M03/M07 A3012 680 74 -1300 000/00 RMK AO2 SLP211 T10331072
14837KMSN MSN20071115225509611/15/07 22:55:31  5-MIN KMSN 160455Z 00000KT 10SM CLR M03/M07 A3012 680 71 -1200 000/00 RMK AO2
14837KMSN MSN20071115230009611/15/07 23:00:31  5-MIN KMSN 160500Z 00000KT 10SM CLR M03/M07 A3012 680 71 -1200 000/00 RMK AO2
14837KMSN MSN20071115230509611/15/07 23:05:31  5-MIN KMSN 160505Z 00000KT 10SM CLR M03/M08 A3011 690 71 -1300 000/00 RMK AO2
14837KMSN MSN20071115231009611/15/07 23:10:31  5-MIN KMSN 160510Z 00000KT 10SM CLR M04/M08 A3011 690 74 -1400 000/00 RMK AO2
14837KMSN MSN20071115231509611/15/07 23:15:31  5-MIN KMSN 160515Z 00000KT 10SM CLR M04/M08 A3011 690 74 -1500 000/00 RMK AO2
14837KMSN MSN20071115232009611/15/07 23:20:31  5-MIN KMSN 160520Z 00000KT 10SM CLR M04/M08 A3011 690 74 -1500 000/00 RMK AO2
14837KMSN MSN20071115232509611/15/07 23:25:31  5-MIN KMSN 160525Z 00000KT 10SM CLR M04/M08 A3011 690 78 -1400 000/00 RMK AO2
14837KMSN MSN20071115233009611/15/07 23:30:31  5-MIN KMSN 160530Z 00000KT 10SM CLR M05/M08 A3011 690 77 -1500 000/00 RMK AO2
14837KMSN MSN20071115233509611/15/07 23:35:31  5-MIN KMSN 160535Z 00000KT 10SM CLR M04/M08 A3010 700 78 -1400 000/00 RMK AO2
14837KMSN MSN20071115234009611/15/07 23:40:31  5-MIN KMSN 160540Z 00000KT 10SM CLR M05/M08 A3010 700 81 -1500 000/00 RMK AO2
14837KMSN MSN20071115234509611/15/07 23:45:31  5-MIN KMSN 160545Z 00000KT 10SM CLR M05/M08 A3010 700 81 -1500 000/00 RMK AO2
14837KMSN MSN20071115235014111/15/07 23:50:31  5-MIN KMSN 160550Z 00000KT 10SM CLR M05/M08 A3010 700 77 -1500 000/00 RMK AO2 SLP204 T10501083 10000 21050 400391050 53003
14837KMSN MSN20071115235509611/15/07 23:55:31  5-MIN KMSN 160555Z 00000KT 10SM CLR M04/M08 A3010 700 78 -1400 000/00 RMK AO2
14837KMSN MSN20071116000009611/16/07 00:00:32  5-MIN KMSN 160600Z 00000KT 10SM CLR M05/M08 A3010 700 81 -1500 000/00 RMK AO2
14837KMSN MSN20071116000509611/16/07 00:05:31  5-MIN KMSN 160605Z 00000KT 10SM CLR M05/M08 A3010 700 81 -1500 000/00 RMK AO2
14837KMSN MSN20071116001009611/16/07 00:10:31  5-MIN KMSN 160610Z 00000KT 10SM CLR M05/M08 A3010 690 81 -1500 000/00 RMK AO2
14837KMSN MSN20071116001509611/16/07 00:15:31  5-MIN KMSN 160615Z 00000KT 10SM CLR M04/M08 A3010 690 78 -1400 000/00 RMK AO2
14837KMSN MSN20071116002009611/16/07 00:20:31  5-MIN KMSN 160620Z 00000KT 10SM CLR M05/M08 A3011 690 81 -1500 000/00 RMK AO2
14837KMSN MSN20071116002509611/16/07 00:25:31  5-MIN KMSN 160625Z 00000KT 10SM CLR M04/M08 A3011 690 78 -1400 000/00 RMK AO2
14837KMSN MSN20071116003009611/16/07 00:30:31  5-MIN KMSN 160630Z 00000KT 10SM CLR M04/M08 A3011 690 78 -1400 000/00 RMK AO2
14837KMSN MSN20071116003509611/16/07 00:35:31  5-MIN KMSN 160635Z 00000KT 10SM CLR M05/M08 A3011 690 81 -1500 000/00 RMK AO2
14837KMSN MSN20071116004009611/16/07 00:40:31  5-MIN KMSN 160640Z 00000KT 10SM CLR M05/M08 A3011 690 81 -1500 000/00 RMK AO2
14837KMSN MSN20071116004509611/16/07 00:45:31  5-MIN KMSN 160645Z 00000KT 10SM CLR M05/M08 A3010 690 81 -1500 000/00 RMK AO2
14837KMSN MSN20071116005011311/16/07 00:50:31  5-MIN KMSN 160650Z 00000KT 10SM CLR M05/M07 A3010 700 84 -1500 000/00 RMK AO2 SLP202 T10501072
14837KMSN MSN20071116005509511/16/07 00:55:31  5-MIN KMSN 160655Z 00000KT 9SM CLR M06/M07 A3010 700 88 -1600 000/00 RMK AO2
14837KMSN MSN20071116010009511/16/07 01:00:31  5-MIN KMSN 160700Z 00000KT 9SM CLR M06/M08 A3009 700 88 -1600 000/00 RMK AO2
14837KMSN MSN20071116010509511/16/07 01:05:31  5-MIN KMSN 160705Z 00000KT 9SM CLR M06/M08 A3010 700 84 -1600 000/00 RMK AO2
14837KMSN MSN20071116011009611/16/07 01:10:31  5-MIN KMSN 160710Z 00000KT 10SM CLR M05/M08 A3010 700 81 -1500 000/00 RMK AO2
14837KMSN MSN20071116011509611/16/07 01:15:31  5-MIN KMSN 160715Z 00000KT 10SM CLR M05/M08 A3010 700 81 -1500 000/00 RMK AO2
14837KMSN MSN20071116012009511/16/07 01:20:31  5-MIN KMSN 160720Z 00000KT 9SM CLR M06/M08 A3009 700 81 -1600 000/00 RMK AO2
14837KMSN MSN20071116012509511/16/07 01:25:31  5-MIN KMSN 160725Z 00000KT 9SM CLR M06/M08 A3009 700 81 -1600 000/00 RMK AO2
14837KMSN MSN20071116013009511/16/07 01:30:31  5-MIN KMSN 160730Z 00000KT 9SM CLR M06/M08 A3009 700 81 -1600 000/00 RMK AO2
14837KMSN MSN20071116013509511/16/07 01:35:31  5-MIN KMSN 160735Z 00000KT 9SM CLR M06/M08 A3010 700 81 -1600 000/00 RMK AO2
14837KMSN MSN20071116014009511/16/07 01:40:31  5-MIN KMSN 160740Z 00000KT 9SM CLR M06/M08 A3009 710 81 -1600 000/00 RMK AO2
14837KMSN MSN20071116014509511/16/07 01:45:31  5-MIN KMSN 160745Z 00000KT 9SM CLR M05/M08 A3009 710 81 -1500 000/00 RMK AO2
14837KMSN MSN20071116015011211/16/07 01:50:31  5-MIN KMSN 160750Z 00000KT 9SM CLR M05/M08 A3009 700 81 -1500 000/00 RMK AO2 SLP201 T10501078
14837KMSN MSN20071116015509511/16/07 01:55:31  5-MIN KMSN 160755Z 00000KT 9SM CLR M06/M08 A3009 700 81 -1600 000/00 RMK AO2
14837KMSN MSN20071116020009511/16/07 02:00:31  5-MIN KMSN 160800Z 00000KT 9SM CLR M06/M08 A3009 710 81 -1600 000/00 RMK AO2
14837KMSN MSN20071116020509511/16/07 02:05:31  5-MIN KMSN 160805Z 00000KT 9SM CLR M06/M08 A3009 710 81 -1600 000/00 RMK AO2
14837KMSN MSN20071116021009511/16/07 02:10:31  5-MIN KMSN 160810Z 00000KT 9SM CLR M06/M08 A3009 710 84 -1600 000/00 RMK AO2
14837KMSN MSN20071116021509511/16/07 02:15:31  5-MIN KMSN 160815Z 00000KT 9SM CLR M06/M08 A3009 710 84 -1600 000/00 RMK AO2
14837KMSN MSN20071116022009511/16/07 02:20:31  5-MIN KMSN 160820Z 00000KT 9SM CLR M06/M08 A3009 710 84 -1600 000/00 RMK AO2
14837KMSN MSN20071116022509511/16/07 02:25:31  5-MIN KMSN 160825Z 00000KT 9SM CLR M06/M08 A3009 710 84 -1600 000/00 RMK AO2
14837KMSN MSN20071116023009511/16/07 02:30:31  5-MIN KMSN 160830Z 00000KT 9SM CLR M06/M08 A3010 700 84 -1600 000/00 RMK AO2
14837KMSN MSN20071116023509511/16/07 02:35:31  5-MIN KMSN 160835Z 00000KT 9SM CLR M06/M08 A3010 700 88 -1700 000/00 RMK AO2
14837KMSN MSN20071116024009511/16/07 02:40:31  5-MIN KMSN 160840Z 00000KT 9SM CLR M06/M08 A3010 690 88 -1700 000/00 RMK AO2
14837KMSN MSN20071116024509511/16/07 02:45:31  5-MIN KMSN 160845Z 00000KT 9SM CLR M06/M08 A3010 700 84 -1600 000/00 RMK AO2
14837KMSN MSN20071116025011811/16/07 02:50:31  5-MIN KMSN 160850Z 00000KT 8SM CLR M06/M08 A3010 700 84 -1600 000/00 RMK AO2 SLP205 T10561078 58008
14837KMSN MSN20071116025509511/16/07 02:55:31  5-MIN KMSN 160855Z 00000KT 8SM CLR M06/M08 A3010 690 88 -1700 000/00 RMK AO2
14837KMSN MSN20071116030009511/16/07 03:00:31  5-MIN KMSN 160900Z 00000KT 9SM CLR M06/M08 A3010 700 84 -1700 000/00 RMK AO2
14837KMSN MSN20071116030509511/16/07 03:05:31  5-MIN KMSN 160905Z 00000KT 9SM CLR M06/M08 A3009 710 84 -1600 000/00 RMK AO2
14837KMSN MSN20071116031009511/16/07 03:10:31  5-MIN KMSN 160910Z 00000KT 9SM CLR M06/M08 A3009 710 84 -1600 000/00 RMK AO2
14837KMSN MSN20071116031509811/16/07 03:15:31  5-MIN KMSN 160915Z 00000KT 9SM FEW120 M06/M08 A3009 710 81 -1600 000/00 RMK AO2
14837KMSN MSN20071116032009811/16/07 03:20:31  5-MIN KMSN 160920Z 00000KT 9SM SCT120 M06/M08 A3008 710 84 -1600 000/00 RMK AO2
14837KMSN MSN20071116032509811/16/07 03:25:31  5-MIN KMSN 160925Z 00000KT 9SM BKN120 M06/M08 A3008 720 84 -1600 000/00 RMK AO2
14837KMSN MSN20071116033009811/16/07 03:30:31  5-MIN KMSN 160930Z 00000KT 9SM BKN120 M06/M08 A3008 720 81 -1600 000/00 RMK AO2
14837KMSN MSN20071116033509811/16/07 03:35:31  5-MIN KMSN 160935Z 00000KT 9SM BKN120 M06/M08 A3008 710 81 -1600 000/00 RMK AO2
14837KMSN MSN20071116034009811/16/07 03:40:31  5-MIN KMSN 160940Z 00000KT 9SM BKN120 M06/M08 A3008 720 84 -1600 000/00 RMK AO2
14837KMSN MSN20071116034509811/16/07 03:45:31  5-MIN KMSN 160945Z 00000KT 9SM BKN120 M06/M08 A3008 720 84 -1600 000/00 RMK AO2
14837KMSN MSN20071116035011511/16/07 03:50:31  5-MIN KMSN 160950Z 00000KT 9SM BKN110 M06/M08 A3008 720 81 -1600 000/00 RMK AO2 SLP195 T10561083
14837KMSN MSN20071116035509811/16/07 03:55:31  5-MIN KMSN 160955Z 00000KT 9SM BKN120 M06/M08 A3007 720 84 -1600 000/00 RMK AO2
14837KMSN MSN20071116040009811/16/07 04:00:31  5-MIN KMSN 161000Z 00000KT 9SM BKN120 M05/M08 A3007 720 81 -1500 000/00 RMK AO2
14837KMSN MSN20071116040509811/16/07 04:05:31  5-MIN KMSN 161005Z 00000KT 9SM OVC110 M05/M07 A3007 720 84 -1500 000/00 RMK AO2
14837KMSN MSN20071116041009811/16/07 04:10:31  5-MIN KMSN 161010Z 00000KT 9SM OVC110 M04/M07 A3007 720 81 -1400 000/00 RMK AO2
14837KMSN MSN20071116041509811/16/07 04:15:31  5-MIN KMSN 161015Z 00000KT 9SM OVC110 M04/M07 A3007 720 81 -1400 000/00 RMK AO2
14837KMSN MSN20071116042009811/16/07 04:20:31  5-MIN KMSN 161020Z 00000KT 9SM OVC120 M04/M07 A3007 720 81 -1400 000/00 RMK AO2
14837KMSN MSN20071116042509811/16/07 04:25:31  5-MIN KMSN 161025Z 00000KT 9SM OVC110 M04/M07 A3007 730 81 -1400 000/00 RMK AO2
14837KMSN MSN20071116043009811/16/07 04:30:31  5-MIN KMSN 161030Z 00000KT 9SM OVC110 M04/M07 A3006 730 81 -1400 000/00 RMK AO2
14837KMSN MSN20071116043509811/16/07 04:35:31  5-MIN KMSN 161035Z 00000KT 9SM BKN120 M04/M07 A3006 730 81 -1400 000/00 RMK AO2
14837KMSN MSN20071116044009811/16/07 04:40:31  5-MIN KMSN 161040Z 00000KT 9SM BKN110 M04/M07 A3006 730 81 -1400 000/00 RMK AO2
14837KMSN MSN20071116044509811/16/07 04:45:31  5-MIN KMSN 161045Z 00000KT 8SM BKN110 M04/M07 A3006 730 81 -1400 000/00 RMK AO2
14837KMSN MSN20071116045011511/16/07 04:50:31  5-MIN KMSN 161050Z 00000KT 8SM BKN110 M04/M07 A3006 740 81 -1400 000/00 RMK AO2 SLP190 T10441072
14837KMSN MSN20071116045509811/16/07 04:55:31  5-MIN KMSN 161055Z 00000KT 8SM BKN110 M04/M07 A3006 740 81 -1400 000/00 RMK AO2
14837KMSN MSN20071116050009811/16/07 05:00:31  5-MIN KMSN 161100Z 00000KT 8SM OVC120 M04/M07 A3006 730 81 -1400 000/00 RMK AO2
14837KMSN MSN20071116050509811/16/07 05:05:31  5-MIN KMSN 161105Z 00000KT 9SM OVC110 M04/M07 A3006 740 81 -1400 000/00 RMK AO2
14837KMSN MSN20071116051009811/16/07 05:10:31  5-MIN KMSN 161110Z 00000KT 9SM OVC110 M04/M07 A3006 730 81 -1300 000/00 RMK AO2
14837KMSN MSN20071116051509811/16/07 05:15:31  5-MIN KMSN 161115Z 00000KT 9SM OVC110 M04/M07 A3006 730 84 -1400 000/00 RMK AO2
14837KMSN MSN20071116052009811/16/07 05:20:31  5-MIN KMSN 161120Z 00000KT 9SM BKN120 M04/M07 A3006 740 84 -1400 000/00 RMK AO2
14837KMSN MSN20071116052509811/16/07 05:25:31  5-MIN KMSN 161125Z 00000KT 9SM BKN120 M03/M07 A3005 740 78 -1200 000/00 RMK AO2
14837KMSN MSN20071116053009811/16/07 05:30:31  5-MIN KMSN 161130Z 14003KT 9SM BKN120 M03/M06 A3005 750 81 -1200 140/03 RMK AO2
14837KMSN MSN20071116053509811/16/07 05:35:31  5-MIN KMSN 161135Z 11004KT 9SM BKN120 M03/M06 A3004 750 81 -1200 110/04 RMK AO2
14837KMSN MSN20071116054009811/16/07 05:40:31  5-MIN KMSN 161140Z 12004KT 9SM OVC120 M03/M06 A3004 750 81 -1200 120/04 RMK AO2
14837KMSN MSN20071116054509811/16/07 05:45:31  5-MIN KMSN 161145Z 13003KT 8SM OVC120 M03/M06 A3004 750 85 -1200 130/03 RMK AO2
14837KMSN MSN20071116055013311/16/07 05:50:31  5-MIN KMSN 161150Z 00000KT 8SM OVC120 M03/M05 A3004 750 88 -1200 000/00 RMK AO2 SLP184 T10331050 11033 21061 53000
14837KMSN MSN20071116055509811/16/07 05:55:31  5-MIN KMSN 161155Z 00000KT 8SM OVC120 M03/M06 A3005 750 85 -1200 000/00 RMK AO2
14837KMSN MSN20071116060009811/16/07 06:00:31  5-MIN KMSN 161200Z 21003KT 8SM OVC120 M03/M06 A3005 750 81 -1200 210/03 RMK AO2
14837KMSN MSN20071116060509811/16/07 06:05:31  5-MIN KMSN 161205Z 00000KT 9SM OVC120 M02/M06 A3005 750 78 -1100 000/00 RMK AO2
14837KMSN MSN20071116061009811/16/07 06:10:31  5-MIN KMSN 161210Z 20003KT 9SM BKN120 M02/M06 A3005 750 78 -1100 200/03 RMK AO2
14837KMSN MSN20071116061509811/16/07 06:15:31  5-MIN KMSN 161215Z 21003KT 9SM BKN120 M02/M05 A3005 740 78 -1000 210/03 RMK AO2
14837KMSN MSN20071116062009811/16/07 06:20:31  5-MIN KMSN 161220Z 21003KT 9SM BKN120 M02/M05 A3005 740 78 -1000 210/03 RMK AO2
14837KMSN MSN20071116062509811/16/07 06:25:31  5-MIN KMSN 161225Z 00000KT 9SM BKN120 M01/M05 A3005 750 75 -1000 000/00 RMK AO2
14837KMSN MSN20071116063009811/16/07 06:30:31  5-MIN KMSN 161230Z 18004KT 9SM BKN120 M01/M05 A3005 750 75 -1000 180/04 RMK AO2
14837KMSN MSN20071116063509811/16/07 06:35:31  5-MIN KMSN 161235Z 16004KT 9SM BKN120 M02/M05 A3005 750 78 -1000 160/04 RMK AO2
14837KMSN MSN20071116064009811/16/07 06:40:31  5-MIN KMSN 161240Z 18005KT 9SM BKN120 M02/M05 A3005 750 78 -1000 180/05 RMK AO2
14837KMSN MSN20071116064509811/16/07 06:45:31  5-MIN KMSN 161245Z 16003KT 9SM BKN120 M01/M05 A3005 750 75 -1000 150/03 RMK AO2
14837KMSN MSN20071116065011511/16/07 06:50:31  5-MIN KMSN 161250Z 15004KT 9SM BKN120 M01/M05 A3005 750 75 -1000 150/04 RMK AO2 SLP186 T10111050
14837KMSN MSN20071116065509811/16/07 06:55:31  5-MIN KMSN 161255Z 17003KT 9SM BKN120 M01/M05 A3005 750 75 -1000 170/03 RMK AO2
14837KMSN MSN20071116070009811/16/07 07:00:31  5-MIN KMSN 161300Z 15003KT 9SM BKN120 M01/M06 A3005 740 72 -1000 150/03 RMK AO2
14837KMSN MSN20071116070509811/16/07 07:05:31  5-MIN KMSN 161305Z 15003KT 8SM BKN120 M02/M05 A3005 750 78 -1000 150/03 RMK AO2
14837KMSN MSN20071116071009811/16/07 07:10:31  5-MIN KMSN 161310Z 16005KT 8SM BKN120 M01/M06 A3005 750 72 -1000 160/05 RMK AO2
14837KMSN MSN20071116071509811/16/07 07:15:31  5-MIN KMSN 161315Z 16004KT 8SM BKN120 M01/M06 A3004 750 72 -1000 160/04 RMK AO2
14837KMSN MSN20071116072009711/16/07 07:20:31  5-MIN KMSN 161320Z 16004KT 7SM BKN120 M01/M06 A3004 750 72 -900 160/04 RMK AO2
14837KMSN MSN20071116072509711/16/07 07:25:31  5-MIN KMSN 161325Z 15004KT 7SM BKN110 M01/M06 A3004 750 72 -900 150/04 RMK AO2
14837KMSN MSN20071116073009811/16/07 07:30:31  5-MIN KMSN 161330Z 11004KT 7SM SCT120 M02/M05 A3004 760 78 -1000 110/04 RMK AO2
14837KMSN MSN20071116073509811/16/07 07:35:31  5-MIN KMSN 161335Z 12005KT 7SM SCT120 M02/M04 A3003 760 81 -1000 110/05 RMK AO2
14837KMSN MSN20071116074010111/16/07 07:40:31  5-MIN KMSN 161340Z 13005KT 6SM HZ SCT110 M02/M04 A3003 760 81 -1000 120/05 RMK AO2
14837KMSN MSN20071116074510111/16/07 07:45:31  5-MIN KMSN 161345Z 14004KT 6SM HZ FEW110 M02/M05 A3004 760 78 -1000 140/04 RMK AO2
14837KMSN MSN20071116075011411/16/07 07:50:31  5-MIN KMSN 161350Z 15004KT 7SM FEW120 M01/M06 A3003 760 72 -900 150/04 RMK AO2 SLP181 T10111056
14837KMSN MSN20071116075509711/16/07 07:55:31  5-MIN KMSN 161355Z 17004KT 7SM FEW120 M01/M06 A3003 760 72 -900 170/04 RMK AO2
14837KMSN MSN20071116080009711/16/07 08:00:31  5-MIN KMSN 161400Z 19005KT 7SM FEW120 M01/M06 A3004 750 72 -900 190/05 RMK AO2
14837KMSN MSN20071116080509711/16/07 08:05:31  5-MIN KMSN 161405Z 18005KT 7SM FEW120 M01/M06 A3004 760 72 -900 180/05 RMK AO2
14837KMSN MSN20071116081009711/16/07 08:10:31  5-MIN KMSN 161410Z 18005KT 7SM FEW120 M01/M06 A3004 760 72 -900 180/05 RMK AO2
14837KMSN MSN20071116081509711/16/07 08:15:31  5-MIN KMSN 161415Z 16005KT 7SM FEW120 M01/M05 A3003 760 75 -900 160/05 RMK AO2
14837KMSN MSN20071116082010011/16/07 08:20:31  5-MIN KMSN 161420Z 15005KT 6SM HZ FEW120 M01/M05 A3003 770 75 -900 150/05 RMK AO2
14837KMSN MSN20071116082509711/16/07 08:25:31  5-MIN KMSN 161425Z 16005KT 6SM HZ CLR M01/M05 A3002 770 72 -900 150/05 RMK AO2
14837KMSN MSN20071116083009411/16/07 08:30:31  5-MIN KMSN 161430Z 17005KT 7SM CLR M01/M05 A3003 770 72 -900 170/05 RMK AO2
14837KMSN MSN20071116083509411/16/07 08:35:31  5-MIN KMSN 161435Z 17006KT 7SM CLR M01/M05 A3003 760 72 -900 170/06 RMK AO2
14837KMSN MSN20071116084009411/16/07 08:40:31  5-MIN KMSN 161440Z 16006KT 7SM CLR M01/M05 A3002 770 72 -900 160/06 RMK AO2
14837KMSN MSN20071116084509411/16/07 08:45:31  5-MIN KMSN 161445Z 16005KT 7SM CLR M01/M05 A3003 770 72 -900 160/05 RMK AO2
14837KMSN MSN20071116085011611/16/07 08:50:31  5-MIN KMSN 161450Z 16006KT 7SM CLR 00/M04 A3002 770 72 -800 160/06 RMK AO2 SLP177 T00001044 56019
14837KMSN MSN20071116085509311/16/07 08:55:31  5-MIN KMSN 161455Z 16007KT 7SM CLR 00/M04 A3002 770 72 -800 160/07 RMK AO2
14837KMSN MSN20071116090009611/16/07 09:00:31  5-MIN KMSN 161500Z 17007KT 7SM FEW110 00/M04 A3002 770 72 -800 170/07 RMK AO2
14837KMSN MSN20071116090509611/16/07 09:05:31  5-MIN KMSN 161505Z 17007KT 7SM FEW110 00/M04 A3002 770 72 -800 170/07 RMK AO2
14837KMSN MSN20071116091009611/16/07 09:10:31  5-MIN KMSN 161510Z 17006KT 7SM FEW120 00/M04 A3002 770 72 -800 170/06 RMK AO2
14837KMSN MSN20071116091509611/16/07 09:15:31  5-MIN KMSN 161515Z 16007KT 7SM FEW110 00/M04 A3002 770 72 -800 160/07 RMK AO2
14837KMSN MSN20071116092009611/16/07 09:20:31  5-MIN KMSN 161520Z 16007KT 7SM FEW110 01/M04 A3002 770 69 -700 160/07 RMK AO2
14837KMSN MSN20071116092509611/16/07 09:25:31  5-MIN KMSN 161525Z 17006KT 7SM FEW120 00/M04 A3002 770 72 -800 170/06 RMK AO2
14837KMSN MSN20071116093009611/16/07 09:30:31  5-MIN KMSN 161530Z 16007KT 7SM FEW120 01/M04 A3002 770 69 -700 160/07 RMK AO2
14837KMSN MSN20071116093509611/16/07 09:35:31  5-MIN KMSN 161535Z 16006KT 7SM FEW120 01/M04 A3002 770 69 -700 160/06 RMK AO2
14837KMSN MSN20071116094009311/16/07 09:40:31  5-MIN KMSN 161540Z 17008KT 7SM CLR 01/M04 A3002 770 69 -700 170/08 RMK AO2
14837KMSN MSN20071116094509311/16/07 09:45:31  5-MIN KMSN 161545Z 16007KT 7SM CLR 01/M04 A3001 780 66 -600 160/07 RMK AO2
14837KMSN MSN20071116095011011/16/07 09:50:31  5-MIN KMSN 161550Z 17007KT 8SM CLR 01/M04 A3001 780 66 -600 170/07 RMK AO2 SLP174 T00111044
14837KMSN MSN20071116095509611/16/07 09:55:31  5-MIN KMSN 161555Z 17009KT 8SM FEW085 01/M04 A3001 780 66 -600 170/09 RMK AO2
14837KMSN MSN20071116100009611/16/07 10:00:31  5-MIN KMSN 161600Z 17009KT 8SM FEW085 01/M04 A3001 780 66 -600 170/09 RMK AO2
14837KMSN MSN20071116100509611/16/07 10:05:31  5-MIN KMSN 161605Z 17010KT 8SM FEW085 01/M04 A3000 790 66 -600 170/10 RMK AO2
14837KMSN MSN20071116101009611/16/07 10:10:31  5-MIN KMSN 161610Z 17009KT 8SM FEW085 01/M04 A3001 790 66 -600 170/09 RMK AO2
14837KMSN MSN20071116101509611/16/07 10:15:31  5-MIN KMSN 161615Z 18009KT 8SM FEW085 01/M04 A3000 790 66 -600 170/09 RMK AO2
14837KMSN MSN20071116102009611/16/07 10:20:31  5-MIN KMSN 161620Z 17011KT 8SM FEW085 02/M04 A3000 790 64 -500 170/11 RMK AO2
14837KMSN MSN20071116102509611/16/07 10:25:31  5-MIN KMSN 161625Z 18010KT 8SM FEW110 02/M04 A2999 800 64 -500 170/10 RMK AO2
14837KMSN MSN20071116103009611/16/07 10:30:31  5-MIN KMSN 161630Z 17011KT 8SM FEW110 02/M04 A2999 800 64 -500 170/11 RMK AO2
14837KMSN MSN20071116103509611/16/07 10:35:31  5-MIN KMSN 161635Z 18012KT 8SM FEW110 02/M04 A2998 810 64 -500 180/12 RMK AO2
14837KMSN MSN20071116104009311/16/07 10:40:31  5-MIN KMSN 161640Z 17012KT 8SM CLR 02/M04 A2998 810 64 -500 170/12 RMK AO2
14837KMSN MSN20071116104509311/16/07 10:45:31  5-MIN KMSN 161645Z 18009KT 9SM CLR 02/M04 A2998 810 64 -500 180/09 RMK AO2
14837KMSN MSN20071116105011311/16/07 10:50:31  5-MIN KMSN 161650Z 18010KT 8SM FEW110 02/M04 A2998 810 64 -500 180/10 RMK AO2 SLP163 T00171044
14837KMSN MSN20071116105509311/16/07 10:55:31  5-MIN KMSN 161655Z 17010KT 8SM CLR 02/M04 A2998 810 61 -500 170/10 RMK AO2
14837KMSN MSN20071116110009311/16/07 11:00:31  5-MIN KMSN 161700Z 17010KT 8SM CLR 02/M04 A2998 810 66 -500 170/10 RMK AO2
14837KMSN MSN20071116110509611/16/07 11:05:31  5-MIN KMSN 161705Z 17008KT 9SM FEW090 02/M04 A2997 820 61 -400 170/08 RMK AO2
14837KMSN MSN20071116111009611/16/07 11:10:31  5-MIN KMSN 161710Z 16008KT 8SM FEW085 02/M04 A2997 820 64 -400 160/08 RMK AO2
14837KMSN MSN20071116111509611/16/07 11:15:31  5-MIN KMSN 161715Z 17009KT 8SM FEW080 02/M04 A2997 820 61 -400 160/09 RMK AO2
14837KMSN MSN20071116112009611/16/07 11:20:31  5-MIN KMSN 161720Z 17008KT 9SM FEW085 03/M04 A2997 820 59 -400 170/08 RMK AO2
14837KMSN MSN20071116112509611/16/07 11:25:31  5-MIN KMSN 161725Z 17012KT 9SM FEW085 03/M04 A2996 820 59 -400 170/12 RMK AO2
14837KMSN MSN20071116113009311/16/07 11:30:31  5-MIN KMSN 161730Z 17010KT 9SM CLR 03/M04 A2996 830 59 -400 170/10 RMK AO2
14837KMSN MSN20071116113509611/16/07 11:35:31  5-MIN KMSN 161735Z 16011KT 9SM FEW110 03/M04 A2996 830 59 -400 160/11 RMK AO2
14837KMSN MSN20071116114009611/16/07 11:40:31  5-MIN KMSN 161740Z 17009KT 9SM FEW120 03/M04 A2995 840 59 -400 160/09 RMK AO2
14837KMSN MSN20071116114509311/16/07 11:45:31  5-MIN KMSN 161745Z 17008KT 9SM CLR 03/M04 A2994 840 59 -300 170/08 RMK AO2
14837KMSN MSN20071116115013111/16/07 11:50:31  5-MIN KMSN 161750Z 18010KT 9SM BKN120 03/M04 A2994 840 57 -300 180/10 RMK AO2 SLP150 T00331044 10033 21033 58009
14837KMSN MSN20071116115509611/16/07 11:55:31  5-MIN KMSN 161755Z 18009KT 9SM BKN120 03/M04 A2994 850 57 -300 180/09 RMK AO2
14837KMSN MSN20071116120009611/16/07 12:00:31  5-MIN KMSN 161800Z 16009KT 9SM BKN120 03/M05 A2994 850 54 -300 160/09 RMK AO2
14837KMSN MSN20071116120509611/16/07 12:05:31  5-MIN KMSN 161805Z 18011KT 9SM BKN120 03/M05 A2994 850 54 -300 180/11 RMK AO2
14837KMSN MSN20071116121009611/16/07 12:10:31  5-MIN KMSN 161810Z 16008KT 9SM BKN120 03/M05 A2993 850 54 -300 160/08 RMK AO2
14837KMSN MSN20071116121509611/16/07 12:15:31  5-MIN KMSN 161815Z 16009KT 9SM BKN120 03/M05 A2993 860 54 -300 160/09 RMK AO2
14837KMSN MSN20071116122009611/16/07 12:20:31  5-MIN KMSN 161820Z 15012KT 9SM BKN120 03/M05 A2993 860 54 -300 150/12 RMK AO2
14837KMSN MSN20071116122509611/16/07 12:25:31  5-MIN KMSN 161825Z 15012KT 9SM BKN120 03/M05 A2992 860 54 -300 150/12 RMK AO2
14837KMSN MSN20071116123009611/16/07 12:30:31  5-MIN KMSN 161830Z 15013KT 9SM BKN120 03/M05 A2992 870 54 -200 150/13 RMK AO2
14837KMSN MSN20071116123509611/16/07 12:35:31  5-MIN KMSN 161835Z 16012KT 9SM BKN120 03/M05 A2991 870 54 -200 160/12 RMK AO2
14837KMSN MSN20071116124009611/16/07 12:40:31  5-MIN KMSN 161840Z 16012KT 9SM BKN120 03/M05 A2991 880 54 -200 160/12 RMK AO2
14837KMSN MSN20071116124509611/16/07 12:45:31  5-MIN KMSN 161845Z 15009KT 9SM BKN120 03/M05 A2991 870 54 -200 150/09 RMK AO2
14837KMSN MSN20071116125011311/16/07 12:50:31  5-MIN KMSN 161850Z 14009KT 9SM BKN120 03/M05 A2991 870 54 -200 140/09 RMK AO2 SLP138 T00331050
14837KMSN MSN20071116125509611/16/07 12:55:31  5-MIN KMSN 161855Z 15011KT 9SM SCT120 03/M05 A2991 880 54 -200 150/11 RMK AO2
14837KMSN MSN20071116130009611/16/07 13:00:31  5-MIN KMSN 161900Z 15011KT 9SM SCT120 03/M05 A2990 880 54 -200 150/11 RMK AO2
14837KMSN MSN20071116130509611/16/07 13:05:31  5-MIN KMSN 161905Z 15013KT 9SM SCT120 03/M05 A2989 890 54 -200 150/13 RMK AO2
14837KMSN MSN20071116131010311/16/07 13:10:31  5-MIN KMSN 161910Z 15012KT 9SM SCT120 03/M05 A2988 900 54 -200 150/12 RMK AO2 PRESFR
14837KMSN MSN20071116131509611/16/07 13:15:31  5-MIN KMSN 161915Z 14009KT 9SM SCT120 04/M05 A2989 900 52 -100 140/09 RMK AO2
14837KMSN MSN20071116132009611/16/07 13:20:31  5-MIN KMSN 161920Z 14012KT 9SM SCT120 04/M05 A2988 900 52 -100 140/12 RMK AO2
14837KMSN MSN20071116132509611/16/07 13:25:31  5-MIN KMSN 161925Z 15011KT 9SM SCT120 04/M05 A2987 910 52 -100 150/11 RMK AO2
14837KMSN MSN20071116133009611/16/07 13:30:31  5-MIN KMSN 161930Z 15011KT 9SM SCT120 04/M05 A2987 910 52 -100 150/11 RMK AO2
14837KMSN MSN20071116133509611/16/07 13:35:31  5-MIN KMSN 161935Z 13012KT 9SM SCT120 04/M05 A2986 920 52 -100 130/12 RMK AO2
14837KMSN MSN20071116134009611/16/07 13:40:31  5-MIN KMSN 161940Z 14011KT 9SM SCT120 04/M05 A2986 920 52 -100 140/11 RMK AO2
14837KMSN MSN20071116134509611/16/07 13:45:31  5-MIN KMSN 161945Z 14011KT 9SM SCT120 04/M05 A2985 920 52 -100 140/11 RMK AO2
14837KMSN MSN20071116135011311/16/07 13:50:31  5-MIN KMSN 161950Z 13014KT 9SM FEW120 04/M06 A2985 930 50 -100 130/14 RMK AO2 SLP119 T00391056
14837KMSN MSN20071116135509711/16/07 13:55:31  5-MIN KMSN 161955Z 13013KT 10SM SCT110 04/M05 A2985 930 52 -100 130/13 RMK AO2
14837KMSN MSN20071116140009711/16/07 14:00:31  5-MIN KMSN 162000Z 14011KT 10SM SCT110 04/M06 A2985 930 50 -100 140/11 RMK AO2
14837KMSN MSN20071116140509711/16/07 14:05:31  5-MIN KMSN 162005Z 13011KT 10SM SCT110 04/M06 A2984 930 50 -100 130/11 RMK AO2
14837KMSN MSN20071116141009711/16/07 14:10:31  5-MIN KMSN 162010Z 14011KT 10SM SCT110 04/M05 A2984 940 52 -100 140/11 RMK AO2
14837KMSN MSN20071116141509711/16/07 14:15:31  5-MIN KMSN 162015Z 14012KT 10SM BKN110 04/M05 A2984 940 52 -100 130/12 RMK AO2
14837KMSN MSN20071116142009611/16/07 14:20:31  5-MIN KMSN 162020Z 14010KT 9SM BKN110 04/M05 A2984 940 52 -100 140/10 RMK AO2
14837KMSN MSN20071116142509611/16/07 14:25:31  5-MIN KMSN 162025Z 14010KT 9SM BKN110 04/M05 A2984 940 52 -100 140/10 RMK AO2
14837KMSN MSN20071116143009611/16/07 14:30:31  5-MIN KMSN 162030Z 13012KT 9SM BKN110 04/M05 A2984 940 52 -100 130/12 RMK AO2
14837KMSN MSN20071116143509611/16/07 14:35:31  5-MIN KMSN 162035Z 13012KT 9SM OVC110 04/M05 A2984 940 52 -100 130/12 RMK AO2
14837KMSN MSN20071116144009611/16/07 14:40:31  5-MIN KMSN 162040Z 14009KT 9SM OVC110 04/M05 A2984 940 52 -100 140/09 RMK AO2
14837KMSN MSN20071116144510211/16/07 14:45:31  5-MIN KMSN 162045Z 14010G17KT 9SM OVC110 04/M05 A2984 940 52 -100 140/10G17 RMK AO2
14837KMSN MSN20071116145012511/16/07 14:50:31  5-MIN KMSN 162050Z 13009G17KT 9SM OVC110 04/M05 A2984 930 52 -100 130/09G17 RMK AO2 SLP116 T00391050 58025
14837KMSN MSN20071116145509611/16/07 14:55:31  5-MIN KMSN 162055Z 14010KT 9SM OVC110 04/M05 A2984 940 52 -100 140/10 RMK AO2
14837KMSN MSN20071116150009611/16/07 15:00:31  5-MIN KMSN 162100Z 14009KT 9SM OVC110 04/M04 A2985 930 54 -100 140/09 RMK AO2
14837KMSN MSN20071116150509611/16/07 15:05:31  5-MIN KMSN 162105Z 15008KT 9SM OVC110 04/M04 A2985 930 54 -100 150/08 RMK AO2
14837KMSN MSN20071116151009611/16/07 15:10:31  5-MIN KMSN 162110Z 15009KT 9SM BKN110 04/M04 A2985 930 54 -100 150/09 RMK AO2
14837KMSN MSN20071116151509611/16/07 15:15:31  5-MIN KMSN 162115Z 14010KT 9SM BKN110 04/M05 A2985 930 52 -100 140/10 RMK AO2
14837KMSN MSN20071116152009711/16/07 15:20:31  5-MIN KMSN 162120Z 15010KT 10SM OVC110 04/M05 A2985 930 52 -100 150/10 RMK AO2
14837KMSN MSN20071116152509711/16/07 15:25:31  5-MIN KMSN 162125Z 14011KT 10SM OVC110 04/M05 A2985 930 52 -100 140/11 RMK AO2
14837KMSN MSN20071116153009711/16/07 15:30:31  5-MIN KMSN 162130Z 14009KT 10SM OVC110 04/M05 A2985 930 52 -100 140/09 RMK AO2
14837KMSN MSN20071116153509711/16/07 15:35:31  5-MIN KMSN 162135Z 15009KT 10SM OVC110 04/M05 A2984 940 52 -100 140/09 RMK AO2
14837KMSN MSN20071116154009711/16/07 15:40:31  5-MIN KMSN 162140Z 15009KT 10SM OVC110 04/M05 A2984 940 52 -100 150/09 RMK AO2
14837KMSN MSN20071116154509711/16/07 15:45:31  5-MIN KMSN 162145Z 14010KT 10SM BKN100 04/M05 A2984 940 52 -100 140/10 RMK AO2
14837KMSN MSN20071116155011411/16/07 15:50:31  5-MIN KMSN 162150Z 15008KT 10SM BKN100 04/M05 A2984 940 52 -100 150/08 RMK AO2 SLP115 T00391050
14837KMSN MSN20071116155509611/16/07 15:55:31  5-MIN KMSN 162155Z 15008KT 9SM BKN100 04/M04 A2984 940 54 -100 150/08 RMK AO2
14837KMSN MSN20071116160009611/16/07 16:00:31  5-MIN KMSN 162200Z 16008KT 9SM BKN100 04/M04 A2984 940 54 -100 160/08 RMK AO2
14837KMSN MSN20071116160510311/16/07 16:05:31  5-MIN KMSN 162205Z 15006KT 9SM BKN100 BKN120 04/M04 A2984 940 54 -100 150/06 RMK AO2
14837KMSN MSN20071116161009711/16/07 16:10:31  5-MIN KMSN 162210Z 14005KT 10SM BKN110 04/M04 A2985 930 54 -100 140/05 RMK AO2
14837KMSN MSN20071116161509711/16/07 16:15:31  5-MIN KMSN 162215Z 14005KT 10SM BKN110 04/M04 A2985 930 54 -100 140/05 RMK AO2
14837KMSN MSN20071116162009711/16/07 16:20:31  5-MIN KMSN 162220Z 14006KT 10SM OVC110 04/M04 A2985 930 54 -100 140/06 RMK AO2
14837KMSN MSN20071116162510411/16/07 16:25:31  5-MIN KMSN 162225Z 14008KT 10SM SCT100 OVC120 04/M05 A2985 930 52 -100 140/08 RMK AO2
14837KMSN MSN20071116163010411/16/07 16:30:31  5-MIN KMSN 162230Z 14006KT 10SM SCT100 BKN120 04/M04 A2985 930 54 -100 140/06 RMK AO2
14837KMSN MSN20071116163510411/16/07 16:35:31  5-MIN KMSN 162235Z 14007KT 10SM SCT100 BKN120 03/M04 A2985 930 57 -200 130/07 RMK AO2
14837KMSN MSN20071116164010411/16/07 16:40:31  5-MIN KMSN 162240Z 14008KT 10SM SCT100 BKN120 03/M04 A2985 930 57 -200 130/08 RMK AO2
14837KMSN MSN20071116164510311/16/07 16:45:31  5-MIN KMSN 162245Z 14006KT 9SM SCT100 BKN120 03/M05 A2985 930 56 -200 130/06 RMK AO2
14837KMSN MSN20071116165011411/16/07 16:50:31  5-MIN KMSN 162250Z 12006KT 10SM FEW110 03/M05 A2985 930 56 -200 120/06 RMK AO2 SLP118 T00281050
14837KMSN MSN20071116165509711/16/07 16:55:31  5-MIN KMSN 162255Z 12005KT 10SM FEW110 02/M04 A2985 930 61 -300 120/05 RMK AO2
14837KMSN MSN20071116170009411/16/07 17:00:31  5-MIN KMSN 162300Z 13007KT 10SM CLR 02/M04 A2985 930 61 -300 120/07 RMK AO2
14837KMSN MSN20071116170509411/16/07 17:05:31  5-MIN KMSN 162305Z 14007KT 10SM CLR 02/M04 A2984 930 61 -300 130/07 RMK AO2
14837KMSN MSN20071116181009411/16/07 18:10:31  5-MIN KMSN 170010Z 13008KT 10SM CLR 01/M04 A2984 940 66 -400 130/08 RMK AO2
14837KMSN MSN20071116181509411/16/07 18:15:31  5-MIN KMSN 170015Z 13008KT 10SM CLR 02/M04 A2984 940 64 -400 130/08 RMK AO2
14837KMSN MSN20071116182009411/16/07 18:20:31  5-MIN KMSN 170020Z 13008KT 10SM CLR 01/M04 A2984 940 66 -400 130/08 RMK AO2
14837KMSN MSN20071116182509411/16/07 18:25:31  5-MIN KMSN 170025Z 13007KT 10SM CLR 01/M04 A2984 940 66 -400 130/07 RMK AO2
14837KMSN MSN20071116183009411/16/07 18:30:31  5-MIN KMSN 170030Z 12006KT 10SM CLR 01/M04 A2985 930 66 -400 120/06 RMK AO2
14837KMSN MSN20071116183509411/16/07 18:35:31  5-MIN KMSN 170035Z 12006KT 10SM CLR 01/M04 A2985 930 66 -400 120/06 RMK AO2
14837KMSN MSN20071116184009411/16/07 18:40:31  5-MIN KMSN 170040Z 12006KT 10SM CLR 01/M04 A2985 930 69 -500 120/06 RMK AO2
14837KMSN MSN20071116184509411/16/07 18:45:31  5-MIN KMSN 170045Z 13006KT 10SM CLR 01/M05 A2984 940 66 -500 130/06 RMK AO2
14837KMSN MSN20071116185011111/16/07 18:50:31  5-MIN KMSN 170050Z 13006KT 10SM CLR 01/M05 A2985 930 64 -400 130/06 RMK AO2 SLP116 T00111050
14837KMSN MSN20071116185509411/16/07 18:55:31  5-MIN KMSN 170055Z 12005KT 10SM CLR 01/M05 A2985 930 66 -500 120/05 RMK AO2
14837KMSN MSN20071116190009411/16/07 19:00:31  5-MIN KMSN 170100Z 12005KT 10SM CLR 01/M04 A2985 930 69 -500 120/05 RMK AO2
14837KMSN MSN20071116190509411/16/07 19:05:31  5-MIN KMSN 170105Z 12005KT 10SM CLR 00/M05 A2984 940 69 -600 120/05 RMK AO2
14837KMSN MSN20071116191009411/16/07 19:10:31  5-MIN KMSN 170110Z 12006KT 10SM CLR 01/M05 A2984 940 66 -500 120/06 RMK AO2
14837KMSN MSN20071116191509411/16/07 19:15:31  5-MIN KMSN 170115Z 13005KT 10SM CLR 01/M05 A2984 940 66 -500 120/05 RMK AO2
14837KMSN MSN20071116192009411/16/07 19:20:31  5-MIN KMSN 170120Z 13005KT 10SM CLR 00/M05 A2984 940 69 -600 130/05 RMK AO2
14837KMSN MSN20071116192509411/16/07 19:25:31  5-MIN KMSN 170125Z 12006KT 10SM CLR 00/M05 A2984 940 69 -600 120/06 RMK AO2
14837KMSN MSN20071116193009311/16/07 19:30:31  5-MIN KMSN 170130Z 11006KT 9SM CLR 00/M05 A2984 940 69 -600 110/06 RMK AO2
14837KMSN MSN20071116193509311/16/07 19:35:31  5-MIN KMSN 170135Z 12006KT 9SM CLR 00/M05 A2983 940 69 -600 120/06 RMK AO2
14837KMSN MSN20071116194009311/16/07 19:40:31  5-MIN KMSN 170140Z 12006KT 9SM CLR 00/M05 A2983 940 69 -600 120/06 RMK AO2
14837KMSN MSN20071116194509311/16/07 19:45:31  5-MIN KMSN 170145Z 12007KT 9SM CLR 00/M05 A2983 940 69 -600 120/07 RMK AO2
14837KMSN MSN20071116195011011/16/07 19:50:31  5-MIN KMSN 170150Z 11006KT 9SM CLR 00/M04 A2984 940 72 -600 110/06 RMK AO2 SLP113 T00001044
14837KMSN MSN20071116195509311/16/07 19:55:31  5-MIN KMSN 170155Z 11006KT 9SM CLR 00/M04 A2984 940 72 -600 110/06 RMK AO2
14837KMSN MSN20071116200009311/16/07 20:00:31  5-MIN KMSN 170200Z 11006KT 9SM CLR 00/M05 A2984 930 69 -600 110/06 RMK AO2
14837KMSN MSN20071116200509311/16/07 20:05:31  5-MIN KMSN 170205Z 11006KT 9SM CLR 00/M04 A2985 930 72 -600 110/06 RMK AO2
14837KMSN MSN20071116201009311/16/07 20:10:31  5-MIN KMSN 170210Z 11005KT 9SM CLR 00/M04 A2985 930 72 -600 110/05 RMK AO2
14837KMSN MSN20071116201509611/16/07 20:15:31  5-MIN KMSN 170215Z 12006KT 9SM FEW090 00/M04 A2984 940 72 -600 120/06 RMK AO2
14837KMSN MSN20071116202009711/16/07 20:20:31  5-MIN KMSN 170220Z 12006KT 9SM FEW090 M01/M04 A2984 940 75 -600 120/06 RMK AO2
14837KMSN MSN20071116202509711/16/07 20:25:31  5-MIN KMSN 170225Z 12006KT 9SM FEW090 M01/M05 A2984 940 72 -600 120/06 RMK AO2
14837KMSN MSN20071116203009711/16/07 20:30:31  5-MIN KMSN 170230Z 12006KT 9SM FEW090 M01/M05 A2984 940 72 -600 120/06 RMK AO2
14837KMSN MSN20071116203509711/16/07 20:35:31  5-MIN KMSN 170235Z 12007KT 9SM FEW090 M01/M05 A2984 940 72 -600 120/07 RMK AO2
14837KMSN MSN20071116204009711/16/07 20:40:31  5-MIN KMSN 170240Z 13005KT 9SM FEW090 M01/M05 A2983 940 72 -600 130/05 RMK AO2
14837KMSN MSN20071116204509411/16/07 20:45:31  5-MIN KMSN 170245Z 13005KT 8SM CLR M01/M05 A2983 940 72 -600 130/05 RMK AO2
14837KMSN MSN20071116205011711/16/07 20:50:31  5-MIN KMSN 170250Z 13004KT 8SM CLR M01/M05 A2983 940 72 -600 130/04 RMK AO2 SLP112 T10061050 50001
14837KMSN MSN20071116205509411/16/07 20:55:31  5-MIN KMSN 170255Z 13006KT 8SM CLR M01/M05 A2983 940 72 -600 130/06 RMK AO2
14837KMSN MSN20071116210009411/16/07 21:00:31  5-MIN KMSN 170300Z 13006KT 8SM CLR M01/M05 A2983 950 72 -600 120/06 RMK AO2
14837KMSN MSN20071116210509411/16/07 21:05:31  5-MIN KMSN 170305Z 14005KT 8SM CLR M01/M05 A2983 950 72 -600 140/05 RMK AO2
14837KMSN MSN20071116211009311/16/07 21:10:31  5-MIN KMSN 170310Z 14006KT 8SM CLR 00/M04 A2983 950 72 -600 140/06 RMK AO2
14837KMSN MSN20071116211509311/16/07 21:15:31  5-MIN KMSN 170315Z 13006KT 8SM CLR 00/M04 A2983 950 72 -600 130/06 RMK AO2
14837KMSN MSN20071116212009311/16/07 21:20:31  5-MIN KMSN 170320Z 12005KT 8SM CLR 00/M04 A2982 950 72 -600 120/05 RMK AO2
14837KMSN MSN20071116212509411/16/07 21:25:31  5-MIN KMSN 170325Z 11005KT 8SM CLR M01/M04 A2982 950 75 -600 110/05 RMK AO2
14837KMSN MSN20071116213009411/16/07 21:30:31  5-MIN KMSN 170330Z 11005KT 8SM CLR M01/M05 A2982 950 72 -600 110/05 RMK AO2
14837KMSN MSN20071116213509411/16/07 21:35:31  5-MIN KMSN 170335Z 12006KT 8SM CLR M01/M05 A2982 960 72 -600 120/06 RMK AO2
14837KMSN MSN20071116214009411/16/07 21:40:31  5-MIN KMSN 170340Z 12005KT 8SM CLR M01/M05 A2982 960 75 -700 120/05 RMK AO2
14837KMSN MSN20071116214509411/16/07 21:45:31  5-MIN KMSN 170345Z 12005KT 8SM CLR M01/M05 A2982 960 72 -600 120/05 RMK AO2
14837KMSN MSN20071116215011111/16/07 21:50:31  5-MIN KMSN 170350Z 12005KT 8SM CLR M01/M05 A2982 960 72 -600 120/05 RMK AO2 SLP106 T10061050
14837KMSN MSN20071116215509411/16/07 21:55:31  5-MIN KMSN 170355Z 11005KT 8SM CLR M01/M05 A2981 960 72 -600 110/05 RMK AO2
14837KMSN MSN20071116220009411/16/07 22:00:31  5-MIN KMSN 170400Z 11005KT 8SM CLR M01/M05 A2981 970 72 -600 110/05 RMK AO2
14837KMSN MSN20071116220509411/16/07 22:05:31  5-MIN KMSN 170405Z 12005KT 8SM CLR M01/M05 A2981 970 72 -600 120/05 RMK AO2
14837KMSN MSN20071116221009411/16/07 22:10:31  5-MIN KMSN 170410Z 12004KT 8SM CLR M01/M05 A2981 970 75 -700 120/04 RMK AO2
14837KMSN MSN20071116221509411/16/07 22:15:31  5-MIN KMSN 170415Z 12003KT 8SM CLR M01/M05 A2981 970 72 -600 120/03 RMK AO2
14837KMSN MSN20071116222009411/16/07 22:20:31  5-MIN KMSN 170420Z 12003KT 8SM CLR M01/M05 A2981 970 72 -600 120/03 RMK AO2
14837KMSN MSN20071116222509411/16/07 22:25:31  5-MIN KMSN 170425Z 12004KT 8SM CLR M01/M05 A2981 970 72 -600 120/04 RMK AO2
14837KMSN MSN20071116223009411/16/07 22:30:31  5-MIN KMSN 170430Z 12004KT 8SM CLR M01/M05 A2981 970 72 -600 120/04 RMK AO2
14837KMSN MSN20071116223509411/16/07 22:35:31  5-MIN KMSN 170435Z 12004KT 8SM CLR M01/M05 A2980 970 72 -600 120/04 RMK AO2
14837KMSN MSN20071116224009411/16/07 22:40:31  5-MIN KMSN 170440Z 12004KT 8SM CLR M01/M05 A2980 980 72 -600 120/04 RMK AO2
14837KMSN MSN20071116224509411/16/07 22:45:31  5-MIN KMSN 170445Z 13003KT 8SM CLR M01/M05 A2980 980 72 -600 120/03 RMK AO2
14837KMSN MSN20071116225011111/16/07 22:50:31  5-MIN KMSN 170450Z 13003KT 8SM CLR M01/M05 A2980 980 72 -600 130/03 RMK AO2 SLP100 T10061050
14837KMSN MSN20071116225509411/16/07 22:55:31  5-MIN KMSN 170455Z 13003KT 8SM CLR M01/M05 A2980 980 72 -600 130/03 RMK AO2
14837KMSN MSN20071116230009411/16/07 23:00:31  5-MIN KMSN 170500Z 00000KT 8SM CLR M01/M05 A2980 980 72 -600 000/00 RMK AO2
14837KMSN MSN20071116230509311/16/07 23:05:31  5-MIN KMSN 170505Z 12004KT 8SM CLR 00/M05 A2980 980 69 -500 120/04 RMK AO2
14837KMSN MSN20071116231009311/16/07 23:10:31  5-MIN KMSN 170510Z 12003KT 8SM CLR 00/M04 A2980 980 72 -500 120/03 RMK AO2
14837KMSN MSN20071116231509311/16/07 23:15:31  5-MIN KMSN 170515Z 12003KT 8SM CLR 00/M04 A2980 980 72 -500 120/03 RMK AO2
14837KMSN MSN20071116232009411/16/07 23:20:31  5-MIN KMSN 170520Z 11003KT 8SM CLR M01/M05 A2980 980 72 -600 110/03 RMK AO2
14837KMSN MSN20071116232509411/16/07 23:25:31  5-MIN KMSN 170525Z 00000KT 8SM CLR M01/M05 A2980 980 72 -600 000/00 RMK AO2
14837KMSN MSN20071116233009411/16/07 23:30:31  5-MIN KMSN 170530Z 00000KT 8SM CLR M01/M05 A2980 980 72 -600 000/00 RMK AO2
14837KMSN MSN20071116233509411/16/07 23:35:31  5-MIN KMSN 170535Z 00000KT 8SM CLR M01/M05 A2980 980 72 -600 000/00 RMK AO2
14837KMSN MSN20071116234009411/16/07 23:40:31  5-MIN KMSN 170540Z 00000KT 8SM CLR M01/M05 A2980 980 75 -700 000/00 RMK AO2
14837KMSN MSN20071116234509411/16/07 23:45:31  5-MIN KMSN 170545Z 00000KT 8SM CLR M02/M05 A2980 980 81 -800 000/00 RMK AO2
14837KMSN MSN20071116235013911/16/07 23:50:31  5-MIN KMSN 170550Z 00000KT 8SM CLR M02/M05 A2980 980 78 -700 000/00 RMK AO2 SLP098 T10171050 10017 21022 400391061 58004
14837KMSN MSN20071116235509411/16/07 23:55:31  5-MIN KMSN 170555Z 00000KT 8SM CLR M02/M05 A2979 980 78 -700 000/00 RMK AO2
14837KMSN MSN20071117000009411/17/07 00:00:32  5-MIN KMSN 170600Z 05003KT 8SM CLR M02/M05 A2979 980 81 -800 050/03 RMK AO2
14837KMSN MSN20071117000509411/17/07 00:05:31  5-MIN KMSN 170605Z 03003KT 8SM CLR M03/M05 A2979 980 85 -900 030/03 RMK AO2
14837KMSN MSN20071117001009411/17/07 00:10:31  5-MIN KMSN 170610Z 04003KT 8SM CLR M02/M05 A2979 990 81 -800 040/03 RMK AO2
14837KMSN MSN20071117001509411/17/07 00:15:31  5-MIN KMSN 170615Z 05003KT 8SM CLR M02/M05 A2979 990 81 -800 050/03 RMK AO2
14837KMSN MSN20071117002009411/17/07 00:20:31  5-MIN KMSN 170620Z 04003KT 8SM CLR M02/M05 A2978 990 81 -800 040/03 RMK AO2
14837KMSN MSN20071117002509411/17/07 00:25:31  5-MIN KMSN 170625Z 04003KT 8SM CLR M03/M05 A2978 990 85 -900 040/03 RMK AO2
14837KMSN MSN20071117003009411/17/07 00:30:31  5-MIN KMSN 170630Z 05003KT 8SM CLR M02/M05 A2978 990 81 -800 050/03 RMK AO2
14837KMSN MSN20071117003509511/17/07 00:35:31  5-MIN KMSN 170635Z 05003KT 8SM CLR M02/M05 A2978 1000 81 -800 050/03 RMK AO2
14837KMSN MSN20071117004009411/17/07 00:40:31  5-MIN KMSN 170640Z 03003KT 8SM CLR M03/M05 A2978 990 85 -900 030/03 RMK AO2
14837KMSN MSN20071117004509511/17/07 00:45:31  5-MIN KMSN 170645Z 00000KT 7SM CLR M03/M06 A2978 1000 81 -900 000/00 RMK AO2
14837KMSN MSN20071117005011211/17/07 00:50:31  5-MIN KMSN 170650Z 04003KT 7SM CLR M03/M05 A2978 1000 85 -900 040/03 RMK AO2 SLP092 T10281050
14837KMSN MSN20071117005509511/17/07 00:55:31  5-MIN KMSN 170655Z 05003KT 8SM CLR M02/M05 A2977 1000 81 -800 050/03 RMK AO2
14837KMSN MSN20071117010009511/17/07 01:00:31  5-MIN KMSN 170700Z 04004KT 8SM CLR M02/M05 A2977 1000 81 -800 040/04 RMK AO2
14837KMSN MSN20071117010509511/17/07 01:05:31  5-MIN KMSN 170705Z 03003KT 8SM CLR M02/M05 A2978 1000 81 -800 030/03 RMK AO2
14837KMSN MSN20071117011009511/17/07 01:10:31  5-MIN KMSN 170710Z 03003KT 8SM CLR M03/M05 A2978 1000 85 -900 030/03 RMK AO2
14837KMSN MSN20071117011509511/17/07 01:15:31  5-MIN KMSN 170715Z 00000KT 8SM CLR M02/M05 A2978 1000 81 -800 000/00 RMK AO2
14837KMSN MSN20071117012009511/17/07 01:20:31  5-MIN KMSN 170720Z 03003KT 8SM CLR M03/M05 A2978 1000 85 -900 030/03 RMK AO2
14837KMSN MSN20071117012509511/17/07 01:25:31  5-MIN KMSN 170725Z 02003KT 8SM CLR M02/M05 A2978 1000 81 -800 020/03 RMK AO2
14837KMSN MSN20071117013009511/17/07 01:30:31  5-MIN KMSN 170730Z 02003KT 8SM CLR M03/M05 A2977 1000 85 -800 020/03 RMK AO2
14837KMSN MSN20071117013509511/17/07 01:35:31  5-MIN KMSN 170735Z 00000KT 8SM CLR M03/M05 A2978 1000 85 -900 000/00 RMK AO2
14837KMSN MSN20071117014009511/17/07 01:40:31  5-MIN KMSN 170740Z 00000KT 7SM CLR M03/M05 A2978 1000 85 -900 000/00 RMK AO2
14837KMSN MSN20071117014509511/17/07 01:45:31  5-MIN KMSN 170745Z 00000KT 7SM CLR M03/M05 A2978 1000 85 -900 000/00 RMK AO2
14837KMSN MSN20071117015011211/17/07 01:50:31  5-MIN KMSN 170750Z 36003KT 7SM CLR M03/M05 A2978 1000 85 -900 360/03 RMK AO2 SLP093 T10281050
14837KMSN MSN20071117015509411/17/07 01:55:31  5-MIN KMSN 170755Z 36003KT 7SM CLR M02/M05 A2978 990 81 -800 360/03 RMK AO2
14837KMSN MSN20071117020009411/17/07 02:00:31  5-MIN KMSN 170800Z 35003KT 7SM CLR M03/M05 A2979 990 85 -900 350/03 RMK AO2
14837KMSN MSN20071117020509411/17/07 02:05:31  5-MIN KMSN 170805Z 36003KT 7SM CLR M02/M05 A2979 990 81 -800 360/03 RMK AO2
14837KMSN MSN20071117021009411/17/07 02:10:31  5-MIN KMSN 170810Z 36003KT 7SM CLR M02/M05 A2979 990 81 -800 360/03 RMK AO2
14837KMSN MSN20071117021509411/17/07 02:15:31  5-MIN KMSN 170815Z 34003KT 7SM CLR M03/M05 A2979 990 85 -900 340/03 RMK AO2
14837KMSN MSN20071117022009411/17/07 02:20:31  5-MIN KMSN 170820Z 36003KT 7SM CLR M03/M05 A2978 990 85 -900 360/03 RMK AO2
14837KMSN MSN20071117022509411/17/07 02:25:31  5-MIN KMSN 170825Z 01003KT 7SM CLR M02/M04 A2978 990 85 -800 010/03 RMK AO2
14837KMSN MSN20071117023009411/17/07 02:30:31  5-MIN KMSN 170830Z 01003KT 7SM CLR M02/M04 A2978 990 85 -800 010/03 RMK AO2
14837KMSN MSN20071117023509711/17/07 02:35:31  5-MIN KMSN 170835Z 00000KT 7SM FEW120 M03/M05 A2978 990 85 -900 000/00 RMK AO2
14837KMSN MSN20071117024009711/17/07 02:40:31  5-MIN KMSN 170840Z 00000KT 7SM SCT120 M02/M04 A2978 990 85 -800 000/00 RMK AO2
14837KMSN MSN20071117024509811/17/07 02:45:31  5-MIN KMSN 170845Z 00000KT 7SM BKN120 M02/M04 A2978 1000 85 -800 000/00 RMK AO2
14837KMSN MSN20071117025012111/17/07 02:50:31  5-MIN KMSN 170850Z 00000KT 7SM SCT120 M02/M04 A2978 1000 85 -800 000/00 RMK AO2 SLP092 T10221044 56014
14837KMSN MSN20071117025509811/17/07 02:55:31  5-MIN KMSN 170855Z 00000KT 7SM SCT120 M03/M04 A2978 1000 88 -900 000/00 RMK AO2
14837KMSN MSN20071117030009711/17/07 03:00:31  5-MIN KMSN 170900Z 00000KT 7SM SCT120 M02/M04 A2978 990 85 -800 000/00 RMK AO2
14837KMSN MSN20071117030509711/17/07 03:05:31  5-MIN KMSN 170905Z 00000KT 7SM SCT120 M03/M04 A2978 990 88 -900 000/00 RMK AO2
14837KMSN MSN20071117031009711/17/07 03:10:31  5-MIN KMSN 170910Z 36003KT 7SM FEW120 M02/M04 A2978 990 85 -800 360/03 RMK AO2
14837KMSN MSN20071117031509711/17/07 03:15:31  5-MIN KMSN 170915Z 00000KT 7SM FEW120 M02/M04 A2978 990 85 -800 000/00 RMK AO2
14837KMSN MSN20071117032009411/17/07 03:20:31  5-MIN KMSN 170920Z 00000KT 7SM CLR M02/M04 A2978 990 85 -800 000/00 RMK AO2
14837KMSN MSN20071117032509411/17/07 03:25:31  5-MIN KMSN 170925Z 00000KT 7SM CLR M02/M04 A2978 990 85 -800 000/00 RMK AO2
14837KMSN MSN20071117033009511/17/07 03:30:31  5-MIN KMSN 170930Z 01004KT 8SM CLR M02/M04 A2978 1000 81 -700 010/04 RMK AO2
14837KMSN MSN20071117033509511/17/07 03:35:31  5-MIN KMSN 170935Z 01003KT 7SM CLR M02/M04 A2978 1000 81 -700 010/03 RMK AO2
14837KMSN MSN20071117034009711/17/07 03:40:31  5-MIN KMSN 170940Z 00000KT 7SM FEW120 M02/M04 A2978 990 85 -700 000/00 RMK AO2
14837KMSN MSN20071117034509711/17/07 03:45:31  5-MIN KMSN 170945Z 00000KT 7SM SCT110 M02/M04 A2979 990 85 -700 000/00 RMK AO2
14837KMSN MSN20071117035011411/17/07 03:50:31  5-MIN KMSN 170950Z 00000KT 8SM SCT110 M02/M04 A2979 980 85 -700 000/00 RMK AO2 SLP096 T10171039
14837KMSN MSN20071117035509711/17/07 03:55:31  5-MIN KMSN 170955Z 00000KT 8SM BKN110 M02/M04 A2979 980 85 -700 000/00 RMK AO2
14837KMSN MSN20071117040009711/17/07 04:00:31  5-MIN KMSN 171000Z 33003KT 8SM BKN110 M02/M04 A2979 980 85 -700 330/03 RMK AO2
14837KMSN MSN20071117040509711/17/07 04:05:31  5-MIN KMSN 171005Z 33003KT 8SM BKN110 M01/M04 A2980 980 81 -700 330/03 RMK AO2
14837KMSN MSN20071117041009711/17/07 04:10:31  5-MIN KMSN 171010Z 00000KT 8SM OVC110 M02/M04 A2980 980 85 -700 000/00 RMK AO2
14837KMSN MSN20071117041509711/17/07 04:15:31  5-MIN KMSN 171015Z 34003KT 8SM OVC100 M01/M03 A2980 970 85 -700 330/03 RMK AO2
14837KMSN MSN20071117042009711/17/07 04:20:31  5-MIN KMSN 171020Z 35004KT 8SM OVC100 M01/M03 A2981 970 85 -700 350/04 RMK AO2
14837KMSN MSN20071117042509711/17/07 04:25:31  5-MIN KMSN 171025Z 35004KT 7SM OVC100 M01/M03 A2981 970 85 -700 350/04 RMK AO2
14837KMSN MSN20071117043009711/17/07 04:30:31  5-MIN KMSN 171030Z 35005KT 8SM OVC100 M01/M03 A2981 970 85 -700 350/05 RMK AO2
14837KMSN MSN20071117043509711/17/07 04:35:31  5-MIN KMSN 171035Z 35005KT 8SM OVC095 M01/M03 A2981 970 81 -600 340/05 RMK AO2
14837KMSN MSN20071117044009711/17/07 04:40:31  5-MIN KMSN 171040Z 35005KT 8SM OVC090 M01/M03 A2980 970 81 -600 350/05 RMK AO2
14837KMSN MSN20071117044509711/17/07 04:45:31  5-MIN KMSN 171045Z 35005KT 8SM OVC090 M01/M03 A2980 970 81 -600 350/05 RMK AO2
14837KMSN MSN20071117045011411/17/07 04:50:31  5-MIN KMSN 171050Z 35005KT 7SM OVC090 M01/M03 A2981 970 81 -600 350/05 RMK AO2 SLP101 T10061033
14837KMSN MSN20071117045509711/17/07 04:55:31  5-MIN KMSN 171055Z 35006KT 7SM OVC090 M01/M03 A2981 970 81 -600 350/06 RMK AO2
14837KMSN MSN20071117050009711/17/07 05:00:31  5-MIN KMSN 171100Z 35005KT 7SM OVC090 M01/M03 A2980 970 81 -600 350/05 RMK AO2
14837KMSN MSN20071117050509711/17/07 05:05:31  5-MIN KMSN 171105Z 35005KT 7SM BKN090 M01/M03 A2981 970 81 -600 340/05 RMK AO2
14837KMSN MSN20071117051009711/17/07 05:10:31  5-MIN KMSN 171110Z 35006KT 7SM BKN090 M01/M03 A2980 970 81 -600 350/06 RMK AO2
14837KMSN MSN20071117051509711/17/07 05:15:31  5-MIN KMSN 171115Z 36006KT 7SM SCT090 M01/M03 A2980 970 85 -600 350/06 RMK AO2
14837KMSN MSN20071117052009711/17/07 05:20:31  5-MIN KMSN 171120Z 35006KT 7SM SCT090 M01/M03 A2980 970 85 -600 350/06 RMK AO2
14837KMSN MSN20071117052509711/17/07 05:25:31  5-MIN KMSN 171125Z 35006KT 7SM FEW090 M01/M03 A2980 970 85 -600 350/06 RMK AO2
14837KMSN MSN20071117053009411/17/07 05:30:31  5-MIN KMSN 171130Z 36007KT 7SM CLR M01/M03 A2980 970 85 -600 360/07 RMK AO2
14837KMSN MSN20071117053509711/17/07 05:35:31  5-MIN KMSN 171135Z 36006KT 7SM FEW120 M01/M03 A2980 970 85 -600 360/06 RMK AO2
14837KMSN MSN20071117054009711/17/07 05:40:31  5-MIN KMSN 171140Z 36006KT 7SM SCT120 M01/M03 A2980 970 85 -600 360/06 RMK AO2
14837KMSN MSN20071117054509711/17/07 05:45:31  5-MIN KMSN 171145Z 36005KT 7SM FEW120 M01/M03 A2981 970 85 -600 360/05 RMK AO2
14837KMSN MSN20071117055013211/17/07 05:50:31  5-MIN KMSN 171150Z 36005KT 8SM FEW120 M01/M03 A2981 970 85 -600 360/05 RMK AO2 SLP103 T10061028 11006 21033 56005
14837KMSN MSN20071117055510411/17/07 05:55:31  5-MIN KMSN 171155Z 36004KT 7SM FEW090 SCT120 M01/M03 A2981 970 85 -600 360/04 RMK AO2
14837KMSN MSN20071117060010411/17/07 06:00:31  5-MIN KMSN 171200Z 36004KT 7SM SCT085 BKN120 M01/M03 A2981 970 85 -600 360/04 RMK AO2
14837KMSN MSN20071117060509611/17/07 06:05:31  5-MIN KMSN 171205Z 36004KT 7SM BKN080 00/M03 A2981 960 81 -500 360/04 RMK AO2
14837KMSN MSN20071117061009611/17/07 06:10:31  5-MIN KMSN 171210Z 36004KT 7SM BKN080 00/M03 A2981 960 81 -500 360/04 RMK AO2
14837KMSN MSN20071117061509611/17/07 06:15:31  5-MIN KMSN 171215Z 01004KT 7SM BKN080 00/M02 A2982 960 85 -500 010/04 RMK AO2
14837KMSN MSN20071117062009611/17/07 06:20:31  5-MIN KMSN 171220Z 36004KT 7SM OVC080 00/M02 A2982 960 85 -600 360/04 RMK AO2
14837KMSN MSN20071117062509611/17/07 06:25:31  5-MIN KMSN 171225Z 36004KT 7SM OVC080 00/M02 A2982 950 85 -600 360/04 RMK AO2
14837KMSN MSN20071117063009611/17/07 06:30:31  5-MIN KMSN 171230Z 36003KT 7SM OVC075 00/M02 A2982 950 85 -600 360/03 RMK AO2
14837KMSN MSN20071117063509611/17/07 06:35:31  5-MIN KMSN 171235Z 01004KT 7SM BKN075 00/M02 A2982 950 85 -600 010/04 RMK AO2
14837KMSN MSN20071117064009611/17/07 06:40:31  5-MIN KMSN 171240Z 02005KT 7SM BKN075 00/M02 A2983 950 85 -600 020/05 RMK AO2
14837KMSN MSN20071117064509611/17/07 06:45:31  5-MIN KMSN 171245Z 01004KT 7SM BKN075 01/M02 A2983 950 82 -500 360/04 RMK AO2
14837KMSN MSN20071117065011311/17/07 06:50:31  5-MIN KMSN 171250Z 01004KT 7SM BKN075 01/M02 A2983 950 82 -500 360/04 RMK AO2 SLP110 T00061022
14837KMSN MSN20071117065509611/17/07 06:55:31  5-MIN KMSN 171255Z 36003KT 7SM BKN070 01/M02 A2984 940 82 -500 360/03 RMK AO2
14837KMSN MSN20071117070009611/17/07 07:00:31  5-MIN KMSN 171300Z 36003KT 7SM BKN070 01/M02 A2984 940 82 -500 360/03 RMK AO2
14837KMSN MSN20071117070509611/17/07 07:05:31  5-MIN KMSN 171305Z 36004KT 7SM BKN070 01/M02 A2984 940 85 -500 360/04 RMK AO2
14837KMSN MSN20071117071009911/17/07 07:10:31  5-MIN KMSN 171310Z 36004KT 6SM BR BKN070 01/M02 A2985 930 85 -500 360/04 RMK AO2
14837KMSN MSN20071117071509911/17/07 07:15:31  5-MIN KMSN 171315Z 01004KT 5SM BR BKN065 01/M02 A2985 930 85 -500 010/04 RMK AO2
14837KMSN MSN20071117072009911/17/07 07:20:31  5-MIN KMSN 171320Z 01005KT 5SM BR BKN065 01/M02 A2985 930 85 -500 010/05 RMK AO2
14837KMSN MSN20071117072510611/17/07 07:25:31  5-MIN KMSN 171325Z 01004KT 5SM BR SCT065 BKN095 01/M02 A2985 930 85 -500 360/04 RMK AO2
14837KMSN MSN20071117073010611/17/07 07:30:31  5-MIN KMSN 171330Z 36005KT 5SM BR SCT070 BKN095 01/M02 A2985 930 85 -500 360/05 RMK AO2
14837KMSN MSN20071117073510611/17/07 07:35:31  5-MIN KMSN 171335Z 36005KT 5SM BR SCT070 BKN095 01/M02 A2985 930 85 -500 360/05 RMK AO2
14837KMSN MSN20071117074010611/17/07 07:40:31  5-MIN KMSN 171340Z 36005KT 5SM HZ SCT075 BKN095 01/M02 A2985 930 82 -500 360/05 RMK AO2
14837KMSN MSN20071117074510611/17/07 07:45:31  5-MIN KMSN 171345Z 02006KT 4SM BR SCT075 BKN095 01/M01 A2985 930 85 -400 010/06 RMK AO2
14837KMSN MSN20071117075012311/17/07 07:50:31  5-MIN KMSN 171350Z 02006KT 4SM BR BKN070 BKN095 01/M01 A2986 920 85 -500 010/06 RMK AO2 SLP119 T00111011
14837KMSN MSN20071117075510611/17/07 07:55:31  5-MIN KMSN 171355Z 01006KT 4SM BR FEW065 BKN080 01/M01 A2986 920 85 -500 010/06 RMK AO2
14837KMSN MSN20071117080009911/17/07 08:00:31  5-MIN KMSN 171400Z 01006KT 4SM BR SCT070 01/M01 A2986 920 85 -500 010/06 RMK AO2
14837KMSN MSN20071117080509911/17/07 08:05:31  5-MIN KMSN 171405Z 02007KT 4SM BR SCT065 02/M01 A2986 920 85 -400 020/07 RMK AO2
14837KMSN MSN20071117081009911/17/07 08:10:31  5-MIN KMSN 171410Z 02006KT 4SM BR FEW065 02/M01 A2987 920 85 -400 020/06 RMK AO2
14837KMSN MSN20071117081509911/17/07 08:15:31  5-MIN KMSN 171415Z 02007KT 4SM BR FEW065 02/M01 A2986 920 85 -400 020/07 RMK AO2
14837KMSN MSN20071117082009811/17/07 08:20:31  5-MIN KMSN 171420Z 03006KT 4SM BR FEW060 02/00 A2987 910 85 -300 030/06 RMK AO2
14837KMSN MSN20071117082509811/17/07 08:25:31  5-MIN KMSN 171425Z 02008KT 4SM BR FEW060 02/00 A2987 910 85 -300 020/08 RMK AO2
14837KMSN MSN20071117083009811/17/07 08:30:31  5-MIN KMSN 171430Z 02009KT 4SM BR FEW065 02/00 A2987 910 85 -300 010/09 RMK AO2
14837KMSN MSN20071117083509811/17/07 08:35:31  5-MIN KMSN 171435Z 02007KT 4SM HZ FEW080 03/00 A2988 900 82 -300 020/07 RMK AO2
14837KMSN MSN20071117084009811/17/07 08:40:31  5-MIN KMSN 171440Z 02009KT 4SM BR FEW080 03/01 A2988 900 85 -300 020/09 RMK AO2
14837KMSN MSN20071117084509811/17/07 08:45:31  5-MIN KMSN 171445Z 02009KT 4SM BR FEW080 03/01 A2989 900 85 -300 020/09 RMK AO2
14837KMSN MSN20071117085012111/17/07 08:50:31  5-MIN KMSN 171450Z 02008KT 4SM HZ FEW080 03/01 A2989 900 82 -200 020/08 RMK AO2 SLP129 T00330006 51010
14837KMSN MSN20071117085509511/17/07 08:55:31  5-MIN KMSN 171455Z 03008KT 4SM HZ CLR 03/01 A2989 890 82 -200 030/08 RMK AO2
14837KMSN MSN20071117090009511/17/07 09:00:31  5-MIN KMSN 171500Z 03010KT 4SM HZ CLR 03/01 A2989 890 82 -200 020/10 RMK AO2
14837KMSN MSN20071117090509511/17/07 09:05:31  5-MIN KMSN 171505Z 02008KT 4SM HZ CLR 03/01 A2989 890 82 -200 020/08 RMK AO2
14837KMSN MSN20071117091009511/17/07 09:10:31  5-MIN KMSN 171510Z 03008KT 4SM HZ CLR 04/01 A2989 890 82 -200 030/08 RMK AO2
14837KMSN MSN20071117091509811/17/07 09:15:31  5-MIN KMSN 171515Z 03008KT 4SM HZ FEW065 04/01 A2990 890 82 -200 020/08 RMK AO2
14837KMSN MSN20071117092009811/17/07 09:20:31  5-MIN KMSN 171520Z 03010KT 4SM HZ SCT065 04/01 A2990 890 82 -200 030/10 RMK AO2
14837KMSN MSN20071117092509811/17/07 09:25:31  5-MIN KMSN 171525Z 03008KT 3SM HZ SCT060 04/01 A2990 880 82 -200 030/08 RMK AO2
14837KMSN MSN20071117093009811/17/07 09:30:31  5-MIN KMSN 171530Z 03009KT 3SM HZ SCT060 04/01 A2990 880 82 -200 030/09 RMK AO2
14837KMSN MSN20071117093511111/17/07 09:35:31  5-MIN KMSN 171535Z 03008KT 3SM -RA SCT060 04/02 A2990 880 85 -200 030/08 RMK AO2 RAB31 P0000
14837KMSN MSN20071117094011111/17/07 09:40:31  5-MIN KMSN 171540Z 03011KT 3SM -RA FEW060 04/02 A2990 880 85 -200 030/11 RMK AO2 RAB31 P0000
14837KMSN MSN20071117094511111/17/07 09:45:31  5-MIN KMSN 171545Z 03010KT 4SM -RA SCT060 04/02 A2991 880 85 -200 030/10 RMK AO2 RAB31 P0000
14837KMSN MSN20071117095012811/17/07 09:50:31  5-MIN KMSN 171550Z 04010KT 4SM -RA SCT060 04/02 A2991 880 85 -200 030/10 RMK AO2 RAB31 SLP136 P0000 T00390017
14837KMSN MSN20071117095510511/17/07 09:55:31  5-MIN KMSN 171555Z 03012KT 4SM -RA FEW011 04/02 A2991 880 82 -100 030/12 RMK AO2 P0000
14837KMSN MSN20071117100011511/17/07 10:00:31  5-MIN KMSN 171600Z 04009KT 4SM -RA BR FEW011 SCT030 04/02 A2991 870 85 -200 040/09 RMK AO2 P0000
14837KMSN MSN20071117100511811/17/07 10:05:31  5-MIN KMSN 171605Z 04010KT 3SM -RA BR SCT011 04/02 A2991 870 85 -100 040/10 RMK AO2 SFC VIS 3 P0000
14837KMSN MSN20071117101011511/17/07 10:10:31  5-MIN KMSN 171610Z 03011KT 3SM -RA BR BKN011 BKN029 04/02 A2992 870 85 -100 030/11 RMK AO2 P0000
14837KMSN MSN20071117101511511/17/07 10:15:31  5-MIN KMSN 171615Z 04009KT 3SM -RA BR BKN011 BKN029 04/02 A2992 870 85 -100 040/09 RMK AO2 P0000
14837KMSN MSN20071117102011511/17/07 10:20:31  5-MIN KMSN 171620Z 03009KT 3SM -RA BR BKN011 BKN027 04/02 A2992 860 85 -100 030/09 RMK AO2 P0000
14837KMSN MSN20071117102511511/17/07 10:25:31  5-MIN KMSN 171625Z 02011KT 3SM -RA BR BKN009 OVC027 04/02 A2992 860 85 -100 020/11 RMK AO2 P0000
14837KMSN MSN20071117103011511/17/07 10:30:31  5-MIN KMSN 171630Z 03010KT 3SM -RA BR BKN009 OVC027 04/02 A2992 860 85 -100 030/10 RMK AO2 P0000
14837KMSN MSN20071117103511511/17/07 10:35:31  5-MIN KMSN 171635Z 03011KT 3SM -RA BR BKN009 OVC029 04/02 A2992 860 85 -100 030/11 RMK AO2 P0000
14837KMSN MSN20071117104011511/17/07 10:40:31  5-MIN KMSN 171640Z 02009KT 3SM -RA BR SCT009 OVC029 04/02 A2993 860 85 -100 020/09 RMK AO2 P0000
14837KMSN MSN20071117104511511/17/07 10:45:31  5-MIN KMSN 171645Z 02012KT 3SM -RA BR SCT009 OVC029 05/03 A2993 860 85 -100 020/12 RMK AO2 P0000
14837KMSN MSN20071117105011511/17/07 10:50:31  5-MIN KMSN 171650Z 03011KT 3SM -RA BR BKN009 OVC031 04/02 A2993 860 85 -100 030/11 RMK AO2 P0000
14837KMSN MSN20071117105512211/17/07 10:55:31  5-MIN KMSN 171655Z 03009KT 3SM -RA BR BKN009 BKN013 OVC031 04/02 A2992 860 85 -100 020/09 RMK AO2 P0000
14837KMSN MSN20071117110012211/17/07 11:00:31  5-MIN KMSN 171700Z 04014KT 3SM -RA BR BKN009 BKN013 OVC031 04/02 A2993 860 85 -100 040/14 RMK AO2 P0000
14837KMSN MSN20071117110512911/17/07 11:05:31  5-MIN KMSN 171705Z 02013KT 2 1/2SM -RA BR BKN009 OVC031 04/02 A2993 860 89 -200 020/13 RMK AO2 TWR VIS 3 P0000
14837KMSN MSN20071117111012211/17/07 11:10:31  5-MIN KMSN 171710Z 02013KT 2 1/2SM -RA BR OVC009 04/02 A2993 860 89 -200 020/13 RMK AO2 TWR VIS 3 P0000
14837KMSN MSN20071117111513411/17/07 11:15:31  5-MIN KMSN 171715Z 03012KT 2 1/2SM -RA BR OVC009 03/02 A2993 850 89 -300 030/12 RMK AO2 TWR VIS 3 CIG 007V011 P0000
14837KMSN MSN20071117112010811/17/07 11:20:31  5-MIN KMSN 171720Z 03015KT 3SM -RA BR OVC007 03/02 A2993 850 89 -300 030/15 RMK AO2 P0000
14837KMSN MSN20071117112512011/17/07 11:25:31  5-MIN KMSN 171725Z 03014KT 3SM -RA BR OVC007 03/02 A2993 850 92 -300 030/14 RMK AO2 CIG 007V011 P0000
14837KMSN MSN20071117113010811/17/07 11:30:31  5-MIN KMSN 171730Z 03013KT 3SM -RA BR OVC007 03/02 A2993 850 89 -300 030/13 RMK AO2 P0000
14837KMSN MSN20071117113510811/17/07 11:35:31  5-MIN KMSN 171735Z 03014KT 3SM -RA BR OVC007 03/01 A2993 850 89 -300 030/14 RMK AO2 P0000
14837KMSN MSN20071117114010811/17/07 11:40:31  5-MIN KMSN 171740Z 03015KT 3SM -RA BR OVC007 03/01 A2994 850 89 -300 030/15 RMK AO2 P0000
14837KMSN MSN20071117114510811/17/07 11:45:31  5-MIN KMSN 171745Z 03014KT 3SM -RA BR OVC007 03/01 A2994 840 89 -300 030/14 RMK AO2 P0000
14837KMSN MSN20071117115014911/17/07 11:50:31  5-MIN KMSN 171750Z 03010KT 3SM -RA BR OVC007 03/01 A2994 840 89 -300 020/10 RMK AO2 SLP150 P0000 60000 T00280011 10050 21006 53026
14837KMSN MSN20071117115510811/17/07 11:55:31  5-MIN KMSN 171755Z 02011KT 3SM -RA BR OVC007 03/01 A2995 840 89 -400 020/11 RMK AO2 P0000
14837KMSN MSN20071117120010811/17/07 12:00:31  5-MIN KMSN 171800Z 02011KT 3SM -RA BR OVC007 03/01 A2995 840 89 -400 010/11 RMK AO2 P0000
14837KMSN MSN20071117120511811/17/07 12:05:31  5-MIN KMSN 171805Z 02013KT 3SM -RA BR OVC007 02/01 A2995 840 92 -400 020/13 RMK AO2 SFC VIS 3 P0000
14837KMSN MSN20071117121011811/17/07 12:10:31  5-MIN KMSN 171810Z 02012KT 3SM -RA BR OVC007 02/01 A2995 830 92 -400 020/12 RMK AO2 SFC VIS 4 P0000
14837KMSN MSN20071117121513011/17/07 12:15:31  5-MIN KMSN 171815Z 02012KT 3SM -RA BR OVC007 02/01 A2996 830 92 -400 020/12 RMK AO2 SFC VIS 4 CIG 006V011 P0000
14837KMSN MSN20071117122010811/17/07 12:20:31  5-MIN KMSN 171820Z 02012KT 5SM -RA BR OVC007 02/01 A2996 830 92 -400 020/12 RMK AO2 P0000
14837KMSN MSN20071117122512611/17/07 12:25:31  5-MIN KMSN 171825Z 02013G19KT 5SM -RA BR OVC007 02/01 A2996 830 92 -400 020/13G19 RMK AO2 CIG 006V011 P0000
14837KMSN MSN20071117123012611/17/07 12:30:31  5-MIN KMSN 171830Z 03012G19KT 4SM -RA BR OVC007 02/01 A2996 830 92 -400 030/12G19 RMK AO2 CIG 006V011 P0000
14837KMSN MSN20071117123512711/17/07 12:35:31  5-MIN KMSN 171835Z 03012KT 5SM -RA BR BKN007 OVC012 02/01 A2996 830 92 -400 030/12 RMK AO2 CIG 006V010 P0001
14837KMSN MSN20071117124012711/17/07 12:40:31  5-MIN KMSN 171840Z 03014KT 5SM -RA BR BKN007 OVC013 02/01 A2996 830 92 -400 030/14 RMK AO2 CIG 006V010 P0001
14837KMSN MSN20071117124512711/17/07 12:45:31  5-MIN KMSN 171845Z 03014KT 5SM -RA BR BKN007 OVC013 02/01 A2996 830 92 -400 030/14 RMK AO2 CIG 006V010 P0001
14837KMSN MSN20071117125014411/17/07 12:50:31  5-MIN KMSN 171850Z 04013KT 5SM -RA BR BKN007 OVC013 02/01 A2996 830 92 -400 030/13 RMK AO2 CIG 006V010 SLP154 P0001 T00220011
14837KMSN MSN20071117125512711/17/07 12:55:31  5-MIN KMSN 171855Z 04013KT 5SM -RA BR BKN007 OVC013 02/01 A2996 830 89 -400 040/13 RMK AO2 CIG 006V010 P0000
14837KMSN MSN20071117130012711/17/07 13:00:31  5-MIN KMSN 171900Z 03014KT 5SM -RA BR BKN007 OVC013 02/01 A2996 820 92 -400 030/14 RMK AO2 CIG 007V011 P0000
14837KMSN MSN20071117130512011/17/07 13:05:31  5-MIN KMSN 171905Z 03014KT 5SM -RA BR OVC009 02/01 A2996 820 92 -400 030/14 RMK AO2 CIG 007V013 P0001
14837KMSN MSN20071117131012811/17/07 13:10:31  5-MIN KMSN 171910Z 03013KT 5SM -RASN BR OVC009 02/01 A2997 820 92 -400 030/13 RMK AO2 SNB09 CIG 007V012 P0001
14837KMSN MSN20071117131512811/17/07 13:15:31  5-MIN KMSN 171915Z 03014KT 5SM -RASN BR OVC009 02/01 A2997 820 89 -400 030/14 RMK AO2 SNB09 CIG 007V012 P0001
14837KMSN MSN20071117132012811/17/07 13:20:31  5-MIN KMSN 171920Z 03014KT 6SM -RASN BR OVC009 02/01 A2997 820 89 -400 030/14 RMK AO2 SNB09 CIG 007V012 P0001
14837KMSN MSN20071117132512811/17/07 13:25:31  5-MIN KMSN 171925Z 03014KT 6SM -RASN BR OVC009 02/01 A2997 820 89 -400 030/14 RMK AO2 SNB09 CIG 007V011 P0001
14837KMSN MSN20071117133013411/17/07 13:30:31  5-MIN KMSN 171930Z 04014G19KT 6SM -RASN BR OVC009 02/01 A2997 810 89 -500 030/14G19 RMK AO2 SNB09 CIG 007V011 P0001
14837KMSN MSN20071117133513411/17/07 13:35:31  5-MIN KMSN 171935Z 03014G19KT 5SM -RASN BR OVC009 02/01 A2997 810 89 -500 030/14G19 RMK AO2 SNB09 CIG 007V013 P0001
14837KMSN MSN20071117134013411/17/07 13:40:31  5-MIN KMSN 171940Z 03014G21KT 5SM -RASN BR OVC009 02/01 A2998 810 89 -500 030/14G21 RMK AO2 SNB09 CIG 007V011 P0001
14837KMSN MSN20071117134513411/17/07 13:45:31  5-MIN KMSN 171945Z 03014G21KT 5SM -RASN BR OVC009 02/01 A2998 810 89 -500 030/14G21 RMK AO2 SNB09 CIG 007V013 P0001
14837KMSN MSN20071117135014511/17/07 13:50:31  5-MIN KMSN 171950Z 04014KT 5SM -RASN BR OVC009 02/01 A2998 810 89 -500 040/14 RMK AO2 SNB09 CIG 007V013 SLP162 P0001 T00220006
14837KMSN MSN20071117135512211/17/07 13:55:31  5-MIN KMSN 171955Z 03014KT 6SM -RASN BR OVC009 02/01 A2998 810 89 -500 030/14 RMK AO2 CIG 007V012 P0000
14837KMSN MSN20071117140011011/17/07 14:00:31  5-MIN KMSN 172000Z 03016KT 6SM -RASN BR OVC009 02/01 A2999 800 89 -500 030/16 RMK AO2 P0000
14837KMSN MSN20071117140512811/17/07 14:05:31  5-MIN KMSN 172005Z 04013G21KT 6SM -RASN BR OVC009 02/01 A2999 800 92 -500 030/13G21 RMK AO2 CIG 007V011 P0000
14837KMSN MSN20071117141012811/17/07 14:10:31  5-MIN KMSN 172010Z 03011G21KT 6SM -RASN BR OVC009 02/01 A2999 800 92 -500 030/11G21 RMK AO2 CIG 007V013 P0000
14837KMSN MSN20071117141512811/17/07 14:15:31  5-MIN KMSN 172015Z 03014G20KT 6SM -RASN BR OVC009 02/01 A2999 800 92 -500 030/14G20 RMK AO2 CIG 007V013 P0000
14837KMSN MSN20071117142011611/17/07 14:20:31  5-MIN KMSN 172020Z 04011G19KT 5SM -RASN BR OVC011 02/01 A2999 800 92 -500 040/11G19 RMK AO2 P0000
14837KMSN MSN20071117142512911/17/07 14:25:31  5-MIN KMSN 172025Z 03011KT 5SM -RASN BR BKN011 OVC014 02/01 A3000 790 92 -500 030/11 RMK AO2 CIG 007V012 P0000
14837KMSN MSN20071117143012211/17/07 14:30:31  5-MIN KMSN 172030Z 04015KT 4SM -RASN BR OVC011 02/01 A3000 790 92 -500 030/15 RMK AO2 CIG 007V012 P0000
14837KMSN MSN20071117143511611/17/07 14:35:31  5-MIN KMSN 172035Z 03014G20KT 4SM -RASN BR OVC011 02/00 A3000 790 89 -600 030/14G20 RMK AO2 P0000
14837KMSN MSN20071117144011611/17/07 14:40:31  5-MIN KMSN 172040Z 03012G20KT 4SM -RASN BR OVC011 02/00 A3001 790 89 -600 030/12G20 RMK AO2 P0000
14837KMSN MSN20071117144511611/17/07 14:45:31  5-MIN KMSN 172045Z 04016G19KT 4SM -RASN BR OVC011 02/00 A3001 780 89 -600 040/16G19 RMK AO2 P0000
14837KMSN MSN20071117145011811/17/07 14:50:31  5-MIN KMSN 172050Z 04013KT 6SM -SN SCT009 OVC015 02/00 A3001 780 89 -600 040/13 RMK AO2 RAE49 P0000
14837KMSN MSN20071117145511811/17/07 14:55:31  5-MIN KMSN 172055Z 04011KT 6SM -SN SCT009 OVC015 02/00 A3002 780 89 -600 040/11 RMK AO2 SNB54 P0000
14837KMSN MSN20071117150011311/17/07 15:00:31  5-MIN KMSN 172100Z 03009KT 6SM -SN OVC012 02/00 A3002 780 89 -600 030/09 RMK AO2 SNB2054 P0000
14837KMSN MSN20071117150510511/17/07 15:05:31  5-MIN KMSN 172105Z 03011KT 5SM -SN OVC014 02/00 A3002 780 89 -600 030/11 RMK AO2 P0000
14837KMSN MSN20071117151010511/17/07 15:10:31  5-MIN KMSN 172110Z 04010KT 5SM -SN OVC014 02/00 A3002 770 89 -600 040/10 RMK AO2 P0000
14837KMSN MSN20071117151511111/17/07 15:15:31  5-MIN KMSN 172115Z 03012KT 5SM BR BKN012 OVC017 02/00 A3002 770 89 -600 030/12 RMK AO2 P0000
14837KMSN MSN20071117152010411/17/07 15:20:31  5-MIN KMSN 172120Z 03012KT 5SM BR OVC012 02/00 A3003 770 89 -600 030/12 RMK AO2 P0000
14837KMSN MSN20071117152510411/17/07 15:25:31  5-MIN KMSN 172125Z 03011KT 4SM BR OVC012 02/00 A3003 760 89 -600 030/11 RMK AO2 P0000
14837KMSN MSN20071117153010411/17/07 15:30:31  5-MIN KMSN 172130Z 03012KT 4SM BR OVC012 02/00 A3003 760 89 -600 030/12 RMK AO2 P0000
14837KMSN MSN20071117153510411/17/07 15:35:31  5-MIN KMSN 172135Z 04013KT 4SM BR OVC012 02/00 A3004 760 89 -600 030/13 RMK AO2 P0000
14837KMSN MSN20071117154010411/17/07 15:40:31  5-MIN KMSN 172140Z 03010KT 4SM BR OVC012 02/00 A3004 750 89 -600 030/10 RMK AO2 P0000
14837KMSN MSN20071117154511011/17/07 15:45:31  5-MIN KMSN 172145Z 03012KT 4SM BR OVC012 02/00 A3004 750 89 -600 030/12 RMK AO2 SNE11 P0000
14837KMSN MSN20071117155013311/17/07 15:50:31  5-MIN KMSN 172150Z 04011G18KT 5SM BR OVC012 02/00 A3004 750 89 -600 040/11G18 RMK AO2 SLP183 SNE11 P0000 T00170000
14837KMSN MSN20071117155511211/17/07 15:55:31  5-MIN KMSN 172155Z 04012KT 5SM BR BKN012 BKN020 OVC049 02/00 A3005 750 89 -600 040/12 RMK AO2
14837KMSN MSN20071117160011211/17/07 16:00:31  5-MIN KMSN 172200Z 04010KT 5SM BR BKN012 BKN017 OVC049 02/00 A3005 740 89 -600 040/10 RMK AO2
14837KMSN MSN20071117160511811/17/07 16:05:31  5-MIN KMSN 172205Z 04010G17KT 5SM BR BKN012 BKN019 OVC049 02/00 A3005 740 89 -600 040/10G17 RMK AO2
14837KMSN MSN20071117161011211/17/07 16:10:31  5-MIN KMSN 172210Z 03010KT 4SM BR BKN012 BKN020 OVC049 02/00 A3005 740 89 -600 030/10 RMK AO2
14837KMSN MSN20071117161511211/17/07 16:15:31  5-MIN KMSN 172215Z 03008KT 4SM BR BKN012 BKN020 OVC049 02/00 A3005 740 89 -600 030/08 RMK AO2
14837KMSN MSN20071117162011211/17/07 16:20:31  5-MIN KMSN 172220Z 03011KT 4SM BR BKN014 BKN030 OVC049 02/00 A3006 740 89 -600 030/11 RMK AO2
14837KMSN MSN20071117162511211/17/07 16:25:31  5-MIN KMSN 172225Z 03010KT 4SM BR BKN014 BKN022 OVC030 02/00 A3006 730 89 -600 030/10 RMK AO2
14837KMSN MSN20071117163010511/17/07 16:30:31  5-MIN KMSN 172230Z 03008KT 5SM BR BKN014 OVC019 02/00 A3006 730 89 -600 030/08 RMK AO2
14837KMSN MSN20071117163509811/17/07 16:35:31  5-MIN KMSN 172235Z 03008KT 6SM BR OVC014 02/00 A3007 730 89 -600 030/08 RMK AO2
14837KMSN MSN20071117164009811/17/07 16:40:31  5-MIN KMSN 172240Z 03010KT 6SM BR OVC014 02/00 A3007 730 89 -600 030/10 RMK AO2
14837KMSN MSN20071117164510511/17/07 16:45:31  5-MIN KMSN 172245Z 03012KT 6SM BR BKN014 OVC023 02/00 A3007 720 89 -600 030/12 RMK AO2
14837KMSN MSN20071117165011811/17/07 16:50:31  5-MIN KMSN 172250Z 03009KT 7SM -RA BKN016 OVC023 02/00 A3008 720 89 -600 030/09 RMK AO2 RAB49 P0000
14837KMSN MSN20071117165511211/17/07 16:55:31  5-MIN KMSN 172255Z 03009KT 7SM -RA BKN016 OVC024 02/00 A3008 720 89 -600 030/09 RMK AO2 P0000
14837KMSN MSN20071117170012011/17/07 17:00:31  5-MIN KMSN 172300Z 03010KT 8SM -RA SCT013 BKN019 OVC026 02/M01 A3008 710 85 -600 030/10 RMK AO2 P0000
14837KMSN MSN20071117170512011/17/07 17:05:31  5-MIN KMSN 172305Z 04010KT 9SM -RA SCT013 BKN019 OVC026 02/M01 A3008 710 85 -600 040/10 RMK AO2 P0000
14837KMSN MSN20071117171012011/17/07 17:10:31  5-MIN KMSN 172310Z 03010KT 9SM -RA FEW013 SCT019 OVC026 02/M01 A3009 710 85 -700 030/10 RMK AO2 P0000
14837KMSN MSN20071117171511611/17/07 17:15:31  5-MIN KMSN 172315Z 03012KT 10SM FEW013 OVC026 02/M01 A3009 710 85 -700 030/12 RMK AO2 RAE11 P0000
14837KMSN MSN20071117172012211/17/07 17:20:31  5-MIN KMSN 172320Z 04011KT 9SM FEW013 BKN026 OVC039 02/M01 A3009 710 85 -700 030/11 RMK AO2 RAE11 P0000
14837KMSN MSN20071117172511511/17/07 17:25:31  5-MIN KMSN 172325Z 03011KT 9SM FEW013 OVC028 01/M01 A3009 700 89 -700 030/11 RMK AO2 RAE11 P0000
14837KMSN MSN20071117173010811/17/07 17:30:31  5-MIN KMSN 172330Z 03011KT 9SM OVC028 01/M01 A3010 700 89 -700 030/11 RMK AO2 RAE11 P0000
14837KMSN MSN20071117173510811/17/07 17:35:31  5-MIN KMSN 172335Z 03011KT 9SM OVC030 01/M01 A3010 700 85 -700 030/11 RMK AO2 RAE11 P0000
14837KMSN MSN20071117174011511/17/07 17:40:31  5-MIN KMSN 172340Z 03009KT 9SM SCT025 OVC030 01/M01 A3010 690 89 -700 030/09 RMK AO2 RAE11 P0000
14837KMSN MSN20071117174512311/17/07 17:45:31  5-MIN KMSN 172345Z 03009KT 10SM SCT023 BKN030 OVC055 01/M01 A3011 690 85 -700 030/09 RMK AO2 RAE11 P0000
14837KMSN MSN20071117175016411/17/07 17:50:31  5-MIN KMSN 172350Z 03010KT 10SM SCT025 BKN030 OVC055 01/M01 A3011 690 85 -700 030/10 RMK AO2 RAE11 SLP205 P0000 60002 T00111011 10028 20011 53022
14837KMSN MSN20071117175511111/17/07 17:55:31  5-MIN KMSN 172355Z 03011KT 10SM SCT025 BKN030 OVC070 01/M01 A3011 690 85 -700 030/11 RMK AO2
14837KMSN MSN20071117180011111/17/07 18:00:31  5-MIN KMSN 180000Z 03011KT 10SM SCT025 BKN032 OVC070 01/M01 A3011 690 85 -700 030/11 RMK AO2
14837KMSN MSN20071117180511111/17/07 18:05:31  5-MIN KMSN 180005Z 03010KT 10SM SCT026 BKN037 OVC070 01/M01 A3011 690 85 -700 030/10 RMK AO2
14837KMSN MSN20071117181011111/17/07 18:10:31  5-MIN KMSN 180010Z 04011KT 10SM BKN026 BKN037 OVC070 01/M02 A3011 690 82 -700 030/11 RMK AO2
14837KMSN MSN20071117181511111/17/07 18:15:31  5-MIN KMSN 180015Z 03011KT 10SM SCT026 BKN037 OVC070 01/M01 A3011 690 85 -700 030/11 RMK AO2
14837KMSN MSN20071117182011111/17/07 18:20:31  5-MIN KMSN 180020Z 04011KT 10SM FEW028 SCT060 OVC070 01/M02 A3011 690 82 -700 040/11 RMK AO2
14837KMSN MSN20071117182511111/17/07 18:25:31  5-MIN KMSN 180025Z 03010KT 10SM FEW028 SCT037 OVC070 01/M02 A3011 690 82 -700 030/10 RMK AO2
14837KMSN MSN20071117183011111/17/07 18:30:31  5-MIN KMSN 180030Z 03009KT 10SM FEW028 SCT037 OVC075 01/M02 A3011 690 82 -800 030/09 RMK AO2
14837KMSN MSN20071117183511111/17/07 18:35:31  5-MIN KMSN 180035Z 03009KT 10SM FEW028 BKN060 OVC075 01/M02 A3012 680 82 -800 030/09 RMK AO2
14837KMSN MSN20071117184011111/17/07 18:40:31  5-MIN KMSN 180040Z 03009KT 10SM FEW037 BKN060 OVC075 01/M02 A3012 680 82 -800 030/09 RMK AO2
14837KMSN MSN20071117184511111/17/07 18:45:31  5-MIN KMSN 180045Z 04010KT 10SM SCT037 BKN060 OVC075 01/M02 A3012 680 82 -800 030/10 RMK AO2
14837KMSN MSN20071117185012811/17/07 18:50:31  5-MIN KMSN 180050Z 03009KT 10SM BKN035 BKN060 OVC075 01/M02 A3012 680 82 -800 030/09 RMK AO2 SLP208 T00111017
14837KMSN MSN20071117185512111/17/07 18:55:31  5-MIN KMSN 180055Z 03007KT 10SM -SN BKN035 BKN060 OVC075 01/M02 A3012 680 82 -800 030/07 RMK AO2 P0000
14837KMSN MSN20071117190012011/17/07 19:00:31  5-MIN KMSN 180100Z 03009KT 9SM -SN BKN037 BKN060 OVC075 01/M02 A3012 680 82 -800 030/09 RMK AO2 P0000
14837KMSN MSN20071117190512011/17/07 19:05:31  5-MIN KMSN 180105Z 04010KT 9SM -SN BKN037 BKN060 OVC070 01/M02 A3012 680 78 -800 030/10 RMK AO2 P0000
14837KMSN MSN20071117191011311/17/07 19:10:31  5-MIN KMSN 180110Z 04010KT 9SM -SN BKN037 OVC070 01/M02 A3012 680 82 -800 040/10 RMK AO2 P0000
14837KMSN MSN20071117191511311/17/07 19:15:31  5-MIN KMSN 180115Z 04008KT 9SM -SN BKN037 OVC070 01/M02 A3013 670 78 -800 030/08 RMK AO2 P0000
14837KMSN MSN20071117192011311/17/07 19:20:31  5-MIN KMSN 180120Z 03009KT 9SM -SN SCT037 OVC070 01/M02 A3013 670 82 -800 030/09 RMK AO2 P0000
14837KMSN MSN20071117192511311/17/07 19:25:31  5-MIN KMSN 180125Z 03008KT 9SM -SN FEW039 OVC070 01/M02 A3013 670 78 -800 030/08 RMK AO2 P0000
14837KMSN MSN20071117193011311/17/07 19:30:31  5-MIN KMSN 180130Z 03008KT 9SM -SN FEW039 OVC070 01/M02 A3013 670 82 -800 030/08 RMK AO2 P0000
14837KMSN MSN20071117193511311/17/07 19:35:31  5-MIN KMSN 180135Z 03009KT 9SM -SN FEW039 OVC070 01/M02 A3013 670 85 -800 030/09 RMK AO2 P0000
14837KMSN MSN20071117194010611/17/07 19:40:31  5-MIN KMSN 180140Z 02008KT 9SM -SN OVC070 01/M02 A3013 670 82 -800 020/08 RMK AO2 P0000
14837KMSN MSN20071117194510611/17/07 19:45:31  5-MIN KMSN 180145Z 02008KT 9SM -SN OVC070 01/M02 A3013 670 82 -800 020/08 RMK AO2 P0000
14837KMSN MSN20071117195012511/17/07 19:50:31  5-MIN KMSN 180150Z 02008KT 9SM OVC070 01/M02 A3013 670 82 -800 020/08 RMK AO2 SNE49 SLP213 P0000 T00061022
14837KMSN MSN20071117195509711/17/07 19:55:31  5-MIN KMSN 180155Z 03007KT 10SM OVC070 01/M02 A3013 670 82 -800 030/07 RMK AO2
14837KMSN MSN20071117200009711/17/07 20:00:31  5-MIN KMSN 180200Z 03007KT 10SM OVC070 01/M02 A3014 670 82 -800 030/07 RMK AO2
14837KMSN MSN20071117200509711/17/07 20:05:31  5-MIN KMSN 180205Z 03008KT 10SM OVC070 01/M02 A3014 660 82 -800 030/08 RMK AO2
14837KMSN MSN20071117201009711/17/07 20:10:31  5-MIN KMSN 180210Z 02007KT 10SM OVC070 01/M02 A3014 660 82 -800 020/07 RMK AO2
14837KMSN MSN20071117201509711/17/07 20:15:31  5-MIN KMSN 180215Z 03006KT 10SM OVC070 01/M02 A3014 660 82 -800 030/06 RMK AO2
14837KMSN MSN20071117202009711/17/07 20:20:31  5-MIN KMSN 180220Z 02008KT 10SM OVC070 01/M02 A3014 660 82 -900 020/08 RMK AO2
14837KMSN MSN20071117202510411/17/07 20:25:31  5-MIN KMSN 180225Z 03007KT 10SM FEW037 OVC070 01/M02 A3014 660 82 -900 030/07 RMK AO2
14837KMSN MSN20071117203010411/17/07 20:30:31  5-MIN KMSN 180230Z 04006KT 10SM FEW037 OVC070 01/M02 A3015 660 82 -900 030/06 RMK AO2
14837KMSN MSN20071117203509711/17/07 20:35:31  5-MIN KMSN 180235Z 03007KT 10SM OVC070 01/M03 A3015 650 78 -900 030/07 RMK AO2
14837KMSN MSN20071117204009711/17/07 20:40:31  5-MIN KMSN 180240Z 04008KT 10SM OVC070 01/M03 A3015 650 78 -900 030/08 RMK AO2
14837KMSN MSN20071117204509711/17/07 20:45:31  5-MIN KMSN 180245Z 04008KT 10SM OVC070 01/M03 A3015 650 78 -900 040/08 RMK AO2
14837KMSN MSN20071117205012611/17/07 20:50:31  5-MIN KMSN 180250Z 04006KT 10SM OVC070 01/M03 A3015 650 78 -900 040/06 RMK AO2 SLP219 60000 T00061028 51031
14837KMSN MSN20071117205509711/17/07 20:55:31  5-MIN KMSN 180255Z 04006KT 10SM OVC070 01/M03 A3015 650 78 -900 040/06 RMK AO2
14837KMSN MSN20071117210010411/17/07 21:00:31  5-MIN KMSN 180300Z 04006KT 10SM FEW036 OVC070 01/M03 A3016 650 78 -900 040/06 RMK AO2
14837KMSN MSN20071117210510411/17/07 21:05:31  5-MIN KMSN 180305Z 04007KT 10SM SCT036 OVC070 01/M03 A3016 650 78 -900 040/07 RMK AO2
14837KMSN MSN20071117211010411/17/07 21:10:31  5-MIN KMSN 180310Z 04006KT 10SM BKN038 OVC070 01/M03 A3016 640 75 -900 040/06 RMK AO2
14837KMSN MSN20071117211510411/17/07 21:15:31  5-MIN KMSN 180315Z 03008KT 10SM BKN038 OVC075 01/M03 A3016 640 75 -900 030/08 RMK AO2
14837KMSN MSN20071117212010411/17/07 21:20:31  5-MIN KMSN 180320Z 03007KT 10SM BKN038 OVC075 01/M03 A3016 640 75 -900 030/07 RMK AO2
14837KMSN MSN20071117212510411/17/07 21:25:31  5-MIN KMSN 180325Z 03007KT 10SM BKN040 OVC075 01/M03 A3016 640 75 -900 030/07 RMK AO2
14837KMSN MSN20071117213010411/17/07 21:30:31  5-MIN KMSN 180330Z 03009KT 10SM BKN040 OVC075 01/M03 A3016 640 75 -900 030/09 RMK AO2
14837KMSN MSN20071117213510411/17/07 21:35:31  5-MIN KMSN 180335Z 03009KT 10SM BKN040 OVC075 01/M03 A3017 640 75 -900 030/09 RMK AO2
14837KMSN MSN20071117214011111/17/07 21:40:31  5-MIN KMSN 180340Z 03008KT 10SM SCT040 SCT060 OVC075 01/M03 A3017 640 75 -900 030/08 RMK AO2
14837KMSN MSN20071117214511111/17/07 21:45:31  5-MIN KMSN 180345Z 03007KT 10SM FEW024 SCT040 OVC070 01/M03 A3017 630 75 -900 030/07 RMK AO2
14837KMSN MSN20071117215012811/17/07 21:50:31  5-MIN KMSN 180350Z 04010KT 10SM FEW024 SCT042 OVC070 01/M03 A3017 640 75 -900 040/10 RMK AO2 SLP225 T00061033
14837KMSN MSN20071117215511111/17/07 21:55:31  5-MIN KMSN 180355Z 04009KT 10SM FEW024 SCT060 OVC075 01/M04 A3017 630 72 -900 040/09 RMK AO2
14837KMSN MSN20071117220011011/17/07 22:00:31  5-MIN KMSN 180400Z 04013G16KT 10SM FEW024 OVC070 01/M04 A3017 630 72 -900 040/13G16 RMK AO2
14837KMSN MSN20071117220511011/17/07 22:05:31  5-MIN KMSN 180405Z 04011G16KT 10SM FEW024 OVC070 01/M04 A3017 630 69 -900 030/11G16 RMK AO2
14837KMSN MSN20071117221010411/17/07 22:10:31  5-MIN KMSN 180410Z 03010KT 10SM FEW024 OVC070 01/M04 A3017 630 69 -900 030/10 RMK AO2
14837KMSN MSN20071117221511111/17/07 22:15:31  5-MIN KMSN 180415Z 03015G18KT 10SM FEW024 OVC070 00/M04 A3017 630 75 -1000 030/15G18 RMK AO2
14837KMSN MSN20071117222010411/17/07 22:20:31  5-MIN KMSN 180420Z 04014G18KT 10SM OVC070 00/M04 A3017 630 72 -1000 040/14G18 RMK AO2
14837KMSN MSN20071117222509811/17/07 22:25:31  5-MIN KMSN 180425Z 04013KT 10SM OVC070 00/M05 A3017 630 69 -1000 040/13 RMK AO2
14837KMSN MSN20071117223009811/17/07 22:30:31  5-MIN KMSN 180430Z 04011KT 10SM OVC070 00/M05 A3017 630 69 -1000 040/11 RMK AO2
14837KMSN MSN20071117223509811/17/07 22:35:31  5-MIN KMSN 180435Z 04008KT 10SM OVC070 00/M05 A3018 630 69 -1000 040/08 RMK AO2
14837KMSN MSN20071117224009811/17/07 22:40:31  5-MIN KMSN 180440Z 02008KT 10SM OVC070 00/M04 A3018 630 72 -1000 020/08 RMK AO2
14837KMSN MSN20071117224509811/17/07 22:45:31  5-MIN KMSN 180445Z 02010KT 10SM OVC070 00/M04 A3018 630 72 -1000 020/10 RMK AO2
14837KMSN MSN20071117225011511/17/07 22:50:31  5-MIN KMSN 180450Z 03009KT 10SM OVC070 00/M04 A3018 630 72 -1000 020/09 RMK AO2 SLP228 T00001044
14837KMSN MSN20071117225510611/17/07 22:55:31  5-MIN KMSN 180455Z 02010KT 10SM FEW031 OVC070 M01/M04 A3018 620 75 -1000 020/10 RMK AO2
14837KMSN MSN20071117230010611/17/07 23:00:31  5-MIN KMSN 180500Z 02008KT 10SM FEW031 OVC070 M01/M05 A3018 620 72 -1000 020/08 RMK AO2
14837KMSN MSN20071117230510611/17/07 23:05:31  5-MIN KMSN 180505Z 02008KT 10SM FEW022 OVC070 M01/M05 A3019 620 72 -1000 020/08 RMK AO2
14837KMSN MSN20071117231010611/17/07 23:10:31  5-MIN KMSN 180510Z 03010KT 10SM SCT022 OVC070 M01/M05 A3019 620 72 -1000 030/10 RMK AO2
14837KMSN MSN20071117231510611/17/07 23:15:31  5-MIN KMSN 180515Z 02008KT 10SM SCT022 OVC070 M01/M05 A3019 620 72 -1000 020/08 RMK AO2
14837KMSN MSN20071117232010611/17/07 23:20:31  5-MIN KMSN 180520Z 02009KT 10SM FEW022 OVC070 M01/M05 A3019 620 72 -1000 020/09 RMK AO2
14837KMSN MSN20071117232510611/17/07 23:25:31  5-MIN KMSN 180525Z 02008KT 10SM FEW022 OVC070 M01/M05 A3019 610 72 -1000 020/08 RMK AO2
14837KMSN MSN20071117233010611/17/07 23:30:31  5-MIN KMSN 180530Z 03011KT 10SM FEW022 OVC070 M01/M05 A3019 610 72 -1100 030/11 RMK AO2
14837KMSN MSN20071117233510611/17/07 23:35:31  5-MIN KMSN 180535Z 03008KT 10SM FEW022 OVC070 M01/M05 A3019 610 72 -1100 030/08 RMK AO2
14837KMSN MSN20071117234009911/17/07 23:40:31  5-MIN KMSN 180540Z 03008KT 10SM OVC070 M01/M05 A3019 610 72 -1100 030/08 RMK AO2
14837KMSN MSN20071117234509911/17/07 23:45:31  5-MIN KMSN 180545Z 03009KT 10SM OVC070 M01/M05 A3020 610 72 -1100 030/09 RMK AO2
14837KMSN MSN20071117235015011/17/07 23:50:31  5-MIN KMSN 180550Z 03009KT 10SM OVC070 M01/M06 A3020 610 69 -1100 030/09 RMK AO2 SLP235 60000 T10061056 10011 21006 400501033 53015
14837KMSN MSN20071117235509911/17/07 23:55:31  5-MIN KMSN 180555Z 03009KT 10SM OVC070 M01/M05 A3020 610 72 -1100 030/09 RMK AO2
14837KMSN MSN20071118000009911/18/07 00:00:32  5-MIN KMSN 180600Z 03010KT 10SM OVC070 M01/M06 A3020 610 69 -1100 030/10 RMK AO2
14837KMSN MSN20071118000509911/18/07 00:05:31  5-MIN KMSN 180605Z 03008KT 10SM OVC070 M01/M06 A3020 610 69 -1100 030/08 RMK AO2
14837KMSN MSN20071118001010611/18/07 00:10:31  5-MIN KMSN 180610Z 03009KT 10SM FEW020 OVC070 M01/M06 A3020 610 69 -1100 020/09 RMK AO2
14837KMSN MSN20071118001510611/18/07 00:15:31  5-MIN KMSN 180615Z 03008KT 10SM FEW020 OVC070 M01/M05 A3020 610 72 -1100 030/08 RMK AO2
14837KMSN MSN20071118002010611/18/07 00:20:31  5-MIN KMSN 180620Z 03007KT 10SM FEW020 OVC070 M01/M06 A3020 600 69 -1100 030/07 RMK AO2
14837KMSN MSN20071118002509911/18/07 00:25:31  5-MIN KMSN 180625Z 02009KT 10SM OVC070 M01/M06 A3021 600 69 -1100 020/09 RMK AO2
14837KMSN MSN20071118003010611/18/07 00:30:31  5-MIN KMSN 180630Z 02010KT 10SM FEW020 OVC070 M01/M06 A3021 600 69 -1100 020/10 RMK AO2
14837KMSN MSN20071118003510611/18/07 00:35:31  5-MIN KMSN 180635Z 02007KT 10SM FEW020 OVC070 M01/M06 A3021 600 69 -1100 020/07 RMK AO2
14837KMSN MSN20071118004010611/18/07 00:40:31  5-MIN KMSN 180640Z 01006KT 10SM FEW020 OVC070 M01/M05 A3021 600 75 -1100 010/06 RMK AO2
14837KMSN MSN20071118004510611/18/07 00:45:31  5-MIN KMSN 180645Z 02007KT 10SM FEW020 OVC070 M01/M05 A3021 600 75 -1100 020/07 RMK AO2
14837KMSN MSN20071118005012311/18/07 00:50:31  5-MIN KMSN 180650Z 02009KT 10SM FEW020 OVC070 M01/M05 A3021 590 75 -1100 020/09 RMK AO2 SLP241 T10111050
14837KMSN MSN20071118005510611/18/07 00:55:31  5-MIN KMSN 180655Z 02009KT 10SM FEW020 OVC070 M01/M06 A3022 590 72 -1100 020/09 RMK AO2
14837KMSN MSN20071118010009911/18/07 01:00:31  5-MIN KMSN 180700Z 02008KT 10SM OVC070 M01/M06 A3022 590 72 -1100 020/08 RMK AO2
14837KMSN MSN20071118010509911/18/07 01:05:31  5-MIN KMSN 180705Z 02008KT 10SM OVC070 M01/M06 A3022 590 72 -1100 020/08 RMK AO2
14837KMSN MSN20071118011009911/18/07 01:10:31  5-MIN KMSN 180710Z 02009KT 10SM OVC070 M01/M05 A3022 590 75 -1100 020/09 RMK AO2
14837KMSN MSN20071118011509911/18/07 01:15:31  5-MIN KMSN 180715Z 02007KT 10SM OVC070 M01/M06 A3022 590 72 -1200 020/07 RMK AO2
14837KMSN MSN20071118012010611/18/07 01:20:31  5-MIN KMSN 180720Z 02007KT 10SM FEW023 OVC070 M01/M05 A3022 590 75 -1200 020/07 RMK AO2
14837KMSN MSN20071118012511311/18/07 01:25:31  5-MIN KMSN 180725Z 02007KT 10SM FEW017 SCT023 OVC070 M01/M05 A3023 580 75 -1200 020/07 RMK AO2
14837KMSN MSN20071118013011311/18/07 01:30:31  5-MIN KMSN 180730Z 02009KT 10SM FEW017 BKN023 OVC070 M01/M05 A3023 580 75 -1200 020/09 RMK AO2
14837KMSN MSN20071118013511311/18/07 01:35:31  5-MIN KMSN 180735Z 03008KT 10SM SCT017 BKN023 OVC070 M01/M05 A3023 580 72 -1100 030/08 RMK AO2
14837KMSN MSN20071118014011311/18/07 01:40:31  5-MIN KMSN 180740Z 03008KT 10SM SCT017 BKN023 OVC070 M01/M05 A3023 580 72 -1100 030/08 RMK AO2
14837KMSN MSN20071118014510611/18/07 01:45:31  5-MIN KMSN 180745Z 02009KT 10SM FEW017 OVC023 M01/M05 A3023 580 72 -1100 020/09 RMK AO2
14837KMSN MSN20071118015012311/18/07 01:50:31  5-MIN KMSN 180750Z 02007KT 10SM FEW017 OVC023 M01/M06 A3023 580 69 -1100 020/07 RMK AO2 SLP247 T10061056
14837KMSN MSN20071118015510611/18/07 01:55:31  5-MIN KMSN 180755Z 03006KT 10SM FEW017 OVC023 M01/M05 A3023 580 75 -1200 020/06 RMK AO2
14837KMSN MSN20071118020010611/18/07 02:00:31  5-MIN KMSN 180800Z 02007KT 10SM FEW017 OVC023 M01/M05 A3024 570 75 -1200 020/07 RMK AO2
14837KMSN MSN20071118020510611/18/07 02:05:31  5-MIN KMSN 180805Z 02007KT 10SM SCT017 OVC023 M01/M05 A3024 570 72 -1100 020/07 RMK AO2
14837KMSN MSN20071118021010611/18/07 02:10:31  5-MIN KMSN 180810Z 03007KT 10SM BKN017 OVC023 M01/M05 A3024 570 72 -1100 030/07 RMK AO2
14837KMSN MSN20071118021510611/18/07 02:15:31  5-MIN KMSN 180815Z 03006KT 10SM BKN017 OVC023 M01/M05 A3024 570 72 -1100 030/06 RMK AO2
14837KMSN MSN20071118022010611/18/07 02:20:31  5-MIN KMSN 180820Z 02006KT 10SM BKN017 OVC023 M01/M05 A3024 570 72 -1100 020/06 RMK AO2
14837KMSN MSN20071118022510611/18/07 02:25:31  5-MIN KMSN 180825Z 02008KT 10SM BKN017 OVC023 M01/M05 A3024 570 75 -1200 020/08 RMK AO2
14837KMSN MSN20071118023010611/18/07 02:30:31  5-MIN KMSN 180830Z 01007KT 10SM BKN017 OVC023 M01/M05 A3024 570 75 -1200 010/07 RMK AO2
14837KMSN MSN20071118023511311/18/07 02:35:31  5-MIN KMSN 180835Z 02007KT 10SM BKN017 BKN023 OVC070 M01/M05 A3024 570 75 -1200 020/07 RMK AO2
14837KMSN MSN20071118024011311/18/07 02:40:31  5-MIN KMSN 180840Z 03007KT 10SM SCT017 BKN023 OVC070 M01/M05 A3024 570 75 -1200 020/07 RMK AO2
14837KMSN MSN20071118024511311/18/07 02:45:31  5-MIN KMSN 180845Z 01007KT 10SM BKN015 BKN023 OVC070 M01/M05 A3024 570 75 -1200 010/07 RMK AO2
14837KMSN MSN20071118025013611/18/07 02:50:31  5-MIN KMSN 180850Z 01006KT 10SM BKN015 BKN023 OVC070 M01/M05 A3024 570 75 -1200 010/06 RMK AO2 SLP251 T10111050 53014
14837KMSN MSN20071118025510611/18/07 02:55:31  5-MIN KMSN 180855Z 03008KT 10SM BKN013 OVC070 M01/M05 A3024 570 75 -1200 030/08 RMK AO2
14837KMSN MSN20071118030010611/18/07 03:00:31  5-MIN KMSN 180900Z 02008KT 10SM BKN013 OVC070 M01/M05 A3024 570 75 -1200 020/08 RMK AO2
14837KMSN MSN20071118030509911/18/07 03:05:31  5-MIN KMSN 180905Z 02007KT 10SM OVC013 M01/M05 A3024 570 75 -1200 020/07 RMK AO2
14837KMSN MSN20071118031010611/18/07 03:10:31  5-MIN KMSN 180910Z 03007KT 10SM BKN013 OVC070 M01/M05 A3024 570 75 -1200 030/07 RMK AO2
14837KMSN MSN20071118031510611/18/07 03:15:31  5-MIN KMSN 180915Z 03008KT 10SM BKN013 OVC070 M01/M05 A3024 570 75 -1200 030/08 RMK AO2
14837KMSN MSN20071118032010611/18/07 03:20:31  5-MIN KMSN 180920Z 02007KT 10SM SCT013 OVC070 M01/M05 A3024 570 75 -1200 020/07 RMK AO2
14837KMSN MSN20071118032510611/18/07 03:25:31  5-MIN KMSN 180925Z 03009KT 10SM SCT013 OVC070 M01/M05 A3024 570 75 -1200 030/09 RMK AO2
14837KMSN MSN20071118033010611/18/07 03:30:31  5-MIN KMSN 180930Z 03008KT 10SM FEW013 OVC070 M01/M05 A3024 570 75 -1200 030/08 RMK AO2
14837KMSN MSN20071118033509911/18/07 03:35:31  5-MIN KMSN 180935Z 03008KT 10SM OVC070 M01/M05 A3024 570 75 -1200 030/08 RMK AO2
14837KMSN MSN20071118034009911/18/07 03:40:31  5-MIN KMSN 180940Z 03008KT 10SM OVC070 M01/M05 A3024 570 75 -1200 020/08 RMK AO2
14837KMSN MSN20071118034509911/18/07 03:45:31  5-MIN KMSN 180945Z 02007KT 10SM OVC070 M01/M05 A3024 570 75 -1200 020/07 RMK AO2
14837KMSN MSN20071118035012311/18/07 03:50:31  5-MIN KMSN 180950Z 02006KT 10SM FEW015 BKN070 M02/M05 A3024 570 78 -1200 020/06 RMK AO2 SLP250 T10171050
14837KMSN MSN20071118035509911/18/07 03:55:31  5-MIN KMSN 180955Z 02005KT 10SM OVC070 M02/M05 A3024 570 78 -1200 020/05 RMK AO2
14837KMSN MSN20071118040009911/18/07 04:00:31  5-MIN KMSN 181000Z 01005KT 10SM OVC070 M02/M05 A3025 560 78 -1300 010/05 RMK AO2
14837KMSN MSN20071118040509911/18/07 04:05:31  5-MIN KMSN 181005Z 01005KT 10SM OVC070 M02/M05 A3025 560 78 -1300 010/05 RMK AO2
14837KMSN MSN20071118041009911/18/07 04:10:31  5-MIN KMSN 181010Z 01005KT 10SM OVC070 M02/M05 A3025 560 78 -1300 010/05 RMK AO2
14837KMSN MSN20071118041509911/18/07 04:15:31  5-MIN KMSN 181015Z 02005KT 10SM OVC070 M02/M05 A3025 560 78 -1300 020/05 RMK AO2
14837KMSN MSN20071118042009911/18/07 04:20:31  5-MIN KMSN 181020Z 01006KT 10SM OVC070 M02/M05 A3025 560 81 -1300 360/06 RMK AO2
14837KMSN MSN20071118042509911/18/07 04:25:31  5-MIN KMSN 181025Z 01005KT 10SM OVC070 M02/M05 A3025 560 81 -1300 010/05 RMK AO2
14837KMSN MSN20071118043009911/18/07 04:30:31  5-MIN KMSN 181030Z 02005KT 10SM OVC070 M02/M05 A3025 560 81 -1300 020/05 RMK AO2
14837KMSN MSN20071118043510611/18/07 04:35:31  5-MIN KMSN 181035Z 01006KT 10SM FEW011 OVC070 M03/M06 A3025 560 81 -1400 010/06 RMK AO2
14837KMSN MSN20071118044010611/18/07 04:40:31  5-MIN KMSN 181040Z 01005KT 10SM SCT011 OVC070 M03/M06 A3025 560 81 -1400 010/05 RMK AO2
14837KMSN MSN20071118044510611/18/07 04:45:31  5-MIN KMSN 181045Z 01005KT 10SM FEW011 BKN070 M03/M06 A3025 560 81 -1400 360/05 RMK AO2
14837KMSN MSN20071118045012311/18/07 04:50:31  5-MIN KMSN 181050Z 02005KT 10SM FEW011 BKN070 M03/M06 A3025 560 81 -1400 020/05 RMK AO2 SLP254 T10281056
14837KMSN MSN20071118045510611/18/07 04:55:31  5-MIN KMSN 181055Z 02005KT 10SM FEW011 SCT070 M03/M06 A3025 560 85 -1500 020/05 RMK AO2
14837KMSN MSN20071118050010611/18/07 05:00:31  5-MIN KMSN 181100Z 01005KT 10SM FEW011 SCT070 M03/M06 A3025 560 85 -1500 010/05 RMK AO2
14837KMSN MSN20071118050509911/18/07 05:05:31  5-MIN KMSN 181105Z 36005KT 10SM FEW011 M03/M06 A3025 560 85 -1500 360/05 RMK AO2
14837KMSN MSN20071118051010611/18/07 05:10:31  5-MIN KMSN 181110Z 36004KT 10SM FEW009 SCT070 M03/M06 A3025 560 85 -1500 360/04 RMK AO2
14837KMSN MSN20071118051510611/18/07 05:15:31  5-MIN KMSN 181115Z 01005KT 10SM FEW009 SCT070 M03/M06 A3025 560 85 -1500 360/05 RMK AO2
14837KMSN MSN20071118052010611/18/07 05:20:31  5-MIN KMSN 181120Z 35004KT 10SM FEW009 SCT070 M03/M06 A3025 560 85 -1500 350/04 RMK AO2
14837KMSN MSN20071118052510611/18/07 05:25:31  5-MIN KMSN 181125Z 34003KT 10SM FEW009 SCT070 M03/M06 A3025 560 85 -1500 340/03 RMK AO2
14837KMSN MSN20071118053010611/18/07 05:30:31  5-MIN KMSN 181130Z 34003KT 10SM FEW009 SCT070 M03/M06 A3025 560 85 -1500 340/03 RMK AO2
14837KMSN MSN20071118053510611/18/07 05:35:31  5-MIN KMSN 181135Z 34004KT 10SM FEW009 SCT070 M03/M06 A3025 560 85 -1500 340/04 RMK AO2
14837KMSN MSN20071118054010611/18/07 05:40:31  5-MIN KMSN 181140Z 35004KT 10SM FEW009 SCT070 M03/M06 A3025 560 85 -1500 340/04 RMK AO2
14837KMSN MSN20071118054510611/18/07 05:45:31  5-MIN KMSN 181145Z 35004KT 10SM FEW009 SCT070 M03/M06 A3025 560 85 -1500 350/04 RMK AO2
14837KMSN MSN20071118055013711/18/07 05:50:31  5-MIN KMSN 181150Z 36005KT 10SM CLR M03/M06 A3025 560 85 -1500 360/05 RMK AO2 SLP256 70002 T10331056 11006 21033 51014
14837KMSN MSN20071118055509611/18/07 05:55:31  5-MIN KMSN 181155Z 35005KT 10SM CLR M03/M06 A3025 560 85 -1500 350/05 RMK AO2
14837KMSN MSN20071118060009611/18/07 06:00:31  5-MIN KMSN 181200Z 36005KT 10SM CLR M03/M06 A3025 560 85 -1500 360/05 RMK AO2
14837KMSN MSN20071118060509611/18/07 06:05:31  5-MIN KMSN 181205Z 01005KT 10SM CLR M03/M06 A3025 560 85 -1500 360/05 RMK AO2
14837KMSN MSN20071118061009611/18/07 06:10:31  5-MIN KMSN 181210Z 36006KT 10SM CLR M04/M06 A3025 560 85 -1500 360/06 RMK AO2
14837KMSN MSN20071118061509611/18/07 06:15:31  5-MIN KMSN 181215Z 36004KT 10SM CLR M04/M06 A3025 560 85 -1500 360/04 RMK AO2
14837KMSN MSN20071118062009611/18/07 06:20:31  5-MIN KMSN 181220Z 01005KT 10SM CLR M04/M06 A3026 550 85 -1500 010/05 RMK AO2
14837KMSN MSN20071118062509611/18/07 06:25:31  5-MIN KMSN 181225Z 01005KT 10SM CLR M04/M06 A3026 560 88 -1600 010/05 RMK AO2
14837KMSN MSN20071118063009611/18/07 06:30:31  5-MIN KMSN 181230Z 01005KT 10SM CLR M05/M07 A3026 550 88 -1700 010/05 RMK AO2
14837KMSN MSN20071118063509611/18/07 06:35:31  5-MIN KMSN 181235Z 01004KT 10SM CLR M04/M06 A3026 550 88 -1600 010/04 RMK AO2
14837KMSN MSN20071118064009611/18/07 06:40:31  5-MIN KMSN 181240Z 02004KT 10SM CLR M04/M06 A3026 550 88 -1600 020/04 RMK AO2
14837KMSN MSN20071118064509611/18/07 06:45:31  5-MIN KMSN 181245Z 02004KT 10SM CLR M05/M06 A3026 550 92 -1700 020/04 RMK AO2
14837KMSN MSN20071118065011311/18/07 06:50:31  5-MIN KMSN 181250Z 02004KT 10SM CLR M05/M07 A3026 550 88 -1700 020/04 RMK AO2 SLP258 T10501067
14837KMSN MSN20071118065509611/18/07 06:55:31  5-MIN KMSN 181255Z 01004KT 10SM CLR M04/M06 A3026 550 88 -1600 010/04 RMK AO2
14837KMSN MSN20071118070009611/18/07 07:00:31  5-MIN KMSN 181300Z 01004KT 10SM CLR M04/M06 A3027 550 88 -1600 010/04 RMK AO2
14837KMSN MSN20071118070509611/18/07 07:05:31  5-MIN KMSN 181305Z 02004KT 10SM CLR M04/M06 A3027 540 88 -1600 010/04 RMK AO2
14837KMSN MSN20071118071009611/18/07 07:10:31  5-MIN KMSN 181310Z 02005KT 10SM CLR M04/M06 A3027 540 88 -1600 020/05 RMK AO2
14837KMSN MSN20071118071509611/18/07 07:15:31  5-MIN KMSN 181315Z 01004KT 10SM CLR M04/M06 A3027 540 88 -1600 010/04 RMK AO2
14837KMSN MSN20071118072009611/18/07 07:20:31  5-MIN KMSN 181320Z 01004KT 10SM CLR M04/M06 A3028 540 88 -1600 010/04 RMK AO2
14837KMSN MSN20071118072509511/18/07 07:25:31  5-MIN KMSN 181325Z 01003KT 9SM CLR M04/M06 A3027 540 88 -1600 010/03 RMK AO2
14837KMSN MSN20071118073009811/18/07 07:30:31  5-MIN KMSN 181330Z 02004KT 9SM FEW005 M04/M06 A3028 540 88 -1600 010/04 RMK AO2
14837KMSN MSN20071118073509811/18/07 07:35:31  5-MIN KMSN 181335Z 02004KT 8SM SCT005 M04/M06 A3028 530 88 -1600 020/04 RMK AO2
14837KMSN MSN20071118074009811/18/07 07:40:31  5-MIN KMSN 181340Z 03004KT 8SM BKN005 M04/M05 A3028 540 92 -1600 030/04 RMK AO2
14837KMSN MSN20071118074510111/18/07 07:45:31  5-MIN KMSN 181345Z 04007KT 5SM BR BKN005 M03/M05 A3028 530 88 -1500 040/07 RMK AO2
14837KMSN MSN20071118075011511/18/07 07:50:31  5-MIN KMSN 181350Z 03006KT 1 1/2SM BR BKN005 M03/M04 A3028 530 92 -1500 030/06 RMK AO2 SFC VIS 3
14837KMSN MSN20071118075511711/18/07 07:55:31  5-MIN KMSN 181355Z 04006KT 1/2SM FZFG OVC003 M03/M04 A3028 530 96 -1500 040/06 RMK AO2 CIG 001V005
14837KMSN MSN20071118080012911/18/07 08:00:31  5-MIN KMSN 181400Z 04005KT 1/4SM FZFG OVC003 M03/M04 A3028 530 92 -1400 040/05 RMK AO2 TWR VIS 1/2 CIG 001V004
14837KMSN MSN20071118080512911/18/07 08:05:31  5-MIN KMSN 181405Z 04005KT 1/4SM FZFG OVC001 M03/M03 A3028 530 96 -1400 040/05 RMK AO2 TWR VIS 1/2 CIG 001V004
14837KMSN MSN20071118081011711/18/07 08:10:31  5-MIN KMSN 181410Z 05005KT 1/4SM FZFG OVC001 M03/M03 A3029 530 96 -1400 050/05 RMK AO2 TWR VIS 1/2
14837KMSN MSN20071118081510511/18/07 08:15:31  5-MIN KMSN 181415Z 05005KT 1/4SM FZFG OVC001 M03/M03 A3029 530 96 -1400 050/05 RMK AO2
14837KMSN MSN20071118082010511/18/07 08:20:31  5-MIN KMSN 181420Z 04005KT 1/4SM FZFG OVC001 M03/M03 A3029 530 96 -1400 040/05 RMK AO2
14837KMSN MSN20071118082510511/18/07 08:25:31  5-MIN KMSN 181425Z 05005KT 1/4SM FZFG OVC001 M03/M03 A3029 520 96 -1400 050/05 RMK AO2
14837KMSN MSN20071118083010511/18/07 08:30:31  5-MIN KMSN 181430Z 07005KT 1/4SM FZFG OVC001 M02/M03 A3029 520 96 -1400 070/05 RMK AO2
14837KMSN MSN20071118083510611/18/07 08:35:31  5-MIN KMSN 181435Z 06003KT 1/4SM FZFG OVC001 M03/M03 A3030 520 100 -1500 060/03 RMK AO2
14837KMSN MSN20071118084011711/18/07 08:40:31  5-MIN KMSN 181440Z 06005KT 1/4SM FZFG OVC001 M02/M03 A3030 520 96 -1400 060/05 RMK AO2 SFC VIS 1/2
14837KMSN MSN20071118084510511/18/07 08:45:31  5-MIN KMSN 181445Z 06005KT 1/2SM FZFG OVC001 M02/M03 A3030 520 96 -1400 060/05 RMK AO2
14837KMSN MSN20071118085012811/18/07 08:50:31  5-MIN KMSN 181450Z 05006KT 1/2SM FZFG OVC001 M02/M03 A3030 520 96 -1400 050/06 RMK AO2 SLP270 T10221028 53014
14837KMSN MSN20071118085510111/18/07 08:55:31  5-MIN KMSN 181455Z 05005KT 1SM BR OVC001 M02/M02 A3030 520 96 -1300 050/05 RMK AO2
14837KMSN MSN20071118090010111/18/07 09:00:31  5-MIN KMSN 181500Z 06006KT 1SM BR OVC001 M02/M02 A3029 520 96 -1300 060/06 RMK AO2
14837KMSN MSN20071118090510111/18/07 09:05:31  5-MIN KMSN 181505Z 06006KT 1SM BR OVC001 M02/M02 A3029 520 96 -1300 060/06 RMK AO2
14837KMSN MSN20071118091010111/18/07 09:10:31  5-MIN KMSN 181510Z 05006KT 1SM BR OVC001 M02/M02 A3029 520 96 -1300 050/06 RMK AO2
14837KMSN MSN20071118091510111/18/07 09:15:31  5-MIN KMSN 181515Z 05006KT 1SM BR OVC001 M02/M02 A3029 520 96 -1300 050/06 RMK AO2
14837KMSN MSN20071118092011211/18/07 09:20:31  5-MIN KMSN 181520Z 05006KT 1SM BR OVC001 M02/M02 A3030 520 100 -1300 050/06 RMK AO2 SFC VIS 2
14837KMSN MSN20071118092510111/18/07 09:25:31  5-MIN KMSN 181525Z 08005KT 2SM BR OVC001 M01/M02 A3030 520 96 -1200 080/05 RMK AO2
14837KMSN MSN20071118093010111/18/07 09:30:31  5-MIN KMSN 181530Z 07005KT 2SM BR OVC003 M01/M02 A3030 510 96 -1200 070/05 RMK AO2
14837KMSN MSN20071118093511311/18/07 09:35:31  5-MIN KMSN 181535Z 07005KT 2SM BR OVC003 M01/M01 A3030 510 96 -1200 070/05 RMK AO2 CIG 001V006
14837KMSN MSN20071118094010111/18/07 09:40:31  5-MIN KMSN 181540Z 07003KT 2SM BR OVC003 M01/M01 A3031 510 96 -1200 070/03 RMK AO2
14837KMSN MSN20071118094510111/18/07 09:45:31  5-MIN KMSN 181545Z 06004KT 2SM BR OVC003 M01/M01 A3031 510 96 -1200 060/04 RMK AO2
14837KMSN MSN20071118095012811/18/07 09:50:31  5-MIN KMSN 181550Z 05004KT 2SM BR OVC003 M01/M02 A3031 510 92 -1200 050/04 RMK AO2 SFC VIS 3 SLP274 T10061017
14837KMSN MSN20071118095511011/18/07 09:55:31  5-MIN KMSN 181555Z 08004KT 2SM BR OVC003 00/M01 A3031 510 92 -1100 080/04 RMK AO2 SFC VIS 5
14837KMSN MSN20071118100010011/18/07 10:00:31  5-MIN KMSN 181600Z 08004KT 6SM BR BKN003 00/M02 A3031 500 88 -1100 080/04 RMK AO2
14837KMSN MSN20071118100510011/18/07 10:05:31  5-MIN KMSN 181605Z 10004KT 6SM BR BKN003 00/M02 A3032 500 88 -1100 100/04 RMK AO2
14837KMSN MSN20071118101010111/18/07 10:10:31  5-MIN KMSN 181610Z 10004KT 6SM BR BKN003 M01/M02 A3031 500 88 -1200 100/04 RMK AO2
14837KMSN MSN20071118101510011/18/07 10:15:31  5-MIN KMSN 181615Z 09003KT 6SM BR BKN003 00/M02 A3031 500 88 -1100 090/03 RMK AO2
14837KMSN MSN20071118102010011/18/07 10:20:31  5-MIN KMSN 181620Z 08003KT 6SM BR BKN003 01/M01 A3031 500 89 -1000 080/03 RMK AO2
14837KMSN MSN20071118102510011/18/07 10:25:31  5-MIN KMSN 181625Z 11005KT 6SM BR BKN006 01/M01 A3031 510 85 -1000 110/05 RMK AO2
14837KMSN MSN20071118103009711/18/07 10:30:31  5-MIN KMSN 181630Z 15004KT 7SM BKN006 01/M01 A3031 500 85 -1000 150/04 RMK AO2
14837KMSN MSN20071118103509711/18/07 10:35:31  5-MIN KMSN 181635Z VRB05KT 7SM BKN006 01/M01 A3031 500 85 -1000 VRB/05 RMK AO2
14837KMSN MSN20071118104009711/18/07 10:40:31  5-MIN KMSN 181640Z 14004KT 8SM BKN006 01/M01 A3031 500 85 -1000 140/04 RMK AO2
14837KMSN MSN20071118104509611/18/07 10:45:31  5-MIN KMSN 181645Z 14004KT 8SM BKN006 02/M01 A3031 500 82 -900 140/04 RMK AO2
14837KMSN MSN20071118105009611/18/07 10:50:31  5-MIN KMSN 181650Z 16003KT 8SM FEW006 02/M01 A3031 510 82 -900 160/03 RMK AO2
14837KMSN MSN20071118105509311/18/07 10:55:31  5-MIN KMSN 181655Z VRB04KT 8SM CLR 02/M01 A3031 510 82 -900 VRB/04 RMK AO2
14837KMSN MSN20071118110009611/18/07 11:00:31  5-MIN KMSN 181700Z 16003KT 8SM FEW006 02/M01 A3030 510 78 -800 160/03 RMK AO2
14837KMSN MSN20071118110509611/18/07 11:05:31  5-MIN KMSN 181705Z VRB03KT 8SM FEW006 03/M01 A3030 510 75 -800 VRB/03 RMK AO2
14837KMSN MSN20071118111009611/18/07 11:10:31  5-MIN KMSN 181710Z 13005KT 9SM FEW006 03/M01 A3030 520 75 -800 120/05 RMK AO2
14837KMSN MSN20071118111509611/18/07 11:15:31  5-MIN KMSN 181715Z 00000KT 9SM FEW006 03/M01 A3030 520 75 -700 000/00 RMK AO2
14837KMSN MSN20071118112009611/18/07 11:20:31  5-MIN KMSN 181720Z VRB04KT 9SM FEW006 03/M01 A3029 520 72 -700 VRB/04 RMK AO2
14837KMSN MSN20071118112509611/18/07 11:25:31  5-MIN KMSN 181725Z 14006KT 9SM FEW006 04/M01 A3029 520 70 -600 140/06 RMK AO2
14837KMSN MSN20071118113009611/18/07 11:30:31  5-MIN KMSN 181730Z VRB04KT 9SM FEW006 04/M01 A3029 520 70 -600 VRB/04 RMK AO2
14837KMSN MSN20071118113509611/18/07 11:35:31  5-MIN KMSN 181735Z 14005KT 9SM FEW006 04/M01 A3029 530 70 -600 140/05 RMK AO2
14837KMSN MSN20071118114009611/18/07 11:40:31  5-MIN KMSN 181740Z 16005KT 9SM FEW006 04/M01 A3029 530 67 -500 160/05 RMK AO2
14837KMSN MSN20071118114509711/18/07 11:45:31  5-MIN KMSN 181745Z 13007KT 10SM FEW006 04/M01 A3028 530 67 -500 120/07 RMK AO2
14837KMSN MSN20071118115013211/18/07 11:50:31  5-MIN KMSN 181750Z 12006KT 10SM FEW006 05/M01 A3028 530 64 -500 120/06 RMK AO2 SLP264 T00501011 10050 21056 51011
14837KMSN MSN20071118115509411/18/07 11:55:31  5-MIN KMSN 181755Z VRB06KT 10SM CLR 05/M01 A3028 530 64 -500 VRB/06 RMK AO2
14837KMSN MSN20071118120009411/18/07 12:00:31  5-MIN KMSN 181800Z 11006KT 10SM CLR 05/M01 A3028 540 64 -500 100/06 RMK AO2
14837KMSN MSN20071118120509411/18/07 12:05:31  5-MIN KMSN 181805Z 13007KT 10SM CLR 05/M01 A3027 540 64 -500 120/07 RMK AO2
14837KMSN MSN20071118121009411/18/07 12:10:31  5-MIN KMSN 181810Z 12010KT 10SM CLR 06/M01 A3027 540 60 -300 120/10 RMK AO2
14837KMSN MSN20071118121509411/18/07 12:15:31  5-MIN KMSN 181815Z 13009KT 10SM CLR 05/M02 A3027 540 59 -400 130/09 RMK AO2
14837KMSN MSN20071118122009411/18/07 12:20:31  5-MIN KMSN 181820Z 14008KT 10SM CLR 05/M02 A3027 540 59 -400 140/08 RMK AO2
14837KMSN MSN20071118122509411/18/07 12:25:31  5-MIN KMSN 181825Z 15010KT 10SM CLR 06/M03 A3027 540 55 -400 150/10 RMK AO2
14837KMSN MSN20071118123009411/18/07 12:30:31  5-MIN KMSN 181830Z 14007KT 10SM CLR 06/M03 A3027 550 55 -400 140/07 RMK AO2
14837KMSN MSN20071118123510311/18/07 12:35:31  5-MIN KMSN 181835Z 15012G15KT 10SM FEW038 06/M02 A3026 550 55 -300 150/12G15 RMK AO2
14837KMSN MSN20071118124009711/18/07 12:40:31  5-MIN KMSN 181840Z 15010KT 10SM FEW038 07/M02 A3026 550 53 -200 150/10 RMK AO2
14837KMSN MSN20071118124509711/18/07 12:45:31  5-MIN KMSN 181845Z 17009KT 10SM FEW038 06/M03 A3026 550 53 -300 170/09 RMK AO2
14837KMSN MSN20071118125011411/18/07 12:50:31  5-MIN KMSN 181850Z 16010KT 10SM SCT038 06/M02 A3026 550 55 -300 150/10 RMK AO2 SLP254 T00611022
14837KMSN MSN20071118125509711/18/07 12:55:31  5-MIN KMSN 181855Z 16010KT 10SM FEW038 07/M02 A3026 550 53 -200 160/10 RMK AO2
14837KMSN MSN20071118130009711/18/07 13:00:31  5-MIN KMSN 181900Z 17009KT 10SM FEW038 06/M02 A3026 550 55 -300 170/09 RMK AO2
14837KMSN MSN20071118130509711/18/07 13:05:31  5-MIN KMSN 181905Z 14010KT 10SM FEW038 06/M02 A3025 560 57 -400 140/10 RMK AO2
14837KMSN MSN20071118131009711/18/07 13:10:31  5-MIN KMSN 181910Z 15010KT 10SM FEW038 06/M02 A3025 560 57 -400 150/10 RMK AO2
14837KMSN MSN20071118131509711/18/07 13:15:31  5-MIN KMSN 181915Z 13010KT 10SM SCT038 06/M02 A3025 560 59 -400 130/10 RMK AO2
14837KMSN MSN20071118132009611/18/07 13:20:31  5-MIN KMSN 181920Z 13009KT 9SM SCT038 05/M02 A3025 570 62 -400 130/09 RMK AO2
14837KMSN MSN20071118132509611/18/07 13:25:31  5-MIN KMSN 181925Z 14009KT 9SM BKN038 06/M02 A3024 570 59 -300 140/09 RMK AO2
14837KMSN MSN20071118133009611/18/07 13:30:31  5-MIN KMSN 181930Z 14007KT 9SM BKN038 06/M02 A3024 570 59 -300 140/07 RMK AO2
14837KMSN MSN20071118133509611/18/07 13:35:31  5-MIN KMSN 181935Z 14007KT 9SM BKN038 06/M02 A3024 570 57 -300 140/07 RMK AO2
14837KMSN MSN20071118134009611/18/07 13:40:31  5-MIN KMSN 181940Z 16008KT 9SM OVC040 06/M02 A3024 570 55 -300 160/08 RMK AO2
14837KMSN MSN20071118134509611/18/07 13:45:31  5-MIN KMSN 181945Z 18010KT 9SM OVC040 06/M02 A3024 570 55 -300 180/10 RMK AO2
14837KMSN MSN20071118135011311/18/07 13:50:31  5-MIN KMSN 181950Z 17011KT 9SM BKN040 07/M02 A3024 570 53 -200 170/11 RMK AO2 SLP248 T00671022
14837KMSN MSN20071118135509611/18/07 13:55:31  5-MIN KMSN 181955Z 17010KT 9SM BKN040 06/M02 A3024 570 55 -300 170/10 RMK AO2
14837KMSN MSN20071118140009611/18/07 14:00:31  5-MIN KMSN 182000Z 17010KT 9SM BKN040 06/M02 A3024 570 57 -300 170/10 RMK AO2
14837KMSN MSN20071118140509611/18/07 14:05:31  5-MIN KMSN 182005Z 16008KT 9SM BKN040 06/M02 A3023 580 57 -300 150/08 RMK AO2
14837KMSN MSN20071118141009611/18/07 14:10:31  5-MIN KMSN 182010Z 15007KT 9SM SCT040 06/M02 A3023 580 59 -300 150/07 RMK AO2
14837KMSN MSN20071118141509611/18/07 14:15:31  5-MIN KMSN 182015Z 14009KT 9SM SCT040 06/M02 A3023 580 57 -300 140/09 RMK AO2
14837KMSN MSN20071118142009611/18/07 14:20:31  5-MIN KMSN 182020Z 16011KT 9SM SCT040 06/M02 A3023 580 57 -300 150/11 RMK AO2
14837KMSN MSN20071118142509611/18/07 14:25:31  5-MIN KMSN 182025Z 15010KT 9SM SCT040 06/M02 A3022 580 57 -300 150/10 RMK AO2
14837KMSN MSN20071118143009611/18/07 14:30:31  5-MIN KMSN 182030Z 16009KT 9SM SCT040 06/M02 A3023 580 59 -300 160/09 RMK AO2
14837KMSN MSN20071118143509611/18/07 14:35:31  5-MIN KMSN 182035Z 16008KT 9SM SCT040 06/M02 A3022 580 59 -300 160/08 RMK AO2
14837KMSN MSN20071118144009611/18/07 14:40:31  5-MIN KMSN 182040Z 15009KT 9SM SCT040 06/M02 A3022 580 59 -300 150/09 RMK AO2
14837KMSN MSN20071118144509611/18/07 14:45:31  5-MIN KMSN 182045Z 15009KT 9SM SCT040 06/M02 A3022 590 59 -300 150/09 RMK AO2
14837KMSN MSN20071118145012011/18/07 14:50:31  5-MIN KMSN 182050Z 15009KT 10SM SCT043 06/M02 A3022 590 59 -300 150/09 RMK AO2 SLP242 T00561017 58005
14837KMSN MSN20071118145509711/18/07 14:55:31  5-MIN KMSN 182055Z 14007KT 10SM SCT041 06/M02 A3022 590 59 -300 140/07 RMK AO2
14837KMSN MSN20071118150009711/18/07 15:00:31  5-MIN KMSN 182100Z 14008KT 10SM SCT041 06/M02 A3021 590 59 -300 140/08 RMK AO2
14837KMSN MSN20071118150509711/18/07 15:05:31  5-MIN KMSN 182105Z 13008KT 10SM SCT041 06/M02 A3021 590 59 -300 130/08 RMK AO2
14837KMSN MSN20071118151009711/18/07 15:10:31  5-MIN KMSN 182110Z 14008KT 10SM SCT041 06/M02 A3021 600 59 -300 140/08 RMK AO2
14837KMSN MSN20071118151510411/18/07 15:15:31  5-MIN KMSN 182115Z 13010KT 10SM FEW041 BKN095 06/M01 A3021 600 62 -300 130/10 RMK AO2
14837KMSN MSN20071118152010411/18/07 15:20:31  5-MIN KMSN 182120Z 13009KT 10SM FEW039 BKN095 06/M02 A3020 600 59 -300 130/09 RMK AO2
14837KMSN MSN20071118152509711/18/07 15:25:31  5-MIN KMSN 182125Z 14009KT 10SM SCT095 06/M02 A3020 600 59 -300 140/09 RMK AO2
14837KMSN MSN20071118153009711/18/07 15:30:31  5-MIN KMSN 182130Z 13008KT 10SM SCT095 06/M02 A3020 600 59 -300 130/08 RMK AO2
14837KMSN MSN20071118153509711/18/07 15:35:31  5-MIN KMSN 182135Z 13009KT 10SM SCT095 06/M02 A3020 610 59 -300 130/09 RMK AO2
14837KMSN MSN20071118154009711/18/07 15:40:31  5-MIN KMSN 182140Z 13009KT 10SM SCT095 06/M02 A3020 610 59 -300 130/09 RMK AO2
14837KMSN MSN20071118154510411/18/07 15:45:31  5-MIN KMSN 182145Z 12011KT 10SM FEW090 SCT110 06/M02 A3020 610 59 -300 120/11 RMK AO2
14837KMSN MSN20071118155011411/18/07 15:50:31  5-MIN KMSN 182150Z 12013KT 10SM BKN110 06/M02 A3020 610 59 -300 120/13 RMK AO2 SLP234 T00561017
14837KMSN MSN20071118155509711/18/07 15:55:31  5-MIN KMSN 182155Z 13010KT 10SM SCT110 05/M02 A3020 610 62 -400 130/10 RMK AO2
14837KMSN MSN20071118160010411/18/07 16:00:31  5-MIN KMSN 182200Z 13013KT 10SM FEW090 SCT110 05/M02 A3019 610 62 -400 130/13 RMK AO2
14837KMSN MSN20071118160510411/18/07 16:05:31  5-MIN KMSN 182205Z 12012KT 10SM SCT090 BKN110 05/M02 A3019 620 62 -400 120/12 RMK AO2
14837KMSN MSN20071118161010411/18/07 16:10:31  5-MIN KMSN 182210Z 12011KT 10SM SCT090 BKN110 05/M02 A3019 620 62 -400 120/11 RMK AO2
14837KMSN MSN20071118161510411/18/07 16:15:31  5-MIN KMSN 182215Z 12010KT 10SM FEW090 SCT110 04/M02 A3019 620 64 -400 120/10 RMK AO2
14837KMSN MSN20071118162009711/18/07 16:20:31  5-MIN KMSN 182220Z 12011KT 10SM FEW085 04/M02 A3019 620 64 -400 120/11 RMK AO2
14837KMSN MSN20071118162509711/18/07 16:25:31  5-MIN KMSN 182225Z 12011KT 10SM BKN085 04/M01 A3019 610 67 -400 120/11 RMK AO2
14837KMSN MSN20071118163009711/18/07 16:30:31  5-MIN KMSN 182230Z 13011KT 10SM BKN080 04/M01 A3019 620 67 -400 120/11 RMK AO2
14837KMSN MSN20071118163509711/18/07 16:35:31  5-MIN KMSN 182235Z 13012KT 10SM SCT085 04/M01 A3019 620 67 -400 130/12 RMK AO2
14837KMSN MSN20071118164009711/18/07 16:40:31  5-MIN KMSN 182240Z 13010KT 10SM SCT085 04/M01 A3018 620 70 -500 130/10 RMK AO2
14837KMSN MSN20071118164509711/18/07 16:45:31  5-MIN KMSN 182245Z 12007KT 10SM BKN085 04/M01 A3018 620 70 -500 120/07 RMK AO2
14837KMSN MSN20071118165011411/18/07 16:50:31  5-MIN KMSN 182250Z 12008KT 10SM SCT085 03/M01 A3018 620 72 -600 120/08 RMK AO2 SLP231 T00331011
14837KMSN MSN20071118165509611/18/07 16:55:31  5-MIN KMSN 182255Z 12010KT 8SM FEW080 03/M01 A3018 630 72 -500 120/10 RMK AO2
14837KMSN MSN20071118170009611/18/07 17:00:31  5-MIN KMSN 182300Z 13011KT 8SM FEW080 03/M01 A3018 630 72 -500 120/11 RMK AO2
14837KMSN MSN20071118170509611/18/07 17:05:31  5-MIN KMSN 182305Z 12010KT 8SM FEW080 03/M01 A3018 630 72 -500 120/10 RMK AO2
14837KMSN MSN20071118171009311/18/07 17:10:31  5-MIN KMSN 182310Z 12010KT 8SM CLR 03/M01 A3018 630 72 -500 120/10 RMK AO2
14837KMSN MSN20071118171509611/18/07 17:15:31  5-MIN KMSN 182315Z 12010KT 8SM FEW065 03/M01 A3018 630 72 -500 120/10 RMK AO2
14837KMSN MSN20071118172009611/18/07 17:20:31  5-MIN KMSN 182320Z 13010KT 8SM SCT065 03/M01 A3018 620 72 -600 130/10 RMK AO2
14837KMSN MSN20071118172509611/18/07 17:25:31  5-MIN KMSN 182325Z 13010KT 8SM SCT060 04/M01 A3018 620 70 -500 130/10 RMK AO2
14837KMSN MSN20071118173010311/18/07 17:30:31  5-MIN KMSN 182330Z 13010KT 8SM SCT060 SCT120 03/M01 A3018 620 72 -600 130/10 RMK AO2
14837KMSN MSN20071118173510311/18/07 17:35:31  5-MIN KMSN 182335Z 13009KT 8SM SCT060 BKN120 04/M01 A3019 620 70 -500 130/09 RMK AO2
14837KMSN MSN20071118174010311/18/07 17:40:31  5-MIN KMSN 182340Z 13010KT 8SM SCT060 BKN120 04/M01 A3019 620 70 -500 130/10 RMK AO2
14837KMSN MSN20071118174510311/18/07 17:45:31  5-MIN KMSN 182345Z 12010KT 8SM SCT060 BKN120 03/M01 A3018 620 72 -600 120/10 RMK AO2
14837KMSN MSN20071118175013811/18/07 17:50:31  5-MIN KMSN 182350Z 13010KT 8SM SCT055 OVC120 03/M01 A3018 620 72 -600 120/10 RMK AO2 SLP231 T00331011 10067 20033 56021
14837KMSN MSN20071118175510311/18/07 17:55:31  5-MIN KMSN 182355Z 13010KT 8SM SCT055 OVC120 03/M01 A3018 620 72 -600 130/10 RMK AO2
14837KMSN MSN20071118180010311/18/07 18:00:31  5-MIN KMSN 190000Z 13009KT 8SM SCT055 OVC120 04/M01 A3019 620 70 -500 130/09 RMK AO2
14837KMSN MSN20071118180510311/18/07 18:05:31  5-MIN KMSN 190005Z 13011KT 8SM SCT055 OVC110 04/M01 A3018 620 70 -500 130/11 RMK AO2
14837KMSN MSN20071118181010311/18/07 18:10:31  5-MIN KMSN 190010Z 13010KT 8SM SCT055 OVC110 04/M01 A3018 620 70 -500 130/10 RMK AO2
14837KMSN MSN20071118181510911/18/07 18:15:31  5-MIN KMSN 190015Z 14013G18KT 8SM SCT060 BKN110 04/M01 A3018 620 70 -500 140/13G18 RMK AO2
14837KMSN MSN20071118182010911/18/07 18:20:31  5-MIN KMSN 190020Z 13010G18KT 8SM FEW060 BKN110 04/M01 A3018 620 70 -500 130/10G18 RMK AO2
14837KMSN MSN20071118182510311/18/07 18:25:31  5-MIN KMSN 190025Z 13010KT 8SM FEW060 BKN110 04/M01 A3019 620 70 -500 130/10 RMK AO2
14837KMSN MSN20071118183010311/18/07 18:30:31  5-MIN KMSN 190030Z 13010KT 8SM FEW060 BKN110 04/M01 A3019 620 70 -500 130/10 RMK AO2
14837KMSN MSN20071118183510311/18/07 18:35:31  5-MIN KMSN 190035Z 14010KT 8SM FEW060 BKN110 04/M01 A3019 620 70 -500 140/10 RMK AO2
14837KMSN MSN20071118184009611/18/07 18:40:31  5-MIN KMSN 190040Z 14010KT 8SM BKN110 04/M01 A3019 620 70 -500 140/10 RMK AO2
14837KMSN MSN20071118184509611/18/07 18:45:31  5-MIN KMSN 190045Z 13012KT 8SM BKN110 03/M01 A3019 620 72 -600 130/12 RMK AO2
14837KMSN MSN20071118185012011/18/07 18:50:31  5-MIN KMSN 190050Z 14012KT 8SM FEW080 OVC110 03/M01 A3019 620 72 -600 140/12 RMK AO2 SLP232 T00331011
14837KMSN MSN20071118185510311/18/07 18:55:31  5-MIN KMSN 190055Z 14011KT 8SM FEW080 OVC110 04/M01 A3018 620 70 -500 140/11 RMK AO2
14837KMSN MSN20071118190010311/18/07 19:00:31  5-MIN KMSN 190100Z 14013KT 8SM FEW080 BKN110 04/M01 A3018 620 70 -500 140/13 RMK AO2
14837KMSN MSN20071118190510311/18/07 19:05:31  5-MIN KMSN 190105Z 14010KT 8SM FEW060 BKN110 03/M01 A3018 620 72 -600 140/10 RMK AO2
14837KMSN MSN20071118191011011/18/07 19:10:31  5-MIN KMSN 190110Z 14009KT 8SM SCT060 SCT080 BKN110 03/M01 A3018 620 72 -600 140/09 RMK AO2
14837KMSN MSN20071118191511011/18/07 19:15:31  5-MIN KMSN 190115Z 14009KT 8SM BKN065 BKN080 BKN110 03/M01 A3018 620 72 -600 140/09 RMK AO2
14837KMSN MSN20071118192011911/18/07 19:20:31  5-MIN KMSN 190120Z 14010KT 8SM -RA BKN065 BKN110 04/M01 A3018 620 70 -500 140/10 RMK AO2 RAB17 P0000
14837KMSN MSN20071118192511111/18/07 19:25:31  5-MIN KMSN 190125Z 14010KT 8SM BKN065 03/M01 A3018 630 76 -500 140/10 RMK AO2 RAB17E23 P0000
14837KMSN MSN20071118193011211/18/07 19:30:31  5-MIN KMSN 190130Z 14010KT 7SM -RA OVC065 04/M01 A3018 630 73 -500 140/10 RMK AO2 RAB17 P0000
14837KMSN MSN20071118193511911/18/07 19:35:31  5-MIN KMSN 190135Z 14012KT 7SM -RA FEW050 OVC065 03/M01 A3018 630 76 -500 140/12 RMK AO2 RAB17 P0000
14837KMSN MSN20071118194011911/18/07 19:40:31  5-MIN KMSN 190140Z 14008KT 6SM -RA SCT050 OVC065 03/M01 A3018 630 76 -500 140/08 RMK AO2 RAB17 P0000
14837KMSN MSN20071118194511911/18/07 19:45:31  5-MIN KMSN 190145Z 15011KT 6SM -RA BKN055 OVC065 03/M01 A3018 630 76 -500 150/11 RMK AO2 RAB17 P0000
14837KMSN MSN20071118195014211/18/07 19:50:31  5-MIN KMSN 190150Z 14010KT 5SM -PLRA BKN050 OVC065 03/00 A3017 630 79 -500 140/10 RMK AO2 RAB17PLB47 SLP228 P0001 T00330000
14837KMSN MSN20071118195511411/18/07 19:55:31  5-MIN KMSN 190155Z 14010KT 4SM -PLRA BKN050 OVC060 03/00 A3017 630 79 -500 140/10 RMK AO2 P0000
14837KMSN MSN20071118200011411/18/07 20:00:31  5-MIN KMSN 190200Z 14010KT 5SM -PLRA FEW043 OVC050 03/00 A3016 640 82 -600 130/10 RMK AO2 P0001
14837KMSN MSN20071118200510711/18/07 20:05:31  5-MIN KMSN 190205Z 13011KT 5SM -PLRA OVC050 03/00 A3016 650 82 -600 130/11 RMK AO2 P0001
14837KMSN MSN20071118201011111/18/07 20:10:31  5-MIN KMSN 190210Z 14010KT 5SM -RA OVC048 03/00 A3016 650 82 -600 140/10 RMK AO2 PLE08 P0001
14837KMSN MSN20071118201512111/18/07 20:15:31  5-MIN KMSN 190215Z 14010KT 5SM -RA BR SCT043 OVC050 03/01 A3015 650 85 -600 130/10 RMK AO2 PLE08 P0002
14837KMSN MSN20071118202012111/18/07 20:20:31  5-MIN KMSN 190220Z 14007KT 5SM -RA BR SCT043 OVC055 03/01 A3016 640 85 -600 140/07 RMK AO2 PLE08 P0002
14837KMSN MSN20071118202512111/18/07 20:25:31  5-MIN KMSN 190225Z 14008KT 5SM -RA BR SCT045 OVC060 03/01 A3016 640 85 -600 130/08 RMK AO2 PLE08 P0003
14837KMSN MSN20071118203012111/18/07 20:30:31  5-MIN KMSN 190230Z 14008KT 5SM -RA BR SCT045 OVC060 03/01 A3016 640 85 -600 140/08 RMK AO2 PLE08 P0003
14837KMSN MSN20071118203512111/18/07 20:35:31  5-MIN KMSN 190235Z 14008KT 5SM -RA BR FEW043 OVC060 03/01 A3016 640 85 -600 140/08 RMK AO2 PLE08 P0003
14837KMSN MSN20071118204012111/18/07 20:40:31  5-MIN KMSN 190240Z 14006KT 5SM -RA BR FEW048 OVC060 03/01 A3017 640 89 -600 140/06 RMK AO2 PLE08 P0003
14837KMSN MSN20071118204512111/18/07 20:45:31  5-MIN KMSN 190245Z 14007KT 5SM -RA BR SCT048 OVC060 03/01 A3017 640 85 -500 140/07 RMK AO2 PLE08 P0003
14837KMSN MSN20071118205015811/18/07 20:50:31  5-MIN KMSN 190250Z 14010KT 5SM BR FEW016 BKN048 OVC060 03/01 A3016 640 85 -500 140/10 RMK AO2 RAE49PLE08 SLP225 P0003 60004 T00330011 55012
14837KMSN MSN20071118205511211/18/07 20:55:31  5-MIN KMSN 190255Z 14009KT 5SM BR FEW016 BKN048 OVC060 03/01 A3016 640 85 -500 140/09 RMK AO2
14837KMSN MSN20071118210011211/18/07 21:00:31  5-MIN KMSN 190300Z 14009KT 4SM BR SCT016 BKN048 OVC060 03/01 A3016 650 85 -500 140/09 RMK AO2
14837KMSN MSN20071118210511211/18/07 21:05:31  5-MIN KMSN 190305Z 14011KT 4SM BR SCT016 BKN039 OVC048 03/01 A3016 650 85 -500 140/11 RMK AO2
14837KMSN MSN20071118211011211/18/07 21:10:31  5-MIN KMSN 190310Z 14010KT 5SM BR SCT016 BKN048 OVC060 03/01 A3016 650 85 -500 140/10 RMK AO2
14837KMSN MSN20071118211511211/18/07 21:15:31  5-MIN KMSN 190315Z 15011KT 4SM BR BKN016 BKN040 OVC048 03/01 A3016 640 85 -500 140/11 RMK AO2
14837KMSN MSN20071118212011211/18/07 21:20:31  5-MIN KMSN 190320Z 15010KT 4SM BR BKN014 BKN022 OVC048 03/01 A3016 650 85 -500 150/10 RMK AO2
14837KMSN MSN20071118212511211/18/07 21:25:31  5-MIN KMSN 190325Z 15010KT 4SM BR BKN014 BKN022 OVC048 03/01 A3016 650 85 -500 150/10 RMK AO2
14837KMSN MSN20071118213011211/18/07 21:30:31  5-MIN KMSN 190330Z 15011KT 4SM BR BKN014 BKN022 OVC046 03/01 A3016 650 85 -500 150/11 RMK AO2
14837KMSN MSN20071118213510511/18/07 21:35:31  5-MIN KMSN 190335Z 15011KT 4SM BR BKN014 OVC046 03/01 A3016 640 85 -500 150/11 RMK AO2
14837KMSN MSN20071118214009811/18/07 21:40:31  5-MIN KMSN 190340Z 16012KT 4SM BR OVC014 03/01 A3016 650 85 -500 150/12 RMK AO2
14837KMSN MSN20071118214509811/18/07 21:45:31  5-MIN KMSN 190345Z 15011KT 4SM BR OVC014 03/01 A3016 650 85 -500 150/11 RMK AO2
14837KMSN MSN20071118215011511/18/07 21:50:31  5-MIN KMSN 190350Z 15013KT 4SM BR OVC014 03/01 A3016 650 85 -500 150/13 RMK AO2 SLP221 T00330011
14837KMSN MSN20071118215509811/18/07 21:55:31  5-MIN KMSN 190355Z 15009KT 4SM BR OVC014 03/01 A3015 650 85 -500 150/09 RMK AO2
14837KMSN MSN20071118220009811/18/07 22:00:31  5-MIN KMSN 190400Z 15011KT 4SM BR OVC014 03/01 A3015 650 85 -500 150/11 RMK AO2
14837KMSN MSN20071118220509811/18/07 22:05:31  5-MIN KMSN 190405Z 15011KT 4SM BR OVC014 03/01 A3015 650 85 -500 150/11 RMK AO2
14837KMSN MSN20071118221009811/18/07 22:10:31  5-MIN KMSN 190410Z 15012KT 4SM BR OVC012 03/01 A3015 650 85 -500 150/12 RMK AO2
14837KMSN MSN20071118221509811/18/07 22:15:31  5-MIN KMSN 190415Z 16012KT 4SM BR OVC012 03/01 A3015 650 85 -500 160/12 RMK AO2
14837KMSN MSN20071118222009811/18/07 22:20:31  5-MIN KMSN 190420Z 15012KT 4SM BR OVC012 03/01 A3015 650 85 -500 150/12 RMK AO2
14837KMSN MSN20071118222509811/18/07 22:25:31  5-MIN KMSN 190425Z 15010KT 4SM BR OVC012 03/01 A3015 650 85 -500 150/10 RMK AO2
14837KMSN MSN20071118223009811/18/07 22:30:31  5-MIN KMSN 190430Z 16011KT 4SM BR OVC012 03/01 A3015 660 85 -500 160/11 RMK AO2
14837KMSN MSN20071118223509811/18/07 22:35:31  5-MIN KMSN 190435Z 16011KT 4SM BR OVC012 03/01 A3015 660 85 -500 160/11 RMK AO2
14837KMSN MSN20071118224009811/18/07 22:40:31  5-MIN KMSN 190440Z 16013KT 4SM BR OVC012 03/01 A3014 660 85 -500 160/13 RMK AO2
14837KMSN MSN20071118224509811/18/07 22:45:31  5-MIN KMSN 190445Z 15010KT 4SM BR OVC012 03/02 A3014 660 89 -500 150/10 RMK AO2
14837KMSN MSN20071118225011511/18/07 22:50:31  5-MIN KMSN 190450Z 15012KT 4SM BR OVC012 03/01 A3014 670 85 -500 150/12 RMK AO2 SLP213 T00330011
14837KMSN MSN20071118225509811/18/07 22:55:31  5-MIN KMSN 190455Z 16011KT 4SM BR OVC012 03/01 A3013 670 85 -500 160/11 RMK AO2
14837KMSN MSN20071118230009811/18/07 23:00:31  5-MIN KMSN 190500Z 16013KT 4SM BR OVC012 03/01 A3013 670 85 -500 160/13 RMK AO2
14837KMSN MSN20071118230509811/18/07 23:05:31  5-MIN KMSN 190505Z 16012KT 4SM BR OVC012 03/02 A3012 680 89 -500 160/12 RMK AO2
14837KMSN MSN20071118231009811/18/07 23:10:31  5-MIN KMSN 190510Z 15013KT 4SM BR OVC012 03/02 A3012 680 89 -500 150/13 RMK AO2
14837KMSN MSN20071118231509811/18/07 23:15:31  5-MIN KMSN 190515Z 16014KT 4SM BR OVC012 03/01 A3012 680 85 -500 160/14 RMK AO2
14837KMSN MSN20071118232009811/18/07 23:20:31  5-MIN KMSN 190520Z 15015KT 4SM BR OVC012 03/01 A3012 680 85 -500 150/15 RMK AO2
14837KMSN MSN20071118232510411/18/07 23:25:31  5-MIN KMSN 190525Z 16012G19KT 4SM BR OVC012 03/01 A3013 670 85 -500 160/12G19 RMK AO2
14837KMSN MSN20071118233009811/18/07 23:30:31  5-MIN KMSN 190530Z 17013KT 4SM BR OVC012 03/02 A3013 670 89 -500 160/13 RMK AO2
14837KMSN MSN20071118233510411/18/07 23:35:31  5-MIN KMSN 190535Z 17013G18KT 4SM BR OVC012 03/02 A3012 680 89 -500 170/13G18 RMK AO2
14837KMSN MSN20071118234009811/18/07 23:40:31  5-MIN KMSN 190540Z 17015KT 4SM BR OVC012 03/02 A3012 680 89 -500 170/15 RMK AO2
14837KMSN MSN20071118234509811/18/07 23:45:31  5-MIN KMSN 190545Z 17012KT 4SM BR OVC012 03/01 A3013 670 85 -500 170/12 RMK AO2
14837KMSN MSN20071118235014911/18/07 23:50:31  5-MIN KMSN 190550Z 17014KT 4SM BR OVC012 03/01 A3012 680 85 -500 170/14 RMK AO2 SLP208 60004 T00330011 10039 20028 400671056 58007
14837KMSN MSN20071118235510411/18/07 23:55:31  5-MIN KMSN 190555Z 17014G19KT 4SM BR OVC012 03/01 A3012 680 85 -500 170/14G19 RMK AO2
14837KMSN MSN20071119000009811/19/07 00:00:32  5-MIN KMSN 190600Z 18014KT 4SM HZ OVC012 04/01 A3012 680 82 -400 180/14 RMK AO2
14837KMSN MSN20071119000510411/19/07 00:05:31  5-MIN KMSN 190605Z 17015G20KT 4SM BR OVC012 04/02 A3012 680 85 -400 170/15G20 RMK AO2
14837KMSN MSN20071119001010411/19/07 00:10:31  5-MIN KMSN 190610Z 17014G20KT 4SM BR OVC012 04/02 A3011 690 85 -400 170/14G20 RMK AO2
14837KMSN MSN20071119001510411/19/07 00:15:31  5-MIN KMSN 190615Z 17017G22KT 4SM HZ OVC012 04/01 A3011 690 82 -400 170/17G22 RMK AO2
14837KMSN MSN20071119002010411/19/07 00:20:31  5-MIN KMSN 190620Z 17015G22KT 4SM HZ OVC012 04/01 A3010 700 82 -400 160/15G22 RMK AO2
14837KMSN MSN20071119002509811/19/07 00:25:31  5-MIN KMSN 190625Z 17012KT 4SM BR OVC012 03/01 A3010 700 85 -500 170/12 RMK AO2
14837KMSN MSN20071119003009811/19/07 00:30:31  5-MIN KMSN 190630Z 17013KT 4SM BR OVC012 03/02 A3010 700 89 -500 170/13 RMK AO2
14837KMSN MSN20071119003509811/19/07 00:35:31  5-MIN KMSN 190635Z 17014KT 4SM HZ OVC012 04/01 A3010 700 82 -400 170/14 RMK AO2
14837KMSN MSN20071119004009811/19/07 00:40:31  5-MIN KMSN 190640Z 17013KT 4SM HZ OVC012 04/01 A3009 710 82 -400 160/13 RMK AO2
14837KMSN MSN20071119004509811/19/07 00:45:31  5-MIN KMSN 190645Z 17011KT 4SM BR OVC012 03/02 A3010 700 89 -500 170/11 RMK AO2
14837KMSN MSN20071119005011511/19/07 00:50:31  5-MIN KMSN 190650Z 17011KT 4SM BR OVC012 03/02 A3010 700 89 -500 170/11 RMK AO2 SLP199 T00330017
14837KMSN MSN20071119005509811/19/07 00:55:31  5-MIN KMSN 190655Z 17014KT 4SM BR OVC012 04/02 A3009 700 85 -400 170/14 RMK AO2
14837KMSN MSN20071119010010411/19/07 01:00:31  5-MIN KMSN 190700Z 17010G18KT 4SM BR OVC012 03/02 A3008 710 89 -400 170/10G18 RMK AO2
14837KMSN MSN20071119010509811/19/07 01:05:31  5-MIN KMSN 190705Z 17011KT 4SM BR OVC012 03/02 A3008 710 89 -400 160/11 RMK AO2
14837KMSN MSN20071119011009811/19/07 01:10:31  5-MIN KMSN 190710Z 17012KT 4SM BR OVC012 03/02 A3008 710 89 -400 160/12 RMK AO2
14837KMSN MSN20071119011509811/19/07 01:15:31  5-MIN KMSN 190715Z 17011KT 4SM BR OVC012 03/02 A3008 720 89 -400 170/11 RMK AO2
14837KMSN MSN20071119012009811/19/07 01:20:31  5-MIN KMSN 190720Z 16010KT 4SM BR OVC012 03/02 A3007 730 89 -400 160/10 RMK AO2
14837KMSN MSN20071119012509811/19/07 01:25:31  5-MIN KMSN 190725Z 16011KT 4SM BR OVC012 03/02 A3007 730 89 -400 160/11 RMK AO2
14837KMSN MSN20071119013009811/19/07 01:30:31  5-MIN KMSN 190730Z 16011KT 4SM BR OVC012 03/02 A3007 730 89 -400 160/11 RMK AO2
14837KMSN MSN20071119013509811/19/07 01:35:31  5-MIN KMSN 190735Z 17009KT 4SM BR OVC012 03/02 A3007 720 89 -400 170/09 RMK AO2
14837KMSN MSN20071119014009811/19/07 01:40:31  5-MIN KMSN 190740Z 17008KT 4SM BR OVC012 03/02 A3007 720 89 -400 170/08 RMK AO2
14837KMSN MSN20071119014509811/19/07 01:45:31  5-MIN KMSN 190745Z 17011KT 4SM BR OVC012 03/02 A3007 730 89 -400 170/11 RMK AO2
14837KMSN MSN20071119015011511/19/07 01:50:31  5-MIN KMSN 190750Z 17009KT 4SM BR OVC012 03/02 A3006 740 89 -400 170/09 RMK AO2 SLP185 T00330017
14837KMSN MSN20071119015510511/19/07 01:55:31  5-MIN KMSN 190755Z 17009KT 4SM BR OVC012 03/02 A3005 740 89 -400 170/09 RMK AO2 PRESFR
14837KMSN MSN20071119020009811/19/07 02:00:31  5-MIN KMSN 190800Z 17010KT 4SM BR OVC012 03/02 A3006 740 89 -400 170/10 RMK AO2
14837KMSN MSN20071119020509811/19/07 02:05:31  5-MIN KMSN 190805Z 17010KT 4SM BR OVC012 03/02 A3005 740 89 -400 170/10 RMK AO2
14837KMSN MSN20071119021009811/19/07 02:10:31  5-MIN KMSN 190810Z 18009KT 4SM BR OVC012 03/02 A3006 730 89 -400 180/09 RMK AO2
14837KMSN MSN20071119021509811/19/07 02:15:31  5-MIN KMSN 190815Z 17009KT 4SM BR OVC010 03/02 A3007 730 89 -400 170/09 RMK AO2
14837KMSN MSN20071119022009811/19/07 02:20:31  5-MIN KMSN 190820Z 17010KT 4SM BR OVC010 03/02 A3006 740 89 -400 170/10 RMK AO2
14837KMSN MSN20071119022509811/19/07 02:25:31  5-MIN KMSN 190825Z 17008KT 4SM BR OVC010 03/02 A3005 740 89 -400 170/08 RMK AO2
14837KMSN MSN20071119023009811/19/07 02:30:31  5-MIN KMSN 190830Z 17011KT 3SM BR OVC010 03/02 A3006 740 89 -400 170/11 RMK AO2
14837KMSN MSN20071119023509811/19/07 02:35:31  5-MIN KMSN 190835Z 17007KT 4SM BR OVC010 03/02 A3006 740 89 -400 170/07 RMK AO2
14837KMSN MSN20071119024009811/19/07 02:40:31  5-MIN KMSN 190840Z 17008KT 4SM BR OVC010 03/02 A3005 740 89 -400 170/08 RMK AO2
14837KMSN MSN20071119024509811/19/07 02:45:31  5-MIN KMSN 190845Z 17009KT 3SM BR OVC010 03/02 A3005 740 89 -400 170/09 RMK AO2
14837KMSN MSN20071119025012111/19/07 02:50:31  5-MIN KMSN 190850Z 18008KT 3SM BR OVC010 03/02 A3006 740 89 -400 180/08 RMK AO2 SLP185 T00330017 58015
14837KMSN MSN20071119025509811/19/07 02:55:31  5-MIN KMSN 190855Z 19006KT 3SM BR OVC010 03/02 A3006 730 89 -400 190/06 RMK AO2
14837KMSN MSN20071119030009811/19/07 03:00:31  5-MIN KMSN 190900Z 17008KT 3SM BR OVC010 03/02 A3005 740 89 -400 170/08 RMK AO2
14837KMSN MSN20071119030509811/19/07 03:05:31  5-MIN KMSN 190905Z 18008KT 3SM BR OVC010 04/02 A3006 740 85 -300 180/08 RMK AO2
14837KMSN MSN20071119031009811/19/07 03:10:31  5-MIN KMSN 190910Z 19007KT 3SM BR OVC010 04/02 A3006 730 85 -300 180/07 RMK AO2
14837KMSN MSN20071119031509811/19/07 03:15:31  5-MIN KMSN 190915Z VRB04KT 3SM BR OVC010 04/02 A3007 730 85 -400 VRB/04 RMK AO2
14837KMSN MSN20071119032009811/19/07 03:20:31  5-MIN KMSN 190920Z 18006KT 3SM BR OVC010 04/02 A3006 730 89 -300 180/06 RMK AO2
14837KMSN MSN20071119032509811/19/07 03:25:31  5-MIN KMSN 190925Z 18006KT 3SM BR OVC010 04/02 A3006 730 89 -300 180/06 RMK AO2
14837KMSN MSN20071119033009811/19/07 03:30:31  5-MIN KMSN 190930Z 18007KT 3SM BR OVC010 04/02 A3006 740 89 -300 180/07 RMK AO2
14837KMSN MSN20071119033509811/19/07 03:35:31  5-MIN KMSN 190935Z 17006KT 3SM BR OVC010 04/02 A3006 740 89 -300 170/06 RMK AO2
14837KMSN MSN20071119034009811/19/07 03:40:31  5-MIN KMSN 190940Z 17006KT 3SM BR OVC010 04/02 A3005 740 89 -300 170/06 RMK AO2
14837KMSN MSN20071119034510511/19/07 03:45:31  5-MIN KMSN 190945Z 17008KT 3SM BR OVC010 04/02 A3004 750 89 -300 170/08 RMK AO2 PRESFR
14837KMSN MSN20071119035011511/19/07 03:50:31  5-MIN KMSN 190950Z 17008KT 3SM BR OVC010 04/02 A3004 760 89 -300 170/08 RMK AO2 SLP178 T00390022
14837KMSN MSN20071119035509811/19/07 03:55:31  5-MIN KMSN 190955Z 17008KT 3SM BR OVC008 04/02 A3004 760 89 -300 170/08 RMK AO2
14837KMSN MSN20071119040009811/19/07 04:00:31  5-MIN KMSN 191000Z 17008KT 3SM BR OVC008 04/02 A3004 760 89 -300 170/08 RMK AO2
14837KMSN MSN20071119040509811/19/07 04:05:31  5-MIN KMSN 191005Z 17007KT 3SM BR OVC008 04/02 A3004 760 85 -300 170/07 RMK AO2
14837KMSN MSN20071119041009811/19/07 04:10:31  5-MIN KMSN 191010Z 17008KT 3SM BR OVC008 04/02 A3004 760 89 -300 170/08 RMK AO2
14837KMSN MSN20071119041509811/19/07 04:15:31  5-MIN KMSN 191015Z 17008KT 3SM BR OVC008 04/02 A3004 760 89 -300 170/08 RMK AO2
14837KMSN MSN20071119042009811/19/07 04:20:31  5-MIN KMSN 191020Z 17008KT 3SM BR OVC008 04/02 A3004 760 89 -300 170/08 RMK AO2
14837KMSN MSN20071119042509811/19/07 04:25:31  5-MIN KMSN 191025Z 17007KT 3SM BR OVC008 04/02 A3003 760 89 -300 170/07 RMK AO2
14837KMSN MSN20071119043009811/19/07 04:30:31  5-MIN KMSN 191030Z 17007KT 3SM BR OVC008 04/02 A3003 770 89 -300 170/07 RMK AO2
14837KMSN MSN20071119043509811/19/07 04:35:31  5-MIN KMSN 191035Z 17008KT 3SM BR OVC008 04/02 A3003 770 89 -300 170/08 RMK AO2
14837KMSN MSN20071119044009811/19/07 04:40:31  5-MIN KMSN 191040Z 18009KT 3SM BR OVC008 04/02 A3003 770 89 -300 180/09 RMK AO2
14837KMSN MSN20071119044509811/19/07 04:45:31  5-MIN KMSN 191045Z 17006KT 3SM BR OVC008 04/02 A3003 770 89 -300 170/06 RMK AO2
14837KMSN MSN20071119045011511/19/07 04:50:31  5-MIN KMSN 191050Z 17008KT 3SM BR OVC008 04/02 A3002 770 89 -300 170/08 RMK AO2 SLP174 T00390022
14837KMSN MSN20071119045509811/19/07 04:55:31  5-MIN KMSN 191055Z 17008KT 3SM BR OVC008 04/02 A3002 770 89 -300 170/08 RMK AO2
14837KMSN MSN20071119050009811/19/07 05:00:31  5-MIN KMSN 191100Z 18009KT 3SM BR OVC008 04/02 A3002 770 89 -300 180/09 RMK AO2
14837KMSN MSN20071119050509811/19/07 05:05:31  5-MIN KMSN 191105Z 18009KT 3SM BR OVC008 04/02 A3002 770 89 -300 180/09 RMK AO2
14837KMSN MSN20071119051009811/19/07 05:10:31  5-MIN KMSN 191110Z 17010KT 3SM BR OVC008 04/02 A3002 780 89 -300 170/10 RMK AO2
14837KMSN MSN20071119051509811/19/07 05:15:31  5-MIN KMSN 191115Z 17009KT 3SM BR OVC008 04/02 A3001 780 89 -300 170/09 RMK AO2
14837KMSN MSN20071119052009811/19/07 05:20:31  5-MIN KMSN 191120Z 17010KT 3SM BR OVC008 04/02 A3001 780 89 -300 170/10 RMK AO2
14837KMSN MSN20071119052509811/19/07 05:25:31  5-MIN KMSN 191125Z 17011KT 3SM BR OVC008 04/02 A3001 780 89 -300 170/11 RMK AO2
14837KMSN MSN20071119053009811/19/07 05:30:31  5-MIN KMSN 191130Z 17009KT 3SM BR OVC008 04/02 A3001 780 89 -300 170/09 RMK AO2
14837KMSN MSN20071119053509811/19/07 05:35:31  5-MIN KMSN 191135Z 17010KT 3SM BR OVC008 04/02 A3001 780 89 -300 170/10 RMK AO2
14837KMSN MSN20071119054009811/19/07 05:40:31  5-MIN KMSN 191140Z 18008KT 3SM BR OVC008 04/02 A3001 780 89 -300 180/08 RMK AO2
14837KMSN MSN20071119054509811/19/07 05:45:31  5-MIN KMSN 191145Z 19009KT 3SM BR OVC008 04/02 A3001 780 89 -300 190/09 RMK AO2
14837KMSN MSN20071119055013911/19/07 05:50:31  5-MIN KMSN 191150Z 18008KT 3SM BR OVC008 04/02 A3001 780 89 -300 180/08 RMK AO2 SLP170 70004 T00390022 10039 20033 55018
14837KMSN MSN20071119055509811/19/07 05:55:31  5-MIN KMSN 191155Z 18008KT 3SM BR OVC008 04/02 A3001 780 89 -300 180/08 RMK AO2
14837KMSN MSN20071119060009811/19/07 06:00:31  5-MIN KMSN 191200Z 17010KT 3SM BR OVC008 04/02 A3000 790 89 -300 170/10 RMK AO2
14837KMSN MSN20071119060509811/19/07 06:05:31  5-MIN KMSN 191205Z 17010KT 3SM BR OVC008 04/02 A3000 790 89 -300 170/10 RMK AO2
14837KMSN MSN20071119061009811/19/07 06:10:31  5-MIN KMSN 191210Z 17011KT 3SM BR OVC008 04/02 A3000 790 89 -300 170/11 RMK AO2
14837KMSN MSN20071119061509811/19/07 06:15:31  5-MIN KMSN 191215Z 17009KT 3SM BR OVC008 04/02 A3000 790 89 -300 170/09 RMK AO2
14837KMSN MSN20071119062009811/19/07 06:20:31  5-MIN KMSN 191220Z 18007KT 3SM BR OVC008 04/02 A3000 790 89 -300 180/07 RMK AO2
14837KMSN MSN20071119062509811/19/07 06:25:31  5-MIN KMSN 191225Z 18008KT 3SM BR OVC008 04/02 A3000 790 89 -300 180/08 RMK AO2
14837KMSN MSN20071119063009811/19/07 06:30:31  5-MIN KMSN 191230Z 20006KT 3SM BR OVC008 04/02 A3001 780 89 -300 200/06 RMK AO2
14837KMSN MSN20071119063509811/19/07 06:35:31  5-MIN KMSN 191235Z 19007KT 3SM BR OVC008 04/02 A3001 780 89 -300 190/07 RMK AO2
14837KMSN MSN20071119064009811/19/07 06:40:31  5-MIN KMSN 191240Z 18007KT 3SM BR OVC008 04/02 A3000 790 89 -300 180/07 RMK AO2
14837KMSN MSN20071119064509811/19/07 06:45:31  5-MIN KMSN 191245Z 17007KT 3SM BR OVC008 04/02 A3000 790 89 -300 170/07 RMK AO2
14837KMSN MSN20071119065011511/19/07 06:50:31  5-MIN KMSN 191250Z 17006KT 3SM BR OVC008 04/02 A3000 790 89 -300 170/06 RMK AO2 SLP167 T00390022
14837KMSN MSN20071119065509811/19/07 06:55:31  5-MIN KMSN 191255Z 17007KT 3SM BR OVC008 04/02 A3001 780 89 -300 170/07 RMK AO2
14837KMSN MSN20071119070009811/19/07 07:00:31  5-MIN KMSN 191300Z 17007KT 3SM BR OVC008 04/02 A3001 780 89 -300 170/07 RMK AO2
14837KMSN MSN20071119070509811/19/07 07:05:31  5-MIN KMSN 191305Z 18006KT 3SM BR OVC008 04/02 A3001 780 89 -300 180/06 RMK AO2
14837KMSN MSN20071119071009811/19/07 07:10:31  5-MIN KMSN 191310Z 19006KT 3SM BR OVC008 04/02 A3001 780 85 -200 180/06 RMK AO2
14837KMSN MSN20071119071509811/19/07 07:15:31  5-MIN KMSN 191315Z 20007KT 3SM BR OVC008 04/02 A3002 770 89 -300 190/07 RMK AO2
14837KMSN MSN20071119072011211/19/07 07:20:31  5-MIN KMSN 191320Z 18006KT 2 1/2SM BR OVC008 04/02 A3002 780 85 -200 180/06 RMK AO2 TWR VIS 3
14837KMSN MSN20071119072511211/19/07 07:25:31  5-MIN KMSN 191325Z 18006KT 2 1/2SM BR OVC008 04/02 A3002 780 85 -200 180/06 RMK AO2 TWR VIS 3
14837KMSN MSN20071119073011211/19/07 07:30:31  5-MIN KMSN 191330Z 19005KT 2SM BR OVC008 04/03 A3002 780 89 -200 190/05 RMK AO2 TWR VIS 2 1/2
14837KMSN MSN20071119073511211/19/07 07:35:31  5-MIN KMSN 191335Z 17006KT 2SM BR OVC008 04/03 A3001 780 89 -200 170/06 RMK AO2 TWR VIS 2 1/2
14837KMSN MSN20071119074011611/19/07 07:40:31  5-MIN KMSN 191340Z 18006KT 1 3/4SM BR OVC008 04/03 A3001 780 89 -200 180/06 RMK AO2 TWR VIS 2 1/2
14837KMSN MSN20071119074511611/19/07 07:45:31  5-MIN KMSN 191345Z 17006KT 1 3/4SM BR OVC008 04/03 A3000 790 89 -200 170/06 RMK AO2 TWR VIS 2 1/2
14837KMSN MSN20071119075013311/19/07 07:50:31  5-MIN KMSN 191350Z 17006KT 1 3/4SM BR OVC006 04/03 A3001 790 89 -200 170/06 RMK AO2 TWR VIS 2 1/2 SLP168 T00440028
14837KMSN MSN20071119075511611/19/07 07:55:31  5-MIN KMSN 191355Z 17006KT 1 1/2SM BR OVC006 04/03 A3001 780 89 -200 170/06 RMK AO2 TWR VIS 2 1/2
14837KMSN MSN20071119080011611/19/07 08:00:31  5-MIN KMSN 191400Z 18007KT 1 1/2SM BR OVC006 04/03 A3001 780 89 -200 180/07 RMK AO2 TWR VIS 2 1/2
14837KMSN MSN20071119080511611/19/07 08:05:31  5-MIN KMSN 191405Z 18008KT 1 1/2SM BR OVC006 04/03 A3001 780 89 -200 180/08 RMK AO2 TWR VIS 2 1/2
14837KMSN MSN20071119081011611/19/07 08:10:31  5-MIN KMSN 191410Z 17008KT 1 1/2SM BR OVC006 04/03 A3000 790 89 -200 170/08 RMK AO2 TWR VIS 2 1/2
14837KMSN MSN20071119081511611/19/07 08:15:31  5-MIN KMSN 191415Z 18008KT 1 1/4SM BR OVC006 04/03 A3000 790 89 -200 180/08 RMK AO2 TWR VIS 2 1/2
14837KMSN MSN20071119082011611/19/07 08:20:31  5-MIN KMSN 191420Z 18007KT 1 1/4SM BR OVC006 04/03 A2999 800 92 -200 180/07 RMK AO2 TWR VIS 2 1/2
14837KMSN MSN20071119082510211/19/07 08:25:31  5-MIN KMSN 191425Z 18006KT 1 1/4SM BR OVC004 04/03 A2999 800 92 -200 180/06 RMK AO2
14837KMSN MSN20071119083011211/19/07 08:30:31  5-MIN KMSN 191430Z 17007KT 1SM BR OVC004 04/03 A2999 800 92 -200 170/07 RMK AO2 TWR VIS 1 1/4
14837KMSN MSN20071119083511211/19/07 08:35:31  5-MIN KMSN 191435Z 16007KT 1SM BR OVC004 04/03 A2998 810 92 -200 160/07 RMK AO2 TWR VIS 1 1/4
14837KMSN MSN20071119084009811/19/07 08:40:31  5-MIN KMSN 191440Z 16007KT 1SM BR OVC004 04/03 A2998 810 92 -200 160/07 RMK AO2
14837KMSN MSN20071119084509811/19/07 08:45:31  5-MIN KMSN 191445Z 17007KT 1SM BR OVC004 04/03 A2997 810 92 -200 170/07 RMK AO2
14837KMSN MSN20071119085011011/19/07 08:50:31  5-MIN KMSN 191450Z 17007KT 3/4SM BR OVC004 04/03 A2997 820 96 -200 170/07 RMK AO2 TWR VIS 1
14837KMSN MSN20071119085510011/19/07 08:55:31  5-MIN KMSN 191455Z 17008KT 3/4SM BR OVC004 04/03 A2997 820 92 -200 170/08 RMK AO2
14837KMSN MSN20071119090010011/19/07 09:00:31  5-MIN KMSN 191500Z 17008KT 3/4SM BR OVC002 04/04 A2997 820 96 -200 170/08 RMK AO2
14837KMSN MSN20071119090511211/19/07 09:05:31  5-MIN KMSN 191505Z 19008KT 1/2SM FG OVC002 04/04 A2998 810 96 -200 190/08 RMK AO2 TWR VIS 3/4
14837KMSN MSN20071119091011211/19/07 09:10:31  5-MIN KMSN 191510Z 18008KT 1/2SM FG OVC002 04/04 A2998 810 96 -200 180/08 RMK AO2 TWR VIS 3/4
14837KMSN MSN20071119091511211/19/07 09:15:31  5-MIN KMSN 191515Z 18008KT 1/2SM FG OVC002 04/04 A2997 820 96 -200 180/08 RMK AO2 TWR VIS 3/4
14837KMSN MSN20071119092011211/19/07 09:20:31  5-MIN KMSN 191520Z 17010KT 1/2SM FG OVC002 04/04 A2996 820 96 -200 170/10 RMK AO2 TWR VIS 3/4
14837KMSN MSN20071119092511211/19/07 09:25:31  5-MIN KMSN 191525Z 17009KT 1/2SM FG OVC002 04/04 A2996 830 96 -200 170/09 RMK AO2 TWR VIS 3/4
14837KMSN MSN20071119093011211/19/07 09:30:31  5-MIN KMSN 191530Z 17010KT 1/2SM FG OVC002 05/04 A2996 830 92 -100 170/10 RMK AO2 TWR VIS 3/4
14837KMSN MSN20071119093511911/19/07 09:35:31  5-MIN KMSN 191535Z 16010KT 1/2SM FG OVC002 05/04 A2995 840 92 -100 160/10 RMK AO2 TWR VIS 3/4 PRESFR
14837KMSN MSN20071119094011211/19/07 09:40:31  5-MIN KMSN 191540Z 16008KT 1/2SM FG OVC002 05/04 A2995 840 96 -100 160/08 RMK AO2 TWR VIS 3/4
14837KMSN MSN20071119094511211/19/07 09:45:31  5-MIN KMSN 191545Z 16008KT 1/2SM FG OVC002 05/04 A2994 840 96 -100 160/08 RMK AO2 TWR VIS 3/4
14837KMSN MSN20071119095012911/19/07 09:50:31  5-MIN KMSN 191550Z 16010KT 1/2SM FG OVC002 05/04 A2994 840 96 -100 160/10 RMK AO2 TWR VIS 3/4 SLP146 T00500044
14837KMSN MSN20071119095511211/19/07 09:55:31  5-MIN KMSN 191555Z 16008KT 1/2SM FG OVC002 05/04 A2994 850 96 -100 150/08 RMK AO2 TWR VIS 3/4
14837KMSN MSN20071119100010911/19/07 10:00:31  5-MIN KMSN 191600Z 15008KT 1/2SM FG OVC002 06/05 A2994 850 96 0 150/08 RMK AO2 TWR VIS 3/4
14837KMSN MSN20071119100510911/19/07 10:05:31  5-MIN KMSN 191605Z 16008KT 1/2SM FG OVC002 06/05 A2993 850 96 0 160/08 RMK AO2 TWR VIS 3/4
14837KMSN MSN20071119101010911/19/07 10:10:31  5-MIN KMSN 191610Z 16010KT 1/2SM FG OVC002 06/05 A2993 860 96 0 160/10 RMK AO2 TWR VIS 3/4
14837KMSN MSN20071119101510911/19/07 10:15:31  5-MIN KMSN 191615Z 16007KT 1/2SM FG OVC002 06/05 A2993 860 96 0 160/07 RMK AO2 TWR VIS 3/4
14837KMSN MSN20071119102010911/19/07 10:20:31  5-MIN KMSN 191620Z 17007KT 1/2SM FG OVC002 06/05 A2993 860 96 0 160/07 RMK AO2 TWR VIS 3/4
14837KMSN MSN20071119102510911/19/07 10:25:31  5-MIN KMSN 191625Z 17008KT 1/2SM FG OVC002 06/05 A2992 860 96 0 170/08 RMK AO2 TWR VIS 3/4
14837KMSN MSN20071119103010911/19/07 10:30:31  5-MIN KMSN 191630Z 17008KT 1/2SM FG OVC002 06/05 A2992 860 96 0 170/08 RMK AO2 TWR VIS 3/4
14837KMSN MSN20071119103510911/19/07 10:35:31  5-MIN KMSN 191635Z 18008KT 1/2SM FG OVC002 06/06 A2992 860 96 0 180/08 RMK AO2 TWR VIS 3/4
14837KMSN MSN20071119104010911/19/07 10:40:31  5-MIN KMSN 191640Z 18009KT 1/2SM FG OVC002 06/06 A2992 860 96 0 180/09 RMK AO2 TWR VIS 3/4
14837KMSN MSN20071119104510911/19/07 10:45:31  5-MIN KMSN 191645Z 18009KT 1/2SM FG OVC002 06/06 A2992 870 96 0 180/09 RMK AO2 TWR VIS 3/4
14837KMSN MSN20071119105012611/19/07 10:50:31  5-MIN KMSN 191650Z 18008KT 1/2SM FG OVC002 06/06 A2992 860 96 0 180/08 RMK AO2 TWR VIS 3/4 SLP139 T00610056
14837KMSN MSN20071119105510911/19/07 10:55:31  5-MIN KMSN 191655Z 19006KT 1/2SM FG OVC002 06/06 A2993 860 96 0 190/06 RMK AO2 TWR VIS 3/4
14837KMSN MSN20071119110010911/19/07 11:00:31  5-MIN KMSN 191700Z 19006KT 1/2SM FG OVC002 06/06 A2992 860 96 0 190/06 RMK AO2 TWR VIS 3/4
14837KMSN MSN20071119110510911/19/07 11:05:31  5-MIN KMSN 191705Z 18008KT 1/2SM FG OVC002 06/06 A2992 870 96 0 180/08 RMK AO2 TWR VIS 3/4
14837KMSN MSN20071119111010911/19/07 11:10:31  5-MIN KMSN 191710Z 18007KT 1/2SM FG OVC002 06/06 A2991 870 96 0 180/07 RMK AO2 TWR VIS 3/4
14837KMSN MSN20071119111510911/19/07 11:15:31  5-MIN KMSN 191715Z 18008KT 1/2SM FG OVC002 06/06 A2991 870 96 0 180/08 RMK AO2 TWR VIS 3/4
14837KMSN MSN20071119112011111/19/07 11:20:31  5-MIN KMSN 191720Z 19005KT 1/2SM FG OVC002 07/06 A2991 870 96 100 190/05 RMK AO2 TWR VIS 3/4
14837KMSN MSN20071119112511111/19/07 11:25:31  5-MIN KMSN 191725Z 19006KT 1/2SM FG OVC002 07/06 A2991 870 96 100 190/06 RMK AO2 TWR VIS 3/4
14837KMSN MSN20071119113011111/19/07 11:30:31  5-MIN KMSN 191730Z 18006KT 1/2SM FG OVC002 07/06 A2990 880 96 100 180/06 RMK AO2 TWR VIS 3/4
14837KMSN MSN20071119113511111/19/07 11:35:31  5-MIN KMSN 191735Z 18007KT 1/2SM FG OVC002 07/06 A2990 880 96 100 180/07 RMK AO2 TWR VIS 3/4
14837KMSN MSN20071119114011111/19/07 11:40:31  5-MIN KMSN 191740Z 18007KT 1/2SM FG OVC002 07/06 A2989 890 96 100 180/07 RMK AO2 TWR VIS 3/4
14837KMSN MSN20071119114511811/19/07 11:45:31  5-MIN KMSN 191745Z 17008KT 1/2SM FG OVC002 07/06 A2989 900 96 100 170/08 RMK AO2 TWR VIS 3/4 PRESFR
14837KMSN MSN20071119115014611/19/07 11:50:31  5-MIN KMSN 191750Z 17007KT 1/2SM FG OVC002 07/06 A2988 900 96 100 170/07 RMK AO2 TWR VIS 3/4 SLP126 T00670061 10067 20039 58011
14837KMSN MSN20071119115511111/19/07 11:55:31  5-MIN KMSN 191755Z 17008KT 1/2SM FG OVC002 07/06 A2988 900 96 200 170/08 RMK AO2 TWR VIS 3/4
14837KMSN MSN20071119120011111/19/07 12:00:31  5-MIN KMSN 191800Z 17008KT 1/2SM FG OVC002 07/07 A2987 910 96 200 170/08 RMK AO2 TWR VIS 3/4
14837KMSN MSN20071119120511811/19/07 12:05:31  5-MIN KMSN 191805Z 17009KT 1/2SM FG OVC002 07/07 A2987 910 96 200 160/09 RMK AO2 TWR VIS 3/4 PRESFR
14837KMSN MSN20071119121011811/19/07 12:10:31  5-MIN KMSN 191810Z 17008KT 1/2SM FG OVC002 07/07 A2986 920 96 200 160/08 RMK AO2 TWR VIS 3/4 PRESFR
14837KMSN MSN20071119121511111/19/07 12:15:31  5-MIN KMSN 191815Z 17008KT 1/2SM FG OVC002 07/07 A2986 920 96 200 170/08 RMK AO2 TWR VIS 3/4
14837KMSN MSN20071119122011111/19/07 12:20:31  5-MIN KMSN 191820Z 17008KT 1/2SM FG OVC002 07/07 A2986 920 96 200 170/08 RMK AO2 TWR VIS 3/4
14837KMSN MSN20071119122511111/19/07 12:25:31  5-MIN KMSN 191825Z 17009KT 1/2SM FG OVC002 07/07 A2985 930 96 300 170/09 RMK AO2 TWR VIS 3/4
14837KMSN MSN20071119123011111/19/07 12:30:31  5-MIN KMSN 191830Z 17011KT 1/2SM FG OVC002 07/07 A2985 930 96 300 170/11 RMK AO2 TWR VIS 3/4
14837KMSN MSN20071119123511111/19/07 12:35:31  5-MIN KMSN 191835Z 17010KT 1/2SM FG OVC002 07/07 A2984 930 96 300 170/10 RMK AO2 TWR VIS 3/4
14837KMSN MSN20071119124011111/19/07 12:40:31  5-MIN KMSN 191840Z 17010KT 1/2SM FG OVC002 07/07 A2984 940 96 300 160/10 RMK AO2 TWR VIS 3/4
14837KMSN MSN20071119124511111/19/07 12:45:31  5-MIN KMSN 191845Z 17011KT 1/2SM FG OVC002 08/07 A2984 940 93 300 170/11 RMK AO2 TWR VIS 3/4
14837KMSN MSN20071119125012811/19/07 12:50:31  5-MIN KMSN 191850Z 17011KT 1/2SM FG OVC002 08/07 A2984 940 96 300 170/11 RMK AO2 TWR VIS 3/4 SLP108 T00780072
14837KMSN MSN20071119125511111/19/07 12:55:31  5-MIN KMSN 191855Z 17010KT 1/2SM FG OVC002 08/07 A2983 950 96 300 170/10 RMK AO2 TWR VIS 3/4
14837KMSN MSN20071119130011111/19/07 13:00:31  5-MIN KMSN 191900Z 18012KT 1/2SM FG OVC002 08/07 A2982 950 96 400 170/12 RMK AO2 TWR VIS 3/4
14837KMSN MSN20071119130511111/19/07 13:05:31  5-MIN KMSN 191905Z 18009KT 1/2SM FG OVC002 08/07 A2982 950 96 400 180/09 RMK AO2 TWR VIS 3/4
14837KMSN MSN20071119131009911/19/07 13:10:31  5-MIN KMSN 191910Z 18010KT 3/4SM BR OVC002 08/07 A2982 950 96 400 180/10 RMK AO2
14837KMSN MSN20071119131509911/19/07 13:15:31  5-MIN KMSN 191915Z 18008KT 3/4SM BR OVC002 08/07 A2982 960 96 400 180/08 RMK AO2
14837KMSN MSN20071119132009911/19/07 13:20:31  5-MIN KMSN 191920Z 17010KT 3/4SM BR OVC002 08/07 A2981 970 96 400 170/10 RMK AO2
14837KMSN MSN20071119132509911/19/07 13:25:31  5-MIN KMSN 191925Z 18009KT 3/4SM BR OVC002 08/07 A2981 970 96 400 180/09 RMK AO2
14837KMSN MSN20071119133009911/19/07 13:30:31  5-MIN KMSN 191930Z 18009KT 3/4SM BR OVC002 08/07 A2980 970 93 400 180/09 RMK AO2
14837KMSN MSN20071119133511111/19/07 13:35:31  5-MIN KMSN 191935Z 18011KT 1/2SM FG OVC002 08/07 A2980 980 93 400 180/11 RMK AO2 TWR VIS 3/4
14837KMSN MSN20071119134011111/19/07 13:40:31  5-MIN KMSN 191940Z 18009KT 1/2SM FG OVC002 08/07 A2980 980 93 500 180/09 RMK AO2 TWR VIS 3/4
14837KMSN MSN20071119134511111/19/07 13:45:31  5-MIN KMSN 191945Z 18010KT 1/2SM FG OVC002 08/08 A2979 980 96 500 180/10 RMK AO2 TWR VIS 3/4
14837KMSN MSN20071119135011611/19/07 13:50:31  5-MIN KMSN 191950Z 18009KT 3/4SM BR OVC002 08/08 A2979 990 96 500 180/09 RMK AO2 SLP092 T00830078
14837KMSN MSN20071119135509911/19/07 13:55:31  5-MIN KMSN 191955Z 18008KT 3/4SM BR OVC002 08/08 A2978 990 96 500 180/08 RMK AO2
14837KMSN MSN20071119140009911/19/07 14:00:31  5-MIN KMSN 192000Z 19010KT 3/4SM BR OVC002 08/08 A2978 990 96 500 190/10 RMK AO2
14837KMSN MSN20071119140509911/19/07 14:05:31  5-MIN KMSN 192005Z 19009KT 3/4SM BR OVC002 09/08 A2978 990 93 500 190/09 RMK AO2
14837KMSN MSN20071119141011011/19/07 14:10:31  5-MIN KMSN 192010Z 18009KT 3/4SM BR OVC002 09/08 A2978 1000 96 500 180/09 RMK AO2 SFC VIS 1
14837KMSN MSN20071119141511011/19/07 14:15:31  5-MIN KMSN 192015Z 18009KT 3/4SM BR OVC002 09/08 A2978 1000 96 500 180/09 RMK AO2 SFC VIS 1
14837KMSN MSN20071119142011011/19/07 14:20:31  5-MIN KMSN 192020Z 19008KT 3/4SM BR OVC002 09/08 A2978 1000 96 500 190/08 RMK AO2 SFC VIS 1
14837KMSN MSN20071119142511011/19/07 14:25:31  5-MIN KMSN 192025Z 18009KT 3/4SM BR OVC002 09/08 A2977 1000 96 500 180/09 RMK AO2 SFC VIS 1
14837KMSN MSN20071119143011011/19/07 14:30:31  5-MIN KMSN 192030Z 19008KT 3/4SM BR OVC002 09/08 A2977 1000 93 600 190/08 RMK AO2 SFC VIS 1
14837KMSN MSN20071119143511611/19/07 14:35:31  5-MIN KMSN 192035Z 18010KT 3/4SM BR OVC002 09/08 A2977 1010 93 600 180/10 RMK AO2 SFC VIS 1 P0001
14837KMSN MSN20071119144011011/19/07 14:40:31  5-MIN KMSN 192040Z 18010KT 3/4SM BR OVC002 09/08 A2976 1010 93 600 180/10 RMK AO2 SFC VIS 1
14837KMSN MSN20071119144511011/19/07 14:45:31  5-MIN KMSN 192045Z 19009KT 3/4SM BR OVC002 09/08 A2976 1010 93 600 190/09 RMK AO2 SFC VIS 1
14837KMSN MSN20071119145013311/19/07 14:50:31  5-MIN KMSN 192050Z 19009KT 3/4SM BR OVC002 09/08 A2976 1010 93 600 190/09 RMK AO2 SFC VIS 1 SLP083 T00940083 58029
14837KMSN MSN20071119145511011/19/07 14:55:31  5-MIN KMSN 192055Z 19008KT 3/4SM BR OVC002 09/09 A2976 1010 96 600 190/08 RMK AO2 SFC VIS 1
14837KMSN MSN20071119150011011/19/07 15:00:31  5-MIN KMSN 192100Z 20009KT 3/4SM BR OVC002 09/09 A2976 1010 96 600 200/09 RMK AO2 SFC VIS 1
14837KMSN MSN20071119150511011/19/07 15:05:31  5-MIN KMSN 192105Z 20009KT 3/4SM BR OVC002 09/09 A2977 1010 96 600 200/09 RMK AO2 SFC VIS 1
14837KMSN MSN20071119151010011/19/07 15:10:31  5-MIN KMSN 192110Z 20006KT 3/4SM BR OVC002 09/09 A2977 1000 96 600 200/06 RMK AO2
14837KMSN MSN20071119151510011/19/07 15:15:31  5-MIN KMSN 192115Z 20007KT 3/4SM BR OVC002 09/09 A2977 1000 96 600 200/07 RMK AO2
14837KMSN MSN20071119152010011/19/07 15:20:31  5-MIN KMSN 192120Z 20006KT 3/4SM BR OVC002 09/09 A2977 1010 96 600 200/06 RMK AO2
14837KMSN MSN20071119152510011/19/07 15:25:31  5-MIN KMSN 192125Z 20007KT 3/4SM BR OVC002 09/09 A2977 1010 96 600 200/07 RMK AO2
14837KMSN MSN20071119153010011/19/07 15:30:31  5-MIN KMSN 192130Z 21006KT 3/4SM BR OVC002 09/09 A2977 1010 96 600 210/06 RMK AO2
14837KMSN MSN20071119153510011/19/07 15:35:31  5-MIN KMSN 192135Z 23005KT 3/4SM BR OVC002 10/09 A2978 1000 93 700 230/05 RMK AO2
14837KMSN MSN20071119154010011/19/07 15:40:31  5-MIN KMSN 192140Z 22005KT 3/4SM BR OVC002 10/09 A2977 1000 96 700 220/05 RMK AO2
14837KMSN MSN20071119154509911/19/07 15:45:31  5-MIN KMSN 192145Z 23006KT 3/4SM BR OVC002 10/09 A2978 990 96 700 230/06 RMK AO2
14837KMSN MSN20071119155011611/19/07 15:50:31  5-MIN KMSN 192150Z 24008KT 3/4SM BR OVC002 10/09 A2979 990 96 700 240/08 RMK AO2 SLP092 T01000094
14837KMSN MSN20071119155509711/19/07 15:55:31  5-MIN KMSN 192155Z 24006KT 1SM BR OVC002 10/09 A2979 980 96 700 240/06 RMK AO2
14837KMSN MSN20071119160011111/19/07 16:00:31  5-MIN KMSN 192200Z 24005KT 1SM BR OVC004 10/09 A2980 980 96 600 240/05 RMK AO2 SFC VIS 1 1/4
14837KMSN MSN20071119160510911/19/07 16:05:31  5-MIN KMSN 192205Z 25005KT 1SM BR OVC004 10/09 A2980 970 96 600 250/05 RMK AO2 CIG 003V008
14837KMSN MSN20071119161010911/19/07 16:10:31  5-MIN KMSN 192210Z 26005KT 1SM BR OVC004 10/09 A2981 970 96 600 260/05 RMK AO2 CIG 003V008
14837KMSN MSN20071119161512511/19/07 16:15:31  5-MIN KMSN 192215Z VRB04KT 1SM -DZ BR OVC004 10/09 A2981 970 96 600 VRB/04 RMK AO2 DZB15 CIG 003V008 P0000
14837KMSN MSN20071119162011311/19/07 16:20:31  5-MIN KMSN 192220Z VRB05KT 1SM -DZ BR OVC004 10/09 A2980 970 96 600 VRB/05 RMK AO2 DZB15 P0000
14837KMSN MSN20071119162511311/19/07 16:25:31  5-MIN KMSN 192225Z VRB04KT 1SM -DZ BR OVC006 10/09 A2980 970 96 600 VRB/04 RMK AO2 DZB15 P0000
14837KMSN MSN20071119163011311/19/07 16:30:31  5-MIN KMSN 192230Z 24004KT 1SM -DZ BR OVC006 10/09 A2981 970 96 600 240/04 RMK AO2 DZB15 P0000
14837KMSN MSN20071119163511311/19/07 16:35:31  5-MIN KMSN 192235Z VRB03KT 1SM -DZ BR OVC006 10/09 A2981 970 96 600 VRB/03 RMK AO2 DZB15 P0000
14837KMSN MSN20071119164011311/19/07 16:40:31  5-MIN KMSN 192240Z VRB04KT 1SM -DZ BR OVC006 10/09 A2981 970 96 600 VRB/04 RMK AO2 DZB15 P0000
14837KMSN MSN20071119164511311/19/07 16:45:31  5-MIN KMSN 192245Z 25004KT 1SM -DZ BR OVC006 10/09 A2981 970 96 600 250/04 RMK AO2 DZB15 P0000
14837KMSN MSN20071119165013011/19/07 16:50:31  5-MIN KMSN 192250Z 25003KT 1SM -DZ BR OVC006 10/09 A2981 970 96 600 250/03 RMK AO2 DZB15 SLP098 P0000 T01000094
14837KMSN MSN20071119165510711/19/07 16:55:31  5-MIN KMSN 192255Z 24004KT 1SM -DZ BR OVC006 10/09 A2981 970 96 600 230/04 RMK AO2 P0000
14837KMSN MSN20071119170011911/19/07 17:00:31  5-MIN KMSN 192300Z 25003KT 1SM -DZ BR OVC006 10/09 A2981 970 96 600 250/03 RMK AO2 CIG 004V008 P0000
14837KMSN MSN20071119170511911/19/07 17:05:31  5-MIN KMSN 192305Z VRB03KT 1SM -DZ BR OVC006 10/09 A2981 970 96 600 VRB/03 RMK AO2 CIG 003V008 P0000
14837KMSN MSN20071119171011911/19/07 17:10:31  5-MIN KMSN 192310Z 25003KT 1SM -DZ BR OVC006 10/09 A2981 970 96 600 250/03 RMK AO2 CIG 003V008 P0000
14837KMSN MSN20071119171511911/19/07 17:15:31  5-MIN KMSN 192315Z 26003KT 1SM -DZ BR OVC006 10/09 A2981 970 96 600 250/03 RMK AO2 CIG 003V008 P0000
14837KMSN MSN20071119172011911/19/07 17:20:31  5-MIN KMSN 192320Z 00000KT 1SM -DZ BR OVC004 10/09 A2981 960 96 600 000/00 RMK AO2 CIG 003V008 P0000
14837KMSN MSN20071119172512111/19/07 17:25:31  5-MIN KMSN 192325Z VRB03KT 1SM BR OVC004 10/09 A2981 960 96 600 VRB/03 RMK AO2 DZE23 CIG 003V008 P0000
14837KMSN MSN20071119173012111/19/07 17:30:31  5-MIN KMSN 192330Z 28003KT 1SM BR OVC004 10/09 A2982 960 96 600 280/03 RMK AO2 DZE23 CIG 003V008 P0000
14837KMSN MSN20071119173510911/19/07 17:35:31  5-MIN KMSN 192335Z 27003KT 1SM BR OVC004 10/09 A2982 960 96 600 270/03 RMK AO2 DZE23 P0000
14837KMSN MSN20071119174010911/19/07 17:40:31  5-MIN KMSN 192340Z 00000KT 1SM BR OVC004 10/09 A2982 960 96 600 000/00 RMK AO2 DZE23 P0000
14837KMSN MSN20071119174510911/19/07 17:45:31  5-MIN KMSN 192345Z 00000KT 1SM BR OVC004 10/09 A2982 960 96 600 000/00 RMK AO2 DZE23 P0000
14837KMSN MSN20071119175015011/19/07 17:50:31  5-MIN KMSN 192350Z 00000KT 1SM BR OVC004 10/09 A2982 960 96 600 000/00 RMK AO2 DZE23 SLP101 P0000 60000 T01000094 10100 20067 56041
14837KMSN MSN20071119175509711/19/07 17:55:31  5-MIN KMSN 192355Z 00000KT 1SM BR OVC004 10/09 A2982 960 96 600 000/00 RMK AO2
14837KMSN MSN20071119180009711/19/07 18:00:31  5-MIN KMSN 200000Z 00000KT 1SM BR OVC004 10/09 A2982 960 96 600 000/00 RMK AO2
14837KMSN MSN20071119180509711/19/07 18:05:31  5-MIN KMSN 200005Z 00000KT 1SM BR OVC004 10/09 A2982 960 96 600 000/00 RMK AO2
14837KMSN MSN20071119181009711/19/07 18:10:31  5-MIN KMSN 200010Z 00000KT 1SM BR OVC004 10/09 A2982 960 96 600 000/00 RMK AO2
14837KMSN MSN20071119181509711/19/07 18:15:31  5-MIN KMSN 200015Z 30003KT 1SM BR OVC004 10/09 A2982 960 96 600 300/03 RMK AO2
14837KMSN MSN20071119182009711/19/07 18:20:31  5-MIN KMSN 200020Z 30003KT 1SM BR OVC004 10/09 A2982 950 96 600 300/03 RMK AO2
14837KMSN MSN20071119182509711/19/07 18:25:31  5-MIN KMSN 200025Z 30003KT 1SM BR OVC004 10/09 A2982 960 96 600 300/03 RMK AO2
14837KMSN MSN20071119183009711/19/07 18:30:31  5-MIN KMSN 200030Z 29003KT 1SM BR OVC004 10/09 A2982 950 96 600 290/03 RMK AO2
14837KMSN MSN20071119183509711/19/07 18:35:31  5-MIN KMSN 200035Z 30003KT 1SM BR OVC002 10/09 A2983 950 96 600 300/03 RMK AO2
14837KMSN MSN20071119184009711/19/07 18:40:31  5-MIN KMSN 200040Z 00000KT 1SM BR OVC002 10/09 A2983 950 96 600 000/00 RMK AO2
14837KMSN MSN20071119184509711/19/07 18:45:31  5-MIN KMSN 200045Z 32004KT 1SM BR OVC002 10/09 A2983 950 96 600 320/04 RMK AO2
14837KMSN MSN20071119185011411/19/07 18:50:31  5-MIN KMSN 200050Z 32003KT 1SM BR OVC002 10/09 A2983 950 96 600 320/03 RMK AO2 SLP106 T01000094
14837KMSN MSN20071119185509711/19/07 18:55:31  5-MIN KMSN 200055Z 32004KT 1SM BR OVC002 10/09 A2983 940 93 600 320/04 RMK AO2
14837KMSN MSN20071119190010911/19/07 19:00:31  5-MIN KMSN 200100Z 32004KT 1SM BR OVC002 10/09 A2984 940 93 600 320/04 RMK AO2 CIG 001V005
14837KMSN MSN20071119190509711/19/07 19:05:31  5-MIN KMSN 200105Z 32004KT 1SM BR OVC002 09/09 A2984 940 96 500 320/04 RMK AO2
14837KMSN MSN20071119191009711/19/07 19:10:31  5-MIN KMSN 200110Z 33005KT 1SM BR OVC002 09/09 A2984 930 96 500 330/05 RMK AO2
14837KMSN MSN20071119191509711/19/07 19:15:31  5-MIN KMSN 200115Z 33005KT 1SM BR OVC002 09/09 A2985 930 96 500 320/05 RMK AO2
14837KMSN MSN20071119192009711/19/07 19:20:31  5-MIN KMSN 200120Z 32007KT 1SM BR OVC002 09/09 A2985 930 96 500 320/07 RMK AO2
14837KMSN MSN20071119192510911/19/07 19:25:31  5-MIN KMSN 200125Z 32006KT 1SM BR OVC002 09/08 A2985 930 93 500 320/06 RMK AO2 CIG 003V007
14837KMSN MSN20071119193010911/19/07 19:30:31  5-MIN KMSN 200130Z 32006KT 1SM BR OVC004 09/08 A2985 930 93 500 320/06 RMK AO2 CIG 003V008
14837KMSN MSN20071119193510911/19/07 19:35:31  5-MIN KMSN 200135Z 33005KT 2SM BR OVC004 09/08 A2985 930 93 500 330/05 RMK AO2 CIG 003V008
14837KMSN MSN20071119194010911/19/07 19:40:31  5-MIN KMSN 200140Z 32006KT 2SM BR OVC004 09/08 A2985 930 93 500 320/06 RMK AO2 CIG 003V007
14837KMSN MSN20071119194511611/19/07 19:45:31  5-MIN KMSN 200145Z 32006KT 2SM BR BKN006 OVC010 09/08 A2985 930 93 500 320/06 RMK AO2 CIG 003V009
14837KMSN MSN20071119195013311/19/07 19:50:31  5-MIN KMSN 200150Z 32006KT 2SM BR BKN006 OVC012 09/08 A2985 920 89 500 320/06 RMK AO2 CIG 004V009 SLP114 T00940078
14837KMSN MSN20071119195510411/19/07 19:55:31  5-MIN KMSN 200155Z 32005KT 2SM BR SCT006 OVC012 09/08 A2986 920 89 500 320/05 RMK AO2
14837KMSN MSN20071119200011411/19/07 20:00:31  5-MIN KMSN 200200Z 31006KT 2SM BR SCT006 OVC012 09/08 A2986 920 93 400 310/06 RMK AO2 SFC VIS 3
14837KMSN MSN20071119200511411/19/07 20:05:31  5-MIN KMSN 200205Z 32005KT 2SM BR FEW006 OVC012 09/08 A2986 920 93 400 310/05 RMK AO2 SFC VIS 3
14837KMSN MSN20071119201010411/19/07 20:10:31  5-MIN KMSN 200210Z 31005KT 3SM BR FEW006 OVC012 09/08 A2986 920 93 400 310/05 RMK AO2
14837KMSN MSN20071119201509711/19/07 20:15:31  5-MIN KMSN 200215Z 31006KT 3SM BR OVC014 09/08 A2986 920 93 400 310/06 RMK AO2
14837KMSN MSN20071119202009711/19/07 20:20:31  5-MIN KMSN 200220Z 33005KT 3SM BR OVC014 09/07 A2986 920 89 400 320/05 RMK AO2
14837KMSN MSN20071119202509711/19/07 20:25:31  5-MIN KMSN 200225Z 34006KT 3SM BR OVC014 09/07 A2987 910 89 400 340/06 RMK AO2
14837KMSN MSN20071119203010411/19/07 20:30:31  5-MIN KMSN 200230Z 35009KT 3SM BR SCT009 OVC014 09/07 A2987 910 89 400 350/09 RMK AO2
14837KMSN MSN20071119203510411/19/07 20:35:31  5-MIN KMSN 200235Z 34007KT 3SM BR FEW009 OVC014 08/07 A2987 910 93 400 340/07 RMK AO2
14837KMSN MSN20071119204010411/19/07 20:40:31  5-MIN KMSN 200240Z 34006KT 3SM BR FEW009 OVC014 08/07 A2987 910 93 400 340/06 RMK AO2
14837KMSN MSN20071119204510411/19/07 20:45:31  5-MIN KMSN 200245Z 33006KT 3SM BR FEW009 OVC014 08/07 A2988 910 89 400 330/06 RMK AO2
14837KMSN MSN20071119205012711/19/07 20:50:31  5-MIN KMSN 200250Z 33007KT 3SM BR SCT010 OVC014 08/07 A2988 900 89 400 330/07 RMK AO2 SLP123 T00830067 51019
14837KMSN MSN20071119205509711/19/07 20:55:31  5-MIN KMSN 200255Z 33005KT 3SM BR OVC012 08/07 A2988 910 89 400 330/05 RMK AO2
14837KMSN MSN20071119210009711/19/07 21:00:31  5-MIN KMSN 200300Z 34006KT 3SM BR OVC014 08/07 A2988 900 89 400 340/06 RMK AO2
14837KMSN MSN20071119210509711/19/07 21:05:31  5-MIN KMSN 200305Z 34006KT 3SM BR OVC014 08/07 A2987 910 89 400 340/06 RMK AO2
14837KMSN MSN20071119211009711/19/07 21:10:31  5-MIN KMSN 200310Z 34007KT 3SM BR OVC014 08/06 A2987 910 86 400 340/07 RMK AO2
14837KMSN MSN20071119211509711/19/07 21:15:31  5-MIN KMSN 200315Z 33005KT 3SM BR OVC014 08/06 A2987 910 86 400 330/05 RMK AO2
14837KMSN MSN20071119212010711/19/07 21:20:31  5-MIN KMSN 200320Z 35006KT 3SM BR OVC014 08/06 A2987 910 89 300 350/06 RMK AO2 SFC VIS 4
14837KMSN MSN20071119212510711/19/07 21:25:31  5-MIN KMSN 200325Z 34006KT 3SM BR OVC014 08/06 A2988 900 86 300 340/06 RMK AO2 SFC VIS 4
14837KMSN MSN20071119213010711/19/07 21:30:31  5-MIN KMSN 200330Z 33003KT 3SM BR OVC014 08/06 A2988 900 86 300 330/03 RMK AO2 SFC VIS 4
14837KMSN MSN20071119213510711/19/07 21:35:31  5-MIN KMSN 200335Z 34005KT 3SM BR OVC012 08/06 A2988 900 86 300 340/05 RMK AO2 SFC VIS 4
14837KMSN MSN20071119214010711/19/07 21:40:31  5-MIN KMSN 200340Z 35006KT 3SM BR OVC012 08/06 A2988 900 86 300 350/06 RMK AO2 SFC VIS 4
14837KMSN MSN20071119214511911/19/07 21:45:31  5-MIN KMSN 200345Z 33007KT 3SM BR OVC010 08/06 A2989 890 86 300 330/07 RMK AO2 SFC VIS 4 CIG 010V013
14837KMSN MSN20071119215012411/19/07 21:50:31  5-MIN KMSN 200350Z 34008KT 3SM BR OVC010 08/06 A2989 890 86 300 340/08 RMK AO2 SFC VIS 4 SLP127 T00780056
14837KMSN MSN20071119215510711/19/07 21:55:31  5-MIN KMSN 200355Z 35007KT 3SM BR OVC012 08/06 A2989 890 86 300 340/07 RMK AO2 SFC VIS 4
14837KMSN MSN20071119220010711/19/07 22:00:31  5-MIN KMSN 200400Z 34007KT 3SM BR OVC012 07/06 A2989 890 89 200 340/07 RMK AO2 SFC VIS 4
14837KMSN MSN20071119220510711/19/07 22:05:31  5-MIN KMSN 200405Z 34007KT 3SM BR OVC012 07/06 A2989 890 89 200 340/07 RMK AO2 SFC VIS 4
14837KMSN MSN20071120001009711/20/07 00:10:31  5-MIN KMSN 200610Z 35007KT 3SM BR OVC014 07/04 A2993 860 86 100 350/07 RMK AO2
14837KMSN MSN20071120001509711/20/07 00:15:31  5-MIN KMSN 200615Z 34007KT 3SM BR OVC014 07/04 A2993 850 86 100 340/07 RMK AO2
14837KMSN MSN20071120002009711/20/07 00:20:31  5-MIN KMSN 200620Z 35009KT 3SM BR OVC014 07/04 A2993 850 86 100 350/09 RMK AO2
14837KMSN MSN20071120002509711/20/07 00:25:31  5-MIN KMSN 200625Z 35008KT 3SM BR OVC014 07/04 A2994 850 86 100 350/08 RMK AO2
14837KMSN MSN20071120003009711/20/07 00:30:31  5-MIN KMSN 200630Z 35007KT 3SM BR OVC014 07/04 A2994 850 86 100 350/07 RMK AO2
14837KMSN MSN20071120003509711/20/07 00:35:31  5-MIN KMSN 200635Z 34004KT 3SM BR OVC014 07/04 A2994 850 86 100 340/04 RMK AO2
14837KMSN MSN20071120004009711/20/07 00:40:31  5-MIN KMSN 200640Z 35009KT 3SM BR OVC014 07/04 A2994 850 86 100 350/09 RMK AO2
14837KMSN MSN20071120004509711/20/07 00:45:31  5-MIN KMSN 200645Z 35007KT 3SM HZ OVC014 07/04 A2994 850 82 100 350/07 RMK AO2
14837KMSN MSN20071120005011411/20/07 00:50:31  5-MIN KMSN 200650Z 35008KT 3SM HZ OVC014 07/04 A2994 850 82 100 350/08 RMK AO2 SLP142 T00670039
14837KMSN MSN20071120005509711/20/07 00:55:31  5-MIN KMSN 200655Z 36009KT 3SM HZ OVC014 07/04 A2993 850 82 100 360/09 RMK AO2
14837KMSN MSN20071120010009511/20/07 01:00:31  5-MIN KMSN 200700Z 35008KT 3SM BR OVC014 06/04 A2993 850 86 0 350/08 RMK AO2
14837KMSN MSN20071120010509511/20/07 01:05:31  5-MIN KMSN 200705Z 01006KT 3SM BR OVC012 06/04 A2993 850 86 0 010/06 RMK AO2
14837KMSN MSN20071120011009511/20/07 01:10:31  5-MIN KMSN 200710Z 35006KT 3SM BR OVC012 06/04 A2994 850 86 0 350/06 RMK AO2
14837KMSN MSN20071120011509511/20/07 01:15:31  5-MIN KMSN 200715Z 34007KT 3SM BR OVC012 06/04 A2994 840 86 0 340/07 RMK AO2
14837KMSN MSN20071120012009511/20/07 01:20:31  5-MIN KMSN 200720Z 35008KT 3SM BR OVC012 06/04 A2994 850 86 0 350/08 RMK AO2
14837KMSN MSN20071120012509511/20/07 01:25:31  5-MIN KMSN 200725Z 36009KT 3SM BR OVC012 06/04 A2994 840 86 0 350/09 RMK AO2
14837KMSN MSN20071120013009511/20/07 01:30:31  5-MIN KMSN 200730Z 35008KT 3SM BR OVC012 06/04 A2994 850 86 0 350/08 RMK AO2
14837KMSN MSN20071120013509511/20/07 01:35:31  5-MIN KMSN 200735Z 35008KT 3SM BR OVC012 06/04 A2994 850 86 0 340/08 RMK AO2
14837KMSN MSN20071120014009511/20/07 01:40:31  5-MIN KMSN 200740Z 36009KT 3SM BR OVC012 06/04 A2994 850 86 0 350/09 RMK AO2
14837KMSN MSN20071120014509511/20/07 01:45:31  5-MIN KMSN 200745Z 36008KT 3SM BR OVC012 06/04 A2994 850 86 0 360/08 RMK AO2
14837KMSN MSN20071120015011211/20/07 01:50:31  5-MIN KMSN 200750Z 02009KT 3SM BR OVC012 06/04 A2994 840 89 0 020/09 RMK AO2 SLP144 T00560039
14837KMSN MSN20071120015509511/20/07 01:55:31  5-MIN KMSN 200755Z 02007KT 3SM BR OVC012 06/04 A2994 840 89 0 010/07 RMK AO2
14837KMSN MSN20071120020009811/20/07 02:00:31  5-MIN KMSN 200800Z 01008KT 3SM BR OVC012 05/03 A2994 850 89 -100 010/08 RMK AO2
14837KMSN MSN20071120020509811/20/07 02:05:31  5-MIN KMSN 200805Z 01008KT 3SM BR BKN012 05/03 A2994 840 89 -100 010/08 RMK AO2
14837KMSN MSN20071120021009811/20/07 02:10:31  5-MIN KMSN 200810Z 35005KT 3SM BR BKN012 05/03 A2995 840 89 -100 350/05 RMK AO2
14837KMSN MSN20071120021509811/20/07 02:15:31  5-MIN KMSN 200815Z 35004KT 3SM BR SCT012 04/03 A2995 830 92 -200 350/04 RMK AO2
14837KMSN MSN20071120022009811/20/07 02:20:31  5-MIN KMSN 200820Z 01003KT 3SM BR SCT012 04/03 A2995 830 92 -200 010/03 RMK AO2
14837KMSN MSN20071120022510211/20/07 02:25:31  5-MIN KMSN 200825Z 36004KT 2 1/2SM BR FEW012 04/03 A2995 840 89 -100 360/04 RMK AO2
14837KMSN MSN20071120023010211/20/07 02:30:31  5-MIN KMSN 200830Z 01005KT 2 1/2SM BR FEW012 03/03 A2995 840 96 -300 010/05 RMK AO2
14837KMSN MSN20071120023509911/20/07 02:35:31  5-MIN KMSN 200835Z 01003KT 2 1/2SM BR CLR 03/02 A2995 840 92 -300 010/03 RMK AO2
14837KMSN MSN20071120024009911/20/07 02:40:31  5-MIN KMSN 200840Z 35003KT 2 1/2SM BR CLR 04/03 A2995 840 92 -200 350/03 RMK AO2
14837KMSN MSN20071120024509911/20/07 02:45:31  5-MIN KMSN 200845Z 00000KT 2 1/2SM BR CLR 04/03 A2995 840 89 -100 000/00 RMK AO2
14837KMSN MSN20071120025012211/20/07 02:50:31  5-MIN KMSN 200850Z 00000KT 2 1/2SM BR CLR 04/03 A2995 840 92 -100 000/00 RMK AO2 SLP145 T00440033 53018
14837KMSN MSN20071120025509911/20/07 02:55:31  5-MIN KMSN 200855Z 00000KT 2 1/2SM BR CLR 04/03 A2995 840 92 -200 000/00 RMK AO2
14837KMSN MSN20071120030009911/20/07 03:00:31  5-MIN KMSN 200900Z 00000KT 2 1/2SM BR CLR 04/03 A2995 840 89 -100 000/00 RMK AO2
14837KMSN MSN20071120030509511/20/07 03:05:31  5-MIN KMSN 200905Z 00000KT 2SM BR CLR 04/02 A2995 840 89 -200 000/00 RMK AO2
14837KMSN MSN20071120031009511/20/07 03:10:31  5-MIN KMSN 200910Z 00000KT 2SM BR CLR 03/02 A2995 840 92 -300 000/00 RMK AO2
14837KMSN MSN20071120031509911/20/07 03:15:31  5-MIN KMSN 200915Z 00000KT 1 3/4SM BR CLR 03/02 A2994 840 92 -300 000/00 RMK AO2
14837KMSN MSN20071120032009511/20/07 03:20:31  5-MIN KMSN 200920Z 00000KT 2SM BR CLR 03/03 A2996 830 96 -300 000/00 RMK AO2
14837KMSN MSN20071120032509511/20/07 03:25:31  5-MIN KMSN 200925Z 00000KT 2SM BR CLR 03/02 A2996 830 92 -300 000/00 RMK AO2
14837KMSN MSN20071120033009511/20/07 03:30:31  5-MIN KMSN 200930Z 00000KT 2SM BR CLR 03/02 A2996 820 96 -400 000/00 RMK AO2
14837KMSN MSN20071120033509911/20/07 03:35:31  5-MIN KMSN 200935Z 00000KT 1 1/2SM BR CLR 02/01 A2996 820 96 -500 000/00 RMK AO2
14837KMSN MSN20071120034009911/20/07 03:40:31  5-MIN KMSN 200940Z 00000KT 1 1/4SM BR CLR 02/01 A2997 820 96 -500 000/00 RMK AO2
14837KMSN MSN20071120034509911/20/07 03:45:31  5-MIN KMSN 200945Z 00000KT 1 1/4SM BR CLR 02/01 A2997 820 96 -500 000/00 RMK AO2
14837KMSN MSN20071120035011611/20/07 03:50:31  5-MIN KMSN 200950Z 00000KT 1 1/4SM BR CLR 02/01 A2998 810 92 -500 000/00 RMK AO2 SLP156 T00220011
14837KMSN MSN20071120035509911/20/07 03:55:31  5-MIN KMSN 200955Z 00000KT 1 1/2SM BR CLR 02/02 A2997 820 96 -400 000/00 RMK AO2
14837KMSN MSN20071120040009911/20/07 04:00:31  5-MIN KMSN 201000Z 02003KT 1 1/4SM BR CLR 02/01 A2997 820 96 -500 020/03 RMK AO2
14837KMSN MSN20071120040509511/20/07 04:05:31  5-MIN KMSN 201005Z 01004KT 1SM BR CLR 01/01 A2997 820 96 -600 010/04 RMK AO2
14837KMSN MSN20071120041009511/20/07 04:10:31  5-MIN KMSN 201010Z 36004KT 1SM BR CLR 01/01 A2997 820 96 -600 360/04 RMK AO2
14837KMSN MSN20071120041509511/20/07 04:15:31  5-MIN KMSN 201015Z 02004KT 1SM BR CLR 02/01 A2997 810 96 -500 020/04 RMK AO2
14837KMSN MSN20071120042009911/20/07 04:20:31  5-MIN KMSN 201020Z 00000KT 1 1/4SM BR CLR 01/01 A2997 810 96 -600 000/00 RMK AO2
14837KMSN MSN20071120042509911/20/07 04:25:31  5-MIN KMSN 201025Z 00000KT 1 1/4SM BR CLR 01/01 A2998 810 96 -600 000/00 RMK AO2
14837KMSN MSN20071120043009911/20/07 04:30:31  5-MIN KMSN 201030Z 00000KT 1 1/4SM BR CLR 01/01 A2998 810 96 -600 000/00 RMK AO2
14837KMSN MSN20071120043509911/20/07 04:35:31  5-MIN KMSN 201035Z 00000KT 1 1/4SM BR CLR 01/01 A2998 810 96 -600 000/00 RMK AO2
14837KMSN MSN20071120044009811/20/07 04:40:31  5-MIN KMSN 201040Z 00000KT 3/4SM BR CLR 01/01 A2998 810 100 -700 000/00 RMK AO2
14837KMSN MSN20071120044509711/20/07 04:45:31  5-MIN KMSN 201045Z 00000KT 3/4SM BR CLR 01/00 A2998 810 96 -700 000/00 RMK AO2
14837KMSN MSN20071120045009611/20/07 04:50:31  5-MIN KMSN 201050Z 34003KT 1SM BR CLR 01/M01 A2998 810 92 -700 340/03 RMK AO2
14837KMSN MSN20071120045509811/20/07 04:55:31  5-MIN KMSN 201055Z 00000KT 3/4SM BR CLR 01/M01 A2999 800 92 -700 000/00 RMK AO2
14837KMSN MSN20071120050009811/20/07 05:00:31  5-MIN KMSN 201100Z 00000KT 3/4SM BR CLR 01/M01 A2999 800 92 -700 000/00 RMK AO2
14837KMSN MSN20071120050509711/20/07 05:05:31  5-MIN KMSN 201105Z 00000KT 3/4SM BR CLR 01/00 A2999 800 92 -600 000/00 RMK AO2
14837KMSN MSN20071120051009711/20/07 05:10:31  5-MIN KMSN 201110Z 00000KT 3/4SM BR CLR 01/00 A2999 800 96 -700 000/00 RMK AO2
14837KMSN MSN20071120051509811/20/07 05:15:31  5-MIN KMSN 201115Z 00000KT 3/4SM BR CLR 01/01 A2999 800 100 -700 000/00 RMK AO2
14837KMSN MSN20071120052009811/20/07 05:20:31  5-MIN KMSN 201120Z 00000KT 1/4SM FG CLR 00/00 A2999 800 100 -700 000/00 RMK AO2
14837KMSN MSN20071120052509811/20/07 05:25:31  5-MIN KMSN 201125Z 00000KT 3/4SM BR CLR 00/M01 A2999 800 96 -700 000/00 RMK AO2
14837KMSN MSN20071120053009811/20/07 05:30:31  5-MIN KMSN 201130Z 00000KT 3/4SM BR CLR 00/M01 A2999 800 96 -700 000/00 RMK AO2
14837KMSN MSN20071120053510111/20/07 05:35:31  5-MIN KMSN 201135Z 00000KT 1/4SM FG SCT013 00/M01 A2999 800 96 -700 000/00 RMK AO2
14837KMSN MSN20071120054010111/20/07 05:40:31  5-MIN KMSN 201140Z 00000KT 1/4SM FG BKN013 00/M01 A2999 800 96 -800 000/00 RMK AO2
14837KMSN MSN20071120054511211/20/07 05:45:31  5-MIN KMSN 201145Z 00000KT 1/4SM FZFG BKN001 BKN013 M01/M01 A2999 800 100 -800 000/00 RMK AO2
14837KMSN MSN20071120055014711/20/07 05:50:31  5-MIN KMSN 201150Z 02003KT 1/16SM FZFG BKN001 BKN013 M01/M01 A2999 800 96 -800 020/03 RMK AO2 SLP162 T10061011 10067 21006 53006
14837KMSN MSN20071120055511211/20/07 05:55:31  5-MIN KMSN 201155Z 00000KT 1/16SM FZFG BKN001 BKN008 M01/M01 A2999 800 96 -800 000/00 RMK AO2
14837KMSN MSN20071120060010411/20/07 06:00:31  5-MIN KMSN 201200Z 01003KT 1/16SM FZFG VV001 M01/M01 A2999 800 96 -800 010/03 RMK AO2
14837KMSN MSN20071120060511311/20/07 06:05:31  5-MIN KMSN 201205Z 00000KT 1/16SM FG VV001 00/M01 A2998 810 96 -700 000/00 RMK AO2 TWR VIS 1/4
14837KMSN MSN20071120061011611/20/07 06:10:31  5-MIN KMSN 201210Z 00000KT 1/16SM FZFG VV001 M01/M01 A2999 800 96 -800 000/00 RMK AO2 TWR VIS 1/4
14837KMSN MSN20071120061511611/20/07 06:15:31  5-MIN KMSN 201215Z 00000KT 1/16SM FZFG VV001 M01/M01 A2999 800 96 -800 000/00 RMK AO2 TWR VIS 1/4
14837KMSN MSN20071120062011511/20/07 06:20:31  5-MIN KMSN 201220Z 00000KT 1/8SM FZFG VV001 M01/M01 A2998 810 96 -800 000/00 RMK AO2 TWR VIS 1/4
14837KMSN MSN20071120062512311/20/07 06:25:31  5-MIN KMSN 201225Z 03003KT 1/4SM FZFG BKN001 OVC013 M01/M01 A2998 810 96 -800 030/03 RMK AO2 TWR VIS 1/2
14837KMSN MSN20071120063012111/20/07 06:30:31  5-MIN KMSN 201230Z 00000KT 1/4SM FZFG BKN001 OVC013 M01/M02 A2998 810 96 -900 000/00 RMK AO2 TWR VIS 1
14837KMSN MSN20071120063512211/20/07 06:35:31  5-MIN KMSN 201235Z 00000KT 1/4SM FZFG BKN001 BKN013 M01/M01 A2998 810 100 -900 000/00 RMK AO2 TWR VIS 1
14837KMSN MSN20071120064012111/20/07 06:40:31  5-MIN KMSN 201240Z 00000KT 1/4SM FZFG BKN001 BKN013 M01/M01 A2998 810 96 -800 000/00 RMK AO2 TWR VIS 1
14837KMSN MSN20071120064511811/20/07 06:45:31  5-MIN KMSN 201245Z 00000KT 1/2SM FG SCT001 SCT013 00/M01 A2998 810 96 -700 000/00 RMK AO2 TWR VIS 1
14837KMSN MSN20071120065013711/20/07 06:50:31  5-MIN KMSN 201250Z 04003KT 1SM BR FEW001 SCT013 00/00 A2997 810 100 -700 040/03 RMK AO2 TWR VIS 1 1/2 SLP157 T00000000
14837KMSN MSN20071120065511711/20/07 06:55:31  5-MIN KMSN 201255Z 05003KT 1 1/4SM BR FEW001 00/M01 A2997 810 96 -700 040/03 RMK AO2 TWR VIS 1 1/2
14837KMSN MSN20071120070011311/20/07 07:00:31  5-MIN KMSN 201300Z 00000KT 1SM BR SCT120 00/M01 A2998 810 96 -700 000/00 RMK AO2 TWR VIS 1 1/2
14837KMSN MSN20071120070511311/20/07 07:05:31  5-MIN KMSN 201305Z 07003KT 1SM BR SCT120 01/01 A2997 820 100 -700 070/03 RMK AO2 TWR VIS 1 1/2
14837KMSN MSN20071120071011211/20/07 07:10:31  5-MIN KMSN 201310Z 00000KT 1SM BR SCT120 01/01 A2997 820 96 -600 000/00 RMK AO2 TWR VIS 1 1/2
14837KMSN MSN20071120071511211/20/07 07:15:31  5-MIN KMSN 201315Z 00000KT 1SM BR SCT120 02/01 A2997 820 96 -500 000/00 RMK AO2 TWR VIS 1 1/2
14837KMSN MSN20071120072011211/20/07 07:20:31  5-MIN KMSN 201320Z 00000KT 1SM BR SCT120 02/01 A2997 820 96 -500 000/00 RMK AO2 TWR VIS 1 1/2
14837KMSN MSN20071120072510911/20/07 07:25:31  5-MIN KMSN 201325Z 00000KT 1SM BR CLR 02/01 A2998 810 96 -500 000/00 RMK AO2 TWR VIS 1 1/2
14837KMSN MSN20071120073010911/20/07 07:30:31  5-MIN KMSN 201330Z 14004KT 1SM BR CLR 02/02 A2998 810 96 -500 140/04 RMK AO2 TWR VIS 1 1/2
14837KMSN MSN20071120073510911/20/07 07:35:31  5-MIN KMSN 201335Z 13004KT 1SM BR CLR 02/02 A2998 810 96 -500 130/04 RMK AO2 TWR VIS 1 1/2
14837KMSN MSN20071120074010911/20/07 07:40:31  5-MIN KMSN 201340Z 13004KT 1SM BR CLR 02/02 A2998 810 96 -500 120/04 RMK AO2 TWR VIS 1 1/2
14837KMSN MSN20071120074510911/20/07 07:45:31  5-MIN KMSN 201345Z 16005KT 1SM BR CLR 03/02 A2999 800 92 -400 150/05 RMK AO2 TWR VIS 1 1/2
14837KMSN MSN20071120075011611/20/07 07:50:31  5-MIN KMSN 201350Z 00000KT 1 1/2SM BR CLR 03/02 A2999 800 92 -400 000/00 RMK AO2 SLP161 T00280017
14837KMSN MSN20071120075509911/20/07 07:55:31  5-MIN KMSN 201355Z 14004KT 1 1/2SM BR CLR 03/02 A2999 800 96 -400 140/04 RMK AO2
14837KMSN MSN20071120080009911/20/07 08:00:31  5-MIN KMSN 201400Z 10004KT 1 1/2SM BR CLR 03/02 A2999 800 96 -400 100/04 RMK AO2
14837KMSN MSN20071120080509911/20/07 08:05:31  5-MIN KMSN 201405Z 10003KT 1 1/2SM BR CLR 03/02 A2999 800 96 -400 100/03 RMK AO2
14837KMSN MSN20071120081009911/20/07 08:10:31  5-MIN KMSN 201410Z 08003KT 1 1/2SM BR CLR 03/02 A2999 800 96 -400 080/03 RMK AO2
14837KMSN MSN20071120081509911/20/07 08:15:31  5-MIN KMSN 201415Z 00000KT 1 1/2SM BR CLR 03/02 A2999 800 96 -400 000/00 RMK AO2
14837KMSN MSN20071120082011311/20/07 08:20:31  5-MIN KMSN 201420Z 00000KT 1 1/4SM BR CLR 03/03 A2999 800 96 -300 000/00 RMK AO2 TWR VIS 1 1/2
14837KMSN MSN20071120082511311/20/07 08:25:31  5-MIN KMSN 201425Z 00000KT 1 1/4SM BR CLR 03/03 A2999 800 96 -300 000/00 RMK AO2 TWR VIS 1 1/2
14837KMSN MSN20071120083009911/20/07 08:30:31  5-MIN KMSN 201430Z 00000KT 1 1/2SM BR CLR 04/03 A2999 800 92 -300 000/00 RMK AO2
14837KMSN MSN20071120083509911/20/07 08:35:31  5-MIN KMSN 201435Z 00000KT 1 1/2SM BR CLR 04/03 A2999 800 92 -300 000/00 RMK AO2
14837KMSN MSN20071120084009911/20/07 08:40:31  5-MIN KMSN 201440Z 10005KT 1 1/2SM BR CLR 04/03 A2999 800 92 -300 100/05 RMK AO2
14837KMSN MSN20071120084511311/20/07 08:45:31  5-MIN KMSN 201445Z 05004KT 1 1/2SM BR CLR 04/02 A2999 800 85 -200 050/04 RMK AO2 SFC VIS 1 3/4
14837KMSN MSN20071120085012211/20/07 08:50:31  5-MIN KMSN 201450Z 05004KT 1 3/4SM BR CLR 04/03 A2999 800 89 -200 050/04 RMK AO2 SLP160 T00440028 51013
14837KMSN MSN20071120085510911/20/07 08:55:31  5-MIN KMSN 201455Z 06006KT 1 3/4SM BR CLR 05/03 A2998 800 89 -100 060/06 RMK AO2 SFC VIS 2
14837KMSN MSN20071120090010911/20/07 09:00:31  5-MIN KMSN 201500Z 06006KT 1 3/4SM BR CLR 05/03 A2998 810 85 -100 060/06 RMK AO2 SFC VIS 2
14837KMSN MSN20071120090510911/20/07 09:05:31  5-MIN KMSN 201505Z 05010KT 1 3/4SM BR CLR 05/03 A2997 820 85 -100 050/10 RMK AO2 SFC VIS 2
14837KMSN MSN20071120091010911/20/07 09:10:31  5-MIN KMSN 201510Z 05006KT 1 3/4SM BR CLR 05/03 A2999 800 85 -100 050/06 RMK AO2 SFC VIS 2
14837KMSN MSN20071120091510911/20/07 09:15:31  5-MIN KMSN 201515Z 07004KT 1 3/4SM BR CLR 05/03 A2999 800 85 -100 060/04 RMK AO2 SFC VIS 2
14837KMSN MSN20071120092011011/20/07 09:20:31  5-MIN KMSN 201520Z 06006KT 1 3/4SM HZ CLR 06/03 A2998 810 82 0 060/06 RMK AO2 SFC VIS 2 1/2
14837KMSN MSN20071120092511011/20/07 09:25:31  5-MIN KMSN 201525Z 07009KT 1 3/4SM HZ CLR 06/03 A2998 810 82 0 070/09 RMK AO2 SFC VIS 2 1/2
14837KMSN MSN20071120093009211/20/07 09:30:31  5-MIN KMSN 201530Z 08008KT 3SM HZ CLR 06/03 A2998 810 79 0 080/08 RMK AO2
14837KMSN MSN20071120093509211/20/07 09:35:31  5-MIN KMSN 201535Z 08007KT 3SM HZ CLR 06/03 A2998 810 79 0 080/07 RMK AO2
14837KMSN MSN20071120094009211/20/07 09:40:31  5-MIN KMSN 201540Z 08009KT 3SM HZ CLR 06/03 A2998 810 79 0 080/09 RMK AO2
14837KMSN MSN20071120094509211/20/07 09:45:31  5-MIN KMSN 201545Z 10008KT 3SM HZ CLR 06/02 A2998 810 79 0 100/08 RMK AO2
14837KMSN MSN20071120095011211/20/07 09:50:31  5-MIN KMSN 201550Z 09008KT 3SM HZ SCT034 06/03 A2998 810 82 0 090/08 RMK AO2 SLP157 T00560028
14837KMSN MSN20071120095510211/20/07 09:55:31  5-MIN KMSN 201555Z 07008KT 3SM HZ FEW012 BKN034 06/03 A2998 810 82 0 070/08 RMK AO2
14837KMSN MSN20071120100009811/20/07 10:00:31  5-MIN KMSN 201600Z 08009KT 3SM HZ BKN034 05/02 A2998 810 82 -100 080/09 RMK AO2
14837KMSN MSN20071120100509511/20/07 10:05:31  5-MIN KMSN 201605Z 06007KT 3SM HZ BKN034 06/02 A2998 810 79 0 060/07 RMK AO2
14837KMSN MSN20071120101009511/20/07 10:10:31  5-MIN KMSN 201610Z 07008KT 3SM HZ OVC034 06/03 A2998 810 82 0 070/08 RMK AO2
14837KMSN MSN20071120101509511/20/07 10:15:31  5-MIN KMSN 201615Z 07007KT 3SM HZ OVC034 06/03 A2998 810 82 0 070/07 RMK AO2
14837KMSN MSN20071120102009511/20/07 10:20:31  5-MIN KMSN 201620Z 07008KT 3SM HZ OVC034 06/03 A2998 810 82 0 070/08 RMK AO2
14837KMSN MSN20071120102509511/20/07 10:25:31  5-MIN KMSN 201625Z 08008KT 3SM HZ OVC034 06/03 A2998 810 82 0 080/08 RMK AO2
14837KMSN MSN20071120103009511/20/07 10:30:31  5-MIN KMSN 201630Z 08008KT 3SM HZ OVC032 06/03 A2997 820 82 0 070/08 RMK AO2
14837KMSN MSN20071120103510211/20/07 10:35:31  5-MIN KMSN 201635Z 06009KT 3SM HZ FEW012 OVC032 06/03 A2997 820 82 0 060/09 RMK AO2
14837KMSN MSN20071120104010211/20/07 10:40:31  5-MIN KMSN 201640Z 07009KT 3SM HZ FEW012 OVC032 06/03 A2997 820 82 0 070/09 RMK AO2
14837KMSN MSN20071120104510211/20/07 10:45:31  5-MIN KMSN 201645Z 07008KT 3SM HZ FEW012 OVC032 06/03 A2997 820 82 0 070/08 RMK AO2
14837KMSN MSN20071120105012211/20/07 10:50:31  5-MIN KMSN 201650Z 07011KT 3SM BR SCT012 OVC032 05/03 A2997 820 85 -100 070/11 RMK AO2 SLP153 T00500028
14837KMSN MSN20071120105510511/20/07 10:55:31  5-MIN KMSN 201655Z 07011KT 2SM BR BKN012 OVC030 05/03 A2997 820 85 -100 070/11 RMK AO2
14837KMSN MSN20071120110010511/20/07 11:00:31  5-MIN KMSN 201700Z 07008KT 2SM BR BKN012 OVC030 05/03 A2996 830 85 -100 070/08 RMK AO2
14837KMSN MSN20071120110510511/20/07 11:05:31  5-MIN KMSN 201705Z 07008KT 2SM BR BKN012 OVC030 05/03 A2996 830 85 -100 070/08 RMK AO2
14837KMSN MSN20071120111011911/20/07 11:10:31  5-MIN KMSN 201710Z 07008KT 1 3/4SM BR BKN012 OVC030 05/03 A2996 830 85 -100 070/08 RMK AO2 TWR VIS 2
14837KMSN MSN20071120111511911/20/07 11:15:31  5-MIN KMSN 201715Z 06006KT 1 3/4SM BR BKN012 OVC028 05/03 A2996 830 85 -100 060/06 RMK AO2 TWR VIS 2
14837KMSN MSN20071120112012511/20/07 11:20:31  5-MIN KMSN 201720Z 07008KT 1 1/2SM -DZ BR BKN012 OVC028 05/03 A2996 830 89 -100 060/08 RMK AO2 DZB16 P0000
14837KMSN MSN20071120112513911/20/07 11:25:31  5-MIN KMSN 201725Z 06005KT 1 1/4SM -DZ BR BKN012 OVC028 05/03 A2996 830 89 -100 050/05 RMK AO2 TWR VIS 1 1/2 DZB16 P0000
14837KMSN MSN20071120113012111/20/07 11:30:31  5-MIN KMSN 201730Z 06006KT 1SM -DZ BR BKN012 OVC028 05/03 A2996 830 89 -100 050/06 RMK AO2 DZB16 P0000
14837KMSN MSN20071120113511411/20/07 11:35:31  5-MIN KMSN 201735Z 05005KT 1SM -DZ BR OVC012 05/03 A2996 830 89 -100 050/05 RMK AO2 DZB16 P0000
14837KMSN MSN20071120114012611/20/07 11:40:31  5-MIN KMSN 201740Z 06008KT 3/4SM -DZ BR OVC012 05/03 A2995 830 89 -100 060/08 RMK AO2 TWR VIS 1 DZB16 P0000
14837KMSN MSN20071120114513311/20/07 11:45:31  5-MIN KMSN 201745Z 05006KT 3/4SM -DZ BR SCT009 OVC014 05/03 A2995 840 89 -100 050/06 RMK AO2 TWR VIS 1 DZB16 P0000
14837KMSN MSN20071120115015311/20/07 11:50:31  5-MIN KMSN 201750Z 04007KT 3/4SM -RA BR BKN009 OVC014 05/04 A2995 840 92 -100 040/07 RMK AO2 TWR VIS 1 DZB16E46RAB46 CIG 006V011 P0001
14837KMSN MSN20071120115513911/20/07 11:55:31  5-MIN KMSN 201755Z 05007KT 3/4SM -RA BR BKN009 OVC014 05/04 A2994 840 92 -100 050/07 RMK AO2 TWR VIS 1 CIG 006V013 P0000
14837KMSN MSN20071120120013211/20/07 12:00:31  5-MIN KMSN 201800Z 05007KT 3/4SM -RA BR OVC009 05/04 A2994 840 92 -100 050/07 RMK AO2 TWR VIS 1 CIG 005V013 P0000
14837KMSN MSN20071120120512911/20/07 12:05:31  5-MIN KMSN 201805Z 05006KT 1SM BR BKN007 OVC012 05/04 A2994 840 92 -100 050/06 RMK AO2 RAE05 CIG 005V009 P0000
14837KMSN MSN20071120121013811/20/07 12:10:31  5-MIN KMSN 201810Z 06005KT 1SM -DZ BR BKN007 OVC011 05/04 A2995 840 92 -100 060/05 RMK AO2 RAE05DZB07 CIG 005V010 P0000
14837KMSN MSN20071120121515011/20/07 12:15:31  5-MIN KMSN 201815Z 06007KT 3/4SM -DZ BR BKN007 OVC011 05/04 A2995 840 92 -100 060/07 RMK AO2 TWR VIS 1 CIG 005V009 RAE05DZB05 P0000
14837KMSN MSN20071120122015011/20/07 12:20:31  5-MIN KMSN 201820Z 06006KT 3/4SM -DZ BR BKN007 OVC012 05/04 A2994 840 92 -100 060/06 RMK AO2 TWR VIS 1 CIG 005V009 RAE05DZB05 P0000
14837KMSN MSN20071120122515011/20/07 12:25:31  5-MIN KMSN 201825Z 06006KT 3/4SM -DZ BR BKN007 OVC012 05/04 A2994 840 92 -100 060/06 RMK AO2 TWR VIS 1 CIG 005V009 RAE05DZB05 P0000
14837KMSN MSN20071120123015011/20/07 12:30:31  5-MIN KMSN 201830Z 06006KT 3/4SM -DZ BR BKN007 OVC012 05/04 A2994 850 92 -100 060/06 RMK AO2 TWR VIS 1 CIG 005V009 RAE05DZB05 P0001
14837KMSN MSN20071120123513311/20/07 12:35:31  5-MIN KMSN 201835Z 05006KT 3/4SM -DZ BR OVC007 05/04 A2993 850 92 -100 050/06 RMK AO2 CIG 004V011 RAE05DZB05 P0001
14837KMSN MSN20071120124013311/20/07 12:40:31  5-MIN KMSN 201840Z 07007KT 3/4SM -RA BR OVC007 05/04 A2993 850 92 -100 070/07 RMK AO2 CIG 004V011 RAE05DZB05 P0001
14837KMSN MSN20071120124514011/20/07 12:45:31  5-MIN KMSN 201845Z 07008KT 3/4SM -RA BR BKN007 OVC013 05/04 A2993 860 92 -100 070/08 RMK AO2 CIG 004V010 RAE05DZB05 P0001
14837KMSN MSN20071120125014411/20/07 12:50:31  5-MIN KMSN 201850Z 07009KT 1SM BR BKN007 BKN010 OVC015 05/04 A2992 860 92 0 070/09 RMK AO2 CIG 004V008 RAE05B40DZB05E40 P0001
14837KMSN MSN20071120125512411/20/07 12:55:31  5-MIN KMSN 201855Z 07010KT 1SM -DZ BR BKN007 OVC015 05/04 A2992 860 92 0 070/10 RMK AO2 CIG 004V012 P0000
14837KMSN MSN20071120130012411/20/07 13:00:31  5-MIN KMSN 201900Z 06007KT 1SM -DZ BR BKN007 OVC015 05/04 A2992 860 92 0 060/07 RMK AO2 CIG 004V012 P0000
14837KMSN MSN20071120130511711/20/07 13:05:31  5-MIN KMSN 201905Z 06006KT 1SM -DZ BR OVC007 05/04 A2992 860 92 0 060/06 RMK AO2 CIG 005V012 P0000
14837KMSN MSN20071120131011711/20/07 13:10:31  5-MIN KMSN 201910Z 06005KT 1SM -DZ BR OVC007 05/04 A2992 860 92 0 050/05 RMK AO2 CIG 004V010 P0000
14837KMSN MSN20071120131511711/20/07 13:15:31  5-MIN KMSN 201915Z 05008KT 1SM -DZ BR OVC007 05/04 A2992 860 92 0 050/08 RMK AO2 CIG 004V008 P0000
14837KMSN MSN20071120132012111/20/07 13:20:31  5-MIN KMSN 201920Z 07007KT 1 1/4SM -DZ BR OVC007 05/04 A2992 870 92 0 070/07 RMK AO2 CIG 004V010 P0001
14837KMSN MSN20071120132511711/20/07 13:25:31  5-MIN KMSN 201925Z 07008KT 1SM -DZ BR OVC007 05/04 A2991 870 92 0 070/08 RMK AO2 CIG 004V008 P0001
14837KMSN MSN20071120133011711/20/07 13:30:31  5-MIN KMSN 201930Z 06005KT 1SM -DZ BR OVC007 05/04 A2992 870 92 0 060/05 RMK AO2 CIG 004V010 P0001
14837KMSN MSN20071120133512111/20/07 13:35:31  5-MIN KMSN 201935Z 06006KT 1 1/4SM -DZ BR OVC007 05/04 A2991 870 92 0 060/06 RMK AO2 CIG 004V011 P0001
14837KMSN MSN20071120134012811/20/07 13:40:31  5-MIN KMSN 201940Z 07007KT 1 1/4SM -DZ BR BKN007 OVC011 05/04 A2991 880 92 0 070/07 RMK AO2 CIG 004V008 P0001
14837KMSN MSN20071120134512811/20/07 13:45:31  5-MIN KMSN 201945Z 07007KT 1 1/4SM -DZ BR BKN007 OVC011 05/04 A2991 880 96 0 070/07 RMK AO2 CIG 004V008 P0001
14837KMSN MSN20071120135014511/20/07 13:50:31  5-MIN KMSN 201950Z 06006KT 1 1/4SM -DZ BR BKN007 OVC011 05/04 A2991 880 96 0 060/06 RMK AO2 CIG 004V009 SLP132 P0001 T00500044
14837KMSN MSN20071120135510511/20/07 13:55:31  5-MIN KMSN 201955Z 06006KT 1SM -DZ BR OVC007 05/04 A2990 880 96 0 060/06 RMK AO2 P0000
14837KMSN MSN20071120140012111/20/07 14:00:31  5-MIN KMSN 202000Z 06007KT 1 1/4SM -DZ BR OVC007 06/04 A2990 880 92 0 060/07 RMK AO2 CIG 005V010 P0000
14837KMSN MSN20071120140512111/20/07 14:05:31  5-MIN KMSN 202005Z 07008KT 1 1/4SM -DZ BR OVC007 06/04 A2990 880 92 0 070/08 RMK AO2 CIG 005V009 P0000
14837KMSN MSN20071120141012111/20/07 14:10:31  5-MIN KMSN 202010Z 05007KT 1 1/4SM -DZ BR OVC007 06/04 A2991 880 92 0 050/07 RMK AO2 CIG 005V010 P0000
14837KMSN MSN20071120141510911/20/07 14:15:31  5-MIN KMSN 202015Z 06008KT 1 1/4SM -DZ BR OVC007 06/04 A2990 880 92 0 060/08 RMK AO2 P0000
14837KMSN MSN20071120142011611/20/07 14:20:31  5-MIN KMSN 202020Z 06006KT 1SM -RA BR OVC007 06/04 A2991 880 92 0 060/06 RMK AO2 DZE17RAB17 P0000
14837KMSN MSN20071120142511611/20/07 14:25:31  5-MIN KMSN 202025Z 06007KT 1SM -RA BR OVC007 06/04 A2990 880 92 0 060/07 RMK AO2 DZE17RAB17 P0001
14837KMSN MSN20071120143011611/20/07 14:30:31  5-MIN KMSN 202030Z 05008KT 1SM -RA BR OVC007 06/04 A2991 880 92 0 050/08 RMK AO2 DZE17RAB17 P0001
14837KMSN MSN20071120143511611/20/07 14:35:31  5-MIN KMSN 202035Z 03007KT 1SM -RA BR OVC007 06/04 A2991 880 92 0 030/07 RMK AO2 DZE17RAB17 P0001
14837KMSN MSN20071120144012811/20/07 14:40:31  5-MIN KMSN 202040Z 06009KT 1SM -RA BR OVC007 06/04 A2990 890 92 0 050/09 RMK AO2 DZE17RAB17 CIG 005V009 P0001
14837KMSN MSN20071120144512811/20/07 14:45:31  5-MIN KMSN 202045Z 06009KT 1SM -RA BR OVC007 06/04 A2989 890 92 0 060/09 RMK AO2 DZE17RAB17 CIG 005V010 P0001
14837KMSN MSN20071120145017711/20/07 14:50:31  5-MIN KMSN 202050Z 05008KT 1SM -DZ BR OVC007 06/04 A2990 880 92 0 050/08 RMK AO2 SFC VIS 1 1/4 DZE17B48RAB17E47 CIG 005V010 SLP132 P0002 60004 T00560044 58013
14837KMSN MSN20071120145513111/20/07 14:55:31  5-MIN KMSN 202055Z 06008KT 1SM -DZ BR OVC007 06/04 A2990 880 92 0 060/08 RMK AO2 SFC VIS 1 1/4 CIG 005V010 P0000
14837KMSN MSN20071120150013111/20/07 15:00:31  5-MIN KMSN 202100Z 06008KT 1SM -DZ BR OVC007 06/04 A2990 890 92 0 060/08 RMK AO2 SFC VIS 1 1/4 CIG 005V011 P0000
14837KMSN MSN20071120150513111/20/07 15:05:31  5-MIN KMSN 202105Z 05009KT 1SM -DZ BR OVC007 06/04 A2990 880 92 0 050/09 RMK AO2 SFC VIS 1 1/4 CIG 005V011 P0000
14837KMSN MSN20071120151013111/20/07 15:10:31  5-MIN KMSN 202110Z 05007KT 1SM -DZ BR OVC007 06/04 A2990 880 92 0 050/07 RMK AO2 SFC VIS 1 1/4 CIG 004V011 P0000
14837KMSN MSN20071120151511711/20/07 15:15:31  5-MIN KMSN 202115Z 05007KT 1SM -DZ BR OVC007 06/04 A2990 880 92 0 050/07 RMK AO2 CIG 004V009 P0000
14837KMSN MSN20071120152011711/20/07 15:20:31  5-MIN KMSN 202120Z 05008KT 1SM -DZ BR OVC007 06/04 A2990 880 92 0 050/08 RMK AO2 CIG 004V009 P0000
14837KMSN MSN20071120152511711/20/07 15:25:31  5-MIN KMSN 202125Z 05007KT 1SM -DZ BR OVC007 06/04 A2991 880 92 0 050/07 RMK AO2 CIG 004V009 P0000
14837KMSN MSN20071120153011711/20/07 15:30:31  5-MIN KMSN 202130Z 05007KT 1SM -DZ BR OVC007 06/04 A2990 880 92 0 050/07 RMK AO2 CIG 004V009 P0000
14837KMSN MSN20071120153511711/20/07 15:35:31  5-MIN KMSN 202135Z 06009KT 1SM -DZ BR OVC007 06/04 A2990 880 92 0 060/09 RMK AO2 CIG 004V009 P0000
14837KMSN MSN20071120154011711/20/07 15:40:31  5-MIN KMSN 202140Z 05008KT 1SM -DZ BR OVC007 06/04 A2991 880 92 0 050/08 RMK AO2 CIG 004V009 P0000
14837KMSN MSN20071120154511711/20/07 15:45:31  5-MIN KMSN 202145Z 07010KT 1SM -DZ BR OVC007 06/04 A2990 880 92 0 070/10 RMK AO2 CIG 004V010 P0000
14837KMSN MSN20071120155014811/20/07 15:50:31  5-MIN KMSN 202150Z 07009KT 1SM -DZ BR OVC007 06/04 A2990 880 92 0 070/09 RMK AO2 SFC VIS 1 1/4 CIG 004V010 SLP134 P0000 T00560044
14837KMSN MSN20071120155511711/20/07 15:55:31  5-MIN KMSN 202155Z 06008KT 1SM -DZ BR OVC007 06/04 A2991 880 92 0 060/08 RMK AO2 CIG 004V010 P0000
14837KMSN MSN20071120160011711/20/07 16:00:31  5-MIN KMSN 202200Z 06007KT 1SM -DZ BR OVC007 06/04 A2990 880 92 0 060/07 RMK AO2 CIG 005V010 P0000
14837KMSN MSN20071120160513111/20/07 16:05:31  5-MIN KMSN 202205Z 06009KT 1SM -DZ BR OVC007 06/04 A2991 880 92 0 060/09 RMK AO2 SFC VIS 1 1/4 CIG 005V010 P0000
14837KMSN MSN20071120161011711/20/07 16:10:31  5-MIN KMSN 202210Z 03007KT 1SM -DZ BR OVC007 06/04 A2991 870 92 0 030/07 RMK AO2 CIG 004V012 P0001
14837KMSN MSN20071120161511711/20/07 16:15:31  5-MIN KMSN 202215Z 05009KT 1SM -DZ BR OVC007 06/04 A2991 870 92 0 040/09 RMK AO2 CIG 004V010 P0001
14837KMSN MSN20071120162012811/20/07 16:20:31  5-MIN KMSN 202220Z 06011KT 1SM -RA BR OVC007 06/04 A2990 880 92 0 060/11 RMK AO2 DZE19RAB19 CIG 004V012 P0001
14837KMSN MSN20071120162514711/20/07 16:25:31  5-MIN KMSN 202225Z 06008KT 3/4SM -RA BR BKN007 OVC018 06/04 A2991 880 92 0 060/08 RMK AO2 TWR VIS 1 DZE19RAB19 CIG 004V012 P0003
14837KMSN MSN20071120163015411/20/07 16:30:31  5-MIN KMSN 202230Z 06008KT 3/4SM -RA BR BKN007 BKN013 OVC020 06/04 A2991 880 92 0 060/08 RMK AO2 TWR VIS 1 DZE19RAB19 CIG 004V010 P0003
14837KMSN MSN20071120163515411/20/07 16:35:31  5-MIN KMSN 202235Z 04009KT 3/4SM -RA BR BKN007 BKN013 OVC020 06/04 A2991 870 92 0 040/09 RMK AO2 TWR VIS 1 DZE19RAB19 CIG 004V011 P0003
14837KMSN MSN20071120164014111/20/07 16:40:31  5-MIN KMSN 202240Z 04008KT 1SM -DZ BR BKN007 OVC013 06/04 A2991 870 92 0 040/08 RMK AO2 DZE19B39RAB19E39 CIG 004V010 P0003
14837KMSN MSN20071120164514111/20/07 16:45:31  5-MIN KMSN 202245Z 03009KT 1SM -DZ BR BKN007 OVC013 06/04 A2992 870 92 0 030/09 RMK AO2 DZE19B39RAB19E39 CIG 004V010 P0003
14837KMSN MSN20071120165015811/20/07 16:50:31  5-MIN KMSN 202250Z 04010KT 1SM -DZ BR BKN007 OVC013 06/04 A2992 870 92 0 040/10 RMK AO2 DZE19B39RAB19E39 CIG 004V010 SLP138 P0003 T00560044
14837KMSN MSN20071120165511211/20/07 16:55:31  5-MIN KMSN 202255Z 04011KT 1SM -DZ BR BKN007 OVC010 06/04 A2992 870 92 0 040/11 RMK AO2 P0000
14837KMSN MSN20071120170012411/20/07 17:00:31  5-MIN KMSN 202300Z 03011KT 1SM -DZ BR BKN007 OVC010 06/04 A2992 860 92 0 030/11 RMK AO2 CIG 004V009 P0000
14837KMSN MSN20071120170512411/20/07 17:05:31  5-MIN KMSN 202305Z 05013KT 1SM -DZ BR BKN007 OVC011 06/04 A2992 860 92 0 050/13 RMK AO2 CIG 004V009 P0001
14837KMSN MSN20071120171014711/20/07 17:10:31  5-MIN KMSN 202310Z 05011G18KT 1SM -DZ BR BKN007 OVC014 05/04 A2993 850 92 -100 040/11G18 RMK AO2 SFC VIS 1 1/2 CIG 004V009 P0001
14837KMSN MSN20071120171512811/20/07 17:15:31  5-MIN KMSN 202315Z 05013G18KT 1SM -DZ BR SCT007 BKN011 OVC016 05/04 A2993 850 92 -100 050/13G18 RMK AO2 P0001
14837KMSN MSN20071120172011511/20/07 17:20:31  5-MIN KMSN 202320Z 04012KT 1SM -DZ BR SCT007 OVC016 05/04 A2993 850 92 -100 040/12 RMK AO2 P0001
14837KMSN MSN20071120172512111/20/07 17:25:31  5-MIN KMSN 202325Z 03008G17KT 1SM -DZ BR FEW007 OVC016 05/04 A2993 850 92 -100 030/08G17 RMK AO2 P0001
14837KMSN MSN20071120173014211/20/07 17:30:31  5-MIN KMSN 202330Z 03011G16KT 1SM -RA BR FEW007 OVC016 05/04 A2994 850 92 -100 030/11G16 RMK AO2 TWR VIS 2 DZE26RAB26 P0001
14837KMSN MSN20071120173513611/20/07 17:35:31  5-MIN KMSN 202335Z 04009KT 1SM -RA BR FEW011 OVC018 05/04 A2993 850 92 -100 030/09 RMK AO2 TWR VIS 2 DZE26RAB26 P0001
14837KMSN MSN20071120174012611/20/07 17:40:31  5-MIN KMSN 202340Z 03009KT 2SM -RA BR FEW009 OVC018 05/04 A2994 840 96 -100 030/09 RMK AO2 DZE26RAB26 P0001
14837KMSN MSN20071120174512611/20/07 17:45:31  5-MIN KMSN 202345Z 04012KT 2SM -RA BR FEW009 OVC018 05/04 A2994 840 96 -100 030/12 RMK AO2 DZE26RAB26 P0002
14837KMSN MSN20071120175016711/20/07 17:50:31  5-MIN KMSN 202350Z 04010KT 2SM -RA BR FEW007 OVC018 05/04 A2994 850 92 -100 040/10 RMK AO2 DZE26RAB26 SLP146 P0002 60009 T00500039 10056 20050 58006
14837KMSN MSN20071120175511511/20/07 17:55:31  5-MIN KMSN 202355Z 03008KT 2SM BR FEW007 OVC020 05/04 A2994 840 92 -100 030/08 RMK AO2 SFC VIS 3
14837KMSN MSN20071120180011511/20/07 18:00:31  5-MIN KMSN 210000Z 04010KT 2SM BR FEW009 OVC020 05/04 A2994 850 96 -100 040/10 RMK AO2 SFC VIS 3
14837KMSN MSN20071120180511911/20/07 18:05:31  5-MIN KMSN 210005Z 03008KT 2SM BR FEW007 SCT011 OVC020 06/04 A2994 850 92 0 030/08 RMK AO2 SFC VIS 3
14837KMSN MSN20071120181013511/20/07 18:10:31  5-MIN KMSN 210010Z 03008KT 2SM -DZ BR SCT007 BKN013 OVC020 06/04 A2994 850 92 0 030/08 RMK AO2 SFC VIS 3 DZB07 P0000
14837KMSN MSN20071120181513711/20/07 18:15:31  5-MIN KMSN 210015Z 04007KT 2SM -DZ BR BKN007 BKN013 OVC020 06/04 A2994 850 92 0 040/07 RMK AO2 DZB07 CIG 004V011 P0000
14837KMSN MSN20071120182012811/20/07 18:20:31  5-MIN KMSN 210020Z 04008KT 2SM -DZ BR BKN007 BKN010 OVC020 05/04 A2994 850 96 -100 030/08 RMK AO2 DZB07 P0000
14837KMSN MSN20071120182512811/20/07 18:25:31  5-MIN KMSN 210025Z 03010KT 2SM -DZ BR BKN007 BKN010 OVC020 05/04 A2994 850 92 -100 030/10 RMK AO2 DZB07 P0000
14837KMSN MSN20071120183013811/20/07 18:30:31  5-MIN KMSN 210030Z 03011KT 2SM -DZ BR SCT007 BKN013 OVC026 05/04 A2994 840 92 -100 030/11 RMK AO2 SFC VIS 3 DZB07 P0000
14837KMSN MSN20071120183512811/20/07 18:35:31  5-MIN KMSN 210035Z 04010KT 3SM -DZ BR SCT005 SCT011 OVC026 05/04 A2994 840 92 -100 030/10 RMK AO2 DZB07 P0000
14837KMSN MSN20071120184012811/20/07 18:40:31  5-MIN KMSN 210040Z 04011KT 3SM -DZ BR FEW005 BKN020 OVC026 05/04 A2994 850 92 -100 040/11 RMK AO2 DZB07 P0000
14837KMSN MSN20071120184512811/20/07 18:45:31  5-MIN KMSN 210045Z 04008KT 3SM -DZ BR FEW005 SCT020 OVC026 05/04 A2994 850 92 -100 040/08 RMK AO2 DZB07 P0000
14837KMSN MSN20071120185013811/20/07 18:50:31  5-MIN KMSN 210050Z 03008KT 5SM -DZ BR FEW020 OVC026 05/04 A2994 850 92 -100 030/08 RMK AO2 DZB07 SLP146 P0000 T00500039
14837KMSN MSN20071120185511511/20/07 18:55:31  5-MIN KMSN 210055Z 03010KT 4SM -DZ BR FEW020 OVC026 05/03 A2994 850 89 -100 030/10 RMK AO2 P0000
14837KMSN MSN20071120190011511/20/07 19:00:31  5-MIN KMSN 210100Z 02010KT 4SM -DZ BR FEW020 OVC026 05/03 A2994 840 89 -100 020/10 RMK AO2 P0001
14837KMSN MSN20071120190511511/20/07 19:05:31  5-MIN KMSN 210105Z 04009KT 4SM -DZ BR SCT018 OVC026 05/04 A2994 840 92 -100 040/09 RMK AO2 P0001
14837KMSN MSN20071120191012211/20/07 19:10:31  5-MIN KMSN 210110Z 03008KT 3SM -DZ BR FEW011 SCT016 OVC026 05/04 A2994 840 92 -100 020/08 RMK AO2 P0001
14837KMSN MSN20071120191513211/20/07 19:15:31  5-MIN KMSN 210115Z 02011KT 2SM -DZ BR FEW006 BKN017 OVC026 05/04 A2994 840 92 -100 020/11 RMK AO2 TWR VIS 3 P0001
14837KMSN MSN20071120192014311/20/07 19:20:31  5-MIN KMSN 210120Z 03014KT 2SM -RA BR SCT006 BKN013 OVC026 05/04 A2994 840 92 -100 030/14 RMK AO2 TWR VIS 3 DZE18RAB18 P0001
14837KMSN MSN20071120192514311/20/07 19:25:31  5-MIN KMSN 210125Z 04011KT 2SM -RA BR FEW006 BKN013 OVC026 05/04 A2994 840 92 -100 040/11 RMK AO2 TWR VIS 3 DZE18RAB18 P0001
14837KMSN MSN20071120193014311/20/07 19:30:31  5-MIN KMSN 210130Z 03009KT 2SM -RA BR FEW006 BKN011 OVC017 05/04 A2995 840 92 -100 030/09 RMK AO2 TWR VIS 3 DZE18RAB18 P0001
14837KMSN MSN20071120193514811/20/07 19:35:31  5-MIN KMSN 210135Z 03013KT 2SM -RA BR BKN008 OVC014 05/04 A2994 850 92 -100 030/13 RMK AO2 TWR VIS 3 DZE18RAB18 CIG 005V011 P0001
14837KMSN MSN20071120194014711/20/07 19:40:31  5-MIN KMSN 210140Z 03012G19KT 2SM -RA BR OVC008 05/04 A2994 840 92 -100 030/12G19 RMK AO2 TWR VIS 3 DZE18RAB18 CIG 005V013 P0001
14837KMSN MSN20071120194515411/20/07 19:45:31  5-MIN KMSN 210145Z 04013G19KT 2SM -RA BR BKN008 OVC014 05/04 A2994 840 92 -100 040/13G19 RMK AO2 TWR VIS 3 DZE18RAB18 CIG 005V011 P0001
14837KMSN MSN20071120195016511/20/07 19:50:31  5-MIN KMSN 210150Z 04012KT 2SM -RA BR BKN008 OVC013 04/04 A2994 840 96 -100 030/12 RMK AO2 TWR VIS 3 DZE18RAB18 CIG 005V011 SLP147 P0001 T00440039
14837KMSN MSN20071120195514111/20/07 19:55:31  5-MIN KMSN 210155Z 04014KT 2 1/2SM -RA BR BKN008 OVC021 04/04 A2994 850 96 -100 040/14 RMK AO2 TWR VIS 3 CIG 005V012 P0000
14837KMSN MSN20071120200014311/20/07 20:00:31  5-MIN KMSN 210200Z 03013G18KT 2SM -RA BR BKN008 OVC023 04/03 A2994 840 92 -100 030/13G18 RMK AO2 TWR VIS 3 CIG 005V012 P0000
14837KMSN MSN20071120200513711/20/07 20:05:31  5-MIN KMSN 210205Z 02013KT 2SM -RA BR BKN008 OVC023 04/03 A2995 840 92 -100 020/13 RMK AO2 TWR VIS 3 CIG 007V012 P0000
14837KMSN MSN20071120201013711/20/07 20:10:31  5-MIN KMSN 210210Z 03013KT 2SM -RA BR BKN008 OVC023 04/03 A2995 840 92 -100 030/13 RMK AO2 TWR VIS 3 CIG 007V012 P0000
14837KMSN MSN20071120201513111/20/07 20:15:31  5-MIN KMSN 210215Z 04015G19KT 2SM -RA BR SCT008 OVC025 04/03 A2995 840 92 -100 040/15G19 RMK AO2 TWR VIS 3 P0000
14837KMSN MSN20071120202012111/20/07 20:20:31  5-MIN KMSN 210220Z 03012G19KT 5SM -RA BR FEW008 OVC025 04/03 A2995 840 92 -100 030/12G19 RMK AO2 P0000
14837KMSN MSN20071120202512111/20/07 20:25:31  5-MIN KMSN 210225Z 02014G18KT 5SM -RA BR FEW010 OVC027 04/03 A2995 840 92 -200 020/14G18 RMK AO2 P0000
14837KMSN MSN20071120203011511/20/07 20:30:31  5-MIN KMSN 210230Z 03013KT 5SM -RA BR FEW010 OVC027 04/03 A2995 840 89 -100 030/13 RMK AO2 P0000
14837KMSN MSN20071120203510811/20/07 20:35:31  5-MIN KMSN 210235Z 03013KT 5SM -RA BR OVC029 04/03 A2995 840 89 -200 030/13 RMK AO2 P0000
14837KMSN MSN20071120204011511/20/07 20:40:31  5-MIN KMSN 210240Z 03011KT 5SM -RA BR BKN029 OVC036 04/03 A2995 840 92 -100 030/11 RMK AO2 P0001
14837KMSN MSN20071120204511511/20/07 20:45:31  5-MIN KMSN 210245Z 04012KT 5SM -RA BR BKN029 OVC038 04/03 A2995 840 92 -100 040/12 RMK AO2 P0002
14837KMSN MSN20071120205012111/20/07 20:50:31  5-MIN KMSN 210250Z 04010G17KT 4SM -RA BR SCT029 OVC038 04/03 A2995 840 92 -100 040/10G17 RMK AO2 P0002
14837KMSN MSN20071120205511511/20/07 20:55:31  5-MIN KMSN 210255Z 04011KT 3SM -RA BR SCT029 OVC040 04/03 A2995 840 92 -100 040/11 RMK AO2 P0000
14837KMSN MSN20071120210012211/20/07 21:00:31  5-MIN KMSN 210300Z 02012KT 3SM -RA BR FEW009 SCT030 OVC040 04/03 A2996 830 92 -200 020/12 RMK AO2 P0001
14837KMSN MSN20071120210512211/20/07 21:05:31  5-MIN KMSN 210305Z 02012KT 3SM -RA BR FEW009 SCT030 OVC040 04/03 A2996 830 92 -200 020/12 RMK AO2 P0001
14837KMSN MSN20071120211012211/20/07 21:10:31  5-MIN KMSN 210310Z 02011KT 3SM -RA BR SCT009 BKN030 OVC040 04/03 A2996 830 92 -200 010/11 RMK AO2 P0001
14837KMSN MSN20071120211513411/20/07 21:15:31  5-MIN KMSN 210315Z 01010KT 3SM -RA BR BKN009 BKN022 OVC040 04/03 A2996 820 92 -200 010/10 RMK AO2 CIG 007V012 P0001
14837KMSN MSN20071120212013411/20/07 21:20:31  5-MIN KMSN 210320Z 02012KT 3SM -RA BR BKN009 BKN015 OVC042 04/03 A2997 820 92 -200 020/12 RMK AO2 CIG 007V012 P0001
14837KMSN MSN20071120212512211/20/07 21:25:31  5-MIN KMSN 210325Z 02010KT 3SM -RA BR SCT009 BKN013 OVC030 04/03 A2996 820 92 -200 020/10 RMK AO2 P0002
14837KMSN MSN20071120213013411/20/07 21:30:31  5-MIN KMSN 210330Z 02010KT 3SM -RA BR BKN010 BKN015 OVC021 04/03 A2997 820 92 -200 020/10 RMK AO2 CIG 007V012 P0002
14837KMSN MSN20071120213512211/20/07 21:35:31  5-MIN KMSN 210335Z 01009KT 3SM -RA BR BKN012 BKN022 OVC030 04/03 A2997 820 92 -200 010/09 RMK AO2 P0003
14837KMSN MSN20071120214012211/20/07 21:40:31  5-MIN KMSN 210340Z 01010KT 3SM -RA BR SCT010 BKN015 OVC028 04/03 A2997 820 92 -200 010/10 RMK AO2 P0003
14837KMSN MSN20071120214512211/20/07 21:45:31  5-MIN KMSN 210345Z 02009KT 3SM -RA BR FEW010 SCT015 OVC028 04/03 A2997 820 92 -200 020/09 RMK AO2 P0003
14837KMSN MSN20071120215013911/20/07 21:50:31  5-MIN KMSN 210350Z 02009KT 3SM -RA BR FEW010 SCT017 OVC028 04/03 A2997 820 92 -200 020/09 RMK AO2 SLP155 P0003 T00440033
14837KMSN MSN20071120215511511/20/07 21:55:31  5-MIN KMSN 210355Z 03010KT 3SM -DZ BR FEW013 OVC030 04/03 A2997 820 92 -200 030/10 RMK AO2 P0000
14837KMSN MSN20071120220010811/20/07 22:00:31  5-MIN KMSN 210400Z 03009KT 3SM -DZ BR OVC030 04/03 A2997 820 89 -200 030/09 RMK AO2 P0000
14837KMSN MSN20071120220510811/20/07 22:05:31  5-MIN KMSN 210405Z 02009KT 3SM -DZ BR OVC030 04/03 A2997 820 92 -200 020/09 RMK AO2 P0000
14837KMSN MSN20071120221011511/20/07 22:10:31  5-MIN KMSN 210410Z 02012KT 3SM -DZ BR FEW011 OVC032 04/03 A2996 830 92 -200 020/12 RMK AO2 P0000
14837KMSN MSN20071120221512211/20/07 22:15:31  5-MIN KMSN 210415Z 02013KT 3SM -DZ BR FEW011 BKN032 OVC050 04/03 A2995 840 89 -100 020/13 RMK AO2 P0000
14837KMSN MSN20071120222012911/20/07 22:20:31  5-MIN KMSN 210420Z 02015KT 3SM -DZ BR BKN032 BKN050 OVC095 04/03 A2994 840 92 -200 020/15 RMK AO2 PRESFR P0000
14837KMSN MSN20071120222512211/20/07 22:25:31  5-MIN KMSN 210425Z 02013KT 3SM -DZ BR SCT032 BKN050 OVC095 04/03 A2995 840 92 -200 020/13 RMK AO2 P0000
14837KMSN MSN20071120223012211/20/07 22:30:31  5-MIN KMSN 210430Z 02011KT 6SM -DZ BR SCT032 BKN050 BKN100 04/03 A2995 830 92 -200 020/11 RMK AO2 P0000
14837KMSN MSN20071120223512411/20/07 22:35:31  5-MIN KMSN 210435Z 02008KT 6SM BR SCT032 BKN050 BKN100 04/03 A2996 830 92 -200 020/08 RMK AO2 DZE31 P0000
14837KMSN MSN20071120224013111/20/07 22:40:31  5-MIN KMSN 210440Z 36007KT 6SM BR SCT032 BKN050 BKN100 04/03 A2997 820 92 -200 360/07 RMK AO2 DZE31 PRESRR P0000
14837KMSN MSN20071120224512411/20/07 22:45:31  5-MIN KMSN 210445Z 01006KT 6SM BR SCT032 BKN050 BKN100 04/03 A2997 820 92 -200 010/06 RMK AO2 DZE31 P0000
14837KMSN MSN20071120225012411/20/07 22:50:31  5-MIN KMSN 210450Z 01008KT 5SM BR FEW009 BKN037 BKN050 04/03 A2996 820 92 -200 010/08 RMK AO2 DZE31 P0000
14837KMSN MSN20071120225510511/20/07 22:55:31  5-MIN KMSN 210455Z 01008KT 5SM BR SCT009 OVC037 04/03 A2996 830 92 -200 010/08 RMK AO2
14837KMSN MSN20071120230011711/20/07 23:00:31  5-MIN KMSN 210500Z 01008KT 5SM BR BKN009 OVC037 04/03 A2996 830 92 -200 010/08 RMK AO2 CIG 007V012
14837KMSN MSN20071120230512411/20/07 23:05:31  5-MIN KMSN 210505Z 01008KT 5SM BR BKN009 BKN037 OVC050 04/03 A2996 830 92 -200 010/08 RMK AO2 CIG 007V012
14837KMSN MSN20071120231011211/20/07 23:10:31  5-MIN KMSN 210510Z 02008KT 5SM BR SCT009 BKN037 OVC050 04/03 A2996 830 92 -200 020/08 RMK AO2
14837KMSN MSN20071120231511211/20/07 23:15:31  5-MIN KMSN 210515Z 02007KT 5SM BR BKN009 BKN037 OVC050 04/03 A2996 820 96 -200 020/07 RMK AO2
14837KMSN MSN20071120232011211/20/07 23:20:31  5-MIN KMSN 210520Z 36006KT 4SM BR BKN009 BKN037 OVC050 04/03 A2997 820 92 -200 360/06 RMK AO2
14837KMSN MSN20071120232511211/20/07 23:25:31  5-MIN KMSN 210525Z 36007KT 4SM BR BKN009 BKN037 OVC050 04/03 A2998 810 92 -200 360/07 RMK AO2
14837KMSN MSN20071120233011211/20/07 23:30:31  5-MIN KMSN 210530Z 01008KT 4SM BR BKN009 BKN037 OVC050 04/03 A2997 820 92 -200 010/08 RMK AO2
14837KMSN MSN20071120233511211/20/07 23:35:31  5-MIN KMSN 210535Z 01009KT 4SM BR BKN009 BKN037 OVC050 04/03 A2997 820 92 -200 010/09 RMK AO2
14837KMSN MSN20071120234011211/20/07 23:40:31  5-MIN KMSN 210540Z 01010KT 4SM BR BKN009 BKN037 OVC050 04/03 A2997 820 92 -200 010/10 RMK AO2
14837KMSN MSN20071120234511211/20/07 23:45:31  5-MIN KMSN 210545Z 02010KT 4SM BR BKN009 BKN037 OVC050 04/03 A2997 820 89 -200 010/10 RMK AO2
14837KMSN MSN20071120235016311/20/07 23:50:31  5-MIN KMSN 210550Z 01010KT 4SM BR BKN009 BKN037 OVC050 04/03 A2997 820 89 -200 010/10 RMK AO2 SLP156 60006 T00440028 10056 20039 400671011 53002
14837KMSN MSN20071120235509811/20/07 23:55:31  5-MIN KMSN 210555Z 01008KT 4SM BR OVC007 04/03 A2997 820 92 -200 010/08 RMK AO2
14837KMSN MSN20071121000009811/21/07 00:00:32  5-MIN KMSN 210600Z 01010KT 4SM BR OVC007 04/03 A2997 820 92 -200 010/10 RMK AO2
14837KMSN MSN20071121000509811/21/07 00:05:31  5-MIN KMSN 210605Z 01009KT 4SM BR OVC007 04/03 A2997 820 92 -200 010/09 RMK AO2
14837KMSN MSN20071121001009811/21/07 00:10:31  5-MIN KMSN 210610Z 01009KT 4SM BR OVC007 04/03 A2997 820 92 -200 010/09 RMK AO2
14837KMSN MSN20071121001509811/21/07 00:15:31  5-MIN KMSN 210615Z 01010KT 4SM BR OVC007 04/03 A2997 820 92 -200 010/10 RMK AO2
14837KMSN MSN20071121002009811/21/07 00:20:31  5-MIN KMSN 210620Z 01008KT 4SM BR OVC007 04/03 A2998 810 92 -200 010/08 RMK AO2
14837KMSN MSN20071121002509811/21/07 00:25:31  5-MIN KMSN 210625Z 01009KT 4SM BR OVC007 04/03 A2998 810 92 -300 010/09 RMK AO2
14837KMSN MSN20071121003009811/21/07 00:30:31  5-MIN KMSN 210630Z 01010KT 4SM BR OVC007 04/03 A2998 810 92 -300 360/10 RMK AO2
14837KMSN MSN20071121003509811/21/07 00:35:31  5-MIN KMSN 210635Z 01012KT 4SM BR OVC007 04/03 A2998 810 92 -300 010/12 RMK AO2
14837KMSN MSN20071121004009811/21/07 00:40:31  5-MIN KMSN 210640Z 36010KT 4SM BR OVC007 04/03 A2999 800 92 -300 360/10 RMK AO2
14837KMSN MSN20071121004509811/21/07 00:45:31  5-MIN KMSN 210645Z 36011KT 4SM BR OVC007 04/03 A2998 810 92 -300 360/11 RMK AO2
14837KMSN MSN20071121005011511/21/07 00:50:31  5-MIN KMSN 210650Z 01012KT 4SM BR OVC007 04/03 A2998 810 92 -300 010/12 RMK AO2 SLP159 T00390028
14837KMSN MSN20071121005509811/21/07 00:55:31  5-MIN KMSN 210655Z 01013KT 5SM BR OVC007 04/03 A2998 810 92 -300 010/13 RMK AO2
14837KMSN MSN20071121010009811/21/07 01:00:31  5-MIN KMSN 210700Z 01011KT 5SM BR OVC007 04/02 A2998 810 89 -300 010/11 RMK AO2
14837KMSN MSN20071121010509811/21/07 01:05:31  5-MIN KMSN 210705Z 01011KT 5SM BR OVC007 04/02 A2998 810 89 -300 010/11 RMK AO2
14837KMSN MSN20071121011009811/21/07 01:10:31  5-MIN KMSN 210710Z 01010KT 5SM BR OVC007 04/02 A2998 810 89 -300 010/10 RMK AO2
14837KMSN MSN20071121011509811/21/07 01:15:31  5-MIN KMSN 210715Z 02012KT 5SM BR OVC007 04/02 A2998 810 89 -300 010/12 RMK AO2
14837KMSN MSN20071121012009811/21/07 01:20:31  5-MIN KMSN 210720Z 01012KT 5SM BR OVC007 04/02 A2998 810 89 -300 010/12 RMK AO2
14837KMSN MSN20071121012509811/21/07 01:25:31  5-MIN KMSN 210725Z 01011KT 5SM BR OVC009 04/02 A2998 810 89 -300 010/11 RMK AO2
14837KMSN MSN20071121013009811/21/07 01:30:31  5-MIN KMSN 210730Z 01012KT 5SM BR OVC009 04/02 A2998 810 89 -300 010/12 RMK AO2
14837KMSN MSN20071121013509811/21/07 01:35:31  5-MIN KMSN 210735Z 01011KT 6SM BR OVC009 04/02 A2999 800 89 -300 010/11 RMK AO2
14837KMSN MSN20071121014009811/21/07 01:40:31  5-MIN KMSN 210740Z 01012KT 6SM BR OVC009 04/02 A2999 800 89 -300 010/12 RMK AO2
14837KMSN MSN20071121014509811/21/07 01:45:31  5-MIN KMSN 210745Z 01013KT 6SM BR OVC009 04/02 A2999 800 89 -300 010/13 RMK AO2
14837KMSN MSN20071121015011511/21/07 01:50:31  5-MIN KMSN 210750Z 36013KT 6SM BR OVC009 03/02 A2999 800 92 -300 360/13 RMK AO2 SLP162 T00330022
14837KMSN MSN20071121015509811/21/07 01:55:31  5-MIN KMSN 210755Z 01013KT 6SM BR OVC011 03/02 A2999 800 92 -300 360/13 RMK AO2
14837KMSN MSN20071121020009511/21/07 02:00:31  5-MIN KMSN 210800Z 01013KT 7SM OVC013 03/02 A2999 800 89 -300 010/13 RMK AO2
14837KMSN MSN20071121020509511/21/07 02:05:31  5-MIN KMSN 210805Z 01011KT 7SM OVC013 03/02 A2999 800 89 -300 010/11 RMK AO2
14837KMSN MSN20071121021009511/21/07 02:10:31  5-MIN KMSN 210810Z 01011KT 7SM OVC015 03/02 A2999 800 89 -300 360/11 RMK AO2
14837KMSN MSN20071121021509511/21/07 02:15:31  5-MIN KMSN 210815Z 01012KT 7SM OVC015 03/02 A2999 800 89 -300 010/12 RMK AO2
14837KMSN MSN20071121022010211/21/07 02:20:31  5-MIN KMSN 210820Z 01011KT 7SM BKN015 OVC060 03/02 A2999 800 89 -300 010/11 RMK AO2
14837KMSN MSN20071121022510211/21/07 02:25:31  5-MIN KMSN 210825Z 01012KT 7SM BKN015 OVC060 03/01 A2999 800 85 -300 010/12 RMK AO2
14837KMSN MSN20071121023010211/21/07 02:30:31  5-MIN KMSN 210830Z 01010KT 8SM SCT017 OVC060 03/01 A2999 800 89 -400 010/10 RMK AO2
14837KMSN MSN20071121023510211/21/07 02:35:31  5-MIN KMSN 210835Z 01010KT 8SM FEW017 OVC060 03/01 A2999 800 89 -400 010/10 RMK AO2
14837KMSN MSN20071121024010211/21/07 02:40:31  5-MIN KMSN 210840Z 01012KT 8SM FEW017 OVC060 03/01 A2998 810 89 -400 010/12 RMK AO2
14837KMSN MSN20071121024509511/21/07 02:45:31  5-MIN KMSN 210845Z 36011KT 8SM OVC060 03/01 A2999 800 89 -400 360/11 RMK AO2
14837KMSN MSN20071121025011811/21/07 02:50:31  5-MIN KMSN 210850Z 36010KT 7SM BKN060 03/01 A2999 800 89 -400 360/10 RMK AO2 SLP163 T00280011 51008
14837KMSN MSN20071121025509511/21/07 02:55:31  5-MIN KMSN 210855Z 01009KT 7SM BKN060 03/01 A3000 790 89 -400 010/09 RMK AO2
14837KMSN MSN20071121030009511/21/07 03:00:31  5-MIN KMSN 210900Z 01008KT 7SM BKN060 02/01 A3000 790 92 -500 010/08 RMK AO2
14837KMSN MSN20071121030509511/21/07 03:05:31  5-MIN KMSN 210905Z 01009KT 7SM BKN060 02/01 A3000 790 92 -500 360/09 RMK AO2
14837KMSN MSN20071121031009511/21/07 03:10:31  5-MIN KMSN 210910Z 01009KT 7SM BKN060 02/01 A3000 790 89 -500 010/09 RMK AO2
14837KMSN MSN20071121031509511/21/07 03:15:31  5-MIN KMSN 210915Z 36009KT 7SM BKN060 02/01 A3000 790 89 -500 360/09 RMK AO2
14837KMSN MSN20071121032009511/21/07 03:20:31  5-MIN KMSN 210920Z 36010KT 7SM BKN060 02/01 A3000 790 89 -500 360/10 RMK AO2
14837KMSN MSN20071121032509511/21/07 03:25:31  5-MIN KMSN 210925Z 36008KT 7SM OVC060 02/01 A3001 780 89 -500 360/08 RMK AO2
14837KMSN MSN20071121033009511/21/07 03:30:31  5-MIN KMSN 210930Z 35008KT 7SM OVC060 02/01 A3001 780 89 -500 350/08 RMK AO2
14837KMSN MSN20071121033509511/21/07 03:35:31  5-MIN KMSN 210935Z 36009KT 7SM BKN060 02/01 A3001 780 89 -500 360/09 RMK AO2
14837KMSN MSN20071121034009511/21/07 03:40:31  5-MIN KMSN 210940Z 36008KT 7SM BKN060 02/01 A3001 780 89 -500 350/08 RMK AO2
14837KMSN MSN20071121034509511/21/07 03:45:31  5-MIN KMSN 210945Z 36009KT 7SM SCT060 02/01 A3001 780 92 -600 360/09 RMK AO2
14837KMSN MSN20071121035011211/21/07 03:50:31  5-MIN KMSN 210950Z 36009KT 7SM FEW060 02/00 A3001 780 89 -600 360/09 RMK AO2 SLP169 T00170000
14837KMSN MSN20071121035509511/21/07 03:55:31  5-MIN KMSN 210955Z 36010KT 8SM FEW060 02/00 A3001 780 89 -600 360/10 RMK AO2
14837KMSN MSN20071121040009211/21/07 04:00:31  5-MIN KMSN 211000Z 36009KT 8SM CLR 02/00 A3001 780 89 -600 360/09 RMK AO2
14837KMSN MSN20071121040509211/21/07 04:05:31  5-MIN KMSN 211005Z 36008KT 8SM CLR 02/00 A3001 780 89 -600 360/08 RMK AO2
14837KMSN MSN20071121041009211/21/07 04:10:31  5-MIN KMSN 211010Z 01009KT 8SM CLR 02/00 A3001 780 89 -600 010/09 RMK AO2
14837KMSN MSN20071121041509211/21/07 04:15:31  5-MIN KMSN 211015Z 01010KT 8SM CLR 02/00 A3001 780 89 -600 010/10 RMK AO2
14837KMSN MSN20071121042009211/21/07 04:20:31  5-MIN KMSN 211020Z 01010KT 8SM CLR 02/00 A3002 780 89 -600 010/10 RMK AO2
14837KMSN MSN20071121042509211/21/07 04:25:31  5-MIN KMSN 211025Z 01009KT 8SM CLR 02/00 A3002 770 89 -600 010/09 RMK AO2
14837KMSN MSN20071121043009211/21/07 04:30:31  5-MIN KMSN 211030Z 01008KT 8SM CLR 01/00 A3002 770 92 -600 010/08 RMK AO2
14837KMSN MSN20071121043509211/21/07 04:35:31  5-MIN KMSN 211035Z 01010KT 8SM CLR 01/00 A3002 770 92 -600 010/10 RMK AO2
14837KMSN MSN20071121044009211/21/07 04:40:31  5-MIN KMSN 211040Z 01008KT 8SM CLR 01/00 A3003 770 92 -700 010/08 RMK AO2
14837KMSN MSN20071121044509211/21/07 04:45:31  5-MIN KMSN 211045Z 01009KT 8SM CLR 01/00 A3003 760 92 -700 360/09 RMK AO2
14837KMSN MSN20071121045010911/21/07 04:50:31  5-MIN KMSN 211050Z 01007KT 8SM CLR 01/00 A3003 760 92 -700 360/07 RMK AO2 SLP177 T00110000
14837KMSN MSN20071121045509311/21/07 04:55:31  5-MIN KMSN 211055Z 01008KT 8SM CLR 01/M01 A3003 760 89 -700 010/08 RMK AO2
14837KMSN MSN20071121050009311/21/07 05:00:31  5-MIN KMSN 211100Z 36007KT 8SM CLR 01/M01 A3004 760 89 -700 360/07 RMK AO2
14837KMSN MSN20071121050509311/21/07 05:05:31  5-MIN KMSN 211105Z 36007KT 8SM CLR 01/M01 A3003 760 89 -700 360/07 RMK AO2
14837KMSN MSN20071121051009311/21/07 05:10:31  5-MIN KMSN 211110Z 01008KT 8SM CLR 01/M01 A3003 760 89 -700 010/08 RMK AO2
14837KMSN MSN20071121051509311/21/07 05:15:31  5-MIN KMSN 211115Z 01007KT 8SM CLR 01/M01 A3003 760 89 -700 010/07 RMK AO2
14837KMSN MSN20071121052009311/21/07 05:20:31  5-MIN KMSN 211120Z 01007KT 8SM CLR 01/M01 A3003 760 92 -700 010/07 RMK AO2
14837KMSN MSN20071121052509311/21/07 05:25:31  5-MIN KMSN 211125Z 02006KT 8SM CLR 01/M01 A3003 770 92 -700 020/06 RMK AO2
14837KMSN MSN20071121053009311/21/07 05:30:31  5-MIN KMSN 211130Z 02008KT 8SM CLR 01/M01 A3003 760 92 -700 020/08 RMK AO2
14837KMSN MSN20071121053509311/21/07 05:35:31  5-MIN KMSN 211135Z 02007KT 8SM CLR 01/M01 A3003 760 89 -700 010/07 RMK AO2
14837KMSN MSN20071121054009311/21/07 05:40:31  5-MIN KMSN 211140Z 02007KT 8SM CLR 01/M01 A3003 760 89 -700 020/07 RMK AO2
14837KMSN MSN20071121054509311/21/07 05:45:31  5-MIN KMSN 211145Z 02008KT 8SM CLR 01/M01 A3003 760 89 -700 020/08 RMK AO2
14837KMSN MSN20071121055013411/21/07 05:50:31  5-MIN KMSN 211150Z 02006KT 8SM CLR 01/M01 A3003 760 92 -700 020/06 RMK AO2 SLP178 70016 T00061006 10039 20006 51008
14837KMSN MSN20071121055509311/21/07 05:55:31  5-MIN KMSN 211155Z 01007KT 8SM CLR 01/M01 A3004 760 92 -700 010/07 RMK AO2
14837KMSN MSN20071121060009311/21/07 06:00:31  5-MIN KMSN 211200Z 01007KT 8SM CLR 01/M01 A3003 760 92 -700 010/07 RMK AO2
14837KMSN MSN20071121060509311/21/07 06:05:31  5-MIN KMSN 211205Z 02007KT 8SM CLR 01/M01 A3002 770 92 -700 010/07 RMK AO2
14837KMSN MSN20071121061009311/21/07 06:10:31  5-MIN KMSN 211210Z 01008KT 8SM CLR 01/M01 A3002 770 92 -700 010/08 RMK AO2
14837KMSN MSN20071121061509311/21/07 06:15:31  5-MIN KMSN 211215Z 01008KT 8SM CLR 01/M01 A3003 770 92 -700 360/08 RMK AO2
14837KMSN MSN20071121062009311/21/07 06:20:31  5-MIN KMSN 211220Z 36008KT 8SM CLR 01/M01 A3002 770 92 -700 360/08 RMK AO2
14837KMSN MSN20071121062509311/21/07 06:25:31  5-MIN KMSN 211225Z 36008KT 8SM CLR 01/M01 A3003 770 92 -700 360/08 RMK AO2
14837KMSN MSN20071121063009311/21/07 06:30:31  5-MIN KMSN 211230Z 36007KT 8SM CLR 01/M01 A3003 760 92 -700 360/07 RMK AO2
14837KMSN MSN20071121063509311/21/07 06:35:31  5-MIN KMSN 211235Z 36007KT 8SM CLR 01/M01 A3003 760 89 -700 360/07 RMK AO2
14837KMSN MSN20071121064009311/21/07 06:40:31  5-MIN KMSN 211240Z 36007KT 8SM CLR 01/M01 A3003 760 89 -700 360/07 RMK AO2
14837KMSN MSN20071121064509311/21/07 06:45:31  5-MIN KMSN 211245Z 36007KT 8SM CLR 01/M01 A3003 760 89 -700 360/07 RMK AO2
14837KMSN MSN20071121065011011/21/07 06:50:31  5-MIN KMSN 211250Z 35006KT 8SM CLR 01/M01 A3004 760 89 -700 350/06 RMK AO2 SLP179 T00061011
14837KMSN MSN20071121065509311/21/07 06:55:31  5-MIN KMSN 211255Z 35007KT 8SM CLR 01/M01 A3004 750 89 -700 350/07 RMK AO2
14837KMSN MSN20071121070009311/21/07 07:00:31  5-MIN KMSN 211300Z 35008KT 8SM CLR 01/M01 A3004 760 89 -700 350/08 RMK AO2
14837KMSN MSN20071121070509311/21/07 07:05:31  5-MIN KMSN 211305Z 35007KT 8SM CLR 01/M01 A3004 750 89 -700 350/07 RMK AO2
14837KMSN MSN20071121071009311/21/07 07:10:31  5-MIN KMSN 211310Z 35007KT 7SM CLR 01/M01 A3004 750 89 -700 350/07 RMK AO2
14837KMSN MSN20071121071509311/21/07 07:15:31  5-MIN KMSN 211315Z 36007KT 7SM CLR 00/M01 A3004 750 92 -800 360/07 RMK AO2
14837KMSN MSN20071121072009311/21/07 07:20:31  5-MIN KMSN 211320Z 36008KT 7SM CLR 01/M01 A3004 760 89 -700 360/08 RMK AO2
14837KMSN MSN20071121072509311/21/07 07:25:31  5-MIN KMSN 211325Z 35007KT 7SM CLR 01/M01 A3004 750 89 -700 350/07 RMK AO2
14837KMSN MSN20071121073009311/21/07 07:30:31  5-MIN KMSN 211330Z 35006KT 7SM CLR 01/M01 A3004 750 89 -700 350/06 RMK AO2
14837KMSN MSN20071121073509311/21/07 07:35:31  5-MIN KMSN 211335Z 35007KT 7SM CLR 01/M01 A3005 750 89 -700 350/07 RMK AO2
14837KMSN MSN20071121074009311/21/07 07:40:31  5-MIN KMSN 211340Z 35007KT 7SM CLR 01/M01 A3005 750 89 -700 350/07 RMK AO2
14837KMSN MSN20071121074509311/21/07 07:45:31  5-MIN KMSN 211345Z 35005KT 7SM CLR 01/M01 A3005 740 89 -700 350/05 RMK AO2
14837KMSN MSN20071121075011011/21/07 07:50:31  5-MIN KMSN 211350Z 35006KT 7SM CLR 01/M01 A3005 740 89 -700 350/06 RMK AO2 SLP184 T00061011
14837KMSN MSN20071121075509311/21/07 07:55:31  5-MIN KMSN 211355Z 35005KT 7SM CLR 01/M01 A3005 740 89 -800 350/05 RMK AO2
14837KMSN MSN20071121080009311/21/07 08:00:31  5-MIN KMSN 211400Z 35004KT 7SM CLR 01/M01 A3006 740 89 -800 350/04 RMK AO2
14837KMSN MSN20071121080509311/21/07 08:05:31  5-MIN KMSN 211405Z 35005KT 7SM CLR 01/M01 A3006 730 89 -800 350/05 RMK AO2
14837KMSN MSN20071121081009311/21/07 08:10:31  5-MIN KMSN 211410Z 34005KT 7SM CLR 01/M01 A3007 730 89 -800 340/05 RMK AO2
14837KMSN MSN20071121081509311/21/07 08:15:31  5-MIN KMSN 211415Z 34006KT 7SM CLR 01/M01 A3006 730 85 -700 340/06 RMK AO2
14837KMSN MSN20071121082009311/21/07 08:20:31  5-MIN KMSN 211420Z 34006KT 7SM CLR 01/M01 A3007 730 85 -700 340/06 RMK AO2
14837KMSN MSN20071121082509311/21/07 08:25:31  5-MIN KMSN 211425Z 35007KT 7SM CLR 01/M01 A3006 730 85 -700 350/07 RMK AO2
14837KMSN MSN20071121083009311/21/07 08:30:31  5-MIN KMSN 211430Z 35007KT 8SM CLR 01/M01 A3006 730 89 -700 350/07 RMK AO2
14837KMSN MSN20071121083509311/21/07 08:35:31  5-MIN KMSN 211435Z 34005KT 8SM CLR 01/M01 A3007 730 89 -700 340/05 RMK AO2
14837KMSN MSN20071121084009311/21/07 08:40:31  5-MIN KMSN 211440Z 35007KT 7SM CLR 01/M01 A3007 730 89 -700 350/07 RMK AO2
14837KMSN MSN20071121084509311/21/07 08:45:31  5-MIN KMSN 211445Z 34007KT 7SM CLR 01/M01 A3007 730 89 -700 340/07 RMK AO2
14837KMSN MSN20071121085011911/21/07 08:50:31  5-MIN KMSN 211450Z 35008KT 7SM FEW120 02/M01 A3006 730 85 -600 350/08 RMK AO2 SLP187 T00171006 51014
14837KMSN MSN20071121085509611/21/07 08:55:31  5-MIN KMSN 211455Z 35010KT 7SM BKN120 02/M01 A3006 740 85 -600 350/10 RMK AO2
14837KMSN MSN20071121090009611/21/07 09:00:31  5-MIN KMSN 211500Z 35010KT 7SM BKN120 02/M01 A3005 740 85 -600 350/10 RMK AO2
14837KMSN MSN20071121090509611/21/07 09:05:31  5-MIN KMSN 211505Z 35010KT 7SM BKN120 02/M01 A3005 740 85 -600 350/10 RMK AO2
14837KMSN MSN20071121091009611/21/07 09:10:31  5-MIN KMSN 211510Z 35009KT 7SM BKN120 02/M01 A3007 730 85 -600 340/09 RMK AO2
14837KMSN MSN20071121091509611/21/07 09:15:31  5-MIN KMSN 211515Z 35010KT 7SM BKN120 02/M01 A3006 730 85 -600 350/10 RMK AO2
14837KMSN MSN20071121092009611/21/07 09:20:31  5-MIN KMSN 211520Z 35010KT 7SM BKN120 02/M01 A3006 730 85 -600 350/10 RMK AO2
14837KMSN MSN20071121092509511/21/07 09:25:31  5-MIN KMSN 211525Z 36011KT 7SM BKN120 02/00 A3006 740 89 -600 350/11 RMK AO2
14837KMSN MSN20071121093010211/21/07 09:30:31  5-MIN KMSN 211530Z 36013KT 7SM FEW008 BKN120 02/00 A3005 740 89 -600 360/13 RMK AO2
14837KMSN MSN20071121093510911/21/07 09:35:31  5-MIN KMSN 211535Z 36014KT 7SM FEW008 BKN120 02/00 A3004 750 89 -600 360/14 RMK AO2 PRESFR
14837KMSN MSN20071121094010211/21/07 09:40:31  5-MIN KMSN 211540Z 01012KT 7SM FEW008 BKN120 02/00 A3004 750 85 -500 010/12 RMK AO2
14837KMSN MSN20071121094510211/21/07 09:45:31  5-MIN KMSN 211545Z 36014KT 8SM FEW008 BKN120 02/00 A3005 750 85 -500 360/14 RMK AO2
14837KMSN MSN20071121095010211/21/07 09:50:31  5-MIN KMSN 211550Z 01016KT 8SM BKN013 OVC120 02/00 A3005 750 85 -500 010/16 RMK AO2
14837KMSN MSN20071121095510211/21/07 09:55:31  5-MIN KMSN 211555Z 01012KT 8SM BKN013 OVC120 02/00 A3004 750 85 -500 010/12 RMK AO2
14837KMSN MSN20071121100010811/21/07 10:00:31  5-MIN KMSN 211600Z 01019G24KT 8SM BKN013 OVC120 02/00 A3004 750 85 -500 010/19G24 RMK AO2
14837KMSN MSN20071121100510811/21/07 10:05:31  5-MIN KMSN 211605Z 02015G24KT 9SM SCT013 BKN110 02/00 A3004 750 85 -500 010/15G24 RMK AO2
14837KMSN MSN20071121101010811/21/07 10:10:31  5-MIN KMSN 211610Z 01016G25KT 9SM BKN013 BKN110 02/00 A3004 760 85 -500 010/16G25 RMK AO2
14837KMSN MSN20071121101510811/21/07 10:15:31  5-MIN KMSN 211615Z 36014G25KT 9SM BKN013 BKN110 03/00 A3004 750 82 -500 360/14G25 RMK AO2
14837KMSN MSN20071121102010811/21/07 10:20:31  5-MIN KMSN 211620Z 36017G24KT 9SM SCT013 SCT120 03/00 A3004 750 82 -500 360/17G24 RMK AO2
14837KMSN MSN20071121102510811/21/07 10:25:31  5-MIN KMSN 211625Z 01018G24KT 9SM FEW013 SCT120 03/00 A3004 750 82 -500 010/18G24 RMK AO2
14837KMSN MSN20071121103010111/21/07 10:30:31  5-MIN KMSN 211630Z 01013G23KT 9SM SCT013 03/01 A3004 760 85 -500 010/13G23 RMK AO2
14837KMSN MSN20071121103510811/21/07 10:35:31  5-MIN KMSN 211635Z 01018G25KT 9SM BKN013 OVC110 03/00 A3004 760 82 -500 010/18G25 RMK AO2
14837KMSN MSN20071121104010811/21/07 10:40:31  5-MIN KMSN 211640Z 02015G25KT 9SM BKN013 OVC110 03/00 A3003 760 82 -500 020/15G25 RMK AO2
14837KMSN MSN20071121104510111/21/07 10:45:31  5-MIN KMSN 211645Z 02017G22KT 9SM BKN014 03/01 A3003 770 85 -400 020/17G22 RMK AO2
14837KMSN MSN20071121105011811/21/07 10:50:31  5-MIN KMSN 211650Z 02016G22KT 9SM BKN014 03/00 A3003 770 82 -400 020/16G22 RMK AO2 SLP176 T00280000
14837KMSN MSN20071121105510211/21/07 10:55:31  5-MIN KMSN 211655Z 02016G24KT 10SM BKN014 03/00 A3003 770 82 -400 020/16G24 RMK AO2
14837KMSN MSN20071121110010211/21/07 11:00:31  5-MIN KMSN 211700Z 02012G24KT 10SM BKN014 03/00 A3003 760 82 -500 020/12G24 RMK AO2
14837KMSN MSN20071121110510211/21/07 11:05:31  5-MIN KMSN 211705Z 02011G22KT 10SM OVC014 03/00 A3003 770 82 -400 020/11G22 RMK AO2
14837KMSN MSN20071121111009611/21/07 11:10:31  5-MIN KMSN 211710Z 03013KT 10SM OVC016 03/01 A3002 770 85 -400 030/13 RMK AO2
14837KMSN MSN20071121111510211/21/07 11:15:31  5-MIN KMSN 211715Z 03015G19KT 10SM OVC014 03/00 A3002 770 82 -400 030/15G19 RMK AO2
14837KMSN MSN20071121112010211/21/07 11:20:31  5-MIN KMSN 211720Z 01013G19KT 10SM OVC014 03/00 A3003 760 82 -400 010/13G19 RMK AO2
14837KMSN MSN20071121112509611/21/07 11:25:31  5-MIN KMSN 211725Z 01014KT 10SM OVC016 03/00 A3003 760 82 -400 010/14 RMK AO2
14837KMSN MSN20071121113009611/21/07 11:30:31  5-MIN KMSN 211730Z 01014KT 10SM OVC016 03/00 A3003 760 82 -500 010/14 RMK AO2
14837KMSN MSN20071121113509611/21/07 11:35:31  5-MIN KMSN 211735Z 01013KT 10SM OVC016 03/00 A3003 770 82 -400 010/13 RMK AO2
14837KMSN MSN20071121114009611/21/07 11:40:31  5-MIN KMSN 211740Z 01012KT 10SM OVC016 03/01 A3003 770 85 -400 010/12 RMK AO2
14837KMSN MSN20071121114509611/21/07 11:45:31  5-MIN KMSN 211745Z 01013KT 10SM OVC016 03/01 A3003 770 82 -400 010/13 RMK AO2
14837KMSN MSN20071121115013111/21/07 11:50:31  5-MIN KMSN 211750Z 01015KT 10SM OVC016 03/01 A3002 780 82 -400 010/15 RMK AO2 SLP172 T00330006 10033 20000 53008
14837KMSN MSN20071121115509611/21/07 11:55:31  5-MIN KMSN 211755Z 01015KT 10SM OVC016 03/01 A3001 780 82 -400 010/15 RMK AO2
14837KMSN MSN20071121120010211/21/07 12:00:31  5-MIN KMSN 211800Z 02016G20KT 10SM OVC016 03/01 A3002 780 82 -400 020/16G20 RMK AO2
14837KMSN MSN20071121120510211/21/07 12:05:31  5-MIN KMSN 211805Z 01014G20KT 10SM OVC016 03/01 A3002 780 82 -400 010/14G20 RMK AO2
14837KMSN MSN20071121121009611/21/07 12:10:31  5-MIN KMSN 211810Z 36014KT 10SM OVC018 03/01 A3003 770 82 -400 360/14 RMK AO2
14837KMSN MSN20071121121509611/21/07 12:15:31  5-MIN KMSN 211815Z 36010KT 10SM OVC018 03/01 A3002 770 82 -400 360/10 RMK AO2
14837KMSN MSN20071121122009611/21/07 12:20:31  5-MIN KMSN 211820Z 01013KT 10SM OVC016 03/01 A3002 770 82 -400 360/13 RMK AO2
14837KMSN MSN20071121122509611/21/07 12:25:31  5-MIN KMSN 211825Z 01015KT 10SM OVC016 03/01 A3002 770 82 -400 010/15 RMK AO2
14837KMSN MSN20071121123009611/21/07 12:30:31  5-MIN KMSN 211830Z 01015KT 10SM OVC016 03/01 A3002 770 82 -400 010/15 RMK AO2
14837KMSN MSN20071121123509611/21/07 12:35:31  5-MIN KMSN 211835Z 01016KT 10SM OVC016 03/01 A3002 770 85 -400 010/16 RMK AO2
14837KMSN MSN20071121124009611/21/07 12:40:31  5-MIN KMSN 211840Z 02014KT 10SM OVC016 03/01 A3003 760 85 -400 010/14 RMK AO2
14837KMSN MSN20071121124509611/21/07 12:45:31  5-MIN KMSN 211845Z 01013KT 10SM OVC016 03/01 A3003 770 85 -400 010/13 RMK AO2
14837KMSN MSN20071121125011311/21/07 12:50:31  5-MIN KMSN 211850Z 02014KT 10SM OVC016 03/01 A3001 780 85 -400 020/14 RMK AO2 SLP171 T00280006
14837KMSN MSN20071121125509611/21/07 12:55:31  5-MIN KMSN 211855Z 02014KT 10SM OVC016 03/01 A3001 780 85 -400 020/14 RMK AO2
14837KMSN MSN20071121130010211/21/07 13:00:31  5-MIN KMSN 211900Z 03014G20KT 10SM OVC014 03/01 A3001 780 85 -400 020/14G20 RMK AO2
14837KMSN MSN20071121130510211/21/07 13:05:31  5-MIN KMSN 211905Z 02014G19KT 10SM OVC014 03/01 A3001 780 85 -400 020/14G19 RMK AO2
14837KMSN MSN20071121131010211/21/07 13:10:31  5-MIN KMSN 211910Z 02013G19KT 10SM OVC014 03/01 A3001 780 82 -400 020/13G19 RMK AO2
14837KMSN MSN20071121131509611/21/07 13:15:31  5-MIN KMSN 211915Z 01014KT 10SM OVC014 03/01 A3000 790 82 -300 010/14 RMK AO2
14837KMSN MSN20071121132009611/21/07 13:20:31  5-MIN KMSN 211920Z 01010KT 10SM OVC014 03/01 A3001 780 85 -400 010/10 RMK AO2
14837KMSN MSN20071121132509611/21/07 13:25:31  5-MIN KMSN 211925Z 01013KT 10SM OVC014 03/01 A3000 790 85 -400 010/13 RMK AO2
14837KMSN MSN20071121133009611/21/07 13:30:31  5-MIN KMSN 211930Z 01014KT 10SM OVC014 03/01 A3001 780 85 -400 010/14 RMK AO2
14837KMSN MSN20071121133509611/21/07 13:35:31  5-MIN KMSN 211935Z 01013KT 10SM OVC014 03/01 A3001 780 82 -400 010/13 RMK AO2
14837KMSN MSN20071121134009611/21/07 13:40:31  5-MIN KMSN 211940Z 01014KT 10SM OVC014 03/01 A3001 780 82 -400 010/14 RMK AO2
14837KMSN MSN20071121134509611/21/07 13:45:31  5-MIN KMSN 211945Z 02015KT 10SM OVC014 03/01 A3001 780 82 -400 010/15 RMK AO2
14837KMSN MSN20071121135011911/21/07 13:50:31  5-MIN KMSN 211950Z 02018G25KT 10SM OVC014 03/01 A2999 800 82 -300 020/18G25 RMK AO2 SLP164 T00330006
14837KMSN MSN20071121135510211/21/07 13:55:31  5-MIN KMSN 211955Z 02018G25KT 10SM OVC016 03/01 A3000 790 82 -300 020/18G25 RMK AO2
14837KMSN MSN20071121140012011/21/07 14:00:31  5-MIN KMSN 212000Z 02015G23KT 10SM -RA OVC016 03/01 A3001 790 82 -300 020/15G23 RMK AO2 RAB1956 P0000
14837KMSN MSN20071121140511911/21/07 14:05:31  5-MIN KMSN 212005Z 01013G23KT 10SM OVC016 03/01 A3001 780 82 -400 010/13G23 RMK AO2 RAB1956E02 P0000
14837KMSN MSN20071121141011911/21/07 14:10:31  5-MIN KMSN 212010Z 01014G21KT 10SM OVC018 03/01 A3001 780 82 -400 360/14G21 RMK AO2 RAB1956E02 P0000
14837KMSN MSN20071121141512611/21/07 14:15:31  5-MIN KMSN 212015Z 02016G20KT 10SM OVC018 03/01 A3002 770 82 -400 020/16G20 RMK AO2 RAB1956E02 PRESRR P0000
14837KMSN MSN20071121142012011/21/07 14:20:31  5-MIN KMSN 212020Z 01013KT 10SM OVC020 03/00 A3003 760 79 -400 010/13 RMK AO2 RAB1956E02 PRESRR P0000
14837KMSN MSN20071121142511311/21/07 14:25:31  5-MIN KMSN 212025Z 01014KT 10SM OVC020 03/00 A3003 770 79 -400 010/14 RMK AO2 RAB1956E02 P0000
14837KMSN MSN20071121143011311/21/07 14:30:31  5-MIN KMSN 212030Z 02015KT 10SM OVC020 03/00 A3003 760 79 -400 020/15 RMK AO2 RAB1956E02 P0000
14837KMSN MSN20071121143511911/21/07 14:35:31  5-MIN KMSN 212035Z 01012G20KT 10SM OVC022 03/01 A3003 770 82 -400 010/12G20 RMK AO2 RAB1956E02 P0000
14837KMSN MSN20071121144013211/21/07 14:40:31  5-MIN KMSN 212040Z 02017G22KT 7SM -PLRA OVC022 03/00 A3002 770 79 -400 020/17G22 RMK AO2 RAB1956E02B39PLB40 P0000
14837KMSN MSN20071121144514011/21/07 14:45:31  5-MIN KMSN 212045Z 02016G22KT 7SM -RASN OVC022 03/00 A3002 770 82 -400 020/16G22 RMK AO2 RAB1956E02B39PLB40E45SNB45 P0000
14837KMSN MSN20071121145016311/21/07 14:50:31  5-MIN KMSN 212050Z 01016KT 6SM -RASN OVC024 03/00 A3002 770 82 -400 010/16 RMK AO2 RAB1956E02B39PLB40E45SNB45 SLP173 P0000 60000 T00280000 56015
14837KMSN MSN20071121145510711/21/07 14:55:31  5-MIN KMSN 212055Z 02015KT 6SM -RASN OVC024 03/00 A3002 770 82 -400 020/15 RMK AO2 P0000
14837KMSN MSN20071121150011311/21/07 15:00:31  5-MIN KMSN 212100Z 02015G22KT 6SM -RASN OVC024 03/00 A3003 770 82 -400 020/15G22 RMK AO2 P0001
14837KMSN MSN20071121150512711/21/07 15:05:31  5-MIN KMSN 212105Z 02015G22KT 7SM -RASN BKN024 BKN030 OVC039 03/00 A3003 770 82 -400 020/15G22 RMK AO2 P0001
14837KMSN MSN20071121151012711/21/07 15:10:31  5-MIN KMSN 212110Z 02014G22KT 8SM -RASN BKN024 BKN030 OVC039 03/00 A3003 760 82 -400 020/14G22 RMK AO2 P0001
14837KMSN MSN20071123211009511/23/07 21:10:31  5-MIN KMSN 240310Z 21008KT 9SM CLR M03/M07 A3027 540 75 -1400 210/08 RMK AO2
14837KMSN MSN20071123211510111/23/07 21:15:31  5-MIN KMSN 240315Z 21007G15KT 9SM CLR M02/M07 A3027 540 72 -1300 210/07G15 RMK AO2
14837KMSN MSN20071123212010111/23/07 21:20:31  5-MIN KMSN 240320Z VRB06G15KT 9SM CLR M03/M07 A3027 550 75 -1400 VRB/06G15 RMK AO2
14837KMSN MSN20071123212509511/23/07 21:25:31  5-MIN KMSN 240325Z 22007KT 9SM CLR M03/M07 A3026 550 75 -1400 220/07 RMK AO2
14837KMSN MSN20071123213009511/23/07 21:30:31  5-MIN KMSN 240330Z 21006KT 9SM CLR M03/M07 A3026 550 75 -1400 210/06 RMK AO2
14837KMSN MSN20071123213510111/23/07 21:35:31  5-MIN KMSN 240335Z 22009G14KT 9SM CLR M02/M07 A3026 550 72 -1300 220/09G14 RMK AO2
14837KMSN MSN20071123214010111/23/07 21:40:31  5-MIN KMSN 240340Z 21008G16KT 9SM CLR M02/M07 A3026 550 72 -1300 210/08G16 RMK AO2
14837KMSN MSN20071123214510111/23/07 21:45:31  5-MIN KMSN 240345Z 21007G16KT 9SM CLR M03/M07 A3026 550 75 -1400 200/07G16 RMK AO2
14837KMSN MSN20071123215011211/23/07 21:50:31  5-MIN KMSN 240350Z 20007KT 9SM CLR M02/M07 A3026 550 72 -1300 200/07 RMK AO2 SLP259 T10221067
14837KMSN MSN20071123215509511/23/07 21:55:31  5-MIN KMSN 240355Z 21007KT 9SM CLR M02/M07 A3026 550 72 -1300 210/07 RMK AO2
14837KMSN MSN20071123220009511/23/07 22:00:31  5-MIN KMSN 240400Z 22005KT 9SM CLR M02/M07 A3026 550 72 -1300 220/05 RMK AO2
14837KMSN MSN20071123220509511/23/07 22:05:31  5-MIN KMSN 240405Z 22006KT 8SM CLR M02/M07 A3026 550 72 -1300 220/06 RMK AO2
14837KMSN MSN20071123221009511/23/07 22:10:31  5-MIN KMSN 240410Z 23008KT 8SM CLR M02/M07 A3026 550 72 -1300 220/08 RMK AO2
14837KMSN MSN20071123221510111/23/07 22:15:31  5-MIN KMSN 240415Z 22009G15KT 8SM CLR M02/M07 A3026 550 72 -1300 220/09G15 RMK AO2
14837KMSN MSN20071123222010111/23/07 22:20:31  5-MIN KMSN 240420Z 22007G15KT 9SM CLR M02/M06 A3026 550 75 -1300 220/07G15 RMK AO2
14837KMSN MSN20071123222509511/23/07 22:25:31  5-MIN KMSN 240425Z VRB06KT 9SM CLR M02/M06 A3026 560 75 -1300 VRB/06 RMK AO2
14837KMSN MSN20071123223009511/23/07 22:30:31  5-MIN KMSN 240430Z 21008KT 9SM CLR M02/M06 A3025 560 75 -1300 210/08 RMK AO2
14837KMSN MSN20071123223509511/23/07 22:35:31  5-MIN KMSN 240435Z 22008KT 9SM CLR M02/M06 A3025 560 75 -1300 220/08 RMK AO2
14837KMSN MSN20071123224009511/23/07 22:40:31  5-MIN KMSN 240440Z 21007KT 9SM CLR M02/M06 A3025 560 75 -1300 210/07 RMK AO2
14837KMSN MSN20071123224510111/23/07 22:45:31  5-MIN KMSN 240445Z 21009G17KT 8SM CLR M02/M06 A3025 560 75 -1300 210/09G17 RMK AO2
14837KMSN MSN20071123225011811/23/07 22:50:31  5-MIN KMSN 240450Z 21010G17KT 8SM CLR M02/M06 A3025 560 75 -1300 210/10G17 RMK AO2 SLP255 T10221061
14837KMSN MSN20071123225510111/23/07 22:55:31  5-MIN KMSN 240455Z 21008G16KT 8SM CLR M02/M06 A3025 560 75 -1300 210/08G16 RMK AO2
14837KMSN MSN20071123230009511/23/07 23:00:31  5-MIN KMSN 240500Z 21008KT 7SM CLR M02/M06 A3025 560 75 -1300 200/08 RMK AO2
14837KMSN MSN20071123230509511/23/07 23:05:31  5-MIN KMSN 240505Z 22006KT 7SM CLR M02/M06 A3025 560 75 -1300 220/06 RMK AO2
14837KMSN MSN20071123231010111/23/07 23:10:31  5-MIN KMSN 240510Z 23010G17KT 7SM CLR M02/M06 A3025 560 75 -1300 230/10G17 RMK AO2
14837KMSN MSN20071123231510111/23/07 23:15:31  5-MIN KMSN 240515Z 22010G17KT 7SM CLR M02/M06 A3025 560 75 -1300 210/10G17 RMK AO2
14837KMSN MSN20071123232010111/23/07 23:20:31  5-MIN KMSN 240520Z 23008G16KT 7SM CLR M02/M06 A3025 560 75 -1300 230/08G16 RMK AO2
14837KMSN MSN20071123232510111/23/07 23:25:31  5-MIN KMSN 240525Z 22007G15KT 7SM CLR M02/M06 A3025 560 75 -1300 220/07G15 RMK AO2
14837KMSN MSN20071123233009511/23/07 23:30:31  5-MIN KMSN 240530Z 22006KT 7SM CLR M02/M06 A3026 550 75 -1300 220/06 RMK AO2
14837KMSN MSN20071123233509511/23/07 23:35:31  5-MIN KMSN 240535Z 22008KT 8SM CLR M02/M06 A3026 560 75 -1300 220/08 RMK AO2
14837KMSN MSN20071123234010111/23/07 23:40:31  5-MIN KMSN 240540Z 22009G14KT 8SM CLR M02/M06 A3025 560 75 -1300 210/09G14 RMK AO2
14837KMSN MSN20071123234510111/23/07 23:45:31  5-MIN KMSN 240545Z 22009G14KT 8SM CLR M02/M06 A3026 560 75 -1300 220/09G14 RMK AO2
14837KMSN MSN20071123235014611/23/07 23:50:31  5-MIN KMSN 240550Z 21010G15KT 8SM CLR M02/M06 A3025 560 75 -1300 210/10G15 RMK AO2 SLP257 T10221061 11022 21028 410061072 56003
14837KMSN MSN20071123235510111/23/07 23:55:31  5-MIN KMSN 240555Z 22008G15KT 8SM CLR M02/M06 A3025 560 75 -1300 220/08G15 RMK AO2
14837KMSN MSN20071124000010111/24/07 00:00:32  5-MIN KMSN 240600Z 23008G16KT 8SM CLR M02/M06 A3025 560 75 -1300 230/08G16 RMK AO2
14837KMSN MSN20071124000510111/24/07 00:05:31  5-MIN KMSN 240605Z 22008G16KT 8SM CLR M02/M06 A3025 560 75 -1300 220/08G16 RMK AO2
14837KMSN MSN20071124001009511/24/07 00:10:31  5-MIN KMSN 240610Z 22009KT 8SM CLR M02/M06 A3025 560 75 -1300 220/09 RMK AO2
14837KMSN MSN20071124001509511/24/07 00:15:31  5-MIN KMSN 240615Z 22008KT 8SM CLR M02/M06 A3025 560 75 -1300 220/08 RMK AO2
14837KMSN MSN20071124002009511/24/07 00:20:31  5-MIN KMSN 240620Z 22006KT 8SM CLR M02/M06 A3025 560 75 -1300 220/06 RMK AO2
14837KMSN MSN20071124002510111/24/07 00:25:31  5-MIN KMSN 240625Z 22007G15KT 8SM CLR M02/M06 A3025 560 75 -1300 220/07G15 RMK AO2
14837KMSN MSN20071124003010111/24/07 00:30:31  5-MIN KMSN 240630Z 22008G15KT 8SM CLR M02/M06 A3025 560 75 -1300 220/08G15 RMK AO2
14837KMSN MSN20071124003509511/24/07 00:35:31  5-MIN KMSN 240635Z 21008KT 8SM CLR M02/M06 A3025 560 75 -1300 210/08 RMK AO2
14837KMSN MSN20071124004010111/24/07 00:40:31  5-MIN KMSN 240640Z 22008G15KT 8SM CLR M02/M06 A3025 560 75 -1300 220/08G15 RMK AO2
14837KMSN MSN20071124004510111/24/07 00:45:31  5-MIN KMSN 240645Z 23008G15KT 8SM CLR M02/M06 A3025 560 75 -1300 220/08G15 RMK AO2
14837KMSN MSN20071124005011211/24/07 00:50:31  5-MIN KMSN 240650Z 23006KT 8SM CLR M02/M06 A3024 570 75 -1300 230/06 RMK AO2 SLP253 T10221061
14837KMSN MSN20071124005509511/24/07 00:55:31  5-MIN KMSN 240655Z 22007KT 8SM CLR M02/M06 A3024 570 75 -1300 220/07 RMK AO2
14837KMSN MSN20071124010010111/24/07 01:00:31  5-MIN KMSN 240700Z 22009G15KT 8SM CLR M02/M06 A3024 570 75 -1300 220/09G15 RMK AO2
14837KMSN MSN20071124010510111/24/07 01:05:31  5-MIN KMSN 240705Z 22007G15KT 8SM CLR M02/M06 A3024 570 75 -1300 220/07G15 RMK AO2
14837KMSN MSN20071124011009511/24/07 01:10:31  5-MIN KMSN 240710Z 23008KT 8SM CLR M02/M06 A3024 570 75 -1300 230/08 RMK AO2
14837KMSN MSN20071124011510111/24/07 01:15:31  5-MIN KMSN 240715Z 22006G14KT 8SM CLR M02/M06 A3024 570 75 -1300 210/06G14 RMK AO2
14837KMSN MSN20071124012010111/24/07 01:20:31  5-MIN KMSN 240720Z 22005G16KT 8SM CLR M02/M06 A3024 570 75 -1300 220/05G16 RMK AO2
14837KMSN MSN20071124012510111/24/07 01:25:31  5-MIN KMSN 240725Z 22009G16KT 8SM CLR M02/M06 A3024 570 75 -1300 220/09G16 RMK AO2
14837KMSN MSN20071124013010111/24/07 01:30:31  5-MIN KMSN 240730Z 22006G17KT 8SM CLR M02/M06 A3023 570 75 -1300 220/06G17 RMK AO2
14837KMSN MSN20071124013510111/24/07 01:35:31  5-MIN KMSN 240735Z 22007G18KT 9SM CLR M02/M06 A3023 570 75 -1300 220/07G18 RMK AO2
14837KMSN MSN20071124014010111/24/07 01:40:31  5-MIN KMSN 240740Z 22011G18KT 9SM CLR M02/M06 A3023 570 75 -1300 220/11G18 RMK AO2
14837KMSN MSN20071124014510411/24/07 01:45:31  5-MIN KMSN 240745Z 22008G16KT 9SM FEW120 M02/M06 A3024 570 75 -1300 210/08G16 RMK AO2
14837KMSN MSN20071124015012111/24/07 01:50:31  5-MIN KMSN 240750Z 22010G18KT 9SM SCT120 M02/M06 A3023 580 75 -1300 220/10G18 RMK AO2 SLP249 T10221061
14837KMSN MSN20071124015510411/24/07 01:55:31  5-MIN KMSN 240755Z 22009G18KT 8SM SCT120 M02/M06 A3024 570 75 -1300 220/09G18 RMK AO2
14837KMSN MSN20071124020010411/24/07 02:00:31  5-MIN KMSN 240800Z 21009G18KT 8SM BKN120 M02/M06 A3024 570 75 -1300 210/09G18 RMK AO2
14837KMSN MSN20071124020510411/24/07 02:05:31  5-MIN KMSN 240805Z 23011G18KT 9SM BKN120 M02/M06 A3024 570 75 -1300 220/11G18 RMK AO2
14837KMSN MSN20071124021010411/24/07 02:10:31  5-MIN KMSN 240810Z 21007G18KT 9SM BKN120 M02/M06 A3023 580 75 -1300 210/07G18 RMK AO2
14837KMSN MSN20071124021510411/24/07 02:15:31  5-MIN KMSN 240815Z 21009G15KT 9SM BKN120 M02/M06 A3023 580 75 -1300 210/09G15 RMK AO2
14837KMSN MSN20071124022010411/24/07 02:20:31  5-MIN KMSN 240820Z 21009G15KT 9SM BKN120 M02/M06 A3023 580 75 -1300 210/09G15 RMK AO2
14837KMSN MSN20071124022510411/24/07 02:25:31  5-MIN KMSN 240825Z 22011G18KT 9SM BKN120 M02/M06 A3023 580 75 -1300 220/11G18 RMK AO2
14837KMSN MSN20071124023010411/24/07 02:30:31  5-MIN KMSN 240830Z 22008G18KT 9SM SCT120 M02/M06 A3023 580 75 -1300 220/08G18 RMK AO2
14837KMSN MSN20071124023510411/24/07 02:35:31  5-MIN KMSN 240835Z 22011G18KT 9SM SCT120 M02/M06 A3023 580 75 -1300 220/11G18 RMK AO2
14837KMSN MSN20071124024010411/24/07 02:40:31  5-MIN KMSN 240840Z 22011G18KT 9SM FEW120 M02/M06 A3023 580 75 -1300 220/11G18 RMK AO2
14837KMSN MSN20071124024510411/24/07 02:45:31  5-MIN KMSN 240845Z 22011G19KT 9SM FEW120 M02/M06 A3023 580 75 -1300 220/11G19 RMK AO2
14837KMSN MSN20071124025012411/24/07 02:50:31  5-MIN KMSN 240850Z 22010G19KT 9SM CLR M02/M06 A3023 580 75 -1300 220/10G19 RMK AO2 SLP246 T10221061 55006
14837KMSN MSN20071124025510111/24/07 02:55:31  5-MIN KMSN 240855Z 22008G18KT 9SM CLR M02/M06 A3022 590 75 -1300 220/08G18 RMK AO2
14837KMSN MSN20071124030010111/24/07 03:00:31  5-MIN KMSN 240900Z 21008G18KT 9SM CLR M02/M06 A3022 590 75 -1300 210/08G18 RMK AO2
14837KMSN MSN20071124030510111/24/07 03:05:31  5-MIN KMSN 240905Z 21009G15KT 9SM CLR M02/M06 A3022 590 75 -1300 210/09G15 RMK AO2
14837KMSN MSN20071124031010111/24/07 03:10:31  5-MIN KMSN 240910Z 22010G15KT 9SM CLR M02/M06 A3022 590 75 -1300 220/10G15 RMK AO2
14837KMSN MSN20071124031510111/24/07 03:15:31  5-MIN KMSN 240915Z 22012G19KT 9SM CLR M02/M06 A3021 590 75 -1300 210/12G19 RMK AO2
14837KMSN MSN20071124032010111/24/07 03:20:31  5-MIN KMSN 240920Z 22009G19KT 9SM CLR M02/M06 A3021 590 75 -1300 220/09G19 RMK AO2
14837KMSN MSN20071124032510111/24/07 03:25:31  5-MIN KMSN 240925Z 23009G17KT 9SM CLR M02/M06 A3021 600 75 -1300 230/09G17 RMK AO2
14837KMSN MSN20071124033010111/24/07 03:30:31  5-MIN KMSN 240930Z 22010G15KT 9SM CLR M02/M06 A3021 600 75 -1300 220/10G15 RMK AO2
14837KMSN MSN20071124033510111/24/07 03:35:31  5-MIN KMSN 240935Z 23009G15KT 9SM CLR M02/M06 A3021 600 75 -1300 230/09G15 RMK AO2
14837KMSN MSN20071124034010111/24/07 03:40:31  5-MIN KMSN 240940Z 22006G15KT 9SM CLR M02/M06 A3021 600 75 -1300 220/06G15 RMK AO2
14837KMSN MSN20071124034510111/24/07 03:45:31  5-MIN KMSN 240945Z 23007G14KT 9SM CLR M02/M06 A3021 600 75 -1300 220/07G14 RMK AO2
14837KMSN MSN20071124035011811/24/07 03:50:31  5-MIN KMSN 240950Z 23009G17KT 9SM CLR M02/M06 A3021 600 75 -1300 230/09G17 RMK AO2 SLP242 T10221061
14837KMSN MSN20071124035510111/24/07 03:55:31  5-MIN KMSN 240955Z 23010G17KT 9SM CLR M02/M06 A3021 600 75 -1300 230/10G17 RMK AO2
14837KMSN MSN20071124040010111/24/07 04:00:31  5-MIN KMSN 241000Z 22010G17KT 9SM CLR M02/M06 A3021 600 75 -1300 220/10G17 RMK AO2
14837KMSN MSN20071124040510111/24/07 04:05:31  5-MIN KMSN 241005Z 22009G16KT 9SM CLR M02/M06 A3021 600 75 -1300 220/09G16 RMK AO2
14837KMSN MSN20071124041010111/24/07 04:10:31  5-MIN KMSN 241010Z 22009G18KT 9SM CLR M02/M06 A3021 600 75 -1300 220/09G18 RMK AO2
14837KMSN MSN20071124041510111/24/07 04:15:31  5-MIN KMSN 241015Z 22009G18KT 9SM CLR M02/M06 A3021 600 75 -1300 210/09G18 RMK AO2
14837KMSN MSN20071124042010111/24/07 04:20:31  5-MIN KMSN 241020Z 22008G15KT 9SM CLR M02/M06 A3021 600 75 -1300 220/08G15 RMK AO2
14837KMSN MSN20071124042510111/24/07 04:25:31  5-MIN KMSN 241025Z 22007G14KT 9SM CLR M02/M06 A3021 600 75 -1300 220/07G14 RMK AO2
14837KMSN MSN20071124043010111/24/07 04:30:31  5-MIN KMSN 241030Z 22009G15KT 9SM CLR M02/M06 A3020 600 75 -1300 220/09G15 RMK AO2
14837KMSN MSN20071124043510111/24/07 04:35:31  5-MIN KMSN 241035Z 21009G17KT 9SM CLR M02/M06 A3020 610 75 -1300 210/09G17 RMK AO2
14837KMSN MSN20071124044010111/24/07 04:40:31  5-MIN KMSN 241040Z 21009G17KT 8SM CLR M02/M06 A3020 610 75 -1300 210/09G17 RMK AO2
14837KMSN MSN20071124044509811/24/07 04:45:31  5-MIN KMSN 241045Z 21009KT 8SM FEW100 M03/M06 A3020 610 78 -1300 210/09 RMK AO2
14837KMSN MSN20071124045012111/24/07 04:50:31  5-MIN KMSN 241050Z 22009G15KT 8SM SCT100 M02/M06 A3020 610 75 -1300 220/09G15 RMK AO2 SLP238 T10221061
14837KMSN MSN20071124045510411/24/07 04:55:31  5-MIN KMSN 241055Z 21011G16KT 8SM FEW100 M03/M06 A3020 610 78 -1300 200/11G16 RMK AO2
14837KMSN MSN20071124050010411/24/07 05:00:31  5-MIN KMSN 241100Z 21008G16KT 8SM FEW100 M03/M06 A3020 610 78 -1300 210/08G16 RMK AO2
14837KMSN MSN20071124050510511/24/07 05:05:31  5-MIN KMSN 241105Z 20008KT 8SM FEW055 SCT100 M03/M06 A3020 610 78 -1300 200/08 RMK AO2
14837KMSN MSN20071124051011111/24/07 05:10:31  5-MIN KMSN 241110Z 20012G16KT 7SM FEW055 BKN100 M03/M06 A3020 610 78 -1300 200/12G16 RMK AO2
14837KMSN MSN20071124051511111/24/07 05:15:31  5-MIN KMSN 241115Z 21010G16KT 7SM FEW055 BKN100 M03/M06 A3019 610 78 -1300 210/10G16 RMK AO2
14837KMSN MSN20071124052011111/24/07 05:20:31  5-MIN KMSN 241120Z 20010G18KT 7SM FEW055 BKN100 M03/M06 A3019 610 78 -1300 200/10G18 RMK AO2
14837KMSN MSN20071124052511111/24/07 05:25:31  5-MIN KMSN 241125Z 22010G18KT 7SM FEW050 OVC100 M02/M06 A3019 610 75 -1300 210/10G18 RMK AO2
14837KMSN MSN20071124053011111/24/07 05:30:31  5-MIN KMSN 241130Z 20011G18KT 7SM SCT050 OVC100 M02/M06 A3019 610 75 -1300 200/11G18 RMK AO2
14837KMSN MSN20071124053511111/24/07 05:35:31  5-MIN KMSN 241135Z 21009G18KT 7SM BKN050 OVC100 M02/M06 A3019 620 75 -1300 210/09G18 RMK AO2
14837KMSN MSN20071124054011111/24/07 05:40:31  5-MIN KMSN 241140Z 21010G18KT 7SM BKN055 OVC100 M02/M06 A3019 620 75 -1300 210/10G18 RMK AO2
14837KMSN MSN20071124054511111/24/07 05:45:31  5-MIN KMSN 241145Z 21012G18KT 7SM BKN055 OVC100 M02/M06 A3019 620 75 -1300 210/12G18 RMK AO2
14837KMSN MSN20071124055014611/24/07 05:50:31  5-MIN KMSN 241150Z 22010G17KT 7SM BKN055 BKN110 M02/M06 A3019 620 75 -1300 210/10G17 RMK AO2 SLP233 T10221061 11022 21028 58009
14837KMSN MSN20071124055510411/24/07 05:55:31  5-MIN KMSN 241155Z 21008G15KT 7SM BKN055 M02/M06 A3019 620 75 -1300 210/08G15 RMK AO2
14837KMSN MSN20071124060010411/24/07 06:00:31  5-MIN KMSN 241200Z 20009G18KT 7SM SCT055 M02/M06 A3018 620 75 -1300 200/09G18 RMK AO2
14837KMSN MSN20071124060510411/24/07 06:05:31  5-MIN KMSN 241205Z 21008G18KT 7SM FEW060 M02/M06 A3019 620 75 -1300 210/08G18 RMK AO2
14837KMSN MSN20071124061009811/24/07 06:10:31  5-MIN KMSN 241210Z 21008KT 7SM FEW060 M02/M06 A3019 620 75 -1300 210/08 RMK AO2
14837KMSN MSN20071124061509811/24/07 06:15:31  5-MIN KMSN 241215Z 21009KT 7SM SCT110 M02/M06 A3019 620 75 -1300 210/09 RMK AO2
14837KMSN MSN20071124062009811/24/07 06:20:31  5-MIN KMSN 241220Z 22009KT 7SM SCT110 M02/M06 A3019 620 75 -1300 220/09 RMK AO2
14837KMSN MSN20071124062510411/24/07 06:25:31  5-MIN KMSN 241225Z 22008G17KT 7SM SCT110 M02/M06 A3019 620 75 -1300 220/08G17 RMK AO2
14837KMSN MSN20071124063010411/24/07 06:30:31  5-MIN KMSN 241230Z 21007G17KT 7SM FEW110 M02/M06 A3019 620 75 -1300 210/07G17 RMK AO2
14837KMSN MSN20071124063510411/24/07 06:35:31  5-MIN KMSN 241235Z 21009G16KT 7SM SCT110 M02/M06 A3019 620 75 -1300 210/09G16 RMK AO2
14837KMSN MSN20071124064010411/24/07 06:40:31  5-MIN KMSN 241240Z 21009G17KT 8SM SCT110 M02/M06 A3018 620 75 -1300 210/09G17 RMK AO2
14837KMSN MSN20071124064510411/24/07 06:45:31  5-MIN KMSN 241245Z 22007G17KT 8SM FEW110 M02/M06 A3019 620 75 -1300 210/07G17 RMK AO2
14837KMSN MSN20071124065012811/24/07 06:50:31  5-MIN KMSN 241250Z 21007G17KT 7SM FEW055 SCT110 M02/M06 A3019 620 75 -1300 210/07G17 RMK AO2 SLP234 T10221061
14837KMSN MSN20071124065510411/24/07 06:55:31  5-MIN KMSN 241255Z 21010G17KT 7SM FEW120 M02/M06 A3019 620 75 -1300 210/10G17 RMK AO2
14837KMSN MSN20071124070009811/24/07 07:00:31  5-MIN KMSN 241300Z 20008KT 7SM FEW120 M02/M06 A3019 620 75 -1300 200/08 RMK AO2
14837KMSN MSN20071124070510111/24/07 07:05:31  5-MIN KMSN 241305Z 21009G16KT 7SM CLR M02/M06 A3019 620 75 -1300 210/09G16 RMK AO2
14837KMSN MSN20071124071010411/24/07 07:10:31  5-MIN KMSN 241310Z 20009G16KT 6SM HZ CLR M02/M06 A3018 620 75 -1300 200/09G16 RMK AO2
14837KMSN MSN20071124071510411/24/07 07:15:31  5-MIN KMSN 241315Z 21007G16KT 6SM HZ CLR M02/M06 A3019 620 75 -1300 210/07G16 RMK AO2
14837KMSN MSN20071124072010711/24/07 07:20:31  5-MIN KMSN 241320Z 21010G17KT 5SM HZ FEW120 M02/M06 A3019 620 75 -1300 210/10G17 RMK AO2
14837KMSN MSN20071124072510711/24/07 07:25:31  5-MIN KMSN 241325Z 21009G17KT 5SM HZ SCT120 M02/M06 A3019 620 75 -1300 200/09G17 RMK AO2
14837KMSN MSN20071124073010711/24/07 07:30:31  5-MIN KMSN 241330Z 21009G19KT 5SM HZ BKN110 M02/M06 A3019 620 75 -1300 210/09G19 RMK AO2
14837KMSN MSN20071124073510711/24/07 07:35:31  5-MIN KMSN 241335Z 21011G19KT 5SM HZ BKN110 M02/M06 A3019 620 75 -1300 210/11G19 RMK AO2
14837KMSN MSN20071124074010711/24/07 07:40:31  5-MIN KMSN 241340Z 23011G16KT 5SM HZ BKN110 M02/M06 A3019 620 75 -1300 230/11G16 RMK AO2
14837KMSN MSN20071124074510711/24/07 07:45:31  5-MIN KMSN 241345Z 21008G16KT 5SM HZ BKN110 M02/M06 A3019 620 75 -1300 210/08G16 RMK AO2
14837KMSN MSN20071124075012411/24/07 07:50:31  5-MIN KMSN 241350Z 22009G15KT 6SM HZ BKN110 M02/M06 A3019 610 75 -1300 210/09G15 RMK AO2 SLP236 T10221061
14837KMSN MSN20071124075510711/24/07 07:55:31  5-MIN KMSN 241355Z 22012G17KT 5SM HZ BKN110 M02/M06 A3019 610 75 -1300 220/12G17 RMK AO2
14837KMSN MSN20071124080010711/24/07 08:00:31  5-MIN KMSN 241400Z 22009G17KT 5SM HZ SCT110 M02/M06 A3019 610 75 -1300 220/09G17 RMK AO2
14837KMSN MSN20071124080510711/24/07 08:05:31  5-MIN KMSN 241405Z 21008G17KT 5SM HZ FEW110 M02/M06 A3019 610 78 -1300 200/08G17 RMK AO2
14837KMSN MSN20071124081010711/24/07 08:10:31  5-MIN KMSN 241410Z 22010G17KT 6SM HZ FEW110 M02/M06 A3019 620 78 -1300 220/10G17 RMK AO2
14837KMSN MSN20071124081510711/24/07 08:15:31  5-MIN KMSN 241415Z 22009G18KT 6SM HZ FEW110 M02/M06 A3019 620 72 -1200 220/09G18 RMK AO2
14837KMSN MSN20071124082010711/24/07 08:20:31  5-MIN KMSN 241420Z 22007G18KT 6SM HZ SCT110 M02/M06 A3019 620 72 -1200 220/07G18 RMK AO2
14837KMSN MSN20071124082510711/24/07 08:25:31  5-MIN KMSN 241425Z 22010G17KT 6SM HZ SCT110 M02/M06 A3019 620 72 -1200 220/10G17 RMK AO2
14837KMSN MSN20071124083012311/24/07 08:30:31  5-MIN KMSN 241430Z 22007G17KT 190V260 6SM HZ SCT110 M02/M06 A3019 620 72 -1200 220/07G17 190V260 RMK AO2
14837KMSN MSN20071124083510711/24/07 08:35:31  5-MIN KMSN 241435Z 21009G15KT 6SM HZ BKN110 M02/M06 A3019 620 72 -1200 210/09G15 RMK AO2
14837KMSN MSN20071124084010711/24/07 08:40:31  5-MIN KMSN 241440Z 22007G15KT 6SM HZ BKN110 M02/M06 A3019 620 72 -1200 220/07G15 RMK AO2
14837KMSN MSN20071124084510711/24/07 08:45:31  5-MIN KMSN 241445Z 22008G16KT 6SM HZ SCT110 M01/M06 A3019 620 69 -1100 220/08G16 RMK AO2
14837KMSN MSN20071124085012711/24/07 08:50:31  5-MIN KMSN 241450Z 23009G16KT 7SM SCT110 M01/M06 A3019 620 72 -1100 230/09G16 RMK AO2 SLP234 T10111056 57013
14837KMSN MSN20071124085511111/24/07 08:55:31  5-MIN KMSN 241455Z 24008G17KT 7SM FEW070 SCT100 M01/M06 A3019 620 69 -1100 240/08G17 RMK AO2
14837KMSN MSN20071124090011811/24/07 09:00:31  5-MIN KMSN 241500Z 22010G17KT 7SM SCT070 SCT080 BKN100 M01/M06 A3019 620 69 -1100 220/10G17 RMK AO2
14837KMSN MSN20071124090512011/24/07 09:05:31  5-MIN KMSN 241505Z 23008G14KT 190V260 7SM BKN070 M01/M06 A3019 620 72 -1100 230/08G14 190V260 RMK AO2
14837KMSN MSN20071127084012011/27/07 08:40:31  5-MIN KMSN 271440Z 33015G23KT 10SM CLR M06/M18 A3022 590 38 -1800 330/15G23 RMK AO2 PK WND 33027/1423
14837KMSN MSN20071127084512011/27/07 08:45:31  5-MIN KMSN 271445Z 32009G20KT 10SM CLR M06/M18 A3023 580 38 -1700 320/09G20 RMK AO2 PK WND 33027/1423
14837KMSN MSN20071127085013711/27/07 08:50:31  5-MIN KMSN 271450Z 31008KT 10SM CLR M06/M17 A3023 580 40 -1700 310/08 RMK AO2 PK WND 33027/1423 SLP250 T10561172 53004
14837KMSN MSN20071127085510911/27/07 08:55:31  5-MIN KMSN 271455Z 30014G19KT 10SM CLR M06/M17 A3024 570 40 -1700 300/14G19 RMK AO2 PRESRR
14837KMSN MSN20071127090010211/27/07 09:00:31  5-MIN KMSN 271500Z 31012G19KT 10SM CLR M06/M17 A3024 570 41 -1800 300/12G19 RMK AO2
14837KMSN MSN20071127090510211/27/07 09:05:31  5-MIN KMSN 271505Z 32014G19KT 10SM CLR M06/M17 A3024 570 41 -1800 320/14G19 RMK AO2
14837KMSN MSN20071127091010211/27/07 09:10:31  5-MIN KMSN 271510Z 32016G22KT 10SM CLR M06/M17 A3025 560 41 -1800 320/16G22 RMK AO2
14837KMSN MSN20071127091510211/27/07 09:15:31  5-MIN KMSN 271515Z 33013G22KT 10SM CLR M06/M17 A3025 560 41 -1800 330/13G22 RMK AO2
14837KMSN MSN20071127092010211/27/07 09:20:31  5-MIN KMSN 271520Z 33013G21KT 10SM CLR M06/M17 A3025 560 43 -1800 320/13G21 RMK AO2
14837KMSN MSN20071127092510211/27/07 09:25:31  5-MIN KMSN 271525Z 34015G22KT 10SM CLR M06/M17 A3025 560 41 -1800 340/15G22 RMK AO2
14837KMSN MSN20071127093010211/27/07 09:30:31  5-MIN KMSN 271530Z 33010G22KT 10SM CLR M06/M17 A3025 560 40 -1800 330/10G22 RMK AO2
14837KMSN MSN20071127093510211/27/07 09:35:31  5-MIN KMSN 271535Z 31012G18KT 10SM CLR M06/M17 A3025 560 40 -1800 310/12G18 RMK AO2
14837KMSN MSN20071127094010211/27/07 09:40:31  5-MIN KMSN 271540Z 32010G17KT 10SM CLR M06/M17 A3025 560 40 -1800 320/10G17 RMK AO2
14837KMSN MSN20071127094509611/27/07 09:45:31  5-MIN KMSN 271545Z 31012KT 10SM CLR M06/M17 A3025 560 40 -1800 310/12 RMK AO2
14837KMSN MSN20071127095011311/27/07 09:50:31  5-MIN KMSN 271550Z 32014KT 10SM CLR M06/M17 A3025 560 40 -1800 320/14 RMK AO2 SLP258 T10561172
14837KMSN MSN20071127095510211/27/07 09:55:31  5-MIN KMSN 271555Z 31012G18KT 10SM CLR M06/M17 A3026 550 40 -1800 310/12G18 RMK AO2
14837KMSN MSN20071127100010211/27/07 10:00:31  5-MIN KMSN 271600Z 32016G22KT 10SM CLR M06/M17 A3026 550 40 -1800 320/16G22 RMK AO2
14837KMSN MSN20071127100510211/27/07 10:05:31  5-MIN KMSN 271605Z 34017G22KT 10SM CLR M06/M17 A3026 550 40 -1800 340/17G22 RMK AO2
14837KMSN MSN20071127101010211/27/07 10:10:31  5-MIN KMSN 271610Z 33014G22KT 10SM CLR M06/M17 A3027 550 40 -1800 330/14G22 RMK AO2
14837KMSN MSN20071127101510211/27/07 10:15:31  5-MIN KMSN 271615Z 32013G20KT 10SM CLR M05/M17 A3027 540 38 -1700 320/13G20 RMK AO2
14837KMSN MSN20071127102009611/27/07 10:20:31  5-MIN KMSN 271620Z 33010KT 10SM CLR M05/M17 A3027 540 40 -1700 330/10 RMK AO2
14837KMSN MSN20071127102509611/27/07 10:25:31  5-MIN KMSN 271625Z 33010KT 10SM CLR M05/M16 A3027 540 42 -1700 330/10 RMK AO2
14837KMSN MSN20071127103010211/27/07 10:30:31  5-MIN KMSN 271630Z 30010G17KT 10SM CLR M05/M16 A3027 540 42 -1700 300/10G17 RMK AO2
14837KMSN MSN20071127103510211/27/07 10:35:31  5-MIN KMSN 271635Z 32011G20KT 10SM CLR M05/M16 A3027 540 42 -1700 320/11G20 RMK AO2
14837KMSN MSN20071127104010211/27/07 10:40:31  5-MIN KMSN 271640Z 32012G20KT 10SM CLR M05/M17 A3028 530 40 -1700 320/12G20 RMK AO2
14837KMSN MSN20071127104510211/27/07 10:45:31  5-MIN KMSN 271645Z 31012G20KT 10SM CLR M05/M17 A3028 530 40 -1700 310/12G20 RMK AO2
14837KMSN MSN20071127105012611/27/07 10:50:31  5-MIN KMSN 271650Z 30010G18KT 10SM CLR M06/M17 A3029 520 41 -1800 300/10G18 RMK AO2 PRESRR SLP271 T10561167
14837KMSN MSN20071127105510211/27/07 10:55:31  5-MIN KMSN 271655Z 32011G17KT 10SM CLR M05/M16 A3030 520 42 -1700 320/11G17 RMK AO2
14837KMSN MSN20071127110010211/27/07 11:00:31  5-MIN KMSN 271700Z 33011G19KT 10SM CLR M04/M17 A3029 520 38 -1700 330/11G19 RMK AO2
14837KMSN MSN20071127110510211/27/07 11:05:31  5-MIN KMSN 271705Z 34011G19KT 10SM CLR M05/M17 A3029 520 38 -1700 340/11G19 RMK AO2
14837KMSN MSN20071127111009611/27/07 11:10:31  5-MIN KMSN 271710Z 31010KT 10SM CLR M05/M17 A3029 520 40 -1700 300/10 RMK AO2
14837KMSN MSN20071127111510211/27/07 11:15:31  5-MIN KMSN 271715Z 34011G18KT 10SM CLR M04/M16 A3029 520 40 -1700 340/11G18 RMK AO2
14837KMSN MSN20071127112010211/27/07 11:20:31  5-MIN KMSN 271720Z 30009G17KT 10SM CLR M04/M16 A3029 520 40 -1700 300/09G17 RMK AO2
14837KMSN MSN20071127112510211/27/07 11:25:31  5-MIN KMSN 271725Z 33009G17KT 10SM CLR M04/M16 A3029 530 40 -1700 330/09G17 RMK AO2
14837KMSN MSN20071127113010211/27/07 11:30:31  5-MIN KMSN 271730Z 31009G16KT 10SM CLR M04/M16 A3029 520 40 -1700 310/09G16 RMK AO2
14837KMSN MSN20071127113511811/27/07 11:35:31  5-MIN KMSN 271735Z 31009G17KT 270V330 10SM CLR M05/M16 A3029 520 42 -1700 310/09G17 270V330 RMK AO2
14837KMSN MSN20071127114010211/27/07 11:40:31  5-MIN KMSN 271740Z 32010G17KT 10SM CLR M05/M16 A3030 520 42 -1700 320/10G17 RMK AO2
14837KMSN MSN20071127114510211/27/07 11:45:31  5-MIN KMSN 271745Z 31009G16KT 10SM CLR M04/M16 A3030 520 40 -1700 310/09G16 RMK AO2
14837KMSN MSN20071127115013711/27/07 11:50:31  5-MIN KMSN 271750Z 32013G19KT 10SM CLR M04/M16 A3030 520 40 -1700 320/13G19 RMK AO2 SLP271 T10441161 10006 21061 51068
14837KMSN MSN20071127115510211/27/07 11:55:31  5-MIN KMSN 271755Z 32008G19KT 10SM CLR M04/M16 A3030 510 40 -1700 320/08G19 RMK AO2
14837KMSN MSN20071127120010211/27/07 12:00:31  5-MIN KMSN 271800Z 30005G17KT 10SM CLR M04/M16 A3030 510 38 -1600 300/05G17 RMK AO2
14837KMSN MSN20071127120510211/27/07 12:05:31  5-MIN KMSN 271805Z 31009G16KT 10SM CLR M04/M16 A3031 510 40 -1700 310/09G16 RMK AO2
14837KMSN MSN20071127121010211/27/07 12:10:31  5-MIN KMSN 271810Z 32008G16KT 10SM CLR M04/M17 A3031 510 38 -1700 310/08G16 RMK AO2
14837KMSN MSN20071127121510211/27/07 12:15:31  5-MIN KMSN 271815Z 31007G15KT 10SM CLR M04/M17 A3031 510 38 -1700 310/07G15 RMK AO2
14837KMSN MSN20071127122010211/27/07 12:20:31  5-MIN KMSN 271820Z 31008G15KT 10SM CLR M04/M17 A3031 510 37 -1600 310/08G15 RMK AO2
14837KMSN MSN20071127122511811/27/07 12:25:31  5-MIN KMSN 271825Z 32008G14KT 290V360 10SM CLR M04/M17 A3031 510 37 -1600 310/08G14 290V360 RMK AO2
14837KMSN MSN20071127123010211/27/07 12:30:31  5-MIN KMSN 271830Z 34010G14KT 10SM CLR M04/M17 A3031 510 37 -1600 340/10G14 RMK AO2
14837KMSN MSN20071127123509611/27/07 12:35:31  5-MIN KMSN 271835Z 31007KT 10SM CLR M04/M17 A3031 510 37 -1600 310/07 RMK AO2
14837KMSN MSN20071127124009611/27/07 12:40:31  5-MIN KMSN 271840Z VRB05KT 10SM CLR M04/M17 A3031 510 37 -1600 VRB/05 RMK AO2
14837KMSN MSN20071127124509611/27/07 12:45:31  5-MIN KMSN 271845Z 33007KT 10SM CLR M04/M16 A3031 500 38 -1600 330/07 RMK AO2
14837KMSN MSN20071127125013511/27/07 12:50:31  5-MIN KMSN 271850Z 29009G15KT 240V330 10SM CLR M04/M16 A3032 500 38 -1600 290/09G15 240V330 RMK AO2 SLP279 T10391161
14837KMSN MSN20071127125510211/27/07 12:55:31  5-MIN KMSN 271855Z 30009G15KT 10SM CLR M04/M17 A3032 500 37 -1600 300/09G15 RMK AO2
14837KMSN MSN20071127130009611/27/07 13:00:31  5-MIN KMSN 271900Z 30009KT 10SM CLR M04/M18 A3032 500 33 -1600 290/09 RMK AO2
14837KMSN MSN20071127130509611/27/07 13:05:31  5-MIN KMSN 271905Z 31009KT 10SM CLR M04/M18 A3031 500 33 -1600 310/09 RMK AO2
14837KMSN MSN20071127131009611/27/07 13:10:31  5-MIN KMSN 271910Z 32010KT 10SM CLR M03/M18 A3032 500 32 -1500 320/10 RMK AO2
14837KMSN MSN20071127131510211/27/07 13:15:31  5-MIN KMSN 271915Z 33011G17KT 10SM CLR M04/M19 A3032 500 30 -1600 330/11G17 RMK AO2
14837KMSN MSN20071127132010211/27/07 13:20:31  5-MIN KMSN 271920Z 34010G17KT 10SM CLR M03/M18 A3032 500 30 -1500 340/10G17 RMK AO2
14837KMSN MSN20071127132509611/27/07 13:25:31  5-MIN KMSN 271925Z 33006KT 10SM CLR M03/M18 A3032 500 30 -1500 330/06 RMK AO2
14837KMSN MSN20071127133009611/27/07 13:30:31  5-MIN KMSN 271930Z 32007KT 10SM CLR M03/M17 A3032 500 32 -1500 320/07 RMK AO2
14837KMSN MSN20071127133509611/27/07 13:35:31  5-MIN KMSN 271935Z 34008KT 10SM CLR M03/M17 A3031 500 35 -1500 340/08 RMK AO2
14837KMSN MSN20071127134009611/27/07 13:40:31  5-MIN KMSN 271940Z 32008KT 10SM CLR M03/M17 A3032 500 35 -1500 320/08 RMK AO2
14837KMSN MSN20071127134509611/27/07 13:45:31  5-MIN KMSN 271945Z 32008KT 10SM CLR M03/M17 A3032 500 33 -1500 320/08 RMK AO2
14837KMSN MSN20071127135011311/27/07 13:50:31  5-MIN KMSN 271950Z 31009KT 10SM CLR M03/M18 A3032 490 32 -1600 300/09 RMK AO2 SLP280 T10331178
14837KMSN MSN20071127135509611/27/07 13:55:31  5-MIN KMSN 271955Z 31009KT 10SM CLR M04/M19 A3033 490 30 -1600 300/09 RMK AO2
14837KMSN MSN20071127140009611/27/07 14:00:31  5-MIN KMSN 272000Z 31008KT 10SM CLR M04/M19 A3032 490 30 -1600 310/08 RMK AO2
14837KMSN MSN20071127140509611/27/07 14:05:31  5-MIN KMSN 272005Z 33009KT 10SM CLR M04/M18 A3032 500 32 -1600 330/09 RMK AO2
14837KMSN MSN20071127141009611/27/07 14:10:31  5-MIN KMSN 272010Z 30007KT 10SM CLR M04/M18 A3033 490 33 -1700 300/07 RMK AO2
14837KMSN MSN20071127141509611/27/07 14:15:31  5-MIN KMSN 272015Z 33008KT 10SM CLR M04/M18 A3032 490 32 -1600 330/08 RMK AO2
14837KMSN MSN20071127142009611/27/07 14:20:31  5-MIN KMSN 272020Z 33006KT 10SM CLR M04/M18 A3033 490 33 -1600 330/06 RMK AO2
14837KMSN MSN20071127142509611/27/07 14:25:31  5-MIN KMSN 272025Z 33006KT 10SM CLR M04/M18 A3032 500 33 -1600 320/06 RMK AO2
14837KMSN MSN20071127143009611/27/07 14:30:31  5-MIN KMSN 272030Z VRB06KT 10SM CLR M03/M17 A3032 490 33 -1600 VRB/06 RMK AO2
14837KMSN MSN20071127143509611/27/07 14:35:31  5-MIN KMSN 272035Z 34007KT 10SM CLR M03/M17 A3032 490 33 -1600 340/07 RMK AO2
14837KMSN MSN20071127144009511/27/07 14:40:31  5-MIN KMSN 272040Z 29005KT 9SM CLR M04/M17 A3033 490 35 -1600 290/05 RMK AO2
14837KMSN MSN20071127144509511/27/07 14:45:31  5-MIN KMSN 272045Z 32004KT 9SM CLR M04/M17 A3033 490 37 -1600 320/04 RMK AO2
14837KMSN MSN20071127145011911/27/07 14:50:31  5-MIN KMSN 272050Z 30006KT 10SM CLR M04/M17 A3033 490 35 -1600 300/06 RMK AO2 SLP282 T10391172 51021
14837KMSN MSN20071127145509611/27/07 14:55:31  5-MIN KMSN 272055Z 34005KT 10SM CLR M03/M17 A3033 490 35 -1600 340/05 RMK AO2
14837KMSN MSN20071127150009611/27/07 15:00:31  5-MIN KMSN 272100Z 02005KT 10SM CLR M04/M17 A3033 490 35 -1600 020/05 RMK AO2
14837KMSN MSN20071127150509611/27/07 15:05:31  5-MIN KMSN 272105Z 00000KT 10SM CLR M04/M17 A3033 490 35 -1600 000/00 RMK AO2
14837KMSN MSN20071127151009611/27/07 15:10:31  5-MIN KMSN 272110Z 33005KT 10SM CLR M04/M17 A3033 490 37 -1600 330/05 RMK AO2
14837KMSN MSN20071127151509611/27/07 15:15:31  5-MIN KMSN 272115Z 00000KT 10SM CLR M04/M17 A3033 480 36 -1700 000/00 RMK AO2
14837KMSN MSN20071127152009611/27/07 15:20:31  5-MIN KMSN 272120Z 36003KT 10SM CLR M04/M17 A3033 490 36 -1700 360/03 RMK AO2
14837KMSN MSN20071127152509611/27/07 15:25:31  5-MIN KMSN 272125Z 01005KT 10SM CLR M04/M17 A3033 480 38 -1700 010/05 RMK AO2
14837KMSN MSN20071127153009611/27/07 15:30:31  5-MIN KMSN 272130Z 01006KT 10SM CLR M04/M17 A3033 490 38 -1700 010/06 RMK AO2
14837KMSN MSN20071127153509611/27/07 15:35:31  5-MIN KMSN 272135Z 02006KT 10SM CLR M04/M17 A3033 490 38 -1700 020/06 RMK AO2
14837KMSN MSN20071127154009611/27/07 15:40:31  5-MIN KMSN 272140Z 02005KT 10SM CLR M04/M17 A3033 490 38 -1700 020/05 RMK AO2
14837KMSN MSN20071127154509611/27/07 15:45:31  5-MIN KMSN 272145Z 01005KT 10SM CLR M05/M17 A3033 490 40 -1800 010/05 RMK AO2
14837KMSN MSN20071127155011311/27/07 15:50:31  5-MIN KMSN 272150Z 02005KT 10SM CLR M05/M17 A3033 490 40 -1800 020/05 RMK AO2 SLP282 T10501167
14837KMSN MSN20071127155509611/27/07 15:55:31  5-MIN KMSN 272155Z 01004KT 10SM CLR M06/M16 A3033 490 43 -1800 010/04 RMK AO2
14837KMSN MSN20071127160009611/27/07 16:00:31  5-MIN KMSN 272200Z 36004KT 10SM CLR M06/M16 A3034 480 43 -1900 360/04 RMK AO2
14837KMSN MSN20071127160509611/27/07 16:05:31  5-MIN KMSN 272205Z 36003KT 10SM CLR M05/M16 A3034 480 42 -1800 360/03 RMK AO2
14837KMSN MSN20071127161009611/27/07 16:10:31  5-MIN KMSN 272210Z 00000KT 10SM CLR M05/M17 A3033 480 38 -1800 000/00 RMK AO2
14837KMSN MSN20071127161509611/27/07 16:15:31  5-MIN KMSN 272215Z 00000KT 10SM CLR M05/M17 A3033 480 38 -1800 000/00 RMK AO2
14837KMSN MSN20071127162009611/27/07 16:20:31  5-MIN KMSN 272220Z 00000KT 10SM CLR M05/M17 A3034 480 40 -1800 000/00 RMK AO2
14837KMSN MSN20071127162509611/27/07 16:25:31  5-MIN KMSN 272225Z 00000KT 10SM CLR M06/M17 A3035 470 41 -1900 000/00 RMK AO2
14837KMSN MSN20071127163009611/27/07 16:30:31  5-MIN KMSN 272230Z 00000KT 10SM CLR M06/M16 A3035 470 43 -1900 000/00 RMK AO2
14837KMSN MSN20071127163509611/27/07 16:35:31  5-MIN KMSN 272235Z 00000KT 10SM CLR M05/M17 A3035 470 40 -1800 000/00 RMK AO2
14837KMSN MSN20071127164009611/27/07 16:40:31  5-MIN KMSN 272240Z 36003KT 10SM CLR M06/M17 A3035 470 41 -1900 360/03 RMK AO2
14837KMSN MSN20071127164509611/27/07 16:45:31  5-MIN KMSN 272245Z 00000KT 10SM CLR M06/M16 A3036 460 43 -1900 000/00 RMK AO2
14837KMSN MSN20071127165011311/27/07 16:50:31  5-MIN KMSN 272250Z 00000KT 10SM CLR M06/M16 A3036 460 43 -1900 000/00 RMK AO2 SLP292 T10561161
14837KMSN MSN20071127165509611/27/07 16:55:31  5-MIN KMSN 272255Z 00000KT 10SM CLR M06/M17 A3036 460 41 -1900 000/00 RMK AO2
14837KMSN MSN20071127170009611/27/07 17:00:31  5-MIN KMSN 272300Z 00000KT 10SM CLR M06/M17 A3035 470 41 -1900 000/00 RMK AO2
14837KMSN MSN20071127170509611/27/07 17:05:31  5-MIN KMSN 272305Z 00000KT 10SM CLR M06/M17 A3035 470 41 -1900 000/00 RMK AO2
14837KMSN MSN20071127171009611/27/07 17:10:31  5-MIN KMSN 272310Z 06003KT 10SM CLR M06/M16 A3035 470 43 -1900 060/03 RMK AO2
14837KMSN MSN20071127171509611/27/07 17:15:31  5-MIN KMSN 272315Z 05004KT 10SM CLR M06/M16 A3034 480 45 -1900 050/04 RMK AO2
14837KMSN MSN20071127172009611/27/07 17:20:31  5-MIN KMSN 272320Z 06005KT 10SM CLR M07/M15 A3033 480 52 -2000 060/05 RMK AO2
14837KMSN MSN20071127172509611/27/07 17:25:31  5-MIN KMSN 272325Z 06005KT 10SM CLR M07/M14 A3033 490 56 -2100 060/05 RMK AO2
14837KMSN MSN20071127173009611/27/07 17:30:31  5-MIN KMSN 272330Z 06004KT 10SM CLR M08/M14 A3033 490 62 -2100 060/04 RMK AO2
14837KMSN MSN20071127173509611/27/07 17:35:31  5-MIN KMSN 272335Z 05003KT 10SM CLR M07/M14 A3033 480 59 -2100 050/03 RMK AO2
14837KMSN MSN20071127174009611/27/07 17:40:31  5-MIN KMSN 272340Z 00000KT 10SM CLR M08/M13 A3034 480 64 -2100 000/00 RMK AO2
14837KMSN MSN20071127174509611/27/07 17:45:31  5-MIN KMSN 272345Z 00000KT 10SM CLR M07/M14 A3035 470 57 -2000 000/00 RMK AO2
14837KMSN MSN20071127175013111/27/07 17:50:31  5-MIN KMSN 272350Z 00000KT 10SM CLR M07/M14 A3035 470 54 -2000 000/00 RMK AO2 SLP291 T10671144 11028 21078 51010
14837KMSN MSN20071127175509611/27/07 17:55:31  5-MIN KMSN 272355Z 00000KT 10SM CLR M07/M14 A3035 470 57 -2000 000/00 RMK AO2
14837KMSN MSN20071127180009611/27/07 18:00:31  5-MIN KMSN 280000Z 00000KT 10SM CLR M06/M14 A3034 480 52 -1900 000/00 RMK AO2
14837KMSN MSN20071127180509611/27/07 18:05:31  5-MIN KMSN 280005Z 00000KT 10SM CLR M06/M16 A3034 480 47 -1900 000/00 RMK AO2
14837KMSN MSN20071127181009611/27/07 18:10:31  5-MIN KMSN 280010Z 08003KT 10SM CLR M07/M14 A3033 480 54 -2000 080/03 RMK AO2
14837KMSN MSN20071127181509611/27/07 18:15:31  5-MIN KMSN 280015Z 07003KT 10SM CLR M07/M14 A3033 480 54 -2000 070/03 RMK AO2
14837KMSN MSN20071127182009511/27/07 18:20:31  5-MIN KMSN 280020Z 00000KT 9SM CLR M07/M14 A3034 480 54 -2000 000/00 RMK AO2
14837KMSN MSN20071127182509511/27/07 18:25:31  5-MIN KMSN 280025Z 00000KT 9SM CLR M07/M14 A3034 480 57 -2000 000/00 RMK AO2
14837KMSN MSN20071127183009511/27/07 18:30:31  5-MIN KMSN 280030Z 00000KT 9SM CLR M07/M14 A3034 470 57 -2000 000/00 RMK AO2
14837KMSN MSN20071127183509611/27/07 18:35:31  5-MIN KMSN 280035Z 00000KT 10SM CLR M07/M14 A3034 470 56 -2100 000/00 RMK AO2
14837KMSN MSN20071127184009611/27/07 18:40:31  5-MIN KMSN 280040Z 00000KT 10SM CLR M07/M14 A3034 470 59 -2100 000/00 RMK AO2
14837KMSN MSN20071127184509611/27/07 18:45:31  5-MIN KMSN 280045Z 00000KT 10SM CLR M07/M14 A3035 470 59 -2100 000/00 RMK AO2
14837KMSN MSN20071127185011311/27/07 18:50:31  5-MIN KMSN 280050Z 00000KT 10SM CLR M07/M14 A3034 480 59 -2100 000/00 RMK AO2 SLP288 T10721139
14837KMSN MSN20071127185509611/27/07 18:55:31  5-MIN KMSN 280055Z 00000KT 10SM CLR M07/M14 A3034 480 57 -2000 000/00 RMK AO2
14837KMSN MSN20071127190009611/27/07 19:00:31  5-MIN KMSN 280100Z 00000KT 10SM CLR M07/M14 A3034 480 57 -2000 000/00 RMK AO2
14837KMSN MSN20071127190509611/27/07 19:05:31  5-MIN KMSN 280105Z 00000KT 10SM CLR M07/M14 A3034 480 59 -2100 000/00 RMK AO2
14837KMSN MSN20071127191009611/27/07 19:10:31  5-MIN KMSN 280110Z 10003KT 10SM CLR M07/M14 A3033 480 57 -2000 100/03 RMK AO2
14837KMSN MSN20071127191509611/27/07 19:15:31  5-MIN KMSN 280115Z 10003KT 10SM CLR M07/M14 A3034 480 59 -2100 100/03 RMK AO2
14837KMSN MSN20071127192009611/27/07 19:20:31  5-MIN KMSN 280120Z 00000KT 10SM CLR M07/M14 A3034 480 56 -2100 000/00 RMK AO2
14837KMSN MSN20071127192509611/27/07 19:25:31  5-MIN KMSN 280125Z 00000KT 10SM CLR M07/M14 A3034 480 56 -2100 000/00 RMK AO2
14837KMSN MSN20071127193009611/27/07 19:30:31  5-MIN KMSN 280130Z 12003KT 10SM CLR M07/M14 A3034 480 59 -2100 120/03 RMK AO2
14837KMSN MSN20071127193509611/27/07 19:35:31  5-MIN KMSN 280135Z 11004KT 10SM CLR M07/M14 A3033 480 56 -2100 110/04 RMK AO2
14837KMSN MSN20071127194009611/27/07 19:40:31  5-MIN KMSN 280140Z 12005KT 10SM CLR M07/M14 A3034 480 56 -2100 120/05 RMK AO2
14837KMSN MSN20071127194509611/27/07 19:45:31  5-MIN KMSN 280145Z 13004KT 10SM CLR M08/M14 A3034 480 62 -2100 130/04 RMK AO2
14837KMSN MSN20071127195011311/27/07 19:50:31  5-MIN KMSN 280150Z 11005KT 10SM CLR M07/M14 A3034 480 56 -2100 110/05 RMK AO2 SLP289 T10721144
14837KMSN MSN20071127195509611/27/07 19:55:31  5-MIN KMSN 280155Z 11005KT 10SM CLR M07/M14 A3034 480 56 -2100 110/05 RMK AO2
14837KMSN MSN20071127200009611/27/07 20:00:31  5-MIN KMSN 280200Z 11005KT 10SM CLR M07/M14 A3034 480 56 -2100 110/05 RMK AO2
14837KMSN MSN20071127200509611/27/07 20:05:31  5-MIN KMSN 280205Z 11004KT 10SM CLR M08/M14 A3034 480 62 -2100 110/04 RMK AO2
14837KMSN MSN20071127201009611/27/07 20:10:31  5-MIN KMSN 280210Z 11005KT 10SM CLR M08/M14 A3034 480 59 -2100 110/05 RMK AO2
14837KMSN MSN20071127201509611/27/07 20:15:31  5-MIN KMSN 280215Z 11004KT 10SM CLR M08/M14 A3034 480 59 -2100 110/04 RMK AO2
14837KMSN MSN20071127202009611/27/07 20:20:31  5-MIN KMSN 280220Z 11005KT 10SM CLR M08/M14 A3034 480 59 -2100 110/05 RMK AO2
14837KMSN MSN20071127202509611/27/07 20:25:31  5-MIN KMSN 280225Z 11005KT 10SM CLR M07/M15 A3033 490 54 -2100 110/05 RMK AO2
14837KMSN MSN20071127203009611/27/07 20:30:31  5-MIN KMSN 280230Z 10005KT 10SM CLR M08/M14 A3033 490 62 -2200 100/05 RMK AO2
14837KMSN MSN20071127203509611/27/07 20:35:31  5-MIN KMSN 280235Z 00000KT 10SM CLR M08/M14 A3032 490 59 -2100 000/00 RMK AO2
14837KMSN MSN20071127204009611/27/07 20:40:31  5-MIN KMSN 280240Z 00000KT 10SM CLR M08/M14 A3032 490 59 -2100 000/00 RMK AO2
14837KMSN MSN20071127204509611/27/07 20:45:31  5-MIN KMSN 280245Z 00000KT 10SM CLR M08/M14 A3033 490 59 -2100 000/00 RMK AO2
14837KMSN MSN20071127205011911/27/07 20:50:31  5-MIN KMSN 280250Z 00000KT 10SM CLR M08/M14 A3032 490 62 -2200 000/00 RMK AO2 SLP284 T10831144 50009
14837KMSN MSN20071127205509611/27/07 20:55:31  5-MIN KMSN 280255Z 10003KT 10SM CLR M08/M14 A3032 500 62 -2200 090/03 RMK AO2
14837KMSN MSN20071127210009611/27/07 21:00:31  5-MIN KMSN 280300Z 09005KT 10SM CLR M09/M14 A3032 500 64 -2300 090/05 RMK AO2
14837KMSN MSN20071127210509611/27/07 21:05:31  5-MIN KMSN 280305Z 10004KT 10SM CLR M08/M14 A3032 500 62 -2200 100/04 RMK AO2
14837KMSN MSN20071127211009611/27/07 21:10:31  5-MIN KMSN 280310Z 11004KT 10SM CLR M08/M14 A3032 500 62 -2200 110/04 RMK AO2
14837KMSN MSN20071127211509611/27/07 21:15:31  5-MIN KMSN 280315Z 10006KT 10SM CLR M08/M15 A3031 500 56 -2100 100/06 RMK AO2
14837KMSN MSN20071127212009611/27/07 21:20:31  5-MIN KMSN 280320Z 10005KT 10SM CLR M08/M15 A3031 500 56 -2100 100/05 RMK AO2
14837KMSN MSN20071127212509611/27/07 21:25:31  5-MIN KMSN 280325Z 10006KT 10SM CLR M08/M15 A3031 500 56 -2100 100/06 RMK AO2
14837KMSN MSN20071127213009611/27/07 21:30:31  5-MIN KMSN 280330Z 10006KT 10SM CLR M07/M15 A3031 500 54 -2000 100/06 RMK AO2
14837KMSN MSN20071127213509611/27/07 21:35:31  5-MIN KMSN 280335Z 10006KT 10SM CLR M07/M15 A3031 500 54 -2000 100/06 RMK AO2
14837KMSN MSN20071127214009611/27/07 21:40:31  5-MIN KMSN 280340Z 10007KT 10SM CLR M07/M15 A3031 500 54 -2000 100/07 RMK AO2
14837KMSN MSN20071127214509611/27/07 21:45:31  5-MIN KMSN 280345Z 10005KT 10SM CLR M07/M15 A3031 500 54 -2000 090/05 RMK AO2
14837KMSN MSN20071127215011311/27/07 21:50:31  5-MIN KMSN 280350Z 09006KT 10SM CLR M08/M15 A3031 500 56 -2100 090/06 RMK AO2 SLP281 T10781150
14837KMSN MSN20071127215509611/27/07 21:55:31  5-MIN KMSN 280355Z 10006KT 10SM CLR M07/M15 A3031 500 54 -2000 100/06 RMK AO2
14837KMSN MSN20071127220009611/27/07 22:00:31  5-MIN KMSN 280400Z 10006KT 10SM CLR M08/M16 A3032 490 54 -2100 100/06 RMK AO2
14837KMSN MSN20071127220509611/27/07 22:05:31  5-MIN KMSN 280405Z 11004KT 10SM CLR M08/M16 A3033 490 54 -2100 110/04 RMK AO2
14837KMSN MSN20071127221009611/27/07 22:10:31  5-MIN KMSN 280410Z 13004KT 10SM CLR M08/M16 A3033 490 54 -2100 120/04 RMK AO2
14837KMSN MSN20071127221509611/27/07 22:15:31  5-MIN KMSN 280415Z 12005KT 10SM CLR M08/M16 A3033 490 54 -2100 120/05 RMK AO2
14837KMSN MSN20071127222009611/27/07 22:20:31  5-MIN KMSN 280420Z 13005KT 10SM CLR M08/M16 A3033 490 54 -2100 130/05 RMK AO2
14837KMSN MSN20071127222509611/27/07 22:25:31  5-MIN KMSN 280425Z 12006KT 10SM CLR M08/M15 A3033 490 59 -2200 120/06 RMK AO2
14837KMSN MSN20071127223009611/27/07 22:30:31  5-MIN KMSN 280430Z 11007KT 10SM CLR M08/M15 A3032 500 59 -2200 110/07 RMK AO2
14837KMSN MSN20071127223509611/27/07 22:35:31  5-MIN KMSN 280435Z 12006KT 10SM CLR M08/M15 A3032 490 59 -2200 120/06 RMK AO2
14837KMSN MSN20071127224009611/27/07 22:40:31  5-MIN KMSN 280440Z 13006KT 10SM CLR M08/M15 A3033 490 59 -2200 130/06 RMK AO2
14837KMSN MSN20071127224509611/27/07 22:45:31  5-MIN KMSN 280445Z 12007KT 10SM CLR M08/M15 A3032 500 59 -2200 120/07 RMK AO2
14837KMSN MSN20071127225011311/27/07 22:50:31  5-MIN KMSN 280450Z 12006KT 10SM CLR M08/M14 A3032 500 62 -2200 120/06 RMK AO2 SLP281 T10831144
14837KMSN MSN20071127225509611/27/07 22:55:31  5-MIN KMSN 280455Z 12008KT 10SM CLR M08/M14 A3031 510 62 -2200 120/08 RMK AO2
14837KMSN MSN20071127230009611/27/07 23:00:31  5-MIN KMSN 280500Z 12009KT 10SM CLR M08/M14 A3031 510 59 -2100 120/09 RMK AO2
14837KMSN MSN20071127230509611/27/07 23:05:31  5-MIN KMSN 280505Z 12009KT 10SM CLR M08/M14 A3030 510 59 -2100 120/09 RMK AO2
14837KMSN MSN20071127231010311/27/07 23:10:31  5-MIN KMSN 280510Z 12011KT 10SM CLR M08/M14 A3029 520 59 -2100 120/11 RMK AO2 PRESFR
14837KMSN MSN20071127231509611/27/07 23:15:31  5-MIN KMSN 280515Z 12011KT 10SM CLR M08/M14 A3029 530 59 -2100 120/11 RMK AO2
14837KMSN MSN20071127232009611/27/07 23:20:31  5-MIN KMSN 280520Z 12011KT 10SM CLR M07/M14 A3028 530 56 -2000 120/11 RMK AO2
14837KMSN MSN20071127232509611/27/07 23:25:31  5-MIN KMSN 280525Z 12010KT 10SM CLR M08/M14 A3028 530 59 -2100 120/10 RMK AO2
14837KMSN MSN20071127233009611/27/07 23:30:31  5-MIN KMSN 280530Z 13011KT 10SM CLR M07/M14 A3028 540 56 -2000 130/11 RMK AO2
14837KMSN MSN20071127233509611/27/07 23:35:31  5-MIN KMSN 280535Z 14010KT 10SM CLR M07/M15 A3028 540 54 -2000 140/10 RMK AO2
14837KMSN MSN20071127234009611/27/07 23:40:31  5-MIN KMSN 280540Z 13011KT 10SM CLR M07/M15 A3028 540 54 -2000 130/11 RMK AO2
14837KMSN MSN20071127234509611/27/07 23:45:31  5-MIN KMSN 280545Z 13013KT 10SM CLR M07/M15 A3026 550 54 -2000 130/13 RMK AO2
14837KMSN MSN20071127235014111/27/07 23:50:31  5-MIN KMSN 280550Z 13012KT 10SM CLR M07/M14 A3026 550 56 -2000 120/12 RMK AO2 SLP261 T10721144 11061 21089 400111089 58012
14837KMSN MSN20071127235509611/27/07 23:55:31  5-MIN KMSN 280555Z 13009KT 10SM CLR M07/M14 A3026 550 56 -2000 130/09 RMK AO2
14837KMSN MSN20071128000009611/28/07 00:00:32  5-MIN KMSN 280600Z 14010KT 10SM CLR M07/M15 A3026 550 54 -2000 140/10 RMK AO2
14837KMSN MSN20071128000509611/28/07 00:05:31  5-MIN KMSN 280605Z 14011KT 10SM CLR M07/M15 A3026 550 54 -2000 140/11 RMK AO2
14837KMSN MSN20071128001009611/28/07 00:10:31  5-MIN KMSN 280610Z 14010KT 10SM CLR M07/M15 A3025 560 52 -1900 140/10 RMK AO2
14837KMSN MSN20071128001509611/28/07 00:15:31  5-MIN KMSN 280615Z 13010KT 10SM CLR M07/M14 A3025 560 56 -2000 130/10 RMK AO2
14837KMSN MSN20071128002010311/28/07 00:20:31  5-MIN KMSN 280620Z 13009KT 10SM CLR M07/M14 A3024 570 54 -1900 130/09 RMK AO2 PRESFR
14837KMSN MSN20071128002509611/28/07 00:25:31  5-MIN KMSN 280625Z 13010KT 10SM CLR M07/M14 A3024 570 54 -1900 130/10 RMK AO2
14837KMSN MSN20071128003009611/28/07 00:30:31  5-MIN KMSN 280630Z 14010KT 10SM CLR M07/M15 A3025 570 52 -1900 140/10 RMK AO2
14837KMSN MSN20071128003509611/28/07 00:35:31  5-MIN KMSN 280635Z 14007KT 10SM CLR M07/M15 A3025 560 52 -1900 140/07 RMK AO2
14837KMSN MSN20071128004009611/28/07 00:40:31  5-MIN KMSN 280640Z 14009KT 10SM CLR M07/M15 A3024 570 52 -1900 130/09 RMK AO2
14837KMSN MSN20071128004509611/28/07 00:45:31  5-MIN KMSN 280645Z 14010KT 10SM CLR M07/M15 A3024 570 52 -1900 140/10 RMK AO2
14837KMSN MSN20071128005011311/28/07 00:50:31  5-MIN KMSN 280650Z 14008KT 10SM CLR M07/M14 A3024 570 54 -1900 140/08 RMK AO2 SLP252 T10671144
14837KMSN MSN20071128005509611/28/07 00:55:31  5-MIN KMSN 280655Z 14007KT 10SM CLR M07/M14 A3024 570 54 -1900 140/07 RMK AO2
14837KMSN MSN20071128010009611/28/07 01:00:31  5-MIN KMSN 280700Z 14009KT 10SM CLR M07/M14 A3023 580 54 -1900 140/09 RMK AO2
14837KMSN MSN20071128010509611/28/07 01:05:31  5-MIN KMSN 280705Z 14009KT 10SM CLR M07/M14 A3023 580 54 -1900 140/09 RMK AO2
14837KMSN MSN20071128011009611/28/07 01:10:31  5-MIN KMSN 280710Z 13009KT 10SM CLR M07/M14 A3022 590 54 -1900 130/09 RMK AO2
14837KMSN MSN20071128011509611/28/07 01:15:31  5-MIN KMSN 280715Z 13008KT 10SM CLR M07/M14 A3022 590 57 -1900 130/08 RMK AO2
14837KMSN MSN20071128012009611/28/07 01:20:31  5-MIN KMSN 280720Z 14007KT 10SM CLR M07/M14 A3022 590 57 -1900 140/07 RMK AO2
14837KMSN MSN20071128012509611/28/07 01:25:31  5-MIN KMSN 280725Z 13009KT 10SM CLR M07/M14 A3021 590 57 -1900 130/09 RMK AO2
14837KMSN MSN20071128013009611/28/07 01:30:31  5-MIN KMSN 280730Z 14008KT 10SM CLR M07/M14 A3021 590 57 -1900 140/08 RMK AO2
14837KMSN MSN20071128013509611/28/07 01:35:31  5-MIN KMSN 280735Z 13008KT 10SM CLR M07/M14 A3021 600 57 -1900 130/08 RMK AO2
14837KMSN MSN20071128014009611/28/07 01:40:31  5-MIN KMSN 280740Z 13007KT 10SM CLR M07/M14 A3021 600 57 -1900 130/07 RMK AO2
14837KMSN MSN20071128014509611/28/07 01:45:31  5-MIN KMSN 280745Z 14007KT 10SM CLR M07/M14 A3022 590 57 -1900 140/07 RMK AO2
14837KMSN MSN20071128015011311/28/07 01:50:31  5-MIN KMSN 280750Z 15006KT 10SM CLR M07/M14 A3022 590 57 -1900 150/06 RMK AO2 SLP246 T10671139
14837KMSN MSN20071128015509611/28/07 01:55:31  5-MIN KMSN 280755Z 13006KT 10SM CLR M07/M14 A3022 590 57 -1900 130/06 RMK AO2
14837KMSN MSN20071128020009611/28/07 02:00:31  5-MIN KMSN 280800Z 14007KT 10SM CLR M07/M13 A3022 590 59 -1900 130/07 RMK AO2
14837KMSN MSN20071128020509611/28/07 02:05:31  5-MIN KMSN 280805Z 13007KT 10SM CLR M07/M13 A3021 590 59 -1900 130/07 RMK AO2
14837KMSN MSN20071128021009611/28/07 02:10:31  5-MIN KMSN 280810Z 13007KT 10SM CLR M06/M13 A3021 600 57 -1800 130/07 RMK AO2
14837KMSN MSN20071128021509611/28/07 02:15:31  5-MIN KMSN 280815Z 13007KT 10SM CLR M06/M13 A3021 600 57 -1800 130/07 RMK AO2
14837KMSN MSN20071128022009611/28/07 02:20:31  5-MIN KMSN 280820Z 14007KT 10SM CLR M06/M13 A3021 600 59 -1800 130/07 RMK AO2
14837KMSN MSN20071128022509611/28/07 02:25:31  5-MIN KMSN 280825Z 14008KT 10SM CLR M06/M13 A3021 600 57 -1700 140/08 RMK AO2
14837KMSN MSN20071128023009611/28/07 02:30:31  5-MIN KMSN 280830Z 14008KT 10SM CLR M06/M13 A3020 610 57 -1700 140/08 RMK AO2
14837KMSN MSN20071128023509611/28/07 02:35:31  5-MIN KMSN 280835Z 14009KT 10SM CLR M06/M12 A3020 610 59 -1700 140/09 RMK AO2
14837KMSN MSN20071128024009611/28/07 02:40:31  5-MIN KMSN 280840Z 14010KT 10SM CLR M06/M12 A3020 610 59 -1700 140/10 RMK AO2
14837KMSN MSN20071128024509611/28/07 02:45:31  5-MIN KMSN 280845Z 15008KT 10SM CLR M06/M12 A3020 610 59 -1700 150/08 RMK AO2
14837KMSN MSN20071128025011911/28/07 02:50:31  5-MIN KMSN 280850Z 14009KT 10SM CLR M06/M12 A3019 610 59 -1700 140/09 RMK AO2 SLP239 T10561122 58020
14837KMSN MSN20071128025509611/28/07 02:55:31  5-MIN KMSN 280855Z 14010KT 10SM CLR M06/M12 A3019 620 59 -1700 140/10 RMK AO2
14837KMSN MSN20071128030009611/28/07 03:00:31  5-MIN KMSN 280900Z 14009KT 10SM CLR M06/M12 A3018 620 59 -1700 140/09 RMK AO2
14837KMSN MSN20071128030510311/28/07 03:05:31  5-MIN KMSN 280905Z 14007KT 10SM CLR M06/M12 A3017 630 59 -1700 140/07 RMK AO2 PRESFR
14837KMSN MSN20071128031010311/28/07 03:10:31  5-MIN KMSN 280910Z 14009KT 10SM CLR M06/M12 A3017 640 59 -1700 140/09 RMK AO2 PRESFR
14837KMSN MSN20071128031510311/28/07 03:15:31  5-MIN KMSN 280915Z 14008KT 10SM CLR M06/M12 A3016 640 62 -1600 140/08 RMK AO2 PRESFR
14837KMSN MSN20071128032009611/28/07 03:20:31  5-MIN KMSN 280920Z 13007KT 10SM CLR M06/M12 A3015 650 62 -1600 130/07 RMK AO2
14837KMSN MSN20071128032509611/28/07 03:25:31  5-MIN KMSN 280925Z 13007KT 10SM CLR M06/M12 A3015 650 62 -1600 130/07 RMK AO2
14837KMSN MSN20071128033010311/28/07 03:30:31  5-MIN KMSN 280930Z 13007KT 10SM CLR M06/M12 A3014 660 65 -1700 130/07 RMK AO2 PRESFR
14837KMSN MSN20071128033509611/28/07 03:35:31  5-MIN KMSN 280935Z 13008KT 10SM CLR M06/M12 A3014 670 62 -1600 130/08 RMK AO2
14837KMSN MSN20071128034009611/28/07 03:40:31  5-MIN KMSN 280940Z 13006KT 10SM CLR M06/M12 A3014 660 62 -1600 130/06 RMK AO2
14837KMSN MSN20071128034509611/28/07 03:45:31  5-MIN KMSN 280945Z 13006KT 10SM CLR M06/M12 A3013 670 62 -1600 130/06 RMK AO2
14837KMSN MSN20071128035011311/28/07 03:50:31  5-MIN KMSN 280950Z 14007KT 10SM CLR M06/M12 A3013 670 62 -1600 140/07 RMK AO2 SLP217 T10561117
14837KMSN MSN20071128035509611/28/07 03:55:31  5-MIN KMSN 280955Z 13007KT 10SM CLR M04/M12 A3012 680 57 -1500 130/07 RMK AO2
14837KMSN MSN20071128040009611/28/07 04:00:31  5-MIN KMSN 281000Z 15009KT 10SM CLR M04/M12 A3012 680 55 -1400 150/09 RMK AO2
14837KMSN MSN20071128040509611/28/07 04:05:31  5-MIN KMSN 281005Z 15007KT 10SM CLR M04/M12 A3013 670 55 -1400 150/07 RMK AO2
14837KMSN MSN20071128041009611/28/07 04:10:31  5-MIN KMSN 281010Z 15011KT 10SM CLR M03/M11 A3012 680 55 -1300 150/11 RMK AO2
14837KMSN MSN20071128041510211/28/07 04:15:31  5-MIN KMSN 281015Z 15011G16KT 10SM CLR M03/M11 A3012 680 55 -1300 150/11G16 RMK AO2
14837KMSN MSN20071128042009611/28/07 04:20:31  5-MIN KMSN 281020Z 15011KT 10SM CLR M03/M11 A3011 690 55 -1300 150/11 RMK AO2
14837KMSN MSN20071128042509611/28/07 04:25:31  5-MIN KMSN 281025Z 15010KT 10SM CLR M03/M11 A3011 690 55 -1300 150/10 RMK AO2
14837KMSN MSN20071128043009611/28/07 04:30:31  5-MIN KMSN 281030Z 15012KT 10SM CLR M03/M11 A3010 690 55 -1300 150/12 RMK AO2
14837KMSN MSN20071128043509611/28/07 04:35:31  5-MIN KMSN 281035Z 15013KT 10SM CLR M03/M11 A3010 700 55 -1300 150/13 RMK AO2
14837KMSN MSN20071128044010311/28/07 04:40:31  5-MIN KMSN 281040Z 15012KT 10SM CLR M03/M11 A3009 710 55 -1300 140/12 RMK AO2 PRESFR
14837KMSN MSN20071128044509611/28/07 04:45:31  5-MIN KMSN 281045Z 15011KT 10SM CLR M03/M11 A3009 710 57 -1300 140/11 RMK AO2
14837KMSN MSN20071128045011311/28/07 04:50:31  5-MIN KMSN 281050Z 15014KT 10SM CLR M03/M11 A3008 710 55 -1200 150/14 RMK AO2 SLP200 T10281106
14837KMSN MSN20071128045509611/28/07 04:55:31  5-MIN KMSN 281055Z 15013KT 10SM CLR M03/M11 A3008 720 55 -1200 140/13 RMK AO2
14837KMSN MSN20071128050009611/28/07 05:00:31  5-MIN KMSN 281100Z 15012KT 10SM CLR M03/M11 A3008 720 55 -1200 150/12 RMK AO2
14837KMSN MSN20071128050510211/28/07 05:05:31  5-MIN KMSN 281105Z 15016G20KT 10SM CLR M03/M10 A3008 720 58 -1200 150/16G20 RMK AO2
14837KMSN MSN20071128051009611/28/07 05:10:31  5-MIN KMSN 281110Z 15013KT 10SM CLR M03/M10 A3007 720 58 -1200 140/13 RMK AO2
14837KMSN MSN20071128051509611/28/07 05:15:31  5-MIN KMSN 281115Z 15013KT 10SM CLR M03/M10 A3007 730 58 -1200 150/13 RMK AO2
14837KMSN MSN20071128052010911/28/07 05:20:31  5-MIN KMSN 281120Z 15014G25KT 10SM CLR M03/M10 A3006 740 58 -1200 150/14G25 RMK AO2 PRESFR
14837KMSN MSN20071128052510211/28/07 05:25:31  5-MIN KMSN 281125Z 15014G25KT 10SM CLR M03/M09 A3005 740 60 -1200 150/14G25 RMK AO2
14837KMSN MSN20071128053009611/28/07 05:30:31  5-MIN KMSN 281130Z 15014KT 10SM CLR M03/M09 A3005 740 60 -1200 140/14 RMK AO2
14837KMSN MSN20071128053510211/28/07 05:35:31  5-MIN KMSN 281135Z 15014G21KT 10SM CLR M03/M09 A3005 750 60 -1200 150/14G21 RMK AO2
14837KMSN MSN20071128054010211/28/07 05:40:31  5-MIN KMSN 281140Z 15015G21KT 10SM CLR M03/M09 A3005 750 60 -1200 150/15G21 RMK AO2
14837KMSN MSN20071128054509611/28/07 05:45:31  5-MIN KMSN 281145Z 16016KT 10SM CLR M03/M09 A3004 750 60 -1200 160/16 RMK AO2
14837KMSN MSN20071128055013111/28/07 05:50:31  5-MIN KMSN 281150Z 16014KT 10SM CLR M03/M09 A3003 760 63 -1100 150/14 RMK AO2 SLP183 T10281089 11028 21072 56023
14837KMSN MSN20071128055510311/28/07 05:55:31  5-MIN KMSN 281155Z 16013KT 10SM CLR M03/M09 A3003 770 63 -1100 160/13 RMK AO2 PRESFR
14837KMSN MSN20071128060009611/28/07 06:00:31  5-MIN KMSN 281200Z 16015KT 10SM CLR M03/M09 A3002 770 63 -1100 160/15 RMK AO2
14837KMSN MSN20071128060510211/28/07 06:05:31  5-MIN KMSN 281205Z 16015G20KT 10SM CLR M03/M09 A3002 770 63 -1100 160/15G20 RMK AO2
14837KMSN MSN20071128061009611/28/07 06:10:31  5-MIN KMSN 281210Z 16015KT 10SM CLR M03/M08 A3002 770 66 -1100 160/15 RMK AO2
14837KMSN MSN20071128061509611/28/07 06:15:31  5-MIN KMSN 281215Z 16014KT 10SM CLR M03/M08 A3001 780 66 -1100 160/14 RMK AO2
14837KMSN MSN20071128062009611/28/07 06:20:31  5-MIN KMSN 281220Z 16013KT 10SM CLR M03/M08 A3002 780 66 -1100 160/13 RMK AO2
14837KMSN MSN20071128062509611/28/07 06:25:31  5-MIN KMSN 281225Z 16012KT 10SM CLR M02/M08 A3002 780 66 -1100 160/12 RMK AO2
14837KMSN MSN20071128063009611/28/07 06:30:31  5-MIN KMSN 281230Z 16013KT 10SM CLR M02/M08 A3002 780 66 -1100 160/13 RMK AO2
14837KMSN MSN20071128063509611/28/07 06:35:31  5-MIN KMSN 281235Z 16012KT 10SM CLR M02/M08 A3002 770 66 -1100 160/12 RMK AO2
14837KMSN MSN20071128064009611/28/07 06:40:31  5-MIN KMSN 281240Z 17010KT 10SM CLR M02/M07 A3002 780 69 -1100 170/10 RMK AO2
14837KMSN MSN20071128064509511/28/07 06:45:31  5-MIN KMSN 281245Z 17013KT 9SM CLR M02/M07 A3002 780 66 -1000 170/13 RMK AO2
14837KMSN MSN20071128065011211/28/07 06:50:31  5-MIN KMSN 281250Z 17014KT 9SM CLR M02/M07 A3002 780 69 -1000 170/14 RMK AO2 SLP177 T10171067
14837KMSN MSN20071128065510111/28/07 06:55:31  5-MIN KMSN 281255Z 17016G24KT 9SM CLR M02/M07 A3001 780 69 -1000 170/16G24 RMK AO2
14837KMSN MSN20071128070010111/28/07 07:00:31  5-MIN KMSN 281300Z 17016G24KT 9SM CLR M02/M07 A3001 780 69 -1000 170/16G24 RMK AO2
14837KMSN MSN20071128070510111/28/07 07:05:31  5-MIN KMSN 281305Z 17014G23KT 9SM CLR M02/M07 A3000 790 69 -1000 160/14G23 RMK AO2
14837KMSN MSN20071128071009511/28/07 07:10:31  5-MIN KMSN 281310Z 17014KT 9SM CLR M02/M07 A3000 800 69 -1000 170/14 RMK AO2
14837KMSN MSN20071128071509511/28/07 07:15:31  5-MIN KMSN 281315Z 17015KT 9SM CLR M02/M07 A3000 790 69 -1000 170/15 RMK AO2
14837KMSN MSN20071128072010111/28/07 07:20:31  5-MIN KMSN 281320Z 17013G20KT 9SM CLR M02/M07 A3000 790 69 -1000 170/13G20 RMK AO2
14837KMSN MSN20071128072509411/28/07 07:25:31  5-MIN KMSN 281325Z 18012KT 8SM CLR M01/M07 A3000 790 66 -900 170/12 RMK AO2
14837KMSN MSN20071128073009511/28/07 07:30:31  5-MIN KMSN 281330Z 17012KT 8SM CLR M02/M06 A3000 790 72 -1000 170/12 RMK AO2
14837KMSN MSN20071128073509411/28/07 07:35:31  5-MIN KMSN 281335Z 17014KT 8SM CLR M01/M06 A2999 800 69 -900 170/14 RMK AO2
14837KMSN MSN20071128074009411/28/07 07:40:31  5-MIN KMSN 281340Z 17014KT 8SM CLR M01/M06 A2999 800 69 -900 170/14 RMK AO2
14837KMSN MSN20071128074509411/28/07 07:45:31  5-MIN KMSN 281345Z 17014KT 8SM CLR M01/M06 A2999 800 69 -900 170/14 RMK AO2
14837KMSN MSN20071128075011111/28/07 07:50:31  5-MIN KMSN 281350Z 17012KT 8SM CLR M01/M06 A2999 800 69 -900 170/12 RMK AO2 SLP167 T10111061
14837KMSN MSN20071128075509411/28/07 07:55:31  5-MIN KMSN 281355Z 18014KT 8SM CLR M01/M06 A2999 800 69 -900 170/14 RMK AO2
14837KMSN MSN20071128080009411/28/07 08:00:31  5-MIN KMSN 281400Z 17013KT 8SM CLR M01/M06 A2999 800 69 -800 170/13 RMK AO2
14837KMSN MSN20071128080509411/28/07 08:05:31  5-MIN KMSN 281405Z 18012KT 8SM CLR M01/M06 A2998 810 69 -800 180/12 RMK AO2
14837KMSN MSN20071128081009711/28/07 08:10:31  5-MIN KMSN 281410Z 18014KT 8SM FEW047 M01/M06 A2998 810 69 -800 180/14 RMK AO2
14837KMSN MSN20071128081509611/28/07 08:15:31  5-MIN KMSN 281415Z 18012KT 8SM SCT047 00/M05 A2997 810 69 -700 180/12 RMK AO2
14837KMSN MSN20071128082009611/28/07 08:20:31  5-MIN KMSN 281420Z 18011KT 8SM BKN047 00/M05 A2997 820 69 -700 180/11 RMK AO2
14837KMSN MSN20071128082509611/28/07 08:25:31  5-MIN KMSN 281425Z 18013KT 7SM BKN047 00/M05 A2996 830 69 -700 180/13 RMK AO2
14837KMSN MSN20071128083010211/28/07 08:30:31  5-MIN KMSN 281430Z 18012G19KT 7SM BKN047 01/M05 A2996 830 66 -600 180/12G19 RMK AO2
14837KMSN MSN20071128083510211/28/07 08:35:31  5-MIN KMSN 281435Z 19014G20KT 7SM OVC047 01/M04 A2996 830 69 -600 180/14G20 RMK AO2
14837KMSN MSN20071128084010211/28/07 08:40:31  5-MIN KMSN 281440Z 18014G20KT 7SM OVC047 01/M04 A2995 830 69 -600 180/14G20 RMK AO2
14837KMSN MSN20071128084509611/28/07 08:45:31  5-MIN KMSN 281445Z 19013KT 7SM OVC047 01/M04 A2995 840 69 -600 180/13 RMK AO2
14837KMSN MSN20071128085011911/28/07 08:50:31  5-MIN KMSN 281450Z 18013KT 7SM OVC047 01/M04 A2995 830 69 -600 180/13 RMK AO2 SLP155 T00061044 56054
14837KMSN MSN20071128085509611/28/07 08:55:31  5-MIN KMSN 281455Z 18013KT 7SM OVC047 01/M04 A2995 840 69 -600 180/13 RMK AO2
14837KMSN MSN20071128090010211/28/07 09:00:31  5-MIN KMSN 281500Z 19014G19KT 7SM OVC047 01/M04 A2995 840 66 -600 180/14G19 RMK AO2
14837KMSN MSN20071128090509611/28/07 09:05:31  5-MIN KMSN 281505Z 19013KT 7SM OVC047 01/M04 A2995 840 69 -600 180/13 RMK AO2
14837KMSN MSN20071128091009611/28/07 09:10:31  5-MIN KMSN 281510Z 19013KT 7SM OVC045 01/M04 A2995 840 69 -600 190/13 RMK AO2
14837KMSN MSN20071128091509611/28/07 09:15:31  5-MIN KMSN 281515Z 19012KT 7SM OVC045 01/M04 A2995 840 69 -600 190/12 RMK AO2
14837KMSN MSN20071128092010211/28/07 09:20:31  5-MIN KMSN 281520Z 19011G19KT 7SM OVC045 01/M04 A2994 840 69 -600 190/11G19 RMK AO2
14837KMSN MSN20071128092510511/28/07 09:25:31  5-MIN KMSN 281525Z 19010G19KT 6SM HZ OVC043 01/M04 A2994 840 69 -600 190/10G19 RMK AO2
14837KMSN MSN20071128093009911/28/07 09:30:31  5-MIN KMSN 281530Z 20010KT 6SM HZ OVC043 01/M04 A2994 840 69 -600 190/10 RMK AO2
14837KMSN MSN20071128093509911/28/07 09:35:31  5-MIN KMSN 281535Z 19011KT 5SM HZ OVC043 01/M04 A2994 850 69 -600 190/11 RMK AO2
14837KMSN MSN20071128094011911/28/07 09:40:31  5-MIN KMSN 281540Z 19010KT 5SM -SN BKN043 OVC050 01/M03 A2993 850 72 -500 190/10 RMK AO2 SNB38 P0000
14837KMSN MSN20071128094511911/28/07 09:45:31  5-MIN KMSN 281545Z 19010KT 5SM -SN SCT043 OVC055 02/M03 A2993 860 69 -500 190/10 RMK AO2 SNB38 P0000
14837KMSN MSN20071128095014211/28/07 09:50:31  5-MIN KMSN 281550Z 19010G17KT 5SM -SN SCT043 OVC055 02/M03 A2993 860 69 -500 190/10G17 RMK AO2 SNB38 SLP147 P0000 T00171033
14837KMSN MSN20071128095511311/28/07 09:55:31  5-MIN KMSN 281555Z 19010KT 6SM -SN FEW043 OVC055 02/M03 A2992 860 69 -500 190/10 RMK AO2 P0000
14837KMSN MSN20071128100011311/28/07 10:00:31  5-MIN KMSN 281600Z 19011KT 6SM -SN FEW043 OVC055 02/M03 A2992 870 69 -500 190/11 RMK AO2 P0000
14837KMSN MSN20071128100510611/28/07 10:05:31  5-MIN KMSN 281605Z 19011KT 6SM -SN OVC050 02/M03 A2991 870 69 -500 190/11 RMK AO2 P0000
14837KMSN MSN20071128101011811/28/07 10:10:31  5-MIN KMSN 281610Z 19010KT 6SM HZ FEW040 OVC050 02/M03 A2991 870 72 -500 190/10 RMK AO2 SNE06 P0000
14837KMSN MSN20071128101512111/28/07 10:15:31  5-MIN KMSN 281615Z 19010G18KT 7SM SCT042 OVC050 02/M03 A2991 880 72 -400 190/10G18 RMK AO2 SNE06 P0000
14837KMSN MSN20071128102012811/28/07 10:20:31  5-MIN KMSN 281620Z 19010G18KT 7SM FEW042 OVC050 02/M03 A2989 890 72 -400 180/10G18 RMK AO2 SNE06 PRESFR P0000
14837KMSN MSN20071128102511511/28/07 10:25:31  5-MIN KMSN 281625Z 19010KT 7SM FEW042 OVC050 02/M03 A2989 890 69 -400 190/10 RMK AO2 SNE06 P0000
14837KMSN MSN20071128103011511/28/07 10:30:31  5-MIN KMSN 281630Z 19010KT 7SM SCT043 OVC050 02/M03 A2990 880 69 -400 190/10 RMK AO2 SNE06 P0000
14837KMSN MSN20071128103510811/28/07 10:35:31  5-MIN KMSN 281635Z 20009KT 7SM OVC046 02/M03 A2989 890 69 -400 200/09 RMK AO2 SNE06 P0000
14837KMSN MSN20071128104010811/28/07 10:40:31  5-MIN KMSN 281640Z 19009KT 7SM OVC045 02/M03 A2988 900 69 -300 190/09 RMK AO2 SNE06 P0000
14837KMSN MSN20071128104510811/28/07 10:45:31  5-MIN KMSN 281645Z 19011KT 7SM OVC045 02/M03 A2989 890 69 -400 190/11 RMK AO2 SNE06 P0000
14837KMSN MSN20071128105012511/28/07 10:50:31  5-MIN KMSN 281650Z 20010KT 7SM OVC043 03/M03 A2988 900 67 -300 190/10 RMK AO2 SNE06 SLP131 P0000 T00281028
14837KMSN MSN20071128105509611/28/07 10:55:31  5-MIN KMSN 281655Z 20010KT 7SM OVC041 03/M03 A2988 900 67 -300 190/10 RMK AO2
14837KMSN MSN20071128110010311/28/07 11:00:31  5-MIN KMSN 281700Z 19010KT 7SM BKN039 OVC046 03/M02 A2988 900 69 -300 190/10 RMK AO2
14837KMSN MSN20071128110510311/28/07 11:05:31  5-MIN KMSN 281705Z 19011KT 7SM BKN037 OVC046 03/M02 A2988 900 69 -300 190/11 RMK AO2
14837KMSN MSN20071128111010211/28/07 11:10:31  5-MIN KMSN 281710Z 19012G18KT 7SM OVC037 03/M02 A2987 910 69 -300 190/12G18 RMK AO2
14837KMSN MSN20071128111510211/28/07 11:15:31  5-MIN KMSN 281715Z 19009G18KT 7SM OVC037 03/M02 A2987 910 67 -200 190/09G18 RMK AO2
14837KMSN MSN20071128112010211/28/07 11:20:31  5-MIN KMSN 281720Z 19012G18KT 7SM OVC037 03/M02 A2987 910 67 -200 190/12G18 RMK AO2
14837KMSN MSN20071128112510211/28/07 11:25:31  5-MIN KMSN 281725Z 19014G18KT 7SM OVC037 03/M02 A2986 920 67 -200 190/14G18 RMK AO2
14837KMSN MSN20071128113009611/28/07 11:30:31  5-MIN KMSN 281730Z 20012KT 7SM OVC037 03/M02 A2986 920 67 -200 200/12 RMK AO2
14837KMSN MSN20071128113510211/28/07 11:35:31  5-MIN KMSN 281735Z 20011G20KT 7SM OVC037 04/M02 A2986 920 64 -100 200/11G20 RMK AO2
14837KMSN MSN20071128114010211/28/07 11:40:31  5-MIN KMSN 281740Z 21009G20KT 7SM OVC037 04/M02 A2985 930 64 -100 200/09G20 RMK AO2
14837KMSN MSN20071128114510211/28/07 11:45:31  5-MIN KMSN 281745Z 20007G16KT 7SM OVC039 04/M02 A2985 930 64 -100 200/07G16 RMK AO2
14837KMSN MSN20071128115013711/28/07 11:50:31  5-MIN KMSN 281750Z 20007KT 7SM BKN039 04/M02 A2985 930 64 -100 200/07 RMK AO2 SLP118 60000 T00391022 10039 21028 58025
14837KMSN MSN20071128115510211/28/07 11:55:31  5-MIN KMSN 281755Z 20010G15KT 7SM BKN039 04/M02 A2984 940 64 -100 200/10G15 RMK AO2
14837KMSN MSN20071128120010211/28/07 12:00:31  5-MIN KMSN 281800Z 21007G15KT 7SM BKN039 04/M02 A2985 930 64 -100 210/07G15 RMK AO2
14837KMSN MSN20071128120509611/28/07 12:05:31  5-MIN KMSN 281805Z 21007KT 7SM BKN039 04/M02 A2985 930 64 -100 210/07 RMK AO2
14837KMSN MSN20071128121010011/28/07 12:10:31  5-MIN KMSN 281810Z 20006KT 7SM BKN036 BKN043 04/M02 A2984 940 62 0 200/06 RMK AO2
14837KMSN MSN20071128121509311/28/07 12:15:31  5-MIN KMSN 281815Z 20007KT 7SM BKN036 04/M02 A2984 940 62 0 200/07 RMK AO2
14837KMSN MSN20071128122009311/28/07 12:20:31  5-MIN KMSN 281820Z 20007KT 7SM OVC036 04/M02 A2983 950 62 0 200/07 RMK AO2
14837KMSN MSN20071128122509911/28/07 12:25:31  5-MIN KMSN 281825Z 20007G14KT 7SM OVC036 04/M02 A2983 940 62 0 200/07G14 RMK AO2
14837KMSN MSN20071128123009911/28/07 12:30:31  5-MIN KMSN 281830Z 21007G14KT 7SM OVC036 04/M02 A2983 950 62 0 200/07G14 RMK AO2
14837KMSN MSN20071128123510611/28/07 12:35:31  5-MIN KMSN 281835Z 20009G14KT 7SM BKN036 OVC042 04/M02 A2983 950 64 0 200/09G14 RMK AO2
14837KMSN MSN20071128124010611/28/07 12:40:31  5-MIN KMSN 281840Z 20009G14KT 7SM BKN036 OVC042 04/M02 A2982 950 64 0 200/09G14 RMK AO2
14837KMSN MSN20071128124511311/28/07 12:45:31  5-MIN KMSN 281845Z 19012G17KT 7SM SCT036 BKN042 OVC055 04/M02 A2982 950 64 0 190/12G17 RMK AO2
14837KMSN MSN20071128125013011/28/07 12:50:31  5-MIN KMSN 281850Z 20009G17KT 7SM SCT036 SCT042 OVC055 04/M02 A2983 950 64 0 200/09G17 RMK AO2 SLP110 T00441017
14837KMSN MSN20071128125510711/28/07 12:55:31  5-MIN KMSN 281855Z 21006KT 7SM FEW036 SCT042 OVC055 05/M02 A2982 950 62 0 210/06 RMK AO2
14837KMSN MSN20071128130010011/28/07 13:00:31  5-MIN KMSN 281900Z 21006KT 7SM FEW043 OVC055 05/M02 A2983 950 62 0 210/06 RMK AO2
14837KMSN MSN20071128130510011/28/07 13:05:31  5-MIN KMSN 281905Z 21006KT 7SM FEW043 OVC055 05/M02 A2983 950 62 0 210/06 RMK AO2
14837KMSN MSN20071128131009311/28/07 13:10:31  5-MIN KMSN 281910Z 21005KT 7SM OVC060 05/M02 A2982 960 62 0 210/05 RMK AO2
14837KMSN MSN20071128131509311/28/07 13:15:31  5-MIN KMSN 281915Z 21006KT 7SM OVC060 05/M02 A2982 960 62 0 210/06 RMK AO2
14837KMSN MSN20071128132009311/28/07 13:20:31  5-MIN KMSN 281920Z 22007KT 7SM OVC060 05/M02 A2982 960 62 0 210/07 RMK AO2
14837KMSN MSN20071128132509511/28/07 13:25:31  5-MIN KMSN 281925Z 21007KT 7SM BKN060 06/M02 A2982 960 59 100 210/07 RMK AO2
14837KMSN MSN20071128133010211/28/07 13:30:31  5-MIN KMSN 281930Z 21006KT 7SM FEW030 BKN060 06/M02 A2981 970 59 100 210/06 RMK AO2
14837KMSN MSN20071128133510211/28/07 13:35:31  5-MIN KMSN 281935Z 22006KT 7SM SCT030 BKN060 06/M01 A2981 970 62 100 210/06 RMK AO2
14837KMSN MSN20071128134010811/28/07 13:40:31  5-MIN KMSN 281940Z 22008G15KT 8SM BKN030 BKN060 06/M01 A2981 970 62 100 220/08G15 RMK AO2
14837KMSN MSN20071128134510811/28/07 13:45:31  5-MIN KMSN 281945Z 22005G15KT 8SM BKN030 BKN060 06/M01 A2981 970 62 100 220/05G15 RMK AO2
14837KMSN MSN20071128135011211/28/07 13:50:31  5-MIN KMSN 281950Z 23007KT 8SM BKN030 06/M01 A2980 970 62 100 230/07 RMK AO2 SLP103 T00561011
14837KMSN MSN20071128135509511/28/07 13:55:31  5-MIN KMSN 281955Z 24007KT 8SM OVC030 06/M01 A2980 970 62 100 230/07 RMK AO2
14837KMSN MSN20071128140009511/28/07 14:00:31  5-MIN KMSN 282000Z 23006KT 8SM OVC030 06/M01 A2980 970 62 100 230/06 RMK AO2
14837KMSN MSN20071128140509511/28/07 14:05:31  5-MIN KMSN 282005Z 23006KT 8SM OVC030 06/M01 A2980 970 60 200 230/06 RMK AO2
14837KMSN MSN20071128141009511/28/07 14:10:31  5-MIN KMSN 282010Z 23006KT 9SM OVC030 06/M01 A2981 970 60 200 230/06 RMK AO2
14837KMSN MSN20071128141509511/28/07 14:15:31  5-MIN KMSN 282015Z 23009KT 9SM OVC030 06/M01 A2980 980 60 200 230/09 RMK AO2
14837KMSN MSN20071128142009511/28/07 14:20:31  5-MIN KMSN 282020Z 21009KT 8SM BKN030 06/M01 A2979 980 60 200 210/09 RMK AO2
14837KMSN MSN20071128142509511/28/07 14:25:31  5-MIN KMSN 282025Z 24006KT 8SM BKN030 06/M01 A2979 980 62 200 240/06 RMK AO2
14837KMSN MSN20071128143009511/28/07 14:30:31  5-MIN KMSN 282030Z 24006KT 8SM SCT030 06/M01 A2979 980 62 200 240/06 RMK AO2
14837KMSN MSN20071128143509511/28/07 14:35:31  5-MIN KMSN 282035Z VRB06KT 8SM SCT028 06/M01 A2979 980 62 200 VRB/06 RMK AO2
14837KMSN MSN20071128144009511/28/07 14:40:31  5-MIN KMSN 282040Z 23005KT 8SM FEW028 06/M01 A2979 980 62 200 230/05 RMK AO2
14837KMSN MSN20071128144509211/28/07 14:45:31  5-MIN KMSN 282045Z 23008KT 8SM CLR 06/M01 A2979 990 62 200 230/08 RMK AO2
14837KMSN MSN20071128145011511/28/07 14:50:31  5-MIN KMSN 282050Z 23007KT 8SM CLR 06/M01 A2979 980 62 200 230/07 RMK AO2 SLP098 T00611006 58034
14837KMSN MSN20071128145510211/28/07 14:55:31  5-MIN KMSN 282055Z 24006KT 8SM FEW030 BKN120 06/M01 A2980 980 62 200 240/06 RMK AO2
14837KMSN MSN20071128150010211/28/07 15:00:31  5-MIN KMSN 282100Z 24008KT 8SM FEW030 BKN120 06/M01 A2980 970 62 200 240/08 RMK AO2
14837KMSN MSN20071128150511711/28/07 15:05:31  5-MIN KMSN 282105Z 24008KT 210V270 8SM FEW030 BKN120 06/00 A2980 980 65 200 240/08 210V270 RMK AO2
14837KMSN MSN20071128151010111/28/07 15:10:31  5-MIN KMSN 282110Z 24007KT 7SM FEW030 BKN120 06/00 A2980 980 65 200 240/07 RMK AO2
14837KMSN MSN20071128151510111/28/07 15:15:31  5-MIN KMSN 282115Z 24006KT 7SM FEW030 BKN120 06/00 A2980 980 65 200 240/06 RMK AO2
14837KMSN MSN20071128152010111/28/07 15:20:31  5-MIN KMSN 282120Z 25005KT 7SM FEW030 BKN120 06/00 A2979 980 65 200 250/05 RMK AO2
14837KMSN MSN20071128152510111/28/07 15:25:31  5-MIN KMSN 282125Z VRB06KT 7SM FEW030 BKN120 06/00 A2979 980 65 200 VRB/06 RMK AO2
14837KMSN MSN20071128153009411/28/07 15:30:31  5-MIN KMSN 282130Z VRB05KT 7SM OVC028 06/00 A2980 980 65 200 VRB/05 RMK AO2
14837KMSN MSN20071128153509411/28/07 15:35:31  5-MIN KMSN 282135Z 26005KT 7SM OVC028 06/00 A2980 980 65 200 260/05 RMK AO2
14837KMSN MSN20071128154009411/28/07 15:40:31  5-MIN KMSN 282140Z 25007KT 7SM OVC028 06/00 A2980 970 65 200 250/07 RMK AO2
14837KMSN MSN20071128154509711/28/07 15:45:31  5-MIN KMSN 282145Z 25005KT 6SM HZ OVC028 06/00 A2981 970 65 200 250/05 RMK AO2
14837KMSN MSN20071128155013011/28/07 15:50:31  5-MIN KMSN 282150Z 25008KT 210V270 6SM HZ OVC028 06/00 A2980 970 65 200 250/08 210V270 RMK AO2 SLP102 T00610000
14837KMSN MSN20071128155509711/28/07 15:55:31  5-MIN KMSN 282155Z 25008KT 6SM HZ BKN028 06/00 A2981 970 65 200 250/08 RMK AO2
14837KMSN MSN20071128160009711/28/07 16:00:31  5-MIN KMSN 282200Z 26007KT 6SM HZ BKN028 06/00 A2981 970 67 100 260/07 RMK AO2
14837KMSN MSN20071128160509711/28/07 16:05:31  5-MIN KMSN 282205Z 26005KT 5SM HZ BKN028 06/00 A2980 970 67 100 260/05 RMK AO2
14837KMSN MSN20071129021010211/29/07 02:10:31  5-MIN KMSN 290810Z 29012G23KT 10SM CLR M08/M16 A3002 780 54 -1800 290/12G23 RMK AO2
14837KMSN MSN20071129021510211/29/07 02:15:31  5-MIN KMSN 290815Z 29009G19KT 10SM CLR M08/M16 A3002 770 54 -1800 280/09G19 RMK AO2
14837KMSN MSN20071129022010211/29/07 02:20:31  5-MIN KMSN 290820Z 28010G21KT 10SM CLR M08/M16 A3002 770 54 -1800 280/10G21 RMK AO2
14837KMSN MSN20071129022510211/29/07 02:25:31  5-MIN KMSN 290825Z 29012G21KT 10SM CLR M08/M16 A3002 770 54 -1800 290/12G21 RMK AO2
14837KMSN MSN20071129023010211/29/07 02:30:31  5-MIN KMSN 290830Z 29010G18KT 10SM CLR M08/M16 A3002 770 54 -1800 290/10G18 RMK AO2
14837KMSN MSN20071129023510211/29/07 02:35:31  5-MIN KMSN 290835Z VRB06G19KT 10SM CLR M08/M16 A3002 770 54 -1800 VRB/06G19 RMK AO2
14837KMSN MSN20071129024010211/29/07 02:40:31  5-MIN KMSN 290840Z 28010G19KT 10SM CLR M08/M16 A3002 770 54 -1800 280/10G19 RMK AO2
14837KMSN MSN20071129024510211/29/07 02:45:31  5-MIN KMSN 290845Z 28006G14KT 10SM CLR M08/M16 A3002 770 54 -1800 280/06G14 RMK AO2
14837KMSN MSN20071129025011911/29/07 02:50:31  5-MIN KMSN 290850Z VRB05KT 10SM CLR M08/M16 A3002 770 56 -1900 VRB/05 RMK AO2 SLP177 T10831156 53013
14837KMSN MSN20071129025509611/29/07 02:55:31  5-MIN KMSN 290855Z 27005KT 10SM CLR M08/M15 A3002 770 59 -1900 270/05 RMK AO2
14837KMSN MSN20071129030009611/29/07 03:00:31  5-MIN KMSN 290900Z 28007KT 10SM CLR M08/M15 A3002 770 59 -1800 270/07 RMK AO2
14837KMSN MSN20071129030511811/29/07 03:05:31  5-MIN KMSN 290905Z 27009G14KT 240V310 10SM CLR M08/M15 A3002 770 59 -1900 270/09G14 240V310 RMK AO2
14837KMSN MSN20071129031010211/29/07 03:10:31  5-MIN KMSN 290910Z 28010G19KT 10SM CLR M08/M16 A3002 770 56 -1800 280/10G19 RMK AO2
14837KMSN MSN20071129031510211/29/07 03:15:31  5-MIN KMSN 290915Z 28009G19KT 10SM CLR M08/M16 A3002 770 56 -1800 280/09G19 RMK AO2
14837KMSN MSN20071129032010211/29/07 03:20:31  5-MIN KMSN 290920Z 28009G16KT 10SM CLR M08/M16 A3002 770 56 -1900 280/09G16 RMK AO2
14837KMSN MSN20071129032510211/29/07 03:25:31  5-MIN KMSN 290925Z 28009G18KT 10SM CLR M08/M16 A3002 770 56 -1900 280/09G18 RMK AO2
14837KMSN MSN20071129033010211/29/07 03:30:31  5-MIN KMSN 290930Z 28009G19KT 10SM CLR M08/M16 A3002 770 56 -1900 280/09G19 RMK AO2
14837KMSN MSN20071129033510211/29/07 03:35:31  5-MIN KMSN 290935Z 28012G20KT 10SM CLR M08/M16 A3003 770 56 -1900 280/12G20 RMK AO2
14837KMSN MSN20071129034010211/29/07 03:40:31  5-MIN KMSN 290940Z 28011G20KT 10SM CLR M08/M16 A3003 760 56 -1900 280/11G20 RMK AO2
14837KMSN MSN20071129034510211/29/07 03:45:31  5-MIN KMSN 290945Z 28006G17KT 10SM CLR M08/M16 A3004 760 56 -1900 280/06G17 RMK AO2
14837KMSN MSN20071129035011911/29/07 03:50:31  5-MIN KMSN 290950Z 29013G24KT 10SM CLR M08/M16 A3004 760 56 -1900 290/13G24 RMK AO2 SLP182 T10831156
14837KMSN MSN20071129035510211/29/07 03:55:31  5-MIN KMSN 290955Z 28009G24KT 10SM CLR M08/M16 A3004 750 56 -1900 280/09G24 RMK AO2
14837KMSN MSN20071129040010211/29/07 04:00:31  5-MIN KMSN 291000Z 28010G16KT 10SM CLR M09/M16 A3004 760 59 -1900 280/10G16 RMK AO2
14837KMSN MSN20071129040510211/29/07 04:05:31  5-MIN KMSN 291005Z 28010G17KT 10SM CLR M08/M16 A3004 750 56 -1900 280/10G17 RMK AO2
14837KMSN MSN20071129041011811/29/07 04:10:31  5-MIN KMSN 291010Z 28010G18KT 240V310 10SM CLR M09/M16 A3004 750 59 -1900 280/10G18 240V310 RMK AO2
14837KMSN MSN20071129041511811/29/07 04:15:31  5-MIN KMSN 291015Z 28007G18KT 250V310 10SM CLR M09/M16 A3005 750 59 -2000 280/07G18 250V310 RMK AO2
14837KMSN MSN20071129042010211/29/07 04:20:31  5-MIN KMSN 291020Z 28010G17KT 10SM CLR M09/M16 A3005 740 59 -2000 280/10G17 RMK AO2
14837KMSN MSN20071129042511811/29/07 04:25:31  5-MIN KMSN 291025Z 28012G18KT 230V300 10SM CLR M09/M16 A3006 740 59 -2000 270/12G18 230V300 RMK AO2
14837KMSN MSN20071129043010211/29/07 04:30:31  5-MIN KMSN 291030Z 28009G18KT 10SM CLR M09/M16 A3006 740 59 -2000 280/09G18 RMK AO2
14837KMSN MSN20071129043510211/29/07 04:35:31  5-MIN KMSN 291035Z 28010G18KT 10SM CLR M09/M16 A3006 740 59 -2000 280/10G18 RMK AO2
14837KMSN MSN20071129044011811/29/07 04:40:31  5-MIN KMSN 291040Z 29009G18KT 250V320 10SM CLR M09/M16 A3006 730 59 -2000 280/09G18 250V320 RMK AO2
14837KMSN MSN20071129044510211/29/07 04:45:31  5-MIN KMSN 291045Z 28007G17KT 10SM CLR M09/M16 A3007 730 59 -2000 280/07G17 RMK AO2
14837KMSN MSN20071129045011311/29/07 04:50:31  5-MIN KMSN 291050Z VRB06KT 10SM CLR M09/M16 A3007 730 59 -2000 VRB/06 RMK AO2 SLP193 T10891156
14837KMSN MSN20071129045510211/29/07 04:55:31  5-MIN KMSN 291055Z 28009G19KT 10SM CLR M09/M16 A3007 720 59 -2000 280/09G19 RMK AO2
14837KMSN MSN20071129050010211/29/07 05:00:31  5-MIN KMSN 291100Z 28008G19KT 10SM CLR M09/M16 A3008 720 56 -2000 280/08G19 RMK AO2
14837KMSN MSN20071129050510211/29/07 05:05:31  5-MIN KMSN 291105Z 27011G18KT 10SM CLR M09/M16 A3008 720 56 -2000 270/11G18 RMK AO2
14837KMSN MSN20071129051010211/29/07 05:10:31  5-MIN KMSN 291110Z 28009G18KT 10SM CLR M09/M16 A3008 720 56 -2000 280/09G18 RMK AO2
14837KMSN MSN20071129051511811/29/07 05:15:31  5-MIN KMSN 291115Z 27009G18KT 230V290 10SM CLR M09/M16 A3009 710 56 -2000 270/09G18 230V290 RMK AO2
14837KMSN MSN20071129052010211/29/07 05:20:31  5-MIN KMSN 291120Z 28009G18KT 10SM CLR M09/M16 A3009 710 56 -2000 270/09G18 RMK AO2
14837KMSN MSN20071129052510211/29/07 05:25:31  5-MIN KMSN 291125Z 28010G18KT 10SM CLR M09/M16 A3008 710 56 -2000 280/10G18 RMK AO2
14837KMSN MSN20071129053010211/29/07 05:30:31  5-MIN KMSN 291130Z 28009G18KT 10SM CLR M09/M16 A3008 710 56 -2000 280/09G18 RMK AO2
14837KMSN MSN20071129053510211/29/07 05:35:31  5-MIN KMSN 291135Z 28009G18KT 10SM CLR M09/M16 A3008 710 56 -2000 280/09G18 RMK AO2
14837KMSN MSN20071129054010211/29/07 05:40:31  5-MIN KMSN 291140Z 27010G16KT 10SM CLR M09/M16 A3008 710 56 -2000 270/10G16 RMK AO2
14837KMSN MSN20071129054510211/29/07 05:45:31  5-MIN KMSN 291145Z 27008G18KT 10SM CLR M09/M16 A3008 710 56 -2000 270/08G18 RMK AO2
14837KMSN MSN20071129055013711/29/07 05:50:31  5-MIN KMSN 291150Z 29012G18KT 10SM CLR M09/M16 A3009 710 56 -2000 290/12G18 RMK AO2 SLP200 T10891161 11039 21089 51020
14837KMSN MSN20071129055510211/29/07 05:55:31  5-MIN KMSN 291155Z 27008G17KT 10SM CLR M09/M16 A3009 710 56 -2000 270/08G17 RMK AO2
14837KMSN MSN20071129060010211/29/07 06:00:31  5-MIN KMSN 291200Z 27011G20KT 10SM CLR M09/M16 A3009 700 56 -2000 270/11G20 RMK AO2
14837KMSN MSN20071129060510211/29/07 06:05:31  5-MIN KMSN 291205Z 29010G20KT 10SM CLR M09/M16 A3010 700 56 -2000 290/10G20 RMK AO2
14837KMSN MSN20071129061010211/29/07 06:10:31  5-MIN KMSN 291210Z 28006G18KT 10SM CLR M09/M16 A3010 700 56 -2000 280/06G18 RMK AO2
14837KMSN MSN20071129061510211/29/07 06:15:31  5-MIN KMSN 291215Z 27010G18KT 10SM CLR M09/M16 A3010 700 56 -2000 270/10G18 RMK AO2
14837KMSN MSN20071129062010211/29/07 06:20:31  5-MIN KMSN 291220Z 27006G18KT 10SM CLR M09/M16 A3010 700 56 -2000 270/06G18 RMK AO2
14837KMSN MSN20071129062511811/29/07 06:25:31  5-MIN KMSN 291225Z 28009G18KT 200V310 10SM CLR M09/M16 A3011 690 56 -2000 280/09G18 200V310 RMK AO2
14837KMSN MSN20071129063010211/29/07 06:30:31  5-MIN KMSN 291230Z 28007G16KT 10SM CLR M09/M16 A3011 690 59 -2100 280/07G16 RMK AO2
14837KMSN MSN20071129063509611/29/07 06:35:31  5-MIN KMSN 291235Z 28009KT 10SM CLR M09/M16 A3011 690 59 -2100 280/09 RMK AO2
14837KMSN MSN20071129064009611/29/07 06:40:31  5-MIN KMSN 291240Z 28007KT 10SM CLR M09/M16 A3011 690 59 -2100 280/07 RMK AO2
14837KMSN MSN20071129064509611/29/07 06:45:31  5-MIN KMSN 291245Z 28008KT 10SM CLR M09/M16 A3011 690 59 -2100 280/08 RMK AO2
14837KMSN MSN20071129065011911/29/07 06:50:31  5-MIN KMSN 291250Z 29008G14KT 10SM CLR M09/M16 A3011 690 59 -2100 290/08G14 RMK AO2 SLP208 T10941161
14837KMSN MSN20071129065510211/29/07 06:55:31  5-MIN KMSN 291255Z VRB06G16KT 10SM CLR M09/M16 A3011 690 59 -2100 VRB/06G16 RMK AO2
14837KMSN MSN20071129070011811/29/07 07:00:31  5-MIN KMSN 291300Z 28009G16KT 230V320 10SM CLR M09/M16 A3011 690 59 -2100 280/09G16 230V320 RMK AO2
14837KMSN MSN20071129070511811/29/07 07:05:31  5-MIN KMSN 291305Z 28008G15KT 260V320 10SM CLR M09/M16 A3011 690 59 -2100 280/08G15 260V320 RMK AO2
14837KMSN MSN20071129071010211/29/07 07:10:31  5-MIN KMSN 291310Z 29009G16KT 10SM CLR M09/M17 A3011 690 56 -2100 290/09G16 RMK AO2
14837KMSN MSN20071129071510211/29/07 07:15:31  5-MIN KMSN 291315Z 28010G16KT 10SM CLR M09/M16 A3012 680 59 -2100 280/10G16 RMK AO2
14837KMSN MSN20071129072010211/29/07 07:20:31  5-MIN KMSN 291320Z 28007G15KT 10SM CLR M09/M16 A3012 680 59 -2100 280/07G15 RMK AO2
14837KMSN MSN20071129072509611/29/07 07:25:31  5-MIN KMSN 291325Z 29007KT 10SM CLR M09/M16 A3012 680 59 -2100 290/07 RMK AO2
14837KMSN MSN20071129073009611/29/07 07:30:31  5-MIN KMSN 291330Z 27008KT 10SM CLR M09/M16 A3012 680 59 -2100 270/08 RMK AO2
14837KMSN MSN20071129073509611/29/07 07:35:31  5-MIN KMSN 291335Z 28008KT 10SM CLR M09/M17 A3013 670 54 -2000 280/08 RMK AO2
14837KMSN MSN20071129074010211/29/07 07:40:31  5-MIN KMSN 291340Z 29005G15KT 10SM CLR M09/M17 A3013 670 54 -2100 290/05G15 RMK AO2
14837KMSN MSN20071129074510211/29/07 07:45:31  5-MIN KMSN 291345Z 28008G14KT 10SM CLR M09/M16 A3014 660 56 -2100 280/08G14 RMK AO2
14837KMSN MSN20071129075011911/29/07 07:50:31  5-MIN KMSN 291350Z 27006G15KT 10SM CLR M09/M16 A3014 660 56 -2100 270/06G15 RMK AO2 SLP220 T10891161
14837KMSN MSN20071129075510211/29/07 07:55:31  5-MIN KMSN 291355Z 27011G17KT 10SM CLR M09/M16 A3014 660 56 -2100 270/11G17 RMK AO2
14837KMSN MSN20071129080010211/29/07 08:00:31  5-MIN KMSN 291400Z 29009G17KT 10SM CLR M09/M16 A3014 660 56 -2100 290/09G17 RMK AO2
14837KMSN MSN20071129080509611/29/07 08:05:31  5-MIN KMSN 291405Z 29009KT 10SM CLR M08/M16 A3014 660 54 -2000 280/09 RMK AO2
14837KMSN MSN20071129081011811/29/07 08:10:31  5-MIN KMSN 291410Z 29008G17KT 240V320 10SM CLR M08/M17 A3014 660 51 -2000 290/08G17 240V320 RMK AO2
14837KMSN MSN20071129081510211/29/07 08:15:31  5-MIN KMSN 291415Z 29010G17KT 10SM CLR M08/M17 A3014 660 51 -2000 290/10G17 RMK AO2
14837KMSN MSN20071129082011811/29/07 08:20:31  5-MIN KMSN 291420Z 29008G19KT 240V310 10SM CLR M08/M17 A3015 650 51 -2000 290/08G19 240V310 RMK AO2
14837KMSN MSN20071129082510211/29/07 08:25:31  5-MIN KMSN 291425Z 29014G21KT 10SM CLR M08/M17 A3015 650 51 -2000 290/14G21 RMK AO2
14837KMSN MSN20071129083010211/29/07 08:30:31  5-MIN KMSN 291430Z 29012G21KT 10SM CLR M08/M17 A3015 650 49 -1900 280/12G21 RMK AO2
14837KMSN MSN20071129083510211/29/07 08:35:31  5-MIN KMSN 291435Z 28011G20KT 10SM CLR M08/M17 A3016 650 49 -1900 280/11G20 RMK AO2
14837KMSN MSN20071129084010211/29/07 08:40:31  5-MIN KMSN 291440Z 29011G20KT 10SM CLR M08/M17 A3016 640 49 -1900 290/11G20 RMK AO2
14837KMSN MSN20071129084510211/29/07 08:45:31  5-MIN KMSN 291445Z 29007G19KT 10SM CLR M08/M16 A3016 640 51 -1900 290/07G19 RMK AO2
14837KMSN MSN20071129085012511/29/07 08:50:31  5-MIN KMSN 291450Z 28009G17KT 10SM CLR M07/M16 A3016 640 49 -1900 280/09G17 RMK AO2 SLP228 T10721161 51023
14837KMSN MSN20071129085510211/29/07 08:55:31  5-MIN KMSN 291455Z 28007G17KT 10SM CLR M07/M16 A3017 640 49 -1900 280/07G17 RMK AO2
14837KMSN MSN20071129090010211/29/07 09:00:31  5-MIN KMSN 291500Z 28010G18KT 10SM CLR M07/M16 A3017 640 49 -1900 280/10G18 RMK AO2
14837KMSN MSN20071129090510211/29/07 09:05:31  5-MIN KMSN 291505Z 29015G20KT 10SM CLR M07/M16 A3017 640 49 -1900 290/15G20 RMK AO2
14837KMSN MSN20071129091010211/29/07 09:10:31  5-MIN KMSN 291510Z 29011G20KT 10SM CLR M07/M16 A3017 640 49 -1900 290/11G20 RMK AO2
14837KMSN MSN20071129091510211/29/07 09:15:31  5-MIN KMSN 291515Z 30012G18KT 10SM CLR M07/M16 A3017 630 49 -1800 300/12G18 RMK AO2
14837KMSN MSN20071129092010211/29/07 09:20:31  5-MIN KMSN 291520Z 28009G16KT 10SM CLR M07/M16 A3017 630 49 -1900 280/09G16 RMK AO2
14837KMSN MSN20071129092510211/29/07 09:25:31  5-MIN KMSN 291525Z 28011G17KT 10SM CLR M07/M16 A3017 630 49 -1800 280/11G17 RMK AO2
14837KMSN MSN20071129093010211/29/07 09:30:31  5-MIN KMSN 291530Z 28010G17KT 10SM CLR M07/M16 A3018 630 49 -1800 280/10G17 RMK AO2
14837KMSN MSN20071129093510211/29/07 09:35:31  5-MIN KMSN 291535Z 29011G18KT 10SM CLR M07/M16 A3017 630 49 -1800 290/11G18 RMK AO2
14837KMSN MSN20071129094011811/29/07 09:40:31  5-MIN KMSN 291540Z 28011G18KT 250V310 10SM CLR M07/M16 A3017 630 49 -1800 280/11G18 250V310 RMK AO2
14837KMSN MSN20071129094510211/29/07 09:45:31  5-MIN KMSN 291545Z 29014G19KT 10SM CLR M07/M16 A3017 630 47 -1800 290/14G19 RMK AO2
14837KMSN MSN20071129095011911/29/07 09:50:31  5-MIN KMSN 291550Z 28009G19KT 10SM CLR M07/M16 A3017 630 49 -1800 280/09G19 RMK AO2 SLP232 T10671156
14837KMSN MSN20071129095510211/29/07 09:55:31  5-MIN KMSN 291555Z 27009G19KT 10SM CLR M06/M16 A3018 630 47 -1700 270/09G19 RMK AO2
14837KMSN MSN20071129100010211/29/07 10:00:31  5-MIN KMSN 291600Z 28009G16KT 10SM CLR M06/M16 A3017 630 47 -1700 280/09G16 RMK AO2
14837KMSN MSN20071129100510211/29/07 10:05:31  5-MIN KMSN 291605Z 29011G17KT 10SM CLR M06/M16 A3017 630 45 -1700 290/11G17 RMK AO2
14837KMSN MSN20071129101010211/29/07 10:10:31  5-MIN KMSN 291610Z 28011G19KT 10SM CLR M06/M16 A3017 630 45 -1700 280/11G19 RMK AO2
14837KMSN MSN20071129101510211/29/07 10:15:31  5-MIN KMSN 291615Z 28012G21KT 10SM CLR M06/M16 A3017 630 45 -1700 280/12G21 RMK AO2
14837KMSN MSN20071129102010211/29/07 10:20:31  5-MIN KMSN 291620Z 30011G21KT 10SM CLR M06/M16 A3017 630 43 -1700 300/11G21 RMK AO2
14837KMSN MSN20071129102510211/29/07 10:25:31  5-MIN KMSN 291625Z 29009G18KT 10SM CLR M06/M16 A3017 640 43 -1700 290/09G18 RMK AO2
14837KMSN MSN20071129103010211/29/07 10:30:31  5-MIN KMSN 291630Z VRB06G17KT 10SM CLR M06/M16 A3016 640 43 -1700 VRB/06G17 RMK AO2
14837KMSN MSN20071129103510211/29/07 10:35:31  5-MIN KMSN 291635Z 28009G17KT 10SM CLR M06/M16 A3016 640 45 -1700 280/09G17 RMK AO2
14837KMSN MSN20071129104011811/29/07 10:40:31  5-MIN KMSN 291640Z 28007G18KT 250V310 10SM CLR M06/M16 A3016 640 45 -1700 280/07G18 250V310 RMK AO2
14837KMSN MSN20071129104510211/29/07 10:45:31  5-MIN KMSN 291645Z 27010G18KT 10SM CLR M06/M16 A3016 640 45 -1700 270/10G18 RMK AO2
14837KMSN MSN20071129105011911/29/07 10:50:31  5-MIN KMSN 291650Z 30013G17KT 10SM CLR M06/M16 A3016 640 45 -1700 300/13G17 RMK AO2 SLP227 T10561156
14837KMSN MSN20071129105511811/29/07 10:55:31  5-MIN KMSN 291655Z 28010G20KT 250V310 10SM CLR M05/M16 A3016 640 44 -1600 280/10G20 250V310 RMK AO2
14837KMSN MSN20071129110010211/29/07 11:00:31  5-MIN KMSN 291700Z 28012G20KT 10SM CLR M06/M16 A3016 640 43 -1700 280/12G20 RMK AO2
14837KMSN MSN20071129110510211/29/07 11:05:31  5-MIN KMSN 291705Z 29011G20KT 10SM CLR M06/M16 A3016 640 43 -1700 290/11G20 RMK AO2
14837KMSN MSN20071129111010211/29/07 11:10:31  5-MIN KMSN 291710Z 28011G19KT 10SM CLR M05/M16 A3017 640 42 -1600 270/11G19 RMK AO2
14837KMSN MSN20071129111510211/29/07 11:15:31  5-MIN KMSN 291715Z 28009G16KT 10SM CLR M05/M16 A3016 640 42 -1600 280/09G16 RMK AO2
14837KMSN MSN20071129112010211/29/07 11:20:31  5-MIN KMSN 291720Z 28010G18KT 10SM CLR M05/M16 A3016 640 42 -1600 280/10G18 RMK AO2
14837KMSN MSN20071129112510211/29/07 11:25:31  5-MIN KMSN 291725Z 28008G18KT 10SM CLR M05/M16 A3016 640 42 -1600 280/08G18 RMK AO2
14837KMSN MSN20071129113010211/29/07 11:30:31  5-MIN KMSN 291730Z 28011G19KT 10SM CLR M05/M16 A3016 640 42 -1600 280/11G19 RMK AO2
14837KMSN MSN20071129113511811/29/07 11:35:31  5-MIN KMSN 291735Z 28008G19KT 220V330 10SM CLR M04/M16 A3016 640 40 -1500 280/08G19 220V330 RMK AO2
14837KMSN MSN20071129114009611/29/07 11:40:31  5-MIN KMSN 291740Z 28008KT 10SM CLR M05/M16 A3015 650 42 -1600 280/08 RMK AO2
14837KMSN MSN20071129114510211/29/07 11:45:31  5-MIN KMSN 291745Z 27009G17KT 10SM CLR M05/M16 A3015 650 42 -1600 270/09G17 RMK AO2
14837KMSN MSN20071129115013711/29/07 11:50:31  5-MIN KMSN 291750Z 30012G17KT 10SM CLR M04/M16 A3016 650 40 -1500 300/12G17 RMK AO2 SLP225 T10441161 11044 21094 53025
14837KMSN MSN20071129115510211/29/07 11:55:31  5-MIN KMSN 291755Z 28011G18KT 10SM CLR M04/M16 A3016 640 40 -1500 280/11G18 RMK AO2
14837KMSN MSN20071129120010211/29/07 12:00:31  5-MIN KMSN 291800Z 27010G18KT 10SM CLR M04/M16 A3016 650 40 -1500 270/10G18 RMK AO2
14837KMSN MSN20071129120510211/29/07 12:05:31  5-MIN KMSN 291805Z VRB05G16KT 10SM CLR M04/M16 A3016 650 40 -1500 VRB/05G16 RMK AO2
14837KMSN MSN20071129121010211/29/07 12:10:31  5-MIN KMSN 291810Z 27010G16KT 10SM CLR M04/M16 A3016 640 40 -1500 270/10G16 RMK AO2
14837KMSN MSN20071129121510211/29/07 12:15:31  5-MIN KMSN 291815Z 27009G15KT 10SM CLR M04/M16 A3016 640 40 -1400 270/09G15 RMK AO2
14837KMSN MSN20071129122010211/29/07 12:20:31  5-MIN KMSN 291820Z 30007G15KT 10SM CLR M04/M16 A3016 640 38 -1400 300/07G15 RMK AO2
14837KMSN MSN20071129122511811/29/07 12:25:31  5-MIN KMSN 291825Z 27008G15KT 220V310 10SM CLR M03/M16 A3016 640 37 -1400 270/08G15 220V310 RMK AO2
14837KMSN MSN20071129123010211/29/07 12:30:31  5-MIN KMSN 291830Z 28011G16KT 10SM CLR M04/M16 A3017 640 38 -1400 280/11G16 RMK AO2
14837KMSN MSN20071129123511811/29/07 12:35:31  5-MIN KMSN 291835Z 28007G16KT 250V310 10SM CLR M04/M16 A3016 640 38 -1400 280/07G16 250V310 RMK AO2
14837KMSN MSN20071129124010211/29/07 12:40:31  5-MIN KMSN 291840Z 27012G18KT 10SM CLR M04/M16 A3017 640 38 -1400 270/12G18 RMK AO2
14837KMSN MSN20071129124510211/29/07 12:45:31  5-MIN KMSN 291845Z 28009G18KT 10SM CLR M04/M16 A3016 640 40 -1500 270/09G18 RMK AO2
14837KMSN MSN20071129125013511/29/07 12:50:31  5-MIN KMSN 291850Z 27007G14KT 240V330 10SM CLR M04/M16 A3016 640 38 -1400 270/07G14 240V330 RMK AO2 SLP226 T10391161
14837KMSN MSN20071129125510211/29/07 12:55:31  5-MIN KMSN 291855Z 28010G14KT 10SM CLR M04/M16 A3016 640 38 -1400 280/10G14 RMK AO2
14837KMSN MSN20071129130009611/29/07 13:00:31  5-MIN KMSN 291900Z 26007KT 10SM CLR M04/M16 A3016 640 38 -1400 260/07 RMK AO2
14837KMSN MSN20071129130509611/29/07 13:05:31  5-MIN KMSN 291905Z 26010KT 10SM CLR M04/M16 A3017 640 38 -1400 260/10 RMK AO2
14837KMSN MSN20071129131010211/29/07 13:10:31  5-MIN KMSN 291910Z VRB06G16KT 10SM CLR M04/M17 A3017 640 37 -1400 VRB/06G16 RMK AO2
14837KMSN MSN20071129131510211/29/07 13:15:31  5-MIN KMSN 291915Z 27011G16KT 10SM CLR M03/M16 A3017 640 37 -1400 270/11G16 RMK AO2
14837KMSN MSN20071129132010211/29/07 13:20:31  5-MIN KMSN 291920Z 28008G16KT 10SM CLR M03/M17 A3017 640 35 -1400 280/08G16 RMK AO2
14837KMSN MSN20071129132511811/29/07 13:25:31  5-MIN KMSN 291925Z 26007G16KT 220V290 10SM CLR M03/M16 A3017 630 37 -1400 260/07G16 220V290 RMK AO2
14837KMSN MSN20071129133009611/29/07 13:30:31  5-MIN KMSN 291930Z 28008KT 10SM CLR M03/M17 A3017 630 35 -1400 280/08 RMK AO2
14837KMSN MSN20071129133511211/29/07 13:35:31  5-MIN KMSN 291935Z 26008KT 230V290 10SM CLR M04/M17 A3017 630 37 -1500 260/08 230V290 RMK AO2
14837KMSN MSN20071129134009611/29/07 13:40:31  5-MIN KMSN 291940Z 28008KT 10SM CLR M04/M17 A3017 630 37 -1500 280/08 RMK AO2
14837KMSN MSN20071129134510211/29/07 13:45:31  5-MIN KMSN 291945Z 29009G15KT 10SM CLR M03/M17 A3017 630 35 -1400 290/09G15 RMK AO2
14837KMSN MSN20071129135011911/29/07 13:50:31  5-MIN KMSN 291950Z 29007G15KT 10SM CLR M03/M17 A3018 630 35 -1400 290/07G15 RMK AO2 SLP233 T10331167
14837KMSN MSN20071129135509611/29/07 13:55:31  5-MIN KMSN 291955Z VRB06KT 10SM CLR M03/M17 A3018 630 35 -1400 VRB/06 RMK AO2
14837KMSN MSN20071129140009611/29/07 14:00:31  5-MIN KMSN 292000Z 26005KT 10SM CLR M03/M17 A3017 630 35 -1400 260/05 RMK AO2
14837KMSN MSN20071129140511211/29/07 14:05:31  5-MIN KMSN 292005Z 29008KT 250V310 10SM CLR M03/M17 A3017 630 34 -1300 290/08 250V310 RMK AO2
14837KMSN MSN20071129141010211/29/07 14:10:31  5-MIN KMSN 292010Z 29008G15KT 10SM CLR M03/M17 A3017 630 32 -1300 290/08G15 RMK AO2
14837KMSN MSN20071129141510211/29/07 14:15:31  5-MIN KMSN 292015Z 28008G15KT 10SM CLR M03/M17 A3017 630 32 -1300 280/08G15 RMK AO2
14837KMSN MSN20071129142010211/29/07 14:20:31  5-MIN KMSN 292020Z 27010G15KT 10SM CLR M03/M17 A3017 630 32 -1300 270/10G15 RMK AO2
14837KMSN MSN20071129142511811/29/07 14:25:31  5-MIN KMSN 292025Z 27007G15KT 240V300 10SM CLR M03/M17 A3018 630 32 -1300 270/07G15 240V300 RMK AO2
14837KMSN MSN20071129143010211/29/07 14:30:31  5-MIN KMSN 292030Z 27010G19KT 10SM CLR M02/M17 A3017 630 31 -1200 270/10G19 RMK AO2
14837KMSN MSN20071129143510211/29/07 14:35:31  5-MIN KMSN 292035Z 26005G19KT 10SM CLR M02/M17 A3018 630 31 -1200 260/05G19 RMK AO2
14837KMSN MSN20071129144010211/29/07 14:40:31  5-MIN KMSN 292040Z 27008G14KT 10SM CLR M02/M17 A3018 630 31 -1200 270/08G14 RMK AO2
14837KMSN MSN20071129144509611/29/07 14:45:31  5-MIN KMSN 292045Z 27009KT 10SM CLR M02/M18 A3018 630 29 -1200 270/09 RMK AO2
14837KMSN MSN20071129145012511/29/07 14:50:31  5-MIN KMSN 292050Z 27007G14KT 10SM CLR M02/M17 A3018 630 31 -1200 270/07G14 RMK AO2 SLP232 T10221172 58002
14837KMSN MSN20071129145509611/29/07 14:55:31  5-MIN KMSN 292055Z VRB06KT 10SM CLR M02/M17 A3017 630 31 -1200 VRB/06 RMK AO2
14837KMSN MSN20071129150009611/29/07 15:00:31  5-MIN KMSN 292100Z 28005KT 10SM CLR M02/M17 A3018 630 31 -1200 270/05 RMK AO2
14837KMSN MSN20071129150511211/29/07 15:05:31  5-MIN KMSN 292105Z 26007KT 230V290 10SM CLR M02/M17 A3018 630 32 -1200 260/07 230V290 RMK AO2
14837KMSN MSN20071129151009611/29/07 15:10:31  5-MIN KMSN 292110Z 27008KT 10SM CLR M02/M17 A3018 630 31 -1200 270/08 RMK AO2
14837KMSN MSN20071129151509611/29/07 15:15:31  5-MIN KMSN 292115Z 27008KT 10SM CLR M02/M18 A3018 630 29 -1200 270/08 RMK AO2
14837KMSN MSN20071129152009611/29/07 15:20:31  5-MIN KMSN 292120Z 29006KT 10SM CLR M02/M17 A3018 630 31 -1200 290/06 RMK AO2
14837KMSN MSN20071129152509611/29/07 15:25:31  5-MIN KMSN 292125Z VRB05KT 10SM CLR M02/M17 A3018 630 31 -1200 VRB/05 RMK AO2
14837KMSN MSN20071129153009611/29/07 15:30:31  5-MIN KMSN 292130Z 27005KT 10SM CLR M02/M17 A3018 630 31 -1200 270/05 RMK AO2
14837KMSN MSN20071129153509611/29/07 15:35:31  5-MIN KMSN 292135Z 28004KT 10SM CLR M02/M17 A3018 620 31 -1200 280/04 RMK AO2
14837KMSN MSN20071129154009611/29/07 15:40:31  5-MIN KMSN 292140Z 28007KT 10SM CLR M02/M17 A3019 620 31 -1300 280/07 RMK AO2
14837KMSN MSN20071129154509611/29/07 15:45:31  5-MIN KMSN 292145Z 26004KT 10SM CLR M03/M17 A3019 620 32 -1300 260/04 RMK AO2
14837KMSN MSN20071129155011611/29/07 15:50:31  5-MIN KMSN 292150Z 28007KT 10SM BKN100 M02/M17 A3019 610 31 -1300 280/07 RMK AO2 SLP238 T10221172
14837KMSN MSN20071129155509911/29/07 15:55:31  5-MIN KMSN 292155Z 28005KT 10SM BKN100 M02/M17 A3020 610 31 -1300 280/05 RMK AO2
14837KMSN MSN20071129160009911/29/07 16:00:31  5-MIN KMSN 292200Z VRB04KT 10SM BKN100 M03/M17 A3020 610 34 -1300 VRB/04 RMK AO2
14837KMSN MSN20071129160509911/29/07 16:05:31  5-MIN KMSN 292205Z VRB04KT 10SM BKN100 M02/M17 A3020 610 32 -1300 VRB/04 RMK AO2
14837KMSN MSN20071129161009911/29/07 16:10:31  5-MIN KMSN 292210Z VRB05KT 10SM BKN100 M02/M16 A3020 610 34 -1300 VRB/05 RMK AO2
14837KMSN MSN20071129161509911/29/07 16:15:31  5-MIN KMSN 292215Z 26006KT 10SM BKN100 M02/M16 A3019 610 34 -1300 260/06 RMK AO2
14837KMSN MSN20071129162009911/29/07 16:20:31  5-MIN KMSN 292220Z 26008KT 10SM BKN100 M02/M16 A3019 610 34 -1300 260/08 RMK AO2
14837KMSN MSN20071129162509911/29/07 16:25:31  5-MIN KMSN 292225Z VRB06KT 10SM BKN100 M02/M17 A3019 610 32 -1300 VRB/06 RMK AO2
14837KMSN MSN20071129163009911/29/07 16:30:31  5-MIN KMSN 292230Z 00000KT 10SM BKN100 M02/M17 A3019 610 32 -1300 000/00 RMK AO2
14837KMSN MSN20071129163509911/29/07 16:35:31  5-MIN KMSN 292235Z VRB05KT 10SM BKN100 M02/M17 A3019 610 32 -1300 VRB/05 RMK AO2
14837KMSN MSN20071129164009911/29/07 16:40:31  5-MIN KMSN 292240Z 25005KT 10SM OVC110 M02/M17 A3019 610 32 -1300 250/05 RMK AO2
14837KMSN MSN20071129164509911/29/07 16:45:31  5-MIN KMSN 292245Z VRB06KT 10SM OVC110 M02/M16 A3019 620 34 -1300 VRB/06 RMK AO2
14837KMSN MSN20071129165011611/29/07 16:50:31  5-MIN KMSN 292250Z VRB06KT 10SM OVC110 M02/M16 A3019 610 34 -1300 VRB/06 RMK AO2 SLP237 T10221161
14837KMSN MSN20071129165509611/29/07 16:55:31  5-MIN KMSN 292255Z 26005KT 10SM CLR M02/M16 A3019 620 34 -1300 260/05 RMK AO2
14837KMSN MSN20071129170009611/29/07 17:00:31  5-MIN KMSN 292300Z 27004KT 10SM CLR M02/M16 A3020 610 34 -1300 270/04 RMK AO2
14837KMSN MSN20071129170509611/29/07 17:05:31  5-MIN KMSN 292305Z 26006KT 10SM CLR M02/M16 A3020 610 34 -1300 250/06 RMK AO2
14837KMSN MSN20071129171009611/29/07 17:10:31  5-MIN KMSN 292310Z 27004KT 10SM CLR M02/M16 A3019 610 35 -1300 270/04 RMK AO2
14837KMSN MSN20071129171509611/29/07 17:15:31  5-MIN KMSN 292315Z VRB04KT 10SM CLR M02/M16 A3019 610 35 -1300 VRB/04 RMK AO2
14837KMSN MSN20071129172009611/29/07 17:20:31  5-MIN KMSN 292320Z VRB05KT 10SM CLR M02/M16 A3019 620 35 -1300 VRB/05 RMK AO2
14837KMSN MSN20071129172509611/29/07 17:25:31  5-MIN KMSN 292325Z VRB04KT 10SM CLR M02/M16 A3019 620 34 -1300 VRB/04 RMK AO2
14837KMSN MSN20071129173009611/29/07 17:30:31  5-MIN KMSN 292330Z VRB05KT 10SM CLR M02/M16 A3019 620 34 -1300 VRB/05 RMK AO2
14837KMSN MSN20071129173509611/29/07 17:35:31  5-MIN KMSN 292335Z VRB06KT 10SM CLR M02/M16 A3018 620 34 -1300 VRB/06 RMK AO2
14837KMSN MSN20071129174011211/29/07 17:40:31  5-MIN KMSN 292340Z 26007KT 240V310 10SM CLR M02/M16 A3018 620 34 -1300 260/07 240V310 RMK AO2
14837KMSN MSN20071129174509611/29/07 17:45:31  5-MIN KMSN 292345Z 26004KT 10SM CLR M02/M16 A3018 620 34 -1300 260/04 RMK AO2
14837KMSN MSN20071129175013111/29/07 17:50:31  5-MIN KMSN 292350Z VRB04KT 10SM CLR M02/M16 A3019 620 34 -1300 VRB/04 RMK AO2 SLP236 T10221161 11017 21044 50005
14837KMSN MSN20071129175509611/29/07 17:55:31  5-MIN KMSN 292355Z VRB03KT 10SM CLR M02/M16 A3019 620 34 -1300 VRB/03 RMK AO2
14837KMSN MSN20071129180009611/29/07 18:00:31  5-MIN KMSN 300000Z VRB04KT 10SM CLR M02/M16 A3019 610 34 -1300 VRB/04 RMK AO2
14837KMSN MSN20071129180509611/29/07 18:05:31  5-MIN KMSN 300005Z VRB05KT 10SM CLR M02/M16 A3019 610 34 -1300 VRB/05 RMK AO2
14837KMSN MSN20071129181009611/29/07 18:10:31  5-MIN KMSN 300010Z VRB04KT 10SM CLR M03/M16 A3019 610 37 -1300 VRB/04 RMK AO2
14837KMSN MSN20071129181509611/29/07 18:15:31  5-MIN KMSN 300015Z 26004KT 10SM CLR M02/M16 A3019 610 35 -1300 260/04 RMK AO2
14837KMSN MSN20071129182009611/29/07 18:20:31  5-MIN KMSN 300020Z 25004KT 10SM CLR M03/M16 A3019 610 37 -1300 250/04 RMK AO2
14837KMSN MSN20071129182509611/29/07 18:25:31  5-MIN KMSN 300025Z VRB04KT 10SM CLR M03/M15 A3019 610 39 -1300 VRB/04 RMK AO2
14837KMSN MSN20071129183009611/29/07 18:30:31  5-MIN KMSN 300030Z VRB03KT 10SM CLR M03/M15 A3019 610 39 -1300 VRB/03 RMK AO2
14837KMSN MSN20071129183509911/29/07 18:35:31  5-MIN KMSN 300035Z 00000KT 10SM FEW120 M03/M15 A3019 610 39 -1300 000/00 RMK AO2
14837KMSN MSN20071129184009911/29/07 18:40:31  5-MIN KMSN 300040Z 00000KT 10SM FEW120 M03/M15 A3019 610 39 -1300 000/00 RMK AO2
14837KMSN MSN20071129184509911/29/07 18:45:31  5-MIN KMSN 300045Z 25004KT 10SM FEW120 M03/M14 A3019 610 40 -1300 250/04 RMK AO2
14837KMSN MSN20071129185011611/29/07 18:50:31  5-MIN KMSN 300050Z 25005KT 10SM FEW120 M02/M14 A3019 610 39 -1300 250/05 RMK AO2 SLP238 T10221144
14837KMSN MSN20071129185509911/29/07 18:55:31  5-MIN KMSN 300055Z 00000KT 10SM FEW120 M02/M14 A3019 620 39 -1300 000/00 RMK AO2
14837KMSN MSN20071129190009911/29/07 19:00:31  5-MIN KMSN 300100Z VRB04KT 10SM FEW120 M03/M14 A3019 620 40 -1300 VRB/04 RMK AO2
14837KMSN MSN20071129190509911/29/07 19:05:31  5-MIN KMSN 300105Z VRB04KT 10SM FEW120 M02/M14 A3019 620 39 -1300 VRB/04 RMK AO2
14837KMSN MSN20071129191009611/29/07 19:10:31  5-MIN KMSN 300110Z 23005KT 10SM CLR M02/M14 A3019 620 39 -1300 230/05 RMK AO2
14837KMSN MSN20071129191509611/29/07 19:15:31  5-MIN KMSN 300115Z 23005KT 10SM CLR M02/M14 A3019 620 39 -1300 230/05 RMK AO2
14837KMSN MSN20071129192009911/29/07 19:20:31  5-MIN KMSN 300120Z 22005KT 10SM SCT080 M02/M14 A3019 620 40 -1300 220/05 RMK AO2
14837KMSN MSN20071129192509911/29/07 19:25:31  5-MIN KMSN 300125Z VRB04KT 10SM BKN080 M02/M14 A3019 620 40 -1300 VRB/04 RMK AO2
14837KMSN MSN20071129193009911/29/07 19:30:31  5-MIN KMSN 300130Z 23004KT 10SM BKN080 M02/M14 A3019 620 40 -1300 230/04 RMK AO2
14837KMSN MSN20071129193509911/29/07 19:35:31  5-MIN KMSN 300135Z 23005KT 10SM BKN080 M02/M14 A3019 620 40 -1300 230/05 RMK AO2
14837KMSN MSN20071129194009911/29/07 19:40:31  5-MIN KMSN 300140Z 23003KT 10SM OVC075 M02/M14 A3018 620 40 -1300 230/03 RMK AO2
14837KMSN MSN20071129194509911/29/07 19:45:31  5-MIN KMSN 300145Z 23005KT 10SM OVC075 M02/M14 A3018 620 40 -1200 230/05 RMK AO2
14837KMSN MSN20071129195011611/29/07 19:50:31  5-MIN KMSN 300150Z VRB04KT 10SM OVC075 M02/M13 A3019 620 42 -1300 VRB/04 RMK AO2 SLP235 T10221133
14837KMSN MSN20071129195509911/29/07 19:55:31  5-MIN KMSN 300155Z 22005KT 10SM OVC075 M02/M13 A3019 620 42 -1300 220/05 RMK AO2
14837KMSN MSN20071129200009911/29/07 20:00:31  5-MIN KMSN 300200Z 22007KT 10SM OVC075 M02/M13 A3019 620 41 -1200 220/07 RMK AO2
14837KMSN MSN20071129200509911/29/07 20:05:31  5-MIN KMSN 300205Z 22007KT 10SM OVC075 M02/M14 A3019 620 39 -1200 220/07 RMK AO2
14837KMSN MSN20071129201009911/29/07 20:10:31  5-MIN KMSN 300210Z 23005KT 10SM OVC075 M02/M13 A3019 620 41 -1200 230/05 RMK AO2
14837KMSN MSN20071129201509911/29/07 20:15:31  5-MIN KMSN 300215Z 23005KT 10SM OVC075 M02/M13 A3018 620 41 -1200 230/05 RMK AO2
14837KMSN MSN20071129202009911/29/07 20:20:31  5-MIN KMSN 300220Z 22005KT 10SM OVC075 M02/M13 A3018 620 42 -1200 220/05 RMK AO2
14837KMSN MSN20071129202509911/29/07 20:25:31  5-MIN KMSN 300225Z 22004KT 10SM OVC075 M02/M13 A3018 630 42 -1200 220/04 RMK AO2
14837KMSN MSN20071129203009911/29/07 20:30:31  5-MIN KMSN 300230Z 23005KT 10SM OVC070 M02/M13 A3018 630 42 -1200 230/05 RMK AO2
14837KMSN MSN20071129203510611/29/07 20:35:31  5-MIN KMSN 300235Z 24003KT 10SM BKN070 OVC100 M02/M12 A3017 630 44 -1200 240/03 RMK AO2
14837KMSN MSN20071129204010611/29/07 20:40:31  5-MIN KMSN 300240Z 24003KT 10SM BKN070 OVC100 M02/M12 A3017 630 44 -1200 230/03 RMK AO2
14837KMSN MSN20071129204510611/29/07 20:45:31  5-MIN KMSN 300245Z 23005KT 10SM SCT070 OVC095 M02/M12 A3018 630 46 -1200 230/05 RMK AO2
14837KMSN MSN20071129205012911/29/07 20:50:31  5-MIN KMSN 300250Z 23004KT 10SM FEW070 OVC095 M02/M12 A3017 630 46 -1200 230/04 RMK AO2 SLP232 T10171117 50004
14837KMSN MSN20071129205511311/29/07 20:55:31  5-MIN KMSN 300255Z 22004KT 10SM FEW065 BKN095 OVC120 M02/M12 A3017 630 46 -1200 220/04 RMK AO2
14837KMSN MSN20071129210010611/29/07 21:00:31  5-MIN KMSN 300300Z 23005KT 10SM BKN095 BKN110 M02/M12 A3017 630 44 -1200 220/05 RMK AO2
14837KMSN MSN20071129210510611/29/07 21:05:31  5-MIN KMSN 300305Z 21004KT 10SM BKN090 BKN110 M02/M12 A3017 630 44 -1200 210/04 RMK AO2
14837KMSN MSN20071129211010611/29/07 21:10:31  5-MIN KMSN 300310Z 22004KT 10SM SCT090 BKN110 M02/M12 A3017 640 44 -1200 220/04 RMK AO2
14837KMSN MSN20071129211510611/29/07 21:15:31  5-MIN KMSN 300315Z 22003KT 10SM SCT085 BKN110 M02/M12 A3017 640 44 -1200 220/03 RMK AO2
14837KMSN MSN20071129212009911/29/07 21:20:31  5-MIN KMSN 300320Z 22004KT 10SM BKN100 M02/M12 A3017 640 46 -1200 220/04 RMK AO2
14837KMSN MSN20071129212509911/29/07 21:25:31  5-MIN KMSN 300325Z 21004KT 10SM BKN100 M02/M12 A3016 640 46 -1200 210/04 RMK AO2
14837KMSN MSN20071129213009911/29/07 21:30:31  5-MIN KMSN 300330Z 21004KT 10SM BKN100 M02/M12 A3016 640 46 -1200 210/04 RMK AO2
14837KMSN MSN20071129213509911/29/07 21:35:31  5-MIN KMSN 300335Z 21005KT 10SM BKN100 M02/M12 A3016 650 46 -1100 210/05 RMK AO2
14837KMSN MSN20071129214009911/29/07 21:40:31  5-MIN KMSN 300340Z 20006KT 10SM OVC100 M02/M11 A3015 650 49 -1100 200/06 RMK AO2
14837KMSN MSN20071129214509911/29/07 21:45:31  5-MIN KMSN 300345Z 20005KT 10SM OVC100 M02/M11 A3015 650 49 -1100 200/05 RMK AO2
14837KMSN MSN20071129215011611/29/07 21:50:31  5-MIN KMSN 300350Z 19003KT 10SM OVC100 M02/M11 A3015 650 49 -1100 190/03 RMK AO2 SLP223 T10171111
14837KMSN MSN20071129215509911/29/07 21:55:31  5-MIN KMSN 300355Z 19004KT 10SM OVC100 M02/M12 A3015 650 48 -1200 190/04 RMK AO2
14837KMSN MSN20071129220009911/29/07 22:00:31  5-MIN KMSN 300400Z 20004KT 10SM OVC100 M02/M12 A3015 650 48 -1200 190/04 RMK AO2
14837KMSN MSN20071129220509911/29/07 22:05:31  5-MIN KMSN 300405Z 20005KT 10SM OVC100 M02/M12 A3015 650 46 -1100 200/05 RMK AO2
14837KMSN MSN20071129221009911/29/07 22:10:31  5-MIN KMSN 300410Z 20005KT 10SM OVC095 M02/M12 A3015 650 46 -1100 200/05 RMK AO2
14837KMSN MSN20071129221509911/29/07 22:15:31  5-MIN KMSN 300415Z 20005KT 10SM OVC095 M02/M12 A3015 650 46 -1100 200/05 RMK AO2
14837KMSN MSN20071129222009911/29/07 22:20:31  5-MIN KMSN 300420Z 20004KT 10SM OVC090 M02/M11 A3015 650 49 -1100 200/04 RMK AO2
14837KMSN MSN20071129222510611/29/07 22:25:31  5-MIN KMSN 300425Z 21003KT 10SM BKN080 OVC095 M02/M11 A3015 650 49 -1100 210/03 RMK AO2
14837KMSN MSN20071129223010611/29/07 22:30:31  5-MIN KMSN 300430Z 22003KT 10SM BKN070 OVC090 M02/M11 A3015 650 51 -1100 220/03 RMK AO2
14837KMSN MSN20071129223510611/29/07 22:35:31  5-MIN KMSN 300435Z 21004KT 10SM BKN070 OVC090 M02/M11 A3015 650 51 -1100 210/04 RMK AO2
14837KMSN MSN20071129224010611/29/07 22:40:31  5-MIN KMSN 300440Z 20003KT 10SM BKN065 OVC090 M02/M11 A3015 650 51 -1100 200/03 RMK AO2
14837KMSN MSN20071129224510611/29/07 22:45:31  5-MIN KMSN 300445Z 00000KT 10SM BKN065 OVC085 M02/M11 A3015 650 51 -1100 000/00 RMK AO2
14837KMSN MSN20071129225012311/29/07 22:50:31  5-MIN KMSN 300450Z 00000KT 10SM BKN065 OVC080 M02/M10 A3014 660 53 -1100 000/00 RMK AO2 SLP221 T10171100
14837KMSN MSN20071129225510611/29/07 22:55:31  5-MIN KMSN 300455Z 00000KT 10SM BKN065 OVC080 M02/M10 A3014 660 53 -1100 000/00 RMK AO2
14837KMSN MSN20071129230010611/29/07 23:00:31  5-MIN KMSN 300500Z 00000KT 10SM BKN065 OVC080 M02/M10 A3014 660 53 -1100 000/00 RMK AO2
14837KMSN MSN20071129230511311/29/07 23:05:31  5-MIN KMSN 300505Z 23003KT 10SM SCT065 BKN080 OVC100 M02/M10 A3014 660 53 -1100 230/03 RMK AO2
14837KMSN MSN20071129231010611/29/07 23:10:31  5-MIN KMSN 300510Z 00000KT 10SM SCT075 OVC095 M02/M10 A3014 660 53 -1100 000/00 RMK AO2
14837KMSN MSN20071129231509911/29/07 23:15:31  5-MIN KMSN 300515Z 00000KT 10SM OVC090 M02/M10 A3014 660 53 -1100 000/00 RMK AO2
14837KMSN MSN20071129232010611/29/07 23:20:31  5-MIN KMSN 300520Z 00000KT 10SM SCT075 OVC090 M02/M10 A3014 660 53 -1100 000/00 RMK AO2
14837KMSN MSN20071129232510611/29/07 23:25:31  5-MIN KMSN 300525Z 00000KT 10SM BKN080 OVC100 M02/M10 A3014 660 53 -1100 000/00 RMK AO2
14837KMSN MSN20071129233010611/29/07 23:30:31  5-MIN KMSN 300530Z 00000KT 10SM BKN080 OVC100 M02/M10 A3014 660 53 -1100 000/00 RMK AO2
14837KMSN MSN20071129233509911/29/07 23:35:31  5-MIN KMSN 300535Z 00000KT 10SM OVC090 M02/M10 A3014 660 53 -1100 000/00 RMK AO2
14837KMSN MSN20071129234010611/29/07 23:40:31  5-MIN KMSN 300540Z 00000KT 10SM BKN080 OVC100 M02/M09 A3014 670 55 -1100 000/00 RMK AO2
14837KMSN MSN20071129234510611/29/07 23:45:31  5-MIN KMSN 300545Z 00000KT 10SM SCT080 OVC100 M03/M09 A3013 670 60 -1300 000/00 RMK AO2
14837KMSN MSN20071129235015111/29/07 23:50:31  5-MIN KMSN 300550Z 00000KT 10SM SCT075 OVC095 M03/M09 A3013 670 60 -1300 000/00 RMK AO2 SLP216 T10281094 11017 21028 410171094 58004
14837KMSN MSN20071129235510611/29/07 23:55:31  5-MIN KMSN 300555Z 00000KT 10SM SCT075 OVC095 M03/M09 A3013 670 63 -1300 000/00 RMK AO2
14837KMSN MSN20071130000010611/30/07 00:00:32  5-MIN KMSN 300600Z 00000KT 10SM FEW070 OVC095 M03/M09 A3013 680 60 -1300 000/00 RMK AO2
14837KMSN MSN20071130000510611/30/07 00:05:31  5-MIN KMSN 300605Z 00000KT 10SM FEW070 OVC095 M03/M09 A3012 680 60 -1300 000/00 RMK AO2
14837KMSN MSN20071130001010611/30/07 00:10:31  5-MIN KMSN 300610Z 00000KT 10SM FEW070 OVC100 M03/M09 A3012 680 60 -1300 000/00 RMK AO2
14837KMSN MSN20071130001511311/30/07 00:15:31  5-MIN KMSN 300615Z 00000KT 10SM SCT065 SCT080 OVC095 M03/M09 A3012 680 60 -1200 000/00 RMK AO2
14837KMSN MSN20071130002010611/30/07 00:20:31  5-MIN KMSN 300620Z 00000KT 10SM SCT065 OVC095 M03/M09 A3012 680 63 -1200 000/00 RMK AO2
14837KMSN MSN20071130002511311/30/07 00:25:31  5-MIN KMSN 300625Z 00000KT 10SM BKN065 BKN080 OVC100 M03/M09 A3012 680 65 -1300 000/00 RMK AO2
14837KMSN MSN20071130003011311/30/07 00:30:31  5-MIN KMSN 300630Z 00000KT 10SM BKN065 BKN080 OVC100 M03/M09 A3011 680 65 -1300 000/00 RMK AO2
14837KMSN MSN20071130003510611/30/07 00:35:31  5-MIN KMSN 300635Z 00000KT 10SM BKN065 OVC090 M03/M08 A3011 690 68 -1300 000/00 RMK AO2
14837KMSN MSN20071130004009911/30/07 00:40:31  5-MIN KMSN 300640Z 00000KT 10SM OVC065 M03/M08 A3011 690 68 -1300 000/00 RMK AO2
14837KMSN MSN20071130004509911/30/07 00:45:31  5-MIN KMSN 300645Z 02003KT 10SM OVC060 M03/M09 A3011 690 65 -1300 010/03 RMK AO2
14837KMSN MSN20071130005011611/30/07 00:50:31  5-MIN KMSN 300650Z 36004KT 10SM OVC060 M03/M08 A3011 690 66 -1200 360/04 RMK AO2 SLP209 T10281083
14837KMSN MSN20071130005509911/30/07 00:55:31  5-MIN KMSN 300655Z 36005KT 10SM OVC060 M03/M09 A3011 690 63 -1200 360/05 RMK AO2
14837KMSN MSN20071130010009911/30/07 01:00:31  5-MIN KMSN 300700Z 36004KT 10SM OVC060 M03/M09 A3011 690 63 -1200 360/04 RMK AO2
14837KMSN MSN20071130010509911/30/07 01:05:31  5-MIN KMSN 300705Z 36004KT 10SM OVC060 M03/M09 A3011 690 63 -1200 360/04 RMK AO2
14837KMSN MSN20071130011009911/30/07 01:10:31  5-MIN KMSN 300710Z 34004KT 10SM OVC055 M03/M09 A3011 690 63 -1200 340/04 RMK AO2
14837KMSN MSN20071130011509911/30/07 01:15:31  5-MIN KMSN 300715Z 35003KT 10SM OVC055 M03/M10 A3011 690 58 -1200 350/03 RMK AO2
14837KMSN MSN20071130012009911/30/07 01:20:31  5-MIN KMSN 300720Z 35003KT 10SM OVC050 M03/M10 A3011 690 58 -1200 350/03 RMK AO2
14837KMSN MSN20071130012509911/30/07 01:25:31  5-MIN KMSN 300725Z 35003KT 10SM OVC050 M03/M10 A3011 690 58 -1200 350/03 RMK AO2
14837KMSN MSN20071130013009911/30/07 01:30:31  5-MIN KMSN 300730Z 00000KT 10SM OVC050 M03/M10 A3011 690 58 -1200 000/00 RMK AO2
14837KMSN MSN20071130013509911/30/07 01:35:31  5-MIN KMSN 300735Z 01003KT 10SM OVC045 M03/M10 A3011 690 58 -1200 010/03 RMK AO2
14837KMSN MSN20071130014009911/30/07 01:40:31  5-MIN KMSN 300740Z 35003KT 10SM OVC043 M03/M10 A3012 680 58 -1200 350/03 RMK AO2
14837KMSN MSN20071130014509911/30/07 01:45:31  5-MIN KMSN 300745Z 35003KT 10SM OVC043 M03/M10 A3012 680 58 -1200 350/03 RMK AO2
14837KMSN MSN20071130015011611/30/07 01:50:31  5-MIN KMSN 300750Z 36003KT 10SM OVC039 M03/M11 A3011 690 55 -1200 360/03 RMK AO2 SLP209 T10281106
14837KMSN MSN20071130015509911/30/07 01:55:31  5-MIN KMSN 300755Z 36003KT 10SM OVC037 M03/M10 A3011 690 58 -1200 360/03 RMK AO2
14837KMSN MSN20071130020009911/30/07 02:00:31  5-MIN KMSN 300800Z 36003KT 10SM OVC042 M03/M10 A3011 690 58 -1200 360/03 RMK AO2
14837KMSN MSN20071130020510611/30/07 02:05:31  5-MIN KMSN 300805Z 01003KT 10SM BKN049 OVC065 M03/M10 A3011 690 58 -1200 010/03 RMK AO2
14837KMSN MSN20071130021010611/30/07 02:10:31  5-MIN KMSN 300810Z 35003KT 10SM BKN049 OVC065 M03/M10 A3011 690 58 -1200 350/03 RMK AO2
14837KMSN MSN20071130021510611/30/07 02:15:31  5-MIN KMSN 300815Z 35003KT 10SM BKN049 OVC065 M03/M10 A3011 690 58 -1200 350/03 RMK AO2
14837KMSN MSN20071130022009911/30/07 02:20:31  5-MIN KMSN 300820Z 34004KT 10SM OVC055 M03/M10 A3012 680 58 -1200 340/04 RMK AO2
14837KMSN MSN20071130022510611/30/07 02:25:31  5-MIN KMSN 300825Z 35007KT 10SM BKN050 OVC065 M03/M11 A3012 680 55 -1200 350/07 RMK AO2
14837KMSN MSN20071130023009911/30/07 02:30:31  5-MIN KMSN 300830Z 36008KT 10SM OVC055 M03/M10 A3012 680 58 -1200 360/08 RMK AO2
14837KMSN MSN20071130023509911/30/07 02:35:31  5-MIN KMSN 300835Z 35007KT 10SM OVC060 M03/M09 A3012 680 63 -1300 350/07 RMK AO2
14837KMSN MSN20071130024009911/30/07 02:40:31  5-MIN KMSN 300840Z 35006KT 10SM OVC060 M03/M09 A3012 680 63 -1300 350/06 RMK AO2
14837KMSN MSN20071130024509911/30/07 02:45:31  5-MIN KMSN 300845Z 35007KT 10SM OVC060 M03/M08 A3012 680 68 -1300 350/07 RMK AO2
14837KMSN MSN20071130025012211/30/07 02:50:31  5-MIN KMSN 300850Z 35005KT 10SM OVC060 M03/M08 A3012 680 71 -1300 350/05 RMK AO2 SLP212 T10331078 56015
14837KMSN MSN20071130025509811/30/07 02:55:31  5-MIN KMSN 300855Z 35005KT 9SM OVC060 M04/M07 A3012 680 78 -1400 350/05 RMK AO2
14837KMSN MSN20071130030009811/30/07 03:00:31  5-MIN KMSN 300900Z 35004KT 9SM OVC060 M04/M07 A3012 680 78 -1400 350/04 RMK AO2
14837KMSN MSN20071130030510511/30/07 03:05:31  5-MIN KMSN 300905Z 34007KT 8SM BKN050 OVC065 M04/M07 A3012 680 78 -1400 340/07 RMK AO2
14837KMSN MSN20071130031012811/30/07 03:10:31  5-MIN KMSN 300910Z 35005KT 6SM -SN FEW010 BKN042 OVC070 M04/M07 A3012 680 81 -1400 350/05 RMK AO2 SNB06 P0000
14837KMSN MSN20071130031512811/30/07 03:15:31  5-MIN KMSN 300915Z 34005KT 4SM -SN SCT010 BKN040 OVC050 M04/M07 A3012 680 81 -1400 340/05 RMK AO2 SNB06 P0000
14837KMSN MSN20071130032012811/30/07 03:20:31  5-MIN KMSN 300920Z 34005KT 3SM -SN BKN010 BKN038 OVC050 M04/M07 A3012 680 81 -1400 330/05 RMK AO2 SNB06 P0000
14837KMSN MSN20071130032513111/30/07 03:25:31  5-MIN KMSN 300925Z 34005KT 2SM -SN BR BKN010 BKN030 OVC050 M04/M06 A3012 680 85 -1400 340/05 RMK AO2 SNB06 P0000
14837KMSN MSN20071130033012811/30/07 03:30:31  5-MIN KMSN 300930Z 35007KT 1 1/2SM -SN BR BKN012 OVC017 M04/M06 A3012 680 88 -1500 350/07 RMK AO2 SNB06 P0001
14837KMSN MSN20071130033512111/30/07 03:35:31  5-MIN KMSN 300935Z 35003KT 1 1/2SM -SN BR OVC012 M04/M06 A3012 680 88 -1500 350/03 RMK AO2 SNB06 P0001
14837KMSN MSN20071130034012411/30/07 03:40:31  5-MIN KMSN 300940Z 35005KT 2SM -SN BR BKN012 OVC085 M04/M06 A3012 680 88 -1500 350/05 RMK AO2 SNB06 P0001
14837KMSN MSN20071130034512111/30/07 03:45:31  5-MIN KMSN 300945Z 34005KT 2 1/2SM -SN BR OVC012 M04/M07 A3012 680 84 -1500 340/05 RMK AO2 SNB06 P0001
14837KMSN MSN20071130035014111/30/07 03:50:31  5-MIN KMSN 300950Z 34005KT 4SM -SN BR BKN008 OVC012 M04/M07 A3012 680 84 -1500 340/05 RMK AO2 SNB06 SLP214 P0001 T10441067
14837KMSN MSN20071130035511311/30/07 03:55:31  5-MIN KMSN 300955Z 34004KT 5SM BR OVC010 M04/M07 A3013 670 84 -1500 340/04 RMK AO2 SNE55 P0000
14837KMSN MSN20071130040011811/30/07 04:00:31  5-MIN KMSN 301000Z 33006KT 5SM -SN BR BKN008 OVC012 M04/M06 A3014 670 88 -1500 330/06 RMK AO2 P0000
14837KMSN MSN20071130040513011/30/07 04:05:31  5-MIN KMSN 301005Z 31006KT 6SM -SN BR BKN008 OVC015 M04/M06 A3014 660 88 -1500 310/06 RMK AO2 CIG 007V012 P0000
14837KMSN MSN20071130041012711/30/07 04:10:31  5-MIN KMSN 301010Z 32006KT 7SM -SN BKN008 OVC015 M04/M07 A3014 660 84 -1500 320/06 RMK AO2 CIG 007V011 P0000
14837KMSN MSN20071130041512211/30/07 04:15:31  5-MIN KMSN 301015Z 31004KT 8SM -SN SCT008 BKN015 OVC034 M04/M07 A3013 670 84 -1500 310/04 RMK AO2 P0000
14837KMSN MSN20071130042012211/30/07 04:20:31  5-MIN KMSN 301020Z 00000KT 8SM -SN SCT008 BKN015 OVC036 M04/M07 A3013 670 84 -1500 000/00 RMK AO2 P0000
14837KMSN MSN20071130042512211/30/07 04:25:31  5-MIN KMSN 301025Z 00000KT 8SM -SN FEW008 BKN036 OVC043 M04/M07 A3013 670 84 -1500 000/00 RMK AO2 P0000
14837KMSN MSN20071130043012211/30/07 04:30:31  5-MIN KMSN 301030Z VRB03KT 8SM -SN SCT015 BKN036 OVC043 M04/M07 A3013 670 84 -1500 VRB/03 RMK AO2 P0000
14837KMSN MSN20071130043512211/30/07 04:35:31  5-MIN KMSN 301035Z 30005KT 8SM -SN FEW013 BKN036 OVC043 M04/M07 A3014 660 84 -1500 300/05 RMK AO2 P0000
14837KMSN MSN20071130044012211/30/07 04:40:31  5-MIN KMSN 301040Z 28005KT 8SM -SN FEW014 BKN036 OVC045 M04/M07 A3014 660 84 -1500 280/05 RMK AO2 P0000
14837KMSN MSN20071130044512211/30/07 04:45:31  5-MIN KMSN 301045Z 29004KT 8SM -SN BKN036 BKN045 OVC055 M04/M07 A3014 660 81 -1500 290/04 RMK AO2 P0000
14837KMSN MSN20071130045014711/30/07 04:50:31  5-MIN KMSN 301050Z 29010G15KT 8SM FEW011 BKN036 OVC055 M04/M07 A3015 650 81 -1500 290/10G15 RMK AO2 SNE48 SLP224 P0000 T10441072
14837KMSN MSN20071130045511811/30/07 04:55:31  5-MIN KMSN 301055Z 29011G17KT 9SM FEW011 BKN040 OVC055 M05/M08 A3016 640 81 -1600 290/11G17 RMK AO2
14837KMSN MSN20071130050011911/30/07 05:00:31  5-MIN KMSN 301100Z 30010G20KT 10SM FEW011 BKN040 OVC050 M05/M08 A3016 640 77 -1600 300/10G20 RMK AO2
14837KMSN MSN20071130050511911/30/07 05:05:31  5-MIN KMSN 301105Z 30008G20KT 10SM FEW011 BKN040 OVC050 M05/M08 A3016 640 77 -1600 300/08G20 RMK AO2
14837KMSN MSN20071130051011311/30/07 05:10:31  5-MIN KMSN 301110Z 30011KT 10SM FEW011 BKN040 OVC050 M05/M08 A3016 640 77 -1600 300/11 RMK AO2
14837KMSN MSN20071130051511911/30/07 05:15:31  5-MIN KMSN 301115Z 31007G16KT 10SM FEW011 SCT018 OVC040 M05/M08 A3016 640 77 -1600 310/07G16 RMK AO2
14837KMSN MSN20071130052011211/30/07 05:20:31  5-MIN KMSN 301120Z 30007G16KT 10SM BKN018 OVC040 M05/M08 A3016 640 77 -1600 300/07G16 RMK AO2
14837KMSN MSN20071130052510611/30/07 05:25:31  5-MIN KMSN 301125Z 30006KT 10SM BKN018 OVC040 M05/M08 A3017 640 77 -1600 300/06 RMK AO2
14837KMSN MSN20071130053010611/30/07 05:30:31  5-MIN KMSN 301130Z 30007KT 10SM BKN018 OVC040 M05/M08 A3017 630 77 -1600 300/07 RMK AO2
14837KMSN MSN20071130053511511/30/07 05:35:31  5-MIN KMSN 301135Z 30008KT 270V330 10SM OVC016 M06/M08 A3018 630 81 -1700 300/08 270V330 RMK AO2
14837KMSN MSN20071130054010611/30/07 05:40:31  5-MIN KMSN 301140Z 30009KT 10SM OVC016 M06/M09 A3018 620 77 -1700 300/09 RMK AO2 PRESRR
14837KMSN MSN20071130054509911/30/07 05:45:31  5-MIN KMSN 301145Z 30008KT 10SM OVC018 M06/M09 A3019 620 74 -1700 300/08 RMK AO2
14837KMSN MSN20071130055015311/30/07 05:50:31  5-MIN KMSN 301150Z 31010KT 10SM BKN018 OVC024 M06/M10 A3019 620 71 -1700 310/10 RMK AO2 SLP235 60001 70001 T10561100 11028 21056 55002
14837KMSN MSN20071130055509911/30/07 05:55:31  5-MIN KMSN 301155Z 30006KT 10SM OVC020 M06/M10 A3019 620 74 -1800 300/06 RMK AO2
14837KMSN MSN20071130060010511/30/07 06:00:31  5-MIN KMSN 301200Z 31009G17KT 10SM OVC020 M06/M10 A3019 620 71 -1700 310/09G17 RMK AO2
14837KMSN MSN20071130060510511/30/07 06:05:31  5-MIN KMSN 301205Z 29010G17KT 10SM OVC020 M06/M10 A3019 610 74 -1800 290/10G17 RMK AO2
14837KMSN MSN20071130061010511/30/07 06:10:31  5-MIN KMSN 301210Z 29010G17KT 10SM BKN020 M06/M10 A3020 610 74 -1800 290/10G17 RMK AO2
14837KMSN MSN20071130061510511/30/07 06:15:31  5-MIN KMSN 301215Z 30006G17KT 10SM BKN020 M07/M11 A3020 600 71 -1800 300/06G17 RMK AO2
14837KMSN MSN20071130062010511/30/07 06:20:31  5-MIN KMSN 301220Z 30008G15KT 10SM SCT020 M07/M11 A3021 600 71 -1800 300/08G15 RMK AO2
14837KMSN MSN20071130062510511/30/07 06:25:31  5-MIN KMSN 301225Z 30008G15KT 10SM SCT020 M07/M11 A3021 600 71 -1800 300/08G15 RMK AO2
14837KMSN MSN20071130063009911/30/07 06:30:31  5-MIN KMSN 301230Z 30009KT 10SM FEW020 M07/M11 A3021 600 71 -1900 290/09 RMK AO2
14837KMSN MSN20071130063509611/30/07 06:35:31  5-MIN KMSN 301235Z 29007KT 10SM CLR M07/M11 A3022 590 74 -1900 290/07 RMK AO2
14837KMSN MSN20071130064010511/30/07 06:40:31  5-MIN KMSN 301240Z 29010G15KT 10SM FEW020 M07/M12 A3022 590 71 -1900 290/10G15 RMK AO2
14837KMSN MSN20071130064510511/30/07 06:45:31  5-MIN KMSN 301245Z 29011G16KT 10SM FEW020 M07/M12 A3023 580 71 -1900 290/11G16 RMK AO2
14837KMSN MSN20071130065012211/30/07 06:50:31  5-MIN KMSN 301250Z 30010G17KT 10SM FEW020 M07/M12 A3023 580 68 -1900 290/10G17 RMK AO2 SLP250 T10721122
14837KMSN MSN20071130065510211/30/07 06:55:31  5-MIN KMSN 301255Z 30014G18KT 10SM CLR M07/M12 A3023 580 68 -1900 300/14G18 RMK AO2
14837KMSN MSN20071130070010511/30/07 07:00:31  5-MIN KMSN 301300Z 30011G18KT 10SM FEW020 M07/M12 A3023 570 68 -2000 300/11G18 RMK AO2
14837KMSN MSN20071130070510511/30/07 07:05:31  5-MIN KMSN 301305Z 30010G18KT 10SM FEW020 M08/M12 A3023 570 71 -2000 300/10G18 RMK AO2
14837KMSN MSN20071130071010511/30/07 07:10:31  5-MIN KMSN 301310Z 31013G19KT 10SM FEW020 M08/M13 A3024 570 67 -2000 300/13G19 RMK AO2
14837KMSN MSN20071130071510511/30/07 07:15:31  5-MIN KMSN 301315Z 30009G19KT 10SM FEW020 M08/M13 A3024 570 67 -2000 300/09G19 RMK AO2
14837KMSN MSN20071130072010511/30/07 07:20:31  5-MIN KMSN 301320Z 30010G18KT 10SM FEW020 M08/M13 A3024 570 67 -2000 290/10G18 RMK AO2
14837KMSN MSN20071130072510211/30/07 07:25:31  5-MIN KMSN 301325Z 29007G18KT 10SM CLR M08/M13 A3024 570 67 -2000 290/07G18 RMK AO2
14837KMSN MSN20071130073011811/30/07 07:30:31  5-MIN KMSN 301330Z 29007G18KT 260V320 10SM CLR M08/M13 A3024 570 67 -2000 290/07G18 260V320 RMK AO2
14837KMSN MSN20071130073510211/30/07 07:35:31  5-MIN KMSN 301335Z 29009G16KT 10SM CLR M08/M13 A3025 560 64 -2000 290/09G16 RMK AO2
14837KMSN MSN20071130074010211/30/07 07:40:31  5-MIN KMSN 301340Z 29008G18KT 10SM CLR M08/M13 A3025 560 64 -2000 290/08G18 RMK AO2
14837KMSN MSN20071130074510211/30/07 07:45:31  5-MIN KMSN 301345Z 29006G18KT 10SM CLR M08/M13 A3025 560 64 -2000 290/06G18 RMK AO2
14837KMSN MSN20071130075011911/30/07 07:50:31  5-MIN KMSN 301350Z 30006G15KT 10SM CLR M08/M13 A3025 560 64 -2000 300/06G15 RMK AO2 SLP258 T10781133
14837KMSN MSN20071130075510211/30/07 07:55:31  5-MIN KMSN 301355Z 29010G16KT 10SM CLR M08/M13 A3025 560 67 -2000 290/10G16 RMK AO2
14837KMSN MSN20071130080010211/30/07 08:00:31  5-MIN KMSN 301400Z 28010G18KT 10SM CLR M08/M13 A3026 550 67 -2100 280/10G18 RMK AO2
14837KMSN MSN20071130080510211/30/07 08:05:31  5-MIN KMSN 301405Z 29011G22KT 10SM CLR M08/M14 A3026 550 62 -2100 290/11G22 RMK AO2
14837KMSN MSN20071130081010211/30/07 08:10:31  5-MIN KMSN 301410Z 30008G22KT 10SM CLR M08/M14 A3026 550 62 -2100 300/08G22 RMK AO2
14837KMSN MSN20071130081511811/30/07 08:15:31  5-MIN KMSN 301415Z 30013G23KT 260V320 10SM CLR M08/M14 A3026 550 59 -2100 300/13G23 260V320 RMK AO2
14837KMSN MSN20071130082010211/30/07 08:20:31  5-MIN KMSN 301420Z 30011G23KT 10SM CLR M08/M15 A3026 550 56 -2100 300/11G23 RMK AO2
14837KMSN MSN20071130082510211/30/07 08:25:31  5-MIN KMSN 301425Z 30012G18KT 10SM CLR M08/M14 A3026 550 59 -2100 300/12G18 RMK AO2
14837KMSN MSN20071130083010211/30/07 08:30:31  5-MIN KMSN 301430Z 31009G18KT 10SM CLR M08/M15 A3026 550 56 -2100 310/09G18 RMK AO2
14837KMSN MSN20071130083510211/30/07 08:35:31  5-MIN KMSN 301435Z 30008G18KT 10SM CLR M08/M15 A3026 550 56 -2100 300/08G18 RMK AO2
14837KMSN MSN20071130084010211/30/07 08:40:31  5-MIN KMSN 301440Z 30013G21KT 10SM CLR M08/M15 A3026 550 56 -2100 300/13G21 RMK AO2
14837KMSN MSN20071130084510211/30/07 08:45:31  5-MIN KMSN 301445Z 31009G21KT 10SM CLR M08/M15 A3026 550 56 -2100 310/09G21 RMK AO2
14837KMSN MSN20071130085012511/30/07 08:50:31  5-MIN KMSN 301450Z 30010G18KT 10SM CLR M07/M15 A3027 540 54 -2000 300/10G18 RMK AO2 SLP264 T10721150 53021
14837KMSN MSN20071130085512311/30/07 08:55:31  5-MIN KMSN 301455Z 31017G26KT 10SM FEW035 M08/M16 A3027 540 51 -2100 310/17G26 RMK AO2 PK WND 32026/1455
14837KMSN MSN20071130090012311/30/07 09:00:31  5-MIN KMSN 301500Z 31013G26KT 10SM FEW035 M08/M16 A3027 540 51 -2100 310/13G26 RMK AO2 PK WND 32026/1455
14837KMSN MSN20071130090512311/30/07 09:05:31  5-MIN KMSN 301505Z 31012G23KT 10SM FEW035 M08/M17 A3028 540 49 -2100 310/12G23 RMK AO2 PK WND 32026/1455
14837KMSN MSN20071130091012011/30/07 09:10:31  5-MIN KMSN 301510Z 31012G23KT 10SM CLR M07/M16 A3028 540 49 -2000 310/12G23 RMK AO2 PK WND 32026/1455
14837KMSN MSN20071130091512011/30/07 09:15:31  5-MIN KMSN 301515Z 31012G20KT 10SM CLR M07/M16 A3028 530 49 -2000 310/12G20 RMK AO2 PK WND 32026/1455
14837KMSN MSN20071130092012011/30/07 09:20:31  5-MIN KMSN 301520Z 31015G24KT 10SM CLR M07/M16 A3028 530 49 -2000 310/15G24 RMK AO2 PK WND 32026/1455
14837KMSN MSN20071130092512011/30/07 09:25:31  5-MIN KMSN 301525Z 31014G24KT 10SM CLR M07/M16 A3029 530 49 -2000 310/14G24 RMK AO2 PK WND 32026/1455
14837KMSN MSN20071130093012011/30/07 09:30:31  5-MIN KMSN 301530Z 30011G23KT 10SM CLR M07/M16 A3029 520 49 -2000 300/11G23 RMK AO2 PK WND 32026/1455
14837KMSN MSN20071130093512011/30/07 09:35:31  5-MIN KMSN 301535Z 31010G23KT 10SM CLR M07/M17 A3029 520 47 -2000 300/10G23 RMK AO2 PK WND 32026/1455
14837KMSN MSN20071130094012011/30/07 09:40:31  5-MIN KMSN 301540Z 29013G19KT 10SM CLR M07/M17 A3030 520 47 -2000 290/13G19 RMK AO2 PK WND 32026/1455
14837KMSN MSN20071130094512011/30/07 09:45:31  5-MIN KMSN 301545Z 30012G19KT 10SM CLR M07/M17 A3030 520 45 -2000 300/12G19 RMK AO2 PK WND 32026/1455
14837KMSN MSN20071130095013711/30/07 09:50:31  5-MIN KMSN 301550Z 30009G18KT 10SM CLR M07/M17 A3030 520 47 -2000 300/09G18 RMK AO2 PK WND 32026/1455 SLP275 T10721167
14837KMSN MSN20071130095510211/30/07 09:55:31  5-MIN KMSN 301555Z 29011G16KT 10SM CLR M07/M17 A3030 510 47 -2000 290/11G16 RMK AO2
14837KMSN MSN20071130100010211/30/07 10:00:31  5-MIN KMSN 301600Z 31010G16KT 10SM CLR M07/M17 A3030 520 47 -2000 310/10G16 RMK AO2
14837KMSN MSN20071130100510211/30/07 10:05:31  5-MIN KMSN 301605Z 29010G18KT 10SM CLR M07/M17 A3030 520 45 -2000 290/10G18 RMK AO2
14837KMSN MSN20071130101010211/30/07 10:10:31  5-MIN KMSN 301610Z 30013G19KT 10SM CLR M07/M17 A3030 510 45 -2000 300/13G19 RMK AO2
14837KMSN MSN20071130101510211/30/07 10:15:31  5-MIN KMSN 301615Z 30013G20KT 10SM CLR M07/M18 A3031 510 43 -2000 290/13G20 RMK AO2
14837KMSN MSN20071130102010211/30/07 10:20:31  5-MIN KMSN 301620Z 29010G20KT 10SM CLR M07/M17 A3031 510 45 -2000 290/10G20 RMK AO2
14837KMSN MSN20071130102509611/30/07 10:25:31  5-MIN KMSN 301625Z 30013KT 10SM CLR M07/M18 A3031 510 43 -2000 300/13 RMK AO2
14837KMSN MSN20071130103010211/30/07 10:30:31  5-MIN KMSN 301630Z 31010G18KT 10SM CLR M07/M17 A3031 510 43 -2000 310/10G18 RMK AO2
14837KMSN MSN20071130103510211/30/07 10:35:31  5-MIN KMSN 301635Z 32012G19KT 10SM CLR M07/M18 A3031 510 43 -2000 320/12G19 RMK AO2
14837KMSN MSN20071130104010211/30/07 10:40:31  5-MIN KMSN 301640Z 32012G20KT 10SM CLR M07/M18 A3031 510 43 -2000 320/12G20 RMK AO2
14837KMSN MSN20071130104511811/30/07 10:45:31  5-MIN KMSN 301645Z 29008G20KT 250V320 10SM CLR M07/M17 A3031 500 43 -2000 290/08G20 250V320 RMK AO2
14837KMSN MSN20071130105011911/30/07 10:50:31  5-MIN KMSN 301650Z 30010G15KT 10SM CLR M07/M17 A3031 500 43 -2000 300/10G15 RMK AO2 SLP278 T10671172
14837KMSN MSN20071130105511811/30/07 10:55:31  5-MIN KMSN 301655Z 29008G15KT 260V320 10SM CLR M07/M18 A3031 500 41 -2000 290/08G15 260V320 RMK AO2
14837KMSN MSN20071130110011811/30/07 11:00:31  5-MIN KMSN 301700Z 29008G16KT 270V330 10SM CLR M07/M18 A3031 510 41 -2000 290/08G16 270V330 RMK AO2
14837KMSN MSN20071130110510211/30/07 11:05:31  5-MIN KMSN 301705Z 29010G17KT 10SM CLR M07/M18 A3031 500 41 -2000 290/10G17 RMK AO2
14837KMSN MSN20071130111010211/30/07 11:10:31  5-MIN KMSN 301710Z 31012G21KT 10SM CLR M07/M18 A3031 500 41 -2000 310/12G21 RMK AO2
14837KMSN MSN20071130111510211/30/07 11:15:31  5-MIN KMSN 301715Z 33010G21KT 10SM CLR M06/M18 A3031 500 39 -1900 320/10G21 RMK AO2
14837KMSN MSN20071130112010211/30/07 11:20:31  5-MIN KMSN 301720Z 31011G17KT 10SM CLR M06/M18 A3031 500 39 -1900 310/11G17 RMK AO2
14837KMSN MSN20071130112510211/30/07 11:25:31  5-MIN KMSN 301725Z 30009G17KT 10SM CLR M06/M18 A3031 500 39 -1900 300/09G17 RMK AO2
14837KMSN MSN20071130113009611/30/07 11:30:31  5-MIN KMSN 301730Z VRB06KT 10SM CLR M06/M18 A3031 500 39 -1900 VRB/06 RMK AO2
14837KMSN MSN20071130113510211/30/07 11:35:31  5-MIN KMSN 301735Z 30009G15KT 10SM CLR M06/M18 A3031 500 39 -1900 290/09G15 RMK AO2
14837KMSN MSN20071130114010211/30/07 11:40:31  5-MIN KMSN 301740Z 32008G16KT 10SM CLR M06/M18 A3031 500 39 -1900 310/08G16 RMK AO2
14837KMSN MSN20071130114510211/30/07 11:45:31  5-MIN KMSN 301745Z 30015G23KT 10SM CLR M06/M19 A3031 500 34 -1800 300/15G23 RMK AO2
14837KMSN MSN20071130115013711/30/07 11:50:31  5-MIN KMSN 301750Z 30015G23KT 10SM CLR M06/M21 A3031 500 31 -1900 300/15G23 RMK AO2 SLP278 T10611206 11056 21078 51027
14837KMSN MSN20071130115510211/30/07 11:55:31  5-MIN KMSN 301755Z 31014G22KT 10SM CLR M06/M21 A3032 500 31 -1900 300/14G22 RMK AO2
14837KMSN MSN20071130142509611/30/07 14:25:31  5-MIN KMSN 302025Z 30008KT 10SM CLR M06/M20 A3035 470 31 -1900 300/08 RMK AO2
14837KMSN MSN20071130143009611/30/07 14:30:31  5-MIN KMSN 302030Z 29008KT 10SM CLR M06/M20 A3035 460 31 -1900 290/08 RMK AO2
14837KMSN MSN20071130143509611/30/07 14:35:31  5-MIN KMSN 302035Z 28007KT 10SM CLR M06/M20 A3035 470 31 -1900 280/07 RMK AO2
14837KMSN MSN20071130144009611/30/07 14:40:31  5-MIN KMSN 302040Z 28009KT 10SM CLR M06/M20 A3035 470 31 -1900 280/09 RMK AO2
14837KMSN MSN20071130144510211/30/07 14:45:31  5-MIN KMSN 302045Z 28007G14KT 10SM CLR M06/M20 A3036 460 31 -1900 280/07G14 RMK AO2
14837KMSN MSN20071130145012511/30/07 14:50:31  5-MIN KMSN 302050Z 29011G16KT 10SM CLR M06/M20 A3036 460 31 -1900 290/11G16 RMK AO2 SLP293 T10561200 51014
14837KMSN MSN20071130145510211/30/07 14:55:31  5-MIN KMSN 302055Z 29007G16KT 10SM CLR M06/M20 A3036 460 31 -1900 280/07G16 RMK AO2
14837KMSN MSN20071130150010211/30/07 15:00:31  5-MIN KMSN 302100Z 29008G16KT 10SM CLR M06/M21 A3036 460 30 -1900 290/08G16 RMK AO2
14837KMSN MSN20071130150510211/30/07 15:05:31  5-MIN KMSN 302105Z 31008G15KT 10SM CLR M06/M21 A3036 460 30 -1900 310/08G15 RMK AO2
14837KMSN MSN20071130151009611/30/07 15:10:31  5-MIN KMSN 302110Z 31006KT 10SM CLR M06/M21 A3036 460 30 -1900 310/06 RMK AO2
14837KMSN MSN20071130151509611/30/07 15:15:31  5-MIN KMSN 302115Z 29006KT 10SM CLR M06/M20 A3036 460 31 -1900 290/06 RMK AO2
14837KMSN MSN20071130152009611/30/07 15:20:31  5-MIN KMSN 302120Z 30008KT 10SM CLR M06/M20 A3037 450 31 -1900 300/08 RMK AO2
14837KMSN MSN20071130152509611/30/07 15:25:31  5-MIN KMSN 302125Z 28007KT 10SM CLR M06/M20 A3037 450 31 -1900 280/07 RMK AO2
14837KMSN MSN20071130153010211/30/07 15:30:31  5-MIN KMSN 302130Z 29009G14KT 10SM CLR M06/M20 A3037 450 31 -1900 290/09G14 RMK AO2
14837KMSN MSN20071130153510211/30/07 15:35:31  5-MIN KMSN 302135Z 29011G14KT 10SM CLR M06/M21 A3037 450 31 -2000 290/11G14 RMK AO2
14837KMSN MSN20071130154009611/30/07 15:40:31  5-MIN KMSN 302140Z 30006KT 10SM CLR M06/M21 A3037 450 31 -2000 300/06 RMK AO2
14837KMSN MSN20071130154509611/30/07 15:45:31  5-MIN KMSN 302145Z 31006KT 10SM CLR M06/M21 A3037 450 31 -2000 310/06 RMK AO2
14837KMSN MSN20071130155011311/30/07 15:50:31  5-MIN KMSN 302150Z 30004KT 10SM CLR M07/M21 A3037 450 33 -2000 300/04 RMK AO2 SLP299 T10671206
14837KMSN MSN20071130155509611/30/07 15:55:31  5-MIN KMSN 302155Z 30004KT 10SM CLR M07/M20 A3037 450 34 -2000 300/04 RMK AO2
14837KMSN MSN20071130160009611/30/07 16:00:31  5-MIN KMSN 302200Z 29003KT 10SM CLR M07/M20 A3037 450 34 -2000 290/03 RMK AO2
14837KMSN MSN20071130160509611/30/07 16:05:31  5-MIN KMSN 302205Z 29007KT 10SM CLR M07/M20 A3037 450 34 -2000 290/07 RMK AO2
14837KMSN MSN20071130161009611/30/07 16:10:31  5-MIN KMSN 302210Z 28006KT 10SM CLR M07/M20 A3038 450 34 -2000 280/06 RMK AO2
14837KMSN MSN20071130161509611/30/07 16:15:31  5-MIN KMSN 302215Z 29007KT 10SM CLR M07/M20 A3038 450 34 -2000 290/07 RMK AO2
14837KMSN MSN20071130162009611/30/07 16:20:31  5-MIN KMSN 302220Z 28009KT 10SM CLR M07/M20 A3038 440 34 -2000 280/09 RMK AO2
14837KMSN MSN20071130162509611/30/07 16:25:31  5-MIN KMSN 302225Z 29006KT 10SM CLR M07/M21 A3038 440 34 -2100 290/06 RMK AO2
14837KMSN MSN20071130163009611/30/07 16:30:31  5-MIN KMSN 302230Z 29005KT 10SM CLR M07/M21 A3038 440 34 -2100 290/05 RMK AO2
14837KMSN MSN20071130163509611/30/07 16:35:31  5-MIN KMSN 302235Z 28005KT 10SM CLR M07/M21 A3038 440 34 -2100 280/05 RMK AO2
14837KMSN MSN20071130164009611/30/07 16:40:31  5-MIN KMSN 302240Z 29003KT 10SM CLR M07/M21 A3038 440 34 -2100 290/03 RMK AO2
14837KMSN MSN20071130164509611/30/07 16:45:31  5-MIN KMSN 302245Z 28003KT 10SM CLR M08/M21 A3038 440 35 -2200 280/03 RMK AO2
14837KMSN MSN20071130165011311/30/07 16:50:31  5-MIN KMSN 302250Z 29004KT 10SM CLR M07/M20 A3038 440 36 -2100 290/04 RMK AO2 SLP303 T10721200
14837KMSN MSN20071130165509611/30/07 16:55:31  5-MIN KMSN 302255Z 28003KT 10SM CLR M08/M20 A3038 440 37 -2200 280/03 RMK AO2
14837KMSN MSN20071130170009611/30/07 17:00:31  5-MIN KMSN 302300Z 00000KT 10SM CLR M08/M20 A3038 440 37 -2200 000/00 RMK AO2
14837KMSN MSN20071130170509611/30/07 17:05:31  5-MIN KMSN 302305Z 28003KT 10SM CLR M08/M19 A3038 440 39 -2200 270/03 RMK AO2
14837KMSN MSN20071130171009611/30/07 17:10:31  5-MIN KMSN 302310Z 27005KT 10SM CLR M08/M19 A3038 440 39 -2200 270/05 RMK AO2
14837KMSN MSN20071130171509611/30/07 17:15:31  5-MIN KMSN 302315Z 27003KT 10SM CLR M08/M19 A3038 440 41 -2200 270/03 RMK AO2
14837KMSN MSN20071130172009611/30/07 17:20:31  5-MIN KMSN 302320Z 28003KT 10SM CLR M08/M19 A3038 440 41 -2200 280/03 RMK AO2
14837KMSN MSN20071130172509611/30/07 17:25:31  5-MIN KMSN 302325Z 28005KT 10SM CLR M08/M19 A3038 440 41 -2200 280/05 RMK AO2
14837KMSN MSN20071130173009611/30/07 17:30:31  5-MIN KMSN 302330Z 00000KT 10SM CLR M08/M19 A3039 440 41 -2200 000/00 RMK AO2
14837KMSN MSN20071130173509611/30/07 17:35:31  5-MIN KMSN 302335Z 29003KT 10SM CLR M08/M19 A3039 430 39 -2200 290/03 RMK AO2
14837KMSN MSN20071130174009611/30/07 17:40:31  5-MIN KMSN 302340Z 28003KT 10SM CLR M08/M19 A3039 430 39 -2200 280/03 RMK AO2
14837KMSN MSN20071130174509611/30/07 17:45:31  5-MIN KMSN 302345Z VRB03KT 10SM CLR M08/M19 A3040 430 41 -2300 VRB/03 RMK AO2
14837KMSN MSN20071130175013111/30/07 17:50:31  5-MIN KMSN 302350Z 28003KT 10SM CLR M08/M19 A3040 420 41 -2300 280/03 RMK AO2 SLP310 T10831194 11056 21083 51015
14837KMSN MSN20071130175509611/30/07 17:55:31  5-MIN KMSN 302355Z 28003KT 10SM CLR M08/M19 A3040 420 41 -2300 280/03 RMK AO2
14837KMSN MSN20071130180009611/30/07 18:00:31  5-MIN KMSN 010000Z 00000KT 10SM CLR M08/M19 A3040 420 41 -2300 000/00 RMK AO2
14837KMSN MSN20071130180509611/30/07 18:05:31  5-MIN KMSN 010005Z 28003KT 10SM CLR M08/M19 A3040 420 41 -2300 270/03 RMK AO2
14837KMSN MSN20071130181009611/30/07 18:10:31  5-MIN KMSN 010010Z VRB04KT 10SM CLR M08/M19 A3041 420 41 -2300 VRB/04 RMK AO2
14837KMSN MSN20071130181509611/30/07 18:15:31  5-MIN KMSN 010015Z VRB03KT 10SM CLR M08/M19 A3041 410 41 -2300 VRB/03 RMK AO2
14837KMSN MSN20071130182009611/30/07 18:20:31  5-MIN KMSN 010020Z 27003KT 10SM CLR M08/M19 A3041 410 43 -2300 270/03 RMK AO2
14837KMSN MSN20071130182509611/30/07 18:25:31  5-MIN KMSN 010025Z 28003KT 10SM CLR M08/M19 A3041 410 41 -2300 280/03 RMK AO2
14837KMSN MSN20071130183009611/30/07 18:30:31  5-MIN KMSN 010030Z 28004KT 10SM CLR M08/M19 A3041 410 41 -2300 280/04 RMK AO2
14837KMSN MSN20071130183509611/30/07 18:35:31  5-MIN KMSN 010035Z 28004KT 10SM CLR M08/M19 A3041 410 41 -2300 280/04 RMK AO2
14837KMSN MSN20071130184009611/30/07 18:40:31  5-MIN KMSN 010040Z 28003KT 10SM CLR M08/M19 A3041 410 43 -2300 280/03 RMK AO2
14837KMSN MSN20071130184509611/30/07 18:45:31  5-MIN KMSN 010045Z 26003KT 10SM CLR M08/M19 A3042 410 43 -2300 250/03 RMK AO2
14837KMSN MSN20071130185011311/30/07 18:50:31  5-MIN KMSN 010050Z 25004KT 10SM CLR M08/M19 A3042 410 43 -2300 250/04 RMK AO2 SLP317 T10831189
14837KMSN MSN20071130185509611/30/07 18:55:31  5-MIN KMSN 010055Z 26005KT 10SM CLR M08/M19 A3042 410 43 -2300 250/05 RMK AO2
14837KMSN MSN20071130190009611/30/07 19:00:31  5-MIN KMSN 010100Z 27006KT 10SM CLR M08/M19 A3042 400 39 -2200 260/06 RMK AO2
14837KMSN MSN20071130190509611/30/07 19:05:31  5-MIN KMSN 010105Z VRB04KT 10SM CLR M08/M19 A3042 410 39 -2200 VRB/04 RMK AO2
14837KMSN MSN20071130191009611/30/07 19:10:31  5-MIN KMSN 010110Z VRB05KT 10SM CLR M08/M19 A3042 410 39 -2200 VRB/05 RMK AO2
14837KMSN MSN20071130191509611/30/07 19:15:31  5-MIN KMSN 010115Z 29005KT 10SM CLR M08/M19 A3041 410 41 -2300 290/05 RMK AO2
14837KMSN MSN20071130192009611/30/07 19:20:31  5-MIN KMSN 010120Z 28003KT 10SM CLR M08/M19 A3042 410 41 -2300 280/03 RMK AO2
14837KMSN MSN20071130192509611/30/07 19:25:31  5-MIN KMSN 010125Z 28003KT 10SM CLR M08/M20 A3042 400 39 -2300 280/03 RMK AO2
14837KMSN MSN20071130193009611/30/07 19:30:31  5-MIN KMSN 010130Z 29003KT 10SM CLR M08/M20 A3042 400 39 -2300 280/03 RMK AO2
14837KMSN MSN20071130193509611/30/07 19:35:31  5-MIN KMSN 010135Z 28004KT 10SM CLR M08/M20 A3042 410 39 -2300 280/04 RMK AO2
14837KMSN MSN20071130194009611/30/07 19:40:31  5-MIN KMSN 010140Z 28004KT 10SM CLR M09/M19 A3042 400 42 -2400 280/04 RMK AO2
14837KMSN MSN20071130194509611/30/07 19:45:31  5-MIN KMSN 010145Z 29003KT 10SM CLR M09/M19 A3042 400 42 -2400 290/03 RMK AO2
14837KMSN MSN20071130195011311/30/07 19:50:31  5-MIN KMSN 010150Z 29003KT 10SM CLR M09/M19 A3042 400 42 -2400 290/03 RMK AO2 SLP319 T10891194
14837KMSN MSN20071130195509611/30/07 19:55:31  5-MIN KMSN 010155Z 31003KT 10SM CLR M09/M19 A3042 400 42 -2400 310/03 RMK AO2
14837KMSN MSN20071130200009611/30/07 20:00:31  5-MIN KMSN 010200Z 00000KT 10SM CLR M09/M19 A3042 410 42 -2400 000/00 RMK AO2
14837KMSN MSN20071130200509611/30/07 20:05:31  5-MIN KMSN 010205Z 00000KT 10SM CLR M09/M19 A3041 420 46 -2400 000/00 RMK AO2
14837KMSN MSN20071130201009611/30/07 20:10:31  5-MIN KMSN 010210Z 00000KT 10SM CLR M09/M19 A3041 420 44 -2400 000/00 RMK AO2
14837KMSN MSN20071130201509611/30/07 20:15:31  5-MIN KMSN 010215Z 00000KT 10SM CLR M09/M19 A3041 410 46 -2400 000/00 RMK AO2
14837KMSN MSN20071130202009611/30/07 20:20:31  5-MIN KMSN 010220Z 00000KT 10SM CLR M10/M18 A3042 410 51 -2500 000/00 RMK AO2
14837KMSN MSN20071130202509611/30/07 20:25:31  5-MIN KMSN 010225Z 00000KT 10SM CLR M10/M19 A3042 400 49 -2500 000/00 RMK AO2
14837KMSN MSN20071130203009611/30/07 20:30:31  5-MIN KMSN 010230Z 00000KT 10SM CLR M11/M18 A3042 400 53 -2600 000/00 RMK AO2
14837KMSN MSN20071130203509611/30/07 20:35:31  5-MIN KMSN 010235Z 00000KT 10SM CLR M10/M18 A3043 400 51 -2500 000/00 RMK AO2
14837KMSN MSN20071130204009611/30/07 20:40:31  5-MIN KMSN 010240Z 00000KT 10SM CLR M10/M18 A3043 400 51 -2500 000/00 RMK AO2
14837KMSN MSN20071130204509611/30/07 20:45:31  5-MIN KMSN 010245Z 00000KT 10SM CLR M09/M19 A3042 400 46 -2500 000/00 RMK AO2
14837KMSN MSN20071130205011911/30/07 20:50:31  5-MIN KMSN 010250Z 00000KT 10SM CLR M09/M19 A3042 410 46 -2500 000/00 RMK AO2 SLP317 T10941189 53014
14837KMSN MSN20071130205509611/30/07 20:55:31  5-MIN KMSN 010255Z 00000KT 10SM CLR M09/M19 A3042 400 46 -2500 000/00 RMK AO2
14837KMSN MSN20071130210009611/30/07 21:00:31  5-MIN KMSN 010300Z 00000KT 10SM CLR M09/M19 A3043 400 46 -2500 000/00 RMK AO2
14837KMSN MSN20071130210509611/30/07 21:05:31  5-MIN KMSN 010305Z 00000KT 10SM CLR M09/M19 A3043 400 46 -2500 000/00 RMK AO2
14837KMSN MSN20071130211009611/30/07 21:10:31  5-MIN KMSN 010310Z 00000KT 10SM CLR M09/M19 A3043 390 46 -2500 000/00 RMK AO2
14837KMSN MSN20071130211509611/30/07 21:15:31  5-MIN KMSN 010315Z 25003KT 10SM CLR M09/M18 A3044 390 49 -2500 250/03 RMK AO2
14837KMSN MSN20071130212009611/30/07 21:20:31  5-MIN KMSN 010320Z 27004KT 10SM CLR M09/M18 A3043 390 47 -2400 270/04 RMK AO2
14837KMSN MSN20071130212509611/30/07 21:25:31  5-MIN KMSN 010325Z 26003KT 10SM CLR M09/M18 A3043 400 47 -2400 260/03 RMK AO2
14837KMSN MSN20071130213009611/30/07 21:30:31  5-MIN KMSN 010330Z 00000KT 10SM CLR M09/M18 A3043 400 47 -2400 000/00 RMK AO2
14837KMSN MSN20071130213509611/30/07 21:35:31  5-MIN KMSN 010335Z 29004KT 10SM CLR M09/M18 A3043 400 47 -2400 290/04 RMK AO2
14837KMSN MSN20071130214009611/30/07 21:40:31  5-MIN KMSN 010340Z 30003KT 10SM CLR M09/M18 A3043 390 47 -2400 300/03 RMK AO2
14837KMSN MSN20071130214509611/30/07 21:45:31  5-MIN KMSN 010345Z 28004KT 10SM CLR M09/M18 A3044 390 47 -2400 280/04 RMK AO2
14837KMSN MSN20071130215011311/30/07 21:50:31  5-MIN KMSN 010350Z 28003KT 10SM CLR M09/M18 A3044 390 47 -2400 280/03 RMK AO2 SLP324 T10891183
14837KMSN MSN20071130215509611/30/07 21:55:31  5-MIN KMSN 010355Z 27004KT 10SM CLR M09/M18 A3044 390 47 -2400 270/04 RMK AO2
14837KMSN MSN20071130220009611/30/07 22:00:31  5-MIN KMSN 010400Z 27003KT 10SM CLR M09/M18 A3043 400 47 -2400 270/03 RMK AO2
14837KMSN MSN20071130220509611/30/07 22:05:31  5-MIN KMSN 010405Z 28004KT 10SM CLR M09/M18 A3043 390 47 -2400 280/04 RMK AO2
14837KMSN MSN20071130221009611/30/07 22:10:31  5-MIN KMSN 010410Z VRB03KT 10SM CLR M09/M18 A3044 390 47 -2400 VRB/03 RMK AO2
14837KMSN MSN20071130221509611/30/07 22:15:31  5-MIN KMSN 010415Z 28005KT 10SM CLR M09/M18 A3044 390 47 -2400 280/05 RMK AO2
14837KMSN MSN20071130222009611/30/07 22:20:31  5-MIN KMSN 010420Z 28003KT 10SM CLR M09/M18 A3044 390 47 -2400 280/03 RMK AO2
14837KMSN MSN20071130222509611/30/07 22:25:31  5-MIN KMSN 010425Z 27004KT 10SM CLR M09/M18 A3044 380 47 -2400 270/04 RMK AO2
14837KMSN MSN20071130223009611/30/07 22:30:31  5-MIN KMSN 010430Z 28003KT 10SM CLR M09/M18 A3045 380 49 -2400 270/03 RMK AO2
14837KMSN MSN20071130223509611/30/07 22:35:31  5-MIN KMSN 010435Z 25003KT 10SM CLR M09/M18 A3045 380 49 -2400 250/03 RMK AO2
14837KMSN MSN20071130224009611/30/07 22:40:31  5-MIN KMSN 010440Z 00000KT 10SM CLR M09/M18 A3045 380 49 -2400 000/00 RMK AO2
14837KMSN MSN20071130224509611/30/07 22:45:31  5-MIN KMSN 010445Z VRB03KT 10SM CLR M09/M18 A3046 370 49 -2400 VRB/03 RMK AO2
14837KMSN MSN20071130225011311/30/07 22:50:31  5-MIN KMSN 010450Z VRB04KT 10SM CLR M09/M17 A3046 370 51 -2400 VRB/04 RMK AO2 SLP330 T10891172
14837KMSN MSN20071130225509611/30/07 22:55:31  5-MIN KMSN 010455Z 29004KT 10SM CLR M09/M17 A3046 370 51 -2400 290/04 RMK AO2
14837KMSN MSN20071130230009611/30/07 23:00:31  5-MIN KMSN 010500Z 28004KT 10SM CLR M09/M17 A3046 370 51 -2400 280/04 RMK AO2
14837KMSN MSN20071130230509611/30/07 23:05:31  5-MIN KMSN 010505Z 31004KT 10SM CLR M09/M17 A3046 370 51 -2400 310/04 RMK AO2
14837KMSN MSN20071130231009611/30/07 23:10:31  5-MIN KMSN 010510Z 30004KT 10SM CLR M09/M17 A3047 360 51 -2400 300/04 RMK AO2
14837KMSN MSN20071130231509611/30/07 23:15:31  5-MIN KMSN 010515Z 29003KT 10SM CLR M09/M17 A3047 360 51 -2400 290/03 RMK AO2
14837KMSN MSN20071130232009611/30/07 23:20:31  5-MIN KMSN 010520Z 30005KT 10SM CLR M09/M17 A3047 360 51 -2400 300/05 RMK AO2
14837KMSN MSN20071130232509611/30/07 23:25:31  5-MIN KMSN 010525Z 32004KT 10SM CLR M09/M17 A3047 360 51 -2400 310/04 RMK AO2
14837KMSN MSN20071130233009611/30/07 23:30:31  5-MIN KMSN 010530Z 00000KT 10SM CLR M09/M17 A3047 360 54 -2400 000/00 RMK AO2
14837KMSN MSN20071130233509611/30/07 23:35:31  5-MIN KMSN 010535Z 31004KT 10SM CLR M09/M17 A3047 360 54 -2400 310/04 RMK AO2
14837KMSN MSN20071130234009611/30/07 23:40:31  5-MIN KMSN 010540Z 31003KT 10SM CLR M09/M17 A3047 360 54 -2400 310/03 RMK AO2
14837KMSN MSN20071130234509611/30/07 23:45:31  5-MIN KMSN 010545Z 30005KT 10SM CLR M09/M17 A3047 360 54 -2400 300/05 RMK AO2
14837KMSN MSN20071130235014111/30/07 23:50:31  5-MIN KMSN 010550Z VRB03KT 10SM CLR M09/M17 A3047 360 54 -2400 VRB/03 RMK AO2 SLP335 T10891167 11078 21106 410281106 50007
14837KMSN MSN20071130235509611/30/07 23:55:31  5-MIN KMSN 010555Z 34003KT 10SM CLR M09/M17 A3047 360 54 -2400 340/03 RMK AO2
