14837KMSN MSN20011201000010912/01/01 00:00:31  5-MIN KMSN 010600Z 26008KT 8SM -RA FEW009 OVC023 04/03 A2980 980 89 0 260/08 RMK AO2 P0000
14837KMSN MSN20011201000512512/01/01 00:05:31  5-MIN KMSN 010605Z 26008KT 220V290 8SM -RA FEW016 OVC023 04/03 A2980 980 89 0 260/08 220V290 RMK AO2 P0000
14837KMSN MSN20011201001010912/01/01 00:10:31  5-MIN KMSN 010610Z 26009KT 8SM -RA FEW016 OVC023 04/03 A2980 980 89 0 260/09 RMK AO2 P0000
14837KMSN MSN20011201001510912/01/01 00:15:31  5-MIN KMSN 010615Z 26008KT 8SM -RA BKN023 OVC034 04/03 A2980 980 89 0 260/08 RMK AO2 P0000
14837KMSN MSN20011201002011612/01/01 00:20:31  5-MIN KMSN 010620Z 27007KT 8SM -RA BKN021 BKN026 OVC034 04/02 A2980 980 85 0 260/07 RMK AO2 P0000
14837KMSN MSN20011201002512812/01/01 00:25:31  5-MIN KMSN 010625Z 26008KT 220V310 10SM BKN023 OVC034 04/03 A2979 980 89 0 260/08 220V310 RMK AO2 RAE22 P0000
14837KMSN MSN20011201003011912/01/01 00:30:31  5-MIN KMSN 010630Z VRB05KT 10SM BKN021 BKN025 OVC034 04/02 A2979 980 85 0 VRB/05 RMK AO2 RAE22 P0000
14837KMSN MSN20011201003511912/01/01 00:35:31  5-MIN KMSN 010635Z 25006KT 10SM FEW014 BKN021 OVC050 04/02 A2980 980 85 0 250/06 RMK AO2 RAE22 P0000
14837KMSN MSN20011201004011912/01/01 00:40:31  5-MIN KMSN 010640Z 26007KT 10SM SCT019 BKN026 OVC050 04/02 A2980 980 85 0 260/07 RMK AO2 RAE22 P0000
14837KMSN MSN20011201004513512/01/01 00:45:31  5-MIN KMSN 010645Z 26008KT 230V290 10SM FEW014 SCT021 OVC050 04/02 A2980 980 89 0 260/08 230V290 RMK AO2 RAE22 P0000
14837KMSN MSN20011201005013612/01/01 00:50:31  5-MIN KMSN 010650Z VRB05KT 10SM FEW017 SCT023 OVC050 04/02 A2980 980 89 0 VRB/05 RMK AO2 RAE22 SLP097 P0000 T00390022
14837KMSN MSN20011201005510012/01/01 00:55:31  5-MIN KMSN 010655Z 25006KT 10SM FEW017 OVC050 04/02 A2980 970 89 0 250/06 RMK AO2
14837KMSN MSN20011201010010012/01/01 01:00:31  5-MIN KMSN 010700Z VRB06KT 10SM SCT019 OVC050 04/02 A2980 980 89 0 VRB/06 RMK AO2
14837KMSN MSN20011201010511612/01/01 01:05:31  5-MIN KMSN 010705Z 26007KT 230V300 10SM SCT019 OVC050 04/02 A2980 980 89 0 260/07 230V300 RMK AO2
14837KMSN MSN20011201011010012/01/01 01:10:31  5-MIN KMSN 010710Z 25008KT 10SM SCT021 OVC050 04/02 A2980 970 85 0 240/08 RMK AO2
14837KMSN MSN20011201011511612/01/01 01:15:31  5-MIN KMSN 010715Z 26007KT 220V280 10SM SCT021 OVC048 04/02 A2980 970 85 0 250/07 220V280 RMK AO2
14837KMSN MSN20011201012010012/01/01 01:20:31  5-MIN KMSN 010720Z 25008KT 10SM SCT021 BKN048 04/02 A2980 970 85 0 250/08 RMK AO2
14837KMSN MSN20011201012510312/01/01 01:25:31  5-MIN KMSN 010725Z 25006KT 10SM SCT021 BKN048 04/02 A2981 970 85 -100 250/06 RMK AO2
14837KMSN MSN20011201013011912/01/01 01:30:31  5-MIN KMSN 010730Z 25007KT 200V270 10SM SCT021 BKN048 04/02 A2981 970 85 -100 250/07 200V270 RMK AO2
14837KMSN MSN20011201013510312/01/01 01:35:31  5-MIN KMSN 010735Z 25007KT 10SM SCT021 BKN048 04/02 A2981 960 85 -100 250/07 RMK AO2
14837KMSN MSN20011201014010312/01/01 01:40:31  5-MIN KMSN 010740Z VRB05KT 10SM SCT021 BKN046 04/02 A2982 960 85 -100 VRB/05 RMK AO2
14837KMSN MSN20011201014510312/01/01 01:45:31  5-MIN KMSN 010745Z VRB04KT 10SM SCT021 BKN046 04/02 A2982 960 85 -100 VRB/04 RMK AO2
14837KMSN MSN20011201015012012/01/01 01:50:31  5-MIN KMSN 010750Z VRB04KT 10SM SCT021 BKN046 04/02 A2982 950 85 -100 VRB/04 RMK AO2 SLP106 T00390017
14837KMSN MSN20011201015510312/01/01 01:55:31  5-MIN KMSN 010755Z 25007KT 10SM BKN019 OVC026 04/02 A2983 950 85 -100 250/07 RMK AO2
14837KMSN MSN20011201020011012/01/01 02:00:31  5-MIN KMSN 010800Z 25008KT 10SM SCT017 BKN025 OVC030 04/02 A2983 950 85 -100 250/08 RMK AO2
14837KMSN MSN20011201020512512/01/01 02:05:31  5-MIN KMSN 010805Z 27010G15KT 240V310 10SM SCT017 OVC025 04/01 A2983 940 82 -100 260/10G15 240V310 RMK AO2
14837KMSN MSN20011201021010912/01/01 02:10:31  5-MIN KMSN 010810Z 26008G15KT 10SM SCT017 OVC027 04/01 A2984 940 82 -100 260/08G15 RMK AO2
14837KMSN MSN20011201021510312/01/01 02:15:31  5-MIN KMSN 010815Z 25009KT 10SM FEW017 OVC027 04/01 A2984 940 79 -100 250/09 RMK AO2
14837KMSN MSN20011201022011912/01/01 02:20:31  5-MIN KMSN 010820Z 25009KT 210V290 10SM FEW017 OVC027 04/01 A2985 930 79 -100 240/09 210V290 RMK AO2
14837KMSN MSN20011201022511912/01/01 02:25:31  5-MIN KMSN 010825Z 27009KT 210V290 10SM BKN024 OVC029 04/01 A2985 930 79 -100 260/09 210V290 RMK AO2
14837KMSN MSN20011201023011212/01/01 02:30:31  5-MIN KMSN 010830Z 26010KT 220V290 10SM OVC024 04/01 A2985 930 79 -100 260/10 220V290 RMK AO2
14837KMSN MSN20011201023511212/01/01 02:35:31  5-MIN KMSN 010835Z 26008KT 230V290 10SM OVC022 04/01 A2986 920 79 -100 260/08 230V290 RMK AO2
14837KMSN MSN20011201024011912/01/01 02:40:31  5-MIN KMSN 010840Z 26008KT 220V290 10SM BKN020 OVC025 04/01 A2986 920 79 -100 250/08 220V290 RMK AO2
14837KMSN MSN20011201024512512/01/01 02:45:31  5-MIN KMSN 010845Z 25010G19KT 220V290 10SM BKN020 OVC026 04/01 A2986 920 79 -100 250/10G19 220V290 RMK AO2
14837KMSN MSN20011201025015412/01/01 02:50:31  5-MIN KMSN 010850Z 25009G19KT 140V290 10SM BKN020 OVC026 04/00 A2986 920 76 -100 240/09G19 140V290 RMK AO2 SLP118 60000 T00390000 53012
14837KMSN MSN20011201025511912/01/01 02:55:31  5-MIN KMSN 010855Z 26008KT 210V290 10SM SCT020 OVC026 04/00 A2986 920 76 -100 260/08 210V290 RMK AO2
14837KMSN MSN20011201030011812/01/01 03:00:31  5-MIN KMSN 010900Z 25011G15KT 220V290 10SM OVC024 03/00 A2986 920 79 -200 250/11G15 220V290 RMK AO2
14837KMSN MSN20011201030510212/01/01 03:05:31  5-MIN KMSN 010905Z 26008G15KT 10SM OVC024 03/00 A2986 920 79 -200 260/08G15 RMK AO2
14837KMSN MSN20011201031011812/01/01 03:10:31  5-MIN KMSN 010910Z 25009G15KT 220V290 10SM OVC024 03/00 A2986 920 79 -200 240/09G15 220V290 RMK AO2
14837KMSN MSN20011201031510212/01/01 03:15:31  5-MIN KMSN 010915Z 24008G17KT 10SM OVC026 03/00 A2987 910 79 -200 240/08G17 RMK AO2
14837KMSN MSN20011201032010212/01/01 03:20:31  5-MIN KMSN 010920Z 25014G19KT 10SM OVC026 03/00 A2987 910 79 -200 250/14G19 RMK AO2
14837KMSN MSN20011201032511812/01/01 03:25:31  5-MIN KMSN 010925Z 26011G19KT 220V290 10SM OVC026 03/00 A2987 910 79 -200 260/11G19 220V290 RMK AO2
14837KMSN MSN20011201033011812/01/01 03:30:31  5-MIN KMSN 010930Z 25009G18KT 210V280 10SM OVC026 03/00 A2987 910 79 -200 250/09G18 210V280 RMK AO2
14837KMSN MSN20011201033510212/01/01 03:35:31  5-MIN KMSN 010935Z 26010G16KT 10SM OVC026 03/00 A2987 910 79 -200 260/10G16 RMK AO2
14837KMSN MSN20011201034010212/01/01 03:40:31  5-MIN KMSN 010940Z 25008G16KT 10SM OVC028 03/00 A2988 900 79 -200 250/08G16 RMK AO2
14837KMSN MSN20011201034511812/01/01 03:45:31  5-MIN KMSN 010945Z 25009G16KT 230V310 10SM OVC028 03/00 A2988 900 79 -200 250/09G16 230V310 RMK AO2
14837KMSN MSN20011201035012012/01/01 03:50:31  5-MIN KMSN 010950Z 25009KT 10SM FEW020 OVC028 03/00 A2988 900 79 -200 250/09 RMK AO2 SLP126 T00330000
14837KMSN MSN20011201035510312/01/01 03:55:31  5-MIN KMSN 010955Z 25011G16KT 10SM OVC028 03/M01 A2988 900 76 -200 250/11G16 RMK AO2
14837KMSN MSN20011201040011012/01/01 04:00:31  5-MIN KMSN 011000Z 25010G19KT 10SM BKN023 OVC030 03/M01 A2989 890 76 -200 250/10G19 RMK AO2
14837KMSN MSN20011201040510312/01/01 04:05:31  5-MIN KMSN 011005Z 24012G23KT 10SM OVC025 03/M01 A2990 890 76 -200 240/12G23 RMK AO2
14837KMSN MSN20011201041011012/01/01 04:10:31  5-MIN KMSN 011010Z 24014G23KT 10SM BKN022 OVC027 03/M01 A2990 880 79 -300 240/14G23 RMK AO2
14837KMSN MSN20011201041511012/01/01 04:15:31  5-MIN KMSN 011015Z 25011G20KT 10SM BKN022 OVC027 03/M01 A2990 880 79 -300 250/11G20 RMK AO2
14837KMSN MSN20011201042010312/01/01 04:20:31  5-MIN KMSN 011020Z 24013G20KT 10SM OVC022 03/M01 A2990 880 79 -300 240/13G20 RMK AO2
14837KMSN MSN20011201042511912/01/01 04:25:31  5-MIN KMSN 011025Z 26009G18KT 210V330 10SM OVC022 03/M01 A2991 880 75 -300 250/09G18 210V330 RMK AO2
14837KMSN MSN20011201043011912/01/01 04:30:31  5-MIN KMSN 011030Z 25011G19KT 220V290 10SM OVC022 03/M01 A2991 880 75 -300 250/11G19 220V290 RMK AO2
14837KMSN MSN20011201043510312/01/01 04:35:31  5-MIN KMSN 011035Z 26010G19KT 10SM OVC022 03/M02 A2991 880 72 -300 260/10G19 RMK AO2
14837KMSN MSN20011201044009712/01/01 04:40:31  5-MIN KMSN 011040Z 26009KT 10SM OVC022 03/M02 A2991 870 72 -300 260/09 RMK AO2
14837KMSN MSN20011201044511312/01/01 04:45:31  5-MIN KMSN 011045Z 24008KT 200V270 10SM OVC022 03/M02 A2991 870 72 -300 240/08 200V270 RMK AO2
14837KMSN MSN20011201045011412/01/01 04:50:31  5-MIN KMSN 011050Z 25010KT 10SM OVC022 03/M02 A2991 870 69 -300 250/10 RMK AO2 SLP135 T00281022
14837KMSN MSN20011201045509712/01/01 04:55:31  5-MIN KMSN 011055Z 25007KT 10SM OVC022 02/M02 A2992 870 72 -400 250/07 RMK AO2
14837KMSN MSN20011201050009712/01/01 05:00:31  5-MIN KMSN 011100Z 25007KT 10SM OVC022 02/M02 A2992 870 75 -400 250/07 RMK AO2
14837KMSN MSN20011201050511312/01/01 05:05:31  5-MIN KMSN 011105Z 24008KT 220V280 10SM OVC022 02/M02 A2991 870 75 -400 240/08 220V280 RMK AO2
14837KMSN MSN20011201051009712/01/01 05:10:31  5-MIN KMSN 011110Z 24007KT 10SM OVC022 02/M01 A2991 870 78 -400 240/07 RMK AO2
14837KMSN MSN20011201051509612/01/01 05:15:31  5-MIN KMSN 011115Z 26009KT 9SM OVC020 02/M02 A2991 870 75 -400 260/09 RMK AO2
14837KMSN MSN20011201052009712/01/01 05:20:31  5-MIN KMSN 011120Z 26009KT 10SM OVC020 02/M02 A2992 860 78 -500 260/09 RMK AO2
14837KMSN MSN20011201052511312/01/01 05:25:31  5-MIN KMSN 011125Z 25008KT 230V290 10SM BKN020 02/M02 A2992 860 78 -500 250/08 230V290 RMK AO2
14837KMSN MSN20011201053010312/01/01 05:30:31  5-MIN KMSN 011130Z 26008G14KT 10SM BKN020 02/M02 A2993 860 78 -500 260/08G14 RMK AO2
14837KMSN MSN20011201053511912/01/01 05:35:31  5-MIN KMSN 011135Z 27009G16KT 240V300 10SM BKN020 02/M02 A2993 860 75 -500 260/09G16 240V300 RMK AO2
14837KMSN MSN20011201054009712/01/01 05:40:31  5-MIN KMSN 011140Z 26011KT 10SM BKN020 02/M02 A2993 860 75 -500 260/11 RMK AO2
14837KMSN MSN20011201054511912/01/01 05:45:31  5-MIN KMSN 011145Z 26009G16KT 210V290 10SM BKN020 02/M02 A2993 860 75 -500 260/09G16 210V290 RMK AO2
14837KMSN MSN20011201055015712/01/01 05:50:31  5-MIN KMSN 011150Z 26008G15KT 10SM SCT020 BKN045 02/M02 A2993 850 75 -500 260/08G15 RMK AO2 SLP143 60000 70006 T00171022 10044 20011 53023
14837KMSN MSN20011201055510412/01/01 05:55:31  5-MIN KMSN 011155Z 27009KT 10SM FEW020 BKN045 02/M02 A2994 850 75 -500 260/09 RMK AO2
14837KMSN MSN20011201060010412/01/01 06:00:31  5-MIN KMSN 011200Z 26009KT 10SM FEW020 BKN045 01/M02 A2994 850 78 -600 260/09 RMK AO2
14837KMSN MSN20011201060510412/01/01 06:05:31  5-MIN KMSN 011205Z 26009KT 10SM FEW020 BKN045 01/M02 A2994 840 78 -600 260/09 RMK AO2
14837KMSN MSN20011201061010412/01/01 06:10:31  5-MIN KMSN 011210Z 26008KT 10SM FEW020 BKN045 01/M02 A2994 840 78 -600 260/08 RMK AO2
14837KMSN MSN20011201061510412/01/01 06:15:31  5-MIN KMSN 011215Z 26008KT 10SM SCT020 BKN043 01/M02 A2995 840 78 -600 260/08 RMK AO2
14837KMSN MSN20011201062010412/01/01 06:20:31  5-MIN KMSN 011220Z 26007KT 10SM BKN020 BKN043 01/M02 A2995 840 78 -600 250/07 RMK AO2
14837KMSN MSN20011201062509712/01/01 06:25:31  5-MIN KMSN 011225Z 25008KT 10SM BKN020 01/M02 A2995 840 82 -600 250/08 RMK AO2
14837KMSN MSN20011201063009712/01/01 06:30:31  5-MIN KMSN 011230Z 25007KT 10SM BKN020 01/M02 A2996 830 82 -600 250/07 RMK AO2
14837KMSN MSN20011201063509712/01/01 06:35:31  5-MIN KMSN 011235Z 25010KT 10SM OVC020 02/M02 A2996 830 78 -500 250/10 RMK AO2
14837KMSN MSN20011201064009712/01/01 06:40:31  5-MIN KMSN 011240Z 24009KT 10SM OVC020 02/M02 A2996 820 78 -500 240/09 RMK AO2
14837KMSN MSN20011201064509612/01/01 06:45:31  5-MIN KMSN 011245Z 26007KT 7SM OVC020 02/M02 A2997 820 78 -500 260/07 RMK AO2
14837KMSN MSN20011201065011912/01/01 06:50:31  5-MIN KMSN 011250Z 25007G14KT 7SM OVC020 02/M01 A2997 820 82 -500 250/07G14 RMK AO2 SLP156 T00171011
14837KMSN MSN20011201065512112/01/01 06:55:31  5-MIN KMSN 011255Z 26010G16KT 220V290 5SM HZ OVC018 02/M01 A2997 820 82 -500 260/10G16 220V290 RMK AO2
14837KMSN MSN20011201070010512/01/01 07:00:31  5-MIN KMSN 011300Z 26007G16KT 5SM HZ OVC018 02/M01 A2997 820 82 -500 260/07G16 RMK AO2
14837KMSN MSN20011201070509912/01/01 07:05:31  5-MIN KMSN 011305Z 27008KT 5SM HZ OVC018 02/M01 A2998 810 82 -500 260/08 RMK AO2
14837KMSN MSN20011201071009912/01/01 07:10:31  5-MIN KMSN 011310Z 26005KT 5SM HZ OVC018 02/M01 A2998 810 82 -500 260/05 RMK AO2
14837KMSN MSN20011201071509912/01/01 07:15:31  5-MIN KMSN 011315Z 25007KT 5SM HZ OVC018 02/M01 A2998 810 82 -500 250/07 RMK AO2
14837KMSN MSN20011201072010512/01/01 07:20:31  5-MIN KMSN 011320Z 24007G14KT 5SM HZ OVC018 02/M01 A2998 810 82 -500 240/07G14 RMK AO2
14837KMSN MSN20011201072510512/01/01 07:25:31  5-MIN KMSN 011325Z 25007G14KT 5SM HZ OVC018 02/M01 A2999 800 78 -500 250/07G14 RMK AO2
14837KMSN MSN20011201073009612/01/01 07:30:31  5-MIN KMSN 011330Z 25007KT 7SM OVC018 02/M01 A2999 800 78 -500 250/07 RMK AO2
14837KMSN MSN20011201073511812/01/01 07:35:31  5-MIN KMSN 011335Z 26010G14KT 220V280 7SM OVC018 02/M01 A3000 790 78 -500 260/10G14 220V280 RMK AO2
14837KMSN MSN20011201074010212/01/01 07:40:31  5-MIN KMSN 011340Z VRB06G14KT 7SM OVC016 02/M01 A3000 790 78 -500 VRB/06G14 RMK AO2
14837KMSN MSN20011201074509612/01/01 07:45:31  5-MIN KMSN 011345Z 25008KT 7SM OVC016 02/M01 A3000 790 82 -500 250/08 RMK AO2
14837KMSN MSN20011201075011312/01/01 07:50:31  5-MIN KMSN 011350Z 26007KT 7SM OVC016 02/M01 A3000 790 82 -500 260/07 RMK AO2 SLP166 T00221006
14837KMSN MSN20011201075509912/01/01 07:55:31  5-MIN KMSN 011355Z 26008KT 6SM HZ OVC016 02/M01 A3000 790 82 -500 260/08 RMK AO2
14837KMSN MSN20011201080009612/01/01 08:00:31  5-MIN KMSN 011400Z 25008KT 6SM OVC016 02/M01 A3000 790 78 -500 250/08 RMK AO2
14837KMSN MSN20011201080509612/01/01 08:05:31  5-MIN KMSN 011405Z 25007KT 7SM OVC018 02/M01 A3001 780 82 -500 250/07 RMK AO2
14837KMSN MSN20011201081009612/01/01 08:10:31  5-MIN KMSN 011410Z VRB05KT 7SM OVC018 02/M01 A3001 780 82 -500 VRB/05 RMK AO2
14837KMSN MSN20011201081509612/01/01 08:15:31  5-MIN KMSN 011415Z 26010KT 7SM OVC018 02/M01 A3001 780 82 -500 260/10 RMK AO2
14837KMSN MSN20011201082009612/01/01 08:20:31  5-MIN KMSN 011420Z 25007KT 7SM OVC018 02/M01 A3001 780 82 -500 250/07 RMK AO2
14837KMSN MSN20011201082509612/01/01 08:25:31  5-MIN KMSN 011425Z 26008KT 7SM OVC018 02/M01 A3002 780 78 -500 260/08 RMK AO2
14837KMSN MSN20011201083011212/01/01 08:30:31  5-MIN KMSN 011430Z 27008KT 230V300 7SM OVC020 02/M01 A3002 770 78 -500 270/08 230V300 RMK AO2
14837KMSN MSN20011201083509612/01/01 08:35:31  5-MIN KMSN 011435Z 26010KT 7SM OVC020 02/M01 A3002 770 78 -500 260/10 RMK AO2
14837KMSN MSN20011201084011212/01/01 08:40:31  5-MIN KMSN 011440Z 28007KT 240V300 7SM OVC020 02/M01 A3002 770 78 -500 270/07 240V300 RMK AO2
14837KMSN MSN20011201084511812/01/01 08:45:31  5-MIN KMSN 011445Z 26009G14KT 220V300 7SM OVC020 02/M01 A3002 770 78 -500 260/09G14 220V300 RMK AO2
14837KMSN MSN20011201085012512/01/01 08:50:31  5-MIN KMSN 011450Z 27007G14KT 7SM BKN020 03/M01 A3002 770 75 -400 270/07G14 RMK AO2 SLP175 T00281011 51024
14837KMSN MSN20011201085509612/01/01 08:55:31  5-MIN KMSN 011455Z 27008KT 8SM OVC020 03/M01 A3003 770 75 -400 270/08 RMK AO2
14837KMSN MSN20011201090011812/01/01 09:00:31  5-MIN KMSN 011500Z 27009G15KT 230V290 8SM OVC020 03/M01 A3003 770 75 -400 270/09G15 230V290 RMK AO2
14837KMSN MSN20011201090510212/01/01 09:05:31  5-MIN KMSN 011505Z 26008G15KT 8SM OVC020 03/M01 A3003 760 75 -500 260/08G15 RMK AO2
14837KMSN MSN20011201091009612/01/01 09:10:31  5-MIN KMSN 011510Z 26010KT 9SM OVC020 03/M01 A3004 760 75 -500 260/10 RMK AO2
14837KMSN MSN20011201091511212/01/01 09:15:31  5-MIN KMSN 011515Z 27009KT 230V300 9SM OVC020 03/M01 A3004 750 75 -500 270/09 230V300 RMK AO2
14837KMSN MSN20011201092011812/01/01 09:20:31  5-MIN KMSN 011520Z 26009G15KT 210V300 8SM OVC020 03/M01 A3004 750 75 -500 250/09G15 210V300 RMK AO2
14837KMSN MSN20011201092510212/01/01 09:25:31  5-MIN KMSN 011525Z 26007G15KT 8SM OVC020 03/M01 A3005 750 75 -500 260/07G15 RMK AO2
14837KMSN MSN20011201093010212/01/01 09:30:31  5-MIN KMSN 011530Z 27010G14KT 9SM OVC020 03/M01 A3005 740 75 -500 270/10G14 RMK AO2
14837KMSN MSN20011201093510212/01/01 09:35:31  5-MIN KMSN 011535Z 25008G14KT 9SM OVC020 03/M01 A3005 740 75 -500 250/08G14 RMK AO2
14837KMSN MSN20011201094009612/01/01 09:40:31  5-MIN KMSN 011540Z 26007KT 9SM OVC020 03/M01 A3005 740 75 -500 250/07 RMK AO2
14837KMSN MSN20011201094511212/01/01 09:45:31  5-MIN KMSN 011545Z 26009KT 230V290 8SM OVC020 03/M01 A3006 740 72 -400 260/09 230V290 RMK AO2
14837KMSN MSN20011201095011912/01/01 09:50:31  5-MIN KMSN 011550Z 26011G14KT 9SM BKN020 03/M02 A3006 730 72 -500 260/11G14 RMK AO2 SLP187 T00281017
14837KMSN MSN20011201095509712/01/01 09:55:31  5-MIN KMSN 011555Z 28008KT 10SM BKN020 03/M02 A3007 730 72 -500 270/08 RMK AO2
14837KMSN MSN20011201100010312/01/01 10:00:31  5-MIN KMSN 011600Z 26009G15KT 10SM BKN022 03/M02 A3007 730 72 -500 260/09G15 RMK AO2
14837KMSN MSN20011201100511912/01/01 10:05:31  5-MIN KMSN 011605Z 27010G15KT 240V300 10SM BKN022 03/M02 A3007 720 69 -500 270/10G15 240V300 RMK AO2
14837KMSN MSN20011201101009712/01/01 10:10:31  5-MIN KMSN 011610Z 27008KT 10SM BKN022 03/M02 A3008 720 69 -500 270/08 RMK AO2
14837KMSN MSN20011201101509712/01/01 10:15:31  5-MIN KMSN 011615Z 27008KT 10SM SCT022 03/M02 A3008 720 69 -500 270/08 RMK AO2
14837KMSN MSN20011201102009712/01/01 10:20:31  5-MIN KMSN 011620Z 28008KT 10SM FEW024 03/M02 A3007 720 70 -400 280/08 RMK AO2
14837KMSN MSN20011201102509712/01/01 10:25:31  5-MIN KMSN 011625Z 27007KT 10SM SCT024 04/M01 A3007 720 70 -400 270/07 RMK AO2
14837KMSN MSN20011201103011312/01/01 10:30:31  5-MIN KMSN 011630Z 26008KT 190V290 10SM SCT024 04/M01 A3007 720 73 -400 260/08 190V290 RMK AO2
14837KMSN MSN20011201103511312/01/01 10:35:31  5-MIN KMSN 011635Z 25009KT 210V280 10SM SCT024 04/M01 A3007 730 70 -400 250/09 210V280 RMK AO2
14837KMSN MSN20011201104010312/01/01 10:40:31  5-MIN KMSN 011640Z 26009G15KT 10SM SCT024 04/M01 A3007 720 70 -400 260/09G15 RMK AO2
14837KMSN MSN20011201104509712/01/01 10:45:31  5-MIN KMSN 011645Z 26009KT 10SM SCT024 04/M02 A3007 720 67 -400 260/09 RMK AO2
14837KMSN MSN20011201105011412/01/01 10:50:31  5-MIN KMSN 011650Z 24009KT 10SM SCT021 04/M02 A3007 730 67 -400 240/09 RMK AO2 SLP189 T00391017
14837KMSN MSN20011201105511912/01/01 10:55:31  5-MIN KMSN 011655Z 27008G15KT 230V310 10SM FEW021 04/M02 A3007 730 64 -400 270/08G15 230V310 RMK AO2
14837KMSN MSN20011201110010312/01/01 11:00:31  5-MIN KMSN 011700Z 26007G15KT 10SM FEW021 04/M02 A3007 730 67 -400 260/07G15 RMK AO2
14837KMSN MSN20011201110511012/01/01 11:05:31  5-MIN KMSN 011705Z 23008KT 190V250 10SM CLR 04/M02 A3007 730 67 -400 230/08 190V250 RMK AO2
14837KMSN MSN20011201111009412/01/01 11:10:31  5-MIN KMSN 011710Z 22007KT 10SM CLR 04/M02 A3007 730 64 -300 220/07 RMK AO2
14837KMSN MSN20011201111509412/01/01 11:15:31  5-MIN KMSN 011715Z 22008KT 10SM CLR 04/M01 A3007 730 67 -300 220/08 RMK AO2
14837KMSN MSN20011201112009412/01/01 11:20:31  5-MIN KMSN 011720Z 22011KT 10SM CLR 04/M01 A3007 720 70 -400 220/11 RMK AO2
14837KMSN MSN20011201112509412/01/01 11:25:31  5-MIN KMSN 011725Z 22007KT 10SM CLR 04/M01 A3008 720 67 -300 220/07 RMK AO2
14837KMSN MSN20011201113009412/01/01 11:30:31  5-MIN KMSN 011730Z 22008KT 10SM CLR 04/M01 A3007 720 67 -300 220/08 RMK AO2
14837KMSN MSN20011201113509412/01/01 11:35:31  5-MIN KMSN 011735Z 24008KT 10SM CLR 04/M01 A3008 720 67 -300 240/08 RMK AO2
14837KMSN MSN20011201114009412/01/01 11:40:31  5-MIN KMSN 011740Z 23008KT 10SM CLR 04/M01 A3008 720 67 -300 230/08 RMK AO2
14837KMSN MSN20011201114509712/01/01 11:45:31  5-MIN KMSN 011745Z 24011KT 10SM FEW021 04/M01 A3008 720 67 -300 240/11 RMK AO2
14837KMSN MSN20011201115015412/01/01 11:50:31  5-MIN KMSN 011750Z 24007G14KT 200V290 10SM FEW021 04/M01 A3008 720 67 -300 240/07G14 200V290 RMK AO2 SLP192 T00441011 10044 20011 51029
14837KMSN MSN20011201115509412/01/01 11:55:31  5-MIN KMSN 011755Z 22008KT 10SM CLR 05/M01 A3008 720 64 -200 220/08 RMK AO2
14837KMSN MSN20011201120011612/01/01 12:00:31  5-MIN KMSN 011800Z 23009G15KT 200V260 10SM CLR 05/M01 A3008 720 67 -200 230/09G15 200V260 RMK AO2
14837KMSN MSN20011201120510012/01/01 12:05:31  5-MIN KMSN 011805Z 23009G15KT 10SM CLR 05/M01 A3008 720 64 -200 220/09G15 RMK AO2
14837KMSN MSN20011201121009412/01/01 12:10:31  5-MIN KMSN 011810Z 22010KT 10SM CLR 05/M01 A3008 720 67 -200 220/10 RMK AO2
14837KMSN MSN20011201121510012/01/01 12:15:31  5-MIN KMSN 011815Z 23009G15KT 10SM CLR 05/M01 A3008 720 67 -200 230/09G15 RMK AO2
14837KMSN MSN20011201122010012/01/01 12:20:31  5-MIN KMSN 011820Z 22010G15KT 10SM CLR 05/M01 A3008 720 67 -200 220/10G15 RMK AO2
14837KMSN MSN20011201122510012/01/01 12:25:31  5-MIN KMSN 011825Z 24010G15KT 10SM CLR 05/M01 A3008 720 67 -200 240/10G15 RMK AO2
14837KMSN MSN20011201123010012/01/01 12:30:31  5-MIN KMSN 011830Z 24011G16KT 10SM CLR 05/M01 A3008 710 64 -200 240/11G16 RMK AO2
14837KMSN MSN20011201123510012/01/01 12:35:31  5-MIN KMSN 011835Z 23010G17KT 10SM CLR 05/M01 A3009 710 64 -200 230/10G17 RMK AO2
14837KMSN MSN20011201124010012/01/01 12:40:31  5-MIN KMSN 011840Z 23010G17KT 10SM CLR 05/M01 A3009 710 64 -200 230/10G17 RMK AO2
14837KMSN MSN20011201124511312/01/01 12:45:31  5-MIN KMSN 011845Z 23009KT 210V270 10SM FEW021 05/M01 A3009 710 64 -200 230/09 210V270 RMK AO2
14837KMSN MSN20011201125011412/01/01 12:50:31  5-MIN KMSN 011850Z 23008KT 10SM FEW021 05/M01 A3009 710 64 -200 230/08 RMK AO2 SLP195 T00501011
14837KMSN MSN20011201125509412/01/01 12:55:31  5-MIN KMSN 011855Z 24009KT 10SM CLR 05/M01 A3009 710 67 -200 240/09 RMK AO2
14837KMSN MSN20011201130009412/01/01 13:00:31  5-MIN KMSN 011900Z 24008KT 10SM CLR 06/M01 A3009 710 62 -200 230/08 RMK AO2
14837KMSN MSN20011201130509412/01/01 13:05:31  5-MIN KMSN 011905Z VRB05KT 10SM CLR 06/M01 A3009 710 62 -200 VRB/05 RMK AO2
14837KMSN MSN20011201131009412/01/01 13:10:31  5-MIN KMSN 011910Z 24008KT 10SM CLR 06/M01 A3008 710 62 -200 240/08 RMK AO2
14837KMSN MSN20011201131509412/01/01 13:15:31  5-MIN KMSN 011915Z 24009KT 10SM CLR 06/M01 A3009 710 62 -200 240/09 RMK AO2
14837KMSN MSN20011201132009412/01/01 13:20:31  5-MIN KMSN 011920Z 23008KT 10SM CLR 06/M01 A3008 710 62 -200 230/08 RMK AO2
14837KMSN MSN20011201132511012/01/01 13:25:31  5-MIN KMSN 011925Z 23009KT 200V270 10SM CLR 06/M01 A3009 710 62 -100 230/09 200V270 RMK AO2
14837KMSN MSN20011201133009412/01/01 13:30:31  5-MIN KMSN 011930Z 25007KT 10SM CLR 06/M01 A3008 710 62 -200 250/07 RMK AO2
14837KMSN MSN20011201133509412/01/01 13:35:31  5-MIN KMSN 011935Z 23009KT 10SM CLR 06/M01 A3009 710 62 -100 230/09 RMK AO2
14837KMSN MSN20011201134011012/01/01 13:40:31  5-MIN KMSN 011940Z 24008KT 210V270 10SM CLR 06/M01 A3009 710 62 -100 230/08 210V270 RMK AO2
14837KMSN MSN20011201134509412/01/01 13:45:31  5-MIN KMSN 011945Z 22008KT 10SM CLR 06/M01 A3009 710 62 -100 220/08 RMK AO2
14837KMSN MSN20011201135011412/01/01 13:50:31  5-MIN KMSN 011950Z 25007KT 10SM FEW030 06/M01 A3009 710 65 -200 250/07 RMK AO2 SLP197 T00561006
14837KMSN MSN20011201135509412/01/01 13:55:31  5-MIN KMSN 011955Z VRB05KT 10SM CLR 06/M01 A3009 700 62 -100 VRB/05 RMK AO2
14837KMSN MSN20011201140011612/01/01 14:00:31  5-MIN KMSN 012000Z 22009G14KT 200V270 10SM CLR 06/M01 A3009 710 62 -100 220/09G14 200V270 RMK AO2
14837KMSN MSN20011201140511012/01/01 14:05:31  5-MIN KMSN 012005Z 24007KT 180V270 10SM CLR 06/M01 A3009 710 62 -100 230/07 180V270 RMK AO2
14837KMSN MSN20011201141009412/01/01 14:10:31  5-MIN KMSN 012010Z 23008KT 10SM CLR 06/M01 A3009 710 62 -100 230/08 RMK AO2
14837KMSN MSN20011201141511012/01/01 14:15:31  5-MIN KMSN 012015Z 22008KT 200V260 10SM CLR 06/M01 A3009 710 62 -100 220/08 200V260 RMK AO2
14837KMSN MSN20011201142009312/01/01 14:20:31  5-MIN KMSN 012020Z VRB05KT 10SM CLR 06/00 A3009 710 65 -100 VRB/05 RMK AO2
14837KMSN MSN20011201142511012/01/01 14:25:31  5-MIN KMSN 012025Z 24007KT 200V260 10SM CLR 06/M01 A3010 700 62 -100 230/07 200V260 RMK AO2
14837KMSN MSN20011201143009412/01/01 14:30:31  5-MIN KMSN 012030Z 22008KT 10SM CLR 06/M01 A3010 700 62 -100 220/08 RMK AO2
14837KMSN MSN20011201143509412/01/01 14:35:31  5-MIN KMSN 012035Z 23007KT 10SM CLR 06/M01 A3010 700 62 -100 230/07 RMK AO2
14837KMSN MSN20011201144009412/01/01 14:40:31  5-MIN KMSN 012040Z 23008KT 10SM CLR 06/M01 A3010 700 62 -100 230/08 RMK AO2
14837KMSN MSN20011201144509412/01/01 14:45:31  5-MIN KMSN 012045Z 23008KT 10SM CLR 06/M01 A3010 700 65 -200 230/08 RMK AO2
14837KMSN MSN20011201145011712/01/01 14:50:31  5-MIN KMSN 012050Z 23008KT 10SM CLR 06/M01 A3010 700 65 -200 230/08 RMK AO2 SLP199 T00561006 51019
14837KMSN MSN20011201145509412/01/01 14:55:31  5-MIN KMSN 012055Z 23010KT 10SM CLR 06/M01 A3010 700 65 -200 230/10 RMK AO2
14837KMSN MSN20011201150009412/01/01 15:00:31  5-MIN KMSN 012100Z VRB06KT 10SM CLR 06/M01 A3010 700 65 -200 VRB/06 RMK AO2
14837KMSN MSN20011201150509412/01/01 15:05:31  5-MIN KMSN 012105Z 22005KT 10SM CLR 06/M01 A3010 700 62 -100 220/05 RMK AO2
14837KMSN MSN20011201151009412/01/01 15:10:31  5-MIN KMSN 012110Z 22008KT 10SM CLR 06/M01 A3010 700 65 -200 220/08 RMK AO2
14837KMSN MSN20011201151509412/01/01 15:15:31  5-MIN KMSN 012115Z 24008KT 10SM CLR 06/M01 A3010 700 65 -200 240/08 RMK AO2
14837KMSN MSN20011201152009312/01/01 15:20:31  5-MIN KMSN 012120Z 22006KT 10SM CLR 06/00 A3010 690 67 -200 220/06 RMK AO2
14837KMSN MSN20011201152509412/01/01 15:25:31  5-MIN KMSN 012125Z 23007KT 10SM CLR 06/M01 A3011 690 65 -200 230/07 RMK AO2
14837KMSN MSN20011201153009412/01/01 15:30:31  5-MIN KMSN 012130Z VRB05KT 10SM CLR 06/M01 A3011 690 65 -200 VRB/05 RMK AO2
14837KMSN MSN20011201153509412/01/01 15:35:31  5-MIN KMSN 012135Z 23007KT 10SM CLR 06/M01 A3011 690 65 -200 220/07 RMK AO2
14837KMSN MSN20011201154009412/01/01 15:40:31  5-MIN KMSN 012140Z 23007KT 10SM CLR 06/M01 A3012 680 65 -200 230/07 RMK AO2
14837KMSN MSN20011201154509412/01/01 15:45:31  5-MIN KMSN 012145Z 22010KT 10SM CLR 06/M01 A3012 680 65 -200 210/10 RMK AO2
14837KMSN MSN20011201155011012/01/01 15:50:31  5-MIN KMSN 012150Z 20007KT 10SM CLR 05/00 A3012 680 70 -300 200/07 RMK AO2 SLP207 T00500000
14837KMSN MSN20011201155509312/01/01 15:55:31  5-MIN KMSN 012155Z 22008KT 10SM CLR 05/00 A3012 680 70 -300 220/08 RMK AO2
14837KMSN MSN20011201160009312/01/01 16:00:31  5-MIN KMSN 012200Z 22009KT 10SM CLR 05/00 A3013 670 70 -300 220/09 RMK AO2
14837KMSN MSN20011201160509412/01/01 16:05:31  5-MIN KMSN 012205Z 22009KT 10SM CLR 05/M01 A3013 670 67 -300 220/09 RMK AO2
14837KMSN MSN20011201161009412/01/01 16:10:31  5-MIN KMSN 012210Z 21008KT 10SM CLR 05/M01 A3013 670 67 -300 210/08 RMK AO2
14837KMSN MSN20011201161509412/01/01 16:15:31  5-MIN KMSN 012215Z 22007KT 10SM CLR 05/M01 A3013 670 67 -300 220/07 RMK AO2
14837KMSN MSN20011201162009412/01/01 16:20:31  5-MIN KMSN 012220Z 22008KT 10SM CLR 04/M01 A3013 670 70 -400 220/08 RMK AO2
14837KMSN MSN20011201162509412/01/01 16:25:31  5-MIN KMSN 012225Z 22008KT 10SM CLR 04/M01 A3013 670 70 -400 220/08 RMK AO2
14837KMSN MSN20011201163009412/01/01 16:30:31  5-MIN KMSN 012230Z 21005KT 10SM CLR 04/M01 A3013 670 70 -400 210/05 RMK AO2
14837KMSN MSN20011201163509412/01/01 16:35:31  5-MIN KMSN 012235Z 22008KT 10SM CLR 04/M01 A3013 670 70 -400 220/08 RMK AO2
14837KMSN MSN20011201164009412/01/01 16:40:31  5-MIN KMSN 012240Z 22007KT 10SM CLR 04/M01 A3014 670 70 -400 220/07 RMK AO2
14837KMSN MSN20011201164509412/01/01 16:45:31  5-MIN KMSN 012245Z 22006KT 10SM CLR 04/M01 A3014 660 70 -400 220/06 RMK AO2
14837KMSN MSN20011201165011112/01/01 16:50:31  5-MIN KMSN 012250Z 22006KT 10SM CLR 04/M01 A3014 660 70 -400 220/06 RMK AO2 SLP214 T00441006
14837KMSN MSN20011201165509412/01/01 16:55:31  5-MIN KMSN 012255Z 23006KT 10SM CLR 04/M01 A3014 660 70 -400 220/06 RMK AO2
14837KMSN MSN20011201170009412/01/01 17:00:31  5-MIN KMSN 012300Z 23007KT 10SM CLR 04/M01 A3014 660 70 -400 230/07 RMK AO2
14837KMSN MSN20011201170509412/01/01 17:05:31  5-MIN KMSN 012305Z 22005KT 10SM CLR 04/M01 A3014 660 73 -400 220/05 RMK AO2
14837KMSN MSN20011201171009412/01/01 17:10:31  5-MIN KMSN 012310Z VRB06KT 10SM CLR 04/M01 A3014 660 73 -400 VRB/06 RMK AO2
14837KMSN MSN20011201171509312/01/01 17:15:31  5-MIN KMSN 012315Z 21005KT 10SM CLR 04/00 A3014 660 76 -400 210/05 RMK AO2
14837KMSN MSN20011201172009312/01/01 17:20:31  5-MIN KMSN 012320Z 21005KT 10SM CLR 04/00 A3014 660 76 -400 210/05 RMK AO2
14837KMSN MSN20011201172509312/01/01 17:25:31  5-MIN KMSN 012325Z 21004KT 10SM CLR 04/00 A3015 660 76 -400 210/04 RMK AO2
14837KMSN MSN20011201173009312/01/01 17:30:31  5-MIN KMSN 012330Z 21005KT 10SM CLR 03/00 A3015 660 79 -500 210/05 RMK AO2
14837KMSN MSN20011201173509312/01/01 17:35:31  5-MIN KMSN 012335Z 21005KT 10SM CLR 03/00 A3015 650 79 -500 210/05 RMK AO2
14837KMSN MSN20011201174009312/01/01 17:40:31  5-MIN KMSN 012340Z 21007KT 10SM CLR 03/00 A3015 650 79 -500 210/07 RMK AO2
14837KMSN MSN20011201174509312/01/01 17:45:31  5-MIN KMSN 012345Z 21008KT 10SM CLR 03/00 A3015 650 79 -500 210/08 RMK AO2
14837KMSN MSN20011201175012812/01/01 17:50:31  5-MIN KMSN 012350Z 21007KT 10SM CLR 03/00 A3015 650 79 -500 210/07 RMK AO2 SLP217 T00330000 10067 20033 53006
14837KMSN MSN20011201175509312/01/01 17:55:31  5-MIN KMSN 012355Z 22006KT 10SM CLR 03/00 A3015 650 79 -500 220/06 RMK AO2
14837KMSN MSN20011201180009312/01/01 18:00:31  5-MIN KMSN 020000Z 23008KT 10SM CLR 03/00 A3015 650 79 -500 220/08 RMK AO2
14837KMSN MSN20011201180509312/01/01 18:05:31  5-MIN KMSN 020005Z 22007KT 10SM CLR 03/00 A3016 650 79 -500 220/07 RMK AO2
14837KMSN MSN20011201181009312/01/01 18:10:31  5-MIN KMSN 020010Z 23007KT 10SM CLR 03/01 A3016 650 82 -500 230/07 RMK AO2
14837KMSN MSN20011201181509312/01/01 18:15:31  5-MIN KMSN 020015Z VRB05KT 10SM CLR 03/00 A3016 640 79 -500 VRB/05 RMK AO2
14837KMSN MSN20011201182009312/01/01 18:20:31  5-MIN KMSN 020020Z 22006KT 10SM CLR 03/00 A3016 640 79 -500 220/06 RMK AO2
14837KMSN MSN20011201182509312/01/01 18:25:31  5-MIN KMSN 020025Z 23007KT 10SM CLR 03/00 A3016 640 79 -500 230/07 RMK AO2
14837KMSN MSN20011201183009312/01/01 18:30:31  5-MIN KMSN 020030Z 23007KT 10SM CLR 03/00 A3016 640 79 -500 220/07 RMK AO2
14837KMSN MSN20011201183509312/01/01 18:35:31  5-MIN KMSN 020035Z 22008KT 10SM CLR 03/00 A3016 640 79 -500 220/08 RMK AO2
14837KMSN MSN20011201184009312/01/01 18:40:31  5-MIN KMSN 020040Z 23006KT 10SM CLR 03/00 A3016 640 79 -500 230/06 RMK AO2
14837KMSN MSN20011201184509312/01/01 18:45:31  5-MIN KMSN 020045Z 22006KT 10SM CLR 03/00 A3016 640 82 -600 220/06 RMK AO2
14837KMSN MSN20011201185011012/01/01 18:50:31  5-MIN KMSN 020050Z 21007KT 10SM CLR 03/00 A3016 640 82 -600 210/07 RMK AO2 SLP223 T00280000
14837KMSN MSN20011201185509312/01/01 18:55:31  5-MIN KMSN 020055Z 22007KT 10SM CLR 03/00 A3016 640 82 -600 220/07 RMK AO2
14837KMSN MSN20011201190009312/01/01 19:00:31  5-MIN KMSN 020100Z 22007KT 10SM CLR 03/00 A3017 640 82 -600 220/07 RMK AO2
14837KMSN MSN20011201190509312/01/01 19:05:31  5-MIN KMSN 020105Z 21007KT 10SM CLR 03/00 A3017 640 82 -600 210/07 RMK AO2
14837KMSN MSN20011201191009312/01/01 19:10:31  5-MIN KMSN 020110Z 21009KT 10SM CLR 03/00 A3017 640 82 -600 210/09 RMK AO2
14837KMSN MSN20011201191509312/01/01 19:15:31  5-MIN KMSN 020115Z 22008KT 10SM CLR 02/00 A3016 640 85 -700 220/08 RMK AO2
14837KMSN MSN20011201192009312/01/01 19:20:31  5-MIN KMSN 020120Z 23008KT 10SM CLR 02/00 A3016 640 85 -700 230/08 RMK AO2
14837KMSN MSN20011201192509312/01/01 19:25:31  5-MIN KMSN 020125Z 22008KT 10SM CLR 02/00 A3017 640 85 -700 220/08 RMK AO2
14837KMSN MSN20011201193009312/01/01 19:30:31  5-MIN KMSN 020130Z 21007KT 10SM CLR 02/00 A3017 640 85 -700 210/07 RMK AO2
14837KMSN MSN20011201193509312/01/01 19:35:31  5-MIN KMSN 020135Z 22008KT 10SM CLR 02/00 A3017 640 85 -700 220/08 RMK AO2
14837KMSN MSN20011201194009312/01/01 19:40:31  5-MIN KMSN 020140Z 21008KT 10SM CLR 02/00 A3016 640 85 -700 210/08 RMK AO2
14837KMSN MSN20011201194509312/01/01 19:45:31  5-MIN KMSN 020145Z 22007KT 10SM CLR 02/00 A3016 640 85 -700 220/07 RMK AO2
14837KMSN MSN20011201195011012/01/01 19:50:31  5-MIN KMSN 020150Z 21005KT 10SM CLR 02/00 A3016 640 85 -700 210/05 RMK AO2 SLP223 T00220000
14837KMSN MSN20011201195509312/01/01 19:55:31  5-MIN KMSN 020155Z 21006KT 10SM CLR 02/00 A3016 640 85 -700 200/06 RMK AO2
14837KMSN MSN20011201200009312/01/01 20:00:31  5-MIN KMSN 020200Z 21010KT 10SM CLR 02/00 A3017 640 89 -700 210/10 RMK AO2
14837KMSN MSN20011201200509312/01/01 20:05:31  5-MIN KMSN 020205Z 21006KT 10SM CLR 02/00 A3017 640 89 -700 210/06 RMK AO2
14837KMSN MSN20011201201009312/01/01 20:10:31  5-MIN KMSN 020210Z 22007KT 10SM CLR 02/00 A3017 640 89 -700 210/07 RMK AO2
14837KMSN MSN20011201201509312/01/01 20:15:31  5-MIN KMSN 020215Z 21007KT 10SM CLR 02/00 A3017 640 89 -700 210/07 RMK AO2
14837KMSN MSN20011201202009612/01/01 20:20:31  5-MIN KMSN 020220Z 21009KT 10SM BKN008 02/00 A3017 630 89 -700 210/09 RMK AO2
14837KMSN MSN20011201202509612/01/01 20:25:31  5-MIN KMSN 020225Z 21007KT 10SM BKN008 02/00 A3017 630 89 -700 210/07 RMK AO2
14837KMSN MSN20011201203009612/01/01 20:30:31  5-MIN KMSN 020230Z 21006KT 10SM BKN008 01/00 A3018 630 92 -800 210/06 RMK AO2
14837KMSN MSN20011201203509612/01/01 20:35:31  5-MIN KMSN 020235Z 21009KT 10SM BKN008 01/00 A3018 630 92 -800 210/09 RMK AO2
14837KMSN MSN20011201204009512/01/01 20:40:31  5-MIN KMSN 020240Z 20009KT 7SM BKN008 01/00 A3018 630 92 -800 200/09 RMK AO2
14837KMSN MSN20011201204509512/01/01 20:45:31  5-MIN KMSN 020245Z 21007KT 7SM OVC006 01/00 A3018 620 92 -800 210/07 RMK AO2
14837KMSN MSN20011201205012112/01/01 20:50:31  5-MIN KMSN 020250Z 22008KT 6SM BR OVC006 01/00 A3019 620 92 -800 220/08 RMK AO2 SLP231 T00110000 51016
14837KMSN MSN20011201205509812/01/01 20:55:31  5-MIN KMSN 020255Z 21009KT 6SM BR OVC006 01/00 A3019 620 92 -800 200/09 RMK AO2
14837KMSN MSN20011201210009812/01/01 21:00:31  5-MIN KMSN 020300Z 21008KT 6SM BR OVC006 01/00 A3020 610 92 -800 210/08 RMK AO2
14837KMSN MSN20011201210509812/01/01 21:05:31  5-MIN KMSN 020305Z 20008KT 6SM BR OVC006 01/00 A3019 610 92 -800 200/08 RMK AO2
14837KMSN MSN20011201211009812/01/01 21:10:31  5-MIN KMSN 020310Z 21006KT 6SM BR OVC006 01/00 A3020 610 92 -800 210/06 RMK AO2
14837KMSN MSN20011201211509812/01/01 21:15:31  5-MIN KMSN 020315Z 20007KT 5SM BR OVC006 01/00 A3020 610 92 -800 200/07 RMK AO2
14837KMSN MSN20011201212009812/01/01 21:20:31  5-MIN KMSN 020320Z 19007KT 5SM BR OVC006 01/00 A3020 610 92 -800 190/07 RMK AO2
14837KMSN MSN20011201212509812/01/01 21:25:31  5-MIN KMSN 020325Z 20006KT 5SM BR OVC006 01/00 A3019 610 92 -800 200/06 RMK AO2
14837KMSN MSN20011201213009812/01/01 21:30:31  5-MIN KMSN 020330Z 20007KT 5SM BR OVC006 01/00 A3019 610 92 -800 200/07 RMK AO2
14837KMSN MSN20011201213509812/01/01 21:35:31  5-MIN KMSN 020335Z 20007KT 5SM BR OVC006 01/01 A3019 610 96 -800 190/07 RMK AO2
14837KMSN MSN20011201214009812/01/01 21:40:31  5-MIN KMSN 020340Z 21006KT 5SM BR OVC006 01/01 A3019 610 96 -800 210/06 RMK AO2
14837KMSN MSN20011201214509812/01/01 21:45:31  5-MIN KMSN 020345Z 21007KT 5SM BR OVC006 01/01 A3019 610 96 -800 210/07 RMK AO2
14837KMSN MSN20011201215011512/01/01 21:50:31  5-MIN KMSN 020350Z 21006KT 4SM BR OVC006 01/00 A3019 610 92 -800 210/06 RMK AO2 SLP233 T00110000
14837KMSN MSN20011201215509812/01/01 21:55:31  5-MIN KMSN 020355Z 21006KT 4SM BR OVC006 01/01 A3019 610 96 -800 210/06 RMK AO2
14837KMSN MSN20011201220009812/01/01 22:00:31  5-MIN KMSN 020400Z 22007KT 4SM BR OVC006 01/01 A3019 610 96 -800 220/07 RMK AO2
14837KMSN MSN20011201220509812/01/01 22:05:31  5-MIN KMSN 020405Z 20006KT 4SM BR OVC006 01/01 A3019 610 96 -800 200/06 RMK AO2
14837KMSN MSN20011201221009812/01/01 22:10:31  5-MIN KMSN 020410Z 21006KT 4SM BR OVC004 01/01 A3019 610 96 -800 210/06 RMK AO2
14837KMSN MSN20011201221509812/01/01 22:15:31  5-MIN KMSN 020415Z 22007KT 4SM BR OVC004 01/00 A3019 610 92 -800 220/07 RMK AO2
14837KMSN MSN20011201222009812/01/01 22:20:31  5-MIN KMSN 020420Z 22005KT 4SM BR OVC004 01/01 A3019 610 96 -800 220/05 RMK AO2
14837KMSN MSN20011201222509812/01/01 22:25:31  5-MIN KMSN 020425Z 22008KT 4SM BR OVC004 01/01 A3020 610 96 -800 220/08 RMK AO2
14837KMSN MSN20011201223009812/01/01 22:30:31  5-MIN KMSN 020430Z VRB03KT 4SM BR OVC004 01/01 A3020 610 96 -800 VRB/03 RMK AO2
14837KMSN MSN20011201223509812/01/01 22:35:31  5-MIN KMSN 020435Z 21006KT 4SM BR OVC004 01/01 A3019 610 96 -800 200/06 RMK AO2
14837KMSN MSN20011201224009812/01/01 22:40:31  5-MIN KMSN 020440Z 21006KT 4SM BR OVC004 01/01 A3019 610 96 -800 200/06 RMK AO2
14837KMSN MSN20011201224509812/01/01 22:45:31  5-MIN KMSN 020445Z 22005KT 4SM BR OVC004 01/01 A3019 610 96 -800 210/05 RMK AO2
14837KMSN MSN20011201225011512/01/01 22:50:31  5-MIN KMSN 020450Z 21005KT 4SM BR OVC004 01/01 A3019 610 96 -800 210/05 RMK AO2 SLP232 T00110006
14837KMSN MSN20011201225509812/01/01 22:55:31  5-MIN KMSN 020455Z 20005KT 4SM BR OVC004 01/01 A3019 610 96 -800 200/05 RMK AO2
14837KMSN MSN20011201230009812/01/01 23:00:31  5-MIN KMSN 020500Z 20004KT 4SM BR OVC004 01/01 A3019 610 96 -800 200/04 RMK AO2
14837KMSN MSN20011201230509812/01/01 23:05:31  5-MIN KMSN 020505Z 22004KT 4SM BR OVC004 01/01 A3019 610 96 -800 220/04 RMK AO2
14837KMSN MSN20011201231009812/01/01 23:10:31  5-MIN KMSN 020510Z 22003KT 4SM BR OVC004 01/01 A3020 610 96 -800 220/03 RMK AO2
14837KMSN MSN20011201231509812/01/01 23:15:31  5-MIN KMSN 020515Z VRB04KT 4SM BR OVC004 01/01 A3020 610 96 -800 VRB/04 RMK AO2
14837KMSN MSN20011201232009812/01/01 23:20:31  5-MIN KMSN 020520Z 23006KT 4SM BR OVC004 01/01 A3020 610 96 -800 230/06 RMK AO2
14837KMSN MSN20011201232509812/01/01 23:25:31  5-MIN KMSN 020525Z VRB03KT 4SM BR OVC004 01/01 A3020 610 96 -800 VRB/03 RMK AO2
14837KMSN MSN20011201233009812/01/01 23:30:31  5-MIN KMSN 020530Z 21003KT 4SM BR OVC004 01/01 A3020 610 96 -800 210/03 RMK AO2
14837KMSN MSN20011201233509812/01/01 23:35:31  5-MIN KMSN 020535Z 22005KT 4SM BR OVC004 01/01 A3020 610 96 -900 220/05 RMK AO2
14837KMSN MSN20011201234009812/01/01 23:40:31  5-MIN KMSN 020540Z 20004KT 4SM BR OVC004 01/01 A3020 610 96 -800 200/04 RMK AO2
14837KMSN MSN20011201234509812/01/01 23:45:31  5-MIN KMSN 020545Z 20003KT 4SM BR OVC004 01/01 A3020 610 96 -800 200/03 RMK AO2
14837KMSN MSN20011201235014312/01/01 23:50:31  5-MIN KMSN 020550Z 20004KT 4SM BR OVC004 01/01 A3020 610 96 -800 200/04 RMK AO2 SLP233 T00110006 10033 20011 400670011 53013
14837KMSN MSN20011201235509812/01/01 23:55:31  5-MIN KMSN 020555Z 22003KT 4SM BR OVC004 01/01 A3020 610 96 -800 220/03 RMK AO2
14837KMSN MSN20011202000009812/02/01 00:00:31  5-MIN KMSN 020600Z 00000KT 4SM BR OVC004 01/01 A3020 610 96 -800 000/00 RMK AO2
14837KMSN MSN20011202000509812/02/01 00:05:31  5-MIN KMSN 020605Z 21004KT 4SM BR OVC004 01/01 A3020 610 96 -800 210/04 RMK AO2
14837KMSN MSN20011202001009812/02/01 00:10:31  5-MIN KMSN 020610Z 19004KT 4SM BR OVC004 01/01 A3020 610 96 -800 180/04 RMK AO2
14837KMSN MSN20011202001509812/02/01 00:15:31  5-MIN KMSN 020615Z 16004KT 3SM BR OVC004 01/01 A3020 610 96 -800 160/04 RMK AO2
14837KMSN MSN20011202002009812/02/01 00:20:31  5-MIN KMSN 020620Z 17003KT 3SM BR OVC004 01/01 A3020 610 96 -800 170/03 RMK AO2
14837KMSN MSN20011202002509812/02/01 00:25:31  5-MIN KMSN 020625Z 17004KT 3SM BR OVC004 01/01 A3019 610 96 -800 170/04 RMK AO2
14837KMSN MSN20011202003010212/02/01 00:30:31  5-MIN KMSN 020630Z 16005KT 2 1/2SM BR OVC004 01/01 A3020 610 96 -800 160/05 RMK AO2
14837KMSN MSN20011202003509812/02/01 00:35:31  5-MIN KMSN 020635Z 18004KT 2SM BR OVC004 01/01 A3020 610 96 -800 180/04 RMK AO2
14837KMSN MSN20011202004009812/02/01 00:40:31  5-MIN KMSN 020640Z 18005KT 2SM BR OVC004 01/01 A3020 610 96 -800 180/05 RMK AO2
14837KMSN MSN20011202004509812/02/01 00:45:31  5-MIN KMSN 020645Z 17005KT 2SM BR OVC004 01/01 A3020 610 96 -800 170/05 RMK AO2
14837KMSN MSN20011202005011512/02/01 00:50:31  5-MIN KMSN 020650Z 16005KT 2SM BR OVC004 01/01 A3019 610 96 -800 160/05 RMK AO2 SLP232 T00110006
14837KMSN MSN20011202005509812/02/01 00:55:31  5-MIN KMSN 020655Z 17006KT 2SM BR OVC004 01/01 A3019 610 96 -800 170/06 RMK AO2
14837KMSN MSN20011202010009812/02/01 01:00:31  5-MIN KMSN 020700Z 18006KT 2SM BR OVC004 01/01 A3019 610 96 -800 180/06 RMK AO2
14837KMSN MSN20011202010509812/02/01 01:05:31  5-MIN KMSN 020705Z 17007KT 2SM BR OVC004 01/01 A3019 620 96 -800 170/07 RMK AO2
14837KMSN MSN20011202011009812/02/01 01:10:31  5-MIN KMSN 020710Z 18007KT 2SM BR OVC004 01/01 A3019 620 96 -800 180/07 RMK AO2
14837KMSN MSN20011202011509812/02/01 01:15:31  5-MIN KMSN 020715Z 18006KT 2SM BR OVC004 01/01 A3019 620 96 -800 180/06 RMK AO2
14837KMSN MSN20011202012009812/02/01 01:20:31  5-MIN KMSN 020720Z 19006KT 2SM BR OVC004 01/00 A3019 620 92 -800 190/06 RMK AO2
14837KMSN MSN20011202012509812/02/01 01:25:31  5-MIN KMSN 020725Z 18006KT 2SM BR OVC004 01/00 A3019 620 96 -900 180/06 RMK AO2
14837KMSN MSN20011202013010212/02/01 01:30:31  5-MIN KMSN 020730Z 19004KT 1 1/2SM BR OVC004 01/00 A3019 620 96 -900 190/04 RMK AO2
14837KMSN MSN20011202013510212/02/01 01:35:31  5-MIN KMSN 020735Z 16006KT 1 1/2SM BR OVC002 01/00 A3019 620 96 -900 160/06 RMK AO2
14837KMSN MSN20011202014009812/02/01 01:40:31  5-MIN KMSN 020740Z 17006KT 1SM BR OVC002 01/00 A3019 620 96 -900 170/06 RMK AO2
14837KMSN MSN20011202014509812/02/01 01:45:31  5-MIN KMSN 020745Z 17005KT 1SM BR OVC002 01/00 A3019 620 96 -900 170/05 RMK AO2
14837KMSN MSN20011202015011512/02/01 01:50:31  5-MIN KMSN 020750Z 21005KT 1SM BR OVC002 01/00 A3019 620 96 -900 210/05 RMK AO2 SLP230 T00060000
14837KMSN MSN20011202015509812/02/01 01:55:31  5-MIN KMSN 020755Z VRB04KT 1SM BR OVC002 01/00 A3019 620 96 -900 VRB/04 RMK AO2
14837KMSN MSN20011202020009812/02/01 02:00:31  5-MIN KMSN 020800Z 17003KT 1SM BR OVC002 01/00 A3019 620 96 -900 170/03 RMK AO2
14837KMSN MSN20011202020509912/02/01 02:05:31  5-MIN KMSN 020805Z 16004KT 1SM BR OVC002 01/01 A3019 620 100 -900 160/04 RMK AO2
14837KMSN MSN20011202021009812/02/01 02:10:31  5-MIN KMSN 020810Z 17005KT 1SM BR OVC002 01/00 A3019 620 96 -900 170/05 RMK AO2
14837KMSN MSN20011202021509812/02/01 02:15:31  5-MIN KMSN 020815Z 19005KT 1SM BR OVC002 01/00 A3019 620 96 -900 180/05 RMK AO2
14837KMSN MSN20011202022009812/02/01 02:20:31  5-MIN KMSN 020820Z 17004KT 1SM BR OVC002 01/00 A3019 620 96 -900 170/04 RMK AO2
14837KMSN MSN20011202022510012/02/01 02:25:31  5-MIN KMSN 020825Z 19005KT 1/2SM FG OVC002 01/00 A3019 610 96 -900 190/05 RMK AO2
14837KMSN MSN20011202023010112/02/01 02:30:31  5-MIN KMSN 020830Z 16006KT 1/2SM FG OVC002 01/01 A3019 610 100 -900 160/06 RMK AO2
14837KMSN MSN20011202023510012/02/01 02:35:31  5-MIN KMSN 020835Z 16006KT 1/2SM FG OVC002 01/00 A3019 610 96 -900 160/06 RMK AO2
14837KMSN MSN20011202024010012/02/01 02:40:31  5-MIN KMSN 020840Z 17006KT 1/2SM FG OVC002 01/00 A3019 610 96 -900 170/06 RMK AO2
14837KMSN MSN20011202024510212/02/01 02:45:31  5-MIN KMSN 020845Z 18006KT 1/2SM FG OVC002 00/00 A3019 610 100 -1000 180/06 RMK AO2
14837KMSN MSN20011202025012512/02/01 02:50:31  5-MIN KMSN 020850Z 19005KT 1/2SM FG OVC002 00/00 A3020 610 100 -1000 180/05 RMK AO2 SLP233 T00000000 51003
14837KMSN MSN20011202025510212/02/01 02:55:31  5-MIN KMSN 020855Z 17004KT 1/2SM FG OVC002 00/00 A3020 610 100 -1000 170/04 RMK AO2
14837KMSN MSN20011202030010212/02/01 03:00:31  5-MIN KMSN 020900Z 17005KT 1/2SM FG OVC002 00/00 A3020 610 100 -1000 170/05 RMK AO2
14837KMSN MSN20011202030510212/02/01 03:05:31  5-MIN KMSN 020905Z 17006KT 1/2SM FG OVC002 00/00 A3020 610 100 -1000 170/06 RMK AO2
14837KMSN MSN20011202031010212/02/01 03:10:31  5-MIN KMSN 020910Z 17006KT 1/2SM FG OVC002 00/00 A3020 600 100 -1000 170/06 RMK AO2
14837KMSN MSN20011202031510212/02/01 03:15:31  5-MIN KMSN 020915Z 17006KT 1/2SM FG OVC002 00/00 A3020 600 100 -1000 160/06 RMK AO2
14837KMSN MSN20011202032010212/02/01 03:20:31  5-MIN KMSN 020920Z 17007KT 1/2SM FG OVC002 00/00 A3020 600 100 -1000 170/07 RMK AO2
14837KMSN MSN20011202032510212/02/01 03:25:31  5-MIN KMSN 020925Z 17005KT 1/2SM FG OVC002 00/00 A3020 600 100 -1000 170/05 RMK AO2
14837KMSN MSN20011202033010212/02/01 03:30:31  5-MIN KMSN 020930Z 17006KT 1/2SM FG OVC002 00/00 A3020 600 100 -1000 170/06 RMK AO2
14837KMSN MSN20011202033510212/02/01 03:35:31  5-MIN KMSN 020935Z 18006KT 1/2SM FG OVC002 00/00 A3020 610 100 -1000 180/06 RMK AO2
14837KMSN MSN20011202034010212/02/01 03:40:31  5-MIN KMSN 020940Z 17005KT 1/2SM FG OVC002 00/00 A3020 610 100 -1000 170/05 RMK AO2
14837KMSN MSN20011202034510212/02/01 03:45:31  5-MIN KMSN 020945Z 16006KT 1/2SM FG OVC002 00/00 A3020 610 100 -1000 160/06 RMK AO2
14837KMSN MSN20011202035011912/02/01 03:50:31  5-MIN KMSN 020950Z 15005KT 1/2SM FG OVC002 00/00 A3020 610 100 -1000 150/05 RMK AO2 SLP234 T00000000
14837KMSN MSN20011202035510212/02/01 03:55:31  5-MIN KMSN 020955Z 14005KT 1/2SM FG OVC002 00/M01 A3020 610 96 -1000 140/05 RMK AO2
14837KMSN MSN20011202040010212/02/01 04:00:31  5-MIN KMSN 021000Z 16005KT 1/2SM FG OVC002 00/M01 A3020 610 96 -1000 160/05 RMK AO2
14837KMSN MSN20011202040510212/02/01 04:05:31  5-MIN KMSN 021005Z 14004KT 1/2SM FG OVC002 00/M01 A3020 610 96 -1000 140/04 RMK AO2
14837KMSN MSN20011202041010112/02/01 04:10:31  5-MIN KMSN 021010Z 15005KT 1/2SM FG VV001 00/M01 A3020 610 96 -1000 150/05 RMK AO2
14837KMSN MSN20011202041510312/02/01 04:15:31  5-MIN KMSN 021015Z 15005KT 1/2SM FG VV001 M01/M01 A3020 610 100 -1100 150/05 RMK AO2
14837KMSN MSN20011202042010312/02/01 04:20:31  5-MIN KMSN 021020Z 15006KT 1/2SM FZFG VV001 00/M01 A3020 610 96 -1000 150/06 RMK AO2
14837KMSN MSN20011202042510112/02/01 04:25:31  5-MIN KMSN 021025Z 16005KT 1/2SM FG VV001 00/M01 A3020 610 96 -1000 160/05 RMK AO2
14837KMSN MSN20011202043010112/02/01 04:30:31  5-MIN KMSN 021030Z 16005KT 1/4SM FG VV001 00/00 A3020 610 100 -1000 160/05 RMK AO2
14837KMSN MSN20011202043510112/02/01 04:35:31  5-MIN KMSN 021035Z 15006KT 1/4SM FG VV001 00/00 A3020 610 100 -1000 150/06 RMK AO2
14837KMSN MSN20011202044010112/02/01 04:40:31  5-MIN KMSN 021040Z 15006KT 1/4SM FG VV001 00/00 A3020 610 100 -1000 150/06 RMK AO2
14837KMSN MSN20011202044510112/02/01 04:45:31  5-MIN KMSN 021045Z 15005KT 1/4SM FG VV001 00/00 A3020 610 100 -1000 150/05 RMK AO2
14837KMSN MSN20011202045011812/02/01 04:50:31  5-MIN KMSN 021050Z 16006KT 1/2SM FG VV001 00/00 A3020 610 100 -1000 160/06 RMK AO2 SLP234 T00000000
14837KMSN MSN20011202045510112/02/01 04:55:31  5-MIN KMSN 021055Z 15005KT 1/2SM FG VV001 00/00 A3020 610 100 -1000 150/05 RMK AO2
14837KMSN MSN20011202050010112/02/01 05:00:31  5-MIN KMSN 021100Z 16005KT 1/2SM FG VV001 00/00 A3019 610 100 -1000 160/05 RMK AO2
14837KMSN MSN20011202050509912/02/01 05:05:31  5-MIN KMSN 021105Z 17006KT 1/2SM FG VV001 01/00 A3019 610 96 -900 170/06 RMK AO2
14837KMSN MSN20011202051009912/02/01 05:10:31  5-MIN KMSN 021110Z 18007KT 3/4SM FG VV001 01/00 A3019 610 96 -900 180/07 RMK AO2
14837KMSN MSN20011202051510012/02/01 05:15:31  5-MIN KMSN 021115Z 17006KT 3/4SM FG OVC001 01/00 A3019 610 96 -900 170/06 RMK AO2
14837KMSN MSN20011202052010012/02/01 05:20:31  5-MIN KMSN 021120Z 17006KT 1/2SM FG OVC001 01/00 A3019 620 96 -900 170/06 RMK AO2
14837KMSN MSN20011202052510212/02/01 05:25:31  5-MIN KMSN 021125Z 16006KT 1/2SM FG OVC001 00/00 A3019 620 100 -1000 160/06 RMK AO2
14837KMSN MSN20011202053010212/02/01 05:30:31  5-MIN KMSN 021130Z 17006KT 1/2SM FG OVC001 00/00 A3019 610 100 -1000 170/06 RMK AO2
14837KMSN MSN20011202053510212/02/01 05:35:31  5-MIN KMSN 021135Z 17007KT 1/2SM FG OVC001 00/00 A3019 610 100 -1000 170/07 RMK AO2
14837KMSN MSN20011202054010212/02/01 05:40:31  5-MIN KMSN 021140Z 18006KT 1/2SM FG OVC001 00/00 A3019 610 100 -1000 180/06 RMK AO2
14837KMSN MSN20011202054510212/02/01 05:45:31  5-MIN KMSN 021145Z 17006KT 1/2SM FG OVC001 00/00 A3019 610 100 -1000 170/06 RMK AO2
14837KMSN MSN20011202055013712/02/01 05:50:31  5-MIN KMSN 021150Z 16007KT 1/2SM FG OVC001 00/00 A3019 610 100 -1000 160/07 RMK AO2 SLP233 T00000000 10011 21006 55000
14837KMSN MSN20011202055510212/02/01 05:55:31  5-MIN KMSN 021155Z 16006KT 1/2SM FG OVC001 00/00 A3019 610 100 -1000 160/06 RMK AO2
14837KMSN MSN20011202060010012/02/01 06:00:31  5-MIN KMSN 021200Z 17006KT 1/2SM FG OVC001 01/00 A3019 610 96 -900 170/06 RMK AO2
14837KMSN MSN20011202060510012/02/01 06:05:31  5-MIN KMSN 021205Z 16005KT 1/2SM FG OVC001 01/00 A3019 610 96 -900 160/05 RMK AO2
14837KMSN MSN20011202061010012/02/01 06:10:31  5-MIN KMSN 021210Z 16006KT 1/2SM FG OVC001 01/00 A3019 610 96 -900 160/06 RMK AO2
14837KMSN MSN20011202061510212/02/01 06:15:31  5-MIN KMSN 021215Z 17005KT 1/2SM FG OVC001 00/00 A3019 610 100 -1000 170/05 RMK AO2
14837KMSN MSN20011202062010012/02/01 06:20:31  5-MIN KMSN 021220Z 16006KT 1/2SM FG OVC001 01/00 A3019 610 96 -900 160/06 RMK AO2
14837KMSN MSN20011202062510112/02/01 06:25:31  5-MIN KMSN 021225Z 16005KT 1/2SM FG VV001 00/00 A3019 610 100 -1000 160/05 RMK AO2
14837KMSN MSN20011202063009912/02/01 06:30:31  5-MIN KMSN 021230Z 17006KT 1/2SM FG VV001 01/00 A3019 610 96 -900 170/06 RMK AO2
14837KMSN MSN20011202063509912/02/01 06:35:31  5-MIN KMSN 021235Z 16006KT 1/2SM FG VV001 01/00 A3020 610 96 -900 160/06 RMK AO2
14837KMSN MSN20011202064010112/02/01 06:40:31  5-MIN KMSN 021240Z 15006KT 1/2SM FG VV001 00/00 A3020 610 100 -1000 150/06 RMK AO2
14837KMSN MSN20011202064510112/02/01 06:45:31  5-MIN KMSN 021245Z 15006KT 1/2SM FG VV001 00/00 A3020 610 100 -1000 150/06 RMK AO2
14837KMSN MSN20011202065013012/02/01 06:50:31  5-MIN KMSN 021250Z 15006KT 1/4SM FG VV001 00/00 A3020 610 100 -1000 150/06 RMK AO2 SFC VIS 1/2 SLP236 T00000000
14837KMSN MSN20011202065510112/02/01 06:55:31  5-MIN KMSN 021255Z 15005KT 1/4SM FG VV001 00/00 A3020 610 100 -1000 150/05 RMK AO2
14837KMSN MSN20011202070010112/02/01 07:00:31  5-MIN KMSN 021300Z 14006KT 1/4SM FG VV001 00/00 A3020 610 100 -1000 140/06 RMK AO2
14837KMSN MSN20011202070510112/02/01 07:05:31  5-MIN KMSN 021305Z 15006KT 1/4SM FG VV001 00/00 A3020 610 100 -1000 150/06 RMK AO2
14837KMSN MSN20011202071010112/02/01 07:10:31  5-MIN KMSN 021310Z 15007KT 1/4SM FG VV001 00/00 A3020 610 100 -1000 150/07 RMK AO2
14837KMSN MSN20011202071510112/02/01 07:15:31  5-MIN KMSN 021315Z 15006KT 1/4SM FG VV001 00/00 A3020 610 100 -1000 150/06 RMK AO2
14837KMSN MSN20011202072010112/02/01 07:20:31  5-MIN KMSN 021320Z 15006KT 1/4SM FG VV001 00/00 A3020 610 100 -1000 150/06 RMK AO2
14837KMSN MSN20011202072511312/02/01 07:25:31  5-MIN KMSN 021325Z 15007KT 1/4SM FG VV001 00/00 A3020 610 100 -1000 150/07 RMK AO2 TWR VIS 1/4
14837KMSN MSN20011202073011312/02/01 07:30:31  5-MIN KMSN 021330Z 15006KT 1/4SM FG VV001 00/00 A3020 610 100 -1000 150/06 RMK AO2 TWR VIS 1/4
14837KMSN MSN20011202073510112/02/01 07:35:31  5-MIN KMSN 021335Z 16007KT 1/4SM FG VV001 00/00 A3020 610 100 -1000 160/07 RMK AO2
14837KMSN MSN20011202074010112/02/01 07:40:31  5-MIN KMSN 021340Z 16007KT 1/4SM FG VV001 00/00 A3020 610 100 -1000 160/07 RMK AO2
14837KMSN MSN20011202074510112/02/01 07:45:31  5-MIN KMSN 021345Z 17008KT 1/4SM FG VV001 00/00 A3020 610 100 -1000 160/08 RMK AO2
14837KMSN MSN20011202075011812/02/01 07:50:31  5-MIN KMSN 021350Z 16008KT 1/4SM FG VV001 00/00 A3020 610 100 -1000 160/08 RMK AO2 SLP235 T00000000
14837KMSN MSN20011202075511312/02/01 07:55:31  5-MIN KMSN 021355Z 17007KT 1/4SM FG VV001 00/00 A3020 610 100 -1000 170/07 RMK AO2 TWR VIS 1/4
14837KMSN MSN20011202080011312/02/01 08:00:31  5-MIN KMSN 021400Z 16009KT 1/4SM FG VV001 00/00 A3020 610 100 -1000 160/09 RMK AO2 TWR VIS 1/4
14837KMSN MSN20011202080511312/02/01 08:05:31  5-MIN KMSN 021405Z 16008KT 1/4SM FG VV001 00/00 A3020 610 100 -1000 160/08 RMK AO2 TWR VIS 1/4
14837KMSN MSN20011202081011312/02/01 08:10:31  5-MIN KMSN 021410Z 16008KT 1/4SM FG VV001 00/00 A3020 610 100 -1000 160/08 RMK AO2 TWR VIS 1/4
14837KMSN MSN20011202081511312/02/01 08:15:31  5-MIN KMSN 021415Z 16007KT 1/4SM FG VV001 00/00 A3020 610 100 -1000 160/07 RMK AO2 TWR VIS 1/4
14837KMSN MSN20011202082011312/02/01 08:20:31  5-MIN KMSN 021420Z 16006KT 1/4SM FG VV001 00/00 A3020 610 100 -1000 160/06 RMK AO2 TWR VIS 1/4
14837KMSN MSN20011202082511312/02/01 08:25:31  5-MIN KMSN 021425Z 16006KT 1/4SM FG VV001 00/00 A3020 610 100 -1000 160/06 RMK AO2 TWR VIS 1/4
14837KMSN MSN20011202083011312/02/01 08:30:31  5-MIN KMSN 021430Z 16007KT 1/4SM FG VV001 00/00 A3020 610 100 -1000 160/07 RMK AO2 TWR VIS 1/4
14837KMSN MSN20011202083511312/02/01 08:35:31  5-MIN KMSN 021435Z 18006KT 1/4SM FG VV001 00/00 A3019 610 100 -1000 180/06 RMK AO2 TWR VIS 1/4
14837KMSN MSN20011202084011112/02/01 08:40:31  5-MIN KMSN 021440Z 16006KT 1/4SM FG VV001 01/00 A3020 610 96 -900 160/06 RMK AO2 TWR VIS 1/4
14837KMSN MSN20011202084511212/02/01 08:45:31  5-MIN KMSN 021445Z 17005KT 1/4SM FG VV001 01/01 A3020 610 100 -900 160/05 RMK AO2 TWR VIS 1/4
14837KMSN MSN20011202085013512/02/01 08:50:31  5-MIN KMSN 021450Z 16007KT 1/4SM FG VV001 01/01 A3020 610 100 -900 150/07 RMK AO2 TWR VIS 1/4 SLP236 T00060006 58001
14837KMSN MSN20011202085511212/02/01 08:55:31  5-MIN KMSN 021455Z 16008KT 1/4SM FG VV001 01/01 A3020 610 100 -900 160/08 RMK AO2 TWR VIS 1/4
14837KMSN MSN20011202090011212/02/01 09:00:31  5-MIN KMSN 021500Z 16008KT 1/4SM FG VV001 01/01 A3020 610 100 -900 160/08 RMK AO2 TWR VIS 1/4
14837KMSN MSN20011202090511212/02/01 09:05:31  5-MIN KMSN 021505Z 18006KT 1/4SM FG VV001 01/01 A3020 610 100 -900 180/06 RMK AO2 TWR VIS 1/4
14837KMSN MSN20011202091011212/02/01 09:10:31  5-MIN KMSN 021510Z 18006KT 1/4SM FG VV001 01/01 A3020 610 100 -900 170/06 RMK AO2 TWR VIS 1/4
14837KMSN MSN20011202091511212/02/01 09:15:31  5-MIN KMSN 021515Z 16008KT 1/4SM FG VV001 01/01 A3020 610 100 -900 160/08 RMK AO2 TWR VIS 1/4
14837KMSN MSN20011202092011312/02/01 09:20:31  5-MIN KMSN 021520Z 16006KT 1/4SM FG OVC001 01/01 A3020 610 100 -900 160/06 RMK AO2 TWR VIS 1/4
14837KMSN MSN20011202092510112/02/01 09:25:31  5-MIN KMSN 021525Z 15007KT 1/4SM FG OVC001 01/01 A3020 610 100 -900 150/07 RMK AO2
14837KMSN MSN20011202093010112/02/01 09:30:31  5-MIN KMSN 021530Z 15008KT 1/4SM FG OVC001 01/01 A3020 610 100 -800 150/08 RMK AO2
14837KMSN MSN20011202093510112/02/01 09:35:31  5-MIN KMSN 021535Z 14007KT 1/4SM FG OVC001 01/01 A3019 620 100 -900 140/07 RMK AO2
14837KMSN MSN20011202094010112/02/01 09:40:31  5-MIN KMSN 021540Z 15007KT 1/4SM FG OVC001 01/01 A3019 620 100 -800 140/07 RMK AO2
14837KMSN MSN20011202094511312/02/01 09:45:31  5-MIN KMSN 021545Z 15007KT 1/4SM FG OVC001 01/01 A3018 620 100 -800 150/07 RMK AO2 SFC VIS 1/2
14837KMSN MSN20011202095013012/02/01 09:50:31  5-MIN KMSN 021550Z 15007KT 1/4SM FG OVC001 01/01 A3018 620 100 -800 150/07 RMK AO2 SFC VIS 1/2 SLP230 T00110011
14837KMSN MSN20011202095511312/02/01 09:55:31  5-MIN KMSN 021555Z 16007KT 1/4SM FG OVC001 01/01 A3018 620 100 -800 160/07 RMK AO2 SFC VIS 1/2
14837KMSN MSN20011202100011112/02/01 10:00:31  5-MIN KMSN 021600Z 15007KT 1/4SM BR OVC001 02/02 A3018 630 100 -800 150/07 RMK AO2 SFC VIS 1
14837KMSN MSN20011202100511312/02/01 10:05:31  5-MIN KMSN 021605Z 16008KT 1SM BR BKN001 02/02 A3018 630 100 -800 160/08 RMK AO2 SFC VIS 1 1/4
14837KMSN MSN20011202101011312/02/01 10:10:31  5-MIN KMSN 021610Z 16008KT 1SM BR BKN001 02/02 A3017 630 100 -700 160/08 RMK AO2 SFC VIS 1 1/4
14837KMSN MSN20011202101511312/02/01 10:15:31  5-MIN KMSN 021615Z 16007KT 1SM BR BKN001 02/02 A3017 630 100 -700 160/07 RMK AO2 SFC VIS 1 1/2
14837KMSN MSN20011202102009912/02/01 10:20:31  5-MIN KMSN 021620Z 15006KT 2SM BR BKN004 02/02 A3017 640 100 -700 150/06 RMK AO2
14837KMSN MSN20011202102511312/02/01 10:25:31  5-MIN KMSN 021625Z 15006KT 2SM BR BKN004 02/02 A3017 640 100 -700 140/06 RMK AO2 SFC VIS 2 1/2
14837KMSN MSN20011202103011212/02/01 10:30:31  5-MIN KMSN 021630Z 17006KT 2SM BR BKN004 03/02 A3016 640 96 -600 170/06 RMK AO2 SFC VIS 2 1/2
14837KMSN MSN20011202103511212/02/01 10:35:31  5-MIN KMSN 021635Z 16006KT 2SM BR BKN004 03/02 A3016 640 92 -500 160/06 RMK AO2 SFC VIS 2 1/2
14837KMSN MSN20011202104009812/02/01 10:40:31  5-MIN KMSN 021640Z 15006KT 3SM BR FEW004 03/02 A3016 650 92 -500 150/06 RMK AO2
14837KMSN MSN20011202104509812/02/01 10:45:31  5-MIN KMSN 021645Z 16007KT 3SM BR FEW004 04/02 A3015 650 89 -400 160/07 RMK AO2
14837KMSN MSN20011202105011512/02/01 10:50:31  5-MIN KMSN 021650Z 16009KT 6SM BR FEW004 04/02 A3015 650 85 -400 160/09 RMK AO2 SLP217 T00440022
14837KMSN MSN20011202105509512/02/01 10:55:31  5-MIN KMSN 021655Z 16009KT 6SM HZ CLR 05/02 A3014 660 82 -300 150/09 RMK AO2
14837KMSN MSN20011202110009512/02/01 11:00:31  5-MIN KMSN 021700Z 16009KT 6SM HZ CLR 05/02 A3014 660 82 -300 150/09 RMK AO2
14837KMSN MSN20011202110510212/02/01 11:05:31  5-MIN KMSN 021705Z 15008KT 6SM HZ CLR 06/03 A3013 670 82 -200 150/08 RMK AO2 PRESFR
14837KMSN MSN20011202111009912/02/01 11:10:31  5-MIN KMSN 021710Z 16009KT 7SM CLR 06/03 A3012 680 79 -100 160/09 RMK AO2 PRESFR
14837KMSN MSN20011202111509212/02/01 11:15:31  5-MIN KMSN 021715Z 15010KT 7SM CLR 06/03 A3012 680 79 -100 150/10 RMK AO2
14837KMSN MSN20011202112009212/02/01 11:20:31  5-MIN KMSN 021720Z 16009KT 8SM CLR 07/03 A3011 690 76 -100 160/09 RMK AO2
14837KMSN MSN20011202112509612/02/01 11:25:31  5-MIN KMSN 021725Z 16011KT 8SM CLR 07/03 A3011 690 73 0 160/11 RMK AO2 PRESFR
14837KMSN MSN20011202113008912/02/01 11:30:31  5-MIN KMSN 021730Z 16010KT 8SM CLR 08/03 A3011 690 73 0 160/10 RMK AO2
14837KMSN MSN20011202113508912/02/01 11:35:31  5-MIN KMSN 021735Z 16011KT 9SM CLR 08/03 A3011 690 73 0 160/11 RMK AO2
14837KMSN MSN20011202114008912/02/01 11:40:31  5-MIN KMSN 021740Z 17009KT 9SM CLR 08/03 A3010 690 73 0 170/09 RMK AO2
14837KMSN MSN20011202114509112/02/01 11:45:31  5-MIN KMSN 021745Z 17010KT 9SM CLR 08/03 A3010 690 70 100 170/10 RMK AO2
14837KMSN MSN20011202115012712/02/01 11:50:31  5-MIN KMSN 021750Z 16012KT 10SM CLR 09/03 A3010 700 68 200 160/12 RMK AO2 SLP199 T00890033 10089 20000 51003
14837KMSN MSN20011202115509212/02/01 11:55:31  5-MIN KMSN 021755Z 16011KT 10SM CLR 09/03 A3010 700 68 200 160/11 RMK AO2
14837KMSN MSN20011202120009212/02/01 12:00:31  5-MIN KMSN 021800Z 17010KT 10SM CLR 09/03 A3010 700 68 200 170/10 RMK AO2
14837KMSN MSN20011202120509212/02/01 12:05:31  5-MIN KMSN 021805Z 17013KT 10SM CLR 09/03 A3009 700 68 200 170/13 RMK AO2
14837KMSN MSN20011202121009212/02/01 12:10:31  5-MIN KMSN 021810Z 18012KT 10SM CLR 09/03 A3009 710 65 200 180/12 RMK AO2
14837KMSN MSN20011202121509212/02/01 12:15:31  5-MIN KMSN 021815Z 17010KT 10SM CLR 09/03 A3009 710 65 300 160/10 RMK AO2
14837KMSN MSN20011202122009212/02/01 12:20:31  5-MIN KMSN 021820Z 17012KT 10SM CLR 09/03 A3008 710 65 300 170/12 RMK AO2
14837KMSN MSN20011202122509212/02/01 12:25:31  5-MIN KMSN 021825Z 17014KT 10SM CLR 09/03 A3008 710 65 300 170/14 RMK AO2
14837KMSN MSN20011202123009212/02/01 12:30:31  5-MIN KMSN 021830Z 16013KT 10SM CLR 09/03 A3008 720 65 300 160/13 RMK AO2
14837KMSN MSN20011202123509212/02/01 12:35:31  5-MIN KMSN 021835Z 17013KT 10SM CLR 10/03 A3008 720 63 300 170/13 RMK AO2
14837KMSN MSN20011202124009212/02/01 12:40:31  5-MIN KMSN 021840Z 17013KT 10SM CLR 10/03 A3008 720 63 300 170/13 RMK AO2
14837KMSN MSN20011202124509212/02/01 12:45:31  5-MIN KMSN 021845Z 17013KT 10SM CLR 09/03 A3007 720 65 300 170/13 RMK AO2
14837KMSN MSN20011202125010912/02/01 12:50:31  5-MIN KMSN 021850Z 17014KT 10SM CLR 09/03 A3007 730 65 300 160/14 RMK AO2 SLP188 T00940033
14837KMSN MSN20011202125509212/02/01 12:55:31  5-MIN KMSN 021855Z 17015KT 10SM CLR 09/03 A3006 730 65 300 170/15 RMK AO2
14837KMSN MSN20011202130009212/02/01 13:00:31  5-MIN KMSN 021900Z 18011KT 10SM CLR 09/03 A3006 730 65 300 180/11 RMK AO2
14837KMSN MSN20011202130509212/02/01 13:05:31  5-MIN KMSN 021905Z 16014KT 10SM CLR 10/03 A3006 730 63 400 160/14 RMK AO2
14837KMSN MSN20011202131009212/02/01 13:10:31  5-MIN KMSN 021910Z 16014KT 10SM CLR 10/03 A3006 740 63 400 160/14 RMK AO2
14837KMSN MSN20011202131509212/02/01 13:15:31  5-MIN KMSN 021915Z 17015KT 10SM CLR 10/03 A3005 740 63 400 170/15 RMK AO2
14837KMSN MSN20011202132009212/02/01 13:20:31  5-MIN KMSN 021920Z 17014KT 10SM CLR 10/03 A3005 750 63 400 170/14 RMK AO2
14837KMSN MSN20011202132509812/02/01 13:25:31  5-MIN KMSN 021925Z 18014G20KT 10SM CLR 10/04 A3004 750 65 400 170/14G20 RMK AO2
14837KMSN MSN20011202133009812/02/01 13:30:31  5-MIN KMSN 021930Z 17014G20KT 10SM CLR 10/03 A3004 750 63 400 170/14G20 RMK AO2
14837KMSN MSN20011202133509212/02/01 13:35:31  5-MIN KMSN 021935Z 17012KT 10SM CLR 11/04 A3004 750 63 400 170/12 RMK AO2
14837KMSN MSN20011202134009812/02/01 13:40:31  5-MIN KMSN 021940Z 18016G19KT 10SM CLR 11/04 A3004 760 63 400 180/16G19 RMK AO2
14837KMSN MSN20011202134509812/02/01 13:45:31  5-MIN KMSN 021945Z 17013G19KT 10SM CLR 10/03 A3004 760 63 400 170/13G19 RMK AO2
14837KMSN MSN20011202135010912/02/01 13:50:31  5-MIN KMSN 021950Z 18014KT 10SM CLR 10/03 A3004 750 63 400 180/14 RMK AO2 SLP178 T01000033
14837KMSN MSN20011202135509212/02/01 13:55:31  5-MIN KMSN 021955Z 18016KT 10SM CLR 10/03 A3004 750 63 400 180/16 RMK AO2
14837KMSN MSN20011202140009212/02/01 14:00:31  5-MIN KMSN 022000Z 17013KT 10SM CLR 10/03 A3004 760 63 400 170/13 RMK AO2
14837KMSN MSN20011202140509212/02/01 14:05:31  5-MIN KMSN 022005Z 18015KT 10SM CLR 10/04 A3004 760 65 400 180/15 RMK AO2
14837KMSN MSN20011202141009212/02/01 14:10:31  5-MIN KMSN 022010Z 18014KT 10SM CLR 10/04 A3003 760 65 400 180/14 RMK AO2
14837KMSN MSN20011202141509212/02/01 14:15:31  5-MIN KMSN 022015Z 17015KT 10SM CLR 10/04 A3002 770 65 400 170/15 RMK AO2
14837KMSN MSN20011202142009212/02/01 14:20:31  5-MIN KMSN 022020Z 17015KT 10SM CLR 10/04 A3003 770 65 400 170/15 RMK AO2
14837KMSN MSN20011202142509212/02/01 14:25:31  5-MIN KMSN 022025Z 17014KT 10SM CLR 10/04 A3002 770 65 400 170/14 RMK AO2
14837KMSN MSN20011202143009212/02/01 14:30:31  5-MIN KMSN 022030Z 17014KT 10SM CLR 10/04 A3002 770 65 400 170/14 RMK AO2
14837KMSN MSN20011202143509212/02/01 14:35:31  5-MIN KMSN 022035Z 18012KT 10SM CLR 10/04 A3002 770 65 400 180/12 RMK AO2
14837KMSN MSN20011202144009212/02/01 14:40:31  5-MIN KMSN 022040Z 17012KT 10SM CLR 10/04 A3002 770 65 400 170/12 RMK AO2
14837KMSN MSN20011202144509812/02/01 14:45:31  5-MIN KMSN 022045Z 18014G19KT 10SM CLR 09/04 A3003 770 68 300 180/14G19 RMK AO2
14837KMSN MSN20011202145011512/02/01 14:50:31  5-MIN KMSN 022050Z 18016KT 10SM CLR 09/04 A3002 770 68 300 180/16 RMK AO2 SLP173 T00940039 58033
14837KMSN MSN20011202145509212/02/01 14:55:31  5-MIN KMSN 022055Z 18015KT 10SM CLR 09/04 A3002 770 68 300 180/15 RMK AO2
14837KMSN MSN20011202150009212/02/01 15:00:31  5-MIN KMSN 022100Z 19012KT 10SM CLR 09/04 A3003 770 68 300 190/12 RMK AO2
14837KMSN MSN20011202150509212/02/01 15:05:31  5-MIN KMSN 022105Z 19010KT 10SM CLR 09/04 A3002 770 68 300 190/10 RMK AO2
14837KMSN MSN20011202151009812/02/01 15:10:31  5-MIN KMSN 022110Z 18010G16KT 10SM CLR 09/04 A3002 770 71 300 180/10G16 RMK AO2
14837KMSN MSN20011202151509812/02/01 15:15:31  5-MIN KMSN 022115Z 18010G16KT 10SM CLR 09/04 A3002 770 71 300 170/10G16 RMK AO2
14837KMSN MSN20011202152009212/02/01 15:20:31  5-MIN KMSN 022120Z 18013KT 10SM CLR 09/04 A3002 770 71 300 180/13 RMK AO2
14837KMSN MSN20011202152509212/02/01 15:25:31  5-MIN KMSN 022125Z 17012KT 10SM CLR 09/04 A3001 780 73 300 170/12 RMK AO2
14837KMSN MSN20011202153009212/02/01 15:30:31  5-MIN KMSN 022130Z 18008KT 10SM CLR 09/04 A3001 780 73 300 170/08 RMK AO2
14837KMSN MSN20011202153509212/02/01 15:35:31  5-MIN KMSN 022135Z 18010KT 10SM CLR 09/04 A3002 770 73 300 180/10 RMK AO2
14837KMSN MSN20011202154009212/02/01 15:40:31  5-MIN KMSN 022140Z 18010KT 10SM CLR 09/04 A3002 780 73 300 180/10 RMK AO2
14837KMSN MSN20011202154509212/02/01 15:45:31  5-MIN KMSN 022145Z 18010KT 10SM CLR 09/04 A3001 780 73 300 180/10 RMK AO2
14837KMSN MSN20011202155010912/02/01 15:50:31  5-MIN KMSN 022150Z 18011KT 10SM CLR 09/04 A3001 780 73 300 170/11 RMK AO2 SLP168 T00890044
14837KMSN MSN20011202155509212/02/01 15:55:31  5-MIN KMSN 022155Z 18012KT 10SM CLR 09/04 A3001 790 73 300 180/12 RMK AO2
14837KMSN MSN20011202160009212/02/01 16:00:31  5-MIN KMSN 022200Z 18011KT 10SM CLR 09/04 A3001 790 73 300 180/11 RMK AO2
14837KMSN MSN20011202160509212/02/01 16:05:31  5-MIN KMSN 022205Z 18010KT 10SM CLR 09/04 A3001 790 73 300 180/10 RMK AO2
14837KMSN MSN20011202161009212/02/01 16:10:31  5-MIN KMSN 022210Z 18009KT 10SM CLR 09/04 A3000 790 73 300 180/09 RMK AO2
14837KMSN MSN20011202161509212/02/01 16:15:31  5-MIN KMSN 022215Z 18011KT 10SM CLR 08/04 A3001 790 76 200 180/11 RMK AO2
14837KMSN MSN20011202162009212/02/01 16:20:31  5-MIN KMSN 022220Z 18011KT 10SM CLR 08/04 A3001 790 76 200 180/11 RMK AO2
14837KMSN MSN20011202162509212/02/01 16:25:31  5-MIN KMSN 022225Z 18012KT 10SM CLR 08/04 A3000 790 76 200 180/12 RMK AO2
14837KMSN MSN20011202163009212/02/01 16:30:31  5-MIN KMSN 022230Z 18011KT 10SM CLR 08/04 A3000 790 76 200 180/11 RMK AO2
14837KMSN MSN20011202163509212/02/01 16:35:31  5-MIN KMSN 022235Z 18012KT 10SM CLR 08/04 A2999 800 76 200 180/12 RMK AO2
14837KMSN MSN20011202164009212/02/01 16:40:31  5-MIN KMSN 022240Z 18011KT 10SM CLR 08/04 A2999 800 76 200 180/11 RMK AO2
14837KMSN MSN20011202164509212/02/01 16:45:31  5-MIN KMSN 022245Z 18010KT 10SM CLR 08/04 A2999 800 76 200 180/10 RMK AO2
14837KMSN MSN20011202165010912/02/01 16:50:31  5-MIN KMSN 022250Z 18010KT 10SM CLR 08/04 A2999 800 76 200 180/10 RMK AO2 SLP163 T00830044
14837KMSN MSN20011202165509212/02/01 16:55:31  5-MIN KMSN 022255Z 18010KT 10SM CLR 08/04 A2999 800 76 200 180/10 RMK AO2
14837KMSN MSN20011202170009212/02/01 17:00:31  5-MIN KMSN 022300Z 18010KT 10SM CLR 08/05 A2999 800 79 200 180/10 RMK AO2
14837KMSN MSN20011202170509212/02/01 17:05:31  5-MIN KMSN 022305Z 18009KT 10SM CLR 08/05 A3000 790 79 200 180/09 RMK AO2
14837KMSN MSN20011202171009212/02/01 17:10:31  5-MIN KMSN 022310Z 18009KT 10SM CLR 08/05 A3000 790 79 200 180/09 RMK AO2
14837KMSN MSN20011202171509212/02/01 17:15:31  5-MIN KMSN 022315Z 18009KT 10SM CLR 08/05 A3000 790 79 200 180/09 RMK AO2
14837KMSN MSN20011202172009212/02/01 17:20:31  5-MIN KMSN 022320Z 18007KT 10SM CLR 08/05 A3000 790 79 200 180/07 RMK AO2
14837KMSN MSN20011202172509212/02/01 17:25:31  5-MIN KMSN 022325Z 18008KT 10SM CLR 08/05 A3000 790 82 200 180/08 RMK AO2
14837KMSN MSN20011202173009212/02/01 17:30:31  5-MIN KMSN 022330Z 18008KT 10SM CLR 08/05 A3000 790 82 200 180/08 RMK AO2
14837KMSN MSN20011202173509212/02/01 17:35:31  5-MIN KMSN 022335Z 18008KT 10SM CLR 08/05 A3000 800 82 200 180/08 RMK AO2
14837KMSN MSN20011202174009212/02/01 17:40:31  5-MIN KMSN 022340Z 17008KT 10SM CLR 08/05 A2999 800 82 200 170/08 RMK AO2
14837KMSN MSN20011202174509212/02/01 17:45:31  5-MIN KMSN 022345Z 17009KT 10SM CLR 08/05 A2999 800 82 200 170/09 RMK AO2
14837KMSN MSN20011202175012712/02/01 17:50:31  5-MIN KMSN 022350Z 18010KT 10SM CLR 08/05 A2999 800 82 200 180/10 RMK AO2 SLP162 T00780050 10106 20078 56027
14837KMSN MSN20011202175509212/02/01 17:55:31  5-MIN KMSN 022355Z 18010KT 10SM CLR 08/05 A2998 810 82 200 180/10 RMK AO2
14837KMSN MSN20011202180009212/02/01 18:00:31  5-MIN KMSN 030000Z 18009KT 10SM CLR 08/05 A2998 810 79 200 180/09 RMK AO2
14837KMSN MSN20011202180509212/02/01 18:05:31  5-MIN KMSN 030005Z 18009KT 10SM CLR 08/05 A2998 810 79 200 180/09 RMK AO2
14837KMSN MSN20011202181009212/02/01 18:10:31  5-MIN KMSN 030010Z 18009KT 10SM CLR 08/06 A2998 810 82 200 180/09 RMK AO2
14837KMSN MSN20011202181509212/02/01 18:15:31  5-MIN KMSN 030015Z 19007KT 10SM CLR 08/06 A2999 800 82 200 190/07 RMK AO2
14837KMSN MSN20011202182009212/02/01 18:20:31  5-MIN KMSN 030020Z 19007KT 10SM CLR 08/05 A2999 800 79 200 190/07 RMK AO2
14837KMSN MSN20011202182509212/02/01 18:25:31  5-MIN KMSN 030025Z 19009KT 10SM CLR 08/05 A2999 800 79 200 190/09 RMK AO2
14837KMSN MSN20011202183009212/02/01 18:30:31  5-MIN KMSN 030030Z 19008KT 10SM CLR 08/05 A2999 800 79 200 190/08 RMK AO2
14837KMSN MSN20011202183509212/02/01 18:35:31  5-MIN KMSN 030035Z 18009KT 10SM CLR 08/05 A2998 800 79 200 180/09 RMK AO2
14837KMSN MSN20011202184009212/02/01 18:40:31  5-MIN KMSN 030040Z 18008KT 10SM CLR 08/05 A2998 810 82 200 180/08 RMK AO2
14837KMSN MSN20011202184509212/02/01 18:45:31  5-MIN KMSN 030045Z 18008KT 10SM CLR 08/05 A2998 810 82 200 180/08 RMK AO2
14837KMSN MSN20011202185010912/02/01 18:50:31  5-MIN KMSN 030050Z 19009KT 10SM CLR 08/05 A2998 810 82 200 190/09 RMK AO2 SLP158 T00780050
14837KMSN MSN20011202185509212/02/01 18:55:31  5-MIN KMSN 030055Z 19009KT 10SM CLR 08/05 A2997 820 82 200 190/09 RMK AO2
14837KMSN MSN20011202190009212/02/01 19:00:31  5-MIN KMSN 030100Z 19010KT 10SM CLR 08/05 A2997 820 82 200 190/10 RMK AO2
14837KMSN MSN20011202190509212/02/01 19:05:31  5-MIN KMSN 030105Z 19009KT 10SM CLR 08/05 A2996 830 82 200 190/09 RMK AO2
14837KMSN MSN20011202191009812/02/01 19:10:31  5-MIN KMSN 030110Z 18007KT 9SM CLR 08/05 A2996 830 82 200 180/07 RMK AO2 PRESFR
14837KMSN MSN20011202191509812/02/01 19:15:31  5-MIN KMSN 030115Z 18009KT 9SM CLR 08/05 A2994 840 82 200 180/09 RMK AO2 PRESFR
14837KMSN MSN20011202192009812/02/01 19:20:31  5-MIN KMSN 030120Z 18011KT 9SM CLR 08/05 A2994 850 82 200 180/11 RMK AO2 PRESFR
14837KMSN MSN20011202192509112/02/01 19:25:31  5-MIN KMSN 030125Z 18011KT 9SM CLR 08/05 A2994 850 82 200 180/11 RMK AO2
14837KMSN MSN20011202193009112/02/01 19:30:31  5-MIN KMSN 030130Z 19011KT 9SM CLR 08/05 A2994 840 82 200 190/11 RMK AO2
14837KMSN MSN20011202193509212/02/01 19:35:31  5-MIN KMSN 030135Z 19011KT 10SM CLR 08/05 A2995 840 82 200 190/11 RMK AO2
14837KMSN MSN20011202194009212/02/01 19:40:31  5-MIN KMSN 030140Z 19010KT 10SM CLR 08/05 A2995 840 82 200 190/10 RMK AO2
14837KMSN MSN20011202194509112/02/01 19:45:31  5-MIN KMSN 030145Z 19010KT 9SM CLR 08/05 A2995 830 82 200 190/10 RMK AO2
14837KMSN MSN20011202195010912/02/01 19:50:31  5-MIN KMSN 030150Z 19007KT 10SM CLR 08/05 A2996 830 82 200 190/07 RMK AO2 SLP153 T00780050
14837KMSN MSN20011202195509212/02/01 19:55:31  5-MIN KMSN 030155Z 20008KT 10SM CLR 08/05 A2996 820 82 200 200/08 RMK AO2
14837KMSN MSN20011202200009212/02/01 20:00:31  5-MIN KMSN 030200Z 19012KT 10SM CLR 08/05 A2996 830 82 200 190/12 RMK AO2
14837KMSN MSN20011202200509212/02/01 20:05:31  5-MIN KMSN 030205Z 19011KT 10SM CLR 08/05 A2996 830 82 200 190/11 RMK AO2
14837KMSN MSN20011202201009212/02/01 20:10:31  5-MIN KMSN 030210Z 19013KT 10SM CLR 08/06 A2996 830 82 300 190/13 RMK AO2
14837KMSN MSN20011202201509212/02/01 20:15:31  5-MIN KMSN 030215Z 19015KT 10SM CLR 08/06 A2996 830 82 300 190/15 RMK AO2
14837KMSN MSN20011202202009212/02/01 20:20:31  5-MIN KMSN 030220Z 19013KT 10SM CLR 08/06 A2996 830 82 300 190/13 RMK AO2
14837KMSN MSN20011202202509212/02/01 20:25:31  5-MIN KMSN 030225Z 19013KT 10SM CLR 08/06 A2996 820 82 300 190/13 RMK AO2
14837KMSN MSN20011202203009212/02/01 20:30:31  5-MIN KMSN 030230Z 19011KT 10SM CLR 08/06 A2996 830 82 300 190/11 RMK AO2
14837KMSN MSN20011202203509212/02/01 20:35:31  5-MIN KMSN 030235Z 19011KT 10SM CLR 08/06 A2996 830 82 300 190/11 RMK AO2
14837KMSN MSN20011202204009112/02/01 20:40:31  5-MIN KMSN 030240Z 19011KT 8SM CLR 08/06 A2996 830 82 300 190/11 RMK AO2
14837KMSN MSN20011202204509112/02/01 20:45:31  5-MIN KMSN 030245Z 19010KT 8SM CLR 08/06 A2996 830 86 200 190/10 RMK AO2
14837KMSN MSN20011202205011512/02/01 20:50:31  5-MIN KMSN 030250Z 19011KT 10SM CLR 08/06 A2996 830 86 200 190/11 RMK AO2 SLP152 T00780056 56013
14837KMSN MSN20011202205509112/02/01 20:55:31  5-MIN KMSN 030255Z 19010KT 8SM CLR 08/06 A2996 820 86 200 190/10 RMK AO2
14837KMSN MSN20011202210009112/02/01 21:00:31  5-MIN KMSN 030300Z 20010KT 8SM CLR 08/06 A2997 820 86 200 190/10 RMK AO2
14837KMSN MSN20011202210509112/02/01 21:05:31  5-MIN KMSN 030305Z 19009KT 8SM CLR 08/06 A2997 820 86 200 190/09 RMK AO2
14837KMSN MSN20011202211009112/02/01 21:10:31  5-MIN KMSN 030310Z 20009KT 8SM CLR 08/06 A2997 820 86 200 190/09 RMK AO2
14837KMSN MSN20011202211509112/02/01 21:15:31  5-MIN KMSN 030315Z 19009KT 8SM CLR 08/06 A2997 820 86 200 190/09 RMK AO2
14837KMSN MSN20011202212009112/02/01 21:20:31  5-MIN KMSN 030320Z 19010KT 8SM CLR 08/06 A2997 820 86 200 190/10 RMK AO2
14837KMSN MSN20011202212509112/02/01 21:25:31  5-MIN KMSN 030325Z 19011KT 8SM CLR 08/06 A2996 830 86 200 190/11 RMK AO2
14837KMSN MSN20011202213009112/02/01 21:30:31  5-MIN KMSN 030330Z 19011KT 8SM CLR 08/06 A2996 830 86 200 190/11 RMK AO2
14837KMSN MSN20011202213509112/02/01 21:35:31  5-MIN KMSN 030335Z 19011KT 8SM CLR 08/06 A2996 830 86 200 190/11 RMK AO2
14837KMSN MSN20011202214009112/02/01 21:40:31  5-MIN KMSN 030340Z 19009KT 8SM CLR 08/06 A2996 830 86 200 190/09 RMK AO2
14837KMSN MSN20011202214509112/02/01 21:45:31  5-MIN KMSN 030345Z 19009KT 8SM CLR 08/06 A2996 830 86 200 190/09 RMK AO2
14837KMSN MSN20011202215010812/02/01 21:50:31  5-MIN KMSN 030350Z 19010KT 8SM CLR 08/06 A2996 830 86 200 190/10 RMK AO2 SLP152 T00780056
14837KMSN MSN20011202215509112/02/01 21:55:31  5-MIN KMSN 030355Z 19009KT 8SM CLR 08/06 A2996 830 86 200 190/09 RMK AO2
14837KMSN MSN20011202220009112/02/01 22:00:31  5-MIN KMSN 030400Z 19010KT 8SM CLR 08/06 A2996 830 86 200 190/10 RMK AO2
14837KMSN MSN20011202220509112/02/01 22:05:31  5-MIN KMSN 030405Z 19008KT 8SM CLR 08/06 A2996 830 82 300 190/08 RMK AO2
14837KMSN MSN20011202221009112/02/01 22:10:31  5-MIN KMSN 030410Z 19008KT 8SM CLR 08/06 A2996 830 86 200 190/08 RMK AO2
14837KMSN MSN20011202221509112/02/01 22:15:31  5-MIN KMSN 030415Z 19008KT 8SM CLR 08/06 A2996 830 86 200 190/08 RMK AO2
14837KMSN MSN20011202222009112/02/01 22:20:31  5-MIN KMSN 030420Z 19009KT 8SM CLR 08/06 A2996 830 86 200 190/09 RMK AO2
14837KMSN MSN20011202222509112/02/01 22:25:31  5-MIN KMSN 030425Z 20008KT 7SM CLR 08/06 A2996 830 86 200 200/08 RMK AO2
14837KMSN MSN20011202223009112/02/01 22:30:31  5-MIN KMSN 030430Z 19008KT 7SM CLR 08/06 A2996 830 86 200 190/08 RMK AO2
14837KMSN MSN20011202223509112/02/01 22:35:31  5-MIN KMSN 030435Z 20007KT 7SM CLR 08/06 A2996 830 86 200 200/07 RMK AO2
14837KMSN MSN20011202224009112/02/01 22:40:31  5-MIN KMSN 030440Z 20006KT 7SM CLR 08/06 A2996 830 86 200 200/06 RMK AO2
14837KMSN MSN20011202224509112/02/01 22:45:31  5-MIN KMSN 030445Z 20006KT 7SM CLR 08/06 A2996 830 86 200 200/06 RMK AO2
14837KMSN MSN20011202225010812/02/01 22:50:31  5-MIN KMSN 030450Z 21007KT 7SM CLR 08/06 A2996 820 86 200 210/07 RMK AO2 SLP152 T00780056
14837KMSN MSN20011202225509112/02/01 22:55:31  5-MIN KMSN 030455Z 21007KT 8SM CLR 08/06 A2996 820 86 200 210/07 RMK AO2
14837KMSN MSN20011202230009112/02/01 23:00:31  5-MIN KMSN 030500Z 21007KT 8SM CLR 08/06 A2997 820 86 200 210/07 RMK AO2
14837KMSN MSN20011202230509112/02/01 23:05:31  5-MIN KMSN 030505Z 21007KT 8SM CLR 08/06 A2997 820 86 200 210/07 RMK AO2
14837KMSN MSN20011202231009112/02/01 23:10:31  5-MIN KMSN 030510Z 20007KT 8SM CLR 08/06 A2997 820 89 200 200/07 RMK AO2
14837KMSN MSN20011202231509112/02/01 23:15:31  5-MIN KMSN 030515Z 20007KT 7SM CLR 08/06 A2997 820 89 200 200/07 RMK AO2
14837KMSN MSN20011202232009112/02/01 23:20:31  5-MIN KMSN 030520Z 20007KT 7SM CLR 08/06 A2997 820 86 200 200/07 RMK AO2
14837KMSN MSN20011202232509112/02/01 23:25:31  5-MIN KMSN 030525Z 20009KT 7SM CLR 07/06 A2997 820 89 100 200/09 RMK AO2
14837KMSN MSN20011202233009112/02/01 23:30:31  5-MIN KMSN 030530Z 21008KT 7SM CLR 07/06 A2997 820 89 100 210/08 RMK AO2
14837KMSN MSN20011202233509112/02/01 23:35:31  5-MIN KMSN 030535Z 21008KT 7SM CLR 07/06 A2996 820 89 100 200/08 RMK AO2
14837KMSN MSN20011202234009112/02/01 23:40:31  5-MIN KMSN 030540Z 21007KT 7SM CLR 07/06 A2997 820 89 100 210/07 RMK AO2
14837KMSN MSN20011202234510712/02/01 23:45:31  5-MIN KMSN 030545Z 21007KT 180V250 7SM CLR 07/06 A2997 820 89 100 210/07 180V250 RMK AO2
14837KMSN MSN20011202235013612/02/01 23:50:31  5-MIN KMSN 030550Z 20007KT 7SM CLR 07/06 A2997 820 89 100 190/07 RMK AO2 SLP152 T00720056 10083 20072 401061006 55006
14837KMSN MSN20011202235509112/02/01 23:55:31  5-MIN KMSN 030555Z 20008KT 7SM CLR 07/05 A2997 820 86 100 200/08 RMK AO2
14837KMSN MSN20011203000009112/03/01 00:00:31  5-MIN KMSN 030600Z 20009KT 7SM CLR 08/06 A2997 820 86 200 200/09 RMK AO2
14837KMSN MSN20011203000509112/03/01 00:05:31  5-MIN KMSN 030605Z 21008KT 7SM CLR 07/06 A2997 820 89 100 210/08 RMK AO2
14837KMSN MSN20011203001009112/03/01 00:10:31  5-MIN KMSN 030610Z 22009KT 7SM CLR 07/06 A2997 820 89 100 220/09 RMK AO2
14837KMSN MSN20011203001509112/03/01 00:15:31  5-MIN KMSN 030615Z 21008KT 8SM CLR 08/06 A2997 820 86 200 210/08 RMK AO2
14837KMSN MSN20011203002009112/03/01 00:20:31  5-MIN KMSN 030620Z 22008KT 8SM CLR 08/06 A2997 820 86 200 220/08 RMK AO2
14837KMSN MSN20011203002509112/03/01 00:25:31  5-MIN KMSN 030625Z 22007KT 8SM CLR 08/06 A2997 820 86 200 220/07 RMK AO2
14837KMSN MSN20011203003009112/03/01 00:30:31  5-MIN KMSN 030630Z 22007KT 8SM CLR 08/05 A2997 820 82 200 220/07 RMK AO2
14837KMSN MSN20011203003509112/03/01 00:35:31  5-MIN KMSN 030635Z 21007KT 8SM CLR 07/05 A2997 820 86 100 210/07 RMK AO2
14837KMSN MSN20011203004009112/03/01 00:40:31  5-MIN KMSN 030640Z 22006KT 8SM CLR 07/05 A2997 820 86 100 220/06 RMK AO2
14837KMSN MSN20011203004509112/03/01 00:45:31  5-MIN KMSN 030645Z 21006KT 8SM CLR 07/05 A2997 820 86 100 210/06 RMK AO2
14837KMSN MSN20011203005010812/03/01 00:50:31  5-MIN KMSN 030650Z 21008KT 8SM CLR 07/05 A2997 820 86 100 210/08 RMK AO2 SLP153 T00720050
14837KMSN MSN20011203005509112/03/01 00:55:31  5-MIN KMSN 030655Z 21007KT 8SM CLR 07/05 A2997 820 86 100 210/07 RMK AO2
14837KMSN MSN20011203010009112/03/01 01:00:31  5-MIN KMSN 030700Z 22006KT 8SM CLR 07/05 A2997 820 86 100 220/06 RMK AO2
14837KMSN MSN20011203010509112/03/01 01:05:31  5-MIN KMSN 030705Z 22006KT 8SM CLR 07/05 A2997 820 86 100 220/06 RMK AO2
14837KMSN MSN20011203011009112/03/01 01:10:31  5-MIN KMSN 030710Z 22007KT 8SM CLR 07/05 A2997 820 86 100 210/07 RMK AO2
14837KMSN MSN20011203011508912/03/01 01:15:31  5-MIN KMSN 030715Z 21007KT 8SM CLR 07/05 A2997 820 89 0 210/07 RMK AO2
14837KMSN MSN20011203012009112/03/01 01:20:31  5-MIN KMSN 030720Z 21007KT 8SM CLR 07/05 A2997 820 86 100 210/07 RMK AO2
14837KMSN MSN20011203012509112/03/01 01:25:31  5-MIN KMSN 030725Z 22007KT 8SM CLR 07/05 A2997 820 86 100 220/07 RMK AO2
14837KMSN MSN20011203013009112/03/01 01:30:31  5-MIN KMSN 030730Z 22007KT 8SM CLR 07/05 A2997 820 86 100 220/07 RMK AO2
14837KMSN MSN20011203013508912/03/01 01:35:31  5-MIN KMSN 030735Z 22005KT 8SM CLR 07/05 A2997 820 89 0 220/05 RMK AO2
14837KMSN MSN20011203014008912/03/01 01:40:31  5-MIN KMSN 030740Z 21006KT 8SM CLR 07/05 A2997 820 89 0 210/06 RMK AO2
14837KMSN MSN20011203014508912/03/01 01:45:31  5-MIN KMSN 030745Z 22005KT 8SM CLR 07/05 A2997 810 89 0 220/05 RMK AO2
14837KMSN MSN20011203015010612/03/01 01:50:31  5-MIN KMSN 030750Z 21006KT 8SM CLR 07/05 A2998 810 89 0 210/06 RMK AO2 SLP155 T00670050
14837KMSN MSN20011203015508912/03/01 01:55:31  5-MIN KMSN 030755Z 22004KT 8SM CLR 07/05 A2998 810 89 0 220/04 RMK AO2
14837KMSN MSN20011203020008912/03/01 02:00:31  5-MIN KMSN 030800Z 22004KT 8SM CLR 07/05 A2998 800 89 0 220/04 RMK AO2
14837KMSN MSN20011203020508912/03/01 02:05:31  5-MIN KMSN 030805Z 21004KT 8SM CLR 07/04 A2999 800 86 0 210/04 RMK AO2
14837KMSN MSN20011203021008912/03/01 02:10:31  5-MIN KMSN 030810Z 21005KT 8SM CLR 07/04 A2999 800 86 0 210/05 RMK AO2
14837KMSN MSN20011203021508912/03/01 02:15:31  5-MIN KMSN 030815Z 21005KT 8SM CLR 06/04 A2999 800 89 0 210/05 RMK AO2
14837KMSN MSN20011203022008912/03/01 02:20:31  5-MIN KMSN 030820Z 21004KT 8SM CLR 06/04 A2999 800 89 0 210/04 RMK AO2
14837KMSN MSN20011203022508912/03/01 02:25:31  5-MIN KMSN 030825Z 20004KT 7SM CLR 06/04 A2999 800 89 0 200/04 RMK AO2
14837KMSN MSN20011203023008912/03/01 02:30:31  5-MIN KMSN 030830Z 20004KT 7SM CLR 06/04 A2999 800 89 0 200/04 RMK AO2
14837KMSN MSN20011203023508912/03/01 02:35:31  5-MIN KMSN 030835Z 21005KT 7SM CLR 06/04 A2999 800 89 0 210/05 RMK AO2
14837KMSN MSN20011203024008912/03/01 02:40:31  5-MIN KMSN 030840Z 21005KT 7SM CLR 06/04 A2999 800 89 0 210/05 RMK AO2
14837KMSN MSN20011203024508912/03/01 02:45:31  5-MIN KMSN 030845Z 20006KT 7SM CLR 06/04 A2999 800 89 0 200/06 RMK AO2
14837KMSN MSN20011203025011212/03/01 02:50:31  5-MIN KMSN 030850Z 20004KT 7SM CLR 06/04 A2999 800 89 0 200/04 RMK AO2 SLP161 T00610044 53002
14837KMSN MSN20011203025509212/03/01 02:55:31  5-MIN KMSN 030855Z 20004KT 7SM CLR 06/04 A2999 800 92 -100 200/04 RMK AO2
14837KMSN MSN20011203030009212/03/01 03:00:31  5-MIN KMSN 030900Z VRB04KT 7SM CLR 06/04 A3000 790 92 -100 VRB/04 RMK AO2
14837KMSN MSN20011203030509212/03/01 03:05:31  5-MIN KMSN 030905Z VRB03KT 7SM CLR 05/04 A3000 790 92 -100 VRB/03 RMK AO2
14837KMSN MSN20011203031009512/03/01 03:10:31  5-MIN KMSN 030910Z 19004KT 6SM BR CLR 05/04 A2999 800 92 -100 190/04 RMK AO2
14837KMSN MSN20011203031509512/03/01 03:15:31  5-MIN KMSN 030915Z 00000KT 6SM BR CLR 04/03 A3000 800 92 -300 000/00 RMK AO2
14837KMSN MSN20011203032009512/03/01 03:20:31  5-MIN KMSN 030920Z 20003KT 5SM BR CLR 04/03 A3000 790 92 -200 190/03 RMK AO2
14837KMSN MSN20011203032509512/03/01 03:25:31  5-MIN KMSN 030925Z 20004KT 6SM BR CLR 05/04 A2999 800 92 -100 190/04 RMK AO2
14837KMSN MSN20011203033009512/03/01 03:30:31  5-MIN KMSN 030930Z 20005KT 6SM BR CLR 05/04 A2999 800 92 -100 190/05 RMK AO2
14837KMSN MSN20011203033509512/03/01 03:35:31  5-MIN KMSN 030935Z 20004KT 6SM BR CLR 05/04 A2999 800 92 -100 200/04 RMK AO2
14837KMSN MSN20011203034009512/03/01 03:40:31  5-MIN KMSN 030940Z 19004KT 6SM BR CLR 05/04 A2999 800 92 -100 190/04 RMK AO2
14837KMSN MSN20011203034509512/03/01 03:45:31  5-MIN KMSN 030945Z 20005KT 6SM BR CLR 05/04 A3000 790 92 -100 200/05 RMK AO2
14837KMSN MSN20011203035011212/03/01 03:50:31  5-MIN KMSN 030950Z 20005KT 6SM BR CLR 05/04 A3000 790 92 -100 200/05 RMK AO2 SLP162 T00500039
14837KMSN MSN20011203035509512/03/01 03:55:31  5-MIN KMSN 030955Z 19005KT 6SM BR CLR 05/04 A3000 790 92 -100 190/05 RMK AO2
14837KMSN MSN20011203040009512/03/01 04:00:31  5-MIN KMSN 031000Z 20005KT 6SM BR CLR 05/04 A3000 790 92 -100 190/05 RMK AO2
14837KMSN MSN20011203040509212/03/01 04:05:31  5-MIN KMSN 031005Z 20005KT 7SM CLR 05/04 A3000 790 92 -100 200/05 RMK AO2
14837KMSN MSN20011203041009212/03/01 04:10:31  5-MIN KMSN 031010Z 20005KT 7SM CLR 05/04 A3000 790 92 -100 200/05 RMK AO2
14837KMSN MSN20011203041509212/03/01 04:15:31  5-MIN KMSN 031015Z 20004KT 7SM CLR 05/04 A3001 780 92 -100 200/04 RMK AO2
14837KMSN MSN20011203042009212/03/01 04:20:31  5-MIN KMSN 031020Z 20004KT 7SM CLR 05/04 A3001 780 92 -100 200/04 RMK AO2
14837KMSN MSN20011203042509512/03/01 04:25:31  5-MIN KMSN 031025Z 21004KT 6SM BR CLR 05/04 A3001 780 92 -200 210/04 RMK AO2
14837KMSN MSN20011203043009212/03/01 04:30:31  5-MIN KMSN 031030Z 21005KT 7SM CLR 05/03 A3001 780 89 -200 200/05 RMK AO2
14837KMSN MSN20011203043509212/03/01 04:35:31  5-MIN KMSN 031035Z 20004KT 7SM CLR 05/04 A3001 780 92 -200 200/04 RMK AO2
14837KMSN MSN20011203044009212/03/01 04:40:31  5-MIN KMSN 031040Z 20004KT 7SM CLR 05/03 A3001 780 89 -100 190/04 RMK AO2
14837KMSN MSN20011203044509212/03/01 04:45:31  5-MIN KMSN 031045Z 00000KT 7SM CLR 05/03 A3001 780 89 -200 000/00 RMK AO2
14837KMSN MSN20011203045010912/03/01 04:50:31  5-MIN KMSN 031050Z 19003KT 7SM CLR 05/03 A3002 780 89 -200 190/03 RMK AO2 SLP170 T00500033
14837KMSN MSN20011203045509212/03/01 04:55:31  5-MIN KMSN 031055Z 00000KT 7SM CLR 04/03 A3002 780 92 -200 000/00 RMK AO2
14837KMSN MSN20011203050009512/03/01 05:00:31  5-MIN KMSN 031100Z 00000KT 6SM BR CLR 03/02 A3002 770 92 -400 000/00 RMK AO2
14837KMSN MSN20011203050509512/03/01 05:05:31  5-MIN KMSN 031105Z 00000KT 5SM BR CLR 03/02 A3002 770 96 -400 000/00 RMK AO2
14837KMSN MSN20011203051009512/03/01 05:10:31  5-MIN KMSN 031110Z 20003KT 6SM BR CLR 03/02 A3003 770 96 -400 200/03 RMK AO2
14837KMSN MSN20011203051509512/03/01 05:15:31  5-MIN KMSN 031115Z 20003KT 6SM BR CLR 03/02 A3003 770 96 -400 200/03 RMK AO2
14837KMSN MSN20011203052009512/03/01 05:20:31  5-MIN KMSN 031120Z 00000KT 6SM BR CLR 03/02 A3003 760 92 -400 000/00 RMK AO2
14837KMSN MSN20011203052509512/03/01 05:25:31  5-MIN KMSN 031125Z 20004KT 6SM BR CLR 04/03 A3003 760 92 -300 200/04 RMK AO2
14837KMSN MSN20011203053009512/03/01 05:30:31  5-MIN KMSN 031130Z 00000KT 6SM BR CLR 04/03 A3003 770 92 -300 000/00 RMK AO2
14837KMSN MSN20011203053509512/03/01 05:35:31  5-MIN KMSN 031135Z 00000KT 6SM BR CLR 04/03 A3003 770 92 -200 000/00 RMK AO2
14837KMSN MSN20011203054009512/03/01 05:40:31  5-MIN KMSN 031140Z 00000KT 6SM BR CLR 03/02 A3003 770 96 -400 000/00 RMK AO2
14837KMSN MSN20011203054509512/03/01 05:45:31  5-MIN KMSN 031145Z 00000KT 6SM BR CLR 03/02 A3003 760 96 -400 000/00 RMK AO2
14837KMSN MSN20011203055012712/03/01 05:50:31  5-MIN KMSN 031150Z 00000KT 8SM CLR 02/01 A3003 760 92 -500 000/00 RMK AO2 SLP176 T00220011 10078 20022 53007
14837KMSN MSN20011203055509512/03/01 05:55:31  5-MIN KMSN 031155Z 00000KT 4SM BR CLR 02/01 A3003 760 96 -600 000/00 RMK AO2
14837KMSN MSN20011203060009512/03/01 06:00:31  5-MIN KMSN 031200Z 00000KT 4SM BR CLR 01/01 A3004 760 96 -700 000/00 RMK AO2
14837KMSN MSN20011203060509512/03/01 06:05:31  5-MIN KMSN 031205Z 00000KT 5SM BR CLR 02/02 A3004 760 96 -500 000/00 RMK AO2
14837KMSN MSN20011203061009512/03/01 06:10:31  5-MIN KMSN 031210Z 00000KT 5SM BR CLR 02/02 A3004 760 96 -500 000/00 RMK AO2
14837KMSN MSN20011203061509512/03/01 06:15:31  5-MIN KMSN 031215Z 00000KT 5SM BR CLR 02/02 A3004 750 96 -500 000/00 RMK AO2
14837KMSN MSN20011203062009612/03/01 06:20:31  5-MIN KMSN 031220Z 00000KT 5SM BR CLR 02/02 A3004 750 100 -500 000/00 RMK AO2
14837KMSN MSN20011203062510512/03/01 06:25:31  5-MIN KMSN 031225Z 00000KT 2SM BR CLR 02/02 A3005 750 96 -500 000/00 RMK AO2 VIS 1/2V5
14837KMSN MSN20011203063010512/03/01 06:30:31  5-MIN KMSN 031230Z 00000KT 1 1/4SM BCFG BR CLR 01/01 A3005 750 100 -700 000/00 RMK AO2
14837KMSN MSN20011203063510412/03/01 06:35:31  5-MIN KMSN 031235Z 00000KT 1 1/4SM BCFG BR CLR 01/01 A3005 750 96 -700 000/00 RMK AO2
14837KMSN MSN20011203064010112/03/01 06:40:31  5-MIN KMSN 031240Z 00000KT 3SM MIFG BR CLR 01/01 A3005 750 100 -700 000/00 RMK AO2
14837KMSN MSN20011203064510112/03/01 06:45:31  5-MIN KMSN 031245Z 00000KT 2SM BCFG BR CLR 01/01 A3005 750 100 -700 000/00 RMK AO2
14837KMSN MSN20011203065011812/03/01 06:50:31  5-MIN KMSN 031250Z 00000KT 2SM BCFG BR CLR 00/M01 A3005 750 96 -800 000/00 RMK AO2 SLP183 T00001006
14837KMSN MSN20011203065510312/03/01 06:55:31  5-MIN KMSN 031255Z 00000KT 3SM BCFG BR CLR M01/M01 A3005 750 100 -900 000/00 RMK AO2
14837KMSN MSN20011203070010112/03/01 07:00:31  5-MIN KMSN 031300Z 00000KT 3SM BCFG BR CLR 00/M01 A3005 750 96 -800 000/00 RMK AO2
14837KMSN MSN20011203070510112/03/01 07:05:31  5-MIN KMSN 031305Z 00000KT 3SM BCFG BR CLR 01/M03 A3005 740 75 -700 000/00 RMK AO2
14837KMSN MSN20011203071010112/03/01 07:10:31  5-MIN KMSN 031310Z 00000KT 3SM BCFG BR CLR 00/M06 A3005 740 63 -800 000/00 RMK AO2
14837KMSN MSN20011203071510112/03/01 07:15:31  5-MIN KMSN 031315Z 00000KT 3SM BCFG BR CLR 00/M05 A3005 740 69 -800 000/00 RMK AO2
14837KMSN MSN20011203072010112/03/01 07:20:31  5-MIN KMSN 031320Z 00000KT 3SM BCFG BR CLR 00/M06 A3005 740 63 -800 000/00 RMK AO2
14837KMSN MSN20011203072510312/03/01 07:25:31  5-MIN KMSN 031325Z 00000KT 3SM BCFG BR CLR 00/M11 A3005 740 45 -800 000/00 RMK AO2 $
14837KMSN MSN20011203073010312/03/01 07:30:31  5-MIN KMSN 031330Z 00000KT 3SM BCFG BR CLR 01/M03 A3005 740 78 -800 000/00 RMK AO2 $
14837KMSN MSN20011203073510312/03/01 07:35:31  5-MIN KMSN 031335Z 00000KT 3SM BCFG BR CLR 01/M01 A3006 740 89 -800 000/00 RMK AO2 $
14837KMSN MSN20011203074010312/03/01 07:40:31  5-MIN KMSN 031340Z 00000KT 3SM BCFG BR CLR 01/M01 A3006 740 92 -800 000/00 RMK AO2 $
14837KMSN MSN20011203074510612/03/01 07:45:31  5-MIN KMSN 031345Z 00000KT 3SM BCFG BR FEW003 00/M01 A3006 730 96 -800 000/00 RMK AO2 $
14837KMSN MSN20011203075012212/03/01 07:50:31  5-MIN KMSN 031350Z 17003KT 3SM BCFG BR CLR M01/M01 A3006 730 100 -900 160/03 RMK AO2 SLP187 T10061006 $
14837KMSN MSN20011203075510312/03/01 07:55:31  5-MIN KMSN 031355Z 00000KT 4SM BCFG BR CLR 00/M01 A3006 740 92 -800 000/00 RMK AO2 $
14837KMSN MSN20011203080010312/03/01 08:00:31  5-MIN KMSN 031400Z 00000KT 5SM BCFG BR CLR 01/M01 A3006 730 92 -800 000/00 RMK AO2 $
14837KMSN MSN20011203080510212/03/01 08:05:31  5-MIN KMSN 031405Z 00000KT 5SM BCFG BR CLR 01/00 A3007 730 96 -800 000/00 RMK AO2 $
14837KMSN MSN20011203081010312/03/01 08:10:31  5-MIN KMSN 031410Z 00000KT 5SM BCFG BR CLR 00/M01 A3007 730 96 -800 000/00 RMK AO2 $
14837KMSN MSN20011203081510312/03/01 08:15:31  5-MIN KMSN 031415Z 00000KT 5SM BCFG BR CLR 01/M01 A3007 730 92 -800 000/00 RMK AO2 $
14837KMSN MSN20011203082010312/03/01 08:20:31  5-MIN KMSN 031420Z 00000KT 5SM BCFG BR CLR 01/M01 A3007 730 89 -700 000/00 RMK AO2 $
14837KMSN MSN20011203082510312/03/01 08:25:31  5-MIN KMSN 031425Z 00000KT 5SM BCFG BR CLR 02/M01 A3007 730 85 -600 000/00 RMK AO2 $
14837KMSN MSN20011203083009312/03/01 08:30:31  5-MIN KMSN 031430Z 00000KT 7SM CLR 03/M02 A3007 730 72 -500 000/00 RMK AO2
14837KMSN MSN20011203083509312/03/01 08:35:31  5-MIN KMSN 031435Z 00000KT 7SM CLR 03/M01 A3006 730 76 -400 000/00 RMK AO2
14837KMSN MSN20011203084009312/03/01 08:40:31  5-MIN KMSN 031440Z 00000KT 7SM CLR 04/M01 A3007 730 73 -400 000/00 RMK AO2
14837KMSN MSN20011203084509312/03/01 08:45:31  5-MIN KMSN 031445Z 00000KT 7SM CLR 04/M01 A3007 730 70 -300 000/00 RMK AO2
14837KMSN MSN20011203085011612/03/01 08:50:31  5-MIN KMSN 031450Z 00000KT 7SM CLR 05/M01 A3007 720 67 -200 000/00 RMK AO2 SLP190 T00501006 53013
14837KMSN MSN20011203085509312/03/01 08:55:31  5-MIN KMSN 031455Z 19003KT 7SM CLR 05/M01 A3008 720 67 -200 190/03 RMK AO2
14837KMSN MSN20011203090009312/03/01 09:00:31  5-MIN KMSN 031500Z 00000KT 8SM CLR 06/M01 A3008 710 65 -200 000/00 RMK AO2
14837KMSN MSN20011203090509312/03/01 09:05:31  5-MIN KMSN 031505Z VRB03KT 8SM CLR 06/M01 A3008 710 65 -200 VRB/03 RMK AO2
14837KMSN MSN20011203091009412/03/01 09:10:31  5-MIN KMSN 031510Z 22004KT 10SM CLR 06/M01 A3009 710 62 -200 220/04 RMK AO2
14837KMSN MSN20011203091509412/03/01 09:15:31  5-MIN KMSN 031515Z 23004KT 10SM CLR 06/M01 A3009 710 62 -100 230/04 RMK AO2
14837KMSN MSN20011203092009412/03/01 09:20:31  5-MIN KMSN 031520Z 00000KT 10SM CLR 06/M01 A3009 710 62 -100 000/00 RMK AO2
14837KMSN MSN20011203092509412/03/01 09:25:31  5-MIN KMSN 031525Z 27003KT 10SM CLR 06/M01 A3009 710 62 -100 270/03 RMK AO2
14837KMSN MSN20011203093009412/03/01 09:30:31  5-MIN KMSN 031530Z 24003KT 10SM CLR 06/M01 A3009 710 62 -100 240/03 RMK AO2
14837KMSN MSN20011203093509412/03/01 09:35:31  5-MIN KMSN 031535Z 24003KT 10SM CLR 06/M01 A3009 710 65 -200 240/03 RMK AO2
14837KMSN MSN20011203094009412/03/01 09:40:31  5-MIN KMSN 031540Z 22003KT 10SM CLR 06/M01 A3009 700 62 -100 220/03 RMK AO2
14837KMSN MSN20011203094509412/03/01 09:45:31  5-MIN KMSN 031545Z 18003KT 10SM CLR 06/M01 A3010 700 62 -100 180/03 RMK AO2
14837KMSN MSN20011203095011012/03/01 09:50:31  5-MIN KMSN 031550Z 00000KT 10SM CLR 06/02 A3009 700 76 -100 000/00 RMK AO2 SLP195 T00610022
14837KMSN MSN20011203095509112/03/01 09:55:31  5-MIN KMSN 031555Z 00000KT 10SM CLR 07/M01 A3009 700 57 0 000/00 RMK AO2
14837KMSN MSN20011203100009412/03/01 10:00:31  5-MIN KMSN 031600Z 22004KT 10SM CLR 06/M01 A3009 700 62 -100 220/04 RMK AO2
14837KMSN MSN20011203100509112/03/01 10:05:31  5-MIN KMSN 031605Z 26003KT 10SM CLR 07/M01 A3009 700 60 0 250/03 RMK AO2
14837KMSN MSN20011203101009112/03/01 10:10:31  5-MIN KMSN 031610Z 00000KT 10SM CLR 07/M01 A3009 710 57 0 000/00 RMK AO2
14837KMSN MSN20011203101509112/03/01 10:15:31  5-MIN KMSN 031615Z 00000KT 10SM CLR 07/M01 A3009 710 57 0 000/00 RMK AO2
14837KMSN MSN20011203102009112/03/01 10:20:31  5-MIN KMSN 031620Z 00000KT 10SM CLR 07/M01 A3009 710 57 0 000/00 RMK AO2
14837KMSN MSN20011203102509112/03/01 10:25:31  5-MIN KMSN 031625Z 18003KT 10SM CLR 07/M01 A3009 710 57 0 180/03 RMK AO2
14837KMSN MSN20011203103009112/03/01 10:30:31  5-MIN KMSN 031630Z 15003KT 10SM CLR 07/M01 A3009 710 57 0 150/03 RMK AO2
14837KMSN MSN20011203103509312/03/01 10:35:31  5-MIN KMSN 031635Z 15003KT 10SM CLR 07/M01 A3009 710 57 0 150/03 RMK AO2 $
14837KMSN MSN20011203104009012/03/01 10:40:31  5-MIN KMSN 031640Z 15004KT 10SM CLR 07/02 A3009 710 68 0 150/04 RMK AO2
14837KMSN MSN20011203104509012/03/01 10:45:31  5-MIN KMSN 031645Z 16005KT 10SM CLR 07/02 A3009 710 68 0 160/05 RMK AO2
14837KMSN MSN20011203105010912/03/01 10:50:31  5-MIN KMSN 031650Z 16005KT 10SM CLR 08/02 A3009 710 65 100 160/05 RMK AO2 SLP193 T00780017
14837KMSN MSN20011203105509212/03/01 10:55:31  5-MIN KMSN 031655Z 16004KT 10SM CLR 08/00 A3008 710 58 100 160/04 RMK AO2
14837KMSN MSN20011203110009212/03/01 11:00:31  5-MIN KMSN 031700Z 17005KT 10SM CLR 08/00 A3009 710 58 100 160/05 RMK AO2
14837KMSN MSN20011203110509012/03/01 11:05:31  5-MIN KMSN 031705Z 17006KT 10SM CLR 07/00 A3009 710 60 0 170/06 RMK AO2
14837KMSN MSN20011203111009012/03/01 11:10:31  5-MIN KMSN 031710Z 17004KT 10SM CLR 07/00 A3008 710 60 0 170/04 RMK AO2
14837KMSN MSN20011203111509212/03/01 11:15:31  5-MIN KMSN 031715Z 17007KT 10SM CLR 08/00 A3009 710 58 100 160/07 RMK AO2
14837KMSN MSN20011203112009212/03/01 11:20:31  5-MIN KMSN 031720Z 16007KT 10SM CLR 08/03 A3009 710 70 100 160/07 RMK AO2
14837KMSN MSN20011203112509212/03/01 11:25:31  5-MIN KMSN 031725Z 17005KT 10SM CLR 08/03 A3008 710 70 100 170/05 RMK AO2
14837KMSN MSN20011203113009212/03/01 11:30:31  5-MIN KMSN 031730Z 18005KT 10SM CLR 08/03 A3008 710 70 100 180/05 RMK AO2
14837KMSN MSN20011203113509212/03/01 11:35:31  5-MIN KMSN 031735Z 18006KT 10SM CLR 08/03 A3008 720 70 100 180/06 RMK AO2
14837KMSN MSN20011203114009212/03/01 11:40:31  5-MIN KMSN 031740Z 17005KT 10SM CLR 08/03 A3008 720 70 100 170/05 RMK AO2
14837KMSN MSN20011203114509212/03/01 11:45:31  5-MIN KMSN 031745Z 17005KT 10SM CLR 08/03 A3008 720 70 100 160/05 RMK AO2
14837KMSN MSN20011203115012712/03/01 11:50:31  5-MIN KMSN 031750Z 18005KT 10SM CLR 08/02 A3008 720 65 100 180/05 RMK AO2 SLP191 T00780017 10078 21006 53015
14837KMSN MSN20011203115509212/03/01 11:55:31  5-MIN KMSN 031755Z 16006KT 10SM CLR 08/02 A3008 720 65 100 160/06 RMK AO2
14837KMSN MSN20011203120009212/03/01 12:00:31  5-MIN KMSN 031800Z 17006KT 10SM CLR 08/02 A3008 720 65 100 170/06 RMK AO2
14837KMSN MSN20011203120509212/03/01 12:05:31  5-MIN KMSN 031805Z 18006KT 10SM CLR 08/02 A3007 720 65 100 180/06 RMK AO2
14837KMSN MSN20011203121009212/03/01 12:10:31  5-MIN KMSN 031810Z 17005KT 10SM CLR 08/02 A3007 730 65 100 170/05 RMK AO2
14837KMSN MSN20011203121509212/03/01 12:15:31  5-MIN KMSN 031815Z 17004KT 10SM CLR 08/02 A3007 730 65 100 170/04 RMK AO2
14837KMSN MSN20011203122009212/03/01 12:20:31  5-MIN KMSN 031820Z 17005KT 10SM CLR 08/02 A3007 730 65 100 170/05 RMK AO2
14837KMSN MSN20011203122509212/03/01 12:25:31  5-MIN KMSN 031825Z 16005KT 10SM CLR 08/02 A3007 730 65 100 160/05 RMK AO2
14837KMSN MSN20011203123009212/03/01 12:30:31  5-MIN KMSN 031830Z 15004KT 10SM CLR 08/02 A3007 730 65 100 150/04 RMK AO2
14837KMSN MSN20011203123509212/03/01 12:35:31  5-MIN KMSN 031835Z 17004KT 10SM CLR 08/02 A3006 730 65 100 170/04 RMK AO2
14837KMSN MSN20011203124009212/03/01 12:40:31  5-MIN KMSN 031840Z 18005KT 10SM CLR 08/02 A3006 740 65 100 170/05 RMK AO2
14837KMSN MSN20011203124509212/03/01 12:45:31  5-MIN KMSN 031845Z 16004KT 10SM CLR 08/02 A3006 740 65 100 160/04 RMK AO2
14837KMSN MSN20011203125010912/03/01 12:50:31  5-MIN KMSN 031850Z VRB03KT 10SM CLR 08/02 A3006 740 65 200 VRB/03 RMK AO2 SLP182 T00830022
14837KMSN MSN20011203125509212/03/01 12:55:31  5-MIN KMSN 031855Z 16003KT 10SM CLR 09/02 A3005 740 63 200 160/03 RMK AO2
14837KMSN MSN20011203130009212/03/01 13:00:31  5-MIN KMSN 031900Z VRB04KT 10SM CLR 09/02 A3005 740 63 200 VRB/04 RMK AO2
14837KMSN MSN20011203130509212/03/01 13:05:31  5-MIN KMSN 031905Z 00000KT 10SM CLR 09/02 A3004 750 63 200 000/00 RMK AO2
14837KMSN MSN20011203131009212/03/01 13:10:31  5-MIN KMSN 031910Z 00000KT 10SM CLR 09/02 A3004 750 63 200 000/00 RMK AO2
14837KMSN MSN20011203131509212/03/01 13:15:31  5-MIN KMSN 031915Z 18004KT 10SM CLR 09/02 A3004 750 63 200 180/04 RMK AO2
14837KMSN MSN20011203132009212/03/01 13:20:31  5-MIN KMSN 031920Z 16003KT 10SM CLR 09/02 A3004 750 63 200 160/03 RMK AO2
14837KMSN MSN20011203132509212/03/01 13:25:31  5-MIN KMSN 031925Z 18004KT 10SM CLR 09/02 A3004 750 60 300 170/04 RMK AO2
14837KMSN MSN20011203133009212/03/01 13:30:31  5-MIN KMSN 031930Z 17004KT 10SM CLR 09/02 A3004 750 60 300 170/04 RMK AO2
14837KMSN MSN20011203133509212/03/01 13:35:31  5-MIN KMSN 031935Z 17006KT 10SM CLR 09/02 A3004 750 60 300 170/06 RMK AO2
14837KMSN MSN20011203134009212/03/01 13:40:31  5-MIN KMSN 031940Z 17006KT 10SM CLR 10/03 A3004 750 60 400 170/06 RMK AO2
14837KMSN MSN20011203134509212/03/01 13:45:31  5-MIN KMSN 031945Z 18006KT 10SM CLR 10/03 A3004 750 60 400 170/06 RMK AO2
14837KMSN MSN20011203135010912/03/01 13:50:31  5-MIN KMSN 031950Z 18006KT 10SM CLR 10/03 A3004 760 60 400 180/06 RMK AO2 SLP176 T01000028
14837KMSN MSN20011203135509312/03/01 13:55:31  5-MIN KMSN 031955Z 18005KT 10SM CLR 10/M01 A3003 760 47 400 180/05 RMK AO2
14837KMSN MSN20011203140009212/03/01 14:00:31  5-MIN KMSN 032000Z 17006KT 10SM CLR 10/03 A3003 760 60 400 170/06 RMK AO2
14837KMSN MSN20011203140509212/03/01 14:05:31  5-MIN KMSN 032005Z 18006KT 10SM CLR 10/03 A3003 760 60 400 180/06 RMK AO2
14837KMSN MSN20011203141009212/03/01 14:10:31  5-MIN KMSN 032010Z 19005KT 10SM CLR 10/03 A3004 760 60 400 190/05 RMK AO2
14837KMSN MSN20011203141509212/03/01 14:15:31  5-MIN KMSN 032015Z 19005KT 10SM CLR 10/03 A3004 760 60 400 190/05 RMK AO2
14837KMSN MSN20011203142009212/03/01 14:20:31  5-MIN KMSN 032020Z 19004KT 10SM CLR 10/03 A3003 760 60 400 180/04 RMK AO2
14837KMSN MSN20011203142509212/03/01 14:25:31  5-MIN KMSN 032025Z 18005KT 10SM CLR 11/03 A3003 760 56 500 180/05 RMK AO2
14837KMSN MSN20011203143009212/03/01 14:30:31  5-MIN KMSN 032030Z 16004KT 10SM CLR 11/03 A3003 760 56 500 160/04 RMK AO2
14837KMSN MSN20011203143509212/03/01 14:35:31  5-MIN KMSN 032035Z 16004KT 10SM CLR 11/03 A3003 760 56 500 160/04 RMK AO2
14837KMSN MSN20011203144009212/03/01 14:40:31  5-MIN KMSN 032040Z 16003KT 10SM CLR 11/03 A3003 760 56 500 160/03 RMK AO2
14837KMSN MSN20011203144509212/03/01 14:45:31  5-MIN KMSN 032045Z 00000KT 10SM CLR 11/03 A3004 760 56 500 000/00 RMK AO2
14837KMSN MSN20011203145011512/03/01 14:50:31  5-MIN KMSN 032050Z 00000KT 10SM CLR 11/03 A3004 760 56 500 000/00 RMK AO2 SLP175 T01110028 58000
14837KMSN MSN20011203145509612/03/01 14:55:31  5-MIN KMSN 032055Z 00000KT 10SM BKN120 11/M01 A3003 760 44 500 000/00 RMK AO2
14837KMSN MSN20011203150009512/03/01 15:00:31  5-MIN KMSN 032100Z 11005KT 10SM BKN120 11/03 A3003 770 56 500 110/05 RMK AO2
14837KMSN MSN20011203150509512/03/01 15:05:31  5-MIN KMSN 032105Z 12005KT 10SM BKN110 11/03 A3003 770 56 500 120/05 RMK AO2
14837KMSN MSN20011203151009512/03/01 15:10:31  5-MIN KMSN 032110Z 11005KT 10SM BKN110 11/03 A3003 760 56 500 110/05 RMK AO2
14837KMSN MSN20011203151509512/03/01 15:15:31  5-MIN KMSN 032115Z 12006KT 10SM BKN110 12/02 A3003 770 50 600 120/06 RMK AO2
14837KMSN MSN20011203152009512/03/01 15:20:31  5-MIN KMSN 032120Z 12006KT 10SM BKN110 12/02 A3003 760 50 600 120/06 RMK AO2
14837KMSN MSN20011203152509512/03/01 15:25:31  5-MIN KMSN 032125Z 11005KT 10SM BKN110 12/02 A3003 770 50 600 110/05 RMK AO2
14837KMSN MSN20011203153009512/03/01 15:30:31  5-MIN KMSN 032130Z 11005KT 10SM BKN110 10/02 A3003 760 56 400 110/05 RMK AO2
14837KMSN MSN20011203153509512/03/01 15:35:31  5-MIN KMSN 032135Z 12005KT 10SM BKN110 10/02 A3003 760 56 400 120/05 RMK AO2
14837KMSN MSN20011203154009512/03/01 15:40:31  5-MIN KMSN 032140Z 12004KT 10SM BKN120 10/02 A3003 760 56 400 120/04 RMK AO2
14837KMSN MSN20011203154509512/03/01 15:45:31  5-MIN KMSN 032145Z 11004KT 10SM BKN120 10/02 A3004 760 56 400 110/04 RMK AO2
14837KMSN MSN20011203155011212/03/01 15:50:31  5-MIN KMSN 032150Z 12004KT 10SM BKN120 10/02 A3004 760 56 400 120/04 RMK AO2 SLP176 T01000017
14837KMSN MSN20011203155509312/03/01 15:55:31  5-MIN KMSN 032155Z 12005KT 10SM CLR 09/M01 A3004 760 49 300 120/05 RMK AO2
14837KMSN MSN20011203160009312/03/01 16:00:31  5-MIN KMSN 032200Z 13005KT 10SM CLR 09/M01 A3003 760 51 200 120/05 RMK AO2
14837KMSN MSN20011203160509312/03/01 16:05:31  5-MIN KMSN 032205Z 12005KT 10SM CLR 09/M01 A3003 760 51 200 120/05 RMK AO2
14837KMSN MSN20011203161009312/03/01 16:10:31  5-MIN KMSN 032210Z 13006KT 10SM CLR 09/M01 A3004 760 51 200 120/06 RMK AO2
14837KMSN MSN20011203161509312/03/01 16:15:31  5-MIN KMSN 032215Z 13005KT 10SM CLR 09/M01 A3003 760 51 200 130/05 RMK AO2
14837KMSN MSN20011203162009312/03/01 16:20:31  5-MIN KMSN 032220Z 13006KT 10SM CLR 09/M01 A3004 760 49 300 130/06 RMK AO2
14837KMSN MSN20011203162509312/03/01 16:25:31  5-MIN KMSN 032225Z 13007KT 10SM CLR 09/M01 A3003 760 49 300 130/07 RMK AO2
14837KMSN MSN20011203163009312/03/01 16:30:31  5-MIN KMSN 032230Z 14006KT 10SM CLR 09/M01 A3003 760 51 200 140/06 RMK AO2
14837KMSN MSN20011203163509312/03/01 16:35:31  5-MIN KMSN 032235Z 15005KT 10SM CLR 09/M01 A3003 760 49 300 150/05 RMK AO2
14837KMSN MSN20011203164009612/03/01 16:40:31  5-MIN KMSN 032240Z 14005KT 10SM FEW120 09/M01 A3003 770 49 300 140/05 RMK AO2
14837KMSN MSN20011203164509612/03/01 16:45:31  5-MIN KMSN 032245Z 12005KT 10SM FEW120 09/M01 A3002 770 49 300 120/05 RMK AO2
14837KMSN MSN20011203165011212/03/01 16:50:31  5-MIN KMSN 032250Z 12004KT 10SM SCT120 09/04 A3002 770 68 300 120/04 RMK AO2 SLP172 T00940039
14837KMSN MSN20011203172509312/03/01 17:25:31  5-MIN KMSN 032325Z 13008KT 10SM CLR 09/M01 A3002 770 49 300 130/08 RMK AO2
14837KMSN MSN20011203173009512/03/01 17:30:31  5-MIN KMSN 032330Z 14008KT 10SM CLR 09/M01 A3002 780 49 300 140/08 RMK AO2 $
14837KMSN MSN20011203173509812/03/01 17:35:31  5-MIN KMSN 032335Z 14009KT 10SM FEW023 09/M01 A3002 770 49 300 140/09 RMK AO2 $
14837KMSN MSN20011203174009412/03/01 17:40:31  5-MIN KMSN 032340Z 14007KT 10SM CLR 09/03 A3002 780 65 300 140/07 RMK AO2 $
14837KMSN MSN20011203174509412/03/01 17:45:31  5-MIN KMSN 032345Z 14008KT 10SM CLR 09/03 A3002 770 65 300 140/08 RMK AO2 $
14837KMSN MSN20011203175012912/03/01 17:50:31  5-MIN KMSN 032350Z 14007KT 10SM CLR 10/04 A3002 770 68 400 140/07 RMK AO2 SLP172 T01000044 10117 20078 56014 $
14837KMSN MSN20011203175509412/03/01 17:55:31  5-MIN KMSN 032355Z 13007KT 10SM CLR 09/04 A3002 770 68 300 130/07 RMK AO2 $
14837KMSN MSN20011203180009412/03/01 18:00:31  5-MIN KMSN 040000Z 14008KT 10SM CLR 09/04 A3002 770 68 300 130/08 RMK AO2 $
14837KMSN MSN20011203180509412/03/01 18:05:31  5-MIN KMSN 040005Z 13008KT 10SM CLR 09/04 A3002 770 68 300 130/08 RMK AO2 $
14837KMSN MSN20011203181009412/03/01 18:10:31  5-MIN KMSN 040010Z 13007KT 10SM CLR 09/04 A3002 780 68 300 130/07 RMK AO2 $
14837KMSN MSN20011203181509712/03/01 18:15:31  5-MIN KMSN 040015Z 12008KT 10SM FEW028 09/04 A3001 780 68 300 120/08 RMK AO2 $
14837KMSN MSN20011203182009712/03/01 18:20:31  5-MIN KMSN 040020Z 13008KT 10SM SCT028 09/04 A3001 780 71 300 130/08 RMK AO2 $
14837KMSN MSN20011203182509712/03/01 18:25:31  5-MIN KMSN 040025Z 13008KT 10SM SCT028 09/04 A3001 780 71 300 130/08 RMK AO2 $
14837KMSN MSN20011203183009712/03/01 18:30:31  5-MIN KMSN 040030Z 13008KT 10SM FEW028 09/04 A3000 790 71 300 130/08 RMK AO2 $
14837KMSN MSN20011203183509712/03/01 18:35:31  5-MIN KMSN 040035Z 14009KT 10SM FEW028 09/05 A3001 780 74 300 140/09 RMK AO2 $
14837KMSN MSN20011203184009712/03/01 18:40:31  5-MIN KMSN 040040Z 15009KT 10SM FEW028 09/05 A3001 780 74 300 150/09 RMK AO2 $
14837KMSN MSN20011203184509512/03/01 18:45:31  5-MIN KMSN 040045Z 16010KT 10SM SCT028 09/05 A3002 780 74 300 160/10 RMK AO2
14837KMSN MSN20011203185011212/03/01 18:50:31  5-MIN KMSN 040050Z 16009KT 10SM SCT028 09/06 A3002 780 76 300 160/09 RMK AO2 SLP171 T00940056
14837KMSN MSN20011203185509512/03/01 18:55:31  5-MIN KMSN 040055Z 16010KT 10SM BKN028 10/06 A3002 770 74 400 150/10 RMK AO2
14837KMSN MSN20011203190009512/03/01 19:00:31  5-MIN KMSN 040100Z 15010KT 10SM BKN028 10/06 A3001 780 74 400 150/10 RMK AO2
14837KMSN MSN20011203190509512/03/01 19:05:31  5-MIN KMSN 040105Z 16011KT 10SM BKN028 10/06 A3001 780 77 400 150/11 RMK AO2
14837KMSN MSN20011203191009512/03/01 19:10:31  5-MIN KMSN 040110Z 15010KT 10SM OVC028 10/06 A3001 780 77 400 150/10 RMK AO2
14837KMSN MSN20011203191509512/03/01 19:15:31  5-MIN KMSN 040115Z 15011KT 10SM OVC028 10/06 A3001 780 77 400 150/11 RMK AO2
14837KMSN MSN20011203192009512/03/01 19:20:31  5-MIN KMSN 040120Z 15011KT 10SM BKN028 10/06 A3001 780 77 400 150/11 RMK AO2
14837KMSN MSN20011203192509512/03/01 19:25:31  5-MIN KMSN 040125Z 15010KT 10SM BKN028 10/06 A3000 790 77 400 150/10 RMK AO2
14837KMSN MSN20011203193009512/03/01 19:30:31  5-MIN KMSN 040130Z 15008KT 10SM BKN025 10/07 A3001 780 80 400 150/08 RMK AO2
14837KMSN MSN20011203193509512/03/01 19:35:31  5-MIN KMSN 040135Z 16008KT 10SM BKN025 10/07 A3001 780 80 400 160/08 RMK AO2
14837KMSN MSN20011203194009512/03/01 19:40:31  5-MIN KMSN 040140Z 16008KT 10SM BKN025 10/07 A3001 780 80 400 160/08 RMK AO2
14837KMSN MSN20011203194509512/03/01 19:45:31  5-MIN KMSN 040145Z 16009KT 10SM BKN025 10/07 A3001 780 80 400 160/09 RMK AO2
14837KMSN MSN20011203195011212/03/01 19:50:31  5-MIN KMSN 040150Z 16008KT 10SM OVC025 10/07 A3001 780 80 400 160/08 RMK AO2 SLP169 T01000067
14837KMSN MSN20011203195509512/03/01 19:55:31  5-MIN KMSN 040155Z 16009KT 10SM OVC025 10/07 A3001 790 80 400 160/09 RMK AO2
14837KMSN MSN20011203200009512/03/01 20:00:31  5-MIN KMSN 040200Z 16008KT 10SM OVC025 10/07 A3000 790 80 400 160/08 RMK AO2
14837KMSN MSN20011203200509512/03/01 20:05:31  5-MIN KMSN 040205Z 15007KT 10SM OVC027 10/07 A3000 790 80 400 150/07 RMK AO2
14837KMSN MSN20011203201009512/03/01 20:10:31  5-MIN KMSN 040210Z 16006KT 10SM OVC027 10/07 A3000 790 80 400 160/06 RMK AO2
14837KMSN MSN20011203201509512/03/01 20:15:31  5-MIN KMSN 040215Z 16008KT 10SM OVC027 10/07 A3001 790 80 400 160/08 RMK AO2
14837KMSN MSN20011203202010212/03/01 20:20:31  5-MIN KMSN 040220Z 16007KT 10SM BKN027 OVC032 10/07 A3000 790 80 400 150/07 RMK AO2
14837KMSN MSN20011203202509512/03/01 20:25:31  5-MIN KMSN 040225Z 15008KT 10SM OVC029 10/07 A3000 790 80 400 150/08 RMK AO2
14837KMSN MSN20011203203010212/03/01 20:30:31  5-MIN KMSN 040230Z 16006KT 10SM BKN027 OVC035 10/07 A3000 790 80 400 160/06 RMK AO2
14837KMSN MSN20011203203510212/03/01 20:35:31  5-MIN KMSN 040235Z 16007KT 10SM BKN029 OVC035 10/07 A3000 790 80 400 160/07 RMK AO2
14837KMSN MSN20011203204010212/03/01 20:40:31  5-MIN KMSN 040240Z 15007KT 10SM BKN029 OVC035 09/07 A3000 790 83 400 150/07 RMK AO2
14837KMSN MSN20011203204509512/03/01 20:45:31  5-MIN KMSN 040245Z 15008KT 10SM BKN034 09/07 A3000 790 83 400 150/08 RMK AO2
14837KMSN MSN20011203205012412/03/01 20:50:31  5-MIN KMSN 040250Z 15007KT 9SM SCT030 BKN036 09/07 A3000 790 83 300 150/07 RMK AO2 SLP165 T00940067 58005
14837KMSN MSN20011203205510112/03/01 20:55:31  5-MIN KMSN 040255Z 15007KT 9SM FEW030 BKN038 09/07 A3000 790 83 400 150/07 RMK AO2
14837KMSN MSN20011203210009512/03/01 21:00:31  5-MIN KMSN 040300Z 15007KT 10SM BKN040 09/07 A3000 790 83 400 150/07 RMK AO2
14837KMSN MSN20011203210510212/03/01 21:05:31  5-MIN KMSN 040305Z 16008KT 10SM FEW030 BKN040 09/07 A3000 790 83 400 150/08 RMK AO2
14837KMSN MSN20011203211010212/03/01 21:10:31  5-MIN KMSN 040310Z 16008KT 10SM FEW030 BKN040 09/07 A3000 790 86 400 160/08 RMK AO2
14837KMSN MSN20011203211510212/03/01 21:15:31  5-MIN KMSN 040315Z 16007KT 10SM SCT032 BKN040 09/07 A3000 800 86 400 160/07 RMK AO2
14837KMSN MSN20011203212010212/03/01 21:20:31  5-MIN KMSN 040320Z 15009KT 10SM SCT032 BKN040 09/07 A2999 800 86 400 150/09 RMK AO2
14837KMSN MSN20011203212510212/03/01 21:25:31  5-MIN KMSN 040325Z 15009KT 10SM SCT030 BKN040 10/07 A2999 800 83 400 150/09 RMK AO2
14837KMSN MSN20011203213010212/03/01 21:30:31  5-MIN KMSN 040330Z 16008KT 10SM FEW030 BKN040 10/07 A2999 800 83 400 150/08 RMK AO2
14837KMSN MSN20011203213510212/03/01 21:35:31  5-MIN KMSN 040335Z 15009KT 10SM FEW030 BKN040 09/07 A2998 810 86 400 150/09 RMK AO2
14837KMSN MSN20011203214010212/03/01 21:40:31  5-MIN KMSN 040340Z 15008KT 10SM FEW030 BKN040 10/07 A2998 810 83 400 150/08 RMK AO2
14837KMSN MSN20011203214510212/03/01 21:45:31  5-MIN KMSN 040345Z 16008KT 10SM FEW030 SCT040 09/07 A2998 810 86 400 160/08 RMK AO2
14837KMSN MSN20011203215011912/03/01 21:50:31  5-MIN KMSN 040350Z 15008KT 10SM FEW032 SCT040 10/07 A2998 810 83 400 150/08 RMK AO2 SLP158 T01000072
14837KMSN MSN20011203215509512/03/01 21:55:31  5-MIN KMSN 040355Z 16009KT 10SM SCT037 10/07 A2998 810 83 400 160/09 RMK AO2
14837KMSN MSN20011203220010212/03/01 22:00:31  5-MIN KMSN 040400Z 16007KT 10SM SCT029 SCT037 10/07 A2998 810 83 400 160/07 RMK AO2
14837KMSN MSN20011203220509512/03/01 22:05:31  5-MIN KMSN 040405Z 16006KT 10SM BKN032 10/07 A2998 810 83 400 160/06 RMK AO2
14837KMSN MSN20011203221010212/03/01 22:10:31  5-MIN KMSN 040410Z 16006KT 10SM BKN032 BKN041 10/08 A2998 810 86 400 160/06 RMK AO2
14837KMSN MSN20011203221510212/03/01 22:15:31  5-MIN KMSN 040415Z 15005KT 10SM SCT032 BKN041 10/08 A2998 810 86 400 150/05 RMK AO2
14837KMSN MSN20011203222010212/03/01 22:20:31  5-MIN KMSN 040420Z 15006KT 10SM SCT032 SCT041 10/08 A2998 810 86 400 150/06 RMK AO2
14837KMSN MSN20011203222510212/03/01 22:25:31  5-MIN KMSN 040425Z 15007KT 10SM SCT032 SCT041 10/08 A2998 810 86 400 150/07 RMK AO2
14837KMSN MSN20011203223009512/03/01 22:30:31  5-MIN KMSN 040430Z 16008KT 10SM FEW032 10/08 A2998 810 86 400 150/08 RMK AO2
14837KMSN MSN20011203223509512/03/01 22:35:31  5-MIN KMSN 040435Z 16005KT 10SM FEW032 10/08 A2998 810 86 400 160/05 RMK AO2
14837KMSN MSN20011203224009212/03/01 22:40:31  5-MIN KMSN 040440Z 16004KT 10SM CLR 09/08 A2998 810 89 400 160/04 RMK AO2
14837KMSN MSN20011203224509212/03/01 22:45:31  5-MIN KMSN 040445Z 16005KT 10SM CLR 09/08 A2998 810 89 400 150/05 RMK AO2
14837KMSN MSN20011203225011112/03/01 22:50:31  5-MIN KMSN 040450Z 17003KT 8SM FEW040 09/07 A2998 810 86 400 170/03 RMK AO2 SLP155 T00940072
14837KMSN MSN20011203225509412/03/01 22:55:31  5-MIN KMSN 040455Z 17004KT 8SM FEW040 09/08 A2997 820 89 400 170/04 RMK AO2
14837KMSN MSN20011203230009412/03/01 23:00:31  5-MIN KMSN 040500Z 16004KT 8SM FEW040 09/08 A2997 820 89 400 160/04 RMK AO2
14837KMSN MSN20011203230509412/03/01 23:05:31  5-MIN KMSN 040505Z 17005KT 8SM FEW040 09/08 A2997 820 89 400 170/05 RMK AO2
14837KMSN MSN20011203231009412/03/01 23:10:31  5-MIN KMSN 040510Z 17004KT 7SM SCT027 09/08 A2997 820 89 400 170/04 RMK AO2
14837KMSN MSN20011203231509412/03/01 23:15:31  5-MIN KMSN 040515Z 17006KT 7SM FEW027 09/08 A2997 820 89 400 170/06 RMK AO2
14837KMSN MSN20011203232009712/03/01 23:20:31  5-MIN KMSN 040520Z 17006KT 6SM BR FEW027 09/08 A2997 820 89 400 170/06 RMK AO2
14837KMSN MSN20011203232509712/03/01 23:25:31  5-MIN KMSN 040525Z 18007KT 6SM BR FEW027 10/08 A2997 820 86 500 180/07 RMK AO2
14837KMSN MSN20011203233009712/03/01 23:30:31  5-MIN KMSN 040530Z 18008KT 6SM BR FEW027 10/08 A2997 820 89 500 180/08 RMK AO2
14837KMSN MSN20011203233509712/03/01 23:35:31  5-MIN KMSN 040535Z 18011KT 6SM BR FEW055 11/09 A2996 820 89 500 180/11 RMK AO2
14837KMSN MSN20011203234009712/03/01 23:40:31  5-MIN KMSN 040540Z 18011KT 6SM BR SCT055 11/09 A2996 820 86 600 180/11 RMK AO2
14837KMSN MSN20011203234510112/03/01 23:45:31  5-MIN KMSN 040545Z 18010KT 7SM FEW028 SCT055 11/09 A2996 830 86 600 180/10 RMK AO2
14837KMSN MSN20011203235015312/03/01 23:50:31  5-MIN KMSN 040550Z 19011KT 7SM FEW028 SCT035 BKN055 11/09 A2996 830 86 600 190/11 RMK AO2 SLP149 T01110089 10111 20094 401501006 58006
14837KMSN MSN20011203235510812/03/01 23:55:31  5-MIN KMSN 040555Z 18011KT 7SM SCT028 SCT035 BKN060 11/09 A2996 830 86 600 180/11 RMK AO2
14837KMSN MSN20011204000011112/04/01 00:00:31  5-MIN KMSN 040600Z 18010KT 6SM BR FEW028 SCT035 OVC060 11/09 A2996 830 86 600 180/10 RMK AO2
14837KMSN MSN20011204000510412/04/01 00:05:31  5-MIN KMSN 040605Z 18010KT 6SM BR FEW028 OVC060 11/09 A2996 830 86 600 180/10 RMK AO2
14837KMSN MSN20011204001010412/04/01 00:10:31  5-MIN KMSN 040610Z 18011KT 6SM BR FEW028 OVC060 11/09 A2996 830 86 600 180/11 RMK AO2
14837KMSN MSN20011204001510412/04/01 00:15:31  5-MIN KMSN 040615Z 18010KT 6SM BR FEW028 OVC060 11/09 A2996 830 86 600 180/10 RMK AO2
14837KMSN MSN20011204002010412/04/01 00:20:31  5-MIN KMSN 040620Z 18011KT 6SM BR FEW030 OVC060 11/09 A2996 830 86 600 180/11 RMK AO2
14837KMSN MSN20011204002509712/04/01 00:25:31  5-MIN KMSN 040625Z 18010KT 6SM BR OVC060 11/09 A2996 830 89 500 180/10 RMK AO2
14837KMSN MSN20011204003009712/04/01 00:30:31  5-MIN KMSN 040630Z 18011KT 6SM BR BKN060 11/09 A2996 830 86 600 180/11 RMK AO2
14837KMSN MSN20011204003509712/04/01 00:35:31  5-MIN KMSN 040635Z 18011KT 6SM BR BKN060 11/09 A2996 830 89 500 180/11 RMK AO2
14837KMSN MSN20011204004009712/04/01 00:40:31  5-MIN KMSN 040640Z 18010KT 6SM BR BKN060 11/09 A2996 830 86 600 180/10 RMK AO2
14837KMSN MSN20011204004509712/04/01 00:45:31  5-MIN KMSN 040645Z 18010KT 6SM BR BKN060 11/09 A2996 830 86 600 180/10 RMK AO2
14837KMSN MSN20011204005011412/04/01 00:50:31  5-MIN KMSN 040650Z 18010KT 6SM BR BKN060 11/09 A2996 830 86 600 180/10 RMK AO2 SLP147 T01110089
14837KMSN MSN20011204005510412/04/01 00:55:31  5-MIN KMSN 040655Z 18010KT 6SM BR FEW027 BKN060 11/09 A2996 830 86 600 180/10 RMK AO2
14837KMSN MSN20011204010010412/04/01 01:00:31  5-MIN KMSN 040700Z 18010KT 6SM BR FEW027 BKN060 11/09 A2995 840 86 600 180/10 RMK AO2
14837KMSN MSN20011204010510412/04/01 01:05:31  5-MIN KMSN 040705Z 18009KT 6SM BR FEW027 BKN060 11/09 A2995 840 89 500 180/09 RMK AO2
14837KMSN MSN20011204011010412/04/01 01:10:31  5-MIN KMSN 040710Z 19010KT 6SM BR FEW025 BKN060 11/09 A2995 840 86 600 190/10 RMK AO2
14837KMSN MSN20011204011510412/04/01 01:15:31  5-MIN KMSN 040715Z 19008KT 6SM BR FEW025 BKN060 11/09 A2995 830 86 600 190/08 RMK AO2
14837KMSN MSN20011204012010412/04/01 01:20:31  5-MIN KMSN 040720Z 19007KT 6SM BR FEW025 BKN060 11/09 A2996 830 86 600 190/07 RMK AO2
14837KMSN MSN20011204012510412/04/01 01:25:31  5-MIN KMSN 040725Z 19009KT 6SM BR FEW025 BKN060 11/09 A2995 830 86 600 190/09 RMK AO2
14837KMSN MSN20011204013011112/04/01 01:30:31  5-MIN KMSN 040730Z 19008KT 6SM BR FEW025 SCT033 OVC055 11/09 A2995 830 86 600 180/08 RMK AO2
14837KMSN MSN20011204013511112/04/01 01:35:31  5-MIN KMSN 040735Z 18009KT 6SM BR FEW025 SCT035 OVC055 11/09 A2996 830 89 600 180/09 RMK AO2
14837KMSN MSN20011204014010812/04/01 01:40:31  5-MIN KMSN 040740Z 18008KT 7SM FEW025 SCT035 OVC055 11/09 A2996 830 89 600 180/08 RMK AO2
14837KMSN MSN20011204014510812/04/01 01:45:31  5-MIN KMSN 040745Z 19008KT 7SM FEW025 SCT033 OVC055 11/09 A2996 830 86 600 190/08 RMK AO2
14837KMSN MSN20011204015011812/04/01 01:50:31  5-MIN KMSN 040750Z 19009KT 7SM FEW025 OVC055 11/09 A2996 830 89 600 180/09 RMK AO2 SLP147 T01110094
14837KMSN MSN20011204015510112/04/01 01:55:31  5-MIN KMSN 040755Z 18008KT 7SM FEW025 OVC055 11/09 A2995 830 89 600 180/08 RMK AO2
14837KMSN MSN20011204020010112/04/01 02:00:31  5-MIN KMSN 040800Z 19009KT 7SM FEW025 OVC055 12/09 A2995 830 86 700 190/09 RMK AO2
14837KMSN MSN20011204020510112/04/01 02:05:31  5-MIN KMSN 040805Z 19009KT 7SM FEW025 OVC055 12/09 A2996 830 86 700 190/09 RMK AO2
14837KMSN MSN20011204021009412/04/01 02:10:31  5-MIN KMSN 040810Z 19008KT 7SM OVC055 12/09 A2996 830 86 700 190/08 RMK AO2
14837KMSN MSN20011204021510112/04/01 02:15:31  5-MIN KMSN 040815Z 19007KT 7SM FEW024 OVC055 12/09 A2997 820 86 700 190/07 RMK AO2
14837KMSN MSN20011204022010112/04/01 02:20:31  5-MIN KMSN 040820Z 19010KT 7SM FEW024 OVC055 12/09 A2997 820 86 700 190/10 RMK AO2
14837KMSN MSN20011204022509412/04/01 02:25:31  5-MIN KMSN 040825Z 19010KT 7SM OVC055 12/09 A2997 820 86 700 190/10 RMK AO2
14837KMSN MSN20011204023010712/04/01 02:30:31  5-MIN KMSN 040830Z 20007G14KT 7SM FEW024 OVC050 12/09 A2997 820 83 700 200/07G14 RMK AO2
14837KMSN MSN20011204023510112/04/01 02:35:31  5-MIN KMSN 040835Z 20007KT 7SM FEW024 OVC050 12/09 A2997 820 83 700 200/07 RMK AO2
14837KMSN MSN20011204024010112/04/01 02:40:31  5-MIN KMSN 040840Z 19008KT 7SM FEW024 OVC050 12/09 A2996 830 83 700 180/08 RMK AO2
14837KMSN MSN20011204024509412/04/01 02:45:31  5-MIN KMSN 040845Z 19009KT 7SM OVC055 12/09 A2996 830 83 700 180/09 RMK AO2
14837KMSN MSN20011204025011712/04/01 02:50:31  5-MIN KMSN 040850Z 19010KT 8SM OVC055 12/09 A2995 830 83 700 180/10 RMK AO2 SLP145 T01220094 56014
14837KMSN MSN20011204025509412/04/01 02:55:31  5-MIN KMSN 040855Z 19009KT 8SM OVC055 12/09 A2995 830 86 700 190/09 RMK AO2
14837KMSN MSN20011204030009412/04/01 03:00:31  5-MIN KMSN 040900Z 19010KT 8SM BKN055 12/09 A2995 840 86 700 180/10 RMK AO2
14837KMSN MSN20011204030509412/04/01 03:05:31  5-MIN KMSN 040905Z 18010KT 8SM OVC055 12/09 A2995 840 86 700 180/10 RMK AO2
14837KMSN MSN20011204031009412/04/01 03:10:31  5-MIN KMSN 040910Z 19009KT 8SM OVC055 12/09 A2995 840 86 700 190/09 RMK AO2
14837KMSN MSN20011204031509412/04/01 03:15:31  5-MIN KMSN 040915Z 19008KT 8SM OVC055 12/09 A2995 840 83 700 190/08 RMK AO2
14837KMSN MSN20011204032009412/04/01 03:20:31  5-MIN KMSN 040920Z 19010KT 8SM OVC050 12/09 A2995 840 83 700 190/10 RMK AO2
14837KMSN MSN20011204032509412/04/01 03:25:31  5-MIN KMSN 040925Z 19010KT 8SM OVC050 12/10 A2995 840 86 700 190/10 RMK AO2
14837KMSN MSN20011204033009412/04/01 03:30:31  5-MIN KMSN 040930Z 19009KT 8SM BKN050 12/10 A2995 840 86 700 190/09 RMK AO2
14837KMSN MSN20011204033509412/04/01 03:35:31  5-MIN KMSN 040935Z 20007KT 8SM BKN050 12/10 A2995 840 86 700 200/07 RMK AO2
14837KMSN MSN20011204034009412/04/01 03:40:31  5-MIN KMSN 040940Z 20006KT 8SM BKN050 12/09 A2995 840 86 700 200/06 RMK AO2
14837KMSN MSN20011204034510112/04/01 03:45:31  5-MIN KMSN 040945Z 20005KT 8SM FEW019 BKN055 12/09 A2995 840 86 700 200/05 RMK AO2
14837KMSN MSN20011204035012512/04/01 03:50:31  5-MIN KMSN 040950Z 19004KT 8SM FEW019 SCT028 BKN055 12/10 A2995 840 86 700 190/04 RMK AO2 SLP145 T01220100
14837KMSN MSN20011204035510812/04/01 03:55:31  5-MIN KMSN 040955Z 19007KT 8SM FEW019 BKN028 BKN055 12/10 A2995 840 89 700 190/07 RMK AO2
14837KMSN MSN20011204040010812/04/01 04:00:31  5-MIN KMSN 041000Z 19007KT 8SM FEW019 BKN028 BKN055 12/10 A2995 840 86 700 190/07 RMK AO2
14837KMSN MSN20011204040510812/04/01 04:05:31  5-MIN KMSN 041005Z 20006KT 8SM FEW019 BKN028 BKN034 12/10 A2995 840 89 700 200/06 RMK AO2
14837KMSN MSN20011204041010812/04/01 04:10:31  5-MIN KMSN 041010Z 19005KT 8SM SCT019 BKN028 OVC055 12/10 A2995 840 89 700 190/05 RMK AO2
14837KMSN MSN20011204041510812/04/01 04:15:31  5-MIN KMSN 041015Z 19006KT 8SM SCT019 BKN028 OVC055 12/10 A2995 840 86 700 190/06 RMK AO2
14837KMSN MSN20011204042010812/04/01 04:20:31  5-MIN KMSN 041020Z 19007KT 8SM FEW019 BKN028 OVC055 12/10 A2995 840 86 700 190/07 RMK AO2
14837KMSN MSN20011204042510812/04/01 04:25:31  5-MIN KMSN 041025Z 19007KT 8SM SCT019 BKN028 OVC055 12/10 A2995 840 86 700 190/07 RMK AO2
14837KMSN MSN20011204043010812/04/01 04:30:31  5-MIN KMSN 041030Z 19007KT 8SM SCT019 BKN028 OVC055 12/10 A2995 840 86 700 190/07 RMK AO2
14837KMSN MSN20011204043510812/04/01 04:35:31  5-MIN KMSN 041035Z 19009KT 9SM SCT019 BKN028 OVC055 12/10 A2995 840 86 700 190/09 RMK AO2
14837KMSN MSN20011204044010812/04/01 04:40:31  5-MIN KMSN 041040Z 19009KT 9SM SCT019 BKN028 OVC055 13/10 A2995 840 83 800 190/09 RMK AO2
14837KMSN MSN20011204044510812/04/01 04:45:31  5-MIN KMSN 041045Z 20008KT 9SM SCT019 BKN028 OVC055 13/10 A2995 840 83 800 200/08 RMK AO2
14837KMSN MSN20011204045013112/04/01 04:50:31  5-MIN KMSN 041050Z 20011G17KT 9SM FEW019 SCT028 OVC055 13/10 A2995 840 83 800 200/11G17 RMK AO2 SLP145 T01280100
14837KMSN MSN20011204045510712/04/01 04:55:31  5-MIN KMSN 041055Z 20008G17KT 9SM FEW022 OVC055 13/10 A2995 840 83 800 200/08G17 RMK AO2
14837KMSN MSN20011204050010812/04/01 05:00:31  5-MIN KMSN 041100Z 20008KT 9SM FEW024 SCT047 OVC055 13/10 A2995 840 83 800 200/08 RMK AO2
14837KMSN MSN20011204050510112/04/01 05:05:31  5-MIN KMSN 041105Z 21007KT 9SM FEW024 OVC050 12/10 A2995 840 86 700 210/07 RMK AO2
14837KMSN MSN20011204051010812/04/01 05:10:31  5-MIN KMSN 041110Z 20007KT 9SM SCT024 BKN048 OVC055 13/10 A2995 830 83 800 200/07 RMK AO2
14837KMSN MSN20011204051510812/04/01 05:15:31  5-MIN KMSN 041115Z 20007KT 9SM BKN024 BKN031 OVC055 13/10 A2995 830 83 800 200/07 RMK AO2
14837KMSN MSN20011204052010912/04/01 05:20:31  5-MIN KMSN 041120Z 20009KT 10SM BKN024 BKN028 OVC050 13/10 A2995 830 83 800 200/09 RMK AO2
14837KMSN MSN20011204052510212/04/01 05:25:31  5-MIN KMSN 041125Z 19008KT 10SM BKN024 OVC048 13/10 A2995 840 83 800 190/08 RMK AO2
14837KMSN MSN20011204053010912/04/01 05:30:31  5-MIN KMSN 041130Z 20007KT 10SM BKN024 BKN028 OVC050 13/10 A2995 830 83 800 200/07 RMK AO2
14837KMSN MSN20011204053510212/04/01 05:35:31  5-MIN KMSN 041135Z 20006KT 10SM BKN024 OVC055 12/10 A2995 840 86 700 200/06 RMK AO2
14837KMSN MSN20011204054010212/04/01 05:40:31  5-MIN KMSN 041140Z 23006KT 10SM BKN024 OVC055 13/11 A2995 830 86 800 230/06 RMK AO2
14837KMSN MSN20011204054510212/04/01 05:45:31  5-MIN KMSN 041145Z 22008KT 10SM BKN024 OVC055 13/10 A2995 840 83 800 220/08 RMK AO2
14837KMSN MSN20011204055013712/04/01 05:50:31  5-MIN KMSN 041150Z 21006KT 10SM BKN024 BKN055 12/10 A2995 830 86 700 210/06 RMK AO2 SLP146 T01220100 10128 20106 56002
14837KMSN MSN20011204055510112/04/01 05:55:31  5-MIN KMSN 041155Z 21005KT 9SM BKN024 BKN055 12/10 A2995 830 86 700 210/05 RMK AO2
14837KMSN MSN20011204060010112/04/01 06:00:31  5-MIN KMSN 041200Z VRB06KT 9SM BKN024 OVC055 12/10 A2995 830 86 700 VRB/06 RMK AO2
14837KMSN MSN20011204060510812/04/01 06:05:31  5-MIN KMSN 041205Z 21005KT 9SM BKN022 BKN028 OVC055 12/11 A2996 830 89 700 210/05 RMK AO2
14837KMSN MSN20011204061009412/04/01 06:10:31  5-MIN KMSN 041210Z 22004KT 9SM OVC025 13/11 A2996 830 86 800 210/04 RMK AO2
14837KMSN MSN20011204061510112/04/01 06:15:31  5-MIN KMSN 041215Z 22006KT 9SM SCT022 OVC028 12/11 A2996 830 89 700 210/06 RMK AO2
14837KMSN MSN20011204062010112/04/01 06:20:31  5-MIN KMSN 041220Z 22005KT 9SM SCT022 OVC028 13/11 A2996 830 86 800 220/05 RMK AO2
14837KMSN MSN20011204062510112/04/01 06:25:31  5-MIN KMSN 041225Z 21006KT 9SM BKN022 OVC028 13/11 A2996 830 86 800 210/06 RMK AO2
14837KMSN MSN20011204063010212/04/01 06:30:31  5-MIN KMSN 041230Z 21006KT 10SM BKN022 OVC028 13/11 A2996 830 86 800 210/06 RMK AO2
14837KMSN MSN20011204063510112/04/01 06:35:31  5-MIN KMSN 041235Z 21007KT 9SM BKN020 OVC028 13/11 A2996 830 86 800 210/07 RMK AO2
14837KMSN MSN20011204064010112/04/01 06:40:31  5-MIN KMSN 041240Z 22006KT 9SM BKN020 OVC030 12/11 A2997 820 89 700 220/06 RMK AO2
14837KMSN MSN20011204064510112/04/01 06:45:31  5-MIN KMSN 041245Z 24005KT 9SM BKN020 OVC030 13/11 A2997 820 86 800 240/05 RMK AO2
14837KMSN MSN20011204065011112/04/01 06:50:31  5-MIN KMSN 041250Z VRB03KT 8SM OVC020 13/11 A2997 820 86 800 VRB/03 RMK AO2 SLP151 T01280106
14837KMSN MSN20011204065510112/04/01 06:55:31  5-MIN KMSN 041255Z 22005KT 9SM BKN020 OVC030 13/11 A2997 820 86 800 220/05 RMK AO2
14837KMSN MSN20011204070010112/04/01 07:00:31  5-MIN KMSN 041300Z VRB04KT 9SM BKN020 OVC030 13/11 A2997 820 86 800 VRB/04 RMK AO2
14837KMSN MSN20011204070509412/04/01 07:05:31  5-MIN KMSN 041305Z 22006KT 9SM OVC020 13/11 A2997 810 86 800 220/06 RMK AO2
14837KMSN MSN20011204071009712/04/01 07:10:31  5-MIN KMSN 041310Z 22006KT 6SM BR OVC020 13/11 A2998 810 86 800 220/06 RMK AO2
14837KMSN MSN20011204071509712/04/01 07:15:31  5-MIN KMSN 041315Z 22005KT 6SM BR OVC022 13/11 A2998 810 86 800 220/05 RMK AO2
14837KMSN MSN20011204072009712/04/01 07:20:31  5-MIN KMSN 041320Z 22007KT 6SM BR OVC022 13/11 A2998 810 86 800 220/07 RMK AO2
14837KMSN MSN20011204072509712/04/01 07:25:31  5-MIN KMSN 041325Z 21007KT 6SM BR OVC022 13/11 A2998 810 86 800 210/07 RMK AO2
14837KMSN MSN20011204073009712/04/01 07:30:31  5-MIN KMSN 041330Z 22007KT 6SM BR OVC022 13/11 A2998 810 86 800 210/07 RMK AO2
14837KMSN MSN20011204073509712/04/01 07:35:31  5-MIN KMSN 041335Z 21007KT 6SM BR OVC020 13/11 A2997 810 86 800 210/07 RMK AO2
14837KMSN MSN20011204074009712/04/01 07:40:31  5-MIN KMSN 041340Z 21005KT 6SM BR OVC020 13/11 A2997 810 86 800 210/05 RMK AO2
14837KMSN MSN20011204074509712/04/01 07:45:31  5-MIN KMSN 041345Z 21005KT 6SM BR BKN020 12/11 A2997 810 89 700 210/05 RMK AO2
14837KMSN MSN20011204075011412/04/01 07:50:31  5-MIN KMSN 041350Z VRB05KT 6SM BR BKN020 13/11 A2998 810 86 800 VRB/05 RMK AO2 SLP152 T01280106
14837KMSN MSN20011204075509712/04/01 07:55:31  5-MIN KMSN 041355Z 20004KT 6SM BR OVC020 13/11 A2998 810 86 800 200/04 RMK AO2
14837KMSN MSN20011204080009712/04/01 08:00:31  5-MIN KMSN 041400Z VRB03KT 6SM BR OVC020 13/11 A2998 810 86 800 VRB/03 RMK AO2
14837KMSN MSN20011204080509712/04/01 08:05:31  5-MIN KMSN 041405Z 21006KT 6SM BR OVC020 13/11 A2998 810 86 800 210/06 RMK AO2
14837KMSN MSN20011204081009412/04/01 08:10:31  5-MIN KMSN 041410Z 22006KT 7SM OVC020 13/11 A2998 810 86 800 220/06 RMK AO2
14837KMSN MSN20011204081509412/04/01 08:15:31  5-MIN KMSN 041415Z 21005KT 7SM OVC020 13/11 A2998 810 86 800 210/05 RMK AO2
14837KMSN MSN20011204082009412/04/01 08:20:31  5-MIN KMSN 041420Z 22007KT 7SM OVC020 13/11 A2998 810 86 800 210/07 RMK AO2
14837KMSN MSN20011204082509412/04/01 08:25:31  5-MIN KMSN 041425Z 21003KT 7SM OVC020 13/11 A2998 810 86 800 210/03 RMK AO2
14837KMSN MSN20011204083009412/04/01 08:30:31  5-MIN KMSN 041430Z VRB05KT 7SM OVC020 13/11 A2998 810 86 800 VRB/05 RMK AO2
14837KMSN MSN20011204083509412/04/01 08:35:31  5-MIN KMSN 041435Z 20007KT 7SM OVC020 13/11 A2998 810 86 800 200/07 RMK AO2
14837KMSN MSN20011204084010112/04/01 08:40:31  5-MIN KMSN 041440Z 20004KT 7SM BKN020 OVC036 13/11 A2998 810 86 800 200/04 RMK AO2
14837KMSN MSN20011204084510112/04/01 08:45:31  5-MIN KMSN 041445Z 20006KT 7SM BKN020 OVC036 13/11 A2998 810 83 800 200/06 RMK AO2
14837KMSN MSN20011204085012412/04/01 08:50:31  5-MIN KMSN 041450Z 21006KT 7SM BKN020 OVC036 13/11 A2998 810 83 800 210/06 RMK AO2 SLP155 T01330106 55000
14837KMSN MSN20011204085509412/04/01 08:55:31  5-MIN KMSN 041455Z 21006KT 8SM OVC020 13/11 A2998 810 83 800 210/06 RMK AO2
14837KMSN MSN20011204090009412/04/01 09:00:31  5-MIN KMSN 041500Z 22006KT 8SM OVC020 13/11 A2998 810 83 800 210/06 RMK AO2
14837KMSN MSN20011204090509412/04/01 09:05:31  5-MIN KMSN 041505Z 20006KT 8SM OVC020 13/11 A2998 810 83 800 200/06 RMK AO2
14837KMSN MSN20011204091010112/04/01 09:10:31  5-MIN KMSN 041510Z 20006KT 8SM BKN020 OVC033 13/11 A2998 810 83 800 200/06 RMK AO2
14837KMSN MSN20011204091509412/04/01 09:15:31  5-MIN KMSN 041515Z 20008KT 8SM BKN020 13/11 A2998 810 83 800 200/08 RMK AO2
14837KMSN MSN20011204092009412/04/01 09:20:31  5-MIN KMSN 041520Z 20005KT 8SM BKN020 14/11 A2998 810 80 900 200/05 RMK AO2
14837KMSN MSN20011204092509412/04/01 09:25:31  5-MIN KMSN 041525Z 21008KT 8SM OVC020 14/11 A2998 810 83 900 210/08 RMK AO2
14837KMSN MSN20011204093009412/04/01 09:30:31  5-MIN KMSN 041530Z 20006KT 8SM OVC020 14/11 A2998 800 83 900 200/06 RMK AO2
14837KMSN MSN20011204093509412/04/01 09:35:31  5-MIN KMSN 041535Z 21007KT 8SM OVC020 14/11 A2999 800 83 900 210/07 RMK AO2
14837KMSN MSN20011204094009412/04/01 09:40:31  5-MIN KMSN 041540Z 20007KT 8SM OVC020 14/11 A2999 800 83 900 200/07 RMK AO2
14837KMSN MSN20011204094509412/04/01 09:45:31  5-MIN KMSN 041545Z 21009KT 8SM OVC020 14/11 A2999 800 83 900 210/09 RMK AO2
14837KMSN MSN20011204095011112/04/01 09:50:31  5-MIN KMSN 041550Z 21008KT 8SM OVC020 14/11 A2999 800 80 900 210/08 RMK AO2 SLP157 T01390106
14837KMSN MSN20011204095510112/04/01 09:55:31  5-MIN KMSN 041555Z 21008KT 8SM BKN022 OVC030 14/11 A2999 800 80 900 210/08 RMK AO2
14837KMSN MSN20011204100010112/04/01 10:00:31  5-MIN KMSN 041600Z 21007KT 8SM BKN022 OVC030 14/11 A2999 800 80 900 210/07 RMK AO2
14837KMSN MSN20011204100510212/04/01 10:05:31  5-MIN KMSN 041605Z 22008KT 8SM BKN022 BKN030 14/11 A2999 800 80 1000 220/08 RMK AO2
14837KMSN MSN20011204101010212/04/01 10:10:31  5-MIN KMSN 041610Z 22009KT 8SM SCT022 BKN030 14/11 A2998 800 80 1000 220/09 RMK AO2
14837KMSN MSN20011204101510312/04/01 10:15:31  5-MIN KMSN 041615Z 22009KT 10SM SCT022 BKN030 14/11 A2999 800 80 1000 220/09 RMK AO2
14837KMSN MSN20011204102010312/04/01 10:20:31  5-MIN KMSN 041620Z 21007KT 10SM SCT022 BKN030 14/11 A2999 800 80 1000 210/07 RMK AO2
14837KMSN MSN20011204102511012/04/01 10:25:31  5-MIN KMSN 041625Z 22008KT 10SM FEW022 BKN030 BKN046 14/11 A2999 800 80 1000 220/08 RMK AO2
14837KMSN MSN20011204103011012/04/01 10:30:31  5-MIN KMSN 041630Z 21008KT 10SM FEW022 BKN030 BKN046 14/11 A2999 800 80 1000 210/08 RMK AO2
14837KMSN MSN20011204103511012/04/01 10:35:31  5-MIN KMSN 041635Z 20008KT 10SM FEW022 BKN030 BKN046 14/11 A2998 800 80 1000 200/08 RMK AO2
14837KMSN MSN20011204104011012/04/01 10:40:31  5-MIN KMSN 041640Z 20008KT 10SM SCT017 BKN028 BKN046 15/11 A2998 800 77 1000 200/08 RMK AO2
14837KMSN MSN20011204104511012/04/01 10:45:31  5-MIN KMSN 041645Z VRB06KT 10SM SCT019 BKN028 BKN046 15/11 A2998 810 77 1000 VRB/06 RMK AO2
14837KMSN MSN20011204105012712/04/01 10:50:31  5-MIN KMSN 041650Z 22007KT 10SM BKN019 BKN028 OVC048 16/11 A2998 810 74 1100 210/07 RMK AO2 SLP155 T01560111
14837KMSN MSN20011204105510912/04/01 10:55:31  5-MIN KMSN 041655Z 21008KT 8SM BKN019 BKN025 OVC048 15/11 A2998 810 77 1000 210/08 RMK AO2
14837KMSN MSN20011204110010212/04/01 11:00:31  5-MIN KMSN 041700Z 21008KT 8SM BKN019 OVC048 15/11 A2998 810 77 1000 210/08 RMK AO2
14837KMSN MSN20011204110509512/04/01 11:05:31  5-MIN KMSN 041705Z 21007KT 8SM OVC019 15/11 A2998 810 77 1000 210/07 RMK AO2
14837KMSN MSN20011204111009512/04/01 11:10:31  5-MIN KMSN 041710Z 21008KT 8SM OVC019 15/11 A2998 810 77 1000 210/08 RMK AO2
14837KMSN MSN20011204111509512/04/01 11:15:31  5-MIN KMSN 041715Z 21006KT 9SM OVC019 15/11 A2998 810 77 1000 210/06 RMK AO2
14837KMSN MSN20011204112009512/04/01 11:20:31  5-MIN KMSN 041720Z 20007KT 9SM OVC019 15/12 A2998 810 80 1000 190/07 RMK AO2
14837KMSN MSN20011204112509612/04/01 11:25:31  5-MIN KMSN 041725Z VRB06KT 10SM OVC019 15/12 A2998 810 80 1000 VRB/06 RMK AO2
14837KMSN MSN20011204113009612/04/01 11:30:31  5-MIN KMSN 041730Z 21008KT 10SM OVC019 15/12 A2998 810 80 1000 210/08 RMK AO2
14837KMSN MSN20011204113509612/04/01 11:35:31  5-MIN KMSN 041735Z 20007KT 10SM BKN019 15/12 A2998 810 80 1000 200/07 RMK AO2
14837KMSN MSN20011204114009612/04/01 11:40:31  5-MIN KMSN 041740Z 21007KT 10SM BKN019 15/12 A2997 820 80 1000 200/07 RMK AO2
14837KMSN MSN20011204114509612/04/01 11:45:31  5-MIN KMSN 041745Z VRB06KT 10SM BKN019 15/12 A2997 820 80 1000 VRB/06 RMK AO2
14837KMSN MSN20011204115013812/04/01 11:50:31  5-MIN KMSN 041750Z 21008KT 10SM BKN019 BKN050 15/12 A2997 820 80 1000 210/08 RMK AO2 SLP150 T01500117 10156 20122 51010
14837KMSN MSN20011204115510212/04/01 11:55:31  5-MIN KMSN 041755Z 21008KT 9SM SCT019 OVC050 15/12 A2997 820 80 1000 210/08 RMK AO2
14837KMSN MSN20011204120010312/04/01 12:00:31  5-MIN KMSN 041800Z 21008KT 10SM SCT019 OVC050 15/12 A2997 820 80 1000 210/08 RMK AO2
14837KMSN MSN20011204120510312/04/01 12:05:31  5-MIN KMSN 041805Z 22006KT 10SM BKN017 OVC050 15/12 A2997 820 80 1000 220/06 RMK AO2
14837KMSN MSN20011204121010312/04/01 12:10:31  5-MIN KMSN 041810Z 21006KT 10SM BKN017 OVC050 15/12 A2997 820 80 1000 210/06 RMK AO2
14837KMSN MSN20011204121510312/04/01 12:15:31  5-MIN KMSN 041815Z 20007KT 10SM BKN017 OVC050 15/12 A2997 820 80 1000 200/07 RMK AO2
14837KMSN MSN20011204122009612/04/01 12:20:31  5-MIN KMSN 041820Z 20006KT 10SM OVC017 15/12 A2997 820 80 1100 200/06 RMK AO2
14837KMSN MSN20011204122509612/04/01 12:25:31  5-MIN KMSN 041825Z 22006KT 10SM OVC017 15/12 A2997 820 80 1100 210/06 RMK AO2
14837KMSN MSN20011204123009612/04/01 12:30:31  5-MIN KMSN 041830Z 21005KT 10SM OVC017 15/12 A2997 820 80 1100 210/05 RMK AO2
14837KMSN MSN20011204123509612/04/01 12:35:31  5-MIN KMSN 041835Z 22007KT 10SM OVC017 15/12 A2997 820 80 1100 220/07 RMK AO2
14837KMSN MSN20011204124009512/04/01 12:40:31  5-MIN KMSN 041840Z 21007KT 8SM OVC017 15/12 A2997 820 80 1100 210/07 RMK AO2
14837KMSN MSN20011204124509512/04/01 12:45:31  5-MIN KMSN 041845Z 20006KT 8SM OVC019 15/12 A2997 820 80 1100 200/06 RMK AO2
14837KMSN MSN20011204125011212/04/01 12:50:31  5-MIN KMSN 041850Z 21007KT 8SM OVC019 15/12 A2997 820 80 1100 210/07 RMK AO2 SLP148 T01500117
14837KMSN MSN20011204125511112/04/01 12:55:31  5-MIN KMSN 041855Z 21007KT 170V230 8SM OVC019 15/12 A2997 820 80 1100 200/07 170V230 RMK AO2
14837KMSN MSN20011204130009512/04/01 13:00:31  5-MIN KMSN 041900Z 21007KT 8SM OVC019 15/12 A2997 820 80 1100 210/07 RMK AO2
14837KMSN MSN20011204130509512/04/01 13:05:31  5-MIN KMSN 041905Z 22006KT 8SM OVC019 15/12 A2997 820 80 1100 220/06 RMK AO2
14837KMSN MSN20011204131009512/04/01 13:10:31  5-MIN KMSN 041910Z 21006KT 8SM OVC017 15/12 A2997 820 80 1100 210/06 RMK AO2
14837KMSN MSN20011204131509512/04/01 13:15:31  5-MIN KMSN 041915Z 21007KT 8SM OVC017 15/12 A2997 820 80 1100 210/07 RMK AO2
14837KMSN MSN20011204132009512/04/01 13:20:31  5-MIN KMSN 041920Z 22007KT 8SM OVC017 15/11 A2997 820 77 1100 210/07 RMK AO2
14837KMSN MSN20011204132509512/04/01 13:25:31  5-MIN KMSN 041925Z 21007KT 8SM OVC017 15/12 A2997 820 80 1100 210/07 RMK AO2
14837KMSN MSN20011204133009512/04/01 13:30:31  5-MIN KMSN 041930Z 20006KT 8SM OVC017 15/12 A2997 820 80 1100 200/06 RMK AO2
14837KMSN MSN20011204133510212/04/01 13:35:31  5-MIN KMSN 041935Z 21006KT 8SM BKN019 OVC024 15/12 A2997 820 80 1100 200/06 RMK AO2
14837KMSN MSN20011204134010212/04/01 13:40:31  5-MIN KMSN 041940Z 21006KT 8SM BKN019 OVC026 15/12 A2997 820 80 1100 210/06 RMK AO2
14837KMSN MSN20011204134510912/04/01 13:45:31  5-MIN KMSN 041945Z 21005KT 8SM BKN019 BKN026 OVC048 15/11 A2997 820 77 1100 210/05 RMK AO2
14837KMSN MSN20011204135012612/04/01 13:50:31  5-MIN KMSN 041950Z VRB04KT 8SM BKN019 BKN029 OVC048 15/12 A2997 820 80 1100 VRB/04 RMK AO2 SLP148 T01500117
14837KMSN MSN20011204135510912/04/01 13:55:31  5-MIN KMSN 041955Z 21004KT 8SM SCT017 BKN029 OVC048 15/12 A2997 820 80 1100 210/04 RMK AO2
14837KMSN MSN20011204140010912/04/01 14:00:31  5-MIN KMSN 042000Z 20005KT 8SM FEW019 SCT024 OVC048 15/12 A2997 820 80 1100 200/05 RMK AO2
14837KMSN MSN20011204140510912/04/01 14:05:31  5-MIN KMSN 042005Z 20006KT 8SM FEW017 SCT029 OVC048 15/12 A2997 820 80 1100 200/06 RMK AO2
14837KMSN MSN20011204141010212/04/01 14:10:31  5-MIN KMSN 042010Z 20006KT 8SM FEW017 OVC048 15/12 A2997 820 80 1100 200/06 RMK AO2
14837KMSN MSN20011204141509512/04/01 14:15:31  5-MIN KMSN 042015Z 20005KT 8SM OVC048 15/12 A2997 820 80 1100 200/05 RMK AO2
14837KMSN MSN20011204142009512/04/01 14:20:31  5-MIN KMSN 042020Z 19005KT 8SM OVC048 15/12 A2997 820 80 1100 190/05 RMK AO2
14837KMSN MSN20011204142509512/04/01 14:25:31  5-MIN KMSN 042025Z 19006KT 8SM OVC048 15/12 A2997 820 80 1100 190/06 RMK AO2
14837KMSN MSN20011204143009512/04/01 14:30:31  5-MIN KMSN 042030Z 20005KT 7SM OVC048 15/12 A2997 820 80 1100 200/05 RMK AO2
14837KMSN MSN20011204143509512/04/01 14:35:31  5-MIN KMSN 042035Z 20004KT 7SM OVC048 15/12 A2997 820 80 1100 200/04 RMK AO2
14837KMSN MSN20011204155509612/04/01 15:55:31  5-MIN KMSN 042155Z 19006KT 10SM BKN046 15/12 A2998 810 80 1000 190/06 RMK AO2
14837KMSN MSN20011204160009612/04/01 16:00:31  5-MIN KMSN 042200Z 19005KT 10SM BKN046 15/12 A2998 810 80 1000 190/05 RMK AO2
14837KMSN MSN20011204160509612/04/01 16:05:31  5-MIN KMSN 042205Z 18006KT 10SM OVC046 15/12 A2998 810 80 1000 180/06 RMK AO2
14837KMSN MSN20011204161009612/04/01 16:10:31  5-MIN KMSN 042210Z 18006KT 10SM OVC046 15/12 A2998 810 80 1000 180/06 RMK AO2
14837KMSN MSN20011204161509512/04/01 16:15:31  5-MIN KMSN 042215Z 18005KT 9SM OVC046 14/12 A2998 810 83 1000 180/05 RMK AO2
14837KMSN MSN20011204162009512/04/01 16:20:31  5-MIN KMSN 042220Z 17005KT 9SM OVC046 14/12 A2998 810 83 1000 170/05 RMK AO2
14837KMSN MSN20011204162509412/04/01 16:25:31  5-MIN KMSN 042225Z 17006KT 9SM OVC046 14/12 A2998 810 86 900 170/06 RMK AO2
14837KMSN MSN20011204163009512/04/01 16:30:31  5-MIN KMSN 042230Z 17005KT 9SM OVC044 14/12 A2998 810 83 1000 170/05 RMK AO2
14837KMSN MSN20011204163509412/04/01 16:35:31  5-MIN KMSN 042235Z 17006KT 9SM OVC044 14/12 A2998 810 86 900 170/06 RMK AO2
14837KMSN MSN20011204164009512/04/01 16:40:31  5-MIN KMSN 042240Z 18007KT 8SM OVC044 14/12 A2999 800 83 1000 180/07 RMK AO2
14837KMSN MSN20011204164510212/04/01 16:45:31  5-MIN KMSN 042245Z 17006KT 8SM FEW022 OVC044 14/12 A2998 810 83 1000 170/06 RMK AO2
14837KMSN MSN20011204165011812/04/01 16:50:31  5-MIN KMSN 042250Z 17004KT 7SM FEW022 OVC044 14/11 A2998 810 83 900 170/04 RMK AO2 SLP154 T01390111
14837KMSN MSN20011204165509412/04/01 16:55:31  5-MIN KMSN 042255Z 17006KT 7SM OVC044 14/11 A2998 810 83 900 170/06 RMK AO2
14837KMSN MSN20011204170009412/04/01 17:00:31  5-MIN KMSN 042300Z 17005KT 7SM OVC044 14/12 A2998 810 86 900 170/05 RMK AO2
14837KMSN MSN20011204170509512/04/01 17:05:31  5-MIN KMSN 042305Z 17005KT 8SM OVC044 14/12 A2999 800 83 1000 170/05 RMK AO2
14837KMSN MSN20011204171009512/04/01 17:10:31  5-MIN KMSN 042310Z 18006KT 8SM OVC044 14/12 A2999 800 83 1000 180/06 RMK AO2
14837KMSN MSN20011204171509512/04/01 17:15:31  5-MIN KMSN 042315Z 18006KT 8SM OVC044 14/12 A2999 800 83 1000 170/06 RMK AO2
14837KMSN MSN20011204172009512/04/01 17:20:31  5-MIN KMSN 042320Z 18004KT 8SM OVC044 14/12 A2999 800 83 1000 180/04 RMK AO2
14837KMSN MSN20011204172509512/04/01 17:25:31  5-MIN KMSN 042325Z 18006KT 7SM OVC044 14/12 A2999 800 83 1000 180/06 RMK AO2
14837KMSN MSN20011204173009512/04/01 17:30:31  5-MIN KMSN 042330Z 18006KT 7SM OVC044 14/12 A3000 790 83 1000 180/06 RMK AO2
14837KMSN MSN20011204173509512/04/01 17:35:31  5-MIN KMSN 042335Z 18006KT 7SM OVC044 14/12 A3000 790 83 1000 170/06 RMK AO2
14837KMSN MSN20011204174009512/04/01 17:40:31  5-MIN KMSN 042340Z 18007KT 7SM OVC044 14/12 A3000 790 83 1000 180/07 RMK AO2
14837KMSN MSN20011204174509512/04/01 17:45:31  5-MIN KMSN 042345Z 18006KT 7SM OVC044 14/12 A3000 790 83 1000 180/06 RMK AO2
14837KMSN MSN20011204175013012/04/01 17:50:31  5-MIN KMSN 042350Z 19005KT 7SM OVC046 14/12 A3000 790 83 1000 180/05 RMK AO2 SLP159 T01440117 10156 20139 55001
14837KMSN MSN20011204175509512/04/01 17:55:31  5-MIN KMSN 042355Z 17006KT 7SM OVC046 14/12 A3000 790 83 1000 170/06 RMK AO2
14837KMSN MSN20011204180009712/04/01 18:00:31  5-MIN KMSN 050000Z 16006KT 6SM BR OVC046 14/12 A3000 800 86 900 160/06 RMK AO2
14837KMSN MSN20011204180509412/04/01 18:05:31  5-MIN KMSN 050005Z 18006KT 8SM OVC048 14/12 A3000 790 86 900 180/06 RMK AO2
14837KMSN MSN20011204181009412/04/01 18:10:31  5-MIN KMSN 050010Z 18005KT 8SM OVC048 14/12 A3000 790 86 900 170/05 RMK AO2
14837KMSN MSN20011204181510112/04/01 18:15:31  5-MIN KMSN 050015Z 16005KT 8SM FEW026 OVC048 14/12 A3000 790 86 900 160/05 RMK AO2
14837KMSN MSN20011204182010112/04/01 18:20:31  5-MIN KMSN 050020Z 17004KT 8SM FEW026 OVC050 14/12 A3000 790 86 900 170/04 RMK AO2
14837KMSN MSN20011204182510112/04/01 18:25:31  5-MIN KMSN 050025Z 16005KT 8SM FEW026 OVC050 14/12 A3000 790 86 900 160/05 RMK AO2
14837KMSN MSN20011204183010112/04/01 18:30:31  5-MIN KMSN 050030Z 16006KT 8SM FEW026 OVC050 13/12 A3000 790 89 800 160/06 RMK AO2
14837KMSN MSN20011204183510112/04/01 18:35:31  5-MIN KMSN 050035Z 18005KT 8SM FEW024 OVC050 14/12 A3000 790 86 900 180/05 RMK AO2
14837KMSN MSN20011204184010112/04/01 18:40:31  5-MIN KMSN 050040Z 18006KT 8SM SCT026 OVC050 14/12 A3000 790 86 900 180/06 RMK AO2
14837KMSN MSN20011204184510812/04/01 18:45:31  5-MIN KMSN 050045Z 18006KT 8SM SCT026 BKN034 OVC050 14/12 A3000 790 86 900 180/06 RMK AO2
14837KMSN MSN20011204185012512/04/01 18:50:31  5-MIN KMSN 050050Z 18006KT 8SM SCT026 BKN039 OVC050 14/12 A3000 790 86 900 180/06 RMK AO2 SLP160 T01390117
14837KMSN MSN20011204185511812/04/01 18:55:31  5-MIN KMSN 050055Z 17006KT 7SM -DZ SCT023 BKN028 OVC050 14/12 A3000 790 86 900 170/06 RMK AO2 P0000
14837KMSN MSN20011204190013312/04/01 19:00:31  5-MIN KMSN 050100Z 17005KT 8SM -RA BKN022 BKN027 OVC039 13/12 A3000 790 89 800 170/05 RMK AO2 DZE0058RAB0058 P0000
14837KMSN MSN20011204190513312/04/01 19:05:31  5-MIN KMSN 050105Z 17006KT 8SM -RA SCT022 BKN027 OVC050 14/12 A3000 790 86 900 170/06 RMK AO2 DZE0058RAB0058 P0000
14837KMSN MSN20011204191013312/04/01 19:10:31  5-MIN KMSN 050110Z 16006KT 8SM -RA FEW022 BKN027 OVC055 14/12 A2999 800 86 900 160/06 RMK AO2 DZE0058RAB0058 P0000
14837KMSN MSN20011204191513212/04/01 19:15:31  5-MIN KMSN 050115Z 19007KT 9SM FEW018 BKN041 OVC055 14/12 A3000 790 86 900 180/07 RMK AO2 DZE0058RAB0058E13 P0000
14837KMSN MSN20011204192013212/04/01 19:20:31  5-MIN KMSN 050120Z 17006KT 9SM SCT021 SCT027 OVC055 14/12 A3000 790 90 900 170/06 RMK AO2 DZE0058RAB0058E13 P0000
14837KMSN MSN20011204192513212/04/01 19:25:31  5-MIN KMSN 050125Z 18007KT 9SM SCT021 SCT027 OVC055 14/12 A3000 790 90 900 170/07 RMK AO2 DZE0058RAB0058E13 P0000
14837KMSN MSN20011204193013212/04/01 19:30:31  5-MIN KMSN 050130Z 17007KT 9SM SCT021 SCT027 OVC055 14/12 A3000 790 90 900 170/07 RMK AO2 DZE0058RAB0058E13 P0000
14837KMSN MSN20011204193513212/04/01 19:35:31  5-MIN KMSN 050135Z 17007KT 9SM SCT021 SCT027 OVC055 14/12 A3000 790 90 900 170/07 RMK AO2 DZE0058RAB0058E13 P0000
14837KMSN MSN20011204194012512/04/01 19:40:31  5-MIN KMSN 050140Z 17007KT 9SM FEW018 OVC055 14/12 A3000 790 90 900 170/07 RMK AO2 DZE0058RAB0058E13 P0000
14837KMSN MSN20011204194512512/04/01 19:45:31  5-MIN KMSN 050145Z 17007KT 9SM FEW018 OVC055 14/12 A3000 790 90 900 170/07 RMK AO2 DZE0058RAB0058E13 P0000
14837KMSN MSN20011204195013512/04/01 19:50:31  5-MIN KMSN 050150Z 17007KT 9SM OVC055 14/12 A3000 790 90 900 170/07 RMK AO2 DZE0058RAB0058E13 SLP159 P0000 T01390122
14837KMSN MSN20011204195509412/04/01 19:55:31  5-MIN KMSN 050155Z 17007KT 7SM OVC055 14/12 A3000 790 90 900 170/07 RMK AO2
14837KMSN MSN20011204200009412/04/01 20:00:31  5-MIN KMSN 050200Z 17006KT 7SM OVC055 14/12 A3000 790 90 900 170/06 RMK AO2
14837KMSN MSN20011204200510112/04/01 20:05:31  5-MIN KMSN 050205Z 17007KT 7SM FEW045 OVC055 14/12 A3000 790 90 900 170/07 RMK AO2
14837KMSN MSN20011204201010412/04/01 20:10:31  5-MIN KMSN 050210Z 17007KT 6SM BR FEW045 OVC055 14/12 A3000 790 90 900 170/07 RMK AO2
14837KMSN MSN20011204201511112/04/01 20:15:31  5-MIN KMSN 050215Z 17007KT 6SM BR FEW025 SCT046 OVC060 14/12 A3000 790 90 900 170/07 RMK AO2
14837KMSN MSN20011204202011112/04/01 20:20:31  5-MIN KMSN 050220Z 17007KT 6SM BR FEW025 SCT046 OVC060 14/12 A3000 790 90 900 170/07 RMK AO2
14837KMSN MSN20011204202510212/04/01 20:25:31  5-MIN KMSN 050225Z 17006KT 10SM FEW025 OVC060 14/12 A3000 790 90 900 170/06 RMK AO2
14837KMSN MSN20011204203010212/04/01 20:30:31  5-MIN KMSN 050230Z 17006KT 10SM FEW025 OVC060 14/12 A3000 790 90 900 170/06 RMK AO2
14837KMSN MSN20011204203510212/04/01 20:35:31  5-MIN KMSN 050235Z 17007KT 10SM FEW025 OVC060 14/12 A3000 790 90 900 170/07 RMK AO2
14837KMSN MSN20011204204010212/04/01 20:40:31  5-MIN KMSN 050240Z 17007KT 10SM FEW025 OVC060 14/12 A3000 790 90 900 170/07 RMK AO2
14837KMSN MSN20011204204509512/04/01 20:45:31  5-MIN KMSN 050245Z 17007KT 10SM OVC060 14/12 A3000 800 90 900 170/07 RMK AO2
14837KMSN MSN20011204205012412/04/01 20:50:31  5-MIN KMSN 050250Z 18008KT 10SM OVC060 14/12 A3000 790 90 900 180/08 RMK AO2 SLP161 60000 T01390122 51009
14837KMSN MSN20011204205510112/04/01 20:55:31  5-MIN KMSN 050255Z 18007KT 9SM FEW022 OVC060 14/12 A3000 790 90 900 180/07 RMK AO2
14837KMSN MSN20011204210010112/04/01 21:00:31  5-MIN KMSN 050300Z 18007KT 9SM FEW020 OVC060 14/12 A3000 790 90 900 180/07 RMK AO2
14837KMSN MSN20011204210510812/04/01 21:05:31  5-MIN KMSN 050305Z 17005KT 9SM FEW020 SCT027 OVC060 14/12 A3000 790 90 900 170/05 RMK AO2
14837KMSN MSN20011204211010812/04/01 21:10:31  5-MIN KMSN 050310Z 17006KT 9SM FEW020 SCT029 OVC055 14/12 A3000 790 90 900 170/06 RMK AO2
14837KMSN MSN20011204211510812/04/01 21:15:31  5-MIN KMSN 050315Z 17005KT 9SM FEW020 BKN046 OVC055 14/12 A3000 790 90 900 170/05 RMK AO2
14837KMSN MSN20011204212010812/04/01 21:20:31  5-MIN KMSN 050320Z 17005KT 9SM FEW020 BKN041 OVC055 14/12 A3000 790 90 900 170/05 RMK AO2
14837KMSN MSN20011204212510812/04/01 21:25:31  5-MIN KMSN 050325Z 16005KT 9SM FEW022 BKN041 OVC055 14/12 A3000 790 90 900 160/05 RMK AO2
14837KMSN MSN20011204213010812/04/01 21:30:31  5-MIN KMSN 050330Z 17005KT 9SM FEW030 SCT041 OVC055 14/12 A3000 790 90 900 160/05 RMK AO2
14837KMSN MSN20011204213510812/04/01 21:35:31  5-MIN KMSN 050335Z 16004KT 9SM FEW030 SCT045 OVC055 14/12 A2999 800 90 900 160/04 RMK AO2
14837KMSN MSN20011204214010112/04/01 21:40:31  5-MIN KMSN 050340Z 17006KT 9SM FEW041 OVC055 13/12 A2999 800 93 800 170/06 RMK AO2
14837KMSN MSN20011204214510112/04/01 21:45:31  5-MIN KMSN 050345Z 17006KT 9SM FEW028 OVC055 14/12 A2999 800 90 900 170/06 RMK AO2
14837KMSN MSN20011204215011912/04/01 21:50:31  5-MIN KMSN 050350Z 16005KT 10SM FEW030 OVC055 14/12 A2999 800 90 900 160/05 RMK AO2 SLP156 T01390122
14837KMSN MSN20011204215509712/04/01 21:55:31  5-MIN KMSN 050355Z 17004KT 5SM BR OVC060 13/12 A2999 800 93 800 170/04 RMK AO2
14837KMSN MSN20011204220010112/04/01 22:00:31  5-MIN KMSN 050400Z 17005KT 8SM FEW029 OVC060 13/12 A2999 800 93 800 160/05 RMK AO2
14837KMSN MSN20011204220510112/04/01 22:05:31  5-MIN KMSN 050405Z 17005KT 8SM FEW027 OVC060 13/12 A2999 800 93 800 170/05 RMK AO2
14837KMSN MSN20011204221010812/04/01 22:10:31  5-MIN KMSN 050410Z 15006KT 8SM FEW027 SCT036 OVC060 14/12 A2999 800 90 900 150/06 RMK AO2
14837KMSN MSN20011204221510112/04/01 22:15:31  5-MIN KMSN 050415Z 16007KT 8SM FEW027 OVC060 14/12 A2999 800 90 900 160/07 RMK AO2
14837KMSN MSN20011204222010112/04/01 22:20:31  5-MIN KMSN 050420Z 17007KT 8SM FEW027 OVC060 14/12 A2999 800 90 900 170/07 RMK AO2
14837KMSN MSN20011204222510112/04/01 22:25:31  5-MIN KMSN 050425Z 17008KT 8SM FEW027 OVC065 14/12 A2999 800 90 900 160/08 RMK AO2
14837KMSN MSN20011204223010812/04/01 22:30:31  5-MIN KMSN 050430Z 17006KT 8SM FEW027 SCT044 OVC065 14/12 A2999 800 90 900 170/06 RMK AO2
14837KMSN MSN20011204223510112/04/01 22:35:31  5-MIN KMSN 050435Z 17006KT 8SM FEW030 OVC070 14/12 A2999 800 90 900 170/06 RMK AO2
14837KMSN MSN20011204224010112/04/01 22:40:31  5-MIN KMSN 050440Z 17007KT 8SM FEW042 OVC070 14/12 A2999 800 90 900 170/07 RMK AO2
14837KMSN MSN20011204224510112/04/01 22:45:31  5-MIN KMSN 050445Z 17007KT 8SM FEW032 OVC070 14/12 A2999 800 90 900 170/07 RMK AO2
14837KMSN MSN20011204225011912/04/01 22:50:31  5-MIN KMSN 050450Z 17006KT 10SM FEW044 OVC070 14/12 A2999 800 90 900 170/06 RMK AO2 SLP155 T01390122
14837KMSN MSN20011204225510112/04/01 22:55:31  5-MIN KMSN 050455Z 17006KT 8SM FEW031 OVC070 14/12 A2999 800 90 900 170/06 RMK AO2
14837KMSN MSN20011204230010112/04/01 23:00:31  5-MIN KMSN 050500Z 17006KT 8SM FEW043 OVC070 14/12 A2999 800 90 900 170/06 RMK AO2
14837KMSN MSN20011204230510112/04/01 23:05:31  5-MIN KMSN 050505Z 17006KT 8SM FEW043 OVC065 14/12 A2999 800 90 900 170/06 RMK AO2
14837KMSN MSN20011204231010112/04/01 23:10:31  5-MIN KMSN 050510Z 17005KT 8SM FEW045 OVC065 14/12 A2999 800 90 900 170/05 RMK AO2
14837KMSN MSN20011204231510112/04/01 23:15:31  5-MIN KMSN 050515Z 16007KT 8SM FEW045 OVC065 14/12 A2999 800 90 900 160/07 RMK AO2
14837KMSN MSN20011204232010112/04/01 23:20:31  5-MIN KMSN 050520Z 17008KT 8SM FEW045 OVC070 14/12 A2999 800 90 900 170/08 RMK AO2
14837KMSN MSN20011204232510112/04/01 23:25:31  5-MIN KMSN 050525Z 17007KT 8SM FEW043 OVC070 14/12 A2999 800 90 900 170/07 RMK AO2
14837KMSN MSN20011204233009412/04/01 23:30:31  5-MIN KMSN 050530Z 17008KT 8SM OVC070 14/12 A2999 800 90 900 160/08 RMK AO2
14837KMSN MSN20011204233509412/04/01 23:35:31  5-MIN KMSN 050535Z 17007KT 8SM OVC070 14/12 A2999 800 90 900 170/07 RMK AO2
14837KMSN MSN20011204234009412/04/01 23:40:31  5-MIN KMSN 050540Z 17008KT 8SM OVC065 14/12 A2999 800 90 900 170/08 RMK AO2
14837KMSN MSN20011204234509412/04/01 23:45:31  5-MIN KMSN 050545Z 17007KT 8SM OVC065 14/12 A2998 810 90 900 170/07 RMK AO2
14837KMSN MSN20011204235014512/04/01 23:50:31  5-MIN KMSN 050550Z 17007KT 8SM OVC065 14/12 A2998 810 90 900 170/07 RMK AO2 SLP154 60000 T01390122 10144 20133 401560106 52002
14837KMSN MSN20011204235509712/04/01 23:55:31  5-MIN KMSN 050555Z 17007KT 6SM BR OVC065 14/12 A2999 800 90 900 170/07 RMK AO2
14837KMSN MSN20011205000009712/05/01 00:00:31  5-MIN KMSN 050600Z 17007KT 6SM BR OVC065 14/12 A2999 800 90 900 170/07 RMK AO2
14837KMSN MSN20011205000509712/05/01 00:05:31  5-MIN KMSN 050605Z 17006KT 6SM BR OVC065 14/12 A2998 810 90 900 170/06 RMK AO2
14837KMSN MSN20011205001009712/05/01 00:10:31  5-MIN KMSN 050610Z 17005KT 6SM BR OVC065 14/12 A2998 810 90 900 170/05 RMK AO2
14837KMSN MSN20011205001509712/05/01 00:15:31  5-MIN KMSN 050615Z 18007KT 5SM BR OVC065 14/12 A2998 810 90 900 170/07 RMK AO2
14837KMSN MSN20011205002009712/05/01 00:20:31  5-MIN KMSN 050620Z 18006KT 5SM BR OVC065 14/12 A2998 810 90 900 180/06 RMK AO2
14837KMSN MSN20011205002509712/05/01 00:25:31  5-MIN KMSN 050625Z 18007KT 5SM BR OVC065 14/12 A2998 810 90 900 180/07 RMK AO2
14837KMSN MSN20011205003011112/05/01 00:30:31  5-MIN KMSN 050630Z 17006KT 5SM BR FEW039 SCT049 OVC065 14/12 A2998 810 90 900 170/06 RMK AO2
14837KMSN MSN20011205003511112/05/01 00:35:31  5-MIN KMSN 050635Z 17006KT 5SM BR FEW039 SCT049 OVC070 14/12 A2997 810 90 900 170/06 RMK AO2
14837KMSN MSN20011205004011112/05/01 00:40:31  5-MIN KMSN 050640Z 17006KT 5SM BR SCT039 SCT049 OVC070 14/12 A2997 820 90 900 170/06 RMK AO2
14837KMSN MSN20011205004511112/05/01 00:45:31  5-MIN KMSN 050645Z 17006KT 5SM BR SCT039 BKN049 OVC070 13/12 A2997 820 93 900 170/06 RMK AO2
14837KMSN MSN20011205005012812/05/01 00:50:31  5-MIN KMSN 050650Z 16006KT 5SM BR SCT039 SCT049 OVC070 13/12 A2997 820 93 900 160/06 RMK AO2 SLP149 T01330122
14837KMSN MSN20011205005511112/05/01 00:55:31  5-MIN KMSN 050655Z 16007KT 5SM BR SCT039 SCT049 OVC075 13/12 A2997 820 93 900 160/07 RMK AO2
14837KMSN MSN20011205010011112/05/01 01:00:31  5-MIN KMSN 050700Z 16007KT 5SM BR FEW036 SCT044 OVC075 13/12 A2997 820 93 900 160/07 RMK AO2
14837KMSN MSN20011205010510412/05/01 01:05:31  5-MIN KMSN 050705Z 16007KT 5SM BR SCT038 OVC075 13/12 A2997 820 93 900 160/07 RMK AO2
14837KMSN MSN20011205011011112/05/01 01:10:31  5-MIN KMSN 050710Z 17007KT 4SM BR FEW038 SCT047 OVC075 13/12 A2997 820 93 900 160/07 RMK AO2
14837KMSN MSN20011205011511112/05/01 01:15:31  5-MIN KMSN 050715Z 17007KT 4SM BR SCT038 BKN060 OVC080 14/12 A2997 820 90 900 170/07 RMK AO2
14837KMSN MSN20011205012011112/05/01 01:20:31  5-MIN KMSN 050720Z 17005KT 4SM BR FEW036 BKN050 OVC080 14/12 A2997 820 90 900 170/05 RMK AO2
14837KMSN MSN20011205012511112/05/01 01:25:31  5-MIN KMSN 050725Z 17006KT 4SM BR FEW037 BKN046 OVC075 14/12 A2996 820 90 900 170/06 RMK AO2
14837KMSN MSN20011205013011112/05/01 01:30:31  5-MIN KMSN 050730Z 17006KT 5SM BR FEW036 BKN060 OVC080 14/12 A2996 820 90 900 170/06 RMK AO2
14837KMSN MSN20011205013511112/05/01 01:35:31  5-MIN KMSN 050735Z 16007KT 5SM BR SCT040 BKN060 OVC080 14/12 A2996 830 90 900 160/07 RMK AO2
14837KMSN MSN20011205014011112/05/01 01:40:31  5-MIN KMSN 050740Z 17007KT 5SM BR SCT040 BKN060 OVC080 14/12 A2996 830 90 900 170/07 RMK AO2
14837KMSN MSN20011205014510112/05/01 01:45:31  5-MIN KMSN 050745Z 17007KT 8SM FEW040 OVC080 14/12 A2996 830 90 900 170/07 RMK AO2
14837KMSN MSN20011205015011812/05/01 01:50:31  5-MIN KMSN 050750Z 17007KT 8SM FEW041 BKN080 14/12 A2996 830 90 900 170/07 RMK AO2 SLP146 T01390122
14837KMSN MSN20011205015510412/05/01 01:55:31  5-MIN KMSN 050755Z 17008KT 5SM BR FEW041 BKN080 14/12 A2996 830 90 900 170/08 RMK AO2
14837KMSN MSN20011205020009712/05/01 02:00:31  5-MIN KMSN 050800Z 17008KT 5SM BR BKN080 14/12 A2996 830 90 900 170/08 RMK AO2
14837KMSN MSN20011205020509812/05/01 02:05:31  5-MIN KMSN 050805Z 17009KT 6SM BR OVC080 14/12 A2996 830 86 1000 170/09 RMK AO2
14837KMSN MSN20011205021010512/05/01 02:10:31  5-MIN KMSN 050810Z 18009KT 6SM BR FEW050 OVC080 14/12 A2996 830 86 1000 180/09 RMK AO2
14837KMSN MSN20011205021510512/05/01 02:15:31  5-MIN KMSN 050815Z 17009KT 6SM HZ SCT050 OVC080 15/12 A2996 830 83 1100 170/09 RMK AO2
14837KMSN MSN20011205022010512/05/01 02:20:31  5-MIN KMSN 050820Z 17009KT 6SM BR SCT055 OVC080 15/13 A2996 830 86 1100 170/09 RMK AO2
14837KMSN MSN20011205022512812/05/01 02:25:31  5-MIN KMSN 050825Z 17009KT 5SM -RA BR FEW039 BKN055 OVC080 15/13 A2996 820 86 1100 170/09 RMK AO2 RAB23 P0000
14837KMSN MSN20011205023012812/05/01 02:30:31  5-MIN KMSN 050830Z 18010KT 6SM -RA BR FEW039 BKN055 OVC080 15/13 A2996 820 86 1100 170/10 RMK AO2 RAB23 P0000
14837KMSN MSN20011205023512412/05/01 02:35:31  5-MIN KMSN 050835Z 18010KT 7SM FEW039 BKN055 OVC070 15/13 A2996 830 86 1100 170/10 RMK AO2 RAB23E33 P0000
14837KMSN MSN20011205024012412/05/01 02:40:31  5-MIN KMSN 050840Z 18010KT 7SM FEW039 BKN055 OVC070 15/13 A2996 830 86 1100 180/10 RMK AO2 RAB23E33 P0000
14837KMSN MSN20011205024512512/05/01 02:45:31  5-MIN KMSN 050845Z 18009KT 7SM -RA FEW039 BKN055 OVC090 15/13 A2996 830 86 1100 180/09 RMK AO2 RAB23 P0000
14837KMSN MSN20011205025015412/05/01 02:50:31  5-MIN KMSN 050850Z 17008KT 7SM -RA FEW039 BKN060 OVC090 15/13 A2996 830 86 1100 170/08 RMK AO2 RAB23 SLP144 P0000 60000 T01500128 56006
14837KMSN MSN20011205025511912/05/01 02:55:31  5-MIN KMSN 050855Z 18008KT 7SM -RA FEW037 BKN060 OVC090 15/13 A2996 830 86 1100 180/08 RMK AO2 P0000
14837KMSN MSN20011205030011912/05/01 03:00:31  5-MIN KMSN 050900Z 18007KT 7SM -RA FEW035 BKN060 OVC090 15/13 A2996 830 86 1100 180/07 RMK AO2 P0000
14837KMSN MSN20011205030511912/05/01 03:05:31  5-MIN KMSN 050905Z 18009KT 8SM -RA FEW035 BKN060 OVC090 15/13 A2996 830 86 1100 180/09 RMK AO2 P0000
14837KMSN MSN20011205031011912/05/01 03:10:31  5-MIN KMSN 050910Z 18010KT 9SM -RA FEW035 SCT060 OVC090 16/13 A2995 830 83 1100 180/10 RMK AO2 P0000
14837KMSN MSN20011205031512112/05/01 03:15:31  5-MIN KMSN 050915Z 18008KT 9SM FEW035 SCT055 OVC090 16/13 A2995 840 83 1100 180/08 RMK AO2 RAE14 P0000
14837KMSN MSN20011205032012112/05/01 03:20:31  5-MIN KMSN 050920Z 18010KT 8SM FEW037 BKN055 OVC085 16/13 A2995 840 83 1100 180/10 RMK AO2 RAE14 P0000
14837KMSN MSN20011205032512112/05/01 03:25:31  5-MIN KMSN 050925Z 18009KT 8SM FEW037 BKN055 OVC085 16/13 A2994 840 83 1100 180/09 RMK AO2 RAE14 P0000
14837KMSN MSN20011205033012112/05/01 03:30:31  5-MIN KMSN 050930Z 18008KT 8SM SCT037 BKN055 OVC090 16/13 A2994 850 83 1100 180/08 RMK AO2 RAE14 P0000
14837KMSN MSN20011205033512112/05/01 03:35:31  5-MIN KMSN 050935Z 18008KT 8SM FEW039 SCT055 OVC090 16/13 A2993 850 83 1200 180/08 RMK AO2 RAE14 P0000
14837KMSN MSN20011205034012112/05/01 03:40:31  5-MIN KMSN 050940Z 18009KT 8SM FEW039 SCT055 OVC090 16/13 A2993 850 83 1200 180/09 RMK AO2 RAE14 P0000
14837KMSN MSN20011205034512812/05/01 03:45:31  5-MIN KMSN 050945Z 18010KT 7SM -RA FEW039 BKN080 OVC100 16/13 A2994 850 83 1200 180/10 RMK AO2 RAE14B42 P0000
14837KMSN MSN20011205035014512/05/01 03:50:31  5-MIN KMSN 050950Z 18010KT 7SM -RA SCT034 BKN047 OVC090 15/13 A2993 850 86 1100 180/10 RMK AO2 RAE14B42 SLP136 P0000 T01500128
14837KMSN MSN20011205035511912/05/01 03:55:31  5-MIN KMSN 050955Z 18009KT 9SM -RA SCT035 BKN043 OVC090 15/13 A2993 860 86 1100 180/09 RMK AO2 P0000
14837KMSN MSN20011205040012412/05/01 04:00:31  5-MIN KMSN 051000Z 18010KT 10SM SCT038 BKN060 OVC100 15/13 A2992 860 86 1100 180/10 RMK AO2 RAE0957 P0000
14837KMSN MSN20011205040512412/05/01 04:05:31  5-MIN KMSN 051005Z 18008KT 10SM SCT038 BKN060 OVC120 15/12 A2992 860 83 1100 180/08 RMK AO2 RAE0957 P0000
14837KMSN MSN20011205041012912/05/01 04:10:31  5-MIN KMSN 051010Z 18011G16KT 9SM SCT038 BKN085 OVC110 15/12 A2992 860 83 1100 180/11G16 RMK AO2 RAE0957 P0000
14837KMSN MSN20011205041511912/05/01 04:15:31  5-MIN KMSN 051015Z 18010KT 9SM -RA SCT038 SCT060 BKN085 15/12 A2992 860 83 1100 180/10 RMK AO2 P0000
14837KMSN MSN20011205042011912/05/01 04:20:31  5-MIN KMSN 051020Z 18010KT 9SM -RA SCT038 SCT060 BKN080 15/12 A2993 850 83 1100 180/10 RMK AO2 P0000
14837KMSN MSN20011205042512012/05/01 04:25:31  5-MIN KMSN 051025Z 18009KT 10SM -RA SCT038 BKN060 BKN090 15/12 A2993 850 83 1100 180/09 RMK AO2 P0000
14837KMSN MSN20011205043012612/05/01 04:30:31  5-MIN KMSN 051030Z 18010G16KT 10SM -RA BKN038 BKN085 OVC100 15/12 A2992 860 83 1100 180/10G16 RMK AO2 P0000
14837KMSN MSN20011205043512212/05/01 04:35:31  5-MIN KMSN 051035Z 18010KT 10SM BKN038 BKN060 BKN100 15/12 A2993 860 80 1100 180/10 RMK AO2 RAE31 P0000
14837KMSN MSN20011205044011512/05/01 04:40:31  5-MIN KMSN 051040Z 19012KT 10SM SCT038 BKN060 15/12 A2993 860 80 1100 180/12 RMK AO2 RAE31 P0000
14837KMSN MSN20011205044511412/05/01 04:45:31  5-MIN KMSN 051045Z 18009KT 9SM SCT038 OVC060 15/12 A2992 870 80 1100 180/09 RMK AO2 RAE31 P0000
14837KMSN MSN20011205045014512/05/01 04:50:31  5-MIN KMSN 051050Z 18010KT 7SM -RA FEW036 BKN044 OVC060 15/12 A2992 860 80 1100 180/10 RMK AO2 RAE31B50 SLP133 P0001 T01500117
14837KMSN MSN20011205045511912/05/01 04:55:31  5-MIN KMSN 051055Z 18012KT 6SM -RA BKN040 BKN060 OVC100 14/12 A2992 860 83 1000 180/12 RMK AO2 P0000
14837KMSN MSN20011205050011912/05/01 05:00:31  5-MIN KMSN 051100Z 18012KT 8SM -RA FEW040 BKN060 OVC095 14/12 A2992 860 83 1000 180/12 RMK AO2 P0000
14837KMSN MSN20011205050511912/05/01 05:05:31  5-MIN KMSN 051105Z 18010KT 8SM -RA FEW042 SCT060 OVC090 14/12 A2992 870 83 1000 180/10 RMK AO2 P0000
14837KMSN MSN20011205051012512/05/01 05:10:31  5-MIN KMSN 051110Z 18011G18KT 9SM -RA FEW042 BKN080 OVC100 14/12 A2992 860 83 1000 180/11G18 RMK AO2 P0000
14837KMSN MSN20011205051512012/05/01 05:15:31  5-MIN KMSN 051115Z 19015KT 10SM -RA FEW039 BKN080 OVC100 14/12 A2992 870 83 1000 190/15 RMK AO2 P0000
14837KMSN MSN20011205052012512/05/01 05:20:31  5-MIN KMSN 051120Z 18014G20KT 8SM -RA FEW042 BKN080 OVC100 14/12 A2992 870 86 1000 180/14G20 RMK AO2 P0001
14837KMSN MSN20011205052512112/05/01 05:25:31  5-MIN KMSN 051125Z 19013G20KT 6SM -RA BR SCT046 OVC080 14/12 A2992 860 90 1000 180/13G20 RMK AO2 P0001
14837KMSN MSN20011205053012812/05/01 05:30:31  5-MIN KMSN 051130Z 18012G20KT 5SM -RA BR SCT044 BKN080 OVC100 14/12 A2992 870 86 1000 180/12G20 RMK AO2 P0002
14837KMSN MSN20011205053512812/05/01 05:35:31  5-MIN KMSN 051135Z 18011G19KT 6SM -RA BR FEW044 BKN080 OVC100 14/12 A2992 860 86 1000 180/11G19 RMK AO2 P0002
14837KMSN MSN20011205054012512/05/01 05:40:31  5-MIN KMSN 051140Z 18013G18KT 9SM -RA SCT042 BKN080 OVC100 14/12 A2992 860 86 1000 180/13G18 RMK AO2 P0002
14837KMSN MSN20011205054512012/05/01 05:45:31  5-MIN KMSN 051145Z 18011G18KT 8SM BKN042 OVC095 14/12 A2993 860 86 1000 180/11G18 RMK AO2 RAE41 P0002
14837KMSN MSN20011205055015912/05/01 05:50:31  5-MIN KMSN 051150Z 18012KT 8SM -RA BKN042 OVC095 14/12 A2993 860 86 1000 180/12 RMK AO2 SLP136 P0002 60003 70003 T01390117 10156 20133 56009
14837KMSN MSN20011205055511912/05/01 05:55:31  5-MIN KMSN 051155Z 19013KT 8SM -RA FEW040 SCT047 OVC100 14/12 A2993 860 86 1000 190/13 RMK AO2 P0001
14837KMSN MSN20011205060011612/05/01 06:00:31  5-MIN KMSN 051200Z 18012KT 8SM FEW040 OVC100 14/12 A2993 860 86 1000 180/12 RMK AO2 RAE1156 P0001
14837KMSN MSN20011205060511212/05/01 06:05:31  5-MIN KMSN 051205Z 19011KT 8SM -RA SCT042 OVC100 14/11 A2993 860 83 1000 190/11 RMK AO2 P0001
14837KMSN MSN20011205061011212/05/01 06:10:31  5-MIN KMSN 051210Z 18011KT 8SM -RA FEW040 OVC110 14/11 A2992 860 83 1000 180/11 RMK AO2 P0001
14837KMSN MSN20011205061511212/05/01 06:15:31  5-MIN KMSN 051215Z 18010KT 9SM -RA FEW042 OVC110 14/11 A2992 870 83 1000 180/10 RMK AO2 P0001
14837KMSN MSN20011205062010712/05/01 06:20:31  5-MIN KMSN 051220Z 18010KT 9SM OVC110 14/11 A2992 870 83 1000 180/10 RMK AO2 RAE16 P0001
14837KMSN MSN20011205062511412/05/01 06:25:31  5-MIN KMSN 051225Z 18010KT 9SM FEW044 OVC100 14/11 A2993 860 80 1000 180/10 RMK AO2 RAE16 P0001
14837KMSN MSN20011205063011912/05/01 06:30:31  5-MIN KMSN 051230Z 19011KT 9SM -RA FEW065 BKN095 OVC110 14/11 A2993 850 80 1000 190/11 RMK AO2 P0001
14837KMSN MSN20011205063511912/05/01 06:35:31  5-MIN KMSN 051235Z 18011KT 9SM -RA FEW060 SCT090 OVC110 14/11 A2993 850 80 1000 180/11 RMK AO2 P0001
14837KMSN MSN20011205064011212/05/01 06:40:31  5-MIN KMSN 051240Z 19012KT 9SM -RA FEW049 OVC110 14/11 A2993 860 80 1000 190/12 RMK AO2 P0001
14837KMSN MSN20011205064511212/05/01 06:45:31  5-MIN KMSN 051245Z 18010KT 9SM -RA FEW085 OVC100 14/11 A2993 860 80 1000 180/10 RMK AO2 P0001
14837KMSN MSN20011205065013512/05/01 06:50:31  5-MIN KMSN 051250Z 20009G16KT 9SM -RA FEW085 OVC110 14/11 A2993 860 80 1000 190/09G16 RMK AO2 SLP135 P0001 T01390106
14837KMSN MSN20011205065510212/05/01 06:55:31  5-MIN KMSN 051255Z 18012KT 9SM FEW090 OVC110 14/11 A2993 860 80 1000 180/12 RMK AO2
14837KMSN MSN20011205070011312/05/01 07:00:31  5-MIN KMSN 051300Z 19010KT 8SM -RA OVC100 14/11 A2993 860 80 1000 190/10 RMK AO2 RAB1257 P0000
14837KMSN MSN20011205070511912/05/01 07:05:31  5-MIN KMSN 051305Z 18010KT 8SM -RA FEW031 OVC100 13/11 A2993 850 83 900 180/10 RMK AO2 RAB1257 P0000
14837KMSN MSN20011205071011912/05/01 07:10:31  5-MIN KMSN 051310Z 17008KT 7SM -RA FEW031 OVC100 13/11 A2992 860 83 900 170/08 RMK AO2 RAB1257 P0000
14837KMSN MSN20011205071511912/05/01 07:15:31  5-MIN KMSN 051315Z 18009KT 7SM -RA SCT031 OVC100 13/11 A2993 860 83 900 180/09 RMK AO2 RAB1257 P0000
14837KMSN MSN20011205072011912/05/01 07:20:31  5-MIN KMSN 051320Z 18009KT 7SM -RA FEW031 OVC100 13/11 A2993 860 83 900 180/09 RMK AO2 RAB1257 P0001
14837KMSN MSN20011205072512612/05/01 07:25:31  5-MIN KMSN 051325Z 17010KT 7SM -RA FEW031 SCT060 OVC100 13/11 A2991 870 83 900 170/10 RMK AO2 RAB1257 P0001
14837KMSN MSN20011205073012612/05/01 07:30:31  5-MIN KMSN 051330Z 18010KT 6SM -RA FEW031 SCT055 OVC100 13/10 A2992 860 80 900 180/10 RMK AO2 RAB1257 P0002
14837KMSN MSN20011205073512612/05/01 07:35:31  5-MIN KMSN 051335Z 18009KT 7SM -RA FEW031 SCT050 OVC100 13/10 A2992 870 80 900 180/09 RMK AO2 RAB1257 P0002
14837KMSN MSN20011205074012412/05/01 07:40:31  5-MIN KMSN 051340Z 18012G16KT 9SM FEW031 OVC100 13/10 A2992 870 80 900 170/12G16 RMK AO2 RAB1257E40 P0002
14837KMSN MSN20011205074511812/05/01 07:45:31  5-MIN KMSN 051345Z 18011KT 9SM FEW055 OVC100 13/10 A2992 860 80 900 180/11 RMK AO2 RAB1257E40 P0002
14837KMSN MSN20011205075013612/05/01 07:50:31  5-MIN KMSN 051350Z 18011KT 8SM -RA FEW060 OVC100 13/10 A2991 870 80 900 180/11 RMK AO2 RAB1257 SLP130 P0002 T01330100
14837KMSN MSN20011205075511712/05/01 07:55:31  5-MIN KMSN 051355Z 20010G17KT 6SM -RA FEW050 OVC100 13/10 A2993 860 80 900 200/10G17 RMK AO2 P0000
14837KMSN MSN20011205080011712/05/01 08:00:31  5-MIN KMSN 051400Z 21006G17KT 6SM -RA FEW055 OVC100 13/10 A2993 860 80 900 200/06G17 RMK AO2 P0001
14837KMSN MSN20011205080511112/05/01 08:05:31  5-MIN KMSN 051405Z VRB06KT 7SM -RA SCT060 OVC100 13/10 A2991 870 80 900 VRB/06 RMK AO2 P0001
14837KMSN MSN20011205081012712/05/01 08:10:31  5-MIN KMSN 051410Z 20008KT 180V240 7SM -RA SCT065 OVC100 13/10 A2992 860 80 900 200/08 180V240 RMK AO2 P0001
14837KMSN MSN20011205081511112/05/01 08:15:31  5-MIN KMSN 051415Z 23003KT 7SM -RA SCT060 OVC100 13/10 A2992 860 80 900 230/03 RMK AO2 P0001
14837KMSN MSN20011205082011112/05/01 08:20:31  5-MIN KMSN 051420Z VRB04KT 7SM -RA SCT055 OVC100 13/10 A2993 860 83 800 VRB/04 RMK AO2 P0002
14837KMSN MSN20011205082511812/05/01 08:25:31  5-MIN KMSN 051425Z 19007KT 7SM -RA FEW032 BKN055 OVC100 13/10 A2992 860 83 800 190/07 RMK AO2 P0002
14837KMSN MSN20011205083012012/05/01 08:30:31  5-MIN KMSN 051430Z 18010KT 7SM SCT032 BKN060 OVC110 13/10 A2992 860 83 800 180/10 RMK AO2 RAE30 P0002
14837KMSN MSN20011205083512012/05/01 08:35:31  5-MIN KMSN 051435Z 19010KT 7SM SCT034 BKN055 OVC100 13/10 A2993 860 83 800 190/10 RMK AO2 RAE30 P0002
14837KMSN MSN20011205084012012/05/01 08:40:31  5-MIN KMSN 051440Z 19011KT 8SM FEW034 BKN065 OVC110 13/10 A2993 860 83 800 190/11 RMK AO2 RAE30 P0002
14837KMSN MSN20011205084512012/05/01 08:45:31  5-MIN KMSN 051445Z 18011KT 8SM FEW035 BKN060 BKN110 13/10 A2992 860 83 800 180/11 RMK AO2 RAE30 P0002
14837KMSN MSN20011205085014912/05/01 08:50:31  5-MIN KMSN 051450Z 18010KT 8SM FEW035 BKN060 BKN110 13/10 A2992 860 83 800 180/10 RMK AO2 RAE30 SLP132 P0002 60005 T01280100 55009
14837KMSN MSN20011205085510812/05/01 08:55:31  5-MIN KMSN 051455Z 18009KT 8SM FEW035 BKN060 OVC110 13/10 A2991 870 83 900 180/09 RMK AO2
14837KMSN MSN20011205090009412/05/01 09:00:31  5-MIN KMSN 051500Z 18011KT 8SM BKN060 13/10 A2991 870 83 900 180/11 RMK AO2
14837KMSN MSN20011205090509412/05/01 09:05:31  5-MIN KMSN 051505Z 17008KT 8SM OVC060 13/10 A2991 880 80 900 170/08 RMK AO2
14837KMSN MSN20011205091009412/05/01 09:10:31  5-MIN KMSN 051510Z 17010KT 9SM OVC065 13/10 A2991 880 80 900 170/10 RMK AO2
14837KMSN MSN20011205091511012/05/01 09:15:31  5-MIN KMSN 051515Z 18009KT 8SM -RA OVC065 13/10 A2991 880 80 900 180/09 RMK AO2 RAB13 P0000
14837KMSN MSN20011205092011712/05/01 09:20:31  5-MIN KMSN 051520Z 18010KT 8SM -RA FEW039 OVC065 13/10 A2990 880 80 900 180/10 RMK AO2 RAB13 P0000
14837KMSN MSN20011205092511612/05/01 09:25:31  5-MIN KMSN 051525Z 17011KT 8SM FEW029 BKN070 13/10 A2990 890 80 900 170/11 RMK AO2 RAB13E23 P0000
14837KMSN MSN20011205093012312/05/01 09:30:31  5-MIN KMSN 051530Z 18010KT 8SM FEW029 BKN065 BKN075 13/10 A2989 890 80 900 170/10 RMK AO2 RAB13E23 P0000
14837KMSN MSN20011205093512412/05/01 09:35:31  5-MIN KMSN 051535Z 18012KT 10SM FEW040 BKN060 BKN075 13/10 A2990 890 80 900 180/12 RMK AO2 RAB13E23 P0000
14837KMSN MSN20011205094012412/05/01 09:40:31  5-MIN KMSN 051540Z 18011KT 8SM -RA FEW035 BKN060 OVC090 13/10 A2990 890 80 900 180/11 RMK AO2 RAB13 P0000
14837KMSN MSN20011205094512412/05/01 09:45:31  5-MIN KMSN 051545Z 19010KT 8SM -RA FEW035 BKN060 OVC080 13/10 A2989 890 80 900 190/10 RMK AO2 RAB13 P0000
14837KMSN MSN20011205095013512/05/01 09:50:31  5-MIN KMSN 051550Z 18010KT 10SM -RA FEW035 BKN060 13/10 A2989 900 80 900 180/10 RMK AO2 RAB13 SLP121 P0000 T01330100
14837KMSN MSN20011205095512012/05/01 09:55:31  5-MIN KMSN 051555Z 18011KT 10SM -RA FEW050 BKN060 BKN075 14/10 A2990 890 77 1000 180/11 RMK AO2 P0000
14837KMSN MSN20011205100012012/05/01 10:00:31  5-MIN KMSN 051600Z 18011KT 10SM -RA FEW050 BKN060 OVC075 14/10 A2989 890 77 1000 180/11 RMK AO2 P0000
14837KMSN MSN20011205100512212/05/01 10:05:31  5-MIN KMSN 051605Z 18011KT 10SM FEW050 BKN065 OVC080 14/10 A2988 900 77 1000 180/11 RMK AO2 RAE03 P0000
14837KMSN MSN20011205101012212/05/01 10:10:31  5-MIN KMSN 051610Z 18011KT 10SM FEW050 BKN065 BKN080 14/10 A2987 910 77 1000 180/11 RMK AO2 RAE03 P0000
14837KMSN MSN20011205101512212/05/01 10:15:31  5-MIN KMSN 051615Z 18011KT 10SM BKN070 BKN080 14/10 A2986 920 77 1000 180/11 RMK AO2 RAE03 PRESFR P0000
14837KMSN MSN20011205102010812/05/01 10:20:31  5-MIN KMSN 051620Z 19012KT 10SM SCT070 14/10 A2988 900 74 1100 180/12 RMK AO2 RAE03 P0000
14837KMSN MSN20011205102511512/05/01 10:25:31  5-MIN KMSN 051625Z 18012KT 10SM FEW070 SCT080 14/10 A2987 910 74 1100 180/12 RMK AO2 RAE03 P0000
14837KMSN MSN20011205103012112/05/01 10:30:31  5-MIN KMSN 051630Z 18011G17KT 10SM FEW070 BKN080 14/10 A2986 920 74 1100 180/11G17 RMK AO2 RAE03 P0000
14837KMSN MSN20011205103512112/05/01 10:35:31  5-MIN KMSN 051635Z 18010G17KT 10SM FEW070 BKN080 15/10 A2986 920 72 1200 180/10G17 RMK AO2 RAE03 P0000
14837KMSN MSN20011205104010812/05/01 10:40:31  5-MIN KMSN 051640Z 18013KT 10SM SCT080 15/10 A2986 920 72 1200 180/13 RMK AO2 RAE03 P0000
14837KMSN MSN20011205104510812/05/01 10:45:31  5-MIN KMSN 051645Z 18011KT 10SM FEW080 15/10 A2985 930 72 1200 180/11 RMK AO2 RAE03 P0000
14837KMSN MSN20011205105013212/05/01 10:50:31  5-MIN KMSN 051650Z 18013KT 10SM FEW065 SCT080 16/10 A2984 940 69 1300 180/13 RMK AO2 RAE03 SLP105 P0000 T01560100
14837KMSN MSN20011205105509612/05/01 10:55:31  5-MIN KMSN 051655Z 19011KT 10SM SCT065 15/10 A2984 940 72 1200 190/11 RMK AO2
14837KMSN MSN20011205110009612/05/01 11:00:31  5-MIN KMSN 051700Z 18012KT 10SM SCT065 16/10 A2985 930 69 1300 180/12 RMK AO2
14837KMSN MSN20011205110510212/05/01 11:05:31  5-MIN KMSN 051705Z 18013G19KT 10SM SCT065 16/10 A2984 940 69 1300 180/13G19 RMK AO2
14837KMSN MSN20011205111011612/05/01 11:10:31  5-MIN KMSN 051710Z 19013G19KT 10SM FEW050 SCT060 BKN080 16/10 A2983 940 69 1300 190/13G19 RMK AO2
14837KMSN MSN20011205111511612/05/01 11:15:31  5-MIN KMSN 051715Z 19012G18KT 10SM FEW050 SCT060 BKN085 16/10 A2983 940 69 1300 190/12G18 RMK AO2
14837KMSN MSN20011205112011612/05/01 11:20:31  5-MIN KMSN 051720Z 18013G19KT 10SM FEW050 BKN060 BKN085 16/10 A2983 940 69 1300 180/13G19 RMK AO2
14837KMSN MSN20011205112512212/05/01 11:25:31  5-MIN KMSN 051725Z 18012G20KT 10SM FEW050 BKN060 OVC080 16/10 A2982 950 69 1300 180/12G20 RMK AO2 P0001
14837KMSN MSN20011205113012212/05/01 11:30:31  5-MIN KMSN 051730Z 18013G20KT 10SM BKN060 OVC090 16/11 A2981 970 72 1300 180/13G20 RMK AO2 PRESFR P0001
14837KMSN MSN20011205113512212/05/01 11:35:31  5-MIN KMSN 051735Z 18013G18KT 10SM FEW050 BKN065 BKN085 16/11 A2981 970 72 1300 180/13G18 RMK AO2 P0001
14837KMSN MSN20011205114012312/05/01 11:40:31  5-MIN KMSN 051740Z 18015KT 10SM FEW050 BKN065 BKN085 16/11 A2980 980 69 1400 180/15 RMK AO2 PRESFR P0001
14837KMSN MSN20011205114512212/05/01 11:45:31  5-MIN KMSN 051745Z 18015G20KT 10SM FEW050 BKN065 BKN085 16/11 A2980 980 69 1400 180/15G20 RMK AO2 P0001
14837KMSN MSN20011205115016312/05/01 11:50:31  5-MIN KMSN 051750Z 18014G20KT 10SM FEW050 BKN065 BKN085 16/11 A2979 980 69 1400 180/14G20 RMK AO2 SLP087 P0001 60006 T01610106 10161 20128 57005
14837KMSN MSN20011205115510912/05/01 11:55:31  5-MIN KMSN 051755Z 18015G21KT 10SM SCT065 OVC090 16/11 A2979 990 69 1400 180/15G21 RMK AO2
14837KMSN MSN20011205120010912/05/01 12:00:31  5-MIN KMSN 051800Z 18017G21KT 10SM SCT060 OVC090 17/11 A2979 990 69 1500 180/17G21 RMK AO2
14837KMSN MSN20011205120510912/05/01 12:05:31  5-MIN KMSN 051805Z 18017G22KT 10SM SCT060 BKN090 17/11 A2979 990 69 1500 180/17G22 RMK AO2
14837KMSN MSN20011205121010912/05/01 12:10:31  5-MIN KMSN 051810Z 19014G22KT 10SM SCT060 BKN090 17/11 A2978 990 69 1500 190/14G22 RMK AO2
14837KMSN MSN20011205121511012/05/01 12:15:31  5-MIN KMSN 051815Z 18013G22KT 10SM SCT060 BKN090 17/11 A2978 1000 69 1500 180/13G22 RMK AO2
14837KMSN MSN20011205122011012/05/01 12:20:31  5-MIN KMSN 051820Z 18015G22KT 10SM SCT060 BKN090 17/11 A2977 1000 69 1500 180/15G22 RMK AO2
14837KMSN MSN20011205122510312/05/01 12:25:31  5-MIN KMSN 051825Z 18015G20KT 10SM BKN095 17/11 A2977 1000 69 1500 180/15G20 RMK AO2
14837KMSN MSN20011205123010312/05/01 12:30:31  5-MIN KMSN 051830Z 19015G21KT 10SM BKN095 17/11 A2977 1000 69 1500 180/15G21 RMK AO2
14837KMSN MSN20011205123511012/05/01 12:35:31  5-MIN KMSN 051835Z 18017G23KT 10SM FEW070 BKN095 17/11 A2976 1010 69 1500 180/17G23 RMK AO2
14837KMSN MSN20011205124012812/05/01 12:40:31  5-MIN KMSN 051840Z 18020G26KT 10SM FEW047 BKN095 17/12 A2976 1020 72 1500 180/20G26 RMK AO2 PK WND 19026/1837
14837KMSN MSN20011205124512812/05/01 12:45:31  5-MIN KMSN 051845Z 18017G26KT 10SM FEW050 BKN095 17/12 A2975 1020 72 1500 180/17G26 RMK AO2 PK WND 19026/1837
14837KMSN MSN20011205125014512/05/01 12:50:31  5-MIN KMSN 051850Z 17015G24KT 10SM BKN095 17/12 A2974 1030 72 1500 170/15G24 RMK AO2 PK WND 19026/1837 PRESFR SLP071 T01670117
14837KMSN MSN20011205125511712/05/01 12:55:31  5-MIN KMSN 051855Z 18017G24KT 10SM FEW050 BKN090 17/12 A2974 1040 69 1600 180/17G24 RMK AO2 PRESFR
14837KMSN MSN20011205130011012/05/01 13:00:31  5-MIN KMSN 051900Z 18017G24KT 10SM FEW060 BKN095 18/12 A2974 1030 69 1600 180/17G24 RMK AO2
14837KMSN MSN20011205130510312/05/01 13:05:31  5-MIN KMSN 051905Z 18018G24KT 10SM BKN095 18/12 A2974 1030 69 1600 180/18G24 RMK AO2
14837KMSN MSN20011205131010312/05/01 13:10:31  5-MIN KMSN 051910Z 19018G22KT 10SM OVC100 17/12 A2974 1030 72 1600 190/18G22 RMK AO2
14837KMSN MSN20011205131511012/05/01 13:15:31  5-MIN KMSN 051915Z 18018G22KT 10SM FEW034 OVC100 18/12 A2974 1030 69 1600 180/18G22 RMK AO2
14837KMSN MSN20011205132011012/05/01 13:20:31  5-MIN KMSN 051920Z 18017G22KT 10SM FEW034 BKN100 18/12 A2973 1040 69 1600 180/17G22 RMK AO2
14837KMSN MSN20011205132511012/05/01 13:25:31  5-MIN KMSN 051925Z 18016G21KT 10SM FEW034 BKN100 18/12 A2974 1040 69 1600 180/16G21 RMK AO2
14837KMSN MSN20011205133011012/05/01 13:30:31  5-MIN KMSN 051930Z 19018G24KT 10SM SCT034 BKN100 18/12 A2973 1040 69 1700 190/18G24 RMK AO2
14837KMSN MSN20011205133512812/05/01 13:35:31  5-MIN KMSN 051935Z 18021G26KT 10SM SCT034 BKN100 18/12 A2973 1040 69 1700 180/21G26 RMK AO2 PK WND 18026/1935
14837KMSN MSN20011205134012112/05/01 13:40:31  5-MIN KMSN 051940Z 18016G26KT 10SM BKN034 18/12 A2973 1040 69 1600 180/16G26 RMK AO2 PK WND 18026/1935
14837KMSN MSN20011205134512112/05/01 13:45:31  5-MIN KMSN 051945Z 19016G25KT 10SM BKN034 18/12 A2972 1050 69 1700 190/16G25 RMK AO2 PK WND 18026/1935
14837KMSN MSN20011205135013812/05/01 13:50:31  5-MIN KMSN 051950Z 19017G25KT 10SM BKN034 18/12 A2971 1060 69 1700 190/17G25 RMK AO2 PK WND 18026/1935 SLP058 T01780122
14837KMSN MSN20011205135510312/05/01 13:55:31  5-MIN KMSN 051955Z 19015G24KT 10SM BKN034 18/12 A2971 1060 69 1700 190/15G24 RMK AO2
14837KMSN MSN20011205140011012/05/01 14:00:31  5-MIN KMSN 052000Z 19018G24KT 10SM SCT034 SCT055 18/12 A2971 1060 69 1700 190/18G24 RMK AO2
14837KMSN MSN20011205140512112/05/01 14:05:31  5-MIN KMSN 052005Z 19018G26KT 10SM BKN034 18/13 A2970 1070 72 1700 190/18G26 RMK AO2 PK WND 19026/2002
14837KMSN MSN20011205141012112/05/01 14:10:31  5-MIN KMSN 052010Z 18018G26KT 10SM BKN034 18/13 A2970 1070 72 1700 180/18G26 RMK AO2 PK WND 19026/2002
14837KMSN MSN20011205141512112/05/01 14:15:31  5-MIN KMSN 052015Z 18021G27KT 10SM BKN034 18/13 A2969 1080 72 1700 180/21G27 RMK AO2 PK WND 18027/2015
14837KMSN MSN20011205142012112/05/01 14:20:31  5-MIN KMSN 052020Z 18020G27KT 10SM BKN034 18/13 A2969 1080 72 1700 180/20G27 RMK AO2 PK WND 18027/2015
14837KMSN MSN20011205142512112/05/01 14:25:31  5-MIN KMSN 052025Z 19020G25KT 10SM BKN034 18/12 A2969 1080 69 1700 190/20G25 RMK AO2 PK WND 18027/2015
14837KMSN MSN20011205143012112/05/01 14:30:31  5-MIN KMSN 052030Z 19017G24KT 10SM BKN034 18/12 A2969 1080 69 1700 190/17G24 RMK AO2 PK WND 18027/2015
14837KMSN MSN20011205143512112/05/01 14:35:31  5-MIN KMSN 052035Z 18019G27KT 10SM BKN034 18/12 A2968 1090 69 1700 180/19G27 RMK AO2 PK WND 18027/2034
14837KMSN MSN20011205144012112/05/01 14:40:31  5-MIN KMSN 052040Z 19017G27KT 10SM BKN034 18/12 A2969 1080 69 1700 190/17G27 RMK AO2 PK WND 18027/2034
14837KMSN MSN20011205144512112/05/01 14:45:31  5-MIN KMSN 052045Z 19019G26KT 10SM BKN034 18/12 A2969 1080 69 1700 190/19G26 RMK AO2 PK WND 18027/2034
14837KMSN MSN20011205145014412/05/01 14:50:31  5-MIN KMSN 052050Z 19018G26KT 10SM OVC032 18/12 A2969 1080 69 1700 190/18G26 RMK AO2 PK WND 18027/2034 SLP051 T01780122 58042
14837KMSN MSN20011205145510312/05/01 14:55:31  5-MIN KMSN 052055Z 19021G26KT 10SM OVC032 18/12 A2969 1080 69 1700 180/21G26 RMK AO2
14837KMSN MSN20011205150010312/05/01 15:00:31  5-MIN KMSN 052100Z 19016G25KT 10SM OVC032 18/12 A2968 1080 69 1700 190/16G25 RMK AO2
14837KMSN MSN20011205150511812/05/01 15:05:31  5-MIN KMSN 052105Z 19015G21KT 8SM -RA OVC032 18/13 A2969 1080 72 1700 190/15G21 RMK AO2 RAB05 P0000
14837KMSN MSN20011205151013512/05/01 15:10:31  5-MIN KMSN 052110Z 19018G28KT 3SM RA OVC032 17/13 A2968 1090 75 1600 190/18G28 RMK AO2 PK WND 20028/2108 RAB05 P0002
14837KMSN MSN20011205151513612/05/01 15:15:31  5-MIN KMSN 052115Z 19016G28KT 6SM -RA OVC032 17/13 A2968 1090 78 1600 190/16G28 RMK AO2 PK WND 20028/2108 RAB05 P0002
14837KMSN MSN20011205152013612/05/01 15:20:31  5-MIN KMSN 052120Z 19017G25KT 7SM -RA OVC034 17/13 A2968 1090 78 1600 190/17G25 RMK AO2 PK WND 20028/2108 RAB05 P0002
14837KMSN MSN20011205152513612/05/01 15:25:31  5-MIN KMSN 052125Z 19019G25KT 7SM -RA OVC034 17/13 A2968 1090 78 1600 190/19G25 RMK AO2 PK WND 20028/2108 RAB05 P0002
14837KMSN MSN20011205153013512/05/01 15:30:31  5-MIN KMSN 052130Z 19016G24KT 8SM OVC032 17/13 A2968 1080 78 1600 190/16G24 RMK AO2 PK WND 20028/2108 RAB05E26 P0002
14837KMSN MSN20011205153513512/05/01 15:35:31  5-MIN KMSN 052135Z 19016G21KT 8SM OVC032 17/13 A2968 1080 78 1600 190/16G21 RMK AO2 PK WND 20028/2108 RAB05E26 P0002
14837KMSN MSN20011205154013512/05/01 15:40:31  5-MIN KMSN 052140Z 19017G26KT 8SM OVC032 17/13 A2968 1080 78 1600 190/17G26 RMK AO2 PK WND 20028/2108 RAB05E26 P0002
14837KMSN MSN20011205154513512/05/01 15:45:31  5-MIN KMSN 052145Z 19016G26KT 8SM OVC032 17/13 A2968 1080 80 1600 190/16G26 RMK AO2 PK WND 20028/2108 RAB05E26 P0002
14837KMSN MSN20011205155015212/05/01 15:50:31  5-MIN KMSN 052150Z 19016G23KT 7SM OVC030 17/13 A2968 1090 78 1600 180/16G23 RMK AO2 PK WND 20028/2108 RAB05E26 SLP048 P0002 T01720133
14837KMSN MSN20011205155510212/05/01 15:55:31  5-MIN KMSN 052155Z 19018G23KT 8SM OVC030 17/13 A2968 1090 78 1600 190/18G23 RMK AO2
14837KMSN MSN20011205160010212/05/01 16:00:31  5-MIN KMSN 052200Z 18016G22KT 8SM OVC030 17/13 A2968 1090 80 1600 180/16G22 RMK AO2
14837KMSN MSN20011205160510212/05/01 16:05:31  5-MIN KMSN 052205Z 19018G23KT 8SM OVC030 17/13 A2968 1090 80 1600 190/18G23 RMK AO2
14837KMSN MSN20011205161011812/05/01 16:10:31  5-MIN KMSN 052210Z 18019G24KT 6SM -RA OVC030 17/13 A2968 1090 80 1600 180/19G24 RMK AO2 RAB07 P0000
14837KMSN MSN20011205161512012/05/01 16:15:31  5-MIN KMSN 052215Z 18019G24KT 6SM HZ OVC030 17/13 A2967 1090 80 1600 180/19G24 RMK AO2 RAB07E15 P0000
14837KMSN MSN20011205162012012/05/01 16:20:31  5-MIN KMSN 052220Z 19017G24KT 6SM HZ OVC030 17/13 A2967 1090 80 1600 190/17G24 RMK AO2 RAB07E15 P0000
14837KMSN MSN20011205162513812/05/01 16:25:31  5-MIN KMSN 052225Z 19017G26KT 6SM HZ OVC030 17/13 A2967 1100 80 1600 190/17G26 RMK AO2 PK WND 19026/2223 RAB07E15 P0000
14837KMSN MSN20011205163014512/05/01 16:30:31  5-MIN KMSN 052230Z 19020G26KT 6SM HZ BKN030 OVC034 17/13 A2967 1100 80 1600 180/20G26 RMK AO2 PK WND 19026/2223 RAB07E15 P0000
14837KMSN MSN20011205163513812/05/01 16:35:31  5-MIN KMSN 052235Z 19018G26KT 6SM HZ OVC030 17/13 A2967 1100 80 1600 190/18G26 RMK AO2 PK WND 18026/2233 RAB07E15 P0000
14837KMSN MSN20011205164014212/05/01 16:40:31  5-MIN KMSN 052240Z 18020G27KT 8SM BKN027 OVC032 17/13 A2967 1100 78 1700 180/20G27 RMK AO2 PK WND 18027/2236 RAB07E15 P0000
14837KMSN MSN20011205164513512/05/01 16:45:31  5-MIN KMSN 052245Z 19018G27KT 8SM OVC027 17/13 A2967 1100 80 1600 190/18G27 RMK AO2 PK WND 18027/2236 RAB07E15 P0000
14837KMSN MSN20011205165015912/05/01 16:50:31  5-MIN KMSN 052250Z 19019G26KT 8SM BKN027 OVC033 17/13 A2967 1100 80 1600 190/19G26 RMK AO2 PK WND 18027/2236 RAB07E15 SLP044 P0000 T01670133
14837KMSN MSN20011205165510912/05/01 16:55:31  5-MIN KMSN 052255Z 19020G25KT 9SM BKN028 OVC033 17/13 A2966 1100 80 1600 190/20G25 RMK AO2
14837KMSN MSN20011205170012012/05/01 17:00:31  5-MIN KMSN 052300Z 19018G27KT 9SM OVC028 17/13 A2967 1100 80 1600 190/18G27 RMK AO2 PK WND 17027/2256
14837KMSN MSN20011205170512712/05/01 17:05:31  5-MIN KMSN 052305Z 19021G29KT 8SM FEW021 OVC026 17/13 A2967 1100 80 1600 190/21G29 RMK AO2 PK WND 19029/2305
14837KMSN MSN20011205171012812/05/01 17:10:31  5-MIN KMSN 052310Z 19016G29KT 10SM BKN024 OVC028 17/13 A2967 1100 80 1600 190/16G29 RMK AO2 PK WND 19029/2305
14837KMSN MSN20011205171512112/05/01 17:15:31  5-MIN KMSN 052315Z 19019G25KT 10SM OVC026 17/14 A2967 1100 83 1600 190/19G25 RMK AO2 PK WND 19029/2305
14837KMSN MSN20011205172012812/05/01 17:20:31  5-MIN KMSN 052320Z 19022G28KT 10SM BKN026 OVC035 17/14 A2966 1100 80 1700 190/22G28 RMK AO2 PK WND 19029/2305
14837KMSN MSN20011205172512812/05/01 17:25:31  5-MIN KMSN 052325Z 19016G28KT 10SM BKN024 OVC031 17/14 A2967 1100 83 1600 190/16G28 RMK AO2 PK WND 19029/2305
14837KMSN MSN20011205173013512/05/01 17:30:31  5-MIN KMSN 052330Z 19020G25KT 10SM FEW020 BKN024 OVC033 17/14 A2966 1100 83 1600 190/20G25 RMK AO2 PK WND 19029/2305
14837KMSN MSN20011205173512812/05/01 17:35:31  5-MIN KMSN 052335Z 19018G25KT 10SM BKN024 OVC033 17/14 A2967 1100 83 1600 190/18G25 RMK AO2 PK WND 19029/2305
14837KMSN MSN20011205174014412/05/01 17:40:31  5-MIN KMSN 052340Z 19018G24KT 10SM -RA BKN024 OVC031 17/14 A2967 1100 83 1600 190/18G24 RMK AO2 PK WND 19029/2305 RAB38 P0000
14837KMSN MSN20011205174515012/05/01 17:45:31  5-MIN KMSN 052345Z 20014G29KT 5SM -RA SCT022 BKN027 OVC040 17/14 A2967 1100 83 1600 200/14G29 RMK AO2 PK WND 20029/2342 RAB38 P0001
14837KMSN MSN20011205175019312/05/01 17:50:31  5-MIN KMSN 052350Z 19016G29KT 4SM RA BR SCT022 BKN027 OVC040 16/14 A2967 1100 86 1500 190/16G29 RMK AO2 PK WND 20029/2342 RAB38 SLP047 P0003 60005 T01610139 10178 20161 56033
14837KMSN MSN20011205175515112/05/01 17:55:31  5-MIN KMSN 052355Z 21016G22KT 180V240 4SM RA BR BKN024 BKN030 OVC037 16/14 A2969 1080 86 1500 200/16G22 180V240 RMK AO2 PRESRR P0001
14837KMSN MSN20011205180015312/05/01 18:00:31  5-MIN KMSN 060000Z 22016G26KT 3SM RA BR BKN024 BKN030 OVC037 16/14 A2971 1060 90 1500 220/16G26 RMK AO2 PK WND 22026/2358 PRESRR P0002
14837KMSN MSN20011205180516012/05/01 18:05:31  5-MIN KMSN 060005Z 22015G26KT 200V260 4SM -RA BKN024 BKN030 OVC037 16/13 A2971 1060 83 1500 220/15G26 200V260 RMK AO2 PK WND 22026/2358 P0003
14837KMSN MSN20011205181014412/05/01 18:10:31  5-MIN KMSN 060010Z 23014G23KT 7SM -RA SCT024 BKN037 OVC075 16/12 A2971 1060 77 1400 230/14G23 RMK AO2 PK WND 22026/2358 P0003
14837KMSN MSN20011205181514512/05/01 18:15:31  5-MIN KMSN 060015Z 22012G21KT 10SM -RA FEW022 SCT035 OVC075 15/12 A2972 1050 80 1300 220/12G21 RMK AO2 PK WND 22026/2358 P0003
14837KMSN MSN20011205182015412/05/01 18:20:31  5-MIN KMSN 060020Z 23011G21KT 200V260 10SM -RA FEW022 OVC080 15/12 A2972 1050 80 1300 230/11G21 200V260 RMK AO2 PK WND 22026/2358 P0003
14837KMSN MSN20011205182513812/05/01 18:25:31  5-MIN KMSN 060025Z 23015G21KT 10SM -RA FEW020 OVC080 14/12 A2972 1050 86 1300 230/15G21 RMK AO2 PK WND 22026/2358 P0004
14837KMSN MSN20011205183013112/05/01 18:30:31  5-MIN KMSN 060030Z 23014G26KT 10SM -RA OVC085 14/12 A2971 1060 86 1300 230/14G26 RMK AO2 PK WND 22026/0026 P0004
14837KMSN MSN20011205183513312/05/01 18:35:31  5-MIN KMSN 060035Z 23012G26KT 10SM OVC085 14/12 A2972 1050 83 1300 230/12G26 RMK AO2 PK WND 22026/0026 RAE33 P0004
14837KMSN MSN20011205184013312/05/01 18:40:31  5-MIN KMSN 060040Z 24010G17KT 10SM OVC085 14/12 A2972 1050 83 1300 240/10G17 RMK AO2 PK WND 22026/0026 RAE33 P0004
14837KMSN MSN20011205184513312/05/01 18:45:31  5-MIN KMSN 060045Z 24015G22KT 10SM BKN085 14/11 A2972 1050 83 1200 240/15G22 RMK AO2 PK WND 22026/0026 RAE33 P0004
14837KMSN MSN20011205185015012/05/01 18:50:31  5-MIN KMSN 060050Z 24013G23KT 10SM BKN085 14/10 A2972 1050 77 1200 240/13G23 RMK AO2 PK WND 22026/0026 RAE33 SLP065 P0004 T01390100
14837KMSN MSN20011205185512112/05/01 18:55:31  5-MIN KMSN 060055Z 25018G29KT 10SM SCT085 14/10 A2973 1050 77 1200 250/18G29 RMK AO2 PK WND 27029/0055
14837KMSN MSN20011205190012812/05/01 19:00:31  5-MIN KMSN 060100Z 26014G29KT 10SM SCT085 SCT110 14/08 A2973 1040 69 1200 260/14G29 RMK AO2 PK WND 27029/0055
14837KMSN MSN20011205190513512/05/01 19:05:31  5-MIN KMSN 060105Z 25011G21KT 10SM FEW085 BKN110 13/08 A2974 1030 69 1100 250/11G21 RMK AO2 PK WND 27029/0055 PRESRR
14837KMSN MSN20011205191014412/05/01 19:10:31  5-MIN KMSN 060110Z 24009G20KT 210V290 10SM BKN110 13/07 A2976 1020 66 1100 240/09G20 210V290 RMK AO2 PK WND 27029/0055 PRESRR
14837KMSN MSN20011205191512812/05/01 19:15:31  5-MIN KMSN 060115Z 24014G21KT 10SM BKN100 13/07 A2977 1010 66 1000 240/14G21 RMK AO2 PK WND 27029/0055 PRESRR
14837KMSN MSN20011205192014212/05/01 19:20:31  5-MIN KMSN 060120Z 26019G26KT 210V310 10SM BKN100 12/06 A2978 990 66 900 260/19G26 210V310 RMK AO2 PK WND 27029/0055 PRESRR
14837KMSN MSN20011205192512612/05/01 19:25:31  5-MIN KMSN 060125Z 26014G27KT 10SM BKN100 12/06 A2979 980 68 900 250/14G27 RMK AO2 PK WND 27029/0055 PRESRR
14837KMSN MSN20011205193011912/05/01 19:30:31  5-MIN KMSN 060130Z 26010G27KT 10SM BKN100 11/06 A2980 980 71 800 250/10G27 RMK AO2 PK WND 27029/0055
14837KMSN MSN20011205193514212/05/01 19:35:31  5-MIN KMSN 060135Z 26013G25KT 220V300 10SM BKN100 11/06 A2981 970 71 800 260/13G25 220V300 RMK AO2 PK WND 27029/0055 PRESRR
14837KMSN MSN20011205194012612/05/01 19:40:31  5-MIN KMSN 060140Z 25012G21KT 10SM BKN100 11/06 A2981 960 74 700 250/12G21 RMK AO2 PK WND 27029/0055 PRESRR
14837KMSN MSN20011205194511912/05/01 19:45:31  5-MIN KMSN 060145Z 27013G21KT 10SM BKN100 10/06 A2982 960 74 600 260/13G21 RMK AO2 PK WND 27029/0055
14837KMSN MSN20011205195013612/05/01 19:50:31  5-MIN KMSN 060150Z 26011G22KT 10SM FEW110 10/05 A2982 950 71 600 260/11G22 RMK AO2 PK WND 27029/0055 SLP100 T01000050
14837KMSN MSN20011205195509812/05/01 19:55:31  5-MIN KMSN 060155Z 28015G22KT 10SM CLR 09/04 A2983 950 71 600 280/15G22 RMK AO2
14837KMSN MSN20011205200010512/05/01 20:00:31  5-MIN KMSN 060200Z 28008G21KT 10SM CLR 09/04 A2984 940 71 500 270/08G21 RMK AO2 PRESRR
14837KMSN MSN20011205200510512/05/01 20:05:31  5-MIN KMSN 060205Z 28015G20KT 10SM CLR 09/04 A2985 930 71 500 280/15G20 RMK AO2 PRESRR
14837KMSN MSN20011205201012312/05/01 20:10:31  5-MIN KMSN 060210Z 27018G27KT 10SM CLR 08/03 A2986 920 68 400 270/18G27 RMK AO2 PK WND 28027/0209 PRESRR
14837KMSN MSN20011205201511612/05/01 20:15:31  5-MIN KMSN 060215Z 28014G28KT 10SM CLR 08/02 A2986 920 68 300 280/14G28 RMK AO2 PK WND 28028/0211
14837KMSN MSN20011205202012312/05/01 20:20:31  5-MIN KMSN 060220Z 27018G28KT 10SM CLR 07/02 A2987 910 70 200 270/18G28 RMK AO2 PK WND 28028/0211 PRESRR
14837KMSN MSN20011205202511612/05/01 20:25:31  5-MIN KMSN 060225Z 27015G26KT 10SM CLR 07/02 A2988 910 68 200 270/15G26 RMK AO2 PK WND 28028/0211
14837KMSN MSN20011205203012312/05/01 20:30:31  5-MIN KMSN 060230Z 27012G23KT 10SM CLR 07/02 A2989 900 68 200 270/12G23 RMK AO2 PK WND 28028/0211 PRESRR
14837KMSN MSN20011205203511612/05/01 20:35:31  5-MIN KMSN 060235Z 27010G20KT 10SM CLR 07/02 A2989 890 68 200 270/10G20 RMK AO2 PK WND 28028/0211
14837KMSN MSN20011205204013212/05/01 20:40:31  5-MIN KMSN 060240Z 27014G21KT 250V310 10SM CLR 07/02 A2989 890 68 200 270/14G21 250V310 RMK AO2 PK WND 28028/0211
14837KMSN MSN20011205204511612/05/01 20:45:31  5-MIN KMSN 060245Z 27012G21KT 10SM CLR 07/02 A2989 890 70 100 270/12G21 RMK AO2 PK WND 28028/0211
14837KMSN MSN20011205205016112/05/01 20:50:31  5-MIN KMSN 060250Z 26016G25KT 240V310 10SM CLR 07/02 A2990 890 70 100 260/16G25 240V310 RMK AO2 PK WND 28028/0211 SLP126 60004 T00670017 55001
14837KMSN MSN20011205205511412/05/01 20:55:31  5-MIN KMSN 060255Z 27016G25KT 230V290 10SM CLR 06/01 A2990 880 67 100 270/16G25 230V290 RMK AO2
14837KMSN MSN20011205210009612/05/01 21:00:31  5-MIN KMSN 060300Z 27011G24KT 10SM CLR 06/01 A2991 880 70 0 270/11G24 RMK AO2
14837KMSN MSN20011205210509612/05/01 21:05:31  5-MIN KMSN 060305Z 27009G23KT 10SM CLR 06/01 A2991 870 70 0 270/09G23 RMK AO2
14837KMSN MSN20011205211011912/05/01 21:10:31  5-MIN KMSN 060310Z 26008G16KT 230V290 10SM CLR 06/01 A2992 870 73 0 260/08G16 230V290 RMK AO2 PRESRR
14837KMSN MSN20011205211509612/05/01 21:15:31  5-MIN KMSN 060315Z VRB06G16KT 10SM CLR 06/01 A2992 860 73 0 VRB/06G16 RMK AO2
14837KMSN MSN20011205212011212/05/01 21:20:31  5-MIN KMSN 060320Z 26014G21KT 220V290 10SM CLR 06/01 A2992 860 73 0 260/14G21 220V290 RMK AO2
14837KMSN MSN20011205212509612/05/01 21:25:31  5-MIN KMSN 060325Z 28013G21KT 10SM CLR 06/01 A2993 860 70 0 280/13G21 RMK AO2
14837KMSN MSN20011205213011212/05/01 21:30:31  5-MIN KMSN 060330Z 26009G20KT 220V300 10SM CLR 06/01 A2993 850 70 0 260/09G20 220V300 RMK AO2
14837KMSN MSN20011205213511512/05/01 21:35:31  5-MIN KMSN 060335Z 26007G14KT 190V340 10SM CLR 05/01 A2993 850 73 -100 260/07G14 190V340 RMK AO2
14837KMSN MSN20011205214011512/05/01 21:40:31  5-MIN KMSN 060340Z 27010G15KT 240V310 10SM CLR 05/01 A2993 850 73 -100 270/10G15 240V310 RMK AO2
14837KMSN MSN20011205214511512/05/01 21:45:31  5-MIN KMSN 060345Z 27012G20KT 230V300 10SM CLR 05/01 A2994 850 73 -100 270/12G20 230V300 RMK AO2
14837KMSN MSN20011205215011612/05/01 21:50:31  5-MIN KMSN 060350Z 26011G21KT 10SM CLR 05/01 A2994 840 73 -100 260/11G21 RMK AO2 SLP143 T00500006
14837KMSN MSN20011205215509912/05/01 21:55:31  5-MIN KMSN 060355Z 27011G21KT 10SM CLR 05/01 A2995 840 73 -100 270/11G21 RMK AO2
14837KMSN MSN20011205220009912/05/01 22:00:31  5-MIN KMSN 060400Z 26009G18KT 10SM CLR 05/01 A2995 840 73 -100 260/09G18 RMK AO2
14837KMSN MSN20011205220511512/05/01 22:05:31  5-MIN KMSN 060405Z 26009G18KT 220V290 10SM CLR 05/00 A2995 840 70 -100 260/09G18 220V290 RMK AO2
14837KMSN MSN20011205221011512/05/01 22:10:31  5-MIN KMSN 060410Z 25009G17KT 210V280 10SM CLR 05/00 A2995 840 70 -100 250/09G17 210V280 RMK AO2
14837KMSN MSN20011205221511512/05/01 22:15:31  5-MIN KMSN 060415Z 25011G18KT 220V300 10SM CLR 05/00 A2995 830 70 -100 250/11G18 220V300 RMK AO2
14837KMSN MSN20011205222009912/05/01 22:20:31  5-MIN KMSN 060420Z 26009G18KT 10SM CLR 05/00 A2996 830 70 -100 260/09G18 RMK AO2
14837KMSN MSN20011205222509312/05/01 22:25:31  5-MIN KMSN 060425Z 25010KT 10SM CLR 05/00 A2996 830 70 -100 250/10 RMK AO2
14837KMSN MSN20011205223009912/05/01 22:30:31  5-MIN KMSN 060430Z 25009G16KT 10SM CLR 05/00 A2996 830 70 -100 250/09G16 RMK AO2
14837KMSN MSN20011205223511512/05/01 22:35:31  5-MIN KMSN 060435Z 25007G16KT 200V290 10SM CLR 04/00 A2996 830 73 -200 250/07G16 200V290 RMK AO2
14837KMSN MSN20011205224009312/05/01 22:40:31  5-MIN KMSN 060440Z VRB05KT 10SM CLR 04/00 A2996 830 73 -200 VRB/05 RMK AO2
14837KMSN MSN20011205224510912/05/01 22:45:31  5-MIN KMSN 060445Z 25010KT 220V280 10SM CLR 04/00 A2996 830 73 -200 250/10 220V280 RMK AO2
14837KMSN MSN20011205225013312/05/01 22:50:31  5-MIN KMSN 060450Z 26010G16KT 220V280 10SM CLR 04/M01 A2996 830 70 -200 260/10G16 220V280 RMK AO2 SLP146 T00441006
14837KMSN MSN20011205225510012/05/01 22:55:31  5-MIN KMSN 060455Z 26010G16KT 10SM CLR 04/M01 A2996 830 70 -200 260/10G16 RMK AO2
14837KMSN MSN20011205230011612/05/01 23:00:31  5-MIN KMSN 060500Z 26010G14KT 220V280 10SM CLR 04/M01 A2996 830 70 -200 260/10G14 220V280 RMK AO2
14837KMSN MSN20011205230509412/05/01 23:05:31  5-MIN KMSN 060505Z 26010KT 10SM CLR 04/M01 A2997 820 67 -200 260/10 RMK AO2
14837KMSN MSN20011205231010012/05/01 23:10:31  5-MIN KMSN 060510Z 27011G15KT 10SM CLR 04/M01 A2997 820 67 -200 260/11G15 RMK AO2
14837KMSN MSN20011205231510012/05/01 23:15:31  5-MIN KMSN 060515Z 27009G15KT 10SM CLR 04/M01 A2997 820 67 -200 270/09G15 RMK AO2
14837KMSN MSN20011205232009412/05/01 23:20:31  5-MIN KMSN 060520Z VRB06KT 10SM CLR 04/M01 A2997 820 67 -200 VRB/06 RMK AO2
14837KMSN MSN20011205232509412/05/01 23:25:31  5-MIN KMSN 060525Z 24010KT 10SM CLR 04/M01 A2997 820 67 -200 230/10 RMK AO2
14837KMSN MSN20011205233009412/05/01 23:30:31  5-MIN KMSN 060530Z 24009KT 10SM CLR 04/M01 A2997 820 70 -200 240/09 RMK AO2
14837KMSN MSN20011205233511012/05/01 23:35:31  5-MIN KMSN 060535Z 25008KT 220V300 10SM CLR 04/M01 A2997 820 73 -200 250/08 220V300 RMK AO2
14837KMSN MSN20011205234011012/05/01 23:40:31  5-MIN KMSN 060540Z 25008KT 210V280 10SM CLR 04/M01 A2997 820 70 -200 250/08 210V280 RMK AO2
14837KMSN MSN20011205234511012/05/01 23:45:31  5-MIN KMSN 060545Z 25008KT 220V290 10SM CLR 04/M01 A2998 810 70 -200 240/08 220V290 RMK AO2
14837KMSN MSN20011205235014512/05/01 23:50:31  5-MIN KMSN 060550Z 23007KT 10SM CLR 04/M01 A2998 810 73 -200 230/07 RMK AO2 SLP153 60004 T00391006 10161 20039 401780039 53071
14837KMSN MSN20011205235511012/05/01 23:55:31  5-MIN KMSN 060555Z 24008KT 190V270 10SM CLR 04/M01 A2998 810 73 -200 240/08 190V270 RMK AO2
14837KMSN MSN20011206000009412/06/01 00:00:31  5-MIN KMSN 060600Z 24007KT 10SM CLR 04/M01 A2998 810 73 -200 240/07 RMK AO2
14837KMSN MSN20011206000509412/06/01 00:05:31  5-MIN KMSN 060605Z 23009KT 10SM CLR 04/M01 A2998 810 73 -200 230/09 RMK AO2
14837KMSN MSN20011206001009412/06/01 00:10:31  5-MIN KMSN 060610Z 24009KT 10SM CLR 04/M01 A2998 810 70 -300 240/09 RMK AO2
14837KMSN MSN20011206001509412/06/01 00:15:31  5-MIN KMSN 060615Z 24010KT 10SM CLR 04/M01 A2998 810 70 -300 240/10 RMK AO2
14837KMSN MSN20011206002011012/06/01 00:20:31  5-MIN KMSN 060620Z 24009KT 200V280 10SM CLR 04/M01 A2998 810 70 -300 240/09 200V280 RMK AO2
14837KMSN MSN20011206002510012/06/01 00:25:31  5-MIN KMSN 060625Z 24007G15KT 10SM CLR 04/M01 A2999 800 70 -300 240/07G15 RMK AO2
14837KMSN MSN20011206003011012/06/01 00:30:31  5-MIN KMSN 060630Z 24007KT 210V280 10SM CLR 04/M01 A2999 800 70 -300 240/07 210V280 RMK AO2
14837KMSN MSN20011206003511612/06/01 00:35:31  5-MIN KMSN 060635Z 24007G14KT 210V280 10SM CLR 04/M01 A2999 800 70 -300 240/07G14 210V280 RMK AO2
14837KMSN MSN20011206004009412/06/01 00:40:31  5-MIN KMSN 060640Z 25009KT 10SM CLR 04/M02 A2999 800 67 -300 250/09 RMK AO2
14837KMSN MSN20011206004510012/06/01 00:45:31  5-MIN KMSN 060645Z 25009G14KT 10SM CLR 04/M02 A3000 800 67 -300 250/09G14 RMK AO2
14837KMSN MSN20011206005011112/06/01 00:50:31  5-MIN KMSN 060650Z 23007KT 10SM CLR 04/M01 A3000 790 70 -300 230/07 RMK AO2 SLP161 T00391011
14837KMSN MSN20011206005511012/06/01 00:55:31  5-MIN KMSN 060655Z 23008KT 200V270 10SM CLR 03/M01 A3000 790 72 -300 230/08 200V270 RMK AO2
14837KMSN MSN20011206010010012/06/01 01:00:31  5-MIN KMSN 060700Z VRB05G14KT 10SM CLR 03/M01 A3000 790 72 -300 VRB/05G14 RMK AO2
14837KMSN MSN20011206010510012/06/01 01:05:31  5-MIN KMSN 060705Z 23008G14KT 10SM CLR 03/M01 A3000 790 76 -300 230/08G14 RMK AO2
14837KMSN MSN20011206011009412/06/01 01:10:31  5-MIN KMSN 060710Z 24006KT 10SM CLR 03/M01 A3001 790 76 -300 240/06 RMK AO2
14837KMSN MSN20011206011509412/06/01 01:15:31  5-MIN KMSN 060715Z 23008KT 10SM CLR 03/M01 A3001 790 76 -300 230/08 RMK AO2
14837KMSN MSN20011206012009412/06/01 01:20:31  5-MIN KMSN 060720Z 23007KT 10SM CLR 03/M01 A3001 780 76 -400 230/07 RMK AO2
14837KMSN MSN20011206012509412/06/01 01:25:31  5-MIN KMSN 060725Z 22008KT 10SM CLR 03/M01 A3001 780 76 -400 220/08 RMK AO2
14837KMSN MSN20011206013009412/06/01 01:30:31  5-MIN KMSN 060730Z 22008KT 10SM CLR 03/M01 A3001 780 76 -400 220/08 RMK AO2
14837KMSN MSN20011206013509412/06/01 01:35:31  5-MIN KMSN 060735Z 22007KT 10SM CLR 03/M01 A3001 780 76 -400 220/07 RMK AO2
14837KMSN MSN20011206014009412/06/01 01:40:31  5-MIN KMSN 060740Z 23007KT 10SM CLR 03/M01 A3001 780 76 -400 230/07 RMK AO2
14837KMSN MSN20011206014509412/06/01 01:45:31  5-MIN KMSN 060745Z 24006KT 10SM CLR 03/M01 A3002 770 76 -400 240/06 RMK AO2
14837KMSN MSN20011206015011112/06/01 01:50:31  5-MIN KMSN 060750Z 22006KT 10SM CLR 03/M01 A3002 770 79 -400 220/06 RMK AO2 SLP168 T00281006
14837KMSN MSN20011206015509412/06/01 01:55:31  5-MIN KMSN 060755Z 23006KT 10SM CLR 03/M01 A3002 770 79 -400 220/06 RMK AO2
14837KMSN MSN20011206020009412/06/01 02:00:31  5-MIN KMSN 060800Z 21006KT 10SM CLR 03/M01 A3002 770 79 -400 210/06 RMK AO2
14837KMSN MSN20011206020509412/06/01 02:05:31  5-MIN KMSN 060805Z 22005KT 10SM CLR 03/M01 A3002 770 79 -400 220/05 RMK AO2
14837KMSN MSN20011206021011012/06/01 02:10:31  5-MIN KMSN 060810Z 23007KT 190V260 10SM CLR 03/M01 A3003 760 79 -400 230/07 190V260 RMK AO2
14837KMSN MSN20011206021509412/06/01 02:15:31  5-MIN KMSN 060815Z 23008KT 10SM CLR 03/M01 A3003 760 79 -400 230/08 RMK AO2
14837KMSN MSN20011206022009412/06/01 02:20:31  5-MIN KMSN 060820Z 22007KT 10SM CLR 03/M01 A3003 760 79 -500 220/07 RMK AO2
14837KMSN MSN20011206022511012/06/01 02:25:31  5-MIN KMSN 060825Z 22008KT 190V270 10SM CLR 03/M01 A3004 760 79 -500 220/08 190V270 RMK AO2
14837KMSN MSN20011206023009412/06/01 02:30:31  5-MIN KMSN 060830Z 22008KT 10SM CLR 03/M01 A3004 760 75 -500 220/08 RMK AO2
14837KMSN MSN20011206023511012/06/01 02:35:31  5-MIN KMSN 060835Z 22008KT 180V240 10SM CLR 03/M01 A3004 760 75 -500 220/08 180V240 RMK AO2
14837KMSN MSN20011206024009412/06/01 02:40:31  5-MIN KMSN 060840Z 22007KT 10SM CLR 03/M01 A3004 760 75 -500 220/07 RMK AO2
14837KMSN MSN20011206024509412/06/01 02:45:31  5-MIN KMSN 060845Z 22009KT 10SM CLR 03/M01 A3003 760 75 -500 220/09 RMK AO2
14837KMSN MSN20011206025011712/06/01 02:50:31  5-MIN KMSN 060850Z 21007KT 10SM CLR 03/M01 A3003 760 75 -500 210/07 RMK AO2 SLP173 T00281011 51025
14837KMSN MSN20011206025509412/06/01 02:55:31  5-MIN KMSN 060855Z 22009KT 10SM CLR 02/M01 A3003 760 78 -500 220/09 RMK AO2
14837KMSN MSN20011206030009412/06/01 03:00:31  5-MIN KMSN 060900Z 22009KT 10SM CLR 03/M01 A3003 760 75 -400 210/09 RMK AO2
14837KMSN MSN20011206030509412/06/01 03:05:31  5-MIN KMSN 060905Z 22008KT 10SM CLR 02/M01 A3003 760 78 -500 220/08 RMK AO2
14837KMSN MSN20011206031009412/06/01 03:10:31  5-MIN KMSN 060910Z 22009KT 10SM CLR 02/M02 A3004 760 75 -500 220/09 RMK AO2
14837KMSN MSN20011206031509412/06/01 03:15:31  5-MIN KMSN 060915Z 23009KT 10SM CLR 02/M02 A3004 760 75 -500 220/09 RMK AO2
14837KMSN MSN20011206032009412/06/01 03:20:31  5-MIN KMSN 060920Z 22009KT 10SM CLR 02/M02 A3004 750 75 -500 220/09 RMK AO2
14837KMSN MSN20011206032509412/06/01 03:25:31  5-MIN KMSN 060925Z 22008KT 10SM CLR 02/M02 A3004 760 75 -500 220/08 RMK AO2
14837KMSN MSN20011206033009412/06/01 03:30:31  5-MIN KMSN 060930Z 21011KT 10SM CLR 02/M02 A3004 750 75 -500 210/11 RMK AO2
14837KMSN MSN20011206033509412/06/01 03:35:31  5-MIN KMSN 060935Z 22008KT 10SM CLR 02/M02 A3004 750 72 -500 220/08 RMK AO2
14837KMSN MSN20011206034009412/06/01 03:40:31  5-MIN KMSN 060940Z 22010KT 10SM CLR 02/M02 A3005 750 72 -500 210/10 RMK AO2
14837KMSN MSN20011206034509412/06/01 03:45:31  5-MIN KMSN 060945Z 22009KT 10SM CLR 02/M02 A3005 750 72 -500 210/09 RMK AO2
14837KMSN MSN20011206035012712/06/01 03:50:31  5-MIN KMSN 060950Z 22007KT 190V260 10SM CLR 02/M02 A3004 750 72 -500 220/07 190V260 RMK AO2 SLP176 T00221022
14837KMSN MSN20011206035509412/06/01 03:55:31  5-MIN KMSN 060955Z 22008KT 10SM CLR 02/M02 A3004 750 72 -500 220/08 RMK AO2
14837KMSN MSN20011206040009412/06/01 04:00:31  5-MIN KMSN 061000Z 23008KT 10SM CLR 02/M02 A3004 750 72 -500 230/08 RMK AO2
14837KMSN MSN20011206040509412/06/01 04:05:31  5-MIN KMSN 061005Z 22006KT 10SM CLR 02/M02 A3004 750 72 -500 220/06 RMK AO2
14837KMSN MSN20011206041009412/06/01 04:10:31  5-MIN KMSN 061010Z 22008KT 10SM CLR 02/M02 A3004 750 72 -500 220/08 RMK AO2
14837KMSN MSN20011206041509412/06/01 04:15:31  5-MIN KMSN 061015Z 22007KT 10SM CLR 02/M02 A3003 760 72 -500 210/07 RMK AO2
14837KMSN MSN20011206042009412/06/01 04:20:31  5-MIN KMSN 061020Z 22009KT 10SM CLR 02/M02 A3003 760 72 -500 220/09 RMK AO2
14837KMSN MSN20011206042509412/06/01 04:25:31  5-MIN KMSN 061025Z 21007KT 10SM CLR 02/M02 A3003 760 72 -500 200/07 RMK AO2
14837KMSN MSN20011206043009412/06/01 04:30:31  5-MIN KMSN 061030Z 22007KT 10SM CLR 02/M02 A3004 760 72 -500 220/07 RMK AO2
14837KMSN MSN20011206043509412/06/01 04:35:31  5-MIN KMSN 061035Z 22008KT 10SM CLR 02/M02 A3004 750 72 -500 220/08 RMK AO2
14837KMSN MSN20011206044009412/06/01 04:40:31  5-MIN KMSN 061040Z 21007KT 10SM CLR 02/M02 A3004 750 72 -500 210/07 RMK AO2
14837KMSN MSN20011206044509412/06/01 04:45:31  5-MIN KMSN 061045Z 22007KT 10SM CLR 02/M02 A3004 750 72 -500 210/07 RMK AO2
14837KMSN MSN20011206045011112/06/01 04:50:31  5-MIN KMSN 061050Z 21007KT 10SM CLR 02/M02 A3004 750 72 -500 210/07 RMK AO2 SLP176 T00221022
14837KMSN MSN20011206045509412/06/01 04:55:31  5-MIN KMSN 061055Z 22007KT 10SM CLR 02/M02 A3004 760 72 -500 220/07 RMK AO2
14837KMSN MSN20011206050009412/06/01 05:00:31  5-MIN KMSN 061100Z 22006KT 10SM CLR 02/M02 A3004 760 72 -500 220/06 RMK AO2
14837KMSN MSN20011206050509412/06/01 05:05:31  5-MIN KMSN 061105Z 22006KT 10SM CLR 02/M02 A3004 760 72 -500 220/06 RMK AO2
14837KMSN MSN20011206051009412/06/01 05:10:31  5-MIN KMSN 061110Z 22005KT 10SM CLR 02/M02 A3004 760 72 -500 220/05 RMK AO2
14837KMSN MSN20011206051509412/06/01 05:15:31  5-MIN KMSN 061115Z 22007KT 10SM CLR 02/M02 A3004 750 72 -500 220/07 RMK AO2
14837KMSN MSN20011206052009412/06/01 05:20:31  5-MIN KMSN 061120Z 23007KT 10SM CLR 02/M01 A3004 750 78 -500 230/07 RMK AO2
14837KMSN MSN20011206052509412/06/01 05:25:31  5-MIN KMSN 061125Z 24006KT 10SM CLR 02/M01 A3005 750 78 -500 240/06 RMK AO2
14837KMSN MSN20011206053009412/06/01 05:30:31  5-MIN KMSN 061130Z 23005KT 10SM CLR 02/M02 A3005 750 72 -500 230/05 RMK AO2
14837KMSN MSN20011206053509412/06/01 05:35:31  5-MIN KMSN 061135Z 23006KT 10SM CLR 02/M02 A3005 740 72 -500 230/06 RMK AO2
14837KMSN MSN20011206054009412/06/01 05:40:31  5-MIN KMSN 061140Z 23007KT 10SM CLR 02/M02 A3005 740 72 -500 230/07 RMK AO2
14837KMSN MSN20011206054509412/06/01 05:45:31  5-MIN KMSN 061145Z 23005KT 10SM CLR 02/M02 A3005 740 72 -500 230/05 RMK AO2
14837KMSN MSN20011206055013512/06/01 05:50:31  5-MIN KMSN 061150Z 22007KT 10SM CLR 02/M02 A3006 740 72 -500 220/07 RMK AO2 SLP182 70016 T00221022 10039 20022 51019
14837KMSN MSN20011206055509412/06/01 05:55:31  5-MIN KMSN 061155Z 23006KT 10SM CLR 02/M02 A3006 740 72 -500 220/06 RMK AO2
14837KMSN MSN20011206060009412/06/01 06:00:31  5-MIN KMSN 061200Z 23006KT 10SM CLR 02/M02 A3006 730 72 -600 230/06 RMK AO2
14837KMSN MSN20011206060509412/06/01 06:05:31  5-MIN KMSN 061205Z VRB04KT 10SM CLR 02/M02 A3007 730 72 -600 VRB/04 RMK AO2
14837KMSN MSN20011206061009412/06/01 06:10:31  5-MIN KMSN 061210Z 25003KT 10SM CLR 02/M02 A3007 730 75 -600 250/03 RMK AO2
14837KMSN MSN20011206061509412/06/01 06:15:31  5-MIN KMSN 061215Z 24004KT 10SM CLR 02/M02 A3007 730 75 -600 230/04 RMK AO2
14837KMSN MSN20011206062009412/06/01 06:20:31  5-MIN KMSN 061220Z 22005KT 10SM CLR 02/M02 A3007 730 75 -600 220/05 RMK AO2
14837KMSN MSN20011206062509412/06/01 06:25:31  5-MIN KMSN 061225Z 22005KT 10SM CLR 02/M02 A3007 730 72 -600 220/05 RMK AO2
14837KMSN MSN20011206063009412/06/01 06:30:31  5-MIN KMSN 061230Z 23004KT 10SM CLR 02/M02 A3007 730 75 -600 220/04 RMK AO2
14837KMSN MSN20011206063509412/06/01 06:35:31  5-MIN KMSN 061235Z VRB04KT 10SM CLR 02/M02 A3007 720 75 -600 VRB/04 RMK AO2
14837KMSN MSN20011206064009412/06/01 06:40:31  5-MIN KMSN 061240Z 21004KT 10SM CLR 02/M02 A3007 720 75 -600 210/04 RMK AO2
14837KMSN MSN20011206064509412/06/01 06:45:31  5-MIN KMSN 061245Z 22004KT 10SM CLR 01/M02 A3007 720 78 -700 220/04 RMK AO2
14837KMSN MSN20011206065011112/06/01 06:50:31  5-MIN KMSN 061250Z 22004KT 10SM CLR 02/M02 A3007 720 75 -600 220/04 RMK AO2 SLP189 T00171022
14837KMSN MSN20011206065509412/06/01 06:55:31  5-MIN KMSN 061255Z 24003KT 10SM CLR 02/M02 A3007 720 75 -600 240/03 RMK AO2
14837KMSN MSN20011206070009412/06/01 07:00:31  5-MIN KMSN 061300Z 22004KT 10SM CLR 02/M02 A3008 720 75 -600 220/04 RMK AO2
14837KMSN MSN20011206070509412/06/01 07:05:31  5-MIN KMSN 061305Z 22005KT 10SM CLR 02/M02 A3008 720 72 -600 220/05 RMK AO2
14837KMSN MSN20011206071009412/06/01 07:10:31  5-MIN KMSN 061310Z VRB06KT 10SM CLR 02/M03 A3008 720 69 -600 VRB/06 RMK AO2
14837KMSN MSN20011206071509412/06/01 07:15:31  5-MIN KMSN 061315Z 23006KT 10SM CLR 02/M03 A3008 720 69 -600 230/06 RMK AO2
14837KMSN MSN20011206072009412/06/01 07:20:31  5-MIN KMSN 061320Z 21005KT 10SM CLR 02/M03 A3008 720 69 -600 210/05 RMK AO2
14837KMSN MSN20011206072509412/06/01 07:25:31  5-MIN KMSN 061325Z 20004KT 10SM CLR 02/M03 A3008 720 72 -600 200/04 RMK AO2
14837KMSN MSN20011206073009412/06/01 07:30:31  5-MIN KMSN 061330Z 20004KT 10SM CLR 02/M03 A3008 720 72 -600 200/04 RMK AO2
14837KMSN MSN20011206073509412/06/01 07:35:31  5-MIN KMSN 061335Z 18006KT 10SM CLR 01/M02 A3007 720 78 -700 180/06 RMK AO2
14837KMSN MSN20011206074009412/06/01 07:40:31  5-MIN KMSN 061340Z 19007KT 10SM CLR 01/M02 A3008 720 78 -700 180/07 RMK AO2
14837KMSN MSN20011206074509412/06/01 07:45:31  5-MIN KMSN 061345Z 18007KT 10SM CLR 01/M02 A3008 720 78 -700 180/07 RMK AO2
14837KMSN MSN20011206075011112/06/01 07:50:31  5-MIN KMSN 061350Z 19006KT 10SM CLR 01/M02 A3008 720 78 -700 190/06 RMK AO2 SLP191 T00111022
14837KMSN MSN20011206075509412/06/01 07:55:31  5-MIN KMSN 061355Z 19005KT 10SM CLR 02/M02 A3008 720 75 -600 190/05 RMK AO2
14837KMSN MSN20011206080009412/06/01 08:00:31  5-MIN KMSN 061400Z 19006KT 10SM CLR 02/M02 A3007 720 75 -600 190/06 RMK AO2
14837KMSN MSN20011206080509412/06/01 08:05:31  5-MIN KMSN 061405Z 19005KT 10SM CLR 02/M02 A3007 720 75 -600 190/05 RMK AO2
14837KMSN MSN20011206081009412/06/01 08:10:31  5-MIN KMSN 061410Z 19008KT 10SM CLR 02/M02 A3007 720 72 -600 190/08 RMK AO2
14837KMSN MSN20011206081509412/06/01 08:15:31  5-MIN KMSN 061415Z 19008KT 10SM CLR 02/M02 A3008 720 72 -600 190/08 RMK AO2
14837KMSN MSN20011206082009412/06/01 08:20:31  5-MIN KMSN 061420Z 19009KT 10SM CLR 02/M02 A3008 720 72 -600 190/09 RMK AO2
14837KMSN MSN20011206082509412/06/01 08:25:31  5-MIN KMSN 061425Z 19009KT 10SM CLR 02/M02 A3008 720 72 -600 190/09 RMK AO2
14837KMSN MSN20011206083009412/06/01 08:30:31  5-MIN KMSN 061430Z 19009KT 10SM CLR 02/M02 A3007 720 72 -600 190/09 RMK AO2
14837KMSN MSN20011206083509412/06/01 08:35:31  5-MIN KMSN 061435Z 20007KT 10SM CLR 02/M02 A3007 720 72 -600 200/07 RMK AO2
14837KMSN MSN20011206084009412/06/01 08:40:31  5-MIN KMSN 061440Z 21008KT 10SM CLR 02/M02 A3008 720 72 -600 210/08 RMK AO2
14837KMSN MSN20011206084509412/06/01 08:45:31  5-MIN KMSN 061445Z 21010KT 10SM CLR 03/M02 A3007 720 69 -500 200/10 RMK AO2
14837KMSN MSN20011206085011712/06/01 08:50:31  5-MIN KMSN 061450Z 20010KT 10SM CLR 03/M02 A3007 720 69 -500 200/10 RMK AO2 SLP190 T00281022 53008
14837KMSN MSN20011206085509412/06/01 08:55:31  5-MIN KMSN 061455Z 19010KT 10SM CLR 03/M02 A3007 730 72 -500 190/10 RMK AO2
14837KMSN MSN20011206090009412/06/01 09:00:31  5-MIN KMSN 061500Z 20009KT 10SM CLR 03/M02 A3007 730 72 -500 200/09 RMK AO2
14837KMSN MSN20011206090509712/06/01 09:05:31  5-MIN KMSN 061505Z 21008KT 10SM FEW110 03/M02 A3008 720 72 -500 210/08 RMK AO2
14837KMSN MSN20011206091009712/06/01 09:10:31  5-MIN KMSN 061510Z 20010KT 10SM SCT120 03/M01 A3008 720 75 -500 200/10 RMK AO2
14837KMSN MSN20011206091509412/06/01 09:15:31  5-MIN KMSN 061515Z 20011KT 10SM CLR 03/M02 A3008 720 72 -500 200/11 RMK AO2
14837KMSN MSN20011206092009412/06/01 09:20:31  5-MIN KMSN 061520Z 19009KT 10SM CLR 03/M01 A3008 710 75 -500 190/09 RMK AO2
14837KMSN MSN20011206092509412/06/01 09:25:31  5-MIN KMSN 061525Z 20009KT 10SM CLR 03/M01 A3008 720 72 -400 200/09 RMK AO2
14837KMSN MSN20011206093009412/06/01 09:30:31  5-MIN KMSN 061530Z 21007KT 10SM CLR 03/M01 A3008 720 72 -400 210/07 RMK AO2
14837KMSN MSN20011206093509712/06/01 09:35:31  5-MIN KMSN 061535Z 21008KT 10SM SCT120 04/M01 A3008 720 70 -400 200/08 RMK AO2
14837KMSN MSN20011206094009712/06/01 09:40:31  5-MIN KMSN 061540Z 21008KT 10SM SCT120 04/M02 A3007 730 67 -400 210/08 RMK AO2
14837KMSN MSN20011206094509712/06/01 09:45:31  5-MIN KMSN 061545Z 20007KT 10SM BKN120 04/M01 A3007 730 70 -400 200/07 RMK AO2
14837KMSN MSN20011206095012012/06/01 09:50:31  5-MIN KMSN 061550Z 20010G15KT 10SM BKN120 04/M02 A3007 730 62 -300 200/10G15 RMK AO2 SLP189 T00441022
14837KMSN MSN20011206095509712/06/01 09:55:31  5-MIN KMSN 061555Z 19010KT 10SM BKN120 04/M02 A3006 730 64 -300 190/10 RMK AO2
14837KMSN MSN20011206100009712/06/01 10:00:31  5-MIN KMSN 061600Z 20011KT 10SM SCT120 04/M02 A3006 730 62 -300 200/11 RMK AO2
14837KMSN MSN20011206100509712/06/01 10:05:31  5-MIN KMSN 061605Z 20012KT 10SM FEW120 04/M02 A3006 740 62 -300 190/12 RMK AO2
14837KMSN MSN20011206101009712/06/01 10:10:31  5-MIN KMSN 061610Z 20011KT 10SM FEW120 04/M02 A3005 740 62 -300 200/11 RMK AO2
14837KMSN MSN20011206101509712/06/01 10:15:31  5-MIN KMSN 061615Z 18011KT 10SM FEW120 05/M02 A3005 750 62 -200 180/11 RMK AO2
14837KMSN MSN20011206102009712/06/01 10:20:31  5-MIN KMSN 061620Z 18012KT 10SM FEW120 05/M02 A3004 750 62 -200 180/12 RMK AO2
14837KMSN MSN20011206102509712/06/01 10:25:31  5-MIN KMSN 061625Z 19011KT 10SM SCT120 04/M02 A3004 760 64 -200 190/11 RMK AO2
14837KMSN MSN20011206103009712/06/01 10:30:31  5-MIN KMSN 061630Z 18011KT 10SM SCT120 04/M01 A3004 760 67 -200 180/11 RMK AO2
14837KMSN MSN20011206103509712/06/01 10:35:31  5-MIN KMSN 061635Z 19009KT 10SM SCT120 05/M02 A3003 760 62 -200 190/09 RMK AO2
14837KMSN MSN20011206104009712/06/01 10:40:31  5-MIN KMSN 061640Z 19010KT 10SM SCT120 05/M01 A3003 760 64 -200 190/10 RMK AO2
14837KMSN MSN20011206104509712/06/01 10:45:31  5-MIN KMSN 061645Z 19010KT 10SM SCT120 05/M01 A3003 770 64 -200 190/10 RMK AO2
14837KMSN MSN20011206105011412/06/01 10:50:31  5-MIN KMSN 061650Z 19009KT 10SM SCT120 06/M01 A3003 770 62 -100 190/09 RMK AO2 SLP175 T00561011
14837KMSN MSN20011206105509712/06/01 10:55:31  5-MIN KMSN 061655Z 18008KT 10SM BKN110 06/M01 A3002 780 62 -100 180/08 RMK AO2
14837KMSN MSN20011206110009412/06/01 11:00:31  5-MIN KMSN 061700Z 20009KT 10SM BKN110 06/M01 A3002 770 62 0 200/09 RMK AO2
14837KMSN MSN20011206110509412/06/01 11:05:31  5-MIN KMSN 061705Z 20007KT 10SM BKN110 06/M01 A3003 770 60 0 200/07 RMK AO2
14837KMSN MSN20011206111009412/06/01 11:10:31  5-MIN KMSN 061710Z 20007KT 10SM BKN110 06/M01 A3002 770 60 0 200/07 RMK AO2
14837KMSN MSN20011206111509412/06/01 11:15:31  5-MIN KMSN 061715Z 19009KT 10SM BKN110 06/M01 A3001 780 60 0 190/09 RMK AO2
14837KMSN MSN20011206112009412/06/01 11:20:31  5-MIN KMSN 061720Z 19007KT 10SM OVC110 07/M01 A3001 780 57 0 180/07 RMK AO2
14837KMSN MSN20011206112509612/06/01 11:25:31  5-MIN KMSN 061725Z 18008KT 10SM BKN110 07/M01 A3000 790 55 100 180/08 RMK AO2
14837KMSN MSN20011206113009412/06/01 11:30:31  5-MIN KMSN 061730Z 20007KT 10SM BKN110 07/M01 A3000 790 57 0 200/07 RMK AO2
14837KMSN MSN20011206113509612/06/01 11:35:31  5-MIN KMSN 061735Z 21005KT 10SM BKN110 07/M01 A3000 790 55 100 210/05 RMK AO2
14837KMSN MSN20011206114011212/06/01 11:40:31  5-MIN KMSN 061740Z 20007KT 150V250 10SM SCT110 07/M02 A3000 790 53 100 200/07 150V250 RMK AO2
14837KMSN MSN20011206114509612/06/01 11:45:31  5-MIN KMSN 061745Z 21009KT 10SM SCT110 07/M02 A2999 800 53 100 210/09 RMK AO2
14837KMSN MSN20011206115013112/06/01 11:50:31  5-MIN KMSN 061750Z 19011KT 10SM SCT110 07/M02 A2999 800 53 100 190/11 RMK AO2 SLP161 T00721017 10072 20011 50004
14837KMSN MSN20011206115509612/06/01 11:55:31  5-MIN KMSN 061755Z 20009KT 10SM SCT110 07/M02 A2998 810 51 100 200/09 RMK AO2
14837KMSN MSN20011206120009612/06/01 12:00:31  5-MIN KMSN 061800Z 19009KT 10SM FEW110 08/M02 A2998 810 51 200 190/09 RMK AO2
14837KMSN MSN20011206120509612/06/01 12:05:31  5-MIN KMSN 061805Z 19010KT 10SM FEW110 08/M02 A2998 810 51 200 190/10 RMK AO2
14837KMSN MSN20011206121009612/06/01 12:10:31  5-MIN KMSN 061810Z 21010KT 10SM FEW110 08/M02 A2998 810 49 200 200/10 RMK AO2
14837KMSN MSN20011206121509612/06/01 12:15:31  5-MIN KMSN 061815Z 21009KT 10SM FEW100 08/M03 A2998 810 47 200 200/09 RMK AO2
14837KMSN MSN20011206122009612/06/01 12:20:31  5-MIN KMSN 061820Z 19010KT 10SM FEW100 08/M02 A2998 810 49 200 190/10 RMK AO2
14837KMSN MSN20011206122509612/06/01 12:25:31  5-MIN KMSN 061825Z 20010KT 10SM FEW100 08/M02 A2998 810 51 200 200/10 RMK AO2
14837KMSN MSN20011206123009612/06/01 12:30:31  5-MIN KMSN 061830Z 22009KT 10SM FEW100 08/M02 A2998 810 49 200 220/09 RMK AO2
14837KMSN MSN20011206123509612/06/01 12:35:31  5-MIN KMSN 061835Z 19010KT 10SM FEW100 08/M02 A2997 810 49 200 190/10 RMK AO2
14837KMSN MSN20011206124010212/06/01 12:40:31  5-MIN KMSN 061840Z 21011G17KT 10SM FEW100 08/M03 A2997 820 45 200 210/11G17 RMK AO2
14837KMSN MSN20011206124509912/06/01 12:45:31  5-MIN KMSN 061845Z 21011G18KT 10SM CLR 08/M03 A2997 820 43 300 210/11G18 RMK AO2
14837KMSN MSN20011206125011912/06/01 12:50:31  5-MIN KMSN 061850Z 21011G18KT 10SM FEW110 08/M03 A2997 810 43 200 210/11G18 RMK AO2 SLP156 T00831033
14837KMSN MSN20011206125510212/06/01 12:55:31  5-MIN KMSN 061855Z 21007G16KT 10SM SCT110 08/M03 A2997 820 45 200 210/07G16 RMK AO2
14837KMSN MSN20011206130010212/06/01 13:00:31  5-MIN KMSN 061900Z 20011G15KT 10SM SCT110 08/M03 A2997 820 45 200 200/11G15 RMK AO2
14837KMSN MSN20011206130510212/06/01 13:05:31  5-MIN KMSN 061905Z 20011G16KT 10SM BKN110 08/M03 A2997 820 43 300 200/11G16 RMK AO2
14837KMSN MSN20011206131010212/06/01 13:10:31  5-MIN KMSN 061910Z 22008G16KT 10SM SCT110 09/M03 A2997 820 42 300 220/08G16 RMK AO2
14837KMSN MSN20011206131510212/06/01 13:15:31  5-MIN KMSN 061915Z 22010G16KT 10SM SCT110 09/M03 A2997 820 43 300 220/10G16 RMK AO2
14837KMSN MSN20011206132010212/06/01 13:20:31  5-MIN KMSN 061920Z 22010G15KT 10SM FEW110 09/M03 A2997 820 42 300 220/10G15 RMK AO2
14837KMSN MSN20011206132510212/06/01 13:25:31  5-MIN KMSN 061925Z 22010G15KT 10SM FEW110 08/M03 A2997 820 43 300 210/10G15 RMK AO2
14837KMSN MSN20011206133009612/06/01 13:30:31  5-MIN KMSN 061930Z 21009KT 10SM FEW110 09/M03 A2997 820 42 300 200/09 RMK AO2
14837KMSN MSN20011206133510212/06/01 13:35:31  5-MIN KMSN 061935Z 21010G17KT 10SM FEW110 09/M03 A2997 820 42 300 210/10G17 RMK AO2
14837KMSN MSN20011206134010212/06/01 13:40:31  5-MIN KMSN 061940Z 21012G17KT 10SM FEW110 09/M03 A2996 830 42 300 210/12G17 RMK AO2
14837KMSN MSN20011206134509612/06/01 13:45:31  5-MIN KMSN 061945Z 20009KT 10SM FEW110 09/M03 A2996 830 43 300 200/09 RMK AO2
14837KMSN MSN20011206135011312/06/01 13:50:31  5-MIN KMSN 061950Z 19011KT 10SM FEW110 09/M03 A2996 830 43 300 190/11 RMK AO2 SLP149 T00891028
14837KMSN MSN20011206135509312/06/01 13:55:31  5-MIN KMSN 061955Z 19012KT 10SM CLR 09/M03 A2995 830 42 300 190/12 RMK AO2
14837KMSN MSN20011206140009912/06/01 14:00:31  5-MIN KMSN 062000Z 19011G20KT 10SM CLR 09/M03 A2995 840 42 300 190/11G20 RMK AO2
14837KMSN MSN20011206140509912/06/01 14:05:31  5-MIN KMSN 062005Z 19012G20KT 10SM CLR 09/M03 A2995 840 43 300 190/12G20 RMK AO2
14837KMSN MSN20011206141009312/06/01 14:10:31  5-MIN KMSN 062010Z 19010KT 10SM CLR 09/M02 A2994 840 45 400 190/10 RMK AO2
14837KMSN MSN20011206141509312/06/01 14:15:31  5-MIN KMSN 062015Z 20011KT 10SM CLR 09/M02 A2994 840 45 400 200/11 RMK AO2
14837KMSN MSN20011206142009312/06/01 14:20:31  5-MIN KMSN 062020Z 19011KT 10SM CLR 09/M02 A2994 840 45 400 190/11 RMK AO2
14837KMSN MSN20011206142509312/06/01 14:25:31  5-MIN KMSN 062025Z 19010KT 10SM CLR 09/M02 A2994 850 45 400 190/10 RMK AO2
14837KMSN MSN20011206172009612/06/01 17:20:31  5-MIN KMSN 062320Z 20005KT 10SM BKN055 07/M03 A2992 860 47 200 200/05 RMK AO2
14837KMSN MSN20011206172509612/06/01 17:25:31  5-MIN KMSN 062325Z 20006KT 10SM BKN055 07/M03 A2992 860 49 200 200/06 RMK AO2
14837KMSN MSN20011206173009612/06/01 17:30:31  5-MIN KMSN 062330Z 20004KT 10SM BKN055 07/M03 A2992 860 49 200 200/04 RMK AO2
14837KMSN MSN20011206173509612/06/01 17:35:31  5-MIN KMSN 062335Z 21005KT 10SM OVC055 07/M03 A2992 860 49 200 210/05 RMK AO2
14837KMSN MSN20011206174009612/06/01 17:40:31  5-MIN KMSN 062340Z 21005KT 10SM OVC055 07/M03 A2992 870 49 200 200/05 RMK AO2
14837KMSN MSN20011206174509612/06/01 17:45:31  5-MIN KMSN 062345Z 19006KT 10SM OVC055 07/M03 A2992 860 49 200 190/06 RMK AO2
14837KMSN MSN20011206175013112/06/01 17:50:31  5-MIN KMSN 062350Z 18004KT 10SM BKN055 07/M03 A2992 870 49 200 180/04 RMK AO2 SLP138 T00721028 10089 20067 58021
14837KMSN MSN20011206175509612/06/01 17:55:31  5-MIN KMSN 062355Z 18006KT 10SM OVC055 07/M02 A2992 870 51 200 180/06 RMK AO2
14837KMSN MSN20011206180009612/06/01 18:00:31  5-MIN KMSN 070000Z 19006KT 10SM OVC055 07/M02 A2992 870 51 200 180/06 RMK AO2
14837KMSN MSN20011206180509612/06/01 18:05:31  5-MIN KMSN 070005Z 18005KT 10SM OVC055 07/M02 A2992 870 51 200 180/05 RMK AO2
14837KMSN MSN20011206181009612/06/01 18:10:31  5-MIN KMSN 070010Z 18005KT 10SM OVC060 07/M02 A2992 870 51 200 180/05 RMK AO2
14837KMSN MSN20011206181509612/06/01 18:15:31  5-MIN KMSN 070015Z 19006KT 10SM OVC060 07/M02 A2992 870 51 200 190/06 RMK AO2
14837KMSN MSN20011206182009612/06/01 18:20:31  5-MIN KMSN 070020Z 19006KT 10SM OVC060 07/M02 A2992 870 53 200 190/06 RMK AO2
14837KMSN MSN20011206182509612/06/01 18:25:31  5-MIN KMSN 070025Z 19006KT 10SM OVC060 07/M02 A2992 870 53 200 190/06 RMK AO2
14837KMSN MSN20011206183009612/06/01 18:30:31  5-MIN KMSN 070030Z 19005KT 10SM OVC060 07/M02 A2992 870 53 200 190/05 RMK AO2
14837KMSN MSN20011206183509612/06/01 18:35:31  5-MIN KMSN 070035Z 19003KT 10SM OVC060 07/M02 A2992 870 55 100 190/03 RMK AO2
14837KMSN MSN20011206184009612/06/01 18:40:31  5-MIN KMSN 070040Z 19004KT 10SM OVC060 07/M02 A2992 870 55 100 180/04 RMK AO2
14837KMSN MSN20011206184509612/06/01 18:45:31  5-MIN KMSN 070045Z 19005KT 10SM OVC060 07/M02 A2992 870 55 100 190/05 RMK AO2
14837KMSN MSN20011206185011312/06/01 18:50:31  5-MIN KMSN 070050Z 19005KT 10SM BKN060 07/M01 A2992 870 57 100 190/05 RMK AO2 SLP138 T00671011
14837KMSN MSN20011206185510312/06/01 18:55:31  5-MIN KMSN 070055Z 19004KT 10SM FEW044 OVC060 07/M01 A2992 870 57 100 190/04 RMK AO2
14837KMSN MSN20011206190010312/06/01 19:00:31  5-MIN KMSN 070100Z 20004KT 10SM FEW044 OVC060 07/M01 A2992 860 57 100 190/04 RMK AO2
14837KMSN MSN20011206190510312/06/01 19:05:31  5-MIN KMSN 070105Z 18005KT 10SM FEW044 OVC060 07/M01 A2992 870 57 100 180/05 RMK AO2
14837KMSN MSN20011206191010312/06/01 19:10:31  5-MIN KMSN 070110Z 18005KT 10SM FEW044 BKN060 07/M01 A2992 860 57 100 180/05 RMK AO2
14837KMSN MSN20011206191510112/06/01 19:15:31  5-MIN KMSN 070115Z 19005KT 10SM SCT044 BKN055 06/M01 A2992 870 60 0 180/05 RMK AO2
14837KMSN MSN20011206192010112/06/01 19:20:31  5-MIN KMSN 070120Z 19005KT 10SM SCT044 OVC055 06/M01 A2992 870 60 0 190/05 RMK AO2
14837KMSN MSN20011206192510112/06/01 19:25:31  5-MIN KMSN 070125Z 19004KT 10SM SCT044 OVC055 06/M01 A2992 870 62 0 190/04 RMK AO2
14837KMSN MSN20011206193010112/06/01 19:30:31  5-MIN KMSN 070130Z 19004KT 10SM BKN044 BKN055 06/M01 A2992 870 62 0 190/04 RMK AO2
14837KMSN MSN20011206193510312/06/01 19:35:31  5-MIN KMSN 070135Z 19005KT 10SM BKN044 BKN055 07/M01 A2992 870 57 100 190/05 RMK AO2
14837KMSN MSN20011206194010112/06/01 19:40:31  5-MIN KMSN 070140Z 19005KT 10SM BKN044 BKN055 06/M01 A2992 870 62 0 190/05 RMK AO2
14837KMSN MSN20011206194510112/06/01 19:45:31  5-MIN KMSN 070145Z 19005KT 10SM SCT044 BKN055 06/M01 A2992 870 62 0 190/05 RMK AO2
14837KMSN MSN20011206195011812/06/01 19:50:31  5-MIN KMSN 070150Z 19004KT 10SM SCT044 SCT055 06/M01 A2992 870 62 0 190/04 RMK AO2 SLP139 T00611006
14837KMSN MSN20011206195510112/06/01 19:55:31  5-MIN KMSN 070155Z 19005KT 10SM SCT044 BKN050 06/M01 A2992 870 62 0 190/05 RMK AO2
14837KMSN MSN20011206200009312/06/01 20:00:31  5-MIN KMSN 070200Z 21003KT 10SM BKN048 06/00 A2992 860 65 0 210/03 RMK AO2
14837KMSN MSN20011206200509412/06/01 20:05:31  5-MIN KMSN 070205Z 00000KT 10SM BKN048 05/M01 A2992 860 67 0 000/00 RMK AO2
14837KMSN MSN20011206201009412/06/01 20:10:31  5-MIN KMSN 070210Z 20003KT 10SM SCT048 05/M01 A2992 870 67 0 200/03 RMK AO2
14837KMSN MSN20011206201509312/06/01 20:15:31  5-MIN KMSN 070215Z 20004KT 10SM SCT048 06/00 A2992 870 67 0 200/04 RMK AO2
14837KMSN MSN20011206202009312/06/01 20:20:31  5-MIN KMSN 070220Z 22004KT 10SM FEW048 06/00 A2992 870 65 0 210/04 RMK AO2
14837KMSN MSN20011206202509312/06/01 20:25:31  5-MIN KMSN 070225Z 21004KT 10SM FEW049 06/00 A2992 870 67 0 210/04 RMK AO2
14837KMSN MSN20011206203009012/06/01 20:30:31  5-MIN KMSN 070230Z 21005KT 10SM CLR 06/00 A2992 870 67 0 210/05 RMK AO2
14837KMSN MSN20011206203509012/06/01 20:35:31  5-MIN KMSN 070235Z 22004KT 10SM CLR 05/01 A2992 860 73 0 210/04 RMK AO2
14837KMSN MSN20011206204009612/06/01 20:40:31  5-MIN KMSN 070240Z 21004KT 10SM FEW040 04/00 A2992 860 76 -200 210/04 RMK AO2
14837KMSN MSN20011206204509612/06/01 20:45:31  5-MIN KMSN 070245Z 00000KT 10SM FEW042 03/00 A2992 860 79 -300 000/00 RMK AO2
14837KMSN MSN20011206205011912/06/01 20:50:31  5-MIN KMSN 070250Z 00000KT 10SM SCT042 04/00 A2992 860 76 -200 000/00 RMK AO2 SLP141 T00390000 55002
14837KMSN MSN20011206205509612/06/01 20:55:31  5-MIN KMSN 070255Z 00000KT 10SM SCT042 04/00 A2993 860 76 -200 000/00 RMK AO2
14837KMSN MSN20011206210009612/06/01 21:00:31  5-MIN KMSN 070300Z VRB03KT 10SM SCT044 04/00 A2993 860 76 -200 VRB/03 RMK AO2
14837KMSN MSN20011206210509612/06/01 21:05:31  5-MIN KMSN 070305Z 27003KT 10SM SCT044 04/01 A2993 860 76 -100 270/03 RMK AO2
14837KMSN MSN20011206211009612/06/01 21:10:31  5-MIN KMSN 070310Z 29003KT 10SM FEW044 04/00 A2992 860 76 -200 290/03 RMK AO2
14837KMSN MSN20011206211509612/06/01 21:15:31  5-MIN KMSN 070315Z 26003KT 10SM FEW044 03/00 A2993 860 82 -300 260/03 RMK AO2
14837KMSN MSN20011206212009612/06/01 21:20:31  5-MIN KMSN 070320Z 26003KT 10SM FEW044 03/00 A2993 860 79 -300 260/03 RMK AO2
14837KMSN MSN20011206212509612/06/01 21:25:31  5-MIN KMSN 070325Z VRB03KT 10SM FEW044 03/00 A2993 860 82 -300 VRB/03 RMK AO2
14837KMSN MSN20011206213009612/06/01 21:30:31  5-MIN KMSN 070330Z 28003KT 10SM SCT044 02/00 A2993 850 85 -400 280/03 RMK AO2
14837KMSN MSN20011206213509712/06/01 21:35:31  5-MIN KMSN 070335Z 00000KT 10SM SCT044 02/M01 A2994 850 82 -400 000/00 RMK AO2
14837KMSN MSN20011206214009612/06/01 21:40:31  5-MIN KMSN 070340Z VRB03KT 10SM SCT044 03/00 A2994 850 79 -300 VRB/03 RMK AO2
14837KMSN MSN20011206214509712/06/01 21:45:31  5-MIN KMSN 070345Z VRB04KT 10SM FEW044 03/M01 A2994 850 76 -300 VRB/04 RMK AO2
14837KMSN MSN20011206215011412/06/01 21:50:31  5-MIN KMSN 070350Z 28004KT 10SM FEW044 04/M01 A2994 850 70 -200 280/04 RMK AO2 SLP145 T00391011
14837KMSN MSN20011206215509712/06/01 21:55:31  5-MIN KMSN 070355Z 29005KT 10SM FEW044 04/M01 A2994 850 70 -200 290/05 RMK AO2
14837KMSN MSN20011206220009412/06/01 22:00:31  5-MIN KMSN 070400Z 30005KT 10SM CLR 04/M01 A2994 850 70 -200 300/05 RMK AO2
14837KMSN MSN20011206220509412/06/01 22:05:31  5-MIN KMSN 070405Z 29004KT 10SM CLR 03/M01 A2994 840 72 -300 290/04 RMK AO2
14837KMSN MSN20011206221009412/06/01 22:10:31  5-MIN KMSN 070410Z 29003KT 10SM CLR 02/M01 A2994 840 78 -400 290/03 RMK AO2
14837KMSN MSN20011206221509412/06/01 22:15:31  5-MIN KMSN 070415Z 28003KT 10SM CLR 03/M01 A2994 840 75 -300 280/03 RMK AO2
14837KMSN MSN20011206222009412/06/01 22:20:31  5-MIN KMSN 070420Z 29004KT 10SM CLR 02/M01 A2995 840 82 -500 290/04 RMK AO2
14837KMSN MSN20011206222509412/06/01 22:25:31  5-MIN KMSN 070425Z 28004KT 10SM CLR 02/M01 A2996 830 82 -500 280/04 RMK AO2
14837KMSN MSN20011206223009412/06/01 22:30:31  5-MIN KMSN 070430Z 28004KT 10SM CLR 02/M01 A2996 830 78 -400 270/04 RMK AO2
14837KMSN MSN20011206223509412/06/01 22:35:31  5-MIN KMSN 070435Z 28004KT 10SM CLR 02/M01 A2996 830 78 -400 280/04 RMK AO2
14837KMSN MSN20011206224009412/06/01 22:40:31  5-MIN KMSN 070440Z 27003KT 10SM CLR 02/M01 A2996 830 82 -500 270/03 RMK AO2
14837KMSN MSN20011206224509412/06/01 22:45:31  5-MIN KMSN 070445Z 27004KT 10SM CLR 02/M01 A2996 820 82 -500 270/04 RMK AO2
14837KMSN MSN20011206225011112/06/01 22:50:31  5-MIN KMSN 070450Z 27004KT 10SM CLR 02/M01 A2997 820 82 -500 270/04 RMK AO2 SLP155 T00171011
14837KMSN MSN20011206225509412/06/01 22:55:31  5-MIN KMSN 070455Z 28004KT 10SM CLR 02/M01 A2997 820 82 -500 280/04 RMK AO2
14837KMSN MSN20011206230009412/06/01 23:00:31  5-MIN KMSN 070500Z 28004KT 10SM CLR 02/M01 A2997 820 82 -500 280/04 RMK AO2
14837KMSN MSN20011206230509412/06/01 23:05:31  5-MIN KMSN 070505Z 28005KT 10SM CLR 02/M01 A2997 820 78 -400 280/05 RMK AO2
14837KMSN MSN20011206231009412/06/01 23:10:31  5-MIN KMSN 070510Z 30005KT 10SM CLR 02/M01 A2997 820 78 -400 290/05 RMK AO2
14837KMSN MSN20011206231509412/06/01 23:15:31  5-MIN KMSN 070515Z 30006KT 10SM CLR 03/M01 A2997 820 75 -400 290/06 RMK AO2
14837KMSN MSN20011206232009412/06/01 23:20:31  5-MIN KMSN 070520Z 30006KT 10SM CLR 03/M01 A2997 820 79 -400 290/06 RMK AO2
14837KMSN MSN20011206232509412/06/01 23:25:31  5-MIN KMSN 070525Z 30005KT 10SM CLR 03/M01 A2997 820 76 -300 300/05 RMK AO2
14837KMSN MSN20011206233009412/06/01 23:30:31  5-MIN KMSN 070530Z 31006KT 10SM CLR 03/M01 A2997 820 79 -400 310/06 RMK AO2
14837KMSN MSN20011206233509412/06/01 23:35:31  5-MIN KMSN 070535Z 32007KT 10SM CLR 03/M01 A2998 810 79 -400 320/07 RMK AO2
14837KMSN MSN20011206234009412/06/01 23:40:31  5-MIN KMSN 070540Z 32007KT 10SM CLR 03/M01 A2998 810 72 -300 320/07 RMK AO2
14837KMSN MSN20011206234509412/06/01 23:45:31  5-MIN KMSN 070545Z 33007KT 10SM CLR 03/M01 A2998 810 75 -400 320/07 RMK AO2
14837KMSN MSN20011206235013912/06/01 23:50:31  5-MIN KMSN 070550Z 33006KT 10SM CLR 03/M01 A2998 810 75 -400 320/06 RMK AO2 SLP158 T00281011 10072 20017 400890011 53002
14837KMSN MSN20011206235509412/06/01 23:55:31  5-MIN KMSN 070555Z 33007KT 10SM CLR 03/M01 A2998 810 75 -400 330/07 RMK AO2
14837KMSN MSN20011207000009412/07/01 00:00:31  5-MIN KMSN 070600Z 33007KT 10SM CLR 03/M01 A2998 810 75 -400 330/07 RMK AO2
14837KMSN MSN20011207000509412/07/01 00:05:31  5-MIN KMSN 070605Z 33007KT 10SM CLR 03/M01 A2998 810 75 -400 330/07 RMK AO2
14837KMSN MSN20011207001009412/07/01 00:10:31  5-MIN KMSN 070610Z 33007KT 10SM CLR 03/M01 A2998 810 75 -400 330/07 RMK AO2
14837KMSN MSN20011207001509412/07/01 00:15:31  5-MIN KMSN 070615Z 33007KT 10SM CLR 03/M01 A2998 800 75 -400 330/07 RMK AO2
14837KMSN MSN20011207002009412/07/01 00:20:31  5-MIN KMSN 070620Z 33007KT 10SM CLR 02/M01 A2998 800 78 -500 330/07 RMK AO2
14837KMSN MSN20011207002509412/07/01 00:25:31  5-MIN KMSN 070625Z 33006KT 10SM CLR 02/M01 A2999 800 78 -500 330/06 RMK AO2
14837KMSN MSN20011207003009412/07/01 00:30:31  5-MIN KMSN 070630Z 33008KT 10SM CLR 03/M02 A2999 800 72 -400 330/08 RMK AO2
14837KMSN MSN20011207003509412/07/01 00:35:31  5-MIN KMSN 070635Z 33006KT 10SM CLR 02/M02 A2999 800 75 -500 330/06 RMK AO2
14837KMSN MSN20011207004009412/07/01 00:40:31  5-MIN KMSN 070640Z 34005KT 10SM CLR 02/M02 A2999 800 75 -500 340/05 RMK AO2
14837KMSN MSN20011207004509412/07/01 00:45:31  5-MIN KMSN 070645Z 33006KT 10SM CLR 02/M02 A2999 800 75 -500 330/06 RMK AO2
14837KMSN MSN20011207005011112/07/01 00:50:31  5-MIN KMSN 070650Z 32005KT 10SM CLR 02/M02 A2999 800 72 -500 320/05 RMK AO2 SLP162 T00221022
14837KMSN MSN20011207005509412/07/01 00:55:31  5-MIN KMSN 070655Z 31004KT 10SM CLR 02/M02 A2999 800 75 -500 310/04 RMK AO2
14837KMSN MSN20011207010009412/07/01 01:00:31  5-MIN KMSN 070700Z 32003KT 10SM CLR 02/M02 A2999 800 75 -500 320/03 RMK AO2
14837KMSN MSN20011207010509412/07/01 01:05:31  5-MIN KMSN 070705Z 32003KT 10SM CLR 02/M02 A2999 800 75 -500 320/03 RMK AO2
14837KMSN MSN20011207011009412/07/01 01:10:31  5-MIN KMSN 070710Z VRB03KT 10SM CLR 02/M02 A2999 800 75 -500 VRB/03 RMK AO2
14837KMSN MSN20011207011509412/07/01 01:15:31  5-MIN KMSN 070715Z 00000KT 10SM CLR 01/M02 A3000 790 78 -600 000/00 RMK AO2
14837KMSN MSN20011207012009412/07/01 01:20:31  5-MIN KMSN 070720Z 00000KT 10SM CLR 01/M02 A3000 790 78 -600 000/00 RMK AO2
14837KMSN MSN20011207012509412/07/01 01:25:31  5-MIN KMSN 070725Z 00000KT 10SM CLR 01/M02 A3000 790 78 -600 000/00 RMK AO2
14837KMSN MSN20011207013009412/07/01 01:30:31  5-MIN KMSN 070730Z 00000KT 10SM CLR 01/M03 A3000 790 75 -600 000/00 RMK AO2
14837KMSN MSN20011207013509412/07/01 01:35:31  5-MIN KMSN 070735Z 00000KT 10SM CLR 01/M02 A3001 780 78 -600 000/00 RMK AO2
14837KMSN MSN20011207014009412/07/01 01:40:31  5-MIN KMSN 070740Z 00000KT 10SM CLR 01/M03 A3001 780 78 -700 000/00 RMK AO2
14837KMSN MSN20011207014509412/07/01 01:45:31  5-MIN KMSN 070745Z 00000KT 10SM CLR 01/M02 A3001 780 82 -700 000/00 RMK AO2
14837KMSN MSN20011207015011112/07/01 01:50:31  5-MIN KMSN 070750Z 00000KT 10SM CLR 00/M02 A3002 780 85 -800 000/00 RMK AO2 SLP171 T00001022
14837KMSN MSN20011207015509512/07/01 01:55:31  5-MIN KMSN 070755Z 29003KT 10SM CLR M01/M03 A3002 770 85 -900 290/03 RMK AO2
14837KMSN MSN20011207020009412/07/01 02:00:31  5-MIN KMSN 070800Z 00000KT 10SM CLR 00/M03 A3002 770 81 -800 000/00 RMK AO2
14837KMSN MSN20011207020509512/07/01 02:05:31  5-MIN KMSN 070805Z 00000KT 10SM CLR M01/M03 A3002 770 88 -900 000/00 RMK AO2
14837KMSN MSN20011207021009512/07/01 02:10:31  5-MIN KMSN 070810Z 28003KT 10SM CLR M01/M03 A3003 760 88 -900 280/03 RMK AO2
14837KMSN MSN20011207021509512/07/01 02:15:31  5-MIN KMSN 070815Z 29003KT 10SM CLR M01/M03 A3003 760 88 -900 290/03 RMK AO2
14837KMSN MSN20011207022009512/07/01 02:20:31  5-MIN KMSN 070820Z 30003KT 10SM CLR M01/M03 A3003 760 88 -900 300/03 RMK AO2
14837KMSN MSN20011207022509512/07/01 02:25:31  5-MIN KMSN 070825Z 30003KT 10SM CLR M01/M03 A3004 760 88 -900 300/03 RMK AO2
14837KMSN MSN20011207023009612/07/01 02:30:31  5-MIN KMSN 070830Z 29003KT 10SM CLR M02/M03 A3004 750 88 -1000 290/03 RMK AO2
14837KMSN MSN20011207023509512/07/01 02:35:31  5-MIN KMSN 070835Z 28003KT 10SM CLR M01/M03 A3004 750 88 -900 280/03 RMK AO2
14837KMSN MSN20011207024009512/07/01 02:40:31  5-MIN KMSN 070840Z 29003KT 10SM CLR M01/M03 A3004 750 88 -900 290/03 RMK AO2
14837KMSN MSN20011207024509612/07/01 02:45:31  5-MIN KMSN 070845Z 29003KT 10SM CLR M02/M03 A3004 750 92 -1000 290/03 RMK AO2
14837KMSN MSN20011207025011912/07/01 02:50:31  5-MIN KMSN 070850Z 29003KT 10SM CLR M02/M03 A3005 750 88 -1000 290/03 RMK AO2 SLP182 T10171033 51018
14837KMSN MSN20011207025509612/07/01 02:55:31  5-MIN KMSN 070855Z 29003KT 10SM CLR M02/M03 A3005 750 88 -1000 290/03 RMK AO2
14837KMSN MSN20011207030009612/07/01 03:00:31  5-MIN KMSN 070900Z 29003KT 10SM CLR M02/M03 A3005 750 88 -1000 290/03 RMK AO2
14837KMSN MSN20011207030509612/07/01 03:05:31  5-MIN KMSN 070905Z 30004KT 10SM CLR M02/M03 A3005 740 92 -1000 300/04 RMK AO2
14837KMSN MSN20011207031009612/07/01 03:10:31  5-MIN KMSN 070910Z 31004KT 10SM CLR M01/M03 A3005 750 88 -1000 310/04 RMK AO2
14837KMSN MSN20011207031509512/07/01 03:15:31  5-MIN KMSN 070915Z 31005KT 10SM CLR M01/M03 A3005 750 85 -900 310/05 RMK AO2
14837KMSN MSN20011207032009512/07/01 03:20:31  5-MIN KMSN 070920Z 31004KT 10SM CLR M01/M03 A3005 750 85 -900 310/04 RMK AO2
14837KMSN MSN20011207032509512/07/01 03:25:31  5-MIN KMSN 070925Z 31004KT 10SM CLR M01/M03 A3005 750 85 -900 300/04 RMK AO2
14837KMSN MSN20011207033009512/07/01 03:30:31  5-MIN KMSN 070930Z 31005KT 10SM CLR M01/M03 A3005 750 85 -900 310/05 RMK AO2
14837KMSN MSN20011207033509512/07/01 03:35:31  5-MIN KMSN 070935Z 31005KT 10SM CLR M01/M03 A3005 750 85 -900 310/05 RMK AO2
14837KMSN MSN20011207034009512/07/01 03:40:31  5-MIN KMSN 070940Z 32004KT 10SM CLR M01/M03 A3005 740 85 -900 320/04 RMK AO2
14837KMSN MSN20011207034509612/07/01 03:45:31  5-MIN KMSN 070945Z 32004KT 10SM CLR M01/M03 A3005 740 88 -1000 320/04 RMK AO2
14837KMSN MSN20011207035011312/07/01 03:50:31  5-MIN KMSN 070950Z 32004KT 10SM CLR M01/M03 A3005 740 88 -1000 320/04 RMK AO2 SLP184 T10111028
14837KMSN MSN20011207035509612/07/01 03:55:31  5-MIN KMSN 070955Z 32003KT 10SM CLR M01/M03 A3006 740 88 -1000 310/03 RMK AO2
14837KMSN MSN20011207040009512/07/01 04:00:31  5-MIN KMSN 071000Z 31003KT 10SM CLR M01/M03 A3006 740 85 -900 310/03 RMK AO2
14837KMSN MSN20011207040509612/07/01 04:05:31  5-MIN KMSN 071005Z 00000KT 10SM CLR M01/M03 A3006 740 88 -1000 000/00 RMK AO2
14837KMSN MSN20011207041009612/07/01 04:10:31  5-MIN KMSN 071010Z 00000KT 10SM CLR M01/M03 A3006 740 85 -1000 000/00 RMK AO2
14837KMSN MSN20011207041509612/07/01 04:15:31  5-MIN KMSN 071015Z 00000KT 10SM CLR M02/M04 A3006 730 85 -1100 000/00 RMK AO2
14837KMSN MSN20011207042009612/07/01 04:20:31  5-MIN KMSN 071020Z 00000KT 10SM CLR M02/M04 A3006 730 88 -1100 000/00 RMK AO2
14837KMSN MSN20011207042509612/07/01 04:25:31  5-MIN KMSN 071025Z 00000KT 10SM CLR M02/M04 A3006 740 88 -1100 000/00 RMK AO2
14837KMSN MSN20011207043009612/07/01 04:30:31  5-MIN KMSN 071030Z 00000KT 10SM CLR M02/M03 A3006 730 88 -1000 000/00 RMK AO2
14837KMSN MSN20011207043509612/07/01 04:35:31  5-MIN KMSN 071035Z 00000KT 10SM CLR M02/M03 A3006 730 88 -1000 000/00 RMK AO2
14837KMSN MSN20011207044009612/07/01 04:40:31  5-MIN KMSN 071040Z 00000KT 10SM CLR M01/M03 A3007 730 88 -1000 000/00 RMK AO2
14837KMSN MSN20011207044509612/07/01 04:45:31  5-MIN KMSN 071045Z 00000KT 10SM CLR M01/M03 A3007 730 88 -1000 000/00 RMK AO2
14837KMSN MSN20011207045011312/07/01 04:50:31  5-MIN KMSN 071050Z 00000KT 10SM CLR M01/M03 A3007 720 85 -1000 000/00 RMK AO2 SLP191 T10111033
14837KMSN MSN20011207045509612/07/01 04:55:31  5-MIN KMSN 071055Z 00000KT 10SM CLR M02/M04 A3008 720 88 -1100 000/00 RMK AO2
14837KMSN MSN20011207050009612/07/01 05:00:31  5-MIN KMSN 071100Z 33003KT 10SM CLR M03/M04 A3008 710 92 -1200 320/03 RMK AO2
14837KMSN MSN20011207050509612/07/01 05:05:31  5-MIN KMSN 071105Z 00000KT 10SM CLR M02/M04 A3009 710 88 -1100 000/00 RMK AO2
14837KMSN MSN20011207051009612/07/01 05:10:31  5-MIN KMSN 071110Z 31003KT 10SM CLR M03/M04 A3009 710 92 -1200 310/03 RMK AO2
14837KMSN MSN20011207051509612/07/01 05:15:31  5-MIN KMSN 071115Z 31004KT 10SM CLR M03/M04 A3009 700 92 -1300 310/04 RMK AO2
14837KMSN MSN20011207143009712/07/01 14:30:31  5-MIN KMSN 072030Z 08007KT 10SM SCT100 04/M02 A3013 670 62 -400 080/07 RMK AO2
14837KMSN MSN20011207143509712/07/01 14:35:31  5-MIN KMSN 072035Z 07006KT 10SM SCT100 04/M02 A3013 670 62 -400 070/06 RMK AO2
14837KMSN MSN20011207144009712/07/01 14:40:31  5-MIN KMSN 072040Z 07008KT 10SM SCT100 04/M02 A3013 670 64 -400 070/08 RMK AO2
14837KMSN MSN20011207144509712/07/01 14:45:31  5-MIN KMSN 072045Z 08007KT 10SM SCT100 05/M02 A3013 670 62 -300 080/07 RMK AO2
14837KMSN MSN20011207145012012/07/01 14:50:31  5-MIN KMSN 072050Z 06008KT 10SM SCT100 05/M02 A3013 670 62 -300 060/08 RMK AO2 SLP211 T00501017 58007
14837KMSN MSN20011207145509712/07/01 14:55:31  5-MIN KMSN 072055Z 06008KT 10SM BKN110 05/M02 A3013 670 62 -300 060/08 RMK AO2
14837KMSN MSN20011207150009712/07/01 15:00:31  5-MIN KMSN 072100Z 06008KT 10SM BKN110 05/M02 A3013 670 62 -300 060/08 RMK AO2
14837KMSN MSN20011207150509712/07/01 15:05:31  5-MIN KMSN 072105Z 06007KT 10SM BKN110 04/M02 A3013 670 64 -400 060/07 RMK AO2
14837KMSN MSN20011207151009712/07/01 15:10:31  5-MIN KMSN 072110Z 06008KT 10SM BKN110 04/M01 A3013 670 67 -400 060/08 RMK AO2
14837KMSN MSN20011207151509712/07/01 15:15:31  5-MIN KMSN 072115Z 07008KT 10SM BKN110 05/M01 A3013 670 64 -300 070/08 RMK AO2
14837KMSN MSN20011207152009712/07/01 15:20:31  5-MIN KMSN 072120Z 07008KT 10SM BKN110 05/M01 A3013 670 64 -300 070/08 RMK AO2
14837KMSN MSN20011207152509712/07/01 15:25:31  5-MIN KMSN 072125Z 06008KT 10SM BKN110 04/M02 A3013 670 64 -400 060/08 RMK AO2
14837KMSN MSN20011207153009712/07/01 15:30:31  5-MIN KMSN 072130Z 06007KT 10SM BKN100 04/M02 A3013 670 64 -400 060/07 RMK AO2
14837KMSN MSN20011207153509712/07/01 15:35:31  5-MIN KMSN 072135Z 06006KT 10SM SCT100 04/M02 A3014 660 67 -400 050/06 RMK AO2
14837KMSN MSN20011207154009712/07/01 15:40:31  5-MIN KMSN 072140Z 07004KT 10SM SCT100 04/M02 A3014 660 67 -400 070/04 RMK AO2
14837KMSN MSN20011207154509712/07/01 15:45:31  5-MIN KMSN 072145Z 07006KT 10SM SCT100 04/M01 A3014 660 70 -400 060/06 RMK AO2
14837KMSN MSN20011207155011412/07/01 15:50:31  5-MIN KMSN 072150Z 07006KT 10SM BKN100 04/M01 A3014 660 70 -400 060/06 RMK AO2 SLP215 T00391011
14837KMSN MSN20011207155509712/07/01 15:55:31  5-MIN KMSN 072155Z 06006KT 10SM OVC100 03/M02 A3014 660 70 -500 060/06 RMK AO2
14837KMSN MSN20011207160009712/07/01 16:00:31  5-MIN KMSN 072200Z 05006KT 10SM BKN100 03/M02 A3014 660 70 -500 050/06 RMK AO2
14837KMSN MSN20011207160509712/07/01 16:05:31  5-MIN KMSN 072205Z 05005KT 10SM BKN100 03/M02 A3015 650 69 -600 050/05 RMK AO2
14837KMSN MSN20011207161009712/07/01 16:10:31  5-MIN KMSN 072210Z 04006KT 10SM BKN100 03/M02 A3015 660 69 -600 040/06 RMK AO2
14837KMSN MSN20011207161509712/07/01 16:15:31  5-MIN KMSN 072215Z 04006KT 10SM BKN100 02/M02 A3014 660 75 -600 040/06 RMK AO2
14837KMSN MSN20011207162009712/07/01 16:20:31  5-MIN KMSN 072220Z 03006KT 10SM BKN100 02/M02 A3014 660 75 -600 030/06 RMK AO2
14837KMSN MSN20011207162509712/07/01 16:25:31  5-MIN KMSN 072225Z 03007KT 10SM BKN100 02/M02 A3014 660 72 -600 030/07 RMK AO2
14837KMSN MSN20011207163009712/07/01 16:30:31  5-MIN KMSN 072230Z 03006KT 10SM BKN100 02/M02 A3014 660 72 -600 030/06 RMK AO2
14837KMSN MSN20011207163509712/07/01 16:35:31  5-MIN KMSN 072235Z 03007KT 10SM BKN100 03/M02 A3014 660 69 -600 030/07 RMK AO2
14837KMSN MSN20011207164009712/07/01 16:40:31  5-MIN KMSN 072240Z 03007KT 10SM BKN100 03/M02 A3014 660 67 -500 030/07 RMK AO2
14837KMSN MSN20011207164509712/07/01 16:45:31  5-MIN KMSN 072245Z 03006KT 10SM BKN100 03/M02 A3015 660 67 -500 030/06 RMK AO2
14837KMSN MSN20011207165011412/07/01 16:50:31  5-MIN KMSN 072250Z 02007KT 10SM BKN100 03/M02 A3015 660 67 -500 020/07 RMK AO2 SLP217 T00331022
14837KMSN MSN20011207165510412/07/01 16:55:31  5-MIN KMSN 072255Z 03007KT 10SM BKN080 OVC100 03/M02 A3015 660 67 -500 020/07 RMK AO2
14837KMSN MSN20011207170010412/07/01 17:00:31  5-MIN KMSN 072300Z 02006KT 10SM BKN070 OVC095 03/M02 A3015 650 67 -500 020/06 RMK AO2
14837KMSN MSN20011207170510412/07/01 17:05:31  5-MIN KMSN 072305Z 02006KT 10SM BKN070 OVC090 03/M02 A3015 650 67 -500 020/06 RMK AO2
14837KMSN MSN20011207171010412/07/01 17:10:31  5-MIN KMSN 072310Z 02004KT 10SM BKN065 OVC090 03/M02 A3015 650 67 -500 020/04 RMK AO2
14837KMSN MSN20011207171509712/07/01 17:15:31  5-MIN KMSN 072315Z 03004KT 10SM OVC065 03/M02 A3016 650 69 -600 030/04 RMK AO2
14837KMSN MSN20011207172009712/07/01 17:20:31  5-MIN KMSN 072320Z 03005KT 10SM OVC065 03/M02 A3016 650 69 -600 030/05 RMK AO2
14837KMSN MSN20011207172509712/07/01 17:25:31  5-MIN KMSN 072325Z 04005KT 10SM OVC065 03/M02 A3015 650 69 -600 030/05 RMK AO2
14837KMSN MSN20011207173009712/07/01 17:30:31  5-MIN KMSN 072330Z 05004KT 10SM OVC070 03/M02 A3016 650 69 -600 040/04 RMK AO2
14837KMSN MSN20011207173509712/07/01 17:35:31  5-MIN KMSN 072335Z 03003KT 10SM OVC070 03/M02 A3016 640 69 -600 030/03 RMK AO2
14837KMSN MSN20011207174009712/07/01 17:40:31  5-MIN KMSN 072340Z 03004KT 10SM OVC070 03/M02 A3016 640 69 -600 030/04 RMK AO2
14837KMSN MSN20011207174509712/07/01 17:45:31  5-MIN KMSN 072345Z 04004KT 10SM OVC070 03/M02 A3016 640 69 -600 040/04 RMK AO2
14837KMSN MSN20011207175013212/07/01 17:50:31  5-MIN KMSN 072350Z 05004KT 10SM OVC070 03/M02 A3016 650 72 -600 050/04 RMK AO2 SLP221 T00281017 10056 20022 56004
14837KMSN MSN20011207175509712/07/01 17:55:31  5-MIN KMSN 072355Z 07004KT 10SM OVC070 03/M02 A3016 650 72 -600 070/04 RMK AO2
14837KMSN MSN20011207180009712/07/01 18:00:31  5-MIN KMSN 080000Z 06004KT 10SM OVC070 03/M01 A3016 650 75 -600 060/04 RMK AO2
14837KMSN MSN20011207180509712/07/01 18:05:31  5-MIN KMSN 080005Z 05003KT 10SM OVC070 03/M01 A3016 640 75 -600 050/03 RMK AO2
14837KMSN MSN20011207181010412/07/01 18:10:31  5-MIN KMSN 080010Z 05003KT 10SM BKN070 OVC100 03/M01 A3016 640 75 -600 050/03 RMK AO2
14837KMSN MSN20011207181510412/07/01 18:15:31  5-MIN KMSN 080015Z 04003KT 10SM BKN070 OVC100 03/M01 A3016 640 75 -600 040/03 RMK AO2
14837KMSN MSN20011207182010412/07/01 18:20:31  5-MIN KMSN 080020Z 04003KT 10SM BKN075 OVC100 03/M01 A3016 640 75 -600 040/03 RMK AO2
14837KMSN MSN20011207182510412/07/01 18:25:31  5-MIN KMSN 080025Z 06003KT 10SM SCT080 OVC100 03/M01 A3016 640 75 -600 050/03 RMK AO2
14837KMSN MSN20011207183010412/07/01 18:30:31  5-MIN KMSN 080030Z 00000KT 10SM BKN090 OVC100 02/M01 A3016 640 78 -700 000/00 RMK AO2
14837KMSN MSN20011207183510412/07/01 18:35:31  5-MIN KMSN 080035Z 00000KT 10SM BKN080 OVC100 03/M02 A3016 640 72 -600 000/00 RMK AO2
14837KMSN MSN20011207184010412/07/01 18:40:31  5-MIN KMSN 080040Z 07003KT 10SM BKN070 OVC100 03/M02 A3016 640 72 -600 070/03 RMK AO2
14837KMSN MSN20011207184510412/07/01 18:45:31  5-MIN KMSN 080045Z 05003KT 10SM BKN070 OVC100 03/M02 A3016 640 72 -600 050/03 RMK AO2
14837KMSN MSN20011207185012112/07/01 18:50:31  5-MIN KMSN 080050Z 09003KT 10SM BKN070 OVC100 03/M02 A3017 640 72 -600 090/03 RMK AO2 SLP225 T00281017
14837KMSN MSN20011207185510412/07/01 18:55:31  5-MIN KMSN 080055Z 10004KT 10SM BKN070 OVC095 03/M02 A3017 630 72 -600 100/04 RMK AO2
14837KMSN MSN20011207190010412/07/01 19:00:31  5-MIN KMSN 080100Z 11005KT 10SM BKN070 OVC095 03/M02 A3017 630 72 -600 110/05 RMK AO2
14837KMSN MSN20011207190510412/07/01 19:05:31  5-MIN KMSN 080105Z 12005KT 10SM BKN070 OVC090 03/M02 A3017 630 72 -600 110/05 RMK AO2
14837KMSN MSN20011207191011112/07/01 19:10:31  5-MIN KMSN 080110Z 12005KT 10SM FEW055 BKN075 OVC095 03/M01 A3018 630 75 -600 120/05 RMK AO2
14837KMSN MSN20011207191511112/07/01 19:15:31  5-MIN KMSN 080115Z 13006KT 10SM FEW060 BKN075 OVC095 03/M02 A3018 630 72 -600 130/06 RMK AO2
14837KMSN MSN20011207192011112/07/01 19:20:31  5-MIN KMSN 080120Z 13005KT 10SM FEW055 BKN075 OVC095 03/M02 A3018 630 72 -600 130/05 RMK AO2
14837KMSN MSN20011207192511112/07/01 19:25:31  5-MIN KMSN 080125Z 13005KT 10SM FEW055 BKN070 OVC090 03/M02 A3018 630 72 -600 130/05 RMK AO2
14837KMSN MSN20011207193010412/07/01 19:30:31  5-MIN KMSN 080130Z 14005KT 10SM BKN060 OVC075 03/M02 A3018 620 72 -600 140/05 RMK AO2
14837KMSN MSN20011207193510412/07/01 19:35:31  5-MIN KMSN 080135Z 15005KT 10SM BKN060 OVC075 03/M02 A3018 620 72 -600 150/05 RMK AO2
14837KMSN MSN20011207194010412/07/01 19:40:31  5-MIN KMSN 080140Z 15006KT 10SM BKN060 OVC080 03/M02 A3018 620 72 -600 140/06 RMK AO2
14837KMSN MSN20011207194510412/07/01 19:45:31  5-MIN KMSN 080145Z 14005KT 10SM BKN060 OVC080 03/M02 A3018 620 72 -600 140/05 RMK AO2
14837KMSN MSN20011207195012112/07/01 19:50:31  5-MIN KMSN 080150Z 12004KT 10SM BKN060 OVC080 03/M02 A3018 620 72 -600 110/04 RMK AO2 SLP230 T00281017
14837KMSN MSN20011207195510412/07/01 19:55:31  5-MIN KMSN 080155Z 13004KT 10SM BKN060 OVC075 03/M01 A3018 620 75 -600 130/04 RMK AO2
14837KMSN MSN20011207200010412/07/01 20:00:31  5-MIN KMSN 080200Z 13005KT 10SM BKN060 OVC075 03/M01 A3018 630 75 -600 130/05 RMK AO2
14837KMSN MSN20011207200510412/07/01 20:05:31  5-MIN KMSN 080205Z 11004KT 10SM BKN060 OVC075 03/M01 A3018 630 75 -600 110/04 RMK AO2
14837KMSN MSN20011207201010412/07/01 20:10:31  5-MIN KMSN 080210Z 11004KT 10SM BKN060 OVC075 03/M01 A3017 630 75 -600 110/04 RMK AO2
14837KMSN MSN20011207201510412/07/01 20:15:31  5-MIN KMSN 080215Z 12006KT 10SM SCT055 OVC070 03/M01 A3017 630 75 -600 120/06 RMK AO2
14837KMSN MSN20011207202010412/07/01 20:20:31  5-MIN KMSN 080220Z 12005KT 10SM BKN050 OVC070 03/M01 A3017 630 75 -600 110/05 RMK AO2
14837KMSN MSN20011207202511112/07/01 20:25:31  5-MIN KMSN 080225Z 11005KT 10SM SCT048 BKN060 OVC075 03/M01 A3017 630 75 -600 110/05 RMK AO2
14837KMSN MSN20011207203010412/07/01 20:30:31  5-MIN KMSN 080230Z 11006KT 10SM SCT048 OVC060 03/M01 A3017 630 75 -600 110/06 RMK AO2
14837KMSN MSN20011207203511112/07/01 20:35:31  5-MIN KMSN 080235Z 11006KT 10SM SCT049 BKN060 OVC075 03/M01 A3017 630 75 -600 110/06 RMK AO2
14837KMSN MSN20011207204011112/07/01 20:40:31  5-MIN KMSN 080240Z 10005KT 10SM FEW049 BKN060 OVC070 03/M01 A3017 640 75 -600 100/05 RMK AO2
14837KMSN MSN20011207204511112/07/01 20:45:31  5-MIN KMSN 080245Z 10005KT 10SM SCT049 BKN060 OVC070 03/M01 A3017 640 75 -600 100/05 RMK AO2
14837KMSN MSN20011207205012712/07/01 20:50:31  5-MIN KMSN 080250Z 05004KT 10SM BKN055 OVC070 03/M01 A3017 640 75 -600 050/04 RMK AO2 SLP224 T00281011 51010
14837KMSN MSN20011207205510412/07/01 20:55:31  5-MIN KMSN 080255Z 06005KT 10SM BKN060 OVC070 02/M01 A3017 640 78 -700 060/05 RMK AO2
14837KMSN MSN20011207210011112/07/01 21:00:31  5-MIN KMSN 080300Z 07005KT 10SM SCT045 BKN060 OVC070 02/M01 A3016 640 78 -700 070/05 RMK AO2
14837KMSN MSN20011207210511112/07/01 21:05:31  5-MIN KMSN 080305Z 10005KT 10SM SCT043 BKN050 OVC065 02/M01 A3016 640 78 -700 090/05 RMK AO2
14837KMSN MSN20011207211011112/07/01 21:10:31  5-MIN KMSN 080310Z 10004KT 10SM BKN041 BKN050 OVC065 02/M01 A3016 640 82 -700 100/04 RMK AO2
14837KMSN MSN20011207211511112/07/01 21:15:31  5-MIN KMSN 080315Z 11004KT 10SM BKN041 BKN048 OVC070 02/M01 A3016 640 78 -700 110/04 RMK AO2
14837KMSN MSN20011207212011112/07/01 21:20:31  5-MIN KMSN 080320Z 11004KT 10SM BKN048 BKN060 OVC070 02/M02 A3016 640 75 -700 110/04 RMK AO2
14837KMSN MSN20011207212511112/07/01 21:25:31  5-MIN KMSN 080325Z 10004KT 10SM FEW049 BKN060 OVC080 02/M02 A3016 640 75 -700 100/04 RMK AO2
14837KMSN MSN20011207213011112/07/01 21:30:31  5-MIN KMSN 080330Z 08005KT 10SM FEW049 BKN065 OVC085 02/M02 A3016 640 75 -700 080/05 RMK AO2
14837KMSN MSN20011207213511112/07/01 21:35:31  5-MIN KMSN 080335Z 06005KT 10SM FEW049 BKN065 OVC085 02/M02 A3016 640 75 -700 060/05 RMK AO2
14837KMSN MSN20011207214011112/07/01 21:40:31  5-MIN KMSN 080340Z 08005KT 10SM FEW035 BKN070 OVC085 02/M02 A3016 640 78 -700 070/05 RMK AO2
14837KMSN MSN20011207214511112/07/01 21:45:31  5-MIN KMSN 080345Z 07005KT 10SM FEW035 BKN070 OVC085 02/M02 A3016 650 75 -700 060/05 RMK AO2
14837KMSN MSN20011207215012812/07/01 21:50:31  5-MIN KMSN 080350Z 07004KT 10SM FEW035 BKN070 OVC085 02/M02 A3016 650 78 -700 070/04 RMK AO2 SLP221 T00171017
14837KMSN MSN20011207215511112/07/01 21:55:31  5-MIN KMSN 080355Z 08004KT 10SM FEW035 SCT065 BKN080 02/M01 A3015 650 82 -700 080/04 RMK AO2
14837KMSN MSN20011207220010412/07/01 22:00:31  5-MIN KMSN 080400Z 07004KT 10SM FEW035 BKN080 02/M01 A3015 650 82 -700 070/04 RMK AO2
14837KMSN MSN20011207220510412/07/01 22:05:31  5-MIN KMSN 080405Z 07004KT 10SM FEW035 OVC080 02/M02 A3015 650 78 -700 070/04 RMK AO2
14837KMSN MSN20011207221009712/07/01 22:10:31  5-MIN KMSN 080410Z 06003KT 10SM BKN080 02/M01 A3015 650 82 -700 060/03 RMK AO2
14837KMSN MSN20011207221509712/07/01 22:15:31  5-MIN KMSN 080415Z 06003KT 10SM OVC080 02/M01 A3015 650 82 -700 060/03 RMK AO2
14837KMSN MSN20011207222009712/07/01 22:20:31  5-MIN KMSN 080420Z 10003KT 10SM OVC080 02/M01 A3015 650 82 -700 100/03 RMK AO2
14837KMSN MSN20011207222509712/07/01 22:25:31  5-MIN KMSN 080425Z 11005KT 10SM OVC080 02/M01 A3014 660 82 -700 110/05 RMK AO2
14837KMSN MSN20011207223009712/07/01 22:30:31  5-MIN KMSN 080430Z 12004KT 10SM OVC080 02/M01 A3014 660 82 -700 120/04 RMK AO2
14837KMSN MSN20011207223509712/07/01 22:35:31  5-MIN KMSN 080435Z 11004KT 10SM OVC080 02/M01 A3014 660 82 -700 110/04 RMK AO2
14837KMSN MSN20011207224009712/07/01 22:40:31  5-MIN KMSN 080440Z 10003KT 10SM OVC080 02/M01 A3014 660 82 -700 100/03 RMK AO2
14837KMSN MSN20011207224509712/07/01 22:45:31  5-MIN KMSN 080445Z 00000KT 10SM OVC080 02/M01 A3015 660 78 -600 000/00 RMK AO2
14837KMSN MSN20011207225011412/07/01 22:50:31  5-MIN KMSN 080450Z 00000KT 10SM OVC080 02/M01 A3015 660 78 -600 000/00 RMK AO2 SLP217 T00221011
14837KMSN MSN20011207225509712/07/01 22:55:31  5-MIN KMSN 080455Z 00000KT 10SM OVC080 01/M01 A3015 660 85 -800 000/00 RMK AO2
14837KMSN MSN20011207230009712/07/01 23:00:31  5-MIN KMSN 080500Z 00000KT 10SM OVC080 02/M01 A3014 660 82 -700 000/00 RMK AO2
14837KMSN MSN20011207230509712/07/01 23:05:31  5-MIN KMSN 080505Z 10003KT 10SM OVC080 02/M01 A3013 670 82 -700 100/03 RMK AO2
14837KMSN MSN20011207231009712/07/01 23:10:31  5-MIN KMSN 080510Z 11005KT 10SM BKN080 01/M01 A3013 670 85 -800 110/05 RMK AO2
14837KMSN MSN20011207231509712/07/01 23:15:31  5-MIN KMSN 080515Z 10004KT 10SM BKN080 01/M01 A3013 670 85 -800 100/04 RMK AO2
14837KMSN MSN20011207232010412/07/01 23:20:31  5-MIN KMSN 080520Z VRB03KT 10SM BKN080 BKN095 02/M01 A3013 670 82 -700 VRB/03 RMK AO2
14837KMSN MSN20011207232510412/07/01 23:25:31  5-MIN KMSN 080525Z 12004KT 10SM BKN080 BKN095 02/M01 A3013 670 82 -700 120/04 RMK AO2
14837KMSN MSN20011207233010412/07/01 23:30:31  5-MIN KMSN 080530Z 12005KT 10SM BKN080 BKN100 02/M01 A3013 670 82 -700 120/05 RMK AO2
14837KMSN MSN20011207233510412/07/01 23:35:31  5-MIN KMSN 080535Z 13003KT 10SM BKN080 OVC095 02/M01 A3013 670 82 -700 130/03 RMK AO2
14837KMSN MSN20011207234009712/07/01 23:40:31  5-MIN KMSN 080540Z 14004KT 10SM OVC080 02/M01 A3013 670 82 -700 140/04 RMK AO2
14837KMSN MSN20011207234510412/07/01 23:45:31  5-MIN KMSN 080545Z 12005KT 10SM BKN080 OVC095 02/M01 A3013 670 82 -700 120/05 RMK AO2
14837KMSN MSN20011207235014912/07/01 23:50:31  5-MIN KMSN 080550Z 12006KT 10SM BKN075 OVC090 02/M01 A3013 670 82 -700 120/06 RMK AO2 SLP210 T00171011 10033 20011 400561033 50003
14837KMSN MSN20011207235510412/07/01 23:55:31  5-MIN KMSN 080555Z 14005KT 10SM BKN075 OVC090 02/M01 A3013 670 82 -700 140/05 RMK AO2
14837KMSN MSN20011208000010412/08/01 00:00:31  5-MIN KMSN 080600Z 13006KT 10SM BKN075 OVC090 02/M01 A3013 670 82 -700 130/06 RMK AO2
14837KMSN MSN20011208000510412/08/01 00:05:31  5-MIN KMSN 080605Z 13004KT 10SM BKN070 OVC090 02/M01 A3012 680 82 -700 130/04 RMK AO2
14837KMSN MSN20011208001010412/08/01 00:10:31  5-MIN KMSN 080610Z 13006KT 10SM BKN065 OVC090 02/M01 A3012 680 82 -700 130/06 RMK AO2
14837KMSN MSN20011208001510412/08/01 00:15:31  5-MIN KMSN 080615Z 13006KT 10SM BKN065 OVC090 02/M01 A3012 680 82 -700 130/06 RMK AO2
14837KMSN MSN20011208002010412/08/01 00:20:31  5-MIN KMSN 080620Z 13006KT 10SM BKN065 OVC090 02/M01 A3011 690 82 -700 130/06 RMK AO2
14837KMSN MSN20011208002510412/08/01 00:25:31  5-MIN KMSN 080625Z 13006KT 10SM SCT060 OVC090 02/M01 A3011 690 82 -700 130/06 RMK AO2
14837KMSN MSN20011208003010412/08/01 00:30:31  5-MIN KMSN 080630Z 15006KT 10SM SCT060 OVC090 02/M01 A3011 690 82 -700 150/06 RMK AO2
14837KMSN MSN20011208003511112/08/01 00:35:31  5-MIN KMSN 080635Z 15006KT 10SM FEW060 BKN080 OVC095 02/M01 A3011 680 78 -600 150/06 RMK AO2
14837KMSN MSN20011208004010412/08/01 00:40:31  5-MIN KMSN 080640Z 19005KT 10SM BKN070 OVC090 02/M01 A3012 680 78 -600 180/05 RMK AO2
14837KMSN MSN20011208004511112/08/01 00:45:31  5-MIN KMSN 080645Z 17006KT 10SM FEW060 BKN070 OVC090 02/M01 A3012 680 78 -600 170/06 RMK AO2
14837KMSN MSN20011208005012812/08/01 00:50:31  5-MIN KMSN 080650Z 17006KT 10SM FEW039 BKN060 OVC090 02/M01 A3011 690 78 -600 170/06 RMK AO2 SLP205 T00221011
14837KMSN MSN20011208005511112/08/01 00:55:31  5-MIN KMSN 080655Z 17006KT 10SM FEW042 BKN060 OVC085 02/M01 A3011 690 78 -600 160/06 RMK AO2
14837KMSN MSN20011208010011112/08/01 01:00:31  5-MIN KMSN 080700Z 16005KT 10SM SCT042 BKN060 OVC080 02/M01 A3011 690 78 -600 160/05 RMK AO2
14837KMSN MSN20011208010511112/08/01 01:05:31  5-MIN KMSN 080705Z 16006KT 10SM BKN042 BKN060 OVC070 02/M01 A3011 690 78 -600 160/06 RMK AO2
14837KMSN MSN20011208011011112/08/01 01:10:31  5-MIN KMSN 080710Z 14005KT 10SM SCT042 BKN060 OVC085 02/M01 A3011 690 78 -600 140/05 RMK AO2
14837KMSN MSN20011208011511112/08/01 01:15:31  5-MIN KMSN 080715Z 14006KT 10SM SCT042 BKN060 OVC080 02/M01 A3010 700 78 -600 140/06 RMK AO2
14837KMSN MSN20011208012011112/08/01 01:20:31  5-MIN KMSN 080720Z 13006KT 10SM SCT042 BKN060 OVC080 02/M01 A3010 700 78 -600 130/06 RMK AO2
14837KMSN MSN20011208012511112/08/01 01:25:31  5-MIN KMSN 080725Z 14005KT 10SM FEW042 BKN065 OVC080 02/M01 A3010 700 78 -600 140/05 RMK AO2
14837KMSN MSN20011208013011112/08/01 01:30:31  5-MIN KMSN 080730Z 15005KT 10SM FEW040 BKN070 OVC085 02/M01 A3010 700 78 -600 150/05 RMK AO2
14837KMSN MSN20011208013510412/08/01 01:35:31  5-MIN KMSN 080735Z 15005KT 10SM BKN070 OVC090 02/M01 A3010 700 78 -600 150/05 RMK AO2
14837KMSN MSN20011208014010412/08/01 01:40:31  5-MIN KMSN 080740Z 14006KT 10SM BKN065 OVC085 02/M01 A3009 700 78 -600 140/06 RMK AO2
14837KMSN MSN20011208014510412/08/01 01:45:31  5-MIN KMSN 080745Z 15004KT 10SM BKN065 OVC090 02/M01 A3009 710 78 -600 150/04 RMK AO2
14837KMSN MSN20011208015011412/08/01 01:50:31  5-MIN KMSN 080750Z 17004KT 10SM OVC065 02/M01 A3010 700 78 -600 160/04 RMK AO2 SLP199 T00221011
14837KMSN MSN20011208015509712/08/01 01:55:31  5-MIN KMSN 080755Z 17005KT 10SM OVC065 02/M01 A3010 700 78 -600 170/05 RMK AO2
14837KMSN MSN20011208020009712/08/01 02:00:31  5-MIN KMSN 080800Z 17005KT 10SM OVC065 02/M01 A3010 700 78 -600 170/05 RMK AO2
14837KMSN MSN20011208020509712/08/01 02:05:31  5-MIN KMSN 080805Z 19004KT 10SM OVC060 02/M01 A3010 700 78 -600 190/04 RMK AO2
14837KMSN MSN20011208021009712/08/01 02:10:31  5-MIN KMSN 080810Z 18004KT 10SM OVC060 02/M01 A3010 700 78 -600 180/04 RMK AO2
14837KMSN MSN20011208021509712/08/01 02:15:31  5-MIN KMSN 080815Z 19004KT 10SM OVC065 02/M01 A3010 690 78 -600 190/04 RMK AO2
14837KMSN MSN20011208022009712/08/01 02:20:31  5-MIN KMSN 080820Z 18004KT 10SM OVC060 02/M02 A3010 700 72 -600 180/04 RMK AO2
14837KMSN MSN20011208022510412/08/01 02:25:31  5-MIN KMSN 080825Z 16004KT 10SM BKN060 OVC080 02/M01 A3010 700 78 -600 160/04 RMK AO2
14837KMSN MSN20011208023010412/08/01 02:30:31  5-MIN KMSN 080830Z 15005KT 10SM BKN060 OVC075 02/M01 A3010 700 78 -600 150/05 RMK AO2
14837KMSN MSN20011208023509712/08/01 02:35:31  5-MIN KMSN 080835Z 16004KT 10SM OVC060 02/M01 A3010 700 78 -600 150/04 RMK AO2
14837KMSN MSN20011208024010412/08/01 02:40:31  5-MIN KMSN 080840Z 16003KT 10SM SCT050 OVC070 02/M02 A3010 700 75 -600 160/03 RMK AO2
14837KMSN MSN20011208024511112/08/01 02:45:31  5-MIN KMSN 080845Z 17004KT 10SM BKN050 BKN065 OVC080 02/M01 A3010 700 78 -600 170/04 RMK AO2
14837KMSN MSN20011208025012712/08/01 02:50:31  5-MIN KMSN 080850Z 17004KT 10SM SCT050 OVC070 02/M01 A3009 700 78 -600 170/04 RMK AO2 SLP198 T00221011 58012
14837KMSN MSN20011208025511112/08/01 02:55:31  5-MIN KMSN 080855Z 17004KT 10SM SCT050 BKN070 OVC090 02/M01 A3009 710 78 -600 170/04 RMK AO2
14837KMSN MSN20011208030011112/08/01 03:00:31  5-MIN KMSN 080900Z 17003KT 10SM FEW045 BKN070 OVC080 02/M01 A3009 710 78 -600 160/03 RMK AO2
14837KMSN MSN20011208030511112/08/01 03:05:31  5-MIN KMSN 080905Z 17004KT 10SM BKN065 BKN080 OVC095 02/M01 A3008 710 78 -600 170/04 RMK AO2
14837KMSN MSN20011208031010412/08/01 03:10:31  5-MIN KMSN 080910Z 17005KT 10SM BKN075 OVC090 02/M01 A3009 710 78 -600 170/05 RMK AO2
14837KMSN MSN20011208031510412/08/01 03:15:31  5-MIN KMSN 080915Z 16007KT 10SM SCT070 OVC085 03/M01 A3008 710 75 -500 160/07 RMK AO2
14837KMSN MSN20011208032010412/08/01 03:20:31  5-MIN KMSN 080920Z 16006KT 10SM BKN075 OVC090 03/M01 A3008 720 75 -500 160/06 RMK AO2
14837KMSN MSN20011208032510412/08/01 03:25:31  5-MIN KMSN 080925Z 16007KT 10SM BKN070 OVC090 02/M02 A3008 720 75 -600 160/07 RMK AO2
14837KMSN MSN20011208033010412/08/01 03:30:31  5-MIN KMSN 080930Z 16006KT 10SM BKN070 OVC090 02/M01 A3008 720 78 -600 160/06 RMK AO2
14837KMSN MSN20011208033510412/08/01 03:35:31  5-MIN KMSN 080935Z 16006KT 10SM BKN070 OVC090 02/M02 A3008 720 75 -600 160/06 RMK AO2
14837KMSN MSN20011208034010412/08/01 03:40:31  5-MIN KMSN 080940Z 16006KT 10SM BKN065 OVC080 02/M01 A3008 720 82 -600 160/06 RMK AO2
14837KMSN MSN20011208034509712/08/01 03:45:31  5-MIN KMSN 080945Z 16006KT 10SM OVC065 02/M01 A3008 720 78 -600 160/06 RMK AO2
14837KMSN MSN20011208035011412/08/01 03:50:31  5-MIN KMSN 080950Z 16007KT 10SM OVC065 02/M01 A3008 720 82 -600 160/07 RMK AO2 SLP192 T00221006
14837KMSN MSN20011208035509712/08/01 03:55:31  5-MIN KMSN 080955Z 16006KT 10SM OVC065 02/M01 A3007 720 78 -600 160/06 RMK AO2
14837KMSN MSN20011208040009712/08/01 04:00:31  5-MIN KMSN 081000Z 17005KT 10SM OVC060 02/M01 A3008 720 82 -600 160/05 RMK AO2
14837KMSN MSN20011208040509712/08/01 04:05:31  5-MIN KMSN 081005Z 15005KT 10SM OVC060 02/M01 A3008 720 78 -600 150/05 RMK AO2
14837KMSN MSN20011208041009712/08/01 04:10:31  5-MIN KMSN 081010Z 15005KT 10SM OVC060 02/M01 A3008 720 78 -600 150/05 RMK AO2
14837KMSN MSN20011208041509712/08/01 04:15:31  5-MIN KMSN 081015Z 16005KT 10SM OVC060 02/M01 A3008 720 78 -600 160/05 RMK AO2
14837KMSN MSN20011208042009712/08/01 04:20:31  5-MIN KMSN 081020Z 18004KT 10SM OVC060 02/M01 A3008 710 78 -600 180/04 RMK AO2
14837KMSN MSN20011208042509712/08/01 04:25:31  5-MIN KMSN 081025Z 18005KT 10SM OVC055 02/M01 A3008 720 82 -600 180/05 RMK AO2
14837KMSN MSN20011208043009712/08/01 04:30:31  5-MIN KMSN 081030Z 17005KT 10SM OVC060 02/M01 A3008 720 78 -600 170/05 RMK AO2
14837KMSN MSN20011208043511212/08/01 04:35:31  5-MIN KMSN 081035Z 19006KT 10SM UP OVC060 02/M01 A3008 720 78 -600 190/06 RMK AO2 UPB31 P0000
14837KMSN MSN20011208044011312/08/01 04:40:31  5-MIN KMSN 081040Z 19005KT 10SM -RA OVC055 02/M01 A3008 710 78 -600 190/05 RMK AO2 RAB31 P0000
14837KMSN MSN20011208044511312/08/01 04:45:31  5-MIN KMSN 081045Z 18004KT 10SM -RA OVC055 02/M02 A3008 710 75 -600 180/04 RMK AO2 RAB31 P0000
14837KMSN MSN20011208045013012/08/01 04:50:31  5-MIN KMSN 081050Z 20004KT 10SM -RA OVC055 02/M01 A3008 720 78 -600 200/04 RMK AO2 SLP194 RAB31 P0000 T00221011
14837KMSN MSN20011208045510712/08/01 04:55:31  5-MIN KMSN 081055Z 18003KT 10SM -RA OVC055 02/M01 A3008 720 78 -600 180/03 RMK AO2 P0000
14837KMSN MSN20011208050010712/08/01 05:00:31  5-MIN KMSN 081100Z 18005KT 10SM -RA OVC055 02/M01 A3008 720 78 -600 170/05 RMK AO2 P0000
14837KMSN MSN20011208050510712/08/01 05:05:31  5-MIN KMSN 081105Z 18005KT 10SM -RA OVC055 02/M02 A3008 720 75 -600 180/05 RMK AO2 P0000
14837KMSN MSN20011208051010712/08/01 05:10:31  5-MIN KMSN 081110Z 18005KT 10SM -RA OVC060 02/M01 A3008 720 78 -600 180/05 RMK AO2 P0000
14837KMSN MSN20011208051510712/08/01 05:15:31  5-MIN KMSN 081115Z 17005KT 10SM -RA OVC060 02/M01 A3008 720 78 -600 170/05 RMK AO2 P0000
14837KMSN MSN20011208052011612/08/01 05:20:31  5-MIN KMSN 081120Z 18005KT 10SM FEW020 OVC060 02/M01 A3008 720 82 -600 180/05 RMK AO2 RAE20 P0000
14837KMSN MSN20011208052511612/08/01 05:25:31  5-MIN KMSN 081125Z 18004KT 10SM FEW020 OVC060 02/M01 A3008 720 85 -600 180/04 RMK AO2 RAE20 P0000
14837KMSN MSN20011208053011512/08/01 05:30:31  5-MIN KMSN 081130Z 19003KT 10SM FEW020 OVC060 02/00 A3008 720 85 -600 190/03 RMK AO2 RAE20 P0000
14837KMSN MSN20011208053511512/08/01 05:35:31  5-MIN KMSN 081135Z 19005KT 10SM FEW020 OVC060 02/00 A3008 720 85 -600 180/05 RMK AO2 RAE20 P0000
14837KMSN MSN20011208054012212/08/01 05:40:31  5-MIN KMSN 081140Z 17004KT 10SM BKN045 BKN050 OVC090 02/00 A3008 720 89 -600 170/04 RMK AO2 RAE20 P0000
14837KMSN MSN20011208054512212/08/01 05:45:31  5-MIN KMSN 081145Z 16006KT 10SM BKN045 BKN050 OVC090 02/00 A3007 720 89 -600 160/06 RMK AO2 RAE20 P0000
14837KMSN MSN20011208055016512/08/01 05:50:31  5-MIN KMSN 081150Z 16005KT 10SM -DZ FEW008 OVC047 02/00 A3007 720 89 -600 160/05 RMK AO2 RAE20DZB46 SLP193 P0000 60000 T00170000 10028 20017 56012
14837KMSN MSN20011208055511312/08/01 05:55:31  5-MIN KMSN 081155Z 16004KT 10SM -DZ SCT008 OVC047 02/00 A3007 720 89 -600 160/04 RMK AO2 P0000
14837KMSN MSN20011208060011612/08/01 06:00:31  5-MIN KMSN 081200Z 16005KT 10SM BKN008 OVC045 02/M01 A3007 720 85 -600 160/05 RMK AO2 DZE00 P0000
14837KMSN MSN20011208060511612/08/01 06:05:31  5-MIN KMSN 081205Z 16004KT 10SM BKN008 OVC045 02/M01 A3007 720 85 -600 150/04 RMK AO2 DZE00 P0000
14837KMSN MSN20011208061011612/08/01 06:10:31  5-MIN KMSN 081210Z 16004KT 10SM BKN008 OVC045 02/M01 A3007 720 85 -600 150/04 RMK AO2 DZE00 P0000
14837KMSN MSN20011208061510912/08/01 06:15:31  5-MIN KMSN 081215Z 16003KT 10SM OVC008 02/M01 A3008 720 85 -600 160/03 RMK AO2 DZE00 P0000
14837KMSN MSN20011208062010912/08/01 06:20:31  5-MIN KMSN 081220Z 14004KT 10SM OVC008 02/M01 A3008 720 85 -600 140/04 RMK AO2 DZE00 P0000
14837KMSN MSN20011208062510912/08/01 06:25:31  5-MIN KMSN 081225Z 16004KT 10SM OVC008 02/M01 A3008 720 85 -600 160/04 RMK AO2 DZE00 P0000
14837KMSN MSN20011208063010912/08/01 06:30:31  5-MIN KMSN 081230Z 18003KT 10SM OVC008 02/M01 A3008 720 85 -600 170/03 RMK AO2 DZE00 P0000
14837KMSN MSN20011208063512512/08/01 06:35:31  5-MIN KMSN 081235Z 17004KT 10SM -RA BKN006 OVC043 02/M01 A3008 720 82 -600 170/04 RMK AO2 DZE00RAB33 P0000
14837KMSN MSN20011208064012412/08/01 06:40:31  5-MIN KMSN 081240Z 17004KT 8SM -RA BKN006 OVC043 02/M01 A3008 720 82 -600 160/04 RMK AO2 DZE00RAB33 P0000
14837KMSN MSN20011208064512412/08/01 06:45:31  5-MIN KMSN 081245Z 19005KT 8SM -RA BKN006 OVC039 02/M01 A3008 720 82 -600 190/05 RMK AO2 DZE00RAB33 P0000
14837KMSN MSN20011208065014812/08/01 06:50:31  5-MIN KMSN 081250Z 19004KT 8SM -RA SCT006 BKN035 OVC043 02/M01 A3008 720 82 -600 190/04 RMK AO2 DZE00RAB33 SLP193 P0000 T00221006
14837KMSN MSN20011208065512012/08/01 06:55:31  5-MIN KMSN 081255Z 19003KT 7SM -RA FEW006 BKN033 OVC043 02/M01 A3008 720 82 -600 190/03 RMK AO2 P0000
14837KMSN MSN20011208070012012/08/01 07:00:31  5-MIN KMSN 081300Z 19004KT 7SM -RA FEW006 BKN033 OVC043 02/M01 A3008 720 78 -600 190/04 RMK AO2 P0000
14837KMSN MSN20011208070512012/08/01 07:05:31  5-MIN KMSN 081305Z 19003KT 5SM -RA SCT025 BKN032 OVC039 02/M01 A3008 720 78 -600 190/03 RMK AO2 P0000
14837KMSN MSN20011208071011312/08/01 07:10:31  5-MIN KMSN 081310Z 19004KT 4SM -RA SCT023 OVC031 02/M01 A3008 720 82 -600 190/04 RMK AO2 P0000
14837KMSN MSN20011208071512012/08/01 07:15:31  5-MIN KMSN 081315Z 19005KT 3SM -RA FEW007 BKN023 OVC031 02/M01 A3007 720 78 -600 190/05 RMK AO2 P0000
14837KMSN MSN20011208072012012/08/01 07:20:31  5-MIN KMSN 081320Z 17005KT 3SM -RA FEW007 BKN023 OVC029 02/M01 A3007 720 78 -600 170/05 RMK AO2 P0000
14837KMSN MSN20011208072511312/08/01 07:25:31  5-MIN KMSN 081325Z 16005KT 3SM -RA BKN023 OVC029 02/M01 A3007 730 78 -600 160/05 RMK AO2 P0000
14837KMSN MSN20011208073011312/08/01 07:30:31  5-MIN KMSN 081330Z 17005KT 3SM -RA BKN023 OVC031 02/M01 A3007 730 78 -600 170/05 RMK AO2 P0000
14837KMSN MSN20011208073512012/08/01 07:35:31  5-MIN KMSN 081335Z 18004KT 3SM -RA BKN021 BKN031 OVC050 02/M01 A3007 720 78 -600 180/04 RMK AO2 P0000
14837KMSN MSN20011208074011512/08/01 07:40:31  5-MIN KMSN 081340Z 19004KT 9SM BKN021 OVC029 02/M02 A3007 720 75 -600 190/04 RMK AO2 RAE38 P0000
14837KMSN MSN20011208074511512/08/01 07:45:31  5-MIN KMSN 081345Z 20003KT 9SM BKN021 OVC029 02/M02 A3007 730 75 -600 200/03 RMK AO2 RAE38 P0000
14837KMSN MSN20011208075013212/08/01 07:50:31  5-MIN KMSN 081350Z 00000KT 8SM BKN023 OVC029 02/M01 A3007 730 78 -600 000/00 RMK AO2 RAE38 SLP190 P0000 T00221011
14837KMSN MSN20011208075510312/08/01 07:55:31  5-MIN KMSN 081355Z 21003KT 7SM BKN021 OVC029 02/M01 A3007 730 78 -600 210/03 RMK AO2
14837KMSN MSN20011208080010312/08/01 08:00:31  5-MIN KMSN 081400Z 00000KT 7SM BKN021 OVC029 02/M01 A3007 730 78 -600 000/00 RMK AO2
14837KMSN MSN20011208080509612/08/01 08:05:31  5-MIN KMSN 081405Z 22004KT 7SM OVC021 02/M01 A3007 720 78 -600 220/04 RMK AO2
14837KMSN MSN20011208081009612/08/01 08:10:31  5-MIN KMSN 081410Z 22003KT 7SM OVC021 02/M01 A3007 720 78 -600 220/03 RMK AO2
14837KMSN MSN20011208081509612/08/01 08:15:31  5-MIN KMSN 081415Z 21003KT 8SM OVC021 02/M01 A3007 730 78 -600 210/03 RMK AO2
14837KMSN MSN20011208082009612/08/01 08:20:31  5-MIN KMSN 081420Z 21004KT 8SM OVC021 03/M02 A3007 730 72 -500 210/04 RMK AO2
14837KMSN MSN20011208082509612/08/01 08:25:31  5-MIN KMSN 081425Z 21004KT 8SM OVC021 03/M01 A3007 730 75 -500 210/04 RMK AO2
14837KMSN MSN20011208083009612/08/01 08:30:31  5-MIN KMSN 081430Z 21005KT 8SM OVC021 03/M01 A3007 730 75 -500 210/05 RMK AO2
14837KMSN MSN20011208083510312/08/01 08:35:31  5-MIN KMSN 081435Z 21004KT 8SM BKN021 OVC025 03/M02 A3007 730 72 -500 210/04 RMK AO2
14837KMSN MSN20011208084010412/08/01 08:40:31  5-MIN KMSN 081440Z 24004KT 10SM BKN021 OVC025 03/M01 A3007 730 75 -500 240/04 RMK AO2
14837KMSN MSN20011208084510412/08/01 08:45:31  5-MIN KMSN 081445Z VRB03KT 10SM BKN019 OVC025 03/M02 A3007 730 72 -500 VRB/03 RMK AO2
14837KMSN MSN20011208085013312/08/01 08:50:31  5-MIN KMSN 081450Z 26005KT 10SM FEW009 OVC019 03/M01 A3007 730 75 -500 260/05 RMK AO2 SLP190 60000 T00281011 56006
14837KMSN MSN20011208085510412/08/01 08:55:31  5-MIN KMSN 081455Z 25006KT 10SM SCT009 OVC019 03/M02 A3007 730 72 -500 250/06 RMK AO2
14837KMSN MSN20011208090011112/08/01 09:00:31  5-MIN KMSN 081500Z 26004KT 10SM SCT009 BKN019 OVC024 03/M02 A3007 730 72 -500 260/04 RMK AO2
14837KMSN MSN20011208090511112/08/01 09:05:31  5-MIN KMSN 081505Z 24006KT 10SM SCT009 BKN019 OVC024 03/M02 A3007 730 72 -500 240/06 RMK AO2
14837KMSN MSN20011208091011612/08/01 09:10:31  5-MIN KMSN 081510Z 27003KT 10SM BKN009 OVC017 03/M02 A3007 730 72 -500 260/03 RMK AO2 CIG 006V011
14837KMSN MSN20011208091511612/08/01 09:15:31  5-MIN KMSN 081515Z 27008KT 10SM BKN009 OVC017 03/M02 A3007 730 72 -500 270/08 RMK AO2 CIG 006V011
14837KMSN MSN20011208092010312/08/01 09:20:31  5-MIN KMSN 081520Z VRB06KT 9SM BKN007 OVC017 03/M01 A3007 730 75 -500 VRB/06 RMK AO2
14837KMSN MSN20011208092511012/08/01 09:25:31  5-MIN KMSN 081525Z 28006KT 8SM BKN007 BKN017 OVC031 03/M02 A3007 730 72 -500 280/06 RMK AO2
14837KMSN MSN20011208093012212/08/01 09:30:31  5-MIN KMSN 081530Z 26005KT 8SM BKN007 BKN017 OVC031 03/M01 A3006 730 75 -500 260/05 RMK AO2 CIG 006V010
14837KMSN MSN20011208093511512/08/01 09:35:31  5-MIN KMSN 081535Z VRB04KT 7SM BKN007 OVC031 03/M01 A3006 730 75 -500 VRB/04 RMK AO2 CIG 006V010
14837KMSN MSN20011208094011512/08/01 09:40:31  5-MIN KMSN 081540Z 27005KT 7SM BKN007 OVC031 03/M02 A3006 730 72 -500 270/05 RMK AO2 CIG 006V011
14837KMSN MSN20011208094511812/08/01 09:45:31  5-MIN KMSN 081545Z 25006KT 6SM HZ BKN009 OVC031 03/M02 A3007 730 69 -500 250/06 RMK AO2 CIG 006V011
14837KMSN MSN20011208095012512/08/01 09:50:31  5-MIN KMSN 081550Z VRB03KT 7SM OVC009 03/M01 A3006 730 75 -500 VRB/03 RMK AO2 CIG 007V011 SLP190 T00281011
14837KMSN MSN20011208095511112/08/01 09:55:31  5-MIN KMSN 081555Z 26004KT 6SM HZ OVC009 03/M01 A3006 730 75 -500 260/04 RMK AO2 CIG 007V011
14837KMSN MSN20011208100011112/08/01 10:00:31  5-MIN KMSN 081600Z 25004KT 6SM HZ OVC009 03/M01 A3006 730 75 -500 240/04 RMK AO2 CIG 007V011
14837KMSN MSN20011208100511112/08/01 10:05:31  5-MIN KMSN 081605Z VRB04KT 5SM HZ OVC009 03/M02 A3006 740 70 -400 VRB/04 RMK AO2 CIG 007V011
14837KMSN MSN20011208101011112/08/01 10:10:31  5-MIN KMSN 081610Z VRB05KT 5SM HZ OVC009 03/M02 A3006 740 70 -400 VRB/05 RMK AO2 CIG 007V011
14837KMSN MSN20011208101509912/08/01 10:15:31  5-MIN KMSN 081615Z 24004KT 5SM HZ OVC009 03/M02 A3006 740 70 -400 240/04 RMK AO2
14837KMSN MSN20011208102009912/08/01 10:20:31  5-MIN KMSN 081620Z 23006KT 6SM HZ OVC009 03/M01 A3006 740 72 -400 230/06 RMK AO2
14837KMSN MSN20011208102509912/08/01 10:25:31  5-MIN KMSN 081625Z 27006KT 6SM HZ OVC009 03/M01 A3005 740 72 -400 270/06 RMK AO2
14837KMSN MSN20011208103009912/08/01 10:30:31  5-MIN KMSN 081630Z VRB05KT 6SM HZ OVC009 03/M01 A3005 740 72 -400 VRB/05 RMK AO2
14837KMSN MSN20011208103509912/08/01 10:35:31  5-MIN KMSN 081635Z 23007KT 6SM HZ BKN009 03/M01 A3005 750 72 -400 230/07 RMK AO2
14837KMSN MSN20011208104009912/08/01 10:40:31  5-MIN KMSN 081640Z 26006KT 6SM HZ BKN009 03/M01 A3005 750 76 -400 260/06 RMK AO2
14837KMSN MSN20011208104509912/08/01 10:45:31  5-MIN KMSN 081645Z 25006KT 6SM HZ BKN009 03/M01 A3005 750 76 -400 250/06 RMK AO2
14837KMSN MSN20011208105011612/08/01 10:50:31  5-MIN KMSN 081650Z 25007KT 6SM HZ BKN009 04/M01 A3005 750 73 -300 250/07 RMK AO2 SLP182 T00391006
14837KMSN MSN20011208105509912/08/01 10:55:31  5-MIN KMSN 081655Z 24007KT 6SM HZ OVC009 04/M01 A3005 750 73 -300 240/07 RMK AO2
14837KMSN MSN20011208110009612/08/01 11:00:31  5-MIN KMSN 081700Z 25008KT 7SM OVC009 03/M01 A3005 750 76 -400 250/08 RMK AO2
14837KMSN MSN20011208110509612/08/01 11:05:31  5-MIN KMSN 081705Z 24006KT 7SM OVC009 04/M01 A3005 750 73 -300 240/06 RMK AO2
14837KMSN MSN20011208111010812/08/01 11:10:31  5-MIN KMSN 081710Z 27006KT 7SM OVC009 04/M01 A3004 750 73 -300 270/06 RMK AO2 CIG 009V013
14837KMSN MSN20011208111509612/08/01 11:15:31  5-MIN KMSN 081715Z VRB06KT 7SM OVC011 04/M01 A3004 750 73 -300 VRB/06 RMK AO2
14837KMSN MSN20011208112011512/08/01 11:20:31  5-MIN KMSN 081720Z 26007KT 220V290 6SM HZ OVC011 04/M01 A3004 750 73 -300 250/07 220V290 RMK AO2
14837KMSN MSN20011208112509912/08/01 11:25:31  5-MIN KMSN 081725Z 27007KT 6SM HZ OVC011 04/M01 A3004 750 73 -300 270/07 RMK AO2
14837KMSN MSN20011208113009912/08/01 11:30:31  5-MIN KMSN 081730Z VRB05KT 6SM HZ OVC011 04/M01 A3004 750 73 -300 VRB/05 RMK AO2
14837KMSN MSN20011208113511212/08/01 11:35:31  5-MIN KMSN 081735Z 27007KT 230V300 7SM BKN011 04/M01 A3004 750 70 -300 270/07 230V300 RMK AO2
14837KMSN MSN20011208114009612/08/01 11:40:31  5-MIN KMSN 081740Z VRB06KT 7SM BKN011 04/M01 A3004 750 70 -300 VRB/06 RMK AO2
14837KMSN MSN20011208114511212/08/01 11:45:31  5-MIN KMSN 081745Z 27007KT 220V290 7SM BKN011 04/M01 A3004 750 70 -300 270/07 220V290 RMK AO2
14837KMSN MSN20011208115014412/08/01 11:50:31  5-MIN KMSN 081750Z 30007KT 7SM BKN015 OVC025 04/M01 A3004 760 70 -200 290/07 RMK AO2 SLP180 60000 T00441006 10044 20017 58002
14837KMSN MSN20011208115510312/08/01 11:55:31  5-MIN KMSN 081755Z 28007KT 7SM BKN015 OVC025 04/M01 A3004 760 70 -200 280/07 RMK AO2
14837KMSN MSN20011208120011912/08/01 12:00:31  5-MIN KMSN 081800Z 27007KT 240V300 7SM SCT015 OVC025 04/M01 A3004 760 70 -200 270/07 240V300 RMK AO2
14837KMSN MSN20011208120510312/08/01 12:05:31  5-MIN KMSN 081805Z 30008KT 7SM BKN019 OVC025 04/M01 A3003 760 70 -200 300/08 RMK AO2
14837KMSN MSN20011208121010312/08/01 12:10:31  5-MIN KMSN 081810Z VRB05KT 7SM BKN017 OVC025 04/M01 A3003 760 70 -200 VRB/05 RMK AO2
14837KMSN MSN20011208121510312/08/01 12:15:31  5-MIN KMSN 081815Z 28004KT 7SM SCT017 OVC025 04/M01 A3003 760 70 -200 280/04 RMK AO2
14837KMSN MSN20011208122010312/08/01 12:20:31  5-MIN KMSN 081820Z 28006KT 7SM SCT019 OVC025 04/M01 A3003 760 67 -200 280/06 RMK AO2
14837KMSN MSN20011208122510312/08/01 12:25:31  5-MIN KMSN 081825Z VRB06KT 7SM FEW017 OVC025 04/M01 A3003 760 70 -200 VRB/06 RMK AO2
14837KMSN MSN20011208123010312/08/01 12:30:31  5-MIN KMSN 081830Z 28009KT 7SM FEW017 OVC025 04/M01 A3003 760 70 -200 280/09 RMK AO2
14837KMSN MSN20011208123510312/08/01 12:35:31  5-MIN KMSN 081835Z 27008KT 7SM FEW017 OVC027 05/M01 A3003 760 67 -200 270/08 RMK AO2
14837KMSN MSN20011208124010312/08/01 12:40:31  5-MIN KMSN 081840Z 29009KT 7SM SCT019 OVC027 05/M01 A3003 760 67 -200 290/09 RMK AO2
14837KMSN MSN20011208124512512/08/01 12:45:31  5-MIN KMSN 081845Z 27008G16KT 240V300 8SM BKN021 OVC027 04/M01 A3003 760 67 -200 270/08G16 240V300 RMK AO2
14837KMSN MSN20011208125012612/08/01 12:50:31  5-MIN KMSN 081850Z 29007G16KT 8SM BKN021 OVC027 04/M01 A3003 760 70 -200 290/07G16 RMK AO2 SLP177 T00441006
14837KMSN MSN20011208125512512/08/01 12:55:31  5-MIN KMSN 081855Z 30007G14KT 240V330 8SM BKN021 OVC027 04/M01 A3003 760 70 -200 290/07G14 240V330 RMK AO2
14837KMSN MSN20011208130010312/08/01 13:00:31  5-MIN KMSN 081900Z 27007KT 7SM BKN021 OVC027 04/M01 A3003 770 70 -200 270/07 RMK AO2
14837KMSN MSN20011208130509612/08/01 13:05:31  5-MIN KMSN 081905Z 28007KT 7SM OVC023 04/M01 A3003 770 67 -200 280/07 RMK AO2
14837KMSN MSN20011208131010312/08/01 13:10:31  5-MIN KMSN 081910Z 30008KT 7SM BKN020 OVC025 04/M01 A3003 770 70 -200 300/08 RMK AO2
14837KMSN MSN20011208131510312/08/01 13:15:31  5-MIN KMSN 081915Z 29007KT 7SM BKN019 OVC024 04/M01 A3003 770 70 -200 290/07 RMK AO2
14837KMSN MSN20011208132010312/08/01 13:20:31  5-MIN KMSN 081920Z 29008KT 7SM BKN019 OVC026 04/M01 A3003 760 70 -200 280/08 RMK AO2
14837KMSN MSN20011208132511012/08/01 13:25:31  5-MIN KMSN 081925Z 30011KT 8SM SCT019 BKN026 OVC031 04/M01 A3003 760 70 -200 300/11 RMK AO2
14837KMSN MSN20011208133010312/08/01 13:30:31  5-MIN KMSN 081930Z 30007KT 8SM BKN023 OVC029 04/M01 A3003 770 70 -200 300/07 RMK AO2
14837KMSN MSN20011208133510912/08/01 13:35:31  5-MIN KMSN 081935Z 29009G15KT 9SM FEW020 OVC027 04/M01 A3003 770 67 -200 290/09G15 RMK AO2
14837KMSN MSN20011208134010912/08/01 13:40:31  5-MIN KMSN 081940Z 29009G15KT 9SM FEW020 OVC027 04/M01 A3002 770 67 -200 290/09G15 RMK AO2
14837KMSN MSN20011208134510312/08/01 13:45:31  5-MIN KMSN 081945Z 30007KT 9SM BKN026 OVC034 04/M01 A3002 770 67 -200 290/07 RMK AO2
14837KMSN MSN20011210205509612/10/01 20:55:31  5-MIN KMSN 110255Z 00000KT 10SM CLR M01/M04 A3012 680 75 -1000 000/00 RMK AO2
14837KMSN MSN20011210210009612/10/01 21:00:31  5-MIN KMSN 110300Z 00000KT 10SM CLR M01/M04 A3012 680 78 -1000 000/00 RMK AO2
14837KMSN MSN20011210210509412/10/01 21:05:31  5-MIN KMSN 110305Z 00000KT 10SM CLR 00/M04 A3013 670 75 -900 000/00 RMK AO2
14837KMSN MSN20011210211009612/10/01 21:10:31  5-MIN KMSN 110310Z 00000KT 10SM CLR M01/M04 A3013 670 81 -1000 000/00 RMK AO2
14837KMSN MSN20011210211509612/10/01 21:15:31  5-MIN KMSN 110315Z 00000KT 10SM CLR M01/M04 A3013 670 78 -1000 000/00 RMK AO2
14837KMSN MSN20011210212009612/10/01 21:20:31  5-MIN KMSN 110320Z 00000KT 10SM CLR M01/M04 A3013 670 78 -1000 000/00 RMK AO2
14837KMSN MSN20011210212509612/10/01 21:25:31  5-MIN KMSN 110325Z 00000KT 10SM CLR M01/M04 A3013 670 81 -1000 000/00 RMK AO2
14837KMSN MSN20011210213009612/10/01 21:30:31  5-MIN KMSN 110330Z 00000KT 10SM CLR M02/M04 A3013 670 81 -1100 000/00 RMK AO2
14837KMSN MSN20011210213509612/10/01 21:35:31  5-MIN KMSN 110335Z 00000KT 10SM CLR M02/M04 A3013 670 81 -1100 000/00 RMK AO2
14837KMSN MSN20011210214009612/10/01 21:40:31  5-MIN KMSN 110340Z 00000KT 10SM CLR M02/M04 A3013 670 81 -1100 000/00 RMK AO2
14837KMSN MSN20011210214509612/10/01 21:45:31  5-MIN KMSN 110345Z 00000KT 10SM CLR M02/M04 A3013 670 81 -1100 000/00 RMK AO2
14837KMSN MSN20011210215011312/10/01 21:50:31  5-MIN KMSN 110350Z 00000KT 10SM CLR M02/M04 A3013 670 81 -1100 000/00 RMK AO2 SLP211 T10171044
14837KMSN MSN20011210215509612/10/01 21:55:31  5-MIN KMSN 110355Z 00000KT 10SM CLR M01/M04 A3013 670 81 -1000 000/00 RMK AO2
14837KMSN MSN20011210220009612/10/01 22:00:31  5-MIN KMSN 110400Z 00000KT 10SM CLR M02/M04 A3013 670 81 -1100 000/00 RMK AO2
14837KMSN MSN20011210220509612/10/01 22:05:31  5-MIN KMSN 110405Z 00000KT 10SM CLR M01/M04 A3013 670 78 -1100 000/00 RMK AO2
14837KMSN MSN20011210221009612/10/01 22:10:31  5-MIN KMSN 110410Z 00000KT 10SM CLR M02/M04 A3013 670 81 -1100 000/00 RMK AO2
14837KMSN MSN20011210221509612/10/01 22:15:31  5-MIN KMSN 110415Z 00000KT 10SM CLR M01/M04 A3013 670 78 -1100 000/00 RMK AO2
14837KMSN MSN20011210222009612/10/01 22:20:31  5-MIN KMSN 110420Z 00000KT 10SM CLR M01/M04 A3014 670 78 -1100 000/00 RMK AO2
14837KMSN MSN20011210222509612/10/01 22:25:31  5-MIN KMSN 110425Z 00000KT 10SM CLR M02/M04 A3014 660 81 -1100 000/00 RMK AO2
14837KMSN MSN20011210223009612/10/01 22:30:31  5-MIN KMSN 110430Z 16003KT 10SM CLR M02/M04 A3014 660 81 -1100 160/03 RMK AO2
14837KMSN MSN20011210223509612/10/01 22:35:31  5-MIN KMSN 110435Z 00000KT 10SM CLR M02/M04 A3014 660 81 -1100 000/00 RMK AO2
14837KMSN MSN20011210224009612/10/01 22:40:31  5-MIN KMSN 110440Z 00000KT 10SM CLR M02/M04 A3014 660 81 -1100 000/00 RMK AO2
14837KMSN MSN20011210224509612/10/01 22:45:31  5-MIN KMSN 110445Z 00000KT 10SM CLR M02/M04 A3015 650 81 -1100 000/00 RMK AO2
14837KMSN MSN20011210225011312/10/01 22:50:31  5-MIN KMSN 110450Z 18003KT 10SM CLR M02/M04 A3015 650 85 -1200 180/03 RMK AO2 SLP218 T10221044
14837KMSN MSN20011210225509612/10/01 22:55:31  5-MIN KMSN 110455Z 17003KT 10SM CLR M02/M04 A3015 650 81 -1100 170/03 RMK AO2
14837KMSN MSN20011210230009612/10/01 23:00:31  5-MIN KMSN 110500Z 18004KT 10SM CLR M01/M04 A3015 650 81 -1100 180/04 RMK AO2
14837KMSN MSN20011210230509612/10/01 23:05:31  5-MIN KMSN 110505Z 18003KT 10SM CLR M01/M04 A3015 650 75 -1000 170/03 RMK AO2
14837KMSN MSN20011210231009612/10/01 23:10:31  5-MIN KMSN 110510Z 17003KT 10SM CLR M02/M04 A3015 650 85 -1200 170/03 RMK AO2
14837KMSN MSN20011210231509612/10/01 23:15:31  5-MIN KMSN 110515Z 00000KT 10SM CLR M03/M05 A3015 650 85 -1300 000/00 RMK AO2
14837KMSN MSN20011210232009612/10/01 23:20:31  5-MIN KMSN 110520Z 00000KT 10SM CLR M02/M04 A3016 650 85 -1200 000/00 RMK AO2
14837KMSN MSN20011210232509612/10/01 23:25:31  5-MIN KMSN 110525Z 00000KT 10SM CLR M03/M04 A3016 650 88 -1300 000/00 RMK AO2
14837KMSN MSN20011210233009612/10/01 23:30:31  5-MIN KMSN 110530Z 00000KT 10SM CLR M03/M04 A3016 650 88 -1300 000/00 RMK AO2
14837KMSN MSN20011210233509612/10/01 23:35:31  5-MIN KMSN 110535Z 00000KT 10SM CLR M03/M04 A3016 650 88 -1300 000/00 RMK AO2
14837KMSN MSN20011210234009612/10/01 23:40:31  5-MIN KMSN 110540Z 00000KT 10SM CLR M02/M04 A3016 650 85 -1200 000/00 RMK AO2
14837KMSN MSN20011210234509612/10/01 23:45:31  5-MIN KMSN 110545Z 00000KT 10SM CLR M02/M04 A3016 650 85 -1200 000/00 RMK AO2
14837KMSN MSN20011210235014112/10/01 23:50:31  5-MIN KMSN 110550Z 00000KT 10SM CLR M03/M05 A3016 650 85 -1300 000/00 RMK AO2 SLP221 T10281050 10039 21028 400891028 51019
14837KMSN MSN20011210235509612/10/01 23:55:31  5-MIN KMSN 110555Z 00000KT 10SM CLR M03/M04 A3016 650 88 -1300 000/00 RMK AO2
14837KMSN MSN20011211000009612/11/01 00:00:31  5-MIN KMSN 110600Z 00000KT 10SM CLR M03/M04 A3016 650 92 -1400 000/00 RMK AO2
14837KMSN MSN20011211000509612/11/01 00:05:31  5-MIN KMSN 110605Z 00000KT 10SM CLR M03/M04 A3016 640 92 -1400 000/00 RMK AO2
14837KMSN MSN20011211001009612/11/01 00:10:31  5-MIN KMSN 110610Z 00000KT 10SM CLR M03/M05 A3016 650 88 -1400 000/00 RMK AO2
14837KMSN MSN20011211001509612/11/01 00:15:31  5-MIN KMSN 110615Z 00000KT 10SM CLR M03/M04 A3015 650 92 -1400 000/00 RMK AO2
14837KMSN MSN20011211002009612/11/01 00:20:31  5-MIN KMSN 110620Z 00000KT 10SM CLR M03/M04 A3015 650 88 -1300 000/00 RMK AO2
14837KMSN MSN20011211002509612/11/01 00:25:31  5-MIN KMSN 110625Z 00000KT 10SM CLR M03/M05 A3015 650 85 -1300 000/00 RMK AO2
14837KMSN MSN20011211003009612/11/01 00:30:31  5-MIN KMSN 110630Z 00000KT 10SM CLR M03/M04 A3015 650 92 -1400 000/00 RMK AO2
14837KMSN MSN20011211003509612/11/01 00:35:31  5-MIN KMSN 110635Z 00000KT 10SM CLR M03/M06 A3015 650 85 -1400 000/00 RMK AO2
14837KMSN MSN20011211004009612/11/01 00:40:31  5-MIN KMSN 110640Z 00000KT 10SM CLR M03/M06 A3015 650 85 -1400 000/00 RMK AO2
14837KMSN MSN20011211004509612/11/01 00:45:31  5-MIN KMSN 110645Z 00000KT 10SM CLR M04/M06 A3015 650 88 -1400 000/00 RMK AO2
14837KMSN MSN20011211005011312/11/01 00:50:31  5-MIN KMSN 110650Z 00000KT 10SM CLR M03/M05 A3015 650 88 -1400 000/00 RMK AO2 SLP218 T10331050
14837KMSN MSN20011211005509612/11/01 00:55:31  5-MIN KMSN 110655Z 00000KT 10SM CLR M03/M06 A3015 650 85 -1400 000/00 RMK AO2
14837KMSN MSN20011211010009612/11/01 01:00:31  5-MIN KMSN 110700Z 00000KT 10SM CLR M03/M05 A3015 650 88 -1400 000/00 RMK AO2
14837KMSN MSN20011211010509612/11/01 01:05:31  5-MIN KMSN 110705Z 00000KT 10SM CLR M03/M06 A3015 650 85 -1400 000/00 RMK AO2
14837KMSN MSN20011211011009612/11/01 01:10:31  5-MIN KMSN 110710Z 00000KT 10SM CLR M03/M06 A3015 650 85 -1400 000/00 RMK AO2
14837KMSN MSN20011211011509612/11/01 01:15:31  5-MIN KMSN 110715Z 00000KT 10SM CLR M04/M05 A3016 650 92 -1400 000/00 RMK AO2
14837KMSN MSN20011211012009612/11/01 01:20:31  5-MIN KMSN 110720Z 00000KT 10SM CLR M04/M06 A3016 640 92 -1500 000/00 RMK AO2
14837KMSN MSN20011211012509612/11/01 01:25:31  5-MIN KMSN 110725Z 00000KT 10SM CLR M04/M06 A3016 640 92 -1500 000/00 RMK AO2
14837KMSN MSN20011211013009612/11/01 01:30:31  5-MIN KMSN 110730Z 00000KT 10SM CLR M04/M06 A3016 640 88 -1400 000/00 RMK AO2
14837KMSN MSN20011211013509612/11/01 01:35:31  5-MIN KMSN 110735Z 00000KT 10SM CLR M04/M05 A3016 650 92 -1400 000/00 RMK AO2
14837KMSN MSN20011211014009612/11/01 01:40:31  5-MIN KMSN 110740Z 00000KT 10SM CLR M03/M05 A3016 640 88 -1400 000/00 RMK AO2
14837KMSN MSN20011211014509612/11/01 01:45:31  5-MIN KMSN 110745Z 00000KT 10SM CLR M04/M05 A3016 640 92 -1400 000/00 RMK AO2
14837KMSN MSN20011211015011212/11/01 01:50:31  5-MIN KMSN 110750Z 00000KT 9SM CLR M04/M05 A3016 640 92 -1400 000/00 RMK AO2 SLP222 T10391050
14837KMSN MSN20011211015509512/11/01 01:55:31  5-MIN KMSN 110755Z 00000KT 9SM CLR M03/M05 A3016 640 88 -1400 000/00 RMK AO2
14837KMSN MSN20011211020009612/11/01 02:00:31  5-MIN KMSN 110800Z 00000KT 10SM CLR M03/M06 A3016 640 85 -1400 000/00 RMK AO2
14837KMSN MSN20011211020509612/11/01 02:05:31  5-MIN KMSN 110805Z 00000KT 10SM CLR M04/M05 A3016 640 92 -1400 000/00 RMK AO2
14837KMSN MSN20011211021009612/11/01 02:10:31  5-MIN KMSN 110810Z 00000KT 10SM CLR M04/M06 A3016 640 88 -1400 000/00 RMK AO2
14837KMSN MSN20011211021509612/11/01 02:15:31  5-MIN KMSN 110815Z 00000KT 10SM CLR M04/M06 A3016 640 92 -1500 000/00 RMK AO2
14837KMSN MSN20011211022009612/11/01 02:20:31  5-MIN KMSN 110820Z 00000KT 10SM CLR M04/M06 A3016 640 92 -1500 000/00 RMK AO2
14837KMSN MSN20011211022509612/11/01 02:25:31  5-MIN KMSN 110825Z 00000KT 10SM CLR M04/M06 A3017 640 92 -1500 000/00 RMK AO2
14837KMSN MSN20011211023009512/11/01 02:30:31  5-MIN KMSN 110830Z 00000KT 9SM CLR M04/M06 A3017 630 92 -1500 000/00 RMK AO2
14837KMSN MSN20011211023509512/11/01 02:35:31  5-MIN KMSN 110835Z 00000KT 9SM CLR M04/M06 A3017 630 92 -1500 000/00 RMK AO2
14837KMSN MSN20011211024009512/11/01 02:40:31  5-MIN KMSN 110840Z 00000KT 9SM CLR M04/M06 A3017 630 92 -1500 000/00 RMK AO2
14837KMSN MSN20011211024509512/11/01 02:45:31  5-MIN KMSN 110845Z 00000KT 9SM CLR M04/M06 A3018 630 88 -1500 000/00 RMK AO2
14837KMSN MSN20011211025011912/11/01 02:50:31  5-MIN KMSN 110850Z 00000KT 10SM CLR M04/M06 A3018 630 88 -1500 000/00 RMK AO2 SLP228 T10391056 53011
14837KMSN MSN20011211025509612/11/01 02:55:31  5-MIN KMSN 110855Z 00000KT 10SM CLR M04/M05 A3018 630 92 -1500 000/00 RMK AO2
14837KMSN MSN20011211030009612/11/01 03:00:31  5-MIN KMSN 110900Z 00000KT 10SM CLR M03/M05 A3018 620 88 -1400 000/00 RMK AO2
14837KMSN MSN20011211030509612/11/01 03:05:31  5-MIN KMSN 110905Z 00000KT 10SM CLR M03/M05 A3018 630 88 -1400 000/00 RMK AO2
14837KMSN MSN20011211031009512/11/01 03:10:31  5-MIN KMSN 110910Z 00000KT 9SM CLR M04/M05 A3018 630 92 -1500 000/00 RMK AO2
14837KMSN MSN20011211031509512/11/01 03:15:31  5-MIN KMSN 110915Z 00000KT 9SM CLR M04/M05 A3018 630 92 -1500 000/00 RMK AO2
14837KMSN MSN20011211032009612/11/01 03:20:31  5-MIN KMSN 110920Z 00000KT 10SM CLR M04/M06 A3017 630 88 -1500 000/00 RMK AO2
14837KMSN MSN20011211032509612/11/01 03:25:31  5-MIN KMSN 110925Z 00000KT 10SM CLR M04/M06 A3017 630 92 -1500 000/00 RMK AO2
14837KMSN MSN20011211033009612/11/01 03:30:31  5-MIN KMSN 110930Z 00000KT 10SM CLR M04/M06 A3018 630 92 -1500 000/00 RMK AO2
14837KMSN MSN20011211033509612/11/01 03:35:31  5-MIN KMSN 110935Z 00000KT 10SM CLR M04/M06 A3018 620 88 -1500 000/00 RMK AO2
14837KMSN MSN20011211034009612/11/01 03:40:31  5-MIN KMSN 110940Z 00000KT 10SM CLR M04/M06 A3018 620 88 -1500 000/00 RMK AO2
14837KMSN MSN20011211034509612/11/01 03:45:31  5-MIN KMSN 110945Z 00000KT 10SM CLR M04/M06 A3018 620 88 -1500 000/00 RMK AO2
14837KMSN MSN20011211035011312/11/01 03:50:31  5-MIN KMSN 110950Z 00000KT 10SM CLR M04/M06 A3018 620 88 -1500 000/00 RMK AO2 SLP230 T10391056
14837KMSN MSN20011211035509612/11/01 03:55:31  5-MIN KMSN 110955Z 00000KT 10SM CLR M04/M06 A3018 620 88 -1500 000/00 RMK AO2
14837KMSN MSN20011211040009612/11/01 04:00:31  5-MIN KMSN 111000Z 00000KT 10SM CLR M03/M05 A3019 620 88 -1400 000/00 RMK AO2
14837KMSN MSN20011211040509612/11/01 04:05:31  5-MIN KMSN 111005Z 00000KT 10SM CLR M04/M06 A3019 620 88 -1500 000/00 RMK AO2
14837KMSN MSN20011211041009612/11/01 04:10:31  5-MIN KMSN 111010Z 00000KT 10SM CLR M04/M06 A3019 620 92 -1500 000/00 RMK AO2
14837KMSN MSN20011211041509612/11/01 04:15:31  5-MIN KMSN 111015Z 00000KT 10SM CLR M04/M06 A3019 610 92 -1500 000/00 RMK AO2
14837KMSN MSN20011211042009512/11/01 04:20:31  5-MIN KMSN 111020Z 00000KT 9SM CLR M05/M06 A3019 610 92 -1600 000/00 RMK AO2
14837KMSN MSN20011211042509512/11/01 04:25:31  5-MIN KMSN 111025Z 00000KT 8SM CLR M05/M06 A3019 610 96 -1600 000/00 RMK AO2
14837KMSN MSN20011211043009512/11/01 04:30:31  5-MIN KMSN 111030Z 00000KT 8SM CLR M05/M06 A3019 610 92 -1600 000/00 RMK AO2
14837KMSN MSN20011211043509512/11/01 04:35:31  5-MIN KMSN 111035Z 00000KT 8SM CLR M04/M06 A3019 610 92 -1500 000/00 RMK AO2
14837KMSN MSN20011211044009512/11/01 04:40:31  5-MIN KMSN 111040Z 00000KT 9SM CLR M04/M06 A3019 610 92 -1500 000/00 RMK AO2
14837KMSN MSN20011211044509512/11/01 04:45:31  5-MIN KMSN 111045Z 00000KT 9SM CLR M05/M06 A3019 610 92 -1600 000/00 RMK AO2
14837KMSN MSN20011211045011312/11/01 04:50:31  5-MIN KMSN 111050Z 00000KT 10SM CLR M05/M06 A3019 610 92 -1600 000/00 RMK AO2 SLP234 T10501061
14837KMSN MSN20011211045509512/11/01 04:55:31  5-MIN KMSN 111055Z 00000KT 8SM CLR M05/M06 A3019 610 96 -1600 000/00 RMK AO2
14837KMSN MSN20011211050009512/11/01 05:00:31  5-MIN KMSN 111100Z 00000KT 8SM CLR M05/M06 A3020 610 96 -1600 000/00 RMK AO2
14837KMSN MSN20011211050509512/11/01 05:05:31  5-MIN KMSN 111105Z 00000KT 9SM CLR M04/M06 A3020 610 92 -1500 000/00 RMK AO2
14837KMSN MSN20011211051009512/11/01 05:10:31  5-MIN KMSN 111110Z 00000KT 9SM CLR M04/M06 A3020 610 92 -1500 000/00 RMK AO2
14837KMSN MSN20011211051509512/11/01 05:15:31  5-MIN KMSN 111115Z 00000KT 9SM CLR M04/M06 A3020 610 92 -1600 000/00 RMK AO2
14837KMSN MSN20011211052009512/11/01 05:20:31  5-MIN KMSN 111120Z 00000KT 9SM CLR M05/M06 A3020 610 96 -1600 000/00 RMK AO2
14837KMSN MSN20011211052509512/11/01 05:25:31  5-MIN KMSN 111125Z 00000KT 9SM CLR M04/M06 A3020 610 92 -1500 000/00 RMK AO2
14837KMSN MSN20011211053009612/11/01 05:30:31  5-MIN KMSN 111130Z 00000KT 10SM CLR M04/M06 A3020 610 88 -1600 000/00 RMK AO2
14837KMSN MSN20011211053509612/11/01 05:35:31  5-MIN KMSN 111135Z 00000KT 10SM CLR M05/M06 A3020 610 92 -1600 000/00 RMK AO2
14837KMSN MSN20011211054009612/11/01 05:40:31  5-MIN KMSN 111140Z 00000KT 10SM CLR M06/M07 A3020 610 88 -1700 000/00 RMK AO2
14837KMSN MSN20011211054509612/11/01 05:45:31  5-MIN KMSN 111145Z 00000KT 10SM CLR M05/M07 A3020 600 88 -1600 000/00 RMK AO2
14837KMSN MSN20011211055013112/11/01 05:50:31  5-MIN KMSN 111150Z 00000KT 10SM CLR M06/M07 A3021 600 92 -1700 000/00 RMK AO2 SLP239 T10561067 11028 21056 53007
14837KMSN MSN20011211055509612/11/01 05:55:31  5-MIN KMSN 111155Z 00000KT 10SM CLR M05/M07 A3021 600 88 -1600 000/00 RMK AO2
14837KMSN MSN20011211060009612/11/01 06:00:31  5-MIN KMSN 111200Z 00000KT 10SM CLR M05/M06 A3021 590 92 -1600 000/00 RMK AO2
14837KMSN MSN20011211060509612/11/01 06:05:31  5-MIN KMSN 111205Z 00000KT 10SM CLR M05/M06 A3022 590 92 -1600 000/00 RMK AO2
14837KMSN MSN20011211061009612/11/01 06:10:31  5-MIN KMSN 111210Z 16003KT 10SM CLR M05/M06 A3022 590 92 -1600 160/03 RMK AO2
14837KMSN MSN20011211061509612/11/01 06:15:31  5-MIN KMSN 111215Z 00000KT 10SM CLR M05/M06 A3022 590 92 -1600 000/00 RMK AO2
14837KMSN MSN20011211062009612/11/01 06:20:31  5-MIN KMSN 111220Z 00000KT 10SM CLR M05/M06 A3022 590 92 -1600 000/00 RMK AO2
14837KMSN MSN20011211062509612/11/01 06:25:31  5-MIN KMSN 111225Z 00000KT 10SM CLR M05/M06 A3022 590 92 -1600 000/00 RMK AO2
14837KMSN MSN20011211063009612/11/01 06:30:31  5-MIN KMSN 111230Z 00000KT 10SM CLR M04/M05 A3022 590 92 -1500 000/00 RMK AO2
14837KMSN MSN20011211063509612/11/01 06:35:31  5-MIN KMSN 111235Z 00000KT 10SM CLR M03/M05 A3022 590 85 -1400 000/00 RMK AO2
14837KMSN MSN20011211064009612/11/01 06:40:31  5-MIN KMSN 111240Z VRB03KT 10SM CLR M03/M05 A3022 590 88 -1400 VRB/03 RMK AO2
14837KMSN MSN20011211064509612/11/01 06:45:31  5-MIN KMSN 111245Z 14003KT 10SM CLR M04/M06 A3022 590 85 -1500 130/03 RMK AO2
14837KMSN MSN20011211065011312/11/01 06:50:31  5-MIN KMSN 111250Z 15004KT 10SM CLR M04/M06 A3022 590 85 -1500 150/04 RMK AO2 SLP245 T10391061
14837KMSN MSN20011211065509612/11/01 06:55:31  5-MIN KMSN 111255Z 12003KT 10SM CLR M04/M06 A3022 590 88 -1600 120/03 RMK AO2
14837KMSN MSN20011211070009612/11/01 07:00:31  5-MIN KMSN 111300Z 00000KT 10SM CLR M05/M07 A3022 590 88 -1700 000/00 RMK AO2
14837KMSN MSN20011211070509612/11/01 07:05:31  5-MIN KMSN 111305Z 00000KT 10SM CLR M06/M07 A3022 590 88 -1700 000/00 RMK AO2
14837KMSN MSN20011211071009612/11/01 07:10:31  5-MIN KMSN 111310Z 00000KT 10SM CLR M06/M07 A3022 580 88 -1700 000/00 RMK AO2
14837KMSN MSN20011211071509612/11/01 07:15:31  5-MIN KMSN 111315Z 00000KT 10SM CLR M05/M07 A3022 590 88 -1700 000/00 RMK AO2
14837KMSN MSN20011211072009612/11/01 07:20:31  5-MIN KMSN 111320Z 00000KT 10SM CLR M04/M06 A3022 580 88 -1600 000/00 RMK AO2
14837KMSN MSN20011211072509612/11/01 07:25:31  5-MIN KMSN 111325Z 00000KT 10SM CLR M05/M07 A3023 580 88 -1700 000/00 RMK AO2
14837KMSN MSN20011211073009512/11/01 07:30:31  5-MIN KMSN 111330Z 00000KT 9SM CLR M05/M06 A3023 580 92 -1700 000/00 RMK AO2
14837KMSN MSN20011211073509512/11/01 07:35:31  5-MIN KMSN 111335Z 00000KT 9SM CLR M05/M06 A3023 580 92 -1700 000/00 RMK AO2
14837KMSN MSN20011211074009512/11/01 07:40:31  5-MIN KMSN 111340Z 00000KT 9SM CLR M05/M06 A3023 580 92 -1700 000/00 RMK AO2
14837KMSN MSN20011211074509612/11/01 07:45:31  5-MIN KMSN 111345Z 00000KT 10SM CLR M04/M06 A3024 570 88 -1600 000/00 RMK AO2
14837KMSN MSN20011211075011312/11/01 07:50:31  5-MIN KMSN 111350Z 00000KT 10SM CLR M04/M06 A3024 570 88 -1600 000/00 RMK AO2 SLP251 T10441061
14837KMSN MSN20011211075509512/11/01 07:55:31  5-MIN KMSN 111355Z 17003KT 8SM CLR M04/M06 A3024 570 92 -1600 160/03 RMK AO2
14837KMSN MSN20011211080009612/11/01 08:00:31  5-MIN KMSN 111400Z 16004KT 10SM CLR M03/M05 A3024 570 88 -1500 160/04 RMK AO2
14837KMSN MSN20011211080509612/11/01 08:05:31  5-MIN KMSN 111405Z 16004KT 10SM CLR M03/M05 A3024 570 85 -1400 150/04 RMK AO2
14837KMSN MSN20011211081009612/11/01 08:10:31  5-MIN KMSN 111410Z 14004KT 10SM CLR M03/M05 A3024 570 85 -1400 140/04 RMK AO2
14837KMSN MSN20011211081509612/11/01 08:15:31  5-MIN KMSN 111415Z 14003KT 10SM CLR M03/M04 A3024 570 88 -1400 140/03 RMK AO2
14837KMSN MSN20011211082009612/11/01 08:20:31  5-MIN KMSN 111420Z 00000KT 10SM CLR M02/M04 A3024 570 85 -1300 000/00 RMK AO2
14837KMSN MSN20011211082509612/11/01 08:25:31  5-MIN KMSN 111425Z 00000KT 10SM CLR M02/M04 A3025 560 85 -1300 000/00 RMK AO2
14837KMSN MSN20011211083009612/11/01 08:30:31  5-MIN KMSN 111430Z 00000KT 10SM CLR M02/M04 A3025 560 85 -1300 000/00 RMK AO2
14837KMSN MSN20011211083509612/11/01 08:35:31  5-MIN KMSN 111435Z 00000KT 10SM CLR M02/M04 A3025 560 85 -1300 000/00 RMK AO2
14837KMSN MSN20011211084009612/11/01 08:40:31  5-MIN KMSN 111440Z 00000KT 10SM CLR M01/M04 A3025 560 78 -1100 000/00 RMK AO2
14837KMSN MSN20011211084509612/11/01 08:45:31  5-MIN KMSN 111445Z 00000KT 10SM CLR M01/M03 A3025 560 81 -1100 000/00 RMK AO2
14837KMSN MSN20011211085011912/11/01 08:50:31  5-MIN KMSN 111450Z 14004KT 10SM CLR M01/M03 A3025 560 81 -1100 140/04 RMK AO2 SLP254 T10061033 53009
14837KMSN MSN20011211085509612/11/01 08:55:31  5-MIN KMSN 111455Z 14006KT 10SM CLR M01/M03 A3025 560 81 -1100 140/06 RMK AO2
14837KMSN MSN20011211090009612/11/01 09:00:31  5-MIN KMSN 111500Z 14006KT 10SM CLR M01/M03 A3024 570 85 -1100 140/06 RMK AO2
14837KMSN MSN20011211090509512/11/01 09:05:31  5-MIN KMSN 111505Z 14005KT 10SM CLR 00/M03 A3024 570 81 -1000 140/05 RMK AO2
14837KMSN MSN20011211091009512/11/01 09:10:31  5-MIN KMSN 111510Z VRB04KT 10SM CLR 01/M03 A3024 570 78 -1000 VRB/04 RMK AO2
14837KMSN MSN20011211091509512/11/01 09:15:31  5-MIN KMSN 111515Z 16007KT 10SM CLR 01/M03 A3024 570 78 -1000 160/07 RMK AO2
14837KMSN MSN20011211092009512/11/01 09:20:31  5-MIN KMSN 111520Z 16006KT 10SM CLR 01/M03 A3024 570 78 -1000 160/06 RMK AO2
14837KMSN MSN20011211092509412/11/01 09:25:31  5-MIN KMSN 111525Z 17005KT 10SM CLR 01/M03 A3025 560 75 -900 160/05 RMK AO2
14837KMSN MSN20011211093009412/11/01 09:30:31  5-MIN KMSN 111530Z 16006KT 10SM CLR 01/M03 A3025 560 75 -900 160/06 RMK AO2
14837KMSN MSN20011211093509412/11/01 09:35:31  5-MIN KMSN 111535Z 17006KT 10SM CLR 01/M03 A3025 560 75 -900 170/06 RMK AO2
14837KMSN MSN20011211094009412/11/01 09:40:31  5-MIN KMSN 111540Z 18006KT 10SM CLR 02/M02 A3025 560 75 -800 170/06 RMK AO2
14837KMSN MSN20011211094509412/11/01 09:45:31  5-MIN KMSN 111545Z 16005KT 10SM CLR 02/M03 A3025 560 72 -800 160/05 RMK AO2
14837KMSN MSN20011211095011112/11/01 09:50:31  5-MIN KMSN 111550Z 16005KT 10SM CLR 02/M03 A3025 560 69 -800 160/05 RMK AO2 SLP253 T00221028
14837KMSN MSN20011211095509412/11/01 09:55:31  5-MIN KMSN 111555Z 17005KT 10SM CLR 02/M03 A3025 560 69 -800 170/05 RMK AO2
14837KMSN MSN20011211100009412/11/01 10:00:31  5-MIN KMSN 111600Z 17005KT 10SM CLR 02/M03 A3025 560 69 -800 170/05 RMK AO2
14837KMSN MSN20011211100509412/11/01 10:05:31  5-MIN KMSN 111605Z 19004KT 10SM CLR 03/M02 A3025 560 69 -700 180/04 RMK AO2
14837KMSN MSN20011211101009412/11/01 10:10:31  5-MIN KMSN 111610Z 16004KT 10SM CLR 03/M03 A3025 560 67 -700 160/04 RMK AO2
14837KMSN MSN20011211101509412/11/01 10:15:31  5-MIN KMSN 111615Z 16005KT 10SM CLR 03/M02 A3025 560 67 -600 160/05 RMK AO2
14837KMSN MSN20011211102009412/11/01 10:20:31  5-MIN KMSN 111620Z 16007KT 10SM CLR 03/M03 A3025 560 64 -600 160/07 RMK AO2
14837KMSN MSN20011211102509412/11/01 10:25:31  5-MIN KMSN 111625Z 17006KT 10SM CLR 04/M02 A3025 560 64 -600 170/06 RMK AO2
14837KMSN MSN20011211103009412/11/01 10:30:31  5-MIN KMSN 111630Z 17006KT 10SM CLR 04/M03 A3025 560 62 -600 170/06 RMK AO2
14837KMSN MSN20011211103509412/11/01 10:35:31  5-MIN KMSN 111635Z 16007KT 10SM CLR 04/M03 A3025 570 62 -600 160/07 RMK AO2
14837KMSN MSN20011211104009412/11/01 10:40:31  5-MIN KMSN 111640Z 16007KT 10SM CLR 04/M02 A3024 570 62 -500 160/07 RMK AO2
14837KMSN MSN20011211104509412/11/01 10:45:31  5-MIN KMSN 111645Z 17007KT 10SM CLR 04/M03 A3024 570 59 -500 170/07 RMK AO2
14837KMSN MSN20011211105011112/11/01 10:50:31  5-MIN KMSN 111650Z 18007KT 10SM CLR 04/M03 A3024 570 59 -500 180/07 RMK AO2 SLP250 T00441028
14837KMSN MSN20011211105509412/11/01 10:55:31  5-MIN KMSN 111655Z 19007KT 10SM CLR 04/M03 A3024 570 57 -500 190/07 RMK AO2
14837KMSN MSN20011211110009412/11/01 11:00:31  5-MIN KMSN 111700Z 18006KT 10SM CLR 05/M03 A3024 570 57 -400 180/06 RMK AO2
14837KMSN MSN20011211110509412/11/01 11:05:31  5-MIN KMSN 111705Z 18007KT 10SM CLR 05/M03 A3024 570 57 -400 180/07 RMK AO2
14837KMSN MSN20011211111009412/11/01 11:10:31  5-MIN KMSN 111710Z 18007KT 10SM CLR 05/M03 A3023 580 55 -400 170/07 RMK AO2
14837KMSN MSN20011211111509412/11/01 11:15:31  5-MIN KMSN 111715Z 17008KT 10SM CLR 06/M03 A3023 580 55 -300 170/08 RMK AO2
14837KMSN MSN20011211112009412/11/01 11:20:31  5-MIN KMSN 111720Z 18008KT 10SM CLR 06/M03 A3023 580 53 -300 180/08 RMK AO2
14837KMSN MSN20011211112509412/11/01 11:25:31  5-MIN KMSN 111725Z 18008KT 10SM CLR 06/M03 A3023 580 53 -300 180/08 RMK AO2
14837KMSN MSN20011211113009412/11/01 11:30:31  5-MIN KMSN 111730Z 18009KT 10SM CLR 06/M03 A3023 580 53 -300 180/09 RMK AO2
14837KMSN MSN20011211113509412/11/01 11:35:31  5-MIN KMSN 111735Z 18010KT 10SM CLR 06/M03 A3022 580 53 -300 180/10 RMK AO2
14837KMSN MSN20011211114009412/11/01 11:40:31  5-MIN KMSN 111740Z 18009KT 10SM CLR 06/M03 A3022 590 53 -300 180/09 RMK AO2
14837KMSN MSN20011211114509412/11/01 11:45:31  5-MIN KMSN 111745Z 17009KT 10SM CLR 06/M03 A3022 590 53 -300 170/09 RMK AO2
14837KMSN MSN20011211115012912/11/01 11:50:31  5-MIN KMSN 111750Z 18010KT 10SM CLR 06/M03 A3022 590 53 -300 180/10 RMK AO2 SLP242 T00611028 10061 21056 51013
14837KMSN MSN20011211115509412/11/01 11:55:31  5-MIN KMSN 111755Z 17010KT 10SM CLR 06/M03 A3022 590 51 -300 170/10 RMK AO2
14837KMSN MSN20011211120009412/11/01 12:00:31  5-MIN KMSN 111800Z 18011KT 10SM CLR 06/M03 A3022 590 53 -200 170/11 RMK AO2
14837KMSN MSN20011211120509412/11/01 12:05:31  5-MIN KMSN 111805Z 17010KT 10SM CLR 07/M03 A3021 600 49 -200 170/10 RMK AO2
14837KMSN MSN20011211121009412/11/01 12:10:31  5-MIN KMSN 111810Z 17011KT 10SM CLR 07/M03 A3021 600 49 -200 170/11 RMK AO2
14837KMSN MSN20011211121509412/11/01 12:15:31  5-MIN KMSN 111815Z 16011KT 10SM CLR 07/M03 A3021 600 49 -100 160/11 RMK AO2
14837KMSN MSN20011211122009412/11/01 12:20:31  5-MIN KMSN 111820Z 17011KT 10SM CLR 07/M03 A3020 600 51 -200 170/11 RMK AO2
14837KMSN MSN20011211122509412/11/01 12:25:31  5-MIN KMSN 111825Z 17010KT 10SM CLR 07/M03 A3020 600 47 -100 170/10 RMK AO2
14837KMSN MSN20011211123009412/11/01 12:30:31  5-MIN KMSN 111830Z 17013KT 10SM CLR 07/M04 A3020 600 45 -100 170/13 RMK AO2
14837KMSN MSN20011211123509412/11/01 12:35:31  5-MIN KMSN 111835Z 17013KT 10SM CLR 07/M04 A3020 600 45 -100 170/13 RMK AO2
14837KMSN MSN20011211124009412/11/01 12:40:31  5-MIN KMSN 111840Z 16015KT 10SM CLR 07/M03 A3020 610 47 -100 160/15 RMK AO2
14837KMSN MSN20011211124509412/11/01 12:45:31  5-MIN KMSN 111845Z 17014KT 10SM CLR 07/M04 A3020 610 45 -100 170/14 RMK AO2
14837KMSN MSN20011211125011112/11/01 12:50:31  5-MIN KMSN 111850Z 17014KT 10SM CLR 07/M04 A3020 610 45 -100 170/14 RMK AO2 SLP234 T00721039
14837KMSN MSN20011211125509412/11/01 12:55:31  5-MIN KMSN 111855Z 17014KT 10SM CLR 07/M04 A3019 610 45 -100 170/14 RMK AO2
14837KMSN MSN20011211130009412/11/01 13:00:31  5-MIN KMSN 111900Z 17013KT 10SM CLR 07/M04 A3019 610 45 -100 170/13 RMK AO2
14837KMSN MSN20011211130509412/11/01 13:05:31  5-MIN KMSN 111905Z 16014KT 10SM CLR 07/M04 A3019 620 45 -100 160/14 RMK AO2
14837KMSN MSN20011211131009412/11/01 13:10:31  5-MIN KMSN 111910Z 17015KT 10SM CLR 07/M04 A3018 620 45 -100 170/15 RMK AO2
14837KMSN MSN20011211131509412/11/01 13:15:31  5-MIN KMSN 111915Z 17011KT 10SM CLR 07/M04 A3018 620 45 -100 170/11 RMK AO2
14837KMSN MSN20011211132009412/11/01 13:20:31  5-MIN KMSN 111920Z 16014KT 10SM CLR 07/M04 A3018 620 45 -100 160/14 RMK AO2
14837KMSN MSN20011211132509412/11/01 13:25:31  5-MIN KMSN 111925Z 18012KT 10SM CLR 07/M04 A3018 620 45 -100 180/12 RMK AO2
14837KMSN MSN20011211133009412/11/01 13:30:31  5-MIN KMSN 111930Z 17011KT 10SM CLR 07/M03 A3018 630 47 -100 170/11 RMK AO2
14837KMSN MSN20011211133509412/11/01 13:35:31  5-MIN KMSN 111935Z 16013KT 10SM CLR 07/M03 A3018 630 47 -100 160/13 RMK AO2
14837KMSN MSN20011211134009412/11/01 13:40:31  5-MIN KMSN 111940Z 16010KT 10SM CLR 07/M03 A3017 630 47 -100 160/10 RMK AO2
14837KMSN MSN20011211134509112/11/01 13:45:31  5-MIN KMSN 111945Z 16013KT 10SM CLR 08/M03 A3017 630 45 0 150/13 RMK AO2
14837KMSN MSN20011211135010812/11/01 13:50:31  5-MIN KMSN 111950Z 16013KT 10SM CLR 08/M03 A3017 630 45 0 160/13 RMK AO2 SLP225 T00781033
14837KMSN MSN20011211135509112/11/01 13:55:31  5-MIN KMSN 111955Z 16014KT 10SM CLR 08/M04 A3017 630 43 0 160/14 RMK AO2
14837KMSN MSN20011211140009412/11/01 14:00:31  5-MIN KMSN 112000Z 18012KT 10SM CLR 07/M04 A3018 630 43 -100 170/12 RMK AO2
14837KMSN MSN20011211140509412/11/01 14:05:31  5-MIN KMSN 112005Z 17012KT 10SM CLR 07/M04 A3017 640 43 -100 170/12 RMK AO2
14837KMSN MSN20011211141009412/11/01 14:10:31  5-MIN KMSN 112010Z 18010KT 10SM CLR 07/M04 A3017 640 43 -100 170/10 RMK AO2
14837KMSN MSN20011211141509412/11/01 14:15:31  5-MIN KMSN 112015Z 17011KT 10SM CLR 07/M04 A3017 630 43 -100 170/11 RMK AO2
14837KMSN MSN20011211142009412/11/01 14:20:31  5-MIN KMSN 112020Z 17011KT 10SM CLR 07/M04 A3017 640 43 -100 170/11 RMK AO2
14837KMSN MSN20011211142509412/11/01 14:25:31  5-MIN KMSN 112025Z 17011KT 10SM CLR 07/M04 A3017 640 43 -100 170/11 RMK AO2
14837KMSN MSN20011211143009412/11/01 14:30:31  5-MIN KMSN 112030Z 16009KT 10SM CLR 07/M04 A3016 640 45 -100 160/09 RMK AO2
14837KMSN MSN20011211143509112/11/01 14:35:31  5-MIN KMSN 112035Z 16011KT 10SM CLR 08/M04 A3016 640 43 0 160/11 RMK AO2
14837KMSN MSN20011211144009112/11/01 14:40:31  5-MIN KMSN 112040Z 16009KT 10SM CLR 08/M04 A3016 640 43 0 160/09 RMK AO2
14837KMSN MSN20011211144509412/11/01 14:45:31  5-MIN KMSN 112045Z 16010KT 10SM CLR 07/M04 A3017 640 45 -100 160/10 RMK AO2
14837KMSN MSN20011211145011712/11/01 14:50:31  5-MIN KMSN 112050Z 16012KT 10SM CLR 07/M04 A3017 640 45 -100 160/12 RMK AO2 SLP224 T00721039 58009
14837KMSN MSN20011211145509412/11/01 14:55:31  5-MIN KMSN 112055Z 16012KT 10SM CLR 07/M04 A3017 640 43 -100 160/12 RMK AO2
14837KMSN MSN20011211150009412/11/01 15:00:31  5-MIN KMSN 112100Z 17013KT 10SM CLR 07/M04 A3017 630 45 -100 170/13 RMK AO2
14837KMSN MSN20011211150509412/11/01 15:05:31  5-MIN KMSN 112105Z 16012KT 10SM CLR 07/M04 A3017 630 45 -100 160/12 RMK AO2
14837KMSN MSN20011211151009412/11/01 15:10:31  5-MIN KMSN 112110Z 16011KT 10SM CLR 07/M04 A3017 640 43 -100 160/11 RMK AO2
14837KMSN MSN20011211151509412/11/01 15:15:31  5-MIN KMSN 112115Z 16009KT 10SM CLR 07/M04 A3017 640 43 -100 160/09 RMK AO2
14837KMSN MSN20011211152009412/11/01 15:20:31  5-MIN KMSN 112120Z 16012KT 10SM CLR 07/M04 A3016 640 45 -100 160/12 RMK AO2
14837KMSN MSN20011211152509412/11/01 15:25:31  5-MIN KMSN 112125Z 15011KT 10SM CLR 07/M05 A3016 650 43 -100 150/11 RMK AO2
14837KMSN MSN20011211153009412/11/01 15:30:31  5-MIN KMSN 112130Z 15009KT 10SM CLR 07/M04 A3016 650 45 -100 150/09 RMK AO2
14837KMSN MSN20011211153509412/11/01 15:35:31  5-MIN KMSN 112135Z 15012KT 10SM CLR 07/M04 A3016 640 45 -100 150/12 RMK AO2
14837KMSN MSN20011211154009412/11/01 15:40:31  5-MIN KMSN 112140Z 15014KT 10SM CLR 07/M04 A3016 640 45 -100 150/14 RMK AO2
14837KMSN MSN20011211154509412/11/01 15:45:31  5-MIN KMSN 112145Z 15013KT 10SM CLR 07/M04 A3016 650 45 -100 150/13 RMK AO2
14837KMSN MSN20011211155011112/11/01 15:50:31  5-MIN KMSN 112150Z 15012KT 10SM CLR 06/M05 A3016 640 45 -200 150/12 RMK AO2 SLP222 T00611050
14837KMSN MSN20011211155509412/11/01 15:55:31  5-MIN KMSN 112155Z 15012KT 10SM CLR 06/M05 A3016 640 45 -200 150/12 RMK AO2
14837KMSN MSN20011211160009412/11/01 16:00:31  5-MIN KMSN 112200Z 15011KT 10SM CLR 06/M05 A3016 640 46 -300 150/11 RMK AO2
14837KMSN MSN20011211160509412/11/01 16:05:31  5-MIN KMSN 112205Z 16011KT 10SM CLR 06/M05 A3017 630 46 -300 160/11 RMK AO2
14837KMSN MSN20011211161009412/11/01 16:10:31  5-MIN KMSN 112210Z 16011KT 10SM CLR 06/M05 A3017 640 46 -300 160/11 RMK AO2
14837KMSN MSN20011211161509412/11/01 16:15:31  5-MIN KMSN 112215Z 16009KT 10SM CLR 05/M04 A3017 640 50 -300 160/09 RMK AO2
14837KMSN MSN20011211162009412/11/01 16:20:31  5-MIN KMSN 112220Z 14009KT 10SM CLR 04/M04 A3016 640 52 -400 140/09 RMK AO2
14837KMSN MSN20011211162509412/11/01 16:25:31  5-MIN KMSN 112225Z 14009KT 10SM CLR 04/M04 A3016 650 52 -400 140/09 RMK AO2
14837KMSN MSN20011211163009412/11/01 16:30:31  5-MIN KMSN 112230Z 14008KT 10SM CLR 04/M04 A3016 640 52 -400 140/08 RMK AO2
14837KMSN MSN20011211163509412/11/01 16:35:31  5-MIN KMSN 112235Z 14008KT 10SM CLR 04/M04 A3016 640 54 -500 140/08 RMK AO2
14837KMSN MSN20011211164009412/11/01 16:40:31  5-MIN KMSN 112240Z 15008KT 10SM CLR 04/M04 A3017 640 57 -500 150/08 RMK AO2
14837KMSN MSN20011211164509412/11/01 16:45:31  5-MIN KMSN 112245Z 14009KT 10SM CLR 04/M04 A3016 640 57 -500 140/09 RMK AO2
14837KMSN MSN20011211165011112/11/01 16:50:31  5-MIN KMSN 112250Z 15009KT 10SM CLR 04/M03 A3016 640 59 -500 150/09 RMK AO2 SLP226 T00391033
14837KMSN MSN20011211165509412/11/01 16:55:31  5-MIN KMSN 112255Z 15008KT 10SM CLR 03/M03 A3016 640 64 -500 150/08 RMK AO2
14837KMSN MSN20011211170009412/11/01 17:00:31  5-MIN KMSN 112300Z 14008KT 10SM CLR 03/M03 A3016 640 64 -500 140/08 RMK AO2
14837KMSN MSN20011211170509412/11/01 17:05:31  5-MIN KMSN 112305Z 14008KT 10SM CLR 03/M03 A3016 650 64 -500 140/08 RMK AO2
14837KMSN MSN20011211171009412/11/01 17:10:31  5-MIN KMSN 112310Z 14011KT 10SM CLR 03/M03 A3016 650 64 -500 140/11 RMK AO2
14837KMSN MSN20011211171509412/11/01 17:15:31  5-MIN KMSN 112315Z 15010KT 10SM CLR 04/M03 A3016 650 62 -500 140/10 RMK AO2
14837KMSN MSN20011211172009412/11/01 17:20:31  5-MIN KMSN 112320Z 15009KT 10SM CLR 03/M03 A3016 650 64 -500 150/09 RMK AO2
14837KMSN MSN20011211172509412/11/01 17:25:31  5-MIN KMSN 112325Z 15008KT 10SM CLR 03/M03 A3016 650 64 -500 150/08 RMK AO2
14837KMSN MSN20011211173009412/11/01 17:30:31  5-MIN KMSN 112330Z 15009KT 10SM CLR 03/M03 A3016 650 64 -500 150/09 RMK AO2
14837KMSN MSN20011211173509412/11/01 17:35:31  5-MIN KMSN 112335Z 15010KT 10SM CLR 03/M02 A3016 650 67 -500 150/10 RMK AO2
14837KMSN MSN20011211174009312/11/01 17:40:31  5-MIN KMSN 112340Z 16009KT 9SM CLR 03/M02 A3016 650 67 -500 150/09 RMK AO2
14837KMSN MSN20011211174509312/11/01 17:45:31  5-MIN KMSN 112345Z 15010KT 9SM CLR 03/M02 A3015 650 69 -600 150/10 RMK AO2
14837KMSN MSN20011211175012812/11/01 17:50:31  5-MIN KMSN 112350Z 15010KT 9SM CLR 03/M02 A3015 650 67 -500 150/10 RMK AO2 SLP221 T00331022 10078 20028 56016
14837KMSN MSN20011211175509312/11/01 17:55:31  5-MIN KMSN 112355Z 15010KT 9SM CLR 03/M02 A3015 650 67 -500 150/10 RMK AO2
14837KMSN MSN20011211180009312/11/01 18:00:31  5-MIN KMSN 120000Z 15010KT 8SM CLR 03/M02 A3015 650 67 -500 150/10 RMK AO2
14837KMSN MSN20011211180509312/11/01 18:05:31  5-MIN KMSN 120005Z 15011KT 8SM CLR 03/M02 A3015 650 70 -500 150/11 RMK AO2
14837KMSN MSN20011211181009312/11/01 18:10:31  5-MIN KMSN 120010Z 15012KT 8SM CLR 03/M02 A3015 650 70 -500 150/12 RMK AO2
14837KMSN MSN20011211181509312/11/01 18:15:31  5-MIN KMSN 120015Z 15012KT 8SM CLR 03/M02 A3015 650 70 -500 150/12 RMK AO2
14837KMSN MSN20011211182009312/11/01 18:20:31  5-MIN KMSN 120020Z 15013KT 8SM CLR 03/M01 A3015 660 72 -500 150/13 RMK AO2
14837KMSN MSN20011211182509312/11/01 18:25:31  5-MIN KMSN 120025Z 15013KT 7SM CLR 03/M01 A3014 660 72 -500 150/13 RMK AO2
14837KMSN MSN20011211183009312/11/01 18:30:31  5-MIN KMSN 120030Z 15014KT 7SM CLR 03/M01 A3014 660 72 -500 150/14 RMK AO2
14837KMSN MSN20011211183509312/11/01 18:35:31  5-MIN KMSN 120035Z 15012KT 7SM CLR 03/M01 A3014 660 72 -500 150/12 RMK AO2
14837KMSN MSN20011211184009312/11/01 18:40:31  5-MIN KMSN 120040Z 16012KT 7SM CLR 03/M01 A3014 660 75 -600 160/12 RMK AO2
14837KMSN MSN20011211184509312/11/01 18:45:31  5-MIN KMSN 120045Z 16015KT 7SM CLR 03/M01 A3014 660 75 -600 160/15 RMK AO2
14837KMSN MSN20011211185011112/11/01 18:50:31  5-MIN KMSN 120050Z 16014KT 10SM CLR 03/M01 A3015 660 72 -500 160/14 RMK AO2 SLP218 T00331011
14837KMSN MSN20011211185509312/11/01 18:55:31  5-MIN KMSN 120055Z 16012KT 7SM CLR 03/M01 A3014 660 75 -600 160/12 RMK AO2
14837KMSN MSN20011211190009312/11/01 19:00:31  5-MIN KMSN 120100Z 16012KT 7SM CLR 03/M01 A3015 650 75 -600 160/12 RMK AO2
14837KMSN MSN20011211190509312/11/01 19:05:31  5-MIN KMSN 120105Z 16012KT 9SM CLR 03/M01 A3014 660 75 -600 160/12 RMK AO2
14837KMSN MSN20011211191009312/11/01 19:10:31  5-MIN KMSN 120110Z 16012KT 9SM CLR 03/M01 A3014 660 75 -600 150/12 RMK AO2
14837KMSN MSN20011211191509312/11/01 19:15:31  5-MIN KMSN 120115Z 16012KT 9SM CLR 03/M01 A3014 660 75 -600 160/12 RMK AO2
14837KMSN MSN20011211192009312/11/01 19:20:31  5-MIN KMSN 120120Z 15013KT 9SM CLR 03/M01 A3014 660 75 -600 150/13 RMK AO2
14837KMSN MSN20011211192509312/11/01 19:25:31  5-MIN KMSN 120125Z 15014KT 9SM CLR 03/M01 A3014 660 75 -600 150/14 RMK AO2
14837KMSN MSN20011211193009312/11/01 19:30:31  5-MIN KMSN 120130Z 15014KT 9SM CLR 03/M01 A3014 660 75 -600 150/14 RMK AO2
14837KMSN MSN20011211193509312/11/01 19:35:31  5-MIN KMSN 120135Z 16013KT 9SM CLR 03/M01 A3014 660 75 -600 160/13 RMK AO2
14837KMSN MSN20011211194009312/11/01 19:40:31  5-MIN KMSN 120140Z 16015KT 9SM CLR 03/M01 A3014 660 75 -600 160/15 RMK AO2
14837KMSN MSN20011211194509312/11/01 19:45:31  5-MIN KMSN 120145Z 15014KT 9SM CLR 03/M01 A3014 660 75 -600 150/14 RMK AO2
14837KMSN MSN20011211195011012/11/01 19:50:31  5-MIN KMSN 120150Z 16016KT 9SM CLR 03/M01 A3014 660 72 -500 150/16 RMK AO2 SLP218 T00331011
14837KMSN MSN20011211195509312/11/01 19:55:31  5-MIN KMSN 120155Z 16014KT 7SM CLR 03/M01 A3014 660 75 -600 150/14 RMK AO2
14837KMSN MSN20011211200009312/11/01 20:00:31  5-MIN KMSN 120200Z 15013KT 7SM CLR 03/M01 A3014 660 75 -600 150/13 RMK AO2
14837KMSN MSN20011211200509312/11/01 20:05:31  5-MIN KMSN 120205Z 15013KT 7SM CLR 03/M01 A3014 660 75 -600 150/13 RMK AO2
14837KMSN MSN20011211201009312/11/01 20:10:31  5-MIN KMSN 120210Z 15013KT 9SM CLR 03/M01 A3014 660 75 -600 150/13 RMK AO2
14837KMSN MSN20011211201509312/11/01 20:15:31  5-MIN KMSN 120215Z 15012KT 9SM CLR 03/M01 A3013 670 75 -600 150/12 RMK AO2
14837KMSN MSN20011211213509312/11/01 21:35:31  5-MIN KMSN 120335Z 16010KT 7SM CLR 03/M01 A3014 660 75 -600 160/10 RMK AO2
14837KMSN MSN20011211214009312/11/01 21:40:31  5-MIN KMSN 120340Z 16010KT 7SM CLR 03/M01 A3014 660 75 -600 160/10 RMK AO2
14837KMSN MSN20011211214509312/11/01 21:45:31  5-MIN KMSN 120345Z 16010KT 7SM CLR 03/M01 A3014 660 75 -600 160/10 RMK AO2
14837KMSN MSN20011211215011112/11/01 21:50:31  5-MIN KMSN 120350Z 16010KT 10SM CLR 03/M01 A3014 670 75 -600 160/10 RMK AO2 SLP213 T00281011
14837KMSN MSN20011211215509312/11/01 21:55:31  5-MIN KMSN 120355Z 15010KT 7SM CLR 03/M01 A3013 670 75 -600 150/10 RMK AO2
14837KMSN MSN20011211220009312/11/01 22:00:31  5-MIN KMSN 120400Z 15011KT 7SM CLR 03/M01 A3013 670 75 -600 150/11 RMK AO2
14837KMSN MSN20011211220509312/11/01 22:05:31  5-MIN KMSN 120405Z 15011KT 7SM CLR 03/M01 A3013 670 75 -600 150/11 RMK AO2
14837KMSN MSN20011211221009312/11/01 22:10:31  5-MIN KMSN 120410Z 16012KT 7SM CLR 03/M01 A3013 670 75 -600 160/12 RMK AO2
14837KMSN MSN20011211221509312/11/01 22:15:31  5-MIN KMSN 120415Z 16010KT 9SM CLR 03/M01 A3013 670 75 -600 160/10 RMK AO2
14837KMSN MSN20011211222009312/11/01 22:20:31  5-MIN KMSN 120420Z 16010KT 9SM CLR 03/M01 A3013 670 75 -600 160/10 RMK AO2
14837KMSN MSN20011211222509312/11/01 22:25:31  5-MIN KMSN 120425Z 16012KT 9SM CLR 03/M01 A3012 680 75 -600 160/12 RMK AO2
14837KMSN MSN20011211223009312/11/01 22:30:31  5-MIN KMSN 120430Z 16010KT 9SM CLR 03/M01 A3013 680 75 -600 160/10 RMK AO2
14837KMSN MSN20011211223509312/11/01 22:35:31  5-MIN KMSN 120435Z 16011KT 9SM CLR 03/M01 A3012 680 75 -600 160/11 RMK AO2
14837KMSN MSN20011211224009312/11/01 22:40:31  5-MIN KMSN 120440Z 16012KT 9SM CLR 03/M01 A3012 680 75 -500 160/12 RMK AO2
14837KMSN MSN20011211224509312/11/01 22:45:31  5-MIN KMSN 120445Z 16011KT 9SM CLR 03/M01 A3012 680 75 -500 160/11 RMK AO2
14837KMSN MSN20011211225011112/11/01 22:50:31  5-MIN KMSN 120450Z 17010KT 10SM CLR 03/M01 A3012 680 75 -500 170/10 RMK AO2 SLP207 T00281011
14837KMSN MSN20011211225509312/11/01 22:55:31  5-MIN KMSN 120455Z 17010KT 7SM CLR 03/M01 A3012 680 72 -500 170/10 RMK AO2
14837KMSN MSN20011211230009312/11/01 23:00:31  5-MIN KMSN 120500Z 17010KT 7SM CLR 03/M01 A3012 680 75 -500 170/10 RMK AO2
14837KMSN MSN20011211230509312/11/01 23:05:31  5-MIN KMSN 120505Z 17008KT 7SM CLR 03/M01 A3012 680 75 -600 170/08 RMK AO2
14837KMSN MSN20011211231009312/11/01 23:10:31  5-MIN KMSN 120510Z 18010KT 7SM CLR 03/M01 A3013 670 76 -500 170/10 RMK AO2
14837KMSN MSN20011211231509312/11/01 23:15:31  5-MIN KMSN 120515Z 18011KT 7SM CLR 03/M01 A3013 670 76 -500 170/11 RMK AO2
14837KMSN MSN20011211232009312/11/01 23:20:31  5-MIN KMSN 120520Z 18011KT 7SM CLR 03/M01 A3013 670 76 -500 180/11 RMK AO2
14837KMSN MSN20011211232509312/11/01 23:25:31  5-MIN KMSN 120525Z 18010KT 7SM CLR 03/M01 A3013 670 76 -500 180/10 RMK AO2
14837KMSN MSN20011211233009312/11/01 23:30:31  5-MIN KMSN 120530Z 18009KT 7SM CLR 03/M01 A3013 670 76 -500 180/09 RMK AO2
14837KMSN MSN20011211233509312/11/01 23:35:31  5-MIN KMSN 120535Z 17010KT 7SM CLR 03/M01 A3013 670 76 -500 170/10 RMK AO2
14837KMSN MSN20011211234009312/11/01 23:40:31  5-MIN KMSN 120540Z 17007KT 7SM CLR 03/M01 A3013 670 76 -500 170/07 RMK AO2
14837KMSN MSN20011211234509312/11/01 23:45:31  5-MIN KMSN 120545Z 17008KT 7SM CLR 03/M01 A3013 670 76 -500 170/08 RMK AO2
14837KMSN MSN20011211235013812/11/01 23:50:31  5-MIN KMSN 120550Z 17007KT 7SM CLR 03/M01 A3013 670 76 -500 170/07 RMK AO2 SLP210 T00331006 10033 20022 400781056 56005
14837KMSN MSN20011211235509312/11/01 23:55:31  5-MIN KMSN 120555Z 17008KT 7SM CLR 03/M01 A3013 670 76 -500 170/08 RMK AO2
14837KMSN MSN20011212000009312/12/01 00:00:31  5-MIN KMSN 120600Z 17008KT 7SM CLR 03/M01 A3012 680 79 -600 160/08 RMK AO2
14837KMSN MSN20011212000509312/12/01 00:05:31  5-MIN KMSN 120605Z 17008KT 7SM CLR 03/M01 A3012 680 79 -600 170/08 RMK AO2
14837KMSN MSN20011212001009312/12/01 00:10:31  5-MIN KMSN 120610Z 16009KT 7SM CLR 03/M01 A3012 680 76 -500 160/09 RMK AO2
14837KMSN MSN20011212001509312/12/01 00:15:31  5-MIN KMSN 120615Z 17009KT 7SM CLR 03/M01 A3012 680 76 -500 170/09 RMK AO2
14837KMSN MSN20011212002009312/12/01 00:20:31  5-MIN KMSN 120620Z 17009KT 7SM CLR 03/M01 A3012 680 76 -500 170/09 RMK AO2
14837KMSN MSN20011212002509312/12/01 00:25:31  5-MIN KMSN 120625Z 17009KT 7SM CLR 03/M01 A3012 680 76 -500 170/09 RMK AO2
14837KMSN MSN20011212003009312/12/01 00:30:31  5-MIN KMSN 120630Z 16010KT 7SM CLR 03/M01 A3011 690 76 -500 160/10 RMK AO2
14837KMSN MSN20011212003509312/12/01 00:35:31  5-MIN KMSN 120635Z 15011KT 7SM CLR 03/M01 A3011 690 76 -500 150/11 RMK AO2
14837KMSN MSN20011212004009312/12/01 00:40:31  5-MIN KMSN 120640Z 16009KT 7SM CLR 03/M01 A3011 690 76 -500 160/09 RMK AO2
14837KMSN MSN20011212004509312/12/01 00:45:31  5-MIN KMSN 120645Z 16010KT 7SM CLR 03/M01 A3011 690 76 -500 160/10 RMK AO2
14837KMSN MSN20011212005011012/12/01 00:50:31  5-MIN KMSN 120650Z 17009KT 7SM CLR 03/M01 A3011 690 76 -500 170/09 RMK AO2 SLP201 T00331006
14837KMSN MSN20011212005509312/12/01 00:55:31  5-MIN KMSN 120655Z 17008KT 7SM CLR 03/M01 A3011 690 76 -500 170/08 RMK AO2
14837KMSN MSN20011212010009312/12/01 01:00:31  5-MIN KMSN 120700Z 18009KT 7SM CLR 03/M01 A3011 690 76 -500 170/09 RMK AO2
14837KMSN MSN20011212010509312/12/01 01:05:31  5-MIN KMSN 120705Z 17008KT 7SM CLR 03/M01 A3011 690 76 -500 170/08 RMK AO2
14837KMSN MSN20011212011009312/12/01 01:10:31  5-MIN KMSN 120710Z 16010KT 7SM CLR 03/M01 A3010 700 76 -500 160/10 RMK AO2
14837KMSN MSN20011212011509312/12/01 01:15:31  5-MIN KMSN 120715Z 16009KT 7SM CLR 03/M01 A3010 700 79 -500 160/09 RMK AO2
14837KMSN MSN20011212012009312/12/01 01:20:31  5-MIN KMSN 120720Z 16009KT 7SM CLR 03/M01 A3010 700 79 -500 160/09 RMK AO2
14837KMSN MSN20011212012509312/12/01 01:25:31  5-MIN KMSN 120725Z 16009KT 7SM CLR 03/M01 A3010 690 79 -500 160/09 RMK AO2
14837KMSN MSN20011212013009312/12/01 01:30:31  5-MIN KMSN 120730Z 17008KT 7SM CLR 03/M01 A3011 690 79 -500 170/08 RMK AO2
14837KMSN MSN20011212013509312/12/01 01:35:31  5-MIN KMSN 120735Z 16008KT 7SM CLR 03/M01 A3011 690 79 -500 160/08 RMK AO2
14837KMSN MSN20011212014009312/12/01 01:40:31  5-MIN KMSN 120740Z 17008KT 7SM CLR 03/M01 A3011 690 79 -500 160/08 RMK AO2
14837KMSN MSN20011212014509312/12/01 01:45:31  5-MIN KMSN 120745Z 17006KT 7SM CLR 03/M01 A3011 690 79 -500 170/06 RMK AO2
14837KMSN MSN20011212015011012/12/01 01:50:31  5-MIN KMSN 120750Z 16008KT 7SM CLR 03/M01 A3011 690 79 -500 160/08 RMK AO2 SLP202 T00281006
14837KMSN MSN20011212015509312/12/01 01:55:31  5-MIN KMSN 120755Z 16007KT 7SM CLR 03/M01 A3011 690 76 -500 160/07 RMK AO2
14837KMSN MSN20011212020009312/12/01 02:00:31  5-MIN KMSN 120800Z 17006KT 7SM CLR 03/M01 A3011 690 76 -500 170/06 RMK AO2
14837KMSN MSN20011212020509312/12/01 02:05:31  5-MIN KMSN 120805Z 17006KT 7SM CLR 03/M01 A3011 690 76 -500 170/06 RMK AO2
14837KMSN MSN20011212021009312/12/01 02:10:31  5-MIN KMSN 120810Z 17007KT 7SM CLR 03/M01 A3011 690 76 -500 170/07 RMK AO2
14837KMSN MSN20011212021509312/12/01 02:15:31  5-MIN KMSN 120815Z 17006KT 7SM CLR 03/M01 A3011 690 76 -500 170/06 RMK AO2
14837KMSN MSN20011212022009312/12/01 02:20:31  5-MIN KMSN 120820Z 17007KT 7SM CLR 03/M01 A3011 690 76 -500 170/07 RMK AO2
14837KMSN MSN20011212022509312/12/01 02:25:31  5-MIN KMSN 120825Z 17005KT 7SM CLR 03/M01 A3010 700 79 -500 170/05 RMK AO2
14837KMSN MSN20011212023009312/12/01 02:30:31  5-MIN KMSN 120830Z 16007KT 7SM CLR 03/M01 A3010 700 79 -500 150/07 RMK AO2
14837KMSN MSN20011212023509312/12/01 02:35:31  5-MIN KMSN 120835Z 15006KT 7SM CLR 03/M01 A3010 700 79 -500 150/06 RMK AO2
14837KMSN MSN20011212024009312/12/01 02:40:31  5-MIN KMSN 120840Z 17006KT 7SM CLR 03/M01 A3010 700 76 -500 170/06 RMK AO2
14837KMSN MSN20011212024509312/12/01 02:45:31  5-MIN KMSN 120845Z 16006KT 7SM CLR 03/M01 A3009 700 76 -500 160/06 RMK AO2
14837KMSN MSN20011212025011612/12/01 02:50:31  5-MIN KMSN 120850Z 17005KT 7SM CLR 03/M01 A3010 700 79 -500 170/05 RMK AO2 SLP198 T00281006 55003
14837KMSN MSN20011212025509312/12/01 02:55:31  5-MIN KMSN 120855Z 18004KT 7SM CLR 03/M01 A3010 700 76 -500 180/04 RMK AO2
14837KMSN MSN20011212030009312/12/01 03:00:31  5-MIN KMSN 120900Z 16006KT 7SM CLR 03/M01 A3009 700 76 -500 160/06 RMK AO2
14837KMSN MSN20011212030509312/12/01 03:05:31  5-MIN KMSN 120905Z 17005KT 7SM CLR 03/M01 A3009 700 79 -500 170/05 RMK AO2
14837KMSN MSN20011212031009312/12/01 03:10:31  5-MIN KMSN 120910Z 17005KT 7SM CLR 03/M01 A3009 710 79 -500 170/05 RMK AO2
14837KMSN MSN20011212031509312/12/01 03:15:31  5-MIN KMSN 120915Z 16007KT 7SM CLR 03/M01 A3009 710 79 -500 160/07 RMK AO2
14837KMSN MSN20011212032009312/12/01 03:20:31  5-MIN KMSN 120920Z 17006KT 7SM CLR 03/M01 A3009 710 79 -500 170/06 RMK AO2
14837KMSN MSN20011212032509612/12/01 03:25:31  5-MIN KMSN 120925Z 17006KT 6SM HZ CLR 03/M01 A3009 710 79 -500 170/06 RMK AO2
14837KMSN MSN20011212033009912/12/01 03:30:31  5-MIN KMSN 120930Z 17006KT 6SM HZ FEW120 03/M01 A3008 710 79 -500 170/06 RMK AO2
14837KMSN MSN20011212033509912/12/01 03:35:31  5-MIN KMSN 120935Z 16007KT 6SM HZ SCT110 03/M01 A3008 710 79 -500 160/07 RMK AO2
14837KMSN MSN20011212034009912/12/01 03:40:31  5-MIN KMSN 120940Z 17006KT 6SM HZ SCT110 03/M01 A3008 720 79 -500 170/06 RMK AO2
14837KMSN MSN20011212034509912/12/01 03:45:31  5-MIN KMSN 120945Z 17006KT 6SM HZ BKN110 03/M01 A3008 720 76 -400 170/06 RMK AO2
14837KMSN MSN20011212035011312/12/01 03:50:31  5-MIN KMSN 120950Z 17007KT 8SM BKN110 03/M01 A3008 720 76 -400 160/07 RMK AO2 SLP193 T00331006
14837KMSN MSN20011212035509912/12/01 03:55:31  5-MIN KMSN 120955Z 17007KT 6SM HZ BKN110 03/M01 A3008 710 76 -400 170/07 RMK AO2
14837KMSN MSN20011212040009912/12/01 04:00:31  5-MIN KMSN 121000Z 17006KT 6SM HZ BKN110 03/M01 A3008 720 76 -400 170/06 RMK AO2
14837KMSN MSN20011212040509912/12/01 04:05:31  5-MIN KMSN 121005Z 17007KT 6SM HZ BKN110 03/M01 A3008 720 76 -400 170/07 RMK AO2
14837KMSN MSN20011212041009912/12/01 04:10:31  5-MIN KMSN 121010Z 17007KT 6SM HZ BKN110 03/M01 A3008 720 76 -400 160/07 RMK AO2
14837KMSN MSN20011212041509912/12/01 04:15:31  5-MIN KMSN 121015Z 16007KT 6SM HZ BKN110 03/M01 A3008 720 76 -400 160/07 RMK AO2
14837KMSN MSN20011212042009912/12/01 04:20:31  5-MIN KMSN 121020Z 16007KT 6SM HZ BKN110 03/M01 A3007 720 76 -400 160/07 RMK AO2
14837KMSN MSN20011212042509912/12/01 04:25:31  5-MIN KMSN 121025Z 16007KT 6SM HZ BKN110 03/M01 A3008 720 76 -400 160/07 RMK AO2
14837KMSN MSN20011212043009912/12/01 04:30:31  5-MIN KMSN 121030Z 16006KT 6SM HZ BKN100 03/M01 A3008 720 76 -400 160/06 RMK AO2
14837KMSN MSN20011212043509912/12/01 04:35:31  5-MIN KMSN 121035Z 17005KT 6SM HZ SCT100 03/M01 A3008 720 76 -400 170/05 RMK AO2
14837KMSN MSN20011212044009912/12/01 04:40:31  5-MIN KMSN 121040Z 17005KT 6SM HZ SCT100 03/M01 A3008 720 76 -400 170/05 RMK AO2
14837KMSN MSN20011212044509912/12/01 04:45:31  5-MIN KMSN 121045Z 16005KT 6SM HZ SCT100 03/M01 A3008 720 76 -400 160/05 RMK AO2
14837KMSN MSN20011212045011312/12/01 04:50:31  5-MIN KMSN 121050Z 16005KT 8SM BKN095 03/M01 A3008 720 79 -500 160/05 RMK AO2 SLP193 T00281006
14837KMSN MSN20011212045509912/12/01 04:55:31  5-MIN KMSN 121055Z 16005KT 6SM HZ BKN095 03/M01 A3008 720 76 -400 160/05 RMK AO2
14837KMSN MSN20011212050009912/12/01 05:00:31  5-MIN KMSN 121100Z 16004KT 6SM HZ BKN090 03/M01 A3008 720 76 -400 160/04 RMK AO2
14837KMSN MSN20011212050509912/12/01 05:05:31  5-MIN KMSN 121105Z 16004KT 6SM HZ OVC090 03/M01 A3008 720 76 -400 160/04 RMK AO2
14837KMSN MSN20011212051009912/12/01 05:10:31  5-MIN KMSN 121110Z 16005KT 6SM HZ BKN090 03/M01 A3007 720 76 -400 160/05 RMK AO2
14837KMSN MSN20011212051510612/12/01 05:15:31  5-MIN KMSN 121115Z 15005KT 6SM HZ BKN090 BKN120 03/M01 A3007 730 76 -400 150/05 RMK AO2
14837KMSN MSN20011212052011012/12/01 05:20:31  5-MIN KMSN 121120Z 15007KT 7SM BKN090 BKN110 03/M01 A3006 740 76 -400 140/07 RMK AO2 PRESFR
14837KMSN MSN20011212052510612/12/01 05:25:31  5-MIN KMSN 121125Z 15007KT 6SM HZ SCT090 OVC110 03/M01 A3005 740 76 -400 150/07 RMK AO2
14837KMSN MSN20011212053010512/12/01 05:30:31  5-MIN KMSN 121130Z 15007KT 6SM HZ SCT100 BKN110 03/00 A3006 740 79 -400 150/07 RMK AO2
14837KMSN MSN20011212053509812/12/01 05:35:31  5-MIN KMSN 121135Z 17006KT 6SM HZ BKN110 03/00 A3006 740 79 -400 170/06 RMK AO2
14837KMSN MSN20011212054009812/12/01 05:40:31  5-MIN KMSN 121140Z 16006KT 6SM HZ OVC110 03/00 A3006 740 79 -400 160/06 RMK AO2
14837KMSN MSN20011212054509812/12/01 05:45:31  5-MIN KMSN 121145Z 16006KT 6SM HZ OVC110 03/00 A3005 740 79 -400 150/06 RMK AO2
14837KMSN MSN20011212055014012/12/01 05:50:31  5-MIN KMSN 121150Z 16006KT 6SM HZ FEW100 OVC120 03/00 A3005 740 79 -400 160/06 RMK AO2 SLP185 T00330000 10033 20028 56010
14837KMSN MSN20011212055509812/12/01 05:55:31  5-MIN KMSN 121155Z 16007KT 6SM HZ OVC110 03/00 A3005 740 79 -400 160/07 RMK AO2
14837KMSN MSN20011212060009812/12/01 06:00:31  5-MIN KMSN 121200Z 16007KT 6SM HZ OVC110 03/00 A3005 740 79 -400 160/07 RMK AO2
14837KMSN MSN20011212060510512/12/01 06:05:31  5-MIN KMSN 121205Z 16007KT 6SM HZ FEW090 BKN110 03/00 A3006 740 79 -400 160/07 RMK AO2
14837KMSN MSN20011212061010512/12/01 06:10:31  5-MIN KMSN 121210Z 17007KT 6SM HZ SCT085 BKN110 03/00 A3006 740 79 -400 170/07 RMK AO2
14837KMSN MSN20011212061510512/12/01 06:15:31  5-MIN KMSN 121215Z 17008KT 6SM HZ BKN080 BKN110 03/00 A3006 740 79 -400 170/08 RMK AO2
14837KMSN MSN20011212062010912/12/01 06:20:31  5-MIN KMSN 121220Z 18006KT 7SM SCT021 BKN080 OVC110 04/00 A3007 730 76 -400 180/06 RMK AO2
14837KMSN MSN20011212062510912/12/01 06:25:31  5-MIN KMSN 121225Z 18007KT 7SM FEW021 BKN025 OVC100 04/01 A3006 730 79 -300 180/07 RMK AO2
14837KMSN MSN20011212063010212/12/01 06:30:31  5-MIN KMSN 121230Z 17007KT 7SM SCT023 BKN080 04/01 A3006 740 79 -300 170/07 RMK AO2
14837KMSN MSN20011212063511212/12/01 06:35:31  5-MIN KMSN 121235Z 17006KT 6SM HZ FEW020 BKN026 OVC080 04/01 A3006 740 79 -300 170/06 RMK AO2
14837KMSN MSN20011212064011212/12/01 06:40:31  5-MIN KMSN 121240Z 16006KT 6SM HZ FEW020 BKN025 OVC080 04/01 A3005 740 79 -300 160/06 RMK AO2
14837KMSN MSN20011212064511212/12/01 06:45:31  5-MIN KMSN 121245Z 17006KT 6SM HZ FEW020 BKN025 OVC080 04/01 A3005 740 79 -300 170/06 RMK AO2
14837KMSN MSN20011212065012912/12/01 06:50:31  5-MIN KMSN 121250Z 16007KT 6SM HZ FEW020 BKN025 OVC080 04/01 A3005 750 79 -300 160/07 RMK AO2 SLP183 T00390006
14837KMSN MSN20011212065510512/12/01 06:55:31  5-MIN KMSN 121255Z 17006KT 6SM HZ FEW029 OVC070 04/01 A3005 740 79 -300 170/06 RMK AO2
14837KMSN MSN20011212070009812/12/01 07:00:31  5-MIN KMSN 121300Z 17005KT 6SM HZ OVC065 04/01 A3005 750 79 -300 170/05 RMK AO2
14837KMSN MSN20011212070509812/12/01 07:05:31  5-MIN KMSN 121305Z 17005KT 6SM HZ OVC070 04/01 A3005 740 79 -300 170/05 RMK AO2
14837KMSN MSN20011212071009512/12/01 07:10:31  5-MIN KMSN 121310Z 18006KT 7SM OVC070 04/01 A3006 740 79 -300 180/06 RMK AO2
14837KMSN MSN20011212071509512/12/01 07:15:31  5-MIN KMSN 121315Z 18004KT 7SM OVC070 04/01 A3006 740 79 -300 180/04 RMK AO2
14837KMSN MSN20011212072009512/12/01 07:20:31  5-MIN KMSN 121320Z 19005KT 7SM OVC070 04/01 A3006 740 79 -300 190/05 RMK AO2
14837KMSN MSN20011212072509512/12/01 07:25:31  5-MIN KMSN 121325Z 18005KT 7SM OVC070 04/01 A3006 740 79 -300 180/05 RMK AO2
14837KMSN MSN20011212073009512/12/01 07:30:31  5-MIN KMSN 121330Z 19005KT 7SM OVC070 04/01 A3006 730 76 -300 190/05 RMK AO2
14837KMSN MSN20011212073509512/12/01 07:35:31  5-MIN KMSN 121335Z 19006KT 7SM OVC070 04/01 A3006 740 76 -300 190/06 RMK AO2
14837KMSN MSN20011212074009512/12/01 07:40:31  5-MIN KMSN 121340Z 17005KT 7SM OVC070 04/01 A3006 740 76 -300 170/05 RMK AO2
14837KMSN MSN20011212074509512/12/01 07:45:31  5-MIN KMSN 121345Z 17007KT 7SM OVC070 04/01 A3005 740 76 -300 170/07 RMK AO2
14837KMSN MSN20011212075011512/12/01 07:50:31  5-MIN KMSN 121350Z 18006KT 5SM HZ OVC070 04/01 A3005 750 79 -300 180/06 RMK AO2 SLP183 T00440011
14837KMSN MSN20011212075509812/12/01 07:55:31  5-MIN KMSN 121355Z 19006KT 5SM HZ OVC065 04/01 A3005 740 79 -300 190/06 RMK AO2
14837KMSN MSN20011212080009812/12/01 08:00:31  5-MIN KMSN 121400Z 19006KT 6SM HZ OVC065 04/01 A3005 740 79 -300 190/06 RMK AO2
14837KMSN MSN20011212080509812/12/01 08:05:31  5-MIN KMSN 121405Z 18006KT 5SM HZ OVC065 04/01 A3005 750 79 -300 180/06 RMK AO2
14837KMSN MSN20011212081009812/12/01 08:10:31  5-MIN KMSN 121410Z 17007KT 5SM HZ OVC060 04/01 A3005 750 79 -300 170/07 RMK AO2
14837KMSN MSN20011212081509812/12/01 08:15:31  5-MIN KMSN 121415Z 17008KT 5SM HZ OVC060 04/01 A3005 750 79 -300 170/08 RMK AO2
14837KMSN MSN20011212082009812/12/01 08:20:31  5-MIN KMSN 121420Z 18008KT 5SM HZ OVC060 04/01 A3005 740 79 -300 180/08 RMK AO2
14837KMSN MSN20011212082509812/12/01 08:25:31  5-MIN KMSN 121425Z 18006KT 5SM HZ OVC060 04/01 A3005 740 79 -300 180/06 RMK AO2
14837KMSN MSN20011212083009812/12/01 08:30:31  5-MIN KMSN 121430Z 17006KT 5SM HZ OVC060 04/01 A3005 750 79 -300 170/06 RMK AO2
14837KMSN MSN20011212083509812/12/01 08:35:31  5-MIN KMSN 121435Z 18007KT 5SM HZ OVC060 04/01 A3005 750 79 -300 170/07 RMK AO2
14837KMSN MSN20011212084009812/12/01 08:40:31  5-MIN KMSN 121440Z 17008KT 5SM HZ OVC055 04/01 A3005 750 79 -300 170/08 RMK AO2
14837KMSN MSN20011212084509812/12/01 08:45:31  5-MIN KMSN 121445Z 17008KT 5SM HZ OVC055 04/01 A3005 750 79 -300 170/08 RMK AO2
14837KMSN MSN20011212085012112/12/01 08:50:31  5-MIN KMSN 121450Z 17007KT 5SM HZ OVC055 04/01 A3004 750 79 -300 170/07 RMK AO2 SLP180 T00440011 58015
14837KMSN MSN20011212085509812/12/01 08:55:31  5-MIN KMSN 121455Z 17007KT 5SM HZ OVC055 04/01 A3004 750 79 -300 170/07 RMK AO2
14837KMSN MSN20011212090009812/12/01 09:00:31  5-MIN KMSN 121500Z 17007KT 5SM HZ OVC050 04/01 A3004 750 79 -300 170/07 RMK AO2
14837KMSN MSN20011212090509812/12/01 09:05:31  5-MIN KMSN 121505Z 16007KT 5SM HZ OVC050 04/01 A3003 760 79 -200 160/07 RMK AO2
14837KMSN MSN20011212091009812/12/01 09:10:31  5-MIN KMSN 121510Z 18007KT 5SM HZ OVC050 04/01 A3003 760 79 -200 180/07 RMK AO2
14837KMSN MSN20011212091509812/12/01 09:15:31  5-MIN KMSN 121515Z 17008KT 5SM HZ OVC050 04/01 A3003 770 79 -200 170/08 RMK AO2
14837KMSN MSN20011212092009812/12/01 09:20:31  5-MIN KMSN 121520Z 17007KT 5SM HZ OVC050 04/02 A3002 770 82 -200 170/07 RMK AO2
14837KMSN MSN20011212092510512/12/01 09:25:31  5-MIN KMSN 121525Z 16007KT 5SM HZ OVC050 04/02 A3001 780 82 -200 160/07 RMK AO2 PRESFR
14837KMSN MSN20011212093009812/12/01 09:30:31  5-MIN KMSN 121530Z 17008KT 5SM HZ OVC050 04/02 A3001 780 82 -200 160/08 RMK AO2
14837KMSN MSN20011212093509812/12/01 09:35:31  5-MIN KMSN 121535Z 16008KT 5SM HZ OVC050 05/02 A3001 780 79 -200 160/08 RMK AO2
14837KMSN MSN20011212094009812/12/01 09:40:31  5-MIN KMSN 121540Z 17008KT 5SM HZ OVC050 05/02 A3001 780 79 -200 170/08 RMK AO2
14837KMSN MSN20011212094509812/12/01 09:45:31  5-MIN KMSN 121545Z 17007KT 5SM HZ OVC050 05/02 A3001 780 79 -200 170/07 RMK AO2
14837KMSN MSN20011212095011512/12/01 09:50:31  5-MIN KMSN 121550Z 16007KT 5SM HZ OVC050 05/02 A3002 780 79 -200 160/07 RMK AO2 SLP172 T00500017
14837KMSN MSN20011212095509812/12/01 09:55:31  5-MIN KMSN 121555Z 17008KT 5SM HZ BKN050 05/02 A3002 780 79 -200 160/08 RMK AO2
14837KMSN MSN20011212100009812/12/01 10:00:31  5-MIN KMSN 121600Z 17008KT 5SM HZ OVC050 05/02 A3001 780 79 -200 170/08 RMK AO2
14837KMSN MSN20011212100509812/12/01 10:05:31  5-MIN KMSN 121605Z 17008KT 5SM HZ OVC050 05/02 A3001 780 79 -200 170/08 RMK AO2
14837KMSN MSN20011212101009812/12/01 10:10:31  5-MIN KMSN 121610Z 16010KT 5SM HZ OVC050 05/02 A3001 780 82 -200 160/10 RMK AO2
14837KMSN MSN20011212101510512/12/01 10:15:31  5-MIN KMSN 121615Z 16010KT 5SM HZ FEW040 OVC050 05/02 A3001 780 82 -100 160/10 RMK AO2
14837KMSN MSN20011212102010512/12/01 10:20:31  5-MIN KMSN 121620Z 16009KT 6SM HZ FEW040 OVC050 05/02 A3001 780 82 -100 160/09 RMK AO2
14837KMSN MSN20011212102510512/12/01 10:25:31  5-MIN KMSN 121625Z 16010KT 6SM HZ BKN050 OVC070 05/02 A3001 780 82 -100 160/10 RMK AO2
14837KMSN MSN20011212103011212/12/01 10:30:31  5-MIN KMSN 121630Z 17012KT 6SM HZ FEW041 BKN050 OVC070 05/02 A3001 780 82 -100 170/12 RMK AO2
14837KMSN MSN20011212103511212/12/01 10:35:31  5-MIN KMSN 121635Z 16012KT 6SM HZ SCT041 BKN050 OVC070 05/02 A3000 790 82 -100 160/12 RMK AO2
14837KMSN MSN20011212104011212/12/01 10:40:31  5-MIN KMSN 121640Z 17012KT 6SM HZ SCT041 BKN050 OVC070 05/02 A3000 790 82 -100 170/12 RMK AO2
14837KMSN MSN20011212104511212/12/01 10:45:31  5-MIN KMSN 121645Z 17011KT 6SM HZ SCT041 BKN050 OVC070 05/02 A3000 790 82 -100 170/11 RMK AO2
14837KMSN MSN20011212105012212/12/01 10:50:31  5-MIN KMSN 121650Z 17008KT 6SM HZ BKN039 OVC070 06/02 A3000 790 79 -100 170/08 RMK AO2 SLP166 T00560022
14837KMSN MSN20011212105510512/12/01 10:55:31  5-MIN KMSN 121655Z 16008KT 6SM HZ BKN039 OVC070 06/02 A3000 790 79 -100 160/08 RMK AO2
14837KMSN MSN20011212110010512/12/01 11:00:31  5-MIN KMSN 121700Z 17007KT 6SM HZ BKN039 OVC070 06/02 A2999 800 79 -100 170/07 RMK AO2
14837KMSN MSN20011212110509812/12/01 11:05:31  5-MIN KMSN 121705Z 17008KT 6SM HZ OVC037 06/02 A2999 800 79 -100 170/08 RMK AO2
14837KMSN MSN20011212111010512/12/01 11:10:31  5-MIN KMSN 121710Z 17007KT 6SM HZ BKN037 OVC049 06/02 A2999 800 79 -100 170/07 RMK AO2
14837KMSN MSN20011212111510212/12/01 11:15:31  5-MIN KMSN 121715Z 16009KT 6SM HZ BKN037 OVC049 06/03 A2998 810 82 0 160/09 RMK AO2
14837KMSN MSN20011212112010212/12/01 11:20:31  5-MIN KMSN 121720Z 16009KT 6SM HZ SCT037 OVC049 06/03 A2998 810 82 0 160/09 RMK AO2
14837KMSN MSN20011212112510212/12/01 11:25:31  5-MIN KMSN 121725Z 16008KT 6SM HZ SCT037 OVC049 06/03 A2997 820 82 0 160/08 RMK AO2
14837KMSN MSN20011212113010212/12/01 11:30:31  5-MIN KMSN 121730Z 17008KT 6SM HZ FEW037 OVC049 06/03 A2997 820 82 0 170/08 RMK AO2
14837KMSN MSN20011212113510212/12/01 11:35:31  5-MIN KMSN 121735Z 18008KT 6SM HZ FEW042 OVC049 06/03 A2997 810 82 0 180/08 RMK AO2
14837KMSN MSN20011212114010212/12/01 11:40:31  5-MIN KMSN 121740Z 19007KT 6SM HZ SCT042 OVC049 06/03 A2998 810 82 0 190/07 RMK AO2
14837KMSN MSN20011212114510212/12/01 11:45:31  5-MIN KMSN 121745Z 17008KT 6SM HZ BKN040 OVC049 06/03 A2997 820 82 0 170/08 RMK AO2
14837KMSN MSN20011212115014712/12/01 11:50:31  5-MIN KMSN 121750Z 19006KT 3SM HZ BKN040 OVC049 06/03 A2998 810 82 0 190/06 RMK AO2 SFC VIS 6 SLP157 T00560028 10056 20033 58004
14837KMSN MSN20011212115511212/12/01 11:55:31  5-MIN KMSN 121755Z 19006KT 3SM HZ BKN038 OVC049 06/03 A2998 810 79 0 180/06 RMK AO2 SFC VIS 5
14837KMSN MSN20011212120010512/12/01 12:00:31  5-MIN KMSN 121800Z 19006KT 3SM HZ OVC038 06/03 A2998 810 79 0 190/06 RMK AO2 SFC VIS 5
14837KMSN MSN20011212120510512/12/01 12:05:31  5-MIN KMSN 121805Z 18006KT 3SM HZ OVC038 06/03 A2998 810 79 0 180/06 RMK AO2 SFC VIS 5
14837KMSN MSN20011212121010512/12/01 12:10:31  5-MIN KMSN 121810Z 19006KT 3SM HZ OVC038 06/03 A2998 810 79 0 180/06 RMK AO2 SFC VIS 5
14837KMSN MSN20011212121510512/12/01 12:15:31  5-MIN KMSN 121815Z 19005KT 3SM HZ OVC038 06/03 A2998 810 79 0 190/05 RMK AO2 SFC VIS 5
14837KMSN MSN20011212122010512/12/01 12:20:31  5-MIN KMSN 121820Z 21005KT 3SM HZ OVC040 06/03 A2998 810 79 0 210/05 RMK AO2 SFC VIS 5
14837KMSN MSN20011212122510512/12/01 12:25:31  5-MIN KMSN 121825Z 19006KT 3SM HZ OVC040 06/03 A2997 810 79 0 180/06 RMK AO2 SFC VIS 4
14837KMSN MSN20011212123010512/12/01 12:30:31  5-MIN KMSN 121830Z 19006KT 3SM HZ OVC040 06/03 A2997 820 79 0 190/06 RMK AO2 SFC VIS 4
14837KMSN MSN20011212123511212/12/01 12:35:31  5-MIN KMSN 121835Z 18007KT 3SM HZ FEW028 OVC040 06/03 A2997 820 79 0 180/07 RMK AO2 SFC VIS 4
14837KMSN MSN20011212124011212/12/01 12:40:31  5-MIN KMSN 121840Z 19006KT 3SM HZ FEW028 OVC040 06/03 A2997 820 79 0 190/06 RMK AO2 SFC VIS 4
14837KMSN MSN20011212124511212/12/01 12:45:31  5-MIN KMSN 121845Z 17006KT 3SM HZ FEW013 OVC040 06/03 A2996 830 82 0 170/06 RMK AO2 SFC VIS 5
14837KMSN MSN20011212125012912/12/01 12:50:31  5-MIN KMSN 121850Z 18005KT 3SM HZ SCT028 OVC040 06/03 A2996 830 82 0 180/05 RMK AO2 SFC VIS 5 SLP150 T00610033
14837KMSN MSN20011212125510512/12/01 12:55:31  5-MIN KMSN 121855Z 18004KT 3SM HZ OVC040 06/03 A2995 840 82 0 180/04 RMK AO2 SFC VIS 5
14837KMSN MSN20011212130011212/12/01 13:00:31  5-MIN KMSN 121900Z 18004KT 3SM HZ OVC040 06/03 A2994 840 82 0 180/04 RMK AO2 SFC VIS 4 PRESFR
14837KMSN MSN20011212130511212/12/01 13:05:31  5-MIN KMSN 121905Z 16005KT 3SM HZ OVC040 06/03 A2994 850 82 0 160/05 RMK AO2 SFC VIS 4 PRESFR
14837KMSN MSN20011212131010512/12/01 13:10:31  5-MIN KMSN 121910Z 17005KT 3SM HZ OVC040 06/03 A2994 850 82 0 170/05 RMK AO2 SFC VIS 4
14837KMSN MSN20011212131510512/12/01 13:15:31  5-MIN KMSN 121915Z 16006KT 3SM HZ OVC040 06/03 A2993 850 82 0 160/06 RMK AO2 SFC VIS 4
14837KMSN MSN20011212132010512/12/01 13:20:31  5-MIN KMSN 121920Z 16006KT 3SM HZ OVC038 06/03 A2993 850 82 0 160/06 RMK AO2 SFC VIS 4
14837KMSN MSN20011212132510512/12/01 13:25:31  5-MIN KMSN 121925Z 17005KT 3SM HZ OVC038 06/03 A2993 850 82 0 170/05 RMK AO2 SFC VIS 4
14837KMSN MSN20011212133010512/12/01 13:30:31  5-MIN KMSN 121930Z 18006KT 3SM HZ OVC038 06/03 A2993 850 82 0 180/06 RMK AO2 SFC VIS 4
14837KMSN MSN20011212133510512/12/01 13:35:31  5-MIN KMSN 121935Z 17005KT 3SM HZ OVC038 06/03 A2993 850 82 0 170/05 RMK AO2 SFC VIS 4
14837KMSN MSN20011212134010512/12/01 13:40:31  5-MIN KMSN 121940Z 16005KT 3SM HZ OVC038 06/03 A2993 860 82 0 160/05 RMK AO2 SFC VIS 4
14837KMSN MSN20011212134510512/12/01 13:45:31  5-MIN KMSN 121945Z 17005KT 3SM HZ OVC038 06/03 A2993 850 82 0 170/05 RMK AO2 SFC VIS 4
14837KMSN MSN20011212135012212/12/01 13:50:31  5-MIN KMSN 121950Z 16006KT 3SM HZ OVC038 06/03 A2993 860 82 0 160/06 RMK AO2 SFC VIS 4 SLP142 T00610033
14837KMSN MSN20011212135510512/12/01 13:55:31  5-MIN KMSN 121955Z 16005KT 3SM HZ OVC038 06/03 A2993 860 82 0 160/05 RMK AO2 SFC VIS 5
14837KMSN MSN20011212140010512/12/01 14:00:31  5-MIN KMSN 122000Z 17007KT 3SM HZ OVC038 06/03 A2994 850 82 0 160/07 RMK AO2 SFC VIS 6
14837KMSN MSN20011212140510512/12/01 14:05:31  5-MIN KMSN 122005Z 17006KT 3SM HZ OVC038 06/03 A2994 850 82 0 170/06 RMK AO2 SFC VIS 5
14837KMSN MSN20011212141010512/12/01 14:10:31  5-MIN KMSN 122010Z 17008KT 3SM HZ OVC038 06/03 A2994 850 82 0 170/08 RMK AO2 SFC VIS 5
14837KMSN MSN20011212141510512/12/01 14:15:31  5-MIN KMSN 122015Z 17007KT 3SM HZ OVC036 06/03 A2993 850 82 0 170/07 RMK AO2 SFC VIS 5
14837KMSN MSN20011212142010512/12/01 14:20:31  5-MIN KMSN 122020Z 16006KT 3SM HZ OVC036 06/03 A2993 860 82 0 160/06 RMK AO2 SFC VIS 5
14837KMSN MSN20011212142510512/12/01 14:25:31  5-MIN KMSN 122025Z 16006KT 3SM HZ OVC036 06/03 A2993 860 82 0 160/06 RMK AO2 SFC VIS 5
14837KMSN MSN20011212143010512/12/01 14:30:31  5-MIN KMSN 122030Z 16006KT 3SM HZ OVC036 06/03 A2993 860 82 0 160/06 RMK AO2 SFC VIS 5
14837KMSN MSN20011212143510512/12/01 14:35:31  5-MIN KMSN 122035Z 16007KT 3SM HZ OVC036 06/03 A2993 860 82 0 160/07 RMK AO2 SFC VIS 5
14837KMSN MSN20011212144010512/12/01 14:40:31  5-MIN KMSN 122040Z 16007KT 3SM HZ OVC036 06/03 A2993 860 82 0 160/07 RMK AO2 SFC VIS 5
14837KMSN MSN20011212144510512/12/01 14:45:31  5-MIN KMSN 122045Z 17007KT 3SM HZ OVC036 06/03 A2993 860 82 0 170/07 RMK AO2 SFC VIS 5
14837KMSN MSN20011212145012812/12/01 14:50:31  5-MIN KMSN 122050Z 17007KT 3SM HZ OVC036 06/03 A2993 860 82 0 170/07 RMK AO2 SFC VIS 5 SLP141 T00610033 58021
14837KMSN MSN20011212145510512/12/01 14:55:31  5-MIN KMSN 122055Z 16008KT 3SM HZ OVC036 06/03 A2993 860 82 0 160/08 RMK AO2 SFC VIS 6
14837KMSN MSN20011212150011212/12/01 15:00:31  5-MIN KMSN 122100Z 17008KT 3SM HZ FEW015 OVC036 06/03 A2992 860 82 0 170/08 RMK AO2 SFC VIS 6
14837KMSN MSN20011212150511212/12/01 15:05:31  5-MIN KMSN 122105Z 16008KT 3SM HZ FEW015 OVC036 06/03 A2992 860 82 0 160/08 RMK AO2 SFC VIS 6
14837KMSN MSN20011212151010212/12/01 15:10:31  5-MIN KMSN 122110Z 16007KT 5SM HZ SCT015 OVC036 06/03 A2992 860 82 0 160/07 RMK AO2
14837KMSN MSN20011212151510212/12/01 15:15:31  5-MIN KMSN 122115Z 16007KT 5SM HZ FEW015 OVC036 06/03 A2992 870 82 0 160/07 RMK AO2
14837KMSN MSN20011212152010212/12/01 15:20:31  5-MIN KMSN 122120Z 16006KT 5SM HZ FEW015 OVC036 06/03 A2992 860 82 0 160/06 RMK AO2
14837KMSN MSN20011212152510912/12/01 15:25:31  5-MIN KMSN 122125Z 18007KT 5SM HZ SCT015 SCT019 OVC036 06/03 A2992 860 82 0 180/07 RMK AO2
14837KMSN MSN20011212153011912/12/01 15:30:31  5-MIN KMSN 122130Z 18005KT 3SM HZ BKN015 BKN019 OVC036 06/03 A2992 860 82 0 180/05 RMK AO2 SFC VIS 5
14837KMSN MSN20011212153512112/12/01 15:35:31  5-MIN KMSN 122135Z 19005KT 3SM HZ BKN013 BKN019 OVC036 07/03 A2992 860 79 100 180/05 RMK AO2 SFC VIS 5
14837KMSN MSN20011212154011212/12/01 15:40:31  5-MIN KMSN 122140Z 18005KT 3SM HZ BKN013 OVC036 06/03 A2992 860 82 0 180/05 RMK AO2 SFC VIS 5
14837KMSN MSN20011212154511212/12/01 15:45:31  5-MIN KMSN 122145Z 18005KT 3SM HZ BKN013 OVC036 06/03 A2991 870 82 0 170/05 RMK AO2 SFC VIS 5
14837KMSN MSN20011212155011912/12/01 15:50:31  5-MIN KMSN 122150Z 17005KT 5SM BR BKN013 OVC034 06/04 A2991 870 86 0 170/05 RMK AO2 SLP136 T00610039
14837KMSN MSN20011212155510212/12/01 15:55:31  5-MIN KMSN 122155Z 17005KT 5SM BR BKN013 OVC034 06/04 A2992 870 86 0 170/05 RMK AO2
14837KMSN MSN20011212160010212/12/01 16:00:31  5-MIN KMSN 122200Z 16004KT 5SM BR BKN013 OVC034 06/04 A2991 870 86 0 160/04 RMK AO2
14837KMSN MSN20011212160510412/12/01 16:05:31  5-MIN KMSN 122205Z 00000KT 5SM BR BKN013 OVC034 06/04 A2991 870 86 100 000/00 RMK AO2
14837KMSN MSN20011212161009712/12/01 16:10:31  5-MIN KMSN 122210Z 16003KT 4SM BR OVC013 06/04 A2991 870 86 100 160/03 RMK AO2
14837KMSN MSN20011212161509512/12/01 16:15:31  5-MIN KMSN 122215Z 18004KT 4SM BR OVC013 06/04 A2991 870 86 0 180/04 RMK AO2
14837KMSN MSN20011212162009712/12/01 16:20:31  5-MIN KMSN 122220Z 16004KT 4SM BR OVC013 06/04 A2991 870 86 100 160/04 RMK AO2
14837KMSN MSN20011212162509512/12/01 16:25:31  5-MIN KMSN 122225Z 16004KT 4SM BR OVC013 06/04 A2991 870 86 0 160/04 RMK AO2
14837KMSN MSN20011212163012712/12/01 16:30:31  5-MIN KMSN 122230Z 15004KT 2SM -DZ BR OVC013 06/04 A2991 870 86 100 150/04 RMK AO2 TWR VIS 2 1/2 DZB26 P0000
14837KMSN MSN20011212163512512/12/01 16:35:31  5-MIN KMSN 122235Z 15005KT 2SM -DZ BR OVC013 06/04 A2991 880 92 0 150/05 RMK AO2 TWR VIS 2 1/2 DZB26 P0000
14837KMSN MSN20011212164012512/12/01 16:40:31  5-MIN KMSN 122240Z 15005KT 2SM -DZ BR OVC011 06/04 A2990 880 92 0 150/05 RMK AO2 TWR VIS 2 1/2 DZB26 P0000
14837KMSN MSN20011212164512512/12/01 16:45:31  5-MIN KMSN 122245Z 15004KT 2SM -DZ BR OVC011 06/04 A2990 890 92 0 150/04 RMK AO2 TWR VIS 2 1/2 DZB26 P0000
14837KMSN MSN20011212165015812/12/01 16:50:31  5-MIN KMSN 122250Z 14003KT 1 3/4SM -DZ BR OVC011 06/04 A2989 890 92 0 130/03 RMK AO2 TWR VIS 2 1/2 DZB26 CIG 007V012 SLP129 P0000 T00560044
14837KMSN MSN20011212165513512/12/01 16:55:31  5-MIN KMSN 122255Z 15004KT 1 3/4SM -DZ BR OVC011 06/04 A2990 890 92 0 150/04 RMK AO2 TWR VIS 2 1/2 CIG 006V012 P0000
14837KMSN MSN20011212170013512/12/01 17:00:31  5-MIN KMSN 122300Z 16005KT 1 3/4SM -DZ BR OVC011 06/05 A2991 880 96 0 160/05 RMK AO2 TWR VIS 2 1/2 CIG 006V012 P0000
14837KMSN MSN20011212170513512/12/01 17:05:31  5-MIN KMSN 122305Z 15005KT 1 3/4SM -DZ BR OVC009 06/05 A2990 880 96 0 150/05 RMK AO2 TWR VIS 2 1/2 CIG 004V012 P0000
14837KMSN MSN20011212171014212/12/01 17:10:31  5-MIN KMSN 122310Z 14004KT 1 3/4SM -DZ BR BKN006 OVC011 06/05 A2990 880 96 0 140/04 RMK AO2 TWR VIS 2 1/2 CIG 004V008 P0000
14837KMSN MSN20011212171514212/12/01 17:15:31  5-MIN KMSN 122315Z 15004KT 1 3/4SM -DZ BR BKN006 OVC011 06/05 A2990 880 96 0 150/04 RMK AO2 TWR VIS 2 1/2 CIG 003V008 P0000
14837KMSN MSN20011212172014212/12/01 17:20:31  5-MIN KMSN 122320Z 15005KT 1 3/4SM -DZ BR BKN006 OVC011 06/05 A2990 880 96 0 150/05 RMK AO2 TWR VIS 2 1/2 CIG 003V008 P0000
14837KMSN MSN20011212172513512/12/01 17:25:31  5-MIN KMSN 122325Z 16004KT 1 3/4SM -DZ BR OVC006 06/05 A2990 880 96 0 160/04 RMK AO2 TWR VIS 2 1/2 CIG 003V011 P0000
14837KMSN MSN20011212173013512/12/01 17:30:31  5-MIN KMSN 122330Z 15005KT 1 3/4SM -DZ BR OVC006 06/05 A2990 890 96 0 150/05 RMK AO2 TWR VIS 2 1/2 CIG 003V009 P0000
14837KMSN MSN20011212173513512/12/01 17:35:31  5-MIN KMSN 122335Z 15005KT 1 3/4SM -DZ BR OVC006 06/05 A2989 890 96 0 140/05 RMK AO2 TWR VIS 2 1/2 CIG 003V008 P0000
14837KMSN MSN20011212174013512/12/01 17:40:31  5-MIN KMSN 122340Z 15004KT 1 3/4SM -DZ BR OVC006 06/05 A2990 890 96 0 150/04 RMK AO2 TWR VIS 2 1/2 CIG 003V008 P0001
14837KMSN MSN20011212174513512/12/01 17:45:31  5-MIN KMSN 122345Z 14004KT 1 3/4SM -DZ BR OVC006 06/05 A2989 890 96 0 140/04 RMK AO2 TWR VIS 2 1/2 CIG 003V008 P0001
14837KMSN MSN20011212175017612/12/01 17:50:31  5-MIN KMSN 122350Z 00000KT 1 1/4SM -DZ BR OVC006 06/05 A2988 900 96 0 000/00 RMK AO2 SFC VIS 1 3/4 CIG 003V008 SLP125 P0001 60001 T00560050 10067 20056 55015
14837KMSN MSN20011212175513512/12/01 17:55:31  5-MIN KMSN 122355Z 00000KT 1 1/4SM -DZ BR OVC004 06/05 A2988 900 96 0 000/00 RMK AO2 SFC VIS 1 3/4 CIG 002V006 P0000
14837KMSN MSN20011212180013512/12/01 18:00:31  5-MIN KMSN 130000Z 12003KT 1 1/4SM -DZ BR OVC004 06/05 A2988 900 96 0 120/03 RMK AO2 SFC VIS 1 1/2 CIG 002V006 P0000
14837KMSN MSN20011212180513512/12/01 18:05:31  5-MIN KMSN 130005Z 12003KT 1 1/4SM -DZ BR OVC004 06/05 A2989 900 96 0 120/03 RMK AO2 SFC VIS 1 1/2 CIG 002V006 P0000
14837KMSN MSN20011212181013512/12/01 18:10:31  5-MIN KMSN 130010Z 00000KT 1 1/4SM -DZ BR OVC004 06/05 A2989 900 96 0 000/00 RMK AO2 SFC VIS 1 1/2 CIG 002V006 P0000
14837KMSN MSN20011212181510912/12/01 18:15:31  5-MIN KMSN 130015Z 00000KT 1 1/4SM -DZ BR OVC004 06/05 A2988 900 96 0 000/00 RMK AO2 P0000
14837KMSN MSN20011212182010912/12/01 18:20:31  5-MIN KMSN 130020Z 09003KT 1 1/4SM -DZ BR OVC004 06/05 A2987 910 96 0 090/03 RMK AO2 P0000
14837KMSN MSN20011212182510912/12/01 18:25:31  5-MIN KMSN 130025Z 11003KT 1 1/4SM -DZ BR OVC004 06/05 A2988 900 96 0 110/03 RMK AO2 P0000
14837KMSN MSN20011212183010912/12/01 18:30:31  5-MIN KMSN 130030Z 10003KT 1 1/4SM -DZ BR OVC004 06/05 A2988 910 96 0 100/03 RMK AO2 P0000
14837KMSN MSN20011212183510912/12/01 18:35:31  5-MIN KMSN 130035Z 11004KT 1 1/4SM -DZ BR OVC004 06/05 A2987 910 96 0 100/04 RMK AO2 P0000
14837KMSN MSN20011212184010912/12/01 18:40:31  5-MIN KMSN 130040Z 10004KT 1 1/4SM -DZ BR OVC004 06/05 A2987 910 96 0 100/04 RMK AO2 P0000
14837KMSN MSN20011212184510912/12/01 18:45:31  5-MIN KMSN 130045Z 11003KT 1 1/4SM -DZ BR OVC004 06/05 A2987 910 96 0 100/03 RMK AO2 P0000
14837KMSN MSN20011212185012612/12/01 18:50:31  5-MIN KMSN 130050Z 10003KT 1 1/4SM -DZ BR OVC004 06/05 A2986 920 96 0 100/03 RMK AO2 SLP119 P0000 T00560050
14837KMSN MSN20011212185510912/12/01 18:55:31  5-MIN KMSN 130055Z 09003KT 1 1/4SM -DZ BR OVC004 06/05 A2986 920 96 0 080/03 RMK AO2 P0000
14837KMSN MSN20011212190010912/12/01 19:00:31  5-MIN KMSN 130100Z 09003KT 1 1/4SM -DZ BR OVC004 06/05 A2986 920 96 0 090/03 RMK AO2 P0000
14837KMSN MSN20011212190510912/12/01 19:05:31  5-MIN KMSN 130105Z 11004KT 1 1/4SM -DZ BR OVC004 06/05 A2986 920 96 0 100/04 RMK AO2 P0000
14837KMSN MSN20011212191012312/12/01 19:10:31  5-MIN KMSN 130110Z 10003KT 1 1/4SM -DZ BR OVC004 06/05 A2986 920 96 0 100/03 RMK AO2 SFC VIS 1 1/2 P0000
14837KMSN MSN20011212191510912/12/01 19:15:31  5-MIN KMSN 130115Z 12003KT 1 1/4SM -DZ BR OVC004 06/05 A2986 920 96 0 110/03 RMK AO2 P0000
14837KMSN MSN20011212192010912/12/01 19:20:31  5-MIN KMSN 130120Z 14003KT 1 1/4SM -DZ BR OVC004 06/05 A2986 920 96 0 140/03 RMK AO2 P0000
14837KMSN MSN20011212192510912/12/01 19:25:31  5-MIN KMSN 130125Z 17003KT 1 1/4SM -DZ BR OVC004 06/05 A2986 920 96 0 170/03 RMK AO2 P0000
14837KMSN MSN20011212193010912/12/01 19:30:31  5-MIN KMSN 130130Z 18003KT 1 1/4SM -DZ BR OVC004 06/05 A2987 920 96 0 180/03 RMK AO2 P0001
14837KMSN MSN20011212193510912/12/01 19:35:31  5-MIN KMSN 130135Z 19004KT 1 1/4SM -DZ BR OVC004 06/05 A2987 910 96 0 190/04 RMK AO2 P0002
14837KMSN MSN20011212194010912/12/01 19:40:31  5-MIN KMSN 130140Z 00000KT 1 1/4SM -DZ BR OVC004 06/05 A2985 930 96 0 000/00 RMK AO2 P0003
14837KMSN MSN20011212194511912/12/01 19:45:31  5-MIN KMSN 130145Z 00000KT 1 1/4SM RA BR OVC004 06/05 A2985 930 96 0 000/00 RMK AO2 DZE41RAB41 P0005
14837KMSN MSN20011212195013812/12/01 19:50:31  5-MIN KMSN 130150Z 10003KT 1 1/4SM RA BR OVC004 06/05 A2985 930 96 100 100/03 RMK AO2 DZE41RAB41 SLP113 P0006 T00560050
14837KMSN MSN20011212195511012/12/01 19:55:31  5-MIN KMSN 130155Z 00000KT 1 1/4SM RA BR OVC004 06/05 A2985 930 96 100 000/00 RMK AO2 P0001
14837KMSN MSN20011212200011012/12/01 20:00:31  5-MIN KMSN 130200Z 00000KT 1 1/4SM RA BR OVC004 06/05 A2985 930 96 100 000/00 RMK AO2 P0003
14837KMSN MSN20011212200513612/12/01 20:05:31  5-MIN KMSN 130205Z 00000KT 1 1/4SM RA BR OVC004 06/05 A2985 930 96 100 000/00 RMK AO2 SFC VIS 1 1/2 CIG 002V006 P0005
14837KMSN MSN20011212201010912/12/01 20:10:31  5-MIN KMSN 130210Z 00000KT 1 1/4SM -RA BR OVC004 06/05 A2986 920 96 0 000/00 RMK AO2 P0005
14837KMSN MSN20011212201510912/12/01 20:15:31  5-MIN KMSN 130215Z 00000KT 1 1/4SM -RA BR OVC004 06/05 A2986 920 96 0 000/00 RMK AO2 P0006
14837KMSN MSN20011212202010812/12/01 20:20:31  5-MIN KMSN 130220Z 00000KT 1 1/4SM RA BR OVC004 06/05 A2986 920 96 0 000/00 RMK AO2 P0007
14837KMSN MSN20011212202510812/12/01 20:25:31  5-MIN KMSN 130225Z 32004KT 1 1/4SM RA BR OVC004 06/05 A2985 930 96 0 310/04 RMK AO2 P0008
14837KMSN MSN20011212203012712/12/01 20:30:31  5-MIN KMSN 130230Z 31003KT 1 1/4SM RA BR BKN004 OVC020 06/05 A2985 930 96 0 300/03 RMK AO2 CIG 002V009 P0009
14837KMSN MSN20011212203512712/12/01 20:35:31  5-MIN KMSN 130235Z 32003KT 1SM RA BR BKN004 OVC008 06/05 A2985 930 96 100 320/03 RMK AO2 TWR VIS 1 1/4 P0010
14837KMSN MSN20011212204012112/12/01 20:40:31  5-MIN KMSN 130240Z 00000KT 1SM -RA BR OVC004 06/05 A2985 930 96 100 000/00 RMK AO2 TWR VIS 1 1/4 P0011
14837KMSN MSN20011212204513312/12/01 20:45:31  5-MIN KMSN 130245Z 00000KT 1SM -RA BR OVC004 06/05 A2985 930 96 100 000/00 RMK AO2 TWR VIS 1 1/4 CIG 001V009 P0011
14837KMSN MSN20011212205015112/12/01 20:50:31  5-MIN KMSN 130250Z 00000KT 1 1/4SM -RA BR OVC004 05/05 A2985 930 100 0 000/00 RMK AO2 CIG 001V005 SLP114 P0012 60019 T00500050 58016
14837KMSN MSN20011212205513012/12/01 20:55:31  5-MIN KMSN 130255Z 00000KT 3/4SM -RA BR OVC004 05/05 A2985 930 100 0 000/00 RMK AO2 SFC VIS 1 CIG 001V007 P0000
14837KMSN MSN20011212210013412/12/01 21:00:31  5-MIN KMSN 130300Z 00000KT 3/4SM -RA BR OVC004 05/05 A2985 930 100 0 000/00 RMK AO2 SFC VIS 1 1/4 CIG 001V005 P0001
14837KMSN MSN20011212210513312/12/01 21:05:31  5-MIN KMSN 130305Z 00000KT 3/4SM RA BR OVC004 05/05 A2985 930 100 0 000/00 RMK AO2 SFC VIS 1 1/4 CIG 001V005 P0003
14837KMSN MSN20011212211013312/12/01 21:10:31  5-MIN KMSN 130310Z 00000KT 3/4SM RA BR OVC004 05/05 A2985 930 100 0 000/00 RMK AO2 SFC VIS 1 1/4 CIG 001V005 P0004
14837KMSN MSN20011212211513312/12/01 21:15:31  5-MIN KMSN 130315Z 00000KT 3/4SM RA BR OVC004 05/05 A2984 940 100 0 000/00 RMK AO2 SFC VIS 1 1/4 CIG 001V005 P0006
14837KMSN MSN20011212212013312/12/01 21:20:31  5-MIN KMSN 130320Z 00000KT 3/4SM RA BR OVC004 05/05 A2984 940 100 0 000/00 RMK AO2 SFC VIS 1 1/4 CIG 001V005 P0009
14837KMSN MSN20011212212512212/12/01 21:25:31  5-MIN KMSN 130325Z 00000KT 3/4SM -RA BR OVC004 05/05 A2983 950 100 0 000/00 RMK AO2 SFC VIS 1 1/4 P0010
14837KMSN MSN20011212213012812/12/01 21:30:31  5-MIN KMSN 130330Z 36003KT 3/4SM RA BR BKN004 OVC018 05/05 A2983 950 100 0 360/03 RMK AO2 SFC VIS 1 1/4 P0012
14837KMSN MSN20011212213512812/12/01 21:35:31  5-MIN KMSN 130335Z 36003KT 3/4SM -RA BR BKN004 OVC020 05/04 A2983 950 96 0 360/03 RMK AO2 SFC VIS 1 1/4 P0013
14837KMSN MSN20011212214012812/12/01 21:40:31  5-MIN KMSN 130340Z 36003KT 3/4SM -RA BR BKN004 OVC022 05/04 A2983 950 96 0 360/03 RMK AO2 SFC VIS 1 1/4 P0014
14837KMSN MSN20011212214512812/12/01 21:45:31  5-MIN KMSN 130345Z 01003KT 3/4SM -RA BR BKN004 OVC020 05/04 A2983 950 96 0 010/03 RMK AO2 SFC VIS 1 1/4 P0014
14837KMSN MSN20011212215014512/12/01 21:50:31  5-MIN KMSN 130350Z 00000KT 3/4SM -RA BR BKN004 OVC015 05/04 A2983 950 96 0 000/00 RMK AO2 SFC VIS 1 1/4 SLP107 P0015 T00500044
14837KMSN MSN20011212215512812/12/01 21:55:31  5-MIN KMSN 130355Z 00000KT 3/4SM -RA BR BKN004 OVC015 05/04 A2983 940 96 0 000/00 RMK AO2 SFC VIS 1 1/4 P0001
14837KMSN MSN20011212220012812/12/01 22:00:31  5-MIN KMSN 130400Z 00000KT 3/4SM -RA BR BKN004 OVC015 05/04 A2984 940 96 0 000/00 RMK AO2 SFC VIS 1 1/4 P0001
14837KMSN MSN20011212220512112/12/01 22:05:31  5-MIN KMSN 130405Z 00000KT 3/4SM -RA BR OVC004 05/04 A2984 940 96 0 000/00 RMK AO2 SFC VIS 1 1/4 P0002
14837KMSN MSN20011212221012812/12/01 22:10:31  5-MIN KMSN 130410Z 00000KT 3/4SM RA BR BKN004 OVC015 05/05 A2984 940 100 0 000/00 RMK AO2 SFC VIS 1 1/4 P0004
14837KMSN MSN20011212221513412/12/01 22:15:31  5-MIN KMSN 130415Z 00000KT 3/4SM RA BR BKN004 BKN013 OVC025 05/04 A2983 950 96 0 000/00 RMK AO2 SFC VIS 1 1/4 P0005
14837KMSN MSN20011212222012712/12/01 22:20:31  5-MIN KMSN 130420Z 02004KT 3/4SM RA BR BKN004 OVC017 05/04 A2982 960 96 0 020/04 RMK AO2 SFC VIS 1 1/4 P0006
14837KMSN MSN20011212222512312/12/01 22:25:31  5-MIN KMSN 130425Z 35004KT 3/4SM RA BR BKN002 OVC016 05/04 A2982 960 96 0 350/04 RMK AO2 SFC VIS 1 P0007
14837KMSN MSN20011212223012412/12/01 22:30:31  5-MIN KMSN 130430Z 32003KT 3/4SM -RA BR BKN002 OVC016 05/04 A2982 960 96 0 320/03 RMK AO2 SFC VIS 1 P0008
14837KMSN MSN20011212223512412/12/01 22:35:31  5-MIN KMSN 130435Z 33003KT 3/4SM -RA BR BKN002 OVC016 05/04 A2982 960 96 0 330/03 RMK AO2 SFC VIS 1 P0009
14837KMSN MSN20011212224013212/12/01 22:40:31  5-MIN KMSN 130440Z 33003KT 3/4SM -RA BR BKN002 BKN016 OVC026 05/05 A2982 960 100 0 330/03 RMK AO2 SFC VIS 1 P0009
14837KMSN MSN20011212224512512/12/01 22:45:31  5-MIN KMSN 130445Z 32003KT 3/4SM -RA BR BKN002 OVC026 05/05 A2982 950 100 0 320/03 RMK AO2 SFC VIS 1 P0010
14837KMSN MSN20011212225014612/12/01 22:50:31  5-MIN KMSN 130450Z 33004KT 3/4SM -RA BR OVC002 05/04 A2981 960 96 0 330/04 RMK AO2 SFC VIS 1 CIG 001V008 SLP101 P0010 T00500044
14837KMSN MSN20011212225512912/12/01 22:55:31  5-MIN KMSN 130455Z 34005KT 3/4SM -RA BR OVC002 05/04 A2981 970 96 0 340/05 RMK AO2 SFC VIS 1 CIG 001V008 P0000
14837KMSN MSN20011212230012912/12/01 23:00:31  5-MIN KMSN 130500Z 35005KT 3/4SM -RA BR OVC002 05/04 A2981 970 96 0 350/05 RMK AO2 SFC VIS 1 CIG 001V008 P0001
14837KMSN MSN20011212230512912/12/01 23:05:31  5-MIN KMSN 130505Z 35005KT 3/4SM -RA BR OVC002 05/04 A2981 970 96 0 350/05 RMK AO2 SFC VIS 1 CIG 001V008 P0001
14837KMSN MSN20011212231011712/12/01 23:10:31  5-MIN KMSN 130510Z 36005KT 3/4SM -RA BR OVC002 05/04 A2980 970 96 0 360/05 RMK AO2 SFC VIS 1 P0001
14837KMSN MSN20011212231511212/12/01 23:15:31  5-MIN KMSN 130515Z VRB03KT 1SM -RA BR BKN002 OVC005 05/04 A2980 980 96 0 VRB/03 RMK AO2 P0001
14837KMSN MSN20011212232011212/12/01 23:20:31  5-MIN KMSN 130520Z 34003KT 1SM -RA BR BKN002 OVC005 05/04 A2981 970 96 0 340/03 RMK AO2 P0002
14837KMSN MSN20011212232510512/12/01 23:25:31  5-MIN KMSN 130525Z 32003KT 1SM -RA BR OVC002 05/04 A2981 960 96 0 320/03 RMK AO2 P0002
14837KMSN MSN20011212233010512/12/01 23:30:31  5-MIN KMSN 130530Z 34003KT 1SM -RA BR OVC002 05/04 A2981 970 96 0 340/03 RMK AO2 P0002
14837KMSN MSN20011212233510712/12/01 23:35:31  5-MIN KMSN 130535Z 35003KT 1SM BR OVC002 05/04 A2981 970 96 0 350/03 RMK AO2 RAE35 P0002
14837KMSN MSN20011212234010712/12/01 23:40:31  5-MIN KMSN 130540Z 35003KT 1SM BR OVC002 05/04 A2980 970 96 0 350/03 RMK AO2 RAE35 P0002
14837KMSN MSN20011212234510712/12/01 23:45:31  5-MIN KMSN 130545Z 35004KT 1SM BR OVC002 05/04 A2979 980 96 0 350/04 RMK AO2 RAE35 P0002
14837KMSN MSN20011212235015612/12/01 23:50:31  5-MIN KMSN 130550Z 33004KT 1SM -RA BR OVC002 05/04 A2979 980 96 0 330/04 RMK AO2 SLP094 P0002 60047 T00500044 10056 20050 400670028 55010
14837KMSN MSN20011212235510712/12/01 23:55:31  5-MIN KMSN 130555Z 35003KT 1SM -RA BR OVC002 05/04 A2979 980 96 100 350/03 RMK AO2 P0000
14837KMSN MSN20011213000010712/13/01 00:00:31  5-MIN KMSN 130600Z VRB03KT 1SM -RA BR OVC002 05/04 A2979 980 96 100 VRB/03 RMK AO2 P0000
14837KMSN MSN20011213000510712/13/01 00:05:31  5-MIN KMSN 130605Z VRB03KT 1SM -RA BR OVC002 05/04 A2979 990 96 100 VRB/03 RMK AO2 P0000
14837KMSN MSN20011213001010812/13/01 00:10:31  5-MIN KMSN 130610Z 01005KT 1SM -RA BR OVC002 05/04 A2977 1000 96 100 010/05 RMK AO2 P0000
14837KMSN MSN20011213001510712/13/01 00:15:31  5-MIN KMSN 130615Z 01005KT 1SM -RA BR OVC002 04/04 A2978 1000 100 0 010/05 RMK AO2 P0000
14837KMSN MSN20011213002010612/13/01 00:20:31  5-MIN KMSN 130620Z 35003KT 3SM -RA BR OVC002 04/04 A2978 990 100 0 350/03 RMK AO2 P0000
14837KMSN MSN20011213002510712/13/01 00:25:31  5-MIN KMSN 130625Z 32003KT 3SM -RA BR OVC002 04/04 A2978 1000 100 0 320/03 RMK AO2 P0000
14837KMSN MSN20011213003010712/13/01 00:30:31  5-MIN KMSN 130630Z 35003KT 3SM -RA BR OVC002 04/04 A2977 1000 100 0 350/03 RMK AO2 P0000
14837KMSN MSN20011213003510712/13/01 00:35:31  5-MIN KMSN 130635Z 34004KT 4SM -RA BR OVC002 04/04 A2977 1000 100 0 340/04 RMK AO2 P0000
14837KMSN MSN20011213004010712/13/01 00:40:31  5-MIN KMSN 130640Z 33004KT 4SM -RA BR OVC002 04/04 A2977 1010 100 0 330/04 RMK AO2 P0000
14837KMSN MSN20011213004510812/13/01 00:45:31  5-MIN KMSN 130645Z 33004KT 4SM BR OVC002 04/04 A2977 1000 96 0 330/04 RMK AO2 RAE43 P0000
14837KMSN MSN20011213005012512/13/01 00:50:31  5-MIN KMSN 130650Z 33004KT 4SM BR OVC002 04/04 A2977 1000 96 0 330/04 RMK AO2 RAE43 SLP088 P0000 T00440039
14837KMSN MSN20011213005509612/13/01 00:55:31  5-MIN KMSN 130655Z 35005KT 5SM BR OVC002 04/04 A2977 1000 96 0 350/05 RMK AO2
14837KMSN MSN20011213010009612/13/01 01:00:31  5-MIN KMSN 130700Z 33005KT 5SM BR OVC002 04/04 A2978 1000 96 0 330/05 RMK AO2
14837KMSN MSN20011213010509612/13/01 01:05:31  5-MIN KMSN 130705Z 33005KT 5SM BR OVC002 04/04 A2978 1000 96 0 330/05 RMK AO2
14837KMSN MSN20011213011010312/13/01 01:10:31  5-MIN KMSN 130710Z 33006KT 5SM BR BKN002 OVC046 04/04 A2978 1000 96 0 330/06 RMK AO2
14837KMSN MSN20011213011510212/13/01 01:15:31  5-MIN KMSN 130715Z 32004KT 5SM BR BKN002 OVC046 04/04 A2979 990 96 0 320/04 RMK AO2
14837KMSN MSN20011213012010212/13/01 01:20:31  5-MIN KMSN 130720Z 32005KT 6SM BR BKN002 OVC044 04/04 A2978 990 96 0 320/05 RMK AO2
14837KMSN MSN20011213012510212/13/01 01:25:31  5-MIN KMSN 130725Z 32005KT 6SM BR SCT004 OVC044 04/04 A2978 990 96 0 320/05 RMK AO2
14837KMSN MSN20011213013010212/13/01 01:30:31  5-MIN KMSN 130730Z 32005KT 6SM BR FEW004 OVC044 04/04 A2979 990 96 0 320/05 RMK AO2
14837KMSN MSN20011213013509912/13/01 01:35:31  5-MIN KMSN 130735Z 31004KT 7SM FEW004 OVC044 04/04 A2979 980 96 0 310/04 RMK AO2
14837KMSN MSN20011213014009212/13/01 01:40:31  5-MIN KMSN 130740Z 31003KT 7SM OVC042 04/04 A2979 980 96 0 310/03 RMK AO2
14837KMSN MSN20011213014509212/13/01 01:45:31  5-MIN KMSN 130745Z 31004KT 7SM OVC042 04/04 A2979 980 96 0 310/04 RMK AO2
14837KMSN MSN20011213015010912/13/01 01:50:31  5-MIN KMSN 130750Z 32004KT 8SM OVC042 04/03 A2979 980 92 0 320/04 RMK AO2 SLP094 T00440033
14837KMSN MSN20011213015509212/13/01 01:55:31  5-MIN KMSN 130755Z 33005KT 9SM OVC042 04/03 A2979 980 92 0 330/05 RMK AO2
14837KMSN MSN20011213020009312/13/01 02:00:31  5-MIN KMSN 130800Z 33004KT 10SM OVC040 04/03 A2979 980 92 0 320/04 RMK AO2
14837KMSN MSN20011213020509312/13/01 02:05:31  5-MIN KMSN 130805Z 31004KT 10SM OVC040 04/03 A2980 980 92 0 310/04 RMK AO2
14837KMSN MSN20011213021009312/13/01 02:10:31  5-MIN KMSN 130810Z 30005KT 10SM OVC040 04/03 A2980 980 92 0 300/05 RMK AO2
14837KMSN MSN20011213021509312/13/01 02:15:31  5-MIN KMSN 130815Z 31004KT 10SM OVC040 04/03 A2980 980 92 0 310/04 RMK AO2
14837KMSN MSN20011213022009312/13/01 02:20:31  5-MIN KMSN 130820Z 31003KT 10SM OVC040 04/03 A2980 980 92 0 310/03 RMK AO2
14837KMSN MSN20011213022509312/13/01 02:25:31  5-MIN KMSN 130825Z 34003KT 10SM OVC040 04/03 A2979 980 92 0 340/03 RMK AO2
14837KMSN MSN20011213023010012/13/01 02:30:31  5-MIN KMSN 130830Z 31003KT 10SM FEW014 OVC040 04/03 A2980 980 92 0 310/03 RMK AO2
14837KMSN MSN20011213023510012/13/01 02:35:31  5-MIN KMSN 130835Z 00000KT 10SM SCT012 OVC040 04/03 A2979 990 92 0 000/00 RMK AO2
14837KMSN MSN20011213024010012/13/01 02:40:31  5-MIN KMSN 130840Z 33003KT 10SM BKN012 OVC040 04/03 A2979 990 92 0 320/03 RMK AO2
14837KMSN MSN20011213024509912/13/01 02:45:31  5-MIN KMSN 130845Z 29004KT 9SM BKN012 OVC040 04/03 A2980 980 96 0 290/04 RMK AO2
14837KMSN MSN20011213025012812/13/01 02:50:31  5-MIN KMSN 130850Z 30003KT 8SM BKN012 OVC040 04/03 A2980 980 96 0 300/03 RMK AO2 SLP096 60000 T00390033 56020
14837KMSN MSN20011213025509212/13/01 02:55:31  5-MIN KMSN 130855Z 30004KT 8SM OVC012 04/03 A2980 980 96 0 300/04 RMK AO2
14837KMSN MSN20011213030009212/13/01 03:00:31  5-MIN KMSN 130900Z 31004KT 7SM OVC012 04/03 A2980 980 96 0 310/04 RMK AO2
14837KMSN MSN20011213030511512/13/01 03:05:31  5-MIN KMSN 130905Z 31004KT 7SM -RA BKN012 OVC050 04/03 A2979 980 96 0 310/04 RMK AO2 RAB03 P0000
14837KMSN MSN20011213031012212/13/01 03:10:31  5-MIN KMSN 130910Z 31005KT 7SM -RA BKN014 BKN050 OVC075 04/03 A2979 990 96 0 310/05 RMK AO2 RAB03 P0000
14837KMSN MSN20011213031512112/13/01 03:15:31  5-MIN KMSN 130915Z 31005KT 7SM BKN014 BKN050 OVC080 04/03 A2979 980 96 0 300/05 RMK AO2 RAB03E14 P0000
14837KMSN MSN20011213032012412/13/01 03:20:31  5-MIN KMSN 130920Z 30005KT 6SM BR BKN014 BKN050 OVC080 04/03 A2979 980 96 0 300/05 RMK AO2 RAB03E14 P0000
14837KMSN MSN20011213032511712/13/01 03:25:31  5-MIN KMSN 130925Z 30005KT 6SM BR BKN012 OVC050 04/03 A2979 980 96 0 300/05 RMK AO2 RAB03E14 P0000
14837KMSN MSN20011213033011712/13/01 03:30:31  5-MIN KMSN 130930Z 30004KT 6SM BR BKN012 OVC050 04/03 A2979 980 96 0 300/04 RMK AO2 RAB03E14 P0000
14837KMSN MSN20011213033512412/13/01 03:35:31  5-MIN KMSN 130935Z VRB03KT 6SM BR SCT007 BKN010 OVC050 04/03 A2980 980 96 0 VRB/03 RMK AO2 RAB03E14 P0000
14837KMSN MSN20011213034011712/13/01 03:40:31  5-MIN KMSN 130940Z 30006KT 6SM BR BKN007 OVC010 04/03 A2980 980 92 0 300/06 RMK AO2 RAB03E14 P0000
14837KMSN MSN20011213034511712/13/01 03:45:31  5-MIN KMSN 130945Z 30008KT 6SM BR BKN007 OVC012 04/03 A2980 970 92 0 300/08 RMK AO2 RAB03E14 P0000
14837KMSN MSN20011213035014112/13/01 03:50:31  5-MIN KMSN 130950Z 31007KT 6SM BR SCT007 BKN012 OVC029 04/03 A2980 970 92 0 310/07 RMK AO2 RAB03E14 SLP097 P0000 T00440033
14837KMSN MSN20011213035511212/13/01 03:55:31  5-MIN KMSN 130955Z 31006KT 6SM BR SCT007 BKN012 OVC027 04/03 A2981 970 96 -100 310/06 RMK AO2
14837KMSN MSN20011213040012412/13/01 04:00:31  5-MIN KMSN 131000Z 31007KT 6SM BR BKN007 BKN013 OVC027 04/03 A2981 970 92 -100 310/07 RMK AO2 CIG 006V010
14837KMSN MSN20011213040511212/13/01 04:05:31  5-MIN KMSN 131005Z 31007KT 6SM BR SCT007 BKN011 OVC027 04/03 A2981 960 92 -100 310/07 RMK AO2
14837KMSN MSN20011213041012812/13/01 04:10:31  5-MIN KMSN 131010Z 30007KT 6SM -RA BR FEW007 BKN020 OVC027 04/03 A2981 960 92 -100 300/07 RMK AO2 RAB10 P0000
14837KMSN MSN20011213041512812/13/01 04:15:31  5-MIN KMSN 131015Z 31007KT 6SM -RA BR FEW007 BKN020 OVC027 04/03 A2981 970 92 -100 310/07 RMK AO2 RAB10 P0000
14837KMSN MSN20011213042012812/13/01 04:20:31  5-MIN KMSN 131020Z 31006KT 6SM -RA BR FEW007 BKN013 OVC020 04/03 A2981 970 92 -100 310/06 RMK AO2 RAB10 P0001
14837KMSN MSN20011213042512112/13/01 04:25:31  5-MIN KMSN 131025Z 31006KT 6SM -RA BR BKN013 OVC020 04/03 A2982 960 92 -100 310/06 RMK AO2 RAB10 P0001
14837KMSN MSN20011213043011712/13/01 04:30:31  5-MIN KMSN 131030Z 30005KT 7SM BKN013 OVC020 04/03 A2982 960 92 -100 300/05 RMK AO2 RAB10E30 P0001
14837KMSN MSN20011213043512012/13/01 04:35:31  5-MIN KMSN 131035Z 30005KT 6SM BR BKN013 OVC020 04/03 A2982 960 92 -100 300/05 RMK AO2 RAB10E30 P0001
14837KMSN MSN20011213044011312/13/01 04:40:31  5-MIN KMSN 131040Z VRB04KT 6SM BR OVC013 04/03 A2982 960 92 -100 VRB/04 RMK AO2 RAB10E30 P0001
14837KMSN MSN20011213044511312/13/01 04:45:31  5-MIN KMSN 131045Z 30004KT 6SM BR OVC011 04/03 A2982 960 92 -100 300/04 RMK AO2 RAB10E30 P0001
14837KMSN MSN20011213045013012/13/01 04:50:31  5-MIN KMSN 131050Z 29004KT 6SM BR OVC011 04/03 A2982 950 92 -100 290/04 RMK AO2 RAB10E30 SLP106 P0001 T00390028
14837KMSN MSN20011213045511412/13/01 04:55:31  5-MIN KMSN 131055Z 31005KT 6SM -RA BR OVC011 04/03 A2982 950 92 -100 310/05 RMK AO2 RAB55 P0000
14837KMSN MSN20011213050012812/13/01 05:00:31  5-MIN KMSN 131100Z 30005KT 6SM -RA BR OVC011 04/03 A2983 950 92 -100 300/05 RMK AO2 RAB1055 CIG 007V013 P0000
14837KMSN MSN20011213050512812/13/01 05:05:31  5-MIN KMSN 131105Z 31005KT 6SM -RA BR OVC009 04/03 A2983 950 92 -100 310/05 RMK AO2 RAB1055 CIG 007V012 P0000
14837KMSN MSN20011213051012512/13/01 05:10:31  5-MIN KMSN 131110Z 31005KT 7SM -RA OVC009 04/03 A2983 950 92 -100 310/05 RMK AO2 RAB1055 CIG 007V012 P0000
14837KMSN MSN20011213051511212/13/01 05:15:31  5-MIN KMSN 131115Z 30004KT 7SM OVC009 04/03 A2983 950 92 -100 300/04 RMK AO2 RAB1055E13 P0000
14837KMSN MSN20011213052011212/13/01 05:20:31  5-MIN KMSN 131120Z 30006KT 7SM OVC009 04/03 A2983 950 96 -100 300/06 RMK AO2 RAB1055E13 P0000
14837KMSN MSN20011213052511212/13/01 05:25:31  5-MIN KMSN 131125Z 31005KT 7SM OVC009 04/03 A2983 950 96 -100 310/05 RMK AO2 RAB1055E13 P0000
14837KMSN MSN20011213053011212/13/01 05:30:31  5-MIN KMSN 131130Z 31005KT 8SM OVC009 04/02 A2983 950 89 -100 310/05 RMK AO2 RAB1055E13 P0000
14837KMSN MSN20011213053511212/13/01 05:35:31  5-MIN KMSN 131135Z 31006KT 8SM OVC009 04/02 A2983 950 89 -100 310/06 RMK AO2 RAB1055E13 P0000
14837KMSN MSN20011213054011212/13/01 05:40:31  5-MIN KMSN 131140Z 30006KT 8SM OVC009 04/02 A2983 950 89 -100 300/06 RMK AO2 RAB1055E13 P0000
14837KMSN MSN20011213054511212/13/01 05:45:31  5-MIN KMSN 131145Z 30006KT 8SM OVC009 04/02 A2983 950 89 -100 300/06 RMK AO2 RAB1055E13 P0000
14837KMSN MSN20011213055017812/13/01 05:50:31  5-MIN KMSN 131150Z 29003KT 8SM -RA OVC009 04/02 A2983 950 89 -100 290/03 RMK AO2 RAB1055E13B47 CIG 008V012 SLP108 P0000 60001 70049 T00390022 10050 20039 53002
14837KMSN MSN20011213055511712/13/01 05:55:31  5-MIN KMSN 131155Z VRB04KT 9SM -RA OVC009 04/02 A2983 940 89 -100 VRB/04 RMK AO2 CIG 008V012 P0000
14837KMSN MSN20011213060011712/13/01 06:00:31  5-MIN KMSN 131200Z 00000KT 9SM -RA OVC009 03/02 A2984 940 92 -200 000/00 RMK AO2 CIG 008V012 P0000
14837KMSN MSN20011213060511712/13/01 06:05:31  5-MIN KMSN 131205Z VRB04KT 9SM -RA OVC009 03/02 A2984 940 92 -200 VRB/04 RMK AO2 CIG 008V012 P0000
14837KMSN MSN20011213061011712/13/01 06:10:31  5-MIN KMSN 131210Z 30005KT 9SM -RA OVC009 03/02 A2984 940 92 -200 300/05 RMK AO2 CIG 008V012 P0000
14837KMSN MSN20011213061511712/13/01 06:15:31  5-MIN KMSN 131215Z 29006KT 9SM -RA OVC009 03/02 A2984 940 92 -200 290/06 RMK AO2 CIG 008V012 P0000
14837KMSN MSN20011213062011712/13/01 06:20:31  5-MIN KMSN 131220Z 29005KT 9SM -RA OVC009 03/02 A2984 940 92 -200 290/05 RMK AO2 CIG 008V012 P0000
14837KMSN MSN20011213062510512/13/01 06:25:31  5-MIN KMSN 131225Z 29006KT 9SM -RA OVC009 03/02 A2985 930 92 -200 290/06 RMK AO2 P0000
14837KMSN MSN20011213063011712/13/01 06:30:31  5-MIN KMSN 131230Z 29007KT 9SM -RA OVC009 03/02 A2985 930 89 -200 290/07 RMK AO2 CIG 007V012 P0000
14837KMSN MSN20011213063511912/13/01 06:35:31  5-MIN KMSN 131235Z 30007KT 8SM OVC009 03/02 A2985 930 89 -200 300/07 RMK AO2 RAE31 CIG 006V012 P0000
14837KMSN MSN20011213064011912/13/01 06:40:31  5-MIN KMSN 131240Z 31008KT 7SM OVC009 03/02 A2985 930 92 -200 310/08 RMK AO2 RAE31 CIG 006V012 P0000
14837KMSN MSN20011213064512212/13/01 06:45:31  5-MIN KMSN 131245Z 30006KT 6SM BR OVC007 03/02 A2985 930 92 -200 300/06 RMK AO2 RAE31 CIG 006V011 P0000
14837KMSN MSN20011213065012712/13/01 06:50:31  5-MIN KMSN 131250Z 29006KT 6SM BR OVC007 03/02 A2985 930 92 -200 290/06 RMK AO2 RAE31 SLP115 P0000 T00280017
14837KMSN MSN20011213065509812/13/01 06:55:31  5-MIN KMSN 131255Z 31007KT 6SM BR OVC007 03/01 A2986 920 89 -200 310/07 RMK AO2
14837KMSN MSN20011213070010512/13/01 07:00:31  5-MIN KMSN 131300Z 30006KT 6SM BR BKN007 OVC028 03/01 A2986 920 89 -200 300/06 RMK AO2
14837KMSN MSN20011213070511412/13/01 07:05:31  5-MIN KMSN 131305Z 31006KT 7SM BKN007 OVC028 03/01 A2985 930 89 -200 310/06 RMK AO2 CIG 006V012
14837KMSN MSN20011213071011412/13/01 07:10:31  5-MIN KMSN 131310Z 30004KT 7SM BKN007 OVC026 02/01 A2985 930 92 -300 290/04 RMK AO2 CIG 006V012
14837KMSN MSN20011213071511712/13/01 07:15:31  5-MIN KMSN 131315Z 28006KT 6SM BR BKN007 OVC026 02/01 A2986 920 92 -300 280/06 RMK AO2 CIG 006V012
14837KMSN MSN20011213072011712/13/01 07:20:31  5-MIN KMSN 131320Z 28008KT 6SM BR BKN009 OVC026 02/01 A2986 920 89 -300 280/08 RMK AO2 CIG 007V012
14837KMSN MSN20011213072510512/13/01 07:25:31  5-MIN KMSN 131325Z 29009KT 4SM BR BKN009 OVC026 02/00 A2986 920 89 -400 290/09 RMK AO2
14837KMSN MSN20011213073009812/13/01 07:30:31  5-MIN KMSN 131330Z 29010KT 4SM BR OVC009 02/00 A2987 910 89 -400 290/10 RMK AO2
14837KMSN MSN20011213073511112/13/01 07:35:31  5-MIN KMSN 131335Z 30010KT 3SM BR OVC009 02/M01 A2987 910 85 -400 300/10 RMK AO2 CIG 008V012
14837KMSN MSN20011213074011112/13/01 07:40:31  5-MIN KMSN 131340Z 30011KT 3SM BR OVC009 01/M01 A2987 910 89 -500 300/11 RMK AO2 CIG 008V012
14837KMSN MSN20011213074511112/13/01 07:45:31  5-MIN KMSN 131345Z 31008KT 3SM BR OVC009 01/M01 A2987 910 89 -500 310/08 RMK AO2 CIG 008V012
14837KMSN MSN20011213075012812/13/01 07:50:31  5-MIN KMSN 131350Z 31007KT 3SM BR OVC009 01/M01 A2987 910 89 -500 310/07 RMK AO2 CIG 008V012 SLP123 T00111006
14837KMSN MSN20011213075512612/13/01 07:55:31  5-MIN KMSN 131355Z 30009KT 280V340 3SM BR OVC009 01/00 A2987 910 92 -500 300/09 280V340 RMK AO2 CIG 008V012
14837KMSN MSN20011213080011012/13/01 08:00:31  5-MIN KMSN 131400Z VRB04KT 3SM BR OVC009 01/00 A2988 910 92 -500 VRB/04 RMK AO2 CIG 007V011
14837KMSN MSN20011213080510812/13/01 08:05:31  5-MIN KMSN 131405Z 30004KT 3SM BR OVC009 01/00 A2987 910 92 -500 300/04 RMK AO2 SFC VIS 4
14837KMSN MSN20011213081010812/13/01 08:10:31  5-MIN KMSN 131410Z VRB05KT 3SM BR OVC009 01/00 A2987 910 92 -500 VRB/05 RMK AO2 SFC VIS 4
14837KMSN MSN20011213081510812/13/01 08:15:31  5-MIN KMSN 131415Z 30005KT 3SM BR OVC009 01/00 A2988 900 92 -500 300/05 RMK AO2 SFC VIS 4
14837KMSN MSN20011213082010812/13/01 08:20:31  5-MIN KMSN 131420Z 31005KT 3SM BR OVC009 02/00 A2988 900 89 -400 310/05 RMK AO2 SFC VIS 4
14837KMSN MSN20011213082510812/13/01 08:25:31  5-MIN KMSN 131425Z VRB03KT 3SM BR OVC007 02/00 A2989 890 89 -400 VRB/03 RMK AO2 SFC VIS 4
14837KMSN MSN20011213083012012/13/01 08:30:31  5-MIN KMSN 131430Z 28006KT 3SM BR OVC007 02/00 A2989 900 89 -400 280/06 RMK AO2 SFC VIS 4 CIG 007V010
14837KMSN MSN20011213083512012/13/01 08:35:31  5-MIN KMSN 131435Z 27006KT 3SM BR OVC007 02/00 A2989 900 89 -400 270/06 RMK AO2 SFC VIS 4 CIG 007V011
14837KMSN MSN20011213084012112/13/01 08:40:31  5-MIN KMSN 131440Z 28008KT 3SM BR OVC009 01/M01 A2989 890 89 -500 280/08 RMK AO2 SFC VIS 4 CIG 007V011
14837KMSN MSN20011213084512112/13/01 08:45:31  5-MIN KMSN 131445Z 26006KT 3SM BR OVC009 01/M01 A2990 890 89 -500 260/06 RMK AO2 SFC VIS 4 CIG 007V011
14837KMSN MSN20011213085015012/13/01 08:50:31  5-MIN KMSN 131450Z 26007KT 3SM BR OVC009 01/M01 A2990 890 89 -500 260/07 RMK AO2 SFC VIS 5 CIG 007V011 SLP132 60000 T00111006 53013
14837KMSN MSN20011213085510912/13/01 08:55:31  5-MIN KMSN 131455Z 27008KT 3SM BR OVC009 01/M01 A2990 880 89 -500 270/08 RMK AO2 SFC VIS 5
14837KMSN MSN20011213090011512/13/01 09:00:31  5-MIN KMSN 131500Z 28010G14KT 3SM BR OVC009 01/M01 A2990 890 89 -500 280/10G14 RMK AO2 SFC VIS 5
14837KMSN MSN20011213090513112/13/01 09:05:31  5-MIN KMSN 131505Z 30008G14KT 270V330 3SM BR OVC011 01/M01 A2989 890 85 -500 290/08G14 270V330 RMK AO2 SFC VIS 5
14837KMSN MSN20011213091010912/13/01 09:10:31  5-MIN KMSN 131510Z 31009KT 3SM BR OVC011 01/M01 A2989 890 89 -500 310/09 RMK AO2 SFC VIS 4
14837KMSN MSN20011213091510912/13/01 09:15:31  5-MIN KMSN 131515Z 31009KT 3SM BR OVC011 01/M01 A2989 890 89 -500 310/09 RMK AO2 SFC VIS 4
14837KMSN MSN20011213092010912/13/01 09:20:31  5-MIN KMSN 131520Z 30007KT 3SM BR OVC011 01/M01 A2989 890 89 -500 300/07 RMK AO2 SFC VIS 4
14837KMSN MSN20011213092510912/13/01 09:25:31  5-MIN KMSN 131525Z 30007KT 3SM BR OVC009 01/M01 A2989 890 89 -500 300/07 RMK AO2 SFC VIS 4
14837KMSN MSN20011213093010912/13/01 09:30:31  5-MIN KMSN 131530Z 31007KT 3SM BR OVC009 01/M01 A2990 890 89 -500 310/07 RMK AO2 SFC VIS 4
14837KMSN MSN20011213093510912/13/01 09:35:31  5-MIN KMSN 131535Z VRB06KT 3SM BR OVC009 01/M01 A2990 880 89 -500 VRB/06 RMK AO2 SFC VIS 4
14837KMSN MSN20011213094010912/13/01 09:40:31  5-MIN KMSN 131540Z 31007KT 3SM BR OVC009 01/M01 A2990 880 89 -500 310/07 RMK AO2 SFC VIS 4
14837KMSN MSN20011213094511612/13/01 09:45:31  5-MIN KMSN 131545Z VRB06KT 3SM BR OVC009 01/M01 A2991 870 85 -500 VRB/06 RMK AO2 SFC VIS 4 PRESRR
14837KMSN MSN20011213095012612/13/01 09:50:31  5-MIN KMSN 131550Z VRB05KT 3SM BR OVC009 01/M01 A2992 870 85 -500 VRB/05 RMK AO2 SFC VIS 4 SLP139 T00111011
14837KMSN MSN20011213095510912/13/01 09:55:31  5-MIN KMSN 131555Z 31005KT 3SM BR OVC009 01/M01 A2992 860 85 -500 310/05 RMK AO2 SFC VIS 4
14837KMSN MSN20011213100010912/13/01 10:00:31  5-MIN KMSN 131600Z VRB03KT 3SM BR OVC009 01/M01 A2992 860 85 -500 VRB/03 RMK AO2 SFC VIS 4
14837KMSN MSN20011213100510912/13/01 10:05:31  5-MIN KMSN 131605Z 28007KT 3SM BR OVC009 01/M01 A2993 860 89 -500 280/07 RMK AO2 SFC VIS 4
14837KMSN MSN20011213101010912/13/01 10:10:31  5-MIN KMSN 131610Z 28005KT 3SM BR OVC009 01/M01 A2993 860 89 -500 280/05 RMK AO2 SFC VIS 4
14837KMSN MSN20011213101510912/13/01 10:15:31  5-MIN KMSN 131615Z 28006KT 3SM BR OVC009 01/M01 A2993 860 89 -500 280/06 RMK AO2 SFC VIS 4
14837KMSN MSN20011213102010912/13/01 10:20:31  5-MIN KMSN 131620Z 29009KT 3SM BR OVC009 01/M01 A2993 850 85 -500 280/09 RMK AO2 SFC VIS 4
14837KMSN MSN20011213102510912/13/01 10:25:31  5-MIN KMSN 131625Z 29007KT 3SM BR OVC009 01/M01 A2993 850 89 -500 290/07 RMK AO2 SFC VIS 4
14837KMSN MSN20011213103010912/13/01 10:30:31  5-MIN KMSN 131630Z 27008KT 3SM BR OVC009 01/M01 A2994 850 89 -500 270/08 RMK AO2 SFC VIS 4
14837KMSN MSN20011213103510912/13/01 10:35:31  5-MIN KMSN 131635Z VRB05KT 3SM BR OVC009 01/M01 A2994 850 89 -500 VRB/05 RMK AO2 SFC VIS 4
14837KMSN MSN20011213104010912/13/01 10:40:31  5-MIN KMSN 131640Z 25004KT 3SM BR OVC009 01/M01 A2994 840 89 -600 250/04 RMK AO2 SFC VIS 4
14837KMSN MSN20011213104510912/13/01 10:45:31  5-MIN KMSN 131645Z 25005KT 3SM BR OVC009 01/M01 A2994 850 89 -500 250/05 RMK AO2 SFC VIS 4
14837KMSN MSN20011213105012612/13/01 10:50:31  5-MIN KMSN 131650Z 25007KT 3SM BR OVC009 01/M01 A2994 850 85 -500 250/07 RMK AO2 SFC VIS 4 SLP145 T00111011
14837KMSN MSN20011213105510912/13/01 10:55:31  5-MIN KMSN 131655Z 27007KT 3SM BR OVC009 01/M01 A2994 850 89 -600 270/07 RMK AO2 SFC VIS 4
14837KMSN MSN20011213110012112/13/01 11:00:31  5-MIN KMSN 131700Z VRB06KT 3SM BR OVC009 01/M01 A2994 850 85 -600 VRB/06 RMK AO2 SFC VIS 4 CIG 009V013
14837KMSN MSN20011213110512112/13/01 11:05:31  5-MIN KMSN 131705Z 26007KT 3SM BR OVC009 01/M01 A2994 850 85 -500 260/07 RMK AO2 SFC VIS 4 CIG 009V013
14837KMSN MSN20011213111010912/13/01 11:10:31  5-MIN KMSN 131710Z 26007KT 3SM BR OVC009 01/M01 A2994 850 85 -500 260/07 RMK AO2 SFC VIS 4
14837KMSN MSN20011213111510912/13/01 11:15:31  5-MIN KMSN 131715Z 28007KT 3SM BR OVC009 01/M01 A2994 850 85 -600 280/07 RMK AO2 SFC VIS 4
14837KMSN MSN20011213112010912/13/01 11:20:31  5-MIN KMSN 131720Z 28010KT 3SM BR OVC009 01/M01 A2994 850 85 -600 280/10 RMK AO2 SFC VIS 4
14837KMSN MSN20011213112510912/13/01 11:25:31  5-MIN KMSN 131725Z 28008KT 3SM BR OVC009 01/M01 A2994 850 89 -600 280/08 RMK AO2 SFC VIS 4
14837KMSN MSN20011213113010912/13/01 11:30:31  5-MIN KMSN 131730Z 29007KT 3SM BR OVC009 01/M01 A2994 850 89 -600 280/07 RMK AO2 SFC VIS 4
14837KMSN MSN20011213113510912/13/01 11:35:31  5-MIN KMSN 131735Z 27007KT 3SM BR OVC009 01/M01 A2993 850 89 -600 270/07 RMK AO2 SFC VIS 4
14837KMSN MSN20011213114010912/13/01 11:40:31  5-MIN KMSN 131740Z 29006KT 3SM BR OVC009 01/M01 A2993 850 89 -600 290/06 RMK AO2 SFC VIS 4
14837KMSN MSN20011213114510912/13/01 11:45:31  5-MIN KMSN 131745Z 28009KT 3SM BR OVC009 01/M02 A2993 850 85 -600 280/09 RMK AO2 SFC VIS 4
14837KMSN MSN20011213115015012/13/01 11:50:31  5-MIN KMSN 131750Z 29009KT 3SM BR OVC011 01/M02 A2993 850 85 -600 290/09 RMK AO2 SFC VIS 4 SLP143 60000 T00061017 10039 20006 53021
14837KMSN MSN20011213115510912/13/01 11:55:31  5-MIN KMSN 131755Z 28008KT 3SM BR OVC011 01/M02 A2993 850 85 -600 280/08 RMK AO2 SFC VIS 4
14837KMSN MSN20011213120010912/13/01 12:00:31  5-MIN KMSN 131800Z 29009KT 3SM HZ OVC011 01/M02 A2993 850 82 -600 290/09 RMK AO2 SFC VIS 4
14837KMSN MSN20011213120510912/13/01 12:05:31  5-MIN KMSN 131805Z 28006KT 3SM BR OVC011 00/M02 A2993 860 85 -700 280/06 RMK AO2 SFC VIS 4
14837KMSN MSN20011213121010912/13/01 12:10:31  5-MIN KMSN 131810Z 27007KT 3SM BR OVC011 00/M02 A2993 850 88 -700 270/07 RMK AO2 SFC VIS 4
14837KMSN MSN20011213121510912/13/01 12:15:31  5-MIN KMSN 131815Z VRB05KT 3SM BR OVC011 00/M02 A2993 860 88 -700 VRB/05 RMK AO2 SFC VIS 3
14837KMSN MSN20011213122012512/13/01 12:20:31  5-MIN KMSN 131820Z 28007KT 230V310 3SM BR OVC011 00/M02 A2993 860 85 -700 280/07 230V310 RMK AO2 SFC VIS 3
14837KMSN MSN20011213122512512/13/01 12:25:31  5-MIN KMSN 131825Z 29007KT 250V320 3SM BR OVC011 00/M02 A2993 860 85 -700 290/07 250V320 RMK AO2 SFC VIS 3
14837KMSN MSN20011213123010912/13/01 12:30:31  5-MIN KMSN 131830Z VRB06KT 3SM BR OVC011 01/M02 A2993 860 85 -600 VRB/06 RMK AO2 SFC VIS 4
14837KMSN MSN20011213123510912/13/01 12:35:31  5-MIN KMSN 131835Z 27008KT 3SM BR OVC011 00/M02 A2993 850 85 -700 270/08 RMK AO2 SFC VIS 4
14837KMSN MSN20011213124010912/13/01 12:40:31  5-MIN KMSN 131840Z 29008KT 3SM BR OVC011 00/M02 A2993 850 85 -700 290/08 RMK AO2 SFC VIS 4
14837KMSN MSN20011213124510912/13/01 12:45:31  5-MIN KMSN 131845Z 28005KT 3SM BR OVC011 00/M02 A2993 850 85 -700 280/05 RMK AO2 SFC VIS 4
14837KMSN MSN20011213125012612/13/01 12:50:31  5-MIN KMSN 131850Z 29007KT 3SM BR OVC011 00/M02 A2993 850 85 -700 290/07 RMK AO2 SFC VIS 4 SLP145 T00001022
14837KMSN MSN20011213125510912/13/01 12:55:31  5-MIN KMSN 131855Z 29007KT 3SM BR OVC011 00/M02 A2993 860 85 -700 290/07 RMK AO2 SFC VIS 4
14837KMSN MSN20011213130010912/13/01 13:00:31  5-MIN KMSN 131900Z 30007KT 3SM BR OVC011 00/M02 A2993 860 85 -700 300/07 RMK AO2 SFC VIS 4
14837KMSN MSN20011213130510912/13/01 13:05:31  5-MIN KMSN 131905Z 29007KT 3SM BR OVC011 00/M02 A2993 860 85 -700 290/07 RMK AO2 SFC VIS 4
14837KMSN MSN20011213131010912/13/01 13:10:31  5-MIN KMSN 131910Z 28007KT 3SM BR OVC011 00/M02 A2993 860 85 -700 280/07 RMK AO2 SFC VIS 4
14837KMSN MSN20011213131510912/13/01 13:15:31  5-MIN KMSN 131915Z 28008KT 3SM BR OVC011 00/M02 A2993 860 85 -700 280/08 RMK AO2 SFC VIS 4
14837KMSN MSN20011213132010912/13/01 13:20:31  5-MIN KMSN 131920Z 28009KT 3SM BR OVC011 00/M02 A2993 860 85 -700 280/09 RMK AO2 SFC VIS 4
14837KMSN MSN20011213132510912/13/01 13:25:31  5-MIN KMSN 131925Z 29007KT 3SM BR OVC011 00/M02 A2993 850 85 -700 290/07 RMK AO2 SFC VIS 4
14837KMSN MSN20011213133010912/13/01 13:30:31  5-MIN KMSN 131930Z VRB05KT 3SM BR OVC011 00/M02 A2993 860 85 -700 VRB/05 RMK AO2 SFC VIS 4
14837KMSN MSN20011213133510912/13/01 13:35:31  5-MIN KMSN 131935Z 28007KT 3SM BR OVC011 00/M02 A2993 850 85 -700 280/07 RMK AO2 SFC VIS 4
14837KMSN MSN20011213134010912/13/01 13:40:31  5-MIN KMSN 131940Z VRB05KT 3SM BR OVC011 00/M02 A2994 850 85 -700 VRB/05 RMK AO2 SFC VIS 4
14837KMSN MSN20011213134510912/13/01 13:45:31  5-MIN KMSN 131945Z 28009KT 3SM HZ OVC011 00/M03 A2994 850 81 -700 280/09 RMK AO2 SFC VIS 4
14837KMSN MSN20011213135012712/13/01 13:50:31  5-MIN KMSN 131950Z 27008KT 3SM BR OVC011 M01/M03 A2994 850 85 -800 270/08 RMK AO2 SFC VIS 4 SLP147 T10061028
14837KMSN MSN20011213135512612/13/01 13:55:31  5-MIN KMSN 131955Z 27010KT 240V310 3SM BR OVC011 M01/M03 A2994 840 85 -800 270/10 240V310 RMK AO2 SFC VIS 4
14837KMSN MSN20011213140011012/13/01 14:00:31  5-MIN KMSN 132000Z 28008KT 3SM BR OVC011 M01/M03 A2994 840 85 -800 270/08 RMK AO2 SFC VIS 4
14837KMSN MSN20011213140511612/13/01 14:05:31  5-MIN KMSN 132005Z 29009G14KT 3SM BR OVC011 M01/M03 A2995 840 85 -800 290/09G14 RMK AO2 SFC VIS 5
14837KMSN MSN20011213141011612/13/01 14:10:31  5-MIN KMSN 132010Z 29008G14KT 3SM BR OVC011 M01/M03 A2995 840 85 -800 290/08G14 RMK AO2 SFC VIS 5
14837KMSN MSN20011213141511012/13/01 14:15:31  5-MIN KMSN 132015Z 27006KT 3SM HZ OVC011 M01/M03 A2995 840 81 -800 270/06 RMK AO2 SFC VIS 4
14837KMSN MSN20011213142011012/13/01 14:20:31  5-MIN KMSN 132020Z 28010KT 3SM BR OVC011 M01/M03 A2995 840 85 -800 280/10 RMK AO2 SFC VIS 4
14837KMSN MSN20011213142511012/13/01 14:25:31  5-MIN KMSN 132025Z 29008KT 3SM BR OVC011 M01/M03 A2994 840 85 -800 290/08 RMK AO2 SFC VIS 4
14837KMSN MSN20011213143011012/13/01 14:30:31  5-MIN KMSN 132030Z 28008KT 3SM BR OVC011 M01/M03 A2995 840 85 -800 280/08 RMK AO2 SFC VIS 4
14837KMSN MSN20011213143511012/13/01 14:35:31  5-MIN KMSN 132035Z 30008KT 3SM BR OVC011 M01/M03 A2995 840 85 -800 300/08 RMK AO2 SFC VIS 4
14837KMSN MSN20011213144011012/13/01 14:40:31  5-MIN KMSN 132040Z VRB06KT 3SM BR OVC011 M01/M03 A2995 840 85 -800 VRB/06 RMK AO2 SFC VIS 4
14837KMSN MSN20011213144511012/13/01 14:45:31  5-MIN KMSN 132045Z 27009KT 3SM BR OVC011 M01/M03 A2995 830 85 -800 270/09 RMK AO2 SFC VIS 4
14837KMSN MSN20011213145013312/13/01 14:50:31  5-MIN KMSN 132050Z 27008KT 3SM HZ OVC011 M01/M03 A2995 840 81 -800 270/08 RMK AO2 SFC VIS 4 SLP149 T10061033 50011
14837KMSN MSN20011213145511012/13/01 14:55:31  5-MIN KMSN 132055Z VRB05KT 3SM HZ OVC011 M01/M03 A2994 840 81 -800 VRB/05 RMK AO2 SFC VIS 4
14837KMSN MSN20011213150011012/13/01 15:00:31  5-MIN KMSN 132100Z 27008KT 3SM HZ OVC011 M01/M03 A2994 850 81 -800 270/08 RMK AO2 SFC VIS 4
14837KMSN MSN20011213150511012/13/01 15:05:31  5-MIN KMSN 132105Z VRB06KT 3SM BR OVC011 M01/M03 A2994 840 85 -800 VRB/06 RMK AO2 SFC VIS 4
14837KMSN MSN20011213151011012/13/01 15:10:31  5-MIN KMSN 132110Z VRB06KT 3SM BR OVC011 M01/M03 A2994 850 85 -800 VRB/06 RMK AO2 SFC VIS 4
14837KMSN MSN20011213151511012/13/01 15:15:31  5-MIN KMSN 132115Z 27006KT 3SM BR OVC011 M01/M03 A2993 850 85 -800 270/06 RMK AO2 SFC VIS 4
14837KMSN MSN20011213152011012/13/01 15:20:31  5-MIN KMSN 132120Z 29006KT 3SM BR OVC011 M01/M03 A2993 860 85 -800 280/06 RMK AO2 SFC VIS 4
14837KMSN MSN20011213152511012/13/01 15:25:31  5-MIN KMSN 132125Z VRB06KT 3SM BR OVC011 M01/M03 A2992 860 85 -800 VRB/06 RMK AO2 SFC VIS 4
14837KMSN MSN20011213153011012/13/01 15:30:31  5-MIN KMSN 132130Z 26008KT 3SM BR OVC011 M01/M03 A2992 870 85 -800 260/08 RMK AO2 SFC VIS 4
14837KMSN MSN20011213153511012/13/01 15:35:31  5-MIN KMSN 132135Z 28006KT 3SM BR OVC011 M01/M03 A2991 870 85 -800 280/06 RMK AO2 SFC VIS 4
14837KMSN MSN20011213154011012/13/01 15:40:31  5-MIN KMSN 132140Z 27006KT 3SM BR OVC011 M01/M03 A2991 870 85 -800 270/06 RMK AO2 SFC VIS 4
14837KMSN MSN20011213154511012/13/01 15:45:31  5-MIN KMSN 132145Z 27005KT 3SM BR OVC011 M01/M03 A2992 860 85 -800 270/05 RMK AO2 SFC VIS 4
14837KMSN MSN20011213155511712/13/01 15:55:31  5-MIN KMSN 132155Z 24005KT 3SM BR OVC011 M01/M03 A2994 850 85 -800 240/05 RMK AO2 SFC VIS 4 PRESRR
14837KMSN MSN20011213160011712/13/01 16:00:31  5-MIN KMSN 132200Z 24006KT 3SM BR OVC011 M01/M03 A2995 840 85 -800 240/06 RMK AO2 SFC VIS 4 PRESRR
14837KMSN MSN20011213160511712/13/01 16:05:31  5-MIN KMSN 132205Z VRB04KT 3SM BR OVC011 M01/M03 A2995 830 85 -800 VRB/04 RMK AO2 SFC VIS 4 PRESRR
14837KMSN MSN20011213161011712/13/01 16:10:31  5-MIN KMSN 132210Z 23005KT 3SM BR OVC011 M01/M03 A2997 820 85 -900 230/05 RMK AO2 SFC VIS 4 PRESRR
14837KMSN MSN20011213161510712/13/01 16:15:31  5-MIN KMSN 132215Z 22006KT 3SM BR OVC011 M01/M03 A2998 810 85 -900 220/06 RMK AO2 PRESRR
14837KMSN MSN20011213162010012/13/01 16:20:31  5-MIN KMSN 132220Z 24004KT 3SM HZ OVC011 M01/M04 A2999 800 81 -900 240/04 RMK AO2
14837KMSN MSN20011213162510012/13/01 16:25:31  5-MIN KMSN 132225Z VRB04KT 3SM HZ OVC011 M01/M04 A2997 820 81 -900 VRB/04 RMK AO2
14837KMSN MSN20011213163010012/13/01 16:30:31  5-MIN KMSN 132230Z 30006KT 3SM HZ OVC011 M01/M04 A2996 830 81 -900 300/06 RMK AO2
14837KMSN MSN20011213163510012/13/01 16:35:31  5-MIN KMSN 132235Z 28004KT 3SM HZ OVC011 M01/M04 A2997 820 81 -900 280/04 RMK AO2
14837KMSN MSN20011213164010012/13/01 16:40:31  5-MIN KMSN 132240Z 29003KT 3SM HZ OVC011 M01/M04 A2997 810 81 -900 280/03 RMK AO2
14837KMSN MSN20011213164510012/13/01 16:45:31  5-MIN KMSN 132245Z 29004KT 3SM HZ OVC011 M01/M04 A2997 820 81 -900 290/04 RMK AO2
14837KMSN MSN20011213165011712/13/01 16:50:31  5-MIN KMSN 132250Z VRB04KT 5SM HZ OVC011 M01/M04 A2997 820 81 -900 VRB/04 RMK AO2 SLP157 T10111039
14837KMSN MSN20011213165510012/13/01 16:55:31  5-MIN KMSN 132255Z VRB03KT 6SM BR OVC011 M01/M03 A2997 820 85 -900 VRB/03 RMK AO2
14837KMSN MSN20011213170010012/13/01 17:00:31  5-MIN KMSN 132300Z VRB04KT 6SM HZ OVC011 M01/M04 A2997 820 81 -900 VRB/04 RMK AO2
14837KMSN MSN20011213170509712/13/01 17:05:31  5-MIN KMSN 132305Z 27003KT 7SM OVC011 M01/M04 A2997 820 81 -900 270/03 RMK AO2
14837KMSN MSN20011213171010012/13/01 17:10:31  5-MIN KMSN 132310Z VRB04KT 6SM BR OVC011 M01/M03 A2998 810 85 -900 VRB/04 RMK AO2
14837KMSN MSN20011213171510012/13/01 17:15:31  5-MIN KMSN 132315Z 26006KT 6SM HZ OVC013 M01/M04 A2999 800 81 -900 260/06 RMK AO2
14837KMSN MSN20011213172009712/13/01 17:20:31  5-MIN KMSN 132320Z VRB06KT 7SM OVC013 M01/M04 A2998 810 81 -900 VRB/06 RMK AO2
14837KMSN MSN20011213172510412/13/01 17:25:31  5-MIN KMSN 132325Z 22008KT 7SM OVC013 M01/M04 A3000 790 81 -900 220/08 RMK AO2 PRESRR
14837KMSN MSN20011213173009712/13/01 17:30:31  5-MIN KMSN 132330Z 23005KT 7SM OVC013 M01/M04 A2999 800 78 -900 230/05 RMK AO2
14837KMSN MSN20011213173509712/13/01 17:35:31  5-MIN KMSN 132335Z 25006KT 7SM OVC013 M01/M04 A2999 800 78 -900 250/06 RMK AO2
14837KMSN MSN20011213174009712/13/01 17:40:31  5-MIN KMSN 132340Z VRB06KT 7SM OVC013 M01/M04 A2999 800 78 -900 VRB/06 RMK AO2
14837KMSN MSN20011213174509712/13/01 17:45:31  5-MIN KMSN 132345Z VRB05KT 8SM OVC013 M01/M05 A2999 800 75 -900 VRB/05 RMK AO2
14837KMSN MSN20011213175013212/13/01 17:50:31  5-MIN KMSN 132350Z 26006KT 8SM OVC013 M01/M05 A2999 800 75 -900 260/06 RMK AO2 SLP165 T10111050 10006 21011 53004
14837KMSN MSN20011213175509712/13/01 17:55:31  5-MIN KMSN 132355Z 29005KT 8SM OVC015 M01/M05 A2999 800 75 -900 290/05 RMK AO2
14837KMSN MSN20011213180009712/13/01 18:00:31  5-MIN KMSN 140000Z 29004KT 8SM OVC015 M01/M04 A2998 810 78 -900 290/04 RMK AO2
14837KMSN MSN20011213180509712/13/01 18:05:31  5-MIN KMSN 140005Z 26004KT 8SM OVC015 M01/M04 A2998 810 78 -900 260/04 RMK AO2
14837KMSN MSN20011213181009712/13/01 18:10:31  5-MIN KMSN 140010Z 28004KT 8SM OVC015 M01/M04 A2998 810 78 -900 280/04 RMK AO2
14837KMSN MSN20011213181509712/13/01 18:15:31  5-MIN KMSN 140015Z 28004KT 8SM OVC015 M01/M04 A2998 810 78 -900 280/04 RMK AO2
14837KMSN MSN20011213182009712/13/01 18:20:31  5-MIN KMSN 140020Z 00000KT 8SM OVC015 M01/M04 A2997 820 78 -900 000/00 RMK AO2
14837KMSN MSN20011213182509712/13/01 18:25:31  5-MIN KMSN 140025Z 27005KT 8SM OVC015 M01/M04 A2998 810 78 -900 270/05 RMK AO2
14837KMSN MSN20011213183009712/13/01 18:30:31  5-MIN KMSN 140030Z VRB04KT 8SM OVC015 M01/M04 A2997 820 78 -900 VRB/04 RMK AO2
14837KMSN MSN20011213183509712/13/01 18:35:31  5-MIN KMSN 140035Z 29006KT 8SM OVC015 M01/M04 A2998 810 78 -900 290/06 RMK AO2
14837KMSN MSN20011213184009712/13/01 18:40:31  5-MIN KMSN 140040Z 29004KT 8SM OVC015 M01/M04 A2998 810 81 -900 290/04 RMK AO2
14837KMSN MSN20011213184509712/13/01 18:45:31  5-MIN KMSN 140045Z 29006KT 8SM OVC015 M01/M04 A2997 820 81 -900 290/06 RMK AO2
14837KMSN MSN20011213185011412/13/01 18:50:31  5-MIN KMSN 140050Z 28004KT 8SM OVC015 M01/M04 A2998 810 81 -900 270/04 RMK AO2 SLP159 T10111039
14837KMSN MSN20011213185509712/13/01 18:55:31  5-MIN KMSN 140055Z VRB05KT 7SM OVC015 M01/M04 A2998 810 81 -900 VRB/05 RMK AO2
14837KMSN MSN20011213190009712/13/01 19:00:31  5-MIN KMSN 140100Z 27005KT 7SM OVC015 M01/M04 A2999 800 81 -900 270/05 RMK AO2
14837KMSN MSN20011213190509712/13/01 19:05:31  5-MIN KMSN 140105Z 28005KT 7SM OVC015 M01/M04 A2999 800 81 -900 280/05 RMK AO2
14837KMSN MSN20011213191009712/13/01 19:10:31  5-MIN KMSN 140110Z VRB04KT 7SM OVC015 M01/M04 A2999 800 81 -900 VRB/04 RMK AO2
14837KMSN MSN20011213191509712/13/01 19:15:31  5-MIN KMSN 140115Z 26005KT 7SM OVC015 M01/M04 A3000 790 81 -900 250/05 RMK AO2
14837KMSN MSN20011213192009712/13/01 19:20:31  5-MIN KMSN 140120Z 27004KT 8SM OVC015 M01/M04 A3000 790 81 -900 270/04 RMK AO2
14837KMSN MSN20011213192509712/13/01 19:25:31  5-MIN KMSN 140125Z 26005KT 8SM OVC015 M01/M04 A3000 790 81 -900 260/05 RMK AO2
14837KMSN MSN20011213193009712/13/01 19:30:31  5-MIN KMSN 140130Z VRB05KT 8SM OVC015 M01/M04 A3000 790 81 -900 VRB/05 RMK AO2
14837KMSN MSN20011213193509712/13/01 19:35:31  5-MIN KMSN 140135Z 25005KT 8SM OVC015 M01/M04 A3000 790 78 -900 250/05 RMK AO2
14837KMSN MSN20011213194009712/13/01 19:40:31  5-MIN KMSN 140140Z 24005KT 8SM OVC015 M01/M04 A3000 790 78 -900 240/05 RMK AO2
14837KMSN MSN20011213194509712/13/01 19:45:31  5-MIN KMSN 140145Z VRB04KT 8SM OVC015 M01/M04 A3000 790 78 -900 VRB/04 RMK AO2
14837KMSN MSN20011213195011512/13/01 19:50:31  5-MIN KMSN 140150Z 25004KT 8SM OVC015 M02/M04 A3000 790 81 -1000 250/04 RMK AO2 SLP169 T10171044
14837KMSN MSN20011213195509812/13/01 19:55:31  5-MIN KMSN 140155Z VRB04KT 8SM OVC015 M02/M04 A3000 790 81 -1000 VRB/04 RMK AO2
14837KMSN MSN20011213200009812/13/01 20:00:31  5-MIN KMSN 140200Z VRB03KT 8SM OVC015 M02/M04 A3001 780 81 -1000 VRB/03 RMK AO2
14837KMSN MSN20011213200509712/13/01 20:05:31  5-MIN KMSN 140205Z 24003KT 8SM OVC013 M01/M04 A3001 780 78 -900 230/03 RMK AO2
14837KMSN MSN20011213201009712/13/01 20:10:31  5-MIN KMSN 140210Z VRB04KT 7SM OVC013 M01/M04 A3001 780 81 -900 VRB/04 RMK AO2
14837KMSN MSN20011213201509712/13/01 20:15:31  5-MIN KMSN 140215Z 24005KT 7SM OVC013 M01/M04 A3000 790 81 -900 240/05 RMK AO2
14837KMSN MSN20011213202009712/13/01 20:20:31  5-MIN KMSN 140220Z 23005KT 7SM OVC013 M01/M04 A3000 790 81 -900 230/05 RMK AO2
14837KMSN MSN20011213202509712/13/01 20:25:31  5-MIN KMSN 140225Z VRB03KT 7SM OVC013 M01/M04 A3000 790 81 -900 VRB/03 RMK AO2
14837KMSN MSN20011213203009812/13/01 20:30:31  5-MIN KMSN 140230Z 24006KT 7SM OVC013 M02/M04 A3000 790 85 -1000 240/06 RMK AO2
14837KMSN MSN20011213203509812/13/01 20:35:31  5-MIN KMSN 140235Z 26005KT 7SM OVC013 M02/M04 A3001 780 81 -1000 260/05 RMK AO2
14837KMSN MSN20011213204009812/13/01 20:40:31  5-MIN KMSN 140240Z 27005KT 8SM OVC013 M02/M04 A3001 780 81 -1000 260/05 RMK AO2
14837KMSN MSN20011213204509812/13/01 20:45:31  5-MIN KMSN 140245Z 27005KT 8SM OVC013 M02/M04 A3001 780 81 -1000 270/05 RMK AO2
14837KMSN MSN20011213205012112/13/01 20:50:31  5-MIN KMSN 140250Z 27006KT 8SM OVC013 M02/M04 A3001 780 81 -1000 270/06 RMK AO2 SLP172 T10171044 53016
14837KMSN MSN20011213205509812/13/01 20:55:31  5-MIN KMSN 140255Z 27006KT 8SM OVC013 M02/M04 A3001 780 81 -1000 270/06 RMK AO2
14837KMSN MSN20011213210009812/13/01 21:00:31  5-MIN KMSN 140300Z VRB03KT 8SM OVC013 M02/M04 A3001 780 85 -1100 VRB/03 RMK AO2
14837KMSN MSN20011213210509812/13/01 21:05:31  5-MIN KMSN 140305Z 30005KT 8SM OVC013 M02/M04 A3001 790 81 -1000 300/05 RMK AO2
14837KMSN MSN20011213211009812/13/01 21:10:31  5-MIN KMSN 140310Z VRB05KT 8SM OVC013 M02/M04 A3000 790 85 -1000 VRB/05 RMK AO2
14837KMSN MSN20011213211509812/13/01 21:15:31  5-MIN KMSN 140315Z VRB04KT 9SM OVC013 M02/M04 A3000 800 85 -1000 VRB/04 RMK AO2
14837KMSN MSN20011213212009812/13/01 21:20:31  5-MIN KMSN 140320Z 28006KT 9SM OVC013 M02/M04 A3000 790 85 -1000 280/06 RMK AO2
14837KMSN MSN20011213212509812/13/01 21:25:31  5-MIN KMSN 140325Z 31006KT 9SM OVC013 M02/M04 A3000 790 85 -1000 310/06 RMK AO2
14837KMSN MSN20011213213009812/13/01 21:30:31  5-MIN KMSN 140330Z 30006KT 9SM OVC013 M02/M04 A3000 790 85 -1000 290/06 RMK AO2
14837KMSN MSN20011213213511512/13/01 21:35:31  5-MIN KMSN 140335Z 32007KT 280V350 10SM OVC013 M02/M04 A2999 800 85 -1000 310/07 280V350 RMK AO2
14837KMSN MSN20011213214009912/13/01 21:40:31  5-MIN KMSN 140340Z 29007KT 10SM OVC013 M02/M05 A3000 790 81 -1000 290/07 RMK AO2
14837KMSN MSN20011213214509912/13/01 21:45:31  5-MIN KMSN 140345Z 29007KT 10SM OVC013 M02/M05 A3000 790 81 -1000 290/07 RMK AO2
14837KMSN MSN20011213215011612/13/01 21:50:31  5-MIN KMSN 140350Z 30008KT 10SM OVC013 M02/M05 A3000 790 81 -1000 300/08 RMK AO2 SLP169 T10221050
14837KMSN MSN20011213215509812/13/01 21:55:31  5-MIN KMSN 140355Z 30007KT 9SM OVC013 M02/M05 A3000 790 81 -1000 300/07 RMK AO2
14837KMSN MSN20011213220009912/13/01 22:00:31  5-MIN KMSN 140400Z 31006KT 10SM OVC013 M03/M05 A3000 790 85 -1100 310/06 RMK AO2
14837KMSN MSN20011213220509912/13/01 22:05:31  5-MIN KMSN 140405Z 30005KT 10SM OVC013 M03/M05 A3000 790 85 -1100 300/05 RMK AO2
14837KMSN MSN20011213221011512/13/01 22:10:31  5-MIN KMSN 140410Z 32007KT 290V360 10SM OVC011 M03/M05 A2999 800 85 -1100 320/07 290V360 RMK AO2
14837KMSN MSN20011213221509912/13/01 22:15:31  5-MIN KMSN 140415Z 31003KT 10SM OVC011 M03/M05 A3000 790 85 -1100 310/03 RMK AO2
14837KMSN MSN20011213222009912/13/01 22:20:31  5-MIN KMSN 140420Z 28005KT 10SM OVC011 M03/M05 A2999 800 85 -1100 280/05 RMK AO2
14837KMSN MSN20011213222509912/13/01 22:25:31  5-MIN KMSN 140425Z VRB05KT 10SM OVC011 M03/M05 A2999 800 85 -1100 VRB/05 RMK AO2
14837KMSN MSN20011213223009912/13/01 22:30:31  5-MIN KMSN 140430Z 30005KT 10SM OVC011 M03/M05 A2999 800 85 -1100 300/05 RMK AO2
14837KMSN MSN20011213223509912/13/01 22:35:31  5-MIN KMSN 140435Z VRB03KT 10SM OVC011 M02/M04 A3000 790 85 -1000 VRB/03 RMK AO2
14837KMSN MSN20011213224009912/13/01 22:40:31  5-MIN KMSN 140440Z 00000KT 10SM OVC011 M02/M04 A2999 800 85 -1000 000/00 RMK AO2
14837KMSN MSN20011213224509912/13/01 22:45:31  5-MIN KMSN 140445Z VRB04KT 10SM OVC011 M02/M05 A3000 790 81 -1000 VRB/04 RMK AO2
14837KMSN MSN20011213225011612/13/01 22:50:31  5-MIN KMSN 140450Z 29003KT 10SM OVC011 M02/M04 A3000 790 85 -1000 290/03 RMK AO2 SLP170 T10221044
14837KMSN MSN20011213225509812/13/01 22:55:31  5-MIN KMSN 140455Z 00000KT 9SM OVC011 M02/M04 A3000 790 85 -1000 000/00 RMK AO2
14837KMSN MSN20011213230009812/13/01 23:00:31  5-MIN KMSN 140500Z 31003KT 9SM OVC011 M02/M04 A3000 790 85 -1000 310/03 RMK AO2
14837KMSN MSN20011213230509812/13/01 23:05:31  5-MIN KMSN 140505Z 35004KT 9SM OVC011 M02/M04 A3000 790 85 -1000 350/04 RMK AO2
14837KMSN MSN20011213231009812/13/01 23:10:31  5-MIN KMSN 140510Z 35004KT 9SM OVC011 M02/M04 A3000 790 85 -1000 340/04 RMK AO2
14837KMSN MSN20011213231509812/13/01 23:15:31  5-MIN KMSN 140515Z 30004KT 9SM OVC011 M02/M04 A3001 790 85 -1000 300/04 RMK AO2
14837KMSN MSN20011213232009912/13/01 23:20:31  5-MIN KMSN 140520Z 00000KT 10SM OVC011 M03/M05 A3001 780 85 -1100 000/00 RMK AO2
14837KMSN MSN20011213232509812/13/01 23:25:31  5-MIN KMSN 140525Z 00000KT 9SM OVC011 M03/M05 A3001 780 85 -1100 000/00 RMK AO2
14837KMSN MSN20011213233009812/13/01 23:30:31  5-MIN KMSN 140530Z 00000KT 9SM OVC011 M03/M05 A3001 790 85 -1100 000/00 RMK AO2
14837KMSN MSN20011213233509812/13/01 23:35:31  5-MIN KMSN 140535Z 34003KT 9SM OVC011 M03/M05 A3000 790 85 -1100 330/03 RMK AO2
14837KMSN MSN20011213234009812/13/01 23:40:31  5-MIN KMSN 140540Z 00000KT 9SM OVC011 M03/M05 A3000 790 85 -1100 000/00 RMK AO2
14837KMSN MSN20011213234509912/13/01 23:45:31  5-MIN KMSN 140545Z 32004KT 10SM OVC011 M03/M05 A3000 790 85 -1100 320/04 RMK AO2
14837KMSN MSN20011213235014412/13/01 23:50:31  5-MIN KMSN 140550Z 34004KT 10SM OVC011 M03/M05 A3000 800 85 -1100 340/04 RMK AO2 SLP168 T10281050 11011 21028 400501028 53007
14837KMSN MSN20011213235509812/13/01 23:55:31  5-MIN KMSN 140555Z VRB03KT 9SM OVC011 M03/M05 A2999 800 85 -1100 VRB/03 RMK AO2
14837KMSN MSN20011214000009812/14/01 00:00:31  5-MIN KMSN 140600Z 00000KT 9SM OVC011 M03/M05 A2999 800 85 -1100 000/00 RMK AO2
14837KMSN MSN20011214000509812/14/01 00:05:31  5-MIN KMSN 140605Z 00000KT 9SM OVC011 M03/M05 A2999 800 85 -1100 000/00 RMK AO2
14837KMSN MSN20011214001009812/14/01 00:10:31  5-MIN KMSN 140610Z 00000KT 9SM OVC011 M03/M05 A2998 810 85 -1100 000/00 RMK AO2
14837KMSN MSN20011214001509812/14/01 00:15:31  5-MIN KMSN 140615Z VRB03KT 9SM OVC011 M03/M05 A2998 810 85 -1100 VRB/03 RMK AO2
14837KMSN MSN20011214002009812/14/01 00:20:31  5-MIN KMSN 140620Z 31004KT 9SM OVC011 M03/M05 A2997 820 85 -1100 310/04 RMK AO2
14837KMSN MSN20011214002509812/14/01 00:25:31  5-MIN KMSN 140625Z 00000KT 9SM OVC011 M03/M05 A2997 820 85 -1100 000/00 RMK AO2
14837KMSN MSN20011214003009812/14/01 00:30:31  5-MIN KMSN 140630Z 01003KT 9SM OVC011 M03/M05 A2996 820 85 -1100 010/03 RMK AO2
14837KMSN MSN20011214003509812/14/01 00:35:31  5-MIN KMSN 140635Z 02005KT 9SM OVC011 M03/M05 A2996 830 85 -1100 020/05 RMK AO2
14837KMSN MSN20011214004009812/14/01 00:40:31  5-MIN KMSN 140640Z 36003KT 9SM OVC011 M03/M05 A2996 830 85 -1100 360/03 RMK AO2
14837KMSN MSN20011214004509812/14/01 00:45:31  5-MIN KMSN 140645Z 36005KT 9SM OVC011 M03/M04 A2995 830 88 -1100 360/05 RMK AO2
14837KMSN MSN20011214005011612/14/01 00:50:31  5-MIN KMSN 140650Z 35005KT 10SM OVC011 M03/M04 A2995 840 88 -1100 340/05 RMK AO2 SLP152 T10281044
14837KMSN MSN20011214005509812/14/01 00:55:31  5-MIN KMSN 140655Z 36003KT 9SM OVC011 M03/M05 A2995 840 85 -1100 360/03 RMK AO2
14837KMSN MSN20011214010009912/14/01 01:00:31  5-MIN KMSN 140700Z 35004KT 10SM OVC010 M03/M05 A2996 830 85 -1100 350/04 RMK AO2
14837KMSN MSN20011214010509912/14/01 01:05:31  5-MIN KMSN 140705Z 03003KT 10SM OVC010 M03/M05 A2996 830 88 -1100 020/03 RMK AO2
14837KMSN MSN20011214011009912/14/01 01:10:31  5-MIN KMSN 140710Z 32003KT 10SM OVC010 M03/M05 A2996 830 88 -1100 320/03 RMK AO2
14837KMSN MSN20011214011509912/14/01 01:15:31  5-MIN KMSN 140715Z 00000KT 10SM OVC010 M03/M05 A2995 830 88 -1100 000/00 RMK AO2
14837KMSN MSN20011214012009912/14/01 01:20:31  5-MIN KMSN 140720Z 34003KT 10SM OVC010 M03/M05 A2996 830 88 -1100 330/03 RMK AO2
14837KMSN MSN20011214012509912/14/01 01:25:31  5-MIN KMSN 140725Z 35004KT 10SM OVC010 M03/M05 A2995 830 85 -1100 350/04 RMK AO2
14837KMSN MSN20011214013009912/14/01 01:30:31  5-MIN KMSN 140730Z 36003KT 10SM OVC010 M03/M05 A2995 830 85 -1100 360/03 RMK AO2
14837KMSN MSN20011214013509912/14/01 01:35:31  5-MIN KMSN 140735Z 00000KT 10SM OVC010 M03/M05 A2995 830 85 -1100 000/00 RMK AO2
14837KMSN MSN20011214014009912/14/01 01:40:31  5-MIN KMSN 140740Z 03006KT 10SM OVC010 M03/M05 A2996 830 85 -1100 030/06 RMK AO2
14837KMSN MSN20011214014509912/14/01 01:45:31  5-MIN KMSN 140745Z 05004KT 10SM OVC010 M03/M05 A2996 830 88 -1100 050/04 RMK AO2
14837KMSN MSN20011214015011612/14/01 01:50:31  5-MIN KMSN 140750Z 10003KT 10SM OVC010 M03/M05 A2996 830 88 -1100 100/03 RMK AO2 SLP155 T10331050
14837KMSN MSN20011214015509812/14/01 01:55:31  5-MIN KMSN 140755Z 00000KT 8SM OVC010 M03/M05 A2995 830 88 -1100 000/00 RMK AO2
14837KMSN MSN20011214020009812/14/01 02:00:31  5-MIN KMSN 140800Z 00000KT 8SM OVC010 M03/M05 A2996 830 85 -1100 000/00 RMK AO2
14837KMSN MSN20011214020509812/14/01 02:05:31  5-MIN KMSN 140805Z 00000KT 8SM OVC010 M03/M05 A2996 830 85 -1100 000/00 RMK AO2
14837KMSN MSN20011214021009812/14/01 02:10:31  5-MIN KMSN 140810Z 00000KT 8SM OVC010 M03/M05 A2996 830 85 -1100 000/00 RMK AO2
14837KMSN MSN20011214021509812/14/01 02:15:31  5-MIN KMSN 140815Z 04005KT 8SM OVC010 M03/M04 A2996 830 88 -1100 040/05 RMK AO2
14837KMSN MSN20011214022009812/14/01 02:20:31  5-MIN KMSN 140820Z 04004KT 8SM OVC010 M03/M04 A2995 840 88 -1100 040/04 RMK AO2
14837KMSN MSN20011214022509812/14/01 02:25:31  5-MIN KMSN 140825Z 04003KT 8SM OVC010 M03/M05 A2996 830 85 -1100 040/03 RMK AO2
14837KMSN MSN20011214023009812/14/01 02:30:31  5-MIN KMSN 140830Z 00000KT 8SM OVC010 M03/M05 A2995 830 85 -1100 000/00 RMK AO2
14837KMSN MSN20011214023509812/14/01 02:35:31  5-MIN KMSN 140835Z VRB03KT 8SM OVC010 M03/M05 A2994 850 85 -1000 VRB/03 RMK AO2
14837KMSN MSN20011214024009812/14/01 02:40:31  5-MIN KMSN 140840Z 02004KT 8SM OVC010 M03/M04 A2994 850 88 -1000 010/04 RMK AO2
14837KMSN MSN20011214024510512/14/01 02:45:31  5-MIN KMSN 140845Z 01004KT 8SM OVC010 M03/M04 A2993 860 88 -1000 010/04 RMK AO2 PRESFR
14837KMSN MSN20011214025012112/14/01 02:50:31  5-MIN KMSN 140850Z 36005KT 8SM OVC010 M03/M04 A2992 860 88 -1000 350/05 RMK AO2 SLP143 T10281044 56007
14837KMSN MSN20011214025509812/14/01 02:55:31  5-MIN KMSN 140855Z 01004KT 8SM OVC008 M03/M04 A2992 860 88 -1000 010/04 RMK AO2
14837KMSN MSN20011214030009812/14/01 03:00:31  5-MIN KMSN 140900Z 01006KT 8SM OVC008 M03/M04 A2992 860 88 -1000 010/06 RMK AO2
14837KMSN MSN20011214030509812/14/01 03:05:31  5-MIN KMSN 140905Z 03006KT 8SM OVC008 M03/M04 A2992 870 88 -1000 030/06 RMK AO2
14837KMSN MSN20011214031009812/14/01 03:10:31  5-MIN KMSN 140910Z 05006KT 8SM OVC008 M03/M04 A2992 870 88 -1000 050/06 RMK AO2
14837KMSN MSN20011214031509812/14/01 03:15:31  5-MIN KMSN 140915Z 05006KT 8SM OVC008 M03/M04 A2992 870 88 -1000 050/06 RMK AO2
14837KMSN MSN20011214032009812/14/01 03:20:31  5-MIN KMSN 140920Z 08004KT 8SM OVC008 M03/M04 A2992 860 88 -1000 080/04 RMK AO2
14837KMSN MSN20011214032509812/14/01 03:25:31  5-MIN KMSN 140925Z 10004KT 8SM OVC008 M03/M04 A2992 870 88 -1000 100/04 RMK AO2
14837KMSN MSN20011214033009812/14/01 03:30:31  5-MIN KMSN 140930Z 06003KT 7SM OVC008 M03/M04 A2991 870 88 -1000 060/03 RMK AO2
14837KMSN MSN20011214033509812/14/01 03:35:31  5-MIN KMSN 140935Z 03003KT 7SM OVC008 M03/M04 A2991 870 88 -1000 030/03 RMK AO2
14837KMSN MSN20011214034009812/14/01 03:40:31  5-MIN KMSN 140940Z 03004KT 7SM OVC008 M03/M04 A2990 880 88 -1000 030/04 RMK AO2
14837KMSN MSN20011214034509812/14/01 03:45:31  5-MIN KMSN 140945Z 04004KT 7SM OVC008 M03/M04 A2990 880 88 -1000 040/04 RMK AO2
14837KMSN MSN20011214035011512/14/01 03:50:31  5-MIN KMSN 140950Z 05004KT 7SM OVC008 M03/M04 A2990 880 88 -1000 050/04 RMK AO2 SLP136 T10281044
14837KMSN MSN20011214035509812/14/01 03:55:31  5-MIN KMSN 140955Z 06004KT 7SM OVC008 M03/M04 A2991 880 88 -1000 060/04 RMK AO2
14837KMSN MSN20011214040010012/14/01 04:00:31  5-MIN KMSN 141000Z 08005KT 6SM BR OVC008 M02/M04 A2991 880 85 -900 080/05 RMK AO2
14837KMSN MSN20011214040510012/14/01 04:05:31  5-MIN KMSN 141005Z 07005KT 6SM BR OVC008 M02/M04 A2991 880 85 -900 070/05 RMK AO2
14837KMSN MSN20011214041010012/14/01 04:10:31  5-MIN KMSN 141010Z 09005KT 6SM BR OVC008 M02/M04 A2991 880 85 -900 090/05 RMK AO2
14837KMSN MSN20011214041510012/14/01 04:15:31  5-MIN KMSN 141015Z 07005KT 6SM BR OVC008 M02/M04 A2991 870 85 -900 070/05 RMK AO2
14837KMSN MSN20011214042010012/14/01 04:20:31  5-MIN KMSN 141020Z 09006KT 6SM BR OVC008 M02/M04 A2991 870 85 -900 090/06 RMK AO2
14837KMSN MSN20011214042510012/14/01 04:25:31  5-MIN KMSN 141025Z 06006KT 6SM BR OVC008 M02/M04 A2991 870 85 -900 060/06 RMK AO2
14837KMSN MSN20011214043010012/14/01 04:30:31  5-MIN KMSN 141030Z 05006KT 6SM BR OVC008 M02/M04 A2991 870 85 -900 040/06 RMK AO2
14837KMSN MSN20011214043510012/14/01 04:35:31  5-MIN KMSN 141035Z 06006KT 6SM BR OVC008 M02/M04 A2991 870 85 -900 060/06 RMK AO2
14837KMSN MSN20011214044010012/14/01 04:40:31  5-MIN KMSN 141040Z 05004KT 6SM BR OVC008 M02/M04 A2991 870 85 -900 050/04 RMK AO2
14837KMSN MSN20011214044510012/14/01 04:45:31  5-MIN KMSN 141045Z 06005KT 6SM BR OVC008 M02/M04 A2992 870 85 -900 050/05 RMK AO2
14837KMSN MSN20011214045011712/14/01 04:50:31  5-MIN KMSN 141050Z 06005KT 6SM BR OVC008 M02/M04 A2992 870 88 -900 060/05 RMK AO2 SLP141 T10221039
14837KMSN MSN20011214045510012/14/01 04:55:31  5-MIN KMSN 141055Z 05006KT 6SM BR OVC008 M02/M04 A2992 860 85 -900 050/06 RMK AO2
14837KMSN MSN20011214050010112/14/01 05:00:31  5-MIN KMSN 141100Z 06005KT 6SM BR OVC008 M02/M04 A2992 860 85 -1000 050/05 RMK AO2
14837KMSN MSN20011214050510012/14/01 05:05:31  5-MIN KMSN 141105Z 06005KT 6SM BR OVC008 M02/M04 A2992 860 85 -900 060/05 RMK AO2
14837KMSN MSN20011214051010012/14/01 05:10:31  5-MIN KMSN 141110Z 05006KT 6SM BR OVC008 M02/M04 A2992 860 85 -900 050/06 RMK AO2
14837KMSN MSN20011214051510112/14/01 05:15:31  5-MIN KMSN 141115Z 06005KT 6SM BR OVC008 M02/M04 A2993 860 88 -1000 060/05 RMK AO2
14837KMSN MSN20011214052010112/14/01 05:20:31  5-MIN KMSN 141120Z 06004KT 6SM BR OVC008 M02/M04 A2993 850 88 -1000 060/04 RMK AO2
14837KMSN MSN20011214052510112/14/01 05:25:31  5-MIN KMSN 141125Z 07005KT 6SM BR OVC008 M02/M04 A2993 850 88 -1000 070/05 RMK AO2
14837KMSN MSN20011214053010112/14/01 05:30:31  5-MIN KMSN 141130Z 07004KT 6SM BR OVC008 M02/M04 A2993 860 85 -1000 070/04 RMK AO2
14837KMSN MSN20011214053510012/14/01 05:35:31  5-MIN KMSN 141135Z 05005KT 6SM BR OVC008 M02/M04 A2992 860 85 -900 050/05 RMK AO2
14837KMSN MSN20011214054010012/14/01 05:40:31  5-MIN KMSN 141140Z 06006KT 6SM BR OVC008 M02/M04 A2991 870 85 -900 050/06 RMK AO2
14837KMSN MSN20011214054510012/14/01 05:45:31  5-MIN KMSN 141145Z 07005KT 6SM BR OVC008 M02/M04 A2992 870 85 -900 070/05 RMK AO2
14837KMSN MSN20011214055013512/14/01 05:50:31  5-MIN KMSN 141150Z 07005KT 6SM BR OVC008 M02/M04 A2991 870 85 -900 060/05 RMK AO2 SLP140 T10221044 11022 21033 56023
14837KMSN MSN20011214055510012/14/01 05:55:31  5-MIN KMSN 141155Z 06005KT 6SM BR OVC008 M02/M04 A2991 870 85 -900 060/05 RMK AO2
14837KMSN MSN20011214060010012/14/01 06:00:31  5-MIN KMSN 141200Z 08004KT 6SM BR OVC008 M02/M04 A2992 870 85 -900 080/04 RMK AO2
14837KMSN MSN20011214060510012/14/01 06:05:31  5-MIN KMSN 141205Z 08005KT 6SM BR OVC008 M02/M04 A2991 870 85 -900 070/05 RMK AO2
14837KMSN MSN20011214061011212/14/01 06:10:31  5-MIN KMSN 141210Z 08004KT 6SM BR OVC008 M02/M04 A2991 870 88 -900 080/04 RMK AO2 CIG 009V012
14837KMSN MSN20011214061511212/14/01 06:15:31  5-MIN KMSN 141215Z 08005KT 6SM BR OVC010 M02/M04 A2992 870 85 -900 080/05 RMK AO2 CIG 009V013
14837KMSN MSN20011214062010012/14/01 06:20:31  5-MIN KMSN 141220Z 07004KT 6SM BR OVC010 M02/M04 A2992 870 85 -900 070/04 RMK AO2
14837KMSN MSN20011214062510012/14/01 06:25:31  5-MIN KMSN 141225Z 06006KT 6SM BR OVC010 M02/M04 A2991 870 88 -900 060/06 RMK AO2
14837KMSN MSN20011214063010012/14/01 06:30:31  5-MIN KMSN 141230Z 06005KT 6SM BR OVC010 M02/M04 A2991 870 88 -900 060/05 RMK AO2
14837KMSN MSN20011214063510012/14/01 06:35:31  5-MIN KMSN 141235Z 06005KT 6SM BR OVC010 M02/M04 A2991 870 88 -900 050/05 RMK AO2
14837KMSN MSN20011214064010012/14/01 06:40:31  5-MIN KMSN 141240Z 05006KT 6SM BR OVC010 M02/M04 A2991 880 88 -900 050/06 RMK AO2
14837KMSN MSN20011214064510012/14/01 06:45:31  5-MIN KMSN 141245Z 06006KT 6SM BR OVC010 M02/M04 A2990 880 88 -900 050/06 RMK AO2
14837KMSN MSN20011214065011712/14/01 06:50:31  5-MIN KMSN 141250Z 05005KT 6SM BR OVC010 M02/M04 A2990 880 88 -900 050/05 RMK AO2 SLP136 T10221039
14837KMSN MSN20011214065510012/14/01 06:55:31  5-MIN KMSN 141255Z 04006KT 5SM BR OVC010 M02/M04 A2990 880 88 -900 030/06 RMK AO2
14837KMSN MSN20011214070010012/14/01 07:00:31  5-MIN KMSN 141300Z 03006KT 5SM BR OVC010 M02/M04 A2990 880 88 -900 030/06 RMK AO2
14837KMSN MSN20011214070510012/14/01 07:05:31  5-MIN KMSN 141305Z 02005KT 5SM BR OVC010 M02/M04 A2990 880 88 -900 020/05 RMK AO2
14837KMSN MSN20011214071010012/14/01 07:10:31  5-MIN KMSN 141310Z 02005KT 5SM BR OVC010 M02/M04 A2991 880 88 -900 020/05 RMK AO2
14837KMSN MSN20011214071510012/14/01 07:15:31  5-MIN KMSN 141315Z 03005KT 5SM BR OVC010 M02/M04 A2991 880 88 -900 030/05 RMK AO2
14837KMSN MSN20011214072010012/14/01 07:20:31  5-MIN KMSN 141320Z 03006KT 5SM BR OVC010 M02/M04 A2990 880 88 -900 030/06 RMK AO2
14837KMSN MSN20011214072510012/14/01 07:25:31  5-MIN KMSN 141325Z 05005KT 5SM BR OVC010 M02/M04 A2990 880 88 -900 050/05 RMK AO2
14837KMSN MSN20011214073010012/14/01 07:30:31  5-MIN KMSN 141330Z 04005KT 5SM BR OVC010 M02/M04 A2990 880 88 -900 040/05 RMK AO2
14837KMSN MSN20011214073510012/14/01 07:35:31  5-MIN KMSN 141335Z 05004KT 5SM BR OVC010 M02/M04 A2990 890 88 -900 050/04 RMK AO2
14837KMSN MSN20011214074010012/14/01 07:40:31  5-MIN KMSN 141340Z 05006KT 5SM BR OVC010 M02/M04 A2990 890 88 -900 050/06 RMK AO2
14837KMSN MSN20011214074510012/14/01 07:45:31  5-MIN KMSN 141345Z 04005KT 4SM BR OVC010 M02/M04 A2990 890 88 -900 040/05 RMK AO2
14837KMSN MSN20011214075011712/14/01 07:50:31  5-MIN KMSN 141350Z 06005KT 4SM BR OVC010 M02/M04 A2990 890 88 -900 060/05 RMK AO2 SLP134 T10221039
14837KMSN MSN20011214075510012/14/01 07:55:31  5-MIN KMSN 141355Z 06005KT 4SM BR OVC010 M02/M04 A2989 890 88 -900 050/05 RMK AO2
14837KMSN MSN20011214080010012/14/01 08:00:31  5-MIN KMSN 141400Z 06005KT 4SM BR OVC010 M02/M04 A2990 890 85 -800 060/05 RMK AO2
14837KMSN MSN20011214080510012/14/01 08:05:31  5-MIN KMSN 141405Z 05005KT 4SM BR OVC010 M02/M04 A2990 890 85 -800 050/05 RMK AO2
14837KMSN MSN20011214081010012/14/01 08:10:31  5-MIN KMSN 141410Z 03004KT 4SM BR OVC010 M02/M04 A2989 890 85 -800 030/04 RMK AO2
14837KMSN MSN20011214081510012/14/01 08:15:31  5-MIN KMSN 141415Z 02004KT 4SM BR OVC010 M02/M04 A2989 900 85 -800 010/04 RMK AO2
14837KMSN MSN20011214082010012/14/01 08:20:31  5-MIN KMSN 141420Z 35005KT 4SM BR OVC010 M02/M04 A2989 900 85 -800 350/05 RMK AO2
14837KMSN MSN20011214082510012/14/01 08:25:31  5-MIN KMSN 141425Z 32004KT 4SM BR OVC010 M02/M04 A2989 890 85 -800 320/04 RMK AO2
14837KMSN MSN20011214083010012/14/01 08:30:31  5-MIN KMSN 141430Z 32004KT 4SM BR OVC010 M02/M04 A2989 900 85 -800 320/04 RMK AO2
14837KMSN MSN20011214083510012/14/01 08:35:31  5-MIN KMSN 141435Z 01003KT 4SM BR OVC010 M02/M04 A2988 900 85 -800 360/03 RMK AO2
14837KMSN MSN20011214084010012/14/01 08:40:31  5-MIN KMSN 141440Z 02003KT 4SM BR OVC010 M02/M04 A2988 900 85 -800 010/03 RMK AO2
14837KMSN MSN20011214084510012/14/01 08:45:31  5-MIN KMSN 141445Z 00000KT 4SM BR OVC010 M02/M04 A2989 890 85 -800 000/00 RMK AO2
14837KMSN MSN20011214085012312/14/01 08:50:31  5-MIN KMSN 141450Z 05004KT 4SM BR OVC010 M02/M04 A2989 890 85 -800 050/04 RMK AO2 SLP131 T10171039 56003
14837KMSN MSN20011214085510012/14/01 08:55:31  5-MIN KMSN 141455Z 07005KT 4SM BR OVC010 M02/M04 A2989 890 85 -800 070/05 RMK AO2
14837KMSN MSN20011214090010012/14/01 09:00:31  5-MIN KMSN 141500Z 07005KT 4SM BR OVC010 M02/M04 A2989 890 85 -800 070/05 RMK AO2
14837KMSN MSN20011214090510012/14/01 09:05:31  5-MIN KMSN 141505Z 07004KT 4SM BR OVC010 M02/M04 A2989 890 85 -800 070/04 RMK AO2
14837KMSN MSN20011214091010012/14/01 09:10:31  5-MIN KMSN 141510Z 07003KT 4SM HZ OVC010 M01/M04 A2990 880 81 -800 070/03 RMK AO2
14837KMSN MSN20011214091510012/14/01 09:15:31  5-MIN KMSN 141515Z 09003KT 4SM HZ OVC010 M01/M04 A2991 880 81 -800 090/03 RMK AO2
14837KMSN MSN20011214092010012/14/01 09:20:31  5-MIN KMSN 141520Z 00000KT 4SM BR OVC010 M02/M04 A2991 880 85 -900 000/00 RMK AO2
14837KMSN MSN20011214092510012/14/01 09:25:31  5-MIN KMSN 141525Z 00000KT 4SM HZ OVC010 M01/M04 A2991 870 81 -800 000/00 RMK AO2
14837KMSN MSN20011214093010012/14/01 09:30:31  5-MIN KMSN 141530Z 07004KT 4SM HZ OVC010 M01/M04 A2992 870 81 -800 070/04 RMK AO2
14837KMSN MSN20011214093510012/14/01 09:35:31  5-MIN KMSN 141535Z 08003KT 4SM BR OVC010 M01/M03 A2992 860 85 -800 080/03 RMK AO2
14837KMSN MSN20011214094010012/14/01 09:40:31  5-MIN KMSN 141540Z 03004KT 4SM HZ OVC010 M01/M04 A2992 870 81 -800 020/04 RMK AO2
14837KMSN MSN20011214094510012/14/01 09:45:31  5-MIN KMSN 141545Z 35004KT 4SM HZ OVC010 M01/M04 A2991 870 81 -800 350/04 RMK AO2
14837KMSN MSN20011214095011712/14/01 09:50:31  5-MIN KMSN 141550Z 36004KT 4SM BR OVC012 M01/M03 A2992 870 85 -800 360/04 RMK AO2 SLP141 T10111033
14837KMSN MSN20011214095510012/14/01 09:55:31  5-MIN KMSN 141555Z 02004KT 4SM BR OVC012 M01/M03 A2992 870 85 -800 020/04 RMK AO2
14837KMSN MSN20011214100010012/14/01 10:00:31  5-MIN KMSN 141600Z 02003KT 4SM BR OVC012 M01/M03 A2992 870 85 -800 020/03 RMK AO2
14837KMSN MSN20011214100510012/14/01 10:05:31  5-MIN KMSN 141605Z 05004KT 4SM BR OVC012 M01/M03 A2992 870 85 -800 050/04 RMK AO2
14837KMSN MSN20011214101010012/14/01 10:10:31  5-MIN KMSN 141610Z 00000KT 4SM BR OVC012 M01/M03 A2992 860 85 -800 000/00 RMK AO2
14837KMSN MSN20011214101510012/14/01 10:15:31  5-MIN KMSN 141615Z 00000KT 4SM BR OVC012 M01/M03 A2992 860 85 -800 000/00 RMK AO2
14837KMSN MSN20011214102010012/14/01 10:20:31  5-MIN KMSN 141620Z 00000KT 4SM BR OVC012 M01/M03 A2993 860 85 -800 000/00 RMK AO2
14837KMSN MSN20011214102510012/14/01 10:25:31  5-MIN KMSN 141625Z 35003KT 4SM BR OVC012 M01/M03 A2993 860 85 -800 350/03 RMK AO2
14837KMSN MSN20011214103010012/14/01 10:30:31  5-MIN KMSN 141630Z VRB03KT 4SM BR OVC012 M01/M03 A2993 860 85 -800 VRB/03 RMK AO2
14837KMSN MSN20011214103511212/14/01 10:35:31  5-MIN KMSN 141635Z 01005KT 4SM BR OVC010 M01/M03 A2993 860 85 -700 010/05 RMK AO2 CIG 010V014
14837KMSN MSN20011214104011212/14/01 10:40:31  5-MIN KMSN 141640Z 36004KT 4SM BR OVC010 M01/M03 A2993 860 85 -800 360/04 RMK AO2 CIG 010V013
14837KMSN MSN20011214104510012/14/01 10:45:31  5-MIN KMSN 141645Z 35005KT 4SM HZ OVC010 M01/M03 A2993 850 81 -800 350/05 RMK AO2
14837KMSN MSN20011214105011712/14/01 10:50:31  5-MIN KMSN 141650Z 34004KT 4SM HZ OVC010 M01/M03 A2994 850 81 -800 340/04 RMK AO2 SLP147 T10061033
14837KMSN MSN20011214105510012/14/01 10:55:31  5-MIN KMSN 141655Z 34004KT 4SM HZ OVC010 M01/M03 A2994 850 81 -800 340/04 RMK AO2
14837KMSN MSN20011214110010012/14/01 11:00:31  5-MIN KMSN 141700Z 35004KT 4SM BR OVC010 M01/M03 A2994 850 85 -800 350/04 RMK AO2
14837KMSN MSN20011214110510012/14/01 11:05:31  5-MIN KMSN 141705Z 34005KT 4SM HZ OVC010 M01/M03 A2994 850 81 -800 340/05 RMK AO2
14837KMSN MSN20011214111010012/14/01 11:10:31  5-MIN KMSN 141710Z 33005KT 4SM BR OVC010 M01/M03 A2994 850 85 -800 330/05 RMK AO2
14837KMSN MSN20011214111510012/14/01 11:15:31  5-MIN KMSN 141715Z 34005KT 4SM HZ OVC010 M01/M03 A2993 850 81 -800 330/05 RMK AO2
14837KMSN MSN20011214112010012/14/01 11:20:31  5-MIN KMSN 141720Z 35004KT 4SM HZ OVC010 M01/M03 A2993 860 81 -700 340/04 RMK AO2
14837KMSN MSN20011214112510012/14/01 11:25:31  5-MIN KMSN 141725Z 36006KT 4SM HZ OVC010 M01/M03 A2993 860 81 -700 360/06 RMK AO2
14837KMSN MSN20011214113010012/14/01 11:30:31  5-MIN KMSN 141730Z 34005KT 4SM HZ OVC010 M01/M03 A2993 860 81 -700 340/05 RMK AO2
14837KMSN MSN20011214113510012/14/01 11:35:31  5-MIN KMSN 141735Z 33004KT 4SM BR OVC010 M01/M03 A2993 860 85 -700 330/04 RMK AO2
14837KMSN MSN20011214114010012/14/01 11:40:31  5-MIN KMSN 141740Z 36004KT 4SM BR OVC010 M01/M03 A2992 860 85 -700 360/04 RMK AO2
14837KMSN MSN20011214114510012/14/01 11:45:31  5-MIN KMSN 141745Z 33004KT 4SM BR OVC010 M01/M03 A2992 860 85 -700 330/04 RMK AO2
14837KMSN MSN20011214115013512/14/01 11:50:31  5-MIN KMSN 141750Z VRB04KT 4SM BR OVC010 M01/M03 A2992 860 85 -700 VRB/04 RMK AO2 SLP142 T10061028 11006 21022 56008
14837KMSN MSN20011214115510012/14/01 11:55:31  5-MIN KMSN 141755Z 36003KT 4SM BR OVC010 M01/M03 A2992 870 85 -700 350/03 RMK AO2
14837KMSN MSN20011214120010012/14/01 12:00:31  5-MIN KMSN 141800Z 01006KT 4SM BR OVC010 M01/M03 A2991 870 85 -700 010/06 RMK AO2
14837KMSN MSN20011214120510012/14/01 12:05:31  5-MIN KMSN 141805Z 36005KT 4SM BR OVC010 M01/M03 A2992 870 85 -700 360/05 RMK AO2
14837KMSN MSN20011214121010012/14/01 12:10:31  5-MIN KMSN 141810Z 36006KT 4SM BR OVC010 M01/M03 A2992 870 85 -700 360/06 RMK AO2
14837KMSN MSN20011214121510012/14/01 12:15:31  5-MIN KMSN 141815Z 01005KT 4SM BR OVC010 M01/M03 A2991 870 85 -700 010/05 RMK AO2
14837KMSN MSN20011214122010012/14/01 12:20:31  5-MIN KMSN 141820Z 02006KT 4SM BR OVC010 M01/M03 A2991 870 85 -700 020/06 RMK AO2
14837KMSN MSN20011214122510012/14/01 12:25:31  5-MIN KMSN 141825Z 03006KT 4SM BR OVC010 M01/M03 A2991 870 85 -700 030/06 RMK AO2
14837KMSN MSN20011214123010012/14/01 12:30:31  5-MIN KMSN 141830Z 01006KT 4SM BR OVC010 M01/M03 A2991 880 85 -700 010/06 RMK AO2
14837KMSN MSN20011214123510012/14/01 12:35:31  5-MIN KMSN 141835Z 03005KT 4SM BR OVC010 M01/M03 A2991 880 85 -700 030/05 RMK AO2
14837KMSN MSN20011214124010012/14/01 12:40:31  5-MIN KMSN 141840Z 03006KT 4SM BR OVC010 M01/M03 A2991 880 85 -700 030/06 RMK AO2
14837KMSN MSN20011214124510012/14/01 12:45:31  5-MIN KMSN 141845Z 01005KT 4SM BR OVC010 M01/M03 A2991 870 85 -700 010/05 RMK AO2
14837KMSN MSN20011214125011712/14/01 12:50:31  5-MIN KMSN 141850Z 02006KT 4SM BR OVC010 M01/M03 A2991 870 85 -700 020/06 RMK AO2 SLP139 T10061028
14837KMSN MSN20011214125510012/14/01 12:55:31  5-MIN KMSN 141855Z 05005KT 4SM BR OVC010 M01/M03 A2991 870 85 -700 050/05 RMK AO2
14837KMSN MSN20011214130009912/14/01 13:00:31  5-MIN KMSN 141900Z 03005KT 4SM BR OVC010 00/M02 A2991 870 85 -700 030/05 RMK AO2
14837KMSN MSN20011214130510012/14/01 13:05:31  5-MIN KMSN 141905Z 01005KT 4SM BR OVC010 M01/M03 A2991 870 85 -700 010/05 RMK AO2
14837KMSN MSN20011214131010012/14/01 13:10:31  5-MIN KMSN 141910Z 02003KT 4SM BR OVC010 M01/M03 A2991 870 85 -700 020/03 RMK AO2
14837KMSN MSN20011214131510012/14/01 13:15:31  5-MIN KMSN 141915Z 04005KT 4SM BR OVC010 M01/M03 A2991 880 85 -700 040/05 RMK AO2
14837KMSN MSN20011214132010012/14/01 13:20:31  5-MIN KMSN 141920Z 04005KT 4SM BR OVC010 M01/M02 A2991 880 88 -700 040/05 RMK AO2
14837KMSN MSN20011214132510012/14/01 13:25:31  5-MIN KMSN 141925Z 03005KT 4SM BR OVC010 M01/M03 A2991 880 85 -700 030/05 RMK AO2
14837KMSN MSN20011214133010012/14/01 13:30:31  5-MIN KMSN 141930Z 02004KT 4SM BR OVC010 M01/M03 A2991 870 85 -700 020/04 RMK AO2
14837KMSN MSN20011214133510012/14/01 13:35:31  5-MIN KMSN 141935Z 04004KT 4SM BR OVC010 M01/M03 A2991 870 85 -700 040/04 RMK AO2
14837KMSN MSN20011214134010012/14/01 13:40:31  5-MIN KMSN 141940Z 03003KT 4SM BR OVC010 M01/M03 A2992 870 85 -700 030/03 RMK AO2
14837KMSN MSN20011214134510012/14/01 13:45:31  5-MIN KMSN 141945Z VRB03KT 4SM BR OVC010 M01/M03 A2992 870 85 -700 VRB/03 RMK AO2
14837KMSN MSN20011214135011712/14/01 13:50:31  5-MIN KMSN 141950Z 05003KT 4SM BR OVC010 M01/M03 A2992 870 85 -700 050/03 RMK AO2 SLP142 T10061028
14837KMSN MSN20011214135510012/14/01 13:55:31  5-MIN KMSN 141955Z 06005KT 4SM BR OVC010 M01/M03 A2992 870 85 -700 060/05 RMK AO2
14837KMSN MSN20011214140010012/14/01 14:00:31  5-MIN KMSN 142000Z 05003KT 4SM BR OVC010 M01/M03 A2992 860 85 -700 050/03 RMK AO2
14837KMSN MSN20011214140510012/14/01 14:05:31  5-MIN KMSN 142005Z 07003KT 4SM BR OVC010 M01/M03 A2992 860 85 -700 070/03 RMK AO2
14837KMSN MSN20011214141009912/14/01 14:10:31  5-MIN KMSN 142010Z 02003KT 4SM HZ OVC010 00/M03 A2992 860 81 -700 020/03 RMK AO2
14837KMSN MSN20011214141509912/14/01 14:15:31  5-MIN KMSN 142015Z 05003KT 4SM HZ OVC010 00/M03 A2993 860 81 -700 050/03 RMK AO2
14837KMSN MSN20011214142010012/14/01 14:20:31  5-MIN KMSN 142020Z 04003KT 4SM BR OVC010 M01/M03 A2992 860 85 -700 040/03 RMK AO2
14837KMSN MSN20011214142509912/14/01 14:25:31  5-MIN KMSN 142025Z 04003KT 4SM HZ OVC010 00/M03 A2992 860 81 -700 040/03 RMK AO2
14837KMSN MSN20011214155011612/14/01 15:50:31  5-MIN KMSN 142150Z 30003KT 4SM HZ OVC012 00/M03 A2996 830 81 -700 300/03 RMK AO2 SLP155 T00001028
14837KMSN MSN20011214155509912/14/01 15:55:31  5-MIN KMSN 142155Z 00000KT 5SM HZ OVC012 00/M03 A2996 830 81 -700 000/00 RMK AO2
14837KMSN MSN20011214160009912/14/01 16:00:31  5-MIN KMSN 142200Z 00000KT 5SM HZ OVC012 00/M03 A2996 830 81 -700 000/00 RMK AO2
14837KMSN MSN20011214160509912/14/01 16:05:31  5-MIN KMSN 142205Z 00000KT 5SM HZ OVC012 00/M03 A2996 830 81 -700 000/00 RMK AO2
14837KMSN MSN20011214161009912/14/01 16:10:31  5-MIN KMSN 142210Z 00000KT 5SM HZ OVC012 00/M03 A2996 820 78 -700 000/00 RMK AO2
14837KMSN MSN20011214161509912/14/01 16:15:31  5-MIN KMSN 142215Z 00000KT 5SM HZ OVC014 00/M03 A2996 820 78 -700 000/00 RMK AO2
14837KMSN MSN20011214162009912/14/01 16:20:31  5-MIN KMSN 142220Z 08003KT 5SM HZ OVC014 00/M03 A2997 820 81 -700 080/03 RMK AO2
14837KMSN MSN20011214162509912/14/01 16:25:31  5-MIN KMSN 142225Z 00000KT 5SM HZ OVC014 00/M03 A2997 820 81 -700 000/00 RMK AO2
14837KMSN MSN20011214163009912/14/01 16:30:31  5-MIN KMSN 142230Z 00000KT 5SM HZ OVC014 00/M03 A2997 820 78 -700 000/00 RMK AO2
14837KMSN MSN20011214163509912/14/01 16:35:31  5-MIN KMSN 142235Z 00000KT 6SM HZ OVC014 00/M03 A2997 810 78 -700 000/00 RMK AO2
14837KMSN MSN20011214164009912/14/01 16:40:31  5-MIN KMSN 142240Z 00000KT 6SM HZ OVC014 00/M03 A2998 810 81 -700 000/00 RMK AO2
14837KMSN MSN20011214164509912/14/01 16:45:31  5-MIN KMSN 142245Z 00000KT 6SM HZ OVC014 00/M03 A2998 810 81 -700 000/00 RMK AO2
14837KMSN MSN20011214165011712/14/01 16:50:31  5-MIN KMSN 142250Z 00000KT 6SM BR OVC014 M01/M03 A2998 810 85 -800 000/00 RMK AO2 SLP162 T10061028
14837KMSN MSN20011214165509912/14/01 16:55:31  5-MIN KMSN 142255Z 08003KT 6SM HZ OVC014 00/M03 A2998 810 78 -700 080/03 RMK AO2
14837KMSN MSN20011214170010012/14/01 17:00:31  5-MIN KMSN 142300Z 06004KT 6SM BR OVC014 M01/M03 A2998 810 85 -800 060/04 RMK AO2
14837KMSN MSN20011214170510012/14/01 17:05:31  5-MIN KMSN 142305Z 08003KT 6SM BR OVC014 M01/M03 A2998 810 85 -800 080/03 RMK AO2
14837KMSN MSN20011214171010012/14/01 17:10:31  5-MIN KMSN 142310Z 09006KT 6SM BR OVC014 M01/M03 A2999 800 85 -800 090/06 RMK AO2
14837KMSN MSN20011214171510012/14/01 17:15:31  5-MIN KMSN 142315Z 06005KT 6SM BR OVC014 M01/M03 A2999 800 85 -800 060/05 RMK AO2
14837KMSN MSN20011214172010012/14/01 17:20:31  5-MIN KMSN 142320Z 06006KT 6SM BR OVC014 M01/M03 A2999 800 88 -900 060/06 RMK AO2
14837KMSN MSN20011214172510012/14/01 17:25:31  5-MIN KMSN 142325Z 08006KT 6SM HZ OVC014 M01/M03 A2999 800 81 -800 080/06 RMK AO2
14837KMSN MSN20011214173010012/14/01 17:30:31  5-MIN KMSN 142330Z 08006KT 5SM BR OVC014 M01/M03 A2999 800 85 -900 080/06 RMK AO2
14837KMSN MSN20011214173510012/14/01 17:35:31  5-MIN KMSN 142335Z 09005KT 5SM BR OVC014 M01/M03 A2999 800 88 -900 090/05 RMK AO2
14837KMSN MSN20011214174010012/14/01 17:40:31  5-MIN KMSN 142340Z 09004KT 5SM BR OVC014 M01/M03 A2999 800 85 -900 090/04 RMK AO2
14837KMSN MSN20011214174510012/14/01 17:45:31  5-MIN KMSN 142345Z 09004KT 5SM BR OVC014 M01/M03 A3000 790 85 -900 090/04 RMK AO2
14837KMSN MSN20011214175013512/14/01 17:50:31  5-MIN KMSN 142350Z 08006KT 6SM BR BKN014 M01/M03 A3000 790 85 -900 080/06 RMK AO2 SLP169 T10111033 10000 21011 53005
14837KMSN MSN20011214175510012/14/01 17:55:31  5-MIN KMSN 142355Z 09005KT 5SM HZ OVC014 M01/M04 A3000 790 81 -900 090/05 RMK AO2
14837KMSN MSN20011214180010012/14/01 18:00:31  5-MIN KMSN 150000Z 09004KT 5SM BR OVC014 M01/M03 A3001 780 85 -900 090/04 RMK AO2
14837KMSN MSN20011214180510012/14/01 18:05:31  5-MIN KMSN 150005Z 11005KT 5SM BR OVC014 M01/M03 A3001 780 85 -900 100/05 RMK AO2
14837KMSN MSN20011214181010012/14/01 18:10:31  5-MIN KMSN 150010Z 09004KT 5SM HZ OVC012 M01/M03 A3001 780 81 -800 090/04 RMK AO2
14837KMSN MSN20011214181510012/14/01 18:15:31  5-MIN KMSN 150015Z 08004KT 5SM HZ OVC012 M01/M03 A3002 780 81 -800 080/04 RMK AO2
14837KMSN MSN20011214182010012/14/01 18:20:31  5-MIN KMSN 150020Z 11003KT 5SM BR OVC012 M01/M03 A3002 770 85 -900 110/03 RMK AO2
14837KMSN MSN20011214182510012/14/01 18:25:31  5-MIN KMSN 150025Z 13003KT 5SM BR OVC012 M01/M03 A3002 770 88 -900 130/03 RMK AO2
14837KMSN MSN20011214183010012/14/01 18:30:31  5-MIN KMSN 150030Z 12003KT 5SM BR OVC012 M01/M03 A3002 770 88 -900 120/03 RMK AO2
14837KMSN MSN20011214183510012/14/01 18:35:31  5-MIN KMSN 150035Z 10003KT 5SM BR OVC012 M01/M03 A3003 770 85 -900 100/03 RMK AO2
14837KMSN MSN20011214184010012/14/01 18:40:31  5-MIN KMSN 150040Z 13003KT 5SM BR OVC012 M01/M03 A3003 760 85 -900 130/03 RMK AO2
14837KMSN MSN20011214184510012/14/01 18:45:31  5-MIN KMSN 150045Z 13003KT 5SM BR OVC012 M01/M03 A3003 760 85 -900 120/03 RMK AO2
14837KMSN MSN20011214185011712/14/01 18:50:31  5-MIN KMSN 150050Z 15007KT 6SM BR OVC012 M01/M03 A3004 760 85 -900 150/07 RMK AO2 SLP182 T10061028
14837KMSN MSN20011214185510012/14/01 18:55:31  5-MIN KMSN 150055Z 13005KT 5SM BR OVC012 M01/M03 A3004 760 85 -900 130/05 RMK AO2
14837KMSN MSN20011214190010012/14/01 19:00:31  5-MIN KMSN 150100Z 14004KT 5SM HZ OVC012 M01/M03 A3004 750 81 -900 130/04 RMK AO2
14837KMSN MSN20011214190510012/14/01 19:05:31  5-MIN KMSN 150105Z 12005KT 5SM BR OVC012 M01/M03 A3004 750 85 -900 120/05 RMK AO2
14837KMSN MSN20011214191010012/14/01 19:10:31  5-MIN KMSN 150110Z 13006KT 5SM BR OVC012 M01/M03 A3005 750 85 -900 130/06 RMK AO2
14837KMSN MSN20011214191510012/14/01 19:15:31  5-MIN KMSN 150115Z 14005KT 5SM BR OVC012 M01/M03 A3005 750 85 -900 140/05 RMK AO2
14837KMSN MSN20011214192010012/14/01 19:20:31  5-MIN KMSN 150120Z 14006KT 5SM HZ OVC012 M01/M03 A3005 750 81 -900 140/06 RMK AO2
14837KMSN MSN20011214192510012/14/01 19:25:31  5-MIN KMSN 150125Z 15008KT 5SM BR OVC012 M01/M03 A3005 750 85 -900 150/08 RMK AO2
14837KMSN MSN20011214193010012/14/01 19:30:31  5-MIN KMSN 150130Z 15007KT 5SM HZ OVC012 M01/M03 A3005 750 81 -900 150/07 RMK AO2
14837KMSN MSN20011214193510012/14/01 19:35:31  5-MIN KMSN 150135Z 15006KT 5SM HZ OVC012 M01/M03 A3005 750 81 -900 150/06 RMK AO2
14837KMSN MSN20011214194010012/14/01 19:40:31  5-MIN KMSN 150140Z 16005KT 5SM HZ OVC012 M01/M03 A3005 750 81 -900 150/05 RMK AO2
14837KMSN MSN20011214194510012/14/01 19:45:31  5-MIN KMSN 150145Z 12005KT 5SM HZ OVC012 M01/M03 A3005 750 81 -900 120/05 RMK AO2
14837KMSN MSN20011214195011712/14/01 19:50:31  5-MIN KMSN 150150Z 13005KT 5SM BR OVC012 M01/M03 A3005 750 85 -900 130/05 RMK AO2 SLP186 T10061028
14837KMSN MSN20011214195510012/14/01 19:55:31  5-MIN KMSN 150155Z 13004KT 5SM BR OVC012 M01/M03 A3005 740 85 -900 130/04 RMK AO2
14837KMSN MSN20011214200010012/14/01 20:00:31  5-MIN KMSN 150200Z 16008KT 5SM BR OVC012 M01/M03 A3005 740 85 -900 160/08 RMK AO2
14837KMSN MSN20011214200510012/14/01 20:05:31  5-MIN KMSN 150205Z 15004KT 5SM HZ OVC012 M01/M03 A3006 740 81 -900 150/04 RMK AO2
14837KMSN MSN20011214201010012/14/01 20:10:31  5-MIN KMSN 150210Z 14004KT 5SM HZ OVC012 M01/M03 A3006 740 81 -900 140/04 RMK AO2
14837KMSN MSN20011214201510012/14/01 20:15:31  5-MIN KMSN 150215Z 14006KT 5SM BR OVC012 M01/M03 A3006 740 85 -900 140/06 RMK AO2
14837KMSN MSN20011214202010012/14/01 20:20:31  5-MIN KMSN 150220Z 15006KT 5SM BR OVC012 M01/M03 A3006 740 85 -900 150/06 RMK AO2
14837KMSN MSN20011214202510012/14/01 20:25:31  5-MIN KMSN 150225Z 14009KT 5SM BR OVC012 M01/M03 A3006 730 85 -900 140/09 RMK AO2
14837KMSN MSN20011214203010012/14/01 20:30:31  5-MIN KMSN 150230Z 14008KT 5SM BR OVC012 M01/M03 A3007 730 85 -900 140/08 RMK AO2
14837KMSN MSN20011214203510012/14/01 20:35:31  5-MIN KMSN 150235Z 17007KT 5SM BR OVC012 M01/M03 A3007 730 85 -900 160/07 RMK AO2
14837KMSN MSN20011214204010012/14/01 20:40:31  5-MIN KMSN 150240Z 15007KT 5SM BR OVC012 M01/M03 A3007 730 85 -900 150/07 RMK AO2
14837KMSN MSN20011214204510012/14/01 20:45:31  5-MIN KMSN 150245Z 15009KT 5SM BR OVC012 M01/M03 A3007 730 85 -900 150/09 RMK AO2
14837KMSN MSN20011214205012312/14/01 20:50:31  5-MIN KMSN 150250Z 14008KT 5SM BR OVC012 M01/M03 A3007 730 85 -900 140/08 RMK AO2 SLP193 T10061028 51022
14837KMSN MSN20011214205510012/14/01 20:55:31  5-MIN KMSN 150255Z 15008KT 5SM BR OVC012 M01/M03 A3007 730 85 -900 150/08 RMK AO2
14837KMSN MSN20011214210010012/14/01 21:00:31  5-MIN KMSN 150300Z 14007KT 5SM BR OVC012 M01/M03 A3007 730 85 -900 140/07 RMK AO2
14837KMSN MSN20011214210510012/14/01 21:05:31  5-MIN KMSN 150305Z 18007KT 5SM BR OVC012 M01/M03 A3008 720 85 -900 180/07 RMK AO2
14837KMSN MSN20011214211010012/14/01 21:10:31  5-MIN KMSN 150310Z 17006KT 5SM BR OVC012 M01/M03 A3008 720 85 -900 170/06 RMK AO2
14837KMSN MSN20011214211510012/14/01 21:15:31  5-MIN KMSN 150315Z 16007KT 5SM BR OVC012 M01/M03 A3008 720 85 -900 160/07 RMK AO2
14837KMSN MSN20011214212010012/14/01 21:20:31  5-MIN KMSN 150320Z 16008KT 5SM BR OVC012 M01/M03 A3008 720 85 -900 160/08 RMK AO2
14837KMSN MSN20011214212510012/14/01 21:25:31  5-MIN KMSN 150325Z 15008KT 5SM BR OVC012 M01/M03 A3008 720 85 -900 150/08 RMK AO2
14837KMSN MSN20011214213010012/14/01 21:30:31  5-MIN KMSN 150330Z 17008KT 5SM BR OVC012 M01/M03 A3008 710 85 -900 170/08 RMK AO2
14837KMSN MSN20011214213510012/14/01 21:35:31  5-MIN KMSN 150335Z 16007KT 5SM BR OVC012 M01/M03 A3008 710 85 -900 160/07 RMK AO2
14837KMSN MSN20011214214010012/14/01 21:40:31  5-MIN KMSN 150340Z 17006KT 5SM BR OVC012 M01/M03 A3009 710 85 -900 170/06 RMK AO2
14837KMSN MSN20011214214510012/14/01 21:45:31  5-MIN KMSN 150345Z 18007KT 5SM BR OVC012 M01/M03 A3009 710 85 -900 180/07 RMK AO2
14837KMSN MSN20011214215011712/14/01 21:50:31  5-MIN KMSN 150350Z 18007KT 5SM BR OVC012 M01/M03 A3009 710 85 -900 180/07 RMK AO2 SLP200 T10061028
14837KMSN MSN20011214215510012/14/01 21:55:31  5-MIN KMSN 150355Z 18007KT 5SM BR OVC012 M01/M03 A3009 710 85 -900 180/07 RMK AO2
14837KMSN MSN20011214220010012/14/01 22:00:31  5-MIN KMSN 150400Z 17008KT 5SM BR OVC012 M01/M03 A3009 710 85 -900 170/08 RMK AO2
14837KMSN MSN20011214220510012/14/01 22:05:31  5-MIN KMSN 150405Z 16010KT 5SM BR OVC012 M01/M03 A3009 710 85 -900 160/10 RMK AO2
14837KMSN MSN20011214221010012/14/01 22:10:31  5-MIN KMSN 150410Z 18007KT 5SM BR OVC012 M01/M03 A3009 710 85 -900 180/07 RMK AO2
14837KMSN MSN20011214221510012/14/01 22:15:31  5-MIN KMSN 150415Z 17006KT 5SM BR OVC012 M01/M03 A3009 710 85 -900 170/06 RMK AO2
14837KMSN MSN20011214222010012/14/01 22:20:31  5-MIN KMSN 150420Z 16009KT 5SM BR OVC012 M01/M03 A3009 710 85 -900 160/09 RMK AO2
14837KMSN MSN20011214222510012/14/01 22:25:31  5-MIN KMSN 150425Z 16008KT 5SM BR OVC012 M01/M03 A3009 700 85 -900 150/08 RMK AO2
14837KMSN MSN20011214223010012/14/01 22:30:31  5-MIN KMSN 150430Z 16007KT 5SM BR OVC012 M01/M03 A3010 700 85 -900 160/07 RMK AO2
14837KMSN MSN20011214223510012/14/01 22:35:31  5-MIN KMSN 150435Z 16007KT 5SM BR OVC012 M01/M03 A3010 700 85 -900 160/07 RMK AO2
14837KMSN MSN20011214224010012/14/01 22:40:31  5-MIN KMSN 150440Z 17005KT 5SM BR OVC012 M01/M03 A3010 700 85 -900 160/05 RMK AO2
14837KMSN MSN20011214224510012/14/01 22:45:31  5-MIN KMSN 150445Z 16008KT 5SM BR OVC012 M01/M03 A3009 700 85 -900 160/08 RMK AO2
14837KMSN MSN20011214225011712/14/01 22:50:31  5-MIN KMSN 150450Z 15007KT 5SM BR OVC012 M01/M03 A3010 700 85 -900 150/07 RMK AO2 SLP202 T10061028
14837KMSN MSN20011214225510012/14/01 22:55:31  5-MIN KMSN 150455Z 15009KT 5SM BR OVC012 M01/M03 A3010 700 85 -900 150/09 RMK AO2
14837KMSN MSN20011214230010012/14/01 23:00:31  5-MIN KMSN 150500Z 15008KT 5SM BR OVC012 M01/M03 A3010 700 85 -900 150/08 RMK AO2
14837KMSN MSN20011214230510012/14/01 23:05:31  5-MIN KMSN 150505Z 15006KT 5SM BR OVC012 M01/M03 A3010 700 85 -900 150/06 RMK AO2
14837KMSN MSN20011214231010012/14/01 23:10:31  5-MIN KMSN 150510Z 15009KT 5SM BR OVC012 M01/M03 A3010 700 85 -900 150/09 RMK AO2
14837KMSN MSN20011214231510012/14/01 23:15:31  5-MIN KMSN 150515Z 16009KT 5SM BR OVC012 M01/M03 A3010 700 85 -900 150/09 RMK AO2
14837KMSN MSN20011214232010012/14/01 23:20:31  5-MIN KMSN 150520Z 16008KT 5SM BR OVC012 M01/M03 A3011 690 85 -900 160/08 RMK AO2
14837KMSN MSN20011214232510112/14/01 23:25:31  5-MIN KMSN 150525Z 17008KT 5SM BR OVC012 M01/M03 A3011 690 85 -1000 170/08 RMK AO2
14837KMSN MSN20011214233010112/14/01 23:30:31  5-MIN KMSN 150530Z 17005KT 5SM BR OVC012 M01/M03 A3011 690 85 -1000 170/05 RMK AO2
14837KMSN MSN20011214233510112/14/01 23:35:31  5-MIN KMSN 150535Z 17004KT 5SM BR OVC012 M01/M03 A3011 690 85 -1000 170/04 RMK AO2
14837KMSN MSN20011214234010112/14/01 23:40:31  5-MIN KMSN 150540Z 16005KT 5SM BR OVC012 M01/M03 A3011 690 85 -1000 160/05 RMK AO2
14837KMSN MSN20011214234509912/14/01 23:45:31  5-MIN KMSN 150545Z 18006KT 5SM BR OVC012 00/M02 A3011 690 85 -900 180/06 RMK AO2
14837KMSN MSN20011214235014412/14/01 23:50:31  5-MIN KMSN 150550Z 18005KT 5SM BR OVC012 00/M02 A3011 690 85 -900 180/05 RMK AO2 SLP206 T00001022 10000 21017 400001033 51023
14837KMSN MSN20011214235509912/14/01 23:55:31  5-MIN KMSN 150555Z 19006KT 5SM BR OVC012 00/M02 A3012 680 85 -900 190/06 RMK AO2
14837KMSN MSN20011215000009912/15/01 00:00:31  5-MIN KMSN 150600Z 18006KT 5SM BR OVC012 00/M02 A3012 680 85 -900 180/06 RMK AO2
14837KMSN MSN20011215000509912/15/01 00:05:31  5-MIN KMSN 150605Z 17008KT 5SM BR OVC012 00/M02 A3012 680 85 -900 170/08 RMK AO2
14837KMSN MSN20011215001009912/15/01 00:10:31  5-MIN KMSN 150610Z 17007KT 5SM BR OVC012 00/M02 A3012 680 85 -900 170/07 RMK AO2
14837KMSN MSN20011215001509912/15/01 00:15:31  5-MIN KMSN 150615Z 16005KT 5SM BR OVC012 00/M02 A3012 680 85 -900 160/05 RMK AO2
14837KMSN MSN20011215002010112/15/01 00:20:31  5-MIN KMSN 150620Z 17005KT 4SM BR OVC012 M01/M02 A3012 680 88 -1000 170/05 RMK AO2
14837KMSN MSN20011215002510112/15/01 00:25:31  5-MIN KMSN 150625Z 17004KT 4SM BR OVC012 M01/M02 A3012 680 88 -1000 170/04 RMK AO2
14837KMSN MSN20011215003009912/15/01 00:30:31  5-MIN KMSN 150630Z 19004KT 4SM BR OVC012 00/M02 A3013 670 85 -900 190/04 RMK AO2
14837KMSN MSN20011215003509912/15/01 00:35:31  5-MIN KMSN 150635Z 17004KT 4SM BR OVC012 00/M02 A3013 670 85 -900 170/04 RMK AO2
14837KMSN MSN20011215004010112/15/01 00:40:31  5-MIN KMSN 150640Z 16004KT 4SM BR BKN012 M01/M03 A3013 670 85 -1000 160/04 RMK AO2
14837KMSN MSN20011215004510112/15/01 00:45:31  5-MIN KMSN 150645Z 16005KT 4SM BR BKN012 M01/M03 A3014 660 88 -1100 160/05 RMK AO2
14837KMSN MSN20011215005011812/15/01 00:50:31  5-MIN KMSN 150650Z 15004KT 3SM BR BKN012 M02/M03 A3014 660 92 -1100 150/04 RMK AO2 SLP218 T10171028
14837KMSN MSN20011215005510812/15/01 00:55:31  5-MIN KMSN 150655Z 17004KT 3SM BR SCT012 BKN017 M01/M03 A3015 660 88 -1100 160/04 RMK AO2
14837KMSN MSN20011215010010812/15/01 01:00:31  5-MIN KMSN 150700Z 17003KT 3SM BR SCT012 BKN017 M01/M03 A3015 650 85 -1000 170/03 RMK AO2
14837KMSN MSN20011215010510112/15/01 01:05:31  5-MIN KMSN 150705Z 15005KT 3SM BR BKN017 M01/M03 A3014 660 88 -1100 150/05 RMK AO2
14837KMSN MSN20011215011010112/15/01 01:10:31  5-MIN KMSN 150710Z 14005KT 3SM BR BKN015 M01/M03 A3015 660 88 -1100 140/05 RMK AO2
14837KMSN MSN20011215011510112/15/01 01:15:31  5-MIN KMSN 150715Z 15006KT 3SM BR BKN015 M01/M03 A3014 660 88 -1100 150/06 RMK AO2
14837KMSN MSN20011215012010112/15/01 01:20:31  5-MIN KMSN 150720Z 16005KT 3SM BR OVC015 M01/M02 A3015 650 88 -1000 160/05 RMK AO2
14837KMSN MSN20011215012510112/15/01 01:25:31  5-MIN KMSN 150725Z 16006KT 3SM BR OVC015 M01/M02 A3015 650 88 -1000 150/06 RMK AO2
14837KMSN MSN20011215013010112/15/01 01:30:31  5-MIN KMSN 150730Z 16005KT 3SM BR OVC015 M01/M02 A3015 650 88 -1000 160/05 RMK AO2
14837KMSN MSN20011215013509912/15/01 01:35:31  5-MIN KMSN 150735Z 17005KT 3SM BR OVC015 00/M02 A3016 650 85 -900 170/05 RMK AO2
14837KMSN MSN20011215014009912/15/01 01:40:31  5-MIN KMSN 150740Z 17004KT 3SM BR OVC013 00/M02 A3016 640 88 -900 170/04 RMK AO2
14837KMSN MSN20011215014509912/15/01 01:45:31  5-MIN KMSN 150745Z 19004KT 3SM BR OVC013 00/M02 A3016 640 88 -900 190/04 RMK AO2
14837KMSN MSN20011215015011612/15/01 01:50:31  5-MIN KMSN 150750Z 17003KT 3SM BR OVC013 00/M02 A3016 640 88 -900 170/03 RMK AO2 SLP224 T00001017
14837KMSN MSN20011215015511212/15/01 01:55:31  5-MIN KMSN 150755Z 19005KT 3SM BR OVC010 00/M02 A3017 640 88 -1000 190/05 RMK AO2 CIG 009V014
14837KMSN MSN20011215020011212/15/01 02:00:31  5-MIN KMSN 150800Z 20005KT 3SM BR OVC010 00/M02 A3017 630 88 -1000 190/05 RMK AO2 CIG 009V014
14837KMSN MSN20011215020511212/15/01 02:05:31  5-MIN KMSN 150805Z 18008KT 3SM BR OVC010 00/M02 A3018 630 88 -1000 180/08 RMK AO2 CIG 009V013
14837KMSN MSN20011215021010012/15/01 02:10:31  5-MIN KMSN 150810Z 19005KT 3SM BR OVC010 00/M02 A3017 630 85 -1000 180/05 RMK AO2
14837KMSN MSN20011215021510012/15/01 02:15:31  5-MIN KMSN 150815Z 19007KT 3SM BR OVC010 00/M02 A3017 630 85 -1000 190/07 RMK AO2
14837KMSN MSN20011215022010012/15/01 02:20:31  5-MIN KMSN 150820Z 18008KT 3SM BR OVC010 00/M02 A3018 630 85 -1000 180/08 RMK AO2
14837KMSN MSN20011215022510012/15/01 02:25:31  5-MIN KMSN 150825Z 18007KT 3SM BR OVC010 00/M02 A3018 630 85 -1000 180/07 RMK AO2
14837KMSN MSN20011215023010012/15/01 02:30:31  5-MIN KMSN 150830Z 19005KT 3SM BR OVC010 00/M02 A3018 630 85 -1000 190/05 RMK AO2
14837KMSN MSN20011215023510012/15/01 02:35:31  5-MIN KMSN 150835Z 19005KT 3SM BR OVC008 00/M02 A3018 630 85 -1000 190/05 RMK AO2
14837KMSN MSN20011215024010012/15/01 02:40:31  5-MIN KMSN 150840Z 17004KT 3SM BR OVC008 00/M02 A3018 630 88 -1000 170/04 RMK AO2
14837KMSN MSN20011215024510012/15/01 02:45:31  5-MIN KMSN 150845Z 15006KT 3SM BR OVC008 00/M02 A3017 630 88 -1000 150/06 RMK AO2
14837KMSN MSN20011215025012312/15/01 02:50:31  5-MIN KMSN 150850Z 14007KT 3SM BR OVC008 00/M02 A3017 630 88 -1000 140/07 RMK AO2 SLP228 T00001017 51016
14837KMSN MSN20011215025510012/15/01 02:55:31  5-MIN KMSN 150855Z 15006KT 3SM BR OVC008 00/M02 A3018 630 88 -1000 150/06 RMK AO2
14837KMSN MSN20011215030010012/15/01 03:00:31  5-MIN KMSN 150900Z 16007KT 3SM BR OVC008 00/M01 A3018 630 92 -1000 160/07 RMK AO2
14837KMSN MSN20011215030510012/15/01 03:05:31  5-MIN KMSN 150905Z 16008KT 3SM BR OVC008 00/M02 A3018 630 88 -1000 160/08 RMK AO2
14837KMSN MSN20011215031010012/15/01 03:10:31  5-MIN KMSN 150910Z 16008KT 3SM BR OVC008 00/M01 A3018 620 92 -1000 160/08 RMK AO2
14837KMSN MSN20011215031510012/15/01 03:15:31  5-MIN KMSN 150915Z 16007KT 3SM BR OVC008 00/M02 A3018 630 88 -1000 160/07 RMK AO2
14837KMSN MSN20011215032010012/15/01 03:20:31  5-MIN KMSN 150920Z 15009KT 3SM BR OVC008 00/M01 A3017 630 92 -1000 150/09 RMK AO2
14837KMSN MSN20011215032510012/15/01 03:25:31  5-MIN KMSN 150925Z 16008KT 3SM BR OVC008 00/M01 A3018 630 92 -1000 160/08 RMK AO2
14837KMSN MSN20011215033010012/15/01 03:30:31  5-MIN KMSN 150930Z 17007KT 3SM BR OVC008 00/M01 A3018 620 92 -1000 170/07 RMK AO2
14837KMSN MSN20011215033510012/15/01 03:35:31  5-MIN KMSN 150935Z 18009KT 3SM BR OVC008 00/M01 A3018 620 92 -1000 180/09 RMK AO2
14837KMSN MSN20011215034010012/15/01 03:40:31  5-MIN KMSN 150940Z 18008KT 3SM BR OVC008 00/M01 A3019 620 92 -1000 180/08 RMK AO2
14837KMSN MSN20011215034510012/15/01 03:45:31  5-MIN KMSN 150945Z 19009KT 3SM BR OVC008 00/M01 A3019 610 92 -1000 190/09 RMK AO2
14837KMSN MSN20011215035011712/15/01 03:50:31  5-MIN KMSN 150950Z 19009KT 3SM BR OVC008 00/M01 A3020 610 92 -1000 190/09 RMK AO2 SLP236 T00001011
14837KMSN MSN20011215035510012/15/01 03:55:31  5-MIN KMSN 150955Z 19006KT 5SM BR OVC008 00/M01 A3020 610 92 -1000 190/06 RMK AO2
14837KMSN MSN20011215040009912/15/01 04:00:31  5-MIN KMSN 151000Z 18008KT 3SM BR OVC008 01/M01 A3020 610 89 -900 180/08 RMK AO2
14837KMSN MSN20011215040510012/15/01 04:05:31  5-MIN KMSN 151005Z 19008KT 3SM BR OVC006 00/M01 A3020 610 92 -1000 190/08 RMK AO2
14837KMSN MSN20011215041010012/15/01 04:10:31  5-MIN KMSN 151010Z 18008KT 3SM BR OVC006 00/M01 A3020 610 92 -1000 180/08 RMK AO2
14837KMSN MSN20011215041510012/15/01 04:15:31  5-MIN KMSN 151015Z 17008KT 3SM BR OVC006 00/M01 A3019 610 92 -1000 170/08 RMK AO2
14837KMSN MSN20011215042010012/15/01 04:20:31  5-MIN KMSN 151020Z 19009KT 3SM BR OVC006 00/M01 A3020 610 92 -1000 190/09 RMK AO2
14837KMSN MSN20011215042510012/15/01 04:25:31  5-MIN KMSN 151025Z 18006KT 3SM BR OVC006 00/M01 A3020 610 92 -1000 180/06 RMK AO2
14837KMSN MSN20011215043010012/15/01 04:30:31  5-MIN KMSN 151030Z 19007KT 3SM BR OVC006 00/M01 A3021 600 92 -1000 190/07 RMK AO2
14837KMSN MSN20011215043510012/15/01 04:35:31  5-MIN KMSN 151035Z 19006KT 3SM BR OVC006 00/M01 A3021 600 92 -1000 190/06 RMK AO2
14837KMSN MSN20011215044010012/15/01 04:40:31  5-MIN KMSN 151040Z 18006KT 3SM BR OVC006 00/M01 A3021 600 92 -1000 180/06 RMK AO2
14837KMSN MSN20011215044510012/15/01 04:45:31  5-MIN KMSN 151045Z 17008KT 3SM BR OVC006 00/M01 A3021 600 92 -1000 170/08 RMK AO2
14837KMSN MSN20011215045011712/15/01 04:50:31  5-MIN KMSN 151050Z 15007KT 3SM BR OVC006 00/M01 A3021 600 92 -1000 150/07 RMK AO2 SLP239 T00001011
14837KMSN MSN20011215045510012/15/01 04:55:31  5-MIN KMSN 151055Z 16008KT 4SM BR OVC006 00/M01 A3021 600 92 -1000 150/08 RMK AO2
14837KMSN MSN20011215050010012/15/01 05:00:31  5-MIN KMSN 151100Z 15007KT 3SM BR OVC006 00/M01 A3021 600 92 -1000 150/07 RMK AO2
14837KMSN MSN20011215050510012/15/01 05:05:31  5-MIN KMSN 151105Z 15006KT 3SM BR OVC006 00/M01 A3021 590 92 -1000 150/06 RMK AO2
14837KMSN MSN20011215051010012/15/01 05:10:31  5-MIN KMSN 151110Z 15007KT 3SM BR OVC006 00/M01 A3021 590 92 -1000 150/07 RMK AO2
14837KMSN MSN20011215051510012/15/01 05:15:31  5-MIN KMSN 151115Z 16008KT 3SM BR OVC006 00/M01 A3022 590 92 -1000 160/08 RMK AO2
14837KMSN MSN20011215052010012/15/01 05:20:31  5-MIN KMSN 151120Z 15008KT 3SM BR OVC006 00/M01 A3022 590 92 -1000 150/08 RMK AO2
14837KMSN MSN20011215052510012/15/01 05:25:31  5-MIN KMSN 151125Z 16007KT 3SM BR OVC006 00/M01 A3022 590 92 -1000 160/07 RMK AO2
14837KMSN MSN20011215053010012/15/01 05:30:31  5-MIN KMSN 151130Z 16007KT 3SM BR OVC006 00/M01 A3022 590 92 -1000 160/07 RMK AO2
14837KMSN MSN20011215053510012/15/01 05:35:31  5-MIN KMSN 151135Z 16007KT 3SM BR OVC004 00/M01 A3023 580 92 -1000 160/07 RMK AO2
14837KMSN MSN20011215054010012/15/01 05:40:31  5-MIN KMSN 151140Z 15007KT 3SM BR OVC004 00/M01 A3023 580 96 -1000 150/07 RMK AO2
14837KMSN MSN20011215054510012/15/01 05:45:31  5-MIN KMSN 151145Z 15008KT 3SM BR OVC004 00/M01 A3023 580 96 -1000 150/08 RMK AO2
14837KMSN MSN20011215055013912/15/01 05:50:31  5-MIN KMSN 151150Z 15007KT 2 1/2SM BR OVC004 00/M01 A3023 580 96 -1000 150/07 RMK AO2 SLP249 T00001006 10006 21017 51019
14837KMSN MSN20011215055510412/15/01 05:55:31  5-MIN KMSN 151155Z 15007KT 2 1/2SM BR OVC004 00/M01 A3024 570 96 -1000 150/07 RMK AO2
14837KMSN MSN20011215060010412/15/01 06:00:31  5-MIN KMSN 151200Z 15007KT 2 1/2SM BR OVC004 00/M01 A3024 570 96 -1000 150/07 RMK AO2
14837KMSN MSN20011215060510012/15/01 06:05:31  5-MIN KMSN 151205Z 15007KT 2SM BR OVC004 00/M01 A3024 570 96 -1000 150/07 RMK AO2
14837KMSN MSN20011215061010012/15/01 06:10:31  5-MIN KMSN 151210Z 15007KT 2SM BR OVC004 00/M01 A3024 570 96 -1000 150/07 RMK AO2
14837KMSN MSN20011215061510012/15/01 06:15:31  5-MIN KMSN 151215Z 15007KT 2SM BR OVC004 00/M01 A3024 570 96 -1000 150/07 RMK AO2
14837KMSN MSN20011215062011412/15/01 06:20:31  5-MIN KMSN 151220Z 15008KT 1 1/2SM BR OVC004 00/M01 A3025 560 96 -1000 150/08 RMK AO2 SFC VIS 2
14837KMSN MSN20011215062511412/15/01 06:25:31  5-MIN KMSN 151225Z 16007KT 1 1/2SM BR OVC004 00/M01 A3025 560 96 -1000 160/07 RMK AO2 SFC VIS 2
14837KMSN MSN20011215063011412/15/01 06:30:31  5-MIN KMSN 151230Z 16009KT 1 1/2SM BR OVC004 00/M01 A3025 560 96 -1000 160/09 RMK AO2 SFC VIS 2
14837KMSN MSN20011215063511412/15/01 06:35:31  5-MIN KMSN 151235Z 16008KT 1 1/2SM BR OVC002 00/M01 A3025 560 92 -1000 160/08 RMK AO2 SFC VIS 2
14837KMSN MSN20011215064010412/15/01 06:40:31  5-MIN KMSN 151240Z 15009KT 1 1/2SM BR OVC002 00/M01 A3025 560 92 -1000 150/09 RMK AO2
14837KMSN MSN20011215064510412/15/01 06:45:31  5-MIN KMSN 151245Z 16009KT 1 1/2SM BR OVC002 00/M01 A3026 550 92 -1100 160/09 RMK AO2
14837KMSN MSN20011215065012112/15/01 06:50:31  5-MIN KMSN 151250Z 16010KT 1 1/2SM BR OVC002 00/M01 A3026 550 92 -1100 160/10 RMK AO2 SLP257 T00001011
14837KMSN MSN20011215065510412/15/01 06:55:31  5-MIN KMSN 151255Z 16009KT 1 1/2SM BR OVC002 00/M01 A3026 550 96 -1100 160/09 RMK AO2
14837KMSN MSN20011215070011412/15/01 07:00:31  5-MIN KMSN 151300Z 15009KT 1SM BR OVC002 00/M01 A3026 550 96 -1100 150/09 RMK AO2 TWR VIS 1 1/2
14837KMSN MSN20011215070511412/15/01 07:05:31  5-MIN KMSN 151305Z 15007KT 1SM BR OVC002 00/M01 A3026 550 96 -1100 150/07 RMK AO2 TWR VIS 1 1/2
14837KMSN MSN20011215071011412/15/01 07:10:31  5-MIN KMSN 151310Z 15008KT 1SM BR OVC002 00/M01 A3026 550 92 -1100 150/08 RMK AO2 TWR VIS 1 1/2
14837KMSN MSN20011215071511412/15/01 07:15:31  5-MIN KMSN 151315Z 16009KT 1SM BR OVC002 00/M01 A3026 550 92 -1100 160/09 RMK AO2 TWR VIS 1 1/2
14837KMSN MSN20011215072011412/15/01 07:20:31  5-MIN KMSN 151320Z 15008KT 1SM BR OVC002 00/M01 A3026 550 96 -1100 150/08 RMK AO2 TWR VIS 1 1/2
14837KMSN MSN20011215072511412/15/01 07:25:31  5-MIN KMSN 151325Z 14009KT 1SM BR OVC002 00/M01 A3026 550 92 -1100 140/09 RMK AO2 TWR VIS 1 1/2
14837KMSN MSN20011215073011412/15/01 07:30:31  5-MIN KMSN 151330Z 15009KT 1SM BR OVC002 00/M01 A3026 550 96 -1100 150/09 RMK AO2 TWR VIS 1 1/2
14837KMSN MSN20011215073511412/15/01 07:35:31  5-MIN KMSN 151335Z 15010KT 1SM BR OVC002 00/M01 A3026 550 92 -1100 140/10 RMK AO2 TWR VIS 1 1/2
14837KMSN MSN20011215074011512/15/01 07:40:31  5-MIN KMSN 151340Z 14011KT 1SM BR OVC002 M01/M01 A3026 550 96 -1100 140/11 RMK AO2 TWR VIS 1 1/2
14837KMSN MSN20011215074511612/15/01 07:45:31  5-MIN KMSN 151345Z 15009KT 1SM BR OVC002 M01/M01 A3026 550 100 -1100 150/09 RMK AO2 TWR VIS 1 1/2
14837KMSN MSN20011215075013112/15/01 07:50:31  5-MIN KMSN 151350Z 15008KT 1SM BR OVC002 00/M01 A3026 550 96 -1100 150/08 RMK AO2 TWR VIS 1 1/2 SLP258 T00001006
14837KMSN MSN20011215075511412/15/01 07:55:31  5-MIN KMSN 151355Z 16010KT 1SM BR OVC002 00/M01 A3027 550 96 -1100 160/10 RMK AO2 TWR VIS 1 1/2
14837KMSN MSN20011215080011412/15/01 08:00:31  5-MIN KMSN 151400Z 15009KT 1SM BR OVC002 00/M01 A3027 540 96 -1100 150/09 RMK AO2 TWR VIS 1 1/2
14837KMSN MSN20011215080511612/15/01 08:05:31  5-MIN KMSN 151405Z 16008KT 3/4SM BR OVC002 00/M01 A3027 540 96 -1100 150/08 RMK AO2 TWR VIS 1 1/2
14837KMSN MSN20011215081011212/15/01 08:10:31  5-MIN KMSN 151410Z 16010KT 3/4SM BR OVC002 00/M01 A3028 530 96 -1100 160/10 RMK AO2 TWR VIS 1
14837KMSN MSN20011215081511912/15/01 08:15:31  5-MIN KMSN 151415Z 17008KT 3/4SM BR OVC002 00/M01 A3029 530 96 -1100 170/08 RMK AO2 TWR VIS 1 PRESRR
14837KMSN MSN20011215082011212/15/01 08:20:31  5-MIN KMSN 151420Z 17009KT 3/4SM BR OVC002 00/M01 A3029 520 96 -1100 170/09 RMK AO2 TWR VIS 1
14837KMSN MSN20011215082511212/15/01 08:25:31  5-MIN KMSN 151425Z 18009KT 3/4SM BR OVC002 00/M01 A3029 520 96 -1100 180/09 RMK AO2 TWR VIS 1
14837KMSN MSN20011215083011212/15/01 08:30:31  5-MIN KMSN 151430Z 17009KT 3/4SM BR OVC002 00/M01 A3029 520 96 -1100 170/09 RMK AO2 TWR VIS 1
14837KMSN MSN20011215083511212/15/01 08:35:31  5-MIN KMSN 151435Z 16008KT 3/4SM BR OVC002 00/M01 A3030 520 96 -1100 160/08 RMK AO2 TWR VIS 1
14837KMSN MSN20011215084011412/15/01 08:40:31  5-MIN KMSN 151440Z 16009KT 1/2SM BR OVC002 00/M01 A3030 520 96 -1100 160/09 RMK AO2 SFC VIS 3/4
14837KMSN MSN20011215084511412/15/01 08:45:31  5-MIN KMSN 151445Z 15008KT 1/2SM BR OVC002 00/00 A3030 520 100 -1100 150/08 RMK AO2 SFC VIS 3/4
14837KMSN MSN20011215085013712/15/01 08:50:31  5-MIN KMSN 151450Z 16008KT 1/2SM BR OVC002 00/00 A3030 520 100 -1100 160/08 RMK AO2 SFC VIS 3/4 SLP270 T00000000 53020
14837KMSN MSN20011215085511612/15/01 08:55:31  5-MIN KMSN 151455Z 15010KT 1/2SM FZFG OVC002 00/M01 A3030 520 96 -1100 150/10 RMK AO2 SFC VIS 3/4
14837KMSN MSN20011215090010412/15/01 09:00:31  5-MIN KMSN 151500Z 15009KT 1/2SM FZFG OVC002 00/M01 A3030 520 96 -1100 150/09 RMK AO2
14837KMSN MSN20011215090510412/15/01 09:05:31  5-MIN KMSN 151505Z 15010KT 1/2SM FZFG OVC002 01/M01 A3030 510 92 -1000 150/10 RMK AO2
14837KMSN MSN20011215091010212/15/01 09:10:31  5-MIN KMSN 151510Z 14007KT 1/2SM FG OVC002 01/M01 A3030 510 92 -1000 140/07 RMK AO2
14837KMSN MSN20011215091510212/15/01 09:15:31  5-MIN KMSN 151515Z 14008KT 1/2SM FG OVC002 01/M01 A3031 510 92 -1000 140/08 RMK AO2
14837KMSN MSN20011215092010112/15/01 09:20:31  5-MIN KMSN 151520Z 14009KT 1/2SM FG OVC002 01/00 A3030 510 96 -1000 140/09 RMK AO2
14837KMSN MSN20011215092511412/15/01 09:25:31  5-MIN KMSN 151525Z 14008KT 1/2SM BR OVC002 01/M01 A3030 510 92 -1000 140/08 RMK AO2 SFC VIS 3/4
14837KMSN MSN20011215093011412/15/01 09:30:31  5-MIN KMSN 151530Z 14008KT 1/2SM BR OVC002 01/M01 A3030 520 92 -1000 140/08 RMK AO2 SFC VIS 3/4
14837KMSN MSN20011215093510012/15/01 09:35:31  5-MIN KMSN 151535Z 13008KT 1SM BR OVC002 01/M01 A3030 510 92 -1000 130/08 RMK AO2
14837KMSN MSN20011215094010012/15/01 09:40:31  5-MIN KMSN 151540Z 13010KT 1SM BR OVC002 01/M01 A3030 510 89 -1000 130/10 RMK AO2
14837KMSN MSN20011215094510012/15/01 09:45:31  5-MIN KMSN 151545Z 14009KT 1SM BR OVC002 01/M01 A3031 510 89 -1000 130/09 RMK AO2
14837KMSN MSN20011215095011712/15/01 09:50:31  5-MIN KMSN 151550Z 15009KT 1SM HZ OVC002 01/M02 A3031 500 82 -1000 140/09 RMK AO2 SLP275 T00111017
14837KMSN MSN20011215095510012/15/01 09:55:31  5-MIN KMSN 151555Z 15008KT 1SM BR OVC002 01/M01 A3031 500 85 -1000 150/08 RMK AO2
14837KMSN MSN20011215100010012/15/01 10:00:31  5-MIN KMSN 151600Z 14009KT 1SM BR OVC002 01/M02 A3031 500 78 -1000 140/09 RMK AO2
14837KMSN MSN20011215100511412/15/01 10:05:31  5-MIN KMSN 151605Z 14009KT 1SM BR OVC002 01/M01 A3031 510 85 -1000 140/09 RMK AO2 SFC VIS 1 1/2
14837KMSN MSN20011215101011412/15/01 10:10:31  5-MIN KMSN 151610Z 14008KT 1SM BR OVC002 01/M01 A3030 510 85 -1000 140/08 RMK AO2 SFC VIS 1 3/4
14837KMSN MSN20011215101511412/15/01 10:15:31  5-MIN KMSN 151615Z 14007KT 1SM BR OVC002 01/M01 A3031 510 85 -1000 140/07 RMK AO2 SFC VIS 1 1/4
14837KMSN MSN20011215102010012/15/01 10:20:31  5-MIN KMSN 151620Z 13010KT 1SM BR OVC002 01/M02 A3030 510 82 -1000 130/10 RMK AO2
14837KMSN MSN20011215102511412/15/01 10:25:31  5-MIN KMSN 151625Z 14010KT 1SM BR OVC002 01/M02 A3030 510 82 -1000 140/10 RMK AO2 SFC VIS 1 1/4
14837KMSN MSN20011215103011412/15/01 10:30:31  5-MIN KMSN 151630Z 15011KT 1SM BR OVC002 01/M02 A3031 500 82 -1000 150/11 RMK AO2 SFC VIS 1 1/4
14837KMSN MSN20011215103511412/15/01 10:35:31  5-MIN KMSN 151635Z 16009KT 1SM BR OVC002 01/M01 A3032 500 85 -1000 160/09 RMK AO2 SFC VIS 1 1/4
14837KMSN MSN20011215104011412/15/01 10:40:31  5-MIN KMSN 151640Z 16009KT 1SM BR OVC002 01/M02 A3032 490 82 -1000 160/09 RMK AO2 SFC VIS 1 1/4
14837KMSN MSN20011215104511812/15/01 10:45:31  5-MIN KMSN 151645Z 16010KT 1 1/4SM BR OVC002 01/M01 A3032 500 85 -1000 160/10 RMK AO2 TWR VIS 1 1/2
14837KMSN MSN20011215105012112/15/01 10:50:31  5-MIN KMSN 151650Z 15011KT 1 1/2SM BR OVC002 01/M02 A3031 500 82 -1000 150/11 RMK AO2 SLP275 T00111017
14837KMSN MSN20011215105510412/15/01 10:55:31  5-MIN KMSN 151655Z 16010KT 1 1/2SM BR OVC002 01/M01 A3031 500 85 -1000 160/10 RMK AO2
14837KMSN MSN20011215110010412/15/01 11:00:31  5-MIN KMSN 151700Z 15010KT 1 1/2SM BR OVC002 01/M02 A3031 500 82 -1000 150/10 RMK AO2
14837KMSN MSN20011215110510412/15/01 11:05:31  5-MIN KMSN 151705Z 15011KT 1 1/2SM BR OVC002 01/M02 A3031 510 78 -1000 140/11 RMK AO2
14837KMSN MSN20011215111010312/15/01 11:10:31  5-MIN KMSN 151710Z 14009KT 1 1/2SM BR OVC002 02/M01 A3030 520 82 -900 140/09 RMK AO2
14837KMSN MSN20011215111510312/15/01 11:15:31  5-MIN KMSN 151715Z 16009KT 1 1/2SM BR OVC002 02/M01 A3030 510 82 -900 160/09 RMK AO2
14837KMSN MSN20011215112011712/15/01 11:20:31  5-MIN KMSN 151720Z 15010KT 1 1/2SM BR OVC002 02/M01 A3030 510 82 -900 150/10 RMK AO2 SFC VIS 1 3/4
14837KMSN MSN20011215112511712/15/01 11:25:31  5-MIN KMSN 151725Z 14010KT 1 1/2SM BR OVC004 02/M02 A3030 520 78 -900 140/10 RMK AO2 SFC VIS 1 3/4
14837KMSN MSN20011215113011312/15/01 11:30:31  5-MIN KMSN 151730Z 15010KT 1 3/4SM BR OVC004 02/M01 A3029 530 82 -900 150/10 RMK AO2 TWR VIS 2
14837KMSN MSN20011215113512012/15/01 11:35:31  5-MIN KMSN 151735Z 13010KT 1 3/4SM BR OVC004 02/M01 A3028 530 78 -800 130/10 RMK AO2 TWR VIS 2 PRESFR
14837KMSN MSN20011215114011312/15/01 11:40:31  5-MIN KMSN 151740Z 13010KT 1 3/4SM BR OVC004 02/M01 A3028 530 82 -900 130/10 RMK AO2 TWR VIS 2
14837KMSN MSN20011215114511312/15/01 11:45:31  5-MIN KMSN 151745Z 14008KT 1 3/4SM BR OVC004 02/M02 A3028 530 72 -800 140/08 RMK AO2 TWR VIS 2
14837KMSN MSN20011215115014812/15/01 11:50:31  5-MIN KMSN 151750Z 13011KT 2 1/2SM BR OVC004 02/M01 A3028 540 78 -800 130/11 RMK AO2 TWR VIS 3 SLP262 T00221011 10022 21006 53020
14837KMSN MSN20011215115509912/15/01 11:55:31  5-MIN KMSN 151755Z 13010KT 3SM BR OVC004 02/M02 A3028 530 75 -800 130/10 RMK AO2
14837KMSN MSN20011215120010912/15/01 12:00:31  5-MIN KMSN 151800Z 14011KT 3SM BR OVC004 02/M02 A3028 540 75 -800 130/11 RMK AO2 SFC VIS 6
14837KMSN MSN20011215120511312/15/01 12:05:31  5-MIN KMSN 151805Z 15009KT 2 1/2SM BR OVC004 02/M02 A3028 530 75 -800 150/09 RMK AO2 TWR VIS 3
14837KMSN MSN20011215121011312/15/01 12:10:31  5-MIN KMSN 151810Z 14009KT 2 1/2SM BR OVC004 02/M02 A3028 530 72 -800 140/09 RMK AO2 TWR VIS 3
14837KMSN MSN20011215121511312/15/01 12:15:31  5-MIN KMSN 151815Z 14009KT 2 1/2SM BR OVC004 02/M02 A3028 530 75 -800 140/09 RMK AO2 TWR VIS 3
14837KMSN MSN20011215122011312/15/01 12:20:31  5-MIN KMSN 151820Z 15008KT 2 1/2SM BR OVC004 02/M02 A3028 530 72 -800 140/08 RMK AO2 TWR VIS 3
14837KMSN MSN20011215122511312/15/01 12:25:31  5-MIN KMSN 151825Z 15010KT 2 1/2SM BR OVC006 03/M02 A3029 530 72 -700 150/10 RMK AO2 TWR VIS 3
14837KMSN MSN20011215123012512/15/01 12:30:31  5-MIN KMSN 151830Z 16011KT 2 1/2SM BR OVC006 03/M02 A3029 520 72 -700 160/11 RMK AO2 TWR VIS 3 CIG 005V009
14837KMSN MSN20011215123511312/15/01 12:35:31  5-MIN KMSN 151835Z 15009KT 2 1/2SM BR OVC006 03/M02 A3029 530 72 -700 150/09 RMK AO2 TWR VIS 3
14837KMSN MSN20011215124011312/15/01 12:40:31  5-MIN KMSN 151840Z 15011KT 2 1/2SM BR OVC006 03/M02 A3028 530 72 -700 150/11 RMK AO2 TWR VIS 3
14837KMSN MSN20011215124511312/15/01 12:45:31  5-MIN KMSN 151845Z 15012KT 2 1/2SM BR OVC006 03/M01 A3028 530 72 -700 150/12 RMK AO2 TWR VIS 3
14837KMSN MSN20011215125013012/15/01 12:50:31  5-MIN KMSN 151850Z 14010KT 2 1/2SM BR OVC006 03/M02 A3028 530 70 -700 140/10 RMK AO2 TWR VIS 3 SLP263 T00331017
14837KMSN MSN20011215125509912/15/01 12:55:31  5-MIN KMSN 151855Z 15009KT 3SM BR OVC006 03/M02 A3028 540 70 -700 150/09 RMK AO2
14837KMSN MSN20011215130009912/15/01 13:00:31  5-MIN KMSN 151900Z 16012KT 3SM BR OVC006 03/M02 A3028 530 67 -700 150/12 RMK AO2
14837KMSN MSN20011215130509912/15/01 13:05:31  5-MIN KMSN 151905Z 15012KT 4SM BR OVC008 03/M02 A3028 540 67 -700 150/12 RMK AO2
14837KMSN MSN20011215131009912/15/01 13:10:31  5-MIN KMSN 151910Z 15010KT 4SM BR OVC008 03/M02 A3027 540 70 -700 140/10 RMK AO2
14837KMSN MSN20011215131509912/15/01 13:15:31  5-MIN KMSN 151915Z 15011KT 5SM BR OVC008 03/M02 A3027 540 70 -700 150/11 RMK AO2
14837KMSN MSN20011215132009912/15/01 13:20:31  5-MIN KMSN 151920Z 15012KT 5SM BR OVC008 03/M02 A3027 540 70 -600 150/12 RMK AO2
14837KMSN MSN20011215132509912/15/01 13:25:31  5-MIN KMSN 151925Z 15012KT 5SM BR OVC008 03/M02 A3026 550 70 -600 150/12 RMK AO2
14837KMSN MSN20011215133009912/15/01 13:30:31  5-MIN KMSN 151930Z 15015KT 6SM BR OVC008 03/M02 A3026 550 70 -600 150/15 RMK AO2
14837KMSN MSN20011215133509912/15/01 13:35:31  5-MIN KMSN 151935Z 14010KT 6SM BR OVC008 03/M02 A3027 550 67 -600 140/10 RMK AO2
14837KMSN MSN20011215134010812/15/01 13:40:31  5-MIN KMSN 151940Z 16013KT 7SM OVC010 04/M02 A3027 540 67 -600 160/13 RMK AO2 CIG 008V012
14837KMSN MSN20011215134510812/15/01 13:45:31  5-MIN KMSN 151945Z 15012KT 8SM OVC010 04/M02 A3026 550 64 -600 150/12 RMK AO2 CIG 008V014
14837KMSN MSN20011215135011312/15/01 13:50:31  5-MIN KMSN 151950Z 15011KT 8SM OVC010 04/M01 A3026 550 70 -600 150/11 RMK AO2 SLP256 T00391011
14837KMSN MSN20011215135510812/15/01 13:55:31  5-MIN KMSN 151955Z 14013KT 8SM OVC010 04/M02 A3026 550 64 -600 140/13 RMK AO2 CIG 009V014
14837KMSN MSN20011215140009612/15/01 14:00:31  5-MIN KMSN 152000Z 16013KT 7SM OVC010 04/M02 A3026 550 67 -600 160/13 RMK AO2
14837KMSN MSN20011215140509612/15/01 14:05:31  5-MIN KMSN 152005Z 16011KT 8SM OVC010 04/M02 A3025 560 64 -600 160/11 RMK AO2
14837KMSN MSN20011215141009612/15/01 14:10:31  5-MIN KMSN 152010Z 15012KT 8SM OVC010 04/M03 A3025 560 62 -600 150/12 RMK AO2
14837KMSN MSN20011215141509612/15/01 14:15:31  5-MIN KMSN 152015Z 16011KT 8SM OVC010 04/M01 A3026 550 73 -600 160/11 RMK AO2
14837KMSN MSN20011215142009612/15/01 14:20:31  5-MIN KMSN 152020Z 15009KT 8SM OVC010 04/M02 A3025 560 64 -600 150/09 RMK AO2
14837KMSN MSN20011215142509612/15/01 14:25:31  5-MIN KMSN 152025Z 15011KT 7SM OVC010 04/M01 A3025 560 70 -600 150/11 RMK AO2
14837KMSN MSN20011215143509612/15/01 14:35:31  5-MIN KMSN 152035Z 15011KT 7SM OVC010 04/M02 A3025 560 62 -500 150/11 RMK AO2
14837KMSN MSN20011215144009612/15/01 14:40:31  5-MIN KMSN 152040Z 16012KT 7SM OVC010 04/M02 A3025 560 64 -600 160/12 RMK AO2
14837KMSN MSN20011215144509612/15/01 14:45:31  5-MIN KMSN 152045Z 16014KT 7SM OVC010 04/M02 A3026 560 64 -600 160/14 RMK AO2
14837KMSN MSN20011215145011912/15/01 14:50:31  5-MIN KMSN 152050Z 16012KT 7SM OVC010 04/M01 A3026 550 70 -600 160/12 RMK AO2 SLP255 T00391011 58006
14837KMSN MSN20011215145509612/15/01 14:55:31  5-MIN KMSN 152055Z 15013KT 7SM OVC010 04/M03 A3026 550 59 -600 150/13 RMK AO2
14837KMSN MSN20011215150009612/15/01 15:00:31  5-MIN KMSN 152100Z 16012KT 7SM OVC010 04/M03 A3026 550 62 -600 160/12 RMK AO2
14837KMSN MSN20011215150509612/15/01 15:05:31  5-MIN KMSN 152105Z 16010KT 7SM OVC010 04/M01 A3026 550 70 -600 160/10 RMK AO2
14837KMSN MSN20011215151009612/15/01 15:10:31  5-MIN KMSN 152110Z 16012KT 7SM OVC010 04/M02 A3027 550 64 -600 160/12 RMK AO2
14837KMSN MSN20011215151509612/15/01 15:15:31  5-MIN KMSN 152115Z 16012KT 7SM OVC010 04/M03 A3026 550 59 -600 160/12 RMK AO2
14837KMSN MSN20011215152009612/15/01 15:20:31  5-MIN KMSN 152120Z 15011KT 7SM OVC010 04/M02 A3026 550 67 -600 150/11 RMK AO2
14837KMSN MSN20011215152509912/15/01 15:25:31  5-MIN KMSN 152125Z 14011KT 6SM HZ OVC010 04/M03 A3026 550 59 -600 140/11 RMK AO2
14837KMSN MSN20011215153009912/15/01 15:30:31  5-MIN KMSN 152130Z 15011KT 6SM HZ OVC010 04/M02 A3026 550 67 -600 150/11 RMK AO2
14837KMSN MSN20011215153509912/15/01 15:35:31  5-MIN KMSN 152135Z 16012KT 6SM HZ OVC010 03/M02 A3027 550 70 -600 160/12 RMK AO2
14837KMSN MSN20011215154009912/15/01 15:40:31  5-MIN KMSN 152140Z 15014KT 6SM HZ OVC010 03/M03 A3026 550 61 -600 150/14 RMK AO2
14837KMSN MSN20011215154509912/15/01 15:45:31  5-MIN KMSN 152145Z 15014KT 6SM HZ OVC010 03/M01 A3026 550 72 -600 150/14 RMK AO2
14837KMSN MSN20011215155011612/15/01 15:50:31  5-MIN KMSN 152150Z 14011KT 6SM HZ OVC010 03/M03 A3026 550 61 -600 140/11 RMK AO2 SLP256 T00331033
14837KMSN MSN20011215155511112/15/01 15:55:31  5-MIN KMSN 152155Z 14014KT 5SM HZ OVC008 03/M02 A3026 550 70 -600 140/14 RMK AO2 CIG 007V011
14837KMSN MSN20011215160011112/15/01 16:00:31  5-MIN KMSN 152200Z 14011KT 5SM HZ OVC008 03/M02 A3025 560 69 -700 140/11 RMK AO2 CIG 007V011
14837KMSN MSN20011215160511112/15/01 16:05:31  5-MIN KMSN 152205Z 15010KT 6SM HZ OVC008 03/M02 A3025 560 72 -700 150/10 RMK AO2 CIG 007V011
14837KMSN MSN20011215161009912/15/01 16:10:31  5-MIN KMSN 152210Z 15013KT 6SM HZ OVC008 03/M02 A3025 560 72 -700 150/13 RMK AO2
14837KMSN MSN20011215161509912/15/01 16:15:31  5-MIN KMSN 152215Z 14013KT 6SM HZ OVC008 03/M01 A3025 560 75 -700 140/13 RMK AO2
14837KMSN MSN20011215162011112/15/01 16:20:31  5-MIN KMSN 152220Z 15012KT 6SM HZ OVC008 03/M02 A3025 560 69 -700 150/12 RMK AO2 CIG 007V011
14837KMSN MSN20011215162511112/15/01 16:25:31  5-MIN KMSN 152225Z 14010KT 5SM HZ OVC008 03/M01 A3025 560 75 -700 140/10 RMK AO2 CIG 006V011
14837KMSN MSN20011215163009912/15/01 16:30:31  5-MIN KMSN 152230Z 13012KT 5SM HZ OVC008 03/M02 A3024 570 69 -700 130/12 RMK AO2
14837KMSN MSN20011215163509912/15/01 16:35:31  5-MIN KMSN 152235Z 14011KT 5SM HZ OVC008 03/M02 A3025 560 72 -700 140/11 RMK AO2
14837KMSN MSN20011215164009912/15/01 16:40:31  5-MIN KMSN 152240Z 15011KT 5SM HZ OVC008 03/M02 A3025 560 69 -700 150/11 RMK AO2
14837KMSN MSN20011215164509912/15/01 16:45:31  5-MIN KMSN 152245Z 14012KT 5SM HZ OVC008 03/M01 A3024 570 75 -700 140/12 RMK AO2
14837KMSN MSN20011215165011612/15/01 16:50:31  5-MIN KMSN 152250Z 15010KT 5SM HZ OVC008 03/M01 A3024 570 75 -700 150/10 RMK AO2 SLP250 T00281011
14837KMSN MSN20011215165509812/15/01 16:55:31  5-MIN KMSN 152255Z 14012KT 6SM BR OVC008 03/01 A3024 570 85 -700 140/12 RMK AO2
14837KMSN MSN20011215170009912/15/01 17:00:31  5-MIN KMSN 152300Z 14010KT 6SM HZ OVC008 03/M01 A3024 570 75 -700 140/10 RMK AO2
14837KMSN MSN20011215170509912/15/01 17:05:31  5-MIN KMSN 152305Z 14009KT 6SM HZ OVC008 03/M02 A3024 570 69 -700 140/09 RMK AO2
14837KMSN MSN20011215171009912/15/01 17:10:31  5-MIN KMSN 152310Z 14011KT 6SM HZ OVC008 03/M01 A3024 570 75 -700 140/11 RMK AO2
14837KMSN MSN20011215171509912/15/01 17:15:31  5-MIN KMSN 152315Z 14012KT 6SM HZ OVC008 03/M03 A3024 570 67 -700 140/12 RMK AO2
14837KMSN MSN20011215172009912/15/01 17:20:31  5-MIN KMSN 152320Z 14011KT 6SM HZ OVC008 03/M02 A3024 570 72 -700 140/11 RMK AO2
14837KMSN MSN20011215172509912/15/01 17:25:31  5-MIN KMSN 152325Z 14011KT 6SM HZ OVC008 03/M02 A3024 570 72 -700 140/11 RMK AO2
14837KMSN MSN20011215173009912/15/01 17:30:31  5-MIN KMSN 152330Z 14012KT 6SM HZ OVC008 03/M03 A3024 570 64 -600 140/12 RMK AO2
14837KMSN MSN20011215173509912/15/01 17:35:31  5-MIN KMSN 152335Z 15010KT 6SM HZ OVC008 03/M01 A3025 560 72 -600 150/10 RMK AO2
14837KMSN MSN20011215174009912/15/01 17:40:31  5-MIN KMSN 152340Z 15012KT 6SM HZ OVC008 03/M02 A3025 560 67 -600 150/12 RMK AO2
14837KMSN MSN20011215174510512/15/01 17:45:31  5-MIN KMSN 152345Z 14013G17KT 6SM HZ OVC008 03/M02 A3025 560 67 -600 140/13G17 RMK AO2
14837KMSN MSN20011215175014012/15/01 17:50:31  5-MIN KMSN 152350Z 15015G19KT 6SM HZ OVC008 03/M01 A3025 560 72 -600 150/15G19 RMK AO2 SLP251 T00331011 10044 20022 57007
14837KMSN MSN20011215175509912/15/01 17:55:31  5-MIN KMSN 152355Z 15013KT 6SM HZ OVC008 03/M02 A3025 560 67 -600 150/13 RMK AO2
14837KMSN MSN20011215180010512/15/01 18:00:31  5-MIN KMSN 160000Z 15016G22KT 6SM HZ OVC008 03/M01 A3025 560 75 -700 150/16G22 RMK AO2
14837KMSN MSN20011215180510512/15/01 18:05:31  5-MIN KMSN 160005Z 15016G22KT 6SM HZ OVC008 03/M02 A3025 560 69 -700 150/16G22 RMK AO2
14837KMSN MSN20011215181009912/15/01 18:10:31  5-MIN KMSN 160010Z 16016KT 6SM HZ OVC008 03/M02 A3025 560 72 -700 150/16 RMK AO2
14837KMSN MSN20011215181509912/15/01 18:15:31  5-MIN KMSN 160015Z 15013KT 6SM HZ OVC008 03/M01 A3025 560 75 -700 150/13 RMK AO2
14837KMSN MSN20011215182009912/15/01 18:20:31  5-MIN KMSN 160020Z 14014KT 6SM HZ OVC008 03/M02 A3025 560 69 -700 140/14 RMK AO2
14837KMSN MSN20011215182509912/15/01 18:25:31  5-MIN KMSN 160025Z 14012KT 6SM HZ OVC008 03/M02 A3025 560 72 -700 140/12 RMK AO2
14837KMSN MSN20011215183009912/15/01 18:30:31  5-MIN KMSN 160030Z 15010KT 6SM HZ OVC008 03/M01 A3025 560 75 -700 150/10 RMK AO2
14837KMSN MSN20011215183509912/15/01 18:35:31  5-MIN KMSN 160035Z 14013KT 6SM HZ OVC008 03/M02 A3025 560 72 -700 140/13 RMK AO2
14837KMSN MSN20011215184009912/15/01 18:40:31  5-MIN KMSN 160040Z 15011KT 6SM HZ OVC008 03/M02 A3025 560 72 -700 150/11 RMK AO2
14837KMSN MSN20011215184509912/15/01 18:45:31  5-MIN KMSN 160045Z 15014KT 6SM HZ OVC008 03/M02 A3026 550 72 -700 150/14 RMK AO2
14837KMSN MSN20011215185011612/15/01 18:50:31  5-MIN KMSN 160050Z 15013KT 6SM HZ OVC008 03/M01 A3026 560 79 -700 150/13 RMK AO2 SLP255 T00281006
14837KMSN MSN20011215185509612/15/01 18:55:31  5-MIN KMSN 160055Z 15013KT 7SM OVC008 03/M02 A3025 560 72 -700 150/13 RMK AO2
14837KMSN MSN20011215190009612/15/01 19:00:31  5-MIN KMSN 160100Z 15013KT 7SM OVC008 03/M01 A3025 560 75 -700 150/13 RMK AO2
14837KMSN MSN20011215190509912/15/01 19:05:31  5-MIN KMSN 160105Z 14014KT 6SM HZ OVC008 03/M01 A3026 550 75 -700 140/14 RMK AO2
14837KMSN MSN20011215191009912/15/01 19:10:31  5-MIN KMSN 160110Z 14013KT 6SM HZ OVC008 03/M02 A3026 560 72 -700 140/13 RMK AO2
14837KMSN MSN20011215191509912/15/01 19:15:31  5-MIN KMSN 160115Z 16016KT 6SM HZ OVC008 03/M01 A3026 550 75 -700 150/16 RMK AO2
14837KMSN MSN20011215192009912/15/01 19:20:31  5-MIN KMSN 160120Z 16014KT 6SM HZ OVC008 03/M02 A3026 550 69 -700 150/14 RMK AO2
14837KMSN MSN20011215192509912/15/01 19:25:31  5-MIN KMSN 160125Z 16014KT 6SM HZ OVC008 03/M03 A3026 550 67 -700 150/14 RMK AO2
14837KMSN MSN20011215193009912/15/01 19:30:31  5-MIN KMSN 160130Z 15012KT 6SM HZ OVC008 03/M01 A3026 550 75 -700 150/12 RMK AO2
14837KMSN MSN20011215193509912/15/01 19:35:31  5-MIN KMSN 160135Z 15014KT 6SM HZ OVC008 03/M03 A3026 550 64 -600 150/14 RMK AO2
14837KMSN MSN20011215194009912/15/01 19:40:31  5-MIN KMSN 160140Z 15012KT 6SM HZ OVC008 03/M03 A3026 550 64 -600 150/12 RMK AO2
14837KMSN MSN20011215194509612/15/01 19:45:31  5-MIN KMSN 160145Z 15012KT 7SM OVC008 03/M02 A3026 550 67 -600 150/12 RMK AO2
14837KMSN MSN20011215195011312/15/01 19:50:31  5-MIN KMSN 160150Z 15014KT 7SM OVC008 03/M03 A3026 550 61 -600 150/14 RMK AO2 SLP256 T00331033
14837KMSN MSN20011215195509612/15/01 19:55:31  5-MIN KMSN 160155Z 15013KT 7SM OVC008 03/M03 A3026 550 61 -600 150/13 RMK AO2
14837KMSN MSN20011215200009612/15/01 20:00:31  5-MIN KMSN 160200Z 15011KT 7SM OVC008 03/M03 A3026 550 64 -600 150/11 RMK AO2
14837KMSN MSN20011215200509612/15/01 20:05:31  5-MIN KMSN 160205Z 16012KT 7SM OVC008 03/M01 A3026 550 72 -600 160/12 RMK AO2
14837KMSN MSN20011215201010812/15/01 20:10:31  5-MIN KMSN 160210Z 16012KT 7SM OVC008 03/M01 A3026 550 76 -600 160/12 RMK AO2 CIG 008V011
14837KMSN MSN20011215201510812/15/01 20:15:31  5-MIN KMSN 160215Z 17013KT 7SM OVC010 03/M03 A3026 550 61 -600 170/13 RMK AO2 CIG 008V012
14837KMSN MSN20011215202010812/15/01 20:20:31  5-MIN KMSN 160220Z 16013KT 7SM OVC010 03/M02 A3026 550 67 -600 150/13 RMK AO2 CIG 008V012
14837KMSN MSN20011215202509612/15/01 20:25:31  5-MIN KMSN 160225Z 16012KT 7SM OVC010 03/M03 A3026 550 64 -600 160/12 RMK AO2
14837KMSN MSN20011215203009612/15/01 20:30:31  5-MIN KMSN 160230Z 16012KT 7SM OVC010 04/M03 A3026 550 62 -600 150/12 RMK AO2
14837KMSN MSN20011215203510212/15/01 20:35:31  5-MIN KMSN 160235Z 16013G17KT 7SM OVC010 04/M03 A3026 550 62 -600 160/13G17 RMK AO2
14837KMSN MSN20011215204010212/15/01 20:40:31  5-MIN KMSN 160240Z 16011G17KT 7SM OVC010 04/M02 A3027 550 64 -600 160/11G17 RMK AO2
14837KMSN MSN20011215204509612/15/01 20:45:31  5-MIN KMSN 160245Z 16011KT 7SM OVC010 04/M03 A3027 540 62 -600 160/11 RMK AO2
14837KMSN MSN20011215205011912/15/01 20:50:31  5-MIN KMSN 160250Z 16014KT 7SM OVC010 04/M03 A3027 550 62 -600 150/14 RMK AO2 SLP258 T00391028 57003
14837KMSN MSN20011215205509612/15/01 20:55:31  5-MIN KMSN 160255Z 15011KT 8SM OVC010 04/M03 A3026 550 62 -600 150/11 RMK AO2
14837KMSN MSN20011215210009612/15/01 21:00:31  5-MIN KMSN 160300Z 15014KT 8SM OVC010 04/M03 A3026 550 62 -600 150/14 RMK AO2
14837KMSN MSN20011215210509612/15/01 21:05:31  5-MIN KMSN 160305Z 16014KT 8SM OVC010 04/M03 A3026 550 59 -600 160/14 RMK AO2
14837KMSN MSN20011215211009612/15/01 21:10:31  5-MIN KMSN 160310Z 15010KT 7SM OVC010 04/M03 A3026 550 62 -600 150/10 RMK AO2
14837KMSN MSN20011215211509612/15/01 21:15:31  5-MIN KMSN 160315Z 15011KT 7SM OVC010 04/M02 A3026 550 64 -600 150/11 RMK AO2
14837KMSN MSN20011215212009612/15/01 21:20:31  5-MIN KMSN 160320Z 15013KT 7SM OVC010 04/M03 A3025 560 62 -600 150/13 RMK AO2
14837KMSN MSN20011215212509612/15/01 21:25:31  5-MIN KMSN 160325Z 15013KT 7SM OVC010 04/M03 A3025 560 62 -600 150/13 RMK AO2
14837KMSN MSN20011215213009612/15/01 21:30:31  5-MIN KMSN 160330Z 15013KT 7SM OVC010 04/M03 A3024 570 62 -600 150/13 RMK AO2
14837KMSN MSN20011215213509612/15/01 21:35:31  5-MIN KMSN 160335Z 15013KT 7SM OVC010 04/M03 A3024 570 62 -600 150/13 RMK AO2
14837KMSN MSN20011215214010212/15/01 21:40:31  5-MIN KMSN 160340Z 16013G18KT 7SM OVC010 04/M03 A3025 560 59 -600 150/13G18 RMK AO2
14837KMSN MSN20011215214509612/15/01 21:45:31  5-MIN KMSN 160345Z 15013KT 7SM OVC010 04/M03 A3025 570 59 -600 150/13 RMK AO2
14837KMSN MSN20011215215011312/15/01 21:50:31  5-MIN KMSN 160350Z 15012KT 8SM OVC010 04/M03 A3024 570 59 -600 150/12 RMK AO2 SLP250 T00391033
14837KMSN MSN20011215215509612/15/01 21:55:31  5-MIN KMSN 160355Z 14014KT 8SM OVC010 04/M03 A3024 570 62 -500 140/14 RMK AO2
14837KMSN MSN20011215220009612/15/01 22:00:31  5-MIN KMSN 160400Z 15013KT 8SM OVC010 04/M02 A3024 570 64 -500 150/13 RMK AO2
14837KMSN MSN20011215220510212/15/01 22:05:31  5-MIN KMSN 160405Z 16013G19KT 8SM OVC010 04/M03 A3024 570 57 -500 160/13G19 RMK AO2
14837KMSN MSN20011215221010212/15/01 22:10:31  5-MIN KMSN 160410Z 15013G19KT 8SM OVC010 04/M04 A3024 570 55 -500 150/13G19 RMK AO2
14837KMSN MSN20011215221509612/15/01 22:15:31  5-MIN KMSN 160415Z 16013KT 8SM OVC010 04/M03 A3024 570 57 -500 160/13 RMK AO2
14837KMSN MSN20011215222009612/15/01 22:20:31  5-MIN KMSN 160420Z 17014KT 8SM OVC010 04/M03 A3025 560 57 -500 160/14 RMK AO2
14837KMSN MSN20011215222509612/15/01 22:25:31  5-MIN KMSN 160425Z 16015KT 8SM OVC010 04/M03 A3024 570 57 -500 160/15 RMK AO2
14837KMSN MSN20011215223009612/15/01 22:30:31  5-MIN KMSN 160430Z 16014KT 8SM OVC010 04/M04 A3024 570 52 -500 160/14 RMK AO2
14837KMSN MSN20011215223509612/15/01 22:35:31  5-MIN KMSN 160435Z 16011KT 7SM OVC010 04/M04 A3025 560 55 -500 160/11 RMK AO2
14837KMSN MSN20011215224009612/15/01 22:40:31  5-MIN KMSN 160440Z 16012KT 7SM OVC010 04/M03 A3025 560 57 -500 160/12 RMK AO2
14837KMSN MSN20011215224509612/15/01 22:45:31  5-MIN KMSN 160445Z 17011KT 7SM OVC010 04/M03 A3025 560 57 -500 170/11 RMK AO2
14837KMSN MSN20011215225011312/15/01 22:50:31  5-MIN KMSN 160450Z 16013KT 7SM OVC010 04/M03 A3025 560 57 -500 160/13 RMK AO2 SLP251 T00441033
14837KMSN MSN20011215225509612/15/01 22:55:31  5-MIN KMSN 160455Z 16014KT 7SM OVC010 04/M03 A3025 560 57 -500 160/14 RMK AO2
14837KMSN MSN20011215230009612/15/01 23:00:31  5-MIN KMSN 160500Z 16013KT 7SM OVC010 04/M04 A3025 570 52 -500 160/13 RMK AO2
14837KMSN MSN20011215230509612/15/01 23:05:31  5-MIN KMSN 160505Z 16014KT 7SM OVC010 04/M03 A3024 570 57 -500 160/14 RMK AO2
14837KMSN MSN20011215231010812/15/01 23:10:31  5-MIN KMSN 160510Z 16013KT 7SM OVC010 04/M03 A3024 570 59 -500 160/13 RMK AO2 CIG 010V013
14837KMSN MSN20011215231509612/15/01 23:15:31  5-MIN KMSN 160515Z 16012KT 7SM OVC010 04/M02 A3024 570 62 -500 160/12 RMK AO2
14837KMSN MSN20011215232009612/15/01 23:20:31  5-MIN KMSN 160520Z 15014KT 7SM OVC010 04/M03 A3023 580 59 -500 150/14 RMK AO2
14837KMSN MSN20011215232509612/15/01 23:25:31  5-MIN KMSN 160525Z 15013KT 7SM OVC010 04/M03 A3023 580 57 -500 150/13 RMK AO2
14837KMSN MSN20011215233009612/15/01 23:30:31  5-MIN KMSN 160530Z 16012KT 7SM OVC010 04/M04 A3023 580 55 -500 160/12 RMK AO2
14837KMSN MSN20011215233509612/15/01 23:35:31  5-MIN KMSN 160535Z 15015KT 7SM OVC010 04/M03 A3023 580 57 -500 150/15 RMK AO2
14837KMSN MSN20011215234009612/15/01 23:40:31  5-MIN KMSN 160540Z 16015KT 7SM OVC010 04/M03 A3023 580 57 -500 150/15 RMK AO2
14837KMSN MSN20011215234509612/15/01 23:45:31  5-MIN KMSN 160545Z 15015KT 7SM OVC010 04/M03 A3024 570 59 -500 150/15 RMK AO2
14837KMSN MSN20011215235014112/15/01 23:50:31  5-MIN KMSN 160550Z 16016KT 7SM OVC010 04/M03 A3024 570 57 -500 160/16 RMK AO2 SLP248 T00441033 10044 20028 401001017 51005
14837KMSN MSN20011215235509612/15/01 23:55:31  5-MIN KMSN 160555Z 16016KT 7SM OVC010 04/M04 A3025 570 55 -500 160/16 RMK AO2
14837KMSN MSN20011216000009612/16/01 00:00:31  5-MIN KMSN 160600Z 16015KT 7SM OVC010 04/M04 A3024 570 55 -500 160/15 RMK AO2
14837KMSN MSN20011216000509612/16/01 00:05:31  5-MIN KMSN 160605Z 16014KT 7SM OVC010 04/M03 A3025 560 59 -500 160/14 RMK AO2
14837KMSN MSN20011216001009612/16/01 00:10:31  5-MIN KMSN 160610Z 16015KT 7SM OVC010 04/M03 A3024 570 59 -500 160/15 RMK AO2
14837KMSN MSN20011216001509612/16/01 00:15:31  5-MIN KMSN 160615Z 16015KT 7SM OVC010 04/M04 A3024 570 55 -500 160/15 RMK AO2
14837KMSN MSN20011216002009612/16/01 00:20:31  5-MIN KMSN 160620Z 16014KT 7SM OVC010 04/M03 A3024 570 57 -500 160/14 RMK AO2
14837KMSN MSN20011216002509612/16/01 00:25:31  5-MIN KMSN 160625Z 16012KT 7SM OVC010 04/M02 A3024 570 62 -500 160/12 RMK AO2
14837KMSN MSN20011216003009612/16/01 00:30:31  5-MIN KMSN 160630Z 16013KT 7SM OVC010 04/M03 A3024 570 59 -500 160/13 RMK AO2
14837KMSN MSN20011216003509612/16/01 00:35:31  5-MIN KMSN 160635Z 16014KT 7SM OVC010 04/M03 A3023 580 57 -500 160/14 RMK AO2
14837KMSN MSN20011216004009612/16/01 00:40:31  5-MIN KMSN 160640Z 15014KT 7SM OVC010 04/M03 A3022 580 57 -500 150/14 RMK AO2
14837KMSN MSN20011216004509612/16/01 00:45:31  5-MIN KMSN 160645Z 16013KT 7SM OVC010 04/M02 A3022 580 62 -500 160/13 RMK AO2
14837KMSN MSN20011216005011312/16/01 00:50:31  5-MIN KMSN 160650Z 16014KT 7SM OVC010 04/M03 A3022 590 59 -500 160/14 RMK AO2 SLP242 T00441028
14837KMSN MSN20011216005509912/16/01 00:55:31  5-MIN KMSN 160655Z 15011KT 6SM HZ OVC010 04/M03 A3022 590 57 -500 150/11 RMK AO2
14837KMSN MSN20011216010011112/16/01 01:00:31  5-MIN KMSN 160700Z 16010KT 6SM HZ OVC010 04/M03 A3022 580 59 -500 150/10 RMK AO2 CIG 008V013
14837KMSN MSN20011216010511112/16/01 01:05:31  5-MIN KMSN 160705Z 16012KT 6SM HZ OVC010 04/M03 A3022 580 59 -500 160/12 RMK AO2 CIG 008V013
14837KMSN MSN20011216011011112/16/01 01:10:31  5-MIN KMSN 160710Z 15010KT 6SM HZ OVC010 04/M03 A3022 590 59 -500 150/10 RMK AO2 CIG 008V013
14837KMSN MSN20011216011511112/16/01 01:15:31  5-MIN KMSN 160715Z 16012KT 6SM HZ OVC010 04/M02 A3022 590 62 -500 160/12 RMK AO2 CIG 008V013
14837KMSN MSN20011216012009912/16/01 01:20:31  5-MIN KMSN 160720Z 16012KT 6SM HZ OVC010 04/M03 A3023 580 59 -500 160/12 RMK AO2
14837KMSN MSN20011216012509912/16/01 01:25:31  5-MIN KMSN 160725Z 17011KT 6SM HZ OVC010 04/M03 A3022 590 57 -500 160/11 RMK AO2
14837KMSN MSN20011216013010612/16/01 01:30:31  5-MIN KMSN 160730Z 16010KT 6SM HZ BKN010 OVC013 04/M03 A3022 590 59 -500 160/10 RMK AO2
14837KMSN MSN20011216013511112/16/01 01:35:31  5-MIN KMSN 160735Z 15010KT 6SM HZ OVC010 04/M03 A3022 590 57 -500 150/10 RMK AO2 CIG 009V014
14837KMSN MSN20011216014011112/16/01 01:40:31  5-MIN KMSN 160740Z 15010KT 6SM HZ OVC010 04/M03 A3021 590 59 -400 150/10 RMK AO2 CIG 009V014
14837KMSN MSN20011216014511112/16/01 01:45:31  5-MIN KMSN 160745Z 15009KT 5SM HZ OVC010 04/M02 A3021 590 62 -400 150/09 RMK AO2 CIG 009V014
14837KMSN MSN20011216015014112/16/01 01:50:31  5-MIN KMSN 160750Z 15007KT 5SM -RA OVC010 04/M02 A3021 600 62 -400 150/07 RMK AO2 RAB48 CIG 008V014 SLP237 P0000 T00441022
14837KMSN MSN20011216015510612/16/01 01:55:31  5-MIN KMSN 160755Z 15009KT 4SM -RA OVC010 04/M02 A3021 600 64 -400 150/09 RMK AO2 P0000
14837KMSN MSN20011216020010612/16/01 02:00:31  5-MIN KMSN 160800Z 15008KT 4SM -RA OVC010 04/M02 A3020 600 62 -400 150/08 RMK AO2 P0000
14837KMSN MSN20011216020510612/16/01 02:05:31  5-MIN KMSN 160805Z 15008KT 4SM -RA OVC010 04/M03 A3021 600 59 -400 150/08 RMK AO2 P0000
14837KMSN MSN20011216021010612/16/01 02:10:31  5-MIN KMSN 160810Z 15007KT 4SM -RA OVC008 04/M02 A3021 600 62 -400 150/07 RMK AO2 P0000
14837KMSN MSN20011216021510612/16/01 02:15:31  5-MIN KMSN 160815Z 16007KT 3SM -RA OVC008 04/M03 A3021 600 59 -400 160/07 RMK AO2 P0000
14837KMSN MSN20011216022010612/16/01 02:20:31  5-MIN KMSN 160820Z 16009KT 3SM -RA OVC008 04/M02 A3021 600 62 -400 160/09 RMK AO2 P0000
14837KMSN MSN20011216022510612/16/01 02:25:31  5-MIN KMSN 160825Z 16010KT 3SM -RA OVC008 04/M02 A3021 600 62 -400 160/10 RMK AO2 P0000
14837KMSN MSN20011216023010612/16/01 02:30:31  5-MIN KMSN 160830Z 15009KT 3SM -RA OVC008 04/M02 A3020 600 62 -400 150/09 RMK AO2 P0000
14837KMSN MSN20011216023510612/16/01 02:35:31  5-MIN KMSN 160835Z 16012KT 3SM -RA OVC008 04/M02 A3020 610 62 -400 150/12 RMK AO2 P0001
14837KMSN MSN20011216024011812/16/01 02:40:31  5-MIN KMSN 160840Z 15010KT 3SM -RA OVC008 04/M03 A3019 610 59 -400 150/10 RMK AO2 CIG 007V011 P0001
14837KMSN MSN20011216024511812/16/01 02:45:31  5-MIN KMSN 160845Z 15012KT 3SM -RA OVC008 04/M03 A3019 620 59 -400 150/12 RMK AO2 CIG 007V011 P0001
14837KMSN MSN20011216025014712/16/01 02:50:31  5-MIN KMSN 160850Z 16012KT 3SM -RA OVC008 04/M02 A3019 610 62 -400 160/12 RMK AO2 CIG 007V012 SLP231 P0001 60001 T00441022 56007
14837KMSN MSN20011216025511812/16/01 02:55:31  5-MIN KMSN 160855Z 16011KT 4SM -RA OVC008 04/M02 A3019 610 62 -400 160/11 RMK AO2 CIG 007V012 P0000
14837KMSN MSN20011216030011812/16/01 03:00:31  5-MIN KMSN 160900Z 16010KT 3SM -RA OVC008 04/M02 A3019 610 62 -400 160/10 RMK AO2 CIG 007V012 P0000
14837KMSN MSN20011216030511812/16/01 03:05:31  5-MIN KMSN 160905Z 16011KT 3SM -RA OVC008 04/M02 A3020 610 62 -400 160/11 RMK AO2 CIG 007V012 P0000
14837KMSN MSN20011216031011812/16/01 03:10:31  5-MIN KMSN 160910Z 16010KT 3SM -RA OVC008 04/M02 A3019 610 62 -400 160/10 RMK AO2 CIG 007V012 P0001
14837KMSN MSN20011216031511812/16/01 03:15:31  5-MIN KMSN 160915Z 16009KT 3SM -RA OVC008 04/M02 A3019 610 64 -400 160/09 RMK AO2 CIG 007V012 P0001
14837KMSN MSN20011216032011812/16/01 03:20:31  5-MIN KMSN 160920Z 15010KT 3SM -RA OVC008 04/M03 A3019 610 59 -400 150/10 RMK AO2 CIG 007V011 P0001
14837KMSN MSN20011216032511812/16/01 03:25:31  5-MIN KMSN 160925Z 15015KT 3SM -RA OVC008 04/M03 A3018 620 59 -400 150/15 RMK AO2 CIG 006V011 P0001
14837KMSN MSN20011216033012512/16/01 03:30:31  5-MIN KMSN 160930Z 15013KT 3SM -RA BKN008 OVC085 04/M02 A3019 620 62 -400 150/13 RMK AO2 CIG 006V011 P0001
14837KMSN MSN20011216033512512/16/01 03:35:31  5-MIN KMSN 160935Z 16011KT 3SM -RA BKN008 OVC085 04/M02 A3019 620 62 -400 150/11 RMK AO2 CIG 006V011 P0001
14837KMSN MSN20011216034011812/16/01 03:40:31  5-MIN KMSN 160940Z 16012KT 3SM -RA OVC008 04/M02 A3019 620 62 -400 160/12 RMK AO2 CIG 006V011 P0001
14837KMSN MSN20011216034511812/16/01 03:45:31  5-MIN KMSN 160945Z 16013KT 3SM -RA OVC008 04/M02 A3018 620 64 -400 160/13 RMK AO2 CIG 006V011 P0002
14837KMSN MSN20011216035013512/16/01 03:50:31  5-MIN KMSN 160950Z 15010KT 3SM -RA OVC008 04/M03 A3018 620 59 -400 150/10 RMK AO2 CIG 006V011 SLP228 P0002 T00441028
14837KMSN MSN20011216035511112/16/01 03:55:31  5-MIN KMSN 160955Z 15011KT 3SM HZ OVC008 04/M02 A3018 620 62 -400 150/11 RMK AO2 CIG 006V011
14837KMSN MSN20011216040011112/16/01 04:00:31  5-MIN KMSN 161000Z 16013KT 3SM HZ OVC008 04/M02 A3018 620 62 -400 160/13 RMK AO2 CIG 006V011
14837KMSN MSN20011216040511112/16/01 04:05:31  5-MIN KMSN 161005Z 16014KT 3SM HZ OVC008 04/M01 A3019 620 67 -400 160/14 RMK AO2 CIG 006V011
14837KMSN MSN20011216041009812/16/01 04:10:31  5-MIN KMSN 161010Z 16012KT 3SM BR OVC008 04/03 A3019 620 92 -400 160/12 RMK AO2
14837KMSN MSN20011216041509812/16/01 04:15:31  5-MIN KMSN 161015Z 16012KT 3SM BR OVC008 04/03 A3018 620 92 -400 160/12 RMK AO2
14837KMSN MSN20011216042009812/16/01 04:20:31  5-MIN KMSN 161020Z 16012KT 3SM BR OVC008 04/03 A3018 630 92 -400 150/12 RMK AO2
14837KMSN MSN20011216042510412/16/01 04:25:31  5-MIN KMSN 161025Z 17011G18KT 3SM BR OVC008 04/03 A3018 620 92 -400 170/11G18 RMK AO2
14837KMSN MSN20011216043010412/16/01 04:30:31  5-MIN KMSN 161030Z 16013G18KT 3SM BR OVC008 04/03 A3019 620 92 -400 160/13G18 RMK AO2
14837KMSN MSN20011216043509812/16/01 04:35:31  5-MIN KMSN 161035Z 16011KT 3SM BR OVC008 04/03 A3019 620 92 -400 160/11 RMK AO2
14837KMSN MSN20011216044011412/16/01 04:40:31  5-MIN KMSN 161040Z 17009KT 3SM -RA BR OVC008 04/03 A3018 620 92 -400 170/09 RMK AO2 RAB37 P0000
14837KMSN MSN20011216044511412/16/01 04:45:31  5-MIN KMSN 161045Z 17009KT 3SM -RA BR OVC008 04/03 A3018 620 92 -400 170/09 RMK AO2 RAB37 P0000
14837KMSN MSN20011216045013112/16/01 04:50:31  5-MIN KMSN 161050Z 16011KT 3SM -RA BR OVC008 04/03 A3018 620 92 -400 160/11 RMK AO2 RAB37 SLP229 P0000 T00440033
14837KMSN MSN20011216045511112/16/01 04:55:31  5-MIN KMSN 161055Z 17010KT 3SM BR OVC008 04/04 A3018 620 100 -400 170/10 RMK AO2 CIG 006V011
14837KMSN MSN20011216050012912/16/01 05:00:31  5-MIN KMSN 161100Z 16010KT 3SM -RA BR OVC008 04/04 A3018 630 100 -400 160/10 RMK AO2 RAB1056 CIG 006V011 P0000
14837KMSN MSN20011216050512912/16/01 05:05:31  5-MIN KMSN 161105Z 16012KT 3SM -RA BR OVC008 04/04 A3017 630 100 -400 160/12 RMK AO2 RAB1056 CIG 005V011 P0000
14837KMSN MSN20011216051012912/16/01 05:10:31  5-MIN KMSN 161110Z 16011KT 3SM -RA BR OVC008 04/04 A3017 630 100 -400 160/11 RMK AO2 RAB1056 CIG 005V011 P0000
14837KMSN MSN20011216051512912/16/01 05:15:31  5-MIN KMSN 161115Z 16009KT 3SM -RA BR OVC008 04/04 A3016 640 100 -400 160/09 RMK AO2 RAB1056 CIG 005V011 P0000
14837KMSN MSN20011216052012912/16/01 05:20:31  5-MIN KMSN 161120Z 16012KT 3SM -RA BR OVC006 04/04 A3016 640 100 -400 160/12 RMK AO2 RAB1056 CIG 005V009 P0001
14837KMSN MSN20011216052512912/16/01 05:25:31  5-MIN KMSN 161125Z 16010KT 3SM -RA BR OVC006 04/04 A3016 640 100 -400 160/10 RMK AO2 RAB1056 CIG 005V010 P0001
14837KMSN MSN20011216053011612/16/01 05:30:31  5-MIN KMSN 161130Z 17010KT 3SM BR OVC006 04/04 A3016 640 100 -400 170/10 RMK AO2 RAB1056E27 P0001
14837KMSN MSN20011216053511612/16/01 05:35:31  5-MIN KMSN 161135Z 17010KT 3SM BR OVC006 04/04 A3016 640 100 -400 170/10 RMK AO2 RAB1056E27 P0001
14837KMSN MSN20011216054011612/16/01 05:40:31  5-MIN KMSN 161140Z 18009KT 3SM BR OVC006 04/04 A3016 640 100 -400 180/09 RMK AO2 RAB1056E27 P0001
14837KMSN MSN20011216054511612/16/01 05:45:31  5-MIN KMSN 161145Z 16010KT 3SM BR OVC006 04/04 A3016 640 100 -400 160/10 RMK AO2 RAB1056E27 P0001
14837KMSN MSN20011216055017012/16/01 05:50:31  5-MIN KMSN 161150Z 16009KT 3SM -RA BR OVC006 04/04 A3016 650 100 -400 160/09 RMK AO2 RAB1056E27B50 SLP220 P0001 60004 70004 T00440044 10044 20044 56016
14837KMSN MSN20011216055510912/16/01 05:55:31  5-MIN KMSN 161155Z 16009KT 3SM -RA BR OVC006 04/04 A3016 650 100 -400 160/09 RMK AO2 P0000
14837KMSN MSN20011216060010912/16/01 06:00:31  5-MIN KMSN 161200Z 16009KT 3SM -RA BR OVC006 04/04 A3015 650 100 -400 160/09 RMK AO2 P0000
14837KMSN MSN20011216060510912/16/01 06:05:31  5-MIN KMSN 161205Z 15007KT 3SM -RA BR OVC006 04/04 A3015 650 100 -400 150/07 RMK AO2 P0000
14837KMSN MSN20011216061010912/16/01 06:10:31  5-MIN KMSN 161210Z 15010KT 3SM -RA BR OVC006 04/04 A3015 650 100 -400 150/10 RMK AO2 P0000
14837KMSN MSN20011216061512012/16/01 06:15:31  5-MIN KMSN 161215Z 15007KT 3SM -DZ BR OVC006 04/04 A3015 650 100 -400 150/07 RMK AO2 RAE15DZB15 P0000
14837KMSN MSN20011216062012012/16/01 06:20:31  5-MIN KMSN 161220Z 15007KT 3SM -DZ BR OVC006 04/04 A3015 650 100 -400 150/07 RMK AO2 RAE15DZB15 P0000
14837KMSN MSN20011216062512012/16/01 06:25:31  5-MIN KMSN 161225Z 14006KT 3SM -DZ BR OVC006 04/04 A3014 660 100 -400 130/06 RMK AO2 RAE15DZB15 P0000
14837KMSN MSN20011216063012012/16/01 06:30:31  5-MIN KMSN 161230Z 15007KT 3SM -DZ BR OVC006 04/04 A3014 660 100 -400 150/07 RMK AO2 RAE15DZB15 P0000
14837KMSN MSN20011216063512012/16/01 06:35:31  5-MIN KMSN 161235Z 14007KT 3SM -DZ BR OVC006 04/04 A3014 670 100 -400 140/07 RMK AO2 RAE15DZB15 P0000
14837KMSN MSN20011216064012712/16/01 06:40:31  5-MIN KMSN 161240Z 14007KT 3SM -DZ BR OVC006 04/04 A3012 680 100 -300 140/07 RMK AO2 RAE15DZB15 PRESFR P0000
14837KMSN MSN20011216064512712/16/01 06:45:31  5-MIN KMSN 161245Z 14006KT 3SM -DZ BR OVC006 04/04 A3012 680 100 -300 140/06 RMK AO2 RAE15DZB15 PRESFR P0000
14837KMSN MSN20011216065014412/16/01 06:50:31  5-MIN KMSN 161250Z 13006KT 3SM -DZ BR OVC006 04/04 A3011 690 100 -300 130/06 RMK AO2 RAE15DZB15 PRESFR SLP204 P0000 T00440044
14837KMSN MSN20011216065510912/16/01 06:55:31  5-MIN KMSN 161255Z 13006KT 3SM -DZ BR OVC006 04/04 A3011 690 100 -300 130/06 RMK AO2 P0000
14837KMSN MSN20011216070010912/16/01 07:00:31  5-MIN KMSN 161300Z 13007KT 3SM -DZ BR OVC006 04/04 A3011 690 100 -300 130/07 RMK AO2 P0000
14837KMSN MSN20011216070511112/16/01 07:05:31  5-MIN KMSN 161305Z 14006KT 3SM BR OVC006 04/04 A3011 690 100 -300 130/06 RMK AO2 DZE04 P0000
14837KMSN MSN20011216071011112/16/01 07:10:31  5-MIN KMSN 161310Z 13005KT 3SM BR OVC006 04/04 A3011 690 100 -300 130/05 RMK AO2 DZE04 P0000
14837KMSN MSN20011216071511112/16/01 07:15:31  5-MIN KMSN 161315Z 14005KT 3SM BR OVC006 04/04 A3011 690 100 -300 140/05 RMK AO2 DZE04 P0000
14837KMSN MSN20011216072011112/16/01 07:20:31  5-MIN KMSN 161320Z 13005KT 3SM BR OVC006 04/04 A3011 690 100 -300 130/05 RMK AO2 DZE04 P0000
14837KMSN MSN20011216072511112/16/01 07:25:31  5-MIN KMSN 161325Z 14006KT 3SM BR OVC006 04/04 A3011 690 100 -300 130/06 RMK AO2 DZE04 P0000
14837KMSN MSN20011216073011112/16/01 07:30:31  5-MIN KMSN 161330Z 14006KT 3SM BR OVC006 04/04 A3011 690 100 -300 140/06 RMK AO2 DZE04 P0000
14837KMSN MSN20011216073511112/16/01 07:35:31  5-MIN KMSN 161335Z 14005KT 3SM BR OVC006 04/04 A3011 690 100 -300 140/05 RMK AO2 DZE04 P0000
14837KMSN MSN20011216074011112/16/01 07:40:31  5-MIN KMSN 161340Z 13006KT 3SM BR OVC006 04/04 A3011 690 100 -300 130/06 RMK AO2 DZE04 P0000
14837KMSN MSN20011216074511112/16/01 07:45:31  5-MIN KMSN 161345Z 13005KT 3SM BR OVC006 04/04 A3011 690 100 -300 130/05 RMK AO2 DZE04 P0000
14837KMSN MSN20011216075012812/16/01 07:50:31  5-MIN KMSN 161350Z 14005KT 3SM BR OVC006 04/04 A3011 690 100 -300 140/05 RMK AO2 DZE04 SLP204 P0000 T00440044
14837KMSN MSN20011216075510312/16/01 07:55:31  5-MIN KMSN 161355Z 14006KT 2 1/2SM BR OVC006 04/04 A3011 690 100 -300 130/06 RMK AO2
14837KMSN MSN20011216080010312/16/01 08:00:31  5-MIN KMSN 161400Z 14007KT 2 1/2SM BR OVC006 04/04 A3011 690 100 -300 140/07 RMK AO2
14837KMSN MSN20011216080510312/16/01 08:05:31  5-MIN KMSN 161405Z 16009KT 2 1/2SM BR OVC006 04/04 A3012 680 100 -300 160/09 RMK AO2
14837KMSN MSN20011216081010312/16/01 08:10:31  5-MIN KMSN 161410Z 17009KT 2 1/2SM BR OVC006 04/04 A3013 670 100 -400 170/09 RMK AO2
14837KMSN MSN20011216081511512/16/01 08:15:31  5-MIN KMSN 161415Z 17008KT 2SM -DZ BR OVC006 04/04 A3013 670 100 -400 160/08 RMK AO2 DZB14 P0000
14837KMSN MSN20011216082011912/16/01 08:20:31  5-MIN KMSN 161420Z 16011KT 1 1/2SM -DZ BR OVC006 04/04 A3013 670 100 -400 160/11 RMK AO2 DZB14 P0000
14837KMSN MSN20011216082511912/16/01 08:25:31  5-MIN KMSN 161425Z 16010KT 1 1/2SM -DZ BR OVC006 04/04 A3013 670 100 -400 160/10 RMK AO2 DZB14 P0000
14837KMSN MSN20011216083011912/16/01 08:30:31  5-MIN KMSN 161430Z 15009KT 1 1/2SM -DZ BR OVC006 04/04 A3012 680 100 -300 150/09 RMK AO2 DZB14 P0000
14837KMSN MSN20011216083511912/16/01 08:35:31  5-MIN KMSN 161435Z 14010KT 1 1/2SM -DZ BR OVC004 04/04 A3011 690 100 -300 140/10 RMK AO2 DZB14 P0000
14837KMSN MSN20011216084011912/16/01 08:40:31  5-MIN KMSN 161440Z 14010KT 1 1/4SM -DZ BR OVC004 04/04 A3011 690 100 -300 140/10 RMK AO2 DZB14 P0000
14837KMSN MSN20011216084511912/16/01 08:45:31  5-MIN KMSN 161445Z 15010KT 1 1/4SM -DZ BR OVC004 04/04 A3011 690 100 -300 140/10 RMK AO2 DZB14 P0000
14837KMSN MSN20011216085014812/16/01 08:50:31  5-MIN KMSN 161450Z 14010KT 1 1/4SM -DZ BR OVC004 04/04 A3010 700 100 -300 140/10 RMK AO2 DZB14 SLP201 P0000 60000 T00440044 58013
14837KMSN MSN20011216085511312/16/01 08:55:31  5-MIN KMSN 161455Z 15012KT 1 1/4SM -DZ BR OVC004 04/04 A3010 700 100 -300 150/12 RMK AO2 P0000
14837KMSN MSN20011216090012812/16/01 09:00:31  5-MIN KMSN 161500Z 15011KT 1 1/4SM -RA BR OVC004 04/04 A3010 700 100 -300 150/11 RMK AO2 DZE1459RAB1459 P0001
14837KMSN MSN20011216090512812/16/01 09:05:31  5-MIN KMSN 161505Z 15011KT 1 1/2SM -RA BR OVC004 04/04 A3010 700 100 -300 150/11 RMK AO2 DZE1459RAB1459 P0001
14837KMSN MSN20011216091015012/16/01 09:10:31  5-MIN KMSN 161510Z 15010KT 1 1/2SM -RA BR OVC004 04/04 A3009 700 100 -300 150/10 RMK AO2 SFC VIS 2 DZE1459RAB1459 CIG 003V008 P0001
14837KMSN MSN20011216091513712/16/01 09:15:31  5-MIN KMSN 161515Z 15011KT 1 1/2SM BR OVC004 04/04 A3010 700 100 -300 150/11 RMK AO2 SFC VIS 2 DZE1459RAB1459E11 P0001
14837KMSN MSN20011216092013712/16/01 09:20:31  5-MIN KMSN 161520Z 15012KT 1 1/2SM BR OVC004 04/04 A3010 700 100 -300 150/12 RMK AO2 SFC VIS 2 DZE1459RAB1459E11 P0001
14837KMSN MSN20011216092513712/16/01 09:25:31  5-MIN KMSN 161525Z 15011KT 1 1/2SM BR OVC004 04/04 A3010 700 100 -300 150/11 RMK AO2 SFC VIS 2 DZE1459RAB1459E11 P0001
14837KMSN MSN20011216093013712/16/01 09:30:31  5-MIN KMSN 161530Z 16012KT 1 1/2SM BR OVC004 04/04 A3010 700 100 -300 160/12 RMK AO2 SFC VIS 2 DZE1459RAB1459E11 P0001
14837KMSN MSN20011216093513712/16/01 09:35:31  5-MIN KMSN 161535Z 16010KT 1 1/2SM BR OVC004 04/04 A3011 690 100 -300 160/10 RMK AO2 SFC VIS 2 DZE1459RAB1459E11 P0001
14837KMSN MSN20011216094013712/16/01 09:40:31  5-MIN KMSN 161540Z 15013KT 1 1/2SM BR OVC004 04/04 A3009 710 100 -300 150/13 RMK AO2 SFC VIS 2 DZE1459RAB1459E11 P0001
14837KMSN MSN20011216094513712/16/01 09:45:31  5-MIN KMSN 161545Z 15012KT 1 1/2SM BR OVC004 04/04 A3010 700 100 -300 150/12 RMK AO2 SFC VIS 2 DZE1459RAB1459E11 P0001
14837KMSN MSN20011216095015412/16/01 09:50:31  5-MIN KMSN 161550Z 16012KT 1 1/2SM BR OVC004 04/04 A3010 700 100 -300 160/12 RMK AO2 SFC VIS 2 DZE1459RAB1459E11 SLP198 P0001 T00440044
14837KMSN MSN20011216095511312/16/01 09:55:31  5-MIN KMSN 161555Z 16013KT 1 1/2SM -DZ BR OVC004 05/05 A3010 700 100 -200 160/13 RMK AO2 P0000
14837KMSN MSN20011216100011312/16/01 10:00:31  5-MIN KMSN 161600Z 16010KT 1 1/2SM -DZ BR OVC004 05/05 A3010 700 100 -300 160/10 RMK AO2 P0000
14837KMSN MSN20011216100511312/16/01 10:05:31  5-MIN KMSN 161605Z 16010KT 1 1/2SM -DZ BR OVC004 05/05 A3010 700 100 -200 160/10 RMK AO2 P0000
14837KMSN MSN20011216101011312/16/01 10:10:31  5-MIN KMSN 161610Z 16011KT 1 1/2SM -DZ BR OVC004 05/05 A3010 700 100 -200 160/11 RMK AO2 P0000
14837KMSN MSN20011216101511312/16/01 10:15:31  5-MIN KMSN 161615Z 16012KT 1 1/2SM -DZ BR OVC004 05/05 A3010 700 100 -200 160/12 RMK AO2 P0000
14837KMSN MSN20011216102011312/16/01 10:20:31  5-MIN KMSN 161620Z 17013KT 1 1/2SM -DZ BR OVC004 05/05 A3010 700 100 -200 170/13 RMK AO2 P0000
14837KMSN MSN20011216102511312/16/01 10:25:31  5-MIN KMSN 161625Z 17011KT 1 1/2SM -DZ BR OVC004 05/05 A3010 700 100 -200 170/11 RMK AO2 P0000
14837KMSN MSN20011216103011312/16/01 10:30:31  5-MIN KMSN 161630Z 16012KT 1 1/2SM -DZ BR OVC004 05/05 A3009 700 100 -200 160/12 RMK AO2 P0000
14837KMSN MSN20011216103511312/16/01 10:35:31  5-MIN KMSN 161635Z 16011KT 1 1/2SM -DZ BR OVC004 05/05 A3009 710 100 -200 160/11 RMK AO2 P0000
14837KMSN MSN20011216104011312/16/01 10:40:31  5-MIN KMSN 161640Z 16010KT 1 1/2SM -DZ BR OVC004 05/05 A3008 710 100 -200 160/10 RMK AO2 P0000
14837KMSN MSN20011216104511312/16/01 10:45:31  5-MIN KMSN 161645Z 17010KT 1 1/2SM -DZ BR OVC004 05/05 A3008 720 100 -200 160/10 RMK AO2 P0000
14837KMSN MSN20011216105013012/16/01 10:50:31  5-MIN KMSN 161650Z 16011KT 1 1/2SM -DZ BR OVC004 05/05 A3007 720 100 -200 160/11 RMK AO2 SLP191 P0000 T00500050
14837KMSN MSN20011216105512412/16/01 10:55:31  5-MIN KMSN 161655Z 17009KT 1 1/2SM -DZ OVC004 05/M01 A3007 730 67 -200 170/09 RMK AO2 SFC VIS 1 3/4 P0000
14837KMSN MSN20011216110013812/16/01 11:00:31  5-MIN KMSN 161700Z 17010KT 1 1/2SM -RA BR OVC004 05/05 A3006 730 100 -200 170/10 RMK AO2 SFC VIS 2 DZE1656RAB1656 P0000
14837KMSN MSN20011216110513412/16/01 11:05:31  5-MIN KMSN 161705Z 18009KT 1 1/2SM -DZ BR OVC004 05/05 A3007 730 100 -200 180/09 RMK AO2 SFC VIS 3 RAB1656E02 P0000
14837KMSN MSN20011216111013512/16/01 11:10:31  5-MIN KMSN 161710Z 18009KT 2 1/2SM BR OVC004 05/05 A3007 730 100 -200 180/09 RMK AO2 SFC VIS 5 DZE08RAB1656E02 P0000
14837KMSN MSN20011216111513512/16/01 11:15:31  5-MIN KMSN 161715Z 18009KT 2 1/2SM BR OVC004 05/05 A3007 730 100 -200 180/09 RMK AO2 SFC VIS 5 DZE08RAB1656E02 P0000
14837KMSN MSN20011216112013912/16/01 11:20:31  5-MIN KMSN 161720Z 18009KT 3SM BR OVC004 05/05 A3006 740 100 -200 170/09 RMK AO2 SFC VIS 5 DZE1656B02E08RAB1656E02 P0000
14837KMSN MSN20011216112513912/16/01 11:25:31  5-MIN KMSN 161725Z 17009KT 3SM BR OVC004 05/05 A3006 740 100 -200 170/09 RMK AO2 SFC VIS 5 DZE1656B02E08RAB1656E02 P0000
14837KMSN MSN20011216113013912/16/01 11:30:31  5-MIN KMSN 161730Z 17009KT 3SM BR OVC004 05/05 A3005 740 100 -200 170/09 RMK AO2 SFC VIS 5 DZE1656B02E08RAB1656E02 P0000
14837KMSN MSN20011216113513912/16/01 11:35:31  5-MIN KMSN 161735Z 17008KT 2SM BR OVC004 05/05 A3005 750 100 -200 170/08 RMK AO2 SFC VIS 3 DZE1656B02E08RAB1656E02 P0000
14837KMSN MSN20011216114014312/16/01 11:40:31  5-MIN KMSN 161740Z 17007KT 1 1/2SM BR OVC004 05/05 A3005 750 100 -200 170/07 RMK AO2 SFC VIS 3 DZE1656B02E08RAB1656E02 P0000
14837KMSN MSN20011216114514312/16/01 11:45:31  5-MIN KMSN 161745Z 17010KT 1 1/2SM BR OVC004 05/05 A3004 750 100 -200 160/10 RMK AO2 SFC VIS 2 DZE1656B02E08RAB1656E02 P0000
14837KMSN MSN20011216115018712/16/01 11:50:31  5-MIN KMSN 161750Z 16010KT 1 1/2SM BR OVC004 06/05 A3004 760 96 -100 160/10 RMK AO2 SFC VIS 1 3/4 SLP178 DZE1656B02E08RAB1656E02 P0000 60001 T00560050 10056 20044 56018
14837KMSN MSN20011216115511212/16/01 11:55:31  5-MIN KMSN 161755Z 17009KT 1 1/2SM BR OVC004 06/05 A3004 750 96 -100 170/09 RMK AO2 SFC VIS 2
14837KMSN MSN20011216120011212/16/01 12:00:31  5-MIN KMSN 161800Z 18008KT 1 1/2SM BR OVC004 06/05 A3004 750 96 -100 170/08 RMK AO2 SFC VIS 2
14837KMSN MSN20011216120511212/16/01 12:05:31  5-MIN KMSN 161805Z 18009KT 1 1/2SM BR OVC004 06/05 A3004 750 96 -100 170/09 RMK AO2 SFC VIS 2
14837KMSN MSN20011216121011212/16/01 12:10:31  5-MIN KMSN 161810Z 18010KT 1 1/2SM BR OVC004 06/05 A3004 750 96 -100 180/10 RMK AO2 SFC VIS 2
14837KMSN MSN20011216121511212/16/01 12:15:31  5-MIN KMSN 161815Z 17010KT 1 1/2SM BR OVC004 06/05 A3003 760 96 -100 170/10 RMK AO2 SFC VIS 2
14837KMSN MSN20011216122011212/16/01 12:20:31  5-MIN KMSN 161820Z 17010KT 1 1/2SM BR OVC004 06/05 A3003 760 96 -100 170/10 RMK AO2 SFC VIS 2
14837KMSN MSN20011216122511212/16/01 12:25:31  5-MIN KMSN 161825Z 18010KT 1 1/2SM BR OVC004 06/05 A3003 760 96 -100 180/10 RMK AO2 SFC VIS 2
14837KMSN MSN20011216123011212/16/01 12:30:31  5-MIN KMSN 161830Z 18010KT 1 1/2SM BR OVC004 06/05 A3003 760 96 -100 180/10 RMK AO2 SFC VIS 2
14837KMSN MSN20011216123511212/16/01 12:35:31  5-MIN KMSN 161835Z 19010KT 1 1/2SM BR OVC004 06/05 A3003 760 96 -100 180/10 RMK AO2 SFC VIS 2
14837KMSN MSN20011216124011212/16/01 12:40:31  5-MIN KMSN 161840Z 19009KT 1 1/2SM BR OVC004 06/05 A3003 760 96 -100 190/09 RMK AO2 SFC VIS 2
14837KMSN MSN20011216124511212/16/01 12:45:31  5-MIN KMSN 161845Z 19010KT 1 1/2SM BR OVC004 06/05 A3003 760 96 -100 180/10 RMK AO2 SFC VIS 2
14837KMSN MSN20011216125011912/16/01 12:50:31  5-MIN KMSN 161850Z 19011KT 1 1/2SM BR OVC004 06/05 A3004 760 96 -100 180/11 RMK AO2 SLP178 T00560050
14837KMSN MSN20011216125512012/16/01 12:55:31  5-MIN KMSN 161855Z 19010KT 1 1/2SM -DZ OVC004 06/M01 A3004 750 65 -100 190/10 RMK AO2 SFC VIS 2 P0000
14837KMSN MSN20011216130012012/16/01 13:00:31  5-MIN KMSN 161900Z 19008KT 1 1/2SM -DZ OVC004 06/M01 A3004 760 65 -100 190/08 RMK AO2 SFC VIS 2 P0000
14837KMSN MSN20011216130511212/16/01 13:05:31  5-MIN KMSN 161905Z 19009KT 1 1/2SM -DZ BR OVC004 06/05 A3003 760 96 -100 180/09 RMK AO2 P0000
14837KMSN MSN20011216131011212/16/01 13:10:31  5-MIN KMSN 161910Z 19009KT 1 1/2SM -DZ BR OVC004 06/05 A3003 760 96 -100 190/09 RMK AO2 P0000
14837KMSN MSN20011216131511212/16/01 13:15:31  5-MIN KMSN 161915Z 20008KT 1 1/2SM -DZ BR OVC004 06/05 A3003 760 96 -100 190/08 RMK AO2 P0000
14837KMSN MSN20011216132011212/16/01 13:20:31  5-MIN KMSN 161920Z 20009KT 1 1/2SM -DZ BR OVC004 06/05 A3003 760 96 -100 190/09 RMK AO2 P0000
14837KMSN MSN20011216132511212/16/01 13:25:31  5-MIN KMSN 161925Z 19010KT 1 1/2SM -DZ BR OVC004 06/05 A3003 760 96 -100 190/10 RMK AO2 P0000
14837KMSN MSN20011216133012212/16/01 13:30:31  5-MIN KMSN 161930Z 19008KT 1SM -DZ BR OVC004 06/05 A3003 770 96 -100 190/08 RMK AO2 SFC VIS 1 1/4 P0000
14837KMSN MSN20011216133512212/16/01 13:35:31  5-MIN KMSN 161935Z 20007KT 1SM -DZ BR OVC004 06/05 A3002 770 96 -100 200/07 RMK AO2 SFC VIS 1 1/4 P0000
14837KMSN MSN20011216134012212/16/01 13:40:31  5-MIN KMSN 161940Z 18008KT 1SM -DZ BR OVC004 06/05 A3002 770 96 -100 180/08 RMK AO2 SFC VIS 1 1/4 P0000
14837KMSN MSN20011216134512212/16/01 13:45:31  5-MIN KMSN 161945Z 19007KT 1SM -DZ BR OVC004 06/05 A3003 770 96 -100 190/07 RMK AO2 SFC VIS 1 1/4 P0000
14837KMSN MSN20011216135012212/16/01 13:50:31  5-MIN KMSN 161950Z 19006KT 1SM -DZ BR OVC004 06/06 A3002 770 96 0 190/06 RMK AO2 SLP173 P0000 T00610056
14837KMSN MSN20011216135512012/16/01 13:55:31  5-MIN KMSN 161955Z 20005KT 1SM -DZ OVC004 06/M01 A3003 770 65 -100 200/05 RMK AO2 SFC VIS 1 1/2 P0000
14837KMSN MSN20011216140011912/16/01 14:00:31  5-MIN KMSN 162000Z 20005KT 1SM -DZ BR OVC004 06/06 A3002 770 96 0 200/05 RMK AO2 SFC VIS 1 1/4 P0000
14837KMSN MSN20011216140511912/16/01 14:05:31  5-MIN KMSN 162005Z 19006KT 1SM -DZ BR OVC004 06/06 A3002 770 96 0 190/06 RMK AO2 SFC VIS 1 1/4 P0001
14837KMSN MSN20011216141011912/16/01 14:10:31  5-MIN KMSN 162010Z 19006KT 1SM -DZ BR OVC004 06/06 A3002 770 96 0 180/06 RMK AO2 SFC VIS 1 1/4 P0001
14837KMSN MSN20011216141511912/16/01 14:15:31  5-MIN KMSN 162015Z 19007KT 1SM -DZ BR OVC004 06/06 A3002 770 96 0 190/07 RMK AO2 SFC VIS 1 1/4 P0001
14837KMSN MSN20011216142011912/16/01 14:20:31  5-MIN KMSN 162020Z 19006KT 1SM -DZ BR OVC004 06/06 A3001 780 96 0 190/06 RMK AO2 SFC VIS 1 1/4 P0001
14837KMSN MSN20011216142511912/16/01 14:25:31  5-MIN KMSN 162025Z 18006KT 1SM -DZ BR OVC004 06/06 A3001 780 96 0 180/06 RMK AO2 SFC VIS 1 1/4 P0002
14837KMSN MSN20011216143011912/16/01 14:30:31  5-MIN KMSN 162030Z 19005KT 1SM -DZ BR OVC004 06/06 A3001 780 96 0 190/05 RMK AO2 SFC VIS 1 1/4 P0002
14837KMSN MSN20011216143511912/16/01 14:35:31  5-MIN KMSN 162035Z 19005KT 1SM -DZ BR OVC004 06/06 A3001 780 96 0 190/05 RMK AO2 SFC VIS 1 1/4 P0002
14837KMSN MSN20011216144011912/16/01 14:40:31  5-MIN KMSN 162040Z 19005KT 1SM -DZ BR OVC004 06/06 A3001 780 96 0 190/05 RMK AO2 SFC VIS 1 1/4 P0002
14837KMSN MSN20011216144511912/16/01 14:45:31  5-MIN KMSN 162045Z 19006KT 1SM -DZ BR OVC004 06/06 A3001 780 96 0 190/06 RMK AO2 SFC VIS 1 1/4 P0002
14837KMSN MSN20011216145015312/16/01 14:50:31  5-MIN KMSN 162050Z 20006KT 1 1/4SM -DZ BR OVC004 06/06 A3001 780 100 0 200/06 RMK AO2 SFC VIS 1 1/2 SLP168 P0002 60002 T00610061 58020
14837KMSN MSN20011216145511712/16/01 14:55:31  5-MIN KMSN 162055Z 19006KT 1 1/4SM -DZ OVC004 06/M01 A3001 780 62 0 190/06 RMK AO2 SFC VIS 3 P0000
14837KMSN MSN20011216150012412/16/01 15:00:31  5-MIN KMSN 162100Z 19005KT 1 1/4SM -DZ BR OVC004 06/06 A3000 790 100 0 180/05 RMK AO2 SFC VIS 1 3/4 P0000
14837KMSN MSN20011216150512412/16/01 15:05:31  5-MIN KMSN 162105Z 20004KT 1 1/4SM -DZ BR OVC004 06/06 A3001 790 100 0 190/04 RMK AO2 SFC VIS 1 3/4 P0000
14837KMSN MSN20011216151012412/16/01 15:10:31  5-MIN KMSN 162110Z 20005KT 1 1/4SM -DZ BR OVC004 06/06 A3001 780 100 0 200/05 RMK AO2 SFC VIS 1 3/4 P0000
14837KMSN MSN20011216151512412/16/01 15:15:31  5-MIN KMSN 162115Z 19005KT 1 1/4SM -DZ BR OVC004 06/06 A3001 780 100 0 190/05 RMK AO2 SFC VIS 1 3/4 P0000
14837KMSN MSN20011216152012412/16/01 15:20:31  5-MIN KMSN 162120Z 19005KT 1 1/4SM -DZ BR OVC004 06/06 A3001 780 100 0 190/05 RMK AO2 SFC VIS 1 1/2 P0000
14837KMSN MSN20011216152512412/16/01 15:25:31  5-MIN KMSN 162125Z 20005KT 1 1/4SM -DZ BR OVC004 06/06 A3001 780 100 0 190/05 RMK AO2 SFC VIS 1 1/2 P0000
14837KMSN MSN20011216153012412/16/01 15:30:31  5-MIN KMSN 162130Z 19005KT 1 1/4SM -DZ BR OVC004 06/06 A3001 780 100 0 190/05 RMK AO2 SFC VIS 1 1/2 P0000
14837KMSN MSN20011216153512412/16/01 15:35:31  5-MIN KMSN 162135Z 20005KT 1 1/4SM -DZ BR OVC004 06/06 A3001 780 100 0 200/05 RMK AO2 SFC VIS 1 1/2 P0000
14837KMSN MSN20011216154012412/16/01 15:40:31  5-MIN KMSN 162140Z 19004KT 1 1/4SM -DZ BR OVC004 06/06 A3001 780 100 0 190/04 RMK AO2 SFC VIS 1 1/2 P0000
14837KMSN MSN20011216154512612/16/01 15:45:31  5-MIN KMSN 162145Z 19005KT 1 1/4SM BR OVC004 06/06 A3001 780 100 0 190/05 RMK AO2 SFC VIS 1 3/4 DZE45 P0000
14837KMSN MSN20011216155013812/16/01 15:50:31  5-MIN KMSN 162150Z 20004KT 1 1/4SM BR OVC004 07/06 A3001 780 93 0 200/04 RMK AO2 SFC VIS 2 DZE45 SLP167 P0000 T00670056
14837KMSN MSN20011216155510912/16/01 15:55:31  5-MIN KMSN 162155Z 20004KT 1 1/4SM BR OVC004 06/05 A3001 780 93 0 200/04 RMK AO2 SFC VIS 2
14837KMSN MSN20011216160010912/16/01 16:00:31  5-MIN KMSN 162200Z 19006KT 1 1/4SM BR OVC004 06/05 A3000 790 93 0 190/06 RMK AO2 SFC VIS 2
14837KMSN MSN20011216160510912/16/01 16:05:31  5-MIN KMSN 162205Z 19006KT 1 1/4SM BR OVC004 06/05 A3001 790 93 0 190/06 RMK AO2 SFC VIS 2
14837KMSN MSN20011216161010912/16/01 16:10:31  5-MIN KMSN 162210Z 19007KT 1 1/4SM BR OVC004 06/05 A3000 790 93 0 190/07 RMK AO2 SFC VIS 2
14837KMSN MSN20011216161511312/16/01 16:15:31  5-MIN KMSN 162215Z 19006KT 1 1/4SM BR OVC004 06/05 A3000 790 93 0 190/06 RMK AO2 SFC VIS 1 3/4
14837KMSN MSN20011216162011312/16/01 16:20:31  5-MIN KMSN 162220Z 19005KT 1 1/4SM BR OVC004 06/05 A3000 790 93 0 180/05 RMK AO2 SFC VIS 1 3/4
14837KMSN MSN20011216162510912/16/01 16:25:31  5-MIN KMSN 162225Z 20004KT 1SM BR OVC004 06/05 A3000 790 93 0 190/04 RMK AO2 TWR VIS 1 1/4
14837KMSN MSN20011216163010912/16/01 16:30:31  5-MIN KMSN 162230Z 21005KT 1SM BR OVC004 06/05 A3000 790 93 0 210/05 RMK AO2 TWR VIS 1 1/4
14837KMSN MSN20011216163510912/16/01 16:35:31  5-MIN KMSN 162235Z 21003KT 1SM BR OVC004 06/05 A3000 790 93 0 200/03 RMK AO2 TWR VIS 1 1/4
14837KMSN MSN20011216164010912/16/01 16:40:31  5-MIN KMSN 162240Z 21003KT 1SM BR OVC004 06/05 A3000 790 93 0 210/03 RMK AO2 TWR VIS 1 1/4
14837KMSN MSN20011216164509912/16/01 16:45:31  5-MIN KMSN 162245Z 20004KT 1 1/4SM BR OVC004 06/06 A3000 790 96 0 200/04 RMK AO2
14837KMSN MSN20011216165012612/16/01 16:50:31  5-MIN KMSN 162250Z 20004KT 1SM BR OVC004 06/06 A3000 790 96 0 200/04 RMK AO2 SFC VIS 1 1/4 SLP164 T00610056
14837KMSN MSN20011216165510912/16/01 16:55:31  5-MIN KMSN 162255Z 19004KT 1SM BR OVC002 06/06 A3000 790 96 0 190/04 RMK AO2 SFC VIS 1 1/4
14837KMSN MSN20011216170010912/16/01 17:00:31  5-MIN KMSN 162300Z 20004KT 1SM BR OVC002 06/06 A3000 790 96 0 200/04 RMK AO2 SFC VIS 1 1/4
14837KMSN MSN20011216170510912/16/01 17:05:31  5-MIN KMSN 162305Z 20003KT 1SM BR OVC002 06/06 A3000 790 96 0 200/03 RMK AO2 SFC VIS 1 1/4
14837KMSN MSN20011216171010912/16/01 17:10:31  5-MIN KMSN 162310Z 19004KT 1SM BR OVC002 06/06 A3000 790 96 0 190/04 RMK AO2 SFC VIS 1 1/4
14837KMSN MSN20011216171509512/16/01 17:15:31  5-MIN KMSN 162315Z 20003KT 1SM BR OVC002 06/06 A3000 790 96 0 190/03 RMK AO2
14837KMSN MSN20011216172009512/16/01 17:20:31  5-MIN KMSN 162320Z 00000KT 1SM BR OVC002 06/06 A3000 790 96 0 000/00 RMK AO2
14837KMSN MSN20011216172509512/16/01 17:25:31  5-MIN KMSN 162325Z 19003KT 1SM BR OVC002 06/06 A3000 790 96 0 190/03 RMK AO2
14837KMSN MSN20011216173009512/16/01 17:30:31  5-MIN KMSN 162330Z 19003KT 1SM BR OVC002 06/06 A3000 790 96 0 190/03 RMK AO2
14837KMSN MSN20011216173509512/16/01 17:35:31  5-MIN KMSN 162335Z 19003KT 1SM BR OVC002 06/06 A3000 790 96 0 190/03 RMK AO2
14837KMSN MSN20011216174010912/16/01 17:40:31  5-MIN KMSN 162340Z 00000KT 1/2SM BR OVC002 06/06 A3000 790 96 0 000/00 RMK AO2 SFC VIS 3/4
14837KMSN MSN20011216174510912/16/01 17:45:31  5-MIN KMSN 162345Z 19003KT 1/2SM BR OVC002 06/06 A3000 790 96 0 190/03 RMK AO2 SFC VIS 3/4
14837KMSN MSN20011216175015012/16/01 17:50:31  5-MIN KMSN 162350Z 00000KT 1/2SM BR OVC002 06/06 A3000 790 96 0 000/00 RMK AO2 SFC VIS 3/4 SLP164 60002 T00610056 10067 20056 58010
14837KMSN MSN20011216175509812/16/01 17:55:31  5-MIN KMSN 162355Z 00000KT 1/2SM FG OVC002 06/06 A2999 800 100 0 000/00 RMK AO2
14837KMSN MSN20011216180009812/16/01 18:00:31  5-MIN KMSN 170000Z 21003KT 1/2SM FG OVC002 06/06 A3000 790 100 0 210/03 RMK AO2
14837KMSN MSN20011216180509812/16/01 18:05:31  5-MIN KMSN 170005Z 20003KT 1/2SM FG OVC002 06/06 A3000 800 100 0 200/03 RMK AO2
14837KMSN MSN20011216181009812/16/01 18:10:31  5-MIN KMSN 170010Z 00000KT 1/2SM FG OVC002 06/06 A2999 800 100 0 000/00 RMK AO2
14837KMSN MSN20011216181509812/16/01 18:15:31  5-MIN KMSN 170015Z 00000KT 1/2SM FG OVC002 06/06 A2999 800 100 0 000/00 RMK AO2
14837KMSN MSN20011216182009812/16/01 18:20:31  5-MIN KMSN 170020Z 00000KT 1/2SM FG OVC002 06/06 A2999 800 100 0 000/00 RMK AO2
14837KMSN MSN20011216182509812/16/01 18:25:31  5-MIN KMSN 170025Z 22003KT 1/2SM FG OVC002 06/06 A2999 800 100 0 220/03 RMK AO2
14837KMSN MSN20011216183009812/16/01 18:30:31  5-MIN KMSN 170030Z 00000KT 1/2SM FG OVC002 06/06 A2999 800 100 0 000/00 RMK AO2
14837KMSN MSN20011216183509812/16/01 18:35:31  5-MIN KMSN 170035Z 00000KT 1/2SM FG OVC002 06/06 A2999 800 100 0 000/00 RMK AO2
14837KMSN MSN20011216184009812/16/01 18:40:31  5-MIN KMSN 170040Z 00000KT 1/2SM FG OVC002 06/06 A2999 800 100 0 000/00 RMK AO2
14837KMSN MSN20011216184509812/16/01 18:45:31  5-MIN KMSN 170045Z 00000KT 1/2SM FG OVC002 06/06 A3000 790 100 0 000/00 RMK AO2
14837KMSN MSN20011216185011512/16/01 18:50:31  5-MIN KMSN 170050Z 00000KT 1/2SM FG OVC002 06/06 A3000 790 100 0 000/00 RMK AO2 SLP163 T00610061
14837KMSN MSN20011216185509812/16/01 18:55:31  5-MIN KMSN 170055Z 22003KT 1/2SM FG OVC002 06/06 A3000 790 100 0 210/03 RMK AO2
14837KMSN MSN20011216190009812/16/01 19:00:31  5-MIN KMSN 170100Z 20003KT 1/2SM FG OVC002 06/06 A3000 790 100 0 200/03 RMK AO2
14837KMSN MSN20011216190509812/16/01 19:05:31  5-MIN KMSN 170105Z 20003KT 1/2SM FG OVC002 06/06 A3000 790 100 0 200/03 RMK AO2
14837KMSN MSN20011216191009812/16/01 19:10:31  5-MIN KMSN 170110Z 20003KT 1/2SM FG OVC002 06/06 A3000 790 100 0 200/03 RMK AO2
14837KMSN MSN20011216191512612/16/01 19:15:31  5-MIN KMSN 170115Z 00000KT 1/2SM -DZ BR OVC002 06/06 A3000 800 100 0 000/00 RMK AO2 SFC VIS 3/4 DZB13 P0000
14837KMSN MSN20011216192012612/16/01 19:20:31  5-MIN KMSN 170120Z 21003KT 1/2SM -DZ BR OVC002 06/06 A3000 790 100 0 210/03 RMK AO2 SFC VIS 3/4 DZB13 P0000
14837KMSN MSN20011216192512612/16/01 19:25:31  5-MIN KMSN 170125Z 23003KT 1/2SM -DZ BR OVC002 06/06 A3000 790 100 0 220/03 RMK AO2 SFC VIS 3/4 DZB13 P0000
14837KMSN MSN20011216193012412/16/01 19:30:31  5-MIN KMSN 170130Z 00000KT 1/2SM -DZ BR OVC002 06/06 A3000 790 100 0 000/00 RMK AO2 SFC VIS 1 DZB13 P0000
14837KMSN MSN20011216193512412/16/01 19:35:31  5-MIN KMSN 170135Z 21003KT 1/2SM -DZ BR OVC002 06/06 A3000 800 100 0 210/03 RMK AO2 SFC VIS 1 DZB13 P0000
14837KMSN MSN20011216194012412/16/01 19:40:31  5-MIN KMSN 170140Z 23003KT 1/2SM -DZ BR OVC002 06/06 A3000 800 100 0 220/03 RMK AO2 SFC VIS 1 DZB13 P0000
14837KMSN MSN20011216194512312/16/01 19:45:31  5-MIN KMSN 170145Z 21003KT 1/2SM -DZ BR OVC002 06/06 A2999 800 96 0 210/03 RMK AO2 SFC VIS 1 DZB13 P0000
14837KMSN MSN20011216195015212/16/01 19:50:31  5-MIN KMSN 170150Z 21004KT 1/2SM -DZ BR OVC002 06/06 A3000 790 96 0 210/04 RMK AO2 SFC VIS 1 DZB13 CIG 001V006 SLP163 P0000 T00610056
14837KMSN MSN20011216195511712/16/01 19:55:31  5-MIN KMSN 170155Z 00000KT 1/2SM -DZ BR OVC002 06/06 A2999 800 96 0 000/00 RMK AO2 SFC VIS 1 P0000
14837KMSN MSN20011216200011712/16/01 20:00:31  5-MIN KMSN 170200Z 19003KT 1/2SM -DZ BR OVC002 06/06 A2999 800 96 0 190/03 RMK AO2 SFC VIS 1 P0000
14837KMSN MSN20011216200511712/16/01 20:05:31  5-MIN KMSN 170205Z 00000KT 1/2SM -DZ BR OVC002 06/06 A2999 800 96 0 000/00 RMK AO2 SFC VIS 1 P0000
14837KMSN MSN20011216201010512/16/01 20:10:31  5-MIN KMSN 170210Z 22003KT 1SM -DZ BR OVC002 06/06 A2999 800 96 0 220/03 RMK AO2 P0000
14837KMSN MSN20011216201510512/16/01 20:15:31  5-MIN KMSN 170215Z 00000KT 1SM -DZ BR OVC002 06/06 A2999 800 96 0 000/00 RMK AO2 P0000
14837KMSN MSN20011216202010512/16/01 20:20:31  5-MIN KMSN 170220Z 00000KT 1SM -DZ BR OVC002 06/06 A2999 800 96 0 000/00 RMK AO2 P0000
14837KMSN MSN20011216202510512/16/01 20:25:31  5-MIN KMSN 170225Z 00000KT 1SM -DZ BR OVC002 06/06 A2998 810 96 0 000/00 RMK AO2 P0000
14837KMSN MSN20011216203011912/16/01 20:30:31  5-MIN KMSN 170230Z 19003KT 1SM -DZ BR OVC002 06/06 A2998 810 96 0 190/03 RMK AO2 SFC VIS 1 1/4 P0000
14837KMSN MSN20011216203511912/16/01 20:35:31  5-MIN KMSN 170235Z 18004KT 1SM -DZ BR OVC002 06/06 A2998 810 96 0 180/04 RMK AO2 SFC VIS 1 1/4 P0000
14837KMSN MSN20011216204011912/16/01 20:40:31  5-MIN KMSN 170240Z 17005KT 1SM -DZ BR OVC002 06/06 A2998 810 96 0 170/05 RMK AO2 SFC VIS 1 1/4 P0000
14837KMSN MSN20011216204511912/16/01 20:45:31  5-MIN KMSN 170245Z 18006KT 1SM -DZ BR OVC002 06/06 A2998 810 96 0 180/06 RMK AO2 SFC VIS 1 1/4 P0000
14837KMSN MSN20011216205014012/16/01 20:50:31  5-MIN KMSN 170250Z 19004KT 1 1/4SM BR OVC002 06/06 A2998 810 96 0 180/04 RMK AO2 DZE47 SLP156 P0000 60000 T00610056 57005
14837KMSN MSN20011216205511112/16/01 20:55:31  5-MIN KMSN 170255Z 18004KT 1 1/4SM BR OVC002 06/06 A2997 820 96 0 180/04 RMK AO2 CIG 002V005
14837KMSN MSN20011216210009912/16/01 21:00:31  5-MIN KMSN 170300Z 18004KT 1 1/4SM BR OVC004 06/06 A2997 820 96 0 180/04 RMK AO2
14837KMSN MSN20011216210511112/16/01 21:05:31  5-MIN KMSN 170305Z 00000KT 1 1/4SM BR OVC004 06/06 A2997 810 96 0 000/00 RMK AO2 CIG 002V005
14837KMSN MSN20011216211011112/16/01 21:10:31  5-MIN KMSN 170310Z 19003KT 1 1/4SM BR OVC004 06/06 A2997 820 96 0 190/03 RMK AO2 CIG 002V005
14837KMSN MSN20011216211511112/16/01 21:15:31  5-MIN KMSN 170315Z 00000KT 1 1/4SM BR OVC004 06/06 A2997 820 96 0 000/00 RMK AO2 CIG 002V006
14837KMSN MSN20011216212009912/16/01 21:20:31  5-MIN KMSN 170320Z 00000KT 1 1/4SM BR OVC004 06/06 A2996 830 96 0 000/00 RMK AO2
14837KMSN MSN20011216212509912/16/01 21:25:31  5-MIN KMSN 170325Z 00000KT 1 1/4SM BR OVC004 06/06 A2996 820 96 0 000/00 RMK AO2
14837KMSN MSN20011216213009912/16/01 21:30:31  5-MIN KMSN 170330Z 00000KT 1 1/4SM BR OVC004 06/06 A2996 830 96 0 000/00 RMK AO2
14837KMSN MSN20011216213509912/16/01 21:35:31  5-MIN KMSN 170335Z 00000KT 1 1/4SM BR OVC004 06/06 A2996 820 96 0 000/00 RMK AO2
14837KMSN MSN20011216214009912/16/01 21:40:31  5-MIN KMSN 170340Z 00000KT 1 1/4SM BR OVC004 06/06 A2996 830 96 0 000/00 RMK AO2
14837KMSN MSN20011216214509912/16/01 21:45:31  5-MIN KMSN 170345Z 00000KT 1 1/4SM BR OVC004 06/06 A2996 820 96 0 000/00 RMK AO2
14837KMSN MSN20011216215011612/16/01 21:50:31  5-MIN KMSN 170350Z 20003KT 1 1/4SM BR OVC004 06/06 A2997 820 96 0 190/03 RMK AO2 SLP154 T00610056
14837KMSN MSN20011216215509912/16/01 21:55:31  5-MIN KMSN 170355Z 20004KT 1 1/4SM BR OVC004 06/06 A2997 820 96 0 200/04 RMK AO2
14837KMSN MSN20011216220009912/16/01 22:00:31  5-MIN KMSN 170400Z 18004KT 1 1/4SM BR OVC004 06/06 A2996 830 96 0 170/04 RMK AO2
14837KMSN MSN20011216220509912/16/01 22:05:31  5-MIN KMSN 170405Z 17006KT 1 1/4SM BR OVC004 06/06 A2996 830 96 0 170/06 RMK AO2
14837KMSN MSN20011216221009912/16/01 22:10:31  5-MIN KMSN 170410Z 00000KT 1 1/4SM BR OVC004 06/06 A2995 840 96 0 000/00 RMK AO2
14837KMSN MSN20011216221509912/16/01 22:15:31  5-MIN KMSN 170415Z 00000KT 1 1/4SM BR OVC004 06/06 A2995 840 96 0 000/00 RMK AO2
14837KMSN MSN20011216222009912/16/01 22:20:31  5-MIN KMSN 170420Z 00000KT 1 1/4SM BR OVC004 06/06 A2995 840 96 0 000/00 RMK AO2
14837KMSN MSN20011216222511112/16/01 22:25:31  5-MIN KMSN 170425Z 00000KT 1 1/4SM BR OVC004 06/06 A2995 840 96 0 000/00 RMK AO2 CIG 002V006
14837KMSN MSN20011216223011112/16/01 22:30:31  5-MIN KMSN 170430Z 00000KT 1 1/4SM BR OVC004 06/06 A2995 840 96 0 000/00 RMK AO2 CIG 002V006
14837KMSN MSN20011216223511112/16/01 22:35:31  5-MIN KMSN 170435Z 00000KT 1 1/4SM BR OVC004 06/06 A2995 840 96 0 000/00 RMK AO2 CIG 002V006
14837KMSN MSN20011216224011812/16/01 22:40:31  5-MIN KMSN 170440Z VRB03KT 1 1/4SM BR BKN004 OVC021 06/06 A2995 830 96 0 VRB/03 RMK AO2 CIG 002V006
14837KMSN MSN20011216224510612/16/01 22:45:31  5-MIN KMSN 170445Z 27004KT 1 1/4SM BR SCT004 OVC021 06/06 A2995 830 96 0 270/04 RMK AO2
14837KMSN MSN20011216225014012/16/01 22:50:31  5-MIN KMSN 170450Z 28003KT 1 1/4SM BR SCT004 SCT014 OVC021 06/06 A2995 840 96 0 280/03 RMK AO2 SFC VIS 2 SLP146 T00610056
14837KMSN MSN20011216225512312/16/01 22:55:31  5-MIN KMSN 170455Z 29003KT 1 1/4SM BR FEW004 SCT014 OVC021 06/05 A2994 840 93 0 290/03 RMK AO2 SFC VIS 2
14837KMSN MSN20011216230012312/16/01 23:00:31  5-MIN KMSN 170500Z 28005KT 1 1/4SM BR FEW004 BKN015 OVC021 06/05 A2994 840 93 0 280/05 RMK AO2 SFC VIS 3
14837KMSN MSN20011216230511612/16/01 23:05:31  5-MIN KMSN 170505Z 29005KT 1 1/4SM BR BKN015 OVC021 06/05 A2994 850 93 0 280/05 RMK AO2 SFC VIS 3
14837KMSN MSN20011216231010212/16/01 23:10:31  5-MIN KMSN 170510Z 28005KT 3SM BR BKN012 OVC021 06/05 A2994 840 93 0 280/05 RMK AO2
14837KMSN MSN20011216231510212/16/01 23:15:31  5-MIN KMSN 170515Z 28005KT 3SM BR BKN012 OVC019 06/05 A2994 840 93 0 280/05 RMK AO2
14837KMSN MSN20011216232010212/16/01 23:20:31  5-MIN KMSN 170520Z VRB05KT 3SM BR BKN012 OVC019 06/05 A2994 850 93 0 VRB/05 RMK AO2
14837KMSN MSN20011216232511412/16/01 23:25:31  5-MIN KMSN 170525Z 27004KT 4SM BR BKN010 OVC014 06/05 A2994 850 93 0 270/04 RMK AO2 CIG 008V012
14837KMSN MSN20011216233010712/16/01 23:30:31  5-MIN KMSN 170530Z VRB05KT 4SM BR OVC009 06/06 A2994 850 96 0 VRB/05 RMK AO2 CIG 005V014
14837KMSN MSN20011216233510712/16/01 23:35:31  5-MIN KMSN 170535Z VRB03KT 4SM BR OVC009 06/06 A2993 860 96 0 VRB/03 RMK AO2 CIG 004V012
14837KMSN MSN20011216234011412/16/01 23:40:31  5-MIN KMSN 170540Z 25003KT 4SM BR BKN006 OVC009 06/06 A2992 860 96 0 250/03 RMK AO2 CIG 004V009
14837KMSN MSN20011216234511412/16/01 23:45:31  5-MIN KMSN 170545Z VRB03KT 4SM BR BKN006 OVC009 06/06 A2992 860 96 0 VRB/03 RMK AO2 CIG 004V008
14837KMSN MSN20011216235016512/16/01 23:50:31  5-MIN KMSN 170550Z 27004KT 4SM BR BKN004 OVC009 06/06 A2993 860 96 0 260/04 RMK AO2 CIG 003V007 SLP140 60000 T00610056 10061 20061 400670028 58007
14837KMSN MSN20011216235510712/16/01 23:55:31  5-MIN KMSN 170555Z 25003KT 3SM BR OVC004 06/06 A2994 850 96 0 250/03 RMK AO2 CIG 003V008
14837KMSN MSN20011217000009512/17/01 00:00:31  5-MIN KMSN 170600Z 26004KT 3SM BR OVC004 06/06 A2994 850 96 0 260/04 RMK AO2
14837KMSN MSN20011217000509512/17/01 00:05:31  5-MIN KMSN 170605Z VRB03KT 3SM BR OVC004 06/06 A2994 850 96 0 VRB/03 RMK AO2
14837KMSN MSN20011217001010712/17/01 00:10:31  5-MIN KMSN 170610Z 26004KT 3SM BR OVC004 06/06 A2993 850 96 0 260/04 RMK AO2 CIG 003V008
14837KMSN MSN20011217001510712/17/01 00:15:31  5-MIN KMSN 170615Z VRB03KT 3SM BR OVC004 06/06 A2993 860 96 0 VRB/03 RMK AO2 CIG 003V007
14837KMSN MSN20011217002010712/17/01 00:20:31  5-MIN KMSN 170620Z 30003KT 3SM BR OVC004 06/06 A2992 860 96 0 300/03 RMK AO2 CIG 003V008
14837KMSN MSN20011217002510712/17/01 00:25:31  5-MIN KMSN 170625Z VRB03KT 3SM BR OVC006 06/06 A2992 870 96 0 VRB/03 RMK AO2 CIG 003V008
14837KMSN MSN20011217003011412/17/01 00:30:31  5-MIN KMSN 170630Z 29003KT 3SM BR BKN006 OVC010 06/06 A2992 870 96 0 290/03 RMK AO2 CIG 003V008
14837KMSN MSN20011217003510712/17/01 00:35:31  5-MIN KMSN 170635Z 29003KT 3SM BR OVC006 06/06 A2992 870 96 0 290/03 RMK AO2 CIG 003V011
14837KMSN MSN20011217004010712/17/01 00:40:31  5-MIN KMSN 170640Z VRB03KT 3SM BR OVC006 06/06 A2991 870 96 0 VRB/03 RMK AO2 CIG 003V011
14837KMSN MSN20011217004511612/17/01 00:45:31  5-MIN KMSN 170645Z 29004KT 3SM BR BKN006 OVC009 06/06 A2991 870 96 100 290/04 RMK AO2 CIG 002V008
14837KMSN MSN20011217005012412/17/01 00:50:31  5-MIN KMSN 170650Z 28004KT 2 1/2SM BR BKN004 OVC009 06/06 A2991 870 100 0 280/04 RMK AO2 SLP135 T00610061
14837KMSN MSN20011217005510712/17/01 00:55:31  5-MIN KMSN 170655Z 27003KT 2 1/2SM BR BKN002 OVC007 06/06 A2992 870 100 0 270/03 RMK AO2
14837KMSN MSN20011217010010712/17/01 01:00:31  5-MIN KMSN 170700Z 00000KT 2 1/2SM BR BKN002 OVC006 06/06 A2992 870 100 0 000/00 RMK AO2
14837KMSN MSN20011217010511212/17/01 01:05:31  5-MIN KMSN 170705Z VRB03KT 2 1/2SM BR OVC002 06/06 A2991 870 100 0 VRB/03 RMK AO2 CIG 001V006
14837KMSN MSN20011217011011212/17/01 01:10:31  5-MIN KMSN 170710Z 00000KT 2 1/2SM BR OVC002 06/06 A2992 870 100 0 000/00 RMK AO2 CIG 001V006
14837KMSN MSN20011217011511212/17/01 01:15:31  5-MIN KMSN 170715Z 00000KT 2 1/2SM BR OVC002 06/06 A2992 870 100 0 000/00 RMK AO2 CIG 001V006
14837KMSN MSN20011217012011912/17/01 01:20:31  5-MIN KMSN 170720Z 28004KT 2 1/2SM BR BKN002 OVC021 06/06 A2992 860 100 0 280/04 RMK AO2 CIG 001V006
14837KMSN MSN20011217012511912/17/01 01:25:31  5-MIN KMSN 170725Z 28003KT 2 1/2SM BR BKN002 OVC021 06/06 A2992 870 100 0 280/03 RMK AO2 CIG 001V006
14837KMSN MSN20011217013011212/17/01 01:30:31  5-MIN KMSN 170730Z 28003KT 2 1/2SM BR OVC002 06/06 A2992 860 100 0 280/03 RMK AO2 CIG 001V006
14837KMSN MSN20011217013510012/17/01 01:35:31  5-MIN KMSN 170735Z 00000KT 2 1/2SM BR OVC002 06/06 A2992 870 100 0 000/00 RMK AO2
14837KMSN MSN20011217014010212/17/01 01:40:31  5-MIN KMSN 170740Z 29003KT 2 1/2SM BR OVC002 06/06 A2991 870 100 100 290/03 RMK AO2
14837KMSN MSN20011217014510012/17/01 01:45:31  5-MIN KMSN 170745Z 00000KT 2 1/2SM BR OVC002 06/06 A2991 870 100 0 000/00 RMK AO2
14837KMSN MSN20011217015011912/17/01 01:50:31  5-MIN KMSN 170750Z 28003KT 2 1/2SM BR OVC002 06/06 A2991 870 100 100 280/03 RMK AO2 SLP134 T00610061
14837KMSN MSN20011217015509612/17/01 01:55:31  5-MIN KMSN 170755Z 00000KT 2SM HZ OVC002 06/M02 A2991 870 57 0 000/00 RMK AO2
14837KMSN MSN20011217020009812/17/01 02:00:31  5-MIN KMSN 170800Z 00000KT 2SM HZ OVC002 06/M02 A2991 870 55 100 000/00 RMK AO2
14837KMSN MSN20011217020511012/17/01 02:05:31  5-MIN KMSN 170805Z 00000KT 2SM HZ OVC002 06/M02 A2991 880 57 100 000/00 RMK AO2 CIG 002V006
14837KMSN MSN20011217021011012/17/01 02:10:31  5-MIN KMSN 170810Z 00000KT 2SM HZ OVC002 06/M02 A2990 880 57 100 000/00 RMK AO2 CIG 002V006
14837KMSN MSN20011217021510812/17/01 02:15:31  5-MIN KMSN 170815Z 28003KT 2SM HZ OVC002 06/M02 A2991 870 55 0 280/03 RMK AO2 CIG 002V007
14837KMSN MSN20011217022011012/17/01 02:20:31  5-MIN KMSN 170820Z 29003KT 2SM HZ OVC002 06/M03 A2991 880 53 100 290/03 RMK AO2 CIG 002V007
14837KMSN MSN20011217022511012/17/01 02:25:31  5-MIN KMSN 170825Z 29003KT 2SM HZ OVC002 06/M03 A2991 870 53 100 290/03 RMK AO2 CIG 002V007
14837KMSN MSN20011217023011012/17/01 02:30:31  5-MIN KMSN 170830Z 29003KT 2SM BR OVC002 06/M02 A2991 870 55 100 290/03 RMK AO2 CIG 002V007
14837KMSN MSN20011217023511712/17/01 02:35:31  5-MIN KMSN 170835Z 29004KT 2SM BR BKN002 OVC026 06/06 A2991 880 100 100 290/04 RMK AO2 CIG 002V007
14837KMSN MSN20011217024010512/17/01 02:40:31  5-MIN KMSN 170840Z 30003KT 2SM BR BKN002 OVC026 06/06 A2991 880 100 100 290/03 RMK AO2
14837KMSN MSN20011217024510512/17/01 02:45:31  5-MIN KMSN 170845Z 31004KT 2SM BR BKN002 OVC026 06/06 A2990 880 100 100 310/04 RMK AO2
14837KMSN MSN20011217025012612/17/01 02:50:31  5-MIN KMSN 170850Z 31004KT 2SM BR SCT002 OVC028 06/06 A2990 880 100 0 310/04 RMK AO2 SLP130 T00560056 58014
14837KMSN MSN20011217025510312/17/01 02:55:31  5-MIN KMSN 170855Z 30004KT 2SM BR FEW002 OVC028 06/06 A2989 890 100 0 300/04 RMK AO2
14837KMSN MSN20011217030011012/17/01 03:00:31  5-MIN KMSN 170900Z 29003KT 2SM BR FEW002 BKN026 OVC032 06/06 A2989 890 100 0 290/03 RMK AO2
14837KMSN MSN20011217030510312/17/01 03:05:31  5-MIN KMSN 170905Z 31004KT 2SM BR BKN026 OVC032 06/06 A2989 900 100 0 310/04 RMK AO2
14837KMSN MSN20011217031010312/17/01 03:10:31  5-MIN KMSN 170910Z 31003KT 2SM BR BKN026 OVC032 06/06 A2988 900 100 0 310/03 RMK AO2
14837KMSN MSN20011217031510312/17/01 03:15:31  5-MIN KMSN 170915Z 00000KT 2SM BR FEW002 OVC026 06/06 A2989 900 100 0 000/00 RMK AO2
14837KMSN MSN20011217032010312/17/01 03:20:31  5-MIN KMSN 170920Z 00000KT 2SM BR FEW002 OVC026 06/06 A2988 900 100 0 000/00 RMK AO2
14837KMSN MSN20011217032510312/17/01 03:25:31  5-MIN KMSN 170925Z 00000KT 2SM BR FEW002 OVC026 06/06 A2988 900 100 0 000/00 RMK AO2
14837KMSN MSN20011217033010312/17/01 03:30:31  5-MIN KMSN 170930Z 29003KT 2SM BR FEW002 OVC026 06/06 A2988 900 100 0 290/03 RMK AO2
14837KMSN MSN20011217033510312/17/01 03:35:31  5-MIN KMSN 170935Z 00000KT 2SM BR FEW002 OVC028 06/06 A2987 910 100 0 000/00 RMK AO2
14837KMSN MSN20011217034010312/17/01 03:40:31  5-MIN KMSN 170940Z 00000KT 2SM BR FEW002 OVC028 06/06 A2987 910 100 0 000/00 RMK AO2
14837KMSN MSN20011217034510312/17/01 03:45:31  5-MIN KMSN 170945Z 00000KT 2SM BR OVC028 06/06 A2986 920 100 0 000/00 RMK AO2 PRESFR
14837KMSN MSN20011217035012412/17/01 03:50:31  5-MIN KMSN 170950Z 30003KT 1 3/4SM BR FEW003 OVC028 05/05 A2985 930 100 0 300/03 RMK AO2 SLP115 T00500050
14837KMSN MSN20011217035510712/17/01 03:55:31  5-MIN KMSN 170955Z 00000KT 1 3/4SM BR SCT003 OVC028 05/05 A2985 930 100 0 000/00 RMK AO2
14837KMSN MSN20011217040010712/17/01 04:00:31  5-MIN KMSN 171000Z 00000KT 1 3/4SM BR BKN003 OVC028 05/05 A2986 920 100 0 000/00 RMK AO2
14837KMSN MSN20011217040510712/17/01 04:05:31  5-MIN KMSN 171005Z 00000KT 1 3/4SM BR BKN003 OVC028 05/05 A2986 920 100 0 000/00 RMK AO2
14837KMSN MSN20011217041010712/17/01 04:10:31  5-MIN KMSN 171010Z 00000KT 1 3/4SM BR BKN003 OVC028 05/05 A2986 920 100 0 000/00 RMK AO2
14837KMSN MSN20011217041510012/17/01 04:15:31  5-MIN KMSN 171015Z 00000KT 1 3/4SM BR OVC003 05/05 A2986 920 100 0 000/00 RMK AO2
14837KMSN MSN20011217042010012/17/01 04:20:31  5-MIN KMSN 171020Z 00000KT 1 3/4SM BR OVC003 05/05 A2986 920 100 0 000/00 RMK AO2
14837KMSN MSN20011217042509612/17/01 04:25:31  5-MIN KMSN 171025Z VRB03KT 1SM BR OVC003 05/05 A2986 920 100 0 VRB/03 RMK AO2
14837KMSN MSN20011217043009612/17/01 04:30:31  5-MIN KMSN 171030Z 30004KT 1SM BR OVC003 05/05 A2986 920 100 0 300/04 RMK AO2
14837KMSN MSN20011217043509612/17/01 04:35:31  5-MIN KMSN 171035Z 30003KT 1SM BR OVC001 05/05 A2986 920 100 0 290/03 RMK AO2
14837KMSN MSN20011217044009612/17/01 04:40:31  5-MIN KMSN 171040Z 29003KT 1SM BR OVC001 05/05 A2986 920 100 0 290/03 RMK AO2
14837KMSN MSN20011217044509612/17/01 04:45:31  5-MIN KMSN 171045Z 30005KT 1SM BR OVC001 05/05 A2986 920 100 0 300/05 RMK AO2
14837KMSN MSN20011217045011312/17/01 04:50:31  5-MIN KMSN 171050Z 31005KT 1SM BR OVC001 06/06 A2986 920 100 0 310/05 RMK AO2 SLP117 T00560056
14837KMSN MSN20011217045509612/17/01 04:55:31  5-MIN KMSN 171055Z 31003KT 1SM HZ OVC001 06/M03 A2986 920 53 0 310/03 RMK AO2
14837KMSN MSN20011217050009612/17/01 05:00:31  5-MIN KMSN 171100Z 30004KT 1SM BR OVC001 06/06 A2986 920 100 0 300/04 RMK AO2
14837KMSN MSN20011217050509812/17/01 05:05:31  5-MIN KMSN 171105Z 32003KT 1SM BR OVC001 06/06 A2985 930 100 100 320/03 RMK AO2
14837KMSN MSN20011217051009812/17/01 05:10:31  5-MIN KMSN 171110Z 32003KT 1SM BR OVC001 06/06 A2985 930 100 100 320/03 RMK AO2
14837KMSN MSN20011217051509812/17/01 05:15:31  5-MIN KMSN 171115Z 31004KT 1SM BR OVC001 06/06 A2985 930 100 100 310/04 RMK AO2
14837KMSN MSN20011217052009812/17/01 05:20:31  5-MIN KMSN 171120Z 31004KT 1SM BR OVC001 06/06 A2985 930 100 100 310/04 RMK AO2
14837KMSN MSN20011217052509812/17/01 05:25:31  5-MIN KMSN 171125Z 31005KT 1SM BR OVC001 06/06 A2985 930 100 100 310/05 RMK AO2
14837KMSN MSN20011217053010212/17/01 05:30:31  5-MIN KMSN 171130Z 31004KT 1 3/4SM BR OVC001 06/06 A2985 930 100 100 310/04 RMK AO2
14837KMSN MSN20011217053510912/17/01 05:35:31  5-MIN KMSN 171135Z 32005KT 1 3/4SM BR BKN001 OVC020 06/06 A2985 930 100 100 320/05 RMK AO2
14837KMSN MSN20011217054010912/17/01 05:40:31  5-MIN KMSN 171140Z 32004KT 1 3/4SM BR BKN001 OVC020 06/06 A2985 930 100 100 310/04 RMK AO2
14837KMSN MSN20011217054510912/17/01 05:45:31  5-MIN KMSN 171145Z 32004KT 1 3/4SM BR SCT001 OVC018 06/06 A2985 930 100 100 320/04 RMK AO2
14837KMSN MSN20011217055014512/17/01 05:50:31  5-MIN KMSN 171150Z 32004KT 3SM BR FEW001 OVC018 06/05 A2985 930 93 100 320/04 RMK AO2 SLP112 70003 T00610050 10061 20050 56013
14837KMSN MSN20011217055510512/17/01 05:55:31  5-MIN KMSN 171155Z 32004KT 5SM HZ FEW001 OVC018 06/M01 A2985 930 65 100 320/04 RMK AO2
14837KMSN MSN20011217060010512/17/01 06:00:31  5-MIN KMSN 171200Z 33006KT 6SM HZ FEW006 OVC018 06/M01 A2985 930 65 100 330/06 RMK AO2
14837KMSN MSN20011217060510512/17/01 06:05:31  5-MIN KMSN 171205Z 33009KT 5SM HZ SCT006 OVC018 06/M01 A2985 930 65 100 330/09 RMK AO2
14837KMSN MSN20011217061011412/17/01 06:10:31  5-MIN KMSN 171210Z 33010KT 3SM BR BKN006 OVC018 06/05 A2986 920 96 0 320/10 RMK AO2 CIG 003V009
14837KMSN MSN20011217061510212/17/01 06:15:31  5-MIN KMSN 171215Z 34010KT 3SM BR BKN005 OVC018 06/05 A2986 920 96 0 330/10 RMK AO2
14837KMSN MSN20011217062010212/17/01 06:20:31  5-MIN KMSN 171220Z 33008KT 3SM BR BKN005 OVC018 06/05 A2986 920 96 0 330/08 RMK AO2
14837KMSN MSN20011217062511212/17/01 06:25:31  5-MIN KMSN 171225Z 33009KT 2SM BR BKN005 OVC018 06/05 A2986 920 96 0 330/09 RMK AO2 SFC VIS 3
14837KMSN MSN20011217063010012/17/01 06:30:31  5-MIN KMSN 171230Z 34010KT 1 3/4SM BR OVC003 04/04 A2985 930 100 0 340/10 RMK AO2
14837KMSN MSN20011217063511212/17/01 06:35:31  5-MIN KMSN 171235Z 33007KT 1 3/4SM BR OVC003 04/04 A2985 930 100 0 330/07 RMK AO2 CIG 002V006
14837KMSN MSN20011217064011212/17/01 06:40:31  5-MIN KMSN 171240Z 33008KT 1 3/4SM BR OVC003 04/04 A2986 920 100 0 330/08 RMK AO2 CIG 002V006
14837KMSN MSN20011217064510012/17/01 06:45:31  5-MIN KMSN 171245Z 34008KT 1 3/4SM BR OVC003 04/04 A2985 930 100 0 340/08 RMK AO2
14837KMSN MSN20011217065011712/17/01 06:50:31  5-MIN KMSN 171250Z 33006KT 1 3/4SM BR OVC003 04/04 A2985 930 100 0 330/06 RMK AO2 SLP114 T00440044
14837KMSN MSN20011217065509912/17/01 06:55:31  5-MIN KMSN 171255Z 33007KT 3SM HZ OVC003 04/M01 A2985 930 73 -100 330/07 RMK AO2
14837KMSN MSN20011217070010512/17/01 07:00:31  5-MIN KMSN 171300Z 33006KT 2SM BR OVC003 04/03 A2985 930 92 0 330/06 RMK AO2 TWR VIS 3
14837KMSN MSN20011217070510512/17/01 07:05:31  5-MIN KMSN 171305Z VRB04KT 2SM BR OVC003 04/03 A2986 920 92 0 VRB/04 RMK AO2 TWR VIS 3
14837KMSN MSN20011217071010512/17/01 07:10:31  5-MIN KMSN 171310Z 33005KT 2SM BR OVC003 04/03 A2986 920 92 0 330/05 RMK AO2 TWR VIS 3
14837KMSN MSN20011217071510512/17/01 07:15:31  5-MIN KMSN 171315Z 32007KT 2SM BR OVC003 04/03 A2985 930 92 0 320/07 RMK AO2 TWR VIS 3
14837KMSN MSN20011217072009512/17/01 07:20:31  5-MIN KMSN 171320Z 31006KT 2SM BR OVC003 04/03 A2985 930 92 0 310/06 RMK AO2
14837KMSN MSN20011217072510712/17/01 07:25:31  5-MIN KMSN 171325Z 32007KT 2SM BR OVC003 04/03 A2985 930 92 0 320/07 RMK AO2 CIG 003V006
14837KMSN MSN20011217073009512/17/01 07:30:31  5-MIN KMSN 171330Z 33006KT 2SM BR OVC003 04/03 A2985 930 92 0 330/06 RMK AO2
14837KMSN MSN20011217073511612/17/01 07:35:31  5-MIN KMSN 171335Z 33005KT 1 1/4SM BR OVC005 03/03 A2986 920 96 -200 330/05 RMK AO2 TWR VIS 1 1/2
14837KMSN MSN20011217074011612/17/01 07:40:31  5-MIN KMSN 171340Z VRB03KT 1 1/4SM BR OVC005 03/03 A2986 920 96 -200 VRB/03 RMK AO2 TWR VIS 1 1/2
14837KMSN MSN20011217074511612/17/01 07:45:31  5-MIN KMSN 171345Z 34005KT 1 1/4SM BR OVC005 03/03 A2986 920 96 -200 340/05 RMK AO2 TWR VIS 1 1/2
14837KMSN MSN20011217075013312/17/01 07:50:31  5-MIN KMSN 171350Z 34005KT 1 1/2SM BR OVC005 04/03 A2985 930 92 -100 340/05 RMK AO2 SFC VIS 2 1/2 SLP116 T00390028
14837KMSN MSN20011217075511212/17/01 07:55:31  5-MIN KMSN 171355Z 35007KT 1 1/4SM BR OVC005 04/03 A2985 930 92 -100 350/07 RMK AO2 SFC VIS 2
14837KMSN MSN20011217080011212/17/01 08:00:31  5-MIN KMSN 171400Z 34006KT 1 1/4SM BR OVC005 04/03 A2985 930 92 -100 340/06 RMK AO2 SFC VIS 2
14837KMSN MSN20011217080511212/17/01 08:05:31  5-MIN KMSN 171405Z 34006KT 1 1/4SM BR OVC005 04/03 A2985 930 92 -100 340/06 RMK AO2 SFC VIS 2
14837KMSN MSN20011217081011612/17/01 08:10:31  5-MIN KMSN 171410Z 35006KT 1 1/4SM BR OVC005 04/03 A2985 930 92 -100 340/06 RMK AO2 SFC VIS 1 1/2
14837KMSN MSN20011217081510212/17/01 08:15:31  5-MIN KMSN 171415Z 33005KT 1 1/4SM BR OVC005 04/03 A2985 930 92 -100 330/05 RMK AO2
14837KMSN MSN20011217082010212/17/01 08:20:31  5-MIN KMSN 171420Z 34005KT 1 1/4SM BR OVC005 04/03 A2985 930 92 -100 340/05 RMK AO2
14837KMSN MSN20011217082510212/17/01 08:25:31  5-MIN KMSN 171425Z 33006KT 1 1/4SM BR OVC005 04/03 A2985 930 92 -100 330/06 RMK AO2
14837KMSN MSN20011217083010212/17/01 08:30:31  5-MIN KMSN 171430Z 34005KT 1 1/4SM BR OVC005 04/03 A2985 930 92 -100 340/05 RMK AO2
14837KMSN MSN20011217083510212/17/01 08:35:31  5-MIN KMSN 171435Z 34005KT 1 1/4SM BR OVC005 04/03 A2985 930 92 -100 340/05 RMK AO2
14837KMSN MSN20011217084010212/17/01 08:40:31  5-MIN KMSN 171440Z 32005KT 1 1/4SM BR OVC005 04/03 A2985 930 92 -100 320/05 RMK AO2
14837KMSN MSN20011217084510212/17/01 08:45:31  5-MIN KMSN 171445Z 31007KT 1 1/4SM BR OVC005 04/03 A2985 930 92 -100 310/07 RMK AO2
14837KMSN MSN20011217085012512/17/01 08:50:31  5-MIN KMSN 171450Z 32004KT 1 1/4SM BR OVC005 04/03 A2984 930 92 -100 310/04 RMK AO2 SLP113 T00390028 56015
14837KMSN MSN20011217085511212/17/01 08:55:31  5-MIN KMSN 171455Z 32006KT 2 1/2SM BR OVC007 04/03 A2984 930 92 -100 320/06 RMK AO2 TWR VIS 3
14837KMSN MSN20011217090011212/17/01 09:00:31  5-MIN KMSN 171500Z 31006KT 2 1/2SM BR OVC007 04/03 A2984 940 92 -100 310/06 RMK AO2 TWR VIS 3
14837KMSN MSN20011217090511212/17/01 09:05:31  5-MIN KMSN 171505Z 32006KT 2 1/2SM BR OVC007 04/03 A2984 940 92 -100 320/06 RMK AO2 TWR VIS 3
14837KMSN MSN20011217091011212/17/01 09:10:31  5-MIN KMSN 171510Z 32006KT 2 1/2SM BR OVC007 04/03 A2984 940 92 -100 320/06 RMK AO2 TWR VIS 3
14837KMSN MSN20011217091511212/17/01 09:15:31  5-MIN KMSN 171515Z 34004KT 2 1/2SM BR OVC007 04/03 A2984 940 92 -100 340/04 RMK AO2 TWR VIS 3
14837KMSN MSN20011217092011212/17/01 09:20:31  5-MIN KMSN 171520Z 35007KT 2 1/2SM BR OVC007 04/03 A2984 940 92 -100 350/07 RMK AO2 TWR VIS 3
14837KMSN MSN20011217092511212/17/01 09:25:31  5-MIN KMSN 171525Z 33005KT 2 1/2SM BR OVC007 04/03 A2984 940 92 -100 330/05 RMK AO2 TWR VIS 3
14837KMSN MSN20011217093009812/17/01 09:30:31  5-MIN KMSN 171530Z 33006KT 3SM BR OVC007 04/03 A2984 940 92 -100 330/06 RMK AO2
14837KMSN MSN20011217093509812/17/01 09:35:31  5-MIN KMSN 171535Z 32005KT 3SM BR OVC007 04/03 A2984 940 92 -100 320/05 RMK AO2
14837KMSN MSN20011217094009812/17/01 09:40:31  5-MIN KMSN 171540Z 34007KT 3SM BR OVC007 04/03 A2985 930 92 -100 330/07 RMK AO2
14837KMSN MSN20011217094509812/17/01 09:45:31  5-MIN KMSN 171545Z 34007KT 3SM BR OVC007 04/03 A2985 930 92 -100 330/07 RMK AO2
14837KMSN MSN20011217095011512/17/01 09:50:31  5-MIN KMSN 171550Z 33008KT 3SM BR OVC007 04/03 A2986 920 92 -100 330/08 RMK AO2 SLP116 T00390028
14837KMSN MSN20011217095510812/17/01 09:55:31  5-MIN KMSN 171555Z 34008KT 3SM BR OVC007 04/03 A2985 930 92 -100 340/08 RMK AO2 SFC VIS 4
14837KMSN MSN20011217100009812/17/01 10:00:31  5-MIN KMSN 171600Z 32008KT 3SM BR OVC007 04/03 A2985 930 92 -100 320/08 RMK AO2
14837KMSN MSN20011217100509812/17/01 10:05:31  5-MIN KMSN 171605Z 33009KT 3SM BR OVC007 04/03 A2985 930 92 -100 320/09 RMK AO2
14837KMSN MSN20011217101009812/17/01 10:10:31  5-MIN KMSN 171610Z 32008KT 3SM BR OVC005 04/03 A2985 930 92 -100 320/08 RMK AO2
14837KMSN MSN20011217101509812/17/01 10:15:31  5-MIN KMSN 171615Z 33008KT 3SM BR OVC005 04/03 A2986 920 92 -100 330/08 RMK AO2
14837KMSN MSN20011217102009812/17/01 10:20:31  5-MIN KMSN 171620Z 32009KT 3SM BR OVC005 04/03 A2985 930 92 -100 320/09 RMK AO2
14837KMSN MSN20011217102509812/17/01 10:25:31  5-MIN KMSN 171625Z 33008KT 3SM BR OVC005 04/03 A2985 930 92 -100 330/08 RMK AO2
14837KMSN MSN20011217103009812/17/01 10:30:31  5-MIN KMSN 171630Z 31008KT 3SM BR OVC005 04/03 A2985 930 92 -100 310/08 RMK AO2
14837KMSN MSN20011217103509812/17/01 10:35:31  5-MIN KMSN 171635Z 33006KT 3SM BR OVC005 04/03 A2985 930 92 -100 330/06 RMK AO2
14837KMSN MSN20011217104009812/17/01 10:40:31  5-MIN KMSN 171640Z 33007KT 3SM BR OVC005 04/03 A2985 930 92 -100 330/07 RMK AO2
14837KMSN MSN20011217104509812/17/01 10:45:31  5-MIN KMSN 171645Z 33007KT 3SM BR OVC005 03/02 A2985 930 92 -200 330/07 RMK AO2
14837KMSN MSN20011217105011512/17/01 10:50:31  5-MIN KMSN 171650Z 33006KT 3SM BR OVC005 03/02 A2984 930 92 -200 330/06 RMK AO2 SLP112 T00330022
14837KMSN MSN20011217105510812/17/01 10:55:31  5-MIN KMSN 171655Z 34006KT 3SM BR OVC005 02/00 A2984 940 89 -400 340/06 RMK AO2 SFC VIS 4
14837KMSN MSN20011217110009812/17/01 11:00:31  5-MIN KMSN 171700Z 33008KT 3SM BR OVC005 03/02 A2984 940 96 -200 330/08 RMK AO2
14837KMSN MSN20011217110509812/17/01 11:05:31  5-MIN KMSN 171705Z 34006KT 3SM BR OVC005 03/02 A2984 940 96 -200 340/06 RMK AO2
14837KMSN MSN20011217111009812/17/01 11:10:31  5-MIN KMSN 171710Z 33006KT 3SM BR OVC005 03/02 A2984 940 96 -200 330/06 RMK AO2
14837KMSN MSN20011217111509812/17/01 11:15:31  5-MIN KMSN 171715Z 32008KT 3SM BR OVC005 03/02 A2984 940 96 -200 320/08 RMK AO2
14837KMSN MSN20011217112009812/17/01 11:20:31  5-MIN KMSN 171720Z 30007KT 3SM BR OVC005 03/02 A2984 940 96 -200 300/07 RMK AO2
14837KMSN MSN20011217112509812/17/01 11:25:31  5-MIN KMSN 171725Z 30007KT 3SM BR OVC005 03/02 A2984 940 96 -200 300/07 RMK AO2
14837KMSN MSN20011217113009812/17/01 11:30:31  5-MIN KMSN 171730Z 33005KT 3SM BR OVC005 03/02 A2983 950 96 -200 330/05 RMK AO2
14837KMSN MSN20011217113509812/17/01 11:35:31  5-MIN KMSN 171735Z 35006KT 3SM BR OVC005 03/02 A2983 950 96 -200 340/06 RMK AO2
14837KMSN MSN20011217114009812/17/01 11:40:31  5-MIN KMSN 171740Z 35005KT 3SM BR OVC005 02/01 A2982 960 92 -300 350/05 RMK AO2
14837KMSN MSN20011217114509812/17/01 11:45:31  5-MIN KMSN 171745Z 33005KT 3SM BR OVC005 02/01 A2982 960 92 -300 330/05 RMK AO2
14837KMSN MSN20011217115013312/17/01 11:50:31  5-MIN KMSN 171750Z 34008KT 3SM BR OVC005 02/01 A2982 960 92 -300 340/08 RMK AO2 SLP103 T00220011 10056 20017 58001
14837KMSN MSN20011217115510812/17/01 11:55:31  5-MIN KMSN 171755Z VRB04KT 3SM BR OVC005 02/00 A2981 960 89 -300 VRB/04 RMK AO2 SFC VIS 3
14837KMSN MSN20011217120010812/17/01 12:00:31  5-MIN KMSN 171800Z 35005KT 3SM BR OVC005 02/00 A2981 970 89 -300 350/05 RMK AO2 SFC VIS 3
14837KMSN MSN20011217120510812/17/01 12:05:31  5-MIN KMSN 171805Z 33006KT 3SM BR OVC005 03/02 A2981 960 92 -200 330/06 RMK AO2 SFC VIS 3
14837KMSN MSN20011217121010812/17/01 12:10:31  5-MIN KMSN 171810Z 31006KT 3SM BR OVC005 03/02 A2981 970 92 -200 310/06 RMK AO2 SFC VIS 3
14837KMSN MSN20011217121510812/17/01 12:15:31  5-MIN KMSN 171815Z 30005KT 3SM BR OVC005 03/02 A2980 970 92 -200 300/05 RMK AO2 SFC VIS 3
14837KMSN MSN20011217122010812/17/01 12:20:31  5-MIN KMSN 171820Z 32006KT 3SM BR OVC005 03/02 A2980 970 92 -200 310/06 RMK AO2 SFC VIS 3
14837KMSN MSN20011217122510812/17/01 12:25:31  5-MIN KMSN 171825Z 29006KT 3SM BR OVC005 03/02 A2980 980 92 -200 290/06 RMK AO2 SFC VIS 4
14837KMSN MSN20011217123010812/17/01 12:30:31  5-MIN KMSN 171830Z 29006KT 3SM BR OVC005 03/02 A2980 970 92 -200 290/06 RMK AO2 SFC VIS 4
14837KMSN MSN20011217123512012/17/01 12:35:31  5-MIN KMSN 171835Z 28007KT 3SM BR OVC007 03/02 A2980 970 92 -200 280/07 RMK AO2 SFC VIS 4 CIG 005V008
14837KMSN MSN20011217124012012/17/01 12:40:31  5-MIN KMSN 171840Z 29005KT 3SM BR OVC007 03/02 A2980 980 92 -200 290/05 RMK AO2 SFC VIS 5 CIG 005V010
14837KMSN MSN20011217124512012/17/01 12:45:31  5-MIN KMSN 171845Z 31006KT 3SM BR OVC007 03/02 A2980 980 92 -200 310/06 RMK AO2 SFC VIS 5 CIG 005V010
14837KMSN MSN20011217125012812/17/01 12:50:31  5-MIN KMSN 171850Z 30007KT 4SM HZ OVC007 02/M00 A2980 980 82 -200 300/07 RMK AO2 CIG 006V011 SLP096 T00221005
14837KMSN MSN20011217125511112/17/01 12:55:31  5-MIN KMSN 171855Z 30008KT 6SM HZ OVC009 02/M01 A2980 980 82 -200 300/08 RMK AO2 CIG 007V011
14837KMSN MSN20011217130012712/17/01 13:00:31  5-MIN KMSN 171900Z 32008KT 280V340 6SM HZ OVC009 02/M01 A2980 980 82 -200 310/08 280V340 RMK AO2 CIG 007V012
14837KMSN MSN20011217130509912/17/01 13:05:31  5-MIN KMSN 171905Z 31008KT 6SM HZ OVC011 02/M01 A2980 980 82 -200 310/08 RMK AO2
14837KMSN MSN20011217131009912/17/01 13:10:31  5-MIN KMSN 171910Z 32008KT 6SM BR BKN011 02/M01 A2979 980 85 -300 320/08 RMK AO2
14837KMSN MSN20011217131509912/17/01 13:15:31  5-MIN KMSN 171915Z 32007KT 6SM HZ BKN011 02/M01 A2979 980 82 -200 320/07 RMK AO2
14837KMSN MSN20011217132009912/17/01 13:20:31  5-MIN KMSN 171920Z 31009KT 6SM BR BKN011 02/M01 A2979 980 85 -300 300/09 RMK AO2
14837KMSN MSN20011217132509912/17/01 13:25:31  5-MIN KMSN 171925Z 30009KT 6SM HZ BKN011 02/M01 A2979 980 82 -300 300/09 RMK AO2
14837KMSN MSN20011217133010712/17/01 13:30:31  5-MIN KMSN 171930Z 29007KT 6SM BR OVC011 02/M01 A2979 980 85 -300 290/07 RMK AO2 P0001 $
14837KMSN MSN20011217133510712/17/01 13:35:31  5-MIN KMSN 171935Z 31009KT 6SM BR OVC011 02/M01 A2979 980 85 -300 310/09 RMK AO2 P0001 $
14837KMSN MSN20011217134010512/17/01 13:40:31  5-MIN KMSN 171940Z VRB06KT 6SM HZ OVC011 02/M01 A2979 990 82 -300 VRB/06 RMK AO2 P0001
14837KMSN MSN20011217134510512/17/01 13:45:31  5-MIN KMSN 171945Z 33008KT 6SM HZ OVC013 02/M01 A2979 980 82 -300 330/08 RMK AO2 P0001
14837KMSN MSN20011217135011612/17/01 13:50:31  5-MIN KMSN 171950Z 31005KT 6SM HZ OVC013 02/M01 A2979 990 82 -300 310/05 RMK AO2 SLP095 T00171011
14837KMSN MSN20011217135509912/17/01 13:55:31  5-MIN KMSN 171955Z 32006KT 6SM HZ OVC013 02/M01 A2979 980 82 -300 320/06 RMK AO2
14837KMSN MSN20011217140009912/17/01 14:00:31  5-MIN KMSN 172000Z 34006KT 6SM HZ OVC013 02/M01 A2979 980 82 -300 330/06 RMK AO2
14837KMSN MSN20011217140509912/17/01 14:05:31  5-MIN KMSN 172005Z 33005KT 6SM HZ OVC013 02/M01 A2979 980 82 -300 330/05 RMK AO2
14837KMSN MSN20011217141009912/17/01 14:10:31  5-MIN KMSN 172010Z VRB06KT 6SM HZ OVC013 02/M01 A2979 980 82 -300 VRB/06 RMK AO2
14837KMSN MSN20011217141509912/17/01 14:15:31  5-MIN KMSN 172015Z 33008KT 6SM HZ OVC013 02/M01 A2979 980 82 -300 330/08 RMK AO2
14837KMSN MSN20011217142009912/17/01 14:20:31  5-MIN KMSN 172020Z 33007KT 6SM HZ OVC013 02/M01 A2979 980 82 -300 330/07 RMK AO2
14837KMSN MSN20011217142509912/17/01 14:25:31  5-MIN KMSN 172025Z VRB06KT 6SM HZ OVC013 02/M01 A2979 990 82 -300 VRB/06 RMK AO2
14837KMSN MSN20011217143009912/17/01 14:30:31  5-MIN KMSN 172030Z 32007KT 6SM HZ OVC013 02/M01 A2979 980 82 -300 320/07 RMK AO2
14837KMSN MSN20011217143509912/17/01 14:35:31  5-MIN KMSN 172035Z 30008KT 6SM HZ OVC013 02/M01 A2980 980 82 -300 300/08 RMK AO2
14837KMSN MSN20011217144009912/17/01 14:40:31  5-MIN KMSN 172040Z 31007KT 6SM HZ OVC013 02/M00 A2979 980 82 -200 310/07 RMK AO2
14837KMSN MSN20011217144509912/17/01 14:45:31  5-MIN KMSN 172045Z 31006KT 6SM HZ OVC013 02/M00 A2980 980 82 -200 310/06 RMK AO2
14837KMSN MSN20011217145012812/17/01 14:50:31  5-MIN KMSN 172050Z 32008KT 6SM HZ OVC013 02/M01 A2980 980 82 -300 320/08 RMK AO2 SLP098 60001 T00171011 58010
14837KMSN MSN20011217145509912/17/01 14:55:31  5-MIN KMSN 172055Z 31007KT 6SM HZ OVC013 02/M01 A2980 970 82 -300 310/07 RMK AO2
14837KMSN MSN20011217150009912/17/01 15:00:31  5-MIN KMSN 172100Z 30009KT 6SM HZ OVC013 02/M01 A2980 970 82 -300 300/09 RMK AO2
14837KMSN MSN20011217150509912/17/01 15:05:31  5-MIN KMSN 172105Z VRB06KT 6SM HZ OVC013 02/M02 A2980 970 78 -300 VRB/06 RMK AO2
14837KMSN MSN20011217151009912/17/01 15:10:31  5-MIN KMSN 172110Z 32008KT 6SM HZ OVC013 02/M02 A2980 980 78 -300 320/08 RMK AO2
14837KMSN MSN20011217151509912/17/01 15:15:31  5-MIN KMSN 172115Z 33006KT 6SM HZ OVC013 02/M01 A2980 980 82 -300 330/06 RMK AO2
14837KMSN MSN20011217152009912/17/01 15:20:31  5-MIN KMSN 172120Z 32008KT 6SM HZ OVC013 02/M01 A2980 980 82 -300 320/08 RMK AO2
14837KMSN MSN20011217152509912/17/01 15:25:31  5-MIN KMSN 172125Z 33007KT 6SM HZ OVC013 02/M01 A2980 980 82 -300 330/07 RMK AO2
14837KMSN MSN20011217153009912/17/01 15:30:31  5-MIN KMSN 172130Z 33006KT 6SM HZ OVC013 02/M01 A2980 980 82 -300 330/06 RMK AO2
14837KMSN MSN20011217153509912/17/01 15:35:31  5-MIN KMSN 172135Z 32005KT 6SM HZ OVC013 02/M01 A2980 980 82 -300 320/05 RMK AO2
14837KMSN MSN20011217154009912/17/01 15:40:31  5-MIN KMSN 172140Z 32006KT 6SM HZ OVC013 02/M01 A2980 980 82 -300 320/06 RMK AO2
14837KMSN MSN20011217154509912/17/01 15:45:31  5-MIN KMSN 172145Z 31006KT 6SM HZ OVC013 02/M01 A2980 970 82 -300 310/06 RMK AO2
14837KMSN MSN20011217155011612/17/01 15:50:31  5-MIN KMSN 172150Z 32009KT 6SM HZ OVC013 02/M01 A2980 970 82 -300 310/09 RMK AO2 SLP100 T00171011
14837KMSN MSN20011217155509912/17/01 15:55:31  5-MIN KMSN 172155Z 31006KT 6SM HZ OVC015 02/M01 A2981 970 82 -300 310/06 RMK AO2
14837KMSN MSN20011217160009912/17/01 16:00:31  5-MIN KMSN 172200Z 32006KT 6SM HZ OVC015 02/M01 A2981 970 82 -300 320/06 RMK AO2
14837KMSN MSN20011217160509912/17/01 16:05:31  5-MIN KMSN 172205Z 32008KT 6SM HZ OVC015 02/M01 A2981 970 82 -300 320/08 RMK AO2
14837KMSN MSN20011217161009912/17/01 16:10:31  5-MIN KMSN 172210Z 33008KT 6SM HZ OVC015 01/M02 A2981 970 82 -400 330/08 RMK AO2
14837KMSN MSN20011217161509912/17/01 16:15:31  5-MIN KMSN 172215Z 32007KT 6SM HZ OVC015 01/M02 A2981 970 82 -400 320/07 RMK AO2
14837KMSN MSN20011217162009912/17/01 16:20:31  5-MIN KMSN 172220Z 33007KT 6SM HZ OVC015 01/M02 A2981 970 82 -400 330/07 RMK AO2
14837KMSN MSN20011217162509912/17/01 16:25:31  5-MIN KMSN 172225Z VRB05KT 6SM HZ OVC015 01/M02 A2981 970 82 -400 VRB/05 RMK AO2
14837KMSN MSN20011217163009912/17/01 16:30:31  5-MIN KMSN 172230Z VRB05KT 6SM HZ OVC015 01/M02 A2981 970 82 -400 VRB/05 RMK AO2
14837KMSN MSN20011217163509612/17/01 16:35:31  5-MIN KMSN 172235Z 34005KT 7SM OVC015 01/M02 A2981 970 82 -400 340/05 RMK AO2
14837KMSN MSN20011217164009612/17/01 16:40:31  5-MIN KMSN 172240Z 33005KT 7SM OVC015 01/M02 A2981 970 82 -400 330/05 RMK AO2
14837KMSN MSN20011217164509912/17/01 16:45:31  5-MIN KMSN 172245Z 33004KT 6SM HZ OVC015 01/M02 A2981 970 82 -400 330/04 RMK AO2
14837KMSN MSN20011217165011612/17/01 16:50:31  5-MIN KMSN 172250Z 33007KT 6SM HZ OVC015 01/M02 A2981 960 82 -400 330/07 RMK AO2 SLP103 T00111017
14837KMSN MSN20011217165509912/17/01 16:55:31  5-MIN KMSN 172255Z 34005KT 6SM HZ OVC015 01/M02 A2981 960 82 -500 340/05 RMK AO2
14837KMSN MSN20011217170009912/17/01 17:00:31  5-MIN KMSN 172300Z 35005KT 6SM HZ OVC015 01/M02 A2982 960 82 -500 350/05 RMK AO2
14837KMSN MSN20011217170509912/17/01 17:05:31  5-MIN KMSN 172305Z 36005KT 6SM HZ OVC015 01/M02 A2982 960 82 -500 360/05 RMK AO2
14837KMSN MSN20011217171009912/17/01 17:10:31  5-MIN KMSN 172310Z 35005KT 6SM HZ OVC015 01/M02 A2982 960 82 -500 350/05 RMK AO2
14837KMSN MSN20011217171509912/17/01 17:15:31  5-MIN KMSN 172315Z 34004KT 6SM HZ OVC015 01/M02 A2982 960 82 -500 340/04 RMK AO2
14837KMSN MSN20011217172009912/17/01 17:20:31  5-MIN KMSN 172320Z 33003KT 6SM HZ OVC015 01/M02 A2982 960 82 -500 330/03 RMK AO2
14837KMSN MSN20011217172509912/17/01 17:25:31  5-MIN KMSN 172325Z 33003KT 6SM HZ OVC015 01/M02 A2982 960 82 -500 330/03 RMK AO2
14837KMSN MSN20011217173009912/17/01 17:30:31  5-MIN KMSN 172330Z 33003KT 6SM HZ OVC015 01/M02 A2982 950 82 -500 330/03 RMK AO2
14837KMSN MSN20011217173509612/17/01 17:35:31  5-MIN KMSN 172335Z 32005KT 7SM OVC013 01/M02 A2983 950 82 -500 320/05 RMK AO2
14837KMSN MSN20011217174009612/17/01 17:40:31  5-MIN KMSN 172340Z 29005KT 7SM OVC013 01/M02 A2983 950 82 -500 290/05 RMK AO2
14837KMSN MSN20011217174509612/17/01 17:45:31  5-MIN KMSN 172345Z 30008KT 7SM OVC013 01/M02 A2983 950 82 -500 290/08 RMK AO2
14837KMSN MSN20011217175013112/17/01 17:50:31  5-MIN KMSN 172350Z 30006KT 7SM BKN013 00/M03 A2983 950 81 -600 300/06 RMK AO2 SLP107 T00001028 10028 20000 55005
14837KMSN MSN20011217175509612/17/01 17:55:31  5-MIN KMSN 172355Z 30005KT 7SM BKN013 00/M03 A2983 950 81 -600 300/05 RMK AO2
14837KMSN MSN20011217180009612/17/01 18:00:31  5-MIN KMSN 180000Z 30005KT 7SM BKN013 00/M03 A2983 950 81 -600 290/05 RMK AO2
14837KMSN MSN20011217180509612/17/01 18:05:31  5-MIN KMSN 180005Z 32006KT 7SM BKN013 00/M03 A2983 950 81 -600 320/06 RMK AO2
14837KMSN MSN20011217181009612/17/01 18:10:31  5-MIN KMSN 180010Z 32004KT 7SM FEW015 00/M03 A2983 950 81 -600 320/04 RMK AO2
14837KMSN MSN20011217181510012/17/01 18:15:31  5-MIN KMSN 180015Z 31004KT 6SM BR FEW015 M01/M03 A2983 950 85 -600 310/04 RMK AO2
14837KMSN MSN20011217182010012/17/01 18:20:31  5-MIN KMSN 180020Z 32003KT 6SM BR FEW015 M01/M03 A2983 950 85 -600 320/03 RMK AO2
14837KMSN MSN20011217182509712/17/01 18:25:31  5-MIN KMSN 180025Z 32003KT 6SM BR CLR M01/M03 A2983 950 85 -600 320/03 RMK AO2
14837KMSN MSN20011217183009712/17/01 18:30:31  5-MIN KMSN 180030Z 32004KT 6SM BR CLR M01/M03 A2983 950 85 -600 320/04 RMK AO2
14837KMSN MSN20011217183509712/17/01 18:35:31  5-MIN KMSN 180035Z 30003KT 6SM BR CLR M01/M03 A2983 950 85 -600 300/03 RMK AO2
14837KMSN MSN20011217184009712/17/01 18:40:31  5-MIN KMSN 180040Z 29003KT 6SM BR CLR M01/M03 A2983 950 85 -600 290/03 RMK AO2
14837KMSN MSN20011217184509712/17/01 18:45:31  5-MIN KMSN 180045Z 00000KT 6SM BR CLR M01/M03 A2983 950 88 -700 000/00 RMK AO2
14837KMSN MSN20011217185011412/17/01 18:50:31  5-MIN KMSN 180050Z 00000KT 5SM BR CLR M01/M03 A2983 950 88 -700 000/00 RMK AO2 SLP109 T10111028
14837KMSN MSN20011217185509712/17/01 18:55:31  5-MIN KMSN 180055Z 00000KT 5SM BR CLR M01/M03 A2983 950 88 -700 000/00 RMK AO2
14837KMSN MSN20011217190009712/17/01 19:00:31  5-MIN KMSN 180100Z 00000KT 5SM BR CLR M01/M03 A2983 950 88 -700 000/00 RMK AO2
14837KMSN MSN20011217190509712/17/01 19:05:31  5-MIN KMSN 180105Z 00000KT 5SM BR CLR M01/M03 A2983 950 88 -700 000/00 RMK AO2
14837KMSN MSN20011217191009712/17/01 19:10:31  5-MIN KMSN 180110Z 00000KT 5SM BR CLR M02/M03 A2983 950 92 -800 000/00 RMK AO2
14837KMSN MSN20011217191509712/17/01 19:15:31  5-MIN KMSN 180115Z 00000KT 5SM BR CLR M02/M03 A2983 950 92 -800 000/00 RMK AO2
14837KMSN MSN20011217192009712/17/01 19:20:31  5-MIN KMSN 180120Z 00000KT 5SM BR CLR M01/M03 A2983 940 88 -700 000/00 RMK AO2
14837KMSN MSN20011217192509712/17/01 19:25:31  5-MIN KMSN 180125Z 00000KT 5SM BR CLR M01/M03 A2984 940 88 -700 000/00 RMK AO2
14837KMSN MSN20011217193009712/17/01 19:30:31  5-MIN KMSN 180130Z 00000KT 5SM BR CLR M01/M03 A2984 940 88 -700 000/00 RMK AO2
14837KMSN MSN20011217193509712/17/01 19:35:31  5-MIN KMSN 180135Z 00000KT 5SM BR CLR M02/M03 A2984 940 92 -800 000/00 RMK AO2
14837KMSN MSN20011217194009712/17/01 19:40:31  5-MIN KMSN 180140Z 00000KT 5SM BR CLR M02/M03 A2983 940 92 -800 000/00 RMK AO2
14837KMSN MSN20011217194509712/17/01 19:45:31  5-MIN KMSN 180145Z 00000KT 5SM BR CLR M02/M03 A2983 950 96 -800 000/00 RMK AO2
14837KMSN MSN20011217195011412/17/01 19:50:31  5-MIN KMSN 180150Z 00000KT 4SM BR CLR M02/M03 A2983 940 92 -800 000/00 RMK AO2 SLP111 T10171028
14837KMSN MSN20011217195509712/17/01 19:55:31  5-MIN KMSN 180155Z 00000KT 5SM BR CLR M02/M03 A2984 940 92 -800 000/00 RMK AO2
14837KMSN MSN20011217200009712/17/01 20:00:31  5-MIN KMSN 180200Z 00000KT 5SM BR CLR M02/M03 A2983 950 92 -800 000/00 RMK AO2
14837KMSN MSN20011217200509712/17/01 20:05:31  5-MIN KMSN 180205Z 00000KT 5SM BR CLR M02/M03 A2983 950 92 -800 000/00 RMK AO2
14837KMSN MSN20011217201009712/17/01 20:10:31  5-MIN KMSN 180210Z 00000KT 5SM BR CLR M02/M03 A2983 950 92 -800 000/00 RMK AO2
14837KMSN MSN20011217201509712/17/01 20:15:31  5-MIN KMSN 180215Z 00000KT 5SM BR CLR M02/M03 A2983 950 88 -800 000/00 RMK AO2
14837KMSN MSN20011217202009712/17/01 20:20:31  5-MIN KMSN 180220Z 00000KT 5SM BR CLR M02/M03 A2983 950 92 -800 000/00 RMK AO2
14837KMSN MSN20011217202509712/17/01 20:25:31  5-MIN KMSN 180225Z 00000KT 4SM BR CLR M02/M03 A2983 950 92 -800 000/00 RMK AO2
14837KMSN MSN20011217203009712/17/01 20:30:31  5-MIN KMSN 180230Z 00000KT 4SM BR CLR M03/M04 A2983 950 92 -900 000/00 RMK AO2
14837KMSN MSN20011217203509712/17/01 20:35:31  5-MIN KMSN 180235Z 00000KT 4SM BR CLR M03/M04 A2983 950 92 -900 000/00 RMK AO2
14837KMSN MSN20011217204009712/17/01 20:40:31  5-MIN KMSN 180240Z 00000KT 4SM BR CLR M03/M04 A2982 950 92 -900 000/00 RMK AO2
14837KMSN MSN20011217204509712/17/01 20:45:31  5-MIN KMSN 180245Z 00000KT 3SM BR CLR M03/M04 A2982 950 92 -900 000/00 RMK AO2
14837KMSN MSN20011217205012012/17/01 20:50:31  5-MIN KMSN 180250Z 00000KT 4SM BR CLR M03/M04 A2982 950 92 -900 000/00 RMK AO2 SLP109 T10281039 53009
14837KMSN MSN20011217205509712/17/01 20:55:31  5-MIN KMSN 180255Z 00000KT 4SM BR CLR M03/M04 A2983 950 92 -900 000/00 RMK AO2
14837KMSN MSN20011217210009712/17/01 21:00:31  5-MIN KMSN 180300Z 00000KT 4SM BR CLR M03/M04 A2983 950 92 -900 000/00 RMK AO2
14837KMSN MSN20011217210509712/17/01 21:05:31  5-MIN KMSN 180305Z 00000KT 4SM BR CLR M03/M04 A2983 950 92 -900 000/00 RMK AO2
14837KMSN MSN20011217211009712/17/01 21:10:31  5-MIN KMSN 180310Z 24003KT 4SM BR CLR M03/M04 A2983 950 92 -900 240/03 RMK AO2
14837KMSN MSN20011217211509712/17/01 21:15:31  5-MIN KMSN 180315Z VRB03KT 4SM BR CLR M03/M04 A2983 950 92 -900 VRB/03 RMK AO2
14837KMSN MSN20011217212009712/17/01 21:20:31  5-MIN KMSN 180320Z 00000KT 4SM BR CLR M02/M04 A2983 940 88 -800 000/00 RMK AO2
14837KMSN MSN20011217212509712/17/01 21:25:31  5-MIN KMSN 180325Z 00000KT 4SM BR CLR M03/M04 A2984 940 92 -900 000/00 RMK AO2
14837KMSN MSN20011217213009712/17/01 21:30:31  5-MIN KMSN 180330Z 00000KT 4SM BR CLR M03/M04 A2984 940 92 -900 000/00 RMK AO2
14837KMSN MSN20011217213509712/17/01 21:35:31  5-MIN KMSN 180335Z 24003KT 4SM BR CLR M03/M04 A2984 940 92 -900 240/03 RMK AO2
14837KMSN MSN20011217214009712/17/01 21:40:31  5-MIN KMSN 180340Z 00000KT 4SM BR CLR M03/M04 A2984 940 92 -900 000/00 RMK AO2
14837KMSN MSN20011217214509712/17/01 21:45:31  5-MIN KMSN 180345Z 00000KT 4SM BR CLR M03/M04 A2984 940 92 -900 000/00 RMK AO2
14837KMSN MSN20011217215011412/17/01 21:50:31  5-MIN KMSN 180350Z 00000KT 4SM BR CLR M02/M03 A2984 940 92 -900 000/00 RMK AO2 SLP112 T10221033
14837KMSN MSN20011217215509712/17/01 21:55:31  5-MIN KMSN 180355Z 00000KT 4SM BR CLR M02/M03 A2983 940 92 -800 000/00 RMK AO2
14837KMSN MSN20011217220009712/17/01 22:00:31  5-MIN KMSN 180400Z 00000KT 4SM BR CLR M03/M04 A2983 940 92 -900 000/00 RMK AO2
14837KMSN MSN20011217220509712/17/01 22:05:31  5-MIN KMSN 180405Z 00000KT 4SM BR CLR M03/M04 A2983 940 92 -900 000/00 RMK AO2
14837KMSN MSN20011217221009712/17/01 22:10:31  5-MIN KMSN 180410Z 00000KT 4SM BR CLR M03/M04 A2983 940 92 -900 000/00 RMK AO2
14837KMSN MSN20011217221509712/17/01 22:15:31  5-MIN KMSN 180415Z 23003KT 3SM BR CLR M03/M04 A2983 950 92 -900 230/03 RMK AO2
14837KMSN MSN20011217222009812/17/01 22:20:31  5-MIN KMSN 180420Z 00000KT 3SM BR CLR M03/M04 A2983 950 96 -1000 000/00 RMK AO2
14837KMSN MSN20011217222509812/17/01 22:25:31  5-MIN KMSN 180425Z 00000KT 3SM BR CLR M03/M04 A2983 950 92 -1000 000/00 RMK AO2
14837KMSN MSN20011217223009812/17/01 22:30:31  5-MIN KMSN 180430Z 25003KT 3SM BR CLR M03/M04 A2983 940 92 -1000 250/03 RMK AO2
14837KMSN MSN20011217223509812/17/01 22:35:31  5-MIN KMSN 180435Z 26003KT 3SM BR CLR M03/M04 A2984 940 92 -1000 250/03 RMK AO2
14837KMSN MSN20011217224009812/17/01 22:40:31  5-MIN KMSN 180440Z 26003KT 3SM BR CLR M03/M04 A2984 940 92 -1000 260/03 RMK AO2
14837KMSN MSN20011217224509812/17/01 22:45:31  5-MIN KMSN 180445Z 00000KT 3SM BR CLR M03/M04 A2984 940 92 -1000 000/00 RMK AO2
14837KMSN MSN20011217225011512/17/01 22:50:31  5-MIN KMSN 180450Z 00000KT 3SM BR CLR M03/M04 A2984 940 96 -1000 000/00 RMK AO2 SLP114 T10331039
14837KMSN MSN20011217225509712/17/01 22:55:31  5-MIN KMSN 180455Z 00000KT 3SM BR CLR M02/M03 A2984 940 92 -900 000/00 RMK AO2
14837KMSN MSN20011217230009712/17/01 23:00:31  5-MIN KMSN 180500Z 00000KT 3SM BR CLR M02/M03 A2984 940 92 -900 000/00 RMK AO2
14837KMSN MSN20011217230509712/17/01 23:05:31  5-MIN KMSN 180505Z 00000KT 3SM BR CLR M02/M03 A2984 940 92 -900 000/00 RMK AO2
14837KMSN MSN20011217231009712/17/01 23:10:31  5-MIN KMSN 180510Z 00000KT 3SM BR CLR M02/M03 A2984 940 88 -800 000/00 RMK AO2
14837KMSN MSN20011217231509712/17/01 23:15:31  5-MIN KMSN 180515Z 00000KT 3SM BR CLR M01/M03 A2984 940 88 -700 000/00 RMK AO2
14837KMSN MSN20011217232009712/17/01 23:20:31  5-MIN KMSN 180520Z 00000KT 4SM BR CLR M01/M03 A2984 940 88 -700 000/00 RMK AO2
14837KMSN MSN20011217232509712/17/01 23:25:31  5-MIN KMSN 180525Z 00000KT 4SM BR CLR M01/M03 A2984 940 88 -700 000/00 RMK AO2
14837KMSN MSN20011217233009712/17/01 23:30:31  5-MIN KMSN 180530Z 00000KT 4SM BR CLR M01/M03 A2984 940 85 -700 000/00 RMK AO2
14837KMSN MSN20011217233509712/17/01 23:35:31  5-MIN KMSN 180535Z 00000KT 4SM BR CLR M02/M03 A2984 940 88 -800 000/00 RMK AO2
14837KMSN MSN20011217234009712/17/01 23:40:31  5-MIN KMSN 180540Z 00000KT 4SM BR CLR M01/M03 A2984 940 88 -700 000/00 RMK AO2
14837KMSN MSN20011217234509712/17/01 23:45:31  5-MIN KMSN 180545Z 00000KT 4SM BR CLR M02/M04 A2984 940 88 -900 000/00 RMK AO2
14837KMSN MSN20011217235014212/17/01 23:50:31  5-MIN KMSN 180550Z 00000KT 4SM BR CLR M02/M04 A2984 940 88 -900 000/00 RMK AO2 SLP114 T10221039 10000 21033 400611033 58000
14837KMSN MSN20011217235509712/17/01 23:55:31  5-MIN KMSN 180555Z 00000KT 4SM BR CLR M03/M04 A2984 940 92 -900 000/00 RMK AO2
14837KMSN MSN20011218000009712/18/01 00:00:31  5-MIN KMSN 180600Z 00000KT 4SM BR CLR M03/M04 A2984 940 92 -900 000/00 RMK AO2
14837KMSN MSN20011218000509712/18/01 00:05:31  5-MIN KMSN 180605Z 00000KT 4SM BR CLR M03/M04 A2984 940 92 -900 000/00 RMK AO2
14837KMSN MSN20011218001009712/18/01 00:10:31  5-MIN KMSN 180610Z 00000KT 4SM BR CLR M03/M04 A2984 940 92 -900 000/00 RMK AO2
14837KMSN MSN20011218001509712/18/01 00:15:31  5-MIN KMSN 180615Z 00000KT 4SM BR CLR M03/M04 A2984 940 92 -900 000/00 RMK AO2
14837KMSN MSN20011218002009712/18/01 00:20:31  5-MIN KMSN 180620Z 00000KT 3SM BR CLR M03/M04 A2983 940 88 -900 000/00 RMK AO2
14837KMSN MSN20011218002509812/18/01 00:25:31  5-MIN KMSN 180625Z 00000KT 3SM BR CLR M03/M04 A2983 950 92 -1000 000/00 RMK AO2
14837KMSN MSN20011218003009812/18/01 00:30:31  5-MIN KMSN 180630Z 00000KT 4SM BR CLR M04/M06 A2983 950 88 -1100 000/00 RMK AO2
14837KMSN MSN20011218003509812/18/01 00:35:31  5-MIN KMSN 180635Z 00000KT 4SM BR CLR M03/M05 A2983 950 88 -1000 000/00 RMK AO2
14837KMSN MSN20011218004009812/18/01 00:40:31  5-MIN KMSN 180640Z 00000KT 4SM BR CLR M04/M05 A2983 950 92 -1000 000/00 RMK AO2
14837KMSN MSN20011218004509812/18/01 00:45:31  5-MIN KMSN 180645Z 00000KT 5SM BR CLR M04/M06 A2982 950 88 -1000 000/00 RMK AO2
14837KMSN MSN20011218005011512/18/01 00:50:31  5-MIN KMSN 180650Z 00000KT 4SM BR CLR M04/M06 A2982 960 88 -1000 000/00 RMK AO2 SLP109 T10391056
14837KMSN MSN20011218005509812/18/01 00:55:31  5-MIN KMSN 180655Z 00000KT 5SM BR CLR M03/M06 A2982 960 85 -1000 000/00 RMK AO2
14837KMSN MSN20011218010009812/18/01 01:00:31  5-MIN KMSN 180700Z 00000KT 6SM BR CLR M03/M06 A2982 950 85 -1000 000/00 RMK AO2
14837KMSN MSN20011218010509812/18/01 01:05:31  5-MIN KMSN 180705Z 00000KT 5SM BR CLR M03/M05 A2983 950 88 -1000 000/00 RMK AO2
14837KMSN MSN20011218011009712/18/01 01:10:31  5-MIN KMSN 180710Z 00000KT 5SM BR CLR M03/M04 A2983 950 88 -900 000/00 RMK AO2
14837KMSN MSN20011218011509812/18/01 01:15:31  5-MIN KMSN 180715Z 00000KT 5SM BR CLR M03/M04 A2983 950 92 -1000 000/00 RMK AO2
14837KMSN MSN20011218012009712/18/01 01:20:31  5-MIN KMSN 180720Z 00000KT 5SM BR CLR M03/M04 A2983 950 92 -900 000/00 RMK AO2
14837KMSN MSN20011218012509712/18/01 01:25:31  5-MIN KMSN 180725Z 00000KT 5SM BR CLR M03/M04 A2983 950 92 -900 000/00 RMK AO2
14837KMSN MSN20011218013009712/18/01 01:30:31  5-MIN KMSN 180730Z 00000KT 5SM BR CLR M03/M04 A2983 950 92 -900 000/00 RMK AO2
14837KMSN MSN20011218013509712/18/01 01:35:31  5-MIN KMSN 180735Z 00000KT 5SM BR CLR M02/M04 A2983 950 88 -800 000/00 RMK AO2
14837KMSN MSN20011218014009712/18/01 01:40:31  5-MIN KMSN 180740Z 15003KT 5SM BR CLR M02/M03 A2983 950 92 -800 150/03 RMK AO2
14837KMSN MSN20011218014509712/18/01 01:45:31  5-MIN KMSN 180745Z 17003KT 5SM BR CLR M02/M03 A2983 950 92 -800 170/03 RMK AO2
14837KMSN MSN20011218015011412/18/01 01:50:31  5-MIN KMSN 180750Z 17003KT 5SM BR CLR M02/M03 A2983 940 88 -800 160/03 RMK AO2 SLP112 T10171033
14837KMSN MSN20011218015509712/18/01 01:55:31  5-MIN KMSN 180755Z 16004KT 6SM BR CLR M02/M03 A2983 940 92 -800 160/04 RMK AO2
14837KMSN MSN20011218020009712/18/01 02:00:31  5-MIN KMSN 180800Z 15004KT 6SM BR CLR M02/M03 A2983 940 92 -800 150/04 RMK AO2
14837KMSN MSN20011218020509712/18/01 02:05:31  5-MIN KMSN 180805Z 15004KT 6SM BR CLR M02/M03 A2984 940 92 -800 150/04 RMK AO2
14837KMSN MSN20011218021010012/18/01 02:10:31  5-MIN KMSN 180810Z 16004KT 5SM BR FEW120 M01/M03 A2984 940 88 -700 160/04 RMK AO2
14837KMSN MSN20011218021510012/18/01 02:15:31  5-MIN KMSN 180815Z 16003KT 5SM BR SCT120 M01/M02 A2984 940 92 -700 160/03 RMK AO2
14837KMSN MSN20011218022010012/18/01 02:20:31  5-MIN KMSN 180820Z 16003KT 6SM BR SCT120 M01/M02 A2984 940 92 -700 160/03 RMK AO2
14837KMSN MSN20011218022510012/18/01 02:25:31  5-MIN KMSN 180825Z 15003KT 6SM BR SCT120 M01/M02 A2984 940 92 -700 150/03 RMK AO2
14837KMSN MSN20011218023010012/18/01 02:30:31  5-MIN KMSN 180830Z 15003KT 6SM BR SCT120 M01/M02 A2984 940 92 -700 140/03 RMK AO2
14837KMSN MSN20011218023510012/18/01 02:35:31  5-MIN KMSN 180835Z 00000KT 6SM BR BKN110 M01/M02 A2984 940 88 -600 000/00 RMK AO2
14837KMSN MSN20011218024010012/18/01 02:40:31  5-MIN KMSN 180840Z 14003KT 6SM BR BKN110 M01/M02 A2983 940 88 -600 140/03 RMK AO2
14837KMSN MSN20011218024510012/18/01 02:45:31  5-MIN KMSN 180845Z 00000KT 6SM BR SCT110 M01/M02 A2984 940 88 -600 000/00 RMK AO2
14837KMSN MSN20011218025012312/18/01 02:50:31  5-MIN KMSN 180850Z 00000KT 6SM BR BKN120 M01/M02 A2983 950 88 -600 000/00 RMK AO2 SLP111 T10061022 51004
14837KMSN MSN20011218025510012/18/01 02:55:31  5-MIN KMSN 180855Z 00000KT 5SM BR BKN120 M01/M02 A2983 950 92 -700 000/00 RMK AO2
14837KMSN MSN20011218030010012/18/01 03:00:31  5-MIN KMSN 180900Z 00000KT 5SM BR BKN120 M01/M02 A2983 950 88 -600 000/00 RMK AO2
14837KMSN MSN20011218030510012/18/01 03:05:31  5-MIN KMSN 180905Z 14003KT 6SM BR BKN120 M01/M02 A2983 950 88 -600 140/03 RMK AO2
14837KMSN MSN20011218031010012/18/01 03:10:31  5-MIN KMSN 180910Z 00000KT 6SM BR BKN120 M01/M02 A2983 950 88 -600 000/00 RMK AO2
14837KMSN MSN20011218031510012/18/01 03:15:31  5-MIN KMSN 180915Z 00000KT 6SM BR BKN120 M01/M02 A2983 950 88 -600 000/00 RMK AO2
14837KMSN MSN20011218032010012/18/01 03:20:31  5-MIN KMSN 180920Z 00000KT 6SM BR BKN120 M01/M02 A2982 950 92 -700 000/00 RMK AO2
14837KMSN MSN20011218032509712/18/01 03:25:31  5-MIN KMSN 180925Z 00000KT 7SM SCT120 M01/M02 A2982 950 88 -600 000/00 RMK AO2
14837KMSN MSN20011218033009712/18/01 03:30:31  5-MIN KMSN 180930Z 00000KT 7SM SCT120 M01/M02 A2982 950 88 -600 000/00 RMK AO2
14837KMSN MSN20011218033509712/18/01 03:35:31  5-MIN KMSN 180935Z 00000KT 7SM FEW120 M01/M02 A2983 950 88 -600 000/00 RMK AO2
14837KMSN MSN20011218034009612/18/01 03:40:31  5-MIN KMSN 180940Z 00000KT 7SM FEW120 00/M02 A2982 950 88 -600 000/00 RMK AO2
14837KMSN MSN20011218034509612/18/01 03:45:31  5-MIN KMSN 180945Z 00000KT 8SM SCT120 00/M02 A2982 960 88 -600 000/00 RMK AO2
14837KMSN MSN20011218035011312/18/01 03:50:31  5-MIN KMSN 180950Z VRB03KT 8SM BKN120 01/M02 A2982 950 85 -500 VRB/03 RMK AO2 SLP108 T00061017
14837KMSN MSN20011218035509612/18/01 03:55:31  5-MIN KMSN 180955Z 00000KT 9SM SCT120 00/M02 A2983 950 88 -600 000/00 RMK AO2
14837KMSN MSN20011218040009612/18/01 04:00:31  5-MIN KMSN 181000Z 00000KT 9SM SCT120 00/M02 A2983 950 88 -600 000/00 RMK AO2
14837KMSN MSN20011218040509612/18/01 04:05:31  5-MIN KMSN 181005Z 00000KT 9SM SCT120 01/M02 A2983 950 85 -500 000/00 RMK AO2
14837KMSN MSN20011218041009612/18/01 04:10:31  5-MIN KMSN 181010Z 00000KT 9SM SCT120 01/M01 A2983 950 89 -500 000/00 RMK AO2
14837KMSN MSN20011218041509612/18/01 04:15:31  5-MIN KMSN 181015Z 00000KT 9SM FEW120 01/M02 A2983 950 85 -500 000/00 RMK AO2
14837KMSN MSN20011218042009312/18/01 04:20:31  5-MIN KMSN 181020Z 00000KT 9SM CLR 01/M01 A2983 950 89 -500 000/00 RMK AO2
14837KMSN MSN20011218042509412/18/01 04:25:31  5-MIN KMSN 181025Z 00000KT 9SM CLR M01/M02 A2983 950 88 -600 000/00 RMK AO2
14837KMSN MSN20011218043009412/18/01 04:30:31  5-MIN KMSN 181030Z 00000KT 9SM CLR M01/M03 A2982 950 88 -700 000/00 RMK AO2
14837KMSN MSN20011218043509412/18/01 04:35:31  5-MIN KMSN 181035Z 00000KT 9SM CLR M01/M03 A2982 950 88 -700 000/00 RMK AO2
14837KMSN MSN20011218044009412/18/01 04:40:31  5-MIN KMSN 181040Z 00000KT 8SM CLR M01/M02 A2983 950 92 -700 000/00 RMK AO2
14837KMSN MSN20011218044509412/18/01 04:45:31  5-MIN KMSN 181045Z 00000KT 7SM CLR M02/M02 A2983 950 96 -800 000/00 RMK AO2
14837KMSN MSN20011218045011412/18/01 04:50:31  5-MIN KMSN 181050Z 00000KT 5SM BR CLR M02/M03 A2983 950 96 -800 000/00 RMK AO2 SLP111 T10221028
14837KMSN MSN20011218045509712/18/01 04:55:31  5-MIN KMSN 181055Z 00000KT 6SM BR CLR M02/M03 A2983 950 92 -800 000/00 RMK AO2
14837KMSN MSN20011218050009412/18/01 05:00:31  5-MIN KMSN 181100Z 00000KT 7SM CLR M02/M03 A2983 950 92 -800 000/00 RMK AO2
14837KMSN MSN20011218050509712/18/01 05:05:31  5-MIN KMSN 181105Z 00000KT 6SM BR CLR M02/M03 A2983 950 92 -800 000/00 RMK AO2
14837KMSN MSN20011218051009712/18/01 05:10:31  5-MIN KMSN 181110Z 00000KT 6SM BR CLR M02/M03 A2983 950 92 -800 000/00 RMK AO2
14837KMSN MSN20011218051509712/18/01 05:15:31  5-MIN KMSN 181115Z 00000KT 6SM BR CLR M02/M03 A2983 950 92 -800 000/00 RMK AO2
14837KMSN MSN20011218052009712/18/01 05:20:31  5-MIN KMSN 181120Z 00000KT 6SM BR CLR M02/M03 A2983 940 92 -800 000/00 RMK AO2
14837KMSN MSN20011218052509412/18/01 05:25:31  5-MIN KMSN 181125Z 00000KT 7SM CLR M02/M03 A2983 940 92 -800 000/00 RMK AO2
14837KMSN MSN20011218053009412/18/01 05:30:31  5-MIN KMSN 181130Z 00000KT 7SM CLR M02/M03 A2983 940 92 -800 000/00 RMK AO2
14837KMSN MSN20011218053509412/18/01 05:35:31  5-MIN KMSN 181135Z 16003KT 7SM CLR M02/M04 A2983 940 88 -800 160/03 RMK AO2
14837KMSN MSN20011218054009512/18/01 05:40:31  5-MIN KMSN 181140Z 00000KT 7SM CLR M03/M05 A2983 940 88 -1000 000/00 RMK AO2
14837KMSN MSN20011218054509512/18/01 05:45:31  5-MIN KMSN 181145Z 00000KT 8SM CLR M03/M05 A2984 940 88 -1000 000/00 RMK AO2
14837KMSN MSN20011218055012912/18/01 05:50:31  5-MIN KMSN 181150Z 00000KT 8SM CLR M02/M04 A2984 940 88 -900 000/00 RMK AO2 SLP116 T10221039 10011 21039 56003
14837KMSN MSN20011218055509412/18/01 05:55:31  5-MIN KMSN 181155Z 00000KT 8SM CLR M02/M03 A2984 940 92 -900 000/00 RMK AO2
14837KMSN MSN20011218060009412/18/01 06:00:31  5-MIN KMSN 181200Z 00000KT 8SM CLR M03/M04 A2984 940 92 -900 000/00 RMK AO2
14837KMSN MSN20011218060509412/18/01 06:05:31  5-MIN KMSN 181205Z 00000KT 8SM CLR M02/M04 A2984 940 85 -800 000/00 RMK AO2
14837KMSN MSN20011218061009412/18/01 06:10:31  5-MIN KMSN 181210Z 00000KT 8SM CLR M02/M03 A2985 930 88 -800 000/00 RMK AO2
14837KMSN MSN20011218061509412/18/01 06:15:31  5-MIN KMSN 181215Z 00000KT 8SM CLR M01/M02 A2985 930 88 -700 000/00 RMK AO2
14837KMSN MSN20011218062009412/18/01 06:20:31  5-MIN KMSN 181220Z 22003KT 8SM CLR M01/M03 A2985 930 85 -700 220/03 RMK AO2
14837KMSN MSN20011218062509312/18/01 06:25:31  5-MIN KMSN 181225Z 00000KT 9SM CLR 00/M02 A2985 930 85 -600 000/00 RMK AO2
14837KMSN MSN20011218063009412/18/01 06:30:31  5-MIN KMSN 181230Z 00000KT 9SM CLR M01/M02 A2985 930 88 -700 000/00 RMK AO2
14837KMSN MSN20011218063509412/18/01 06:35:31  5-MIN KMSN 181235Z 00000KT 8SM CLR M01/M03 A2985 930 88 -700 000/00 RMK AO2
14837KMSN MSN20011218064009412/18/01 06:40:31  5-MIN KMSN 181240Z 00000KT 8SM CLR M01/M03 A2984 930 88 -700 000/00 RMK AO2
14837KMSN MSN20011218064509412/18/01 06:45:31  5-MIN KMSN 181245Z 00000KT 8SM CLR M01/M03 A2984 930 88 -700 000/00 RMK AO2
14837KMSN MSN20011218065011112/18/01 06:50:31  5-MIN KMSN 181250Z 23003KT 8SM CLR M01/M02 A2985 930 88 -600 230/03 RMK AO2 SLP117 T10061022
14837KMSN MSN20011218065509312/18/01 06:55:31  5-MIN KMSN 181255Z 00000KT 9SM CLR 00/M02 A2984 940 85 -600 000/00 RMK AO2
14837KMSN MSN20011218070009312/18/01 07:00:31  5-MIN KMSN 181300Z 00000KT 9SM CLR 00/M03 A2984 940 81 -600 000/00 RMK AO2
14837KMSN MSN20011218070509312/18/01 07:05:31  5-MIN KMSN 181305Z 00000KT 9SM CLR 00/M02 A2984 940 85 -600 000/00 RMK AO2
14837KMSN MSN20011218071009412/18/01 07:10:31  5-MIN KMSN 181310Z 20003KT 9SM CLR M01/M03 A2984 940 88 -700 200/03 RMK AO2
14837KMSN MSN20011218071509412/18/01 07:15:31  5-MIN KMSN 181315Z 00000KT 9SM CLR M01/M03 A2984 940 85 -700 000/00 RMK AO2
14837KMSN MSN20011218072009412/18/01 07:20:31  5-MIN KMSN 181320Z VRB03KT 8SM CLR M01/M03 A2983 940 85 -600 VRB/03 RMK AO2
14837KMSN MSN20011218072509312/18/01 07:25:31  5-MIN KMSN 181325Z 00000KT 8SM CLR 00/M02 A2984 940 85 -600 000/00 RMK AO2
14837KMSN MSN20011218073009412/18/01 07:30:31  5-MIN KMSN 181330Z 00000KT 7SM CLR M01/M03 A2983 940 85 -700 000/00 RMK AO2
14837KMSN MSN20011218073509412/18/01 07:35:31  5-MIN KMSN 181335Z 00000KT 7SM CLR M02/M04 A2983 950 85 -800 000/00 RMK AO2
14837KMSN MSN20011218074009412/18/01 07:40:31  5-MIN KMSN 181340Z 15003KT 7SM CLR M01/M03 A2983 940 85 -600 150/03 RMK AO2
14837KMSN MSN20011218074509412/18/01 07:45:31  5-MIN KMSN 181345Z 15004KT 7SM CLR M01/M03 A2984 940 85 -700 150/04 RMK AO2
14837KMSN MSN20011218075011112/18/01 07:50:31  5-MIN KMSN 181350Z 15004KT 7SM CLR M02/M03 A2983 940 88 -800 140/04 RMK AO2 SLP113 T10171033
14837KMSN MSN20011218075509412/18/01 07:55:31  5-MIN KMSN 181355Z 16004KT 7SM CLR M02/M03 A2983 940 88 -800 160/04 RMK AO2
14837KMSN MSN20011218080009412/18/01 08:00:31  5-MIN KMSN 181400Z 17004KT 7SM CLR M01/M03 A2983 950 85 -600 170/04 RMK AO2
14837KMSN MSN20011218080509412/18/01 08:05:31  5-MIN KMSN 181405Z 17005KT 8SM CLR M01/M03 A2983 950 85 -600 170/05 RMK AO2
14837KMSN MSN20011218081009412/18/01 08:10:31  5-MIN KMSN 181410Z 16006KT 8SM CLR M01/M02 A2983 950 88 -600 160/06 RMK AO2
14837KMSN MSN20011218081509412/18/01 08:15:31  5-MIN KMSN 181415Z 16005KT 8SM CLR M01/M02 A2983 940 88 -600 160/05 RMK AO2
14837KMSN MSN20011218082009412/18/01 08:20:31  5-MIN KMSN 181420Z 16006KT 8SM CLR M01/M02 A2983 950 88 -600 160/06 RMK AO2
14837KMSN MSN20011218082509312/18/01 08:25:31  5-MIN KMSN 181425Z 16005KT 8SM CLR 00/M02 A2983 940 85 -600 160/05 RMK AO2
14837KMSN MSN20011218083009312/18/01 08:30:31  5-MIN KMSN 181430Z 17004KT 8SM CLR 00/M02 A2984 940 88 -600 170/04 RMK AO2
14837KMSN MSN20011218083509312/18/01 08:35:31  5-MIN KMSN 181435Z 18004KT 8SM CLR 01/M01 A2984 940 89 -500 180/04 RMK AO2
14837KMSN MSN20011218084009412/18/01 08:40:31  5-MIN KMSN 181440Z 19004KT 10SM CLR 01/M01 A2984 940 85 -400 190/04 RMK AO2
14837KMSN MSN20011218084509412/18/01 08:45:31  5-MIN KMSN 181445Z 20005KT 10SM CLR 02/M01 A2984 940 82 -400 200/05 RMK AO2
14837KMSN MSN20011218085011712/18/01 08:50:31  5-MIN KMSN 181450Z 20006KT 10SM CLR 02/M01 A2984 940 82 -400 200/06 RMK AO2 SLP114 T00171011 53003
14837KMSN MSN20011218085509312/18/01 08:55:31  5-MIN KMSN 181455Z 20005KT 8SM CLR 02/M01 A2984 940 82 -400 200/05 RMK AO2
14837KMSN MSN20011218090009412/18/01 09:00:31  5-MIN KMSN 181500Z 21005KT 10SM CLR 02/M01 A2984 940 78 -300 210/05 RMK AO2
14837KMSN MSN20011218090509412/18/01 09:05:31  5-MIN KMSN 181505Z 19004KT 10SM CLR 02/M01 A2984 940 78 -300 190/04 RMK AO2
14837KMSN MSN20011218091009412/18/01 09:10:31  5-MIN KMSN 181510Z 21005KT 10SM CLR 02/M01 A2984 940 82 -300 210/05 RMK AO2
14837KMSN MSN20011218091509412/18/01 09:15:31  5-MIN KMSN 181515Z VRB04KT 10SM CLR 03/M01 A2984 940 75 -200 VRB/04 RMK AO2
14837KMSN MSN20011218092009412/18/01 09:20:31  5-MIN KMSN 181520Z 21007KT 10SM CLR 03/M01 A2984 940 79 -200 210/07 RMK AO2
14837KMSN MSN20011218092509412/18/01 09:25:31  5-MIN KMSN 181525Z 22005KT 10SM CLR 03/M01 A2984 940 75 -200 220/05 RMK AO2
14837KMSN MSN20011218093009412/18/01 09:30:31  5-MIN KMSN 181530Z VRB03KT 10SM CLR 03/M01 A2984 940 72 -200 VRB/03 RMK AO2
14837KMSN MSN20011218093509412/18/01 09:35:31  5-MIN KMSN 181535Z VRB05KT 10SM CLR 03/M01 A2984 940 72 -200 VRB/05 RMK AO2
14837KMSN MSN20011218094009412/18/01 09:40:31  5-MIN KMSN 181540Z 24004KT 10SM CLR 03/M01 A2984 940 72 -200 240/04 RMK AO2
14837KMSN MSN20011218094509412/18/01 09:45:31  5-MIN KMSN 181545Z VRB05KT 10SM CLR 03/M01 A2984 940 72 -200 VRB/05 RMK AO2
14837KMSN MSN20011218095011112/18/01 09:50:31  5-MIN KMSN 181550Z 22004KT 10SM CLR 03/M01 A2984 940 72 -200 220/04 RMK AO2 SLP113 T00331011
14837KMSN MSN20011218095509412/18/01 09:55:31  5-MIN KMSN 181555Z 21005KT 10SM CLR 04/M01 A2983 940 73 -100 210/05 RMK AO2
14837KMSN MSN20011218100009312/18/01 10:00:31  5-MIN KMSN 181600Z 21006KT 9SM CLR 04/M01 A2983 950 70 -100 210/06 RMK AO2
14837KMSN MSN20011218100509412/18/01 10:05:31  5-MIN KMSN 181605Z VRB05KT 10SM CLR 04/M01 A2983 950 73 -100 VRB/05 RMK AO2
14837KMSN MSN20011218101009412/18/01 10:10:31  5-MIN KMSN 181610Z 20006KT 10SM CLR 04/M01 A2983 950 73 -100 200/06 RMK AO2
14837KMSN MSN20011218101509412/18/01 10:15:31  5-MIN KMSN 181615Z 22005KT 10SM CLR 04/M01 A2983 950 73 -100 220/05 RMK AO2
14837KMSN MSN20011218102009412/18/01 10:20:31  5-MIN KMSN 181620Z VRB05KT 10SM CLR 04/M01 A2983 950 73 -100 VRB/05 RMK AO2
14837KMSN MSN20011218102509412/18/01 10:25:31  5-MIN KMSN 181625Z VRB04KT 10SM CLR 04/M01 A2983 950 73 -100 VRB/04 RMK AO2
14837KMSN MSN20011218103009112/18/01 10:30:31  5-MIN KMSN 181630Z VRB04KT 10SM CLR 04/M01 A2982 950 70 0 VRB/04 RMK AO2
14837KMSN MSN20011218103509112/18/01 10:35:31  5-MIN KMSN 181635Z 23005KT 10SM CLR 04/M01 A2982 960 70 0 230/05 RMK AO2
14837KMSN MSN20011218104009112/18/01 10:40:31  5-MIN KMSN 181640Z 23006KT 10SM CLR 04/M01 A2982 950 70 0 230/06 RMK AO2
14837KMSN MSN20011218104509112/18/01 10:45:31  5-MIN KMSN 181645Z 24005KT 10SM CLR 04/M01 A2982 950 70 0 240/05 RMK AO2
14837KMSN MSN20011218105010812/18/01 10:50:31  5-MIN KMSN 181650Z 23006KT 10SM CLR 05/M01 A2982 950 67 0 230/06 RMK AO2 SLP107 T00501006
14837KMSN MSN20011218105509112/18/01 10:55:31  5-MIN KMSN 181655Z VRB05KT 10SM CLR 05/M01 A2982 960 67 0 VRB/05 RMK AO2
14837KMSN MSN20011218110009112/18/01 11:00:31  5-MIN KMSN 181700Z 25005KT 10SM CLR 05/M01 A2982 960 67 0 240/05 RMK AO2
14837KMSN MSN20011218110509112/18/01 11:05:31  5-MIN KMSN 181705Z VRB04KT 10SM CLR 05/M01 A2982 960 67 0 VRB/04 RMK AO2
14837KMSN MSN20011218111009212/18/01 11:10:31  5-MIN KMSN 181710Z 22005KT 10SM CLR 06/00 A2982 960 67 100 220/05 RMK AO2
14837KMSN MSN20011218111509112/18/01 11:15:31  5-MIN KMSN 181715Z 23005KT 10SM CLR 05/M01 A2981 960 67 0 220/05 RMK AO2
14837KMSN MSN20011218112009312/18/01 11:20:31  5-MIN KMSN 181720Z 21007KT 10SM CLR 06/M01 A2981 960 65 100 210/07 RMK AO2
14837KMSN MSN20011218112509212/18/01 11:25:31  5-MIN KMSN 181725Z VRB05KT 10SM CLR 06/00 A2981 970 67 100 VRB/05 RMK AO2
14837KMSN MSN20011218113009212/18/01 11:30:31  5-MIN KMSN 181730Z 23005KT 10SM CLR 06/00 A2981 970 67 100 230/05 RMK AO2
14837KMSN MSN20011218113509212/18/01 11:35:31  5-MIN KMSN 181735Z 23006KT 10SM CLR 06/00 A2981 970 65 200 230/06 RMK AO2
14837KMSN MSN20011218114009312/18/01 11:40:31  5-MIN KMSN 181740Z 22005KT 10SM CLR 06/M01 A2981 970 62 200 220/05 RMK AO2
14837KMSN MSN20011218114509212/18/01 11:45:31  5-MIN KMSN 181745Z VRB05KT 10SM CLR 06/00 A2980 970 65 200 VRB/05 RMK AO2
14837KMSN MSN20011218115012812/18/01 11:50:31  5-MIN KMSN 181750Z 22006KT 10SM CLR 07/M01 A2980 970 60 200 220/06 RMK AO2 SLP101 T00671006 10067 21028 55002
14837KMSN MSN20011218115509312/18/01 11:55:31  5-MIN KMSN 181755Z 23006KT 10SM CLR 07/M01 A2980 970 60 200 230/06 RMK AO2
14837KMSN MSN20011218120009212/18/01 12:00:31  5-MIN KMSN 181800Z VRB05KT 10SM CLR 07/00 A2980 980 62 200 VRB/05 RMK AO2
14837KMSN MSN20011218120509212/18/01 12:05:31  5-MIN KMSN 181805Z VRB06KT 10SM CLR 07/00 A2980 980 62 200 VRB/06 RMK AO2
14837KMSN MSN20011218121009212/18/01 12:10:31  5-MIN KMSN 181810Z VRB05KT 10SM CLR 07/00 A2980 980 60 300 VRB/05 RMK AO2
14837KMSN MSN20011218121509212/18/01 12:15:31  5-MIN KMSN 181815Z 23008KT 10SM CLR 07/00 A2980 980 60 300 230/08 RMK AO2
14837KMSN MSN20011218122009212/18/01 12:20:31  5-MIN KMSN 181820Z VRB04KT 10SM CLR 08/00 A2979 980 58 400 VRB/04 RMK AO2
14837KMSN MSN20011218122509212/18/01 12:25:31  5-MIN KMSN 181825Z 19008KT 10SM CLR 07/00 A2979 980 60 300 190/08 RMK AO2
14837KMSN MSN20011218123009212/18/01 12:30:31  5-MIN KMSN 181830Z 20007KT 10SM CLR 07/00 A2979 980 60 300 200/07 RMK AO2
14837KMSN MSN20011218123510812/18/01 12:35:31  5-MIN KMSN 181835Z 21007KT 180V280 10SM CLR 08/00 A2980 980 58 400 210/07 180V280 RMK AO2
14837KMSN MSN20011218124009212/18/01 12:40:31  5-MIN KMSN 181840Z 22007KT 10SM CLR 08/00 A2980 980 58 400 220/07 RMK AO2
14837KMSN MSN20011218124509212/18/01 12:45:31  5-MIN KMSN 181845Z 20007KT 10SM CLR 07/00 A2980 980 60 300 200/07 RMK AO2
14837KMSN MSN20011218125010912/18/01 12:50:31  5-MIN KMSN 181850Z 20007KT 10SM CLR 08/00 A2979 980 58 400 200/07 RMK AO2 SLP097 T00780000
14837KMSN MSN20011218125509212/18/01 12:55:31  5-MIN KMSN 181855Z 19006KT 10SM CLR 08/00 A2979 980 58 400 190/06 RMK AO2
14837KMSN MSN20011218130009212/18/01 13:00:31  5-MIN KMSN 181900Z 21006KT 10SM CLR 08/01 A2979 990 60 400 210/06 RMK AO2
14837KMSN MSN20011218130509212/18/01 13:05:31  5-MIN KMSN 181905Z 23004KT 10SM CLR 08/01 A2979 990 58 500 230/04 RMK AO2
14837KMSN MSN20011218131009212/18/01 13:10:31  5-MIN KMSN 181910Z 24006KT 10SM CLR 08/00 A2978 990 55 500 240/06 RMK AO2
14837KMSN MSN20011218131509212/18/01 13:15:31  5-MIN KMSN 181915Z 22006KT 10SM CLR 08/00 A2978 990 58 400 220/06 RMK AO2
14837KMSN MSN20011218132009212/18/01 13:20:31  5-MIN KMSN 181920Z 24007KT 10SM CLR 08/00 A2978 990 55 500 240/07 RMK AO2
14837KMSN MSN20011218132509212/18/01 13:25:31  5-MIN KMSN 181925Z 23007KT 10SM CLR 08/00 A2978 990 55 500 220/07 RMK AO2
14837KMSN MSN20011218133009212/18/01 13:30:31  5-MIN KMSN 181930Z 23006KT 10SM CLR 08/00 A2978 990 55 500 230/06 RMK AO2
14837KMSN MSN20011218133509212/18/01 13:35:31  5-MIN KMSN 181935Z 22007KT 10SM CLR 09/00 A2978 990 53 500 220/07 RMK AO2
14837KMSN MSN20011218134009312/18/01 13:40:31  5-MIN KMSN 181940Z 22008KT 10SM CLR 08/M01 A2978 990 53 500 220/08 RMK AO2
14837KMSN MSN20011218134509212/18/01 13:45:31  5-MIN KMSN 181945Z 23007KT 10SM CLR 08/00 A2978 990 55 500 230/07 RMK AO2
14837KMSN MSN20011218135011012/18/01 13:50:31  5-MIN KMSN 181950Z 23008KT 10SM CLR 08/M01 A2978 990 53 500 230/08 RMK AO2 SLP092 T00831006
14837KMSN MSN20011218135509312/18/01 13:55:31  5-MIN KMSN 181955Z 23009KT 10SM CLR 08/M01 A2978 990 53 500 230/09 RMK AO2
14837KMSN MSN20011218140009312/18/01 14:00:31  5-MIN KMSN 182000Z 22007KT 10SM CLR 08/M01 A2978 990 53 500 220/07 RMK AO2
14837KMSN MSN20011218140509312/18/01 14:05:31  5-MIN KMSN 182005Z 22007KT 10SM CLR 08/M01 A2978 990 53 500 220/07 RMK AO2
14837KMSN MSN20011218141009412/18/01 14:10:31  5-MIN KMSN 182010Z 21007KT 10SM CLR 09/M01 A2978 1000 51 500 210/07 RMK AO2
14837KMSN MSN20011218141509412/18/01 14:15:31  5-MIN KMSN 182015Z 23007KT 10SM CLR 09/M01 A2978 1000 51 500 220/07 RMK AO2
14837KMSN MSN20011218142009312/18/01 14:20:31  5-MIN KMSN 182020Z 22007KT 10SM CLR 09/M01 A2978 990 51 500 220/07 RMK AO2
14837KMSN MSN20011218142509412/18/01 14:25:31  5-MIN KMSN 182025Z 23007KT 10SM CLR 09/M01 A2978 1000 51 500 220/07 RMK AO2
14837KMSN MSN20011218143009312/18/01 14:30:31  5-MIN KMSN 182030Z 22007KT 10SM CLR 09/M01 A2978 990 51 500 220/07 RMK AO2
14837KMSN MSN20011218143509412/18/01 14:35:31  5-MIN KMSN 182035Z VRB05KT 10SM CLR 09/M01 A2978 1000 51 500 VRB/05 RMK AO2
14837KMSN MSN20011218144009412/18/01 14:40:31  5-MIN KMSN 182040Z VRB03KT 10SM CLR 09/M01 A2978 1000 51 500 VRB/03 RMK AO2
14837KMSN MSN20011218144509412/18/01 14:45:31  5-MIN KMSN 182045Z VRB06KT 10SM CLR 09/M01 A2978 1000 49 500 VRB/06 RMK AO2
14837KMSN MSN20011218145011712/18/01 14:50:31  5-MIN KMSN 182050Z VRB03KT 10SM CLR 09/M01 A2978 1000 51 500 VRB/03 RMK AO2 SLP089 T00891006 58011
14837KMSN MSN20011218145509412/18/01 14:55:31  5-MIN KMSN 182055Z 22006KT 10SM CLR 09/M01 A2978 1000 51 500 210/06 RMK AO2
14837KMSN MSN20011218150009412/18/01 15:00:31  5-MIN KMSN 182100Z 22006KT 10SM CLR 09/M01 A2978 1000 51 500 220/06 RMK AO2
14837KMSN MSN20011218150509412/18/01 15:05:31  5-MIN KMSN 182105Z 21007KT 10SM CLR 09/M01 A2978 1000 51 500 200/07 RMK AO2
14837KMSN MSN20011218151009412/18/01 15:10:31  5-MIN KMSN 182110Z VRB05KT 10SM CLR 09/M01 A2978 1000 49 500 VRB/05 RMK AO2
14837KMSN MSN20011218151509412/18/01 15:15:31  5-MIN KMSN 182115Z 23005KT 10SM CLR 09/M01 A2978 1000 49 500 230/05 RMK AO2
14837KMSN MSN20011218152009412/18/01 15:20:31  5-MIN KMSN 182120Z 22004KT 10SM CLR 09/M01 A2977 1000 51 500 220/04 RMK AO2
14837KMSN MSN20011218152509412/18/01 15:25:31  5-MIN KMSN 182125Z 22004KT 10SM CLR 09/M01 A2977 1000 49 500 220/04 RMK AO2
14837KMSN MSN20011218153009412/18/01 15:30:31  5-MIN KMSN 182130Z 23004KT 10SM CLR 08/M01 A2977 1000 51 500 230/04 RMK AO2
14837KMSN MSN20011218153509412/18/01 15:35:31  5-MIN KMSN 182135Z 24003KT 10SM CLR 08/M01 A2977 1000 51 500 230/03 RMK AO2
14837KMSN MSN20011218154009412/18/01 15:40:31  5-MIN KMSN 182140Z 22004KT 10SM CLR 08/M01 A2977 1000 53 500 220/04 RMK AO2
14837KMSN MSN20011218154509412/18/01 15:45:31  5-MIN KMSN 182145Z 22003KT 10SM CLR 08/M01 A2978 1000 55 400 220/03 RMK AO2
14837KMSN MSN20011218155011112/18/01 15:50:31  5-MIN KMSN 182150Z 22003KT 10SM CLR 07/M01 A2978 1000 57 300 220/03 RMK AO2 SLP090 T00721006
14837KMSN MSN20011218155509412/18/01 15:55:31  5-MIN KMSN 182155Z 21004KT 10SM CLR 07/M01 A2978 1000 60 300 210/04 RMK AO2
14837KMSN MSN20011218160009412/18/01 16:00:31  5-MIN KMSN 182200Z 20004KT 10SM CLR 07/M01 A2978 1000 57 300 200/04 RMK AO2
14837KMSN MSN20011218160509412/18/01 16:05:31  5-MIN KMSN 182205Z VRB04KT 10SM CLR 08/M01 A2978 1000 55 400 VRB/04 RMK AO2
14837KMSN MSN20011218161009412/18/01 16:10:31  5-MIN KMSN 182210Z 21006KT 10SM CLR 07/M01 A2978 1000 57 300 210/06 RMK AO2
14837KMSN MSN20011218161509412/18/01 16:15:31  5-MIN KMSN 182215Z 22006KT 10SM CLR 08/M01 A2978 1000 53 400 220/06 RMK AO2
14837KMSN MSN20011218162009412/18/01 16:20:31  5-MIN KMSN 182220Z 20005KT 10SM CLR 08/M01 A2977 1000 53 400 200/05 RMK AO2
14837KMSN MSN20011218162509412/18/01 16:25:31  5-MIN KMSN 182225Z VRB03KT 10SM CLR 07/M01 A2977 1000 57 300 VRB/03 RMK AO2
14837KMSN MSN20011218163009412/18/01 16:30:31  5-MIN KMSN 182230Z 20005KT 10SM CLR 07/M01 A2977 1000 57 300 200/05 RMK AO2
14837KMSN MSN20011218163509312/18/01 16:35:31  5-MIN KMSN 182235Z 21003KT 10SM CLR 07/00 A2977 1000 60 300 210/03 RMK AO2
14837KMSN MSN20011218164009312/18/01 16:40:31  5-MIN KMSN 182240Z 20004KT 10SM CLR 07/00 A2977 1010 60 400 200/04 RMK AO2
14837KMSN MSN20011218164509312/18/01 16:45:31  5-MIN KMSN 182245Z 20005KT 10SM CLR 07/00 A2977 1010 60 400 200/05 RMK AO2
14837KMSN MSN20011218165011012/18/01 16:50:31  5-MIN KMSN 182250Z 21004KT 10SM CLR 07/00 A2977 1010 62 300 210/04 RMK AO2 SLP088 T00670000
14837KMSN MSN20011218165509312/18/01 16:55:31  5-MIN KMSN 182255Z 21004KT 10SM CLR 07/01 A2977 1010 62 400 210/04 RMK AO2
14837KMSN MSN20011218170009312/18/01 17:00:31  5-MIN KMSN 182300Z 21005KT 10SM CLR 07/01 A2977 1000 65 300 210/05 RMK AO2
14837KMSN MSN20011218170509312/18/01 17:05:31  5-MIN KMSN 182305Z 22006KT 10SM CLR 07/01 A2977 1000 65 300 220/06 RMK AO2
14837KMSN MSN20011218171009312/18/01 17:10:31  5-MIN KMSN 182310Z 21004KT 10SM CLR 07/01 A2977 1000 65 300 210/04 RMK AO2
14837KMSN MSN20011218171509312/18/01 17:15:31  5-MIN KMSN 182315Z 22005KT 10SM CLR 07/01 A2977 1000 65 300 220/05 RMK AO2
14837KMSN MSN20011218172009312/18/01 17:20:31  5-MIN KMSN 182320Z 22004KT 10SM CLR 06/01 A2977 1000 67 200 220/04 RMK AO2
14837KMSN MSN20011218172509312/18/01 17:25:31  5-MIN KMSN 182325Z 22004KT 10SM CLR 06/01 A2977 1000 67 200 220/04 RMK AO2
14837KMSN MSN20011218173009212/18/01 17:30:31  5-MIN KMSN 182330Z 22004KT 10SM CLR 06/01 A2978 990 67 200 220/04 RMK AO2
14837KMSN MSN20011218173509212/18/01 17:35:31  5-MIN KMSN 182335Z 22004KT 10SM CLR 06/01 A2978 990 67 200 220/04 RMK AO2
14837KMSN MSN20011218174009312/18/01 17:40:31  5-MIN KMSN 182340Z 22005KT 10SM CLR 06/01 A2978 1000 67 200 210/05 RMK AO2
14837KMSN MSN20011218174509212/18/01 17:45:31  5-MIN KMSN 182345Z 22006KT 10SM CLR 06/01 A2978 990 67 200 220/06 RMK AO2
14837KMSN MSN20011218175012812/18/01 17:50:31  5-MIN KMSN 182350Z 22004KT 10SM CLR 06/01 A2978 1000 67 200 220/04 RMK AO2 SLP091 T00610006 10089 20061 56009
14837KMSN MSN20011218175509312/18/01 17:55:31  5-MIN KMSN 182355Z 22005KT 10SM CLR 06/01 A2977 1000 67 200 220/05 RMK AO2
14837KMSN MSN20011218180009312/18/01 18:00:31  5-MIN KMSN 190000Z 23004KT 10SM CLR 06/01 A2977 1000 67 200 220/04 RMK AO2
14837KMSN MSN20011218180509312/18/01 18:05:31  5-MIN KMSN 190005Z 21003KT 10SM CLR 06/01 A2976 1010 70 200 210/03 RMK AO2
14837KMSN MSN20011218181009312/18/01 18:10:31  5-MIN KMSN 190010Z 22003KT 10SM CLR 06/01 A2977 1010 70 200 210/03 RMK AO2
14837KMSN MSN20011218181509312/18/01 18:15:31  5-MIN KMSN 190015Z 21004KT 10SM CLR 06/01 A2977 1000 70 100 210/04 RMK AO2
14837KMSN MSN20011218182009312/18/01 18:20:31  5-MIN KMSN 190020Z 20005KT 10SM CLR 06/01 A2977 1010 67 200 200/05 RMK AO2
14837KMSN MSN20011218182509312/18/01 18:25:31  5-MIN KMSN 190025Z 21005KT 10SM CLR 06/01 A2977 1010 70 100 210/05 RMK AO2
14837KMSN MSN20011218183009312/18/01 18:30:31  5-MIN KMSN 190030Z 21004KT 10SM CLR 06/01 A2977 1010 67 200 210/04 RMK AO2
14837KMSN MSN20011218183509312/18/01 18:35:31  5-MIN KMSN 190035Z 00000KT 10SM CLR 06/01 A2977 1000 70 100 000/00 RMK AO2
14837KMSN MSN20011218184009312/18/01 18:40:31  5-MIN KMSN 190040Z 00000KT 10SM CLR 06/01 A2977 1000 70 100 000/00 RMK AO2
14837KMSN MSN20011218184509312/18/01 18:45:31  5-MIN KMSN 190045Z 21003KT 10SM CLR 06/01 A2977 1000 70 100 210/03 RMK AO2
14837KMSN MSN20011218185011012/18/01 18:50:31  5-MIN KMSN 190050Z 00000KT 10SM CLR 06/01 A2977 1000 70 100 000/00 RMK AO2 SLP089 T00560006
14837KMSN MSN20011218185509112/18/01 18:55:31  5-MIN KMSN 190055Z 22003KT 10SM CLR 04/01 A2978 1000 76 0 220/03 RMK AO2
14837KMSN MSN20011218190009012/18/01 19:00:31  5-MIN KMSN 190100Z 23003KT 10SM CLR 04/01 A2978 990 76 0 230/03 RMK AO2
14837KMSN MSN20011218190509112/18/01 19:05:31  5-MIN KMSN 190105Z 23003KT 10SM CLR 04/01 A2978 1000 76 0 230/03 RMK AO2
14837KMSN MSN20011218191009012/18/01 19:10:31  5-MIN KMSN 190110Z 00000KT 10SM CLR 04/01 A2978 990 79 0 000/00 RMK AO2
14837KMSN MSN20011218191509112/18/01 19:15:31  5-MIN KMSN 190115Z VRB03KT 10SM CLR 04/01 A2978 1000 76 0 VRB/03 RMK AO2
14837KMSN MSN20011218192009112/18/01 19:20:31  5-MIN KMSN 190120Z 00000KT 10SM CLR 04/01 A2978 1000 76 0 000/00 RMK AO2
14837KMSN MSN20011218192509312/18/01 19:25:31  5-MIN KMSN 190125Z 00000KT 10SM CLR 05/01 A2978 1000 76 100 000/00 RMK AO2
14837KMSN MSN20011218193009312/18/01 19:30:31  5-MIN KMSN 190130Z 00000KT 10SM CLR 06/01 A2978 1000 73 100 000/00 RMK AO2
14837KMSN MSN20011218193509312/18/01 19:35:31  5-MIN KMSN 190135Z 00000KT 10SM CLR 05/01 A2977 1000 76 100 000/00 RMK AO2
14837KMSN MSN20011219064509712/19/01 06:45:31  5-MIN KMSN 191245Z 31011KT 10SM OVC025 01/M04 A2980 980 69 -500 310/11 RMK AO2
14837KMSN MSN20011219065011412/19/01 06:50:31  5-MIN KMSN 191250Z 31010KT 10SM OVC025 01/M04 A2980 970 69 -500 310/10 RMK AO2 SLP099 T00061044
14837KMSN MSN20011219065509712/19/01 06:55:31  5-MIN KMSN 191255Z 30013KT 10SM OVC025 01/M04 A2980 970 69 -500 300/13 RMK AO2
14837KMSN MSN20011219070009712/19/01 07:00:31  5-MIN KMSN 191300Z 31010KT 10SM OVC025 01/M05 A2980 970 66 -500 310/10 RMK AO2
14837KMSN MSN20011219070509712/19/01 07:05:31  5-MIN KMSN 191305Z 30011KT 10SM OVC025 00/M04 A2980 970 72 -500 300/11 RMK AO2
14837KMSN MSN20011219071009712/19/01 07:10:31  5-MIN KMSN 191310Z 30010KT 10SM OVC027 00/M05 A2981 970 69 -500 300/10 RMK AO2
14837KMSN MSN20011219071510312/19/01 07:15:31  5-MIN KMSN 191315Z 30009G16KT 10SM OVC027 00/M05 A2981 970 69 -500 300/09G16 RMK AO2
14837KMSN MSN20011219072010312/19/01 07:20:31  5-MIN KMSN 191320Z 31012G16KT 10SM OVC027 00/M06 A2981 970 66 -500 300/12G16 RMK AO2
14837KMSN MSN20011219072510312/19/01 07:25:31  5-MIN KMSN 191325Z 31010G20KT 10SM OVC025 00/M06 A2981 970 66 -500 310/10G20 RMK AO2
14837KMSN MSN20011219073010412/19/01 07:30:31  5-MIN KMSN 191330Z 31012G20KT 10SM OVC025 M01/M06 A2981 960 69 -600 310/12G20 RMK AO2
14837KMSN MSN20011219073510412/19/01 07:35:31  5-MIN KMSN 191335Z 32012G19KT 10SM OVC025 M01/M07 A2982 960 63 -600 320/12G19 RMK AO2
14837KMSN MSN20011219074010412/19/01 07:40:31  5-MIN KMSN 191340Z 31014G19KT 10SM OVC025 M01/M07 A2982 960 63 -700 310/14G19 RMK AO2
14837KMSN MSN20011219074510412/19/01 07:45:31  5-MIN KMSN 191345Z 31014G20KT 10SM OVC025 M01/M07 A2982 960 63 -700 310/14G20 RMK AO2
14837KMSN MSN20011219075012112/19/01 07:50:31  5-MIN KMSN 191350Z 31013G20KT 10SM OVC025 M01/M07 A2982 950 63 -700 310/13G20 RMK AO2 SLP107 T10111072
14837KMSN MSN20011219075512012/19/01 07:55:31  5-MIN KMSN 191355Z 31016G22KT 280V340 10SM OVC025 M01/M07 A2983 950 63 -700 310/16G22 280V340 RMK AO2
14837KMSN MSN20011219080010412/19/01 08:00:31  5-MIN KMSN 191400Z 31015G22KT 10SM OVC027 M02/M08 A2983 950 63 -800 310/15G22 RMK AO2
14837KMSN MSN20011219080510412/19/01 08:05:31  5-MIN KMSN 191405Z 31015G22KT 10SM OVC027 M02/M08 A2983 950 63 -800 310/15G22 RMK AO2
14837KMSN MSN20011219081010412/19/01 08:10:31  5-MIN KMSN 191410Z 31014G21KT 10SM OVC027 M02/M08 A2983 940 63 -800 310/14G21 RMK AO2
14837KMSN MSN20011219081510412/19/01 08:15:31  5-MIN KMSN 191415Z 32011G19KT 10SM OVC027 M02/M08 A2984 940 63 -800 320/11G19 RMK AO2
14837KMSN MSN20011219082010412/19/01 08:20:31  5-MIN KMSN 191420Z 31012G18KT 10SM OVC027 M02/M08 A2984 940 63 -800 310/12G18 RMK AO2
14837KMSN MSN20011219082510412/19/01 08:25:31  5-MIN KMSN 191425Z 31012G18KT 10SM OVC027 M02/M08 A2984 940 63 -800 310/12G18 RMK AO2
14837KMSN MSN20011219083010412/19/01 08:30:31  5-MIN KMSN 191430Z 31014G18KT 10SM BKN027 M02/M08 A2984 940 63 -800 310/14G18 RMK AO2
14837KMSN MSN20011219083510412/19/01 08:35:31  5-MIN KMSN 191435Z 31010G19KT 10SM BKN027 M02/M08 A2984 940 63 -800 310/10G19 RMK AO2
14837KMSN MSN20011219084010412/19/01 08:40:31  5-MIN KMSN 191440Z 32010G19KT 10SM BKN027 M02/M07 A2984 940 66 -800 320/10G19 RMK AO2
14837KMSN MSN20011219084509812/19/01 08:45:31  5-MIN KMSN 191445Z 32011KT 10SM BKN027 M02/M07 A2984 940 66 -800 320/11 RMK AO2
14837KMSN MSN20011219085012112/19/01 08:50:31  5-MIN KMSN 191450Z 33012KT 10SM BKN027 M02/M07 A2985 930 66 -800 330/12 RMK AO2 SLP115 T10171072 51003
14837KMSN MSN20011219085510412/19/01 08:55:31  5-MIN KMSN 191455Z 30013G18KT 10SM BKN025 M02/M07 A2985 930 66 -800 300/13G18 RMK AO2
14837KMSN MSN20011219090010412/19/01 09:00:31  5-MIN KMSN 191500Z 31015G19KT 10SM SCT025 M02/M08 A2985 930 63 -800 300/15G19 RMK AO2
14837KMSN MSN20011219090510412/19/01 09:05:31  5-MIN KMSN 191505Z 32015G21KT 10SM SCT025 M01/M07 A2985 930 63 -700 320/15G21 RMK AO2
14837KMSN MSN20011219091010412/19/01 09:10:31  5-MIN KMSN 191510Z 32016G21KT 10SM SCT025 M02/M07 A2985 930 66 -800 310/16G21 RMK AO2
14837KMSN MSN20011219091512012/19/01 09:15:31  5-MIN KMSN 191515Z 32014G21KT 270V340 10SM SCT025 M02/M08 A2985 930 63 -800 320/14G21 270V340 RMK AO2
14837KMSN MSN20011219092010412/19/01 09:20:31  5-MIN KMSN 191520Z 32014G21KT 10SM SCT025 M02/M08 A2985 930 63 -800 320/14G21 RMK AO2
14837KMSN MSN20011219092509812/19/01 09:25:31  5-MIN KMSN 191525Z 31014KT 10SM SCT025 M02/M08 A2985 930 63 -800 310/14 RMK AO2
14837KMSN MSN20011219093010412/19/01 09:30:31  5-MIN KMSN 191530Z 32009G19KT 10SM SCT025 M02/M08 A2985 930 66 -900 320/09G19 RMK AO2
14837KMSN MSN20011219093510412/19/01 09:35:31  5-MIN KMSN 191535Z 31011G19KT 10SM SCT025 M02/M08 A2986 920 66 -900 310/11G19 RMK AO2
14837KMSN MSN20011219094010412/19/01 09:40:31  5-MIN KMSN 191540Z 31012G17KT 10SM FEW025 M02/M07 A2986 920 69 -900 310/12G17 RMK AO2
14837KMSN MSN20011219094510412/19/01 09:45:31  5-MIN KMSN 191545Z 32015G20KT 10SM FEW025 M02/M07 A2986 920 69 -900 320/15G20 RMK AO2
14837KMSN MSN20011219095012112/19/01 09:50:31  5-MIN KMSN 191550Z 31013G20KT 10SM FEW025 M02/M07 A2986 920 66 -800 310/13G20 RMK AO2 SLP119 T10171072
14837KMSN MSN20011219095510412/19/01 09:55:31  5-MIN KMSN 191555Z 31011G16KT 10SM FEW023 M02/M08 A2986 920 63 -800 310/11G16 RMK AO2
14837KMSN MSN20011219100009812/19/01 10:00:31  5-MIN KMSN 191600Z 29010KT 10SM FEW023 M02/M07 A2986 920 66 -800 290/10 RMK AO2
14837KMSN MSN20011219100510412/19/01 10:05:31  5-MIN KMSN 191605Z 30012G17KT 10SM FEW023 M02/M07 A2986 920 66 -800 300/12G17 RMK AO2
14837KMSN MSN20011219101010112/19/01 10:10:31  5-MIN KMSN 191610Z 30010G17KT 10SM CLR M01/M07 A2986 920 63 -700 300/10G17 RMK AO2
14837KMSN MSN20011219101510112/19/01 10:15:31  5-MIN KMSN 191615Z 30011G19KT 10SM CLR M01/M07 A2986 920 63 -700 300/11G19 RMK AO2
14837KMSN MSN20011219102010112/19/01 10:20:31  5-MIN KMSN 191620Z 30010G19KT 10SM CLR M01/M07 A2986 920 63 -700 300/10G19 RMK AO2
14837KMSN MSN20011219102510112/19/01 10:25:31  5-MIN KMSN 191625Z 30011G17KT 10SM CLR M01/M07 A2985 930 63 -700 300/11G17 RMK AO2
14837KMSN MSN20011219103010112/19/01 10:30:31  5-MIN KMSN 191630Z 31013G17KT 10SM CLR M01/M07 A2985 930 63 -700 310/13G17 RMK AO2
14837KMSN MSN20011219103510112/19/01 10:35:31  5-MIN KMSN 191635Z 29009G17KT 10SM CLR M01/M07 A2985 930 63 -700 290/09G17 RMK AO2
14837KMSN MSN20011219104010112/19/01 10:40:31  5-MIN KMSN 191640Z 31014G22KT 10SM CLR M01/M07 A2985 930 61 -700 310/14G22 RMK AO2
14837KMSN MSN20011219104510112/19/01 10:45:31  5-MIN KMSN 191645Z 30010G22KT 10SM CLR M01/M07 A2985 930 61 -700 300/10G22 RMK AO2
14837KMSN MSN20011219105011812/19/01 10:50:31  5-MIN KMSN 191650Z 30014G18KT 10SM CLR M01/M07 A2985 930 61 -600 300/14G18 RMK AO2 SLP115 T10061072
14837KMSN MSN20011219105510112/19/01 10:55:31  5-MIN KMSN 191655Z 30011G20KT 10SM CLR M01/M08 A2984 930 58 -600 300/11G20 RMK AO2
14837KMSN MSN20011219110010112/19/01 11:00:31  5-MIN KMSN 191700Z 29013G20KT 10SM CLR M01/M08 A2984 930 58 -600 290/13G20 RMK AO2
14837KMSN MSN20011219110510112/19/01 11:05:31  5-MIN KMSN 191705Z 31013G20KT 10SM CLR M01/M08 A2984 940 58 -600 310/13G20 RMK AO2
14837KMSN MSN20011219111010012/19/01 11:10:31  5-MIN KMSN 191710Z 31012G20KT 10SM CLR 00/M08 A2984 940 56 -600 310/12G20 RMK AO2
14837KMSN MSN20011219111510012/19/01 11:15:31  5-MIN KMSN 191715Z 30014G19KT 10SM CLR 00/M08 A2984 940 56 -600 300/14G19 RMK AO2
14837KMSN MSN20011219112010012/19/01 11:20:31  5-MIN KMSN 191720Z 32014G22KT 10SM CLR 00/M08 A2984 940 53 -600 310/14G22 RMK AO2
14837KMSN MSN20011219112510012/19/01 11:25:31  5-MIN KMSN 191725Z 31013G22KT 10SM CLR 01/M08 A2984 940 54 -500 310/13G22 RMK AO2
14837KMSN MSN20011219113010012/19/01 11:30:31  5-MIN KMSN 191730Z 30011G16KT 10SM CLR 01/M08 A2983 950 54 -500 300/11G16 RMK AO2
14837KMSN MSN20011219113510012/19/01 11:35:31  5-MIN KMSN 191735Z 31009G17KT 10SM CLR 01/M08 A2983 950 51 -500 310/09G17 RMK AO2
14837KMSN MSN20011219114010012/19/01 11:40:31  5-MIN KMSN 191740Z 31010G18KT 10SM CLR 01/M08 A2983 950 54 -500 310/10G18 RMK AO2
14837KMSN MSN20011219114510012/19/01 11:45:31  5-MIN KMSN 191745Z 30012G18KT 10SM CLR 01/M08 A2983 950 49 -400 300/12G18 RMK AO2
14837KMSN MSN20011219115013512/19/01 11:50:31  5-MIN KMSN 191750Z 31014G20KT 10SM CLR 01/M08 A2983 950 49 -400 310/14G20 RMK AO2 SLP108 T00111083 10011 21022 53016
14837KMSN MSN20011219115510012/19/01 11:55:31  5-MIN KMSN 191755Z 29015G21KT 10SM CLR 01/M08 A2983 950 49 -400 290/15G21 RMK AO2
14837KMSN MSN20011219120010012/19/01 12:00:31  5-MIN KMSN 191800Z 31012G22KT 10SM CLR 01/M09 A2983 950 47 -400 310/12G22 RMK AO2
14837KMSN MSN20011219120510012/19/01 12:05:31  5-MIN KMSN 191805Z 30013G22KT 10SM CLR 02/M09 A2982 950 45 -300 300/13G22 RMK AO2
14837KMSN MSN20011219121010012/19/01 12:10:31  5-MIN KMSN 191810Z 30013G22KT 10SM CLR 02/M08 A2982 950 45 -300 300/13G22 RMK AO2
14837KMSN MSN20011219121510012/19/01 12:15:31  5-MIN KMSN 191815Z 30012G22KT 10SM CLR 02/M09 A2982 960 45 -300 300/12G22 RMK AO2
14837KMSN MSN20011219122010012/19/01 12:20:31  5-MIN KMSN 191820Z 31016G24KT 10SM CLR 02/M09 A2982 960 42 -300 310/16G24 RMK AO2
14837KMSN MSN20011219122511812/19/01 12:25:31  5-MIN KMSN 191825Z 30021G27KT 10SM CLR 02/M11 A2982 960 38 -300 300/21G27 RMK AO2 PK WND 30027/1825
14837KMSN MSN20011219123011812/19/01 12:30:31  5-MIN KMSN 191830Z 31018G27KT 10SM CLR 02/M11 A2982 960 37 -300 310/18G27 RMK AO2 PK WND 30027/1825
14837KMSN MSN20011219123511812/19/01 12:35:31  5-MIN KMSN 191835Z 30015G24KT 10SM CLR 02/M11 A2982 960 38 -300 300/15G24 RMK AO2 PK WND 30027/1825
14837KMSN MSN20011219124011812/19/01 12:40:31  5-MIN KMSN 191840Z 30014G25KT 10SM CLR 02/M11 A2982 960 37 -300 300/14G25 RMK AO2 PK WND 30027/1825
14837KMSN MSN20011219124511812/19/01 12:45:31  5-MIN KMSN 191845Z 30016G25KT 10SM CLR 02/M11 A2982 960 37 -300 300/16G25 RMK AO2 PK WND 30027/1825
14837KMSN MSN20011219125013512/19/01 12:50:31  5-MIN KMSN 191850Z 30020G26KT 10SM CLR 02/M12 A2982 960 35 -300 300/20G26 RMK AO2 PK WND 30027/1825 SLP104 T00221117
14837KMSN MSN20011219125511812/19/01 12:55:31  5-MIN KMSN 191855Z 30018G29KT 10SM CLR 02/M12 A2981 960 33 -300 300/18G29 RMK AO2 PK WND 28029/1855
14837KMSN MSN20011219130011812/19/01 13:00:31  5-MIN KMSN 191900Z 30015G29KT 10SM CLR 02/M12 A2982 960 33 -300 300/15G29 RMK AO2 PK WND 28029/1855
14837KMSN MSN20011219130511812/19/01 13:05:31  5-MIN KMSN 191905Z 31020G28KT 10SM CLR 02/M12 A2982 960 35 -300 310/20G28 RMK AO2 PK WND 28029/1855
14837KMSN MSN20011219131011812/19/01 13:10:31  5-MIN KMSN 191910Z 29016G28KT 10SM CLR 02/M12 A2982 960 33 -300 290/16G28 RMK AO2 PK WND 28029/1855
14837KMSN MSN20011219131511812/19/01 13:15:31  5-MIN KMSN 191915Z 31015G23KT 10SM CLR 03/M12 A2982 960 34 -200 310/15G23 RMK AO2 PK WND 28029/1855
14837KMSN MSN20011219132011812/19/01 13:20:31  5-MIN KMSN 191920Z 30013G23KT 10SM CLR 03/M12 A2982 960 32 -200 290/13G23 RMK AO2 PK WND 28029/1855
14837KMSN MSN20011219132511812/19/01 13:25:31  5-MIN KMSN 191925Z 29013G22KT 10SM CLR 03/M11 A2982 960 35 -200 290/13G22 RMK AO2 PK WND 28029/1855
14837KMSN MSN20011219133011812/19/01 13:30:31  5-MIN KMSN 191930Z 29013G17KT 10SM CLR 03/M11 A2982 950 35 -200 290/13G17 RMK AO2 PK WND 28029/1855
14837KMSN MSN20011219133511812/19/01 13:35:31  5-MIN KMSN 191935Z 30015G21KT 10SM CLR 03/M12 A2982 950 32 -200 300/15G21 RMK AO2 PK WND 28029/1855
14837KMSN MSN20011219134011812/19/01 13:40:31  5-MIN KMSN 191940Z 30015G21KT 10SM CLR 03/M13 A2982 950 31 -200 300/15G21 RMK AO2 PK WND 28029/1855
14837KMSN MSN20011219134511812/19/01 13:45:31  5-MIN KMSN 191945Z 31015G24KT 10SM CLR 03/M13 A2982 950 31 -200 310/15G24 RMK AO2 PK WND 28029/1855
14837KMSN MSN20011219135013512/19/01 13:50:31  5-MIN KMSN 191950Z 30013G24KT 10SM CLR 03/M13 A2983 950 30 -100 300/13G24 RMK AO2 PK WND 28029/1855 SLP107 T00331128
14837KMSN MSN20011219135510012/19/01 13:55:31  5-MIN KMSN 191955Z 31017G27KT 10SM CLR 03/M13 A2983 950 29 -200 300/17G27 RMK AO2
14837KMSN MSN20011219140010012/19/01 14:00:31  5-MIN KMSN 192000Z 31013G27KT 10SM CLR 03/M14 A2983 950 27 -200 310/13G27 RMK AO2
14837KMSN MSN20011219140510312/19/01 14:05:31  5-MIN KMSN 192005Z 31014G21KT 10SM FEW045 03/M14 A2983 950 28 -200 310/14G21 RMK AO2
14837KMSN MSN20011219141010312/19/01 14:10:31  5-MIN KMSN 192010Z 31016G24KT 10SM FEW045 03/M14 A2983 950 27 -200 310/16G24 RMK AO2
14837KMSN MSN20011219141512112/19/01 14:15:31  5-MIN KMSN 192015Z 31019G26KT 10SM FEW045 03/M15 A2983 940 26 -200 310/19G26 RMK AO2 PK WND 31026/2013
14837KMSN MSN20011219142012112/19/01 14:20:31  5-MIN KMSN 192020Z 31020G26KT 10SM FEW045 03/M16 A2983 940 25 -200 310/20G26 RMK AO2 PK WND 29026/2019
14837KMSN MSN20011219142512112/19/01 14:25:31  5-MIN KMSN 192025Z 30013G26KT 10SM FEW045 03/M15 A2984 940 26 -200 300/13G26 RMK AO2 PK WND 29026/2019
14837KMSN MSN20011219143012112/19/01 14:30:31  5-MIN KMSN 192030Z 31013G25KT 10SM FEW045 03/M14 A2984 940 27 -200 310/13G25 RMK AO2 PK WND 29026/2019
14837KMSN MSN20011219143512112/19/01 14:35:31  5-MIN KMSN 192035Z 30013G23KT 10SM FEW045 03/M16 A2984 940 25 -200 300/13G23 RMK AO2 PK WND 29026/2019
14837KMSN MSN20011219144012112/19/01 14:40:31  5-MIN KMSN 192040Z 30017G28KT 10SM FEW045 03/M16 A2984 940 25 -200 300/17G28 RMK AO2 PK WND 31028/2036
14837KMSN MSN20011219144512112/19/01 14:45:31  5-MIN KMSN 192045Z 31021G28KT 10SM FEW045 03/M16 A2985 930 23 -200 310/21G28 RMK AO2 PK WND 31028/2036
14837KMSN MSN20011219145014412/19/01 14:50:31  5-MIN KMSN 192050Z 31018G26KT 10SM FEW045 02/M16 A2985 930 24 -300 310/18G26 RMK AO2 PK WND 31028/2036 SLP114 T00221161 58007
14837KMSN MSN20011219145510012/19/01 14:55:31  5-MIN KMSN 192055Z 31016G24KT 10SM CLR 02/M16 A2985 930 24 -300 310/16G24 RMK AO2
14837KMSN MSN20011219150010012/19/01 15:00:31  5-MIN KMSN 192100Z 32012G24KT 10SM CLR 02/M16 A2985 930 26 -300 320/12G24 RMK AO2
14837KMSN MSN20011219150510012/19/01 15:05:31  5-MIN KMSN 192105Z 31018G25KT 10SM CLR 02/M16 A2985 930 26 -300 310/18G25 RMK AO2
14837KMSN MSN20011219151010012/19/01 15:10:31  5-MIN KMSN 192110Z 31011G25KT 10SM CLR 02/M16 A2985 930 26 -300 310/11G25 RMK AO2
14837KMSN MSN20011219151510012/19/01 15:15:31  5-MIN KMSN 192115Z 30014G20KT 10SM CLR 02/M15 A2986 920 27 -300 300/14G20 RMK AO2
14837KMSN MSN20011219152010012/19/01 15:20:31  5-MIN KMSN 192120Z 31012G20KT 10SM CLR 02/M15 A2986 920 27 -300 310/12G20 RMK AO2
14837KMSN MSN20011219152510012/19/01 15:25:31  5-MIN KMSN 192125Z 30014G25KT 10SM CLR 02/M15 A2986 920 27 -300 300/14G25 RMK AO2
14837KMSN MSN20011219153010012/19/01 15:30:31  5-MIN KMSN 192130Z 30014G25KT 10SM CLR 02/M15 A2986 920 27 -300 300/14G25 RMK AO2
14837KMSN MSN20011219153510012/19/01 15:35:31  5-MIN KMSN 192135Z 30012G22KT 10SM CLR 02/M16 A2987 920 26 -300 300/12G22 RMK AO2
14837KMSN MSN20011219154010012/19/01 15:40:31  5-MIN KMSN 192140Z 30010G20KT 10SM CLR 02/M15 A2987 910 27 -300 300/10G20 RMK AO2
14837KMSN MSN20011219154510012/19/01 15:45:31  5-MIN KMSN 192145Z 30011G16KT 10SM CLR 02/M15 A2987 910 27 -300 300/11G16 RMK AO2
14837KMSN MSN20011219155011712/19/01 15:50:31  5-MIN KMSN 192150Z 30012G17KT 10SM CLR 02/M15 A2987 910 28 -400 300/12G17 RMK AO2 SLP124 T00171150
14837KMSN MSN20011219155510012/19/01 15:55:31  5-MIN KMSN 192155Z 30016G20KT 10SM CLR 02/M16 A2988 910 27 -400 300/16G20 RMK AO2
14837KMSN MSN20011219160010012/19/01 16:00:31  5-MIN KMSN 192200Z 30015G22KT 10SM CLR 02/M16 A2988 900 27 -400 300/15G22 RMK AO2
14837KMSN MSN20011219160510012/19/01 16:05:31  5-MIN KMSN 192205Z 30016G24KT 10SM CLR 02/M16 A2988 900 27 -400 300/16G24 RMK AO2
14837KMSN MSN20011219161010012/19/01 16:10:31  5-MIN KMSN 192210Z 30016G24KT 10SM CLR 02/M16 A2988 900 25 -400 300/16G24 RMK AO2
14837KMSN MSN20011219161510012/19/01 16:15:31  5-MIN KMSN 192215Z 30012G21KT 10SM CLR 02/M16 A2989 900 25 -400 300/12G21 RMK AO2
14837KMSN MSN20011219162010012/19/01 16:20:31  5-MIN KMSN 192220Z 29013G21KT 10SM CLR 02/M16 A2989 890 25 -400 290/13G21 RMK AO2
14837KMSN MSN20011219162510012/19/01 16:25:31  5-MIN KMSN 192225Z 30011G21KT 10SM CLR 02/M16 A2989 890 27 -400 300/11G21 RMK AO2
14837KMSN MSN20011219163011012/19/01 16:30:31  5-MIN KMSN 192230Z 30011KT 260V330 10SM CLR 02/M15 A2989 890 28 -400 300/11 260V330 RMK AO2
14837KMSN MSN20011219163510012/19/01 16:35:31  5-MIN KMSN 192235Z 30014G21KT 10SM CLR 02/M16 A2990 890 27 -400 300/14G21 RMK AO2
14837KMSN MSN20011219164010012/19/01 16:40:31  5-MIN KMSN 192240Z 29012G21KT 10SM CLR 01/M16 A2990 890 28 -500 290/12G21 RMK AO2
14837KMSN MSN20011219164510012/19/01 16:45:31  5-MIN KMSN 192245Z 29009G19KT 10SM CLR 01/M16 A2990 880 28 -500 290/09G19 RMK AO2
14837KMSN MSN20011219165011712/19/01 16:50:31  5-MIN KMSN 192250Z 28009G18KT 10SM CLR 01/M15 A2991 880 29 -500 280/09G18 RMK AO2 SLP136 T00111150
14837KMSN MSN20011219165509412/19/01 16:55:31  5-MIN KMSN 192255Z 28010KT 10SM CLR 01/M14 A2991 870 32 -600 270/10 RMK AO2
14837KMSN MSN20011219170010012/19/01 17:00:31  5-MIN KMSN 192300Z 28011G17KT 10SM CLR 01/M14 A2991 870 33 -600 270/11G17 RMK AO2
14837KMSN MSN20011219170510012/19/01 17:05:31  5-MIN KMSN 192305Z 28010G17KT 10SM CLR 01/M14 A2991 870 33 -600 280/10G17 RMK AO2
14837KMSN MSN20011219171010012/19/01 17:10:31  5-MIN KMSN 192310Z 28010G15KT 10SM CLR 01/M13 A2992 870 35 -600 280/10G15 RMK AO2
14837KMSN MSN20011219171510012/19/01 17:15:31  5-MIN KMSN 192315Z 29010G18KT 10SM CLR 01/M13 A2992 870 35 -600 290/10G18 RMK AO2
14837KMSN MSN20011219172010012/19/01 17:20:31  5-MIN KMSN 192320Z 28010G18KT 10SM CLR 01/M13 A2992 860 35 -600 280/10G18 RMK AO2
14837KMSN MSN20011219172510012/19/01 17:25:31  5-MIN KMSN 192325Z 28009G16KT 10SM CLR 01/M13 A2992 860 35 -600 280/09G16 RMK AO2
14837KMSN MSN20011219173010012/19/01 17:30:31  5-MIN KMSN 192330Z 29012G16KT 10SM CLR 01/M13 A2992 860 35 -600 290/12G16 RMK AO2
14837KMSN MSN20011219173510012/19/01 17:35:31  5-MIN KMSN 192335Z 28012G16KT 10SM CLR 01/M13 A2993 860 35 -600 280/12G16 RMK AO2
14837KMSN MSN20011219174010012/19/01 17:40:31  5-MIN KMSN 192340Z 29012G16KT 10SM CLR 01/M13 A2993 860 36 -600 290/12G16 RMK AO2
14837KMSN MSN20011219174510012/19/01 17:45:31  5-MIN KMSN 192345Z 29010G20KT 10SM CLR 01/M13 A2993 860 36 -600 290/10G20 RMK AO2
14837KMSN MSN20011219175013512/19/01 17:50:31  5-MIN KMSN 192350Z 28011G20KT 10SM CLR 01/M13 A2993 860 36 -600 280/11G20 RMK AO2 SLP144 T00061128 10033 20006 53006
14837KMSN MSN20011219175510012/19/01 17:55:31  5-MIN KMSN 192355Z 28010G16KT 10SM CLR 01/M13 A2993 850 36 -600 280/10G16 RMK AO2
14837KMSN MSN20011219180010012/19/01 18:00:31  5-MIN KMSN 200000Z 28008G16KT 10SM CLR 00/M13 A2993 850 38 -700 280/08G16 RMK AO2
14837KMSN MSN20011219180509412/19/01 18:05:31  5-MIN KMSN 200005Z 28011KT 10SM CLR 00/M13 A2994 850 36 -700 280/11 RMK AO2
14837KMSN MSN20011219181009412/19/01 18:10:31  5-MIN KMSN 200010Z 28010KT 10SM CLR 00/M13 A2994 850 38 -700 280/10 RMK AO2
14837KMSN MSN20011219181509412/19/01 18:15:31  5-MIN KMSN 200015Z 28008KT 10SM CLR 00/M13 A2994 850 38 -700 280/08 RMK AO2
14837KMSN MSN20011219182009412/19/01 18:20:31  5-MIN KMSN 200020Z 28010KT 10SM CLR 00/M13 A2994 850 38 -700 280/10 RMK AO2
14837KMSN MSN20011219182509412/19/01 18:25:31  5-MIN KMSN 200025Z 28007KT 10SM CLR 00/M13 A2994 840 38 -700 280/07 RMK AO2
14837KMSN MSN20011219183009412/19/01 18:30:31  5-MIN KMSN 200030Z 28009KT 10SM CLR 00/M13 A2994 840 38 -700 280/09 RMK AO2
14837KMSN MSN20011219183509412/19/01 18:35:31  5-MIN KMSN 200035Z 27008KT 10SM CLR 00/M13 A2994 840 38 -700 270/08 RMK AO2
14837KMSN MSN20011219184009412/19/01 18:40:31  5-MIN KMSN 200040Z 28009KT 10SM CLR 00/M13 A2995 840 38 -700 280/09 RMK AO2
14837KMSN MSN20011219190009412/19/01 19:00:31  5-MIN KMSN 200100Z 28007KT 10SM CLR 00/M13 A2995 840 38 -700 280/07 RMK AO2
14837KMSN MSN20011219190509512/19/01 19:05:31  5-MIN KMSN 200105Z 27008KT 10SM CLR M01/M12 A2995 840 41 -800 270/08 RMK AO2
14837KMSN MSN20011219191009512/19/01 19:10:31  5-MIN KMSN 200110Z 28009KT 10SM CLR M01/M12 A2995 840 41 -800 280/09 RMK AO2
14837KMSN MSN20011219191509512/19/01 19:15:31  5-MIN KMSN 200115Z 27009KT 10SM CLR M01/M12 A2995 840 41 -800 270/09 RMK AO2
14837KMSN MSN20011219192009512/19/01 19:20:31  5-MIN KMSN 200120Z 27008KT 10SM CLR M01/M12 A2995 830 41 -800 270/08 RMK AO2
14837KMSN MSN20011219192509512/19/01 19:25:31  5-MIN KMSN 200125Z 28008KT 10SM CLR M01/M12 A2995 830 41 -800 280/08 RMK AO2
14837KMSN MSN20011219193009512/19/01 19:30:31  5-MIN KMSN 200130Z 28008KT 10SM CLR M01/M12 A2996 830 43 -800 280/08 RMK AO2
14837KMSN MSN20011219193509512/19/01 19:35:31  5-MIN KMSN 200135Z 28010KT 10SM CLR M01/M12 A2996 830 43 -800 280/10 RMK AO2
14837KMSN MSN20011219194009512/19/01 19:40:31  5-MIN KMSN 200140Z 28009KT 10SM CLR M01/M12 A2996 830 43 -800 280/09 RMK AO2
14837KMSN MSN20011219194509412/19/01 19:45:31  5-MIN KMSN 200145Z 28010KT 10SM CLR 00/M12 A2996 830 41 -700 280/10 RMK AO2
14837KMSN MSN20011219195011712/19/01 19:50:31  5-MIN KMSN 200150Z 29011G16KT 10SM CLR 00/M12 A2996 830 41 -700 290/11G16 RMK AO2 SLP156 T00001117
14837KMSN MSN20011219195510012/19/01 19:55:31  5-MIN KMSN 200155Z 28010G16KT 10SM CLR 00/M12 A2996 830 41 -700 280/10G16 RMK AO2
14837KMSN MSN20011219200010012/19/01 20:00:31  5-MIN KMSN 200200Z 28010G16KT 10SM CLR 00/M12 A2996 830 41 -700 280/10G16 RMK AO2
14837KMSN MSN20011219200510012/19/01 20:05:31  5-MIN KMSN 200205Z 28011G16KT 10SM CLR 00/M12 A2996 830 41 -700 280/11G16 RMK AO2
14837KMSN MSN20011219201010012/19/01 20:10:31  5-MIN KMSN 200210Z 28011G16KT 10SM CLR 00/M11 A2996 820 43 -700 280/11G16 RMK AO2
14837KMSN MSN20011219201510012/19/01 20:15:31  5-MIN KMSN 200215Z 28009G16KT 10SM CLR 00/M12 A2996 830 41 -700 270/09G16 RMK AO2
14837KMSN MSN20011219202009412/19/01 20:20:31  5-MIN KMSN 200220Z 28010KT 10SM CLR 00/M12 A2996 830 41 -700 280/10 RMK AO2
14837KMSN MSN20011219202510012/19/01 20:25:31  5-MIN KMSN 200225Z 28011G15KT 10SM CLR 00/M11 A2996 820 43 -700 280/11G15 RMK AO2
14837KMSN MSN20011219203009412/19/01 20:30:31  5-MIN KMSN 200230Z 28010KT 10SM CLR 00/M11 A2997 820 43 -700 280/10 RMK AO2
14837KMSN MSN20011219203510012/19/01 20:35:31  5-MIN KMSN 200235Z 28010G16KT 10SM CLR 00/M11 A2997 820 43 -700 280/10G16 RMK AO2
14837KMSN MSN20011219204010112/19/01 20:40:31  5-MIN KMSN 200240Z 28010G16KT 10SM CLR M01/M11 A2997 820 45 -800 280/10G16 RMK AO2
14837KMSN MSN20011219204509412/19/01 20:45:31  5-MIN KMSN 200245Z 28011KT 10SM CLR 00/M11 A2997 820 43 -700 280/11 RMK AO2
14837KMSN MSN20011219205012312/19/01 20:50:31  5-MIN KMSN 200250Z 28010G17KT 10SM CLR 00/M11 A2997 820 43 -700 280/10G17 RMK AO2 SLP159 T00001111 51028
14837KMSN MSN20011219205510012/19/01 20:55:31  5-MIN KMSN 200255Z 29009G17KT 10SM CLR 00/M11 A2997 820 43 -700 280/09G17 RMK AO2
14837KMSN MSN20011219210010112/19/01 21:00:31  5-MIN KMSN 200300Z 28009G15KT 10SM CLR M01/M11 A2997 820 47 -800 280/09G15 RMK AO2
14837KMSN MSN20011219210510012/19/01 21:05:31  5-MIN KMSN 200305Z 28009G16KT 10SM CLR 00/M11 A2997 820 45 -700 280/09G16 RMK AO2
14837KMSN MSN20011219211010112/19/01 21:10:31  5-MIN KMSN 200310Z 28010G16KT 10SM CLR M01/M11 A2997 810 47 -800 280/10G16 RMK AO2
14837KMSN MSN20011219211511112/19/01 21:15:31  5-MIN KMSN 200315Z 28009KT 230V300 10SM CLR M01/M11 A2997 810 47 -800 270/09 230V300 RMK AO2
14837KMSN MSN20011219212009512/19/01 21:20:31  5-MIN KMSN 200320Z 28008KT 10SM CLR M01/M10 A2998 810 49 -800 280/08 RMK AO2
14837KMSN MSN20011219212510112/19/01 21:25:31  5-MIN KMSN 200325Z 28008G15KT 10SM CLR M01/M11 A2998 810 47 -800 280/08G15 RMK AO2
14837KMSN MSN20011219213010112/19/01 21:30:31  5-MIN KMSN 200330Z 29008G15KT 10SM CLR M01/M11 A2998 810 47 -800 280/08G15 RMK AO2
14837KMSN MSN20011219213510112/19/01 21:35:31  5-MIN KMSN 200335Z 27008G15KT 10SM CLR M01/M10 A2998 810 49 -800 270/08G15 RMK AO2
14837KMSN MSN20011219214010112/19/01 21:40:31  5-MIN KMSN 200340Z 28008G15KT 10SM CLR M01/M10 A2998 800 49 -800 280/08G15 RMK AO2
14837KMSN MSN20011219214509512/19/01 21:45:31  5-MIN KMSN 200345Z 28009KT 10SM CLR M01/M10 A2999 800 49 -800 280/09 RMK AO2
14837KMSN MSN20011219215011212/19/01 21:50:31  5-MIN KMSN 200350Z 27008KT 10SM CLR M01/M10 A2999 800 49 -800 270/08 RMK AO2 SLP165 T10061100
14837KMSN MSN20011219215509512/19/01 21:55:31  5-MIN KMSN 200355Z 28009KT 10SM CLR M01/M10 A2999 800 49 -800 270/09 RMK AO2
14837KMSN MSN20011219220010112/19/01 22:00:31  5-MIN KMSN 200400Z 28008G15KT 10SM CLR M01/M10 A2999 800 49 -800 280/08G15 RMK AO2
14837KMSN MSN20011219220510112/19/01 22:05:31  5-MIN KMSN 200405Z 28008G15KT 10SM CLR M01/M10 A2999 800 49 -800 280/08G15 RMK AO2
14837KMSN MSN20011219221010112/19/01 22:10:31  5-MIN KMSN 200410Z 28008G15KT 10SM CLR M01/M10 A2999 800 49 -800 270/08G15 RMK AO2
14837KMSN MSN20011219221510112/19/01 22:15:31  5-MIN KMSN 200415Z 28008G15KT 10SM CLR M01/M10 A3000 790 49 -800 280/08G15 RMK AO2
14837KMSN MSN20011219222009512/19/01 22:20:31  5-MIN KMSN 200420Z 28007KT 10SM CLR M01/M10 A3000 790 49 -800 280/07 RMK AO2
14837KMSN MSN20011219222509512/19/01 22:25:31  5-MIN KMSN 200425Z 28009KT 10SM CLR M01/M10 A3000 790 49 -800 280/09 RMK AO2
14837KMSN MSN20011219223009512/19/01 22:30:31  5-MIN KMSN 200430Z 28008KT 10SM CLR M01/M10 A3000 790 49 -800 280/08 RMK AO2
14837KMSN MSN20011219223509512/19/01 22:35:31  5-MIN KMSN 200435Z 28007KT 10SM CLR M01/M10 A3000 790 51 -900 280/07 RMK AO2
14837KMSN MSN20011219224009512/19/01 22:40:31  5-MIN KMSN 200440Z 27008KT 10SM CLR M01/M10 A3001 790 51 -900 270/08 RMK AO2
14837KMSN MSN20011219224509512/19/01 22:45:31  5-MIN KMSN 200445Z 27007KT 10SM CLR M01/M10 A3001 780 51 -900 270/07 RMK AO2
14837KMSN MSN20011219225011212/19/01 22:50:31  5-MIN KMSN 200450Z 27007KT 10SM CLR M01/M09 A3001 780 53 -900 270/07 RMK AO2 SLP172 T10111094
14837KMSN MSN20011219225509512/19/01 22:55:31  5-MIN KMSN 200455Z 27007KT 10SM CLR M01/M10 A3001 780 51 -900 270/07 RMK AO2
14837KMSN MSN20011219230009512/19/01 23:00:31  5-MIN KMSN 200500Z 27007KT 10SM CLR M01/M10 A3001 780 51 -900 270/07 RMK AO2
14837KMSN MSN20011219230509512/19/01 23:05:31  5-MIN KMSN 200505Z 27006KT 10SM CLR M01/M10 A3001 780 51 -900 270/06 RMK AO2
14837KMSN MSN20011219231009612/19/01 23:10:31  5-MIN KMSN 200510Z 27006KT 10SM CLR M02/M09 A3001 780 55 -1000 270/06 RMK AO2
14837KMSN MSN20011219231509612/19/01 23:15:31  5-MIN KMSN 200515Z 27007KT 10SM CLR M02/M09 A3001 780 55 -1000 270/07 RMK AO2
14837KMSN MSN20011219232009612/19/01 23:20:31  5-MIN KMSN 200520Z 27007KT 10SM CLR M02/M09 A3001 780 55 -1000 270/07 RMK AO2
14837KMSN MSN20011219232511112/19/01 23:25:31  5-MIN KMSN 200525Z 27007KT 240V310 10SM CLR M01/M09 A3001 780 53 -900 270/07 240V310 RMK AO2
14837KMSN MSN20011219233009612/19/01 23:30:31  5-MIN KMSN 200530Z 26007KT 10SM CLR M02/M09 A3001 780 55 -1000 260/07 RMK AO2
14837KMSN MSN20011219233509612/19/01 23:35:31  5-MIN KMSN 200535Z 27007KT 10SM CLR M02/M09 A3002 780 55 -1000 270/07 RMK AO2
14837KMSN MSN20011219234009612/19/01 23:40:31  5-MIN KMSN 200540Z 27006KT 10SM CLR M02/M09 A3002 780 55 -1000 260/06 RMK AO2
14837KMSN MSN20011219234509612/19/01 23:45:31  5-MIN KMSN 200545Z 27005KT 10SM CLR M02/M09 A3002 780 55 -1000 270/05 RMK AO2
14837KMSN MSN20011219235014112/19/01 23:50:31  5-MIN KMSN 200550Z 26007KT 10SM CLR M02/M09 A3002 770 55 -1000 260/07 RMK AO2 SLP174 T10171094 10006 21017 400331022 51013
14837KMSN MSN20011219235509612/19/01 23:55:31  5-MIN KMSN 200555Z 26006KT 10SM CLR M02/M09 A3002 780 55 -1000 260/06 RMK AO2
14837KMSN MSN20011220000009612/20/01 00:00:31  5-MIN KMSN 200600Z 27006KT 10SM CLR M02/M09 A3002 770 55 -1000 260/06 RMK AO2
14837KMSN MSN20011220000509612/20/01 00:05:31  5-MIN KMSN 200605Z 26006KT 10SM CLR M02/M09 A3002 770 55 -1000 260/06 RMK AO2
14837KMSN MSN20011220001009612/20/01 00:10:31  5-MIN KMSN 200610Z 26007KT 10SM CLR M02/M09 A3002 770 58 -1000 260/07 RMK AO2
14837KMSN MSN20011220001509612/20/01 00:15:31  5-MIN KMSN 200615Z 25005KT 10SM CLR M02/M09 A3002 770 58 -1000 250/05 RMK AO2
14837KMSN MSN20011220002009612/20/01 00:20:31  5-MIN KMSN 200620Z VRB05KT 10SM CLR M02/M09 A3002 770 55 -1000 VRB/05 RMK AO2
14837KMSN MSN20011220002509612/20/01 00:25:31  5-MIN KMSN 200625Z 26006KT 10SM CLR M02/M09 A3002 770 58 -1000 260/06 RMK AO2
14837KMSN MSN20011220003009612/20/01 00:30:31  5-MIN KMSN 200630Z 26007KT 10SM CLR M02/M09 A3002 770 60 -1100 260/07 RMK AO2
14837KMSN MSN20011220003509612/20/01 00:35:31  5-MIN KMSN 200635Z 26007KT 10SM CLR M02/M09 A3003 770 58 -1000 260/07 RMK AO2
14837KMSN MSN20011220004009612/20/01 00:40:31  5-MIN KMSN 200640Z 26006KT 10SM CLR M02/M09 A3003 770 58 -1000 260/06 RMK AO2
14837KMSN MSN20011220004509612/20/01 00:45:31  5-MIN KMSN 200645Z 26008KT 10SM CLR M02/M09 A3003 760 60 -1100 260/08 RMK AO2
14837KMSN MSN20011220005011312/20/01 00:50:31  5-MIN KMSN 200650Z 27006KT 10SM CLR M02/M09 A3003 760 58 -1000 270/06 RMK AO2 SLP178 T10171089
14837KMSN MSN20011220005509612/20/01 00:55:31  5-MIN KMSN 200655Z 26007KT 10SM CLR M02/M09 A3003 760 58 -1000 260/07 RMK AO2
14837KMSN MSN20011220010009612/20/01 01:00:31  5-MIN KMSN 200700Z 26007KT 10SM CLR M02/M09 A3003 760 60 -1100 260/07 RMK AO2
14837KMSN MSN20011220010509612/20/01 01:05:31  5-MIN KMSN 200705Z 26007KT 10SM CLR M02/M09 A3003 760 60 -1100 260/07 RMK AO2
14837KMSN MSN20011220011009612/20/01 01:10:31  5-MIN KMSN 200710Z VRB06KT 10SM CLR M02/M09 A3003 760 60 -1100 VRB/06 RMK AO2
14837KMSN MSN20011220011509612/20/01 01:15:31  5-MIN KMSN 200715Z 26006KT 10SM CLR M02/M09 A3003 760 60 -1100 260/06 RMK AO2
14837KMSN MSN20011220012009612/20/01 01:20:31  5-MIN KMSN 200720Z 26005KT 10SM CLR M02/M09 A3003 760 60 -1100 260/05 RMK AO2
14837KMSN MSN20011220012509612/20/01 01:25:31  5-MIN KMSN 200725Z 27006KT 10SM CLR M02/M09 A3003 760 60 -1100 270/06 RMK AO2
14837KMSN MSN20011220013009612/20/01 01:30:31  5-MIN KMSN 200730Z 26006KT 10SM CLR M02/M09 A3004 760 58 -1100 260/06 RMK AO2
14837KMSN MSN20011220013509612/20/01 01:35:31  5-MIN KMSN 200735Z VRB06KT 10SM CLR M02/M09 A3004 750 60 -1100 VRB/06 RMK AO2
14837KMSN MSN20011220014011212/20/01 01:40:31  5-MIN KMSN 200740Z 27007KT 240V310 10SM CLR M02/M09 A3004 750 60 -1100 270/07 240V310 RMK AO2
14837KMSN MSN20011220014509612/20/01 01:45:31  5-MIN KMSN 200745Z 26006KT 10SM CLR M02/M09 A3004 750 60 -1100 260/06 RMK AO2
14837KMSN MSN20011220015011312/20/01 01:50:31  5-MIN KMSN 200750Z 26008KT 10SM CLR M02/M09 A3004 750 60 -1100 260/08 RMK AO2 SLP184 T10221089
14837KMSN MSN20011220015509612/20/01 01:55:31  5-MIN KMSN 200755Z 27007KT 10SM CLR M02/M09 A3005 750 60 -1100 270/07 RMK AO2
14837KMSN MSN20011220020009612/20/01 02:00:31  5-MIN KMSN 200800Z 26007KT 10SM CLR M02/M09 A3005 750 58 -1000 260/07 RMK AO2
14837KMSN MSN20011220020511212/20/01 02:05:31  5-MIN KMSN 200805Z 26007KT 230V290 10SM CLR M02/M09 A3005 750 58 -1000 260/07 230V290 RMK AO2
14837KMSN MSN20011220021009612/20/01 02:10:31  5-MIN KMSN 200810Z 27006KT 10SM CLR M02/M09 A3005 740 58 -1000 260/06 RMK AO2
14837KMSN MSN20011220021509612/20/01 02:15:31  5-MIN KMSN 200815Z 27009KT 10SM CLR M02/M09 A3005 740 58 -1000 270/09 RMK AO2
14837KMSN MSN20011220022009612/20/01 02:20:31  5-MIN KMSN 200820Z 26007KT 10SM CLR M02/M09 A3005 740 58 -1000 260/07 RMK AO2
14837KMSN MSN20011220022509612/20/01 02:25:31  5-MIN KMSN 200825Z 26007KT 10SM CLR M02/M09 A3005 740 58 -1000 260/07 RMK AO2
14837KMSN MSN20011220023009612/20/01 02:30:31  5-MIN KMSN 200830Z 27007KT 10SM CLR M02/M09 A3005 740 60 -1100 270/07 RMK AO2
14837KMSN MSN20011220023509612/20/01 02:35:31  5-MIN KMSN 200835Z 26006KT 10SM CLR M02/M09 A3005 740 60 -1100 260/06 RMK AO2
14837KMSN MSN20011220024009612/20/01 02:40:31  5-MIN KMSN 200840Z 27006KT 10SM CLR M02/M08 A3005 740 63 -1100 270/06 RMK AO2
14837KMSN MSN20011220024509612/20/01 02:45:31  5-MIN KMSN 200845Z 26006KT 10SM CLR M02/M08 A3005 740 63 -1100 260/06 RMK AO2
14837KMSN MSN20011220025011912/20/01 02:50:31  5-MIN KMSN 200850Z 26005KT 10SM CLR M03/M09 A3005 740 63 -1200 260/05 RMK AO2 SLP186 T10281089 51015
14837KMSN MSN20011220025509612/20/01 02:55:31  5-MIN KMSN 200855Z 27005KT 10SM CLR M02/M09 A3005 740 60 -1100 270/05 RMK AO2
14837KMSN MSN20011220030009612/20/01 03:00:31  5-MIN KMSN 200900Z 26005KT 10SM CLR M03/M09 A3005 740 63 -1200 260/05 RMK AO2
14837KMSN MSN20011220030509612/20/01 03:05:31  5-MIN KMSN 200905Z VRB05KT 10SM CLR M03/M08 A3005 740 66 -1200 VRB/05 RMK AO2
14837KMSN MSN20011220031009612/20/01 03:10:31  5-MIN KMSN 200910Z 27005KT 10SM CLR M03/M08 A3005 740 66 -1200 260/05 RMK AO2
14837KMSN MSN20011220031509612/20/01 03:15:31  5-MIN KMSN 200915Z VRB04KT 10SM CLR M03/M09 A3005 740 63 -1200 VRB/04 RMK AO2
14837KMSN MSN20011220032009612/20/01 03:20:31  5-MIN KMSN 200920Z 27005KT 10SM CLR M03/M08 A3005 740 66 -1200 260/05 RMK AO2
14837KMSN MSN20011220032509612/20/01 03:25:31  5-MIN KMSN 200925Z VRB04KT 10SM CLR M03/M08 A3005 740 66 -1200 VRB/04 RMK AO2
14837KMSN MSN20011220033009612/20/01 03:30:31  5-MIN KMSN 200930Z 26005KT 10SM CLR M03/M08 A3005 740 66 -1200 260/05 RMK AO2
14837KMSN MSN20011220033509612/20/01 03:35:31  5-MIN KMSN 200935Z 27004KT 10SM CLR M03/M08 A3005 750 66 -1200 270/04 RMK AO2
14837KMSN MSN20011220034009612/20/01 03:40:31  5-MIN KMSN 200940Z 27004KT 10SM CLR M03/M09 A3005 750 63 -1200 270/04 RMK AO2
14837KMSN MSN20011220034509612/20/01 03:45:31  5-MIN KMSN 200945Z VRB03KT 10SM CLR M03/M08 A3005 750 68 -1200 VRB/03 RMK AO2
14837KMSN MSN20011220035011312/20/01 03:50:31  5-MIN KMSN 200950Z VRB03KT 10SM CLR M03/M08 A3005 750 66 -1200 VRB/03 RMK AO2 SLP186 T10281083
14837KMSN MSN20011220035509612/20/01 03:55:31  5-MIN KMSN 200955Z VRB03KT 10SM CLR M03/M08 A3005 740 66 -1200 VRB/03 RMK AO2
14837KMSN MSN20011220040009612/20/01 04:00:31  5-MIN KMSN 201000Z 25003KT 10SM CLR M03/M08 A3005 740 68 -1200 250/03 RMK AO2
14837KMSN MSN20011220040509612/20/01 04:05:31  5-MIN KMSN 201005Z VRB04KT 10SM CLR M03/M08 A3005 740 68 -1200 VRB/04 RMK AO2
14837KMSN MSN20011220041009612/20/01 04:10:31  5-MIN KMSN 201010Z 25003KT 10SM CLR M03/M08 A3005 750 68 -1200 250/03 RMK AO2
14837KMSN MSN20011220041509612/20/01 04:15:31  5-MIN KMSN 201015Z VRB04KT 10SM CLR M03/M08 A3005 750 68 -1200 VRB/04 RMK AO2
14837KMSN MSN20011220042009612/20/01 04:20:31  5-MIN KMSN 201020Z 26004KT 10SM CLR M03/M09 A3005 740 65 -1200 250/04 RMK AO2
14837KMSN MSN20011220042509612/20/01 04:25:31  5-MIN KMSN 201025Z 25005KT 10SM CLR M03/M09 A3005 750 65 -1200 250/05 RMK AO2
14837KMSN MSN20011220043009612/20/01 04:30:31  5-MIN KMSN 201030Z 25004KT 10SM CLR M03/M08 A3005 750 68 -1200 250/04 RMK AO2
14837KMSN MSN20011220043509612/20/01 04:35:31  5-MIN KMSN 201035Z VRB05KT 10SM CLR M03/M08 A3005 740 68 -1200 VRB/05 RMK AO2
14837KMSN MSN20011220044009612/20/01 04:40:31  5-MIN KMSN 201040Z VRB04KT 10SM CLR M03/M08 A3005 740 68 -1200 VRB/04 RMK AO2
14837KMSN MSN20011220044509612/20/01 04:45:31  5-MIN KMSN 201045Z VRB04KT 10SM CLR M03/M08 A3005 740 68 -1200 VRB/04 RMK AO2
14837KMSN MSN20011220045011312/20/01 04:50:31  5-MIN KMSN 201050Z VRB03KT 10SM CLR M03/M08 A3005 740 66 -1200 VRB/03 RMK AO2 SLP187 T10281083
14837KMSN MSN20011220045509612/20/01 04:55:31  5-MIN KMSN 201055Z VRB03KT 10SM CLR M03/M08 A3005 740 68 -1200 VRB/03 RMK AO2
14837KMSN MSN20011220050009612/20/01 05:00:31  5-MIN KMSN 201100Z VRB04KT 10SM CLR M03/M08 A3005 740 68 -1200 VRB/04 RMK AO2
14837KMSN MSN20011220050509612/20/01 05:05:31  5-MIN KMSN 201105Z VRB04KT 10SM CLR M03/M08 A3005 740 66 -1200 VRB/04 RMK AO2
14837KMSN MSN20011220051009612/20/01 05:10:31  5-MIN KMSN 201110Z VRB04KT 10SM CLR M03/M08 A3006 740 68 -1200 VRB/04 RMK AO2
14837KMSN MSN20011220051509612/20/01 05:15:31  5-MIN KMSN 201115Z VRB04KT 10SM CLR M03/M07 A3006 740 74 -1200 VRB/04 RMK AO2
14837KMSN MSN20011220052009612/20/01 05:20:31  5-MIN KMSN 201120Z VRB03KT 10SM CLR M03/M07 A3006 740 74 -1200 VRB/03 RMK AO2
14837KMSN MSN20011220052509612/20/01 05:25:31  5-MIN KMSN 201125Z VRB04KT 10SM CLR M03/M10 A3006 740 60 -1200 VRB/04 RMK AO2
14837KMSN MSN20011220053009612/20/01 05:30:31  5-MIN KMSN 201130Z 27004KT 10SM CLR M03/M10 A3006 740 60 -1200 270/04 RMK AO2
14837KMSN MSN20011220053509612/20/01 05:35:31  5-MIN KMSN 201135Z 26005KT 10SM CLR M03/M10 A3006 740 60 -1200 260/05 RMK AO2
14837KMSN MSN20011220054009612/20/01 05:40:31  5-MIN KMSN 201140Z 26004KT 10SM CLR M03/M10 A3006 740 60 -1200 260/04 RMK AO2
14837KMSN MSN20011220054509612/20/01 05:45:31  5-MIN KMSN 201145Z VRB03KT 10SM CLR M03/M10 A3006 740 60 -1200 VRB/03 RMK AO2
14837KMSN MSN20011220055013112/20/01 05:50:31  5-MIN KMSN 201150Z 30003KT 10SM CLR M04/M10 A3006 730 63 -1300 290/03 RMK AO2 SLP190 T10391100 11017 21039 51011
14837KMSN MSN20011220055509612/20/01 05:55:31  5-MIN KMSN 201155Z 28003KT 10SM CLR M04/M09 A3006 730 65 -1300 280/03 RMK AO2
14837KMSN MSN20011220060009612/20/01 06:00:31  5-MIN KMSN 201200Z 29004KT 10SM CLR M04/M09 A3006 730 65 -1300 290/04 RMK AO2
14837KMSN MSN20011220060509612/20/01 06:05:31  5-MIN KMSN 201205Z 30004KT 10SM CLR M04/M09 A3006 730 65 -1300 300/04 RMK AO2
14837KMSN MSN20011220061009612/20/01 06:10:31  5-MIN KMSN 201210Z 32004KT 10SM CLR M04/M09 A3007 730 68 -1300 320/04 RMK AO2
14837KMSN MSN20011220061509612/20/01 06:15:31  5-MIN KMSN 201215Z 30004KT 10SM CLR M04/M09 A3007 730 68 -1300 300/04 RMK AO2
14837KMSN MSN20011220062009612/20/01 06:20:31  5-MIN KMSN 201220Z 29004KT 10SM CLR M04/M09 A3007 730 68 -1300 290/04 RMK AO2
14837KMSN MSN20011220062509612/20/01 06:25:31  5-MIN KMSN 201225Z 28003KT 10SM CLR M05/M09 A3007 720 74 -1500 270/03 RMK AO2
14837KMSN MSN20011220063009612/20/01 06:30:31  5-MIN KMSN 201230Z 28004KT 10SM CLR M05/M09 A3007 720 74 -1500 280/04 RMK AO2
14837KMSN MSN20011220063509612/20/01 06:35:31  5-MIN KMSN 201235Z 27004KT 10SM CLR M05/M09 A3007 720 74 -1500 270/04 RMK AO2
14837KMSN MSN20011220064009612/20/01 06:40:31  5-MIN KMSN 201240Z 27003KT 10SM CLR M05/M09 A3008 720 74 -1500 270/03 RMK AO2
14837KMSN MSN20011220064509612/20/01 06:45:31  5-MIN KMSN 201245Z 26004KT 10SM CLR M04/M09 A3008 720 71 -1400 260/04 RMK AO2
14837KMSN MSN20011220065011312/20/01 06:50:31  5-MIN KMSN 201250Z 00000KT 10SM CLR M04/M09 A3008 720 71 -1400 000/00 RMK AO2 SLP196 T10441089
14837KMSN MSN20011220065509612/20/01 06:55:31  5-MIN KMSN 201255Z 29004KT 10SM CLR M04/M09 A3008 720 68 -1400 290/04 RMK AO2
14837KMSN MSN20011220070009612/20/01 07:00:31  5-MIN KMSN 201300Z 29003KT 10SM CLR M04/M09 A3008 720 68 -1400 290/03 RMK AO2
14837KMSN MSN20011220070509612/20/01 07:05:31  5-MIN KMSN 201305Z 29004KT 10SM CLR M04/M09 A3008 720 71 -1400 290/04 RMK AO2
14837KMSN MSN20011220071009612/20/01 07:10:31  5-MIN KMSN 201310Z 29004KT 10SM CLR M04/M09 A3008 720 71 -1400 290/04 RMK AO2
14837KMSN MSN20011220071509612/20/01 07:15:31  5-MIN KMSN 201315Z 30004KT 10SM CLR M04/M09 A3007 720 71 -1400 300/04 RMK AO2
14837KMSN MSN20011220072009612/20/01 07:20:31  5-MIN KMSN 201320Z 30004KT 10SM CLR M04/M09 A3007 720 71 -1400 290/04 RMK AO2
14837KMSN MSN20011220072509612/20/01 07:25:31  5-MIN KMSN 201325Z 00000KT 10SM CLR M04/M09 A3007 720 68 -1400 000/00 RMK AO2
14837KMSN MSN20011220073009612/20/01 07:30:31  5-MIN KMSN 201330Z 00000KT 10SM CLR M07/M10 A3007 720 77 -1700 000/00 RMK AO2
14837KMSN MSN20011220073509612/20/01 07:35:31  5-MIN KMSN 201335Z 03003KT 10SM CLR M07/M10 A3008 720 81 -1800 030/03 RMK AO2
14837KMSN MSN20011220074009612/20/01 07:40:31  5-MIN KMSN 201340Z 00000KT 10SM CLR M07/M10 A3008 720 81 -1800 000/00 RMK AO2
14837KMSN MSN20011220074509612/20/01 07:45:31  5-MIN KMSN 201345Z 00000KT 10SM CLR M07/M09 A3008 720 84 -1800 000/00 RMK AO2
14837KMSN MSN20011220075011312/20/01 07:50:31  5-MIN KMSN 201350Z 00000KT 10SM CLR M07/M09 A3008 720 81 -1700 000/00 RMK AO2 SLP199 T10671094
14837KMSN MSN20011220075509612/20/01 07:55:31  5-MIN KMSN 201355Z 00000KT 10SM CLR M06/M09 A3008 720 77 -1600 000/00 RMK AO2
14837KMSN MSN20011220080009612/20/01 08:00:31  5-MIN KMSN 201400Z 00000KT 10SM CLR M06/M09 A3008 710 74 -1600 000/00 RMK AO2
14837KMSN MSN20011220080509612/20/01 08:05:31  5-MIN KMSN 201405Z 00000KT 10SM CLR M06/M09 A3009 710 77 -1600 000/00 RMK AO2
14837KMSN MSN20011220081009612/20/01 08:10:31  5-MIN KMSN 201410Z 00000KT 10SM CLR M04/M08 A3009 710 74 -1400 000/00 RMK AO2
14837KMSN MSN20011220081509612/20/01 08:15:31  5-MIN KMSN 201415Z 00000KT 10SM CLR M04/M08 A3009 710 71 -1400 000/00 RMK AO2
14837KMSN MSN20011220082009612/20/01 08:20:31  5-MIN KMSN 201420Z 00000KT 10SM CLR M04/M08 A3009 710 74 -1400 000/00 RMK AO2
14837KMSN MSN20011220082509612/20/01 08:25:31  5-MIN KMSN 201425Z 00000KT 10SM CLR M04/M08 A3009 710 74 -1400 000/00 RMK AO2
14837KMSN MSN20011220083009612/20/01 08:30:31  5-MIN KMSN 201430Z 00000KT 10SM CLR M03/M08 A3009 710 71 -1300 000/00 RMK AO2
14837KMSN MSN20011220083509612/20/01 08:35:31  5-MIN KMSN 201435Z 00000KT 10SM CLR M03/M08 A3009 710 71 -1300 000/00 RMK AO2
14837KMSN MSN20011220084009612/20/01 08:40:31  5-MIN KMSN 201440Z 00000KT 10SM CLR M03/M08 A3009 710 71 -1300 000/00 RMK AO2
14837KMSN MSN20011220084509612/20/01 08:45:31  5-MIN KMSN 201445Z 00000KT 10SM CLR M03/M08 A3009 710 68 -1200 000/00 RMK AO2
14837KMSN MSN20011220085011912/20/01 08:50:31  5-MIN KMSN 201450Z 25004KT 10SM CLR M03/M08 A3010 700 68 -1200 250/04 RMK AO2 SLP202 T10281078 53004
14837KMSN MSN20011220085509612/20/01 08:55:31  5-MIN KMSN 201455Z 26003KT 10SM CLR M03/M08 A3010 700 68 -1200 260/03 RMK AO2
14837KMSN MSN20011220090009612/20/01 09:00:31  5-MIN KMSN 201500Z 28003KT 10SM CLR M02/M08 A3010 700 63 -1200 280/03 RMK AO2
14837KMSN MSN20011220090509612/20/01 09:05:31  5-MIN KMSN 201505Z 26004KT 10SM CLR M02/M08 A3010 700 63 -1200 260/04 RMK AO2
14837KMSN MSN20011220091009612/20/01 09:10:31  5-MIN KMSN 201510Z 26004KT 10SM CLR M02/M08 A3010 700 63 -1200 260/04 RMK AO2
14837KMSN MSN20011220091509612/20/01 09:15:31  5-MIN KMSN 201515Z 26004KT 10SM CLR M02/M08 A3010 700 60 -1100 250/04 RMK AO2
14837KMSN MSN20011220092009612/20/01 09:20:31  5-MIN KMSN 201520Z 27003KT 10SM CLR M01/M08 A3011 690 58 -1000 270/03 RMK AO2
14837KMSN MSN20011220092509612/20/01 09:25:31  5-MIN KMSN 201525Z 30005KT 10SM CLR M01/M08 A3011 690 60 -1000 300/05 RMK AO2
14837KMSN MSN20011220093009612/20/01 09:30:31  5-MIN KMSN 201530Z 28004KT 10SM CLR M01/M08 A3011 690 58 -1000 280/04 RMK AO2
14837KMSN MSN20011220093509612/20/01 09:35:31  5-MIN KMSN 201535Z 28003KT 10SM CLR M01/M09 A3011 690 55 -1000 280/03 RMK AO2
14837KMSN MSN20011220094009612/20/01 09:40:31  5-MIN KMSN 201540Z VRB03KT 10SM CLR M01/M08 A3011 690 56 -1000 VRB/03 RMK AO2
14837KMSN MSN20011220094509612/20/01 09:45:31  5-MIN KMSN 201545Z 30005KT 10SM CLR M01/M08 A3011 680 56 -1000 300/05 RMK AO2
14837KMSN MSN20011220095011312/20/01 09:50:31  5-MIN KMSN 201550Z 27004KT 10SM CLR M01/M09 A3011 690 53 -1000 270/04 RMK AO2 SLP208 T10061089
14837KMSN MSN20011220095509412/20/01 09:55:31  5-MIN KMSN 201555Z 32004KT 10SM CLR 00/M08 A3011 690 53 -900 320/04 RMK AO2
14837KMSN MSN20011220100009412/20/01 10:00:31  5-MIN KMSN 201600Z 27005KT 10SM CLR 00/M08 A3012 680 53 -900 270/05 RMK AO2
14837KMSN MSN20011220100509412/20/01 10:05:31  5-MIN KMSN 201605Z VRB04KT 10SM CLR 00/M09 A3012 680 51 -900 VRB/04 RMK AO2
14837KMSN MSN20011220101009412/20/01 10:10:31  5-MIN KMSN 201610Z VRB04KT 10SM CLR 00/M09 A3012 680 49 -900 VRB/04 RMK AO2
14837KMSN MSN20011220101509412/20/01 10:15:31  5-MIN KMSN 201615Z 31005KT 10SM CLR 01/M09 A3012 680 49 -800 300/05 RMK AO2
14837KMSN MSN20011220102009412/20/01 10:20:31  5-MIN KMSN 201620Z 29006KT 10SM CLR 01/M09 A3012 680 49 -800 290/06 RMK AO2
14837KMSN MSN20011220102509412/20/01 10:25:31  5-MIN KMSN 201625Z VRB04KT 10SM CLR 01/M09 A3012 680 49 -800 VRB/04 RMK AO2
14837KMSN MSN20011220103009412/20/01 10:30:31  5-MIN KMSN 201630Z VRB04KT 10SM CLR 01/M09 A3012 680 47 -800 VRB/04 RMK AO2
14837KMSN MSN20011220103509412/20/01 10:35:31  5-MIN KMSN 201635Z 34006KT 10SM CLR 01/M09 A3011 690 45 -800 340/06 RMK AO2
14837KMSN MSN20011220104009412/20/01 10:40:31  5-MIN KMSN 201640Z 34006KT 10SM CLR 02/M09 A3011 690 43 -700 340/06 RMK AO2
14837KMSN MSN20011220104509412/20/01 10:45:31  5-MIN KMSN 201645Z 30006KT 10SM CLR 01/M10 A3012 680 43 -800 300/06 RMK AO2
14837KMSN MSN20011220105011612/20/01 10:50:31  5-MIN KMSN 201650Z AUTO 31005KT 10SM CLR 01/M11 A3011 690 41 -800 300/05 RMK AO2 SLP207 T00111106
14837KMSN MSN20011220105510412/20/01 10:55:31  5-MIN KMSN 201655Z AUTO 30006KT 10SM CLR 02/M10 A3012 680 42 -700 300/06 RMK AO2 TSNO
14837KMSN MSN20011220110010412/20/01 11:00:31  5-MIN KMSN 201700Z AUTO 31006KT 10SM CLR 01/M11 A3011 690 41 -800 310/06 RMK AO2 TSNO
14837KMSN MSN20011220110510412/20/01 11:05:31  5-MIN KMSN 201705Z AUTO VRB06KT 10SM CLR 02/M11 A3011 690 38 -700 VRB/06 RMK AO2 TSNO
14837KMSN MSN20011220111010412/20/01 11:10:31  5-MIN KMSN 201710Z AUTO 30008KT 10SM CLR 02/M11 A3011 690 38 -700 300/08 RMK AO2 TSNO
14837KMSN MSN20011220111510412/20/01 11:15:31  5-MIN KMSN 201715Z AUTO 32007KT 10SM CLR 02/M11 A3011 690 38 -700 320/07 RMK AO2 TSNO
14837KMSN MSN20011220112009412/20/01 11:20:31  5-MIN KMSN 201720Z 31007KT 10SM CLR 02/M11 A3011 690 38 -700 300/07 RMK AO2
14837KMSN MSN20011220112509412/20/01 11:25:31  5-MIN KMSN 201725Z 30007KT 10SM CLR 02/M11 A3011 690 38 -700 300/07 RMK AO2
14837KMSN MSN20011220113009412/20/01 11:30:31  5-MIN KMSN 201730Z 30007KT 10SM CLR 02/M11 A3011 690 38 -600 300/07 RMK AO2
14837KMSN MSN20011220113509412/20/01 11:35:31  5-MIN KMSN 201735Z 30006KT 10SM CLR 02/M11 A3011 690 37 -600 300/06 RMK AO2
14837KMSN MSN20011220114009412/20/01 11:40:31  5-MIN KMSN 201740Z 31007KT 10SM CLR 02/M11 A3011 690 37 -600 310/07 RMK AO2
14837KMSN MSN20011220114509412/20/01 11:45:31  5-MIN KMSN 201745Z VRB06KT 10SM CLR 02/M11 A3011 690 37 -600 VRB/06 RMK AO2
14837KMSN MSN20011220115012912/20/01 11:50:31  5-MIN KMSN 201750Z 28007KT 10SM CLR 02/M11 A3011 690 37 -600 280/07 RMK AO2 SLP205 T00221111 10022 21072 51011
14837KMSN MSN20011220115509412/20/01 11:55:31  5-MIN KMSN 201755Z 28006KT 10SM CLR 02/M11 A3011 690 37 -600 280/06 RMK AO2
14837KMSN MSN20011220120009412/20/01 12:00:31  5-MIN KMSN 201800Z 30007KT 10SM CLR 02/M11 A3011 690 37 -600 300/07 RMK AO2
14837KMSN MSN20011220120509412/20/01 12:05:31  5-MIN KMSN 201805Z 31007KT 10SM CLR 02/M12 A3011 690 35 -600 310/07 RMK AO2
14837KMSN MSN20011220121009412/20/01 12:10:31  5-MIN KMSN 201810Z 30005KT 10SM CLR 03/M11 A3011 690 35 -500 300/05 RMK AO2
14837KMSN MSN20011220121509412/20/01 12:15:31  5-MIN KMSN 201815Z 29008KT 10SM CLR 03/M11 A3011 690 35 -500 290/08 RMK AO2
14837KMSN MSN20011220122009412/20/01 12:20:31  5-MIN KMSN 201820Z 32007KT 10SM CLR 03/M12 A3011 690 34 -500 320/07 RMK AO2
14837KMSN MSN20011220122509412/20/01 12:25:31  5-MIN KMSN 201825Z 30006KT 10SM CLR 03/M12 A3011 690 34 -500 300/06 RMK AO2
14837KMSN MSN20011220123011012/20/01 12:30:31  5-MIN KMSN 201830Z 30007KT 270V330 10SM CLR 03/M12 A3010 700 32 -500 300/07 270V330 RMK AO2
14837KMSN MSN20011220123509412/20/01 12:35:31  5-MIN KMSN 201835Z 30007KT 10SM CLR 03/M12 A3010 700 34 -500 300/07 RMK AO2
14837KMSN MSN20011220124009412/20/01 12:40:31  5-MIN KMSN 201840Z 29007KT 10SM CLR 03/M12 A3010 700 34 -500 290/07 RMK AO2
14837KMSN MSN20011220124509412/20/01 12:45:31  5-MIN KMSN 201845Z 32007KT 10SM CLR 03/M12 A3010 700 31 -500 320/07 RMK AO2
14837KMSN MSN20011220125011112/20/01 12:50:31  5-MIN KMSN 201850Z 32005KT 10SM CLR 03/M13 A3010 700 31 -500 320/05 RMK AO2 SLP202 T00281128
14837KMSN MSN20011220125509412/20/01 12:55:31  5-MIN KMSN 201855Z 30006KT 10SM CLR 03/M13 A3010 700 30 -500 300/06 RMK AO2
14837KMSN MSN20011220130009412/20/01 13:00:31  5-MIN KMSN 201900Z VRB06KT 10SM CLR 03/M13 A3010 700 30 -500 VRB/06 RMK AO2
14837KMSN MSN20011220130509412/20/01 13:05:31  5-MIN KMSN 201905Z 32006KT 10SM CLR 03/M13 A3010 700 30 -500 320/06 RMK AO2
14837KMSN MSN20011220131009412/20/01 13:10:31  5-MIN KMSN 201910Z VRB06KT 10SM CLR 03/M13 A3010 700 30 -500 VRB/06 RMK AO2
14837KMSN MSN20011220131509412/20/01 13:15:31  5-MIN KMSN 201915Z 31007KT 10SM CLR 03/M13 A3010 700 30 -500 310/07 RMK AO2
14837KMSN MSN20011220132011012/20/01 13:20:31  5-MIN KMSN 201920Z 32008KT 290V360 10SM CLR 03/M13 A3010 700 30 -500 320/08 290V360 RMK AO2
14837KMSN MSN20011220132509412/20/01 13:25:31  5-MIN KMSN 201925Z 32006KT 10SM CLR 03/M12 A3010 700 31 -500 320/06 RMK AO2
14837KMSN MSN20011220133009412/20/01 13:30:31  5-MIN KMSN 201930Z VRB06KT 10SM CLR 03/M13 A3010 700 30 -500 VRB/06 RMK AO2
14837KMSN MSN20011220133509412/20/01 13:35:31  5-MIN KMSN 201935Z 30006KT 10SM CLR 03/M12 A3010 700 31 -500 300/06 RMK AO2
14837KMSN MSN20011220134009412/20/01 13:40:31  5-MIN KMSN 201940Z VRB04KT 10SM CLR 03/M12 A3010 700 31 -500 VRB/04 RMK AO2
14837KMSN MSN20011220134509412/20/01 13:45:31  5-MIN KMSN 201945Z VRB05KT 10SM CLR 03/M12 A3010 700 31 -500 VRB/05 RMK AO2
14837KMSN MSN20011220135011112/20/01 13:50:31  5-MIN KMSN 201950Z VRB06KT 10SM CLR 04/M12 A3010 700 31 -400 VRB/06 RMK AO2 SLP202 T00391117
14837KMSN MSN20011220135509412/20/01 13:55:31  5-MIN KMSN 201955Z 31005KT 10SM CLR 03/M12 A3010 690 31 -500 310/05 RMK AO2
14837KMSN MSN20011220140009412/20/01 14:00:31  5-MIN KMSN 202000Z 28005KT 10SM CLR 04/M12 A3011 690 30 -400 280/05 RMK AO2
14837KMSN MSN20011220140509412/20/01 14:05:31  5-MIN KMSN 202005Z VRB04KT 10SM CLR 03/M12 A3011 690 31 -500 VRB/04 RMK AO2
14837KMSN MSN20011220141011012/20/01 14:10:31  5-MIN KMSN 202010Z 31007KT 280V340 10SM CLR 03/M12 A3011 690 31 -500 310/07 280V340 RMK AO2
14837KMSN MSN20011220141509412/20/01 14:15:31  5-MIN KMSN 202015Z VRB05KT 10SM CLR 04/M13 A3011 690 28 -400 VRB/05 RMK AO2
14837KMSN MSN20011220142009412/20/01 14:20:31  5-MIN KMSN 202020Z 32006KT 10SM CLR 04/M12 A3011 690 30 -400 320/06 RMK AO2
14837KMSN MSN20011220142509412/20/01 14:25:31  5-MIN KMSN 202025Z 32006KT 10SM CLR 04/M13 A3011 690 28 -400 320/06 RMK AO2
14837KMSN MSN20011220143009412/20/01 14:30:31  5-MIN KMSN 202030Z 32006KT 10SM CLR 03/M13 A3012 680 30 -500 310/06 RMK AO2
14837KMSN MSN20011220143509412/20/01 14:35:31  5-MIN KMSN 202035Z VRB06KT 10SM CLR 03/M13 A3012 680 30 -500 VRB/06 RMK AO2
14837KMSN MSN20011220144009412/20/01 14:40:31  5-MIN KMSN 202040Z 27006KT 10SM CLR 03/M12 A3012 680 31 -500 270/06 RMK AO2
14837KMSN MSN20011220144509412/20/01 14:45:31  5-MIN KMSN 202045Z VRB05KT 10SM CLR 03/M12 A3012 680 32 -500 VRB/05 RMK AO2
14837KMSN MSN20011220145011712/20/01 14:50:31  5-MIN KMSN 202050Z 31006KT 10SM CLR 03/M13 A3012 680 30 -500 310/06 RMK AO2 SLP210 T00331128 50004
14837KMSN MSN20011220145509412/20/01 14:55:31  5-MIN KMSN 202055Z 29005KT 10SM CLR 03/M13 A3012 680 28 -500 290/05 RMK AO2
14837KMSN MSN20011220150009412/20/01 15:00:31  5-MIN KMSN 202100Z 31004KT 10SM CLR 03/M13 A3012 680 30 -500 310/04 RMK AO2
14837KMSN MSN20011220150509412/20/01 15:05:31  5-MIN KMSN 202105Z 31005KT 10SM CLR 03/M13 A3012 680 30 -500 310/05 RMK AO2
14837KMSN MSN20011220151009412/20/01 15:10:31  5-MIN KMSN 202110Z 26005KT 10SM CLR 03/M12 A3012 680 31 -500 260/05 RMK AO2
14837KMSN MSN20011220151509412/20/01 15:15:31  5-MIN KMSN 202115Z 28004KT 10SM CLR 03/M12 A3013 680 32 -500 280/04 RMK AO2
14837KMSN MSN20011220152009412/20/01 15:20:31  5-MIN KMSN 202120Z VRB04KT 10SM CLR 03/M12 A3013 670 32 -500 VRB/04 RMK AO2
14837KMSN MSN20011220152509412/20/01 15:25:31  5-MIN KMSN 202125Z VRB04KT 10SM CLR 03/M12 A3013 670 34 -600 VRB/04 RMK AO2
14837KMSN MSN20011220153009412/20/01 15:30:31  5-MIN KMSN 202130Z 27005KT 10SM CLR 03/M12 A3013 670 34 -600 270/05 RMK AO2
14837KMSN MSN20011220153509412/20/01 15:35:31  5-MIN KMSN 202135Z 26005KT 10SM CLR 03/M11 A3013 670 35 -600 260/05 RMK AO2
14837KMSN MSN20011220154009412/20/01 15:40:31  5-MIN KMSN 202140Z 27003KT 10SM CLR 03/M12 A3014 670 34 -600 270/03 RMK AO2
14837KMSN MSN20011220154509412/20/01 15:45:31  5-MIN KMSN 202145Z 26004KT 10SM CLR 03/M12 A3013 670 34 -600 260/04 RMK AO2
14837KMSN MSN20011220155011112/20/01 15:50:31  5-MIN KMSN 202150Z 26003KT 10SM CLR 03/M12 A3013 670 34 -600 260/03 RMK AO2 SLP213 T00281117
14837KMSN MSN20011220155509412/20/01 15:55:31  5-MIN KMSN 202155Z 00000KT 10SM CLR 03/M12 A3013 670 34 -600 000/00 RMK AO2
14837KMSN MSN20011220160009412/20/01 16:00:31  5-MIN KMSN 202200Z VRB03KT 10SM CLR 03/M12 A3013 670 34 -600 VRB/03 RMK AO2
14837KMSN MSN20011220160509412/20/01 16:05:31  5-MIN KMSN 202205Z 28004KT 10SM CLR 02/M12 A3013 670 35 -600 270/04 RMK AO2
14837KMSN MSN20011220161009412/20/01 16:10:31  5-MIN KMSN 202210Z VRB03KT 10SM CLR 02/M11 A3013 670 38 -700 VRB/03 RMK AO2
14837KMSN MSN20011220161509412/20/01 16:15:31  5-MIN KMSN 202215Z 00000KT 10SM CLR 02/M12 A3013 670 36 -700 000/00 RMK AO2
14837KMSN MSN20011220162009412/20/01 16:20:31  5-MIN KMSN 202220Z 00000KT 10SM CLR 02/M11 A3013 670 38 -700 000/00 RMK AO2
14837KMSN MSN20011220162509412/20/01 16:25:31  5-MIN KMSN 202225Z 00000KT 10SM CLR 01/M11 A3014 670 43 -800 000/00 RMK AO2
14837KMSN MSN20011220163009412/20/01 16:30:31  5-MIN KMSN 202230Z 00000KT 10SM CLR 01/M12 A3013 670 39 -800 000/00 RMK AO2
14837KMSN MSN20011220163509412/20/01 16:35:31  5-MIN KMSN 202235Z 00000KT 10SM CLR 00/M11 A3013 670 43 -900 000/00 RMK AO2
14837KMSN MSN20011220164009412/20/01 16:40:31  5-MIN KMSN 202240Z 00000KT 10SM CLR 00/M10 A3014 670 47 -900 000/00 RMK AO2
14837KMSN MSN20011220164509612/20/01 16:45:31  5-MIN KMSN 202245Z 00000KT 10SM CLR M01/M11 A3014 660 45 -1000 000/00 RMK AO2
14837KMSN MSN20011220165011312/20/01 16:50:31  5-MIN KMSN 202250Z 00000KT 10SM CLR M01/M11 A3014 660 49 -1100 000/00 RMK AO2 SLP217 T10111106
14837KMSN MSN20011220165509612/20/01 16:55:31  5-MIN KMSN 202255Z 00000KT 10SM CLR M01/M11 A3014 660 45 -1000 000/00 RMK AO2
14837KMSN MSN20011220170009612/20/01 17:00:31  5-MIN KMSN 202300Z 00000KT 10SM CLR M01/M11 A3015 660 47 -1100 000/00 RMK AO2
14837KMSN MSN20011220170509612/20/01 17:05:31  5-MIN KMSN 202305Z 00000KT 10SM CLR M01/M11 A3014 660 47 -1100 000/00 RMK AO2
14837KMSN MSN20011220171009612/20/01 17:10:31  5-MIN KMSN 202310Z 00000KT 10SM CLR M01/M11 A3014 660 49 -1100 000/00 RMK AO2
14837KMSN MSN20011220171509412/20/01 17:15:31  5-MIN KMSN 202315Z 00000KT 10SM CLR 00/M11 A3014 660 43 -900 000/00 RMK AO2
14837KMSN MSN20011220172009612/20/01 17:20:31  5-MIN KMSN 202320Z 00000KT 10SM CLR M01/M11 A3014 660 45 -1000 000/00 RMK AO2
14837KMSN MSN20011220172509612/20/01 17:25:31  5-MIN KMSN 202325Z 00000KT 10SM CLR M01/M11 A3015 660 47 -1100 000/00 RMK AO2
14837KMSN MSN20011220173009612/20/01 17:30:31  5-MIN KMSN 202330Z 00000KT 10SM CLR M02/M11 A3014 660 49 -1100 000/00 RMK AO2
14837KMSN MSN20011220173509612/20/01 17:35:31  5-MIN KMSN 202335Z 00000KT 10SM CLR M02/M11 A3015 660 53 -1200 000/00 RMK AO2
14837KMSN MSN20011220174009612/20/01 17:40:31  5-MIN KMSN 202340Z 00000KT 10SM CLR M02/M10 A3015 660 55 -1200 000/00 RMK AO2
14837KMSN MSN20011220174509612/20/01 17:45:31  5-MIN KMSN 202345Z 00000KT 10SM CLR M02/M10 A3015 660 53 -1100 000/00 RMK AO2
14837KMSN MSN20011220175013112/20/01 17:50:31  5-MIN KMSN 202350Z 00000KT 10SM CLR M02/M11 A3015 660 53 -1200 000/00 RMK AO2 SLP221 T10221106 10039 21022 53004
14837KMSN MSN20011220175509612/20/01 17:55:31  5-MIN KMSN 202355Z 00000KT 10SM CLR M02/M11 A3015 660 51 -1100 000/00 RMK AO2
14837KMSN MSN20011220180009612/20/01 18:00:31  5-MIN KMSN 210000Z 00000KT 10SM CLR M03/M11 A3015 660 55 -1300 000/00 RMK AO2
14837KMSN MSN20011220180509612/20/01 18:05:31  5-MIN KMSN 210005Z 00000KT 10SM CLR M03/M09 A3014 660 63 -1300 000/00 RMK AO2
14837KMSN MSN20011220181009612/20/01 18:10:31  5-MIN KMSN 210010Z 00000KT 10SM CLR M03/M10 A3014 660 58 -1300 000/00 RMK AO2
14837KMSN MSN20011220181509612/20/01 18:15:31  5-MIN KMSN 210015Z 00000KT 10SM CLR M02/M10 A3015 660 55 -1200 000/00 RMK AO2
14837KMSN MSN20011220182009612/20/01 18:20:31  5-MIN KMSN 210020Z 00000KT 10SM CLR M02/M10 A3015 660 53 -1100 000/00 RMK AO2
14837KMSN MSN20011220182509612/20/01 18:25:31  5-MIN KMSN 210025Z 00000KT 10SM CLR M03/M09 A3015 650 60 -1300 000/00 RMK AO2
14837KMSN MSN20011221132509412/21/01 13:25:31  5-MIN KMSN 211925Z 11005KT 10SM CLR 01/M09 A3025 560 45 -900 110/05 RMK AO2
14837KMSN MSN20011221133009412/21/01 13:30:31  5-MIN KMSN 211930Z 14006KT 10SM CLR 01/M09 A3025 560 45 -900 140/06 RMK AO2
14837KMSN MSN20011221133509412/21/01 13:35:31  5-MIN KMSN 211935Z 10005KT 10SM CLR 01/M09 A3025 560 45 -900 100/05 RMK AO2
14837KMSN MSN20011221134009412/21/01 13:40:31  5-MIN KMSN 211940Z 14006KT 10SM CLR 01/M09 A3025 560 45 -900 140/06 RMK AO2
14837KMSN MSN20011221134509412/21/01 13:45:31  5-MIN KMSN 211945Z 15005KT 10SM CLR 01/M09 A3026 550 45 -900 140/05 RMK AO2
14837KMSN MSN20011221135011112/21/01 13:50:31  5-MIN KMSN 211950Z 16005KT 10SM CLR 01/M09 A3026 560 47 -900 150/05 RMK AO2 SLP257 T00111089
14837KMSN MSN20011221135509412/21/01 13:55:31  5-MIN KMSN 211955Z 12006KT 10SM CLR 01/M09 A3026 560 45 -900 120/06 RMK AO2
14837KMSN MSN20011221140009412/21/01 14:00:31  5-MIN KMSN 212000Z 11008KT 10SM CLR 01/M09 A3025 560 45 -900 110/08 RMK AO2
14837KMSN MSN20011221140509412/21/01 14:05:31  5-MIN KMSN 212005Z 11007KT 10SM CLR 01/M09 A3025 560 45 -900 110/07 RMK AO2
14837KMSN MSN20011221141009412/21/01 14:10:31  5-MIN KMSN 212010Z 12006KT 10SM CLR 01/M09 A3025 560 45 -900 110/06 RMK AO2
14837KMSN MSN20011221141509412/21/01 14:15:31  5-MIN KMSN 212015Z 13008KT 10SM CLR 01/M09 A3025 560 45 -900 130/08 RMK AO2
14837KMSN MSN20011221142009412/21/01 14:20:31  5-MIN KMSN 212020Z 13007KT 10SM CLR 01/M09 A3025 560 47 -900 130/07 RMK AO2
14837KMSN MSN20011221142509412/21/01 14:25:31  5-MIN KMSN 212025Z 11009KT 10SM CLR 01/M09 A3025 570 45 -900 110/09 RMK AO2
14837KMSN MSN20011221143009412/21/01 14:30:31  5-MIN KMSN 212030Z 12007KT 10SM CLR 01/M09 A3024 570 45 -900 120/07 RMK AO2
14837KMSN MSN20011221143509412/21/01 14:35:31  5-MIN KMSN 212035Z 13008KT 10SM CLR 02/M09 A3024 570 43 -800 130/08 RMK AO2
14837KMSN MSN20011221144009412/21/01 14:40:31  5-MIN KMSN 212040Z 12007KT 10SM CLR 01/M09 A3024 570 45 -900 120/07 RMK AO2
14837KMSN MSN20011221144509412/21/01 14:45:31  5-MIN KMSN 212045Z 13009KT 10SM CLR 01/M09 A3024 570 45 -900 130/09 RMK AO2
14837KMSN MSN20011221145011712/21/01 14:50:31  5-MIN KMSN 212050Z 14007KT 10SM CLR 01/M09 A3024 570 45 -900 140/07 RMK AO2 SLP252 T00111094 58002
14837KMSN MSN20011221145509412/21/01 14:55:31  5-MIN KMSN 212055Z 13008KT 10SM CLR 01/M09 A3024 570 45 -900 130/08 RMK AO2
14837KMSN MSN20011221150009412/21/01 15:00:31  5-MIN KMSN 212100Z 13009KT 10SM CLR 01/M09 A3024 570 45 -900 130/09 RMK AO2
14837KMSN MSN20011221150509412/21/01 15:05:31  5-MIN KMSN 212105Z 12008KT 10SM CLR 01/M09 A3024 570 45 -900 120/08 RMK AO2
14837KMSN MSN20011221151009412/21/01 15:10:31  5-MIN KMSN 212110Z 13008KT 10SM CLR 01/M09 A3024 570 45 -900 130/08 RMK AO2
14837KMSN MSN20011221151509412/21/01 15:15:31  5-MIN KMSN 212115Z 13007KT 10SM CLR 01/M09 A3024 570 45 -900 130/07 RMK AO2
14837KMSN MSN20011221152009412/21/01 15:20:31  5-MIN KMSN 212120Z 12008KT 10SM CLR 01/M09 A3024 570 45 -900 120/08 RMK AO2
14837KMSN MSN20011221152509412/21/01 15:25:31  5-MIN KMSN 212125Z 12008KT 10SM CLR 01/M09 A3023 580 45 -900 120/08 RMK AO2
14837KMSN MSN20011221153009412/21/01 15:30:31  5-MIN KMSN 212130Z 11010KT 10SM CLR 01/M10 A3023 580 43 -900 110/10 RMK AO2
14837KMSN MSN20011221153509412/21/01 15:35:31  5-MIN KMSN 212135Z 13008KT 10SM CLR 01/M10 A3023 580 43 -900 130/08 RMK AO2
14837KMSN MSN20011221154009512/21/01 15:40:31  5-MIN KMSN 212140Z 12008KT 10SM CLR 01/M09 A3023 580 47 -1000 120/08 RMK AO2
14837KMSN MSN20011221154509512/21/01 15:45:31  5-MIN KMSN 212145Z 12009KT 10SM CLR 01/M09 A3023 580 47 -1000 120/09 RMK AO2
14837KMSN MSN20011221155011112/21/01 15:50:31  5-MIN KMSN 212150Z 12010KT 10SM CLR 01/M09 A3022 580 47 -900 120/10 RMK AO2 SLP247 T00061094
14837KMSN MSN20011221155509412/21/01 15:55:31  5-MIN KMSN 212155Z 12009KT 10SM CLR 01/M09 A3022 580 49 -900 120/09 RMK AO2
14837KMSN MSN20011221160009412/21/01 16:00:31  5-MIN KMSN 212200Z 12009KT 10SM CLR 01/M09 A3023 580 49 -900 120/09 RMK AO2
14837KMSN MSN20011221160509512/21/01 16:05:31  5-MIN KMSN 212205Z 13008KT 10SM CLR 00/M09 A3023 580 49 -1000 120/08 RMK AO2
14837KMSN MSN20011221161009512/21/01 16:10:31  5-MIN KMSN 212210Z 13007KT 10SM CLR 00/M09 A3023 580 51 -1000 130/07 RMK AO2
14837KMSN MSN20011221161509512/21/01 16:15:31  5-MIN KMSN 212215Z 12007KT 10SM CLR 00/M09 A3022 580 49 -1000 120/07 RMK AO2
14837KMSN MSN20011221162009512/21/01 16:20:31  5-MIN KMSN 212220Z 13007KT 10SM CLR 00/M09 A3023 580 51 -1000 130/07 RMK AO2
14837KMSN MSN20011221162509612/21/01 16:25:31  5-MIN KMSN 212225Z 13006KT 10SM CLR M01/M09 A3022 580 53 -1100 120/06 RMK AO2
14837KMSN MSN20011221163009612/21/01 16:30:31  5-MIN KMSN 212230Z 12007KT 10SM CLR M01/M09 A3022 590 53 -1100 120/07 RMK AO2
14837KMSN MSN20011221163509612/21/01 16:35:31  5-MIN KMSN 212235Z 12006KT 10SM CLR M01/M09 A3021 590 55 -1100 120/06 RMK AO2
14837KMSN MSN20011221164009612/21/01 16:40:31  5-MIN KMSN 212240Z 12007KT 10SM CLR M01/M08 A3021 600 58 -1100 120/07 RMK AO2
14837KMSN MSN20011221164509612/21/01 16:45:31  5-MIN KMSN 212245Z 12006KT 10SM CLR M01/M08 A3021 600 56 -1100 110/06 RMK AO2
14837KMSN MSN20011221165011312/21/01 16:50:31  5-MIN KMSN 212250Z 11007KT 10SM CLR M01/M08 A3020 600 58 -1100 110/07 RMK AO2 SLP240 T10111083
14837KMSN MSN20011221165509612/21/01 16:55:31  5-MIN KMSN 212255Z 11007KT 10SM CLR M01/M08 A3021 600 58 -1100 110/07 RMK AO2
14837KMSN MSN20011221170009612/21/01 17:00:31  5-MIN KMSN 212300Z 11007KT 10SM CLR M02/M08 A3020 610 60 -1200 100/07 RMK AO2
14837KMSN MSN20011221170509612/21/01 17:05:31  5-MIN KMSN 212305Z 10007KT 10SM CLR M02/M08 A3020 610 60 -1200 100/07 RMK AO2
14837KMSN MSN20011221171009612/21/01 17:10:31  5-MIN KMSN 212310Z 11008KT 10SM CLR M02/M09 A3019 610 58 -1200 110/08 RMK AO2
14837KMSN MSN20011221171509612/21/01 17:15:31  5-MIN KMSN 212315Z 11008KT 10SM CLR M02/M09 A3019 610 58 -1200 110/08 RMK AO2
14837KMSN MSN20011221172009612/21/01 17:20:31  5-MIN KMSN 212320Z 12008KT 10SM CLR M02/M08 A3019 620 63 -1200 110/08 RMK AO2
14837KMSN MSN20011221172509612/21/01 17:25:31  5-MIN KMSN 212325Z 12007KT 10SM CLR M02/M08 A3019 610 60 -1200 120/07 RMK AO2
14837KMSN MSN20011221173009612/21/01 17:30:31  5-MIN KMSN 212330Z 12007KT 10SM CLR M02/M08 A3019 620 60 -1200 120/07 RMK AO2
14837KMSN MSN20011221173509612/21/01 17:35:31  5-MIN KMSN 212335Z 12007KT 10SM CLR M02/M08 A3019 620 60 -1200 120/07 RMK AO2
14837KMSN MSN20011221174009612/21/01 17:40:31  5-MIN KMSN 212340Z 13006KT 10SM CLR M02/M08 A3019 620 60 -1200 130/06 RMK AO2
14837KMSN MSN20011221174509612/21/01 17:45:31  5-MIN KMSN 212345Z 13006KT 10SM CLR M02/M08 A3019 620 60 -1200 130/06 RMK AO2
14837KMSN MSN20011221175013112/21/01 17:50:31  5-MIN KMSN 212350Z 13006KT 10SM CLR M02/M08 A3019 610 60 -1200 130/06 RMK AO2 SLP237 T10171083 10017 21017 56018
14837KMSN MSN20011221175509612/21/01 17:55:31  5-MIN KMSN 212355Z 13007KT 10SM CLR M01/M08 A3019 610 58 -1100 130/07 RMK AO2
14837KMSN MSN20011221180009612/21/01 18:00:31  5-MIN KMSN 220000Z 13007KT 10SM CLR M02/M08 A3019 610 60 -1200 130/07 RMK AO2
14837KMSN MSN20011221180509612/21/01 18:05:31  5-MIN KMSN 220005Z 13006KT 10SM CLR M02/M08 A3019 610 60 -1200 130/06 RMK AO2
14837KMSN MSN20011221181009612/21/01 18:10:31  5-MIN KMSN 220010Z 12006KT 10SM CLR M02/M08 A3019 610 60 -1200 120/06 RMK AO2
14837KMSN MSN20011221181509612/21/01 18:15:31  5-MIN KMSN 220015Z 12005KT 10SM CLR M02/M08 A3020 610 60 -1200 120/05 RMK AO2
14837KMSN MSN20011221182009612/21/01 18:20:31  5-MIN KMSN 220020Z 13006KT 10SM CLR M02/M08 A3019 610 63 -1300 130/06 RMK AO2
14837KMSN MSN20011221182509612/21/01 18:25:31  5-MIN KMSN 220025Z 13007KT 10SM CLR M03/M08 A3019 620 66 -1300 130/07 RMK AO2
14837KMSN MSN20011221183009612/21/01 18:30:31  5-MIN KMSN 220030Z 13007KT 10SM CLR M02/M08 A3019 620 63 -1300 130/07 RMK AO2
14837KMSN MSN20011221183509612/21/01 18:35:31  5-MIN KMSN 220035Z 13007KT 10SM CLR M02/M08 A3019 620 63 -1300 130/07 RMK AO2
14837KMSN MSN20011221184009612/21/01 18:40:31  5-MIN KMSN 220040Z 13006KT 10SM CLR M02/M08 A3019 610 63 -1300 130/06 RMK AO2
14837KMSN MSN20011221184509612/21/01 18:45:31  5-MIN KMSN 220045Z 12006KT 10SM CLR M02/M08 A3019 620 60 -1200 120/06 RMK AO2
14837KMSN MSN20011221185011312/21/01 18:50:31  5-MIN KMSN 220050Z 13007KT 10SM CLR M02/M08 A3019 620 63 -1300 130/07 RMK AO2 SLP237 T10221083
14837KMSN MSN20011221185509612/21/01 18:55:31  5-MIN KMSN 220055Z 13008KT 10SM CLR M02/M08 A3019 620 63 -1300 130/08 RMK AO2
14837KMSN MSN20011221190009612/21/01 19:00:31  5-MIN KMSN 220100Z 13008KT 10SM CLR M02/M08 A3018 620 63 -1200 130/08 RMK AO2
14837KMSN MSN20011221190509612/21/01 19:05:31  5-MIN KMSN 220105Z 13007KT 10SM CLR M02/M08 A3018 620 63 -1200 130/07 RMK AO2
14837KMSN MSN20011221191009612/21/01 19:10:31  5-MIN KMSN 220110Z 13007KT 10SM CLR M02/M08 A3018 620 63 -1200 120/07 RMK AO2
14837KMSN MSN20011221191509612/21/01 19:15:31  5-MIN KMSN 220115Z 12006KT 10SM CLR M02/M08 A3018 630 63 -1200 120/06 RMK AO2
14837KMSN MSN20011221192009612/21/01 19:20:31  5-MIN KMSN 220120Z 12007KT 10SM CLR M03/M08 A3017 630 66 -1300 120/07 RMK AO2
14837KMSN MSN20011221192509612/21/01 19:25:31  5-MIN KMSN 220125Z 12007KT 10SM CLR M03/M08 A3017 640 68 -1300 120/07 RMK AO2
14837KMSN MSN20011221193009612/21/01 19:30:31  5-MIN KMSN 220130Z 12008KT 10SM CLR M03/M08 A3017 640 68 -1300 120/08 RMK AO2
14837KMSN MSN20011221193509612/21/01 19:35:31  5-MIN KMSN 220135Z 12009KT 10SM CLR M02/M08 A3017 640 63 -1200 120/09 RMK AO2
14837KMSN MSN20011221194009612/21/01 19:40:31  5-MIN KMSN 220140Z 13009KT 10SM CLR M02/M08 A3017 640 63 -1200 130/09 RMK AO2
14837KMSN MSN20011221194509612/21/01 19:45:31  5-MIN KMSN 220145Z 13009KT 10SM CLR M02/M08 A3016 640 63 -1200 130/09 RMK AO2
14837KMSN MSN20011221195011312/21/01 19:50:31  5-MIN KMSN 220150Z 13009KT 10SM CLR M02/M08 A3016 640 63 -1200 130/09 RMK AO2 SLP228 T10171078
14837KMSN MSN20011221195509612/21/01 19:55:31  5-MIN KMSN 220155Z 13009KT 10SM CLR M02/M07 A3016 640 66 -1200 130/09 RMK AO2
14837KMSN MSN20011221200009612/21/01 20:00:31  5-MIN KMSN 220200Z 13010KT 10SM CLR M02/M07 A3016 640 66 -1200 130/10 RMK AO2
14837KMSN MSN20011221200509612/21/01 20:05:31  5-MIN KMSN 220205Z 14013KT 10SM CLR M01/M07 A3016 650 63 -1100 140/13 RMK AO2
14837KMSN MSN20011221201009612/21/01 20:10:31  5-MIN KMSN 220210Z 14011KT 10SM CLR M01/M07 A3015 650 66 -1100 130/11 RMK AO2
14837KMSN MSN20011221201509612/21/01 20:15:31  5-MIN KMSN 220215Z 13010KT 10SM CLR M01/M07 A3015 650 63 -1100 130/10 RMK AO2
14837KMSN MSN20011221202009612/21/01 20:20:31  5-MIN KMSN 220220Z 14011KT 10SM CLR M01/M07 A3015 650 66 -1100 130/11 RMK AO2
14837KMSN MSN20011221202509612/21/01 20:25:31  5-MIN KMSN 220225Z 13011KT 10SM CLR M01/M06 A3014 660 69 -1100 130/11 RMK AO2
14837KMSN MSN20011221203009612/21/01 20:30:31  5-MIN KMSN 220230Z 13011KT 10SM CLR M01/M07 A3014 660 66 -1100 130/11 RMK AO2
14837KMSN MSN20011221203509612/21/01 20:35:31  5-MIN KMSN 220235Z 14010KT 10SM CLR M01/M07 A3014 660 66 -1100 140/10 RMK AO2
14837KMSN MSN20011221204009612/21/01 20:40:31  5-MIN KMSN 220240Z 13011KT 10SM CLR M01/M07 A3014 670 66 -1100 130/11 RMK AO2
14837KMSN MSN20011221204509612/21/01 20:45:31  5-MIN KMSN 220245Z 13009KT 10SM CLR M01/M06 A3013 670 69 -1100 130/09 RMK AO2
14837KMSN MSN20011221205011912/21/01 20:50:31  5-MIN KMSN 220250Z 13009KT 10SM CLR M01/M06 A3013 670 69 -1000 130/09 RMK AO2 SLP214 T10111061 56016
14837KMSN MSN20011221205509612/21/01 20:55:31  5-MIN KMSN 220255Z 13007KT 10SM CLR M01/M06 A3012 680 69 -1000 130/07 RMK AO2
14837KMSN MSN20011221210009612/21/01 21:00:31  5-MIN KMSN 220300Z 13008KT 10SM CLR M01/M06 A3012 680 69 -1000 130/08 RMK AO2
14837KMSN MSN20011221210509612/21/01 21:05:31  5-MIN KMSN 220305Z 13008KT 10SM CLR M01/M06 A3012 680 69 -1000 130/08 RMK AO2
14837KMSN MSN20011221211009612/21/01 21:10:31  5-MIN KMSN 220310Z 13007KT 10SM CLR M01/M06 A3012 680 69 -1000 130/07 RMK AO2
14837KMSN MSN20011221211509612/21/01 21:15:31  5-MIN KMSN 220315Z 13009KT 10SM CLR M01/M06 A3011 690 69 -1000 130/09 RMK AO2
14837KMSN MSN20011221212009612/21/01 21:20:31  5-MIN KMSN 220320Z 13009KT 10SM CLR M01/M06 A3011 690 69 -1000 120/09 RMK AO2
14837KMSN MSN20011221212509612/21/01 21:25:31  5-MIN KMSN 220325Z 13008KT 10SM CLR M01/M06 A3010 690 69 -1000 130/08 RMK AO2
14837KMSN MSN20011221213009612/21/01 21:30:31  5-MIN KMSN 220330Z 13009KT 10SM CLR M01/M06 A3010 700 69 -1000 130/09 RMK AO2
14837KMSN MSN20011221213509612/21/01 21:35:31  5-MIN KMSN 220335Z 13008KT 10SM CLR M01/M06 A3010 700 69 -1000 130/08 RMK AO2
14837KMSN MSN20011221214009612/21/01 21:40:31  5-MIN KMSN 220340Z 13010KT 10SM CLR M01/M06 A3010 700 69 -1000 130/10 RMK AO2
14837KMSN MSN20011221214509612/21/01 21:45:31  5-MIN KMSN 220345Z 13009KT 10SM CLR M01/M06 A3010 700 72 -1000 130/09 RMK AO2
14837KMSN MSN20011221215011312/21/01 21:50:31  5-MIN KMSN 220350Z 13008KT 10SM CLR M01/M06 A3010 700 72 -1000 130/08 RMK AO2 SLP203 T10111056
14837KMSN MSN20011221215509612/21/01 21:55:31  5-MIN KMSN 220355Z 13009KT 10SM CLR M02/M06 A3009 700 75 -1100 130/09 RMK AO2
14837KMSN MSN20011221220009612/21/01 22:00:31  5-MIN KMSN 220400Z 13010KT 10SM CLR M01/M06 A3009 710 72 -1000 130/10 RMK AO2
14837KMSN MSN20011221220509612/21/01 22:05:31  5-MIN KMSN 220405Z 13010KT 10SM CLR M01/M06 A3009 710 72 -1000 130/10 RMK AO2
14837KMSN MSN20011221221009612/21/01 22:10:31  5-MIN KMSN 220410Z 13010KT 10SM CLR M01/M06 A3009 710 72 -1000 130/10 RMK AO2
14837KMSN MSN20011221221509612/21/01 22:15:31  5-MIN KMSN 220415Z 13010KT 10SM CLR M01/M06 A3009 710 72 -1000 130/10 RMK AO2
14837KMSN MSN20011221222009612/21/01 22:20:31  5-MIN KMSN 220420Z 13009KT 10SM CLR M01/M06 A3008 710 72 -1000 130/09 RMK AO2
14837KMSN MSN20011221222509612/21/01 22:25:31  5-MIN KMSN 220425Z 13009KT 10SM CLR M01/M06 A3008 720 72 -1000 130/09 RMK AO2
14837KMSN MSN20011221223009612/21/01 22:30:31  5-MIN KMSN 220430Z 13010KT 10SM CLR M01/M06 A3007 720 72 -1000 130/10 RMK AO2
14837KMSN MSN20011221223509612/21/01 22:35:31  5-MIN KMSN 220435Z 12011KT 10SM CLR M01/M06 A3007 720 72 -1000 120/11 RMK AO2
14837KMSN MSN20011221224009612/21/01 22:40:31  5-MIN KMSN 220440Z 13010KT 10SM CLR M01/M06 A3007 720 72 -1000 130/10 RMK AO2
14837KMSN MSN20011221224509612/21/01 22:45:31  5-MIN KMSN 220445Z 13009KT 10SM CLR M01/M05 A3007 720 75 -1000 130/09 RMK AO2
14837KMSN MSN20011221225011312/21/01 22:50:31  5-MIN KMSN 220450Z 13009KT 10SM CLR M01/M05 A3007 720 75 -1000 130/09 RMK AO2 SLP194 T10111050
14837KMSN MSN20011221225509612/21/01 22:55:31  5-MIN KMSN 220455Z 13009KT 10SM CLR M01/M05 A3007 730 75 -1000 130/09 RMK AO2
14837KMSN MSN20011221230009612/21/01 23:00:31  5-MIN KMSN 220500Z 14008KT 10SM CLR M01/M05 A3007 720 75 -1000 140/08 RMK AO2
14837KMSN MSN20011221230509512/21/01 23:05:31  5-MIN KMSN 220505Z 14009KT 10SM CLR M01/M05 A3007 730 72 -900 140/09 RMK AO2
14837KMSN MSN20011221231009512/21/01 23:10:31  5-MIN KMSN 220510Z 14011KT 10SM CLR M01/M05 A3007 730 72 -900 140/11 RMK AO2
14837KMSN MSN20011221231509412/21/01 23:15:31  5-MIN KMSN 220515Z 14013KT 10SM CLR 00/M04 A3006 730 72 -800 140/13 RMK AO2
14837KMSN MSN20011221232009412/21/01 23:20:31  5-MIN KMSN 220520Z 15013KT 10SM CLR 00/M04 A3006 730 72 -800 140/13 RMK AO2
14837KMSN MSN20011221232509412/21/01 23:25:31  5-MIN KMSN 220525Z 15010KT 10SM CLR 01/M04 A3007 730 69 -800 140/10 RMK AO2
14837KMSN MSN20011221233009412/21/01 23:30:31  5-MIN KMSN 220530Z 14011KT 10SM CLR 01/M04 A3006 730 69 -800 140/11 RMK AO2
14837KMSN MSN20011221233509412/21/01 23:35:31  5-MIN KMSN 220535Z 14009KT 10SM CLR 00/M04 A3006 730 72 -800 140/09 RMK AO2
14837KMSN MSN20011221234009412/21/01 23:40:31  5-MIN KMSN 220540Z 14010KT 10SM CLR 00/M04 A3006 730 72 -800 140/10 RMK AO2
14837KMSN MSN20011221234509412/21/01 23:45:31  5-MIN KMSN 220545Z 15010KT 10SM CLR 01/M04 A3006 730 69 -800 150/10 RMK AO2
14837KMSN MSN20011221235013912/21/01 23:50:31  5-MIN KMSN 220550Z 15010KT 10SM CLR 01/M04 A3006 740 69 -800 140/10 RMK AO2 SLP188 T00061044 10006 21028 400171089 58022
14837KMSN MSN20011221235509412/21/01 23:55:31  5-MIN KMSN 220555Z 15009KT 10SM CLR 01/M04 A3006 740 72 -800 150/09 RMK AO2
14837KMSN MSN20011222000009412/22/01 00:00:31  5-MIN KMSN 220600Z 15009KT 10SM CLR 01/M04 A3006 740 72 -800 150/09 RMK AO2
14837KMSN MSN20011222000509412/22/01 00:05:31  5-MIN KMSN 220605Z 15012KT 10SM CLR 01/M04 A3005 740 72 -700 150/12 RMK AO2
14837KMSN MSN20011222001009412/22/01 00:10:31  5-MIN KMSN 220610Z 15009KT 10SM CLR 01/M04 A3005 750 72 -700 150/09 RMK AO2
14837KMSN MSN20011222001509412/22/01 00:15:31  5-MIN KMSN 220615Z 15010KT 10SM CLR 00/M04 A3005 750 75 -800 150/10 RMK AO2
14837KMSN MSN20011222002009412/22/01 00:20:31  5-MIN KMSN 220620Z 14011KT 10SM CLR 01/M04 A3004 750 72 -700 140/11 RMK AO2
14837KMSN MSN20011222002509412/22/01 00:25:31  5-MIN KMSN 220625Z 14012KT 10SM CLR 01/M04 A3004 750 72 -700 140/12 RMK AO2
14837KMSN MSN20011222003009412/22/01 00:30:31  5-MIN KMSN 220630Z 15012KT 10SM CLR 01/M04 A3004 750 72 -700 150/12 RMK AO2
14837KMSN MSN20011222003509412/22/01 00:35:31  5-MIN KMSN 220635Z 15010KT 10SM CLR 01/M04 A3005 750 72 -700 150/10 RMK AO2
14837KMSN MSN20011222004009412/22/01 00:40:31  5-MIN KMSN 220640Z 15011KT 10SM CLR 01/M04 A3004 750 72 -700 150/11 RMK AO2
14837KMSN MSN20011222004509412/22/01 00:45:31  5-MIN KMSN 220645Z 15011KT 10SM CLR 01/M04 A3004 760 72 -700 150/11 RMK AO2
14837KMSN MSN20011222005011112/22/01 00:50:31  5-MIN KMSN 220650Z 16010KT 10SM CLR 01/M04 A3004 750 72 -700 160/10 RMK AO2 SLP183 T00061039
14837KMSN MSN20011222005509412/22/01 00:55:31  5-MIN KMSN 220655Z 15012KT 10SM CLR 01/M04 A3004 750 72 -700 150/12 RMK AO2
14837KMSN MSN20011222010009412/22/01 01:00:31  5-MIN KMSN 220700Z 15012KT 10SM CLR 01/M04 A3004 750 72 -700 150/12 RMK AO2
14837KMSN MSN20011222010509412/22/01 01:05:31  5-MIN KMSN 220705Z 15012KT 10SM CLR 01/M04 A3004 750 72 -700 150/12 RMK AO2
14837KMSN MSN20011222011009412/22/01 01:10:31  5-MIN KMSN 220710Z 15010KT 10SM CLR 01/M03 A3004 750 75 -700 150/10 RMK AO2
14837KMSN MSN20011222011509412/22/01 01:15:31  5-MIN KMSN 220715Z 15009KT 10SM CLR 01/M04 A3004 750 72 -700 150/09 RMK AO2
14837KMSN MSN20011222012009412/22/01 01:20:31  5-MIN KMSN 220720Z 15010KT 10SM CLR 01/M03 A3004 760 75 -700 150/10 RMK AO2
14837KMSN MSN20011222012509412/22/01 01:25:31  5-MIN KMSN 220725Z 15010KT 10SM CLR 01/M03 A3003 760 75 -700 140/10 RMK AO2
14837KMSN MSN20011222013009412/22/01 01:30:31  5-MIN KMSN 220730Z 14011KT 10SM CLR 01/M03 A3003 770 75 -700 140/11 RMK AO2
14837KMSN MSN20011222013509412/22/01 01:35:31  5-MIN KMSN 220735Z 15011KT 10SM CLR 01/M03 A3003 770 75 -700 140/11 RMK AO2
14837KMSN MSN20011222014009412/22/01 01:40:31  5-MIN KMSN 220740Z 14012KT 10SM CLR 01/M03 A3002 770 75 -700 140/12 RMK AO2
14837KMSN MSN20011222014509412/22/01 01:45:31  5-MIN KMSN 220745Z 14013KT 10SM CLR 01/M03 A3001 780 72 -600 140/13 RMK AO2
14837KMSN MSN20011222015011112/22/01 01:50:31  5-MIN KMSN 220750Z 14013KT 10SM CLR 01/M03 A3002 780 72 -600 140/13 RMK AO2 SLP173 T00111033
14837KMSN MSN20011222015509412/22/01 01:55:31  5-MIN KMSN 220755Z 14012KT 10SM CLR 01/M03 A3001 780 72 -600 140/12 RMK AO2
14837KMSN MSN20011222020009412/22/01 02:00:31  5-MIN KMSN 220800Z 15011KT 10SM CLR 01/M03 A3001 780 72 -600 140/11 RMK AO2
14837KMSN MSN20011222020509412/22/01 02:05:31  5-MIN KMSN 220805Z 15009KT 10SM CLR 01/M03 A3001 780 72 -600 140/09 RMK AO2
14837KMSN MSN20011222021009412/22/01 02:10:31  5-MIN KMSN 220810Z 15012KT 10SM CLR 01/M03 A3001 790 72 -600 150/12 RMK AO2
14837KMSN MSN20011222021509412/22/01 02:15:31  5-MIN KMSN 220815Z 15010KT 10SM CLR 01/M03 A3000 790 72 -600 150/10 RMK AO2
14837KMSN MSN20011222022009412/22/01 02:20:31  5-MIN KMSN 220820Z 15010KT 10SM CLR 01/M03 A3000 790 75 -600 150/10 RMK AO2
14837KMSN MSN20011222022509412/22/01 02:25:31  5-MIN KMSN 220825Z 15014KT 10SM CLR 02/M03 A2999 800 69 -500 150/14 RMK AO2
14837KMSN MSN20011222023009412/22/01 02:30:31  5-MIN KMSN 220830Z 15012KT 10SM CLR 02/M03 A2999 800 72 -500 150/12 RMK AO2
14837KMSN MSN20011222023510112/22/01 02:35:31  5-MIN KMSN 220835Z 15014KT 10SM CLR 02/M03 A2998 810 69 -500 150/14 RMK AO2 PRESFR
14837KMSN MSN20011222024010012/22/01 02:40:31  5-MIN KMSN 220840Z 15013G19KT 10SM CLR 02/M03 A2998 810 72 -500 150/13G19 RMK AO2
14837KMSN MSN20011222024509412/22/01 02:45:31  5-MIN KMSN 220845Z 15014KT 10SM CLR 02/M03 A2997 820 72 -500 150/14 RMK AO2
14837KMSN MSN20011222025011712/22/01 02:50:31  5-MIN KMSN 220850Z 16011KT 10SM CLR 01/M03 A2997 820 75 -600 160/11 RMK AO2 SLP157 T00111028 56022
14837KMSN MSN20011222025509412/22/01 02:55:31  5-MIN KMSN 220855Z 16013KT 10SM CLR 02/M03 A2997 820 69 -500 150/13 RMK AO2
14837KMSN MSN20011222030009412/22/01 03:00:31  5-MIN KMSN 220900Z 16011KT 10SM CLR 01/M03 A2996 820 72 -600 160/11 RMK AO2
14837KMSN MSN20011222030509412/22/01 03:05:31  5-MIN KMSN 220905Z 16013KT 10SM CLR 01/M03 A2996 830 72 -600 160/13 RMK AO2
14837KMSN MSN20011222031009412/22/01 03:10:31  5-MIN KMSN 220910Z 16012KT 10SM CLR 01/M03 A2996 830 75 -600 150/12 RMK AO2
14837KMSN MSN20011222031509412/22/01 03:15:31  5-MIN KMSN 220915Z 16012KT 10SM CLR 01/M03 A2995 830 72 -600 160/12 RMK AO2
14837KMSN MSN20011222032009412/22/01 03:20:31  5-MIN KMSN 220920Z 16013KT 10SM CLR 01/M03 A2995 830 75 -600 160/13 RMK AO2
14837KMSN MSN20011222032509412/22/01 03:25:31  5-MIN KMSN 220925Z 15014KT 10SM CLR 01/M03 A2995 840 75 -600 150/14 RMK AO2
14837KMSN MSN20011222033009412/22/01 03:30:31  5-MIN KMSN 220930Z 15015KT 10SM CLR 01/M03 A2994 840 75 -600 150/15 RMK AO2
14837KMSN MSN20011222033509412/22/01 03:35:31  5-MIN KMSN 220935Z 15013KT 10SM CLR 01/M03 A2994 840 75 -600 150/13 RMK AO2
14837KMSN MSN20011222034009412/22/01 03:40:31  5-MIN KMSN 220940Z 15012KT 10SM CLR 01/M03 A2994 850 75 -500 150/12 RMK AO2
14837KMSN MSN20011222034510012/22/01 03:45:31  5-MIN KMSN 220945Z 16013G19KT 10SM CLR 01/M03 A2994 850 75 -500 150/13G19 RMK AO2
14837KMSN MSN20011222035011712/22/01 03:50:31  5-MIN KMSN 220950Z 15012G19KT 10SM CLR 01/M03 A2993 850 75 -500 150/12G19 RMK AO2 SLP144 T00111028
14837KMSN MSN20011222035509412/22/01 03:55:31  5-MIN KMSN 220955Z 15013KT 10SM CLR 01/M03 A2993 860 75 -500 150/13 RMK AO2
14837KMSN MSN20011222040009412/22/01 04:00:31  5-MIN KMSN 221000Z 15013KT 10SM CLR 01/M03 A2993 860 75 -500 150/13 RMK AO2
14837KMSN MSN20011222040509412/22/01 04:05:31  5-MIN KMSN 221005Z 15014KT 10SM CLR 01/M03 A2992 860 75 -500 150/14 RMK AO2
14837KMSN MSN20011222041009412/22/01 04:10:31  5-MIN KMSN 221010Z 15015KT 10SM CLR 01/M03 A2992 870 75 -500 150/15 RMK AO2
14837KMSN MSN20011222041509412/22/01 04:15:31  5-MIN KMSN 221015Z 15014KT 10SM CLR 01/M03 A2992 870 75 -500 150/14 RMK AO2
14837KMSN MSN20011222042009412/22/01 04:20:31  5-MIN KMSN 221020Z 15012KT 10SM CLR 01/M03 A2991 870 75 -500 150/12 RMK AO2
14837KMSN MSN20011222042509412/22/01 04:25:31  5-MIN KMSN 221025Z 16013KT 10SM CLR 01/M03 A2991 870 75 -500 150/13 RMK AO2
14837KMSN MSN20011222043009412/22/01 04:30:31  5-MIN KMSN 221030Z 16013KT 10SM CLR 01/M03 A2991 870 75 -500 150/13 RMK AO2
14837KMSN MSN20011222043509412/22/01 04:35:31  5-MIN KMSN 221035Z 16014KT 10SM CLR 01/M03 A2991 870 75 -500 160/14 RMK AO2
14837KMSN MSN20011222044009412/22/01 04:40:31  5-MIN KMSN 221040Z 16013KT 10SM CLR 01/M03 A2991 870 75 -500 160/13 RMK AO2
14837KMSN MSN20011222044509412/22/01 04:45:31  5-MIN KMSN 221045Z 15012KT 10SM CLR 01/M03 A2991 880 75 -500 150/12 RMK AO2
14837KMSN MSN20011222045011112/22/01 04:50:31  5-MIN KMSN 221050Z 16012KT 10SM CLR 02/M03 A2991 870 72 -400 160/12 RMK AO2 SLP137 T00171028
14837KMSN MSN20011222045509412/22/01 04:55:31  5-MIN KMSN 221055Z 16012KT 10SM CLR 01/M03 A2991 870 75 -500 160/12 RMK AO2
14837KMSN MSN20011222050009412/22/01 05:00:31  5-MIN KMSN 221100Z 16013KT 10SM CLR 02/M02 A2991 870 75 -400 160/13 RMK AO2
14837KMSN MSN20011222050510012/22/01 05:05:31  5-MIN KMSN 221105Z 16013G19KT 10SM CLR 02/M02 A2991 870 75 -400 160/13G19 RMK AO2
14837KMSN MSN20011222051010012/22/01 05:10:31  5-MIN KMSN 221110Z 16014G19KT 10SM CLR 02/M02 A2990 880 75 -400 160/14G19 RMK AO2
14837KMSN MSN20011222051509412/22/01 05:15:31  5-MIN KMSN 221115Z 16014KT 10SM CLR 02/M02 A2990 880 75 -400 160/14 RMK AO2
14837KMSN MSN20011222052009412/22/01 05:20:31  5-MIN KMSN 221120Z 17015KT 10SM CLR 02/M02 A2990 880 75 -400 160/15 RMK AO2
14837KMSN MSN20011222052509412/22/01 05:25:31  5-MIN KMSN 221125Z 16015KT 10SM CLR 02/M03 A2990 880 69 -400 160/15 RMK AO2
14837KMSN MSN20011222053009412/22/01 05:30:31  5-MIN KMSN 221130Z 16013KT 10SM CLR 02/M03 A2990 890 69 -400 160/13 RMK AO2
14837KMSN MSN20011222053509412/22/01 05:35:31  5-MIN KMSN 221135Z 16014KT 10SM CLR 02/M03 A2990 890 72 -400 160/14 RMK AO2
14837KMSN MSN20011222054010012/22/01 05:40:31  5-MIN KMSN 221140Z 16015G20KT 10SM CLR 02/M02 A2989 890 72 -400 160/15G20 RMK AO2
14837KMSN MSN20011222054510012/22/01 05:45:31  5-MIN KMSN 221145Z 17016G21KT 10SM CLR 02/M02 A2989 900 72 -300 160/16G21 RMK AO2
14837KMSN MSN20011222055013512/22/01 05:50:31  5-MIN KMSN 221150Z 16016G21KT 10SM CLR 02/M02 A2988 900 72 -300 160/16G21 RMK AO2 SLP127 T00221022 10022 20000 58030
14837KMSN MSN20011222055510012/22/01 05:55:31  5-MIN KMSN 221155Z 16016G21KT 10SM CLR 02/M02 A2988 900 72 -300 160/16G21 RMK AO2
14837KMSN MSN20011222060009412/22/01 06:00:31  5-MIN KMSN 221200Z 16015KT 10SM CLR 02/M02 A2987 910 72 -300 160/15 RMK AO2
14837KMSN MSN20011222060510012/22/01 06:05:31  5-MIN KMSN 221205Z 16015G21KT 10SM CLR 02/M02 A2987 910 72 -300 160/15G21 RMK AO2
14837KMSN MSN20011222061010012/22/01 06:10:31  5-MIN KMSN 221210Z 16017G21KT 10SM CLR 02/M02 A2987 910 72 -300 160/17G21 RMK AO2
14837KMSN MSN20011222061510012/22/01 06:15:31  5-MIN KMSN 221215Z 17015G22KT 10SM CLR 02/M02 A2987 910 72 -300 170/15G22 RMK AO2
14837KMSN MSN20011222062010012/22/01 06:20:31  5-MIN KMSN 221220Z 16016G22KT 10SM CLR 03/M02 A2987 910 69 -300 160/16G22 RMK AO2
14837KMSN MSN20011222062509412/22/01 06:25:31  5-MIN KMSN 221225Z 16015KT 10SM CLR 03/M02 A2987 910 69 -300 160/15 RMK AO2
14837KMSN MSN20011222063009412/22/01 06:30:31  5-MIN KMSN 221230Z 16015KT 10SM CLR 03/M02 A2987 910 69 -300 160/15 RMK AO2
14837KMSN MSN20011222063509412/22/01 06:35:31  5-MIN KMSN 221235Z 17015KT 10SM CLR 03/M02 A2987 910 69 -300 170/15 RMK AO2
14837KMSN MSN20011222064010012/22/01 06:40:31  5-MIN KMSN 221240Z 16016G20KT 10SM CLR 03/M02 A2987 910 69 -300 160/16G20 RMK AO2
14837KMSN MSN20011222064510012/22/01 06:45:31  5-MIN KMSN 221245Z 17016G20KT 10SM CLR 03/M02 A2987 910 69 -300 170/16G20 RMK AO2
14837KMSN MSN20011222065011112/22/01 06:50:31  5-MIN KMSN 221250Z 17014KT 10SM CLR 03/M02 A2987 910 69 -300 170/14 RMK AO2 SLP124 T00281022
14837KMSN MSN20011222065509412/22/01 06:55:31  5-MIN KMSN 221255Z 16013KT 10SM CLR 03/M02 A2986 920 69 -300 160/13 RMK AO2
14837KMSN MSN20011222070009412/22/01 07:00:31  5-MIN KMSN 221300Z 17014KT 10SM CLR 03/M02 A2987 910 69 -300 170/14 RMK AO2
14837KMSN MSN20011222070509412/22/01 07:05:31  5-MIN KMSN 221305Z 16015KT 10SM CLR 03/M02 A2987 920 69 -300 160/15 RMK AO2
14837KMSN MSN20011222071009412/22/01 07:10:31  5-MIN KMSN 221310Z 17016KT 10SM CLR 03/M02 A2986 920 69 -300 170/16 RMK AO2
14837KMSN MSN20011222071509412/22/01 07:15:31  5-MIN KMSN 221315Z 16014KT 10SM CLR 03/M02 A2986 920 69 -200 160/14 RMK AO2
14837KMSN MSN20011222072009412/22/01 07:20:31  5-MIN KMSN 221320Z 17017KT 10SM CLR 03/M02 A2986 920 69 -300 170/17 RMK AO2
14837KMSN MSN20011222072509412/22/01 07:25:31  5-MIN KMSN 221325Z 17016KT 10SM CLR 03/M02 A2986 920 72 -300 170/16 RMK AO2
14837KMSN MSN20011222073009412/22/01 07:30:31  5-MIN KMSN 221330Z 17015KT 10SM CLR 03/M02 A2986 920 72 -300 170/15 RMK AO2
14837KMSN MSN20011222073510312/22/01 07:35:31  5-MIN KMSN 221335Z 17018G22KT 10SM FEW080 03/M02 A2987 910 70 -200 170/18G22 RMK AO2
14837KMSN MSN20011222074010312/22/01 07:40:31  5-MIN KMSN 221340Z 16017G22KT 10SM SCT080 03/M02 A2986 920 70 -200 160/17G22 RMK AO2
14837KMSN MSN20011222074511712/22/01 07:45:31  5-MIN KMSN 221345Z 17019G23KT 10SM FEW055 SCT070 BKN085 03/M02 A2986 920 70 -200 160/19G23 RMK AO2
14837KMSN MSN20011222075012812/22/01 07:50:31  5-MIN KMSN 221350Z 16020KT 10SM SCT055 BKN070 BKN085 03/M02 A2987 920 70 -200 160/20 RMK AO2 SLP122 T00331017
14837KMSN MSN20011222075511712/22/01 07:55:31  5-MIN KMSN 221355Z 17016G23KT 10SM BKN055 BKN070 BKN085 03/M01 A2986 920 72 -200 170/16G23 RMK AO2
14837KMSN MSN20011222080012812/22/01 08:00:31  5-MIN KMSN 221400Z 16014KT 9SM -RA FEW034 BKN050 OVC085 03/M01 A2986 920 79 -300 160/14 RMK AO2 RAB1357 P0000
14837KMSN MSN20011222080512812/22/01 08:05:31  5-MIN KMSN 221405Z 17014KT 9SM -RA FEW028 BKN050 OVC070 03/M01 A2986 920 79 -300 170/14 RMK AO2 RAB1357 P0000
14837KMSN MSN20011222081012812/22/01 08:10:31  5-MIN KMSN 221410Z 16015KT 9SM -RA FEW024 BKN050 OVC070 03/M01 A2986 920 79 -200 160/15 RMK AO2 RAB1357 P0000
14837KMSN MSN20011222081512112/22/01 08:15:31  5-MIN KMSN 221415Z 16014KT 9SM -RA FEW024 OVC055 03/M01 A2985 930 79 -200 160/14 RMK AO2 RAB1357 P0000
14837KMSN MSN20011222082013612/22/01 08:20:31  5-MIN KMSN 221420Z 16013KT 10SM -RA FEW026 BKN050 BKN060 03/M01 A2984 940 79 -200 160/13 RMK AO2 RAB1357 PRESFR P0000
14837KMSN MSN20011222082512912/22/01 08:25:31  5-MIN KMSN 221425Z 16014KT 10SM -RA FEW026 SCT050 BKN060 03/M01 A2985 930 79 -200 160/14 RMK AO2 RAB1357 P0000
14837KMSN MSN20011222083012912/22/01 08:30:31  5-MIN KMSN 221430Z 16014KT 10SM -RA FEW024 SCT050 BKN070 03/M01 A2984 940 79 -200 160/14 RMK AO2 RAB1357 P0000
14837KMSN MSN20011222083512912/22/01 08:35:31  5-MIN KMSN 221435Z 16012KT 10SM -RA FEW024 BKN070 OVC085 03/M01 A2984 940 79 -200 160/12 RMK AO2 RAB1357 P0000
14837KMSN MSN20011222084012912/22/01 08:40:31  5-MIN KMSN 221440Z 16013KT 10SM -RA FEW050 BKN070 BKN085 03/M01 A2984 940 79 -200 160/13 RMK AO2 RAB1357 P0000
14837KMSN MSN20011222084512112/22/01 08:45:31  5-MIN KMSN 221445Z 16012KT 9SM -RA BKN060 OVC085 03/M01 A2983 950 79 -200 160/12 RMK AO2 RAB1357 P0000
14837KMSN MSN20011222085014312/22/01 08:50:31  5-MIN KMSN 221450Z 16011KT 8SM -RA OVC060 03/M01 A2982 960 79 -200 150/11 RMK AO2 RAB1357 SLP107 P0000 60000 T00281006 56029
14837KMSN MSN20011222085510512/22/01 08:55:31  5-MIN KMSN 221455Z 16015KT 9SM -RA OVC060 03/00 A2983 950 82 -200 160/15 RMK AO2 P0000
14837KMSN MSN20011222090011412/22/01 09:00:31  5-MIN KMSN 221500Z 15014KT 10SM -RA FEW026 OVC065 03/M01 A2982 960 79 -200 150/14 RMK AO2 P0000
14837KMSN MSN20011222090512312/22/01 09:05:31  5-MIN KMSN 221505Z 15014KT 10SM FEW026 BKN060 OVC080 03/M01 A2982 960 79 -200 150/14 RMK AO2 RAE04 P0000
14837KMSN MSN20011222091011612/22/01 09:10:31  5-MIN KMSN 221510Z 15014KT 10SM SCT065 OVC080 03/M01 A2982 960 76 -100 150/14 RMK AO2 RAE04 P0000
14837KMSN MSN20011222091512212/22/01 09:15:31  5-MIN KMSN 221515Z 15011KT 10SM FEW029 SCT070 OVC080 03/00 A2980 970 79 -100 140/11 RMK AO2 RAE04 P0000
14837KMSN MSN20011222092012212/22/01 09:20:31  5-MIN KMSN 221520Z 15012KT 10SM FEW027 OVC080 03/00 A2980 980 79 -100 140/12 RMK AO2 RAE04 PRESFR P0000
14837KMSN MSN20011222092510812/22/01 09:25:31  5-MIN KMSN 221525Z 15012KT 10SM OVC080 03/00 A2980 970 79 -100 150/12 RMK AO2 RAE04 P0000
14837KMSN MSN20011222093011512/22/01 09:30:31  5-MIN KMSN 221530Z 16014KT 10SM FEW028 OVC085 03/00 A2981 970 79 -100 160/14 RMK AO2 RAE04 P0000
14837KMSN MSN20011222093511512/22/01 09:35:31  5-MIN KMSN 221535Z 16014KT 10SM SCT026 BKN080 04/00 A2981 970 76 -100 150/14 RMK AO2 RAE04 P0000
14837KMSN MSN20011222094012012/22/01 09:40:31  5-MIN KMSN 221540Z 15014KT 10SM FEW026 SCT060 OVC080 04/M01 A2980 980 73 0 150/14 RMK AO2 RAE04 P0000
14837KMSN MSN20011222094512012/22/01 09:45:31  5-MIN KMSN 221545Z 15013KT 10SM FEW026 BKN060 OVC080 04/M01 A2979 990 73 0 150/13 RMK AO2 RAE04 P0000
14837KMSN MSN20011222095013712/22/01 09:50:31  5-MIN KMSN 221550Z 15015KT 10SM FEW026 BKN060 OVC085 04/M01 A2978 990 73 0 150/15 RMK AO2 RAE04 SLP094 P0000 T00391006
14837KMSN MSN20011222095511512/22/01 09:55:31  5-MIN KMSN 221555Z 15013KT 10SM FEW026 BKN060 OVC080 04/00 A2978 1000 76 0 150/13 RMK AO2 PRESFR
14837KMSN MSN20011222100010912/22/01 10:00:31  5-MIN KMSN 221600Z 16015KT 10SM BKN060 BKN080 OVC110 04/M01 A2978 1000 73 0 150/15 RMK AO2
14837KMSN MSN20011222100510212/22/01 10:05:31  5-MIN KMSN 221605Z 15016KT 10SM BKN060 OVC100 04/M01 A2978 1000 70 0 150/16 RMK AO2
14837KMSN MSN20011222101010812/22/01 10:10:31  5-MIN KMSN 221610Z 16017KT 10SM FEW032 BKN060 OVC100 04/M01 A2978 990 70 0 160/17 RMK AO2
14837KMSN MSN20011222101510912/22/01 10:15:31  5-MIN KMSN 221615Z 16016KT 10SM FEW025 BKN060 OVC100 04/M01 A2977 1000 70 0 150/16 RMK AO2
14837KMSN MSN20011222102011512/22/01 10:20:31  5-MIN KMSN 221620Z 15016G21KT 10SM SCT023 BKN032 OVC100 04/M01 A2977 1010 70 0 150/16G21 RMK AO2
14837KMSN MSN20011222102511512/22/01 10:25:31  5-MIN KMSN 221625Z 15016G21KT 10SM BKN023 BKN032 OVC100 04/M01 A2976 1010 70 0 150/16G21 RMK AO2
14837KMSN MSN20011222103010912/22/01 10:30:31  5-MIN KMSN 221630Z 16017KT 10SM BKN021 BKN032 OVC100 04/M01 A2976 1020 70 0 150/17 RMK AO2
14837KMSN MSN20011222103510212/22/01 10:35:31  5-MIN KMSN 221635Z 15015KT 10SM BKN021 OVC032 04/M01 A2975 1020 70 0 150/15 RMK AO2
14837KMSN MSN20011222104010912/22/01 10:40:31  5-MIN KMSN 221640Z 15017KT 10SM BKN023 BKN032 OVC050 04/M01 A2975 1020 70 0 150/17 RMK AO2
14837KMSN MSN20011222104510112/22/01 10:45:31  5-MIN KMSN 221645Z 15017KT 10SM BKN023 OVC048 04/00 A2974 1030 73 0 150/17 RMK AO2
14837KMSN MSN20011222105011812/22/01 10:50:31  5-MIN KMSN 221650Z 16016KT 10SM SCT023 OVC048 04/00 A2974 1030 73 0 160/16 RMK AO2 SLP080 T00440000
14837KMSN MSN20011222105510712/22/01 10:55:31  5-MIN KMSN 221655Z 16018G23KT 10SM FEW023 OVC046 04/00 A2973 1040 73 0 160/18G23 RMK AO2
14837KMSN MSN20011222110010912/22/01 11:00:31  5-MIN KMSN 221700Z 16018G23KT 10SM FEW023 OVC044 04/00 A2973 1040 73 100 160/18G23 RMK AO2
14837KMSN MSN20011222110509612/22/01 11:05:31  5-MIN KMSN 221705Z 17015KT 10SM OVC044 04/00 A2973 1040 73 100 160/15 RMK AO2
14837KMSN MSN20011222111011012/22/01 11:10:31  5-MIN KMSN 221710Z 17018KT 10SM FEW026 BKN039 OVC046 04/00 A2973 1040 73 100 170/18 RMK AO2
14837KMSN MSN20011222111510312/22/01 11:15:31  5-MIN KMSN 221715Z 16017KT 10SM FEW026 OVC039 04/00 A2972 1050 73 100 160/17 RMK AO2
14837KMSN MSN20011222112010312/22/01 11:20:31  5-MIN KMSN 221720Z 16017KT 10SM SCT024 OVC039 04/00 A2971 1060 73 100 160/17 RMK AO2
14837KMSN MSN20011222112511012/22/01 11:25:31  5-MIN KMSN 221725Z 16016KT 10SM SCT024 OVC039 05/01 A2971 1060 73 200 160/16 RMK AO2 PRESFR
14837KMSN MSN20011222113010312/22/01 11:30:31  5-MIN KMSN 221730Z 16017KT 10SM SCT024 OVC039 05/01 A2970 1070 73 200 160/17 RMK AO2
14837KMSN MSN20011222113511612/22/01 11:35:31  5-MIN KMSN 221735Z 16020G24KT 10SM SCT024 OVC039 05/01 A2970 1070 73 200 160/20G24 RMK AO2 PRESFR
14837KMSN MSN20011222114010912/22/01 11:40:31  5-MIN KMSN 221740Z 16016G24KT 10SM SCT022 OVC037 05/01 A2969 1080 73 200 160/16G24 RMK AO2
14837KMSN MSN20011222114510312/22/01 11:45:31  5-MIN KMSN 221745Z 17017KT 10SM BKN022 OVC037 05/01 A2969 1080 73 200 170/17 RMK AO2
14837KMSN MSN20011222115015712/22/01 11:50:31  5-MIN KMSN 221750Z 16020G24KT 10SM BKN022 OVC037 05/01 A2967 1090 73 200 160/20G24 RMK AO2 PRESFR SLP055 60000 T00500006 10050 20022 58018
14837KMSN MSN20011222115510912/22/01 11:55:31  5-MIN KMSN 221755Z 16018G24KT 10SM BKN022 OVC039 06/01 A2967 1090 70 300 160/18G24 RMK AO2
14837KMSN MSN20011222120010312/22/01 12:00:31  5-MIN KMSN 221800Z 16019KT 10SM BKN020 OVC039 05/01 A2967 1100 73 200 160/19 RMK AO2
14837KMSN MSN20011222120510212/22/01 12:05:31  5-MIN KMSN 221805Z 16018G24KT 10SM OVC020 05/01 A2966 1100 76 200 160/18G24 RMK AO2
14837KMSN MSN20011222121010212/22/01 12:10:31  5-MIN KMSN 221810Z 16020G23KT 10SM OVC020 05/01 A2966 1110 76 200 160/20G23 RMK AO2
14837KMSN MSN20011222121510212/22/01 12:15:31  5-MIN KMSN 221815Z 16019G25KT 10SM OVC018 05/01 A2965 1110 76 200 160/19G25 RMK AO2
14837KMSN MSN20011222122010212/22/01 12:20:31  5-MIN KMSN 221820Z 16018G25KT 10SM OVC018 05/02 A2965 1120 79 200 160/18G25 RMK AO2
14837KMSN MSN20011222122510312/22/01 12:25:31  5-MIN KMSN 221825Z 16021KT 10SM OVC018 05/02 A2964 1120 79 200 160/21 RMK AO2 PRESFR
14837KMSN MSN20011222123009612/22/01 12:30:31  5-MIN KMSN 221830Z 16017KT 10SM OVC018 05/02 A2964 1130 79 200 160/17 RMK AO2
14837KMSN MSN20011222123509612/22/01 12:35:31  5-MIN KMSN 221835Z 16018KT 10SM OVC018 05/02 A2963 1130 79 200 160/18 RMK AO2
14837KMSN MSN20011222124010212/22/01 12:40:31  5-MIN KMSN 221840Z 16019G25KT 10SM OVC018 05/02 A2963 1140 79 200 160/19G25 RMK AO2
14837KMSN MSN20011222124510212/22/01 12:45:31  5-MIN KMSN 221845Z 16018G25KT 10SM OVC016 04/02 A2963 1130 82 200 160/18G25 RMK AO2
14837KMSN MSN20011222125011312/22/01 12:50:31  5-MIN KMSN 221850Z 16019KT 10SM OVC016 04/02 A2963 1140 82 200 160/19 RMK AO2 SLP039 T00440017
14837KMSN MSN20011222125510212/22/01 12:55:31  5-MIN KMSN 221855Z 17018G24KT 10SM OVC016 04/02 A2963 1140 82 200 170/18G24 RMK AO2
14837KMSN MSN20011222130011312/22/01 13:00:31  5-MIN KMSN 221900Z 17018KT 8SM -RA OVC016 04/02 A2963 1140 85 200 170/18 RMK AO2 RAB1859 P0000
14837KMSN MSN20011222222512012/22/01 22:25:31  5-MIN KMSN 230425Z 25007G17KT 210V280 7SM OVC012 M01/M04 A2966 1110 81 -500 240/07G17 210V280 RMK AO2
14837KMSN MSN20011222223011412/22/01 22:30:31  5-MIN KMSN 230430Z 25007KT 220V300 7SM OVC012 M01/M04 A2966 1110 81 -500 250/07 220V300 RMK AO2
14837KMSN MSN20011222223511412/22/01 22:35:31  5-MIN KMSN 230435Z 25008KT 210V280 7SM OVC012 M01/M04 A2965 1110 81 -500 250/08 210V280 RMK AO2
14837KMSN MSN20011222224011412/22/01 22:40:31  5-MIN KMSN 230440Z 24008KT 210V280 7SM OVC012 M02/M04 A2966 1110 81 -600 240/08 210V280 RMK AO2
14837KMSN MSN20011222224509812/22/01 22:45:31  5-MIN KMSN 230445Z 24009KT 7SM OVC012 M02/M04 A2966 1110 81 -600 240/09 RMK AO2
14837KMSN MSN20011222225013712/22/01 22:50:31  5-MIN KMSN 230450Z 25010G17KT 210V270 7SM OVC012 M02/M04 A2966 1110 81 -600 250/10G17 210V270 RMK AO2 SLP052 T10171044
14837KMSN MSN20011222225510412/22/01 22:55:31  5-MIN KMSN 230455Z 27011G17KT 8SM OVC014 M02/M05 A2966 1110 78 -600 270/11G17 RMK AO2
14837KMSN MSN20011222230010412/22/01 23:00:31  5-MIN KMSN 230500Z 28009G17KT 8SM OVC014 M02/M06 A2966 1100 75 -600 270/09G17 RMK AO2
14837KMSN MSN20011222230512012/22/01 23:05:31  5-MIN KMSN 230505Z 26007G17KT 230V290 9SM OVC014 M02/M05 A2967 1100 78 -600 260/07G17 230V290 RMK AO2
14837KMSN MSN20011222231011412/22/01 23:10:31  5-MIN KMSN 230510Z 26007KT 220V280 8SM OVC014 M02/M05 A2967 1100 78 -600 260/07 220V280 RMK AO2
14837KMSN MSN20011222231510412/22/01 23:15:31  5-MIN KMSN 230515Z 24013G19KT 8SM OVC014 M02/M05 A2968 1090 78 -600 240/13G19 RMK AO2
14837KMSN MSN20011222232010412/22/01 23:20:31  5-MIN KMSN 230520Z 25010G19KT 9SM OVC016 M02/M06 A2968 1090 78 -700 240/10G19 RMK AO2
14837KMSN MSN20011222232510412/22/01 23:25:31  5-MIN KMSN 230525Z 25011G16KT 9SM OVC016 M02/M06 A2968 1080 78 -700 250/11G16 RMK AO2
14837KMSN MSN20011222233012012/22/01 23:30:31  5-MIN KMSN 230530Z 24012G19KT 210V280 9SM OVC016 M02/M06 A2969 1080 75 -700 240/12G19 210V280 RMK AO2
14837KMSN MSN20011222233512012/22/01 23:35:31  5-MIN KMSN 230535Z 24010G19KT 210V270 9SM OVC016 M02/M06 A2969 1080 75 -700 240/10G19 210V270 RMK AO2
14837KMSN MSN20011222234010412/22/01 23:40:31  5-MIN KMSN 230540Z 24010G20KT 9SM OVC016 M03/M07 A2968 1080 75 -700 240/10G20 RMK AO2
14837KMSN MSN20011222234512012/22/01 23:45:31  5-MIN KMSN 230545Z 25009G20KT 210V280 9SM OVC016 M03/M07 A2968 1080 75 -700 250/09G20 210V280 RMK AO2
14837KMSN MSN20011222235015512/22/01 23:50:31  5-MIN KMSN 230550Z 26009G14KT 8SM OVC016 M03/M07 A2968 1080 75 -700 260/09G14 RMK AO2 SLP060 60014 T10281067 10067 21028 400671028 55003
14837KMSN MSN20011222235512012/22/01 23:55:31  5-MIN KMSN 230555Z 24008G14KT 190V280 8SM OVC016 M03/M06 A2969 1080 78 -800 240/08G14 190V280 RMK AO2
14837KMSN MSN20011223000010412/23/01 00:00:31  5-MIN KMSN 230600Z 26007G15KT 8SM OVC016 M03/M06 A2969 1080 78 -800 260/07G15 RMK AO2
14837KMSN MSN20011223000510412/23/01 00:05:31  5-MIN KMSN 230605Z 26007G15KT 7SM OVC016 M03/M06 A2969 1080 78 -800 260/07G15 RMK AO2
14837KMSN MSN20011223001009812/23/01 00:10:31  5-MIN KMSN 230610Z 25013KT 7SM OVC014 M03/M06 A2969 1080 78 -700 250/13 RMK AO2
14837KMSN MSN20011223001512012/23/01 00:15:31  5-MIN KMSN 230615Z 25011G17KT 210V280 7SM OVC014 M03/M06 A2969 1080 78 -700 250/11G17 210V280 RMK AO2
14837KMSN MSN20011223002010412/23/01 00:20:31  5-MIN KMSN 230620Z 24010G17KT 7SM OVC014 M03/M06 A2969 1070 78 -800 240/10G17 RMK AO2
14837KMSN MSN20011223002512012/23/01 00:25:31  5-MIN KMSN 230625Z 25011G19KT 220V280 8SM OVC014 M03/M07 A2970 1070 75 -800 250/11G19 220V280 RMK AO2
14837KMSN MSN20011223003010412/23/01 00:30:31  5-MIN KMSN 230630Z 26011G19KT 8SM OVC014 M03/M07 A2970 1070 75 -800 260/11G19 RMK AO2
14837KMSN MSN20011223003513612/23/01 00:35:31  5-MIN KMSN 230635Z 26009G18KT 220V290 8SM -SN OVC014 M03/M06 A2970 1070 78 -800 260/09G18 220V290 RMK AO2 SNB32 P0000
14837KMSN MSN20011223004013612/23/01 00:40:31  5-MIN KMSN 230640Z 26010G18KT 230V290 8SM -SN OVC014 M03/M07 A2970 1070 75 -800 260/10G18 230V290 RMK AO2 SNB32 P0000
14837KMSN MSN20011223004513612/23/01 00:45:31  5-MIN KMSN 230645Z 24008G16KT 210V270 8SM -SN OVC016 M03/M07 A2970 1070 78 -800 240/08G16 210V270 RMK AO2 SNB32 P0000
14837KMSN MSN20011223005015312/23/01 00:50:31  5-MIN KMSN 230650Z 23010G15KT 200V270 7SM -SN OVC016 M03/M06 A2970 1070 85 -800 230/10G15 200V270 RMK AO2 SNB32 SLP067 P0000 T10331056
14837KMSN MSN20011223005511412/23/01 00:55:31  5-MIN KMSN 230655Z 23013G20KT 7SM -SN OVC016 M03/M06 A2971 1060 81 -800 230/13G20 RMK AO2 P0000
14837KMSN MSN20011223010011412/23/01 01:00:31  5-MIN KMSN 230700Z 23012G20KT 7SM -SN OVC014 M03/M07 A2971 1060 78 -800 230/12G20 RMK AO2 P0000
14837KMSN MSN20011223010513012/23/01 01:05:31  5-MIN KMSN 230705Z 23010G18KT 200V270 7SM -SN OVC014 M04/M07 A2972 1050 78 -900 230/10G18 200V270 RMK AO2 P0000
14837KMSN MSN20011223011011412/23/01 01:10:31  5-MIN KMSN 230710Z 23010G18KT 8SM -SN OVC014 M04/M07 A2972 1050 78 -900 230/10G18 RMK AO2 P0000
14837KMSN MSN20011223011511412/23/01 01:15:31  5-MIN KMSN 230715Z 23012G19KT 9SM -SN OVC014 M04/M08 A2972 1050 74 -900 230/12G19 RMK AO2 P0000
14837KMSN MSN20011223012011612/23/01 01:20:31  5-MIN KMSN 230720Z 24014G19KT 9SM OVC016 M04/M08 A2972 1050 74 -900 240/14G19 RMK AO2 SNE17 P0000
14837KMSN MSN20011223012511812/23/01 01:25:31  5-MIN KMSN 230725Z 26011G18KT 10SM OVC018 M04/M08 A2972 1050 74 -1000 260/11G18 RMK AO2 SNE17 P0000
14837KMSN MSN20011223013011812/23/01 01:30:31  5-MIN KMSN 230730Z 26007G18KT 10SM OVC018 M04/M08 A2972 1050 78 -1000 260/07G18 RMK AO2 SNE17 P0000
14837KMSN MSN20011223013513412/23/01 01:35:31  5-MIN KMSN 230735Z 24013G16KT 200V270 10SM OVC018 M04/M08 A2972 1050 78 -1000 240/13G16 200V270 RMK AO2 SNE17 P0000
14837KMSN MSN20011223014011712/23/01 01:40:31  5-MIN KMSN 230740Z 25010G16KT 10SM OVC018 M04/M08 A2973 1040 74 -900 240/10G16 RMK AO2 SNE17 P0000
14837KMSN MSN20011223014513412/23/01 01:45:31  5-MIN KMSN 230745Z 25010G15KT 220V280 10SM OVC018 M04/M08 A2973 1040 74 -1000 250/10G15 220V280 RMK AO2 SNE17 P0000
14837KMSN MSN20011223015013512/23/01 01:50:31  5-MIN KMSN 230750Z 22009G17KT 10SM OVC018 M04/M08 A2973 1040 78 -1000 220/09G17 RMK AO2 SNE17 SLP076 P0000 T10441078
14837KMSN MSN20011223015510612/23/01 01:55:31  5-MIN KMSN 230755Z 23012G18KT 10SM OVC020 M04/M08 A2973 1040 74 -1000 230/12G18 RMK AO2
14837KMSN MSN20011223020010612/23/01 02:00:31  5-MIN KMSN 230800Z 22009G18KT 10SM OVC020 M04/M09 A2973 1040 71 -1000 220/09G18 RMK AO2
14837KMSN MSN20011223020510612/23/01 02:05:31  5-MIN KMSN 230805Z 23014G20KT 10SM OVC020 M04/M09 A2974 1040 71 -1000 230/14G20 RMK AO2
14837KMSN MSN20011223021010612/23/01 02:10:31  5-MIN KMSN 230810Z 24010G20KT 10SM OVC020 M04/M09 A2974 1030 71 -1000 240/10G20 RMK AO2
14837KMSN MSN20011223021510612/23/01 02:15:31  5-MIN KMSN 230815Z 24012G21KT 10SM OVC020 M05/M08 A2973 1040 77 -1100 240/12G21 RMK AO2
14837KMSN MSN20011223022010612/23/01 02:20:31  5-MIN KMSN 230820Z 25008G21KT 10SM OVC020 M05/M09 A2973 1040 74 -1100 250/08G21 RMK AO2
14837KMSN MSN20011223022512212/23/01 02:25:31  5-MIN KMSN 230825Z 24010G17KT 200V260 10SM OVC020 M05/M09 A2973 1040 74 -1100 240/10G17 200V260 RMK AO2
14837KMSN MSN20011223023010612/23/01 02:30:31  5-MIN KMSN 230830Z 22010G15KT 10SM OVC020 M05/M08 A2973 1040 77 -1100 220/10G15 RMK AO2
14837KMSN MSN20011223023510612/23/01 02:35:31  5-MIN KMSN 230835Z 24011G19KT 10SM OVC020 M05/M08 A2973 1040 77 -1100 240/11G19 RMK AO2
14837KMSN MSN20011223024010612/23/01 02:40:31  5-MIN KMSN 230840Z 24013G19KT 10SM OVC020 M05/M09 A2973 1040 74 -1100 240/13G19 RMK AO2
14837KMSN MSN20011223024510612/23/01 02:45:31  5-MIN KMSN 230845Z 23013G20KT 10SM OVC020 M05/M09 A2973 1040 71 -1100 230/13G20 RMK AO2
14837KMSN MSN20011223025013512/23/01 02:50:31  5-MIN KMSN 230850Z 23012G20KT 10SM OVC020 M06/M09 A2973 1040 77 -1100 230/12G20 RMK AO2 SLP076 60000 T10561089 51036
14837KMSN MSN20011223025512212/23/01 02:55:31  5-MIN KMSN 230855Z 23011G18KT 200V260 10SM OVC020 M06/M09 A2973 1040 74 -1200 230/11G18 200V260 RMK AO2
14837KMSN MSN20011223030012212/23/01 03:00:31  5-MIN KMSN 230900Z 25009G17KT 220V280 10SM OVC020 M06/M10 A2973 1050 71 -1100 240/09G17 220V280 RMK AO2
14837KMSN MSN20011223030510012/23/01 03:05:31  5-MIN KMSN 230905Z 22013KT 10SM OVC020 M06/M10 A2972 1050 71 -1100 220/13 RMK AO2
14837KMSN MSN20011223031010612/23/01 03:10:31  5-MIN KMSN 230910Z 24009G17KT 10SM OVC020 M06/M09 A2972 1050 74 -1100 240/09G17 RMK AO2
14837KMSN MSN20011223031512212/23/01 03:15:31  5-MIN KMSN 230915Z 25009G17KT 210V280 10SM OVC020 M06/M09 A2972 1050 74 -1100 240/09G17 210V280 RMK AO2
14837KMSN MSN20011223032010612/23/01 03:20:31  5-MIN KMSN 230920Z 25011G20KT 10SM OVC020 M06/M10 A2972 1050 71 -1100 250/11G20 RMK AO2
14837KMSN MSN20011223032510612/23/01 03:25:31  5-MIN KMSN 230925Z 24012G20KT 10SM OVC020 M06/M09 A2972 1050 74 -1100 240/12G20 RMK AO2
14837KMSN MSN20011223033010612/23/01 03:30:31  5-MIN KMSN 230930Z 25010G19KT 10SM BKN020 M06/M10 A2972 1050 71 -1100 250/10G19 RMK AO2
14837KMSN MSN20011223033510612/23/01 03:35:31  5-MIN KMSN 230935Z 24007G18KT 10SM BKN020 M06/M09 A2972 1050 74 -1100 240/07G18 RMK AO2
14837KMSN MSN20011223034012212/23/01 03:40:31  5-MIN KMSN 230940Z 25011G18KT 220V290 10SM BKN020 M06/M09 A2972 1050 77 -1100 250/11G18 220V290 RMK AO2
14837KMSN MSN20011223034510612/23/01 03:45:31  5-MIN KMSN 230945Z 25012G20KT 10SM BKN020 M06/M09 A2972 1050 74 -1100 250/12G20 RMK AO2
14837KMSN MSN20011223035012312/23/01 03:50:31  5-MIN KMSN 230950Z 24008G20KT 10SM BKN020 M06/M10 A2972 1050 74 -1200 240/08G20 RMK AO2 SLP075 T10611100
14837KMSN MSN20011223035510612/23/01 03:55:31  5-MIN KMSN 230955Z 25011G19KT 10SM OVC020 M06/M11 A2972 1050 71 -1200 240/11G19 RMK AO2
14837KMSN MSN20011223040010612/23/01 04:00:31  5-MIN KMSN 231000Z 24011G17KT 10SM OVC020 M06/M10 A2973 1040 74 -1200 240/11G17 RMK AO2
14837KMSN MSN20011223040510612/23/01 04:05:31  5-MIN KMSN 231005Z 24009G16KT 10SM OVC020 M06/M10 A2973 1040 74 -1200 240/09G16 RMK AO2
14837KMSN MSN20011223041010612/23/01 04:10:31  5-MIN KMSN 231010Z 25009G21KT 10SM OVC020 M06/M09 A2973 1040 74 -1100 250/09G21 RMK AO2
14837KMSN MSN20011223041512212/23/01 04:15:31  5-MIN KMSN 231015Z 23009G21KT 200V260 10SM OVC020 M06/M10 A2973 1040 74 -1200 230/09G21 200V260 RMK AO2
14837KMSN MSN20011223042010612/23/01 04:20:31  5-MIN KMSN 231020Z 24011G18KT 10SM OVC020 M06/M10 A2973 1040 74 -1200 240/11G18 RMK AO2
14837KMSN MSN20011223042510612/23/01 04:25:31  5-MIN KMSN 231025Z 23013G18KT 10SM OVC020 M06/M10 A2973 1050 74 -1200 230/13G18 RMK AO2
14837KMSN MSN20011223043010612/23/01 04:30:31  5-MIN KMSN 231030Z 23011G18KT 10SM OVC020 M06/M10 A2972 1050 74 -1200 230/11G18 RMK AO2
14837KMSN MSN20011223043510612/23/01 04:35:31  5-MIN KMSN 231035Z 22010G19KT 10SM OVC020 M06/M10 A2973 1050 74 -1200 220/10G19 RMK AO2
14837KMSN MSN20011223044010612/23/01 04:40:31  5-MIN KMSN 231040Z 23011G19KT 10SM OVC020 M06/M10 A2973 1040 74 -1200 230/11G19 RMK AO2
14837KMSN MSN20011223044510612/23/01 04:45:31  5-MIN KMSN 231045Z 24010G18KT 10SM OVC020 M06/M10 A2973 1040 74 -1200 240/10G18 RMK AO2
14837KMSN MSN20011223045012312/23/01 04:50:31  5-MIN KMSN 231050Z 24011G18KT 10SM BKN020 M06/M11 A2973 1040 68 -1200 240/11G18 RMK AO2 SLP075 T10611111
14837KMSN MSN20011223045510612/23/01 04:55:31  5-MIN KMSN 231055Z 25011G18KT 10SM BKN020 M06/M11 A2973 1040 71 -1200 250/11G18 RMK AO2
14837KMSN MSN20011223050012212/23/01 05:00:31  5-MIN KMSN 231100Z 24010G18KT 200V290 10SM BKN020 M06/M11 A2973 1040 71 -1200 240/10G18 200V290 RMK AO2
14837KMSN MSN20011223050510612/23/01 05:05:31  5-MIN KMSN 231105Z 23010G15KT 10SM BKN020 M06/M09 A2973 1050 77 -1200 230/10G15 RMK AO2
14837KMSN MSN20011223051010612/23/01 05:10:31  5-MIN KMSN 231110Z 23010G15KT 10SM BKN020 M06/M11 A2973 1040 68 -1200 230/10G15 RMK AO2
14837KMSN MSN20011223051511612/23/01 05:15:31  5-MIN KMSN 231115Z 23007KT 200V260 10SM BKN020 M06/M09 A2972 1050 77 -1200 230/07 200V260 RMK AO2
14837KMSN MSN20011223052010012/23/01 05:20:31  5-MIN KMSN 231120Z 24008KT 10SM BKN022 M06/M09 A2973 1050 77 -1200 240/08 RMK AO2
14837KMSN MSN20011223052510612/23/01 05:25:31  5-MIN KMSN 231125Z 24010G14KT 10SM OVC022 M06/M12 A2972 1050 65 -1200 240/10G14 RMK AO2
14837KMSN MSN20011223053012212/23/01 05:30:31  5-MIN KMSN 231130Z 24007G14KT 200V270 10SM OVC022 M06/M12 A2972 1050 65 -1200 240/07G14 200V270 RMK AO2
14837KMSN MSN20011223053510012/23/01 05:35:31  5-MIN KMSN 231135Z 23008KT 10SM OVC020 M06/M12 A2973 1040 65 -1200 230/08 RMK AO2
14837KMSN MSN20011223054012212/23/01 05:40:31  5-MIN KMSN 231140Z 22009G14KT 200V270 10SM OVC020 M06/M12 A2973 1040 65 -1200 220/09G14 200V270 RMK AO2
14837KMSN MSN20011223054510612/23/01 05:45:31  5-MIN KMSN 231145Z VRB06G14KT 10SM OVC020 M07/M12 A2973 1040 68 -1300 VRB/06G14 RMK AO2
14837KMSN MSN20011223055016912/23/01 05:50:31  5-MIN KMSN 231150Z 24010G16KT 180V040 10SM OVC020 M06/M12 A2973 1040 65 -1200 240/10G16 180V040 RMK AO2 SLP076 60000 70029 T10611117 11028 21067 50013
14837KMSN MSN20011223055512212/23/01 05:55:31  5-MIN KMSN 231155Z 23007G16KT 190V260 10SM OVC020 M06/M12 A2973 1040 65 -1200 230/07G16 190V260 RMK AO2
14837KMSN MSN20011223060011612/23/01 06:00:31  5-MIN KMSN 231200Z 22009KT 210V270 10SM OVC020 M06/M12 A2973 1040 65 -1200 220/09 210V270 RMK AO2
14837KMSN MSN20011223060510012/23/01 06:05:31  5-MIN KMSN 231205Z 22008KT 10SM OVC020 M06/M11 A2973 1040 68 -1200 220/08 RMK AO2
14837KMSN MSN20011223061010012/23/01 06:10:31  5-MIN KMSN 231210Z 22009KT 10SM OVC020 M07/M11 A2973 1040 74 -1300 220/09 RMK AO2
14837KMSN MSN20011223061510612/23/01 06:15:31  5-MIN KMSN 231215Z 23011G16KT 10SM OVC020 M07/M11 A2973 1040 71 -1300 230/11G16 RMK AO2
14837KMSN MSN20011223062010612/23/01 06:20:31  5-MIN KMSN 231220Z 22010G16KT 10SM BKN022 M07/M11 A2973 1040 71 -1300 220/10G16 RMK AO2
14837KMSN MSN20011223062510612/23/01 06:25:31  5-MIN KMSN 231225Z 21010G16KT 10SM BKN022 M07/M11 A2973 1040 74 -1300 210/10G16 RMK AO2
14837KMSN MSN20011223063010612/23/01 06:30:31  5-MIN KMSN 231230Z 23010G16KT 10SM BKN022 M07/M11 A2973 1040 71 -1300 230/10G16 RMK AO2
14837KMSN MSN20011223063510612/23/01 06:35:31  5-MIN KMSN 231235Z 22008G16KT 10SM BKN022 M07/M11 A2973 1040 71 -1300 220/08G16 RMK AO2
14837KMSN MSN20011223064010612/23/01 06:40:31  5-MIN KMSN 231240Z 23010G17KT 10SM BKN022 M07/M10 A2973 1040 77 -1300 230/10G17 RMK AO2
14837KMSN MSN20011223064512212/23/01 06:45:31  5-MIN KMSN 231245Z 23008G17KT 190V270 10SM BKN022 M07/M11 A2973 1040 71 -1300 230/08G17 190V270 RMK AO2
14837KMSN MSN20011223065013912/23/01 06:50:31  5-MIN KMSN 231250Z 23007G17KT 180V270 10SM OVC022 M07/M11 A2973 1040 71 -1300 230/07G17 180V270 RMK AO2 SLP075 T10671111
14837KMSN MSN20011223065510612/23/01 06:55:31  5-MIN KMSN 231255Z 22012G17KT 10SM BKN022 M07/M11 A2973 1040 74 -1300 220/12G17 RMK AO2
14837KMSN MSN20011223070010612/23/01 07:00:31  5-MIN KMSN 231300Z 24011G17KT 10SM BKN022 M07/M11 A2973 1040 74 -1300 240/11G17 RMK AO2
14837KMSN MSN20011223070510012/23/01 07:05:31  5-MIN KMSN 231305Z 23011KT 10SM BKN022 M07/M11 A2972 1050 74 -1300 230/11 RMK AO2
14837KMSN MSN20011223071012212/23/01 07:10:31  5-MIN KMSN 231310Z 24011G18KT 200V270 10SM BKN022 M07/M11 A2972 1050 71 -1300 240/11G18 200V270 RMK AO2
14837KMSN MSN20011223071510612/23/01 07:15:31  5-MIN KMSN 231315Z 22013G18KT 10SM BKN022 M07/M11 A2972 1050 71 -1300 220/13G18 RMK AO2
14837KMSN MSN20011223072010612/23/01 07:20:31  5-MIN KMSN 231320Z 23012G21KT 10SM BKN022 M07/M11 A2972 1050 71 -1300 230/12G21 RMK AO2
14837KMSN MSN20011223072510612/23/01 07:25:31  5-MIN KMSN 231325Z 23011G21KT 10SM BKN022 M07/M11 A2972 1050 74 -1300 230/11G21 RMK AO2
14837KMSN MSN20011223073012212/23/01 07:30:31  5-MIN KMSN 231330Z 22010G17KT 10SM -SN BKN022 M07/M11 A2972 1050 74 -1300 220/10G17 RMK AO2 SNB27 P0000
14837KMSN MSN20011223073512112/23/01 07:35:31  5-MIN KMSN 231335Z 24009G17KT 9SM -SN OVC020 M07/M11 A2972 1050 74 -1300 240/09G17 RMK AO2 SNB27 P0000
14837KMSN MSN20011223074012112/23/01 07:40:31  5-MIN KMSN 231340Z 24009G16KT 9SM -SN OVC020 M07/M11 A2971 1060 74 -1300 240/09G16 RMK AO2 SNB27 P0000
14837KMSN MSN20011223074512112/23/01 07:45:31  5-MIN KMSN 231345Z 23010G16KT 9SM -SN OVC020 M07/M11 A2971 1060 71 -1300 230/10G16 RMK AO2 SNB27 P0000
14837KMSN MSN20011223075013912/23/01 07:50:31  5-MIN KMSN 231350Z 24010G18KT 10SM -SN OVC020 M07/M11 A2971 1060 74 -1300 240/10G18 RMK AO2 SNB27 SLP071 P0000 T10671106
14837KMSN MSN20011223075511512/23/01 07:55:31  5-MIN KMSN 231355Z 23010G18KT 9SM -SN OVC020 M07/M11 A2972 1050 71 -1300 230/10G18 RMK AO2 P0000
14837KMSN MSN20011223080011512/23/01 08:00:31  5-MIN KMSN 231400Z 22009G15KT 8SM -SN OVC020 M06/M10 A2972 1050 74 -1200 220/09G15 RMK AO2 P0000
14837KMSN MSN20011223080511512/23/01 08:05:31  5-MIN KMSN 231405Z 22008G16KT 8SM -SN OVC020 M06/M11 A2972 1050 71 -1200 220/08G16 RMK AO2 P0000
14837KMSN MSN20011223081013112/23/01 08:10:31  5-MIN KMSN 231410Z 23009G16KT 200V260 9SM -SN OVC020 M06/M11 A2972 1050 71 -1200 230/09G16 200V260 RMK AO2 P0000
14837KMSN MSN20011223081511512/23/01 08:15:31  5-MIN KMSN 231415Z 24012G17KT 9SM -SN OVC020 M06/M11 A2972 1050 71 -1200 240/12G17 RMK AO2 P0000
14837KMSN MSN20011223082011512/23/01 08:20:31  5-MIN KMSN 231420Z 24009G17KT 9SM -SN OVC022 M06/M11 A2972 1050 68 -1200 240/09G17 RMK AO2 P0000
14837KMSN MSN20011223082510912/23/01 08:25:31  5-MIN KMSN 231425Z 24009KT 9SM -SN OVC022 M06/M11 A2972 1050 68 -1200 240/09 RMK AO2 P0000
14837KMSN MSN20011223083012512/23/01 08:30:31  5-MIN KMSN 231430Z 22009KT 160V240 7SM -SN OVC022 M06/M10 A2972 1050 74 -1200 220/09 160V240 RMK AO2 P0000
14837KMSN MSN20011223083510912/23/01 08:35:31  5-MIN KMSN 231435Z 21007KT 7SM -SN OVC022 M06/M10 A2972 1050 74 -1200 210/07 RMK AO2 P0000
14837KMSN MSN20011223084012512/23/01 08:40:31  5-MIN KMSN 231440Z 24009KT 220V280 6SM -SN OVC022 M06/M10 A2972 1050 74 -1200 240/09 220V280 RMK AO2 P0000
14837KMSN MSN20011223084510912/23/01 08:45:31  5-MIN KMSN 231445Z 23007KT 7SM -SN OVC020 M06/M11 A2972 1050 71 -1200 230/07 RMK AO2 P0000
14837KMSN MSN20011223085015412/23/01 08:50:31  5-MIN KMSN 231450Z 22007KT 190V260 7SM -SN OVC020 M06/M10 A2972 1050 74 -1200 220/07 190V260 RMK AO2 SLP074 P0000 60000 T10611100 53001
14837KMSN MSN20011223085510912/23/01 08:55:31  5-MIN KMSN 231455Z 22007KT 7SM -SN OVC020 M06/M09 A2972 1050 77 -1200 220/07 RMK AO2 P0000
14837KMSN MSN20011223090010912/23/01 09:00:31  5-MIN KMSN 231500Z 22006KT 7SM -SN OVC020 M06/M10 A2972 1050 74 -1200 220/06 RMK AO2 P0000
14837KMSN MSN20011223090511512/23/01 09:05:31  5-MIN KMSN 231505Z 22007G14KT 7SM -SN OVC020 M06/M10 A2972 1050 74 -1200 220/07G14 RMK AO2 P0000
14837KMSN MSN20011223091012512/23/01 09:10:31  5-MIN KMSN 231510Z 23010KT 210V270 7SM -SN OVC020 M06/M11 A2971 1060 71 -1200 230/10 210V270 RMK AO2 P0000
14837KMSN MSN20011223091511512/23/01 09:15:31  5-MIN KMSN 231515Z 22008G15KT 6SM -SN OVC020 M06/M10 A2972 1050 74 -1200 220/08G15 RMK AO2 P0000
14837KMSN MSN20011223092011512/23/01 09:20:31  5-MIN KMSN 231520Z 23011G15KT 6SM -SN OVC020 M06/M10 A2972 1050 74 -1200 230/11G15 RMK AO2 P0000
14837KMSN MSN20011223092513112/23/01 09:25:31  5-MIN KMSN 231525Z 24009G17KT 210V310 6SM -SN OVC022 M06/M11 A2972 1050 71 -1200 240/09G17 210V310 RMK AO2 P0000
14837KMSN MSN20011223093011512/23/01 09:30:31  5-MIN KMSN 231530Z 23009G17KT 6SM -SN OVC022 M06/M10 A2972 1050 71 -1100 230/09G17 RMK AO2 P0000
14837KMSN MSN20011223093513112/23/01 09:35:31  5-MIN KMSN 231535Z 22011G15KT 190V270 6SM -SN OVC022 M06/M10 A2972 1050 71 -1100 220/11G15 190V270 RMK AO2 P0000
14837KMSN MSN20011223094011512/23/01 09:40:31  5-MIN KMSN 231540Z 24012G16KT 5SM -SN OVC022 M06/M10 A2972 1050 74 -1200 240/12G16 RMK AO2 P0000
14837KMSN MSN20011223094511512/23/01 09:45:31  5-MIN KMSN 231545Z 23009G16KT 6SM -SN OVC024 M06/M11 A2972 1050 71 -1200 230/09G16 RMK AO2 P0000
14837KMSN MSN20011223095012612/23/01 09:50:31  5-MIN KMSN 231550Z 23010KT 7SM -SN OVC024 M06/M10 A2972 1050 71 -1100 230/10 RMK AO2 SLP074 P0000 T10561100
14837KMSN MSN20011223095511512/23/01 09:55:31  5-MIN KMSN 231555Z 24011G17KT 7SM -SN OVC024 M06/M11 A2972 1050 68 -1100 240/11G17 RMK AO2 P0000
14837KMSN MSN20011223100011512/23/01 10:00:31  5-MIN KMSN 231600Z 24008G18KT 8SM -SN OVC024 M06/M11 A2972 1050 68 -1100 240/08G18 RMK AO2 P0000
14837KMSN MSN20011223100512212/23/01 10:05:31  5-MIN KMSN 231605Z 23011G18KT 8SM -SN BKN024 OVC029 M06/M11 A2971 1060 65 -1100 220/11G18 RMK AO2 P0000
14837KMSN MSN20011223101012212/23/01 10:10:31  5-MIN KMSN 231610Z 23012G18KT 5SM -SN FEW022 OVC029 M06/M11 A2971 1060 65 -1100 230/12G18 RMK AO2 P0000
14837KMSN MSN20011223101512212/23/01 10:15:31  5-MIN KMSN 231615Z 23011G16KT 5SM -SN BKN026 OVC031 M06/M11 A2971 1060 68 -1100 230/11G16 RMK AO2 P0000
14837KMSN MSN20011223102011612/23/01 10:20:31  5-MIN KMSN 231620Z 23008KT 5SM -SN BKN026 OVC031 M06/M10 A2971 1060 71 -1100 230/08 RMK AO2 P0000
14837KMSN MSN20011223103511512/23/01 10:35:31  5-MIN KMSN 231635Z 24012G16KT 7SM -SN OVC028 M06/M11 A2971 1060 65 -1100 240/12G16 RMK AO2 P0000
14837KMSN MSN20011223104012212/23/01 10:40:31  5-MIN KMSN 231640Z 23010G16KT 7SM -SN BKN026 OVC031 M06/M11 A2970 1070 68 -1100 220/10G16 RMK AO2 P0000
14837KMSN MSN20011223104511512/23/01 10:45:31  5-MIN KMSN 231645Z 24006G15KT 7SM -SN OVC027 M06/M11 A2970 1070 68 -1100 240/06G15 RMK AO2 P0000
14837KMSN MSN20011223105014212/23/01 10:50:31  5-MIN KMSN 231650Z 24008KT 210V280 6SM -SN OVC028 M06/M09 A2970 1070 74 -1100 240/08 210V280 RMK AO2 SLP069 P0000 T10561094
14837KMSN MSN20011223105512212/23/01 10:55:31  5-MIN KMSN 231655Z 24010G15KT 4SM -SN BKN026 OVC031 M06/M10 A2970 1070 71 -1100 240/10G15 RMK AO2 P0000
14837KMSN MSN20011223110012212/23/01 11:00:31  5-MIN KMSN 231700Z 24009G15KT 3SM -SN BKN024 OVC031 M06/M10 A2970 1070 71 -1100 240/09G15 RMK AO2 P0000
14837KMSN MSN20011223110512212/23/01 11:05:31  5-MIN KMSN 231705Z 24008G15KT 3SM -SN BKN022 OVC029 M06/M11 A2969 1070 68 -1100 240/08G15 RMK AO2 P0000
14837KMSN MSN20011223111013812/23/01 11:10:31  5-MIN KMSN 231710Z 25008G15KT 210V280 3SM -SN SCT022 OVC029 M06/M09 A2969 1080 74 -1100 250/08G15 210V280 RMK AO2 P0000
14837KMSN MSN20011223111512212/23/01 11:15:31  5-MIN KMSN 231715Z 25009G16KT 4SM -SN BKN022 OVC029 M06/M10 A2969 1080 71 -1100 250/09G16 RMK AO2 P0000
14837KMSN MSN20011223112013812/23/01 11:20:31  5-MIN KMSN 231720Z 23008G16KT 200V280 6SM -SN BKN022 OVC029 M06/M11 A2969 1080 68 -1100 230/08G16 200V280 RMK AO2 P0000
14837KMSN MSN20011223112512212/23/01 11:25:31  5-MIN KMSN 231725Z 25008G14KT 5SM -SN BKN022 OVC029 M06/M10 A2968 1090 71 -1100 250/08G14 RMK AO2 P0000
14837KMSN MSN20011223113013812/23/01 11:30:31  5-MIN KMSN 231730Z 23009G14KT 200V270 4SM -SN BKN022 OVC029 M06/M10 A2968 1090 71 -1100 230/09G14 200V270 RMK AO2 P0000
14837KMSN MSN20011223113512912/23/01 11:35:31  5-MIN KMSN 231735Z 23009G17KT 5SM -SN BKN022 BKN029 OVC035 M06/M10 A2968 1090 71 -1100 230/09G17 RMK AO2 P0000
14837KMSN MSN20011223114013812/23/01 11:40:31  5-MIN KMSN 231740Z 25007G17KT 210V280 8SM -SN BKN024 OVC033 M05/M11 A2968 1090 65 -1000 250/07G17 210V280 RMK AO2 P0000
14837KMSN MSN20011223114513212/23/01 11:45:31  5-MIN KMSN 231745Z 22011KT 200V260 8SM -SN BKN024 OVC033 M05/M11 A2968 1090 65 -1000 220/11 200V260 RMK AO2 P0000
14837KMSN MSN20011223115016412/23/01 11:50:31  5-MIN KMSN 231750Z 22008KT 8SM -SN SCT024 BKN029 OVC033 M05/M11 A2967 1090 65 -1000 220/08 RMK AO2 SLP060 P0000 60000 T10501106 11050 21067 55003
14837KMSN MSN20011223115513212/23/01 11:55:31  5-MIN KMSN 231755Z 24008KT 200V270 7SM -SN SCT024 OVC032 M05/M09 A2967 1100 71 -1000 240/08 200V270 RMK AO2 P0000
14837KMSN MSN20011223120011612/23/01 12:00:31  5-MIN KMSN 231800Z 24006KT 6SM -SN SCT024 OVC032 M05/M10 A2967 1100 68 -1000 240/06 RMK AO2 P0000
14837KMSN MSN20011223120511612/23/01 12:05:31  5-MIN KMSN 231805Z 22009KT 8SM -SN BKN024 OVC032 M05/M10 A2967 1100 68 -1000 220/09 RMK AO2 P0000
14837KMSN MSN20011223121012212/23/01 12:10:31  5-MIN KMSN 231810Z 24010G18KT 8SM -SN BKN024 OVC032 M05/M11 A2967 1100 62 -1000 240/10G18 RMK AO2 P0000
14837KMSN MSN20011223121512212/23/01 12:15:31  5-MIN KMSN 231815Z 23007G18KT 6SM -SN BKN024 OVC032 M05/M11 A2967 1100 65 -1000 220/07G18 RMK AO2 P0000
14837KMSN MSN20011223122011612/23/01 12:20:31  5-MIN KMSN 231820Z 23008KT 6SM -SN BKN024 OVC032 M05/M10 A2967 1100 68 -1000 230/08 RMK AO2 P0000
14837KMSN MSN20011223122512212/23/01 12:25:31  5-MIN KMSN 231825Z 23011G17KT 5SM -SN BKN024 OVC032 M05/M10 A2966 1100 68 -1000 230/11G17 RMK AO2 P0000
14837KMSN MSN20011223123012212/23/01 12:30:31  5-MIN KMSN 231830Z 22011G17KT 3SM -SN BKN026 OVC032 M05/M10 A2966 1110 68 -1000 220/11G17 RMK AO2 P0000
14837KMSN MSN20011223123513212/23/01 12:35:31  5-MIN KMSN 231835Z 24010G16KT 3SM -SN SCT023 OVC030 M05/M09 A2966 1110 71 -1000 240/10G16 RMK AO2 SFC VIS 4 P0000
14837KMSN MSN20011223124013212/23/01 12:40:31  5-MIN KMSN 231840Z 23011G16KT 3SM -SN SCT023 OVC030 M05/M09 A2966 1110 74 -1000 220/11G16 RMK AO2 SFC VIS 4 P0000
14837KMSN MSN20011223124513812/23/01 12:45:31  5-MIN KMSN 231845Z 24009G16KT 200V270 7SM -SN BKN023 OVC032 M05/M09 A2966 1110 71 -1000 240/09G16 200V270 RMK AO2 P0000
14837KMSN MSN20011223125013312/23/01 12:50:31  5-MIN KMSN 231850Z 22008KT 7SM -SN SCT023 OVC030 M05/M09 A2966 1110 71 -1000 220/08 RMK AO2 SLP054 P0000 T10501094
14837KMSN MSN20011223125512212/23/01 12:55:31  5-MIN KMSN 231855Z 23011G16KT 5SM -SN SCT023 OVC030 M05/M09 A2965 1110 71 -1000 230/11G16 RMK AO2 P0000
14837KMSN MSN20011223130012212/23/01 13:00:31  5-MIN KMSN 231900Z 22012G16KT 5SM -SN SCT023 OVC030 M05/M09 A2965 1120 74 -1000 220/12G16 RMK AO2 P0000
14837KMSN MSN20011223130511612/23/01 13:05:31  5-MIN KMSN 231905Z 21009KT 4SM -SN SCT022 OVC028 M05/M09 A2965 1110 71 -1000 210/09 RMK AO2 P0000
14837KMSN MSN20011223131011612/23/01 13:10:31  5-MIN KMSN 231910Z 22008KT 4SM -SN BKN022 OVC028 M05/M09 A2965 1110 71 -1000 220/08 RMK AO2 P0000
14837KMSN MSN20011223131513212/23/01 13:15:31  5-MIN KMSN 231915Z 22008KT 200V260 4SM -SN BKN022 OVC028 M05/M09 A2965 1110 74 -1000 220/08 200V260 RMK AO2 P0000
14837KMSN MSN20011223132012912/23/01 13:20:31  5-MIN KMSN 231920Z 24010G15KT 3SM -SN BKN022 BKN026 OVC033 M05/M08 A2965 1110 77 -1000 240/10G15 RMK AO2 P0000
14837KMSN MSN20011223132512912/23/01 13:25:31  5-MIN KMSN 231925Z 23007G15KT 3SM -SN BKN020 BKN025 OVC030 M05/M09 A2965 1120 74 -1000 230/07G15 RMK AO2 P0000
14837KMSN MSN20011223133015112/23/01 13:30:31  5-MIN KMSN 231930Z 23010G14KT 210V270 2SM -SN BKN020 OVC027 M04/M08 A2965 1120 74 -900 230/10G14 210V270 RMK AO2 SFC VIS 2 1/2 P0000
14837KMSN MSN20011223133515212/23/01 13:35:31  5-MIN KMSN 231935Z 23008G14KT 210V270 2SM -SN BKN020 OVC027 M05/M08 A2965 1120 77 -1000 230/08G14 210V270 RMK AO2 SFC VIS 2 1/2 P0000
14837KMSN MSN20011223134014212/23/01 13:40:31  5-MIN KMSN 231940Z 23010G14KT 2SM -SN BKN018 BKN025 OVC036 M04/M08 A2965 1120 74 -900 230/10G14 RMK AO2 SFC VIS 2 1/2 P0000
14837KMSN MSN20011223134515812/23/01 13:45:31  5-MIN KMSN 231945Z 22007G14KT 190V280 2SM -SN BKN018 BKN025 OVC036 M04/M08 A2965 1120 74 -900 220/07G14 190V280 RMK AO2 SFC VIS 2 1/2 P0000
14837KMSN MSN20011223135014212/23/01 13:50:31  5-MIN KMSN 231950Z 24010KT 2SM -SN BKN020 OVC025 M04/M08 A2964 1120 74 -900 240/10 RMK AO2 SFC VIS 3 SLP051 P0000 T10441083
14837KMSN MSN20011223135513812/23/01 13:55:31  5-MIN KMSN 231955Z 24011G18KT 2SM -SN BKN020 BKN025 OVC037 M04/M08 A2965 1120 74 -900 240/11G18 RMK AO2 SFC VIS 3 P0000
14837KMSN MSN20011223140013812/23/01 14:00:31  5-MIN KMSN 232000Z 23009G18KT 2SM -SN SCT018 BKN025 OVC039 M04/M08 A2964 1120 74 -900 220/09G18 RMK AO2 SFC VIS 3 P0000
14837KMSN MSN20011223140513112/23/01 14:05:31  5-MIN KMSN 232005Z 22009G16KT 2SM -SN BKN020 OVC025 M04/M08 A2964 1120 78 -900 220/09G16 RMK AO2 SFC VIS 3 P0000
14837KMSN MSN20011223141013112/23/01 14:10:31  5-MIN KMSN 232010Z 23008G16KT 2SM -SN SCT018 OVC025 M04/M08 A2964 1120 74 -900 230/08G16 RMK AO2 SFC VIS 3 P0000
14837KMSN MSN20011223141512212/23/01 14:15:31  5-MIN KMSN 232015Z 23006KT 2SM -SN SCT018 BKN025 OVC035 M04/M08 A2964 1120 78 -900 230/06 RMK AO2 P0000
14837KMSN MSN20011223142012812/23/01 14:20:31  5-MIN KMSN 232020Z 22015G18KT 2SM -SN FEW018 BKN025 OVC033 M04/M08 A2964 1120 78 -900 220/15G18 RMK AO2 P0000
14837KMSN MSN20011223142512812/23/01 14:25:31  5-MIN KMSN 232025Z 23009G18KT 2SM -SN FEW018 BKN025 OVC033 M04/M08 A2964 1130 74 -900 230/09G18 RMK AO2 P0000
14837KMSN MSN20011223143014212/23/01 14:30:31  5-MIN KMSN 232030Z 22007G18KT 2SM -SN SCT018 BKN025 OVC033 M04/M08 A2964 1130 78 -900 220/07G18 RMK AO2 SFC VIS 2 1/2 P0000
14837KMSN MSN20011223143513612/23/01 14:35:31  5-MIN KMSN 232035Z 22009KT 2SM -SN BKN018 BKN022 OVC033 M04/M08 A2964 1120 78 -900 220/09 RMK AO2 SFC VIS 2 1/2 P0000
14837KMSN MSN20011223144015212/23/01 14:40:31  5-MIN KMSN 232040Z 22009KT 180V250 2SM -SN SCT018 BKN022 OVC033 M04/M08 A2964 1130 78 -900 220/09 180V250 RMK AO2 SFC VIS 2 1/2 P0000
14837KMSN MSN20011223144513612/23/01 14:45:31  5-MIN KMSN 232045Z 21008KT 1 3/4SM -SN BKN018 BKN024 OVC033 M04/M07 A2964 1130 81 -900 210/08 RMK AO2 TWR VIS 2 P0000
14837KMSN MSN20011223145014412/23/01 14:50:31  5-MIN KMSN 232050Z 22012KT 2SM -SN BKN018 OVC033 M04/M07 A2964 1130 81 -900 220/12 RMK AO2 SLP049 P0001 60001 T10441072 58016
14837KMSN MSN20011223145512212/23/01 14:55:31  5-MIN KMSN 232055Z 22009KT 2SM -SN SCT018 BKN023 OVC028 M04/M08 A2964 1120 78 -900 220/09 RMK AO2 P0000
14837KMSN MSN20011223150012512/23/01 15:00:31  5-MIN KMSN 232100Z 22007KT 2SM -SN BKN018 OVC026 M04/M08 A2964 1120 78 -900 220/07 RMK AO2 SFC VIS 3 P0000
14837KMSN MSN20011223150513112/23/01 15:05:31  5-MIN KMSN 232105Z 22011G15KT 2SM -SN BKN020 OVC026 M04/M08 A2965 1120 78 -900 220/11G15 RMK AO2 SFC VIS 4 P0000
14837KMSN MSN20011223151013112/23/01 15:10:31  5-MIN KMSN 232110Z 22013G20KT 2SM -SN BKN018 OVC026 M04/M07 A2964 1120 81 -900 220/13G20 RMK AO2 SFC VIS 4 P0000
14837KMSN MSN20011223151513112/23/01 15:15:31  5-MIN KMSN 232115Z 23011G20KT 2SM -SN BKN018 OVC026 M04/M08 A2964 1120 78 -900 220/11G20 RMK AO2 SFC VIS 4 P0000
14837KMSN MSN20011223152013212/23/01 15:20:31  5-MIN KMSN 232120Z 22010G18KT 2SM -SN BKN018 OVC026 M05/M08 A2964 1120 81 -1000 220/10G18 RMK AO2 SFC VIS 3 P0000
14837KMSN MSN20011223152514312/23/01 15:25:31  5-MIN KMSN 232125Z 22008G18KT 2SM -SN BKN018 BKN022 OVC028 M05/M08 A2965 1120 77 -1000 220/08G18 RMK AO2 SFC VIS 2 1/2 P0000
14837KMSN MSN20011223153013012/23/01 15:30:31  5-MIN KMSN 232130Z 23008KT 2SM -SN BKN018 OVC028 M05/M08 A2965 1120 81 -1000 230/08 RMK AO2 SFC VIS 2 1/2 P0000
14837KMSN MSN20011223153512312/23/01 15:35:31  5-MIN KMSN 232135Z 23012KT 2SM -SN BKN018 BKN028 OVC035 M05/M08 A2965 1120 81 -1000 220/12 RMK AO2 P0000
14837KMSN MSN20011223154013012/23/01 15:40:31  5-MIN KMSN 232140Z 21011KT 1 1/4SM -SN BKN018 OVC028 M05/M08 A2965 1120 81 -1000 210/11 RMK AO2 TWR VIS 2 P0000
14837KMSN MSN20011223154513612/23/01 15:45:31  5-MIN KMSN 232145Z 23011G17KT 1 1/2SM -SN BKN015 OVC020 M05/M08 A2965 1120 81 -1000 230/11G17 RMK AO2 TWR VIS 2 P0000
14837KMSN MSN20011223155014612/23/01 15:50:31  5-MIN KMSN 232150Z 23008G17KT 1 1/2SM -SN OVC018 M05/M08 A2965 1120 81 -1000 230/08G17 RMK AO2 TWR VIS 2 SLP053 P0000 T10501078
14837KMSN MSN20011223155513612/23/01 15:55:31  5-MIN KMSN 232155Z 23008G18KT 1 3/4SM -SN BKN018 OVC036 M05/M08 A2965 1120 81 -1000 230/08G18 RMK AO2 TWR VIS 2 P0000
14837KMSN MSN20011223160014312/23/01 16:00:31  5-MIN KMSN 232200Z 24011G18KT 2SM -SN BKN018 BKN038 OVC065 M05/M08 A2965 1110 81 -1000 240/11G18 RMK AO2 SFC VIS 2 1/2 P0000
14837KMSN MSN20011223160515912/23/01 16:05:31  5-MIN KMSN 232205Z 25011G17KT 210V270 2SM -SN BKN017 BKN027 OVC065 M05/M08 A2966 1110 81 -1000 250/11G17 210V270 RMK AO2 SFC VIS 2 1/2 P0000
14837KMSN MSN20011223161014312/23/01 16:10:31  5-MIN KMSN 232210Z 25010G17KT 2SM -SN SCT015 BKN027 OVC070 M05/M08 A2966 1110 77 -1000 250/10G17 RMK AO2 SFC VIS 2 1/2 P0000
14837KMSN MSN20011223161512912/23/01 16:15:31  5-MIN KMSN 232215Z 24012G16KT 2SM -SN FEW017 BKN027 OVC065 M06/M08 A2966 1100 81 -1100 240/12G16 RMK AO2 P0000
14837KMSN MSN20011223162014312/23/01 16:20:31  5-MIN KMSN 232220Z 24009G17KT 1 3/4SM -SN FEW015 BKN027 OVC070 M06/M08 A2966 1100 81 -1100 230/09G17 RMK AO2 TWR VIS 2 P0000
14837KMSN MSN20011223162512912/23/01 16:25:31  5-MIN KMSN 232225Z 24009G17KT 2SM -SN FEW015 BKN027 OVC070 M06/M08 A2966 1100 81 -1100 240/09G17 RMK AO2 P0000
14837KMSN MSN20011223163014012/23/01 16:30:31  5-MIN KMSN 232230Z 24008KT 1 1/2SM -SN BR SCT020 BKN025 OVC070 M06/M08 A2966 1100 84 -1100 240/08 RMK AO2 TWR VIS 2 P0000
14837KMSN MSN20011223163514612/23/01 16:35:31  5-MIN KMSN 232235Z 25010G14KT 1 1/2SM -SN BR BKN023 BKN040 OVC060 M06/M08 A2966 1100 84 -1100 250/10G14 RMK AO2 TWR VIS 2 P0000
14837KMSN MSN20011223164014312/23/01 16:40:31  5-MIN KMSN 232240Z 25009G14KT 2SM -SN SCT025 BKN040 OVC055 M06/M08 A2966 1100 81 -1100 240/09G14 RMK AO2 SFC VIS 2 1/2 P0000
14837KMSN MSN20011223164514312/23/01 16:45:31  5-MIN KMSN 232245Z 24010G16KT 2SM -SN SCT032 BKN040 OVC055 M06/M08 A2966 1100 81 -1100 240/10G16 RMK AO2 SFC VIS 2 1/2 P0000
14837KMSN MSN20011223165016312/23/01 16:50:31  5-MIN KMSN 232250Z 25010G16KT 1 3/4SM -SN BR BKN034 BKN049 OVC055 M06/M08 A2967 1100 84 -1100 240/10G16 RMK AO2 TWR VIS 2 SLP059 P0000 T10561078
14837KMSN MSN20011223165516212/23/01 16:55:31  5-MIN KMSN 232255Z 24010G16KT 220V280 1 1/2SM -SN BR BKN034 BKN049 OVC055 M06/M08 A2967 1100 84 -1100 240/10G16 220V280 RMK AO2 TWR VIS 2 P0000
14837KMSN MSN20011223170014612/23/01 17:00:31  5-MIN KMSN 232300Z 24010G16KT 1 1/2SM -SN BR FEW025 BKN034 OVC055 M06/M08 A2967 1100 84 -1100 240/10G16 RMK AO2 TWR VIS 2 P0000
14837KMSN MSN20011223170514612/23/01 17:05:31  5-MIN KMSN 232305Z 24011G17KT 1 1/2SM -SN BR FEW025 BKN032 OVC055 M06/M08 A2967 1100 84 -1100 240/11G17 RMK AO2 TWR VIS 2 P0000
14837KMSN MSN20011223171013912/23/01 17:10:31  5-MIN KMSN 232310Z 25013G19KT 1 1/2SM -SN BR BKN032 OVC048 M06/M08 A2967 1090 84 -1100 250/13G19 RMK AO2 TWR VIS 2 P0000
14837KMSN MSN20011223171516212/23/01 17:15:31  5-MIN KMSN 232315Z 24010G19KT 210V280 1 1/2SM -SN BR BKN032 BKN048 OVC070 M06/M08 A2967 1090 84 -1100 240/10G19 210V280 RMK AO2 TWR VIS 2 P0000
14837KMSN MSN20011223172014612/23/01 17:20:31  5-MIN KMSN 232320Z 25008G17KT 1 3/4SM -SN BR BKN036 BKN048 OVC070 M06/M08 A2967 1090 84 -1100 240/08G17 RMK AO2 TWR VIS 2 P0000
14837KMSN MSN20011223172514612/23/01 17:25:31  5-MIN KMSN 232325Z 25008G17KT 1 3/4SM -SN BR FEW031 BKN038 OVC075 M06/M07 A2967 1090 92 -1100 250/08G17 RMK AO2 TWR VIS 2 P0000
14837KMSN MSN20011223173015612/23/01 17:30:31  5-MIN KMSN 232330Z 24008KT 200V260 2SM -SN BR SCT038 BKN050 OVC080 M06/M08 A2968 1090 84 -1100 240/08 200V260 RMK AO2 SFC VIS 2 1/2 P0000
14837KMSN MSN20011223173513712/23/01 17:35:31  5-MIN KMSN 232335Z 25009KT 2SM -SN SCT039 BKN055 OVC080 M06/M08 A2968 1090 81 -1100 250/09 RMK AO2 SFC VIS 2 1/2 P0000
14837KMSN MSN20011223174012612/23/01 17:40:31  5-MIN KMSN 232340Z 24009KT 3SM -SN BR FEW047 SCT055 OVC075 M06/M08 A2968 1090 84 -1100 240/09 RMK AO2 P0000
14837KMSN MSN20011223174513212/23/01 17:45:31  5-MIN KMSN 232345Z 24010G15KT 4SM -SN BR FEW047 BKN075 OVC095 M06/M08 A2968 1090 84 -1100 240/10G15 RMK AO2 P0000
14837KMSN MSN20011223175017312/23/01 17:50:31  5-MIN KMSN 232350Z 24008G15KT 4SM -SN BR FEW047 BKN075 OVC095 M06/M08 A2968 1090 84 -1100 240/08G15 RMK AO2 SLP063 P0001 60002 T10561078 11044 21056 56010
14837KMSN MSN20011223175512612/23/01 17:55:31  5-MIN KMSN 232355Z 24008KT 5SM -SN BR FEW055 BKN075 OVC095 M06/M07 A2968 1090 88 -1100 240/08 RMK AO2 P0000
14837KMSN MSN20011223180014812/23/01 18:00:31  5-MIN KMSN 240000Z 24009G14KT 210V270 3SM -SN BR SCT050 BKN075 OVC095 M06/M08 A2968 1090 84 -1100 240/09G14 210V270 RMK AO2 P0000
14837KMSN MSN20011223180514612/23/01 18:05:31  5-MIN KMSN 240005Z 26009KT 220V280 2 1/2SM -SN BR FEW044 BKN050 OVC095 M06/M07 A2968 1090 88 -1100 260/09 220V280 RMK AO2 P0000
14837KMSN MSN20011223181013012/23/01 18:10:31  5-MIN KMSN 240010Z 24011KT 2 1/2SM -SN BR SCT044 BKN050 OVC100 M06/M08 A2968 1090 84 -1100 240/11 RMK AO2 P0000
14837KMSN MSN20011223181513212/23/01 18:15:31  5-MIN KMSN 240015Z 23010G16KT 5SM -SN BR SCT044 BKN055 OVC100 M06/M08 A2968 1090 84 -1100 230/10G16 RMK AO2 P0000
14837KMSN MSN20011223182014512/23/01 18:20:31  5-MIN KMSN 240020Z 25008G16KT 220V290 7SM -SN SCT042 BKN055 OVC100 M06/M08 A2968 1090 84 -1100 250/08G16 220V290 RMK AO2 P0000
14837KMSN MSN20011223182512312/23/01 18:25:31  5-MIN KMSN 240025Z 25008KT 8SM -SN FEW042 BKN050 OVC110 M05/M08 A2968 1080 81 -1000 250/08 RMK AO2 P0000
14837KMSN MSN20011223183012312/23/01 18:30:31  5-MIN KMSN 240030Z 26008KT 8SM -SN SCT024 BKN045 OVC100 M05/M08 A2969 1080 81 -1000 250/08 RMK AO2 P0000
14837KMSN MSN20011223183512312/23/01 18:35:31  5-MIN KMSN 240035Z 26007KT 8SM -SN SCT024 BKN043 OVC090 M05/M08 A2969 1080 77 -1000 260/07 RMK AO2 P0000
14837KMSN MSN20011223184012312/23/01 18:40:31  5-MIN KMSN 240040Z 25009KT 8SM -SN SCT024 BKN043 OVC090 M05/M08 A2969 1080 81 -1000 250/09 RMK AO2 P0000
14837KMSN MSN20011223184513212/23/01 18:45:31  5-MIN KMSN 240045Z 24010G15KT 3SM -SN BR SCT024 BKN039 OVC090 M06/M08 A2969 1080 84 -1100 240/10G15 RMK AO2 P0000
14837KMSN MSN20011223185015312/23/01 18:50:31  5-MIN KMSN 240050Z 25010G16KT 2 1/2SM -SN BR BKN024 BKN037 OVC060 M06/M08 A2969 1080 84 -1100 240/10G16 RMK AO2 SLP068 P0000 T10561078
14837KMSN MSN20011223185513612/23/01 18:55:31  5-MIN KMSN 240055Z 25010G16KT 2 1/2SM -SN BR FEW021 BKN033 OVC060 M06/M07 A2969 1070 88 -1100 250/10G16 RMK AO2 P0000
14837KMSN MSN20011223190013012/23/01 19:00:31  5-MIN KMSN 240100Z 24008KT 2 1/2SM -SN BR FEW026 BKN040 OVC070 M06/M08 A2970 1070 84 -1100 240/08 RMK AO2 P0000
14837KMSN MSN20011223190513212/23/01 19:05:31  5-MIN KMSN 240105Z 24010G17KT 3SM -SN BR FEW022 BKN040 OVC070 M06/M08 A2970 1070 84 -1100 240/10G17 RMK AO2 P0000
14837KMSN MSN20011223191014812/23/01 19:10:31  5-MIN KMSN 240110Z 25009G18KT 190V270 3SM -SN BR BKN036 BKN049 OVC070 M06/M08 A2970 1070 84 -1100 250/09G18 190V270 RMK AO2 P0000
14837KMSN MSN20011223191514812/23/01 19:15:31  5-MIN KMSN 240115Z 24007G18KT 210V280 3SM -SN BR BKN036 BKN047 OVC060 M06/M08 A2970 1070 84 -1100 240/07G18 210V280 RMK AO2 P0000
14837KMSN MSN20011223192013212/23/01 19:20:31  5-MIN KMSN 240120Z 25011G16KT 3SM -SN BR BKN038 BKN060 OVC070 M06/M08 A2970 1070 84 -1100 240/11G16 RMK AO2 P0000
14837KMSN MSN20011223192512512/23/01 19:25:31  5-MIN KMSN 240125Z 25008G16KT 4SM -SN BR BKN038 OVC055 M06/M08 A2970 1070 84 -1100 250/08G16 RMK AO2 P0000
14837KMSN MSN20011223193012312/23/01 19:30:31  5-MIN KMSN 240130Z 24010KT 2 1/2SM -SN BR FEW023 OVC035 M06/M08 A2970 1070 84 -1100 240/10 RMK AO2 P0000
14837KMSN MSN20011223193514612/23/01 19:35:31  5-MIN KMSN 240135Z 25009KT 200V270 2 1/2SM -SN BR FEW018 BKN031 OVC039 M06/M08 A2970 1070 84 -1100 250/09 200V270 RMK AO2 P0000
14837KMSN MSN20011223194013612/23/01 19:40:31  5-MIN KMSN 240140Z 25010G15KT 2 1/2SM -SN BR SCT018 BKN024 OVC039 M06/M08 A2970 1070 84 -1100 250/10G15 RMK AO2 P0000
14837KMSN MSN20011223194515212/23/01 19:45:31  5-MIN KMSN 240145Z 25008G15KT 230V290 2 1/2SM -SN BR BKN018 BKN024 OVC039 M06/M08 A2970 1070 84 -1100 250/08G15 230V290 RMK AO2 P0000
14837KMSN MSN20011223195015612/23/01 19:50:31  5-MIN KMSN 240150Z 26007KT 220V290 4SM -SN BKN018 BKN024 OVC034 M06/M08 A2970 1070 81 -1100 260/07 220V290 RMK AO2 SLP072 P0000 T10561083
14837KMSN MSN20011223195511912/23/01 19:55:31  5-MIN KMSN 240155Z 26010KT 4SM -SN BR BKN018 OVC024 M06/M08 A2970 1070 84 -1100 260/10 RMK AO2 P0000
14837KMSN MSN20011223200012812/23/01 20:00:31  5-MIN KMSN 240200Z 26008KT 230V300 4SM -SN BR OVC020 M06/M08 A2971 1060 84 -1100 260/08 230V300 RMK AO2 P0000
14837KMSN MSN20011223200512612/23/01 20:05:31  5-MIN KMSN 240205Z 27009KT 3SM -SN BR BKN018 BKN024 OVC029 M06/M08 A2971 1060 84 -1100 270/09 RMK AO2 P0000
14837KMSN MSN20011223201014612/23/01 20:10:31  5-MIN KMSN 240210Z 26007KT 230V300 2 1/2SM -SN BR SCT018 BKN024 OVC038 M06/M08 A2971 1060 84 -1100 260/07 230V300 RMK AO2 P0000
14837KMSN MSN20011223201513012/23/01 20:15:31  5-MIN KMSN 240215Z 27009KT 2 1/2SM -SN BR FEW018 BKN030 OVC038 M06/M08 A2971 1060 84 -1100 270/09 RMK AO2 P0000
14837KMSN MSN20011223202013212/23/01 20:20:31  5-MIN KMSN 240220Z 27010G15KT 3SM -SN BR SCT020 SCT030 OVC038 M06/M08 A2971 1060 84 -1100 260/10G15 RMK AO2 P0000
14837KMSN MSN20011223202512512/23/01 20:25:31  5-MIN KMSN 240225Z 27011G16KT 3SM -SN BR FEW018 OVC038 M06/M08 A2971 1060 84 -1100 270/11G16 RMK AO2 P0000
14837KMSN MSN20011223203012512/23/01 20:30:31  5-MIN KMSN 240230Z 27012G16KT 3SM -SN BR FEW022 OVC038 M06/M08 A2971 1060 84 -1100 270/12G16 RMK AO2 P0000
14837KMSN MSN20011223203513812/23/01 20:35:31  5-MIN KMSN 240235Z 27009G16KT 230V290 3SM -SN FEW022 OVC040 M06/M08 A2971 1060 81 -1100 270/09G16 230V290 RMK AO2 P0000
14837KMSN MSN20011223204012512/23/01 20:40:31  5-MIN KMSN 240240Z 28008G16KT 3SM -SN BR FEW022 OVC040 M06/M08 A2972 1050 84 -1100 280/08G16 RMK AO2 P0000
14837KMSN MSN20011223204513212/23/01 20:45:31  5-MIN KMSN 240245Z 28010KT 230V300 3SM -SN FEW022 OVC040 M06/M08 A2972 1050 81 -1100 280/10 230V300 RMK AO2 P0000
14837KMSN MSN20011223205014512/23/01 20:50:31  5-MIN KMSN 240250Z 27008KT 5SM -SN FEW022 OVC042 M06/M08 A2972 1050 81 -1100 270/08 RMK AO2 SLP076 P0000 60001 T10561083 53012
14837KMSN MSN20011223205511612/23/01 20:55:31  5-MIN KMSN 240255Z 28010KT 8SM -SN FEW022 OVC042 M06/M09 A2972 1050 77 -1100 280/10 RMK AO2 P0000
14837KMSN MSN20011223210011612/23/01 21:00:31  5-MIN KMSN 240300Z 28008KT 7SM -SN FEW022 OVC044 M06/M09 A2972 1050 77 -1100 280/08 RMK AO2 P0000
14837KMSN MSN20011223210512212/23/01 21:05:31  5-MIN KMSN 240305Z 28008G15KT 7SM -SN FEW027 OVC044 M06/M09 A2972 1050 74 -1100 280/08G15 RMK AO2 P0000
14837KMSN MSN20011223211011512/23/01 21:10:31  5-MIN KMSN 240310Z 28010G15KT 7SM -SN OVC044 M06/M09 A2972 1050 77 -1100 280/10G15 RMK AO2 P0000
14837KMSN MSN20011223211511612/23/01 21:15:31  5-MIN KMSN 240315Z 29008KT 8SM -SN BKN044 OVC080 M06/M09 A2973 1040 77 -1100 280/08 RMK AO2 P0000
14837KMSN MSN20011223212012212/23/01 21:20:31  5-MIN KMSN 240320Z 29010G16KT 9SM -SN BKN044 OVC085 M06/M09 A2973 1040 74 -1100 290/10G16 RMK AO2 P0000
14837KMSN MSN20011223212512212/23/01 21:25:31  5-MIN KMSN 240325Z 28009G16KT 9SM -SN SCT044 OVC085 M06/M09 A2973 1040 74 -1100 280/09G16 RMK AO2 P0000
14837KMSN MSN20011223213012412/23/01 21:30:31  5-MIN KMSN 240330Z 28008G16KT 9SM SCT044 OVC085 M06/M09 A2973 1040 77 -1200 280/08G16 RMK AO2 SNE28 P0000
14837KMSN MSN20011223213511912/23/01 21:35:31  5-MIN KMSN 240335Z 28011KT 10SM FEW044 OVC085 M06/M09 A2973 1040 77 -1200 280/11 RMK AO2 SNE28 P0000
14837KMSN MSN20011223214011912/23/01 21:40:31  5-MIN KMSN 240340Z 28009KT 10SM FEW044 OVC085 M06/M09 A2973 1040 77 -1200 280/09 RMK AO2 SNE28 P0000
14837KMSN MSN20011223214511812/23/01 21:45:31  5-MIN KMSN 240345Z 29011G15KT 10SM OVC085 M06/M09 A2973 1040 81 -1200 290/11G15 RMK AO2 SNE28 P0000
14837KMSN MSN20011223215014212/23/01 21:50:31  5-MIN KMSN 240350Z 28008G15KT 10SM FEW029 OVC085 M06/M09 A2973 1040 77 -1200 280/08G15 RMK AO2 SNE28 SLP081 P0000 T10611094
14837KMSN MSN20011223215511612/23/01 21:55:31  5-MIN KMSN 240355Z 28007KT 9SM -SN FEW029 OVC085 M06/M09 A2973 1040 81 -1200 280/07 RMK AO2 P0000
14837KMSN MSN20011223220013212/23/01 22:00:31  5-MIN KMSN 240400Z 28007KT 250V320 5SM -SN SCT070 OVC085 M06/M09 A2973 1040 77 -1200 280/07 250V320 RMK AO2 P0000
14837KMSN MSN20011223220512612/23/01 22:05:31  5-MIN KMSN 240405Z 28009KT 5SM -SN BR FEW029 BKN070 OVC085 M06/M08 A2974 1040 84 -1200 280/09 RMK AO2 P0000
14837KMSN MSN20011223221012612/23/01 22:10:31  5-MIN KMSN 240410Z 29007KT 4SM -SN BR SCT029 BKN037 OVC085 M06/M08 A2974 1030 84 -1200 290/07 RMK AO2 P0000
14837KMSN MSN20011223221512612/23/01 22:15:31  5-MIN KMSN 240415Z 28007KT 3SM -SN BR SCT029 BKN037 OVC090 M06/M08 A2974 1030 84 -1200 280/07 RMK AO2 P0000
14837KMSN MSN20011223222014012/23/01 22:20:31  5-MIN KMSN 240420Z 28007KT 2SM -SN BR FEW026 BKN032 OVC070 M06/M08 A2974 1030 84 -1200 280/07 RMK AO2 SFC VIS 2 1/2 P0000
14837KMSN MSN20011223222513312/23/01 22:25:31  5-MIN KMSN 240425Z 28007KT 2SM -SN BR BKN031 OVC070 M06/M08 A2974 1030 88 -1200 280/07 RMK AO2 SFC VIS 2 1/2 P0000
14837KMSN MSN20011223223014212/23/01 22:30:31  5-MIN KMSN 240430Z 28008KT 220V300 2SM -SN BR OVC033 M06/M08 A2974 1030 88 -1200 270/08 220V300 RMK AO2 SFC VIS 2 1/2 P0000
14837KMSN MSN20011223223513912/23/01 22:35:31  5-MIN KMSN 240435Z 28007G14KT 2SM -SN BR FEW023 OVC031 M06/M08 A2974 1030 84 -1200 280/07G14 RMK AO2 SFC VIS 2 1/2 P0000
14837KMSN MSN20011223224012612/23/01 22:40:31  5-MIN KMSN 240440Z 29009KT 2SM -SN BR OVC031 M06/M08 A2974 1030 88 -1200 290/09 RMK AO2 SFC VIS 2 1/2 P0000
14837KMSN MSN20011223224514912/23/01 22:45:31  5-MIN KMSN 240445Z 28008KT 260V320 2SM -SN BR SCT028 OVC036 M06/M08 A2974 1030 84 -1200 280/08 260V320 RMK AO2 SFC VIS 2 1/2 P0000
14837KMSN MSN20011223225015712/23/01 22:50:31  5-MIN KMSN 240450Z 28007KT 1 3/4SM -SN BR SCT021 BKN033 OVC041 M06/M08 A2974 1030 84 -1200 280/07 RMK AO2 TWR VIS 2 SLP084 P0000 T10611083
14837KMSN MSN20011223225514012/23/01 22:55:31  5-MIN KMSN 240455Z 28008KT 1 3/4SM -SN BR SCT019 BKN024 OVC031 M06/M08 A2974 1030 84 -1200 280/08 RMK AO2 TWR VIS 2 P0000
14837KMSN MSN20011223230014012/23/01 23:00:31  5-MIN KMSN 240500Z 27007KT 1 1/2SM -SN BR SCT019 BKN024 OVC039 M06/M08 A2974 1030 88 -1200 270/07 RMK AO2 TWR VIS 2 P0000
14837KMSN MSN20011223230514012/23/01 23:05:31  5-MIN KMSN 240505Z 28010KT 1 1/2SM -SN BR SCT017 BKN022 OVC039 M06/M08 A2974 1030 88 -1200 280/10 RMK AO2 TWR VIS 2 P0000
14837KMSN MSN20011223231014012/23/01 23:10:31  5-MIN KMSN 240510Z 28007KT 1 1/2SM -SN BR SCT013 BKN022 OVC048 M06/M08 A2974 1030 88 -1200 280/07 RMK AO2 TWR VIS 2 P0000
14837KMSN MSN20011223231513012/23/01 23:15:31  5-MIN KMSN 240515Z 28009KT 1 1/2SM -SN BR SCT015 BKN020 OVC048 M06/M08 A2974 1030 88 -1200 280/09 RMK AO2 P0000
14837KMSN MSN20011223232015212/23/01 23:20:31  5-MIN KMSN 240520Z 28007G14KT 240V310 1 1/2SM -SN BR BKN015 BKN021 OVC034 M06/M08 A2974 1030 88 -1200 280/07G14 240V310 RMK AO2 P0000
14837KMSN MSN20011223232513612/23/01 23:25:31  5-MIN KMSN 240525Z 29009G15KT 1 1/2SM -SN BR BKN015 BKN020 OVC045 M06/M08 A2974 1030 88 -1200 290/09G15 RMK AO2 P0000
14837KMSN MSN20011223233013012/23/01 23:30:31  5-MIN KMSN 240530Z 29009KT 1 1/4SM -SN BR BKN015 BKN020 OVC041 M06/M08 A2975 1030 88 -1200 290/09 RMK AO2 P0000
14837KMSN MSN20011223233513012/23/01 23:35:31  5-MIN KMSN 240535Z 29009KT 1 1/2SM -SN BR BKN017 BKN026 OVC048 M06/M08 A2974 1030 88 -1200 290/09 RMK AO2 P0000
14837KMSN MSN20011223234013012/23/01 23:40:31  5-MIN KMSN 240540Z 30007KT 1 1/2SM -SN BR BKN021 BKN026 OVC037 M06/M08 A2974 1030 88 -1200 300/07 RMK AO2 P0000
14837KMSN MSN20011223234513612/23/01 23:45:31  5-MIN KMSN 240545Z 29006KT 1 1/2SM -SN BR FEW016 BKN021 OVC044 M06/M08 A2974 1030 88 -1200 290/06 RMK AO2 4/001 P0000
14837KMSN MSN20011223235018712/23/01 23:50:31  5-MIN KMSN 240550Z 29007KT 1 1/2SM -SN BR FEW016 BKN021 OVC044 M06/M08 A2974 1030 84 -1200 290/07 RMK AO2 SLP085 4/001 P0000 60000 T10611083 11050 21061 410281067 53014
14837KMSN MSN20011223235513012/23/01 23:55:31  5-MIN KMSN 240555Z 30006KT 1 1/2SM -SN BR FEW012 BKN018 OVC033 M07/M08 A2975 1030 92 -1300 300/06 RMK AO2 P0000
14837KMSN MSN20011224000012612/24/01 00:00:31  5-MIN KMSN 240600Z 31006KT 1SM -SN BR SCT012 BKN020 OVC033 M07/M08 A2975 1030 92 -1300 310/06 RMK AO2 P0000
14837KMSN MSN20011224000512812/24/01 00:05:31  5-MIN KMSN 240605Z 31005KT 3/4SM -SN BR BKN010 BKN017 OVC033 M07/M08 A2975 1020 92 -1300 310/05 RMK AO2 P0000
14837KMSN MSN20011224001012812/24/01 00:10:31  5-MIN KMSN 240610Z 31006KT 3/4SM -SN BR BKN010 BKN016 OVC031 M07/M08 A2975 1020 92 -1300 300/06 RMK AO2 P0001
14837KMSN MSN20011224001512112/24/01 00:15:31  5-MIN KMSN 240615Z 31006KT 3/4SM -SN BR BKN010 OVC014 M07/M08 A2975 1020 92 -1300 310/06 RMK AO2 P0001
14837KMSN MSN20011224002012612/24/01 00:20:31  5-MIN KMSN 240620Z 31006KT 1SM -SN BR SCT006 BKN010 OVC016 M07/M08 A2975 1020 92 -1300 310/06 RMK AO2 P0001
14837KMSN MSN20011224002512612/24/01 00:25:31  5-MIN KMSN 240625Z 31009KT 1SM -SN BR SCT006 BKN010 OVC016 M07/M08 A2975 1020 92 -1300 300/09 RMK AO2 P0001
14837KMSN MSN20011224003012612/24/01 00:30:31  5-MIN KMSN 240630Z 31007KT 1SM -SN BR SCT006 BKN010 OVC018 M07/M08 A2976 1020 92 -1300 300/07 RMK AO2 P0001
14837KMSN MSN20011224003512612/24/01 00:35:31  5-MIN KMSN 240635Z 31006KT 1SM -SN BR SCT006 BKN010 OVC028 M07/M08 A2976 1020 88 -1300 310/06 RMK AO2 P0001
14837KMSN MSN20011224004012612/24/01 00:40:31  5-MIN KMSN 240640Z 32009KT 1SM -SN BR SCT006 BKN019 OVC046 M07/M08 A2976 1010 88 -1300 310/09 RMK AO2 P0001
14837KMSN MSN20011224004512612/24/01 00:45:31  5-MIN KMSN 240645Z 31007KT 1SM -SN BR SCT008 BKN019 OVC046 M07/M09 A2976 1010 84 -1300 310/07 RMK AO2 P0001
14837KMSN MSN20011224005014312/24/01 00:50:31  5-MIN KMSN 240650Z 32007KT 1SM -SN BR SCT008 BKN016 OVC032 M07/M08 A2976 1010 88 -1300 320/07 RMK AO2 SLP090 P0001 T10671083
14837KMSN MSN20011224005512612/24/01 00:55:31  5-MIN KMSN 240655Z 31006KT 1SM -SN BR BKN012 BKN016 OVC046 M07/M08 A2976 1020 92 -1400 310/06 RMK AO2 P0000
14837KMSN MSN20011224010012312/24/01 01:00:31  5-MIN KMSN 240700Z 32009KT 1 1/2SM -SN BR BKN028 OVC049 M07/M09 A2976 1010 88 -1400 320/09 RMK AO2 P0000
14837KMSN MSN20011224010512612/24/01 01:05:31  5-MIN KMSN 240705Z 32008KT 3SM -SN BR FEW027 BKN032 OVC050 M07/M09 A2976 1010 88 -1400 320/08 RMK AO2 P0000
14837KMSN MSN20011224011012612/24/01 01:10:31  5-MIN KMSN 240710Z 32008KT 3SM -SN BR FEW027 BKN034 OVC055 M07/M09 A2976 1010 88 -1400 320/08 RMK AO2 P0000
14837KMSN MSN20011224011512612/24/01 01:15:31  5-MIN KMSN 240715Z 31009KT 3SM -SN BR BKN036 BKN047 OVC055 M07/M09 A2976 1010 84 -1400 310/09 RMK AO2 P0000
14837KMSN MSN20011224012012512/24/01 01:20:31  5-MIN KMSN 240720Z 31010G15KT 5SM -SN BR BKN044 OVC055 M07/M09 A2977 1010 88 -1400 310/10G15 RMK AO2 P0000
14837KMSN MSN20011224012512212/24/01 01:25:31  5-MIN KMSN 240725Z 30009G15KT 7SM -SN BKN046 OVC060 M07/M10 A2977 1000 81 -1400 300/09G15 RMK AO2 P0000
14837KMSN MSN20011224013012212/24/01 01:30:31  5-MIN KMSN 240730Z 31009G14KT 8SM -SN BKN046 OVC065 M07/M11 A2977 1000 77 -1400 310/09G14 RMK AO2 P0000
14837KMSN MSN20011224013512912/24/01 01:35:31  5-MIN KMSN 240735Z 30006G15KT 8SM -SN FEW036 BKN046 OVC070 M07/M11 A2977 1000 74 -1400 300/06G15 RMK AO2 P0000
14837KMSN MSN20011224014012312/24/01 01:40:31  5-MIN KMSN 240740Z 30008KT 6SM -SN FEW036 SCT046 OVC070 M07/M10 A2978 1000 81 -1400 300/08 RMK AO2 P0000
14837KMSN MSN20011224014513112/24/01 01:45:31  5-MIN KMSN 240745Z 31008KT 270V340 5SM -SN FEW036 OVC070 M07/M10 A2978 990 81 -1400 310/08 270V340 RMK AO2 P0000
14837KMSN MSN20011224015013212/24/01 01:50:31  5-MIN KMSN 240750Z 30008KT 6SM -SN FEW036 OVC070 M07/M11 A2978 990 77 -1400 300/08 RMK AO2 SLP098 P0000 T10721106
14837KMSN MSN20011224015510512/24/01 01:55:31  5-MIN KMSN 240755Z 30008KT 8SM FEW036 OVC070 M07/M11 A2978 990 77 -1400 300/08 RMK AO2
14837KMSN MSN20011224020013012/24/01 02:00:31  5-MIN KMSN 240800Z 31009KT 7SM -SN SCT039 SCT060 OVC075 M07/M11 A2978 990 77 -1400 310/09 RMK AO2 SNB0757 P0000
14837KMSN MSN20011224020513012/24/01 02:05:31  5-MIN KMSN 240805Z 31008KT 6SM -SN SCT039 BKN060 OVC075 M07/M11 A2978 990 77 -1400 310/08 RMK AO2 SNB0757 P0000
14837KMSN MSN20011224021013012/24/01 02:10:31  5-MIN KMSN 240810Z 31008KT 7SM -SN FEW033 BKN039 OVC075 M07/M10 A2979 990 81 -1400 310/08 RMK AO2 SNB0757 P0000
14837KMSN MSN20011224021513012/24/01 02:15:31  5-MIN KMSN 240815Z 30008KT 8SM -SN SCT033 BKN039 OVC075 M07/M11 A2979 990 77 -1400 300/08 RMK AO2 SNB0757 P0000
14837KMSN MSN20011224022012912/24/01 02:20:31  5-MIN KMSN 240820Z 30007KT 9SM BKN030 BKN039 OVC055 M07/M11 A2979 990 77 -1400 300/07 RMK AO2 SNB0757E18 P0000
14837KMSN MSN20011224022512212/24/01 02:25:31  5-MIN KMSN 240825Z 30008KT 9SM BKN030 OVC039 M07/M11 A2979 990 74 -1400 300/08 RMK AO2 SNB0757E18 P0000
14837KMSN MSN20011224023012312/24/01 02:30:31  5-MIN KMSN 240830Z 30007KT 5SM -SN BKN030 OVC039 M07/M11 A2979 990 77 -1400 300/07 RMK AO2 SNB0757 P0000
14837KMSN MSN20011224023511712/24/01 02:35:31  5-MIN KMSN 240835Z 31009KT 10SM -SN OVC032 M07/M10 A2979 990 81 -1400 310/09 RMK AO2 SNB0757 P0000
14837KMSN MSN20011224024013312/24/01 02:40:31  5-MIN KMSN 240840Z 29007KT 250V320 10SM -SN OVC033 M07/M10 A2979 990 81 -1400 290/07 250V320 RMK AO2 SNB0757 P0000
14837KMSN MSN20011224024512312/24/01 02:45:31  5-MIN KMSN 240845Z 30005KT 10SM SCT030 OVC036 M07/M10 A2979 990 81 -1400 290/05 RMK AO2 SNB0757E43 P0000
14837KMSN MSN20011224025015212/24/01 02:50:31  5-MIN KMSN 240850Z 30004KT 10SM FEW028 OVC036 M07/M10 A2979 980 81 -1400 290/04 RMK AO2 SNB0757E43 SLP101 P0001 60002 T10721100 51008
14837KMSN MSN20011224025510912/24/01 02:55:31  5-MIN KMSN 240855Z 29008KT 10SM -SN OVC034 M07/M10 A2979 980 81 -1400 290/08 RMK AO2 P0000
14837KMSN MSN20011224030012412/24/01 03:00:31  5-MIN KMSN 240900Z 30009KT 280V340 9SM -SN OVC034 M07/M10 A2979 980 81 -1400 300/09 280V340 RMK AO2 P0000
14837KMSN MSN20011224030510812/24/01 03:05:31  5-MIN KMSN 240905Z 30008KT 6SM -SN OVC034 M07/M10 A2979 980 81 -1400 300/08 RMK AO2 P0000
14837KMSN MSN20011224031010812/24/01 03:10:31  5-MIN KMSN 240910Z 29008KT 4SM -SN OVC034 M07/M10 A2979 980 81 -1400 290/08 RMK AO2 P0000
14837KMSN MSN20011224031510812/24/01 03:15:31  5-MIN KMSN 240915Z 28008KT 3SM -SN OVC034 M07/M10 A2980 980 81 -1400 280/08 RMK AO2 P0000
14837KMSN MSN20011224032011112/24/01 03:20:31  5-MIN KMSN 240920Z 29008KT 3SM -SN BR OVC032 M07/M09 A2980 980 84 -1400 290/08 RMK AO2 P0000
14837KMSN MSN20011224032511112/24/01 03:25:31  5-MIN KMSN 240925Z 30009KT 3SM -SN BR OVC032 M07/M09 A2980 980 84 -1400 300/09 RMK AO2 P0000
14837KMSN MSN20011224033012212/24/01 03:30:31  5-MIN KMSN 240930Z 31009KT 3SM -SN FEW005 SCT019 OVC032 M07/M10 A2980 970 81 -1500 310/09 RMK AO2 P0000
14837KMSN MSN20011224033513512/24/01 03:35:31  5-MIN KMSN 240935Z 31009G15KT 1 3/4SM -SN BR FEW005 BKN032 OVC038 M07/M09 A2980 970 84 -1500 310/09G15 RMK AO2 P0000
14837KMSN MSN20011224034013112/24/01 03:40:31  5-MIN KMSN 240940Z VRB06G15KT 3SM -SN BR FEW005 BKN032 OVC038 M08/M09 A2980 970 88 -1500 VRB/06G15 RMK AO2 P0000
14837KMSN MSN20011224034511812/24/01 03:45:31  5-MIN KMSN 240945Z 30007KT 3SM -SN BR FEW018 OVC035 M08/M10 A2980 980 84 -1500 300/07 RMK AO2 P0000
14837KMSN MSN20011224035013312/24/01 03:50:31  5-MIN KMSN 240950Z 31007KT 10SM -SN FEW018 OVC035 M08/M10 A2980 980 84 -1500 310/07 RMK AO2 SLP105 P0000 T10781100
14837KMSN MSN20011224035511512/24/01 03:55:31  5-MIN KMSN 240955Z 30007KT 9SM -SN FEW018 OVC035 M08/M11 A2980 970 80 -1500 300/07 RMK AO2 P0000
14837KMSN MSN20011224040011512/24/01 04:00:31  5-MIN KMSN 241000Z 30007KT 6SM -SN BKN035 OVC070 M08/M11 A2980 980 80 -1500 300/07 RMK AO2 P0000
14837KMSN MSN20011224040511512/24/01 04:05:31  5-MIN KMSN 241005Z 30008KT 6SM -SN BKN035 OVC070 M08/M11 A2980 970 77 -1500 300/08 RMK AO2 P0000
14837KMSN MSN20011224041011512/24/01 04:10:31  5-MIN KMSN 241010Z 31009KT 9SM -SN BKN035 OVC070 M08/M11 A2980 970 80 -1500 310/09 RMK AO2 P0000
14837KMSN MSN20011224041512812/24/01 04:15:31  5-MIN KMSN 241015Z 31010G16KT 9SM -SN BKN033 BKN070 OVC095 M08/M11 A2980 970 77 -1500 310/10G16 RMK AO2 P0000
14837KMSN MSN20011224042013012/24/01 04:20:31  5-MIN KMSN 241020Z 31011G16KT 9SM BKN033 BKN070 OVC090 M08/M11 A2981 970 77 -1500 310/11G16 RMK AO2 SNE20 P0000
14837KMSN MSN20011224042512412/24/01 04:25:31  5-MIN KMSN 241025Z 31007KT 9SM SCT029 BKN033 OVC070 M08/M12 A2981 970 74 -1500 310/07 RMK AO2 SNE20 P0000
14837KMSN MSN20011224043013112/24/01 04:30:31  5-MIN KMSN 241030Z 31009G15KT 10SM SCT029 BKN033 OVC095 M08/M12 A2981 970 74 -1500 310/09G15 RMK AO2 SNE20 P0000
14837KMSN MSN20011224043512512/24/01 04:35:31  5-MIN KMSN 241035Z 32008KT 10SM FEW027 BKN033 OVC090 M08/M12 A2981 970 74 -1500 310/08 RMK AO2 SNE20 P0000
14837KMSN MSN20011224044011812/24/01 04:40:31  5-MIN KMSN 241040Z 31009KT 10SM BKN031 OVC075 M08/M12 A2981 970 71 -1500 310/09 RMK AO2 SNE20 P0000
14837KMSN MSN20011224044511812/24/01 04:45:31  5-MIN KMSN 241045Z 31008KT 10SM BKN031 OVC070 M08/M13 A2981 960 67 -1500 310/08 RMK AO2 SNE20 P0000
14837KMSN MSN20011224045013512/24/01 04:50:31  5-MIN KMSN 241050Z 31008KT 10SM BKN031 OVC070 M08/M13 A2981 960 64 -1500 310/08 RMK AO2 SNE20 SLP110 P0000 T10781133
14837KMSN MSN20011224045510612/24/01 04:55:31  5-MIN KMSN 241055Z 31009KT 10SM BKN031 OVC070 M08/M13 A2981 960 70 -1600 310/09 RMK AO2
14837KMSN MSN20011224050010612/24/01 05:00:31  5-MIN KMSN 241100Z 31007KT 10SM BKN031 OVC075 M08/M13 A2982 960 67 -1500 310/07 RMK AO2
14837KMSN MSN20011224050510612/24/01 05:05:31  5-MIN KMSN 241105Z 31007KT 10SM BKN031 OVC080 M08/M13 A2982 960 67 -1500 310/07 RMK AO2
14837KMSN MSN20011224051010612/24/01 05:10:31  5-MIN KMSN 241110Z 31007KT 10SM BKN029 OVC037 M08/M12 A2982 960 71 -1500 310/07 RMK AO2
14837KMSN MSN20011224051509912/24/01 05:15:31  5-MIN KMSN 241115Z 31008KT 10SM OVC029 M08/M12 A2982 950 71 -1500 310/08 RMK AO2
14837KMSN MSN20011224052010612/24/01 05:20:31  5-MIN KMSN 241120Z 32007KT 10SM BKN029 OVC049 M08/M12 A2982 950 71 -1500 320/07 RMK AO2
14837KMSN MSN20011224052511312/24/01 05:25:31  5-MIN KMSN 241125Z 31007KT 10SM BKN029 BKN049 OVC075 M08/M14 A2983 950 64 -1600 310/07 RMK AO2
14837KMSN MSN20011224053010612/24/01 05:30:31  5-MIN KMSN 241130Z 31007KT 10SM SCT029 OVC049 M08/M14 A2983 950 64 -1600 310/07 RMK AO2
14837KMSN MSN20011224053510612/24/01 05:35:31  5-MIN KMSN 241135Z 31007KT 10SM BKN029 OVC047 M08/M14 A2983 950 64 -1600 310/07 RMK AO2
14837KMSN MSN20011224054010612/24/01 05:40:31  5-MIN KMSN 241140Z 30006KT 10SM SCT029 OVC047 M08/M13 A2983 950 67 -1600 300/06 RMK AO2
14837KMSN MSN20011224054510612/24/01 05:45:31  5-MIN KMSN 241145Z 30006KT 10SM FEW029 OVC047 M08/M13 A2983 950 67 -1600 300/06 RMK AO2
14837KMSN MSN20011224055017512/24/01 05:50:31  5-MIN KMSN 241150Z 30007KT 10SM -SN FEW029 OVC047 M08/M13 A2983 950 67 -1600 300/07 RMK AO2 SNB50 SLP115 P0000 60003 70003 4/002 T10831133 11067 21083 51016
14837KMSN MSN20011224055513112/24/01 05:55:31  5-MIN KMSN 241155Z 30008KT 260V320 7SM -SN SCT032 OVC047 M08/M12 A2983 950 77 -1600 300/08 260V320 RMK AO2 P0000
14837KMSN MSN20011224060012212/24/01 06:00:31  5-MIN KMSN 241200Z 30008KT 3SM -SN FEW023 BKN032 OVC047 M08/M11 A2983 950 77 -1600 300/08 RMK AO2 P0000
14837KMSN MSN20011224060512212/24/01 06:05:31  5-MIN KMSN 241205Z 29007KT 3SM -SN FEW023 BKN030 OVC047 M08/M11 A2983 950 77 -1600 290/07 RMK AO2 P0000
14837KMSN MSN20011224061012212/24/01 06:10:31  5-MIN KMSN 241210Z 29007KT 3SM -SN FEW024 BKN032 OVC047 M08/M11 A2983 950 80 -1600 290/07 RMK AO2 P0000
14837KMSN MSN20011224061512212/24/01 06:15:31  5-MIN KMSN 241215Z 30007KT 3SM -SN FEW023 BKN032 OVC047 M08/M11 A2983 950 80 -1600 290/07 RMK AO2 P0000
14837KMSN MSN20011224062013112/24/01 06:20:31  5-MIN KMSN 241220Z 30009KT 270V340 3SM -SN FEW023 OVC032 M08/M11 A2983 950 77 -1600 300/09 270V340 RMK AO2 P0000
14837KMSN MSN20011224062511512/24/01 06:25:31  5-MIN KMSN 241225Z 30009KT 3SM -SN FEW023 OVC030 M08/M12 A2983 940 74 -1600 300/09 RMK AO2 P0000
14837KMSN MSN20011224063010812/24/01 06:30:31  5-MIN KMSN 241230Z 30009KT 9SM -SN OVC030 M08/M12 A2984 940 71 -1600 300/09 RMK AO2 P0000
14837KMSN MSN20011224063510812/24/01 06:35:31  5-MIN KMSN 241235Z 30010KT 9SM -SN OVC030 M08/M12 A2984 940 71 -1600 300/10 RMK AO2 P0000
14837KMSN MSN20011224064010812/24/01 06:40:31  5-MIN KMSN 241240Z 30009KT 9SM -SN OVC030 M08/M12 A2984 940 71 -1600 300/09 RMK AO2 P0000
14837KMSN MSN20011224064510812/24/01 06:45:31  5-MIN KMSN 241245Z 29008KT 9SM -SN OVC030 M08/M13 A2984 940 67 -1600 290/08 RMK AO2 P0000
14837KMSN MSN20011224065012512/24/01 06:50:31  5-MIN KMSN 241250Z 29011KT 9SM -SN OVC030 M08/M12 A2984 940 71 -1600 290/11 RMK AO2 SLP118 P0000 T10781122
14837KMSN MSN20011224065510812/24/01 06:55:31  5-MIN KMSN 241255Z 29010KT 9SM -SN OVC030 M08/M12 A2984 940 74 -1600 290/10 RMK AO2 P0000
14837KMSN MSN20011224070011412/24/01 07:00:31  5-MIN KMSN 241300Z 28009G15KT 9SM -SN OVC030 M08/M13 A2984 940 70 -1600 280/09G15 RMK AO2 P0000
14837KMSN MSN20011224070511412/24/01 07:05:31  5-MIN KMSN 241305Z 29008G15KT 9SM -SN OVC030 M08/M13 A2984 940 70 -1600 290/08G15 RMK AO2 P0000
14837KMSN MSN20011224071010812/24/01 07:10:31  5-MIN KMSN 241310Z 29009KT 9SM -SN OVC030 M08/M13 A2985 930 70 -1600 290/09 RMK AO2 P0000
14837KMSN MSN20011224071510812/24/01 07:15:31  5-MIN KMSN 241315Z 30009KT 9SM -SN OVC032 M08/M13 A2985 930 70 -1600 300/09 RMK AO2 P0000
14837KMSN MSN20011224072010812/24/01 07:20:31  5-MIN KMSN 241320Z 29009KT 9SM -SN OVC032 M08/M13 A2985 930 70 -1700 290/09 RMK AO2 P0000
14837KMSN MSN20011224072512412/24/01 07:25:31  5-MIN KMSN 241325Z 30007KT 280V340 9SM -SN OVC030 M08/M13 A2985 930 70 -1700 300/07 280V340 RMK AO2 P0000
14837KMSN MSN20011224073010812/24/01 07:30:31  5-MIN KMSN 241330Z 30008KT 9SM -SN OVC030 M08/M13 A2985 930 67 -1700 300/08 RMK AO2 P0000
14837KMSN MSN20011224073513012/24/01 07:35:31  5-MIN KMSN 241335Z 31009G17KT 270V340 9SM -SN OVC030 M08/M13 A2985 930 70 -1700 310/09G17 270V340 RMK AO2 P0000
14837KMSN MSN20011224074011412/24/01 07:40:31  5-MIN KMSN 241340Z 31008G17KT 9SM -SN OVC030 M08/M13 A2986 920 70 -1700 310/08G17 RMK AO2 P0000
14837KMSN MSN20011224074510812/24/01 07:45:31  5-MIN KMSN 241345Z 30009KT 9SM -SN OVC030 M08/M13 A2986 920 70 -1700 290/09 RMK AO2 P0000
14837KMSN MSN20011224075012512/24/01 07:50:31  5-MIN KMSN 241350Z 31012KT 9SM -SN OVC030 M08/M13 A2986 920 67 -1700 310/12 RMK AO2 SLP126 P0000 T10831133
14837KMSN MSN20011224075511512/24/01 07:55:31  5-MIN KMSN 241355Z 30009KT 8SM -SN BKN029 OVC034 M08/M13 A2986 920 67 -1700 300/09 RMK AO2 P0000
14837KMSN MSN20011224080010912/24/01 08:00:31  5-MIN KMSN 241400Z 30008KT 10SM -SN OVC031 M09/M14 A2987 910 67 -1700 300/08 RMK AO2 P0000
14837KMSN MSN20011224080511612/24/01 08:05:31  5-MIN KMSN 241405Z 30009KT 10SM -SN BKN031 OVC039 M09/M13 A2987 910 70 -1700 300/09 RMK AO2 P0000
14837KMSN MSN20011224081011612/24/01 08:10:31  5-MIN KMSN 241410Z 30010KT 10SM -SN BKN031 OVC039 M09/M13 A2987 910 70 -1700 300/10 RMK AO2 P0000
14837KMSN MSN20011224081512412/24/01 08:15:31  5-MIN KMSN 241415Z 31010G15KT 10SM BKN028 BKN036 M09/M13 A2987 910 70 -1700 310/10G15 RMK AO2 SNE15 P0000
14837KMSN MSN20011224082011812/24/01 08:20:31  5-MIN KMSN 241420Z 30010KT 10SM BKN028 BKN036 M09/M13 A2987 910 70 -1700 300/10 RMK AO2 SNE15 P0000
14837KMSN MSN20011224082512412/24/01 08:25:31  5-MIN KMSN 241425Z 31011G15KT 10SM SCT028 BKN036 M09/M13 A2987 910 70 -1700 310/11G15 RMK AO2 SNE15 P0000
14837KMSN MSN20011224083012412/24/01 08:30:31  5-MIN KMSN 241430Z 29009G15KT 10SM SCT028 BKN036 M08/M13 A2987 910 70 -1700 290/09G15 RMK AO2 SNE15 P0000
14837KMSN MSN20011224083511812/24/01 08:35:31  5-MIN KMSN 241435Z 30009KT 10SM SCT028 BKN036 M08/M13 A2987 910 67 -1700 290/09 RMK AO2 SNE15 P0000
14837KMSN MSN20011224084012512/24/01 08:40:31  5-MIN KMSN 241440Z 29010KT 10SM FEW028 SCT042 SCT070 M08/M13 A2988 900 67 -1700 290/10 RMK AO2 SNE15 P0000
14837KMSN MSN20011224084513112/24/01 08:45:31  5-MIN KMSN 241445Z 30010G16KT 10SM FEW028 SCT042 SCT070 M08/M14 A2988 900 64 -1700 300/10G16 RMK AO2 SNE15 P0000
14837KMSN MSN20011224085016012/24/01 08:50:31  5-MIN KMSN 241450Z 30011G16KT 10SM FEW035 SCT042 SCT080 M08/M13 A2988 900 67 -1700 300/11G16 RMK AO2 SNE15 SLP131 P0000 60000 T10831133 53013
14837KMSN MSN20011224085510612/24/01 08:55:31  5-MIN KMSN 241455Z 30010KT 10SM FEW042 OVC080 M08/M14 A2988 900 64 -1700 300/10 RMK AO2
14837KMSN MSN20011224090009912/24/01 09:00:31  5-MIN KMSN 241500Z 30011KT 10SM FEW042 M08/M14 A2988 900 64 -1700 300/11 RMK AO2
14837KMSN MSN20011224090510512/24/01 09:05:31  5-MIN KMSN 241505Z 30011G16KT 10SM FEW042 M08/M14 A2988 900 64 -1700 300/11G16 RMK AO2
14837KMSN MSN20011224091009912/24/01 09:10:31  5-MIN KMSN 241510Z 30009KT 10SM FEW042 M08/M14 A2988 900 64 -1700 300/09 RMK AO2
14837KMSN MSN20011224091510512/24/01 09:15:31  5-MIN KMSN 241515Z 30008G15KT 10SM FEW042 M08/M13 A2988 900 67 -1700 300/08G15 RMK AO2
14837KMSN MSN20011224092012112/24/01 09:20:31  5-MIN KMSN 241520Z 30012G16KT 260V330 10SM FEW042 M08/M14 A2989 900 64 -1700 300/12G16 260V330 RMK AO2
14837KMSN MSN20011224092510512/24/01 09:25:31  5-MIN KMSN 241525Z 30011G16KT 10SM FEW042 M08/M14 A2989 900 64 -1700 300/11G16 RMK AO2
14837KMSN MSN20011224093009912/24/01 09:30:31  5-MIN KMSN 241530Z 30009KT 10SM SCT075 M08/M14 A2989 890 64 -1700 290/09 RMK AO2
14837KMSN MSN20011224093511512/24/01 09:35:31  5-MIN KMSN 241535Z 29009KT 240V320 10SM SCT075 M08/M13 A2989 890 67 -1700 290/09 240V320 RMK AO2
14837KMSN MSN20011224094009912/24/01 09:40:31  5-MIN KMSN 241540Z 28009KT 10SM SCT075 M08/M13 A2989 890 64 -1600 280/09 RMK AO2
14837KMSN MSN20011224094510512/24/01 09:45:31  5-MIN KMSN 241545Z 30010G18KT 10SM SCT075 M08/M13 A2989 890 64 -1600 300/10G18 RMK AO2
14837KMSN MSN20011224095012212/24/01 09:50:31  5-MIN KMSN 241550Z 30009G18KT 10SM SCT075 M08/M13 A2989 890 67 -1700 300/09G18 RMK AO2 SLP138 T10831133
14837KMSN MSN20011224095511912/24/01 09:55:31  5-MIN KMSN 241555Z 28009G15KT 10SM FEW025 BKN033 OVC070 M08/M13 A2989 890 64 -1600 280/09G15 RMK AO2
14837KMSN MSN20011224100011912/24/01 10:00:31  5-MIN KMSN 241600Z 29010G15KT 10SM SCT025 BKN035 OVC070 M08/M13 A2989 890 67 -1600 290/10G15 RMK AO2
14837KMSN MSN20011224100511912/24/01 10:05:31  5-MIN KMSN 241605Z 30013G17KT 10SM BKN023 BKN032 OVC041 M08/M13 A2989 890 67 -1600 300/13G17 RMK AO2
14837KMSN MSN20011224101011912/24/01 10:10:31  5-MIN KMSN 241610Z 29009G17KT 10SM SCT020 BKN025 OVC035 M08/M13 A2990 890 67 -1700 290/09G17 RMK AO2
14837KMSN MSN20011224101510512/24/01 10:15:31  5-MIN KMSN 241615Z 30009G17KT 10SM SCT020 M08/M13 A2990 890 67 -1700 300/09G17 RMK AO2
14837KMSN MSN20011224102010512/24/01 10:20:31  5-MIN KMSN 241620Z 30011G17KT 10SM SCT020 M08/M13 A2990 890 67 -1700 300/11G17 RMK AO2
14837KMSN MSN20011224102510512/24/01 10:25:31  5-MIN KMSN 241625Z 29015G20KT 10SM SCT020 M08/M13 A2990 890 64 -1600 290/15G20 RMK AO2
14837KMSN MSN20011224103010512/24/01 10:30:31  5-MIN KMSN 241630Z 30010G20KT 10SM SCT020 M08/M13 A2990 890 67 -1700 300/10G20 RMK AO2
14837KMSN MSN20011224103509912/24/01 10:35:31  5-MIN KMSN 241635Z 29013KT 10SM SCT020 M08/M13 A2990 890 64 -1600 290/13 RMK AO2
14837KMSN MSN20011224104010512/24/01 10:40:31  5-MIN KMSN 241640Z 30012G17KT 10SM SCT020 M08/M13 A2990 890 64 -1600 300/12G17 RMK AO2
14837KMSN MSN20011224104510512/24/01 10:45:31  5-MIN KMSN 241645Z 30014G20KT 10SM SCT020 M08/M13 A2990 890 64 -1600 300/14G20 RMK AO2
14837KMSN MSN20011224105012212/24/01 10:50:31  5-MIN KMSN 241650Z 29013G20KT 10SM SCT020 M08/M13 A2990 890 64 -1600 290/13G20 RMK AO2 SLP138 T10781133
14837KMSN MSN20011224105510512/24/01 10:55:31  5-MIN KMSN 241655Z 30009G18KT 10SM SCT020 M08/M13 A2990 890 67 -1600 300/09G18 RMK AO2
14837KMSN MSN20011224110010512/24/01 11:00:31  5-MIN KMSN 241700Z 30011G18KT 10SM SCT020 M08/M13 A2990 890 67 -1600 300/11G18 RMK AO2
14837KMSN MSN20011224110510512/24/01 11:05:31  5-MIN KMSN 241705Z 31011G18KT 10SM SCT020 M08/M13 A2990 890 64 -1600 310/11G18 RMK AO2
14837KMSN MSN20011224111010512/24/01 11:10:31  5-MIN KMSN 241710Z 30009G18KT 10SM SCT020 M08/M13 A2990 880 64 -1600 300/09G18 RMK AO2
14837KMSN MSN20011224111510512/24/01 11:15:31  5-MIN KMSN 241715Z 30009G17KT 10SM SCT020 M07/M13 A2990 880 65 -1600 300/09G17 RMK AO2
14837KMSN MSN20011224112010512/24/01 11:20:31  5-MIN KMSN 241720Z 30011G16KT 10SM SCT020 M08/M13 A2990 890 67 -1600 300/11G16 RMK AO2
14837KMSN MSN20011224112510512/24/01 11:25:31  5-MIN KMSN 241725Z 31013G18KT 10SM SCT020 M08/M13 A2990 890 64 -1600 310/13G18 RMK AO2
14837KMSN MSN20011224113010512/24/01 11:30:31  5-MIN KMSN 241730Z 30013G18KT 10SM SCT020 M08/M13 A2990 890 67 -1600 300/13G18 RMK AO2
14837KMSN MSN20011224113510512/24/01 11:35:31  5-MIN KMSN 241735Z 29008G17KT 10SM SCT020 M08/M13 A2990 890 67 -1600 290/08G17 RMK AO2
14837KMSN MSN20011224114010512/24/01 11:40:31  5-MIN KMSN 241740Z 30010G17KT 10SM SCT020 M08/M13 A2990 890 67 -1600 300/10G17 RMK AO2
14837KMSN MSN20011224114510412/24/01 11:45:31  5-MIN KMSN 241745Z 29012G17KT 9SM SCT020 M08/M13 A2990 890 67 -1600 290/12G17 RMK AO2
14837KMSN MSN20011224115017612/24/01 11:50:31  5-MIN KMSN 241750Z 29013G20KT 10SM -SN FEW023 BKN042 BKN055 M08/M13 A2990 890 64 -1600 290/13G20 RMK AO2 SNB48 SLP138 P0000 60000 T10781133 11072 21089 53015
14837KMSN MSN20011224115512112/24/01 11:55:31  5-MIN KMSN 241755Z 29012G20KT 6SM -SN BKN038 OVC055 M08/M13 A2989 890 64 -1600 290/12G20 RMK AO2 P0000
14837KMSN MSN20011224120012812/24/01 12:00:31  5-MIN KMSN 241800Z 31011G17KT 5SM -SN FEW027 BKN040 OVC055 M08/M13 A2989 890 64 -1600 310/11G17 RMK AO2 P0000
14837KMSN MSN20011224120514712/24/01 12:05:31  5-MIN KMSN 241805Z 32011G17KT 270V340 10SM FEW027 SCT040 SCT055 M07/M12 A2990 890 68 -1600 310/11G17 270V340 RMK AO2 SNE02 P0000
14837KMSN MSN20011224121013112/24/01 12:10:31  5-MIN KMSN 241810Z 30013G16KT 10SM FEW027 SCT040 SCT055 M08/M13 A2989 890 67 -1600 300/13G16 RMK AO2 SNE02 P0000
14837KMSN MSN20011224121513112/24/01 12:15:31  5-MIN KMSN 241815Z 30010G19KT 10SM FEW027 SCT040 SCT055 M08/M13 A2989 890 67 -1600 300/10G19 RMK AO2 SNE02 P0000
14837KMSN MSN20011224122013112/24/01 12:20:31  5-MIN KMSN 241820Z 30012G19KT 10SM FEW036 SCT043 SCT050 M08/M13 A2989 890 67 -1600 300/12G19 RMK AO2 SNE02 P0000
14837KMSN MSN20011224122513112/24/01 12:25:31  5-MIN KMSN 241825Z 30012G17KT 10SM FEW036 SCT043 SCT050 M07/M13 A2990 890 65 -1600 300/12G17 RMK AO2 SNE02 P0000
14837KMSN MSN20011224123011712/24/01 12:30:31  5-MIN KMSN 241830Z 31012G17KT 10SM SCT039 M07/M13 A2989 890 65 -1600 310/12G17 RMK AO2 SNE02 P0000
14837KMSN MSN20011224123511112/24/01 12:35:31  5-MIN KMSN 241835Z 31009KT 10SM SCT039 M07/M13 A2989 890 65 -1600 300/09 RMK AO2 SNE02 P0000
14837KMSN MSN20011224124011112/24/01 12:40:31  5-MIN KMSN 241840Z 30012KT 10SM SCT039 M07/M12 A2990 890 68 -1600 300/12 RMK AO2 SNE02 P0000
14837KMSN MSN20011224124511712/24/01 12:45:31  5-MIN KMSN 241845Z 29011G16KT 10SM SCT039 M07/M13 A2990 880 65 -1600 290/11G16 RMK AO2 SNE02 P0000
14837KMSN MSN20011224125013412/24/01 12:50:31  5-MIN KMSN 241850Z 28011G16KT 10SM SCT039 M07/M13 A2990 880 65 -1600 280/11G16 RMK AO2 SNE02 SLP139 P0000 T10721128
14837KMSN MSN20011224125512312/24/01 12:55:31  5-MIN KMSN 241855Z 28010G16KT 250V310 5SM HZ OVC043 M07/M13 A2990 880 65 -1600 280/10G16 250V310 RMK AO2
14837KMSN MSN20011224130010412/24/01 13:00:31  5-MIN KMSN 241900Z 30011G16KT 7SM SCT043 M07/M13 A2990 880 65 -1600 300/11G16 RMK AO2
14837KMSN MSN20011224130511412/24/01 13:05:31  5-MIN KMSN 241905Z 29009KT 6SM -SN SCT043 M07/M12 A2990 880 68 -1600 290/09 RMK AO2 SNB04 P0000
14837KMSN MSN20011224131012012/24/01 13:10:31  5-MIN KMSN 241910Z 29012G18KT 6SM -SN SCT043 M07/M12 A2990 880 68 -1600 290/12G18 RMK AO2 SNB04 P0000
14837KMSN MSN20011224131513412/24/01 13:15:31  5-MIN KMSN 241915Z 30011G18KT 6SM -SN SCT041 BKN048 BKN075 M07/M12 A2990 880 68 -1600 300/11G18 RMK AO2 SNB04 P0000
14837KMSN MSN20011224132013412/24/01 13:20:31  5-MIN KMSN 241920Z 30009G20KT 6SM -SN SCT041 BKN048 BKN075 M07/M12 A2990 880 68 -1600 300/09G20 RMK AO2 SNB04 P0000
14837KMSN MSN20011224132513412/24/01 13:25:31  5-MIN KMSN 241925Z 30011G20KT 6SM -SN SCT036 BKN046 BKN075 M07/M12 A2990 880 68 -1600 300/11G20 RMK AO2 SNB04 P0000
14837KMSN MSN20011224133013412/24/01 13:30:31  5-MIN KMSN 241930Z 30010G17KT 6SM -SN SCT036 BKN046 BKN075 M07/M12 A2990 880 68 -1600 300/10G17 RMK AO2 SNB04 P0000
14837KMSN MSN20011224133515012/24/01 13:35:31  5-MIN KMSN 241935Z 29009G16KT 270V330 6SM -SN SCT036 BKN046 BKN075 M07/M12 A2991 880 68 -1600 290/09G16 270V330 RMK AO2 SNB04 P0000
14837KMSN MSN20011224134012812/24/01 13:40:31  5-MIN KMSN 241940Z 29011KT 6SM -SN SCT036 BKN046 BKN075 M07/M13 A2991 880 65 -1600 290/11 RMK AO2 SNB04 P0000
14837KMSN MSN20011224134513312/24/01 13:45:31  5-MIN KMSN 241945Z 30010G18KT 8SM SCT038 SCT050 BKN075 M07/M13 A2991 880 65 -1600 300/10G18 RMK AO2 SNB04E43 P0000
14837KMSN MSN20011224135015112/24/01 13:50:31  5-MIN KMSN 241950Z 29010G18KT 10SM FEW023 SCT038 SCT050 M07/M13 A2991 880 65 -1600 290/10G18 RMK AO2 SNB04E43 SLP143 P0000 T10721128
14837KMSN MSN20011224135511112/24/01 13:55:31  5-MIN KMSN 241955Z 29013G18KT 8SM SCT044 OVC055 M07/M13 A2991 880 65 -1600 290/13G18 RMK AO2
14837KMSN MSN20011224140011112/24/01 14:00:31  5-MIN KMSN 242000Z 28013G18KT 9SM SCT044 OVC055 M07/M13 A2991 870 65 -1600 280/13G18 RMK AO2
14837KMSN MSN20011224140511212/24/01 14:05:31  5-MIN KMSN 242005Z 29012G18KT 10SM SCT044 SCT055 M07/M13 A2991 870 65 -1600 290/12G18 RMK AO2
14837KMSN MSN20011224141010512/24/01 14:10:31  5-MIN KMSN 242010Z 29010G18KT 10SM SCT044 M07/M13 A2991 870 65 -1600 290/10G18 RMK AO2
14837KMSN MSN20011224141510512/24/01 14:15:31  5-MIN KMSN 242015Z 29012G17KT 10SM SCT044 M07/M13 A2991 870 65 -1600 290/12G17 RMK AO2
14837KMSN MSN20011224142010512/24/01 14:20:31  5-MIN KMSN 242020Z 29009G17KT 10SM SCT044 M08/M13 A2991 870 67 -1700 290/09G17 RMK AO2
14837KMSN MSN20011224142510512/24/01 14:25:31  5-MIN KMSN 242025Z 29010G16KT 10SM SCT044 M08/M12 A2992 870 71 -1700 290/10G16 RMK AO2
14837KMSN MSN20011224143011212/24/01 14:30:31  5-MIN KMSN 242030Z 28013G19KT 10SM SCT048 SCT055 M08/M12 A2992 870 71 -1700 280/13G19 RMK AO2
14837KMSN MSN20011224143511212/24/01 14:35:31  5-MIN KMSN 242035Z 28011G19KT 10SM SCT048 SCT055 M08/M12 A2992 870 71 -1700 280/11G19 RMK AO2
14837KMSN MSN20011224144011912/24/01 14:40:31  5-MIN KMSN 242040Z 29011G16KT 10SM FEW048 SCT055 BKN080 M08/M13 A2992 860 67 -1700 290/11G16 RMK AO2
14837KMSN MSN20011224144511312/24/01 14:45:31  5-MIN KMSN 242045Z 28010KT 10SM FEW048 SCT055 BKN080 M08/M12 A2992 860 71 -1700 280/10 RMK AO2
14837KMSN MSN20011224145013512/24/01 14:50:31  5-MIN KMSN 242050Z 28010KT 10SM FEW055 BKN080 M08/M12 A2992 860 71 -1700 280/10 RMK AO2 SLP148 60000 T10781122 50006
14837KMSN MSN20011224145510512/24/01 14:55:31  5-MIN KMSN 242055Z 29010G15KT 10SM BKN080 M08/M12 A2993 860 71 -1700 290/10G15 RMK AO2
14837KMSN MSN20011224150009912/24/01 15:00:31  5-MIN KMSN 242100Z 28011KT 10SM BKN080 M08/M12 A2993 860 71 -1700 280/11 RMK AO2
14837KMSN MSN20011224150510512/24/01 15:05:31  5-MIN KMSN 242105Z 29006G15KT 10SM BKN080 M08/M13 A2993 850 67 -1700 290/06G15 RMK AO2
14837KMSN MSN20011224151011212/24/01 15:10:31  5-MIN KMSN 242110Z 29008G15KT 10SM FEW022 SCT080 M08/M12 A2993 850 74 -1700 290/08G15 RMK AO2
14837KMSN MSN20011224151511212/24/01 15:15:31  5-MIN KMSN 242115Z 29010G16KT 10SM FEW022 SCT080 M08/M12 A2993 850 71 -1700 290/10G16 RMK AO2
14837KMSN MSN20011224152011212/24/01 15:20:31  5-MIN KMSN 242120Z 29010G16KT 10SM FEW022 SCT080 M08/M12 A2993 850 71 -1700 290/10G16 RMK AO2
14837KMSN MSN20011224152512212/24/01 15:25:31  5-MIN KMSN 242125Z 29008KT 250V310 10SM FEW022 SCT080 M08/M13 A2993 850 67 -1700 290/08 250V310 RMK AO2
14837KMSN MSN20011224153011212/24/01 15:30:31  5-MIN KMSN 242130Z 29011G15KT 10SM FEW022 SCT080 M08/M12 A2993 850 74 -1700 290/11G15 RMK AO2
14837KMSN MSN20011224153511212/24/01 15:35:31  5-MIN KMSN 242135Z 30010G16KT 10SM FEW022 SCT080 M08/M12 A2993 850 71 -1700 290/10G16 RMK AO2
14837KMSN MSN20011224154011212/24/01 15:40:31  5-MIN KMSN 242140Z 29009G16KT 10SM FEW022 SCT080 M08/M12 A2994 850 71 -1700 290/09G16 RMK AO2
14837KMSN MSN20011224154511212/24/01 15:45:31  5-MIN KMSN 242145Z 29011G16KT 10SM FEW022 SCT080 M08/M12 A2994 850 71 -1700 290/11G16 RMK AO2
14837KMSN MSN20011224155013612/24/01 15:50:31  5-MIN KMSN 242150Z 30011G16KT 10SM FEW022 SCT030 BKN050 M08/M12 A2994 850 71 -1700 300/11G16 RMK AO2 SLP154 T10781122
14837KMSN MSN20011224155511912/24/01 15:55:31  5-MIN KMSN 242155Z 30008G15KT 10SM FEW022 BKN030 BKN048 M08/M12 A2994 840 71 -1700 300/08G15 RMK AO2
14837KMSN MSN20011224160011912/24/01 16:00:31  5-MIN KMSN 242200Z 30011G15KT 10SM FEW022 BKN030 BKN048 M08/M13 A2995 840 70 -1800 300/11G15 RMK AO2
14837KMSN MSN20011224160511312/24/01 16:05:31  5-MIN KMSN 242205Z 29013KT 10SM FEW022 BKN030 BKN048 M08/M13 A2995 840 70 -1800 290/13 RMK AO2
14837KMSN MSN20011224161011312/24/01 16:10:31  5-MIN KMSN 242210Z 30010KT 10SM FEW022 BKN030 BKN048 M08/M13 A2995 830 70 -1800 300/10 RMK AO2
14837KMSN MSN20011224161511312/24/01 16:15:31  5-MIN KMSN 242215Z 30009KT 10SM FEW022 BKN030 BKN048 M08/M12 A2996 830 74 -1800 300/09 RMK AO2
14837KMSN MSN20011224162013812/24/01 16:20:31  5-MIN KMSN 242220Z 29007KT 250V310 10SM -SN SCT033 BKN050 M08/M13 A2996 830 70 -1800 290/07 250V310 RMK AO2 SNB20 P0000
14837KMSN MSN20011224162512212/24/01 16:25:31  5-MIN KMSN 242225Z 30008KT 10SM -SN SCT033 BKN050 M08/M12 A2996 830 74 -1800 290/08 RMK AO2 SNB20 P0000
14837KMSN MSN20011224163012112/24/01 16:30:31  5-MIN KMSN 242230Z 30009KT 10SM SCT033 BKN050 M08/M12 A2996 830 74 -1800 300/09 RMK AO2 SNB20E28 P0000
14837KMSN MSN20011224163512112/24/01 16:35:31  5-MIN KMSN 242235Z 30010KT 10SM SCT033 BKN050 M08/M12 A2996 830 71 -1700 300/10 RMK AO2 SNB20E28 P0000
14837KMSN MSN20011224164012712/24/01 16:40:31  5-MIN KMSN 242240Z 30010G16KT 10SM SCT033 BKN050 M08/M13 A2996 820 64 -1700 300/10G16 RMK AO2 SNB20E28 P0000
14837KMSN MSN20011224164512112/24/01 16:45:31  5-MIN KMSN 242245Z 29008KT 10SM SCT033 BKN050 M08/M13 A2997 820 70 -1800 290/08 RMK AO2 SNB20E28 P0000
14837KMSN MSN20011224165013812/24/01 16:50:31  5-MIN KMSN 242250Z 29010KT 10SM SCT033 BKN050 M08/M13 A2997 820 70 -1800 290/10 RMK AO2 SNB20E28 SLP163 P0000 T10831128
14837KMSN MSN20011224165510612/24/01 16:55:31  5-MIN KMSN 242255Z 29008KT 10SM BKN050 OVC060 M08/M13 A2997 820 70 -1800 290/08 RMK AO2
14837KMSN MSN20011224170009912/24/01 17:00:31  5-MIN KMSN 242300Z 29008KT 10SM OVC055 M08/M12 A2997 820 74 -1800 290/08 RMK AO2
14837KMSN MSN20011224170509812/24/01 17:05:31  5-MIN KMSN 242305Z 29010KT 9SM OVC055 M08/M13 A2997 810 70 -1800 290/10 RMK AO2
14837KMSN MSN20011224171010512/24/01 17:10:31  5-MIN KMSN 242310Z 29008KT 8SM BKN050 OVC060 M08/M13 A2997 810 70 -1800 290/08 RMK AO2
14837KMSN MSN20011224171512112/24/01 17:15:31  5-MIN KMSN 242315Z 30013KT 7SM -SN BKN050 OVC060 M08/M12 A2998 810 74 -1800 300/13 RMK AO2 SNB13 P0000
14837KMSN MSN20011224172012112/24/01 17:20:31  5-MIN KMSN 242320Z 30010KT 6SM -SN BKN050 OVC060 M08/M13 A2998 810 70 -1800 300/10 RMK AO2 SNB13 P0000
14837KMSN MSN20011224172512012/24/01 17:25:31  5-MIN KMSN 242325Z 30008G16KT 5SM -SN OVC055 M08/M12 A2998 810 74 -1800 300/08G16 RMK AO2 SNB13 P0000
14837KMSN MSN20011224173012712/24/01 17:30:31  5-MIN KMSN 242330Z 29009G16KT 4SM -SN SCT050 OVC060 M08/M12 A2998 810 77 -1800 290/09G16 RMK AO2 SNB13 P0000
14837KMSN MSN20011224173512712/24/01 17:35:31  5-MIN KMSN 242335Z 29009G15KT 6SM -SN SCT050 OVC060 M08/M12 A2998 810 74 -1800 290/09G15 RMK AO2 SNB13 P0000
14837KMSN MSN20011224174012712/24/01 17:40:31  5-MIN KMSN 242340Z 29011G15KT 6SM -SN FEW050 OVC060 M08/M12 A2999 800 77 -1800 290/11G15 RMK AO2 SNB13 P0000
14837KMSN MSN20011224174513312/24/01 17:45:31  5-MIN KMSN 242345Z 30009G18KT 6SM -SN FEW050 OVC060 M08/M12 A2998 800 74 -1800 300/09G18 RMK AO2 SNB13 4/002 P0000
14837KMSN MSN20011224175016712/24/01 17:50:31  5-MIN KMSN 242350Z 29011G18KT 6SM -SN OVC060 M08/M12 A2999 800 74 -1800 290/11G18 RMK AO2 SNB13 SLP170 4/002 P0000 60000 T10831122 11072 21083 53010
14837KMSN MSN20011224175510812/24/01 17:55:31  5-MIN KMSN 242355Z 29010KT 6SM -SN OVC060 M08/M13 A2999 800 70 -1800 290/10 RMK AO2 P0000
14837KMSN MSN20011224180011412/24/01 18:00:31  5-MIN KMSN 250000Z 29011G16KT 6SM -SN OVC060 M08/M13 A2999 800 70 -1800 290/11G16 RMK AO2 P0000
14837KMSN MSN20011224180511412/24/01 18:05:31  5-MIN KMSN 250005Z 29010G16KT 6SM -SN OVC060 M09/M13 A2999 800 74 -1900 290/10G16 RMK AO2 P0000
14837KMSN MSN20011224181010812/24/01 18:10:31  5-MIN KMSN 250010Z 29007KT 7SM -SN OVC060 M09/M13 A2999 800 70 -1900 280/07 RMK AO2 P0000
14837KMSN MSN20011224181511012/24/01 18:15:31  5-MIN KMSN 250015Z 29009KT 7SM OVC060 M09/M12 A2999 800 77 -1900 290/09 RMK AO2 SNE12 P0000
14837KMSN MSN20011224182011012/24/01 18:20:31  5-MIN KMSN 250020Z 29009KT 8SM OVC060 M09/M13 A2999 800 74 -1900 290/09 RMK AO2 SNE12 P0000
14837KMSN MSN20011224182511012/24/01 18:25:31  5-MIN KMSN 250025Z 29009KT 9SM OVC060 M09/M13 A2999 800 74 -1900 290/09 RMK AO2 SNE12 P0000
14837KMSN MSN20011224183011612/24/01 18:30:31  5-MIN KMSN 250030Z 29009G15KT 9SM OVC060 M09/M13 A2999 800 70 -1900 290/09G15 RMK AO2 SNE12 P0000
14837KMSN MSN20011224183511612/24/01 18:35:31  5-MIN KMSN 250035Z 28010G15KT 9SM OVC060 M09/M13 A2999 800 70 -1900 280/10G15 RMK AO2 SNE12 P0000
14837KMSN MSN20011224184011012/24/01 18:40:31  5-MIN KMSN 250040Z 28009KT 9SM OVC060 M09/M13 A2999 800 70 -1900 280/09 RMK AO2 SNE12 P0000
14837KMSN MSN20011224184511112/24/01 18:45:31  5-MIN KMSN 250045Z 28008KT 10SM OVC060 M09/M13 A2999 800 74 -1900 280/08 RMK AO2 SNE12 P0000
14837KMSN MSN20011224185013512/24/01 18:50:31  5-MIN KMSN 250050Z 28008KT 10SM -SN BKN060 M09/M13 A2999 800 70 -1900 280/08 RMK AO2 SNE12B50 SLP171 P0000 T10891133
14837KMSN MSN20011224185510812/24/01 18:55:31  5-MIN KMSN 250055Z 28007KT 9SM -SN OVC060 M09/M13 A2999 800 70 -1900 280/07 RMK AO2 P0000
14837KMSN MSN20011224190011412/24/01 19:00:31  5-MIN KMSN 250100Z 27010G15KT 9SM -SN OVC060 M09/M13 A2999 800 74 -1900 270/10G15 RMK AO2 P0000
14837KMSN MSN20011224190511412/24/01 19:05:31  5-MIN KMSN 250105Z 28009G15KT 9SM -SN OVC060 M09/M13 A2999 800 70 -1900 280/09G15 RMK AO2 P0000
14837KMSN MSN20011224191011512/24/01 19:10:31  5-MIN KMSN 250110Z 28009KT 9SM -SN FEW050 OVC060 M09/M13 A2999 800 70 -1900 280/09 RMK AO2 P0000
14837KMSN MSN20011224191511512/24/01 19:15:31  5-MIN KMSN 250115Z 29008KT 9SM -SN BKN048 OVC060 M09/M13 A2999 800 70 -1900 290/08 RMK AO2 P0000
14837KMSN MSN20011224192011712/24/01 19:20:31  5-MIN KMSN 250120Z 29010KT 8SM BKN048 OVC060 M09/M14 A2999 800 67 -1900 290/10 RMK AO2 SNE18 P0000
14837KMSN MSN20011224192512412/24/01 19:25:31  5-MIN KMSN 250125Z 29009KT 7SM FEW033 BKN046 OVC060 M09/M13 A2999 800 70 -1900 290/09 RMK AO2 SNE18 P0000
14837KMSN MSN20011224193012412/24/01 19:30:31  5-MIN KMSN 250130Z 28008KT 7SM FEW033 BKN043 OVC050 M09/M13 A2998 800 70 -1900 280/08 RMK AO2 SNE18 P0000
14837KMSN MSN20011224193512412/24/01 19:35:31  5-MIN KMSN 250135Z 29009KT 8SM SCT031 BKN039 OVC048 M09/M13 A2998 810 70 -1900 290/09 RMK AO2 SNE18 P0000
14837KMSN MSN20011224194012412/24/01 19:40:31  5-MIN KMSN 250140Z 29009KT 9SM SCT031 BKN039 OVC048 M09/M13 A2998 800 70 -1900 290/09 RMK AO2 SNE18 P0000
14837KMSN MSN20011224194512512/24/01 19:45:31  5-MIN KMSN 250145Z 29008KT 10SM BKN031 BKN039 OVC046 M09/M13 A2998 810 74 -1900 290/08 RMK AO2 SNE18 P0000
14837KMSN MSN20011224195012812/24/01 19:50:31  5-MIN KMSN 250150Z 28009KT 10SM OVC033 M09/M13 A2998 810 70 -1900 280/09 RMK AO2 SNE18 SLP169 P0000 T10891133
14837KMSN MSN20011224195510612/24/01 19:55:31  5-MIN KMSN 250155Z 29009KT 10SM BKN031 OVC039 M09/M13 A2998 810 70 -1900 280/09 RMK AO2
14837KMSN MSN20011224200010612/24/01 20:00:31  5-MIN KMSN 250200Z 29007KT 10SM BKN031 OVC039 M09/M14 A2998 810 67 -1900 290/07 RMK AO2
14837KMSN MSN20011224200510612/24/01 20:05:31  5-MIN KMSN 250205Z 29008KT 10SM BKN031 OVC039 M09/M14 A2998 810 67 -1900 280/08 RMK AO2
14837KMSN MSN20011224201009912/24/01 20:10:31  5-MIN KMSN 250210Z 29008KT 10SM OVC033 M09/M13 A2998 810 70 -1900 280/08 RMK AO2
14837KMSN MSN20011224201510612/24/01 20:15:31  5-MIN KMSN 250215Z 30007KT 10SM SCT030 OVC036 M08/M13 A2998 810 67 -1800 290/07 RMK AO2
14837KMSN MSN20011224202010612/24/01 20:20:31  5-MIN KMSN 250220Z 29010KT 10SM SCT030 OVC036 M08/M13 A2998 810 67 -1800 290/10 RMK AO2
14837KMSN MSN20011224202510512/24/01 20:25:31  5-MIN KMSN 250225Z 29011G17KT 10SM OVC034 M08/M14 A2998 810 64 -1800 290/11G17 RMK AO2
14837KMSN MSN20011224203011212/24/01 20:30:31  5-MIN KMSN 250230Z 30008G17KT 10SM FEW029 OVC036 M08/M13 A2998 810 70 -1800 300/08G17 RMK AO2
14837KMSN MSN20011224203509912/24/01 20:35:31  5-MIN KMSN 250235Z 29009KT 10SM OVC036 M08/M13 A2999 800 67 -1800 290/09 RMK AO2
14837KMSN MSN20011224204009912/24/01 20:40:31  5-MIN KMSN 250240Z 28008KT 10SM OVC036 M08/M13 A2999 800 67 -1800 280/08 RMK AO2
14837KMSN MSN20011224204509912/24/01 20:45:31  5-MIN KMSN 250245Z 29007KT 10SM OVC036 M08/M14 A2999 800 64 -1800 280/07 RMK AO2
14837KMSN MSN20011224205012812/24/01 20:50:31  5-MIN KMSN 250250Z 28007KT 10SM OVC036 M08/M13 A2999 800 67 -1800 280/07 RMK AO2 SLP171 60000 T10831133 53020
14837KMSN MSN20011224205509912/24/01 20:55:31  5-MIN KMSN 250255Z 28009KT 10SM OVC036 M08/M13 A2999 800 67 -1800 280/09 RMK AO2
14837KMSN MSN20011224210009912/24/01 21:00:31  5-MIN KMSN 250300Z 29007KT 10SM OVC036 M08/M14 A2999 800 64 -1800 280/07 RMK AO2
14837KMSN MSN20011224210509912/24/01 21:05:31  5-MIN KMSN 250305Z 29008KT 10SM OVC036 M09/M14 A2999 800 67 -1900 290/08 RMK AO2
14837KMSN MSN20011224211009912/24/01 21:10:31  5-MIN KMSN 250310Z 29006KT 10SM OVC036 M09/M14 A2999 800 67 -1900 280/06 RMK AO2
14837KMSN MSN20011224211510512/24/01 21:15:31  5-MIN KMSN 250315Z 28008G14KT 10SM BKN036 M09/M13 A2999 800 70 -1900 280/08G14 RMK AO2
14837KMSN MSN20011224212009912/24/01 21:20:31  5-MIN KMSN 250320Z 28008KT 10SM BKN036 M09/M14 A2999 800 67 -1900 280/08 RMK AO2
14837KMSN MSN20011224212509912/24/01 21:25:31  5-MIN KMSN 250325Z 28008KT 10SM BKN036 M09/M14 A2999 800 67 -1900 270/08 RMK AO2
14837KMSN MSN20011224213010612/24/01 21:30:31  5-MIN KMSN 250330Z 28007KT 10SM BKN034 BKN055 M09/M14 A2999 800 70 -2000 280/07 RMK AO2
14837KMSN MSN20011224213510612/24/01 21:35:31  5-MIN KMSN 250335Z 28007KT 10SM SCT034 BKN055 M09/M14 A2999 800 67 -2000 280/07 RMK AO2
14837KMSN MSN20011224214010612/24/01 21:40:31  5-MIN KMSN 250340Z 27007KT 10SM FEW034 BKN055 M09/M14 A2998 810 70 -2000 270/07 RMK AO2
14837KMSN MSN20011224214510612/24/01 21:45:31  5-MIN KMSN 250345Z 28006KT 10SM FEW034 OVC055 M09/M14 A2998 810 70 -2000 280/06 RMK AO2
14837KMSN MSN20011224215012312/24/01 21:50:31  5-MIN KMSN 250350Z 28006KT 10SM FEW034 SCT055 M09/M14 A2998 810 70 -2000 280/06 RMK AO2 SLP169 T10941139
14837KMSN MSN20011224215509912/24/01 21:55:31  5-MIN KMSN 250355Z 28006KT 10SM BKN050 M09/M14 A2998 810 70 -2000 280/06 RMK AO2
14837KMSN MSN20011224220009912/24/01 22:00:31  5-MIN KMSN 250400Z 28005KT 10SM SCT055 M09/M14 A2999 800 70 -2000 280/05 RMK AO2
14837KMSN MSN20011224220509912/24/01 22:05:31  5-MIN KMSN 250405Z 28006KT 10SM SCT050 M10/M14 A2999 800 70 -2000 280/06 RMK AO2
14837KMSN MSN20011224221009912/24/01 22:10:31  5-MIN KMSN 250410Z 29006KT 10SM FEW050 M10/M14 A2999 800 73 -2000 280/06 RMK AO2
14837KMSN MSN20011224221509612/24/01 22:15:31  5-MIN KMSN 250415Z 29006KT 10SM CLR M10/M14 A2999 800 73 -2000 290/06 RMK AO2
14837KMSN MSN20011224222009612/24/01 22:20:31  5-MIN KMSN 250420Z 28006KT 10SM CLR M10/M15 A2999 800 67 -2000 280/06 RMK AO2
14837KMSN MSN20011224222509612/24/01 22:25:31  5-MIN KMSN 250425Z 29005KT 10SM CLR M10/M14 A2999 800 70 -2000 290/05 RMK AO2
14837KMSN MSN20011224223009612/24/01 22:30:31  5-MIN KMSN 250430Z 28005KT 10SM CLR M10/M14 A2999 800 70 -2000 280/05 RMK AO2
14837KMSN MSN20011224223509612/24/01 22:35:31  5-MIN KMSN 250435Z 29006KT 10SM CLR M10/M14 A2999 800 70 -2000 290/06 RMK AO2
14837KMSN MSN20011224224009612/24/01 22:40:31  5-MIN KMSN 250440Z 29005KT 10SM CLR M11/M15 A2999 800 70 -2100 290/05 RMK AO2
14837KMSN MSN20011224224509612/24/01 22:45:31  5-MIN KMSN 250445Z 29004KT 10SM CLR M11/M14 A2999 800 77 -2100 290/04 RMK AO2
14837KMSN MSN20011224225011312/24/01 22:50:31  5-MIN KMSN 250450Z 29006KT 10SM CLR M11/M15 A2999 800 70 -2100 290/06 RMK AO2 SLP171 T11061150
14837KMSN MSN20011224225509612/24/01 22:55:31  5-MIN KMSN 250455Z 29004KT 10SM CLR M11/M15 A2999 800 70 -2100 290/04 RMK AO2
14837KMSN MSN20011224230009612/24/01 23:00:31  5-MIN KMSN 250500Z VRB04KT 10SM CLR M11/M14 A2999 800 73 -2100 VRB/04 RMK AO2
14837KMSN MSN20011224230509612/24/01 23:05:31  5-MIN KMSN 250505Z 29005KT 10SM CLR M11/M16 A2999 800 67 -2100 290/05 RMK AO2
14837KMSN MSN20011224231009612/24/01 23:10:31  5-MIN KMSN 250510Z 29005KT 10SM CLR M11/M15 A2999 800 70 -2100 290/05 RMK AO2
14837KMSN MSN20011224231509612/24/01 23:15:31  5-MIN KMSN 250515Z 29005KT 10SM CLR M11/M15 A2999 800 70 -2100 290/05 RMK AO2
14837KMSN MSN20011224232009612/24/01 23:20:31  5-MIN KMSN 250520Z 29005KT 10SM CLR M11/M16 A2999 800 67 -2100 290/05 RMK AO2
14837KMSN MSN20011224232509612/24/01 23:25:31  5-MIN KMSN 250525Z 29005KT 10SM CLR M11/M16 A2999 800 67 -2100 290/05 RMK AO2
14837KMSN MSN20011224233009612/24/01 23:30:31  5-MIN KMSN 250530Z 29007KT 10SM CLR M11/M16 A2999 800 67 -2100 290/07 RMK AO2
14837KMSN MSN20011224233509612/24/01 23:35:31  5-MIN KMSN 250535Z 28005KT 10SM CLR M11/M16 A2999 800 64 -2100 280/05 RMK AO2
14837KMSN MSN20011224234009612/24/01 23:40:31  5-MIN KMSN 250540Z 28004KT 10SM CLR M11/M16 A2999 800 70 -2200 280/04 RMK AO2
14837KMSN MSN20011224234509612/24/01 23:45:31  5-MIN KMSN 250545Z 28005KT 10SM CLR M11/M15 A2999 800 73 -2200 280/05 RMK AO2
14837KMSN MSN20011224235014712/24/01 23:50:31  5-MIN KMSN 250550Z 29006KT 10SM CLR M11/M16 A2999 800 67 -2200 290/06 RMK AO2 SLP173 60000 T11111161 11083 21111 410671111 53001
14837KMSN MSN20011224235509612/24/01 23:55:31  5-MIN KMSN 250555Z 29006KT 10SM CLR M11/M16 A2999 800 70 -2200 290/06 RMK AO2
14837KMSN MSN20011225000009612/25/01 00:00:31  5-MIN KMSN 250600Z 29005KT 10SM CLR M12/M16 A2999 800 73 -2300 290/05 RMK AO2
14837KMSN MSN20011225000509612/25/01 00:05:31  5-MIN KMSN 250605Z 29005KT 10SM CLR M11/M16 A2999 800 70 -2200 290/05 RMK AO2
14837KMSN MSN20011225001009612/25/01 00:10:31  5-MIN KMSN 250610Z 29005KT 10SM CLR M12/M16 A2999 800 73 -2300 290/05 RMK AO2
14837KMSN MSN20011225001509612/25/01 00:15:31  5-MIN KMSN 250615Z 29004KT 10SM CLR M12/M16 A2999 800 73 -2300 290/04 RMK AO2
14837KMSN MSN20011225002009612/25/01 00:20:31  5-MIN KMSN 250620Z 28004KT 10SM CLR M12/M16 A2999 800 73 -2300 280/04 RMK AO2
14837KMSN MSN20011225002509612/25/01 00:25:31  5-MIN KMSN 250625Z 29004KT 10SM CLR M12/M16 A2999 800 70 -2300 280/04 RMK AO2
14837KMSN MSN20011225003009612/25/01 00:30:31  5-MIN KMSN 250630Z 28004KT 10SM CLR M12/M16 A2999 800 73 -2300 280/04 RMK AO2
14837KMSN MSN20011225003509612/25/01 00:35:31  5-MIN KMSN 250635Z 28004KT 10SM CLR M12/M16 A3000 790 73 -2300 280/04 RMK AO2
14837KMSN MSN20011225004009612/25/01 00:40:31  5-MIN KMSN 250640Z 28004KT 10SM CLR M12/M16 A3000 790 73 -2300 270/04 RMK AO2
14837KMSN MSN20011225004509612/25/01 00:45:31  5-MIN KMSN 250645Z 27003KT 10SM CLR M12/M16 A3000 790 76 -2300 270/03 RMK AO2
14837KMSN MSN20011225005011312/25/01 00:50:31  5-MIN KMSN 250650Z 00000KT 10SM CLR M12/M16 A2999 800 73 -2300 000/00 RMK AO2 SLP173 T11171156
14837KMSN MSN20011225005509612/25/01 00:55:31  5-MIN KMSN 250655Z 28004KT 10SM CLR M12/M16 A2999 800 70 -2300 280/04 RMK AO2
14837KMSN MSN20011225010009612/25/01 01:00:31  5-MIN KMSN 250700Z 27003KT 10SM CLR M12/M16 A2999 800 76 -2300 270/03 RMK AO2
14837KMSN MSN20011225010509612/25/01 01:05:31  5-MIN KMSN 250705Z 27003KT 10SM CLR M12/M16 A2999 800 76 -2300 270/03 RMK AO2
14837KMSN MSN20011225011009612/25/01 01:10:31  5-MIN KMSN 250710Z 28004KT 10SM CLR M12/M16 A2999 800 76 -2300 280/04 RMK AO2
14837KMSN MSN20011225011509612/25/01 01:15:31  5-MIN KMSN 250715Z 28004KT 10SM CLR M12/M16 A2999 800 73 -2300 280/04 RMK AO2
14837KMSN MSN20011225012009612/25/01 01:20:31  5-MIN KMSN 250720Z 27004KT 10SM CLR M12/M16 A3000 790 73 -2300 270/04 RMK AO2
14837KMSN MSN20011225012509612/25/01 01:25:31  5-MIN KMSN 250725Z 27004KT 10SM CLR M12/M16 A3000 790 76 -2300 270/04 RMK AO2
14837KMSN MSN20011225013009612/25/01 01:30:31  5-MIN KMSN 250730Z 29004KT 10SM CLR M12/M16 A3000 790 73 -2300 290/04 RMK AO2
14837KMSN MSN20011225013509612/25/01 01:35:31  5-MIN KMSN 250735Z 28004KT 10SM CLR M12/M16 A3000 790 76 -2300 280/04 RMK AO2
14837KMSN MSN20011225014009612/25/01 01:40:31  5-MIN KMSN 250740Z 29004KT 10SM CLR M12/M17 A3000 790 70 -2300 290/04 RMK AO2
14837KMSN MSN20011225014509612/25/01 01:45:31  5-MIN KMSN 250745Z 30004KT 10SM CLR M12/M16 A3000 790 76 -2300 300/04 RMK AO2
14837KMSN MSN20011225015011312/25/01 01:50:31  5-MIN KMSN 250750Z 29005KT 10SM CLR M12/M16 A3000 790 70 -2300 290/05 RMK AO2 SLP175 T11171161
14837KMSN MSN20011225015509612/25/01 01:55:31  5-MIN KMSN 250755Z 31004KT 10SM CLR M12/M16 A3000 790 73 -2300 310/04 RMK AO2
14837KMSN MSN20011225020009612/25/01 02:00:31  5-MIN KMSN 250800Z 31004KT 10SM CLR M12/M16 A3000 790 73 -2300 310/04 RMK AO2
14837KMSN MSN20011225020509612/25/01 02:05:31  5-MIN KMSN 250805Z 00000KT 10SM CLR M12/M17 A3000 790 67 -2300 000/00 RMK AO2
14837KMSN MSN20011225021009612/25/01 02:10:31  5-MIN KMSN 250810Z 00000KT 10SM CLR M12/M16 A3000 790 70 -2300 000/00 RMK AO2
14837KMSN MSN20011225021509612/25/01 02:15:31  5-MIN KMSN 250815Z 00000KT 10SM CLR M12/M17 A3000 790 70 -2300 000/00 RMK AO2
14837KMSN MSN20011225022009612/25/01 02:20:31  5-MIN KMSN 250820Z 32003KT 10SM CLR M12/M16 A3000 790 73 -2300 320/03 RMK AO2
14837KMSN MSN20011225022509612/25/01 02:25:31  5-MIN KMSN 250825Z 31004KT 10SM CLR M12/M16 A3000 790 73 -2300 300/04 RMK AO2
14837KMSN MSN20011225023009912/25/01 02:30:31  5-MIN KMSN 250830Z VRB04KT 10SM FEW075 M12/M16 A3000 790 73 -2300 VRB/04 RMK AO2
14837KMSN MSN20011225023509912/25/01 02:35:31  5-MIN KMSN 250835Z 29003KT 10SM SCT075 M12/M16 A3000 790 73 -2300 290/03 RMK AO2
14837KMSN MSN20011225024009912/25/01 02:40:31  5-MIN KMSN 250840Z VRB03KT 10SM FEW075 M12/M16 A3000 790 73 -2300 VRB/03 RMK AO2
14837KMSN MSN20011225024509912/25/01 02:45:31  5-MIN KMSN 250845Z 29004KT 10SM FEW075 M12/M16 A3000 800 73 -2300 280/04 RMK AO2
14837KMSN MSN20011225025012212/25/01 02:50:31  5-MIN KMSN 250850Z 26003KT 10SM FEW075 M12/M17 A2999 800 67 -2300 260/03 RMK AO2 SLP174 T11221172 53002
14837KMSN MSN20011225025509912/25/01 02:55:31  5-MIN KMSN 250855Z 28003KT 10SM FEW075 M12/M16 A2999 800 73 -2300 280/03 RMK AO2
14837KMSN MSN20011225030009912/25/01 03:00:31  5-MIN KMSN 250900Z 28003KT 10SM FEW075 M12/M16 A2999 800 73 -2300 280/03 RMK AO2
14837KMSN MSN20011225030509612/25/01 03:05:31  5-MIN KMSN 250905Z 30003KT 10SM CLR M12/M16 A2999 800 73 -2300 300/03 RMK AO2
14837KMSN MSN20011225031009612/25/01 03:10:31  5-MIN KMSN 250910Z 00000KT 10SM CLR M12/M16 A2999 800 76 -2300 000/00 RMK AO2
14837KMSN MSN20011225031509612/25/01 03:15:31  5-MIN KMSN 250915Z 00000KT 10SM CLR M12/M17 A2999 800 70 -2300 000/00 RMK AO2
14837KMSN MSN20011225032009612/25/01 03:20:31  5-MIN KMSN 250920Z 00000KT 10SM CLR M12/M16 A2999 800 76 -2300 000/00 RMK AO2
14837KMSN MSN20011225032509612/25/01 03:25:31  5-MIN KMSN 250925Z 00000KT 10SM CLR M12/M16 A2998 810 73 -2300 000/00 RMK AO2
14837KMSN MSN20011225033009612/25/01 03:30:31  5-MIN KMSN 250930Z 00000KT 10SM CLR M12/M16 A2998 810 73 -2300 000/00 RMK AO2
14837KMSN MSN20011225033509612/25/01 03:35:31  5-MIN KMSN 250935Z 29004KT 10SM CLR M12/M17 A2998 810 70 -2300 290/04 RMK AO2
14837KMSN MSN20011225034009612/25/01 03:40:31  5-MIN KMSN 250940Z 28003KT 10SM CLR M13/M16 A2998 810 76 -2400 280/03 RMK AO2
14837KMSN MSN20011225034509612/25/01 03:45:31  5-MIN KMSN 250945Z 29003KT 10SM CLR M13/M16 A2998 810 76 -2400 290/03 RMK AO2
14837KMSN MSN20011225035011312/25/01 03:50:31  5-MIN KMSN 250950Z 28004KT 10SM CLR M13/M17 A2998 810 73 -2400 280/04 RMK AO2 SLP170 T11281167
14837KMSN MSN20011225035509612/25/01 03:55:31  5-MIN KMSN 250955Z 28004KT 10SM CLR M13/M16 A2998 810 76 -2400 280/04 RMK AO2
14837KMSN MSN20011225040009612/25/01 04:00:31  5-MIN KMSN 251000Z 28003KT 10SM CLR M13/M16 A2998 810 80 -2500 280/03 RMK AO2
14837KMSN MSN20011225040509912/25/01 04:05:31  5-MIN KMSN 251005Z 26003KT 10SM FEW085 M13/M16 A2998 810 76 -2400 260/03 RMK AO2
14837KMSN MSN20011225041009912/25/01 04:10:31  5-MIN KMSN 251010Z VRB03KT 10SM SCT085 M13/M16 A2998 810 76 -2400 VRB/03 RMK AO2
14837KMSN MSN20011225041509912/25/01 04:15:31  5-MIN KMSN 251015Z 00000KT 10SM BKN085 M13/M16 A2998 810 76 -2400 000/00 RMK AO2
14837KMSN MSN20011225042009912/25/01 04:20:31  5-MIN KMSN 251020Z 00000KT 10SM BKN085 M12/M16 A2998 810 73 -2300 000/00 RMK AO2
14837KMSN MSN20011225042509912/25/01 04:25:31  5-MIN KMSN 251025Z VRB03KT 10SM BKN085 M12/M17 A2998 810 67 -2300 VRB/03 RMK AO2
14837KMSN MSN20011225043009912/25/01 04:30:31  5-MIN KMSN 251030Z 27003KT 10SM OVC085 M12/M16 A2998 810 73 -2300 270/03 RMK AO2
14837KMSN MSN20011225043509912/25/01 04:35:31  5-MIN KMSN 251035Z 00000KT 10SM OVC085 M12/M16 A2998 810 73 -2300 000/00 RMK AO2
14837KMSN MSN20011225044009912/25/01 04:40:31  5-MIN KMSN 251040Z 27003KT 10SM OVC085 M12/M16 A2998 810 73 -2300 270/03 RMK AO2
14837KMSN MSN20011225044509912/25/01 04:45:31  5-MIN KMSN 251045Z VRB03KT 10SM OVC085 M13/M16 A2997 820 80 -2400 VRB/03 RMK AO2
14837KMSN MSN20011225045011612/25/01 04:50:31  5-MIN KMSN 251050Z 27004KT 10SM OVC085 M12/M16 A2997 810 73 -2300 270/04 RMK AO2 SLP167 T11221161
14837KMSN MSN20011225045509912/25/01 04:55:31  5-MIN KMSN 251055Z VRB03KT 10SM OVC085 M12/M16 A2997 820 76 -2300 VRB/03 RMK AO2
14837KMSN MSN20011225050009912/25/01 05:00:31  5-MIN KMSN 251100Z 29004KT 10SM OVC085 M12/M16 A2997 820 76 -2300 280/04 RMK AO2
14837KMSN MSN20011225050509912/25/01 05:05:31  5-MIN KMSN 251105Z VRB05KT 10SM OVC085 M12/M16 A2997 820 76 -2300 VRB/05 RMK AO2
14837KMSN MSN20011225051009912/25/01 05:10:31  5-MIN KMSN 251110Z 28004KT 10SM OVC085 M12/M16 A2997 820 76 -2300 280/04 RMK AO2
14837KMSN MSN20011225051509912/25/01 05:15:31  5-MIN KMSN 251115Z 27004KT 10SM BKN085 M12/M16 A2997 820 73 -2300 270/04 RMK AO2
14837KMSN MSN20011225052009912/25/01 05:20:31  5-MIN KMSN 251120Z VRB04KT 10SM BKN085 M12/M16 A2997 820 73 -2300 VRB/04 RMK AO2
14837KMSN MSN20011225052509912/25/01 05:25:31  5-MIN KMSN 251125Z 00000KT 10SM BKN085 M12/M18 A2997 820 64 -2300 000/00 RMK AO2
14837KMSN MSN20011225053009912/25/01 05:30:31  5-MIN KMSN 251130Z VRB04KT 10SM BKN085 M12/M18 A2997 820 64 -2300 VRB/04 RMK AO2
14837KMSN MSN20011225053509912/25/01 05:35:31  5-MIN KMSN 251135Z 00000KT 10SM BKN085 M12/M18 A2997 820 64 -2300 000/00 RMK AO2
14837KMSN MSN20011225054009912/25/01 05:40:31  5-MIN KMSN 251140Z VRB03KT 10SM BKN085 M12/M17 A2997 820 67 -2300 VRB/03 RMK AO2
14837KMSN MSN20011225054509912/25/01 05:45:31  5-MIN KMSN 251145Z VRB04KT 10SM OVC090 M12/M16 A2998 810 73 -2200 VRB/04 RMK AO2
14837KMSN MSN20011225055014012/25/01 05:50:31  5-MIN KMSN 251150Z VRB03KT 10SM OVC085 M12/M16 A2998 810 73 -2200 VRB/03 RMK AO2 SLP168 4/002 T11171156 11111 21133 58001
14837KMSN MSN20011225055509912/25/01 05:55:31  5-MIN KMSN 251155Z VRB05KT 10SM OVC085 M12/M16 A2998 810 73 -2200 VRB/05 RMK AO2
14837KMSN MSN20011225060009912/25/01 06:00:31  5-MIN KMSN 251200Z VRB05KT 10SM OVC085 M12/M16 A2998 810 73 -2200 VRB/05 RMK AO2
14837KMSN MSN20011225060509912/25/01 06:05:31  5-MIN KMSN 251205Z VRB05KT 10SM OVC085 M12/M16 A2998 810 73 -2200 VRB/05 RMK AO2
14837KMSN MSN20011225061009912/25/01 06:10:31  5-MIN KMSN 251210Z 28006KT 10SM OVC085 M12/M15 A2998 810 76 -2200 280/06 RMK AO2
14837KMSN MSN20011225061509912/25/01 06:15:31  5-MIN KMSN 251215Z 28006KT 10SM OVC085 M12/M16 A2998 810 73 -2200 280/06 RMK AO2
14837KMSN MSN20011225062009912/25/01 06:20:31  5-MIN KMSN 251220Z 28005KT 10SM OVC085 M12/M15 A2998 810 76 -2200 280/05 RMK AO2
14837KMSN MSN20011225062509912/25/01 06:25:31  5-MIN KMSN 251225Z 27005KT 10SM OVC085 M12/M15 A2998 810 76 -2200 270/05 RMK AO2
14837KMSN MSN20011225063009912/25/01 06:30:31  5-MIN KMSN 251230Z 27005KT 10SM OVC085 M12/M15 A2998 810 76 -2200 270/05 RMK AO2
14837KMSN MSN20011225063509912/25/01 06:35:31  5-MIN KMSN 251235Z 27005KT 10SM BKN090 M12/M15 A2998 810 76 -2200 270/05 RMK AO2
14837KMSN MSN20011225064009912/25/01 06:40:31  5-MIN KMSN 251240Z 27005KT 10SM BKN090 M12/M15 A2998 810 80 -2300 270/05 RMK AO2
14837KMSN MSN20011225064509912/25/01 06:45:31  5-MIN KMSN 251245Z 28005KT 10SM SCT090 M12/M15 A2998 810 80 -2300 280/05 RMK AO2
14837KMSN MSN20011225065011612/25/01 06:50:31  5-MIN KMSN 251250Z VRB04KT 10SM SCT090 M12/M15 A2998 810 80 -2300 VRB/04 RMK AO2 SLP168 T11221150
14837KMSN MSN20011225065509912/25/01 06:55:31  5-MIN KMSN 251255Z 27004KT 10SM SCT090 M12/M15 A2998 810 80 -2300 270/04 RMK AO2
14837KMSN MSN20011225070009912/25/01 07:00:31  5-MIN KMSN 251300Z VRB04KT 10SM FEW090 M12/M16 A2998 810 76 -2300 VRB/04 RMK AO2
14837KMSN MSN20011225070509912/25/01 07:05:31  5-MIN KMSN 251305Z VRB03KT 10SM FEW090 M12/M15 A2998 810 80 -2300 VRB/03 RMK AO2
14837KMSN MSN20011225071009912/25/01 07:10:31  5-MIN KMSN 251310Z 27004KT 10SM FEW090 M12/M15 A2998 810 80 -2300 270/04 RMK AO2
14837KMSN MSN20011225071509912/25/01 07:15:31  5-MIN KMSN 251315Z 28003KT 10SM FEW090 M13/M15 A2998 810 84 -2400 270/03 RMK AO2
14837KMSN MSN20011225072009612/25/01 07:20:31  5-MIN KMSN 251320Z VRB03KT 10SM CLR M12/M15 A2998 810 80 -2300 VRB/03 RMK AO2
14837KMSN MSN20011225072509612/25/01 07:25:31  5-MIN KMSN 251325Z VRB03KT 10SM CLR M13/M15 A2998 810 84 -2400 VRB/03 RMK AO2
14837KMSN MSN20011225073009612/25/01 07:30:31  5-MIN KMSN 251330Z VRB03KT 10SM CLR M13/M16 A2998 810 80 -2400 VRB/03 RMK AO2
14837KMSN MSN20011225073509912/25/01 07:35:31  5-MIN KMSN 251335Z VRB04KT 10SM FEW085 M13/M16 A2998 810 80 -2400 VRB/04 RMK AO2
14837KMSN MSN20011225074009912/25/01 07:40:31  5-MIN KMSN 251340Z 27003KT 10SM FEW085 M13/M16 A2998 810 80 -2400 270/03 RMK AO2
14837KMSN MSN20011225074509912/25/01 07:45:31  5-MIN KMSN 251345Z 27003KT 10SM FEW085 M13/M16 A2998 810 80 -2400 270/03 RMK AO2
14837KMSN MSN20011225075011612/25/01 07:50:31  5-MIN KMSN 251350Z 00000KT 10SM FEW085 M13/M15 A2998 810 84 -2400 000/00 RMK AO2 SLP170 T11281150
14837KMSN MSN20011225075509912/25/01 07:55:31  5-MIN KMSN 251355Z 00000KT 10SM FEW085 M13/M15 A2998 810 84 -2400 000/00 RMK AO2
14837KMSN MSN20011225080009912/25/01 08:00:31  5-MIN KMSN 251400Z 27003KT 10SM FEW085 M13/M15 A2998 810 84 -2400 270/03 RMK AO2
14837KMSN MSN20011225080509612/25/01 08:05:31  5-MIN KMSN 251405Z VRB03KT 10SM CLR M13/M15 A2998 810 84 -2400 VRB/03 RMK AO2
14837KMSN MSN20011225081009612/25/01 08:10:31  5-MIN KMSN 251410Z VRB04KT 10SM CLR M13/M15 A2998 810 84 -2400 VRB/04 RMK AO2
14837KMSN MSN20011225081509812/25/01 08:15:31  5-MIN KMSN 251415Z VRB04KT 9SM FEW085 M12/M15 A2998 810 80 -2300 VRB/04 RMK AO2
14837KMSN MSN20011225082009912/25/01 08:20:31  5-MIN KMSN 251420Z VRB04KT 10SM FEW085 M12/M15 A2998 810 80 -2300 VRB/04 RMK AO2
14837KMSN MSN20011225082509912/25/01 08:25:31  5-MIN KMSN 251425Z VRB04KT 10SM FEW085 M12/M15 A2998 810 80 -2300 VRB/04 RMK AO2
14837KMSN MSN20011225083009912/25/01 08:30:31  5-MIN KMSN 251430Z 27005KT 10SM FEW085 M12/M15 A2999 800 80 -2300 270/05 RMK AO2
14837KMSN MSN20011225083509912/25/01 08:35:31  5-MIN KMSN 251435Z 27005KT 10SM FEW085 M12/M15 A2999 800 76 -2200 270/05 RMK AO2
14837KMSN MSN20011225084009912/25/01 08:40:31  5-MIN KMSN 251440Z 28004KT 10SM FEW085 M12/M15 A2999 800 80 -2300 280/04 RMK AO2
14837KMSN MSN20011225084509912/25/01 08:45:31  5-MIN KMSN 251445Z 28005KT 10SM FEW085 M12/M14 A2999 800 80 -2200 280/05 RMK AO2
14837KMSN MSN20011225085012212/25/01 08:50:31  5-MIN KMSN 251450Z 28006KT 10SM FEW085 M12/M14 A2999 800 80 -2200 280/06 RMK AO2 SLP171 T11171144 55006
14837KMSN MSN20011225085509612/25/01 08:55:31  5-MIN KMSN 251455Z 28007KT 10SM CLR M12/M14 A2999 800 80 -2200 280/07 RMK AO2
14837KMSN MSN20011225090009612/25/01 09:00:31  5-MIN KMSN 251500Z 28006KT 10SM CLR M12/M14 A2998 810 80 -2200 270/06 RMK AO2
14837KMSN MSN20011225090509512/25/01 09:05:31  5-MIN KMSN 251505Z VRB06KT 9SM CLR M11/M14 A2998 810 77 -2200 VRB/06 RMK AO2
14837KMSN MSN20011225091009512/25/01 09:10:31  5-MIN KMSN 251510Z VRB05KT 9SM CLR M11/M14 A2998 810 77 -2200 VRB/05 RMK AO2
14837KMSN MSN20011225091509912/25/01 09:15:31  5-MIN KMSN 251515Z 28006KT 10SM FEW080 M11/M14 A2998 810 77 -2200 280/06 RMK AO2
14837KMSN MSN20011225092009912/25/01 09:20:31  5-MIN KMSN 251520Z 29006KT 10SM SCT080 M11/M14 A2998 810 80 -2200 290/06 RMK AO2
14837KMSN MSN20011225092509912/25/01 09:25:31  5-MIN KMSN 251525Z 28007KT 10SM FEW080 M11/M14 A2998 810 77 -2100 280/07 RMK AO2
14837KMSN MSN20011225093009912/25/01 09:30:31  5-MIN KMSN 251530Z 28005KT 10SM FEW080 M11/M14 A2998 810 77 -2100 280/05 RMK AO2
14837KMSN MSN20011225093509912/25/01 09:35:31  5-MIN KMSN 251535Z 27006KT 10SM FEW080 M11/M14 A2998 810 77 -2100 270/06 RMK AO2
14837KMSN MSN20011225094009912/25/01 09:40:31  5-MIN KMSN 251540Z 29004KT 10SM FEW080 M10/M13 A2998 810 77 -2000 290/04 RMK AO2
14837KMSN MSN20011225094509912/25/01 09:45:31  5-MIN KMSN 251545Z VRB04KT 10SM SCT080 M10/M13 A2998 810 77 -2000 VRB/04 RMK AO2
14837KMSN MSN20011225095011612/25/01 09:50:31  5-MIN KMSN 251550Z VRB04KT 10SM SCT080 M10/M13 A2998 810 77 -2000 VRB/04 RMK AO2 SLP168 T11001133
14837KMSN MSN20011225095509912/25/01 09:55:31  5-MIN KMSN 251555Z 26006KT 10SM OVC080 M10/M14 A2998 810 73 -2000 260/06 RMK AO2
14837KMSN MSN20011225100009912/25/01 10:00:31  5-MIN KMSN 251600Z 30005KT 10SM OVC080 M10/M13 A2998 810 77 -2000 300/05 RMK AO2
14837KMSN MSN20011225100509912/25/01 10:05:31  5-MIN KMSN 251605Z VRB04KT 10SM BKN080 M09/M13 A2998 810 73 -1900 VRB/04 RMK AO2
14837KMSN MSN20011225101009912/25/01 10:10:31  5-MIN KMSN 251610Z 29006KT 10SM BKN080 M10/M13 A2998 810 77 -2000 290/06 RMK AO2
14837KMSN MSN20011225101509912/25/01 10:15:31  5-MIN KMSN 251615Z 30004KT 10SM BKN080 M10/M13 A2998 810 77 -2000 300/04 RMK AO2
14837KMSN MSN20011225102010612/25/01 10:20:31  5-MIN KMSN 251620Z 28006KT 10SM FEW030 BKN080 M10/M13 A2998 810 77 -2000 280/06 RMK AO2
14837KMSN MSN20011225102510612/25/01 10:25:31  5-MIN KMSN 251625Z 30005KT 10SM FEW030 BKN080 M09/M13 A2997 810 73 -1900 300/05 RMK AO2
14837KMSN MSN20011225103010612/25/01 10:30:31  5-MIN KMSN 251630Z 29005KT 10SM FEW030 BKN080 M09/M13 A2997 820 73 -1900 290/05 RMK AO2
14837KMSN MSN20011225103510612/25/01 10:35:31  5-MIN KMSN 251635Z 30004KT 10SM FEW030 BKN080 M09/M13 A2997 820 77 -1900 300/04 RMK AO2
14837KMSN MSN20011225104009912/25/01 10:40:31  5-MIN KMSN 251640Z 30005KT 10SM SCT080 M09/M13 A2997 820 70 -1900 300/05 RMK AO2
14837KMSN MSN20011225104509912/25/01 10:45:31  5-MIN KMSN 251645Z VRB03KT 10SM SCT080 M09/M14 A2996 820 70 -1900 VRB/03 RMK AO2
14837KMSN MSN20011225105011612/25/01 10:50:31  5-MIN KMSN 251650Z VRB05KT 10SM SCT080 M09/M13 A2996 820 70 -1900 VRB/05 RMK AO2 SLP163 T10891133
14837KMSN MSN20011225105509912/25/01 10:55:31  5-MIN KMSN 251655Z 24004KT 10SM SCT080 M09/M14 A2996 830 70 -1900 240/04 RMK AO2
14837KMSN MSN20011225110009912/25/01 11:00:31  5-MIN KMSN 251700Z 30005KT 10SM SCT080 M09/M14 A2996 830 70 -1900 300/05 RMK AO2
14837KMSN MSN20011225110509912/25/01 11:05:31  5-MIN KMSN 251705Z 30004KT 10SM SCT080 M09/M13 A2995 830 73 -1900 300/04 RMK AO2
14837KMSN MSN20011225111009912/25/01 11:10:31  5-MIN KMSN 251710Z 29006KT 10SM SCT080 M09/M14 A2995 830 70 -1900 290/06 RMK AO2
14837KMSN MSN20011225111509912/25/01 11:15:31  5-MIN KMSN 251715Z VRB03KT 10SM SCT080 M09/M13 A2995 840 70 -1800 VRB/03 RMK AO2
14837KMSN MSN20011225112009912/25/01 11:20:31  5-MIN KMSN 251720Z 29005KT 10SM SCT080 M09/M13 A2994 840 70 -1800 290/05 RMK AO2
14837KMSN MSN20011225112509912/25/01 11:25:31  5-MIN KMSN 251725Z VRB05KT 10SM BKN080 M09/M13 A2994 850 70 -1800 VRB/05 RMK AO2
14837KMSN MSN20011225113009912/25/01 11:30:31  5-MIN KMSN 251730Z 30007KT 10SM BKN080 M09/M13 A2994 850 70 -1800 300/07 RMK AO2
14837KMSN MSN20011225113509912/25/01 11:35:31  5-MIN KMSN 251735Z 29004KT 10SM BKN080 M09/M13 A2993 850 70 -1800 290/04 RMK AO2
14837KMSN MSN20011225114009912/25/01 11:40:31  5-MIN KMSN 251740Z VRB05KT 10SM BKN080 M08/M14 A2993 850 64 -1700 VRB/05 RMK AO2
14837KMSN MSN20011225114509912/25/01 11:45:31  5-MIN KMSN 251745Z 28005KT 10SM BKN080 M08/M13 A2993 860 67 -1700 280/05 RMK AO2
14837KMSN MSN20011225115013412/25/01 11:50:31  5-MIN KMSN 251750Z VRB05KT 10SM BKN080 M08/M13 A2993 860 67 -1700 VRB/05 RMK AO2 SLP150 T10831133 11083 21128 53003
14837KMSN MSN20011225115509912/25/01 11:55:31  5-MIN KMSN 251755Z 26004KT 10SM OVC080 M09/M14 A2992 860 67 -1800 260/04 RMK AO2
14837KMSN MSN20011225120009912/25/01 12:00:31  5-MIN KMSN 251800Z 28005KT 10SM BKN080 M08/M14 A2992 860 62 -1700 270/05 RMK AO2
14837KMSN MSN20011225120509912/25/01 12:05:31  5-MIN KMSN 251805Z VRB04KT 10SM BKN080 M08/M14 A2992 860 64 -1700 VRB/04 RMK AO2
14837KMSN MSN20011225121009912/25/01 12:10:31  5-MIN KMSN 251810Z VRB03KT 10SM BKN080 M08/M13 A2992 870 67 -1700 VRB/03 RMK AO2
14837KMSN MSN20011225121509912/25/01 12:15:31  5-MIN KMSN 251815Z VRB05KT 10SM BKN080 M08/M13 A2992 870 67 -1700 VRB/05 RMK AO2
14837KMSN MSN20011225122009912/25/01 12:20:31  5-MIN KMSN 251820Z 27007KT 10SM BKN080 M08/M13 A2991 870 67 -1700 260/07 RMK AO2
14837KMSN MSN20011225122509912/25/01 12:25:31  5-MIN KMSN 251825Z 26007KT 10SM BKN080 M08/M13 A2991 870 67 -1700 260/07 RMK AO2
14837KMSN MSN20011225123009912/25/01 12:30:31  5-MIN KMSN 251830Z 29008KT 10SM BKN080 M08/M13 A2992 870 64 -1700 290/08 RMK AO2
14837KMSN MSN20011225123509912/25/01 12:35:31  5-MIN KMSN 251835Z 28007KT 10SM OVC075 M08/M13 A2992 870 64 -1700 270/07 RMK AO2
14837KMSN MSN20011225124009912/25/01 12:40:31  5-MIN KMSN 251840Z 30006KT 10SM OVC075 M08/M13 A2992 870 67 -1700 300/06 RMK AO2
14837KMSN MSN20011225124510612/25/01 12:45:31  5-MIN KMSN 251845Z 27007KT 10SM FEW023 OVC075 M08/M13 A2992 870 64 -1700 270/07 RMK AO2
14837KMSN MSN20011225125012312/25/01 12:50:31  5-MIN KMSN 251850Z 28005KT 10SM FEW023 OVC075 M08/M13 A2991 870 70 -1700 280/05 RMK AO2 SLP147 T10831128
14837KMSN MSN20011225125510612/25/01 12:55:31  5-MIN KMSN 251855Z VRB04KT 10SM FEW023 OVC075 M08/M13 A2991 870 67 -1700 VRB/04 RMK AO2
14837KMSN MSN20011225130010612/25/01 13:00:31  5-MIN KMSN 251900Z 27006KT 10SM SCT023 OVC075 M08/M13 A2991 870 67 -1700 270/06 RMK AO2
14837KMSN MSN20011225130510612/25/01 13:05:31  5-MIN KMSN 251905Z VRB04KT 10SM SCT023 OVC075 M08/M13 A2991 870 64 -1700 VRB/04 RMK AO2
14837KMSN MSN20011225131010612/25/01 13:10:31  5-MIN KMSN 251910Z VRB05KT 10SM BKN023 OVC075 M08/M13 A2991 870 67 -1700 VRB/05 RMK AO2
14837KMSN MSN20011225131510612/25/01 13:15:31  5-MIN KMSN 251915Z VRB05KT 10SM BKN023 OVC080 M08/M13 A2991 870 67 -1700 VRB/05 RMK AO2
14837KMSN MSN20011225132010612/25/01 13:20:31  5-MIN KMSN 251920Z 30007KT 10SM SCT023 OVC080 M08/M13 A2991 870 67 -1700 290/07 RMK AO2
14837KMSN MSN20011225132510612/25/01 13:25:31  5-MIN KMSN 251925Z 29007KT 10SM SCT023 OVC080 M08/M13 A2991 870 67 -1700 290/07 RMK AO2
14837KMSN MSN20011225133010612/25/01 13:30:31  5-MIN KMSN 251930Z 31007KT 10SM FEW023 OVC080 M08/M13 A2991 870 64 -1700 310/07 RMK AO2
14837KMSN MSN20011225133510612/25/01 13:35:31  5-MIN KMSN 251935Z 25006KT 10SM FEW023 BKN080 M08/M13 A2991 870 64 -1700 250/06 RMK AO2
14837KMSN MSN20011225134010612/25/01 13:40:31  5-MIN KMSN 251940Z 29005KT 10SM FEW023 BKN080 M08/M13 A2991 870 64 -1700 290/05 RMK AO2
14837KMSN MSN20011225134510612/25/01 13:45:31  5-MIN KMSN 251945Z VRB05KT 10SM FEW023 BKN080 M07/M13 A2991 870 62 -1600 VRB/05 RMK AO2
14837KMSN MSN20011225135012312/25/01 13:50:31  5-MIN KMSN 251950Z VRB05KT 10SM FEW023 BKN080 M08/M13 A2991 870 64 -1700 VRB/05 RMK AO2 SLP146 T10781133
14837KMSN MSN20011225135510612/25/01 13:55:31  5-MIN KMSN 251955Z VRB04KT 10SM FEW025 OVC080 M08/M12 A2991 870 71 -1700 VRB/04 RMK AO2
14837KMSN MSN20011225140010612/25/01 14:00:31  5-MIN KMSN 252000Z 26004KT 10SM FEW025 OVC080 M08/M13 A2991 870 64 -1700 260/04 RMK AO2
14837KMSN MSN20011225140510612/25/01 14:05:31  5-MIN KMSN 252005Z 27006KT 10SM FEW025 OVC080 M08/M13 A2991 870 67 -1700 270/06 RMK AO2
14837KMSN MSN20011225141010612/25/01 14:10:31  5-MIN KMSN 252010Z VRB06KT 10SM FEW025 OVC080 M08/M13 A2991 870 64 -1700 VRB/06 RMK AO2
14837KMSN MSN20011225141510612/25/01 14:15:31  5-MIN KMSN 252015Z 27005KT 10SM FEW025 OVC080 M08/M13 A2991 870 67 -1700 270/05 RMK AO2
14837KMSN MSN20011225142010612/25/01 14:20:31  5-MIN KMSN 252020Z VRB04KT 10SM FEW023 OVC080 M07/M13 A2991 870 65 -1600 VRB/04 RMK AO2
14837KMSN MSN20011225142510612/25/01 14:25:31  5-MIN KMSN 252025Z 28006KT 10SM FEW023 OVC080 M07/M13 A2991 870 65 -1600 280/06 RMK AO2
14837KMSN MSN20011225143010612/25/01 14:30:31  5-MIN KMSN 252030Z 30009KT 10SM FEW023 OVC080 M07/M13 A2992 870 65 -1600 300/09 RMK AO2
14837KMSN MSN20011225143510612/25/01 14:35:31  5-MIN KMSN 252035Z 28006KT 10SM FEW023 OVC080 M07/M13 A2992 870 65 -1600 280/06 RMK AO2
14837KMSN MSN20011225144010612/25/01 14:40:31  5-MIN KMSN 252040Z 27007KT 10SM FEW023 OVC080 M07/M13 A2992 870 65 -1600 270/07 RMK AO2
14837KMSN MSN20011225144509912/25/01 14:45:31  5-MIN KMSN 252045Z VRB06KT 10SM OVC080 M07/M13 A2992 870 65 -1600 VRB/06 RMK AO2
14837KMSN MSN20011225145012212/25/01 14:50:31  5-MIN KMSN 252050Z 30005KT 10SM OVC080 M07/M12 A2992 870 68 -1600 300/05 RMK AO2 SLP147 T10721122 58020
14837KMSN MSN20011225145509912/25/01 14:55:31  5-MIN KMSN 252055Z 28005KT 10SM OVC080 M07/M13 A2992 870 65 -1600 280/05 RMK AO2
14837KMSN MSN20011225150009912/25/01 15:00:31  5-MIN KMSN 252100Z 27006KT 10SM BKN080 M07/M13 A2992 870 65 -1600 270/06 RMK AO2
14837KMSN MSN20011225150509912/25/01 15:05:31  5-MIN KMSN 252105Z VRB04KT 10SM BKN080 M08/M13 A2992 870 64 -1700 VRB/04 RMK AO2
14837KMSN MSN20011225151009912/25/01 15:10:31  5-MIN KMSN 252110Z 27007KT 10SM BKN080 M07/M13 A2992 870 65 -1600 270/07 RMK AO2
14837KMSN MSN20011225151509912/25/01 15:15:31  5-MIN KMSN 252115Z 28008KT 10SM BKN080 M08/M12 A2992 860 71 -1700 280/08 RMK AO2
14837KMSN MSN20011225152009912/25/01 15:20:31  5-MIN KMSN 252120Z 27008KT 10SM BKN080 M08/M13 A2992 860 67 -1700 270/08 RMK AO2
14837KMSN MSN20011225152509912/25/01 15:25:31  5-MIN KMSN 252125Z 28006KT 10SM BKN080 M08/M13 A2992 860 67 -1700 280/06 RMK AO2
14837KMSN MSN20011225153011512/25/01 15:30:31  5-MIN KMSN 252130Z 29007KT 260V320 10SM BKN080 M08/M12 A2992 860 71 -1700 290/07 260V320 RMK AO2
14837KMSN MSN20011225153509912/25/01 15:35:31  5-MIN KMSN 252135Z 29008KT 10SM BKN080 M08/M13 A2992 860 67 -1700 290/08 RMK AO2
14837KMSN MSN20011225154009912/25/01 15:40:31  5-MIN KMSN 252140Z 28007KT 10SM BKN080 M08/M13 A2992 860 67 -1700 280/07 RMK AO2
14837KMSN MSN20011225154509912/25/01 15:45:31  5-MIN KMSN 252145Z 28006KT 10SM BKN080 M08/M12 A2992 860 71 -1700 280/06 RMK AO2
14837KMSN MSN20011225155011612/25/01 15:50:31  5-MIN KMSN 252150Z 26007KT 10SM BKN080 M08/M12 A2992 860 71 -1700 260/07 RMK AO2 SLP150 T10781122
14837KMSN MSN20011225155509912/25/01 15:55:31  5-MIN KMSN 252155Z 28008KT 10SM OVC080 M08/M13 A2992 860 67 -1700 280/08 RMK AO2
14837KMSN MSN20011225160009912/25/01 16:00:31  5-MIN KMSN 252200Z 27005KT 10SM OVC080 M08/M13 A2992 860 67 -1700 270/05 RMK AO2
14837KMSN MSN20011225160509912/25/01 16:05:31  5-MIN KMSN 252205Z VRB06KT 10SM BKN080 M08/M13 A2992 860 67 -1700 VRB/06 RMK AO2
14837KMSN MSN20011225161009912/25/01 16:10:31  5-MIN KMSN 252210Z VRB05KT 10SM BKN080 M08/M12 A2992 860 71 -1700 VRB/05 RMK AO2
14837KMSN MSN20011225161509912/25/01 16:15:31  5-MIN KMSN 252215Z VRB05KT 10SM BKN080 M08/M12 A2992 860 71 -1700 VRB/05 RMK AO2
14837KMSN MSN20011225162009912/25/01 16:20:31  5-MIN KMSN 252220Z 28006KT 10SM BKN080 M08/M13 A2992 860 67 -1700 280/06 RMK AO2
14837KMSN MSN20011225162509912/25/01 16:25:31  5-MIN KMSN 252225Z 29007KT 10SM BKN080 M08/M12 A2992 860 71 -1700 280/07 RMK AO2
14837KMSN MSN20011225163009912/25/01 16:30:31  5-MIN KMSN 252230Z 27005KT 10SM BKN080 M08/M13 A2992 860 64 -1700 270/05 RMK AO2
14837KMSN MSN20011225163509912/25/01 16:35:31  5-MIN KMSN 252235Z VRB04KT 10SM BKN080 M08/M12 A2992 860 71 -1700 VRB/04 RMK AO2
14837KMSN MSN20011225164009912/25/01 16:40:31  5-MIN KMSN 252240Z 26005KT 10SM BKN075 M08/M13 A2992 860 70 -1700 260/05 RMK AO2
14837KMSN MSN20011225164509912/25/01 16:45:31  5-MIN KMSN 252245Z 26005KT 10SM BKN075 M08/M13 A2992 870 70 -1700 260/05 RMK AO2
14837KMSN MSN20011225165011612/25/01 16:50:31  5-MIN KMSN 252250Z 26004KT 10SM BKN075 M08/M13 A2992 870 70 -1700 260/04 RMK AO2 SLP148 T10831128
14837KMSN MSN20011225165509912/25/01 16:55:31  5-MIN KMSN 252255Z VRB03KT 10SM OVC075 M08/M13 A2992 870 70 -1700 VRB/03 RMK AO2
14837KMSN MSN20011225170009912/25/01 17:00:31  5-MIN KMSN 252300Z VRB05KT 10SM OVC075 M08/M13 A2992 870 70 -1700 VRB/05 RMK AO2
14837KMSN MSN20011225170509912/25/01 17:05:31  5-MIN KMSN 252305Z VRB04KT 10SM OVC075 M08/M12 A2992 860 74 -1700 VRB/04 RMK AO2
14837KMSN MSN20011225171009912/25/01 17:10:31  5-MIN KMSN 252310Z 27005KT 10SM BKN075 M08/M14 A2992 860 64 -1700 260/05 RMK AO2
14837KMSN MSN20011225171509912/25/01 17:15:31  5-MIN KMSN 252315Z VRB03KT 10SM BKN075 M08/M13 A2992 870 70 -1700 VRB/03 RMK AO2
14837KMSN MSN20011225172009912/25/01 17:20:31  5-MIN KMSN 252320Z VRB05KT 10SM BKN070 M08/M13 A2992 870 67 -1700 VRB/05 RMK AO2
14837KMSN MSN20011225172509912/25/01 17:25:31  5-MIN KMSN 252325Z 00000KT 10SM SCT070 M08/M13 A2992 870 70 -1700 000/00 RMK AO2
14837KMSN MSN20011225173009912/25/01 17:30:31  5-MIN KMSN 252330Z 25004KT 10SM FEW070 M09/M13 A2992 870 74 -1800 250/04 RMK AO2
14837KMSN MSN20011225173509912/25/01 17:35:31  5-MIN KMSN 252335Z VRB04KT 10SM FEW070 M09/M13 A2992 870 74 -1800 VRB/04 RMK AO2
14837KMSN MSN20011225174009612/25/01 17:40:31  5-MIN KMSN 252340Z 26004KT 10SM CLR M09/M13 A2992 870 74 -1800 260/04 RMK AO2
14837KMSN MSN20011225174509612/25/01 17:45:31  5-MIN KMSN 252345Z VRB03KT 10SM CLR M09/M13 A2992 870 74 -1800 VRB/03 RMK AO2
14837KMSN MSN20011225175013112/25/01 17:50:31  5-MIN KMSN 252350Z 25004KT 10SM CLR M09/M13 A2992 870 74 -1800 250/04 RMK AO2 SLP148 T10891128 11072 21089 55003
14837KMSN MSN20011225175509612/25/01 17:55:31  5-MIN KMSN 252355Z VRB05KT 10SM CLR M09/M13 A2992 870 74 -1800 VRB/05 RMK AO2
14837KMSN MSN20011225180009612/25/01 18:00:31  5-MIN KMSN 260000Z VRB05KT 10SM CLR M09/M13 A2992 870 74 -1800 VRB/05 RMK AO2
14837KMSN MSN20011225180509612/25/01 18:05:31  5-MIN KMSN 260005Z 26006KT 10SM CLR M09/M13 A2992 870 74 -1800 260/06 RMK AO2
14837KMSN MSN20011225181011212/25/01 18:10:31  5-MIN KMSN 260010Z 26007KT 220V290 10SM CLR M09/M13 A2992 870 74 -1800 260/07 220V290 RMK AO2
14837KMSN MSN20011225181509612/25/01 18:15:31  5-MIN KMSN 260015Z 27005KT 10SM CLR M09/M13 A2991 870 74 -1800 270/05 RMK AO2
14837KMSN MSN20011225182009612/25/01 18:20:31  5-MIN KMSN 260020Z 26006KT 10SM CLR M09/M13 A2992 870 74 -1800 260/06 RMK AO2
14837KMSN MSN20011225182509612/25/01 18:25:31  5-MIN KMSN 260025Z 27005KT 10SM CLR M09/M13 A2991 870 74 -1800 260/05 RMK AO2
14837KMSN MSN20011225183009612/25/01 18:30:31  5-MIN KMSN 260030Z 26006KT 10SM CLR M09/M13 A2991 870 70 -1800 260/06 RMK AO2
14837KMSN MSN20011225183509612/25/01 18:35:31  5-MIN KMSN 260035Z 27005KT 10SM CLR M09/M13 A2991 870 70 -1800 270/05 RMK AO2
14837KMSN MSN20011225184009612/25/01 18:40:31  5-MIN KMSN 260040Z 26006KT 10SM CLR M09/M13 A2991 870 70 -1800 260/06 RMK AO2
14837KMSN MSN20011225184509612/25/01 18:45:31  5-MIN KMSN 260045Z 26005KT 10SM CLR M09/M13 A2991 870 70 -1800 260/05 RMK AO2
14837KMSN MSN20011225185011312/25/01 18:50:31  5-MIN KMSN 260050Z 25005KT 10SM CLR M09/M13 A2991 870 70 -1800 250/05 RMK AO2 SLP145 T10891133
14837KMSN MSN20011225185509612/25/01 18:55:31  5-MIN KMSN 260055Z 27005KT 10SM CLR M09/M13 A2991 870 73 -1900 270/05 RMK AO2
14837KMSN MSN20011225190009612/25/01 19:00:31  5-MIN KMSN 260100Z 26004KT 10SM CLR M09/M13 A2991 880 77 -1900 260/04 RMK AO2
14837KMSN MSN20011225190509612/25/01 19:05:31  5-MIN KMSN 260105Z 26004KT 10SM CLR M09/M13 A2991 880 73 -1900 250/04 RMK AO2
14837KMSN MSN20011225191009612/25/01 19:10:31  5-MIN KMSN 260110Z 26005KT 10SM CLR M09/M13 A2991 880 73 -1900 250/05 RMK AO2
14837KMSN MSN20011225191509612/25/01 19:15:31  5-MIN KMSN 260115Z VRB05KT 10SM CLR M09/M14 A2991 880 70 -1900 VRB/05 RMK AO2
14837KMSN MSN20011225192009612/25/01 19:20:31  5-MIN KMSN 260120Z 26005KT 10SM CLR M09/M13 A2991 880 73 -1900 260/05 RMK AO2
14837KMSN MSN20011225192510612/25/01 19:25:31  5-MIN KMSN 260125Z 26005KT 10SM FEW070 SCT080 M09/M13 A2991 880 77 -1900 260/05 RMK AO2
14837KMSN MSN20011225193010612/25/01 19:30:31  5-MIN KMSN 260130Z 26006KT 10SM FEW070 SCT080 M09/M13 A2991 880 73 -1900 260/06 RMK AO2
14837KMSN MSN20011225193510612/25/01 19:35:31  5-MIN KMSN 260135Z 26005KT 10SM FEW070 SCT085 M09/M14 A2990 880 70 -1900 260/05 RMK AO2
14837KMSN MSN20011225194010612/25/01 19:40:31  5-MIN KMSN 260140Z VRB04KT 10SM FEW070 BKN085 M09/M13 A2990 880 73 -1900 VRB/04 RMK AO2
14837KMSN MSN20011225194510612/25/01 19:45:31  5-MIN KMSN 260145Z 27005KT 10SM FEW070 BKN085 M09/M13 A2990 880 73 -1900 270/05 RMK AO2
14837KMSN MSN20011225195012312/25/01 19:50:31  5-MIN KMSN 260150Z 27005KT 10SM FEW070 BKN085 M09/M13 A2990 880 73 -1900 270/05 RMK AO2 SLP144 T10941133
14837KMSN MSN20011225195509912/25/01 19:55:31  5-MIN KMSN 260155Z 27004KT 10SM SCT085 M09/M13 A2990 880 73 -1900 270/04 RMK AO2
14837KMSN MSN20011225200009912/25/01 20:00:31  5-MIN KMSN 260200Z 26005KT 10SM SCT085 M09/M13 A2990 880 73 -1900 260/05 RMK AO2
14837KMSN MSN20011225200509912/25/01 20:05:31  5-MIN KMSN 260205Z 27004KT 10SM SCT085 M10/M14 A2990 880 73 -1900 270/04 RMK AO2
14837KMSN MSN20011225201009912/25/01 20:10:31  5-MIN KMSN 260210Z 27003KT 10SM SCT085 M10/M13 A2990 880 77 -1900 270/03 RMK AO2
14837KMSN MSN20011225201509912/25/01 20:15:31  5-MIN KMSN 260215Z VRB04KT 10SM FEW085 M10/M14 A2990 890 73 -1900 VRB/04 RMK AO2
14837KMSN MSN20011225202009912/25/01 20:20:31  5-MIN KMSN 260220Z VRB04KT 10SM FEW085 M10/M13 A2990 890 77 -1900 VRB/04 RMK AO2
14837KMSN MSN20011225202509912/25/01 20:25:31  5-MIN KMSN 260225Z VRB04KT 10SM FEW085 M10/M13 A2990 890 77 -1900 VRB/04 RMK AO2
14837KMSN MSN20011225203009912/25/01 20:30:31  5-MIN KMSN 260230Z 27004KT 10SM FEW085 M10/M14 A2989 890 73 -1900 270/04 RMK AO2
14837KMSN MSN20011225203509612/25/01 20:35:31  5-MIN KMSN 260235Z 27005KT 10SM CLR M10/M13 A2989 890 77 -1900 270/05 RMK AO2
14837KMSN MSN20011225204009612/25/01 20:40:31  5-MIN KMSN 260240Z VRB05KT 10SM CLR M10/M13 A2989 890 77 -1900 VRB/05 RMK AO2
14837KMSN MSN20011225204509612/25/01 20:45:31  5-MIN KMSN 260245Z 26004KT 10SM CLR M10/M13 A2989 890 77 -1900 260/04 RMK AO2
14837KMSN MSN20011225205011912/25/01 20:50:31  5-MIN KMSN 260250Z 26004KT 10SM CLR M10/M14 A2989 890 73 -1900 260/04 RMK AO2 SLP139 T11001139 50000
14837KMSN MSN20011225205509912/25/01 20:55:31  5-MIN KMSN 260255Z 26006KT 10SM FEW080 M10/M14 A2989 890 73 -1900 250/06 RMK AO2
14837KMSN MSN20011225210009912/25/01 21:00:31  5-MIN KMSN 260300Z 27005KT 10SM FEW080 M10/M14 A2989 890 73 -1900 270/05 RMK AO2
14837KMSN MSN20011225210509912/25/01 21:05:31  5-MIN KMSN 260305Z 27004KT 10SM FEW080 M10/M14 A2989 890 73 -1900 270/04 RMK AO2
14837KMSN MSN20011225211009912/25/01 21:10:31  5-MIN KMSN 260310Z VRB04KT 10SM FEW080 M10/M14 A2989 890 73 -1900 VRB/04 RMK AO2
14837KMSN MSN20011225211509912/25/01 21:15:31  5-MIN KMSN 260315Z 27005KT 10SM FEW080 M10/M14 A2989 890 73 -1900 270/05 RMK AO2
14837KMSN MSN20011225212009912/25/01 21:20:31  5-MIN KMSN 260320Z 27005KT 10SM FEW090 M10/M13 A2989 890 77 -1900 270/05 RMK AO2
14837KMSN MSN20011225212509912/25/01 21:25:31  5-MIN KMSN 260325Z VRB05KT 10SM FEW090 M11/M14 A2989 890 77 -2000 VRB/05 RMK AO2
14837KMSN MSN20011225213009612/25/01 21:30:31  5-MIN KMSN 260330Z VRB05KT 10SM CLR M10/M14 A2989 890 73 -1900 VRB/05 RMK AO2
14837KMSN MSN20011225213509612/25/01 21:35:31  5-MIN KMSN 260335Z VRB04KT 10SM CLR M10/M14 A2989 890 70 -1900 VRB/04 RMK AO2
14837KMSN MSN20011225214009612/25/01 21:40:31  5-MIN KMSN 260340Z 27004KT 10SM CLR M11/M14 A2989 890 77 -2000 270/04 RMK AO2
14837KMSN MSN20011225214509612/25/01 21:45:31  5-MIN KMSN 260345Z 28005KT 10SM CLR M11/M14 A2989 890 77 -2000 280/05 RMK AO2
14837KMSN MSN20011225215011312/25/01 21:50:31  5-MIN KMSN 260350Z 28005KT 10SM CLR M11/M14 A2989 890 77 -2000 280/05 RMK AO2 SLP138 T11061139
14837KMSN MSN20011225215509612/25/01 21:55:31  5-MIN KMSN 260355Z 27004KT 10SM CLR M11/M14 A2989 900 77 -2000 270/04 RMK AO2
14837KMSN MSN20011225220009612/25/01 22:00:31  5-MIN KMSN 260400Z VRB04KT 10SM CLR M11/M14 A2989 900 77 -2000 VRB/04 RMK AO2
14837KMSN MSN20011225220509612/25/01 22:05:31  5-MIN KMSN 260405Z 27004KT 10SM CLR M11/M14 A2989 900 77 -2000 270/04 RMK AO2
14837KMSN MSN20011225221009612/25/01 22:10:31  5-MIN KMSN 260410Z 27005KT 10SM CLR M11/M14 A2988 900 77 -2000 270/05 RMK AO2
14837KMSN MSN20011225221509612/25/01 22:15:31  5-MIN KMSN 260415Z 27005KT 10SM CLR M11/M14 A2988 900 77 -2000 260/05 RMK AO2
14837KMSN MSN20011225222009612/25/01 22:20:31  5-MIN KMSN 260420Z 26005KT 10SM CLR M11/M14 A2988 900 73 -2000 260/05 RMK AO2
14837KMSN MSN20011225222509612/25/01 22:25:31  5-MIN KMSN 260425Z 27005KT 10SM CLR M11/M14 A2988 900 73 -2000 270/05 RMK AO2
14837KMSN MSN20011225223009612/25/01 22:30:31  5-MIN KMSN 260430Z 27005KT 10SM CLR M11/M14 A2988 900 77 -2000 270/05 RMK AO2
14837KMSN MSN20011225223509612/25/01 22:35:31  5-MIN KMSN 260435Z 27005KT 10SM CLR M11/M14 A2988 900 77 -2000 270/05 RMK AO2
14837KMSN MSN20011225224009612/25/01 22:40:31  5-MIN KMSN 260440Z 28006KT 10SM CLR M11/M14 A2988 900 77 -2000 280/06 RMK AO2
14837KMSN MSN20011225224509912/25/01 22:45:31  5-MIN KMSN 260445Z 27006KT 10SM FEW095 M11/M14 A2988 900 77 -2000 270/06 RMK AO2
14837KMSN MSN20011225225011612/25/01 22:50:31  5-MIN KMSN 260450Z 27005KT 10SM BKN095 M11/M13 A2988 910 80 -2000 270/05 RMK AO2 SLP133 T11061133
14837KMSN MSN20011225225509912/25/01 22:55:31  5-MIN KMSN 260455Z 26005KT 10SM SCT095 M11/M14 A2987 910 77 -2000 260/05 RMK AO2
14837KMSN MSN20011225230009912/25/01 23:00:31  5-MIN KMSN 260500Z 26006KT 10SM SCT095 M11/M14 A2987 910 77 -2000 260/06 RMK AO2
14837KMSN MSN20011225230509912/25/01 23:05:31  5-MIN KMSN 260505Z 26007KT 10SM SCT095 M10/M14 A2987 910 70 -1900 260/07 RMK AO2
14837KMSN MSN20011225231009912/25/01 23:10:31  5-MIN KMSN 260510Z 27006KT 10SM SCT095 M11/M14 A2987 910 77 -2000 270/06 RMK AO2
14837KMSN MSN20011225231509912/25/01 23:15:31  5-MIN KMSN 260515Z VRB06KT 10SM OVC090 M11/M14 A2987 910 77 -2000 VRB/06 RMK AO2
14837KMSN MSN20011225232009912/25/01 23:20:31  5-MIN KMSN 260520Z VRB06KT 10SM BKN090 M10/M14 A2987 910 73 -1900 VRB/06 RMK AO2
14837KMSN MSN20011225232509912/25/01 23:25:31  5-MIN KMSN 260525Z 26007KT 10SM BKN090 M10/M14 A2987 910 73 -1900 260/07 RMK AO2
14837KMSN MSN20011225233009912/25/01 23:30:31  5-MIN KMSN 260530Z 27007KT 10SM BKN090 M11/M14 A2987 910 77 -2000 270/07 RMK AO2
14837KMSN MSN20011225233509912/25/01 23:35:31  5-MIN KMSN 260535Z 27007KT 10SM BKN090 M11/M13 A2987 910 80 -2000 270/07 RMK AO2
14837KMSN MSN20011225234009912/25/01 23:40:31  5-MIN KMSN 260540Z 27007KT 10SM BKN090 M11/M14 A2987 910 73 -2000 270/07 RMK AO2
14837KMSN MSN20011225234509912/25/01 23:45:31  5-MIN KMSN 260545Z 26006KT 10SM BKN090 M11/M14 A2987 910 77 -2000 260/06 RMK AO2
14837KMSN MSN20011225235015112/25/01 23:50:31  5-MIN KMSN 260550Z 25006KT 10SM FEW021 SCT090 M11/M14 A2987 910 73 -2000 250/06 RMK AO2 SLP130 T11061144 11089 21106 410721133 58009
14837KMSN MSN20011225235509912/25/01 23:55:31  5-MIN KMSN 260555Z VRB05KT 10SM FEW021 M11/M14 A2987 910 77 -2000 VRB/05 RMK AO2
14837KMSN MSN20011226000010612/26/01 00:00:31  5-MIN KMSN 260600Z 25005KT 10SM FEW021 SCT050 M11/M14 A2986 920 73 -2000 250/05 RMK AO2
14837KMSN MSN20011226000510612/26/01 00:05:31  5-MIN KMSN 260605Z 26006KT 10SM FEW021 SCT050 M11/M14 A2986 920 73 -2000 260/06 RMK AO2
14837KMSN MSN20011226001009912/26/01 00:10:31  5-MIN KMSN 260610Z 26005KT 10SM FEW021 M11/M14 A2986 920 80 -2000 260/05 RMK AO2
14837KMSN MSN20011226001509912/26/01 00:15:31  5-MIN KMSN 260615Z 27005KT 10SM FEW050 M11/M14 A2986 920 77 -2000 270/05 RMK AO2
14837KMSN MSN20011226002009912/26/01 00:20:31  5-MIN KMSN 260620Z 26006KT 10SM FEW050 M11/M14 A2986 920 80 -2000 260/06 RMK AO2
14837KMSN MSN20011226002509912/26/01 00:25:31  5-MIN KMSN 260625Z 26006KT 10SM FEW050 M11/M14 A2986 920 80 -2000 260/06 RMK AO2
14837KMSN MSN20011226003009612/26/01 00:30:31  5-MIN KMSN 260630Z 27006KT 10SM CLR M11/M14 A2986 920 77 -2000 270/06 RMK AO2
14837KMSN MSN20011226003509612/26/01 00:35:31  5-MIN KMSN 260635Z 27005KT 10SM CLR M11/M15 A2986 920 73 -2000 270/05 RMK AO2
14837KMSN MSN20011226004009612/26/01 00:40:31  5-MIN KMSN 260640Z VRB05KT 10SM CLR M11/M14 A2986 920 77 -2000 VRB/05 RMK AO2
14837KMSN MSN20011226004509612/26/01 00:45:31  5-MIN KMSN 260645Z 27005KT 10SM CLR M11/M14 A2986 920 77 -2000 270/05 RMK AO2
14837KMSN MSN20011226005011312/26/01 00:50:31  5-MIN KMSN 260650Z VRB04KT 10SM CLR M12/M14 A2986 920 80 -2100 VRB/04 RMK AO2 SLP130 T11171144
14837KMSN MSN20011226005509612/26/01 00:55:31  5-MIN KMSN 260655Z VRB04KT 10SM CLR M12/M14 A2986 920 80 -2100 VRB/04 RMK AO2
14837KMSN MSN20011226010009612/26/01 01:00:31  5-MIN KMSN 260700Z VRB04KT 10SM CLR M12/M14 A2986 920 80 -2100 VRB/04 RMK AO2
14837KMSN MSN20011226010509612/26/01 01:05:31  5-MIN KMSN 260705Z 28005KT 10SM CLR M12/M14 A2986 920 80 -2100 280/05 RMK AO2
14837KMSN MSN20011226011009612/26/01 01:10:31  5-MIN KMSN 260710Z 27006KT 10SM CLR M12/M14 A2986 920 80 -2100 270/06 RMK AO2
14837KMSN MSN20011226011509912/26/01 01:15:31  5-MIN KMSN 260715Z 27006KT 10SM FEW090 M12/M14 A2986 920 80 -2100 270/06 RMK AO2
14837KMSN MSN20011226012010612/26/01 01:20:31  5-MIN KMSN 260720Z 27005KT 10SM FEW070 SCT090 M12/M15 A2986 920 76 -2100 270/05 RMK AO2
14837KMSN MSN20011226012510612/26/01 01:25:31  5-MIN KMSN 260725Z VRB05KT 10SM FEW070 BKN090 M12/M14 A2986 920 80 -2100 VRB/05 RMK AO2
14837KMSN MSN20011226013010612/26/01 01:30:31  5-MIN KMSN 260730Z VRB06KT 10SM FEW070 BKN090 M12/M14 A2986 920 80 -2100 VRB/06 RMK AO2
14837KMSN MSN20011226013510612/26/01 01:35:31  5-MIN KMSN 260735Z 27006KT 10SM FEW070 BKN090 M12/M14 A2986 920 80 -2100 270/06 RMK AO2
14837KMSN MSN20011226014010612/26/01 01:40:31  5-MIN KMSN 260740Z 27007KT 10SM FEW070 OVC090 M12/M14 A2986 920 80 -2100 270/07 RMK AO2
14837KMSN MSN20011226014510612/26/01 01:45:31  5-MIN KMSN 260745Z 27006KT 10SM FEW070 OVC090 M12/M14 A2986 920 80 -2100 270/06 RMK AO2
14837KMSN MSN20011226015011612/26/01 01:50:31  5-MIN KMSN 260750Z 27006KT 10SM OVC090 M12/M14 A2985 930 84 -2100 270/06 RMK AO2 SLP125 T11171139
14837KMSN MSN20011226015509812/26/01 01:55:31  5-MIN KMSN 260755Z 27005KT 9SM OVC090 M12/M14 A2985 930 80 -2100 270/05 RMK AO2
14837KMSN MSN20011226020009812/26/01 02:00:31  5-MIN KMSN 260800Z 27006KT 8SM OVC090 M12/M14 A2985 930 80 -2100 270/06 RMK AO2
14837KMSN MSN20011226020509812/26/01 02:05:31  5-MIN KMSN 260805Z 26005KT 8SM OVC090 M12/M15 A2985 930 76 -2100 260/05 RMK AO2
14837KMSN MSN20011226021010112/26/01 02:10:31  5-MIN KMSN 260810Z 26007KT 6SM HZ OVC090 M12/M14 A2985 930 80 -2100 260/07 RMK AO2
14837KMSN MSN20011226021510112/26/01 02:15:31  5-MIN KMSN 260815Z 27005KT 6SM HZ OVC090 M12/M14 A2985 930 80 -2100 270/05 RMK AO2
14837KMSN MSN20011226022010112/26/01 02:20:31  5-MIN KMSN 260820Z 26007KT 6SM HZ OVC090 M12/M14 A2984 940 80 -2100 260/07 RMK AO2
14837KMSN MSN20011226022509812/26/01 02:25:31  5-MIN KMSN 260825Z VRB05KT 7SM OVC095 M12/M14 A2984 940 80 -2100 VRB/05 RMK AO2
14837KMSN MSN20011226023009812/26/01 02:30:31  5-MIN KMSN 260830Z 28007KT 7SM OVC095 M12/M14 A2984 940 80 -2100 270/07 RMK AO2
14837KMSN MSN20011226023510112/26/01 02:35:31  5-MIN KMSN 260835Z 27007KT 6SM BR OVC095 M12/M14 A2984 940 84 -2100 270/07 RMK AO2
14837KMSN MSN20011226024010812/26/01 02:40:31  5-MIN KMSN 260840Z 27006KT 6SM HZ FEW060 OVC090 M12/M14 A2984 940 80 -2100 270/06 RMK AO2
14837KMSN MSN20011226024510812/26/01 02:45:31  5-MIN KMSN 260845Z 28005KT 6SM HZ SCT060 OVC095 M12/M14 A2984 940 80 -2100 270/05 RMK AO2
14837KMSN MSN20011226025013512/26/01 02:50:31  5-MIN KMSN 260850Z 28006KT 8SM FEW043 BKN060 OVC095 M12/M14 A2984 940 80 -2100 270/06 RMK AO2 SLP119 T11171144 58008
14837KMSN MSN20011226025511512/26/01 02:55:31  5-MIN KMSN 260855Z 28007KT 5SM BR FEW041 BKN060 OVC090 M12/M14 A2984 940 84 -2100 280/07 RMK AO2
14837KMSN MSN20011226030011512/26/01 03:00:31  5-MIN KMSN 260900Z 28006KT 4SM HZ FEW041 BKN060 OVC090 M12/M14 A2983 950 80 -2100 280/06 RMK AO2
14837KMSN MSN20011226030510812/26/01 03:05:31  5-MIN KMSN 260905Z 27007KT 4SM BR FEW036 OVC055 M12/M14 A2983 950 84 -2100 270/07 RMK AO2
14837KMSN MSN20011226031011512/26/01 03:10:31  5-MIN KMSN 260910Z 28006KT 4SM BR FEW034 SCT045 OVC055 M12/M14 A2983 950 84 -2100 280/06 RMK AO2
14837KMSN MSN20011226031512412/26/01 03:15:31  5-MIN KMSN 260915Z VRB06KT 4SM -SN BR SCT034 OVC055 M12/M14 A2982 950 84 -2100 VRB/06 RMK AO2 SNB11 P0000
14837KMSN MSN20011226032012412/26/01 03:20:31  5-MIN KMSN 260920Z 27005KT 4SM -SN BR SCT031 OVC050 M12/M14 A2982 960 84 -2100 270/05 RMK AO2 SNB11 P0000
14837KMSN MSN20011226032512812/26/01 03:25:31  5-MIN KMSN 260925Z 26005KT 5SM -SN SCT028 BKN042 OVC055 M12/M14 A2982 960 80 -2100 260/05 RMK AO2 SNB11 P0000
14837KMSN MSN20011226033012812/26/01 03:30:31  5-MIN KMSN 260930Z 26005KT 6SM -SN SCT026 BKN040 OVC050 M12/M14 A2982 960 80 -2000 260/05 RMK AO2 SNB11 P0000
14837KMSN MSN20011226033512812/26/01 03:35:31  5-MIN KMSN 260935Z VRB05KT 7SM -SN FEW028 BKN040 OVC055 M12/M15 A2981 960 76 -2000 VRB/05 RMK AO2 SNB11 P0000
14837KMSN MSN20011226034012812/26/01 03:40:31  5-MIN KMSN 260940Z 26006KT 8SM -SN FEW028 BKN042 OVC055 M12/M14 A2981 960 84 -2100 260/06 RMK AO2 SNB11 P0000
14837KMSN MSN20011226034512812/26/01 03:45:31  5-MIN KMSN 260945Z VRB04KT 9SM -SN FEW022 BKN060 OVC085 M12/M14 A2981 960 84 -2100 VRB/04 RMK AO2 SNB11 P0000
14837KMSN MSN20011226035014512/26/01 03:50:31  5-MIN KMSN 260950Z 26006KT 9SM -SN SCT041 BKN060 OVC085 M12/M14 A2981 960 84 -2100 260/06 RMK AO2 SNB11 SLP112 P0000 T11221144
14837KMSN MSN20011226035512212/26/01 03:55:31  5-MIN KMSN 260955Z VRB05KT 9SM -SN SCT041 BKN060 OVC085 M12/M15 A2981 970 80 -2100 VRB/05 RMK AO2 P0000
14837KMSN MSN20011226040012212/26/01 04:00:31  5-MIN KMSN 261000Z 25005KT 9SM -SN FEW041 BKN060 OVC085 M12/M14 A2981 970 87 -2100 250/05 RMK AO2 P0000
14837KMSN MSN20011226040512212/26/01 04:05:31  5-MIN KMSN 261005Z 26006KT 9SM -SN FEW048 BKN060 OVC085 M12/M15 A2981 970 80 -2100 250/06 RMK AO2 P0000
14837KMSN MSN20011226041012212/26/01 04:10:31  5-MIN KMSN 261010Z VRB04KT 9SM -SN FEW037 BKN060 OVC085 M12/M14 A2981 970 84 -2100 VRB/04 RMK AO2 P0000
14837KMSN MSN20011226041512212/26/01 04:15:31  5-MIN KMSN 261015Z 25006KT 8SM -SN FEW026 BKN048 OVC085 M12/M14 A2980 970 84 -2100 250/06 RMK AO2 P0000
14837KMSN MSN20011226042012212/26/01 04:20:31  5-MIN KMSN 261020Z 26006KT 8SM -SN SCT026 BKN035 OVC060 M12/M14 A2980 970 84 -2100 260/06 RMK AO2 P0000
14837KMSN MSN20011226042512212/26/01 04:25:31  5-MIN KMSN 261025Z 26006KT 9SM -SN SCT024 BKN035 OVC060 M12/M15 A2980 970 80 -2100 260/06 RMK AO2 P0000
14837KMSN MSN20011226043012412/26/01 04:30:31  5-MIN KMSN 261030Z 26005KT 9SM SCT022 BKN035 OVC060 M12/M14 A2980 970 84 -2100 260/05 RMK AO2 SNE30 P0000
14837KMSN MSN20011226043512412/26/01 04:35:31  5-MIN KMSN 261035Z 26005KT 9SM SCT020 BKN033 OVC060 M12/M15 A2980 970 80 -2100 260/05 RMK AO2 SNE30 P0000
14837KMSN MSN20011226044012512/26/01 04:40:31  5-MIN KMSN 261040Z VRB05KT 10SM FEW020 BKN040 OVC080 M12/M14 A2980 980 84 -2100 VRB/05 RMK AO2 SNE30 P0000
14837KMSN MSN20011226044512512/26/01 04:45:31  5-MIN KMSN 261045Z 26006KT 10SM FEW020 BKN060 OVC090 M12/M14 A2980 980 84 -2100 260/06 RMK AO2 SNE30 P0000
14837KMSN MSN20011226045014212/26/01 04:50:31  5-MIN KMSN 261050Z 27007KT 10SM FEW020 BKN045 OVC090 M12/M14 A2980 980 84 -2100 270/07 RMK AO2 SNE30 SLP107 P0000 T11221144
14837KMSN MSN20011226045511312/26/01 04:55:31  5-MIN KMSN 261055Z 27005KT 10SM FEW020 BKN045 OVC080 M12/M15 A2980 980 80 -2100 270/05 RMK AO2
14837KMSN MSN20011226050010512/26/01 05:00:31  5-MIN KMSN 261100Z 27006KT 9SM SCT045 OVC070 M12/M16 A2980 980 76 -2100 270/06 RMK AO2
14837KMSN MSN20011226050510512/26/01 05:05:31  5-MIN KMSN 261105Z 27006KT 9SM BKN047 OVC070 M12/M15 A2980 980 80 -2100 270/06 RMK AO2
14837KMSN MSN20011226051011212/26/01 05:10:31  5-MIN KMSN 261110Z VRB05KT 9SM FEW028 BKN047 OVC065 M12/M15 A2980 980 80 -2100 VRB/05 RMK AO2
14837KMSN MSN20011226051511212/26/01 05:15:31  5-MIN KMSN 261115Z 27006KT 7SM FEW022 BKN047 OVC065 M12/M14 A2980 980 84 -2100 270/06 RMK AO2
14837KMSN MSN20011226052013112/26/01 05:20:31  5-MIN KMSN 261120Z 26006KT 5SM -SN BR FEW022 BKN047 OVC070 M12/M14 A2980 980 84 -2100 260/06 RMK AO2 SNB16 P0000
14837KMSN MSN20011226052512812/26/01 05:25:31  5-MIN KMSN 261125Z 27006KT 4SM -SN FEW022 BKN047 OVC055 M12/M17 A2980 980 70 -2100 270/06 RMK AO2 SNB16 P0000
14837KMSN MSN20011226053012812/26/01 05:30:31  5-MIN KMSN 261130Z VRB06KT 4SM -SN FEW022 BKN037 OVC055 M12/M17 A2980 980 67 -2100 VRB/06 RMK AO2 SNB16 P0000
14837KMSN MSN20011226053512812/26/01 05:35:31  5-MIN KMSN 261135Z 27006KT 3SM -SN FEW022 BKN050 OVC055 M13/M17 A2980 980 70 -2200 270/06 RMK AO2 SNB16 P0000
14837KMSN MSN20011226054012812/26/01 05:40:31  5-MIN KMSN 261140Z 27007KT 4SM -SN FEW022 BKN050 OVC055 M13/M16 A2980 980 80 -2200 270/07 RMK AO2 SNB16 P0000
14837KMSN MSN20011226054513012/26/01 05:45:31  5-MIN KMSN 261145Z 28007KT 6SM HZ FEW038 BKN050 OVC055 M13/M16 A2980 980 80 -2200 270/07 RMK AO2 SNB16E42 P0000
14837KMSN MSN20011226055016812/26/01 05:50:31  5-MIN KMSN 261150Z 28006KT 8SM SCT040 BKN048 OVC055 M13/M15 A2980 970 84 -2200 280/06 RMK AO2 SNB16E42 SLP109 P0000 60000 T11281150 11106 21128 58010
14837KMSN MSN20011226055512212/26/01 05:55:31  5-MIN KMSN 261155Z 28008KT 7SM -SN SCT038 BKN048 OVC055 M13/M15 A2980 970 84 -2200 280/08 RMK AO2 P0000
14837KMSN MSN20011226060012512/26/01 06:00:31  5-MIN KMSN 261200Z 27006KT 4SM -SN BR FEW036 BKN046 OVC055 M13/M15 A2980 970 84 -2200 270/06 RMK AO2 P0000
14837KMSN MSN20011226060512512/26/01 06:05:31  5-MIN KMSN 261205Z 28005KT 4SM -SN BR FEW027 BKN046 OVC055 M13/M15 A2980 970 84 -2200 270/05 RMK AO2 P0000
14837KMSN MSN20011226061012212/26/01 06:10:31  5-MIN KMSN 261210Z 28005KT 7SM -SN FEW029 BKN048 OVC055 M13/M15 A2980 970 84 -2200 280/05 RMK AO2 P0000
14837KMSN MSN20011226061512212/26/01 06:15:31  5-MIN KMSN 261215Z 28006KT 7SM -SN FEW029 BKN036 OVC048 M13/M15 A2980 970 84 -2200 280/06 RMK AO2 P0000
14837KMSN MSN20011226062012212/26/01 06:20:31  5-MIN KMSN 261220Z 28007KT 7SM -SN FEW023 BKN036 OVC048 M13/M15 A2980 970 84 -2200 280/07 RMK AO2 P0000
14837KMSN MSN20011226062511512/26/01 06:25:31  5-MIN KMSN 261225Z 28007KT 7SM -SN BKN036 OVC048 M13/M15 A2980 970 84 -2200 280/07 RMK AO2 P0000
14837KMSN MSN20011226063011512/26/01 06:30:31  5-MIN KMSN 261230Z 28007KT 7SM -SN BKN036 OVC048 M13/M16 A2981 970 80 -2200 280/07 RMK AO2 P0000
14837KMSN MSN20011226063511512/26/01 06:35:31  5-MIN KMSN 261235Z 28006KT 8SM -SN BKN036 OVC049 M13/M15 A2980 970 84 -2200 280/06 RMK AO2 P0000
14837KMSN MSN20011226064011512/26/01 06:40:31  5-MIN KMSN 261240Z 28004KT 8SM -SN FEW010 OVC036 M13/M16 A2980 970 80 -2200 280/04 RMK AO2 P0000
14837KMSN MSN20011226064512212/26/01 06:45:31  5-MIN KMSN 261245Z 28007KT 7SM -SN SCT010 SCT017 OVC036 M13/M16 A2980 970 80 -2200 280/07 RMK AO2 P0000
14837KMSN MSN20011226065013912/26/01 06:50:31  5-MIN KMSN 261250Z 28007KT 7SM -SN FEW010 BKN017 OVC036 M13/M16 A2980 970 83 -2300 280/07 RMK AO2 SLP109 P0000 T11331156
14837KMSN MSN20011226065512212/26/01 06:55:31  5-MIN KMSN 261255Z VRB05KT 7SM -SN FEW010 BKN017 OVC036 M13/M16 A2980 980 83 -2300 VRB/05 RMK AO2 P0000
14837KMSN MSN20011226070012212/26/01 07:00:31  5-MIN KMSN 261300Z 27006KT 7SM -SN FEW010 BKN017 OVC036 M13/M16 A2980 970 83 -2300 270/06 RMK AO2 P0000
14837KMSN MSN20011226070511512/26/01 07:05:31  5-MIN KMSN 261305Z 27005KT 8SM -SN FEW010 OVC017 M13/M16 A2980 970 83 -2300 270/05 RMK AO2 P0000
14837KMSN MSN20011226071011512/26/01 07:10:31  5-MIN KMSN 261310Z 26005KT 8SM -SN FEW010 OVC017 M13/M16 A2980 980 83 -2300 260/05 RMK AO2 P0000
14837KMSN MSN20011226071510812/26/01 07:15:31  5-MIN KMSN 261315Z 27005KT 8SM -SN OVC017 M13/M16 A2980 970 83 -2300 270/05 RMK AO2 P0000
14837KMSN MSN20011226072010812/26/01 07:20:31  5-MIN KMSN 261320Z 28004KT 8SM -SN OVC017 M13/M16 A2980 970 80 -2300 270/04 RMK AO2 P0000
14837KMSN MSN20011226072510812/26/01 07:25:31  5-MIN KMSN 261325Z VRB04KT 8SM -SN OVC017 M13/M16 A2980 970 83 -2300 VRB/04 RMK AO2 P0000
14837KMSN MSN20011226073010812/26/01 07:30:31  5-MIN KMSN 261330Z 27005KT 7SM -SN OVC017 M13/M16 A2980 970 83 -2300 270/05 RMK AO2 P0000
14837KMSN MSN20011226073511112/26/01 07:35:31  5-MIN KMSN 261335Z 27004KT 6SM -SN BR OVC017 M13/M15 A2980 970 87 -2300 270/04 RMK AO2 P0000
14837KMSN MSN20011226074011812/26/01 07:40:31  5-MIN KMSN 261340Z 27004KT 5SM -SN BR FEW006 OVC017 M13/M16 A2980 970 83 -2300 270/04 RMK AO2 P0000
14837KMSN MSN20011226074512512/26/01 07:45:31  5-MIN KMSN 261345Z 27004KT 6SM -SN BR FEW006 BKN017 OVC060 M13/M16 A2980 970 83 -2300 270/04 RMK AO2 P0000
14837KMSN MSN20011226075013912/26/01 07:50:31  5-MIN KMSN 261350Z 26004KT 8SM -SN FEW006 BKN017 OVC070 M13/M16 A2980 970 83 -2300 260/04 RMK AO2 SLP110 P0000 T11331156
14837KMSN MSN20011226075512212/26/01 07:55:31  5-MIN KMSN 261355Z 27005KT 7SM -SN FEW006 SCT017 OVC070 M13/M16 A2980 970 83 -2300 270/05 RMK AO2 P0000
14837KMSN MSN20011226080012212/26/01 08:00:31  5-MIN KMSN 261400Z 26004KT 8SM -SN FEW006 SCT017 OVC070 M13/M16 A2980 970 83 -2300 260/04 RMK AO2 P0000
14837KMSN MSN20011226080512212/26/01 08:05:31  5-MIN KMSN 261405Z 27005KT 8SM -SN FEW006 BKN075 OVC100 M13/M15 A2980 970 84 -2200 270/05 RMK AO2 P0000
14837KMSN MSN20011226081012312/26/01 08:10:31  5-MIN KMSN 261410Z 27006KT 10SM -SN FEW006 BKN075 BKN100 M13/M15 A2980 970 84 -2200 270/06 RMK AO2 P0000
14837KMSN MSN20011226081512312/26/01 08:15:31  5-MIN KMSN 261415Z VRB04KT 10SM -SN FEW006 BKN075 BKN100 M13/M16 A2980 970 80 -2200 VRB/04 RMK AO2 P0000
14837KMSN MSN20011226082012312/26/01 08:20:31  5-MIN KMSN 261420Z 27005KT 10SM -SN FEW006 BKN075 BKN100 M13/M15 A2980 980 84 -2200 270/05 RMK AO2 P0000
14837KMSN MSN20011226082513112/26/01 08:25:31  5-MIN KMSN 261425Z 28007KT 250V310 7SM -SN SCT070 OVC095 M13/M15 A2980 980 84 -2200 280/07 250V310 RMK AO2 P0000
14837KMSN MSN20011226083012212/26/01 08:30:31  5-MIN KMSN 261430Z VRB05KT 7SM -SN FEW060 SCT070 OVC095 M13/M15 A2980 980 84 -2200 VRB/05 RMK AO2 P0000
14837KMSN MSN20011226083511512/26/01 08:35:31  5-MIN KMSN 261435Z 27005KT 7SM -SN SCT070 OVC095 M13/M16 A2980 980 80 -2200 270/05 RMK AO2 P0000
14837KMSN MSN20011226084011512/26/01 08:40:31  5-MIN KMSN 261440Z 27005KT 6SM -SN BKN070 OVC095 M12/M15 A2980 980 80 -2100 270/05 RMK AO2 P0000
14837KMSN MSN20011226084512212/26/01 08:45:31  5-MIN KMSN 261445Z VRB05KT 6SM -SN FEW047 BKN065 OVC095 M12/M15 A2980 980 80 -2100 VRB/05 RMK AO2 P0000
14837KMSN MSN20011226085015112/26/01 08:50:31  5-MIN KMSN 261450Z VRB05KT 6SM -SN FEW047 BKN070 OVC095 M12/M15 A2980 980 80 -2100 VRB/05 RMK AO2 SLP107 P0000 60000 T11221150 55011
14837KMSN MSN20011226085513212/26/01 08:55:31  5-MIN KMSN 261455Z VRB04KT 3SM -SN FEW043 BKN055 OVC070 M12/M15 A2980 980 80 -2100 VRB/04 RMK AO2 SFC VIS 5 P0000
14837KMSN MSN20011226090013512/26/01 09:00:31  5-MIN KMSN 261500Z 28006KT 3SM -SN BR FEW043 BKN055 OVC070 M12/M14 A2980 980 84 -2100 280/06 RMK AO2 SFC VIS 4 P0000
14837KMSN MSN20011226090513612/26/01 09:05:31  5-MIN KMSN 261505Z VRB05KT 2 1/2SM -SN FEW028 BKN055 OVC070 M12/M15 A2980 980 80 -2100 VRB/05 RMK AO2 SFC VIS 3 P0000
14837KMSN MSN20011226091012612/26/01 09:10:31  5-MIN KMSN 261510Z VRB05KT 2 1/2SM -SN FEW028 SCT039 OVC055 M12/M15 A2980 980 80 -2100 VRB/05 RMK AO2 P0000
14837KMSN MSN20011226091512612/26/01 09:15:31  5-MIN KMSN 261515Z 27005KT 2 1/2SM -SN FEW032 SCT041 BKN055 M12/M15 A2979 980 80 -2100 270/05 RMK AO2 P0000
14837KMSN MSN20011226092012612/26/01 09:20:31  5-MIN KMSN 261520Z 29005KT 2 1/2SM -SN FEW032 SCT041 BKN055 M12/M15 A2979 980 76 -2000 290/05 RMK AO2 P0000
14837KMSN MSN20011226092513612/26/01 09:25:31  5-MIN KMSN 261525Z 28007KT 2 1/2SM -SN SCT026 BKN039 OVC055 M12/M15 A2979 980 76 -2000 280/07 RMK AO2 SFC VIS 4 P0000
14837KMSN MSN20011226093013612/26/01 09:30:31  5-MIN KMSN 261530Z 28006KT 2 1/2SM -SN SCT026 BKN039 OVC050 M12/M15 A2979 990 76 -2000 280/06 RMK AO2 SFC VIS 4 P0000
14837KMSN MSN20011226093512212/26/01 09:35:31  5-MIN KMSN 261535Z 27005KT 5SM -SN FEW026 BKN044 OVC090 M12/M15 A2979 990 76 -2000 270/05 RMK AO2 P0000
14837KMSN MSN20011226094012212/26/01 09:40:31  5-MIN KMSN 261540Z 28006KT 6SM -SN FEW026 BKN044 OVC090 M12/M15 A2979 990 76 -2000 280/06 RMK AO2 P0000
14837KMSN MSN20011226094512212/26/01 09:45:31  5-MIN KMSN 261545Z 25006KT 7SM -SN FEW026 SCT041 OVC090 M12/M14 A2979 990 80 -2000 250/06 RMK AO2 P0000
14837KMSN MSN20011226095013912/26/01 09:50:31  5-MIN KMSN 261550Z 29006KT 8SM -SN FEW031 SCT041 OVC090 M12/M15 A2979 990 76 -2000 280/06 RMK AO2 SLP105 P0000 T11171150
14837KMSN MSN20011226095512212/26/01 09:55:31  5-MIN KMSN 261555Z 28007KT 8SM -SN FEW036 SCT050 OVC090 M12/M15 A2979 990 76 -2000 280/07 RMK AO2 P0000
14837KMSN MSN20011226100012212/26/01 10:00:31  5-MIN KMSN 261600Z 28006KT 7SM -SN SCT036 BKN048 OVC090 M12/M15 A2979 990 76 -2000 280/06 RMK AO2 P0000
14837KMSN MSN20011226100512212/26/01 10:05:31  5-MIN KMSN 261605Z 29007KT 4SM -SN SCT036 BKN048 OVC090 M12/M15 A2979 990 76 -2000 290/07 RMK AO2 P0000
14837KMSN MSN20011226101012212/26/01 10:10:31  5-MIN KMSN 261610Z 28006KT 4SM -SN SCT036 BKN050 OVC090 M12/M15 A2978 990 76 -2000 280/06 RMK AO2 P0000
14837KMSN MSN20011226101512212/26/01 10:15:31  5-MIN KMSN 261615Z 27007KT 5SM -SN FEW036 BKN050 OVC090 M12/M15 A2978 990 76 -2000 270/07 RMK AO2 P0000
14837KMSN MSN20011226102012212/26/01 10:20:31  5-MIN KMSN 261620Z 25006KT 6SM -SN FEW017 BKN048 OVC090 M12/M15 A2978 990 76 -2000 250/06 RMK AO2 P0000
14837KMSN MSN20011226102512312/26/01 10:25:31  5-MIN KMSN 261625Z 27006KT 6SM -SN FEW017 SCT035 OVC048 M12/M15 A2978 1000 76 -2000 270/06 RMK AO2 P0000
14837KMSN MSN20011226103012312/26/01 10:30:31  5-MIN KMSN 261630Z 29008KT 7SM -SN FEW017 SCT037 OVC048 M11/M14 A2977 1000 77 -1900 290/08 RMK AO2 P0000
14837KMSN MSN20011226103512512/26/01 10:35:31  5-MIN KMSN 261635Z 29007KT 8SM FEW017 SCT037 BKN048 M11/M14 A2977 1000 77 -1900 290/07 RMK AO2 SNE32 P0000
14837KMSN MSN20011226104012512/26/01 10:40:31  5-MIN KMSN 261640Z 25007KT 8SM FEW017 SCT037 BKN048 M11/M15 A2977 1000 73 -1900 250/07 RMK AO2 SNE32 P0000
14837KMSN MSN20011226104512612/26/01 10:45:31  5-MIN KMSN 261645Z 27006KT 10SM FEW017 SCT037 SCT050 M11/M15 A2977 1010 73 -1900 260/06 RMK AO2 SNE32 P0000
14837KMSN MSN20011226105015912/26/01 10:50:31  5-MIN KMSN 261650Z 27007KT 230V290 10SM FEW017 SCT037 SCT050 M11/M15 A2976 1010 73 -1900 270/07 230V290 RMK AO2 SNE32 SLP096 P0000 T11111150
14837KMSN MSN20011226105510712/26/01 10:55:31  5-MIN KMSN 261655Z VRB06KT 10SM BKN037 BKN050 M11/M15 A2976 1010 73 -1900 VRB/06 RMK AO2
14837KMSN MSN20011226110010712/26/01 11:00:31  5-MIN KMSN 261700Z 26007KT 10SM BKN037 BKN050 M11/M15 A2976 1020 73 -1900 260/07 RMK AO2
14837KMSN MSN20011226110510712/26/01 11:05:31  5-MIN KMSN 261705Z 28008KT 10SM BKN037 BKN050 M11/M15 A2976 1020 73 -1900 280/08 RMK AO2
14837KMSN MSN20011226111012912/26/01 11:10:31  5-MIN KMSN 261710Z 25006KT 7SM -SN FEW019 BKN037 OVC050 M11/M15 A2975 1020 73 -1900 250/06 RMK AO2 SNB08 P0000
14837KMSN MSN20011226111512912/26/01 11:15:31  5-MIN KMSN 261715Z 27007KT 6SM -SN FEW019 BKN037 OVC050 M11/M14 A2975 1030 73 -1800 270/07 RMK AO2 SNB08 P0000
14837KMSN MSN20011226112012912/26/01 11:20:31  5-MIN KMSN 261720Z 28007KT 7SM -SN FEW019 SCT037 OVC050 M11/M14 A2974 1030 73 -1800 270/07 RMK AO2 SNB08 P0000
14837KMSN MSN20011226112512912/26/01 11:25:31  5-MIN KMSN 261725Z 28007KT 7SM -SN FEW019 SCT037 OVC050 M11/M14 A2974 1030 73 -1800 280/07 RMK AO2 SNB08 P0000
14837KMSN MSN20011226113012912/26/01 11:30:31  5-MIN KMSN 261730Z 26008KT 7SM -SN SCT019 BKN037 OVC048 M11/M15 A2974 1030 70 -1800 260/08 RMK AO2 SNB08 P0000
14837KMSN MSN20011226113512912/26/01 11:35:31  5-MIN KMSN 261735Z 28008KT 8SM -SN SCT019 BKN029 OVC048 M11/M16 A2974 1030 67 -1800 280/08 RMK AO2 SNB08 P0000
14837KMSN MSN20011226114012912/26/01 11:40:31  5-MIN KMSN 261740Z 29008KT 8SM -SN SCT019 BKN029 OVC048 M11/M15 A2973 1040 70 -1800 290/08 RMK AO2 SNB08 P0000
14837KMSN MSN20011226114512912/26/01 11:45:31  5-MIN KMSN 261745Z 27008KT 8SM -SN SCT021 BKN029 OVC048 M11/M16 A2973 1040 67 -1800 270/08 RMK AO2 SNB08 P0000
14837KMSN MSN20011226115018612/26/01 11:50:31  5-MIN KMSN 261750Z 26007KT 220V290 10SM SCT021 BKN029 BKN046 M11/M16 A2973 1040 67 -1800 260/07 220V290 RMK AO2 SNB08E49 SLP083 P0000 60000 T11061156 11106 21133 58002
14837KMSN MSN20011226115511412/26/01 11:55:31  5-MIN KMSN 261755Z 28008KT 10SM SCT021 BKN029 OVC046 M11/M16 A2972 1050 67 -1800 280/08 RMK AO2
14837KMSN MSN20011226120011412/26/01 12:00:31  5-MIN KMSN 261800Z 26007KT 10SM SCT021 BKN027 OVC046 M11/M16 A2972 1050 67 -1800 260/07 RMK AO2
14837KMSN MSN20011226120511412/26/01 12:05:31  5-MIN KMSN 261805Z 28008KT 10SM SCT021 BKN027 OVC046 M11/M14 A2972 1050 73 -1800 280/08 RMK AO2
14837KMSN MSN20011226121011412/26/01 12:10:31  5-MIN KMSN 261810Z 27006KT 10SM BKN021 BKN027 OVC046 M11/M15 A2972 1050 70 -1800 270/06 RMK AO2
14837KMSN MSN20011226121511412/26/01 12:15:31  5-MIN KMSN 261815Z VRB05KT 10SM BKN023 BKN027 OVC046 M11/M15 A2972 1050 70 -1800 VRB/05 RMK AO2
14837KMSN MSN20011226122010712/26/01 12:20:31  5-MIN KMSN 261820Z 27006KT 10SM BKN021 OVC027 M11/M16 A2971 1060 67 -1800 270/06 RMK AO2
14837KMSN MSN20011226122511612/26/01 12:25:31  5-MIN KMSN 261825Z 25007KT 220V280 10SM OVC021 M11/M15 A2971 1060 70 -1800 250/07 220V280 RMK AO2
14837KMSN MSN20011226123011512/26/01 12:30:31  5-MIN KMSN 261830Z 26008KT 6SM -SN OVC021 M11/M15 A2971 1060 70 -1800 260/08 RMK AO2 SNB28 P0000
14837KMSN MSN20011226123511512/26/01 12:35:31  5-MIN KMSN 261835Z 27008KT 6SM -SN OVC023 M11/M15 A2971 1060 70 -1800 270/08 RMK AO2 SNB28 P0000
14837KMSN MSN20011226124011512/26/01 12:40:31  5-MIN KMSN 261840Z 28010KT 5SM -SN OVC023 M11/M15 A2971 1060 70 -1800 280/10 RMK AO2 SNB28 P0000
14837KMSN MSN20011226124511512/26/01 12:45:31  5-MIN KMSN 261845Z 28009KT 5SM -SN OVC023 M11/M15 A2971 1060 70 -1800 280/09 RMK AO2 SNB28 P0000
14837KMSN MSN20011226125013212/26/01 12:50:31  5-MIN KMSN 261850Z 27007KT 5SM -SN OVC023 M11/M14 A2970 1070 73 -1800 270/07 RMK AO2 SNB28 SLP076 P0000 T11061144
14837KMSN MSN20011226125510912/26/01 12:55:31  5-MIN KMSN 261855Z 28007KT 6SM -SN OVC023 M10/M15 A2970 1060 67 -1700 280/07 RMK AO2 P0000
14837KMSN MSN20011226130010912/26/01 13:00:31  5-MIN KMSN 261900Z 27009KT 7SM -SN OVC023 M11/M15 A2970 1070 70 -1800 270/09 RMK AO2 P0000
14837KMSN MSN20011226130510912/26/01 13:05:31  5-MIN KMSN 261905Z 28007KT 7SM -SN OVC023 M10/M15 A2970 1060 67 -1700 280/07 RMK AO2 P0000
14837KMSN MSN20011226131010912/26/01 13:10:31  5-MIN KMSN 261910Z 27009KT 8SM -SN OVC023 M10/M15 A2970 1070 67 -1700 270/09 RMK AO2 P0000
14837KMSN MSN20011226131511512/26/01 13:15:31  5-MIN KMSN 261915Z 28010G15KT 8SM -SN OVC023 M11/M15 A2970 1070 70 -1800 280/10G15 RMK AO2 P0000
14837KMSN MSN20011226132011512/26/01 13:20:31  5-MIN KMSN 261920Z 27007G15KT 6SM -SN OVC025 M11/M15 A2970 1070 70 -1800 270/07G15 RMK AO2 P0000
14837KMSN MSN20011226132512512/26/01 13:25:31  5-MIN KMSN 261925Z 28007KT 230V310 6SM -SN OVC025 M10/M15 A2970 1070 67 -1700 280/07 230V310 RMK AO2 P0000
14837KMSN MSN20011226133010912/26/01 13:30:31  5-MIN KMSN 261930Z 27007KT 8SM -SN OVC025 M10/M15 A2971 1060 67 -1700 270/07 RMK AO2 P0000
14837KMSN MSN20011226133512512/26/01 13:35:31  5-MIN KMSN 261935Z 27007KT 230V310 8SM -SN OVC025 M10/M14 A2970 1070 70 -1700 260/07 230V310 RMK AO2 P0000
14837KMSN MSN20011226134011512/26/01 13:40:31  5-MIN KMSN 261940Z 26009G16KT 6SM -SN OVC025 M10/M15 A2970 1070 67 -1700 260/09G16 RMK AO2 P0000
14837KMSN MSN20011226134513112/26/01 13:45:31  5-MIN KMSN 261945Z 27008G16KT 240V300 4SM -SN OVC027 M10/M15 A2970 1070 67 -1700 270/08G16 240V300 RMK AO2 P0000
14837KMSN MSN20011226135012612/26/01 13:50:31  5-MIN KMSN 261950Z VRB06KT 5SM -SN OVC027 M10/M15 A2970 1070 67 -1700 VRB/06 RMK AO2 SLP074 P0000 T11001150
14837KMSN MSN20011226135511612/26/01 13:55:31  5-MIN KMSN 261955Z 28008KT 5SM -SN FEW023 OVC029 M10/M14 A2971 1060 70 -1700 280/08 RMK AO2 P0000
14837KMSN MSN20011226140012212/26/01 14:00:31  5-MIN KMSN 262000Z 29011G14KT 5SM -SN FEW020 OVC029 M10/M14 A2971 1060 70 -1700 290/11G14 RMK AO2 P0000
14837KMSN MSN20011226140514212/26/01 14:05:31  5-MIN KMSN 262005Z 27009G16KT 230V310 2 1/2SM -SN FEW018 OVC029 M10/M14 A2971 1060 73 -1700 270/09G16 230V310 RMK AO2 P0000
14837KMSN MSN20011226141012612/26/01 14:10:31  5-MIN KMSN 262010Z 27006G16KT 2 1/2SM -SN FEW018 OVC029 M10/M14 A2971 1060 70 -1700 270/06G16 RMK AO2 P0000
14837KMSN MSN20011226141514312/26/01 14:15:31  5-MIN KMSN 262015Z 27009G15KT 2 1/2SM -SN FEW018 BKN027 OVC032 M10/M15 A2971 1060 67 -1700 260/09G15 RMK AO2 SFC VIS 5 P0000
14837KMSN MSN20011226142012912/26/01 14:20:31  5-MIN KMSN 262020Z 27009G15KT 5SM -SN FEW018 BKN027 OVC032 M10/M15 A2971 1060 67 -1700 270/09G15 RMK AO2 P0000
14837KMSN MSN20011226142512912/26/01 14:25:31  5-MIN KMSN 262025Z 27011G15KT 5SM -SN FEW018 BKN025 OVC032 M10/M16 A2970 1070 64 -1700 270/11G15 RMK AO2 P0000
14837KMSN MSN20011226143011812/26/01 14:30:31  5-MIN KMSN 262030Z 28009KT 8SM FEW018 BKN029 M10/M15 A2970 1070 67 -1700 280/09 RMK AO2 SNE29 P0000
14837KMSN MSN20011226143511812/26/01 14:35:31  5-MIN KMSN 262035Z 26008KT 8SM FEW018 BKN029 M10/M16 A2970 1070 64 -1700 260/08 RMK AO2 SNE29 P0000
14837KMSN MSN20011226144011812/26/01 14:40:31  5-MIN KMSN 262040Z 26007KT 8SM FEW018 BKN029 M10/M15 A2970 1070 67 -1700 260/07 RMK AO2 SNE29 P0000
14837KMSN MSN20011226144511912/26/01 14:45:31  5-MIN KMSN 262045Z 26007KT 10SM BKN024 BKN029 M10/M15 A2970 1070 67 -1700 260/07 RMK AO2 SNE29 P0000
14837KMSN MSN20011226145015412/26/01 14:50:31  5-MIN KMSN 262050Z 25008G16KT 10SM BKN024 BKN029 M10/M15 A2970 1070 67 -1700 250/08G16 RMK AO2 SNE29 SLP075 P0000 60000 T11001150 58023
14837KMSN MSN20011226145512912/26/01 14:55:31  5-MIN KMSN 262055Z 26007G16KT 220V280 10SM FEW021 OVC029 M10/M15 A2970 1070 67 -1700 260/07G16 220V280 RMK AO2
14837KMSN MSN20011226150010012/26/01 15:00:31  5-MIN KMSN 262100Z 25006KT 10SM OVC027 M10/M15 A2970 1070 67 -1700 250/06 RMK AO2
14837KMSN MSN20011226150509912/26/01 15:05:31  5-MIN KMSN 262105Z VRB06KT 9SM BKN027 M10/M14 A2970 1070 70 -1700 VRB/06 RMK AO2
14837KMSN MSN20011226151010012/26/01 15:10:31  5-MIN KMSN 262110Z VRB05KT 10SM BKN027 M10/M14 A2969 1070 70 -1700 VRB/05 RMK AO2
14837KMSN MSN20011226151513212/26/01 15:15:31  5-MIN KMSN 262115Z 27007KT 230V300 10SM -SN BKN027 M10/M14 A2969 1070 70 -1700 270/07 230V300 RMK AO2 SNB12 P0000
14837KMSN MSN20011226152011512/26/01 15:20:31  5-MIN KMSN 262120Z 27007KT 8SM -SN BKN027 M10/M15 A2969 1080 67 -1700 270/07 RMK AO2 SNB12 P0000
14837KMSN MSN20011226152511512/26/01 15:25:31  5-MIN KMSN 262125Z 28007KT 8SM -SN BKN027 M10/M14 A2969 1080 70 -1700 280/07 RMK AO2 SNB12 P0000
14837KMSN MSN20011226165013212/26/01 16:50:31  5-MIN KMSN 262250Z 26006KT 10SM OVC026 M10/M14 A2969 1080 73 -1700 260/06 RMK AO2 SNB11E33 SLP071 P0000 T11001139
14837KMSN MSN20011226165510012/26/01 16:55:31  5-MIN KMSN 262255Z 26007KT 10SM OVC026 M10/M14 A2969 1080 70 -1700 260/07 RMK AO2
14837KMSN MSN20011226170010012/26/01 17:00:31  5-MIN KMSN 262300Z 26006KT 10SM OVC026 M10/M15 A2969 1080 67 -1700 260/06 RMK AO2
14837KMSN MSN20011226170510012/26/01 17:05:31  5-MIN KMSN 262305Z 26005KT 10SM OVC026 M10/M14 A2969 1080 70 -1700 260/05 RMK AO2
14837KMSN MSN20011226171010012/26/01 17:10:31  5-MIN KMSN 262310Z VRB05KT 10SM OVC026 M10/M14 A2968 1080 70 -1700 VRB/05 RMK AO2
14837KMSN MSN20011226171510012/26/01 17:15:31  5-MIN KMSN 262315Z 26006KT 10SM OVC026 M10/M14 A2968 1080 73 -1700 260/06 RMK AO2
14837KMSN MSN20011226172010012/26/01 17:20:31  5-MIN KMSN 262320Z 24004KT 10SM OVC026 M10/M14 A2968 1090 70 -1700 240/04 RMK AO2
14837KMSN MSN20011226172510012/26/01 17:25:31  5-MIN KMSN 262325Z VRB05KT 10SM BKN026 M10/M14 A2968 1090 73 -1700 VRB/05 RMK AO2
14837KMSN MSN20011226173010012/26/01 17:30:31  5-MIN KMSN 262330Z 25005KT 10SM BKN026 M10/M14 A2968 1090 70 -1700 250/05 RMK AO2
14837KMSN MSN20011226173510012/26/01 17:35:31  5-MIN KMSN 262335Z VRB06KT 10SM SCT024 M10/M14 A2968 1080 70 -1700 VRB/06 RMK AO2
14837KMSN MSN20011226174010012/26/01 17:40:31  5-MIN KMSN 262340Z VRB06KT 10SM FEW024 M10/M15 A2968 1080 67 -1700 VRB/06 RMK AO2
14837KMSN MSN20011226174510012/26/01 17:45:31  5-MIN KMSN 262345Z 26005KT 10SM FEW024 M10/M14 A2968 1080 70 -1700 250/05 RMK AO2
14837KMSN MSN20011226175014412/26/01 17:50:31  5-MIN KMSN 262350Z VRB05KT 10SM CLR M10/M14 A2968 1080 70 -1700 VRB/05 RMK AO2 SLP069 4/002 60000 T11001144 11100 21106 56008
14837KMSN MSN20011226175511312/26/01 17:55:31  5-MIN KMSN 262355Z 25007KT 210V280 10SM CLR M10/M14 A2968 1080 73 -1700 250/07 210V280 RMK AO2
14837KMSN MSN20011226180010012/26/01 18:00:31  5-MIN KMSN 270000Z VRB05KT 10SM FEW025 M10/M14 A2968 1080 70 -1700 VRB/05 RMK AO2
14837KMSN MSN20011226180511612/26/01 18:05:31  5-MIN KMSN 270005Z 24007KT 210V280 10SM SCT025 M10/M14 A2968 1080 73 -1700 240/07 210V280 RMK AO2
14837KMSN MSN20011226181011612/26/01 18:10:31  5-MIN KMSN 270010Z 25008KT 220V280 10SM BKN025 M10/M14 A2968 1080 73 -1700 250/08 220V280 RMK AO2
14837KMSN MSN20011226181510012/26/01 18:15:31  5-MIN KMSN 270015Z VRB06KT 10SM BKN025 M10/M14 A2968 1090 73 -1700 VRB/06 RMK AO2
14837KMSN MSN20011226182010012/26/01 18:20:31  5-MIN KMSN 270020Z 25008KT 10SM OVC025 M10/M14 A2968 1090 73 -1700 250/08 RMK AO2
14837KMSN MSN20011226182510012/26/01 18:25:31  5-MIN KMSN 270025Z 25006KT 10SM OVC023 M10/M14 A2968 1090 70 -1700 250/06 RMK AO2
14837KMSN MSN20011226183011612/26/01 18:30:31  5-MIN KMSN 270030Z 26007KT 210V280 10SM OVC023 M10/M14 A2968 1090 73 -1700 250/07 210V280 RMK AO2
14837KMSN MSN20011226183511612/26/01 18:35:31  5-MIN KMSN 270035Z 24008KT 220V280 10SM OVC023 M10/M14 A2968 1090 73 -1700 240/08 220V280 RMK AO2
14837KMSN MSN20011226184011612/26/01 18:40:31  5-MIN KMSN 270040Z 25007KT 220V280 10SM BKN023 M10/M14 A2968 1090 73 -1700 250/07 220V280 RMK AO2
14837KMSN MSN20011226184510012/26/01 18:45:31  5-MIN KMSN 270045Z VRB05KT 10SM BKN023 M10/M14 A2968 1090 73 -1700 VRB/05 RMK AO2
14837KMSN MSN20011226185011712/26/01 18:50:31  5-MIN KMSN 270050Z 25006KT 10SM SCT023 M10/M13 A2968 1090 77 -1700 250/06 RMK AO2 SLP068 T11001133
14837KMSN MSN20011226185510712/26/01 18:55:31  5-MIN KMSN 270055Z 25007KT 10SM FEW017 SCT023 M10/M14 A2968 1090 73 -1700 250/07 RMK AO2
14837KMSN MSN20011226190012312/26/01 19:00:31  5-MIN KMSN 270100Z 25007KT 220V280 10SM SCT017 BKN023 M10/M14 A2968 1090 73 -1700 250/07 220V280 RMK AO2
14837KMSN MSN20011226190510712/26/01 19:05:31  5-MIN KMSN 270105Z 25006KT 10SM SCT017 BKN023 M10/M14 A2967 1090 73 -1700 250/06 RMK AO2
14837KMSN MSN20011226191014512/26/01 19:10:31  5-MIN KMSN 270110Z 24008KT 210V280 8SM -SN FEW017 SCT023 BKN038 M10/M14 A2967 1090 73 -1700 240/08 210V280 RMK AO2 SNB10 P0000
14837KMSN MSN20011226191514512/26/01 19:15:31  5-MIN KMSN 270115Z 25007KT 220V280 7SM -SN FEW017 SCT025 BKN035 M10/M13 A2967 1100 77 -1700 250/07 220V280 RMK AO2 SNB10 P0000
14837KMSN MSN20011226192012912/26/01 19:20:31  5-MIN KMSN 270120Z 25008KT 7SM -SN FEW017 BKN035 OVC100 M10/M13 A2967 1100 77 -1700 250/08 RMK AO2 SNB10 P0000
14837KMSN MSN20011226192512912/26/01 19:25:31  5-MIN KMSN 270125Z 25006KT 8SM -SN SCT020 BKN050 OVC060 M10/M13 A2967 1100 77 -1700 250/06 RMK AO2 SNB10 P0000
14837KMSN MSN20011226193012912/26/01 19:30:31  5-MIN KMSN 270130Z 25008KT 7SM -SN FEW024 BKN050 OVC060 M10/M13 A2967 1100 77 -1700 250/08 RMK AO2 SNB10 P0000
14837KMSN MSN20011226193512912/26/01 19:35:31  5-MIN KMSN 270135Z 25008KT 5SM -SN FEW029 SCT043 OVC060 M10/M13 A2967 1100 80 -1700 250/08 RMK AO2 SNB10 P0000
14837KMSN MSN20011226194012912/26/01 19:40:31  5-MIN KMSN 270140Z 25007KT 5SM -SN FEW031 BKN060 OVC080 M10/M13 A2967 1100 80 -1700 250/07 RMK AO2 SNB10 P0000
14837KMSN MSN20011226194512912/26/01 19:45:31  5-MIN KMSN 270145Z VRB05KT 7SM -SN FEW048 BKN060 OVC080 M10/M13 A2966 1100 80 -1700 VRB/05 RMK AO2 SNB10 P0000
14837KMSN MSN20011226195014612/26/01 19:50:31  5-MIN KMSN 270150Z VRB06KT 8SM -SN FEW040 BKN060 OVC080 M10/M13 A2966 1100 77 -1700 VRB/06 RMK AO2 SNB10 SLP062 P0000 T11001133
14837KMSN MSN20011226195512312/26/01 19:55:31  5-MIN KMSN 270155Z VRB05KT 7SM -SN SCT036 BKN060 OVC080 M09/M13 A2966 1100 77 -1600 VRB/05 RMK AO2 P0000
14837KMSN MSN20011226200012312/26/01 20:00:31  5-MIN KMSN 270200Z 25006KT 7SM -SN BKN036 BKN055 OVC080 M09/M13 A2966 1100 77 -1600 250/06 RMK AO2 P0000
14837KMSN MSN20011226200512312/26/01 20:05:31  5-MIN KMSN 270205Z VRB06KT 8SM -SN BKN034 BKN055 OVC080 M09/M13 A2966 1100 77 -1600 VRB/06 RMK AO2 P0000
14837KMSN MSN20011226201011612/26/01 20:10:31  5-MIN KMSN 270210Z 26005KT 8SM -SN BKN034 OVC060 M09/M13 A2966 1110 77 -1600 260/05 RMK AO2 P0000
14837KMSN MSN20011226201511612/26/01 20:15:31  5-MIN KMSN 270215Z 26006KT 7SM -SN BKN034 OVC045 M09/M13 A2966 1110 77 -1600 260/06 RMK AO2 P0000
14837KMSN MSN20011226202013912/26/01 20:20:31  5-MIN KMSN 270220Z 25007KT 210V290 6SM -SN FEW024 BKN034 OVC045 M09/M12 A2966 1110 80 -1600 250/07 210V290 RMK AO2 P0000
14837KMSN MSN20011226202512312/26/01 20:25:31  5-MIN KMSN 270225Z 25004KT 4SM -SN SCT024 BKN034 OVC045 M09/M12 A2966 1110 80 -1600 250/04 RMK AO2 P0000
14837KMSN MSN20011226203011612/26/01 20:30:31  5-MIN KMSN 270230Z 25006KT 7SM -SN BKN024 OVC032 M09/M12 A2966 1110 80 -1600 250/06 RMK AO2 P0000
14837KMSN MSN20011226203511612/26/01 20:35:31  5-MIN KMSN 270235Z 26005KT 7SM -SN BKN024 OVC032 M09/M12 A2966 1110 80 -1600 260/05 RMK AO2 P0000
14837KMSN MSN20011226204011612/26/01 20:40:31  5-MIN KMSN 270240Z 25006KT 7SM -SN BKN022 OVC047 M09/M12 A2966 1110 80 -1600 250/06 RMK AO2 P0000
14837KMSN MSN20011226204511612/26/01 20:45:31  5-MIN KMSN 270245Z VRB06KT 7SM -SN BKN022 OVC080 M09/M12 A2965 1110 84 -1600 VRB/06 RMK AO2 P0000
14837KMSN MSN20011226205014512/26/01 20:50:31  5-MIN KMSN 270250Z 25006KT 8SM -SN BKN022 OVC080 M09/M12 A2965 1110 80 -1500 250/06 RMK AO2 SLP058 P0000 60000 T10891117 58006
14837KMSN MSN20011226205513212/26/01 20:55:31  5-MIN KMSN 270255Z 25008KT 220V280 6SM -SN SCT022 OVC080 M09/M12 A2965 1110 77 -1500 250/08 220V280 RMK AO2 P0000
14837KMSN MSN20011226210011612/26/01 21:00:31  5-MIN KMSN 270300Z 27007KT 6SM -SN FEW022 OVC080 M09/M12 A2965 1110 80 -1500 270/07 RMK AO2 P0000
14837KMSN MSN20011226210512312/26/01 21:05:31  5-MIN KMSN 270305Z VRB05KT 5SM -SN FEW022 SCT070 OVC080 M09/M12 A2965 1120 80 -1500 VRB/05 RMK AO2 P0000
14837KMSN MSN20011226211011612/26/01 21:10:31  5-MIN KMSN 270310Z VRB06KT 4SM -SN SCT065 OVC080 M09/M12 A2965 1120 80 -1500 VRB/06 RMK AO2 P0000
14837KMSN MSN20011226211513912/26/01 21:15:31  5-MIN KMSN 270315Z 25007KT 230V290 4SM -SN FEW026 SCT065 OVC080 M09/M12 A2965 1120 80 -1500 250/07 230V290 RMK AO2 P0000
14837KMSN MSN20011226212012312/26/01 21:20:31  5-MIN KMSN 270320Z 27005KT 3SM -SN SCT026 BKN070 OVC090 M09/M12 A2965 1120 80 -1500 270/05 RMK AO2 P0000
14837KMSN MSN20011226212512712/26/01 21:25:31  5-MIN KMSN 270325Z VRB05KT 2 1/2SM -SN SCT026 BKN070 OVC090 M09/M12 A2964 1120 80 -1500 VRB/05 RMK AO2 P0000
14837KMSN MSN20011226213012612/26/01 21:30:31  5-MIN KMSN 270330Z VRB05KT 4SM -SN BR FEW026 BKN070 OVC085 M09/M11 A2964 1120 84 -1500 VRB/05 RMK AO2 P0000
14837KMSN MSN20011226213511612/26/01 21:35:31  5-MIN KMSN 270335Z VRB06KT 4SM -SN FEW026 OVC065 M08/M11 A2964 1120 80 -1400 VRB/06 RMK AO2 P0000
14837KMSN MSN20011226214011612/26/01 21:40:31  5-MIN KMSN 270340Z VRB06KT 4SM -SN FEW026 OVC065 M08/M12 A2964 1120 77 -1400 VRB/06 RMK AO2 P0000
14837KMSN MSN20011226214512312/26/01 21:45:31  5-MIN KMSN 270345Z 26006KT 4SM -SN FEW026 BKN060 OVC075 M08/M11 A2964 1130 80 -1400 260/06 RMK AO2 P0000
14837KMSN MSN20011226215015612/26/01 21:50:31  5-MIN KMSN 270350Z 25007KT 230V290 6SM -SN FEW045 BKN060 OVC075 M08/M11 A2964 1130 80 -1400 250/07 230V290 RMK AO2 SLP052 P0000 T10831111
14837KMSN MSN20011226215511912/26/01 21:55:31  5-MIN KMSN 270355Z 26006KT 6SM -SN BR FEW045 OVC060 M08/M11 A2964 1130 84 -1400 260/06 RMK AO2 P0000
14837KMSN MSN20011226220011612/26/01 22:00:31  5-MIN KMSN 270400Z 26005KT 6SM -SN FEW045 OVC060 M08/M11 A2963 1130 80 -1400 260/05 RMK AO2 P0000
14837KMSN MSN20011226220511912/26/01 22:05:31  5-MIN KMSN 270405Z 26005KT 6SM -SN BR FEW045 OVC060 M08/M11 A2963 1130 84 -1400 260/05 RMK AO2 P0000
14837KMSN MSN20011226221011912/26/01 22:10:31  5-MIN KMSN 270410Z VRB05KT 6SM -SN BR FEW047 OVC060 M08/M11 A2963 1130 84 -1400 VRB/05 RMK AO2 P0000
14837KMSN MSN20011226221511612/26/01 22:15:31  5-MIN KMSN 270415Z VRB06KT 6SM -SN SCT050 OVC060 M08/M11 A2963 1130 80 -1400 VRB/06 RMK AO2 P0000
14837KMSN MSN20011226222011912/26/01 22:20:31  5-MIN KMSN 270420Z 27006KT 6SM -SN BR SCT048 OVC060 M08/M11 A2963 1130 84 -1400 270/06 RMK AO2 P0000
14837KMSN MSN20011226222511912/26/01 22:25:31  5-MIN KMSN 270425Z VRB06KT 6SM -SN BR SCT050 OVC060 M08/M11 A2963 1130 84 -1400 VRB/06 RMK AO2 P0000
14837KMSN MSN20011226223011212/26/01 22:30:31  5-MIN KMSN 270430Z VRB05KT 6SM -SN BR OVC055 M08/M11 A2963 1130 84 -1400 VRB/05 RMK AO2 P0000
14837KMSN MSN20011226223511212/26/01 22:35:31  5-MIN KMSN 270435Z 26005KT 6SM -SN BR OVC055 M08/M11 A2963 1130 84 -1400 260/05 RMK AO2 P0000
14837KMSN MSN20011226224011612/26/01 22:40:31  5-MIN KMSN 270440Z 26005KT 7SM -SN BKN055 OVC070 M08/M10 A2963 1140 88 -1400 260/05 RMK AO2 P0000
14837KMSN MSN20011226224511612/26/01 22:45:31  5-MIN KMSN 270445Z 26005KT 7SM -SN SCT048 OVC065 M08/M10 A2963 1140 88 -1400 260/05 RMK AO2 P0000
14837KMSN MSN20011226225013612/26/01 22:50:31  5-MIN KMSN 270450Z VRB05KT 7SM -SN BR SCT048 OVC065 M08/M10 A2962 1140 88 -1400 VRB/05 RMK AO2 SLP047 P0000 T10831100
14837KMSN MSN20011226225512612/26/01 22:55:31  5-MIN KMSN 270455Z VRB04KT 4SM -SN BR SCT048 BKN060 OVC080 M08/M10 A2962 1140 88 -1400 VRB/04 RMK AO2 P0000
14837KMSN MSN20011226230012612/26/01 23:00:31  5-MIN KMSN 270500Z VRB04KT 3SM -SN BR SCT046 BKN060 OVC080 M08/M10 A2962 1140 88 -1400 VRB/04 RMK AO2 P0000
14837KMSN MSN20011226230511912/26/01 23:05:31  5-MIN KMSN 270505Z 25005KT 5SM -SN BR SCT046 OVC060 M08/M11 A2962 1140 84 -1400 250/05 RMK AO2 P0000
14837KMSN MSN20011226231011912/26/01 23:10:31  5-MIN KMSN 270510Z 25006KT 5SM -SN BR BKN046 OVC060 M08/M10 A2962 1140 88 -1400 250/06 RMK AO2 P0000
14837KMSN MSN20011226231512612/26/01 23:15:31  5-MIN KMSN 270515Z VRB05KT 6SM -SN BR BKN046 BKN060 OVC080 M08/M10 A2962 1150 88 -1400 VRB/05 RMK AO2 P0000
14837KMSN MSN20011226232012612/26/01 23:20:31  5-MIN KMSN 270520Z 25005KT 6SM -SN BR SCT046 BKN060 OVC095 M08/M10 A2961 1150 84 -1300 250/05 RMK AO2 P0000
14837KMSN MSN20011226232512612/26/01 23:25:31  5-MIN KMSN 270525Z 25006KT 6SM -SN BR SCT048 BKN060 OVC090 M08/M10 A2961 1150 84 -1300 250/06 RMK AO2 P0000
14837KMSN MSN20011226233012612/26/01 23:30:31  5-MIN KMSN 270530Z VRB05KT 6SM -SN BR SCT050 SCT065 OVC090 M08/M10 A2961 1150 84 -1300 VRB/05 RMK AO2 P0000
14837KMSN MSN20011226233511912/26/01 23:35:31  5-MIN KMSN 270535Z 25006KT 6SM -SN BR SCT055 OVC085 M08/M10 A2961 1150 84 -1300 250/06 RMK AO2 P0000
14837KMSN MSN20011226234011912/26/01 23:40:31  5-MIN KMSN 270540Z 25005KT 5SM -SN BR FEW060 OVC090 M08/M09 A2961 1150 88 -1300 240/05 RMK AO2 P0000
14837KMSN MSN20011226234511912/26/01 23:45:31  5-MIN KMSN 270545Z 25007KT 5SM -SN BR SCT060 OVC085 M08/M10 A2961 1150 84 -1300 250/07 RMK AO2 P0000
14837KMSN MSN20011226235016712/26/01 23:50:31  5-MIN KMSN 270550Z VRB05KT 8SM -SN SCT070 OVC085 M08/M10 A2961 1160 84 -1300 VRB/05 RMK AO2 SLP041 P0000 60000 T10781100 11078 21100 410781133 58010
14837KMSN MSN20011226235512312/26/01 23:55:31  5-MIN KMSN 270555Z VRB05KT 7SM -SN SCT060 BKN075 OVC090 M08/M10 A2961 1160 84 -1300 VRB/05 RMK AO2 P0000
14837KMSN MSN20011227000012312/27/01 00:00:31  5-MIN KMSN 270600Z 25006KT 7SM -SN BKN060 BKN075 OVC090 M08/M09 A2960 1160 88 -1300 250/06 RMK AO2 P0000
14837KMSN MSN20011227000511612/27/01 00:05:31  5-MIN KMSN 270605Z VRB06KT 7SM -SN SCT050 OVC070 M08/M09 A2960 1160 88 -1300 VRB/06 RMK AO2 P0000
14837KMSN MSN20011227001012312/27/01 00:10:31  5-MIN KMSN 270610Z 24007KT 7SM -SN BKN043 BKN060 OVC075 M08/M10 A2960 1160 84 -1300 240/07 RMK AO2 P0000
14837KMSN MSN20011227001513212/27/01 00:15:31  5-MIN KMSN 270615Z 24007KT 210V270 7SM -SN BKN040 OVC070 M08/M09 A2960 1160 88 -1300 240/07 210V270 RMK AO2 P0000
14837KMSN MSN20011227002011912/27/01 00:20:31  5-MIN KMSN 270620Z 24007KT 6SM -SN BR BKN038 OVC065 M08/M10 A2960 1160 84 -1300 240/07 RMK AO2 P0000
14837KMSN MSN20011227002512612/27/01 00:25:31  5-MIN KMSN 270625Z VRB05KT 6SM -SN BR BKN036 BKN050 OVC070 M08/M09 A2960 1160 88 -1300 VRB/05 RMK AO2 P0000
14837KMSN MSN20011227003012312/27/01 00:30:31  5-MIN KMSN 270630Z 24006KT 7SM -SN BKN034 BKN050 OVC090 M08/M09 A2960 1160 88 -1300 240/06 RMK AO2 P0000
14837KMSN MSN20011227003513912/27/01 00:35:31  5-MIN KMSN 270635Z 25007KT 210V280 9SM -SN BKN032 BKN050 OVC090 M08/M09 A2960 1160 88 -1300 250/07 210V280 RMK AO2 P0000
14837KMSN MSN20011227004012312/27/01 00:40:31  5-MIN KMSN 270640Z VRB05KT 7SM -SN BKN030 BKN035 OVC090 M07/M09 A2960 1160 84 -1200 VRB/05 RMK AO2 P0000
14837KMSN MSN20011227004512312/27/01 00:45:31  5-MIN KMSN 270645Z 25007KT 8SM -SN BKN032 BKN040 OVC090 M07/M09 A2960 1170 84 -1200 250/07 RMK AO2 P0000
14837KMSN MSN20011227005014012/27/01 00:50:31  5-MIN KMSN 270650Z VRB06KT 9SM -SN SCT032 BKN038 OVC085 M07/M09 A2959 1170 84 -1200 VRB/06 RMK AO2 SLP037 P0000 T10721094
14837KMSN MSN20011227005512312/27/01 00:55:31  5-MIN KMSN 270655Z VRB06KT 8SM -SN SCT032 BKN046 OVC085 M07/M09 A2959 1170 84 -1200 VRB/06 RMK AO2 P0000
14837KMSN MSN20011227010012312/27/01 01:00:31  5-MIN KMSN 270700Z 25007KT 7SM -SN SCT030 BKN048 OVC060 M07/M09 A2959 1170 84 -1200 250/07 RMK AO2 P0000
14837KMSN MSN20011227010512612/27/01 01:05:31  5-MIN KMSN 270705Z VRB06KT 6SM -SN BR FEW030 SCT042 OVC060 M07/M09 A2959 1170 84 -1200 VRB/06 RMK AO2 P0000
14837KMSN MSN20011227011011912/27/01 01:10:31  5-MIN KMSN 270710Z VRB06KT 4SM -SN BR FEW042 OVC055 M07/M09 A2959 1170 84 -1200 VRB/06 RMK AO2 P0000
14837KMSN MSN20011227011512812/27/01 01:15:31  5-MIN KMSN 270715Z 24007KT 210V270 3SM -SN BR BKN060 M07/M09 A2959 1170 84 -1200 240/07 210V270 RMK AO2 P0000
14837KMSN MSN20011227012011212/27/01 01:20:31  5-MIN KMSN 270720Z 25008KT 4SM -SN BR OVC060 M07/M09 A2959 1170 88 -1200 250/08 RMK AO2 P0000
14837KMSN MSN20011227012511912/27/01 01:25:31  5-MIN KMSN 270725Z VRB05KT 4SM -SN BR FEW025 OVC060 M07/M09 A2959 1170 84 -1200 VRB/05 RMK AO2 P0000
14837KMSN MSN20011227013012612/27/01 01:30:31  5-MIN KMSN 270730Z 26007KT 4SM -SN BR SCT025 SCT034 OVC060 M07/M09 A2959 1170 84 -1200 260/07 RMK AO2 P0000
14837KMSN MSN20011227013512612/27/01 01:35:31  5-MIN KMSN 270735Z 26007KT 4SM -SN BR SCT025 BKN032 OVC060 M07/M09 A2959 1180 84 -1200 260/07 RMK AO2 P0000
14837KMSN MSN20011227014012612/27/01 01:40:31  5-MIN KMSN 270740Z 26006KT 4SM -SN BR SCT025 BKN032 OVC060 M07/M09 A2959 1180 88 -1200 260/06 RMK AO2 P0000
14837KMSN MSN20011227014512612/27/01 01:45:31  5-MIN KMSN 270745Z 26008KT 4SM -SN BR SCT025 BKN032 OVC060 M07/M09 A2959 1180 84 -1200 260/08 RMK AO2 P0000
14837KMSN MSN20011227015015212/27/01 01:50:31  5-MIN KMSN 270750Z 26007KT 230V300 6SM -SN BR BKN025 OVC030 M07/M09 A2959 1170 88 -1200 260/07 230V300 RMK AO2 SLP034 P0000 T10721089
14837KMSN MSN20011227015512612/27/01 01:55:31  5-MIN KMSN 270755Z VRB05KT 5SM -SN BR SCT016 BKN025 OVC030 M07/M09 A2959 1170 84 -1200 VRB/05 RMK AO2 P0000
14837KMSN MSN20011227020012612/27/01 02:00:31  5-MIN KMSN 270800Z 26007KT 5SM -SN BR BKN018 BKN025 OVC030 M07/M09 A2958 1180 88 -1200 260/07 RMK AO2 P0000
14837KMSN MSN20011227020512612/27/01 02:05:31  5-MIN KMSN 270805Z 27007KT 6SM -SN BR BKN018 BKN025 OVC030 M07/M09 A2959 1180 88 -1200 270/07 RMK AO2 P0000
14837KMSN MSN20011227021011612/27/01 02:10:31  5-MIN KMSN 270810Z 26008KT 8SM -SN BKN018 OVC025 M07/M09 A2959 1170 84 -1100 260/08 RMK AO2 P0000
14837KMSN MSN20011227021510912/27/01 02:15:31  5-MIN KMSN 270815Z 27006KT 9SM -SN OVC018 M07/M08 A2959 1170 88 -1100 270/06 RMK AO2 P0000
14837KMSN MSN20011227022011112/27/01 02:20:31  5-MIN KMSN 270820Z VRB06KT 9SM OVC016 M07/M09 A2959 1170 84 -1100 VRB/06 RMK AO2 SNE19 P0000
14837KMSN MSN20011227022512812/27/01 02:25:31  5-MIN KMSN 270825Z 29007KT 250V320 10SM OVC016 M07/M09 A2959 1170 84 -1100 290/07 250V320 RMK AO2 SNE19 P0000
14837KMSN MSN20011227023011212/27/01 02:30:31  5-MIN KMSN 270830Z 29007KT 10SM OVC016 M07/M09 A2959 1170 84 -1100 290/07 RMK AO2 SNE19 P0000
14837KMSN MSN20011227023511212/27/01 02:35:31  5-MIN KMSN 270835Z 29008KT 10SM OVC016 M07/M08 A2959 1170 88 -1100 290/08 RMK AO2 SNE19 P0000
14837KMSN MSN20011227024011212/27/01 02:40:31  5-MIN KMSN 270840Z 29006KT 10SM OVC014 M07/M08 A2959 1170 88 -1100 290/06 RMK AO2 SNE19 P0000
14837KMSN MSN20011227024511212/27/01 02:45:31  5-MIN KMSN 270845Z 28005KT 10SM OVC014 M07/M08 A2959 1170 88 -1100 280/05 RMK AO2 SNE19 P0000
14837KMSN MSN20011227025014112/27/01 02:50:31  5-MIN KMSN 270850Z 29008KT 10SM OVC014 M07/M08 A2959 1170 88 -1100 280/08 RMK AO2 SNE19 SLP035 P0000 60000 T10671083 58015
14837KMSN MSN20011227025510012/27/01 02:55:31  5-MIN KMSN 270855Z 28006KT 10SM OVC014 M07/M08 A2959 1170 88 -1100 280/06 RMK AO2
14837KMSN MSN20011227030010012/27/01 03:00:31  5-MIN KMSN 270900Z 28007KT 10SM OVC014 M07/M08 A2959 1180 88 -1100 280/07 RMK AO2
14837KMSN MSN20011227030510012/27/01 03:05:31  5-MIN KMSN 270905Z VRB06KT 10SM OVC014 M07/M08 A2958 1180 88 -1100 VRB/06 RMK AO2
14837KMSN MSN20011227031011612/27/01 03:10:31  5-MIN KMSN 270910Z 29007KT 230V310 10SM OVC014 M07/M08 A2958 1180 88 -1100 290/07 230V310 RMK AO2
14837KMSN MSN20011227031510012/27/01 03:15:31  5-MIN KMSN 270915Z VRB06KT 10SM OVC012 M06/M08 A2958 1180 84 -1000 VRB/06 RMK AO2
14837KMSN MSN20011227032010012/27/01 03:20:31  5-MIN KMSN 270920Z 29010KT 10SM OVC012 M06/M08 A2958 1180 84 -1000 290/10 RMK AO2
14837KMSN MSN20011227032510012/27/01 03:25:31  5-MIN KMSN 270925Z 28007KT 10SM OVC012 M06/M08 A2958 1180 84 -1000 280/07 RMK AO2
14837KMSN MSN20011227033010012/27/01 03:30:31  5-MIN KMSN 270930Z 29009KT 10SM OVC012 M06/M08 A2958 1180 84 -1000 290/09 RMK AO2
14837KMSN MSN20011227033510012/27/01 03:35:31  5-MIN KMSN 270935Z 29008KT 10SM OVC012 M06/M08 A2958 1180 84 -1000 290/08 RMK AO2
14837KMSN MSN20011227034010012/27/01 03:40:31  5-MIN KMSN 270940Z 28005KT 10SM OVC012 M06/M08 A2958 1180 84 -1000 280/05 RMK AO2
14837KMSN MSN20011227034510012/27/01 03:45:31  5-MIN KMSN 270945Z 29007KT 10SM OVC012 M06/M08 A2958 1180 84 -1000 290/07 RMK AO2
14837KMSN MSN20011227035011712/27/01 03:50:31  5-MIN KMSN 270950Z 29005KT 10SM OVC012 M06/M08 A2958 1180 84 -1000 290/05 RMK AO2 SLP030 T10611083
14837KMSN MSN20011227035510012/27/01 03:55:31  5-MIN KMSN 270955Z 28005KT 10SM OVC012 M06/M08 A2958 1180 84 -1000 280/05 RMK AO2
14837KMSN MSN20011227040010012/27/01 04:00:31  5-MIN KMSN 271000Z 29006KT 10SM OVC012 M06/M08 A2958 1180 84 -1000 290/06 RMK AO2
14837KMSN MSN20011227040510012/27/01 04:05:31  5-MIN KMSN 271005Z VRB05KT 10SM OVC012 M06/M08 A2958 1180 84 -1000 VRB/05 RMK AO2
14837KMSN MSN20011227041010012/27/01 04:10:31  5-MIN KMSN 271010Z 28007KT 10SM OVC012 M06/M08 A2958 1180 84 -1000 270/07 RMK AO2
14837KMSN MSN20011227041510012/27/01 04:15:31  5-MIN KMSN 271015Z 29007KT 10SM OVC012 M06/M08 A2958 1180 84 -1000 290/07 RMK AO2
14837KMSN MSN20011227042010012/27/01 04:20:31  5-MIN KMSN 271020Z 29006KT 10SM OVC012 M06/M08 A2958 1180 84 -1000 290/06 RMK AO2
14837KMSN MSN20011227042510012/27/01 04:25:31  5-MIN KMSN 271025Z 29006KT 10SM OVC012 M06/M08 A2958 1190 84 -1000 290/06 RMK AO2
14837KMSN MSN20011227043010012/27/01 04:30:31  5-MIN KMSN 271030Z VRB06KT 10SM OVC012 M06/M08 A2957 1190 84 -1000 VRB/06 RMK AO2
14837KMSN MSN20011227043510012/27/01 04:35:31  5-MIN KMSN 271035Z VRB06KT 10SM OVC012 M06/M08 A2957 1190 84 -1000 VRB/06 RMK AO2
14837KMSN MSN20011227044010012/27/01 04:40:31  5-MIN KMSN 271040Z 30007KT 10SM OVC012 M06/M08 A2957 1190 84 -1000 300/07 RMK AO2
14837KMSN MSN20011227044510012/27/01 04:45:31  5-MIN KMSN 271045Z 28009KT 10SM OVC012 M06/M08 A2957 1190 84 -1000 280/09 RMK AO2
14837KMSN MSN20011227045011712/27/01 04:50:31  5-MIN KMSN 271050Z 29006KT 10SM OVC012 M06/M09 A2957 1190 81 -1000 290/06 RMK AO2 SLP027 T10611089
14837KMSN MSN20011227045510012/27/01 04:55:31  5-MIN KMSN 271055Z VRB05KT 10SM OVC012 M06/M08 A2957 1190 84 -1000 VRB/05 RMK AO2
14837KMSN MSN20011227050010012/27/01 05:00:31  5-MIN KMSN 271100Z 29007KT 10SM OVC014 M06/M08 A2957 1190 84 -1000 290/07 RMK AO2
14837KMSN MSN20011227050511612/27/01 05:05:31  5-MIN KMSN 271105Z 27007KT 240V310 10SM OVC014 M06/M09 A2957 1190 81 -1000 270/07 240V310 RMK AO2
14837KMSN MSN20011227051010012/27/01 05:10:31  5-MIN KMSN 271110Z 29006KT 10SM OVC014 M06/M08 A2957 1190 84 -1000 290/06 RMK AO2
14837KMSN MSN20011227051510012/27/01 05:15:31  5-MIN KMSN 271115Z 28006KT 10SM OVC014 M06/M08 A2958 1180 84 -1000 280/06 RMK AO2
14837KMSN MSN20011227052010012/27/01 05:20:31  5-MIN KMSN 271120Z 28006KT 10SM OVC014 M06/M08 A2958 1180 84 -1000 280/06 RMK AO2
14837KMSN MSN20011227052510012/27/01 05:25:31  5-MIN KMSN 271125Z 28007KT 10SM OVC014 M06/M10 A2958 1190 74 -1000 270/07 RMK AO2
14837KMSN MSN20011227053010012/27/01 05:30:31  5-MIN KMSN 271130Z 28007KT 10SM OVC014 M06/M10 A2958 1180 74 -1000 280/07 RMK AO2
14837KMSN MSN20011227053510012/27/01 05:35:31  5-MIN KMSN 271135Z 28008KT 10SM OVC014 M06/M10 A2958 1180 74 -1000 280/08 RMK AO2
14837KMSN MSN20011227054010012/27/01 05:40:31  5-MIN KMSN 271140Z 27007KT 10SM OVC014 M06/M10 A2958 1180 74 -1000 270/07 RMK AO2
14837KMSN MSN20011227054510012/27/01 05:45:31  5-MIN KMSN 271145Z 27007KT 10SM OVC014 M06/M10 A2958 1180 74 -1000 270/07 RMK AO2
14837KMSN MSN20011227055014712/27/01 05:50:31  5-MIN KMSN 271150Z VRB06KT 10SM OVC014 M06/M10 A2958 1180 74 -1000 VRB/06 RMK AO2 SLP031 4/001 60000 T10611100 11061 21078 56006
14837KMSN MSN20011227055510012/27/01 05:55:31  5-MIN KMSN 271155Z 27006KT 10SM OVC014 M06/M09 A2958 1180 77 -1100 270/06 RMK AO2
14837KMSN MSN20011227060010012/27/01 06:00:31  5-MIN KMSN 271200Z 28008KT 10SM OVC016 M06/M09 A2958 1180 81 -1100 280/08 RMK AO2
14837KMSN MSN20011227060510012/27/01 06:05:31  5-MIN KMSN 271205Z 27006KT 10SM OVC016 M06/M09 A2958 1180 81 -1100 270/06 RMK AO2
14837KMSN MSN20011227061010012/27/01 06:10:31  5-MIN KMSN 271210Z 27006KT 10SM OVC016 M06/M09 A2958 1180 81 -1100 270/06 RMK AO2
14837KMSN MSN20011227061510012/27/01 06:15:31  5-MIN KMSN 271215Z 27007KT 10SM OVC016 M06/M09 A2958 1180 81 -1100 270/07 RMK AO2
14837KMSN MSN20011227062010012/27/01 06:20:31  5-MIN KMSN 271220Z 28007KT 10SM OVC016 M06/M09 A2958 1180 81 -1100 280/07 RMK AO2
14837KMSN MSN20011227062510012/27/01 06:25:31  5-MIN KMSN 271225Z 28007KT 10SM OVC016 M06/M09 A2958 1180 77 -1100 280/07 RMK AO2
14837KMSN MSN20011227063010012/27/01 06:30:31  5-MIN KMSN 271230Z 28005KT 10SM OVC016 M06/M09 A2958 1180 81 -1100 270/05 RMK AO2
14837KMSN MSN20011227063510012/27/01 06:35:31  5-MIN KMSN 271235Z 28005KT 10SM OVC016 M06/M09 A2958 1180 81 -1100 280/05 RMK AO2
14837KMSN MSN20011227064010012/27/01 06:40:31  5-MIN KMSN 271240Z 30005KT 10SM OVC016 M06/M09 A2959 1170 81 -1100 300/05 RMK AO2
14837KMSN MSN20011227064510012/27/01 06:45:31  5-MIN KMSN 271245Z 29007KT 10SM OVC016 M06/M09 A2959 1170 81 -1100 280/07 RMK AO2
14837KMSN MSN20011227065011712/27/01 06:50:31  5-MIN KMSN 271250Z VRB06KT 10SM OVC016 M06/M09 A2959 1170 81 -1100 VRB/06 RMK AO2 SLP035 T10611089
14837KMSN MSN20011227065510012/27/01 06:55:31  5-MIN KMSN 271255Z VRB03KT 10SM OVC016 M06/M09 A2960 1170 77 -1100 VRB/03 RMK AO2
14837KMSN MSN20011227070010012/27/01 07:00:31  5-MIN KMSN 271300Z 28007KT 10SM OVC016 M06/M09 A2960 1170 77 -1100 280/07 RMK AO2
14837KMSN MSN20011227070510012/27/01 07:05:31  5-MIN KMSN 271305Z 26006KT 10SM OVC016 M06/M09 A2960 1170 81 -1100 260/06 RMK AO2
14837KMSN MSN20011227071010012/27/01 07:10:31  5-MIN KMSN 271310Z 29008KT 10SM OVC016 M06/M09 A2960 1160 77 -1100 290/08 RMK AO2
14837KMSN MSN20011227071510012/27/01 07:15:31  5-MIN KMSN 271315Z 29009KT 10SM OVC016 M06/M09 A2960 1160 77 -1100 290/09 RMK AO2
14837KMSN MSN20011227072010012/27/01 07:20:31  5-MIN KMSN 271320Z 29007KT 10SM OVC016 M06/M09 A2960 1160 77 -1100 290/07 RMK AO2
14837KMSN MSN20011227072510012/27/01 07:25:31  5-MIN KMSN 271325Z 29008KT 10SM OVC016 M06/M09 A2960 1160 77 -1100 290/08 RMK AO2
14837KMSN MSN20011227073010012/27/01 07:30:31  5-MIN KMSN 271330Z 29006KT 10SM OVC018 M06/M09 A2960 1160 81 -1100 290/06 RMK AO2
14837KMSN MSN20011227073510012/27/01 07:35:31  5-MIN KMSN 271335Z 29008KT 10SM OVC018 M06/M09 A2960 1160 77 -1100 290/08 RMK AO2
14837KMSN MSN20011227074010012/27/01 07:40:31  5-MIN KMSN 271340Z 28008KT 10SM OVC018 M06/M10 A2960 1160 74 -1100 280/08 RMK AO2
14837KMSN MSN20011227074511612/27/01 07:45:31  5-MIN KMSN 271345Z 29007KT 10SM -SN OVC018 M06/M10 A2960 1160 74 -1100 290/07 RMK AO2 SNB43 P0000
14837KMSN MSN20011227075013212/27/01 07:50:31  5-MIN KMSN 271350Z VRB05KT 9SM -SN OVC018 M06/M09 A2960 1160 77 -1100 VRB/05 RMK AO2 SNB43 SLP038 P0000 T10611094
14837KMSN MSN20011227075510912/27/01 07:55:31  5-MIN KMSN 271355Z 27007KT 9SM -SN OVC018 M06/M11 A2960 1160 71 -1100 270/07 RMK AO2 P0000
14837KMSN MSN20011227080012512/27/01 08:00:31  5-MIN KMSN 271400Z 28007KT 240V300 9SM -SN OVC018 M06/M10 A2959 1170 74 -1100 280/07 240V300 RMK AO2 P0000
14837KMSN MSN20011227080511212/27/01 08:05:31  5-MIN KMSN 271405Z 29007KT 10SM OVC018 M07/M09 A2959 1170 81 -1100 290/07 RMK AO2 SNE05 P0000
14837KMSN MSN20011227081011212/27/01 08:10:31  5-MIN KMSN 271410Z 28006KT 10SM OVC018 M07/M10 A2959 1170 77 -1100 280/06 RMK AO2 SNE05 P0000
14837KMSN MSN20011227081511212/27/01 08:15:31  5-MIN KMSN 271415Z 29005KT 10SM OVC018 M07/M10 A2960 1170 77 -1100 290/05 RMK AO2 SNE05 P0000
14837KMSN MSN20011227082011212/27/01 08:20:31  5-MIN KMSN 271420Z 29005KT 10SM OVC018 M07/M10 A2960 1160 77 -1100 290/05 RMK AO2 SNE05 P0000
14837KMSN MSN20011227082511212/27/01 08:25:31  5-MIN KMSN 271425Z 29007KT 10SM OVC018 M07/M10 A2960 1160 77 -1100 290/07 RMK AO2 SNE05 P0000
14837KMSN MSN20011227083011212/27/01 08:30:31  5-MIN KMSN 271430Z 27007KT 10SM OVC018 M07/M10 A2960 1160 77 -1100 270/07 RMK AO2 SNE05 P0000
14837KMSN MSN20011227083511212/27/01 08:35:31  5-MIN KMSN 271435Z 27008KT 10SM OVC018 M07/M10 A2960 1160 77 -1100 270/08 RMK AO2 SNE05 P0000
14837KMSN MSN20011227084011212/27/01 08:40:31  5-MIN KMSN 271440Z 28007KT 10SM OVC018 M07/M10 A2961 1160 77 -1200 280/07 RMK AO2 SNE05 P0000
14837KMSN MSN20011227084511212/27/01 08:45:31  5-MIN KMSN 271445Z 28006KT 10SM OVC018 M07/M10 A2961 1150 77 -1200 270/06 RMK AO2 SNE05 P0000
14837KMSN MSN20011227085014112/27/01 08:50:31  5-MIN KMSN 271450Z 27007KT 10SM OVC018 M07/M10 A2961 1150 77 -1200 270/07 RMK AO2 SNE05 SLP043 P0000 60000 T10671100 55002
14837KMSN MSN20011227085510212/27/01 08:55:31  5-MIN KMSN 271455Z 28007KT 6SM HZ OVC018 M07/M09 A2962 1150 81 -1200 280/07 RMK AO2
14837KMSN MSN20011227090011512/27/01 09:00:31  5-MIN KMSN 271500Z 27009KT 5SM -SN OVC018 M07/M09 A2962 1150 81 -1200 270/09 RMK AO2 SNB00 P0000
14837KMSN MSN20011227090511512/27/01 09:05:31  5-MIN KMSN 271505Z 28008KT 4SM -SN OVC018 M07/M10 A2961 1150 77 -1200 280/08 RMK AO2 SNB00 P0000
14837KMSN MSN20011227091011512/27/01 09:10:31  5-MIN KMSN 271510Z 27008KT 3SM -SN OVC018 M07/M10 A2961 1150 77 -1200 270/08 RMK AO2 SNB00 P0000
14837KMSN MSN20011227091511512/27/01 09:15:31  5-MIN KMSN 271515Z 27008KT 3SM -SN OVC018 M07/M10 A2961 1150 77 -1200 270/08 RMK AO2 SNB00 P0000
14837KMSN MSN20011227092011512/27/01 09:20:31  5-MIN KMSN 271520Z 28006KT 3SM -SN OVC018 M07/M09 A2961 1150 81 -1200 280/06 RMK AO2 SNB00 P0000
14837KMSN MSN20011227092511512/27/01 09:25:31  5-MIN KMSN 271525Z 29007KT 3SM -SN OVC018 M07/M09 A2962 1150 81 -1200 280/07 RMK AO2 SNB00 P0000
14837KMSN MSN20011227093012912/27/01 09:30:31  5-MIN KMSN 271530Z VRB06KT 2 1/2SM -SN OVC018 M07/M09 A2961 1150 81 -1200 VRB/06 RMK AO2 SFC VIS 3 SNB00 P0000
14837KMSN MSN20011227093512912/27/01 09:35:31  5-MIN KMSN 271535Z VRB05KT 2 1/2SM -SN OVC020 M07/M09 A2962 1150 81 -1200 VRB/05 RMK AO2 SFC VIS 3 SNB00 P0000
14837KMSN MSN20011227094012912/27/01 09:40:31  5-MIN KMSN 271540Z 27006KT 2 1/2SM -SN OVC020 M07/M09 A2962 1150 81 -1200 270/06 RMK AO2 SFC VIS 3 SNB00 P0000
14837KMSN MSN20011227094512912/27/01 09:45:31  5-MIN KMSN 271545Z 28008KT 2SM -SN OVC022 M07/M09 A2961 1150 81 -1200 270/08 RMK AO2 TWR VIS 2 1/2 SNB00 P0000
14837KMSN MSN20011227095014312/27/01 09:50:31  5-MIN KMSN 271550Z 27007KT 2 1/2SM -SN SCT020 OVC025 M07/M09 A2961 1150 81 -1200 270/07 RMK AO2 SNB00 SLP042 P0000 T10671094
14837KMSN MSN20011227095513012/27/01 09:55:31  5-MIN KMSN 271555Z 27008KT 2 1/2SM -SN FEW017 OVC025 M07/M09 A2961 1150 81 -1200 270/08 RMK AO2 SFC VIS 3 P0000
14837KMSN MSN20011227100012512/27/01 10:00:31  5-MIN KMSN 271600Z 27007KT 250V310 4SM -SN OVC025 M07/M09 A2961 1150 81 -1200 270/07 250V310 RMK AO2 P0000
14837KMSN MSN20011227100510912/27/01 10:05:31  5-MIN KMSN 271605Z 28009KT 4SM -SN OVC025 M07/M10 A2960 1160 77 -1100 280/09 RMK AO2 P0000
14837KMSN MSN20011227101010912/27/01 10:10:31  5-MIN KMSN 271610Z VRB06KT 7SM -SN OVC025 M07/M10 A2960 1160 77 -1100 VRB/06 RMK AO2 P0000
14837KMSN MSN20011227101512512/27/01 10:15:31  5-MIN KMSN 271615Z 28007KT 250V320 7SM -SN BKN025 M07/M10 A2960 1160 77 -1100 280/07 250V320 RMK AO2 P0000
14837KMSN MSN20011227102012512/27/01 10:20:31  5-MIN KMSN 271620Z 27007KT 240V300 8SM -SN BKN025 M07/M10 A2960 1160 77 -1100 270/07 240V300 RMK AO2 P0000
14837KMSN MSN20011227102511712/27/01 10:25:31  5-MIN KMSN 271625Z 27008KT 10SM -SN BKN021 BKN025 M07/M10 A2960 1160 77 -1100 270/08 RMK AO2 P0000
14837KMSN MSN20011227103011712/27/01 10:30:31  5-MIN KMSN 271630Z 27007KT 10SM -SN BKN021 BKN025 M07/M10 A2960 1160 77 -1100 270/07 RMK AO2 P0000
14837KMSN MSN20011227103513312/27/01 10:35:31  5-MIN KMSN 271635Z 27009KT 240V300 10SM -SN BKN021 BKN025 M07/M10 A2960 1160 77 -1100 270/09 240V300 RMK AO2 P0000
14837KMSN MSN20011227104013312/27/01 10:40:31  5-MIN KMSN 271640Z 27008KT 240V310 10SM -SN BKN021 BKN025 M06/M10 A2960 1160 74 -1100 270/08 240V310 RMK AO2 P0000
14837KMSN MSN20011227104511712/27/01 10:45:31  5-MIN KMSN 271645Z 27009KT 10SM -SN BKN018 OVC025 M07/M10 A2960 1160 77 -1100 270/09 RMK AO2 P0000
14837KMSN MSN20011227105013612/27/01 10:50:31  5-MIN KMSN 271650Z 30008KT 10SM BKN018 OVC025 M06/M10 A2960 1160 74 -1100 290/08 RMK AO2 SNE48 SLP038 P0000 T10611100
14837KMSN MSN20011227105510712/27/01 10:55:31  5-MIN KMSN 271655Z 29007KT 10SM SCT018 OVC025 M07/M11 A2960 1160 74 -1100 290/07 RMK AO2
14837KMSN MSN20011227110010712/27/01 11:00:31  5-MIN KMSN 271700Z 27008KT 10SM FEW018 OVC025 M07/M11 A2960 1160 74 -1100 270/08 RMK AO2
14837KMSN MSN20011227110510712/27/01 11:05:31  5-MIN KMSN 271705Z 30007KT 10SM SCT018 OVC025 M07/M11 A2960 1170 71 -1100 300/07 RMK AO2
14837KMSN MSN20011227111011312/27/01 11:10:31  5-MIN KMSN 271710Z VRB05G14KT 10SM BKN019 OVC023 M07/M11 A2960 1170 71 -1100 VRB/05G14 RMK AO2
14837KMSN MSN20011227111512212/27/01 11:15:31  5-MIN KMSN 271715Z 28008KT 7SM -SN BKN019 OVC023 M07/M11 A2959 1170 74 -1100 280/08 RMK AO2 SNB11 P0000
14837KMSN MSN20011227112012212/27/01 11:20:31  5-MIN KMSN 271720Z 29007KT 8SM -SN BKN019 OVC023 M07/M11 A2959 1170 74 -1100 280/07 RMK AO2 SNB11 P0000
14837KMSN MSN20011227112513812/27/01 11:25:31  5-MIN KMSN 271725Z 30007KT 270V340 8SM -SN BKN019 OVC023 M07/M11 A2959 1170 71 -1100 300/07 270V340 RMK AO2 SNB11 P0000
14837KMSN MSN20011227113011512/27/01 11:30:31  5-MIN KMSN 271730Z 30005KT 8SM -SN OVC019 M07/M11 A2958 1180 74 -1100 300/05 RMK AO2 SNB11 P0000
14837KMSN MSN20011227113511512/27/01 11:35:31  5-MIN KMSN 271735Z 29010KT 8SM -SN OVC019 M07/M11 A2959 1170 74 -1100 290/10 RMK AO2 SNB11 P0000
14837KMSN MSN20011227114011512/27/01 11:40:31  5-MIN KMSN 271740Z 27009KT 8SM -SN OVC019 M07/M11 A2959 1170 71 -1100 270/09 RMK AO2 SNB11 P0000
14837KMSN MSN20011227114513212/27/01 11:45:31  5-MIN KMSN 271745Z 30008KT 270V340 10SM -SN OVC019 M07/M11 A2958 1180 71 -1100 300/08 270V340 RMK AO2 SNB11 P0000
14837KMSN MSN20011227115015712/27/01 11:50:31  5-MIN KMSN 271750Z 28009KT 10SM -SN OVC019 M07/M11 A2958 1180 74 -1100 280/09 RMK AO2 SNB11 SLP032 P0000 60000 T10671106 11061 21067 53012
14837KMSN MSN20011227115510912/27/01 11:55:31  5-MIN KMSN 271755Z 29005KT 6SM -SN OVC019 M07/M11 A2958 1180 74 -1100 290/05 RMK AO2 P0000
14837KMSN MSN20011227120012512/27/01 12:00:31  5-MIN KMSN 271800Z 27007KT 240V310 6SM -SN OVC019 M07/M11 A2958 1180 74 -1100 270/07 240V310 RMK AO2 P0000
14837KMSN MSN20011227120510912/27/01 12:05:31  5-MIN KMSN 271805Z 27009KT 6SM -SN OVC019 M07/M11 A2958 1180 74 -1100 270/09 RMK AO2 P0000
14837KMSN MSN20011227121010912/27/01 12:10:31  5-MIN KMSN 271810Z 27011KT 7SM -SN OVC019 M07/M11 A2958 1180 71 -1100 270/11 RMK AO2 P0000
14837KMSN MSN20011227121512512/27/01 12:15:31  5-MIN KMSN 271815Z 26008KT 230V290 7SM -SN OVC019 M07/M11 A2958 1180 74 -1100 260/08 230V290 RMK AO2 P0000
14837KMSN MSN20011227122010912/27/01 12:20:31  5-MIN KMSN 271820Z 28007KT 7SM -SN OVC019 M07/M11 A2958 1180 74 -1100 280/07 RMK AO2 P0000
14837KMSN MSN20011227122510912/27/01 12:25:31  5-MIN KMSN 271825Z 27009KT 8SM -SN OVC019 M07/M11 A2958 1180 71 -1100 270/09 RMK AO2 P0000
14837KMSN MSN20011227123010912/27/01 12:30:31  5-MIN KMSN 271830Z 29009KT 8SM -SN OVC019 M07/M11 A2958 1180 74 -1100 290/09 RMK AO2 P0000
14837KMSN MSN20011227123510912/27/01 12:35:31  5-MIN KMSN 271835Z 28009KT 8SM -SN OVC019 M07/M11 A2958 1180 74 -1100 280/09 RMK AO2 P0000
14837KMSN MSN20011227124012512/27/01 12:40:31  5-MIN KMSN 271840Z 29008KT 250V310 8SM -SN OVC019 M07/M11 A2958 1180 74 -1100 280/08 250V310 RMK AO2 P0000
14837KMSN MSN20011227124510912/27/01 12:45:31  5-MIN KMSN 271845Z 28008KT 7SM -SN OVC019 M07/M11 A2958 1180 71 -1100 280/08 RMK AO2 P0000
14837KMSN MSN20011227125012612/27/01 12:50:31  5-MIN KMSN 271850Z 28007KT 7SM -SN OVC019 M07/M11 A2958 1180 74 -1100 280/07 RMK AO2 SLP029 P0000 T10671106
14837KMSN MSN20011227125510912/27/01 12:55:31  5-MIN KMSN 271855Z VRB06KT 4SM -SN OVC017 M07/M11 A2958 1180 74 -1100 VRB/06 RMK AO2 P0000
14837KMSN MSN20011227130012512/27/01 13:00:31  5-MIN KMSN 271900Z 26007KT 210V290 6SM -SN OVC017 M07/M11 A2958 1180 74 -1100 260/07 210V290 RMK AO2 P0000
14837KMSN MSN20011227130510912/27/01 13:05:31  5-MIN KMSN 271905Z 25008KT 6SM -SN OVC017 M07/M11 A2958 1180 74 -1100 250/08 RMK AO2 P0000
14837KMSN MSN20011227131012512/27/01 13:10:31  5-MIN KMSN 271910Z 26008KT 230V300 6SM -SN OVC019 M07/M11 A2958 1180 71 -1100 260/08 230V300 RMK AO2 P0000
14837KMSN MSN20011227131510912/27/01 13:15:31  5-MIN KMSN 271915Z VRB06KT 6SM -SN OVC019 M07/M11 A2958 1180 71 -1100 VRB/06 RMK AO2 P0000
14837KMSN MSN20011227132012512/27/01 13:20:31  5-MIN KMSN 271920Z 27009KT 230V300 6SM -SN OVC019 M07/M11 A2958 1190 74 -1100 270/09 230V300 RMK AO2 P0000
14837KMSN MSN20011227132512512/27/01 13:25:31  5-MIN KMSN 271925Z 25008KT 220V290 6SM -SN OVC019 M07/M11 A2957 1190 71 -1100 250/08 220V290 RMK AO2 P0000
14837KMSN MSN20011227133010912/27/01 13:30:31  5-MIN KMSN 271930Z 27009KT 6SM -SN OVC019 M07/M11 A2957 1190 71 -1100 270/09 RMK AO2 P0000
14837KMSN MSN20011227133512512/27/01 13:35:31  5-MIN KMSN 271935Z 27007KT 240V310 8SM -SN OVC019 M07/M11 A2957 1190 71 -1100 270/07 240V310 RMK AO2 P0000
14837KMSN MSN20011227134012512/27/01 13:40:31  5-MIN KMSN 271940Z 27009KT 230V310 8SM -SN OVC019 M07/M11 A2957 1190 71 -1100 270/09 230V310 RMK AO2 P0000
14837KMSN MSN20011227134510912/27/01 13:45:31  5-MIN KMSN 271945Z 27007KT 8SM -SN OVC019 M07/M11 A2957 1190 71 -1100 270/07 RMK AO2 P0000
14837KMSN MSN20011227135012612/27/01 13:50:31  5-MIN KMSN 271950Z 27006KT 8SM -SN OVC019 M07/M11 A2957 1190 71 -1100 270/06 RMK AO2 SLP027 P0000 T10671111
14837KMSN MSN20011227135509912/27/01 13:55:31  5-MIN KMSN 271955Z 26008KT 9SM OVC019 M07/M11 A2957 1190 71 -1100 260/08 RMK AO2
14837KMSN MSN20011227140011612/27/01 14:00:31  5-MIN KMSN 272000Z 27008KT 230V290 10SM OVC019 M07/M12 A2957 1190 68 -1100 270/08 230V290 RMK AO2
14837KMSN MSN20011227140511612/27/01 14:05:31  5-MIN KMSN 272005Z 27009KT 240V300 10SM BKN019 M07/M11 A2957 1190 71 -1100 270/09 240V300 RMK AO2
14837KMSN MSN20011227141010012/27/01 14:10:31  5-MIN KMSN 272010Z VRB05KT 10SM SCT019 M07/M11 A2957 1190 71 -1100 VRB/05 RMK AO2
14837KMSN MSN20011227141510012/27/01 14:15:31  5-MIN KMSN 272015Z 25006KT 10SM SCT019 M07/M11 A2957 1190 71 -1100 250/06 RMK AO2
14837KMSN MSN20011227142010012/27/01 14:20:31  5-MIN KMSN 272020Z VRB05KT 10SM FEW021 M06/M11 A2956 1200 68 -1000 VRB/05 RMK AO2
14837KMSN MSN20011227142510012/27/01 14:25:31  5-MIN KMSN 272025Z 28007KT 10SM SCT021 M06/M11 A2956 1200 68 -1000 280/07 RMK AO2
14837KMSN MSN20011227143010012/27/01 14:30:31  5-MIN KMSN 272030Z 27008KT 10SM SCT021 M07/M11 A2956 1200 71 -1100 270/08 RMK AO2
14837KMSN MSN20011227143510012/27/01 14:35:31  5-MIN KMSN 272035Z VRB05KT 10SM SCT021 M07/M12 A2957 1190 68 -1100 VRB/05 RMK AO2
14837KMSN MSN20011227144010012/27/01 14:40:31  5-MIN KMSN 272040Z VRB06KT 10SM SCT021 M06/M11 A2957 1190 68 -1000 VRB/06 RMK AO2
14837KMSN MSN20011227144510012/27/01 14:45:31  5-MIN KMSN 272045Z 27006KT 10SM SCT021 M06/M11 A2957 1190 68 -1000 270/06 RMK AO2
14837KMSN MSN20011227145012912/27/01 14:50:31  5-MIN KMSN 272050Z VRB06KT 10SM SCT021 M06/M11 A2957 1190 65 -1000 VRB/06 RMK AO2 SLP026 60000 T10561111 58011
14837KMSN MSN20011227145509712/27/01 14:55:31  5-MIN KMSN 272055Z VRB06KT 10SM CLR M06/M11 A2957 1190 65 -1000 VRB/06 RMK AO2
14837KMSN MSN20011227150010012/27/01 15:00:31  5-MIN KMSN 272100Z 26007KT 10SM FEW020 M06/M11 A2957 1190 65 -1000 260/07 RMK AO2
14837KMSN MSN20011227150511612/27/01 15:05:31  5-MIN KMSN 272105Z 25007KT 210V290 10SM FEW020 M06/M11 A2957 1190 65 -1000 240/07 210V290 RMK AO2
14837KMSN MSN20011227151010012/27/01 15:10:31  5-MIN KMSN 272110Z 24007KT 10SM FEW020 M06/M11 A2957 1190 65 -1000 240/07 RMK AO2
14837KMSN MSN20011227151510012/27/01 15:15:31  5-MIN KMSN 272115Z 26006KT 10SM FEW020 M06/M11 A2957 1190 65 -1000 260/06 RMK AO2
14837KMSN MSN20011227152010012/27/01 15:20:31  5-MIN KMSN 272120Z 26007KT 10SM FEW020 M06/M11 A2957 1190 65 -1000 260/07 RMK AO2
14837KMSN MSN20011227152510612/27/01 15:25:31  5-MIN KMSN 272125Z 25008G15KT 10SM FEW020 M06/M11 A2957 1190 65 -1000 250/08G15 RMK AO2
14837KMSN MSN20011227153010612/27/01 15:30:31  5-MIN KMSN 272130Z 25006G15KT 10SM FEW020 M06/M11 A2956 1200 65 -1000 250/06G15 RMK AO2
14837KMSN MSN20011227153510012/27/01 15:35:31  5-MIN KMSN 272135Z 27009KT 10SM FEW020 M06/M11 A2956 1190 65 -1000 270/09 RMK AO2
14837KMSN MSN20011227154010012/27/01 15:40:31  5-MIN KMSN 272140Z 26008KT 10SM FEW020 M06/M11 A2956 1200 65 -1000 260/08 RMK AO2
14837KMSN MSN20011227154510012/27/01 15:45:31  5-MIN KMSN 272145Z 25006KT 10SM FEW020 M06/M11 A2956 1200 65 -1000 250/06 RMK AO2
14837KMSN MSN20011227174012212/27/01 17:40:31  5-MIN KMSN 272340Z 25007G14KT 200V280 10SM OVC055 M06/M10 A2956 1200 71 -1000 250/07G14 200V280 RMK AO2
14837KMSN MSN20011227174510012/27/01 17:45:31  5-MIN KMSN 272345Z 26008KT 10SM OVC055 M06/M10 A2956 1200 71 -1000 260/08 RMK AO2
14837KMSN MSN20011227175014712/27/01 17:50:31  5-MIN KMSN 272350Z 25007KT 10SM OVC055 M06/M10 A2956 1200 71 -1000 250/07 RMK AO2 SLP023 4/001 60000 T10561100 11056 21067 56005
14837KMSN MSN20011227175511612/27/01 17:55:31  5-MIN KMSN 272355Z 26007KT 200V270 10SM OVC055 M06/M10 A2956 1200 71 -1000 250/07 200V270 RMK AO2
14837KMSN MSN20011227180010612/27/01 18:00:31  5-MIN KMSN 280000Z 25009G15KT 10SM OVC050 M06/M10 A2956 1200 71 -1000 250/09G15 RMK AO2
14837KMSN MSN20011227180510612/27/01 18:05:31  5-MIN KMSN 280005Z 25010G15KT 10SM OVC050 M06/M11 A2956 1200 68 -1000 250/10G15 RMK AO2
14837KMSN MSN20011227181011612/27/01 18:10:31  5-MIN KMSN 280010Z 25009KT 230V290 10SM OVC050 M06/M10 A2956 1200 71 -1000 250/09 230V290 RMK AO2
14837KMSN MSN20011227181510012/27/01 18:15:31  5-MIN KMSN 280015Z 24007KT 10SM OVC050 M06/M11 A2956 1190 68 -1000 240/07 RMK AO2
14837KMSN MSN20011227182012212/27/01 18:20:31  5-MIN KMSN 280020Z 25008G14KT 200V280 10SM OVC050 M06/M10 A2956 1200 71 -1000 250/08G14 200V280 RMK AO2
14837KMSN MSN20011227182510612/27/01 18:25:31  5-MIN KMSN 280025Z 25009G14KT 10SM OVC050 M06/M10 A2956 1200 71 -1000 250/09G14 RMK AO2
14837KMSN MSN20011227183010612/27/01 18:30:31  5-MIN KMSN 280030Z VRB06G14KT 10SM OVC050 M06/M10 A2956 1200 71 -1000 VRB/06G14 RMK AO2
14837KMSN MSN20011227183510012/27/01 18:35:31  5-MIN KMSN 280035Z 25007KT 10SM OVC050 M06/M10 A2956 1200 71 -1000 250/07 RMK AO2
14837KMSN MSN20011227184010612/27/01 18:40:31  5-MIN KMSN 280040Z 26009G16KT 10SM OVC050 M06/M10 A2956 1200 71 -1000 260/09G16 RMK AO2
14837KMSN MSN20011227184510512/27/01 18:45:31  5-MIN KMSN 280045Z 24009G16KT 10SM OVC050 M06/M10 A2956 1200 71 -900 240/09G16 RMK AO2
14837KMSN MSN20011227185012212/27/01 18:50:31  5-MIN KMSN 280050Z 25008G15KT 10SM OVC050 M06/M10 A2955 1200 71 -900 250/08G15 RMK AO2 SLP020 T10561100
14837KMSN MSN20011227185509912/27/01 18:55:31  5-MIN KMSN 280055Z 24008KT 10SM OVC050 M06/M10 A2955 1210 71 -900 240/08 RMK AO2
14837KMSN MSN20011227190010512/27/01 19:00:31  5-MIN KMSN 280100Z 25008G14KT 10SM OVC055 M06/M10 A2955 1210 71 -900 250/08G14 RMK AO2
14837KMSN MSN20011227190512112/27/01 19:05:31  5-MIN KMSN 280105Z 25008G15KT 210V300 10SM OVC055 M06/M10 A2955 1210 71 -900 240/08G15 210V300 RMK AO2
14837KMSN MSN20011227191012112/27/01 19:10:31  5-MIN KMSN 280110Z 25008G15KT 210V270 10SM OVC050 M06/M10 A2955 1210 71 -900 250/08G15 210V270 RMK AO2
14837KMSN MSN20011227191510512/27/01 19:15:31  5-MIN KMSN 280115Z 26009G15KT 10SM OVC050 M06/M09 A2955 1210 74 -900 260/09G15 RMK AO2
14837KMSN MSN20011227192010612/27/01 19:20:31  5-MIN KMSN 280120Z 26011KT 10SM FEW033 OVC055 M06/M10 A2955 1210 71 -900 250/11 RMK AO2
14837KMSN MSN20011227192510612/27/01 19:25:31  5-MIN KMSN 280125Z 26009KT 10SM SCT033 OVC050 M06/M10 A2955 1210 71 -900 260/09 RMK AO2
14837KMSN MSN20011227193011212/27/01 19:30:31  5-MIN KMSN 280130Z 26008G15KT 10SM BKN031 OVC050 M06/M10 A2955 1210 71 -900 260/08G15 RMK AO2
14837KMSN MSN20011227193511912/27/01 19:35:31  5-MIN KMSN 280135Z VRB06G15KT 10SM SCT027 BKN034 OVC050 M06/M09 A2955 1210 74 -900 VRB/06G15 RMK AO2
14837KMSN MSN20011227194012812/27/01 19:40:31  5-MIN KMSN 280140Z 27007KT 230V300 9SM BKN027 BKN032 OVC050 M06/M09 A2955 1210 74 -900 260/07 230V300 RMK AO2
14837KMSN MSN20011227194511912/27/01 19:45:31  5-MIN KMSN 280145Z 26008G17KT 10SM BKN027 BKN032 OVC050 M06/M09 A2955 1210 74 -900 260/08G17 RMK AO2
14837KMSN MSN20011227195015212/27/01 19:50:31  5-MIN KMSN 280150Z 27009G17KT 230V300 10SM BKN027 BKN032 OVC050 M06/M09 A2955 1210 74 -900 270/09G17 230V300 RMK AO2 SLP018 T10561094
14837KMSN MSN20011227195511212/27/01 19:55:31  5-MIN KMSN 280155Z VRB06G14KT 10SM BKN027 OVC050 M06/M09 A2955 1210 74 -900 VRB/06G14 RMK AO2
14837KMSN MSN20011227200012812/27/01 20:00:31  5-MIN KMSN 280200Z 27009G14KT 240V310 10SM SCT027 OVC050 M06/M09 A2955 1210 74 -900 270/09G14 240V310 RMK AO2
14837KMSN MSN20011227200510612/27/01 20:05:31  5-MIN KMSN 280205Z 28008KT 10SM SCT027 OVC050 M06/M09 A2955 1210 74 -900 270/08 RMK AO2
14837KMSN MSN20011227201010612/27/01 20:10:31  5-MIN KMSN 280210Z 28008KT 10SM FEW025 OVC050 M06/M09 A2955 1210 74 -900 270/08 RMK AO2
14837KMSN MSN20011227201510612/27/01 20:15:31  5-MIN KMSN 280215Z 26009KT 10SM SCT035 OVC050 M06/M10 A2955 1210 71 -900 260/09 RMK AO2
14837KMSN MSN20011227202011912/27/01 20:20:31  5-MIN KMSN 280220Z 28008G14KT 10SM SCT034 BKN040 OVC050 M06/M10 A2955 1210 71 -900 270/08G14 RMK AO2
14837KMSN MSN20011227202510512/27/01 20:25:31  5-MIN KMSN 280225Z 29008KT 9SM BKN034 OVC050 M06/M10 A2955 1200 71 -900 290/08 RMK AO2
14837KMSN MSN20011227203012112/27/01 20:30:31  5-MIN KMSN 280230Z 29009KT 8SM -SN BKN034 OVC050 M06/M10 A2956 1200 71 -900 290/09 RMK AO2 SNB27 P0000
14837KMSN MSN20011227203512912/27/01 20:35:31  5-MIN KMSN 280235Z 29009KT 7SM -SN BKN034 BKN042 OVC050 M06/M10 A2956 1200 71 -1000 290/09 RMK AO2 SNB27 P0000
14837KMSN MSN20011227204013512/27/01 20:40:31  5-MIN KMSN 280240Z VRB05G16KT 5SM -SN BKN034 BKN041 OVC050 M06/M09 A2956 1200 74 -1000 VRB/05G16 RMK AO2 SNB27 P0000
14837KMSN MSN20011227204512812/27/01 20:45:31  5-MIN KMSN 280245Z 29011G17KT 5SM -SN BKN036 OVC050 M06/M10 A2956 1200 71 -1000 290/11G17 RMK AO2 SNB27 P0000
14837KMSN MSN20011227205016312/27/01 20:50:31  5-MIN KMSN 280250Z 29012G18KT 7SM FEW030 BKN036 OVC050 M06/M10 A2956 1200 71 -1000 290/12G18 RMK AO2 SNB27E50 SLP023 P0000 60000 T10561100 56001
14837KMSN MSN20011227205511212/27/01 20:55:31  5-MIN KMSN 280255Z 29011G18KT 8SM BKN036 OVC050 M06/M11 A2956 1200 68 -1000 290/11G18 RMK AO2
14837KMSN MSN20011227210011312/27/01 21:00:31  5-MIN KMSN 280300Z 29009KT 9SM FEW026 BKN038 OVC050 M06/M11 A2956 1200 68 -1000 290/09 RMK AO2
14837KMSN MSN20011227210512012/27/01 21:05:31  5-MIN KMSN 280305Z 30012G18KT 10SM FEW026 SCT038 OVC050 M06/M11 A2956 1200 71 -1000 300/12G18 RMK AO2
14837KMSN MSN20011227211011312/27/01 21:10:31  5-MIN KMSN 280310Z 29009G18KT 10SM FEW026 OVC050 M06/M11 A2957 1190 68 -1000 290/09G18 RMK AO2
14837KMSN MSN20011227211511312/27/01 21:15:31  5-MIN KMSN 280315Z 30010G16KT 10SM FEW028 OVC050 M06/M12 A2957 1190 65 -1000 300/10G16 RMK AO2
14837KMSN MSN20011227212011312/27/01 21:20:31  5-MIN KMSN 280320Z 31009G16KT 10SM FEW028 BKN050 M07/M12 A2957 1190 68 -1100 310/09G16 RMK AO2
14837KMSN MSN20011227212510712/27/01 21:25:31  5-MIN KMSN 280325Z 30010KT 10SM FEW028 BKN055 M07/M12 A2957 1190 68 -1100 300/10 RMK AO2
14837KMSN MSN20011227213010012/27/01 21:30:31  5-MIN KMSN 280330Z 31008KT 10SM SCT055 M07/M12 A2957 1190 68 -1100 300/08 RMK AO2
14837KMSN MSN20011227213510012/27/01 21:35:31  5-MIN KMSN 280335Z 30007KT 10SM FEW055 M07/M12 A2957 1190 68 -1100 300/07 RMK AO2
14837KMSN MSN20011227214009712/27/01 21:40:31  5-MIN KMSN 280340Z 29005KT 10SM CLR M07/M12 A2957 1190 65 -1100 290/05 RMK AO2
14837KMSN MSN20011227214509712/27/01 21:45:31  5-MIN KMSN 280345Z 28006KT 10SM CLR M07/M12 A2957 1190 68 -1200 280/06 RMK AO2
14837KMSN MSN20011227215011712/27/01 21:50:31  5-MIN KMSN 280350Z 28006KT 10SM FEW060 M07/M12 A2957 1190 68 -1200 280/06 RMK AO2 SLP026 T10721122
14837KMSN MSN20011227215510012/27/01 21:55:31  5-MIN KMSN 280355Z 28006KT 10SM SCT060 M07/M12 A2957 1190 68 -1200 280/06 RMK AO2
14837KMSN MSN20011227220010012/27/01 22:00:31  5-MIN KMSN 280400Z VRB05KT 10SM SCT060 M07/M12 A2957 1190 68 -1200 VRB/05 RMK AO2
14837KMSN MSN20011227220510012/27/01 22:05:31  5-MIN KMSN 280405Z 28005KT 10SM FEW060 M08/M12 A2957 1190 71 -1200 280/05 RMK AO2
14837KMSN MSN20011227221010012/27/01 22:10:31  5-MIN KMSN 280410Z 27006KT 10SM SCT060 M08/M13 A2957 1190 67 -1200 270/06 RMK AO2
14837KMSN MSN20011227221510012/27/01 22:15:31  5-MIN KMSN 280415Z 27006KT 10SM BKN060 M08/M12 A2957 1190 71 -1200 270/06 RMK AO2
14837KMSN MSN20011227222010712/27/01 22:20:31  5-MIN KMSN 280420Z 27005KT 10SM FEW048 BKN060 M08/M13 A2956 1190 67 -1200 270/05 RMK AO2
14837KMSN MSN20011227222510712/27/01 22:25:31  5-MIN KMSN 280425Z 25003KT 10SM FEW045 BKN060 M08/M13 A2956 1190 67 -1200 250/03 RMK AO2
14837KMSN MSN20011227223010712/27/01 22:30:31  5-MIN KMSN 280430Z VRB04KT 10SM SCT042 BKN055 M08/M13 A2956 1200 64 -1200 VRB/04 RMK AO2
14837KMSN MSN20011227223510712/27/01 22:35:31  5-MIN KMSN 280435Z VRB03KT 10SM SCT042 OVC060 M08/M13 A2956 1200 67 -1200 VRB/03 RMK AO2
14837KMSN MSN20011227224010712/27/01 22:40:31  5-MIN KMSN 280440Z VRB03KT 10SM FEW042 OVC060 M08/M13 A2956 1200 70 -1300 VRB/03 RMK AO2
14837KMSN MSN20011227224511412/27/01 22:45:31  5-MIN KMSN 280445Z VRB03KT 10SM FEW042 SCT050 OVC060 M08/M13 A2956 1200 70 -1300 VRB/03 RMK AO2
14837KMSN MSN20011227225012412/27/01 22:50:31  5-MIN KMSN 280450Z 00000KT 10SM FEW042 OVC060 M08/M13 A2956 1200 67 -1200 000/00 RMK AO2 SLP022 T10781128
14837KMSN MSN20011227225510712/27/01 22:55:31  5-MIN KMSN 280455Z 26003KT 10SM FEW040 OVC060 M08/M13 A2955 1210 67 -1200 260/03 RMK AO2
14837KMSN MSN20011227230010012/27/01 23:00:31  5-MIN KMSN 280500Z 00000KT 10SM OVC060 M08/M13 A2955 1210 67 -1200 000/00 RMK AO2
14837KMSN MSN20011227230510012/27/01 23:05:31  5-MIN KMSN 280505Z 22003KT 10SM OVC060 M08/M13 A2955 1210 67 -1200 220/03 RMK AO2
14837KMSN MSN20011227231010012/27/01 23:10:31  5-MIN KMSN 280510Z 00000KT 10SM OVC060 M08/M13 A2955 1200 70 -1300 000/00 RMK AO2
14837KMSN MSN20011227231510712/27/01 23:15:31  5-MIN KMSN 280515Z VRB04KT 10SM BKN060 OVC110 M08/M13 A2955 1210 67 -1200 VRB/04 RMK AO2
14837KMSN MSN20011227232010712/27/01 23:20:31  5-MIN KMSN 280520Z VRB05KT 10SM BKN060 OVC110 M08/M12 A2955 1210 71 -1200 VRB/05 RMK AO2
14837KMSN MSN20011227232510712/27/01 23:25:31  5-MIN KMSN 280525Z VRB03KT 10SM SCT060 OVC110 M07/M13 A2955 1210 65 -1200 VRB/03 RMK AO2
14837KMSN MSN20011227233010712/27/01 23:30:31  5-MIN KMSN 280530Z 24004KT 10SM SCT060 OVC110 M07/M13 A2955 1210 65 -1200 240/04 RMK AO2
14837KMSN MSN20011227233510712/27/01 23:35:31  5-MIN KMSN 280535Z VRB05KT 10SM FEW060 OVC110 M07/M12 A2955 1210 68 -1200 VRB/05 RMK AO2
14837KMSN MSN20011227234010012/27/01 23:40:31  5-MIN KMSN 280540Z VRB05KT 10SM OVC110 M07/M13 A2955 1210 65 -1200 VRB/05 RMK AO2
14837KMSN MSN20011227234510012/27/01 23:45:31  5-MIN KMSN 280545Z 27005KT 10SM OVC110 M07/M12 A2955 1210 68 -1200 260/05 RMK AO2
14837KMSN MSN20011227235015812/27/01 23:50:31  5-MIN KMSN 280550Z VRB06KT 10SM FEW030 OVC110 M07/M12 A2955 1210 65 -1100 VRB/06 RMK AO2 SLP018 60000 T10671122 11056 21083 410561083 55001
14837KMSN MSN20011227235511412/27/01 23:55:31  5-MIN KMSN 280555Z 25004KT 10SM FEW030 SCT060 OVC110 M07/M12 A2954 1210 65 -1100 250/04 RMK AO2
14837KMSN MSN20011228000011412/28/01 00:00:31  5-MIN KMSN 280600Z VRB06KT 10SM FEW030 SCT060 BKN110 M07/M12 A2954 1210 68 -1100 VRB/06 RMK AO2
14837KMSN MSN20011228000511412/28/01 00:05:31  5-MIN KMSN 280605Z 24006KT 10SM FEW028 SCT060 BKN110 M07/M12 A2954 1220 68 -1100 240/06 RMK AO2
14837KMSN MSN20011228001011412/28/01 00:10:31  5-MIN KMSN 280610Z 24007KT 10SM FEW028 BKN060 BKN110 M07/M12 A2954 1220 68 -1100 240/07 RMK AO2
14837KMSN MSN20011228001511412/28/01 00:15:31  5-MIN KMSN 280615Z 23006KT 10SM FEW028 BKN060 BKN110 M06/M11 A2954 1220 68 -1000 230/06 RMK AO2
14837KMSN MSN20011228002011412/28/01 00:20:31  5-MIN KMSN 280620Z 24006KT 10SM FEW028 SCT060 BKN110 M06/M11 A2954 1220 68 -1000 240/06 RMK AO2
14837KMSN MSN20011228002512312/28/01 00:25:31  5-MIN KMSN 280625Z 24007KT 200V280 10SM FEW060 BKN110 M06/M11 A2954 1220 68 -1000 240/07 200V280 RMK AO2
14837KMSN MSN20011228003010712/28/01 00:30:31  5-MIN KMSN 280630Z 24007KT 10SM FEW060 OVC110 M06/M11 A2954 1220 68 -1000 240/07 RMK AO2
14837KMSN MSN20011228003511412/28/01 00:35:31  5-MIN KMSN 280635Z 25006KT 10SM FEW046 SCT065 OVC110 M06/M11 A2953 1220 68 -1000 250/06 RMK AO2
14837KMSN MSN20011228004011412/28/01 00:40:31  5-MIN KMSN 280640Z VRB06KT 10SM FEW046 SCT090 OVC110 M06/M11 A2954 1220 68 -1000 VRB/06 RMK AO2
14837KMSN MSN20011228004511412/28/01 00:45:31  5-MIN KMSN 280645Z 25008KT 10SM FEW047 BKN090 OVC110 M06/M11 A2954 1220 71 -1000 250/08 RMK AO2
14837KMSN MSN20011228005013112/28/01 00:50:31  5-MIN KMSN 280650Z 25006KT 10SM FEW049 BKN090 OVC110 M06/M11 A2954 1220 71 -1000 250/06 RMK AO2 SLP016 T10611106
14837KMSN MSN20011228005511412/28/01 00:55:31  5-MIN KMSN 280655Z 24008KT 10SM FEW049 BKN090 OVC110 M06/M11 A2954 1220 71 -1000 240/08 RMK AO2
14837KMSN MSN20011228010011412/28/01 01:00:31  5-MIN KMSN 280700Z VRB06KT 10SM FEW049 BKN070 OVC090 M06/M10 A2954 1220 74 -1000 VRB/06 RMK AO2
14837KMSN MSN20011228010510712/28/01 01:05:31  5-MIN KMSN 280705Z 25007KT 10SM BKN065 OVC090 M06/M10 A2954 1220 74 -1000 250/07 RMK AO2
14837KMSN MSN20011228011010712/28/01 01:10:31  5-MIN KMSN 280710Z 26006KT 10SM BKN070 OVC090 M06/M09 A2954 1220 77 -1000 260/06 RMK AO2
14837KMSN MSN20011228011510012/28/01 01:15:31  5-MIN KMSN 280715Z 27007KT 10SM OVC065 M06/M10 A2954 1220 74 -1000 270/07 RMK AO2
14837KMSN MSN20011228012010012/28/01 01:20:31  5-MIN KMSN 280720Z VRB06KT 10SM OVC065 M06/M10 A2954 1220 74 -1000 VRB/06 RMK AO2
14837KMSN MSN20011228012510012/28/01 01:25:31  5-MIN KMSN 280725Z 26006KT 10SM OVC065 M06/M11 A2954 1220 71 -1000 250/06 RMK AO2
14837KMSN MSN20011228013010012/28/01 01:30:31  5-MIN KMSN 280730Z 26006KT 10SM OVC065 M06/M10 A2954 1220 74 -1000 260/06 RMK AO2
14837KMSN MSN20011228013510012/28/01 01:35:31  5-MIN KMSN 280735Z VRB05KT 10SM OVC060 M06/M10 A2954 1220 74 -1000 VRB/05 RMK AO2
14837KMSN MSN20011228014010012/28/01 01:40:31  5-MIN KMSN 280740Z 26008KT 10SM OVC060 M06/M10 A2954 1220 74 -1000 260/08 RMK AO2
14837KMSN MSN20011228014510012/28/01 01:45:31  5-MIN KMSN 280745Z 27006KT 10SM OVC060 M06/M09 A2954 1220 77 -1000 270/06 RMK AO2
14837KMSN MSN20011228015013912/28/01 01:50:31  5-MIN KMSN 280750Z VRB05KT 9SM -SN FEW045 OVC060 M06/M09 A2954 1220 77 -1000 VRB/05 RMK AO2 SNB50 SLP016 P0000 T10611094
14837KMSN MSN20011228015512312/28/01 01:55:31  5-MIN KMSN 280755Z VRB06KT 8SM -SN FEW026 SCT045 OVC060 M06/M09 A2954 1220 77 -1000 VRB/06 RMK AO2 P0000
14837KMSN MSN20011228020011612/28/01 02:00:31  5-MIN KMSN 280800Z 26006KT 8SM -SN FEW024 OVC060 M06/M09 A2954 1220 77 -1000 260/06 RMK AO2 P0000
14837KMSN MSN20011228020511612/28/01 02:05:31  5-MIN KMSN 280805Z VRB05KT 8SM -SN FEW026 OVC060 M06/M09 A2954 1220 77 -1000 VRB/05 RMK AO2 P0000
14837KMSN MSN20011228021011612/28/01 02:10:31  5-MIN KMSN 280810Z 26004KT 8SM -SN FEW044 OVC060 M06/M09 A2954 1220 81 -1000 260/04 RMK AO2 P0000
14837KMSN MSN20011228021511612/28/01 02:15:31  5-MIN KMSN 280815Z 24006KT 7SM -SN FEW044 OVC060 M06/M09 A2954 1220 81 -1000 240/06 RMK AO2 P0000
14837KMSN MSN20011228022011612/28/01 02:20:31  5-MIN KMSN 280820Z 24005KT 6SM -SN FEW046 OVC060 M06/M09 A2954 1220 81 -1000 240/05 RMK AO2 P0000
14837KMSN MSN20011228022511612/28/01 02:25:31  5-MIN KMSN 280825Z VRB05KT 5SM -SN FEW046 OVC060 M06/M09 A2953 1220 81 -1000 VRB/05 RMK AO2 P0000
14837KMSN MSN20011228023011912/28/01 02:30:31  5-MIN KMSN 280830Z 25004KT 5SM -SN BR FEW046 OVC060 M06/M08 A2953 1230 84 -1000 250/04 RMK AO2 P0000
14837KMSN MSN20011228023511912/28/01 02:35:31  5-MIN KMSN 280835Z 25004KT 6SM -SN BR FEW046 OVC060 M06/M08 A2953 1230 84 -1000 250/04 RMK AO2 P0000
14837KMSN MSN20011228024011612/28/01 02:40:31  5-MIN KMSN 280840Z 24006KT 7SM -SN SCT046 OVC060 M06/M08 A2953 1230 84 -1000 240/06 RMK AO2 P0000
14837KMSN MSN20011228024511512/28/01 02:45:31  5-MIN KMSN 280845Z 25005KT 7SM -SN SCT044 OVC060 M06/M08 A2953 1230 81 -900 250/05 RMK AO2 P0000
14837KMSN MSN20011228025015112/28/01 02:50:31  5-MIN KMSN 280850Z 25004KT 5SM -SN FEW028 BKN044 OVC060 M06/M08 A2953 1230 81 -900 250/04 RMK AO2 SLP012 P0000 60000 T10561083 58005
14837KMSN MSN20011228025512612/28/01 02:55:31  5-MIN KMSN 280855Z VRB04KT 3SM -SN BR FEW023 BKN042 OVC060 M06/M08 A2953 1230 84 -1000 VRB/04 RMK AO2 P0000
14837KMSN MSN20011228030013012/28/01 03:00:31  5-MIN KMSN 280900Z VRB04KT 1 1/2SM -SN BR FEW018 BKN035 OVC060 M06/M08 A2953 1230 84 -1000 VRB/04 RMK AO2 P0000
14837KMSN MSN20011228030513012/28/01 03:05:31  5-MIN KMSN 280905Z 28005KT 1 1/2SM -SN BR FEW018 BKN035 OVC044 M06/M08 A2953 1230 88 -1000 280/05 RMK AO2 P0000
14837KMSN MSN20011228031013012/28/01 03:10:31  5-MIN KMSN 280910Z 28005KT 1 1/2SM -SN BR FEW020 BKN026 OVC041 M06/M08 A2952 1230 88 -1000 270/05 RMK AO2 P0000
14837KMSN MSN20011228031513012/28/01 03:15:31  5-MIN KMSN 280915Z VRB03KT 1 1/2SM -SN BR FEW018 BKN024 OVC034 M06/M08 A2952 1240 88 -1000 VRB/03 RMK AO2 P0000
14837KMSN MSN20011228032013012/28/01 03:20:31  5-MIN KMSN 280920Z 30003KT 1 1/2SM -SN BR FEW018 SCT024 OVC036 M06/M08 A2952 1240 88 -1000 300/03 RMK AO2 P0000
14837KMSN MSN20011228032513012/28/01 03:25:31  5-MIN KMSN 280925Z 28003KT 1 3/4SM -SN BR FEW018 BKN024 OVC036 M06/M08 A2952 1240 88 -1000 280/03 RMK AO2 P0000
14837KMSN MSN20011228033013012/28/01 03:30:31  5-MIN KMSN 280930Z 29004KT 1 3/4SM -SN BR FEW018 BKN024 OVC036 M06/M08 A2952 1240 84 -1000 290/04 RMK AO2 P0000
14837KMSN MSN20011228033512612/28/01 03:35:31  5-MIN KMSN 280935Z 28003KT 3SM -SN BR FEW016 SCT038 OVC055 M06/M08 A2952 1240 88 -1000 280/03 RMK AO2 P0000
14837KMSN MSN20011228034011912/28/01 03:40:31  5-MIN KMSN 280940Z 00000KT 4SM -SN BR BKN038 OVC055 M06/M08 A2952 1240 88 -1000 000/00 RMK AO2 P0000
14837KMSN MSN20011228034511912/28/01 03:45:31  5-MIN KMSN 280945Z 28003KT 3SM -SN BR BKN038 OVC055 M06/M08 A2951 1240 88 -1000 270/03 RMK AO2 P0000
14837KMSN MSN20011228035013612/28/01 03:50:31  5-MIN KMSN 280950Z 00000KT 3SM -SN BR BKN036 OVC055 M06/M08 A2951 1240 88 -1000 000/00 RMK AO2 SLP006 P0000 T10611078
14837KMSN MSN20011228035511912/28/01 03:55:31  5-MIN KMSN 280955Z VRB03KT 3SM -SN BR BKN036 OVC055 M06/M08 A2951 1250 88 -1000 VRB/03 RMK AO2 P0000
14837KMSN MSN20011228040011912/28/01 04:00:31  5-MIN KMSN 281000Z 26004KT 3SM -SN BR BKN036 OVC055 M06/M08 A2951 1250 88 -1000 260/04 RMK AO2 P0000
14837KMSN MSN20011228040511212/28/01 04:05:31  5-MIN KMSN 281005Z 25003KT 4SM -SN BR OVC034 M06/M08 A2951 1250 88 -1000 250/03 RMK AO2 P0000
14837KMSN MSN20011228041011212/28/01 04:10:31  5-MIN KMSN 281010Z 25003KT 4SM -SN BR OVC034 M06/M08 A2951 1250 88 -1000 250/03 RMK AO2 P0000
14837KMSN MSN20011228041511212/28/01 04:15:31  5-MIN KMSN 281015Z VRB03KT 5SM -SN BR OVC032 M06/M08 A2951 1250 88 -1000 VRB/03 RMK AO2 P0000
14837KMSN MSN20011228042011212/28/01 04:20:31  5-MIN KMSN 281020Z 25005KT 5SM -SN BR OVC034 M06/M08 A2951 1250 88 -1000 250/05 RMK AO2 P0000
14837KMSN MSN20011228042511912/28/01 04:25:31  5-MIN KMSN 281025Z 26005KT 5SM -SN BR BKN034 OVC042 M06/M08 A2951 1250 88 -1000 260/05 RMK AO2 P0000
14837KMSN MSN20011228043012612/28/01 04:30:31  5-MIN KMSN 281030Z 26004KT 4SM -SN BR BKN034 BKN040 OVC050 M06/M08 A2951 1250 88 -1000 260/04 RMK AO2 P0000
14837KMSN MSN20011228043511912/28/01 04:35:31  5-MIN KMSN 281035Z 26004KT 4SM -SN BR BKN034 OVC050 M06/M08 A2951 1250 88 -1000 250/04 RMK AO2 P0000
14837KMSN MSN20011228044011912/28/01 04:40:31  5-MIN KMSN 281040Z VRB05KT 4SM -SN BR BKN036 OVC050 M06/M08 A2951 1240 88 -1000 VRB/05 RMK AO2 P0000
14837KMSN MSN20011228044512612/28/01 04:45:31  5-MIN KMSN 281045Z VRB05KT 3SM -SN BR FEW027 BKN036 OVC050 M06/M08 A2951 1250 84 -1000 VRB/05 RMK AO2 P0000
14837KMSN MSN20011228045014712/28/01 04:50:31  5-MIN KMSN 281050Z 26005KT 2 1/2SM -SN BR FEW027 BKN034 OVC050 M06/M08 A2951 1240 88 -1000 250/05 RMK AO2 SLP007 P0000 T10611078
14837KMSN MSN20011228045512612/28/01 04:55:31  5-MIN KMSN 281055Z VRB04KT 4SM -SN BR FEW028 BKN034 OVC050 M06/M08 A2951 1240 88 -1000 VRB/04 RMK AO2 P0000
14837KMSN MSN20011228050012612/28/01 05:00:31  5-MIN KMSN 281100Z 26005KT 5SM -SN BR FEW028 BKN034 OVC050 M06/M08 A2951 1240 84 -1000 260/05 RMK AO2 P0000
14837KMSN MSN20011228050512612/28/01 05:05:31  5-MIN KMSN 281105Z 27005KT 6SM -SN BR FEW028 BKN034 OVC050 M06/M08 A2951 1240 84 -1000 270/05 RMK AO2 P0000
14837KMSN MSN20011228051012612/28/01 05:10:31  5-MIN KMSN 281110Z 27005KT 6SM -SN BR FEW028 BKN034 OVC048 M06/M08 A2951 1240 84 -1000 270/05 RMK AO2 P0000
14837KMSN MSN20011228051513512/28/01 05:15:31  5-MIN KMSN 281115Z 28007KT 230V290 4SM -SN BR BKN032 OVC046 M06/M08 A2951 1240 88 -1000 270/07 230V290 RMK AO2 P0000
14837KMSN MSN20011228052011912/28/01 05:20:31  5-MIN KMSN 281120Z 28006KT 5SM -SN BR SCT032 OVC046 M06/M08 A2951 1240 88 -1000 270/06 RMK AO2 P0000
14837KMSN MSN20011228052511812/28/01 05:25:31  5-MIN KMSN 281125Z 27004KT 7SM FEW032 OVC046 M06/M09 A2951 1240 77 -1000 270/04 RMK AO2 SNE24 P0000
14837KMSN MSN20011228053011812/28/01 05:30:31  5-MIN KMSN 281130Z 27005KT 8SM SCT032 OVC046 M06/M09 A2952 1240 77 -1000 270/05 RMK AO2 SNE24 P0000
14837KMSN MSN20011228053511612/28/01 05:35:31  5-MIN KMSN 281135Z 27006KT 7SM -SN SCT032 OVC044 M06/M09 A2952 1240 77 -1000 270/06 RMK AO2 P0000
14837KMSN MSN20011228054011612/28/01 05:40:31  5-MIN KMSN 281140Z 27006KT 6SM -SN FEW032 OVC044 M06/M09 A2952 1240 77 -1000 270/06 RMK AO2 P0000
14837KMSN MSN20011228054511612/28/01 05:45:31  5-MIN KMSN 281145Z 27005KT 6SM -SN FEW032 OVC044 M06/M09 A2952 1240 77 -1000 270/05 RMK AO2 P0000
14837KMSN MSN20011228055017312/28/01 05:50:31  5-MIN KMSN 281150Z 27007KT 220V290 5SM -SN FEW032 OVC044 M06/M09 A2952 1230 77 -1000 270/07 220V290 RMK AO2 SLP009 P0000 60000 T10611094 11056 21067 58005
14837KMSN MSN20011228055510912/28/01 05:55:31  5-MIN KMSN 281155Z 27006KT 4SM -SN OVC044 M06/M09 A2952 1230 81 -1000 270/06 RMK AO2 P0000
14837KMSN MSN20011228060011912/28/01 06:00:31  5-MIN KMSN 281200Z 28008KT 4SM -SN BR FEW027 OVC042 M06/M08 A2953 1230 84 -1000 280/08 RMK AO2 P0000
14837KMSN MSN20011228060511612/28/01 06:05:31  5-MIN KMSN 281205Z 28007KT 3SM -SN SCT029 OVC042 M06/M09 A2953 1230 81 -1000 280/07 RMK AO2 P0000
14837KMSN MSN20011228061011612/28/01 06:10:31  5-MIN KMSN 281210Z 28008KT 3SM -SN SCT029 OVC042 M06/M09 A2953 1230 77 -1000 280/08 RMK AO2 P0000
14837KMSN MSN20011228061512312/28/01 06:15:31  5-MIN KMSN 281215Z VRB05KT 6SM -SN FEW029 BKN042 OVC050 M07/M09 A2953 1230 81 -1100 VRB/05 RMK AO2 P0000
14837KMSN MSN20011228062012512/28/01 06:20:31  5-MIN KMSN 281220Z 27006KT 8SM FEW023 BKN042 OVC050 M07/M10 A2953 1230 77 -1100 270/06 RMK AO2 SNE19 P0000
14837KMSN MSN20011228062512312/28/01 06:25:31  5-MIN KMSN 281225Z 27009KT 9SM -SN FEW028 BKN037 OVC050 M07/M11 A2953 1220 71 -1100 270/09 RMK AO2 P0000
14837KMSN MSN20011228063012312/28/01 06:30:31  5-MIN KMSN 281230Z 27010KT 9SM -SN FEW028 BKN037 OVC050 M07/M12 A2954 1220 68 -1100 270/10 RMK AO2 P0000
14837KMSN MSN20011228063511612/28/01 06:35:31  5-MIN KMSN 281235Z 28008KT 9SM -SN BKN037 OVC050 M07/M13 A2954 1220 65 -1100 280/08 RMK AO2 P0000
14837KMSN MSN20011228064011612/28/01 06:40:31  5-MIN KMSN 281240Z 28008KT 9SM -SN BKN037 BKN049 M08/M13 A2954 1220 67 -1200 280/08 RMK AO2 P0000
14837KMSN MSN20011228064511612/28/01 06:45:31  5-MIN KMSN 281245Z 28008KT 9SM -SN FEW027 BKN037 M08/M13 A2954 1220 67 -1200 280/08 RMK AO2 P0000
14837KMSN MSN20011228065015112/28/01 06:50:31  5-MIN KMSN 281250Z 27007KT 240V310 9SM FEW027 BKN037 M08/M13 A2954 1220 70 -1300 270/07 240V310 RMK AO2 SNE50 SLP017 P0000 T10831128
14837KMSN MSN20011228065510612/28/01 06:55:31  5-MIN KMSN 281255Z 27007KT 9SM SCT029 BKN037 M08/M13 A2954 1210 70 -1300 270/07 RMK AO2
14837KMSN MSN20011228070012212/28/01 07:00:31  5-MIN KMSN 281300Z 28008KT 8SM -SN BKN029 BKN039 M08/M12 A2955 1210 74 -1300 270/08 RMK AO2 SNB00 P0000
14837KMSN MSN20011228070511512/28/01 07:05:31  5-MIN KMSN 281305Z 27008KT 7SM -SN BKN027 M08/M13 A2955 1210 70 -1300 270/08 RMK AO2 SNB00 P0000
14837KMSN MSN20011228071012212/28/01 07:10:31  5-MIN KMSN 281310Z 28006KT 7SM -SN FEW022 BKN029 M08/M13 A2955 1210 70 -1300 270/06 RMK AO2 SNB00 P0000
14837KMSN MSN20011228071512212/28/01 07:15:31  5-MIN KMSN 281315Z 27007KT 6SM -SN FEW022 OVC031 M08/M12 A2955 1210 74 -1300 270/07 RMK AO2 SNB00 P0000
14837KMSN MSN20011228072011512/28/01 07:20:31  5-MIN KMSN 281320Z VRB06KT 3SM -SN OVC031 M08/M12 A2956 1200 77 -1300 VRB/06 RMK AO2 SNB00 P0000
14837KMSN MSN20011228072512212/28/01 07:25:31  5-MIN KMSN 281325Z 27006KT 3SM -SN FEW025 OVC034 M08/M12 A2956 1200 77 -1300 270/06 RMK AO2 SNB00 P0000
14837KMSN MSN20011228073011512/28/01 07:30:31  5-MIN KMSN 281330Z 28006KT 3SM -SN OVC034 M08/M11 A2956 1200 80 -1300 270/06 RMK AO2 SNB00 P0000
14837KMSN MSN20011228073511512/28/01 07:35:31  5-MIN KMSN 281335Z VRB05KT 3SM -SN OVC034 M08/M12 A2956 1200 77 -1300 VRB/05 RMK AO2 SNB00 P0000
14837KMSN MSN20011228074012212/28/01 07:40:31  5-MIN KMSN 281340Z 28007KT 3SM -SN FEW029 OVC036 M08/M11 A2956 1200 80 -1300 280/07 RMK AO2 SNB00 P0000
14837KMSN MSN20011228074511512/28/01 07:45:31  5-MIN KMSN 281345Z 29006KT 3SM -SN OVC036 M08/M11 A2956 1200 80 -1300 280/06 RMK AO2 SNB00 P0000
14837KMSN MSN20011228075014612/28/01 07:50:31  5-MIN KMSN 281350Z 27007KT 2 1/2SM -SN BR BKN036 OVC046 M08/M11 A2956 1200 84 -1300 270/07 RMK AO2 SNB00 SLP023 P0000 T10831106
14837KMSN MSN20011228075513312/28/01 07:55:31  5-MIN KMSN 281355Z 28007KT 2SM -SN BR BKN034 OVC044 M08/M11 A2956 1200 84 -1300 280/07 RMK AO2 TWR VIS 2 1/2 P0000
14837KMSN MSN20011228080012312/28/01 08:00:31  5-MIN KMSN 281400Z 28007KT 2 1/2SM -SN BR BKN034 OVC044 M08/M11 A2956 1200 84 -1300 280/07 RMK AO2 P0000
14837KMSN MSN20011228080512312/28/01 08:05:31  5-MIN KMSN 281405Z 27004KT 2 1/2SM -SN BR BKN034 OVC042 M08/M11 A2956 1200 84 -1300 270/04 RMK AO2 P0000
14837KMSN MSN20011228081011612/28/01 08:10:31  5-MIN KMSN 281410Z VRB05KT 2 1/2SM -SN BR OVC038 M08/M10 A2956 1200 88 -1300 VRB/05 RMK AO2 P0000
14837KMSN MSN20011228081511612/28/01 08:15:31  5-MIN KMSN 281415Z 28008KT 2 1/2SM -SN BR OVC038 M08/M11 A2957 1190 84 -1300 270/08 RMK AO2 P0000
14837KMSN MSN20011228082012612/28/01 08:20:31  5-MIN KMSN 281420Z 28006KT 2 1/2SM -SN BR OVC038 M08/M11 A2957 1190 84 -1300 280/06 RMK AO2 SFC VIS 3 P0000
14837KMSN MSN20011228082512312/28/01 08:25:31  5-MIN KMSN 281425Z 27007KT 2 1/2SM -SN OVC038 M08/M11 A2957 1190 80 -1300 270/07 RMK AO2 SFC VIS 3 P0000
14837KMSN MSN20011228083015612/28/01 08:30:31  5-MIN KMSN 281430Z 27007KT 230V300 2 1/2SM -SN BR FEW032 BKN041 OVC050 M08/M11 A2957 1190 84 -1300 270/07 230V300 RMK AO2 SFC VIS 3 P0000
14837KMSN MSN20011228083515612/28/01 08:35:31  5-MIN KMSN 281435Z 26007KT 220V290 2 1/2SM -SN BR FEW032 BKN041 OVC050 M08/M11 A2957 1190 84 -1300 260/07 220V290 RMK AO2 SFC VIS 3 P0000
14837KMSN MSN20011228084014012/28/01 08:40:31  5-MIN KMSN 281440Z 26008KT 2 1/2SM -SN BR FEW032 BKN039 BKN050 M08/M11 A2957 1190 84 -1300 260/08 RMK AO2 SFC VIS 3 P0000
14837KMSN MSN20011228084514012/28/01 08:45:31  5-MIN KMSN 281445Z 27007KT 2 1/2SM -SN BR FEW032 BKN039 BKN050 M08/M11 A2957 1190 84 -1300 260/07 RMK AO2 SFC VIS 3 P0000
14837KMSN MSN20011228085018512/28/01 08:50:31  5-MIN KMSN 281450Z 27007KT 230V300 2 1/2SM -SN BR FEW032 BKN039 BKN050 M08/M11 A2957 1190 84 -1300 270/07 230V300 RMK AO2 SFC VIS 3 SLP027 P0000 60000 T10831106 55002
14837KMSN MSN20011228085514012/28/01 08:55:31  5-MIN KMSN 281455Z 27007KT 2SM -SN BR FEW032 BKN042 OVC050 M08/M11 A2958 1190 84 -1300 270/07 RMK AO2 TWR VIS 2 1/2 P0000
14837KMSN MSN20011228090014012/28/01 09:00:31  5-MIN KMSN 281500Z 28008KT 2 1/2SM -SN BR FEW034 SCT042 BKN050 M08/M11 A2958 1180 84 -1300 280/08 RMK AO2 SFC VIS 3 P0000
14837KMSN MSN20011228090513712/28/01 09:05:31  5-MIN KMSN 281505Z 28008KT 2 1/2SM -SN FEW034 BKN042 BKN050 M08/M11 A2958 1180 80 -1300 280/08 RMK AO2 SFC VIS 3 P0000
14837KMSN MSN20011228091015612/28/01 09:10:31  5-MIN KMSN 281510Z 26009KT 230V290 2 1/2SM -SN BR FEW034 BKN042 BKN050 M08/M11 A2958 1180 84 -1300 260/09 230V290 RMK AO2 SFC VIS 3 P0000
14837KMSN MSN20011228091512312/28/01 09:15:31  5-MIN KMSN 281515Z 28009KT 3SM -SN FEW034 BKN042 BKN050 M08/M11 A2958 1180 80 -1300 280/09 RMK AO2 P0000
14837KMSN MSN20011228092013712/28/01 09:20:31  5-MIN KMSN 281520Z 28008KT 240V320 4SM HZ BKN042 BKN050 M08/M11 A2958 1180 80 -1300 280/08 240V320 RMK AO2 SNE20 P0000
14837KMSN MSN20011228092511812/28/01 09:25:31  5-MIN KMSN 281525Z 29008KT 7SM SCT042 SCT050 M08/M11 A2958 1180 80 -1300 290/08 RMK AO2 SNE20 P0000
14837KMSN MSN20011228093011812/28/01 09:30:31  5-MIN KMSN 281530Z 28008KT 7SM SCT042 SCT050 M08/M11 A2958 1180 80 -1300 280/08 RMK AO2 SNE20 P0000
14837KMSN MSN20011228093510512/28/01 09:35:31  5-MIN KMSN 281535Z 28010KT 8SM SCT040 M08/M11 A2958 1180 80 -1300 280/10 RMK AO2 P0000
14837KMSN MSN20011228094012112/28/01 09:40:31  5-MIN KMSN 281540Z 27008KT 220V300 8SM SCT040 M08/M12 A2958 1180 77 -1300 270/08 220V300 RMK AO2 P0000
14837KMSN MSN20011228094510612/28/01 09:45:31  5-MIN KMSN 281545Z 28009KT 10SM SCT040 M08/M12 A2958 1180 74 -1300 280/09 RMK AO2 P0000
14837KMSN MSN20011228095012312/28/01 09:50:31  5-MIN KMSN 281550Z 30008KT 10SM SCT038 M08/M11 A2959 1180 77 -1300 300/08 RMK AO2 SLP033 P0000 T10781111
14837KMSN MSN20011228095510012/28/01 09:55:31  5-MIN KMSN 281555Z 28010KT 10SM SCT038 M08/M12 A2959 1170 74 -1300 280/10 RMK AO2
14837KMSN MSN20011228100010012/28/01 10:00:31  5-MIN KMSN 281600Z 29007KT 10SM SCT038 M08/M12 A2959 1170 74 -1300 290/07 RMK AO2
14837KMSN MSN20011228100510612/28/01 10:05:31  5-MIN KMSN 281605Z 30011G15KT 10SM SCT038 M08/M12 A2959 1170 71 -1300 300/11G15 RMK AO2
14837KMSN MSN20011228101010612/28/01 10:10:31  5-MIN KMSN 281610Z 29009G15KT 10SM SCT038 M08/M12 A2959 1170 74 -1300 290/09G15 RMK AO2
14837KMSN MSN20011228101511412/28/01 10:15:31  5-MIN KMSN 281615Z 30008KT 10SM FEW026 SCT034 SCT043 M08/M12 A2959 1170 71 -1300 300/08 RMK AO2
14837KMSN MSN20011228102011412/28/01 10:20:31  5-MIN KMSN 281620Z 29009KT 10SM FEW026 SCT034 SCT043 M08/M12 A2959 1170 71 -1300 290/09 RMK AO2
14837KMSN MSN20011228102510712/28/01 10:25:31  5-MIN KMSN 281625Z 29008KT 10SM SCT023 SCT032 M08/M13 A2959 1170 67 -1300 290/08 RMK AO2
14837KMSN MSN20011228103010712/28/01 10:30:31  5-MIN KMSN 281630Z 29010KT 10SM SCT023 SCT032 M08/M13 A2959 1170 67 -1300 290/10 RMK AO2
14837KMSN MSN20011228103510712/28/01 10:35:31  5-MIN KMSN 281635Z 30008KT 10SM SCT023 SCT032 M08/M13 A2959 1170 67 -1300 300/08 RMK AO2
14837KMSN MSN20011228104010712/28/01 10:40:31  5-MIN KMSN 281640Z 30007KT 10SM SCT023 SCT032 M08/M13 A2959 1170 67 -1300 300/07 RMK AO2
14837KMSN MSN20011228104510012/28/01 10:45:31  5-MIN KMSN 281645Z 31008KT 10SM SCT023 M08/M13 A2959 1170 67 -1300 310/08 RMK AO2
14837KMSN MSN20011228105011712/28/01 10:50:31  5-MIN KMSN 281650Z 30010KT 10SM SCT023 M07/M13 A2959 1170 62 -1200 300/10 RMK AO2 SLP035 T10721133
14837KMSN MSN20011228105510012/28/01 10:55:31  5-MIN KMSN 281655Z 31010KT 10SM FEW023 M08/M13 A2959 1170 64 -1300 300/10 RMK AO2
14837KMSN MSN20011228110010012/28/01 11:00:31  5-MIN KMSN 281700Z 29011KT 10SM SCT025 M08/M14 A2959 1170 62 -1300 290/11 RMK AO2
14837KMSN MSN20011228110510012/28/01 11:05:31  5-MIN KMSN 281705Z 30009KT 10SM SCT025 M08/M13 A2959 1170 64 -1300 290/09 RMK AO2
14837KMSN MSN20011228111011612/28/01 11:10:31  5-MIN KMSN 281710Z 30007KT 250V340 10SM FEW025 M08/M14 A2959 1170 62 -1300 300/07 250V340 RMK AO2
14837KMSN MSN20011228111510012/28/01 11:15:31  5-MIN KMSN 281715Z 30010KT 10SM SCT025 M08/M14 A2959 1170 62 -1300 300/10 RMK AO2
14837KMSN MSN20011228112010012/28/01 11:20:31  5-MIN KMSN 281720Z 30010KT 10SM SCT025 M08/M14 A2959 1170 59 -1300 300/10 RMK AO2
14837KMSN MSN20011228112510012/28/01 11:25:31  5-MIN KMSN 281725Z 29009KT 10SM SCT025 M08/M14 A2959 1170 59 -1300 290/09 RMK AO2
14837KMSN MSN20011228113010612/28/01 11:30:31  5-MIN KMSN 281730Z 31010G16KT 10SM SCT025 M08/M14 A2959 1170 59 -1300 310/10G16 RMK AO2
14837KMSN MSN20011228113510612/28/01 11:35:31  5-MIN KMSN 281735Z 32010G16KT 10SM SCT025 M08/M14 A2959 1170 59 -1300 320/10G16 RMK AO2
14837KMSN MSN20011228114011612/28/01 11:40:31  5-MIN KMSN 281740Z 31010KT 270V330 10SM SCT025 M08/M13 A2959 1170 64 -1300 310/10 270V330 RMK AO2
14837KMSN MSN20011228114510012/28/01 11:45:31  5-MIN KMSN 281745Z 29009KT 10SM SCT025 M08/M14 A2959 1170 59 -1300 290/09 RMK AO2
14837KMSN MSN20011228115014112/28/01 11:50:31  5-MIN KMSN 281750Z 31009KT 10SM SCT025 M08/M14 A2959 1180 62 -1300 310/09 RMK AO2 SLP033 60000 T10831144 11061 21083 51017
14837KMSN MSN20011228115509712/28/01 11:55:31  5-MIN KMSN 281755Z 30009KT 10SM CLR M08/M15 A2959 1180 56 -1300 300/09 RMK AO2
14837KMSN MSN20011228120009712/28/01 12:00:31  5-MIN KMSN 281800Z 31010KT 10SM CLR M07/M14 A2959 1170 59 -1200 310/10 RMK AO2
14837KMSN MSN20011228120511612/28/01 12:05:31  5-MIN KMSN 281805Z 30009KT 250V330 10SM SCT025 M07/M14 A2959 1170 59 -1200 300/09 250V330 RMK AO2
14837KMSN MSN20011228121010012/28/01 12:10:31  5-MIN KMSN 281810Z 30010KT 10SM SCT025 M08/M14 A2959 1170 59 -1300 300/10 RMK AO2
14837KMSN MSN20011228121510012/28/01 12:15:31  5-MIN KMSN 281815Z 29007KT 10SM SCT029 M08/M14 A2959 1170 59 -1300 290/07 RMK AO2
14837KMSN MSN20011228122010012/28/01 12:20:31  5-MIN KMSN 281820Z 31009KT 10SM SCT029 M08/M14 A2959 1170 62 -1300 310/09 RMK AO2
14837KMSN MSN20011228122510012/28/01 12:25:31  5-MIN KMSN 281825Z 29008KT 10SM SCT029 M07/M14 A2959 1170 59 -1200 290/08 RMK AO2
14837KMSN MSN20011228123010012/28/01 12:30:31  5-MIN KMSN 281830Z 28007KT 10SM SCT029 M07/M14 A2959 1170 56 -1200 280/07 RMK AO2
14837KMSN MSN20011228123510012/28/01 12:35:31  5-MIN KMSN 281835Z 27009KT 10SM SCT029 M07/M14 A2959 1170 56 -1200 270/09 RMK AO2
14837KMSN MSN20011228124011612/28/01 12:40:31  5-MIN KMSN 281840Z 27007KT 230V320 10SM BKN027 M07/M14 A2959 1170 59 -1200 270/07 230V320 RMK AO2
14837KMSN MSN20011228124511612/28/01 12:45:31  5-MIN KMSN 281845Z 32009KT 280V340 10SM BKN027 M07/M13 A2960 1160 62 -1200 310/09 280V340 RMK AO2
14837KMSN MSN20011228125011712/28/01 12:50:31  5-MIN KMSN 281850Z 32011KT 10SM BKN030 M07/M14 A2960 1160 59 -1200 310/11 RMK AO2 SLP036 T10721139
14837KMSN MSN20011228125510012/28/01 12:55:31  5-MIN KMSN 281855Z 30008KT 10SM OVC030 M08/M14 A2960 1160 62 -1300 300/08 RMK AO2
14837KMSN MSN20011228130010012/28/01 13:00:31  5-MIN KMSN 281900Z 31006KT 10SM BKN030 M08/M14 A2960 1160 59 -1300 310/06 RMK AO2
14837KMSN MSN20011228130510012/28/01 13:05:31  5-MIN KMSN 281905Z 28007KT 10SM BKN030 M08/M14 A2961 1160 62 -1300 280/07 RMK AO2
14837KMSN MSN20011228131010012/28/01 13:10:31  5-MIN KMSN 281910Z 28008KT 10SM BKN030 M08/M14 A2961 1150 62 -1300 280/08 RMK AO2
14837KMSN MSN20011228131510012/28/01 13:15:31  5-MIN KMSN 281915Z 30008KT 10SM BKN030 M08/M14 A2961 1150 62 -1300 300/08 RMK AO2
14837KMSN MSN20011228132010012/28/01 13:20:31  5-MIN KMSN 281920Z 30009KT 10SM BKN030 M07/M13 A2961 1150 62 -1200 300/09 RMK AO2
14837KMSN MSN20011228132510012/28/01 13:25:31  5-MIN KMSN 281925Z 28008KT 10SM BKN030 M07/M14 A2962 1150 59 -1200 280/08 RMK AO2
14837KMSN MSN20011228133010012/28/01 13:30:31  5-MIN KMSN 281930Z 31007KT 10SM BKN030 M08/M13 A2962 1150 64 -1300 310/07 RMK AO2
14837KMSN MSN20011228133511612/28/01 13:35:31  5-MIN KMSN 281935Z 29008KT 260V330 10SM BKN030 M08/M13 A2962 1140 64 -1300 290/08 260V330 RMK AO2
14837KMSN MSN20011228134009912/28/01 13:40:31  5-MIN KMSN 281940Z 31010KT 9SM BKN030 M08/M13 A2962 1140 64 -1300 310/10 RMK AO2
14837KMSN MSN20011228134511612/28/01 13:45:31  5-MIN KMSN 281945Z 31009KT 10SM -SN OVC030 M08/M13 A2962 1140 64 -1300 310/09 RMK AO2 SNB42 P0000
14837KMSN MSN20011228135013312/28/01 13:50:31  5-MIN KMSN 281950Z 31008KT 10SM -SN OVC030 M08/M13 A2963 1140 64 -1300 310/08 RMK AO2 SNB42 SLP046 P0000 T10781133
14837KMSN MSN20011228135512512/28/01 13:55:31  5-MIN KMSN 281955Z 28009KT 250V320 8SM -SN OVC030 M08/M14 A2963 1130 62 -1300 280/09 250V320 RMK AO2 P0000
14837KMSN MSN20011228140011312/28/01 14:00:31  5-MIN KMSN 282000Z 29010KT 8SM OVC030 M08/M14 A2963 1130 62 -1300 290/10 RMK AO2 SNE1958 P0000
14837KMSN MSN20011228140511312/28/01 14:05:31  5-MIN KMSN 282005Z 28008KT 7SM OVC032 M08/M14 A2963 1130 62 -1300 280/08 RMK AO2 SNE1958 P0000
14837KMSN MSN20011228141011312/28/01 14:10:31  5-MIN KMSN 282010Z 32007KT 7SM OVC032 M08/M14 A2963 1130 62 -1300 320/07 RMK AO2 SNE1958 P0000
14837KMSN MSN20011228141512112/28/01 14:15:31  5-MIN KMSN 282015Z 29008KT 10SM FEW027 BKN032 M08/M14 A2963 1130 62 -1300 290/08 RMK AO2 SNE1958 P0000
14837KMSN MSN20011228142012112/28/01 14:20:31  5-MIN KMSN 282020Z 32007KT 10SM FEW027 BKN032 M07/M13 A2963 1130 62 -1300 320/07 RMK AO2 SNE1958 P0000
14837KMSN MSN20011228142512112/28/01 14:25:31  5-MIN KMSN 282025Z 31010KT 10SM FEW027 BKN032 M07/M13 A2963 1130 62 -1300 310/10 RMK AO2 SNE1958 P0000
14837KMSN MSN20011228143012112/28/01 14:30:31  5-MIN KMSN 282030Z 30007KT 10SM FEW024 BKN034 M07/M14 A2963 1130 59 -1200 300/07 RMK AO2 SNE1958 P0000
14837KMSN MSN20011228143512112/28/01 14:35:31  5-MIN KMSN 282035Z 29008KT 10SM FEW024 BKN034 M07/M13 A2963 1140 62 -1200 290/08 RMK AO2 SNE1958 P0000
14837KMSN MSN20011228144011412/28/01 14:40:31  5-MIN KMSN 282040Z 29008KT 10SM SCT034 M07/M14 A2963 1130 59 -1300 290/08 RMK AO2 SNE1958 P0000
14837KMSN MSN20011228144511412/28/01 14:45:31  5-MIN KMSN 282045Z 29009KT 10SM SCT034 M08/M14 A2963 1130 62 -1300 290/09 RMK AO2 SNE1958 P0000
14837KMSN MSN20011228145014312/28/01 14:50:31  5-MIN KMSN 282050Z 28007KT 10SM SCT034 M08/M14 A2964 1130 62 -1400 280/07 RMK AO2 SNE1958 SLP050 P0000 60000 T10831144 50004
14837KMSN MSN20011228145510712/28/01 14:55:31  5-MIN KMSN 282055Z 29004KT 10SM FEW030 SCT036 M08/M14 A2964 1120 64 -1400 290/04 RMK AO2
14837KMSN MSN20011228150010012/28/01 15:00:31  5-MIN KMSN 282100Z 30005KT 10SM SCT030 M08/M13 A2964 1120 67 -1400 300/05 RMK AO2
14837KMSN MSN20011228150510012/28/01 15:05:31  5-MIN KMSN 282105Z 29005KT 10SM BKN030 M08/M13 A2964 1120 67 -1400 290/05 RMK AO2
14837KMSN MSN20011228151010012/28/01 15:10:31  5-MIN KMSN 282110Z 29006KT 10SM BKN030 M08/M13 A2964 1120 64 -1300 290/06 RMK AO2
14837KMSN MSN20011228151510012/28/01 15:15:31  5-MIN KMSN 282115Z 29005KT 10SM BKN030 M08/M13 A2965 1120 64 -1300 290/05 RMK AO2
14837KMSN MSN20011228152010012/28/01 15:20:31  5-MIN KMSN 282120Z 29007KT 10SM BKN030 M08/M14 A2965 1120 62 -1300 290/07 RMK AO2
14837KMSN MSN20011228152510012/28/01 15:25:31  5-MIN KMSN 282125Z 29005KT 10SM BKN030 M08/M14 A2965 1110 62 -1300 290/05 RMK AO2
14837KMSN MSN20011228153010012/28/01 15:30:31  5-MIN KMSN 282130Z 30007KT 10SM OVC039 M08/M14 A2966 1110 59 -1400 300/07 RMK AO2
14837KMSN MSN20011228153510712/28/01 15:35:31  5-MIN KMSN 282135Z 30006KT 10SM FEW027 OVC041 M08/M15 A2966 1110 56 -1400 300/06 RMK AO2
14837KMSN MSN20011228154010712/28/01 15:40:31  5-MIN KMSN 282140Z 30007KT 10SM FEW027 OVC041 M08/M14 A2966 1100 59 -1400 300/07 RMK AO2
14837KMSN MSN20011228154510712/28/01 15:45:31  5-MIN KMSN 282145Z 31008KT 10SM FEW027 OVC043 M08/M14 A2967 1100 59 -1400 300/08 RMK AO2
14837KMSN MSN20011228155012412/28/01 15:50:31  5-MIN KMSN 282150Z 30007KT 10SM FEW027 OVC043 M08/M13 A2967 1090 67 -1400 300/07 RMK AO2 SLP063 T10831133
14837KMSN MSN20011228155513312/28/01 15:55:31  5-MIN KMSN 282155Z 29007KT 250V320 10SM -SN FEW027 OVC043 M08/M13 A2968 1090 67 -1400 290/07 250V320 RMK AO2 P0000
14837KMSN MSN20011228181510012/28/01 18:15:31  5-MIN KMSN 290015Z 32007KT 10SM OVC047 M09/M14 A2971 1060 64 -1600 320/07 RMK AO2
14837KMSN MSN20011228182010012/28/01 18:20:31  5-MIN KMSN 290020Z 31005KT 10SM OVC047 M09/M15 A2971 1060 61 -1600 310/05 RMK AO2
14837KMSN MSN20011228182510012/28/01 18:25:31  5-MIN KMSN 290025Z 31005KT 10SM OVC047 M09/M14 A2972 1050 64 -1600 310/05 RMK AO2
14837KMSN MSN20011228183010012/28/01 18:30:31  5-MIN KMSN 290030Z 31006KT 10SM OVC047 M09/M14 A2972 1050 67 -1600 310/06 RMK AO2
14837KMSN MSN20011228183510012/28/01 18:35:31  5-MIN KMSN 290035Z 31005KT 10SM OVC047 M09/M15 A2972 1050 64 -1600 310/05 RMK AO2
14837KMSN MSN20011228184010012/28/01 18:40:31  5-MIN KMSN 290040Z 31006KT 10SM BKN047 M09/M15 A2972 1050 64 -1600 310/06 RMK AO2
14837KMSN MSN20011228184510012/28/01 18:45:31  5-MIN KMSN 290045Z 31005KT 10SM BKN045 M09/M15 A2973 1050 64 -1700 310/05 RMK AO2
14837KMSN MSN20011228185011712/28/01 18:50:31  5-MIN KMSN 290050Z 31005KT 10SM SCT045 M10/M15 A2973 1040 67 -1700 310/05 RMK AO2 SLP083 T11001150
14837KMSN MSN20011228185510012/28/01 18:55:31  5-MIN KMSN 290055Z 31004KT 10SM SCT045 M10/M14 A2973 1040 70 -1700 310/04 RMK AO2
14837KMSN MSN20011228190010012/28/01 19:00:31  5-MIN KMSN 290100Z 31004KT 10SM FEW047 M10/M15 A2973 1040 67 -1700 310/04 RMK AO2
14837KMSN MSN20011228190509712/28/01 19:05:31  5-MIN KMSN 290105Z 31005KT 10SM CLR M10/M15 A2974 1030 67 -1700 310/05 RMK AO2
14837KMSN MSN20011228191009712/28/01 19:10:31  5-MIN KMSN 290110Z 31005KT 10SM CLR M11/M16 A2974 1030 67 -1800 310/05 RMK AO2
14837KMSN MSN20011228191510012/28/01 19:15:31  5-MIN KMSN 290115Z 31004KT 10SM FEW021 M11/M15 A2974 1030 70 -1800 300/04 RMK AO2
14837KMSN MSN20011228192010712/28/01 19:20:31  5-MIN KMSN 290120Z VRB04KT 10SM FEW023 SCT027 M11/M15 A2974 1030 70 -1800 VRB/04 RMK AO2
14837KMSN MSN20011228192510712/28/01 19:25:31  5-MIN KMSN 290125Z 31006KT 10SM FEW023 SCT027 M11/M15 A2975 1030 70 -1800 310/06 RMK AO2
14837KMSN MSN20011228193010712/28/01 19:30:31  5-MIN KMSN 290130Z 31006KT 10SM SCT020 BKN027 M11/M14 A2975 1020 73 -1800 310/06 RMK AO2
14837KMSN MSN20011228193510712/28/01 19:35:31  5-MIN KMSN 290135Z 30004KT 10SM SCT020 BKN027 M11/M15 A2975 1020 70 -1800 300/04 RMK AO2
14837KMSN MSN20011228194010712/28/01 19:40:31  5-MIN KMSN 290140Z 31006KT 10SM FEW020 BKN027 M11/M14 A2975 1020 73 -1800 300/06 RMK AO2
14837KMSN MSN20011228194510712/28/01 19:45:31  5-MIN KMSN 290145Z 30005KT 10SM FEW020 BKN027 M11/M14 A2975 1020 73 -1800 300/05 RMK AO2
14837KMSN MSN20011228195013112/28/01 19:50:31  5-MIN KMSN 290150Z 30005KT 10SM FEW020 BKN027 OVC075 M11/M14 A2975 1020 73 -1800 290/05 RMK AO2 SLP091 T11061144
14837KMSN MSN20011228195512412/28/01 19:55:31  5-MIN KMSN 290155Z 29005KT 10SM -SN FEW020 SCT027 OVC075 M11/M14 A2976 1020 73 -1800 290/05 RMK AO2 P0000
14837KMSN MSN20011228200012312/28/01 20:00:31  5-MIN KMSN 290200Z 28004KT 9SM -SN FEW020 SCT027 OVC075 M11/M14 A2976 1010 73 -1800 280/04 RMK AO2 P0000
14837KMSN MSN20011228200512312/28/01 20:05:31  5-MIN KMSN 290205Z 28005KT 9SM -SN FEW027 SCT042 OVC075 M11/M14 A2976 1010 73 -1800 280/05 RMK AO2 P0000
14837KMSN MSN20011228201012312/28/01 20:10:31  5-MIN KMSN 290210Z 28005KT 9SM -SN FEW027 SCT050 OVC080 M11/M14 A2976 1010 73 -1800 280/05 RMK AO2 P0000
14837KMSN MSN20011228201511612/28/01 20:15:31  5-MIN KMSN 290215Z 28005KT 9SM -SN SCT060 OVC080 M11/M14 A2976 1010 73 -1800 280/05 RMK AO2 P0000
14837KMSN MSN20011228202011612/28/01 20:20:31  5-MIN KMSN 290220Z 28004KT 9SM -SN BKN070 OVC085 M11/M14 A2976 1010 73 -1800 280/04 RMK AO2 P0000
14837KMSN MSN20011228202510912/28/01 20:25:31  5-MIN KMSN 290225Z 28004KT 9SM -SN OVC070 M11/M14 A2976 1010 77 -1800 280/04 RMK AO2 P0000
14837KMSN MSN20011228203011612/28/01 20:30:31  5-MIN KMSN 290230Z 28004KT 9SM -SN BKN075 OVC090 M11/M14 A2977 1010 77 -1900 280/04 RMK AO2 P0000
14837KMSN MSN20011228203511812/28/01 20:35:31  5-MIN KMSN 290235Z 29005KT 9SM BKN075 OVC090 M11/M14 A2977 1010 77 -1900 290/05 RMK AO2 SNE34 P0000
14837KMSN MSN20011228204011912/28/01 20:40:31  5-MIN KMSN 290240Z 28006KT 10SM BKN075 OVC090 M11/M15 A2977 1010 73 -1900 280/06 RMK AO2 SNE34 P0000
14837KMSN MSN20011228204511912/28/01 20:45:31  5-MIN KMSN 290245Z VRB05KT 10SM BKN075 OVC090 M11/M15 A2977 1000 73 -1900 VRB/05 RMK AO2 SNE34 P0000
14837KMSN MSN20011228205014812/28/01 20:50:31  5-MIN KMSN 290250Z 28005KT 10SM BKN070 BKN090 M11/M15 A2977 1000 73 -1900 280/05 RMK AO2 SNE34 SLP097 P0000 60000 T11111150 51022
14837KMSN MSN20011228205510712/28/01 20:55:31  5-MIN KMSN 290255Z 28005KT 10SM BKN065 OVC090 M11/M15 A2977 1000 73 -1900 280/05 RMK AO2
14837KMSN MSN20011228210010712/28/01 21:00:31  5-MIN KMSN 290300Z 28006KT 10SM BKN060 OVC090 M11/M14 A2977 1000 77 -1900 280/06 RMK AO2
14837KMSN MSN20011228210511412/28/01 21:05:31  5-MIN KMSN 290305Z 28005KT 10SM FEW045 BKN060 OVC090 M11/M14 A2978 1000 77 -1900 280/05 RMK AO2
14837KMSN MSN20011228211011412/28/01 21:10:31  5-MIN KMSN 290310Z 28006KT 10SM FEW045 BKN065 OVC090 M11/M14 A2978 1000 80 -1900 280/06 RMK AO2
14837KMSN MSN20011228211510712/28/01 21:15:31  5-MIN KMSN 290315Z 28005KT 10SM FEW045 OVC060 M11/M14 A2978 1000 77 -1900 280/05 RMK AO2
14837KMSN MSN20011228212011412/28/01 21:20:31  5-MIN KMSN 290320Z 29005KT 10SM FEW045 BKN060 OVC075 M11/M14 A2977 1000 77 -1900 290/05 RMK AO2
14837KMSN MSN20011228212511412/28/01 21:25:31  5-MIN KMSN 290325Z 28005KT 10SM FEW045 BKN060 OVC075 M11/M14 A2977 1000 77 -1900 280/05 RMK AO2
14837KMSN MSN20011228213011412/28/01 21:30:31  5-MIN KMSN 290330Z 28006KT 10SM FEW045 BKN060 OVC075 M11/M14 A2977 1000 77 -1900 280/06 RMK AO2
14837KMSN MSN20011228213510612/28/01 21:35:31  5-MIN KMSN 290335Z 28004KT 9SM BKN060 OVC075 M11/M14 A2978 1000 80 -1900 280/04 RMK AO2
14837KMSN MSN20011228214012212/28/01 21:40:31  5-MIN KMSN 290340Z 27004KT 8SM -SN BKN055 OVC070 M11/M14 A2978 1000 80 -1900 270/04 RMK AO2 SNB39 P0000
14837KMSN MSN20011228214512212/28/01 21:45:31  5-MIN KMSN 290345Z 28004KT 6SM -SN FEW047 OVC060 M11/M14 A2978 1000 80 -1900 280/04 RMK AO2 SNB39 P0000
14837KMSN MSN20011228215013912/28/01 21:50:31  5-MIN KMSN 290350Z 28004KT 8SM -SN SCT048 OVC060 M11/M14 A2978 1000 80 -1900 280/04 RMK AO2 SNB39 SLP099 P0000 T11111139
14837KMSN MSN20011228215512612/28/01 21:55:31  5-MIN KMSN 290355Z 27005KT 5SM -SN BR FEW043 BKN055 OVC065 M11/M13 A2978 1000 84 -1900 270/05 RMK AO2 P0000
14837KMSN MSN20011228220012312/28/01 22:00:31  5-MIN KMSN 290400Z 28004KT 5SM -SN BKN055 BKN065 OVC095 M11/M14 A2978 1000 80 -1900 280/04 RMK AO2 P0000
14837KMSN MSN20011228220512612/28/01 22:05:31  5-MIN KMSN 290405Z 29004KT 6SM -SN BR SCT050 BKN065 OVC095 M11/M13 A2978 1000 84 -1900 280/04 RMK AO2 P0000
14837KMSN MSN20011228221011612/28/01 22:10:31  5-MIN KMSN 290410Z 29004KT 6SM -SN SCT055 OVC095 M11/M14 A2978 1000 80 -1900 290/04 RMK AO2 P0000
14837KMSN MSN20011228221511512/28/01 22:15:31  5-MIN KMSN 290415Z 28004KT 7SM -SN SCT055 OVC100 M11/M14 A2978 990 80 -1900 280/04 RMK AO2 P0000
14837KMSN MSN20011228222011512/28/01 22:20:31  5-MIN KMSN 290420Z 28004KT 8SM -SN FEW055 OVC095 M11/M13 A2978 990 84 -1900 280/04 RMK AO2 P0000
14837KMSN MSN20011228222510812/28/01 22:25:31  5-MIN KMSN 290425Z 28004KT 7SM -SN OVC095 M11/M13 A2978 990 84 -1900 270/04 RMK AO2 P0000
14837KMSN MSN20011228223011112/28/01 22:30:31  5-MIN KMSN 290430Z 27004KT 6SM -SN BR OVC090 M11/M13 A2978 990 84 -1900 270/04 RMK AO2 P0000
14837KMSN MSN20011228223511812/28/01 22:35:31  5-MIN KMSN 290435Z 28004KT 5SM -SN BR FEW070 OVC090 M11/M13 A2978 990 84 -1900 280/04 RMK AO2 P0000
14837KMSN MSN20011228224011812/28/01 22:40:31  5-MIN KMSN 290440Z 27004KT 5SM -SN BR FEW055 OVC090 M11/M13 A2979 990 84 -1900 270/04 RMK AO2 P0000
14837KMSN MSN20011228224511512/28/01 22:45:31  5-MIN KMSN 290445Z VRB04KT 8SM -SN SCT050 OVC090 M11/M13 A2979 990 88 -1900 VRB/04 RMK AO2 P0000
14837KMSN MSN20011228225013312/28/01 22:50:31  5-MIN KMSN 290450Z 27005KT 10SM -SN SCT050 BKN090 M11/M13 A2979 990 84 -1900 270/05 RMK AO2 SLP103 P0000 T11111133
14837KMSN MSN20011228225512212/28/01 22:55:31  5-MIN KMSN 290455Z 28004KT 9SM -SN SCT050 BKN060 OVC090 M11/M14 A2979 990 80 -1900 280/04 RMK AO2 P0000
14837KMSN MSN20011228230012212/28/01 23:00:31  5-MIN KMSN 290500Z 29005KT 9SM -SN SCT050 BKN060 OVC085 M11/M13 A2979 990 84 -1900 280/05 RMK AO2 P0000
14837KMSN MSN20011228230512212/28/01 23:05:31  5-MIN KMSN 290505Z 27005KT 9SM -SN SCT050 BKN060 OVC085 M11/M14 A2979 990 80 -1900 270/05 RMK AO2 P0000
14837KMSN MSN20011228231012512/28/01 23:10:31  5-MIN KMSN 290510Z VRB04KT 6SM -SN BR FEW034 BKN050 OVC070 M12/M13 A2979 980 87 -2000 VRB/04 RMK AO2 P0000
14837KMSN MSN20011228231512512/28/01 23:15:31  5-MIN KMSN 290515Z 28005KT 4SM -SN BR FEW019 BKN050 OVC070 M11/M13 A2979 980 84 -1900 280/05 RMK AO2 P0000
14837KMSN MSN20011228232012512/28/01 23:20:31  5-MIN KMSN 290520Z VRB03KT 4SM -SN BR FEW022 BKN034 OVC075 M11/M13 A2979 980 88 -1900 VRB/03 RMK AO2 P0000
14837KMSN MSN20011228232512512/28/01 23:25:31  5-MIN KMSN 290525Z 27004KT 4SM -SN BR FEW023 BKN036 OVC075 M11/M13 A2979 980 84 -1900 260/04 RMK AO2 P0000
14837KMSN MSN20011228233012512/28/01 23:30:31  5-MIN KMSN 290530Z VRB04KT 4SM -SN BR FEW018 BKN036 OVC050 M11/M13 A2979 980 88 -1900 VRB/04 RMK AO2 P0000
14837KMSN MSN20011228233512512/28/01 23:35:31  5-MIN KMSN 290535Z 28005KT 4SM -SN BR FEW018 SCT026 OVC036 M11/M13 A2979 980 88 -1900 280/05 RMK AO2 P0000
14837KMSN MSN20011228234013412/28/01 23:40:31  5-MIN KMSN 290540Z 29007KT 250V320 4SM -SN BR FEW027 OVC034 M11/M13 A2979 980 84 -1900 290/07 250V320 RMK AO2 P0000
14837KMSN MSN20011228234512212/28/01 23:45:31  5-MIN KMSN 290545Z 29008KT 8SM -SN FEW027 BKN036 OVC050 M11/M14 A2979 980 80 -2000 290/08 RMK AO2 P0000
14837KMSN MSN20011228235017312/28/01 23:50:31  5-MIN KMSN 290550Z 29007KT 8SM -SN FEW027 BKN034 OVC050 M11/M13 A2980 980 84 -2000 290/07 RMK AO2 SLP106 P0000 60000 T11111133 11089 21117 410561117 51022
14837KMSN MSN20011228235512212/28/01 23:55:31  5-MIN KMSN 290555Z 29006KT 9SM -SN SCT027 BKN034 OVC050 M11/M14 A2980 980 80 -2000 290/06 RMK AO2 P0000
14837KMSN MSN20011229000012212/29/01 00:00:31  5-MIN KMSN 290600Z 29006KT 9SM -SN SCT027 BKN034 OVC050 M11/M14 A2980 980 80 -2000 290/06 RMK AO2 P0000
14837KMSN MSN20011229000512212/29/01 00:05:31  5-MIN KMSN 290605Z 30006KT 9SM -SN FEW027 BKN034 OVC050 M11/M14 A2980 970 80 -2000 290/06 RMK AO2 P0000
14837KMSN MSN20011229001012412/29/01 00:10:31  5-MIN KMSN 290610Z VRB06KT 9SM SCT027 BKN034 BKN048 M11/M14 A2980 970 80 -2000 VRB/06 RMK AO2 SNE09 P0000
14837KMSN MSN20011229001512412/29/01 00:15:31  5-MIN KMSN 290615Z VRB06KT 8SM SCT027 BKN034 BKN048 M11/M14 A2981 970 80 -2000 VRB/06 RMK AO2 SNE09 P0000
14837KMSN MSN20011229002012412/29/01 00:20:31  5-MIN KMSN 290620Z 29006KT 8SM SCT027 BKN034 BKN048 M12/M14 A2981 970 80 -2000 290/06 RMK AO2 SNE09 P0000
14837KMSN MSN20011229002512412/29/01 00:25:31  5-MIN KMSN 290625Z 29005KT 8SM SCT027 BKN034 BKN048 M12/M14 A2981 970 80 -2000 290/05 RMK AO2 SNE09 P0000
14837KMSN MSN20011229003012412/29/01 00:30:31  5-MIN KMSN 290630Z 29007KT 9SM SCT027 BKN034 BKN048 M12/M15 A2981 960 76 -2000 290/07 RMK AO2 SNE09 P0000
14837KMSN MSN20011229003512512/29/01 00:35:31  5-MIN KMSN 290635Z 31006KT 10SM FEW027 BKN044 BKN055 M12/M15 A2981 960 76 -2000 310/06 RMK AO2 SNE09 P0000
14837KMSN MSN20011229004012512/29/01 00:40:31  5-MIN KMSN 290640Z 30006KT 10SM FEW027 BKN044 BKN055 M12/M15 A2982 960 76 -2000 300/06 RMK AO2 SNE09 P0000
14837KMSN MSN20011229004511812/29/01 00:45:31  5-MIN KMSN 290645Z 29007KT 10SM FEW047 SCT055 M12/M16 A2982 960 73 -2100 290/07 RMK AO2 SNE09 P0000
14837KMSN MSN20011229005013512/29/01 00:50:31  5-MIN KMSN 290650Z 29006KT 10SM FEW047 SCT060 M12/M16 A2982 960 73 -2100 290/06 RMK AO2 SNE09 SLP114 P0000 T11171156
14837KMSN MSN20011229005511312/29/01 00:55:31  5-MIN KMSN 290655Z VRB05KT 10SM FEW040 SCT047 BKN060 M12/M15 A2982 960 76 -2100 VRB/05 RMK AO2
14837KMSN MSN20011229010011312/29/01 01:00:31  5-MIN KMSN 290700Z 28005KT 10SM FEW040 SCT047 BKN060 M12/M16 A2982 950 73 -2100 280/05 RMK AO2
14837KMSN MSN20011229010511312/29/01 01:05:31  5-MIN KMSN 290705Z 29005KT 10SM FEW040 SCT047 BKN060 M12/M16 A2982 950 73 -2100 280/05 RMK AO2
14837KMSN MSN20011229011011312/29/01 01:10:31  5-MIN KMSN 290710Z 29005KT 10SM FEW040 SCT047 BKN060 M12/M16 A2982 950 76 -2100 290/05 RMK AO2
14837KMSN MSN20011229011511312/29/01 01:15:31  5-MIN KMSN 290715Z 28007KT 10SM FEW040 SCT047 BKN060 M12/M16 A2983 950 76 -2100 280/07 RMK AO2
14837KMSN MSN20011229012011312/29/01 01:20:31  5-MIN KMSN 290720Z 28005KT 10SM FEW040 SCT047 BKN060 M12/M15 A2983 950 80 -2100 280/05 RMK AO2
14837KMSN MSN20011229012511312/29/01 01:25:31  5-MIN KMSN 290725Z 29008KT 10SM FEW040 SCT047 BKN060 M12/M15 A2983 940 80 -2100 290/08 RMK AO2
14837KMSN MSN20011229013009912/29/01 01:30:31  5-MIN KMSN 290730Z 29006KT 10SM SCT060 M12/M16 A2984 940 76 -2100 290/06 RMK AO2
14837KMSN MSN20011229013509812/29/01 01:35:31  5-MIN KMSN 290735Z 29008KT 9SM SCT060 M12/M16 A2984 940 76 -2100 290/08 RMK AO2
14837KMSN MSN20011229014009812/29/01 01:40:31  5-MIN KMSN 290740Z 28005KT 9SM SCT060 M12/M15 A2984 940 76 -2100 280/05 RMK AO2
14837KMSN MSN20011229014511212/29/01 01:45:31  5-MIN KMSN 290745Z 29007KT 9SM FEW033 SCT050 BKN065 M12/M16 A2984 940 76 -2200 290/07 RMK AO2
14837KMSN MSN20011229015013012/29/01 01:50:31  5-MIN KMSN 290750Z 29007KT 10SM FEW033 BKN060 OVC085 M12/M16 A2985 930 76 -2200 290/07 RMK AO2 SLP123 T11221156
14837KMSN MSN20011229015511312/29/01 01:55:31  5-MIN KMSN 290755Z 30008KT 10SM FEW033 BKN055 BKN085 M12/M16 A2985 930 73 -2100 300/08 RMK AO2
14837KMSN MSN20011229020011312/29/01 02:00:31  5-MIN KMSN 290800Z 30007KT 10SM FEW033 BKN055 BKN085 M12/M15 A2985 930 76 -2100 300/07 RMK AO2
14837KMSN MSN20011229020511312/29/01 02:05:31  5-MIN KMSN 290805Z 30011KT 10SM FEW033 BKN055 BKN085 M12/M16 A2985 930 73 -2100 300/11 RMK AO2
14837KMSN MSN20011229021011312/29/01 02:10:31  5-MIN KMSN 290810Z 30007KT 10SM FEW033 BKN055 BKN085 M12/M16 A2985 930 73 -2100 300/07 RMK AO2
14837KMSN MSN20011229021511312/29/01 02:15:31  5-MIN KMSN 290815Z 30008KT 10SM FEW033 BKN055 BKN085 M12/M16 A2985 930 73 -2100 300/08 RMK AO2
14837KMSN MSN20011229022011312/29/01 02:20:31  5-MIN KMSN 290820Z 30007KT 10SM FEW033 BKN055 BKN085 M12/M15 A2986 920 80 -2200 300/07 RMK AO2
14837KMSN MSN20011229022511312/29/01 02:25:31  5-MIN KMSN 290825Z 31008KT 10SM FEW033 BKN055 BKN085 M12/M16 A2986 920 73 -2100 300/08 RMK AO2
14837KMSN MSN20011229023011312/29/01 02:30:31  5-MIN KMSN 290830Z 30007KT 10SM FEW033 BKN055 BKN085 M12/M16 A2986 920 76 -2200 300/07 RMK AO2
14837KMSN MSN20011229023511312/29/01 02:35:31  5-MIN KMSN 290835Z 30007KT 10SM FEW033 BKN055 BKN085 M12/M16 A2986 920 73 -2100 300/07 RMK AO2
14837KMSN MSN20011229024010612/29/01 02:40:31  5-MIN KMSN 290840Z 30006KT 10SM BKN060 BKN075 M12/M16 A2986 920 76 -2200 300/06 RMK AO2
14837KMSN MSN20011229024510512/29/01 02:45:31  5-MIN KMSN 290845Z VRB06KT 9SM BKN060 BKN075 M12/M16 A2986 920 76 -2200 VRB/06 RMK AO2
14837KMSN MSN20011229025012812/29/01 02:50:31  5-MIN KMSN 290850Z 30007KT 10SM BKN065 M12/M16 A2987 910 76 -2200 300/07 RMK AO2 SLP131 60000 T11221156 53008
14837KMSN MSN20011229025510612/29/01 02:55:31  5-MIN KMSN 290855Z 31007KT 10SM BKN060 BKN075 M12/M16 A2987 910 76 -2200 310/07 RMK AO2
14837KMSN MSN20011229030010612/29/01 03:00:31  5-MIN KMSN 290900Z 30007KT 10SM BKN060 BKN075 M12/M15 A2987 910 80 -2200 290/07 RMK AO2
14837KMSN MSN20011229030510612/29/01 03:05:31  5-MIN KMSN 290905Z 30007KT 10SM BKN060 BKN075 M12/M15 A2987 910 80 -2200 300/07 RMK AO2
14837KMSN MSN20011229031010612/29/01 03:10:31  5-MIN KMSN 290910Z 29007KT 10SM BKN060 BKN075 M12/M15 A2987 910 80 -2200 290/07 RMK AO2
14837KMSN MSN20011229031510612/29/01 03:15:31  5-MIN KMSN 290915Z 30006KT 10SM BKN060 BKN075 M12/M15 A2987 910 80 -2200 300/06 RMK AO2
14837KMSN MSN20011229032009912/29/01 03:20:31  5-MIN KMSN 290920Z 30006KT 10SM SCT060 M12/M16 A2987 910 73 -2200 300/06 RMK AO2
14837KMSN MSN20011229032509912/29/01 03:25:31  5-MIN KMSN 290925Z 29006KT 10SM SCT060 M13/M16 A2988 910 80 -2300 290/06 RMK AO2
14837KMSN MSN20011229033009912/29/01 03:30:31  5-MIN KMSN 290930Z 30008KT 10SM SCT060 M13/M16 A2988 910 80 -2300 300/08 RMK AO2
14837KMSN MSN20011229033509912/29/01 03:35:31  5-MIN KMSN 290935Z 30008KT 10SM SCT060 M13/M16 A2988 900 80 -2300 300/08 RMK AO2
14837KMSN MSN20011229034009912/29/01 03:40:31  5-MIN KMSN 290940Z 30005KT 10SM SCT060 M13/M16 A2988 900 80 -2300 300/05 RMK AO2
14837KMSN MSN20011229034509912/29/01 03:45:31  5-MIN KMSN 290945Z 30006KT 10SM SCT060 M13/M16 A2988 900 80 -2300 290/06 RMK AO2
14837KMSN MSN20011229035011612/29/01 03:50:31  5-MIN KMSN 290950Z 29006KT 10SM SCT060 M13/M16 A2988 900 80 -2300 290/06 RMK AO2 SLP134 T11281156
14837KMSN MSN20011229035509612/29/01 03:55:31  5-MIN KMSN 290955Z VRB06KT 10SM CLR M13/M16 A2988 900 80 -2300 VRB/06 RMK AO2
14837KMSN MSN20011229040009612/29/01 04:00:31  5-MIN KMSN 291000Z 28005KT 10SM CLR M13/M16 A2988 900 76 -2300 280/05 RMK AO2
14837KMSN MSN20011229040509612/29/01 04:05:31  5-MIN KMSN 291005Z 29007KT 10SM CLR M13/M16 A2988 900 76 -2300 290/07 RMK AO2
14837KMSN MSN20011229041009612/29/01 04:10:31  5-MIN KMSN 291010Z 29006KT 10SM CLR M13/M16 A2988 900 76 -2300 290/06 RMK AO2
14837KMSN MSN20011229041509612/29/01 04:15:31  5-MIN KMSN 291015Z 29006KT 10SM CLR M13/M16 A2988 900 80 -2300 290/06 RMK AO2
14837KMSN MSN20011229042009612/29/01 04:20:31  5-MIN KMSN 291020Z 29007KT 10SM CLR M13/M16 A2988 900 80 -2300 290/07 RMK AO2
14837KMSN MSN20011229042509612/29/01 04:25:31  5-MIN KMSN 291025Z 29006KT 10SM CLR M13/M16 A2988 900 83 -2300 290/06 RMK AO2
14837KMSN MSN20011229043009612/29/01 04:30:31  5-MIN KMSN 291030Z 29006KT 10SM CLR M13/M16 A2988 900 80 -2300 280/06 RMK AO2
14837KMSN MSN20011229043509612/29/01 04:35:31  5-MIN KMSN 291035Z 28008KT 10SM CLR M13/M16 A2988 900 80 -2400 280/08 RMK AO2
14837KMSN MSN20011229044009612/29/01 04:40:31  5-MIN KMSN 291040Z 28007KT 10SM CLR M13/M16 A2989 900 80 -2400 280/07 RMK AO2
14837KMSN MSN20011229044509612/29/01 04:45:31  5-MIN KMSN 291045Z 29006KT 10SM CLR M13/M17 A2989 890 76 -2400 290/06 RMK AO2
14837KMSN MSN20011229045011312/29/01 04:50:31  5-MIN KMSN 291050Z 28005KT 10SM CLR M13/M16 A2989 890 80 -2400 280/05 RMK AO2 SLP140 T11331161
14837KMSN MSN20011229045509612/29/01 04:55:31  5-MIN KMSN 291055Z 28006KT 10SM CLR M13/M16 A2989 890 80 -2400 280/06 RMK AO2
14837KMSN MSN20011229050009612/29/01 05:00:31  5-MIN KMSN 291100Z 29006KT 10SM CLR M13/M16 A2989 890 80 -2400 290/06 RMK AO2
14837KMSN MSN20011229050509612/29/01 05:05:31  5-MIN KMSN 291105Z 28005KT 10SM CLR M13/M16 A2990 890 80 -2400 270/05 RMK AO2
14837KMSN MSN20011229051009612/29/01 05:10:31  5-MIN KMSN 291110Z 28005KT 10SM CLR M13/M16 A2990 890 80 -2400 280/05 RMK AO2
14837KMSN MSN20011229051509612/29/01 05:15:31  5-MIN KMSN 291115Z 27006KT 10SM CLR M13/M16 A2990 890 80 -2400 270/06 RMK AO2
14837KMSN MSN20011229052009612/29/01 05:20:31  5-MIN KMSN 291120Z 27006KT 10SM CLR M13/M16 A2990 880 80 -2400 270/06 RMK AO2
14837KMSN MSN20011229052509612/29/01 05:25:31  5-MIN KMSN 291125Z 28007KT 10SM CLR M13/M18 A2990 880 66 -2400 270/07 RMK AO2
14837KMSN MSN20011229053009612/29/01 05:30:31  5-MIN KMSN 291130Z 28006KT 10SM CLR M13/M18 A2991 880 66 -2400 270/06 RMK AO2
14837KMSN MSN20011229053509612/29/01 05:35:31  5-MIN KMSN 291135Z 28008KT 10SM CLR M13/M17 A2991 880 73 -2400 280/08 RMK AO2
14837KMSN MSN20011229054009612/29/01 05:40:31  5-MIN KMSN 291140Z VRB06KT 10SM CLR M13/M17 A2991 880 76 -2400 VRB/06 RMK AO2
14837KMSN MSN20011229054509612/29/01 05:45:31  5-MIN KMSN 291145Z 29007KT 10SM CLR M13/M17 A2991 870 76 -2400 290/07 RMK AO2
14837KMSN MSN20011229055014312/29/01 05:50:31  5-MIN KMSN 291150Z 29008KT 10SM CLR M13/M17 A2991 870 76 -2400 290/08 RMK AO2 SLP147 4/001 60000 T11331167 11111 21133 51023
14837KMSN MSN20011229055509612/29/01 05:55:31  5-MIN KMSN 291155Z 29008KT 10SM CLR M13/M17 A2991 870 76 -2400 290/08 RMK AO2
14837KMSN MSN20011229060009612/29/01 06:00:31  5-MIN KMSN 291200Z 28006KT 10SM CLR M13/M17 A2992 870 76 -2400 280/06 RMK AO2
14837KMSN MSN20011229060509612/29/01 06:05:31  5-MIN KMSN 291205Z 29007KT 10SM CLR M13/M17 A2992 860 76 -2400 290/07 RMK AO2
14837KMSN MSN20011229061009612/29/01 06:10:31  5-MIN KMSN 291210Z 28007KT 10SM CLR M13/M17 A2992 860 76 -2400 280/07 RMK AO2
14837KMSN MSN20011229061509612/29/01 06:15:31  5-MIN KMSN 291215Z 28007KT 10SM CLR M14/M17 A2992 860 80 -2500 280/07 RMK AO2
14837KMSN MSN20011229062009612/29/01 06:20:31  5-MIN KMSN 291220Z 28005KT 10SM CLR M14/M17 A2992 860 80 -2500 280/05 RMK AO2
14837KMSN MSN20011229062509612/29/01 06:25:31  5-MIN KMSN 291225Z 28006KT 10SM CLR M14/M17 A2992 860 80 -2500 280/06 RMK AO2
14837KMSN MSN20011229063009612/29/01 06:30:31  5-MIN KMSN 291230Z 27007KT 10SM CLR M14/M17 A2993 860 76 -2500 270/07 RMK AO2
14837KMSN MSN20011229063509612/29/01 06:35:31  5-MIN KMSN 291235Z 28006KT 10SM CLR M14/M17 A2993 860 76 -2500 280/06 RMK AO2
14837KMSN MSN20011229064009612/29/01 06:40:31  5-MIN KMSN 291240Z 28006KT 10SM CLR M14/M17 A2993 860 76 -2500 280/06 RMK AO2
14837KMSN MSN20011229064509912/29/01 06:45:31  5-MIN KMSN 291245Z 28006KT 10SM FEW022 M14/M17 A2993 850 76 -2500 280/06 RMK AO2
14837KMSN MSN20011229065011612/29/01 06:50:31  5-MIN KMSN 291250Z 28005KT 10SM FEW022 M14/M17 A2994 850 80 -2500 280/05 RMK AO2 SLP156 T11391167
14837KMSN MSN20011229065509912/29/01 06:55:31  5-MIN KMSN 291255Z 28006KT 10SM FEW022 M14/M17 A2994 850 76 -2500 280/06 RMK AO2
14837KMSN MSN20011229070009912/29/01 07:00:31  5-MIN KMSN 291300Z 28006KT 10SM FEW022 M14/M17 A2994 840 76 -2500 280/06 RMK AO2
14837KMSN MSN20011229070509912/29/01 07:05:31  5-MIN KMSN 291305Z 29006KT 10SM FEW022 M14/M17 A2994 840 80 -2600 290/06 RMK AO2
14837KMSN MSN20011229071009912/29/01 07:10:31  5-MIN KMSN 291310Z 29006KT 10SM FEW022 M14/M17 A2995 840 76 -2500 290/06 RMK AO2
14837KMSN MSN20011229071509612/29/01 07:15:31  5-MIN KMSN 291315Z 30006KT 10SM CLR M14/M17 A2995 840 76 -2500 300/06 RMK AO2
14837KMSN MSN20011229072009912/29/01 07:20:31  5-MIN KMSN 291320Z 30007KT 10SM FEW025 M14/M17 A2995 840 80 -2600 300/07 RMK AO2
14837KMSN MSN20011229072509912/29/01 07:25:31  5-MIN KMSN 291325Z 29006KT 10SM FEW025 M14/M17 A2996 830 80 -2600 290/06 RMK AO2
14837KMSN MSN20011229073009912/29/01 07:30:31  5-MIN KMSN 291330Z 29006KT 10SM FEW025 M14/M17 A2996 830 80 -2600 290/06 RMK AO2
14837KMSN MSN20011229073509912/29/01 07:35:31  5-MIN KMSN 291335Z 30006KT 10SM FEW025 M14/M17 A2996 830 80 -2600 300/06 RMK AO2
14837KMSN MSN20011229074009912/29/01 07:40:31  5-MIN KMSN 291340Z 30006KT 10SM FEW025 M14/M17 A2996 830 80 -2600 300/06 RMK AO2
14837KMSN MSN20011229074509912/29/01 07:45:31  5-MIN KMSN 291345Z 31005KT 10SM FEW025 M14/M17 A2996 830 80 -2600 310/05 RMK AO2
14837KMSN MSN20011229075011612/29/01 07:50:31  5-MIN KMSN 291350Z 31006KT 10SM FEW030 M14/M17 A2996 820 80 -2600 300/06 RMK AO2 SLP166 T11441172
14837KMSN MSN20011229075509912/29/01 07:55:31  5-MIN KMSN 291355Z 29007KT 10SM FEW030 M14/M17 A2997 820 80 -2500 290/07 RMK AO2
14837KMSN MSN20011229080009912/29/01 08:00:31  5-MIN KMSN 291400Z VRB06KT 10SM FEW025 M14/M17 A2997 820 76 -2500 VRB/06 RMK AO2
14837KMSN MSN20011229080509912/29/01 08:05:31  5-MIN KMSN 291405Z 29008KT 10SM FEW020 M14/M17 A2997 820 76 -2500 290/08 RMK AO2
14837KMSN MSN20011229081009912/29/01 08:10:31  5-MIN KMSN 291410Z 28008KT 10SM FEW020 M14/M17 A2997 820 76 -2500 280/08 RMK AO2
14837KMSN MSN20011229081509912/29/01 08:15:31  5-MIN KMSN 291415Z 28007KT 10SM FEW020 M14/M17 A2997 810 76 -2500 280/07 RMK AO2
14837KMSN MSN20011229082009912/29/01 08:20:31  5-MIN KMSN 291420Z 28007KT 10SM FEW020 M14/M17 A2998 810 76 -2500 280/07 RMK AO2
14837KMSN MSN20011229082509912/29/01 08:25:31  5-MIN KMSN 291425Z 28007KT 10SM FEW020 M14/M17 A2998 810 76 -2500 280/07 RMK AO2
14837KMSN MSN20011229083009912/29/01 08:30:31  5-MIN KMSN 291430Z 29006KT 10SM FEW020 M13/M17 A2998 810 73 -2500 290/06 RMK AO2
14837KMSN MSN20011229083509912/29/01 08:35:31  5-MIN KMSN 291435Z 27008KT 10SM FEW020 M13/M17 A2998 810 76 -2500 270/08 RMK AO2
14837KMSN MSN20011229084009912/29/01 08:40:31  5-MIN KMSN 291440Z VRB06KT 10SM FEW020 M13/M17 A2998 810 76 -2500 VRB/06 RMK AO2
14837KMSN MSN20011229084511512/29/01 08:45:31  5-MIN KMSN 291445Z 28009KT 250V320 10SM FEW020 M13/M17 A2998 810 76 -2500 280/09 250V320 RMK AO2
14837KMSN MSN20011229085013812/29/01 08:50:31  5-MIN KMSN 291450Z 29007KT 250V310 10SM FEW020 M13/M17 A2998 810 73 -2500 280/07 250V310 RMK AO2 SLP172 T11331172 53015
14837KMSN MSN20011229085509912/29/01 08:55:31  5-MIN KMSN 291455Z 28009KT 10SM FEW020 M13/M17 A2999 800 73 -2500 280/09 RMK AO2
14837KMSN MSN20011229090009912/29/01 09:00:31  5-MIN KMSN 291500Z 30007KT 10SM FEW020 M13/M17 A2999 800 76 -2500 290/07 RMK AO2
14837KMSN MSN20011229090509912/29/01 09:05:31  5-MIN KMSN 291505Z 30010KT 10SM FEW020 M13/M17 A2999 800 76 -2500 300/10 RMK AO2
14837KMSN MSN20011229091009912/29/01 09:10:31  5-MIN KMSN 291510Z 29010KT 10SM FEW020 M13/M17 A2999 800 76 -2500 280/10 RMK AO2
14837KMSN MSN20011229091509912/29/01 09:15:31  5-MIN KMSN 291515Z 31009KT 10SM FEW020 M13/M17 A2999 800 76 -2500 310/09 RMK AO2
14837KMSN MSN20011229092009912/29/01 09:20:31  5-MIN KMSN 291520Z 29009KT 10SM FEW020 M13/M17 A2999 800 73 -2400 290/09 RMK AO2
14837KMSN MSN20011229092509912/29/01 09:25:31  5-MIN KMSN 291525Z 29011KT 10SM FEW020 M13/M17 A2999 800 70 -2400 290/11 RMK AO2
14837KMSN MSN20011229093009912/29/01 09:30:31  5-MIN KMSN 291530Z 31011KT 10SM FEW020 M13/M17 A2999 800 70 -2400 310/11 RMK AO2
14837KMSN MSN20011229093511512/29/01 09:35:31  5-MIN KMSN 291535Z 31010KT 280V350 10SM FEW020 M13/M17 A2999 800 70 -2400 300/10 280V350 RMK AO2
14837KMSN MSN20011229094009912/29/01 09:40:31  5-MIN KMSN 291540Z 31009KT 10SM FEW020 M13/M17 A2999 800 70 -2400 310/09 RMK AO2
14837KMSN MSN20011229094509912/29/01 09:45:31  5-MIN KMSN 291545Z 30011KT 10SM FEW020 M13/M17 A3000 800 70 -2400 300/11 RMK AO2
14837KMSN MSN20011229095013212/29/01 09:50:31  5-MIN KMSN 291550Z 31010KT 260V320 10SM FEW020 M13/M17 A3000 790 70 -2400 300/10 260V320 RMK AO2 SLP177 T11281172
14837KMSN MSN20011229095509912/29/01 09:55:31  5-MIN KMSN 291555Z 29011KT 10SM FEW020 M12/M17 A3000 790 67 -2300 290/11 RMK AO2
14837KMSN MSN20011229100010512/29/01 10:00:31  5-MIN KMSN 291600Z 29012G15KT 10SM FEW020 M12/M17 A3000 790 70 -2300 290/12G15 RMK AO2
14837KMSN MSN20011229100510512/29/01 10:05:31  5-MIN KMSN 291605Z 30012G15KT 10SM FEW020 M12/M17 A3000 790 67 -2300 300/12G15 RMK AO2
14837KMSN MSN20011229101011512/29/01 10:10:31  5-MIN KMSN 291610Z 31008KT 280V360 10SM FEW020 M12/M17 A3001 780 67 -2300 310/08 280V360 RMK AO2
14837KMSN MSN20011229101510512/29/01 10:15:31  5-MIN KMSN 291615Z 30011G16KT 10SM FEW020 M12/M17 A3001 780 67 -2400 300/11G16 RMK AO2
14837KMSN MSN20011229102010512/29/01 10:20:31  5-MIN KMSN 291620Z 29008G16KT 10SM FEW020 M12/M17 A3001 780 67 -2400 290/08G16 RMK AO2
14837KMSN MSN20011229102509912/29/01 10:25:31  5-MIN KMSN 291625Z 30012KT 10SM FEW020 M12/M17 A3001 780 67 -2400 300/12 RMK AO2
14837KMSN MSN20011229103009912/29/01 10:30:31  5-MIN KMSN 291630Z 30009KT 10SM FEW020 M12/M17 A3001 780 67 -2400 300/09 RMK AO2
14837KMSN MSN20011229103509912/29/01 10:35:31  5-MIN KMSN 291635Z 31009KT 10SM FEW020 M12/M17 A3001 780 64 -2300 310/09 RMK AO2
14837KMSN MSN20011229104009912/29/01 10:40:31  5-MIN KMSN 291640Z 30011KT 10SM FEW020 M12/M17 A3001 780 64 -2300 300/11 RMK AO2
14837KMSN MSN20011229104509912/29/01 10:45:31  5-MIN KMSN 291645Z 31011KT 10SM FEW025 M12/M17 A3001 780 67 -2300 310/11 RMK AO2
14837KMSN MSN20011229105012212/29/01 10:50:31  5-MIN KMSN 291650Z 31012G17KT 10SM FEW025 M12/M17 A3001 780 64 -2300 310/12G17 RMK AO2 SLP181 T11171172
14837KMSN MSN20011229105510512/29/01 10:55:31  5-MIN KMSN 291655Z 31011G17KT 10SM FEW025 M12/M18 A3001 780 61 -2300 310/11G17 RMK AO2
14837KMSN MSN20011229110009912/29/01 11:00:31  5-MIN KMSN 291700Z 31011KT 10SM FEW025 M12/M17 A3001 780 64 -2300 310/11 RMK AO2
14837KMSN MSN20011229110509912/29/01 11:05:31  5-MIN KMSN 291705Z 32009KT 10SM FEW025 M12/M17 A3001 780 64 -2300 310/09 RMK AO2
14837KMSN MSN20011229111009912/29/01 11:10:31  5-MIN KMSN 291710Z 31008KT 10SM FEW025 M12/M17 A3001 780 64 -2300 310/08 RMK AO2
14837KMSN MSN20011229111510512/29/01 11:15:31  5-MIN KMSN 291715Z 30011G15KT 10SM FEW025 M12/M17 A3001 780 64 -2300 300/11G15 RMK AO2
14837KMSN MSN20011229112010512/29/01 11:20:31  5-MIN KMSN 291720Z 29011G15KT 10SM FEW025 M12/M17 A3001 780 64 -2300 290/11G15 RMK AO2
14837KMSN MSN20011229112509912/29/01 11:25:31  5-MIN KMSN 291725Z 30010KT 10SM FEW025 M11/M17 A3001 780 61 -2200 300/10 RMK AO2
14837KMSN MSN20011229113009912/29/01 11:30:31  5-MIN KMSN 291730Z 30008KT 10SM FEW025 M11/M17 A3001 780 61 -2200 300/08 RMK AO2
14837KMSN MSN20011229113509912/29/01 11:35:31  5-MIN KMSN 291735Z 29010KT 10SM FEW025 M11/M17 A3002 770 61 -2200 290/10 RMK AO2
14837KMSN MSN20011229114010512/29/01 11:40:31  5-MIN KMSN 291740Z 30010G16KT 10SM FEW025 M11/M17 A3002 780 61 -2200 300/10G16 RMK AO2
14837KMSN MSN20011229114510512/29/01 11:45:31  5-MIN KMSN 291745Z 29009G16KT 10SM FEW025 M11/M18 A3002 770 58 -2200 290/09G16 RMK AO2
14837KMSN MSN20011229115013412/29/01 11:50:31  5-MIN KMSN 291750Z 30011KT 10SM FEW025 M11/M17 A3001 780 61 -2200 300/11 RMK AO2 SLP182 T11111172 11111 21144 51023
14837KMSN MSN20011229115509912/29/01 11:55:31  5-MIN KMSN 291755Z 31011KT 10SM FEW025 M11/M17 A3002 780 61 -2200 300/11 RMK AO2
14837KMSN MSN20011229120011512/29/01 12:00:31  5-MIN KMSN 291800Z 31009KT 280V340 10SM FEW025 M11/M17 A3002 780 61 -2200 310/09 280V340 RMK AO2
14837KMSN MSN20011229120509912/29/01 12:05:31  5-MIN KMSN 291805Z 31008KT 10SM FEW025 M11/M17 A3002 780 61 -2200 310/08 RMK AO2
14837KMSN MSN20011229121009912/29/01 12:10:31  5-MIN KMSN 291810Z 29010KT 10SM FEW025 M11/M17 A3001 780 61 -2200 290/10 RMK AO2
14837KMSN MSN20011229121509912/29/01 12:15:31  5-MIN KMSN 291815Z 28009KT 10SM FEW025 M11/M17 A3002 780 58 -2100 280/09 RMK AO2
14837KMSN MSN20011229122009912/29/01 12:20:31  5-MIN KMSN 291820Z 29012KT 10SM FEW025 M11/M17 A3002 770 58 -2100 290/12 RMK AO2
14837KMSN MSN20011229122509912/29/01 12:25:31  5-MIN KMSN 291825Z 30010KT 10SM FEW025 M11/M17 A3002 770 61 -2200 300/10 RMK AO2
14837KMSN MSN20011229123010512/29/01 12:30:31  5-MIN KMSN 291830Z 29009G15KT 10SM FEW025 M11/M17 A3002 770 61 -2100 290/09G15 RMK AO2
14837KMSN MSN20011229123510512/29/01 12:35:31  5-MIN KMSN 291835Z 29010G15KT 10SM FEW025 M11/M17 A3002 770 58 -2100 290/10G15 RMK AO2
14837KMSN MSN20011229124009912/29/01 12:40:31  5-MIN KMSN 291840Z 27009KT 10SM FEW025 M11/M17 A3003 770 58 -2100 260/09 RMK AO2
14837KMSN MSN20011229124509912/29/01 12:45:31  5-MIN KMSN 291845Z 26009KT 10SM FEW025 M11/M17 A3003 770 61 -2200 260/09 RMK AO2
14837KMSN MSN20011229125011612/29/01 12:50:31  5-MIN KMSN 291850Z 27008KT 10SM FEW025 M11/M17 A3003 770 58 -2100 270/08 RMK AO2 SLP187 T11061172
14837KMSN MSN20011229125510512/29/01 12:55:31  5-MIN KMSN 291855Z 29009G14KT 10SM FEW025 M11/M17 A3003 760 61 -2200 290/09G14 RMK AO2
14837KMSN MSN20011229130012112/29/01 13:00:31  5-MIN KMSN 291900Z 28009G14KT 250V310 10SM FEW025 M11/M17 A3003 760 61 -2200 280/09G14 250V310 RMK AO2
14837KMSN MSN20011229130509912/29/01 13:05:31  5-MIN KMSN 291905Z 29009KT 10SM FEW025 M11/M18 A3003 760 56 -2200 290/09 RMK AO2
14837KMSN MSN20011229131009912/29/01 13:10:31  5-MIN KMSN 291910Z 29009KT 10SM FEW025 M11/M17 A3003 760 58 -2200 290/09 RMK AO2
14837KMSN MSN20011229131510512/29/01 13:15:31  5-MIN KMSN 291915Z 29010G15KT 10SM FEW025 M11/M17 A3004 760 61 -2200 290/10G15 RMK AO2
14837KMSN MSN20011229132009912/29/01 13:20:31  5-MIN KMSN 291920Z 28009KT 10SM FEW025 M11/M17 A3004 760 58 -2200 280/09 RMK AO2
14837KMSN MSN20011229132509912/29/01 13:25:31  5-MIN KMSN 291925Z 31010KT 10SM FEW025 M11/M17 A3004 750 58 -2200 310/10 RMK AO2
14837KMSN MSN20011229133009912/29/01 13:30:31  5-MIN KMSN 291930Z 29011KT 10SM FEW025 M11/M17 A3004 750 58 -2200 290/11 RMK AO2
14837KMSN MSN20011229133509912/29/01 13:35:31  5-MIN KMSN 291935Z 29009KT 10SM FEW025 M11/M17 A3004 750 58 -2200 290/09 RMK AO2
14837KMSN MSN20011229134010512/29/01 13:40:31  5-MIN KMSN 291940Z 30010G16KT 10SM FEW025 M11/M17 A3004 750 58 -2200 300/10G16 RMK AO2
14837KMSN MSN20011229134510512/29/01 13:45:31  5-MIN KMSN 291945Z 28008G16KT 10SM FEW025 M11/M17 A3005 750 58 -2200 280/08G16 RMK AO2
14837KMSN MSN20011229135011612/29/01 13:50:31  5-MIN KMSN 291950Z 30009KT 10SM FEW025 M11/M17 A3005 750 58 -2200 290/09 RMK AO2 SLP193 T11061172
14837KMSN MSN20011229135509912/29/01 13:55:31  5-MIN KMSN 291955Z 27008KT 10SM FEW025 M10/M17 A3005 740 58 -2100 270/08 RMK AO2
14837KMSN MSN20011229140011512/29/01 14:00:31  5-MIN KMSN 292000Z 29007KT 250V330 10SM FEW025 M11/M17 A3005 740 61 -2200 290/07 250V330 RMK AO2
14837KMSN MSN20011229140509912/29/01 14:05:31  5-MIN KMSN 292005Z 29009KT 10SM FEW025 M10/M17 A3005 740 58 -2100 290/09 RMK AO2
14837KMSN MSN20011229141009912/29/01 14:10:31  5-MIN KMSN 292010Z 28008KT 10SM FEW025 M10/M17 A3005 740 58 -2100 280/08 RMK AO2
14837KMSN MSN20011229141509912/29/01 14:15:31  5-MIN KMSN 292015Z 28005KT 10SM FEW025 M10/M17 A3005 740 58 -2100 280/05 RMK AO2
14837KMSN MSN20011229142009912/29/01 14:20:31  5-MIN KMSN 292020Z 27008KT 10SM FEW025 M10/M17 A3006 740 58 -2100 270/08 RMK AO2
14837KMSN MSN20011229142510512/29/01 14:25:31  5-MIN KMSN 292025Z 28008G14KT 10SM FEW025 M10/M17 A3006 740 56 -2100 280/08G14 RMK AO2
14837KMSN MSN20011229143009912/29/01 14:30:31  5-MIN KMSN 292030Z 28009KT 10SM FEW025 M10/M17 A3006 740 58 -2100 280/09 RMK AO2
14837KMSN MSN20011229143509912/29/01 14:35:31  5-MIN KMSN 292035Z 28009KT 10SM FEW025 M10/M17 A3006 740 56 -2100 280/09 RMK AO2
14837KMSN MSN20011229144009912/29/01 14:40:31  5-MIN KMSN 292040Z 30010KT 10SM FEW025 M11/M17 A3006 740 58 -2200 290/10 RMK AO2
14837KMSN MSN20011229144509912/29/01 14:45:31  5-MIN KMSN 292045Z 28006KT 10SM FEW025 M10/M17 A3006 740 56 -2100 270/06 RMK AO2
14837KMSN MSN20011229145012212/29/01 14:50:31  5-MIN KMSN 292050Z 26008KT 10SM FEW025 M10/M17 A3006 730 58 -2100 260/08 RMK AO2 SLP198 T11001167 51010
14837KMSN MSN20011229145509912/29/01 14:55:31  5-MIN KMSN 292055Z 28009KT 10SM FEW025 M11/M17 A3006 740 61 -2200 280/09 RMK AO2
14837KMSN MSN20011229150009912/29/01 15:00:31  5-MIN KMSN 292100Z 28010KT 10SM FEW025 M11/M17 A3006 740 58 -2200 280/10 RMK AO2
14837KMSN MSN20011229150510512/29/01 15:05:31  5-MIN KMSN 292105Z 27009G14KT 10SM FEW025 M11/M17 A3006 730 58 -2200 270/09G14 RMK AO2
14837KMSN MSN20011229151010512/29/01 15:10:31  5-MIN KMSN 292110Z 29011G15KT 10SM FEW025 M11/M17 A3006 730 58 -2200 290/11G15 RMK AO2
14837KMSN MSN20011229151512112/29/01 15:15:31  5-MIN KMSN 292115Z 29010G15KT 260V320 10SM FEW025 M11/M17 A3006 730 58 -2200 290/10G15 260V320 RMK AO2
14837KMSN MSN20011229152010512/29/01 15:20:31  5-MIN KMSN 292120Z 29010G16KT 10SM FEW025 M11/M17 A3006 730 58 -2200 280/10G16 RMK AO2
14837KMSN MSN20011229152512112/29/01 15:25:31  5-MIN KMSN 292125Z 28010G16KT 250V330 10SM FEW025 M11/M18 A3006 730 56 -2200 280/10G16 250V330 RMK AO2
14837KMSN MSN20011229153009612/29/01 15:30:31  5-MIN KMSN 292130Z 29008KT 10SM CLR M11/M17 A3007 730 58 -2200 290/08 RMK AO2
14837KMSN MSN20011229153510212/29/01 15:35:31  5-MIN KMSN 292135Z 29012G17KT 10SM CLR M11/M17 A3007 730 58 -2200 290/12G17 RMK AO2
14837KMSN MSN20011229154010212/29/01 15:40:31  5-MIN KMSN 292140Z 29008G17KT 10SM CLR M11/M17 A3007 730 58 -2200 290/08G17 RMK AO2
14837KMSN MSN20011229154509612/29/01 15:45:31  5-MIN KMSN 292145Z 29008KT 10SM CLR M11/M17 A3007 720 58 -2200 290/08 RMK AO2
14837KMSN MSN20011229155012912/29/01 15:50:31  5-MIN KMSN 292150Z 28007KT 240V300 10SM CLR M11/M17 A3007 720 58 -2200 280/07 240V300 RMK AO2 SLP202 T11061172
14837KMSN MSN20011229155509612/29/01 15:55:31  5-MIN KMSN 292155Z 28007KT 10SM CLR M11/M17 A3008 720 58 -2200 280/07 RMK AO2
14837KMSN MSN20011229160009612/29/01 16:00:31  5-MIN KMSN 292200Z 28009KT 10SM CLR M11/M17 A3008 720 64 -2300 280/09 RMK AO2
14837KMSN MSN20011229160509612/29/01 16:05:31  5-MIN KMSN 292205Z VRB05KT 10SM CLR M11/M18 A3008 720 58 -2300 VRB/05 RMK AO2
14837KMSN MSN20011229161009612/29/01 16:10:31  5-MIN KMSN 292210Z 28007KT 10SM CLR M11/M17 A3008 720 61 -2300 280/07 RMK AO2
14837KMSN MSN20011229161509612/29/01 16:15:31  5-MIN KMSN 292215Z 28008KT 10SM CLR M11/M17 A3008 720 61 -2300 280/08 RMK AO2
14837KMSN MSN20011229162009612/29/01 16:20:31  5-MIN KMSN 292220Z 28006KT 10SM CLR M11/M17 A3008 710 61 -2300 280/06 RMK AO2
14837KMSN MSN20011229162509612/29/01 16:25:31  5-MIN KMSN 292225Z 28006KT 10SM CLR M11/M17 A3008 710 61 -2300 280/06 RMK AO2
14837KMSN MSN20011229163009612/29/01 16:30:31  5-MIN KMSN 292230Z 27006KT 10SM CLR M12/M17 A3009 710 64 -2400 270/06 RMK AO2
14837KMSN MSN20011229163509612/29/01 16:35:31  5-MIN KMSN 292235Z 27006KT 10SM CLR M12/M17 A3009 710 64 -2400 270/06 RMK AO2
14837KMSN MSN20011229164009612/29/01 16:40:31  5-MIN KMSN 292240Z 28005KT 10SM CLR M12/M17 A3009 710 64 -2400 280/05 RMK AO2
14837KMSN MSN20011229164509612/29/01 16:45:31  5-MIN KMSN 292245Z VRB06KT 10SM CLR M12/M17 A3009 710 64 -2400 VRB/06 RMK AO2
14837KMSN MSN20011229165011312/29/01 16:50:31  5-MIN KMSN 292250Z 28005KT 10SM CLR M12/M17 A3009 710 64 -2400 270/05 RMK AO2 SLP210 T11171172
14837KMSN MSN20011229165509612/29/01 16:55:31  5-MIN KMSN 292255Z 28005KT 10SM CLR M12/M18 A3009 700 61 -2400 280/05 RMK AO2
14837KMSN MSN20011229170009612/29/01 17:00:31  5-MIN KMSN 292300Z 28005KT 10SM CLR M12/M18 A3010 700 61 -2400 280/05 RMK AO2
14837KMSN MSN20011229170509612/29/01 17:05:31  5-MIN KMSN 292305Z 28006KT 10SM CLR M12/M18 A3010 700 61 -2400 280/06 RMK AO2
14837KMSN MSN20011229171009612/29/01 17:10:31  5-MIN KMSN 292310Z 27005KT 10SM CLR M12/M18 A3010 700 61 -2500 270/05 RMK AO2
14837KMSN MSN20011229171509612/29/01 17:15:31  5-MIN KMSN 292315Z 28003KT 10SM CLR M12/M18 A3010 700 64 -2500 280/03 RMK AO2
14837KMSN MSN20011229172009612/29/01 17:20:31  5-MIN KMSN 292320Z VRB04KT 10SM CLR M12/M18 A3010 700 64 -2500 VRB/04 RMK AO2
14837KMSN MSN20011229172509612/29/01 17:25:31  5-MIN KMSN 292325Z 29004KT 10SM CLR M12/M17 A3010 700 67 -2500 290/04 RMK AO2
14837KMSN MSN20011229173009612/29/01 17:30:31  5-MIN KMSN 292330Z 29005KT 10SM CLR M12/M17 A3010 700 67 -2500 290/05 RMK AO2
14837KMSN MSN20011229173509612/29/01 17:35:31  5-MIN KMSN 292335Z 29006KT 10SM CLR M12/M18 A3010 700 64 -2500 290/06 RMK AO2
14837KMSN MSN20011229174009612/29/01 17:40:31  5-MIN KMSN 292340Z 29006KT 10SM CLR M12/M17 A3010 700 67 -2500 290/06 RMK AO2
14837KMSN MSN20011229174509612/29/01 17:45:31  5-MIN KMSN 292345Z 28006KT 10SM CLR M12/M18 A3010 700 64 -2500 280/06 RMK AO2
14837KMSN MSN20011229175013712/29/01 17:50:31  5-MIN KMSN 292350Z 28006KT 10SM CLR M12/M18 A3010 700 64 -2500 280/06 RMK AO2 SLP213 4/001 T11221178 11100 21122 52015
14837KMSN MSN20011229175509612/29/01 17:55:31  5-MIN KMSN 292355Z 28004KT 10SM CLR M13/M18 A3010 690 66 -2500 280/04 RMK AO2
14837KMSN MSN20011229180009612/29/01 18:00:31  5-MIN KMSN 300000Z 28005KT 10SM CLR M13/M18 A3011 690 66 -2500 280/05 RMK AO2
14837KMSN MSN20011229180509612/29/01 18:05:31  5-MIN KMSN 300005Z 29006KT 10SM CLR M13/M18 A3011 690 66 -2500 290/06 RMK AO2
14837KMSN MSN20011229181009612/29/01 18:10:31  5-MIN KMSN 300010Z VRB04KT 10SM CLR M13/M18 A3010 690 66 -2500 VRB/04 RMK AO2
14837KMSN MSN20011229181509612/29/01 18:15:31  5-MIN KMSN 300015Z VRB05KT 10SM CLR M13/M18 A3011 690 66 -2500 VRB/05 RMK AO2
14837KMSN MSN20011229182009612/29/01 18:20:31  5-MIN KMSN 300020Z 29006KT 10SM CLR M13/M18 A3011 690 66 -2500 290/06 RMK AO2
14837KMSN MSN20011229182509612/29/01 18:25:31  5-MIN KMSN 300025Z 29006KT 10SM CLR M13/M18 A3010 690 66 -2500 290/06 RMK AO2
14837KMSN MSN20011229183009612/29/01 18:30:31  5-MIN KMSN 300030Z 29005KT 10SM CLR M13/M18 A3010 690 63 -2500 290/05 RMK AO2
14837KMSN MSN20011229183509612/29/01 18:35:31  5-MIN KMSN 300035Z VRB04KT 10SM CLR M13/M18 A3011 690 66 -2500 VRB/04 RMK AO2
14837KMSN MSN20011229184009612/29/01 18:40:31  5-MIN KMSN 300040Z 29005KT 10SM CLR M13/M18 A3011 690 66 -2500 290/05 RMK AO2
14837KMSN MSN20011229184509612/29/01 18:45:31  5-MIN KMSN 300045Z 29006KT 10SM CLR M13/M18 A3011 690 66 -2500 290/06 RMK AO2
14837KMSN MSN20011229185011312/29/01 18:50:31  5-MIN KMSN 300050Z 28005KT 10SM CLR M13/M18 A3011 690 66 -2500 280/05 RMK AO2 SLP215 T11281178
14837KMSN MSN20011229185509612/29/01 18:55:31  5-MIN KMSN 300055Z VRB04KT 10SM CLR M13/M18 A3011 690 66 -2500 VRB/04 RMK AO2
14837KMSN MSN20011229190009612/29/01 19:00:31  5-MIN KMSN 300100Z 28005KT 10SM CLR M13/M18 A3011 690 66 -2500 280/05 RMK AO2
14837KMSN MSN20011229190509612/29/01 19:05:31  5-MIN KMSN 300105Z 29005KT 10SM CLR M13/M18 A3010 690 69 -2600 280/05 RMK AO2
14837KMSN MSN20011229191009612/29/01 19:10:31  5-MIN KMSN 300110Z 29005KT 10SM CLR M13/M18 A3011 690 69 -2600 290/05 RMK AO2
14837KMSN MSN20011229191509612/29/01 19:15:31  5-MIN KMSN 300115Z 29006KT 10SM CLR M13/M18 A3011 690 66 -2600 290/06 RMK AO2
14837KMSN MSN20011229192009612/29/01 19:20:31  5-MIN KMSN 300120Z VRB05KT 10SM CLR M13/M18 A3011 690 69 -2600 VRB/05 RMK AO2
14837KMSN MSN20011229192509612/29/01 19:25:31  5-MIN KMSN 300125Z 28005KT 10SM CLR M13/M18 A3011 690 69 -2600 280/05 RMK AO2
14837KMSN MSN20011229193009612/29/01 19:30:31  5-MIN KMSN 300130Z 29006KT 10SM CLR M13/M18 A3011 690 69 -2600 290/06 RMK AO2
14837KMSN MSN20011229193509612/29/01 19:35:31  5-MIN KMSN 300135Z 29007KT 10SM CLR M13/M18 A3011 690 69 -2600 290/07 RMK AO2
14837KMSN MSN20011229194009612/29/01 19:40:31  5-MIN KMSN 300140Z 29005KT 10SM CLR M13/M18 A3011 690 69 -2600 280/05 RMK AO2
14837KMSN MSN20011229194509612/29/01 19:45:31  5-MIN KMSN 300145Z 28005KT 10SM CLR M13/M18 A3011 690 69 -2600 280/05 RMK AO2
14837KMSN MSN20011229195011312/29/01 19:50:31  5-MIN KMSN 300150Z 28006KT 10SM CLR M13/M18 A3011 690 66 -2600 280/06 RMK AO2 SLP216 T11331183
14837KMSN MSN20011229195509612/29/01 19:55:31  5-MIN KMSN 300155Z 28005KT 10SM CLR M13/M18 A3011 690 69 -2600 280/05 RMK AO2
14837KMSN MSN20011229200009612/29/01 20:00:31  5-MIN KMSN 300200Z 28005KT 10SM CLR M13/M18 A3010 690 69 -2600 270/05 RMK AO2
14837KMSN MSN20011229200509612/29/01 20:05:31  5-MIN KMSN 300205Z 28005KT 10SM CLR M13/M18 A3011 690 69 -2600 280/05 RMK AO2
14837KMSN MSN20011229201009612/29/01 20:10:31  5-MIN KMSN 300210Z 28006KT 10SM CLR M13/M18 A3010 690 69 -2600 280/06 RMK AO2
14837KMSN MSN20011229201509612/29/01 20:15:31  5-MIN KMSN 300215Z VRB06KT 10SM CLR M13/M18 A3010 700 69 -2600 VRB/06 RMK AO2
14837KMSN MSN20011229202009612/29/01 20:20:31  5-MIN KMSN 300220Z VRB04KT 10SM CLR M13/M18 A3010 690 69 -2600 VRB/04 RMK AO2
14837KMSN MSN20011229202509612/29/01 20:25:31  5-MIN KMSN 300225Z VRB04KT 10SM CLR M13/M18 A3010 690 69 -2600 VRB/04 RMK AO2
14837KMSN MSN20011229203009612/29/01 20:30:31  5-MIN KMSN 300230Z 28005KT 10SM CLR M13/M18 A3011 690 66 -2600 280/05 RMK AO2
14837KMSN MSN20011229203509612/29/01 20:35:31  5-MIN KMSN 300235Z VRB03KT 10SM CLR M13/M18 A3010 690 69 -2600 VRB/03 RMK AO2
14837KMSN MSN20011229204009612/29/01 20:40:31  5-MIN KMSN 300240Z 29005KT 10SM CLR M13/M18 A3011 690 69 -2600 290/05 RMK AO2
14837KMSN MSN20011229204509612/29/01 20:45:31  5-MIN KMSN 300245Z VRB04KT 10SM CLR M14/M18 A3011 690 73 -2700 VRB/04 RMK AO2
14837KMSN MSN20011229205011912/29/01 20:50:31  5-MIN KMSN 300250Z VRB04KT 10SM CLR M14/M18 A3011 690 73 -2700 VRB/04 RMK AO2 SLP216 T11391178 51014
14837KMSN MSN20011229205509612/29/01 20:55:31  5-MIN KMSN 300255Z 28003KT 10SM CLR M14/M17 A3011 690 76 -2700 280/03 RMK AO2
14837KMSN MSN20011229210009612/29/01 21:00:31  5-MIN KMSN 300300Z 28004KT 10SM CLR M14/M18 A3011 690 69 -2700 280/04 RMK AO2
14837KMSN MSN20011229210509612/29/01 21:05:31  5-MIN KMSN 300305Z 28004KT 10SM CLR M14/M18 A3011 690 73 -2700 280/04 RMK AO2
14837KMSN MSN20011229211009612/29/01 21:10:31  5-MIN KMSN 300310Z 26004KT 10SM CLR M14/M18 A3011 690 73 -2700 260/04 RMK AO2
14837KMSN MSN20011229211509612/29/01 21:15:31  5-MIN KMSN 300315Z 26004KT 10SM CLR M14/M18 A3011 690 69 -2700 260/04 RMK AO2
14837KMSN MSN20011229212009612/29/01 21:20:31  5-MIN KMSN 300320Z VRB05KT 10SM CLR M14/M18 A3011 690 73 -2700 VRB/05 RMK AO2
14837KMSN MSN20011229212509612/29/01 21:25:31  5-MIN KMSN 300325Z 27006KT 10SM CLR M14/M18 A3011 690 73 -2700 270/06 RMK AO2
14837KMSN MSN20011229213009612/29/01 21:30:31  5-MIN KMSN 300330Z VRB05KT 10SM CLR M14/M18 A3010 700 73 -2700 VRB/05 RMK AO2
14837KMSN MSN20011229213509612/29/01 21:35:31  5-MIN KMSN 300335Z 27006KT 10SM CLR M14/M17 A3010 700 76 -2700 270/06 RMK AO2
14837KMSN MSN20011229214009612/29/01 21:40:31  5-MIN KMSN 300340Z 27007KT 10SM CLR M14/M18 A3010 700 73 -2700 270/07 RMK AO2
14837KMSN MSN20011229214509612/29/01 21:45:31  5-MIN KMSN 300345Z 28006KT 10SM CLR M14/M18 A3010 700 73 -2700 280/06 RMK AO2
14837KMSN MSN20011229215011312/29/01 21:50:31  5-MIN KMSN 300350Z 28005KT 10SM CLR M14/M18 A3010 700 73 -2700 280/05 RMK AO2 SLP214 T11391178
14837KMSN MSN20011229215509612/29/01 21:55:31  5-MIN KMSN 300355Z 28006KT 10SM CLR M14/M18 A3010 700 69 -2700 270/06 RMK AO2
14837KMSN MSN20011229220009612/29/01 22:00:31  5-MIN KMSN 300400Z 29006KT 10SM CLR M14/M18 A3011 690 76 -2800 280/06 RMK AO2
14837KMSN MSN20011229220509612/29/01 22:05:31  5-MIN KMSN 300405Z 28006KT 10SM CLR M14/M18 A3011 690 76 -2800 280/06 RMK AO2
14837KMSN MSN20011229221009612/29/01 22:10:31  5-MIN KMSN 300410Z 28007KT 10SM CLR M14/M18 A3011 690 76 -2800 280/07 RMK AO2
14837KMSN MSN20011229221509612/29/01 22:15:31  5-MIN KMSN 300415Z 29007KT 10SM CLR M14/M18 A3011 690 76 -2800 290/07 RMK AO2
14837KMSN MSN20011229222009612/29/01 22:20:31  5-MIN KMSN 300420Z 28008KT 10SM CLR M14/M18 A3011 690 76 -2800 280/08 RMK AO2
14837KMSN MSN20011229222509612/29/01 22:25:31  5-MIN KMSN 300425Z 28006KT 10SM CLR M14/M18 A3011 690 76 -2800 280/06 RMK AO2
14837KMSN MSN20011229223009612/29/01 22:30:31  5-MIN KMSN 300430Z 28007KT 10SM CLR M14/M18 A3011 690 76 -2800 280/07 RMK AO2
14837KMSN MSN20011229223509612/29/01 22:35:31  5-MIN KMSN 300435Z 28006KT 10SM CLR M14/M18 A3011 690 76 -2800 270/06 RMK AO2
14837KMSN MSN20011229224009612/29/01 22:40:31  5-MIN KMSN 300440Z 28008KT 10SM CLR M14/M18 A3011 690 73 -2800 280/08 RMK AO2
14837KMSN MSN20011229224509612/29/01 22:45:31  5-MIN KMSN 300445Z 28007KT 10SM CLR M14/M18 A3011 690 76 -2800 280/07 RMK AO2
14837KMSN MSN20011229225011312/29/01 22:50:31  5-MIN KMSN 300450Z 28007KT 10SM CLR M14/M18 A3011 690 76 -2800 280/07 RMK AO2 SLP215 T11441178
14837KMSN MSN20011229225509612/29/01 22:55:31  5-MIN KMSN 300455Z 28008KT 10SM CLR M14/M18 A3011 690 76 -2800 280/08 RMK AO2
14837KMSN MSN20011229230009612/29/01 23:00:31  5-MIN KMSN 300500Z 28007KT 10SM CLR M14/M18 A3011 690 76 -2800 280/07 RMK AO2
14837KMSN MSN20011229230509612/29/01 23:05:31  5-MIN KMSN 300505Z 28009KT 10SM CLR M14/M18 A3011 690 76 -2800 280/09 RMK AO2
14837KMSN MSN20011229231009612/29/01 23:10:31  5-MIN KMSN 300510Z 28007KT 10SM CLR M14/M18 A3011 690 76 -2800 280/07 RMK AO2
14837KMSN MSN20011229231509612/29/01 23:15:31  5-MIN KMSN 300515Z 28006KT 10SM CLR M14/M18 A3010 690 76 -2800 280/06 RMK AO2
14837KMSN MSN20011229232009612/29/01 23:20:31  5-MIN KMSN 300520Z 28006KT 10SM CLR M14/M18 A3011 690 76 -2800 270/06 RMK AO2
14837KMSN MSN20011229232509612/29/01 23:25:31  5-MIN KMSN 300525Z 27007KT 10SM CLR M14/M18 A3010 690 73 -2800 270/07 RMK AO2
14837KMSN MSN20011229233009612/29/01 23:30:31  5-MIN KMSN 300530Z 28006KT 10SM CLR M14/M18 A3011 690 76 -2800 280/06 RMK AO2
14837KMSN MSN20011229233509612/29/01 23:35:31  5-MIN KMSN 300535Z 29007KT 10SM CLR M14/M18 A3010 690 76 -2800 280/07 RMK AO2
14837KMSN MSN20011229234011212/29/01 23:40:31  5-MIN KMSN 300540Z 28007KT 250V310 10SM CLR M15/M17 A3011 690 83 -2800 280/07 250V310 RMK AO2
14837KMSN MSN20011229234509612/29/01 23:45:31  5-MIN KMSN 300545Z 29008KT 10SM CLR M14/M18 A3010 690 76 -2800 280/08 RMK AO2
14837KMSN MSN20011229235014112/29/01 23:50:31  5-MIN KMSN 300550Z 28006KT 10SM CLR M15/M18 A3011 690 76 -2800 280/06 RMK AO2 SLP214 T11501183 11128 21150 411001150 51001
14837KMSN MSN20011229235509612/29/01 23:55:31  5-MIN KMSN 300555Z 28006KT 10SM CLR M14/M18 A3011 690 76 -2800 280/06 RMK AO2
14837KMSN MSN20011230000009612/30/01 00:00:31  5-MIN KMSN 300600Z 27007KT 10SM CLR M15/M18 A3011 690 76 -2800 270/07 RMK AO2
14837KMSN MSN20011230000509612/30/01 00:05:31  5-MIN KMSN 300605Z 28006KT 10SM CLR M15/M18 A3011 690 80 -2800 280/06 RMK AO2
14837KMSN MSN20011230001009612/30/01 00:10:31  5-MIN KMSN 300610Z 28005KT 10SM CLR M15/M18 A3011 690 80 -2800 270/05 RMK AO2
14837KMSN MSN20011230001511212/30/01 00:15:31  5-MIN KMSN 300615Z 27007KT 220V290 10SM CLR M15/M18 A3011 690 80 -2800 270/07 220V290 RMK AO2
14837KMSN MSN20011230002009612/30/01 00:20:31  5-MIN KMSN 300620Z 28008KT 10SM CLR M15/M18 A3011 690 80 -2800 280/08 RMK AO2
14837KMSN MSN20011230002509612/30/01 00:25:31  5-MIN KMSN 300625Z 28007KT 10SM CLR M15/M18 A3011 690 80 -2800 280/07 RMK AO2
14837KMSN MSN20011230003009612/30/01 00:30:31  5-MIN KMSN 300630Z 28007KT 10SM CLR M15/M18 A3011 690 76 -2800 280/07 RMK AO2
14837KMSN MSN20011230003509612/30/01 00:35:31  5-MIN KMSN 300635Z 28007KT 10SM CLR M15/M18 A3011 690 80 -2800 280/07 RMK AO2
14837KMSN MSN20011230004009612/30/01 00:40:31  5-MIN KMSN 300640Z 27006KT 10SM CLR M15/M18 A3011 690 80 -2800 270/06 RMK AO2
14837KMSN MSN20011230004509612/30/01 00:45:31  5-MIN KMSN 300645Z VRB06KT 10SM CLR M15/M18 A3011 690 76 -2800 VRB/06 RMK AO2
14837KMSN MSN20011230005012912/30/01 00:50:31  5-MIN KMSN 300650Z 27007KT 250V320 10SM CLR M15/M18 A3011 690 80 -2800 270/07 250V320 RMK AO2 SLP217 T11501178
14837KMSN MSN20011230005509612/30/01 00:55:31  5-MIN KMSN 300655Z 28007KT 10SM CLR M15/M18 A3011 690 80 -2800 280/07 RMK AO2
14837KMSN MSN20011230010009612/30/01 01:00:31  5-MIN KMSN 300700Z 28007KT 10SM CLR M15/M18 A3011 690 80 -2800 280/07 RMK AO2
14837KMSN MSN20011230010509612/30/01 01:05:31  5-MIN KMSN 300705Z 28008KT 10SM CLR M15/M18 A3011 690 80 -2800 280/08 RMK AO2
14837KMSN MSN20011230011009612/30/01 01:10:31  5-MIN KMSN 300710Z 28008KT 10SM CLR M15/M18 A3011 690 80 -2800 280/08 RMK AO2
14837KMSN MSN20011230011509612/30/01 01:15:31  5-MIN KMSN 300715Z 28008KT 10SM CLR M15/M18 A3011 690 80 -2800 280/08 RMK AO2
14837KMSN MSN20011230012009612/30/01 01:20:31  5-MIN KMSN 300720Z 28008KT 10SM CLR M15/M18 A3011 690 80 -2800 280/08 RMK AO2
14837KMSN MSN20011230012509612/30/01 01:25:31  5-MIN KMSN 300725Z 28008KT 10SM CLR M15/M18 A3011 690 76 -2800 280/08 RMK AO2
14837KMSN MSN20011230013009612/30/01 01:30:31  5-MIN KMSN 300730Z 28008KT 10SM CLR M15/M18 A3011 690 76 -2800 270/08 RMK AO2
14837KMSN MSN20011230013509612/30/01 01:35:31  5-MIN KMSN 300735Z 27007KT 10SM CLR M15/M18 A3011 690 80 -2800 270/07 RMK AO2
14837KMSN MSN20011230014011212/30/01 01:40:31  5-MIN KMSN 300740Z 27007KT 250V310 10SM CLR M15/M18 A3011 690 80 -2800 270/07 250V310 RMK AO2
14837KMSN MSN20011230014509612/30/01 01:45:31  5-MIN KMSN 300745Z 28008KT 10SM CLR M15/M17 A3011 690 83 -2800 280/08 RMK AO2
14837KMSN MSN20011230015011312/30/01 01:50:31  5-MIN KMSN 300750Z 28008KT 10SM CLR M15/M18 A3011 690 80 -2800 280/08 RMK AO2 SLP215 T11501178
14837KMSN MSN20011230015509612/30/01 01:55:31  5-MIN KMSN 300755Z 28008KT 10SM CLR M15/M18 A3011 690 80 -2800 280/08 RMK AO2
14837KMSN MSN20011230020009612/30/01 02:00:31  5-MIN KMSN 300800Z 28008KT 10SM CLR M15/M18 A3011 690 80 -2800 280/08 RMK AO2
14837KMSN MSN20011230020509612/30/01 02:05:31  5-MIN KMSN 300805Z 28009KT 10SM CLR M15/M18 A3011 690 76 -2800 280/09 RMK AO2
14837KMSN MSN20011230021009612/30/01 02:10:31  5-MIN KMSN 300810Z 28007KT 10SM CLR M15/M18 A3011 690 76 -2800 280/07 RMK AO2
14837KMSN MSN20011230021509612/30/01 02:15:31  5-MIN KMSN 300815Z 28007KT 10SM CLR M15/M18 A3011 690 80 -2800 270/07 RMK AO2
14837KMSN MSN20011230022009612/30/01 02:20:31  5-MIN KMSN 300820Z 28008KT 10SM CLR M15/M18 A3011 690 76 -2800 280/08 RMK AO2
14837KMSN MSN20011230022509612/30/01 02:25:31  5-MIN KMSN 300825Z 28008KT 10SM CLR M15/M18 A3012 680 80 -2800 270/08 RMK AO2
14837KMSN MSN20011230023009612/30/01 02:30:31  5-MIN KMSN 300830Z 27007KT 10SM CLR M15/M18 A3012 680 80 -2800 270/07 RMK AO2
14837KMSN MSN20011230023509612/30/01 02:35:31  5-MIN KMSN 300835Z 27007KT 10SM CLR M15/M18 A3012 680 80 -2800 270/07 RMK AO2
14837KMSN MSN20011230024009612/30/01 02:40:31  5-MIN KMSN 300840Z 28008KT 10SM CLR M15/M18 A3012 680 80 -2800 280/08 RMK AO2
14837KMSN MSN20011230024509612/30/01 02:45:31  5-MIN KMSN 300845Z 28007KT 10SM CLR M15/M18 A3012 680 80 -2800 280/07 RMK AO2
14837KMSN MSN20011230025011912/30/01 02:50:31  5-MIN KMSN 300850Z 27006KT 10SM CLR M15/M18 A3012 680 76 -2800 260/06 RMK AO2 SLP218 T11501183 55000
14837KMSN MSN20011230025509612/30/01 02:55:31  5-MIN KMSN 300855Z 27007KT 10SM CLR M15/M18 A3012 680 80 -2800 270/07 RMK AO2
14837KMSN MSN20011230030009612/30/01 03:00:31  5-MIN KMSN 300900Z 27007KT 10SM CLR M15/M18 A3012 680 80 -2800 260/07 RMK AO2
14837KMSN MSN20011230030509612/30/01 03:05:31  5-MIN KMSN 300905Z 27007KT 10SM CLR M15/M18 A3012 680 80 -2800 270/07 RMK AO2
14837KMSN MSN20011230031009612/30/01 03:10:31  5-MIN KMSN 300910Z 26008KT 10SM CLR M15/M17 A3012 680 83 -2800 260/08 RMK AO2
14837KMSN MSN20011230031509612/30/01 03:15:31  5-MIN KMSN 300915Z 26006KT 10SM CLR M15/M18 A3012 680 80 -2800 260/06 RMK AO2
14837KMSN MSN20011230032009612/30/01 03:20:31  5-MIN KMSN 300920Z 27006KT 10SM CLR M15/M18 A3012 680 80 -2800 270/06 RMK AO2
14837KMSN MSN20011230032509612/30/01 03:25:31  5-MIN KMSN 300925Z 27009KT 10SM CLR M15/M18 A3012 680 80 -2800 260/09 RMK AO2
14837KMSN MSN20011230033009612/30/01 03:30:31  5-MIN KMSN 300930Z 26007KT 10SM CLR M15/M18 A3012 680 80 -2900 260/07 RMK AO2
14837KMSN MSN20011230033509612/30/01 03:35:31  5-MIN KMSN 300935Z 26006KT 10SM CLR M15/M18 A3012 680 80 -2800 260/06 RMK AO2
14837KMSN MSN20011230034009612/30/01 03:40:31  5-MIN KMSN 300940Z 26008KT 10SM CLR M15/M17 A3012 680 83 -2800 260/08 RMK AO2
14837KMSN MSN20011230034509612/30/01 03:45:31  5-MIN KMSN 300945Z 26007KT 10SM CLR M15/M18 A3012 680 80 -2800 260/07 RMK AO2
14837KMSN MSN20011230035011312/30/01 03:50:31  5-MIN KMSN 300950Z 27009KT 10SM CLR M15/M17 A3012 680 83 -2900 270/09 RMK AO2 SLP219 T11501172
14837KMSN MSN20011230035509612/30/01 03:55:31  5-MIN KMSN 300955Z 26007KT 10SM CLR M15/M18 A3012 680 80 -2800 260/07 RMK AO2
14837KMSN MSN20011230040009612/30/01 04:00:31  5-MIN KMSN 301000Z 26008KT 10SM CLR M15/M17 A3012 680 83 -2800 260/08 RMK AO2
14837KMSN MSN20011230040509612/30/01 04:05:31  5-MIN KMSN 301005Z 27007KT 10SM CLR M15/M17 A3012 680 83 -2800 260/07 RMK AO2
14837KMSN MSN20011230041009612/30/01 04:10:31  5-MIN KMSN 301010Z 27007KT 10SM CLR M15/M18 A3012 680 80 -2800 270/07 RMK AO2
14837KMSN MSN20011230041509612/30/01 04:15:31  5-MIN KMSN 301015Z 27007KT 10SM CLR M15/M18 A3011 680 80 -2800 270/07 RMK AO2
14837KMSN MSN20011230042009612/30/01 04:20:31  5-MIN KMSN 301020Z 26006KT 10SM CLR M15/M17 A3011 690 83 -2800 260/06 RMK AO2
14837KMSN MSN20011230042511212/30/01 04:25:31  5-MIN KMSN 301025Z 26008KT 210V290 10SM CLR M15/M17 A3011 690 83 -2800 260/08 210V290 RMK AO2
14837KMSN MSN20011230043009612/30/01 04:30:31  5-MIN KMSN 301030Z 26007KT 10SM CLR M15/M17 A3011 690 83 -2800 260/07 RMK AO2
14837KMSN MSN20011230043509612/30/01 04:35:31  5-MIN KMSN 301035Z 26008KT 10SM CLR M15/M17 A3011 690 83 -2800 260/08 RMK AO2
14837KMSN MSN20011230044009612/30/01 04:40:31  5-MIN KMSN 301040Z 26008KT 10SM CLR M15/M17 A3011 690 83 -2800 260/08 RMK AO2
14837KMSN MSN20011230044509612/30/01 04:45:31  5-MIN KMSN 301045Z 26006KT 10SM CLR M15/M17 A3011 690 83 -2800 260/06 RMK AO2
14837KMSN MSN20011230045011312/30/01 04:50:31  5-MIN KMSN 301050Z 27007KT 10SM CLR M16/M17 A3011 690 87 -2900 260/07 RMK AO2 SLP215 T11561172
14837KMSN MSN20011230045509612/30/01 04:55:31  5-MIN KMSN 301055Z 27006KT 10SM CLR M16/M18 A3011 690 83 -2900 270/06 RMK AO2
14837KMSN MSN20011230050009612/30/01 05:00:31  5-MIN KMSN 301100Z 27005KT 10SM CLR M16/M18 A3011 690 83 -2900 270/05 RMK AO2
14837KMSN MSN20011230050511212/30/01 05:05:31  5-MIN KMSN 301105Z 26007KT 230V290 10SM CLR M16/M17 A3011 690 87 -2900 260/07 230V290 RMK AO2
14837KMSN MSN20011230051009612/30/01 05:10:31  5-MIN KMSN 301110Z 27007KT 10SM CLR M16/M17 A3010 690 87 -2900 270/07 RMK AO2
14837KMSN MSN20011230051509612/30/01 05:15:31  5-MIN KMSN 301115Z 27008KT 10SM CLR M16/M17 A3010 690 87 -2900 260/08 RMK AO2
14837KMSN MSN20011230052009612/30/01 05:20:31  5-MIN KMSN 301120Z 27008KT 10SM CLR M16/M17 A3011 690 87 -2900 260/08 RMK AO2
14837KMSN MSN20011230052509612/30/01 05:25:31  5-MIN KMSN 301125Z 27007KT 10SM CLR M16/M21 A3011 690 66 -2900 270/07 RMK AO2
14837KMSN MSN20011230053009612/30/01 05:30:31  5-MIN KMSN 301130Z 27008KT 10SM CLR M16/M18 A3011 690 79 -2900 270/08 RMK AO2
14837KMSN MSN20011230053509612/30/01 05:35:31  5-MIN KMSN 301135Z 27008KT 10SM CLR M16/M18 A3011 690 83 -2900 270/08 RMK AO2
14837KMSN MSN20011230054010212/30/01 05:40:31  5-MIN KMSN 301140Z 27007KT 10SM CLR M16/M18 A3011 690 83 -2900 270/07 RMK AO2 4/001
14837KMSN MSN20011230054510212/30/01 05:45:31  5-MIN KMSN 301145Z 27006KT 10SM CLR M16/M18 A3010 700 83 -2900 270/06 RMK AO2 4/001
14837KMSN MSN20011230055013712/30/01 05:50:31  5-MIN KMSN 301150Z 26008KT 10SM CLR M16/M18 A3011 690 83 -2900 260/08 RMK AO2 SLP215 4/001 T11561178 11144 21156 53003
14837KMSN MSN20011230055509612/30/01 05:55:31  5-MIN KMSN 301155Z 26008KT 10SM CLR M16/M17 A3011 690 87 -2900 260/08 RMK AO2
14837KMSN MSN20011230060009612/30/01 06:00:31  5-MIN KMSN 301200Z 27006KT 10SM CLR M16/M18 A3010 690 83 -2900 260/06 RMK AO2
14837KMSN MSN20011230060509612/30/01 06:05:31  5-MIN KMSN 301205Z 26006KT 10SM CLR M16/M17 A3011 690 87 -2900 260/06 RMK AO2
14837KMSN MSN20011230061009612/30/01 06:10:31  5-MIN KMSN 301210Z 26005KT 10SM CLR M16/M17 A3011 690 87 -2900 260/05 RMK AO2
14837KMSN MSN20011230061509612/30/01 06:15:31  5-MIN KMSN 301215Z 27007KT 10SM CLR M16/M17 A3011 690 87 -2900 270/07 RMK AO2
14837KMSN MSN20011230062009612/30/01 06:20:31  5-MIN KMSN 301220Z 26007KT 10SM CLR M16/M17 A3011 690 87 -2900 260/07 RMK AO2
14837KMSN MSN20011230062509612/30/01 06:25:31  5-MIN KMSN 301225Z VRB06KT 10SM CLR M16/M18 A3011 690 83 -2900 VRB/06 RMK AO2
14837KMSN MSN20011230063009612/30/01 06:30:31  5-MIN KMSN 301230Z 27006KT 10SM CLR M16/M18 A3011 690 83 -2900 270/06 RMK AO2
14837KMSN MSN20011230063509612/30/01 06:35:31  5-MIN KMSN 301235Z 27007KT 10SM CLR M16/M17 A3011 690 87 -2900 270/07 RMK AO2
14837KMSN MSN20011230064009612/30/01 06:40:31  5-MIN KMSN 301240Z 27009KT 10SM CLR M15/M17 A3011 690 83 -2800 260/09 RMK AO2
14837KMSN MSN20011230064509612/30/01 06:45:31  5-MIN KMSN 301245Z 27008KT 10SM CLR M15/M17 A3011 690 83 -2800 270/08 RMK AO2
14837KMSN MSN20011230065012912/30/01 06:50:31  5-MIN KMSN 301250Z 26007KT 230V300 10SM CLR M15/M17 A3011 690 83 -2800 260/07 230V300 RMK AO2 SLP218 T11501172
14837KMSN MSN20011230065509912/30/01 06:55:31  5-MIN KMSN 301255Z VRB05KT 10SM FEW015 M15/M17 A3011 690 83 -2800 VRB/05 RMK AO2
14837KMSN MSN20011230070009912/30/01 07:00:31  5-MIN KMSN 301300Z 26008KT 10SM FEW015 M15/M17 A3011 690 83 -2800 260/08 RMK AO2
14837KMSN MSN20011230070509912/30/01 07:05:31  5-MIN KMSN 301305Z 27007KT 10SM FEW015 M15/M17 A3011 690 83 -2800 270/07 RMK AO2
14837KMSN MSN20011230071009912/30/01 07:10:31  5-MIN KMSN 301310Z VRB06KT 10SM FEW015 M15/M17 A3011 680 83 -2800 VRB/06 RMK AO2
14837KMSN MSN20011230071509912/30/01 07:15:31  5-MIN KMSN 301315Z 27006KT 10SM FEW015 M15/M17 A3011 690 83 -2800 270/06 RMK AO2
14837KMSN MSN20011230072009912/30/01 07:20:31  5-MIN KMSN 301320Z VRB06KT 10SM FEW015 M15/M17 A3011 690 83 -2800 VRB/06 RMK AO2
14837KMSN MSN20011230072509812/30/01 07:25:31  5-MIN KMSN 301325Z 27007KT 9SM FEW015 M15/M17 A3012 680 83 -2800 270/07 RMK AO2
14837KMSN MSN20011230073009812/30/01 07:30:31  5-MIN KMSN 301330Z VRB06KT 9SM FEW015 M15/M17 A3012 680 83 -2800 VRB/06 RMK AO2
14837KMSN MSN20011230073509812/30/01 07:35:31  5-MIN KMSN 301335Z 27009KT 8SM FEW015 M15/M17 A3012 680 83 -2800 270/09 RMK AO2
14837KMSN MSN20011230074009812/30/01 07:40:31  5-MIN KMSN 301340Z 26008KT 9SM FEW015 M15/M17 A3012 680 83 -2900 260/08 RMK AO2
14837KMSN MSN20011230074509912/30/01 07:45:31  5-MIN KMSN 301345Z 27008KT 10SM FEW015 M15/M17 A3012 680 83 -2900 260/08 RMK AO2
14837KMSN MSN20011230075011612/30/01 07:50:31  5-MIN KMSN 301350Z 27008KT 10SM FEW015 M15/M17 A3012 680 83 -2900 260/08 RMK AO2 SLP220 T11501172
14837KMSN MSN20011230075510612/30/01 07:55:31  5-MIN KMSN 301355Z 28007KT 10SM FEW015 SCT100 M15/M17 A3012 680 87 -2900 270/07 RMK AO2
14837KMSN MSN20011230080010612/30/01 08:00:31  5-MIN KMSN 301400Z 27007KT 10SM FEW015 SCT100 M15/M17 A3012 680 87 -2900 270/07 RMK AO2
14837KMSN MSN20011230080510612/30/01 08:05:31  5-MIN KMSN 301405Z 27007KT 10SM FEW015 SCT100 M15/M17 A3012 680 83 -2900 270/07 RMK AO2
14837KMSN MSN20011230081010612/30/01 08:10:31  5-MIN KMSN 301410Z 28007KT 10SM FEW015 SCT100 M15/M17 A3012 680 83 -2900 280/07 RMK AO2
14837KMSN MSN20011230081510612/30/01 08:15:31  5-MIN KMSN 301415Z 27008KT 10SM FEW015 SCT100 M14/M17 A3013 680 83 -2800 260/08 RMK AO2
14837KMSN MSN20011230082010612/30/01 08:20:31  5-MIN KMSN 301420Z 27008KT 10SM FEW015 SCT100 M14/M17 A3013 670 80 -2800 270/08 RMK AO2
14837KMSN MSN20011230082510612/30/01 08:25:31  5-MIN KMSN 301425Z 27005KT 10SM FEW015 SCT100 M14/M17 A3013 670 80 -2800 270/05 RMK AO2
14837KMSN MSN20011230083010612/30/01 08:30:31  5-MIN KMSN 301430Z 27008KT 10SM FEW015 SCT100 M14/M17 A3013 670 83 -2800 270/08 RMK AO2
14837KMSN MSN20011230083510612/30/01 08:35:31  5-MIN KMSN 301435Z 27008KT 10SM FEW015 SCT028 M14/M17 A3013 670 83 -2800 270/08 RMK AO2
14837KMSN MSN20011230084010612/30/01 08:40:31  5-MIN KMSN 301440Z 28008KT 10SM FEW015 BKN028 M14/M16 A3013 670 83 -2700 270/08 RMK AO2
14837KMSN MSN20011230084512212/30/01 08:45:31  5-MIN KMSN 301445Z 27007KT 240V310 10SM FEW015 BKN028 M14/M17 A3013 670 76 -2700 270/07 240V310 RMK AO2
14837KMSN MSN20011230085016712/30/01 08:50:31  5-MIN KMSN 301450Z 27007KT 230V300 10SM -SN FEW015 OVC028 M14/M17 A3014 660 80 -2700 270/07 230V300 RMK AO2 SNB47 SLP226 P0000 60000 T11391167 58004
14837KMSN MSN20011230085511612/30/01 08:55:31  5-MIN KMSN 301455Z VRB06KT 10SM -SN FEW015 OVC026 M14/M17 A3014 660 80 -2700 VRB/06 RMK AO2 P0000
14837KMSN MSN20011230090011612/30/01 09:00:31  5-MIN KMSN 301500Z VRB06KT 10SM -SN FEW015 OVC026 M13/M17 A3014 660 76 -2600 VRB/06 RMK AO2 P0000
14837KMSN MSN20011230090511612/30/01 09:05:31  5-MIN KMSN 301505Z 26007KT 10SM -SN FEW015 OVC026 M13/M17 A3014 660 76 -2600 260/07 RMK AO2 P0000
14837KMSN MSN20011230091011612/30/01 09:10:31  5-MIN KMSN 301510Z 25006KT 10SM -SN FEW015 OVC026 M13/M16 A3014 660 80 -2700 250/06 RMK AO2 P0000
14837KMSN MSN20011230091511612/30/01 09:15:31  5-MIN KMSN 301515Z VRB06KT 10SM -SN FEW015 OVC026 M13/M16 A3014 660 80 -2700 VRB/06 RMK AO2 P0000
14837KMSN MSN20011230092011612/30/01 09:20:31  5-MIN KMSN 301520Z VRB06KT 10SM -SN FEW015 OVC026 M13/M16 A3014 660 76 -2600 VRB/06 RMK AO2 P0000
14837KMSN MSN20011230092511612/30/01 09:25:31  5-MIN KMSN 301525Z 26009KT 10SM -SN FEW015 OVC026 M13/M16 A3015 660 80 -2600 260/09 RMK AO2 P0000
14837KMSN MSN20011230093012212/30/01 09:30:31  5-MIN KMSN 301530Z 27008G15KT 10SM -SN FEW015 OVC026 M13/M16 A3014 660 76 -2600 270/08G15 RMK AO2 P0000
14837KMSN MSN20011230093512212/30/01 09:35:31  5-MIN KMSN 301535Z 27009G15KT 10SM -SN FEW015 OVC026 M12/M16 A3014 660 76 -2500 260/09G15 RMK AO2 P0000
14837KMSN MSN20011230094012212/30/01 09:40:31  5-MIN KMSN 301540Z 27009G15KT 10SM -SN FEW015 OVC026 M12/M16 A3014 660 76 -2500 270/09G15 RMK AO2 P0000
14837KMSN MSN20011230094512212/30/01 09:45:31  5-MIN KMSN 301545Z 26009G15KT 10SM -SN FEW015 OVC026 M12/M16 A3014 660 76 -2500 250/09G15 RMK AO2 P0000
14837KMSN MSN20011230095014912/30/01 09:50:31  5-MIN KMSN 301550Z 26007KT 220V290 10SM -SN FEW015 OVC026 M12/M16 A3015 660 76 -2500 260/07 220V290 RMK AO2 SLP228 P0000 T11221156
14837KMSN MSN20011230095513112/30/01 09:55:31  5-MIN KMSN 301555Z 26009KT 200V280 9SM -SN FEW015 OVC026 M12/M15 A3015 660 80 -2500 250/09 200V280 RMK AO2 P0000
14837KMSN MSN20011230100011512/30/01 10:00:31  5-MIN KMSN 301600Z 26008KT 9SM -SN FEW015 OVC026 M12/M16 A3015 660 76 -2500 260/08 RMK AO2 P0000
14837KMSN MSN20011230100511512/30/01 10:05:31  5-MIN KMSN 301605Z 26008KT 9SM -SN FEW015 OVC026 M12/M16 A3015 660 73 -2400 260/08 RMK AO2 P0000
14837KMSN MSN20011230101011612/30/01 10:10:31  5-MIN KMSN 301610Z 27009KT 10SM -SN FEW015 OVC026 M12/M16 A3014 660 73 -2400 270/09 RMK AO2 P0000
14837KMSN MSN20011230101511612/30/01 10:15:31  5-MIN KMSN 301615Z 27009KT 10SM -SN FEW015 OVC026 M12/M16 A3014 660 73 -2400 270/09 RMK AO2 P0000
14837KMSN MSN20011230102011612/30/01 10:20:31  5-MIN KMSN 301620Z 26008KT 10SM -SN FEW015 OVC026 M12/M16 A3014 660 73 -2400 260/08 RMK AO2 P0000
14837KMSN MSN20011230102513812/30/01 10:25:31  5-MIN KMSN 301625Z 27009G16KT 230V300 10SM -SN FEW015 OVC026 M12/M16 A3014 660 73 -2400 260/09G16 230V300 RMK AO2 P0000
14837KMSN MSN20011230103012412/30/01 10:30:31  5-MIN KMSN 301630Z 28009G16KT 10SM FEW015 OVC026 M12/M16 A3014 660 73 -2400 270/09G16 RMK AO2 SNE26 P0000
14837KMSN MSN20011230103511812/30/01 10:35:31  5-MIN KMSN 301635Z 26009KT 10SM FEW015 OVC026 M12/M15 A3013 670 76 -2400 260/09 RMK AO2 SNE26 P0000
14837KMSN MSN20011230104011812/30/01 10:40:31  5-MIN KMSN 301640Z 28009KT 10SM FEW015 OVC026 M12/M16 A3013 670 73 -2400 280/09 RMK AO2 SNE26 P0000
14837KMSN MSN20011230104511812/30/01 10:45:31  5-MIN KMSN 301645Z 29011KT 10SM FEW015 OVC026 M12/M15 A3013 670 76 -2400 290/11 RMK AO2 SNE26 P0000
14837KMSN MSN20011230105013512/30/01 10:50:31  5-MIN KMSN 301650Z 27009KT 10SM FEW015 OVC024 M11/M15 A3013 670 73 -2300 270/09 RMK AO2 SNE26 SLP222 P0000 T11111150
14837KMSN MSN20011230105510612/30/01 10:55:31  5-MIN KMSN 301655Z 28009KT 10SM FEW015 OVC024 M11/M15 A3013 670 73 -2300 270/09 RMK AO2
14837KMSN MSN20011230110010612/30/01 11:00:31  5-MIN KMSN 301700Z 27006KT 10SM FEW015 OVC024 M11/M15 A3012 680 73 -2300 270/06 RMK AO2
14837KMSN MSN20011230110510612/30/01 11:05:31  5-MIN KMSN 301705Z 26008KT 10SM FEW015 OVC024 M11/M15 A3012 680 73 -2300 260/08 RMK AO2
14837KMSN MSN20011230111010612/30/01 11:10:31  5-MIN KMSN 301710Z 28007KT 10SM FEW015 OVC024 M11/M15 A3012 680 73 -2300 280/07 RMK AO2
14837KMSN MSN20011230111513812/30/01 11:15:31  5-MIN KMSN 301715Z 28010KT 250V320 10SM -SN FEW015 OVC022 M11/M15 A3012 680 70 -2300 280/10 250V320 RMK AO2 SNB11 P0000
14837KMSN MSN20011230112014412/30/01 11:20:31  5-MIN KMSN 301720Z 28008G17KT 240V310 10SM -SN FEW015 OVC022 M11/M15 A3012 680 70 -2300 280/08G17 240V310 RMK AO2 SNB11 P0000
14837KMSN MSN20011230112512812/30/01 11:25:31  5-MIN KMSN 301725Z 29008G17KT 10SM -SN FEW015 OVC022 M11/M15 A3012 680 70 -2300 290/08G17 RMK AO2 SNB11 P0000
14837KMSN MSN20011230113012212/30/01 11:30:31  5-MIN KMSN 301730Z 28008KT 10SM -SN FEW015 OVC022 M11/M15 A3012 680 70 -2300 280/08 RMK AO2 SNB11 P0000
14837KMSN MSN20011230113512812/30/01 11:35:31  5-MIN KMSN 301735Z 28012G16KT 10SM -SN FEW015 OVC022 M11/M15 A3012 680 70 -2300 280/12G16 RMK AO2 SNB11 P0000
14837KMSN MSN20011230114012812/30/01 11:40:31  5-MIN KMSN 301740Z 30009G16KT 10SM -SN FEW015 OVC022 M11/M15 A3012 680 70 -2300 300/09G16 RMK AO2 SNB11 P0000
14837KMSN MSN20011230114512812/30/01 11:45:31  5-MIN KMSN 301745Z 29006G15KT 10SM -SN FEW015 OVC022 M11/M15 A3012 680 70 -2300 290/06G15 RMK AO2 SNB11 P0000
14837KMSN MSN20011230115018512/30/01 11:50:31  5-MIN KMSN 301750Z 29011G15KT 250V330 10SM -SN FEW015 OVC022 M11/M15 A3012 680 70 -2300 290/11G15 250V330 RMK AO2 SNB11 SLP220 P0000 60000 T11061150 11100 21156 53011
14837KMSN MSN20011230115512212/30/01 11:55:31  5-MIN KMSN 301755Z 28010G15KT 10SM -SN FEW015 OVC022 M11/M16 A3012 680 67 -2300 280/10G15 RMK AO2 P0000
14837KMSN MSN20011230120012112/30/01 12:00:31  5-MIN KMSN 301800Z 29008G14KT 9SM -SN FEW015 OVC022 M11/M15 A3012 680 70 -2300 290/08G14 RMK AO2 P0000
14837KMSN MSN20011230120511512/30/01 12:05:31  5-MIN KMSN 301805Z 28011KT 9SM -SN FEW015 OVC022 M11/M14 A3012 680 73 -2300 270/11 RMK AO2 P0000
14837KMSN MSN20011230121012112/30/01 12:10:31  5-MIN KMSN 301810Z 27009G15KT 9SM -SN FEW015 OVC022 M10/M15 A3011 690 67 -2200 270/09G15 RMK AO2 P0000
14837KMSN MSN20011230121512112/30/01 12:15:31  5-MIN KMSN 301815Z 28011G15KT 9SM -SN FEW015 OVC022 M10/M15 A3011 690 67 -2200 280/11G15 RMK AO2 P0000
14837KMSN MSN20011230122013712/30/01 12:20:31  5-MIN KMSN 301820Z 30009G15KT 270V330 8SM -SN FEW015 OVC022 M10/M14 A3011 690 70 -2200 300/09G15 270V330 RMK AO2 P0000
14837KMSN MSN20011230122512112/30/01 12:25:31  5-MIN KMSN 301825Z 29009G16KT 8SM -SN FEW015 OVC022 M10/M14 A3011 690 70 -2200 290/09G16 RMK AO2 P0000
14837KMSN MSN20011230123012112/30/01 12:30:31  5-MIN KMSN 301830Z 30008G17KT 8SM -SN FEW015 OVC022 M10/M14 A3011 690 70 -2200 290/08G17 RMK AO2 P0000
14837KMSN MSN20011230123513712/30/01 12:35:31  5-MIN KMSN 301835Z 29010G17KT 260V320 8SM -SN FEW015 OVC022 M10/M14 A3011 690 70 -2200 290/10G17 260V320 RMK AO2 P0000
14837KMSN MSN20011230124011512/30/01 12:40:31  5-MIN KMSN 301840Z 27010KT 8SM -SN FEW015 OVC022 M10/M15 A3011 690 67 -2200 270/10 RMK AO2 P0000
14837KMSN MSN20011230124512112/30/01 12:45:31  5-MIN KMSN 301845Z 29012G17KT 8SM -SN FEW015 OVC022 M10/M15 A3011 690 67 -2200 290/12G17 RMK AO2 P0000
14837KMSN MSN20011230125013212/30/01 12:50:31  5-MIN KMSN 301850Z 29011KT 9SM -SN FEW015 OVC022 M10/M14 A3011 690 70 -2200 290/11 RMK AO2 SLP215 P0000 T11001144
14837KMSN MSN20011230125512112/30/01 12:55:31  5-MIN KMSN 301855Z 30012G16KT 9SM -SN FEW015 OVC022 M09/M14 A3011 690 67 -2100 290/12G16 RMK AO2 P0000
14837KMSN MSN20011230130013712/30/01 13:00:31  5-MIN KMSN 301900Z 27011G15KT 240V300 9SM -SN FEW015 OVC022 M10/M15 A3011 690 67 -2200 270/11G15 240V300 RMK AO2 P0000
14837KMSN MSN20011230130511512/30/01 13:05:31  5-MIN KMSN 301905Z 28009KT 9SM -SN FEW015 OVC022 M09/M14 A3011 690 67 -2100 280/09 RMK AO2 P0000
14837KMSN MSN20011230131011512/30/01 13:10:31  5-MIN KMSN 301910Z 28011KT 9SM -SN FEW015 OVC022 M09/M14 A3011 690 67 -2100 280/11 RMK AO2 P0000
14837KMSN MSN20011230131511612/30/01 13:15:31  5-MIN KMSN 301915Z 27011KT 10SM -SN FEW015 OVC022 M09/M14 A3011 690 67 -2100 270/11 RMK AO2 P0000
14837KMSN MSN20011230132011612/30/01 13:20:31  5-MIN KMSN 301920Z 27011KT 10SM -SN FEW015 OVC022 M09/M14 A3011 690 67 -2100 270/11 RMK AO2 P0000
14837KMSN MSN20011230132511612/30/01 13:25:31  5-MIN KMSN 301925Z 28007KT 10SM -SN FEW015 OVC022 M09/M14 A3011 690 67 -2100 280/07 RMK AO2 P0000
14837KMSN MSN20011230133011612/30/01 13:30:31  5-MIN KMSN 301930Z 27008KT 10SM -SN FEW015 OVC022 M09/M14 A3011 690 67 -2100 270/08 RMK AO2 P0000
14837KMSN MSN20011230133512212/30/01 13:35:31  5-MIN KMSN 301935Z 28009G15KT 10SM -SN FEW015 OVC022 M09/M14 A3011 690 67 -2100 280/09G15 RMK AO2 P0000
14837KMSN MSN20011230134013812/30/01 13:40:31  5-MIN KMSN 301940Z 28007G15KT 250V330 10SM -SN FEW015 OVC022 M09/M14 A3011 690 67 -2100 280/07G15 250V330 RMK AO2 P0000
14837KMSN MSN20011230134511612/30/01 13:45:31  5-MIN KMSN 301945Z 28009KT 10SM -SN FEW015 OVC022 M09/M14 A3011 690 67 -2100 280/09 RMK AO2 P0000
14837KMSN MSN20011230135013912/30/01 13:50:31  5-MIN KMSN 301950Z 28010G16KT 10SM -SN FEW015 OVC022 M09/M14 A3011 690 67 -2100 280/10G16 RMK AO2 SLP215 P0000 T10941144
14837KMSN MSN20011230135512212/30/01 13:55:31  5-MIN KMSN 301955Z 28011G16KT 10SM -SN FEW015 OVC022 M09/M14 A3011 690 70 -2100 280/11G16 RMK AO2 P0000
14837KMSN MSN20011230140011612/30/01 14:00:31  5-MIN KMSN 302000Z 29008KT 10SM -SN FEW015 OVC022 M09/M14 A3011 690 67 -2100 290/08 RMK AO2 P0000
14837KMSN MSN20011230140511612/30/01 14:05:31  5-MIN KMSN 302005Z 28007KT 10SM -SN FEW015 OVC022 M09/M14 A3011 690 67 -2000 280/07 RMK AO2 P0000
14837KMSN MSN20011230141013212/30/01 14:10:31  5-MIN KMSN 302010Z 28010KT 240V320 10SM -SN FEW015 OVC022 M09/M14 A3011 690 67 -2100 280/10 240V320 RMK AO2 P0000
14837KMSN MSN20011230141511612/30/01 14:15:31  5-MIN KMSN 302015Z 29010KT 10SM -SN FEW015 OVC022 M09/M14 A3011 690 67 -2100 290/10 RMK AO2 P0000
14837KMSN MSN20011230142011612/30/01 14:20:31  5-MIN KMSN 302020Z 30010KT 10SM -SN FEW015 OVC022 M09/M14 A3011 690 67 -2100 290/10 RMK AO2 P0000
14837KMSN MSN20011230142511612/30/01 14:25:31  5-MIN KMSN 302025Z 30009KT 10SM -SN FEW015 OVC022 M09/M14 A3011 680 67 -2100 300/09 RMK AO2 P0000
14837KMSN MSN20011230143010912/30/01 14:30:31  5-MIN KMSN 302030Z 30010KT 10SM -SN BKN022 M09/M14 A3012 680 64 -2000 300/10 RMK AO2 P0000
14837KMSN MSN20011230143510912/30/01 14:35:31  5-MIN KMSN 302035Z 28009KT 10SM -SN BKN022 M09/M14 A3012 680 67 -2000 280/09 RMK AO2 P0000
14837KMSN MSN20011230144011512/30/01 14:40:31  5-MIN KMSN 302040Z 27009G15KT 10SM -SN BKN022 M09/M14 A3012 680 67 -2000 270/09G15 RMK AO2 P0000
14837KMSN MSN20011230144511512/30/01 14:45:31  5-MIN KMSN 302045Z 28009G15KT 10SM -SN BKN022 M09/M14 A3012 680 67 -2000 280/09G15 RMK AO2 P0000
14837KMSN MSN20011230145014412/30/01 14:50:31  5-MIN KMSN 302050Z VRB06G14KT 10SM -SN BKN022 M09/M14 A3012 680 67 -2000 VRB/06G14 RMK AO2 SLP217 P0000 60000 T10891139 58006
14837KMSN MSN20011230145512512/30/01 14:55:31  5-MIN KMSN 302055Z 27008KT 240V300 10SM -SN BKN022 M09/M14 A3012 680 64 -2000 270/08 240V300 RMK AO2 P0000
14837KMSN MSN20011230150010912/30/01 15:00:31  5-MIN KMSN 302100Z 29006KT 10SM -SN BKN022 M09/M14 A3012 680 67 -2000 290/06 RMK AO2 P0000
